State,City,Zip,Location 1
MA,Stow,01775,"Stow, MA 01775
(42.428974, -71.512177)"
WA,Curlew,99118,"Curlew, WA 99118
(48.90232, -118.629039)"
PA,Pittsburgh,15212,"Pittsburgh, PA 15212
(40.467325, -80.010493)"
NC,Apex,27502,"Apex, NC 27502
(35.725388, -78.882748)"
GA,Mableton,30126,"Mableton, GA 30126
(33.816357, -84.554589)"
MN,Browerville,56438,"Browerville, MN 56438
(46.133716, -94.810719)"
CA,Westminster,92683,"Westminster, CA 92683
(33.752825, -117.994896)"
WA,Federal Way,98023,"Federal Way, WA 98023
(47.308531, -122.362029)"
AR,Dardanelle,72834,"Dardanelle, AR 72834
(35.171, -93.229517)"
WA,Seattle,98126,"Seattle, WA 98126
(47.548552, -122.374864)"
OH,Columbus,43213,"Columbus, OH 43213
(39.968864, -82.86949)"
GA,Fayetteville,30214,"Fayetteville, GA 30214
(33.487086, -84.479072)"
NY,Ossining,10562,"Ossining, NY 10562
(41.182134, -73.841562)"
PA,Reading,19608,"Reading, PA 19608
(40.312761, -76.029238)"
MO,Lees Summit,64081,"Lees Summit, MO 64081
(38.909582, -94.406713)"
NH,Claremont,03743,"Claremont, NH 03743
(43.361997, -72.334113)"
MO,Chesterfield,63017,"Chesterfield, MO 63017
(38.646904, -90.536404)"
NY,Brooklyn,11201,"Brooklyn, NY 11201
(40.695512, -73.989513)"
GA,Atlanta,30341,"Atlanta, GA 30341
(33.888615, -84.290372)"
IL,Hampshire,60140,"Hampshire, IL 60140
(42.08272, -88.500935)"
NY,Bronx,10465,"Bronx, NY 10465
(40.825915, -73.820974)"
TN,Knoxville,37920,"Knoxville, TN 37920
(35.916485, -83.87761)"
MI,Whitmore Lake,48189,"Whitmore Lake, MI 48189
(42.416486, -83.783217)"
PA,Exton,19341,"Exton, PA 19341
(40.041844, -75.640309)"
NC,Albemarle,28001,"Albemarle, NC 28001
(35.345717, -80.202692)"
OH,Cleveland,44113,"Cleveland, OH 44113
(41.483304, -81.700054)"
WI,West Bend,53090,"West Bend, WI 53090
(43.451545, -88.179037)"
SC,Rock Hill,29730,"Rock Hill, SC 29730
(34.902043, -81.010065)"
IL,Oak Park,60302,"Oak Park, IL 60302
(41.894337, -87.789611)"
CT,Glastonbury,06033,"Glastonbury, CT 06033
(41.705643, -72.560537)"
NJ,Princeton Junction,08550,"Princeton Junction, NJ 08550
(40.285977, -74.613819)"
MO,Saint Louis,63129,"Saint Louis, MO 63129
(38.466164, -90.323042)"
NH,Kingston,03848,"Kingston, NH 03848
(42.916991, -71.064063)"
TX,Cedar Park,78613,"Cedar Park, TX 78613
(30.503628, -97.824803)"
FL,Pompano Beach,33065,"Pompano Beach, FL 33065
(26.272832, -80.258679)"
CA,Roseville,95747,"Roseville, CA 95747
(38.772036, -121.346356)"
MD,Upper Marlboro,20774,"Upper Marlboro, MD 20774
(38.882889, -76.793549)"
AZ,Tucson,85719,"Tucson, AZ 85719
(32.243578, -110.948923)"
MI,Livonia,48150,"Livonia, MI 48150
(42.367494, -83.371768)"
MS,Vicksburg,39183,"Vicksburg, MS 39183
(32.412069, -90.814466)"
FL,Gainesville,32608,"Gainesville, FL 32608
(29.599968, -82.407157)"
TX,Duncanville,75137,"Duncanville, TX 75137
(32.634746, -96.911657)"
CO,Aurora,80017,"Aurora, CO 80017
(39.694963, -104.787056)"
WA,Walla Walla,99362,"Walla Walla, WA 99362
(46.081666, -118.342366)"
MS,Marks,38646,"Marks, MS 38646
(34.273952, -90.299868)"
MI,Rockford,49341,"Rockford, MI 49341
(43.122633, -85.509848)"
AL,Roanoke,36274,"Roanoke, AL 36274
(33.17738, -85.365661)"
WA,Mount Vernon,98273,"Mount Vernon, WA 98273
(48.416422, -122.355669)"
VA,Salem,24153,"Salem, VA 24153
(37.293169, -80.088868)"
NH,Manchester,03102,"Manchester, NH 03102
(42.996471, -71.48734)"
MD,Westminster,21158,"Westminster, MD 21158
(39.636641, -77.030959)"
IN,Michigan City,46360,"Michigan City, IN 46360
(41.698043, -86.880933)"
CA,Bakersfield,93309,"Bakersfield, CA 93309
(35.341212, -119.065592)"
AZ,Tucson,85747,"Tucson, AZ 85747
(32.111822, -110.765371)"
NJ,Bound Brook,08805,"Bound Brook, NJ 08805
(40.570618, -74.539874)"
MI,Marne,49435,"Marne, MI 49435
(43.030554, -85.83738)"
NJ,Ringwood,07456,"Ringwood, NJ 07456
(41.099648, -74.269369)"
VA,Winchester,22602,"Winchester, VA 22602
(39.156649, -78.248927)"
VA,Virginia Beach,23464,"Virginia Beach, VA 23464
(36.799235, -76.177819)"
GA,Lawrenceville,30043,"Lawrenceville, GA 30043
(33.99971, -84.013712)"
MS,Vicksburg,39180,"Vicksburg, MS 39180
(32.277451, -90.847873)"
NJ,Clinton,08809,"Clinton, NJ 08809
(40.642466, -74.91486)"
WA,Port Orchard,98367,"Port Orchard, WA 98367
(47.466778, -122.658901)"
NJ,Glassboro,08028,"Glassboro, NJ 08028
(39.699899, -75.11946)"
FL,Ormond Beach,32176,"Ormond Beach, FL 32176
(29.325457, -81.059501)"
MO,House Springs,63051,"House Springs, MO 63051
(38.405181, -90.564325)"
VA,Arlington,22205,"Arlington, VA 22205
(38.883854, -77.139669)"
PA,Narberth,19072,"Narberth, PA 19072
(40.021089, -75.257997)"
WV,Weirton,26062,"Weirton, WV 26062
(40.415825, -80.565276)"
CA,Hesperia,92345,"Hesperia, CA 92345
(34.415572, -117.306687)"
WV,Weirton,26062,"Weirton, WV 26062
(40.415825, -80.565276)"
CA,Hayward,94541,"Hayward, CA 94541
(37.674148, -122.087822)"
PA,Jersey Shore,17740,"Jersey Shore, PA 17740
(41.21415, -77.256277)"
NY,Tonawanda,14150,"Tonawanda, NY 14150
(42.999597, -78.867291)"
WV,Romney,26757,"Romney, WV 26757
(39.341641, -78.720298)"
TX,Grand Prairie,75052,"Grand Prairie, TX 75052
(32.671978, -97.026752)"
MD,Chevy Chase,20815,"Chevy Chase, MD 20815
(38.982537, -77.079131)"
NY,Little Falls,13365,"Little Falls, NY 13365
(43.060591, -74.847449)"
NY,Southold,11971,"Southold, NY 11971
(41.058985, -72.422945)"
IL,Chicago,60649,"Chicago, IL 60649
(41.762202, -87.571522)"
WA,Edmonds,98026,"Edmonds, WA 98026
(47.829439, -122.333046)"
CA,Windsor,95492,"Windsor, CA 95492
(38.541541, -122.809202)"
VA,Gloucester,23061,"Gloucester, VA 23061
(37.427865, -76.53844)"
TN,Nashville,37205,"Nashville, TN 37205
(36.112469, -86.867263)"
MD,Lusby,20657,"Lusby, MD 20657
(38.374211, -76.435487)"
TX,Portland,78374,"Portland, TX 78374
(27.916354, -97.301965)"
TX,Laredo,78043,"Laredo, TX 78043
(27.505852, -99.26932)"
NC,Fremont,27830,"Fremont, NC 27830
(35.548864, -77.958209)"
OH,Solon,44139,"Solon, OH 44139
(41.386354, -81.441757)"
AR,Farmington,72730,"Farmington, AR 72730
(36.033187, -94.261889)"
NY,Binghamton,13905,"Binghamton, NY 13905
(42.142291, -75.93522)"
NH,Milford,03055,"Milford, NH 03055
(42.825261, -71.667914)"
VA,Fredericksburg,22401,"Fredericksburg, VA 22401
(38.298754, -77.483128)"
FL,Milton,32571,"Milton, FL 32571
(30.647436, -87.17)"
NC,Nashville,27856,"Nashville, NC 27856
(35.989965, -77.976044)"
MD,Ijamsville,21754,"Ijamsville, MD 21754
(39.337555, -77.305634)"
CO,Colorado Springs,80918,"Colorado Springs, CO 80918
(38.912572, -104.775074)"
DC,Washington,20019,"Washington, DC 20019
(38.891575, -76.939259)"
SC,Columbia,29209,"Columbia, SC 29209
(33.961698, -80.940968)"
OH,Cincinnati,45223,"Cincinnati, OH 45223
(39.165238, -84.547839)"
SC,Clover,29710,"Clover, SC 29710
(35.106484, -81.193726)"
KY,Lexington,40503,"Lexington, KY 40503
(38.005566, -84.535153)"
NY,Syosset,11791,"Syosset, NY 11791
(40.818622, -73.502403)"
FL,Hollywood,33027,"Hollywood, FL 33027
(25.982118, -80.34059)"
PA,Bryn Mawr,19010,"Bryn Mawr, PA 19010
(40.023593, -75.328662)"
IL,Springfield,62702,"Springfield, IL 62702
(39.820114, -89.644946)"
MD,Bladensburg,20710,"Bladensburg, MD 20710
(38.941681, -76.927354)"
NY,Victor,14564,"Victor, NY 14564
(42.992095, -77.424895)"
OH,Delaware,43015,"Delaware, OH 43015
(40.290095, -83.065767)"
FL,Saint Petersburg,33711,"Saint Petersburg, FL 33711
(27.740556, -82.687412)"
MA,Arlington,02476,"Arlington, MA 02476
(42.416034, -71.176886)"
TX,Frisco,75035,"Frisco, TX 75035
(33.148007, -96.773918)"
NC,Fayetteville,28303,"Fayetteville, NC 28303
(35.08382, -78.956936)"
IA,Norwalk,50211,"Norwalk, IA 50211
(41.462357, -93.690896)"
TX,Round Rock,78681,"Round Rock, TX 78681
(30.519443, -97.718684)"
MN,Hugo,55038,"Hugo, MN 55038
(45.164938, -92.99925)"
NJ,Irvington,07111,"Irvington, NJ 07111
(40.724807, -74.231487)"
NC,Winston Salem,27101,"Winston Salem, NC 27101
(36.105055, -80.217997)"
VA,Alexandria,22312,"Alexandria, VA 22312
(38.817308, -77.153179)"
OK,Tulsa,74114,"Tulsa, OK 74114
(36.126637, -95.94467)"
CA,Santa Cruz,95065,"Santa Cruz, CA 95065
(37.022998, -121.984553)"
MD,Rockville,20850,"Rockville, MD 20850
(39.092462, -77.178614)"
CA,Redondo Beach,90278,"Redondo Beach, CA 90278
(33.87238, -118.371402)"
IA,Elberon,52225,"Elberon, IA 52225
(42.010997, -92.327216)"
ME,Bangor,04401,"Bangor, ME 04401
(44.831413, -68.821019)"
MS,Winona,38967,"Winona, MS 38967
(33.48429, -89.736978)"
CT,West Haven,06516,"West Haven, CT 06516
(41.270813, -72.965936)"
FL,Pembroke Pines,33082,"Pembroke Pines, FL 33082
(26.007689, -80.361962)"
KY,Morganfield,42437,"Morganfield, KY 42437
(37.661886, -87.912124)"
IL,Rockford,61107,"Rockford, IL 61107
(42.281496, -89.019403)"
CA,San Dimas,91773,"San Dimas, CA 91773
(34.100651, -117.814842)"
NH,Merrimack,03054,"Merrimack, NH 03054
(42.857362, -71.51436)"
NC,Maysville,28555,"Maysville, NC 28555
(34.86269, -77.237354)"
DE,Wilmington,19805,"Wilmington, DE 19805
(39.744809, -75.588638)"
CA,Eureka,95501,"Eureka, CA 95501
(40.793421, -124.157467)"
CA,Manteca,95337,"Manteca, CA 95337
(37.766311, -121.233996)"
SC,Darlington,29540,"Darlington, SC 29540
(34.379788, -79.878598)"
WA,Bremerton,98312,"Bremerton, WA 98312
(47.57271, -122.724682)"
NH,Goffstown,03045,"Goffstown, NH 03045
(43.016934, -71.562731)"
AR,North Little Rock,72118,"North Little Rock, AR 72118
(34.826501, -92.312163)"
MO,Jefferson City,65109,"Jefferson City, MO 65109
(38.56984, -92.259232)"
OH,Cleveland,44109,"Cleveland, OH 44109
(41.444908, -81.701359)"
MD,Bowie,20715,"Bowie, MD 20715
(38.980842, -76.741403)"
NY,White Plains,10606,"White Plains, NY 10606
(41.023584, -73.777334)"
LA,West Monroe,71291,"West Monroe, LA 71291
(32.535362, -92.18479)"
OH,Chagrin Falls,44022,"Chagrin Falls, OH 44022
(41.442888, -81.402077)"
MI,Fraser,48026,"Fraser, MI 48026
(42.537678, -82.950228)"
TX,Little Elm,75068,"Little Elm, TX 75068
(33.178421, -96.937143)"
FL,Kissimmee,34744,"Kissimmee, FL 34744
(28.304336, -81.352018)"
SC,Barnwell,29812,"Barnwell, SC 29812
(33.219623, -81.361057)"
OR,Gold Hill,97525,"Gold Hill, OR 97525
(42.435592, -123.078636)"
CT,Berlin,06037,"Berlin, CT 06037
(41.617558, -72.768041)"
FL,Longwood,32779,"Longwood, FL 32779
(28.708266, -81.414999)"
MI,Jackson,49201,"Jackson, MI 49201
(42.250379, -84.38673)"
VA,Fairfax,22030,"Fairfax, VA 22030
(38.844553, -77.337993)"
NC,Charlotte,28273,"Charlotte, NC 28273
(35.127074, -80.947813)"
NY,Buffalo,14223,"Buffalo, NY 14223
(42.973445, -78.845988)"
MI,Holly,48442,"Holly, MI 48442
(42.796752, -83.603984)"
PA,Philadelphia,19118,"Philadelphia, PA 19118
(40.073321, -75.209942)"
AZ,Tucson,85743,"Tucson, AZ 85743
(32.332302, -111.161103)"
PA,Sellersville,18960,"Sellersville, PA 18960
(40.362423, -75.318287)"
MD,Ellicott City,21042,"Ellicott City, MD 21042
(39.274072, -76.875159)"
KS,Lawrence,66047,"Lawrence, KS 66047
(38.901081, -95.32474)"
AR,Foreman,71836,"Foreman, AR 71836
(33.735849, -94.402709)"
NY,Buffalo,14224,"Buffalo, NY 14224
(42.836052, -78.749996)"
VT,Hinesburg,05461,"Hinesburg, VT 05461
(44.326788, -73.094218)"
MA,Westwood,02090,"Westwood, MA 02090
(42.218192, -71.207299)"
CA,Sacramento,95816,"Sacramento, CA 95816
(38.57219, -121.467691)"
MN,Spicer,56288,"Spicer, MN 56288
(45.244107, -94.940771)"
UT,Provo,84604,"Provo, UT 84604
(40.304645, -111.634286)"
PA,Meadville,16335,"Meadville, PA 16335
(41.632921, -80.155943)"
TX,Belton,76513,"Belton, TX 76513
(31.06641, -97.48871)"
MS,Diberville,39540,"Diberville, MS 39540
(30.442171, -88.898696)"
NY,Chatham,12037,"Chatham, NY 12037
(42.34325, -73.56938)"
FL,Davenport,33897,"Davenport, FL 33897
(28.300347, -81.669615)"
FL,Edgewater,32141,"Edgewater, FL 32141
(28.938871, -80.896694)"
IL,Peoria,61615,"Peoria, IL 61615
(40.775433, -89.639114)"
VA,Hampton,23669,"Hampton, VA 23669
(37.04218, -76.343109)"
AZ,Mesa,85206,"Mesa, AZ 85206
(33.399471, -111.717785)"
NY,Bronx,10473,"Bronx, NY 10473
(40.819283, -73.856919)"
HI,Mililani,96789,"Mililani, HI 96789
(21.457482, -158.005589)"
SD,Sioux Falls,57107,"Sioux Falls, SD 57107
(43.58865, -96.806738)"
MA,Plymouth,02360,"Plymouth, MA 02360
(41.886602, -70.62855)"
NC,Franklin,28734,"Franklin, NC 28734
(35.181362, -83.396618)"
NY,East Aurora,14052,"East Aurora, NY 14052
(42.770882, -78.595599)"
CA,Palm Desert,92260,"Palm Desert, CA 92260
(33.72127, -116.384343)"
CA,Riverside,92501,"Riverside, CA 92501
(33.99431, -117.370777)"
VA,Bedford,24523,"Bedford, VA 24523
(37.331231, -79.521172)"
NY,Flushing,11358,"Flushing, NY 11358
(40.760971, -73.796208)"
KS,Hays,67601,"Hays, KS 67601
(38.85847, -99.333908)"
WA,Everett,98204,"Everett, WA 98204
(47.899424, -122.255648)"
IL,Champaign,61820,"Champaign, IL 61820
(40.112597, -88.244388)"
FL,Hollywood,33019,"Hollywood, FL 33019
(26.015375, -80.123389)"
OR,South Beach,97366,"South Beach, OR 97366
(44.57736, -124.059682)"
SC,Columbia,29223,"Columbia, SC 29223
(34.076751, -80.893601)"
FL,Saint Petersburg,33710,"Saint Petersburg, FL 33710
(27.789498, -82.725048)"
CA,Orinda,94563,"Orinda, CA 94563
(37.878896, -122.181998)"
AZ,Avondale,85323,"Avondale, AZ 85323
(33.428589, -112.320299)"
IL,Belleville,62226,"Belleville, IL 62226
(38.540407, -90.00035)"
IL,Chicago,60649,"Chicago, IL 60649
(41.762202, -87.571522)"
WA,Seattle,98166,"Seattle, WA 98166
(47.45507, -122.349394)"
TN,Mount Juliet,37122,"Mount Juliet, TN 37122
(36.187906, -86.500085)"
PA,Pottstown,19465,"Pottstown, PA 19465
(40.204878, -75.663912)"
NC,Raleigh,27615,"Raleigh, NC 27615
(35.895425, -78.63613)"
IA,Iowa City,52246,"Iowa City, IA 52246
(41.651299, -91.577698)"
IL,Evanston,60202,"Evanston, IL 60202
(42.03074, -87.688934)"
VT,Bristol,05443,"Bristol, VT 05443
(44.135563, -73.045521)"
WI,Elm Grove,53122,"Elm Grove, WI 53122
(43.048311, -88.086582)"
VA,Vienna,22181,"Vienna, VA 22181
(38.899737, -77.290521)"
MA,Uxbridge,01569,"Uxbridge, MA 01569
(42.061776, -71.634285)"
NY,Mahopac,10541,"Mahopac, NY 10541
(41.373567, -73.750913)"
SC,Summerville,29483,"Summerville, SC 29483
(33.045775, -80.189049)"
IL,Marion,62959,"Marion, IL 62959
(37.716516, -88.917225)"
OH,Cleveland,44110,"Cleveland, OH 44110
(41.563976, -81.572548)"
CA,Grass Valley,95945,"Grass Valley, CA 95945
(39.204393, -120.981879)"
NY,Brooklyn,11235,"Brooklyn, NY 11235
(40.584205, -73.950101)"
HI,Pahoa,96778,"Pahoa, HI 96778
(19.474737, -154.946493)"
AZ,Chandler,85225,"Chandler, AZ 85225
(33.317153, -111.830762)"
FL,Miami,33128,"Miami, FL 33128
(25.776532, -80.203847)"
MA,Hingham,02043,"Hingham, MA 02043
(42.220535, -70.88726)"
WA,Maple Valley,98038,"Maple Valley, WA 98038
(47.393554, -122.02812)"
SC,Longs,29568,"Longs, SC 29568
(33.898071, -78.757883)"
MS,Clarksdale,38614,"Clarksdale, MS 38614
(34.169926, -90.607317)"
SC,Rock Hill,29732,"Rock Hill, SC 29732
(34.96883, -81.065495)"
NE,Hastings,68901,"Hastings, NE 68901
(40.591591, -98.388214)"
VA,Hopewell,23860,"Hopewell, VA 23860
(37.283714, -77.272356)"
NC,Holly Springs,27540,"Holly Springs, NC 27540
(35.629412, -78.843875)"
PA,Zionsville,18092,"Zionsville, PA 18092
(40.468741, -75.519019)"
MI,Linwood,48634,"Linwood, MI 48634
(43.749865, -84.04624)"
MI,Montague,49437,"Montague, MI 49437
(43.455517, -86.379159)"
NY,Kirkville,13082,"Kirkville, NY 13082
(43.098765, -75.952327)"
KY,Murray,42071,"Murray, KY 42071
(36.623316, -88.28867)"
NC,Winterville,28590,"Winterville, NC 28590
(35.530632, -77.403064)"
CA,Eureka,95503,"Eureka, CA 95503
(40.757005, -124.147251)"
OR,Beaverton,97007,"Beaverton, OR 97007
(45.463288, -122.861631)"
CA,Salinas,93908,"Salinas, CA 93908
(36.611316, -121.66841)"
NY,Buffalo,14218,"Buffalo, NY 14218
(42.818699, -78.818268)"
PA,Lansdowne,19050,"Lansdowne, PA 19050
(39.938503, -75.265639)"
FL,Hernando,34442,"Hernando, FL 34442
(28.920494, -82.399485)"
NY,Lake Grove,11755,"Lake Grove, NY 11755
(40.857024, -73.117204)"
NV,Las Vegas,89130,"Las Vegas, NV 89130
(36.254871, -115.226712)"
WY,Torrington,82240,"Torrington, WY 82240
(42.01639, -104.201953)"
MD,Potomac,20854,"Potomac, MD 20854
(39.038266, -77.203413)"
NY,New York,10025,"New York, NY 10025
(40.797862, -73.96578)"
CA,Newport Beach,92663,"Newport Beach, CA 92663
(33.623244, -117.931855)"
CA,Sacramento,95828,"Sacramento, CA 95828
(38.484836, -121.399547)"
OH,Cleveland,44110,"Cleveland, OH 44110
(41.563976, -81.572548)"
AZ,Sahuarita,85629,"Sahuarita, AZ 85629
(31.953883, -110.977704)"
CO,Englewood,80111,"Englewood, CO 80111
(39.612472, -104.881366)"
SC,Summerville,29483,"Summerville, SC 29483
(33.045775, -80.189049)"
VA,Springfield,22152,"Springfield, VA 22152
(38.775227, -77.23259)"
IL,Riverdale,60827,"Riverdale, IL 60827
(41.650765, -87.633087)"
NM,Las Cruces,88012,"Las Cruces, NM 88012
(32.480815, -106.748844)"
TX,Dallas,75248,"Dallas, TX 75248
(32.968706, -96.792632)"
WA,Seattle,98122,"Seattle, WA 98122
(47.61065, -122.303413)"
FL,Ormond Beach,32174,"Ormond Beach, FL 32174
(29.292022, -81.126181)"
KY,Louisville,40220,"Louisville, KY 40220
(38.214712, -85.620151)"
CA,Compton,90220,"Compton, CA 90220
(33.88366, -118.237067)"
WA,Lake Stevens,98258,"Lake Stevens, WA 98258
(48.016305, -122.085999)"
IL,Lake Villa,60046,"Lake Villa, IL 60046
(42.41234, -88.057183)"
MI,Waterford,48327,"Waterford, MI 48327
(42.644425, -83.411674)"
IL,Chicago,60615,"Chicago, IL 60615
(41.801993, -87.602725)"
MD,Rockville,20850,"Rockville, MD 20850
(39.092462, -77.178614)"
TX,El Paso,79925,"El Paso, TX 79925
(31.782123, -106.366004)"
FL,Miami,33186,"Miami, FL 33186
(25.658709, -80.40682)"
CA,Huntington Beach,92646,"Huntington Beach, CA 92646
(33.667231, -117.968323)"
VA,Reston,20194,"Reston, VA 20194
(38.97896, -77.346119)"
WA,Vancouver,98663,"Vancouver, WA 98663
(45.650422, -122.661302)"
MI,Alger,48610,"Alger, MI 48610
(44.143139, -84.158007)"
ME,North Waterboro,04061,"North Waterboro, ME 04061
(43.640385, -70.733535)"
AZ,Tucson,85741,"Tucson, AZ 85741
(32.335949, -111.039609)"
NV,Las Vegas,89117,"Las Vegas, NV 89117
(36.142139, -115.281961)"
MO,Carthage,64836,"Carthage, MO 64836
(37.169949, -94.295758)"
CA,Santa Rosa,95405,"Santa Rosa, CA 95405
(38.439152, -122.672541)"
MI,Sherwood,49089,"Sherwood, MI 49089
(42.01006, -85.231369)"
OR,Portland,97213,"Portland, OR 97213
(45.537521, -122.600376)"
TX,Longview,75605,"Longview, TX 75605
(32.566843, -94.73478)"
MA,Belmont,02478,"Belmont, MA 02478
(42.392841, -71.175549)"
ID,Boise,83702,"Boise, ID 83702
(43.634045, -116.200757)"
TX,Red Oak,75154,"Red Oak, TX 75154
(32.527906, -96.82136)"
MD,Ellicott City,21043,"Ellicott City, MD 21043
(39.254581, -76.799968)"
MN,Savage,55378,"Savage, MN 55378
(44.75558, -93.360101)"
ME,Limerick,04048,"Limerick, ME 04048
(43.685298, -70.777923)"
OH,Willard,44890,"Willard, OH 44890
(41.079247, -82.722211)"
MD,Baltimore,21213,"Baltimore, MD 21213
(39.314032, -76.579331)"
NC,Matthews,28105,"Matthews, NC 28105
(35.11737, -80.714752)"
MI,Byron Center,49315,"Byron Center, MI 49315
(42.8096, -85.720292)"
NY,Elmira,14904,"Elmira, NY 14904
(42.071696, -76.804105)"
OH,Willard,44890,"Willard, OH 44890
(41.079247, -82.722211)"
PA,King Of Prussia,19406,"King Of Prussia, PA 19406
(40.093249, -75.38198)"
MN,Hastings,55033,"Hastings, MN 55033
(44.718403, -92.862984)"
CA,Visalia,93291,"Visalia, CA 93291
(36.356493, -119.354121)"
MD,Silver Spring,20910,"Silver Spring, MD 20910
(39.001851, -77.034885)"
TN,Knoxville,37921,"Knoxville, TN 37921
(35.97667, -83.988787)"
FL,Jacksonville,32209,"Jacksonville, FL 32209
(30.358292, -81.692344)"
ID,Eagle,83616,"Eagle, ID 83616
(43.719807, -116.379733)"
MD,Frederick,21703,"Frederick, MD 21703
(39.382213, -77.457141)"
GA,Conyers,30013,"Conyers, GA 30013
(33.633811, -83.98143)"
IA,Webster City,50595,"Webster City, IA 50595
(42.463274, -93.822009)"
WA,Seattle,98105,"Seattle, WA 98105
(47.663771, -122.298657)"
IL,Moline,61265,"Moline, IL 61265
(41.486327, -90.49526)"
CA,San Jose,95122,"San Jose, CA 95122
(37.329377, -121.835218)"
NJ,Beachwood,08722,"Beachwood, NJ 08722
(39.929992, -74.198133)"
OR,Elgin,97827,"Elgin, OR 97827
(45.699909, -117.928587)"
TX,Spicewood,78669,"Spicewood, TX 78669
(30.431305, -98.097163)"
KY,Frankfort,40601,"Frankfort, KY 40601
(38.207497, -84.876417)"
MS,Terry,39170,"Terry, MS 39170
(32.118142, -90.331741)"
AZ,Gilbert,85297,"Gilbert, AZ 85297
(33.277195, -111.725908)"
NY,Trumansburg,14886,"Trumansburg, NY 14886
(42.509918, -76.681095)"
AL,Fort Rucker,36362,"Fort Rucker, AL 36362
(31.354341, -85.718543)"
MS,Vicksburg,39180,"Vicksburg, MS 39180
(32.277451, -90.847873)"
NY,Pearl River,10965,"Pearl River, NY 10965
(41.062283, -74.014437)"
FL,Fort Lauderdale,33319,"Fort Lauderdale, FL 33319
(26.183269, -80.225408)"
CT,West Simsbury,06092,"West Simsbury, CT 06092
(41.864288, -72.858543)"
WI,Neenah,54956,"Neenah, WI 54956
(44.184145, -88.502076)"
MD,Dunkirk,20754,"Dunkirk, MD 20754
(38.739804, -76.651474)"
MD,Chevy Chase,20815,"Chevy Chase, MD 20815
(38.982537, -77.079131)"
MD,Edgewood,21040,"Edgewood, MD 21040
(39.431781, -76.300499)"
IA,Le Claire,52753,"Le Claire, IA 52753
(41.613557, -90.378456)"
TX,Leander,78645,"Leander, TX 78645
(30.450977, -97.976433)"
OH,Wellington,44090,"Wellington, OH 44090
(41.166952, -82.226748)"
TX,Webster,77598,"Webster, TX 77598
(29.540146, -95.136635)"
MD,Columbia,21045,"Columbia, MD 21045
(39.205278, -76.827645)"
GA,Conyers,30094,"Conyers, GA 30094
(33.614319, -84.049907)"
NY,New York,10033,"New York, NY 10033
(40.849955, -73.936182)"
CA,Sacramento,95838,"Sacramento, CA 95838
(38.642566, -121.442478)"
TN,Ooltewah,37363,"Ooltewah, TN 37363
(35.095049, -85.075731)"
NY,Watertown,13601,"Watertown, NY 13601
(43.977155, -75.916148)"
CA,Salinas,93907,"Salinas, CA 93907
(36.771091, -121.664391)"
WI,Beloit,53511,"Beloit, WI 53511
(42.536877, -89.059679)"
MN,Adrian,56110,"Adrian, MN 56110
(43.615606, -95.933438)"
VA,Fredericksburg,22408,"Fredericksburg, VA 22408
(38.233532, -77.462084)"
KS,Manhattan,66502,"Manhattan, KS 66502
(39.171709, -96.557276)"
MO,Saint Louis,63120,"Saint Louis, MO 63120
(38.69188, -90.260056)"
FL,Jasper,32052,"Jasper, FL 32052
(30.483344, -82.958184)"
OH,Cleveland,44128,"Cleveland, OH 44128
(41.438483, -81.544909)"
AR,Little Rock,72204,"Little Rock, AR 72204
(34.725187, -92.348886)"
IN,Fort Wayne,46825,"Fort Wayne, IN 46825
(41.153535, -85.125471)"
MI,New Baltimore,48047,"New Baltimore, MI 48047
(42.675261, -82.77923)"
MD,Silver Spring,20903,"Silver Spring, MD 20903
(39.016139, -76.982897)"
MD,Hyattsville,20781,"Hyattsville, MD 20781
(38.944165, -76.934531)"
MO,Pacific,63069,"Pacific, MO 63069
(38.485166, -90.735457)"
GA,Tallapoosa,30176,"Tallapoosa, GA 30176
(33.756613, -85.297519)"
NY,Bronx,10457,"Bronx, NY 10457
(40.846788, -73.899203)"
NY,Jamaica,11434,"Jamaica, NY 11434
(40.676003, -73.775656)"
NC,Chapel Hill,27516,"Chapel Hill, NC 27516
(35.913829, -79.126787)"
CA,Fair Oaks,95628,"Fair Oaks, CA 95628
(38.655104, -121.259702)"
VT,Stowe,05672,"Stowe, VT 05672
(44.476364, -72.705388)"
NC,Durham,27703,"Durham, NC 27703
(35.962856, -78.827304)"
RI,Providence,02906,"Providence, RI 02906
(41.837622, -71.394468)"
GA,Douglasville,30134,"Douglasville, GA 30134
(33.773718, -84.77099)"
NY,Islandia,11749,"Islandia, NY 11749
(40.807149, -73.173128)"
TX,San Antonio,78233,"San Antonio, TX 78233
(29.553181, -98.366284)"
NC,Durham,27703,"Durham, NC 27703
(35.962856, -78.827304)"
FL,Jacksonville,32218,"Jacksonville, FL 32218
(30.462007, -81.66104)"
CA,Mcclellan,95652,"Mcclellan, CA 95652
(38.660631, -121.3997)"
WA,Sammamish,98075,"Sammamish, WA 98075
(47.586173, -122.028168)"
CA,Bakersfield,93307,"Bakersfield, CA 93307
(35.277962, -118.942809)"
CA,El Sobrante,94803,"El Sobrante, CA 94803
(37.966915, -122.289275)"
IA,Cedar Rapids,52402,"Cedar Rapids, IA 52402
(42.022021, -91.657619)"
CA,Martinez,94553,"Martinez, CA 94553
(37.990808, -122.129782)"
AL,Piedmont,36272,"Piedmont, AL 36272
(33.94718, -85.612684)"
PA,Philadelphia,19149,"Philadelphia, PA 19149
(40.037126, -75.066369)"
NC,Holly Springs,27540,"Holly Springs, NC 27540
(35.629412, -78.843875)"
NY,Brooklyn,11206,"Brooklyn, NY 11206
(40.702178, -73.9424)"
FL,Lake Worth,33467,"Lake Worth, FL 33467
(26.593714, -80.173599)"
FL,Ocoee,34761,"Ocoee, FL 34761
(28.575337, -81.533031)"
IN,Crawfordsville,47933,"Crawfordsville, IN 47933
(40.02823, -86.91758)"
NC,Columbus,28722,"Columbus, NC 28722
(35.244373, -82.140098)"
NC,Ernul,28527,"Ernul, NC 28527
(35.254311, -77.026308)"
CA,Orinda,94563,"Orinda, CA 94563
(37.878896, -122.181998)"
MO,Puxico,63960,"Puxico, MO 63960
(36.948729, -90.128614)"
ME,Bangor,04401,"Bangor, ME 04401
(44.831413, -68.821019)"
WA,Port Orchard,98367,"Port Orchard, WA 98367
(47.466778, -122.658901)"
AZ,Cave Creek,85331,"Cave Creek, AZ 85331
(33.800559, -111.9586)"
TN,Memphis,38187,"Memphis, TN 38187
(35.143378, -90.052136)"
MA,Falmouth,02540,"Falmouth, MA 02540
(41.569616, -70.625543)"
MN,Minneapolis,55410,"Minneapolis, MN 55410
(44.91214, -93.319603)"
MA,Mattapoisett,02739,"Mattapoisett, MA 02739
(41.661729, -70.813237)"
TX,Converse,78109,"Converse, TX 78109
(29.493075, -98.306925)"
IN,West Lafayette,47906,"West Lafayette, IN 47906
(40.473144, -86.958662)"
MO,Rolla,65401,"Rolla, MO 65401
(37.916461, -91.760047)"
CA,Compton,90220,"Compton, CA 90220
(33.88366, -118.237067)"
MN,Pine River,56474,"Pine River, MN 56474
(46.706607, -94.427428)"
IL,Chicago,60649,"Chicago, IL 60649
(41.762202, -87.571522)"
CA,Pasadena,91104,"Pasadena, CA 91104
(34.167532, -118.123296)"
OH,Cincinnati,45239,"Cincinnati, OH 45239
(39.206779, -84.579207)"
MI,Muskegon,49441,"Muskegon, MI 49441
(43.191862, -86.272098)"
OR,Dallas,97338,"Dallas, OR 97338
(44.929213, -123.334308)"
SC,Columbia,29223,"Columbia, SC 29223
(34.076751, -80.893601)"
NM,Albuquerque,87114,"Albuquerque, NM 87114
(35.195345, -106.690988)"
IA,Des Moines,50316,"Des Moines, IA 50316
(41.608094, -93.5982)"
SC,Mount Pleasant,29464,"Mount Pleasant, SC 29464
(32.816861, -79.85948)"
MD,Gaithersburg,20878,"Gaithersburg, MD 20878
(39.114215, -77.239673)"
GA,Dacula,30019,"Dacula, GA 30019
(33.993852, -83.892352)"
WI,Highland,53543,"Highland, WI 53543
(43.056261, -90.35763)"
GA,Douglasville,30135,"Douglasville, GA 30135
(33.687895, -84.739993)"
AL,Gurley,35748,"Gurley, AL 35748
(34.713984, -86.38947)"
NV,Las Vegas,89138,"Las Vegas, NV 89138
(36.168021, -115.350227)"
NC,Cary,27511,"Cary, NC 27511
(35.764148, -78.783777)"
IA,Carson,51525,"Carson, IA 51525
(41.228629, -95.410359)"
MO,Kansas City,64152,"Kansas City, MO 64152
(39.22016, -94.711625)"
TN,Clarksville,37042,"Clarksville, TN 37042
(36.581576, -87.405813)"
MD,Laurel,20707,"Laurel, MD 20707
(39.095976, -76.876305)"
NM,Albuquerque,87112,"Albuquerque, NM 87112
(35.101376, -106.519264)"
OK,Blanchard,73010,"Blanchard, OK 73010
(35.123964, -97.668339)"
MO,Washington,63090,"Washington, MO 63090
(38.53196, -91.029622)"
MO,Columbia,65203,"Columbia, MO 65203
(38.917169, -92.380274)"
MD,Bel Air,21015,"Bel Air, MD 21015
(39.534103, -76.303177)"
IA,Cedar Rapids,52404,"Cedar Rapids, IA 52404
(41.935555, -91.691484)"
MI,Rockford,49341,"Rockford, MI 49341
(43.122633, -85.509848)"
CT,South Windsor,06074,"South Windsor, CT 06074
(41.833072, -72.562876)"
CA,Pomona,91766,"Pomona, CA 91766
(34.041351, -117.756366)"
NC,Hays,28635,"Hays, NC 28635
(36.305817, -81.123314)"
ID,Sandpoint,83864,"Sandpoint, ID 83864
(48.360512, -116.489178)"
MI,Grand Blanc,48439,"Grand Blanc, MI 48439
(42.921221, -83.633645)"
NC,Pittsboro,27312,"Pittsboro, NC 27312
(35.762873, -79.184988)"
MI,Empire,49630,"Empire, MI 49630
(44.908624, -86.017493)"
PA,Philadelphia,19143,"Philadelphia, PA 19143
(39.944215, -75.227712)"
CO,Aurora,80011,"Aurora, CO 80011
(39.74187, -104.799113)"
MA,Leominster,01453,"Leominster, MA 01453
(42.525586, -71.753444)"
MA,Yarmouth Port,02675,"Yarmouth Port, MA 02675
(41.70462, -70.22569)"
IL,Chicago,60607,"Chicago, IL 60607
(41.876104, -87.652727)"
GA,Savannah,31405,"Savannah, GA 31405
(32.04199, -81.144663)"
SC,Bluffton,29910,"Bluffton, SC 29910
(32.249675, -80.891708)"
TX,Georgetown,78628,"Georgetown, TX 78628
(30.652485, -97.725109)"
MI,Detroit,48235,"Detroit, MI 48235
(42.427676, -83.195369)"
WI,Wisconsin Dells,53965,"Wisconsin Dells, WI 53965
(43.6662, -89.766763)"
MI,Charlotte,48813,"Charlotte, MI 48813
(42.577336, -84.836428)"
NY,New City,10956,"New City, NY 10956
(41.15036, -73.995074)"
MD,Glenwood,21738,"Glenwood, MD 21738
(39.278487, -77.023735)"
OH,Youngstown,44512,"Youngstown, OH 44512
(41.029452, -80.66571)"
IL,Mount Prospect,60056,"Mount Prospect, IL 60056
(42.065802, -87.934634)"
PA,Southampton,18966,"Southampton, PA 18966
(40.188372, -75.007224)"
MA,Winchester,01890,"Winchester, MA 01890
(42.45183, -71.145092)"
CO,Aurora,80015,"Aurora, CO 80015
(39.622871, -104.772908)"
IL,Aurora,60506,"Aurora, IL 60506
(41.767499, -88.35725)"
OR,Cove,97824,"Cove, OR 97824
(45.344681, -117.847382)"
VT,East Wallingford,05742,"East Wallingford, VT 05742
(43.440335, -72.882328)"
NY,Merrick,11566,"Merrick, NY 11566
(40.668671, -73.555545)"
NJ,New Brunswick,08901,"New Brunswick, NJ 08901
(40.48739, -74.444453)"
WI,Potosi,53820,"Potosi, WI 53820
(42.699448, -90.708589)"
WA,Northport,99157,"Northport, WA 99157
(48.926444, -117.799334)"
AL,Vance,35490,"Vance, AL 35490
(33.20982, -87.2376)"
OH,Youngstown,44512,"Youngstown, OH 44512
(41.029452, -80.66571)"
UT,Draper,84020,"Draper, UT 84020
(40.503754, -111.870521)"
PA,Devon,19333,"Devon, PA 19333
(40.044701, -75.423443)"
NY,Rochester,14615,"Rochester, NY 14615
(43.204816, -77.65384)"
NM,Los Lunas,87031,"Los Lunas, NM 87031
(34.782272, -106.714052)"
AZ,Paradise Valley,85253,"Paradise Valley, AZ 85253
(33.546232, -111.957857)"
AL,Bessemer,35020,"Bessemer, AL 35020
(33.405847, -86.952715)"
CA,La Canada Flintridge,91011,"La Canada Flintridge, CA 91011
(34.217407, -118.171447)"
WA,Orting,98360,"Orting, WA 98360
(47.053962, -122.16684)"
NY,Albany,12208,"Albany, NY 12208
(42.655144, -73.803265)"
FL,Gainesville,32608,"Gainesville, FL 32608
(29.599968, -82.407157)"
MD,Rockville,20850,"Rockville, MD 20850
(39.092462, -77.178614)"
TX,Cypress,77429,"Cypress, TX 77429
(29.980858, -95.655042)"
VA,Mc Lean,22102,"Mc Lean, VA 22102
(38.940745, -77.223918)"
AZ,Phoenix,85051,"Phoenix, AZ 85051
(33.558782, -112.134035)"
FL,Atlantic Beach,32233,"Atlantic Beach, FL 32233
(30.348361, -81.41331)"
CT,North Haven,06473,"North Haven, CT 06473
(41.382158, -72.858204)"
NY,Central Islip,11722,"Central Islip, NY 11722
(40.783771, -73.198651)"
TX,San Antonio,78244,"San Antonio, TX 78244
(29.478225, -98.351566)"
IN,Rochester,46975,"Rochester, IN 46975
(41.072493, -86.244818)"
NC,Fayetteville,28311,"Fayetteville, NC 28311
(35.143971, -78.891986)"
FL,Lake Worth,33467,"Lake Worth, FL 33467
(26.593714, -80.173599)"
FL,Bradenton,34209,"Bradenton, FL 34209
(27.49079, -82.631322)"
WI,Thiensville,53092,"Thiensville, WI 53092
(43.221102, -87.950178)"
MS,Hattiesburg,39401,"Hattiesburg, MS 39401
(31.257368, -89.27971)"
NY,Callicoon,12723,"Callicoon, NY 12723
(41.77339, -75.022744)"
AL,Mobile,36610,"Mobile, AL 36610
(30.735355, -88.077977)"
MA,Springfield,01119,"Springfield, MA 01119
(42.126442, -72.510742)"
MD,Hampstead,21074,"Hampstead, MD 21074
(39.615656, -76.85221)"
CA,Meadow Vista,95722,"Meadow Vista, CA 95722
(39.00233, -121.028281)"
ID,Boise,83716,"Boise, ID 83716
(43.604511, -115.861197)"
TN,Murfreesboro,37130,"Murfreesboro, TN 37130
(35.8678, -86.353701)"
CO,Littleton,80128,"Littleton, CO 80128
(39.575718, -105.080337)"
NY,East Amherst,14051,"East Amherst, NY 14051
(43.031514, -78.70261)"
MS,Vicksburg,39183,"Vicksburg, MS 39183
(32.412069, -90.814466)"
NC,Cherokee,28719,"Cherokee, NC 28719
(35.569262, -83.237371)"
WA,Lakewood,98498,"Lakewood, WA 98498
(47.162344, -122.55645)"
GA,Lawrenceville,30044,"Lawrenceville, GA 30044
(33.922467, -84.067142)"
VA,Norfolk,23513,"Norfolk, VA 23513
(36.889665, -76.238825)"
NY,Massapequa,11758,"Massapequa, NY 11758
(40.682417, -73.460296)"
IL,Moline,61265,"Moline, IL 61265
(41.486327, -90.49526)"
FL,Tampa,33624,"Tampa, FL 33624
(28.076582, -82.525688)"
PA,Jacobs Creek,15448,"Jacobs Creek, PA 15448
(40.133137, -79.741633)"
MD,Silver Spring,20901,"Silver Spring, MD 20901
(39.020211, -77.009764)"
FL,Clearwater,33756,"Clearwater, FL 33756
(27.945621, -82.788189)"
WI,Madison,53711,"Madison, WI 53711
(43.026007, -89.43939)"
AR,Nashville,71852,"Nashville, AR 71852
(34.006371, -93.864801)"
IL,Carol Stream,60188,"Carol Stream, IL 60188
(41.916511, -88.13389)"
KS,Valley Center,67147,"Valley Center, KS 67147
(37.857831, -97.316016)"
NH,Merrimack,03054,"Merrimack, NH 03054
(42.857362, -71.51436)"
GA,Fairmount,30139,"Fairmount, GA 30139
(34.434075, -84.701632)"
PA,West Chester,19380,"West Chester, PA 19380
(39.987441, -75.599334)"
FL,Jacksonville,32205,"Jacksonville, FL 32205
(30.30609, -81.723012)"
NY,Endicott,13760,"Endicott, NY 13760
(42.119277, -76.063761)"
FL,Bonita Springs,34135,"Bonita Springs, FL 34135
(26.355009, -81.763678)"
CA,Highland,92346,"Highland, CA 92346
(34.123358, -117.193375)"
NE,Papillion,68046,"Papillion, NE 68046
(41.13885, -96.05067)"
CA,Costa Mesa,92626,"Costa Mesa, CA 92626
(33.680292, -117.907909)"
IL,Saint Anne,60964,"Saint Anne, IL 60964
(41.042172, -87.737594)"
FL,Fort Lauderdale,33314,"Fort Lauderdale, FL 33314
(26.068438, -80.224105)"
TX,Mansfield,76063,"Mansfield, TX 76063
(32.578382, -97.131634)"
CA,Menlo Park,94025,"Menlo Park, CA 94025
(37.453057, -122.182022)"
NY,Port Ewen,12466,"Port Ewen, NY 12466
(41.906048, -73.981399)"
PA,Morgantown,19543,"Morgantown, PA 19543
(40.168956, -75.892401)"
PA,Downingtown,19335,"Downingtown, PA 19335
(40.022981, -75.719561)"
CA,Garden Grove,92841,"Garden Grove, CA 92841
(33.78727, -117.978971)"
IL,Olympia Fields,60461,"Olympia Fields, IL 60461
(41.5176, -87.691491)"
WA,Seattle,98117,"Seattle, WA 98117
(47.687571, -122.379354)"
IA,Grimes,50111,"Grimes, IA 50111
(41.683934, -93.789256)"
MN,Saint Paul,55118,"Saint Paul, MN 55118
(44.89895, -93.105741)"
CO,Denver,80219,"Denver, CO 80219
(39.696096, -105.034969)"
CA,Indio,92201,"Indio, CA 92201
(33.711551, -116.236141)"
FL,Tampa,33635,"Tampa, FL 33635
(28.029203, -82.609813)"
WA,Puyallup,98375,"Puyallup, WA 98375
(47.103797, -122.321062)"
WA,Auburn,98002,"Auburn, WA 98002
(47.305093, -122.216415)"
NY,Center Moriches,11934,"Center Moriches, NY 11934
(40.803541, -72.795143)"
OK,Okmulgee,74447,"Okmulgee, OK 74447
(35.651974, -95.988809)"
SC,Summerville,29485,"Summerville, SC 29485
(32.970587, -80.176647)"
NY,Le Roy,14482,"Le Roy, NY 14482
(42.982287, -77.976211)"
CA,Nevada City,95959,"Nevada City, CA 95959
(39.316417, -120.953153)"
MD,Dunkirk,20754,"Dunkirk, MD 20754
(38.739804, -76.651474)"
GA,Jackson,30233,"Jackson, GA 30233
(33.291902, -83.977249)"
OR,Eugene,97402,"Eugene, OR 97402
(44.056548, -123.191955)"
PA,Sayre,18840,"Sayre, PA 18840
(41.979023, -76.510157)"
NC,Charlotte,28206,"Charlotte, NC 28206
(35.254783, -80.824083)"
WI,La Farge,54639,"La Farge, WI 54639
(43.607392, -90.643388)"
MD,Brookeville,20833,"Brookeville, MD 20833
(39.194543, -77.056053)"
WI,Grafton,53024,"Grafton, WI 53024
(43.327163, -87.938668)"
CA,Forest Knolls,94933,"Forest Knolls, CA 94933
(38.012837, -122.688011)"
CA,San Diego,92106,"San Diego, CA 92106
(32.722892, -117.231456)"
VA,Martinsville,24112,"Martinsville, VA 24112
(36.701041, -79.863353)"
VA,South Hill,23970,"South Hill, VA 23970
(36.737951, -78.173704)"
FL,Marathon,33050,"Marathon, FL 33050
(24.741743, -81.001901)"
GA,Alpharetta,30004,"Alpharetta, GA 30004
(34.133522, -84.292664)"
OH,Youngstown,44512,"Youngstown, OH 44512
(41.029452, -80.66571)"
PA,Pipersville,18947,"Pipersville, PA 18947
(40.425103, -75.114414)"
NC,Goldsboro,27530,"Goldsboro, NC 27530
(35.384001, -78.039197)"
MI,Grand Rapids,49506,"Grand Rapids, MI 49506
(42.943891, -85.616721)"
GA,Rex,30273,"Rex, GA 30273
(33.582621, -84.27465)"
IL,Bloomington,61704,"Bloomington, IL 61704
(40.477367, -88.944615)"
ID,Boise,83716,"Boise, ID 83716
(43.604511, -115.861197)"
NY,New York,10035,"New York, NY 10035
(40.798236, -73.932194)"
CT,W Hartford,06117,"W Hartford, CT 06117
(41.789928, -72.749178)"
VA,Herndon,20170,"Herndon, VA 20170
(38.979271, -77.381169)"
WA,Everson,98247,"Everson, WA 98247
(48.904379, -122.330242)"
CA,Sacramento,95822,"Sacramento, CA 95822
(38.513021, -121.495324)"
NC,Wrightsville Beach,28480,"Wrightsville Beach, NC 28480
(34.212135, -77.798685)"
OR,Coos Bay,97420,"Coos Bay, OR 97420
(43.350712, -124.180842)"
NM,Loving,88256,"Loving, NM 88256
(32.202909, -103.975827)"
WA,Bothell,98021,"Bothell, WA 98021
(47.792368, -122.212105)"
NC,Mooresville,28115,"Mooresville, NC 28115
(35.581093, -80.787995)"
NY,Vernon,13476,"Vernon, NY 13476
(43.08415, -75.514002)"
MA,Sterling,01564,"Sterling, MA 01564
(42.440281, -71.769168)"
OR,Portland,97213,"Portland, OR 97213
(45.537521, -122.600376)"
NY,Purling,12470,"Purling, NY 12470
(42.282257, -74.024364)"
NY,Buffalo,14223,"Buffalo, NY 14223
(42.973445, -78.845988)"
NC,Laurinburg,28353,"Laurinburg, NC 28353
(34.77, -79.46)"
TX,Frisco,75034,"Frisco, TX 75034
(33.127248, -96.855555)"
IN,Edinburgh,46124,"Edinburgh, IN 46124
(39.364494, -85.941157)"
VT,Stowe,05672,"Stowe, VT 05672
(44.476364, -72.705388)"
PA,Ambler,19002,"Ambler, PA 19002
(40.178532, -75.211988)"
PA,Lancaster,17603,"Lancaster, PA 17603
(40.02461, -76.342387)"
MD,Potomac,20854,"Potomac, MD 20854
(39.038266, -77.203413)"
CT,East Hartford,06108,"East Hartford, CT 06108
(41.778311, -72.620113)"
CT,Waterbury,06708,"Waterbury, CT 06708
(41.552034, -73.063965)"
FL,Saint Petersburg,33707,"Saint Petersburg, FL 33707
(27.757258, -82.720236)"
RI,Providence,02909,"Providence, RI 02909
(41.817798, -71.449051)"
MI,South Boardman,49680,"South Boardman, MI 49680
(44.640868, -85.256721)"
MD,Olney,20832,"Olney, MD 20832
(39.152328, -77.073205)"
DC,Washington,20002,"Washington, DC 20002
(38.904734, -76.988642)"
TX,Fort Worth,76137,"Fort Worth, TX 76137
(32.863673, -97.289799)"
ME,Bangor,04401,"Bangor, ME 04401
(44.831413, -68.821019)"
LA,Monroe,71202,"Monroe, LA 71202
(32.432164, -92.076397)"
FL,Tampa,33618,"Tampa, FL 33618
(28.071373, -82.498872)"
MA,Wayland,01778,"Wayland, MA 01778
(42.352355, -71.356892)"
MA,North Adams,01247,"North Adams, MA 01247
(42.696556, -73.09857)"
NC,Sunbury,27979,"Sunbury, NC 27979
(36.428234, -76.585354)"
CA,San Diego,92128,"San Diego, CA 92128
(32.99986, -117.073175)"
GA,Stockbridge,30281,"Stockbridge, GA 30281
(33.554092, -84.211189)"
CT,South Glastonbury,06073,"South Glastonbury, CT 06073
(41.65971, -72.570587)"
VA,Salem,24153,"Salem, VA 24153
(37.293169, -80.088868)"
PA,Mechanicsburg,17050,"Mechanicsburg, PA 17050
(40.248393, -77.011481)"
KY,Louisville,40205,"Louisville, KY 40205
(38.223485, -85.682857)"
PA,Philadelphia,19139,"Philadelphia, PA 19139
(39.961704, -75.22974)"
OH,Youngstown,44512,"Youngstown, OH 44512
(41.029452, -80.66571)"
NY,Cohocton,14826,"Cohocton, NY 14826
(42.490952, -77.496964)"
NJ,New Brunswick,08901,"New Brunswick, NJ 08901
(40.48739, -74.444453)"
NE,Omaha,68138,"Omaha, NE 68138
(41.169986, -96.13544)"
NY,Port Crane,13833,"Port Crane, NY 13833
(42.190693, -75.776648)"
TX,Orange,77630,"Orange, TX 77630
(30.086238, -93.810175)"
MD,Frederick,21702,"Frederick, MD 21702
(39.461767, -77.448244)"
WI,Milwaukee,53216,"Milwaukee, WI 53216
(43.086727, -87.976064)"
NC,Fayetteville,28301,"Fayetteville, NC 28301
(35.070995, -78.885023)"
SC,Simpsonville,29681,"Simpsonville, SC 29681
(34.772136, -82.234393)"
NC,Smithfield,27577,"Smithfield, NC 27577
(35.505294, -78.349483)"
MO,Saint Louis,63119,"Saint Louis, MO 63119
(38.588208, -90.351101)"
MA,New Bedford,02740,"New Bedford, MA 02740
(41.636061, -70.938743)"
SC,Timmonsville,29161,"Timmonsville, SC 29161
(34.112514, -79.938002)"
CA,Lompoc,93436,"Lompoc, CA 93436
(34.624957, -120.42032)"
NJ,Secaucus,07094,"Secaucus, NJ 07094
(40.784818, -74.062792)"
CA,Antelope,95843,"Antelope, CA 95843
(38.715607, -121.364445)"
WI,Sauk City,53583,"Sauk City, WI 53583
(43.260283, -89.770542)"
VA,Fredericksburg,22405,"Fredericksburg, VA 22405
(38.31737, -77.421352)"
IL,Flossmoor,60422,"Flossmoor, IL 60422
(41.538878, -87.684751)"
OH,Cincinnati,45238,"Cincinnati, OH 45238
(39.111266, -84.610187)"
RI,Pascoag,02859,"Pascoag, RI 02859
(41.967779, -71.730678)"
NJ,Flemington,08822,"Flemington, NJ 08822
(40.518926, -74.856353)"
HI,Honolulu,96825,"Honolulu, HI 96825
(21.291605, -157.693128)"
NJ,Jackson,08527,"Jackson, NJ 08527
(40.119851, -74.328492)"
CA,Garden Grove,92840,"Garden Grove, CA 92840
(33.786208, -117.93292)"
FL,Panama City,32404,"Panama City, FL 32404
(30.191885, -85.526994)"
TX,The Colony,75056,"The Colony, TX 75056
(33.073224, -96.892814)"
CT,Branford,06405,"Branford, CT 06405
(41.281929, -72.804025)"
ME,Waldoboro,04572,"Waldoboro, ME 04572
(44.108855, -69.370265)"
MI,Martin,49070,"Martin, MI 49070
(42.539591, -85.631423)"
CA,Agoura Hills,91301,"Agoura Hills, CA 91301
(34.132842, -118.760077)"
FL,Melbourne,32940,"Melbourne, FL 32940
(28.227977, -80.7031)"
OH,Euclid,44123,"Euclid, OH 44123
(41.601861, -81.525366)"
NY,Stony Brook,11790,"Stony Brook, NY 11790
(40.903493, -73.125725)"
AZ,Phoenix,85008,"Phoenix, AZ 85008
(33.465313, -111.994608)"
PA,Perkasie,18944,"Perkasie, PA 18944
(40.38383, -75.2424)"
WA,Toledo,98591,"Toledo, WA 98591
(46.444012, -122.800917)"
ME,Columbia Falls,04623,"Columbia Falls, ME 04623
(44.680589, -67.756606)"
WA,Tacoma,98418,"Tacoma, WA 98418
(47.223022, -122.447436)"
GA,Kennesaw,30144,"Kennesaw, GA 30144
(34.038975, -84.590699)"
IA,Ankeny,50021,"Ankeny, IA 50021
(41.728114, -93.577855)"
NY,New York,10023,"New York, NY 10023
(40.774705, -73.980101)"
NV,Reno,89523,"Reno, NV 89523
(39.529494, -119.904167)"
WV,Charleston,25312,"Charleston, WV 25312
(38.453964, -81.653701)"
TX,Fort Worth,76179,"Fort Worth, TX 76179
(32.8862, -97.414151)"
AL,Mobile,36610,"Mobile, AL 36610
(30.735355, -88.077977)"
TX,Lancaster,75134,"Lancaster, TX 75134
(32.621616, -96.785453)"
KS,Shawnee Mission,66202,"Shawnee Mission, KS 66202
(39.0232, -94.667124)"
CA,Chico,95926,"Chico, CA 95926
(39.74539, -121.845089)"
TX,Dripping Springs,78620,"Dripping Springs, TX 78620
(30.223679, -98.119536)"
CT,East Hampton,06424,"East Hampton, CT 06424
(41.563306, -72.506557)"
WI,Manitowoc,54220,"Manitowoc, WI 54220
(44.09877, -87.709705)"
MO,Dexter,63841,"Dexter, MO 63841
(36.780439, -89.974364)"
IL,Chicago,60630,"Chicago, IL 60630
(41.971261, -87.759611)"
UT,West Jordan,84084,"West Jordan, UT 84084
(40.621652, -111.961537)"
NJ,Hazlet,07730,"Hazlet, NJ 07730
(40.424165, -74.179095)"
FL,Tampa,33611,"Tampa, FL 33611
(27.891079, -82.505517)"
NH,Wolfeboro,03894,"Wolfeboro, NH 03894
(43.603004, -71.183336)"
IL,Chicago,60643,"Chicago, IL 60643
(41.700445, -87.662381)"
CT,Thomaston,06787,"Thomaston, CT 06787
(41.670686, -73.084926)"
PA,Le Raysville,18829,"Le Raysville, PA 18829
(41.845212, -76.176649)"
TX,Houston,77017,"Houston, TX 77017
(29.686359, -95.255671)"
CT,Simsbury,06070,"Simsbury, CT 06070
(41.876814, -72.819582)"
MD,Bethesda,20817,"Bethesda, MD 20817
(38.998099, -77.143306)"
CA,Perris,92570,"Perris, CA 92570
(33.791884, -117.3011)"
TN,Cornersville,37047,"Cornersville, TN 37047
(35.324875, -86.844102)"
CA,Garden Grove,92840,"Garden Grove, CA 92840
(33.786208, -117.93292)"
NY,Brooklyn,11226,"Brooklyn, NY 11226
(40.646154, -73.956721)"
NC,Wilmington,28403,"Wilmington, NC 28403
(34.221905, -77.88106)"
PA,Slatington,18080,"Slatington, PA 18080
(40.73296, -75.625169)"
NY,Canton,13617,"Canton, NY 13617
(44.58107, -75.1409)"
IL,Morris,60450,"Morris, IL 60450
(41.371257, -88.434506)"
NV,Henderson,89014,"Henderson, NV 89014
(36.060617, -115.059879)"
VA,Fairfax,22030,"Fairfax, VA 22030
(38.844553, -77.337993)"
NJ,Plainfield,07060,"Plainfield, NJ 07060
(40.616787, -74.422268)"
WI,Ontario,54651,"Ontario, WI 54651
(43.723002, -90.574145)"
WA,Seattle,98103,"Seattle, WA 98103
(47.672491, -122.343577)"
AL,Roanoke,36274,"Roanoke, AL 36274
(33.17738, -85.365661)"
VT,Milton,05468,"Milton, VT 05468
(44.651584, -73.143897)"
ID,Winchester,83555,"Winchester, ID 83555
(46.207937, -116.633796)"
NJ,Voorhees,08043,"Voorhees, NJ 08043
(39.845368, -74.9571)"
FL,Gainesville,32608,"Gainesville, FL 32608
(29.599968, -82.407157)"
CA,Salinas,93907,"Salinas, CA 93907
(36.771091, -121.664391)"
CO,Denver,80249,"Denver, CO 80249
(39.817918, -104.724585)"
NY,Buffalo,14224,"Buffalo, NY 14224
(42.836052, -78.749996)"
NC,Black Mountain,28711,"Black Mountain, NC 28711
(35.591022, -82.300511)"
WA,Gig Harbor,98335,"Gig Harbor, WA 98335
(47.300296, -122.612932)"
AZ,Phoenix,85048,"Phoenix, AZ 85048
(33.306535, -112.032816)"
PA,Old Forge,18518,"Old Forge, PA 18518
(41.369866, -75.73965)"
PA,Sewickley,15143,"Sewickley, PA 15143
(40.567663, -80.146615)"
UT,Salt Lake City,84107,"Salt Lake City, UT 84107
(40.657894, -111.883531)"
NY,Bayside,11361,"Bayside, NY 11361
(40.76347, -73.7738)"
FL,Tallahassee,32304,"Tallahassee, FL 32304
(30.449001, -84.335217)"
CA,Elk Grove,95758,"Elk Grove, CA 95758
(38.424655, -121.438065)"
PA,Quakertown,18951,"Quakertown, PA 18951
(40.447495, -75.348961)"
SC,Florence,29505,"Florence, SC 29505
(34.135826, -79.728682)"
NY,Hollis,11423,"Hollis, NY 11423
(40.716566, -73.76856)"
OR,Portland,97219,"Portland, OR 97219
(45.456622, -122.705771)"
ID,Fruitland,83619,"Fruitland, ID 83619
(43.98436, -116.910472)"
TX,Aubrey,76227,"Aubrey, TX 76227
(33.265377, -96.983739)"
NY,Bergen,14416,"Bergen, NY 14416
(43.071797, -77.984041)"
FL,Miami,33147,"Miami, FL 33147
(25.85085, -80.23763)"
CA,Garden Grove,92845,"Garden Grove, CA 92845
(33.78303, -118.026739)"
CA,Palmdale,93550,"Palmdale, CA 93550
(34.539869, -118.091953)"
CT,Bristol,06010,"Bristol, CT 06010
(41.682254, -72.933289)"
MI,Harrison Township,48045,"Harrison Township, MI 48045
(42.586408, -82.833556)"
WA,Everett,98203,"Everett, WA 98203
(47.943014, -122.227707)"
MD,Potomac,20854,"Potomac, MD 20854
(39.038266, -77.203413)"
PA,Malvern,19355,"Malvern, PA 19355
(40.048146, -75.533811)"
TX,Katy,77449,"Katy, TX 77449
(29.832639, -95.72936)"
LA,New Orleans,70130,"New Orleans, LA 70130
(29.937113, -90.071558)"
OH,Cincinnati,45215,"Cincinnati, OH 45215
(39.232931, -84.460094)"
MT,Billings,59105,"Billings, MT 59105
(45.84366, -108.472695)"
CT,Colchester,06415,"Colchester, CT 06415
(41.558411, -72.343462)"
GA,Albany,31707,"Albany, GA 31707
(31.59163, -84.197477)"
CA,Santa Rosa,95404,"Santa Rosa, CA 95404
(38.458384, -122.675588)"
NY,New York,10002,"New York, NY 10002
(40.715712, -73.987053)"
NH,Greenville,03048,"Greenville, NH 03048
(42.749392, -71.770689)"
CA,Costa Mesa,92627,"Costa Mesa, CA 92627
(33.646667, -117.917058)"
CA,El Cajon,92019,"El Cajon, CA 92019
(32.779792, -116.901491)"
FL,Bartow,33830,"Bartow, FL 33830
(27.887524, -81.809659)"
NY,Seneca Falls,13148,"Seneca Falls, NY 13148
(42.913822, -76.783976)"
GA,Savannah,31401,"Savannah, GA 31401
(32.067437, -81.092901)"
NC,Greensboro,27405,"Greensboro, NC 27405
(36.111968, -79.745494)"
CA,Cerritos,90703,"Cerritos, CA 90703
(33.867623, -118.068782)"
MD,Laurel,20708,"Laurel, MD 20708
(39.053112, -76.838248)"
MD,Oxon Hill,20745,"Oxon Hill, MD 20745
(38.804118, -76.995481)"
PA,Philadelphia,19144,"Philadelphia, PA 19144
(40.033294, -75.173807)"
NY,Hector,14841,"Hector, NY 14841
(42.521222, -76.852936)"
ME,Damariscotta,04543,"Damariscotta, ME 04543
(44.035128, -69.495723)"
VA,Chesterfield,23832,"Chesterfield, VA 23832
(37.404209, -77.589336)"
MI,Muskegon,49441,"Muskegon, MI 49441
(43.191862, -86.272098)"
SC,Fort Mill,29708,"Fort Mill, SC 29708
(35.048376, -80.98497)"
PA,Shickshinny,18655,"Shickshinny, PA 18655
(41.186518, -76.204562)"
VT,Shelburne,05482,"Shelburne, VT 05482
(44.386463, -73.217627)"
NH,New London,03257,"New London, NH 03257
(43.412808, -71.993856)"
FL,Tampa,33647,"Tampa, FL 33647
(28.134464, -82.354097)"
WI,Norwalk,54648,"Norwalk, WI 54648
(43.834438, -90.628036)"
NJ,North Brunswick,08902,"North Brunswick, NJ 08902
(40.449765, -74.482717)"
CO,Colorado Springs,80911,"Colorado Springs, CO 80911
(38.752199, -104.722458)"
MD,Fort Washington,20744,"Fort Washington, MD 20744
(38.753969, -76.98503)"
KY,Ft Mitchell,41017,"Ft Mitchell, KY 41017
(39.030102, -84.56363)"
TX,Kerrville,78028,"Kerrville, TX 78028
(30.034032, -99.141107)"
WI,Milwaukee,53207,"Milwaukee, WI 53207
(42.981581, -87.901469)"
NV,Las Vegas,89117,"Las Vegas, NV 89117
(36.142139, -115.281961)"
CA,Citrus Heights,95621,"Citrus Heights, CA 95621
(38.695315, -121.308889)"
CA,Glendale,91206,"Glendale, CA 91206
(34.159017, -118.222854)"
GA,Lithonia,30058,"Lithonia, GA 30058
(33.736699, -84.118901)"
NJ,Vincentown,08088,"Vincentown, NJ 08088
(39.830246, -74.658196)"
TN,Memphis,38116,"Memphis, TN 38116
(35.032206, -90.013391)"
MO,Fenton,63026,"Fenton, MO 63026
(38.504609, -90.463646)"
OH,Powell,43065,"Powell, OH 43065
(40.166962, -83.090093)"
FL,Saint Petersburg,33704,"Saint Petersburg, FL 33704
(27.79643, -82.636776)"
CT,Avon,06001,"Avon, CT 06001
(41.792586, -72.860678)"
NY,Cortland,13045,"Cortland, NY 13045
(42.588691, -76.185061)"
OH,Rocky River,44116,"Rocky River, OH 44116
(41.471158, -81.85009)"
CT,Stamford,06907,"Stamford, CT 06907
(41.09816, -73.520558)"
CA,Arcadia,91006,"Arcadia, CA 91006
(34.135112, -118.029184)"
NC,Whiteville,28472,"Whiteville, NC 28472
(34.3167, -78.707104)"
CA,Oceanside,92054,"Oceanside, CA 92054
(33.193155, -117.358567)"
WI,Wonewoc,53968,"Wonewoc, WI 53968
(43.642738, -90.231942)"
CA,Napa,94558,"Napa, CA 94558
(38.383156, -122.289164)"
PA,Pittsburgh,15216,"Pittsburgh, PA 15216
(40.400575, -80.035897)"
MS,Greenville,38701,"Greenville, MS 38701
(33.325217, -91.019139)"
WI,Milwaukee,53205,"Milwaukee, WI 53205
(43.053356, -87.933575)"
CA,San Fernando,91340,"San Fernando, CA 91340
(34.285891, -118.437069)"
WA,Chewelah,99109,"Chewelah, WA 99109
(48.298096, -117.686653)"
OH,Newport,45768,"Newport, OH 45768
(39.40938, -81.260502)"
NH,Concord,03301,"Concord, NH 03301
(43.217164, -71.537705)"
NC,Burlington,27215,"Burlington, NC 27215
(36.057099, -79.47824)"
VA,Suffolk,23434,"Suffolk, VA 23434
(36.731913, -76.601865)"
CO,Grand Junction,81503,"Grand Junction, CO 81503
(39.038588, -108.517869)"
CO,Gypsum,81637,"Gypsum, CO 81637
(39.693663, -106.982527)"
MN,Minneapolis,55432,"Minneapolis, MN 55432
(45.096566, -93.254324)"
MI,Ann Arbor,48104,"Ann Arbor, MI 48104
(42.264206, -83.720638)"
VA,Winchester,22601,"Winchester, VA 22601
(39.175944, -78.171637)"
NY,Bronx,10453,"Bronx, NY 10453
(40.852346, -73.91222)"
MD,Silver Spring,20910,"Silver Spring, MD 20910
(39.001851, -77.034885)"
NY,New York,10009,"New York, NY 10009
(40.727235, -73.978411)"
CO,Aurora,80016,"Aurora, CO 80016
(39.592658, -104.731172)"
NY,Brooklyn,11225,"Brooklyn, NY 11225
(40.663779, -73.953905)"
TN,Knoxville,37919,"Knoxville, TN 37919
(35.92138, -84.002496)"
NY,Monroe,10950,"Monroe, NY 10950
(41.322198, -74.194618)"
NY,Flushing,11355,"Flushing, NY 11355
(40.751021, -73.821798)"
NJ,Hillsborough,08844,"Hillsborough, NJ 08844
(40.502161, -74.653427)"
PA,Jenkintown,19046,"Jenkintown, PA 19046
(40.100158, -75.107926)"
NY,Syracuse,13207,"Syracuse, NY 13207
(43.019009, -76.164985)"
CA,Camarillo,93010,"Camarillo, CA 93010
(34.230552, -119.057652)"
MI,Flint,48505,"Flint, MI 48505
(43.064457, -83.695674)"
FL,Saint Petersburg,33701,"Saint Petersburg, FL 33701
(27.770687, -82.638238)"
PA,Hadley,16130,"Hadley, PA 16130
(41.444107, -80.211409)"
VA,Fairfax,22031,"Fairfax, VA 22031
(38.861555, -77.260442)"
MS,Vicksburg,39180,"Vicksburg, MS 39180
(32.277451, -90.847873)"
NH,Hampton,03842,"Hampton, NH 03842
(42.940006, -70.832537)"
SC,Darlington,29532,"Darlington, SC 29532
(34.279433, -79.879897)"
FL,Altamonte Springs,32701,"Altamonte Springs, FL 32701
(28.665501, -81.369997)"
MO,Boonville,65233,"Boonville, MO 65233
(38.926561, -92.735143)"
SC,Conway,29526,"Conway, SC 29526
(33.865268, -78.995297)"
IN,Frankton,46044,"Frankton, IN 46044
(40.213422, -85.785742)"
PA,Chadds Ford,19317,"Chadds Ford, PA 19317
(39.858051, -75.598056)"
ID,Emmett,83617,"Emmett, ID 83617
(43.891109, -116.536543)"
KS,Hartford,66854,"Hartford, KS 66854
(38.256368, -96.007905)"
NE,Chadron,69337,"Chadron, NE 69337
(42.794762, -103.00753)"
NJ,Morristown,07960,"Morristown, NJ 07960
(40.788376, -74.494253)"
FL,Jensen Beach,34957,"Jensen Beach, FL 34957
(27.250705, -80.239969)"
VA,Norfolk,23507,"Norfolk, VA 23507
(36.864175, -76.301306)"
FL,Homosassa,34446,"Homosassa, FL 34446
(28.749753, -82.530351)"
SD,Rapid City,57702,"Rapid City, SD 57702
(44.038145, -103.363327)"
OH,Cleveland,44110,"Cleveland, OH 44110
(41.563976, -81.572548)"
IA,Floyd,50435,"Floyd, IA 50435
(43.154006, -92.766338)"
ME,Farmington,04938,"Farmington, ME 04938
(44.661413, -70.105099)"
NC,Raleigh,27615,"Raleigh, NC 27615
(35.895425, -78.63613)"
MD,Davidsonville,21035,"Davidsonville, MD 21035
(38.939578, -76.636045)"
MO,Nevada,64772,"Nevada, MO 64772
(37.844939, -94.345061)"
KY,Latonia,41015,"Latonia, KY 41015
(38.996887, -84.492561)"
MO,Columbia,65203,"Columbia, MO 65203
(38.917169, -92.380274)"
WI,Milwaukee,53211,"Milwaukee, WI 53211
(43.08237, -87.884363)"
NY,Staten Island,10306,"Staten Island, NY 10306
(40.568821, -74.11862)"
TX,Missouri City,77489,"Missouri City, TX 77489
(29.600626, -95.515741)"
MD,Capitol Heights,20743,"Capitol Heights, MD 20743
(38.884986, -76.900771)"
CT,Plainville,06062,"Plainville, CT 06062
(41.673614, -72.861661)"
PA,Springfield,19064,"Springfield, PA 19064
(39.931914, -75.338256)"
MO,Saint Peters,63376,"Saint Peters, MO 63376
(38.781155, -90.621265)"
MA,Concord,01742,"Concord, MA 01742
(42.457842, -71.370532)"
GA,Savannah,31405,"Savannah, GA 31405
(32.04199, -81.144663)"
NC,Greensboro,27410,"Greensboro, NC 27410
(36.112596, -79.885665)"
CA,Los Angeles,90065,"Los Angeles, CA 90065
(34.109642, -118.226785)"
IA,Iowa City,52245,"Iowa City, IA 52245
(41.66807, -91.507296)"
MI,Lake Ann,49650,"Lake Ann, MI 49650
(44.732697, -85.873727)"
CA,Grass Valley,95945,"Grass Valley, CA 95945
(39.204393, -120.981879)"
OH,Stow,44224,"Stow, OH 44224
(41.176074, -81.438336)"
MN,Saint Paul,55104,"Saint Paul, MN 55104
(44.954046, -93.160955)"
MS,Vicksburg,39183,"Vicksburg, MS 39183
(32.412069, -90.814466)"
KS,Easton,66020,"Easton, KS 66020
(39.346059, -95.105201)"
TX,Corpus Christi,78414,"Corpus Christi, TX 78414
(27.665584, -97.372776)"
MN,Brainerd,,"Brainerd, MN
(46.354706, -94.202161)"
ME,saco,,"saco, ME
(43.500747, -70.443035)"
HI,Honolulu,,"Honolulu, HI
(21.30992, -157.858158)"
CA,Anaheim,,"Anaheim, CA
(33.834492, -117.915638)"
CO,Arvada,,"Arvada, CO
(39.801122, -105.081451)"
NY,Dainsville,,"Dainsville, NY
(42.761482, -74.134047)"
NH,Concord,,"Concord, NH
(43.208452, -71.536941)"
NH,Concord,,"Concord, NH
(43.208452, -71.536941)"
FL,Little Havana,,"Little Havana, FL"
NM,Hobbs,,"Hobbs, NM
(32.700807, -103.136211)"
IA,Cedar Rapids,,"Cedar Rapids, IA
(41.978122, -91.669808)"
VA,Woodbridge,,"Woodbridge, VA
(38.663462, -77.245654)"
WA,Seattle,,"Seattle, WA
(47.603229, -122.33028)"
CO,Boulder,,"Boulder, CO
(40.015831, -105.27927)"
CA,San Diego,,"San Diego, CA
(32.71576, -117.163817)"
MO,Warrensburg,,"Warrensburg, MO
(38.771088, -93.735354)"
AR,Centerton,,"Centerton, AR
(36.368823, -94.284585)"
MA,Harvard,,"Harvard, MA
(42.495971, -71.582363)"
MA,Feeding Hills,,"Feeding Hills, MA
(42.0681, -72.679199)"
MT,Bozeman,,"Bozeman, MT
(45.679294, -111.046611)"
D.C.,WA,,"WA, D.C."
MN,Oakdale,,"Oakdale, MN
(44.985632, -92.964595)"
TX,Houston,,"Houston, TX
(29.760803, -95.369506)"
TX,Houston,,"Houston, TX
(29.760803, -95.369506)"
TX,Houston,,"Houston, TX
(29.760803, -95.369506)"
TX,Houston,,"Houston, TX
(29.760803, -95.369506)"
TX,Houston,,"Houston, TX
(29.760803, -95.369506)"
TX,Houston,,"Houston, TX
(29.760803, -95.369506)"
MN,Rochester,,"Rochester, MN
(44.019331, -92.458867)"
MN,Rochester,,"Rochester, MN
(44.019331, -92.458867)"
MN,Rochester,,"Rochester, MN
(44.019331, -92.458867)"
MO,Kansas City,,"Kansas City, MO
(39.099792, -94.578559)"
TX,Austin,,"Austin, TX
(30.264979, -97.746598)"
TX,Austin,,"Austin, TX
(30.264979, -97.746598)"
TX,Victoria,,"Victoria, TX
(28.799192, -97.006062)"
MO,Rogersville,,"Rogersville, MO
(37.121038, -93.057176)"
NC,Grimesland,,"Grimesland, NC
(35.563477, -77.19194)"
AZ,Tuscon,,"Tuscon, AZ
(32.221878, -110.971225)"
WI,De Soto,,"De Soto, WI
(43.41994, -91.194594)"
WA,Tacoma,,"Tacoma, WA
(47.25308, -122.44153)"
CA,Davis,,"Davis, CA
(38.546421, -121.745384)"
NC,Cullowhee,,"Cullowhee, NC
(35.307393, -83.188036)"
IL,Columbia,,"Columbia, IL
(38.452623, -90.220781)"
PA,Mertztown,,"Mertztown, PA
(40.506106, -75.665455)"
AL,Weaver,,"Weaver, AL
(33.753206, -85.816785)"
FL,Tequesta,,"Tequesta, FL
(26.959339, -80.084805)"
WA,Kenmore,,"Kenmore, WA
(47.758572, -122.252815)"
WA,Sequim,,"Sequim, WA
(48.077843, -123.107685)"
WA,Sequim,,"Sequim, WA
(48.077843, -123.107685)"
WA,Sequim,,"Sequim, WA
(48.077843, -123.107685)"
IA,West Des Moines,,"West Des Moines, IA
(41.575505, -93.713031)"
MN,St. Paul,,"St. Paul, MN
(44.943719, -93.094281)"
MN,Stillwater,,"Stillwater, MN
(45.055745, -92.810143)"
MN,Sandstone,,"Sandstone, MN
(46.131258, -92.867692)"
MN,La Porte,,"La Porte, MN
(47.213228, -94.75523)"
NJ,South plainfield,,"South plainfield, NJ
(40.584157, -74.415544)"
IL,Chicago,,"Chicago, IL
(41.883229, -87.632398)"
IL,Chicago,,"Chicago, IL
(41.883229, -87.632398)"
IL,Chicago,,"Chicago, IL
(41.883229, -87.632398)"
WA,Olympia,,"Olympia, WA
(47.035534, -122.900827)"
WA,Olympia,,"Olympia, WA
(47.035534, -122.900827)"
MN,Becker,,"Becker, MN
(45.393075, -93.877202)"
IA,Altoona,,"Altoona, IA
(41.64404, -93.464609)"
WA,Gig Harbor,,"Gig Harbor, WA
(47.327772, -122.587523)"
MN,Fergus Falls,,"Fergus Falls, MN
(46.27836, -96.074161)"
MN,Hillman,,"Hillman, MN
(46.004363, -93.887268)"
MN,Milaca,,"Milaca, MN
(45.755459, -93.648596)"
MN,Eden Prairie,,"Eden Prairie, MN
(44.854033, -93.46017)"
MN,Eden Prairie,,"Eden Prairie, MN
(44.854033, -93.46017)"
MT,Darby,,"Darby, MT
(46.023354, -114.178059)"
CT,Woodbury,,"Woodbury, CT
(41.545058, -73.208654)"
NC,Raleigh,,"Raleigh, NC
(35.781295, -78.64167)"
TX,Sacramento,,"Sacramento, TX"
NC,Cary,,"Cary, NC
(35.791444, -78.781139)"
OH,Huber Heights,,"Huber Heights, OH
(39.88918, -84.122471)"
MN,Minneapolis,,"Minneapolis, MN
(44.977479, -93.264346)"
MN,Minneapolis,,"Minneapolis, MN
(44.977479, -93.264346)"
MN,Minneapolis,,"Minneapolis, MN
(44.977479, -93.264346)"
MN,Minneapolis,,"Minneapolis, MN
(44.977479, -93.264346)"
MN,Minneapolis,,"Minneapolis, MN
(44.977479, -93.264346)"
MN,Minneapolis,,"Minneapolis, MN
(44.977479, -93.264346)"
MN,Minneapolis,,"Minneapolis, MN
(44.977479, -93.264346)"
MN,Minneapolis,,"Minneapolis, MN
(44.977479, -93.264346)"
NY,Syracuse,,"Syracuse, NY
(43.047945, -76.147448)"
CA,Valley Springs,,"Valley Springs, CA
(38.16866, -120.839138)"
OK,Noble,,"Noble, OK
(35.140688, -97.394651)"
NC,Chapel Hill,,"Chapel Hill, NC
(35.910262, -79.055474)"
MN,Grand Rapids,,"Grand Rapids, MN
(47.231455, -93.526879)"
MN,St. Louis Park,,"St. Louis Park, MN
(44.943609, -93.368281)"
MT,Stevensville,,"Stevensville, MT
(46.508371, -114.093807)"
IA,Stratford,,"Stratford, IA
(42.267766, -93.923073)"
WI,Pewaukee,,"Pewaukee, WI
(43.083153, -88.256701)"
IL,Crete,,"Crete, IL
(41.448709, -87.63168)"
IA,Ames,,"Ames, IA
(42.026802, -93.620181)"
IA,Ames,,"Ames, IA
(42.026802, -93.620181)"
IA,Ames,,"Ames, IA
(42.026802, -93.620181)"
IA,Ames,,"Ames, IA
(42.026802, -93.620181)"
TX,Rowlett,,"Rowlett, TX
(32.902706, -96.569287)"
MN,Plymouth,,"Plymouth, MN
(45.018311, -93.473853)"
NE,Omaha,,"Omaha, NE
(41.258652, -95.937195)"
NE,Omaha,,"Omaha, NE
(41.258652, -95.937195)"
PA,West Chester,,"West Chester, PA
(39.960481, -75.605214)"
MN,Wendell,,"Wendell, MN
(46.036364, -96.100755)"
TX,Kingsville,,"Kingsville, TX
(27.506723, -97.855992)"
AZ,Phoenix,,"Phoenix, AZ
(33.448204, -112.072585)"
MI,Sault Sainte Marie,,"Sault Sainte Marie, MI
(46.497691, -84.347598)"
IA,Pella,,"Pella, IA
(41.408107, -92.916445)"
CA,Longview,,"Longview, CA
(34.493606, -117.896732)"
IN,Rosedale,,"Rosedale, IN
(39.622638, -87.279221)"
NM,Clayton,,"Clayton, NM
(36.451717, -103.184306)"
MN,Falcon Heights,,"Falcon Heights, MN
(44.991644, -93.187082)"
MN,Mankato,,"Mankato, MN
(44.166117, -94.005587)"
MO,Springfield,,"Springfield, MO
(37.215521, -93.292361)"
SD,Sioux Falls,,"Sioux Falls, SD
(43.488765, -96.743185)"
CA,San Dimas,,"San Dimas, CA
(34.106678, -117.802753)"
MT,Helena,,"Helena, MT
(46.59107, -112.020458)"
IN,Dupont,,"Dupont, IN
(38.890072, -85.516742)"
MN,Bemidji,,"Bemidji, MN
(47.472647, -94.879661)"
WA,Bothell,,"Bothell, WA
(47.760089, -122.205434)"
MN,St. Cloud,,"St. Cloud, MN
(45.569048, -94.115542)"
OR,Portland,,"Portland, OR
(45.516018, -122.681425)"
ND,Fargo,,"Fargo, ND
(46.87696, -96.784636)"
ND,Fargo,,"Fargo, ND
(46.87696, -96.784636)"
MI,Grand Rapids,,"Grand Rapids, MI
(42.965446, -85.670209)"
NE,Bellevue,,"Bellevue, NE
(41.151057, -95.90025)"
TX,Canyon Lake,,"Canyon Lake, TX
(29.875383, -98.262656)"
MN,Austin,,"Austin, MN
(43.670395, -92.974829)"
MN,Elgin,,"Elgin, MN
(44.130409, -92.253632)"
AR,Gassville,,"Gassville, AR
(36.283197, -92.497916)"
IA,Maryville,,"Maryville, IA
(42.687801, -91.645302)"
IL,Rushville,,"Rushville, IL
(40.120628, -90.563561)"
IL,Rushville,,"Rushville, IL
(40.120628, -90.563561)"
MT,Missoula,,"Missoula, MT
(46.872129, -113.994017)"
MT,Missoula,,"Missoula, MT
(46.872129, -113.994017)"
TX,Galveston,,"Galveston, TX
(29.300128, -94.795846)"
IL,Schaumburg,,"Schaumburg, IL
(42.026254, -88.06969)"
WI,La Crosse,,"La Crosse, WI
(43.808767, -91.25186)"
OH,Cincinatti,,"Cincinatti, OH
(39.104427, -84.513808)"
OH,Cincinatti,,"Cincinatti, OH
(39.104427, -84.513808)"
TX,San Antonio,,"San Antonio, TX
(29.425173, -98.494599)"
IA,Bondurant,,"Bondurant, IA
(41.691771, -93.463727)"
MN,Duluth,,"Duluth, MN
(46.782882, -92.105457)"
MN,Duluth,,"Duluth, MN
(46.782882, -92.105457)"
MN,Duluth,,"Duluth, MN
(46.782882, -92.105457)"
IL,Westchester,,"Westchester, IL
(41.855821, -87.882142)"
MN,Elk River,,"Elk River, MN
(45.307777, -93.57741)"
IN,Knox,,"Knox, IN
(41.28806, -86.620675)"
FL,Debary,,"Debary, FL
(28.890217, -81.306738)"
IA,Ankeny,,"Ankeny, IA
(41.72508, -93.600414)"
MN,Mora,,"Mora, MN
(45.87578, -93.292054)"
MN,Maple Grove,,"Maple Grove, MN
(45.098123, -93.444535)"
IA,Centerville,,"Centerville, IA
(40.732502, -92.874161)"
WI,Eau Claire,,"Eau Claire, WI
(44.812135, -91.49917)"
MN,Cambridge,,"Cambridge, MN
(45.572649, -93.224113)"
GA,Atlanta,,"Atlanta, GA
(33.748547, -84.391502)"
IA,Des Moines,,"Des Moines, IA
(41.588822, -93.620309)"
IA,Des Moines,,"Des Moines, IA
(41.588822, -93.620309)"
TX,Navasota,,"Navasota, TX
(30.388412, -96.088295)"
IA,Nevada,,"Nevada, IA
(42.019648, -93.452278)"
IA,Colfax,,"Colfax, IA
(41.673299, -93.240401)"
CA,Pleasant Hill,,"Pleasant Hill, CA
(37.948004, -122.060268)"
TX,Plano,,"Plano, TX
(33.019695, -96.697586)"
TX,Plano,,"Plano, TX
(33.019695, -96.697586)"
WA,Spokane,,"Spokane, WA
(47.658999, -117.425022)"
MN,rochester,,"rochester, MN
(44.019331, -92.458867)"
WA,University Place,,"University Place, WA
(47.210753, -122.542538)"
WA,University Place,,"University Place, WA
(47.210753, -122.542538)"
IN,Donnelly,,"Donnelly, IN
(41.162201, -85.235802)"
MD,Catonsville,,"Catonsville, MD
(39.265074, -76.741056)"
MO,St. Louis  ,,"St. Louis, MO
(38.630276, -90.200309)"
MN,Inver Grove Heights,,"Inver Grove Heights, MN
(44.833457, -93.054861)"
AK,Anchorage,,"Anchorage, AK
(61.216583, -149.899597)"
UT,Logan,,"Logan, UT
(41.735211, -111.834857)"
OR,Corvallis,,"Corvallis, OR
(44.571648, -123.277703)"
IA,Sioux Center,,"Sioux Center, IA
(43.075969, -96.175468)"
WI,Centuria,,"Centuria, WI
(45.45226, -92.549682)"
