"name","what","who","address_1","address_2","suburb","phone","phone_2","free_call","email","website","twitter","social_media","monday","tuesday","wednesday","thursday","friday","saturday","sunday","public_holidays","cost","tram_routes","bus_routes","nearest_train_station","category_1","category_2","category_3","category_4","category_5","category_6","longitude","latitude","geocoded_location"
"Child Protection Emergency Service",,,,,,"13 12 78",,,,"dhs.vic.gov.au/for-individuals/children,-families-and-young-people/child-protection",,,,,,,,,,,,,,,"Helpful phone number","N/A","N/A","N/A","N/A","N/A",,,
"Direct Line (24-hr drug and alcohol counselling)",,,,,,,,"1800 888 236",,"directline.org.au",,,,,,,,,,,,,,,"Helpful phone number","N/A","N/A","N/A","N/A","N/A",,,
"Gamblers Help Line Victoria",,,,,,,,"1800 858 858",,"gamblinghelponline.org.au",,,,,,,,,,,,,,,"Helpful phone number","N/A","N/A","N/A","N/A","N/A",,,
"Kids Help line",,,,,,,,"1800 551 800",,"kidshelp.com.au",,,,,,,,,,,,,,,"Helpful phone number","N/A","N/A","N/A","N/A","N/A",,,
"Lifeline (24 hour crisis counselling)",,,,,,"13 11 14",,,,"lifeline.org.au","@LifelineAust","youtube.com/user/LifelineAustralia",,,,,,,,,,,,,"Helpful phone number","N/A","N/A","N/A","N/A","N/A",,,
"Maternal and Child Health Line",,,,,,"13 22 29",,,,"education.vic.gov.au/childhood/parents/support/pages/mchline.aspx",,,,,,,,,,,,,,,"Helpful phone number","N/A","N/A","N/A","N/A","N/A",,,
"Mensline Australia",,,,,,"1300 789 978",,,,"mensline.org.au","@MensLine_Aus","facebook.com/MensLineAus",,,,,,,,,,,,,"Helpful phone number","Helpful website","N/A","N/A","N/A","N/A",,,
"Narcotics Anonymous - Victorian Area Helpline",,,,,,"9525 2833",,,"info@navic.net.au","navic.net.au",,,,,,,,,,,,,,,"Helpful phone number","Helpful website","N/A","N/A","N/A","N/A",,,
"Sexual Assault Crisis Line ",,,,,,,,"1800 806 292",,"sacl.com.au",,,,,,,,,,,,,,,"Helpful phone number","Helpful website","N/A","N/A","N/A","N/A",,,
"Suicide Line",,,,,,"1300 651 251",,,,"suicideline.org.au","@SuicideLine","facebook.com/SuicideLineVic",,,,,,,,,,,,,"Helpful phone number","Helpful website","N/A","N/A","N/A","N/A",,,
"Victims of Crime Help Line",,,,,,,,"1800 819 817  ",,"victimsofcrime.com.au","@VoCCCs","acebook.com/VictimsOfCrime",,,,,,,,,,,,,"Helpful phone number","Helpful website","N/A","N/A","N/A","N/A",,,
"Aboriginal Family Violence Prevention and Legal Service Victoria","Legal Services, Counselling Support, Information, Referral and Support, Community Education and Training",,"Level 3","70-80 Wellington Street","Collingwood","9244 3333 ",,"1800 105 303",,"fvpls.org","@FVPLSVictoria","facebook.com/pages/Aboriginal-Family-Violence-Prevention-Legal-Service-Victoria/86033298731200","9.00am – 5.00pm","9.00am – 5.00pm","9.00am – 5.00pm","9.00am – 5.00pm","9.00am – 5.00pm","Closed","Closed","Closed",,"86 (stop 15 Gertrude St)",,,"Legal / Financial Advice","Counselling and Psychiatric Services","N/A","N/A","N/A","N/A","144.986299","-37.806426999999999","(-37.806427, 144.986299)"
"Action Centre","contraception, sexuality and gender issues, pregnancy and unplanned pregnancy, sexually transmissible infections, sexual decision making, relationships","Services are for under 25 year olds","Level 1","92-94 Elizabeth Street","Melbourne","9660 4700",,"1800 013 952",,"fpv.org.au",,,"10.00am-6.00pm","10.00am-6.00pm","10.00am-6.00pm","10.00am-6.00pm","10.00am-6.00pm","Closed","Closed","Closed","Over 18 years and working $35 per year, If on a pension or student benefit $10 per year.  Free for under 18 year olds.","11, 42, 48, 109, 112 (stop 5 Elizabeth St)",,"Flinders Street","Health Services / Pharmacy","Counselling and Psychiatric Services","N/A","N/A","N/A","N/A","144.96417","-37.815731","(-37.815731, 144.96417)"
"Adult Outreach Support Services","Adult Outreach Support Services works with people who are homeless, or at risk of homelessness, to secure and maintain safe and affordable housing and achieve independence in the community.","People who are homeless, or at risk of homelessness",,"179 Flemington Road","North Melbourne","9329 5100",,,,"vincentcare.org.au",,,,,,,,,,,,"55, 57, 59",,,"Accommodation","N/A","N/A","N/A","N/A","N/A","144.94850700000001","-37.795439000000002","(-37.795439, 144.948507)"
"AL–ANON Family Groups","Support group for family and friends of alcoholics. Alateen is also for adolescents whose lives have been affected by an alcoholic.",,"Level 7, Suite 2","51 Queen Street","Melbourne","1300 252 666",,,"alanonvsa@netspace.net.au","al-anon.alateen.org/australia/",,,"10.30am to 2.30pm","10.30am to 2.30pm","10.30am to 2.30pm","10.30am to 2.30pm","Closed","Closed","Closed","Closed",,"11, 48, 109, 12 (stop 4 Queen St)",,"Flinders Street","Drug and Alcohol","N/A","N/A","N/A","N/A","N/A","144.961614","-37.817737999999999","(-37.817738, 144.961614)"
"Alcoholics Anonymous Victoria","AA is a fellowship of men and women who share their experience, strength and hope with each other that they may solve their common problem and help others to recover from alcoholism. Two gay and lesbian groups and two Koori groups are held weekly.  24 hour Help Line ",,"Level 1","36 Church Street","Richmond","9429 1833",,,,"aavictoria.org.au","@AAMelbourne","facebook.com/Alcoholics.Anonymous.Victoria","9:00am – 5:00pm","9:00am – 5:00pm","9:00am – 5:00pm","9:00am – 5:00pm","9:00am – 5:00pm","10:00 am. – 2:00 pm","Closed","Closed",,"24, 78, 79, 109  (stop 21 Church St)",,,"Drug and Alcohol","N/A","N/A","N/A","N/A","N/A","145.00030699999999","-37.811647999999998","(-37.811648, 145.000307)"
"Royal Melbourne Hospital","Outpatients’ emergency service",,,"300 Grattan Street","Parkville","9342 7000",,,"enquiries@mh.org.au","rmh.mh.org.au","@TheRMH","facebook.com/RoyalMelbourneHospital","24 hours","24 hours","24 hours","24 hours","24 hours","24 hours","24 hours","24 hours",,"19 (stop 10 Royal Melbourne Hospital), 55, 59 (stop 14 Royal Melbourne Hospital)","401, 402 (Royal Melbourne Hospital/Grattan St (Parkville) stop ID 7587)",,"Hospitals / Emergency","N/A","N/A","N/A","N/A","N/A","144.956177","-37.798876999999997","(-37.798877, 144.956177)"
"Anglicare Victoria – Lazarus Centre","Breakfast seven days a week, BBQ lunch every Friday, Clothes, Toiletries",,"St. Peter’s East Melbourne ","15 Gisborne Street","East Melbourne","9419 3288",,,,"anglicarevic.org.au","@AnglicareVic",,"7.30 am to 9.00 am","7.30 am to 9.00 am","7.30 am to 9.00 am","7.30 am to 9.00 am","7.30 am to 9.00 am, 11:00 am – 12:00 pm (BBQ lunch Friday's)","7.30 am to 9.00 am","7.30 am to 9.00 am","Closed",,"11, 12, 42, 109 (stop 11 Albert St)",,,"Food","Clothes and Blankets","Showers / Laundry","N/A","N/A","N/A","144.97548599999999","-37.809910000000002","(-37.80991, 144.975486)"
"Anglicare Victoria – St.Mark’s Community Centre","St Mark’s provides assistance to homeless people.  Drop-in centre Monday to Friday.
Bread, fruit, vegetables, weekly food parcels are available.
Lunch, Tea and Coffee facilities, Showers, Washing machines and dryers, Toiletries, Public telephones, Advice and referral.
St Mark’s will provide up to five PBS prescriptions per month for homeless people through the co-payment prescription scheme.  (Not Methadone / Buprenorphine).",,,"250 George Street ","Fitzroy","9419 3288",,,,"anglicarevic.org.au","@AnglicareVic",,"11.30am to 3.00pm (Drop in Centre), 12.00Noon to 3.00pm (Food Parcels)","11.30am to 3.00pm (Drop in Centre), 12.00Noon to 3.00pm (Food Parcels)","11.30am to 3.00pm (Drop in Centre), 12.00Noon to 3.00pm (Food Parcels)","11.30am to 3.00pm (Drop in Centre), 12.00Noon to 3.00pm (Food Parcels)","11.30am to 3.00pm (Drop in Centre), 12.00Noon to 3.00pm (Food Parcels)","Closed","Closed","Closed",,"11 (stop 40), 86 (stop 18 Grant St)",,,"Food","Clothes and Blankets","Showers / Laundry","N/A","N/A","N/A","144.98183499999999","-37.801611000000001","(-37.801611, 144.981835)"
"Anglicare Victoria – Mission House","Provides Emergency Relief to people living in Public Housing and rental properties with a Health Care Card.  ","Assistance may be given to those living in the following postcodes: 3000, 3051, 3053, 3054, 3065, 3066, 3067, 3068, 3070.",,"122 Napier Street","Fitzroy","9486 0445",,,,"anglicarevic.org.au","@AnglicareVic",,"Closed","10.00am – 12.00 Noon (Utility & Pharmaceutical ), 10.00am – 3.00pm (Op Shop), 1.30pm – 3.30pm (Food Parcels)","Closed","10.00am – 12.00 Noon (Utility & Pharmaceutical ), 10.00am – 3.00pm (Op Shop), 1.30pm – 3.30pm (Food Parcels)","Closed","Closed","Closed","Closed",,"12, 86 (stop 14 Napier St)",,,"Food","Clothes and Blankets","Showers / Laundry","N/A","N/A","N/A","144.97996000000001","-37.804544","(-37.804544, 144.97996)"
"Australian College of Optometry Outreach Services","Homeless Persons Eyecare Program, Supported Residential Services Project, Residential Aged Care Project, Older Persons High Rise, Aboriginal and Torres Strait Island Outreach, Visiting Disability Service","Low cost eye care for those of limited means.  Appointments bulk billed to Medicare.  Glasses subsidized for pension/health care card holders.",,"Corner Keppel and Cardigan Streets","Carlton","9349 7400",,,,"aco.org.au","@auscollegeoptom","facebook.com/australiancollegeofoptometry","8.30am – 5.30pm","8.30am – 5.30pm","8.30am – 5.30pm","8.30am – 5.30pm","8.30am – 5.30pm","8.30am – 5.00pm","Closed","Closed",,"1, 8 (stop 113 Lytton St)",,,"Health Services / Pharmacy","N/A","N/A","N/A","N/A","N/A",,,
"Brotherhood of St Laurence Coolibah Centre","Breakfast $1.00 
lunch $3, afternoon tea $0.20
showers
laundry facilities
health services
short-term case management
accommodation referral
social engagement activities
psychiatric referral
optometry every second month.","A person may be eligible for the Coolibah Centre if:

they are 55 years of age or over and live in the City of Yarra
they are experiencing homelessness or living in insecure housing
they are socially and financially disadvantaged
they have a disability and are receiving an Individual Support Plan (ISP) funding (45 years and over)
have a carer who needs respite.",,"67A Brunswick Street","Fitzroy ","1300 147 147",,,"bacci@bsl.org.au","bsl.org.au/services/older-people/day-and-respite-services/the-coolibah-centre/",,,"9.30am - 4.30pm","Closed","9.30am - 4.30pm","Closed","9.30am - 4.30pm","Closed","Closed","Closed","Member-based services only - $20.00 per year","11, 12, 86 (stop 13 Brunswick St)",,,"Food","Accommodation","Health Services / Pharmacy","Showers / Laundry","Counselling and Psychiatric Services","N/A","144.97726499999999","-37.805286000000002","(-37.805286, 144.977265)"
"CASA House Centre Against Sexual Assault","counselling, advocacy, health services, legal advice

The crisis-care unit at the Royal Women’s Hospital is available for recent assault victims.",,"3rd Floor Queen Victoria Women’s Centre","210 Lonsdale Street","Melbourne","9635 3600","9635 3610",,"casa@thewomens.org.au","casahouse.com.au",,,"9.00am - 5.00pm","9.00am - 5.00pm","9.00am - 5.00pm","9.00am - 5.00pm","9.00am - 5.00pm","Closed","Closed","Closed",,"1, 3, 3a, 5, 6, 8, 16, 64, 67, 72 (stop  8 Melbourne Central Station)",,"Melbourne Central Station","Hospitals / Emergency","Counselling and Psychiatric Services","Legal / Financial Advice","N/A","N/A","N/A","144.965833","-37.810904000000001","(-37.810904, 144.965833)"
"CatholicCare/St Mary of the Cross Centre","referral, drug education, counselling, group support
outreach, multicultural support, families with drug and alcohol issues, 
spiritual support, HIV/AIDS ministry",,,"23 Brunswick Street","Fitzroy","8417 1200",,,,"ccam.org.au",,,"9.00am - 5.00pm","9.00am - 5.00pm","9.00am - 5.00pm","9.00am - 5.00pm","9.00am - 5.00pm","Closed","Closed","Closed",,"11, 86, 12 (stop 13 Brunswick St)",,,"Needle Exchange","Counselling and Psychiatric Services","N/A","N/A","N/A","N/A","144.976675","-37.806595000000002","(-37.806595, 144.976675)"
"Central City Community Health Service","Outreach support services for people experiencing or at risk of becoming homelessness, Allied Health Outreach Services, Mental Health Outreach Services, Royal Women’s Hospital Clinic
RDNS HPP Nurses, Legal Services – Justice Connect and Inner Melbourne Community Legall, Wintringham Over 50’s Planned Activity Group, Optometry, PESP Workers

Ask to speak to the Duty Worker.  Please refer to cohealth entry in this booklet for additional information",,,"53 Victoria Street","Melbourne","1300 022 247",,,,"cohealth.org.au",,,"10.00am - 4.00pm","10.00am - 4.00pm","10.00am - 4.00pm","10.00am - 4.00pm","10.00am - 4.00pm","Closed","Closed","Closed",,"19, 57, 59 (stop 7 RMIT University)",,"Melbourne Central Station","Health Services / Pharmacy","Counselling and Psychiatric Services","Legal / Financial Advice","N/A","N/A","N/A","144.96121400000001","-37.806517999999997","(-37.806518, 144.961214)"
"Centrelink","Centrelink is an Australian Government agency delivering a range of services to the community, including social security payments.",,,"94 York Street","South Melbourne","132850",,,,"humanservices.gov.au/customer/dhs/centrelink","@Centrelink",,"8.30am - 4.30pm","8.30am - 4.30pm","8.30am - 4.30pm","8.30am - 4.30pm","8.30am - 4.30pm","Closed","Closed","Closed",,"12 (stop 127 York St) ",,,"Legal / Financial Advice","Employment Assistance","Tenancy Assistance","N/A","N/A","N/A","144.95891399999999","-37.830941000000003","(-37.830941, 144.958914)"
"Church of All Nations","Lunch on Tuesdays, Food pantry, lnternet kiosk and drop-in centre, Carlton No Interest Loans Scheme, Carlton Worker Learning Centre, 
Referral and Advocacy, Women’s program, Family Learning Program/Children and Parents (Homework Club)",,,"180 Palmerston Street","Carlton","9347 7077",,,,"carlton-uca.org",,"facebook.com/CarltonChurchofAllNations","Worker Learning Centre 10.00 am – 5.00 pm, Homework Club 4.00 pm – 6.00 pm","Worker Learning Centre 10.00 am – 5.00 pm, Food pantry 10.00 am – 12.00 pm, No Interest Loans 10.00 am – 4.00pm, Women’s program 11.00 am – 3.00 pm, Homework Club 4.00 pm – 6.00 pm","Worker Learning Centre 10.00 am – 5.00 pm, Food pantry 10.00 am – 12.00 pm, No Interest Loans 10.00 am – 4.00pm, Women’s program 11.00 am – 3.00 pm, Homework Club 4.00 pm – 6.00 pm","Worker Learning Centre 10.00 am – 5.00 pm, Food pantry 10.00 am – 12.00 pm, No Interest Loans 10.00 am – 4.00pm","Worker Learning Centre 10.00 am – 5.00 pm","Closed","Closed","Closed",,"1, 8 (stop 112 Elgin St)",,,"Accommodation","N/A","N/A","N/A","N/A","N/A","144.96864199999999","-37.795940999999999","(-37.795941, 144.968642)"
"Clarendon Clinic","psychiatric services for people with serious mental illness, crisis assessment",,,"52 Albert Street","East Melbourne","9417 5696",,,,,,,"9.00am - 5.00pm","9.00am - 5.00pm","9.00am - 5.00pm","9.00am - 5.00pm","9.00am - 5.00pm","Closed","Closed","Closed",,"24, 109 (stop 18 Grant St)",,,"Counselling and Psychiatric Services","N/A","N/A","N/A","N/A","N/A","144.98892699999999","-37.810921","(-37.810921, 144.988927)"
"COHEALTH","allied health services, social welfare services, 
health promotion programs, dental services,
medical services, counselling and  mental health services",,,"12 Gower Street","Kensington","8378 1600",,,,"cohealth.org.au","@cohealth_au","facebook.com/cohealth","9.00am - 5.00pm","9.00am - 5.00pm","9.00am - 5.00pm","9.00am - 5.00pm","9.00am - 5.00pm","Closed","Closed","Closed",,,"402 (Kensington Railway Station/Macaulay Rd (Kensington) Stop ID 7578)","Kensington (Craigieburn Line)","Health Services / Pharmacy","Counselling and Psychiatric Services","N/A","N/A","N/A","N/A","144.92907400000001","-37.795025000000003","(-37.795025, 144.929074)"
"COHEALTH","Outreach Support Services for people experiencing or at risk of becoming homelessness., Homeless Mental Health and Housing Service,
Allied Health Outreach Services, Dietetics and Café Meals, Podiatry, Occupational Therapy, Physiotherapy",,,"53 Victoria Street","Melbourne","1300 022 247",,,,"cohealth.org.au","@cohealth_au","facebook.com/cohealth","10.00am - 4.00pm","10.00am - 4.00pm","10.00am - 4.00pm","10.00am - 4.00pm","10.00am - 4.00pm","Closed","Closed","Closed",,"19, 57, 59 (stop 7 RMIT University)",,"Melbourne Central Station","Counselling and Psychiatric Services","Food","Health Services / Pharmacy","N/A","N/A","N/A","144.96121400000001","-37.806517999999997","(-37.806518, 144.961214)"
"COHEALTH","Provides a broad range of health and welfare services 
Drop-in Clinic for homeless people every Monday from 9am -12 noon. Services include physiotherapy, podiatry, occupational therapy, dietetics, and nursing.

Aboriginal engagement worker available, café meals program for homeless people, drop-in social work/counselling sessions, showers, needle and syringe program

dental services for homeless people and for people with drug and/or alcohol issues – phone dental reception:  9411 3505",,,"75 Brunswick Street","Fitzroy","9411 3555",,,,"cohealth.org.au","@cohealth_au","facebook.com/cohealth","9.00am - 5.30pm","9.00am - 5.30pm","9.00am - 5.30pm","9.00am - 5.30pm","9.00am - 5.30pm","9.00am - 12.00 Noon","Closed","Closed",,"11, 86, 12 (stop 13 Brunswick St)",,,"Health Services / Pharmacy","Food","Drug and Alcohol","Needle Exchange","N/A","N/A","144.97696999999999","-37.805149","(-37.805149, 144.97697)"
"COHEALTH","range of health and welfare services, drug and alcohol counseling, drop in social work/counselling sessions
needle and syringe programs, mental health community  support, doctors and nurses.",,,"365 Hoddle Street","Collingwood","9411 4333",,,,"cohealth.org.au","@cohealth_au","facebook.com/cohealth","8.30am - 5.30pm","8.30am - 5.30pm","8.30am - 5.30pm","8.30am - 5.30pm","8.30am - 5.30pm","9.00am - 12.00 Noon","Closed","Closed",,,"905, 907, 908, 318, 309, 246, 906, 305, 302, 304, 350, 303 (Johnston St/Hoddle St (Collingwood) Stop ID 934)","Victoria Park (South Morang  or Hurstbridge Line)","Drug and Alcohol","Needle Exchange","Counselling and Psychiatric Services","Health Services / Pharmacy","N/A","N/A","144.99259799999999","-37.798881000000002","(-37.798881, 144.992598)"
"COHEALTH","broad range of allied health and counselling services, social work/counselling sessions (by appointment only), secondary needle and syringe exchange",,,"622 Lygon Street","Carlton North","9349 7333",,,,"cohealth.org.au","@cohealth_au","facebook.com/cohealth","9.00am - 5.00pm","9.00am - 5.00pm","9.00am - 5.00pm","9.00am - 5.00pm","9.00am - 5.00pm","Closed","Closed","Closed",,"1, 8 (stop 114 Princes St) ",,,"Counselling and Psychiatric Services","Needle Exchange","N/A","N/A","N/A","N/A","144.968594","-37.791715000000003","(-37.791715, 144.968594)"
"COHEALTH - Inner Space","Cohealth’s primary health service for people who inject drugs plus primary needle and syringe program.
Services include:
doctors
drug and alcohol counseling
nursing (including psychiatric nurse)
breakfast program
phone, shower and laundry facilities
advocacy, support and referral
needle and syringe program.

There are Allied Health Outreach Workers situated at the Centre.  These workers include the following:
Nutrionist
Physiotherapist
Podiatrist
Legal
Financial

Drop in Centre:
Monday to Friday
11.00am – 1.00pm
3.00pm. – 5.00pm

The needle syringe program operates Monday to Friday: from 10.30am – 6.30pm",,,"4 Johnston Street","Collingwood","9468 2800",,,,"cohealth.org.au","@cohealth_au","facebook.com/cohealth","10.30 am – 6.30 pm, Drop in Centre:
11.00 am – 1.00 pm & 3.00 pm – 5.00 pm","10.30 am – 6.30 pm, Drop in Centre:
11.00 am – 1.00 pm & 3.00 pm – 5.00 pm","10.30 am – 6.30 pm, Drop in Centre:
11.00 am – 1.00 pm & 3.00 pm – 5.00 pm","10.30 am – 6.30 pm, Drop in Centre:
11.00 am – 1.00 pm & 3.00 pm – 5.00 pm","10.30 am – 6.30 pm, Drop in Centre:
11.00 am – 1.00 pm & 3.00 pm – 5.00 pm","Closed","Closed","Closed",,"86 (stop 19 Johnston St)",,,"Health Services / Pharmacy","Needle Exchange","Drug and Alcohol","N/A","N/A","N/A","144.98485400000001","-37.799008000000001","(-37.799008, 144.984854)"
"Depaul House","residential drug withdrawal service

Self referrals via the centralized hub.
Contact Direct Line on 1800 888 236 for your local hub.  You can also go on line to find your local service.",,,"9 Brunswick Street","Fitzroy","9231 2624",,,,"health.vic.gov.au/aod/help",,,"1.30 pm and 3.30pm","1.30 pm and 3.30pm","1.30 pm and 3.30pm","1.30 pm and 3.30pm","1.30 pm and 3.30pm","Open","Open","Open",,"86, 109, 12 (stop 11 Victoria Pde)",,,"Drug and Alcohol","N/A","N/A","N/A","N/A","N/A","144.976911","-37.807402000000003","(-37.807402, 144.976911)"
"Fitzroy Legal Service","A Community Legal Centre offering free legal advice, and some legal representation, community legal education, publications and law reform advocacy.",,,"124 Johnston Street","Fitzroy","9419 3744",,,"enquiries@fitzroy-legal.org.au","fitzroy-legal.org.au","@FitzroyLegal","facebook.com/fitzroylegal","9.00 am to 5.00 pm, Drop-in service 6.30 pm – 8.00 pm (appointment may be required)","9.00 am to 5.00 pm, Drop-in service 6.30 pm – 8.00 pm (appointment may be required)","9.00 am to 5.00 pm, Drop-in service 6.30 pm – 8.00 pm (appointment may be required)","9.00 am to 5.00 pm, Drop-in service 6.30 pm – 8.00 pm (appointment may be required)","9.00 am to 5.00 pm, Drop-in service 6.30 pm – 8.00 pm (appointment may be required)","Closed","Closed","Closed",,"12 (stop 16 Johnston St)",,,"Legal / Financial Advice","N/A","N/A","N/A","N/A","N/A","144.97908899999999","-37.798628999999998","(-37.798629, 144.979089)"
"Flagstaff Crisis Accommodation","supported accommodation, health services, psychiatric referral, drug and alcohol referral

free legal advice and assistance provided by Justice Connect –Tuesdays (fortnightly) at 1.00 pm. (by appointment)

Access to vacancies is only through Homeground Services. The local Homeground Service for the CBD area is located at 68 Oxford Street, Collingwood or telephone 9288 9611 or
Free call:  1800 048 325.","Accommodates men aged 18 years and over. ",,"Corner King and Roden Streets","West Melbourne","9329 4800",,,"adultservices@aus.salvationarmy.org","salvationarmy.org.au",,,"24 Hours","24 Hours, Free legal advice and assistance fortnightly at 1.00 pm. (by appointment)","24 Hours","24 Hours","24 Hours","Closed","Closed","Closed","Accommodation cost $25 per day, or $175 per week.","57 (stop 24 Victoria St)",,,"Hospitals / Emergency","Dentistry","Drug and Alcohol","Counselling and Psychiatric Services","N/A","N/A","144.949896","-37.806305999999999","(-37.806306, 144.949896)"
"Flemington & Kensington Community Legal Centre","free legal advice and assistance for residents of Flemington and Kensington","residents of Flemington and Kensington",,"22 Bellair Street","Kensington","9376 4355",,,"fklegal@fkclc.org.au","communitylaw.org.au/flemingtonkensington","@Flemlegal","facebook.com/FlemKenlegal","9:00am – 5:00pm (Closed:  12:30pm – 1:30pm for Lunch),  6.00 pm -7.00pm (appointments only)","9:00am – 5:00pm
(Closed:  12:30pm – 1:30pm for Lunch)","9:00am – 5:00pm
(Closed:  12:30pm – 1:30pm for Lunch)","9:00am – 5:00pm
(Closed:  12:30pm – 1:30pm for Lunch)","9:00am – 5:00pm
(Closed:  12:30pm – 1:30pm for Lunch)","Closed","Closed","Closed",,"57 (stop 26 Newmarket Station)",,"Newmarket (Craigieburn Line)","Legal / Financial Advice","Tenancy Assistance","N/A","N/A","N/A","N/A","144.92872700000001","-37.789147999999997","(-37.789148, 144.928727)"
,,,,,,,,,,,,,,,,,,,,,,,,,"N/A","N/A","N/A","N/A","N/A","N/A",,,
"Foot Patrol","needle exchange/health outreach program",,,,,"0412 155 491",,"1800 700 102",,"youthprojects.org.au/health/programs/foot-patrol","@Youth_Projects","facebook.com/YouthProjects","12.00pm - 3.15pm, 4.00pm - 6.45pm, 7.30pm - 10.45pm","12.00pm - 3.15pm, 4.00pm - 6.45pm, 7.30pm - 10.45pm","12.00pm - 3.15pm, 4.00pm - 6.45pm, 7.30pm - 10.45pm","12.00pm - 3.15pm, 4.00pm - 6.45pm, 7.30pm - 10.45pm","12.00pm - 3.15pm, 4.00pm - 6.45pm, 7.30pm - 10.45pm","12pm - 3.45pm, 7.30pm - 11.15pm","12pm - 3.45pm, 7.30pm - 11.15pm","12pm - 3.45 pm, 7.30pm - 11.15pm",,,,,"Needle Exchange","N/A","N/A","N/A","N/A","N/A",,,
"Frontyard Youth Services","accommodation referral, centrelink, youth connections, gateway reconnect, legal advice, health services, 
Job Services Australia, family reconciliation and mediation program","aged between 12 to 25
homeless, at risk of homelessness, disengaged or requiring support.",,"19 King Street","Melbourne","9611 2411",,"1800 800 531","frontyard@mcm.org.au","www.frontyard.org",,,"9.00 am – 8.00 pm","9.00 am – 8.00 pm","9.00 am – 8.00 pm","9.00 am – 8.00 pm","9.00 am – 8.00 pm","10.00 am– 6.00 pm","10.00 am– 6.00 pm","Open",,"City Circle, 70, 75 (stop  2 Melbourne Aquarium)",,"Southern Cross","Accommodation","Health Services / Pharmacy","Legal / Financial Advice","Employment Assistance","N/A","N/A","144.95730499999999","-37.819927999999997","(-37.819928, 144.957305)"
"GROW","A movement of community mental health and mutual support self-help groups.  Weekly groups are available for people who have been through a breakdown, or who are overwhelmed by problems and painful life experiences. ",,,"707 Glenhuntly Road","Caulfield South","9528 2977",,"1800 558 268","vic@grow.org.au","grow.org.au","@GrowAu","facebook.com/growau","9.00am - 5.00pm","9.00am - 5.00pm","9.00am - 5.00pm","9.00am - 5.00pm","9.00am - 5.00pm","Closed","Closed","Closed",,"67 (stop 50 Royal Pde)",,,"Counselling and Psychiatric Services","N/A","N/A","N/A","N/A","N/A","145.01906099999999","-37.886526000000003","(-37.886526, 145.019061)"
"Hanover Fitzroy","The Assertive Outreach Team offers support to people sleeping out.  Support can include:
accommodation information and referral , sleeping gear and food bags, referral to other services such as health or legal services, visiting people who are sleeping out.",,,"145 Smith Street","Fitzroy","9288 9800",,,"fitzroy@hanover.org.au","hanover.org.au","@Hanovermelb","facebook.com/hanover.welfare.services","9.00am - 5.00pm","9.00am - 5.00pm","9.00am - 5.00pm","9.00am - 5.00pm","9.00am - 5.00pm","Closed","Closed","Closed",,"86 (stop 16 Peel St)",,,"Accommodation","Health Services / Pharmacy","Clothes and Blankets","N/A","N/A","N/A","144.98273599999999","-37.804577999999999","(-37.804578, 144.982736)"
"Hanover Southbank","short term supported crisis accommodation for men, women and couples

accommodation support and referrals, case management and planning, health services, learning and activities, drug and alcohol support, shared kitchen and bathroom facilities",,,"52 Haig Street","South Melbourne","9699 4566",,,"southbank@hanover.org.au","hanover.org.au","@Hanovermelb","facebook.com/hanover.welfare.services","12:00 AM - 11:59 AM","12:00 AM - 11:59 AM","12:00 AM - 11:59 AM","12:00 AM - 11:59 AM","12:00 AM - 11:59 AM","12:00 AM - 11:59 AM","Closed","Closed","Lodging fee arrangements are prepared on the below costs:
Working/Pension - $18.00 per night
New Start - $15.50 per night
Youth Allowance - $11.00 per night
(Breakfast is included)","96, 109, 12 (stop 124B Whiteman St)",,,"Accommodation","Health Services / Pharmacy","Showers / Laundry","N/A","N/A","N/A","144.95626799999999","-37.827398000000002","(-37.827398, 144.956268)"
"Hare Krishna Temple","free meals",,"Food for Life","197 Danks Street","Albert Park","9699 5122",,,,"harekrishnamelbourne.com.au","@harekrishnamelb","facebook.com/harekrishnamelbourne","1pm - 1:30pm, 5:30pm - 6:30pm","1pm - 1:30pm, 5:30pm - 6:30pm","1pm - 1:30pm, 5:30pm - 6:30pm","1pm - 1:30pm, 5:30pm - 6:30pm","1pm - 1:30pm, 5:30pm - 6:30pm","1pm - 1:30pm, 6pm - 7pm","1pm - 1:30pm, 6pm - 7pm","Closed",,"12 (stop 136 Danks St)",,,"Food","N/A","N/A","N/A","N/A","N/A","144.954037","-37.848050999999998","(-37.848051, 144.954037)"
"HomeGround Services","initial assessment and planning for housing crisis accommodation
limited financial assistance
assistance with public housing applications
free legal advice and assistance provided by Justice Connect.  Contact Justice Connect on telephone 1800 606 313 to talk to an Intake Worker to make an appointment
Not-for-profit real estate agency committed to providing landlords and tenants with a professional property management service, while reinvesting our revenue back into the community (Phone: 9288 9600)",,,"68 Oxford Street","Collingwood","9288 9611",,"1800 606 313","info@homeground.org.au","homeground.org.au","@_HomeGround","facebook.com/homegroundservices","9.00am - 5.00pm","9.00am - 5.00pm","9.00am - 5.00pm","9.00am - 5.00pm","9.00am - 5.00pm","Closed","Closed","Closed",,"86 (stop 16 Peel St)",,,"Accommodation","Legal / Financial Advice","Tenancy Assistance","N/A","N/A","N/A","144.98479699999999","-37.804758999999997","(-37.804759, 144.984797)"
"Homelessness Advocacy Service (HAS) – Council to Homeless Persons",,,,"2 Stanley Street","Collingwood",,,"1800 066 256","Angela@chp.org.au","chp.org.au/services/has/","@CHPVic",,"9.00am - 5.00pm","9.00am - 5.00pm","9.00am - 5.00pm","9.00am - 5.00pm","9.00am - 5.00pm","Closed","Closed","Closed",,"86 (stop 18 Hodgson St)",,,"Legal / Financial Advice","N/A","N/A","N/A","N/A","N/A","144.98427799999999","-37.801915000000001","(-37.801915, 144.984278)"
"Inner Melbourne Community Legal ","free legal information, advice and casework","financially disadvantaged individuals who live, work or study in: 
·         Melbourne CBD
·         North Melbourne
·         West Melbourne
·         Docklands 
·         Carlton.","Suite 2","508 Queensberry Street","North Melbourne","9328 1885",,,"north_melbourne@clc.net.au","imcl.org.au","@IMelbCL","facebook.com/IMCL.org","9.00am - 5.00pm","9.00am - 5.00pm, General legal: fortnightly from 9:30 – 11:30am, Criminal law: fortnightly from 6:30 – 8:30pm","9.00am - 5.00pm, Family law: fortnightly from 6:30 – 8:30pm ","9.00am - 5.00pm","9.00am - 5.00pm, Debt and infringement: from 1:30 – 4pm","Closed","Closed","Closed",,"57 (stop 12 North Melbourne Town Hall)",,,"Legal / Financial Advice","N/A","N/A","N/A","N/A","N/A","144.95040399999999","-37.803069000000001","(-37.803069, 144.950404)"
"Inner Melbourne VET Cluster (IMVC)","Making Alternatives Program (MAP) Program – Term 4 (10 weeks): is designed for young adults, aged 15-18 years seeking an alternative learning environment to mainstream schooling.  Students will participate in Career and Industry exploration activities beyond the classroom.  The program’s small-group setting will also provide for a more supportive and individualized approach to learning.

Springboard Program:  The Springboard Program provides outreach case management and funding to young people who are, or have been, in residential out-of-home care, between 16 and 21 years of age, who are disengaged from education, training or employment.  The young person has to be subject to a Custody of Secretary Order or a Guardianship Order on or after their 16th birthday to be eligible for Springboard support.",,"Level 1","71 Palmerston Crescent","South Melbourne","9686 2354",,,"reception@imvc.com.au","imvc.com.au",,"facebook.com/IMVCInnerMelbourneVETCluster",,,,,,,,,,"55 (stop 118 Park St)",,,"Legal / Financial Advice","Employment Assistance","N/A","N/A","N/A","N/A","144.96907899999999","-37.835110999999998","(-37.835111, 144.969079)"
,,,,,,,,,,,,,,,,,,,,,,,,,"N/A","N/A","N/A","N/A","N/A","N/A",,,
"Justice Connect Homeless Law","Homeless Law provides free legal advice and assistance to people who are homeless or at risk of homelessness.

The service assists with the following legal issues:
infringements that are related to homelessness, tenancy, credit and debt, guardianship and administration.

It operates from a number of outreach locations within the City of Melbourne.",,,"229 Barkly Street","Footscray ",,,"1800 606 313","admin@justiceconnect.org.au","justiceconnect.org.au","@Justice_Connect","facebook.com/JusticeConnect",,,,,,,,,,,,,"Legal / Financial Advice","N/A","N/A","N/A","N/A","N/A","144.89657500000001","-37.799988999999997","(-37.799989, 144.896575)"
"Living Room Primary Health Service","Living Room is made up of a team of doctors/nurses and community development workers who provide a confidential ‘user friendly’ free health service.

health services, referrals and information, chill out space, tea and coffee


There are a number of co-located services including:
Centrelink, podiatry, dieticians, dental hygienist, mental health nurses, social worker, psychologist, Hep C, liver clinic, housing services, youth response, employment agency.

Drop into Hosier Lane or contact outreach workers by phone.",,,"7-9 Hosier Lane","Melbourne","9945 2100",,"1800 440 188","livingroom@youthprojects.org.au","youthprojects.org.au","@Youth_Projects","facebook.com/YouthProjects","10:00am – 12:00pm, 1pm - 4pm","Mornings by appointment only, 1pm - 4pm","Mornings by appointment only, 1pm - 4pm","Mornings by appointment only, 1pm - 4pm","Mornings by appointment only, 1pm - 4pm","Closed","Closed","Closed",,"City Circle, 70, 71, 75 (stop 5 Russell St)",,"Flinders Street","Health Services / Pharmacy","N/A","N/A","N/A","N/A","N/A","144.96902900000001","-37.816296999999999","(-37.816297, 144.969029)"
"McAuley Community Services for Women - McAuley House Program","medium term supported accommodation","Medium term supported accommodation for women, unaccompanied by children, aged between 25 – 55 years who are homeless, at risk of homelessness and/or have a mental illness.",,"149 Flemington Road","North Melbourne"," 9269 6868",,,"mcsw@mcauleycsw.org.au","mcauleycsw.org.au","@McAuleycsw","facebook.com/McAuleycsw","9.00am - 5.00pm","9.00am - 5.00pm","9.00am - 5.00pm","9.00am - 5.00pm","9.00am - 5.00pm","Closed","Closed","Closed",,"55, 57, 59",,,"Accommodation","Health Services / Pharmacy","N/A","N/A","N/A","N/A","144.94962899999999","-37.795588000000002","(-37.795588, 144.949629)"
"Quin House","Quin House accommodates men over 18 years. There is an abstinence-based program with referral through the withdrawal services.

residential drug and alcohol rehabilitation (3 months), post-residential program, accommodation referral","Men over 18 years",,"38-40 George Street","Fitzroy","9419 4874",,,,"vincentcare.org.au",,,"9.00am - 5.00pm","9.00am - 5.00pm","9.00am - 5.00pm","9.00am - 5.00pm","9.00am - 5.00pm","Closed","Closed","Closed",,"86 (stop 14 Napier St)",,,"Food","Drug and Alcohol","N/A","N/A","N/A","N/A","144.98075800000001","-37.807262999999999","(-37.807263, 144.980758)"
"Rosies Bus","Rosies Bus parks at Flinders Street Station and provides tea, coffee, biscuits, milo, and cordial.
(Winter Season):  Blankets/Gloves/Beanies and Scarves)",,,,,"9795 5077",,,"rosies.vic@oblates.com.au","rosiesvic.oblates.com.au",,"facebook.com/rosiesvictoria","Closed","Closed","8.30pm - 10.30pm","Closed","8.30pm - 10.30pm","Closed","Closed","Closed",,,,"Flinders Street","Food","N/A","N/A","N/A","N/A","N/A",,,
"Matthew Talbot Fitzroy Soup Van","The Fitzroy Soup Van does street stops around the city area and operates 7 days per week.

Monday to Friday:
Sandwiches, soup, sausage rolls, meat pies, pasties, tea, coffee and cordial.

Saturday and Sunday:
Sandwiches, soup, tea, coffee and cordial.","The Fitzroy Soup Van is a free service available to anyone in the Fitzroy area. We typically support people who face financial difficulties and those who are homeless.",,"Multiple locations. Please contact provider for latest location information.",,,,,"soupvans@svdp-vic.org.au","vinnies.org.au/page/Find_Help/VIC/Food/Fitzroy_Soup_Van/",,,"Times are approximate: Corner McCauley and Boundary Road, North Melbourne – 7.00 p.m. – 7.20pm, All Saints Fitzroy – 7.40pm – 8.00pm, Hanover – 52 Haig Street, Southbank – 9.00pm, Queen Victoria Market (Peel Street) - Carpark – 9.30pm, Flinders Street Station –  8.20pm","Times are approximate: Corner McCauley and Boundary Road, North Melbourne – 7.00 p.m. – 7.20pm, All Saints Fitzroy – 7.40pm – 8.00pm, Hanover – 52 Haig Street, Southbank – 9.00pm, Queen Victoria Market (Peel Street) - Carpark – 9.30pm, Godfrey Street, City –  9.15pm.","Times are approximate: Corner McCauley and Boundary Road, North Melbourne – 7.00 p.m. – 7.20pm, All Saints Fitzroy – 7.40pm – 8.00pm, Hanover – 52 Haig Street, Southbank – 9.00pm, Queen Victoria Market (Peel Street) - Carpark – 9.30pm, Flinders Street Station –  8.20pm","Times are approximate: Corner McCauley and Boundary Road, North Melbourne – 7.00 p.m. – 7.20pm, All Saints Fitzroy – 7.40pm – 8.00pm, Hanover – 52 Haig Street, Southbank – 9.00pm, Queen Victoria Market (Peel Street) - Carpark – 9.30pm, Flinders Street Station –  8.20pm","Times are approximate: Corner McCauley and Boundary Road, North Melbourne – 7.00 p.m. – 7.20pm, All Saints Fitzroy – 7.40pm – 8.00pm, Hanover – 52 Haig Street, Southbank – 9.00pm, Queen Victoria Market (Peel Street) - Carpark – 9.30pm, Flinders Street Station –  8.20pm","Times are approximate: Corner McCauley and Boundary Road, North Melbourne – 7.00 p.m. – 7.20pm, All Saints Fitzroy – 7.40pm – 8.00pm, Hanover – 52 Haig Street, Southbank – 9.00pm, Queen Victoria Market (Peel Street) - Carpark – 9.30pm, Flinders Street Station –  8.20pm","Times are approximate: Corner McCauley and Boundary Road, North Melbourne – 7.00 p.m. – 7.20pm, All Saints Fitzroy – 7.40pm – 8.00pm, Hanover – 52 Haig Street, Southbank – 9.00pm, Queen Victoria Market (Peel Street) - Carpark – 9.30pm, Flinders Street Station –  8.20pm","Times are approximate: Corner McCauley and Boundary Road, North Melbourne – 7.00 p.m. – 7.20pm, All Saints Fitzroy – 7.40pm – 8.00pm, Hanover – 52 Haig Street, Southbank – 9.00pm, Queen Victoria Market (Peel Street) - Carpark – 9.30pm, Flinders Street Station –  8.20pm",,,,,"Food","N/A","N/A","N/A","N/A","N/A",,,
"Melbourne Counselling Service","gambling counselling, youth sexual assault counselling, a unit of Gamblers Help, financial counselling, general counselling",,"Level 2 ","69 Bourke Street","Melbourne","9653 3250",,,,"salvationarmy.org.au",,,"9.00am - 5.00pm","9.00am - 5.00pm","9.00am - 5.00pm","9.00am - 5.00pm","9.00am - 5.00pm","Closed","Closed","Closed",,"City Circle, 86, 95, 96 (stop 9 Spring St)",,"Parliament","Counselling and Psychiatric Services","Legal / Financial Advice","N/A","N/A","N/A","N/A","144.97162800000001","-37.812514999999998","(-37.812515, 144.971628)"
"Melbourne Sexual Health Centre","sexual health services, pregnancy testing, counselling, pharmacy, needle exchange, result and information line",,,"580 Swanston Street","Carlton","9341 6200",,,,"mshc.org.au",,,"8.40am - 5pm","8.40am - 5pm","8.40am - 5pm","8.40am - 5pm, 5.00pm - 6:30pm by appointment only","12:30pm - 5.00pm","Closed","Closed","Closed",,"1, 3, 5, 6, 8, 16, 64, 67, 72 (stop 3 Lincoln Square)",,,"Health Services / Pharmacy","Drug and Alcohol","Needle Exchange","N/A","N/A","N/A","144.96383700000001","-37.803077999999999","(-37.803078, 144.963837)"
"North West Outreach Service","needle and syringe program",,,,"Kensington, Flemington, Ascot Vale, Moonee Ponds, Essendon and Niddrie","0418 170 556",,"1800 170 556",,,,,"6.00pm – 2.00am","6.00pm – 2.00am","6.00pm – 2.00am","6.00pm – 2.00am","6.00pm – 2.00am","6.00pm – 2.00am","6.00pm – 2.00am","6.00pm – 2.00am",,,,,"Needle Exchange","N/A","N/A","N/A","N/A","N/A",,"144.915469",
"Hamodava Café","Provides meals Monday to Friday, at no cost.


a  safe place for Melbourne’s homeless and marginalized
meals provided Monday to Friday at no cost
assessment and referral for D&A, mental health and legal services",,,"69 Bourke Street","Melbourne","9653 3299",,,,"salvationarmy.org.au/melbourne614","@melb614","acebook.com/melbourne614","Breakfast: 9.00am – 10.30am, Lunch: 11.30am – 1.00pm","Breakfast: 9.00am – 10.30am, Lunch: 11.30am – 1.00pm","Breakfast: 9.00am – 10.30am, Lunch: 11.30am – 1.00pm","Breakfast: 9.00am – 10.30am, Lunch: 11.30am – 1.00pm","Breakfast: 9.00am – 10.30am, Lunch: 11.30am – 1.00pm","Closed","Closed","Closed",,"City Circle, 86, 96 (stop 9 Spring St)",,"Parliament","Food","N/A","N/A","N/A","N/A","N/A","144.97162800000001","-37.812514999999998","(-37.812515, 144.971628)"
"Open Family Australia","Outreach service for young people 10-25 years, accommodation referral, drug and alcohol referral, legal advice referral and recreational activities.

The ‘Chatter Box Bus’ operates from 8pm till late in and around Melbourne CBD ‘hotspots’ on Wednesday, Friday and Saturday nights.  Food, advice and activities offered.","Outreach service for young people 10-25 years",,"155 Roden Street","West Melbourne","8354 0800",,,"info@openfamily.com.au","openfamily.com.au",,,"9.00 am - 5.00 pm","9.00 am - 5.00 pm","9.00 am - 5.00 pm, Chatter Box Bus: 8pm till late","9.00 am - 5.00 pm","9.00 am - 5.00 pm, Chatter Box Bus: 8pm till late","Chatter Box Bus: 8pm till late","Closed","Closed",,"57 (stop 11 Victoria St)",,"North Melboourne","Accommodation","Drug and Alcohol","Legal / Financial Advice","N/A","N/A","N/A","144.94717700000001","-37.808663000000003","(-37.808663, 144.947177)"
"Orygen Youth Health","Public mental health service","Young people aged 15 – 24 years living in the Western and North-Western regions of Melbourne",,"35 Poplar Road","Parkville","9342 2800",,"1800 888 320","info@orygen.org.au","oyh.org.au",,,"9.00am - 5.00pm","9.00am - 5.00pm","9.00am - 5.00pm","9.00am - 5.00pm","9.00am - 5.00pm","Closed","Closed","Closed",,"55 (stop 26 Royal Park Station)",,"Royal Park – Upfield Line.","Health Services / Pharmacy","Counselling and Psychiatric Services","N/A","N/A","N/A","N/A","144.94857099999999","-37.779449","(-37.779449, 144.948571)"
"Ozanam Community Centre","breakfast – daily between 9.15 am - 10am
lunch – daily between 12 noon - 1pm.
laundry, shower, health services, dentist, drug and alcohol counselling, doctor and nurse, therapeutic groups, centrelink, Inner Melbourne Legal Services.","Statewide services for homeless and disadvantaged people who are over 18 years old",,"268 Abbotsford Street","North Melbourne","9329 6733",,,,"vincentcare.org.au",,,"9.00am - 2.30pm","9.00am - 2.30pm","9.00am - 2.30pm","9.00am - 2.30pm","9.00am - 2.30pm","Closed","Closed","Closed",,"57 (stop 15 Arden St)",,,"Food","Health Services / Pharmacy","Dentistry","Showers / Laundry","Counselling and Psychiatric Services","N/A","144.946225","-37.800795000000001","(-37.800795, 144.946225)"
"Ozanam House","crisis accommodation for men over the age of 18, food (3 meals per day to residents), laundry ($1 operation charge for residents)

centrelink services Thursday 9:30am - 11.30am

Accommodation Referrals for Ozanam House through VincentCare Housing Services.
Phone 9304 0100 
Freecall:   1800 618 468","Crisis accommodation centre houses men over 18 years of age.",,"179 Flemington Road","North Melbourne","9304 0100 ","9329 5100","1800 618 468",,"vincentcare.org.au",,,"24 hours","24 hours","24 hours","24 hours","24 hours","24 hours","24 hours","24 hours","Disability - $30.00 per night
New Start Allowance - $24.00 per night
Youth Allowance - $18.00 per night.","55, 57, 59 (stop 19 Abbotsford St Interchange)",,,"Food","Accommodation","Showers / Laundry","N/A","N/A","N/A","144.94850700000001","-37.795439000000002","(-37.795439, 144.948507)"
"Presbyterian and Scots’ Church Joint Mission (The Flemington Mission)","coffee, conversation,  blankets, books, etc. every Tuesday.
food relief is also available on the 1st and 3rd Tuesdays of each month.",,,"26 Norwood Street","Flemington","9376 3777",,,,,,,"Closed","10.00am - 1.00pm","Closed","Closed","Closed","Closed","Closed","Closed",,"57 (stop 25 Wellington St)",,"Newmarket (Craigieburn Line)","Food","Clothes and Blankets","N/A","N/A","N/A","N/A","144.93081000000001","-37.787084","(-37.787084, 144.93081)"
"RDNS Homeless Person’s Program","Health services",,,"113 Rosslyn Street","West Melbourne","1300 334 455",,,"cscentre@rdns.com.au","rdns.com.au",,,"8:30 AM - 5:30 PM","8:30 AM - 5:30 PM","8:30 AM - 5:30 PM","8:30 AM - 5:30 PM","8:30 AM - 5:30 PM","Closed","Closed","Closed",,"57 (stop 10 Chetwynd St)",,,"Health Services / Pharmacy","N/A","N/A","N/A","N/A","N/A","144.95082500000001","-37.808981000000003","(-37.808981, 144.950825)"
"Royal Victorian Eye & Ear Hospital","Outpatients’ emergency service",,,"32 Gisborne Street","East Melbourne","9929 8666",,,"info@eyeandear.org.au","eyeandear.org.au",,,"24 hours","24 hours","24 hours","24 hours","24 hours","24 hours","24 hours","24 hours",,"109, 12 (stop 12 St Vincent’s Plaza)",,,"Hospitals / Emergency","N/A","N/A","N/A","N/A","N/A","144.97621899999999","-37.808784000000003","(-37.808784, 144.976219)"
"Sacred Heart Mission","free breakfast 8.30am – 10.30am (Monday to Friday) 
Saturday and Sunday and Public Holidays 9.00am - 10.30 am.
free lunch 11.45am – 1.15pm every day of the year, including public holidays
op shop
free showers & laundry
assistant with housing and referrals, physical and mental health, counseling and support
GP and nurse clinic
health and well-being program.",,,"87 Grey Street","St Kilda","9537 1166",,,"info@sacredheartmission.org","sacredheartmission.org","@ScdHrtMission","facebook.com/sacredheartmission","8.30am – 10.30am, 11.45am – 1.15pm","8.30am – 10.30am, 11.45am – 1.15pm","8.30am – 10.30am, 11.45am – 1.15pm","8.30am – 10.30am, 11.45am – 1.15pm","8.30am – 10.30am, 11.45am – 1.15pm","9.00am – 10.30am, 11.45am – 1.15pm","9.00am – 10.30am, 11.45am – 1.15pm","9.00am – 10.30am, 11.45am – 1.15pm","No Fee","16, 96 (stop 132 St Kilda Station)",,,"Food","Accommodation","Clothes and Blankets","Showers / Laundry","N/A","N/A","144.97978699999999","-37.863011","(-37.863011, 144.979787)"
"Sacred Heart Mission’s Women’s House","The Women’s House is a safe drop-in centre for women open Monday – Friday 11.30am - 3.00pm.
free lunch is available between 11.30am -  2.00pm
assistance with housing and referrals, physical and mental health, counseling and support
showers, laundry & telephones
computer and internet
art program and social activities","Single Women 25 years +",,"65 Robe Street","St Kilda","9536 8464",,,"womenshouse@sacredheartmission.org","sacredheartmission.org","@ScdHrtMission","facebook.com/sacredheartmission","11.30 am - 3.00 pm, free lunch 11.30 am -  2.00 pm","11.30 am - 3.00 pm, free lunch 11.30 am -  2.00 pm","11.30 am - 3.00 pm, free lunch 11.30 am -  2.00 pm","11.30 am - 3.00 pm, free lunch 11.30 am -  2.00 pm","11.30 am - 3.00 pm, free lunch 11.30 am -  2.00 pm","Closed","Closed","Closed","No Fee","16, 96 (stop 132 St Kilda Station)",,,"Food","Accommodation","Clothes and Blankets","Showers / Laundry","Counselling and Psychiatric Services","N/A","144.98023699999999","-37.863675999999998","(-37.863676, 144.980237)"
"Sacred Heart Mission’s Clinic","provides natural and complementary therapies such as podiatry, physiotherapy, massage, hairdressing

appointment required","Priority is given to people who hold a pension/health care card or are living in unstable accommodation and live in the City of Port Phillip or have been referred by an agency.",,"1/99 Grey Street","St Kilda","9536 8456",,,,"sacredheartmission.org","@ScdHrtMission","facebook.com/sacredheartmission","9am - 4:15pm (Appointment needed)","9am - 4:15pm (Appointment needed)","9am - 4:15pm (Appointment needed)","9am - 4:15pm (Appointment needed)","9am - 4:15pm (Appointment needed)","Closed","Closed","Closed","a payment of $2 is requested however treatment will not be refused if a person is unable to pay","16, 96 (stop 132 St Kilda Station)",,,"Health Services / Pharmacy","N/A","N/A","N/A","N/A","N/A","144.980726","-37.863289999999999","(-37.86329, 144.980726)"
"Salvation Army – Project 614",,,,"69 Bourke Street","Melbourne","9653 3299",,,,"salvationarmy.org.au/melbourne614","@melb614","acebook.com/melbourne614",,,,,,,,,,,,,"N/A","N/A","N/A","N/A","N/A","N/A","144.97162800000001","-37.812514999999998","(-37.812515, 144.971628)"
"The Market Place","provides practical support by way of our no cost supermarket.
food, toiletries, clothing, etc.
shower facilities
assessment and referral service",,,"69 Bourke Street","Melbourne","9653 3299",,,,"salvationarmy.org.au/melbourne614","@melb614","acebook.com/melbourne614","9.30am – 12.00 noon","9.30am – 12.00 noon","9.30am – 12.00 noon","9.30am – 12.00 noon","9.30am – 12.00 noon","Closed","Closed","Closed",,"City Circle, 86, 96 (stop 9 Spring St)",,"Parliament","Food","N/A","N/A","N/A","N/A","N/A","144.97162800000001","-37.812514999999998","(-37.812515, 144.971628)"
"614/AMP Youth Bus","a safe place for Melbourne’s homeless and marginalized youth
provides activities and food
referral for D&A, medical and legal services
internet access",,,"Bus located corner Swanston and Flinders Streets - Mobile service please check provider's website for updated location","Melbourne",,,,,"salvationarmy.org.au/melbourne614","@melb614","acebook.com/melbourne614","6.30pm – 9.00pm","6.30pm – 9.00pm","6.30pm – 9.00pm","Closed","Closed","Closed","Closed","Closed",,,,,"Food","N/A","N/A","N/A","N/A","N/A","144.96755300000001","-37.817290999999997","(-37.817291, 144.967553)"
"Salvation Army – 24/7 Melbourne’s Road Home","is an outreach program that seeks to search, locate and engage with rough sleepers
can be contacted in regards to rough sleepers in and around the Melbourne CBD
accepts referrals from police, ambulance, business owners and the general community,",,,,,"1800 266 686 489",,"1800 COMMUNITY",,"salvationarmy.org.au/melbourne614","@melb614","acebook.com/melbourne614","24 hours","24 hours","24 hours","24 hours","24 hours","24 hours","24 hours","24 hours",,,,,"N/A","N/A","N/A","N/A","N/A","N/A",,,
"The Couch International Student Centre","links International Students to support services and provides general information
provides a safe space to socialize and interact with others
free meals",,,"69 Bourke Street","Melbourne","9653 3299",,,,"salvationarmy.org.au/melbourne614","@melb614","acebook.com/melbourne614","5.00pm – 9.00pm","5.00pm – 9.00pm","5.00pm – 9.00pm","5.00pm – 9.00pm","Closed","Closed","Closed","Closed",,"City Circle, 86, 96 (stop 9 Spring St)",,"Parliament","Food","N/A","N/A","N/A","N/A","N/A","144.97162800000001","-37.812514999999998","(-37.812515, 144.971628)"
"Salvation Army Open Door","accommodation (transitional)
laundry

Referrals via HomeGround, entering through Flagstaff Crisis Accommodation or Ozanam House.","Transitional accommodation (3 to 6 months) for homeless men who are over 18 years .",,"166 Boundary Road","North Melbourne","9329 6988",,,,"salvationarmy.org.au/adultservices",,,"9.00am - 5.00pm, program staffed 24 hours","9.00am - 5.00pm, program staffed 24 hours","9.00am - 5.00pm, program staffed 24 hours","9.00am - 5.00pm, program staffed 24 hours","9.00am - 5.00pm, program staffed 24 hours","Closed, program staffed 24 hours","Closed, program staffed 24 hours","Closed, program staffed 24 hours","$385 per fortnight on DSP.  
New Start Youth Allowance $350 per fortnight, including three meals per day.","57, 59 (stop 22 Flemington Bridge Station)",,"Flemington Bridge (Upfield Line)","Accommodation","Showers / Laundry","N/A","N/A","N/A","N/A","144.93988400000001","-37.790064000000001","(-37.790064, 144.939884)"
"Settlement Program","Providing assistance to members of the community that have lived in Australia for less than 5 years.

referral service, domestic violence support, drug and gambling information, housing advice, legal information, citizenship advice, support to community groups, settlement issues for new arrivals.",,,"58 Holland Court","Flemington","9376 2033",,,"jss@jss.org.au","jss.org.au","@JesuitSocialSer","facebook.com/jesuitsocialservices","9.30 AM - 5.30 PM","9.30 AM - 5.30 PM","9.30 AM - 5.30 PM","9.30 AM - 5.30 PM","9.30 AM - 5.30 PM","Closed","Closed","Closed",,"57",,,"Accommodation","Legal / Financial Advice","Drug and Alcohol","N/A","N/A","N/A","144.93570700000001","-37.787059999999997","(-37.78706, 144.935707)"
"St. Francis Pastoral Centre",,,,"326 Lonsdale Street","Melbourne","9663 2495",,,"stfrancis@blessedsacrament.com.au","stfrancismelbourne.org.au",,,"Closed","Closed","10.00am – 2.00pm","Closed","10.00am – 2.00pm","Closed","10.00am – 2.00pm","Closed","Tea/Coffee & Biscuit for $1.00 or donation.",,,,"Food","N/A","N/A","N/A","N/A","N/A","144.96247199999999","-37.811734999999999","(-37.811735, 144.962472)"
"St. Mary’s House of Welcome","meals program, showers, information and referral to drugs and alcohol/housing/health etc.
day-to-day living program:  provides activities and programs for people living with a mental illness.","All programs and services are open to adults aged over 18 years.",,"165-169 Brunswick Street","Fitzroy","9417 6497",,,,"smhow.org.au","@StMarysHOW","facebook.com/smhow","8:30am - 3:30pm, Free breakfast 8.45am - 9.45am, Free morning tea 10.30am, Sit down two-course lunch 12:00pm - 1.00pm (cost: $2.00), Free afternoon tea at 3pm","8:30am - 3:30pm, Free breakfast 8.45am - 9.45am, Free morning tea 10.30am, Sit down two-course lunch 12:00pm - 1.00pm (cost: $2.00), Free afternoon tea at 3pm","8:30am - 1:30pm, Free breakfast 8.45am - 9.45am, Free morning tea 10.30am, Sit down two-course lunch 12:00pm - 1.00pm (cost: $2.00)","8:30am - 3:30pm, Free breakfast 8.45am - 9.45am, Free morning tea 10.30am, Sit down two-course lunch 12:00pm - 1.00pm (cost: $2.00), Free afternoon tea at 3pm","8:30am - 3:30pm, Free breakfast 8.45am - 9.45am, Free morning tea 10.30am, Sit down two-course lunch 12:00pm - 1.00pm (cost: $2.00), Free afternoon tea at 3pm","8:30am - 1:30pm, Free breakfast 8.45am - 9.45am, Free morning tea 10.30am, Sit down two-course lunch 12:00pm - 1.00pm (cost: $2.00)","Closed","Closed","Sit down two-course lunch $2.00","11 (stop 14 King William St)",,,"Food","Showers / Laundry","Drug and Alcohol","N/A","N/A","N/A","144.97746000000001","-37.802492000000001","(-37.802492, 144.97746)"
"St. Vincent’s de Paul","clothing, furniture and bric-a-brac (cheap)

Call Head Office on 9895 5800 for help in finding your nearest branch.",,,"121 Johnston Street","Collingwood","9417 4559","9895 5800",,"collingwood.centre@svdp-vic.org.au","vinnies.org.au","@VinniesVictoria","facebook.com/StVincentdePaulSocietyVictoria","9.00am - 5.00pm","9.00am - 5.00pm","9.00am - 5.00pm","9.00am - 5.00pm","9.00am - 5.00pm","Closed","Closed","Closed",,,"200, 207
(Hoddle St/Johnston St (Collingwood) stop ID 851)","Victoria Park","Clothes and Blankets","N/A","N/A","N/A","N/A","N/A","144.988812","-37.799683000000002","(-37.799683, 144.988812)"
"St. Vincent’s Emergency Department","Outpatients’ emergency service",,,"41 Victoria Parade","Fitzroy","9231 2211",,,,"www.svhm.org.au",,"facebook.com/StVincentsHospitalMelb","24 hours","24 hours","24 hours","24 hours","24 hours","24 hours","24 hours","24 hours",,"109, 12 (stop 12 St Vincent’s Plaza)",,,"Hospitals / Emergency","N/A","N/A","N/A","N/A","N/A","144.97496000000001","-37.807772999999997","(-37.807773, 144.97496)"
"Victoria Police - Melbourne East","In case of an emergency or if you require immediate assistance call Triple Zero (000)",,,"226 Flinders Lane","Melbourne","9637 1100",,"000","MELBOURNEEAST.UNI@police.vic.gov.au","police.vic.gov.au","@victoriapolice","facebook.com/victoriapolice","24 hours","24 hours","24 hours","24 hours","24 hours","24 hours","24 hours","24 hours",,,,,"Hospitals / Emergency","N/A","N/A","N/A","N/A","N/A","144.9665","-37.816606999999998","(-37.816607, 144.9665)"
,,,,,,,,,,,,,,,,,,,,,,,,,"N/A","N/A","N/A","N/A","N/A","N/A",,,
"Stopover Youth Services","crisis refuge accommodation
advocacy and general support

Housing support program offered for 16-24 year old young people experiencing homelessness.  Individual room and bathroom, food included, small service fee payable by clients.  Stays of approximately 6 weeks, based on individual case plan.

Outreach housing support for young people experiencing homelessness either in temporary housing or without any fixed housing.  

Referral through the Opening Doors Framework Access Points, including Melbourne Youth Support at Frontyard, 19 King Street, Melbourne.","Housing support program offered for 16-24 year old young people experiencing homelessness.",,,,"8486 2133",,,"stopover@mcm.org.au","melbournecitymission.org.au","@MelbCityMission","facebook.com/MelbourneCitymission","9.00am - 5.00pm","9.00am - 5.00pm","9.00am - 5.00pm","9.00am - 5.00pm","9.00am - 5.00pm","Closed","Closed","Closed",,,,,"Food","Accommodation","N/A","N/A","N/A","N/A",,,
"The Alfred","acute medical and surgical hospital services 
inpatient and outpatient treatment including geriatric medicine 
centre for heart-lung
transplants and treatment of trauma, HIV/AIDS, hemophilia and adult burns
after-hours emergency and casualty services",,,"Commercial Road","Melbourne","9076 2000",,,"contactus@alfred.org.au","www.alfred.org.au","@AlfredHealth","facebook.com/AlfredHealth","24 hours","24 hours","24 hours","24 hours","24 hours","24 hours","24 hours","24 hours",,"72 (stop 26 Alfred Hospital)",,,"Hospitals / Emergency","N/A","N/A","N/A","N/A","N/A","144.98604399999999","-37.845804000000001","(-37.845804, 144.986044)"
"The Big Issue Australia","“The independent street magazine sold by homeless and unemployed people.”
magazine vendor opportunities
opportunity to make money and friends, gain confidence and learn skills
choose your own hours
no referral process needed
vendors paid for all contributions published in the magazine
Community Street Soccer Inclusive Program (see website for more information)
everybody welcome

The Big Issue is a non-profit organisation helping people to help themselves.",,,"148 Lonsdale Street","Melbourne","9663 4733",,,"bigissue@bigissue.org.au","thebigissue.org.au","@thebigissue","facebook.com/bigissueaustralia",,,,,,,,,,"85, 96 (stop 7 Russell St)",,,"Employment Assistance","N/A","N/A","N/A","N/A","N/A","144.96804399999999","-37.810394000000002","(-37.810394, 144.968044)"
"The Drum Youth Services","school based services, recreation programs, personal support, advocacy and referral, personal development and leadership programs, youth events, counseling, queer youth",,,"100 Drummond Street","Carlton","9663 6733",,,"enquiries@ds.org.au ","ds.org.au","@DrummondStreet","facebook.com/thedrumyouthservices","The Underground - 150 Plamerston Street - 4pm - 7pm, The Office - 195 Drummond Street - 9am - 5pm)","The Underground - 150 Plamerston Street - 4pm - 7pm, The Office - 195 Drummond Street - 9am - 5pm)","The Underground - 150 Plamerston Street - 4pm - 7pm, The Office - 195 Drummond Street - 9am - 5pm)","The Underground - 150 Plamerston Street - 4pm - 7pm, The Office - 195 Drummond Street - 9am - 5pm)","The Office - 195 Drummond Street - 9am-3pm)","Closed","Closed","Closed",", 9am-3pm","1, 3, 5, 6, 8, 16, 64, 67, 72 (stop 3 Lincoln Square)",,,"Counselling and Psychiatric Services","Employment Assistance","N/A","N/A","N/A","N/A","144.96793600000001","-37.804233000000004","(-37.804233, 144.967936)"
"TRAVELLERS AID - Spencer Street","free assistance (buggy and personal guidance) for frail, infirm, older people and people with disabilities, mobility issues and vision impairments to ensure swift, confident and safe passage throughout Southern Cross Station
Mobility Equipment Hire
Medical Companion Service (free service call 1300 700 399)
clean and accessible restrooms, baby change facilities, showers, internet access and family friendly resting space.
free personal care for people with a disability (assistance with meals and communication, fully accessible toilets with hoist and adult change table, Monday to Friday 10.00am to 5.00pm and Saturday 11.00am to 4.00pm",,"Main Concourse (located opposite the Luggage Hall) 
Southern Cross Station","99 Spencer Street","Melbourne","9670 2072",,"1300 700 399","scs@travellersaid.org.au","travellersaid.org.au","@TravellersAid","facebook.com/travellersaidaustralia","7.00am to 10.00pm","7.00am to 10.00pm","7.00am to 10.00pm","7.00am to 10.00pm","7.00am to 10.00pm","7.00am to 10.00pm","7.00am to 10.00pm","Closed",,"86, 96 (stop 1 Southern Cross Station)",,"Southern Cross","Showers / Laundry","Travel Assistance","N/A","N/A","N/A","N/A","144.953506","-37.818367000000002","(-37.818367, 144.953506)"
"Travel-related Emergency Relief (Southern Cross Station)","information and referrals
subsidized travel fares in crisis situations",,"Main Concourse (located opposite the Luggage Hall) 
Southern Cross Station","99 Spencer Street","Melbourne","9670 2873",,,,"travellersaid.org.au","@TravellersAid","facebook.com/travellersaidaustralia","10.30am to 4.00pm","Closed","10.30am to 4.00pm","Closed","10.30am to 4.00pm","12 Noon to 4.00pm","12 Noon to 4.00pm","Closed",,"86, 96 (stop 1 Southern Cross Station)",,"Southern Cross","Travel Assistance","Travel Assistance","N/A","N/A","N/A","N/A","144.953506","-37.818367000000002","(-37.818367, 144.953506)"
"TRAVELLERS AID - Flinders Street","Mobility Equipment Hire
Medical Companion Service (free service call 1300 700 399)
Free personal care for people with a disability (assistance with meals and communication, fully accessible toilets with hoist and adult change table).  All opening times",,"Main Concourse (between Platforms 9 & 10)
Flinders Street Station","Flinders & Swanston Sts","Melbourne ","9610 2030",,"1300 700 399","fss@travellersaid.org.au","travellersaid.org.au","@TravellersAid","facebook.com/travellersaidaustralia","8.00 am to 8.00pm","8.00 am to 8.00pm","8.00 am to 8.00pm","8.00 am to 8.00pm","8.00am – 10.00pm","8.00am – 10.00pm","8.00 am to 8.00pm","Open",,,,"Flinders Street","Travel Assistance","N/A","N/A","N/A","N/A","N/A","144.96739199999999","-37.817562000000002","(-37.817562, 144.967392)"
"Turning Point Drug & Alcohol Centre","assessment by telephone or face to face
information and advice on treatment options
referral to other alcohol and drug services or health and welfare agencies
pharmacotherapy
forensics client service
acquitted brain injury clinical consultation
combined AOD and mental health services
needle and syringe program (NSP)",,,"54-62 Gertrude Street","Fitzroy","8413 8444",,,"info@turningpoint.org.au","turningpoint.org.au",,,"9.30 AM - 5.00 PM","9.30 AM - 5.00 PM","9.30 AM - 5.00 PM","9.30 AM - 5.00 PM","9.30 AM - 5.00 PM","9.30 AM - 11.30 AM","9.30 AM - 11.30 AM","Closed","All services are free except medications.","86, 96 (stop 12 Melbourne Museum)",,,"Health Services / Pharmacy","Needle Exchange","Counselling and Psychiatric Services","Legal / Financial Advice","N/A","N/A","144.97599700000001","-37.805875","(-37.805875, 144.975997)"
"Victoria Police - Melbourne West","In case of an emergency or if you require immediate assistance call Triple Zero (000)",,,"637 Flinders Street ","Melbourne ","9247 6491",,"000","MELBOURNEWEST.UNI@police.vic.gov.au","police.vic.gov.au","@victoriapolice","facebook.com/victoriapolice","24 hours","24 hours","24 hours","24 hours","24 hours","24 hours","24 hours","24 hours",,,,,"Hospitals / Emergency","N/A","N/A","N/A","N/A","N/A","144.95292499999999","-37.821835","(-37.821835, 144.952925)"
,,,,,,,,,,,,,,,,,,,,,,,,,"N/A","N/A","N/A","N/A","N/A","N/A",,,
,,,,,,,,,,,,,,,,,,,,,,,,,"N/A","N/A","N/A","N/A","N/A","N/A",,,
,,,,,,,,,,,,,,,,,,,,,,,,,"N/A","N/A","N/A","N/A","N/A","N/A",,,
"Victoria Police - Melbourne North","In case of an emergency or if you require immediate assistance call Triple Zero (000)",,,"36 Wreckyn Street ","North Melbourne","8379 0800",,"000","MELBOURNENORTH-UNI-OIC@police.vic.gov.au","police.vic.gov.au","@victoriapolice","facebook.com/victoriapolice","24 hours","24 hours","24 hours","24 hours","24 hours","24 hours","24 hours","24 hours",,,,,"Hospitals / Emergency","N/A","N/A","N/A","N/A","N/A","144.954611","-37.800099000000003","(-37.800099, 144.954611)"
"Victorian Aboriginal Health Service","health services, psychiatric services, drug and alcohol counselling, immunisation, preventative care for children, maternal and child health, women’s health, ante-natal care, dentist","This free health service is for Aboriginal people and Torres Strait Islanders.",,"186 Nicholson Street","Fitzroy","9419 3000",,,,"www.vahs.org.au","@VAHSHLT","facebook.com/pages/Victorian-Aboriginal-Health-Service/107843632590062","9.00am - 5.00pm","9.00am - 5.00pm","9.00am - 5.00pm","9.00am - 5.00pm","9.00am - 5.00pm","10.00am - 12.00 Noon","Closed","Closed",,"96 (stop 14 Bell St)",,,"Hospitals / Emergency","Clothes and Blankets","Needle Exchange","N/A","N/A","N/A","144.97519299999999","-37.799401000000003","(-37.799401, 144.975193)"
"Victorian Aboriginal Legal Service","legal services

Provides support with civil, family and criminal law matters for Aboriginal people and Torres Strait Islanders.","Aboriginal people and Torres Strait Islanders",,"273 High Street","Preston","9418 5999",,"1800 064 865",,"vals.org.au","@thevalsmob","facebook.com/VictorianAboriginalLegalService",,,,,,,,,,"86 (stop 46 East Preston Tram Depot)",,"Bell (Upfield Line)","Legal / Financial Advice","N/A","N/A","N/A","N/A","N/A","145.002669","-37.743763999999999","(-37.743764, 145.002669)"
"Victorian Legal Aid","legal advice
public library",,,"350 Queen Street","Melbourne","9269 0234",,,,"legalaid.vic.gov.au","@VicLegalAid",,"8.45 AM - 05.15 PM","8.45 AM - 05.15 PM","8.45 AM - 05.15 PM","8.45 AM - 05.15 PM","8.45 AM - 05.15 PM","Closed","Closed","Closed","There are no fees for appointments.","City Circle, 30 (stop 4 Queen St )",,,"Legal / Financial Advice","N/A","N/A","N/A","N/A","N/A","144.95889700000001","-37.810406999999998","(-37.810407, 144.958897)"
"Vietnamese & Settlement Program",,,,,,,,,,,,,,,,,,,,,,,,,,,,,,,,,
"VincentCare Youth Support Service","outreach housing support for young people","Outreach housing support services for homeless young people between the ages of 16 and 25 years",,"175 Glenroy Road","Glenroy","9304 0100",,,,"vincentcare.org.au",,,,,,,,,,,,,,"Glenroy (Craigieburn Line) ","Tenancy Assistance","N/A","N/A","N/A","N/A","N/A","144.91965999999999","-37.705865000000003","(-37.705865, 144.91966)"
"Waratah Clinic","psychiatric services","Waratah helps homeless people over 18 years of age who have a psychiatric illness.  Mainly in the inner-west region, and services night shelters, Office of Housing units and squats.","Level 2 ","641 Mt Alexander Road","Moonee Ponds","9377 3400",,,,"mh.org.au",,,"9.00am - 5.00pm","9.00am - 5.00pm","9.00am - 5.00pm","9.00am - 5.00pm","9.00am - 5.00pm","Closed","Closed","Closed",,"59 (Stop 33 Moonee Ponds Junction)",,"Moonee Ponds (Craigieburn Line)","Counselling and Psychiatric Services","N/A","N/A","N/A","N/A","N/A","144.92438899999999","-37.766379000000001","(-37.766379, 144.924389)"
"William T Onus Hostel","temporary accommodation for indigenous people (fees apply)",,,"75 Westgarth Street","Northcote","9489 6701",,,"wtonus.hostel@ahl.gov.au","ahl.gov.au",,"facebook.com/AboriginalHostelsLimited","08:00 AM - 08:00 PM","08:00 AM - 08:00 PM","08:00 AM - 08:00 PM","08:00 AM - 08:00 PM","08:00 AM - 08:00 PM","08:00 AM - 07:30 PM","08:00 AM - 07:30 PM","Closed",,"86 (Stop 27 Westgarth St)"," 250, 251, 506 (Westgarth Railway Station)","Westgarth (Hurstbridge Line)","Accommodation","N/A","N/A","N/A","N/A","N/A","144.99948599999999","-37.781061999999999","(-37.781062, 144.999486)"
"Wintringham","residential Care
outreach – support and accommodation referral
housing – nursing home, independent living units and long term housing support
community care packages – home based care, support and case management","Wintringham provides quality care, accommodation and support services to men and women over the age of 50 years who have limited financial resources and are either homeless or at risk of becoming homeless.",,"136 Mt. Alexander Road","Flemington","9034 4824",,,"admin@wintringham.org.au","wintringham.org.au","@Wintringham1","facebook.com/WintringhamSpecialistAgedCare",,,,,,,,,,"59 (stop 25 Mount Alexander College)",,,"Accommodation","Health Services / Pharmacy","N/A","N/A","N/A","N/A","144.93544900000001","-37.783045999999999","(-37.783046, 144.935449)"
"WIRE (Women’s Information and Referral Exchange)","Free and confidential support, information and referrals for women by women on any issues – from leaving a violent relationship to coping with depression to everything in between.

WIRE Services include:
Telephone Support Service
Livechat Support Service 
Women’s Information Centre  - Drop in for face-to-face support or free computer and internet access
Email Support Service: inforequests@wire.org.au (Response within 2 working days).

WIRE’s free programs for women include:
computer classes
job coaching sessions
AMICA Women’s Lunch and Activity Club
legal clinics
monthly seminars.

To find out about free Women’s Programs, call (03) 9348 9416 (Press 2) ",,,"372 Spencer Street","West Melbourne","1300 134 130 ","9348 9416",,"inforequests@wire.org.au","wire.org.au/womensprograms","@WIREwomensinfo",,"Telephone and Livechat Support 9.00am – 5.00pm, Women’s Information Centre 9.30am – 4.30pm","Telephone and Livechat Support 9.00am – 5.00pm, Women’s Information Centre 9.30am – 4.30pm","Telephone and Livechat Support 9.00am – 5.00pm, Women’s Information Centre 9.30am – 4.30pm","Telephone and Livechat Support 9.00am – 5.00pm, Women’s Information Centre 9.30am – 4.30pm","Telephone and Livechat Support 9.00am – 5.00pm, Women’s Information Centre 9.30am – 4.30pm","Closed","Closed","Closed",,"Ciity Circle, 30, 75, 86  (stop 119 La Trobe St)",,,"Helpful phone number","Employment Assistance","N/A","N/A","N/A","N/A","144.951155","-37.811650999999998","(-37.811651, 144.951155)"
"Women’s Health Information Centre (WHIC)","The Women’s Health Information Centre (WHIC) is a free, confidential health service which offers information, individualized support and referral options on a wide range of women’s health issues.

Experienced women’s health nurses and midwives are available by telephone or email or women can come into our centre for one-on-one support and advice. ",,"Royal Women’s Hospital","Corner Grattan Street & Flemington Road","Parkville","8345 3045",,,"whicinfo@thewomens.org.au","thewomens.org.au","@thewomens","facebook.com/theroyalwomenshospital","9.00am - 5.00pm","9.00am - 5.00pm","9.00am - 5.00pm","9.00am - 5.00pm","9.00am - 5.00pm","Closed","Closed","Closed",,"19 (stop 10 Royal Melbourne Hospital), 55, 59 (stop 14 Royal Melbourne Hospital)","401, 402 (Royal Melbourne Hospital/Grattan St (Parkville) stop ID 7587)",,"Legal / Financial Advice","N/A","N/A","N/A","N/A","N/A","144.955127","-37.799548999999999","(-37.799549, 144.955127)"
,,,,,,,,,,,,,,,,,,,,,,,,,"N/A","N/A","N/A","N/A","N/A","N/A",,,
,,,,,,,,,,,,,,,,,,,,,,,,,"N/A","N/A","N/A","N/A","N/A","N/A",,,
,,,,,,,,,,,,,,,,,,,,,,,,,"N/A","N/A","N/A","N/A","N/A","N/A",,,
,,,,,,,,,,,,,,,,,,,,,,,,,"N/A","N/A","N/A","N/A","N/A","N/A",,,
"Women's Health West","Women's Health West is committed to improving equity and justice for women in Melbourne's diverse western region.  We incorporate a health promotion, research and development team with a family violence service for women and children providing:

information, referral , counselling , crisis support , court support , support groups",,,"317-319 Barkly Street","Footscray","9689 9588",,,"info@whwest.org.au","whwest.org.au","@whwest","facebook.com/womenshealthwest
au.linkedin.com/company/women's-health-west","9.00am - 5.00pm","9.00am - 5.00pm","9.00am - 5.00pm","9.00am - 5.00pm","9.00am - 5.00pm","Closed","Closed","Closed","All services are free and confidential. ",,"216, 219, 220","Sunbury, (Werribee or Williamstown Lines)","Counselling and Psychiatric Services","N/A","N/A","N/A","N/A","N/A","144.893595","-37.799368000000001","(-37.799368, 144.893595)"
"Women’s Housing Limited","medium and long term housing accommodation 
tenancy assistance
housing information and referral",,"Suite 1, Level 1 ","21 Cremorne Street","Richmond","9412 6868",,,"info@womenshousing.com.au","womenshousing.com.au",,,"9.00am - 5.00pm","9.00am - 5.00pm","9.00am - 5.00pm","9.00am - 5.00pm","9.00am - 5.00pm","Closed","Closed","Closed","The cost is the same as public housing (25 percent of your total income).  No crisis accommodation is available.","70 (stop 8 Richmond Station)",,"Richmond","Accommodation","Tenancy Assistance","N/A","N/A","N/A","N/A","144.99124800000001","-37.825933999999997","(-37.825934, 144.991248)"
"Young People’s Health Service","health services (free for 12-24 year olds)
provides primary health care.",,,"19 King Street","Melbourne","9611 2409",,,"frontyard@mcm.org.au","rch.org.au/cah/health_services/young_peoples_health_service/","@RCHMelbourne","facebook.com/rchmelbourne","12.00 pm – 4.30 pm","12.00 pm – 4.30 pm","12.00 pm – 4.30 pm","12.00 pm – 4.30 pm","12.00 pm – 4.30 pm","Closed","Closed","Closed",,"City Circle, 70, 75 (stop  2 Melbourne Aquarium)",,"Southern Cross","Health Services / Pharmacy","N/A","N/A","N/A","N/A","N/A","144.95730499999999","-37.819927999999997","(-37.819928, 144.957305)"
"Youth Support & Advocacy Service","drug services (before and after detox)","This service is for young people aged between 10 and 22 years",,"187-195 Langridge Street","Abbotsford","9415 8860",,"1800 458 685","contact@ysas.org.au","ysas.org.au",,"facebook.com/ysasyouthhealth","Closed","11:30 AM - 05:30 PM","11:30 AM - 05:30 PM","12:00 PM - 05:30 PM","11:30 AM - 07:30 PM","12:00 PM - 08:00 PM","Closed","Open",,"109 (stop 19 North Richmond Station)",,"North Richmond Station","Accommodation","Drug and Alcohol","N/A","N/A","N/A","N/A","144.992751","-37.807259999999999","(-37.80726, 144.992751)"
"Youth Services","You can ask to speak to a male or female youth worker. Service is based at North Melbourne Community Centre.

social support, advocacy and referral, youth arts programs, school-based programs, groups for young men and women, male or female youth worker available, 
youth counselling",,,"49-53 Buncle Street","North Melbourne","8378 1600",,,,"cohealth.org.au","@cohealth_au","facebook.com/cohealth",,,,,,,,,,"57, 59 (stop 20 Melrose St)",,"Macauley
(Upfield Line)","Hospitals / Emergency","Drug and Alcohol","N/A","N/A","N/A","N/A","144.94024300000001","-37.793166999999997","(-37.793167, 144.940243)"
"Victorian State-wide Human Services Directory",,,,,,,,,,"humanservicesdirectory.vic.gov.au ",,,,,,,,,,,,,,,"Helpful website","N/A","N/A","N/A","N/A","N/A",,,
"City of Melbourne’s Social Support Directory",,,,,,,,,,"melbourne.vic.gov.au ",,,,,,,,,,,,,,,"Helpful website","N/A","N/A","N/A","N/A","N/A",,,
"InfoXchange – Housing and Homelessness",,,,,,,,,,"infoxchange.net.au ",,,,,,,,,,,,,,,"Helpful website","N/A","N/A","N/A","N/A","N/A",,,
"Council to Homeless Persons ",,,,,,,,,,"chp.org.au ",,,,,,,,,,,,,,,"Helpful website","N/A","N/A","N/A","N/A","N/A",,,
"Aboriginal Housing Victoria ",,,,,,,,,,"ahvic.org.au",,,,,,,,,,,,,,,"Helpful website","N/A","N/A","N/A","N/A","N/A",,,
"Homelessness Australia",,,,,,,,,,"homelessnessaustralia.org.au",,,,,,,,,,,,,,,"Helpful website","N/A","N/A","N/A","N/A","N/A",,,
"Salvation Army - Crisis Services - Crisis Contact Centre","Homelessness support, Accommodation placement and/or support, Crisis/emergency accommodation, Housing information/referral, Financial assistance, Support",,,"29 Grey Street","ST KILDA",,,"1800 627 727",,"http://www.salvationarmy.org.au/crisisservices",,,"9am-11pm (face to face), Phone 24 hours","9am-11pm (face to face), Phone 24 hours","9am-11pm (face to face), Phone 24 hours","9am-11pm (face to face), Phone 24 hours","9am-11pm (face to face), Phone 24 hours","Phone 24 hours","Phone 24 hours","Phone 24 hours",,"16, 96 (stop 132 St Kilda Station)",,,"Helpful phone number","Hospitals / Emergency","Accommodation","N/A","N/A","N/A","144.97793300000001","-37.860681999999997","(-37.860682, 144.977933)"
"St Vincent de Paul Society Victoria Inc","Central phone number for support services (",,,,,"1300 305 330",,,"info@svdp-vic.org.au","vinnies.org.au/vic",,,"10am-3pm","10am-3pm","10am-3pm","10am-3pm","10am-3pm",,,,,,,,"Clothes and Blankets","N/A","N/A","N/A","N/A","N/A",,,
"Tenants Union of Victoria","We offer free and confidential advice, assistance and advocacy for tenants and residents renting residential accommodation in Victoria, including:
tenants in private residential accommodation
tenants in public housing
residents in caravan parks
residents and tenants in rooming houses",,"Ground Floor","55 Johnston Street","Fitzroy","9416 2577",,,"admin@tuv.org.au","tuv.org.au",,,"9.00 am to 4.30 pm","9.00 am to 4.30 pm","12.30 pm to 7.30 pm","9.00 am to 4.30 pm","9.00 am to 4.30 pm","Closed","Closed","Closed",,,,,"Tenancy Assistance","N/A","N/A","N/A","N/A","N/A","144.97666799999999","-37.798124000000001","(-37.798124, 144.976668)"
"Utility Relief Grant and Non-Mains Utility Relief Grant schemes","The Utility Relief Grant Scheme and the Non-Mains Utility Relief Grant Scheme provide assistance for domestic customers who are unable to pay their utility bills due to a temporary financial crisis.",,,,,,,"1800 658 521",,"www.dhs.vic.gov.au/for-individuals/financial-support/concessions/hardship/utility-relief-and-non-mains-utility-grant-scheme",,,,,,,,,,,,,,,"Helpful website","N/A","N/A","N/A","N/A","N/A",,,
"mychild.gov.au","The mychild.gov.au website is Australia's online child care portal. On this website you will find information on different types of child care and how to get assistance with the cost of child care.",,,,,"13 36 84",,,,"mychild.gov.au",,,,,,,,,,,,,,,"Helpful website","N/A","N/A","N/A","N/A","N/A",,,
"Child Support Info Service","Child Support Info Service is an automated telephone information system that provides information 24 hours a day, seven days a week about your child support account.",,,,,"13 11 07",,,,"humanservices.gov.au/customer/themes/child-support-and-separated-parents",,,,,,,,,,,,,,,"N/A","N/A","N/A","N/A","N/A","N/A",,,
"Parentline Victoria","Statewide telephone service providing counselling, information and referral for all Victorian parents and carers of children 0 - 18yrs.",,,,,"13 22 89",,,,"education.vic.gov.au/about/contact/Pages/parentline.aspx",,,"8am to midnight","8am to midnight","8am to midnight","8am to midnight","8am to midnight","8am to midnight","8am to midnight","8am to midnight",,,,,"N/A","N/A","N/A","N/A","N/A","N/A",,,
,,,,,,,,,,,,,,,,,,,,,,,,,"N/A","N/A","N/A","N/A","N/A","N/A",,,
