"county","license_number","operation_type","trade_name","owner_name","street_number","street_name","address_line_2","address_line_3","city","state","zip_code","georeference"
"ALLEGANY","26143","Floral Shop","ON THE SIDE FLORIST","STANTON KENNETH&REBECCA","76","MAIN STREET-PO BOX 222",,,"BELFAST","NY","14711",
"BRONX","659639","Dept. Store","TJ MAXX STORE #1325","TJX COMPANIES INC","1","FORDHAM PLAZA",,,"BRONX","NY","10458","POINT (-73.89115 40.86001)"
"CHAUTAUQUA","658824","Other","DOLLAR TREE #00440","DOLLAR TREE","330","E FAIRMONT AVE",,,"LAKEWOOD","NY","14750",
"CORTLAND","662117","Other","REAL DEALS #9","JIM SEAMANS","3658","STATE RT 281",,,"CORTLAND","NY","13045",
"ERIE","145133","Grocery Store","TOPS #66","PHILIP PERNA","1989","SENECA STREET",,,"BUFFALO","NY","14210","POINT (-78.811952 42.857255)"
"GREENE","657952","Grocery Store","TOPS #724","TOPS MARKET LLC","7410","9W-RD #1W",,,"WEST COXSACKIE","NY","12192",
"JEFFERSON","220141","Landscaper","LAND PRO INC","JOHN E. MOODY","27017","NYS ROUTE 37",,,"WATERTOWN","NY","13601",
"KINGS","658220","Grocery Store","ALDI #9","ALDI INC","3785","NOSTRAND AVE",,,"BROOKLYN","NY","11235","POINT (-73.940145 40.591687)"
"KINGS","662131","Other","LIRA KIM","LIRA KIM","197","5TH AVE",,,"BROOKLYN","NY","11217","POINT (-73.980267 40.6767)"
"KINGS","618479","Drug Store","RITE AID #1947","RITE AID OF NEW YORK INC","960","HALSEY STREET",,,"BROOKLYN","NY","112331403","POINT (-73.915732 40.685727)"
"NASSAU","658956","Other","DOLLAR TREE #03647","DOLLAR TREE","932","CARMENS ROAD",,,"MASSAPEQUA","NY","11758",
"NEW YORK","660246","Floral Shop","ELI'S MANHATTAN INC.","ELI ZABAR","1411","3RD AVENUE",,,"NEW YORK","NY","10028","POINT (-73.956654 40.775136)"
"NIAGARA","657564","Other","PETSMART INC #2231","ROBERT MORAN","5722","S TRANSIT RD",,,"LOCKPORT","NY","14094","POINT (-78.696896 43.148642)"
"ONEIDA","661988","Grocery Store","GRAND UNION OF SHERRILL LLC","WILLIAM BOYD","87","E STATE ST",,,"SHERRILL","NY","13461","POINT (-75.593549 43.075406)"
"ONEIDA","304059","Grocery Store","TOPS #586","TOPS PT LLC","9554","STATE RT 13",,,"CAMDEN","NY","13316",
"ONONDAGA","660127","Other","BYRNE DAIRY #55","SONBYRNE SALES INC","3385","MILTON AVE",,,"SYRACUSE","NY","13219","POINT (-76.240898 43.050974)"
"ONONDAGA","319770","Hardware Store","HOME DEPOT THE #6153","HOME DEPOT USA INC","3861","STATE ROUTE 31",,,"LIVERPOOL","NY","13090","POINT (-76.246689 43.184574)"
"ONONDAGA","314051","Grocery Store","TOPS #368","TOPS PT LLC","8417","OSWEGO RD",,,"CLAY","NY","13027",
"OSWEGO","353855","Dept. Store","WAL-MART #3332","WAL-MART STORES EAST LP","1818","STATE ROUTE 3",,,"FULTON","NY","13069",
"QUEENS","639452","Drug Store","RITE AID #10605","GENOVESE DRUG STORES INC","583","GRANDVIEW AVENUE",,,"RIDGEWOOD","NY","11385",
"QUEENS","659676","Dept. Store","TJ MAXX STORE #588","TJX COMPANIES INC","136-05","20TH AVENUE",,,"WHITESTONE","NY","11357",
"SCHENECTADY","660801","Grocery Store","ALDI INC STORE #183","ALDI INC","303","SARATOGA ROAD",,,"SCHENECTADY","NY","12302","POINT (-73.930364 42.873243)"
"SUFFOLK","657482","Drug Store","CVS PHARMACY # 5104","CVS ALBANY LLC","496","COUNTRY RD 111 BDG C",,,"MANORVILLE","NY","11949",
"ULSTER","657506","Dept. Store","BIG LOTS #5210","BIG LOTS STORES INC","330","ROUTE 212",,,"SAUGERTIES","NY","12477",
"WESTCHESTER","659275","Grocery Store","ACME #2424","DANIEL CROCE","100","ROUTE 22",,,"GOLDENS BRIDGE","NY","10526",
"MONTGOMERY","271313","Gas Station","COUNTRY FEED STORE INC","COUNTRY FEED STORE INC","5040","STATE HIGHWAY 30",,,"AMSTERDAM","NY","12010","POINT (-74.185608 42.957378)"
"CLINTON","659680","Dept. Store","TJ MAXX STORE #423","TJX COMPANIES INC","63","CONSUMER SQ PLAZA",,,"PLATTSBURGH","NY","12901","POINT (-73.490118 44.693301)"
"ERIE","661182","Grocery Store","7 ELEVEN #35152A","RAWA S ANABI AND SAM ANABI","4981","SOUTHWESTERN BOULEVARD",,,"HAMBURG","NY","14075","POINT (-78.85101 42.751585)"
"ALBANY","662027","Garden Center","LA HOYA PLANT STUDIO","MARIA LAVERAS","22","HOMESTEAD AVE",,,"ALBANY","NY","12203","POINT (-73.797352 42.669922)"
"SUFFOLK","660569","Drug Store","WALGREENS #19951","WALGREEN EASTERN CO INC","729","SUNRISE HIGHWAY",,,"WEST BABYLON","NY","11704","POINT (-73.34137 40.713894)"
"WESTCHESTER","558456","Drug Store","CVS PHARMACY # 7087","CVS ALBANY LLC","132","BRONX RIVER ROAD",,,"YONKERS","NY","10704","POINT (-73.858493 40.90513)"
"WASHINGTON","660658","Drug Store","WALGREENS #19494","WALGREEN EASTERN CO INC","92","MAIN STREET",,,"HUDSON FALLS","NY","12839","POINT (-73.585136 43.298602)"
"NASSAU","660960","Grocery Store","7 ELEVEN #38140H","7 ELEVEN, INC.","1","JERUSALEM",,,"HEMPSTEAD","NY","11550","POINT (-73.617423 40.70053)"
"NEW YORK","659564","Grocery Store","SPACE 86 CORP","PAN GI LEE","524","COLUMBUS AVE",,,"NEW YORK","NY","10024","POINT (-73.972503 40.78603)"
"SULLIVAN","660587","Drug Store","WALGREENS #17736","WALGREEN EASTERN CO INC","381","BROADWAY",,,"MONTICELLO","NY","12701","POINT (-74.682429 41.653825)"
"FULTON","176020","Drug Store","CVS PHARMACY # 793","CVS ALBANY LLC","1013","STATE HIGHWAY 29A",,,"GLOVERSVILLE","NY","12078","POINT (-74.32317 43.051442)"
"KINGS","659748","Dept. Store","MARSHALLS STORE #726","MARSHALLS OF MA, INC","1832","86TH STREET",,,"BROOKLYN","NY","11214","POINT (-74.001619 40.60665)"
"TOMPKINS","508935","Grocery Store","TOPS #0522","TOPS MARKETS LLC","2300","NORTH TRIPHAMMER ROAD",,,"ITHACA","NY","14850","POINT (-76.484793 42.482421)"
"WAYNE","660232","Hardware Store","SECOR HOME AND HARDWARE","BRIAN SECOR AND DAVID SECOR","6260","FURNACE ROAD",,,"ONTARIO","NY","14519","POINT (-77.282534 43.226207)"
"ERIE","149263","Hardware Store","HOME DEPOT THE #1228","HOME DEPOT USA INC","300","THRUWAY PLAZA DRIVE",,,"CHEEKTOWAGA","NY","14225","POINT (-78.778725 42.90398)"
"NEW YORK","661201","Drug Store","CVS PHARMACY #10933","MARIA SEMEDO","161","AVENUE OF THE AMERICAS",,,"NEW YORK","NY","10013","POINT (-74.003896 40.725813)"
"NASSAU","288843","Dept. Store","TARGET STORE #1264","TARGET CORPORATION","3850","HEMPSTEAD TURNPIKE",,,"LEVITTOWN","NY","11756","POINT (-73.494375 40.725519)"
"QUEENS","661745","Grocery Store","7 ELEVEN STORE #34023D","MD MOSTAFIZUR RAHMAN, JHARNA KHYER","10724","CORONA AVENUE",,,"CORONA","NY","11368","POINT (-73.855443 40.743463)"
"RENSSELAER","659242","Other","DOLLAR TREE #06702","DOLLAR TREE STORES, INC/ GARY PHILBIN","21299","STATE ROUTE 22",,,"HOOSICK FALLS","NY","12090","POINT (-73.358019 42.880936)"
"KINGS","617339","Drug Store","CVS PHARMACY # 2906","CVS ALBANY LLC","10204","FLATLANDS AVE",,,"BROOKLYN","NY","11236","POINT (-73.89664 40.646214)"
"KINGS","659158","Grocery Store","1525 K FOOD LLC","DANIEL KATZ","1525","ALBANY AVENUE",,,"BROOKLYN","NY","11210","POINT (-73.937355 40.63538)"
"RENSSELAER","385038","Garden Center","HOOSICK TRUE VALUE","BRADLEY, PHILIP","21953","ROUTE 22",,,"HOOSICK FALLS","NY","12090","POINT (-73.351872 42.915177)"
"NASSAU","281447","Garden Center","FISCHETTI MARIO NURSERY  INC","FISCHETTI MARIO","972","GLEN COVE AVENUE",,,"GLEN HEAD","NY","11545","POINT (-73.626717 40.822806)"
"DUTCHESS","134010","Garden Center","JULIANS DELI AND MARK","GEVARGIS JULIAN",,"RT 9G","PO BOX 1574",,"HYDE PARK","NY","12538","POINT (-73.899329 41.78865)"
"SCHENECTADY","660514","Drug Store","WALGREENS #19091","WALGREEN EASTERN CO INC","1203","EASTERN AVENUE",,,"SCHENECTADY","NY","12308","POINT (-73.914338 42.807462)"
"SARATOGA","417894","Hardware Store","HOME DEPOT THE #1269","HOME DEPOT USA INC","4","HALFMOON CROSSING BOULEVARD",,,"CLIFTON PARK","NY","12065","POINT (-73.767858 42.858199)"
"QUEENS","660805","Other","DOLLAR TREE #07523","DOLLAR TREE STORES INC","13720","CROSSBAY BLVD",,,"OZONE PARK","NY","11417","POINT (-73.843053 40.671251)"
"MADISON","250772","Grocery Store","DERUYTER BIG M","TOM & LAURIE FOWLER","431","ROUTE 13",,,"DERUYTER","NY","13052","POINT (-75.884159 42.763841)"
"SULLIVAN","481017","Hardware Store","LIBERTY TRADING POST INC","LIBERTY TRADING POST INC","1966","ROUTE 52",,,"LIBERTY","NY","12754",
"FULTON","658622","Garden Center","RUNNINGS #38","RUNNING SUPPLY INC","233","5TH AVE EXT",,,"GLOVERSVILLE","NY","12078","POINT (-74.323533 43.059525)"
"MONROE","267566","Dept. Store","TARGET STORE #1157","TARGET CORPORATION","2325","MARKETPLACE DRIVE",,,"ROCHESTER","NY","14623","POINT (-77.630466 43.078021)"
"TOMPKINS","661097","Roadside Stand","AROMABREWS","ERIN SZABO","5646","BOWER ROAD",,,"TRUMANSBURG","NY","14886","POINT (-76.738899 42.516086)"
"QUEENS","658582","Drug Store","CVS PHARMACY # 5830","CVS PHARMACY","108-11","QUEENS BLVD",,,"FOREST HILLS","NY","11375","POINT (-73.843174 40.721318)"
"HERKIMER","661831","Roadside Stand","JAMES GRILLO","JAMES GRILLO","1067","US HWY 20",,,"WEST WINFIELD","NY","13491","POINT (-75.143755 42.888656)"
"SUFFOLK","661876","Garden Center","WAL-MART #8331","WALMART STORES EAST LP","901","BOULEVARD EAST",,,"YAPHANK","NY","11980",
"CLINTON","97864","Drug Store","KPH HEALTHCARE DBA KINNEY DRUGS #40","KPH HEALTHCARE SERVICES INC","6","VETERANS LANE",,,"PLATTSBURGH","NY","12901","POINT (-73.456787 44.708939)"
"QUEENS","656896","Grocery Store","ALDI INC #01","ALDI INC.","61-11","JUNCTION BLVD.",,,"REGO PARK","NY","11374","POINT (-73.863786 40.732663)"
"SUFFOLK","479147","Hardware Store","HOME DEPOT THE #1285","HOME DEPOT USA INC","475","COMMACK ROAD",,,"DEER PARK","NY","11729","POINT (-73.311305 40.765303)"
"ULSTER","660644","Drug Store","RITE AID #10703","WALGREEN EASTERN CO INC","6","SIMMONS PLZ.",,,"SAUGERTIES","NY","12477","POINT (-73.95534 42.057151)"
"NASSAU","659188","Grocery Store","STOP & SHOP SPRMKT #2588","STOP & SHOP SUPERMARKET COMPANY LLC","4055","MERRICK ROAD",,,"SEAFORD","NY","11783","POINT (-73.48368 40.666609)"
"QUEENS","659187","Grocery Store","STOP & SHOP SPRMKT #2589","STOP & SHOP SUPERMARKET COMPANY LLC","92-10","ATLANTIC AVENUE",,,"OZONE PARK","NY","11416","POINT (-73.850357 40.687639)"
"ERIE","661802","Garden Center","ELMA FRESH PRODUCE, MEATS AND GREEHOUSE INC","BRANDON HOUCK, JODY HESKO","3131","TRANSIT RD",,,"ELMA","NY","14059","POINT (-78.696925 42.852662)"
"WESTCHESTER","661059","Landscaper","ROOTS + BOOTS LLC","EUGENA SWART","61","STRATFORD LANE",,,"HASTINGS ON HUDSON","NY","10706","POINT (-73.877111 40.988854)"
"JEFFERSON","662008","Grocery Store","PIGGLY WIGGLY DBA GRAND UNION OF SOUTH WATERTOWN LLC","KEVIN MCNAMARA","1330","WASHINGTON ST",,,"WATERTOWN","NY","13601","POINT (-75.914001 43.957341)"
"BROOME","31955","Dept. Store","WAL-MART #1835","WAL-MART STORES EAST LP","2405","VESTAL PARKWAY EAST",,,"VESTAL","NY","13850","POINT (-76.012374 42.094429)"
"SUFFOLK","471682","Roadside Stand","FRIENDLY FARM OF LI INC","MUSOLINO VINCENT R","333","MIDDLE COUNTRY ROAD",,,"MIDDLE ISLAND","NY","11953","POINT (-72.960094 40.879204)"
"NEW YORK","661057","Grocery Store","7 ELEVEN INC #34764H","JOSEPH M DEPINTO & JAMES SCOTT BAREFIELD","333","EAST 23RD STREET",,,"NEW YORK","NY","10010","POINT (-73.979789 40.737421)"
"GENESEE","661967","Grocery Store","SPEEDWAY #7008","TIMOTHY GRIFFITH","8465","ALLEGHANY RD",,,"CORFU","NY","14036","POINT (-78.405785 43.00275)"
"SUFFOLK","658242","Grocery Store","7 ELEVEN FOOD STORE #35520A","SANTONCITO RICHARD","231","WADING RIVER RD",,,"CENTER MORICHES","NY","11934","POINT (-72.804772 40.820369)"
"ALLEGANY","20146","Grocery Store","GIANT FOOD MART","MIKE BERARDI","44","PARK AVE",,,"WELLSVILLE","NY","14895","POINT (-77.947296 42.120206)"
"NEW YORK","660038","Other","GOPHER BROKE FARM INC","GEORGE NASH AND JANE WATERMAN","300","W 145TH STREET",,,"NEW YORK","NY","10033","POINT (-73.942474 40.823069)"
"KINGS","660301","Floral Shop","WORLD OF FLOWERS","HAK YUL YOO","971","MANHATTAN AVENUE",,,"BROOKLYN","NY","11222","POINT (-73.954635 40.732437)"
"ERIE","140192","Grocery Store","TOPS #0113","ROBERT J BAVISOTTO","425","NIAGARA STREET",,,"BUFFALO","NY","14201","POINT (-78.887157 42.895954)"
"ERIE","660296","Other","SIECK FLORAL DISTRIBUTING, INC.","EDWIN F MICHEL","3257","WALDEN AVENUE",,,"DEPEW","NY","14043","POINT (-78.700045 42.91141)"
"NASSAU","659061","Grocery Store","7 ELEVEN STORE #11175G","7 ELEVEN","83","FRANKLIN AVE",,,"VALLEY STREAM","NY","11580","POINT (-73.682837 40.676684)"
"NASSAU","661754","Grocery Store","7 ELEVEN STORE #38468B","MICHAEL PARK","2663","JERUSALEM AVE",,,"BELLMORE","NY","11710","POINT (-73.533348 40.691492)"
"SCHOHARIE","430053","Other","SCHOHARIE COUNTY  SOIL & CONSERVATION DISTRICT","SCHOHARIE CO SOIL&CONSER DISTRICT","173","SOUTH GRAND STREET","SUITE 3",,"COBLESKILL","NY","12043","POINT (-74.482942 42.674089)"
"NEW YORK","659650","Dept. Store","TJ MAXX STORE #1185","TJX COMPANIES INC","407","EAST 59TH STREET",,,"NEW YORK","NY","10022","POINT (-73.961354 40.759362)"
"QUEENS","656830","Grocery Store","SUPER STOP & SHOP #566","MCGOWAN, MARK","70-20","ROCKAWAY BEACH BLVD.",,,"ARVERNE","NY","11692","POINT (-73.799121 40.589804)"
"SARATOGA","412725","Hardware Store","LOWE'S HOME CTR #1740","LOWES HOME CENTERS, LLC","476","ROUTE 146",,,"HALFMOON","NY","12065","POINT (-73.765301 42.863791)"
"ONONDAGA","661161","Other","BYRNE DAIRY #121 GEDDES","MARK AND CARL BYRNE","590","BRIDGE STREET",,,"SYRACUSE","NY","13209","POINT (-76.213104 43.072443)"
"DELAWARE","660647","Drug Store","WALGREENS #18993","WALGREEN EASTERN CO INC","119","W. MAIN ST.",,,"HANCOCK","NY","13783","POINT (-75.283938 41.954985)"
"QUEENS","659283","Grocery Store","KEY FOOD SUPERMARKET","KEY FOOD CS2, LLC/ SHARON KONZELMAN","35-09","FRANCIS LEWIS BLVD",,,"FLUSHING","NY","11361","POINT (-73.787142 40.763785)"
"WESTCHESTER","551548","Hardware Store","HOME DEPOT THE #8456","HOME DEPOT USA INC","1","SAW MILL RIVER ROAD",,,"HAWTHORNE","NY","10532","POINT (-73.819034 41.084621)"
"SARATOGA","656976","Other","PETCO #1833","PETCO ANIMAL SUPPLIES, INC.","6","HALFMOON CROSSINGS",,,"CLIFTON PARK","NY","12065",
"NASSAU","658000","Grocery Store","BJS WHOLESALE CLUB #212","BJS WHOLESALE CLUB INC","711","STEWART AVE",,,"GARDEN CITY","NY","11530","POINT (-73.608687 40.732355)"
"ALBANY","18986","Drug Store","RITE AID #4928","RITE AID OF NEW YORK INC","1863","CENTRAL AVENUE",,,"COLONIE","NY","122054221","POINT (-73.850199 42.732838)"
"NASSAU","284621","Garden Center","BIG VALLEY NURSERY & LANDSCAPE","LEO, CARMINE AND EMMA CAPOBIANCO","532","CEDAR SWAMP ROAD",,,"GLEN HEAD","NY","11545","POINT (-73.615802 40.842168)"
"NEW YORK","628663","Drug Store","RITE AID #4885","RITE AID OF NEW YORK INC","210-20","AMSTERDAM AVENUE",,,"NEW YORK","NY","100235005","POINT (-73.982903 40.776885)"
"MONROE","265009","Grocery Store","TOPS #0417","TOPS MARKETS LLC","1601","PENFIELD ROAD",,,"ROCHESTER","NY","14625","POINT (-77.494898 43.134523)"
"SUFFOLK","659879","Grocery Store","7 ELEVEN FOOD STORE #23924E","7 ELEVEN","500","OLD TOWN RD",,,"PORT JEFFERSON STA","NY","11776","POINT (-73.064669 40.908935)"
"ULSTER","515742","Roadside Stand","WRIGHT ORCHARDS LLC","WRIGHT THEODORE","699","ROUTE 208",,,"GARDINER","NY","12525","POINT (-74.138544 41.666653)"
"MONROE","660521","Drug Store","WALGREENS # 19725","WALGREEN EASTERN CO INC","1490","LAKE AVE.",,,"ROCHESTER","NY","14615","POINT (-77.629001 43.193835)"
"JEFFERSON","227496","Drug Store","KPH HEALTHCARE DBA KINNEY DRUGS #08","KPH HEALTHCARE SERVICES INC","22056","US ROUTE 11",,,"WATERTOWN","NY","136011693","POINT (-75.903626 43.995842)"
"SUFFOLK","661101","Other","ATLANTIC IRRIGATION SPECIALTIES INC #213","ED STANTALONE","213","BUTTER LANE",,,"BRIDGEHAMPTON","NY","11932","POINT (-72.311502 40.940148)"
"MONROE","266906","Hardware Store","HOME DEPOT THE #1247","HOME DEPOT USA INC","750","PANORAMA TRAILS SOUTH",,,"ROCHESTER","NY","14625","POINT (-77.493868 43.131288)"
"SUFFOLK","479678","Grocery Store","KING KULLEN GROCERY CO INC #33","KING KULLEN GROCERY CO INC","460","COUNTY ROAD 111",,,"MANORVILLE","NY","11949","POINT (-72.742447 40.849412)"
"WESTCHESTER","656999","Other","PETCO #3719","PETCO ANIMAL SUPPLIES, INC.","1275","BOSTON POST ROAD",,,"LARCHMONT","NY","10538","POINT (-73.745774 40.937894)"
"KINGS","618916","Hardware Store","HOME DEPOT THE #1256","HOME DEPOT USA INC","2970","CROPSEY AVENUE",,,"BROOKLYN","NY","11224","POINT (-73.986161 40.582103)"
"NEW YORK","658671","Drug Store","CVS PHARMACY # 10612","CVS/PHARMACY","65","5TH AVE",,,"NEW YORK","NY","10003","POINT (-73.993876 40.73564)"
"MONROE","263768","Grocery Store","PRICERITE OF ROCHESTER #208","PPRC INCORPORATED","375","DRIVING PARK AVENUE",,,"ROCHESTER","NY","14613","POINT (-77.640078 43.180936)"
"SUFFOLK","479398","Drug Store","RITE AID #10671","GENOVESE DRUG STORES INC","864","MIDDLE COUNTRY ROAD",,,"MIDDLE ISLAND","NY","11953","POINT (-72.940214 40.883561)"
"RICHMOND","647930","Drug Store","CVS PHARMACY # 6046","CVS ALBANY LLC","2690","HYLAN BLVD",,,"STATEN ISLAND","NY","10306","POINT (-74.113452 40.566702)"
"SUFFOLK","658368","Floral Shop","THE CENTREFOLIAGE DESIGNER INC","HECTOR A VASQUEZ","89","CHAPEL HILL DR",,,"BRENTWOOD","NY","11717","POINT (-73.259395 40.797979)"
"ORANGE","339853","Grocery Store","SHOPRITE OF VAILS GATE","SHOPRITE SUPERMARKETS INC","384","WINDSOR HIGHWAY",,,"NEW WINDSOR","NY","12553","POINT (-74.054766 41.458518)"
"QUEENS","638476","Drug Store","RITE AID #1809","RITE AID DRUG PALACE, INC","222-14","LINDEN BOULEVARD",,,"CAMBRIA HEIGHTS","NY","114111606","POINT (-73.737948 40.694454)"
"KINGS","662171","Floral Shop","THE SILL","ELIZA BLANK","195","PACIFIC STREET",,,"BROOKLYN","NY","11201","POINT (-73.993059 40.689136)"
"MONROE","658841","Other","DOLLAR TREE #00935","DOLLAR TREE","20","SPENCERPORT ROAD",,,"ROCHESTER","NY","14606","POINT (-77.691611 43.165021)"
"NASSAU","656872","Grocery Store","7 ELEVEN FOOD STORE #34373A","CHAUDRY, MOHAMMAD","200","EAST MERRICK ROAD",,,"FREEPORT","NY","11520","POINT (-73.570775 40.653777)"
"QUEENS","637313","Drug Store","CVS PHARMACY # 2720","CVS ALBANY LLC","88-07","ROCKAWAY BEACH BLVD",,,"ROCKAWAY BEACH","NY","11693","POINT (-73.813426 40.58723)"
"QUEENS","659479","Grocery Store","WESTERN BEEF RETAIL INC","EUGENE ACEVEDO","145-35","ROCKAWAY BLVD",,,"SOUTH OZONE PARK","NY","11420","POINT (-73.792193 40.673537)"
"CHAUTAUQUA","662080","Other","CORNELL COOPERATIVE EXT. CHAUT. CO.","EMILY REYNOLDS - EXECUTIVE DIRECTOR","525","FALCONER ST.","PO BOX 20",,"JAMESTOWN","NY","14702",
"SUFFOLK","660455","Grocery Store","ALDI INC #4","ALDI INC","614","MIDDLE COUNTRY ROAD",,,"SELDEN","NY","11784","POINT (-73.033393 40.866831)"
"OTSEGO","660622","Drug Store","WALGREENS #19526","WALGREEN EASTERN CO INC","5626","STATE HIGHWAY 7, SUITE 4",,,"ONEONTA","NY","13820","POINT (-75.015036 42.462184)"
"KINGS","614552","Grocery Store","BOGOPA-ST JOHNS INC","BOGOPA SERVICE CORP","1682","ST JOHNS PLACE",,,"BROOKLYN","NY","11233","POINT (-73.921555 40.670075)"
"ERIE","149338","Grocery Store","PRICERITE OF KENMORE AVENUE","PRICERITE OF KENMORE AVE","1716","KENMORE AVENUE",,,"BUFFALO","NY","14216","POINT (-78.88249 42.95861)"
"BROOME","661023","Landscaper","NORTHERN SCAPES","PAMELA J ALLEN & ROBERT W ALLEN","1565","EAST MAINE ROAD",,,"JOHNSON CITY","NY","13790","POINT (-76.037247 42.212986)"
"ORANGE","338083","Grocery Store","STOP & SHOP SPRMKT #528","STOP & SHOP SUPERMARKET CO LLC","1429","ROUTE 300",,,"NEWBURGH","NY","12550","POINT (-74.070857 41.522502)"
"SUFFOLK","661078","Grocery Store","7 ELEVEN #11163A","NIRAV PATEL","328","DEPOT ROAD",,,"HUNTINGTON STATION","NY","11746","POINT (-73.396351 40.837948)"
"QUEENS","659757","Dept. Store","MARSHALLS STORE #601","MARSHALLS OF MA, INC","48-18","NORTHERN BLVD",,,"LONG ISLAND CITY","NY","11101","POINT (-73.913968 40.753488)"
"KINGS","618519","Drug Store","RITE AID #4246","RITE AID OF NEW YORK INC","892-908","FLATBUSH AVENUE",,,"BROOKLYN","NY","112264018","POINT (-73.958536 40.649723)"
"WESTCHESTER","559210","Grocery Store","STOP & SHOP SPRMKT #530","STOP & SHOP SUPERMARKET CO LLC","390","BROADWAY",,,"DOBBS FERRY","NY","105221726","POINT (-73.870449 41.015007)"
"ONONDAGA","311200","Other","NORTHERN NURSERY OF NY INC","ROBERT BAKER JR","8633","US ROUTE 11",,,"CICERO","NY","13039",
"NIAGARA","298790","Drug Store","RITE AID #1912","RITE AID OF NEW YORK INC","3987","LOCKPORT OLCOTT ROAD",,,"LOCKPORT","NY","140941132","POINT (-78.67693 43.219408)"
"NASSAU","285925","Drug Store","CVS PHARMACY # 745","CVS ALBANY LLC","594","ATLANTIC AVE",,,"EAST ROCKAWAY","NY","11518","POINT (-73.664201 40.640968)"
"NEW YORK","659552","Grocery Store","FOOD EMPORIUM","PAUL & PASQUALE CONTE","810","8TH AVENUE",,,"NEW YORK","NY","10019","POINT (-73.986284 40.762053)"
"ERIE","147196","Dept. Store","WAL-MART #2586","WAL-MART STORES EAST LP","2500","WALDEN AVENUE",,,"CHEEKTOWAGA","NY","14225","POINT (-78.742926 42.908354)"
"DUTCHESS","131486","Grocery Store","SHOPRITE OF POUGHKEEPSIE #206","SHOPRITE SUPERMARKETS INC","1895","SOUTH ROAD SUITE 3B",,,"POUGHKEEPSIE","NY","12601","POINT (-73.916758 41.618503)"
"SUFFOLK","477826","Dept. Store","TARGET STORE #1191","TARGET CORPORATION","265","POND PATH ROAD",,,"SOUTH SETAUKET","NY","11733",
"RENSSELAER","658881","Other","DOLLAR TREE #01419","DOLLAR TREE","720","HOOSICK ROAD # W1-9",,,"TROY","NY","12180","POINT (-73.644925 42.743796)"
"ERIE","660730","Grocery Store","7 ELEVEN FOOD STORE #35131A","7 ELEVEN FOOD STORE","1971","SOUTH PARK AVENUE",,,"BUFFALO","NY","14220","POINT (-78.823721 42.845121)"
"NEW YORK","620081","Grocery Store","GRISTEDE'S # 601","NAMDOR INC","2700","BROADWAY",,,"NEW YORK","NY","10025","POINT (-73.968356 40.799233)"
"RICHMOND","646852","Hardware Store","HOME DEPOT THE #1249","HOME DEPOT USA INC","2501","FOREST AVENUE",,,"STATEN ISLAND","NY","10303","POINT (-74.172121 40.627548)"
"ONONDAGA","659659","Dept. Store","TJ MAXX STORE #867","TJX COMPANIES INC","3841","STATE ROAD 31",,,"LIVERPOOL","NY","13090","POINT (-76.247694 43.184284)"
"ORLEANS","661082","Other","S + T CHRIST FARMS","SCOTT CHRIST","16561","PHILLIPS ROAD",,,"HOLLEY","NY","14470","POINT (-78.048016 43.268804)"
"BROOME","34522","Floral Shop","ENCHANTED FLORIST","JOHNSON STEVEN K","2975","NY ROUTE 7",,,"HARPURSVILLE","NY","13787","POINT (-75.606163 42.191688)"
"CLINTON","97519","Drug Store","KPH HEALTHCARE DBA KINNEY DRUGS #19","KPH HEALTHCARE SERVICES INC","288","CORNELIA STREET",,,"PLATTSBURGH","NY","12901","POINT (-73.474875 44.69772)"
"QUEENS","660712","Floral Shop","FRESH POND FLORIST INC","LEYDY AVILA","66-33","FRESH POND ROAD",,,"RIDGEWOOD","NY","11385","POINT (-73.897669 40.707919)"
"ERIE","140007","Garden Center","GRABBER & SONS INC","GRABBER&SONS INC","3242","HARLEM ROAD",,,"CHEEKTOWAGA","NY","14225","POINT (-78.784156 42.932072)"
"BRONX","603083","Grocery Store","SS ENTERPRISES NY INC.  #39084A","SHARMA SUNIL","557","GRAND CONCOURSE AVENUE",,,"BRONX","NY","10451","POINT (-73.927196 40.818993)"
"SUFFOLK","478915","Drug Store","WALGREENS #5439","WALGREEN EASTERN COMPANY INC","1770","DEER PARK AVENUE",,,"DEER PARK","NY","11729","POINT (-73.327341 40.756733)"
"NASSAU","280381","Grocery Store","H&Y MARKETPLACE","ROBERT HAN","478","PLAINVIEW ROAD",,,"HICKSVILLE","NY","11801","POINT (-73.502363 40.76964)"
"ONONDAGA","316905","Hardware Store","HOME DEPOT THE #1236","HOME DEPOT USA INC","5814","BRIDGE STREET",,,"EAST SYRACUSE","NY","13057","POINT (-76.068864 43.05273)"
"MADISON","253988","Grocery Store","TOPS #359","TOPS PT LLC","900","WEST GENESEE ST",,,"CHITTENANGO","NY","13037","POINT (-75.902344 43.048714)"
"ERIE","661183","Grocery Store","7 ELEVEN #35155A","RAWA S ANABI AND SAM ANABI","475","FRENCH ROAD",,,"BUFFALO","NY","14227","POINT (-78.736711 42.868021)"
"LIVINGSTON","244047","Roadside Stand","ABBOTTS FARM MARKET","ABBOTT TRACY L",,"CORNER CLARA BARTON ST","JEFFERSON ST",,"DANSVILLE","NY","14437","POINT (-77.723485 42.572866)"
"ONTARIO","323324","Roadside Stand","WHITES FARM MARKET LLC","CHARLES R & MARY WHITE","2180","RT 64,",,,"BLOOMFIELD","NY","14469","POINT (-77.47248 42.924814)"
"SUFFOLK","659914","Grocery Store","7 ELEVEN FOOD STORE #39794A","7 ELEVEN","1320","FIFTH AVE",,,"BAY SHORE","NY","11706","POINT (-73.262406 40.735312)"
"FRANKLIN","163468","Garden Center","TRACTOR SUPPLY COMPANY #1395","TRACTOR SUPPLY COMPANY","3184","STATE ROUTE 11",,,"MALONE","NY","12953","POINT (-74.331857 44.847175)"
"QUEENS","656869","Grocery Store","7 ELEVEN FOOD STORE #39222A","ABDELKHALEK, SAFWAT","34-17","NORTHERN BOULEVARD",,,"ASTORIA","NY","11106","POINT (-73.929716 40.752064)"
"PUTNAM","370510","Garden Center","TRACTOR SUPPLY COMPANY #1338","TRACTOR SUPPLY COMPANY","1253","STATE ROUTE 311",,,"PATTERSON","NY","12563","POINT (-73.593591 41.514784)"
"NEW YORK","606655","Drug Store","CVS PHARMACY # 2058","CVS ALBANY","158","BLEECKER STREET",,,"NEW YORK","NY","10012","POINT (-73.99988 40.728523)"
"WASHINGTON","536471","Grocery Store","PRICE CHOPPER #0157","PRICE CHOPPER OPERATING CO INC","8648","STATE ROUTE 22",,,"GRANVILLE","NY","12832","POINT (-73.26374 43.394047)"
"WAYNE","548013","Drug Store","KPH HEALTHCARE DBA KINNEY DRUGS #66","KPH HEALTHCARE SERVICES INC","20","FORGHAM STREET",,,"LYONS","NY","14489","POINT (-76.996094 43.060297)"
"NASSAU","289951","Grocery Store","SHOPRITE #800","FOOD PARADE INC/JOHN GREENFIELD","444","WOODBURY RD",,,"PLAINVIEW","NY","11803","POINT (-73.499934 40.784973)"
"CHAUTAUQUA","64158","Grocery Store","TOPS #270","TOPS PT LLC","64","SOUTH ERIE ST",,,"MAYVILLE","NY","14757","POINT (-79.502973 42.25264)"
"LIVINGSTON","661781","Gas Station","DANSVILLE CORPORATION","SIMAYECT SINGH","100","CLARA BARTON",,,"DANSVILLE","NY","14437","POINT (-77.700856 42.553314)"
"NASSAU","280037","Grocery Store","KING KULLEN GROCERY CO INC #7","KING KULLEN GROCERY CO INC","1340","WANTAGH AVE",,,"WANTAGH","NY","11793","POINT (-73.508615 40.689924)"
"NASSAU","658950","Other","DOLLAR TREE #03490","DOLLAR TREE","1328","HICKSVILLE RD",,,"NORTH MASSAPEQUA","NY","11758","POINT (-73.478988 40.692908)"
"NASSAU","661541","Roadside Stand","JONAHS GARDEN LLC","JONAH AND AUISTIN RANGEL","12","CROYDON DRIVE",,,"BELLMORE","NY","11710","POINT (-73.539543 40.674256)"
"QUEENS","661914","Garden Center","FLORIST HILLS INC.","LOUIS ZUCCARELLO","68-19","WOODHAVEN BLVD",,,"FOREST HILLS","NY","11375","POINT (-73.860005 40.715022)"
"ERIE","659386","Other","PET SUPPLIES PLUS #0113","PSP STORES, LLC/ CHRISTOPHER ROWLAND","3984","SENECA ST",,,"WEST SENECA","NY","14224","POINT (-78.755255 42.830161)"
"ERIE","146239","Drug Store","CVS PHARMACY # 1227","CVS ALBANY LLC","520","LEE ENTRANCE",,,"AMHERST","NY","14228","POINT (-78.785891 43.003164)"
"MONROE","265948","Drug Store","CVS PHARMACY # 753","CVS ALBANY LLC","185","NORTH WINTON ROAD",,,"ROCHESTER","NY","14610","POINT (-77.553632 43.148476)"
"CHAUTAUQUA","660994","Roadside Stand","ANDY AND NANCY YODER","ANDY AND NANCY YODER","2051","ROUTE 62",,,"FREWSBURG","NY","14738","POINT (-79.121081 42.088972)"
"NASSAU","658728","Other","PETSMART INC #2438","DAVID K. LENHARDT","2410","MERRICK RD, UNIT 1","UNIT 1",,"BELLMORE","NY","11710","POINT (-73.53691 40.661544)"
"SUFFOLK","659404","Other","PET SUPPLIES PLUS #9033","PSP STORES, LLC/CHRISTOPHER ROWLAND","411","COMMACK RD",,,"DEER PARK","NY","11729","POINT (-73.312462 40.762418)"
"ONONDAGA","310965","Grocery Store","PRICE CHOPPER #0199","PRICE CHOPPER OPERATING CO INC","5701","EAST CIRCLE DRIVE",,,"CICERO","NY","13039","POINT (-76.122777 43.149135)"
"QUEENS","660013","Garden Center","M & A CONVENIENCE STORE","MOHAMED AYUBE","180-20","HILLSIDE AVENUE",,,"JAMAICA","NY","11432","POINT (-73.781897 40.713073)"
"BRONX","608605","Drug Store","RITE AID #3429","RITE AID OF NEW YORK INC","1540","GRAND CONCOURSE",,,"BRONX","NY","104578400","POINT (-73.912155 40.841984)"
"NASSAU","659407","Other","PET SUPPLIES PLUS #9038","PSP STORES, LLC/CHRISTOPHER ROWLAND","227","W MERRICK RD",,,"VALLEY STREAM","NY","11580","POINT (-73.705494 40.666965)"
"WESTCHESTER","660997","Grocery Store","WHOLE FOODS MARKET","ALBERT PERCIVAL","20","THE CROSSING",,,"CHAPPAQUA","NY","10514","POINT (-73.771999 41.203135)"
"WESTCHESTER","556536","Drug Store","CVS PHARMACY # 1959","CVS ALBANY LLC","4760","BOSTON POST ROAD",,,"PELHAM MANOR","NY","10803","POINT (-73.804865 40.896416)"
"ERIE","144323","Other","BIG LOTS #0391","BIG LOTS STORES INC","5165","BROADWAY","DEPEW PLAZA",,"DEPEW","NY","14043","POINT (-78.683493 42.901329)"
"ADDISON","661083","Other","CLOUD FARM INC","CAMERON MACKVALER","38","POND LANE","SUITE C",,"MIDDLEBURY","VT","5753","POINT (-73.171297 44.035133)"
"QUEENS","637084","Drug Store","CVS PHARMACY # 2442","CVS ALBANY LLC","271","BEACH 20TH STREET",,,"FAR ROCKAWAY","NY","11691","POINT (-73.754268 40.59726)"
"ERIE","298095","Landscaper","TITAN DEVELOPMENT INC","LENNI L DONNOVAN?","6865","WOLCOTTSVILLE RD",,,"AKRON","NY","14001","POINT (-78.518824 43.093578)"
"YATES","656768","Landscaper","RUTHERFORDS HOME AND LAWN CARE","RUTHERFORD, BRADLEY","4326","CHAMPLAIN RD",,,"PENN YAN","NY","14527","POINT (-77.190931 42.638335)"
"NASSAU","289953","Hardware Store","BELLMORE HOME CENTER INC","MICHAEL CASTELLO","2667","MERRICK ROAD",,,"BELLMORE","NY","11710","POINT (-73.526758 40.663384)"
"STEUBEN","658825","Other","DOLLAR TREE #00453","DOLLAR TREE","1000","STATE ROUTE 36",,,"HORNELL","NY","14843","POINT (-77.691232 42.381135)"
"WESTCHESTER","554897","Other","ANTONIO RECA","ANTONIO RECA","515","STANLEY AVE",,,"MAMARONECK","NY","10543","POINT (-73.741277 40.94813)"
"DUTCHESS","133088","Floral Shop","COUNTRY GARDENERS","SCASSO JOANN E","5","RAIL ROAD PLAZA","PO BOX D",,"MILLERTON","NY","12546","POINT (-73.512119 41.953558)"
"ONTARIO","660744","Dept. Store","TJ MAXX STORE #1494","TJ MAXX","80","COBBLESTONE COURT DRIVE",,,"VICTOR","NY","14564","POINT (-77.4385 43.030288)"
"CHEMUNG","76971","Hardware Store","LOWE'S HOME CTR #530","LOWES HOME CENTERS, LLC","913","COUNTY ROAD ROUTE 64",,,"ELMIRA (BIG FLATS)","NY","14903","POINT (-76.874592 42.154093)"
"SUFFOLK","657035","Hardware Store","DEER HILLS ACQUISTION CORP","DEER HILLS HARDWARE INC","770-14","GRAND BLVD",,,"DEER PARK","NY","11729","POINT (-73.312192 40.760711)"
"SUFFOLK","661040","Grocery Store","7 ELEVEN # 34216B","GREG COCHEO","9945","MAIN ROAD",,,"MATTITUCK","NY","11952","POINT (-72.538819 40.984486)"
"COLUMBIA","101275","Roadside Stand","GOLDEN HARVEST FARMS INC","ALAN J GROUT","3074","ROUTE 9",,,"VALATIE","NY","12184","POINT (-73.68686 42.437201)"
"SUFFOLK","661782","Grocery Store","7 ELEVEN STORE #38022A","HETAL PATEL","4525","SUNRISE HWY",,,"BOHEMIA","NY","11716","POINT (-73.118946 40.753797)"
"KINGS","659478","Grocery Store","WESTERN BEEF RETAIL INC","PETER CASTELLANA","994","MYRTLE AVENUE",,,"BROOKLYN","NY","11206","POINT (-73.941476 40.696273)"
"WYOMING","659449","Other","DOLLAR TREE #06320","DOLLAR TREE STORES, INC/GARY PHILBIN","461","NORTH MAIN STREET",,,"WARSAW","NY","14569","POINT (-78.130301 42.759897)"
"ESSEX","659194","Hardware Store","WARD LUMBER","SIDNEY J WARD 3","697","GLEN RD",,,"JAY","NY","12941","POINT (-73.724373 44.366183)"
"MONROE","659018","Other","BONANA BONANA","DOMENIC KEARNEY","280","N UNION ST",,,"ROCHESTER","NY","14609","POINT (-77.590739 43.166047)"
"ULSTER","517588","Dept. Store","WAL-MART #2504","WAL-MART STORES EAST LP","601","FRANK STOTTILE BOULEVARD",,,"KINGSTON","NY","12401","POINT (-73.985132 41.972613)"
"MONROE","661251","Dept. Store","BIG LOTS STORES - PNS, LLC  #4706","L MICHAEL WATTS","3710","CHILI AVENUE",,,"ROCHESTER","NY","14624","POINT (-77.791999 43.094199)"
"SUFFOLK","475148","Drug Store","CVS PHARMACY # 275","CVS ALBANY LLC","1565","ROUTE 112",,,"MEDFORD","NY","11763","POINT (-73.006994 40.794865)"
"SUFFOLK","472339","Grocery Store","KING KULLEN GROCERY CO INC #16","KING KULLEN GROCERY CO INC","600","NORTH WELLWOOD AVENUE",,,"LINDENHURST","NY","11757",
"ALBANY","18670","Grocery Store","PRICE CHOPPER #0028","PRICE CHOPPER OPERATING CO INC","2080","WESTERN AVE","20 MALL SHOPPING CENTER",,"GUILDERLAND","NY","12084","POINT (-73.891867 42.698573)"
"KINGS","661534","Other","BK PLANT FAM LLC","RAQUEL & MARLON GILL","590","EAST 34TH STREET",,,"BROOKLYN","NY","11203","POINT (-73.944761 40.642135)"
"NASSAU","660196","Grocery Store","7 ELEVEN FOOD STORE #37698A","7 ELEVEN STORES INC","2259","JERUSALEM AVE",,,"BELLMORE","NY","11710","POINT (-73.548753 40.690557)"
"KINGS","614573","Grocery Store","BOGOPA INC","BOGOPA SERVICE CORP","17-59","RIDGEWOOD PLACE",,,"BROOKLYN","NY","11237","POINT (-73.910373 40.697986)"
"SUFFOLK","660274","Landscaper","ANDERSON LANDSCAPES INC","PAUL ANDERSON","533","DEER PARK ROAD",,,"DIX HILLS","NY","11746","POINT (-73.342531 40.798408)"
"ERIE","148709","Drug Store","RITE AID #0565","RITE AID OF NEW YORK INC","452","MAIN STREET",,,"BUFFALO","NY","142023203","POINT (-78.874178 42.886283)"
"NIAGARA","661133","Garden Center","RUNNING SUPPLY INC","JEFF HAUKOM","5789","SOUTH TRANSIT ROAD",,,"LOCKPORT","NY","14094","POINT (-78.696899 43.144129)"
"KINGS","662029","Other","PAL'S PLANTS ETC LLC","LAURA MELILLO","417","OCEAN AVENUE","APT D4",,"BROOKLYN","NY","11226","POINT (-73.961485 40.652574)"
"CHAUTAUQUA","67599","Drug Store","CVS PHARMACY # 5075","CVS ALBANY LLC","117","E. MAIN ST",,,"WESTFIELD","NY","14787","POINT (-79.574157 42.324656)"
"QUEENS","657696","Landscaper","WESLEY ALLEN PETRE","WESLEY ALLEN PETRE","53-06","JUNCTION BLVD",,,"ELMHURST","NY","11373","POINT (-73.866949 40.739361)"
"BROOME","34866","Grocery Store","PRICE CHOPPER #0130","PRICE CHOPPER OPERATING CO INC","911","NORTH STREET",,,"ENDICOTT","NY","13760","POINT (-76.05205 42.104063)"
"NASSAU","657527","Grocery Store","7 ELEVEN FOOD STORE #32711B","RANJEEV KUMAR","964","MERRICK RD",,,"BALDWIN","NY","11510","POINT (-73.607062 40.651254)"
"NASSAU","286281","Drug Store","CVS PHARMACY # 1285","CVS ALBANY LLC","610","OLD COUNTRY ROAD",,,"WESTBURY","NY","11590","POINT (-73.573671 40.750604)"
"LIVINGSTON","243492","Grocery Store","JCW HOLDINGS INC","JEFF & CINDY WOLF","9045","ROUTE 406","PO BOX 726",,"NUNDA","NY","14517",
"ORANGE","333697","Drug Store","WALGREENS #10914","WALGREENS","82","N PLANK ROAD",,,"NEWBURGH","NY","12550","POINT (-74.033722 41.526417)"
"ERIE","147895","Grocery Store","TOPS #0224","TOPS MARKETS LLC","2351","MAPLE ROAD",,,"AMHERST","NY","14221","POINT (-78.700012 42.989291)"
"TIOGA","659573","Roadside Stand","COUNTRYSIDE PRODUCE","RUSSELL, DONALD","307","HARNICK ROAD",,,"APALACHIN","NY","13732","POINT (-76.137524 42.005309)"
"MONROE","261426","Drug Store","RITE AID #10845","ECKERD CORPORATION","6720","PITTSFORD-PALMYRA ROAD",,,"FAIRPORT","NY","14450","POINT (-77.441167 43.069175)"
"QUEENS","658787","Other","PETCO #3764","PETCO ANIMAL SUPPLIES STORES INC","25451","HORACE HARDING EXPRESSWAY",,,"LITTLE NECK","NY","11362","POINT (-73.726082 40.764119)"
"ONTARIO","321612","Garden Center","BRISTOLS FARM MARKET & GARDEN","STEPHEN A SANNA","7454","VICTOR-PITTSFORD RD",,,"VICTOR","NY","14564","POINT (-77.441446 43.004422)"
"SUFFOLK","657504","Dept. Store","BIG LOTS #5217","BIG LOTS STORES INC","5755","SUNRISE HIGHWAY",,,"HOLBROOK","NY","11741","POINT (-73.068801 40.768666)"
"TIOGA","662186","Landscaper","MORNING LIGHT LANDSCAPES","JULIE AND CHRISTOPHER MIX","3792","STATE ROUTE 434",,,"APALACHIN","NY","13732","POINT (-76.197215 42.082602)"
"KINGS","659177","Grocery Store","STOP & SHOP SPRMKT #2591","STOP & SHOP SUPERMARKET COMPANY LLC","2965","CROPSEY AVENUE",,,"BROOKLYN","NY","11214","POINT (-73.986097 40.582543)"
"NIAGARA","294519","Grocery Store","TOPS #0009","TOPS MARKETS LLC","1000","PORTAGE ROAD",,,"NIAGARA FALLS","NY","14301","POINT (-79.050959 43.099172)"
"CATTARAUGUS","48748","Drug Store","RITE AID #0868","RITE AID OF NEW YORK INC","9","BROAD STREET",,,"SALAMANCA","NY","147791551","POINT (-78.716505 42.155139)"
"ERIE","142987","Grocery Store","DASH MARKETS INC","JOSEPH DASH","1770","HERTEL AVENUE",,,"BUFFALO","NY","14216","POINT (-78.842618 42.947569)"
"BRONX","659438","Other","BOGOPA-WASHINGTON INC","SPENCER AN","445","E 163RD ST",,,"BRONX","NY","10451","POINT (-73.911246 40.824839)"
"WESTCHESTER","657011","Other","PETCO #787","PETCO ANIMAL SUPPLIES, INC.","324","N. CENTRAL AVENUE SOUTH",,,"HARTSDALE","NY","10530","POINT (-73.806423 41.01199)"
"WYOMING","568771","Hardware Store","PERRY LUMBER & HARDWARE","JUDY PHILLIPS","2","WASHINGTON BOULEVARD",,,"PERRY","NY","14530","POINT (-78.009932 42.713552)"
"ORANGE","657487","Drug Store","WALGREENS #12067","WALGREENS EASTERN CO INC","416","WINDSOR HWY",,,"NEW WINDSOR","NY","12553","POINT (-74.056805 41.455254)"
"ERIE","656865","Grocery Store","TOPS #050","TOPS MARKETS LLC","315","ORCHARD PARK ROAD",,,"BUFFALO","NY","14224","POINT (-78.788079 42.835525)"
"QUEENS","635855","Hardware Store","HOME DEPOT THE #1214","HOME DEPOT USA INC","131-35","AVERY AVENUE",,,"FLUSHING","NY","11355","POINT (-73.834866 40.752208)"
"STEUBEN","461596","Garden Center","ZEMAK GARDEN CENTER","ZEMAK KAREN L","6708","ROUTE 415 SOUTH",,,"BATH","NY","14810",
"CHAUTAUQUA","64244","Grocery Store","TOPS #754","TOPS PT LLC","20","CENTER ST",,,"FREWSBURG","NY","14738","POINT (-79.16137 42.053511)"
"QUEENS","634278","Hardware Store","PERSAUD HARDWARE STORE","PERSAUD OUDIT","123-15","LIBERTY AVENUE",,,"RICHMOND HILL","NY","11419","POINT (-73.820587 40.687632)"
"ERIE","148819","Drug Store","RITE AID #3838","RITE AID OF NEW YORK INC","40","WEST MAIN STREET",,,"SPRINGVILLE","NY","141411014","POINT (-78.668809 42.508713)"
"NASSAU","661995","Grocery Store","99 RANCH MARKET #606","ALICE AND JONSON CHEN","1500","OLD COUNTRY RD",,,"WESTBURY","NY","11590","POINT (-73.552343 40.756089)"
"NASSAU","658795","Other","LONG ISLAND PALMS & TROPICALS","SARINETTI, ROBERT","280","BROAD HOLLOW ROAD",,,"FARMINGDALE","NY","11735",
"CHENANGO","661978","Other","DOLLAR TREE #00993","DOLLAR TREE STORES","90","N BROAD STREET",,,"NORWICH","NY","13815","POINT (-75.524062 42.53459)"
"NEW YORK","628126","Floral Shop","PEONY CHINESE BONSAI INC","CHEUNG HONG LEE","106","WALKER STREET",,,"NEW YORK","NY","10013","POINT (-74.000456 40.717706)"
"DELAWARE","660509","Drug Store","WALGREENS #19432","WALGREEN EASTERN CO INC","5","LAKE ST.",,,"STAMFORD","NY","12167","POINT (-74.624493 42.410652)"
"ROCKLAND","397891","Hardware Store","HOME DEPOT THE #1261","HOME DEPOT USA INC","43","HUTTON AVENUE",,,"NANUET","NY","10954","POINT (-74.019547 41.102411)"
"NEW YORK","621291","Drug Store","WALGREENS #10135","WALGREEN EASTERN COMPANY INC","298","FIRST AVENUE",,,"NEW YORK","NY","100091850","POINT (-73.980872 40.733352)"
"MONROE","661655","Grocery Store","7 ELEVEN STORE #40255","RAWA S ANABI & SAM ANABI","265","MACEDON CENTER ROAD",,,"FAIRPORT","NY","14450","POINT (-77.424936 43.096544)"
"ERIE","658905","Other","DOLLAR TREE #01950","DOLLAR TREE","123","GREY ST",,,"EAST AURORA","NY","14052","POINT (-78.632636 42.765543)"
"NASSAU","288936","Grocery Store","7 ELEVEN FOOD STORE  #26606B","BHATTI AMRIT PAUL","4010","SUNRISE HIGHWAY",,,"SEAFORD","NY","117832636","POINT (-73.484393 40.674976)"
"MONROE","657721","Grocery Store","TOPS #55","TOPS MARKETS LLC/FRANK CURCI","211","N WINTON RD",,,"ROCHESTER","NY","14610","POINT (-77.552976 43.14968)"
"NEW YORK","660454","Grocery Store","LEXINGTON FRESH FARM INC","SALIM HEMNANI","802","LEXINGTON AVE",,,"NEW YORK","NY","10065","POINT (-73.966902 40.763987)"
"KINGS","659886","Grocery Store","DNY NATURAL LAND","YONG K. KIM","322","FLATBUSH AVE",,,"BROOKLYN","NY","11238","POINT (-73.972312 40.676977)"
"SUFFOLK","479827","Grocery Store","KING KULLEN GROCERY CO INC #47","KING KULLEN GROCERY CO INC","52","EAST MONTAUK HIGHWAY",,,"HAMPTON BAYS","NY","11946","POINT (-72.520377 40.879141)"
"HERKIMER","217426","Drug Store","CVS PHARMACY # 5027","CVS ALBANY LLC","625","EAST MAIN ST",,,"LITTLE FALLS","NY","13365","POINT (-74.856622 43.044401)"
"ALBANY","659870","Dept. Store","TJ MAXX STORE # 1449","TJX COMPANIES","161","WASHINGTON AVE",,,"ALBANY","NY","12205","POINT (-73.762478 42.656277)"
"MONROE","659635","Dept. Store","TJ MAXX STORE #1379","TJX COMPANIES INC","6528","FOURTH SECTION ROAD",,,"BROCKPORT","NY","14420","POINT (-77.944559 43.198361)"
"SUFFOLK","656826","Other","PETSMART INC #2105","PETSMART INC.","535","W. MONTAUK HWY",,,"WEST BABYLON","NY","11704","POINT (-73.341315 40.687614)"
"ONEIDA","300469","Drug Store","WALGREENS #9800","WALGREEN EASTERN COMPANY INC","1750","GENESEE STREET",,,"UTICA","NY","135025429","POINT (-75.258153 43.088164)"
"SUFFOLK","661515","Grocery Store","LUS LICENSING LLC DBA LIDL NORTHPORT","MARCO LANDOLT","560","LARKFIELD ROAD",,,"EAST NORTHPORT","NY","11731","POINT (-73.319176 40.858515)"
"RENSSELAER","383428","Dept. Store","WAL-MART #1940","WAL-MART STORES EAST LP","279","TROY ROAD",,,"RENSSELAER","NY","12144","POINT (-73.699343 42.641129)"
"SARATOGA","660511","Drug Store","WALGREENS #17722","WALGREEN EASTERN CO INC","90","WEST AVE.",,,"SARATOGA SPRINGS","NY","12866","POINT (-73.80381 43.079113)"
"WESTCHESTER","659986","Garden Center","DANACIO CORPORATION","DENNIS LUCENTE","1","ASKINS PLACE",,,"NEW ROCHELLE","NY","10801","POINT (-73.802842 40.925616)"
"RICHMOND","641397","Drug Store","WALGREENS #7321","WALGREEN EASTERN COMPANY INC","1227","FOREST AVENUE",,,"STATEN ISLAND","NY","103102416","POINT (-74.130678 40.626347)"
"WESTCHESTER","659274","Grocery Store","ACME #2411","DANIEL CROCE","100","TRIANGLE CENTER",,,"YORKTOWN HEIGHTS","NY","10598","POINT (-73.779234 41.277205)"
"COLUMBIA","106016","Roadside Stand","SCOTT & THERESA LLC","SCOTT DELAURENTIS","5498","ROUTE 9H",,,"HUDSON","NY","12534",
"DELAWARE","660016","Other","BABA'S EVERGREEN NURSERY","ROBERT POMPILIO","2211","SILVERLAKE RD",,,"HANCOCK","NY","13783","POINT (-75.35991 42.033212)"
"QUEENS","638660","Drug Store","RITE AID #4863","RITE AID OF NEW YORK INC","144-29","NORTHERN BOULEVARD",,,"FLUSHING","NY","113544230","POINT (-73.822328 40.764835)"
"ESSEX","657438","Garden Center","TRACTOR SUPPLY COMPANY #1537","JAMES F WRIGHT - CHAIMAN & CEO","9","COMMERCE DR",,,"TICONDEROGA","NY","12883","POINT (-73.445763 43.860498)"
"MADISON","659243","Other","DOLLAR TREE #06703","DOLLAR TREE STORES, INC/ GARY PHILBIN","1015","MADISON MARKETPLACE",,,"HAMILTON","NY","13346",
"BRONX","658197","Dept. Store","NATIONAL WHOLESALE LIQUIDATORS","NSC WHOLESALE HOLDINGS LLC","691","CO-OP BLVD",,,"BRONX","NY","10475",
"BRONX","660882","Drug Store","WALGREENS #17511","WALLGREEN EASTERN CO INC","925","SOUNDVIEW AVENUE",,,"BRONX","NY","10473","POINT (-73.86821 40.823375)"
"NASSAU","658681","Grocery Store","7 ELEVEN FOOD STORE #11181B","JAPNOUR INC","4350","MERRICK RD",,,"MASSAPEQUA","NY","11758","POINT (-73.473149 40.666657)"
"NASSAU","288881","Grocery Store","STOP & SHOP SPRMKT #559","STOP & SHOP SUPERMARKET CO LLC","530","WEST OLD COUNTY ROAD",,,"HICKSVILLE","NY","11801",
"ERIE","659741","Dept. Store","MARSHALLS STORE #854","MARSHALLS OF MA, INC","2383","MAPLE ROAD",,,"BUFFALO","NY","14221","POINT (-78.698783 42.989304)"
"QUEENS","661408","Grocery Store","7 ELEVEN FOOD STORE #35764B","WILLIAM HONG","60-31","METROPOLITAN AVENUE",,,"RIDGEWOOD","NY","11385","POINT (-73.90411 40.712832)"
"RICHMOND","660272","Garden Center","SAL & TONYS LANDSCAPING CORP","ANTONIO CICCOTTO","880","ANNADALE ROAD",,,"STATEN ISLAND","NY","10312","POINT (-74.177262 40.540302)"
"NEW YORK","657479","Drug Store","CVS PHARMACY # 2962","CVS ALBANY, LLC","300","PARK AVE SOUTH",,,"NEW YORK","NY","10010","POINT (-73.986816 40.739694)"
"QUEENS","656998","Landscaper","CITY LANDSCAPING INC","LAURENCE GO","10011","67TH RD",,,"FOREST HILLS","NY","11375","POINT (-73.853249 40.725774)"
"KINGS","658685","Grocery Store","7 ELEVEN FOOD STORE #36091A","MILAN & NILE CONVENIENCE CORP","547","CONEY ISLAND AVE",,,"BROOKLYN","NY","11218","POINT (-73.970079 40.643984)"
"WAYNE","542043","Other","WAL-MART #3842","WAL-MART STORES EAST LP","425","ROUTE 31",,,"MACEDON","NY","14502","POINT (-77.357736 43.064391)"
"OTSEGO","659096","Floral Shop","A ROSE IS A ROSE","JACQUELINE BROWN","17","MAIN STREET",,,"CHERRY VALLEY","NY","13320","POINT (-74.753133 42.796799)"
"NASSAU","660743","Dept. Store","TJ MAXX STORE #1478","TJ MAXX","300","PENINSULA BLVD",,,"HEMPSTEAD","NY","11550","POINT (-73.62422 40.704549)"
"SCHENECTADY","425462","Drug Store","CVS PHARMACY # 451","CVS ALBANY LLC","415","STATE STATE","WALLACE BUILDING",,"SCHENECTADY","NY","12305","POINT (-73.94216 42.813032)"
"PUTNAM","661683","Floral Shop","HESPERS","PHILLIP ANTHONY ACURIA","7","COLLIER DR W",,,"CARMEL","NY","10512","POINT (-73.684635 41.428885)"
"NASSAU","289961","Grocery Store","KING KULLEN GROCERY CO INC #52","KING KULLEN GROCERY CO INC","77","FOREST AVENUE",,,"GLEN COVE","NY","11542","POINT (-73.622039 40.873106)"
"ONEIDA","660119","Other","BYRNE DAIRY #25","SONBYRNE SALES INC","185","ORISKANY BLVD",,,"WHITESBORO","NY","13492","POINT (-75.296041 43.123762)"
"NASSAU","286684","Drug Store","CVS PHARMACY # 2073","CVS ALBANY LLC","944","MERRICK ROAD",,,"BALDWIN","NY","11510","POINT (-73.607008 40.651256)"
"SUFFOLK","659189","Grocery Store","STOP & SHOP SPRMKT #2576","STOP & SHOP SUPERMARKET COMPANY LLC","167","MAIN ST",,,"SOUTHAMPTON","NY","11968","POINT (-72.390827 40.888514)"
"SUFFOLK","658141","Grocery Store","DUTCH PETALS INC","GUILLEN, LUIS A","2044","MONTAUK HIGHWAY",,,"BRIDGEHAMPTON","NY","11932","POINT (-72.316863 40.932151)"
"WASHINGTON","537649","Drug Store","CVS PHARMACY # 5348","CVS ALBANY LLC","1169","ROUTE 29",,,"GREENWICH","NY","12834","POINT (-73.514442 43.101859)"
"NASSAU","287375","Drug Store","CVS PHARMACY # 3247","CVS ALBANY LLC","65","FOREST AVE",,,"GLEN COVE","NY","11542","POINT (-73.625135 40.871831)"
"NEW YORK","659527","Grocery Store","GRISTEDE'S # 034","NAMDOR INC/JOHN CATSIMATIDIS","907","8TH AVENUE",,,"NEW YORK","NY","10019","POINT (-73.983912 40.765314)"
"WESTCHESTER","658244","Landscaper","GOLD AND GREEN LANDSCAPING CORP","ALVAREZ MARTA","12","BUCKLEY AVE",,,"PORT CHESTER","NY","10573","POINT (-73.667073 41.004205)"
"MONROE","657007","Other","PETCO #282","PETCO ANIMAL SUPPLIES, INC.","2255","RIDGE ROAD EAST",,,"ROCHESTER","NY","14622","POINT (-77.557958 43.204197)"
"ONTARIO","660404","Landscaper","M. DEMARIA LANDSCAPING","MICHAEL B. DEMARIA","582","PRE-EMPTION ROAD",,,"GENEVA","NY","14456","POINT (-77.011209 42.874033)"
"JEFFERSON","658869","Other","DOLLAR TREE #01406","DOLLAR TREE","1283","ARSENAL STREET",,,"WATERTOWN","NY","13601","POINT (-75.947516 43.975905)"
"SUFFOLK","477369","Drug Store","CVS PHARMACY # 3105","CVS ALBANY LLC","9870","MAIN ROAD",,,"MATTITUCK","NY","11952","POINT (-72.538799 40.984503)"
"NEW YORK","659373","Drug Store","CVS PHARMACY # 10530","CVS ALBANY, LLC/THOMAS S. MOFFATT","475","6TH AVENUE",,,"NEW YORK","NY","10011","POINT (-73.997946 40.735839)"
"KINGS","660856","Drug Store","WALGREENS #19158","WALGREEN EASTERN CO INC","1419","NEWKIRK AVENUE",,,"BROOKLYN","NY","11226","POINT (-73.963435 40.635491)"
"NASSAU","289573","Grocery Store","TRADER JOES #555","TRADER JOES EAST INC","425","SOUTH OYSTER BAY ROAD",,,"PLAINVIEW","NY","11803","POINT (-73.502857 40.781618)"
"ONONDAGA","662112","Farm Supply","LAB HOLLOW FARMS","JUSTIN HEAVEY","1633","SWIFT RD",,,"FABIUS","NY","13063","POINT (-76.022555 42.848292)"
"ONONDAGA","660630","Drug Store","WALGREENS #19049","WALGREEN EASTERN CO INC","2616","BREWERTON RD.",,,"SYRACUSE","NY","13211","POINT (-76.145646 43.103796)"
"SUFFOLK","479367","Drug Store","RITE AID #10635","GENOVESE DRUG STORES, INC","577","LARKFIELD ROAD",,,"EAST NORTHPORT","NY","11731","POINT (-73.318491 40.856844)"
"KINGS","660022","Grocery Store","FOOD TRAIN INC","EUN JUN HA","368","7TH AVE",,,"BROOKLYN","NY","11218","POINT (-73.9825 40.665775)"
"ONEIDA","660060","Grocery Store","PRICERITE OF UTICA","PRRC INC","501","BLEEKER STREET",,,"UTICA","NY","13501","POINT (-75.221625 43.099454)"
"ONONDAGA","658929","Other","DOLLAR TREE #02917","DOLLAR TREE","3130","ERIE BLVD E",,,"DEWITT","NY","13214","POINT (-76.079263 43.055341)"
"ERIE","658851","Other","DOLLAR TREE #01055","DOLLAR TREE","2400","SENECA ST",,,"BUFFALO","NY","14210","POINT (-78.802285 42.848985)"
"NASSAU","659746","Dept. Store","MARSHALLS STORE #784","MARSHALLS OF MA, INC","565","JERICHO TURNPIKE",,,"SYOSSET","NY","11791","POINT (-73.496438 40.810891)"
"NEW YORK","659235","Floral Shop","THE 116 FLOWERS","JOSE RODRIGUEZ","232","E 116TH STREET",,,"NEW YORK","NY","10029","POINT (-73.938736 40.797406)"
"ROCKLAND","398966","Drug Store","RITE AID #1019","RITE AID OF NEW YORK INC","133","ROUTE 303",,,"VALLEY COTTAGE","NY","10989","POINT (-73.942496 41.121356)"
"NEW YORK","659725","Dept. Store","MARSHALLS STORE #1243","MARSHALLS OF MA, INC","2182","BROADWAY",,,"NEW YORK","NY","10024","POINT (-73.980608 40.782618)"
"NASSAU","286985","Roadside Stand","SCHLOSSER MAX JR","SCHLOSSER MAX JR","785","NASSAU ROAD",,,"UNIONDALE","NY","11553","POINT (-73.599705 40.69141)"
"SUFFOLK","474772","Grocery Store","STOP & SHOP SPRMKT #544","STOP & SHOP SUPERMARKET CO LLC","449","PORTION ROAD",,,"LAKE RONKONKOMA","NY","11779","POINT (-73.095638 40.829296)"
"HAMILTON","201044","Other","HAMILTON COUNTY SWCD","ROBERT L. MORRISON","103","COUNTY VIEW DR",,,"LAKE PLEASANT","NY","12108","POINT (-74.412146 43.469622)"
"ONONDAGA","312669","Drug Store","RITE AID #10756","ECKERD CORPORATION","1820","TEALL AVENUE",,,"SYRACUSE","NY","13206","POINT (-76.123213 43.073783)"
"HERKIMER","661751","Floral Shop","PHOEBES LLC","PHOEBE ORILIO","60","COLONIAL PLAZA",,,"ILION","NY","13357","POINT (-75.054515 43.010444)"
"BROOME","39777","Garden Center","BINGHAMTON AGWAY","RICHARD J REYNOLDS","145","BROAD AVENUE",,,"BINGHAMTON","NY","13904","POINT (-75.889869 42.117059)"
"NEW YORK","662143","Vehicle","MANHATTAN LINK INC","RODICA BALAN","425","EAST 63RD ST","SUITE W7C",,"NEW YORK","NY","10065","POINT (-73.958838 40.761558)"
"KINGS","657408","Hardware Store","CREST METRO CORP - DBA CREST HARDWARE","FRANQUINHA JOSEPH","558","METROPOLITAN AVE",,,"BROOKLYN","NY","11211","POINT (-73.950239 40.714057)"
"MONROE","267661","Grocery Store","ALDI INC #88","ALDI INC","4899","LAKE ROAD",,,"BROCKPORT","NY","14420","POINT (-77.943912 43.195028)"
"STEUBEN","460015","Other","STEUBEN COUNTY SWCD","BOARD OF DIRECTORS","415","WEST MORRIS STREET",,,"BATH","NY","14810","POINT (-77.33807 42.343094)"
"QUEENS","660410","Other","DOLLAR TREE #06464","DOLLAR TREE STORES INC","10803","ATLANTIC AVENUE",,,"RICHMOND HILL","NY","11418","POINT (-73.837557 40.69144)"
"NASSAU","660312","Grocery Store","7 ELEVEN FOOD STORE #32371B","7 ELEVEN INC","145","W. SUNRISE HWY",,,"FREEPORT","NY","11520","POINT (-73.588485 40.656421)"
"SUFFOLK","479969","Grocery Store","7 ELEVEN FOOD STORE  #33243A","CASTALDO PHILIP","2045","JERICHO TURNPIKE",,,"COMMACK","NY","11725","POINT (-73.27367 40.844994)"
"WESTCHESTER","659727","Dept. Store","MARSHALLS STORE #1152","MARSHALLS OF MA, INC","750","CENTRAL PARK AVENUE",,,"YONKERS","NY","10704","POINT (-73.857658 40.925517)"
"QUEENS","660347","Drug Store","CVS PHARMACY # 11038","CVS ALBANY LLC","153-01","10TH AVE",,,"WHITESTONE","NY","11357","POINT (-73.808229 40.793388)"
"NIAGARA","661188","Grocery Store","7 ELEVEN #35170A","RAWA S ANABI AND SAM ANABI","1","PARK AVENUE",,,"LOCKPORT","NY","14094","POINT (-78.697348 43.168839)"
"DELAWARE","122376","Hardware Store","HOBART HARDWARE PLUS","REINSHAGEN CHARLES","951","MAIN STREET",,,"HOBART","NY","13788",
"ERIE","658646","Landscaper","NAPIER AND SONS INC","NAPIER AND SONS INC/ JOHN G NAPIER","517","BRIGHTON RD",,,"TONAWANDA","NY","14150","POINT (-78.853919 42.991131)"
"WARREN","523281","Garden Center","TRACTOR SUPPLY COMPANY #721","TRACTOR SUPPLY COMPANY","751","UPPER GLEN STREET SUITE 1",,,"QUEENSBURY","NY","12804","POINT (-73.670884 43.329163)"
"NASSAU","282135","Dept. Store","WAL-MART #5293","WAL-MART STORES EAST LP","77","GREEN ACRES ROAD",,,"VALLEY STREAM","NY","11581","POINT (-73.724775 40.662287)"
"KINGS","610746","Garden Center","ATLANTIC TERMINAL GARDEN","JOSE P. PAZ","545","ATLANTIC AVENUE",,,"BROOKLYN","NY","11217","POINT (-73.979444 40.68483)"
"NASSAU","284770","Drug Store","WALGREENS #11641","WALGREEN EASTERN COMPANY INC","1300","FRANKLIN AVENUE",,,"GARDEN CITY","NY","115301760","POINT (-73.637639 40.73479)"
"MONROE","268139","Garden Center","FAIRPORT COUNTRYMAX","FARMINGTON FARM & GARDEN INC","897","TURK HILL ROAD",,,"FAIRPORT","NY","14450","POINT (-77.432155 43.100974)"
"QUEENS","659446","Floral Shop","CREATIVE FLOWERS AND PLANTS INC","JINSHUAI CHEN","89-02","QUEENS BLVD",,,"ELMHURST","NY","11373","POINT (-73.87457 40.734546)"
"WESTCHESTER","557404","Drug Store","CVS PHARMACY # 4609","CVS ALBANY LLC","601","NORTH BROADWAY",,,"WHITE PLAINS","NY","10603","POINT (-73.769331 41.053685)"
"SUFFOLK","662168","Dept. Store","MARSHALLS #1499","MARSHALLS","2102","MONTAUK HWY",,,"BRIDGEHAMPTON","NY","11932","POINT (-72.313946 40.93305)"
"SUFFOLK","479727","Garden Center","COUNTRY GARDENS AT BRIDGEHAMPTON","GARY KALISH","125","SNAKE HOLLOW ROA","BOX 649",,"BRIDGEHAMPTON","NY","11932",
"ALBANY","661103","Other","ATLANTIC IRRIGATION SPECIALTIES INC #243","ED STANTALONE","74","SWATLING ROAD",,,"LATHAM","NY","12110","POINT (-73.734655 42.748342)"
"KINGS","618512","Drug Store","RITE AID #3978","RITE AID OF NEW YORK INC","1679","BEDFORD AVENUE",,,"BROOKLYN","NY","112252601","POINT (-73.957023 40.665256)"
"NIAGARA","660333","Grocery Store","7 ELEVEN FOOD STORE #35174A","7 ELEVEN INC","2824","PINE AVE",,,"NIAGARA FALLS","NY","14301","POINT (-79.027244 43.095135)"
"STEUBEN","463919","Drug Store","WALGREENS #11716","WALGREEN EASTERN COMPANY INC","321","W WASHINGTON STREET",,,"BATH","NY","148101017","POINT (-77.330781 42.337756)"
"SENECA","656914","Garden Center","TRACTOR SUPPLY COMPANY #1496","TRACTOR SUPPLY COMPANY","2109","ROUTE 5 AND 20","UNIT 16",,"SENECA FALLS","NY","13148",
"WESTCHESTER","659371","Landscaper","VERDANT VIEW, LLC","KATHERINE MOREAU","10","TARRY- A BIT DRIVE",,,"WACCABUC","NY","10597","POINT (-73.595028 41.294962)"
"ERIE","660061","Garden Center","2723 CLINTON STREET LLC","GARY M. TOOMEY","2723","CLINTON STREET",,,"BUFFALO","NY","14224","POINT (-78.776712 42.868462)"
"NEW YORK","628672","Drug Store","RITE AID #4971","RITE AID OF NEW YORK INC","550","SECOND AVE",,,"NEW YORK","NY","100166307","POINT (-73.977038 40.742798)"
"ERIE","140042","Grocery Store","TOPS #0233","TOPS MARKETS LLC","252","SOUTH CASCADE DRIVE",,,"SPRINGVILLE","NY","14141","POINT (-78.689486 42.504039)"
"CAYUGA","659889","Grocery Store","OWASCO MARKET LLC","NATALIE PALMER","4892","GAHWILER RD",,,"AUBURN","NY","13021","POINT (-76.464714 42.854622)"
"ALBANY","14190","Dept. Store","WAL-MART #1997","WAL-MART STORES EAST LP","800","LOUDON ROAD",,,"LATHAM","NY","12110","POINT (-73.761472 42.746911)"
"MONROE","260453","Dept. Store","TARGET STORE #2528","TARGET CORPORATION","3181","CHILI AVENUE",,,"ROCHESTER","NY","14624","POINT (-77.748037 43.106216)"
"SUFFOLK","657516","Other","PETSMART INC #2104","PETSMART INC","3050","MIDDLE COUNTRY RD",,,"NESCONSET","NY","11767","POINT (-73.130283 40.86205)"
"NASSAU","280239","Grocery Store","7 ELEVEN FOOD STORE #39221A","HAIDER SOHAIL","306","NORTH BROADWAY",,,"HICKSVILLE","NY","11801","POINT (-73.530952 40.779426)"
"BRONX","660456","Grocery Store","SHOP RITE OF BRUCKNER BLVD.","WILLIAM SUMAS, JOHN SUMAS, JOHN VAN ORDE","1994","BRUCKNER BLVD.",,,"BRONX","NY","10473","POINT (-73.856826 40.825952)"
"KINGS","659059","Drug Store","CVS PHARMACY # 6766","CVS ALBANY, LLC","168","MONTAGUE ST",,,"BROOKLYN","NY","11201","POINT (-73.992253 40.694231)"
"WAYNE","540189","Grocery Store","BREENS MARKET INC","BREENS MARKETS INC","611","EAST MAINS STREET",,,"PALMYRA","NY","14522","POINT (-77.220723 43.061982)"
"MONROE","658345","Grocery Store","TOPS #429","TOPS MARKETS LLC","999","EAST RIDGE RD",,,"ROCHESTER","NY","14621","POINT (-77.59025 43.197187)"
"SUFFOLK","470844","Grocery Store","WILD BY NATURE INC #203","JOSEPH BROWN","260","WEST MONTAUK HIGHWAY",,,"HAMPTON BAYS","NY","11946","POINT (-72.547763 40.867108)"
"NEW YORK","628089","Grocery Store","DAGOSTINO SPRMKTS #25","DAGOSTINO SUPERMARKETS INC","155","EAST 38TH STREET",,,"NEW YORK","NY","10016","POINT (-73.976621 40.748398)"
"ERIE","148761","Drug Store","RITE AID #1500","RITE AID OF NEW YORK INC","6000","TRANSIT ROAD",,,"DEPEW","NY","140431530","POINT (-78.696908 42.918686)"
"BROOME","30346","Grocery Store","WEIS MARKETS INC # 222","WEIS MARKETS INC/JONATHON H. WEIS","100","RANO BLVD",,,"VESTAL","NY","13850","POINT (-76.003618 42.0942)"
"ESSEX","157385","Hardware Store","COAKLEY HIGH PEAKS ACE HARDWARE","COAKLEY JOHN P SONS INC","622","LAKE FLOWER AVE",,,"SARANAC LAKE","NY","12983","POINT (-74.115712 44.311631)"
"ERIE","661167","Grocery Store","7 ELEVEN #35127A","RAWA S ANABI AND SAM ANABI","398","DINGENS STREET",,,"BUFFALO","NY","14206","POINT (-78.800948 42.877731)"
"RICHMOND","659698","Dept. Store","TJ MAXX STORE #1432","TJX COMPANIES INC","245","BRICKTOWN WAY",,,"STATEN ISLAND","NY","10309","POINT (-74.231307 40.529576)"
"SUFFOLK","662132","Grocery Store","SAJGOHNUD INC D/B/A 7 ELEVEN STORE #16361F","MUHAMMAD SAJJAD","33","MIDDLE COUNTRY RD",,,"CORAM","NY","11727","POINT (-72.978699 40.874353)"
"CAYUGA","58009","Drug Store","KPH HEALTHCARE DBA KINNEY DRUGS #63","KPH HEALTHCARE SERVIES INC","187","STATE STREET",,,"AUBURN","NY","13021","POINT (-76.571669 42.938239)"
"COLUMBIA","106186","Garden Center","CHATHAM AGWAY","MILLERTON COOP INC","2574","ROUTE 66",,,"CHATHAM","NY","12037","POINT (-73.605247 42.344926)"
"ONONDAGA","310722","Dept. Store","WAL-MART #1831","WAL-MART STORES EAST LP","8770","DELL DR",,,"LIVERPOOL","NY","13090",
"CHAUTAUQUA","60068","Grocery Store","SINCLAIRVILLE SUPERETTE","SINCLAIRVILLE SUPERMARKET INC","18","MAIN STREET","PO BOX 509",,"SINCLAIRVILLE","NY","14782","POINT (-79.25975 42.264006)"
"RENSSELAER","388684","Drug Store","RITE AID #1561","RITE AID OF NEW YORK INC","272","HOOSICK STREET",,,"TROY","NY","12180","POINT (-73.669806 42.738234)"
"NASSAU","286675","Drug Store","CVS PHARMACY # 2061","CVS ALBANY LLC","1797","DUTCH BROADWAY",,,"ELMONT","NY","11003","POINT (-73.708593 40.689685)"
"MONROE","266679","Drug Store","CVS PHARMACY # 2067","CVS ALBANY LLC","2580","EAST HENRIETTA ROAD",,,"ROCHESTER","NY","14623","POINT (-77.60763 43.069163)"
"WAYNE","658788","Grocery Store","TOPS #428","TOPS MARKETS, LLC","2140","WALWORTH PENFIELD ROAD",,,"WALWORTH","NY","14568","POINT (-77.280981 43.13919)"
"KINGS","611710","Drug Store","WALGREENS #11808","WALGREENS","4915","FLATLANDS AVE",,,"BROOKLYN","NY","11234","POINT (-73.927774 40.626197)"
"ST. LAWRENCE","407509","Other","BIG LOTS #1260","BIG LOTS STORES INC","138","HARTE HAVEN PLAZA",,,"MASSENA","NY","13662","POINT (-74.881035 44.92012)"
"ONONDAGA","657989","Drug Store","KPH HEALTHCARE DBA KINNEY DRUGS #113","KPH HEALTHCARE SERVICES INC","307","NOTTINGHAM RD",,,"SYRACUSE","NY","13210","POINT (-76.111526 43.028764)"
"NEW YORK","659140","Drug Store","DUANE READE #14335","DUANE READE, INC","320","W. 145TH STREET",,,"NEW YORK","NY","10039","POINT (-73.943123 40.823341)"
"SUFFOLK","479381","Drug Store","RITE AID #10623","GENOVESE DRUG STORES INC","1200","DEER PARK AVENUE",,,"NORTH BABYLON","NY","11703","POINT (-73.320495 40.736975)"
"CLINTON","97076","Other","BIG LOTS #1196","BIG LOTS STORES INC","316","CORNELIA STREET",,,"PLATTSBURGH","NY","12901","POINT (-73.478472 44.697376)"
"KINGS","656994","Other","PETCO #3711","PETCO ANIMAL SUPPLIES, INC.","2601","86TH STREET",,,"BROOKLYN","NY","11223","POINT (-73.985072 40.596631)"
"ST. LAWRENCE","661950","Other","FLACKVILLE GARDENS & GIFTS","CATHERINE M. AMELL","5843","COUNTY ROUTE 10",,,"HEUVELTON","NY","13654","POINT (-75.358406 44.659825)"
"ROCKLAND","657801","Drug Store","WALGREENS #13611","WALGREEN EASTERN CO INC","16","RTE 59",,,"NYACK","NY","10960","POINT (-73.929375 41.092581)"
"WYOMING","564868","Dept. Store","WAL-MART #2043","WAL-MART STORES EAST LP","2348","ROUTE 19",,,"WARSAW","NY","14569","POINT (-78.126001 42.766576)"
"ULSTER","510233","Other","CORNELL COOPERATIVE EXTENSION ULSTER COUNTY","COR COOP EXT ULSTER CTY/LYDIA REIDEY","232","PLAZA ROAD",,,"KINGSTON","NY","12401","POINT (-74.017476 41.93671)"
"SUFFOLK","476240","Drug Store","CVS PHARMACY # 1228","CVS ALBANY LLC","753","FORT SALONGA ROAD",,,"NORTHPORT","NY","11768","POINT (-73.335133 40.89618)"
"BRONX","604782","Drug Store","WALGREENS #11172","WALGREEN EASTERN COMPANY INC","1371","METROPOLITAN AVENUE",,,"BRONX","NY","104627403","POINT (-73.861149 40.834903)"
"COLUMBIA","104813","Other","OCEAN STATE JOB LOT #504","OCEAN STATE JOBBERS INC","2827","US HIGHWAY 9",,,"VALATIE","NY","12184","POINT (-73.684412 42.419422)"
"SUFFOLK","661275","Dept. Store","TRANSFORM KM LLC #9423","ROBERT RIECKER",,"BRIDGEHAMPTON COMMONS","BUILDING #82",,"BRIDGEHAMPTON","NY","11932","POINT (-72.304472 40.943618)"
"SUFFOLK","660582","Drug Store","WALGREENS #18339","WALGREEN EASTERN CO INC","4500","SUNRISE HWY.",,,"OAKDALE","NY","11769","POINT (-73.11867 40.753209)"
"WYOMING","659233","Roadside Stand","GLOSSER FARMS","VAN & HEATHER GLOSSER","100","MARKET STREET",,,"VARYSBURG","NY","14167",
"FRANKLIN","168733","Other","FRANKLIN CO SOIL&WATER","WILLIAM WOOD","151","FINNEY BOULEVARD",,,"MALONE","NY","129539622","POINT (-74.301123 44.83946)"
"BRONX","609914","Hardware Store","HOME DEPOT THE #6877","HOME DEPOT USA INC","2560","BRUCKNER ROAD",,,"BRONX","NY","10465","POINT (-73.839443 40.828062)"
"CHENANGO","659426","Roadside Stand","PIRES FARMERS MARKET LLC","RICHARD W. WILLIAMS","6066","STATE HIGHWAY 12",,,"NORWICH","NY","13815","POINT (-75.524998 42.545053)"
"WARREN","660325","Grocery Store","PRICE CHOPPER #0040","PRICE CHOPPER OPERATING CO INC","677","UPPER GLEN STREET",,,"QUEENSBURY","NY","12804","POINT (-73.6671 43.32548)"
"SUFFOLK","471375","Grocery Store","7 ELEVEN FOOD STORE  #11198E","SAID MARY","356","LAKE AVENUE",,,"ST JAMES","NY","11780","POINT (-73.156911 40.879313)"
"JEFFERSON","225970","Other","BIG LOTS #1022","BIG LOTS STORES INC","1125","ARSENAL STREET",,,"WATERTOWN","NY","13601","POINT (-75.939853 43.976869)"
"SARATOGA","659987","Floral Shop","THE COUNTRY FLORIST","ARNOLD MALISZEWSKI","225","KINGSLEY ROAD",,,"BURNT HILLS","NY","12027","POINT (-73.895325 42.908989)"
"SENECA","458012","Drug Store","KPH HEALTHCARE DBA KINNEY DRUGS #65","KPH HEALTHCARE SERVICES INC","2085","ROUTES 5 & 20",,,"SENECA FALLS","NY","13148",
"ERIE","148362","Hardware Store","HOME DEPOT THE #1286","HOME DEPOT USA INC","4405","MILESTRIP ROAD",,,"BUFFALO","NY","14219","POINT (-78.814236 42.789783)"
"DUTCHESS","133840","Dept. Store","WAL-MART #1810","WAL-MART STORES EAST LP","26","WEST MERRITT BLVD",,,"FISHKILL","NY","12524","POINT (-73.895729 41.529287)"
"ONONDAGA","659990","Other","DOLLAR TREE #07161","DOLLAR TREE","700","WOLF STREET",,,"SYRACUSE","NY","13208","POINT (-76.160633 43.076024)"
"SARATOGA","662178","Hardware Store","ROBINSON HARDWARE OF CP CORP","JUDD ROBINSON","135","LAPP RD",,,"CLIFTON PARK","NY","12065","POINT (-73.7755 42.820026)"
"ERIE","146455","Dept. Store","TARGET STORE #1011","TARGET CORPORATION","8290","TRANSIT ROAD",,,"WILLIAMSVILLE","NY","14221","POINT (-78.696937 42.995903)"
"JEFFERSON","222063","Dept. Store","TARGET STORE #2253","TARGET CORPORATION","21800","TOWNE CENTER DRIVE",,,"WATERTOWN","NY","136015898","POINT (-75.962838 43.973439)"
"SCHENECTADY","426116","Grocery Store","HANNAFORD SUPERMARKET & PHARMACY #8396","MARTINS FOODS OF SOUTH BURLINGTON LLC","3333","CONSAUL ROAD",,,"NISKAYUNA","NY","12309","POINT (-73.891907 42.782258)"
"TOMPKINS","657372","Grocery Store","P&C FRESH MARKET","GREGORY YOUNG","315","PINE TREE RD",,,"ITHACA","NY","14850","POINT (-76.465166 42.43762)"
"QUEENS","659491","Dept. Store","TARGET STORE #3230","TARGET CORPORATION/JANINE L BROWN-WIESE","7000","AUSTIN ST",,,"FOREST HILLS","NY","11375","POINT (-73.847813 40.721263)"
"QUEENS","638848","Grocery Store","7 ELEVEN FOOD STORE  #32720A","HOU ROBERT T","127-02","14TH AVENUE",,,"COLLEGE POINT","NY","11356","POINT (-73.840957 40.785272)"
"JEFFERSON","221824","Drug Store","WALGREENS #10239","WALGREEN EASTERN COMPANY INC","1655","STATE STREET",,,"WATERTOWN","NY","136013555","POINT (-75.882296 43.967564)"
"ALBANY","661948","Other","BILL DORAN COMPANY","WILLIAM LAFEVER","5","AVIS DRIVE",,,"LATHAM","NY","12110","POINT (-73.777608 42.750891)"
"NASSAU","662005","Grocery Store","1368 FOOD LLC","NOAH AND DANIEL KATZ","1368","PENINSULA BLVD",,,"HEWLETT","NY","11557","POINT (-73.702655 40.644446)"
"KINGS","662098","Grocery Store","PRECYCLE, LLC","KATERINA BOGATIREVA","321","STARR STREET",,,"BROOKLYN","NY","11237","POINT (-73.920288 40.707932)"
"NEW YORK","659317","Other","ROSANNA FOOD CORP","RUBEN LUNA","592","MALCOLM X BLVD",,,"NEW YORK","NY","10037","POINT (-73.938566 40.817126)"
"SCHENECTADY","422390","Grocery Store","PRICE CHOPPER #0038","PRICE CHOPPER OPERATING CO INC","290","SARATOGA ROAD",,,"SCOTIA","NY","12302","POINT (-73.930308 42.873385)"
"WESTCHESTER","659624","Dept. Store","TJ MAXX STORE #128","TJX COMPANIES INC","600","EAST SANFORD BLVD",,,"MOUNT VERNON","NY","10550",
"SULLIVAN","482605","Grocery Store","PECKS MARKET OF CALLICOON","LEE REIMER","9","LOWER MAIN ST","PO BOX 411",,"CALLICOON","NY","12723","POINT (-75.056614 41.765559)"
"ULSTER","512351","Hardware Store","LOWE'S HOME CTR #2326","LOWES HOME CENTERS, LLC","650","ROUTE 299",,,"HIGHLAND","NY","12528","POINT (-74.034561 41.737657)"
"ERIE","142967","Other","OLLIES BARGAIN OUTLET INC #56","BUTLER MARK/SWYGERT JOHN","2150","WALDEN AVENUE",,,"CHEEKTOWAGA","NY","14225","POINT (-78.756356 42.907317)"
"KINGS","614264","Drug Store","WALGREENS #11141","WALGREEN EASTERN COMPANY INC","1366","BROADWAY",,,"BROOKLYN","NY","11221","POINT (-73.922108 40.689521)"
"SUFFOLK","658136","Other","IRON & IVY LLC","ELIZABETH CURTIN","126","LONG LANE",,,"EAST HAMPTON","NY","11937","POINT (-72.208608 40.971921)"
"HERKIMER","216665","Roadside Stand","T&J FRUITS&VEGS","DIGRISTINA JOSEPH JR","221","SOUTH CAROLINE ST",,,"HERKIMER","NY","13350","POINT (-74.992395 43.021562)"
"ONEIDA","660081","Grocery Store","ALDI INC #37","ALDI INC","121","HERKIMER ROAD",,,"UTICA","NY","13502","POINT (-75.208012 43.11543)"
"ONTARIO","325977","Other","BJS WHOLESALE CLUB #0313","BJS WHOLESALE CLUB INC","3635","BERRYFIELDS ROAD",,,"GENEVA","NY","14456","POINT (-77.021344 42.85572)"
"WESTCHESTER","556029","Drug Store","CVS PHARMACY # 807","CVS ALBANY LLC","1024","BROADWAY THORNWOOD CENTER",,,"THORNWOOD","NY","14580",
"RENSSELAER","660655","Drug Store","WALGREENS #19764","WALGREEN EASTERN CO INC","22","MAIN ST.",,,"HOOSICK FALLS","NY","12090","POINT (-73.350609 42.901216)"
"KINGS","610012","Garden Center","MILL LANE NURSERY INC","NICK DRAGONETTI","1875","RALPH AVENUE",,,"BROOKLYN","NY","11234","POINT (-73.918482 40.631557)"
"SUFFOLK","658937","Other","DOLLAR TREE #03093","DOLLAR TREE","5014","JERICHO TPKE",,,"COMMACK","NY","11725","POINT (-73.308527 40.841165)"
"OTSEGO","659652","Dept. Store","TJ MAXX STORE #1164","TJX COMPANIES INC","5006","STATE HIGHWAY 23",,,"ONEONTA","NY","13820","POINT (-75.045799 42.448663)"
"KINGS","659448","Other","DOLLAR TREE #06209","DOLLAR TREE STORES, INC/GARY PHILBIN","344","PENNSYLVANIA AVENUE",,,"BROOKLYN","NY","11207","POINT (-73.89514 40.669046)"
"ST. LAWRENCE","402077","Drug Store","KPH HEALTHCARE DBA KINNEY DRUGS #91","KPH HEALTHCARE SERVICES INC","48","MAPLE STREET",,,"POTSDAM","NY","13676","POINT (-74.993456 44.667274)"
"ROCKLAND","659683","Dept. Store","TJ MAXX STORE #396","TJX COMPANIES INC","49","AIRPORT EXEC BYPASS ROAD",,,"SPRING VALLEY","NY","10977",
"ONONDAGA","659411","Other","PET SUPPLIES PLUS #9061","PSP STORES, LLC/CHRISTOPHER ROWLAND","7954","BREWERTON ROAD",,,"CICERO","NY","13039","POINT (-76.122334 43.15605)"
"CATTARAUGUS","41461","Grocery Store","ALDI INC #84","ALDI INC","2731","WEST STATE STREET",,,"OLEAN","NY","14760","POINT (-78.462893 42.077019)"
"CATTARAUGUS","660375","Grocery Store","7 ELEVEN FOOD STORE #35105A","7 ELEVEN INC","12223","OLEAN ROAD",,,"YORKSHIRE","NY","14173",
"ALBANY","16808","Grocery Store","HANNAFORD SUPERMARKET & PHARMACY #8393","MARTINS FOODS OF SOUTH BURLINGTON LLC","5239","WESTERN TURNPIKE",,,"GUILDERLAND","NY","12009","POINT (-73.934476 42.715686)"
"QUEENS","659171","Grocery Store","STOP & SHOP SPRMKT #2580","STOP & SHOP SUPERMARKET COMPANY LLC","213-215","26TH AVENUE",,,"BAYSIDE","NY","11360",
"SUFFOLK","479958","Dept. Store","WAL-MART #2915","WAL-MART STORES EAST LP","3990","NESCONSET HIGHWAY",,,"EAST SETAUKET","NY","11733","POINT (-73.076904 40.901727)"
"NIAGARA","659237","Other","CAMBRIA CORN MAZE","LEANNA AND JOHN OHOL","5274","LOCKPORT JUNCTION RD",,,"LOCKPORT","NY","14094","POINT (-78.754607 43.156418)"
"ONONDAGA","661684","Garden Center","MORGAN MEILE GARDEN CENTER LLC","JAKE AND DANIEL MEILE","6278","THOMPSON RD",,,"SYRACUSE","NY","13206","POINT (-76.089083 43.075301)"
"ULSTER","516742","Dept. Store","SAMS CLUB #6201","SAMS EAST INC","801","FRANK SOTTILE BLVD",,,"KINGSTON","NY","12401","POINT (-73.98332 41.969886)"
"NEW YORK","659288","Floral Shop","TJ FLOWERS & EVENTS","KI CHUL KIM","1640","YORK AVENUE",,,"NEW YORK","NY","10028","POINT (-73.946937 40.776174)"
"OSWEGO","659642","Dept. Store","TJ MAXX STORE #1274","TJX COMPANIES INC","137","STATE ROUTE 104 E",,,"OSWEGO","NY","13126","POINT (-76.486381 43.460793)"
"SARATOGA","415648","Roadside Stand","BOBS LANDSCAPING","MEAGER ROBERT & BARBARA","14","EASY STREET",,,"MECHANICVILLE","NY","12118","POINT (-73.789124 42.950363)"
"SUFFOLK","661159","Grocery Store","7 ELEVEN #39694B","AMANDEEP KAUR","70","WEST SUFFOLK AVENUE",,,"CENTRAL ISLIP","NY","11722","POINT (-73.210901 40.788716)"
"ERIE","141792","Drug Store","RITE AID #10835","ECKERD CORPORATION","798","HARLEM ROAD",,,"WEST SENECA","NY","14224","POINT (-78.787217 42.865049)"
"ULSTER","660547","Drug Store","WALGREENS #19993","WALGREEN EASTERN CO INC","50","N. MAIN STREET",,,"ELLENVILLE","NY","12428","POINT (-74.392672 41.720645)"
"NASSAU","657033","Grocery Store","STOP & SHOP SPRMKT #2565","STOP & SHOP SUPERMARKET COMPANY, LLC","465","ATLANTIC AVE",,,"OCEANSIDE","NY","11572","POINT (-73.653535 40.640672)"
"NASSAU","285166","Drug Store","WALGREENS #3102","WALGREEN EASTERN COMPANY INC","210","SOUTH BROADWAY",,,"HICKSVILLE","NY","11801","POINT (-73.519538 40.763952)"
"KINGS","610916","Dept. Store","TARGET STORE #2212","TARGET STORE","1598","FLATBUSH AVENUE",,,"BROOKLYN","NY","11210","POINT (-73.946292 40.63153)"
"SCHOHARIE","661109","Roadside Stand","WENDYS FRESH VEGGIES","WENDY E BRUMAGHIM","5346","STATE ROUTE 10",,,"COBLESKILL","NY","12043",
"WESTCHESTER","661961","Grocery Store","PRIMITIVA, LLC","JOHN, CHRISTOPHER, JOSEPH DECICCO","422","OLD POST ROAD",,,"BEDFORD","NY","10506","POINT (-73.655575 41.194995)"
"FRANKLIN","167769","Drug Store","KPH HEALTHCARE DBA KINNEY DRUGS #39","KPH HEALTHCARE SERVICES","94","DEMARS BLVD SUITE 2",,,"TUPPER LAKE","NY","12986","POINT (-74.465166 44.233573)"
"CHAUTAUQUA","63886","Drug Store","WALGREENS #11729","WALGREEN EASTERN COMPANY INC","327","MAIN STREET",,,"DUNKIRK","NY","14048","POINT (-79.328409 42.484585)"
"NEW YORK","628633","Drug Store","RITE AID #4205","RITE AID OF NEW YORK INC","81","1ST AVENUE",,,"NEW YORK","NY","100039429","POINT (-73.986728 40.725666)"
"MONROE","266636","Other","HORT ASSOC OF ROCHESTER","HORT ASSOC OF ROCHESTER INC","236","OLD SCOTTSVILLE CHILI ROAD",,,"CHURCHVILLE","NY","14428","POINT (-77.757188 43.093064)"
"SUFFOLK","658641","Grocery Store","7 ELEVEN FOOD STORE #37040A","7 ELEVEN INC","512","GIBBS POND RD",,,"NESCONSET","NY","11767","POINT (-73.134923 40.832601)"
"ERIE","660104","Other","JANICE JOHNSON","JANICE JOHNSON","672","TAUNTON PLACE",,,"BUFFALO","NY","14216","POINT (-78.839361 42.954368)"
"ONONDAGA","658206","Farm Supply","B'VILLE SUPPLY INC","GAWARECKI DENNIS A","82","EAST GENESEE ST",,,"BALDWINSVILLE","NY","13027","POINT (-76.323617 43.160387)"
"ST. LAWRENCE","409011","Hardware Store","REX HARDWARE","REXFORD INC","125","EAST MAIN STREET",,,"CANTON","NY","13617","POINT (-75.147895 44.597266)"
"ONONDAGA","658861","Other","DOLLAR TREE #01378","DOLLAR TREE","2803","BREWERTON ROAD",,,"MATTYDALE","NY","13211","POINT (-76.146106 43.106372)"
"WESTCHESTER","661120","Floral Shop","COOKES LITTLE SHOP OF FLOWERS","STEWART C COOKE","2017","ALBANY POST ROAD",,,"CROTON ON HUDSON","NY","10520","POINT (-73.909849 41.23107)"
"ORANGE","656899","Garden Center","PINE BUSH HOME & GARDEN CENTER, INC.","DUMAIN, LARRY","105","DEPOT STREET",,,"PINE BUSH","NY","12566","POINT (-74.297663 41.608473)"
"NIAGARA","658187","Roadside Stand","GRAHAM FAMILY FARM","GRAHAM MICHAEL J","5171","TONAWANDA CREEK RD",,,"NORTH TONAWANDA","NY","14120","POINT (-78.755192 43.0714)"
"QUEENS","638900","Grocery Store","STOP & SHOP SPRMKT #510","STOP & SHOP SUPERMARKET CO LLC","34-51","48TH STREET",,,"LONG ISLAND CITY","NY","11104","POINT (-73.91486 40.75201)"
"QUEENS","635572","Drug Store","CVS PHARMACY # 560","CVS ALBANY LLC","242-24","NORTHERN BLVD",,,"DOUGLASTON","NY","11362","POINT (-73.743264 40.765466)"
"QUEENS","632067","Floral Shop","LITTLE FLOWER SHOPPE INC","BENEDETTO BONELLO","66-48","80TH STREET",,,"MIDDLE VILLAGE","NY","11379","POINT (-73.871879 40.715004)"
"CHEMUNG","658877","Other","DOLLAR TREE #01415","DOLLAR TREE","830","COUNTY ROUTE 64","BOX 3",,"ELMIRA","NY","14903",
"ORANGE","336201","Grocery Store","PRICE CHOPPER #0142","PRICE CHOPPER OPERATING CO INC","115","TEMPLE HILL ROAD",,,"NEW WINDSOR","NY","12553","POINT (-74.058325 41.455511)"
"SUFFOLK","661672","Grocery Store","7 ELEVEN STORE #48594B","D AND G OF LONG ISLAND 38594 LLC","449","WILLIAM FLOYD PARKWAY",,,"SHIRLEY","NY","11967","POINT (-72.863801 40.785198)"
"ONONDAGA","661307","Other","DOLLAR TREE # 07798","DEBORAH E MILLER","111","ELWOOD DAVIS ROAD",,,"LIVERPOOL","NY","13088","POINT (-76.173804 43.095196)"
"SUFFOLK","661797","Grocery Store","7 ELEVEN STORE #22644C","WALI NASEER, SADIA NASEER","1050","OLD COUNTRY RD",,,"RIVERHEAD","NY","11901","POINT (-72.674535 40.932958)"
"NEW YORK","624460","Grocery Store","7 ELEVEN FOOD STORE #39308A","KANDHARI PRITHPAL","535","8TH AVENUE",,,"NEW YORK","NY","10018","POINT (-73.992243 40.753883)"
"NEW YORK","659545","Grocery Store","GRISTEDE'S # 545","NAMDOR INC/JOHN CATSIMATIDIS","225","9TH AVE",,,"NEW YORK","NY","10011","POINT (-74.000946 40.746998)"
"QUEENS","660408","Grocery Store","METRO DELI & GROCERY","JALPA 117 INC","117-01","HILLSIDE AVE",,,"RICHMOND HILL","NY","11418","POINT (-73.832655 40.700207)"
"NEW YORK","660696","Other","THE REAL CHANCE INC","MARTIN A. ESPINAL","125","EAST 116 STREET",,,"NEW YORK","NY","10029",
"SUFFOLK","473728","Grocery Store","STOP & SHOP SPRMKT #2505","ALVAREZ JOSE","999","MONTAUK HIGHWAY",,,"SHIRLEY","NY","11967","POINT (-72.85907 40.802623)"
"KINGS","618546","Drug Store","RITE AID #4738","RITE AID OF NEW YORK INC","1631-43","PITKIN AVENUE",,,"BROOKLYN","NY","112125050","POINT (-73.912914 40.669361)"
"QUEENS","661564","Dept. Store","TJ MAXX # 1548","TJX COMPANIES INC","22-06","31ST STREET",,,"ASTORIA","NY","11105","POINT (-73.910998 40.775903)"
"LIVINGSTON","249760","Garden Center","TRACTOR SUPPLY COMPANY #655","TRACTOR SUPPLY COMPANY","4377","GENESEE VALLEY PLAZA",,,"GENESEO","NY","14454","POINT (-77.782499 42.798504)"
"CHAUTAUQUA","662086","Other","REVITALIZE DUNKIRK, INC","JAMES FISHER",,"PO BOX 107",,,"DUNKIRK","NY","14048","POINT (-79.318146 42.479528)"
"RENSSELAER","660270","Roadside Stand","TIASHOKE FARM STAND","BRIAN, ERIC AND STUART ZEHM","11822","ROUTE 40",,,"SCHAGHTICOKE","NY","12154","POINT (-73.550598 42.997216)"
"SCHENECTADY","421153","Grocery Store","GABRIELS SUPERMARKET","JEFFREY GAGRIELE","255","MOHAWK AVENUE",,,"SCOTIA","NY","12302","POINT (-73.967549 42.827555)"
"MONTGOMERY","662047","Garden Center","SUNSHINE GARDENS","NICHOLAS NOBLE","980","STATE ROUTE 67",,,"AMSTERDAM","NY","12010","POINT (-73.852191 42.986477)"
"NIAGARA","658797","Landscaper","SHEILA B MOLL","SHEILA MOLL","710","SCOVELL DRIVE",,,"LEWISTON","NY","14092","POINT (-79.02409 43.177544)"
"ERIE","656840","Grocery Store","SAVE-A-LOT","MCHENRY, DAVID","13107","BROADWAY",,,"ALDEN","NY","14004","POINT (-78.499616 42.898903)"
"MONROE","658890","Other","DOLLAR TREE #01527","DOLLAR TREE","2004","CHILI AVE.",,,"ROCHESTER","NY","14624","POINT (-77.686003 43.13245)"
"DUTCHESS","134699","Other","DUTCHESS CO SOIL&WATER","DUTCHESS CO SOIL&WATER","2715","ROUTE 44","FARM&HOME CENTER",,"MILLBROOK","NY","12545","POINT (-73.738789 41.779788)"
"NASSAU","660236","Grocery Store","AMAZON.COM DEDC LLC","MIKE ROTH","80","GRUMMAN ROAD WEST",,,"BETHPAGE","NY","11714","POINT (-73.489629 40.744236)"
"ONONDAGA","312056","Grocery Store","PRICE CHOPPER #0172","PRICE CHOPPER OPERATING CO INC","2515","ERIE BOULEVARD EAST",,,"SYACUSE","NY","13224","POINT (-76.101875 43.054072)"
"CORTLAND","657435","Hardware Store","LOWES HOME CENTERS LLC #1953","LOWES HOME CENTER INC","872","ROUTE 13",,,"CORTLAND","NY","13045","POINT (-76.217457 42.573912)"
"NASSAU","656801","Grocery Store","FAIRVIEW FARM INC","CHOI GYU, CHANG","1197","GRAND AVE",,,"BALDWIN","NY","11510","POINT (-73.615011 40.681265)"
"ONONDAGA","310067","Dept. Store","BIG LOTS #1883","BIG LOTS STORES INC","8015","OSWEGO ROAD",,,"LIVERPOOL","NY","13090","POINT (-76.230478 43.159801)"
"NEW YORK","660320","Grocery Store","JANET FOOD CORP","RUBEN LUNA","2630","FREDERICK DOUGLAS BLVD",,,"NEW YORK","NY","10030","POINT (-73.943905 40.820128)"
"ESSEX","660689","Floral Shop","FLOWER DESIGNS BY TRACEY","TRACEY SAYNE","7567","COURT STREET",,,"ELIZABETHTOWN","NY","12932","POINT (-73.59339 44.214765)"
"MONROE","656934","Drug Store","WALGREENS #12489","WALGREEN EASTERN CO., INC.","665","LONG POND ROAD",,,"ROCHESTER","NY","14626","POINT (-77.696435 43.254217)"
"ALBANY","15413","Drug Store","CVS PHARMACY # 417","CVS ALBANY LLC","885","CENTRAL AVE",,,"ALBANY","NY","12206","POINT (-73.790241 42.680263)"
"SUFFOLK","478445","Garden Center","TALMAGE FARM AGWAY","TALMAGE ENTERPRISES LTD","1122","OSBORN AVENUE",,,"RIVERHEAD","NY","11901","POINT (-72.688461 40.92933)"
"SUFFOLK","479449","Drug Store","RITE AID #10665","GENOVESE DRUG STORES INC","532A","UNION BOULEVARD",,,"WEST ISLIP","NY","11795","POINT (-73.29637 40.709778)"
"ST. LAWRENCE","659217","Other","OLLIES BARGAIN OUTLET INC #207","MARK BUTLER","6033","ST. LAWRENCE CENTER",,,"MASSENA","NY","13662","POINT (-74.843757 44.948971)"
"NASSAU","658982","Other","DOLLAR TREE #04833","DOLLAR TREE","250","JERICHO TURNPIKE","SUITE 80",,"FLORAL PARK","NY","11001","POINT (-73.714549 40.726642)"
"SUFFOLK","478422","Garden Center","LANDSCAPE DESIGNS BY GARDEN CREATIONS INC","JAMES & MARGARET HISE","5913","SOUND AVE",,,"JAMESPORT","NY","11947","POINT (-72.595763 40.981678)"
"LIVINGSTON","244818","Grocery Store","WESTS SHURFINE FOOD MART","FRANCIS P WEST","1","MAIN STREET","PO BOX 152",,"LIVONIA","NY","14487","POINT (-77.671528 42.821878)"
"NEW YORK","659551","Floral Shop","181 GERMAN DELI INC","SALEH ALKOTINI","815","WEST 181 STREET",,,"NEW YORK","NY","10033","POINT (-73.938967 40.851101)"
"CHAUTAUQUA","65966","Other","BIG LOTS #1018","BIG LOTS STORES INC","21-41","SOUTH MAIN STREET",,,"JAMESTOWN","NY","14701","POINT (-79.237583 42.09216)"
"WAYNE","548823","Other","WAYNE COUNTY SOIL & WATER CONSERVATION DISTRICT","WAYNE CO SOIL&WTR CONS DST","7312","ROUTE 31",,,"LYONS","NY","14489-9798","POINT (-77.032488 43.067653)"
"ORANGE","661143","Other","GARAGE SALES UNLIMITED LLC","SUSAN AND CHRISTOPHER TAGUE","440","SOUTH PLANK ROAD",,,"NEWBURGH","NY","12550","POINT (-74.100116 41.539584)"
"ERIE","145570","Dept. Store","WAL-MART #2164","WAL-MART STORES EAST LP","317","SOUTH CASCADE DRIVE",,,"SPRINGVILLE","NY","14141","POINT (-78.689625 42.501743)"
"RICHMOND","660186","Other","DOLLAR TREE #07335","DOLLAR TREE STORES INC","1765","SOUTH AVENUE",,,"STATEN ISLAND","NY","10314","POINT (-74.193675 40.601416)"
"OTSEGO","662089","Floral Shop","MOHICAN FLOWERS, LLC","HANNA BERGENE AND HENRY BAUER","207","MAIN STREET",,,"COOPERSTOWN","NY","13326","POINT (-74.931204 42.700851)"
"SUFFOLK","661602","Grocery Store","7 ELEVEN INC STORE #23920D","AHMED FAWAD - JFZ GROUP INC","385","COMMACK RD",,,"DEER PARK","NY","11729","POINT (-73.313339 40.760301)"
"SARATOGA","410545","Grocery Store","HANNAFORD SUPERMARKET & PHARMACY #8380","MARTINS FOODS OF SOUTH BURLINGTON LLC","27","GANSEVOORT ROAD",,,"SOUTH GLENS FALLS","NY","12803","POINT (-73.637691 43.28809)"
"DUTCHESS","662042","Vehicle","MAGNOLIA TREE ENTERPRISE, LLC","RUSSELL FRANCIS","270","MAIN STREET","#79",,"POUGHKEEPSIE","NY","12601","POINT (-73.928027 41.703852)"
"FULTON","170199","Floral Shop","LOHSE FLORIST","PAYNE PATRICIA A","93","EAST STATE STREET",,,"GLOVERSVILLE","NY","12078","POINT (-74.331439 43.067975)"
"ORLEANS","660733","Roadside Stand","JK HURD ORCHARDS LLC","AMY MACHAME","17260","RIDGE ROAD",,,"HOLLEY","NY","14470","POINT (-77.998652 43.25548)"
"SCHOHARIE","658826","Other","DOLLAR TREE #00503","DOLLAR TREE","123","MERCHANT PL # 1",,,"COBLESKILL","NY","12043","POINT (-74.456928 42.681821)"
"ST. LAWRENCE","408769","Other","ST LAWRENCE COUNTY SOIL & WATER CONSERVATION DISTRICT","ST LAWRENCE CO SOIL&WATER DIST","1942","OLD DEKALB ROAD",,,"CANTON","NY","13617","POINT (-75.185076 44.593621)"
"WESTCHESTER","661501","Grocery Store","7 ELEVEN STORE #40227A","AHSAN T MALIK","3650","LEE BOULEVARD",,,"JEFFERSON VALLEY","NY","10535","POINT (-73.809823 41.33163)"
"NASSAU","282528","Garden Center","ISLAND GREENERY","GENE JUDD","2036","BELLMORE AVENUE",,,"BELLMORE","NY","11710","POINT (-73.527462 40.673613)"
"SUFFOLK","658367","Hardware Store","LOWE'S HOME CTR #3159","LOWES HOME CENTERS LLC","100","LONG ISLAND EXPRESSWAY",,,"COMMACK","NY","11725",
"NASSAU","284967","Grocery Store","SUPER STOP & SHOP #545","STOP & SHOP SPRMKT LLC","55","MOTOR AVE",,,"FARMINGDALE","NY","11735","POINT (-73.449266 40.724794)"
"MONTGOMERY","661549","Hardware Store","HATCHET HARDWARE","ERIKA, ANGELO & GIOVANNI GRASSO","6133","NY-5",,,"PALATINE BRIDGE","NY","13428","POINT (-74.598727 42.921448)"
"ERIE","141603","Drug Store","WALGREENS #9717","WALGREEN EASTERN COMPANY INC","6785","TRANSIT ROAD",,,"EAST AMHERST","NY","140511303","POINT (-78.696917 43.033832)"
"CORTLAND","111950","Grocery Store","BILL BROS DAIRY","SEARS JOHN R","219","PORT WATSON STREET",,,"CORTLAND","NY","13045","POINT (-76.162399 42.598417)"
"QUEENS","639380","Drug Store","RITE AID #10601","GENOVESE DRUG STORES INC","60-26","WOODSIDE AVENUE",,,"WOODSIDE","NY","11377","POINT (-73.903696 40.744913)"
"WAYNE","658872","Other","DOLLAR TREE #01410","DOLLAR TREE","6730","ROUTE 31 E",,,"NEWARK","NY","14513","POINT (-77.059535 43.053411)"
"MONROE","660441","Grocery Store","7 ELEVEN FOOD STORE #35197A","7 ELEVEN INC","890","MONROE AVE",,,"ROCHESTER","NY","14620","POINT (-77.585142 43.141678)"
"ONEIDA","300941","Grocery Store","HANNAFORD SUPERMARKET & PHARMACY #8372","MARTINS FOODS OF SOUTH BURLINGTON LLC","1122","MOHAWK STREET",,,"UTICA","NY","13501","POINT (-75.221964 43.091043)"
"MONROE","662041","Roadside Stand","DEEP ROOTS ROC","ADRIANA CASTRO","21","GIRARD ST",,,"ROCHESTER","NY","14610","POINT (-77.56598 43.145463)"
"PUTNAM","379848","Grocery Store","SHOPRITE OF CARMEL","SHOPRITE SUPERMARKETS INC","184","ROUTE 52",,,"CARMEL","NY","10512","POINT (-73.681654 41.435202)"
"NASSAU","281505","Garden Center","GRAHAM BLOCK & LANDSCAPING CO","JOSEPH W. GRILLO","1231","TULIP AVE",,,"FRANKLIN SQ","NY","11010","POINT (-73.684135 40.714652)"
"ONONDAGA","318419","Drug Store","KPH HEALTHCARE DBA KINNEY DRUGS #79","KPH HEALTHCARE SERVICES INC","437","ELECTRONICS PARKWAY",,,"SYRACUSE","NY","13088","POINT (-76.188089 43.101043)"
"KINGS","662106","Dept. Store","TARGET STORE T-3404","TARGET","2101","CHURCH AVENUE",,,"BROOKLYN","NY","11226","POINT (-73.959514 40.650269)"
"FULTON","657949","Grocery Store","TOPS #721","TOPS MARKETS LLC","201","MAIN ST",,,"NORTHVILLE","NY","12134","POINT (-74.570789 42.636907)"
"NIAGARA","293491","Landscaper","CANDELLAS COUNTRYSIDE NURSERY","CANDELLA JAMES","2099","LOCKPORT ROAD",,,"NIAGARA FALLS","NY","14304","POINT (-78.93733 43.121525)"
"SUFFOLK","475285","Hardware Store","LOWE'S HOME CTR #2731","LOWES HOME CENTERS, LLC","825","MONTAUK HIGHWAY",,,"EAST PATCHOGUE","NY","11772","POINT (-72.984145 40.767251)"
"RICHMOND","656770","Landscaper","J.A.C.T. LANDSCAPING & PROPERTY MAINTENANCE LLC","BAGGS, JOHN JR","74","SHELDON AVE",,,"STATEN ISLAND","NY","10312","POINT (-74.181617 40.55036)"
"DELAWARE","661939","Roadside Stand","PENNY HOYT","PENNY HOYT","6085","COUNTY HIGHWAY 16",,,"DELHI","NY","13753","POINT (-75.027855 42.307303)"
"ERIE","661966","Grocery Store","7 ELEVEN FOOD STORE #35242H","7 ELEVEN","1100","SOUTHWESTERN BLVD",,,"BUFFALO","NY","14224","POINT (-78.721402 42.811267)"
"ONONDAGA","313854","Grocery Store","TOPS #362","TOPS PT LLC","620","NOTTINGHAM RD",,,"SYRACUSE","NY","13224","POINT (-76.109804 43.02215)"
"RICHMOND","661736","Grocery Store","7 ELEVEN STORE #39291C","MUHAMMAD HUSNAIN, ARIF IFTEKER","1200","VICTORY BLVD",,,"STATEN ISLAND","NY","10301","POINT (-74.103784 40.616302)"
"SUFFOLK","477401","Drug Store","CVS PHARMACY # 4455","CVS ALBANY LLC","520","LARKFIELD ROAD",,,"EAST NORTHPORT","NY","11731","POINT (-73.320481 40.86282)"
"ONTARIO","658621","Garden Center","RUNNINGS","RUNNING SUPPLY INC","3191","COUNTY RD #10",,,"CANANDAIGUA","NY","14424","POINT (-77.24561 42.87604)"
"KINGS","662191","Garden Center","HORTI LLC","PUNEET SABITARWAL","7","ECKFORD ST",,,"BROOKLYN","NY","11222","POINT (-73.947804 40.720464)"
"NASSAU","288473","Drug Store","RITE AID #1203","RITE AID OF NEW YORK INC","178","NEW HYDE PARK ROAD",,,"FRANKLIN SQUARE","NY","110103012","POINT (-73.676754 40.712178)"
"NEW YORK","661232","Grocery Store","GOURMET GARAGE","WILLIAM P SUMAS","155","WEST 66TH STREET",,,"NEW YORK","NY","10023","POINT (-73.983294 40.774327)"
"ERIE","142104","Dept. Store","BIG LOTS #1762","BIG LOTS STORES INC","698","SOUTH OGDEN STREET",,,"BUFFALO","NY","14206","POINT (-78.801155 42.8811)"
"ONEIDA","660503","Drug Store","WALGREENS #18216","WALGREEN EASTERN CO INC","1143","MOHAWK ST.",,,"UTICA","NY","13501","POINT (-75.222664 43.089801)"
"WESTCHESTER","556784","Drug Store","CVS PHARMACY # 2164","CVS ALBANY LLC","211","EAST SANDFORD BLVD",,,"MOUNT VERNON","NY","10550","POINT (-73.826526 40.900769)"
"SUFFOLK","659717","Dept. Store","MARSHALLS STORE #246","MARSHALLS OF MA, INC","499","19 W SUNRISE HIGHWAY",,,"PATCHOGUE","NY","11772","POINT (-73.035147 40.776507)"
"ERIE","147479","Grocery Store","MARKET IN THE SQUARE","BONGIOVANNI LEE","940","UNION ROAD",,,"WEST SENECA","NY","14224","POINT (-78.753413 42.826481)"
"WESTCHESTER","550547","Grocery Store","7 ELEVEN FOOD STORE  #25680C","KIM KWANGWOO","488","BEDFORD ROAD",,,"PLEASANTVILLE","NY","10570","POINT (-73.794103 41.13249)"
"MONROE","263011","Other","BJS WHOLESALE CLUB #168","BJS WHOLESALE CLUB","400","SCUTTI BOULEVARD",,,"ROCHESTER","NY","14623",
"WASHINGTON","532871","Farm Supply","A&J ENTERPRISES OF SALE","RICHARD & SANDRA HICKLAND","7","THOMAS STREET",,,"SALEM","NY","12865","POINT (-73.328982 43.17423)"
"NEW YORK","659421","Floral Shop","DANIELA'S FLOWER SHOP INC.","JUSTO ENCALADA","714 WEST","181ST STREET",,,"NEW YORK","NY","10033","POINT (-73.936683 40.850459)"
"BROOME","36996","Hardware Store","HOME DEPOT THE #1252","HOME DEPOT USA INC","798","MAIN STREET",,,"JOHNSON CITY","NY","13790","POINT (-75.981325 42.118112)"
"SARATOGA","661981","Other","DOLLAR TREE #09038","DOLLAR TREE STORES","1","KENDAL WAY",,,"BALLSTON SPA","NY","12020","POINT (-73.795883 42.97309)"
"ONTARIO","323832","Other","WAL-MART #2785","WAL-MART STORES EAST LP","441","COMMERCE DR",,,"VICTOR","NY","14564","POINT (-77.436739 43.018047)"
"MONROE","267548","Hardware Store","LOWE'S HOME CTR #645","LOWES HOME CENTERS, LLC","2350","MARKET PLACE DRIVE (HENRIETTA)",,,"ROCHESTER","NY","14623",
"CHEMUNG","661650","Grocery Store","7 ELEVEN STORE #40221","RAWA S ANABI & SAM ANABI","359","NORTH MAIN STREET",,,"ELMIRA","NY","14901","POINT (-76.808958 42.091166)"
"GENESEE","660413","Gas Station","DOUGLAS FARM MARKET","EDITH AND ROBERT DOUGLAS","6318","CLINTON ST RD",,,"STAFFORD","NY","14143",
"BRONX","661964","Grocery Store","1434 FOOD CO LLC","RUBEN LUNA","1434","JEROME AVE",,,"BRONX","NY","10452","POINT (-73.91711 40.841029)"
"MONROE","660523","Drug Store","WALGREENS #19354","WALGREEN EASTERN CO INC","437","LYELL AVENUE",,,"ROCHESTER","NY","14606","POINT (-77.63803 43.164627)"
"SUFFOLK","476656","Drug Store","CVS PHARMACY # 2059","CVS ALBANY LLC","1012","LITTLE EAST NECK ROAD NORTH",,,"WEST BABYLON","NY","11704","POINT (-73.358644 40.723685)"
"KINGS","661976","Grocery Store","382 MCDONALD LLC","DANIEL KATZ","382","MCDONALD AVENUE",,,"BROOKLYN","NY","11218","POINT (-73.979783 40.644628)"
"ERIE","149910","Grocery Store","ALDI INC #75","ALDI INC","4030","MAPLE ROAD",,,"AMHERST","NY","14226","POINT (-78.813382 42.99084)"
"QUEENS","658346","Grocery Store","BOGOPA LIC INC","BOGOPA LIC INC","42-02","NORTHERN BLVD",,,"LONG ISLAND CITY","NY","11101","POINT (-73.92164 40.752987)"
"OSWEGO","660132","Other","BYRNE DAIRY #68","SONBYRNE SALES INC","885","US ROUTE 11",,,"CENTRAL SQUARE","NY","13036","POINT (-76.152188 43.300753)"
"SUFFOLK","660709","Grocery Store","NORTH SHORE FARMS VETS HWY, LTD","NIKOLAOS KATOPODIS","1235","VETERANS HIGHWAY",,,"HAUPPAUGE","NY","11788","POINT (-73.194096 40.816134)"
"NASSAU","285086","Drug Store","CVS PHARMACY # 122","CVS ALBANY LLC","310","WEST PARK AVE",,,"LONG BEACH","NY","11561","POINT (-73.67318 40.588307)"
"SUFFOLK","475603","Grocery Store","7 ELEVEN FOOD STORE  #11232G","AHMAD SYED ASAD & SALMA","796","BROADWAY",,,"HOLBROOK","NY","11741","POINT (-73.067085 40.778156)"
"JEFFERSON","227980","Drug Store","KPH HEALTHCARE DBA KINNEY DRUGS #42","KPH HEALTHCARE SERVICES INC.","21","STATE RT 12",,,"ALEXANDRIA BAY","NY","13607",
"SULLIVAN","550275","Landscaper","CAROLYN SUMMERS","SUMMERS CAROLYN","106","BRADLEY ROAD",,,"LIBERTY","NY","12754","POINT (-74.675815 41.82708)"
"COLUMBIA","100583","Grocery Store","HAWTHORNE VALLEY FARM STORE","MARTING PING","327","ROUTE 21 C",,,"GHENT","NY","12075","POINT (-73.594253 42.270332)"
"ONEIDA","300969","Other","OLLIES BARGAIN OUTLET INC #85","OLLIES BARGAIN OTLT INC","100","NEW HARTFORD SHOPPING CENTER",,,"NEW HARTFORD","NY","13413","POINT (-75.293513 43.078625)"
"NASSAU","289438","Drug Store","RITE AID #10621","GENOVESE DRUG STORES INC","444","HILLSIDE AVENUE",,,"WILLISTON PARK","NY","11596","POINT (-73.656741 40.753501)"
"SUFFOLK","659439","Other","BOGOPA-BRENTWOOD INC","SPENCER AN","101","WICKS RD",,,"BRENTWOOD","NY","11717","POINT (-73.261064 40.780728)"
"DUTCHESS","134655","Grocery Store","PRICE CHOPPER #0129","PRICE CHOPPER OPERATING CO INC","2585","SOUTH ROAD",,,"POUGHKEEPSIE","NY","12601","POINT (-73.929914 41.665377)"
"ONONDAGA","658888","Other","DOLLAR TREE #01451","DOLLAR TREE","3724","MILTON AVENUE",,,"CAMILLUS","NY","13031","POINT (-76.262024 43.052349)"
"BRONX","659613","Grocery Store","COMPARE FOODS","RAFAEL GORIS","2080","WHITE PLAINS ROAD",,,"BRONX","NY","10462","POINT (-73.867764 40.85278)"
"ERIE","656981","Other","PETCO #1863","PETCO ANIMAL SUPPLIES","4401","TRANSIT ROAD","NO. 600",,"WILLIAMSVILLE","NY","14221","POINT (-78.696779 42.967963)"
"CATTARAUGUS","661136","Other","OLLIES BARGAIN OUTLET INC #333","MARK L BUTLER","2801","WEST STATE STREET","SUITE 135",,"OLEAN","NY","14760","POINT (-78.462175 42.077012)"
"ONONDAGA","316683","Garden Center","BALLANTYNE GARDENS","TIMOTHY BALLANTYNE","4825","HOPKINS ROAD",,,"LIVERPOOL","NY","13088","POINT (-76.181781 43.108587)"
"ERIE","143060","Grocery Store","TOPS #0210","TOPS MARKETS LLC","345","AMHERST STREET",,,"BUFFALO","NY","14207","POINT (-78.890851 42.937887)"
"QUEENS","637093","Other","PLANT SPECIALISTS LLC","ROCHE PHILIP/HUBBARD GRAHAME","42-25","VERNON BLVD",,,"LONG ISLAND CITY","NY","11101","POINT (-73.950054 40.75342)"
"KINGS","659903","Grocery Store","SMITH ORGANICS INC","SMITH ORGANICS INC","147","SMITH ST",,,"BROOKLYN","NY","11201","POINT (-73.990377 40.686846)"
"NIAGARA","295635","Grocery Store","7 ELEVEN FOOD STORE  #17163E","SINGH AMARJIT","6802","BUFFALO AVENUE",,,"NIAGARA FALLS","NY","14304","POINT (-78.985523 43.074981)"
"ERIE","661191","Grocery Store","7 ELEVEN #35177A","RAWA S ANABI AND SAM ANABI","755","DICK ROAD",,,"BUFFALO","NY","14225","POINT (-78.740666 42.922884)"
"BRONX","608454","Drug Store","CVS PHARMACY # 7067","CVS ALBANY LLC","1916","WILLIAMSBRIDGE ROAD",,,"BRONX","NY","10461","POINT (-73.853302 40.852781)"
"SUFFOLK","474889","Grocery Store","7 ELEVEN FOOD STORE  #27157D","MALIK SATISH","56","LOWELL AVENUE",,,"ISLIP TERRACE","NY","11752","POINT (-73.17445 40.765506)"
"LEWIS","230176","Hardware Store","STEELE'S ACE HOME CTR","JEFF & KRISTIN STEELE","5814","NUMBER FOUR ROAD PO BOX 32",,,"LOWVILLE","NY","13367","POINT (-75.472142 43.780998)"
"QUEENS","661205","Grocery Store","7 ELEVEN #32128C","FAZIE A MOHAMED","112-11","LIBERY AVENUE",,,"SOUTH RICHMOND HILL","NY","11419","POINT (-73.829843 40.685255)"
"NASSAU","285145","Grocery Store","7 ELEVEN FOOD STORE  #34019A","NADEEM ABBAS","2800","SUNRISE HIGHWAY",,,"BELLMORE","NY","11710","POINT (-73.523691 40.669414)"
"ROCKLAND","394640","Grocery Store","7 ELEVEN FOOD STORE  #15528C","PARK JAE & MYUNG","75","NORTH CENTRAL HWY",,,"GARNERVILLE","NY","10923","POINT (-73.99632 41.214986)"
"ONEIDA","307420","Drug Store","CVS PHARMACY # 5015","CVS ALBANY LLC","139","MAIN ST",,,"WATERVILLE","NY","13480","POINT (-75.292792 43.124212)"
"ORANGE","661884","Other","LIVELY PLANTS AND COMPANY","KATARZYNA CZEREPAK","59","WOODCOCK MOUNTAIN ROAD",,,"WASHINGTONVILLE","NY","10992","POINT (-74.158669 41.415162)"
"NASSAU","280251","Garden Center","COSTANTINO NURSERY INC","LUCIA & ROCCO COSTANTINO","36","FOREST AVENUE",,,"GLEN COVE","NY","11542","POINT (-73.627121 40.870914)"
"SUFFOLK","660338","Other","PETSMART INC #2702","PETSMART INC","1750","OLD COUNTRY ROAD",,,"RIVERHEAD","NY","11901","POINT (-72.703306 40.924277)"
"ERIE","658894","Other","DOLLAR TREE #01782","DOLLAR TREE","3701","MCKINLEY PKWY","UNIT 1090",,"BUFFALO","NY","14219","POINT (-78.811189 42.784741)"
"WESTCHESTER","657481","Hardware Store","BERGER HARDWARE","CHRIS RUBEO","443","COMMERCE ST",,,"HAWTHORNE","NY","10532","POINT (-73.793879 41.111791)"
"ONTARIO","322251","Garden Center","GREENERY THE","HUGH WARD","8969","DUGAN DRIVE",,,"HONEOYE","NY","14471","POINT (-77.531768 42.796237)"
"NEW YORK","657500","Grocery Store","7 ELEVEN FOOD STORE #35308A","ANOOP SAREEN","351","BOWERY STREET",,,"NEW YORK","NY","10003","POINT (-73.991647 40.726574)"
"NEW YORK","656845","Floral Shop","NY TOPIARY","CANDELARIO, MILTON","150","WEST 28TH STREET",,,"NEW YORK","NY","10031","POINT (-73.992673 40.746952)"
"ORANGE","659742","Dept. Store","MARSHALLS STORE #842","MARSHALLS OF MA, INC","470","ROUTE 211 EAST",,,"MIDDLETOWN","NY","10940","POINT (-74.380161 41.456645)"
"QUEENS","660574","Drug Store","WALGREENS #18412","WALGREEN EASTERN CO INC","9602","ROCKAWAY BOULEVARD",,,"OZONE PARK","NY","11417","POINT (-73.842189 40.680338)"
"MONROE","659769","Dept. Store","MARSHALLS STORE #379","MARSHALLS OF MA, INC","720","JEFFERSON AVENUE",,,"ROCHESTER","NY","14623","POINT (-77.628952 43.140421)"
"SUFFOLK","479397","Drug Store","RITE AID #10657","GENOVESE DRUG STORES INC","397","SUNRISE HIGHWAY",,,"WEST PATCHOGUE","NY","11772","POINT (-73.032893 40.777304)"
"WESTCHESTER","661273","Dept. Store","TRANSFORM KM LLC #9416","ROBERT RIECKER","399","TARRYTOWN ROAD",,,"WHITE PLAINS","NY","10607","POINT (-73.797171 41.042994)"
"OTSEGO","364689","Floral Shop","CODDINGTONS FLORIST INC","KATHRYN KROLL","15","CLINTON PLAZA DRIVE",,,"ONEONTA","NY","13820","POINT (-75.516979 42.529091)"
"NASSAU","658962","Other","DOLLAR TREE #03950","DOLLAR TREE","265","N. BROADWAY",,,"HICKSVILLE","NY","11801","POINT (-73.5298 40.777587)"
"QUEENS","637592","Hardware Store","HOME DEPOT THE #1255","HOME DEPOT USA INC","50-10","NORTHERN BOULEVARD",,,"LONG ISLAND CITY","NY","11101","POINT (-73.912017 40.753155)"
"MONROE","661429","Grocery Store","7 ELEVEN FOOD STORE #21412F","PARDEEP KAUR DEOL & RAJVIR SINGH","3345","LAKE AVENUE",,,"ROCHESTER","NY","14612","POINT (-77.626044 43.231035)"
"NASSAU","288058","Grocery Store","KING KULLEN GROCERY CO INC #34","KING KULLEN GROCERY CO INC","206","NEW HYDE PARK ROAD",,,"FRANKLIN SQUARE","NY","11010","POINT (-73.677145 40.713584)"
"ERIE","147325","Drug Store","WALGREENS #11334","WALGREENS EASTERN COMPANY INC","9050","ERIE ROAD",,,"ANGOLA","NY","140069556","POINT (-79.048019 42.638669)"
"SUFFOLK","471586","Drug Store","WALGREENS #9461","WALGREEN EASTERN COMPANY INC","2215","MIDDLE COUNTRY ROAD",,,"CENTEREACH","NY","117203524","POINT (-73.09037 40.858227)"
"ERIE","145097","Drug Store","RITE AID #10822","ECKERD CORPORATION","2330","NIAGARA FALLS BOULEVARD",,,"TONAWANDA","NY","14150","POINT (-78.822243 43.017551)"
"NEW YORK","659253","Floral Shop","BLOOMING COUTURE FLOWERS","KIM, KIM","2216","BROADWAY",,,"NEW YORK","NY","10024","POINT (-73.980025 40.783589)"
"QUEENS","636112","Drug Store","CVS PHARMACY # 1113","CVS ALBANY LLC","89-11","NORTHERN BLVD",,,"JACKSON HEIGHTS","NY","11372","POINT (-73.878572 40.756318)"
"NASSAU","656945","Other","PETCO #280","PETCO ANIMAL SUPPLIES, INC.","227","FOREST AVENUE",,,"GLEN COVE","NY","11542","POINT (-73.61879 40.874047)"
"TOMPKINS","661521","Grocery Store","GREENSTAR COOPERATIVE MARKET INC","MARILYN CHASE","770","CASCADILLA STREET",,,"ITHACA","NY","14850","POINT (-76.509674 42.444274)"
"KINGS","616826","Garden Center","VISCONTI ALLAN INC","MICHAEL VISCONTI","14","BROOKLYN TERMINAL MARKET",,,"BROOKLYN","NY","11236","POINT (-73.919244 40.644458)"
"ONONDAGA","657604","Drug Store","WALGREENS #09414","WALGREEN EASTERN CO INC","5173","WEST TAFT RD",,,"SYRACUSE","NY","13212","POINT (-76.159032 43.121927)"
"ALBANY","659065","Other","DOLLAR TREE #05680","DOLLAR TREE STORES, INC","1619","BROADWAY",,,"WATERVLIET","NY","12189","POINT (-73.700126 42.729273)"
"NEW YORK","656806","Other","PETSMART INC #2117","PETSMART INC.","517 E","117TH ST",,,"NEW YORK","NY","10035","POINT (-73.931932 40.795426)"
"SARATOGA","414867","Dept. Store","WAL-MART #2056","WAL-MART STORES EAST LP","16","OLD GICK ROAD",,,"SARATOGA SPRINGS","NY","12866","POINT (-73.762255 43.095207)"
"WESTCHESTER","559296","Garden Center","SIMPLY THE BEST","PAT STAROPOLI","1283","WEAVER STREET",,,"SCARSDALE","NY","10583",
"NASSAU","283959","Grocery Store","7 ELEVEN FOOD STORE #11170C","LEE BRANDON","1","FARMEDGE ROAD",,,"BETHPAGE","NY","11714","POINT (-73.495782 40.737818)"
"KINGS","617040","Drug Store","CVS PHARMACY # 2428","CVS ALBANY LLC","532","NEPTUNE AVE","LICENSING DEPT.",,"BROOKLYN","NY","11224","POINT (-73.974081 40.579885)"
"SUFFOLK","661938","Other","J.A. MALDONADO & SON NURSERY STOCK LLC","JOSE, JOSPEH & DONNA-LEE MALDONADO","240","FROWEIN ROAD",,,"CENTER MORICHES","NY","11934","POINT (-72.798136 40.805055)"
"TOMPKINS","660674","Drug Store","WALGREENS# 19684","WALGREEN EASTERN CO INC","330","PINE TREE RD.",,,"ITHACA","NY","14850","POINT (-76.465357 42.438029)"
"ONEIDA","301830","Garden Center","GREENSCAPES GARDEN CENTER","ONEILL DENNIS R","48","OLD MOHAWK STREET",,,"WHITESBORO","NY","13492","POINT (-75.287761 43.124425)"
"ROCKLAND","662097","Other","DOLLAR TREE #02573","DOLLAR TREE STORES, INC","166","S LIBERTY DRIVE",,,"STONY POINT","NY","10980","POINT (-73.986479 41.217488)"
"QUEENS","638565","Drug Store","RITE AID #4873","RITE AID OF NEW YORK INC","55-60","MYRTLE AVENUE",,,"RIDGEWOOD","NY","113853554","POINT (-73.906351 40.700106)"
"DUTCHESS","137336","Drug Store","CVS PHARMACY # 2838","CVS ALBANY","48","E MARKET ST",,,"RHINEBECK","NY","12572","POINT (-73.911006 41.926963)"
"JEFFERSON","659079","Other","CHRISTMAS TREE SHOPS #7082","CHRISTMAS TREE SHOPS, INC.","21182","SALMON RUN MALL LOOP WEST",,,"WATERTOWN","NY","13601","POINT (-75.955591 43.976364)"
"RICHMOND","648011","Drug Store","CVS PHARMACY # 6050","CVS ALBANY LLC","1654","RICHMOND AVE",,,"STATEN ISLAND","NY","10314","POINT (-74.162119 40.608168)"
"CORTLAND","661081","Other","DOLLAR TREE #07790","CLINTON J YORK","160","CLINTON AVEUNE",,,"CORTLAND","NY","13045","POINT (-76.169015 42.605994)"
"MONROE","260056","Grocery Store","GATES BIG M MARKET","BRIAN D MCNAMARA","1520","SPENCERPORT ROAD",,,"ROCHESTER","NY","14606","POINT (-77.731119 43.174902)"
"DUTCHESS","661321","Hardware Store","ROOSTERS ROUTE 82 HOME & HARDWARE CENTER","JEFF & AMY COMO","6047","ROUTE 82",,,"STANFORDVILLE","NY","12581","POINT (-73.706567 41.87006)"
"ONONDAGA","660505","Drug Store","WALGREENS #19377","WALGREEN EASTERN CO INC","4001","S. SALINE ST.",,,"SYRACUSE","NY","13205","POINT (-76.142401 43.00956)"
"CATTARAUGUS","44143","Grocery Store","TOPS #273","TOPS PT LLC","51","MAIN ST RANDOLPH PLAZA",,,"RANDOLPH","NY","14772",
"ALBANY","15410","Drug Store","CVS PHARMACY # 415","CVS ALBANY LLC","750","LOUDON RD",,,"LATHAM","NY","12110","POINT (-73.761936 42.742783)"
"WESTCHESTER","550285","Other","BLONDIES TREEHOUSE INC","HOWARD K FREILICH","431","FAYETTE AVENUE",,,"MAMARONECK","NY","105432211","POINT (-73.745032 40.950226)"
"SUFFOLK","658112","Dept. Store","OCEAN STATE JOB LOT #507","OCEAN STATE JOB LOT","1480","DEER PARK AVENUE",,,"NORTH BABYLON","NY","11703","POINT (-73.324198 40.748342)"
"STEUBEN","659993","Grocery Store","CANISTEO SHURFINE","JON & DULCINE HEDGES","56","W MAIN ST",,,"CANISTEO","NY","14823","POINT (-77.607963 42.274921)"
"ERIE","145899","Drug Store","CVS PHARMACY # 737","CVS ALBANY LLC","729","MAIN ST",,,"EAST AURORA","NY","14052","POINT (-78.607071 42.767793)"
"ERIE","661173","Grocery Store","7 ELEVEN #35138A","RAWA S ANABI AND SAM ANABI","889","BEACH ROAD",,,"BUFFALO","NY","14225","POINT (-78.760828 42.945136)"
"ST. LAWRENCE","658883","Other","DOLLAR TREE #01421","DOLLAR TREE","168","HARTE  HAVEN PLAZA",,,"MASSENA","NY","13662","POINT (-74.881181 44.920354)"
"NEW YORK","621981","Grocery Store","WHOLE FOODS MARKET","WHOLE FOODS MARKET GROUP INC","95","EAST HOUSTON STREET",,,"NEW YORK","NY","10002","POINT (-73.991724 40.723787)"
"OTSEGO","367984","Drug Store","KPH HEALTHCARE DBA KINNEY DRUGS #45","KPH HEALTHCARE SERVICES INC.","10","MAIN STREET",,,"RICHFIELD SPRINGS","NY","13439","POINT (-74.995713 42.855969)"
"OSWEGO","658162","Vehicle","EMINESS PRODUCE","HOXE MATTHEW","1788","CO RT 45",,,"FULTON","NY","13069",
"TOMPKINS","660131","Other","BYRNE DAIRY #67","SONBYRNE SALES INC","208","E MAIN STREET",,,"TRUMANSBURG","NY","14886","POINT (-76.648704 42.53709)"
"WYOMING","564581","Roadside Stand","ARCADE CENTER FARM","MILKS RAYMOND","7298","ROUTE 98",,,"ARCADE","NY","14009","POINT (-78.402151 42.547201)"
"BRONX","660857","Drug Store","WALGREENS #19889","WALGREEN EASTERN CO INC","32","EAST 170TH STREET",,,"BRONX","NY","10452","POINT (-73.916817 40.839899)"
"WESTCHESTER","656928","Grocery Store","S & S FOODS LLC","SALEH, SALEH SAMI","114","NO BROADWAY",,,"TARRYTOWN","NY","10591","POINT (-73.857753 41.079988)"
"KINGS","661247","Other","DOLLAR TREE #07595","MIKE A WITYNSKI","2612","PITKIN AVENUE",,,"BROOKLYN","NY","11208","POINT (-73.875548 40.674884)"
"ONEIDA","305542","Dept. Store","WAL-MART #2093","WAL-MART STORES EAST LP","710","HORATIO STREET",,,"UTICA","NY","13502","POINT (-75.225463 43.127976)"
"MONROE","658840","Other","DOLLAR TREE #07612","DOLLAR TREE","923","S. CLINTON AVENUE",,,"ROCHESTER","NY","14620","POINT (-77.59663 43.140431)"
"MONROE","269979","Grocery Store","ALDI INC #76","ALDI INC","615","JEFFERSON ROAD",,,"HENRIETTA","NY","14467",
"QUEENS","638799","Drug Store","CVS PHARMACY # 7881","CVS ALBANY LLC","97-15","METROPOLITAN AVE",,,"FOREST HILLS","NY","11375","POINT (-73.855199 40.711145)"
"SUFFOLK","658221","Grocery Store","7 ELEVEN FOOD STORE  #32722B","SEEMA BHATIA","59","NORTH COUNTRY RD",,,"ROCKY POINT","NY","11778","POINT (-72.959475 40.94512)"
"QUEENS","656811","Drug Store","WALGREENS #11112","WALGREEN EASTERN CO.,INC.","175-06","HILLSIDE AVE",,,"JAMAICA","NY","11432","POINT (-73.787421 40.711766)"
"KINGS","659794","Grocery Store","KEY FOOD SUPERMARKET","TAPPS SUPERMARKET INC","2245","GERRITSEN AVE",,,"BROOKLYN","NY","11229","POINT (-73.934263 40.601039)"
"OSWEGO","658093","Landscaper","KANGAROO LAWN AND LANDSCAPE","DWYER, SEAN","3072","W MAIN STREET",,,"PARISH","NY","13131","POINT (-76.135309 43.41257)"
"WESTCHESTER","658942","Other","DOLLAR TREE #03105","DOLLAR TREE","1847","EAST MAIN ST",,,"PEEKSKILL","NY","10566","POINT (-73.855153 41.321481)"
"WESTCHESTER","659269","Grocery Store","ACME #2437","DANIEL CROCE","12","CEDAR STREET",,,"BRONXVILLE","NY","10708","POINT (-73.833735 40.938725)"
"WESTCHESTER","551131","Other","SITE ONE LANDSCAPE SUPPLY # 600","JOHN DEERE LANDSCAPES","5","5TH AVENUE",,,"LARCHMONT","NY","10538","POINT (-73.764708 40.932533)"
"KINGS","661662","Floral Shop","JULIA TESTA LLC","JULIA TESTA","836","DEKALB AVE",,,"BROOKLYN","NY","11221","POINT (-73.942634 40.692375)"
"MONROE","661652","Grocery Store","7 ELEVEN STORE #40234","RAWA S ANABI & SAM ANABI","226","NORTH AVENUE",,,"WEBSTER","NY","14580","POINT (-77.430097 43.218748)"
"SUFFOLK","658815","Other","DOLLAR TREE #05995","DOLLAR TREE","3235","HORSEBLOCK ROAD",,,"MEDFORD","NY","11763","POINT (-72.982002 40.824944)"
"WESTCHESTER","658721","Drug Store","CVS PHARMACY # 10652","CVS PHARMACY","294","KATONAH AVENUE",,,"KATONAH","NY","10536","POINT (-73.683862 41.255109)"
"NEW YORK","661629","Other","GOPHER BROKE FARM INC","GEORGE NASH & JANE WATERMAN","1734","2ND AVENUE",,,"NEW YORK","NY","10128","POINT (-73.949754 40.780635)"
"SUFFOLK","657544","Hardware Store","BELLMORE HOME CENTER INC","BELLMORE HOME CENTER INC","360","RT 25-A",,,"ROCKY POINT","NY","11778","POINT (-72.942625 40.945087)"
"WESTCHESTER","662045","Other","POLLINATED PATHWAYS CORP","JOHN H VARGO","110","2ND STREET",,,"VERPLANCK","NY","10596","POINT (-73.961261 41.249834)"
"GENESEE","183576","Floral Shop","LAKESTREET FLORIST & GIFT SHOP","COOK JOYCE","110","LAKE STREET",,,"LEROY","NY","14482","POINT (-77.991879 42.985445)"
"KINGS","659113","Other","DOLLAR TREE #05305","DOLLAR TREE STORES, INC.","2294","NOSTRAND AVE",,,"BROOKLYN","NY","11210","POINT (-73.94724 40.628712)"
"GREENE","191779","Hardware Store","LOWE'S HOME CTR #2483","LOWES HOME CENTERS, LLC","60","CATSKILL COMMONS",,,"CATSKILL","NY","12414","POINT (-73.88123 42.214149)"
"ONEIDA","307693","Grocery Store","PRICE CHOPPER #0026","PRICE CHOPPER OPERATING CO INC","1917","GENESEE STREET",,,"UTICA","NY","135015687","POINT (-75.260267 43.087111)"
"ONONDAGA","310745","Landscaper","SOLLECITO LANDSCAPING NURSERY LLC","SOLLECITO JAMES","4094","HOWLETT HILL RD",,,"SYRACUSE","NY","13215","POINT (-76.229567 43.012132)"
"SUFFOLK","479934","Grocery Store","STOP & SHOP SPRMKT #553","STOP & SHOP SUPERMARKET CO LLC","260","POND PATH",,,"SOUTH SETAUKET","NY","11720","POINT (-73.102544 40.883772)"
"RENSSELAER","662149","Garden Center","HOME GROWN OUTLET","DARREN SCHWARTZ","120","HOOSICK STREET",,,"TROY","NY","12180","POINT (-73.67804 42.739386)"
"BROOME","660401","Garden Center","AGWAY- ENDICOTT","TSMITH ENTERPRISES INC","116","JENNINGS STREET",,,"ENDICOTT","NY","13760","POINT (-76.06709 42.099488)"
"QUEENS","634549","Grocery Store","BOGOPA-58-01 INC","BOGOPA SERVICE CORP","58-01","JUNCTION BLVD",,,"CORONA","NY","11368","POINT (-73.865094 40.735175)"
"MONROE","261883","Drug Store","RITE AID #10859","ECKERD CORPORATION","1792","NORTH GOODMAN STREET",,,"ROCHESTER","NY","14609","POINT (-77.576341 43.188122)"
"NIAGARA","297893","Hardware Store","HOME DEPOT THE #1268","HOME DEPOT USA INC","5730","SOUTH TRANSIT ROAD",,,"LOCKPORT","NY","14094","POINT (-78.696899 43.147134)"
"QUEENS","660991","Grocery Store","NORTH SHORE FARMS WHITESTONE LTD","NIKOLAS KATOPODIS","153-01","10TH AVENUE",,,"WHITESTONE","NY","11357","POINT (-73.808229 40.793388)"
"QUEENS","660935","Drug Store","WALGREENS #17680","WALGREEN EASTERN CO INC","16040","CROSS BAY BLVD",,,"HOWARD BEACH","NY","11414","POINT (-73.839376 40.656798)"
"KINGS","618507","Drug Store","RITE AID #3879","RITE AID OF NEW YORK INC","6900","4TH AVENUE",,,"BROOKLYN","NY","112091502","POINT (-74.023583 40.63447)"
"JEFFERSON","658076","Gas Station","SACKETS HARBOR COUNTRY MART INC","SACKETS HARBOR COUNTRY MART INC","240","DODGE AVE",,,"SACKETS HARBOR","NY","13685","POINT (-76.109404 43.949353)"
"BROOME","35574","Drug Store","CVS PHARMACY # 562","CVS ALBANY LLC","345","MAIN ST",,,"JOHNSON CITY","NY","13790","POINT (-75.961223 42.11576)"
"PUTNAM","377494","Drug Store","CVS PHARMACY # 5054","CVS ALBANY LLC","100","EAST LAKE BLVD",,,"MAHOPAC","NY","10541","POINT (-73.72964 41.373758)"
"MONTGOMERY","662079","Roadside Stand","JEREMY KORONA","JEREMY KORONA","1582","COUNTY HIGHWAY 107",,,"AMSTERDAM","NY","12010","POINT (-74.215674 43.01231)"
"CHEMUNG","659134","Roadside Stand","TAMMYS PRODUCE","TAMRA S AUMICK","1848","PENNSYLVANIA AVE",,,"PINE CITY","NY","14871","POINT (-76.901526 42.001597)"
"ST. LAWRENCE","661642","Grocery Store","7 ELEVEN STORE # 40180","RAWA S ANABI & SAM ANABI","71","EAST MAIN STREET",,,"CANTON","NY","13617","POINT (-75.157607 44.596367)"
"GENESEE","180072","Drug Store","RITE AID #10807","ECKERD CORPORATION","601","EAST MAIN STREET",,,"BATAVIA","NY","14020","POINT (-78.163583 42.994842)"
"WESTCHESTER","661055","Hardware Store","LOWES HOME CENTER #3360","BETH MACDONALD","3200","CROMPOUND ROAD",,,"YORKTOWN HEIGHTS","NY","10598","POINT (-73.822922 41.291593)"
"NASSAU","661512","Grocery Store","LUS LICENSING DBA LIDL EAST MEADOW","MARCO LANDOLT","1980","HEMPSTEAD TURNPIKE",,,"EAST MEADOW","NY","11554","POINT (-73.563449 40.724302)"
"NASSAU","287399","Drug Store","CVS PHARMACY # 4451","CVS ALBANY LLC","3496","LONG BEACH ROAD",,,"OCEANSIDE","NY","11572","POINT (-73.639861 40.62587)"
"SUFFOLK","477180","Grocery Store","7 ELEVEN FOOD STORE  #11229A","NIRMAL BASRA","2223","RTE 112 & RTE 2",,,"CORAM","NY","11727","POINT (-73.00421 40.869869)"
"SUFFOLK","660001","Drug Store","CVS PHARMACY # 10582","CVS ALBANY LLC","71","MONTAUK HWY",,,"EAST HAMPTON","NY","11937","POINT (-72.209631 40.954017)"
"MONROE","658818","Other","PITTI'S FRUIT FARM","PITTI SALVATORE","1029","MANITOU ROAD",,,"HILTON","NY","14468","POINT (-77.750622 43.265363)"
"NEW YORK","661202","Drug Store","CVS PHARMACY #11237","MARIA SEMEDO","358","5TH AVENUE",,,"NEW YORK","NY","10001","POINT (-73.984404 40.748649)"
"KINGS","661958","Grocery Store","7 ELEVEN STORE # 35049B","RADD J ISKANDER","2474","FLATBUSH AVE",,,"BROOKLYN","NY","11234","POINT (-73.922856 40.609962)"
"MONROE","268536","Garden Center","CREEKEDGE FARM MARKET","MAIER HARRY","683","RIDGE ROAD",,,"WEBSTER","NY","14580","POINT (-77.488718 43.203943)"
"ST. LAWRENCE","660639","Drug Store","WALGREENS #17468","WALGREEN EASTERN CO INC","908","STATE ST.",,,"OGDENSBURG","NY","13669","POINT (-75.486903 44.690621)"
"RICHMOND","640006","Garden Center","SWEETBROOK GARDEN CTR","FRANK ILLIANO","2371","FOREST AVENUE",,,"STATEN ISLAND","NY","10303","POINT (-74.169077 40.627833)"
"NEW YORK","628858","Drug Store","CVS PHARMACY # 8968","CVS ALBANY LLC","222","EAST 34 ST",,,"NEW YORK","NY","10016","POINT (-73.976812 40.745183)"
"QUEENS","637312","Drug Store","WALGREENS #4319","WALGREEN EASTERN COMPANY INC","8420","BROADWAY",,,"ELMHURST","NY","11373","POINT (-73.878177 40.739639)"
"CAYUGA","657573","Other","GRIFFIN GRNHSE SUPP INC","RICHARD LAYNE","ONE","ELLIS DRIVE",,,"AUBURN","NY","13021",
"SUFFOLK","661810","Roadside Stand","SHARE THE HARVEST FARM INC","IRA BEZOZA, JESSICA TONN","55","LONG LANE",,,"EAST HAMPTON","NY","11937","POINT (-72.205913 40.970753)"
"KINGS","660870","Drug Store","WALGREENS #18204","WALGREEN EASTERN CO INC","355","KNICKERBOCKER AVENUE",,,"BROOKLYN","NY","11237","POINT (-73.921853 40.700794)"
"QUEENS","661038","Roadside Stand","A-C MARKET GROCERY","ABEL CAZARES","91-32","197TH STREET",,,"SAINT ALBANS","NY","11412",
"QUEENS","662104","Grocery Store","7 ELEVEN, INC. STORE #37717J","JOSPEH M DEPINTO","159-35","CROSS BAY BLVD.",,,"HOWARD BEACH","NY","11414","POINT (-73.839503 40.658032)"
"MONROE","264970","Drug Store","WALGREENS #10382","WALGREEN EASTERN COMPANY INC","4366","BUFFALO ROAD",,,"NORTH CHILI","NY","14514","POINT (-77.804632 43.120136)"
"ALBANY","658836","Other","DOLLAR TREE #00883","DOLLAR TREE","579","TROY-SCHENECTADY RD",,,"LATHAM","NY","12110","POINT (-73.766837 42.752101)"
"WESTCHESTER","559512","Garden Center","BULFAMANTE MARIO&SONS","STEPHEN, ANTHONY & SEBASTIAN BULFAMANTE","75","PORTMAN ROAD",,,"NEW ROCHELLE","NY","10801","POINT (-73.771251 40.926644)"
"MADISON","259684","Garden Center","TRACTOR SUPPLY COMPANY #280","TRACTOR SUPPLY COMPANY","2019","UPPER LENOX AVENUE",,,"ONEIDA","NY","13421",
"KINGS","660384","Grocery Store","7 ELEVEN FOOD STORE #34172J","7 ELEVEN INC","2515","86TH STREET",,,"BROOKLYN","NY","11214","POINT (-73.986577 40.597532)"
"ESSEX","153051","Grocery Store","ALDI INC #46","ALDI INCORPORATED","587","LAKE FLOWER AVE",,,"SARANAC LAKE","NY","12983","POINT (-74.115872 44.311908)"
"ST. LAWRENCE","407886","Grocery Store","ALDI INC #23","ALDI INC","1101","PARK STREET",,,"OGDENSBURG","NY","13669","POINT (-75.472677 44.693126)"
"KINGS","661984","Floral Shop","POETIC ROSES CORP","LUIS MUNZON","208","WYCKOFF AVE",,,"BROOKLYN","NY","11237","POINT (-73.914658 40.701512)"
"SUFFOLK","472767","Garden Center","C WHITMORE GARDENS","CHARLIE WHITMORE","26","MONTAUK HWY",,,"AMAGANSETT","NY","11930","POINT (-72.149439 40.972711)"
"NASSAU","661670","Dept. Store","NATIONAL WHOLESALE LIQUIDATORS","MAS WHOLESALE HOLDINGS LLC","5520","SUNRISE HWY",,,"MASSAPEQUA","NY","11758","POINT (-73.435743 40.6786)"
"SARATOGA","410984","Roadside Stand","PETUSKES PRODUCE LLC","PETUSKE MICHELLE & RICHARD","39","HALFMOON DRIVE",,,"WATERFORD","NY","121881100","POINT (-73.71742 42.827538)"
"NASSAU","287711","Drug Store","CVS PHARMACY # 5370","CVS ALBANY LLC","1","EAST MERRICK ROAD",,,"VALLEY STREAM","NY","11580","POINT (-73.697325 40.664559)"
"ERIE","661285","Garden Center","TRACTOR SUPPLY COMPANY #2390","KAREN SUE AUSTIN","10838","MAIN STREET",,,"NORTH COLLINS","NY","14111",
"KINGS","616459","Vehicle","GALLO ANTHONY LANDSCAPING AND NURSERY","ANTHONY GALLO","1909","FLATBUSH AVENUE",,,"BROOKLYN","NY","11210","POINT (-73.93744 40.623154)"
"JEFFERSON","662035","Hardware Store","STATE STREET HARDWARE","STATE STREET HARDWARE","531","STATE STREET",,,"WATERTOWN","NY","13601","POINT (-75.903363 43.973048)"
"ORANGE","336152","Drug Store","CVS PHARMACY # 1128","CVS ALBANY LLC","72","BROOKSIDE AVE",,,"CHESTER","NY","10918","POINT (-74.282468 41.355877)"
"ERIE","146496","Drug Store","WALGREENS #3857","WALGREEN EASTERN COMPANY INC","3488","MAIN STREET",,,"BUFFALO","NY","14226","POINT (-78.819052 42.957372)"
"ORANGE","660551","Drug Store","WALGREENS #19578","WALGREEN EASTERN CO INC","89","BROOKSIDE AVE.",,,"CHESTER","NY","10918","POINT (-74.284687 41.357844)"
"SUFFOLK","472020","Grocery Store","7 ELEVEN FOOD STORE  #16539C","I & M PARTNERS INC","450","PECONIC STREET",,,"RONKONKOMA","NY","11779","POINT (-73.136435 40.798375)"
"WARREN","659672","Dept. Store","TJ MAXX STORE #669","TJX COMPANIES INC","820","ROUTE 9",,,"QUEENSBURY","NY","12804","POINT (-73.676406 43.331364)"
"NEW YORK","659427","Grocery Store","FINE FARE SUPERMARKET","RUFINO CASTRO","4776","BROADWAY",,,"NEW YORK","NY","10034","POINT (-73.926534 40.865794)"
"SCHENECTADY","426095","Roadside Stand","BUHRMASTER FRUIT & PRODUCE INC","BUHRMASTER KEITH W","189","SARATOGA ROAD",,,"SCOTIA","NY","12302","POINT (-73.932818 42.865656)"
"SUFFOLK","661777","Drug Store","CVS PHARMACY #10191","CVS PHARMACY","87","SUNSET AVE",,,"WESTHAMPTON BEACH","NY","11978","POINT (-72.644903 40.812334)"
"RICHMOND","662051","Grocery Store","7 ELEVEN STORE# 34248B","NAGAMANY JEYAKUMAR","1440","FOREST AVE",,,"STATEN ISLAND","NY","10302","POINT (-74.136854 40.624436)"
"SUFFOLK","661937","Other","UNDER THE TINY TREE- HOLISTIC BONZAI INC.","DIANA AND JASON PAYNE","50","UNION AVENUE",,,"EASTPORT","NY","11941","POINT (-72.732994 40.830668)"
"WESTCHESTER","555493","Drug Store","CVS PHARMACY # 490","CVS ALBANY LLC","253","SOUTH RIDGE STREET","WASHINGTON PARK PLAZA",,"RYE BROOK","NY","10573","POINT (-73.680618 41.000396)"
"SUFFOLK","661835","Floral Shop","TOWERS FLOWERS","PETER T MCBRIDE","1350","DEER PARK AVE",,,"NORTH BABYLON","NY","11703","POINT (-73.322146 40.743085)"
"MADISON","251737","Other","HILLTOP HERBERY","REEVE ENTERPRISES CAZENOVIA INC","4748","SYRACUSE ROAD",,,"CAZENOVIA","NY","13035","POINT (-75.89273 42.951546)"
"ULSTER","518702","Drug Store","CVS PHARMACY # 7629","CVS ALBANY LLC","2","RIVERVIEW DRIVE",,,"MARLBORO","NY","12542","POINT (-73.963674 41.616486)"
"ROCKLAND","661119","Dept. Store","OCEAN STATE JOB LOT #513","BRUCE WALTERS","122","EAST ROAD 59",,,"NANUET","NY","10954","POINT (-74.006139 41.095115)"
"CLINTON","660484","Drug Store","WALGREENS #19595","WALGREEN EASTERN CO INC","887","ROUTE 11",,,"CHAMPLAIN","NY","12919","POINT (-73.445955 44.978337)"
"NEW YORK","659574","Floral Shop","MERRY FLOWERS","MARIA GONZALEZ","3801","BROADWAY",,,"NEW YORK","NY","10032","POINT (-73.944398 40.834934)"
"BRONX","658639","Dept. Store","TARGET STORE #2811","TARGET STORES","815","E HUTCHINSON RIVER PKWY",,,"BRONX","NY","10465","POINT (-73.836397 40.822612)"
"PUTNAM","661568","Dept. Store","OCEAN STATE JOB LOT #514","MARC PERLMAN, ALAN PERLMAN & JOHN CONFOR","1001","US ROUTE 6",,,"MAHOPAC","NY","10541","POINT (-73.723116 41.392583)"
"QUEENS","639882","Other","BJS WHOLESALE CLUB #0143","BJS WHOLESALE CLUB INC","66-26","METROPOLITAN AVENUE",,,"MIDDLE VILLAGE","NY","11379","POINT (-73.893577 40.712377)"
"ULSTER","657900","Roadside Stand","MIGLIORELLI FARM","KENNETH MIGLIORELLI","5150","RT 28",,,"MOUNT TREMPER","NY","12457","POINT (-74.275282 42.032812)"
"ST. LAWRENCE","400059","Hardware Store","LOWE'S HOME CTR #2401","LOWES HOME CENTERS, LLC","2001","FORD STREET EXTENSION",,,"OGDENSBURG","NY","13669","POINT (-75.457733 44.705859)"
"NASSAU","659209","Floral Shop","TOWN & COUNTRY FLOWERS","ROBERT W. STAINKAMP","53","MANHASSET AVE",,,"MANHASSET","NY","11030","POINT (-73.700956 40.795514)"
"CATTARAUGUS","661064","Other","C&S WHOLESALE GROCERS INC","BRYAN GRANGER","1587","HASKELL ROAD",,,"OLEAN","NY","14760","POINT (-78.382755 42.068716)"
"KINGS","661263","Floral Shop","GREENERY UNLIMITED","ADAM BESHEER & REBECCA BULLENE","91","WEST STREET",,,"BROOKLYN","NY","11222","POINT (-73.959184 40.729407)"
"ALBANY","12993","Grocery Store","HANNAFORD SUPERMARKET & PHARMACY #8233","MARTINS FOODS OF SOUTH BURLINGTON LLC","5","MAPLE ROAD",,,"VOORHEESVILLE","NY","12186","POINT (-73.923891 42.649563)"
"ERIE","660043","Grocery Store","LEXINGTON COOPERATIVE MARKET","LEXINGTON COOPERATIVE MARKET","1678","HERTEL AVENUE",,,"BUFFALO","NY","14216","POINT (-78.845626 42.947612)"
"HERKIMER","217467","Grocery Store","HANNAFORD SUPERMARKET & PHARMACY #8366","MARTINS FOODS OF SOUTH BURLINGTON LLC","401","EAST ALBANY STREET",,,"HERKIMER","NY","133502023","POINT (-74.979398 43.028136)"
"CORTLAND","119757","Garden Center","TRACTOR SUPPLY COMPANY #652","TRACTOR SUPPLY COMPANY","848","STATE RT 13",,,"CORTLAND","NY","13045","POINT (-76.219022 42.570873)"
"RICHMOND","661086","Grocery Store","7 ELEVEN #39436J","JOSEPH M DEPINTO & JAMES SCOTT BAREFIELD","15","PAGE AVENUE",,,"STATEN ISLAND","NY","10309","POINT (-74.234649 40.524362)"
"NIAGARA","295473","Drug Store","WALGREENS #3438","WALGREEN EASTERN COMPANY INC","1202","PINE AVENUE",,,"NIAGARA FALLS","NY","14301","POINT (-79.048377 43.094799)"
"WESTCHESTER","553808","Grocery Store","STOP & SHOP SPRMKT #592","STOP & SHOP SUPERMARKET CO LLC","240","EAST SANDFORD BOULEVARD",,,"MOUNT VERNON","NY","10550","POINT (-73.82473 40.901049)"
"SCHENECTADY","422366","Other","OCEAN STATE JOB LOT #502","OCEAN STATE JOBBERS","2330","WATT STREET",,,"SCHENECTADY","NY","12304","POINT (-73.9171 42.78496)"
"ONONDAGA","656954","Other","PETCO #292","PETCO","3150","ERIE BLVD EAST",,,"SYRACUSE","NY","13214","POINT (-76.076811 43.054714)"
"WESTCHESTER","557758","Drug Store","CVS PHARMACY # 05454","CVS ALBANY LLC","1296","NORTH AVE",,,"NEW ROCHELLE","NY","10804","POINT (-73.795369 40.945783)"
"ONEIDA","308774","Drug Store","KPH HEALTHCARE DBA KINNEY DRUGS #84","KPH HEALTHCARE SERVICES INC","12","FRANKLIN AVENUE",,,"CLINTON","NY","13323","POINT (-75.382222 43.046824)"
"SARATOGA","413372","Grocery Store","HANNAFORD SUPERMARKET & PHARMACY #8365","MARTINS FOODS OF SOUTH BURLINGTON LLC","9","CLIFTON COUNTRY ROAD",,,"CLIFTON PARK","NY","12065","POINT (-73.780909 42.859852)"
"ESSEX","658616","Other","THE FORT TICONDEROGA ASSOCIATION","FORT TICONDEROGA ASSOCIATION","102","FT TI RD",,,"TICONDEROGA","NY","12883","POINT (-73.402681 43.849006)"
"ONEIDA","308435","Other","BIG LOTS #1283","BIG LOTS STORES INC","350","LELAND AVENUE",,,"UTICA","NY","13502","POINT (-75.206051 43.114068)"
"SCHENECTADY","429653","Grocery Store","PRICE CHOPPER #0191","PRICE CHOPPER OPERATING CO INC","442","BALLTOWN ROAD",,,"SCHENECTADY","NY","12304","POINT (-73.893613 42.776188)"
"ALBANY","17557","Other","CHRISTMAS TREE SHOPS #7019","CHRISTMAS TREE SHOPS INC","1425","CENTRAL AVENUE","COLONIE CENTER UNIT 242",,"COLONIE","NY","12205","POINT (-73.82126 42.707547)"
"KINGS","619260","Drug Store","RITE AID #10573","GENOVESE DRUG STORES INC","7501","5TH AVENUE",,,"BROOKLYN","NY","11209","POINT (-74.022761 40.62917)"
"SULLIVAN","660344","Hardware Store","ROCK HILL TRADING POST","214 ROCK HILL DRIVE OPERATING CORP.","214","ROCK HILL DRIVE",,,"ROCK HILL","NY","12775","POINT (-74.597101 41.62551)"
"ULSTER","660579","Drug Store","WALGREENS #17317","WALGREEN EASTERN CO INC","236","MAIN ST.",,,"NEW PALTZ","NY","12561","POINT (-74.073367 41.744077)"
"QUEENS","659285","Grocery Store","FOOD UNIVERSE","SHARON KONZELMAN","75-55","31ST STREET",,,"JACKSON HEIGHTS","NY","11372","POINT (-73.891879 40.758612)"
"NASSAU","659212","Grocery Store","STEW LEONARDS OF FARMINGDALE LLC","STEW LEONARD JR","261","AIRPORT PLAZA BLVD",,,"FARMINGDALE","NY","11735","POINT (-73.420147 40.739252)"
"NASSAU","281622","Hardware Store","BELLMORE HOME CENTER INC","BELLMORE HOME CENTER INC","5135","MERRICK RD",,,"MASSAPEQUA PARK","NY","11762","POINT (-73.446737 40.666339)"
"NEW YORK","659542","Grocery Store","GRISTEDE'S # 533","NAMDOR INC/JOHN CATSIMATIDIS","748","2ND AVENUE",,,"NEW YORK","NY","10017","POINT (-73.97301 40.748739)"
"SCHENECTADY","661219","Grocery Store","FAISAL WEST INDIAN","FAISAL KARIM","859","CRANE STREET",,,"SCHENECTADY","NY","12303","POINT (-73.94828 42.799724)"
"QUEENS","635501","Drug Store","CVS PHARMACY # 499","CVS ALBANY LLC","118","- 10 QUEENS BLVD",,,"FOREST HILLS","NY","11375",
"NIAGARA","660957","Garden Center","TRACTOR SUPPLY COMPANY #2282","TRACTOR SUPPLY COMPANY","7600","FOURTH AVENUE",,,"NIAGARA FALLS","NY","14304","POINT (-78.977905 43.101795)"
"NEW YORK","659854","Dept. Store","TARGET STORE #3229","TARGET STORES","255","GREENWICH ST",,,"NEW YORK","NY","10007","POINT (-74.011456 40.714556)"
"ROCKLAND","661748","Grocery Store","7 ELEVEN STORE #24817D","KEVI ISSA","65","KENNEDY DR",,,"SPRING VALLEY","NY","10977","POINT (-74.057785 41.107037)"
"CHEMUNG","74853","Grocery Store","TOPS #0542","TOPS MARKETS LLC","830","ROUTE 64 CONSUMER SQ PLAZA",,,"ELMIRA","NY","14903",
"SUFFOLK","477639","Grocery Store","7 ELEVEN FOOD STORE  #11168F","MCARDLE MICHAEL","849","NORTH GREENE AVE",,,"LINDENHURST","NY","11757","POINT (-73.376026 40.702219)"
"ONONDAGA","659704","Dept. Store","MARSHALLS STORE #217","MARSHALLS OF MA INC","3405","ERIE BLVD EAST",,,"SYRACUSE","NY","13214","POINT (-76.069925 43.047696)"
"SUFFOLK","478886","Grocery Store","STOP & SHOP SPRMKT #561","STOP & SHOP SUPERMARKET CO LLC","2650","SUNRISE HIGHWAY",,,"EAST ISLIP","NY","11730","POINT (-73.200382 40.742478)"
"SUFFOLK","661478","Grocery Store","7 ELEVEN STORE #15966E","RAM MATLANI","410","MILL ROAD",,,"WESTHAMPTON","NY","11977","POINT (-72.658229 40.82231)"
"SUFFOLK","658350","Grocery Store","ALDI INC #14","ALDI INC","1773","OLD COUNTRY RD",,,"RIVERHEAD","NY","11901","POINT (-72.703899 40.924214)"
"KINGS","656778","Drug Store","WALGREENS #11807","WALGREEN EASTERN CO. INC","5001","CHURCH AVE",,,"BROOKLYN","NY","11203","POINT (-73.930095 40.651763)"
"HERKIMER","660659","Drug Store","WALGREENS #19148","WALGREEN EASTERN CO INC","4","CENTRAL PLZ.",,,"ILION","NY","13357","POINT (-75.036576 43.015479)"
"ORANGE","336903","Other","PETSMART INC #1179","PETSMART INC","88","DUNNING ROAD",,,"MIDDLETOWN","NY","10940","POINT (-74.380816 41.450547)"
"NEW YORK","659555","Grocery Store","7 ELEVEN FOOD STORE #37035A","KYJW CORPORATION/JEONG WOOK HWANG & KYUN","478","3RD AVE",,,"NEW YORK","NY","10016","POINT (-73.978808 40.744776)"
"NEW YORK","628066","Drug Store","CVS PHARMACY # 6062","CVS ALBANY LLC","200","WEST END AVE",,,"MANHATTAN","NY","10023","POINT (-73.985721 40.778114)"
"SCHOHARIE","656861","Drug Store","CVS PHARMACY # 7326","CVS ALBANY, LLC","726","EAST MAIN STREET",,,"COBLESKILL","NY","12043","POINT (-74.476711 42.679438)"
"MONROE","262904","Landscaper","DAVEY TREE EXPERT CO","DAVEY TREE EXPERT CO","88","SILVER STREET",,,"ROCHESTER","NY","14611","POINT (-77.633512 43.153588)"
"SARATOGA","416823","Drug Store","CVS PHARMACY # 2226","CVS ALBANY LLC","12","SOUTH CENTRAL AVE",,,"MECHANICVILLE","NY","12118","POINT (-73.688093 42.902785)"
"MONROE","262714","Hardware Store","LOWE'S HOME CTR #1581","LOWES HOME CENTERS, LLC","900","FIVE MILE LINE ROAD",,,"WEBSTER","NY","14580","POINT (-77.474689 43.211738)"
"ONEIDA","661897","Other","OLLIE'S BARGAIN OUTLET #427","JOHN SWYGERT","1899","BLACK RIVER BLVD",,,"ROME","NY","13440","POINT (-75.4362 43.23623)"
"BRONX","608393","Drug Store","CVS PHARMACY # 7066","CVS ALBANY LLC","565","WEST 235TH STREET",,,"BRONX","NY","10463","POINT (-73.910599 40.885773)"
"YATES","572758","Grocery Store","ALDI INC #39","ALDI INC","204","LIBERTY STREET",,,"PENN YAN","NY","14527","POINT (-77.055762 42.659144)"
"YATES","661487","Other","INDIAN PINES FRUIT STAND","KARA HINSON & DALE LANE","2406","STATE ROUTE 54A",,,"PENN YAN","NY","14527","POINT (-77.067704 42.658654)"
"NASSAU","659466","Grocery Store","WESTERN BEEF #031","EUGENE ACEVEDO","61","SECOND STREET",,,"MINEOLA","NY","11501","POINT (-73.635939 40.742549)"
"KINGS","661712","Dept. Store","TARGET STORE T-3356","TARGET CORPORATION","8973-95","BAY PARKWAY",,,"BROOKLYN","NY","11214","POINT (-74.001722 40.594251)"
"NIAGARA","658953","Other","DOLLAR TREE #03575","DOLLAR TREE","810","PORTAGE ROAD",,,"NIAGARA FALLS","NY","14301","POINT (-79.050347 43.097357)"
"SUFFOLK","472316","Other","COSTCO WHOLESALE CORP  #230","WALTER JELINEK","125","BEACON DRIVE",,,"HOLBROOK","NY","11741","POINT (-73.051619 40.773221)"
"KINGS","657602","Floral Shop","MARINE FLORISTS","TSENTZELIS, DIMITRIOS","1995","FLATBUSH AVE",,,"BROOKLYN","NY","11234","POINT (-73.935173 40.62103)"
"FRANKLIN","662087","Floral Shop","ADIRONDACK FLORIST","RICK GADBOIS","4171","STE RTE 11","SUITE B",,"MALONE","NY","12953","POINT (-74.248155 44.867637)"
"WESTCHESTER","552083","Other","MILLWOOD GARDEN NURSERY","MIKE MONACO INC","5","STATION PLACE ROUTE 133",,,"MILLWOOD","NY","10546",
"QUEENS","638534","Drug Store","RITE AID #4610","RITE AID OF NEW YORK INC","89-10","JAMAICA AVENUE",,,"WOODHAVEN","NY","114212040","POINT (-73.855152 40.692744)"
"NIAGARA","295041","Other","BIG LOTS #0831","BIG LOTS STORES INC","5987","SOUTH TRANSIT ROAD",,,"LOCKPORT","NY","14094","POINT (-78.696887 43.136749)"
"NASSAU","286995","Dept. Store","WAL-MART #2583","WAL-MART STORES EAST LP","1123","JERUSALEM AVENUE",,,"UNIONDALE","NY","11553","POINT (-73.577789 40.694185)"
"CORTLAND","117543","Roadside Stand","REAKES COUNTRY GOODS","REAKES, KAY& DARREL","4107","ROUTE 13",,,"TRUXTON","NY","13158",
"QUEENS","660564","Drug Store","WALGREENS #19794","WALGREEN EASTERN CO INC","43-02","DITMARS BLVD.",,,"ASTORIA","NY","11105","POINT (-73.903554 40.77108)"
"NASSAU","287319","Other","BJS WHOLESALE CLUB #0160","BJS WHOLESALE CLUB INC","3635","HEMPSTEAD TURNPIKE",,,"LEVITTOWN","NY","11756","POINT (-73.49974 40.725642)"
"STEUBEN","659976","Roadside Stand","RICHARD MATTISON","RICHARD MATTISON","6720","ROOSEVELT AVE",,,"BATH","NY","14810","POINT (-77.301986 42.328929)"
"SUFFOLK","657473","Floral Shop","SPIRIT FLOWER SHOP","RAYMON G TILTON","37","W JERICHO TPKE",,,"HUNTINGTON STATION","NY","11746","POINT (-73.410849 40.828401)"
"DUTCHESS","137490","Drug Store","CVS PHARMACY # 5052","CVS ALBANY LLC","4246","ALBANY POST RD SUITE 2",,,"HYDE PARK","NY","12538","POINT (-73.932282 41.781817)"
"NEW YORK","660389","Floral Shop","THE SILL INC","ELIZA BLANK","448","AMSTERDAM AVE",,,"NEW YORK","NY","10024","POINT (-73.977116 40.784804)"
"ORANGE","660591","Drug Store","WALGREENS #19693","WALGREEN EASTERN CO INC","96","DOLSON AVENUE",,,"MIDDLETOWN","NY","10940","POINT (-74.422827 41.431553)"
"SARATOGA","659820","Floral Shop","ANNAS FLOWERS","GEORGE HANNAH","58","MILTON AVE",,,"BALLSTON SPA","NY","12020","POINT (-73.848809 43.002703)"
"ONONDAGA","311558","Other","BRANG COMPANY INC","DONALD J BRANG","7050","CEDAR BAY ROAD",,,"FAYETTEVILLE","NY","13066","POINT (-76.033867 43.043214)"
"WESTCHESTER","559689","Garden Center","COSTCO WHOLESALE CORP #326","WALTER JELINEK","1","WESTCHESTER AVENUE",,,"PORT CHESTER","NY","10573","POINT (-73.661009 40.999552)"
"NASSAU","659784","Grocery Store","7 ELEVEN FOOD STORE #35302A","7 ELEVEN FOOD STORE #35302A","400","E. JERICHO TPKE",,,"MINEOLA","NY","11501","POINT (-73.622324 40.756076)"
"NEW YORK","662023","Grocery Store","AGATA & VALENTINA","JOSEPH MUSCO","1505","1ST AVENUE",,,"NEW YORK","NY","10075","POINT (-73.952858 40.772108)"
"BROOME","30290","Grocery Store","WEIS MARKETS INC # 213","WEIS MARKETS INC","307","CONKLIN AVENUE",,,"BINGHAMTON","NY","13903","POINT (-75.888057 42.096738)"
"ONONDAGA","315594","Grocery Store","VANBUREN FOOD MRKTS INC","SENECA KNOLLS BIG M","7252","STATE FAIR BLVD",,,"SYRACUSE","NY","13209","POINT (-76.286756 43.121392)"
"WESTCHESTER","553340","Drug Store","RITE AID #10547","GENOVESE DRUG STORES INC","196","EAST HARTSDALE AVENUE",,,"HARTSDALE","NY","10530","POINT (-73.796146 41.01241)"
"CHAUTAUQUA","61247","Drug Store","RITE AID #10874","ECKERD CORPORATION","40","SOUTH ERIE STREET",,,"MAYVILLE","NY","14757","POINT (-79.503819 42.253262)"
"RENSSELAER","657378","Garden Center","TRACTOR SUPPLY COMPANY #1543","TRACTOR SUPPLY COMPANY","864","HOOSICK RD",,,"TROY","NY","12180","POINT (-73.628508 42.751747)"
"LIVINGSTON","660469","Drug Store","WALGREENS #19766","WALGREEN EASTERN CO INC","9519","FOSTER WHEELER RD",,,"DANSVILLE","NY","14437","POINT (-77.715117 42.566679)"
"ONTARIO","661851","Roadside Stand","VINCENT B MASLYN","VINCENT MASLYN","7","NORTH NEWARK ST",,,"PHELPS","NY","14532","POINT (-77.075599 42.963706)"
"SUFFOLK","477177","Grocery Store","7 ELEVEN FOOD STORE  #11231C","SON CHARLES","1541","BRENTWOOD ROAD",,,"BAYSHORE","NY","11706","POINT (-73.244916 40.756195)"
"NEW YORK","660394","Grocery Store","TRADER JOES #539","TRADER JOES EAST INC","233","SPRING STREET",,,"NEW YORK","NY","10013","POINT (-74.004806 40.725573)"
"SUFFOLK","660365","Grocery Store","MONTAUK IGA LLC","BOZZUTO'S INC","654","MONTAUK HIGHWAY",,,"MONTAUK","NY","11954","POINT (-71.948717 41.03202)"
"ALBANY","657902","Gas Station","SHOPRITE SUPERMARKETS INC","SHOP RITE SUPERMARKETS INC","651","CENTRAL AVE",,,"ALBANY","NY","12206","POINT (-73.784187 42.674976)"
"NASSAU","287819","Garden Center","ZAINO NURSERY","ANTHONY & MIKE ZAINO","900","JERICHO TPKE",,,"WESTBURY","NY","11590","POINT (-73.611784 40.760979)"
"PUTNAM","379597","Drug Store","RITE AID #0594","RITE AID OF NEW YORK INC","1896","ROUTE 6",,,"CARMEL","NY","10512","POINT (-73.669306 41.414117)"
"MADISON","660602","Drug Store","WALGREENS #17213","WALGREEN EASTERN CO INC","423","S. PETERSBORO ST.",,,"CANASTOTA","NY","13032","POINT (-75.752152 43.070382)"
"SUFFOLK","661306","Other","DOLLAR TREE #07893","DEBORAH E MILLER","275","ROUTE 25A",,,"MILLER PLACE","NY","11764","POINT (-72.991429 40.941347)"
"NASSAU","661701","Grocery Store","KINGS FOOD MARKET #3619","ACME MARKETS INC","870","FRANKLIN AVENUE",,,"GARDEN CITY","NY","11530","POINT (-73.634985 40.727872)"
"SUFFOLK","659352","Grocery Store","SHOP RITE OF DEER PARK","KENNETH V THOMPSON","1960","DEER PARK AVENUE",,,"DEER PARK","NY","11729","POINT (-73.330553 40.764387)"
"ST. LAWRENCE","403047","Garden Center","TRACTOR SUPPLY COMPANY #1138","TRACTOR SUPPLY COMPANY","7473","US HIGHWAY 11",,,"POTSDAM","NY","136763542","POINT (-75.028794 44.664596)"
"ORANGE","337624","Garden Center","GARDEN GATE NURSERY","ELFERS JACQUELINE & PAUL","1147","ROUTE 17M",,,"CHESTER","NY","10918","POINT (-74.218995 41.344847)"
"FULTON","661896","Other","OLLIE'S BARGAIN OUTLET #425","JOHN SWYGERT","224","NORTH COMRIE AVE",,,"JOHNSTOWN","NY","12095","POINT (-74.361062 43.015053)"
"NASSAU","661711","Other","DOLLAR TREE #08409","DOLLAR TREE STORES INC","2914","LONG BEACH ROAD",,,"OCEANSIDE","NY","11572","POINT (-73.639795 40.640055)"
"LIVINGSTON","660101","Other","PROMETHEUS FARM","ROBERT GALLAGHER","5804","DECKER ROAD",,,"LIVONIA","NY","14487","POINT (-77.703062 42.773843)"
"ESSEX","660719","Landscaper","ADK GARDENS","ERIC WELCH","1321","US ROUTE 9",,,"SCHROON LAKE","NY","12870","POINT (-73.756968 43.852398)"
"RICHMOND","640530","Drug Store","WALGREENS #10475","WALGREEN EASTERN COMPANY INC.","2270","CLOVE ROAD",,,"STATEN ISLAND","NY","103051524","POINT (-74.081607 40.599006)"
"NASSAU","287615","Grocery Store","7 ELEVEN FOOD STORE  #34138A","KHURANA RAVI K","11","EAST OLD COUNTRY RD",,,"HICKSVILLE","NY","11801","POINT (-73.51919 40.764312)"
"CHENANGO","87458","Farm Supply","HOMESTEAD PET & FARM SUPPLY INC","BARBARA & VINCENT MONTUORI","3","RAILROAD ST",,,"NEW BERLIN","NY","13411","POINT (-75.327951 42.624253)"
"FULTON","658903","Other","DOLLAR TREE #01929","DOLLAR TREE","215","NORTH COMRIE AVENUE",,,"JOHNSTOWN","NY","12095","POINT (-74.361234 43.016045)"
"ORANGE","658971","Other","DOLLAR TREE #04407","DOLLAR TREE","115","TEMPLE HILL RD","STE 1300",,"NEW WINDSOR","NY","12553","POINT (-74.058325 41.455511)"
"NIAGARA","294520","Grocery Store","NIAGARA PRODCE LOCKPORT","JUDY CHESKO","112","CHESTNUT STREET",,,"LOCKPORT","NY","14094","POINT (-78.685864 43.172795)"
"ORANGE","334918","Drug Store","RITE AID #10551","ECKERD CORPORATION","701","ROUTE 211 EAST",,,"MIDDLETOWN","NY","10941","POINT (-74.36046 41.465685)"
"CLINTON","659827","Other","DOLLAR TREE #06404","DOLLAR TREE STORES INC","876","STATE  ROUTE 11",,,"CHAMPLAIN","NY","12919","POINT (-73.444654 44.978352)"
"DUTCHESS","138982","Drug Store","RITE AID #3753","RITE AID OF NEW YORK INC","129","SOUTH AVENUE",,,"POUGHKEEPSIE","NY","126014510","POINT (-73.931424 41.694132)"
"KINGS","611674","Grocery Store","7 ELEVEN FOOD STORE  #32884A","PAIK RICHARD D","6415","3RD AVENUE",,,"BROOKLYN","NY","11220","POINT (-74.023164 40.639507)"
"NASSAU","659331","Grocery Store","7 ELEVEN FOOD STORE #36887B","SUSAN ELKORDY","276","UNIONDALE AVE",,,"UNIONDALE","NY","11553","POINT (-73.592373 40.709127)"
"ERIE","661423","Grocery Store","7 ELEVEN STORE #35148B","MICHAEL J HEIEL","2078","NIAGARA STREET",,,"BUFFALO","NY","14207","POINT (-78.905481 42.940831)"
"CORTLAND","118718","Other","CORTLAND COUNTY SOIL & WATER DISTRICT","EUGENE WHITE","100","GRANGE PLACE",,,"CORTLAND","NY","13045","POINT (-76.17012 42.606661)"
"DELAWARE","125546","Farm Supply","STAMFORD FARMERS COOP","GEORGE WILSON","6","SOUTH STREET",,,"STAMFORD","NY","12167","POINT (-74.621154 42.409357)"
"SUFFOLK","471566","Grocery Store","7 ELEVEN FOOD STORE  #20480B","CASTALDO PHILIP","362","VETERANS HIGHWAY",,,"COMMACK","NY","11725","POINT (-73.259438 40.832396)"
"DUTCHESS","139949","Grocery Store","HANNAFORD FOOD & DRUG #8335","MARTINS FOODS OF SOUTH BURLINGTON LLC","162","ROUTE 22",,,"PAWLING","NY","12564","POINT (-73.58465 41.537061)"
"ALBANY","660626","Drug Store","WALGREENS #19884","WALGREEN EASTERN CO INC","463","ALBANY SHAKER RD.",,,"ALBANY","NY","12211","POINT (-73.776377 42.705366)"
"BROOME","39355","Hardware Store","LOWE'S HOME CTR #1502","LOWES HOME CENTERS, LLC","1318","UPPER FRONT STREET",,,"BINGHAMTON","NY","13901","POINT (-75.893385 42.161865)"
"OTSEGO","363213","Hardware Store","HOME DEPOT THE #6173","HOME DEPOT USA INC","659","STATE HIGHWAY 28",,,"ONEONTA","NY","13820","POINT (-75.059849 42.444816)"
"NASSAU","660578","Drug Store","WALGREENS #18287","WALGREEN EASTERN CO INC","14","SHORE RD.",,,"PORT WASHINGTON","NY","11050","POINT (-73.69902 40.833783)"
"NIAGARA","295642","Drug Store","CVS PHARMACY # 589","CVS ALBANY LLC","955","PAYNE AVE",,,"NORTH TONAWANDA","NY","14120","POINT (-78.877714 43.050287)"
"LEWIS","238447","Landscaper","ABELS LANDSCAPE & NURSERY","ABEL MARK A","10857","STATE HIGHWAY 812",,,"CROGHAN","NY","13327","POINT (-75.373287 43.971064)"
"SUFFOLK","661758","Grocery Store","LIDL","LUS LICENSING LLC","211","MIDDLE COUNTRY RD",,,"SELDEN","NY","11784","POINT (-73.024002 40.867888)"
"QUEENS","632957","Drug Store","WALGREENS #1572","WALGREEN EASTERN COMPANY INC","44-15","KISSENA BOULEVARD",,,"FLUSHING","NY","11355","POINT (-73.8223 40.753476)"
"ONTARIO","658906","Other","DOLLAR TREE #01984","DOLLAR TREE","389","HAMILTON STREET",,,"GENEVA","NY","14456","POINT (-76.999252 42.857878)"
"FRANKLIN","660968","Garden Center","RUNNINGS","RUNNINGS SUPPLY INC","230","WEST MAIN ST",,,"MALONE","NY","12953","POINT (-74.30794 44.848227)"
"ESSEX","662077","Floral Shop","KIT + SYL STUDIO","KIT + SYL STUDIO","2765","ESSEX RD.",,,"ESSEX","NY","12936","POINT (-73.351761 44.311176)"
"RICHMOND","645870","Drug Store","CVS PHARMACY # 677","CVS ALBANY LLC","2655","RICHMOND AVE",,,"STATEN ISLAND","NY","10314","POINT (-74.168937 40.58237)"
"ROCKLAND","660955","Grocery Store","7-ELEVEN 15528C","7-ELEVEN MARKET","75","NORTH CENTRAL HIGHWAY",,,"GARNERVILLE","NY","10923","POINT (-73.99632 41.214986)"
"SUFFOLK","473123","Grocery Store","KING KULLEN GROCERY CO INC #15","KING KULLEN GROCERY CO INC","540-548","MONTAUK HIGHWAY",,,"CENTER MORICHES","NY","11934","POINT (-72.799087 40.800406)"
"ONONDAGA","318007","Drug Store","KPH HEALTHCARE DBA KINNEY DRUGS #61","KPH HEALTHCARE SERVICES INC","8150","THOMPSON ROAD",,,"CICERO","NY","13039","POINT (-76.092886 43.166398)"
"MONTGOMERY","275108","Dept. Store","TARGET STORE #2461","TARGET CORPORATION","100","AMSTERDAM COMMONS",,,"AMSTERDAM","NY","12010","POINT (-74.193358 42.965849)"
"SUFFOLK","473709","Hardware Store","LOWE'S HOME CTR #2233","LOWES HOME CENTERS, LLC","2150","NESCONSET HIGHWAY",,,"STONEY BROOK","NY","11790","POINT (-73.128371 40.870771)"
"KINGS","617042","Drug Store","CVS PHARMACY # 2431","CVS ALBANY LLC","4112","AVENUE U",,,"BROOKLYN","NY","11234","POINT (-73.9237 40.608974)"
"JEFFERSON","227510","Drug Store","KPH HEALTHCARE DBA KINNEY DRUGS #13","KPH HEALTHCARE SERVICES INC","1729","STATE STREET",,,"WATERTOWN","NY","136013104","POINT (-75.879624 43.966836)"
"ONEIDA","661095","Landscaper","PJS TRUCKING & LANDSCAPING LLC","KARIN L MILLER","4991","OLD ONEIDA ROAD",,,"VERONA","NY","13478","POINT (-75.553098 43.15462)"
"OSWEGO","659795","Grocery Store","TOPS #599","TOPS MARKETS LLC","409","FULTON ST",,,"HANNIBAL","NY","13074","POINT (-76.572666 43.322019)"
"SUFFOLK","659762","Dept. Store","MARSHALLS STORE #478","MARSHALLS OF MA, INC","834A","WALT WHITMAN ROAD",,,"MELVILLE","NY","11747","POINT (-73.412426 40.799392)"
"QUEENS","639829","Grocery Store","7 ELEVEN FOOD STORE  #27760C","YOO JUNG SIK","22-50","COLLEGE POINT",,,"COLLEGE POINT","NY","11356","POINT (-73.846104 40.778765)"
"NASSAU","287004","Other","PUBLISHERS CLEARING HOUSE LLC","PUBLISHERS CLEARING HOUSE LLC","300","JERICHO QUADRANGLE","#300",,"JERICHO","NY","11753",
"QUEENS","659752","Dept. Store","MARSHALLS STORE #685","MARSHALLS OF MA, INC","96-05","QUEENS BLVD",,,"REGO PARK","NY","11374","POINT (-73.862046 40.730223)"
"WASHINGTON","661615","Dept. Store","BIG LOTS STORES - PNS, LLC  #4714","BRUCE THORN & NICHOLAS EVANS","1251","STATE ROUTE 29",,,"GREENWICH","NY","12834","POINT (-73.510759 43.09756)"
"NEW YORK","657861","Grocery Store","WHOLE FOODS MARKET","WHOLE FOODS MARKET INC/ROBERT LANG","250","EAST 57TH STREET",,,"NEW YORK","NY","10022","POINT (-73.966028 40.759616)"
"NASSAU","284890","Grocery Store","KING KULLEN GROCERY CO INC #11","KING KULLEN GROCERY CO INC","3284","HEMPSTEAD TURNPIKE",,,"LEVITTOWN","NY","11756","POINT (-73.515466 40.725853)"
"LEWIS","239155","Landscaper","MERRY GARDENS THE","MERRY PENNY L","6962","KIRSCHNERVILLE ROAD","PO BOX 148",,"CROGHAN","NY","13327","POINT (-75.389822 43.891658)"
"NEW YORK","660024","Other","GOPHER BROKE FARM LLC","GEORGE NASH, JANE WATERMAN",,"SW COR MADISON AVE &124TH ST","MARCUS GARVEY PARK",,"NEW YORK","NY","10027","POINT (-73.953549 40.811894)"
"ERIE","147579","Grocery Store","ALDI INC #89","ALDI INC","4259","TRANSIT ROAD",,,"WILLIAMSVILLE","NY","14221","POINT (-78.69679 42.963604)"
"BROOME","34523","Roadside Stand","ROBBIES PRODUCE STAND","GRANNIS ROBERT","2313","OLD VESTAL ROAD",,,"VESTAL","NY","13850","POINT (-76.014888 42.097087)"
"ERIE","148949","Grocery Store","TOPS #0118","TOPS MARKETS LLC","123","GREY STREET",,,"EAST AURORA","NY","14052","POINT (-78.632636 42.765543)"
"OSWEGO","356380","Grocery Store","PRICE CHOPPER #226","PRICE CHOPPER OPERATING CO INC","137","STATE ROUTE 104",,,"OSWEGO","NY","13126","POINT (-76.486381 43.460793)"
"WESTCHESTER","661259","Grocery Store","YORKTOWN HEIGHTS GROCERY INC","CARL DELPRETE","380","DOWNING DRIVE",,,"YORKTOWN HEIGHTS","NY","10598","POINT (-73.783587 41.274573)"
"WESTCHESTER","656812","Drug Store","WALGREENS #11509","WALGREENS EASTERN CO. INC.","6","MCLEAN AVE",,,"YONKERS","NY","10705","POINT (-73.895926 40.92066)"
"WESTCHESTER","661679","Grocery Store","7 ELEVEN STORE #38181A","HEMA DESAI","858","SCARSDALE AVENUE",,,"SCARSDALE","NY","10583","POINT (-73.808612 40.987477)"
"MONROE","658832","Other","DOLLAR TREE #00604","DOLLAR TREE","3333","WEST HENRIETTA RD","SUITE B2",,"ROCHESTER","NY","14623","POINT (-77.636821 43.087113)"
"SUFFOLK","476168","Grocery Store","STOP & SHOP SPRMKT #2551","STOP & SHOP SUPERMARKET CO LLC","194","W MONTAUK HIGHWAY",,,"HAMPTON BAYS","NY","11946","POINT (-72.537724 40.87357)"
"WESTCHESTER","660966","Grocery Store","7 ELEVEN #34351H","7 ELEVEN, INC.","167","MARTINE AVENUE",,,"WHITE PLAINS","NY","10601","POINT (-73.76703 41.031211)"
"SCHOHARIE","433761","Other","PATRIA GARDENS","DRISCOLL NEIL & CLAIRE","887","PATRIA ROAD-PO BOX 120",,,"WEST FULTON","NY","12194",
"ONONDAGA","660113","Other","BYRNE DAIRY #8","SONBYRNE SALES INC","2307","BREWERTON ROAD",,,"SYRACUSE","NY","13211","POINT (-76.145549 43.099484)"
"SUFFOLK","476858","Drug Store","CVS PHARMACY # 2285","CVS ALBANY LLC","111","TERRY ROAD",,,"SMITHTOWN","NY","11787","POINT (-73.171736 40.850538)"
"PUTNAM","659277","Grocery Store","ACME #2422","DANIEL CROCE","1511","NY ROUTE 22",,,"BREWSTER","NY","10509","POINT (-73.577036 41.421713)"
"NASSAU","280279","Hardware Store","HOME DEPOT THE #1208","HOME DEPOT USA INC","600","HEMPSTEAD TURNPIKE",,,"ELMONT","NY","11003","POINT (-73.70262 40.707357)"
"SUFFOLK","475750","Hardware Store","HOME DEPOT THE #1218","HOME DEPOT USA INC","1101","SUNRISE HIGHWAY",,,"COPIAGUE","NY","11726","POINT (-73.408706 40.689181)"
"MONROE","261100","Dept. Store","WAL-MART #1619","WAL-MART STORES EAST LP","1200","MARKET PLACE DRIVE",,,"ROCHESTER","NY","14623",
"BRONX","660286","Other","DOLLAR TREE #07224","DOLLAR TREE STORES INC","600","EAST 138TH STREET",,,"BRONX","NY","10454","POINT (-73.916184 40.806276)"
"SUFFOLK","477185","Grocery Store","7 ELEVEN FOOD STORE  #11237D","BATHIJA RAJESH P","1201","MONTAUK HIGHWAY",,,"PATCHOGUE","NY","11772","POINT (-72.96859 40.769686)"
"JEFFERSON","228926","Hardware Store","LOWE'S HOME CTR #1022","LOWES HOME CENTERS, LLC","20828","NEW YORK STATE - ROUTE 3",,,"WATERTOWN","NY","13601","POINT (-75.958576 43.974143)"
"SARATOGA","416086","Drug Store","CVS PHARMACY # 996","CVS ALBANY LLC","1544","CRESCENT ROAD",,,"CLIFTON PARK","NY","12065","POINT (-73.77421 42.819017)"
"ERIE","145605","Hardware Store","LOWE'S HOME CTR #1883","LOWES HOME CENTERS, LLC","1659","NIAGARA FALLS BLVD",,,"AMHERST","NY","14228","POINT (-78.822326 43.000277)"
"ERIE","140544","Drug Store","RITE AID #10828","ECKERD CORPORATION","2453","ELMWOOD AVENUE",,,"KENMORE","NY","14217","POINT (-78.878738 42.964184)"
"NEW YORK","661883","Floral Shop","THE PLANT STORE, INC.","PHILLIP L. ANDERSEN","151","WEST 28TH STREET",,,"NEW YORK","NY","10001","POINT (-73.992729 40.746976)"
"QUEENS","634464","Grocery Store","7 ELEVEN FOOD STORE #34228A","JUNG HONG JIK","250-50","JERICHO TPKE",,,"BELLEROSE","NY","11426","POINT (-73.714742 40.72674)"
"WESTCHESTER","551318","Floral Shop","FLOWER BASKET THE","PLEASANTVILLE FLOWER BASKET INC","399","MANVILLE ROAD",,,"PLEASANTVILLE","NY","10570","POINT (-73.793039 41.135146)"
"ERIE","661894","Other","BIG LOTS STORES - PNS, LLC  #4743","BRUCE THORN","2221","MAIN STREET",,,"COLLINS","NY","14034","POINT (-78.926088 42.496653)"
"NEW YORK","661741","Grocery Store","7 ELEVEN INC STORE #35642J","JOSEPH DEPINTO, JAMES SCOTT BAREFIELD","239","E 14TH ST",,,"NEW YORK","NY","10003","POINT (-73.985561 40.732605)"
"NASSAU","289472","Drug Store","RITE AID #10616","GENOVESE DRUG STORES INC","400","SUNRISE HIGHWAY",,,"LYNBROOK","NY","11563","POINT (-73.669323 40.655293)"
"OSWEGO","660336","Grocery Store","BUCKINGHAM MARKET","BUCKINGHAM BROTHERS LLC","45","REDFIELD STREET",,,"CONSTANTIA","NY","13044","POINT (-76.002611 43.250113)"
"NASSAU","286093","Drug Store","CVS PHARMACY # 1084","CVS ALBANY LLC","114","SOUTH LONG BEACH ROAD",,,"FREEPORT","NY","11520","POINT (-73.589689 40.653069)"
"CHEMUNG","659952","Garden Center","BIG FLATS GARDEN CENTER & CREAMERY","SCOTT JOVANELLI","76","MAIN STREET",,,"BIG FLATS","NY","14814","POINT (-76.936684 42.134586)"
"CAYUGA","660911","Drug Store","WALGREENS #19612","WALGREEN EASTERN CO INC","314","GENESEE STREET",,,"AUBURN","NY","13021","POINT (-76.585681 42.921876)"
"SUFFOLK","471104","Other","SITE ONE LANDSCAPE SUPPLY # 559","JOHN DEERE LANDSCAPES","188","KROEMER AVE",,,"RIVERHEAD","NY","11901","POINT (-72.707628 40.922117)"
"TIOGA","659512","Landscaper","WALDMAN LANDSCAPING AND LAWN CARE","JOSHUA WALDMAN","7817","RT 549",,,"MILLERTON","PA","16936","POINT (-76.92551 41.950548)"
"RICHMOND","656772","Grocery Store","7 ELEVEN FOOD STORE #34362A","7 ELEVEN INC. MARKET 2421","1740","HYLAN BLVD",,,"STATEN ISLAND","NY","10305","POINT (-74.092251 40.586231)"
"BRONX","601529","Grocery Store","7 ELEVEN FOOD STORE #32116C","CHO KYUWON","1590","HUTCHINSON RVR P",,,"BRONX","NY","10462","POINT (-73.837162 40.842703)"
"NASSAU","661661","Grocery Store","WHOLE FOODS MARKET","WHOLE FOODS MARKETS GROUP INC","867","EAST GATE BLVD",,,"GARDEN CITY","NY","11530","POINT (-73.606914 40.742683)"
"SUFFOLK","662072","Grocery Store","PRIYA 721 INC DBA 7 ELEVEN STORE #37025B","7 ELEVEN CORP","721","FLANDERS RD.",,,"RIVERHEAD","NY","11901","POINT (-72.634165 40.909678)"
"WESTCHESTER","557842","Other","BJS WHOLESALE CLUB #201","BJS WHOLESALE CLUB INC","820-828","PELHAM PARKWAY",,,"PELHAM MANOR","NY","10803","POINT (-73.820434 40.893105)"
"KINGS","659340","Grocery Store","AZ AZ CORNER FRUIT AND VEGETABLE INC.","SAMI ALKUTAINI","101","NASSAU AVE",,,"BROOKLYN","NY","11222","POINT (-73.950064 40.724015)"
"NASSAU","659291","Landscaper","DANK INC","LISA MARSALONA","5800","OLD SUNRISE HIGHWAY",,,"MASSAPEQUA","NY","11758","POINT (-73.42621 40.678818)"
"MONROE","661653","Grocery Store","7 ELEVEN STORE #40237","RAWA S ANABI & SAM ANABI","3550","MOUNT READ BOULEVARD",,,"ROCHESTER","NY","14616","POINT (-77.659039 43.22343)"
"DUTCHESS","659571","Roadside Stand","MIGLIORELLI FARM LLC","KENNETH A MIGLIORELLI","7357","S BROADWAY",,,"RED HOOK","NY","12571","POINT (-73.880894 41.988186)"
"NASSAU","281228","Drug Store","WALGREENS #5955","WALGREEN EASTERN COMPANY INC","2282","JERICHO TURNPIKE",,,"NEW HYDE PARK","NY","110404725","POINT (-73.664328 40.740364)"
"WYOMING","660215","Floral Shop","ASH-LINS ELEGANT ROSE FLORIST","LISA SEEWALDT","140","NORTH MAIN STREET",,,"WARSAW","NY","14569","POINT (-78.132607 42.743081)"
"ERIE","661197","Grocery Store","7 ELEVEN #35236A","RAWA S ANABI AND SAM ANABI","460","HERTEL AVENUE",,,"BUFFALO","NY","14207","POINT (-78.890854 42.946255)"
"CHEMUNG","78693","Drug Store","RITE AID #0260","RITE AID OF NEW YORK INC","1000","PENNSYLVANIA AVENUE",,,"ELMIRA","NY","149042609","POINT (-76.811341 42.060178)"
"NIAGARA","661189","Grocery Store","7 ELEVEN #35172A","RAWA S ANABI AND SAM ANABI","9101","NIAGARA FALLS BOULEVARD",,,"NIAGARA FALLS","NY","14304","POINT (-78.957349 43.093864)"
"KINGS","660820","Drug Store","WALGREENS #17772","WALGREEN EASTERN CO INC","462","5TH AVENUE",,,"BROOKLYN","NY","11215","POINT (-73.986882 40.668469)"
"SUFFOLK","659629","Dept. Store","TJ MAXX STORE #76","TJX COMPANIES INC","1120","OLD COUNTRY ROAD",,,"RIVERHEAD","NY","11901","POINT (-72.676555 40.932039)"
"NEW YORK","661581","Grocery Store","29 E 104TH ST RETAIL CORP","ALEXANDER GATANAS","29","E 104 ST",,,"NEW YORK","NY","10029","POINT (-73.950879 40.792477)"
"QUEENS","633109","Grocery Store","TRADER JOES #557","TRADER JOES EAST INCORPORATED","90-30","METROPOLITAN AVENUE",,,"REGO PARK","NY","11374","POINT (-73.858309 40.711628)"
"ONONDAGA","311063","Drug Store","WALGREENS #9413","WALGREEN EASTERN COMPANY INC","5206","WEST GENESSEE STREET",,,"CAMILLUS","NY","130312202","POINT (-76.266342 43.041356)"
"QUEENS","660804","Other","INDAR PRABHUDIAL","INDAR PRABHUDIAL","110-26","106 STREET",,,"OZONE PARK","NY","11417","POINT (-73.833253 40.677777)"
"CLINTON","96493","Other","PETSMART INC #1290","PETSMART INC","67","CONSUMER SQUARE",,,"PLATTSBURGH","NY","12901","POINT (-73.490042 44.693567)"
"DUTCHESS","659211","Other","TASTE NY AT TODD HILL","BRAD ROELLER","4640","TACONIC STATE PKWAY NORTH",,,"LAGRANGEVILLE","NY","12540",
"QUEENS","661235","Grocery Store","7 ELEVEN #39793B","AMARPAL S GREWAL",,"BUILDING 37","LAGUARDIA AIRPORT",,"FLUSHING","NY","11371","POINT (-73.873808 40.771167)"
"MADISON","251723","Hardware Store","LOWE'S HOME CTR #2289","LOWES HOME CENTERS, LLC","1200","LOWES DRIVE",,,"ONEIDA","NY","13421","POINT (-75.68515 43.080585)"
"SUFFOLK","470101","Landscaper","VAN DE WETERING INC","ANTOA VAN DE WETERING","550","EAGLE NEST COURT",,,"LAUREL","NY","11948","POINT (-72.556445 40.961666)"
"ONONDAGA","312805","Other","SILVER SPRING FARM MARKET","LUCHSINGER SUSAN","4461","WEST SENECA TURNPIKE",,,"SYRACUSE","NY","13215","POINT (-76.203862 42.998018)"
"GREENE","658857","Other","DOLLAR TREE #01187","DOLLAR TREE","340","WEST BRIDGE STREET",,,"CATSKILL","NY","12414","POINT (-73.887187 42.214043)"
"ONONDAGA","658916","Other","DOLLAR TREE #02488","DOLLAR TREE","7421","OSWEGO ROAD",,,"LIVERPOOL","NY","13090","POINT (-76.218608 43.127962)"
"ONONDAGA","658156","Other","EMMI & SONS INC","EMMI & SONS INC","2100","PARK ST",,,"SYRACUSE","NY","13208","POINT (-76.16892 43.073049)"
"WESTCHESTER","661272","Dept. Store","KM TRANSFORM LLC #9414","ROBERT RIECKER","355","DOWNING DRIVE","ROUTE 118",,"YORKTOWN HEIGHTS","NY","10598","POINT (-73.782571 41.274217)"
"SUFFOLK","479385","Drug Store","RITE AID #10663","GENOVESE DRUG STORES INC","65","ROUTE 111",,,"SMITHTOWN","NY","11787","POINT (-73.187548 40.853736)"
"NEW YORK","659142","Drug Store","DUANE READE #14465","DUANE READE, INC","949","THIRD AVE",,,"NEW YORK","NY","10022","POINT (-73.967569 40.760213)"
"ROCKLAND","397172","Other","BJS WHOLESALE CLUB #0077","BJS WHOLESALE CLUB INC","1050","PALIDADES CENTER DRIVE",,,"WEST NYACK","NY","10994","POINT (-73.95618 41.100014)"
"WESTCHESTER","659375","Grocery Store","KEY FOOD SUPERMARKET","ANTHONY PENA","130","MIDLAND AVENUE",,,"PORT CHESTER","NY","10573","POINT (-73.669213 40.991964)"
"SUFFOLK","657433","Other","PETCO #3707","PETCO ANIMAL SUPPLIES STORES INC","346","ROUTE 25A, SUTE 140",,,"ROCKY POINT","NY","11778","POINT (-72.943962 40.944953)"
"WARREN","524175","Hardware Store","HARDWARE STORE THE","PERRY, RAYMOND","69","LAKE AVENUE",,,"LAKE LUZERNE","NY","12846","POINT (-73.833827 43.31008)"
"SUFFOLK","661088","Grocery Store","7 ELEVEN STORE # 38426A","SAMIR SHAH & SHOBHNABEN SHAH","250","SMITHTOWN BOULEVARD",,,"SMITHTOWN","NY","11787",
"SUFFOLK","475185","Grocery Store","7 ELEVEN FOOD STORE  #25957B","AHSAN MUHAMMAD","408","ROUTE 112",,,"PORT JEFFERSON","NY","11776","POINT (-73.052705 40.931497)"
"MONTGOMERY","662124","Hardware Store","HATCHET HARDWARE OF PALATINE BRIDGE","ANGELO GRASSO","6133","STATE HIGHWAY 5",,,"PALATINE BRIDGE","NY","13428","POINT (-74.598727 42.921448)"
"NASSAU","287690","Drug Store","CVS PHARMACY # 5367","CVS ALBANY LLC","116","WASHINGTON AVE # 128",,,"CEDARHURST","NY","11516","POINT (-73.727218 40.620237)"
"ORANGE","330529","Garden Center","ORANGE NURSERY & STONE SUPPLIES INC","AGOSTINO IODICE","1129","ROUTE 32",,,"HIGHLANDS MILLS","NY","10930",
"ERIE","659390","Other","PET SUPPLIES PLUS #0174","PSP STORES, LLC/CHRISTOPHER ROWLAND","9630","TRANSIT RD PLAZA 400",,,"EAST AMHERST","NY","14051",
"KINGS","661449","Grocery Store","7 ELEVEN FOOD STORE # 27454D","JAPRIT SINGH","2247","UTICA AVENUE",,,"BROOKLYN","NY","11234","POINT (-73.92666 40.616858)"
"BRONX","658974","Other","DOLLAR TREE #04514","DOLLAR TREE","1334","LOUISE NINE BLVD",,,"BRONX","NY","10459","POINT (-73.892421 40.831768)"
"ST. LAWRENCE","401629","Hardware Store","COAKLEY CARPET ONE ACE HARDWARE","COAKLEY JOHN P SONS INC","2535","STATE HWY 68","PO BOX 473",,"CANTON","NY","13617","POINT (-75.184762 44.594514)"
"ULSTER","661208","Farm Supply","ACCORD PLAZA FEEDS + NEEDS","ROBERT JOHNSEN","4739","ROUTE 209",,,"ACCORD","NY","12404","POINT (-74.20304 41.811882)"
"ALBANY","17251","Drug Store","CVS PHARMACY # 2702","CVS ALBANY LLC","465","SAND CREEK RD",,,"COLONIE","NY","12205","POINT (-73.811815 42.716045)"
"SUFFOLK","479691","Landscaper","ORGANICARE INC","KARL FRIDERBERGER","27","SOUTH COLEMAN RD",,,"CENTEREACH","NY","11720","POINT (-73.065265 40.858094)"
"ERIE","148776","Drug Store","RITE AID #1689","RITE AID OF NEW YORK INC","3071-3085","S PARK AVENUE",,,"LACKAWANNA","NY","142183107","POINT (-78.824 42.816167)"
"RENSSELAER","660201","Hardware Store","HATCHET HARDWARE OF TROY","AG DISTRIBUTORS&SUPPLIES CORP","63","3RD STREET",,,"TROY","NY","12180","POINT (-73.690567 42.729876)"
"ERIE","145560","Drug Store","WALGREENS #12408","WALGREEN EASTERN COMPANY INC","2970","NIAGARA FALLS BLVD",,,"AMHERST","NY","14228","POINT (-78.823006 43.035551)"
"ROCKLAND","661929","Drug Store","CVS #10610","CVS ALBANY LLC","143","RT 303",,,"VALLEY COTTAGE","NY","10989","POINT (-73.942329 41.122134)"
"MONROE","260102","Grocery Store","MENDON MEADOWS MARKET","DITUCCI TOM & WEST DERIC","51","ASSEMBLY DRIVE",,,"MENDON","NY","14506","POINT (-77.507443 42.999761)"
"SUFFOLK","661229","Floral Shop","KEM FLORAL INC DBA BECKMANS FLORIST","WILLIAM C KETCHAM & PATRICIA M KAPPEN","364","LARKFIELD ROAD",,,"EAST NORTHPORT","NY","11731","POINT (-73.32221 40.868553)"
"NASSAU","659215","Other","PETCO #3776","PATRICIA A WARD","1296","BROADWAY",,,"HEWLETT","NY","11557","POINT (-73.700499 40.639293)"
"FRANKLIN","661877","Grocery Store","YODER COUNTRY MARKET","ENOS YODER","950","ST RT 122",,,"CONSTABLE","NY","12926","POINT (-74.316111 44.928087)"
"KINGS","661753","Floral Shop","POLLYN COLLECTIVE LLC","STEPHANIE BLANDING","115","BROADWAY","AKA BROADWAY TRIANGLE",,"BROOKLYN","NY","11249","POINT (-73.964515 40.710368)"
"WESTCHESTER","555526","Drug Store","CVS PHARMACY # 531","CVS ALBANY LLC","325","ROUTES 100",,,"SOMERS","NY","10589","POINT (-73.686301 41.325721)"
"CATTARAUGUS","42517","Drug Store","WALGREENS #11984","WALGREEN EASTERN COMPANY INC","3242","ROUTE 39",,,"YORKSHIRE","NY","14173","POINT (-78.477357 42.530214)"
"DUTCHESS","130839","Hardware Store","WILLIAMS LUMBER INC","WILLIAMS LUMBER INC/DON WILLIAMS","4246","ALBANY POST RD",,,"HYDE PARK","NY","12538","POINT (-73.932282 41.781817)"
"MADISON","258016","Drug Store","KPH HEALTHCARE DBA KINNEY DRUGS #67","KPH HEALTHCARE SERVICES INC","41","ALBANY STREET",,,"CAZENOVIA","NY","13035","POINT (-75.854464 42.930145)"
"RENSSELAER","387434","Drug Store","CVS PHARMACY # 5032","CVS ALBANY LLC","541","PAWLLING AVE",,,"TROY","NY","12180","POINT (-73.660055 42.705327)"
"SUFFOLK","662136","Landscaper","NORTH SHORE PLANT COMPANY LLC","NICHOLAS SOLLAZZO","73","BAYBERRY ROAD",,,"WADING RIVER","NY","11792","POINT (-72.83067 40.959084)"
"WARREN","522848","Grocery Store","HANNAFORD SUPERMARKET & PHARMACY #8360","MARTINS FOODS OF SOUTH BURLINGTON LLC","190","QUAKER ROAD",,,"QUEENSBURY","NY","12804","POINT (-73.655733 43.332014)"
"ST. LAWRENCE","660603","Drug Store","WALGREENS #17182","WALGREEN EASTERN CO INC","19","MINER ST.",,,"CANTON","NY","13617","POINT (-75.171219 44.594157)"
"NEW YORK","659774","Floral Shop","CHELSEA FLORIST INC","JOHN AND NIKI PAPPAS","237","8TH AVE",,,"NEW YORK","NY","10011","POINT (-73.998847 40.744803)"
"JEFFERSON","228851","Floral Shop","SHERWOOD FLORIST","KITTO KEVIN","1314","WASHINGTON STREET",,,"WATERTOWN","NY","13601","POINT (-75.913919 43.958004)"
"ALBANY","661424","Other","DOLLAR TREE #08380","MIKE A WITYNSKI","308","ONTARIO STREET",,,"COHOES","NY","12047","POINT (-73.702663 42.774188)"
"KINGS","661899","Dept. Store","DOLLAR TREE #07254","DOLLAR TREE STORES INC","340","JUNIUS STREET",,,"BROOKLYN","NY","11212","POINT (-73.902084 40.66618)"
"SARATOGA","410727","Garden Center","TRACTOR SUPPLY COMPANY #175","TRACTOR SUPPLY COMPANY","1746","ROUTE 9",,,"CLIFTON PARK","NY","120652412","POINT (-73.773842 42.870955)"
"SUFFOLK","660289","Landscaper","WHITMORE-WORSLEY INC","JOHN W WHITMORE","169","REEVES AVE",,,"RIVERHEAD","NY","11901","POINT (-72.707766 40.948079)"
"WARREN","657939","Grocery Store","TOPS #702","TOPS MARKETS LLC","ROUTE 9","& SAGAMORE RD",,,"BOLTON LANDING","NY","12814",
"ERIE","145741","Drug Store","CVS PHARMACY # 609","CVS ALBANY LLC","1625","ELMWOOD AVE","SPECTRUM BLD",,"BUFFALO","NY","14207","POINT (-78.878482 42.941105)"
"ALBANY","16472","Grocery Store","PRICE CHOPPER #0159","PRICE CHOPPER OPERATING CO INC","1395","NEW SCOTLAND AVENUE",,,"SLINGERLANDS","NY","12159","POINT (-73.856367 42.636568)"
"NASSAU","286533","Drug Store","CVS PHARMACY # 1958","CVS ALBANY LLC","55","COLD SPRING ROAD",,,"SYOSSET","NY","11791","POINT (-73.500486 40.82641)"
"CHENANGO","85217","Dept. Store","WAL-MART #2120","WAL-MART STORES EAST LP","5396","STATE HIGHWAY 12",,,"NORWICH","NY","13815","POINT (-75.529044 42.497643)"
"ST. LAWRENCE","659004","Other","DOLLAR TREE #05452","DOLLAR TREE","5933","US HIGHWAY 11",,,"CANTON","NY","13617","POINT (-75.145324 44.598302)"
