"precinct_name","precinct_commander","community_coordinators","phone_number","street","city","state","website","zip_code","mapped_location"
"West Precinct","Commander David Corman","Sergeant John Bourque","(615) 862-7747","5500 Charlotte Pike","Nashville","TN","http://www.nashville.gov/Police-Department/Precincts/West-Precinct.aspx","37209","5500 Charlotte Pike
Nashville, TN 37209
(36.150829, -86.855095)"
"South Precinct","Commander Keith Stephens","Sergeant Deniz Ismailovic","(615) 862-7744","5101 Harding Place","Nashville","TN","http://www.nashville.gov/Police-Department/Precincts/South-Precinct.aspx","37211","5101 Harding Place
Nashville, TN 37211
(36.089618, -86.688491)"
"Midtown Hills Precinct","Commander Tommy Widener","Sergeant Catherine Poole","(615) 880-1411","1441 12th Avenue South","Nashville","TN","http://www.nashville.gov/Police-Department/Precincts/Midtown-Hills-Precinct.aspx","37203","1441 12th Avenue South
Nashville, TN 37203
(36.137312, -86.788264)"
"Central Precinct","Commander Jason Starling","Sergeant Misty Hobbs","(615) 862-7611","601 Korean Veterans Blvd.","Nashville","TN","http://www.nashville.gov/Police-Department/Precincts/Central-Precinct.aspx","37203","601 Korean Veterans Blvd.
Nashville, TN 37203
(36.15567, -86.777558)"
"East Precinct","Commander Virginia Carrigan","Sergeant Jessica Ware","(615) 862-7600","936 E. Trinity Lane","Nashville","TN","http://www.nashville.gov/Police-Department/Precincts/East-Precinct.aspx","37207","936 E. Trinity Lane
Nashville, TN 37207
(36.204513, -86.748032)"
"Madison Precinct","Commander Greg Blair","Sergeant Henry Particelli","(615) 880-3111","400 Myatt Dr.","Madison","TN","http://www.nashville.gov/Police-Department/Precincts/Madison-Precinct.aspx","37115","400 Myatt Dr.
Madison, TN 37115
(36.272475, -86.68954)"
"North Precinct","Commander Anthony McClain","Sergeant James Freeman","(615) 862-4410","2231 26th Ave. North","Nashville","TN","http://www.nashville.gov/Police-Department/Precincts/North-Precinct.aspx","37208","2231 26th Ave. North
Nashville, TN 37208
(36.189673, -86.817971)"
"Hermitage Precinct","Commander Randy Hickerson","Sergeant Robert Weaver","(615) 880-1776","3701 James Kay Lane","Hermitage","TN","http://www.nashville.gov/Police-Department/Precincts/Hermitage-Precinct.aspx","37076","3701 James Kay Lane
Hermitage, TN 37076
(36.177823, -86.615122)"
