"tcb_name","tcb_login","approved_scope","address","city","state","country","zip_code","contact_information"
"ACB, Inc.","US0101","A1","6731 Whittier Avenue       Suite C110","McLean","Virginia","United States","22101","Mike Violette 703-847-4700 hotline@acbcert.com"
"ACB, Inc.","US0101","A2","6731 Whittier Avenue       Suite C110","McLean","Virginia","United States","22101","Mike Violette 703-847-4700 hotline@acbcert.com"
"ACB, Inc.","US0101","A3","6731 Whittier Avenue       Suite C110","McLean","Virginia","United States","22101","Mike Violette 703-847-4700 hotline@acbcert.com"
"ACB, Inc.","US0101","A4","6731 Whittier Avenue       Suite C110","McLean","Virginia","United States","22101","Mike Violette 703-847-4700 hotline@acbcert.com"
"ACB, Inc.","US0101","B1","6731 Whittier Avenue       Suite C110","McLean","Virginia","United States","22101","Mike Violette 703-847-4700 hotline@acbcert.com"
"ACB, Inc.","US0101","B2","6731 Whittier Avenue       Suite C110","McLean","Virginia","United States","22101","Mike Violette 703-847-4700 hotline@acbcert.com"
"ACB, Inc.","US0101","B3","6731 Whittier Avenue       Suite C110","McLean","Virginia","United States","22101","Mike Violette 703-847-4700 hotline@acbcert.com"
"ACB, Inc.","US0101","B4","6731 Whittier Avenue       Suite C110","McLean","Virginia","United States","22101","Mike Violette 703-847-4700 hotline@acbcert.com"
"Bay Area Compliance Laboratory Corp.","US0057","A1","1274 Anvilwood Avenue","Sunnyvale","California","United States","94089","Lisa Tang 408-732-9162 bacl.regulatory@baclcorp.com"
"Bay Area Compliance Laboratory Corp.","US0057","A2","1274 Anvilwood Avenue","Sunnyvale","California","United States","94089","Lisa Tang 408-732-9162 bacl.regulatory@baclcorp.com"
"Bay Area Compliance Laboratory Corp.","US0057","A3","1274 Anvilwood Avenue","Sunnyvale","California","United States","94089","Lisa Tang 408-732-9162 bacl.regulatory@baclcorp.com"
"Bay Area Compliance Laboratory Corp.","US0057","A4","1274 Anvilwood Avenue","Sunnyvale","California","United States","94089","Lisa Tang 408-732-9162 bacl.regulatory@baclcorp.com"
"Bay Area Compliance Laboratory Corp.","US0057","B1","1274 Anvilwood Avenue","Sunnyvale","California","United States","94089","Lisa Tang 408-732-9162 bacl.regulatory@baclcorp.com"
"Bay Area Compliance Laboratory Corp.","US0057","B2","1274 Anvilwood Avenue","Sunnyvale","California","United States","94089","Lisa Tang 408-732-9162 bacl.regulatory@baclcorp.com"
"Bay Area Compliance Laboratory Corp.","US0057","B3","1274 Anvilwood Avenue","Sunnyvale","California","United States","94089","Lisa Tang 408-732-9162 bacl.regulatory@baclcorp.com"
"Bay Area Compliance Laboratory Corp.","US0057","B4","1274 Anvilwood Avenue","Sunnyvale","California","United States","94089","Lisa Tang 408-732-9162 bacl.regulatory@baclcorp.com"
"Bureau Veritas Consumer Products Services, Inc.","US0160","A1","775 Montague Expressway","Milpitas","California","United States","95035","Scott Lambert 978 698 6118 certification@bureauveritas.com"
"Bureau Veritas Consumer Products Services, Inc.","US0160","A2","775 Montague Expressway","Milpitas","California","United States","95035","Scott Lambert 978 698 6118 certification@bureauveritas.com"
"Bureau Veritas Consumer Products Services, Inc.","US0160","A3","775 Montague Expressway","Milpitas","California","United States","95035","Scott Lambert 978 698 6118 certification@bureauveritas.com"
"Bureau Veritas Consumer Products Services, Inc.","US0160","A4","775 Montague Expressway","Milpitas","California","United States","95035","Scott Lambert 978 698 6118 certification@bureauveritas.com"
"Bureau Veritas Consumer Products Services, Inc.","US0160","B1","775 Montague Expressway","Milpitas","California","United States","95035","Scott Lambert 978 698 6118 certification@bureauveritas.com"
"Bureau Veritas Consumer Products Services, Inc.","US0160","B2","775 Montague Expressway","Milpitas","California","United States","95035","Scott Lambert 978 698 6118 certification@bureauveritas.com"
"Bureau Veritas Consumer Products Services, Inc.","US0160","B3","775 Montague Expressway","Milpitas","California","United States","95035","Scott Lambert 978 698 6118 certification@bureauveritas.com"
"Bureau Veritas Consumer Products Services, Inc.","US0160","B4","775 Montague Expressway","Milpitas","California","United States","95035","Scott Lambert 978 698 6118 certification@bureauveritas.com"
"CETECOM GmbH","DE0002","A1","Im Teelbruch 116","45219 Essen","N/A","Germany","N/A","Francis Lima 49-2054-9519-404 francis.lima@cetecom.com"
"CETECOM GmbH","DE0002","A2","Im Teelbruch 116","45219 Essen","N/A","Germany","N/A","Francis Lima 49-2054-9519-404 francis.lima@cetecom.com"
"CETECOM GmbH","DE0002","A3","Im Teelbruch 116","45219 Essen","N/A","Germany","N/A","Francis Lima 49-2054-9519-404 francis.lima@cetecom.com"
"CETECOM GmbH","DE0002","A4","Im Teelbruch 116","45219 Essen","N/A","Germany","N/A","Francis Lima 49-2054-9519-404 francis.lima@cetecom.com"
"CETECOM GmbH","DE0002","B1","Im Teelbruch 116","45219 Essen","N/A","Germany","N/A","Francis Lima 49-2054-9519-404 francis.lima@cetecom.com"
"CETECOM GmbH","DE0002","B2","Im Teelbruch 116","45219 Essen","N/A","Germany","N/A","Francis Lima 49-2054-9519-404 francis.lima@cetecom.com"
"CETECOM GmbH","DE0002","B3","Im Teelbruch 116","45219 Essen","N/A","Germany","N/A","Francis Lima 49-2054-9519-404 francis.lima@cetecom.com"
"CETECOM GmbH","DE0002","B4","Im Teelbruch 116","45219 Essen","N/A","Germany","N/A","Francis Lima 49-2054-9519-404 francis.lima@cetecom.com"
"CETECOM Inc.","US0187","A1","411 Dixon Landing Road","Milpitas","California","United States","95035","Franz Engert 408-586-6205 Franz.Engert@cetecom.com"
"CETECOM Inc.","US0187","A2","411 Dixon Landing Road","Milpitas","California","United States","95035","Franz Engert 408-586-6205 Franz.Engert@cetecom.com"
"CETECOM Inc.","US0187","A4","411 Dixon Landing Road","Milpitas","California","United States","95035","Franz Engert 408-586-6205 Franz.Engert@cetecom.com"
"CETECOM Inc.","US0187","B1","411 Dixon Landing Road","Milpitas","California","United States","95035","Franz Engert 408-586-6205 Franz.Engert@cetecom.com"
"CETECOM Inc.","US0187","B2","411 Dixon Landing Road","Milpitas","California","United States","95035","Franz Engert 408-586-6205 Franz.Engert@cetecom.com"
"CETECOM Inc.","US0187","B4","411 Dixon Landing Road","Milpitas","California","United States","95035","Franz Engert 408-586-6205 Franz.Engert@cetecom.com"
"CKC Certification Services, LLC","US0103","A1","5046 Sierra Pines","Mariposa","California","United States","95338","Steve Behm 209-966-5240 steve.behm@ckc.com"
"CKC Certification Services, LLC","US0103","A2","5046 Sierra Pines","Mariposa","California","United States","95338","Steve Behm 209-966-5240 steve.behm@ckc.com"
"CKC Certification Services, LLC","US0103","A3","5046 Sierra Pines","Mariposa","California","United States","95338","Steve Behm 209-966-5240 steve.behm@ckc.com"
"CKC Certification Services, LLC","US0103","A4","5046 Sierra Pines","Mariposa","California","United States","95338","Steve Behm 209-966-5240 steve.behm@ckc.com"
"CKC Certification Services, LLC","US0103","B1","5046 Sierra Pines","Mariposa","California","United States","95338","Steve Behm 209-966-5240 steve.behm@ckc.com"
"CKC Certification Services, LLC","US0103","B2","5046 Sierra Pines","Mariposa","California","United States","95338","Steve Behm 209-966-5240 steve.behm@ckc.com"
"CKC Certification Services, LLC","US0103","B3","5046 Sierra Pines","Mariposa","California","United States","95338","Steve Behm 209-966-5240 steve.behm@ckc.com"
"CKC Certification Services, LLC","US0103","B4","5046 Sierra Pines","Mariposa","California","United States","95338","Steve Behm 209-966-5240 steve.behm@ckc.com"
"CTC advanced GmbH","DE0001","A1","Untertuerkheimer Strasse 6-10","66117 Saarbruecken","N/A","Germany","N/A","Gerald Schmidt 49-681-598-0 mail@ctcadvanced.com"
"CTC advanced GmbH","DE0001","A2","Untertuerkheimer Strasse 6-10","66117 Saarbruecken","N/A","Germany","N/A","Gerald Schmidt 49-681-598-0 mail@ctcadvanced.com"
"CTC advanced GmbH","DE0001","A3","Untertuerkheimer Strasse 6-10","66117 Saarbruecken","N/A","Germany","N/A","Gerald Schmidt 49-681-598-0 mail@ctcadvanced.com"
"CTC advanced GmbH","DE0001","A4","Untertuerkheimer Strasse 6-10","66117 Saarbruecken","N/A","Germany","N/A","Gerald Schmidt 49-681-598-0 mail@ctcadvanced.com"
"CTC advanced GmbH","DE0001","B1","Untertuerkheimer Strasse 6-10","66117 Saarbruecken","N/A","Germany","N/A","Gerald Schmidt 49-681-598-0 mail@ctcadvanced.com"
"CTC advanced GmbH","DE0001","B2","Untertuerkheimer Strasse 6-10","66117 Saarbruecken","N/A","Germany","N/A","Gerald Schmidt 49-681-598-0 mail@ctcadvanced.com"
"CTC advanced GmbH","DE0001","B3","Untertuerkheimer Strasse 6-10","66117 Saarbruecken","N/A","Germany","N/A","Gerald Schmidt 49-681-598-0 mail@ctcadvanced.com"
"CTC advanced GmbH","DE0001","B4","Untertuerkheimer Strasse 6-10","66117 Saarbruecken","N/A","Germany","N/A","Gerald Schmidt 49-681-598-0 mail@ctcadvanced.com"
"Compatible Electronics, Inc.","US0135","A1","114 Olinda Drive","Brea","California","United States","92823","Jeff Klinger 714-579-1489 jeff@compatible-electronics.com"
"Compatible Electronics, Inc.","US0135","A2","114 Olinda Drive","Brea","California","United States","92823","Jeff Klinger 714-579-1489 jeff@compatible-electronics.com"
"Compatible Electronics, Inc.","US0135","A4","114 Olinda Drive","Brea","California","United States","92823","Jeff Klinger 714-579-1489 jeff@compatible-electronics.com"
"Compliance Testing, LLC","US0122","A1","1724 S. Nevada Way","Mesa","Arizona","United States","85204","Michael Schafer 480-926-3100 TCBAdmin@compliancetesting.com"
"Compliance Testing, LLC","US0122","A2","1724 S. Nevada Way","Mesa","Arizona","United States","85204","Michael Schafer 480-926-3100 TCBAdmin@compliancetesting.com"
"Compliance Testing, LLC","US0122","A3","1724 S. Nevada Way","Mesa","Arizona","United States","85204","Michael Schafer 480-926-3100 TCBAdmin@compliancetesting.com"
"Compliance Testing, LLC","US0122","A4","1724 S. Nevada Way","Mesa","Arizona","United States","85204","Michael Schafer 480-926-3100 TCBAdmin@compliancetesting.com"
"Compliance Testing, LLC","US0122","B1","1724 S. Nevada Way","Mesa","Arizona","United States","85204","Michael Schafer 480-926-3100 TCBAdmin@compliancetesting.com"
"Compliance Testing, LLC","US0122","B2","1724 S. Nevada Way","Mesa","Arizona","United States","85204","Michael Schafer 480-926-3100 TCBAdmin@compliancetesting.com"
"Compliance Testing, LLC","US0122","B3","1724 S. Nevada Way","Mesa","Arizona","United States","85204","Michael Schafer 480-926-3100 TCBAdmin@compliancetesting.com"
"Compliance Testing, LLC","US0122","B4","1724 S. Nevada Way","Mesa","Arizona","United States","85204","Michael Schafer 480-926-3100 TCBAdmin@compliancetesting.com"
"DEKRA Testing and Certification, S.A.U.","ES0001","A1","Parque Tecnologico de Andalucia,       Calle Severo Ochoa 2 y 6","Campanillas - Malaga","N/A","Spain","29590","Ricardo Orejas Rodriguez 34-9562-61 91 00 ricardo.orejas@dekra.com"
"DEKRA Testing and Certification, S.A.U.","ES0001","A2","Parque Tecnologico de Andalucia,       Calle Severo Ochoa 2 y 6","Campanillas - Malaga","N/A","Spain","29590","Ricardo Orejas Rodriguez 34-9562-61 91 00 ricardo.orejas@dekra.com"
"DEKRA Testing and Certification, S.A.U.","ES0001","A4","Parque Tecnologico de Andalucia,       Calle Severo Ochoa 2 y 6","Campanillas - Malaga","N/A","Spain","29590","Ricardo Orejas Rodriguez 34-9562-61 91 00 ricardo.orejas@dekra.com"
"DEKRA Testing and Certification, S.A.U.","ES0001","B1","Parque Tecnologico de Andalucia,       Calle Severo Ochoa 2 y 6","Campanillas - Malaga","N/A","Spain","29590","Ricardo Orejas Rodriguez 34-9562-61 91 00 ricardo.orejas@dekra.com"
"DEKRA Testing and Certification, S.A.U.","ES0001","B2","Parque Tecnologico de Andalucia,       Calle Severo Ochoa 2 y 6","Campanillas - Malaga","N/A","Spain","29590","Ricardo Orejas Rodriguez 34-9562-61 91 00 ricardo.orejas@dekra.com"
"EMCCons DR RASEK GmbH & Co. KG","DE0004","A1","Stoernhofer Berg 15","Unterleinleiter","N/A","Germany","91364","Dieter Zitzmann 49-9194-7263-888 emc.cert@emcc.de"
"EMCCons DR RASEK GmbH & Co. KG","DE0004","A2","Stoernhofer Berg 15","Unterleinleiter","N/A","Germany","91364","Dieter Zitzmann 49-9194-7263-888 emc.cert@emcc.de"
"EMCCons DR RASEK GmbH & Co. KG","DE0004","A3","Stoernhofer Berg 15","Unterleinleiter","N/A","Germany","91364","Dieter Zitzmann 49-9194-7263-888 emc.cert@emcc.de"
"EMCCons DR RASEK GmbH & Co. KG","DE0004","A4","Stoernhofer Berg 15","Unterleinleiter","N/A","Germany","91364","Dieter Zitzmann 49-9194-7263-888 emc.cert@emcc.de"
"EMCCons DR RASEK GmbH & Co. KG","DE0004","B1","Stoernhofer Berg 15","Unterleinleiter","N/A","Germany","91364","Dieter Zitzmann 49-9194-7263-888 emc.cert@emcc.de"
"EMCCons DR RASEK GmbH & Co. KG","DE0004","B2","Stoernhofer Berg 15","Unterleinleiter","N/A","Germany","91364","Dieter Zitzmann 49-9194-7263-888 emc.cert@emcc.de"
"EMCCons DR RASEK GmbH & Co. KG","DE0004","B3","Stoernhofer Berg 15","Unterleinleiter","N/A","Germany","91364","Dieter Zitzmann 49-9194-7263-888 emc.cert@emcc.de"
"EMCCons DR RASEK GmbH & Co. KG","DE0004","B4","Stoernhofer Berg 15","Unterleinleiter","N/A","Germany","91364","Dieter Zitzmann 49-9194-7263-888 emc.cert@emcc.de"
"Element Materials Technology Portland - Evergreen Inc.","US0017","A1","6775 NE Evergreen Parkway, Suite 400","Hillsboro","Oregon","United States","97124","Vicki Albertson 503-844-4066 vicki.albertson@element.com"
"Element Materials Technology Portland - Evergreen Inc.","US0017","A2","6775 NE Evergreen Parkway, Suite 400","Hillsboro","Oregon","United States","97124","Vicki Albertson 503-844-4066 vicki.albertson@element.com"
"Element Materials Technology Portland - Evergreen Inc.","US0017","A3","6775 NE Evergreen Parkway, Suite 400","Hillsboro","Oregon","United States","97124","Vicki Albertson 503-844-4066 vicki.albertson@element.com"
"Element Materials Technology Portland - Evergreen Inc.","US0017","A4","6775 NE Evergreen Parkway, Suite 400","Hillsboro","Oregon","United States","97124","Vicki Albertson 503-844-4066 vicki.albertson@element.com"
"Element Materials Technology Portland - Evergreen Inc.","US0017","B1","6775 NE Evergreen Parkway, Suite 400","Hillsboro","Oregon","United States","97124","Vicki Albertson 503-844-4066 vicki.albertson@element.com"
"Element Materials Technology Portland - Evergreen Inc.","US0017","B2","6775 NE Evergreen Parkway, Suite 400","Hillsboro","Oregon","United States","97124","Vicki Albertson 503-844-4066 vicki.albertson@element.com"
"Element Materials Technology Portland - Evergreen Inc.","US0017","B3","6775 NE Evergreen Parkway, Suite 400","Hillsboro","Oregon","United States","97124","Vicki Albertson 503-844-4066 vicki.albertson@element.com"
"Element Materials Technology Portland - Evergreen Inc.","US0017","B4","6775 NE Evergreen Parkway, Suite 400","Hillsboro","Oregon","United States","97124","Vicki Albertson 503-844-4066 vicki.albertson@element.com"
"Element Materials Technology Warwick Ltd","UK2001","A1","Unit 1       Pendle Place","Skelmersdale","N/A","United Kingdom","WN8 9PN","Simon Barrowcliff 44 1695 556666 simon.barrowcliff@element.com"
"Element Materials Technology Warwick Ltd","UK2001","A2","Unit 1       Pendle Place","Skelmersdale","N/A","United Kingdom","WN8 9PN","Simon Barrowcliff 44 1695 556666 simon.barrowcliff@element.com"
"Element Materials Technology Warwick Ltd","UK2001","A3","Unit 1       Pendle Place","Skelmersdale","N/A","United Kingdom","WN8 9PN","Simon Barrowcliff 44 1695 556666 simon.barrowcliff@element.com"
"Element Materials Technology Warwick Ltd","UK2001","A4","Unit 1       Pendle Place","Skelmersdale","N/A","United Kingdom","WN8 9PN","Simon Barrowcliff 44 1695 556666 simon.barrowcliff@element.com"
"Element Materials Technology Warwick Ltd","UK2001","B1","Unit 1       Pendle Place","Skelmersdale","N/A","United Kingdom","WN8 9PN","Simon Barrowcliff 44 1695 556666 simon.barrowcliff@element.com"
"Element Materials Technology Warwick Ltd","UK2001","B2","Unit 1       Pendle Place","Skelmersdale","N/A","United Kingdom","WN8 9PN","Simon Barrowcliff 44 1695 556666 simon.barrowcliff@element.com"
"Element Materials Technology Warwick Ltd","UK2001","B4","Unit 1       Pendle Place","Skelmersdale","N/A","United Kingdom","WN8 9PN","Simon Barrowcliff 44 1695 556666 simon.barrowcliff@element.com"
"Elite Electronic Engineering, Inc.","US0107","A1","1516 Centre Circle","Downers Grove","Illinois","United States","60515","Richard King 630-495-9770 reking@elitetest.com"
"Elite Electronic Engineering, Inc.","US0107","A2","1516 Centre Circle","Downers Grove","Illinois","United States","60515","Richard King 630-495-9770 reking@elitetest.com"
"Elite Electronic Engineering, Inc.","US0107","A3","1516 Centre Circle","Downers Grove","Illinois","United States","60515","Richard King 630-495-9770 reking@elitetest.com"
"Elite Electronic Engineering, Inc.","US0107","A4","1516 Centre Circle","Downers Grove","Illinois","United States","60515","Richard King 630-495-9770 reking@elitetest.com"
"Elite Electronic Engineering, Inc.","US0107","B1","1516 Centre Circle","Downers Grove","Illinois","United States","60515","Richard King 630-495-9770 reking@elitetest.com"
"Elite Electronic Engineering, Inc.","US0107","B2","1516 Centre Circle","Downers Grove","Illinois","United States","60515","Richard King 630-495-9770 reking@elitetest.com"
"Elite Electronic Engineering, Inc.","US0107","B3","1516 Centre Circle","Downers Grove","Illinois","United States","60515","Richard King 630-495-9770 reking@elitetest.com"
"Elite Electronic Engineering, Inc.","US0107","B4","1516 Centre Circle","Downers Grove","Illinois","United States","60515","Richard King 630-495-9770 reking@elitetest.com"
"Eurofins Electrical and Electronic Testing NA, Inc.","US0109","A1","914 W. Patapsco Avenue","Baltimore","Maryland","United States","21230-3432","Jenn Warnell 410-949-1877 Jenn.Warnell@metlabs.com"
"Eurofins Electrical and Electronic Testing NA, Inc.","US0109","A2","914 W. Patapsco Avenue","Baltimore","Maryland","United States","21230-3432","Jenn Warnell 410-949-1877 Jenn.Warnell@metlabs.com"
"Eurofins Electrical and Electronic Testing NA, Inc.","US0109","A3","914 W. Patapsco Avenue","Baltimore","Maryland","United States","21230-3432","Jenn Warnell 410-949-1877 Jenn.Warnell@metlabs.com"
"Eurofins Electrical and Electronic Testing NA, Inc.","US0109","A4","914 W. Patapsco Avenue","Baltimore","Maryland","United States","21230-3432","Jenn Warnell 410-949-1877 Jenn.Warnell@metlabs.com"
"Eurofins Electrical and Electronic Testing NA, Inc.","US0109","B1","914 W. Patapsco Avenue","Baltimore","Maryland","United States","21230-3432","Jenn Warnell 410-949-1877 Jenn.Warnell@metlabs.com"
"Eurofins Electrical and Electronic Testing NA, Inc.","US0109","B2","914 W. Patapsco Avenue","Baltimore","Maryland","United States","21230-3432","Jenn Warnell 410-949-1877 Jenn.Warnell@metlabs.com"
"Eurofins Electrical and Electronic Testing NA, Inc.","US0109","B3","914 W. Patapsco Avenue","Baltimore","Maryland","United States","21230-3432","Jenn Warnell 410-949-1877 Jenn.Warnell@metlabs.com"
"Eurofins Electrical and Electronic Testing NA, Inc.","US0109","B4","914 W. Patapsco Avenue","Baltimore","Maryland","United States","21230-3432","Jenn Warnell 410-949-1877 Jenn.Warnell@metlabs.com"
"Eurofins Product Service GmbH","DE0005","A1","Storkower Strasse 38c","D-15526 Reichenwalde","N/A","Germany","N/A","Jorg Kusig 49-33631-888-700 joergkusig@eurofins.de"
"Eurofins Product Service GmbH","DE0005","A2","Storkower Strasse 38c","D-15526 Reichenwalde","N/A","Germany","N/A","Jorg Kusig 49-33631-888-700 joergkusig@eurofins.de"
"Eurofins Product Service GmbH","DE0005","A3","Storkower Strasse 38c","D-15526 Reichenwalde","N/A","Germany","N/A","Jorg Kusig 49-33631-888-700 joergkusig@eurofins.de"
"Eurofins Product Service GmbH","DE0005","A4","Storkower Strasse 38c","D-15526 Reichenwalde","N/A","Germany","N/A","Jorg Kusig 49-33631-888-700 joergkusig@eurofins.de"
"Eurofins Product Service GmbH","DE0005","B1","Storkower Strasse 38c","D-15526 Reichenwalde","N/A","Germany","N/A","Jorg Kusig 49-33631-888-700 joergkusig@eurofins.de"
"Eurofins Product Service GmbH","DE0005","B2","Storkower Strasse 38c","D-15526 Reichenwalde","N/A","Germany","N/A","Jorg Kusig 49-33631-888-700 joergkusig@eurofins.de"
"Eurofins Product Service GmbH","DE0005","B3","Storkower Strasse 38c","D-15526 Reichenwalde","N/A","Germany","N/A","Jorg Kusig 49-33631-888-700 joergkusig@eurofins.de"
"Eurofins Product Service GmbH","DE0005","B4","Storkower Strasse 38c","D-15526 Reichenwalde","N/A","Germany","N/A","Jorg Kusig 49-33631-888-700 joergkusig@eurofins.de"
"FCC Test TCB (FOR FCC Internal USE ONLY)","US9999","A1","7435 Oakland Mills Rd","Columbia","Maryland","United States","21046","George Tannahill 301-362-3026 George.tannahill@fcc.gov"
"FCC Test TCB (FOR FCC Internal USE ONLY)","US9999","A2","7435 Oakland Mills Rd","Columbia","Maryland","United States","21046","George Tannahill 301-362-3026 George.tannahill@fcc.gov"
"FCC Test TCB (FOR FCC Internal USE ONLY)","US9999","A3","7435 Oakland Mills Rd","Columbia","Maryland","United States","21046","George Tannahill 301-362-3026 George.tannahill@fcc.gov"
"FCC Test TCB (FOR FCC Internal USE ONLY)","US9999","A4","7435 Oakland Mills Rd","Columbia","Maryland","United States","21046","George Tannahill 301-362-3026 George.tannahill@fcc.gov"
"FCC Test TCB (FOR FCC Internal USE ONLY)","US9999","B1","7435 Oakland Mills Rd","Columbia","Maryland","United States","21046","George Tannahill 301-362-3026 George.tannahill@fcc.gov"
"FCC Test TCB (FOR FCC Internal USE ONLY)","US9999","B2","7435 Oakland Mills Rd","Columbia","Maryland","United States","21046","George Tannahill 301-362-3026 George.tannahill@fcc.gov"
"FCC Test TCB (FOR FCC Internal USE ONLY)","US9999","B3","7435 Oakland Mills Rd","Columbia","Maryland","United States","21046","George Tannahill 301-362-3026 George.tannahill@fcc.gov"
"FCC Test TCB (FOR FCC Internal USE ONLY)","US9999","B4","7435 Oakland Mills Rd","Columbia","Maryland","United States","21046","George Tannahill 301-362-3026 George.tannahill@fcc.gov"
"HCT America LLC","US0189","A1","1726 Ringwood Avenue","San Jose","California","United States","95131","Kent Kim 510-933-8848 kent@hctamerica.com"
"HCT America LLC","US0189","A2","1726 Ringwood Avenue","San Jose","California","United States","95131","Kent Kim 510-933-8848 kent@hctamerica.com"
"HCT America LLC","US0189","A3","1726 Ringwood Avenue","San Jose","California","United States","95131","Kent Kim 510-933-8848 kent@hctamerica.com"
"HCT America LLC","US0189","A4","1726 Ringwood Avenue","San Jose","California","United States","95131","Kent Kim 510-933-8848 kent@hctamerica.com"
"HCT America LLC","US0189","B1","1726 Ringwood Avenue","San Jose","California","United States","95131","Kent Kim 510-933-8848 kent@hctamerica.com"
"HCT America LLC","US0189","B2","1726 Ringwood Avenue","San Jose","California","United States","95131","Kent Kim 510-933-8848 kent@hctamerica.com"
"HCT America LLC","US0189","B3","1726 Ringwood Avenue","San Jose","California","United States","95131","Kent Kim 510-933-8848 kent@hctamerica.com"
"HCT America LLC","US0189","B4","1726 Ringwood Avenue","San Jose","California","United States","95131","Kent Kim 510-933-8848 kent@hctamerica.com"
"Intertek Testing Services Hong Kong Ltd.","HK0008","A1","2/F, Garment Centre       576 Castle Peak Road","Hong Kong","N/A","Hong Kong","N/A","Jason Ho 85221738544 jason.ho@intertek.com"
"Intertek Testing Services Hong Kong Ltd.","HK0008","A2","2/F, Garment Centre       576 Castle Peak Road","Hong Kong","N/A","Hong Kong","N/A","Jason Ho 85221738544 jason.ho@intertek.com"
"Intertek Testing Services Hong Kong Ltd.","HK0008","A3","2/F, Garment Centre       576 Castle Peak Road","Hong Kong","N/A","Hong Kong","N/A","Jason Ho 85221738544 jason.ho@intertek.com"
"Intertek Testing Services Hong Kong Ltd.","HK0008","A4","2/F, Garment Centre       576 Castle Peak Road","Hong Kong","N/A","Hong Kong","N/A","Jason Ho 85221738544 jason.ho@intertek.com"
"Intertek Testing Services NA, Inc.","US0108","A1","70 Codman Hill Road","Boxborough","Massachusetts","United States","01719","Nicholas Abbondante 978 635 8542 nicholas.abbondante@intertek.com"
"Intertek Testing Services NA, Inc.","US0108","A2","70 Codman Hill Road","Boxborough","Massachusetts","United States","01719","Nicholas Abbondante 978 635 8542 nicholas.abbondante@intertek.com"
"Intertek Testing Services NA, Inc.","US0108","A3","70 Codman Hill Road","Boxborough","Massachusetts","United States","01719","Nicholas Abbondante 978 635 8542 nicholas.abbondante@intertek.com"
"Intertek Testing Services NA, Inc.","US0108","A4","70 Codman Hill Road","Boxborough","Massachusetts","United States","01719","Nicholas Abbondante 978 635 8542 nicholas.abbondante@intertek.com"
"Intertek Testing Services NA, Inc.","US0108","B1","70 Codman Hill Road","Boxborough","Massachusetts","United States","01719","Nicholas Abbondante 978 635 8542 nicholas.abbondante@intertek.com"
"Intertek Testing Services NA, Inc.","US0108","B2","70 Codman Hill Road","Boxborough","Massachusetts","United States","01719","Nicholas Abbondante 978 635 8542 nicholas.abbondante@intertek.com"
"Intertek Testing Services NA, Inc.","US0108","B3","70 Codman Hill Road","Boxborough","Massachusetts","United States","01719","Nicholas Abbondante 978 635 8542 nicholas.abbondante@intertek.com"
"Intertek Testing Services NA, Inc.","US0108","B4","70 Codman Hill Road","Boxborough","Massachusetts","United States","01719","Nicholas Abbondante 978 635 8542 nicholas.abbondante@intertek.com"
"LGAI Technological Center S.A. (APPLUS)","ES0002","A1","Ronda de la Font del Carme, s/n","Barcelona","N/A","Spain","N/A","Francisca Asensio Ferreira (+34) 93 567 20 00 elabscert@applus.com"
"LGAI Technological Center S.A. (APPLUS)","ES0002","A2","Ronda de la Font del Carme, s/n","Barcelona","N/A","Spain","N/A","Francisca Asensio Ferreira (+34) 93 567 20 00 elabscert@applus.com"
"LGAI Technological Center S.A. (APPLUS)","ES0002","A4","Ronda de la Font del Carme, s/n","Barcelona","N/A","Spain","N/A","Francisca Asensio Ferreira (+34) 93 567 20 00 elabscert@applus.com"
"LGAI Technological Center S.A. (APPLUS)","ES0002","B1","Ronda de la Font del Carme, s/n","Barcelona","N/A","Spain","N/A","Francisca Asensio Ferreira (+34) 93 567 20 00 elabscert@applus.com"
"MiCOM Labs","US0159","A1","575 Boulder Court","Pleasanton","California","United States","94566","Gordon Hurst 925-462-0304 certification@micomlabs.com"
"MiCOM Labs","US0159","A2","575 Boulder Court","Pleasanton","California","United States","94566","Gordon Hurst 925-462-0304 certification@micomlabs.com"
"MiCOM Labs","US0159","A3","575 Boulder Court","Pleasanton","California","United States","94566","Gordon Hurst 925-462-0304 certification@micomlabs.com"
"MiCOM Labs","US0159","A4","575 Boulder Court","Pleasanton","California","United States","94566","Gordon Hurst 925-462-0304 certification@micomlabs.com"
"MiCOM Labs","US0159","B1","575 Boulder Court","Pleasanton","California","United States","94566","Gordon Hurst 925-462-0304 certification@micomlabs.com"
"MiCOM Labs","US0159","B2","575 Boulder Court","Pleasanton","California","United States","94566","Gordon Hurst 925-462-0304 certification@micomlabs.com"
"MiCOM Labs","US0159","B3","575 Boulder Court","Pleasanton","California","United States","94566","Gordon Hurst 925-462-0304 certification@micomlabs.com"
"MiCOM Labs","US0159","B4","575 Boulder Court","Pleasanton","California","United States","94566","Gordon Hurst 925-462-0304 certification@micomlabs.com"
"National Technical Systems","US0027","A1","41039 Boyce Road","Fremont","California","United States","94538","David Bare 510-578-3500 david.bare@nts.com"
"National Technical Systems","US0027","A2","41039 Boyce Road","Fremont","California","United States","94538","David Bare 510-578-3500 david.bare@nts.com"
"National Technical Systems","US0027","A3","41039 Boyce Road","Fremont","California","United States","94538","David Bare 510-578-3500 david.bare@nts.com"
"National Technical Systems","US0027","A4","41039 Boyce Road","Fremont","California","United States","94538","David Bare 510-578-3500 david.bare@nts.com"
"National Technical Systems","US0027","B1","41039 Boyce Road","Fremont","California","United States","94538","David Bare 510-578-3500 david.bare@nts.com"
"National Technical Systems","US0027","B2","41039 Boyce Road","Fremont","California","United States","94538","David Bare 510-578-3500 david.bare@nts.com"
"National Technical Systems","US0027","B3","41039 Boyce Road","Fremont","California","United States","94538","David Bare 510-578-3500 david.bare@nts.com"
"National Technical Systems","US0027","B4","41039 Boyce Road","Fremont","California","United States","94538","David Bare 510-578-3500 david.bare@nts.com"
"Nemko North America, INC.","CANEMK","A1","303 River Road","Ottawa, Ontario","N/A","Canada","K1V 1H2","Vina Kerai 619-322-6910 vina.kerai@nemko.com"
"Nemko North America, INC.","CANEMK","A2","303 River Road","Ottawa, Ontario","N/A","Canada","K1V 1H2","Vina Kerai 619-322-6910 vina.kerai@nemko.com"
"Nemko North America, INC.","CANEMK","A3","303 River Road","Ottawa, Ontario","N/A","Canada","K1V 1H2","Vina Kerai 619-322-6910 vina.kerai@nemko.com"
"Nemko North America, INC.","CANEMK","A4","303 River Road","Ottawa, Ontario","N/A","Canada","K1V 1H2","Vina Kerai 619-322-6910 vina.kerai@nemko.com"
"Nemko North America, INC.","CANEMK","B1","303 River Road","Ottawa, Ontario","N/A","Canada","K1V 1H2","Vina Kerai 619-322-6910 vina.kerai@nemko.com"
"Nemko North America, INC.","CANEMK","B2","303 River Road","Ottawa, Ontario","N/A","Canada","K1V 1H2","Vina Kerai 619-322-6910 vina.kerai@nemko.com"
"Nemko North America, INC.","CANEMK","B3","303 River Road","Ottawa, Ontario","N/A","Canada","K1V 1H2","Vina Kerai 619-322-6910 vina.kerai@nemko.com"
"Nemko North America, INC.","CANEMK","B4","303 River Road","Ottawa, Ontario","N/A","Canada","K1V 1H2","Vina Kerai 619-322-6910 vina.kerai@nemko.com"
"North American EMC Certification Services Inc","CA0100","A1","24889 Ferguson Ave","Maple Ridge, BC","N/A","Canada","N/A","Sandy Cheng 604-466-5978 sandy.cheng@nacsemc.com"
"North American EMC Certification Services Inc","CA0100","A2","24889 Ferguson Ave","Maple Ridge, BC","N/A","Canada","N/A","Sandy Cheng 604-466-5978 sandy.cheng@nacsemc.com"
"North American EMC Certification Services Inc","CA0100","A3","24889 Ferguson Ave","Maple Ridge, BC","N/A","Canada","N/A","Sandy Cheng 604-466-5978 sandy.cheng@nacsemc.com"
"North American EMC Certification Services Inc","CA0100","A4","24889 Ferguson Ave","Maple Ridge, BC","N/A","Canada","N/A","Sandy Cheng 604-466-5978 sandy.cheng@nacsemc.com"
"North American EMC Certification Services Inc","CA0100","B1","24889 Ferguson Ave","Maple Ridge, BC","N/A","Canada","N/A","Sandy Cheng 604-466-5978 sandy.cheng@nacsemc.com"
"North American EMC Certification Services Inc","CA0100","B2","24889 Ferguson Ave","Maple Ridge, BC","N/A","Canada","N/A","Sandy Cheng 604-466-5978 sandy.cheng@nacsemc.com"
"North American EMC Certification Services Inc","CA0100","B3","24889 Ferguson Ave","Maple Ridge, BC","N/A","Canada","N/A","Sandy Cheng 604-466-5978 sandy.cheng@nacsemc.com"
"North American EMC Certification Services Inc","CA0100","B4","24889 Ferguson Ave","Maple Ridge, BC","N/A","Canada","N/A","Sandy Cheng 604-466-5978 sandy.cheng@nacsemc.com"
"PCTEST Engineering Laboratory, LLC","US0110","A1","7185 Oakland Mills Road","Columbia","Maryland","United States","21046","Randy Ortanez 410-290-6652 randy.ortanez@pctest.com"
"PCTEST Engineering Laboratory, LLC","US0110","A2","7185 Oakland Mills Road","Columbia","Maryland","United States","21046","Randy Ortanez 410-290-6652 randy.ortanez@pctest.com"
"PCTEST Engineering Laboratory, LLC","US0110","A3","7185 Oakland Mills Road","Columbia","Maryland","United States","21046","Randy Ortanez 410-290-6652 randy.ortanez@pctest.com"
"PCTEST Engineering Laboratory, LLC","US0110","A4","7185 Oakland Mills Road","Columbia","Maryland","United States","21046","Randy Ortanez 410-290-6652 randy.ortanez@pctest.com"
"PCTEST Engineering Laboratory, LLC","US0110","B1","7185 Oakland Mills Road","Columbia","Maryland","United States","21046","Randy Ortanez 410-290-6652 randy.ortanez@pctest.com"
"PCTEST Engineering Laboratory, LLC","US0110","B2","7185 Oakland Mills Road","Columbia","Maryland","United States","21046","Randy Ortanez 410-290-6652 randy.ortanez@pctest.com"
"PCTEST Engineering Laboratory, LLC","US0110","B3","7185 Oakland Mills Road","Columbia","Maryland","United States","21046","Randy Ortanez 410-290-6652 randy.ortanez@pctest.com"
"PCTEST Engineering Laboratory, LLC","US0110","B4","7185 Oakland Mills Road","Columbia","Maryland","United States","21046","Randy Ortanez 410-290-6652 randy.ortanez@pctest.com"
"PHOENIX TESTLAB GmbH","DE0003","A1","Koenigswinkel 10","32825 Blomberg","N/A","Germany","N/A","Holger Bentje 49-5235-9500-24 office@phoenix-testlab.de"
"PHOENIX TESTLAB GmbH","DE0003","A2","Koenigswinkel 10","32825 Blomberg","N/A","Germany","N/A","Holger Bentje 49-5235-9500-24 office@phoenix-testlab.de"
"PHOENIX TESTLAB GmbH","DE0003","A3","Koenigswinkel 10","32825 Blomberg","N/A","Germany","N/A","Holger Bentje 49-5235-9500-24 office@phoenix-testlab.de"
"PHOENIX TESTLAB GmbH","DE0003","A4","Koenigswinkel 10","32825 Blomberg","N/A","Germany","N/A","Holger Bentje 49-5235-9500-24 office@phoenix-testlab.de"
"PHOENIX TESTLAB GmbH","DE0003","B1","Koenigswinkel 10","32825 Blomberg","N/A","Germany","N/A","Holger Bentje 49-5235-9500-24 office@phoenix-testlab.de"
"PHOENIX TESTLAB GmbH","DE0003","B2","Koenigswinkel 10","32825 Blomberg","N/A","Germany","N/A","Holger Bentje 49-5235-9500-24 office@phoenix-testlab.de"
"PHOENIX TESTLAB GmbH","DE0003","B3","Koenigswinkel 10","32825 Blomberg","N/A","Germany","N/A","Holger Bentje 49-5235-9500-24 office@phoenix-testlab.de"
"PHOENIX TESTLAB GmbH","DE0003","B4","Koenigswinkel 10","32825 Blomberg","N/A","Germany","N/A","Holger Bentje 49-5235-9500-24 office@phoenix-testlab.de"
"RISE Research Institutes of Sweden AB","SE0001","A1","Box 857","S-50115 Boraas","N/A","Sweden","S-501 15","Tomas Bodeklint 46-10-516-55-92 tomas.bodeklint@ri.se"
"RISE Research Institutes of Sweden AB","SE0001","A2","Box 857","S-50115 Boraas","N/A","Sweden","S-501 15","Tomas Bodeklint 46-10-516-55-92 tomas.bodeklint@ri.se"
"RISE Research Institutes of Sweden AB","SE0001","A3","Box 857","S-50115 Boraas","N/A","Sweden","S-501 15","Tomas Bodeklint 46-10-516-55-92 tomas.bodeklint@ri.se"
"RISE Research Institutes of Sweden AB","SE0001","A4","Box 857","S-50115 Boraas","N/A","Sweden","S-501 15","Tomas Bodeklint 46-10-516-55-92 tomas.bodeklint@ri.se"
"RISE Research Institutes of Sweden AB","SE0001","B1","Box 857","S-50115 Boraas","N/A","Sweden","S-501 15","Tomas Bodeklint 46-10-516-55-92 tomas.bodeklint@ri.se"
"RISE Research Institutes of Sweden AB","SE0001","B2","Box 857","S-50115 Boraas","N/A","Sweden","S-501 15","Tomas Bodeklint 46-10-516-55-92 tomas.bodeklint@ri.se"
"RISE Research Institutes of Sweden AB","SE0001","B4","Box 857","S-50115 Boraas","N/A","Sweden","S-501 15","Tomas Bodeklint 46-10-516-55-92 tomas.bodeklint@ri.se"
"SGS North America, Inc.","US0186","A1","620 Old Peachtree Road NW       Suite 100","Suwanee","Georgia","United States","30024","Dustin Oaks 770-570-1836 dustin.oaks@sgs.com"
"SGS North America, Inc.","US0186","A2","620 Old Peachtree Road NW       Suite 100","Suwanee","Georgia","United States","30024","Dustin Oaks 770-570-1836 dustin.oaks@sgs.com"
"SGS North America, Inc.","US0186","A3","620 Old Peachtree Road NW       Suite 100","Suwanee","Georgia","United States","30024","Dustin Oaks 770-570-1836 dustin.oaks@sgs.com"
"SGS North America, Inc.","US0186","A4","620 Old Peachtree Road NW       Suite 100","Suwanee","Georgia","United States","30024","Dustin Oaks 770-570-1836 dustin.oaks@sgs.com"
"SGS North America, Inc.","US0186","B1","620 Old Peachtree Road NW       Suite 100","Suwanee","Georgia","United States","30024","Dustin Oaks 770-570-1836 dustin.oaks@sgs.com"
"SGS North America, Inc.","US0186","B2","620 Old Peachtree Road NW       Suite 100","Suwanee","Georgia","United States","30024","Dustin Oaks 770-570-1836 dustin.oaks@sgs.com"
"SGS North America, Inc.","US0186","B3","620 Old Peachtree Road NW       Suite 100","Suwanee","Georgia","United States","30024","Dustin Oaks 770-570-1836 dustin.oaks@sgs.com"
"SGS North America, Inc.","US0186","B4","620 Old Peachtree Road NW       Suite 100","Suwanee","Georgia","United States","30024","Dustin Oaks 770-570-1836 dustin.oaks@sgs.com"
"Sporton International (USA) Inc.","US0207","A1","1175 Montague Expressway","Milpitas","California","United States","95035","Kevin Lu 669-272-9004 Kevinlu@sporton-usa.com"
"Sporton International (USA) Inc.","US0207","A2","1175 Montague Expressway","Milpitas","California","United States","95035","Kevin Lu 669-272-9004 Kevinlu@sporton-usa.com"
"Sporton International (USA) Inc.","US0207","A3","1175 Montague Expressway","Milpitas","California","United States","95035","Kevin Lu 669-272-9004 Kevinlu@sporton-usa.com"
"Sporton International (USA) Inc.","US0207","A4","1175 Montague Expressway","Milpitas","California","United States","95035","Kevin Lu 669-272-9004 Kevinlu@sporton-usa.com"
"Sporton International (USA) Inc.","US0207","B1","1175 Montague Expressway","Milpitas","California","United States","95035","Kevin Lu 669-272-9004 Kevinlu@sporton-usa.com"
"Sporton International (USA) Inc.","US0207","B2","1175 Montague Expressway","Milpitas","California","United States","95035","Kevin Lu 669-272-9004 Kevinlu@sporton-usa.com"
"Sporton International (USA) Inc.","US0207","B4","1175 Montague Expressway","Milpitas","California","United States","95035","Kevin Lu 669-272-9004 Kevinlu@sporton-usa.com"
"TUV Austria Services GmbH","AT0001","A1","Deutschstrasse 10","Wien","N/A","Austria","A-1230","Wilhelm Seier 43-1-610-91-6530 emv@tuv.at"
"TUV Austria Services GmbH","AT0001","A2","Deutschstrasse 10","Wien","N/A","Austria","A-1230","Wilhelm Seier 43-1-610-91-6530 emv@tuv.at"
"TUV Austria Services GmbH","AT0001","A3","Deutschstrasse 10","Wien","N/A","Austria","A-1230","Wilhelm Seier 43-1-610-91-6530 emv@tuv.at"
"TUV Austria Services GmbH","AT0001","A4","Deutschstrasse 10","Wien","N/A","Austria","A-1230","Wilhelm Seier 43-1-610-91-6530 emv@tuv.at"
"TUV Austria Services GmbH","AT0001","B1","Deutschstrasse 10","Wien","N/A","Austria","A-1230","Wilhelm Seier 43-1-610-91-6530 emv@tuv.at"
"TUV Austria Services GmbH","AT0001","B2","Deutschstrasse 10","Wien","N/A","Austria","A-1230","Wilhelm Seier 43-1-610-91-6530 emv@tuv.at"
"TUV Austria Services GmbH","AT0001","B3","Deutschstrasse 10","Wien","N/A","Austria","A-1230","Wilhelm Seier 43-1-610-91-6530 emv@tuv.at"
"TUV Austria Services GmbH","AT0001","B4","Deutschstrasse 10","Wien","N/A","Austria","A-1230","Wilhelm Seier 43-1-610-91-6530 emv@tuv.at"
"TUV Rheinland of North America, Inc.","US0112","A1","1279 Quarry Lane       Suite A","Pleasanton","California","United States","94566","William Graff 925- 249-9123 wgraff@us.tuv.com"
"TUV Rheinland of North America, Inc.","US0112","A2","1279 Quarry Lane       Suite A","Pleasanton","California","United States","94566","William Graff 925- 249-9123 wgraff@us.tuv.com"
"TUV Rheinland of North America, Inc.","US0112","A3","1279 Quarry Lane       Suite A","Pleasanton","California","United States","94566","William Graff 925- 249-9123 wgraff@us.tuv.com"
"TUV Rheinland of North America, Inc.","US0112","A4","1279 Quarry Lane       Suite A","Pleasanton","California","United States","94566","William Graff 925- 249-9123 wgraff@us.tuv.com"
"TUV Rheinland of North America, Inc.","US0112","B1","1279 Quarry Lane       Suite A","Pleasanton","California","United States","94566","William Graff 925- 249-9123 wgraff@us.tuv.com"
"TUV Rheinland of North America, Inc.","US0112","B2","1279 Quarry Lane       Suite A","Pleasanton","California","United States","94566","William Graff 925- 249-9123 wgraff@us.tuv.com"
"TUV Rheinland of North America, Inc.","US0112","B3","1279 Quarry Lane       Suite A","Pleasanton","California","United States","94566","William Graff 925- 249-9123 wgraff@us.tuv.com"
"TUV Rheinland of North America, Inc.","US0112","B4","1279 Quarry Lane       Suite A","Pleasanton","California","United States","94566","William Graff 925- 249-9123 wgraff@us.tuv.com"
"TUV SUD America Inc.","US0156","A1","10 Centennial Drive","Peabody","Massachusetts","United States","01960","Jeff Woods 678-341-5925 jwoods@tuvam.com"
"TUV SUD America Inc.","US0156","A2","10 Centennial Drive","Peabody","Massachusetts","United States","01960","Jeff Woods 678-341-5925 jwoods@tuvam.com"
"TUV SUD America Inc.","US0156","A3","10 Centennial Drive","Peabody","Massachusetts","United States","01960","Jeff Woods 678-341-5925 jwoods@tuvam.com"
"TUV SUD America Inc.","US0156","A4","10 Centennial Drive","Peabody","Massachusetts","United States","01960","Jeff Woods 678-341-5925 jwoods@tuvam.com"
"TUV SUD America Inc.","US0156","B1","10 Centennial Drive","Peabody","Massachusetts","United States","01960","Jeff Woods 678-341-5925 jwoods@tuvam.com"
"TUV SUD America Inc.","US0156","B2","10 Centennial Drive","Peabody","Massachusetts","United States","01960","Jeff Woods 678-341-5925 jwoods@tuvam.com"
"TUV SUD America Inc.","US0156","B3","10 Centennial Drive","Peabody","Massachusetts","United States","01960","Jeff Woods 678-341-5925 jwoods@tuvam.com"
"TUV SUD America Inc.","US0156","B4","10 Centennial Drive","Peabody","Massachusetts","United States","01960","Jeff Woods 678-341-5925 jwoods@tuvam.com"
"TUV SUD BABT UNLIMITED","UK2004","A1","Octagon House, Concorde Way       Segensworth North","Fareham","N/A","United Kingdom","PO15 5RL","Nathan Emery +44 1489 558183 Nathan.Emery@tuv-sud.co.uk"
"TUV SUD BABT UNLIMITED","UK2004","A2","Octagon House, Concorde Way       Segensworth North","Fareham","N/A","United Kingdom","PO15 5RL","Nathan Emery +44 1489 558183 Nathan.Emery@tuv-sud.co.uk"
"TUV SUD BABT UNLIMITED","UK2004","A3","Octagon House, Concorde Way       Segensworth North","Fareham","N/A","United Kingdom","PO15 5RL","Nathan Emery +44 1489 558183 Nathan.Emery@tuv-sud.co.uk"
"TUV SUD BABT UNLIMITED","UK2004","A4","Octagon House, Concorde Way       Segensworth North","Fareham","N/A","United Kingdom","PO15 5RL","Nathan Emery +44 1489 558183 Nathan.Emery@tuv-sud.co.uk"
"TUV SUD BABT UNLIMITED","UK2004","B1","Octagon House, Concorde Way       Segensworth North","Fareham","N/A","United Kingdom","PO15 5RL","Nathan Emery +44 1489 558183 Nathan.Emery@tuv-sud.co.uk"
"TUV SUD BABT UNLIMITED","UK2004","B2","Octagon House, Concorde Way       Segensworth North","Fareham","N/A","United Kingdom","PO15 5RL","Nathan Emery +44 1489 558183 Nathan.Emery@tuv-sud.co.uk"
"TUV SUD BABT UNLIMITED","UK2004","B3","Octagon House, Concorde Way       Segensworth North","Fareham","N/A","United Kingdom","PO15 5RL","Nathan Emery +44 1489 558183 Nathan.Emery@tuv-sud.co.uk"
"TUV SUD BABT UNLIMITED","UK2004","B4","Octagon House, Concorde Way       Segensworth North","Fareham","N/A","United Kingdom","PO15 5RL","Nathan Emery +44 1489 558183 Nathan.Emery@tuv-sud.co.uk"
"TUV SUD PSB Pte Ltd","SGAP02","A1","15 International Business Park       TUV SUD @ IBP","Singapore","N/A","Singapore","609937","Swee Gee Chay-Lee (65)-6885-1354 sweegee.chay@tuv-sud-psb.sg"
"TUV SUD PSB Pte Ltd","SGAP02","A2","15 International Business Park       TUV SUD @ IBP","Singapore","N/A","Singapore","609937","Swee Gee Chay-Lee (65)-6885-1354 sweegee.chay@tuv-sud-psb.sg"
"TUV SUD PSB Pte Ltd","SGAP02","A3","15 International Business Park       TUV SUD @ IBP","Singapore","N/A","Singapore","609937","Swee Gee Chay-Lee (65)-6885-1354 sweegee.chay@tuv-sud-psb.sg"
"TUV SUD PSB Pte Ltd","SGAP02","A4","15 International Business Park       TUV SUD @ IBP","Singapore","N/A","Singapore","609937","Swee Gee Chay-Lee (65)-6885-1354 sweegee.chay@tuv-sud-psb.sg"
"TUV SUD PSB Pte Ltd","SGAP02","B1","15 International Business Park       TUV SUD @ IBP","Singapore","N/A","Singapore","609937","Swee Gee Chay-Lee (65)-6885-1354 sweegee.chay@tuv-sud-psb.sg"
"TUV SUD PSB Pte Ltd","SGAP02","B2","15 International Business Park       TUV SUD @ IBP","Singapore","N/A","Singapore","609937","Swee Gee Chay-Lee (65)-6885-1354 sweegee.chay@tuv-sud-psb.sg"
"TUV SUD PSB Pte Ltd","SGAP02","B3","15 International Business Park       TUV SUD @ IBP","Singapore","N/A","Singapore","609937","Swee Gee Chay-Lee (65)-6885-1354 sweegee.chay@tuv-sud-psb.sg"
"TUV SUD PSB Pte Ltd","SGAP02","B4","15 International Business Park       TUV SUD @ IBP","Singapore","N/A","Singapore","609937","Swee Gee Chay-Lee (65)-6885-1354 sweegee.chay@tuv-sud-psb.sg"
"Telefication B.V.","NL0001","A1","Edisonstraat 12a","Zevenaar","N/A","Netherlands","NL-6902 PK","W.J.M. Jong 31-889983600 certification@telefication.com"
"Telefication B.V.","NL0001","A2","Edisonstraat 12a","Zevenaar","N/A","Netherlands","NL-6902 PK","W.J.M. Jong 31-889983600 certification@telefication.com"
"Telefication B.V.","NL0001","A3","Edisonstraat 12a","Zevenaar","N/A","Netherlands","NL-6902 PK","W.J.M. Jong 31-889983600 certification@telefication.com"
"Telefication B.V.","NL0001","A4","Edisonstraat 12a","Zevenaar","N/A","Netherlands","NL-6902 PK","W.J.M. Jong 31-889983600 certification@telefication.com"
"Telefication B.V.","NL0001","B1","Edisonstraat 12a","Zevenaar","N/A","Netherlands","NL-6902 PK","W.J.M. Jong 31-889983600 certification@telefication.com"
"Telefication B.V.","NL0001","B2","Edisonstraat 12a","Zevenaar","N/A","Netherlands","NL-6902 PK","W.J.M. Jong 31-889983600 certification@telefication.com"
"Telefication B.V.","NL0001","B3","Edisonstraat 12a","Zevenaar","N/A","Netherlands","NL-6902 PK","W.J.M. Jong 31-889983600 certification@telefication.com"
"Telefication B.V.","NL0001","B4","Edisonstraat 12a","Zevenaar","N/A","Netherlands","NL-6902 PK","W.J.M. Jong 31-889983600 certification@telefication.com"
"Timco Engineering, Inc.","US0111","A1","849 NW State Road 45","Newberry","Florida","United States","32669","Bruno Clavier 352-472-5500 bruno.clavier@timcoengr.com"
"Timco Engineering, Inc.","US0111","A2","849 NW State Road 45","Newberry","Florida","United States","32669","Bruno Clavier 352-472-5500 bruno.clavier@timcoengr.com"
"Timco Engineering, Inc.","US0111","A3","849 NW State Road 45","Newberry","Florida","United States","32669","Bruno Clavier 352-472-5500 bruno.clavier@timcoengr.com"
"Timco Engineering, Inc.","US0111","A4","849 NW State Road 45","Newberry","Florida","United States","32669","Bruno Clavier 352-472-5500 bruno.clavier@timcoengr.com"
"Timco Engineering, Inc.","US0111","B1","849 NW State Road 45","Newberry","Florida","United States","32669","Bruno Clavier 352-472-5500 bruno.clavier@timcoengr.com"
"Timco Engineering, Inc.","US0111","B2","849 NW State Road 45","Newberry","Florida","United States","32669","Bruno Clavier 352-472-5500 bruno.clavier@timcoengr.com"
"Timco Engineering, Inc.","US0111","B3","849 NW State Road 45","Newberry","Florida","United States","32669","Bruno Clavier 352-472-5500 bruno.clavier@timcoengr.com"
"Timco Engineering, Inc.","US0111","B4","849 NW State Road 45","Newberry","Florida","United States","32669","Bruno Clavier 352-472-5500 bruno.clavier@timcoengr.com"
"UL International (UK) Ltd","UK2003","A1","Unit 1-3 Horizon Business Park       Wade Road","Basingstoke","N/A","United Kingdom","RG24 8AH","Andrew Hoare +44 1256 312046 andrew.hoare@ul.com"
"UL International (UK) Ltd","UK2003","A2","Unit 1-3 Horizon Business Park       Wade Road","Basingstoke","N/A","United Kingdom","RG24 8AH","Andrew Hoare +44 1256 312046 andrew.hoare@ul.com"
"UL International (UK) Ltd","UK2003","A3","Unit 1-3 Horizon Business Park       Wade Road","Basingstoke","N/A","United Kingdom","RG24 8AH","Andrew Hoare +44 1256 312046 andrew.hoare@ul.com"
"UL International (UK) Ltd","UK2003","A4","Unit 1-3 Horizon Business Park       Wade Road","Basingstoke","N/A","United Kingdom","RG24 8AH","Andrew Hoare +44 1256 312046 andrew.hoare@ul.com"
"UL International (UK) Ltd","UK2003","B1","Unit 1-3 Horizon Business Park       Wade Road","Basingstoke","N/A","United Kingdom","RG24 8AH","Andrew Hoare +44 1256 312046 andrew.hoare@ul.com"
"UL International (UK) Ltd","UK2003","B2","Unit 1-3 Horizon Business Park       Wade Road","Basingstoke","N/A","United Kingdom","RG24 8AH","Andrew Hoare +44 1256 312046 andrew.hoare@ul.com"
"UL International (UK) Ltd","UK2003","B4","Unit 1-3 Horizon Business Park       Wade Road","Basingstoke","N/A","United Kingdom","RG24 8AH","Andrew Hoare +44 1256 312046 andrew.hoare@ul.com"
"UL Japan, Inc.","JP0001","A1","4383-326 Asama-cho","Ise-shi Mie","N/A","Japan","5160021","Tetsuya Hashimoto 81-596-24-8999 emc.jp@ul.com"
"UL Japan, Inc.","JP0001","A2","4383-326 Asama-cho","Ise-shi Mie","N/A","Japan","5160021","Tetsuya Hashimoto 81-596-24-8999 emc.jp@ul.com"
"UL Japan, Inc.","JP0001","A4","4383-326 Asama-cho","Ise-shi Mie","N/A","Japan","5160021","Tetsuya Hashimoto 81-596-24-8999 emc.jp@ul.com"
"UL Verification Services Inc. (formerly UL CCS)","US0104","A1","47173 Benicia Street","Fremont","California","United States","94538","Dave Piecuch 360-817-5531 LST.FRE.CertNotice@ul.com"
"UL Verification Services Inc. (formerly UL CCS)","US0104","A2","47173 Benicia Street","Fremont","California","United States","94538","Dave Piecuch 360-817-5531 LST.FRE.CertNotice@ul.com"
"UL Verification Services Inc. (formerly UL CCS)","US0104","A3","47173 Benicia Street","Fremont","California","United States","94538","Dave Piecuch 360-817-5531 LST.FRE.CertNotice@ul.com"
"UL Verification Services Inc. (formerly UL CCS)","US0104","A4","47173 Benicia Street","Fremont","California","United States","94538","Dave Piecuch 360-817-5531 LST.FRE.CertNotice@ul.com"
"UL Verification Services Inc. (formerly UL CCS)","US0104","B1","47173 Benicia Street","Fremont","California","United States","94538","Dave Piecuch 360-817-5531 LST.FRE.CertNotice@ul.com"
"UL Verification Services Inc. (formerly UL CCS)","US0104","B2","47173 Benicia Street","Fremont","California","United States","94538","Dave Piecuch 360-817-5531 LST.FRE.CertNotice@ul.com"
"UL Verification Services Inc. (formerly UL CCS)","US0104","B3","47173 Benicia Street","Fremont","California","United States","94538","Dave Piecuch 360-817-5531 LST.FRE.CertNotice@ul.com"
"UL Verification Services Inc. (formerly UL CCS)","US0104","B4","47173 Benicia Street","Fremont","California","United States","94538","Dave Piecuch 360-817-5531 LST.FRE.CertNotice@ul.com"
"Ultratech Engineering Labs Inc.","CA2049","A1","3000 Bristol Circle","Oakville Ontario","N/A","Canada","L6H 6G4","Tri Luu 905-829-1570 tri@ultratech-labs.com"
"Ultratech Engineering Labs Inc.","CA2049","A2","3000 Bristol Circle","Oakville Ontario","N/A","Canada","L6H 6G4","Tri Luu 905-829-1570 tri@ultratech-labs.com"
"Ultratech Engineering Labs Inc.","CA2049","A3","3000 Bristol Circle","Oakville Ontario","N/A","Canada","L6H 6G4","Tri Luu 905-829-1570 tri@ultratech-labs.com"
"Ultratech Engineering Labs Inc.","CA2049","A4","3000 Bristol Circle","Oakville Ontario","N/A","Canada","L6H 6G4","Tri Luu 905-829-1570 tri@ultratech-labs.com"
"Ultratech Engineering Labs Inc.","CA2049","B1","3000 Bristol Circle","Oakville Ontario","N/A","Canada","L6H 6G4","Tri Luu 905-829-1570 tri@ultratech-labs.com"
"Ultratech Engineering Labs Inc.","CA2049","B2","3000 Bristol Circle","Oakville Ontario","N/A","Canada","L6H 6G4","Tri Luu 905-829-1570 tri@ultratech-labs.com"
"Ultratech Engineering Labs Inc.","CA2049","B3","3000 Bristol Circle","Oakville Ontario","N/A","Canada","L6H 6G4","Tri Luu 905-829-1570 tri@ultratech-labs.com"
"Ultratech Engineering Labs Inc.","CA2049","B4","3000 Bristol Circle","Oakville Ontario","N/A","Canada","L6H 6G4","Tri Luu 905-829-1570 tri@ultratech-labs.com"
"Vista Laboratories, Inc.","US0202","A1","1261 Puerta Del Sol","San Clemente","California","United States","92673","Yuna Yin (949) 393-1123 CB@vista-compliance.com"
"Vista Laboratories, Inc.","US0202","A2","1261 Puerta Del Sol","San Clemente","California","United States","92673","Yuna Yin (949) 393-1123 CB@vista-compliance.com"
"Vista Laboratories, Inc.","US0202","A3","1261 Puerta Del Sol","San Clemente","California","United States","92673","Yuna Yin (949) 393-1123 CB@vista-compliance.com"
"Vista Laboratories, Inc.","US0202","A4","1261 Puerta Del Sol","San Clemente","California","United States","92673","Yuna Yin (949) 393-1123 CB@vista-compliance.com"
"Vista Laboratories, Inc.","US0202","B1","1261 Puerta Del Sol","San Clemente","California","United States","92673","Yuna Yin (949) 393-1123 CB@vista-compliance.com"
"Vista Laboratories, Inc.","US0202","B2","1261 Puerta Del Sol","San Clemente","California","United States","92673","Yuna Yin (949) 393-1123 CB@vista-compliance.com"
"Vista Laboratories, Inc.","US0202","B3","1261 Puerta Del Sol","San Clemente","California","United States","92673","Yuna Yin (949) 393-1123 CB@vista-compliance.com"
"Vista Laboratories, Inc.","US0202","B4","1261 Puerta Del Sol","San Clemente","California","United States","92673","Yuna Yin (949) 393-1123 CB@vista-compliance.com"
