"business_name","business_address","previous_business_names","states_serviced","regulatory_contact_name","regulatory_contact_title","regulatory_contact_address","regulatory_contact_telephone","regulatory_contact_email","rural_call_completion_contact_name","rural_call_completion_contact_title","rural_call_completion_contact_address","rural_call_completion_contact_telephone","rural_call_completion_contact_email","rural_call_completion_contact_department"
"TeleVoip ESC","The Corporation Trust Centre, 1209 Orang,Wilmington,DE 19801","None","DE","","","","","","","","","","",""
"Fitelecom LLC","1680 Michigan Ave 910,Miami Beach,FL 33139","none","FL","Carolina  Martins","Secretary","Michigan Av. Miami Beach","305-491-3755 ","c.martins@fi-telecom.com","Corrado  Savelli","VP","Michigan Av. Miami Beach","786-301-7666 ","c.savelli@fi-telecom.com","Technical"
"Peninsula Fiber Network, LLC","1901 W Ridge Street,Marquette,MI 49855","None","MI, WI","James  Bednarek","Controller","1901 West Ridge Street, Suite #2, Marquette, MI, 49855","906-226-2010 ","jbednarek@pfnllc.net","James  Bednarek","Controller","1901 West Ridge Street, Suite #2, Marquette, MI, 49855","906-226-2010 ","jbednarek@pfnllc.net","Operations"
"Ricochet, LLC","880 Harrison St SE,Leesburg,VA 20175","None","VA","Trevor  Dearman","CFO","880 Harrison St SE Leesburg VA 20175","703-242-8898 ","trevor@ricochetglobal.com","Torge  Dennen","CEO","880 Harrison St SE Leesburg VA 20175","571-286-0926 ","torge@ricochetglobal.com","Legal"
"Lingo-Impact Telecom","9330 LBJ Freeway,Dallas,TX 75243","Matrix Telecom, LLC.","AK, AL, AR, AZ, CA, CO, CT, DC, DE, FL, GA, HI, IA, ID, IL, IN, KS, KY, LA, MA, MD, ME, MI, MN, MO, MS, MT, NC, ND, NE, NH, NJ, NM, NV, NY, OH, OK, OR, PA, RI, SC, SD, TN, TX, UT, VA, VT, WA, WI, WV, WY","Alex  Valencia","VP Govt. Affairs & Compliance","433 E. Las Colinas Blvd., Suite 500, Irving, TX 75039","972-910-1720 ","alex.valencia@lingo.com","Alex  Valencia","VP Govt. Affairs & Compliance","433 E. Las Colinas Blvd., Suite 500, Irving, TX 75039","844-787-2500 ","ruralcompliance@impacttelecom.com","Regulatory"
"","9 stormytown rd,ossining,NY 10562","none","NY, CA, GA, NV, FL, LA","jason  white","Manager","410 hunnewell avenue","315-260-0387 ","info@onyxtele.com","jason  white","Manager","410 hunnewell avenue","315-260-0387 ","info@onyxtele.com","service"
"Transcom Consulting LLC","11111 Grant Rd Apt #215,Cypress,TX 77429","None","TX","","","","","","","","","","",""
"PLD, LLC","111 Commercial Street, Suite 300,Portland,ME 04101","None","CA, FL","Doug  Hoff","Senior Manager","6250 Shiloh Rd.  Suite 110","404-472-6241 ","doug@gsaudits.com","Gary  Grinham","Vice President and Controller","111 Commercial St., Suite 300, Portland, ME 04101","310-309-0995 ","ggrinham@ultra.me","Administration"
"HADLO Technologies LLC","3982 Powell Rd,Powell,OH 43066","none","AK, AL, AR, AS, AZ, CA, CO, CT, DC, DE, FL, FM, GA, SO, GU, HI, IA, ID, IL, IN, KS, KY, LA, MA, MD, ME, MH, MI, MN, MO, MP, MS, MT, NC, ND, NE, NH, NJ, NM, NV, NY, OH, OK, OR, PA, PR, RI, SC, SD, TN, TX, UT, VA, VI, VT, WA, WI, WV, WY, OU","Thomas  Hadden","President","3982 Powell Rd,  Ste 125 Powell, OH 43065-7662","615-814-0102 ","corp@hadlotechnologies.com","Cathryn  Zygadlo","COO","3982 Powell Rd,  Ste 125 Powell, OH 43065-7662","615-814-0101 ","corp@hadlotechnologies.com","Operations and COmpliance"
"Alaska Communications","600 Telephone Avenue,Anchorage,AK 99515","None","AK","Trent  Wilson","Financial Analyst","600 Telephone Avenue, Anchorage, AK, 99503","907-564-7902 ","Trent.Wilson@acsalaska.com","Robert  Scott","Sr. Manager, Network Developement & Engineering","600 Telephone Avenue, Anchorage, AK 99503","907-564-3323 ","Robert.Scott@acsalaska.com","Network Develppement & Engineering"
"Piratel","10572 Calle Lee,Los Alamitos,CA 90720","None","CA, AA, AE, AK, AL, AP, AR, AS, AZ, CO, CT, DC, DE, FL, FM, GA, SO, GU, HI, IA, ID, IL, IN, KS, KY, LA, MA, MD, ME, MH, MI, MN, MO, MP, MS, MT, NC, ND, NE, NH, NJ, NM, NV, NY, OH, OK, OR, OU, PA, PR, RI, SC, SD, TN, TX, UT, VA, VI, VT, WA, WI, WV, WY","Nici  Daniels","COO","10572 Calle Lee Suite 123","562-257-3131 749","nici@piratel.com","Nici  Daniels","COO","10572 Calle Lee Suite 123","562-257-3131 749","nici@piratel.com","Operations"
"IT Management Corporation dba 101 Voice","5201 Great American Pkwy.,Santa Clara,CA 95054","None","CA, NV, NY, OR, WA, NJ, NC, NM, AZ, HI, TX, AK, AL, CO, CT, MA, RI","David  Ricci","VP Sevice","5201 Great America Pkwy #320 Santa Clara, CA","408-739-1100 1120","dricci@itmgmt.com","David  Ricci","Service Manager","5201 Great America Parkway, Suite 320, Santa Clara CA 95054","408-739-1100 ","csr@101voice.com","Service"
"Ameraconnect Telecom LLC","6709 W 119TH ST Ste. 353,Overland Park,KS 66209","NONE","KS","","","","","","","","","","",""
"Hamilton Relay, Inc.","1006 12th Street,Aurora,NE 68818","None","NE, MD, DC, CA, GA, ID, IA, KY, LA, MA, MI, MO, NM, PA, UT, VA, WA, OU","Beth  Slough","Relay Regulatory Administrator","1006 12th Street  Aurora, Ne 68818","402-694-5101 7233","beth.slough@hamiltonrelay.com","Greg  Stephens","Relay Tech Manager","1006 12th St  Aurora, Ne 68818","402-694-5101 7302","greg.stephens@hamiltontel.com","Relay"
"PEG Bandwidth PA, LLC","10802 Executive Center Drive,Little Rock,AR 72211","NONE","PA","Jeffrey  Strenkowski","VP, Deputy General Counsel of Governmental Affairs","10802 Executive Center Drive, Suite 300, Little Rock, AR 72211","501-458-4397 ","jeffrey.strenkowski@uniti.com","Eric  Daniels","SVP, Operations","107 St Francis Street, Suite 1800, Mobile, AL 36602","251-662-1513 ","eric.daniels@uniti.com","Operations"
"Reduced Rate Long Distance, LLC","1800 Pembrook Drive, Suite 300,Orlando,FL 32810","None","AL, AR, AZ, CA, CO, DE, FL, GA, IA, ID, IL, IN, KY, LA, MA, MD, ME, MN, MO, MS, NC, NE, NH, NJ, NM, NV, NY, OH, OK, OR, PA, RI, SC, SD, TN, TX, VA, WA, WI, WV, WY","Robert  Sorrentino","Member","1800 Pembrooke Drive, Suite 300, Orlando, FL 32810","800-435-9217 ","regdbg@dominionbusinessgroup.com","Robert  Sorrentino","Member","1800 Pembrooke Drive, Suite 300, Orlando FL 32810","866-367-7753 ","service@service-us.com","Management"
"J&F World Solutions, Inc","4995 NW 72nd Ave Suite 205,Miami,FL 33166","none","OU","Juan  Acosta","President & CEO","4995 NW 72nd Ave, Suite 205","305-307-0536 ","juan@jfworldsolutions.com","Juan  Acosta","President & CEO","4995 NW 72nd Ave","305-307-0536 ","juan@jfworldsolutions.com","CEO"
"Mpower Communications Corp. d/b/a TPx Co","303 Colorado St.,Austin,TX 78701","None","CA, NV","William (Bill)  Hunt","General Counsel, SVP & Secretary","10333 East Dry Creek Rd. Ste. 170, Englewood, CO 80112","303-268-5420 ","william.hunt@tpx.com","Carroll  Davis","Director - Network Operations Center","3300 N. Cimarron Rd., Las Vegas, NV 89129","702-316-6775 ","cadavis@tpx.com","Network Operations Center"
"Network USA, LLC.","5301 77 Center Drive,Charlotte,NC 28217","None","AR, CO, LA, MS, TX","Dawna Kimmich Hannan","VP of Telecom Regulatory","2101 Rexford Road, Suite 200E, Charlotte, NC 28211","704-936-1805 ","dhannan@conterra.com","Dawna Kimmich Hannan","VP of Regulatory Affairs","2101 Rexford Road, Suite 200E, Charlotte, NC 28211","704-936-1805 ","dhannan@conterra.com","Regulatory"
"Full Service Network","600 GRANT ST,PITTSBURGH,PA 15219","None","PA","DAVID EVAN SCHWENCKE","CEO","600 GRANT ST STE 3075 PITTSBURGH PA 15219","412-745-9000 221","DAVID@FULLSERVICENETWORK.COM","DAVID EVAN SCHWENCKE","CEO","600 GRANT ST STE 3075 PITTSBURGH PA 15219","412-745-9000 221","DAVID@FULLSERVICENETWORK.COM","ADMINISTRATION"
"Vodex Communications Corporation","120 Tustin Avenue,Newport Beach,CA 92663","None","CA","Chris  Wolf","VP & Secretary","120 Tustin Avenue Suite C","657-600-4799 ","cwolf@atometron.com","Chris  Wolf","VP & Secretary","120 Tustin Avenue Suite C","657-600-4799 ","cwolf@atometron.com","Management"
"T C Telephone LLC","242 Washington Street,Red Bluff,CA 96080","T C Telephone LLC","CA","Aggie  Hill","Operations Manager","243 Washington Street, Red Bluff, CA 96080","530-316-1604 ","hill.aggie@tctelephone.net","Robert  Costello","Manaing Member","243 Washington Street, Red Bluff, CA 96080","530-316-1604 ","costello.robert@tctelephone.net","Operations"
"8x8, Inc.","675  Creekside Way,Campbell,CA 95008","None","AK, AL, AR, AZ, CA, CO, CT, DC, DE, FL, GA, HI, IA, ID, IL, IN, KS, KY, LA, MA, MD, ME, MI, MN, MO, MS, MT, NC, NE, NH, NJ, NM, NV, NY, OH, OK, OR, PA, RI, SC, SD, TN, TX, UT, VA, VT, WA, WI, WV, WY","Brendan  Kasper","Senior Counsel, Regulatory","675  Creekside Way","646-751-7323 ","brendan.kasper@8x8.com","Javier  Gonzalez","Director, Carrier Services","675  Creekside Way","408-824-7514 ","javier.gonzalez@8x8.com","Network Operations"
"Inteliquent","550 W Adams Street,Chicago,IL 60661","Associated Network Partners","AA, AE, AK, AL, AP, AR, AS, AZ, CA, CO, CT, DC, DE, FL, FM, GA, SO, GU, HI, IA, ID, IL, IN, KS, KY, LA, MA, MD, MH, ME, MI, MN, MO, MP, MS, MT, NC, ND, NE, NH, NJ, NM, NV, NY, OH, OK, OR, PA, OU, PR, RI, SC, SD, TN, TX, VA, UT, VI, VT, WA, WI, WV, WY","Richard  Monto","General Counsel","550 W Adams Street, Suite 900, Chicago, IL 60661","312-348-8400 ","richard.monto@inteliquent.com","Randy  Fredrick","Senior Director Network Services","550 W Adams Street, Suite 900, Chicago, IL 60455","312-348-8010 ","randy.fredrick@inteliquent.com","Network Services"
"Baltimore-Washington Telephone Company","5000 Birch Street,Newport Beach,CA 92660","None","MD, NY, NV, CA","Justin  Newman","Vice President of Telecom and Infrastructure","4695 MacArthur Court Suite 930, Newport Beach, CA 92660","949-596-4629 ","compliance@bwt.io","Justin  Newman","Vice President of Telecom and Infrastructure","4695 MacArthur Court Suite 930, Newport Beach, CA 92660","949-596-4629 ","compliance@bwt.io","Telecom and Infrastructure"
"AllClear Connect Inc","9237 Outrigger Rd  #1414,Port Richey,FL 34668","AllClear Connect Inc","FL","Jennifer  Perrault","Compliance","9237 Outrigger Rd  #1414, Port Richey, FL  34668","561-459-2913 ","jennifer@allclearconnect.com","Barry Augustinsky Augustinsky","COO","9237 Outrigger Rd  #1414, Port Richey, FL  34668","727-337-0091 ","baug@allclearconnect.com","Operations"
"Broadband Dynamics, L.L.C.","8757 E Via De Commercio,Scottsdale,AZ 85258","Arizona Telephony Brokers, LLC name was changed to Broadband Dynamics in 2007.","AZ, AL, AR, CA, CO, CT, DE, DC, FL, GA, ID, IL, IN, IA, KS, KY, LA, MD, MA, MI, MN, MS, MO, MT, NE, NV, NH, NJ, NM, NY, NC, ND, OH, OK, OR, PA, RI, SC, SD, TN, TX, UT, VA, WA, WV, WI, WY","Kim  Havins","Tax & Compliance","8757 E. Via De Commercio, First Floor, Scottsdale, AZ  85258","888-801-1034 ","khavins@broadbanddynamics.com","Kevin  Wise","Provisioning & Support","8757 E. Via De Commercio, First Floor, Scottsdale, AZ  85258","888-801-1034 ","support@broadbanddynamics.com","Provisioning & Support"
"","903 Lake Lily Drive,Maitland,FL 32751","None","TX","Scott  Howsare","President","903 Lake Lilly Drive, Maitland, FL 32751","407-629-0950 ","showsare@firstchoicetele.com","Scott  Howsare","President","903 Lake Lily Drive, Suite A125, Maitland, FL  32751","407-629-0950 ","showsare@firstchoicetele.com","Management"
"Nuso, LLC","6677 Delmar Blvd,University City,MO 63130","None","AK, AL, AR, AZ, CA, CO, CT, DC, DE, FL, GA, HI, IA, ID, IL, IN, KS, KY, LA, MA, MD, ME, MI, MN, MO, MS, MT, NC, ND, NE, NH, NJ, NM, NV, OH, OR, PA, PR, RI, SD, SC, TN, TX, UT, VA, VT, WA, WI, WV, WY, OU, GU, AS, VI","Kevin  Moss","VP, Strategic Development","6677 Delmar Blvd","314-390-6208 ","kevin.moss@nuso.cloud","Garry  Vardanyan","VP, Engineering","6677 Delmar Blvd","314-390-6204 ","garry.vardanyan@nuso.cloud","Engineering"
"Mash Telecom Inc.","1085 Rue Smith, Suite 1005, Montreal, Canada ","None","AL, AR, CA, DE, FL, NY, TX","Maxwell  Ashurst","CEO","1085 Rue Smith, Suite 1005, Montreal, Quebec, H3C0L9","514-519-0313 ","max@mashtelecom.com","Maxwell  Ashurst","CEO","1085 Rue Smith, Suite 1005, Montreal, Quebec, H3C0L9","514-519-0313 ","max@mashtelecom.com","Operations"
"WLanJV, Inc.","5200 Keller Springs Road,Dallas,TX 75248","None","CA","Jane B Gilmond","Accountant","231 W. Oasis Road","760-325-4040 ","jbgilmond@aol.com","Jane B Gilmond","Accountant","231 W. Oasis Road","760-325-4040 ","jbgilmond@aol.com","Management"
"Alliance Global Networks LLC","1221 Post Rd. E.,Westport,CT 06880","none","AA, AE, AK, AL, AP, AR, AZ, AS, CA, CO, CT, DE, FL, GA, GU, HI, IA, ID, IL, IN, KS, KY, LA, MA, MD, ME, MH, MI, MN, MO, MP, MT, MS, NC, NE, ND, NH, NJ, NM, NV, NY, OH, OR, OU, OK, PA, RI, SC, TN, TX, SD, VA, UT, VT, WA, WI, WV, WY","Mary  OKeeffe","CFO","1221 Post Road East, Westport, CT  06880","203-221-8700 ","mok@alliancegrp.com","Rob  Peterson","IT Director","1221 Post Road East, Westport, CT  06880","203-221-8700 128","robp@alliancegrp.com","Operations"
"VoIP Innovations, LLC","One Penn Center West,Pittsburgh,PA 15276","VoIPStreet, Inc","AK, AR, AL, AZ, CA, CO, CT, DC, DE, FL, GA, HI, IA, ID, IL, IN, KS, KY, LA, MD, ME, MI, MN, MO, MS, MT, NC, ND, NH, NE, NJ, NM, NV, NY, OH, OK, OR, PA, PR, RI, SC, SD, TN, TX, UT, VA, VI, VT, WA, WI, WV, WY","Michelle  Fleming","Associate General Counsel","One Penn Center W, Suite 400, Pittsburgh, PA 15276","914-207-5004 ","mfleming@sangoma.com","Cameron  Nutter","Director of Operations","One Penn Center W, Suite 400 Pittsburgh, PA, 15276","412-326-3019 ","cameronn@voipinnovations.com","Operations"
"TI Sparkle Singapore Pte Ltd.","6 Temasek Boulevard, #23-01 Suntec Tower Four, Singapore, Singapore ","None","OU","Alessandro  de Iulio","Managing Director","6 Temasek Boulevard, #23-01 Suntec Tower Four","656-235-2010 ","alessandro.deiulio@tisparkle.com","Davide  Colella","Chief Security Officer","Via di macchia Palocco 223 Rome, Italy","390-632-1000 ","tis-trafficalert@tisparkle.com","Operations"
"Dorial Telecom, LLC","801 Brickell Ave,Miami,FL 33131","None","FL","Luca  Giussani","Ceo/President","801 Brickell Ave Suite 900, Miami FL 33131","305-673-9811 ","lgiussani@dorial.com","Peter  Hoch","COO","801 Brickell Ave Suite 900, Miami FL 33131","954-818-2280 ","PHOCH@DORIAL.COM","Operations"
"GCI Communication Corp.","2550 Denali St, Ste 1000,Anchorage,AK 99503","General Communication, Inc.
General Communication Corp.
GCI","AK, WA, OR","Tim  Stelzig","Federal Regulatory Attorney","1900 L Street NW Suite 700; Washington, DC 20036","202-503-2851 ","tstelzig@gci.com","Brad  Sewell","Manager, Traffic Engineering","3000 C Street, Suite 104; Anchorage, AK 99503","907-868-6606 ","bsewell@gci.com","Network Services Department"
"IP Horizon LLC","7700 CONGRESS AVE STE 3214,BOCA RATON,FL 33487","None","OU","Michel  Singer Nelson","Counsel and VP of Regulatory","2865 Surnise Blvd., Suite 220","916-235-2028 ","mnelson@iph.com","Nathan  Lighthouse","Engineering Manager","2865 Sunrise Blvd., Suite 220, Rancho Cordova, CA  95742","916-235-2069 ","nlighthouse@iph.com","Network Operations"
"Cable One, Inc. dba Sparklight","210 E. Earll Drive,Phoenix,AZ 85012","None","AL, AR, AZ, IA, ID, IL, IN, KS, LA, MN, ND, MO, MS, NE, NM, OK, OR, SD, TN, TX, WA","Emerson  Yearwood","Assoc. Gen. Counsel & Dir. of Regulatory Affairs","210 E. Earll Drive","602-364-6195 ","emerson.yearwood@cableone.biz","Glenn  Baumgarth","Leade Systems Analyst","210 E. Earll Drive, Phoenix, AZ 85012-2626","602-364-6471 ","glenn.baumgarth@cableone.biz","Telephony"
"","7651 Eldorado Parkway,McKinney,TX 75070","None","AL, AR, AZ, CA, CO, CT, DC, DE, FL, GA, IA, ID, IL, IN, KS, KY, LA, MD, ME, MI, MN, MO, MS, MT, NC, ND, NE, NH, NJ, NY, NM, NV, OH, OK, OR, PA, RI, SC, SD, TN, TX, UT, VA, VT, WA, WI, WV, WY, MA","Articul8  Finance","CFO","2323 Bryan St, Dallas TX 75201","214-256-3211 ","finance@articul8.xyz","Articul8  Engineering","COO","2323 Bryan Street, Dallas TX 75201","214-256-3211 ","noc@articul8.com","Operations"
"R SQUARED TELECOM LLC","526 S. Main Street, Suite 80,Akron,OH 44311","None","OH, CA","Nevada Registered Agent LLC  Nevada Registered Agent LLC","Designated Agent","401 Ryland St, STE 200A, Reno, NV 89502","775-401-6800 ","agent@nevadaresidentagent.com","Daniel  Husted","Compliance Manager","526 S Main St STE 802","330-205-4251 ","legal@rsquaredtelecom.com","Legal"
"AKA Management, Inc.","1621 Central Ave,Cheyenne,WY 82001","None","WY","Steve  Emry","CEO","2719 Thomas Ave.","307-459-2990 ","akamgtlegal@gmail.com","Steve  Emry","CEO","2719 Thomas Ave","307-459-2990 ","akamgtlegal@gmail.com","Legal"
"TRING NETWORK LIMITED",",, ","None","OU","","","","","","","","","","",""
"Enhanced Communications Group, LLC","312 S.E. Delaware Avenue,Bartlesville,OK 74003","None","AL, AR, AZ, CA, CO, CT, DE, FL, GA, HI, IA, ID, IL, IN, KS, KY, LA, MA, MD, ME, MI, MN, MO, MS, MT, NC, ND, NE, NH, NM, NJ, NV, NY, OH, OK, OR, PR, RI, PA, SC, SD, TN, TX, UT, AK, VA, VT, WA, WY, WV, WI","Mark  Lammert, CPA c/o Compliance Solutions","Regulatory Contact","242 Rangeline Road, Longwood, FL  32750","918-332-3903 ","mark@csilongwood.com","Mark  Lammert CPA c/o Compliance Solutions","Rural Call Completion Point of Contact","242 Rangeline Road, Longwood, FL  32750","918-332-3903 ","mark@csilongwood.com","Compliance"
"Junction Cloud Connections, Inc.","8 The Green STE 8115,Dover,DE 19901","None.","NY, NJ, CA, DE, WI","Doug  Hoff","Senior Manager","6250 Shiloh Rd., Suite 110, Alpharetta, GA 30005","404-472-6241 ","doug@gsaudits.com","Joseph  Ades","COO","8 The Green STE 8115. Dover DE 19901","302-203-6888 ","webmaster@junctionconnections.com","Sales"
"CITY OF WYANDOTTE DEPT. OF MUNICIPAL SER","3200 Biddle Avenue,WYANDOTTE,MI 48192","None.","MI, FM","Doug  Hoff","Senior Manager","6250 Shiloh Rd.  Suite 110 Alpharetta, GA 30005","404-472-6241 ","doug@gsaudits.com","Steve  Timcoe","Superintendent","3200 Biddle Avenue Suite 200 Wyandotte, Michigan 48192","734-324-7130 ","stimcoe@wyandottemi.gov","CATV Telecommunications"
"CoreTel Communications, Inc.","213 South Main St.,Anderson,SC 29624","None","FL, DE, GA, KS, KY, NJ, DC, MD, PA, VA, WV, WA, AL, NY","Ralph  Gleaton","General Counsel","213 South Main St., Anderson, SC 29624","864-444-4178 ","ralph@gleatonlaw.com","Glenn  Dalgliesh","Operations Consultant","213 South Main St., Anderson, SC 29624","443-912-1000 ","glenn@coretel.net","Operations"
"NuLeef Communcations","1200 Abernathy Road,Atlanta,GA 30328","None","GA","Tiffany  Franzky","Operations","1200 Abernathy Rd, Suite 1700, Atlanta, GA 30328","610-504-3419 ","tjfranzky@nuleef.com","Tiffany  Franzky","Operations","1200 Abernathy Rd, Suite 1700, Atlanta, GA 30328","610-504-3419 ","tjfranzky@nuleef.com","Operations"
"MnB Tel LLC","1732 FLEETWOOD ST,BOULDER CITY,NV 89005","None","AA, AE, AK, AL, AP, AR, AS, AZ, CA, CO, CT, DC, FL, DE, FM, GA, SO, GU, HI, IA, ID, IL, IN, KS, KY, LA, MA, MD, ME, MH, MI, MN, MO, MP, MS, MT, NC, ND, NH, NE, NJ, NM, NV, NY, OH, OK, OR, PA, PR, SC, SD, TN, RI, TX, UT, VA, VI, VT, WA, WI, WV, WY","Margaret Anne Lick","CEO","1732 Fleetwood St, Boulder City, NV 89005","725-999-8343 ","mlick@mnbtel.com","Barry Alan Lick","COO","1732 Fleetwood St","725-999-8343 ","support@mnbtel.com","Executive"
"Kandy Communications LLC","1720 Peachtree Street,Atlanta,GA 30309","None","FL, NC, CA","Ulises  Pin","Attorney at Law","1111 Pennsylvania Avenue, Washington DC 20004-2541","202-373-6664 ","ulises.pin@morganlewis.com","Avanish  Pande","PLM","5927 South Miami Blvd, Suite 150, Morrisville, NC 27560","469-888-7028 ","apande@kandy.io","Kandy"
"Go2Tel.Com, Inc ( Attn: R Meloni)","125 Park Avenue,New York,NY 10017","none","VA","","","","","","","","","","",""
"Inviacom, Inc.","4 Bedford Farms Drive, Suite 210,Bedford,NH 03110","None","AZ, CA, CO, CT, FL, GA, IA, IL, IN, MN, MO, NC, NE, NH, NM, PA, TN, TX, VA, VT","Matt  Dean","Director of Regulatory Compliance","P.O. Box 720128","405-755-8177 2103","mdean@telecompliance.net","Chris  Shupe","President","PO Box 2730","704-234-5422 ","accounting@inviacom.com","General Admin"
"Conterra Ultra Broadband, LLC","5301 77 Center Drive,Charlotte,NC 28217","None","AZ, AR, CA, GA, ID, IN, KY, KS, LA, ME, MS, NM, NY, NC, OK, PA, SC, TN, TX, UT, VA, WV, AL","Dawna Kimmich Hannan","Vice President of Telecom Regulatory","2101 Rexford Road, Suite 200E, Charlotte, NC 28211","704-936-1805 ","dhannan@conterra.com","Dawna Kimmich Hannan","Vice President of Telecom Regulatory","2101 Rexford Road, Suite 200E, Charlotte, NC 28211","704-936-1805 ","dhannan@conterra.com","Regulatory"
"All In One IT Solutions",",, ","None","OU","","","","","","","","","","",""
"Skyfall Voice Communications Private Lim","No.67, Sri Kumaran Nagar Main Road, Seevaram, Perungudi, Chennai, India Tamil Nadu","None","OU","","","","","","","","","","",""
"Smartbiz Telecom, LLC","14230 SW 57th Lane,Miami,FL 33183","None","AL, AK, AZ, AR, CA, CO, CT, DE, GU, FL, GA, HI, ID, IL, IN, IA, KS, KY, LA, ME, MD, MA, MI, MN, MS, MO, MT, NE, NV, NH, NJ, NM, NY, NC, ND, OH, OK, OR, AS, PA, RI, SC, SD, TN, DC, TX, UT, PR, VT, VA, WA, WV, WI, WY, VI, MP","Eduardo  Borrero","Manager","14230 SW 57th Ln, 106, Miami FL 33183","305-951-0028 ","eborrero@smartbiztel.com","Eduardo  Borrero","Manager","14230 SW 57th Ln, 106, Miami FL 33183","305-951-0028 ","eborrero@smartbiztel.com","Operations"
"AT&T Services Inc.","1120 20th Street, NW,Washington,DC 20036","None","AL, AK, AR, AZ, CA, CO, CT, DE, FL, GA, HI, ID, IL, IN, IA, KS, KY, LA, ME, MD, MA, MI, MN, MS, MO, NE, NV, NH, NJ, NM, NY, NC, ND, OH, OK, OR, PA, RI, SC, SD, TN, TX, UT, VT, VA, WA, WV, WI, WY, MT","Glenis  McKoy","Manager - Regulatory","1120 20th Street NW, Suite 1000, Washington, DC 20036","202-457-3852 ","gm909g@att.com","Donna  Dupre","Principal","28W615 Ferry Rd, Warrenville IL 60555","630-836-8300 ","NESAC_NSFG@att.com","Network Operations - NESAC"
"Telecall Telecommunications Corp. d/b/a ","848 Brickell Ave, Suite 1235,Miami,FL 33131","None","FL","Scotty  Amos","Authorized Agent","2640 Youree Dr., Suite 100   Shreveport, LA 71104","318-429-7552 ","samos@rbm.com","Samantha  Astuto","Officer and Financial Controller","848 Brickell ave","954-213-6092 ","samantha.astuto@telecall.com","Finacial"
"Integrated Axis Group, LLC","5313 50th St STE C3,Lubbock,TX 79414","None","TX, AR, NV, LA","Scott  Shackelford","CFO","5313 50th St STE C3, Lubbock, TX 79414","806-370-1777 ","sshackelford@iag-usa.com","Scott Scott Shackelford","CFO","5313 50th St STE C3, Lubbock, TX 79414","806-370-1777 ","sshackelford@iag-usa.com","Finance and Administration"
"Vision Net, Inc.","1309 N.W. Bypass,Great Falls,MT 59403","None","MT, WY","Gary  Evans","Operations Manager","P.O. Box 3068 Great Falls MT 59403","406-467-4787 ","gary.evans@vision.net","Jamie  Nelson","Systems Supervisor","P.O. Box 3068 Great Falls MT 59403","406-467-4754 ","jamie.nelson@vision.net","Systems"
"Telesupply, LLC","4446 Cerritos Avenue,Los Alamitos,CA 90720","None","CA","Richard  Valle","COO","10572 Calle Lee Suite 122","562-333-3131 ","rvalle@telesupply.com","Richard Paul Valle","COO","10572 Calle Lee Suite 122","562-333-3131 ","rvalle@telesupply.com","Executive"
"Mitel Cloud Services, Inc.","430 Mountain Ave, Suite 405,New Providence,NJ 07974","None","AK, AL, AR, AZ, CA, CO, CT, DC, DE, FL, GA, HI, IA, ID, IL, IN, KS, KY, LA, MA, MD, ME, MI, MN, MO, MS, MT, NC, NE, NH, NJ, ND, NM, NV, NY, OH, OK, OR, PA, PR, RI, SC, SD, TN, TX, UT, VA, VT, WA, WI, WV, WY","Paul  Ciramitaro","Director","1146 N. Alma School Rd., Mesa, AZ 85201","480-961-9000 ","paul.ciaramitaro@mitel.com","Paul  Ciaramitaro","Director","1146 N. Alma School Rd., Mesa, AZ 85201","480-961-9000 ","paul.ciaramitaro@mitel.com","none"
"Arma Tel LLC","616 Corporate Way,Valley Cottage,NY 10989","None","OU","Maxim  Rakov","lawyer","616 Corporate Way","516-265-0212 ","mrakov@tswind.com","Katerina  Portna","CEO","616 Corporate Way","516-265-0212 ","kate@armatel.com","Management"
"DSI-ITI, Inc","3120 Fairview Park Drive,Falls Church,VA 22042","NONE","AL, AZ, DC, FL, GA, ID, IA, IL, KY, ME, MD, MA, NH, NJ, NM, NC, PA, TN, TX, UT, VA, WI","Steve  Montanaro","Vice President","3120 Fairview Park Drive, Suite 300, Falls Church, VA 22042","813-380-1513 ","steve.montanaro@gtl.net","Steve  Montanaro","Vice President","3120 Fairview Park Drive, Suite 300, Falls Church, VA 22042","813-380-1513 ","steve.montanaro@gtl.net","None"
"Southern Light, LLC","10802 Executive Center Drive,Little Rock,AR 72211","Southern Light of LA","AL, FL, GA, KY, LA, MS, NC, SC, PA","Jeffrey  Strenkowski","VP, Deputy General Counsel of Governmental Affairs","10802 Executive Center Drive, Suite 300, Little Rock, AR 72211","501-458-4397 ","jeffrey.strenkowski@uniti.com","Eric  Daniels","SVP, Operations","107 St Francis Street, Suite 1800, Mobile, AL 36602","251-662-1513 ","eric.daniels@uniti.com","Operations"
"Gateway Telnet, Inc.","16114 Sherman Way,Van Nuys,CA 91406","None.","CA, UT","Doug  Hoff","Senior Manager","6250 Shiloh Rd.  Suite 110, Alpharetta, GA 30005","404-472-6241 ","doug@gsaudits.com","Kim  O'Neil","CFO","16114 Sherman Way, Van Nuys, CA 91406","818-462-4661 ","koneil@gatewaytelnet.com","Accounting"
"","4001 N Rodney Parham Rd,Little Rock,AR 72212","US LEC Communications, LLC","IN, LA, NY, OH, TX, WV","Edward John Cadieux","Counsel II","4001 N. Rodney Parham Rd., MS: 1170-B1F03-53A, Little Rock, AR 72112","314-249-0216 ","Edward.Cadieux@windstream.com","Dewey  Detmers","Director - Voice Services","4001 N. Rodney Parham Rd., Little Rock, AR 72112","585-869-7992 ","dewey.detmers@windstream.com","Carrier Relations/Access Management"
"HORIZON TECHNOLOGY GROUP LLC","80 NW 22ND AVENU,MIAMI,GA 33125","HORIZON TECHNOLOGY GROUP LLC","FL","JOSE  GREGORIO","MANAGER","80 NW 22ND AVENUE","305-527-4848 ","JGREGORIO@HORIZONTECH.US","JOSE  GERGORIO","CEO","80 NW 22ND AVENUE","305-527-4848 ","JGREGORIO@HORIZONTECH.US","MANAGMENT"
"TEL TEC, INC.","1302 S. High School Road,Indianapolis,IN 46241","None.","IN, PA","Doug  Hoff","Senior Manager","6250 Shiloh Rd., Suite 110, Alpharetta, GA 30005","404-472-6241 ","doug@gsaudits.com","Pam  Livingston","Assitant","1302 S High School Rd, Indianapolis, IN 46241","317-390-8585 ","livingston@teltecinc.com","Administrative"
"Televergence Solutions, Inc.","424 Church Street, Suite 2000,Nashville,TN 37219","None","AA, AK, AE, AL, AP, AR, AS, AZ, CA, CO, CT, DE, DC, FL, FM, GA, SO, GU, HI, IA, ID, IL, IN, KS, KY, LA, MA, MD, ME, MH, MI, MN, MO, MP, MS, MT, NC, ND, NE, NH, NJ, NM, NV, NY, OH, OK, OR, OU, PA, PR, RI, SC, SD, TN, TX, UT, VA, VI, VT, WA, WI, WV, WY","Krisney  Flory","Office Manager","424 Chruch St, Suite 2000, Nashville, TN 37090","213-943-2043 ","kflory@televergence.com","Rural  Support","Helpdesk","424 Church St, Suite 2000, Nashville, TN 37090","213-943-2070 ","support@televergence.com","NOC"
"IntegriCom, Inc.","1148 Satellite Blvd NW,Suwanee,GA 30024","None","GA","Joel  Thain","President","1325 Satellite Blvd NW, Ste 1404","678-507-0700 ","admin@integricom.net","Joel  Thain","President","1325 Satellite Blvd NW, Ste 1404","678-507-0700 ","admin@integricom.net","Admin"
"Confianza Technologies LLC","964 High House Road,Cary,NC 27513","None","OU","","","","","","","","","","",""
"Teliax, Inc.","21699 E Quincy Ave,Aurora,CO 80015","None","AL, CO, DC, DE, FL, GA, IA, ID, IL, IN, KY, LA, MA, MD, MI, MN, MO, MT, NC, ND, NE, NH, NJ, NM, NV, NY, OH, OK, OR, RI, SC, TX, UT, VA, WA, WI, WV, WY","David  Aldworth","President/CEO","2150 W 29th Ave, #200, Denver, CO 80211","303-629-8301 ","daldworth@teliax.com","David  Aldworth","President/CEO","2150 W 29th Ave, #200, Denver, CO 80211","303-629-8301 ","daldworth@teliax.com","Executive"
"Securetel Network Inc.","1350 46th Street #230,Brooklyn,NY 11219","NONE","CA, FL, IL, NY","Solomon  Loffler","President","1303 53rd Street, Suite 230, Brooklyn NY 11219","718-633-2195 ","solomon@securetelnetwork.com","Solomon  Loffler","President","1303 53rd Street, Suite 230, Brooklyn NY 11219","718-633-2195 ","solomon@securetelnetworks.com","None"
"Boomerang Wireless, LLC","955 Kacena Road,Hiawatha,IA 52233","None.","AK, AL, AR, AZ, CA, CO, CT, DC, DE, FL, GA, HI, IA, ID, IL, IN, KS, KY, LA, MA, MD, ME, MI, MN, MO, MS, NC, ND, NE, NH, NV, NY, OH, OK, OR, PA, PR, RI, SC, TN, TX, UT, VA, VT, WA, WI, WV, WY","Doug  Hoff","Senior Manager","6250 Shiloh Rd., Suite 110, Alpharetta, GA 30005","404-472-6241 ","doug@gsaudits.com","Lori  Aller","Accountant","955 Kacena Rd. Suite A Hiawatha, IA 52233","319-743-4628 ","laller@readywireless.com","Accounting"
"Iris Networks","211 Commerce Street,Nashville,TN 37201","none","AL, TN, KY","Sheryl  Kilgore","CFO","211 Commerce St., Suite 610  Nashville, TN  37201","615-425-2300 ","accounts@iristransport.com","Chris  Harris","Director","211 Commerce St., Suite 610 Nashville, TN  37201","615-425-2300 ","noc@iristransport.com","Engineering and Operations"
"iBasis, Inc.","10 Maguire Road,Lexington,MA 02421","None","AA, AK, AE, AL, AP, AR, AS, AZ, CA, CO, CT, DC, DE, FL, FM, GA, SO, GU, HI, IA, ID, IL, IN, KS, KY, LA, MA, MD, ME, MH, MI, MN, MO, MP, MS, MT, NC, ND, NE, NH, NJ, NM, NV, NY, OH, OK, OR, OU, PA, PR, RI, SC, SD, TN, TX, UT, VA, VI, VT, WA, WI, WV, WY","Ellen  Schmidt","Vice President, General Counsel","10 Maguire Road Bldg 3 Lexington MA 02421","781-430-7956 ","eschmidt@ibasis.net","Dawn  Allen","Senior Paralegal","10 Maguire Road, Bldg 3, Lexington, MA 02421","978-430-7944 ","dallen@ibasis.net","Legal"
"Aegis Concepts, Inc.","22791 Patmore Drive,Clinton Township,MI 48036","None","MI","Lynn  Lohmann","Office  Manager","22791 Patmore Drive, Clinton Twp, MI  48036","586-226-2080 ","llohmann@aegisconcepts.com","Lynn  Lohmann","Office Manager","22791 Patmore Drive, Clinton Twp, MI  48036","586-226-2080 ","llohmann@aegisconcepts.com","Office Manager"
"IntelePeer Cloud Communications LLC","155 Bovet Rd.,San Mateo,CA 94402","None","AK, AL, AR, AZ, CA, CO, CT, DC, DE, FL, GA, HI, IA, ID, IL, IN, KS, KY, LA, MA, MD, ME, MI, MN, MO, MS, MT, NC, ND, NE, NH, NJ, NM, NV, NY, OH, OK, OR, PA, PR, RI, SC, SD, TN, TX, VA, UT, WA, WI, VT, WV, WY, VI","Kristin  Manwarren","SVP, Legal Affairs","5975 South Quebec, Suite 190, Centennial, CO  80111","720-889-9568 ","kmanwarren@intelepeer.com","Vu  Tran","SVP, Network Operations","5975 South Quebec, Suite 190, Centennial, CO 80111","720-889-9500 ","vtran@intelepeer.com","Network Operations"
"Amplify Networks","16515 Ranch Rd. 12,Wimberley,TX 78676","None","TX","","","","","","","","","","",""
"Stratus Networks, Inc.","4700 N Prospect Rd,Peoria Heights,IL 61616","None.","AL, AR, AZ, CA, CO, CT, DC, DE, FL, GA, HI, IA, ID, IL, IN, KS, KY, LA, MA, MD, MI, MN, MO, MT, NC, MS, ND, NE, NV, NM, NY, NJ, OH, OK, OR, PA, SC, SD, TN, TX, UT, VA, WA, WI, WV, WY","Doug  Hoff","Senior Manager","6250 Shiloh, Rd, Suite 110, Alpharetta, GA 30005","404-472-6241 ","doug@gsaudits.com","Heidi  Huffman","CEO","4700 N. Prospect Rd, Suite 8, Peoria Heights, IL 61616","309-688-3340 ","hhuffman@stratusnet.com","Sales"
"","1309 Coffeen Avenue,Sheridan,WY 82801","None","WY","Alan  Graham","Regulatory Manager","1309 Coffeen Avenue","307-757-3373 ","alan@didcentral.io","Alan  Graham","Rural Call Manager","1309 Coffeen Avenue","307-757-3373 ","alan@didcentral.io","Main"
"Advance Telecom Group Inc","1600 NE 1st Ave,,Miami,FL 33132","none","FL","","","","","","","","","","",""
"Inteliquent, Inc.","550 W. Adams St.,Chicago,IL 60661","Neutral Tandem, Inc.","IL, AA, AK, AL, AE, AP, AR, AS, AZ, CA, CO, CT, DC, DE, FL, FM, GA, SO, GU, HI, IA, ID, IN, KS, KY, LA, MA, MD, ME, MH, MI, MN, MO, MP, MS, MT, NC, ND, NE, NH, NJ, NM, NV, NY, OH, OK, OR, OU, PA, PR, RI, SC, SD, TN, TX, UT, VA, VI, VT, WA, WI, WV, WY","Richard  Monto","General Counsel - Business Units","550 West Adams Street, Suite 900, Chicago, IL 60091","312-384-8000 ","legalnotices@inteliuqent.com","Randy  Frederick","Senior Director, Network Services","550 West Adams Street, Suite 900, Chicago, IL 60091","312-384-8000 ","randy.frederick@inteliquent.com","Operations"
"S and BTS Global K.K","2620 SW 27th Ave.,Miami,FL 33133","None","AA, AK, AE, AL, AP, AR, AS, AZ, CA, CO, CT, DC, DE, FL, FM, GA, SO, GU, HI, IA, ID, IL, IN, KS, KY, LA, MA, MD, ME, MH, MI, MN, MO, MP, ND, MS, MT, NC, NE, NH, NJ, NM, NV, NY, OH, OK, OR, OU, PA, PR, RI, SC, SD, TN, TX, UT, VA, VI, VT, WA, WI, WY, WV","Fernando  Abras","Legal Counsel","2620 SW 27th Ave. Miami FL 33133","786-664-6811 ","legal@sbtsglobal.io","Fernando  Abras","Legal Counsel","2620 SW 27th Ave.Miami, FL 33133","786-664-6811 ","legal@sbtsglobal.io","Legal"
"","651 N BROAD ST,MIDDLETOWN,DE 19709","NONE","DE","Frank  Porretta","Compliance Officer","651 N Broad St Suite 206","813-802-8166 ","frank@flashtelco.com","Frank  Porretta","Managing Member","651 N Broad St","813-802-8166 ","frank@flashtelco.com","Compliance"
"NexGen Networks Corporation","64 Beaver Street,New York,NY 10004","None","AR, CA, CT, DC, FL, IL, MA, MN, NJ, NY, OH, PA, TN, TX, VA, WI","Alicia  Abalo","Office Administrator","64 Beaver Street, Suite 104 New York, NY 10004","212-392-4982 ","alicia.abalo@nexgen-net.com","Alicia  Abalo","Office Administrator","64 Beaver Street, Suite 104 New York, NY 10004","212-392-4982 ","jeffrey.barth@nexgen-net.com","Customer Service"
"Allstream Business US, LLC","2800 Campus Dr.,Plymouth,MN 55441","Electric Lightwave Holdings, Inc., Integra Telecom Holdings, Inc.","AK, AL, AK, AR, AZ, CA, CO, CT, DC, DE, FL, GA, HI, IA, ID, IL, IN, KS, KY, LA, MA, MD, ME, MI, MN, MO, MS, MT, NC, ND, NE, NH, NJ, NM, NV, NY, OH, OK, OR, PA, RI, SC, SD, TN, TX, UT, VA, VT, WA, WI, WV, WY","Donna  Heaston","Corporate Attorney","6160 Golden Hills Dr.","763-745-8466 ","donna.heaston@allstream.com","Donna  Heaston","Corporate Attorney","6160 Golden Hills Dr.","763-745-8466 ","donna.heaston@allstream.com","Legal"
"Snapcom LLC","140 Enchanted Parkway,Manchester,MO 63011","none","IL, KS, MO","Richard B Hall","CEO","134 Enchanted Parkway, Manchester, MO  63021","314-499-8500 ","rhall@snapcom.com","Richard B Hall","CEO","134 Enchanted Parkway, Manchester, MO  63021","314-499-8500 ","rhall@snapcom.com","Operational"
"Airus, Inc.","840 South Canal,Chicago,IL 60607","None","AL, AZ, CA, CO, CT, DC, DE, FL, GA, HI, IA, ID, IL, IN, KS, KY, LA, MA, MD, ME, MI, MN, MO, MS, MT, NC, ND, NE, NH, NJ, NM, NV, NY, OH, OK, OR, PA, RI, SC, SD, TN, TX, UT, VA, VT, WA, WI, WV, WY, AR","Julie  Oost","VP, Regulatory and Contracts","840 South Canal, 7th Floor, Chicago, IL 60607","312-878-4137 ","regulatory@peerlessnetwork.com","Pat  Phipps","Director, Regulatory","840 South Canal, 7th Floor, Chicago, IL 60607","312-506-0933 ","regulatory@airustel.com","Regulatory"
"Global Tel*Link Corporation","3120 Fairview Park Drive,Falls Church,VA 22042","NONE","AK, AL, AZ, CA, CO, CT, DC, DE, FL, GA, HI, IA, ID, IL, IN, KS, KY, LA, MA, MD, ME, MI, MN, MO, MS, MT, NC, ND, NE, NH, NJ, NM, NV, NY, OK, OH, OR, PA, PR, RI, SC, SD, TN, TX, UT, VA, VT, WA, WI, WV, WY","Steve  Montanaro","Vice President","3120 Fairview Park Drive, Suite 300, Falls Church VA 22042","813-380-1513 ","steve.montanaro@gtl.net","Steve  Montanaro","Vice President","3120 Fairview Park Drive, Suite 300, Falls Church VA 22042","813-380-1513 ","steve.montanaro@gtl.net","None"
"IP LINK Telecom, Inc.","2852 Willamette Street,Eugene,OR 97405","none","OR, AA, AB, AE, AG, AK, AL, AP, AR, AS, AZ, BC, BC, BS, CA, CH, CL, CM, CO, CO, CS, CT, DC, DE, DF, DG, FL, FM, GA, GR, GT, GU, HG, HI, IA, ID, IL, IN, JA, KS, KY, LA, MA, MB, MD, ME, MH, MI, MI, MN, MO, MO, MP, MS, MT, MX, NA, NB, NC, ND, NE, NH, NJ, NL, NM, NS, NT, NL, NU, NV, NY, OA, OH, OK, ON, OU, PA, PE, PR, PU, QC, QR, QT, RI, SC, SD, SI, SK, SL, SO, TB, TL, TM, TN, TX, UT, VA, VE, VI, VT, WA, WI, WV, WY, YT, YU, ZA","Noah  Kamrat","CEO","305 N 1st Ave, Hillsboro, OR 97124","541-600-3100 ","nkamrat@iplinktelecom.com","Noah  Kamrat","CEO","305 N 1st Ave, Hillsboro, OR 97124","541-600-3100 ","nkamrat@iplinktelecom.com","Legal"
"France Telecom Long Distance USA LLC d/b","13865 Sunrise Valley Dr.,Herndon,VA 20171","none","AL, AK, AR, AZ, CA, CO, CT, DC, FL, DE, HI, IA, GA, ID, IL, IN, KS, KY, LA, MA, MD, ME, MI, MN, MO, MT, NC, NH, ND, NE, NM, NJ, NV, NY, OH, OK, OR, PA, PR, RI, SC, SD, TN, TX, UT, VA, WA, WI, WV, WY, VT, VI","William  Coulter","Counsel","1775 Eye St., NW, Suite 1150, Washington, DC 20006","202-587-2803 ","william.coulter@coulterglobal.com","Joe  Salibi","Head of Service Management, North America","400 Carillon Parkway, Suite 225, St. Petersburg, FL 33716","514-804-9682 ","joe.salibi@orange.com","Orange, International Carriers"
"Vigilabo LLC","1100 Peachtree St NE,Atlanta,GA 30309","None","AK, AL, AR, AZ, CO, CT, DC, DE, FL, GA, HI, IA, ID, IL, IN, KS, KY, LA, MA, MD, ME, MI, MN, MO, MS, MT, NC, ND, NE, NH, NJ, NM, NV, NY, OH, OK, OR, PA, PR, RI, SC, SD, TN, TX, UT, VA, VT, WA, WI, WV, WY","Sam  Prada","VP of Business Development","1100 Peachtree St NE","404-240-0412 ","sprada@vigilabo.net","Sam  Prada","VP of Business Development","1100 Peachtree St NE","404-240-0412 ","sprada@vigilabo.net","Engineering"
"Business Telecommunications Services Eur","2620 SW 27th Ave,Miami,FL 33133","None","AA, AE, AL, AK, AP, AR, AS, AZ, CA, CT, CO, DC, DE, GA, ID, IL, IA, KS, IN, HI, KY, MA, ME, MH, MI, MN, MD, LA, MP, MO, MS, MT, ND, NC, NE, NJ, NV, OH, NM, GU, OK, OR, PA, OU, PR, NY, SC, TN, RI, SD, UT, VA, NH, VT, VI, WV, WY, WA, TX, SO, FM, FL, WI","Fernando  Abras","Legal Counsel","2620 SW 27th Ave.","786-664-6811 ","legal@bts.io","Fernando  Abras","Legal Counsel","2620 SW 27th Ave.","786-664-6811 ","legal@bts.io","Legal"
"Bicentel, LLC","825 Town & Country Ln 12th Floor,Houston,TX 77024","None","FL","Alonzo  Beyene","Consutlant","6303 Blue Lagoon Drive, Suite 400, Miami, Florida 33126","786-505-1862 ","compliance@iacadvice.com","Luis  Chernovetzky","Finance Manager","1428 Brickell Avenue, Suite 206 Miami, Florida 33131","305-330-9915 ","luis.cherno@c3ntro.com","Finance"
"","7924 Preston Rd Ste 350,Plano,TX 75024","None","TX","Anil  Dhanasri","Vice President","7924 Preston Rd Ste 350","973-722-3444 ","anil.d@caprusit.com","Anil  Dhanasri","Vice President","7924 Preston Rd Ste 350","973-722-3444 ","anil.d@caprusit.com","Executive"
"Bare Telecom LLC","444 W. Ocean Blvd,Long Beach,CA 90802","None","AK, AL, AZ, AR, CA, CO, CT, DE, FL, GA, HI, ID, IL, IN, IA, KS, KY, LA, ME, MD, MA, MI, MN, MS, MO, MT, NE, NV, NH, NJ, NM, NY, NC, ND, OH, OK, OR, PA, RI, SC, SD, TN, TX, UT, VT, VA, WA, WV, WI, WY","Christopher  Bare","CTO","444 W. Ocean Blvd, 8th Floor, Long Beach CA 90802","951-257-7054 ","info@baretelecom.com","Christopher  Bare","CTO","444 W. Ocean Blvd, 8th Floor, Long Beach CA 90802","951-257-7054 ","info@baretelecom.com","Technology"
"Primo Dialler LLC","1309 Coffeen Avenue,Sheridan,WY 82801","None","AZ, CA, DE, FL, GA, ID, IL, KS, LA, MA, MI, MN, NV, NJ, NY, TX, UT, VA","Isaac  Hussain","Head of Support","1309 Coffeen Avenue, Ste 1200, Sheridan WY 82801","347-695-2823 ","escalations@primodialler.com","Isaac  Hussain","Head of Support","1309 Coffeen Avenue, Ste 1200, Sheridan WY 82801","347-695-2823 ","escalations@primodialler.com","Support"
"GoTel, Inc.","309 Coffeen Avenue,Sheridan,WY 82801","none","WY","Jospeh  Putegnat","President","2658 Del Mar Heights Rd  #412  Del Mar, CA  92014","619-417-3300 ","joe@gotel.info","Joseph Lyle Putegnat","President","2658 Del Mar Heights Rd #412 Del Mar, CA  92014","619-417-3300 ","joe@gotel.info","Rural point of Contact"
"Windstream New Edge, LLC","4001 N Rodney Parham Rd,Little Rock,AR 72212","One Communications Corp.; CTC Communications; Choice One Communications","AK, AL, AR, AZ, CA, CO, CT, DE, FL, GA, IA, ID, IL, IN, KS, KY, LA, MA, MD, ME, MI, MN, MO, MS, MT, NC, ND, NE, NH, NJ, NM, NV, NY, OH, OK, OR, PA, RI, SC, SD, TN, TX, UT, VA, VT, WA, WI, WV, WY","Edward John Cadieux","Counsel II","4001 N. Rodney Parham Rd.,  Little Rock, AR 72112","314-249-0216 ","Edward.Cadieux@windstream.com","Dewey  Detmers","Director - Voice Services/Access Management","4011 N. Rodney Parham Rd., Little Rock, AR 72112","585-869-7992 ","dewey.detmers@windstream.com","Caerrier Relations/Access Management"
"","1 Raffles Place, Singapore, Singapore ","None","AL, AK, AZ, AR, CA, CO, CT, DE, GU, FL, GA, HI, ID, IL, IN, IA, KS, KY, LA, ME, MD, MA, MI, MN, MS, MO, MT, NE, NV, NH, NJ, NM, NY, NC, ND, OH, OK, OR, AS, PA, RI, SC, SD, TN, DC, TX, UT, PR, VT, VA, WA, WV, WI, WY, VI, MP","Sam  Lok Fung","Legal Department","1 Raffles Place","658-240-0067 ","legal@advancedvoicetech.com","Sam  F","Compliane Legal","1 Raffles Place","658-240-0067 ","legal@advancedvoicetech.com","Legal"
"Prime Tell Inc.","1285 Erie St East, Windsor, Canada ON","None","FL, MD, NV, TN","Ahmad  Daify","CEO","1285 Erie St East Windsor, ON, N9A 3Z6 Canada","519-800-4212 ","info@primetell.com","Ahmad  Daify","CEO","1285 Erie St East, Windsor ON, N9A 3Z6 Canada","519-800-4212 ","info@primetell.com","CEO"
"BRIGHTLINK","2859 PACES FERRY ROAD,ATLANTA,GA 30339","None","AK, AL, AR, AZ, CA, CO, CT, DC, DE, FL, GA, HI, IA, ID, IL, IN, KS, KY, LA, MA, MD, ME, MI, MN, MO, MS, MT, NC, ND, NE, NH, NJ, NM, NV, NY, OH, OK, OR, PA, PR, RI, SD, SC, TN, TX, UT, VA, VT, WA, WI, WV, WY, OU, GU, AS, VI","Scott  Allen","Chief Operating Officer","2859 Paces Ferry Road, Suite 1850, Atlanta, GA 30339","404-334-1122 ","scott.allen@brightlink.com","Sarah  Welker","Network Operations Manager","2859 Paces Ferry Road, Suite 1850, Atlanta, GA 30339","404-331-1135 ","sarah.welker@brightlink.com","Operations"
"Fractel, LLC","122 4th Ave.,Indialantic,FL 32903","None","AL, AR, AZ, CA, CO, CT, FL, GA, ID, IL, IN, KS, KY, LA, MA, MD, ME, MI, MN, MO, MS, MT, NC, NJ, NV, NY, OH, OR, PA, RI, SC, TN, TX, VA, VT, WA, WI, WV","Mike  Wilbur","Regulatory Contact","122 4th Ave Ste 201, Indialantic, FL 32903","321-499-1000 1011","mwilbur@fractel.net","Michael  Crown","President","122 4th Ave Ste 201, Indialantic, FL 32903","321-499-1001 ","mike@fractel.net","Administration"
"Strathcore Inc","30 N Gould St,Sheridan,WY 82801","None","AL, AK, AZ, AR, CA, CO, CT, DE, FL, GA, HI, ID, IL, IN, IA, KS, KY, LA, ME, MD, MA, MI, MN, MS, MO, MT, NE, NV, NH, NJ, NM, NY, NC, ND, OH, OK, OR, PA, RI, SC, SD, TN, TX, UT, VT, VA, WA, WV, WI, WY","Konstantinos  Dapolias","President","30 N Gould St, Ste R, Sheridan, WY 82801","415-494-7334 ","finance@strathcore.com","Konstantinos  Dapolias","President","30 N Gould St, Ste R,  Sheridan, WY 82801","415-494-7334 ","finance@strathcore.com","Finance"
"Arrival Communications, Inc. d/b/a TPx C","303 Colorado St.,Austin,TX 78701","None","CA","William (Bill)  Hunt","General Counsel, SVP & Secretary","10333 East Dry Creek Rd. Ste. 170, Englewood, CO 80112","303-268-5420 ","william.hunt@tpx.com","Carroll  Davis","Director - Network Operations Center","3300 N. Cimarron Rd., Las Vegas, NV 89129","702-316-6775 ","cadavis@tpx.com","Network Operations Center"
"Corcom Communications, Inc.","3159 Marble Ridge Ct.,Reno,NV 89511","none","CA, NV","Jeff  Corcoran","President","3159 Marble Ridge Ct., Reno NV  89511","775-432-6000 ","Jeff@corcominc.org","Jeff  Corcoran","President","3159 Marble Ridge Ct., Reno, NV  89511","775-432-6000 ","jeff@corcominc.org","Adminstration"
"Zultys, Inc.","785 Lucerne Dr.,Sunnyvale,CA 94085","None","CA, AL, AZ, CO, CT, DC, DE, FL, GA, IA, IL, IN, KS, KY, LA, MA, MD, ME, MI, MN, MO, MS, MT, NC, NE, NH, NJ, NY, OH, OR, PA, RI, SC, TN, TX, UT, VA, VT, WA, WV, WY","David  Termondt","CFO","785 Lucerne Dr., Sunnyvale, CA  94085","408-328-0450 ","david.termondt@zultys.com","Pavel  Matsienok","Director Cloud Operations","785 Lucerne Dr., Sunnyvale, CA  94085","408-328-0450 ","pavel.matsienok@zultys.com","Network Operations"
"IRU Networks LLC","3030 Northwest Expressway,Oklahoma City,OK 73112","NONE","AR, CA, GA, IL, MO, NV, MA, NY, OK, PA, TX","Donna  Costello","CFO","3030 NW Expressway, Suite 200-328 , Oklahoma City, OK  73112","888-250-2111 ","donnarice@irunetworks.com","Donna  Costello","CFO","3030 NW Expressway, Suite 200-328, Oklahoma City, OK  73112","888-250-2111 ","donnarice@irunetworks.com","none"
"Qwality Tel Inc.","477 County Road 2500 North,Mahomet,IL 61853","None","IL","","","","","","","","","","",""
"Cherry Voice Inc","1740 Dell Range Blvd H200,Cheyenne,WY 82009","None","AK, AZ, AL, AR, CA, CO, CT, DC, DE, FL, GA, HI, IA, ID, IL, IN, KS, KY, LA, MA, MD, ME, MI, MN, MS, MT, NC, ND, NE, NH, NJ, NV, NY, NM, OH, OK, OR, MO, RI, SD, TX, TN, UT, VA, VT, WA, WI, WV, WY","Northwest Registered Agent","Registered Agent","1717 N Street NW Ste 1","509-768-2249 ","support@northwestregisteredagent.com","Sree  Ramachadran","Network Engineer","1740 Dell Range Blvd #H200","307-274-8410 ","noc@cherryvoice.com","Voice NOC"
"Telconvoice LLC","5435 N. Garland Ave.,Garland,TX 75040","None","TX","Lindy  Cairns","Finance Director","5900 S. Lake Forest Dr., Suite 300  McKinney, TX 75070","972-914-9604 ","lindycairns@telconus.net","Lindy  Cairns","Finance Director","5900 S. Lake Forest Dr., Suite 300  McKinney, TX","972-914-9604 ","lindycairns@telconus.net","Finance"
"PEG Bandwidth TX, LLC","10802 Executive Center Drive,Little Rock,AR 72211","NONE","TX","Jeffrey  Strenkowski","VP, Deputy General Counsel of Governmental Affairs","10802 Executive Center Drive, Suite 300, Little Rock, AR 72211","501-458-4397 ","jeffrey.strenkowski@uniti.com","Eric  Daniels","SVP, Operations","107 St Francis Street, Suite 1800, Mobile, AL 36602","251-662-1513 ","eric.daniels@uniti.com","Operations"
"Fulton Communications, Inc","1000 Holcomb Woods Pkwy,Roswell,GA 30076","Vertical Communications HoldCo, Inc. , VERTICAL COMMUNICATIONS, Inc, FULTON COMMUNICATIONS OF MASSACHUSSETTS LLC","NY, NJ, CA, DE, WI, AL, CO, AZ, DC, FL, GA, IA, IL, KY, MA, MD, MO, NH, OH, OK, PA, RI, SC, TN, TX, UT, VA","Doug  Hoff","Senior Manager","6250 Shiloh Rd.  Suite 110, Alpharetta, GA 30005","404-472-6241 ","doug@gsaudits.com","Lauren  Anthony","Controller","1000 Holcomb Woods Parkway, Bldg. 300, Suite 300, Roswell, GA 30076","770-446-3100 ","lanthony@vertical.com","Accounting"
"ESI Advanced Wireless Network, LLC","3030 Warrenville Rd,Lisle,IL 60532","SBA Advanced Wireless Networks, LLC","MA, RI","Scotty  Amos","Authorized Agent","2640 Youree Dr., Suite 100  Shreveport, LA 71104","318-429-7552 ","samos@rbm.com","Donna  Cahill","Tax Director","3030 Warrenville Rd., Suite 240  Lisle, IL 60532","630-245-2129 ","dcahill@extenetsystems.com","Tax"
"WIRED Telcom, LLC","159 West First Street,Oswego,NY 13126","None.","CA, CO, FL, GA, MD, MI, MN, NY, OH, SC, TX, WI","Doug  Hoff","Senior Manager","6250 SHiloh Rd., Suite 110, Alpharetta, GA 30005","404-472-6241 ","doug@gsaudits.com","Jennifer  Wilson","Manager","159 West First St., Oswego, NY 13126","315-326-0001 ","jwilson@littlelukes.com","Sales"
"Cascabel Networks LLC","825 Town & Country Ln 12th Floor,Houston,TX 77024","None","TX","Alonzo  Beyene","Consultant","6303 Blue Lagoon Drive, Suite 400, Miami, Florida 33126","786-505-1862 ","alonzo@iacadvice.com","Luis  Chernovosky","Finance Manager","10370 Richmond Avenue, Suite 1125 Houston, Texas 77042","305-402-1499 ","luis.cherno@c3ntro.com","Finance"
"Liberty Mobile Puerto Rico Inc.","279 Ponce De Leon Avenue,San Juan,PR 00918","Cellular Communications of Colorado, Inc. 
Cellular Communications of Puerto Rico, Inc
CCPR Services, Inc.","PR","Glenis  McKoy","Manager - Regulatory","1120 20th  St. NW, Suite 1000, Washington DC 20036","202-457-3852 ","gm909g@att.com","Donna  Dupre","Principal","28W615 Ferry Rd, Warrenville IL 60555","630-836-8300 ","NESAC_NSFG@att.com","Network Operations - NESAC"
"BOTCOMM CORPORATION","409 NW 10th Terrace,Hallandale Beach,FL 33009","None","FL","","","","","","","","","","",""
"","4001 N Rodney Parham Rd,Little Rock,AR 72212","NuVox Communications, Inc.","CA, CO, FL, GA, ID, KY, LA, ME, MS, MT, NV, NJ, NC, NM, OR, RI, SC, TN, UT, VT, WY","Edward John Cadieux","Counsel II","4001 N. Rodney Parham Rd. MS: 1170-B1F03-53A, Little Rock, AR 72112","314-249-0216 ","Edward.Cadieux@windstream.com","Dewey  Detmers","Director - Voice Services","4001 N. Rodney Parham Rd., Little Rock, AR 72112","585-869-7922 ","dewey.detmers@windstream.com","Carrier Relations/Access Management"
"Apeiron Systems, Inc.","728 Cypress Ave,Hermosa Beach,CA 90254","None","AA, AK, AP, AE, AR, AS, AZ, CA, AL, CT, CO, DC, FL, FM, DE, SO, GU, GA, HI, IA, ID, IL, IN, KS, KY, MA, LA, ME, MD, MI, MH, MN, MO, MP, MS, MT, NC, ND, NE, NH, NJ, NM, NV, NY, OH, OK, OR, OU, PA, PR, RI, SC, SD, TN, UT, TX, VA, VI, VT, WA, WI, WV, WY","Joshua  Ploude","CEO","2629 MANHATTAN AVE # 166","310-705-0050 1005","jp@apeiron.io","Josh  Ploude","CEO","2629 MANHATTAN AVE # 166","310-705-0050 1005","jp@apeiron.io","Executive"
"Hawaiian Telcom","1177 Bishop St Ste 17,Honolulu,HI 96813","none","HI","Steve  Golden","VP External Affairs","1177 Bishop St, Honolulu, HI 96813","808-546-3877 ","steven.golden@hawaiiantel.com","Marc  De Costa","Tier II POTS Manager","1177 Bishop St, Honolulu, HI 96813","808-546-3697 ","Marc.DeCosta@hawaiiantel.com","eNOC Monitoring & Surveillance"
"South Dakota Network, LLC","2900 W 10th St,Sioux Falls,SD 57104","South Dakota Network, Inc.
SDCEA, Inc","SD","Darla  Pollman Rogers","Counsel","319 South Couteau Street","605-224-7889 ","dprogers@riterlaw.com","Jake  VanDewater","Director of Network Operations","2900 West 10th Street, Sioux Falls, SD, 57104","877-287-8023 ","support@SDN24x7.com","Network Operations"
"ETB Services, Inc.","545 W. Main Street,Trappe,PA 19426","None","PA","Erik  Barnshaw","President","545 W Main St, STE 12","610-409-0395 ","erik@etbservices.com","Erik  Barnshaw","President","545 W Main St, STE 12","610-409-0395 ","erik@etbservices.com","Admin"
"Latam Telecommunications, L.L.C.","TracFone Building, 9700 NW 112th Avenue,Miami,FL 33178","None","FL","Edgar  Class","Outside FCC Counsel","1776 K Street NW, Washington, DC 20006","202-719-7504 ","eclass@wileyrein.com","Manuel Pablo Lorenzo","MasTec TAC (Technical Assistance Center) Director","8620 SW 113 Terrace, Miami, FL 33156","305-975-0600 ","mplorenzo@MasTecTAC.com","Technical Assistance Center"
"TerraCom, Inc.","745 E. Main Street,Chattanooga,TN 37408","None","OK, AR, AZ, CO, IA, IL, IN, KS, LA, MD, ME, MN, MO, NE, NV, PA, RI, TX, WA, WI, WV","Heather  Russell","Manager of Compliance and Audit","710 Cedar Lake Blvd Suite 100","405-479-8925 ","heather@terracominc.com","Heather  Russell","Manager of Compliance And Audit","710 Cedar Lake Blvd Suite 100","405-479-8925 ","heather@terracominc.com","Compliance and Auditing"
"Ascension Technologies","PO Box 1911,Daphne,AL 36526","None","AL, ID, TX","David F Keeler","Vice-President","PO BOX 1911","251-243-4224 1001","david@asctech.net","David  Keeler","Vice-President","PO BOX 1911","251-243-4224 1001","david@asctech.net","N/A"
"Whisl Telecom, LLC","5435 N. Garland Ave.,Garland,TX 75040","None","TX","Lindy  Cairns","VP & Treasurer","5850 San Felipe St. #500  Houston, TX 77057","346-299-2042 ","lindycairns@whisl.com","Lindy  Cairns","VP & Treasurer","5850 San Felipe St. #500  Houston, TX 77057","346-299-2042 ","lindycairns@whisl.com","All"
"TELCAST NETWORK, LLC","8 The Green STE A,Dover,DE 19901","None","DE, IA, CA, TX, FL, MT, OU, NV, NY, MD, AZ","Bilal  Khalid","CFO","8 The Green, Suite #704, Dover DE 19901","833-835-2278 ","bkhalid@telcastnetworks.com","Talal  Khalid","CEO","8 The Green, Suite#7044, Dover DE 19901","833-835-2278 ","tkhalid@telcastnetworks.com","Management"
"Netcom Systems Group, LLC","2431 Aloma Ave., Suite 124,Winter Park,FL 32792","None","FL, KY, MO, NC, NM, NV, OR, TX, UT, WY","Tyler  Wentz","Manager","2431 Aloma Avenue, Suite 124, Winter Park FL 32792","844-663-8266 ","tyler@netcom-us.com","Tyler  Wentz","Manager","2431 Aloma Avenue, Suite 124, Winter Park FL 32792","844-663-8266 ","tyler@netcom-us.com","Management"
"Traci.net","550 Fairway Drive,Deerfield Beach,FL 33441","None.","FM","Doug  Hoff","Senior Manager","6250 Shiloh Rd.  Suite 110, Alpharetta, GA 30005","404-472-6241 ","doug@gsaudits.com","Malcolm  Chapman","Manager","550 Fairway Dr. #102, Deerfield Beach, FL  33441","954-354-7000 ","malcolmc@traci.net","Administrative"
"Beyond The Box","10400 West Overland Rd,Boise,ID 83709","None","ID","Matthew  Lewis","COO","10400 West Overland Rd #410,","208-629-5047 ","mlewis@beyondtheboxtelecom.com","Matthew  Lewis","COO","10400 West Overland Rd #410","208-629-5047 ","mlewis@beyondtheboxtelecom.com","NA"
"","610 Old York Road,Jenkintown,PA 19046","None","PA","Leonid  Barnachuk","President","610 Old York Road","484-546-8440 ","billing@vtpcom.com","Leonid  Barnachuk","President","610 Old York Road","484-546-8440 ","billing@vtpcom.com","Ops"
"OOMA INC","525 ALMANOR AVE. SUITE 200,SUNNYVALE,CA 94085","ExploreTel Communications, Inc.","WY, AA, AK, AE, AL, AP, AR, AS, AZ, CA, CO, CT, DC, DE, FL, FM, GA, SO, GU, HI, IA, ID, IL, IN, KS, KY, LA, MA, MD, ME, MH, MI, MN, MO, MP, MS, MT, NC, ND, NE, NH, NJ, NM, NV, NY, OH, OK, OR, OU, PA, PR, RI, SC, SD, TN, TX, VA, UT, VI, VT, WA, WI, WV","Jenny  Yeh","VP & General Counsel","525 Almanor Avenue","650-566-6678 ","jenny.ooma@ooma.com","Toby  Farrand","VP, Engineering","525 Almanor Avenue","650-566-6600 ","toby.farrand@ooma.com","Engineering"
"TPx Communications Co.","303 Colorado St.,Austin,TX 78701","TelePacific Communications Co., Tel West Network Services Corp.","TX","William (Bill)  Hunt","General Counsel, SVP & Secretary","10333 East Dry Creek Rd. Ste. 170, Englewood, CO 80112","303-268-5420 ","william.hunt@tpx.com","Carroll  Davis","Director - Network Operations Center","3300 N. Cimarron Rd., Las Vegas, NV 89129","702-316-6775 ","cadavis@tpx.com","Network Operations Center"
"","Emile Zola 39, Petah-Tikva, Israel ","None","OU","Kseniia  Batkhan","Lawyer","Maskit 4, Herzliya, Israel","315-275-7974 ","kb@enr-law.com","Arie  Frenklah","CEO","Emile Zola 39, Petah-Tikva, Israel","315-275-7974 ","arie@mmdsmart.com","Management"
"MVP Holdings LTD.","PO Box 114,Medina,OH 44258","None","OH, IL, KY, PA, TX","Jim  White","President","PO Box 114, Medina, OH 44258","419-874-9600 ","jwhite@tracerts.com","Jim  White","President","PO Box 114, Medina, OH 44258","419-874-9600 ","jwhite@tracerts.com","President"
"Tim Ron Enterprises, LLC","5301 77 Center Drive,Charlotte,NC 28217","None","LA, TX","Dawna Kimmich Hannan","VP of Telecom Regulatory","2101 Rexford Road, Suite 200E, Charlotte, NC 28211","704-936-1805 ","dhannan@conterra.com","Dawna K Hannan","VP - Telecom Regulatory","2101 Rexford Road, Suite 200E, Charlotte, NC 28211","704-936-1805 ","dhannan@conterra.com","Regulatory"
"AT&T  Services,Inc.","1120 20th street NW,Washington,DC 20036","None","GU","Glenis  McKoy","Manager - Regulatory","1120 20th  St. NW, Suite 1000, Washington DC 20036","202-457-3852 ","gm909g@att.com","Donna  Dupre","Principal","28W615 Ferry Rd, Warrenville IL 60555","630-836-8300 ","NESAC_NSFG@att.com","Network Operations - NESAC"
"MobileSphere","4 Faneuil Marketplace,Boston,MA 02109","None","MA","Toufic  Mobarak","COO","7 Faneuil Hall,, 4th Floor","617-399-9980 ","toufic@mobile-sphere.com","Beth  George","Accounting","7 Faneuil Hall,, 4th Floor","617-399-9980 ","beth@mobile-sphere.com","Accounitng"
"Conexiz Corporation","590 W Crossville Road,Roswell,GA 30075","Conexiz  Corporation","GA","James  Wilson","President & CEO","590 WEST CROSSVILLE RD 201","678-323-5002 ","mwilson@comnexia.com","James  Wilson","President & CEO","590 WEST CROSSVILLE RD 201","678-323-5002 ","mwilson@comnexia.com","Executive"
"Windstream Services II, LLC","4001 N Rodney Parham Rd,Little Rock,AR 72212","PaeTec Communications, LLC; PAETEC Holding Corp.","AL, AR, AZ, CA, DE, FL, GA, IA, ID, IL, IN, KS, KY, LA, MA, MD, ME, MI, MN, MO, MS, MT, NC, ND, NE, NH, NJ, NM, NV, NY, OH, OK, OR, PA, RI, SC, SD, TN, TX, UT, VA, VT, VI, WV","Edward John Cadieux","Counsel II","4001 N. Rodney Parham Rd.","314-249-0216 ","Edward.Cadieux@windstream.com","Dewey  Detmers","Director - Voice Services","4001 N. Rodney Parham Rd., MS: 1170-B1F03-53A, Little Rock,  AR 72112","585-869-7992 ","dewey.detmers@windstream.com","ES Carrier Relations/Voice Management"
"Hive Telco LLC","8 The Green Suite # 8511,Dover,DE 19901","None","DE","","","","","","","","","","",""
"Global Connection Inc. of America","5555 Oakbrook Pkwy NW.,,Norcross,GA 30093","None","AL, AZ, AR, CA, CO, FL, GA, IL, IN, IA, KS, KY, LA, MD, MA, MI, NE, NV, NC, OH, OK, PA, PR, RI, SC, TN, TX, UT, WV, WI","Jennifer  Carter","Director of Compliance","5555 Oakbrook Parkway NW, Suite 620, Norcross GA  30093","678-741-6253 ","jcarter@gcioa.com","Jennifer  Carter","Director of Compliance","5555 Oakbrook Parkway NW, Suite 620, Norcross GA  30093","678-741-6253 ","jcarter@gcioa.com","Regulatory Complliance"
"IPATH CLOUD SOLUTIONS INC","40 LLOYD AVE SUITE 106,MALVERN,PA 19355","None","FL, MD, NJ, PA, DE, NY","JUDY  RILEY","President","P.O. Box 720128","405-755-8177 14","jriley@telecompliance.net","OWEN  MURPHY","TECH","40 LLOYD AVENUE, SUITE 106, MALVERN, PA 19355","484-913-1137 ","accounting@ipathcloud.com","OPERATIONS"
"Power On Technologies, Inc.","838 NW 1661 Road,Bates City,MO 64011","None","MO, KS","Shelly  Searcy","administrator","5893 Raytown Rd Suite 101","816-737-2900 ","shellys@thinkpoweron.com","Derrick  Weigel","Owner","5893 Raytown Rd Suite 101","816-737-2900 ","dweigel@ncs-grp.com","VOIP"
"Dial Them Up LLC","201 E Ridgewood Ave,Ridgewood,NJ 07450","None","NJ","","","","","","","","","","",""
"Hunt Brothers of Louisiana, LLC","10802 Executive Center Drive,Little Rock,AR 72211","Hunt Telecommunications","LA","Jeffrey R Strenkowski","VP, Deputy General Counsel of Governmental Affairs","10802 Executive Center Drive, Suite 300, Little Rock, AR 72211","501-458-4397 ","jeffrey.strenkowski@uniti.com","Eric  Daniels","SVP, Operations","107 St Francis Street, Suite 1800, Mobile, AL 36602","251-662-1513 ","eric.daniels@uniti.com","Operations"
"COMMUNICATION INNOVATORS, INC.","P.O. BOX 57037,PLEASANT HILL,IA 50317","None.","IA, FM, UT","Doug  Hoff","Senior Manager","6250 Shiloh Rd.  Suite 110 Alpharetta, GA 30005","404-472-6241 ","doug@gsaudits.com","Kirk  Glawe","President","1301 NE 56th Street, Pleasant Hill, IA 50327","512-262-7686 ","kglawe@gotoci.com","Administration"
"Great Plains Communications LLC","1600 Great Plains Centre,Blair,NE 68008","None","IL, IN, KY","Erik  Roggenburg","Vice President Finance","135 North Meramec Ave, Suite 501, Clayton, MO 63105","314-558-0634 ","roggenburg@intercarriernetworks.com","Kurt  VanHoogstrate","Vice President, Operations","135 North Meramec Ave., 5th Floor, Clayton, MO 63105","314-558-0633 ","vanhoog@intercarriernetworks.com","Operations"
"T-Mobile USA, Inc.","12920 SE 38th Street,Bellevue,WA 98006","None","AL, AK, AZ, AR, CA, CO, CT, DE, DC, FL, GA, HI, ID, IL, IN, IA, KS, KY, LA, ME, MD, MA, MI, MN, MO, MS, MT, NE, NV, NM, NJ, NH, NY, NC, ND, OH, OK, OR, PA, RI, SC, SD, TN, TX, UT, VA, VT, WA, WI, WV, WY","Corporation Service Company  -","Agent for service of process","1090 Vermont Avenue NW, Washington, D.C. 20005","866-403-5272 ","SOP@cscglobal.com","William  Rowe","Manager","7668 Warren Parkway, Frisco, TX 75034","425-302-4709 ","William.Rowe@T-Mobile.com","Engineering Customer Support"
"Skywire LLC","1775 Tysons Blvd,McLean,VA 22102","SkyWire Holdings, Inc and Rainbow Broad Band","FL, MD, NJ, NY, VA","Doug  Hoff","Regulatory Manager","6250 Shiloh Rd. Suite 110, Alpharetta, GA 30005","404-427-3701 ","doug@gsaudits.com","Lewis  Shattan","Controller","1775 Tysons Blvd, 5th Floor, McLean, VA 22102","202-906-9460 ","lewis.shattan@gigstreem.com","Administration"
"Optivon Telecommunications Services, Inc","27 Calle Gonzalez Giusti,Guaynabo,PR 968","None","PR, AK, AR, AZ, CA, CO, CT, DC, DE, FL, GA, HI, IA, ID, IL, IN, KS, KY, LA, MA, MD, ME, MI, MN, MO, MS, MT, NC, ND, NE, NH, NJ, NM, NV, NY, OH, OK, OR, PA, RI, SC, SD, TN, TX, UT, VA, VI, VT, WA, WI, WV, WY, OU","Johanna  Sierra","Office Manager","27 Calle Gonzalez Gisuti STE 100, Edificio Tres RIos, Guaynabo, PR 00968","787-706-4999 ","jsierra@optivon.net","Felix  Cardona","Director","27 Calle Gonzalez Gisuti STE 100, Edif Tres Rios, Guaynabo, PR 00968","787-304-0010 ","fcardona@optivon.net","Technical Services"
"thinQ Technologies, Inc.","5420 Wade Park Blvd,Raleigh,NC 27607","None","AL, AK, AZ, AR, CA, CO, CT, DE, GU, FL, GA, HI, ID, IL, IN, IA, KS, KY, LA, ME, MD, MA, MI, MN, MS, MO, MT, NE, NV, NH, NJ, NM, NY, NC, ND, OH, OK, OR, AS, PA, RI, SC, SD, TN, DC, TX, UT, PR, VT, VA, WA, WV, WI, WY, VI, MP","Aaron  Leon","CEO","5420 Wade Park Blvd, Raleigh, NC 26707","919-889-0000 103","aaron@thinq.com","Aaron  Leon","CEO","5420 Wade Park Blvd, #100, Raleigh, NC 26707","919-889-0000 103","aaron@thinq.com","Executive"
"G5 TELEKOM TELEKOMIMIKASYON LIMITED SIRK","AKSEMSETTIN MAH.KINALIZADE SK. NO:4/3 FATIH/ISTANBUL, Fatih, Turkey ","none","OU","Rima  Shkeir","Senior Account Manager","Beirut","961-148-5859 ","rima@g5tel.com","Nadia  Elraei","Account manager","Beirut","961-148-5859 ","nadia@g5tel.com","Billing"
"France Telecom Corporate Solutions L.L.C","13865 Sunrise Valley Drive,Herndon,VA 20171","none","AL, AZ, AR, CA, CO, DC, FL, GA, ID, IL, IN, KY, ME, MD, MA, MI, MO, NJ, NM, NY, NC, OH, OK, OR, PA, SC, TN, TX, UT, VA, WA","Joe  Topel","Regulatory Manager","13775 McLearen Road, Mail Stop 1100 Oak Hill, VA  20171-3212","703-375-7323 ","joe.topel@orange.com","Guy  Badot","Product Management","Mobistar Da Vinci-Sirius  Bourgetlaan 3 / Avenue du Bourget 3  11140 Brussels","703-375-7323 3226439405","guy.badot@orange.com","OBS"
"O1 Communications, Inc.","2865 Sunrise Ave., Suite 220,Rancho Cordova,CA 95742","O1 Communications, Inc.","CA, AK, AR, AZ, AL, CO, CT, DC, DE, FL, GA, SO, GU, HI, IA, AS, ID, IL, IN, KS, KY, LA, MA, MD, ME, MH, MI, MN, MO, MS, MT, NC, ND, NE, NH, NJ, NM, NV, NY, OH, OK, OR, PA, PR, RI, SC, SD, TN, TX, UT, VA, VI, VT, WA, WI, WV, WY, OU","Michel  Singer Nelson","Vice President of Regulatory and Public Policy","4359 Town Center Blvd, Suite 217","916-235-2028 ","mnelson@o1.com","Nate  Lighthouse","Voice Engineer","4359 Town Center Blvd., Suite 217","916-235-2069 ","nlighthouse@o1.com","Network Operations"
"BT Americas Inc.","11440 Commerce Park Drive,Reston,VA 20191","BT","AK, AL, AR, AZ, CA, CO, CT, DC, DE, FL, GA, HI, IA, ID, IL, IN, KS, KY, MO, LA, MA, MD, ME, MI, MN, MS, MT, NC, ND, NE, NH, NJ, NM, NV, NY, OH, OK, OR, PA, PR, RI, SC, SD, TN, TX, UT, VA, VI, VT, WA, WI, WV, WY","Sheba  Chacko","Chief Regulatory Counsel","11440 Commerce Park Drive, Suite 100, Reston, VA 20191","703-755-6730 ","sheba.chacko@bt.com","Frank O Shaffer","Head of Global IB Service","11440 Commerce Park Drive, Suite 100, Reston, VA 20191","703-755-6513 ","frank.shaffer@bt.com","Global Services"
"InterMetro Communications, Inc.","2685 Park Center Dr., Building A,Simi Valley,CA 93065","None","CA","Judy  Endejan","Vice President Legal Affairs","2685 Park Center Drive, Bldg A, Simi Valley, CA 93065","805-433-8000 ","Judy.Endejan@Intermetro.net","Judy  Endejan","Vice President Legal Affairs","2685 Park Center Dr, Bldg A, Simi Valley, CA 93065","805-433-8000 ","Judy.Endejan@Intermetro.net","Regulatory / Legal"
"HFA Services LLC d/b/a Call48","7700 Congress Avenue,Boca Raton,FL 33487","Inter Vista Networking, Inc.","CA, CO, IL, GA, NY, AK, AL, AR, AS, AZ, CT, DC, DE, FL, SO, GU, HI, IA, ID, IN, KS, KY, LA, MA, MD, ME, MI, MN, MO, MS, MT, NC, ND, NE, NH, NJ, NM, NV, OH, OK, OR, OU, PA, PR, RI, SC, SD, TN, TX, UT, VA, VI, VT, WA, WV, WI, WY","Lauren  Halperin","Chief Marketing Officer","7700 Congress Avenue, Suite 3214","561-931-0478 ","info@hfaholdingsllc.com","Nate  Lighthouse","Voice Engineer","4359 Town Center Blvd., Suite 217","916-235-2069 ","nlighthouse@o1.com","Network Operations"
"Cable One, Inc.d/b/a Sparklight","210 E. Earll Drive,Phoenix,AZ 85012","None","LA, MS, TX","Emerson  Yearwood","Assoc. Gen. Counsel & Dir. Regulatory Affairs","210 E. Earll Drive, Phoenix, AZ 85012-2626","602-364-6195 ","emerson.yearwood@cableone.biz","Glenn  Baumgarth","Lead Systems Analyst","210 E. Earll Drive, Phoenix, AZ 85012-2626","602-364-6471 ","glenn.baumgarth@cableone.biz","Telephony"
"Secure Voice Corp.","980 N. Federal Hwy #304,Boca Raton,FL 33432","None","DE, TX, FL","Mark E Munro","CEO","980 N. Federal Hwy #304","561-672-7068 ","Mark.munro@securevoicecorp.com","Mark E Munro","CEO","980 N. Federal Hwy #304","561-672-7068 ","Mark.munro@securevoicecorp.com","Executive"
"Ytel Inc.","26632 Towne Centre Dr Suite 300,Foothill Ranch,CA 92610","None","AL, AK, AZ, AR, CA, CO, CT, DE, GU, FL, GA, HI, ID, IL, IN, IA, KS, KY, LA, ME, MD, MA, MI, MN, MS, MO, MT, NE, NV, NH, NJ, NM, NY, NC, ND, OH, OK, OR, AS, PA, RI, SC, SD, TN, DC, TX, UT, PR, VT, VA, WA, WV, WI, WY, VI, MP","Richard  Kaplan","CIO","26632 Towne Centre Dr Suite 300 Lake Forest CA 92610","800-382-4913 ","richard@ytel.com","Richard  Kaplan","General Manager of Carrier Services","94 Icon, Foothill Ranch, CA 92610","800-382-4913 ","richard@ytel.com","Carrier Services"
"Ecommerce National, LLC","5347 E Mockingbird Lane,Paradise Valley,AZ 85253","None","AZ","","","","","","","","","","",""
"PEG Bandwidth IA, LLC","10802 Executive Center Drive,Little Rock,AR 72211","NONE","IA","Jeffrey  Strenkowski","VP, Deputy General Counsel of Governmental Affairs","10802 Executive Center Drive, Suite 300, Little Rock, AR 72211","501-458-4397 ","jeffrey.strenkowski@uniti.com","Eric  Daniels","SVP, Operations","107 St Francis Street, Suite 1800, Mobile, AL 36602","251-662-1513 ","eric.daniels@uniti.com","Operations"
"CTI Telecom, Inc.","1207 West 44 Place,Hialeah,FL 33012","None","FL","Douglas  Hoff","Director of Regulatory Compliance","6250 Shiloh Rd., Ste 110, Alpharetta, GA 30005","404-472-6241 ","doug@gsaudits.com","Antonio  Pita","CEO","1207 w 44th pl","305-764-0225 ","tony@ctitelecom.com","Executive"
"OpenNewMarkets, LLC","500 N. Rainbow Blvd.,Las Vegas,NV 89107","None","NV, AK, AL, AR, AZ, CA, CO, CT, DC, DE, FL, GA, GU, HI, IA, ID, IL, IN, KS, KY, LA, MA, MD, ME, MH, MI, MN, MO, MS, MT, NC, ND, NE, NH, NJ, NM, NY, OH, OK, OR, PA, RI, SC, SD, TN, TX, UT, VA, VT, WA, WI, WV, WY","Doug  Hoff","Regulatory Manager","6250 SHILOH RD.  SUITE 110","404-472-6241 ","doug@GSAUDITS.COM","Terrence  Kartch","CEO","500 N. Rainbow Blvd., STE 300, Las Vegas, NV 89107","702-359-9490 ","sales@opennewmarkets.com","administrative"
"Pinless Communications Inc.","600 Eagleview Blvd,Exton,PA 19341","NONE","OU","Leonid  Barnachuck","President","600 Eagleview Blvd, suite 300 Exton, PA 19341","484-606-6245 ","admin@pinlesscalls.com","Leonid  Baranchuck","President","600 Eagleview Blvd, suite 300 Exton, PA 19341","484-606-6245 ","admin@pinlesscalls.com","Executive"
"Endstream Communications, LLC","401 East 34th Street,New York,NY 10016","None","AA, AK, AE, AL, AP, AR, AS, AZ, CA, CO, CT, DC, DE, FL, FM, GA, SO, GU, IA, ID, IL, IN, KY, LA, MA, MD, ME, MH, MI, MO, MP, MS, MT, ND, NE, NH, NJ, NV, NY, OH, OK, OR, OU, PR, RI, SD, TN, TX, UT, VA, VI, VT, WA, WI, WV, WY","Registered  Agents Inc","Service Provider","1717 N Street NW   STE 1   Washington, DC 20036","202-403-0599 ","agent@washingtondcregisteredagent.com","Erik  Levitt","CEO","401 East 34th Street #N27J New York  NY 10016","212-796-5500 1","elevitt@endstream.com","Customer Support"
"ITSP Direct, Inc.","41 Main Street,Bolton,MA 01740","None","AL, AR, AZ, CA, CO, CT, DE, DC, FL, GA, ID, IL, IN, IA, KS, KY, LA, ME, MD, MA, MI, MN, MS, MO, MT, NE, NV, NH, NJ, NM, NY, NC, ND, OH, OK, OR, PA, RI, SC, SD, TN, TX, UT, VT, VA, WA, WV, WI, WY","Judith  Riley","President","12316 Hidden Forest Boulevard Oklahoma City, OK  73142","405-755-8177 2100","jriley@telecompliance.net","Roland  Grenier","Director","41 Main St","877-483-5393 235","rgrenier@paragonnt.com","Provisioning"
"D&E Communications Inc.","4001 N Rodney Parham Rd,Little Rock,AR 72212","None","PA","Edward  Cadieux","Counsel II","4001 N. Rodney Parham Rd., MS: 1170-B1F03-53A, Little Rock, AR 72112","314-249-0216 ","Edward.Cadieux@windstream.com","Dewey  Detmers","Director - Voice Services","4001 N. Rodney Parham Rd., Little Rock, AR 72112","585-869-7992 ","dewey.detmers@windstream.com","Carrier Relations/Access Management"
"Range, Inc","919 North Market Street,Wilmington,DE 19801","None","AL, AK, AZ, AR, CA, CO, CT, DE, GU, FL, GA, HI, ID, IL, IN, IA, KS, KY, LA, ME, MD, MA, MI, MN, MS, MO, MT, NE, NV, NH, NJ, NM, NY, NC, ND, OH, OK, OR, AS, PA, RI, SC, SD, TN, DC, TX, UT, PR, VT, VA, WA, WV, WI, WY, VI, MP","Christopher  Rubini","CEO","919 North Market Street Suite 425","201-350-7636 ","chris@rangetelecom.com","Christopher  Rubini","CEO","919 North Market Street Suite 425","201-350-7636 ","support@rangetelecom.com","Support"
"BlueBird Communications, LLC","447 Broadway, 2nd FL #155,New York,NY 10013","None","NY, NJ, SD","Harold  Barr","VP","218 East Park Ave. Suite 522,  Long Beach, NY 11561","516-708-0111 ","hb@bluebirdphone.com","Harold  Barr","VP","218 East Park Ave. Suite 522, Long Beach, NY 11561","516-708-0111 ","hb@bluebirdphone.com","Ooperations"
"US Matrix Telecommunications, Inc.","591 E Sample Road,Pompano Beach,FL 33064","None","AK, AL, AR, AZ, CA, CO, CT, DC, DE, FL, GA, HI, IA, ID, IL, IN, KS, KY, LA, MA, MD, ME, MI, MO, MN, MS, MT, NC, ND, NE, NH, NJ, NM, NV, NY, OH, OK, PA, OR, RI, SC, SD, TN, TX, UT, VA, VT, WA, WI, WV, WY","Billy  Souto Maior","Senior Vice President and COO","5550 Glades Road Boca Raton, FL 33431","917-636-5989 ","billy@usmatrix.com","Billy  Souto Maior","Senior Vice President and COO","5550 Glades Road Boca Raton, FL 33431","917-636-5989 ","billy@usmatrix.com","Billing"
"Electric Lightwave, LLC dba Allstream","2800 Campus Drive,Plymouth,MN 55441","NOTE: The correct entity name for this FRN is Electric Lightwave, LLC","AK, AL, AR, AS, AZ, CA, CO, CT, DC, DE, FL, GA, HI, IA, ID, IL, IN, KS, KY, LA, MA, MD, ME, MI, MN, MO, MS, MT, NC, ND, NE, NH, NJ, NM, NV, NY, OH, OK, OR, PA, RI, SC, SD, TN, TX, UT, VA, VT, WA, WI, WV, WY","Donna  Heaston","Corporate Attorney","6160 Golden Hills Drive","763-745-8466 ","donna.heaston@allstream.com","Donna  Heaston","Corporate Attorney","6160 Golden Hills Dr.","763-745-8466 ","donna.heaston@allstream.com","Legal"
"Third Base International Telecom","3949 Evans Ave -Ste 301B,Fort Myers,FL 33901","None","AL, AK, AZ, AR, CA, CO, CT, DE, GU, FL, GA, HI, ID, IL, IN, IA, KS, KY, LA, ME, MD, MA, MI, MN, MS, MO, MT, NE, NV, NH, NJ, NM, NY, NC, ND, OH, OK, OR, AS, PA, RI, SC, SD, TN, DC, TX, UT, PR, VT, VA, WA, WV, WI, WY, VI, MP","","","","","","","","","","",""
"Savecom Telecom, Inc.","709 Church Avenue,Brooklyn,NY 11218","None","NY","Simon  Jalas","CEO","709 Church Avenue   Brooklyn NY 11218","212-444-1005 ","simonj@savecomtel.com","Simon  Jalas","CEO","709 Church Avenue   Brooklyn NY 11218","212-444-1005 ","simonj@savecomtel.com","none"
"Triton Networks LLC","12655 N. Central Expressway,Dallas,TX 75243","NONE","TX","Doug  Hoff","Senior Manager","6250 Shiloh Rd, STE 110, Alpharetta, GA 30005","404-472-6241 ","doug@gsaudits.com","Charles  Bridges","Controller","12160 Abrams Road Suite 200, Dallas, Texas, 75243","214-570-0555 ","compliance@tritonnet.com","Accounting"
"Micro Technology Group Inc","520 State Road,Bensalem,PA 19020","Complete Convergence Inc","PA, NJ, MA, VA","Karen  Morton","Controller","520 State Road, Unit A Bensalem, PA 19020","215-247-8324 103","kmorton@247tech.com","Karen  Morton","Controller","520 State Road, Unit A Bensalem, PA 19020","215-247-8324 103","kmorton@247tech.com","Finance"
"Network Enhanced Telecom, LLP","119 W. Tyler Street,Longview,TX 75601","None","AL, AK, AZ, AR, CO, CT, DE, DC, FL, GA, HI, ID, IL, IN, IA, KS, KY, LA, ME, MA, MD, MI, MN, MO, MS, MT, NC, ND, NE, NH, NJ, NM, NV, NY, OH, OK, OR, PA, RI, SC, SD, TN, TX, UT, VT, VA, WA, WV, WI, WY","Amanda  Harris","Regulatory Compliance Officer","119 W. Tyler Street, Suite 100, Longview, TX 75601","903-323-4900 ","regulatory@networkip.net","Mike  Truemner","VP Operations","119 W. Tyler Street, Suite 100, Longview, TX 75601","903-323-4900 ","mtruemner@networkip.net","Operations"
"Morse Communications Inc","395 East Drive,Melbourne,FL 32904","None.","AL, CA, CO, CT, DC, FM, FL, GA, HI, IA, IL, IN, KS, KY, LA, MA, MD, MI, MN, MO, MS, NC, NJ, NM, NV, NY, OH, PA, RI, SC, TN, TX, VA, WA, WI","Doug  Hoff","Senior Manager","6250 Shiloh Rd.  Suite 110 Alpharetta, GA 30005","404-472-6241 ","doug@gsaudits.com","Michael J. Costello","CIO","a.	2295 WEST EAU GALLIE BLVD, STE B, MELBOURNE, FL 32935","321-259-8469 ","mcostello@morsecom.com","Administration"
"PEG Bandwidth MA, LLC","10802 Executive Center Drive,Little Rock,AR 72211","NONE","MA","Jeffrey  Strenkowski","VP, Deputy General Counsel of Governmental Affairs","10802 Executive Center Drive, Suite 300, Little Rock, AR 72211","501-458-4397 ","jeffrey.strenkowski@uniti.com","Eric  Daniels","SVP, Operations","107 St Francis Street, Suite 1800, Mobile, AL 36602","251-662-1513 ","eric.daniels@uniti.com","Operations"
"Telco Connection","6910 92nd Ave NW C5   196,Stanwood,WA 98292","none","AZ, CA, CO, DE, FL, GA, IL, NJ, NY, OH, OR, TN, TX, UT, WA","David  Singer","President","31821 Via Perdiz, Coto de Caza, CA 92679","949-229-1599 ","David@TelcoConnection.com","DAVID  SINGER","President","31821 Via Perdiz, Coto de Caza, CA 92679","949-229-1599 ","David@TelcoConnection.com","Executive"
"Advantage Telecommunications, Corp.","3001 Aloma Avenue, Suite 304,Winter Park,FL 32792","None","AZ, AR, CA, CO, DC, FL, GA, IA, ID, IL, IN, KS, KY, LA, MA, MD, MN, MO, MT, NC, NE, NJ, NV, NY, OH, PA, TX, UT, VA, WA","Robert  Sorrentino","President","3001 Aloma Avenue, Suite 304, Winter Park, FL 32792","800-435-9217 ","regdbg@dominionbusinessgroup.com","Robert  Sorrentino","President","3001 Aloma Avenue, Suite 304, Winter Park, FL 32792","800-841-4614 ","service@service-us.com","Management"
"BCN Telecom Inc","1200 Mount Kemble Avenue,Morristown,NJ 07960","NUI Telecom, Inc.
International Telephone Group, Inc.","AL, AK, AZ, AR, CA, CO, CT, DE, DC, FL, GA, HI, ID, IL, IN, IA, KS, KY, LA, ME, MD, MA, MI, MS, MO, MT, MN, NE, NV, NH, NJ, NM, NY, NC, ND, OH, OK, OR, PA, RI, SC, SD, TN, TX, UT, VT, VA, WA, WV, WI, WY, PR","Patrick D Crocker","Attorney","107 W Michigan Avenue","269-381-8893 ","patrick@crockerlawfirm.com","Kathleen  Gorey","Regulatory Director","1200 Mt. Kemble Ave, Morristown, NJ  07960","908-367-5958 ","kgorey@bcntele.com","Regulatory"
"Softtop Limited",",, ","none","OU","Sharon  Dsousa","Director","2/F TERN CTR Tower 1,","914-786-4160 ","sharon@softtop.tech","Sharon  Dsousa","Director","2/F TERN CTR Tower 1,","914-786-4160 ","sharon@softtop.tech","Head"
"Rainbow Broadband Inc","14 Penn Plaza,New York,NY 10122","Skywire Holdings","CA, MA, NJ, NY, SC","Doug  Hoff","Regulatory Manager","6250 Shiloh Rd. Suite 110, Alpharetta, GA 30005","404-472-6241 ","doug@gsaudits.com","Lewis  Shattan","Controller","14 Penn Plaza, Suite 2100, New York, New York 10122","202-906-9460 ","lewis.shattan@gigstreem.com","Administration"
"Agnes Sophisticated Hair LLC","1263 Falling Star Ln,Orlando,FL 32828","None","FL","","","","","","","","","","",""
"North Penn Long Distance Corp","34 Main Street,Prattsburgh,NY 14873","None","PA","Thomas  Prestigiacomo","CFO","34 Main St; Prattsburgh, NY 14873","607-522-3712 ","tpresti@etcnpt.com","Bill  Doran","Director of Operations","34 Main St; Prattsburgh, Ny 14873","607-522-4218 ","bdoran@etcnpt.com","Operations"
"Value-Added Communications, Inc.","3120 Fairview Park Drive,Falls Church,VA 22042","NONE","AL, AZ, AR, CA, CO, CT, FL, GA, HI, IA, ID, IL, IN, KS, KY, LA, MA, MD, MI, MN, MO, MS, NV, NH, NJ, NY, NC, OH, OK, OR, PA, PR, SC, SD, TN, TX, UT, VA, VT, WA, WI, WV, WY","Steve  Montanaro","Vice President","3120 Fairview Park Drive, Suite 300, Falls Church VA 22042","813-380-1513 ","steve.montanaro@gtl.net","Steve  Montanaro","Vice President","3120 Fairview Park Drive, Suite 300, Falls Church VA 22042","813-380-1513 ","steve.montanaro@gtl.net","None"
"UVNV, Inc.","1550 Scenic Ave. Suite 100,Costa Mesa,CA 92626","None","AL, AR, AZ, CA, CO, CT, DC, DE, FL, GA, HI, IA, ID, IL, IN, KS, KY, LA, MA, MD, ME, MI, MN, MO, MS, MT, NC, ND, NE, NH, NJ, NM, NV, NY, OH, OK, OR, PA, RI, SC, SD, TX, UT, VA, WA, WI, WV, WY","Doug  Hoff","Regulatory Manager","6250 Shiloh Rd., Ste 110 Alpharetta, GA 30005","404-472-6241 ","doug@gsaudits.com","Gary  Grinham","Controller","1550 Scenic Ave., Suite #100, Costa Mesa, CA 92626","949-231-7094 ","ggrinham@ultra.me","Controller"
"NGL COMMUNICATIONS LLC","3650 Rogers Road,Wake Forest,NC 27587","None","NC","Eric  Engbers","Operations","3650 Rogers Road, Suite 343, Wake Forest, NC 27587","980-256-3775 ","eric.engbers@nglcommunications.com","Eric  Engbers","Operations","3650 Rogers Road, Suite 343, Wake Forest, NC 27587","980-256-3775 ","eric.engbers@nglcommunications.com","Operations"
"AmeriMex Communications Corp.","100 Main St,Safety Harbor,FL 34695","NONE","CA, GA, KY, MI, OK, PA, PR, WI","Ken  King","Director of Operations","2323 Curlew Road, Suite 7B, Dunedin FL  34698","727-386-8601 ","kenking@safetynetwireless.com","Ken  King","Director of Operations","2323 Curlew Road, Suite 7B, Dunedin FL  34698","877-312-1691 ","kenking@safetynetwireless.com","none"
"Advanced Technology Group, LLC","5100 B Pierce Ct.,Evans,GA 30809","None.","GA, SC","Doug  Hoff","Senior Manager","6250 Shiloh Rd., Suite 110, Alpharetta, GA 30005","404-472-6241 ","doug@gsaudits.com","Tommy  Akins","COO","5100 B Pierce Ct, Evans, GA  30809","706-823-1449 ","takins@catg.com","Sales"
"First Choice Technology, Inc.","903 Lake Lily Drive, Suite A125,Maitland,FL 32751","none","AR, AZ, CA, CO, FL, GA, IA, ID, IL, IN, KS, KY, LA, MA, MD, ME, MI, MN, MO, MT, NC, ND, NE, NH, NJ, NM, NV, NY, OH, OK, OR, RI, SC, SD, TN, TX, UT, VA, VT, WA, WV, WY, WI","Scott  Howsare","President","903 Lake Lily Drive, Suite A125","407-629-0950 ","showsare@firstchoicetele.com","Scott  Howsare","President","903 Lake Lily Drive, Suite A125, Maitland, FL  32751","407-629-0950 ","showsare@firstchoicetele.com","Management"
"Maquoketa Valley Rural Electric Cooperat","109 N. Huber Street,Anamosa,IA 52205","none","IA","Kelly  Gibbs","CFO","109 N Huber St; Anamosa IA 52205","319-462-3542 ","kgibbs@mvec.com","KELLY  GIBBS","CFO","109 N Huber St","319-462-3542 ","kgibbs@mvec.com","Management"
"Vibtree Technologies,LLC","3101 N Central Ave Ste183,Phoenix,AZ 85012","none","AZ, AA, AK, WY, AR, CA, AP, AL, DC, AE, AS, CT, DE, FL, HI, SO, GA, CO, GU, ID, KS, KY, MA, MD, ME, IL, MN, IN, MO, MI, OR, MH, MT, ND","Jay  Kordic","Reglulartory","3101 N Central Ave ste183","951-415-4666 ","jay@thehorizongroup.biz","Robin  Johnson Messinger","Rural Call Complete Incident agent","22216 E Pecan Ln","562-972-3065 ","rjohnson0122@gmail.com","Rural Call Completion"
"USA Digital Communications, Inc.","11600 Broadway Ext, #150,Oklahoma City,OK 73114","USAD Communications","AA, AK, AR, AS, AZ, CA, CO, CT, DC, DE, FL, GA, GU, HI, IA, ID, IL, IN, KS, KY, LA, MA, MD, ME, MH, MI, MO, MN, MS, MT, NC, ND, NE, NJ, NM, NV, NY, OH, OK, OR, PA, PR, SC, SD, TN, TX, UT, VA, WA, WI, WV, WY","Shawna B Bruce","Controller","11600 Broadway Extension, #150 - Oklahoma City, OK   73114","888-872-3787 ","sbruce@usad.com","Michael R Sturdivan","CFO","11600 Broadway Extension, Suite 150 - Oklahoma City, OK  73114","800-794-1063 ","msturdivan@usad.com","Finance"
"","2005 W Broadway,Columbia,MO 65203","NONE","IL, IN, MO, IA","Jeffrey  Strenkowski","VP, Deputy General Counsel of Governmental Affairs","10802 Executive Center Drive, Suite 300, Little Rock, AR 72211","501-458-4397 ","jeffrey.strenkowski@uniti.com","Eric  Daniels","SVP, Operations","107 St Francis Street, Suite 1800, Mobile, AL 36602","251-662-1513 ","eric.daniels@uniti.com","Operations"
"KG Communications, Inc","1538 Bedford Ave,Clovis,CA 93611","None.","AL, CA, GU, HI, ID, NJ, NV, TX, UT, WA","Doug  Hoff","Senior Manager","6250 Shiloh Rd.  Suite 110, Alpharetta, GA 30005","404-472-6241 ","doug@gsaudits.com","Lisa  Wills","Accountant","1030 E Gettysburg Ave, Suite 100 F, Clovis, CA 93612","559-500-1334 ","lisa@kgcomm.net","Accounting"
"City of Valparaiso","465 Valparaiso Pkwy,Valparaiso,FL 32580","None.","FM","Doug  Hoff","Senior Manager","6250 Shiloh Rd.  Suite 110 Alpharetta, GA 30005","404-472-6241 ","doug@gsaudits.com","Tammy  Johnson","City Clerk","465 Valparaiso Parkway, Valparaiso, FL 32580","850-729-5404 ","tjohnson@valp.org","Administration"
"PNG Telecommunications, Inc.","8805 Governor's Hill Dr,Cincinnati,OH 45249","None","OH, AK, AL, AR, AZ, CA, CO, CT, DC, DE, FL, GA, HI, IA, ID, IL, IN, KS, KY, LA, MA, MD, ME, MI, MN, MO, MS, MT, NC, ND, NE, NH, NJ, NM, NV, NY, OK, OR, PA, RI, SC, SD, TN, TX, UT, VA, VT, WA, WI, WV, WY","Holly  Nagel","Routing & Rate Analyst","8805 Governors Hill Dr Suite 250, Cincinnati OH 45249","513-645-4775 ","hnagel@powernetco.com","Penny  Thurnau","Director","8805 Governors Hill Drive, Cincinnati, OH 45249","513-645-5109 ","pthurnau@powernetco.com","Network"
"LCRHUB INC","25 1st Ave Southwest,Watertown,SD 57201","NONE","AA, AK, AE, AL, AP, AR, AS, AZ, CA, CO, CT, DC, DE, FL, FM, GA, SO, GU, HI, IA, ID, IL, IN, KS, KY, LA, MA, MD, ME, MH, MI, MN, MO, MP, MS, MT, NC, ND, NE, NH, NJ, NM, NV, NY, OH, OK, OR, OU, PA, PR, RI, SC, SD, TN, TX, UT, VA, VI, VT, WA, WI, WV, WY","Denis  Moris","Regulatory","25 First Ave SW  Watertown SD 57201","605-789-5030 ","info@lcrhub.com","Denis  Moris","Sales and contracts manager","25 First Ave SW  Watertown SD 57201","605-789-5030 2202","info@lcrhub.com","sales"
"PAETEC","4001 N Rodney Parham Rd,Little Rock,AR 72212","PAETEC Communications, LLC","NC","Edward John Cadieux","Counel II","4001 N. Rodney Parham Rd. MS: 1170-B1F03-53A Little Rock, AR 72112","314-249-0216 ","Edward.Cadieux@windstream.com","Dewey  Detmers","Director - Voice Services","4001 N. Rodney Parham Rd., Little Rock, AR 72112","585-869-7992 ","dewey.detmers@windstream.com","Carrier Relations/Access Management"
"FiberLight LLC","3000 Summit Place,Alpharetta,GA 30009","None","AL, AR, FL, GA, MD, LA, IN, WV, VA, DC, NM, NC, SC, OK, TN, TX, OH","Joanne  Petersen","Corporate Counsel","3000 Summit Place","734-646-7057 ","legal-regulatory@fiberlight.com","Joanne  Petersen","Corporate Counsel","3000 Summit Place, Suite 200, Alpharetta, GA 30009","734-646-7057 ","legal-regulatory@fiberlight.com","Legal"
"West Telecom Services, LLC","5850 Granite Parkway,Plano,TX 75024","HyperCube, HyperCube Telecom, LLC., H3, H3T, and KMC Data.","AL, AR, AZ, CA, CO, CT, DC, DE, FL, GA, IA, ID, IL, IN, KS, KY, LA, MA, MD, ME, MI, MN, MO, MT, MS, NC, ND, NE, NH, NJ, NM, NV, NY, OH, OK, OR, PA, RI, SC, SD, TN, TX, UT, VA, VT, WA, WI, WV, WY","Robert W. McCausland","Vice President, Regulatory and Government Affairs","3200 W. Pleasant Run Rd., Suite 300, Lancaster, TX 75146-1086","469-727-1640 ","rwmccausland@west.com","Robert W. McCausland","Vice President, Regulatory and Government Affairs","3200 W. Pleasant Run Rd., Suite 300, Lancaster, TX 75146-1086","469-644-4954 ","rwmccausland@west.com","Regulatory and Government Affairs"
"10X Communications","425 N. Broadway,Jericho,NY 11753","None","NY","Zev J Cohen","CEO","249 West 34 St, Suite 305, NY, NY 10001","212-279-4400 ","zev@10xcommunications.com","Zev J Cohen","CEO","249 West 34 St, Suite 305, NY, NY 10001","212-279-4400 ","zev@10xcommunications.com","Management"
"Voizen Inc.","2500 NE 135 ST,Miami,FL 33181","None","FL","Roger  Valdes","CEO","2500 NE 135 ST #603, Miami, FL 33181","786-660-0201 ","roger@voizen.com","Roger  Valdes","CEO","2500 NE 135 ST #603, Miami, FL 33181","786-660-0201 ","roger@voizen.com","NOC"
"HFA Reseller Services LLC","7700 Congress Ave Suite 3214,BOCA RATON,FL 33487","None","AA, AE, AK, AB, AG, AL, AP, AS, AZ, BC, BC, AR, BS, CA, CH, CL, CM, CO, CO, CS, CT, DC, DE, DF, DG, FL, FM, GA, GR, GT, GU, HG, HI, IA, ID, IL, IN, JA, KS, KY, LA, MA, MB, MD, ME, MH, MI, MI, MN, MO, MO, MP, MS, MT, MX, NA, NB, NC, ND, NE, NH, NJ, NL, NL, NM, NS, NT, NU, NV, NY, OA, OH, OK, ON, OR, OU, PA, PE, PR, PU, QC, QR, QT, RI, SC, SD, SI, SK, SL, SO, TB, TL, TM, TN, TX, UT, VA, VE, VI, VT, WA, WI, WV, WY, YT, YU, ZA","Michel  Singer Nelson","VP of Regulatory","2865 Sunrise Blvd, Suite 220, Rancho Cordova, CA  95742","916-235-2028 ","mnelson@call48.com","Brian  Stone","Network Operations Director","7700 Congress Ave., Suite 3214, Boca Raton, FL  33487","916-235-2030 ","bstone@call48.com","Network Operations"
"Detel Wireless, LLC","5301 77 Center Drive,Charlotte,NC 28217","None","LA, TX","Dawna Kimmich Hannan","Vice President of Telecom Regulatory","2101 Rexford Road, Suite 200E, Charlotte, NC 28211","704-936-1805 ","dhannan@conterra.com","Dawna Kimmich Hannan","Vice President of Telecom Regulatory","2101 Rexford Road, Suite 200E, Charlotte, NC 28211","704-936-1805 ","dhannan@conterra.com","Regulatory"
"PEG Bandwidth NJ, LLC","10802 Executive Center Drive,Little Rock,AR 72211","NONE","NJ","Jeffrey  Strenkowski","VP, Deputy General Counsel of Governmental Affairs","10802 Executive Center Drive, Suite 300, Little Rock, AR 72211","501-458-4397 ","jeffrey.strenkowski@uniti.com","Eric  Daniels","SVP, Operations","107 St Francis Street, Suite 1800, Mobile, AL 36602","251-662-1513 ","eric.daniels@uniti.com","Operations"
"American Axess, Inc.","20801 Biscayne Blvd.,Aventura,FL 33180","None","AK, AL, AR, AZ, CA, CO, CT, DC, DE, FL, GA, HI, IA, ID, IL, IN, KS, KY, LA, MA, MD, ME, MI, MN, MO, MS, MT, NC, ND, NE, NH, NJ, NM, NV, NY, OH, OK, OR, PA, RI, SC, SD, TN, TX, UT, VA, VT, WA, WI, WV, WY","Patricia  Dabbe","Vice President","20801 Biscayne Blvd. Suite 403 Aventura FL 33180","407-227-9555 ","pdabbe@AmericanAxess.com","Patricia  Dabbe","Vice President","20801 Biscayne Blvd. Suite 403","407-227-9555 ","pdabbe@AmericanAxess.com","Vice President"
"DigiLink, Inc.","4676 Admiralty Way,Marina Del Rey,CA 90292","None","CA","Corporate  Filings","Agent","1717 N Street NW STE 1, Washington, DC 20036","509-768-2249 ","support@northwestregisteredagent.com","Bob  Atkins","CEO","4676 Admiralty Way, Suite 530","310-577-9450 480","bob@digilink.net","Management"
"Logista","327 Yorkville Road East,Columbus,MS 39702","None","AL, FL, GA, IL, LA, MI, MS, TN, TX","Doug  Hoff","Senior Manager","6250 Shiloh Rd, STE 110, Alpharetta, GA 30005","404-472-6241 ","doug@gsaudits.com","Randy  McDade","SVP/ CFO","327 Yorkville Road East, Columbus, MS 39702","662-244-6500 ","RMcDade@logistasolutions.com","Management"
"GloTell US Corp.","1830 S Ocean Drive,Halladale Beach,FL 33009","None","OU","Allan  Noorda","CTO","1001 N. Federal Hwy.","786-233-7476 ","a.noorda@v-tell.com","Kevin  Jordan","VP Of Wholesale","1001 N. Federal Hwy.","305-285-8394 ","k.jordan@v-tell.com","Wholesale"
"Mercury technology LLC","7010 NW 186th St,Hialeah,FL 33015","None","FL, TX, NJ, NY, CA, IL, GA","Junior Edgar Perea","CEO","7010 NW 186th St, Apt 511","305-764-6611 ","Edgar@hermescorp.co","Junior Edgar Perea","CEO","7010 NW 186th St, Apt 511","305-764-6611 ","Edgar@hermescorp.co","CEO"
"","61 St Joseph St,Mobile,AL 36609","None","AL, AK, AZ, AR, CA, CO, CT, DE, GU, FL, GA, HI, ID, IL, IN, IA, KS, KY, LA, ME, MD, MA, MI, MN, MS, MO, MT, NE, NV, NH, NJ, NM, NY, NC, ND, OH, OK, OR, AS, PA, RI, SC, SD, TN, DC, TX, UT, PR, VT, VA, WA, WV, WI, WY, VI, MP","","","","","","","","","","",""
"DSCI, LLC d/b/a TPx Communications","303 Colorado St.,Austin,TX 78701","None","CA, CO, FL, GA, MA, MD, ME, NH, NJ, NY, PA, RI","William (Bill)  Hunt","General Counsel, SVP & Secretary","10333 East Dry Creek Rd. Ste. 170, Englewood, CO 80112","303-268-5420 ","william.hunt@tpx.com","Carroll  Davis","Director - Network Operations Center","3300 N. Cimarron Rd., Las Vegas, NV 89129","702-316-6775 ","cadavis@tpx.com","Network Operations Center"
"RingSquared Telecom LLC","3001 Dallas Pkwy,Frisco,TX 75034","X5 OpCo LLC","AK, AL, AR, AZ, CA, CO, CT, DC, DE, FL, GA, HI, IA, ID, IL, IN, KS, KY, LA, MA, MD, ME, MI, MN, MO, MS, MT, NC, ND, NE, NH, NJ, NM, NV, NY, OH, OK, OR, PA, RI, SC, SD, TN, TX, UT, VA, VT, WA, WI, WY, WV","Joe  O'Hara","CFO","5445 Legacy Dr., Suite 180, Plano, TX  75024","214-932-9293 ","regulatory@magna5global.com","Joe  O'Hara","CFO","5445 Legacy Dr., Suite 180, Plano, TX  75024","214-932-9293 ","regulatory@magna5global.com","Executive"
"Truvisory Telecom LLC","1309 Coffeen Avenue STE 1200,Sheridan,WY 82801","None","WY","","","","","","","","","","",""
"Advanced Network Management Inc","4601 Columbine Ave NE,Albuquerque,NM 87113","None","NM","Matt  Dean","Director of Regulatory Compliance","12316 Hidden Forest Blvd, Oklahoma City OK 73142","405-755-8177 2103","mdean@telecompliance.net","Kyle  Petree","Director of Managed Services","4601 Columbine Ave NE, Albuquerque NM 87113","505-888-8822 ","kyle.petree@anm.com","Managed Services"
"Verizon Communication","22001 Loudoun County Parkway,Ashburn,VA 20147","Access Transmission Services, Inc.; MCI Metro Access Transmission Services, Inc.; MCImetro Access Transmission Services, Inc.; MCImetro Access Transmission Services, LLC","AL, AK, AZ, AR, CA, CO, CT, DE, GU, FL, GA, HI, ID, IL, IN, IA, KS, KY, LA, ME, MD, MA, MI, MN, MS, MO, MT, NE, NV, NH, NJ, NM, NY, NC, ND, OH, OK, OR, AS, PA, RI, SC, SD, TN, DC, TX, UT, PR, VT, VA, WA, WV, WI, WY, VI, MP","CT Corporation  CT Corporation","Registered Agent","Corporation Trust Center, 1209 Orange Street  Wilmington, Delaware 19801","855-244-9113 ","rlec.help.verizon@verizon.com","Kurt  Karlik","Principle Engineer","rlec.help.verizon@verizon.com","800-285-3776 ","rlec.help.verizon@verizon.com","RLEC Compl - Network Operations"
"Missouri Network Alliance, LLC","2005 W. Broadway,Columbia,MO 65203","Missouri Network Alliance, LLC","MO","Amanda  Forward","Senior Accountant","2005 W Broadway Bldg A Ste 215, Columbia, MO 65203","573-777-4233 ","amanda.forward@bluebirdnetwork.com","Steve  Crane","COO","2005 W Broadway, Bldg A, Ste 215, Columbia, MO 65203","816-237-2123 ","Steve.Crane@bluebirdnetwork.com","Operations"
"Cable One, Inc. dba Sparklight","210 E. Earll Drive,Phoenix,AZ 85012","None","MO, IL, AR, IN","Emerson  Yearwood","Assoc. Gen. Counsel & Dir. of Regulatory Affairs","210 E. Earll Drive","602-364-6195 ","emerson.yearwood@cableone.biz","Glenn ` Baumgarth","Lead Systems Analyst","210 E. Earll Drive, Phoenix, AZ 85012-2626","602-364-6471 ","glenn.baumgarth@cableone.biz","Telephony"
"UComTel","384 Route 59,Airmont,NY 10982","None.","CT, IL, IN, MO, NC, NE, NJ, NY, OH, TX, UT","Doug  Hoff","Senior Manager","6250 Shiloh Rd., Suite 110, Alpharetta, GA 30005","404-472-6241 ","doug@gsaudits.com","Avrom  Pancer","CEO","384 Route 59, Airmont, NY 10952","845-625-9000 ","avrom@unifiedinfosys.com","Sales"
"Reunion Communications, Inc.","106 W. Calendar Ave,LaGrange,IL 60525","None","OK, FL, IL","Judy  Riley","President","P.O. Box 720128","405-755-8177 14","jriley@telecompliance.net","Mark  Widbin","President","106 West Calendar Avenue, #190, La Grange, IL 60525","630-243-7414 14","mwidbin@reunioncommunications.com","Presdient"
"IPBTel, LLC","825 Town & Country Lane,Houston,TX 77024","None","TX","Luis  Chernovetzky","Finance Manager","10370 Richmond Av. Ste 1125, Houston, Texas 77042","525-551-4747 ","luis.cherno@ipbtel.com","Luis  Chernovetzky","Finance Manager","10370 Richmond Av. Ste 1125 Houston, Texas 77042","525-551-4747 ","luis.cherno@ipbtel.com","Finance"
"Scissortail Communications, LLC","PO Box 14522,Oklahoma City,OK 73113","none","KS, OK, TX","Jake  Tullius","President","2907 Cynthia Circle, Norman, OK  73072","405-579-1704 ","jake@usad.com","Jake  Tullius","President","2907 Cynthia Circle, Norman, OK  73072","405-579-1704 ","jake@usad.com","HQ"
"","848 Brickell Ave,Miami,FL 33131","None","CA, FL, MA, NY, TX, VA","Andres  Sanchez","COF","848 Brickell Ave  Ste 810  Miami, FL  33131","786-242-2224 ","asanchez@identidadtech.com","James  Merced","CFO","848 Brickell Ave Ste 810  Miami, FL  33131","786-242-2224 ","jmerced@identidadtech.com","Finance"
"Tri-County Communications Inc","392 Rock Church Rd,Catawissa,MO 63015","None","MO","James C Watson","Pres.","PO Box 398","636-257-2020 2","support@inc2talk.com","James C Watson","Pres.","PO Box 398","636-257-2020 2","support@inc2talk.com","Admin"
"QuantumShift Communications, Inc.","12657 Alcosta Blvd.,San Ramon,CA 94583","MVX.COM Communications","CA, AL, AK, AZ, AR, CO, CT, DE, DC, FL, GA, HI, ID, IL, IA, KS, KY, LA, ME, MD, MA, MI, MN, MS, MO, MT, NE, NV, NH, NJ, NM, NY, NC, ND, OH, OR, PA, RI, SC, SD, TN, UT, VT, WA, WV, WI, WY","Doug  Hoff","Regulatory Manager","6250 Shiloh Rd., Ste 110 Alpharetta, GA 30005","404-472-6241 ","doug@gsaudits.com","Jenna  Brown","Director, Regulatory Affairs","12657 Alcosta Blvd. Suite 418 San Ramon, CA 94583","415-867-4547 ","jbrown@vcomsolutions.com","Regulatory Affairs"
"Voxtell LLC","300 S Orange Ave,Orlando,FL 32801","None","CA, CO, FL, MA, MI, NC, NJ, NV, PA, UT, VA","Natasha  Freeman","Federal and State Licensing Manager","6250 Shiloh Rd., Ste 110|Alpharetta, GA 30005","678-829-4395 ","nfreeman@gsaudits.com","Junior  Smizmaul","Director of Operations","300 S Orange Ave, Suite 1000, Orlando, FL 32801","407-288-8142 ","jr@voxtell.com","Operations"
"Etelix.com USA, LLC","300 Aragon Avenue,Coral Gables,FL 33134","None","FL","Doug  Hoff","Regulatory Manager","6250 Shiloh Rd., Ste 110 Alpharetta, GA 30005","404-472-6241 ","doug@gsaudits.com","Marianne  Vasquez,","Regulatory Affairs Manager","300 Aragon Avenue, Suite 375, Coral Gables, FL. 33134","786-735-3700 ","mariannev@sacet.biz","Regulatory Affairs Manager"
"Central Voice & Data LLC dba Turner Tele","P.O. Box 12965,Alexandria,LA 71315","None.","LA","Doug  Hoff","Senior Manager","62550 Shiloh Rd., Suite 110, Alpharetta, GA 30005","404-472-6241 ","doug@gsaudits.com","Dwight  Godard","Manager","4203 Parliament Dr. Alexandria, LA 71303","318-442-5743 ","sales@ttalx.com","Sales"
"Wing Tel Inc","26 Broadway,New York,NY 10004","None","AL, CA, CO, DE, FL, GA, IA, IL, IN, KS, KY, LA, MA, MD, MI, MO, NC, NE, NJ, NM, NV, NY, OH, OK, OR, PA, RI, SC, TN, TX, UT, VA, WA, WI, WV","Doug  Hoff","Senior Manager","6250 Shiloh Rd, STE 110, Alpharetta, GA 30005","404-472-6241 ","doug@gsaudits.com","Jonathon  Francis","COO","55 Broadway, Bond Collective, 4th  Floor, Suite #402, New York, NY 10006","347-508-5802 ","jonathon@wingalpha.com","Management"
"Maxxtel Communications, LLC","7525 170th street,Flushing,NY 11366","Maxxtel, Maxxtel Communications, Maxxtel Communications, LLC","NY, NJ, FL","Jeffrey J Rozen","Partner","7525 170th street","718-705-8609 201","jrozen@maxxtelcommunications.com","Jeffrey  Rozen","Partner","7525 170th street","718-705-8609 201","jrozen@maxxtelcommunications.com","HQ"
"AT&T Services, Inc.","1120 20th Street, NW,Washington,DC 20036","Central and South American Telegraph Company 
All America Cables, Incorporated
All America Cables and Radio, Inc.","PR","Glenis  McKoy","Manager - Regulatory","1120 20th  St. NW, Suite 1000, Washington DC 20036","202-457-3852 ","gm909g@att.com","Donna  Dupre","Principal","28W615 Ferry Rd, Warrenville IL 60555","630-836-8300 ","NESAC_NSFG@att.com","Network Operations - NESAC"
"ATN International, Inc.","500 Cummings Center,Beverly,MA 01915","None","AK, AL, AR, AZ, CA, CO, CT, DC, FL, GA, HI, IA, ID, IL, IN, KS, KY, LA, MA, MD, ME, MI, MN, MO, MS, MT, NC, ND, DE, NE, NV, NH, NJ, NM, NY, OH, OK, OR, PA, RI, SC, SD, TN, TX, UT, VT, VA, WA, WV, WI, WY","Jennifer  Anthony","Regulatory Compliance Manager","1562 N Park St, Castle Rock Co 80109","720-381-2819 ","janthony@atni.com","Travis  York","911 Coordinator/Number Administrator","1562 N Park St, Castle Rock, CO 80109","303-660-2751 ","travis.york@geoverse.oi","Engineering"
"Connexum LLC","1122 E. Lincoln Ave.,Orange,CA 92865","None","NV, CA, WY","Chris  Hall","COO","1122 E. Lincoln Ave","714-289-4444 ","chall@connexumllc.com","Chris  Hall","COO","1122 E. Lincoln Ave","714-289-4444 ","chall@connexumllc.com","Admin"
"Touchtone Communications, Inc.","16 South Jefferson Road,Whippany,NJ 07981","None","AL, AR, AZ, CA, CO, CT, DC, DE, FL, GA, IA, ID, IL, IN, KS, KY, LA, MA, MD, ME, MI, MN, MO, MS, MT, NC, ND, NH, NJ, NM, NV, NY, OH, OK, OR, PA, RI, SC, SD, TN, TX, UT, VA, VI, VT, WA, WI, WV, WY","Daniel  Velez","Credit, Collection & Regulatory Compliance Coordin","16 South Jefferson Road, Whippany NJ 07981","973-718-2434 2434","regulatory@touchtone.net","Daniel  Velez","Regulatory","16 South Jefferson Road, Whippany NJ, 07981","973-739-9300 ","regulatory@touchtone.net","Finance"
"Worldwide Telecommunications, Inc.","4505 Las Virgenes Road,Calabasas,CA 91302","None","AL, CA, FL, IL, IA, MA, MN, MS, MT, NE, NV, NJ, NY, OH, OR, PA, TX, VA, WA","Cheryl  Lundy","Operations Manager, Director of Customer Service","4505 Las Virgenes Road, Suite 115 Calabasas, CA 91302","877-967-7746 ","cheryl@wtild.com","Cheryl  Lundy","Operations Manager, Director of Customer Service","4505 Las Virgenes Road, Suite 115 Calabasas CA 91302","877-967-7746 ","cheryl@wtild.com","Customer Service"
"Vinil Telecom Inc","8511 218th Street,Queens Village,NY 11427","None","NY","Jeff  Warman","Manager","8511 218th Street","917-846-4666 ","jeff@viniltel.com","Jeff  Warman","Manager","8511 218th Street","917-846-4666 ","jeff@viniltel.com","Operations"
"ACE PEAK INVEST PTE LLC","244 5TH AVE SUITE 1208,New york,NY 10001","none","NY, DE, DC, DF, DG, AB, OA, OH, OU, OR, WA, WI, WV, WY","MOHMADSHARIF K Tai","President","244 5TH AVE SUITE 1208 2nd floor New york, NY 10001 United States","917-722-5031 ","accounts@acepeakinvestment.com","MOHMADSHARIF K Tai","President","244 5TH AVE SUITE 1208 2nd floor New york, NY 10001 United States","917-722-5031 ","accounts@acepeakinvestment.com","Management"
"Empire Long Distance Corp","34 N Main St,Prattsburgh,NY 14873","None","NY","Thomas  Prestigiacomo","CFO","34 Main St; Prattsburgh, NY 14873","607-522-3712 ","tpresti@etcnpt.com","Bill  Doran","Director of Operations","34 Main St; Prattsburgh, NY 14873","607-522-4218 ","bdoran@etcnpt.com","Operations"
"Integrated Path Communications","9030 State Route 22,Hillsdale,NY 12529","None","VT, NY, FL, TX, CA, WI, OR, IA, KY","Harold  Barr","President","9030 State Route 22 Suite 3 Hillsdale, NY 12529","516-708-0111 ","hb@ipcclec.com","Brian E Shepard","President","9030 State Route 22 Suite 3 Hillsdale, NY 12529","518-325-1396 5","bshepard@ipc-llc.com","Operations"
"TNS Transline, LLC","10740 Parkridge Blvd.,Reston,VA 20191","None","AL, AK, AZ, AR, CA, CO, CT, DE, GU, FL, GA, HI, ID, IL, IN, IA, KS, KY, LA, ME, MD, MA, MI, MN, MS, MO, MT, NE, NV, NH, NJ, NM, NY, NC, ND, OH, OK, OR, AS, PA, RI, SC, SD, TN, DC, TX, UT, PR, VT, VA, WA, WV, WI, WY, VI, MP","Earl  Espejo","Senior Tax Manager","10740 Parkridge Blvd. Suite 100 Reston, VA 20191","703-453-8430 ","eespejo@tnsi.com","Michael R. McCarthy","SVP, Assistant General Counsel","10740 Parkridge Blvd. Suite 100 Reston, VA 20191","703-453-8314 ","mmccarthy@tnsi.com","Legal"
"CCI Network Services, LLC","155 North 400 West Suite 100,Salt Lake City,UT 84103","CCI Network Services, LLC","AK, AL, AR, AZ, CA, CO, CT, DC, DE, FL, GA, HI, IA, ID, IL, IN, KS, KY, LA, MD, MA, ME, MI, MN, MO, MS, MT, NC, ND, NE, NH, NJ, NM, NV, NY, OH, OK, OR, PA, RI, SC, SD, TN, TX, UT, VA, VT, WA, WI, WY, WV","Ryan  Beattie","Regulatory Analyst","155 N 400 W Suite 100","801-994-4100 ","taxadmin@ccicom.com","Nathan  Harward","IT Manager","155 N 400 W Suite 100","801-994-4100 ","noc@ccicom.com","IT"
"Xicomm LLC","580 California St.,San Francisco,CA 94104","None","AK, AL, AR, AZ, CA, CO, CT, DC, DE, FL, GA, HI, ID, IA, IL, IN, KS, KY, LA, MA, MD, ME, MI, MN, MO, MS, MT, NC, ND, NE, NH, NJ, NM, NV, NY, OH, OK, OR, PA, RI, SC, SD, TN, TX, UT, VA, VT, WA, WI, WV, WY","Seyedmohammad  Kamrava","CEO","555 California St STE 4925 San Francisco CA 94104","415-839-1027 ","reza@xicomm.com","Seyedmohammad  Kamrava","CEO","555 California St STE 4925 San Francisco CA 94104","415-839-1027 ","reza@xicomm.com","CEO"
"T-Mobile USA, Inc.","12920 SE 38th Street,Bellevue,WA 98006","None","AK, AL, AZ, AR, CA, CO, CT, DC, DE, FL, GA, HI, IA, ID, IL, IN, KS, KY, LA, MA, MD, ME, MI, MN, MO, MS, MT, NC, ND, NE, NH, NJ, NM, NV, NY, OH, OK, OR, PA, PR, RI, SC, SD, TN, TX, UT, VA, VT, WA, WI, WV, WY","The  Corporation Service Company","Agent for service of process","1090 Vermont Avenue NW, Washington, D.C. 20005","866-403-5272 ","SOP@cscglobal.com","William  Rowe","Manager","7668 Warren Parkway Frisco, TX 75034","425-302-4709 ","william.rowe@t-mobile.com","Engineering Customer Support"
"","22001 Loudoun County Parkway,Ashburn,VA 20147","MCI Communications Services, Inc","AL, AK, AZ, AR, CA, CO, CT, DE, GU, FL, GA, HI, ID, IL, IN, IA, KS, KY, LA, ME, MD, MA, MI, MN, MS, MO, MT, NE, NV, NH, NJ, NM, NY, NC, ND, OH, OK, OR, AS, PA, RI, SC, SD, TN, DC, TX, UT, PR, VT, VA, WA, WV, WI, WY, VI, MP","CT Corporation  CT Corporation","CT Corporation","Corporation Trust Center, 1209 Orange St, Wilmington, DE 19801","855-244-9113 ","rlec.help.verizon@verizon.com","Kurt  Karlik","Principle Engineer","rlec.help.verizon@verizon.com","800-285-3776 ","rlec.help.verizon@verizon.com","RLE Call Completion - Network Operations"
"382 Communications","45 Dan Road,Canton,MA 02021","None","AA, AE, AK, AL, AP, AR, AS, AZ, CA, CO, CT, DC, DE, FL, FM, GA, SO, GU, HI, IA, ID, IL, IN, KS, KY, LA, MA, MD, ME, MH, MI, MN, MO, MP, MS, MT, NC, ND, NE, NH, NJ, NM, NV, NY, OH, OK, OR, OU, PA, PR, RI, SC, SD, TN, TX, UT, VA, VI, VT, WA, WI, WV, WY","John  Skinner","Chief Financial Officer","45 Dan Road, Suite 130, Canton, MA 02021","617-307-9132 ","legal@382com.com","John  Skinner","Chief Financial Officer","45 Dan Road, Suite 130, Canton, MA 02021","617-307-9132 ","legal@382com.com","Rural Call Completion Department"
"Tata Communications (America) Inc.","2355 Dulles Corner Blvd.,,Herndon,VA 20171","Teleglobe America Inc.","AL, AZ, AR, CA, CO, CT, DE, DC, FL, GA, GU, HI, IL, IN, IA, KS, KY, MD, MA, MI, MN, MS, MT, NE, NH, NJ, NM, NY, NC, OH, OK, OR, PA, RI, SC, TN, TX, UT, VA, WA, WV, WI","Diana  Peneva","Senior Manager","2355 Dulles Corner Boulevard, Suite 700","703-657-8414 ","diana.peneva@tatacommunications.com","Vipul  Kumar","Manager","Pune-Alandi Road, Dighi, Pune-411015, India","514-868-7304 ","FMEscalations@tatacommunications.com","Global Technology, Network & Operations"
"Big River Telephone","24 S. Minnesota Ave,Cape Girardeau,MO 63703","none","MO, IL, KY, CO, KS, TX","John  Jennings","CFO","24 S Minnesota Ave, Cape Girardeau, MO 63703","855-244-7483 ","jjennings@bigrivercom.com","Kevin  Keaveny","CTO","24 S Minnesota Ave, Cape Girardeau, MO 63703","855-244-7483 ","kkeaveny@bigrivercom.com","Planning"
"","455 E Pebble Rd,Las Vegas,NV 89123","None","AL, AK, AZ, AR, CA, CO, CT, DE, GU, FL, GA, HI, ID, IL, IN, IA, KS, KY, LA, ME, MD, MA, MI, MN, MS, MO, MT, NE, NV, NH, NJ, NM, NY, NC, ND, OH, OK, OR, AS, PA, RI, SC, SD, TN, DC, TX, UT, PR, VT, VA, WA, WV, WI, WY, VI, MP","","","","","","","","","","",""
"NT telecom","104 Parkville Ave.,Brooklyn,NY 11230","None","AL, AK, AZ, AR, CA, CO, CT, DE, GU, FL, GA, HI, ID, IL, IN, IA, KS, KY, LA, ME, MD, MA, MI, MN, MS, MO, MT, NE, NV, NH, NJ, NM, NY, NC, ND, OH, OK, OR, AS, PA, RI, SC, SD, TN, DC, TX, UT, PR, VT, VA, WA, WV, WI, WY, VI, MP","Nathaniel  Turbiner","CEO","104 Parkville Ave. Brooklyn NY 11230","347-826-1869 ","Nathan@nttelecommunications.com","Nathaniel  Turbiner","CEO","104 Parkville Ave. Brooklyn NY 11230","347-826-1869 ","Nathan@nttelecommunications.com","Executive"
"NTS Solutions Inc. dba NewTel Systems","123 Doughty Blvd,Inwood,NY 11096","none","AK, AL, AR, AZ, CA, CO, CT, DC, DE, FL, GA, GU, HI, IA, ID, IL, IN, KS, KY, LA, MA, MD, ME, MI, MN, MO, MS, MT, NC, ND, NE, NH, NJ, NV, NM, NY, OH, OK, OR, PA, PR, RI, OU, SC, SD, TN, TX, UT, VA, VT, VI, WA, WI, WV, WY","Aryeh  Freund","CEO","123 Doughty Blvd","212-681-0000 ","compliance@newtelsystems.com","Aryeh  Freund","CEO","123 Doughty Blvd","212-681-0000 ","compliance@newtelsystems.com","CEO"
"Consolidated Communications Enterprise S","350 South Loop 336 West,Conroe,TX 77304","Consolidated Communications Network Services, Inc., FairPoint Carrier Services, Inc., FairPoint Communications Solutions  Corp., FairPoint Communications Corp.","AK, AL, AR, AZ, CA, CO, CT, DE, DC, FL, GA, HI, ID, IL, IN, IA, KS, KY, LA, ME, MD, MA, MI, MN, MO, NE, NV, NH, NJ, NM, NY, NC, ND, MS, OH, OK, OR, MT, PA, RI, SC, SD, TN, TX, UT, VT, VA, WA, WV, WY, OU","Ann  Morrison","Director- Regulatory","5 Davis Farm Road, Portland ME 04103","207-535-4178 ","ann.morrison@consolidated.com","Wayne  Lechlider","Director","875 Holt Avenue,  Manchester NH 03109","866-972-8220 ","ruralcalls@consolidated.com","NOC Engineering"
"Selectel, Inc.","1825 N. Bell Street,Fremont,NE 68025","NONE","AK, AL, AR, AZ, CA, CO, CT, DC, DE, FL, GA, HI, IA, ID, IL, IN, KS, KY, LA, MA, ME, MI, MN, MO, MS, MT, NC, ND, NE, NH, NJ, NM, NV, NY, OH, OK, OR, PA, RI, SC, SD, TN, TX, UT, VA, VT, WA, WI, WV, WY","Matt  O'Flaherty","President","1825 N Bell Street, Fremont NE  68025","402-727-1399 ","oflaherty.matt@gmail.com","Matt  O'Flaherty","President","1825 N Bell Street, Fremont NE 68025","402-727-1399 ","oflaherty.matt@gmail.com","none"
"Crexendo Business Solutions, Inc.","1615 S. 52nd Street,Tempe,AZ 85281","NONE","AK, AL, AR, AZ, CO, CA, CT, DC, DE, FL, GA, HI, IA, ID, IL, IN, KS, KY, LA, MA, MD, ME, MI, MN, MO, MS, MT, NC, ND, NE, NH, NJ, NM, NV, NY, OH, OK, OR, PA, PR, RI, SC, SD, TN, TX, VA, UT, VT, WA, WI, WV, WY","Jeff  Korn","Secretary","1615 S. 52nd Street, Tempe AZ  85281","602-714-8500 ","jkorn@crexendo.com","Jeff  Korn","Secretary","1615 S. 52nd Street, Tempe AZ  85281","602-714-8500 ","jkorn@crexendo.com","None"
"Marcatel Telecommunications, LLC","10190 Katy Freeway,Houston,TX 77043","None","AK, AL, AR, AZ, CA, CO, CT, DC, DE, FL, GA, HI, IA, ID, IL, IN, KS, KY, LA, MA, MD, ME, MI, MN, MO, MS, MT, NC, ND, NE, NH, NJ, NM, NV, NY, OH, OK, OR, PA, RI, SC, SD, TN, TX, UT, VA, VT, WA, WI, WV, WY","Robert  Koppel","Regulatory Counsel","8300  Greensboro Drive, Suite 1200","703-584-8669 ","bkoppel@fcclaw.com","Robert  Koppel","Regulatory Counsel","8300 Greensboro Drive, Suite 1200","703-584-8669 ","bkoppel@fcclaw.com","Regulatory"
"Lumen Technologies, Inc.","100 CenturyLink Dr. Mailstop: 3TCW088.2,Monroe,LA 71203","None","AK, AL, AR, AZ, CA, CO, CT, DC, DE, FL, GA, GU, HI, IA, ID, IL, IN, KS, KY, LA, MA, MD, ME, MI, MN, MO, MS, MT, NC, ND, NH, NE, NJ, NM, NV, NY, OH, OK, OR, PA, PR, RI, SC, SD, TN, TX, UT, VA, VI, VT, WA, WI, WV, WY, AS, FM, MH, MP","Joseph  Cavender","Associate General Counsel","1220 L ST NW , DCL001 , WASHINGTON DC 20005-4018","571-730-6533 ","joseph.cavender@centurylink.com","Philip  Linse","Director, Public Policy","700 W. Mineral Ave., CO 80120","303-707-3844 ","Philip.Linse@lumen.com","PUBLIC POLICY & COMPLIANCE"
"Lantana Communication Corporation","1700 Tech Centre Parkway, Suite 100,Arlington,TX 76014","None.","MS, TX","Doug  Hoff","Senior Manager","6250 Shiloh Rd.  Suite 110, Alpharetta, GA 30005","817-606-3300 ","doug@gsaudits.com","James  Britton","Executive Vice President","1700 Tech Centre Pkwy, Suite 100, Arlington, TX 76014","817-606-3300 ","ap@lantanacom.com","Sales"
"Windstream Services II, LLC","4001 N Rodney Parham Rd,Little Rock,AR 72212","McLeodUSA, LLC","AL, AR, AZ, CA, CT, DE, FL, GA, IA, ID, IL, IN, KS, KY, LA, MA, MD, ME, MI, MN, MO, MS, MT, NC, ND, NE, NH, NJ, NM, NV, NY, OH, OK, OR, PA, RI, SC, SD, TN, TX, UT, VA, VT, WA, WI, WV, WY","Edward John Cadieux","Counsel II","4001 N. Rodney Parham Rd., MS: 1170-B1F03-53A Little Rock, AR 72112","314-249-0216 ","Edward.Cadieux@windstream.com","Dewey  Detmers","Director - Voice Service","4001 N. Rodney Parham Rd., Little Rock, AR 72112","585-869-7922 ","dewey.detmers@windstream.com","Carrier Relations/Voice Management"
"XO Communications Services, LLC","22001 Loudoun County Parkway,Ashburn,VA 20147","XO Communications, Inc","AL, AK, AZ, AR, CA, CO, CT, DE, GU, FL, GA, HI, ID, IL, IN, IA, KS, KY, LA, ME, MD, MA, MI, MN, MS, MO, MT, NE, NV, NH, NJ, NM, NY, NC, ND, OH, OK, OR, AS, PA, RI, SC, SD, TN, DC, TX, UT, PR, VT, VA, WA, WV, WI, WY, VI, MP","CT Corporation  CT Corporation","CT Corporation","Corporation Trust Center, 1209 Orange St, Wilmington, DE 19801","855-244-9113 ","rlec.help.verizon@verizon.com","Kurt  Karlik","Principle Engineer","rlec.help.verizon@verizon.com","800-285-3776 ","rlec.help.verizon@verizon.com","RLEC Call Completion - Network Operatio"
"Velocity, A Managed Services Company, In","7130 Spring Meadows Dr W,Holland,OH 43528","NONE","AK, AL, AR, AZ, CA, CO, CT, DC, DE, FL, GA, HI, IA, ID, IL, IN, KS, KY, LA, MA, MD, ME, MI, MN, MO, MS, MT, NC, ND, NE, NH, NJ, NM, NV, NY, OH, OK, OR, PA, PR, RI, SC, SD, TN, TX, UT, VA, VT, WA, WI, WV, WY, VI","William  Werner","Secretary","7130 Spring Meadows Drive W","419-868-9983 ","compliance@velocity.org","William  Werner","Secretary","7130 Spring Meadows Drive W, Holland OH 43528","419-868-9983 ","compliance@velocity.org","none"
"Affinity Network, Inc.","250 Pilot Rd,Las Vegas,NV 89119","none","AL, AR, AZ, AK, CA, CO, CT, DC, DE, FL, GA, IA, ID, IL, IN, KS, KY, LA, MA, ME, MD, MI, MN, MO, MS, MT, NC, ND, NE, NH, NJ, NM, NV, NY, OH, OK, OR, PA, RI, SC, SD, TN, TX, UT, VA, VT, WA, WI, WV, WY, AA, AP, AS, AE, GU, HI, VI, PR, MP, MH, FM","Diane  Michelin","Director of Legal Compliance","250 Pilot Road, Suite 300","702-547-8480 ","dmichelin@aninetworks.com","Diane  Michelin","Director of Legal Compliance","250 Pilot Road, Suite 300","702-547-8480 ","dmichelin@aninetworks.com","Legal"
"ULTATEL, LLC","13873 Park Center Rd Suite 450,Herndon,VA 20171","None","FL, VA, DC, MD, PA","Beth  Brandenstein","Regulatory Agent","5520 cherokee Ave, Suite 210","678-203-0276 ","beth@gsaudits.com","Amr  Ibrahim","CEO","5520 Cherokee Ave","703-891-5777 ","amr@ultatel.com","Execuitves"
"Jet Wave Corp.","535 Kent Ave., Suite #300,Brooklyn,NY 11211","none","NY","Isaac  Klein","Vice President","535 Kent Ave, Ste #300, Brooklyn, NY 11249","718-599-6600 ","IKlein@jetwaveservices.com","Isaac  Klein","Vice President","535 Kent Ave, Ste #300, Brooklyn, NY 11249","718-599-6600 ","Support11@jetwaveservices.com","Telecom"
"Teleinx, LLC","1540 S W 8th Street #1002,Boynton Beach,FL 33426","None","FL","Dmitriy  Asetov","President","4537 Caloosa Pines Road, Boynton Beach, Florida 33436","773-800-0820 ","asetov@yahoo.com","Dmitriy  Asetov","President","4537 Caloosa Pines Road, Boynton Beach, Florida 33436","773-800-0820 ","asetov@yahoo.com","Management"
"Public Communications Services, Inc.","3120 Fairview Park Drive,Falls Church,VA 22042","NONE","AL, AZ, CA, CO, FL, GA, IA, ID, IN, IL, KS, LA, MI, MT, NE, NV, NH, NJ, NM, NY, NC, OH, OK, OR, PA, SC, TN, TX, UT, VA, VT, WA, WI, WY","Steve  Montanaro","Vice President","3120  Fairview Park Drive, Suite 300, Falls Church, VA 22042","813-380-1513 ","steve.montanaro@gtl.net","Steve  Montanaro","Vice President","3120  Fairview Park Drive, Suite 300, Falls Church, VA  22042","813-380-1513 ","steve.montanaro@gtl.net","None"
"iVoipe Inc","20 Gabriele ct,Staten Island,NY 10312","none","NY","","","","","","","","","","",""
"ComputerTel, Inc.","123 Nye Lane, Suite 129,Carson City,NV 89706","None","OU","Priscilla  Feliciano","Compliance and reporting Specialist","151 Southhall Lane, Suite 450","407-659-8757 ","pfeliciano@inteserra.com","Xavier  Perezcano","CFO","11503 Jones Maltsberger Suite 1152, San Antonio, TX 75216","210-889-5243 ","xavier.perezcano@directo.com","Finance"
"Orange Business Services","13865 Sunrise Valley Drive,Herndon,VA 20171","none","AL, AK, AS, AZ, AR, CA, CO, CT, DE, DC, FL, GA, HI, ID, IL, IN, IA, KS, KY, LA, ME, MD, MA, MI, MN, MS, MO, MT, NE, NV, NH, NJ, NM, NY, NC, ND, MP, OH, OK, OR, PA, PR, RI, SC, SD, TN, TX, UT, VI, VT, VA, WA, WV, WI, WY","Daniel  Arias","Regulatory Counsel","13775 McLearen Road, Oak Hill, VA 20171","703-471-2532 ","daniel.arias@orange.com","Fred  Hendricks","Regional Chief Security Officer","13775 McLearen Road, Oak Hill, VA 20171","703-471-2578 ","fred.hendricks@orange.com","Infrastructure (OINIS)"
"US South Communications, Inc. d/b/a US S","Suite M100,Atlanta,GA 30303","None","CA, CT, IN, KY, MI, MT, NE, ND, OU, SC, SD, WI, WV, WY","Mike  Gruenhut","EVP, General Counsel","250 Williams Street, Suite M-100 Atlanta, GA 30303","770-240-6145 ","mgruenhut@incomm.com","Mike  Gruenhut","EVP, General Counsel","250 Williams Street, Suite M-100 Atlanta, GA 30303","770-240-6145 ","mgruenhut@incomm.com","Legal"
"","11717 Exploration  Lane,Germantown,MD 20876","None","AL, AK, AR, CA, CO, CT, DC, DE, FL, AZ, GA, HI, IA, ID, IL, IN, KS, KY, LA, MA, MD, ME, MI, MN, MO, MS, MT, NC, ND, NE, NH, NM, NV, NY, NJ, OH, OK, OR, PA, PR, RI, SC, TN, TX, SD, UT, VA, VI, WA, WI, WV, WY","Phil  Obrien","Compliance/Regulatory Reporting Contact","11717 Exploration Lane Germantown, Maryland 20876-2700","301-212-2002 ","Phil.Obrien@hughes.com","Milton  Von Minden III","VP Tax","11717 Exploration Lane Germantown, Maryland 20876-2700","301-212-2002 ","Phil.Obrien@hughes.com","Tax"
"Integrity Networks, LLC","901 Tower Dr.,Troy,MI 48098","None.","CA, CO, FL, GA, IL, KY, MD, MI, MO, NY, OH, TX, NV, NM, NH","Doug  Hoff","Senior Manager","6250 Shiloh Rd.  Suite 110, Alpharetta, GA 30005","404-472-6241 ","doug@gsaudits.com","Stacey  Talley","Accountant","901 Tower Dr, #305, Troy, MI  48098","888-858-9919 284","Stacey.Talley@AccountingDepartment.com","Accounting Department"
"SipConnex","30 N Gould Street,Sheridan,WY 82801","None","WY, AA, AK, AE, AL, AP, AR, AS, AZ, CA, CO, CT, DC, DE, FL, FM, GA, SO, GU, HI, IA, ID, IL, IN, KS, KY, LA, MA, MD, ME, MH, MI, MN, MO, MP, MS, MT, NC, ND, NE, NH, NJ, NM, NV, NY, OH, OK, OR, OU, PA, PR, RI, SC, SD, TN, TX, UT, VA, VI, VT, WA, WI, WV","Paul  Tauger","Legal Compliance","30 N Gould Street","307-248-7700 ","admin@sipconnex.com","Ronald  Sims","Manager","30 N Gould Street","307-248-7700 ","admin@sipconnex.com","NOC"
"Redeem Technology","14000 Dix Toledo Rd,Southgate,MI 48195","None","MI","Registered Agents  Inc.","Registered Agent","2222 W. Grand River Ave, STE A, Okemos, MI 48864","248-247-2033 ","agent@michiganregisteredagent.com","David  Starkweather","Principal","14000 Dix Toledo Rd #1864, Southgate, MI 48195","734-325-4335 ","dstarkweather@redeemtech.com","Executive"
"Worldwide Marketing Solutions, Inc.","12194 SW 25th CT,Miramar,FL 33025","None","AZ, AR, CA, CO, CT, DE, FL, GA, IL, KY, MD, MN, NV, NJ, NM, NY, NC, PR, TN, TX, VA","Doug  Hoff","Senior Manager","6250 Shiloh Red, STE 110, Alpharetta, GA 30005","404-472-6241 ","doug@gsaudits.com","Arturo  Ayala","President","1100 NW 163RD DR, MIAMI FL 33169","305-777-8030 ","FINANCETEAM@WWMSOLUTIONS.COM","Management"
"Telekomunikasi Indonesia International (","Suite 905, 9/F, Ocean Centre, 5 Canton Road Tsim Sha Tsui, Kowloon, Kowloon, Hong Kong ","na","OU","","","","","","","","","","",""
"ClearlyCore Inc.","30 Via Renzo Dr., Richmond Hill, Canada ON","none","AL, AK, AZ, AR, CA, CO, CT, DE, GU, FL, GA, HI, ID, IL, IN, IA, KS, KY, LA, ME, MD, MA, MI, MN, MS, MO, MT, NE, NV, NH, NJ, NM, NY, NC, ND, OH, OK, OR, AS, PA, RI, SC, SD, TN, DC, TX, UT, PR, VT, VA, WA, WV, WI, WY, VI, MP","James Hendrik Van Meggelen","CTO","30 Via Renzo Dr, Richmond Hill, L4S 0B8, CANADA","416-639-6001 ","jim.vanmeggelen@clearlycore.com","James Hendrik Van Meggelen","CTO","30 Via Renzo Dr., Richmond Hill, L4S0B8, ON, Canada","416-639-6001 ","jim.vanmeggelen@clearlycore.com","CTO"
"Last Mile Corp.","2909 West State Road 434,Longwood,FL 32779","None","FL","Mike  Murray","President","2909 West State Road 434, Suite 101, Longwood, FL 32779","609-532-6793 ","mmurray@LastMileCorp.com","Mike  Murray","President","2909 West State Road 434, Suite 101, Longwood, FL 32779","609-532-6793 ","mmurray@LastMileCorp.com","Rural Call Completion Contact"
"Express Teleservice Corp.","78 SW 7th Street,Miami,FL 33130","None","OU","Valeriya  Zakharova","Legal Counsel","8 SW 7th Street, Suite 500, Miami, FL 33130, USA","781-898-2029 ","contact@lancktele.com","Aleksey  Karpin","Analyst","78 SW 7th Street, Suite 500, Miami, FL 33130, USA","781-898-2029 ","ncc@lancktele.com","Analytical"
"G4Telecom, Inc.","1621 Central Avenue,Cheyenne,WY 82001","None","WY","Joe  Putegnat","CEO","2685 Del Mar Heights Rd #412   Del Mar, CA  92014","619-417-3300 ","joe@g4tel.com","Joe  Putegnat","CEO","2658 Del Mar Heights Rd #412  Del Mar, CA 92014","619-417-3300 ","joe@g4tel.com","Executive office"
"Momentum - Atlanta","1 Concourse Parkway, NE,Atlanta,GA 30328","None","AK, AR, AL, AZ, CA, CO, CT, DC, DE, FL, GA, HI, IA, ID, IL, IN, KS, KY, LA, MA, MD, ME, MI, MN, MO, MS, MT, NC, ND, NE, NH, NJ, NM, NV, NY, OH, OK, OR, PA, RI, SC, SD, TN, TX, UT, VA, VT, WA, WI, WV, WY","Kelly  Windham","VP of Regulatory","880 Montclair Road Suite 400 Birmingham, Al 35213","205-978-4431 ","kwindham@momentumtelecom.com","Kelly  Windham","VP of Regulatory","880 Montclair Road Ste 400 Birmingham, AL 35213","205-978-4431 ","kwindham@momentumtelecom.com","Regulatory"
"Barter Communications LLC","4212 E Los Angeles Ave,Simi Valley,CA 93063","'None'","CA","Washington DC  Registered Agent LLC","DC Agent","1717 N Street NW STE 1 Washington DC 20036","202-403-0599 ","agent@washingtondcregisteredagent.com","David  Kluger","Manager","4212 E Los Angeles Ave 3792 Simi Valley CA 93063","747-252-7200 ","admin@bartercommunications.com","Sales"
"BlackWire Consulting Group LP","444 Brickell Ave.,Miami,FL 33131","NONE","NY, CT, FL, ME","Craig David Dingwall","Managing Member","1030 15th Street, NW, Suite B1-#157, Washington, DC 20005","703-862-3353 ","cddingwall@outlook.com","Michael  Bongart","CFO","444 Brickell Avenue, Suite 51-338,  Miami FL  33131","305-744-5075 ","mbongart@blackwireconsulting.com","Operations"
"Phonetime Inc.","1250 E. Hallandale Beach Blvd,Hallandale Beach,FL 33009","None","FL","Miguel  Vazquez","President","1250 East Hallandale Beach Blvd., Suite PH-1, Hallandale Beach, FL 33009","954-624-8453 ","mike@phonetimeus.com","Miguel  Vazquez","President","1250 East Hallandale Beach Blvd., Suite PH-1, Hallandale Beach, FL 33009","954-624-8453 ","mike@phonetimeus.com","Admin"
"Coyote Telecom, LLC","PO Box 8108,Missoula,MT 59807","None","MT, AA, AE, AK, AL, AP, DC, CT, DE, FM, FL, GA, SO, GU, CO, IA, ID, IL, KS, KY, LA, HI, MA, MH, ME, MI, MD, MO, MP, MS, NC, MN, ND, NH, NJ, NE, NM, NV, NY, OH, IN, OK, OU, PA, OR, SC, RI, PR, TX, TN, VA, UT, VI, VT, SD, WA, WI, CA, AZ, WY, AS, WV, AR","Carol  Lisowski","Owner","936 San Carlos Creek Lane Henderson, NV 89002","702-497-8730 ","chlsolutions@msn.com","David  Welsh","CEO","3831 Petty Creek Rd","908-343-7214 ","welshd@coyotetelecom.com","Operations"
"Max Ashurst","1209 Orange Street, Wilmington, United States DE","None","DE, FL, TX, VA","Maxwell  Ashurst","CEO","1225 Blv Robert Bourassa, #2601, Montreal, Quebec H3B9A9","514-519-0313 ","legal@mashconnect.com","Maxwell  Ashurst","CEO","1225 Blv Robert Bourassa, #2601, Montreal, Quebec H3B9A9","514-519-0313 ","legal@mashconnect.com","Operations"
"Intrado Communications, LLC","1601 Dry Creek Drive,Longmont,CO 80503","West, West Telecom Services, WTS, HyperCube, HyperCube Telecom, LLC., H3, H3T, and KMC Data.","AL, AZ, AR, CA, CO, CT, DC, DE, FL, GA, IA, ID, IL, IN, KS, KY, LA, MA, MD, ME, MI, MN, MO, MT, MS, NC, ND, NE, NH, NJ, NM, NV, NY, OH, OK, OR, PA, RI, SC, SD, TN, TX, UT, VA, VT, WA, WI, WV, WY","Claude  Harrington","Vice President & General Manager","3200 W. Pleasant Run Rd., Suite 300, Lancaster, TX 75146-1086","317-876-1000 ","charrington@mail.intrado.com","Claude  Harrington","Vice President & General Manager","3200 W. Pleasant Run Rd., Suite 300, Lancaster, TX 75146-1086","317-876-1000 ","charrington@mail.intrado.com","Regulatory and Government Affairs"
"Crown Castle Fiber","2000 Corporate Drive,Canonsburg,PA 15317","None.","AL, AZ, AR, CA, CO, CT, DE, DC, FL, GA, HI, ID, IL, IN, IA, KS, KY, LA, ME, MD, MA, MI, MN, MS, MO, MT, NE, NV, NH, NJ, NM, NY, NC, ND, OH, OK, OR, PA, PR, RI, SC, SD, TN, TX, UT, VT, VA, WA, WV, WI, WY","Rebecca  Hussey","Associate General Counsel","2 Easton Oval, Suite 425, Columbus, Ohio 43219","585-568-8469 ","PUC.Correspondence@crowncastle.com","Ravindra  Harcharan","Dir Program Mgmt - Ntwk","2000 Corporate Drive, Canonsburg, PA 15317","855-933-4237 ","FiberSupport@crowncastle.com","Customer Operations"
"Access Tandem, Inc","1810 E. Sahara Ave,Las Vegas,NV 89104","None","AK, AL, AR, AZ, CA, CO, CT, DC, DE, FL, GA, HI, IA, ID, IL, IN, KS, KY, LA, MA, MD, ME, MI, MN, MO, MS, MT, NC, ND, NE, NH, NJ, NM, NV, NY, OH, OK, OR, PA, RI, SC, SD, TN, TX, UT, VA, VT, WA, WI, WV, WY, OU, PR, VI, GU","Kristopher E. Twomey","Registered D.C. Agent","1725 I Street, NW Suite 300 Washington, DC  20006","202-681-1850 ","kris@lokt.net","Jack  Kaplan","RCC Compliance Officer","1810 E. Sahara Ave Suite 430, Las Vegas, NV 89104","702-605-2400 ","admin@accesstandem.com","RCC Compliance"
"200 Networks LLC","10580 N McCarran Blvd 115-302,Reno,NV 89503","None","IL, OH","Nevada Registered Agent LLC  Nevada Registered Agent LLC","Designated Agent","401 Ryland St STE 200A, Reno, NV 89502","775-401-6800 ","agent@nevadaresidentagent.com","Carol  Lisowski","Regulatory consultant","10580 N McCarran Blvd 115-302, Reno, NV 89503","702-497-8730 ","CHLSolutions@msn.com","Compliance"
"Teo Communication Services, Inc.","4640 Campus Place,Mukilteo,WA 98275","Teo Communication Services Inc","AZ, CA, DC, FL, WA, OR, OH, NJ, TX, NE","Eugene  Dodson","GM/Director of Finance","11609 49th Place West, Mukilteo WA 98275","425-349-1050 ","gene.dodson@teotech.com","Eugene  Dodson","GM/Director of Finance","11609 49th Place West, Mukilteo, WA 98275","425-349-1050 ","gene.dodson@teotech.com","Executive"
"Broadband Voice LLC","1510 N State Street,Jackson,MS 39202","None","AK, AL, AR, AZ, CA, CO, CT, DE, DC, FL, GA, IA, IL, IN, ID, KS, KY, LA, MA, MD, ME, MI, MN, MO, MS, MT, NC, ND, NY, NJ, NM, NE, OH, OK, OR, PA, RI, SC, SD, TN, TX, UT, VA, VT, WI, WA, WV, WY, NH, NV","Gary  Watts","CEO","175 E. Capitol Str., Suite 175, Jackson, MS 39215","601-910-6220 ","gary@voice.ms","Christopher  Goolsby","Director of Finance","175 E. Capitol Street, Suite 175, Jackson, MS  39215","601-926-6000 ","christopher@fuse.cloud","Executive"
"Covoda Communications, Inc.","1005 West Indiantown Road,Jupiter,FL 33458","Toly digital Networks, Inc.","AL, AR, AZ, CA, CO, CT, DC, DE, FL, GA, HI, IA, IL, ID, IN, KS, KY, LA, MA, MD, ME, MI, MN, MO, MS, MT, NC, ND, NE, NH, NJ, NM, NV, NY, OH, OK, OR, PA, RI, SC, SD, TN, TX, UT, VA, WA, WI, WY","Doug  Hoff","Senior Manager","6250 Shiloh Rd.  Suite 110, Alpharetta, GA 30005","404-472-6241 ","doug@gsaudits.com","Mark  Suto","Vice President","6250 Shiloh Rd.  Suite 110, Alpharetta, GA 30005","877-699-6345 ","info@covoda.com","Sales Department"
"Red Telecom, LLC","12320 SW 97th St,Miami,FL 33186","None","AA, AK, VI, AE, AL, AP, AR, AS, AZ, CA, CO, CT, DC, DE, FL, FM, GA, SO, GU, HI, IA, ID, IL, IN, KS, KY, LA, MA, MD, ME, MH, MI, MN, MO, MP, MS, MT, NC, ND, NE, NH, NJ, NM, NV, NY, OH, OK, OR, OU, PA, PR, RI, SC, SD, TN, TX, UT, VA, VT, WA, WI, WV, WY","Registered  Agents Inc","Registered Agent","1717 N Street NW, STE1 Washington DC, 20036","202-403-0599 ","agent@washingtondcregisteredagent.com","Juan  Vasquez","CEO","665 Motts Cove Rd N, Roslslyn Harbor NY 11576","954-609-7829 ","jvasquez@telecomred.com","CEO"
"Amerimex Solutions, Inc.","200 Mansell Ct. E,,Roswell,GA 30076","None","GA","Don  Aldridge","CEO","200 Mansell Ct E, Suite 350, Roswell GA 30076","800-801-9080 ","don@amerimex.com","Don  Aldridge","CEO","200 Mansell Ct E., Suite 350, Roswell GA 30076","800-801-9080 ","don@amerimex.com","non"
"PEG Bandwidth DC, LLC","10802 Executive Center Drive,Little Rock,AR 72211","NONE","DC","Jeffrey  Strenkowski","VP, Deputy General Counsel of Governmental Affairs","10802 Executive Center Drive, Suite 300, Little Rock, AR 72211","501-458-4397 ","jeffrey.strenkowski@uniti.com","Eric  Daniels","SVP, Operations","107 St Francis Street, Suite 1800, Mobile, AL 36602","251-662-1513 ","eric.daniels@uniti.com","Operations"
"BCM One, Inc","295 Madison Avenue, FL 5,New York,NY 10017","None.","AL, CA, CT, DC, FL, FM, GA, HI, IA, IL, IN, MA, MD, MN, NC, NH, NJ, NY, PA, SC, TX, UT, VA, WA, WI","Doug  Hoff","Senior Manager","6250 Shiloh Rd.  Suite 110 Alpharetta, GA 30005","404-472-6241 ","doug@gsaudits.com","Chris  Arena","President","1430 Broadway, Suite 705 New York, NY 10018","212-231-9600 ","chris@arena1.com","Administrative"
"CIMA Telecom, Inc.","1728 SW 22nd Street,Miami,FL 33145","None","GA","Doug  Hoff","Senior Manager","1595 Peachtree Parkway, Suite 204-337, Cumming, Georgia, 30041","404-472-6241 ","doug@gsaudits.com","Juan  Gomez","CFO","1728 S.W. 22nd Street, Suite 700, Miami, FL  33145","305-436-8640 ","jmgomez@cimagroup.com","Finance"
"Optivon, Inc.","6751 PROFESSIONAL PKWY W,Sarasota,FL 34240","NexTAS, Inc.","AK, AL, AR, AZ, CA, CO, CT, DC, DE, FL, GA, HI, IA, ID, IL, IN, KS, KY, LA, MA, MD, ME, MI, MN, MO, MS, MT, NC, ND, NE, NH, NJ, NM, NV, NY, OH, OK, OR, PA, PR, RI, SC, SD, TN, TX, UT, VA, VI, VT, WA, WI, WV, WY, OU","Johanna  Sierra","Office Manager","PO Box 11881, San Juan, PR 00922-1881","787-706-4999 ","jsierra@optivon.net","Felix  Cardona","Director","PO Box 11881, San Juan, PR 00922-1881","787-304-0010 ","fcardona@optivon.net","Technical Services"
"Complete Interactive Technologies, Inc.","44265 N. Groesbeck,Clinton Twp,MI 48036","None.","CO, GA, IL, IN, MD, MI, MO, NY, OH, PA, UT","Doug  Hoff","Senior Manager","6250 Shiloh Rd.  Suite 110, Alpharetta, GA 30005","404-472-6241 ","doug@gsaudits.com","Jennifer  Kohl","Accountant","44265 N. Groesbeck Hwy, Clinton Twp, MI 48036","586-439-2000 ","jennifer.kohl@cci4solutions.com","Accounting"
"Meratalk LLC","2093 PHILADELPHIA PIKE,CLAYMONT,DE 19703","none","AL, AK, AZ, AR, CA, CO, CT, DE, FL, GA, HI, ID, IL, IN, IA, KS, KY, LA, ME, MD, MA, MI, MN, MS, MO, MT, NE, NV, NH, NJ, NM, NY, NC, ND, OH, OK, OR, PA, RI, SC, SD, TN, DC, TX, UT, VT, VA, WA, WV, WI, WY","Mahmadhanif Saidbhai Tai","Director","244 Fifth Avenue 2nd Floor New York, NY 10001 United States","917-444-9148 ","haniftai@mycountrymobile.com","Mahmadhanif Saidbhai Tai","Director","244 Fifth Avenue 2nd Floor New York, NY 10001 United States","917-444-9148 ","haniftai@mycountrymobile.com","Administrator"
"Globex Telecom Inc.","112 North Curry Street,Carson City,NV 89703","None","NV, WA","State Agent and Transfer Syndicate, Inc.  State Agent and Transfer Syndicate, Inc.","Agent Contact","112 North Curry Street","800-253-1013 ","info@nevadacorpfilings.com","Sally  Souheil","CFO","112 North Curry Street, Carson City, NV 89703","866-389-6802 102","billing@globextelecom.net","Finance"
"Uppro, LLC","25 Broadway,New York,NY 10004","None.","CA, FL, MA, NY","Doug  Hoff","Senior Manager","6250 Shiloh Rd., Suite 110, Alpharetta, GA 30005","404-472-6241 ","doug@gsaudits.com","Dan  Choi","CEO","25 Broadway, 9th Floor,  New York, NY 10004","646-661-2202 ","dan@uppro.io","Sales"
"Rhode Island Telephone Inc","175 Metro Center Blvd.,Warwich,RI 02886","None","RI, MA","Doug  Hoff","Senior Manager","6250 Shiloh Rd, STE 110, Alpharetta, GA 30005","404-472-6241 ","doug@gsaudits.com","Robert  Good","IT Director","175 Metro Center Blvd, Suite 10, Warwick, RI 02886","401-944-8388 220","rgood@ritelephone.com","IT"
"Vinculum Communications, Inc.","4225 Executive Square,San Diego,CA 92037","None","CA","James  Jay","CEO","5935 Cornerstone Ct W","858-357-8707 ","jim.jay@vincomm.net","James  Jay","CEO","5935 Cornerstone Ct W","858-357-8707 ","jim.jay@vincomm.net","Executive"
"","24 Commerce Street, Suite 100, Newark, United States NJ","None","AK, AL, AR, AZ, CA, CO, CT, DE, DC, FL, GA, HI, IA, ID, IL, IN, KS, KY, LA, ME, MD, MA, MI, MN, MS, MO, MT, NV, NE, NC, ND, NH, NJ, NY, NM, OH, OK, OR, PA, PR, RI, SC, SD, TN, TX, UT, VT, VA, WA, WV, WI, WY","Abhay  Kangle","Financial Analyst","24 Commerce Street","973-286-0771 ","abhay.kangle@lycamobile.com","Chandrapragasam  Laven","Deputy Product Manager","24 Commerce Street","973-286-0771 ","chandra.laven@lycamobile.com","Sales"
"California Internet, LP DBA Geolinks","251 Camarillo Ranch Road,Camarillo,CA 93012","None","CA","Ryan  Adams","President, COO","6655 Canyon Rim Row","888-225-1571 8115","radams@geolinks.com","Ryan  Adams","President, COO","251 Camarillo Ranch Rd","888-225-1571 8115","radams@geolinks.com","Operations"
"HotBed Technologies, Inc.","6718 Whittier Ave.,McLean,VA 22101","None","DC, MD, PA, VA","Don  Eckrod","CEO","6718 Whittier Avenue, Suite 100, McLean, VA 22101","703-462-2360 ","don.eckrod@hotbedtech.com","Don  Eckrod","CEO","6718 Whittier Avenue, Suite 100, McLean, VA 22101","703-462-2360 ","don.eckrod@hotbedtech.com","Executive"
"Origin Networks, LLC dba InfoStructure","288 S. Pacific Hwy,Talent,OR 97540","None.","OR, WA, CA","Doug  Hoff","Senior Manager","6250 Shiloh Rd.  Suite 110, Alpharetta, GA 30005","404-472-6241 ","doug@gsaudits.com","Scott  Hansen","Manager","288 South Pacific Hwy, Talent, OR 97540","541-773-5000 ","regulatory@infostructure.net","Sales"
"Ally Communications","2222 Chisholm Rd.,Florence,AL 35630","None","AL, GA, TN, MS","Joel  Peeples","Owner","2222 Chisholm Rd, STE 4","256-740-3900 ","joel@allyadvantage.com","Joel  Peeples","Owner","2222 Chisholm Rd, STE 4","256-740-3900 ","joel@allyadvantage.com","Operations"
"All Access Telecom, Inc.","771 E. US Highway 80,Forney,TX 75126","None","TX, CA, PA, AK, AL, AR, CT, CO, DE, DC, FL, GA, HI, IA, IL, IN, ID, KS, KY, LA, MA, MI, MN, MO, MS, MT, NE, ND, NC, NY, NH, NJ, NV, OH, OK, OR, RI, SC, SD, TN, UT, VT, WA, WI, WY, WV, AZ, MD, ME, VA","Lamar  Carter","CEO","771 E. US Highway 80, Suite 201, Forney, Texas 75126","469-689-0812 ","lamar.carter@allaccesstelecom.com","Cathy  Dodson","Finance Director","771 E. US Highway 80, Suite 201, Forney, Texas 75126","214-584-6705 ","cathy@allaccesstelecom.com","Executive"
"Creative Business Solutions, LLC","550 N BUSH AVE,Clovis,CA 93611","Creative Business Solutions, LLC","CA","Falina  Marihart","COO","7065 N Maple Ave. #101","559-825-3201 ","falina@gopcsolutions.com","Falina  Marihart","COO","7065 N Maple Ave. #101","559-825-3201 ","falina@gopcsolutions.com","Executive"
"i-wireless, LLC","1 Levee Way,Newport,KY 41071","NONE","AL, AR, AZ, CA, CO, CT, DC, DE, FL, GA, HI, IA, ID, IL, IN, KS, KY, LA, MA, MD, MI, MN, MO, MS, NC, NE, NH, NJ, NM, NV, NY, OH, OK, OR, PA, PR, RI, SC, TN, TX, UT, VA, VT, WA, WI, WV, WY","Victoria  Williams","Controller","1 Levee way, Suite 3104, Newport KY 41071","513-259-6420 ","vwilliams@iwirelesshome.com","Victoria  Williams","Controller","1 Levee Way, Suite 3104, Newport KY 41017","513-259-6420 ","vwilliams@iwirelesshome.com","none"
"Interactive Services Network, Inc.","1035 NE 125th St.,North Miami,FL 33161","ISN Telcom, ISN Communications","CA, FL, NY, TX","Adriana  Humoller","Assistant to VPO","1035 NE 125th Street, Suite 300 North Miami, FL 33161","305-573-5300 ","humollera@ipfone.com","Julio  Abdala","Chief Operating Officer","1035 NE 125th Street, Suite 300 North Miami, FL 33161","305-573-5300 ","abdalaj@ipfone.com","Customer Service Department"
"Comcast IP Phone, LLC","One Comcast Center,Philadelphia,PA 19103","Comcast Phone, LLC, DBA Comcast Digital Phone- AT&T Broadband Phone, LLC (2001-2002)

Comcast IP Phone, LLC, DBA Comcast Digital Voice- Comcast IP Phone, Inc. (2002-2005)","AK, AL, AR, AZ, CA, CO, CT, DC, DE, FL, GA, HI, IA, ID, IL, IN, KS, KY, LA, MA, MD, ME, MI, MN, MO, MS, MT, NC, ND, NE, NH, NJ, NM, NV, NY, OH, OK, OR, PA, RI, SC, SD, TN, TX, UT, VA, VT, WA, WI, WV, WY, AS, GU, VI","Andrew  Fisher","Senior Deputy General Counsel","One Comcast Center, 55th Floor, Philadelphia, PA 19103","215-286-3039 ","Andrew_Fisher@Comcast.com","Briana  Pixley","Supervisor","5800 S Quebec St, Greenwood Village, CO 80111","720-668-8352 ","Briana_Pixley@comcast.com","NETS Advanced Repair"
"PEG Bandwidth MD, LLC","10802 Executive Center Drive,Little Rock,AR 72211","NONE","MD, WV","Jeffrey  Strenkowski","VP, Deputy General Counsel of Governmental Affairs","10802 Executive Center Drive, Suite 300, Little Rock, AR 72211","501-458-4397 ","jeffrey.strenkowski@uniti.com","Eric  Daniels","SVP, Operations","107 St Francis Street, Suite 1800, Mobile, AL 36602","251-662-1513 ","eric.daniels@uniti.com","Operations"
"Hunt Telecommunications, LLC","10802 Executive Center Drive,Little Rock,AR 72211","None","LA","Jeffrey R Strenkowski","VP, Deputy General Counsel of Governmental Affairs","10802 Executive Center Drive, Suite 300, Little Rock, AR 72211","501-458-4397 ","jeffrey.strenkowski@uniti.com","Eric  Daniels","SVP, Operations","107 St. Francis Street, Suite 1800, Mobile, AL 36602","251-662-1513 ","eric.daniels@uniti.com","Operations"
"Backbone Communications, Inc.","510 W. 6th St.,Los Angeles,CA 90014","None","CA","Tammy  Nifas","Regulatory","811 Wilshire Blvd, Suite 1020, Los Angeles, CA  90014","213-489-2156 251","tnifas@bbcom.com","Lisa  Derme","GM","811 Wilshire Blvd, Suite 1020, Los Angeles, CA  90014","213-799-1705 ","lderme@bbcom.com","Management"
"PHOENIX COMMUNICATIONS GROUP, LLC","12214 SW 131 AVENUE,MIAMI,FL 33186","None.","FM","Doug  Hoff","Senior Manager","6250 Shiloh Rd.  Suite 110 Alpharetta, GA 30005","404-472-6241 ","doug@gsaudits.com","Julio  Cabrera","Telecommunications Director","12214 SW 131 Ave, Miami, FL  33186","800-679-1969 ","jcabrera@voiphoenix.com","Administration"
"SipJoin Holding Corp","6404 Pelican Crescent,Suffolk,VA 23435","SIPJOIN HOLDING CORP","VA","Jennifer  Perrault","Compliance","1201 Orange St, STE 600","757-598-2000 Option 2","accounts@sipjoin.com","Barry  Augustinsky","COO","6404 Pelican Cres N","757-598-2000 ","baug@sipjoin.com","Executive Team"
"America's Phone Guys","PO Box 873279,Vancouver,WA 98687","None","OR, WA","Doug  Hoff","Regulatory Manager","6250 Shiloh Rd., Ste 110 Alpharetta, GA 30005","404-472-6241 ","doug@gsaudits.com","Lois  Cook","Managing Member","1503 SE 103rd Ave. Vancouver, WA 98664","360-904-6782 ","Lois@americasphoneguys.com","Managing Member"
"Network Innovations, Inc.","350 N Orleans ST,Chicago,IL 60654","None","AK, AL, AR, AZ, CA, CO, CT, DC, DE, FL, GA, HI, IA, ID, IL, IN, KS, KY, LA, MA, MD, ME, MI, MN, MO, MS, NC, MT, ND, NE, NH, NJ, NM, NV, NY, OH, OK, OR, PA, PR, RI, SC, SD, TN, TX, UT, VA, VI, VT, WA, WI, WV, WY, SO","Maria  Arteaga","VP, Accounting Ops","350 N Orleans St","773-529-6300 1356","marteaga@nitelusa.com","Lawrence  Edmond","SSVP, Engineering","350 N Orleans St","773-364-3189 ","ledmond@nitelusa.com","Engineering"
"Telecom Italia Sparkle S.p.A.","Via di Macchia Palocco 223, Rome, Italy Rome","None","OU","Mauro  Moriconi","Head of Legal and Regulatory Affairs","Via di Macchia Palocco 223, 00125 Rome, Italy","039-065-2741 ","mauro.moriconi@tisparkle.com","Davide  Colella","Chief Security Officer","Via di Macchia Palocco 223, 00125 Rome, Italy","039-065-2741 ","tis-trafficalert@tisparkle.com","Security"
"Airvoice Wireless, LLC dba AirTalk Wirel","9920 Brooklet Drive,Houston,TX 77099","None","CA, KY, MI, MS, OH, OK, PA, SC, WI","Melissa  Kallibat","Director of Operations","2425 Franklin Road, Bloomfield Hills MI  48302","248-239-1061 ","mkallabat@airvoicewireless.com","Melissa  Kallabat","Director of Operations","2425 Franklin Road, Bloomfield Hills MI  48302","248-239-1061 ","mkallabat@airvoicewireless.com","none"
"Verizon","22001 Loudoun County Parkway,Ashburn,VA 20147","MFS Services, Inc.; MFS Intelenet, Inc.; WorldCom Technologies, Inc.; MCI Communications Services, LLC; MCI Communications Services, Inc","AA, AE, AK, AL, AP, AR, AS, AZ, CA, CO, CT, DC, DE, FL, FM, GA, SO, GU, HI, IA, ID, IL, IN, KS, KY, LA, MA, MD, ME, MH, MI, MN, MO, MP, MS, MT, NC, ND, NE, NH, NJ, NM, NV, NY, OH, OK, OR, OU, PA, PR, RI, SC, SD, TN, TX, UT, VA, VI, VT, WA, WI, WV, WY","CT Corporation  CT Corporation","Registered Agent","Corporation Trust Center, 1209 Orange St, Wilmington, DE 19801","855-244-9113 ","rlec.help@verizon.com","Kurt  Karlik","Priniciple Engineer","rlec.help@verizon.com","800-285-3776 ","rlec.help@verizon.com","RLEC Call Compl - Network Operations"
"EdgeTel, LLC","1501 35th Ave W,Spencer,IA 51301","None","TX, NY","Kellie  Beneke","President","1501 35th Ave W Spencer, IA 51301","855-617-2530 ","kellie@edgetelecom.com","John  Hass","CTO","1501 35th Ave W Spencer, IA 51301","855-617-2530 ","john@edgetelecom.com","IT Department"
"Legacy Long Distance International, Inc.","10833 Valley View Street,Cypress,CA 90830","None","AL, AK, AZ, AR, CA, CO, CT, DE, FL, GA, HI, ID, IL, IN, IA, KS, KY, LA, ME, MD, MA, MI, MN, MS, MO, MT, NE, NV, NH, NJ, NM, NY, NC, ND, OH, OK, OR, PA, RI, SC, SD, TN, TX, UT, VT, VA, WA, WV, WI, WY","Rafael  Quinto","Director, Billing and Regulatory Operations","10833 Valley View Street, Suite 150 Cypress, CA 90630","800-577-5534 ","rquinto@legacyinmate.com","Rafael  Quinto","Director, Billing and Regulatory Operations","10833 Valley View Street, Suite 150 Cypress, CA 90630","800-577-5534 ","rquinto@legacyinmate.com","Billing and Regulatory Operations"
"Voyce Telecom LLC","8200 Greensboro Dr.,McLean,VA 22102","None","AL, AK, AZ, AR, CA, CO, CT, DE, GU, FL, GA, HI, ID, IL, IN, IA, KS, KY, LA, ME, MD, MA, MI, MN, MS, MO, MT, NE, NV, NH, NJ, NM, NY, NC, ND, OH, OK, OR, AS, PA, RI, SC, SD, TN, DC, TX, UT, PR, VT, VA, WA, WV, WI, WY, VI, MP","Omar  Luna","CEO","8200 Greensboro Drive, Suite 820, McLean, VA 22102","832-506-0905 ","omar.luna@voycetel.com","Omar  Luna","CEO","8200 Greensboro Drive, Suite 820, McLean, VA 22102","832-506-0905 ","omar.luna@voycetel.com","Operations"
"CoEo Solutions, LLC d/b/a CoEo","One Tower Lane,Oakbrook Terrace,IL 60181","None","AZ, CA, CO, FL, GA, IA, IL, IN, KY, LA, MD, MI, MN, MO, NE, NJ, NM, NY, TX, UT, VA, WA, WI","Doug  Hoff","Regulatory Manager|","6250 Shiloh Rd., Ste 110|Alpharetta, GA 30005","404-472-6241 ","doug@gsaudits.com","Eric  Wince","CEO","1400 16th Street, Suite 175, Oakbrook, IL 60523","312-940-7828 ","eric@coeosolutions.com","CEO"
"Ton80 Communicatins, LLC","213 South Main St.,Anderson,SC 29642","None","AL, DE, DC, FL, GA, KY, MD, KS, NJ, NY, PA, VA, WV, WA","Ralph  Gleaton","General Counsel","213 South Main St., Anderson, SC 29624","864-444-4178 ","ralph@gleatonlaw.com","Glenn  Dalgliesh","Operations Consultant","213 South Main St., Anderson, SC 29624","443-912-1000 ","glenn@coretel.net","Operations"
"Magnitude Management LLC","10121 W Commercial Blvd,Tamarac,FL 33351","None","FL","","","","","","","","","","",""
"PEG Bandwidth MS, LLC","10802 Executive Center Drive,Little Rock,AR 72211","NONE","MS","Jeffrey  Strenkowski","VP, Deputy General Counsel of Governmental Affairs","10802 Executive Center Drive, Suite 300, Little Rock, AR 72211","501-458-4397 ","jeffrey.strenkowski@uniti.com","Eric  Daniels","SVP, Operations","107 St Francis Street, Suite 1800, Mobile, AL 36602","251-662-1513 ","eric.daniels@uniti.com","Operations"
"PEG Bandwidth LA, LLC","10802 Executive Center Drive,Little Rock,AR 72211","NONE","LA","Jeffrey R Strenkowski","VP, Deputy General Counsel of Governmental Affairs","10802 Executive Center Drive, Suite 300, Little Rock, AR 72211","501-458-4397 ","jeffrey.strenkowski@uniti.com","Eric  Daniels","SVP, Operations","107 St Francis Street, Suite 1800, Mobile, AL 36602","251-662-1513 ","eric.daniels@uniti.com","Operations"
"Omega Technology Group","140 Midway Dr.,Cornelia,GA 30531","None.","GA, UT","Doug  Hoff","Senior Manager","6250 Shiloh Rd.  Suite 110, Alpharetta, GA 30005","706-776-6945 ","doug@gsaudits.com","Chip  Brooks","Owner","140 Midway Dr. Cornelia, Ga. 30531","706-776-6945 ","chip@omegatechnologygroup.net","Sales"
"National Networks, LLC","2950 Country Club Rd.,Lake Charles,LA 70605","None","LA, TX, UT, FL","Doug  Hoff","Senior Manager","6250 Shiloh Rd, STE 110, Alpharetta, GA 30005","404-472-6241 ","doug@gsaudits.com","Shawn  Maggio","CEO","2950 Country Club Rd.  Lake Charles, LA 70605","337-474-4249 ","shmaggio@ntwo.com","Management"
"","376 LARKFIELD ROAD,EAST NORTHPORT,NY 11731","none","CA, CT, NY, NJ, MA, FL, PA, TX","Kenneth  Perkins","Chairman / CEO","376 Larkfield Road","678-436-5590 301","kperkins@rtcteam.net","Daniel  Kearney","Support","376 Larkfield Road","516-740-6600 ","dkearney@vodanetworks.net","Support"
"First Communications, LLC","3340 West Market Street,Akron,OH 44333","None","AK, AL, AR, AZ, CA, CO, CT, DC, DE, FL, GA, HI, IA, ID, IL, IN, KS, KY, LA, MA, MD, ME, MI, MN, MO, MS, MT, NC, ND, NE, NH, NJ, NM, NV, NY, OH, OK, OR, PA, RI, SC, SD, TN, TX, UT, VA, VT, WA, WI, WV, WY","Sandi  Murphy","General Counsel","3340 West Market Street, Akron, OH 44333","330-835-2664 ","smurphy@firstcomm.com","Mark  Wons","VP Network Operations","3340 West Market Street, Akron, OH 44333","312-893-0295 ","mwons@firstcomm.com","Network Operations"
"IDT Telecom, Inc.","520 Broad Street,Newark,NJ 07102","NONE","AK, AR, AZ, CA, CO, CT, DC, DE, FL, GA, GU, HI, IA, ID, IL, IN, KS, KY, LA, MA, MD, ME, MH, MI, MN, MO, MP, MS, MT, NC, ND, NE, NH, NJ, NM, NV, NY, OH, OK, OR, PA, PR, RI, SD, WY, WV, WI, WA, VT, VI, VA, UT, TX, TN, SC, AS, SO","Carl  Billek","Senior Regulatory Counsel","520 Broad Street, Newark, NJ 07102","973-438-4854 ","Carl.Billek@idt.net","Christopher  Reyes","Employee","520 Broad Street, Newark, NJ 07102","973-438-7459 ","RuralCallHotline@idt.net","Carrier"
"Voxology Carrier Services, Inc.","5000 Birch Street,Newport Beach,CA 92660","None","AK, AL, AZ, CA, CO, CT, DC, DE, FL, GA, IA, ID, IL, IN, KS, KY, LA, MA, MD, ME, MI, MN, MO, MS, NC, MT, ND, NE, NH, NJ, NM, NV, NY, OH, OK, OR, PA, RI, SC, SD, TN, TX, UT, VA, VT, WA, WI, WV, WY, OU, AR, PR, GU","Justin  Newman","President","5000 Birch Street, Suite 3000","949-596-4629 ","compliance@voiceinc.com","Justin  Newman","President","5000 Birch Street, Suite 3000","949-596-4629 ","compliance@voiceinc.com","Executive"
"PEG Bandwidth VA, LLC","10802 Executive Center Drive,Little Rock,AR 72211","NONE","VA","Jeffrey  Strenkowski","VP, Deputy General Counsel of Governmental Affairs","10802 Executive Center Drive, Suite 300, Little Rock, AR 72211","501-458-4397 ","jeffrey.strenkowski@uniti.com","Eric  Daniels","SVP, Operations","107 St Francis Street, Suite 1800, Mobile, AL 36602","251-662-1513 ","eric.daniels@uniti.com","Operations"
"Voxox","5825 Oberlin Drive STE 5,San Diego,CA 92121","Telcentris, INC.","AK, AL, AZ, CA, CO, CT, DC, DE, FL, GA, HI, IA, ID, IL, IN, KS, KY, LA, MA, MD, ME, MI, MN, MO, MS, NC, MT, ND, NE, NH, NJ, NM, NV, NY, OH, OK, OR, PA, RI, SC, SD, TN, TX, UT, VA, VT, WA, WI, WV, WY, OU, AR, PR, GU, VI, AS","Adam  Dernbach","Director of Finance","5825 Oberlin Drive STE 5","760-733-6633 ","adam.dernbach@voxox.com","Calvin  Ellison","Voice Operations Engineer","5825 Oberlin Drive STE 5","213-285-0555 ","voiceops@voxox.com","Voice Ops"
"Bluetone Communications, LLC","526 S Main Street,Akron,OH 44311","None","AL, AK, AR, AS, CA, CO, AZ, CT, DC, DE, FL, GA, HI, IA, ID, IL, IN, KS, KY, LA, MA, MD, ME, MI, MN, MO, MS, NC, NE, NH, NJ, NM, NV, NY, OH, OK, OR, PA, RI, SC, ND, SD, MT, TN, TX, UT, VT, VA, WA, WY, WI, WV, OU","Jacqueline  Smith","Controller","1163 Pittsford-Victor Rd, Ste 200, Pittsford, NY 14534","614-656-1081 none","jackie.smith@bluetone.net","Jacqueline  Smith","Controller","1163 Pittsford-Victor Rd, Ste 200, Pittsford, NY  14534","614-656-1081 none","jackie.smith@bluetone.net","Finance"
"LP Telecom, LLC","1332 Teasley Lane,Denton,TX 76205","None","AL, AK, AZ, AR, CA, CO, CT, DE, DC, FL, GA, HI, ID, IL, IN, IA, KS, KY, LA, ME, MD, MA, MI, MN, MS, MO, MT, NE, NV, NH, NJ, NM, NY, NC, ND, OH, OK, OR, PA, RI, SC, SD, TN, TX, UT, VT, VA, WA, WV, WI, WY","Omar  Luna","CTO","5100 Westheimer, Suite 200   Houston, TX 77056","469-998-1998 ","omarluna@landingpointtele.com","Omar  Luna","CTO","5100 Westheimer, Suite 200   Houston, TX 77056","469-998-1998 ","omarluna@landingpointtele.com","All"
"Contact Network, LLC","10802 Executive Center Drive,Little Rock,AR 72211","InLine, The Contact Network","AL, LA, MS, IL","Jeffrey R Strenkowski","VP, Deputy General Counsel of Governmental Affairs","10802 Executive Center Drive, Suite 300, Little Rock, AR 72211","501-458-4397 ","jeffrey.strenkowski@uniti.com","Eric  Daniels","SVP, Operations","107 St Francis Street, Suite 1800, Mobile, AL 36602","251-662-1513 ","eric.daniels@uniti.com","Operations"
"Voxterm, Inc.","5420 Wade Park Blvd,Raleigh,NC 27607","thinQ, Inc. (fka VAMP Communications)","AK, AL, AR, AZ, CA, CO, DE, CT, FL, GA, IA, ID, IL, IN, KS, KY, LA, MA, MD, ME, MI, MN, MO, MS, MT, NC, ND, NE, NH, NJ, NM, NV, NY, OH, OK, OR, PA, PR, RI, SC, SD, TN, TX, UT, VA, WV, WY","Aaron  Leon","CEO","5420 Wade Park Blvd","919-889-0000 103","aaron@thinq.com","Aaron  Leon","CEO","5420 Wade Park Blvd","919-889-0000 103","aaron@thinq.com","Executive"
"Alpha Connect, LLC","1901 W Ridge Street,Marquette,MI 49855","None","MI, WI","James  Bednarek","Controller","1901 West Ridge Street, Suite #2, Marquette, MI, 49855","906-226-2010 ","jbednarek@pfnllc.net","James  Bednarek","Controller","1901 West Ridge Street, Suite #2, Marquette, MI, 49855","906-226-2010 ","jbednarek@pfnllc.net","Operations"
"Lumen Technologies, Inc.","100 CenturyLink Dr.,Monroe,LA 71203","None","AK, AL, AR, AZ, CA, CO, CT, DC, DE, FL, GA, GU, HI, IA, ID, IL, IN, KS, KY, LA, MA, MD, ME, MI, MN, MO, MS, MT, NC, ND, NE, NH, NJ, NM, NV, NY, OH, OK, OR, PA, PR, RI, SC, SD, TN, TX, UT, VA, VI, VT, WA, WI, WV, WY, AS, FM, MH, MP","Joseph  Cavender","ASSOCIATE GENERAL COUNSEL","1220 L ST NW , DCL001 , WASHINGTON DC 20005-4018","571-730-6533 ","joseph.cavender@centurylink.com","Philip  Linse","DIRECTOR, PUBLIC POLICY","700 W. Mineral Ave., Littleton, CO  80120","303-707-3844 ","Philip.Linse@lumen.com","PUBLIC POLICY & COMPLIANCE"
"PEG Bandwidth DE, LLC","10802 Executive Center Drive,Little Rock,AR 72211","NONE","DE","Jeffrey  Strenkowski","VP, Deputy General Counsel of Governmental Affairs","10802 Executive Center Drive, Suite 300, Little Rock, AR 72211","501-458-4397 ","jeffrey.strenkowski@uniti.com","Eric  Daniels","SVP, Operations","107 St Francis Street, Suite 1800, Mobile, AL 36602","251-662-1513 ","eric.daniels@uniti.com","Operations"
"Telecom Carrier Access, INC","3463 State St,Santa Barbara,CA 93105","TeleCom Carrier Access, LLC","CA","Janice  Null","Agent for Service of Process","1090 Vermont Ave NW, Suite 910, Washington D.C. 20005","702-866-2500 ","documents@incorp.com","Mark  Jordan","Chief Operating Officer","3463 State St., Suite 520","805-308-9215 ","mjordan@tcavoip.com","O[erations"
"Bandwidth Inc.","900 Main Campus Drive,Raleigh,NC 27606","FKA Bandwidth.com, Inc.","AK, AL, AR, AZ, CA, CO, CT, DC, DE, FL, GA, HI, IA, ID, IL, IN, KS, KY, LA, MA, MD, ME, MI, MN, MO, MS, MT, NC, ND, NH, NE, NJ, NM, NV, NY, OH, OK, OR, PA, RI, SC, SD, TN, TX, UT, VA, WA, WI, WV, WY","Lisa Jill  Freeman","VP & Regulatory Compliance Officer, Ofc of the GC","900 Main Campus Dr, Raleigh NC 27606","919-439-3571 ","ljfreeman@bandwidth.com","Lisa Jill  Freeman","VP & Regulatory Compliance Officer, Ofc of the GC","900 Main Campus Dr, Raleigh NC 27606","919-439-3571 ","ljfreeman@bandwidth.com","Legal"
"Nexxis Inc.","68 Service Rd,Melville,NY 11747","None","NY","John  Camello","President","48S Service Rd","631-247-0769 ","jcamello@myNexxis.com","John  Camello","President","48S Service Rd","631-247-0769 ","jcamello@myNexxis.com","Executive"
"NTC International INC","1000 N. West Street,Wilmington,DE 19801","None","DE","Cosmin  Manole","Legal Advisor","1000 N. West Street, Ste. 1200, Wilmington, Delaware 19801","866-776-6235 ","cosmin.manole@ntcinternationalinc.com","Cristiana  Zezeanu","US Domestic Product Manager","1000 N. West Street, Ste. 1200, Wilmington, Delaware 19801","866-776-6235 1210","usdomestic@nobelglobe.com","Carrier Team"
"QXTEL LIMITED ","HOGARTH HOUSE, 136 HIGH HOLBORN, LONDON, United Kingdom LONDON","None","OU","","","","","","","","","","",""
"InteleTel, LLC","1501 35th Avenue, West,Spencer,IA 51301","None","CO, FL, GA, MA","Kellie  Beneke","President","1501 35th Avenue W Spencer, IA 51301","877-513-9844 ","kellie@inteletel.net","John  Hass","CTO","1501 35th Ave. W Spencer, IA 51301","877-513-9844 ","kellie@inteletel.net","IT Department"
"Teledynamics Communications Service Corp","30 Wood Ave.,Secaucus,NJ 07094","None","NJ, NY","Doug  Hoff","Senior Manager","6250 Shiloh Rd, STE 110, Alpharetta, GA 30005","404-472-6241 ","doug@gsaudits.com","Matt  Gavin","Director of Operations","30 Wood Ave, Secaucus, NJ 07094","201-453-5429 ","MGavin@tdnyc.com","Management"
"D4US, LLC dba dimension4","382 NE 191 St #59205,Miami,FL 33179","None","CA, CO, FL, OU, MA, NC, NV, NY, UT, ME","Victor  Portillo","Finance Supervisor","382 NE 191st St #59205 Miami FL 33179","415-444-9911 ","vportillo@myd4.com","Anthony  Zabit","CEO","382 NE 191st St #59205 Miami FL 33179","415-444-9998 ","azabit@md4.com","Operations"
"AltaWorx LLC","22765 U.S. Highway 98,Fairhope,AL 36532","None.","AL, AR, CA, CO, CT, FL, GA, IL, IN, KS, KY, LA, MA, MD, MI, MN, MO, MS, NC, NE, NH, NJ, NM, NY, OH, OK, OR, PA, SC, TN, TX, UT, VA, VT, WA, WI","Doug  Hoff","Senior Manager","6250 Shiloh Rd., Suite 110, Alpharetta, GA 30005","404-472-6241 ","doug@gsaudits.com","Rickie  Richey","CEO","455 Magnolia Ave, Suite B, Fairhope, AL 36532-2220","251-928-5890 ","compliance@altaworx.com","Sales"
"TIME CLOCK SOLUTIONS, LLC","6920 SPRING VALLEY DRIVE,HOLLAND,OH 43528","NONE","OH","Vance  Witt","Managing Member","6920 Spring Valley Drive, Suite 101, Holland OH 43528","855-753-0941 ","compliance@yourtimeclocksolution.com","Vance  Witt","Managing Member","6920 Spring Valley Drive, Suite 101, Holland OH 43528","855-753-0941 ","compliance@yourtimeclocksolution.com","none"
"Michael D. Lansky, LLC d/b/a Avid Teleco","4729 East Sunrise Road,Tucson,AZ 85718","NONE","CA, AZ, TX, IL","Craig David Dingwall","Managing Member","1030 15th Street, NW, Suite B1-#157, Washington, DC 20005","703-862-3353 ","cddingwall@outlook.com","Michael D Lansky","President","4729 E. Sunrise # 209, Tucson, AZ  85718","800-799-4415 ","lansky@avid-telecom.com","Operations"
"Onvoy, LLC","550 W Adams Street,Chicago,IL 60661","None","AK, AR, AZ, CA, CO, CT, DC, DE, FL, GA, HI, IA, ID, IL, IN, KS, KY, LA, MA, MD, ME, MI, MN, MO, MS, MT, NC, ND, NE, NH, NJ, NY, NV, NM, OH, OR, OK, PA, RI, SC, SD, TN, TX, UT, VA, VT, WA, WI, WV, WY, AL","Richard  Monto","General Counsel","550 W Adams Street, Suite 900 Chicago, IL 60661","312-348-8000 ","regulatorynotices@inteliquent.com","Randy  Frederick","Sr. Director Network Services","550 W Adams Street, Suite 900 Chicago, IL 60661","312-348-8000 ","regulatorynotices@inteliquent.com","Network Services"
"Versatel LLC","1503 E. 19h,Edmond,OK 73013","none","TX","Daniel  Howard","CFO","1503 E 19th St.","405-340-1900 ","daniel.howard@46labs.com","Daniel  Howard","CFO","1503 E 19TH ST","405-340-1900 ","daniel.howard@46labs.com","Finance/Legal"
"Uniti Leasing X LLC","10802 Executive Center Drive, Benton Bui,Little Rock,AR 72211","NONE","CA","Jeffrey  Strenkowski","VP, Deputy General Counsel of Governmental Affairs","10802 Executive Center Drive, Suite 300, Little Rock, AR 72211","501-458-4397 ","jeffrey.strenkowski@uniti.com","Mike  Friloux","CTO","107 St Francis Street, Suite 1800, Mobile, AL 36602","501-850-0877 ","mike.friloux@uniti.com","Executive"
"Uniti Fiber LLC","10802 Executive Center Drive, Suite 300,Little Rock,AR 72211","PEG Bandwidth, LLC,  Uniti Fiber-PEG, LLC, Wireless Infrastructure Partners, LLC","AL, AR, FL, MI, NC, ND, OH, SC, TN, TX, WI","Jeffrey  Strenkowski","VP, Deputy General Counsel of Governmental Affairs","10802 Executive Center Drive, Suite 300, Little Rock, AR 72211","501-458-4397 ","jeffrey.strenkowski@uniti.com","Eric  Daniels","SVP, Operations","107 St Francis Street, Suite 1800, Mobile, AL 36602","251-662-1513 ","eric.daniels@uniti.com","Operations"
"Reliant Communications, Inc.","801 International Parkway,Lake Mary,FL 32746","HJN Telecom, Inc.","AL, AR, AZ, CO, CT, DC, DE, FL, IA, ID, IL, IN, KS, KY, LA, MA, MD, ME, MI, MN, MO, MT, NC, ND, NE, NJ, NM, NY, OH, OK, OR, SC, SD, TX, UT, VA, VT, WA, WI, WV, WY","Robert  Sorrentino","President","801 International Parkway, 5th Floor, Lake Mary FL 32746","800-435-9217 ","regdbg@dominionbusinessgroup.com","Robert  Sorrentino","President","801 International Parkway, 5th Floor, Lake Mary, FL 32746","800-830-5582 ","service@service-us.com","Management"
"Twiching General Trading Pte Ltd","3 Shenton way #15-05 Shenton House, Singapore, Singapore Singapore","NONE","AA, AB, AE, AG, AK, ZA, NY, AL, AP, AS, AR, AS, BC, AZ, BS, CA, CH, BC, CL, CO, CO, CS, CM, CT, DC, DE, DG, DF, FL, FM, GR, GT, GA, GU, HG, HI, IA, ID, IL, YU, JA, KS, IN, KY, LA, MA, MB, MD, ME, MH, MI, MI, MN, MO, MO, MP, MS, MT, MX, NA, NB, ND, NC, NE, NH, NL, NJ, NL, NM, NS, NT, NU, NV, OA, OR, OK, PE, PU, PR, QC, QR, ON, QT, OU, OH, PA, SK, SC, SD, RI, SO, SL, TB, TX, TM, UT, TL, VE, WI, TN, WA, VI, WY, VA, SI, WV, VT, YT","Mahmedirfan M Tai","President","3 Shenton way #15-05 Shenton House","914-240-8136 ","accounts@twichinggeneraltrading.com","Mahmedirfan M Tai","President","3 Shenton way #15-05 Shenton House","914-240-8136 ","accounts@twichinggeneraltrading.com","Management"
"","1608 Walnut St,Philadelphia,PA 19103","NONE","OU","Arkady  sorokin","Registered Agent","1608 walnut st, suite 1200","646-522-0590 ","asorokin@vtscom.net","Arkady  Sorokin","President","1608 Walnut St, suite 1200","646-522-0590 ","asorokin@vtscom.net","Executive"
"GM Telecom Corp.","245 SE 1st St,Miami,FL 33131","none","FL","Mariano  Castro Antel","VP","245 SE 1st Suite 234, Miami FL 33131","760-227-0312 ","mcantel@gm-telecom.com","Gonzalo  Alvarez Comotti","VP","245 SE 1st Suite 234, Miami FL 33131","760-227-0312 ","gacomotti@gm-telecom.com","Management"
"Bestel USA, Inc.","1111 Pennsylvania Avenue, NW,Washington,DC 20004","None","TX","Ulises  Pin","Designated Agent for Service of Process","1111 Pennsylvania Avenue, NW","202-373-6664 ","ulises.pin@morganlewis.com","Fernando  Krasovsky","Country Manager","2323 Bryan Street, Suite 2040, Dallas TX 75201","214-862-5027 ","fgkrasovskys@bestel.com.mx","Country Manager"
"International Carrier Exchange Limited","3524 Silverside Rd,Wilmington,DE 19810","None","DE","","","","","","","","","","",""
"Broadplex, LLC","5301 77 Center Drive,Charlotte,NC 28217","None","NC, SC","Dawna Kimmich Hannan","Vice President - Telecom Regulatory","2101 Rexford Road, Suite 200E, Charlotte, NC 28211","704-936-1805 ","dhannan@conterra.com","Dawna Kimmich Hannan","Vice  President - Telecom Regulatory","2101 Rexford Road, Suite 200E, Charlotte, NC 28211","704-936-1805 ","dhannan@conterra.com","Regulatory"
"Network Services Telecom Group DBA Anavo","1133 W. South Airport Rd,Traverse City,MI 49686","Network Services Telecom Group","MI","Russell P Madsen","President / Member","1133 W South Airport Rd","231-933-9744 1015","rmadsen@anavontech.com","Russell P Madsen","President / Member","1133 W South Airport Rd","231-933-9744 1015","dschlosser@anavontech.com","Admin"
"GetGo Communications LLC","333 Summer Street,Boston,MA 02210","Citrix Communications, LLC","AA, AE, AK, AP, AL, AR, AS, AZ, AA, CA, CO, CT, DC, DE, FL, GA, FM, SO, GU, HI, IA, ID, IL, IN, KS, KY, LA, MA, MD, ME, MH, MI, MN, MO, MP, MS, MT, NC, ND, NE, NH, NJ, NM, NV, NY, OH, OK, OR, OU, PA, PR, RI, SC, SD, TN, TX, UT, VA, VI, VT, WA, WI, WV, WY","Val  Ilchenko","Sr. Associate Counsel","LogMeIn, 320 Summer Street, Boston, MA 02210","781-850-1583 ","Telecom@logmein.com","","","","","",""
"Hudson Fiber Network, Inc.","12 North State Rt 17,Paramus,NJ 07652","None","AZ, CA, CT, DC, FL, GA, HI, IL, LA, ME, MA, NE, NJ, NY, NC, OH, PA, TX, VA, WA","Scotty  Amos","Authorized Agent","2640 Youree Dr., Suite 100   Shreveport, LA 71104","318-429-7552 ","samos@rbm.com","Donna  Cahill","Tax Director","3030 Warrenville Rd., Suite 240   Lisle, IL 60532","866-892-5327 ","dcahill@extenetsystems.com","Tax"
"CapTex Telecom, LLC","119 West Tyler Street,Longview,TX 75601","None","CA","Amanda  Harris","Regulatory Compliance Officer","119 W. Tyler Street, Suite 100, Longview, TX 75601","903-323-4900 ","regulatory@networkip.net","Mike  Truemner","VP Operations","119 W. Tyler Street, Suite 100, Longview, TX 75601","903-323-4900 ","mtruemner@networkip.net","Operations"
"Strata Pointe Technologies, LLC","118 Rochester Drive,Louisville,KY 40214","None","KY","Melanie  Bunger","Senior Business Manager","118 Rochester Drive, Louisville, KY  40214","502-364-5100 ","mbunger@stratapointe.com","Melanie  Bunger","Senior Business Manager","118 Rochester Drive, Louisville, KY  40214","888-777-5049 ","support@stratapointe.com","Service"
"Nex-Tech, LLC","145 N. Main St,Lenora,KS 67645","None","KS","Mindy  Bieker","DAFB","PO Box 158, Lenora, KS 67645","785-421-4820 4820","mbieker@nex-tech.com","Ron  Ellis","Director of Operations","PO Box 158","785-567-5150 5150","rellis@nex-tech.com","G&A"
"VOWtel, LLC","1217 North Fort Harrison Ave,Clearwater,FL 33755","none","DC, FL, IL, MD, MN, NC, PA, TX","Bonnie  Rapchak","Director of Customer Service and Accounting","1217 N Fort Harrison Dr, Clearwater FL  33755","813-321-1807 ","brapchak@medcodata.com","Frank  DeRogatis","Account Manager","1217 N Fort Harrison Dr, Clearwater FL   33755","813-321-1550 ","fderogatis@medcodata.com","Service"
"Nexus Systems, LLC","10802 Executive Center Drive, Suite 300,Little Rock,AR 72211","NONE","LA","Jeffrey  Strenkowski","VP, Deputy General Counsel of Governmental Affairs","10802 Executive Center Drive, Suite 300, Little Rock, AR 72211","501-458-4397 ","jeffrey.strenkowski@uniti.com","Eric  Daniels","SVP, Operations","107 St Francis Street, Suite 1800, Mobile, AL 36602","251-662-1513 ","eric.daniels@uniti.com","Operations"
"Onepath Systems, LLC","170 Chastain Meadows CT NW,Kennesaw,GA 30144","Bluewave Computing, LLC","AL, AZ, CA, CO, CT, FL, GA, IL, KS, LA, MA, MD, ME, MN, MO, MS, NC, NH, NJ, NM, NY, RI, SC, TN, TX, VA, WI","Doug  Hoff","Regulatory Manager","6250 Shiloh Rd., Ste 110 Alpharetta, GA 30005","404-472-6241 ","doug@gsaudits.com","Rae  Tucker","Compliance Manager","170 Chastain Meadows CT NW Kennesaw GA 30144","678-695-5500 ","compliance@1path.com","Compliance Manager"
"WaveCrest Networks Limited","71-75 Shelton Street, London, United Kingdom London","None","OU","Graham D Packer","VP Corporate Services","WaveCrest Networks Ltd c/o Regus, 23 Austin Friars, London, EC2N 2QP","778-611-1636 ","graham.packer@wavecrest.eu","Graham D Packer","VP Corporate Services","WaveCrest Networks Ltd c/o Regus 23 Austin Friars, London EC2N 2QP","778-511-1636 ","graham.packer@wavecrest.eu","Corporate Services"
"Wuru Telecom, Inc.","2323 Bryant Street,Dallas,TX 75201","None","TX","Ulises  Pin","Designated Agent for Service of Process","1111 Pennsylvania Avenue, NW","202-373-6664 ","ulises.pin@morganlewis.com","Fernando  Krasovsky","Country Manager","2323 Bryan Street, Suite 2040, Dallas TX 75201","214-862-5027 ","fgkrasovskys@bestel.com.mx","Country Manager"
"Vexus","912 South Main Street Suite 106,Sikeston,MO 63801","None","LA, MS","Jessica  Salazar","Director - Billing and Regulatory Administration","1220 Broadway, Lubbock, TX 79401","806-797-0687 ","jessica.salazar@ntscom.com","William  Morrow","President","1220 Broadway, Lubbock, TX  79401","806-797-0687 ","bill.morrow@ntscom.com","Executive"
"RSCOM","238 Wellington St, Aurora, Canada Ontario","None","AK, AA, AL, AE, AP, AR, AS, AZ, CA, CO, CT, DC, DE, FL, FM, GA, SO, GU, HI, ID, IL, IN, IA, KY, KS, MA, ME, MH, MI, MN, MD, MS, MP, MT, NE, ND, MO, NH, NC, NM, NV, NJ, OH, NY, LA, OK, OU, PA, OR, SC, SD, RI, UT, PR, TN, VI, VA, VT, WA, WI, WV, TX, WY","Robert J Musgrove","VP of Vendor Management","238 Wellington St","312-585-7888 ","origination@rscom.ca","Jeremy  Kelley","VP","238 Wellington St","312-585-7888 ","origination@rscom.ca","Operations"
"esgysip","25 Abbas Akkad Street, Jad Building 3rd floor., Nasr City, Egypt cairo","none","OU, AA, AB, AE, AG, AK, AP, AL, AR, AZ, AS, BC, BC, CA, CH, CL, CM, CO, CS, CT, DC, DE, DG, FL, FM, GR, GA, GT, GU, HG, HI, IA, ID, DF, IL, JA, IN, KS, BS, KY, MA, LA, MB, MH, MN, MI, ME, MO, MI","Adnan  Abdo","owner","25 Abbas Akkad Street, Jad Building 3rd floor.","110-026-2960 ","sales@egysip.com","Adnan  Abdo","owner","25 Abbas Akkad Street, Jad Building 3rd floor.","110-026-2960 ","sales@egysip.com","main"
"AT&T Services, Inc.","1120 20th Street, NW,Washington,DC 20036","ITT Central America Cables, Inc.
ITT Communications, Inc.   Virgin Islands","VI","Glenis  McKoy","Manager - Regulatory","1120 20th  St. NW, Suite 1000, Washington DC 20036","202-457-3852 ","gm909g@att.com","Donna  Dupre","Principal","28W615 Ferry Rd, Warrenville IL 60555","630-836-8300 ","NESAC_NSFG@att.com","Network Operations - NESAC"
"EM3 Networks LLC","810 Pennsylvania Street,Lawrence,KS 66044","None.","AR, CA, GA, IN, KS, LA, MO, NM, NV, OK, PA, SC, TX, UT","Doug  Hoff","Senior Manager","6250 Shiloh Rd.  Suite 110, Alpharetta, GA 30005","855-949-9273 ","doug@gsaudits.com","Mitchell L. Breedlove","Managing Partner","810 Pennsylvania St Suite 205 Lawrence KS 66044","855-949-9273 ","timyager@em3networks.com","Sales"
"Alteva of Warwick LLC","47 Main St,Warwick,NY 10990","Warwick Valley Restructuring Company","NJ, NY","Virginia J OHanlon","Manager - Regulatory and Tax Compliance","47 Main Street Warwick NY 10990","845-986-2535 ","vohanlon@momentumtelecom.com","Marie  Corlett","Vice President and General Manager","47 Main Street Warwick, NY 10990","845-986-2369 ","m.corlett@wvtc.com","Field"
"SimpliFone, Inc.","POB 5,Katonah,NY 10536","None","NY, CT, CA, IL","Michael  Schechter","President","POB 5, Katonah, NY 10536","914-770-8647 ","mschechter@simplifone.tel","Michael  Schechter","President","POB 5, Katonah, NY 10536","914-770-8647 ","mschechter@simplifone.tel","Support"
"PEG Bandwidth NY, LLC","10802 Executive Center Drive,Little Rock,AR 72211","NONE","NY","Jeffrey  Strenkowski","10802 Executive Center Drive, Suite 300, Little Ro","10802 Executive Center Drive, Suite 300, Little Rock, AR 72211","501-458-4397 ","jeffrey.strenkowski@uniti.com","Eric  Daniels","SVP, Operations","107 St Francis Street, Suite 1800, Mobile, AL 36602","251-662-1513 ","eric.daniels@uniti.com","Operations"
"Kansas Fiber Network LLC","8201 E 34th Cir N,Witchita,KS 67226","None","KS, OK, CO","Jennifer  Matthews","Contracts Manager","316-712-6005","913-213-2932 ","jmarshall@ksfiber.net","Leslie  Rodriguez","Staff Accountant","8201 E 34th St Cir N, Bldg 1500 Wichita KS 67226","316-712-6006 ","lrodriguez@ksfiber.net","Accounting"
"HD Tandem","5318 E. 2nd Street, #390,Long Beach,CA 90803","HD Tandem","AK, AR, AZ, CA, CO, CT, DC, DE, FL, GA, HI, IA, ID, IL, IN, KS, KY, LA, MA, MD, ME, MI, MN, MO, MS, MT, NC, ND, NE, NH, NJ, NM, NV, NY, OH, OK, OR, PA, RI, SC, TN, SD, TX, UT, VA, VT, WA, WI, WV, WY","Kathryn  Glaser","Legal","5318 E. 2nd Street Suite 390","562-437-1411 2254","legal@hdtandem.com","Bryan  Peterson","VP","5318 E. 2nd Street Suite #390","800-216-0977 ","noc@hdtandem.com","NOC"
"Magic Apple Technology LLC","3057 Millerton Way,Thompson's Station,TN 37179","None.","AL, CA, FL, GA, MD, MI, NC, NY, TN","Doug  Hoff","Regulator Manager","6250 Shiloh Rd.  Suite 110, Alpharetta, GA 30005","404-472-6241 ","doug@gsaudits.com","Holly  Lloyd","Business Manager","545 Maintstream Dr., Suite 340, Nashville, TN 37228","615-425-7474 ","holly@magicappletech.com","Complaints"
"INFOMOVIL CORP","848 Brickell Ave,Miami,FL 33131","None","CA, FL, NY","Andres  Sanchez","COO","848 Brickell Ave.  Suite 810  Miami, FL  33131","786-242-2224 ","asanchez@identidadtech.com","James  Merced","CFO","848 Brickell Ave.  Suite 810  Miami, FL  33131","786-242-2224 ","jmerced@identidadtech.com","Finance"
"GigaMonster, LLC","P.O. Box 6339,Marietta,GA 30065","Apartment MediaWorks, LLC;  DirecPath; PurDigital Media, Inc. ; Biltmore Communications, LLC, formerly Biltmore Communications, Inc","CO, FL, GA, TX, AL, NY, NC, MN, OH, TN","Doug  Hoff","Regulatory Manager","6250 Shiloh Rd., Ste 110 Alpharetta, GA 30005","404-472-6241 ","doug@gsaudits.com","Jason  Gardiner","VP-Network","350 Franklin Gateway, Ste 300, Marietta, GA 30065","404-961-7024 ","gardiner@gigamonster.net","VP-Network"
"Lunar Labs, Inc. dba Sweet Mobile","3434 Russell Street,Detroit,MI 48207","None.","AK, AL, AR, AZ, CA, CO, CT, DC, DE, FL, GA, HI, IA, ID, IL, IN, KS, KY, LA, MA, MD, ME, MI, MN, NC, ND, MO, MT, NE, NH, NJ, NM, NV, NY, OH, OK, OR, PA, PR, RI, SC, SD, TN, TX, UT, VA, VT, WA, WI, WV, WY","Doug  Hoff","Senior Manager","6250 Shiloh Rd.  Suite 110, Alpharetta, GA 30005","404-472-6241 ","doug@gsaudits.com","Michael  Koening","Vice President/COO/Secretary","3434 Russell St. #406, Detroit, MI 48207","248-705-0846 ","compliance@lunarwireless.com","Finance"
"WaveCrest Communications France SAS","64 rue Anatole France, Levallois-Perret, France ","None","OU","Graham D Packer","VP Corporate Services","WaveCrest Communications France SAS, 64 rue Anatole France, Levallois-Perret 92300","778-611-1636 ","graham.packer@wavecrest.eu","Graham D Packer","VP Corporate Services","WaveCrest Communications France SAS, 64 rue Anatole France, Levallois-Perret, 92300","778-611-1636 ","graham.packer@wavecrest.eu","Corporate"
"Telia Carrier U.S. Inc.","2325 Dulles Corner Boulevard,Herndon,VA 20171","Telia North America Inc., Telia International Carrier Inc.  and TeliaSonera International Carrier Inc.","AL, AZ, CA, CO, CT, DC, FL, GA, IL, IN, KS, ME, MD, MA, MI, MS, MO, NE, NV, NJ, NM, NY, NC, OH, OK, PA, RI, SC, TN, TX, UT, VA, WA","Brian  McHugh","President","2325 Dulles Corner Blvd., Herndon, VA 20171","703-927-1926 ","brian.mchugh@teliacompany.com","Michael  Foti","Regional Director Americas, Voice","2325 Dulles Corner Blvd., Herndon, VA  20171","202-744-8627 ","michael.foti@teliacompany.com","Voice Trading Sales"
"TI Sparkle North America, Inc.","622 3rd Avenue,New York,NY 10017","None","NY","Pui Man  Kong","Regulatory Contact","1 William Street, 3rd Floor New York, NY 10004","212-310-9000 ","puiman.kong@tisparkle.com","Joseph  Rubino","Chief Operating Officer (COO)","1 William Street, 3rd Floor New York, NY 10004","212-310-9000 ","joseph.rubino@tisparkle.com","Operations"
"","360 Mt Kemble Avenue,Morristown,NJ 07960","None","AL, AR, AK, CA, CO, CT, DC, FL, GA, HI, IA, ID, IL, IN, KS, KY, LA, MA, MD, ME, MI, MN, MO, MS, NC, ND, NE, NJ, NM, NY, OH, OK, PA, PR, RI, SC, SD, TN, TX, UT, VT, WA, WI, WV, WY, NV, VA, MT, DE, NH, OR","","","","","","","","","","",""
"Korea IT Consulting","5th Floor, Suite 506, 72-4 Yeongdeunpo-gu, Yeuido-Dong, Seoul, South Korea ","None","OU","Nevada Registered  Agents LLC","Legal Department","10580 N McCarran Blvd 115-302,Reno,NV 89503","213-927-8007 ","legal@koreaitconsulting.com","Won Bae  Kim","Vice President","72-4 Yeongdeungpo-gu, Yeuido-Dong, Seoul, Korea","213-927-8007 ","wkim@koreaitconsulting.com","Technology"
"Delta Communications","2 N. Vine Street,Harrisburg,IL 62946","None","IL","Doug  Hoff","Regulatory Manager","6250 Shiloh Rd., Ste 110|Alpharetta, GA 30005","404-472-6241 ","doug@gsaudits.com","Damian  Simpson","Analyst","2 N. Vine St. Harrisburg, IL 62946","618-294-8077 ","dsimpson@corp.clearwave.com","Analyst"
"IdeaTek Telcom, LLC","111 Old Mill Lane,Buhler,KS 67522","Wildflower Telecommunications, LLC","KS","Cheryl  Hindman","Project Specialist","111 Old Mill Lane, Buhler KS 67522","620-543-5005 ","chindman@ideatek.com","Daniel  Friesen","CIO","111 Old Mill Lane, Buhler KS 67522","620-543-5003 ","daniel@ideatek.com","Executive"
"JSquared Telecom LLC","10807 Wickersham Lane,Houston,TX 77042","NONE","TX","Craig David Dingwall","Managing Member","1030 15th Street NW, B1-#157, Washington, DC 20005","703-862-3353 ","cddingwall@outlook.com","John  Spiller","CEO","10807 Wickersham Lane, Houston, TX 77042","281-755-9154 ","rpgleads@gmail.com","Operations"
"Q Link Wireless LLC","499 East Sheridan Street,Dania,FL 33004","NONE","AR, AZ, CO, GA, HI, IA, ID, IN, KS, KY, LA, MD, ME, MI, MN, MO, NV, OH, OK, PA, PR, RI, SC, TX, UT, VT, WA, WI, WV","Issa  Asad","Managing Member","499 E Sheridan Street, Suite 400, Dania FL 33004","800-610-1540 ","reg@qlinkwireless.com","Issa  Asad","Managing Member","499 E Sheridan Street, Suite 400, Dania FL 33004","800-610-1540 ","reg@qlinkwireless.com","none"
"Windstream Services II, LLC","4001 Rodney Parham Road,Little Rock,AR 72212","Nonw","AL, AR, AZ, CA, CO, CT, DE, FL, GA, HI, IA, ID, IL, IN, KS, KY, LA, MA, MD, ME, MI, MN, MO, MS, MT, NC, ND, NE, NH, NJ, NM, NV, NY, OH, OK, OR, PA, RI, SC, SD, TN, TX, UT, VA, VT, WA, WI, WV, WY","Edward John Cadieux","Counsel II","4001 N. Rodney Parham Rd., Little Rock, AR 72112","314-249-0216 ","Edward.Cadieux@windstream.com","Dewey  Detmers","Director - Voice Services/Access Management","4001 N. Rodney Parham Rd., Little Rock, AR","585-869-7992 ","dewey.detmers@windstream.com","Carrier Relations/Access Management"
"sms telecomm","1303 53rd street,brooklyn,NY 11219","SMS TELECOMM LLC","NY","Israel  Letzter","CFO","1303, 53rd street, Suite 103, Brooklyn, NY11219","718-435-4665 ","finance@smsconsortium.com","Dipankar  Pradhan","Dy COO","1303, 53rd street, Suite 103, Brooklyn, NY11219","718-509-3042 215","dipankar.pradhan@smsconsortium.com","VOICE"
"ATC Outdoor DAS, LLC","10 Presidential Way,Woburn,MA 1801","None","AZ, CA, CT, DE, DC, FL, GA, IL, IN, KS, KY, LA, MD, MA, MI, MN, MO, NV, NJ, NM, NY, NC, OK, OR, PA, RI, SC, TN, TX, VA, WA, WI","Lauren  Ramirez","Attorney","10 Presidential Way Woburn, MA 01801","781-926-4500 ","lauren.ramirez@americantower.com","Lauren  Ramirez","Attorney","10 Presidential Way Woburn, MA 01801","781-926-4500 ","lauren.ramirez@americantower.com","Managed Networks - Legal"
"TECHKNOWLEDGE OPEN SYSTEMS CC","SPACES BROADACRES WILLOWS BUSINESS, 220 THIRD AVENUE BROADACRES FOURWAYS, Gauteng, South Africa Johannesburg","None","NY, AA, AB, AE, WA, WI, WV, WY, CA, CH, CL, CM, CO, CO, CS, CT, NA, OA, OH, OK, ON, OR, OU, QC, QR, QT, RI, TB, TL, TM, TN, TX, YT, YU, UT, IA, ID, IL, IN, PA, PE, PR, PU, LA, KS, KY, JA, HG, HI, GA, GR, GT, GU, FL, FM, DC, DE, DF, DG, SC, SD, SI, SK, SL, SO, AG, AK, AL, AP, AR, AS, AS, AZ, ZA, VA, VE, VI, VT, BC, BC, BS, NB, NC, ND, NE, NH, NJ, NL, NL, NM, NS, NT, NU, NV, MA, MB, MD, ME, MH, MI, MI, MN, MO, MO, MP, MS, MT, MX","ASHRAF A KATHAWALA","Director","SPACES BROADACRES WILLOWS BUSINESS, 220 THIRD AVENUE BROADACRES FOURWAYS, Gauteng, Johannesburg, 2191","917-634-3502 ","accounts@techopensystems.co.za","ASHRAF A KATHAWALA","Director","SPACES BROADACRES WILLOWS BUSINESS, 220 THIRD AVENUE BROADACRES FOURWAYS Gauteng Johannesburg 2191 South Africa","917-634-3502 ","accounts@techopensystems.co.za","Administration"
"Vaya Telecom, Inc.","2865 Sunrise Ave., Suite 220,Rancho Cordova,CA 95742","None","CA, AK, AL, AR, AS, AZ, CO, CT, DC, DE, FL, GA, SO, GU, HI, IA, ID, IL, IN, KS, KY, LA, MA, MD, ME, MI, MN, MO, MS, MT, NC, ND, NE, NH, NJ, NM, NV, NY, OH, OK, OR, OU, PA, PR, RI, SC, SD, TN, TX, UT, VA, VI, VT, WA, WI, WV, WY","Michel  Singer Nelson","VP of Regulatory and Public Policy","4359 Town Center Blvd., Suite 217","916-235-2028 ","mnelson@o1.com","Nate  Lighthouse","Voice Engineer","4359 Town Center Blvd., Suite 217","916-235-2069 ","nlighthouse@o1.com","Network Operations"
"TOLY DIGITAL NETWORK, INC.","1005 Indiantown Road,Jupiter,FL 33458","Covoda communications","AL, AZ, CA, CO, CT, GA, IA, IL, IN, KS, KY, LA, ME, MI, MO, MS, NC, ND, NJ, NY, OR, PA, SD, TN, TX, UT, VA, VT, WA, WI, WY","Doug  Hoff","Senior Manager","6250 Shiloh Rd.  Suite 110, Alpharetta, GA 30005","404-472-6241 ","doug@gsaudits.com","Aaron  Suto","President","1005 W. INDIANTOWN RD, SUITE 201 JUPITER, FL 33458","561-694-8655 ","mark.suto@tolydigital.net","Sales"
"Juvo Technologies, LLC","518 North Main Street,Hattiesburg,MS 39401","None","MS, NE, NC, AL, LA","Shane  Smith","IT Director","518 North Main Street","888-300-1853 ","shane@juvotec.com","Shane  Smith","IT Director","518","888-300-1853 ","shane@juvotec.com","IT"
"Certain Communications","4101 East Louisiana Ave.,Denver,CO 80246","None","CT, AK, AL, AR, AS, AZ, CA, CO, DC, DE, FL, GA, HI, IA, ID, IL, IN, KS, KY, LA, MA, MD, ME, MI, MN, MO, MS, MT, NC, ND, NE, NH, NJ, NM, NV, NY, OH, OK, OR, PA, RI, SC, SD, TN, TX, UT, VA, VT, WA, WI, WV, WY","Todd  Steiner","CFO","607 Foothill Blvd Ste 425","310-775-8331 ","regulatory@certaincorp.net","Todd  Steiner","CFO","607 Foothill Blvd Ste 425","310-775-8331 ","regulatory@certaincorp.net","Finance"
"Wide Voice, LLC","410 South Rampart,Las Vegas,NV 89145","None","AL, AK, AZ, AR, CA, CO, CT, DE, DC, FL, GA, HI, ID, IL, IN, KS, KY, LA, ME, MD, MA, MI, MN, MO, MT, NE, NV, NH, NJ, NM, NY, NC, ND, OH, OK, OR, PA, RI, SC, SD, TN, TX, UT, VT, VA, WA, WV, WI, WY","Erla  Erlingsdottir","Senior Manager of Telephony Services","410 South Rampart, Suite 390, Las Vegas, NV 89145","702-913-1084 ","erlae@widevoice.com","Erla  Erlingsdottir","Senior Manager of Telephony Services","410 South Rampart, Suite 390, Las Vegas, NV 89145","702-913-1084 ","erlae@widevoice.com","Operations"
"Patriot Mobile LLC","3341 Regent Blvd,Irving,TX 75063","Eos Mobile Holdings, LLC","AK, AL, AZ, CA, CO, CT, DE, FL, GA, HI, IA, ID, IL, IN, KS, KY, LA, MA, MD, ME, MI, MN, MO, MS, MT, NC, ND, NE, NH, NJ, NM, NV, NY, OH, OK, OR, PA, RI, SC, SD, TN, TX, UT, VA, WA, WI, WV","Doug  Hoff","Senior Manager","6250 Shiloh Rd, STE 110, Alpharetta, GA 30005","404-472-6241 ","doug@gsaudits.com","Glenn  Story","CFO/ Managing Member","3341 Regent Blvd.  Ste 130-352  Irving,  TX 75063","877-367-7524 ","glenn@patriotmobile.com","Management"
"Frontier Communications Corporation","3 High Ridge Park,Stamford,CT 06905","None","AL, AZ, CA, CO, FL, GA, ID, IL, IN, IA, MI, MN, MS, MT, NE, NV, NM, NY, NC, OH, OR, PA, SC, TN, TX, UT, VA, WV, WA, WI","Diana L Eisner","Director, Federal Regulatory","1800 M St, NW, Suite 850S","203-614-4713 ","diana.eisner@ftr.com","Misty  McFarlin","Long Distance Engineering Supervisor","120 N Plymouth 3rd Floor   Rochester, NY 14608","585-777-2719 ","misty.mcfarlin@ftr.com","Engineering"
"Ready Wireless, LLC","955 Kacena Rd.,Hiawatha,IA 52233","None.","AK, AL, AR, AZ, CA, CO, CT, DC, DE, FL, GA, HI, IA, ID, IL, IN, KS, KY, LA, MA, MD, ME, MI, MN, MO, MS, MT, NC, ND, NE, NJ, NH, NM, NV, NY, OH, OK, OR, PA, PR, RI, SC, SD, TN, TX, UT, VA, WA, VT, WI, WV, WY","Doug  Hoff","Senior Manager","6250 Shiloh Rd., Suite 110, Alpharetta, GA 30005","404-472-6241 ","doug@gsaudits.com","Lori  Aller","Accountant","955 Kacena Rd. Suite A Hiawatha, IA 52233","319-743-4628 ","laller@readywireless.com","Accounting"
"Technology Visionaries LLC dba Prism Voi","321 Main Street,Woodbridge,NJ 07095","None","NJ","Albert J Gyomber","Founder and CEO","321 Main Street 1st Floor","732-587-5960 ","aj@technologyvisionaries.com","Albert J Gyomber","Founder & CEO","321 Main Street 1st Floor","732-587-5960 ","aj@technologyvisionaries.com","Main Office"
"Airespring, Inc.","7800 Woodley Ave,Van Nuys,CA 91406","None","AK, AL, WY, WI, WA, VT, AZ, CA, CO, CT, DC, DE, FL, AR, GA, IA, ID, IL, IN, KS, KY, LA, MA, MD, ME, MI, MN, MO, MS, MT, NC, ND, NE, NH, NY, NJ, NM, NV, OH, OK, OR, PA, RI, SC, SD, TX, TN, UT, VA, WV","Rod  Rummelsburg","General Counsel","7800 Woodley Ave., Van Nuys, CA 91406","818-738-1891 ","rod@airespring.com","Tim  Chenoweth","Voice LD","7800 Woodley Ave., Van Nuys, CA 91406","818-786-8990 ","tim.chenoweth@airespring.com","Customer Service"
"VoiceTerm, Inc.","1712 Pioneer Avenue,Cheyenne,WY 82001","None","AK, AL, AR, AZ, CA, CO, CT, DC, DE, FL, GA, HI, IA, ID, IL, IN, KS, KY, LA, MA, MD, ME, MI, MN, MO, MS, MT, NC, ND, NE, NH, NJ, NM, NV, NY, OH, OK, OR, PA, RI, SC, SD, TN, TX, UT, VA, VT, WA, WI, WV, WY, OU, GU, PR, VI","Kristopher E. Twomey","Registered D.C. Agent","1725 I Street, NW Suite 300 Washington, DC  20006","202-681-1850 ","ikris@lokt.net","Jack  Kaplan","RCC Compliance Officer","1712 Pioneer Ave Suite 500","702-602-0111 ","jack@voiceterm.com","RCC Compliance"
"Greenway Communications LLC","1114 Meadow Crest Lane,Mansfield,TX 76063","None","IA","Dana  Hoyle","Regulatory","817-724-2125","817-724-2125 ","dana@greenwaycom.com","Michael  Hatfield","President","1114 Meadow Crest Lane,","817-455-4704 ","michael@greenwaycom.com","Executive"
"Engage Holdings, LLC dbaIQventures","278 North Fifth Street,Columbus,OH 43215","None","AL, AZ, CA, FL, IN, KS, KY, MI, MO, MS, OH, OR, TN, UT, VA","Matt W Dean","Director of Regulatory Compliance","12316 Hidden Forest Boulevard, Oklahoma City, OK 73142","405-755-8177 ","mdean@telecompliance.net","Daniel D Easley","Managing Partner","278 North 5th Street, Columbus, OH 43215","614-379-6506 ","deasley@iqventures.com","Operations"
"Fore Street Telecom LLC","7 Custom House Street,Portland,ME 04101","NONE","GA, ME, NY","William  Spear","Chief Administrator","7 Custom House Street","207-756-0766 ","wspear@forestreettelco.com","Charles Mark Anderson","Chief Technology Officer","8 Rackley Drive, Greene, ME 04236","207-577-1899 ","cmanderson@icommconnect.com","None"
"PTGi International Carrier Services, Inc","125 Park Avenue,New York,NY 10017","none","OU","","","","","","","","","","",""
"None","11100 Valley Blvd,El Monte,CA 91731","None","CA","","","","","","","","","","",""
"Modok LLC","30421 Hamilton Trail,Trabuco Canyon,CA 92679","None","CA, AK, AR, AL, AZ, CO, CT, DE, DC, FL, GA, HI, IA, ID, IL, IN, KS, KY, LA, MA, ME, MD, MI, MN, MO, MS, MT, ND, NE, NV, NC, NY, NJ, NH, NM, OH, OR, OK, PA, RI, SC, SD, TN, TX, UT, VA, VT, WI, WA, WV, WY","","","","","","","","","","",""
"KWK Communications, Inc.","500 N. Rainbow Blvd.,Las Vegas,NV 89107","None.","NV, AK, AL, AR, AZ, CA, CO, CT, DC, DE, FL, GA, GU, HI, IA, ID, IL, IN, KS, KY, LA, MA, MD, ME, MH, MI, MN, MO, MS, MT, NC, ND, NE, NH, NJ, NM, NY, OH, OK, OR, PA, RI, SC, SD, TN, TX, UT, VA, VT, WA, WI, WV, WY","Doug  Hoff","Senior Manager","6250 Shiloh Rd., Suite 110, Alpharetta, GA 30005","404-472-6241 ","doug@gsaudits.com","Terrence  Kartch","Manager","500 N. Rainbow Blvd, Suite 300-T, Las Vegas, NV 89107","949-679-4500 ","tk@kwktel.com","Sales"
"Asia Access Telecom, Inc.","197 Route 18 South,East Brunswick,NJ 08816","None","OU","","","","","","","","","","",""
"upNetworx, Inc.","P.O. Box 780099,San Antonio,TX 78278","None","AL, AR, CA, CO, FL, GA, KS, KY, LA, MD, MI, MN, MS, MO, NV, NM, NC, OH, OK, PA, SC, TN, TX, UT, VA","Doug  Hoff","Senior Manager","6250 Shiloh Rd, STE 110, Alpharetta, GA 30005","404-472-6241 ","doug@gsaudits.com","Donald  Douglas","CEO","26118 Alto Oaks, San Antonio, TX 78255","855-893-2391 ","donsr@liquidnetworx.com","Officer"
"Belgacom International Carrier Services ","Boulevard Roi Albert II 27, Brussels, Belgium ","none","OU","","","","","","","","","","",""
"Spectrotel, Inc.","3535 State Highway 66,Neptune,NJ 07753","Plan B Communications, Inc.","OU, AK, AL, AR, AZ, CA, CO, CT, DC, DE, FL, GA, GU, HI, IA, ID, IL, IN, KS, KY, LA, MA, MD, ME, MI, MN, MO, MS, MT, NC, ND, NE, NH, NJ, NM, NV, NY, OH, OK, OR, PA, PR, RI, SC, TN, TX, UT, VA, WA, WI, WV, WY","Doug  Hoff","Senior Manager","6250 Shiloh Rd, STE 110, Alpharetta, GA 30005","404-472-6241 ","doug@gsaudits.com","David  Zahka","CFO","3535 Route 66, STE 7, Neptune, NJ 07753","732-345-7000 ","dzahka@spectrotel.com","Management"
"PD Fiber, LLC","2801 W State Hwy 84,Bragg City,MO 63827","none","MO","Jack  Davis","Vice President / CTO","2801 W. State Hwy 84, Bragg City, MO 63827","573-653-3651 ","jack@pemdunk.com","Jack  Davis","Vice President / CTO","2801 W. State Hwy 84, Bragg City, MO 63827","573-653-3651 ","jack@pemdunk.com","Operations"
"Hawaiian Telcom","1177 Bishop St Ste 17,Honolulu,HI 96813","none","HI","Steve  Golden","VP External Affairs","1177 Bishop St, Honolulu, HI 96813","808-546-3877 ","steven.golden@hawaiiantel.com","Marc  De Costa","Tier II POTS Manager","1177 Bishop St, Honolulu, HI 96813","808-546-3697 ","Marc.DeCosta@hawaiiantel.com","eNOC Monitoring & Surveillance"
"Cable One, Inc. d/b/a Sparklight","210 E. Earll Drive,Phoenix,AZ 85012","None","IN, IL","Emerson  Yearwood","Assoc. Gen. Counsel & Dir. Regulatory Affairs","210 E. Earll Drive, Phoenix, AZ 85012-2626","602-364-6195 ","emerson.yearwood@cableone.biz","Glenn  Baumgarth","Lead Systems Analyst","210 E. Earll Drive, Phoenix, AZ 85012-2626","602-364-6471 ","glenn.baumgarth@cableone.biz","Telephony"
"XCast Labs, Inc.","1880 Century Parke,Los Angeles,CA 90067","None","WY, WI, WV, AK, AL, AR, AZ, CA, CO, CT, DC, DE, FL, GA, WA, VT, VA, UT, TX, SD, SC, OK, TN, RI, PR, PA, NM, HI, IA, ID, IL, IN, KS, KY, LA, MA, MD, ME, MI, MN, MO, MS, NC, ND, NE, NH, OH, NY, NV, NJ, MT, OR, OU, VI","Stephen Dana Nelson","SVP, Operations","1880 Century Park East, Suite 1415, Los Angeles, CA 90067","310-861-4770 ","snelson@xcastlabs.com","Stephen Dana Nelson","SVP, Operations","1880 Century Park East, Suite 1415","310-861-4770 ","snelson@xcastlabs.com","Operations, Executive"
"NGN Latam, Corp.","624 Travis Street,Shreveport,LA 71101","None.","OR, WA, CA, AK, AL, AR, AZ, CO, CT, DC, DE, FL, GA, HI, IA, ID, IL, IN, KS, KY, LA, MD, MA, ME, MI, MN, MS, MT, MO, NC, ND, NE, NH, NJ, NM, NV, NY, OH, OK, PA, PR, RI, SC, SD, TN, TX, UT, VA, VT, WI, WV, WY","Doug  Hoff","Senior Manager","6250 Shiloh Rd.  Suite 110, Alpharetta, GA 30005","404-472-6241 ","doug@gsaudits.com","Tomas  Fuchs","Director","1110 BRICKELL AVE., STE .310 MIAMI FL 33131","305-785-4753 ","raul.fuchs@datora.net","Sales"
"Strongcord Infrastructure Systems Manage","6230 Shiloh Road, Suite 205,Alpharetta,GA 30005","None","AZ, GA, WA","Sean A Lawson","CEO","PO Box 2146 Clayton, GA 30525","877-761-2038 5001","sean.lawson@strongcordsystems.com","Andy  Winter","Director Technical Services","PO Box 2146 Clayton GA 30525","877-761-2038 5002","andy.winter@strongcordsystems.com","Technical Services"
"Comcast Phone, LLC","One Comcast Center,Philadelphia,PA 19103","Comcast Phone, LLC, DBA Comcast Digital Phone- AT&T Broadband Phone, LLC (2001-2002)

 Comcast IP Phone, LLC, DBA Comcast Digital Voice- Comcast IP Phone, Inc. (2002-2005)","AK, AL, AR, AZ, CA, CO, CT, DC, DE, FL, GA, HI, IA, ID, IL, IN, KS, KY, LA, MA, MD, ME, MI, MN, MO, MS, MT, NC, ND, NE, NH, NJ, NM, NV, NY, OH, OK, OR, PA, RI, SC, SD, TN, TX, UT, VA, VT, WA, WI, WV, WY, GU, VI, AS","Beth  Choroser","Vice President","300 New Jersey Ave. NW, Washington, DC 20001","202-379-7141 ","Beth_Choroser@Comcast.com","Andrew  Fisher","Senior Deputy General Counsel","One Comcast Center, 55th Floor, Philadelphia, PA 19103","215-286-3039 ","Andrew_Fisher@Comcast.com","Legal Regulatory"
"Vexus Fiber","912 S. Main,Sikeston,MO 63801","None","AZ, NM, OK, TX","Jessica  Salazar","Director - Billing and Regulatory Administration","1220 Broadway, Lubbock, TX 79401","806-797-0687 ","jessica.salazar@ntscom.com","William  Morrow","President","1220 Broadway, Lubbock, TX  79401","806-797-0687 ","bill.morrow@ntscom.com","Executive"
"NovoLink Communications","699 S. Friendswood Drive,Friendswood,TX 77546","None","AA, AB, AE, AG, AK, AL, AP, AR, AS, AS, AS, AZ, BC, BC, BS, CA, CH, CL, CM, CO, CO, CS, CT, DC, DE, DF, DG, FL, FM, GA, GR, GT, GU, GU, HG, HI, IA, ID, IL, IN, JA, KS, KY, LA, MA, MB, MD, ME, MH, MI, MI, MN, MO, MO, MP, MP, MS, MT, MX, NA, NB, NC, ND, NE, NH, NJ, NL, NL, NM, NS, NT, NU, NV, NY, OA, OH, OK, ON, OR, OU, PA, PE, PR, PR, PU, QC, QR, QT, RI, SC, SD, SI, SK, SL, SO, TB, TL, TM, TN, TX, UT, VA, VE, VI, VI, VT, WA, WI, WV, WY, YT, YU, ZA","Jeremy  Thames","NOC Manager","699 S Friendswood Dr Ste 103 Friendswood TX 77546","281-652-4888 ","regulatory@novolink.com","Jeremy  Thames","NOC Manager","699 S. Friendswood Drive Suite 103 Friendswood TX 77546","281-652-4888 ","regulatory@novolink.com","Operations"
"Business Telecommunication Services Inc","2620 SW 27 Avenue,miami,FL 33133","None","FL, AA, AK, AE, AL, AR, AP, AZ, AS, CO, CA, CT, DC, DE, FM, GA, SO, GU, HI, IA, ID, IL, IN, KY, KS, LA, MA, MD, ME, MH, MI, MO, MP, MS, MN, NC, MT, ND, NE, NH, NJ, NM, NY, NV, OK, OH, OR, OU, PA, PR, RI, SD, SC, TN, UT, TX, VI, VA, VT, WA, WI, WV, WY","Steve  Augustino","Attorney","Washington Harbour, Suite 400","202-342-8400 ","legal@bts.io","Fernando  Abras","Attorney","2620 SW 27th Ave","786-664-6811 ","legal@bts.io","Legal"
"XConnect Global Networks Ltd.","316 Regents Park Road, London, United Kingdom ","none","NY","Neil  Cohen","Finance Director","316 Regents Park Road, London, N3 2JX, United Kingdom","908-359-2233 ","ncohen@xconnect.net","Laura  Perez","Financial Controller","316 Regents Park Road, London, N3 2JX, United Kingdom","908-359-2233 ","laura.perez@xconnect.com","Finance"
"Peerless Network","433 W. Van Buren,Chicago,IL 60607","None","AK, AL, AZ, CA, CO, CT, DC, DE, FL, GA, IA, ID, IL, IN, KS, KY, LA, MA, MD, ME, MI, MN, MO, MS, NC, MT, ND, NE, NH, NJ, NM, NV, NY, OH, OK, OR, PA, RI, SC, SD, TN, TX, UT, VA, VT, WA, WI, WV, WY, OU, AR, PR, GU","Julie  Oost","VP, Regulatory and Contracts","222 South Riverside Plaza, Suite 1900, Chicago, IL 60606","312-878-4137 ","regulatory@peerlessnetwork.com","Pat  Phipps","Director, Regulatory","222 South Riverside Plaza, Suite 1900, Chicago, IL 60606","312-506-0933 ","support@peerlessnetwork.com","Regulatory"
"U.S. TelePacific Corp. d/b/a TPx Communi","303 Colorado St.,Austin,TX 78701","None","CA, NV, NM","William (Bill)  Hunt","General Counsel, SVP & Secretary","10333 East Dry Creek Rd. Ste. 170, Englewood, CO 80112","303-268-5420 ","william.hunt@tpx.com","Carroll  Davis","Director - Network Operations Center","3300 N. Cimarron Rd., Las Vegas, NV 89129","702-316-6775 ","cadavis@tpx.com","Network Operations Center"
"Telmate, LLC","3120 Fairview Park Drive,Falls Church,VA 22042","NONE","AL, AZ, CA, CO, FL, GA, ID, IN, KY, LA, MI, MO, MT, NE, NV, NJ, NM, NY, NC, OK, OR, RI, SC, SD, TN, TX, UT, WA, WI, WY","Steve  Montanaro","Vice President","3120 Fairview Park Drive, Suite 300, Falls Church VA 22042","813-380-1513 ","steve.montanaro@gtl.net","Steve  Montanaro","Vice President","3120 Fairview Park Drive, Suite 300, Falls Church VA 22042","813-380-1513 ","steve.montanaro@gtl.net","None"
"Sequre LLC","1900 E. Chestnut Expressway,Springfield,MO 65802","None","IL, IN, KS, MO","Craig  Lubbers","VP of Finance","1900 E. Chestnut Expressway Springfield, Missouri, 65802","314-645-6200 ","craig.lubbers@techelectronics.com","Craig  Lubbers","VP of Finance","1900 E. Chestnut Expressway Springfield, Missouri, 65802","314-645-6200 ","craig.lubbers@techelectronics.com","none"
"Ekofon, Inc.","1321 Upland Dr,Houston,TX 77043","None","OU","Susan  Cockerham","Legal","1725 Windward Concourse","678-672-2837 ","scockerham@fastekteam.com","Susan  Cockerham","Legal","1725 Windward Concourse","678-672-2837 ","scockerham@fastekteam.com","Legal"
"CARRIER CONNECT CORPORATION","3948 Legacy Drive,Plano,TX 75023","none","KS, TX, WA, AL, AR, AZ, CA, CO, CT, DC, DE, FL, GA, IA, ID, IL, IN, KY, LA, MA, MD, ME, MI, MN, MO, MS, MT, NC, ND, NE, NH, NJ, NM, NV, NY, OH, OR, OK, PA, RI, SC, SD, TN, UT, VA, VT, WI, WV, WY, AK, HI","Patrick  Sheehan","President","3948 Legacy Drive, Suite 106 PMB 325, Plano, TX  75023","214-872-2933 ","pat@ccctelecom.com","Patrick  Sheehan","President","3948 Legacy Drive, Suite 106 PMB 325, Plano, TX  75023","214-872-2933 ","pat@ccctelecom.com","Telecommunications"
"Executive","1720 Miriam St,Pittsburgh,PA 15218","None","AL, AK, AZ, AR, CA, CO, CT, DE, GU, FL, GA, HI, ID, IL, IN, IA, KS, KY, LA, ME, MD, MA, MI, MN, MS, MO, MT, NE, NV, NH, NJ, NM, NY, NC, ND, OH, OK, OR, AS, PA, RI, SC, SD, TN, DC, TX, UT, PR, VT, VA, WA, WV, WI, WY, VI, MP","Finance  Dept","Finance","1720 Miriam St","412-638-6269 ","finance@iptransferllc.net","Finance  Dept","Finance","1720 Miriam St","412-638-6269 ","finance@iptransferllc.net","Finance"
"Custom Tel, LLC","698.5 South Ogden St,Buffalo,NY 14206","NONE","NY, PA","Dan  Coloney","President","698.5 South Ogden Street, Buffalo, NY 14206","585-455-3461 ","dcoloney@custom-tel.com","Dan  Coloney","President","698.5 South Ogden Street, Buffalo, NY 14206","585-455-3461 ","dcoloney@custom-tel.com","None"
"Lumen Technologies, Inc.","100 CenturyLink Drive,Monroe,LA 71203","CenturyTel Long Distance, LLC 
Coastal Long Distance Services LLC  
Embarq Communications, Inc.  
Sprint Long Distance  
Gulf Long Distance LLC 
Madison River Long Distance Solutions LLC 
Gallatin River Long Distance
MebTel Long Distance Solutions LLC 
Qwest Long Distance 
Vyvx, Inc.
Savannah River Communications, LLC
Qwest Communications Company, LLC","AK, AL, AZ, AR, CA, CO, CT, DE, DC, FL, GA, HI, GU, AS, ID, IL, IN, IA, KS, KY, LA, ME, MD, MA, MI, MN, MO, NE, NV, NH, MS, NJ, NM, NY, NC, ND, OH, OK, OR, PA, MT, PR, RI, SC, SD, TN, TX, UT, VI, VT, VA, WA, WV, WI, WY, OU, FM, MH, MP","Joseph  Cavender","ASSOCIATE GENERAL COUNSEL","1220 L ST NW, DCL001, WASHINGTON DC 20005-4018","571-730-6533 ","joseph.cavender@centurylink.com","Philip  Linse","Director, Public Policy","700 W. Mineral Ave., Littleton, CO 80120","303-707-3844 ","philip.linse@lumen.com","PUBLIC POLICY & COMPLIANCE"
"ExteNet Systems, Inc","3030 Warrenville Rd,Lisle,IL 60532","ExteNet Systems (California), LLC   Exten Systems (Virginia) LLC","AL, AK, AZ, CA, CO, CT, DE, DC, FL, GA, ID, IL, IN, IA, KS, KY, LA, ME, MD, MA, MI, MN, MO, NV, NJ, NM, NY, NC, ND, OH, OK, OR, PA, RI, SC, TN, TX, UT, VA, WA, WI","Scotty  Amos","Authorized Agent","2640 Youree Dr., Suite 100   Shreveport, LA 71104","318-429-7552 ","samos@rbm.com","Donna  Cahill","Tax Director","3030 Warrenville Rd., Suite 240   Lisle, IL 60532","630-245-2129 ","dcahill@extenetsystems.com","Tax"
"Windstream Communications, Inc.","4001 N Rodney Parham Rd,Little Rock,AR 72212","Windstream Communications; Windstream Communications, LLC","AL, AR, AZ, CA, CO, CT, DE, FL, GA, HI, IA, ID, IL, IN, KS, KY, LA, MA, MD, ME, MI, MN, MO, MS, MT, NC, ND, NE, NJ, NM, NV, NY, OH, OK, OR, PA, RI, SC, SD, TN, TX, UT, VA, VT, WA, WI, WV, WY","Edward John Cadieux","Counsel II","4001 N. Rodney Parham Rd., Little Rock, AR 72112","314-249-0216 ","Edward.Cadieux@windstream.com","Dewey  Detmers","Director - Voice Services","4001 N. Rodney Parham Rd., Little Rock, AR 72112","585-869-7992 ","dewey.detmers@windstream.com","Carrier Relations/Access Management"
"Iowa Network Services, Inc. d/b/a Aureon","7760 Office Plaza Drive S,West Des Moines,IA 50266","None","IA","Chris  Davis","Regulatory Manager","7760 Office Plaza Drive South","515-830-0408 ","Chris.Davis@aureon.com","Chris  Davis","Regulatory Manager","7760 Office Plaza Drive South","515-830-0408 ","Chris.Davis@aureon.com","Regulatory"
"Talkie Communications, Inc.","99 Talbot Boulevard,Chestertown,MD 21620","Sonic Systems, Inc.","AZ, CA, CO, DE, DC, FL, ID, IL, IA, KS, MD, MA, MO, NV, NJ, NY, NC, OH, OR, PA, RI, TN, TX, VA, WI, WY","Scotty  Amos","Authorized Agent","2640 Youree Dr., Suite 100  Shreveport, LA 71101","318-429-7552 ","samos@rbm.com","Andre  DeMattia","COO","99 Talbot Boulevard  Chestertown, MD 21620","800-399-3493 ","sales@talkiefiber.com","All"
"Accessline Communications Corporation","100 Mathilda Place, Suite 600,Sunnyvale,CA 94086","None","AL, AK, AZ, AR, CA, CO, CT, DE, GA, HI, ID, IL, IN, IA, KS, KY, LA, ME, MD, MA, MI, MN, MS, MO, MT, NE, NV, NH, NJ, NM, NY, NC, ND, OH, OK, OR, PA, PR, RI, SC, SD, TN, TX, UT, VT, VA, WA, WV, WI, WY","Susan C Desgrousilliers","Senior Regulatory & Compliance Tax Manager","100 Mathilda Place, Suite 600","650-352-4216 ","sdesgrousilliers@intermedia.net","Michael  Fischer","Senior VP Voice Services Operations","3310 146th Place SE, Bellevue, WA 98007","206-621-3500 ","mfischer@intermedia.net","Voice Services Operations"
"IM Telecom LLC dba Infiniti Mobile","500 N Central Expressway,Plano,TX 75074","None","OK","Paul  LaPier","VP of Finance","13601 Preston Road, Suite 816E, Dallas TX 75240","866-898-8881 ","plapier@infinitimobile.com","Paul  LaPier","VP of Finance","13601 Preston Road, Suite 816E, Dallas TX 75240","866-898-8881 ","plapier@infinitimobile.com","none"
"CBTS Technology Solutions LLC","221 E. Fourth Street,Cincinnati,OH 45202","Cincinnati Bell Any Distance Inc.
eVolve Business Solutions LLC","AL, AK, AZ, AR, CA, CO, CT, DE, FL, GA, ID, IL, IN, IA, KS, KY, LA, ME, MD, MA, MI, MN, MS, MO, MT, NE, NV, NH, NJ, NM, NY, NC, ND, OH, OK, OR, PA, RI, SC, SD, TN, TX, UT, VT, VA, WA, WV, WI, WY","Michael  Bishop","Sr Switched Services & Regulatory Mgr","221 East Fourth Street, 103-1080, Cincinnati, Ohio 45202","513-397-1231 ","mike.bishop@cinbell.com","Kimberly  Zdinak","Venfor Manager","221 East Fourth Street, 103-1100, Cincinnati, Ohio 45202","866-661-6931 ","kimberly.zdinak@cbts.com","Voice/Data Network Support"
"James Valley Telecommunications","234 E 1st Ave,Groton,SD 57445","None","SD","David  Carter","Attorney","1200 Nineteenth Street, N.W. Suite 500 Washington, DC  20036","202-857-4593 ","David.Carter@wbd-us.com","James  Groft","CEO","235 E 1st Ave, Groton, SD  57445","605-725-1054 ","james.groft@corp.nvc.net","Executive"
"Voxbeam","6314 Kingspointe Pkwy,ORLANDO,FL 32819","None","AA, AE, AK, AL, AP, AR, AS, AZ, CA, CO, CT, DC, DE, FL, FM, GA, SO, GU, HI, IA, ID, IL, IN, KS, KY, LA, MA, MD, ME, MH, MI, MN, MO, MP, MS, MT, NC, ND, NE, NH, NJ, NM, NV, NY, OH, OK, OR, OU, PA, PR, RI, SC, SD, TN, TX, UT, VA, VI, VT, WA, WI, WV, WY","Ryan  Rapolti","President","6314 Kingspointe Pkwy, suite 1","407-209-3981 ","Clec@voxbeam.com","Ryan  Rapolti","President","6314 Kingspointe Pkwy","386-214-8141 ","legal@voxbeam.com","Executive"
"Corporation","100 Mathilda Place, Suite 600,Sunnyvale,CA 94086","None","AK, AL, AR, AZ, CA, CO, CT, DC, DE, FL, GA, HI, IA, ID, IL, IN, KS, KY, LA, MA, MD, ME, MI, MS, MN, MO, MT, NC, ND, NE, NH, NJ, NM, NV, NY, OH, OK, OR, PA, RI, SC, SD, TN, TX, UT, VA, VT, WA, WI, WV","Susan  Desgrousilliers","Senior Regulatory Tax Manager","100 Mathilda Place Suite 600","650-352-4216 ","sdesgrousilliers@intermedia.net","Michael  Fischer","Vice President, Voice Service Operations","100 Mathilda Place, Suite 600","206-686-5235 ","MFischer@intermedia.net","Operations"
"Telia Carrier AB","Stjarntorget 1, 169 94, Solna, Sweden ","Telia International Carrier Inc. and TeliaSonera International Carrier Inc.","OU","Brian  McHugh","Senior Corporate Legal Counsel","2325 Dulles Corner Blvd., Suite 550, Herndon, VA 20171","703-927-1926 ","brian.mchugh@teliacompany.com","Michael  Foti","Regional Director Americas, Voice","2325 Dulles Corner Blvd., Suite 550, Herndon, VA","202-744-8627 ","michael.foti@teliacompany.com","Voice Trading Sales"
"","95-390 Kuahelani Avenue,Mililani,HI 96789","none","AL, AK, AZ, AR, CA, CO, CT, DE, GU, FL, GA, HI, ID, IL, IN, IA, KS, KY, LA, ME, MD, MA, MI, MN, MS, MO, MT, NE, NV, NH, NJ, NM, NY, NC, ND, OH, OK, OR, AS, PA, RI, SC, SD, TN, DC, TX, UT, PR, VT, VA, WA, WV, WI, WY, VI, MP","","","","","","","","","","",""
"Telfast LLC","1309 Coffeen Avenue STE 1200,Sheridan,WY 82801","None","WY","","","","","","","","","","",""
"Voiztell LTD","2060 East, 19th street, Ste 5A, Brooklyn, United States NY","None","OU","","","","","","","","","","",""
"My Country Mobile Pte Ltd","8 Temasek Boulevard #32-01 Suntec Tower Three, Singapore, Singapore ","NONE","AL, AK, AZ, AR, CA, CO, CT, DE, GU, FL, GA, HI, ID, IL, IN, IA, KS, KY, LA, ME, MD, MA, MI, MN, MS, MO, MT, NE, NV, NH, NJ, NM, NY, NC, ND, OH, OK, OR, AS, PA, RI, SC, SD, TN, DC, TX, UT, PR, VT, VA, WA, WV, WI, WY, VI, MP","Mahmadhanif S Tai","President","8 Temasek Boulevard #32-01 Suntec Tower Three","917-444-7881 ","haniftai@mycountrymobile.com","Mahmadhanif S Tai","President","8 Temasek Boulevard #32-01 Suntec Tower Three","917-444-7881 ","haniftai@mycountrymobile.com","Legal"
"Jive Technology Inc dba Current Networks","225 S Ocean Ave,Cayucos,CA 93430","None","CA","Matthew  Holder","CEO","225  S Ocean Ave, Cayucos CA 93430","805-782-1005 ","billing@current-networks.com","Matthew  Holder","CEO","225 S Ocean Ave, Cayucos CA 93430","805-782-1005 ","billing@current-networks.com","Administration"
