"devicenettype","devicenetworktype","deviceroaming","devicesignalstrength","latencyaverage","latencystatus","downloadspeed","downloadstatus","islatency","uploadspeed","uploadstatus","devicenetop","devicesimop","addresszip","latitude","longitude","location"
"0","GSM","false","-61","125.8","success","3562.78","success","false","729.95","success","Verizon Wireless","Verizon Wireless","80215","39.72","-105.1","(39.72, -105.1)"
"0","GSM","false","-59","119","success","2963.48","success","false","742.8","success","Verizon Wireless","Verizon Wireless","80215","39.72","-105.1","(39.72, -105.1)"
"0","GSM","false","-57","118.8","success","3670.41","success","false","746.34","success","Verizon Wireless","Verizon Wireless","80215","39.72","-105.1","(39.72, -105.1)"
"0","GSM","false","-57","119.8","success","3549.7","success","false","742.99","success","Verizon Wireless","Verizon Wireless","80215","39.72","-105.1","(39.72, -105.1)"
"1xEVDO REVA","CDMA","false","-57","280.39999999999998","success","10172.9","success","false","847.81","success","Sprint","Sprint","80906","38.79","-104.8","(38.79, -104.8)"
"1xEVDO REVA","CDMA","false","-55","167.8","success","10023.469999999999","success","false","847.01","success","Sprint","Sprint","80906","38.79","-104.79","(38.79, -104.79)"
"1xEVDO REVA","CDMA","false","-81","141.80000000000001","success","9659.7900000000009","success","false","932.51","success","Sprint","Sprint","80907","38.89","-104.84","(38.89, -104.84)"
"1xEVDO REVA","CDMA","false","-79","158.80000000000001","success","10873.19","success","false","914.23","success","Sprint","Sprint","80907","38.89","-104.84","(38.89, -104.84)"
"1xEVDO REVA","CDMA","false","-55","143.80000000000001","success","8870.14","success","false","955.72","success","Sprint","Sprint","80919","38.94","-104.87","(38.94, -104.87)"
"1xEVDO REVA","CDMA","false","-55","151.4","success","8319.61","success","false","874.68","success","Sprint","Sprint","80919","38.94","-104.87","(38.94, -104.87)"
"1xEVDO REVA","CDMA","false","-55","233","success","3030.83","success","false","584.97","success","Sprint","Sprint","80920","38.94","-104.8","(38.94, -104.8)"
"1xEVDO REVA","CDMA","false","-55","236.4","success","4331.4799999999996","success","false","657.3","success","Sprint","Sprint","80920","38.94","-104.8","(38.94, -104.8)"
"1xEVDO REVA","GSM","false","-77","454","success","375.3","success","false","132.43","success","Verizon Wireless","Verizon Wireless","80020","39.92","-105.11","(39.92, -105.11)"
"1xEVDO REVA","GSM","false","-57","448","success","823.31","success","false","240.31","success","Verizon Wireless","Verizon Wireless","80112","39.590000000000003","-104.88","(39.59, -104.88)"
"1xEVDO REVA","GSM","false","-87","238.8","success","616.61","success","false","375.67","success","Verizon Wireless","Verizon Wireless","80132","39.06","-104.85","(39.06, -104.85)"
"1xEVDO REVA","GSM","false","-61","320.8","success","244.82","success","false","400.44","success","Verizon Wireless","Verizon Wireless","80223","39.72","-105.01","(39.72, -105.01)"
"1xEVDO REVA","GSM","false","-73","332.2","success","869.12","success","false","401.49","success","Verizon Wireless","Verizon Wireless","80303","40","-105.25","(40.0, -105.25)"
"1xEVDO REVA","GSM","false","-75","275.60000000000002","success","434.74","success","false","311.25","success","Verizon Wireless","Verizon Wireless","80420","39.229999999999997","-106.1","(39.23, -106.1)"
"1xEVDO REVA","GSM","false","-93","427.4","success","259.58999999999997","success","false","257.02","success","Verizon Wireless","Verizon Wireless","80446","39.89","-105.77","(39.89, -105.77)"
"1xEVDO REVA","GSM","false","-97","423","success","673.59","success","false","188.11","success","Verizon Wireless","Verizon Wireless","80447","40.01","-105.93","(40.01, -105.93)"
"1xEVDO REVA","GSM","false","-79","398.6","success","1203.46","success","false","300.08","success","Verizon Wireless","Verizon Wireless","80482","39.880000000000003","-105.75","(39.88, -105.75)"
"1xEVDO REVA","GSM","false","-65","156.4","success","11354.14","success","false","877.69","success","Verizon Wireless","Verizon Wireless","80809","38.86","-104.92","(38.86, -104.92)"
"1xEVDO REVA","GSM","false","-113","912.8","success","165.57","success","false","12.14","success","Verizon Wireless","Verizon Wireless","80814","38.99","-105.14","(38.99, -105.14)"
"1xEVDO REVA","GSM","false","-95","631.4","success","204.99","success","false","145.63","success","Verizon Wireless","Verizon Wireless","80814","38.99","-105.14","(38.99, -105.14)"
"1xEVDO REVA","GSM","false","-77","293","success","816.19","success","false","372.83","success","Verizon Wireless","Verizon Wireless","80814","38.94","-105.15","(38.94, -105.15)"
"1xEVDO REVA","GSM","false","-51","835.4","success","158.91","success","false","103.87","success","Verizon Wireless","Verizon Wireless","80817","38.71","-104.7","(38.71, -104.7)"
"1xEVDO REVA","GSM","false","-99","380","success","340.44","success","false","108.42","success","Verizon Wireless","Verizon Wireless","80829","38.85","-104.89","(38.85, -104.89)"
"1xEVDO REVA","GSM","false","-79","501.4","success","455.8","success","false","231.95","success","Verizon Wireless","Verizon Wireless","80829","38.85","-104.89","(38.85, -104.89)"
"1xEVDO REVA","GSM","false","-69","170.8","success","4195.71","success","false","821.43","success","Verizon Wireless","Verizon Wireless","80829","38.86","-104.88","(38.86, -104.88)"
"1xEVDO REVA","GSM","false","-65","301.39999999999998","success","4328.1899999999996","success","false","514.16","success","Verizon Wireless","Verizon Wireless","80829","38.85","-104.89","(38.85, -104.89)"
"1xEVDO REVA","GSM","false","-61","597.20000000000005","success","199.49","success","false","0","timeout","Verizon Wireless","Verizon Wireless","80829","38.85","-104.9","(38.85, -104.9)"
"1xEVDO REVA","GSM","false","-105","1175.4000000000001","success","93.22","success","false","0","error","Verizon Wireless","Verizon Wireless","80831","38.93","-104.61","(38.93, -104.61)"
"1xEVDO REVA","GSM","false","-97","826.2","success","634.23","success","false","91.84","success","Verizon Wireless","Verizon Wireless","80831","38.93","-104.63","(38.93, -104.63)"
"1xEVDO REVA","GSM","false","-95","455","success","394.93","success","false","64.739999999999995","success","Verizon Wireless","Verizon Wireless","80831","38.93","-104.61","(38.93, -104.61)"
"1xEVDO REVA","GSM","false","-91","606.6","success","45.91","success","false","0","error","Verizon Wireless","Verizon Wireless","80831","38.93","-104.6","(38.93, -104.6)"
"1xEVDO REVA","GSM","false","-89","1246.4000000000001","success","422","success","false","129.47999999999999","success","Verizon Wireless","Verizon Wireless","80831","38.97","-104.62","(38.97, -104.62)"
"1xEVDO REVA","GSM","false","-85","242.4","success","1476","success","false","396.65","success","Verizon Wireless","Verizon Wireless","80831","38.950000000000003","-104.59","(38.95, -104.59)"
"1xEVDO REVA","GSM","false","-67","274.8","success","2375.1799999999998","success","false","478.13","success","Verizon Wireless","Verizon Wireless","80831","38.950000000000003","-104.59","(38.95, -104.59)"
"1xEVDO REVA","GSM","false","-105","603.20000000000005","success","449.91","success","false","64.06","success","Verizon Wireless","Verizon Wireless","80863","39","-105.07","(39.0, -105.07)"
"1xEVDO REVA","GSM","false","-101","468.8","success","813.63","success","false","29.43","success","Verizon Wireless","Verizon Wireless","80863","39","-105.07","(39.0, -105.07)"
"1xEVDO REVA","GSM","false","-101","638.6","success","1035.18","success","false","201.36","success","Verizon Wireless","Verizon Wireless","80863","39","-105.07","(39.0, -105.07)"
"1xEVDO REVA","GSM","false","-101","1394.8","success","398.03","success","false","90.58","success","Verizon Wireless","Verizon Wireless","80863","39","-105.07","(39.0, -105.07)"
"1xEVDO REVA","GSM","false","-99","704.2","success","754.14","success","false","180.03","success","Verizon Wireless","Verizon Wireless","80863","39","-105.07","(39.0, -105.07)"
"1xEVDO REVA","GSM","false","-99","711.4","success","407.17","success","false","171.9","success","Verizon Wireless","Verizon Wireless","80863","39","-105.07","(39.0, -105.07)"
"1xEVDO REVA","GSM","false","-99","774","success","766.2","success","false","180.12","success","Verizon Wireless","Verizon Wireless","80863","39","-105.07","(39.0, -105.07)"
"1xEVDO REVA","GSM","false","-99","1195","success","73.349999999999994","success","false","0","error","Verizon Wireless","Verizon Wireless","80863","39","-105.07","(39.0, -105.07)"
"1xEVDO REVA","GSM","false","-99","2349","success","74.36","success","false","0","error","Verizon Wireless","Verizon Wireless","80863","39","-105.07","(39.0, -105.07)"
"1xEVDO REVA","GSM","false","-91","406.4","success","207.78","success","false","93.21","success","Verizon Wireless","Verizon Wireless","80863","38.89","-105.06","(38.89, -105.06)"
"1xEVDO REVA","GSM","false","-91","1017.2","success","41.35","success","false","235.81","success","Verizon Wireless","Verizon Wireless","80863","38.96","-105.08","(38.96, -105.08)"
"1xEVDO REVA","GSM","false","-69","218.4","success","322.3","success","false","338.39","success","Verizon Wireless","Verizon Wireless","80902","38.75","-104.81","(38.75, -104.81)"
"1xEVDO REVA","CDMA","false","-65","343.8","success","2253.44","success","false","503.45","success","Verizon Wireless","Verizon Wireless","80903","38.840000000000003","-104.81","(38.84, -104.81)"
"1xEVDO REVA","CDMA","false","-59",,"Error",,,"true",,,"Verizon Wireless","Verizon Wireless","80903","38.840000000000003","-104.81","(38.84, -104.81)"
"1xEVDO REVA","GSM","false","-113","433","success","294.87","success","false","179.5","success","Verizon Wireless","Verizon Wireless","80903","38.82","-104.82","(38.82, -104.82)"
"1xEVDO REVA","GSM","false","-113","515.6","success","518.09","success","false","44.86","success","Verizon Wireless","Verizon Wireless","80903","38.82","-104.82","(38.82, -104.82)"
"1xEVDO REVA","GSM","false","-113","1288","success","281.92","success","false","73.14","success","Verizon Wireless","Verizon Wireless","80903","38.82","-104.82","(38.82, -104.82)"
"1xEVDO REVA","GSM","false","-111",,"error","77.599999999999994","success","false","0","timeout","Verizon Wireless","Verizon Wireless","80903","38.82","-104.82","(38.82, -104.82)"
"1xEVDO REVA","GSM","false","-103","276","success","596.1","success","false","243.24","success","Verizon Wireless","Verizon Wireless","80903","38.82","-104.81","(38.82, -104.81)"
"1xEVDO REVA","GSM","false","-103","640","success","538.03","success","false","41.29","success","Verizon Wireless","Verizon Wireless","80903","38.82","-104.83","(38.82, -104.83)"
"1xEVDO REVA","GSM","false","-103","738.6","success","117.64","success","false","23","success","Verizon Wireless","Verizon Wireless","80903","38.82","-104.81","(38.82, -104.81)"
"1xEVDO REVA","GSM","false","-101","828.8","success","186.48","success","false","0","timeout","Verizon Wireless","Verizon Wireless","80903","38.85","-104.82","(38.85, -104.82)"
"1xEVDO REVA","GSM","false","-101","1472.2","success","113.39","success","false","0","timeout","Verizon Wireless","Verizon Wireless","80903","38.85","-104.82","(38.85, -104.82)"
"1xEVDO REVA","GSM","false","-99","466.6","success","127.36","success","false","0","error","Verizon Wireless","Verizon Wireless","80903","38.840000000000003","-104.8","(38.84, -104.8)"
"1xEVDO REVA","GSM","false","-97","369.6","success","254.33","success","false","72.34","success","Verizon Wireless","Verizon Wireless","80903","38.82","-104.82","(38.82, -104.82)"
"1xEVDO REVA","GSM","false","-97","407.2","success","647.61","success","false","246.55","success","Verizon Wireless","Verizon Wireless","80903","38.82","-104.82","(38.82, -104.82)"
"1xEVDO REVA","GSM","false","-95","258.2","success","287.05","success","false","30.75","success","Verizon Wireless","Verizon Wireless","80903","38.82","-104.81","(38.82, -104.81)"
"1xEVDO REVA","GSM","false","-95","307.8","success","496.9","success","false","339.44","success","Verizon Wireless","Verizon Wireless","80903","38.85","-104.8","(38.85, -104.8)"
"1xEVDO REVA","GSM","false","-95","367.2","success","742.88","success","false","277.08","success","Verizon Wireless","Verizon Wireless","80903","38.82","-104.82","(38.82, -104.82)"
"1xEVDO REVA","GSM","false","-95","477","success","153.41999999999999","success","false","24.45","success","Verizon Wireless","Verizon Wireless","80903","38.83","-104.82","(38.83, -104.82)"
"1xEVDO REVA","GSM","false","-95","494.8","success","385.14","success","false","167.37","success","Verizon Wireless","Verizon Wireless","80903","38.82","-104.81","(38.82, -104.81)"
"1xEVDO REVA","GSM","false","-95","511.8","success","450.44","success","false","75.88","success","Verizon Wireless","Verizon Wireless","80903","38.82","-104.82","(38.82, -104.82)"
"1xEVDO REVA","GSM","false","-93","242.2","success","365.94","success","false","268.52999999999997","success","Verizon Wireless","Verizon Wireless","80903","38.82","-104.81","(38.82, -104.81)"
"1xEVDO REVA","GSM","false","-93","279.39999999999998","success","634.37","success","false","434.81","success","Verizon Wireless","Verizon Wireless","80903","38.85","-104.81","(38.85, -104.81)"
"1xEVDO REVA","GSM","false","-93","377","success","1091.4000000000001","success","false","296.83","success","Verizon Wireless","Verizon Wireless","80903","38.83","-104.81","(38.83, -104.81)"
"1xEVDO REVA","GSM","false","-93","506.2","success","346.36","success","false","32.24","success","Verizon Wireless","Verizon Wireless","80903","38.82","-104.8","(38.82, -104.8)"
"1xEVDO REVA","GSM","false","-93","524.79999999999995","success","108.73","success","false","0","error","Verizon Wireless","Verizon Wireless","80903","38.82","-104.81","(38.82, -104.81)"
"1xEVDO REVA","GSM","false","-93","630.79999999999995","success","962.31","success","false","244.35","success","Verizon Wireless","Verizon Wireless","80903","38.82","-104.81","(38.82, -104.81)"
"1xEVDO REVA","GSM","false","-91","279.8","success","628.47","success","false","72.239999999999995","success","Verizon Wireless","Verizon Wireless","80903","38.83","-104.8","(38.83, -104.8)"
"1xEVDO REVA","GSM","false","-91","372.6","success","549.42999999999995","success","false","179.38","success","Verizon Wireless","Verizon Wireless","80903","38.83","-104.8","(38.83, -104.8)"
"1xEVDO REVA","GSM","false","-91","416.2","success","772.62","success","false","292.56","success","Verizon Wireless","Verizon Wireless","80903","38.82","-104.82","(38.82, -104.82)"
"1xEVDO REVA","GSM","false","-91","595.4","success","104.23","success","false","0","error","Verizon Wireless","Verizon Wireless","80903","38.82","-104.8","(38.82, -104.8)"
"1xEVDO REVA","GSM","false","-89","232","success","533.86","success","false","431.86","success","Verizon Wireless","Verizon Wireless","80903","38.840000000000003","-104.81","(38.84, -104.81)"
"1xEVDO REVA","GSM","false","-89","233","success","629.69000000000005","success","false","190.55","success","Verizon Wireless","Verizon Wireless","80903","38.82","-104.82","(38.82, -104.82)"
"1xEVDO REVA","GSM","false","-89","235.4","success","429.63","success","false","302.08999999999997","success","Verizon Wireless","Verizon Wireless","80903","38.82","-104.81","(38.82, -104.81)"
"1xEVDO REVA","GSM","false","-89","315.60000000000002","success","879.52","success","false","150.82","success","Verizon Wireless","Verizon Wireless","80903","38.840000000000003","-104.82","(38.84, -104.82)"
"1xEVDO REVA","GSM","false","-89","318.8","success","1039.96","success","false","341.69","success","Verizon Wireless","Verizon Wireless","80903","38.82","-104.82","(38.82, -104.82)"
"1xEVDO REVA","GSM","false","-89","467.8","success","366.31","success","false","76.63","success","Verizon Wireless","Verizon Wireless","80903","38.82","-104.82","(38.82, -104.82)"
"1xEVDO REVA","GSM","false","-89","824.4","success","98.85","success","false","0","error","Verizon Wireless","Verizon Wireless","80903","38.83","-104.81","(38.83, -104.81)"
"1xEVDO REVA","GSM","false","-87",,"Error",,,"true",,,"Verizon Wireless","Verizon Wireless","80903","38.82","-104.83","(38.82, -104.83)"
"1xEVDO REVA","GSM","false","-87","230.8","success","618.29","success","false","286.08999999999997","success","Verizon Wireless","Verizon Wireless","80903","38.82","-104.81","(38.82, -104.81)"
"1xEVDO REVA","GSM","false","-87","234.8","success","251.36","success","false","423.08","success","Verizon Wireless","Verizon Wireless","80903","38.82","-104.8","(38.82, -104.8)"
"1xEVDO REVA","GSM","false","-87","537.79999999999995","success","273.95","success","false","101.87","success","Verizon Wireless","Verizon Wireless","80903","38.82","-104.82","(38.82, -104.82)"
"1xEVDO REVA","GSM","false","-87","577.79999999999995","success","398.49","success","false","157.04","success","Verizon Wireless","Verizon Wireless","80903","38.840000000000003","-104.8","(38.84, -104.8)"
"1xEVDO REVA","GSM","false","-87","679.4","success","114.47","success","false","0","error","Verizon Wireless","Verizon Wireless","80903","38.81","-104.81","(38.81, -104.81)"
"1xEVDO REVA","GSM","false","-85","220.4","success","1132.77","success","false","366.82","success","Verizon Wireless","Verizon Wireless","80903","38.82","-104.81","(38.82, -104.81)"
"1xEVDO REVA","GSM","false","-85","228.8","success","1673.55","success","false","440.98","success","Verizon Wireless","Verizon Wireless","80903","38.81","-104.82","(38.81, -104.82)"
"1xEVDO REVA","GSM","false","-85","270","success","694.99","success","false","408.35","success","Verizon Wireless","Verizon Wireless","80903","38.82","-104.83","(38.82, -104.83)"
"1xEVDO REVA","GSM","false","-85","298","success","315.3","success","false","394.31","success","Verizon Wireless","Verizon Wireless","80903","38.83","-104.82","(38.83, -104.82)"
"1xEVDO REVA","GSM","false","-85","315","success","1151","success","false","357.88","success","Verizon Wireless","Verizon Wireless","80903","38.840000000000003","-104.83","(38.84, -104.83)"
"1xEVDO REVA","GSM","false","-85","368.6","success","175.57","success","false","28.29","success","Verizon Wireless","Verizon Wireless","80903","38.83","-104.81","(38.83, -104.81)"
"1xEVDO REVA","GSM","false","-85","388.8","success","316.81","success","false","350.75","success","Verizon Wireless","Verizon Wireless","80903","38.82","-104.82","(38.82, -104.82)"
"1xEVDO REVA","GSM","false","-85","402.2","success","223.96","success","false","85.3","success","Verizon Wireless","Verizon Wireless","80903","38.82","-104.82","(38.82, -104.82)"
"1xEVDO REVA","GSM","false","-85","408.2","success","185.44","success","false","305.55","success","Verizon Wireless","Verizon Wireless","80903","38.83","-104.81","(38.83, -104.81)"
"1xEVDO REVA","GSM","false","-85","423.2","success","547.78","success","false","318.06","success","Verizon Wireless","Verizon Wireless","80903","38.81","-104.82","(38.81, -104.82)"
"1xEVDO REVA","GSM","false","-85","728.6","success","98.25","success","false","0","error","Verizon Wireless","Verizon Wireless","80903","38.82","-104.82","(38.82, -104.82)"
"1xEVDO REVA","GSM","false","-83",,"Error",,,"true",,,"Verizon Wireless","Verizon Wireless","80903","38.81","-104.82","(38.81, -104.82)"
"1xEVDO REVA","GSM","false","-83","161","success","8311.77","success","false","783.59","success","Verizon Wireless","Verizon Wireless","80903","38.85","-104.8","(38.85, -104.8)"
"1xEVDO REVA","GSM","false","-83","239.6","success","2283.7800000000002","success","false","435.98","success","Verizon Wireless","Verizon Wireless","80903","38.840000000000003","-104.81","(38.84, -104.81)"
"1xEVDO REVA","GSM","false","-83","294.8","success","383.88","success","false","303.2","success","Verizon Wireless","Verizon Wireless","80903","38.81","-104.82","(38.81, -104.82)"
"1xEVDO REVA","GSM","false","-83","306","success","227.61","success","false","150.31","success","Verizon Wireless","Verizon Wireless","80903","38.83","-104.81","(38.83, -104.81)"
"1xEVDO REVA","GSM","false","-83","374.2","success","1065.29","success","false","298.45999999999998","success","Verizon Wireless","Verizon Wireless","80903","38.840000000000003","-104.82","(38.84, -104.82)"
"1xEVDO REVA","GSM","false","-83","374.6","success","1217.3599999999999","success","false","359.08","success","Verizon Wireless","Verizon Wireless","80903","38.840000000000003","-104.85","(38.84, -104.85)"
"1xEVDO REVA","GSM","false","-83","397","success","84.04","success","false","151.01","success","Verizon Wireless","Verizon Wireless","80903","38.82","-104.82","(38.82, -104.82)"
"1xEVDO REVA","GSM","false","-83","435.8","success","138.13999999999999","success","false","274.07","success","Verizon Wireless","Verizon Wireless","80903","38.840000000000003","-104.81","(38.84, -104.81)"
"1xEVDO REVA","GSM","false","-83","491.8","success","946.94","success","false","257.63","success","Verizon Wireless","Verizon Wireless","80903","38.840000000000003","-104.82","(38.84, -104.82)"
"1xEVDO REVA","GSM","false","-83","649.6","success","329.65","success","false","216.81","success","Verizon Wireless","Verizon Wireless","80903","38.83","-104.82","(38.83, -104.82)"
"1xEVDO REVA","GSM","false","-83","1019.2","success","598.07000000000005","success","false","126.76","success","Verizon Wireless","Verizon Wireless","80903","38.85","-104.82","(38.85, -104.82)"
"1xEVDO REVA","GSM","false","-81","201.2","success","2305.89","success","false","448.77","success","Verizon Wireless","Verizon Wireless","80903","38.82","-104.82","(38.82, -104.82)"
"1xEVDO REVA","GSM","false","-81","319.8","success","1089.19","success","false","400.88","success","Verizon Wireless","Verizon Wireless","80903","38.86","-104.82","(38.86, -104.82)"
"1xEVDO REVA","GSM","false","-81","370.6","success","245.77","success","false","73.11","success","Verizon Wireless","Verizon Wireless","80903","38.840000000000003","-104.81","(38.84, -104.81)"
"1xEVDO REVA","GSM","false","-81","391","success","999.71","success","false","280.11","success","Verizon Wireless","Verizon Wireless","80903","38.82","-104.82","(38.82, -104.82)"
"1xEVDO REVA","GSM","false","-81","414.6","success","300.11","success","false","299.45","success","Verizon Wireless","Verizon Wireless","80903","38.83","-104.8","(38.83, -104.8)"
"1xEVDO REVA","GSM","false","-81","460.6","success","1585.87","success","false","266.83999999999997","success","Verizon Wireless","Verizon Wireless","80903","38.81","-104.82","(38.81, -104.82)"
"1xEVDO REVA","GSM","false","-81","864.6","success","147.82","success","false","0","timeout","Verizon Wireless","Verizon Wireless","80903","38.81","-104.82","(38.81, -104.82)"
"1xEVDO REVA","GSM","false","-81","1374.6","success","172.06","success","false","217.33","success","Verizon Wireless","Verizon Wireless","80903","38.83","-104.82","(38.83, -104.82)"
"1xEVDO REVA","GSM","false","-79",,"error","2210.17","success","false","0","error","Verizon Wireless","Verizon Wireless","80903","38.840000000000003","-104.85","(38.84, -104.85)"
"1xEVDO REVA","GSM","false","-79","213.4","success","1031.8399999999999","success","false","351.08","success","Verizon Wireless","Verizon Wireless","80903","38.82","-104.83","(38.82, -104.83)"
"1xEVDO REVA","GSM","false","-79","284.2","success","594.88","success","false","275.35000000000002","success","Verizon Wireless","Verizon Wireless","80903","38.83","-104.82","(38.83, -104.82)"
"1xEVDO REVA","GSM","false","-79","336.4","success","1200.0899999999999","success","false","313.45","success","Verizon Wireless","Verizon Wireless","80903","38.83","-104.82","(38.83, -104.82)"
"1xEVDO REVA","GSM","false","-79","407.2","success","770.6","success","false","273.94","success","Verizon Wireless","Verizon Wireless","80903","38.81","-104.82","(38.81, -104.82)"
"1xEVDO REVA","GSM","false","-79","409.6","success","638.23","success","false","260.13","success","Verizon Wireless","Verizon Wireless","80903","38.82","-104.82","(38.82, -104.82)"
"1xEVDO REVA","GSM","false","-79","736.4","success","115.06","success","false","0","error","Verizon Wireless","Verizon Wireless","80903","38.840000000000003","-104.82","(38.84, -104.82)"
"1xEVDO REVA","GSM","false","-79","1518.4","success","389.92","success","false","263.42","success","Verizon Wireless","Verizon Wireless","80903","38.840000000000003","-104.81","(38.84, -104.81)"
"1xEVDO REVA","GSM","false","-77",,"error","26.94","success","false","0","error","Verizon Wireless","Verizon Wireless","80903","38.81","-104.82","(38.81, -104.82)"
"1xEVDO REVA","GSM","false","-77","152.19999999999999","success","2947.84","success","false","884.3","success","Verizon Wireless","Verizon Wireless","80903","38.840000000000003","-104.8","(38.84, -104.8)"
"1xEVDO REVA","GSM","false","-77","162.4","success","9939.75","success","false","842.55","success","Verizon Wireless","Verizon Wireless","80903","38.85","-104.82","(38.85, -104.82)"
"1xEVDO REVA","GSM","false","-77","176.2","success","5767.29","success","false","785.43","success","Verizon Wireless","Verizon Wireless","80903","38.82","-104.82","(38.82, -104.82)"
"1xEVDO REVA","GSM","false","-77","176.6","success","1747.67","success","false","731.96","success","Verizon Wireless","Verizon Wireless","80903","38.82","-104.81","(38.82, -104.81)"
"1xEVDO REVA","GSM","false","-77","225.2","success","59.75","success","false","0","error","Verizon Wireless","Verizon Wireless","80903","38.82","-104.82","(38.82, -104.82)"
"1xEVDO REVA","GSM","false","-77","225.8","success","1075.27","success","false","391.92","success","Verizon Wireless","Verizon Wireless","80903","38.83","-104.8","(38.83, -104.8)"
"1xEVDO REVA","GSM","false","-77","270","success","1707.32","success","false","399.51","success","Verizon Wireless","Verizon Wireless","80903","38.82","-104.83","(38.82, -104.83)"
"1xEVDO REVA","GSM","false","-77","306.8","success","4758.99","success","false","536.6","success","Verizon Wireless","Verizon Wireless","80903","38.85","-104.82","(38.85, -104.82)"
"1xEVDO REVA","GSM","false","-77","311.8","success","109.76","success","false","0","error","Verizon Wireless","Verizon Wireless","80903","38.83","-104.82","(38.83, -104.82)"
"1xEVDO REVA","GSM","false","-77","345.2","success","1832.88","success","false","328.34","success","Verizon Wireless","Verizon Wireless","80903","38.83","-104.82","(38.83, -104.82)"
"1xEVDO REVA","GSM","false","-77","369.8","success","421.98","success","false","392.25","success","Verizon Wireless","Verizon Wireless","80903","38.81","-104.8","(38.81, -104.8)"
"1xEVDO REVA","GSM","false","-77","371.8","success","209.23","success","false","310.94","success","Verizon Wireless","Verizon Wireless","80903","38.83","-104.81","(38.83, -104.81)"
"1xEVDO REVA","GSM","false","-77","409.2","success","1524.49","success","false","273.27","success","Verizon Wireless","Verizon Wireless","80903","38.82","-104.82","(38.82, -104.82)"
"1xEVDO REVA","GSM","false","-77","478","success","141.66","success","false","0","error","Verizon Wireless","Verizon Wireless","80903","38.83","-104.81","(38.83, -104.81)"
"1xEVDO REVA","GSM","false","-77","593.6","success","142.13999999999999","success","false","105.12","success","Verizon Wireless","Verizon Wireless","80903","38.82","-104.82","(38.82, -104.82)"
"1xEVDO REVA","GSM","false","-77","594","success","139.4","success","false","24.32","success","Verizon Wireless","Verizon Wireless","80903","38.82","-104.82","(38.82, -104.82)"
"1xEVDO REVA","GSM","false","-75","74.2","success","45919.83","success","false","1700.93","success","Verizon Wireless","Verizon Wireless","80903","38.83","-104.82","(38.83, -104.82)"
"1xEVDO REVA","GSM","false","-75","141.80000000000001","success","9583.59","success","false","912.32","success","Verizon Wireless","Verizon Wireless","80903","38.840000000000003","-104.81","(38.84, -104.81)"
"1xEVDO REVA","GSM","false","-75","162.6","success","1531.79","success","false","814.05","success","Verizon Wireless","Verizon Wireless","80903","38.85","-104.81","(38.85, -104.81)"
"1xEVDO REVA","GSM","false","-75","208.2","success","2194.9299999999998","success","false","468.78","success","Verizon Wireless","Verizon Wireless","80903","38.83","-104.81","(38.83, -104.81)"
"1xEVDO REVA","GSM","false","-75","281.8","success","4745.1899999999996","success","false","539.17999999999995","success","Verizon Wireless","Verizon Wireless","80903","38.840000000000003","-104.81","(38.84, -104.81)"
"1xEVDO REVA","GSM","false","-75","285","success","3728.53","success","false","497.62","success","Verizon Wireless","Verizon Wireless","80903","38.83","-104.8","(38.83, -104.8)"
"1xEVDO REVA","GSM","false","-75","321","success","1759.43","success","false","410.52","success","Verizon Wireless","Verizon Wireless","80903","38.83","-104.82","(38.83, -104.82)"
"1xEVDO REVA","GSM","false","-75","337.2","success","3825.25","success","false","335.44","success","Verizon Wireless","Verizon Wireless","80903","38.82","-104.82","(38.82, -104.82)"
"1xEVDO REVA","GSM","false","-75","459.4","success","203.8","success","false","218.71","success","Verizon Wireless","Verizon Wireless","80903","38.840000000000003","-104.82","(38.84, -104.82)"
"1xEVDO REVA","GSM","false","-75","501","success","174.89","success","false","10.46","success","Verizon Wireless","Verizon Wireless","80903","38.83","-104.82","(38.83, -104.82)"
"1xEVDO REVA","GSM","false","-75","679.8","success","197.25","success","false","15.5","success","Verizon Wireless","Verizon Wireless","80903","38.83","-104.82","(38.83, -104.82)"
"1xEVDO REVA","GSM","false","-73","145.4","success","7459.84","success","false","846.92","success","Verizon Wireless","Verizon Wireless","80903","38.82","-104.81","(38.82, -104.81)"
"1xEVDO REVA","GSM","false","-73","151","success","11709.99","success","false","1007.54","success","Verizon Wireless","Verizon Wireless","80903","38.85","-104.82","(38.85, -104.82)"
"1xEVDO REVA","GSM","false","-73","151.19999999999999","success","8038.7","success","false","863.6","success","Verizon Wireless","Verizon Wireless","80903","38.82","-104.82","(38.82, -104.82)"
"1xEVDO REVA","GSM","false","-73","153.80000000000001","success","5655.98","success","false","842.59","success","Verizon Wireless","Verizon Wireless","80903","38.82","-104.81","(38.82, -104.81)"
"1xEVDO REVA","GSM","false","-73","164.2","success","3451.88","success","false","807.27","success","Verizon Wireless","Verizon Wireless","80903","38.82","-104.82","(38.82, -104.82)"
"1xEVDO REVA","GSM","false","-73","193.2","success","2824.79","success","false","600.4","success","Verizon Wireless","Verizon Wireless","80903","38.85","-104.8","(38.85, -104.8)"
"1xEVDO REVA","GSM","false","-73","201.4","success","6482.21","success","false","677.27","success","Verizon Wireless","Verizon Wireless","80903","38.85","-104.82","(38.85, -104.82)"
"1xEVDO REVA","GSM","false","-73","228","success","1035.33","success","false","383.83","success","Verizon Wireless","Verizon Wireless","80903","38.82","-104.83","(38.82, -104.83)"
"1xEVDO REVA","GSM","false","-73","231","success","309.49","success","false","159.12","success","Verizon Wireless","Verizon Wireless","80903","38.83","-104.82","(38.83, -104.82)"
"1xEVDO REVA","GSM","false","-73","247.2","success","1363.6","success","false","400.33","success","Verizon Wireless","Verizon Wireless","80903","38.83","-104.81","(38.83, -104.81)"
"1xEVDO REVA","GSM","false","-73","304.39999999999998","success","2708.25","success","false","366.4","success","Verizon Wireless","Verizon Wireless","80903","38.82","-104.8","(38.82, -104.8)"
"1xEVDO REVA","GSM","false","-73","324.8","success","5058.66","success","false","460.25","success","Verizon Wireless","Verizon Wireless","80903","38.85","-104.81","(38.85, -104.81)"
"1xEVDO REVA","GSM","false","-73","328.4","success","509.39","success","false","193.75","success","Verizon Wireless","Verizon Wireless","80903","38.81","-104.82","(38.81, -104.82)"
"1xEVDO REVA","GSM","false","-73","347","success","1146.23","success","false","319.43","success","Verizon Wireless","Verizon Wireless","80903","38.840000000000003","-104.85","(38.84, -104.85)"
"1xEVDO REVA","GSM","false","-73","384","success","420.58","success","false","146.43","success","Verizon Wireless","Verizon Wireless","80903","38.81","-104.82","(38.81, -104.82)"
"1xEVDO REVA","GSM","false","-73","418","success","1092.3499999999999","success","false","286.63","success","Verizon Wireless","Verizon Wireless","80903","38.83","-104.82","(38.83, -104.82)"
"1xEVDO REVA","GSM","false","-73","521.79999999999995","success","2733.58","success","false","386.16","success","Verizon Wireless","Verizon Wireless","80903","38.82","-104.81","(38.82, -104.81)"
"1xEVDO REVA","GSM","false","-71",,"Error",,,"true",,,"Verizon Wireless","Verizon Wireless","80903","38.83","-104.82","(38.83, -104.82)"
"1xEVDO REVA","GSM","false","-71",,"Error",,,"true",,,"Verizon Wireless","Verizon Wireless","80903","38.83","-104.8","(38.83, -104.8)"
"1xEVDO REVA","GSM","false","-71","63.4","success","64478.36","success","false","1586.43","success","Verizon Wireless","Verizon Wireless","80903","38.83","-104.82","(38.83, -104.82)"
"1xEVDO REVA","GSM","false","-71","161.80000000000001","success","5605.17","success","false","854.04","success","Verizon Wireless","Verizon Wireless","80903","38.82","-104.81","(38.82, -104.81)"
"1xEVDO REVA","GSM","false","-71","165.4","success","3755.54","success","false","638.29999999999995","success","Verizon Wireless","Verizon Wireless","80903","38.83","-104.84","(38.83, -104.84)"
"1xEVDO REVA","GSM","false","-71","173","success","4501.25","success","false","815.48","success","Verizon Wireless","Verizon Wireless","80903","38.81","-104.81","(38.81, -104.81)"
"1xEVDO REVA","GSM","false","-71","182.2","success","8804.0400000000009","success","false","779.25","success","Verizon Wireless","Verizon Wireless","80903","38.85","-104.81","(38.85, -104.81)"
"1xEVDO REVA","GSM","false","-71","214.6","success","7888.02","success","false","550.95000000000005","success","Verizon Wireless","Verizon Wireless","80903","38.83","-104.8","(38.83, -104.8)"
"1xEVDO REVA","GSM","false","-71","219.8","success","974.11","success","false","356.16","success","Verizon Wireless","Verizon Wireless","80903","38.83","-104.81","(38.83, -104.81)"
"1xEVDO REVA","GSM","false","-71","252.4","success","1438.55","success","false","339.26","success","Verizon Wireless","Verizon Wireless","80903","38.83","-104.8","(38.83, -104.8)"
"1xEVDO REVA","GSM","false","-71","258.39999999999998","success","2183.94","success","false","330.62","success","Verizon Wireless","Verizon Wireless","80903","38.840000000000003","-104.85","(38.84, -104.85)"
"1xEVDO REVA","GSM","false","-71","281.60000000000002","success","1404.94","success","false","384.49","success","Verizon Wireless","Verizon Wireless","80903","38.83","-104.82","(38.83, -104.82)"
"1xEVDO REVA","GSM","false","-71","291.8","success","3815.55","success","false","505.68","success","Verizon Wireless","Verizon Wireless","80903","38.82","-104.82","(38.82, -104.82)"
"1xEVDO REVA","GSM","false","-71","301.60000000000002","success","4699.84","success","false","493.39","success","Verizon Wireless","Verizon Wireless","80903","38.82","-104.82","(38.82, -104.82)"
"1xEVDO REVA","GSM","false","-71","312","success","1755.76","success","false","504.69","success","Verizon Wireless","Verizon Wireless","80903","38.82","-104.82","(38.82, -104.82)"
"1xEVDO REVA","GSM","false","-71","320.39999999999998","success","1100.6300000000001","success","false","311.36","success","Verizon Wireless","Verizon Wireless","80903","38.83","-104.83","(38.83, -104.83)"
"1xEVDO REVA","GSM","false","-71","356.4","success","260.72000000000003","success","false","88.73","success","Verizon Wireless","Verizon Wireless","80903","38.83","-104.81","(38.83, -104.81)"
"1xEVDO REVA","GSM","false","-71","374","success","1358.97","success","false","324.05","success","Verizon Wireless","Verizon Wireless","80903","38.82","-104.81","(38.82, -104.81)"
"1xEVDO REVA","GSM","false","-71","379.2","success","788.11","success","false","317.39","success","Verizon Wireless","Verizon Wireless","80903","38.83","-104.81","(38.83, -104.81)"
"1xEVDO REVA","GSM","false","-71","381.8","success","2772.28","success","false","434.97","success","Verizon Wireless","Verizon Wireless","80903","38.82","-104.82","(38.82, -104.82)"
"1xEVDO REVA","GSM","false","-71","439.6","success","511.54","success","false","304.63","success","Verizon Wireless","Verizon Wireless","80903","38.82","-104.8","(38.82, -104.8)"
"1xEVDO REVA","GSM","false","-71","444.8","success","1071.6600000000001","success","false","332.24","success","Verizon Wireless","Verizon Wireless","80903","38.85","-104.81","(38.85, -104.81)"
"1xEVDO REVA","GSM","false","-71","558.6","success","41.28","success","false","28.43","success","Verizon Wireless","Verizon Wireless","80903","38.83","-104.83","(38.83, -104.83)"
"1xEVDO REVA","GSM","false","-69","151.19999999999999","success","5884.03","success","false","873.9","success","Verizon Wireless","Verizon Wireless","80903","38.82","-104.81","(38.82, -104.81)"
"1xEVDO REVA","GSM","false","-69","170.4","success","3170.33","success","false","805.92","success","Verizon Wireless","Verizon Wireless","80903","38.82","-104.81","(38.82, -104.81)"
"1xEVDO REVA","GSM","false","-69","180","success","2183.09","success","false","768.1","success","Verizon Wireless","Verizon Wireless","80903","38.82","-104.82","(38.82, -104.82)"
"1xEVDO REVA","GSM","false","-69","256.39999999999998","success","2934.9","success","false","608.05999999999995","success","Verizon Wireless","Verizon Wireless","80903","38.840000000000003","-104.81","(38.84, -104.81)"
"1xEVDO REVA","GSM","false","-69","304.2","success","2313.94","success","false","497.34","success","Verizon Wireless","Verizon Wireless","80903","38.85","-104.82","(38.85, -104.82)"
"1xEVDO REVA","GSM","false","-69","325.2","success","2254.63","success","false","404.36","success","Verizon Wireless","Verizon Wireless","80903","38.840000000000003","-104.82","(38.84, -104.82)"
"1xEVDO REVA","GSM","false","-69","370.4","success","4108.76","success","false","450.63","success","Verizon Wireless","Verizon Wireless","80903","38.82","-104.82","(38.82, -104.82)"
"1xEVDO REVA","GSM","false","-69","374.8","success","1461.01","success","false","313.66000000000003","success","Verizon Wireless","Verizon Wireless","80903","38.83","-104.81","(38.83, -104.81)"
"1xEVDO REVA","GSM","false","-69","379.4","success","1053.29","success","false","429.42","success","Verizon Wireless","Verizon Wireless","80903","38.82","-104.8","(38.82, -104.8)"
"1xEVDO REVA","GSM","false","-69","480.2","success","90.65","success","false","0","error","Verizon Wireless","Verizon Wireless","80903","38.83","-104.82","(38.83, -104.82)"
"1xEVDO REVA","GSM","false","-69","490.4","success","1191.5999999999999","success","false","176.27","success","Verizon Wireless","Verizon Wireless","80903","38.82","-104.83","(38.82, -104.83)"
"1xEVDO REVA","GSM","false","-69","1556.2","success","1423.74","success","false","231.62","success","Verizon Wireless","Verizon Wireless","80903","38.840000000000003","-104.81","(38.84, -104.81)"
"1xEVDO REVA","GSM","false","-67","182.6","success","7472.05","success","false","789.9","success","Verizon Wireless","Verizon Wireless","80903","38.82","-104.82","(38.82, -104.82)"
"1xEVDO REVA","GSM","false","-67","223.8","success","7070.46","success","false","654.1","success","Verizon Wireless","Verizon Wireless","80903","38.82","-104.82","(38.82, -104.82)"
"1xEVDO REVA","GSM","false","-67","230.2","success","3963.63","success","false","546.17999999999995","success","Verizon Wireless","Verizon Wireless","80903","38.83","-104.81","(38.83, -104.81)"
"1xEVDO REVA","GSM","false","-67","263.8","success","4787.6499999999996","success","false","537.82000000000005","success","Verizon Wireless","Verizon Wireless","80903","38.840000000000003","-104.81","(38.84, -104.81)"
"1xEVDO REVA","GSM","false","-67","366.8","success","1721.81","success","false","380.75","success","Verizon Wireless","Verizon Wireless","80903","38.83","-104.83","(38.83, -104.83)"
"1xEVDO REVA","GSM","false","-67","382.4","success","3503.72","success","false","441.47","success","Verizon Wireless","Verizon Wireless","80903","38.83","-104.82","(38.83, -104.82)"
"1xEVDO REVA","GSM","false","-67","392.8","success","695.82","success","false","306.5","success","Verizon Wireless","Verizon Wireless","80903","38.82","-104.82","(38.82, -104.82)"
"1xEVDO REVA","GSM","false","-67","429.8","success","126.45","success","false","142.44999999999999","success","Verizon Wireless","Verizon Wireless","80903","38.82","-104.81","(38.82, -104.81)"
"1xEVDO REVA","GSM","false","-67","444.8","success","684.57","success","false","253.43","success","Verizon Wireless","Verizon Wireless","80903","38.840000000000003","-104.82","(38.84, -104.82)"
"1xEVDO REVA","GSM","false","-67","974","success","164.71","success","false","182.16","success","Verizon Wireless","Verizon Wireless","80903","38.82","-104.82","(38.82, -104.82)"
"1xEVDO REVA","GSM","false","-67","1012","success","1483.38","success","false","221.06","success","Verizon Wireless","Verizon Wireless","80903","38.83","-104.82","(38.83, -104.82)"
"1xEVDO REVA","GSM","false","-65","70.59","success","16744.5","success","false","1488.15","success","Verizon Wireless","Verizon Wireless","80903","38.83","-104.81","(38.83, -104.81)"
"1xEVDO REVA","GSM","false","-65","74","success","28986.12","success","false","1492.77","success","Verizon Wireless","Verizon Wireless","80903","38.83","-104.81","(38.83, -104.81)"
"1xEVDO REVA","GSM","false","-65","120.2","success","11951.03","success","false","900.51","success","Verizon Wireless","Verizon Wireless","80903","38.82","-104.81","(38.82, -104.81)"
"1xEVDO REVA","GSM","false","-65","150.19999999999999","success","10805.58","success","false","904.48","success","Verizon Wireless","Verizon Wireless","80903","38.83","-104.82","(38.83, -104.82)"
"1xEVDO REVA","GSM","false","-65","220.8","success","65.72","success","false","0","timeout","Verizon Wireless","Verizon Wireless","80903","38.83","-104.83","(38.83, -104.83)"
"1xEVDO REVA","GSM","false","-65","269.60000000000002","success","5220.83","success","false","556.69000000000005","success","Verizon Wireless","Verizon Wireless","80903","38.840000000000003","-104.81","(38.84, -104.81)"
"1xEVDO REVA","GSM","false","-65","278.8","success","3134.43","success","false","563.30999999999995","success","Verizon Wireless","Verizon Wireless","80903","38.83","-104.81","(38.83, -104.81)"
"1xEVDO REVA","GSM","false","-65","280.60000000000002","success","5555.85","success","false","559.45000000000005","success","Verizon Wireless","Verizon Wireless","80903","38.82","-104.82","(38.82, -104.82)"
"1xEVDO REVA","GSM","false","-65","294","success","3944.89","success","false","789.75","success","Verizon Wireless","Verizon Wireless","80903","38.82","-104.82","(38.82, -104.82)"
"1xEVDO REVA","GSM","false","-65","298.2","success","4395.58","success","false","538.32000000000005","success","Verizon Wireless","Verizon Wireless","80903","38.82","-104.81","(38.82, -104.81)"
"1xEVDO REVA","GSM","false","-65","298.60000000000002","success","3371.76","success","false","494.5","success","Verizon Wireless","Verizon Wireless","80903","38.840000000000003","-104.82","(38.84, -104.82)"
"1xEVDO REVA","GSM","false","-65","303.39999999999998","success","4779.4399999999996","success","false","489.21","success","Verizon Wireless","Verizon Wireless","80903","38.83","-104.81","(38.83, -104.81)"
"1xEVDO REVA","GSM","false","-65","314.8","success","730.59","success","false","511.7","success","Verizon Wireless","Verizon Wireless","80903","38.82","-104.82","(38.82, -104.82)"
"1xEVDO REVA","GSM","false","-65","324.2","success","4590.95","success","false","496.14","success","Verizon Wireless","Verizon Wireless","80903","38.82","-104.82","(38.82, -104.82)"
"1xEVDO REVA","GSM","false","-65","335.8","success","1342.05","success","false","330.46","success","Verizon Wireless","Verizon Wireless","80903","38.81","-104.8","(38.81, -104.8)"
"1xEVDO REVA","GSM","false","-65","365","success","1346.95","success","false","449.06","success","Verizon Wireless","Verizon Wireless","80903","38.82","-104.81","(38.82, -104.81)"
"1xEVDO REVA","GSM","false","-65","371.4","success","2414.09","success","false","429.31","success","Verizon Wireless","Verizon Wireless","80903","38.83","-104.82","(38.83, -104.82)"
"1xEVDO REVA","GSM","false","-65","382","success","2832.33","success","false","374.49","success","Verizon Wireless","Verizon Wireless","80903","38.82","-104.82","(38.82, -104.82)"
"1xEVDO REVA","GSM","false","-65","427.6","success","1012.9","success","false","511.32","success","Verizon Wireless","Verizon Wireless","80903","38.83","-104.81","(38.83, -104.81)"
"1xEVDO REVA","GSM","false","-65","467.4","success","2056.0700000000002","success","false","308.36","success","Verizon Wireless","Verizon Wireless","80903","38.81","-104.82","(38.81, -104.82)"
"1xEVDO REVA","GSM","false","-63","132.19999999999999","success","9336.26","success","false","988.64","success","Verizon Wireless","Verizon Wireless","80903","38.83","-104.82","(38.83, -104.82)"
"1xEVDO REVA","GSM","false","-63","137","success","11312.04","success","false","999.88","success","Verizon Wireless","Verizon Wireless","80903","38.83","-104.81","(38.83, -104.81)"
"1xEVDO REVA","GSM","false","-63","138","success","10007.86","success","false","946.29","success","Verizon Wireless","Verizon Wireless","80903","38.82","-104.81","(38.82, -104.81)"
"1xEVDO REVA","GSM","false","-63","229.4","success","1639.11","success","false","405.05","success","Verizon Wireless","Verizon Wireless","80903","38.83","-104.82","(38.83, -104.82)"
"1xEVDO REVA","GSM","false","-63","234","success","1466.02","success","false","445.4","success","Verizon Wireless","Verizon Wireless","80903","38.83","-104.81","(38.83, -104.81)"
"1xEVDO REVA","GSM","false","-63","269","success","5400.62","success","false","570.97","success","Verizon Wireless","Verizon Wireless","80903","38.81","-104.79","(38.81, -104.79)"
"1xEVDO REVA","GSM","false","-63","302.8","success","3161.97","success","false","495.09","success","Verizon Wireless","Verizon Wireless","80903","38.82","-104.81","(38.82, -104.81)"
"1xEVDO REVA","GSM","false","-63","306.8","success","4399.3500000000004","success","false","486.93","success","Verizon Wireless","Verizon Wireless","80903","38.83","-104.81","(38.83, -104.81)"
"1xEVDO REVA","GSM","false","-63","380.4","success","362.97","success","false","165.33","success","Verizon Wireless","Verizon Wireless","80903","38.83","-104.82","(38.83, -104.82)"
"1xEVDO REVA","GSM","false","-63","393.6","success","1659.29","success","false","322.89","success","Verizon Wireless","Verizon Wireless","80903","38.85","-104.81","(38.85, -104.81)"
"1xEVDO REVA","GSM","false","-63","436.2","success","196.37","success","false","0","timeout","Verizon Wireless","Verizon Wireless","80903","38.82","-104.82","(38.82, -104.82)"
"1xEVDO REVA","GSM","false","-63","480.6","success","429.86","success","false","354.19","success","Verizon Wireless","Verizon Wireless","80903","38.81","-104.8","(38.81, -104.8)"
"1xEVDO REVA","GSM","false","-63","677.2","success","55.18","success","false","0","error","Verizon Wireless","Verizon Wireless","80903","38.83","-104.82","(38.83, -104.82)"
"1xEVDO REVA","GSM","false","-63","1129","success","120.67","success","false","9.8000000000000007","success","Verizon Wireless","Verizon Wireless","80903","38.840000000000003","-104.82","(38.84, -104.82)"
"1xEVDO REVA","GSM","false","-61",,"Error",,,"true",,,"Verizon Wireless","Verizon Wireless","80903","38.82","-104.83","(38.82, -104.83)"
"1xEVDO REVA","GSM","false","-61","129.80000000000001","success","11716.85","success","false","962.42","success","Verizon Wireless","Verizon Wireless","80903","38.82","-104.83","(38.82, -104.83)"
"1xEVDO REVA","GSM","false","-61","154.4","success","7756.57","success","false","807.12","success","Verizon Wireless","Verizon Wireless","80903","38.840000000000003","-104.82","(38.84, -104.82)"
"1xEVDO REVA","GSM","false","-61","158","success","8036.8","success","false","869.71","success","Verizon Wireless","Verizon Wireless","80903","38.81","-104.82","(38.81, -104.82)"
"1xEVDO REVA","GSM","false","-61","162","success","6491.89","success","false","859.86","success","Verizon Wireless","Verizon Wireless","80903","38.81","-104.82","(38.81, -104.82)"
"1xEVDO REVA","GSM","false","-61","165","success","8182.26","success","false","743.1","success","Verizon Wireless","Verizon Wireless","80903","38.83","-104.82","(38.83, -104.82)"
"1xEVDO REVA","GSM","false","-61","231","success","2480.7399999999998","success","false","421.39","success","Verizon Wireless","Verizon Wireless","80903","38.83","-104.82","(38.83, -104.82)"
"1xEVDO REVA","GSM","false","-61","268.60000000000002","success","1874.71","success","false","438","success","Verizon Wireless","Verizon Wireless","80903","38.840000000000003","-104.82","(38.84, -104.82)"
"1xEVDO REVA","GSM","false","-61","331.4","success","4473.25","success","false","488.03","success","Verizon Wireless","Verizon Wireless","80903","38.840000000000003","-104.81","(38.84, -104.81)"
"1xEVDO REVA","GSM","false","-61","419.4","success","1159.83","success","false","308.2","success","Verizon Wireless","Verizon Wireless","80903","38.83","-104.82","(38.83, -104.82)"
"1xEVDO REVA","GSM","false","-61","499.6","success","3329.64","success","false","457.24","success","Verizon Wireless","Verizon Wireless","80903","38.82","-104.82","(38.82, -104.82)"
"1xEVDO REVA","GSM","false","-59","156.4","success","8796.44","success","false","900.51","success","Verizon Wireless","Verizon Wireless","80903","38.81","-104.79","(38.81, -104.79)"
"1xEVDO REVA","GSM","false","-59","160","success","11159.26","success","false","1036.8399999999999","success","Verizon Wireless","Verizon Wireless","80903","38.83","-104.81","(38.83, -104.81)"
"1xEVDO REVA","GSM","false","-59","207.6","success","561.71","success","false","372.42","success","Verizon Wireless","Verizon Wireless","80903","38.83","-104.82","(38.83, -104.82)"
"1xEVDO REVA","GSM","false","-59","294.39999999999998","success","5429.64","success","false","562.09","success","Verizon Wireless","Verizon Wireless","80903","38.83","-104.83","(38.83, -104.83)"
"1xEVDO REVA","GSM","false","-59","294.8","success","4971.78","success","false","519.87","success","Verizon Wireless","Verizon Wireless","80903","38.82","-104.81","(38.82, -104.81)"
"1xEVDO REVA","GSM","false","-59","525","success","257.62","success","false","40.409999999999997","success","Verizon Wireless","Verizon Wireless","80903","38.82","-104.82","(38.82, -104.82)"
"1xEVDO REVA","GSM","false","-59","535.4","success","173.35","success","false","23.77","success","Verizon Wireless","Verizon Wireless","80903","38.840000000000003","-104.82","(38.84, -104.82)"
"1xEVDO REVA","GSM","false","-57","164.4","success","9682.25","success","false","929.5","success","Verizon Wireless","Verizon Wireless","80903","38.81","-104.82","(38.81, -104.82)"
"1xEVDO REVA","GSM","false","-57","165.6","success","12188.93","success","false","880.15","success","Verizon Wireless","Verizon Wireless","80903","38.81","-104.82","(38.81, -104.82)"
"1xEVDO REVA","GSM","false","-57","187","success","7997.36","success","false","883.79","success","Verizon Wireless","Verizon Wireless","80903","38.83","-104.82","(38.83, -104.82)"
"1xEVDO REVA","GSM","false","-57","232.2","success","8761.5","success","false","676.21","success","Verizon Wireless","Verizon Wireless","80903","38.82","-104.83","(38.82, -104.83)"
"1xEVDO REVA","GSM","false","-57","294","success","5478.23","success","false","490.52","success","Verizon Wireless","Verizon Wireless","80903","38.83","-104.82","(38.83, -104.82)"
"1xEVDO REVA","GSM","false","-57","300.8","success","4280.25","success","false","528.5","success","Verizon Wireless","Verizon Wireless","80903","38.81","-104.82","(38.81, -104.82)"
"1xEVDO REVA","GSM","false","-57","302","success","3558.38","success","false","517.15","success","Verizon Wireless","Verizon Wireless","80903","38.82","-104.81","(38.82, -104.81)"
"1xEVDO REVA","GSM","false","-57","451.2","success","1012.86","success","false","297.47000000000003","success","Verizon Wireless","Verizon Wireless","80903","38.840000000000003","-104.82","(38.84, -104.82)"
"1xEVDO REVA","GSM","false","-57","462","success","232.82","success","false","187.54","success","Verizon Wireless","Verizon Wireless","80903","38.83","-104.8","(38.83, -104.8)"
"1xEVDO REVA","GSM","false","-55","146.19999999999999","success","12782.76","success","false","907.88","success","Verizon Wireless","Verizon Wireless","80903","38.83","-104.81","(38.83, -104.81)"
"1xEVDO REVA","GSM","false","-55","233.6","success","8228.49","success","false","665.56","success","Verizon Wireless","Verizon Wireless","80903","38.81","-104.8","(38.81, -104.8)"
"1xEVDO REVA","GSM","false","-55","255.4","success","1869.51","success","false","429.16","success","Verizon Wireless","Verizon Wireless","80903","38.83","-104.82","(38.83, -104.82)"
"1xEVDO REVA","GSM","false","-55","257.2","success","1873.97","success","false","356.28","success","Verizon Wireless","Verizon Wireless","80903","38.83","-104.81","(38.83, -104.81)"
"1xEVDO REVA","GSM","false","-55","290.2","success","2113.4","success","false","390.34","success","Verizon Wireless","Verizon Wireless","80903","38.83","-104.82","(38.83, -104.82)"
"1xEVDO REVA","GSM","false","-55","313.2","success","4366.87","success","false","478.63","success","Verizon Wireless","Verizon Wireless","80903","38.81","-104.82","(38.81, -104.82)"
"1xEVDO REVA","GSM","false","-55","315.39999999999998","success","5023.45","success","false","518.85","success","Verizon Wireless","Verizon Wireless","80903","38.799999999999997","-104.79","(38.8, -104.79)"
"1xEVDO REVA","GSM","false","-53","258","success","304.33999999999997","success","false","296.37","success","Verizon Wireless","Verizon Wireless","80903","38.83","-104.82","(38.83, -104.82)"
"1xEVDO REVA","GSM","false","-53","259","success","1262.7","success","false","359.74","success","Verizon Wireless","Verizon Wireless","80903","38.83","-104.82","(38.83, -104.82)"
"1xEVDO REVA","GSM","false","-53","276.2","success","6039.33","success","false","572.75","success","Verizon Wireless","Verizon Wireless","80903","38.83","-104.82","(38.83, -104.82)"
"1xEVDO REVA","GSM","false","-53","302.60000000000002","success","4393.7","success","false","540.12","success","Verizon Wireless","Verizon Wireless","80903","38.840000000000003","-104.81","(38.84, -104.81)"
"1xEVDO REVA","GSM","false","-53","338.4","success","1885.3","success","false","317.33","success","Verizon Wireless","Verizon Wireless","80903","38.83","-104.81","(38.83, -104.81)"
"1xEVDO REVA","GSM","false","-53","421.2","success","212.16","success","false","440.43","success","Verizon Wireless","Verizon Wireless","80903","38.799999999999997","-104.79","(38.8, -104.79)"
"1xEVDO REVA","GSM","false","-53","436","success","592.91","success","false","216.21","success","Verizon Wireless","Verizon Wireless","80903","38.840000000000003","-104.82","(38.84, -104.82)"
"1xEVDO REVA","GSM","false","-51","134","success","15106.46","success","false","888.48","success","Verizon Wireless","Verizon Wireless","80903","38.840000000000003","-104.82","(38.84, -104.82)"
"1xEVDO REVA","GSM","false","-51","142.4","success","7172.54","success","false","867.84","success","Verizon Wireless","Verizon Wireless","80903","38.83","-104.82","(38.83, -104.82)"
"1xEVDO REVA","GSM","false","-51","142.4","success","11712.67","success","false","889.19","success","Verizon Wireless","Verizon Wireless","80903","38.840000000000003","-104.82","(38.84, -104.82)"
"1xEVDO REVA","GSM","false","-51","158.6","success","8004.41","success","false","841.08","success","Verizon Wireless","Verizon Wireless","80903","38.83","-104.82","(38.83, -104.82)"
"1xEVDO REVA","GSM","false","-51","164.4","success","8698.68","success","false","860.47","success","Verizon Wireless","Verizon Wireless","80903","38.83","-104.82","(38.83, -104.82)"
"1xEVDO REVA","GSM","false","-51","168.4","success","9976.7999999999993","success","false","870.12","success","Verizon Wireless","Verizon Wireless","80903","38.83","-104.83","(38.83, -104.83)"
"1xEVDO REVA","GSM","false","-51","172","success","5619.31","success","false","836.54","success","Verizon Wireless","Verizon Wireless","80903","38.82","-104.83","(38.82, -104.83)"
"1xEVDO REVA","GSM","false","-51","182","success","6887.18","success","false","1018.32","success","Verizon Wireless","Verizon Wireless","80903","38.83","-104.82","(38.83, -104.82)"
"1xEVDO REVA","GSM","false","-51","196.6","success","6633.02","success","false","856.78","success","Verizon Wireless","Verizon Wireless","80903","38.83","-104.82","(38.83, -104.82)"
"1xEVDO REVA","GSM","false","-51","216","success","1222.69","success","false","359.55","success","Verizon Wireless","Verizon Wireless","80903","38.83","-104.82","(38.83, -104.82)"
"1xEVDO REVA","GSM","false","-51","222","success","27.84","success","false","0","timeout","Verizon Wireless","Verizon Wireless","80903","38.83","-104.82","(38.83, -104.82)"
"1xEVDO REVA","GSM","false","-51","228.4","success","5947.93","success","false","701.23","success","Verizon Wireless","Verizon Wireless","80903","38.83","-104.82","(38.83, -104.82)"
"1xEVDO REVA","GSM","false","-51","235.4","success","4639.6099999999997","success","false","618.11","success","Verizon Wireless","Verizon Wireless","80903","38.83","-104.82","(38.83, -104.82)"
"1xEVDO REVA","GSM","false","-51","262","success","5070.18","success","false","576.29","success","Verizon Wireless","Verizon Wireless","80903","38.83","-104.81","(38.83, -104.81)"
"1xEVDO REVA","GSM","false","-51","263.8","success","6933.57","success","false","644.98","success","Verizon Wireless","Verizon Wireless","80903","38.83","-104.82","(38.83, -104.82)"
"1xEVDO REVA","GSM","false","-51","274.60000000000002","success","4226.4799999999996","success","false","509.74","success","Verizon Wireless","Verizon Wireless","80903","38.82","-104.82","(38.82, -104.82)"
"1xEVDO REVA","GSM","false","-51","280","success","4826.13","success","false","481.59","success","Verizon Wireless","Verizon Wireless","80903","38.81","-104.8","(38.81, -104.8)"
"1xEVDO REVA","GSM","false","-51","285","success","4744.1499999999996","success","false","515.05999999999995","success","Verizon Wireless","Verizon Wireless","80903","38.83","-104.82","(38.83, -104.82)"
"1xEVDO REVA","GSM","false","-51","288.39999999999998","success","6133.94","success","false","559.63","success","Verizon Wireless","Verizon Wireless","80903","38.83","-104.82","(38.83, -104.82)"
"1xEVDO REVA","GSM","false","-51","300.60000000000002","success","4521.1899999999996","success","false","531.84","success","Verizon Wireless","Verizon Wireless","80903","38.83","-104.82","(38.83, -104.82)"
"1xEVDO REVA","GSM","false","-51","304","success","5426.77","success","false","503.65","success","Verizon Wireless","Verizon Wireless","80903","38.83","-104.82","(38.83, -104.82)"
"1xEVDO REVA","GSM","false","-51","307.60000000000002","success","4183.4399999999996","success","false","525.57000000000005","success","Verizon Wireless","Verizon Wireless","80903","38.83","-104.82","(38.83, -104.82)"
"1xEVDO REVA","GSM","false","-51","310.39999999999998","success","5000.2","success","false","540.54","success","Verizon Wireless","Verizon Wireless","80903","38.83","-104.82","(38.83, -104.82)"
"1xEVDO REVA","GSM","false","-51","355.2","success","4474.4399999999996","success","false","456.03","success","Verizon Wireless","Verizon Wireless","80903","38.83","-104.82","(38.83, -104.82)"
"1xEVDO REVA","GSM","false","-51","357.8","success","2345.16","success","false","326.97000000000003","success","Verizon Wireless","Verizon Wireless","80903","38.83","-104.82","(38.83, -104.82)"
"1xEVDO REVA","GSM","false","-51","368.8","success","528.74","success","false","261.2","success","Verizon Wireless","Verizon Wireless","80903","38.83","-104.81","(38.83, -104.81)"
"1xEVDO REVA","GSM","false","-51","370.2","success","3459.72","success","false","455.92","success","Verizon Wireless","Verizon Wireless","80903","38.83","-104.82","(38.83, -104.82)"
"1xEVDO REVA","GSM","false","-51","375.2","success","1345.6","success","false","305.60000000000002","success","Verizon Wireless","Verizon Wireless","80903","38.83","-104.82","(38.83, -104.82)"
"1xEVDO REVA","GSM","false","-51","383.2","success","224.04","success","false","0","error","Verizon Wireless","Verizon Wireless","80903","38.83","-104.82","(38.83, -104.82)"
"1xEVDO REVA","GSM","false","-51","386.8","success","1855.11","success","false","337.8","success","Verizon Wireless","Verizon Wireless","80903","38.83","-104.82","(38.83, -104.82)"
"1xEVDO REVA","GSM","false","-51","387.8","success","5558.95","success","false","577.49","success","Verizon Wireless","Verizon Wireless","80903","38.840000000000003","-104.82","(38.84, -104.82)"
"1xEVDO REVA","GSM","false","-51","454","success","49.96","success","false","0","timeout","Verizon Wireless","Verizon Wireless","80903","38.83","-104.82","(38.83, -104.82)"
"1xEVDO REVA","GSM","false","-51","502.6","success","2209.0700000000002","success","false","290.89","success","Verizon Wireless","Verizon Wireless","80903","38.83","-104.82","(38.83, -104.82)"
"1xEVDO REVA","GSM","false","-51","691.4","success","45.15","success","false","0","timeout","Verizon Wireless","Verizon Wireless","80903","38.83","-104.82","(38.83, -104.82)"
"1xEVDO REVA","GSM","false","-51","1028.2","success","152.38","success","false","0","timeout","Verizon Wireless","Verizon Wireless","80903","38.83","-104.82","(38.83, -104.82)"
"1xEVDO REVA","CDMA","false","-67",,"Error",,,"true",,,"Verizon Wireless","Verizon Wireless","80904","38.840000000000003","-104.85","(38.84, -104.85)"
"1xEVDO REVA","CDMA","false","-67","368.2","success","3296.99","success","false","442.56","success","Verizon Wireless","Verizon Wireless","80904","38.840000000000003","-104.85","(38.84, -104.85)"
"1xEVDO REVA","GSM","false","-107","655.6","success","360.3","success","false","91.86","success","Verizon Wireless","Verizon Wireless","80904","38.840000000000003","-104.86","(38.84, -104.86)"
"1xEVDO REVA","GSM","false","-99",,"error","12.2","success","false","96.15","success","Verizon Wireless","Verizon Wireless","80904","38.86","-104.87","(38.86, -104.87)"
"1xEVDO REVA","GSM","false","-97","418","success","765.69","success","false","265.51","success","Verizon Wireless","Verizon Wireless","80904","38.83","-104.84","(38.83, -104.84)"
"1xEVDO REVA","GSM","false","-95","546","success","231.28","success","false","40.75","success","Verizon Wireless","Verizon Wireless","80904","38.840000000000003","-104.84","(38.84, -104.84)"
"1xEVDO REVA","GSM","false","-95","575.6","success","479.22","success","false","178.82","success","Verizon Wireless","Verizon Wireless","80904","38.83","-104.84","(38.83, -104.84)"
"1xEVDO REVA","GSM","false","-95","598.79999999999995","success","695.72","success","false","187.61","success","Verizon Wireless","Verizon Wireless","80904","38.86","-104.89","(38.86, -104.89)"
"1xEVDO REVA","GSM","false","-95","1110.8","success","196.36","success","false","215.8","success","Verizon Wireless","Verizon Wireless","80904","38.86","-104.87","(38.86, -104.87)"
"1xEVDO REVA","GSM","false","-93","389.8","success","2238.1","success","false","330.78","success","Verizon Wireless","Verizon Wireless","80904","38.85","-104.84","(38.85, -104.84)"
"1xEVDO REVA","GSM","false","-93","494.6","success","492.16","success","false","265.62","success","Verizon Wireless","Verizon Wireless","80904","38.85","-104.85","(38.85, -104.85)"
"1xEVDO REVA","GSM","false","-89","217.4","success","897.65","success","false","420.58","success","Verizon Wireless","Verizon Wireless","80904","38.83","-104.84","(38.83, -104.84)"
"1xEVDO REVA","GSM","false","-89","236.2","success","1167.3900000000001","success","false","129.91999999999999","success","Verizon Wireless","Verizon Wireless","80904","38.840000000000003","-104.85","(38.84, -104.85)"
"1xEVDO REVA","GSM","false","-89","239.2","success","487.54","success","false","0","error","Verizon Wireless","Verizon Wireless","80904","38.869999999999997","-104.88","(38.87, -104.88)"
"1xEVDO REVA","GSM","false","-89","353.8","success","775.76","success","false","288.32","success","Verizon Wireless","Verizon Wireless","80904","38.83","-104.85","(38.83, -104.85)"
"1xEVDO REVA","GSM","false","-89","360","success","323.2","success","false","354.41","success","Verizon Wireless","Verizon Wireless","80904","38.85","-104.83","(38.85, -104.83)"
"1xEVDO REVA","GSM","false","-87","222.4","success","409.68","success","false","56.99","success","Verizon Wireless","Verizon Wireless","80904","38.86","-104.88","(38.86, -104.88)"
"1xEVDO REVA","GSM","false","-87","500.4","success","1000.11","success","false","282.57","success","Verizon Wireless","Verizon Wireless","80904","38.86","-104.86","(38.86, -104.86)"
"1xEVDO REVA","GSM","false","-87","562","success","1005.23","success","false","244.13","success","Verizon Wireless","Verizon Wireless","80904","38.840000000000003","-104.85","(38.84, -104.85)"
"1xEVDO REVA","GSM","false","-87","709","success","57.15","success","false","0","error","Verizon Wireless","Verizon Wireless","80904","38.86","-104.87","(38.86, -104.87)"
"1xEVDO REVA","GSM","false","-87","863.4","success","98.47","success","false","0","timeout","Verizon Wireless","Verizon Wireless","80904","38.86","-104.89","(38.86, -104.89)"
"1xEVDO REVA","GSM","false","-85","260.39999999999998","success","1790.68","success","false","301.19","success","Verizon Wireless","Verizon Wireless","80904","38.85","-104.86","(38.85, -104.86)"
"1xEVDO REVA","GSM","false","-85","266.2","success","1019.34","success","false","380.04","success","Verizon Wireless","Verizon Wireless","80904","38.840000000000003","-104.85","(38.84, -104.85)"
"1xEVDO REVA","GSM","false","-85","416","success","472.06","success","false","268.02999999999997","success","Verizon Wireless","Verizon Wireless","80904","38.83","-104.84","(38.83, -104.84)"
"1xEVDO REVA","GSM","false","-85","482.6","success","1847.95","success","false","270.17","success","Verizon Wireless","Verizon Wireless","80904","38.840000000000003","-104.85","(38.84, -104.85)"
"1xEVDO REVA","GSM","false","-85","539.79999999999995","success","209.84","success","false","56.66","success","Verizon Wireless","Verizon Wireless","80904","38.83","-104.85","(38.83, -104.85)"
"1xEVDO REVA","GSM","false","-83","588.4","success","1818.04","success","false","273.11","success","Verizon Wireless","Verizon Wireless","80904","38.840000000000003","-104.84","(38.84, -104.84)"
"1xEVDO REVA","GSM","false","-81",,"Error",,,"true",,,"Verizon Wireless","Verizon Wireless","80904","38.85","-104.85","(38.85, -104.85)"
"1xEVDO REVA","GSM","false","-81","240.2","success","768.17","success","false","81.87","success","Verizon Wireless","Verizon Wireless","80904","38.840000000000003","-104.86","(38.84, -104.86)"
"1xEVDO REVA","GSM","false","-81","371","success","94.95","success","false","94","success","Verizon Wireless","Verizon Wireless","80904","38.83","-104.84","(38.83, -104.84)"
"1xEVDO REVA","GSM","false","-81","408.8","success","670.09","success","false","278.02999999999997","success","Verizon Wireless","Verizon Wireless","80904","38.85","-104.85","(38.85, -104.85)"
"1xEVDO REVA","GSM","false","-81","513.6","success","202.55","success","false","96.87","success","Verizon Wireless","Verizon Wireless","80904","38.83","-104.85","(38.83, -104.85)"
"1xEVDO REVA","GSM","false","-79","198.4","success","1964.05","success","false","457.61","success","Verizon Wireless","Verizon Wireless","80904","38.83","-104.83","(38.83, -104.83)"
"1xEVDO REVA","GSM","false","-79","255.2","success","618.62","success","false","375.72","success","Verizon Wireless","Verizon Wireless","80904","38.840000000000003","-104.86","(38.84, -104.86)"
"1xEVDO REVA","GSM","false","-79","266.2","success","1260.04","success","false","417.2","success","Verizon Wireless","Verizon Wireless","80904","38.85","-104.87","(38.85, -104.87)"
"1xEVDO REVA","GSM","false","-79","289.60000000000002","success","901.62","success","false","365.63","success","Verizon Wireless","Verizon Wireless","80904","38.85","-104.86","(38.85, -104.86)"
"1xEVDO REVA","GSM","false","-79","345.6","success","1171.07","success","false","293.18","success","Verizon Wireless","Verizon Wireless","80904","38.840000000000003","-104.85","(38.84, -104.85)"
"1xEVDO REVA","GSM","false","-79","346.2","success","1895.05","success","false","319.14999999999998","success","Verizon Wireless","Verizon Wireless","80904","38.840000000000003","-104.85","(38.84, -104.85)"
"1xEVDO REVA","GSM","false","-79","359.2","success","1361.96","success","false","338.69","success","Verizon Wireless","Verizon Wireless","80904","38.86","-104.86","(38.86, -104.86)"
"1xEVDO REVA","GSM","false","-79","361.2","success","1783.61","success","false","343.69","success","Verizon Wireless","Verizon Wireless","80904","38.85","-104.87","(38.85, -104.87)"
"1xEVDO REVA","GSM","false","-79","393.4","success","1425.95","success","false","248.86","success","Verizon Wireless","Verizon Wireless","80904","38.840000000000003","-104.85","(38.84, -104.85)"
"1xEVDO REVA","GSM","false","-79","440.6","success","249.03","success","false","155.57","success","Verizon Wireless","Verizon Wireless","80904","38.85","-104.87","(38.85, -104.87)"
"1xEVDO REVA","GSM","false","-79","533.79999999999995","success","706.69","success","false","247.96","success","Verizon Wireless","Verizon Wireless","80904","38.85","-104.87","(38.85, -104.87)"
"1xEVDO REVA","GSM","false","-77","212.2","success","1001.81","success","false","371.25","success","Verizon Wireless","Verizon Wireless","80904","38.85","-104.86","(38.85, -104.86)"
"1xEVDO REVA","GSM","false","-77","221.6","success","674.13","success","false","370.16","success","Verizon Wireless","Verizon Wireless","80904","38.85","-104.87","(38.85, -104.87)"
"1xEVDO REVA","GSM","false","-77","353.4","success","790.82","success","false","342.59","success","Verizon Wireless","Verizon Wireless","80904","38.840000000000003","-104.86","(38.84, -104.86)"
"1xEVDO REVA","GSM","false","-77","371","success","1188.17","success","false","184.63","success","Verizon Wireless","Verizon Wireless","80904","38.86","-104.86","(38.86, -104.86)"
"1xEVDO REVA","GSM","false","-77","372","success","1337.79","success","false","331.15","success","Verizon Wireless","Verizon Wireless","80904","38.85","-104.87","(38.85, -104.87)"
"1xEVDO REVA","GSM","false","-77","474.4","success","1255.32","success","false","279.55","success","Verizon Wireless","Verizon Wireless","80904","38.85","-104.86","(38.85, -104.86)"
"1xEVDO REVA","GSM","false","-77","716","success","839.58","success","false","169.46","success","Verizon Wireless","Verizon Wireless","80904","38.840000000000003","-104.86","(38.84, -104.86)"
"1xEVDO REVA","GSM","false","-77","963.4","success","1943.43","success","false","327.23","success","Verizon Wireless","Verizon Wireless","80904","38.840000000000003","-104.85","(38.84, -104.85)"
"1xEVDO REVA","GSM","false","-75","177.8","success","6500.95","success","false","706.94","success","Verizon Wireless","Verizon Wireless","80904","38.840000000000003","-104.83","(38.84, -104.83)"
"1xEVDO REVA","GSM","false","-75","229.2","success","1157.1099999999999","success","false","379.16","success","Verizon Wireless","Verizon Wireless","80904","38.85","-104.87","(38.85, -104.87)"
"1xEVDO REVA","GSM","false","-75","245.2","success","1596.82","success","false","388.04","success","Verizon Wireless","Verizon Wireless","80904","38.840000000000003","-104.86","(38.84, -104.86)"
"1xEVDO REVA","GSM","false","-75","309.60000000000002","success","3414.95","success","false","454.17","success","Verizon Wireless","Verizon Wireless","80904","38.86","-104.88","(38.86, -104.88)"
"1xEVDO REVA","GSM","false","-75","386.2","success","280.63","success","false","109.65","success","Verizon Wireless","Verizon Wireless","80904","38.86","-104.87","(38.86, -104.87)"
"1xEVDO REVA","GSM","false","-75","394","success","2143.9299999999998","success","false","310.97000000000003","success","Verizon Wireless","Verizon Wireless","80904","38.86","-104.87","(38.86, -104.87)"
"1xEVDO REVA","GSM","false","-75","413.8","success","1165.53","success","false","326.93","success","Verizon Wireless","Verizon Wireless","80904","38.85","-104.88","(38.85, -104.88)"
"1xEVDO REVA","GSM","false","-75","530.20000000000005","success","1454.88","success","false","390.42","success","Verizon Wireless","Verizon Wireless","80904","38.85","-104.86","(38.85, -104.86)"
"1xEVDO REVA","GSM","false","-75","702.2","success","1452.63","success","false","289.35000000000002","success","Verizon Wireless","Verizon Wireless","80904","38.840000000000003","-104.86","(38.84, -104.86)"
"1xEVDO REVA","GSM","false","-73","400.2","success","1011.96","success","false","263.82","success","Verizon Wireless","Verizon Wireless","80904","38.840000000000003","-104.85","(38.84, -104.85)"
"1xEVDO REVA","GSM","false","-73","444","success","302.7","success","false","82.42","success","Verizon Wireless","Verizon Wireless","80904","38.85","-104.87","(38.85, -104.87)"
"1xEVDO REVA","GSM","false","-73","450","success","2027.04","success","false","302.27999999999997","success","Verizon Wireless","Verizon Wireless","80904","38.840000000000003","-104.86","(38.84, -104.86)"
"1xEVDO REVA","GSM","false","-73","503.8","success","831.84","success","false","126.34","success","Verizon Wireless","Verizon Wireless","80904","38.85","-104.88","(38.85, -104.88)"
"1xEVDO REVA","GSM","false","-73","552.20000000000005","success","859.97","success","false","256.17","success","Verizon Wireless","Verizon Wireless","80904","38.840000000000003","-104.87","(38.84, -104.87)"
"1xEVDO REVA","GSM","false","-73","609.4","success","159.41","success","false","89.01","success","Verizon Wireless","Verizon Wireless","80904","38.85","-104.87","(38.85, -104.87)"
"1xEVDO REVA","GSM","false","-73","722.8","success","132.9","success","false","104.69","success","Verizon Wireless","Verizon Wireless","80904","38.85","-104.87","(38.85, -104.87)"
"1xEVDO REVA","GSM","false","-71","142","success","5505.62","success","false","817.81","success","Verizon Wireless","Verizon Wireless","80904","38.85","-104.85","(38.85, -104.85)"
"1xEVDO REVA","GSM","false","-71","159.4","success","7564.99","success","false","818.51","success","Verizon Wireless","Verizon Wireless","80904","38.840000000000003","-104.85","(38.84, -104.85)"
"1xEVDO REVA","GSM","false","-71","163","success","1983.36","success","false","675.29","success","Verizon Wireless","Verizon Wireless","80904","38.840000000000003","-104.84","(38.84, -104.84)"
"1xEVDO REVA","GSM","false","-71","304.39999999999998","success","1343.24","success","false","413.55","success","Verizon Wireless","Verizon Wireless","80904","38.840000000000003","-104.85","(38.84, -104.85)"
"1xEVDO REVA","GSM","false","-71","311.39999999999998","success","1040.8699999999999","success","false","461.44","success","Verizon Wireless","Verizon Wireless","80904","38.840000000000003","-104.85","(38.84, -104.85)"
"1xEVDO REVA","GSM","false","-71","366.6","success","1473.6","success","false","319.74","success","Verizon Wireless","Verizon Wireless","80904","38.85","-104.86","(38.85, -104.86)"
"1xEVDO REVA","GSM","false","-69","134","success","14007.96","success","false","982.9","success","Verizon Wireless","Verizon Wireless","80904","38.89","-104.87","(38.89, -104.87)"
"1xEVDO REVA","GSM","false","-69","161.4","success","12067.65","success","false","851.44","success","Verizon Wireless","Verizon Wireless","80904","38.840000000000003","-104.85","(38.84, -104.85)"
"1xEVDO REVA","GSM","false","-69","283.39999999999998","success","4253.38","success","false","552.87","success","Verizon Wireless","Verizon Wireless","80904","38.86","-104.86","(38.86, -104.86)"
"1xEVDO REVA","GSM","false","-69","301.8","success","3044.63","success","false","450.12","success","Verizon Wireless","Verizon Wireless","80904","38.880000000000003","-104.88","(38.88, -104.88)"
"1xEVDO REVA","GSM","false","-69","407.2","success","970.33","success","false","265.72000000000003","success","Verizon Wireless","Verizon Wireless","80904","38.85","-104.87","(38.85, -104.87)"
"1xEVDO REVA","GSM","false","-69","461.4","success","148.63999999999999","success","false","240.46","success","Verizon Wireless","Verizon Wireless","80904","38.85","-104.87","(38.85, -104.87)"
"1xEVDO REVA","GSM","false","-69","559.4","success","554.28","success","false","223.31","success","Verizon Wireless","Verizon Wireless","80904","38.85","-104.87","(38.85, -104.87)"
"1xEVDO REVA","GSM","false","-69","1142.2","success","936.81","success","false","311.25","success","Verizon Wireless","Verizon Wireless","80904","38.85","-104.87","(38.85, -104.87)"
"1xEVDO REVA","GSM","false","-67","290","success","3703.83","success","false","534.45000000000005","success","Verizon Wireless","Verizon Wireless","80904","38.85","-104.84","(38.85, -104.84)"
"1xEVDO REVA","GSM","false","-67","301","success","4765.6899999999996","success","false","530.46","success","Verizon Wireless","Verizon Wireless","80904","38.869999999999997","-104.87","(38.87, -104.87)"
"1xEVDO REVA","GSM","false","-67","306.8","success","5410.34","success","false","540.27","success","Verizon Wireless","Verizon Wireless","80904","38.840000000000003","-104.84","(38.84, -104.84)"
"1xEVDO REVA","GSM","false","-67","378.8","success","233.44","success","false","268.04000000000002","success","Verizon Wireless","Verizon Wireless","80904","38.869999999999997","-104.87","(38.87, -104.87)"
"1xEVDO REVA","GSM","false","-67","385.6","success","3674.65","success","false","434.83","success","Verizon Wireless","Verizon Wireless","80904","38.85","-104.86","(38.85, -104.86)"
"1xEVDO REVA","GSM","false","-67","401.6","success","1471.97","success","false","269.64","success","Verizon Wireless","Verizon Wireless","80904","38.840000000000003","-104.86","(38.84, -104.86)"
"1xEVDO REVA","GSM","false","-67","420.2","success","195.86","success","false","40.28","success","Verizon Wireless","Verizon Wireless","80904","38.85","-104.88","(38.85, -104.88)"
"1xEVDO REVA","GSM","false","-67","435.6","success","1474.54","success","false","382.49","success","Verizon Wireless","Verizon Wireless","80904","38.85","-104.87","(38.85, -104.87)"
"1xEVDO REVA","GSM","false","-67","446.8","success","400.99","success","false","130.35","success","Verizon Wireless","Verizon Wireless","80904","38.85","-104.87","(38.85, -104.87)"
"1xEVDO REVA","GSM","false","-67","454","success","2229.8000000000002","success","false","293.19","success","Verizon Wireless","Verizon Wireless","80904","38.869999999999997","-104.85","(38.87, -104.85)"
"1xEVDO REVA","GSM","false","-67","483.2","success","351.94","success","false","233.2","success","Verizon Wireless","Verizon Wireless","80904","38.86","-104.85","(38.86, -104.85)"
"1xEVDO REVA","GSM","false","-67","525.6","success","196.05","success","false","10.35","success","Verizon Wireless","Verizon Wireless","80904","38.86","-104.85","(38.86, -104.85)"
"1xEVDO REVA","GSM","false","-67","717.6","success","8819.4500000000007","success","false","895.56","success","Verizon Wireless","Verizon Wireless","80904","38.869999999999997","-104.86","(38.87, -104.86)"
"1xEVDO REVA","GSM","false","-65","136.19999999999999","success","14352.97","success","false","945.72","success","Verizon Wireless","Verizon Wireless","80904","38.85","-104.87","(38.85, -104.87)"
"1xEVDO REVA","GSM","false","-65","175.6","success","5780.68","success","false","1030.02","success","Verizon Wireless","Verizon Wireless","80904","38.840000000000003","-104.85","(38.84, -104.85)"
"1xEVDO REVA","GSM","false","-65","221","success","7565.59","success","false","711.49","success","Verizon Wireless","Verizon Wireless","80904","38.86","-104.86","(38.86, -104.86)"
"1xEVDO REVA","GSM","false","-65","361","success","2832.83","success","false","371.49","success","Verizon Wireless","Verizon Wireless","80904","38.83","-104.84","(38.83, -104.84)"
"1xEVDO REVA","GSM","false","-65","369.2","success","1503.44","success","false","304.83999999999997","success","Verizon Wireless","Verizon Wireless","80904","38.85","-104.87","(38.85, -104.87)"
"1xEVDO REVA","GSM","false","-65","369.8","success","1823.98","success","false","358.11","success","Verizon Wireless","Verizon Wireless","80904","38.85","-104.87","(38.85, -104.87)"
"1xEVDO REVA","GSM","false","-65","386","success","2352.35","success","false","335.7","success","Verizon Wireless","Verizon Wireless","80904","38.840000000000003","-104.86","(38.84, -104.86)"
"1xEVDO REVA","GSM","false","-65","399.4","success","2077.48","success","false","313.13","success","Verizon Wireless","Verizon Wireless","80904","38.85","-104.87","(38.85, -104.87)"
"1xEVDO REVA","GSM","false","-63","258.8","success","4529.99","success","false","588.92999999999995","success","Verizon Wireless","Verizon Wireless","80904","38.840000000000003","-104.85","(38.84, -104.85)"
"1xEVDO REVA","GSM","false","-63","314.2","success","2752.12","success","false","435.79","success","Verizon Wireless","Verizon Wireless","80904","38.840000000000003","-104.84","(38.84, -104.84)"
"1xEVDO REVA","GSM","false","-63","331.4","success","5079.1000000000004","success","false","514.79999999999995","success","Verizon Wireless","Verizon Wireless","80904","38.85","-104.87","(38.85, -104.87)"
"1xEVDO REVA","GSM","false","-63","374","success","1193.2","success","false","290.39999999999998","success","Verizon Wireless","Verizon Wireless","80904","38.840000000000003","-104.86","(38.84, -104.86)"
"1xEVDO REVA","GSM","false","-63","423.4","success","581","success","false","341.84","success","Verizon Wireless","Verizon Wireless","80904","38.840000000000003","-104.85","(38.84, -104.85)"
"1xEVDO REVA","GSM","false","-63","798.6","success","1071.72","success","false","433.62","success","Verizon Wireless","Verizon Wireless","80904","38.85","-104.86","(38.85, -104.86)"
"1xEVDO REVA","GSM","false","-61","138.19999999999999","success","7799.09","success","false","797.24","success","Verizon Wireless","Verizon Wireless","80904","38.85","-104.85","(38.85, -104.85)"
"1xEVDO REVA","GSM","false","-61","154.80000000000001","success","7551.65","success","false","868.73","success","Verizon Wireless","Verizon Wireless","80904","38.840000000000003","-104.84","(38.84, -104.84)"
"1xEVDO REVA","GSM","false","-61","166.8","success","10289.36","success","false","894.82","success","Verizon Wireless","Verizon Wireless","80904","38.85","-104.86","(38.85, -104.86)"
"1xEVDO REVA","GSM","false","-61","208.8","success","5700.51","success","false","678.67","success","Verizon Wireless","Verizon Wireless","80904","38.85","-104.86","(38.85, -104.86)"
"1xEVDO REVA","GSM","false","-61","243.2","success","6030.64","success","false","647.09","success","Verizon Wireless","Verizon Wireless","80904","38.85","-104.85","(38.85, -104.85)"
"1xEVDO REVA","GSM","false","-61","272.60000000000002","success","10543.67","success","false","837.91","success","Verizon Wireless","Verizon Wireless","80904","38.840000000000003","-104.84","(38.84, -104.84)"
"1xEVDO REVA","GSM","false","-61","291","success","5329","success","false","516.92999999999995","success","Verizon Wireless","Verizon Wireless","80904","38.840000000000003","-104.86","(38.84, -104.86)"
"1xEVDO REVA","GSM","false","-61","452.8","success","407.11","success","false","173.25","success","Verizon Wireless","Verizon Wireless","80904","38.86","-104.86","(38.86, -104.86)"
"1xEVDO REVA","GSM","false","-59",,"Error",,,"true",,,"Verizon Wireless","Verizon Wireless","80904","38.82","-104.86","(38.82, -104.86)"
"1xEVDO REVA","GSM","false","-59","142.4","success","1984.6","success","false","699.42","success","Verizon Wireless","Verizon Wireless","80904","38.880000000000003","-104.87","(38.88, -104.87)"
"1xEVDO REVA","GSM","false","-59","149.19999999999999","success","9802.16","success","false","835.71","success","Verizon Wireless","Verizon Wireless","80904","38.85","-104.87","(38.85, -104.87)"
"1xEVDO REVA","GSM","false","-59","149.6","success","9380.1","success","false","819.88","success","Verizon Wireless","Verizon Wireless","80904","38.840000000000003","-104.85","(38.84, -104.85)"
"1xEVDO REVA","GSM","false","-59","232.2","success","2295.6799999999998","success","false","431.96","success","Verizon Wireless","Verizon Wireless","80904","38.82","-104.86","(38.82, -104.86)"
"1xEVDO REVA","GSM","false","-59","294.8","success","3832.7","success","false","536.87","success","Verizon Wireless","Verizon Wireless","80904","38.840000000000003","-104.85","(38.84, -104.85)"
"1xEVDO REVA","GSM","false","-59","300.39999999999998","success","4567.6499999999996","success","false","538.32000000000005","success","Verizon Wireless","Verizon Wireless","80904","38.840000000000003","-104.85","(38.84, -104.85)"
"1xEVDO REVA","GSM","false","-59","382.2","success","851.11","success","false","343.52","success","Verizon Wireless","Verizon Wireless","80904","38.840000000000003","-104.86","(38.84, -104.86)"
"1xEVDO REVA","GSM","false","-59","453.6","success","1063.25","success","false","289.95999999999998","success","Verizon Wireless","Verizon Wireless","80904","38.85","-104.87","(38.85, -104.87)"
"1xEVDO REVA","GSM","false","-59","530.4","success","993.12","success","false","220.71","success","Verizon Wireless","Verizon Wireless","80904","38.83","-104.85","(38.83, -104.85)"
"1xEVDO REVA","GSM","false","-57",,"Error",,,"true",,,"Verizon Wireless","Verizon Wireless","80904","38.840000000000003","-104.84","(38.84, -104.84)"
"1xEVDO REVA","GSM","false","-57","124","success","10753.69","success","false","913.9","success","Verizon Wireless","Verizon Wireless","80904","38.86","-104.85","(38.86, -104.85)"
"1xEVDO REVA","GSM","false","-57","136.4","success","11609.02","success","false","911.2","success","Verizon Wireless","Verizon Wireless","80904","38.86","-104.86","(38.86, -104.86)"
"1xEVDO REVA","GSM","false","-57","160.19999999999999","success","790.67","success","false","431.52","success","Verizon Wireless","Verizon Wireless","80904","38.83","-104.85","(38.83, -104.85)"
"1xEVDO REVA","GSM","false","-57","170.6","success","13678.6","success","false","878.84","success","Verizon Wireless","Verizon Wireless","80904","38.83","-104.87","(38.83, -104.87)"
"1xEVDO REVA","GSM","false","-57","217.2","success","5215.51","success","false","632.4","success","Verizon Wireless","Verizon Wireless","80904","38.86","-104.86","(38.86, -104.86)"
"1xEVDO REVA","GSM","false","-57","230.4","success","5525.07","success","false","669.72","success","Verizon Wireless","Verizon Wireless","80904","38.85","-104.85","(38.85, -104.85)"
"1xEVDO REVA","GSM","false","-57","363.4","success","3445.73","success","false","458.25","success","Verizon Wireless","Verizon Wireless","80904","38.840000000000003","-104.87","(38.84, -104.87)"
"1xEVDO REVA","GSM","false","-57","366.6","success","3097.03","success","false","455.66","success","Verizon Wireless","Verizon Wireless","80904","38.85","-104.88","(38.85, -104.88)"
"1xEVDO REVA","GSM","false","-57","413.6","success","4597.93","success","false","408.91","success","Verizon Wireless","Verizon Wireless","80904","38.840000000000003","-104.85","(38.84, -104.85)"
"1xEVDO REVA","GSM","false","-55","212","success","8359.4599999999991","success","false","678.56","success","Verizon Wireless","Verizon Wireless","80904","38.85","-104.87","(38.85, -104.87)"
"1xEVDO REVA","GSM","false","-55","278.2","success","5334.7","success","false","555.04","success","Verizon Wireless","Verizon Wireless","80904","38.83","-104.85","(38.83, -104.85)"
"1xEVDO REVA","GSM","false","-55","424.2","success","204.31","success","false","60.85","success","Verizon Wireless","Verizon Wireless","80904","38.85","-104.87","(38.85, -104.87)"
"1xEVDO REVA","GSM","false","-53","285.2","success","4317.55","success","false","578.77","success","Verizon Wireless","Verizon Wireless","80904","38.85","-104.86","(38.85, -104.86)"
"1xEVDO REVA","GSM","false","-53","292.2","success","3450.26","success","false","536.16","success","Verizon Wireless","Verizon Wireless","80904","38.85","-104.86","(38.85, -104.86)"
"1xEVDO REVA","GSM","false","-53","298.39999999999998","success","5472.05","success","false","492.77","success","Verizon Wireless","Verizon Wireless","80904","38.83","-104.85","(38.83, -104.85)"
"1xEVDO REVA","GSM","false","-53","300.2","success","5113.53","success","false","485.68","success","Verizon Wireless","Verizon Wireless","80904","38.85","-104.87","(38.85, -104.87)"
"1xEVDO REVA","GSM","false","-53","300.60000000000002","success","4852.1099999999997","success","false","550.69000000000005","success","Verizon Wireless","Verizon Wireless","80904","38.85","-104.87","(38.85, -104.87)"
"1xEVDO REVA","GSM","false","-53","342","success","4502.21","success","false","475.45","success","Verizon Wireless","Verizon Wireless","80904","38.86","-104.86","(38.86, -104.86)"
"1xEVDO REVA","GSM","false","-53","367.2","success","4038.73","success","false","461.82","success","Verizon Wireless","Verizon Wireless","80904","38.840000000000003","-104.86","(38.84, -104.86)"
"1xEVDO REVA","GSM","false","-53","376.4","success","1726.33","success","false","376.46","success","Verizon Wireless","Verizon Wireless","80904","38.840000000000003","-104.87","(38.84, -104.87)"
"1xEVDO REVA","GSM","false","-51","128.6","success","15365.87","success","false","942.54","success","Verizon Wireless","Verizon Wireless","80904","38.85","-104.87","(38.85, -104.87)"
"1xEVDO REVA","GSM","false","-51","139.6","success","9465.5300000000007","success","false","915.8","success","Verizon Wireless","Verizon Wireless","80904","38.83","-104.85","(38.83, -104.85)"
"1xEVDO REVA","GSM","false","-51","152.6","success","10426.32","success","false","861.32","success","Verizon Wireless","Verizon Wireless","80904","38.83","-104.85","(38.83, -104.85)"
"1xEVDO REVA","GSM","false","-51","162.80000000000001","success","14688.28","success","false","917.56","success","Verizon Wireless","Verizon Wireless","80904","38.83","-104.85","(38.83, -104.85)"
"1xEVDO REVA","GSM","false","-51","166.6","success","11079.63","success","false","839.17","success","Verizon Wireless","Verizon Wireless","80904","38.83","-104.87","(38.83, -104.87)"
"1xEVDO REVA","GSM","false","-51","186.6","success","9368.92","success","false","818.75","success","Verizon Wireless","Verizon Wireless","80904","38.85","-104.87","(38.85, -104.87)"
"1xEVDO REVA","GSM","false","-51","229","success","7673.59","success","false","558.29","success","Verizon Wireless","Verizon Wireless","80904","38.83","-104.85","(38.83, -104.85)"
"1xEVDO REVA","GSM","false","-51","252.8","success","7880.24","success","false","650.15","success","Verizon Wireless","Verizon Wireless","80904","38.840000000000003","-104.86","(38.84, -104.86)"
"1xEVDO REVA","GSM","false","-51","270.8","success","5772.51","success","false","547.01","success","Verizon Wireless","Verizon Wireless","80904","38.82","-104.86","(38.82, -104.86)"
"1xEVDO REVA","GSM","false","-51","303","success","4690.18","success","false","529.34","success","Verizon Wireless","Verizon Wireless","80904","38.83","-104.86","(38.83, -104.86)"
"1xEVDO REVA","GSM","false","-51","310.39999999999998","success","5721.25","success","false","544.37","success","Verizon Wireless","Verizon Wireless","80904","38.840000000000003","-104.85","(38.84, -104.85)"
"1xEVDO REVA","GSM","false","-51","318.8","success","4645.78","success","false","492.25","success","Verizon Wireless","Verizon Wireless","80904","38.840000000000003","-104.86","(38.84, -104.86)"
"1xEVDO REVA","GSM","false","-51","361.8","success","3460.51","success","false","422.39","success","Verizon Wireless","Verizon Wireless","80904","38.83","-104.85","(38.83, -104.85)"
"1xEVDO REVA","GSM","false","-51","373","success","219.91","success","false","438.89","success","Verizon Wireless","Verizon Wireless","80904","38.85","-104.87","(38.85, -104.87)"
"1xEVDO REVA","GSM","false","-51","376.2","success","1019.4","success","false","445.54","success","Verizon Wireless","Verizon Wireless","80904","38.840000000000003","-104.86","(38.84, -104.86)"
"1xEVDO REVA","GSM","false","-51","409.2","success","2282.54","success","false","404.08","success","Verizon Wireless","Verizon Wireless","80904","38.840000000000003","-104.84","(38.84, -104.84)"
"1xEVDO REVA","GSM","false","-51","441.2","success","3860.31","success","false","440.3","success","Verizon Wireless","Verizon Wireless","80904","38.840000000000003","-104.85","(38.84, -104.85)"
"1xEVDO REVA","GSM","false","-75",,"Error",,,"true",,,"Verizon Wireless","Verizon Wireless","80905","38.799999999999997","-104.84","(38.8, -104.84)"
"1xEVDO REVA","CDMA","false","-67",,"Error",,,"true",,,"Verizon Wireless","Verizon Wireless","80905","38.799999999999997","-104.8","(38.8, -104.8)"
"1xEVDO REVA","CDMA","false","-67","389","success","4011.01","success","false","404.42","success","Verizon Wireless","Verizon Wireless","80905","38.799999999999997","-104.8","(38.8, -104.8)"
"1xEVDO REVA","CDMA","false","-61",,"Error",,,"true",,,"Verizon Wireless","Verizon Wireless","80905","38.82","-104.84","(38.82, -104.84)"
"1xEVDO REVA","CDMA","false","-55","370.2","success","4320.68","success","false","452.74","success","Verizon Wireless","Verizon Wireless","80905","38.82","-104.84","(38.82, -104.84)"
"1xEVDO REVA","GSM","false","-113","250.8","success","370.57","success","false","0","timeout","Verizon Wireless","Verizon Wireless","80905","38.799999999999997","-104.84","(38.8, -104.84)"
"1xEVDO REVA","GSM","false","-113","395.6","success","436.06","success","false","76.22","success","Verizon Wireless","Verizon Wireless","80905","38.799999999999997","-104.84","(38.8, -104.84)"
"1xEVDO REVA","GSM","false","-113","654.20000000000005","success","303.25","success","false","134.80000000000001","success","Verizon Wireless","Verizon Wireless","80905","38.799999999999997","-104.84","(38.8, -104.84)"
"1xEVDO REVA","GSM","false","-111","435.2","success","48.82","success","false","0","timeout","Verizon Wireless","Verizon Wireless","80905","38.81","-104.84","(38.81, -104.84)"
"1xEVDO REVA","GSM","false","-111","501.6","success","123.6","success","false","0","error","Verizon Wireless","Verizon Wireless","80905","38.799999999999997","-104.84","(38.8, -104.84)"
"1xEVDO REVA","GSM","false","-109","496","success","465.83","success","false","261","success","Verizon Wireless","Verizon Wireless","80905","38.81","-104.84","(38.81, -104.84)"
"1xEVDO REVA","GSM","false","-109","782","success","565.38","success","false","206.87","success","Verizon Wireless","Verizon Wireless","80905","38.799999999999997","-104.83","(38.8, -104.83)"
"1xEVDO REVA","GSM","false","-107",,"error","61.51","success","false","114.11","success","Verizon Wireless","Verizon Wireless","80905","38.799999999999997","-104.84","(38.8, -104.84)"
"1xEVDO REVA","GSM","false","-107","359.8","success","788.16","success","false","0","error","Verizon Wireless","Verizon Wireless","80905","38.799999999999997","-104.84","(38.8, -104.84)"
"1xEVDO REVA","GSM","false","-107","460.6","success","206","success","false","282.42","success","Verizon Wireless","Verizon Wireless","80905","38.81","-104.84","(38.81, -104.84)"
"1xEVDO REVA","GSM","false","-105","295.2","success","443.01","success","false","71.91","success","Verizon Wireless","Verizon Wireless","80905","38.81","-104.83","(38.81, -104.83)"
"1xEVDO REVA","GSM","false","-103","375.2","success","233.18","success","false","97.73","success","Verizon Wireless","Verizon Wireless","80905","38.81","-104.83","(38.81, -104.83)"
"1xEVDO REVA","GSM","false","-101","232","success","555.08000000000004","success","false","370.16","success","Verizon Wireless","Verizon Wireless","80905","38.83","-104.83","(38.83, -104.83)"
"1xEVDO REVA","GSM","false","-101","653.6","success","781.57","success","false","0","error","Verizon Wireless","Verizon Wireless","80905","38.799999999999997","-104.84","(38.8, -104.84)"
"1xEVDO REVA","GSM","false","-101","2328.6","success","26.29","success","false","0","error","Verizon Wireless","Verizon Wireless","80905","38.799999999999997","-104.84","(38.8, -104.84)"
"1xEVDO REVA","GSM","false","-99",,"Error",,,"true",,,"Verizon Wireless","Verizon Wireless","80905","38.799999999999997","-104.84","(38.8, -104.84)"
"1xEVDO REVA","GSM","false","-99","350","success","510.02","success","false","130.46","success","Verizon Wireless","Verizon Wireless","80905","38.799999999999997","-104.84","(38.8, -104.84)"
"1xEVDO REVA","GSM","false","-99","478","success","153.63","success","false","32.18","success","Verizon Wireless","Verizon Wireless","80905","38.799999999999997","-104.84","(38.8, -104.84)"
"1xEVDO REVA","GSM","false","-99","575.6","success","102.97","success","false","0","error","Verizon Wireless","Verizon Wireless","80905","38.81","-104.84","(38.81, -104.84)"
"1xEVDO REVA","GSM","false","-99","783.2","success","520.02","success","false","33.07","success","Verizon Wireless","Verizon Wireless","80905","38.799999999999997","-104.83","(38.8, -104.83)"
"1xEVDO REVA","GSM","false","-97","289.60000000000002","success","693.1","success","false","273.89999999999998","success","Verizon Wireless","Verizon Wireless","80905","38.799999999999997","-104.81","(38.8, -104.81)"
"1xEVDO REVA","GSM","false","-97","290","success","152.21","success","false","67.959999999999994","success","Verizon Wireless","Verizon Wireless","80905","38.85","-104.83","(38.85, -104.83)"
"1xEVDO REVA","GSM","false","-97","486.6","success","406.59","success","false","171.39","success","Verizon Wireless","Verizon Wireless","80905","38.799999999999997","-104.84","(38.8, -104.84)"
"1xEVDO REVA","GSM","false","-95","275","success","497.81","success","false","337.62","success","Verizon Wireless","Verizon Wireless","80905","38.81","-104.81","(38.81, -104.81)"
"1xEVDO REVA","GSM","false","-95","406.2","success","36.25","success","false","28.63","success","Verizon Wireless","Verizon Wireless","80905","38.85","-104.83","(38.85, -104.83)"
"1xEVDO REVA","GSM","false","-95","428.2","success","340.03","success","false","153.68","success","Verizon Wireless","Verizon Wireless","80905","38.85","-104.83","(38.85, -104.83)"
"1xEVDO REVA","GSM","false","-95","795","success","150.82","success","false","0","error","Verizon Wireless","Verizon Wireless","80905","38.799999999999997","-104.84","(38.8, -104.84)"
"1xEVDO REVA","GSM","false","-93","257.8","success","411.48","success","false","9.3699999999999992","success","Verizon Wireless","Verizon Wireless","80905","38.799999999999997","-104.84","(38.8, -104.84)"
"1xEVDO REVA","GSM","false","-93","281.2","success","105.31","success","false","78.11","success","Verizon Wireless","Verizon Wireless","80905","38.799999999999997","-104.81","(38.8, -104.81)"
"1xEVDO REVA","GSM","false","-93","282.39999999999998","success","314.89","success","false","191.83","success","Verizon Wireless","Verizon Wireless","80905","38.799999999999997","-104.83","(38.8, -104.83)"
"1xEVDO REVA","GSM","false","-93","342","success","738.61","success","false","234.59","success","Verizon Wireless","Verizon Wireless","80905","38.83","-104.84","(38.83, -104.84)"
"1xEVDO REVA","GSM","false","-93","510.2","success","217.02","success","false","11.8","success","Verizon Wireless","Verizon Wireless","80905","38.799999999999997","-104.84","(38.8, -104.84)"
"1xEVDO REVA","GSM","false","-93","599","success","330.78","success","false","180.2","success","Verizon Wireless","Verizon Wireless","80905","38.799999999999997","-104.84","(38.8, -104.84)"
"1xEVDO REVA","GSM","false","-91","371","success","425.26","success","false","245.21","success","Verizon Wireless","Verizon Wireless","80905","38.85","-104.83","(38.85, -104.83)"
"1xEVDO REVA","GSM","false","-91","395.2","success","516.79999999999995","success","false","148.38999999999999","success","Verizon Wireless","Verizon Wireless","80905","38.799999999999997","-104.81","(38.8, -104.81)"
"1xEVDO REVA","GSM","false","-91","442.6","success","384.95","success","false","87.26","success","Verizon Wireless","Verizon Wireless","80905","38.799999999999997","-104.84","(38.8, -104.84)"
"1xEVDO REVA","GSM","false","-91","505.8","success","271.43","success","false","233.1","success","Verizon Wireless","Verizon Wireless","80905","38.82","-104.84","(38.82, -104.84)"
"1xEVDO REVA","GSM","false","-91","506.2","success","164.4","success","false","0","timeout","Verizon Wireless","Verizon Wireless","80905","38.799999999999997","-104.83","(38.8, -104.83)"
"1xEVDO REVA","GSM","false","-91","534","success","146.5","success","false","193.29","success","Verizon Wireless","Verizon Wireless","80905","38.81","-104.84","(38.81, -104.84)"
"1xEVDO REVA","GSM","false","-89","207.8","success","853.23","success","false","414.56","success","Verizon Wireless","Verizon Wireless","80905","38.81","-104.84","(38.81, -104.84)"
"1xEVDO REVA","GSM","false","-89","221.8","success","206.12","success","false","0","timeout","Verizon Wireless","Verizon Wireless","80905","38.799999999999997","-104.81","(38.8, -104.81)"
"1xEVDO REVA","GSM","false","-89","249.2","success","320.45999999999998","success","false","122.31","success","Verizon Wireless","Verizon Wireless","80905","38.81","-104.84","(38.81, -104.84)"
"1xEVDO REVA","GSM","false","-89","386.8","success","1233.26","success","false","257.52999999999997","success","Verizon Wireless","Verizon Wireless","80905","38.81","-104.84","(38.81, -104.84)"
"1xEVDO REVA","GSM","false","-89","634.6","success","571.17999999999995","success","false","57.09","success","Verizon Wireless","Verizon Wireless","80905","38.82","-104.84","(38.82, -104.84)"
"1xEVDO REVA","GSM","false","-89","1418.6","success","105.2","success","false","0","error","Verizon Wireless","Verizon Wireless","80905","38.83","-104.84","(38.83, -104.84)"
"1xEVDO REVA","GSM","false","-89","3123","success","348.53","success","false","0","error","Verizon Wireless","Verizon Wireless","80905","38.85","-104.83","(38.85, -104.83)"
"1xEVDO REVA","GSM","false","-87","211.6","success","875.54","success","false","370.55","success","Verizon Wireless","Verizon Wireless","80905","38.82","-104.84","(38.82, -104.84)"
"1xEVDO REVA","GSM","false","-87","227.8","success","1132.45","success","false","345.76","success","Verizon Wireless","Verizon Wireless","80905","38.799999999999997","-104.81","(38.8, -104.81)"
"1xEVDO REVA","GSM","false","-87","289","success","1152.8499999999999","success","false","391.32","success","Verizon Wireless","Verizon Wireless","80905","38.799999999999997","-104.81","(38.8, -104.81)"
"1xEVDO REVA","GSM","false","-87","291.2","success","24.98","success","false","0","timeout","Verizon Wireless","Verizon Wireless","80905","38.81","-104.84","(38.81, -104.84)"
"1xEVDO REVA","GSM","false","-87","326","success","727.47","success","false","207.26","success","Verizon Wireless","Verizon Wireless","80905","38.85","-104.83","(38.85, -104.83)"
"1xEVDO REVA","GSM","false","-87","1156.4000000000001","success","349.89","success","false","298.35000000000002","success","Verizon Wireless","Verizon Wireless","80905","38.840000000000003","-104.83","(38.84, -104.83)"
"1xEVDO REVA","GSM","false","-85","244.2","success","309.37","success","false","342.33","success","Verizon Wireless","Verizon Wireless","80905","38.82","-104.84","(38.82, -104.84)"
"1xEVDO REVA","GSM","false","-85","331.8","success","1396.52","success","false","424.97","success","Verizon Wireless","Verizon Wireless","80905","38.799999999999997","-104.81","(38.8, -104.81)"
"1xEVDO REVA","GSM","false","-85","350.4","success","741.33","success","false","221.28","success","Verizon Wireless","Verizon Wireless","80905","38.82","-104.84","(38.82, -104.84)"
"1xEVDO REVA","GSM","false","-85","351","success","393.26","success","false","247.36","success","Verizon Wireless","Verizon Wireless","80905","38.82","-104.84","(38.82, -104.84)"
"1xEVDO REVA","GSM","false","-85","434.8","success","1441.09","success","false","427.32","success","Verizon Wireless","Verizon Wireless","80905","38.83","-104.84","(38.83, -104.84)"
"1xEVDO REVA","GSM","false","-85","1081","success","112.65","success","false","27.64","success","Verizon Wireless","Verizon Wireless","80905","38.799999999999997","-104.85","(38.8, -104.85)"
"1xEVDO REVA","GSM","false","-83",,"Error",,,"true",,,"Verizon Wireless","Verizon Wireless","80905","38.83","-104.83","(38.83, -104.83)"
"1xEVDO REVA","GSM","false","-83","205.2","success","602.53","success","false","331.13","success","Verizon Wireless","Verizon Wireless","80905","38.83","-104.84","(38.83, -104.84)"
"1xEVDO REVA","GSM","false","-83","236","success","412.23","success","false","326.18","success","Verizon Wireless","Verizon Wireless","80905","38.83","-104.84","(38.83, -104.84)"
"1xEVDO REVA","GSM","false","-83","278","success","392.33","success","false","427.98","success","Verizon Wireless","Verizon Wireless","80905","38.83","-104.84","(38.83, -104.84)"
"1xEVDO REVA","GSM","false","-83","279","success","943.26","success","false","288.18","success","Verizon Wireless","Verizon Wireless","80905","38.83","-104.84","(38.83, -104.84)"
"1xEVDO REVA","GSM","false","-83","290.2","success","1206.97","success","false","387.13","success","Verizon Wireless","Verizon Wireless","80905","38.83","-104.83","(38.83, -104.83)"
"1xEVDO REVA","GSM","false","-83","292.39999999999998","success","740.3","success","false","393.93","success","Verizon Wireless","Verizon Wireless","80905","38.83","-104.84","(38.83, -104.84)"
"1xEVDO REVA","GSM","false","-83","346","success","884.62","success","false","362.37","success","Verizon Wireless","Verizon Wireless","80905","38.799999999999997","-104.8","(38.8, -104.8)"
"1xEVDO REVA","GSM","false","-83","346.4","success","956.91","success","false","306.73","success","Verizon Wireless","Verizon Wireless","80905","38.799999999999997","-104.85","(38.8, -104.85)"
"1xEVDO REVA","GSM","false","-83","353.8","success","1175.96","success","false","199.21","success","Verizon Wireless","Verizon Wireless","80905","38.81","-104.82","(38.81, -104.82)"
"1xEVDO REVA","GSM","false","-83","356.4","success","527.20000000000005","success","false","300.94","success","Verizon Wireless","Verizon Wireless","80905","38.82","-104.84","(38.82, -104.84)"
"1xEVDO REVA","GSM","false","-83","366.2","success","527.78","success","false","141.91999999999999","success","Verizon Wireless","Verizon Wireless","80905","38.83","-104.84","(38.83, -104.84)"
"1xEVDO REVA","GSM","false","-83","447","success","883.28","success","false","255.08","success","Verizon Wireless","Verizon Wireless","80905","38.83","-104.83","(38.83, -104.83)"
"1xEVDO REVA","GSM","false","-83","514.4","success","494.47","success","false","200.53","success","Verizon Wireless","Verizon Wireless","80905","38.82","-104.84","(38.82, -104.84)"
"1xEVDO REVA","GSM","false","-83","543.4","success","102.66","success","false","0","error","Verizon Wireless","Verizon Wireless","80905","38.81","-104.82","(38.81, -104.82)"
"1xEVDO REVA","GSM","false","-83","598","success","784.69","success","false","211.56","success","Verizon Wireless","Verizon Wireless","80905","38.82","-104.84","(38.82, -104.84)"
"1xEVDO REVA","GSM","false","-83","616.6","success","1038.94","success","false","195.14","success","Verizon Wireless","Verizon Wireless","80905","38.799999999999997","-104.84","(38.8, -104.84)"
"1xEVDO REVA","GSM","false","-83","619.6","success","1180.55","success","false","188.2","success","Verizon Wireless","Verizon Wireless","80905","38.81","-104.83","(38.81, -104.83)"
"1xEVDO REVA","GSM","false","-81","204","success","614.02","success","false","379.56","success","Verizon Wireless","Verizon Wireless","80905","38.82","-104.84","(38.82, -104.84)"
"1xEVDO REVA","GSM","false","-81","223.4","success","1113.05","success","false","390.05","success","Verizon Wireless","Verizon Wireless","80905","38.83","-104.84","(38.83, -104.84)"
"1xEVDO REVA","GSM","false","-81","234.6","success","913.05","success","false","405.61","success","Verizon Wireless","Verizon Wireless","80905","38.83","-104.83","(38.83, -104.83)"
"1xEVDO REVA","GSM","false","-81","282.2","success","632.96","success","false","348.61","success","Verizon Wireless","Verizon Wireless","80905","38.83","-104.84","(38.83, -104.84)"
"1xEVDO REVA","GSM","false","-81","305.60000000000002","success","4067.46","success","false","516.65","success","Verizon Wireless","Verizon Wireless","80905","38.799999999999997","-104.84","(38.8, -104.84)"
"1xEVDO REVA","GSM","false","-81","334.2","success","140.66","success","false","136.97","success","Verizon Wireless","Verizon Wireless","80905","38.81","-104.84","(38.81, -104.84)"
"1xEVDO REVA","GSM","false","-81","341.4","success","1570.81","success","false","334.09","success","Verizon Wireless","Verizon Wireless","80905","38.81","-104.81","(38.81, -104.81)"
"1xEVDO REVA","GSM","false","-81","360.4","success","300.64999999999998","success","false","284.08","success","Verizon Wireless","Verizon Wireless","80905","38.799999999999997","-104.84","(38.8, -104.84)"
"1xEVDO REVA","GSM","false","-81","405.6","success","685.57","success","false","277.69","success","Verizon Wireless","Verizon Wireless","80905","38.81","-104.83","(38.81, -104.83)"
"1xEVDO REVA","GSM","false","-81","416.2","success","387.92","success","false","110.48","success","Verizon Wireless","Verizon Wireless","80905","38.82","-104.84","(38.82, -104.84)"
"1xEVDO REVA","GSM","false","-81","472","success","124.67","success","false","0","error","Verizon Wireless","Verizon Wireless","80905","38.840000000000003","-104.85","(38.84, -104.85)"
"1xEVDO REVA","GSM","false","-81","662.6","success","1171.23","success","false","245.59","success","Verizon Wireless","Verizon Wireless","80905","38.840000000000003","-104.83","(38.84, -104.83)"
"1xEVDO REVA","GSM","false","-81","897.4","success","124","success","false","0","error","Verizon Wireless","Verizon Wireless","80905","38.799999999999997","-104.83","(38.8, -104.83)"
"1xEVDO REVA","GSM","false","-79",,"Error",,,"true",,,"Verizon Wireless","Verizon Wireless","80905","38.83","-104.83","(38.83, -104.83)"
"1xEVDO REVA","GSM","false","-79","145.6","success","5113.16","success","false","791.38","success","Verizon Wireless","Verizon Wireless","80905","38.85","-104.82","(38.85, -104.82)"
"1xEVDO REVA","GSM","false","-79","226.6","success","942.28","success","false","433.74","success","Verizon Wireless","Verizon Wireless","80905","38.81","-104.83","(38.81, -104.83)"
"1xEVDO REVA","GSM","false","-79","248.2","success","485.6","success","false","358.41","success","Verizon Wireless","Verizon Wireless","80905","38.83","-104.83","(38.83, -104.83)"
"1xEVDO REVA","GSM","false","-79","264.39999999999998","success","511.53","success","false","231.91","success","Verizon Wireless","Verizon Wireless","80905","38.82","-104.84","(38.82, -104.84)"
"1xEVDO REVA","GSM","false","-79","274.2","success","480.92","success","false","252.34","success","Verizon Wireless","Verizon Wireless","80905","38.83","-104.83","(38.83, -104.83)"
"1xEVDO REVA","GSM","false","-79","275.60000000000002","success","653.77","success","false","205.61","success","Verizon Wireless","Verizon Wireless","80905","38.86","-104.83","(38.86, -104.83)"
"1xEVDO REVA","GSM","false","-79","290","success","1348.66","success","false","330.85","success","Verizon Wireless","Verizon Wireless","80905","38.81","-104.82","(38.81, -104.82)"
"1xEVDO REVA","GSM","false","-79","313.2","success","2558.83","success","false","444.03","success","Verizon Wireless","Verizon Wireless","80905","38.79","-104.81","(38.79, -104.81)"
"1xEVDO REVA","GSM","false","-79","316.60000000000002","success","1333.48","success","false","321.33999999999997","success","Verizon Wireless","Verizon Wireless","80905","38.82","-104.84","(38.82, -104.84)"
"1xEVDO REVA","GSM","false","-79","356","success","859.29","success","false","244.45","success","Verizon Wireless","Verizon Wireless","80905","38.81","-104.82","(38.81, -104.82)"
"1xEVDO REVA","GSM","false","-79","362.6","success","649.37","success","false","235.32","success","Verizon Wireless","Verizon Wireless","80905","38.83","-104.83","(38.83, -104.83)"
"1xEVDO REVA","GSM","false","-79","411.4","success","433.89","success","false","65.19","success","Verizon Wireless","Verizon Wireless","80905","38.82","-104.84","(38.82, -104.84)"
"1xEVDO REVA","GSM","false","-79","459.8","success","96.89","success","false","0","error","Verizon Wireless","Verizon Wireless","80905","38.82","-104.84","(38.82, -104.84)"
"1xEVDO REVA","GSM","false","-79","467","success","262.5","success","false","211.12","success","Verizon Wireless","Verizon Wireless","80905","38.82","-104.84","(38.82, -104.84)"
"1xEVDO REVA","GSM","false","-79","543.79999999999995","success","93.75","success","false","0","error","Verizon Wireless","Verizon Wireless","80905","38.82","-104.83","(38.82, -104.83)"
"1xEVDO REVA","GSM","false","-77",,"error","2.02","success","false","0","timeout","Verizon Wireless","Verizon Wireless","80905","38.81","-104.83","(38.81, -104.83)"
"1xEVDO REVA","GSM","false","-77","221","success","1215.01","success","false","418.34","success","Verizon Wireless","Verizon Wireless","80905","38.83","-104.83","(38.83, -104.83)"
"1xEVDO REVA","GSM","false","-77","270.39999999999998","success","696.18","success","false","372.36","success","Verizon Wireless","Verizon Wireless","80905","38.82","-104.84","(38.82, -104.84)"
"1xEVDO REVA","GSM","false","-77","379.8","success","3321.11","success","false","393.88","success","Verizon Wireless","Verizon Wireless","80905","38.85","-104.83","(38.85, -104.83)"
"1xEVDO REVA","GSM","false","-77","394.6","success","1513.53","success","false","316.93","success","Verizon Wireless","Verizon Wireless","80905","38.83","-104.83","(38.83, -104.83)"
"1xEVDO REVA","GSM","false","-77","429.4","success","334.6","success","false","0","error","Verizon Wireless","Verizon Wireless","80905","38.83","-104.84","(38.83, -104.84)"
"1xEVDO REVA","GSM","false","-77","914.8","success","125.72","success","false","48.15","success","Verizon Wireless","Verizon Wireless","80905","38.81","-104.82","(38.81, -104.82)"
"1xEVDO REVA","GSM","false","-77","1132.5999999999999","success","300.47000000000003","success","false","239.62","success","Verizon Wireless","Verizon Wireless","80905","38.82","-104.83","(38.82, -104.83)"
"1xEVDO REVA","GSM","false","-75","140.80000000000001","success","6353.72","success","false","886.68","success","Verizon Wireless","Verizon Wireless","80905","38.81","-104.83","(38.81, -104.83)"
"1xEVDO REVA","GSM","false","-75","146","success","1657.15","success","false","796.13","success","Verizon Wireless","Verizon Wireless","80905","38.799999999999997","-104.84","(38.8, -104.84)"
"1xEVDO REVA","GSM","false","-75","175.6","success","8338.9500000000007","success","false","911.48","success","Verizon Wireless","Verizon Wireless","80905","38.81","-104.83","(38.81, -104.83)"
"1xEVDO REVA","GSM","false","-75","188.8","success","2479.11","success","false","702.27","success","Verizon Wireless","Verizon Wireless","80905","38.85","-104.83","(38.85, -104.83)"
"1xEVDO REVA","GSM","false","-75","226.4","success","548.30999999999995","success","false","166.88","success","Verizon Wireless","Verizon Wireless","80905","38.82","-104.84","(38.82, -104.84)"
"1xEVDO REVA","GSM","false","-75","253.2","success","1418.52","success","false","134.88999999999999","success","Verizon Wireless","Verizon Wireless","80905","38.799999999999997","-104.84","(38.8, -104.84)"
"1xEVDO REVA","GSM","false","-75","352","success","428.58","success","false","259.64999999999998","success","Verizon Wireless","Verizon Wireless","80905","38.82","-104.83","(38.82, -104.83)"
"1xEVDO REVA","GSM","false","-75","456.4","success","350.88","success","false","266.55","success","Verizon Wireless","Verizon Wireless","80905","38.82","-104.84","(38.82, -104.84)"
"1xEVDO REVA","GSM","false","-75","477.2","success","2062.36","success","false","348.63","success","Verizon Wireless","Verizon Wireless","80905","38.799999999999997","-104.81","(38.8, -104.81)"
"1xEVDO REVA","GSM","false","-75","512.4","success","906.06","success","false","203.3","success","Verizon Wireless","Verizon Wireless","80905","38.82","-104.85","(38.82, -104.85)"
"1xEVDO REVA","GSM","false","-75","619","success","212.23","success","false","226.27","success","Verizon Wireless","Verizon Wireless","80905","38.81","-104.82","(38.81, -104.82)"
"1xEVDO REVA","GSM","false","-75","979.6","success","125.33","success","false","60.34","success","Verizon Wireless","Verizon Wireless","80905","38.81","-104.83","(38.81, -104.83)"
"1xEVDO REVA","GSM","false","-75","1330.8","success","574.54999999999995","success","false","76.489999999999995","success","Verizon Wireless","Verizon Wireless","80905","38.82","-104.84","(38.82, -104.84)"
"1xEVDO REVA","GSM","false","-75","1435.8","success","119.56","success","false","28.58","success","Verizon Wireless","Verizon Wireless","80905","38.83","-104.84","(38.83, -104.84)"
"1xEVDO REVA","GSM","false","-73",,"Error",,,"true",,,"Verizon Wireless","Verizon Wireless","80905","38.799999999999997","-104.81","(38.8, -104.81)"
"1xEVDO REVA","GSM","false","-73","279.2","success","1101.3","success","false","347.85","success","Verizon Wireless","Verizon Wireless","80905","38.799999999999997","-104.81","(38.8, -104.81)"
"1xEVDO REVA","GSM","false","-73","292.2","success","996.02","success","false","255.01","success","Verizon Wireless","Verizon Wireless","80905","38.799999999999997","-104.82","(38.8, -104.82)"
"1xEVDO REVA","GSM","false","-73","359.8","success","2558.11","success","false","435.43","success","Verizon Wireless","Verizon Wireless","80905","38.799999999999997","-104.84","(38.8, -104.84)"
"1xEVDO REVA","GSM","false","-73","368.2","success","1563.56","success","false","321.35000000000002","success","Verizon Wireless","Verizon Wireless","80905","38.81","-104.81","(38.81, -104.81)"
"1xEVDO REVA","GSM","false","-73","395.2","success","925.08","success","false","243.66","success","Verizon Wireless","Verizon Wireless","80905","38.81","-104.82","(38.81, -104.82)"
"1xEVDO REVA","GSM","false","-73","433.8","success","4243.08","success","false","381.96","success","Verizon Wireless","Verizon Wireless","80905","38.799999999999997","-104.81","(38.8, -104.81)"
"1xEVDO REVA","GSM","false","-71",,"Error",,,"true",,,"Verizon Wireless","Verizon Wireless","80905","38.79","-104.8","(38.79, -104.8)"
"1xEVDO REVA","GSM","false","-71",,"Error",,,"true",,,"Verizon Wireless","Verizon Wireless","80905","38.799999999999997","-104.81","(38.8, -104.81)"
"1xEVDO REVA","GSM","false","-71","196.8","success","3385.39","success","false","549.61","success","Verizon Wireless","Verizon Wireless","80905","38.799999999999997","-104.8","(38.8, -104.8)"
"1xEVDO REVA","GSM","false","-71","224","success","1664.93","success","false","413.28","success","Verizon Wireless","Verizon Wireless","80905","38.82","-104.84","(38.82, -104.84)"
"1xEVDO REVA","GSM","false","-71","267.60000000000002","success","2004.45","success","false","382.67","success","Verizon Wireless","Verizon Wireless","80905","38.79","-104.8","(38.79, -104.8)"
"1xEVDO REVA","GSM","false","-71","273.60000000000002","success","1151.18","success","false","369.61","success","Verizon Wireless","Verizon Wireless","80905","38.82","-104.83","(38.82, -104.83)"
"1xEVDO REVA","GSM","false","-71","281.60000000000002","success","5411.77","success","false","548.88","success","Verizon Wireless","Verizon Wireless","80905","38.82","-104.84","(38.82, -104.84)"
"1xEVDO REVA","GSM","false","-71","286.60000000000002","success","1051.9000000000001","success","false","347.77","success","Verizon Wireless","Verizon Wireless","80905","38.81","-104.82","(38.81, -104.82)"
"1xEVDO REVA","GSM","false","-71","379.8","success","1587.3","success","false","305.77999999999997","success","Verizon Wireless","Verizon Wireless","80905","38.81","-104.82","(38.81, -104.82)"
"1xEVDO REVA","GSM","false","-71","398.8","success","2165.48","success","false","377.46","success","Verizon Wireless","Verizon Wireless","80905","38.83","-104.85","(38.83, -104.85)"
"1xEVDO REVA","GSM","false","-71","404.8","success","317.38","success","false","64.05","success","Verizon Wireless","Verizon Wireless","80905","38.83","-104.83","(38.83, -104.83)"
"1xEVDO REVA","GSM","false","-71","481.8","success","540.92999999999995","success","false","363.27","success","Verizon Wireless","Verizon Wireless","80905","38.799999999999997","-104.81","(38.8, -104.81)"
"1xEVDO REVA","GSM","false","-71","512","success","308.81","success","false","171.25","success","Verizon Wireless","Verizon Wireless","80905","38.82","-104.84","(38.82, -104.84)"
"1xEVDO REVA","GSM","false","-71","515.79999999999995","success","1092.45","success","false","370.39","success","Verizon Wireless","Verizon Wireless","80905","38.799999999999997","-104.8","(38.8, -104.8)"
"1xEVDO REVA","GSM","false","-69","139.6","success","2417.5500000000002","success","false","723.44","success","Verizon Wireless","Verizon Wireless","80905","38.799999999999997","-104.84","(38.8, -104.84)"
"1xEVDO REVA","GSM","false","-69","181.4","success","6331.37","success","false","872.64","success","Verizon Wireless","Verizon Wireless","80905","38.82","-104.84","(38.82, -104.84)"
"1xEVDO REVA","GSM","false","-69","230","success","927.09","success","false","431.46","success","Verizon Wireless","Verizon Wireless","80905","38.840000000000003","-104.83","(38.84, -104.83)"
"1xEVDO REVA","GSM","false","-69","260","success","2124.15","success","false","437.4","success","Verizon Wireless","Verizon Wireless","80905","38.799999999999997","-104.81","(38.8, -104.81)"
"1xEVDO REVA","GSM","false","-69","288.8","success","4970.3599999999997","success","false","533.19000000000005","success","Verizon Wireless","Verizon Wireless","80905","38.82","-104.83","(38.82, -104.83)"
"1xEVDO REVA","GSM","false","-69","364.8","success","3945.19","success","false","447.8","success","Verizon Wireless","Verizon Wireless","80905","38.83","-104.83","(38.83, -104.83)"
"1xEVDO REVA","GSM","false","-69","376.6","success","1110.3599999999999","success","false","422.51","success","Verizon Wireless","Verizon Wireless","80905","38.85","-104.83","(38.85, -104.83)"
"1xEVDO REVA","GSM","false","-69","412.6","success","237.27","success","false","81.72","success","Verizon Wireless","Verizon Wireless","80905","38.83","-104.83","(38.83, -104.83)"
"1xEVDO REVA","GSM","false","-69","530.6","success","172.49","success","false","23.83","success","Verizon Wireless","Verizon Wireless","80905","38.82","-104.84","(38.82, -104.84)"
"1xEVDO REVA","GSM","false","-69","957.2","success","542.49","success","false","406.72","success","Verizon Wireless","Verizon Wireless","80905","38.83","-104.84","(38.83, -104.84)"
"1xEVDO REVA","GSM","false","-67","136","success","12595.19","success","false","964.54","success","Verizon Wireless","Verizon Wireless","80905","38.81","-104.82","(38.81, -104.82)"
"1xEVDO REVA","GSM","false","-67","216.4","success","2332.0100000000002","success","false","420.05","success","Verizon Wireless","Verizon Wireless","80905","38.799999999999997","-104.81","(38.8, -104.81)"
"1xEVDO REVA","GSM","false","-67","290","success","5126.8999999999996","success","false","515.35","success","Verizon Wireless","Verizon Wireless","80905","38.83","-104.83","(38.83, -104.83)"
"1xEVDO REVA","GSM","false","-67","303.39999999999998","success","5124.37","success","false","548.25","success","Verizon Wireless","Verizon Wireless","80905","38.85","-104.83","(38.85, -104.83)"
"1xEVDO REVA","GSM","false","-67","334.2","success","885.93","success","false","309.41000000000003","success","Verizon Wireless","Verizon Wireless","80905","38.81","-104.82","(38.81, -104.82)"
"1xEVDO REVA","GSM","false","-67","425.6","success","1232.76","success","false","261.16000000000003","success","Verizon Wireless","Verizon Wireless","80905","38.82","-104.84","(38.82, -104.84)"
"1xEVDO REVA","GSM","false","-67","526.4","success","787.94","success","false","395.14","success","Verizon Wireless","Verizon Wireless","80905","38.82","-104.85","(38.82, -104.85)"
"1xEVDO REVA","GSM","false","-67","686","success","2509.44","success","false","498.38","success","Verizon Wireless","Verizon Wireless","80905","38.83","-104.84","(38.83, -104.84)"
"1xEVDO REVA","GSM","false","-67","921","success","912.84","success","false","326.97000000000003","success","Verizon Wireless","Verizon Wireless","80905","38.82","-104.84","(38.82, -104.84)"
"1xEVDO REVA","GSM","false","-65","126.6","success","11542.85","success","false","891.79","success","Verizon Wireless","Verizon Wireless","80905","38.81","-104.82","(38.81, -104.82)"
"1xEVDO REVA","GSM","false","-65","136.4","success","10498.01","success","false","882.86","success","Verizon Wireless","Verizon Wireless","80905","38.82","-104.83","(38.82, -104.83)"
"1xEVDO REVA","GSM","false","-65","150.6","success","7863.19","success","false","850.82","success","Verizon Wireless","Verizon Wireless","80905","38.799999999999997","-104.81","(38.8, -104.81)"
"1xEVDO REVA","GSM","false","-65","151","success","10611.61","success","false","864.61","success","Verizon Wireless","Verizon Wireless","80905","38.840000000000003","-104.83","(38.84, -104.83)"
"1xEVDO REVA","GSM","false","-65","180.4","success","10619.53","success","false","791.41","success","Verizon Wireless","Verizon Wireless","80905","38.799999999999997","-104.8","(38.8, -104.8)"
"1xEVDO REVA","GSM","false","-65","209.6","success","1806.6","success","false","589.16999999999996","success","Verizon Wireless","Verizon Wireless","80905","38.83","-104.84","(38.83, -104.84)"
"1xEVDO REVA","GSM","false","-65","214.4","success","523.53","success","false","359.08","success","Verizon Wireless","Verizon Wireless","80905","38.79","-104.8","(38.79, -104.8)"
"1xEVDO REVA","GSM","false","-65","231.4","success","3231.08","success","false","595.57000000000005","success","Verizon Wireless","Verizon Wireless","80905","38.83","-104.83","(38.83, -104.83)"
"1xEVDO REVA","GSM","false","-65","294","success","5232.58","success","false","522","success","Verizon Wireless","Verizon Wireless","80905","38.83","-104.83","(38.83, -104.83)"
"1xEVDO REVA","GSM","false","-65","298.39999999999998","success","3620.76","success","false","515.72","success","Verizon Wireless","Verizon Wireless","80905","38.840000000000003","-104.83","(38.84, -104.83)"
"1xEVDO REVA","GSM","false","-65","298.39999999999998","success","5095.17","success","false","550.9","success","Verizon Wireless","Verizon Wireless","80905","38.82","-104.83","(38.82, -104.83)"
"1xEVDO REVA","GSM","false","-65","301.60000000000002","success","5067.01","success","false","498.04","success","Verizon Wireless","Verizon Wireless","80905","38.83","-104.84","(38.83, -104.84)"
"1xEVDO REVA","GSM","false","-65","303","success","466.71","success","false","290.27999999999997","success","Verizon Wireless","Verizon Wireless","80905","38.81","-104.82","(38.81, -104.82)"
"1xEVDO REVA","GSM","false","-65","313.2","success","3946.39","success","false","464.05","success","Verizon Wireless","Verizon Wireless","80905","38.82","-104.85","(38.82, -104.85)"
"1xEVDO REVA","GSM","false","-65","313.8","success","1054.03","success","false","326.14","success","Verizon Wireless","Verizon Wireless","80905","38.82","-104.85","(38.82, -104.85)"
"1xEVDO REVA","GSM","false","-65","353.4","success","1124.93","success","false","267.39","success","Verizon Wireless","Verizon Wireless","80905","38.79","-104.8","(38.79, -104.8)"
"1xEVDO REVA","GSM","false","-65","358","success","4759.82","success","false","469.2","success","Verizon Wireless","Verizon Wireless","80905","38.83","-104.84","(38.83, -104.84)"
"1xEVDO REVA","GSM","false","-65","391","success","2181.12","success","false","311.07","success","Verizon Wireless","Verizon Wireless","80905","38.82","-104.84","(38.82, -104.84)"
"1xEVDO REVA","GSM","false","-65","428.2","success","1947.59","success","false","294.64","success","Verizon Wireless","Verizon Wireless","80905","38.82","-104.84","(38.82, -104.84)"
"1xEVDO REVA","GSM","false","-65","441","success","1268.5999999999999","success","false","361.82","success","Verizon Wireless","Verizon Wireless","80905","38.82","-104.84","(38.82, -104.84)"
"1xEVDO REVA","GSM","false","-65","580.20000000000005","success","79.66","success","false","0","timeout","Verizon Wireless","Verizon Wireless","80905","38.82","-104.84","(38.82, -104.84)"
"1xEVDO REVA","GSM","false","-65","1082.8","success","171.03","success","false","392.72","success","Verizon Wireless","Verizon Wireless","80905","38.799999999999997","-104.82","(38.8, -104.82)"
"1xEVDO REVA","GSM","false","-63",,"Error",,,"true",,,"Verizon Wireless","Verizon Wireless","80905","38.81","-104.84","(38.81, -104.84)"
"1xEVDO REVA","GSM","false","-63","130.19999999999999","success","10494.26","success","false","861.91","success","Verizon Wireless","Verizon Wireless","80905","38.82","-104.84","(38.82, -104.84)"
"1xEVDO REVA","GSM","false","-63","135.6","success","7965.23","success","false","909.18","success","Verizon Wireless","Verizon Wireless","80905","38.82","-104.84","(38.82, -104.84)"
"1xEVDO REVA","GSM","false","-63","139.80000000000001","success","5726.11","success","false","928.8","success","Verizon Wireless","Verizon Wireless","80905","38.840000000000003","-104.83","(38.84, -104.83)"
"1xEVDO REVA","GSM","false","-63","151.19999999999999","success","8449.4699999999993","success","false","829.74","success","Verizon Wireless","Verizon Wireless","80905","38.81","-104.83","(38.81, -104.83)"
"1xEVDO REVA","GSM","false","-63","178.6","success","5855.42","success","false","862.67","success","Verizon Wireless","Verizon Wireless","80905","38.83","-104.83","(38.83, -104.83)"
"1xEVDO REVA","GSM","false","-63","204.2","success","940.6","success","false","406.95","success","Verizon Wireless","Verizon Wireless","80905","38.81","-104.83","(38.81, -104.83)"
"1xEVDO REVA","GSM","false","-63","209.8","success","1893.12","success","false","430.41","success","Verizon Wireless","Verizon Wireless","80905","38.799999999999997","-104.82","(38.8, -104.82)"
"1xEVDO REVA","GSM","false","-63","220.2","success","2961.06","success","false","667.83","success","Verizon Wireless","Verizon Wireless","80905","38.82","-104.83","(38.82, -104.83)"
"1xEVDO REVA","GSM","false","-63","237","success","6809.61","success","false","640.5","success","Verizon Wireless","Verizon Wireless","80905","38.83","-104.84","(38.83, -104.84)"
"1xEVDO REVA","GSM","false","-63","282","success","2375.83","success","false","444.89","success","Verizon Wireless","Verizon Wireless","80905","38.799999999999997","-104.82","(38.8, -104.82)"
"1xEVDO REVA","GSM","false","-63","295","success","508.02","success","false","157.26","success","Verizon Wireless","Verizon Wireless","80905","38.81","-104.84","(38.81, -104.84)"
"1xEVDO REVA","GSM","false","-63","299.2","success","4573.97","success","false","479.92","success","Verizon Wireless","Verizon Wireless","80905","38.83","-104.84","(38.83, -104.84)"
"1xEVDO REVA","GSM","false","-63","304.8","success","1041.3399999999999","success","false","512.36","success","Verizon Wireless","Verizon Wireless","80905","38.82","-104.83","(38.82, -104.83)"
"1xEVDO REVA","GSM","false","-63","307.8","success","5119.8100000000004","success","false","550.25","success","Verizon Wireless","Verizon Wireless","80905","38.81","-104.82","(38.81, -104.82)"
"1xEVDO REVA","GSM","false","-63","310.8","success","4214.97","success","false","506.53","success","Verizon Wireless","Verizon Wireless","80905","38.799999999999997","-104.8","(38.8, -104.8)"
"1xEVDO REVA","GSM","false","-63","322","success","2833.65","success","false","507.49","success","Verizon Wireless","Verizon Wireless","80905","38.83","-104.84","(38.83, -104.84)"
"1xEVDO REVA","GSM","false","-63","337.4","success","160.91999999999999","success","false","110.03","success","Verizon Wireless","Verizon Wireless","80905","38.799999999999997","-104.8","(38.8, -104.8)"
"1xEVDO REVA","GSM","false","-63","365.8","success","2111.35","success","false","441.42","success","Verizon Wireless","Verizon Wireless","80905","38.82","-104.83","(38.82, -104.83)"
"1xEVDO REVA","GSM","false","-63","576.20000000000005","success","2532.9499999999998","success","false","286.33999999999997","success","Verizon Wireless","Verizon Wireless","80905","38.82","-104.84","(38.82, -104.84)"
"1xEVDO REVA","GSM","false","-63","629","success","160.35","success","false","54.85","success","Verizon Wireless","Verizon Wireless","80905","38.799999999999997","-104.81","(38.8, -104.81)"
"1xEVDO REVA","GSM","false","-61","137","success","12339.18","success","false","895.62","success","Verizon Wireless","Verizon Wireless","80905","38.81","-104.83","(38.81, -104.83)"
"1xEVDO REVA","GSM","false","-61","141.80000000000001","success","12386.93","success","false","910.04","success","Verizon Wireless","Verizon Wireless","80905","38.79","-104.8","(38.79, -104.8)"
"1xEVDO REVA","GSM","false","-61","155.4","success","12125.99","success","false","893.33","success","Verizon Wireless","Verizon Wireless","80905","38.83","-104.83","(38.83, -104.83)"
"1xEVDO REVA","GSM","false","-61","164","success","9669.6","success","false","744.25","success","Verizon Wireless","Verizon Wireless","80905","38.799999999999997","-104.81","(38.8, -104.81)"
"1xEVDO REVA","GSM","false","-61","207.2","success","1843.93","success","false","427.68","success","Verizon Wireless","Verizon Wireless","80905","38.81","-104.81","(38.81, -104.81)"
"1xEVDO REVA","GSM","false","-61","215.6","success","9109.6299999999992","success","false","696.22","success","Verizon Wireless","Verizon Wireless","80905","38.83","-104.83","(38.83, -104.83)"
"1xEVDO REVA","GSM","false","-61","229.6","success","2843.52","success","false","622.92999999999995","success","Verizon Wireless","Verizon Wireless","80905","38.83","-104.83","(38.83, -104.83)"
"1xEVDO REVA","GSM","false","-61","232.4","success","2690.3","success","false","672.66","success","Verizon Wireless","Verizon Wireless","80905","38.83","-104.83","(38.83, -104.83)"
"1xEVDO REVA","GSM","false","-61","273.8","success","4413.1899999999996","success","false","501.99","success","Verizon Wireless","Verizon Wireless","80905","38.82","-104.84","(38.82, -104.84)"
"1xEVDO REVA","GSM","false","-61","276.39999999999998","success","4954.99","success","false","565.84","success","Verizon Wireless","Verizon Wireless","80905","38.82","-104.84","(38.82, -104.84)"
"1xEVDO REVA","GSM","false","-61","284.60000000000002","success","3631.33","success","false","533.37","success","Verizon Wireless","Verizon Wireless","80905","38.83","-104.84","(38.83, -104.84)"
"1xEVDO REVA","GSM","false","-61","292.8","success","3723.03","success","false","558.89","success","Verizon Wireless","Verizon Wireless","80905","38.82","-104.83","(38.82, -104.83)"
"1xEVDO REVA","GSM","false","-61","293.2","success","5458.17","success","false","542.6","success","Verizon Wireless","Verizon Wireless","80905","38.83","-104.83","(38.83, -104.83)"
"1xEVDO REVA","GSM","false","-61","299.39999999999998","success","3442.13","success","false","501.03","success","Verizon Wireless","Verizon Wireless","80905","38.83","-104.84","(38.83, -104.84)"
"1xEVDO REVA","GSM","false","-61","300.2","success","3113.28","success","false","490.7","success","Verizon Wireless","Verizon Wireless","80905","38.83","-104.83","(38.83, -104.83)"
"1xEVDO REVA","GSM","false","-61","306.39999999999998","success","4832.26","success","false","523.13","success","Verizon Wireless","Verizon Wireless","80905","38.840000000000003","-104.85","(38.84, -104.85)"
"1xEVDO REVA","GSM","false","-61","374.2","success","3663.21","success","false","394.54","success","Verizon Wireless","Verizon Wireless","80905","38.799999999999997","-104.82","(38.8, -104.82)"
"1xEVDO REVA","GSM","false","-59",,"Error",,,"true",,,"Verizon Wireless","Verizon Wireless","80905","38.79","-104.8","(38.79, -104.8)"
"1xEVDO REVA","GSM","false","-59","135.19999999999999","success","14579.32","success","false","880.36","success","Verizon Wireless","Verizon Wireless","80905","38.81","-104.83","(38.81, -104.83)"
"1xEVDO REVA","GSM","false","-59","137.6","success","8186.15","success","false","881.36","success","Verizon Wireless","Verizon Wireless","80905","38.83","-104.83","(38.83, -104.83)"
"1xEVDO REVA","GSM","false","-59","160.19999999999999","success","14248.96","success","false","882.45","success","Verizon Wireless","Verizon Wireless","80905","38.83","-104.83","(38.83, -104.83)"
"1xEVDO REVA","GSM","false","-59","223.6","success","1488.11","success","false","412.64","success","Verizon Wireless","Verizon Wireless","80905","38.81","-104.82","(38.81, -104.82)"
"1xEVDO REVA","GSM","false","-59","235.8","success","7072.8","success","false","677.46","success","Verizon Wireless","Verizon Wireless","80905","38.83","-104.83","(38.83, -104.83)"
"1xEVDO REVA","GSM","false","-59","278","success","5098.74","success","false","547.21","success","Verizon Wireless","Verizon Wireless","80905","38.81","-104.82","(38.81, -104.82)"
"1xEVDO REVA","GSM","false","-59","297.39999999999998","success","961.25","success","false","391.49","success","Verizon Wireless","Verizon Wireless","80905","38.79","-104.8","(38.79, -104.8)"
"1xEVDO REVA","GSM","false","-59","299.39999999999998","success","2200.15","success","false","513.96","success","Verizon Wireless","Verizon Wireless","80905","38.82","-104.84","(38.82, -104.84)"
"1xEVDO REVA","GSM","false","-59","299.60000000000002","success","2182","success","false","364.16","success","Verizon Wireless","Verizon Wireless","80905","38.82","-104.85","(38.82, -104.85)"
"1xEVDO REVA","GSM","false","-59","345.4","success","2027.39","success","false","312.89999999999998","success","Verizon Wireless","Verizon Wireless","80905","38.799999999999997","-104.82","(38.8, -104.82)"
"1xEVDO REVA","GSM","false","-59","363.2","success","333.36","success","false","376.72","success","Verizon Wireless","Verizon Wireless","80905","38.81","-104.83","(38.81, -104.83)"
"1xEVDO REVA","GSM","false","-59","368.4","success","4576.9799999999996","success","false","401.25","success","Verizon Wireless","Verizon Wireless","80905","38.799999999999997","-104.81","(38.8, -104.81)"
"1xEVDO REVA","GSM","false","-59","381.6","success","1766.97","success","false","449.2","success","Verizon Wireless","Verizon Wireless","80905","38.83","-104.83","(38.83, -104.83)"
"1xEVDO REVA","GSM","false","-59","472.2","success","171.08","success","false","65.28","success","Verizon Wireless","Verizon Wireless","80905","38.83","-104.86","(38.83, -104.86)"
"1xEVDO REVA","GSM","false","-59","670.2","success","135.09","success","false","0","error","Verizon Wireless","Verizon Wireless","80905","38.799999999999997","-104.81","(38.8, -104.81)"
"1xEVDO REVA","GSM","false","-59","1217.5999999999999","success","669.05","success","false","310.14999999999998","success","Verizon Wireless","Verizon Wireless","80905","38.83","-104.84","(38.83, -104.84)"
"1xEVDO REVA","GSM","false","-59","1725.8","success","621.14","success","false","166.92","success","Verizon Wireless","Verizon Wireless","80905","38.81","-104.82","(38.81, -104.82)"
"1xEVDO REVA","GSM","false","-57","152","success","12825.26","success","false","830.1","success","Verizon Wireless","Verizon Wireless","80905","38.81","-104.82","(38.81, -104.82)"
"1xEVDO REVA","GSM","false","-57","211.6","success","8783.34","success","false","703.18","success","Verizon Wireless","Verizon Wireless","80905","38.799999999999997","-104.81","(38.8, -104.81)"
"1xEVDO REVA","GSM","false","-57","222.8","success","8161.7","success","false","698.14","success","Verizon Wireless","Verizon Wireless","80905","38.81","-104.82","(38.81, -104.82)"
"1xEVDO REVA","GSM","false","-57","288.39999999999998","success","3158.99","success","false","527.9","success","Verizon Wireless","Verizon Wireless","80905","38.81","-104.82","(38.81, -104.82)"
"1xEVDO REVA","GSM","false","-57","295.2","success","5302.41","success","false","532.45000000000005","success","Verizon Wireless","Verizon Wireless","80905","38.81","-104.83","(38.81, -104.83)"
"1xEVDO REVA","GSM","false","-57","296.60000000000002","success","5037.82","success","false","536.47","success","Verizon Wireless","Verizon Wireless","80905","38.83","-104.83","(38.83, -104.83)"
"1xEVDO REVA","GSM","false","-55","117","success","13311.11","success","false","952.03","success","Verizon Wireless","Verizon Wireless","80905","38.81","-104.82","(38.81, -104.82)"
"1xEVDO REVA","GSM","false","-55","218.2","success","7005","success","false","682.84","success","Verizon Wireless","Verizon Wireless","80905","38.81","-104.82","(38.81, -104.82)"
"1xEVDO REVA","GSM","false","-55","234.2","success","6326.17","success","false","590.67999999999995","success","Verizon Wireless","Verizon Wireless","80905","38.81","-104.82","(38.81, -104.82)"
"1xEVDO REVA","GSM","false","-55","281.2","success","5765.8","success","false","556.79999999999995","success","Verizon Wireless","Verizon Wireless","80905","38.81","-104.82","(38.81, -104.82)"
"1xEVDO REVA","GSM","false","-55","304.39999999999998","success","4540.79","success","false","521.51","success","Verizon Wireless","Verizon Wireless","80905","38.82","-104.84","(38.82, -104.84)"
"1xEVDO REVA","GSM","false","-55","318.8","success","1328.83","success","false","354.82","success","Verizon Wireless","Verizon Wireless","80905","38.82","-104.83","(38.82, -104.83)"
"1xEVDO REVA","GSM","false","-55","381.6","success","1629.97","success","false","396.67","success","Verizon Wireless","Verizon Wireless","80905","38.82","-104.83","(38.82, -104.83)"
"1xEVDO REVA","GSM","false","-55","483","success","186.38","success","false","168.71","success","Verizon Wireless","Verizon Wireless","80905","38.81","-104.84","(38.81, -104.84)"
"1xEVDO REVA","GSM","false","-53","235.8","success","6281.12","success","false","621.82000000000005","success","Verizon Wireless","Verizon Wireless","80905","38.81","-104.84","(38.81, -104.84)"
"1xEVDO REVA","GSM","false","-53","284","success","5998.92","success","false","563.47","success","Verizon Wireless","Verizon Wireless","80905","38.81","-104.84","(38.81, -104.84)"
"1xEVDO REVA","GSM","false","-51",,"Error",,,"true",,,"Verizon Wireless","Verizon Wireless","80905","38.79","-104.8","(38.79, -104.8)"
"1xEVDO REVA","GSM","false","-51","137.19999999999999","success","13366.96","success","false","947.37","success","Verizon Wireless","Verizon Wireless","80905","38.81","-104.82","(38.81, -104.82)"
"1xEVDO REVA","GSM","false","-51","147.19999999999999","success","13669.25","success","false","920.74","success","Verizon Wireless","Verizon Wireless","80905","38.81","-104.82","(38.81, -104.82)"
"1xEVDO REVA","GSM","false","-51","147.4","success","13672.43","success","false","879.85","success","Verizon Wireless","Verizon Wireless","80905","38.799999999999997","-104.82","(38.8, -104.82)"
"1xEVDO REVA","GSM","false","-51","149.4","success","8294.65","success","false","959.63","success","Verizon Wireless","Verizon Wireless","80905","38.81","-104.84","(38.81, -104.84)"
"1xEVDO REVA","GSM","false","-51","150.4","success","10158.200000000001","success","false","843.92","success","Verizon Wireless","Verizon Wireless","80905","38.81","-104.82","(38.81, -104.82)"
"1xEVDO REVA","GSM","false","-51","151","success","7562.07","success","false","1091.25","success","Verizon Wireless","Verizon Wireless","80905","38.799999999999997","-104.82","(38.8, -104.82)"
"1xEVDO REVA","GSM","false","-51","151.4","success","13353.3","success","false","883.38","success","Verizon Wireless","Verizon Wireless","80905","38.81","-104.82","(38.81, -104.82)"
"1xEVDO REVA","GSM","false","-51","185.6","success","3678.82","success","false","769.73","success","Verizon Wireless","Verizon Wireless","80905","38.799999999999997","-104.82","(38.8, -104.82)"
"1xEVDO REVA","GSM","false","-51","190.2","success","2414.4899999999998","success","false","450.39","success","Verizon Wireless","Verizon Wireless","80905","38.82","-104.83","(38.82, -104.83)"
"1xEVDO REVA","GSM","false","-51","228.6","success","8358.33","success","false","672.29","success","Verizon Wireless","Verizon Wireless","80905","38.79","-104.8","(38.79, -104.8)"
"1xEVDO REVA","GSM","false","-51","233.6","success","6661.27","success","false","706.63","success","Verizon Wireless","Verizon Wireless","80905","38.81","-104.82","(38.81, -104.82)"
"1xEVDO REVA","GSM","false","-51","243.4","success","1827.27","success","false","443.38","success","Verizon Wireless","Verizon Wireless","80905","38.82","-104.83","(38.82, -104.83)"
"1xEVDO REVA","GSM","false","-51","251.2","success","8023.33","success","false","693.16","success","Verizon Wireless","Verizon Wireless","80905","38.82","-104.83","(38.82, -104.83)"
"1xEVDO REVA","GSM","false","-51","282.8","success","5147.4399999999996","success","false","550.72","success","Verizon Wireless","Verizon Wireless","80905","38.799999999999997","-104.82","(38.8, -104.82)"
"1xEVDO REVA","GSM","false","-51","287.8","success","5949.05","success","false","529.97","success","Verizon Wireless","Verizon Wireless","80905","38.82","-104.83","(38.82, -104.83)"
"1xEVDO REVA","GSM","false","-51","288.8","success","5483.9","success","false","516.54999999999995","success","Verizon Wireless","Verizon Wireless","80905","38.83","-104.86","(38.83, -104.86)"
"1xEVDO REVA","GSM","false","-51","293.39999999999998","success","5785.21","success","false","547.66999999999996","success","Verizon Wireless","Verizon Wireless","80905","38.82","-104.83","(38.82, -104.83)"
"1xEVDO REVA","GSM","false","-51","304","success","5766.13","success","false","535.41","success","Verizon Wireless","Verizon Wireless","80905","38.81","-104.82","(38.81, -104.82)"
"1xEVDO REVA","GSM","false","-51","304.39999999999998","success","3733.78","success","false","549.36","success","Verizon Wireless","Verizon Wireless","80905","38.81","-104.84","(38.81, -104.84)"
"1xEVDO REVA","GSM","false","-51","305.8","success","5305.04","success","false","540.74","success","Verizon Wireless","Verizon Wireless","80905","38.79","-104.8","(38.79, -104.8)"
"1xEVDO REVA","GSM","false","-51","329","success","4471.84","success","false","525.80999999999995","success","Verizon Wireless","Verizon Wireless","80905","38.81","-104.82","(38.81, -104.82)"
"1xEVDO REVA","GSM","false","-51","386","success","2993.71","success","false","454.78","success","Verizon Wireless","Verizon Wireless","80905","38.81","-104.82","(38.81, -104.82)"
"1xEVDO REVA","GSM","false","-51","386.4","success","2713.3","success","false","466.75","success","Verizon Wireless","Verizon Wireless","80905","38.799999999999997","-104.82","(38.8, -104.82)"
"1xEVDO REVA","GSM","false","-51","392.4","success","4656.6400000000003","success","false","440.18","success","Verizon Wireless","Verizon Wireless","80905","38.83","-104.85","(38.83, -104.85)"
"1xEVDO REVA","GSM","false","-51","400.8","success","4106.4399999999996","success","false","384.88","success","Verizon Wireless","Verizon Wireless","80905","38.81","-104.83","(38.81, -104.83)"
"1xEVDO REVA","GSM","false","-51","441.2","success","953.71","success","false","277.61","success","Verizon Wireless","Verizon Wireless","80905","38.85","-104.87","(38.85, -104.87)"
"1xEVDO REVA","GSM","false","-51","457.8","success","909.63","success","false","293.58","success","Verizon Wireless","Verizon Wireless","80905","38.82","-104.84","(38.82, -104.84)"
"1xEVDO REVA","GSM","false","-51","470.8","success","2354.31","success","false","344.84","success","Verizon Wireless","Verizon Wireless","80905","38.82","-104.84","(38.82, -104.84)"
"1xEVDO REVA","GSM","false","-51","480","success","3388.91","success","false","355.67","success","Verizon Wireless","Verizon Wireless","80905","38.81","-104.82","(38.81, -104.82)"
"1xEVDO REVA","GSM","false","-113","194","success","1732.56","success","false","8.77","success","Verizon Wireless","Verizon Wireless","80906","38.79","-104.82","(38.79, -104.82)"
"1xEVDO REVA","GSM","false","-113","233.2","success","396.67","success","false","255.94","success","Verizon Wireless","Verizon Wireless","80906","38.79","-104.84","(38.79, -104.84)"
"1xEVDO REVA","GSM","false","-113","366.4","success","15.17","success","false","371.33","success","Verizon Wireless","Verizon Wireless","80906","38.79","-104.89","(38.79, -104.89)"
"1xEVDO REVA","GSM","false","-113","683.4","success","159.35","success","false","43.5","success","Verizon Wireless","Verizon Wireless","80906","38.79","-104.83","(38.79, -104.83)"
"1xEVDO REVA","GSM","false","-113","1072.8","success","504.98","success","false","180.96","success","Verizon Wireless","Verizon Wireless","80906","38.76","-104.78","(38.76, -104.78)"
"1xEVDO REVA","GSM","false","-107",,"error","134.49","success","false","0","timeout","Verizon Wireless","Verizon Wireless","80906","38.79","-104.83","(38.79, -104.83)"
"1xEVDO REVA","GSM","false","-107","653.6","success","131.46","success","false","20.37","success","Verizon Wireless","Verizon Wireless","80906","38.79","-104.83","(38.79, -104.83)"
"1xEVDO REVA","GSM","false","-105","516.4","success","539.27","success","false","170.8","success","Verizon Wireless","Verizon Wireless","80906","38.79","-104.86","(38.79, -104.86)"
"1xEVDO REVA","GSM","false","-105","558.79999999999995","success","209.4","success","false","0","timeout","Verizon Wireless","Verizon Wireless","80906","38.79","-104.88","(38.79, -104.88)"
"1xEVDO REVA","GSM","false","-103",,"error","216.17","success","false","0","timeout","Verizon Wireless","Verizon Wireless","80906","38.79","-104.89","(38.79, -104.89)"
"1xEVDO REVA","GSM","false","-103","685","success","290.16000000000003","success","false","0","timeout","Verizon Wireless","Verizon Wireless","80906","38.79","-104.87","(38.79, -104.87)"
"1xEVDO REVA","GSM","false","-97","243","success","548.16","success","false","71.48","success","Verizon Wireless","Verizon Wireless","80906","38.799999999999997","-104.83","(38.8, -104.83)"
"1xEVDO REVA","GSM","false","-97","2417","success","162.07","success","false","120.87","success","Verizon Wireless","Verizon Wireless","80906","38.79","-104.86","(38.79, -104.86)"
"1xEVDO REVA","GSM","false","-95","373.4","success","597.04999999999995","success","false","101.55","success","Verizon Wireless","Verizon Wireless","80906","38.79","-104.86","(38.79, -104.86)"
"1xEVDO REVA","GSM","false","-95","386.6","success","439.33","success","false","102.1","success","Verizon Wireless","Verizon Wireless","80906","38.799999999999997","-104.83","(38.8, -104.83)"
"1xEVDO REVA","GSM","false","-95","2411.1999999999998","success","21.38","success","false","0","error","Verizon Wireless","Verizon Wireless","80906","38.79","-104.86","(38.79, -104.86)"
"1xEVDO REVA","GSM","false","-93","282","success","1048.8499999999999","success","false","375.41","success","Verizon Wireless","Verizon Wireless","80906","38.78","-104.84","(38.78, -104.84)"
"1xEVDO REVA","GSM","false","-93","516.20000000000005","success","150","success","false","24.33","success","Verizon Wireless","Verizon Wireless","80906","38.79","-104.83","(38.79, -104.83)"
"1xEVDO REVA","GSM","false","-93","1536.8","success","167.24","success","false","39.479999999999997","success","Verizon Wireless","Verizon Wireless","80906","38.76","-104.85","(38.76, -104.85)"
"1xEVDO REVA","GSM","false","-91","247.2","success","683.81","success","false","166.47","success","Verizon Wireless","Verizon Wireless","80906","38.79","-104.84","(38.79, -104.84)"
"1xEVDO REVA","GSM","false","-91","249.4","success","976.18","success","false","361.98","success","Verizon Wireless","Verizon Wireless","80906","38.799999999999997","-104.81","(38.8, -104.81)"
"1xEVDO REVA","GSM","false","-91","320.39999999999998","success","360.03","success","false","93.1","success","Verizon Wireless","Verizon Wireless","80906","38.79","-104.82","(38.79, -104.82)"
"1xEVDO REVA","GSM","false","-91","509.8","success","953.94","success","false","278.08999999999997","success","Verizon Wireless","Verizon Wireless","80906","38.76","-104.78","(38.76, -104.78)"
"1xEVDO REVA","GSM","false","-91","540.20000000000005","success","355.19","success","false","79.099999999999994","success","Verizon Wireless","Verizon Wireless","80906","38.78","-104.83","(38.78, -104.83)"
"1xEVDO REVA","GSM","false","-91","1476.2","success","131.6","success","false","0","error","Verizon Wireless","Verizon Wireless","80906","38.79","-104.86","(38.79, -104.86)"
"1xEVDO REVA","GSM","false","-89","216.4","success","741.31","success","false","400.2","success","Verizon Wireless","Verizon Wireless","80906","38.799999999999997","-104.83","(38.8, -104.83)"
"1xEVDO REVA","GSM","false","-89","276.39999999999998","success","338.8","success","false","259.01","success","Verizon Wireless","Verizon Wireless","80906","38.78","-104.82","(38.78, -104.82)"
"1xEVDO REVA","GSM","false","-89","282","success","423.76","success","false","159.04","success","Verizon Wireless","Verizon Wireless","80906","38.81","-104.86","(38.81, -104.86)"
"1xEVDO REVA","GSM","false","-89","374.8","success","944.2","success","false","195.71","success","Verizon Wireless","Verizon Wireless","80906","38.79","-104.85","(38.79, -104.85)"
"1xEVDO REVA","GSM","false","-89","546.4","success","246.94","success","false","0","error","Verizon Wireless","Verizon Wireless","80906","38.79","-104.87","(38.79, -104.87)"
"1xEVDO REVA","GSM","false","-87","229.6","success","447.13","success","false","229.97","success","Verizon Wireless","Verizon Wireless","80906","38.79","-104.85","(38.79, -104.85)"
"1xEVDO REVA","GSM","false","-87","387.6","success","660.68","success","false","163.59","success","Verizon Wireless","Verizon Wireless","80906","38.79","-104.82","(38.79, -104.82)"
"1xEVDO REVA","GSM","false","-87","464.8","success","228.51","success","false","232.43","success","Verizon Wireless","Verizon Wireless","80906","38.78","-104.8","(38.78, -104.8)"
"1xEVDO REVA","GSM","false","-87","565.20000000000005","success","341.37","success","false","336.8","success","Verizon Wireless","Verizon Wireless","80906","38.799999999999997","-104.82","(38.8, -104.82)"
"1xEVDO REVA","GSM","false","-85","205","success","392.46","success","false","29.65","success","Verizon Wireless","Verizon Wireless","80906","38.79","-104.84","(38.79, -104.84)"
"1xEVDO REVA","GSM","false","-85","606.6","success","723.07","success","false","238.82","success","Verizon Wireless","Verizon Wireless","80906","38.81","-104.83","(38.81, -104.83)"
"1xEVDO REVA","GSM","false","-85","1076.5999999999999","success","165.95","success","false","142.41","success","Verizon Wireless","Verizon Wireless","80906","38.81","-104.85","(38.81, -104.85)"
"1xEVDO REVA","GSM","false","-83","213","success","1493.18","success","false","413.12","success","Verizon Wireless","Verizon Wireless","80906","38.79","-104.85","(38.79, -104.85)"
"1xEVDO REVA","GSM","false","-83","235.8","success","2145.7199999999998","success","false","411.21","success","Verizon Wireless","Verizon Wireless","80906","38.76","-104.78","(38.76, -104.78)"
"1xEVDO REVA","GSM","false","-83","305.8","success","488.04","success","false","379.1","success","Verizon Wireless","Verizon Wireless","80906","38.79","-104.82","(38.79, -104.82)"
"1xEVDO REVA","GSM","false","-83","378.6","success","662.27","success","false","273.36","success","Verizon Wireless","Verizon Wireless","80906","38.799999999999997","-104.83","(38.8, -104.83)"
"1xEVDO REVA","GSM","false","-83","379.4","success","719.02","success","false","264.89","success","Verizon Wireless","Verizon Wireless","80906","38.79","-104.81","(38.79, -104.81)"
"1xEVDO REVA","GSM","false","-83","409.6","success","1396.8","success","false","329.29","success","Verizon Wireless","Verizon Wireless","80906","38.799999999999997","-104.81","(38.8, -104.81)"
"1xEVDO REVA","GSM","false","-83","440","success","105.05","success","false","24.2","success","Verizon Wireless","Verizon Wireless","80906","38.78","-104.82","(38.78, -104.82)"
"1xEVDO REVA","GSM","false","-83","475.4","success","271.3","success","false","222.44","success","Verizon Wireless","Verizon Wireless","80906","38.75","-104.84","(38.75, -104.84)"
"1xEVDO REVA","GSM","false","-83","498.6","success","220.98","success","false","299.22000000000003","success","Verizon Wireless","Verizon Wireless","80906","38.79","-104.77","(38.79, -104.77)"
"1xEVDO REVA","GSM","false","-83","524.6","success","346.18","success","false","283.79000000000002","success","Verizon Wireless","Verizon Wireless","80906","38.78","-104.77","(38.78, -104.77)"
"1xEVDO REVA","GSM","false","-83","580","success","1385.03","success","false","251.42","success","Verizon Wireless","Verizon Wireless","80906","38.79","-104.78","(38.79, -104.78)"
"1xEVDO REVA","GSM","false","-83","1233.8","success","486.46","success","false","198.27","success","Verizon Wireless","Verizon Wireless","80906","38.770000000000003","-104.78","(38.77, -104.78)"
"1xEVDO REVA","GSM","false","-81",,"Error",,,"true",,,"Verizon Wireless","Verizon Wireless","80906","38.770000000000003","-104.78","(38.77, -104.78)"
"1xEVDO REVA","GSM","false","-81","241.4","success","1266.1500000000001","success","false","440.81","success","Verizon Wireless","Verizon Wireless","80906","38.799999999999997","-104.85","(38.8, -104.85)"
"1xEVDO REVA","GSM","false","-81","347.8","success","937.62","success","false","313.86","success","Verizon Wireless","Verizon Wireless","80906","38.79","-104.8","(38.79, -104.8)"
"1xEVDO REVA","GSM","false","-81","353.4","success","772.82","success","false","333.67","success","Verizon Wireless","Verizon Wireless","80906","38.79","-104.77","(38.79, -104.77)"
"1xEVDO REVA","GSM","false","-81","424.6","success","522.89","success","false","134.74","success","Verizon Wireless","Verizon Wireless","80906","38.799999999999997","-104.86","(38.8, -104.86)"
"1xEVDO REVA","GSM","false","-81","445.8","success","252.92","success","false","57.12","success","Verizon Wireless","Verizon Wireless","80906","38.78","-104.8","(38.78, -104.8)"
"1xEVDO REVA","GSM","false","-81","461.6","success","708.24","success","false","311.41000000000003","success","Verizon Wireless","Verizon Wireless","80906","38.82","-104.87","(38.82, -104.87)"
"1xEVDO REVA","GSM","false","-81","484.4","success","436.98","success","false","259.89999999999998","success","Verizon Wireless","Verizon Wireless","80906","38.79","-104.8","(38.79, -104.8)"
"1xEVDO REVA","GSM","false","-79","399","success","664.99","success","false","350.84","success","Verizon Wireless","Verizon Wireless","80906","38.799999999999997","-104.81","(38.8, -104.81)"
"1xEVDO REVA","GSM","false","-77","246.6","success","1145.28","success","false","378.14","success","Verizon Wireless","Verizon Wireless","80906","38.770000000000003","-104.8","(38.77, -104.8)"
"1xEVDO REVA","GSM","false","-77","246.8","success","1894.94","success","false","457.76","success","Verizon Wireless","Verizon Wireless","80906","38.770000000000003","-104.81","(38.77, -104.81)"
"1xEVDO REVA","GSM","false","-77","255.6","success","897.01","success","false","126.63","success","Verizon Wireless","Verizon Wireless","80906","38.83","-104.88","(38.83, -104.88)"
"1xEVDO REVA","GSM","false","-77","264.60000000000002","success","1078.3699999999999","success","false","149.22","success","Verizon Wireless","Verizon Wireless","80906","38.79","-104.81","(38.79, -104.81)"
"1xEVDO REVA","GSM","false","-77","360.6","success","978.45","success","false","269.10000000000002","success","Verizon Wireless","Verizon Wireless","80906","38.78","-104.77","(38.78, -104.77)"
"1xEVDO REVA","GSM","false","-77","374","success","724.84","success","false","337.53","success","Verizon Wireless","Verizon Wireless","80906","38.79","-104.81","(38.79, -104.81)"
"1xEVDO REVA","GSM","false","-77","518.4","success","2107.1799999999998","success","false","343.54","success","Verizon Wireless","Verizon Wireless","80906","38.79","-104.86","(38.79, -104.86)"
"1xEVDO REVA","GSM","false","-77","777.4","success","111.88","success","false","23.86","success","Verizon Wireless","Verizon Wireless","80906","38.76","-104.81","(38.76, -104.81)"
"1xEVDO REVA","GSM","false","-77","1023","success","201.18","success","false","0","timeout","Verizon Wireless","Verizon Wireless","80906","38.79","-104.86","(38.79, -104.86)"
"1xEVDO REVA","GSM","false","-75","138.19999999999999","success","4739.97","success","false","818.71","success","Verizon Wireless","Verizon Wireless","80906","38.799999999999997","-104.81","(38.8, -104.81)"
"1xEVDO REVA","GSM","false","-75","180","success","1954.17","success","false","969.37","success","Verizon Wireless","Verizon Wireless","80906","38.79","-104.82","(38.79, -104.82)"
"1xEVDO REVA","GSM","false","-75","186.4","success","1724.67","success","false","162.91","success","Verizon Wireless","Verizon Wireless","80906","38.799999999999997","-104.84","(38.8, -104.84)"
"1xEVDO REVA","GSM","false","-75","190.2","success","1595.58","success","false","441.27","success","Verizon Wireless","Verizon Wireless","80906","38.78","-104.77","(38.78, -104.77)"
"1xEVDO REVA","GSM","false","-75","212.2","success","723.87","success","false","387.44","success","Verizon Wireless","Verizon Wireless","80906","38.799999999999997","-104.79","(38.8, -104.79)"
"1xEVDO REVA","GSM","false","-75","232.6","success","525.23","success","false","222.52","success","Verizon Wireless","Verizon Wireless","80906","38.81","-104.86","(38.81, -104.86)"
"1xEVDO REVA","GSM","false","-75","244.2","success","1328.88","success","false","498.85","success","Verizon Wireless","Verizon Wireless","80906","38.78","-104.77","(38.78, -104.77)"
"1xEVDO REVA","GSM","false","-75","244.8","success","1567.9","success","false","379.48","success","Verizon Wireless","Verizon Wireless","80906","38.79","-104.77","(38.79, -104.77)"
"1xEVDO REVA","GSM","false","-75","292","success","669.34","success","false","377.32","success","Verizon Wireless","Verizon Wireless","80906","38.79","-104.78","(38.79, -104.78)"
"1xEVDO REVA","GSM","false","-75","310.39999999999998","success","1166.8499999999999","success","false","333.48","success","Verizon Wireless","Verizon Wireless","80906","38.78","-104.77","(38.78, -104.77)"
"1xEVDO REVA","GSM","false","-75","365.4","success","1534.04","success","false","235.78","success","Verizon Wireless","Verizon Wireless","80906","38.78","-104.77","(38.78, -104.77)"
"1xEVDO REVA","GSM","false","-75","389.2","success","311.99","success","false","106.12","success","Verizon Wireless","Verizon Wireless","80906","38.76","-104.8","(38.76, -104.8)"
"1xEVDO REVA","GSM","false","-75","419.8","success","990.55","success","false","401.39","success","Verizon Wireless","Verizon Wireless","80906","38.76","-104.78","(38.76, -104.78)"
"1xEVDO REVA","GSM","false","-75","434.8","success","252.16","success","false","116.11","success","Verizon Wireless","Verizon Wireless","80906","38.78","-104.79","(38.78, -104.79)"
"1xEVDO REVA","GSM","false","-75","467.8","success","797.51","success","false","319.63","success","Verizon Wireless","Verizon Wireless","80906","38.79","-104.77","(38.79, -104.77)"
"1xEVDO REVA","GSM","false","-75","536.79999999999995","success","405.6","success","false","296.52","success","Verizon Wireless","Verizon Wireless","80906","38.79","-104.8","(38.79, -104.8)"
"1xEVDO REVA","GSM","false","-75","584.79999999999995","success","267.45999999999998","success","false","0","error","Verizon Wireless","Verizon Wireless","80906","38.78","-104.81","(38.78, -104.81)"
"1xEVDO REVA","GSM","false","-75","643.79999999999995","success","714.91","success","false","167.39","success","Verizon Wireless","Verizon Wireless","80906","38.79","-104.8","(38.79, -104.8)"
"1xEVDO REVA","GSM","false","-75","1379.6","success","100.98","success","false","48.94","success","Verizon Wireless","Verizon Wireless","80906","38.74","-104.84","(38.74, -104.84)"
"1xEVDO REVA","GSM","false","-73","134.4","success","10424.620000000001","success","false","866.6","success","Verizon Wireless","Verizon Wireless","80906","38.79","-104.85","(38.79, -104.85)"
"1xEVDO REVA","GSM","false","-73","246.6","success","1262.25","success","false","405.98","success","Verizon Wireless","Verizon Wireless","80906","38.78","-104.77","(38.78, -104.77)"
"1xEVDO REVA","GSM","false","-73","256.60000000000002","success","753.81","success","false","370.11","success","Verizon Wireless","Verizon Wireless","80906","38.76","-104.78","(38.76, -104.78)"
"1xEVDO REVA","GSM","false","-73","268.2","success","858.23","success","false","345.01","success","Verizon Wireless","Verizon Wireless","80906","38.799999999999997","-104.79","(38.8, -104.79)"
"1xEVDO REVA","GSM","false","-73","277.2","success","1539.7","success","false","669.88","success","Verizon Wireless","Verizon Wireless","80906","38.79","-104.86","(38.79, -104.86)"
"1xEVDO REVA","GSM","false","-73","285","success","5257.91","success","false","538.41","success","Verizon Wireless","Verizon Wireless","80906","38.770000000000003","-104.82","(38.77, -104.82)"
"1xEVDO REVA","GSM","false","-73","296.39999999999998","success","4556.87","success","false","533.41","success","Verizon Wireless","Verizon Wireless","80906","38.799999999999997","-104.83","(38.8, -104.83)"
"1xEVDO REVA","GSM","false","-73","322.60000000000002","success","1496.97","success","false","52.66","success","Verizon Wireless","Verizon Wireless","80906","38.78","-104.81","(38.78, -104.81)"
"1xEVDO REVA","GSM","false","-73","387.6","success","996.41","success","false","276.91000000000003","success","Verizon Wireless","Verizon Wireless","80906","38.79","-104.82","(38.79, -104.82)"
"1xEVDO REVA","GSM","false","-73","392.4","success","658.27","success","false","297.41000000000003","success","Verizon Wireless","Verizon Wireless","80906","38.78","-104.77","(38.78, -104.77)"
"1xEVDO REVA","GSM","false","-73","465","success","1228.3599999999999","success","false","249.8","success","Verizon Wireless","Verizon Wireless","80906","38.79","-104.78","(38.79, -104.78)"
"1xEVDO REVA","GSM","false","-73","756","success","3606.56","success","false","543.01","success","Verizon Wireless","Verizon Wireless","80906","38.79","-104.85","(38.79, -104.85)"
"1xEVDO REVA","GSM","false","-71","133.4","success","11448.59","success","false","853.43","success","Verizon Wireless","Verizon Wireless","80906","38.79","-104.85","(38.79, -104.85)"
"1xEVDO REVA","GSM","false","-71","140.80000000000001","success","3403.98","success","false","630.26","success","Verizon Wireless","Verizon Wireless","80906","38.79","-104.85","(38.79, -104.85)"
"1xEVDO REVA","GSM","false","-71","142.6","success","11060.04","success","false","868.72","success","Verizon Wireless","Verizon Wireless","80906","38.79","-104.84","(38.79, -104.84)"
"1xEVDO REVA","GSM","false","-71","278.2","success","2135.9899999999998","success","false","396.04","success","Verizon Wireless","Verizon Wireless","80906","38.770000000000003","-104.81","(38.77, -104.81)"
"1xEVDO REVA","GSM","false","-71","283.60000000000002","success","4136.93","success","false","564.29999999999995","success","Verizon Wireless","Verizon Wireless","80906","38.770000000000003","-104.82","(38.77, -104.82)"
"1xEVDO REVA","GSM","false","-71","309","success","700.95","success","false","293.61","success","Verizon Wireless","Verizon Wireless","80906","38.79","-104.79","(38.79, -104.79)"
"1xEVDO REVA","GSM","false","-71","361.8","success","1376.65","success","false","300.04000000000002","success","Verizon Wireless","Verizon Wireless","80906","38.78","-104.77","(38.78, -104.77)"
"1xEVDO REVA","GSM","false","-71","380.8","success","1284.33","success","false","216.53","success","Verizon Wireless","Verizon Wireless","80906","38.76","-104.81","(38.76, -104.81)"
"1xEVDO REVA","GSM","false","-71","402.6","success","1246.3900000000001","success","false","299.27","success","Verizon Wireless","Verizon Wireless","80906","38.79","-104.78","(38.79, -104.78)"
"1xEVDO REVA","GSM","false","-71","674.4","success","202.71","success","false","56.8","success","Verizon Wireless","Verizon Wireless","80906","38.79","-104.81","(38.79, -104.81)"
"1xEVDO REVA","GSM","false","-69","109.4","success","12828.85","success","false","978.01","success","Verizon Wireless","Verizon Wireless","80906","38.79","-104.82","(38.79, -104.82)"
"1xEVDO REVA","GSM","false","-69","148.80000000000001","success","8703.84","success","false","803","success","Verizon Wireless","Verizon Wireless","80906","38.79","-104.85","(38.79, -104.85)"
"1xEVDO REVA","GSM","false","-69","166","success","3827.87","success","false","855.56","success","Verizon Wireless","Verizon Wireless","80906","38.799999999999997","-104.81","(38.8, -104.81)"
"1xEVDO REVA","GSM","false","-69","266.2","success","242.75","success","false","154.63999999999999","success","Verizon Wireless","Verizon Wireless","80906","38.79","-104.81","(38.79, -104.81)"
"1xEVDO REVA","GSM","false","-69","312.2","success","898.4","success","false","496.86","success","Verizon Wireless","Verizon Wireless","80906","38.81","-104.84","(38.81, -104.84)"
"1xEVDO REVA","GSM","false","-69","350","success","1085.98","success","false","374.44","success","Verizon Wireless","Verizon Wireless","80906","38.76","-104.78","(38.76, -104.78)"
"1xEVDO REVA","GSM","false","-69","363.2","success","3322.28","success","false","459.72","success","Verizon Wireless","Verizon Wireless","80906","38.79","-104.82","(38.79, -104.82)"
"1xEVDO REVA","GSM","false","-69","376","success","2384.08","success","false","336.12","success","Verizon Wireless","Verizon Wireless","80906","38.78","-104.79","(38.78, -104.79)"
"1xEVDO REVA","GSM","false","-69","404.2","success","2783.59","success","false","506.28","success","Verizon Wireless","Verizon Wireless","80906","38.79","-104.82","(38.79, -104.82)"
"1xEVDO REVA","GSM","false","-69","410.4","success","312.08999999999997","success","false","136.4","success","Verizon Wireless","Verizon Wireless","80906","38.79","-104.78","(38.79, -104.78)"
"1xEVDO REVA","GSM","false","-69","519.4","success","475.31","success","false","195.26","success","Verizon Wireless","Verizon Wireless","80906","38.799999999999997","-104.81","(38.8, -104.81)"
"1xEVDO REVA","GSM","false","-69","580","success","974.54","success","false","289.45999999999998","success","Verizon Wireless","Verizon Wireless","80906","38.76","-104.78","(38.76, -104.78)"
"1xEVDO REVA","GSM","false","-69","673","success","244.41","success","false","514.91999999999996","success","Verizon Wireless","Verizon Wireless","80906","38.79","-104.85","(38.79, -104.85)"
"1xEVDO REVA","GSM","false","-69","2027","success","127.14","success","false","27.34","success","Verizon Wireless","Verizon Wireless","80906","38.799999999999997","-104.85","(38.8, -104.85)"
"1xEVDO REVA","GSM","false","-67",,"Error",,,"true",,,"Verizon Wireless","Verizon Wireless","80906","38.78","-104.77","(38.78, -104.77)"
"1xEVDO REVA","GSM","false","-67",,"Error",,,"true",,,"Verizon Wireless","Verizon Wireless","80906","38.799999999999997","-104.82","(38.8, -104.82)"
"1xEVDO REVA","GSM","false","-67","153.80000000000001","success","14096.97","success","false","962.29","success","Verizon Wireless","Verizon Wireless","80906","38.770000000000003","-104.8","(38.77, -104.8)"
"1xEVDO REVA","GSM","false","-67","165.4","success","7339.67","success","false","814.81","success","Verizon Wireless","Verizon Wireless","80906","38.78","-104.77","(38.78, -104.77)"
"1xEVDO REVA","GSM","false","-67","245.4","success","1488.36","success","false","314.33","success","Verizon Wireless","Verizon Wireless","80906","38.799999999999997","-104.8","(38.8, -104.8)"
"1xEVDO REVA","GSM","false","-67","249.6","success","2166.29","success","false","433.64","success","Verizon Wireless","Verizon Wireless","80906","38.799999999999997","-104.82","(38.8, -104.82)"
"1xEVDO REVA","GSM","false","-67","267.60000000000002","success","1160.29","success","false","465.06","success","Verizon Wireless","Verizon Wireless","80906","38.76","-104.78","(38.76, -104.78)"
"1xEVDO REVA","GSM","false","-67","274","success","1483.73","success","false","416.36","success","Verizon Wireless","Verizon Wireless","80906","38.79","-104.8","(38.79, -104.8)"
"1xEVDO REVA","GSM","false","-67","281.60000000000002","success","4056.63","success","false","537.86","success","Verizon Wireless","Verizon Wireless","80906","38.79","-104.82","(38.79, -104.82)"
"1xEVDO REVA","GSM","false","-67","284.60000000000002","success","2484.1999999999998","success","false","549.91999999999996","success","Verizon Wireless","Verizon Wireless","80906","38.76","-104.81","(38.76, -104.81)"
"1xEVDO REVA","GSM","false","-67","291.60000000000002","success","3557.99","success","false","460.64","success","Verizon Wireless","Verizon Wireless","80906","38.79","-104.81","(38.79, -104.81)"
"1xEVDO REVA","GSM","false","-67","328.2","success","1849.89","success","false","417.13","success","Verizon Wireless","Verizon Wireless","80906","38.79","-104.82","(38.79, -104.82)"
"1xEVDO REVA","GSM","false","-67","358","success","1504.07","success","false","349.39","success","Verizon Wireless","Verizon Wireless","80906","38.79","-104.78","(38.79, -104.78)"
"1xEVDO REVA","GSM","false","-67","363.2","success","982.19","success","false","455.1","success","Verizon Wireless","Verizon Wireless","80906","38.79","-104.85","(38.79, -104.85)"
"1xEVDO REVA","GSM","false","-65","309.8","success","1822.37","success","false","363.3","success","Verizon Wireless","Verizon Wireless","80906","38.770000000000003","-104.81","(38.77, -104.81)"
"1xEVDO REVA","GSM","false","-65","314.39999999999998","success","2238.2399999999998","success","false","458.98","success","Verizon Wireless","Verizon Wireless","80906","38.770000000000003","-104.8","(38.77, -104.8)"
"1xEVDO REVA","GSM","false","-65","343.8","success","3065.14","success","false","476.47","success","Verizon Wireless","Verizon Wireless","80906","38.78","-104.77","(38.78, -104.77)"
"1xEVDO REVA","GSM","false","-65","348.4","success","834.93","success","false","294.8","success","Verizon Wireless","Verizon Wireless","80906","38.79","-104.79","(38.79, -104.79)"
"1xEVDO REVA","GSM","false","-65","380.4","success","1530.66","success","false","312.77","success","Verizon Wireless","Verizon Wireless","80906","38.79","-104.78","(38.79, -104.78)"
"1xEVDO REVA","GSM","false","-65","430.8","success","526.12","success","false","182.43","success","Verizon Wireless","Verizon Wireless","80906","38.79","-104.79","(38.79, -104.79)"
"1xEVDO REVA","GSM","false","-65","484.4","success","1548.07","success","false","343.37","success","Verizon Wireless","Verizon Wireless","80906","38.76","-104.78","(38.76, -104.78)"
"1xEVDO REVA","GSM","false","-65","1345.6","success","114.99","success","false","0","timeout","Verizon Wireless","Verizon Wireless","80906","38.82","-104.86","(38.82, -104.86)"
"1xEVDO REVA","GSM","false","-63",,"Error",,,"true",,,"Verizon Wireless","Verizon Wireless","80906","38.79","-104.78","(38.79, -104.78)"
"1xEVDO REVA","GSM","false","-63",,"Error",,,"true",,,"Verizon Wireless","Verizon Wireless","80906","38.799999999999997","-104.81","(38.8, -104.81)"
"1xEVDO REVA","GSM","false","-63","153.4","success","4039.25","success","false","818.83","success","Verizon Wireless","Verizon Wireless","80906","38.78","-104.82","(38.78, -104.82)"
"1xEVDO REVA","GSM","false","-63","161.4","success","11019.58","success","false","847.48","success","Verizon Wireless","Verizon Wireless","80906","38.799999999999997","-104.82","(38.8, -104.82)"
"1xEVDO REVA","GSM","false","-63","232.8","success","240.93","success","false","158.04","success","Verizon Wireless","Verizon Wireless","80906","38.799999999999997","-104.79","(38.8, -104.79)"
"1xEVDO REVA","GSM","false","-63","324.39999999999998","success","2137.5300000000002","success","false","484.48","success","Verizon Wireless","Verizon Wireless","80906","38.79","-104.78","(38.79, -104.78)"
"1xEVDO REVA","GSM","false","-63","334.8","success","4142.12","success","false","466.56","success","Verizon Wireless","Verizon Wireless","80906","38.770000000000003","-104.8","(38.77, -104.8)"
"1xEVDO REVA","GSM","false","-63","371.2","success","851.13","success","false","211.71","success","Verizon Wireless","Verizon Wireless","80906","38.78","-104.82","(38.78, -104.82)"
"1xEVDO REVA","GSM","false","-63","699.8","success","5258.41","success","false","530.66999999999996","success","Verizon Wireless","Verizon Wireless","80906","38.799999999999997","-104.81","(38.8, -104.81)"
"1xEVDO REVA","GSM","false","-61","293.39999999999998","success","5257.75","success","false","549.87","success","Verizon Wireless","Verizon Wireless","80906","38.770000000000003","-104.86","(38.77, -104.86)"
"1xEVDO REVA","GSM","false","-61","373.4","success","1973.29","success","false","390.39","success","Verizon Wireless","Verizon Wireless","80906","38.76","-104.81","(38.76, -104.81)"
"1xEVDO REVA","GSM","false","-61","386","success","303.18","success","false","311.04000000000002","success","Verizon Wireless","Verizon Wireless","80906","38.76","-104.82","(38.76, -104.82)"
"1xEVDO REVA","GSM","false","-59","170.8","success","1619.98","success","false","832.64","success","Verizon Wireless","Verizon Wireless","80906","38.770000000000003","-104.81","(38.77, -104.81)"
"1xEVDO REVA","GSM","false","-59","225.2","success","939.82","success","false","430.53","success","Verizon Wireless","Verizon Wireless","80906","38.79","-104.8","(38.79, -104.8)"
"1xEVDO REVA","GSM","false","-59","355.6","success","1609.84","success","false","320.61","success","Verizon Wireless","Verizon Wireless","80906","38.79","-104.79","(38.79, -104.79)"
"1xEVDO REVA","GSM","false","-59","454","success","2644.39","success","false","395.97","success","Verizon Wireless","Verizon Wireless","80906","38.78","-104.77","(38.78, -104.77)"
"1xEVDO REVA","GSM","false","-59","552.20000000000005","success","1439.4","success","false","221.79","success","Verizon Wireless","Verizon Wireless","80906","38.799999999999997","-104.81","(38.8, -104.81)"
"1xEVDO REVA","GSM","false","-59","652.4","success","895.12","success","false","131.38999999999999","success","Verizon Wireless","Verizon Wireless","80906","38.79","-104.79","(38.79, -104.79)"
"1xEVDO REVA","GSM","false","-59","772","success","5631.9","success","false","668.7","success","Verizon Wireless","Verizon Wireless","80906","38.78","-104.79","(38.78, -104.79)"
"1xEVDO REVA","GSM","false","-57","220.8","success","5215.5200000000004","success","false","639.09","success","Verizon Wireless","Verizon Wireless","80906","38.799999999999997","-104.8","(38.8, -104.8)"
"1xEVDO REVA","GSM","false","-57","231.4","success","2410.29","success","false","429.12","success","Verizon Wireless","Verizon Wireless","80906","38.799999999999997","-104.82","(38.8, -104.82)"
"1xEVDO REVA","GSM","false","-57","236.4","success","2910.83","success","false","576.9","success","Verizon Wireless","Verizon Wireless","80906","38.76","-104.8","(38.76, -104.8)"
"1xEVDO REVA","GSM","false","-57","280.39999999999998","success","6134.15","success","false","557.97","success","Verizon Wireless","Verizon Wireless","80906","38.79","-104.81","(38.79, -104.81)"
"1xEVDO REVA","GSM","false","-57","280.8","success","2289.87","success","false","454.67","success","Verizon Wireless","Verizon Wireless","80906","38.770000000000003","-104.81","(38.77, -104.81)"
"1xEVDO REVA","GSM","false","-57","321.2","success","4935.71","success","false","488.19","success","Verizon Wireless","Verizon Wireless","80906","38.79","-104.77","(38.79, -104.77)"
"1xEVDO REVA","GSM","false","-57","348.4","success","1675.51","success","false","314.98","success","Verizon Wireless","Verizon Wireless","80906","38.799999999999997","-104.82","(38.8, -104.82)"
"1xEVDO REVA","GSM","false","-57","740.8","success","149.22999999999999","success","false","290.02","success","Verizon Wireless","Verizon Wireless","80906","38.78","-104.77","(38.78, -104.77)"
"1xEVDO REVA","GSM","false","-55",,"Error",,,"true",,,"Verizon Wireless","Verizon Wireless","80906","38.770000000000003","-104.81","(38.77, -104.81)"
"1xEVDO REVA","GSM","false","-55","163","success","11847.37","success","false","906.42","success","Verizon Wireless","Verizon Wireless","80906","38.82","-104.86","(38.82, -104.86)"
"1xEVDO REVA","GSM","false","-55","191.2","success","11648.04","success","false","863.82","success","Verizon Wireless","Verizon Wireless","80906","38.799999999999997","-104.8","(38.8, -104.8)"
"1xEVDO REVA","GSM","false","-55","236","success","2789.81","success","false","641.45000000000005","success","Verizon Wireless","Verizon Wireless","80906","38.78","-104.77","(38.78, -104.77)"
"1xEVDO REVA","GSM","false","-55","236.4","success","2917.05","success","false","661.28","success","Verizon Wireless","Verizon Wireless","80906","38.78","-104.77","(38.78, -104.77)"
"1xEVDO REVA","GSM","false","-55","301.2","success","599.58000000000004","success","false","446.32","success","Verizon Wireless","Verizon Wireless","80906","38.79","-104.78","(38.79, -104.78)"
"1xEVDO REVA","GSM","false","-55","483.2","success","140.99","success","false","379.58","success","Verizon Wireless","Verizon Wireless","80906","38.770000000000003","-104.81","(38.77, -104.81)"
"1xEVDO REVA","GSM","false","-53","221.4","success","2434.71","success","false","411.08","success","Verizon Wireless","Verizon Wireless","80906","38.770000000000003","-104.81","(38.77, -104.81)"
"1xEVDO REVA","GSM","false","-53","252.4","success","1894.58","success","false","432.84","success","Verizon Wireless","Verizon Wireless","80906","38.770000000000003","-104.81","(38.77, -104.81)"
"1xEVDO REVA","GSM","false","-53","284.60000000000002","success","5612.34","success","false","526.96","success","Verizon Wireless","Verizon Wireless","80906","38.799999999999997","-104.81","(38.8, -104.81)"
"1xEVDO REVA","GSM","false","-53","363.6","success","1720.14","success","false","302.83999999999997","success","Verizon Wireless","Verizon Wireless","80906","38.78","-104.81","(38.78, -104.81)"
"1xEVDO REVA","GSM","false","-51",,"Error",,,"true",,,"Verizon Wireless","Verizon Wireless","80906","38.799999999999997","-104.79","(38.8, -104.79)"
"1xEVDO REVA","GSM","false","-51","133.6","success","14443.95","success","false","904.76","success","Verizon Wireless","Verizon Wireless","80906","38.799999999999997","-104.79","(38.8, -104.79)"
"1xEVDO REVA","GSM","false","-51","143.19999999999999","success","8190.67","success","false","869.45","success","Verizon Wireless","Verizon Wireless","80906","38.799999999999997","-104.79","(38.8, -104.79)"
"1xEVDO REVA","GSM","false","-51","154","success","6637.91","success","false","810.89","success","Verizon Wireless","Verizon Wireless","80906","38.799999999999997","-104.82","(38.8, -104.82)"
"1xEVDO REVA","GSM","false","-51","213","success","1357.05","success","false","453.21","success","Verizon Wireless","Verizon Wireless","80906","38.79","-104.79","(38.79, -104.79)"
"1xEVDO REVA","GSM","false","-51","220.2","success","6046.23","success","false","638.98","success","Verizon Wireless","Verizon Wireless","80906","38.799999999999997","-104.82","(38.8, -104.82)"
"1xEVDO REVA","GSM","false","-51","244","success","6270.49","success","false","699.92","success","Verizon Wireless","Verizon Wireless","80906","38.770000000000003","-104.82","(38.77, -104.82)"
"1xEVDO REVA","GSM","false","-51","247","success","4069.44","success","false","648.27","success","Verizon Wireless","Verizon Wireless","80906","38.799999999999997","-104.82","(38.8, -104.82)"
"1xEVDO REVA","GSM","false","-51","266.8","success","1882.96","success","false","455.82","success","Verizon Wireless","Verizon Wireless","80906","38.770000000000003","-104.81","(38.77, -104.81)"
"1xEVDO REVA","GSM","false","-51","285.60000000000002","success","5199.21","success","false","555.99","success","Verizon Wireless","Verizon Wireless","80906","38.799999999999997","-104.78","(38.8, -104.78)"
"1xEVDO REVA","GSM","false","-51","285.60000000000002","success","5718.98","success","false","558.80999999999995","success","Verizon Wireless","Verizon Wireless","80906","38.770000000000003","-104.81","(38.77, -104.81)"
"1xEVDO REVA","GSM","false","-51","286.60000000000002","success","5062.25","success","false","415.75","success","Verizon Wireless","Verizon Wireless","80906","38.79","-104.8","(38.79, -104.8)"
"1xEVDO REVA","GSM","false","-51","291.8","success","4384.82","success","false","531.72","success","Verizon Wireless","Verizon Wireless","80906","38.799999999999997","-104.82","(38.8, -104.82)"
"1xEVDO REVA","GSM","false","-51","295.39999999999998","success","3212.3","success","false","520.16999999999996","success","Verizon Wireless","Verizon Wireless","80906","38.799999999999997","-104.81","(38.8, -104.81)"
"1xEVDO REVA","GSM","false","-51","299","success","3312.3","success","false","536.89","success","Verizon Wireless","Verizon Wireless","80906","38.799999999999997","-104.82","(38.8, -104.82)"
"1xEVDO REVA","GSM","false","-51","306.2","success","4976.3500000000004","success","false","579.1","success","Verizon Wireless","Verizon Wireless","80906","38.799999999999997","-104.82","(38.8, -104.82)"
"1xEVDO REVA","GSM","false","-51","313.8","success","4299.74","success","false","533.55999999999995","success","Verizon Wireless","Verizon Wireless","80906","38.76","-104.82","(38.76, -104.82)"
"1xEVDO REVA","GSM","false","-51","351","success","1029.6300000000001","success","false","275.79000000000002","success","Verizon Wireless","Verizon Wireless","80906","38.79","-104.78","(38.79, -104.78)"
"1xEVDO REVA","GSM","false","-51","358.6","success","2395.87","success","false","339.39","success","Verizon Wireless","Verizon Wireless","80906","38.770000000000003","-104.81","(38.77, -104.81)"
"1xEVDO REVA","GSM","false","-51","358.6","success","4240.75","success","false","409.18","success","Verizon Wireless","Verizon Wireless","80906","38.78","-104.8","(38.78, -104.8)"
"1xEVDO REVA","GSM","false","-51","363","success","4194.13","success","false","417.48","success","Verizon Wireless","Verizon Wireless","80906","38.770000000000003","-104.81","(38.77, -104.81)"
"1xEVDO REVA","GSM","false","-51","421.4","success","270.3","success","false","318.11","success","Verizon Wireless","Verizon Wireless","80906","38.770000000000003","-104.81","(38.77, -104.81)"
"1xEVDO REVA","GSM","false","-51","486.6","success","1437.79","success","false","325.43","success","Verizon Wireless","Verizon Wireless","80906","38.770000000000003","-104.81","(38.77, -104.81)"
"1xEVDO REVA","GSM","false","-51","543.6","success","3490.7","success","false","325.42","success","Verizon Wireless","Verizon Wireless","80906","38.79","-104.79","(38.79, -104.79)"
"1xEVDO REVA","GSM","false","-51","638","success","690.3","success","false","391.02","success","Verizon Wireless","Verizon Wireless","80906","38.79","-104.8","(38.79, -104.8)"
