deviceNetType,deviceNetworkType,deviceSignalStrength,deviceNetOp,deviceSimOp,addressZip,latitude,longitude,location,Counties
CDMA1xEVDORevA,,-25,Verizon Wireless,Verizon Wireless,81050,37.979999999999997,-103.53,"(37.98, -103.53)",1060
CDMA1xEVDORevA,,-26,Verizon Wireless,Verizon Wireless,81003,38.28,-104.65,"(38.28, -104.65)",34
CDMA1xEVDORevA,,-27,Verizon Wireless,Verizon Wireless,80603,39.9,-104.81,"(39.9, -104.81)",82
CDMA1xEVDORevA,,-27,Verizon Wireless,Verizon Wireless,80603,39.909999999999997,-104.81,"(39.91, -104.81)",82
CDMA1xEVDORevA,,-27,Verizon Wireless,Verizon Wireless,80482,39.93,-105.79,"(39.93, -105.79)",1450
CDMA1xEVDORevA,,-28,Verizon Wireless,Verizon Wireless,81058,38.1,-103.87,"(38.1, -103.87)",1060
CDMA1xEVDORevA,,-29,Verizon Wireless,Verizon Wireless,81144,37.57,-106.12,"(37.57, -106.12)",35
CDMA1xEVDORevA,,-29,Verizon Wireless,Verizon Wireless,80814,38.950000000000003,-105.22,"(38.95, -105.22)",1071
CDMA1xEVDORevA,,-29,Verizon Wireless,Verizon Wireless,81416,38.74,-108.07,"(38.74, -108.07)",1443
CDMA1xEVDORevA,,-29,Verizon Wireless,Verizon Wireless,81416,38.74,-108.07,"(38.74, -108.07)",1443
,,-29,AT&T Wireless,AT&T Wireless,80216,39.79,-104.98,"(39.79, -104.98)",1444
CDMA1xEVDORevA,,-30,Verizon Wireless,Verizon Wireless,80478,39.979999999999997,-105.82,"(39.98, -105.82)",1450
CDMA1xEVDORevA,,-30,Verizon Wireless,Verizon Wireless,81044,38.11,-102.93,"(38.11, -102.93)",84
CDMA1xEVDORevA,,-30,Verizon Wireless,Verizon Wireless,81044,38.11,-102.93,"(38.11, -102.93)",84
CDMA1xEVDORevA,,-30,Verizon Wireless,Verizon Wireless,80829,38.86,-104.9,"(38.86, -104.9)",1447
CDMA1xRTT,,-30,Verizon Wireless,Verizon Wireless,80112,39.57,-104.84,"(39.57, -104.84)",1395
CDMA1xRTT,,-31,Verizon Wireless,Verizon Wireless,80221,39.82,-104.98,"(39.82, -104.98)",82
CDMA1xEVDORevA,,-31,Verizon Wireless,Verizon Wireless,80478,39.979999999999997,-105.82,"(39.98, -105.82)",1450
CDMA1xEVDORevA,,-31,Verizon Wireless,Verizon Wireless,80829,38.86,-104.89,"(38.86, -104.89)",1447
CDMA1xEVDORevA,,-31,Verizon Wireless,Verizon Wireless,80863,38.97,-105.04,"(38.97, -105.04)",1071
CDMA1xEVDORevA,,-31,Verizon Wireless,Verizon Wireless,80863,38.979999999999997,-105.06,"(38.98, -105.06)",1071
CDMA1xEVDORevA,,-31,Verizon Wireless,Verizon Wireless,80814,38.950000000000003,-105.13,"(38.95, -105.13)",1071
CDMA1xEVDORevA,,-31,Verizon Wireless,Verizon Wireless,80814,38.97,-105.2,"(38.97, -105.2)",1071
CDMA1xEVDORevA,,-31,Verizon Wireless,Verizon Wireless,80640,39.869999999999997,-104.89,"(39.87, -104.89)",82
CDMA1xEVDORevA,,-31,Verizon Wireless,Verizon Wireless,80863,38.979999999999997,-105.04,"(38.98, -105.04)",1071
CDMA1xRTT,,-31,Verizon Wireless,Verizon Wireless,80109,39.409999999999997,-104.86,"(39.41, -104.86)",3133
CDMA1xEVDORevA,,-31,Verizon Wireless,Verizon Wireless,80022,39.840000000000003,-104.92,"(39.84, -104.92)",82
CDMA1xRTT,,-32,Verizon Wireless,Verizon Wireless,80229,39.81,-104.98,"(39.81, -104.98)",82
LTE,CDMA,-32,Verizon Wireless,Verizon Wireless,80121,39.619999999999997,-104.96,"(39.62, -104.96)",1395
LTE,CDMA,-32,Verizon Wireless,Verizon Wireless,80113,39.65,-104.96,"(39.65, -104.96)",1395
CDMA1xEVDORevA,,-32,Verizon Wireless,Verizon Wireless,80640,39.840000000000003,-104.92,"(39.84, -104.92)",82
CDMA1xEVDORevA,,-32,Verizon Wireless,Verizon Wireless,81149,37.979999999999997,-106.14,"(37.98, -106.14)",1067
CDMA1xEVDORevA,,-32,Verizon Wireless,Verizon Wireless,80498,39.86,-106.25,"(39.86, -106.25)",1070
CDMA1xEVDORevA,,-32,Verizon Wireless,Verizon Wireless,80814,38.96,-105.2,"(38.96, -105.2)",1071
CDMA1xEVDORevA,,-32,Verizon Wireless,Verizon Wireless,81149,37.979999999999997,-106.14,"(37.98, -106.14)",1067
LTE,CDMA,-32,Verizon Wireless,Verizon Wireless,80111,39.619999999999997,-104.9,"(39.62, -104.9)",1395
CDMA1xEVDORevA,,-33,Verizon Wireless,Verizon Wireless,80446,40.06,-105.92,"(40.06, -105.92)",1450
CDMA1xEVDORevA,,-33,Verizon Wireless,Verizon Wireless,80816,38.93,-105.19,"(38.93, -105.19)",1071
CDMA1xEVDORevA,,-33,Verizon Wireless,Verizon Wireless,81050,37.979999999999997,-103.53,"(37.98, -103.53)",1060
CDMA1xEVDORevA,,-33,Verizon Wireless,Verizon Wireless,81054,38.1,-103.12,"(38.1, -103.12)",84
CDMA1xRTT,,-33,Verizon Wireless,Verizon Wireless,80904,38.840000000000003,-104.86,"(38.84, -104.86)",1447
CDMA1xEVDORevA,,-34,Verizon Wireless,Verizon Wireless,81637,39.61,-106.95,"(39.61, -106.95)",1446
CDMA1xRTT,,-34,Verizon Wireless,Verizon Wireless,80640,39.880000000000003,-104.88,"(39.88, -104.88)",82
LTE,CDMA,-34,Verizon Wireless,Verizon Wireless,80528,40.520000000000003,-105.02,"(40.52, -105.02)",1012
CDMA1xRTT,,-34,Verizon Wireless,Verizon Wireless,80814,38.96,-105.18,"(38.96, -105.18)",1071
CDMA1xEVDORevA,,-34,Verizon Wireless,Verizon Wireless,81144,37.57,-106.09,"(37.57, -106.09)",35
CDMA1xEVDORevA,,-34,Verizon Wireless,Verizon Wireless,80814,38.950000000000003,-105.22,"(38.95, -105.22)",1071
CDMA1xEVDORevA,,-34,Verizon Wireless,Verizon Wireless,80814,38.97,-105.2,"(38.97, -105.2)",1071
CDMA1xEVDORevA,,-35,Verizon Wireless,Verizon Wireless,80863,38.979999999999997,-105.06,"(38.98, -105.06)",1071
CDMA1xEVDORevA,,-35,Verizon Wireless,Verizon Wireless,80814,38.96,-105.2,"(38.96, -105.2)",1071
CDMA1xEVDORevA,,-35,Verizon Wireless,Verizon Wireless,81144,37.630000000000003,-106.09,"(37.63, -106.09)",35
CDMA1xRTT,,-35,Verizon Wireless,Verizon Wireless,80022,39.840000000000003,-104.92,"(39.84, -104.92)",82
CDMA1xEVDORevA,,-35,Verizon Wireless,Verizon Wireless,80446,39.92,-105.78,"(39.92, -105.78)",1450
CDMA1xEVDORevA,,-35,Verizon Wireless,Verizon Wireless,80446,39.92,-105.78,"(39.92, -105.78)",1450
CDMA1xEVDORevA,,-35,Verizon Wireless,Verizon Wireless,80809,38.9,-104.97,"(38.9, -104.97)",1447
CDMA1xEVDORevA,,-35,Verizon Wireless,Verizon Wireless,80446,39.909999999999997,-105.78,"(39.91, -105.78)",1450
CDMA1xEVDORevA,,-35,Verizon Wireless,Verizon Wireless,80814,38.94,-105.14,"(38.94, -105.14)",1071
LTE,CDMA,-35,Verizon Wireless,Verizon Wireless,80210,39.68,-104.95,"(39.68, -104.95)",1444
CDMA1xEVDORevA,,-35,Verizon Wireless,Verizon Wireless,81101,37.450000000000003,-105.99,"(37.45, -105.99)",83
CDMA1xEVDORevA,,-35,Verizon Wireless,Verizon Wireless,81101,37.450000000000003,-105.99,"(37.45, -105.99)",83
CDMA1xEVDORevA,,-35,Verizon Wireless,Verizon Wireless,81101,37.47,-105.89,"(37.47, -105.89)",83
CDMA1xEVDORevA,,-35,Verizon Wireless,Verizon Wireless,81101,37.47,-105.89,"(37.47, -105.89)",83
CDMA1xRTT,,-35,Verizon Wireless,Verizon Wireless,80221,39.81,-104.98,"(39.81, -104.98)",82
,,-36,AT&T Wireless,AT&T Wireless,80234,39.909999999999997,-105.02,"(39.91, -105.02)",82
CDMA1xEVDORevA,,-36,Verizon Wireless,Verizon Wireless,80019,39.74,-104.71,"(39.74, -104.71)",1395
CDMA1xEVDORevA,,-36,Verizon Wireless,Verizon Wireless,81054,38.049999999999997,-103.33,"(38.05, -103.33)",84
CDMA1xEVDORevA,,-36,Verizon Wireless,Verizon Wireless,81416,38.74,-108.07,"(38.74, -108.07)",1443
CDMA1xEVDORevA,,-36,Verizon Wireless,Verizon Wireless,81230,38.26,-106.7,"(38.26, -106.7)",1067
,,-36,Verizon Wireless,Verizon Wireless,80209,39.700000000000003,-104.97,"(39.7, -104.97)",1444
CDMA1xEVDORevA,,-36,Verizon Wireless,Verizon Wireless,80809,38.909999999999997,-104.98,"(38.91, -104.98)",1447
CDMA1xEVDORevA,,-36,Verizon Wireless,Verizon Wireless,80446,40.090000000000003,-105.89,"(40.09, -105.89)",1450
CDMA1xEVDORevA,,-36,Verizon Wireless,Verizon Wireless,80829,38.86,-104.91,"(38.86, -104.91)",1447
CDMA1xEVDORevA,,-36,Verizon Wireless,Verizon Wireless,80015,39.619999999999997,-104.74,"(39.62, -104.74)",1395
CDMA1xEVDORevA,,-36,Verizon Wireless,Verizon Wireless,80723,40.25,-103.51,"(40.25, -103.51)",1059
CDMA1xEVDORevA,,-36,Verizon Wireless,Verizon Wireless,80015,39.619999999999997,-104.74,"(39.62, -104.74)",1395
CDMA1xEVDORevA,,-36,Verizon Wireless,Verizon Wireless,80863,38.94,-105.02,"(38.94, -105.02)",1447
CDMA1xEVDORevA,,-36,Verizon Wireless,Verizon Wireless,80814,38.950000000000003,-105.22,"(38.95, -105.22)",1071
CDMA1xEVDORevA,,-36,Verizon Wireless,Verizon Wireless,81144,37.58,-106.15,"(37.58, -106.15)",35
LTE,CDMA,-36,Verizon Wireless,Verizon Wireless,80002,39.799999999999997,-105.11,"(39.8, -105.11)",1008
,,-36,Verizon Wireless,Verizon Wireless,80203,39.74,-104.98,"(39.74, -104.98)",1444
CDMA1xEVDORevA,,-36,Verizon Wireless,Verizon Wireless,80814,38.950000000000003,-105.22,"(38.95, -105.22)",1071
CDMA1xRTT,,-36,Verizon Wireless,Verizon Wireless,80216,39.799999999999997,-104.98,"(39.8, -104.98)",82
CDMA1xRTT,,-36,Verizon Wireless,Verizon Wireless,80216,39.799999999999997,-104.98,"(39.8, -104.98)",82
CDMA1xEVDORevA,,-37,Verizon Wireless,Verizon Wireless,81140,37.159999999999997,-105.94,"(37.16, -105.94)",1440
CDMA1xEVDORevA,,-37,Verizon Wireless,Verizon Wireless,81101,37.5,-105.96,"(37.5, -105.96)",83
CDMA1xRTT,,-37,Verizon Wireless,Verizon Wireless,80231,39.67,-104.89,"(39.67, -104.89)",1444
CDMA1xEVDORevA,,-37,Verizon Wireless,Verizon Wireless,80814,38.96,-105.2,"(38.96, -105.2)",1071
CDMA1xEVDORevA,,-37,Verizon Wireless,Verizon Wireless,80654,40.229999999999997,-104.13,"(40.23, -104.13)",1059
LTE,CDMA,-37,Verizon Wireless,Verizon Wireless,80209,39.700000000000003,-104.98,"(39.7, -104.98)",1444
CDMA1xEVDORevA,CDMA,-37,Verizon Wireless,Verizon Wireless,81501,39.08,-108.55,"(39.08, -108.55)",1015
CDMA1xEVDORevA,CDMA,-37,Verizon Wireless,Verizon Wireless,81506,39.11,-108.53,"(39.11, -108.53)",1015
,,-37,Verizon Wireless,Verizon Wireless,80209,39.700000000000003,-104.96,"(39.7, -104.96)",1444
CDMA1xEVDORevA,CDMA,-37,Verizon Wireless,Verizon Wireless,81501,39.07,-108.55,"(39.07, -108.55)",1015
CDMA1xEVDORevA,,-37,Verizon Wireless,Verizon Wireless,80603,39.950000000000003,-104.77,"(39.95, -104.77)",82
LTE,CDMA,-37,Verizon Wireless,Verizon Wireless,80204,39.72,-104.98,"(39.72, -104.98)",1444
LTE,CDMA,-37,Verizon Wireless,Verizon Wireless,80223,39.700000000000003,-104.99,"(39.7, -104.99)",1444
LTE,CDMA,-37,Verizon Wireless,Verizon Wireless,80305,40,-105.26,"(40.0, -105.26)",85
CDMA1xEVDORevA,,-37,Verizon Wireless,Verizon Wireless,81125,37.869999999999997,-106.14,"(37.87, -106.14)",1067
CDMA1xEVDORevA,,-37,Verizon Wireless,Verizon Wireless,81089,37.630000000000003,-104.76,"(37.63, -104.76)",1006
CDMA1xEVDORevA,,-37,Verizon Wireless,Verizon Wireless,80446,40.090000000000003,-105.89,"(40.09, -105.89)",1450
LTE,CDMA,-37,Verizon Wireless,Verizon Wireless,80108,39.5,-104.87,"(39.5, -104.87)",3133
CDMA1xEVDORevA,,-37,Verizon Wireless,Verizon Wireless,80809,38.950000000000003,-105.02,"(38.95, -105.02)",1447
CDMA1xEVDORevA,,-37,Verizon Wireless,Verizon Wireless,80640,39.85,-104.91,"(39.85, -104.91)",82
LTE,CDMA,-37,Verizon Wireless,Verizon Wireless,80303,40,-105.25,"(40.0, -105.25)",85
CDMA1xEVDORevA,,-37,Verizon Wireless,Verizon Wireless,80229,39.83,-104.95,"(39.83, -104.95)",82
CDMA1xEVDORevA,,-37,Verizon Wireless,Verizon Wireless,80809,38.909999999999997,-104.98,"(38.91, -104.98)",1447
CDMA1xEVDORevA,,-37,Verizon Wireless,Verizon Wireless,80809,38.950000000000003,-105.02,"(38.95, -105.02)",1447
CDMA1xRTT,,-38,Verizon Wireless,Verizon Wireless,81123,37.46,-105.56,"(37.46, -105.56)",1441
CDMA1xEVDORevA,,-38,Verizon Wireless,Verizon Wireless,81125,37.74,-105.94,"(37.74, -105.94)",83
CDMA1xEVDORevA,,-38,Verizon Wireless,Verizon Wireless,81418,38.85,-107.95,"(38.85, -107.95)",1443
CDMA - eHRPD,CDMA,-38,Verizon Wireless,Verizon Wireless,80209,39.71,-104.95,"(39.71, -104.95)",1444
LTE,CDMA,-38,Verizon Wireless,Verizon Wireless,80207,39.76,-104.93,"(39.76, -104.93)",1444
CDMA1xEVDORevA,,-38,Verizon Wireless,Verizon Wireless,81125,37.74,-105.95,"(37.74, -105.95)",83
CDMA - eHRPD,CDMA,-38,Verizon Wireless,Verizon Wireless,80205,39.76,-104.97,"(39.76, -104.97)",1444
CDMA1xEVDORevA,,-38,Verizon Wireless,Verizon Wireless,80216,39.81,-104.99,"(39.81, -104.99)",82
CDMA1xEVDORevA,,-38,Verizon Wireless,Verizon Wireless,80221,39.81,-105,"(39.81, -105.0)",82
CDMA1xEVDORevA,,-38,Verizon Wireless,Verizon Wireless,80221,39.81,-105.02,"(39.81, -105.02)",82
CDMA1xEVDORevA,,-38,Verizon Wireless,Verizon Wireless,80221,39.81,-105.01,"(39.81, -105.01)",82
CDMA1xEVDORevA,,-38,Verizon Wireless,Verizon Wireless,80022,39.840000000000003,-104.92,"(39.84, -104.92)",82
CDMA1xEVDORevA,,-38,Verizon Wireless,Verizon Wireless,80022,39.85,-104.91,"(39.85, -104.91)",82
LTE,CDMA,-38,Verizon Wireless,Verizon Wireless,80528,40.49,-104.99,"(40.49, -104.99)",1012
CDMA1xEVDORevA,,-38,Verizon Wireless,Verizon Wireless,80221,39.799999999999997,-105,"(39.8, -105.0)",82
CDMA1xEVDORevA,CDMA,-38,Verizon Wireless,Verizon Wireless,81501,39.06,-108.53,"(39.06, -108.53)",1015
CDMA1xEVDORevA,,-38,Verizon Wireless,Verizon Wireless,80221,39.81,-105.01,"(39.81, -105.01)",82
CDMA1xEVDORevA,,-38,Verizon Wireless,Verizon Wireless,80221,39.799999999999997,-105,"(39.8, -105.0)",82
CDMA1xEVDORevA,,-38,Verizon Wireless,Verizon Wireless,80814,38.96,-105.21,"(38.96, -105.21)",1071
CDMA1xEVDORevA,,-38,Verizon Wireless,Verizon Wireless,80814,38.96,-105.21,"(38.96, -105.21)",1071
CDMA1xRTT,,-38,Verizon Wireless,Verizon Wireless,80640,39.869999999999997,-104.9,"(39.87, -104.9)",82
CDMA1xRTT,,-38,Verizon Wireless,Verizon Wireless,80216,39.799999999999997,-104.98,"(39.8, -104.98)",82
CDMA1xEVDORevA,,-38,Verizon Wireless,Verizon Wireless,81144,37.619999999999997,-106.09,"(37.62, -106.09)",35
CDMA1xRTT,,-38,Verizon Wireless,Verizon Wireless,81004,38.229999999999997,-104.61,"(38.23, -104.61)",34
CDMA1xEVDORevA,,-39,Verizon Wireless,Verizon Wireless,81416,38.74,-108.07,"(38.74, -108.07)",1443
CDMA1xEVDORevA,,-39,Verizon Wireless,Verizon Wireless,80018,39.72,-104.72,"(39.72, -104.72)",1395
,,-39,AT&T Wireless,AT&T Wireless,80209,39.71,-104.95,"(39.71, -104.95)",1444
CDMA1xEVDORevA,,-39,Verizon Wireless,Verizon Wireless,81067,38.03,-103.68,"(38.03, -103.68)",1060
CDMA1xEVDORevA,,-39,Verizon Wireless,Verizon Wireless,80022,39.83,-104.93,"(39.83, -104.93)",82
,,-39,Verizon Wireless,Verizon Wireless,80121,39.6,-104.98,"(39.6, -104.98)",1395
,,-39,Verizon Wireless,Verizon Wireless,80113,39.65,-104.98,"(39.65, -104.98)",1395
,,-39,Verizon Wireless,Verizon Wireless,80210,39.68,-104.97,"(39.68, -104.97)",1444
CDMA1xEVDORevA,CDMA,-39,Verizon Wireless,Verizon Wireless,80104,39.4,-104.85,"(39.4, -104.85)",3133
CDMA1xEVDORevA,,-39,Verizon Wireless,Verizon Wireless,80022,39.840000000000003,-104.92,"(39.84, -104.92)",82
CDMA1xEVDORevA,,-39,Verizon Wireless,Verizon Wireless,80022,39.840000000000003,-104.92,"(39.84, -104.92)",82
LTE,CDMA,-39,Verizon Wireless,Verizon Wireless,80403,39.76,-105.42,"(39.76, -105.42)",89
CDMA1xEVDORevA,,-39,Verizon Wireless,Verizon Wireless,80221,39.82,-104.98,"(39.82, -104.98)",82
CDMA1xEVDORevA,,-39,Verizon Wireless,Verizon Wireless,80601,39.94,-104.78,"(39.94, -104.78)",82
LTE,CDMA,-39,Verizon Wireless,Verizon Wireless,80113,39.630000000000003,-104.98,"(39.63, -104.98)",1395
,,-39,Verizon Wireless,Verizon Wireless,80128,39.56,-105.06,"(39.56, -105.06)",1008
CDMA1xEVDORevA,,-39,Verizon Wireless,Verizon Wireless,80863,38.979999999999997,-105.06,"(38.98, -105.06)",1071
CDMA1xEVDORevA,,-39,Verizon Wireless,Verizon Wireless,80640,39.85,-104.92,"(39.85, -104.92)",82
CDMA1xEVDORevA,,-39,Verizon Wireless,Verizon Wireless,80863,38.979999999999997,-105.06,"(38.98, -105.06)",1071
CDMA1xEVDORevA,,-39,Verizon Wireless,Verizon Wireless,80204,39.72,-104.99,"(39.72, -104.99)",1444
,,-39,Verizon Wireless,Verizon Wireless,80120,39.58,-105.03,"(39.58, -105.03)",1395
CDMA1xEVDORevA,,-39,Verizon Wireless,Verizon Wireless,80446,40.04,-105.93,"(40.04, -105.93)",1450
CDMA1xEVDORevA,,-39,Verizon Wireless,Verizon Wireless,80112,39.549999999999997,-104.86,"(39.55, -104.86)",3133
CDMA1xEVDORevA,,-39,Verizon Wireless,Verizon Wireless,81155,38.15,-105.95,"(38.15, -105.95)",1067
CDMA1xEVDORevA,,-39,Verizon Wireless,Verizon Wireless,80640,39.9,-104.86,"(39.9, -104.86)",82
CDMA1xEVDORevA,,-39,Verizon Wireless,Verizon Wireless,80459,40.25,-106.45,"(40.25, -106.45)",1450
NO DATA,CDMA,-39,Verizon Wireless,Verizon Wireless,80206,39.71,-104.95,"(39.71, -104.95)",1444
3G,CDMA,-39,Verizon Wireless,Verizon Wireless,80246,39.700000000000003,-104.94,"(39.7, -104.94)",1444
CDMA1xEVDORevA,,-39,Verizon Wireless,Verizon Wireless,80459,40.25,-106.45,"(40.25, -106.45)",1450
CDMA1xEVDORevA,,-39,Verizon Wireless,Verizon Wireless,80814,38.96,-105.17,"(38.96, -105.17)",1071
CDMA1xEVDORevA,,-40,Verizon Wireless,Verizon Wireless,80459,40.06,-106.38,"(40.06, -106.38)",1450
CDMA1xEVDORevA,,-40,Verizon Wireless,Verizon Wireless,81101,37.5,-105.97,"(37.5, -105.97)",83
CDMA1xEVDORevA,,-40,Verizon Wireless,Verizon Wireless,80814,38.869999999999997,-105.15,"(38.87, -105.15)",1071
CDMA1xRTT,,-40,Verizon Wireless,Verizon Wireless,80124,39.549999999999997,-104.88,"(39.55, -104.88)",3133
CDMA1xEVDORevA,,-40,Verizon Wireless,Verizon Wireless,80701,40.29,-103.9,"(40.29, -103.9)",1059
CDMA1xEVDORevA,,-40,Verizon Wireless,Verizon Wireless,80814,38.93,-105.15,"(38.93, -105.15)",1071
LTE,CDMA,-40,Verizon Wireless,Verizon Wireless,80435,39.68,-105.89,"(39.68, -105.89)",1439
,,-40,AT&T Wireless,AT&T Wireless,80230,39.770000000000003,-104.89,"(39.77, -104.89)",1444
LTE,CDMA,-40,Verizon Wireless,Verizon Wireless,80203,39.729999999999997,-104.98,"(39.73, -104.98)",1444
CDMA - eHRPD,CDMA,-40,Verizon Wireless,Verizon Wireless,80202,39.74,-104.99,"(39.74, -104.99)",1444
LTE,CDMA,-40,Verizon Wireless,Verizon Wireless,80203,39.74,-104.98,"(39.74, -104.98)",1444
3G,CDMA,-40,Verizon Wireless,Verizon Wireless,80202,39.75,-105,"(39.75, -105.0)",1444
CDMA1xEVDORevA,,-40,Verizon Wireless,Verizon Wireless,80814,38.96,-105.21,"(38.96, -105.21)",1071
CDMA1xEVDORevA,,-40,Verizon Wireless,Verizon Wireless,81025,38.17,-104.17,"(38.17, -104.17)",34
CDMA1xEVDORevA,,-40,Verizon Wireless,Verizon Wireless,81050,37.979999999999997,-103.55,"(37.98, -103.55)",1060
CDMA1xEVDORevA,CDMA,-40,Verizon Wireless,Verizon Wireless,80104,39.4,-104.85,"(39.4, -104.85)",3133
3G,CDMA,-40,Verizon Wireless,Verizon Wireless,80222,39.68,-104.94,"(39.68, -104.94)",1444
Unknown,CDMA,-40,Sprint,Sprint,80304,40.020000000000003,-105.28,"(40.02, -105.28)",85
CDMA1xEVDORevA,,-40,Verizon Wireless,Verizon Wireless,80816,38.93,-105.19,"(38.93, -105.19)",1071
,,-40,AT&T Wireless,AT&T Wireless,80205,39.75,-104.98,"(39.75, -104.98)",1444
LTE,CDMA,-40,Verizon Wireless,Verizon Wireless,80903,38.83,-104.82,"(38.83, -104.82)",1447
Unknown,CDMA,-40,Verizon Wireless,Verizon Wireless,80224,39.65,-104.9,"(39.65, -104.9)",1444
3G,CDMA,-40,Verizon Wireless,Verizon Wireless,80206,39.71,-104.95,"(39.71, -104.95)",1444
CDMA1xEVDORevA,,-40,Verizon Wireless,Verizon Wireless,80921,39.020000000000003,-104.83,"(39.02, -104.83)",1447
CDMA1xEVDORevA,,-40,Verizon Wireless,Verizon Wireless,81416,38.76,-108.14,"(38.76, -108.14)",1443
CDMA1xEVDORevA,,-40,Verizon Wireless,Verizon Wireless,81416,38.72,-108.06,"(38.72, -108.06)",1443
LTE,CDMA,-40,Verizon Wireless,Verizon Wireless,80293,39.74,-104.99,"(39.74, -104.99)",1444
CDMA1xEVDORevA,,-40,Verizon Wireless,Verizon Wireless,80446,40.08,-105.93,"(40.08, -105.93)",1450
CDMA1xRTT,,-40,Verizon Wireless,Verizon Wireless,80230,39.770000000000003,-104.89,"(39.77, -104.89)",1444
LTE,CDMA,-40,Verizon Wireless,Verizon Wireless,80309,40,-105.26,"(40.0, -105.26)",85
3G,,-40,Verizon Wireless,Verizon Wireless,80246,39.700000000000003,-104.94,"(39.7, -104.94)",1444
CDMA1xEVDORevA,,-40,Verizon Wireless,Verizon Wireless,81401,38.5,-107.9,"(38.5, -107.9)",32
CDMA1xEVDORevA,,-41,Verizon Wireless,Verizon Wireless,80446,39.99,-105.86,"(39.99, -105.86)",1450
CDMA1xEVDORevA,,-41,Verizon Wireless,Verizon Wireless,80446,39.99,-105.86,"(39.99, -105.86)",1450
CDMA1xRTT,,-41,Verizon Wireless,Verizon Wireless,80603,39.93,-104.79,"(39.93, -104.79)",82
LTE,CDMA,-41,Verizon Wireless,Verizon Wireless,80301,40.07,-105.2,"(40.07, -105.2)",85
CDMA - eHRPD,CDMA,-41,Verizon Wireless,Verizon Wireless,80209,39.69,-104.94,"(39.69, -104.94)",1444
CDMA1xEVDORevA,,-41,Verizon Wireless,Verizon Wireless,80602,39.979999999999997,-104.94,"(39.98, -104.94)",82
CDMA1xEVDORevA,,-41,Verizon Wireless,Verizon Wireless,80640,39.880000000000003,-104.86,"(39.88, -104.86)",82
CDMA1xEVDORevA,,-41,Verizon Wireless,Verizon Wireless,80640,39.880000000000003,-104.88,"(39.88, -104.88)",82
CDMA1xEVDORevA,,-41,Verizon Wireless,Verizon Wireless,80229,39.82,-104.95,"(39.82, -104.95)",82
CDMA1xEVDORevA,,-41,Verizon Wireless,Verizon Wireless,80809,38.89,-104.95,"(38.89, -104.95)",1447
CDMA1xEVDORevA,,-41,Verizon Wireless,Verizon Wireless,80109,39.4,-104.86,"(39.4, -104.86)",3133
CDMA1xRTT,,-41,Verizon Wireless,Verizon Wireless,80230,39.770000000000003,-104.88,"(39.77, -104.88)",1444
CDMA1xEVDORevA,,-41,Verizon Wireless,Verizon Wireless,80640,39.869999999999997,-104.89,"(39.87, -104.89)",82
CDMA - eHRPD,CDMA,-41,Verizon Wireless,Verizon Wireless,80209,39.71,-104.95,"(39.71, -104.95)",1444
CDMA1xEVDORevA,,-41,Verizon Wireless,Verizon Wireless,80446,40.08,-105.94,"(40.08, -105.94)",1450
CDMA1xEVDORevA,,-41,Verizon Wireless,Verizon Wireless,80231,39.67,-104.86,"(39.67, -104.86)",1395
LTE,CDMA,-41,Verizon Wireless,Verizon Wireless,80222,39.64,-104.91,"(39.64, -104.91)",1444
CDMA1xEVDORevA,,-41,Verizon Wireless,Verizon Wireless,80446,40.06,-105.92,"(40.06, -105.92)",1450
CDMA1xRTT,,-41,Verizon Wireless,Verizon Wireless,80022,39.840000000000003,-104.92,"(39.84, -104.92)",82
CDMA1xEVDORevA,CDMA,-41,Verizon Wireless,Verizon Wireless,81505,39.1,-108.63,"(39.1, -108.63)",1015
LTE,CDMA,-41,Verizon Wireless,Verizon Wireless,80222,39.68,-104.93,"(39.68, -104.93)",1444
LTE,CDMA,-41,Verizon Wireless,Verizon Wireless,80222,39.67,-104.93,"(39.67, -104.93)",1444
LTE,CDMA,-41,Verizon Wireless,Verizon Wireless,80237,39.619999999999997,-104.9,"(39.62, -104.9)",1395
CDMA1xEVDORevA,CDMA,-41,Verizon Wireless,Verizon Wireless,80104,39.4,-104.85,"(39.4, -104.85)",3133
CDMA1xEVDORevA,,-41,Verizon Wireless,Verizon Wireless,80022,39.83,-104.92,"(39.83, -104.92)",82
LTE,CDMA,-41,Verizon Wireless,Verizon Wireless,80222,39.659999999999997,-104.92,"(39.66, -104.92)",1444
CDMA1xEVDORevA,,-41,Verizon Wireless,Verizon Wireless,80022,39.840000000000003,-104.92,"(39.84, -104.92)",82
CDMA1xEVDORevA,,-41,Verizon Wireless,Verizon Wireless,80022,39.840000000000003,-104.92,"(39.84, -104.92)",82
LTE,CDMA,-41,Verizon Wireless,Verizon Wireless,80210,39.68,-104.95,"(39.68, -104.95)",1444
LTE,CDMA,-41,Verizon Wireless,Verizon Wireless,80210,39.68,-104.94,"(39.68, -104.94)",1444
LTE,CDMA,-41,Verizon Wireless,Verizon Wireless,80210,39.68,-104.96,"(39.68, -104.96)",1444
,,-41,Verizon Wireless,Verizon Wireless,80209,39.71,-104.97,"(39.71, -104.97)",1444
LTE,CDMA,-41,Verizon Wireless,Verizon Wireless,80237,39.630000000000003,-104.9,"(39.63, -104.9)",1395
LTE,CDMA,-41,Verizon Wireless,Verizon Wireless,80237,39.630000000000003,-104.9,"(39.63, -104.9)",1395
,,-41,Verizon Wireless,Verizon Wireless,80209,39.700000000000003,-104.95,"(39.7, -104.95)",1444
CDMA1xEVDORevA,,-41,Verizon Wireless,Verizon Wireless,80022,39.83,-104.92,"(39.83, -104.92)",82
3G,CDMA,-41,Verizon Wireless,Verizon Wireless,80222,39.69,-104.94,"(39.69, -104.94)",1444
LTE,CDMA,-41,Verizon Wireless,Verizon Wireless,80210,39.69,-104.97,"(39.69, -104.97)",1444
LTE,CDMA,-41,Verizon Wireless,Verizon Wireless,80209,39.700000000000003,-104.98,"(39.7, -104.98)",1444
LTE,CDMA,-41,Verizon Wireless,Verizon Wireless,80209,39.700000000000003,-104.98,"(39.7, -104.98)",1444
CDMA1xEVDORevA,,-41,Verizon Wireless,Verizon Wireless,81044,38.11,-102.97,"(38.11, -102.97)",84
,,-41,Verizon Wireless,Verizon Wireless,80204,39.74,-105.01,"(39.74, -105.01)",1444
CDMA1xEVDORevA,CDMA,-41,Verizon Wireless,Verizon Wireless,81504,39.1,-108.5,"(39.1, -108.5)",1015
CDMA1xEVDORevA,,-41,Verizon Wireless,Verizon Wireless,80814,38.96,-105.2,"(38.96, -105.2)",1071
LTE,CDMA,-41,Verizon Wireless,Verizon Wireless,80203,39.72,-104.98,"(39.72, -104.98)",1444
CDMA1xRTT,,-41,Verizon Wireless,Verizon Wireless,80640,39.83,-104.93,"(39.83, -104.93)",82
CDMA1xEVDORevA,,-41,Verizon Wireless,Verizon Wireless,81144,37.630000000000003,-106.09,"(37.63, -106.09)",35
CDMA - EvDo rev. A,CDMA,-41,Verizon Wireless,Verizon Wireless,80134,39.549999999999997,-104.82,"(39.55, -104.82)",3133
LTE,CDMA,-41,Verizon Wireless,Verizon Wireless,80209,39.700000000000003,-104.98,"(39.7, -104.98)",1444
CDMA1xEVDORevA,,-41,Verizon Wireless,Verizon Wireless,80137,39.74,-104.6,"(39.74, -104.6)",1395
CDMA1xRTT,,-41,Verizon Wireless,Verizon Wireless,80601,39.94,-104.79,"(39.94, -104.79)",82
LTE,CDMA,-41,Verizon Wireless,Verizon Wireless,80203,39.72,-104.98,"(39.72, -104.98)",1444
LTE,CDMA,-41,Verizon Wireless,Verizon Wireless,80209,39.71,-104.98,"(39.71, -104.98)",1444
CDMA1xEVDORevA,,-41,Verizon Wireless,Verizon Wireless,81003,38.270000000000003,-104.61,"(38.27, -104.61)",34
CDMA - EvDo rev. A,CDMA,-41,Verizon Wireless,Verizon Wireless,80020,39.909999999999997,-105.06,"(39.91, -105.06)",86
CDMA - EvDo rev. A,CDMA,-41,Verizon Wireless,Verizon Wireless,80202,39.75,-104.99,"(39.75, -104.99)",1444
LTE,CDMA,-41,Verizon Wireless,Verizon Wireless,80223,39.71,-104.98,"(39.71, -104.98)",1444
CDMA - EvDo rev. A,CDMA,-41,Verizon Wireless,Verizon Wireless,80528,40.450000000000003,-104.99,"(40.45, -104.99)",1012
LTE,CDMA,-41,Verizon Wireless,Verizon Wireless,80124,39.53,-104.86,"(39.53, -104.86)",3133
CDMA1xEVDORevA,,-42,Verizon Wireless,Verizon Wireless,81416,38.78,-108.24,"(38.78, -108.24)",1443
CDMA - eHRPD,CDMA,-42,Verizon Wireless,Verizon Wireless,80203,39.74,-104.98,"(39.74, -104.98)",1444
CDMA1xRTT,,-42,Verizon Wireless,Verizon Wireless,81143,38.1,-106.03,"(38.1, -106.03)",1067
LTE,CDMA,-42,Verizon Wireless,Verizon Wireless,80443,39.5,-106.14,"(39.5, -106.14)",1070
CDMA - EvDo rev. A,CDMA,-42,Verizon Wireless,Verizon Wireless,80020,39.909999999999997,-105.06,"(39.91, -105.06)",86
CDMA - EvDo rev. A,CDMA,-42,Verizon Wireless,Verizon Wireless,80202,39.74,-104.99,"(39.74, -104.99)",1444
LTE,CDMA,-42,Verizon Wireless,Verizon Wireless,80202,39.74,-104.99,"(39.74, -104.99)",1444
3G,CDMA,-42,Verizon Wireless,Verizon Wireless,80209,39.700000000000003,-104.95,"(39.7, -104.95)",1444
3G,,-42,Verizon Wireless,Verizon Wireless,80209,39.700000000000003,-104.95,"(39.7, -104.95)",1444
LTE,CDMA,-42,Verizon Wireless,Verizon Wireless,80305,40,-105.26,"(40.0, -105.26)",85
CDMA - EvDo rev. A,CDMA,-42,Verizon Wireless,Verizon Wireless,80020,39.909999999999997,-105.06,"(39.91, -105.06)",86
CDMA - EvDo rev. A,CDMA,-42,Verizon Wireless,Verizon Wireless,80020,39.93,-105.08,"(39.93, -105.08)",86
CDMA - EvDo rev. A,CDMA,-42,Verizon Wireless,Verizon Wireless,80020,39.93,-105.08,"(39.93, -105.08)",86
CDMA1xEVDORevA,,-42,Verizon Wireless,Verizon Wireless,81201,38.57,-106.08,"(38.57, -106.08)",1398
LTE,CDMA,-42,Verizon Wireless,Verizon Wireless,80482,39.909999999999997,-105.78,"(39.91, -105.78)",1450
,,-42,Verizon Wireless,Verizon Wireless,80205,39.75,-104.99,"(39.75, -104.99)",1444
CDMA - EvDo rev. A,CDMA,-42,Verizon Wireless,Verizon Wireless,80020,39.93,-105.08,"(39.93, -105.08)",86
CDMA1xEVDORevA,,-42,Verizon Wireless,Verizon Wireless,80221,39.82,-104.98,"(39.82, -104.98)",82
,,-42,Verizon Wireless,Verizon Wireless,80209,39.700000000000003,-104.97,"(39.7, -104.97)",1444
CDMA - eHRPD,CDMA,-42,Verizon Wireless,Verizon Wireless,80202,39.74,-104.98,"(39.74, -104.98)",1444
CDMA1xEVDORevA,,-42,Verizon Wireless,Verizon Wireless,80022,39.89,-104.76,"(39.89, -104.76)",82
,,-42,Verizon Wireless,Verizon Wireless,80209,39.71,-104.98,"(39.71, -104.98)",1444
,,-42,Verizon Wireless,Verizon Wireless,80209,39.700000000000003,-104.95,"(39.7, -104.95)",1444
,,-42,Verizon Wireless,Verizon Wireless,80209,39.700000000000003,-104.95,"(39.7, -104.95)",1444
CDMA1xEVDORevA,,-42,Verizon Wireless,Verizon Wireless,80221,39.82,-104.99,"(39.82, -104.99)",82
CDMA1xEVDORevA,CDMA,-42,Verizon Wireless,Verizon Wireless,81501,39.08,-108.55,"(39.08, -108.55)",1015
,,-42,Verizon Wireless,Verizon Wireless,80246,39.700000000000003,-104.94,"(39.7, -104.94)",1444
CDMA1xRTT,,-42,Verizon Wireless,Verizon Wireless,80109,39.4,-104.86,"(39.4, -104.86)",3133
CDMA1xEVDORevA,,-42,Verizon Wireless,Verizon Wireless,80221,39.82,-104.99,"(39.82, -104.99)",82
LTE,CDMA,-42,Verizon Wireless,Verizon Wireless,80239,39.770000000000003,-104.84,"(39.77, -104.84)",1444
CDMA1xEVDORevA,CDMA,-42,Verizon Wireless,Verizon Wireless,81501,39.07,-108.56,"(39.07, -108.56)",1015
CDMA1xRTT,,-42,Verizon Wireless,Verizon Wireless,80229,39.840000000000003,-104.98,"(39.84, -104.98)",82
CDMA1xEVDORevA,,-42,Verizon Wireless,Verizon Wireless,80216,39.799999999999997,-104.98,"(39.8, -104.98)",82
CDMA1xRTT,,-42,Verizon Wireless,Verizon Wireless,80022,39.840000000000003,-104.92,"(39.84, -104.92)",82
CDMA1xRTT,,-42,Verizon Wireless,Verizon Wireless,80504,40.200000000000003,-105.04,"(40.2, -105.04)",1072
,,-42,AT&T Wireless,AT&T Wireless,80203,39.74,-104.97,"(39.74, -104.97)",1444
CDMA1xEVDORevA,,-42,Verizon Wireless,Verizon Wireless,81425,38.590000000000003,-107.97,"(38.59, -107.97)",32
3G,,-42,Verizon Wireless,Verizon Wireless,80220,39.729999999999997,-104.9,"(39.73, -104.9)",1444
CDMA1xEVDORevA,,-42,Verizon Wireless,Verizon Wireless,80863,38.979999999999997,-105.06,"(38.98, -105.06)",1071
CDMA1xEVDORevA,,-42,Verizon Wireless,Verizon Wireless,81089,37.58,-104.88,"(37.58, -104.88)",1006
CDMA1xEVDORevA,,-42,Verizon Wireless,Verizon Wireless,80446,40.090000000000003,-105.89,"(40.09, -105.89)",1450
CDMA1xEVDORevA,CDMA,-42,Verizon Wireless,Verizon Wireless,81505,39.1,-108.63,"(39.1, -108.63)",1015
CDMA1xEVDORevA,,-42,Verizon Wireless,Verizon Wireless,80112,39.57,-104.87,"(39.57, -104.87)",1395
CDMA - eHRPD,CDMA,-42,Verizon Wireless,Verizon Wireless,80304,40.020000000000003,-105.27,"(40.02, -105.27)",85
3G,CDMA,-42,Verizon Wireless,Verizon Wireless,80224,39.69,-104.91,"(39.69, -104.91)",1444
CDMA1xEVDORevA,,-42,Verizon Wireless,Verizon Wireless,80701,40.24,-103.93,"(40.24, -103.93)",1059
CDMA - eHRPD,CDMA,-42,Verizon Wireless,Verizon Wireless,80304,40.020000000000003,-105.27,"(40.02, -105.27)",85
CDMA1xEVDORevA,,-42,Verizon Wireless,Verizon Wireless,80908,38.979999999999997,-104.76,"(38.98, -104.76)",1447
CDMA1xEVDORevA,,-42,Verizon Wireless,Verizon Wireless,80814,38.96,-105.2,"(38.96, -105.2)",1071
CDMA1xEVDORevA,,-42,Verizon Wireless,Verizon Wireless,80814,38.96,-105.2,"(38.96, -105.2)",1071
CDMA1xEVDORevA,,-42,Verizon Wireless,Verizon Wireless,80701,40.25,-103.87,"(40.25, -103.87)",1059
,,-42,AT&T Wireless,AT&T Wireless,80216,39.79,-104.98,"(39.79, -104.98)",1444
CDMA1xEVDORevA,,-42,Verizon Wireless,Verizon Wireless,80904,38.840000000000003,-104.86,"(38.84, -104.86)",1447
CDMA1xEVDORevA,,-42,Verizon Wireless,Verizon Wireless,80478,39.99,-105.89,"(39.99, -105.89)",1450
CDMA1xEVDORevA,,-42,Verizon Wireless,Verizon Wireless,80904,38.840000000000003,-104.86,"(38.84, -104.86)",1447
CDMA - eHRPD,CDMA,-43,Sprint,Sprint,80215,39.76,-105.11,"(39.76, -105.11)",1008
LTE,CDMA,-43,Verizon Wireless,Verizon Wireless,80109,39.4,-104.88,"(39.4, -104.88)",3133
CDMA - eHRPD,CDMA,-43,Sprint,Sprint,80211,39.76,-105.01,"(39.76, -105.01)",1444
CDMA - eHRPD,CDMA,-43,Sprint,Sprint,80211,39.76,-105.02,"(39.76, -105.02)",1444
CDMA - eHRPD,CDMA,-43,Sprint,Sprint,80211,39.76,-105,"(39.76, -105.0)",1444
CDMA - eHRPD,CDMA,-43,Sprint,Sprint,80211,39.76,-105.02,"(39.76, -105.02)",1444
CDMA - eHRPD,CDMA,-43,Sprint,Sprint,80211,39.76,-105,"(39.76, -105.0)",1444
CDMA - eHRPD,CDMA,-43,Sprint,Sprint,80211,39.76,-105.03,"(39.76, -105.03)",1444
CDMA1xEVDORevA,,-43,Verizon Wireless,Verizon Wireless,80701,40.25,-103.83,"(40.25, -103.83)",1059
CDMA - eHRPD,CDMA,-43,Sprint,Sprint,80033,39.76,-105.08,"(39.76, -105.08)",1008
CDMA - eHRPD,CDMA,-43,Sprint,Sprint,80033,39.76,-105.08,"(39.76, -105.08)",1008
CDMA - eHRPD,CDMA,-43,Sprint,Sprint,80033,39.76,-105.1,"(39.76, -105.1)",1008
CDMA - eHRPD,CDMA,-43,Sprint,Sprint,80033,39.76,-105.08,"(39.76, -105.08)",1008
CDMA - eHRPD,CDMA,-43,Sprint,Sprint,80211,39.76,-105.01,"(39.76, -105.01)",1444
CDMA - eHRPD,CDMA,-43,Sprint,Sprint,80304,40.020000000000003,-105.27,"(40.02, -105.27)",85
CDMA1xEVDORevA,,-43,Verizon Wireless,Verizon Wireless,80701,40.25,-103.87,"(40.25, -103.87)",1059
CDMA - eHRPD,CDMA,-43,Sprint,Sprint,80033,39.75,-105.08,"(39.75, -105.08)",1008
CDMA - eHRPD,CDMA,-43,Sprint,Sprint,80033,39.76,-105.07,"(39.76, -105.07)",1008
CDMA - eHRPD,CDMA,-43,Sprint,Sprint,80033,39.76,-105.09,"(39.76, -105.09)",1008
CDMA - eHRPD,CDMA,-43,Sprint,Sprint,80033,39.76,-105.08,"(39.76, -105.08)",1008
CDMA1xEVDORevA,,-43,Verizon Wireless,Verizon Wireless,80701,40.24,-103.79,"(40.24, -103.79)",1059
HSDPADLHSUPAUL,UMTS,-43,AT&T Wireless,AT&T Wireless,81401,38.47,-107.88,"(38.47, -107.88)",32
CDMA - eHRPD,CDMA,-43,Sprint,Sprint,80033,39.76,-105.09,"(39.76, -105.09)",1008
CDMA - eHRPD,CDMA,-43,Sprint,Sprint,80033,39.76,-105.09,"(39.76, -105.09)",1008
CDMA - eHRPD,CDMA,-43,Sprint,Sprint,80033,39.76,-105.1,"(39.76, -105.1)",1008
CDMA - eHRPD,CDMA,-43,Sprint,Sprint,80033,39.76,-105.13,"(39.76, -105.13)",1008
CDMA - eHRPD,CDMA,-43,Sprint,Sprint,80033,39.76,-105.11,"(39.76, -105.11)",1008
CDMA - eHRPD,CDMA,-43,Sprint,Sprint,80033,39.76,-105.1,"(39.76, -105.1)",1008
CDMA - eHRPD,CDMA,-43,Sprint,Sprint,80033,39.76,-105.12,"(39.76, -105.12)",1008
CDMA - eHRPD,CDMA,-43,Sprint,Sprint,80033,39.76,-105.11,"(39.76, -105.11)",1008
CDMA - eHRPD,CDMA,-43,Sprint,Sprint,80033,39.76,-105.09,"(39.76, -105.09)",1008
CDMA1xEVDORevA,,-43,Verizon Wireless,Verizon Wireless,80459,40.049999999999997,-106.38,"(40.05, -106.38)",1450
CDMA - eHRPD,CDMA,-43,Sprint,Sprint,80033,39.75,-105.08,"(39.75, -105.08)",1008
CDMA - eHRPD,CDMA,-43,Sprint,Sprint,80033,39.75,-105.08,"(39.75, -105.08)",1008
CDMA - eHRPD,CDMA,-43,Sprint,Sprint,80033,39.76,-105.09,"(39.76, -105.09)",1008
CDMA - eHRPD,CDMA,-43,Sprint,Sprint,80211,39.76,-105.02,"(39.76, -105.02)",1444
CDMA - eHRPD,CDMA,-43,Sprint,Sprint,80033,39.75,-105.08,"(39.75, -105.08)",1008
CDMA - eHRPD,CDMA,-43,Sprint,Sprint,80033,39.76,-105.09,"(39.76, -105.09)",1008
CDMA - eHRPD,CDMA,-43,Sprint,Sprint,80033,39.76,-105.11,"(39.76, -105.11)",1008
CDMA - eHRPD,CDMA,-43,Sprint,Sprint,80033,39.76,-105.12,"(39.76, -105.12)",1008
CDMA - eHRPD,CDMA,-43,Sprint,Sprint,80033,39.75,-105.08,"(39.75, -105.08)",1008
CDMA - eHRPD,CDMA,-43,Sprint,Sprint,80033,39.76,-105.1,"(39.76, -105.1)",1008
CDMA - eHRPD,CDMA,-43,Sprint,Sprint,80033,39.76,-105.1,"(39.76, -105.1)",1008
CDMA - eHRPD,CDMA,-43,Sprint,Sprint,80033,39.75,-105.08,"(39.75, -105.08)",1008
CDMA - eHRPD,CDMA,-43,Sprint,Sprint,80033,39.76,-105.1,"(39.76, -105.1)",1008
CDMA - eHRPD,CDMA,-43,Sprint,Sprint,80033,39.76,-105.08,"(39.76, -105.08)",1008
CDMA - eHRPD,CDMA,-43,Sprint,Sprint,80033,39.76,-105.1,"(39.76, -105.1)",1008
CDMA - eHRPD,CDMA,-43,Sprint,Sprint,80033,39.76,-105.1,"(39.76, -105.1)",1008
CDMA - eHRPD,CDMA,-43,Sprint,Sprint,80033,39.76,-105.08,"(39.76, -105.08)",1008
CDMA - eHRPD,CDMA,-43,Sprint,Sprint,80033,39.770000000000003,-105.09,"(39.77, -105.09)",1008
CDMA - eHRPD,CDMA,-43,Sprint,Sprint,80215,39.76,-105.11,"(39.76, -105.11)",1008
CDMA - eHRPD,CDMA,-43,Sprint,Sprint,80211,39.76,-105.02,"(39.76, -105.02)",1444
CDMA - eHRPD,CDMA,-43,Sprint,Sprint,80033,39.76,-105.09,"(39.76, -105.09)",1008
CDMA - eHRPD,CDMA,-43,Sprint,Sprint,80033,39.76,-105.08,"(39.76, -105.08)",1008
CDMA - eHRPD,CDMA,-43,Sprint,Sprint,80215,39.76,-105.13,"(39.76, -105.13)",1008
LTE,CDMA,-43,Verizon Wireless,Verizon Wireless,80209,39.700000000000003,-104.98,"(39.7, -104.98)",1444
CDMA1xEVDORevA,,-43,Verizon Wireless,Verizon Wireless,80233,39.909999999999997,-104.92,"(39.91, -104.92)",82
CDMA1xRTT,,-43,Verizon Wireless,Verizon Wireless,80204,39.72,-105.04,"(39.72, -105.04)",1444
CDMA - eHRPD,CDMA,-43,Sprint,Sprint,80211,39.76,-105.01,"(39.76, -105.01)",1444
CDMA - eHRPD,CDMA,-43,Sprint,Sprint,80211,39.770000000000003,-105.03,"(39.77, -105.03)",1444
CDMA - eHRPD,CDMA,-43,Sprint,Sprint,80033,39.76,-105.13,"(39.76, -105.13)",1008
CDMA - eHRPD,CDMA,-43,Sprint,Sprint,80211,39.770000000000003,-105.03,"(39.77, -105.03)",1444
CDMA - eHRPD,CDMA,-43,Sprint,Sprint,80211,39.76,-105,"(39.76, -105.0)",1444
CDMA - eHRPD,CDMA,-43,Sprint,Sprint,80033,39.76,-105.1,"(39.76, -105.1)",1008
CDMA - eHRPD,CDMA,-43,Sprint,Sprint,80211,39.76,-105,"(39.76, -105.0)",1444
CDMA1xEVDORevA,,-43,Verizon Wireless,Verizon Wireless,81050,37.97,-103.53,"(37.97, -103.53)",1060
CDMA1xEVDORevA,,-43,Verizon Wireless,Verizon Wireless,80603,39.909999999999997,-104.81,"(39.91, -104.81)",82
CDMA1xEVDORevA,,-43,Verizon Wireless,Verizon Wireless,80603,39.9,-104.82,"(39.9, -104.82)",82
CDMA1xEVDORevA,,-43,Verizon Wireless,Verizon Wireless,80451,40.049999999999997,-106.13,"(40.05, -106.13)",1450
CDMA1xEVDORevA,,-43,Verizon Wireless,Verizon Wireless,80401,39.729999999999997,-105.16,"(39.73, -105.16)",1008
CDMA - eHRPD,CDMA,-43,Sprint,Sprint,80033,39.76,-105.08,"(39.76, -105.08)",1008
CDMA - eHRPD,CDMA,-43,Sprint,Sprint,80033,39.76,-105.12,"(39.76, -105.12)",1008
CDMA1xEVDORevA,CDMA,-43,Verizon Wireless,Verizon Wireless,80104,39.369999999999997,-104.82,"(39.37, -104.82)",3133
LTE,CDMA,-43,Verizon Wireless,Verizon Wireless,80206,39.71,-104.95,"(39.71, -104.95)",1444
CDMA - eHRPD,CDMA,-43,Sprint,Sprint,80033,39.76,-105.08,"(39.76, -105.08)",1008
CDMA - eHRPD,CDMA,-43,Sprint,Sprint,80033,39.76,-105.12,"(39.76, -105.12)",1008
CDMA - eHRPD,CDMA,-43,Sprint,Sprint,80033,39.76,-105.12,"(39.76, -105.12)",1008
CDMA1xRTT,,-43,Verizon Wireless,Verizon Wireless,80229,39.83,-104.98,"(39.83, -104.98)",82
CDMA - eHRPD,CDMA,-43,Sprint,Sprint,80033,39.76,-105.09,"(39.76, -105.09)",1008
CDMA - eHRPD,CDMA,-43,Sprint,Sprint,80033,39.76,-105.1,"(39.76, -105.1)",1008
CDMA - eHRPD,CDMA,-43,Sprint,Sprint,80401,39.76,-105.14,"(39.76, -105.14)",1008
CDMA - eHRPD,CDMA,-43,Sprint,Sprint,80033,39.76,-105.09,"(39.76, -105.09)",1008
CDMA - eHRPD,CDMA,-43,Sprint,Sprint,80033,39.76,-105.09,"(39.76, -105.09)",1008
CDMA - eHRPD,CDMA,-43,Sprint,Sprint,80033,39.76,-105.1,"(39.76, -105.1)",1008
Unknown,CDMA,-43,Sprint,Sprint,80033,39.76,-105.09,"(39.76, -105.09)",1008
CDMA - eHRPD,CDMA,-43,Sprint,Sprint,80033,39.76,-105.07,"(39.76, -105.07)",1008
CDMA - eHRPD,CDMA,-43,Sprint,Sprint,80033,39.76,-105.12,"(39.76, -105.12)",1008
CDMA - eHRPD,CDMA,-43,Sprint,Sprint,80033,39.76,-105.09,"(39.76, -105.09)",1008
CDMA - eHRPD,CDMA,-43,Sprint,Sprint,80033,39.76,-105.08,"(39.76, -105.08)",1008
CDMA1xEVDORevA,CDMA,-43,Verizon Wireless,Verizon Wireless,80104,39.4,-104.85,"(39.4, -104.85)",3133
CDMA1xEVDORevA,,-43,Verizon Wireless,Verizon Wireless,80221,39.81,-105.02,"(39.81, -105.02)",82
CDMA - eHRPD,CDMA,-43,Sprint,Sprint,80033,39.76,-105.09,"(39.76, -105.09)",1008
CDMA - eHRPD,CDMA,-43,Sprint,Sprint,80033,39.770000000000003,-105.09,"(39.77, -105.09)",1008
CDMA - eHRPD,CDMA,-43,Sprint,Sprint,80033,39.76,-105.1,"(39.76, -105.1)",1008
Unknown,CDMA,-43,Sprint,Sprint,80033,39.76,-105.09,"(39.76, -105.09)",1008
CDMA - eHRPD,CDMA,-43,Sprint,Sprint,80033,39.76,-105.11,"(39.76, -105.11)",1008
CDMA - eHRPD,CDMA,-43,Sprint,Sprint,80033,39.76,-105.12,"(39.76, -105.12)",1008
CDMA - eHRPD,CDMA,-43,Sprint,Sprint,80033,39.76,-105.14,"(39.76, -105.14)",1008
CDMA - eHRPD,CDMA,-43,Sprint,Sprint,80401,39.76,-105.14,"(39.76, -105.14)",1008
CDMA - eHRPD,CDMA,-43,Sprint,Sprint,80033,39.770000000000003,-105.09,"(39.77, -105.09)",1008
CDMA - eHRPD,CDMA,-43,Sprint,Sprint,80033,39.76,-105.13,"(39.76, -105.13)",1008
CDMA - eHRPD,CDMA,-43,Sprint,Sprint,80033,39.76,-105.11,"(39.76, -105.11)",1008
CDMA - eHRPD,CDMA,-43,Sprint,Sprint,80033,39.76,-105.13,"(39.76, -105.13)",1008
CDMA - eHRPD,CDMA,-43,Sprint,Sprint,80033,39.76,-105.08,"(39.76, -105.08)",1008
CDMA - eHRPD,CDMA,-43,Sprint,Sprint,80033,39.75,-105.08,"(39.75, -105.08)",1008
CDMA - eHRPD,CDMA,-43,Sprint,Sprint,80033,39.76,-105.08,"(39.76, -105.08)",1008
CDMA - eHRPD,CDMA,-43,Sprint,Sprint,80033,39.76,-105.07,"(39.76, -105.07)",1008
CDMA - eHRPD,CDMA,-43,Sprint,Sprint,80033,39.76,-105.07,"(39.76, -105.07)",1008
CDMA - eHRPD,CDMA,-43,Sprint,Sprint,80212,39.76,-105.04,"(39.76, -105.04)",1444
CDMA - eHRPD,CDMA,-43,Sprint,Sprint,80033,39.76,-105.08,"(39.76, -105.08)",1008
CDMA - eHRPD,CDMA,-43,Sprint,Sprint,80033,39.76,-105.1,"(39.76, -105.1)",1008
CDMA1xEVDORevA,,-43,Verizon Wireless,Verizon Wireless,81004,37.99,-104.76,"(37.99, -104.76)",34
CDMA1xEVDORevA,CDMA,-43,Verizon Wireless,Verizon Wireless,81506,39.090000000000003,-108.54,"(39.09, -108.54)",1015
CDMA - eHRPD,CDMA,-43,Sprint,Sprint,80033,39.76,-105.1,"(39.76, -105.1)",1008
CDMA - eHRPD,CDMA,-43,Sprint,Sprint,80033,39.76,-105.08,"(39.76, -105.08)",1008
CDMA - eHRPD,CDMA,-43,Sprint,Sprint,80212,39.76,-105.04,"(39.76, -105.04)",1444
CDMA - eHRPD,CDMA,-43,Sprint,Sprint,80033,39.76,-105.1,"(39.76, -105.1)",1008
CDMA1xEVDORevA,,-43,Verizon Wireless,Verizon Wireless,81050,37.979999999999997,-103.66,"(37.98, -103.66)",1060
CDMA - eHRPD,CDMA,-43,Sprint,Sprint,80033,39.76,-105.1,"(39.76, -105.1)",1008
CDMA - eHRPD,CDMA,-43,Sprint,Sprint,80205,39.75,-104.99,"(39.75, -104.99)",1444
CDMA - eHRPD,CDMA,-43,Sprint,Sprint,80205,39.75,-104.98,"(39.75, -104.98)",1444
CDMA - eHRPD,CDMA,-43,Sprint,Sprint,80205,39.75,-104.98,"(39.75, -104.98)",1444
CDMA - eHRPD,CDMA,-43,Sprint,Sprint,80033,39.76,-105.14,"(39.76, -105.14)",1008
CDMA - eHRPD,CDMA,-43,Sprint,Sprint,80216,39.76,-104.99,"(39.76, -104.99)",1444
CDMA1xEVDORevA,,-43,Verizon Wireless,Verizon Wireless,80019,39.74,-104.71,"(39.74, -104.71)",1395
CDMA - eHRPD,CDMA,-43,Sprint,Sprint,80033,39.76,-105.09,"(39.76, -105.09)",1008
CDMA - eHRPD,CDMA,-43,Sprint,Sprint,80033,39.76,-105.09,"(39.76, -105.09)",1008
CDMA1xRTT,,-43,Verizon Wireless,Verizon Wireless,80221,39.82,-104.98,"(39.82, -104.98)",82
LTE,CDMA,-43,Verizon Wireless,Verizon Wireless,80124,39.53,-104.86,"(39.53, -104.86)",3133
CDMA - eHRPD,CDMA,-43,Sprint,Sprint,80033,39.76,-105.09,"(39.76, -105.09)",1008
CDMA1xEVDORevA,,-43,Verizon Wireless,Verizon Wireless,80018,39.630000000000003,-104.72,"(39.63, -104.72)",1395
CDMA - eHRPD,CDMA,-43,Sprint,Sprint,80205,39.75,-104.99,"(39.75, -104.99)",1444
CDMA1xRTT,,-43,Verizon Wireless,Verizon Wireless,80221,39.799999999999997,-104.98,"(39.8, -104.98)",82
CDMA1xEVDORevA,,-43,Verizon Wireless,Verizon Wireless,81416,38.74,-108.07,"(38.74, -108.07)",1443
CDMA - eHRPD,CDMA,-43,Sprint,Sprint,80205,39.75,-104.98,"(39.75, -104.98)",1444
CDMA - eHRPD,CDMA,-43,Sprint,Sprint,80205,39.75,-104.99,"(39.75, -104.99)",1444
LTE,CDMA,-43,Verizon Wireless,Verizon Wireless,80112,39.57,-104.87,"(39.57, -104.87)",1395
CDMA1xRTT,,-43,Verizon Wireless,Verizon Wireless,80221,39.840000000000003,-104.99,"(39.84, -104.99)",82
CDMA - eHRPD,CDMA,-43,Sprint,Sprint,80216,39.76,-104.99,"(39.76, -104.99)",1444
CDMA1xEVDORevA,,-43,Verizon Wireless,Verizon Wireless,80019,39.79,-104.71,"(39.79, -104.71)",82
CDMA - eHRPD,CDMA,-43,Sprint,Sprint,80205,39.75,-104.98,"(39.75, -104.98)",1444
CDMA - eHRPD,CDMA,-43,Sprint,Sprint,80205,39.75,-104.98,"(39.75, -104.98)",1444
CDMA - eHRPD,CDMA,-43,Sprint,Sprint,80027,39.96,-105.18,"(39.96, -105.18)",85
CDMA1xEVDORevA,,-43,Verizon Wireless,Verizon Wireless,80018,39.72,-104.71,"(39.72, -104.71)",1395
CDMA - eHRPD,CDMA,-43,Sprint,Sprint,80205,39.75,-104.99,"(39.75, -104.99)",1444
CDMA1xEVDORevA,,-43,Verizon Wireless,Verizon Wireless,80446,40.03,-105.93,"(40.03, -105.93)",1450
CDMA - eHRPD,CDMA,-43,Sprint,Sprint,80202,39.76,-104.99,"(39.76, -104.99)",1444
CDMA1xEVDORevA,,-43,Verizon Wireless,Verizon Wireless,80109,39.4,-104.86,"(39.4, -104.86)",3133
CDMA1xEVDORevA,,-43,Verizon Wireless,Verizon Wireless,80204,39.72,-104.99,"(39.72, -104.99)",1444
CDMA1xEVDORevA,,-43,Verizon Wireless,Verizon Wireless,80809,38.909999999999997,-104.98,"(38.91, -104.98)",1447
CDMA1xEVDORevA,,-43,Verizon Wireless,Verizon Wireless,80863,38.979999999999997,-105.06,"(38.98, -105.06)",1071
CDMA1xEVDORevA,,-43,Verizon Wireless,Verizon Wireless,80640,39.86,-104.9,"(39.86, -104.9)",82
CDMA1xEVDORevA,,-43,Verizon Wireless,Verizon Wireless,81125,37.85,-106.14,"(37.85, -106.14)",1067
CDMA1xEVDORevA,,-43,Verizon Wireless,Verizon Wireless,80920,38.94,-104.8,"(38.94, -104.8)",1447
CDMA1xEVDORevA,,-43,Verizon Wireless,Verizon Wireless,80863,38.979999999999997,-105.06,"(38.98, -105.06)",1071
CDMA1xEVDORevA,,-43,Verizon Wireless,Verizon Wireless,81401,38.450000000000003,-107.86,"(38.45, -107.86)",32
CDMA1xEVDORevA,,-43,Verizon Wireless,Verizon Wireless,81120,37.06,-106.07,"(37.06, -106.07)",1440
CDMA1xEVDORevA,CDMA,-43,Verizon Wireless,Verizon Wireless,80108,39.4,-104.85,"(39.4, -104.85)",3133
CDMA1xEVDORevA,,-43,Verizon Wireless,Verizon Wireless,80640,39.83,-104.94,"(39.83, -104.94)",82
CDMA1xEVDORevA,,-43,Verizon Wireless,Verizon Wireless,80863,38.979999999999997,-105.04,"(38.98, -105.04)",1071
CDMA1xEVDORevA,,-43,Verizon Wireless,Verizon Wireless,80446,40.08,-105.94,"(40.08, -105.94)",1450
CDMA1xEVDORevA,,-43,Verizon Wireless,Verizon Wireless,81089,37.6,-104.83,"(37.6, -104.83)",1006
LTE,CDMA,-43,Verizon Wireless,Verizon Wireless,80214,39.72,-105.05,"(39.72, -105.05)",1444
CDMA1xEVDORevA,,-43,Verizon Wireless,Verizon Wireless,80863,38.979999999999997,-105.06,"(38.98, -105.06)",1071
LTE,CDMA,-43,Verizon Wireless,Verizon Wireless,80111,39.61,-104.89,"(39.61, -104.89)",1395
CDMA1xEVDORevA,CDMA,-43,Verizon Wireless,Verizon Wireless,80108,39.4,-104.85,"(39.4, -104.85)",3133
CDMA - eHRPD,CDMA,-43,Sprint,Sprint,80202,39.75,-104.98,"(39.75, -104.98)",1444
CDMA - eHRPD,CDMA,-44,Verizon Wireless,Verizon Wireless,80433,39.5,-105.32,"(39.5, -105.32)",1008
CDMA - eHRPD,CDMA,-44,Verizon Wireless,Verizon Wireless,80433,39.54,-105.27,"(39.54, -105.27)",1008
CDMA1xEVDORevA,,-44,Verizon Wireless,Verizon Wireless,80015,39.619999999999997,-104.74,"(39.62, -104.74)",1395
LTE,CDMA,-44,Verizon Wireless,Verizon Wireless,80033,39.78,-105.11,"(39.78, -105.11)",1008
CDMA1xEVDORevA,,-44,Verizon Wireless,Verizon Wireless,80015,39.619999999999997,-104.74,"(39.62, -104.74)",1395
LTE,CDMA,-44,Verizon Wireless,Verizon Wireless,80202,39.74,-104.99,"(39.74, -104.99)",1444
CDMA1xEVDORevA,,-44,Verizon Wireless,Verizon Wireless,80446,39.950000000000003,-105.81,"(39.95, -105.81)",1450
CDMA - eHRPD,CDMA,-44,Verizon Wireless,Verizon Wireless,80465,39.58,-105.22,"(39.58, -105.22)",1008
CDMA1xEVDORevA,,-44,Verizon Wireless,Verizon Wireless,80430,40.450000000000003,-106.44,"(40.45, -106.44)",1007
CDMA1xEVDORevA,,-44,Verizon Wireless,Verizon Wireless,80722,40.47,-103.28,"(40.47, -103.28)",1014
CDMA1xEVDORevA,,-44,Verizon Wireless,Verizon Wireless,80863,38.99,-105.04,"(38.99, -105.04)",1071
CDMA1xEVDORevA,,-44,Verizon Wireless,Verizon Wireless,81149,37.979999999999997,-106.14,"(37.98, -106.14)",1067
CDMA - EvDo rev. A,CDMA,-44,Sprint,Sprint,80612,40.869999999999997,-104.95,"(40.87, -104.95)",1012
LTE,CDMA,-44,Verizon Wireless,Verizon Wireless,80214,39.72,-105.08,"(39.72, -105.08)",1008
CDMA1xEVDORevA,,-44,Verizon Wireless,Verizon Wireless,81125,37.89,-106.14,"(37.89, -106.14)",1067
CDMA1xEVDORevA,,-44,Verizon Wireless,Verizon Wireless,81155,38.090000000000003,-106.07,"(38.09, -106.07)",1067
CDMA1xEVDORevA,,-44,Verizon Wireless,Verizon Wireless,80446,40.090000000000003,-105.89,"(40.09, -105.89)",1450
CDMA1xEVDORevA,,-44,Verizon Wireless,Verizon Wireless,80640,39.89,-104.86,"(39.89, -104.86)",82
CDMA1xEVDORevA,,-44,Verizon Wireless,Verizon Wireless,81155,38.090000000000003,-106.06,"(38.09, -106.06)",1067
CDMA1xEVDORevA,,-44,Verizon Wireless,Verizon Wireless,81155,38.090000000000003,-106.07,"(38.09, -106.07)",1067
CDMA1xEVDORevA,,-44,Verizon Wireless,Verizon Wireless,81149,37.979999999999997,-106.14,"(37.98, -106.14)",1067
CDMA1xEVDORevA,,-44,Verizon Wireless,Verizon Wireless,80640,39.85,-104.93,"(39.85, -104.93)",82
CDMA1xEVDORevA,,-44,Verizon Wireless,Verizon Wireless,81125,37.85,-106.14,"(37.85, -106.14)",1067
CDMA - eHRPD,CDMA,-44,Verizon Wireless,Verizon Wireless,80465,39.619999999999997,-105.2,"(39.62, -105.2)",1008
CDMA1xEVDORevA,,-44,Verizon Wireless,Verizon Wireless,80446,40.090000000000003,-105.95,"(40.09, -105.95)",1450
CDMA1xRTT,,-44,Verizon Wireless,Verizon Wireless,80022,39.840000000000003,-104.92,"(39.84, -104.92)",82
CDMA1xEVDORevA,,-44,Verizon Wireless,Verizon Wireless,81155,38.090000000000003,-106.07,"(38.09, -106.07)",1067
CDMA - EvDo rev. A,CDMA,-44,Verizon Wireless,Verizon Wireless,80238,39.78,-104.87,"(39.78, -104.87)",1444
CDMA1xEVDORevA,,-44,Verizon Wireless,Verizon Wireless,81418,38.86,-107.94,"(38.86, -107.94)",1443
CDMA1xEVDORevA,,-44,Verizon Wireless,Verizon Wireless,80204,39.72,-104.99,"(39.72, -104.99)",1444
CDMA1xEVDORevA,,-44,Verizon Wireless,Verizon Wireless,80640,39.85,-104.91,"(39.85, -104.91)",82
CDMA1xRTT,,-44,Verizon Wireless,Verizon Wireless,80022,39.840000000000003,-104.92,"(39.84, -104.92)",82
CDMA1xEVDORevA,,-44,Verizon Wireless,Verizon Wireless,80430,40.450000000000003,-106.44,"(40.45, -106.44)",1007
CDMA - EvDo rev. A,CDMA,-44,Sprint,Sprint,80909,38.840000000000003,-104.77,"(38.84, -104.77)",1447
CDMA1xEVDORevA,,-44,Verizon Wireless,Verizon Wireless,81149,37.979999999999997,-106.16,"(37.98, -106.16)",1067
CDMA1xEVDORevA,,-44,Verizon Wireless,Verizon Wireless,80221,39.81,-105.02,"(39.81, -105.02)",82
CDMA1xEVDORevA,CDMA,-44,Verizon Wireless,Verizon Wireless,80104,39.4,-104.85,"(39.4, -104.85)",3133
,,-44,Verizon Wireless,Verizon Wireless,80209,39.700000000000003,-104.94,"(39.7, -104.94)",1444
,,-44,Verizon Wireless,Verizon Wireless,80202,39.75,-104.99,"(39.75, -104.99)",1444
,,-44,Verizon Wireless,Verizon Wireless,80246,39.700000000000003,-104.94,"(39.7, -104.94)",1444
,,-44,Verizon Wireless,Verizon Wireless,80246,39.700000000000003,-104.93,"(39.7, -104.93)",1444
,,-44,Verizon Wireless,Verizon Wireless,80209,39.700000000000003,-104.96,"(39.7, -104.96)",1444
LTE,CDMA,-44,Verizon Wireless,Verizon Wireless,80612,40.76,-104.99,"(40.76, -104.99)",1012
CDMA1xEVDORevA,,-44,Verizon Wireless,Verizon Wireless,80601,39.94,-104.79,"(39.94, -104.79)",82
CDMA - EvDo rev. A,CDMA,-44,Verizon Wireless,Verizon Wireless,80907,38.86,-104.83,"(38.86, -104.83)",1447
CDMA1xRTT,,-44,Verizon Wireless,Verizon Wireless,81401,38.479999999999997,-107.86,"(38.48, -107.86)",32
CDMA1xEVDORevA,,-44,Verizon Wireless,Verizon Wireless,80022,39.85,-104.91,"(39.85, -104.91)",82
CDMA1xEVDORevA,,-44,Verizon Wireless,Verizon Wireless,81004,38.17,-104.63,"(38.17, -104.63)",34
NO DATA,CDMA,-44,Verizon Wireless,Verizon Wireless,80209,39.700000000000003,-104.95,"(39.7, -104.95)",1444
CDMA1xEVDORevA,,-44,Verizon Wireless,Verizon Wireless,81050,37.979999999999997,-103.54,"(37.98, -103.54)",1060
CDMA1xEVDORevA,,-44,Verizon Wireless,Verizon Wireless,81050,37.979999999999997,-103.54,"(37.98, -103.54)",1060
CDMA1xRTT,,-44,Verizon Wireless,Verizon Wireless,80525,40.520000000000003,-105.06,"(40.52, -105.06)",1012
LTE,CDMA,-44,Verizon Wireless,Verizon Wireless,80210,39.68,-104.95,"(39.68, -104.95)",1444
CDMA1xEVDORevA,,-44,Verizon Wireless,Verizon Wireless,81067,38.04,-103.7,"(38.04, -103.7)",1060
,,-44,Verizon Wireless,Verizon Wireless,80210,39.68,-104.96,"(39.68, -104.96)",1444
,,-44,Verizon Wireless,Verizon Wireless,80209,39.700000000000003,-104.96,"(39.7, -104.96)",1444
CDMA1xEVDORevA,CDMA,-44,Verizon Wireless,Verizon Wireless,80104,39.4,-104.85,"(39.4, -104.85)",3133
CDMA1xEVDORevA,,-44,Verizon Wireless,Verizon Wireless,80102,39.729999999999997,-104.52,"(39.73, -104.52)",1395
Unknown,CDMA,-44,Verizon Wireless,Verizon Wireless,80108,39.46,-104.87,"(39.46, -104.87)",3133
3G,CDMA,-44,Verizon Wireless,Verizon Wireless,80224,39.71,-104.9,"(39.71, -104.9)",1444
3G,CDMA,-44,Verizon Wireless,Verizon Wireless,80246,39.700000000000003,-104.94,"(39.7, -104.94)",1444
CDMA1xEVDORevA,,-44,Verizon Wireless,Verizon Wireless,80459,40.43,-106.47,"(40.43, -106.47)",1007
LTE,CDMA,-44,Verizon Wireless,Verizon Wireless,80528,40.5,-104.99,"(40.5, -104.99)",1012
CDMA1xEVDORevA,,-44,Verizon Wireless,Verizon Wireless,80701,40.25,-103.84,"(40.25, -103.84)",1059
3G,CDMA,-44,Verizon Wireless,Verizon Wireless,80246,39.700000000000003,-104.94,"(39.7, -104.94)",1444
CDMA1xEVDORevA,,-44,Verizon Wireless,Verizon Wireless,80814,38.950000000000003,-105.12,"(38.95, -105.12)",1071
CDMA1xRTT,,-44,Verizon Wireless,Verizon Wireless,80016,39.57,-104.75,"(39.57, -104.75)",1395
CDMA - eHRPD,CDMA,-44,Verizon Wireless,Verizon Wireless,80470,39.46,-105.38,"(39.46, -105.38)",1008
CDMA1xRTT,,-44,Verizon Wireless,Verizon Wireless,80016,39.57,-104.73,"(39.57, -104.73)",1395
CDMA1xEVDORevA,,-44,Verizon Wireless,Verizon Wireless,80459,40.43,-106.48,"(40.43, -106.48)",1007
CDMA1xEVDORevA,,-44,Verizon Wireless,Verizon Wireless,80814,38.94,-105.15,"(38.94, -105.15)",1071
LTE,CDMA,-44,Verizon Wireless,Verizon Wireless,80422,39.76,-105.44,"(39.76, -105.44)",89
CDMA1xRTT,,-44,Verizon Wireless,Verizon Wireless,80216,39.799999999999997,-104.98,"(39.8, -104.98)",82
Unknown,CDMA,-44,Verizon Wireless,Verizon Wireless,80109,39.4,-104.87,"(39.4, -104.87)",3133
3G,,-44,Verizon Wireless,Verizon Wireless,80224,39.71,-104.9,"(39.71, -104.9)",1444
,,-44,AT&T Wireless,AT&T Wireless,80202,39.74,-104.98,"(39.74, -104.98)",1444
CDMA1xEVDORevA,,-44,Verizon Wireless,Verizon Wireless,80446,40.08,-105.93,"(40.08, -105.93)",1450
,,-44,Verizon Wireless,Verizon Wireless,80231,39.67,-104.89,"(39.67, -104.89)",1444
CDMA - EvDo rev. A,CDMA,-44,Verizon Wireless,Verizon Wireless,80301,40.01,-105.23,"(40.01, -105.23)",85
CDMA - EvDo rev. A,CDMA,-44,Verizon Wireless,Verizon Wireless,80020,39.909999999999997,-105.06,"(39.91, -105.06)",86
CDMA1xRTT,,-44,Verizon Wireless,Verizon Wireless,80015,39.61,-104.74,"(39.61, -104.74)",1395
CDMA1xEVDORevA,,-44,Verizon Wireless,Verizon Wireless,80018,39.630000000000003,-104.72,"(39.63, -104.72)",1395
Unknown,CDMA,-44,Verizon Wireless,Verizon Wireless,80124,39.520000000000003,-104.86,"(39.52, -104.86)",3133
CDMA - EvDo rev. A,CDMA,-44,Verizon Wireless,Verizon Wireless,80020,39.93,-105.08,"(39.93, -105.08)",86
CDMA1xEVDORevA,,-44,Verizon Wireless,Verizon Wireless,80452,39.82,-105.75,"(39.82, -105.75)",1450
CDMA1xEVDORevA,,-44,Verizon Wireless,Verizon Wireless,80018,39.67,-104.72,"(39.67, -104.72)",1395
CDMA - EvDo rev. A,CDMA,-44,Verizon Wireless,Verizon Wireless,80020,39.909999999999997,-105.06,"(39.91, -105.06)",86
CDMA - EvDo rev. A,CDMA,-44,Verizon Wireless,Verizon Wireless,80020,39.909999999999997,-105.06,"(39.91, -105.06)",86
CDMA - EvDo rev. A,CDMA,-44,Verizon Wireless,Verizon Wireless,80020,39.909999999999997,-105.06,"(39.91, -105.06)",86
CDMA - EvDo rev. A,CDMA,-44,Verizon Wireless,Verizon Wireless,80020,39.93,-105.08,"(39.93, -105.08)",86
CDMA - eHRPD,CDMA,-44,Verizon Wireless,Verizon Wireless,80007,39.86,-105.22,"(39.86, -105.22)",1008
CDMA - EvDo rev. A,CDMA,-44,Verizon Wireless,Verizon Wireless,80020,39.909999999999997,-105.06,"(39.91, -105.06)",86
CDMA - EvDo rev. A,CDMA,-44,Verizon Wireless,Verizon Wireless,80020,39.93,-105.08,"(39.93, -105.08)",86
3G,CDMA,-44,Verizon Wireless,Verizon Wireless,80206,39.72,-104.94,"(39.72, -104.94)",1444
,,-44,AT&T Wireless,AT&T Wireless,80204,39.74,-104.99,"(39.74, -104.99)",1444
CDMA1xRTT,,-45,Verizon Wireless,Verizon Wireless,80221,39.81,-105,"(39.81, -105.0)",82
CDMA1xEVDORevA,,-45,Verizon Wireless,Verizon Wireless,81003,38.28,-104.66,"(38.28, -104.66)",34
CDMA1xRTT,,-45,Verizon Wireless,Verizon Wireless,80112,39.549999999999997,-104.85,"(39.55, -104.85)",3133
,,-45,AT&T Wireless,AT&T Wireless,80234,39.880000000000003,-104.98,"(39.88, -104.98)",82
,,-45,Verizon Wireless,Verizon Wireless,80012,39.68,-104.82,"(39.68, -104.82)",1395
LTE,CDMA,-45,Verizon Wireless,Verizon Wireless,80305,39.979999999999997,-105.24,"(39.98, -105.24)",85
CDMA - eHRPD,CDMA,-45,Sprint,Sprint,80301,40.020000000000003,-105.25,"(40.02, -105.25)",85
CDMA1xEVDORevA,,-45,Verizon Wireless,Verizon Wireless,81416,38.74,-108.05,"(38.74, -108.05)",1443
CDMA1xRTT,,-45,Verizon Wireless,Verizon Wireless,80221,39.82,-105.03,"(39.82, -105.03)",82
LTE,CDMA,-45,Verizon Wireless,Verizon Wireless,80124,39.549999999999997,-104.87,"(39.55, -104.87)",3133
3G,,-45,Verizon Wireless,Verizon Wireless,80230,39.71,-104.9,"(39.71, -104.9)",1444
CDMA1xEVDORevA,,-45,Verizon Wireless,Verizon Wireless,80018,39.69,-104.72,"(39.69, -104.72)",1395
3G,CDMA,-45,Verizon Wireless,Verizon Wireless,80020,39.950000000000003,-105.09,"(39.95, -105.09)",85
CDMA1xEVDORevA,,-45,Verizon Wireless,Verizon Wireless,80221,39.83,-104.98,"(39.83, -104.98)",82
CDMA1xEVDORevA,CDMA,-45,Verizon Wireless,Verizon Wireless,80104,39.369999999999997,-104.82,"(39.37, -104.82)",3133
CDMA1xEVDORevA,CDMA,-45,Verizon Wireless,Verizon Wireless,81501,39.08,-108.55,"(39.08, -108.55)",1015
CDMA1xEVDORevA,,-45,Verizon Wireless,Verizon Wireless,80022,39.880000000000003,-104.76,"(39.88, -104.76)",82
CDMA1xEVDORevA,,-45,Verizon Wireless,Verizon Wireless,80451,40.06,-106.13,"(40.06, -106.13)",1450
NO DATA,,-45,Verizon Wireless,Verizon Wireless,80262,39.71,-104.95,"(39.71, -104.95)",1444
,,-45,Verizon Wireless,Verizon Wireless,80209,39.700000000000003,-104.96,"(39.7, -104.96)",1444
LTE,CDMA,-45,Verizon Wireless,Verizon Wireless,80120,39.619999999999997,-105,"(39.62, -105.0)",1395
CDMA1xEVDORevA,CDMA,-45,Verizon Wireless,Verizon Wireless,81501,39.07,-108.55,"(39.07, -108.55)",1015
CDMA1xEVDORevA,CDMA,-45,Verizon Wireless,Verizon Wireless,81501,39.08,-108.55,"(39.08, -108.55)",1015
CDMA - EvDo rev. A,CDMA,-45,Sprint,Sprint,80903,38.83,-104.81,"(38.83, -104.81)",1447
CDMA - EvDo rev. A,CDMA,-45,Sprint,Sprint,80524,40.590000000000003,-104.99,"(40.59, -104.99)",1012
CDMA1xEVDORevA,,-45,Verizon Wireless,Verizon Wireless,80022,39.840000000000003,-104.92,"(39.84, -104.92)",82
CDMA1xEVDORevA,CDMA,-45,Verizon Wireless,Verizon Wireless,81501,39.08,-108.55,"(39.08, -108.55)",1015
CDMA - EvDo rev. A,CDMA,-45,Sprint,Sprint,80903,38.82,-104.81,"(38.82, -104.81)",1447
CDMA1xEVDORevA,,-45,Verizon Wireless,Verizon Wireless,80603,39.909999999999997,-104.79,"(39.91, -104.79)",82
CDMA1xEVDORevA,CDMA,-45,Verizon Wireless,Verizon Wireless,81501,39.07,-108.55,"(39.07, -108.55)",1015
CDMA1xRTT,,-45,Verizon Wireless,Verizon Wireless,80022,39.840000000000003,-104.92,"(39.84, -104.92)",82
CDMA - EvDo rev. A,CDMA,-45,Sprint,Sprint,80020,39.909999999999997,-105.06,"(39.91, -105.06)",86
CDMA1xEVDORevA,CDMA,-45,Verizon Wireless,Verizon Wireless,80104,39.4,-104.85,"(39.4, -104.85)",3133
CDMA1xEVDORevA,,-45,Verizon Wireless,Verizon Wireless,80022,39.880000000000003,-104.76,"(39.88, -104.76)",82
CDMA1xEVDORevA,CDMA,-45,Verizon Wireless,Verizon Wireless,80104,39.4,-104.85,"(39.4, -104.85)",3133
,,-45,AT&T Wireless,AT&T Wireless,80205,39.75,-104.98,"(39.75, -104.98)",1444
CDMA1xEVDORevA,,-45,Verizon Wireless,Verizon Wireless,80468,39.909999999999997,-105.78,"(39.91, -105.78)",1450
LTE,CDMA,-45,Verizon Wireless,Verizon Wireless,80302,40.01,-105.27,"(40.01, -105.27)",85
LTE,CDMA,-45,Verizon Wireless,Verizon Wireless,80202,39.729999999999997,-104.98,"(39.73, -104.98)",1444
CDMA1xEVDORevA,,-45,Verizon Wireless,Verizon Wireless,80216,39.79,-104.97,"(39.79, -104.97)",1444
CDMA1xEVDORevA,,-45,Verizon Wireless,Verizon Wireless,80229,39.81,-104.97,"(39.81, -104.97)",82
LTE,CDMA,-45,Verizon Wireless,Verizon Wireless,80309,40,-105.26,"(40.0, -105.26)",85
LTE,CDMA,-45,Verizon Wireless,Verizon Wireless,80302,40,-105.26,"(40.0, -105.26)",85
LTE,CDMA,-45,Verizon Wireless,Verizon Wireless,80303,40,-105.25,"(40.0, -105.25)",85
CDMA1xEVDORevA,,-45,Verizon Wireless,Verizon Wireless,80640,39.85,-104.91,"(39.85, -104.91)",82
CDMA1xEVDORevA,,-45,Verizon Wireless,Verizon Wireless,80809,38.92,-104.99,"(38.92, -104.99)",1447
CDMA1xEVDORevA,,-45,Verizon Wireless,Verizon Wireless,81052,38.1,-102.61,"(38.1, -102.61)",1064
CDMA1xEVDORevA,,-45,Verizon Wireless,Verizon Wireless,81125,37.9,-106.14,"(37.9, -106.14)",1067
CDMA1xEVDORevA,,-45,Verizon Wireless,Verizon Wireless,81149,37.979999999999997,-106.16,"(37.98, -106.16)",1067
CDMA1xEVDORevA,,-45,Verizon Wireless,Verizon Wireless,81125,37.78,-106.14,"(37.78, -106.14)",1067
CDMA1xEVDORevA,,-45,Verizon Wireless,Verizon Wireless,81149,37.979999999999997,-106.16,"(37.98, -106.16)",1067
CDMA1xEVDORevA,,-45,Verizon Wireless,Verizon Wireless,81125,37.78,-106.14,"(37.78, -106.14)",1067
CDMA1xEVDORevA,CDMA,-45,Verizon Wireless,Verizon Wireless,81501,39.06,-108.56,"(39.06, -108.56)",1015
CDMA1xEVDORevA,,-45,Verizon Wireless,Verizon Wireless,81125,37.81,-106.14,"(37.81, -106.14)",1067
CDMA1xEVDORevA,,-45,Verizon Wireless,Verizon Wireless,81149,37.979999999999997,-106.15,"(37.98, -106.15)",1067
CDMA1xEVDORevA,,-45,Verizon Wireless,Verizon Wireless,80809,38.92,-104.99,"(38.92, -104.99)",1447
CDMA1xEVDORevA,,-45,Verizon Wireless,Verizon Wireless,80446,40.090000000000003,-105.89,"(40.09, -105.89)",1450
CDMA1xEVDORevA,,-45,Verizon Wireless,Verizon Wireless,80643,40.159999999999997,-104.39,"(40.16, -104.39)",1072
CDMA1xEVDORevA,,-45,Verizon Wireless,Verizon Wireless,80652,40.17,-104.32,"(40.17, -104.32)",1072
CDMA1xEVDORevA,,-45,Verizon Wireless,Verizon Wireless,80446,40.01,-105.93,"(40.01, -105.93)",1450
CDMA1xEVDORevA,,-45,Verizon Wireless,Verizon Wireless,80446,40.090000000000003,-105.91,"(40.09, -105.91)",1450
CDMA1xEVDORevA,,-45,Verizon Wireless,Verizon Wireless,80446,40.090000000000003,-105.91,"(40.09, -105.91)",1450
CDMA1xEVDORevA,CDMA,-45,Verizon Wireless,Verizon Wireless,81505,39.1,-108.62,"(39.1, -108.62)",1015
CDMA1xEVDORevA,,-45,Verizon Wireless,Verizon Wireless,80216,39.81,-104.97,"(39.81, -104.97)",82
LTE,CDMA,-45,Verizon Wireless,Verizon Wireless,80202,39.74,-104.99,"(39.74, -104.99)",1444
CDMA1xEVDORevA,,-45,Verizon Wireless,Verizon Wireless,80015,39.619999999999997,-104.74,"(39.62, -104.74)",1395
CDMA1xEVDORevA,,-45,Verizon Wireless,Verizon Wireless,80102,39.729999999999997,-104.52,"(39.73, -104.52)",1395
CDMA - 1xRTT,CDMA,-45,Verizon Wireless,Verizon Wireless,80209,39.700000000000003,-104.98,"(39.7, -104.98)",1444
LTE,CDMA,-45,Verizon Wireless,Verizon Wireless,80209,39.71,-104.98,"(39.71, -104.98)",1444
CDMA1xEVDORevA,,-45,Verizon Wireless,Verizon Wireless,80216,39.799999999999997,-104.99,"(39.8, -104.99)",82
LTE,CDMA,-45,Verizon Wireless,Verizon Wireless,80216,39.78,-104.96,"(39.78, -104.96)",1444
CDMA1xEVDORevA,,-45,Verizon Wireless,Verizon Wireless,81413,38.869999999999997,-107.94,"(38.87, -107.94)",1443
CDMA1xEVDORevA,,-45,Verizon Wireless,Verizon Wireless,80814,38.89,-105.15,"(38.89, -105.15)",1071
LTE,CDMA,-45,Verizon Wireless,Verizon Wireless,80216,39.78,-104.93,"(39.78, -104.93)",1444
CDMA1xRTT,,-45,Verizon Wireless,Verizon Wireless,81089,37.6,-104.81,"(37.6, -104.81)",1006
CDMA1xEVDORevA,,-45,Verizon Wireless,Verizon Wireless,81144,37.659999999999997,-106.14,"(37.66, -106.14)",35
CDMA1xEVDORevA,,-45,Verizon Wireless,Verizon Wireless,81101,37.43,-105.88,"(37.43, -105.88)",83
CDMA1xEVDORevA,,-45,Verizon Wireless,Verizon Wireless,80814,38.96,-105.2,"(38.96, -105.2)",1071
CDMA1xEVDORevA,,-45,Verizon Wireless,Verizon Wireless,80814,38.89,-105.16,"(38.89, -105.16)",1071
CDMA1xRTT,,-45,Verizon Wireless,Verizon Wireless,80216,39.799999999999997,-104.98,"(39.8, -104.98)",82
CDMA1xEVDORevA,CDMA,-45,Verizon Wireless,Verizon Wireless,81504,39.07,-108.5,"(39.07, -108.5)",1015
CDMA1xEVDORevA,,-45,Verizon Wireless,Verizon Wireless,80701,40.25,-103.69,"(40.25, -103.69)",1059
CDMA1xEVDORevA,,-45,Verizon Wireless,Verizon Wireless,80478,39.99,-105.89,"(39.99, -105.89)",1450
CDMA - eHRPD,CDMA,-45,Verizon Wireless,Verizon Wireless,81623,39.4,-107.11,"(39.4, -107.11)",1446
LTE,CDMA,-45,Verizon Wireless,Verizon Wireless,80439,39.729999999999997,-105.41,"(39.73, -105.41)",1439
3G,CDMA,-45,Verizon Wireless,Verizon Wireless,80246,39.700000000000003,-104.94,"(39.7, -104.94)",1444
CDMA - eHRPD,CDMA,-45,Sprint,Sprint,80215,39.76,-105.14,"(39.76, -105.14)",1008
CDMA1xEVDORevA,,-45,Verizon Wireless,Verizon Wireless,80233,39.909999999999997,-104.97,"(39.91, -104.97)",82
LTE,CDMA,-45,Verizon Wireless,Verizon Wireless,80108,39.47,-104.87,"(39.47, -104.87)",3133
CDMA1xEVDORevA,,-45,Verizon Wireless,Verizon Wireless,81140,37.17,-105.97,"(37.17, -105.97)",1440
CDMA1xEVDORevA,,-46,Verizon Wireless,Verizon Wireless,80016,39.56,-104.75,"(39.56, -104.75)",3133
CDMA1xRTT,,-46,Verizon Wireless,Verizon Wireless,80018,39.64,-104.71,"(39.64, -104.71)",1395
CDMA1xRTT,,-46,Verizon Wireless,Verizon Wireless,80019,39.81,-104.72,"(39.81, -104.72)",82
CDMA1xEVDORevA,,-46,Verizon Wireless,Verizon Wireless,80216,39.799999999999997,-104.98,"(39.8, -104.98)",82
CDMA1xEVDORevA,,-46,Verizon Wireless,Verizon Wireless,80216,39.81,-104.98,"(39.81, -104.98)",82
CDMA - eHRPD,CDMA,-46,Verizon Wireless,Verizon Wireless,80303,40.01,-105.25,"(40.01, -105.25)",85
LTE,CDMA,-46,Verizon Wireless,Verizon Wireless,80435,39.700000000000003,-105.86,"(39.7, -105.86)",1439
LTE,CDMA,-46,Verizon Wireless,Verizon Wireless,80401,39.71,-105.29,"(39.71, -105.29)",1008
CDMA1xEVDORevA,,-46,Verizon Wireless,Verizon Wireless,80640,39.869999999999997,-104.89,"(39.87, -104.89)",82
CDMA1xEVDORevA,,-46,Verizon Wireless,Verizon Wireless,80459,40.08,-106.55,"(40.08, -106.55)",1450
CDMA - eHRPD,CDMA,-46,Sprint,Sprint,80304,40.020000000000003,-105.28,"(40.02, -105.28)",85
CDMA1xEVDORevA,,-46,Verizon Wireless,Verizon Wireless,80216,39.799999999999997,-104.98,"(39.8, -104.98)",82
CDMA1xEVDORevA,,-46,Verizon Wireless,Verizon Wireless,80814,38.94,-105.15,"(38.94, -105.15)",1071
CDMA1xEVDORevA,,-46,Verizon Wireless,Verizon Wireless,80640,39.89,-104.85,"(39.89, -104.85)",82
CDMA - eHRPD,CDMA,-46,Sprint,Sprint,80305,40,-105.26,"(40.0, -105.26)",85
CDMA1xEVDORevA,,-46,Verizon Wireless,Verizon Wireless,80915,38.83,-104.71,"(38.83, -104.71)",1447
CDMA1xEVDORevA,,-46,Verizon Wireless,Verizon Wireless,80915,38.83,-104.71,"(38.83, -104.71)",1447
Unknown,CDMA,-46,Verizon Wireless,Verizon Wireless,80634,40.380000000000003,-104.73,"(40.38, -104.73)",1072
CDMA1xEVDORevA,,-46,Verizon Wireless,Verizon Wireless,80640,39.86,-104.9,"(39.86, -104.9)",82
CDMA1xEVDORevA,,-46,Verizon Wireless,Verizon Wireless,80814,38.950000000000003,-105.22,"(38.95, -105.22)",1071
CDMA1xEVDORevA,,-46,Verizon Wireless,Verizon Wireless,80459,40.380000000000003,-106.58,"(40.38, -106.58)",1450
CDMA - eHRPD,CDMA,-46,Verizon Wireless,Verizon Wireless,80476,39.69,-105.71,"(39.69, -105.71)",1439
3G,CDMA,-46,Verizon Wireless,Verizon Wireless,80246,39.700000000000003,-104.94,"(39.7, -104.94)",1444
CDMA1xRTT,,-46,Verizon Wireless,Verizon Wireless,80216,39.799999999999997,-104.98,"(39.8, -104.98)",82
CDMA1xEVDORevA,,-46,Verizon Wireless,Verizon Wireless,80216,39.799999999999997,-104.97,"(39.8, -104.97)",82
CDMA1xEVDORevA,,-46,Verizon Wireless,Verizon Wireless,80915,38.840000000000003,-104.74,"(38.84, -104.74)",1447
CDMA1xEVDORevA,,-46,Verizon Wireless,Verizon Wireless,80134,39.54,-104.79,"(39.54, -104.79)",3133
CDMA1xEVDORevA,,-46,Verizon Wireless,Verizon Wireless,80016,39.619999999999997,-104.71,"(39.62, -104.71)",1395
CDMA1xEVDORevA,,-46,Verizon Wireless,Verizon Wireless,80016,39.58,-104.71,"(39.58, -104.71)",1395
LTE,CDMA,-46,Verizon Wireless,Verizon Wireless,80002,39.799999999999997,-105.11,"(39.8, -105.11)",1008
CDMA1xEVDORevA,,-46,Verizon Wireless,Verizon Wireless,80216,39.799999999999997,-104.97,"(39.8, -104.97)",82
CDMA1xEVDORevA,,-46,Verizon Wireless,Verizon Wireless,80401,39.729999999999997,-105.16,"(39.73, -105.16)",1008
LTE,CDMA,-46,Verizon Wireless,Verizon Wireless,80030,39.83,-105.01,"(39.83, -105.01)",82
CDMA1xEVDORevA,CDMA,-46,Verizon Wireless,Verizon Wireless,80104,39.369999999999997,-104.82,"(39.37, -104.82)",3133
CDMA1xRTT,,-46,Verizon Wireless,Verizon Wireless,80022,39.840000000000003,-104.92,"(39.84, -104.92)",82
CDMA1xEVDORevA,CDMA,-46,Verizon Wireless,Verizon Wireless,80104,39.4,-104.85,"(39.4, -104.85)",3133
LTE,CDMA,-46,Verizon Wireless,Verizon Wireless,80204,39.74,-105,"(39.74, -105.0)",1444
LTE,CDMA,-46,Verizon Wireless,Verizon Wireless,80204,39.74,-105.04,"(39.74, -105.04)",1444
CDMA1xEVDORevA,,-46,Verizon Wireless,Verizon Wireless,80221,39.82,-104.98,"(39.82, -104.98)",82
CDMA - EvDo rev. A,CDMA,-46,Sprint,Sprint,80020,39.909999999999997,-105.06,"(39.91, -105.06)",86
NO DATA,CDMA,-46,Verizon Wireless,Verizon Wireless,80262,39.71,-104.95,"(39.71, -104.95)",1444
CDMA1xEVDORevA,,-46,Verizon Wireless,Verizon Wireless,80601,39.97,-104.76,"(39.97, -104.76)",82
CDMA1xEVDORevA,,-46,Verizon Wireless,Verizon Wireless,80601,39.909999999999997,-104.82,"(39.91, -104.82)",82
CDMA1xEVDORevA,CDMA,-46,Verizon Wireless,Verizon Wireless,81506,39.11,-108.53,"(39.11, -108.53)",1015
CDMA - eHRPD,CDMA,-46,Sprint,Sprint,80542,40.22,-104.98,"(40.22, -104.98)",1072
CDMA1xRTT,,-46,Verizon Wireless,Verizon Wireless,80022,39.840000000000003,-104.92,"(39.84, -104.92)",82
CDMA - EvDo rev. A,CDMA,-46,Sprint,Sprint,80020,39.909999999999997,-105.06,"(39.91, -105.06)",86
CDMA - EvDo rev. A,CDMA,-46,Sprint,Sprint,80020,39.909999999999997,-105.06,"(39.91, -105.06)",86
CDMA - eHRPD,CDMA,-46,Verizon Wireless,Verizon Wireless,80612,40.97,-104.91,"(40.97, -104.91)",1072
CDMA1xEVDORevA,,-46,Verizon Wireless,Verizon Wireless,80603,39.909999999999997,-104.81,"(39.91, -104.81)",82
CDMA1xEVDORevA,,-46,Verizon Wireless,Verizon Wireless,80601,39.97,-104.77,"(39.97, -104.77)",82
CDMA1xEVDORevA,,-46,Verizon Wireless,Verizon Wireless,80649,40.19,-104.26,"(40.19, -104.26)",1072
CDMA1xRTT,,-46,Verizon Wireless,Verizon Wireless,80229,39.83,-104.98,"(39.83, -104.98)",82
CDMA1xEVDORevA,,-46,Verizon Wireless,Verizon Wireless,80221,39.83,-105.01,"(39.83, -105.01)",82
CDMA1xEVDORevA,,-46,Verizon Wireless,Verizon Wireless,80221,39.83,-105,"(39.83, -105.0)",82
CDMA - EvDo rev. A,CDMA,-46,Sprint,Sprint,80020,39.909999999999997,-105.06,"(39.91, -105.06)",86
LTE,CDMA,-46,Verizon Wireless,Verizon Wireless,80204,39.729999999999997,-105,"(39.73, -105.0)",1444
CDMA1xEVDORevA,,-46,Verizon Wireless,Verizon Wireless,80110,39.64,-105,"(39.64, -105.0)",1395
CDMA - EvDo rev. A,CDMA,-46,Sprint,Sprint,80020,39.909999999999997,-105.06,"(39.91, -105.06)",86
CDMA1xEVDORevA,CDMA,-46,Verizon Wireless,Verizon Wireless,80104,39.369999999999997,-104.82,"(39.37, -104.82)",3133
,,-46,Verizon Wireless,Verizon Wireless,80206,39.71,-104.95,"(39.71, -104.95)",1444
CDMA1xEVDORevA,,-46,Verizon Wireless,Verizon Wireless,81143,38.11,-106.02,"(38.11, -106.02)",1067
CDMA - eHRPD,CDMA,-46,Verizon Wireless,Verizon Wireless,80525,40.479999999999997,-105.06,"(40.48, -105.06)",1012
CDMA1xEVDORevA,,-46,Verizon Wireless,Verizon Wireless,80446,40.08,-105.95,"(40.08, -105.95)",1450
CDMA1xEVDORevA,,-46,Verizon Wireless,Verizon Wireless,80018,39.69,-104.72,"(39.69, -104.72)",1395
CDMA1xEVDORevA,,-46,Verizon Wireless,Verizon Wireless,80018,39.65,-104.71,"(39.65, -104.71)",1395
LTE,CDMA,-46,Verizon Wireless,Verizon Wireless,80022,39.9,-104.77,"(39.9, -104.77)",82
LTE,CDMA,-46,Verizon Wireless,Verizon Wireless,80112,39.57,-104.88,"(39.57, -104.88)",1395
3G,CDMA,-46,Verizon Wireless,Verizon Wireless,80209,39.700000000000003,-104.95,"(39.7, -104.95)",1444
CDMA - eHRPD,CDMA,-46,Verizon Wireless,Verizon Wireless,80435,39.68,-105.9,"(39.68, -105.9)",1439
CDMA1xEVDORevA,,-46,Verizon Wireless,Verizon Wireless,80239,39.770000000000003,-104.84,"(39.77, -104.84)",1444
CDMA - eHRPD,CDMA,-46,Verizon Wireless,Verizon Wireless,80435,39.69,-105.81,"(39.69, -105.81)",1439
LTE,CDMA,-46,Verizon Wireless,Verizon Wireless,80305,40,-105.26,"(40.0, -105.26)",85
CDMA1xEVDORevA,,-46,Verizon Wireless,Verizon Wireless,80446,40.08,-105.94,"(40.08, -105.94)",1450
CDMA1xEVDORevA,,-46,Verizon Wireless,Verizon Wireless,81003,38.270000000000003,-104.66,"(38.27, -104.66)",34
CDMA1xEVDORevA,,-46,Verizon Wireless,Verizon Wireless,81143,38.14,-105.96,"(38.14, -105.96)",1067
LTE,CDMA,-46,Verizon Wireless,Verizon Wireless,80305,40,-105.26,"(40.0, -105.26)",85
,,-46,AT&T Wireless,AT&T Wireless,81433,37.799999999999997,-107.67,"(37.8, -107.67)",1068
CDMA - eHRPD,CDMA,-46,Sprint,Sprint,80249,39.840000000000003,-104.67,"(39.84, -104.67)",1444
NO DATA,CDMA,-46,Verizon Wireless,Verizon Wireless,80203,39.72,-104.98,"(39.72, -104.98)",1444
CDMA1xEVDORevA,,-46,Verizon Wireless,Verizon Wireless,80019,39.75,-104.71,"(39.75, -104.71)",82
CDMA1xEVDORevA,,-46,Verizon Wireless,Verizon Wireless,80452,39.82,-105.75,"(39.82, -105.75)",1450
CDMA1xRTT,,-46,Verizon Wireless,Verizon Wireless,81147,37.21,-107.26,"(37.21, -107.26)",1396
CDMA1xEVDORevA,,-46,Verizon Wireless,Verizon Wireless,80446,40.049999999999997,-105.92,"(40.05, -105.92)",1450
LTE,CDMA,-46,Verizon Wireless,Verizon Wireless,80033,39.76,-105.08,"(39.76, -105.08)",1008
,,-46,Verizon Wireless,Verizon Wireless,80120,39.619999999999997,-105.01,"(39.62, -105.01)",1395
CDMA1xEVDORevA,,-46,Verizon Wireless,Verizon Wireless,80446,40,-105.9,"(40.0, -105.9)",1450
CDMA1xEVDORevA,,-46,Verizon Wireless,Verizon Wireless,80446,39.92,-105.78,"(39.92, -105.78)",1450
CDMA1xEVDORevA,,-46,Verizon Wireless,Verizon Wireless,80446,40.01,-105.93,"(40.01, -105.93)",1450
CDMA1xEVDORevA,,-46,Verizon Wireless,Verizon Wireless,80513,40.299999999999997,-104.98,"(40.3, -104.98)",1072
CDMA1xEVDORevA,,-46,Verizon Wireless,Verizon Wireless,80863,38.99,-105.05,"(38.99, -105.05)",1071
CDMA1xEVDORevA,,-46,Verizon Wireless,Verizon Wireless,80863,39.01,-105.06,"(39.01, -105.06)",1071
CDMA1xEVDORevA,,-46,Verizon Wireless,Verizon Wireless,81125,37.9,-106.14,"(37.9, -106.14)",1067
CDMA1xEVDORevA,,-46,Verizon Wireless,Verizon Wireless,80919,38.92,-104.81,"(38.92, -104.81)",1447
CDMA1xEVDORevA,,-46,Verizon Wireless,Verizon Wireless,81089,37.65,-104.79,"(37.65, -104.79)",1006
CDMA1xEVDORevA,,-46,Verizon Wireless,Verizon Wireless,81125,37.909999999999997,-106.14,"(37.91, -106.14)",1067
CDMA1xEVDORevA,,-46,Verizon Wireless,Verizon Wireless,81125,37.85,-106.14,"(37.85, -106.14)",1067
CDMA1xEVDORevA,,-46,Verizon Wireless,Verizon Wireless,81125,37.85,-106.14,"(37.85, -106.14)",1067
CDMA1xEVDORevA,,-46,Verizon Wireless,Verizon Wireless,81149,37.979999999999997,-106.16,"(37.98, -106.16)",1067
CDMA1xEVDORevA,,-46,Verizon Wireless,Verizon Wireless,81149,37.96,-106.14,"(37.96, -106.14)",1067
CDMA1xEVDORevA,,-46,Verizon Wireless,Verizon Wireless,81149,37.96,-106.14,"(37.96, -106.14)",1067
CDMA1xEVDORevA,CDMA,-46,Verizon Wireless,Verizon Wireless,81501,39.07,-108.56,"(39.07, -108.56)",1015
CDMA1xEVDORevA,CDMA,-46,Verizon Wireless,Verizon Wireless,81501,39.07,-108.55,"(39.07, -108.55)",1015
CDMA1xEVDORevA,,-46,Verizon Wireless,Verizon Wireless,80863,38.99,-105.05,"(38.99, -105.05)",1071
CDMA1xEVDORevA,,-46,Verizon Wireless,Verizon Wireless,80863,39.01,-105.06,"(39.01, -105.06)",1071
CDMA1xEVDORevA,,-46,Verizon Wireless,Verizon Wireless,81125,37.83,-106.14,"(37.83, -106.14)",1067
LTE,CDMA,-46,Verizon Wireless,Verizon Wireless,81601,39.51,-107.31,"(39.51, -107.31)",1449
CDMA - 1xRTT,CDMA,-46,Sprint,Sprint,80304,40.020000000000003,-105.28,"(40.02, -105.28)",85
CDMA - eHRPD,CDMA,-46,Sprint,Sprint,80222,39.659999999999997,-104.93,"(39.66, -104.93)",1444
CDMA1xEVDORevA,,-46,Verizon Wireless,Verizon Wireless,81149,37.950000000000003,-106.14,"(37.95, -106.14)",1067
CDMA1xEVDORevA,,-46,Verizon Wireless,Verizon Wireless,81149,37.979999999999997,-106.14,"(37.98, -106.14)",1067
CDMA1xEVDORevA,,-46,Verizon Wireless,Verizon Wireless,81149,37.979999999999997,-106.14,"(37.98, -106.14)",1067
CDMA1xEVDORevA,,-46,Verizon Wireless,Verizon Wireless,81125,37.909999999999997,-106.14,"(37.91, -106.14)",1067
CDMA1xEVDORevA,,-46,Verizon Wireless,Verizon Wireless,81125,37.880000000000003,-106.14,"(37.88, -106.14)",1067
CDMA1xEVDORevA,,-46,Verizon Wireless,Verizon Wireless,81125,37.9,-106.14,"(37.9, -106.14)",1067
CDMA1xEVDORevA,,-46,Verizon Wireless,Verizon Wireless,81125,37.840000000000003,-106.14,"(37.84, -106.14)",1067
CDMA1xEVDORevA,,-46,Verizon Wireless,Verizon Wireless,81052,38.11,-102.61,"(38.11, -102.61)",1064
CDMA1xEVDORevA,,-46,Verizon Wireless,Verizon Wireless,81125,37.799999999999997,-106.14,"(37.8, -106.14)",1067
CDMA1xEVDORevA,,-46,Verizon Wireless,Verizon Wireless,80446,40.090000000000003,-105.97,"(40.09, -105.97)",1450
CDMA1xEVDORevA,,-46,Verizon Wireless,Verizon Wireless,81149,37.979999999999997,-106.16,"(37.98, -106.16)",1067
CDMA1xEVDORevA,,-46,Verizon Wireless,Verizon Wireless,81149,37.97,-106.14,"(37.97, -106.14)",1067
LTE,CDMA,-46,Verizon Wireless,Verizon Wireless,80033,39.78,-105.06,"(39.78, -105.06)",1008
CDMA1xEVDORevA,,-46,Verizon Wireless,Verizon Wireless,80446,40.06,-105.92,"(40.06, -105.92)",1450
CDMA1xEVDORevA,,-46,Verizon Wireless,Verizon Wireless,80446,40.090000000000003,-105.89,"(40.09, -105.89)",1450
CDMA1xEVDORevA,,-46,Verizon Wireless,Verizon Wireless,80446,39.92,-105.78,"(39.92, -105.78)",1450
CDMA1xEVDORevA,,-46,Verizon Wireless,Verizon Wireless,81149,37.94,-106.14,"(37.94, -106.14)",1067
CDMA1xEVDORevA,CDMA,-46,Verizon Wireless,Verizon Wireless,81505,39.090000000000003,-108.58,"(39.09, -108.58)",1015
LTE,CDMA,-46,Verizon Wireless,Verizon Wireless,80222,39.68,-104.94,"(39.68, -104.94)",1444
LTE,CDMA,-46,Verizon Wireless,Verizon Wireless,80202,39.75,-104.99,"(39.75, -104.99)",1444
CDMA1xEVDORevA,CDMA,-46,Verizon Wireless,Verizon Wireless,80108,39.4,-104.85,"(39.4, -104.85)",3133
LTE,CDMA,-46,Verizon Wireless,Verizon Wireless,80033,39.78,-105.11,"(39.78, -105.11)",1008
LTE,CDMA,-46,Verizon Wireless,Verizon Wireless,80033,39.78,-105.11,"(39.78, -105.11)",1008
LTE,CDMA,-46,Verizon Wireless,Verizon Wireless,80020,39.909999999999997,-105.1,"(39.91, -105.1)",86
CDMA1xEVDORevA,,-46,Verizon Wireless,Verizon Wireless,80446,40.090000000000003,-105.89,"(40.09, -105.89)",1450
CDMA1xEVDORevA,,-47,Verizon Wireless,Verizon Wireless,81149,37.979999999999997,-106.14,"(37.98, -106.14)",1067
LTE,CDMA,-47,Verizon Wireless,Verizon Wireless,80202,39.74,-104.99,"(39.74, -104.99)",1444
LTE,CDMA,-47,Verizon Wireless,Verizon Wireless,80301,40.03,-105.25,"(40.03, -105.25)",85
CDMA1xEVDORevA,,-47,Verizon Wireless,Verizon Wireless,80468,40.06,-106.17,"(40.06, -106.17)",1450
CDMA1xRTT,,-47,Verizon Wireless,Verizon Wireless,80603,39.909999999999997,-104.81,"(39.91, -104.81)",82
CDMA1xEVDORevA,,-47,Verizon Wireless,Verizon Wireless,81089,37.65,-104.78,"(37.65, -104.78)",1006
CDMA1xEVDORevA,,-47,Verizon Wireless,Verizon Wireless,81401,38.44,-107.86,"(38.44, -107.86)",32
CDMA1xEVDORevA,CDMA,-47,Verizon Wireless,Verizon Wireless,81501,39.090000000000003,-108.55,"(39.09, -108.55)",1015
CDMA1xEVDORevA,CDMA,-47,Verizon Wireless,Verizon Wireless,81505,39.090000000000003,-108.58,"(39.09, -108.58)",1015
CDMA - EvDo rev. A,CDMA,-47,Sprint,Sprint,80304,40.020000000000003,-105.28,"(40.02, -105.28)",85
CDMA1xEVDORevA,CDMA,-47,Verizon Wireless,Verizon Wireless,81501,39.06,-108.56,"(39.06, -108.56)",1015
CDMA1xEVDORevA,,-47,Verizon Wireless,Verizon Wireless,81149,38,-106.14,"(38.0, -106.14)",1067
CDMA1xEVDORevA,,-47,Verizon Wireless,Verizon Wireless,81149,37.979999999999997,-106.14,"(37.98, -106.14)",1067
Unknown,CDMA,-47,Verizon Wireless,Verizon Wireless,81123,37.47,-105.58,"(37.47, -105.58)",1441
CDMA1xEVDORevA,,-47,Verizon Wireless,Verizon Wireless,80723,40.25,-103.64,"(40.25, -103.64)",1059
CDMA1xEVDORevA,,-47,Verizon Wireless,Verizon Wireless,81149,37.93,-106.14,"(37.93, -106.14)",1067
CDMA1xEVDORevA,,-47,Verizon Wireless,Verizon Wireless,80468,40.06,-106.21,"(40.06, -106.21)",1450
LTE,CDMA,-47,Verizon Wireless,Verizon Wireless,80303,40.01,-105.25,"(40.01, -105.25)",85
CDMA1xEVDORevA,CDMA,-47,Verizon Wireless,Verizon Wireless,81501,39.08,-108.55,"(39.08, -108.55)",1015
CDMA1xEVDORevA,CDMA,-47,Verizon Wireless,Verizon Wireless,81501,39.07,-108.56,"(39.07, -108.56)",1015
CDMA1xEVDORevA,,-47,Verizon Wireless,Verizon Wireless,80229,39.82,-104.97,"(39.82, -104.97)",82
CDMA1xEVDORevA,,-47,Verizon Wireless,Verizon Wireless,80229,39.81,-104.98,"(39.81, -104.98)",82
CDMA1xEVDORevA,,-47,Verizon Wireless,Verizon Wireless,80229,39.82,-104.97,"(39.82, -104.97)",82
CDMA - EvDo rev. A,CDMA,-47,Sprint,Sprint,80301,40.06,-105.2,"(40.06, -105.2)",85
CDMA - EvDo rev. A,CDMA,-47,Sprint,Sprint,80301,40.06,-105.2,"(40.06, -105.2)",85
CDMA - EvDo rev. A,CDMA,-47,Verizon Wireless,Verizon Wireless,80123,39.630000000000003,-105.08,"(39.63, -105.08)",1008
LTE,CDMA,-47,Verizon Wireless,Verizon Wireless,80033,39.78,-105.11,"(39.78, -105.11)",1008
CDMA - EvDo rev. A,CDMA,-47,Sprint,Sprint,80301,40.03,-105.25,"(40.03, -105.25)",85
,,-47,AT&T Wireless,AT&T Wireless,80211,39.76,-105,"(39.76, -105.0)",1444
CDMA - EvDo rev. A,CDMA,-47,Sprint,Sprint,80903,38.83,-104.82,"(38.83, -104.82)",1447
,,-47,Verizon Wireless,Verizon Wireless,80209,39.700000000000003,-104.94,"(39.7, -104.94)",1444
CDMA1xEVDORevA,,-47,Verizon Wireless,Verizon Wireless,80022,39.880000000000003,-104.76,"(39.88, -104.76)",82
CDMA1xEVDORevA,CDMA,-47,Verizon Wireless,Verizon Wireless,80104,39.4,-104.85,"(39.4, -104.85)",3133
,,-47,Verizon Wireless,Verizon Wireless,80209,39.700000000000003,-104.95,"(39.7, -104.95)",1444
CDMA - EvDo rev. A,CDMA,-47,Sprint,Sprint,80020,39.909999999999997,-105.06,"(39.91, -105.06)",86
CDMA1xEVDORevA,,-47,Verizon Wireless,Verizon Wireless,80451,40.090000000000003,-106.06,"(40.09, -106.06)",1450
CDMA1xEVDORevA,,-47,Verizon Wireless,Verizon Wireless,80603,39.9,-104.81,"(39.9, -104.81)",82
CDMA1xEVDORevA,,-47,Verizon Wireless,Verizon Wireless,80603,39.909999999999997,-104.81,"(39.91, -104.81)",82
LTE,CDMA,-47,Verizon Wireless,Verizon Wireless,80903,38.83,-104.81,"(38.83, -104.81)",1447
LTE,CDMA,-47,Verizon Wireless,Verizon Wireless,80903,38.83,-104.82,"(38.83, -104.82)",1447
LTE,CDMA,-47,Verizon Wireless,Verizon Wireless,80903,38.83,-104.82,"(38.83, -104.82)",1447
LTE,CDMA,-47,Verizon Wireless,Verizon Wireless,80903,38.83,-104.82,"(38.83, -104.82)",1447
CDMA1xEVDORevA,,-47,Verizon Wireless,Verizon Wireless,80022,39.840000000000003,-104.92,"(39.84, -104.92)",82
CDMA1xEVDORevA,,-47,Verizon Wireless,Verizon Wireless,80022,39.909999999999997,-104.8,"(39.91, -104.8)",82
CDMA - EvDo rev. A,CDMA,-47,Sprint,Sprint,80020,39.909999999999997,-105.06,"(39.91, -105.06)",86
CDMA - EvDo rev. A,CDMA,-47,Sprint,Sprint,80301,40.06,-105.2,"(40.06, -105.2)",85
CDMA - EvDo rev. A,CDMA,-47,Sprint,Sprint,80020,39.909999999999997,-105.06,"(39.91, -105.06)",86
CDMA - EvDo rev. A,CDMA,-47,Sprint,Sprint,80020,39.909999999999997,-105.06,"(39.91, -105.06)",86
CDMA - EvDo rev. A,CDMA,-47,Sprint,Sprint,80020,39.909999999999997,-105.06,"(39.91, -105.06)",86
CDMA - EvDo rev. A,CDMA,-47,Sprint,Sprint,80020,39.909999999999997,-105.06,"(39.91, -105.06)",86
CDMA - EvDo rev. A,CDMA,-47,Sprint,Sprint,80020,39.909999999999997,-105.06,"(39.91, -105.06)",86
CDMA - EvDo rev. A,CDMA,-47,Sprint,Sprint,80020,39.909999999999997,-105.06,"(39.91, -105.06)",86
CDMA - EvDo rev. A,CDMA,-47,Sprint,Sprint,80020,39.909999999999997,-105.06,"(39.91, -105.06)",86
CDMA - EvDo rev. A,CDMA,-47,Sprint,Sprint,80020,39.909999999999997,-105.06,"(39.91, -105.06)",86
CDMA - EvDo rev. A,CDMA,-47,Sprint,Sprint,80020,39.909999999999997,-105.06,"(39.91, -105.06)",86
CDMA - EvDo rev. A,CDMA,-47,Sprint,Sprint,80020,39.909999999999997,-105.06,"(39.91, -105.06)",86
CDMA - EvDo rev. A,CDMA,-47,Sprint,Sprint,80020,39.909999999999997,-105.06,"(39.91, -105.06)",86
CDMA - EvDo rev. A,CDMA,-47,Sprint,Sprint,80020,39.909999999999997,-105.06,"(39.91, -105.06)",86
CDMA - EvDo rev. A,CDMA,-47,Sprint,Sprint,80020,39.909999999999997,-105.06,"(39.91, -105.06)",86
CDMA - EvDo rev. A,CDMA,-47,Sprint,Sprint,80020,39.909999999999997,-105.06,"(39.91, -105.06)",86
CDMA - EvDo rev. A,CDMA,-47,Sprint,Sprint,80020,39.909999999999997,-105.06,"(39.91, -105.06)",86
LTE,CDMA,-47,Verizon Wireless,Verizon Wireless,80903,38.83,-104.82,"(38.83, -104.82)",1447
LTE,CDMA,-47,Verizon Wireless,Verizon Wireless,80903,38.83,-104.81,"(38.83, -104.81)",1447
LTE,CDMA,-47,Verizon Wireless,Verizon Wireless,80903,38.83,-104.82,"(38.83, -104.82)",1447
LTE,CDMA,-47,Verizon Wireless,Verizon Wireless,80903,38.83,-104.8,"(38.83, -104.8)",1447
LTE,CDMA,-47,Verizon Wireless,Verizon Wireless,80903,38.83,-104.82,"(38.83, -104.82)",1447
CDMA - EvDo rev. A,CDMA,-47,Sprint,Sprint,80020,39.909999999999997,-105.06,"(39.91, -105.06)",86
CDMA1xEVDORevA,,-47,Verizon Wireless,Verizon Wireless,80447,40.020000000000003,-105.94,"(40.02, -105.94)",1450
CDMA1xRTT,,-47,Verizon Wireless,Verizon Wireless,80819,38.93,-105.01,"(38.93, -105.01)",1447
CDMA1xEVDORevA,,-47,Verizon Wireless,Verizon Wireless,80401,39.74,-105.22,"(39.74, -105.22)",1008
1xEVDO REVA,CDMA,-47,Verizon Wireless,Verizon Wireless,81501,39.06,-108.56,"(39.06, -108.56)",1015
LTE,CDMA,-47,Verizon Wireless,Verizon Wireless,80221,39.83,-105,"(39.83, -105.0)",82
CDMA1xRTT,,-47,Verizon Wireless,Verizon Wireless,80022,39.880000000000003,-104.76,"(39.88, -104.76)",82
CDMA - EvDo rev. A,CDMA,-47,Sprint,Sprint,80301,40.06,-105.2,"(40.06, -105.2)",85
CDMA - EvDo rev. A,CDMA,-47,Sprint,Sprint,80301,40.06,-105.2,"(40.06, -105.2)",85
CDMA1xEVDORevA,,-47,Verizon Wireless,Verizon Wireless,80022,39.9,-104.76,"(39.9, -104.76)",82
CDMA - EvDo rev. A,CDMA,-47,Sprint,Sprint,80301,40.06,-105.2,"(40.06, -105.2)",85
CDMA - EvDo rev. A,CDMA,-47,Sprint,Sprint,80020,39.909999999999997,-105.06,"(39.91, -105.06)",86
,,-47,Verizon Wireless,Verizon Wireless,80202,39.74,-104.98,"(39.74, -104.98)",1444
CDMA1xEVDORevA,,-47,Verizon Wireless,Verizon Wireless,80110,39.630000000000003,-105,"(39.63, -105.0)",1395
CDMA1xEVDORevA,CDMA,-47,Verizon Wireless,Verizon Wireless,80104,39.4,-104.85,"(39.4, -104.85)",3133
CDMA - EvDo rev. A,CDMA,-47,Sprint,Sprint,80301,40.06,-105.2,"(40.06, -105.2)",85
CDMA1xEVDORevA,CDMA,-47,Verizon Wireless,Verizon Wireless,80104,39.4,-104.85,"(39.4, -104.85)",3133
CDMA - EvDo rev. A,CDMA,-47,Sprint,Sprint,80301,40.06,-105.2,"(40.06, -105.2)",85
LTE,CDMA,-47,Verizon Wireless,Verizon Wireless,80002,39.799999999999997,-105.13,"(39.8, -105.13)",1008
CDMA1xEVDORevA,CDMA,-47,Sprint,Sprint,80207,39.76,-104.91,"(39.76, -104.91)",1444
CDMA1xEVDORevA,CDMA,-47,Verizon Wireless,Verizon Wireless,80108,39.4,-104.85,"(39.4, -104.85)",3133
3G,,-47,Verizon Wireless,Verizon Wireless,80206,39.71,-104.95,"(39.71, -104.95)",1444
LTE,CDMA,-47,Verizon Wireless,Verizon Wireless,80209,39.71,-104.98,"(39.71, -104.98)",1444
CDMA1xEVDORevA,,-47,Verizon Wireless,Verizon Wireless,80478,39.99,-105.84,"(39.99, -105.84)",1450
CDMA1xRTT,,-47,Verizon Wireless,Verizon Wireless,80640,39.83,-104.94,"(39.83, -104.94)",82
CDMA1xRTT,,-47,Verizon Wireless,Verizon Wireless,80601,39.92,-104.8,"(39.92, -104.8)",82
CDMA1xEVDORevA,,-47,Verizon Wireless,Verizon Wireless,80601,39.99,-104.79,"(39.99, -104.79)",82
CDMA1xEVDORevA,,-47,Verizon Wireless,Verizon Wireless,80640,39.86,-104.9,"(39.86, -104.9)",82
CDMA1xEVDORevA,,-47,Verizon Wireless,Verizon Wireless,80640,39.86,-104.9,"(39.86, -104.9)",82
CDMA1xEVDORevA,,-47,Verizon Wireless,Verizon Wireless,80640,39.880000000000003,-104.87,"(39.88, -104.87)",82
CDMA1xEVDORevA,,-47,Verizon Wireless,Verizon Wireless,80701,40.29,-103.8,"(40.29, -103.8)",1059
CDMA1xEVDORevA,,-47,Verizon Wireless,Verizon Wireless,80701,40.24,-103.89,"(40.24, -103.89)",1059
EDGE,GSM,-47,T-Mobile,T-Mobile,80202,39.74,-104.99,"(39.74, -104.99)",1444
CDMA1xEVDORevA,,-47,Verizon Wireless,Verizon Wireless,81055,37.6,-105.18,"(37.6, -105.18)",1006
Unknown,CDMA,-47,Verizon Wireless,Verizon Wireless,81055,37.590000000000003,-105.18,"(37.59, -105.18)",1006
CDMA1xEVDORevA,,-47,Verizon Wireless,Verizon Wireless,81144,37.53,-106.04,"(37.53, -106.04)",35
CDMA - EvDo rev. A,CDMA,-47,Sprint,Sprint,80020,39.909999999999997,-105.06,"(39.91, -105.06)",86
CDMA - EvDo rev. A,CDMA,-47,Sprint,Sprint,80020,39.909999999999997,-105.06,"(39.91, -105.06)",86
CDMA - EvDo rev. A,CDMA,-47,Sprint,Sprint,80020,39.909999999999997,-105.06,"(39.91, -105.06)",86
CDMA - EvDo rev. A,CDMA,-47,Sprint,Sprint,80020,39.909999999999997,-105.06,"(39.91, -105.06)",86
CDMA - EvDo rev. A,CDMA,-47,Sprint,Sprint,80020,39.909999999999997,-105.06,"(39.91, -105.06)",86
EDGE,GSM,-47,T-Mobile,T-Mobile,80202,39.75,-104.99,"(39.75, -104.99)",1444
CDMA - EvDo rev. A,CDMA,-47,Sprint,Sprint,80020,39.909999999999997,-105.06,"(39.91, -105.06)",86
CDMA1xEVDORevA,,-47,Verizon Wireless,Verizon Wireless,81101,37.47,-105.86,"(37.47, -105.86)",83
CDMA - EvDo rev. A,CDMA,-47,Sprint,Sprint,80020,39.909999999999997,-105.06,"(39.91, -105.06)",86
CDMA1xEVDORevA,,-47,Verizon Wireless,Verizon Wireless,80814,38.869999999999997,-105.15,"(38.87, -105.15)",1071
CDMA1xEVDORevA,,-47,Verizon Wireless,Verizon Wireless,80814,38.950000000000003,-105.22,"(38.95, -105.22)",1071
CDMA - EvDo rev. A,CDMA,-47,Verizon Wireless,Verizon Wireless,80612,40.79,-104.98,"(40.79, -104.98)",1012
CDMA1xEVDORevA,,-47,Verizon Wireless,Verizon Wireless,80640,39.880000000000003,-104.88,"(39.88, -104.88)",82
CDMA1xEVDORevA,,-47,Verizon Wireless,Verizon Wireless,80640,39.880000000000003,-104.87,"(39.88, -104.87)",82
CDMA - EvDo rev. A,CDMA,-47,Sprint,Sprint,80020,39.909999999999997,-105.06,"(39.91, -105.06)",86
CDMA1xEVDORevA,,-47,Verizon Wireless,Verizon Wireless,80459,40.380000000000003,-106.58,"(40.38, -106.58)",1450
LTE,CDMA,-47,Verizon Wireless,Verizon Wireless,80439,39.74,-105.4,"(39.74, -105.4)",1439
CDMA1xEVDORevA,,-47,Verizon Wireless,Verizon Wireless,80260,39.840000000000003,-104.99,"(39.84, -104.99)",82
,,-47,Verizon Wireless,Verizon Wireless,80234,39.880000000000003,-104.98,"(39.88, -104.98)",82
CDMA - EvDo rev. A,CDMA,-47,Sprint,Sprint,80020,39.909999999999997,-105.06,"(39.91, -105.06)",86
LTE,CDMA,-47,Verizon Wireless,Verizon Wireless,80229,39.880000000000003,-104.98,"(39.88, -104.98)",82
CDMA1xEVDORevA,,-47,Verizon Wireless,Verizon Wireless,80216,39.799999999999997,-104.98,"(39.8, -104.98)",82
CDMA1xEVDORevA,,-47,Verizon Wireless,Verizon Wireless,80216,39.78,-104.98,"(39.78, -104.98)",1444
CDMA1xEVDORevA,,-47,Verizon Wireless,Verizon Wireless,80137,39.74,-104.6,"(39.74, -104.6)",1395
CDMA - EvDo rev. A,CDMA,-47,Sprint,Sprint,80020,39.909999999999997,-105.06,"(39.91, -105.06)",86
CDMA1xEVDORevA,,-47,Verizon Wireless,Verizon Wireless,80033,39.78,-105.09,"(39.78, -105.09)",1008
3G,,-47,Verizon Wireless,Verizon Wireless,80224,39.700000000000003,-104.91,"(39.7, -104.91)",1444
CDMA - EvDo rev. A,CDMA,-47,Verizon Wireless,Verizon Wireless,80230,39.770000000000003,-104.88,"(39.77, -104.88)",1444
CDMA1xEVDORevA,CDMA,-47,Verizon Wireless,Verizon Wireless,80104,39.369999999999997,-104.82,"(39.37, -104.82)",3133
CDMA1xEVDORevA,,-47,Verizon Wireless,Verizon Wireless,80446,40.090000000000003,-105.91,"(40.09, -105.91)",1450
CDMA1xEVDORevA,,-47,Verizon Wireless,Verizon Wireless,81143,38.369999999999997,-106.04,"(38.37, -106.04)",1067
CDMA1xRTT,,-47,Verizon Wireless,Verizon Wireless,80459,40.1,-106.42,"(40.1, -106.42)",1450
CDMA1xEVDORevA,,-47,Verizon Wireless,Verizon Wireless,80446,40.090000000000003,-105.95,"(40.09, -105.95)",1450
CDMA1xEVDORevA,,-47,Verizon Wireless,Verizon Wireless,80446,40.06,-105.92,"(40.06, -105.92)",1450
CDMA1xEVDORevA,,-47,Verizon Wireless,Verizon Wireless,80446,40.090000000000003,-106.03,"(40.09, -106.03)",1450
CDMA1xEVDORevA,,-47,Verizon Wireless,Verizon Wireless,80019,39.74,-104.71,"(39.74, -104.71)",1395
CDMA1xEVDORevA,,-47,Verizon Wireless,Verizon Wireless,80018,39.65,-104.72,"(39.65, -104.72)",1395
CDMA1xEVDORevA,CDMA,-47,Verizon Wireless,Verizon Wireless,80104,39.4,-104.85,"(39.4, -104.85)",3133
,,-47,Verizon Wireless,Verizon Wireless,80206,39.71,-104.95,"(39.71, -104.95)",1444
,,-47,Verizon Wireless,Verizon Wireless,80206,39.71,-104.95,"(39.71, -104.95)",1444
CDMA1xEVDORevA,,-47,Verizon Wireless,Verizon Wireless,80239,39.770000000000003,-104.85,"(39.77, -104.85)",1444
3G,CDMA,-47,Verizon Wireless,Verizon Wireless,80230,39.71,-104.9,"(39.71, -104.9)",1444
CDMA1xEVDORevA,,-47,Verizon Wireless,Verizon Wireless,80446,40.1,-105.94,"(40.1, -105.94)",1450
CDMA1xEVDORevA,,-47,Verizon Wireless,Verizon Wireless,80446,40.090000000000003,-106.06,"(40.09, -106.06)",1450
CDMA1xEVDORevA,,-47,Verizon Wireless,Verizon Wireless,81003,38.270000000000003,-104.61,"(38.27, -104.61)",34
CDMA1xEVDORevA,,-47,Verizon Wireless,Verizon Wireless,81416,38.69,-108.01,"(38.69, -108.01)",1443
CDMA - eHRPD,CDMA,-47,Sprint,Sprint,80027,39.96,-105.18,"(39.96, -105.18)",85
CDMA1xEVDORevA,,-47,Verizon Wireless,Verizon Wireless,80446,40.14,-105.89,"(40.14, -105.89)",1450
,,-47,AT&T Wireless,AT&T Wireless,81433,37.799999999999997,-107.66,"(37.8, -107.66)",1068
CDMA1xEVDORevA,,-47,Verizon Wireless,Verizon Wireless,80446,40.08,-105.94,"(40.08, -105.94)",1450
LTE,CDMA,-47,Verizon Wireless,Verizon Wireless,80305,40,-105.26,"(40.0, -105.26)",85
,,-47,Verizon Wireless,Verizon Wireless,80241,39.909999999999997,-104.98,"(39.91, -104.98)",82
,,-47,AT&T Wireless,AT&T Wireless,80202,39.75,-104.99,"(39.75, -104.99)",1444
CDMA1xEVDORevA,CDMA,-47,Verizon Wireless,Verizon Wireless,80104,39.369999999999997,-104.82,"(39.37, -104.82)",3133
CDMA - EvDo rev. A,CDMA,-47,Verizon Wireless,Verizon Wireless,80020,39.92,-105.08,"(39.92, -105.08)",86
CDMA1xEVDORevA,,-47,Verizon Wireless,Verizon Wireless,81143,38.11,-106.03,"(38.11, -106.03)",1067
LTE,CDMA,-48,Verizon Wireless,Verizon Wireless,80303,39.99,-105.23,"(39.99, -105.23)",85
LTE,CDMA,-48,Verizon Wireless,Verizon Wireless,80124,39.520000000000003,-104.87,"(39.52, -104.87)",3133
CDMA - EvDo rev. A,CDMA,-48,Verizon Wireless,Verizon Wireless,80528,40.46,-104.99,"(40.46, -104.99)",1012
CDMA1xEVDORevA,,-48,Verizon Wireless,Verizon Wireless,80446,40.14,-105.89,"(40.14, -105.89)",1450
CDMA1xEVDORevA,,-48,Verizon Wireless,Verizon Wireless,81416,38.69,-108.01,"(38.69, -108.01)",1443
CDMA1xEVDORevA,,-48,Verizon Wireless,Verizon Wireless,81003,38.28,-104.65,"(38.28, -104.65)",34
CDMA - EvDo rev. A,CDMA,-48,Sprint,Sprint,80020,39.909999999999997,-105.06,"(39.91, -105.06)",86
CDMA - EvDo rev. A,CDMA,-48,Sprint,Sprint,80020,39.909999999999997,-105.06,"(39.91, -105.06)",86
CDMA1xEVDORevA,,-48,Verizon Wireless,Verizon Wireless,81003,38.28,-104.65,"(38.28, -104.65)",34
CDMA - EvDo rev. A,CDMA,-48,Sprint,Sprint,80030,39.83,-105.01,"(39.83, -105.01)",82
CDMA - EvDo rev. A,CDMA,-48,Sprint,Sprint,80905,38.83,-104.83,"(38.83, -104.83)",1447
LTE,CDMA,-48,Verizon Wireless,Verizon Wireless,80112,39.53,-104.86,"(39.53, -104.86)",3133
CDMA1xEVDORevA,,-48,Verizon Wireless,Verizon Wireless,80104,39.19,-104.85,"(39.19, -104.85)",3133
CDMA1xRTT,,-48,Verizon Wireless,Verizon Wireless,80221,39.799999999999997,-105,"(39.8, -105.0)",82
LTE,CDMA,-48,Verizon Wireless,Verizon Wireless,80303,40,-105.25,"(40.0, -105.25)",85
LTE,CDMA,-48,Verizon Wireless,Verizon Wireless,80303,39.99,-105.23,"(39.99, -105.23)",85
CDMA1xEVDORevA,,-48,Verizon Wireless,Verizon Wireless,80446,39.99,-105.86,"(39.99, -105.86)",1450
CDMA1xEVDORevA,,-48,Verizon Wireless,Verizon Wireless,80446,40.01,-105.93,"(40.01, -105.93)",1450
CDMA1xEVDORevA,,-48,Verizon Wireless,Verizon Wireless,80446,39.99,-105.83,"(39.99, -105.83)",1450
CDMA1xEVDORevA,,-48,Verizon Wireless,Verizon Wireless,80921,39.020000000000003,-104.83,"(39.02, -104.83)",1447
CDMA1xEVDORevA,,-48,Verizon Wireless,Verizon Wireless,81416,38.74,-108.07,"(38.74, -108.07)",1443
CDMA - EvDo rev. A,CDMA,-48,Sprint,Sprint,80020,39.909999999999997,-105.06,"(39.91, -105.06)",86
CDMA - EvDo rev. A,CDMA,-48,Sprint,Sprint,80020,39.909999999999997,-105.06,"(39.91, -105.06)",86
CDMA - EvDo rev. A,CDMA,-48,Sprint,Sprint,80020,39.909999999999997,-105.06,"(39.91, -105.06)",86
CDMA - EvDo rev. A,CDMA,-48,Sprint,Sprint,80905,38.83,-104.83,"(38.83, -104.83)",1447
CDMA - EvDo rev. A,CDMA,-48,Sprint,Sprint,80905,38.83,-104.83,"(38.83, -104.83)",1447
CDMA1xEVDORevA,,-48,Verizon Wireless,Verizon Wireless,81416,38.74,-108.07,"(38.74, -108.07)",1443
CDMA - EvDo rev. A,CDMA,-48,Sprint,Sprint,80905,38.83,-104.83,"(38.83, -104.83)",1447
CDMA - EvDo rev. A,CDMA,-48,Sprint,Sprint,80905,38.83,-104.83,"(38.83, -104.83)",1447
CDMA - EvDo rev. A,CDMA,-48,Sprint,Sprint,80020,39.909999999999997,-105.06,"(39.91, -105.06)",86
Unknown,CDMA,-48,Sprint,Sprint,80209,39.700000000000003,-104.95,"(39.7, -104.95)",1444
CDMA - EvDo rev. A,CDMA,-48,Sprint,Sprint,80020,39.909999999999997,-105.06,"(39.91, -105.06)",86
CDMA1xEVDORevA,,-48,Verizon Wireless,Verizon Wireless,81003,38.270000000000003,-104.66,"(38.27, -104.66)",34
CDMA1xRTT,,-48,Verizon Wireless,Verizon Wireless,80221,39.81,-105,"(39.81, -105.0)",82
CDMA1xEVDORevA,,-48,Verizon Wireless,Verizon Wireless,80019,39.74,-104.71,"(39.74, -104.71)",1395
CDMA1xEVDORevA,CDMA,-48,Verizon Wireless,Verizon Wireless,80104,39.4,-104.85,"(39.4, -104.85)",3133
CDMA1xEVDORevA,,-48,Verizon Wireless,Verizon Wireless,80018,39.69,-104.72,"(39.69, -104.72)",1395
CDMA1xRTT,,-48,Verizon Wireless,Verizon Wireless,80015,39.6,-104.74,"(39.6, -104.74)",1395
CDMA - EvDo rev. A,CDMA,-48,Sprint,Sprint,80020,39.909999999999997,-105.06,"(39.91, -105.06)",86
CDMA - EvDo rev. A,CDMA,-48,Sprint,Sprint,80903,38.82,-104.82,"(38.82, -104.82)",1447
CDMA1xEVDORevA,,-48,Verizon Wireless,Verizon Wireless,80022,39.92,-104.7,"(39.92, -104.7)",82
Unknown,CDMA,-48,Sprint,Sprint,80304,40.020000000000003,-105.28,"(40.02, -105.28)",85
CDMA1xEVDORevA,,-48,Verizon Wireless,Verizon Wireless,80221,39.799999999999997,-105.02,"(39.8, -105.02)",82
LTE,CDMA,-48,Verizon Wireless,Verizon Wireless,80239,39.770000000000003,-104.85,"(39.77, -104.85)",1444
CDMA1xEVDORevA,CDMA,-48,Verizon Wireless,Verizon Wireless,81506,39.090000000000003,-108.55,"(39.09, -108.55)",1015
CDMA1xEVDORevA,,-48,Verizon Wireless,Verizon Wireless,80022,39.83,-104.92,"(39.83, -104.92)",82
CDMA - EvDo rev. A,CDMA,-48,Sprint,Sprint,80903,38.83,-104.82,"(38.83, -104.82)",1447
CDMA1xEVDORevA,,-48,Verizon Wireless,Verizon Wireless,80022,39.83,-104.92,"(39.83, -104.92)",82
CDMA - EvDo rev. A,CDMA,-48,Sprint,Sprint,80031,39.86,-105.05,"(39.86, -105.05)",82
