"licenseename","doingbusinessas","licensetype","licensenum","expiration","address","city","state","zip"
,"LEE SPIRITS COMPANY INC","Sales Room Spirits","03-04252","2021-03-04T00:00:00.000","303 WEST HIGHWAY 105","Monument","CO","80132"
"THREE BARREL BREWING CO LLC","THREE BARREL BREWING COMPANY LLC","Sales Room Malt","03-02745","2021-04-13T00:00:00.000","475 GRAND AVENUE","Del Norte","CO","81132"
"DEVIANT SPIRITS","DEVIANT SPIRITS LLC","Sales Room Spirits","03-03448","2021-08-05T00:00:00.000","2480 49TH ST UNIT E","Boulder","CO","80301"
"NABC, INC.","NABC, INC.","Sales Room Malt","03-06759","2021-09-05T00:00:00.000","18245 EAST 40TH AVENUE","Aurora","CO","80011"
"ARCHETYPE DISTILLING","ARCHETYPE DISTILLING","Sales Room Spirits","03-08689","2021-10-29T00:00:00.000","119 SOUTH BROADWAY","Denver","CO","80209"
"STRANGE CRAFT BEER COMPANY","STRANGE CRAFT BEER COMPANY","Sales Room Malt","42-72527-0002","2020-10-14T00:00:00.000","1330 ZUNI STREET  UNIT M","Denver","CO","80204"
"MESA VERDE KOA","GUY DREW VINEYARDS/CROOKED CREEK","Sales Room Wine","07-61090-0007","2021-08-14T00:00:00.000","27432 E HWY 160","Cortez","CO","81321"
"BREWABILITY LAB","BREWABILITY LAB","Sales Room Malt","03-06506","2021-08-10T00:00:00.000","3445 SOUTH BROADWAY","Englewood","CO","80113"
"BREWERY HILL LLC","BROKEN COMPASS BREWING COMPANY","Sales Room Malt","03-02673","2021-03-27T00:00:00.000","68 CONTINENTAL COURT UNIT B-12","Breckenridge","CO","80424"
"CROW HOP BREWING CO","CROW HOP BREWING COMPANY LTD.","Sales Room Malt","03-01527","2021-07-02T00:00:00.000","214 EAST 4TH STREET","Loveland","CO","80537"
"LOST FRIEND BREWING COMPANY","LOST FRIEND BREWING COMPANY","Sales Room Malt","03-08609","2021-05-13T00:00:00.000","2548 MONTEBELLO SQUARE DRIVE","Colorado Springs","CO","80918"
"TIMNATH BEERWERKS","TIMNATH BEERWERKS","Sales Room Malt","03-13542","2021-08-16T00:00:00.000","4138 MAIN STREET, UNIT C & D","Timnath","CO","80547"
"BARQUENTINE BREWING COMPANY","BARQUENTINE BREWING COMPANY","Sales Room Malt","03-13317","2021-05-12T00:00:00.000","5505 WEST 20TH AVENUE SUITE 178","Edgewater","CO","80214"
"FEISTY SPIRITS LLC","FEISTY SPIRITS","Sales Room Spirits","14-73011-0002","2021-04-30T00:00:00.000","1708 EAST LINCOLN AVENUE  UNIT 1","Fort Collins","CO","80524"
"WALDSCHANKE CIDERS","WALDSCHANKE CIDERS","Sales Room Wine","03-09340","2021-08-07T00:00:00.000","4100 JASON STREET","Denver","CO","80211"
"KETTLE AND SPOKE BREWERY","KETTLE AND SPOKE BREWERY","Sales Room Malt","03-06145","2021-05-18T00:00:00.000","2500 47TH STREET UNIT 12","Boulder","CO","80301"
"THIRSTY MONK","THIRSTY MONK","Sales Room Malt","03-03200","2021-07-30T00:00:00.000","1604 EAST 17TH AVE","Denver","CO","80218"
"ALTERNATION BREWING COMPANY","ALTERNATION BREWING COMPANY","Sales Room Malt","03-07586","2021-04-04T00:00:00.000","1539 SOUTH BROADWAY","Denver","CO","80210"
"ANGRY JAMES BREWING COMPANY","ANGRY JAMES BREWERY","Sales Room Malt","03-07935","2021-06-27T00:00:00.000","421 ADAMS AVENUE","Silverthorne","CO","80498"
"4 NOSE BREWING COMPANY","4 NOSES BREWING COMPANY","Sales Room Malt","03-02015","2021-10-23T00:00:00.000","8855 WEST 116TH CIRCLE STE 4","Broomfield","CO","80021"
"COLORADO CIDER COMPANY","COLORADO CIDER COMPANY","Sales Room Wine","06-39228-0000","2020-12-14T00:00:00.000","2650 WEST 2ND AVE #10","Denver","CO","80219"
"THE FAMILY JONES LLC","THE FAMILY JONES LLC","Sales Room Spirits","03-07493","2021-02-09T00:00:00.000","1527 TAURUS COURT","Loveland","CO","80537"
"GUANELLA PASS BREWERY","GUANELLA PASS BREWERY","Sales Room Malt","03-13110","2021-04-01T00:00:00.000","18 EAST PARK AVENUE","Empire","CO","80438"
"PURGATORY CELLARS LLP","PURGATORY CELLARS LLP","Sales Room Wine","03-04137","2021-02-01T00:00:00.000","611 NORTH WILCOX STREET","Castle Rock","CO","80104"
"MAISON LA BELLE VIE","MAISON LA BELLE VIE INC","Sales Room Wine","03-02903","2021-04-02T00:00:00.000","3575 G ROAD","Palisade","CO","81526"
"STEIN BREWING COMPANY","STEIN BREWING COMPANY","Sales Room Malt","03-00743","2021-02-01T00:00:00.000","2516 49TH ST, UNIT 5","Boulder","CO","80301"
"GUNBARREL BREWING COMPANY","GUNBARREL BREWING COMPANY","Sales Room Malt","03-07014","2020-10-11T00:00:00.000","7088 WINCHESTER CIRCLE UNIT #200","Boulder","CO","80301"
"BENT BARLEY BREWING COMPANY","BENT BARLEY BREWING COMPANY","Sales Room Malt","03-10167","2021-10-24T00:00:00.000","15428 EAST CRESTLINE PLACE","Centennial","CO","80015"
"NEW BELGIUM BREWING","NEW BELGIUM BREWING","Sales Room Malt","03-09961","2020-12-02T00:00:00.000","3330 BRIGHTON BOULEVARD, SUITE 101","Denver","CO","80216"
"WELCOME HOME BREWERY","WELCOME HOME BREWERY","Sales Room Malt","03-09488","2021-07-25T00:00:00.000","19523 HESS ROAD SUITE 103","Parker","CO","80134"
"RAICES BREWING COMPANY","RAICES BREWING COMPANY","Sales Room Malt","03-11145","2021-03-21T00:00:00.000","769 SOUTH HUDSON STREET","Denver","CO","80204"
"VAIL BREWING COMPANY","VAIL BREWING COMPANY","Sales Room Malt","03-06412","2021-04-25T00:00:00.000","141 EAST MEADOW DRIVE SUITE 209","Vail","CO","81657"
"PURGATORY CELLARS WINERY","PURGATORY CELLARS LLP","Sales Room Wine","03-04137","2021-02-01T00:00:00.000","18921 PLAZA DR UNIT 100","Parker","CO","801349679"
"COPPER KETTLE BREWING COMPANY","COPPER KETTLE BREWING CO LLC","Sales Room Malt","15-79065-0001","2021-02-24T00:00:00.000","1338 S VALENTIA ST #100","Denver","CO","80247"
"STEIN BREWING COMPANY","STEIN BREWING COMPANY","Sales Room Malt","03-10503","2020-09-24T00:00:00.000","18 EAST PARK AVENUE","Empire","CO","80438"
"MUMMY HILL WINERY","MUMMY HILL WINERY","Sales Room Wine","03-03353","2021-09-15T00:00:00.000","51368 HIGHWAY 385","Holyoke","CO","80734"
"HOLIDAILY BREWING COMPANY","HOLIDAILY BREWING COMPANY","Sales Room Malt","03-09388","2021-03-27T00:00:00.000","820 BRICKYARD CIRCLE","Golden","CO","80403"
"SOMETHING BREWERY","SOMETHING BREWERY","Sales Room Malt","03-05110","2021-09-28T00:00:00.000","117 NORTH MAIN STREET UNIT A","Brighton","CO","80601"
"MESA PARK VINEYARDS","MESA PARK VINEYARDS","Sales Room Wine","03-08826","2021-01-23T00:00:00.000","3321 C ROAD","Palisade","CO","81526"
"BROKEN PLOW BREWERY","BROKEN PLOW BREWERY","Sales Room Malt","03-01718","2021-09-02T00:00:00.000","4731 WEST 10TH STREET UNIT G","Greeley","CO","80634"
"THE WINES OF COLORADO","WINERY AT PIKES PEAK THE","Sales Room Wine","03-01093","2021-04-05T00:00:00.000","8045 WEST HIGHWAY 24","Cascade","CO","80809"
"ELEVATION 5003 DISTILLING","ELEVATION 5003 DISTILLERY, LLC","Sales Room Spirits","03-04618","2021-06-18T00:00:00.000","2601 SOUTH LEMAY AVENUE, SUITE #8","Fort Collins","CO","80525"
"DENVER BEER CO","DENVER BEER CO","Sales Room Malt","42-92470-0001","2021-05-26T00:00:00.000","1695 PLATTE STREET","Denver","CO","80202"
"GOLDEN MOON SPEAKEASY","GOLDEN MOON DISTILLERY","Sales Room Spirits","03-00265","2020-10-17T00:00:00.000","1111 MINER'S AVENUE","Golden","CO","80401"
"SETTEMBRE CELLARS","SETTEMBRE CELLARS","Sales Room Wine","42-79766-0001","2021-02-28T00:00:00.000","1501 LEE HILL DRIVE #16","Boulder","CO","80304"
"SOUTH PARK BREWING","SOUTH PARK BREWING LLC","Sales Room Malt","03-03093","2021-06-24T00:00:00.000","297 1/2 U.S. HIGHWAY 285","Fairplay","CO","80440"
"GROSSEN BART BREWING COMPANY","GROSSEN BART BREWERY","Sales Room Malt","03-12745","2021-02-10T00:00:00.000","33 SOUTH PRATT PARKWAY #300","Longmont","CO","80501"
"HIGH COUNTY BEVERAGE CORP","HIGH COUNTRY BEVERAGE CORP","Sales Room Malt","23-68718-0001","2021-05-27T00:00:00.000","4200 RONALD REAGAN BLVD","Loveland","CO","80534"
"ABSOLUTE THRESHOLD BREWERY","INTERSECT BREWING","Sales Room Malt","03-06098","2021-04-03T00:00:00.000","2160 WEST DRAKE ROAD SUITE A-1","Fort Collins","CO","80526"
"GUY DREW VINEYARDS","GUY DREW VINEYARDS/CROOKED CREEK","Sales Room Wine","07-61090-0007","2021-08-14T00:00:00.000","27244 ROAD T","Dolores","CO","81323"
"LEE SPIRITS COMPANY INC. LEE SPIRITS COMPANY INC.","LEE SPIRITS COMPANY INC","Sales Room Spirits","03-04252","2021-03-04T00:00:00.000","110 EAST BOULDER STREET","Colorado Springs","CO","80903"
"BRASS BREWING COMPANY","BRASS BREWING COMPANY","Sales Room Malt","03-09123","2021-02-06T00:00:00.000","318 EAST COLORADO AVENUE SUITE C","Colorado Springs","CO","80903"
"WHISTLING HARE DISTILLERY","WHISTLING HARE DISTILLERY","Sales Room Spirits","03-04297","2021-03-04T00:00:00.000","7655 WST 108TH AVENUE, UNIT 400","Westminster","CO","80021"
"BIG B'S HARD CIDER @ TRADER MAG'S","BIG B'S HARD CIDER","Sales Room Wine","28-62394-0001","2021-04-29T00:00:00.000","211 GRAND AVENUE SUITE 101","Paonia","CO","81428"
"HONEYVILLE STORE","COLORADO WINE ROOM","Sales Room Wine","41-97969-0001","2021-02-08T00:00:00.000","33633 HIGHWAY 550","Boulder","CO","80301"
"SHEAF & KETTLE BREWING COMPANY, LLC","SHEAF & KETTLE BREWING COMPANY, LLC","Sales Room Malt","03-12111","2020-10-23T00:00:00.000","208 OAK AVENUE","Eaton","CO","80615"
"TELLURIDE DISTILLING COMPANY","TELLURIDE DISTILLING COMPANY","Sales Room Spirits","03-03224","2021-07-14T00:00:00.000","567 MOUNTAIN VILLAGE BLVD SUITE 106B","Telluride","CO","81435"
"BAERE BREWING CO","BAERE BREWING COMPANY","Sales Room Malt","03-02846","2021-06-13T00:00:00.000","320 N BROADWAY UNIT E","Denver","CO","80203"
"RED FOX CELLARS","RED FOX CELLARS","Sales Room Wine","03-01277","2021-05-07T00:00:00.000","2424 HIGHWAY 6&50","Palisade","CO","81526"
"GRAVITY BREWING","GRAVITY BREWING","Sales Room Malt","14-73003-0001","2021-07-10T00:00:00.000","1150 PINE STREET UNIT B","Louisville","CO","800271463"
"5680 LLC","5680 LLC","Sales Room Wine","42-61599-0001","2021-07-08T00:00:00.000","14652 PEONY LANE","Paonia","CO","814284112"
"SNOWY PEAKS WINERY AT ESTES PARK KOA","SNOWY PEAKS WINERY","Sales Room Wine","26-56522-0001","2021-04-24T00:00:00.000","2501 BIG THOMPSON AVENUE","Estes Park","CO","80517"
"WILEY ROOTS BREWING COMPANY","WILEY  ROOTS BREWING COMPANY","Sales Room Malt","03-01238","2021-04-25T00:00:00.000","958 3RD STREET UNIT D","Greeley","CO","80631"
"DENVER BEER CO","DENVER BEER CO PRODUCTION LLC","Sales Room Malt","03-02850","2021-06-13T00:00:00.000","4455 JASON STREET","Denver","CO","80211"
"GAR'S & GRAPES","GAR'S & GRAPES","Sales Room Wine","14-43495-0000","2021-05-14T00:00:00.000","12431 MEAD WAY","Littleton","CO","80125"
"FORMER FUTURE BREWING COMPANY","BLACK PROJECT SPONTANEOUS AND WILD ALES","Sales Room Malt","03-02214","2020-11-13T00:00:00.000","1290 SOUTH BROADWAY","Denver","CO","80210"
"TALON WINERY LLC   DBA - COLORADO WINE ROOM  MEADERY OF THE ROCKIES","COLORADO WINE ROOM","Sales Room Wine","41-97969-0001","2021-02-08T00:00:00.000","800 SOUTH CAMINO DEL RIO SPACE D6","Durango","CO","81301"
"4 NOSES BREWING COMPANY, LLC","WILD PROVISIONS BEER PROJECT","Sales Room Malt","03-12414","2021-03-29T00:00:00.000","2209 CENTRAL AVENUE","Boulder","CO","80301"
"ESOTERRA INC","ESO TERRA INC.","Sales Room Wine","03-13201","2021-05-20T00:00:00.000","18390 HIGHWAY 145","Dolores","CO","81323"
"SPRING 44","SPRING 44 DISTILLING INC","Sales Room Spirits","14-72963-0000","2021-05-09T00:00:00.000","505 WEST 66TH STREET","Loveland","CO","80538"
"MYSTIC MOUNTAIN DISTLLERY LLC","MYSTIC MOUNTAIN DISTILLERY LLC","Sales Room Spirits","28-53034-0000","2021-09-09T00:00:00.000","11505 SPRINGS VALLEY ROAD","Larkspur","CO","80118"
"LIQUID MECHANICS BREWING CO","LIQUID MECHANICS BREWING COMPANY","Sales Room Malt","03-02892","2021-05-06T00:00:00.000","297 NORTH HIGHWAY 287 STE 100","Lafayette","CO","80026"
"SAVANNAH BEE COMPANY","SAVANNAH BEE COMPANY","Sales Room Wine","03-09925","2021-08-02T00:00:00.000","1222 PEARL STREET, SUITE B","Boulder","CO","80302"
"DECLARATION BREWING COMPANY INC","DECLARATION BREWING COMPANY","Sales Room Malt","03-02164","2020-11-14T00:00:00.000","2659 SOUTH LAFAYETTE STREET","Denver","CO","80210"
"APPLE VALLEY CIDER COMPANY","APPLE VALLEY CIDER COMPANY","Sales Room Wine","03-08805","2020-12-25T00:00:00.000","103 BROADWAY UNIT #13","Penrose","CO","81240"
"PROST BREWING COMPANY","PROST BREWING COMPANY","Sales Room Malt","03-06194","2021-03-10T00:00:00.000","321 OLD FIREHOUSE ALLEY","Fort Collins","CO","80524"
"CLAREMONT INN & WINERY","CLAREMONT INN & WINERY","Sales Room Wine","03-05284","2021-01-04T00:00:00.000","2308 UNIT C1, 17TH STREET","GREELEY","CO","80624"
"JOYRIDE BREWING COMPANY","JOYRIDE BREWING COMPANY","Sales Room Malt","03-03227","2021-07-14T00:00:00.000","5217 W 25TH AVENUE","Edgewater","CO","80214"
"DEERHAMMER DISTILLING COMPANY","DEERHAMMER DISTILLING COMPANY LLC","Sales Room Spirits","25-60500-0001","2021-10-22T00:00:00.000","321 EAST MAIN STREET","Buena Vista","CO","812111126"
"PTARMIGAN VINEYARDS","STONEY MESA WINERY LTD / PTARMIGAN VINEYARD","Sales Room Wine","23-30749-0001","2021-07-11T00:00:00.000","221 31 3/10 ROAD","Grand Junction","CO","81503"
"WALTER MARIANNE","AUGUSTINA'S WINERY","Sales Room Wine","09-84455-0000","2021-04-17T00:00:00.000","20 EAST LAKEVIEW DRIVE #103","Nederland","CO","80466"
"ODYSSEY BEERWERKS","ODYSSEY BEERWERKS, LLC","Sales Room Malt","03-00947","2021-04-03T00:00:00.000","5535 WEST 56TH AVE STE 107","Arvada","CO","80002"
"SNOWY PEAKS WINERY","SNOWY PEAKS WINERY","Sales Room Wine","26-56522-0001","2021-04-24T00:00:00.000","292 MORAINE AVE","Estes Park","CO","80517"
"EVENING GRACE ESTATE LLC","EVENING GRACE ESTATE LLC","Sales Room Wine","03-09177","2021-02-18T00:00:00.000","35837 HANSON MESA ROAD","Hotchkiss","CO","81419"
"MASH LAB BREWING","MASH LAB BREWING","Sales Room Malt","03-06851","2021-09-08T00:00:00.000","4395 HIGHLAND MEADOWS PARKWAY","Windsor","CO","80550"
"ROCKY MOUNTAIN BREWERY","ROCKY MOUNTAIN BREWERY","Sales Room Malt","42-55148-0001","2021-04-03T00:00:00.000","625 PAONIA STREET","Colorado Springs","CO","809153727"
"PILOTHOUSE BREWING COMPANY","PILOTHOUSE BREWING COMPANY","Sales Room Malt","03-08964","2021-02-08T00:00:00.000","4233 SOUTH BUCKLEY ROAD","Aurora","CO","80013"
"STONEYARD DISTILLERY","STONEYARD DISTILLERY","Sales Room Spirits","03-00908","2021-05-07T00:00:00.000","4600 HIGHWAY 6","Gypsum","CO","81637"
"LONGTUCKY SPIRITS","LONGTUCKY SPIRITS","Sales Room Spirits","03-06546","2021-07-05T00:00:00.000","350 TERRY STREET SUITE 120","Longmont","CO","80501"
"CROOKED STAVE ARTISAN DISTRIBUTING","CROOKED STAVE ARTISAN DISTRIBUTION","Sales Room Malt","03-01429","2021-06-17T00:00:00.000","3350 BRIGHTON BLVD UNIT 130","Denver","CO","80216"
"RESTAURANT DEPOT","RESTAURANT DEPOT","Sales Room Malt","03-00424","2021-09-25T00:00:00.000","1740 W 13TH AVE","Denver","CO","80204"
"LOCAVORE BEER WORKS","LOCAVORE BEER WORKS","Sales Room Malt","03-02839","2021-06-20T00:00:00.000","5950 SOUTH PLATTE CANYON ROAD UNIT D13","Littleton","CO","80123"
"KJ WOOD DISTILLERS, LLC","KJ WOOD DISTILLERS LLC","Sales Room Spirits","03-01023","2021-03-19T00:00:00.000","929 MAIN STREET","Ouray","CO","81427"
"WALTER BREWING COMPANY","WALTER BREWING COMPANY","Sales Room Malt","03-09662","2021-03-15T00:00:00.000","126 SOUTH ONEIDA STREET","Pueblo","CO","81003"
"HIGH HOPS BREWERY","HIGH HOPS BREWERY","Sales Room Malt","14-73014-0001","2021-08-05T00:00:00.000","6461 HIGHWAY 392","Windsor","CO","80550"
"GUANELLA PASS BREWING COMPANY LLC","GUANELLA PASS BREWING","Sales Room Malt","03-06979","2020-10-06T00:00:00.000","501 ROSE STREET","Georgetown","CO","80444"
"CODA BREWING COMPANY LLC","CODA BREWING COMPANY","Sales Room Malt","03-09441","2021-08-07T00:00:00.000","15965 SOUTH GOLDEN ROAD SUITE C2","Golden","CO","80401"
"BLACK FOREST MEADERY","BLACK FOREST MEADERY","Sales Room Wine","03-03235","2021-07-15T00:00:00.000","6420-A BURROWS ROAD","Colorado Springs","CO","80908"
"DRY LAND DISTILLERS","DRY LAND DISTILLERS","Sales Room Spirits","03-09602","2021-05-30T00:00:00.000","471 MAIN STREET UNIT B","Longmont","CO","80501"
"COPPER CLUB BREWING CO","COPPER CLUB BREWING COMPANY","Sales Room Malt","03-00170","2021-12-13T00:00:00.000","233 EAST ASPEN #A","Fruita","CO","81521"
"BBC WINES","BBC WINES","Sales Room Wine","03-01723","2021-09-15T00:00:00.000","603 EAST COLLINS STREET","Eaton","CO","80615"
"BRUSH HOLLOW","BRUSH HOLLOW","Sales Room Wine","03-12765","2021-01-21T00:00:00.000","465  D  STREET","Penrose","CO","81240"
"COLORADO WINE ROOM","COLORADO WINE ROOM","Sales Room Wine","41-97969-0001","2021-02-08T00:00:00.000","3701 G ROAD","Palisade","CO","81526"
"WHIKYBEN, LLC","RAMBLEBINE BREWING COMPANY","Sales Room Malt","03-12926","2021-06-04T00:00:00.000","457 COLORADO AVENUE","Grand Junction","CO","81501"
"BEYOND THE MOUNTAIN BREWING CO","BEYOND THE MOUNTAIN BREWING COMPANY","Sales Room Malt","03-08576","2020-10-25T00:00:00.000","6035 LONGBOW DRIVE UNITS 109 & 110","Boulder","CO","80304"
"DUECES WILD BREWERY INC","DUECES WILD BREWERY","Sales Room Malt","03-08334","2021-01-22T00:00:00.000","660 PETERSON ROAD","Colorado Springs","CO","80915"
"NANO 108 BREWING CO","NANO 108 BREWING COMPANY","Sales Room Malt","03-01553","2021-06-03T00:00:00.000","2402 WAYNOKA ROAD","Colorado Springs","CO","80915"
"FACTOTUM BREWHOUSE","FACTOTUM BREWHOUSE","Sales Room Malt","03-01745","2021-07-10T00:00:00.000","3845 LIPAN STREET","Denver","CO","80211"
"ASPEN PEAK CELLARS INC","ASPEN PEAK CELLARS","Sales Room Wine","15-70398-0002","2021-02-25T00:00:00.000","105 WEST MAIN STREET","Florence","CO","81226"
"BLUE FISH DISTILLERY INC. BLUE FISH DISTILLERY","BLACKHAT DISTILLERY","Sales Room Spirits","03-05600","2020-12-16T00:00:00.000","5745 INDUSTRIAL PLACE, SUITE A","Colorado Springs","CO","80916"
"ELEVATION BEER COMPANY","ELEVATION BEER COMPANY","Sales Room Malt","25-61540-0001","2021-01-10T00:00:00.000","115 PAHLONE PARKWAY","Poncha Springs","CO","81242"
"105 WEST BREWING COMPANY","105 WEST BREWING COMPANY","Sales Room Malt","03-04673","2021-07-22T00:00:00.000","1049 PARK STREET","Castle Rock","CO","80109"
"ASCENT INVESTMENT GROUP LLC","DEEP ROOTS WINERY","Sales Room Wine","03-07739","2021-09-27T00:00:00.000","2875 BLAKE STREET SUITE C","Denver","CO","80205"
"FLORENCE BREWING COMPANY","FLORENCE BREWING COMPANY","Sales Room Malt","03-05766","2020-12-28T00:00:00.000","200 SOUTH PIKES PEAK AVENUE","Florence","CO","81226"
"COLORADO GOLD DISTILLERY","COLORADO GOLD DISTILLERY","Sales Room Spirits","07-97196-0000","2020-11-07T00:00:00.000","4242 NORTH NEVADA AVENUE","Colorado Springs","CO","80907"
"TURQUOISE MESA WINERY","TURQUOISE MESA WINERY","Sales Room Wine","07-73341-0001","2020-12-17T00:00:00.000","1210 MYRTLE","Brighton","CO","80601"
"MILE HIGH WINERY","WINTER PARK WINERY LLC","Sales Room Wine","28-36089-0002","2021-11-07T00:00:00.000","395 ZEREX STREET","Fraser","CO","80442"
"UNNAMED BEER COMPANY","UNNAMED BEER COMPANY","Sales Room Malt","03-09512","2021-04-29T00:00:00.000","2907 55th STREET UNIT 1B","Boulder","CO","80301"
"AVERY BREWING COMPANY, LLC","AVERY BREWING COMPANY","Sales Room Malt","06-19214-0001","2020-12-12T00:00:00.000","4910 NAUTILUS COURT NORTH","Boulder","CO","80301"
"CASEY BREWING AND BLENDING","CASEY BREWING AND BLENDING","Sales Room Malt","03-11615","2021-08-06T00:00:00.000","711 GRAND AVENUE","Glenwood Springs","CO","81601"
"ZANAMIEL","ZANAMIEL MEADERY","Sales Room Wine","03-11662","2021-05-05T00:00:00.000","6801 SOUTH MARION CIRCLE WEST","Centennial","CO","80122"
"YAMPA VALLEY BREWING COMPANY LLC","YAMPA VALLEY BREWING COMPANY","Sales Room Malt","03-12346","2021-01-27T00:00:00.000","576 YAMPA AVENUE","Craig","CO","81625"
"BIG BEAVER DISTRIBUTORS","BIG BEAVER DISTRIBUTORS","Sales Room Malt","25-57049-0000","2021-08-03T00:00:00.000","2707 WEST EISENHOWER BLVD UNIT #9","Loveland","CO","80537"
"ODELL BREWING COMPANY","ODELL BREWING COMPANY","Sales Room Malt","03-08408","2021-05-01T00:00:00.000","2945 LARIMER STREET","Denver","CO","80205"
"FOUR LEAVES WINERY","FOUR LEAVES WINERY","Sales Room Wine","03-00210","2021-10-28T00:00:00.000","528 MAIN AVENUE","Durango","CO","81301"
"ATOM BREWING COMANY INC","ATOM BREWING COMPANY INC","Sales Room Malt","03-05419","2020-10-27T00:00:00.000","654 MOFFAT STREET","Erie","CO","80516"
"PLUM CREEK CELLARS LTD","PLUM CREEK CELLARS LTD","Sales Room Wine","08-73348-0003","2021-01-16T00:00:00.000","1512 LARIMER  #14","Denver","CO","80202"
"TWO BROTHERS VINEYARDS, LLC","BLACK FOREST MEADERY","Sales Room Wine","03-03235","2021-07-15T00:00:00.000","6755 SHOUP ROAD UNIT A","Colorado Springs","CO","80908"
"BLUE TILE BREWING","BLUE TILE BREWING","Sales Room Malt","03-09761","2021-07-09T00:00:00.000","1609 EAST 58TH AVENUE","Denver","CO","80216"
,"OLD TOWN DISTILLING CO","Sales Room Spirits","03-07481","2021-04-05T00:00:00.000","513 NORTH LINK LANE, UNIT E","Fort Collins","CO","80524"
"281 33 ROAD","THE PEACHFORK","Sales Room Wine","03-07114","2020-10-23T00:00:00.000","281 33 ROAD","Palisade","CO","81526"
"ANNAPURNA MEAD","ANNAPURNA MEAD","Sales Room Wine","03-05937","2021-01-13T00:00:00.000","40 MOUNT VIEW LANE SUITE F","Colorado Springs","CO","80907"
"EPIC BREWING","EPIC BREWING COMPANY & PAKKA HARD SELTZER COMPANY","Sales Room Malt","03-01189","2021-04-25T00:00:00.000","3001 WALNUT STREET","Denver","CO","80205"
"MONKSHOOD CELLARS","MONKSHOOD CELLARS","Sales Room Wine","03-06799","2021-08-18T00:00:00.000","107 WILLIAMS STREET","Minturn","CO","81645"
"TELLURIDE BREWING CO","TELLURIDE BREWING COMPANY","Sales Room Malt","25-59705-0002","2021-06-14T00:00:00.000","156 DEF SOCIETY DRIVE","Telluride","CO","81435"
"DURANGO CRAFT SPIRITS","DURANGO CRAFT SPIRITS","Sales Room Spirits","03-03548","2021-09-21T00:00:00.000","1120 MAIN AVENUE SUITE 2","Durango","CO","81301"
"UTE MTN INDIAN TRADING CO","GUY DREW VINEYARDS/CROOKED CREEK","Sales Room Wine","07-61090-0007","2021-08-14T00:00:00.000","27601 EAST HIGHWAY 160","Cortez","CO","81321"
"PEAK SPIRITS","PEAK SPIRITS","Sales Room Spirits","26-59877-0001","2021-08-10T00:00:00.000","26567 NORTH ROAD","Hotchkiss","CO","814193104"
"NOCO DISTILLERY","NOCO DISTILLERY","Sales Room Spirits","03-08332","2021-09-28T00:00:00.000","328 SOUTH LINK LANE UNIT 11","Fort Collins","CO","80524"
"GOLD DIRT DISTILLERY","GOLD DIRT DISTILLERY","Sales Room Spirits","03-08999","2020-10-17T00:00:00.000","275 TOLLAND ROAD UNIT A & B","Rollinsville","CO","80474"
"INVINTIONS A CREATIVE WINERY","INVINTIONS A CREATIVE WINERY","Sales Room Wine","28-66453-0000","2021-04-06T00:00:00.000","9608 EAST ARAPAHOE","Greenwood Village","CO","801123703"
"QUEEN BEE BREWS","QUEEN BEE BREWS","Sales Room Wine","03-05224","2020-12-15T00:00:00.000","800 EAST 64TH AVENUE #6","Denver","CO","80229"
"WESTFAX BREWING COMPANY","WESTFAX BREWING COMPANY","Sales Room Malt","03-05551","2020-12-23T00:00:00.000","6733 WEST COLFAX AVENUE","Lakewood","CO","80214"
"BEAR CREEK DISTILLERY","BEAR CREEK DISTILLERY","Sales Room Spirits","03-01250","2021-05-06T00:00:00.000","1879 SOUTH ACOMA STREET","Denver","CO","80223"
"HALE & BRADFORD LLC","HALE & BRADFORD LLC","Sales Room Spirits","03-09251","2021-02-25T00:00:00.000","335 MOUNTAIN AVENUE BERTHOUD","Berthoud","CO","80513"
"FRASER RIVER BREWING COMPANY","FRASER RIVER BREWING COMPANY","Sales Room Malt","03-11117","2021-04-17T00:00:00.000","218 EISENHOWER DRIVE","Fraser","CO","80442"
"ENDO BREWING COMPANY","ENDO BREWING COMPANY","Sales Room Malt","03-07412","2021-01-03T00:00:00.000","2755 DAGNY WAY SUITE #101","Lafayette","CO","80026"
"MARBLE DISTILLING COMPANY","MARBLE DISTILLING COMPANY LLC","Sales Room Spirits","03-03501","2020-09-10T00:00:00.000","150 MAIN STREET","Carbondale","CO","81623"
"CARLSON VINEYARDS","CARLSON VINEYARDS INC","Sales Room Wine","04-84123-0001","2021-08-15T00:00:00.000","545 MAIN STREET","Grand Junction","CO","81501"
"RESOLUTE BREWING COMPANY LLC","RESOLUTE BREWING COMPANY LLC","Sales Room Malt","03-11237","2021-05-05T00:00:00.000","18148 WEST 92ND LANE #100","Arvada","CO","80007"
"EQUINOX BREWING COMPANY INC","EQUINOX BREWING COMPANY INC","Sales Room Malt","25-54716-0002","2021-04-05T00:00:00.000","133 REMINGTON STREET","FT COLLINS","CO","805242833"
"BOOTSTRAP BREWING","BOOTSTRAP BREWING COMPANY","Sales Room Malt","03-07246","2021-11-29T00:00:00.000","142 PRATT STREET","Longmont","CO","80501"
"MOLSON COORS BEVERAGE COMPANY USA LLC","BLUE MOON BREWING COMPANY","Sales Room Malt","03-05395","2020-11-26T00:00:00.000","3750 CHESTNUT PLACE","Denver","CO","80216"
"THE FAMILY JONES LLC","THE FAMILY JONES","Sales Room Spirits","03-08169","2021-08-17T00:00:00.000","3245 OSAGE STREET","Denver","CO","80211"
"BOOKCLIFF VINEYARDS","BOOKCLIFF VINEYARDS","Sales Room Wine","24-95651-0001","2021-12-06T00:00:00.000","710 GRAND AVENUE UNIT 5","Glenwood Springs","CO","81601"
"CONTINENTAL DIVIDE WINERY/GOLD CREEK/NAVIGATOR","CONTINENTAL DIVIDE WINERY","Sales Room Wine","03-06730","2021-09-01T00:00:00.000","13164 SEAKNOLL COURT","San Diego","CA","92130"
"WELDWERKS BREWING","WELDWERKS BREWING COMPANY LLC","Sales Room Malt","03-03626","2022-10-02T00:00:00.000","508 8TH AVE","Greeley","CO","80634"
"FLYTECO BREWING","FLYTECO BREWING","Sales Room Malt","03-09087","2021-01-24T00:00:00.000","4499 WEST 38TH AVENUE SUITE 101","Denver","CO","80212"
"JACK  RABBIT HILL LLC","JACK RABBIT HILL FARM","Sales Room Wine","13-57008-0001","2021-09-05T00:00:00.000","26567 NORTH ROAD","Hotchkiss","CO","814193104"
"SNITCHING LADY DISTILLERY","SNITCHING LADY DISTILLERY LLC","Sales Room Spirits","03-09061","2021-02-20T00:00:00.000","526 A FRONT STREET","Fairplay","CO","80440"
"KEG 1 COLORADO LLC","KEG 1 COLORADO LLC","Sales Room Malt","03-12885","2021-02-10T00:00:00.000","1525 NEWPORT ROAD","Colorado Springs","CO","80926"
"5280 DISTILLING","5280 DISTILLING CORP","Sales Room Spirits","03-09646","2021-08-22T00:00:00.000","10488 WEST CENTENNIAL ROAD SUITE 900","Littleton","CO","80127"
"DENVER BEER CO ARVADA LLC","DENVER BEER CO","Sales Room Malt","03-13428","2021-06-08T00:00:00.000","5768 OLDE WADSWORTH BLVD","Arvada","CO","80002"
"TWO MILE BREWING LLC","TWO MILE BREWING LLC","Sales Room Malt","03-12717","2021-02-27T00:00:00.000","101 HARRISON AVENUE","Leadville","CO","80461"
"BLACK ARTS CELLARS","BLACK ARTS CELLARS","Sales Room Wine","03-03622","2021-10-06T00:00:00.000","11618 SHAFFER PLACE #S110","Littleton","CO","80127"
"CHAIN REACTION BREWING COMPANY","CHAIN REACTION BREWING COMPANY LLC","Sales Room Malt","03-02759","2021-05-01T00:00:00.000","902 SOUTH LIPAN STREET","Denver","CO","80223"
"BALL BREWING LLC","BALL BREWING","Sales Room Malt","03-12285","2020-11-26T00:00:00.000","7025 HIGHWAY 82, UNITS 1A & 2A","Glenwood Springs","CO","81601"
"OUR MUTUAL FRIEND BREWING","OUR MUTUAL FRIEND INC","Sales Room Malt","15-81249-0001","2021-07-31T00:00:00.000","2810 LARIMER STREET","Denver","CO","80205"
,"DURANGO BEER AND ICE COMPANY","Sales Room Malt","12-58397-0001","2021-09-24T00:00:00.000","3000 MAIN AVE","Durango","CO","81301"
"COLORADO SAKE CO.","COLORADO SAKE CO","Sales Room Wine","03-08860","2021-01-18T00:00:00.000","3559 LARIMER","Denver","CO","80205"
"BARNETT & SON BREWING CO","BARNETT & SON BREWING CO","Sales Room Malt","03-03552","2021-10-02T00:00:00.000","18425 PONY EXPRESS DRIVE #125","Parker","CO","80134"
"BOATHOUSE DISTILLERY LLC","BOATHOUSE DISTILLERY LLC","Sales Room Spirits","03-00900","2021-02-13T00:00:00.000","4840 VAN GORDON STREET UNIT 200","Wheat Ridge","CO","80033"
"OVER YONDER BREWING COMPANY","OVER YONDER BREWING COMPANY","Sales Room Malt","03-10802","2021-05-13T00:00:00.000","18455 WEST COLFAX AVENUE, SUITE 103","Golden","CO","80401"
"MOTHERTUCKER BREWERY","MOTHER TUCKER BREWERY","Sales Room Malt","03-06509","2021-06-27T00:00:00.000","2360 EAST 120TH AVENUE","Thornton","CO","80233"
"BIG FAT PASTOR SPIRITS","BIG FAT PASTOR SPIRITS","Sales Room Spirits","03-03129","2021-08-13T00:00:00.000","6754 NORTH FRANKLIN AVENUE","Loveland","CO","80538"
"HALFPENNY BREWING COMPANY","HALFPENNY BREWING COMPANY","Sales Room Malt","03-05715","2020-12-09T00:00:00.000","5150 EAST ARAPAHOE ROAD  UNIT D1-B","Centennial","CO","80122"
"CRAZY MOUNTAIN BREWING COMPANY","CRAZY MOUNTAIN BREWING COMPANY","Sales Room Malt","03-05456","2020-12-03T00:00:00.000","441-471 KALAMATH STREET","Denver","CO","80204"
"MARBLE DISTILLING COMPANY","MARBLE DISTILLING COMPANY LLC","Sales Room Spirits","03-03501","2020-09-10T00:00:00.000","415 EAST DEAN STREET","Carbondale","CO","81623"
"BRISTOL BREWING CO","BRISTOL BREWING COMPANY","Sales Room Malt","05-46646-0001","2021-05-14T00:00:00.000","1604 SOUTH CASCADE AVENUE","Colorado Springs","CO","80905"
"BIG THOMPSON BREWERY","BIG THOMPSON BREWERY","Sales Room Malt","03-02600","2021-03-13T00:00:00.000","114 EAST 15TH STREET","Loveland","CO","80538"
"OLD ELK","OLD ELK","Sales Room Spirits","03-03895","2020-12-07T00:00:00.000","253 LINDEN STREET","Fort Collins","CO","80521"
"VERSO CELLARS","VERSO CELLARS","Sales Room Wine","18-26226-0009","2021-02-18T00:00:00.000","1734 EAST EVANS AVENUE","Denver","CO","80204"
"RIVER NORTH BREWERY","RIVER NORTH BREWERY","Sales Room Malt","25-60670-0002","2021-10-23T00:00:00.000","6021 WASHINGTON STREET  UNIT A","Denver","CO","80216"
,"THE EMPOURIUM BREWING COMPANY","Sales Room Malt","03-11239","2021-02-20T00:00:00.000","4385 WEST 42ND AVENUE","Denver","CO","80212"
"RED SWING BREWHOUSE","RED SWING BREWHOUSE","Sales Room Malt","03-13158","2021-04-14T00:00:00.000","521 SOUTH TEJON STREET","Colorado Springs","CO","80903"
"HORSE & DRAGON BREWING COMPANY","HORSE & DRAGON BREWING COMPANY","Sales Room Malt","03-02409","2021-01-21T00:00:00.000","124 RACQUETTE DRIVE","Fort Collins","CO","80524"
"ZUNI STREET BREWING COMPANY","ZUNI STREET BREWING COMPANY","Sales Room Malt","03-06689","2021-08-18T00:00:00.000","2355 WEST 29TH AVENUE","Denver","CO","80211"
"HIGHLANDS DISTILLERY","HIGHLANDS DISTILLERY","Sales Room Spirits","03-06229","2021-04-10T00:00:00.000","782 24 ROAD","Grand Junction","CO","81505"
"NEW TERRAIN BREWING COMPANY","NEW TERRAIN BREWING COMPANY","Sales Room Malt","03-05809","2021-01-10T00:00:00.000","16401 TABLE MOUNTAIN PARKWAY","Golden","CO","80403"
"LAUNCH PAD BREWERY","LAUNCH PAD BREWERY","Sales Room Malt","03-04768","2021-07-16T00:00:00.000","884 SOUTH BUCKLEY ROAD","Aurora","CO","80017"
"LEOPOLD BROS","LEOPOLD BROS.","Sales Room Spirits","26-71718-0002","2021-07-10T00:00:00.000","5285 JOLIET STREET","Denver","CO","80239"
"TWO RIVERS WINERY","TWO RIVERS WINERY","Sales Room Wine","14-39419-0001","2021-08-18T00:00:00.000","2087 BROADWAY","Grand Junction","CO","81507"
"PARTS & LABOR BREWING COMPANY","PARTS & LABOR BREWING COMPANY","Sales Room Malt","03-07136","2020-11-14T00:00:00.000","402 MAIN STREET UNIT B","Sterling","CO","80751"
"SOMEPLACE ELSE BREWERY","SOMEPLACE ELSE BREWERY","Sales Room Malt","03-06388","2021-08-07T00:00:00.000","6425 WEST 52ND AVENUE UNIT 6","Arvada","CO","80002"
"JESSUP FARM BARREL HOUSE","JESSUP FARM BARREL HOUSE","Sales Room Malt","03-05472","2020-11-22T00:00:00.000","1921 JESSUP DRIVE","Fort Collins","CO","80525"
"DRATZ BREWING COMPANY","DRATZ BREWING COMPANY","Sales Room Malt","03-09346","2021-06-11T00:00:00.000","965 EAST 11TH STREET","Loveland","CO","80537"
"A B VISITORS TOWN CENTER","A B VISITORS TOWN CENTER","Sales Room Malt","01-25130-0002","2020-12-31T00:00:00.000","2351 BUSCH DR","Fort Collins","CO","805249400"
"OLD COLORADO BREWING COMPANY","OLD COLORADO BREWING COMPANY","Sales Room Malt","03-04472","2021-05-21T00:00:00.000","8121 1ST STREET","Wellington","CO","80549"
"MONTANYA DISTILLERS","MONTANYA DISTILLERS LLC","Sales Room Spirits","15-69344-0000","2021-04-23T00:00:00.000","212 ELK AVE","Crested Butte","CO","81224"
"GILDED GOAT BREWING COMPANY","GILDED GOAT BREWING COMPANY","Sales Room Malt","03-06377","2021-04-18T00:00:00.000","3500 SOUTH COLLEGE AVENUE UNIT 194","Fort Collins","CO","80525"
"HIDEAWAY PARK BREWERY","HIDEAWAY PARK BREWERY","Sales Room Malt","03-02795","2021-04-24T00:00:00.000","78927 US HIGHWAY 40","Winter Park","CO","80482"
"VERSO CELLARS @ METROPOLIS COFFEE","VERSO CELLARS","Sales Room Wine","18-26226-0009","2021-02-18T00:00:00.000","1661 CENTRAL AVENUE","Denver","CO","80204"
"NEXT STOP BREW CO","NEXT STOP BREW CO.","Sales Room Malt","03-06869","2021-09-13T00:00:00.000","925 WEST 8TH AVENUE","Denver","CO","80204"
,"CAMBER BREWING COMPANY LLC","Sales Room Malt","03-11476","2021-04-21T00:00:00.000","365 ZEREX STREET","Fraser","CO","80442"
"CREEKSIDE CELLARS","CREEKSIDE CELLARS","Sales Room Wine","12-31819-0001","2021-04-06T00:00:00.000","28036 HIGHWAY 74","Evergreen","CO","80439"
"ODD13 BREWING","ODD13 BREWING","Sales Room Malt","03-01453","2021-05-07T00:00:00.000","301 EAST SIMPSON STREET","Lafayette","CO","80026"
"COAL MINE AVE BREWING COMPANY","COAL MINE AVE BREWING COMPANY","Sales Room Malt","03-09486","2021-05-14T00:00:00.000","9719 WEST COAL MINE AVENUE UNIT A","Littleton","CO","80123"
"GREAT DIVIDE BREWING COMPANY","GREAT DIVIDE BREWING COMPANY","Sales Room Malt","03-03322","2021-10-15T00:00:00.000","2201 ARAPAHOE STREET","Denver","CO","80205"
"PEAK 54 BREWING COMPANY LLC PEAK 54 BREWING COMPANY","RAILS END BEER COMPANY","Sales Room Malt","03-05719","2021-01-13T00:00:00.000","11625 REED COURT UNIT B","Broomfield","CO","80020"
"FOSSIL CRAFT BEER COMPANY","FOSSIL CRAFT BEER COMPANY","Sales Room Malt","03-02397","2021-01-27T00:00:00.000","2845 ORE MILL ROAD UNIT#S 1 & 2","Colorado Springs","CO","80904"
"BOOTSTRAP BREWING","BOOTSTRAP BREWING","Sales Room Malt","15-81194-0001","2021-05-08T00:00:00.000","6778 NORTH 79TH STREET","Longmont","CO","80503"
"DREKAR MEADERY, LLC","DREKAR MEADERY LLC","Sales Room Wine","03-11750","2021-08-01T00:00:00.000","908 North Circle Drive Unit E","Colorado Springs","CO","80909"
"AVANT GARDE ALEWORKS LLC","AVANT GARDE ALEWORKS LLC","Sales Room Malt","03-10999","2021-04-02T00:00:00.000","920 DUNRAVEN STREET","Estes Park","CO","80517"
"WILD WOMEN WINERY","WILD WOMEN WINERY","Sales Room Wine","42-50616-0001","2021-07-02T00:00:00.000","1660 CHAMPA STREET","Denver","CO","80202"
"PURGATORY CELLARS","PURGATORY CELLARS","Sales Room Wine","03-10300","2020-09-26T00:00:00.000","30 WEST SPRINGER DRIVE","Highlands Ranch","CO","80129"
"ANHEUSER BUSCH","AMERICAN EAGLE DISTRIBUTING CO","Sales Room Malt","03-05403","2021-09-17T00:00:00.000","3800 CLYDESDALE PARKWAY","Loveland","CO","80538"
"OSKAR BLUES BREWERY","OSKAR BLUES BREWERY","Sales Room Malt","03-02261","2021-02-17T00:00:00.000","1800 PIKE ROAD","Longmont","CO","80501"
"DOWNSLOPE DISTILLING INC","DOWNSLOPE DISTILLING INC","Sales Room Spirits","42-72130-0000","2021-02-24T00:00:00.000","6770 SOUTH DAWSON CIRCLE #400","Englewood","CO","801124224"
"CLEAR FORK CIDER","CLEAR FORK CIDER","Sales Room Wine","03-06464","2021-06-12T00:00:00.000","13395 BRAUN ROAD","Denver","CO","80401"
"THE OBC WINE PROJECT","THE OBC WINE PROJECT","Sales Room Wine","03-12302","2021-02-12T00:00:00.000","824 EAST LINCOLN AVENUE","Fort Collins","CO","80524"
"SNOWBANK BREWING","SNOWBANK BREWING","Sales Room Malt","03-02637","2021-03-05T00:00:00.000","225 NORTH LEMAY AVENUE  SUITE 1","Fort Collins","CO","80524"
"MOLSON COORS BEVERAGE CO","MOLSON COORS BEVERAGE CO","Sales Room Malt","28-57986-0010","2021-06-30T00:00:00.000","300 12TH STREET","Golden","CO","804015811"
"AXE AND THE OAK DISTILLERY LLC","AXE AND THE OAK DISTILLERY LLC","Sales Room Spirits","03-02951","2021-05-29T00:00:00.000","1604 SOUTH CASCADE AVENUE SUITE 80","Colorado Springs","CO","80905"
"ASPEN PEAK CELLARS","ASPEN PEAK CELLARS","Sales Room Wine","15-70398-0002","2021-02-25T00:00:00.000","60750 US HIGHWAY 285","Bailey","CO","80421"
"COCKPIT CRAFT DISTILLERY, LLC","COCKPIT CRAFT DISTILLERY","Sales Room Spirits","03-05447","2020-12-21T00:00:00.000","4893 GALLEY ROAD","Colorado Springs","CO","80915"
"BIG B'S HARD CIDER","BIG B'S HARD CIDER","Sales Room Wine","28-62394-0001","2021-04-29T00:00:00.000","386 HIGH STREET","Hotchkiss","CO","81419"
"NEW PLANET BEER COMPANY","NEW PLANET BEER COMPANY","Sales Room Malt","42-72782-0000","2021-07-15T00:00:00.000","1280 WEST 47TH AVENUE","Denver","CO","80211"
"BRECKENRIDGE DISTILLERY","BRECKENRIDGE DISTILLERY","Sales Room Spirits","12-87527-0001","2021-04-15T00:00:00.000","1925 AIRPORT ROAD","Breckenridge","CO","80424"
"LOCUST CIDER","LOCUST CIDER","Sales Room Wine","03-10413","2021-06-19T00:00:00.000","5446 CONESTOGA COURT","Boulder","CO","80301"
"SPIRIT HOUNDS DISTILLERS","SPIRIT HOUND DISTILLERS","Sales Room Spirits","03-03278","2021-06-05T00:00:00.000","4196 UTE HIGHWAY","Lyons","CO","80540"
"BROKEN ARROW SPIRITS LLC","BROKEN ARROW SPIRITS LLC","Sales Room Spirits","03-04378","2021-09-30T00:00:00.000","15353 EAST HINSDALE CIRCLE UNIT C","Centennial","CO","80112"
"GROSSEN BART BREWERY","GROSSEN BART BREWERY","Sales Room Malt","03-01053","2021-06-03T00:00:00.000","1025 DELAWARE AVE","Longmont","CO","80501"
"MAD RUSSIAN BREWING COMPANY","MAD RUSSIAN BREWING COMPANY","Sales Room Malt","03-10985","2021-05-22T00:00:00.000","519 NORTH HIGHWAY 50 BUSINESS LOOP","Olathe","CO","81425"
"CHELUNA BREWING COMPANY","CHELUNA BREWING COMPANY","Sales Room Malt","03-05629","2020-12-27T00:00:00.000","2501 DALLAS STREET 148","Aurora","CO","80010"
"SIX AND FORTY BREWERY TAPROOM","SIX AND FORTY BREWERY TAPROOM","Sales Room Malt","03-09659","2021-04-23T00:00:00.000","883 PARFET STREET, UNITS I&J","Lakewood","CO","80215"
"CROOKED STAVE FORT COLLINS","CROOKED STAVE FORT COLLINS LLC","Sales Room Malt","03-10816","2021-01-29T00:00:00.000","216 NORTH COLLEGE AVENUE SUITE 130","Fort Collins","CO","80524"
"OHM BREWING INC","OHM BREWING INC","Sales Room Malt","03-11352","2021-04-25T00:00:00.000","1921 YOUNGFIELD STREET UNIT 210","Golden","CO","80401"
"HOGSHEAD BREWING","HOGSHEAD BREWERY","Sales Room Malt","42-98974-0001","2021-02-06T00:00:00.000","4460 WEST 29TH AVE","Denver","CO","802123015"
"WELDWERKS BREWING","WELDWERKS BREWING COMPANY LLC","Sales Room Malt","03-03626","2021-10-02T00:00:00.000","508 8TH AVE","Greeley","CO","80634"
"1350 DISTILLING","1350 DISTILLING","Sales Room Spirits","03-08876","2021-04-09T00:00:00.000","520 EAST PIKES PEAK AVENUE","Colorado Springs","CO","80903"
"VINO COLORADO WINERY","VINO COLORADO WINERY","Sales Room Wine","03-03480","2021-09-17T00:00:00.000","2845 ORE MILL ROAD UNIT #9","Colorado Springs","CO","80904"
"DRY DOCK BREWING CO","DRY DOCK BREWING CO","Sales Room Malt","03-02756","2021-06-29T00:00:00.000","2801 TOWER ROAD","Aurora","CO","80011"
"ODELL BREWING  COMPANY","ODELL BREWING CO INC","Sales Room Malt","03-45100-0002","2021-11-16T00:00:00.000","800 EAST LINCOLN AVE","Fort Collins","CO","805242507"
"TRVE BREWING CO","TRVE BREWING COMPANY","Sales Room Malt","15-81023-0001","2021-02-09T00:00:00.000","227 BROADWAY #101","Denver","CO","80203"
"OLD 121 BREWHOUSE","OLD 121 BREWHOUSE","Sales Room Malt","03-10791","2021-01-23T00:00:00.000","1057 SOUTH WADSWORTH BLVD SUITE 60","Lakewood","CO","80226"
"CUTTHROAT DISTILLERS","CUTTHROAT DISTILLERS","Sales Room Spirits","03-09649","2021-09-12T00:00:00.000","2300 EAST 77TH AVEUNUE UNIT 300","Denver","CO","80229"
"PEAKS N PINES BREWERY","PEAKS N PINES BREWERY","Sales Room Malt","03-11579","2021-05-15T00:00:00.000","4005 TUTT BOULEVARD","Colorado Springs","CO","80922"
"NEVER SUMMER BREWING CO","NEVER SUMMER BREWING CO","Sales Room Malt","03-06427","2021-05-17T00:00:00.000","62 EAST AGATE AVENUE","Granby","CO","80446"
"SWEET HEART WINERY","SWEETHEART CITY WINES","Sales Room Wine","42-87347-0000","2020-12-22T00:00:00.000","5500 WEST HIGHWAY 34","Loveland","CO","80537"
"MAXLINE BREWING","MAXLINE BREWING","Sales Room Malt","03-05575","2020-11-30T00:00:00.000","7238 FORT MORGAN DRIVE","Fort Collins","CO","80525"
"OASIS BREWERY","OASIS BREWERY","Sales Room Malt","03-07948","2021-10-12T00:00:00.000","3257 NORTH LOWELL BOULEVARD","Denver","CO","80211"
"BONFIRE BREWING","BONFIRE BREWING","Sales Room Malt","42-84839-0001","2021-08-29T00:00:00.000","127 WEST 2ND STREET","Eagle","CO","81631"
"ROCKER SPIRITS","ROCKER SPIRITS","Sales Room Spirits","03-05423","2020-11-18T00:00:00.000","5587 INDUSTRIAL PLACE, SUITE A","Littleton","CO","80120"
"VERY NICE BREWING COMPANY LLC","VERY NICE BREWING COMPANY LLC","Sales Room Malt","14-72983-0001","2021-05-31T00:00:00.000","20 LAKEVIEW DR UNIT 112","Nederland","CO","80466"
"BOCO CIDER","BOCO CIDER","Sales Room Wine","03-09847","2021-07-25T00:00:00.000","1501 LEE HILL DRIVE UNIT 14","Boulder","CO","80304"
"TWO22 BREW","TWO22 BREW","Sales Room Malt","03-01676","2021-07-23T00:00:00.000","4550 SOUTH RESERVOIR ROAD","Centennial","CO","80015"
"NEW BELGIUM BREWING CO","NEW BELGIUM BREWING CO","Sales Room Malt","09-69917-0001","2021-03-30T00:00:00.000","500 LINDEN STREET","Fort Collins","CO","80524"
"STATE 38 DISTILLING","STATE 38 DISTILLING","Sales Room Spirits","03-01425","2021-05-20T00:00:00.000","1123 WASHINGTON AVENUE","Golden","CO","80401"
"KINGMAN ENTERPRISES LLC KINGMAN ESTATES WINERY NIZA KNOLL GALLERY","KINGMAN ESTATES WINERY","Sales Room Wine","25-60933-0000","2021-11-10T00:00:00.000","915 SANTA FE DRIVE","Denver","CO","80204"
"KINGMAN ESTATES VINEYARDS/WINERIES","KINGMAN ESTATES WINERY","Sales Room Wine","25-60933-0000","2021-11-10T00:00:00.000","700 COLORADO BOULEVARD UNIT C","Denver","CO","80206"
"14ER BREWING","14ER BREWING","Sales Room Malt","03-06323","2021-05-24T00:00:00.000","3120 BLAKE STREET UNIT C","Denver","CO","80205"
"SMILING TOAD BREWING COMPANY","SMILING TOAD BREWING CO, INC.","Sales Room Malt","03-01123","2021-05-20T00:00:00.000","2028 SHELDON AVENUE","Colorado Springs","CO","80904"
"BLACK BRIDGE WINERY LLC","BLACK BRIDGE WINERY LLC","Sales Room Wine","26-49329-0003","2021-08-07T00:00:00.000","15836 BLACK BRIDGE ROAD","Paonia","CO","81428"
"GUBBINI WINE SHOP","GUBBINI WINERY","Sales Room Wine","42-83776-0000","2021-08-26T00:00:00.000","305 MAIN STREET UNIT 4","Palisade","CO","81526"
"SUN SPIRITS LLC","RISING SUN DISTILLERY","Sales Room Spirits","03-01930","2021-09-26T00:00:00.000","1330 ZUNI STREET UNIT J","Denver","CO","80204"
"GREEN MOUNTIAN BEER","GREEN MOUNTAIN BEER COMPANY","Sales Room Malt","03-05534","2020-11-30T00:00:00.000","2585 SOUTH LEWIS WAY SUITE 110","Lakewood","CO","80227"
"PEAK VIEW BREWING COMPANY","PEAK VIEW BREWING COMPANY","Sales Room Malt","03-10414","2021-02-06T00:00:00.000","9672 EAST ARAPAHOE ROAD","Greenwood Village","CO","80112"
"DISTILLERY 291","DISTILLERY 291 LLC","Sales Room Spirits","42-90642-0002","2021-06-14T00:00:00.000","1647 SOUTH TEJON STREET","Colorado Springs","CO","80905"
"CRYSTAL SPRINGS BREWING COMPANY","CRYSTAL SPRINGS BREWING COMPANY","Sales Room Malt","03-01600","2021-07-21T00:00:00.000","657 SOUTH TAYLOR AVE UNIT E","Louisville","CO","80027"
"DRY DOCK BREWING CO","DRY DOCK BREWING CO","Sales Room Malt","42-12824-0002","2021-08-31T00:00:00.000","15120 EAST HAMPDEN AVENUE","Aurora","CO","80014"
"COPPERMUSE DISTILLERY","COPPERMUSE DISTILLERY","Sales Room Spirits","03-02113","2021-11-24T00:00:00.000","244 NORTH COLLEGE AVE","Fort Collins","CO","80524"
"KNOTTED ROOT BREWING COMPANY","KNOTTED ROOT BREWING COMPANY","Sales Room Malt","03-09612","2021-05-13T00:00:00.000","250 NORTH CARIBOU STREET","Nederland","CO","80466"
,"WESTMINSTER BREWING COMPANY","Sales Room Malt","03-10843","2021-03-13T00:00:00.000","7655 WEST 108TH AVENUE SUITE 600","Westminster","CO","80021"
"RISING SUN DISTILLERY","RISING SUN DISTILLERY","Sales Room Spirits","03-01930","2021-09-26T00:00:00.000","1330 ZUNI STREET UNIT J","Denver","CO","80204"
"THE BLOCK DISTILLING CO LLC","THE BLOCK DISTILLING CO. LLC","Sales Room Spirits","03-06990","2020-10-03T00:00:00.000","2990 LARIMER STREET","Denver","CO","80205"
"LONE TREE BREWING COMPANY INC","LONE TREE BREWING COMPANY INC","Sales Room Malt","42-97088-0002","2021-10-23T00:00:00.000","8222 PARK MEADOWS DRIVE","Lone Tree","CO","80124"
"RED LEG BREWING CO","RED LEG BREWING COMPANY","Sales Room Malt","03-01257","2021-05-07T00:00:00.000","4630 FORGE ROAD STE B","Colorado Springs","CO","80907"
"FUNKWERKS","FUNKWERKS","Sales Room Malt","15-75022-0002","2020-11-23T00:00:00.000","1900 EAST LINCOLN AVE UNIT B","Fort Collins","CO","80524"
"WATERS EDGE WINERY","WATERS EDGE WINERY","Sales Room Wine","03-03519","2020-09-10T00:00:00.000","2101 EAST ARAPAHOE ROAD  SUITE 101","Centennial","CO","80122"
"ASHER BREWING COMPANY","ASHER BREWING COMPANY LLC","Sales Room Malt","12-85475-0001","2020-11-16T00:00:00.000","4699 NAUTILUS COURT SUITE 104","Boulder","CO","80301"
"ATREVIDA BEER COMPANY","ATREVIDA BEER COMPANY","Sales Room Malt","03-09539","2021-05-09T00:00:00.000","204 MOUNT VIEW LANE #3, #4, #5","Colorado Springs","CO","80907"
"COLORADO VINTNER'S COLLECTIVE LLC","COLORADO VINTNER'S COLLECTIVE LLC","Sales Room Wine","03-12946","2021-04-02T00:00:00.000","3674 G ROAD","Palisade","CO","81526"
"DIEBOLT BREWING COMPANY LLC","DIEBOLT BREWING COMPANY, LLC","Sales Room Malt","03-01145","2021-04-14T00:00:00.000","3855 MARIPOSA STREET","Denver","CO","80211"
"TEAL CIDER","TEAL CIDER","Sales Room Wine","03-06935","2021-09-22T00:00:00.000","17999 ROAD 23","Dolores","CO","81323"
"STORM PEAK BREWING COMPANY","STORM PEAK BREWING COMPANY","Sales Room Malt","03-02540","2021-02-28T00:00:00.000","1885 ELK RIVER PLAZA","Steamboat Springs","CO","80487"
"FH BEERWORKS","FH BEERWORKS","Sales Room Malt","03-10287","2020-10-09T00:00:00.000","2480 & 2490 VICTOR PLACE","Colorado Springs","CO","80915"
,"BLUE VALLEY SPIRITS LLC","Sales Room Spirits","03-11518","2021-07-30T00:00:00.000","207 CENTRAL AVENUE SOUTH EAST QUADRANT","Kremmling","CO","80459"
"HERMOSA VINEYARDS","HERMOSA VINEYARDS","Sales Room Wine","40-85372-0000","2021-12-05T00:00:00.000","3269 3/4 C ROAD","Palisade","CO","815269529"
"CASEY BREWING AND BLENDING LLC","CASEY BREWING AND BLENDING LLC","Sales Room Malt","03-02668","2021-03-27T00:00:00.000","3421 GRAND AVE SUITE E","Glenwood Springs","CO","81601"
"DENVER WHISKEY COMPANY","TIGHE BROTHERS DISTILLERY","Sales Room Spirits","03-04520","2021-08-31T00:00:00.000","4200 MILWAUKEE STREET","Denver","CO","80216"
"MYSTIC MOUNTAIN DISTILLERY LLC","MYSTIC MOUNTAIN DISTILLERY LLC","Sales Room Spirits","28-53034-0000","2021-09-09T00:00:00.000","12136 GRANT CIRCLE","Thornton","CO","80241"
"BRECKENRIDGE BREWERY","BRECKENRIDGE BREWERY","Sales Room Malt","03-06033","2021-03-20T00:00:00.000","2920 BREWERY LANE","Littleton","CO","80120"
"TWISTED PINE BREWING COMPANY","TWISTED PINE BREWING","Sales Room Malt","09-75648-0001","2021-05-30T00:00:00.000","3201 WALNUT ST SUITE A","Boulder","CO","803102642"
"HIGH PLAINS WINERY,HPW,HP WINERY","HIGH PLAINS WINERY, HP WINERY, HPW","Sales Room Wine","03-06205","2021-03-14T00:00:00.000","312 MAIN STREET UNIT A","Sterling","CO","80751"
"GOAT PATCH BREWING CO","GOAT PATCH BREWING CO","Sales Room Malt","03-07036","2021-10-20T00:00:00.000","2727 NORTH CASCADE AVENUE SUITES 117, 120, & 123","Colorado Springs","CO","80907"
"KINGMAN ESTATES WINERY","KINGMAN ESTATES WINERY","Sales Room Wine","25-60933-0000","2021-11-10T00:00:00.000","7326 WASHINGTON STREET","Denver","CO","80229"
"10 BARREL BREWING","10 BARREL BREWING","Sales Room Malt","03-06348","2021-06-15T00:00:00.000","2620 WALNUT STREET","Denver","CO","80205"
"GRANDE RIVER VINEYARDS","GRANDE RIVER VINEYARDS","Sales Room Wine","04-93413-0001","2021-02-12T00:00:00.000","787 NORTH ELBERTA AVE","Palisade","CO","81526"
"GUBBINI WINERY","GUBBINI WINERY","Sales Room Wine","42-83776-0000","2021-08-26T00:00:00.000","3697 F ROAD","Palisade","CO","815269327"
"CASTLE ROCK BEER COMPANY","IRON MULE BREWERY","Sales Room Malt","03-05096","2020-11-18T00:00:00.000","514 PERRY STREET C106","Castle Rock","CO","80104"
"AZURA CELLARS","AZURA CELLARS","Sales Room Wine","09-87044-0000","2020-10-08T00:00:00.000","16764 FARMERS MINE ROAD","Paonia","CO","81428"
"RATIO BEERWORKS","RATIO BEERWORKS","Sales Room Malt","03-08088","2021-05-18T00:00:00.000","2920 LARIMER STREET","Denver","CO","80205"
"HOLIDAILY BREWING COMPANY","HOLIDAILY BREWING COMPANY","Sales Room Malt","03-04522","2021-06-15T00:00:00.000","801 BRICKYARD CIRCLE UNIT B","Golden","CO","80403"
"ENDLESS ENDEAVOR WINERY AND FARM LLC","ENDLESS ENDEAVOR WINERY","Sales Room Wine","03-08713","2021-04-11T00:00:00.000","15566 FIRE MOUNTAIN ROAD","Paonia","CO","81428"
"LEFT HAND BREWING COMPANY","LEFT HAND BREWING CO / TABERNASH BREWING CO","Sales Room Malt","02-85547-0001","2020-12-12T00:00:00.000","1265 BOSTON AVENUE","Longmont","CO","80503"
"PALISADE SALES ROOM","COLORADO WINE ROOM","Sales Room Wine","41-97969-0001","2021-02-08T00:00:00.000","785 ELBERTA AVE","Palisade","CO","81526"
"PARADOX BEER COMPANY INC","PARADOX BEER COMPANY INC","Sales Room Malt","12-94602-0002","2021-03-31T00:00:00.000","10 BUFFALO COURT","Divide","CO","80814"
"BRUZ BEERS","BRUZ BEERS","Sales Room Malt","03-05798","2021-01-12T00:00:00.000","1675 WEST 67TH AVENUE  UNIT 100","Denver","CO","80221"
"MILE HIGH SPIRITS","MILE HIGH SPIRITS LLC","Sales Room Spirits","42-86579-0002","2021-08-30T00:00:00.000","2201 LAWRENCE STREET","Denver","CO","80205"
"TRES LITROS BEER COMPANY","TRES LITROS BEER COMPANY LLC","Sales Room Malt","03-11506","2021-09-26T00:00:00.000","118 NORTH E STREET","Salida","CO","81201"
"AVANT VINEYARDS INC","AVANT VINEYARDS INC","Sales Room Wine","15-64836-0000","2021-02-05T00:00:00.000","3480 E ROAD","Palisade","CO","81526"
"CROOKED STAVE ARTISAN BEER PROJECT","CROOKED STAVE","Sales Room Malt","42-87822-0000","2020-12-09T00:00:00.000","1441 WEST 46TH AVE UNIT 19","Denver","CO","80211"
"CARLSON VINEYARDS","CARLSON VINEYARDS INC","Sales Room Wine","04-84123-0001","2021-08-15T00:00:00.000","461  35  ROAD","Palisade","CO","815269518"
"FIRST CORKED LLC","SILVER VINES WINERY","Sales Room Wine","03-09526","2021-05-02T00:00:00.000","6340 WEST 56TH AVENUE #5","Arvada","CO","80002"
"SOUL SQUARED BREWING COMPANY INC","SOUL SQUARED BREWING COMPANY","Sales Room Malt","03-03271","2021-03-15T00:00:00.000","6421 WEST COUNTY ROAD 15","Fort Collins","CO","80524"
"5507 DISTILLING LLC","TOWER 56 DISTILLING","Sales Room Spirits","03-09549","2021-04-11T00:00:00.000","825 9TH STREET UNIT B","Greeley","CO","80631"
"DEEP ROOTS WINERY","DEEP ROOTS WINERY","Sales Room Wine","03-07739","2021-09-27T00:00:00.000","1516 WAZEE STREET","Denver","CO","80202"
"STEM CIDERS","STEM CIDERS LLC","Sales Room Wine","03-01843","2020-11-05T00:00:00.000","2811 WALNUT STREET  SUITE 150","Denver","CO","80205"
"WOOD'S HIGH MOUNTAIN DISTILLERY","WOOD'S HIGH MOUNTAIN DISTILLERY","Sales Room Spirits","03-00270","2020-11-01T00:00:00.000","2845 WALNUT","Denver","CO","80205"
"CLIMB HARD CIDER COMPANY","CLIMB HARD CIDER COMPANY","Sales Room Wine","03-00761","2021-02-04T00:00:00.000","914 SOUTH COLLEGE AVENUE","Fort Collins","CO","80521"
"WONDERLAND BREWING CO","WONDERLAND BREWING COMPANY LLC","Sales Room Malt","03-02460","2021-03-27T00:00:00.000","5450 WEST 120TH AVENUE","Broomfield","CO","80020"
"ZWEI BREWING CO","ZWEI  BREWING CO","Sales Room Malt","03-02354","2021-01-22T00:00:00.000","4612 SOUTH MASON ST STE 120","Fort Collins","CO","80525"
"DEVIL'S HEAD DISTILLERY","DEVIL'S HEAD DISTILLERY","Sales Room Spirits","03-03525","2021-10-07T00:00:00.000","3296 SOUTH ACOMA STREET","Englewood","CO","80110"
"ADAMANT BREWING COMPANY","ADAMANT BREWING COMPANY","Sales Room Malt","03-10960","2021-03-13T00:00:00.000","1001 LEE HILL DRIVE UNIT 10","Boulder","CO","80302"
"GARFIELD ESTATES VINEYARD","GARFIELD ESTATES VINEYARD","Sales Room Wine","40-77166-0001","2021-08-15T00:00:00.000","3572 G ROAD","Palisade","CO","815269789"
"COLORADO CELLARS WINERY","COLORADO CELLARS","Sales Room Wine","04-84161-0005","2021-08-22T00:00:00.000","3553 E ROAD","Palisade","CO","81526"
"INDUSTRIAL REVOLUTION BREWING","INDUSTRIAL REVOLUTION BREWING COMPANY LLC THE","Sales Room Malt","03-01611","2021-08-14T00:00:00.000","285 CHEESMAN STREET","Erie","CO","805161344"
"LITTLE MACHINE BREW HOUSE","LITTLE MACHINE BEER","Sales Room Malt","03-04351","2021-03-12T00:00:00.000","2924 WEST 20TH AVE","Denver","CO","80211"
"VINNIE FERA","VINNIE FERA","Sales Room Wine","03-01153","2021-04-14T00:00:00.000","3012 STERLING CIRCLE SUITE 110","Boulder","CO","80301"
"MOUNTAIN SPIRIT WINERY","MOUNTAIN SPIRIT WINERY","Sales Room Wine","03-68365-0001","2021-07-12T00:00:00.000","15750 COUNTY ROAD 220","Salida","CO","81201"
"LAWS WHISKEY HOUSE","LAWS WHISKEY HOUSE","Sales Room Spirits","13-81457-0000","2021-05-26T00:00:00.000","1420 SOUTH ACOMA STREET","Denver","CO","80223"
"LONG TABLE BREWING COMPANY","LONG TABLE BREWING COMPANY","Sales Room Malt","03-09257","2021-02-19T00:00:00.000","2895 FAIRFAX STREET","Denver","CO","80207"
"APPLE VALLEY ORCHARDS LLC","JENKINS FARMS","Sales Room Wine","03-11676","2021-05-23T00:00:00.000","1112 4TH STREET PENTROSE","Penrose","CO","81240"
"D/B/A BANDED OAK BREWING","BANDED OAK BREWING COMPANY","Sales Room Malt","03-05179","2021-10-04T00:00:00.000","470 BROADWAY","Denver","CO","80203"
"HONNIBROOK","HONNIBROOK","Sales Room Wine","03-09661","2021-11-05T00:00:00.000","2276 MANATT, UNIT B9","Castle Rock","CO","80104"
"RALLY KING BREWING","RALLY KING BREWING","Sales Room Malt","03-04634","2021-06-19T00:00:00.000","1624 SOUTH LEMAY AVENUE UNIT 4","Fort Collins","CO","80525"
"GREEN EARTH BREWING CO","GREEN EARTH BREWING CO","Sales Room Malt","03-08371","2020-10-10T00:00:00.000","725 10TH STREET","GREELEY","CO","80631"
"WEASEL TAP ROOM","OSKAR BLUES BREWERY","Sales Room Malt","28-54198-0002","2020-12-23T00:00:00.000","1800 PIKE ROAD","Longmont","CO","80501"
"WHAT WE LOVE - THE WINERY","DECADENT SAINT","Sales Room Wine","03-01285","2021-05-20T00:00:00.000","1849 CHERRY STREET UNIT 3 & 4","Louisville","CO","80027"
"BURNS FAMILY ARTISAN ALES","BURNS FAMILY ARTISAN ALES","Sales Room Malt","03-09866","2021-07-09T00:00:00.000","2505 WEST 2ND AVENUE, UNITS 12 & 13","Denver","CO","80219"
"MIGHTY RIVER BREWING COMPANY","MIGHTY RIVER BREWING COMPANY","Sales Room Malt","03-09851","2021-08-29T00:00:00.000","6383 FAIRGROUNDS AVENUE BUILDING 1 UNIT B","Windsor","CO","80550"
"PECULIER ALES LLC","PECULIER ALES","Sales Room Malt","03-13268","2021-06-25T00:00:00.000","301 MAIN STREET","Windsor","CO","80550"
"THE INFINITE MONKEY","THE INFINITE MONKEY THEOREM","Sales Room Wine","15-67098-0001","2021-07-29T00:00:00.000","3200 LARIMER STREET","Denver","CO","80205"
"LOVELAND ALEWORKS","LOVELAND ALEWORKS","Sales Room Malt","03-00508","2020-12-05T00:00:00.000","118 WEST 4TH STREET","Loveland","CO","80537"
"WILD WOODS BREWING INC","WILD WOODS BREWERY INC","Sales Room Malt","28-73934-0001","2021-03-31T00:00:00.000","5460 CONESTOGA COURT","Boulder","CO","80301"
"METRIC BREWING","METRIC BREWING","Sales Room Malt","03-09959","2021-06-26T00:00:00.000","1213 NORTH CIRCLE DRIVE","Colorado Springs","CO","80909"
"NOVEL STRAND BREWING COMPANY","NOVEL STRAND BREWING COMPANY","Sales Room Malt","03-09598","2021-06-25T00:00:00.000","305 WEST 1ST AVENUE","Denver","CO","80223"
"SAINT VRAIN VINEYARD AND WINERY","SAINT VRAIN VINEYARDS","Sales Room Wine","26-47142-0000","2021-01-14T00:00:00.000","1633 SOUTH HWY 287","Berthoud","CO","80513"
"BOOKCLIFF VINEYARDS","BOOKCLIFF VINEYARDS","Sales Room Wine","24-95651-0001","2021-12-06T00:00:00.000","1501 LEE HILL ROAD #17","Boulder","CO","803040583"
"GRIMM BROTHERS BREWHOUSE","GRIMM BROTHERS BREWHOUSE LLC","Sales Room Malt","42-80838-0001","2021-04-25T00:00:00.000","623 NORTH DENVER AVENUE","Loveland","CO","80537"
"DE STEEG BREWING","DE STEEG BREWING","Sales Room Malt","03-01612","2021-06-19T00:00:00.000","4342 TENNYSON STREET","Denver","CO","80212"
"REVOLUTION BREWING","PAONIA UNITED BREWING CO.","Sales Room Malt","12-75388-0001","2021-03-09T00:00:00.000","325 GRAND AVE","Paonia","CO","81428"
"COLTERRIS","COLTERRIS WINERY/COLTERRIS WINES","Sales Room Wine","42-80284-0001","2021-05-02T00:00:00.000","3548 EAST 1/2 ROAD STE C","Palisade","CO","81526"
"WOOD'S HIGH MOUNTIAN DISTILLERY","WOOD'S HIGH MOUNTAIN DISTILLERY","Sales Room Spirits","03-00270","2020-11-01T00:00:00.000","144 WEST 1ST STREET","Salida","CO","81201"
"3 HUNDRED DAYS DISTILLING","3 HUNDRED DAYS DISTILLING","Sales Room Spirits","03-03188","2021-07-13T00:00:00.000","2845 WALNUT","Denver","CO","80205"
"ALPINE DOG BREWING CO","ALPINE DOG BREWING COMPANY","Sales Room Malt","03-02550","2021-04-28T00:00:00.000","1505 OGDEN STREET","Denver","CO","80218"
"DOS LUCES BREWERY","DOS LUCES BREWERY","Sales Room Malt","03-08559","2021-07-02T00:00:00.000","1236 SOUTH BROADWAY","Denver","CO","80210"
"MAD RABBIT DISTILLERY","HIGH PROOF DISTILLERY","Sales Room Spirits","03-05348","2020-12-13T00:00:00.000","10860 DOVER STREET SUITE 2000","Westminster","CO","80021"
"AMALGAM BREWING","AMALGAM BREWING LLC","Sales Room Malt","03-08302","2021-08-21T00:00:00.000","6381 BEACH STREET  UNIT A","Denver","CO","80221"
"10TH MOUNTAIN WHISKEY AND SPIRITS COMPANY LLC","10TH MOUNTAIN WHISKEY AND SPIRIT COMPANY LLC","Sales Room Spirits","03-03016","2021-06-13T00:00:00.000","227 BRIDGE STREET UNIT F","Vail","CO","81657"
"VINO COLORADO WINERY","VINO COLORADO WINERY","Sales Room Wine","03-03480","2021-09-17T00:00:00.000","2502 WEST COLORADO AVENUE","Colorado Springs","CO","80904"
"FENCELINE CIDFER","FENCELINE CIDER","Sales Room Wine","03-08674","2021-01-16T00:00:00.000","141 SOUTH MAIN STREET UNIT C","Mancos","CO","81328"
"DEAN & CO.","GOLD BUCKLE BREWERY","Sales Room Malt","03-05936","2021-03-03T00:00:00.000","201 GRANT AVENUE","La Junta","CO","81050"
"SPERO WINERY","SPERO WINERY AKA VINO E BUONO","Sales Room Wine","03-04476","2021-07-23T00:00:00.000","3316 WEST 64TH AVENUE","Denver","CO","80221"
"LOCAL DISTILLING","LOCAL DISTILLING","Sales Room Spirits","14-72741-0000","2021-03-04T00:00:00.000","417 VIOLET STREET","Golden","CO","804016713"
"LOHI DISTILLED LLC","MYTHOLOGY DISTILLERY","Sales Room Spirits","03-12363","2021-03-11T00:00:00.000","3622 TEJON STREET","Denver","CO","80211"
"THE ELIZABETH BREWING COMPANY","THE ELIZABETH BREWING COMPANY","Sales Room Malt","03-10389","2021-10-28T00:00:00.000","239 SOUTH MAIN STREET","Elizabeth","CO","80107"
"HAYKIN FAMILY CIDER","HAYKIN FAMILY CIDER","Sales Room Wine","03-08089","2021-08-24T00:00:00.000","12001 EAST 33RD AVENUE","Aurora","CO","80010"
"CHILL SWITCH WINES","CHILL SWITCH WINES","Sales Room Wine","03-02311","2021-04-09T00:00:00.000","24621 TANNIN ROAD","Cedaredge","CO","81413"
"LUMPY RIDGE BREWING COMPANY","LUMPY RIDGE BREWING COMPANY LLC","Sales Room Malt","03-04284","2021-03-03T00:00:00.000","531 SOUTH SAINT VRAIN AVENUE","Estes Park","CO","80517"
"VISION QUEST BREWING COMPANY","VISION QUEST BREWING COMPANY","Sales Room Malt","03-04275","2021-04-29T00:00:00.000","2510 47TH STREET UNIT A2","Boulder","CO","80301"
"STEM CIDERS","STEM CIDERS","Sales Room Wine","03-09098","2021-01-25T00:00:00.000","1380 HORIZON AVENUE UNIT A & C","Lafayette","CO","80026"
"ELKINS DISTILLING COMPANY , LLC D/B/A/ ELKINS WHISKEY","ELKINS WHISKEY","Sales Room Spirits","03-05084","2021-09-20T00:00:00.000","1825 NORTH LAKE AVENUE","Estes Park","CO","80517"
"LIVING THE DREAM BREWING","LIVING THE DREAM BREWING COMPANY LLC","Sales Room Malt","03-02703","2021-04-09T00:00:00.000","12305 DUMONT WAY  UNIT A","Littleton","CO","80125"
"BUCKEL FAMILY WINE","BUCKEL FAMILY WINE","Sales Room Wine","03-07474","2021-08-30T00:00:00.000","1018 HIGHWAY 135 Unit B & D","Gunnison","CO","81230"
"BLUE MOUNTAIN VINEYARDS","BLUE MOUNTAIN VINEYARDS","Sales Room Wine","42-54818-0001","2021-11-14T00:00:00.000","4480 HOOT OWL DRIVE","Berthoud","CO","80513"
"GOLDEN MOON DISTILLERY","GOLDEN MOON DISTILLERY","Sales Room Spirits","03-00265","2020-10-17T00:00:00.000","412 VIOLET STREET","Golden","CO","80401"
"SQUARE PEG BREWERKS LLC","SQUARE PEG BREWERKS","Sales Room Malt","03-13041","2021-05-31T00:00:00.000","123 MAIN STREET","Creede","CO","81130"
"SNOW CAPPED CIDER","SNOW CAPPED CIDER","Sales Room Wine","03-06167","2021-03-16T00:00:00.000","250 SOUTH GRAND MESA DRIVE","Cedaredge","CO","81413"
"RICKOLI'S","RICKOLI'S","Sales Room Malt","03-00587","2021-10-25T00:00:00.000","4335 WADSWORTH BLVD","Wheat Ridge","CO","80033"
"YAMPA VALLEY BREWING COMPANY LLC","YAMPA VALLEY BREWING COMPANY","Sales Room Malt","03-12344","2021-01-27T00:00:00.000","200 NORTH WALNUT STREET","Hayden","CO","81639"
"WOODS BOSS BREWING COMPANY","WOODS BOSS BREWING COMPANY","Sales Room Malt","03-07139","2020-11-06T00:00:00.000","2210 CALIFORNIA STREET","Denver","CO","80205"
"THE HEART DISTILLERY","THE HEART DISTILLERY","Sales Room Spirits","03-08678","2021-02-27T00:00:00.000","6461 HIGHWAY 392","Windsor","CO","80550"
"CELLAR WEST ARTISAN ALES LLC","CELLAR WEST ARTISAN ALES","Sales Room Malt","03-06747","2021-07-28T00:00:00.000","1001 LEE HILL DRIVE #10","Boulder","CO","80302"
"WATER 2 WINE","WATER 2 WINE","Sales Room Wine","42-45898-0000","2021-02-01T00:00:00.000","8130 SOUTH UNIVERSITY BLVD #110","Littleton","CO","801225106"
"SPARGE BREWING, LLC","SPARGE BREWING, LLC","Sales Room Malt","03-10734","2021-03-03T00:00:00.000","3999 GW BUSCH AVENUE, UNIT A","Wellington","CO","80549"
"MAISON DE SAISON LLC","CHRYSALIS BARREL AGED BEER","Sales Room Malt","03-12499","2020-11-12T00:00:00.000","201 A FIRST STREET","Paonia","CO","81428"
"ELKINS WHISKEY","ELKINS WHISKEY","Sales Room Spirits","03-05084","2021-09-20T00:00:00.000","137 EAST ELKHORN AVENUE","Estes Park","CO","80517"
"MONTE CERVINO BEVERAGE COMPANY","MONTE CERVINO BEVERAGE COMPANY","Sales Room Wine","03-03105","2021-07-18T00:00:00.000","4655 TOWN CENTER DRIVE STE 130","Colorado Springs","CO","80916"
"UPSLOPE BREWING COMPANY","UPSLOPE BREWING COMPANY","Sales Room Malt","03-01321","2021-04-14T00:00:00.000","1898 SOUTH FLATIRON COURT SUITE 120","Boulder","CO","80301"
"CLIMB HARD CIDER COMPANY","CLIMB HARD CIDER COMPANY","Sales Room Wine","03-00761","2021-02-04T00:00:00.000","2707 WEST EISENHOWER BLVD UNIT 3","Loveland","CO","80537"
"SPOONS BISTRO & BAKERY","TWO RIVERS WINERY","Sales Room Wine","14-39419-0001","2021-08-18T00:00:00.000","3090 NORTH 12TH ST. UNIT B","Grand Junction","CO","81506"
"12 POINT DISTILLERY","ON POINT DISTILLERY","Sales Room Spirits","03-08981","2021-01-23T00:00:00.000","802 SOUTH PUBLIC ROAD UNIT E","Lafayette","CO","80026"
"HUBBUB BREWING","SOULCRAFT BREWING","Sales Room Malt","03-06522","2021-06-21T00:00:00.000","248 WEST US HIGHWAY 50","Salida","CO","81201"
"CANNONBALL CREEK BREWING CO","CANNONBALL CREEK BREWING COMPANY","Sales Room Malt","03-00086","2021-07-19T00:00:00.000","393 NORTH WASHINGTON AVENUE UNIT A","Golden","CO","80403"
"SANGRE DISTILLERS LLC WET MOUNTIAN","WET MOUNTAIN","Sales Room Spirits","03-02438","2021-05-14T00:00:00.000","108 MAIN STREET","Westcliffe","CO","81252"
"3 FREAKS BREWERY","3 FREAKS BREWERY","Sales Room Malt","03-09162","2020-12-06T00:00:00.000","7140 EAST COUNTY LINE ROAD","Highlands Ranch","CO","80130"
"BLUE PINE BREWERY","PEAKS N PINES BREWING COMPANY","Sales Room Malt","03-05085","2021-09-30T00:00:00.000","212 WEST ILLINOIS AVENUE","Fountain","CO","80817"
"COLTERRIS WINERY/COLTERRIS WINES","COLTERRIS WINERY/COLTERRIS WINES","Sales Room Wine","42-80284-0001","2021-05-02T00:00:00.000","3907 NORTH RIVER ROAD","Palisade","CO","81526"
"GRAYSTONE HOUSE","SUMMIT CELLARS LLC","Sales Room Wine","03-02574","2021-01-22T00:00:00.000","3352 F ROAD","Clifton","CO","81520"
"10TH MOUNTAIN WHISKEY AND SPIRIT COMPANY","10TH MOUNTAIN WHISKEY AND SPIRIT COMPANY LLC","Sales Room Spirits","03-03016","2021-06-13T00:00:00.000","500 TRAIL GULCH ROAD","Gypsum","CO","81637"
"STONEY MESA WINERY","STONEY MESA WINERY LTD / PTARMIGAN VINEYARD","Sales Room Wine","23-30749-0001","2021-07-11T00:00:00.000","16199 HAPPY HOLLOW ROAD","Cedaredge","CO","81413"
"MOUNTAIN SPIRIT WINERY","MOUNTAIN SPIRIT WINERY","Sales Room Wine","03-68365-0001","2021-07-12T00:00:00.000","8046 WEST HIGHWAY 50","Salida","CO","81201"
"DEVIATION DISTILLING","DEVIATION DISTILLING","Sales Room Spirits","03-08521","2020-10-16T00:00:00.000","900 WEST 1ST AVENUE #150","Denver","CO","80223"
"ATOST","ATOST","Sales Room Wine","03-13425","2021-08-11T00:00:00.000","15810 WEST 6TH AVENUE","Golden","CO","80401"
"ROARING FORK BEER COMPANY","ROARING FORK BEER COMPANY","Sales Room Malt","03-02162","2021-03-09T00:00:00.000","358 MAIN STREET","Carbondale","CO","81623"
"EXTANT BREWING COMPANY LLC","RIVER NORTH BREWERY","Sales Room Malt","03-09136","2021-03-18T00:00:00.000","6021 WASHINGTON STREET UNIT A","Denver","CO","80216"
"VERSO CELLARS","VERSO CELLARS","Sales Room Wine","18-26226-0009","2021-02-18T00:00:00.000","1 SOUTH BROADWAY","Denver","CO","80204"
"MOUNTAIN TOAD BREWING","MOUNTAIN TOAD BREWING","Sales Room Malt","03-00840","2021-02-04T00:00:00.000","900 WASHINGTON AVE","Golden","CO","80401"
"IRON HIPPIE INC","DEAD HIPPIE BREWING","Sales Room Malt","03-04327","2021-03-04T00:00:00.000","3701 SOUTH SANTA FEE DRIVE UNIT 7","Sheridan","CO","80110"
"VERBOTEN BREWING","VERBOTEN BREWING","Sales Room Malt","03-00706","2021-11-19T00:00:00.000","127 EAST 5TH STREET","Loveland","CO","80537"
"LEGATUM CELLARS","LEGATUM CELLARS","Sales Room Wine","03-06173","2021-06-29T00:00:00.000","1704 WILLOW STREET","Canon City","CO","81212"
"RESOLUTE BREWING COMPANY LLC","RESOLUTE BREWING COMPANY LLC","Sales Room Malt","03-06116","2021-03-17T00:00:00.000","7286 SOUTH YOSEMITE STREET STE 110","Centennial","CO","80211"
"ST VRAIN CIDERY","ST VRAIN CIDERY","Sales Room Wine","03-05945","2021-02-25T00:00:00.000","350 TERRY STREET SUITE 130","Longmont","CO","80501"
"STODGY BREWING COMPANY LLC","STODGY BREWING COMPANY","Sales Room Malt","03-13429","2021-06-24T00:00:00.000","1802 LAPORTE AVENUE","Fort Collins","CO","80521"
"SOUTH PARK DISTILLING LLC","SOUTH PARK DISTILLING LLC","Sales Room Spirits","03-09079","2021-02-20T00:00:00.000","415 FRONT STREET FAIRPLAY","Fairplay","CO","80440"
"SAND CREEK DISTILLERY","SAND CREEK DISTILLERY","Sales Room Spirits","03-06191","2021-03-30T00:00:00.000","324 5TH STREET SUITE A","Hugo","CO","80821"
"SANITAS BREWING CO","SANITAS BREWING CO","Sales Room Malt","03-01712","2021-07-25T00:00:00.000","3550 FRONTIER AVE UNIT A","Boulder","CO","80301"
"SHIRAS WINERY","SHIRAS WINERY LLC","Sales Room Wine","03-09286","2021-06-06T00:00:00.000","449 COLORADO AVENUE","Grand Junction","CO","81501"
"MOCKERY BREWING","MOCKERY BREWING LLC","Sales Room Malt","03-02250","2020-12-08T00:00:00.000","3501 DELGANY STREET","Denver","CO","80216"
"FICTION BEER COMPANY","FICTION BEER COMPANY","Sales Room Malt","03-02482","2021-02-20T00:00:00.000","7101 EAST COLFAX AVENUE","Denver","CO","80220"
"ALFRED EAMES CELLARS","ALFRED EAMES CELLARS","Sales Room Wine","15-37661-0001","2021-02-04T00:00:00.000","11931 4050 ROAD","Paonia","CO","81428"
"LUKI BREWERY, LLC","LUKI BREWERY","Sales Room Malt","03-12647","2021-04-28T00:00:00.000","14715 WEST 64TH AVENUE UNITS A & B","Arvada","CO","80004"
"BOOKCLIFF VINEYARDS","BOOKCLIFF VINEYARDS","Sales Room Wine","24-95651-0001","2021-12-06T00:00:00.000","670  39  ROAD","Palisade","CO","81526"
"CITY STAR BREWING","CITY STAR BREWING","Sales Room Malt","03-00044","2021-08-28T00:00:00.000","321 MOUNTAIN AVE UNIT A","Berthoud","CO","80513"
"INDIAN PEAKS BREWING COMPANY","LEFT HAND CURTIS PARK BREWHOUSE & EATERY","Sales Room Malt","03-13311","2021-06-16T00:00:00.000","2403 CHAMPA STREET","Denver","CO","80204"
"RESTORATION VINEYARDS","RESTORATION VINEYARDS","Sales Room Wine","03-07910","2021-06-25T00:00:00.000","3594 E  ROAD","Palisade","CO","81526"
"COLORADO VINTNER'S COLLECTIVE LLC","COLORADO VINTNER'S COLLECTIVE LLC","Sales Room Wine","03-12946","2021-04-02T00:00:00.000","3674  G  ROAD","Palisade","CO","81526"
"CRYSTAL SPRINGS BREWING COMPANY","CRYSTAL SPRINGS BREWING COMPANY","Sales Room Malt","03-00576","2021-07-21T00:00:00.000","876 SUNSHINE CANYON DR","Boulder","CO","80302"
"Rock Cut Brewing Company","ROCK CUT BREWING COMPANY","Sales Room Malt","03-04574","2021-06-21T00:00:00.000","390 WEST RIVERSIDE DRIVE","Estes Park","CO","80517"
"AUGUSTINA'S WINERY","AUGUSTINA'S WINERY","Sales Room Wine","09-84455-0000","2021-04-17T00:00:00.000","4715 NORTH BROADWAY B-3","Boulder","CO","80304"
"Mountain View Winery","MVW-MOUNTAIN VIEW WINERY INC.","Sales Room Wine","03-11326","2021-04-28T00:00:00.000","5859 5825 ROAD","Olathe","CO","81425"
"JADE MOUNTAIN BREWING COMPANY","JADE MOUNTAIN BREWING COMPANY","Sales Room Malt","03-12809","2021-02-09T00:00:00.000","1925 SOUTH ROSEMARY STREET UNIT A","Denver","CO","80231"
"TELLURIDE DISTILLING COMPANY","TELLURIDE DISTILLING COMPANY","Sales Room Spirits","03-03224","2021-07-14T00:00:00.000","152B SOCIETY DRVE","Telluride","CO","81435"
"UPSLOPE BREWING CO","UPSLOPE BREWING CO","Sales Room Malt","28-58686-0001","2021-08-12T00:00:00.000","1501 LEE HILL RD #20","Boulder","CO","80302"
"SNOWY PEAKS WINERY","SNOWY PEAKS WINERY","Sales Room Wine","26-56522-0001","2021-04-24T00:00:00.000","513 BIG THOMPSON AVENUE UNIT 120-150","Estes Park","CO","80517"
"VAIL BREWING CO","VAIL BREWING CO","Sales Room Malt","03-03833","2020-11-06T00:00:00.000","41290 US HIGHWAY 6  UNIT B2/B3","Avon","CO","81620"
"SUMMIT CIDER & BEVERAGES CORPORATION","WILD CIDER","Sales Room Wine","03-12373","2021-01-06T00:00:00.000","11455 COUNTY ROAD 17","Firestone","CO","80504"
"1933 BREWING COMPANY","PURPOSE BREWING LLC","Sales Room Malt","03-02078","2021-10-24T00:00:00.000","4025 SOUTH MASON STREET UNIT C","Fort Collins","CO","80525"
"THE STORM CELLAR","THE STORM CELLAR","Sales Room Wine","03-10348","2021-09-25T00:00:00.000","14139 RUNZEL GULCH ROAD","Hotchkiss","CO","81419"
"STILL CELLARS LLC","STILL CELLARS","Sales Room Spirits","15-80627-0002","2020-11-29T00:00:00.000","1115 COLORADO AVE STE C","Longmont","CO","805016178"
"TALBOTT'S CIDER COMPANY","TALBOTT'S CIDER CO.","Sales Room Wine","03-04901","2021-08-25T00:00:00.000","3805 F 1/4 ROAD","Palisade","CO","81526"
"FINKEL & GARF BREWING CO","FINKEL & GARF BREWING CO.","Sales Room Malt","03-02562","2021-03-27T00:00:00.000","5455 SPINE ROAD UNIT A","Boulder","CO","80301"
"TEN BEARS WINERY","TEN BEARS WINERY","Sales Room Wine","26-77347-0001","2021-09-06T00:00:00.000","5215 TEN BEARS COURT","Laporte","CO","80535"
"MONUMENTAL BEER WORKS LLC","MONUMENTAL BEER WORKS LLC","Sales Room Malt","03-12727","2021-01-15T00:00:00.000","2575 HIGHWAY 6 & 50 UNIT C","Grand Junction","CO","81501"
,"BALLMER PEAK DISTILLERY","Sales Room Spirits","03-11912","2021-08-12T00:00:00.000","12347 WEST ALAMEDA PKWY","Denver","CO","80228"
"PROXIMO DISTILLERS","PROXIMO DISTILLERS","Sales Room Spirits","25-57788-0000","2020-10-28T00:00:00.000","200 SOUTH KALAMATH STREET","Denver","CO","802231813"
"VINELANDS 79 LLC","VINES 79 WINE BARN","Sales Room Wine","03-10594","2021-01-24T00:00:00.000","3839 G ROAD","Palisade","CO","81526"
"FRASER VALLEY DISTILLING","FRASER VALLEY DISTILLING","Sales Room Spirits","03-10054","2021-09-10T00:00:00.000","410 NORTH ZEREX STREET","Fraser","CO","80442"
"DESERT SUN VINEYARDS","DESERT SUN VINEYARDS & WINERY LLC","Sales Room Wine","42-79166-0000","2021-03-23T00:00:00.000","3230 B 1/2 ROAD","Grand Junction","CO","81503"
"BRUZ BEERS","BRUZ BEERS","Sales Room Malt","03-11824","2021-06-05T00:00:00.000","1495 YORK STREET UNIT 102","Denver","CO","80206"
"DUECES WILD BREWERY","DUECES WILD BREWERY","Sales Room Malt","03-12207","2021-08-25T00:00:00.000","3352 TEMPLETON GAP ROAD","Colorado Springs","CO","80907"
"COMRADE BREWING COMPANY","COMRADE BREWING COMPANY","Sales Room Malt","03-01942","2021-11-19T00:00:00.000","7667 EAST ILIFF AVENUE #F","Denver","CO","80231"
"DOUBLE DIAMOND DISTILLERY","BRECKENRIDGE DISTILLERY","Sales Room Spirits","12-87527-0001","2021-04-15T00:00:00.000","137 SOUTH MAIN - UNIT G","Breckenridge","CO","80424"
"DEAN & CO, GOLD BUCKLE BREWERY, DURANGO BREWING CO","DEAN & CO, GOLD BUCKLE BREWERY, DURANGO BREWING CO","Sales Room Malt","03-12501","2021-11-12T00:00:00.000","8500 ZUNI STREET","Federal Heights","CO","80260"
"GOLDSPOT BREWING COMPANY, LLC","GOLDSPOT BREWING COMPANY","Sales Room Malt","03-11001","2020-12-25T00:00:00.000","4970 LOWELL BOULEVARD","Denver","CO","80221"
"BOGGY DRAW BREWERY","BOGGY DRAW BREWERY","Sales Room Malt","03-04249","2021-03-24T00:00:00.000","3535 S PLATTE RIVER DRIVE UNIT L","Englewood","CO","80110"
"BURLY BREWING COMPANY","BURLY BREWING COMPANY","Sales Room Malt","03-08627","2021-01-31T00:00:00.000","680 ATCHISON WAY SUITE 700/800","Castle Rock","CO","80109"
"SPANGALANG BREWERY","SPANGALANG BREWERY","Sales Room Malt","03-04090","2021-02-03T00:00:00.000","2736 WELTON STREET STE 102","Denver","CO","80205"
"CEREBRAL BREWING","CEREBRAL BREWING LLC","Sales Room Malt","03-05032","2021-09-03T00:00:00.000","1477 NORTH MONROE STREET","Denver","CO","80206"
"STONE COTTAGE CELLARS INC","STONE COTTAGE CELLARS","Sales Room Wine","28-29936-0001","2021-06-25T00:00:00.000","41716 REDS ROAD","Paonia","CO","81428"
"ROCKY MOUNTAIN OLIVE OIL COMPANY","TEN BEARS WINERY","Sales Room Wine","26-77347-0001","2021-09-06T00:00:00.000","114 NORTH COLLEGE AVENUE","Fort Collins","CO","80524"
"LANDLOCKED ALES","LANDLOCKED ALES","Sales Room Malt","03-05976","2021-02-22T00:00:00.000","3225 SOUTH WADSWORTH BOULEVARD UNIT PQRS","Lakewood","CO","80227"
"BUTCHERKNIFE BREWING COMPANY","BUTCHERKNIFE BREWING COMPANY","Sales Room Malt","03-01791","2020-09-05T00:00:00.000","2875 ELK RIVER ROAD","Steamboat Springs","CO","80487"
"STORM KING DISTILLING CO","STORM KING DISTILLING CO","Sales Room Spirits","03-09000","2021-01-25T00:00:00.000","41 WEST MAIN STREET","Montrose","CO","81401"
"PRIVATE LABEL DISTILLERY LLC","PRIVATE LABEL DISTILLERY LLC","Sales Room Spirits","03-01923","2021-10-01T00:00:00.000","1405 SELIX GROVE","Colorado Springs","CO","80915"
"JAGGED MOUNTAIN CRAFT BREWERY","JAGGED MOUNTAIN CRAFT BREWERY","Sales Room Malt","03-01512","2021-08-05T00:00:00.000","1139 20TH STREET","Denver","CO","80202"
"BRECKENRIDGE BREWERY","BRECKENRIDGE BREWERY","Sales Room Malt","03-06031","2021-03-20T00:00:00.000","2920 BREWERY LANE","Littleton","CO","80120"
"THREE BARREL CO/BRICKER BEER","THREE BARREL BREWING CO / BRICKER BEER","Sales Room Malt","42-23859-0002","2021-03-12T00:00:00.000","586 COLUMBIA AVENUE","Del Norte","CO","81132"
"THE WINERY AT HOLY CROSS ABBEY","WINERY AT HOLY CROSS ABBEY THE","Sales Room Wine","15-46146-0001","2021-03-24T00:00:00.000","3011 EAST HIGHWAY 50","Canon City","CO","812122748"
"SETTE DOLORI WINERY","SETTE DOLORI WINERY","Sales Room Wine","03-01057","2021-04-02T00:00:00.000","9750 MILLARD WAY","Colorado Springs","CO","80908"
"MASH MECHANIX BREWING","MASH MECHANIX BREWING","Sales Room Malt","03-12757","2021-05-17T00:00:00.000","429 / 431 EAST PIKES PEAK AVENUE","Colorado Springs","CO","80903"
"CALL TO ARMS BREWING COMPANY","CALL TO ARMS BREWING COMPANY","Sales Room Malt","03-04254","2021-03-04T00:00:00.000","4526 TENNYSON STREET","Denver","CO","80212"
"RAM'S POINT WINERY","RAM'S POINT WINERY","Sales Room Wine","03-00119","2020-09-17T00:00:00.000","3168 B 1/2 ROAD","Grand Junction","CO","81503"
"SQUARE PEG BREWERKS LLC","SQUARE PEG BREWERKS","Sales Room Malt","03-07679","2021-04-06T00:00:00.000","PO Box 1432","Alamosa","CO","81101"
"TALNUA","TALNUA","Sales Room Spirits","03-09124","2021-02-11T00:00:00.000","5405 WEST 56TH AVENUE UNIT C","Arvada","CO","80002"
"BLANCHARD FAMILY WINES","BLANCHARD FAMILY WINES","Sales Room Wine","03-10355","2021-12-05T00:00:00.000","1855 BLAKE STREET, SUITE 120","Denver","CO","80202"
"TEN BEARS WINERY","TEN BEARS WINERY","Sales Room Wine","26-77347-0001","2021-09-06T00:00:00.000","123 NORTH COLLEGE AVENUE SUITE 170","Fort Collins","CO","80524"
"DELICIOUS ORCHARDS","BIG B'S HARD CIDER","Sales Room Wine","28-62394-0001","2021-04-29T00:00:00.000","39126 HIGHWAY 133","Hotchkiss","CO","81419"
"THE COLORADO FARM BREWERY LLC","THE COLORADO FARM BREWERY LLC","Sales Room Malt","03-08663","2021-01-21T00:00:00.000","2070 COUNTRY ROAD 12 SOUTH","Alamosa","CO","81101"
"FOX FIRE FARMS","FOX FIRE FARMS","Sales Room Wine","28-27246-0001","2021-08-25T00:00:00.000","5513 COUNTY ROAD 321","Ignacio","CO","81137"
"MONUMENTAL BEER WORKS LLC","MONUMENTAL BEER WORKS LLC","Sales Room Malt","03-12727","2022-01-15T00:00:00.000","2575 HIGHWAY 6 & 50 UNIT C","Grand Junction","CO","81501"
"3 FREAKS BREWERY","3 FREAKS BREWERY","Sales Room Malt","03-09162","2021-12-06T00:00:00.000","7140 EAST COUNTY LINE ROAD","Highlands Ranch","CO","80130"
"MAXLINE BREWING","MAXLINE BREWING","Sales Room Malt","03-05575","2021-11-30T00:00:00.000","7238 FORT MORGAN DRIVE","Fort Collins","CO","80525"
"WOOD'S HIGH MOUNTIAN DISTILLERY","WOOD'S HIGH MOUNTAIN DISTILLERY","Sales Room Spirits","03-00270","2021-11-01T00:00:00.000","144 WEST 1ST STREET","Salida","CO","81201"
"HALFPENNY BREWING COMPANY","HALFPENNY BREWING COMPANY","Sales Room Malt","03-05715","2021-12-09T00:00:00.000","5150 EAST ARAPAHOE ROAD  UNIT D1-B","Centennial","CO","80122"
"UHL'S BEER LLC","UHL'S BREWING CO","Sales Room Malt","03-09527","2021-06-17T00:00:00.000","5460 CONESTOGA COURT","Boulder","CO","80301"
"NATAJACS INC.","HOGBACK DISTILLERY","Sales Room Spirits","03-08456","2021-10-23T00:00:00.000","5311 WESTERN AVENUE #174","Boulder","CO","80301"
"GOLDSPOT BREWING COMPANY, LLC","GOLDSPOT BREWING COMPANY","Sales Room Malt","03-11001","2021-12-25T00:00:00.000","4970 LOWELL BOULEVARD","Denver","CO","80221"
"STORM PEAK BREWING COMPANY LLC","STORM PEAK BREWING COMPANY","Sales Room Malt","03-14458","2022-11-29T00:00:00.000","2500 VILLAGE DRIVE UNITS 2A & 2B","Steamboat Springs","CO","80487"
"BENT BARLEY BREWING COMPANY","BENT BARLEY BREWING COMPANY","Sales Room Malt","03-10167","2022-10-24T00:00:00.000","15428 EAST CRESTLINE PLACE","Centennial","CO","80015"
"3 FREAKS BREWERY","3 FREAKS BREWERY","Sales Room Malt","03-09162","2022-12-06T00:00:00.000","7140 EAST COUNTY LINE ROAD","Highlands Ranch","CO","80126"
"COMRADE BREWING COMPANY","COMRADE BREWING COMPANY","Sales Room Malt","03-01942","2022-11-19T00:00:00.000","7667 EAST ILIFF AVENUE #F","Denver","CO","80231"
"WEASEL TAP ROOM","OSKAR BLUES BREWERY","Sales Room Malt","28-54198-0002","2022-12-23T00:00:00.000","1800 PIKE ROAD","Longmont","CO","80501"
"CROOKED STAVE ARTISAN BEER PROJECT","CROOKED STAVE","Sales Room Malt","42-87822-0000","2022-12-09T00:00:00.000","1441 WEST 46TH AVE UNIT 19","Denver","CO","80211"
"ROCKER SPIRITS","ROCKER SPIRITS","Sales Room Spirits","03-05423","2022-11-18T00:00:00.000","5587 INDUSTRIAL PLACE, SUITE A","Littleton","CO","80120"
"REDS WINE BOUTIQUE","REDS WINE BOUTIQUE","Sales Room Wine","03-09749","2022-06-27T00:00:00.000","112 SOUTH 3RD AVENUE","Sterling","CO","80751"
"TALBOTT'S CIDER COMPANY","TALBOTT'S CIDER CO.","Sales Room Wine","03-04901","2022-08-25T00:00:00.000","3805 F 1/4 ROAD","Palisade","CO","81526"
"ST. KATHRYN CELLARS","COLORADO WINE ROOM","Sales Room Wine","41-97969-0001","2023-02-08T00:00:00.000","785 ELBERTA AVENUE","Palisade","CO","81526"
"5680 LLC","5680 LLC","Sales Room Wine","42-61599-0001","2022-07-08T00:00:00.000","14652 PEONY LANE","Paonia","CO","814284112"
"281 33 ROAD","THE PEACHFORK","Sales Room Wine","03-07114","2022-10-23T00:00:00.000","281 33 ROAD","Palisade","CO","81526"
"GRAVITY BREWING","GRAVITY BREWING","Sales Room Malt","14-73003-0001","2022-07-10T00:00:00.000","1150 PINE STREET UNIT B","Louisville","CO","800271463"
"MONTANYA DISTILLERS LLC","MONTANYA DISTILLERS LLC","Sales Room Spirits","12-78908-0002","2022-10-20T00:00:00.000","204 ELK AVENUE","Crested Butte","CO","81224"
"HIGH COUNTY BEVERAGE CORP","HIGH COUNTRY BEVERAGE CORP","Sales Room Malt","23-68718-0001","2023-05-27T00:00:00.000","4200 RONALD REAGAN BLVD","Loveland","CO","80534"
"UPSLOPE BREWING COMPANY","UPSLOPE BREWING COMPANY","Sales Room Malt","03-01321","2023-04-14T00:00:00.000","1898 SOUTH FLATIRON COURT SUITE 120","Boulder","CO","80301"
"CALL TO ARMS BREWING COMPANY","CALL TO ARMS BREWING COMPANY","Sales Room Malt","03-04254","2023-03-04T00:00:00.000","4526 TENNYSON STREET","Denver","CO","80212"
"METRIC BREWING","METRIC BREWING","Sales Room Malt","03-09959","2022-06-26T00:00:00.000","1213 NORTH CIRCLE DRIVE","Colorado Springs","CO","80909"
"LUMPY RIDGE BREWING COMPANY","LUMPY RIDGE BREWING COMPANY LLC","Sales Room Malt","03-04284","2023-03-03T00:00:00.000","531 SOUTH SAINT VRAIN AVENUE","Estes Park","CO","80517"
"WESTFAX BREWING COMPANY","WESTFAX BREWING COMPANY","Sales Room Malt","03-05551","2022-12-23T00:00:00.000","6733 WEST COLFAX AVENUE","Lakewood","CO","80214"
"GILDED GOAT BREWING CO","GILDED GOAT BREWING CO","Sales Room Malt","03-15771","2022-12-02T00:00:00.000","132 WEST MOUNTAIN AVENUE","Fort Collins","CO","80524"
"ZANAMIEL MEADERY","ZANAMIEL MEADERY","Sales Room Wine","03-11662","2023-05-05T00:00:00.000","6801 SOUTH MARION CIRCLE WEST","Centennial","CO","80122"
"RESTORATION VINEYARDS","RESTORATION VINEYARDS","Sales Room Wine","03-07910","2022-06-25T00:00:00.000","3594 E  ROAD","Palisade","CO","81526"
"THE ELIZABETH BREWING COMPANY","THE ELIZABETH BREWING COMPANY","Sales Room Malt","03-10389","2022-10-28T00:00:00.000","239 SOUTH MAIN STREET","Elizabeth","CO","80107"
"4 NOSE BREWING COMPANY","4 NOSES BREWING COMPANY","Sales Room Malt","03-02015","2022-10-23T00:00:00.000","8855 WEST 116TH CIRCLE STE 4","Broomfield","CO","80021"
"A B VISITORS TOWN CENTER","A B VISITORS TOWN CENTER","Sales Room Malt","01-25130-0002","2022-12-31T00:00:00.000","2351 BUSCH DR","Fort Collins","CO","805249400"
"CHELUNA BREWING COMPANY","CHELUNA BREWING COMPANY","Sales Room Malt","03-05629","2022-12-27T00:00:00.000","2501 DALLAS STREET 148","Aurora","CO","80010"
"NOCO DISTILLERY","NOCO DISTILLERY","Sales Room Spirits","03-08332","2022-09-28T00:00:00.000","328 SOUTH LINK LANE UNIT 11","Fort Collins","CO","80524"
"WALDSCHANKE CIDERS","WALDSCHANKE CIDERS","Sales Room Wine","03-09340","2022-08-07T00:00:00.000","4100 JASON STREET","Denver","CO","80211"
"HOWLIN WIND BREWING & BLENDING","HOWLIN WIND BREWING & BLENDING","Sales Room Malt","03-14667","2022-05-24T00:00:00.000","51 MAIN STREET","Rollinsville","CO","80474"
"HONEY HOUSE DISTILLERY","HONEY HOUSE DISTILLERY","Sales Room Spirits","03-00233","2022-10-30T00:00:00.000","259 WEST 9TH STREET","Durango","CO","81301"
"GEMINI BEER COMPANY","GEMINI BREWING COMPANY LLC","Sales Room Malt","03-04862","2022-08-19T00:00:00.000","640 WHITE AVENUE UNIT B","Grand Junction","CO","81501"
"BURLY BREWING COMPANY","BURLY BREWING COMPANY","Sales Room Malt","03-08627","2023-01-31T00:00:00.000","680 ATCHISON WAY SUITE 700/800","Castle Rock","CO","80109"
"NEW TERRAIN BREWING COMPANY","NEW TERRAIN BREWING COMPANY","Sales Room Malt","03-05809","2023-01-10T00:00:00.000","16401 TABLE MOUNTAIN PARKWAY","Golden","CO","80403"
"BURNS FAMILY ARTISAN ALES","BURNS FAMILY ARTISAN ALES","Sales Room Malt","03-09866","2022-07-09T00:00:00.000","2505 WEST 2ND AVENUE, UNITS 12 & 13","Denver","CO","80219"
"TURQUOISE MESA WINERY","TURQUOISE MESA WINERY","Sales Room Wine","07-73341-0001","2021-12-17T00:00:00.000","1210 MYRTLE","Brighton","CO","80601"
"VAIL BREWING CO","VAIL BREWING CO","Sales Room Malt","03-03833","2022-11-06T00:00:00.000","41290 US HIGHWAY 6  UNIT B2/B3","Avon","CO","81620"
"RALLY KING BREWING","RALLY KING BREWING","Sales Room Malt","03-04634","2022-06-19T00:00:00.000","1624 SOUTH LEMAY AVENUE UNIT 4","Fort Collins","CO","80525"
"COPPER CLUB BREWING CO","COPPER CLUB BREWING COMPANY","Sales Room Malt","03-00170","2022-12-13T00:00:00.000","153 NORTH MULBERRY STREET","Fruita","CO","81521"
"FENCELINE CIDFER","FENCELINE CIDER","Sales Room Wine","03-08674","2023-01-16T00:00:00.000","141 SOUTH MAIN STREET UNIT C","Mancos","CO","81328"
"HONEY HOUSE DISTILLERY","HONEY HOUSE DISTILLERY","Sales Room Spirits","03-00233","2021-10-30T00:00:00.000","800 CAMINO DEL RIO","Durango","CO","81301"
"JESSUP FARM BARREL HOUSE","JESSUP FARM BARREL HOUSE","Sales Room Malt","03-05472","2021-11-22T00:00:00.000","1921 JESSUP DRIVE","Fort Collins","CO","80525"
"COLORADO CIDER COMPANY","COLORADO CIDER COMPANY","Sales Room Wine","06-39228-0000","2020-12-14T00:00:00.000","2650 WEST 2ND AVENUE #10","Denver","CO","80219"
"HONEY HOUSE DISTILLERY","HONEY HOUSE DISTILLERY","Sales Room Spirits","03-00233","2021-10-30T00:00:00.000","33633 HIGHWAY 550 SUITE A","Durango","CO","813017162"
"THE COLORADO FARM BREWERY LLC","THE COLORADO FARM BREWERY LLC","Sales Room Malt","03-08663","2022-01-21T00:00:00.000","2070 COUNTRY ROAD 12 SOUTH","Alamosa","CO","81101"
"CHELUNA BREWING COMPANY","CHELUNA BREWING COMPANY","Sales Room Malt","03-05629","2021-12-27T00:00:00.000","2501 DALLAS STREET 148","Aurora","CO","80010"
"VINELANDS 79 LLC","VINES 79 WINE BARN","Sales Room Wine","03-10594","2022-01-24T00:00:00.000","3839 G ROAD","Palisade","CO","81526"
"STORM KING DISTILLING CO","STORM KING DISTILLING CO","Sales Room Spirits","03-09000","2022-01-25T00:00:00.000","41 WEST MAIN STREET","Montrose","CO","81401"
"GOLDEN MOON SPEAKEASY","GOLDEN MOON DISTILLERY","Sales Room Spirits","03-00265","2021-10-17T00:00:00.000","1111 MINER'S AVENUE","Golden","CO","80401"
"CASTLE ROCK BEER COMPANY","IRON MULE BREWERY","Sales Room Malt","03-05096","2021-11-18T00:00:00.000","514 PERRY STREET C106","Castle Rock","CO","80104"
"SWEET HEART WINERY","SWEETHEART CITY WINES","Sales Room Wine","42-87347-0000","2021-12-22T00:00:00.000","5500 WEST HIGHWAY 34","Loveland","CO","80537"
"PURGATORY CELLARS","PURGATORY CELLARS","Sales Room Wine","03-10300","2021-09-26T00:00:00.000","30 WEST SPRINGER DRIVE","Highlands Ranch","CO","80129"
"THE BLOCK DISTILLING CO","THE BLOCK DISTILLING CO","Sales Room Spirits","03-06990","2021-10-03T00:00:00.000","2990 LARIMER STREET","Denver","CO","80205"
"GUANELLA PASS BREWING COMPANY LLC","GUANELLA PASS BREWING","Sales Room Malt","03-06979","2021-10-06T00:00:00.000","501 ROSE STREET","Georgetown","CO","80444"
"GREEN EARTH BREWING CO","GREEN EARTH BREWING CO","Sales Room Malt","03-08371","2021-10-10T00:00:00.000","725 10TH STREET","GREELEY","CO","80631"
"COPPER SKY DISTILLERY","COPPER SKY DISTILLERY","Sales Room Spirits","03-13918","2021-10-26T00:00:00.000","1115 COLORADO AVENUE SUITE C","Longmont","CO","80501"
"CROOKED STAVE FORT COLLINS","CROOKED STAVE","Sales Room Malt","03-10816","2022-01-29T00:00:00.000","225 PINE STREET","Fort Collins","CO","80524"
"STATION 26 BREWING CO","STATION 26 BREWING CO","Sales Room Malt","03-01913","2021-08-29T00:00:00.000","7045 EAST 38TH AVE","Denver","CO","80207"
"FLORENCE BREWING COMPANY","FLORENCE BREWING COMPANY","Sales Room Malt","03-05766","2021-12-28T00:00:00.000","200 SOUTH PIKES PEAK AVENUE","Florence","CO","81226"
"NEW BELGIUM BREWING","NEW BELGIUM BREWING","Sales Room Malt","03-09961","2021-12-02T00:00:00.000","3330 BRIGHTON BOULEVARD, SUITE 101","Denver","CO","80216"
"LANOUE DUBOIS WINERY LLC","LANOUE DUBOIS WINERY","Sales Room Wine","03-13488","2021-10-12T00:00:00.000","67289 TROUT ROAD","Montrose","CO","81403"
"SETTE DOLORI WINERY","SETTE DOLORI WINERY","Sales Room Wine","03-01057","2021-04-02T00:00:00.000","12980 SOAP WEED ROAD","Calhan","CO","80808"
"ASHER BREWING COMPANY","ASHER BREWING COMPANY LLC","Sales Room Malt","12-85475-0001","2021-11-16T00:00:00.000","4699 NAUTILUS COURT SUITE 104","Boulder","CO","80301"
"GOLDEN MOON DISTILLERY","GOLDEN MOON DISTILLERY","Sales Room Spirits","03-00265","2021-10-17T00:00:00.000","412 VIOLET STREET","Golden","CO","80401"
"LOCUST CIDER","LOCUST CIDER","Sales Room Wine","03-10413","2021-06-19T00:00:00.000","7260 WEST ALASKA DRIVE UNIT A","Lakewood","CO","80226"
"MYSTIC MOUNTAIN DISTLLERY LLC","MYSTIC MOUNTAIN DISTILLERY","Sales Room Spirits","28-53034-0000","2021-09-09T00:00:00.000","11505 SPRINGS VALLEY ROAD","Larkspur","CO","80118"
"DEERHAMMER DISTILLING COMPANY","DEERHAMMER DISTILLING COMPANY LLC","Sales Room Spirits","25-60500-0001","2021-10-22T00:00:00.000","105 BARNWOOD DRIVE","Buena Vista","CO","81211"
"PARTS & LABOR BREWING COMPANY","PARTS & LABOR BREWING COMPANY","Sales Room Malt","03-07136","2021-11-14T00:00:00.000","402 MAIN STREET UNIT B","Sterling","CO","80751"
"AZURA CELLARS","AZURA CELLARS","Sales Room Wine","09-87044-0000","2021-10-08T00:00:00.000","16764 FARMERS MINE ROAD","Paonia","CO","81428"
"719 DISTILLING CO","719 DISTILLING CO","Sales Room Spirits","03-13656","2021-10-08T00:00:00.000","2815 EAST MAIN STREET","Canon City","CO","81212"
"SAINT VRAIN VINEYARD AND WINERY","SAINT VRAIN VINEYARDS","Sales Room Wine","26-47142-0000","2022-01-14T00:00:00.000","1633 SOUTH HWY 287","Berthoud","CO","80513"
"FOSSIL CRAFT BEER COMPANY","FOSSIL CRAFT BEER COMPANY","Sales Room Malt","03-02397","2022-01-27T00:00:00.000","2845 ORE MILL ROAD UNIT#S 1 & 2","Colorado Springs","CO","80904"
"FUNKWERKS","FUNKWERKS","Sales Room Malt","15-75022-0002","2021-11-23T00:00:00.000","1900 EAST LINCOLN AVE UNIT B","Fort Collins","CO","80524"
"PROXIMO DISTILLERS","PROXIMO DISTILLERS","Sales Room Spirits","25-57788-0000","2021-10-28T00:00:00.000","200 SOUTH KALAMATH STREET","Denver","CO","802231813"
"FENCELINE CIDFER","FENCELINE CIDER","Sales Room Wine","03-08674","2022-01-16T00:00:00.000","141 SOUTH MAIN STREET UNIT C","Mancos","CO","81328"
"MESA PARK VINEYARDS","MESA PARK VINEYARDS","Sales Room Wine","03-08826","2022-01-23T00:00:00.000","3321 C ROAD","Palisade","CO","81526"
"UHL'S BEER LLC","UHL'S BEER LLC","Sales Room Malt","03-09527","2021-06-17T00:00:00.000","5460 CONESTOGA COURT","Boulder","CO","80301"
"CROOKED STAVE ARTISAN BEER PROJECT","CROOKED STAVE","Sales Room Malt","42-87822-0000","2021-12-09T00:00:00.000","1441 WEST 46TH AVE UNIT 19","Denver","CO","80211"
"QUTORI WINES","QUTORI WINES","Sales Room Wine","03-08383","2021-10-05T00:00:00.000","40823 HIGHWAY 133","Paonia","CO","81428"
"MARBLE DISTILLING COMPANY","MARBLE DISTILLING COMPANY","Sales Room Spirits","03-03501","2021-09-10T00:00:00.000","415 EAST DEAN STREET","Carbondale","CO","81623"
"CLAREMONT INN & WINERY","CLAREMONT INN & WINERY","Sales Room Wine","03-05284","2022-01-04T00:00:00.000","2308 UNIT C1, 17TH STREET","GREELEY","CO","80624"
"RAINMAKER CIDER LLC","LOCUST CIDER","Sales Room Wine","03-10413","2021-06-19T00:00:00.000","200 WALNUT STREET UNIT A","Fort Collins","CO","80524"
"GOLD DIRT DISTILLERY","GOLD DIRT DISTILLERY","Sales Room Spirits","03-08999","2021-10-17T00:00:00.000","275 TOLLAND ROAD UNIT A & B","Rollinsville","CO","80474"
"MYSTIC MOUNTAIN DISTILLERY LLC","MYSTIC MOUNTAIN DISTILLERY","Sales Room Spirits","28-53034-0000","2021-09-09T00:00:00.000","12136 GRANT CIRCLE","Thornton","CO","80241"
"STRANGE CRAFT BEER COMPANY","STRANGE CRAFT BEER COMPANY","Sales Room Malt","42-72527-0002","2021-10-14T00:00:00.000","1330 ZUNI STREET  UNIT M","Denver","CO","80204"
"LEFT HAND BREWING COMPANY","LEFT HAND BREWING CO / TABERNASH BREWING CO","Sales Room Malt","02-85547-0001","2021-12-12T00:00:00.000","1265 BOSTON AVENUE","Longmont","CO","80503"
"BEYOND THE MOUNTAIN BREWING CO","BEYOND THE MOUNTAIN BREWING COMPANY","Sales Room Malt","03-08576","2021-10-25T00:00:00.000","6035 LONGBOW DRIVE UNITS 109 & 110","Boulder","CO","80304"
"HONEY HOUSE DISTILLERY","HONEY HOUSE DISTILLERY","Sales Room Spirits","03-00233","2021-10-30T00:00:00.000","259 WEST 9TH STREET","Durango","CO","81301"
"SEEDSTOCK  BREWERY","SEEDSTOCK BREWERY","Sales Room Malt","03-04817","2021-08-16T00:00:00.000","1499 LOWELL BLVD","Denver","CO","80204"
"MAD RABBIT DISTILLERY","HIGH PROOF DISTILLERY","Sales Room Spirits","03-05348","2021-12-13T00:00:00.000","10860 DOVER STREET SUITE 2000","Westminster","CO","80021"
"MARBLE DISTILLING COMPANY","MARBLE DISTILLING COMPANY","Sales Room Spirits","03-03501","2021-09-10T00:00:00.000","150 MAIN STREET","Carbondale","CO","81623"
"SAVANNAH BEE COMPANY","SAVANNAH BEE COMPANY","Sales Room Wine","03-09925","2022-08-02T00:00:00.000","1222 PEARL STREET, SUITE B","Boulder","CO","80302"
"DUECES WILD BREWERY INC","DUECES WILD BREWERY","Sales Room Malt","03-08334","2022-01-22T00:00:00.000","660 PETERSON ROAD","Colorado Springs","CO","80915"
"TELLURIDE BREWING WORKS LLC","TELLURIDE BREWING COMPANY","Sales Room Malt","03-12703","2021-11-11T00:00:00.000","568 MOUNTAIN VILLAGE BLVD UNIT 136","Mountain Village","CO","81435"
"WATERS EDGE WINERY","WATERS EDGE WINERY","Sales Room Wine","03-03519","2021-09-10T00:00:00.000","2101 EAST ARAPAHOE ROAD  SUITE 101","Centennial","CO","80122"
"HOGSHEAD BREWING","HOGSHEAD BREWERY","Sales Room Malt","42-98974-0001","2022-02-06T00:00:00.000","4460 WEST 29TH AVE","Denver","CO","802123015"
"MOLSON COORS BEVERAGE COMPANY USA LLC","BLUE MOON BREWING COMPANY","Sales Room Malt","03-05395","2021-11-26T00:00:00.000","3750 CHESTNUT PLACE","Denver","CO","80216"
"BLUE FISH DISTILLERY INC. BLUE FISH DISTILLERY","BLACKHAT DISTILLERY","Sales Room Spirits","03-05600","2021-12-16T00:00:00.000","5745 INDUSTRIAL PLACE, SUITE A","Colorado Springs","CO","80916"
"WESTFAX BREWING COMPANY","WESTFAX BREWING COMPANY","Sales Room Malt","03-05551","2021-12-23T00:00:00.000","6733 WEST COLFAX AVENUE","Lakewood","CO","80214"
"AVERY BREWING COMPANY, LLC","AVERY BREWING COMPANY","Sales Room Malt","06-19214-0001","2021-12-12T00:00:00.000","4910 NAUTILUS COURT NORTH","Boulder","CO","80301"
"GRAYSTONE HOUSE","SUMMIT CELLARS LLC","Sales Room Wine","03-02574","2022-01-22T00:00:00.000","3352 F ROAD","Clifton","CO","81520"
"BUTCHERKNIFE BREWING COMPANY","BUTCHERKNIFE BREWING COMPANY","Sales Room Malt","03-01791","2021-09-05T00:00:00.000","2875 ELK RIVER ROAD","Steamboat Springs","CO","80487"
"MAISON LA BELLE VIE","MAISON LA BELLE VIE INC","Sales Room Wine","03-02903","2022-04-02T00:00:00.000","3575 G ROAD","Palisade","CO","81526"
"DEVIATION DISTILLING","DEVIATION DISTILLING","Sales Room Spirits","03-08521","2021-10-16T00:00:00.000","900 WEST 1ST AVENUE #150","Denver","CO","80223"
"SUMMIT CIDER & BEVERAGES CORPORATION","WILD CIDER","Sales Room Wine","03-12373","2022-01-06T00:00:00.000","11455 COUNTY ROAD 17","Firestone","CO","80504"
"WEASEL TAP ROOM","OSKAR BLUES BREWERY","Sales Room Malt","28-54198-0002","2021-12-23T00:00:00.000","1800 PIKE ROAD","Longmont","CO","80501"
"MAISON DE SAISON LLC","CHRYSALIS BARREL AGED BEER","Sales Room Malt","03-12499","2021-11-12T00:00:00.000","201 A FIRST STREET","Paonia","CO","81428"
"STEM CIDERS","STEM CIDERS LLC","Sales Room Wine","03-01843","2021-11-05T00:00:00.000","2811 WALNUT STREET UNIT B","Denver","CO","80205"
"NEW TERRAIN BREWING COMPANY","NEW TERRAIN BREWING COMPANY","Sales Room Malt","03-05809","2022-01-10T00:00:00.000","16401 TABLE MOUNTAIN PARKWAY","Golden","CO","80403"
"LOVELAND ALEWORKS","LOVELAND ALEWORKS","Sales Room Malt","03-00508","2021-12-05T00:00:00.000","118 WEST 4TH STREET","Loveland","CO","80537"
"VAIL BREWING CO","VAIL BREWING CO","Sales Room Malt","03-03833","2021-11-06T00:00:00.000","41290 US HIGHWAY 6  UNIT B2/B3","Avon","CO","81620"
"GREEN MOUNTIAN BEER","GREEN MOUNTAIN BEER COMPANY","Sales Room Malt","03-05534","2021-11-30T00:00:00.000","2585 SOUTH LEWIS WAY SUITE 110","Lakewood","CO","80227"
"COLORADO SAKE CO.","COLORADO SAKE CO","Sales Room Wine","03-08860","2022-01-18T00:00:00.000","3559 LARIMER STREET","Denver","CO","80205"
"BRUZ BEERS","BRUZ BEERS","Sales Room Malt","03-05798","2022-01-12T00:00:00.000","1675 WEST 67TH AVENUE  UNIT 100","Denver","CO","80221"
"OLD ELK","OLD ELK","Sales Room Spirits","03-03895","2021-12-07T00:00:00.000","253 LINDEN STREET","Fort Collins","CO","80521"
"COLORADO CIDER COMPANY","COLORADO CIDER COMPANY","Sales Room Wine","06-39228-0000","2021-12-14T00:00:00.000","2650 WEST 2ND AVENUE #10","Denver","CO","80219"
"SHEAF & KETTLE BREWING COMPANY LLC","SHEAF & KETTLE BREWING COMPANY LLC","Sales Room Malt","03-12111","2021-10-23T00:00:00.000","208 OAK AVENUE","Eaton","CO","80615"
"PLUM CREEK CELLARS LTD","PLUM CREEK CELLARS LTD","Sales Room Wine","08-73348-0003","2022-01-16T00:00:00.000","1512 LARIMER  #14","Denver","CO","80202"
"PEAK 54 BREWING COMPANY LLC PEAK 54 BREWING COMPANY","RAILS END BEER COMPANY","Sales Room Malt","03-05719","2022-01-13T00:00:00.000","11625 REED COURT UNIT B","Broomfield","CO","80020"
"STEM CIDERS","STEM CIDERS","Sales Room Wine","03-09098","2022-01-25T00:00:00.000","1380 HORIZON AVENUE UNIT A & C","Lafayette","CO","80026"
"C SQUARED CIDERS LLC","C SQUARED CIDERS LLC","Sales Room Wine","03-14069","2021-11-17T00:00:00.000","910 L STREET","Penrose","CO","81240"
"WALTER MARIANNE","AUGUSTINA'S WINERY","Sales Room Wine","09-84455-0000","2022-04-17T00:00:00.000","20 EAST LAKEVIEW DRIVE #103","Nederland","CO","80466"
"LONG TABLE BREWING COMPANY","LONG TABLE BREWING COMPANY","Sales Room Malt","03-09257","2022-02-19T00:00:00.000","2895 FAIRFAX STREET","Denver","CO","80207"
"HALFPENNY BREWING COMPANY","HALFPENNY BREWING COMPANY","Sales Room Malt","03-05715","2022-12-09T00:00:00.000","5150 EAST ARAPAHOE ROAD  UNIT D1-B","Centennial","CO","80122"
"APPLE VALLEY CIDER COMPANY","APPLE VALLEY CIDER COMPANY","Sales Room Wine","03-08805","2022-12-25T00:00:00.000","103 BROADWAY UNIT #13","Penrose","CO","81240"
"EVENING GRACE ESTATE LLC","EVENING GRACE ESTATE LLC","Sales Room Wine","03-09177","2022-02-18T00:00:00.000","35837 HANSON MESA ROAD","Hotchkiss","CO","81419"
"RULE 105 BREWING COMPANY","RULE 105 BREWING CO","Sales Room Malt","03-15728","2022-11-18T00:00:00.000","4731 WEST 10TH STREET UNIT G","Greeley","CO","80634"
"BREWERY HILL LLC","BROKEN COMPASS BREWING COMPANY","Sales Room Malt","03-02673","2023-03-27T00:00:00.000","68 CONTINENTAL COURT UNIT B-12","Breckenridge","CO","80424"
"MAD RABBIT DISTILLERY","HIGH PROOF DISTILLERY","Sales Room Spirits","03-05348","2022-12-13T00:00:00.000","10860 DOVER STREET SUITE 2000","Westminster","CO","80021"
"PLUM CREEK CELLARS LTD","PLUM CREEK CELLARS LTD","Sales Room Wine","08-73348-0003","2023-01-16T00:00:00.000","700 SOUTH GARFIELD STREET","Denver","CO","80209"
"COLORADO WINE ROOM","COLORADO WINE ROOM","Sales Room Wine","41-97969-0001","2023-02-08T00:00:00.000","3701 G ROAD","Palisade","CO","81526"
"HOLIDAILY BREWING COMPANY","HOLIDAILY BREWING COMPANY","Sales Room Malt","03-14921","2022-08-17T00:00:00.000","5370 GREENWOOD PLAZA BOULEVARD SUITE I-107","Greenwood Village","CO","80111"
"COLTERRIS WINERY/COLTERRIS WINES","COLTERRIS WINERY/COLTERRIS WINES","Sales Room Wine","42-80284-0001","2023-05-02T00:00:00.000","3907 NORTH RIVER ROAD","Palisade","CO","81526"
"CLEAR FORK CIDER","CLEAR FORK CIDER","Sales Room Wine","03-06464","2023-06-12T00:00:00.000","13395 BRAUN ROAD","Denver","CO","80401"
"NATAJACS INC.","HOGBACK DISTILLERY","Sales Room Spirits","03-08456","2022-10-23T00:00:00.000","5311 WESTERN AVENUE #174","Boulder","CO","80301"
"PROXIMO DISTILLERS","PROXIMO DISTILLERS","Sales Room Spirits","25-57788-0000","2022-10-28T00:00:00.000","200 SOUTH KALAMATH STREET","Denver","CO","802231813"
"OLD COLORADO BREWING COMPANY","OLD COLORADO BREWING COMPANY","Sales Room Malt","03-04472","2022-05-21T00:00:00.000","8441 PHEASANT RUN LANE","Wellington","CO","80549"
"MAISON DE SAISON LLC","CHRYSALIS BARREL AGED BEER","Sales Room Malt","03-12499","2022-11-12T00:00:00.000","201 A FIRST STREET","Paonia","CO","81428"
"MARBLE DISTILLING COMPANY","MARBLE DISTILLING COMPANY","Sales Room Spirits","03-03501","2022-09-10T00:00:00.000","415 EAST DEAN STREET","Carbondale","CO","81623"
"THREE BARREL BREWING CO LLC","THREE BARREL BREWING COMPANY LLC","Sales Room Malt","03-02745","2023-04-13T00:00:00.000","475 GRAND AVENUE","Del Norte","CO","81132"
"NOVEL STRAND BREWING COMPANY","NOVEL STRAND BREWING COMPANY","Sales Room Malt","03-09598","2022-06-25T00:00:00.000","305 WEST 1ST AVENUE","Denver","CO","80223"
"3 HUNDRED DAYS DISTILLING","3 HUNDRED DAYS DISTILLING","Sales Room Spirits","03-03188","2022-07-13T00:00:00.000","2845 WALNUT","Denver","CO","80205"
"LONG TABLE BREWING COMPANY","LONG TABLE BREWING COMPANY","Sales Room Malt","03-09257","2023-02-19T00:00:00.000","2895 FAIRFAX STREET","Denver","CO","80207"
"JESSUP FARM BARREL HOUSE","JESSUP FARM BARREL HOUSE","Sales Room Malt","03-05472","2022-11-22T00:00:00.000","1921 JESSUP DRIVE","Fort Collins","CO","80525"
"WILLIAMS CELLARS LLC","SNOW CAPPED CIDER","Sales Room Wine","03-06167","2022-03-16T00:00:00.000","250 SOUTH GRAND MESA DRIVE","Cedaredge","CO","81413"
"STEIN BREWING COMPANY","STEIN BREWING COMPANY","Sales Room Malt","03-00743","2023-02-01T00:00:00.000","2516 49TH ST, UNIT 5","Boulder","CO","80301"
"FUNKWERKS","FUNKWERKS","Sales Room Malt","15-75022-0002","2022-11-23T00:00:00.000","1900 EAST LINCOLN AVE UNIT B","Fort Collins","CO","80524"
"MARBLE DISTILLING COMPANY","MARBLE DISTILLING COMPANY","Sales Room Spirits","03-03501","2022-09-10T00:00:00.000","150 MAIN STREET","Carbondale","CO","81623"
"CROW HOP BREWING CO","CROW HOP BREWING COMPANY LTD.","Sales Room Malt","03-01527","2022-07-02T00:00:00.000","214 EAST 4TH STREET","Loveland","CO","80537"
"ASHER BREWING COMPANY","ASHER BREWING COMPANY LLC","Sales Room Malt","12-85475-0001","2022-11-16T00:00:00.000","4699 NAUTILUS COURT SUITE 104","Boulder","CO","80301"
"HOLIDAILY BREWING COMPANY","HOLIDAILY BREWING COMPANY","Sales Room Malt","03-09388","2023-03-27T00:00:00.000","820 BRICKYARD CIRCLE","Golden","CO","80403"
"MILE HIGH WINERY","WINTER PARK WINERY LLC","Sales Room Wine","28-36089-0002","2022-11-07T00:00:00.000","395 ZEREX STREET","Fraser","CO","80442"
"LOVELAND ALEWORKS","LOVELAND ALEWORKS","Sales Room Malt","03-00508","2022-12-05T00:00:00.000","118 WEST 4TH STREET","Loveland","CO","80537"
"NEW BELGIUM BREWING CO","NEW BELGIUM BREWING CO","Sales Room Malt","09-69917-0001","2023-03-30T00:00:00.000","500 LINDEN STREET","Fort Collins","CO","80524"
"WILLIAMS CELLARS LLC  WILLIAMS CELLARS","WILLIAMS CELLARS","Sales Room Wine","03-06168","2023-03-16T00:00:00.000","250 SOUTH GRAND MESA DRIVE","Cedaredge","CO","81413"
"WILLIAMS CELLARS LLC","SNOW CAPPED CIDER","Sales Room Wine","03-06167","2023-03-16T00:00:00.000","250 SOUTH GRAND MESA DRIVE","Cedaredge","CO","81413"
"VARAISON VINEYARDS & WINERY LLC","VARAISON VINEYARDS & WINERY","Sales Room Wine","03-13994","2022-12-07T00:00:00.000","405 WEST FIRST STREET","Palisade","CO","81526"
"YAMPA VALLEY BREWING COMPANY LLC","YAMPA VALLEY BREWING COMPANY","Sales Room Malt","03-12346","2023-01-27T00:00:00.000","576 YAMPA AVENUE","Craig","CO","81625"
"OHM BREWING INC","OHM BREWING INC","Sales Room Malt","03-11352","2023-04-25T00:00:00.000","1921 YOUNGFIELD STREET UNIT 210","Golden","CO","80401"
"PURGATORY CELLARS WINERY","PURGATORY CELLARS LLP","Sales Room Wine","03-04137","2022-02-01T00:00:00.000","18921 PLAZA DR UNIT 100","Parker","CO","801349679"
"EQUINOX BREWING COMPANY INC","EQUINOX BREWING COMPANY INC","Sales Room Malt","25-54716-0002","2023-04-05T00:00:00.000","133 REMINGTON STREET","FT COLLINS","CO","805242833"
"GOLDEN MOON SPEAKEASY","GOLDEN MOON DISTILLERY","Sales Room Spirits","03-00265","2022-10-17T00:00:00.000","1111 MINER'S AVENUE","Golden","CO","80401"
"HONEY HOUSE DISTILLERY","HONEY HOUSE DISTILLERY","Sales Room Spirits","03-00233","2022-10-30T00:00:00.000","33633 HIGHWAY 550 SUITE A","Durango","CO","813017162"
"VINO COLORADO WINERY","VINO COLORADO WINERY","Sales Room Wine","03-03480","2022-09-17T00:00:00.000","2845 ORE MILL ROAD UNIT #9","Colorado Springs","CO","80904"
"WALTER BREWING COMPANY","WALTER BREWING COMPANY","Sales Room Malt","03-09662","2022-03-15T00:00:00.000","126 SOUTH ONEIDA STREET","Pueblo","CO","81003"
"DEERHAMMER DISTILLING COMPANY","DEERHAMMER DISTILLING COMPANY LLC","Sales Room Spirits","25-60500-0001","2022-10-22T00:00:00.000","105 BARNWOOD DRIVE","Buena Vista","CO","81211"
"HONEY HOUSE DISTILLERY","HONEY HOUSE DISTILLERY","Sales Room Spirits","03-00233","2022-10-30T00:00:00.000","800 CAMINO DEL RIO","Durango","CO","81301"
"COLTERRIS","COLTERRIS WINERY/COLTERRIS WINES","Sales Room Wine","42-80284-0001","2023-05-02T00:00:00.000","3548 EAST 1/2 ROAD STE C","Palisade","CO","81526"
"SWEET HEART WINERY","SWEETHEART CITY WINES","Sales Room Wine","42-87347-0000","2022-12-22T00:00:00.000","5500 WEST HIGHWAY 34","Loveland","CO","80537"
"STATION 26 BREWING CO","STATION 26 BREWING CO","Sales Room Malt","03-01913","2022-08-29T00:00:00.000","7045 EAST 38TH AVE","Denver","CO","80207"
"POBC LLC","PUBLIC OFFERING BREWING COMPANY","Sales Room Malt","03-15365","2022-10-07T00:00:00.000","1736 SOUTH BROADWAY STREET","Denver","CO","80210"
"CASTLE ROCK BEER COMPANY","IRON MULE BREWERY","Sales Room Malt","03-05096","2022-11-18T00:00:00.000","514 PERRY STREET C106","Castle Rock","CO","80104"
"RIVER NORTH BREWERY","RIVER NORTH BREWERY","Sales Room Malt","25-60670-0002","2022-10-23T00:00:00.000","6021 WASHINGTON STREET  UNIT A","Denver","CO","80216"
"JADE MOUNTAIN BREWING COMPANY","JADE MOUNTAIN BREWING COMPANY","Sales Room Malt","03-12809","2023-02-09T00:00:00.000","4233 SOUTH BUCKLEY ROAD","Aurora","CO","80013"
"10 BARREL BREWING","10 BARREL BREWING","Sales Room Malt","03-06348","2023-06-15T00:00:00.000","2620 WALNUT STREET","Denver","CO","80205"
"VINELANDS 79 LLC","VINES 79 WINE BARN","Sales Room Wine","03-10594","2023-01-24T00:00:00.000","3839 G ROAD","Palisade","CO","81526"
"VISION QUEST BREWING COMPANY","VISION QUEST BREWING COMPANY","Sales Room Malt","03-04275","2023-04-29T00:00:00.000","2510 47TH STREET UNIT A2","Boulder","CO","80301"
"EPIC BREWING COMPANY","EPIC BREWING COMPANY & PAKKA HARD SELTZER COMPANY","Sales Room Malt","03-01189","2023-04-25T00:00:00.000","3001 WALNUT STREET","Denver","CO","80205"
"EXTANT BREWING COMPANY LLC","RIVER NORTH BREWERY","Sales Room Malt","03-09136","2022-03-18T00:00:00.000","6021 WASHINGTON STREET UNIT A","Denver","CO","80216"
"CONTINENTAL DIVIDE WINERY LLC","CONTINENTAL DIVIDE WINERY","Sales Room Wine","03-06730","2022-09-01T00:00:00.000","505 SOUTH MAIN STREET, UNIT C-6","Breckenridge","CO","80424"
"STORM PEAK BREWING COMPANY","STORM PEAK BREWING COMPANY","Sales Room Malt","03-02540","2023-02-28T00:00:00.000","1885 ELK RIVER PLAZA","Steamboat Springs","CO","80487"
"FINKEL & GARF BREWING CO","FINKEL & GARF BREWING CO.","Sales Room Malt","03-02562","2023-03-27T00:00:00.000","5455 SPINE ROAD UNIT A","Boulder","CO","80301"
"PEAK VIEW BREWING COMPANY","PEAK VIEW BREWING COMPANY","Sales Room Malt","03-10414","2023-02-06T00:00:00.000","9672 EAST ARAPAHOE ROAD","Greenwood Village","CO","80112"
"The Shine Shop & Craft Spirits","THE SHINE SHOP & CRAFT SPIRITS","Sales Room Spirits","03-13623","2022-12-07T00:00:00.000","2525 WEST 10TH STREET","Greeley","CO","80634"
"BOOTSTRAP BREWING","BOOTSTRAP BREWING COMPANY","Sales Room Malt","03-07246","2022-11-29T00:00:00.000","142 PRATT STREET","Longmont","CO","80501"
"WILEY ROOTS BREWING COMPANY","WILEY ROOTS BREWING COMPANY","Sales Room Malt","03-01238","2023-04-25T00:00:00.000","958 3RD STREET UNIT D","Greeley","CO","80631"
"BRUSH HOLLOW","BRUSH HOLLOW","Sales Room Wine","03-12765","2023-01-21T00:00:00.000","465  D  STREET","Penrose","CO","81240"
"RESOLUTE BREWING COMPANY LLC","RESOLUTE BREWING COMPANY LLC","Sales Room Malt","03-06116","2023-03-17T00:00:00.000","7286 SOUTH YOSEMITE STREET STE 110","Centennial","CO","80211"
"MAINSTAGE BREWING COMPANY LLC","MAINSTAGE BREWING COMPANY","Sales Room Malt","03-14514","2023-04-19T00:00:00.000","450 MAIN STREET","Lyons","CO","80540"
"HONEYVILLE STORE","COLORADO WINE ROOM","Sales Room Wine","41-97969-0001","2023-02-08T00:00:00.000","33633 HIGHWAY 550","Durango","CO","81301"
"CASEY BREWING AND BLENDING LLC","CASEY BREWING AND BLENDING LLC","Sales Room Malt","03-02668","2023-03-27T00:00:00.000","3421 GRAND AVE SUITE E","Glenwood Springs","CO","81601"
"COLORADO CIDER COMPANY","COLORADO CIDER COMPANY","Sales Room Wine","06-39228-0000","2022-12-14T00:00:00.000","2650 WEST 2ND AVENUE #10","Denver","CO","80219"
"COPPER CLUB BREWING CO","COPPER CLUB BREWING COMPANY","Sales Room Malt","03-00170","2021-12-13T00:00:00.000","153 NORTH MULBERRY STREET","Fruita","CO","81521"
"COPPER KETTLE BREWING COMPANY","COPPER KETTLE BREWING CO LLC","Sales Room Malt","15-79065-0001","2023-02-24T00:00:00.000","1338 S VALENTIA ST #100","Denver","CO","80247"
"WALTER BREWING COMPANY","WALTER BREWING COMPANY","Sales Room Malt","03-09662","2023-03-15T00:00:00.000","126 SOUTH ONEIDA STREET","Pueblo","CO","81003"
"BIG THOMPSON BREWERY","BIG THOMPSON BREWERY","Sales Room Malt","03-02600","2023-03-13T00:00:00.000","114 EAST 15TH STREET","Loveland","CO","80538"
"GREEN MOUNTIAN BEER","GREEN MOUNTAIN BEER COMPANY","Sales Room Malt","03-05534","2022-11-30T00:00:00.000","2585 SOUTH LEWIS WAY SUITE 110","Lakewood","CO","80227"
"SANITAS BREWING CO","SANITAS BREWING CO","Sales Room Malt","03-01712","2022-07-25T00:00:00.000","3550 FRONTIER AVE UNIT A","Boulder","CO","80301"
"HIGH PLAINS WINERY","HIGH PLAINS WINERY, HP WINERY, HPW","Sales Room Wine","03-16385","2023-03-08T00:00:00.000","312 MAIN STREET UNITS A&B","Sterling","CO","80751"
"RESOLUTE BREWING COMPANY LLC","RESOLUTE BREWING COMPANY LLC","Sales Room Malt","03-11237","2023-05-05T00:00:00.000","18148 WEST 92ND LANE #100","Arvada","CO","80007"
"PEAKS N PINES BREWERY","PEAKS N PINES BREWERY","Sales Room Malt","03-11579","2023-05-15T00:00:00.000","4005 TUTT BOULEVARD","Colorado Springs","CO","80922"
"SMILING TOAD BREWING COMPANY","SMILING TOAD BREWING CO, INC.","Sales Room Malt","03-01123","2023-05-20T00:00:00.000","2028 SHELDON AVENUE","Colorado Springs","CO","80904"
"ESOTERRA INC","ESO TERRA INC.","Sales Room Wine","03-13201","2023-05-20T00:00:00.000","18390 HIGHWAY 145","Dolores","CO","81323"
"ST. KATHRYN CELLARS","COLORADO WINE ROOM","Sales Room Wine","41-97969-0001","2023-02-08T00:00:00.000","785 ELBERTA AVENUE","Palisade","CO","81526"
"HIGH COUNTY BEVERAGE CORP","HIGH COUNTRY BEVERAGE CORP","Sales Room Malt","23-68718-0001","2023-05-27T00:00:00.000","4200 RONALD REAGAN BLVD","Loveland","CO","80534"
"BOOKCLIFF VINEYARDS","BOOKCLIFF VINEYARDS","Sales Room Wine","24-95651-0001","2022-12-06T00:00:00.000","1501 LEE HILL ROAD #17","Boulder","CO","803040583"
"UPSLOPE BREWING COMPANY","UPSLOPE BREWING COMPANY","Sales Room Malt","03-01321","2023-04-14T00:00:00.000","1898 SOUTH FLATIRON COURT SUITE 120","Boulder","CO","80301"
"CALL TO ARMS BREWING COMPANY","CALL TO ARMS BREWING COMPANY","Sales Room Malt","03-04254","2023-03-04T00:00:00.000","4526 TENNYSON STREET","Denver","CO","80212"
"MOLLY BROWN SPIRITS","MOLLY BROWN SPIRITS","Sales Room Spirits","03-09649","2022-09-12T00:00:00.000","2300 EAST 77TH AVENUE UNIT 300","Denver","CO","80229"
"LUMPY RIDGE BREWING COMPANY","LUMPY RIDGE BREWING COMPANY LLC","Sales Room Malt","03-04284","2023-03-03T00:00:00.000","531 SOUTH SAINT VRAIN AVENUE","Estes Park","CO","80517"
"LANDLOCKED ALES","LANDLOCKED ALES","Sales Room Malt","03-05976","2022-02-22T00:00:00.000","3225 SOUTH WADSWORTH BOULEVARD UNIT PQRS","Lakewood","CO","80227"
"DESERT SUN VINEYARDS","DESERT SUN VINEYARDS & WINERY LLC","Sales Room Wine","42-79166-0000","2022-03-23T00:00:00.000","3230 B 1/2 ROAD","Grand Junction","CO","81503"
"BOATHOUSE DISTILLERY LLC","BOATHOUSE DISTILLERY AND WESTERN MEDICINE SPIRITS","Sales Room Spirits","03-00900","2022-02-13T00:00:00.000","4840 VAN GORDON STREET UNIT 200","Wheat Ridge","CO","80033"
"SETTEMBRE CELLARS","SETTEMBRE CELLARS","Sales Room Wine","42-79766-0001","2022-02-28T00:00:00.000","1501 LEE HILL DRIVE #16","Boulder","CO","80304"
"YAMPA VALLEY BREWING COMPANY LLC","YAMPA VALLEY BREWING COMPANY","Sales Room Malt","03-12344","2022-01-27T00:00:00.000","200 NORTH WALNUT STREET","Hayden","CO","81639"
"OLD 121 BREWHOUSE","OLD 121 BREWHOUSE","Sales Room Malt","03-10791","2022-01-23T00:00:00.000","1057 SOUTH WADSWORTH BLVD SUITE 60","Lakewood","CO","80226"
"JADE MOUNTAIN BREWING COMPANY","JADE MOUNTAIN BREWING COMPANY","Sales Room Malt","03-12809","2022-02-09T00:00:00.000","1925 SOUTH ROSEMARY STREET UNIT A","Denver","CO","80231"
"GROSSEN BART BREWING COMPANY","GROSSEN BART BREWERY","Sales Room Malt","03-12745","2022-02-10T00:00:00.000","33 SOUTH PRATT PARKWAY #300","Longmont","CO","80501"
"COMET BREWS LTD","COMET BREWS LTD","Sales Room Malt","03-12218","2022-01-24T00:00:00.000","5642 SOUTH SYCAMORE STREET","Littleton","CO","80120"
"GOLD BUCKLE BREWERY","GOLD BUCKLE BREWERY","Sales Room Malt","03-05936","2022-03-03T00:00:00.000","201 GRANT AVENUE","La Junta","CO","81050"
"BAJA VENTURES, INC.","ALTITUDE BREWING & SUPPLY","Sales Room Malt","03-13539","2022-01-07T00:00:00.000","2801 WALNUT STREET","Denver","CO","80205"
"COLORADO VINTNER'S COLLECTIVE LLC","COLORADO VINTNER'S COLLECTIVE LLC","Sales Room Wine","03-12946","2022-04-02T00:00:00.000","3674 G ROAD","Palisade","CO","81526"
"SNITCHING LADY DISTILLERY","SNITCHING LADY DISTILLERY LLC","Sales Room Spirits","03-09061","2022-02-20T00:00:00.000","526 A FRONT STREET","Fairplay","CO","80440"
"BIG THOMPSON BREWERY","BIG THOMPSON BREWERY","Sales Room Malt","03-02600","2022-03-13T00:00:00.000","114 EAST 15TH STREET","Loveland","CO","80538"
"SOUTH PARK DISTILLING LLC","SOUTH PARK DISTILLING LLC","Sales Room Spirits","03-09079","2022-02-20T00:00:00.000","297 1/2 HIGHWAY 285","Fairplay","CO","80440"
"EAGLE ROCK DISTRIBUTING COMPANY OF COLORADO LLC","EAGLE ROCK DISTRIBUTING COMPANY OF COLORADO LLC","Sales Room Malt","03-14132","2022-01-20T00:00:00.000","3800 CLYDESDALE PARKWAY","Loveland","CO","80538"
"THE FAMILY JONES LLC","THE FAMILY JONES LLC","Sales Room Spirits","03-07493","2022-02-09T00:00:00.000","1527 TAURUS COURT","Loveland","CO","80537"
"STEIN BREWING COMPANY","STEIN BREWING COMPANY","Sales Room Malt","03-00743","2022-02-01T00:00:00.000","2516 49TH ST, UNIT 5","Boulder","CO","80301"
"THE HEART DISTILLERY","THE HEART DISTILLERY","Sales Room Spirits","03-08678","2022-02-27T00:00:00.000","6461 HIGHWAY 392","Windsor","CO","80550"
"PURGATORY CELLARS LLP","PURGATORY CELLARS LLP","Sales Room Wine","03-04137","2022-02-01T00:00:00.000","611 NORTH WILCOX STREET","Castle Rock","CO","80104"
"SNOWBANK BREWING","SNOWBANK BREWING","Sales Room Malt","03-02637","2022-03-05T00:00:00.000","225 NORTH LEMAY AVENUE  SUITE 1","Fort Collins","CO","80524"
,"GREAT DIVIDE BREWING CO","Sales Room Malt","07-29740-0002","2021-06-01T00:00:00.000","2201 ARAPAHOE STREET","Denver","CO","80205"
"SETTE DOLORI WINERY","SETTE DOLORI WINERY","Sales Room Wine","03-01057","2022-04-02T00:00:00.000","12980 SOAP WEED ROAD","Calhan","CO","80808"
"VERSO CELLARS","VERSO CELLARS","Sales Room Wine","18-26226-0009","2022-02-18T00:00:00.000","1734 EAST EVANS AVENUE","Denver","CO","80204"
"FICTION BEER COMPANY","FICTION BEER COMPANY","Sales Room Malt","03-02482","2022-02-20T00:00:00.000","7101 EAST COLFAX AVENUE","Denver","CO","80220"
"WHISTLING HARE DISTILLERY","WHISTLING HARE DISTILLERY","Sales Room Spirits","03-04297","2022-03-04T00:00:00.000","7655 WEST 108TH AVENUE, UNIT 400","Westminster","CO","80021"
"LOST TAPHAUS LLC","THE LOST TAPHAUS","Sales Room Malt","03-14155","2022-01-19T00:00:00.000","500 SOUTH MAIN, UNITS S2, T2, U2, V2","Breckenridge","CO","80424"
"BRUSH HOLLOW","BRUSH HOLLOW","Sales Room Wine","03-12765","2022-01-21T00:00:00.000","465  D  STREET","Penrose","CO","81240"
"THREE BARREL BREWING CO LLC","THREE BARREL BREWING COMPANY LLC","Sales Room Malt","03-02745","2022-04-13T00:00:00.000","475 GRAND AVENUE","Del Norte","CO","81132"
"SPANGALANG BREWERY","SPANGALANG BREWERY","Sales Room Malt","03-04090","2022-02-03T00:00:00.000","2736 WELTON STREET STE 102","Denver","CO","80205"
"NEW BELGIUM BREWING CO","NEW BELGIUM BREWING CO","Sales Room Malt","09-69917-0001","2022-03-30T00:00:00.000","500 LINDEN STREET","Fort Collins","CO","80524"
"VERSO CELLARS @ METROPOLIS COFFEE","VERSO CELLARS","Sales Room Wine","18-26226-0009","2022-02-18T00:00:00.000","1661 CENTRAL AVENUE","Denver","CO","80204"
"TALNUA","TALNUA","Sales Room Spirits","03-09124","2022-02-11T00:00:00.000","5405 WEST 56TH AVENUE UNIT C","Arvada","CO","80002"
"VERSO CELLARS","VERSO CELLARS","Sales Room Wine","18-26226-0009","2022-02-18T00:00:00.000","1 SOUTH BROADWAY","Denver","CO","80204"
"PROST BREWING COMPANY","PROST BREWING COMPANY","Sales Room Malt","03-06194","2022-03-10T00:00:00.000","321 OLD FIREHOUSE ALLEY","Fort Collins","CO","80524"
"TRVE BREWING CO","TRVE BREWING COMPANY","Sales Room Malt","15-81023-0001","2022-02-09T00:00:00.000","227 BROADWAY #101","Denver","CO","80203"
"PALISADE SALES ROOM","COLORADO WINE ROOM","Sales Room Wine","41-97969-0001","2022-02-08T00:00:00.000","785 ELBERTA AVE","Palisade","CO","81526"
"ZWEI BREWING CO","ZWEI  BREWING CO","Sales Room Malt","03-02354","2022-01-22T00:00:00.000","4612 SOUTH MASON ST STE 120","Fort Collins","CO","80525"
"ON POINT DISTILLERY","ON POINT DISTILLERY","Sales Room Spirits","03-08981","2022-01-23T00:00:00.000","802 SOUTH PUBLIC ROAD UNIT E","Lafayette","CO","80026"
"AVANT VINEYARDS INC","AVANT VINEYARDS INC","Sales Room Wine","15-64836-0000","2022-02-05T00:00:00.000","3480 E ROAD","Palisade","CO","81526"
"OSKAR BLUES BREWERY","OSKAR BLUES BREWERY","Sales Room Malt","03-02261","2022-02-17T00:00:00.000","1800 PIKE ROAD","Longmont","CO","80501"
"FLYTECO BREWING","FLYTECO BREWING","Sales Room Malt","03-09087","2022-01-24T00:00:00.000","4499 WEST 38TH AVENUE SUITE 101","Denver","CO","80212"
"WATER 2 WINE","WATER 2 WINE","Sales Room Wine","42-45898-0000","2022-02-01T00:00:00.000","8130 SOUTH UNIVERSITY BLVD #110","Littleton","CO","801225106"
"ELEVATION BEER COMPANY","ELEVATION BEER COMPANY","Sales Room Malt","25-61540-0001","2022-01-10T00:00:00.000","115 PAHLONE PARKWAY","Poncha Springs","CO","81242"
"HONEYVILLE STORE","COLORADO WINE ROOM","Sales Room Wine","41-97969-0001","2022-02-08T00:00:00.000","33633 HIGHWAY 550","Boulder","CO","80301"
"SPARGE BREWING, LLC","SPARGE BREWING, LLC","Sales Room Malt","03-10734","2022-03-03T00:00:00.000","3999 GW BUSCH AVENUE, UNIT A","Wellington","CO","80549"
"TALON WINERY LLC   DBA - COLORADO WINE ROOM  MEADERY OF THE ROCKIES","COLORADO WINE ROOM","Sales Room Wine","41-97969-0001","2022-02-08T00:00:00.000","800 SOUTH CAMINO DEL RIO SPACE D6","Durango","CO","81301"
"APPLE VALLEY CIDER COMPANY","APPLE VALLEY CIDER COMPANY","Sales Room Wine","03-08805","2021-12-25T00:00:00.000","103 BROADWAY UNIT #13","Penrose","CO","81240"
"AVANTI WINERY INC","GAR'S & GRAPES","Sales Room Wine","14-43495-0000","2021-05-14T00:00:00.000","19565 EAST MAINSTREET","Parker","CO","80138"
"BRASS BREWING COMPANY","BRASS BREWING COMPANY","Sales Room Malt","03-09123","2022-02-06T00:00:00.000","318 EAST COLORADO AVENUE SUITE C","Colorado Springs","CO","80903"
"LOCAL DISTILLING","LOCAL DISTILLING","Sales Room Spirits","14-72741-0000","2022-03-04T00:00:00.000","417 VIOLET STREET","Golden","CO","804016713"
"KEG 1 COLORADO LLC","KEG 1 COLORADO LLC","Sales Room Malt","03-12885","2022-02-10T00:00:00.000","1525 NEWPORT ROAD","Colorado Springs","CO","80926"
"BREWERY HILL LLC","BROKEN COMPASS BREWING COMPANY","Sales Room Malt","03-02673","2022-03-27T00:00:00.000","68 CONTINENTAL COURT UNIT B-12","Breckenridge","CO","80424"
"ALFRED EAMES CELLARS","ALFRED EAMES CELLARS","Sales Room Wine","15-37661-0001","2022-02-04T00:00:00.000","11931 4050 ROAD","Paonia","CO","81428"
"ASPEN PEAK CELLARS","ASPEN PEAK CELLARS","Sales Room Wine","15-70398-0002","2022-02-25T00:00:00.000","60750 US HIGHWAY 285","Bailey","CO","80421"
"The Shine Shop & Craft Spirits","THE SHINE SHOP & CRAFT SPIRITS","Sales Room Spirits","03-13623","2021-12-07T00:00:00.000","2525 WEST 10TH STREET","Greeley","CO","80634"
"ROCKER SPIRITS","ROCKER SPIRITS","Sales Room Spirits","03-05423","2021-11-18T00:00:00.000","5587 INDUSTRIAL PLACE, SUITE A","Littleton","CO","80120"
"ST VRAIN CIDERY","ST VRAIN CIDERY","Sales Room Wine","03-05945","2022-02-25T00:00:00.000","350 TERRY STREET SUITE 130","Longmont","CO","80501"
"LUMPY RIDGE BREWING COMPANY","LUMPY RIDGE BREWING COMPANY LLC","Sales Room Malt","03-04284","2022-03-03T00:00:00.000","531 SOUTH SAINT VRAIN AVENUE","Estes Park","CO","80517"
"281 33 ROAD","THE PEACHFORK","Sales Room Wine","03-07114","2021-10-23T00:00:00.000","281 33 ROAD","Palisade","CO","81526"
"A B VISITORS TOWN CENTER","A B VISITORS TOWN CENTER","Sales Room Malt","01-25130-0002","2021-12-31T00:00:00.000","2351 BUSCH DR","Fort Collins","CO","805249400"
"CALL TO ARMS BREWING COMPANY","CALL TO ARMS BREWING COMPANY","Sales Room Malt","03-04254","2022-03-04T00:00:00.000","4526 TENNYSON STREET","Denver","CO","80212"
"THE OBC WINE PROJECT","THE OBC WINE PROJECT","Sales Room Wine","03-12302","2022-02-12T00:00:00.000","824 EAST LINCOLN AVENUE","Fort Collins","CO","80524"
"COLORADO WINE ROOM","COLORADO WINE ROOM","Sales Room Wine","41-97969-0001","2022-02-08T00:00:00.000","3701 G ROAD","Palisade","CO","81526"
"AVANTI WINERY INC","GAR'S & GRAPES","Sales Room Wine","14-43495-0000","2021-05-14T00:00:00.000","6205 SOUTH MAIN STREET","Aurora","CO","80016"
"THREE BARREL CO/BRICKER BEER","THREE BARREL BREWING CO / BRICKER BEER","Sales Room Malt","42-23859-0002","2022-03-12T00:00:00.000","586 COLUMBIA AVENUE","Del Norte","CO","81132"
"MOUNTAIN TOAD BREWING","MOUNTAIN TOAD BREWING","Sales Room Malt","03-00840","2022-02-04T00:00:00.000","900 WASHINGTON AVE","Golden","CO","80401"
"ASPEN PEAK CELLARS INC","ASPEN PEAK CELLARS","Sales Room Wine","15-70398-0002","2022-02-25T00:00:00.000","105 WEST MAIN STREET","Florence","CO","81226"
"HORSE & DRAGON BREWING COMPANY","HORSE & DRAGON BREWING COMPANY","Sales Room Malt","03-02409","2022-01-21T00:00:00.000","124 RACQUETTE DRIVE","Fort Collins","CO","80524"
"CRAZY MOUNTAIN BREWING COMPANY","CRAZY MOUNTAIN BREWING COMPANY","Sales Room Malt","03-05456","2021-12-03T00:00:00.000","441-471 KALAMATH STREET","Denver","CO","80204"
"OASIS BREWERY","OASIS BREWERY","Sales Room Malt","03-07948","2022-10-12T00:00:00.000","3257 NORTH LOWELL BOULEVARD","Denver","CO","80211"
"BLUE MOUNTAIN VINEYARDS","BLUE MOUNTAIN VINEYARDS","Sales Room Wine","42-54818-0001","2022-11-14T00:00:00.000","4480 HOOT OWL DRIVE","Berthoud","CO","80513"
"ZANAMIEL MEADERY","ZANAMIEL MEADERY","Sales Room Wine","03-11662","2023-05-05T00:00:00.000","6801 SOUTH MARION CIRCLE WEST","Centennial","CO","80122"
"RESOLUTE BREWING COMPANY LLC","RESOLUTE BREWING COMPANY LLC","Sales Room Malt","03-11237","2022-05-05T00:00:00.000","18148 WEST 92ND LANE #100","Arvada","CO","80007"
"BURLY BREWING COMPANY","BURLY BREWING COMPANY","Sales Room Malt","03-08627","2023-01-31T00:00:00.000","680 ATCHISON WAY SUITE 700/800","Castle Rock","CO","80109"
"THE FAMILY JONES LLC","THE FAMILY JONES LLC","Sales Room Spirits","03-07493","2023-02-09T00:00:00.000","1527 TAURUS COURT","Loveland","CO","80537"
"NEW TERRAIN BREWING COMPANY","NEW TERRAIN BREWING COMPANY","Sales Room Malt","03-05809","2023-01-10T00:00:00.000","16401 TABLE MOUNTAIN PARKWAY","Golden","CO","80403"
"FENCELINE CIDFER","FENCELINE CIDER","Sales Room Wine","03-08674","2023-01-16T00:00:00.000","141 SOUTH MAIN STREET UNIT C","Mancos","CO","81328"
"APPLE VALLEY CIDER COMPANY","APPLE VALLEY CIDER COMPANY","Sales Room Wine","03-08805","2022-12-25T00:00:00.000","103 BROADWAY UNIT #13","Penrose","CO","81240"
"BREWERY HILL LLC","BROKEN COMPASS BREWING COMPANY","Sales Room Malt","03-02673","2023-03-27T00:00:00.000","68 CONTINENTAL COURT UNIT B-12","Breckenridge","CO","80424"
"SAUVAGE SPECTRUM LLC","SAUVAGE SPECTRUM LLC","Sales Room Wine","03-10898","2023-02-12T00:00:00.000","702 MAIN STREET","Grand Junction","CO","81501"
"CHILL SWITCH WINES","CHILL SWITCH WINES","Sales Room Wine","03-02311","2023-04-09T00:00:00.000","260 WEST MAIN STREET","Cedaredge","CO","81413"
"RATIO BEERWORKS","RATIO BEERWORKS","Sales Room Malt","03-08088","2023-05-18T00:00:00.000","2920 LARIMER STREET","Denver","CO","80205"
"MAD RABBIT DISTILLERY","HIGH PROOF DISTILLERY","Sales Room Spirits","03-05348","2022-12-13T00:00:00.000","10860 DOVER STREET SUITE 2000","Westminster","CO","80021"
"HIGH COUNTY BEVERAGE CORP","HIGH COUNTRY BEVERAGE CORP","Sales Room Malt","23-68718-0001","2022-05-27T00:00:00.000","4200 RONALD REAGAN BLVD","Loveland","CO","80534"
"PLUM CREEK CELLARS LTD","PLUM CREEK CELLARS LTD","Sales Room Wine","08-73348-0003","2023-01-16T00:00:00.000","700 SOUTH GARFIELD STREET","Denver","CO","80209"
"COLORADO WINE ROOM","COLORADO WINE ROOM","Sales Room Wine","41-97969-0001","2023-02-08T00:00:00.000","3701 G ROAD","Palisade","CO","81526"
"COLTERRIS WINERY/COLTERRIS WINES","COLTERRIS WINERY/COLTERRIS WINES","Sales Room Wine","42-80284-0001","2023-05-02T00:00:00.000","3907 NORTH RIVER ROAD","Palisade","CO","81526"
"DELICIOUS ORCHARDS","BIG B'S HARD CIDER","Sales Room Wine","28-62394-0001","2023-04-29T00:00:00.000","39126 HIGHWAY 133","Hotchkiss","CO","81419"
"CLEAR FORK CIDER","CLEAR FORK CIDER","Sales Room Wine","03-06464","2023-06-12T00:00:00.000","13395 BRAUN ROAD","Denver","CO","80401"
"FOSSIL CRAFT BEER COMPANY","FOSSIL CRAFT BEER COMPANY","Sales Room Malt","03-02397","2023-01-27T00:00:00.000","2845 ORE MILL ROAD UNIT#S 1 & 2","Colorado Springs","CO","80904"
"THREE BARREL BREWING CO LLC","THREE BARREL BREWING COMPANY LLC","Sales Room Malt","03-02745","2023-04-13T00:00:00.000","475 GRAND AVENUE","Del Norte","CO","81132"
"GREAT DIVIDE BREWING COMPANY","GREAT DIVIDE BREWING COMPANY","Sales Room Malt","03-03322","2022-10-15T00:00:00.000","1812 35TH ST & 3395 BRIGHTON BLVD","Denver","CO","80216"
"LONG TABLE BREWING COMPANY","LONG TABLE BREWING COMPANY","Sales Room Malt","03-09257","2023-02-19T00:00:00.000","2895 FAIRFAX STREET","Denver","CO","80207"
"SNOWY PEAKS WINERY AT ESTES PARK KOA","SNOWY PEAKS WINERY","Sales Room Wine","26-56522-0001","2023-04-24T00:00:00.000","2501 BIG THOMPSON AVENUE","Estes Park","CO","80517"
"LANOUE DUBOIS WINERY LLC","LANOUE DUBOIS WINERY","Sales Room Wine","03-13488","2022-10-12T00:00:00.000","67289 TROUT ROAD","Montrose","CO","81403"
"STEIN BREWING COMPANY","STEIN BREWING COMPANY","Sales Room Malt","03-00743","2023-02-01T00:00:00.000","2516 49TH ST, UNIT 5","Boulder","CO","80301"
"FOAM & FOLLY BREWING","FOAM & FOLLY BREWING","Sales Room Malt","03-14603","2023-05-26T00:00:00.000","330 SOUTH 2ND STREET","Grand Junction","CO","81501"
"ODYSSEY BEERWERKS","ODYSSEY BEERWERKS, LLC","Sales Room Malt","03-00947","2023-04-03T00:00:00.000","5535 WEST 56TH AVENUE SUITE 107-108","Arvada","CO","80002"
"14ER BREWING","14ER BREWING","Sales Room Malt","03-06323","2023-05-24T00:00:00.000","3120 BLAKE STREET UNIT C","Denver","CO","80205"
"Rock Cut Brewing Company","ROCK CUT BREWING COMPANY","Sales Room Malt","03-04574","2022-06-21T00:00:00.000","390 WEST RIVERSIDE DRIVE","Estes Park","CO","80517"
"HOLIDAILY BREWING COMPANY","HOLIDAILY BREWING COMPANY","Sales Room Malt","03-09388","2023-03-27T00:00:00.000","820 BRICKYARD CIRCLE","Golden","CO","80403"
"NEW BELGIUM BREWING CO","NEW BELGIUM BREWING CO","Sales Room Malt","09-69917-0001","2023-03-30T00:00:00.000","500 LINDEN STREET","Fort Collins","CO","80524"
"AVANT GARDE ALEWORKS LLC","AVANT GARDE ALEWORKS LLC","Sales Room Malt","03-10999","2023-04-02T00:00:00.000","920 DUNRAVEN STREET","Estes Park","CO","80517"
"WILLIAMS CELLARS LLC  WILLIAMS CELLARS","WILLIAMS CELLARS","Sales Room Wine","03-06168","2023-03-16T00:00:00.000","250 SOUTH GRAND MESA DRIVE","Cedaredge","CO","81413"
"STONE COTTAGE CELLARS INC","STONE COTTAGE CELLARS","Sales Room Wine","28-29936-0001","2023-06-25T00:00:00.000","41716 REDS ROAD","Paonia","CO","81428"
"REVOLUTION BREWING","PAONIA UNITED BREWING CO.","Sales Room Malt","12-75388-0001","2022-03-09T00:00:00.000","325 GRAND AVE","Paonia","CO","81428"
"YAMPA VALLEY BREWING COMPANY LLC","YAMPA VALLEY BREWING COMPANY","Sales Room Malt","03-12346","2022-01-27T00:00:00.000","576 YAMPA AVENUE","Craig","CO","81625"
"AVANT GARDE ALEWORKS LLC","AVANT GARDE ALEWORKS LLC","Sales Room Malt","03-10999","2022-04-02T00:00:00.000","920 DUNRAVEN STREET","Estes Park","CO","80517"
"THE EMPOURIUM BREWING COMPANY","THE EMPOURIUM BREWING COMPANY","Sales Room Malt","03-11239","2022-02-20T00:00:00.000","4385 WEST 42ND AVENUE","Denver","CO","80212"
"GRANDE RIVER VINEYARDS","GRANDE RIVER VINEYARDS","Sales Room Wine","04-93413-0001","2022-02-12T00:00:00.000","787 NORTH ELBERTA AVE","Palisade","CO","81526"
"BARQUENTINE BREWING COMPANY","BARQUENTINE BREWING COMPANY","Sales Room Malt","03-13317","2022-05-12T00:00:00.000","5505 WEST 20TH AVENUE SUITE 178","Edgewater","CO","80214"
"ANNAPURNA MEAD","ANNAPURNA MEAD","Sales Room Wine","03-05937","2022-02-02T00:00:00.000","40 MOUNT VIEW LANE SUITE F","Colorado Springs","CO","80907"
"MYSTIC MOUNTAIN DISTLLERY LLC","MYSTIC MOUNTAIN DISTILLERY","Sales Room Spirits","28-53034-0000","2021-09-09T00:00:00.000","736 CASTLETON ROAD","Castle Rock","CO","80104"
"COLTERRIS WINERY/COLTERRIS WINES","COLTERRIS WINERY/COLTERRIS WINES","Sales Room Wine","42-80284-0001","2022-05-02T00:00:00.000","3907 NORTH RIVER ROAD","Palisade","CO","81526"
"LUKI BREWERY, LLC","LUKI BREWERY","Sales Room Malt","03-12647","2023-04-28T00:00:00.000","14715 WEST 64TH AVENUE UNITS A & B","Arvada","CO","80004"
"YAMPA VALLEY BREWING COMPANY LLC","YAMPA VALLEY BREWING COMPANY","Sales Room Malt","03-12346","2023-01-27T00:00:00.000","576 YAMPA AVENUE","Craig","CO","81625"
"OHM BREWING INC","OHM BREWING INC","Sales Room Malt","03-11352","2023-04-25T00:00:00.000","1921 YOUNGFIELD STREET UNIT 210","Golden","CO","80401"
"SHIRAS WINERY","SHIRAS WINERY LLC","Sales Room Wine","03-09286","2023-06-06T00:00:00.000","449 COLORADO AVENUE","Grand Junction","CO","81501"
"WONDERLAND BREWING CO","WONDERLAND BREWING COMPANY LLC","Sales Room Malt","03-02460","2023-03-27T00:00:00.000","5450 WEST 120TH AVENUE","Broomfield","CO","80020"
"EQUINOX BREWING COMPANY INC","EQUINOX BREWING COMPANY INC","Sales Room Malt","25-54716-0002","2023-04-05T00:00:00.000","133 REMINGTON STREET","FT COLLINS","CO","805242833"
"COLTERRIS","COLTERRIS WINERY/COLTERRIS WINES","Sales Room Wine","42-80284-0001","2023-05-02T00:00:00.000","3548 EAST 1/2 ROAD STE C","Palisade","CO","81526"
"CASTLE ROCK BEER COMPANY","IRON MULE BREWERY","Sales Room Malt","03-05096","2022-11-18T00:00:00.000","514 PERRY STREET C106","Castle Rock","CO","80104"
"WAH GWAAN BREWING COMPANY","WAH GWAAN BREWING COMPANY","Sales Room Malt","03-14549","2022-04-08T00:00:00.000","925 WEST 8TH AVENUE","Denver","CO","80204"
"SNOWY PEAKS WINERY","SNOWY PEAKS WINERY","Sales Room Wine","26-56522-0001","2023-04-24T00:00:00.000","513 BIG THOMPSON AVENUE UNIT 120-150","Estes Park","CO","80517"
"JADE MOUNTAIN BREWING COMPANY","JADE MOUNTAIN BREWING COMPANY","Sales Room Malt","03-12809","2023-02-09T00:00:00.000","4233 SOUTH BUCKLEY ROAD","Aurora","CO","80013"
"SANITAS BREWING CO","SANITAS BREWING CO","Sales Room Malt","03-01712","2023-07-25T00:00:00.000","3550 FRONTIER AVE UNIT A","Boulder","CO","80301"
"VINELANDS 79 LLC","VINES 79 WINE BARN","Sales Room Wine","03-10594","2023-01-24T00:00:00.000","3839 G ROAD","Palisade","CO","81526"
"REDS WINE BOUTIQUE","REDS WINE BOUTIQUE","Sales Room Wine","03-09749","2023-06-27T00:00:00.000","112 SOUTH 3RD AVENUE","Sterling","CO","80751"
"VISION QUEST BREWING COMPANY","VISION QUEST BREWING COMPANY","Sales Room Malt","03-04275","2023-04-29T00:00:00.000","2510 47TH STREET UNIT A2","Boulder","CO","80301"
"FOCO BLENDINGS LLC","BLENDINGS, LLC","Sales Room Wine","03-14407","2023-04-19T00:00:00.000","3924 BINGHAM HILL ROAD","Fort Collins","CO","80521"
"BRECKENRIDGE DISTILLERY","BRECKENRIDGE DISTILLERY","Sales Room Spirits","12-87527-0001","2023-04-15T00:00:00.000","1925 AIRPORT ROAD","Breckenridge","CO","80424"
"EPIC BREWING COMPANY","EPIC BREWING COMPANY & PAKKA HARD SELTZER COMPANY","Sales Room Malt","03-01189","2023-04-25T00:00:00.000","3001 WALNUT STREET","Denver","CO","80205"
"COAL MINE AVE BREWING COMPANY","COAL MINE AVE BREWING COMPANY","Sales Room Malt","03-09486","2023-05-14T00:00:00.000","9719 WEST COAL MINE AVENUE UNIT A","Littleton","CO","80123"
"FEISTY SPIRITS LLC","FEISTY SPIRITS","Sales Room Spirits","14-73011-0002","2023-04-30T00:00:00.000","1708 EAST LINCOLN AVENUE  UNIT 1","Fort Collins","CO","80524"
"STORM PEAK BREWING COMPANY","STORM PEAK BREWING COMPANY","Sales Room Malt","03-02540","2023-02-28T00:00:00.000","1885 ELK RIVER PLAZA","Steamboat Springs","CO","80487"
"FINKEL & GARF BREWING CO","FINKEL & GARF BREWING CO.","Sales Room Malt","03-02562","2023-03-27T00:00:00.000","5455 SPINE ROAD UNIT A","Boulder","CO","80301"
"PEAK VIEW BREWING COMPANY","PEAK VIEW BREWING COMPANY","Sales Room Malt","03-10414","2023-02-06T00:00:00.000","9672 EAST ARAPAHOE ROAD","Greenwood Village","CO","80112"
"GREAT DIVIDE BREWING CO","GREAT DIVIDE BREWING CO","Sales Room Malt","07-29740-0002","2022-06-01T00:00:00.000","2201 ARAPAHOE STREET","Denver","CO","80205"
"METRIC BREWING","METRIC BREWING","Sales Room Malt","03-09959","2023-06-26T00:00:00.000","1213 NORTH CIRCLE DRIVE","Colorado Springs","CO","80909"
"COLORADO SAKE CO.","COLORADO SAKE CO","Sales Room Wine","03-08860","2023-01-18T00:00:00.000","3559 LARIMER STREET","Denver","CO","80205"
"The Shine Shop & Craft Spirits","THE SHINE SHOP & CRAFT SPIRITS","Sales Room Spirits","03-13623","2022-12-07T00:00:00.000","2525 WEST 10TH STREET","Greeley","CO","80634"
"WILEY ROOTS BREWING COMPANY","WILEY ROOTS BREWING COMPANY","Sales Room Malt","03-01238","2023-04-25T00:00:00.000","958 3RD STREET UNIT D","Greeley","CO","80631"
"BRUSH HOLLOW","BRUSH HOLLOW","Sales Room Wine","03-12765","2023-01-21T00:00:00.000","465  D  STREET","Penrose","CO","81240"
"RESOLUTE BREWING COMPANY LLC","RESOLUTE BREWING COMPANY LLC","Sales Room Malt","03-06116","2023-03-17T00:00:00.000","7286 SOUTH YOSEMITE STREET STE 110","Centennial","CO","80211"
"105 WEST BREWING COMPANY","105 WEST BREWING COMPANY","Sales Room Malt","03-04673","2022-07-22T00:00:00.000","1043 PARK STREET","Castle Rock","CO","80109"
"MAINSTAGE BREWING COMPANY LLC","MAINSTAGE BREWING COMPANY","Sales Room Malt","03-14514","2023-04-19T00:00:00.000","450 MAIN STREET","Lyons","CO","80540"
"1350 DISTILLING","1350 DISTILLING","Sales Room Spirits","03-08876","2023-04-09T00:00:00.000","520 EAST PIKES PEAK AVENUE","Colorado Springs","CO","80903"
"KNOTTED ROOT BREWING COMPANY","KNOTTED ROOT BREWING COMPANY","Sales Room Malt","03-09612","2023-05-13T00:00:00.000","250 NORTH CARIBOU STREET","Nederland","CO","80466"
"HONEYVILLE STORE","COLORADO WINE ROOM","Sales Room Wine","41-97969-0001","2023-02-08T00:00:00.000","33633 HIGHWAY 550","Durango","CO","81301"
"SNOWY PEAKS WINERY","SNOWY PEAKS WINERY","Sales Room Wine","26-56522-0001","2023-04-24T00:00:00.000","292 MORAINE AVE","Estes Park","CO","80517"
"CASEY BREWING AND BLENDING LLC","CASEY BREWING AND BLENDING LLC","Sales Room Malt","03-02668","2023-03-27T00:00:00.000","3421 GRAND AVE SUITE E","Glenwood Springs","CO","81601"
"WALTER BREWING COMPANY","WALTER BREWING COMPANY","Sales Room Malt","03-09662","2023-03-15T00:00:00.000","126 SOUTH ONEIDA STREET","Pueblo","CO","81003"
"DRY DOCK BREWING CO","DRY DOCK BREWING CO","Sales Room Malt","03-02756","2023-06-29T00:00:00.000","2801 TOWER ROAD","Aurora","CO","80011"
"MYSTIC MOUNTAIN DISTILLERY LLC","MYSTIC MOUNTAIN DISTILLERY","Sales Room Spirits","28-53034-0000","2022-09-09T00:00:00.000","12136 GRANT CIRCLE","Thornton","CO","80241"
"GREEN EARTH BREWING CO","GREEN EARTH BREWING CO","Sales Room Malt","03-08371","2022-10-10T00:00:00.000","725 10TH STREET","Greeley","CO","80631"
"TWO22 BREW","TWO22 BREW","Sales Room Malt","03-01676","2022-07-23T00:00:00.000","4550 SOUTH RESERVOIR ROAD","Centennial","CO","80015"
"RED SWING BREWHOUSE","RED SWING BREWHOUSE","Sales Room Malt","03-13158","2022-04-14T00:00:00.000","521 SOUTH TEJON STREET","Colorado Springs","CO","80903"
"LIQUID MECHANICS BREWING CO","LIQUID MECHANICS BREWING COMPANY","Sales Room Malt","03-02892","2022-05-06T00:00:00.000","297 NORTH HIGHWAY 287 STE 100","Lafayette","CO","80026"
"CAMBER BREWING COMPANY","CAMBER BREWING COMPANY","Sales Room Malt","03-11476","2022-04-21T00:00:00.000","365 ZEREX STREET","Fraser","CO","80442"
"VINNIE FERA","VINNIE FERA","Sales Room Wine","03-01153","2022-04-14T00:00:00.000","3012 STERLING CIRCLE SUITE 110","Boulder","CO","80301"
"GUANELLA PASS BREWERY","GUANELLA PASS BREWERY","Sales Room Malt","03-13110","2022-04-01T00:00:00.000","18 EAST PARK AVENUE","Empire","CO","80438"
"AVANTI WINERY INC","GAR'S & GRAPES","Sales Room Wine","14-43495-0000","2022-05-14T00:00:00.000","6205 SOUTH MAIN STREET","Aurora","CO","80016"
"PRIMITIVE BEER","PRIMITIVE BEER","Sales Room Malt","03-14449","2022-03-09T00:00:00.000","2025 IONOSPHERE STREET UNIT 101","Longmont","CO","80504"
"THE WINERY AT HOLY CROSS ABBEY","WINERY AT HOLY CROSS ABBEY THE","Sales Room Wine","15-46146-0001","2022-03-24T00:00:00.000","3011 EAST HIGHWAY 50","Canon City","CO","812122748"
"SNOWY PEAKS WINERY AT ESTES PARK KOA","SNOWY PEAKS WINERY","Sales Room Wine","26-56522-0001","2022-04-24T00:00:00.000","2501 BIG THOMPSON AVENUE","Estes Park","CO","80517"
"AVANTI WINERY INC","GAR'S & GRAPES","Sales Room Wine","14-43495-0000","2022-05-14T00:00:00.000","19565 EAST MAINSTREET","Parker","CO","80138"
"PARADOX BEER COMPANY INC","PARADOX BEER COMPANY INC","Sales Room Malt","03-12561","2022-03-02T00:00:00.000","316 NORTH COMMERCIAL STREET","Trinidad","CO","81082"
"GAR'S & GRAPES","GAR'S & GRAPES","Sales Room Wine","14-43495-0000","2022-05-14T00:00:00.000","12431 MEAD WAY","Littleton","CO","80125"
"GEMINI BEER COMPANY","GEMINI BREWING COMPANY LLC","Sales Room Malt","03-04862","2021-08-19T00:00:00.000","640 WHITE AVENUE UNIT B","Grand Junction","CO","81501"
"SNOWY PEAKS WINERY","SNOWY PEAKS WINERY","Sales Room Wine","26-56522-0001","2022-04-24T00:00:00.000","513 BIG THOMPSON AVENUE UNIT 120-150","Estes Park","CO","80517"
"SIX AND FORTY BREWERY TAPROOM","SIX AND FORTY BREWERY TAPROOM","Sales Room Malt","03-09659","2022-04-23T00:00:00.000","883 PARFET STREET, UNITS I&J","Lakewood","CO","80215"
"FEISTY SPIRITS LLC","FEISTY SPIRITS","Sales Room Spirits","14-73011-0002","2022-04-30T00:00:00.000","1708 EAST LINCOLN AVENUE  UNIT 1","Fort Collins","CO","80524"
"SNOWY PEAKS WINERY","SNOWY PEAKS WINERY","Sales Room Wine","26-56522-0001","2022-04-24T00:00:00.000","292 MORAINE AVE","Estes Park","CO","80517"
"LUKI BREWERY, LLC","LUKI BREWERY","Sales Room Malt","03-12647","2022-04-28T00:00:00.000","14715 WEST 64TH AVENUE UNITS A & B","Arvada","CO","80004"
"HOLIDAILY BREWING COMPANY","HOLIDAILY BREWING COMPANY","Sales Room Malt","03-09388","2022-03-27T00:00:00.000","820 BRICKYARD CIRCLE","Golden","CO","80403"
"COLTERRIS","COLTERRIS WINERY/COLTERRIS WINES","Sales Room Wine","42-80284-0001","2022-05-02T00:00:00.000","3548 EAST 1/2 ROAD STE C","Palisade","CO","81526"
"THE WINES OF COLORADO","WINERY AT PIKES PEAK THE","Sales Room Wine","03-01093","2022-04-05T00:00:00.000","8045 WEST HIGHWAY 24","Cascade","CO","80809"
"4 NOSES BREWING COMPANY, LLC","WILD PROVISIONS BEER PROJECT","Sales Room Malt","03-12414","2022-03-29T00:00:00.000","2209 CENTRAL AVENUE","Boulder","CO","80301"
"VAIL BREWING COMPANY","VAIL BREWING COMPANY","Sales Room Malt","03-06412","2022-04-25T00:00:00.000","141 EAST MEADOW DRIVE SUITE 209","Vail","CO","81657"
"COCKPIT CRAFT DISTILLERY, LLC","COCKPIT CRAFT DISTILLERY","Sales Room Spirits","03-05447","2021-12-21T00:00:00.000","4893 GALLEY ROAD","Colorado Springs","CO","80915"
"SQUARE PEG BREWERKS LLC","SQUARE PEG BREWERKS","Sales Room Malt","03-07679","2022-04-06T00:00:00.000","PO BOX 1432","Alamosa","CO","81101"
"EPIC BREWING COMPANY","EPIC BREWING COMPANY & PAKKA HARD SELTZER COMPANY","Sales Room Malt","03-01189","2022-04-25T00:00:00.000","3001 WALNUT STREET","Denver","CO","80205"
"AUGUSTINA'S WINERY","AUGUSTINA'S WINERY","Sales Room Wine","09-84455-0000","2022-04-17T00:00:00.000","4715 NORTH BROADWAY B-3","Boulder","CO","80304"
"CHILL SWITCH WINES","CHILL SWITCH WINES","Sales Room Wine","03-02311","2022-04-09T00:00:00.000","24621 TANNIN ROAD","Cedaredge","CO","81413"
"EQUINOX BREWING COMPANY INC","EQUINOX BREWING COMPANY INC","Sales Room Malt","25-54716-0002","2022-04-05T00:00:00.000","133 REMINGTON STREET","FT COLLINS","CO","805242833"
"VISION QUEST BREWING COMPANY","VISION QUEST BREWING COMPANY","Sales Room Malt","03-04275","2022-04-29T00:00:00.000","2510 47TH STREET UNIT A2","Boulder","CO","80301"
"1350 DISTILLING","1350 DISTILLING","Sales Room Spirits","03-08876","2022-04-09T00:00:00.000","520 EAST PIKES PEAK AVENUE","Colorado Springs","CO","80903"
"WESTMINSTER BREWING COMPANY","WESTMINSTER BREWING COMPANY","Sales Room Malt","03-10843","2022-03-13T00:00:00.000","7655 WEST 108TH AVENUE SUITE 600","Westminster","CO","80021"
"GRANDMA'S HOUSE","GRANDMA'S HOUSE","Sales Room Malt","03-03034","2021-04-30T00:00:00.000","1710 SOUTH BROADWAY","Denver","CO","80210"
"EVERGOOD ELIXIRS LLC","EVERGOOD ELIXIRS LLC","Sales Room Wine","03-09574","2022-04-29T00:00:00.000","613 COUNTY LINE ROAD SUITES K&L","Palmer Lake","CO","80133"
"LEE SPIRITS COMPANY INC.","LEE SPIRITS COMPANY INC","Sales Room Spirits","03-04252","2022-03-04T00:00:00.000","303 WEST HIGHWAY 105","Monument","CO","80132"
"DIEBOLT BREWING COMPANY LLC","DIEBOLT BREWING COMPANY, LLC","Sales Room Malt","03-01145","2022-04-14T00:00:00.000","3855 MARIPOSA STREET","Denver","CO","80211"
"LEE SPIRITS COMPANY INC. LEE SPIRITS COMPANY INC.","LEE SPIRITS COMPANY INC","Sales Room Spirits","03-04252","2022-03-04T00:00:00.000","110 EAST BOULDER STREET","Colorado Springs","CO","80903"
"BURLY BREWING COMPANY","BURLY BREWING COMPANY","Sales Room Malt","03-08627","2022-01-31T00:00:00.000","680 ATCHISON WAY SUITE 700/800","Castle Rock","CO","80109"
"ELKINS WHISKEY","ELKINS WHISKEY","Sales Room Spirits","03-05084","2022-09-20T00:00:00.000","137 EAST ELKHORN AVENUE","Estes Park","CO","80517"
"FH BEERWORKS","FH BEERWORKS","Sales Room Malt","03-10287","2021-10-09T00:00:00.000","2480 & 2490 VICTOR PLACE","Colorado Springs","CO","80915"
,"WESTMINSTER BREWING COMPANY","Sales Room Malt","03-10843","2022-03-13T00:00:00.000","7655 WEST 108TH AVENUE SUITE 600","Westminster","CO","80021"
"LITTLE MACHINE BREW HOUSE","LITTLE MACHINE BEER","Sales Room Malt","03-04351","2022-03-12T00:00:00.000","2924 WEST 20TH AVE","Denver","CO","80211"
"EVERGOOD ELIXIRS LLC","EVERGOOD ELIXIRS LLC","Sales Room Wine","03-09574","2021-04-29T00:00:00.000","613 COUNTY LINE ROAD SUITES K&L","Palmer Lake","CO","80133"
"DOWNSLOPE DISTILLING INC","DOWNSLOPE DISTILLING INC","Sales Room Spirits","42-72130-0000","2022-02-24T00:00:00.000","6770 SOUTH DAWSON CIRCLE #400","Englewood","CO","801124224"
"BERKELEY ESTATES CELLARS","BERKELEY ESTATE CELLARS","Sales Room Wine","03-12714","2022-02-10T00:00:00.000","53582 FALCON ROAD","Olathe","CO","81425"
"BRECKENRIDGE BREWERY","BRECKENRIDGE BREWERY","Sales Room Malt","03-06031","2022-03-20T00:00:00.000","2920 BREWERY LANE","Littleton","CO","80120"
"REDS WINE BOUTIQUE","REDS WINE BOUTIQUE","Sales Room Wine","03-09749","2021-06-27T00:00:00.000","112 SOUTH 3RD AVENUE","Sterling","CO","80751"
"LOHI DISTILLED LLC","MYTHOLOGY DISTILLERY","Sales Room Spirits","03-12363","2022-03-11T00:00:00.000","3622 TEJON STREET","Denver","CO","80211"
"ANNAPURNA MEAD","ANNAPURNA MEAD","Sales Room Wine","03-05937","2021-02-02T00:00:00.000","40 MOUNT VIEW LANE SUITE F","Colorado Springs","CO","80907"
"ENDLESS ENDEAVOR WINERY AND FARM LLC","ENDLESS ENDEAVOR WINERY","Sales Room Wine","03-08713","2022-04-11T00:00:00.000","15566 FIRE MOUNTAIN ROAD","Paonia","CO","81428"
"HIGHLANDS DISTILLERY","HIGHLANDS DISTILLERY","Sales Room Spirits","03-06229","2022-04-10T00:00:00.000","782 24 ROAD","Grand Junction","CO","81505"
"DOUBLE DIAMOND DISTILLERY","BRECKENRIDGE DISTILLERY","Sales Room Spirits","12-87527-0001","2022-04-15T00:00:00.000","137 SOUTH MAIN - UNIT G","Breckenridge","CO","80424"
"WILLIAMS CELLARS LLC","SNOW CAPPED CIDER","Sales Room Wine","03-06167","2021-03-16T00:00:00.000","250 SOUTH GRAND MESA DRIVE","Cedaredge","CO","81413"
"CASEY BREWING AND BLENDING LLC","CASEY BREWING AND BLENDING LLC","Sales Room Malt","03-02668","2022-03-27T00:00:00.000","3421 GRAND AVE SUITE E","Glenwood Springs","CO","81601"
"ABSOLUTE THRESHOLD BREWERY","INTERSECT BREWING","Sales Room Malt","03-06098","2022-04-03T00:00:00.000","2160 WEST DRAKE ROAD SUITE A-1","Fort Collins","CO","80526"
"BRECKENRIDGE DISTILLERY","BRECKENRIDGE DISTILLERY","Sales Room Spirits","12-87527-0001","2022-04-15T00:00:00.000","1925 AIRPORT ROAD","Breckenridge","CO","80424"
"SQUARE PEG BREWERKS LLC","SQUARE PEG BREWERKS","Sales Room Malt","03-07679","2022-04-06T00:00:00.000","PO Box 1432","Alamosa","CO","81101"
"IRON HIPPIE INC","DEAD HIPPIE BREWING","Sales Room Malt","03-04327","2022-03-04T00:00:00.000","3701 SOUTH SANTA FEE DRIVE UNIT 7","Sheridan","CO","80110"
"PEAK VIEW BREWING COMPANY","PEAK VIEW BREWING COMPANY","Sales Room Malt","03-10414","2022-02-06T00:00:00.000","9672 EAST ARAPAHOE ROAD","Greenwood Village","CO","80112"
"BUCKEL FAMILY WINE LLC","BUCKEL FAMILY WINE","Sales Room Wine","03-07474","2021-08-30T00:00:00.000","FIR STREET SUITE (SOUTH) NUGGET BUILDING 201 W COLORADO AVE","Telluride","CO","81435"
"KINGMAN ESTATES VINEYARDS","KINGMAN ESTATES WINERY","Sales Room Wine","25-60933-0000","2021-11-10T00:00:00.000","1211 WASHINGTON AVENUE","Golden","CO","80401"
"WONDERLAND BREWING CO","WONDERLAND BREWING COMPANY LLC","Sales Room Malt","03-02460","2022-03-27T00:00:00.000","5450 WEST 120TH AVENUE","Broomfield","CO","80020"
"BRECKENRIDGE BREWERY","BRECKENRIDGE BREWERY","Sales Room Malt","03-06033","2022-03-20T00:00:00.000","2920 BREWERY LANE","Littleton","CO","80120"
"STORM PEAK BREWING COMPANY","STORM PEAK BREWING COMPANY","Sales Room Malt","03-02540","2022-02-28T00:00:00.000","1885 ELK RIVER PLAZA","Steamboat Springs","CO","80487"
"WILEY ROOTS BREWING COMPANY","WILEY ROOTS BREWING COMPANY","Sales Room Malt","03-01238","2022-04-25T00:00:00.000","958 3RD STREET UNIT D","Greeley","CO","80631"
"MOCKERY BREWING","MOCKERY BREWING LLC","Sales Room Malt","03-02250","2021-12-08T00:00:00.000","3501 DELGANY STREET","Denver","CO","80216"
"CREEKSIDE CELLARS","CREEKSIDE CELLARS","Sales Room Wine","12-31819-0001","2022-04-06T00:00:00.000","28036 HIGHWAY 74","Evergreen","CO","80439"
"ODYSSEY BEERWERKS","ODYSSEY BEERWERKS, LLC","Sales Room Malt","03-00947","2022-04-03T00:00:00.000","5535 WEST 56TH AVENUE SUITE 107-108","Arvada","CO","80002"
"ARK VALLEY DISTILLERY LLC","ARK VALLEY DISTILLERY LLC","Sales Room Spirits","03-12558","2021-06-18T00:00:00.000","109 WEST CRANSTON","Fowler","CO","81039"
"UPSLOPE BREWING COMPANY","UPSLOPE BREWING COMPANY","Sales Room Malt","03-01321","2022-04-14T00:00:00.000","1898 SOUTH FLATIRON COURT SUITE 120","Boulder","CO","80301"
"WOODS BOSS BREWING COMPANY","WOODS BOSS BREWING COMPANY","Sales Room Malt","03-07139","2021-11-06T00:00:00.000","2210 CALIFORNIA STREET","Denver","CO","80205"
"BALL BREWING LLC","BALL BREWING","Sales Room Malt","03-12285","2021-11-26T00:00:00.000","7025 HIGHWAY 82, UNITS 1A & 2A","Glenwood Springs","CO","81601"
"COLORADO VINTNER'S COLLECTIVE LLC","COLORADO VINTNER'S COLLECTIVE LLC","Sales Room Wine","03-12946","2022-04-02T00:00:00.000","3674  G  ROAD","Palisade","CO","81526"
"FRASER RIVER BREWING COMPANY","FRASER RIVER BREWING COMPANY","Sales Room Malt","03-11117","2022-04-17T00:00:00.000","218 EISENHOWER DRIVE","Fraser","CO","80442"
"MILE HIGH PIE CO","MILE HIGH PIE CO","Sales Room Spirits","03-11864","2021-08-19T00:00:00.000","3316 ADOBE CT","Colorado Springs","CO","80907"
"SAND CREEK DISTILLERY","SAND CREEK DISTILLERY","Sales Room Spirits","03-06191","2022-03-30T00:00:00.000","324 5TH STREET SUITE A","Hugo","CO","80821"
"ODELL BREWING COMPANY","ODELL BREWING COMPANY","Sales Room Malt","03-12301","2022-02-28T00:00:00.000","1625 NORTH PERRY STREET","Denver","CO","80204"
"SUN SPIRITS LLC","RISING SUN DISTILLERY","Sales Room Spirits","03-01930","2022-09-26T00:00:00.000","1121 DILLON DAM ROAD","Frisco","CO","80443"
"TELLURIDE BREWING CO","TELLURIDE BREWING COMPANY","Sales Room Malt","25-59705-0002","2022-06-14T00:00:00.000","156 DEF SOCIETY DRIVE","Telluride","CO","81435"
"BIG THOMPSON BREWERY","BIG THOMPSON BREWERY","Sales Room Malt","03-02600","2023-03-13T00:00:00.000","114 EAST 15TH STREET","Loveland","CO","80538"
"LEOPOLD BROS","LEOPOLD BROS.","Sales Room Spirits","26-71718-0002","2022-07-10T00:00:00.000","5285 JOLIET STREET","Denver","CO","80239"
"HIGH PLAINS WINERY","HIGH PLAINS WINERY, HP WINERY, HPW","Sales Room Wine","03-16385","2023-03-08T00:00:00.000","312 MAIN STREET UNITS A&B","Sterling","CO","80751"
"HIGHLANDS DISTILLERY","HIGHLANDS DISTILLERY","Sales Room Spirits","03-06229","2023-04-10T00:00:00.000","782 24 ROAD","Grand Junction","CO","81505"
"RESOLUTE BREWING COMPANY LLC","RESOLUTE BREWING COMPANY LLC","Sales Room Malt","03-11237","2023-05-05T00:00:00.000","18148 WEST 92ND LANE #100","Arvada","CO","80007"
"TWO BROTHERS VINEYARDS, LLC","BLACK FOREST MEADERY","Sales Room Wine","03-03235","2022-07-15T00:00:00.000","6755 SHOUP ROAD UNIT A","Colorado Springs","CO","80908"
"CHAIN REACTION BREWING COMPANY","CHAIN REACTION BREWING COMPANY LLC","Sales Room Malt","03-02759","2023-05-01T00:00:00.000","902 SOUTH LIPAN STREET","Denver","CO","80223"
"SQUARE PEG BREWERKS LLC","SQUARE PEG BREWERKS","Sales Room Malt","03-13041","2022-05-31T00:00:00.000","123 MAIN STREET","Creede","CO","81130"
"RALLY KING BREWING","RALLY KING BREWING","Sales Room Malt","03-04634","2023-06-19T00:00:00.000","1624 SOUTH LEMAY AVENUE UNIT 4","Fort Collins","CO","80525"
"ARK VALLEY DISTILLERY LLC","ARK VALLEY DISTILLERY LLC","Sales Room Spirits","03-12558","2023-06-18T00:00:00.000","109 WEST CRANSTON","Fowler","CO","81039"
"BLENDINGS","BLENDINGS, LLC","Sales Room Wine","03-14407","2023-04-19T00:00:00.000","234 NORTH COLLEGE AVENUE UNIT B6","Fort Collins","CO","80524"
"ODD13 BREWING","ODD13 BREWING","Sales Room Malt","03-01453","2022-05-07T00:00:00.000","301 EAST SIMPSON STREET","Lafayette","CO","80026"
"THE WINE BARREL","THE WINE BARREL","Sales Room Wine","03-15796","2023-04-20T00:00:00.000","11495 SOUTH TWENTY MILE ROAD SUITE 5","Parker","CO","80134"
"MONTE CERVINO BEVERAGE COMPANY","MONTE CERVINO BEVERAGE COMPANY","Sales Room Wine","03-03105","2023-07-18T00:00:00.000","4655 TOWN CENTER DRIVE STE 130","Colorado Springs","CO","80916"
"JOYRIDE BREWING COMPANY","JOYRIDE BREWING COMPANY","Sales Room Malt","03-03227","2023-07-14T00:00:00.000","5217 W 25TH AVENUE","Edgewater","CO","80214"
"WHIKYBEN, LLC","RAMBLEBINE BREWING COMPANY","Sales Room Malt","03-12926","2022-06-04T00:00:00.000","457 COLORADO AVENUE","Grand Junction","CO","81501"
"DIEBOLT BREWING COMPANY LLC","DIEBOLT BREWING COMPANY, LLC","Sales Room Malt","03-01145","2023-04-14T00:00:00.000","3855 MARIPOSA STREET","Denver","CO","80211"
"BLACK FOREST BEVERAGE CO","BLACK FOREST BEVERAGE COMPANY","Sales Room Malt","03-13343","2023-04-11T00:00:00.000","10610 MALTESE POINT","Peyton","CO","80831"
"QUTORI WINES","QUTORI WINES","Sales Room Wine","03-08383","2022-10-05T00:00:00.000","40823 HIGHWAY 133","Paonia","CO","81428"
"DOUBLE DIAMOND DISTILLERY","BRECKENRIDGE DISTILLERY","Sales Room Spirits","12-87527-0001","2023-04-15T00:00:00.000","137 SOUTH MAIN - UNIT G","Breckenridge","CO","80424"
"MOLSON COORS BEVERAGE CO","MOLSON COORS BEVERAGE CO","Sales Room Malt","28-57986-0010","2023-06-30T00:00:00.000","300 12TH STREET","Golden","CO","804015811"
"TRVE BREWING COMPANY","TRVE BREWING COMPANY","Sales Room Malt","15-81023-0001","2023-02-09T00:00:00.000","227 BROADWAY #101","Denver","CO","80203"
"10TH MOUNTAIN WHISKEY AND SPIRITS COMPANY LLC","10TH MOUNTAIN WHISKEY AND SPIRIT COMPANY LLC","Sales Room Spirits","03-03016","2022-06-13T00:00:00.000","500 TRAIL GULCH ROAD UNIT A","Gypsum","CO","81637"
"GILDED GOAT BREWING COMPANY","GILDED GOAT BREWING COMPANY","Sales Room Malt","03-06377","2023-04-18T00:00:00.000","3500 SOUTH COLLEGE AVENUE UNIT 194","Fort Collins","CO","80525"
"10TH MOUNTAIN WHISKEY AND SPIRIT COMPANY","10TH MOUNTAIN WHISKEY AND SPIRIT COMPANY LLC","Sales Room Spirits","03-03016","2022-06-13T00:00:00.000","500 TRAIL GULCH ROAD UNIT A","Gypsum","CO","81637"
"DOS LUCES BREWERY","DOS LUCES BREWERY","Sales Room Malt","03-08559","2023-07-02T00:00:00.000","1236 SOUTH BROADWAY","Denver","CO","80210"
"NANO 108 BREWING CO","NANO 108 BREWING COMPANY","Sales Room Malt","03-01553","2023-06-03T00:00:00.000","2402 WAYNOKA ROAD","Colorado Springs","CO","80915"
"STONEY MESA WINERY","STONEY MESA WINERY LTD / PTARMIGAN VINEYARD","Sales Room Wine","23-30749-0001","2022-07-11T00:00:00.000","16199 HAPPY HOLLOW ROAD","Cedaredge","CO","81413"
"OLD TOWN DISTILLING CO","OLD TOWN DISTILLING CO","Sales Room Spirits","03-07481","2023-04-05T00:00:00.000","513 NORTH LINK LANE, UNIT E","Fort Collins","CO","80524"
"MAXLINE BREWING","MAXLINE BREWING","Sales Room Malt","03-05575","2022-11-30T00:00:00.000","2724 MCCLELLAND DRIVE #190","Fort Collins","CO","80525"
"CROW HOP BREWING CO","CROW HOP BREWING COMPANY LTD.","Sales Room Malt","03-01527","2023-07-02T00:00:00.000","214 EAST 4TH STREET","Loveland","CO","80537"
"ESTES PARK DISTILLING CO LLC","ESTES PARK DISTILLING COMPANY","Sales Room Spirits","03-14299","2022-05-23T00:00:00.000","231 MORAINE AVENUE","Estes Park","CO","80517"
"DRY LAND DISTILLERS","DRY LAND DISTILLERS","Sales Room Spirits","03-09602","2023-05-30T00:00:00.000","519 MAIN STREET","Longmont","CO","80501"
"ARCHETYPE DISTILLING","ARCHETYPE DISTILLING","Sales Room Spirits","03-08689","2022-10-29T00:00:00.000","119 SOUTH BROADWAY","Denver","CO","80209"
"10 BARREL BREWING","10 BARREL BREWING","Sales Room Malt","03-06348","2023-06-15T00:00:00.000","ONE BUSCH PLACE, 202-7","Saint Louis","MO","63118"
"LIVING THE DREAM BREWING","LIVING THE DREAM BREWING COMPANY LLC","Sales Room Malt","03-02703","2023-04-09T00:00:00.000","12305 DUMONT WAY  UNIT A","Littleton","CO","80125"
"STONEYARD DISTILLERY INC","STONEYARD DISTILLERY","Sales Room Spirits","03-00908","2021-05-07T00:00:00.000","823 GRAND AVENUE #100","Glenwood Springs","CO","81602"
"PARADOX BEER COMPANY INC","PARADOX BEER COMPANY INC","Sales Room Malt","12-94602-0002","2022-03-31T00:00:00.000","10 BUFFALO COURT","Divide","CO","80814"
"ZANAMIEL MEADERY","ZANAMIEL MEADERY","Sales Room Wine","03-11662","2022-05-05T00:00:00.000","6801 SOUTH MARION CIRCLE WEST","Centennial","CO","80122"
"GILDED GOAT BREWING COMPANY","GILDED GOAT BREWING COMPANY","Sales Room Malt","03-06377","2022-04-18T00:00:00.000","3500 SOUTH COLLEGE AVENUE UNIT 194","Fort Collins","CO","80525"
"FORMER FUTURE BREWING COMPANY","BLACK PROJECT SPONTANEOUS AND WILD ALES","Sales Room Malt","03-02214","2021-11-13T00:00:00.000","1290 SOUTH BROADWAY","Denver","CO","80210"
"SOUL SQUARED BREWING COMPANY INC","SOUL SQUARED BREWING COMPANY","Sales Room Malt","03-03271","2022-03-15T00:00:00.000","6421 WEST COUNTY ROAD 15","Fort Collins","CO","80524"
"ATOST","ATOST","Sales Room Wine","03-13425","2022-08-11T00:00:00.000","15810 WEST 6TH AVENUE","Golden","CO","80401"
"GUBBINI WINERY","GUBBINI WINERY","Sales Room Wine","42-83776-0000","2022-08-26T00:00:00.000","3697 F ROAD","Palisade","CO","815269327"
"GROSSEN BART BREWERY","GROSSEN BART BREWERY","Sales Room Malt","03-01053","2022-06-03T00:00:00.000","1025 DELAWARE AVE","Longmont","CO","80501"
"DENVER BEER CO DOWNING, LLC","DENVER BEER CO","Sales Room Malt","03-14338","2022-05-10T00:00:00.000","2425 SOUTH DOWNING STREET","Denver","CO","80210"
"THE ORDINARY FELLOW","THE ORDINARY FELLOW","Sales Room Wine","03-14724","2022-06-27T00:00:00.000","202 PEACH AVENUE","Palisade","CO","81526"
"QUEEN BEE BREWS","QUEEN BEE BREWS","Sales Room Wine","03-05224","2021-12-15T00:00:00.000","800 EAST 64TH AVENUE #6","Denver","CO","80229"
"GUBBINI WINE SHOP","GUBBINI WINERY","Sales Room Wine","42-83776-0000","2022-08-26T00:00:00.000","305 MAIN STREET UNIT 4","Palisade","CO","81526"
"TELLURIDE DISTILLING COMPANY","TELLURIDE DISTILLING COMPANY","Sales Room Spirits","03-03224","2022-07-14T00:00:00.000","567 MOUNTAIN VILLAGE BLVD SUITE 106B","Telluride","CO","81435"
"STONEYARD DISTILLERY INC","STONEYARD DISTILLERY","Sales Room Spirits","03-00908","2022-05-07T00:00:00.000","823 GRAND AVENUE #100","Glenwood Springs","CO","81602"
"MASH MECHANIX BREWING","MASH MECHANIX BREWING","Sales Room Malt","03-12757","2022-05-17T00:00:00.000","429 / 431 EAST PIKES PEAK AVENUE","Colorado Springs","CO","80903"
"COHESION BREWING LTD","COHESION BREWING COMPANY","Sales Room Malt","03-13720","2022-06-02T00:00:00.000","3851 STEELE STREET UNIT 1388","Denver","CO","80205"
"MOLSON COORS BEVERAGE CO","MOLSON COORS BEVERAGE CO","Sales Room Malt","28-57986-0010","2022-06-30T00:00:00.000","300 12TH STREET","Golden","CO","804015811"
"FLYTECO BREWING","FLYTECO BREWING","Sales Room Malt","03-14819","2022-06-10T00:00:00.000","4650 TOWER ROAD, SUITE 108","Denver","CO","80249"
"TELLURIDE DISTILLING COMPANY","TELLURIDE DISTILLING COMPANY","Sales Room Spirits","03-03224","2022-07-14T00:00:00.000","152B SOCIETY DRVE","Telluride","CO","81435"
"BOCO CIDER","BOCO CIDER","Sales Room Wine","03-09847","2022-07-25T00:00:00.000","1501 LEE HILL DRIVE UNIT 14","Boulder","CO","80304"
"MOLLY BROWN SPIRITS","MOLLY BROWN SPIRITS","Sales Room Spirits","03-09649","2021-09-12T00:00:00.000","2300 EAST 77TH AVEUNUE UNIT 300","Denver","CO","80229"
"GOLD DIRT DISTILLERY","GOLD DIRT DISTILLERY","Sales Room Spirits","03-08999","2021-10-17T00:00:00.000","60 MAIN STREET","Rollinsville","CO","80474"
"CANNONBALL CREEK BREWING CO","CANNONBALL CREEK BREWING COMPANY","Sales Room Malt","03-00086","2022-07-19T00:00:00.000","393 NORTH WASHINGTON AVENUE UNIT A","Golden","CO","80403"
"RESOLUTE BREWING COMPANY LLC","RESOLUTE BREWING COMPANY LLC","Sales Room Malt","03-06116","2022-03-17T00:00:00.000","7286 SOUTH YOSEMITE STREET STE 110","Centennial","CO","80211"
"REVERENCE BREWING COMPANY","REVERENCE BREWING COMPANY","Sales Room Malt","03-14690","2022-05-02T00:00:00.000","1604 EAST 17TH AVENUE","Denver","CO","80218"
"SHIRAS WINERY","SHIRAS WINERY LLC","Sales Room Wine","03-09286","2022-06-06T00:00:00.000","449 COLORADO AVENUE","Grand Junction","CO","81501"
"BLUE TILE BREWING","BLUE TILE BREWING","Sales Room Malt","03-09761","2022-07-09T00:00:00.000","1609 EAST 58TH AVENUE","Denver","CO","80216"
"STONEYARD DISTILLERY","STONEYARD DISTILLERY","Sales Room Spirits","03-00908","2022-05-07T00:00:00.000","4600 HIGHWAY 6","Gypsum","CO","81637"
