"id","taxyr","ein","businessname1","businessname2","address_line_1","address_line_2","city","country_code","postal_code","province","taxperiodbegindt","taxperiodenddt","returntypecd","federaloriginalsubmissioniddt"
"201142159349300114","2009","840746671","ASPEN ART MUSEUM",,"590 N MILL STREET",,"ASPEN",,"81611","CO","2009-10-01T00:00:00.000","2010-09-30T00:00:00.000","990",
"201023193493005080","2009","840382863","VETERANS OF FOREIGN WARS",,"2514 7TH AVENUE",,"GREELEY",,"80631","CO","2009-04-01T00:00:00.000","2010-03-31T00:00:00.000","990",
"201023593492005010","2009","846050853","international union secuirty police and fire professionals of america",,"P O Box 620608",,"Littleton",,"801620608","CO","2009-04-01T00:00:00.000","2010-03-31T00:00:00.000","990EZ",
"201025193493009630","2009","840613289","Sunrise Community Health",,"2930 11th Avenue",,"Evans",,"80620","CO","2009-04-01T00:00:00.000","2010-03-31T00:00:00.000","990",
"201025693492007130","2009","261382809","PIKES PEAK AREA ZONTA FOUNDATION",,"PO BOX 7924",,"COLORADO SPRINGS",,"80933","CO","2009-06-01T00:00:00.000","2010-05-31T00:00:00.000","990EZ",
"201100129349200565","2009","870752876","COLORADO OVARIAN CANCER ALLIANCE",,"PO Box 9216",,"Denver",,"80209","CO","2009-09-01T00:00:00.000","2010-08-31T00:00:00.000","990EZ",
"201100129349200955","2009","364522156","CALLIOPE INC",,"PO Box 384",,"Poncha Springs",,"812420384","CO","2009-12-01T00:00:00.000","2010-11-30T00:00:00.000","990EZ",
"201100149349300910","2009","742321009","HILLTOP HEALTH SERVICES CORPORATION",,"1331 HERMOSA STREET",,"GRAND JUNCTION",,"815064099","CO","2009-08-01T00:00:00.000","2010-07-31T00:00:00.000","990",
"201100219349200010","2009","741884595","COLORADO STATE SCIENCE FAIR INC",,"4007 Lowell Blvd",,"Denver",,"80211","CO","2009-09-01T00:00:00.000","2010-08-31T00:00:00.000","990EZ",
"201100259349300805","2009","841141786","CRABTREE APARTMENTS",,"1550 BLUE SPRUCE DRIVE",,"FORT COLLINS",,"80524","CO","2009-07-01T00:00:00.000","2010-06-30T00:00:00.000","990",
"201100269349300010","2009","841305294","Denver Broncos Charities",,"13655 Broncos Parkway",,"Englewood",,"80112","CO","2009-04-01T00:00:00.000","2010-03-31T00:00:00.000","990",
"201100319349200655","2009","846059175","LITTLE LEAGUE BASEBALL INC",,"P O Box 1744",,"Grand Junction",,"81502","CO","2009-10-01T00:00:00.000","2010-09-30T00:00:00.000","990EZ",
"201100419349300000","2009","840458222","Valley Country Club",,"14601 Country Club Drive",,"Centennial",,"80016","CO","2009-10-01T00:00:00.000","2010-09-30T00:00:00.000","990",
"201100429349200925","2009","311653564","DDC FOOTHILLS HOME",,"1400 Dixon Ave",,"Lafayette",,"80026","CO","2009-07-01T00:00:00.000","2010-06-30T00:00:00.000","990EZ",
"201100439349200700","2009","841059678","Asian Pacific Center for Human Development",,"1544 Elmira Street",,"Aurora",,"80010","CO","2009-07-01T00:00:00.000","2010-06-30T00:00:00.000","990EZ",
"201100439349200710","2009","841240126","ADRENALINE GYMNASTICS BOOSTER CLUB",,"8237 SOUTH HOLLY STREET",,"CENTENNIAL",,"80122","CO","2009-07-01T00:00:00.000","2010-06-30T00:00:00.000","990EZ",
"201100459349300890","2009","841339020","Park Hill Residence Inc",,"1510 17th Street",,"Denver",,"802021202","CO","2009-07-01T00:00:00.000","2010-06-30T00:00:00.000","990",
"201100459349301400","2009","841449940","Battlement Mesa Residence Inc",,"1510 17th Street",,"Denver",,"80202","CO","2009-07-01T00:00:00.000","2010-06-30T00:00:00.000","990",
"201100469349200030","2009","262807058","DOORS 2 SUCCESS",,"1011 N 10TH ST",,"GRAND JUNCTION",,"81501","CO","2009-10-01T00:00:00.000","2010-09-30T00:00:00.000","990EZ",
"201100629349300315","2009","841102943","Health SET",,"4200 W Conejos Pl Ste 436",,"DENVER",,"80204","CO","2009-07-01T00:00:00.000","2010-06-30T00:00:00.000","990",
"201100749349301015","2009","201607315","UNIVERSAL CHASTITY EDUCATION INC",,"511 W 10TH STREET STE B",,"PUEBLO",,"81003","CO","2009-08-01T00:00:00.000","2010-07-31T00:00:00.000","990",
"201100979349300610","2009","840616743","THE WILDWOOD SCHOOL INC",,"PO BOX 9290",,"ASPEN",,"81612","CO","2009-09-01T00:00:00.000","2010-08-31T00:00:00.000","990",
"201100989349200200","2009","846025592","JEFFERSON SYMPHONY ASSOCIATION",,"P O BOX 546",,"GOLDEN",,"804020546","CO","2009-06-01T00:00:00.000","2010-05-31T00:00:00.000","990EZ",
"201101039349300605","2009","840616970","BAYAUD ENTERPRISES INC",,"333 W BAYAUD AVE",,"DENVER",,"80223","CO","2009-07-01T00:00:00.000","2010-06-30T00:00:00.000","990",
"201101099349300000","2009","840787141","Dolphin Swim Club Inc",,"380 McFarland Court",,"Grand Junction",,"81501","CO","2009-09-01T00:00:00.000","2010-08-31T00:00:00.000","990",
"201101339349305580","2009","840405515","Mercy Regional Medical Center of Durango",,"1010 Three Springs Blvd",,"Durango",,"81301","CO","2009-07-01T00:00:00.000","2010-06-30T00:00:00.000","990",
"201101369349304815","2009","841335382","Centura Health Corporation",,"188 Inverness Dr W",,"Englewood",,"80112","CO","2009-07-01T00:00:00.000","2010-06-30T00:00:00.000","990",
"201101519349300310","2009","840630940","Residence at franklin park Inc",,"14850 Scenic heights road No 125",,"EDEN PRAIRIE",,"55344","MN","2009-09-01T00:00:00.000","2010-08-31T00:00:00.000","990",
"201101599349200005","2009","260632631","COMUNIDAD CONNECT",,"7608 S Grape Way",,"Centennial",,"80122","CO","2009-08-01T00:00:00.000","2010-07-31T00:00:00.000","990EZ",
"201101719349200260","2009","841598698","ENSIGHT SKILL CENTER",,"3307 South College Avenue","Suite 108","Fort Collins",,"80525","CO","2009-07-01T00:00:00.000","2010-06-30T00:00:00.000","990EZ",
"201101969349301310","2009","943281780","new schools fund dba newschools venture fund",,"49 Stevenson Street No 575",,"San Francisco",,"94105","CA","2009-09-01T00:00:00.000","2010-08-31T00:00:00.000","990",
"201102579349300145","2009","486063403","American Numismatic Association Inc",,"818 North Cascade Avenue",,"Colorado Springs",,"80903","CO","2009-11-01T00:00:00.000","2010-10-31T00:00:00.000","990",
"201110129349201166","2009","841088668","Colorado Association of Family Child Car","dba Jefferson County Child Care Associat","PO Box 280853",,"Lakewood",,"80228","CO","2009-07-01T00:00:00.000","2010-06-30T00:00:00.000","990EZ",
"201110129349300966","2009","840449425","COLORADO MINING ASSOCIATION",,"216 16TH STREET No 1250",,"DENVER",,"802025161","CO","2009-07-01T00:00:00.000","2010-06-30T00:00:00.000","990",
"201110179349300351","2009","840989426","CANCER LEAGUE OF COLORADO INC",,"PO Box 5373",,"Englewood",,"80155","CO","2009-07-01T00:00:00.000","2010-06-30T00:00:00.000","990",
"201110209349300506","2009","237033239","THE ASPEN COUNTRY DAY SCHOOL INC",,"3 MUSIC SCHOOL ROAD",,"ASPEN",,"81611","CO","2009-07-01T00:00:00.000","2010-06-30T00:00:00.000","990",
"201110249349300621","2009","460471316","Colorado High School Charter Inc",,"1175 Osage St Room No 100",,"Denver",,"80204","CO","2009-07-01T00:00:00.000","2010-06-30T00:00:00.000","990",
"201110269349300321","2009","841341329","Native American Multi-Cultural Education","School Inc (NAMES)","393 South Harlan Street No 120",,"Lakewood",,"80226","CO","2009-07-01T00:00:00.000","2010-06-30T00:00:00.000","990",
"201110289349200211","2009","841246205","CHERRY CREEK SCHOOL DISTRICT PARENT TEACHER COMMUNITY COUNCIL INC","Dry Creek Elementary PTCO","7686 E Hinsdale Ave",,"Centennial",,"80112","CO","2009-07-01T00:00:00.000","2010-06-30T00:00:00.000","990EZ",
"201110289349200316","2009","841557372","DENVER EAST SPEECH TEAM FOUNDATION",,"1545 DETROIT STREET No 207",,"DENVER",,"802061515","CO","2009-07-01T00:00:00.000","2010-06-30T00:00:00.000","990EZ",
"201110289349300916","2009","841367668","OURAY ICE PARK INC",,"PO BOX 1058",,"OURAY",,"81427","CO","2009-07-01T00:00:00.000","2010-06-30T00:00:00.000","990",
"201110329349201121","2009","311075375","ASSOCIATION OF NOTRE DAME CLUBS INC DENVER",,"PO BOX 102786",,"DENVER",,"802502786","CO","2009-07-01T00:00:00.000","2010-06-30T00:00:00.000","990EZ",
"201110339349200116","2009","841181681","ASPEN EDUCATION FOUNDATION","CO REESE HENRY & COMPANY","400 E MAIN ST STE 2",,"ASPEN",,"81611","CO","2009-07-01T00:00:00.000","2010-06-30T00:00:00.000","990EZ",
"201110339349300311","2009","841307563","OMNI INSTITUTE",,"899 LOGAN STREET No 600",,"DENVER",,"80203","CO","2009-07-01T00:00:00.000","2010-06-30T00:00:00.000","990",
"201110339349300711","2009","840602058","APARTMENT ASSOCIATION OF","SOUTHERN COLORADO INC","2790 NORTH ACADEMY BLVD SUITE 227",,"COLORADO SPRINGS",,"80917","CO","2009-07-01T00:00:00.000","2010-06-30T00:00:00.000","990",
"201110339349300811","2009","840819602","COLORADO ALLIANCE OF RESEARCH LIBRARIES",,"3801 E FLORIDA AVENUE No 515",,"DENVER",,"80210","CO","2009-07-01T00:00:00.000","2010-06-30T00:00:00.000","990",
"201110389349200801","2009","270042254","POLARIS PTO INC",,"410 Park Ave West",,"Denver",,"80205","CO","2009-07-01T00:00:00.000","2010-06-30T00:00:00.000","990EZ",
"201110429349301516","2009","470883605","KESHET OF THE ROCKIES",,"450 S HUDSON",,"DENVER",,"80246","CO","2009-07-01T00:00:00.000","2010-06-30T00:00:00.000","990",
"201110439349300601","2009","840830318","Asian Pacific Development Center of Colorado",,"1544 Elmira Street",,"Aurora",,"80010","CO","2009-07-01T00:00:00.000","2010-06-30T00:00:00.000","990",
"201110459349200401","2009","742190834","THE UPSTART CROW INC",,"2131 Arapahoe Ave Apt A",,"Boulder",,"803027699","CO","2009-07-01T00:00:00.000","2010-06-30T00:00:00.000","990EZ",
"201110459349200631","2009","841054300","PTA COLORADO CONGRESS",,"15975 W 50TH Ave",,"Golden",,"80403","CO","2009-07-01T00:00:00.000","2010-06-30T00:00:00.000","990EZ",
"201110459349301091","2009","840820084","Senior Housing Options Inc",,"1510 17th Street",,"Denver",,"802021202","CO","2009-07-01T00:00:00.000","2010-06-30T00:00:00.000","990",
"201110549349300511","2009","810613961","THE CHILDREN'S CENTERINC",,"C/O M JONES 200 BRECKENRIDGE TR",,"BROOMFIELD",,"80020","CO","2009-09-01T00:00:00.000","2010-08-31T00:00:00.000","990",
"201110719349200711","2009","208367897","Colorado Institute of Family Medicine",,"Mail Stop F496 - 12631 E 17th Ave","3404","Aurora",,"800450508","CO","2009-07-01T00:00:00.000","2010-06-30T00:00:00.000","990EZ",
"201110739349200361","2009","841594997","ROARING FORK KIDS INC CO EARLY LEARNING CENTER",,"215 N GARMISCH",,"ASPEN",,"81611","CO","2010-01-01T00:00:00.000","2010-08-31T00:00:00.000","990EZ",
"201110829349200601","2009","742469957","WINTER NIGHT CLUB",,"PO Box 51",,"Colorado Springs",,"80901","CO","2009-06-01T00:00:00.000","2010-05-31T00:00:00.000","990EZ",
"201111019349300721","2009","201404425","COMMUNITY RADIO PROJECT INC","KSJD","PO BOX 116",,"CORTEZ",,"81321","CO","2009-10-01T00:00:00.000","2010-09-30T00:00:00.000","990",
"201111309349301631","2009","753004503","Colorado Springs Amateur Hockey","Association (CSAHA)","102 East Pikes Peak Avenue No 201",,"Colorado Springs",,"80903","CO","2009-07-01T00:00:00.000","2010-06-30T00:00:00.000","990",
"201111329349302986","2009","204596400","STONE CREEK ELEMENTARY","DBA STONE CREEK CHARTER SCHOOL","PO BOX 5670",,"AVON",,"81620","CO","2009-07-01T00:00:00.000","2010-06-30T00:00:00.000","990",
"201111329349303346","2009","840534643","DEVELOPMENTAL PATHWAYS INC",,"325 INVERNESS DRIVE SOUTH",,"ENGLEWOOD",,"80112","CO","2009-07-01T00:00:00.000","2010-06-30T00:00:00.000","990",
"201111339349302266","2009","870737183","Colfax Marathon Partnership Inc",,"1490 Lafayette Street",,"Denver",,"80218","CO","2009-07-01T00:00:00.000","2010-06-30T00:00:00.000","990",
"201111369349202151","2009","841180536","The Community International & Vocational","Charitable Fund","3917 Simms Street",,"Wheat Ridge",,"80033","CO","2009-07-01T00:00:00.000","2010-06-30T00:00:00.000","990EZ",
"201111369349202201","2009","237179105","Rotary Club of University Hills co Paul Egan",,"3917 Simms Street",,"Wheat Ridge",,"80033","CO","2009-07-01T00:00:00.000","2010-06-30T00:00:00.000","990EZ",
"201111519349300406","2009","840528764","Baptist Homes Association of the Rocky MOUNTAINS",,"14850 scenic heights road No 125",,"EDEN PRAIRIE",,"55344","MN","2009-09-01T00:00:00.000","2010-08-31T00:00:00.000","990",
"201113059349301271","2009","841182143","DENVER OPTIONS INC",,"9900 EAST ILIFF AVENUE",,"DENVER",,"80231","CO","2009-07-01T00:00:00.000","2010-06-30T00:00:00.000","990",
"201120179349300657","2009","840646196","WASHINGTON PARK EARLY LEARNING CENTER",,"1955 E ARIZONA AVENUE",,"DENVER",,"80210","CO","2009-07-01T00:00:00.000","2010-06-30T00:00:00.000","990",
"201120129349300932","2009","841353944","FOCUS POINTS FAMILY RESOURCE CENTER",,"3532 Franklin Street",,"DENVER",,"80205","CO","2009-07-01T00:00:00.000","2010-06-30T00:00:00.000","990",
"201120139349201322","2009","841265543","SYMPHONY IN THE VALLEY INC",,"P O BOX 1831",,"GLENWOOD SPRINGS",,"81602","CO","2009-09-01T00:00:00.000","2010-08-31T00:00:00.000","990EZ",
"201120189349300012","2009","410693968","CROWN COLLEGE",,"8700 COLLEGE VIEW DRIVE",,"ST BONIFACIUS",,"553759001","MN","2009-07-01T00:00:00.000","2010-06-30T00:00:00.000","990",
"201120269349300712","2009","742373220","SERVICIOS HOUSING INC",,"4055 TEJON STREET",,"DENVER",,"80211","CO","2009-07-01T00:00:00.000","2010-06-30T00:00:00.000","990",
"201120359349200762","2009","841510468","Namaste Comfort Fund",,"1633 Fillmore Street Suite 300",,"Denver",,"80206","CO","2009-10-01T00:00:00.000","2010-09-30T00:00:00.000","990EZ",
"201120419349300127","2009","840730973","Family Tree Inc",,"3805 Marshall Street",,"Wheat Ridge",,"80033","CO","2009-07-01T00:00:00.000","2010-06-30T00:00:00.000","990",
"201120419349300132","2009","208894342","LOVE LIGHT AND MELODY (A NONPROFIT CORPORATION)",,"PO BOX 3437",,"LITTLETON",,"801613437","CO","2009-10-01T00:00:00.000","2010-09-30T00:00:00.000","990",
"201120429349300617","2009","841316133","Vilar Center for The Arts Foundation",,"PO Box 3822",,"Avon",,"81620","CO","2009-10-01T00:00:00.000","2010-09-30T00:00:00.000","990",
"201120429349301137","2009","263619775","IMAGINE HOUSING CORP II",,"1400 DIXON AVE",,"LAFAYETTE",,"80026","CO","2009-07-01T00:00:00.000","2010-06-30T00:00:00.000","990",
"201120469349301507","2009","841441504","ALFRED A BRAUN HUT SYSTEM INC",,"C/O MAROLT LLP CPAS POBOX 10671",,"ASPEN",,"81612","CO","2009-07-01T00:00:00.000","2010-06-30T00:00:00.000","990",
"201120479349200012","2009","205537122","PRO MUSICA COLORADO CHAMBER ORCHESTRA",,"715 Snowberry Street",,"Longmont",,"80503","CO","2009-07-01T00:00:00.000","2010-06-30T00:00:00.000","990EZ",
"201120529349300202","2009","846037756","ASPEN HISTORICAL SOCIETY",,"620 WEST BLEEKER",,"ASPEN",,"81611","CO","2009-11-01T00:00:00.000","2010-10-31T00:00:00.000","990",
"201120709349300322","2009","201706475","Concerts for Kids",,"1616 17th Street suite 462",,"Denver",,"80202","CO","2009-10-01T00:00:00.000","2010-09-30T00:00:00.000","990",
"201121019349300017","2009","680655664","ALC INC",,"P O BOX 53",,"NUCLA",,"81424","CO","2009-07-01T00:00:00.000","2010-06-30T00:00:00.000","990",
"201121019349300207","2009","840404231","COLORADO SEMINARY",,"2199 S University Blvd",,"Denver",,"802080001","CO","2009-07-01T00:00:00.000","2010-06-30T00:00:00.000","990",
"201121119349300007","2009","841166423","SHERIDAN ARTS FOUNDATION",,"PO BOX 2680",,"TELLURIDE",,"81435","CO","2009-10-01T00:00:00.000","2010-09-30T00:00:00.000","990",
"201121169349200407","2009","841326001","REBUILDING TOGETHER COLORADO SPRINGS INC",,"1975 Research Parkway","Suite 300","Colorado Springs",,"80920","CO","2009-07-01T00:00:00.000","2010-06-30T00:00:00.000","990EZ",
"201121299349301142","2009","841302735","Colorado Association of Family","Medicine Residencies","12631 E 17th Ave - Mail Stop F496",,"Aurora",,"800450508","CO","2009-07-01T00:00:00.000","2010-06-30T00:00:00.000","990",
"201121309349300932","2009","846035455","DEVELOPMENTAL DISABILITIES RESOURCE CENTER",,"11177 WEST 8TH AVENUE No 300",,"LAKEWOOD",,"80215","CO","2009-07-01T00:00:00.000","2010-06-30T00:00:00.000","990",
"201121369349203227","2009","841338855","ENGLISH PATHWAYS INC",,"3001 SOUTH FEDERAL BOULEVARD",,"DENVER",,"80236","CO","2009-07-01T00:00:00.000","2010-06-30T00:00:00.000","990EZ",
"201121369349302352","2009","841173226","The Partnership for Families & Children",,"450 Lincoln St Ste 100",,"Denver",,"80203","CO","2009-07-01T00:00:00.000","2010-06-30T00:00:00.000","990",
"201121369349303172","2009","521800436","ASSOCIATION OF PUBLIC HEALTH LABORATORIES INC",,"8515 GEORGIA AVE No 700",,"SILVER SPRING",,"20910","MD","2009-07-01T00:00:00.000","2010-06-30T00:00:00.000","990",
"201121369349304692","2009","840828277","RAPTOR EDUCATION FOUNDATION",,"PO BOX 200400",,"DENVER",,"80220","CO","2009-07-01T00:00:00.000","2010-06-30T00:00:00.000","990",
"201121929349300142","2009","742431066","STEPPING STONES CHILDREN'S CENTER",,"PO BOX 1310",,"CRESTED BUTTE",,"812241310","CO","2009-09-01T00:00:00.000","2010-08-31T00:00:00.000","990",
"201121999349200422","2009","840838619","LARIMER COUNTY SPRING HORSE SHOW CO BARBARA ARKIN",,"16005 W 74TH",,"ARVADA",,"80007","CO","2009-10-01T00:00:00.000","2010-09-30T00:00:00.000","990EZ",
"201122559349300637","2009","237006963","ASPEN CAMP OF THE DEAF & HARD OF HEARING",,"PO BOX 1494",,"ASPEN",,"81612","CO","2009-11-01T00:00:00.000","2010-10-31T00:00:00.000","990",
"201123199349203972","2009","742334954","AURORA YOUTH LEAGUE",,"4434 Eagle Street",,"Denver",,"80239","CO","2009-05-01T00:00:00.000","2010-04-30T00:00:00.000","990EZ",
"201132219349301588","2009","841515243","ASPEN ART MUSEUM FOUNDATION",,"590 N MILL",,"ASPEN",,"81611","CO","2009-10-01T00:00:00.000","2010-09-30T00:00:00.000","990",
"201130129349300483","2009","840613540","Plan de Salud Del Valle Inc",,"203 South Rollie Avenue",,"Fort Lupton",,"80621","CO","2009-06-01T00:00:00.000","2010-05-31T00:00:00.000","990",
"201130259349300413","2009","840630214","NEIGHBOR TO NEIGHBOR INC",,"1550 BLUE SPRUCE DRIVE",,"FORT COLLINS",,"80524","CO","2009-07-01T00:00:00.000","2010-06-30T00:00:00.000","990",
"201130269349301003","2009","840685056","Qualistar Early Learning",,"3607 Martin Luther King Blvd",,"Denver",,"80205","CO","2009-07-01T00:00:00.000","2010-06-30T00:00:00.000","990",
"201130329349300308","2009","840518917","Spanish Peaks Mental Health Center Inc",,"1026 W Abriendo",,"Pueblo",,"81004","CO","2009-07-01T00:00:00.000","2010-06-30T00:00:00.000","990",
"201130419349300048","2009","840781098","Centennial Mental Health Center",,"211 West Main Street",,"Sterling",,"80751","CO","2009-07-01T00:00:00.000","2010-06-30T00:00:00.000","990",
"201130429349301138","2009","841540910","IMAGINE FOUNDATION",,"1400 Dixon Ave",,"Lafayette",,"80026","CO","2009-07-01T00:00:00.000","2010-06-30T00:00:00.000","990",
"201130459349200723","2009","261532509","Trails Preservation Alliance",,"PO Box 38093",,"Colorado Springs",,"80937","CO","2009-12-01T00:00:00.000","2010-11-30T00:00:00.000","990EZ",
"201130459349301168","2009","846116675","Seniors in Community Living Inc",,"1510 17th Street",,"Denver",,"802021202","CO","2009-07-01T00:00:00.000","2010-06-30T00:00:00.000","990",
"201130469349200828","2009","841413423","SCYH Inc",,"PO Box 8470",,"Breckenridge",,"80424","CO","2009-07-01T00:00:00.000","2010-06-30T00:00:00.000","990EZ",
"201130469349201653","2009","840441438","Pikes Peak Kiwanis Club",,"PO Box 1844",,"Colorado Springs",,"80901","CO","2009-10-01T00:00:00.000","2010-09-30T00:00:00.000","990EZ",
"201130609349200608","2009","840952692","COLORADO FILM & VIDEO ASSOC INC",,"PO BOX 181236",,"DENVER",,"80218","CO","2009-07-01T00:00:00.000","2010-06-30T00:00:00.000","990EZ",
"201130709349300128","2009","846042225","ASPEN VALLEY SKISNOWBOARD CLUB INC",,"300 AVSC DRIVE",,"ASPEN",,"81611","CO","2009-08-01T00:00:00.000","2010-07-31T00:00:00.000","990",
"201130739349300108","2009","841160185","THE EARLY LEARNING CENTER",,"215 NORTH GARMISCH",,"ASPEN",,"81611","CO","2009-09-01T00:00:00.000","2010-08-31T00:00:00.000","990",
"201130759349300103","2009","742275546","ROCKY MOUNTAIN ARTS ASSOCIATION",,"3900 E Mexico Ave Ste 700",,"Denver",,"80210","CO","2009-08-01T00:00:00.000","2010-07-31T00:00:00.000","990",
"201130779349300003","2009","742553720","USA Hockey Foundation",,"1775 Bob Johnson Drive",,"Colorado Springs",,"80906","CO","2009-09-01T00:00:00.000","2010-08-31T00:00:00.000","990",
"201131089349300323","2009","841234295","Pueblo StepUp",,"1925 E Orman Ave",,"PUEBLO",,"81004","CO","2009-07-01T00:00:00.000","2010-06-30T00:00:00.000","990",
"201131229349300953","2009","742341399","THE SUMMIT FOUNDATION",,"PO BOX 4000",,"BRECKENRIDGE",,"80424","CO","2009-10-01T00:00:00.000","2010-09-30T00:00:00.000","990",
"201131259349300133","2009","841249911","COLORADO ROCKY MOUNTAIN SCHOOL","FOUNDATION INC","1493 COUNTY ROAD 106",,"CARBONDALE",,"81623","CO","2009-07-01T00:00:00.000","2010-06-30T00:00:00.000","990",
"201131259349301208","2009","840425174","COLORADO ROCKY MOUNTAIN SCHOOL","INC","1493 COUNTY ROAD 106",,"CARBONDALE",,"81623","CO","2009-07-01T00:00:00.000","2010-06-30T00:00:00.000","990",
"201131329349201683","2009","841246617","ATL FOUNDATION",,"PO BOX 740985",,"ARVADA",,"80006","CO","2009-11-01T00:00:00.000","2010-10-31T00:00:00.000","990EZ",
"201131369349303118","2009","841553192","Porter Place Inc",,"1001 East Yale Ave",,"Denver",,"80210","CO","2009-07-01T00:00:00.000","2010-06-30T00:00:00.000","990",
"201131369349303158","2009","480543809","Saint Francis Community Services Inc",,"509 E Elm Street",,"Salina",,"674012353","KS","2009-07-01T00:00:00.000","2010-06-30T00:00:00.000","990",
"201131369349304448","2009","846038137","COLORADO BALLET",,"1278 LINCOLN STREET",,"DENVER",,"80203","CO","2009-07-01T00:00:00.000","2010-06-30T00:00:00.000","990",
"201131719349300573","2009","840186840","Denver Country Club",,"1700 E 1st Ave",,"Denver",,"80218","CO","2009-10-01T00:00:00.000","2010-09-30T00:00:00.000","990",
"201131819349300343","2009","364582437","Project Education Sudan",,"124 Jackson St",,"Denver",,"80206","CO","2009-10-01T00:00:00.000","2010-09-30T00:00:00.000","990",
"201131969349301048","2009","742179293","OVERLAND HIGH SCHOOL BAND PARENT ASSOCIATION",,"12400 EAST JEWELL AVENUE",,"AURORA",,"800125324","CO","2009-09-01T00:00:00.000","2010-08-31T00:00:00.000","990",
"201132229349301203","2009","841152879","TELLURIDE SKI AND SNOWBOARD CLUB INC",,"PO BOX 2824",,"TELLURIDE",,"81435","CO","2009-10-01T00:00:00.000","2010-09-30T00:00:00.000","990",
"201133259349300813","2009","841349017","THE CLASSICAL ACADEMY",,"975 STOUT ROAD",,"COLORADO SPRINGS",,"80921","CO","2009-07-01T00:00:00.000","2010-06-30T00:00:00.000","990",
"201140129349301359","2009","840682417","COLORADO CHILDREN'S CHORALE",,"2420 West 26th Avenue No 350-D",,"DENVER",,"802115362","CO","2009-07-01T00:00:00.000","2010-06-30T00:00:00.000","990",
"201140269349300909","2009","840625478","THE LA RAZA SERVICES INC","DBA SERVICIOS DE LA RAZA INC","4055 TEJON STREET",,"DENVER",,"80211","CO","2009-07-01T00:00:00.000","2010-06-30T00:00:00.000","990",
"201140359349200019","2009","841159555","STEPPING STONES TO A JEWISH ME INC",,"300 SOUTH DAHLIA STREET",,"DENVER",,"80246","CO","2009-07-01T00:00:00.000","2010-06-30T00:00:00.000","990EZ",
"201140419349200124","2009","840727003","COLORADO MINING ASSOCIATION Education","FOUNDATION INC","216 - 16TH STREET No 1250",,"DENVER",,"802025161","CO","2009-10-01T00:00:00.000","2010-09-30T00:00:00.000","990EZ",
"201140429349301139","2009","840526620","DEVELOPMENTAL DISABILITIES CENTER",,"1400 Dixon Ave",,"Lafayette",,"80026","CO","2009-07-01T00:00:00.000","2010-06-30T00:00:00.000","990",
"201140439349200604","2009","841059545","Asian American Foundation of Colorado",,"1544 Elmira Street",,"Aurora",,"80010","CO","2009-07-01T00:00:00.000","2010-06-30T00:00:00.000","990EZ",
"201140459349200764","2009","841097181","DENVER KAPPA ALPHA PSI SCHOLARSHIP FOUNDATION",,"16307 E MAPEWOOD PL",,"CENTENNIAL",,"800163048","CO","2009-10-01T00:00:00.000","2010-09-30T00:00:00.000","990EZ",
"201140459349300019","2009","841192823","THE WILDERNESS LAND TRUST",,"PO BOX 1420",,"CARBONDALE",,"81623","CO","2009-07-01T00:00:00.000","2010-06-30T00:00:00.000","990",
"201140459349300819","2009","841530736","Casa of Jefferson & Gilpin Counties",,"100 JEFFERSON COUNTY PARKWAY No","2040","Golden",,"80401","CO","2009-07-01T00:00:00.000","2010-06-30T00:00:00.000","990",
"201140459349300934","2009","742471052","Community Living Residents Inc",,"1510 17th Street",,"Denver",,"802021202","CO","2009-07-01T00:00:00.000","2010-06-30T00:00:00.000","990",
"201140459349301784","2009","742586894","COLORADO 4-H FOUNDATION INC",,"4040 CAMPUS DELIVERY",,"FORT COLLINS",,"805234040","CO","2009-07-01T00:00:00.000","2010-06-30T00:00:00.000","990",
"201140749349300919","2009","840469270","COLORADO WEST HEALTHCARE SYSTEM DBA COMMUNITY HOSPITAL",,"2021 N 12TH STREET",,"GRAND JUNCTION",,"815012980","CO","2009-05-01T00:00:00.000","2010-04-30T00:00:00.000","990",
"201140779349300104","2009","510204742","USA Hockey Inc",,"1775 Bob Johnson Drive",,"Colorado Springs",,"80906","CO","2009-09-01T00:00:00.000","2010-08-31T00:00:00.000","990",
"201140949349300219","2009","131611981","The American Alpine Club",,"710 Tenth Street Suite 100 No 100",,"Golden",,"80401","CO","2009-10-01T00:00:00.000","2010-09-30T00:00:00.000","990",
"201141369349201689","2009","841092770","NEW FOUNDATIONS NONVIOLENCE CENTER",,"901 W 14TH AVENUE No 7",,"DENVER",,"802042559","CO","2009-10-01T00:00:00.000","2010-09-30T00:00:00.000","990EZ",
"201141369349202679","2009","742302470","Rocky Mountain Peace and Justice Center",,"PO Box 1156",,"Boulder",,"80306","CO","2009-10-01T00:00:00.000","2010-09-30T00:00:00.000","990EZ",
"201141369349203469","2009","271444129","Sweat Equity Corp",,"1575 Ogden St",,"Denver",,"80218","CO","2009-10-01T00:00:00.000","2010-09-30T00:00:00.000","990EZ",
"201141459349200314","2009","841524095","America SCORES Denver",,"4900 West 29th Avenue",,"Denver",,"80212","CO","2009-09-01T00:00:00.000","2010-08-31T00:00:00.000","990EZ",
"201141519349300404","2009","742755828","Baptist home association of the rocky","MOUNTAINS - AFFILIATES","14850 scenic heights road No 125",,"EDEN PRAIRIE",,"55344","MN","2009-09-01T00:00:00.000","2010-08-31T00:00:00.000","990",
"201141599349300309","2009","311556903","ASPEN WINTER SPORTS FOUNDATION INC",,"PO BOX C-3",,"ASPEN",,"81611","CO","2009-08-01T00:00:00.000","2010-07-31T00:00:00.000","990",
"201142229349301214","2009","943281780","New Schools Fund dba Newschools Venture Fund",,"49 Stevenson Street No 575",,"San Francisco",,"94105","CA","2009-09-01T00:00:00.000","2010-08-31T00:00:00.000","990",
"201142289349300019","2009","742449502","Thistle Community Housing",,"1845 Folsom Street",,"Boulder",,"80302","CO","2009-10-01T00:00:00.000","2010-09-30T00:00:00.000","990",
"201142529349301114","2009","237042291","ASPEN CENTER FOR ENVIRONMENTAL STUDIES",,"100 PUPPY SMITH ST",,"ASPEN",,"81611","CO","2009-11-01T00:00:00.000","2010-10-31T00:00:00.000","990",
"201211529349200511","2009","841650389","GAMMA CHI-HOUSE CORPORATION OF DELTA DELTA DELTA",,"2249 S Josephine St",,"Denver",,"80210","CO","2009-07-01T00:00:00.000","2010-06-30T00:00:00.000","990EZ",
"201110399349301606","2009","010724451","ASPEN CENTER FOR ENVIRONMENTAL","STUDIES ENDOWMENT FUND INC","PO BOX 10931",,"ASPEN",,"81612","CO","2009-10-01T00:00:00.000","2010-09-30T00:00:00.000","990",
"201102239349201025","2010","470864016","El Centro Amistad",,"2222 14th Street",,"Boulder",,"80302","CO","2010-01-01T00:00:00.000","2010-12-31T00:00:00.000","990EZ",
"201121369349301107","2010","840423576","GUADALUPE PARISH CREDIT UNION",,"PO BOX 97",,"ANTONITO",,"81120","CO","2010-01-01T00:00:00.000","2010-12-31T00:00:00.000","990",
"201122859349300537","2010","841367668","OURAY ICE PARK INC",,"PO BOX 1058",,"OURAY",,"81427","CO","2010-07-01T00:00:00.000","2011-06-30T00:00:00.000","990",
"201112099349301306","2010","841648607","EDUCATE",,"PO BOX 4847",,"BOULDER",,"80306","CO","2010-01-01T00:00:00.000","2010-12-31T00:00:00.000","990",
"201123059349301457","2010","841069053","CHILDRENS KIVA",,"PO BOX 1417",,"CORTEZ",,"81321","CO","2010-07-01T00:00:00.000","2011-06-30T00:00:00.000","990",
"201100299349300400","2010","371422141","Got Questions Ministries",,"6050 Stetson Hill Blvd",,"Colorado Springs",,"80923","CO","2010-01-01T00:00:00.000","2010-12-31T00:00:00.000","990",
"201100609349200700","2010","840915012","SUMMIT CO SOFTBALL LEAGUE INC",,"PO BOX 4059",,"DILLON",,"80435","CO","2010-01-01T00:00:00.000","2010-12-31T00:00:00.000","990EZ",
"201100709349200510","2010","840912372","US Pony Club Inc Rocky Mountain Region",,"PO Box 773420",,"Steamboat Springs",,"80477","CO","2010-01-01T00:00:00.000","2010-12-31T00:00:00.000","990EZ",
"201100719349300700","2010","260174430","LAS BRISAS LEARNING SYSTEMS INC",,"201 CHEYENNE DRIVE",,"BERTHOUD",,"80513","CO","2010-01-01T00:00:00.000","2010-12-31T00:00:00.000","990",
"201100849349300900","2010","840575011","Colorado Springs Electrical Joint","Apprenticeship Training Fund","414 West Pikes Peak Avenue",,"Colorado Springs",,"809051525","CO","2010-01-01T00:00:00.000","2010-12-31T00:00:00.000","990",
"201100899349300720","2010","742752161","Biblical Education By Extension Inc",,"640 Chapel Hills Dr",,"Colorado Springs",,"80920","CO","2010-01-01T00:00:00.000","2010-12-31T00:00:00.000","990",
"201101029349201000","2010","200446976","COLORADO-GHANA CHILDRENS FUND",,"1820 Lee Street",,"Lakewood",,"80215","CO","2010-01-01T00:00:00.000","2010-12-31T00:00:00.000","990EZ",
"201101059349200500","2010","204170586","EN GEDI RETREAT INC",,"PO BOX 250",,"Yampa",,"80483","CO","2010-01-01T00:00:00.000","2010-12-31T00:00:00.000","990EZ",
"201101089349200805","2010","383686399","BLACKSHEEP CYCLING",,"12932 Grove Way",,"Broomfield",,"80020","CO","2010-01-01T00:00:00.000","2010-12-31T00:00:00.000","990EZ",
"201101099349300415","2010","841576866","WOMEN OF COURAGE INC",,"PO BOX 25189",,"COLORADO SPRINGS",,"809365189","CO","2010-01-01T00:00:00.000","2010-12-31T00:00:00.000","990",
"201101119349200500","2010","840364378","AMERICAN LEGION",,"1602 U S Highway 6",,"Sterling",,"80751","CO","2010-01-01T00:00:00.000","2010-12-31T00:00:00.000","990EZ",
"201101169349200005","2010","205945956","KEYS OF THE KINGDOM INTERNATIONALINC",,"8286 Teller Court",,"Arvada",,"80003","CO","2010-01-01T00:00:00.000","2010-12-31T00:00:00.000","990EZ",
"201101189349200605","2010","161606865","LYNNES MINISTRIES INC",,"10828 Glengate Loop",,"HIGHLANDS RANCH",,"801308950","CO","2010-01-01T00:00:00.000","2010-12-31T00:00:00.000","990EZ",
"201101239349200410","2010","421744541","GREATER DENVER NACE NATL ASSOC OF CATERING EXECUTIVES",,"1550 Larimer St","Suite 270","Denver",,"80202","CO","2010-01-01T00:00:00.000","2010-12-31T00:00:00.000","990EZ",
"201101239349300410","2010","134242773","Homeward Pikes Peak",,"518 North Nevada Ave",,"Colorado Springs",,"80903","CO","2010-01-01T00:00:00.000","2010-12-31T00:00:00.000","990",
"201101239349300620","2010","841203598","RUSSIAN CHRISTIAN RADIO INC",,"PO BOX 1667",,"ESTES PARK",,"80517","CO","2010-01-01T00:00:00.000","2010-12-31T00:00:00.000","990",
"201101249349200825","2010","846038441","ARAPAHOE RESCUE PATROL INC",,"5852 South Malaya Court",,"Centennial",,"80015","CO","2010-01-01T00:00:00.000","2010-12-31T00:00:00.000","990EZ",
"201101259349300220","2010","846019358","ANNE H GATES TRUST UW 1012028410 R79217007",,"JPMORGAN CHASE BANK NABOX 3038",,"MILWAUKEE",,"532013038","WI","2010-01-01T00:00:00.000","2010-12-31T00:00:00.000","990",
"201101269349300335","2010","846019320","CARPENTER ENDOWMENT FUND R79216009 1012028210",,"C/O JPMORGAN CHASE BANKNABOX 3038",,"MILWAUKEE",,"53201","WI","2010-01-01T00:00:00.000","2010-12-31T00:00:00.000","990",
"201101299349200100","2010","830494129","WASHINGTON PARK CARES",,"PO Box 101266",,"Denver",,"80250","CO","2010-01-01T00:00:00.000","2010-12-31T00:00:00.000","990EZ",
"201101299349301515","2010","204648043","Phoenix Multisport Inc",,"4735 E Walnut Street No Unit C",,"Boulder",,"80301","CO","2010-01-01T00:00:00.000","2010-12-31T00:00:00.000","990",
"201101319349200615","2010","200837174","FETAL HOPE FOUNDATION",,"9786 S Holland Street",,"Littleton",,"80127","CO","2010-01-01T00:00:00.000","2010-12-31T00:00:00.000","990EZ",
"201101319349201895","2010","841465779","AVADHUTA FOUNDATION",,"PO Box 296",,"Boulder",,"803060296","CO","2010-01-01T00:00:00.000","2010-12-31T00:00:00.000","990EZ",
"201101329349201130","2010","841203020","COLORADO STAFF DEVELOPMENT COUNCIL",,"PO BOX 1289",,"MORRISON",,"80465","CO","2010-01-01T00:00:00.000","2010-12-31T00:00:00.000","990EZ",
"201101329349201710","2010","261302249","Watco Charities Inc",,"2121 Waynoka Road",,"Colorado Springs",,"80915","CO","2010-01-01T00:00:00.000","2010-12-31T00:00:00.000","990EZ",
"201101329349201940","2010","841440424","COLORADO PHOTONICS INDUSTRY ASSOC","ATTN GARY HORVATH TREASURER","P O BOX 700",,"BOULDER",,"80306","CO","2010-01-01T00:00:00.000","2010-12-31T00:00:00.000","990EZ",
"201101329349303915","2010","721576181","CATTLEMEN'S DAYS INC CO TREASURER",,"P O BOX 1203",,"GUNNISON",,"81230","CO","2010-01-01T00:00:00.000","2010-12-31T00:00:00.000","990",
"201101339349300840","2010","201188479","WYLY COMMUNITY ART CENTER",,"99 MIDLAND AVE",,"BASALT",,"81621","CO","2010-01-01T00:00:00.000","2010-12-31T00:00:00.000","990",
"201101339349302190","2010","841582988","ORIENT LAND TRUST",,"PO Box 65",,"Villa Grove",,"811550065","CO","2010-01-01T00:00:00.000","2010-12-31T00:00:00.000","990",
"201101359349300115","2010","841144223","ERITREAN COMMUNITY IN CO",,"6677 LEETSDALE DR",,"DENVER",,"80224","CO","2010-01-01T00:00:00.000","2010-12-31T00:00:00.000","990",
"201101369349202300","2010","850256920","AMERICAN CONTRACT BRIDGE LEAGUE DISTRICT 17",,"7289 W Laurel Pl",,"Littleton",,"801284853","CO","2010-01-01T00:00:00.000","2010-12-31T00:00:00.000","990EZ",
"201101369349301620","2010","840445575","ALAMOSA CREDIT UNION",,"PO BOX 965",,"ALAMOSA",,"81101","CO","2010-01-01T00:00:00.000","2010-12-31T00:00:00.000","990",
"201101369349302550","2010","200670553","CELEBRATE THE BEAT",,"40007 PANORAMA ROAD",,"PAONIA",,"81428","CO","2010-01-01T00:00:00.000","2010-12-31T00:00:00.000","990",
"201101369349303575","2010","237064045","GOLDEN CIVIC FOUNDATION INC",,"PO BOX 1538",,"GOLDEN",,"80402","CO","2010-01-01T00:00:00.000","2010-12-31T00:00:00.000","990",
"201101379349200610","2010","391739874","RIVER FALLS SWIM CLUB INC",,"PO BOX 271",,"RIVER FALLS",,"54022","WI","2010-01-01T00:00:00.000","2010-12-31T00:00:00.000","990EZ",
"201101379349300100","2010","261731670","WILDLAND AWARENESS AND EDUCATIONAL INSTITUTE",,"PO Box 732",,"Indian Hills",,"80454","CO","2010-01-01T00:00:00.000","2010-12-31T00:00:00.000","990",
"201101389349300315","2010","710640235","WORSHIPLANET INC",,"PO BOX 898",,"DIVIDE",,"80814","CO","2010-01-01T00:00:00.000","2010-12-31T00:00:00.000","990",
"201101399349300810","2010","841571852","SAINT BRENDANS IRISH DANCE FOUNDATION",,"3529 DESERT RIDGE CIR",,"CASTLE ROCK",,"80108","CO","2010-01-01T00:00:00.000","2010-12-31T00:00:00.000","990",
"201101409349200215","2010","331132184","The Cubs Den",,"PO Box 52",,"Idalia",,"807350052","CO","2010-01-01T00:00:00.000","2010-12-31T00:00:00.000","990EZ",
"201101419349300000","2010","840810198","Joseph P Kennedy Jr American Legion Post 11-11",,"9959 Old Wadsworth Blvd",,"Broomfield",,"800214028","CO","2010-01-01T00:00:00.000","2010-12-31T00:00:00.000","990",
"201101449349200310","2010","237104636","EAST YUMA COUNTY HISTORICAL SOCIETY",,"PO BOX 161",,"WRAY",,"80758","CO","2010-01-01T00:00:00.000","2010-12-31T00:00:00.000","990EZ",
"201101459349200000","2010","841500508","SAN MIGUEL WATERSHED COALITION",,"PO BOX 1601",,"TELLURIDE",,"81435","CO","2010-01-01T00:00:00.000","2010-12-31T00:00:00.000","990EZ",
"201101529349300215","2010","371418235","UNITED JEWISH APPEAL ASPEN VALLEY",,"PO BOX 8590",,"ASPEN",,"81612","CO","2010-01-01T00:00:00.000","2010-12-31T00:00:00.000","990",
"201101549349300710","2010","262148733","CLOTHES TO KIDS OF DENVER INC",,"PO BOX 260621",,"LAKEWOOD",,"802260621","CO","2010-01-01T00:00:00.000","2010-12-31T00:00:00.000","990",
"201101659349200410","2010","840312015","CHAMBER OF COMMERCE HEART OF THE ROCKIES",,"406 WEST HIGHWAY 50",,"SALIDA",,"81201","CO","2010-01-01T00:00:00.000","2010-12-31T00:00:00.000","990EZ",
"201101829349300005","2010","841460111","THE VASCULAR DISEASE FOUNDATION INC",,"1075 S YUKON ST NO 320",,"LAKEWOOD",,"80226","CO","2010-01-01T00:00:00.000","2010-12-31T00:00:00.000","990",
"201101829349300705","2010","412139623","ICAST",,"777 S WADSWORTH BLVD",,"LAKEWOOD",,"80226","CO","2010-01-01T00:00:00.000","2010-12-31T00:00:00.000","990",
"201101869349300000","2010","840443274","COLORADO LIVESTOCK ASSOCIATION",,"822 7TH STREET NO 210",,"GREELEY",,"80631","CO","2010-01-01T00:00:00.000","2010-12-31T00:00:00.000","990",
"201101879349200000","2010","263719537","CRCR INC",,"1879 FOXFIELD DR",,"CASTLE ROCK",,"80104","CO","2010-07-01T00:00:00.000","2011-06-30T00:00:00.000","990EZ",
"201101879349200020","2010","272200601","GRAND VALLEY ART STUDENTS LEAGUE",,"437 JORNADA ST",,"Grand Junction",,"81504","CO","2010-01-01T00:00:00.000","2010-12-31T00:00:00.000","990EZ",
"201101919349300100","2010","203726038","PROTECTION & EDUCATION RE ANIMALS CULT",,"PO BOX 6161",,"VAIL",,"81658","CO","2010-01-01T00:00:00.000","2010-12-31T00:00:00.000","990",
"201101929349200305","2010","203028400","PARTNERING FOR AFRICA'S FUTURE INC","C/O TOBIN RUPAREL KONCZAK & MUNDELL PC","7535 E HAMPDEN AVE STE 102",,"DENVER",,"80231","CO","2010-01-01T00:00:00.000","2010-12-31T00:00:00.000","990EZ",
"201101929349300805","2010","912003533","Room to Read",,"111 Sutter Street 16th Floor",,"San Francisco",,"94104","CA","2010-01-01T00:00:00.000","2010-12-31T00:00:00.000","990",
"201101939349300205","2010","841009628","BOYS CLUB OF GREELEY FOUNDATION",,"29429 WCR 48",,"KERSEY",,"80644","CO","2010-04-01T00:00:00.000","2011-03-31T00:00:00.000","990",
"201102069349300525","2010","510549976","WIND CREST INC",,"3235 MILL VISTA ROAD",,"HIGHLANDS RANCH",,"80129","CO","2010-01-01T00:00:00.000","2010-12-31T00:00:00.000","990",
"201102109349301010","2010","840743810","NATIONAL ASSOCIATION OF COUNSEL FOR CHILDREN",,"13123 EAST 16TH AVENUE NO B390",,"AURORA",,"80045","CO","2010-01-01T00:00:00.000","2010-12-31T00:00:00.000","990",
"201102139349300965","2010","846051473","AMERICAN LEGION 22 NORTHGLENN POST",,"11081 IRMA DRIVE",,"NORTHGLENN",,"80233","CO","2010-01-01T00:00:00.000","2010-12-31T00:00:00.000","990",
"201102169349300310","2010","470870826","Proclamation Ministries Inc",,"11187 Shaugnessy Road",,"Colorado Springs",,"80908","CO","2010-01-01T00:00:00.000","2010-12-31T00:00:00.000","990",
"201102209349201350","2010","841071521","WORLDWIDE MARRIAGE ENCOUNTER","SECTION 9 INC","PO BOX 7721",,"COLORADO SPRINGS",,"809337721","CO","2010-01-01T00:00:00.000","2010-12-31T00:00:00.000","990EZ",
"201102209349301570","2010","870357561","WESTERN BUSINESS ROUNDTABLE",,"14405 W COLFAX AVE NO 159",,"LAKEWOOD",,"80401","CO","2010-01-01T00:00:00.000","2010-12-31T00:00:00.000","990",
"201102219349200800","2010","841554493","ECO-JUSTICE MINISTRIES",,"400 S Williams St",,"Denver",,"802092639","CO","2010-01-01T00:00:00.000","2010-12-31T00:00:00.000","990EZ",
"201102219349301360","2010","841583366","THE GOOD SHEPHERD FOUNDATION",,"620 ELIZABETH",,"DENVER",,"80206","CO","2010-01-01T00:00:00.000","2010-12-31T00:00:00.000","990",
"201102229349301550","2010","840404925","Young Men's Christian Association of Pueblo Colorado",,"3200 SPAULDING AVENUE",,"PUEBLO",,"81008","CO","2010-01-01T00:00:00.000","2010-12-31T00:00:00.000","990",
"201141959349300639","2010","800012615","ECOFLIGHT",,"307 L AABC",,"ASPEN",,"81611","CO","2010-01-01T00:00:00.000","2010-12-31T00:00:00.000","990",
"201102239349200130","2010","841318039","CAPITAL ASSET FINANCE CORPORATION",,"1801 BROADWAY","ROOM/SUITE 1700","DENVER",,"80202","CO","2010-01-01T00:00:00.000","2010-12-31T00:00:00.000","990EZ",
"201102249349200835","2010","846053484","FOUR CORNERS GEOLOGICAL SOCIETY",,"PO BOX 1501",,"DURANGO",,"813021501","CO","2010-01-01T00:00:00.000","2010-12-31T00:00:00.000","990EZ",
"201102249349300035","2010","840612665","COLORADO HOUSING INC",,"PO BOX 5918",,"PAGOSA SPRINGS",,"81147","CO","2010-01-01T00:00:00.000","2010-12-31T00:00:00.000","990",
"201102259349200205","2010","261475922","DREAMCATCHERS EQUINE RESCUE INC",,"19065 Wigwam Rd",,"Fountain",,"80817","CO","2010-01-01T00:00:00.000","2010-12-31T00:00:00.000","990EZ",
"201102259349300305","2010","840905627","CRESTED BUTTE CHAMBER OF COMMERCE",,"PO Box 1288","601 Elk Ave","Crested Butte",,"81224","CO","2010-01-01T00:00:00.000","2010-12-31T00:00:00.000","990",
"201102279349200400","2010","900186107","ANGEL BASKETS INC",,"PO BOX 3340",,"TELLURIDE",,"814353877","CO","2010-01-01T00:00:00.000","2010-12-31T00:00:00.000","990EZ",
"201102279349200500","2010","841569268","TELLURIDE YOUTH SOCCER CLUB",,"PO BOX 1799",,"TELLURIDE",,"814351799","CO","2010-01-01T00:00:00.000","2010-12-31T00:00:00.000","990EZ",
"201102279349200945","2010","742546920","KEYSTONE CENTER FOUNDATION",,"1628 STS JOHN ROAD",,"KEYSTONE",,"80435","CO","2010-01-01T00:00:00.000","2010-12-31T00:00:00.000","990EZ",
"201102279349201200","2010","262431767","PROMISE RANCH THERAPEUTIC RIDING LLC",,"10272 E DEMOCRAT RD",,"PARKER",,"80134","CO","2010-01-01T00:00:00.000","2010-12-31T00:00:00.000","990EZ",
"201102279349201675","2010","841599061","HIGH VALLEY COMMUNITY CENTER INC",,"1210 Grande Ave",,"Del Norte",,"81132","CO","2010-01-01T00:00:00.000","2010-12-31T00:00:00.000","990EZ",
"201102279349202220","2010","562428950","GODS FINGERPRINTS AND HOPE CHRISTIAN","ACADEMY PARENT TEACHER FELLOWSHIP","11455 W BELLEVIEW AVE",,"LITTLETON",,"80127","CO","2010-01-01T00:00:00.000","2010-12-31T00:00:00.000","990EZ",
"201102289349301330","2010","743165902","COLORADO DEMONSTRATION SKIING CO DARREN SZOT",,"PO BOX 2525",,"EDWARDS",,"81632","CO","2010-01-01T00:00:00.000","2010-12-31T00:00:00.000","990",
"201102349349200610","2010","742452658","The Littleton Symphony",,"2549 W Main Street",,"Littleton",,"80120","CO","2010-07-01T00:00:00.000","2011-06-30T00:00:00.000","990EZ",
"201102509349200125","2010","840856398","Victory Prison Ministries Inc",,"3472 Research Parkway Room No 104-2",,"Colorado Springs",,"80920","CO","2010-07-01T00:00:00.000","2011-06-30T00:00:00.000","990EZ",
"201102519349300230","2010","841308567","TIMBERLINE MINISTRIES INC",,"PO BOX 3311",,"WINTER PARK",,"80482","CO","2010-06-01T00:00:00.000","2011-05-31T00:00:00.000","990",
"201102559349200510","2010","203830917","HABITAT FOR HUMANITY INTERNATIONAL-TELLURIDE REGION HFH",,"PO BOX 3852",,"TELLURIDE",,"814353852","CO","2010-07-01T00:00:00.000","2011-06-30T00:00:00.000","990EZ",
"201102589349300725","2010","841549841","AFRICAID INC",,"25958 GENESEE TRAIL ROAD PMB-234",,"GOLDEN",,"80401","CO","2010-01-01T00:00:00.000","2010-12-31T00:00:00.000","990",
"201102629349300425","2010","840307713","ROTARY INTERNATIONAL PUEBLO #43",,"PO BOX 53",,"PUEBLO",,"810020053","CO","2010-07-01T00:00:00.000","2011-06-30T00:00:00.000","990",
"201102679349200600","2010","205675677","ZIMBABWE RELIEF FOUNDATION",,"7931 SOUTH BROADWAY",,"LITTLETON",,"80122","CO","2010-01-01T00:00:00.000","2010-12-31T00:00:00.000","990EZ",
"201102729349300700","2010","841385195","DURANGO LATINO EDUCATION COALITION",,"PO BOX 4445",,"DURANGO",,"81302","CO","2010-07-01T00:00:00.000","2011-06-30T00:00:00.000","990",
"201102789349300505","2010","237348117","BROOMFIELD HIGH SCHOOL BAND PARENTS ASSOCIATION",,"PO Box 951",,"Broomfield",,"80038","CO","2010-06-01T00:00:00.000","2011-05-31T00:00:00.000","990",
"201102909349300805","2010","840432974","CREDIT UNIONS CHARTERED IN THE STATE OF COLORADO","BCS Community Credit Union","3835 Newland St",,"Wheat Ridge",,"80033","CO","2010-01-01T00:00:00.000","2010-12-31T00:00:00.000","990",
"201102949349200310","2010","412035064","THE PUEBLO COMMUNITY DIABETES PROJECT",,"P O BOX 8005",,"PUEBLO",,"81008","CO","2010-07-01T00:00:00.000","2011-06-30T00:00:00.000","990EZ",
"201102979349200115","2010","261811061","CHILDRENS GLOBAL PEACE PROJECT",,"2753 Stone Hollow Drive",,"Vienna",,"22180","VA","2010-01-01T00:00:00.000","2010-12-31T00:00:00.000","990EZ",
"201102989349300015","2010","742385850","CERTIFIED FINANCIAL PLANNER BOARD OF","STANDARDS INC","1425 K STREET NW NO 500",,"WASHINGTON",,"20005","DC","2010-01-01T00:00:00.000","2010-12-31T00:00:00.000","990",
"201102999349200110","2010","204035662","NIKENO'S SECOND CHANCES",,"PO BOX 1505",,"WHEAT RIDGE",,"80034","CO","2010-01-01T00:00:00.000","2010-12-31T00:00:00.000","990EZ",
"201103079349200305","2010","841246919","CHERRY CREEK SCHOOL DISTRICT PARENT TEACHER COMMUNITY COUNCIL INC",,"17901 E Gand Ave",,"Aurora",,"800152000","CO","2010-07-01T00:00:00.000","2011-06-30T00:00:00.000","990EZ",
"201103079349200315","2010","830363348","SPRINGS RANCH ELEMENTARY PARENT TEACHER ORGANIZATION",,"4350 Centerville Dr",,"Colorado Springs",,"80922","CO","2010-07-01T00:00:00.000","2011-06-30T00:00:00.000","990EZ",
"201103089349300710","2010","846023466","OTIS A & MARGARET T BARNES TRUST R79224003",,"C/O JPMORGAN CHASE BANKNABOX 3038",,"MILWAUKEE",,"532013038","WI","2010-07-01T00:00:00.000","2011-06-30T00:00:00.000","990",
"201103099349300205","2010","840584939","Allied Housing Inc",,"11 South Adams Street",,"Denver",,"80209","CO","2010-01-01T00:00:00.000","2010-12-31T00:00:00.000","990",
"201103119349300620","2010","562550132","WHEAT RIDGE 2020 INC",,"3798 MARSHALL ST SUITE 7",,"WHEAT RIDGE",,"80033","CO","2010-07-01T00:00:00.000","2011-06-30T00:00:00.000","990",
"201103129349300640","2010","134225599","COLORADO RURAL DEVELOPMENTAL COUNCIL",,"2738 SOUTH NEWTON STREET",,"DENVER",,"80236","CO","2010-01-01T00:00:00.000","2010-12-31T00:00:00.000","990",
"201103149349300335","2010","742594693","THE BUDDY PROGRAM INC",,"110 EAST HALLAM STREET NO 125",,"ASPEN",,"81611","CO","2010-01-01T00:00:00.000","2010-12-31T00:00:00.000","990",
"201103149349301930","2010","840855158","OLD COLORADO CITY HISTORICAL","SOCIETY","1 SOUTH 24TH STREET",,"COLORADO SPRINGS",,"80904","CO","2010-01-01T00:00:00.000","2010-12-31T00:00:00.000","990",
"201103149349302320","2010","200563392","CLEAN ENERGY ECONOMY FOR THE REGION",,"PO BOX 428",,"CARBONDALE",,"81623","CO","2010-01-01T00:00:00.000","2010-12-31T00:00:00.000","990",
"201103149349302360","2010","810569813","MARION DOWNS HEARING CENTER FOUNDATION",,"1793-2 QUENTIN STREET",,"AURORA",,"80045","CO","2010-01-01T00:00:00.000","2010-12-31T00:00:00.000","990",
"201103159349302495","2010","841288920","The Qalandar School dba The Boulder","Inst For Nature and The Human Spirit","2434 Mapleton Ave",,"Boulder",,"80304","CO","2010-04-01T00:00:00.000","2011-03-31T00:00:00.000","990",
"201103159349302535","2010","521765246","US LACROSSE INC",,"113 WEST UNIVERSITY PARKWAY",,"BALTIMORE",,"21210","MD","2010-01-01T00:00:00.000","2010-12-31T00:00:00.000","990",
"201103159349303150","2010","841306404","BRIDGES CHILD PLACEMENT AGENCY",,"1225 N MAIN ST",,"PUEBLO",,"810032827","CO","2010-07-01T00:00:00.000","2011-06-30T00:00:00.000","990",
"201103189349202100","2010","237356993","CRESTED BUTTE MOUNTAIN THEATRE INC",,"PO BOX 611",,"CRESTED BUTTE",,"81224","CO","2010-01-01T00:00:00.000","2010-12-31T00:00:00.000","990EZ",
"201103189349202470","2010","841560982","JUST FOR KIDS FOUNDATION INC",,"PO BOX 308",,"TELLURIDE",,"814350308","CO","2010-01-01T00:00:00.000","2010-12-31T00:00:00.000","990EZ",
"201103189349302550","2010","237059440","TROUT AND SALMON FOUNDATION",,"C/O T DONNELLEY 360 N MICHIGAN AVE",,"CHICAGO",,"606013803","IL","2010-01-01T00:00:00.000","2010-12-31T00:00:00.000","990",
"201103189349303180","2010","841356466","LRSH INC DBA LITTLE RED SCHOOLHOUSE",,"PO BOX 2740",,"BRECKENRIDGE",,"80424","CO","2010-01-01T00:00:00.000","2010-12-31T00:00:00.000","990",
"201103189349303355","2010","840965078","WOODLAND PARK CHAMBER OF COMMERCE",,"PO BOX 9022",,"WOODLAND PARK",,"80866","CO","2010-01-01T00:00:00.000","2010-12-31T00:00:00.000","990",
"201103189349304950","2010","841469785","COALITION FOR THE UPPER SOUTH PLATTE",,"PO BOX 726",,"LAKE GEORGE",,"80827","CO","2010-01-01T00:00:00.000","2010-12-31T00:00:00.000","990",
"201103189349307530","2010","450233470","BANNER HEALTH",,"1441 NORTH 12TH STREET",,"PHOENIX",,"85006","AZ","2010-01-01T00:00:00.000","2010-12-31T00:00:00.000","990",
"201103199349202005","2010","840974469","ALLIANCE OF PROFESSIONAL WOMEN",,"PO BOx 480384",,"Denver",,"80248","CO","2010-07-01T00:00:00.000","2011-06-30T00:00:00.000","990EZ",
"201103199349203345","2010","840973909","THE US AMATEUR WEIGHTLIFTING FOUNDATION",,"1 OLYMPIC PLAZA",,"COLORADO SPRINGS",,"80909","CO","2010-01-01T00:00:00.000","2010-12-31T00:00:00.000","990EZ",
"201103199349203955","2010","263131386","COACHES OF EXCELLENCE INSTITUTE INC",,"7280 ARCO IRIS LANE",,"CASTLE ROCK",,"80108","CO","2010-01-01T00:00:00.000","2010-12-31T00:00:00.000","990EZ",
"201103199349302110","2010","200166014","SOZO INTERNATIONAL INC",,"PO BOX 436967",,"LOUISVILLE",,"40253","KY","2010-01-01T00:00:00.000","2010-12-31T00:00:00.000","990",
"201103199349303925","2010","742483139","INDEPENDENT FILMS INC DBA ASPENFILM",,"110 E HALLAM NO 102",,"ASPEN",,"81611","CO","2010-07-01T00:00:00.000","2011-06-30T00:00:00.000","990",
"201103199349304945","2010","271125802","THE CROOKED WILLOW FOUNDATION",,"10554 S PERRY PARK ROAD",,"LARKSPUR",,"80118","CO","2010-01-01T00:00:00.000","2010-12-31T00:00:00.000","990",
"201103199349305455","2010","141429445","JOSHUA NATIONS INTERNATIONAL",,"7277 W 83RD WAY",,"ARVADA",,"80003","CO","2010-01-01T00:00:00.000","2010-12-31T00:00:00.000","990",
"201103199349306475","2010","840430495","Junior Achievement - Rocky Mountain Inc",,"1445 Market Suite 200",,"Denver",,"80202","CO","2010-07-01T00:00:00.000","2011-06-30T00:00:00.000","990",
"201103199349307005","2010","540907624","OPPORTUNITY INTERNATIONAL INC","D/B/A OPPORTUNITY INTERNATIONAL-US","2122 YORK ROAD NO 150",,"OAK BROOK",,"60523","IL","2010-01-01T00:00:00.000","2010-12-31T00:00:00.000","990",
"201103199349307665","2010","840512896","MILE HIGH COUNCIL ON ALCOHOLI",,"655 BROADWAY",,"DENVER",,"80203","CO","2010-01-01T00:00:00.000","2010-12-31T00:00:00.000","990",
"201121229349300532","2010","900529762","CPL-Q INC",,"1301 PENNSYLVANIA STREET",,"DENVER",,"80203","CO","2010-01-01T00:00:00.000","2010-12-31T00:00:00.000","990",
"201103199349308590","2010","203276856","Falcon Community Builders for Classrooms",,"455 East Pikes Peak Ave",,"Colorado Springs",,"80903","CO","2010-01-01T00:00:00.000","2010-12-31T00:00:00.000","990",
"201103199349308610","2010","841426685","The Word for the World USA",,"PO Box 26363",,"Colorado Springs",,"80936","CO","2010-01-01T00:00:00.000","2010-12-31T00:00:00.000","990",
"201103199349309145","2010","841220222","JAZZ AT ASPEN-SNOWMASS",,"110 E HALLAM ST NO 104",,"ASPEN",,"81611","CO","2010-01-01T00:00:00.000","2010-12-31T00:00:00.000","990",
"201103199349309665","2010","840738879","GAY LESBIAN BISEXUAL & TRANSGENDER","COMMUNITY CENTER OF COLORADO","1301 E COLFAX AVE",,"DENVER",,"80218","CO","2010-01-01T00:00:00.000","2010-12-31T00:00:00.000","990",
"201103199349310680","2010","841290857","TRAILS 2000 INC",,"PO BOX 3868",,"DURANGO",,"813023868","CO","2010-01-01T00:00:00.000","2010-12-31T00:00:00.000","990",
"201103199349311075","2010","742458153","THE DENVER CENTER FOR CRIME VICTIMS",,"P O BOX 18975",,"DENVER",,"80218","CO","2010-01-01T00:00:00.000","2010-12-31T00:00:00.000","990",
"201103199349311110","2010","311012362","UNITED STATES WEIGHTLIFTING","DBA USA WEIGHTLIFTING INC","1 OLYMPIC PLAZA",,"COLORADO SPRINGS",,"80909","CO","2010-01-01T00:00:00.000","2010-12-31T00:00:00.000","990",
"201103209349301400","2010","262900914","NA SPORTS COMMUNITY FOUNDATION INC",,"PO BOX 270088",,"LOUISVILLE",,"80027","CO","2010-01-01T00:00:00.000","2010-12-31T00:00:00.000","990",
"201103219349200800","2010","260415479","EQUIP MINISTRIES INTERNATIONAL",,"PO BOX 49091",,"COLORADO SPRINGS",,"80949","CO","2010-01-01T00:00:00.000","2010-12-31T00:00:00.000","990EZ",
"201103229349200505","2010","841280105","GREELEY CHILDREN'S CHORALE INC",,"PO BOX 336891",,"GREELEY",,"80634","CO","2010-07-01T00:00:00.000","2011-06-30T00:00:00.000","990EZ",
"201103469349200015","2010","742372025","West Chamber Serving Jefferson County Foundation",,"1667 Cole Blvd Building 19 Ste 400",,"Golden",,"80401","CO","2010-08-01T00:00:00.000","2011-07-31T00:00:00.000","990EZ",
"201103559349200600","2010","237107470","KNIGHTS OF COLUMBUS","STRATTON COUNCIL #2099","PO BOX 86",,"STRATTON",,"80836","CO","2010-01-01T00:00:00.000","2010-12-31T00:00:00.000","990EZ",
"201110289349200416","2010","651286289","FRIENDS OF BLAIR CALDWELL RESEARCH LIBRA",,"1660 LINCOLN STREET",,"Denver",,"80264","CO","2010-01-01T00:00:00.000","2010-12-31T00:00:00.000","990EZ",
"201110899349300316","2010","311715006","TOUCHED BY HIM MINISTRIES",,"P O BOX 2247",,"GRAND JUNCTION",,"81502","CO","2010-01-01T00:00:00.000","2010-12-31T00:00:00.000","990",
"201110409349200201","2010","352284751","FLYING FEATHER GYPSY HORSE CLUB",,"8986 SMOKE SIGNAL WAY",,"WELLINGTON",,"80549","CO","2010-01-01T00:00:00.000","2010-12-31T00:00:00.000","990EZ",
"201110459349201351","2010","113709514","DURANGO MOTORLESS TRANSIT INC",,"1051 COUNTY ROAD 250",,"DURANGO",,"81301","CO","2010-01-01T00:00:00.000","2010-12-31T00:00:00.000","990EZ",
"201110479349200411","2010","260746125","CHARIOTS ASPIRE INC A NON-PROFIT CORPORATION",,"5007 E LORRAINE RD",,"LARKSPUR",,"80118","CO","2010-01-01T00:00:00.000","2010-12-31T00:00:00.000","990EZ",
"201110639349200101","2010","840869971","CONSULTOR MINISTRIES",,"420 MICHIGAN AVENUE - SUITE A",,"BERTHOUD",,"805131399","CO","2010-01-01T00:00:00.000","2010-12-31T00:00:00.000","990EZ",
"201110719349200706","2010","263485845","JEFFERSON COUNTY BUSINESS RESOURCE","CENTER","1667 COLE BLVD","ROOM/SUITE 400","LAKEWOOD",,"80401","CO","2010-01-01T00:00:00.000","2010-12-31T00:00:00.000","990EZ",
"201110749349300831","2010","263058579","Rock Creek Academy",,"PO Box 246",,"Mc Coy",,"80463","CO","2009-08-01T00:00:00.000","2010-07-31T00:00:00.000","990",
"201110759349200401","2010","273011046","Wild Earths Children",,"109 Hopi Ct",,"Lyons",,"80540","CO","2010-01-01T00:00:00.000","2010-12-31T00:00:00.000","990EZ",
"201110769349300801","2010","510143083","ASPEN JUNIOR HOCKEY INC",,"PO BOX 3390",,"ASPEN",,"81612","CO","2010-01-01T00:00:00.000","2010-12-31T00:00:00.000","990",
"201110809349200411","2010","264154181","STEAMBOAT SPRINGS CENTER FOR VISUAL ARTS INC",,"PO BOX 775909",,"STEAMBOAT SPRINGS",,"80477","CO","2010-01-01T00:00:00.000","2010-12-31T00:00:00.000","990EZ",
"201110879349200311","2010","141964306","NESHAMA CENTER",,"PO BOX 8064",,"ASPEN",,"81612","CO","2010-01-01T00:00:00.000","2010-12-31T00:00:00.000","990EZ",
"201110889349300851","2010","840338815","TRINIDAD LAS ANIMAS COUNTY CHAMBER OF CO",,"136 W MAIN ST",,"TRINIDAD",,"81082","CO","2010-01-01T00:00:00.000","2010-12-31T00:00:00.000","990",
"201110909349300426","2010","840590581","ROOFERS & ALLIED WORKERS LOCAL 58",,"404 NORTH SPRUCE",,"COLORADO SPRINGS",,"80905","CO","2010-01-01T00:00:00.000","2010-12-31T00:00:00.000","990",
"201110919349200206","2010","260734037","Ukraine Orphan Outreach",,"18519 WCR 5",,"Berthoud",,"80513","CO","2010-01-01T00:00:00.000","2010-12-31T00:00:00.000","990EZ",
"201110969349300226","2010","911688486","ALPACA REGISTRY INC",,"5901 N 28 ST STE 100",,"LINCOLN",,"68504","NE","2010-01-01T00:00:00.000","2010-12-31T00:00:00.000","990",
"201111019349300116","2010","721608975","REHABILITATION LIVING FOUNDATION INC",,"PO BOX 7058",,"LOVELAND",,"80537","CO","2010-01-01T00:00:00.000","2010-12-31T00:00:00.000","990",
"201111019349300611","2010","840202249","United Association of Plumbers","& Pipefitters Local 58","2870 Janitell Road",,"Colorado Springs",,"80906","CO","2010-01-01T00:00:00.000","2010-12-31T00:00:00.000","990",
"201111029349200211","2010","841591640","BRECKENRIDGE GRAND VACATIONS EMPLOYEE","ASSISTANCE FUND INC","PO BOX 6879",,"BRECKENRIDGE",,"804246879","CO","2010-01-01T00:00:00.000","2010-12-31T00:00:00.000","990EZ",
"201111089349300606","2010","841136441","CONNER WATER USERS ASSOCIATION",,"12900 LINDA VISTA DR",,"Longmont",,"80504","CO","2010-01-01T00:00:00.000","2010-12-31T00:00:00.000","990",
"201111169349200616","2010","841282201","DENVER JUNIOR POLICE BAND",,"P O BOX 140488",,"EDGEWATER",,"80214","CO","2010-01-01T00:00:00.000","2010-12-31T00:00:00.000","990EZ",
"201111179349200606","2010","841483080","TRANSIT ALLIANCE",,"555 SEVENTEENTH STREET NO 500",,"DENVER",,"80202","CO","2010-01-01T00:00:00.000","2010-12-31T00:00:00.000","990EZ",
"201111229349300016","2010","820549095","NATHAN YIP FOUNDATION CO LINDA YIP",,"4600 S ULSTER STREET SUITE 1400",,"DENVER",,"80237","CO","2010-01-01T00:00:00.000","2010-12-31T00:00:00.000","990",
"201111229349300821","2010","263758248","THE SNOWMASS VILLAGE COMMUNITY FND INC",,"PO BOX 5035",,"SNOWMASS VILLAGE",,"81615","CO","2010-01-01T00:00:00.000","2010-12-31T00:00:00.000","990",
"201111229349300906","2010","840753678","PITKIN COUNTY AIR RESCUE",,"PO BOX 204",,"ASPEN",,"81612","CO","2010-01-01T00:00:00.000","2010-12-31T00:00:00.000","990",
"201111239349301206","2010","840772664","Boulder Community Hospital Foundation",,"PO Box 9019",,"Boulder",,"803019019","CO","2010-01-01T00:00:00.000","2010-12-31T00:00:00.000","990",
"201111269349300126","2010","840526937","WELD SCHOOLS CREDIT UNION",,"2555 47 AVENUE",,"GREELEY",,"80634","CO","2010-01-01T00:00:00.000","2010-12-31T00:00:00.000","990",
"201111269349300626","2010","840660269","COLORADO CREDIT UNION",,"PO BOX 270010",,"LITTLETON",,"80127","CO","2010-01-01T00:00:00.000","2010-12-31T00:00:00.000","990",
"201111279349200701","2010","846044526","DENVER MILE HIGH CHAPTER SPEBSQSA INC",,"PO BOX 22424",,"DENVER",,"802220424","CO","2010-01-01T00:00:00.000","2010-12-31T00:00:00.000","990EZ",
"201111289349200401","2010","841462925","CASTLE ROCK PLAYERS INC",,"PO BOX 1224",,"CASTLE ROCK",,"80104","CO","2010-01-01T00:00:00.000","2010-12-31T00:00:00.000","990EZ",
"201111299349301311","2010","202112999","CENTENNIAL CHRISTIAN ACADEMY",,"4343 S FLANDERS STREET",,"CENTENNIAL",,"800155443","CO","2010-01-01T00:00:00.000","2010-12-31T00:00:00.000","990",
"201111309349302411","2010","953078295","NATIONAL EMPLOYMENT LAW INSTITUTE",,"1601 EMERSON STREET",,"DENVER",,"80218","CO","2010-01-01T00:00:00.000","2010-12-31T00:00:00.000","990",
"201111319349201861","2010","841504397","RMEL FOUNDATION",,"6855 S HAVANA ST NO 430",,"CENTENNIAL",,"80112","CO","2010-01-01T00:00:00.000","2010-12-31T00:00:00.000","990EZ",
"201111319349302441","2010","841430940","GOLDEN RETRIEVER RESCUE","OF THE ROCKIES","601 16TH STREET","ROOM/SUITE C342","GOLDEN",,"804011978","CO","2010-01-01T00:00:00.000","2010-12-31T00:00:00.000","990",
"201111329349201796","2010","841171965","STERLING BASEBALL ORGANIZATION",,"PO BOX 168",,"Sterling",,"80751","CO","2010-01-01T00:00:00.000","2010-12-31T00:00:00.000","990EZ",
"201111339349300001","2010","711023301","ROCKY MOUNTAIN HONORS CAMP",,"7931 S BROADWAY 163",,"LITTLETON",,"801222710","CO","2010-01-01T00:00:00.000","2010-12-31T00:00:00.000","990",
"201111339349305656","2010","841115955","COLORADO SOLAR ENERGY INDUSTRIES ASSOCIATION",,"2995 BASELINE ROAD SUITE 312",,"BOULDER",,"80303","CO","2010-01-01T00:00:00.000","2010-12-31T00:00:00.000","990",
"201111349349201006","2010","841190618","ROCKY MOUNTAIN BEAD SOCIETY",,"PO BOX 370054",,"DENVER",,"80237","CO","2010-01-01T00:00:00.000","2010-12-31T00:00:00.000","990EZ",
"201111359349201306","2010","841127582","Eta Gamma Chapter of PI KAPPA PHI FRATERNITY",,"1150 College Ave",,"Boulder",,"80301","CO","2010-01-01T00:00:00.000","2010-12-31T00:00:00.000","990EZ",
"201111369349202551","2010","846035941","HORSEBACK MIRACLES INC",,"5655 W Red Rock Dr",,"Larkspur",,"80118","CO","2010-01-01T00:00:00.000","2010-12-31T00:00:00.000","990EZ",
"201111369349302521","2010","412198636","AGIA SOPHIA INC",,"2902 WEST COLORADO AVE",,"COLORADO SPRINGS",,"80904","CO","2010-01-01T00:00:00.000","2010-12-31T00:00:00.000","990",
"201111369349303876","2010","205183152","COLORADO FINANCIAL SERVICE CENTERS ASSOCIATION",,"PO BOX 11584",,"DENVER",,"80211","CO","2010-01-01T00:00:00.000","2010-12-31T00:00:00.000","990",
"201111369349304166","2010","840887524","HIGHLAND MERCHANTS ASSOCIATION INC",,"PO BOX 12667",,"DENVER",,"80212","CO","2010-01-01T00:00:00.000","2010-12-31T00:00:00.000","990",
"201111369349304466","2010","742502028","Colorado Telecommunications Assoc Inc",,"225 E 16TH AVE",,"DENVER",,"80203","CO","2010-01-01T00:00:00.000","2010-12-31T00:00:00.000","990",
"201111369349305071","2010","841269848","COLORADO JUNIOR RODEO ASSOCIATION",,"17035 COUNTY RD 26",,"BRUSH",,"80723","CO","2010-01-01T00:00:00.000","2010-12-31T00:00:00.000","990",
"201111369349305391","2010","743056926","OUTPOST EXPEDITIONS",,"P O BOX 309",,"HOPEWELL",,"23860","VA","2010-01-01T00:00:00.000","2010-12-31T00:00:00.000","990",
"201111409349300006","2010","840593203","BOULDER POTTERS GUILD",,"PO Box 19676",,"Boulder",,"80304","CO","2010-05-01T00:00:00.000","2011-04-30T00:00:00.000","990",
"201111479349300401","2010","310977121","UNITED STATES ASSOCIATION OF BLIND ATHLETES INC",,"33 N INSTITUTE ST",,"COLORADO SPRINGS",,"80903","CO","2010-01-01T00:00:00.000","2010-12-31T00:00:00.000","990",
"201111549349300616","2010","840780114","INTERNATIONAL CRYOGENICS MATERIALS CONFERENCE",,"C/O L VINYARD CPA 1800-30TH ST Room",,"BOULDER",,"803011088","CO","2010-01-01T00:00:00.000","2010-12-31T00:00:00.000","990",
"201111589349300306","2010","841610236","Sustainable Settings",,"6107 Highway 133",,"Carbondale",,"81623","CO","2010-01-01T00:00:00.000","2010-12-31T00:00:00.000","990",
"201111689349200506","2010","731400952","Rick Barton Ministries Inc",,"PO Box 42",,"Gunnison",,"81230","CO","2010-01-01T00:00:00.000","2010-12-31T00:00:00.000","990EZ",
"201111729349300906","2010","251298611","Ligonier Ministries Inc",,"421 Ligonier Court",,"Sanford",,"32771","FL","2010-01-01T00:00:00.000","2010-12-31T00:00:00.000","990",
"201111739349300221","2010","840597782","COLORADO CHRISTIAN SERVICES",,"3959 E ARAPAHOE RD NO 200",,"CENTENNIAL",,"80122","CO","2010-01-01T00:00:00.000","2010-12-31T00:00:00.000","990",
"201111799349200406","2010","205457738","ROONEY ROAD RECYCLING CENTER FOUNDATION",,"PO BOX 17536",,"GOLDEN",,"80402","CO","2010-01-01T00:00:00.000","2010-12-31T00:00:00.000","990EZ",
"201111809349300611","2010","840757652","EAGLE VALLEY CHAMBER OF COMMERCE",,"PO BOX 964",,"EAGLE",,"816310964","CO","2010-01-01T00:00:00.000","2010-12-31T00:00:00.000","990",
"201111819349300726","2010","840523558","BENEVOLENT AND PROTECTIVE ORDER OF ELKS",,"5700 YUKON STREET",,"ARVADA",,"80002","CO","2010-04-01T00:00:00.000","2011-03-31T00:00:00.000","990",
"201111869349200621","2010","954241208","Ministries To Muslims",,"4164 Austin Bluffs Parkway No 357",,"Colorado Springs",,"80918","CO","2010-01-01T00:00:00.000","2010-12-31T00:00:00.000","990EZ",
"201112039349300101","2010","840765729","Rocky Mountain Health Care Services",,"2812 East Bijou",,"Colorado Springs",,"80909","CO","2010-01-01T00:00:00.000","2010-12-31T00:00:00.000","990",
"201112079349300701","2010","841677611","ASPEN SCIENCE CENTER",,"PO BOX 4669",,"ASPEN",,"81612","CO","2010-01-01T00:00:00.000","2010-12-31T00:00:00.000","990",
"201112089349301106","2010","261951302","Hope International Schools Inc",,"P O Box 17100",,"Colorado Springs",,"80935","CO","2010-01-01T00:00:00.000","2010-12-31T00:00:00.000","990",
"201112149349300231","2010","840829226","ASPEN COMMUNITY FOUNDATION",,"110 EAST HALLAM STREET NO 126",,"ASPEN",,"81611","CO","2010-01-01T00:00:00.000","2010-12-31T00:00:00.000","990",
"201112159349200401","2010","841248466","Summit County Arts Council",,"P O Box 738",,"Breckenridge",,"80424","CO","2010-01-01T00:00:00.000","2010-12-31T00:00:00.000","990EZ",
"201112229349300706","2010","841433591","FOLKWEST",,"PO Box 3665",,"Pagosa Springs",,"81147","CO","2010-01-01T00:00:00.000","2010-12-31T00:00:00.000","990",
"201112229349301206","2010","841375379","ROARING FORK CONSERVANCY",,"PO BOX 3349",,"BASALT",,"816213349","CO","2010-01-01T00:00:00.000","2010-12-31T00:00:00.000","990",
"201112229349301221","2010","262414132","Mercy Ships",,"15862 State Hwy 110 North",,"Lindale",,"75771","TX","2010-01-01T00:00:00.000","2010-12-31T00:00:00.000","990",
"201112229349301416","2010","432038279","THE CHATFIELD GRID IRON CLUB",,"7227 SOUTH SIMMS",,"LITTLETON",,"80127","CO","2010-01-01T00:00:00.000","2010-12-31T00:00:00.000","990",
"201112229349301756","2010","841412045","USA VOLLEYBALL FOUNDATION",,"715 S CIRCLE DRIVE",,"COLORADO SPRINGS",,"80910","CO","2010-01-01T00:00:00.000","2010-12-31T00:00:00.000","990",
"201112239349301621","2010","742676364","FACT - FLORENCE ARCHITECTURAL AND CULTURAL TRADITIONS",,"209 W MAIN STREET",,"FLORENCE",,"81226","CO","2010-04-01T00:00:00.000","2011-03-31T00:00:00.000","990",
"201112249349200721","2010","840716855","Denver Metropolitan Unit - ACBL",,"1410 Grant St A201",,"Denver",,"80203","CO","2010-01-01T00:00:00.000","2010-12-31T00:00:00.000","990EZ",
"201112249349300026","2010","205129941","JAMES RESOURCE NETWORK",,"2761 S FAIRFAX STREET",,"DENVER",,"80222","CO","2010-01-01T00:00:00.000","2010-12-31T00:00:00.000","990",
"201112269349200801","2010","271129085","THUNDER BASEBALL LEAGUE INC",,"PO Box 31",,"Broomfield",,"80038","CO","2010-01-01T00:00:00.000","2010-12-31T00:00:00.000","990EZ",
"201112279349201966","2010","841500307","ALAMOSA UPTOWN & RIVER ASSOCIATION",,"PO Box 1245",,"Alamosa",,"81101","CO","2010-01-01T00:00:00.000","2010-12-31T00:00:00.000","990EZ",
"201112279349203071","2010","510142931","NORTH AMERICAN TRAIL RIDE CONFERENCE INC",,"PO Box 224",,"Sedalia",,"80135","CO","2010-01-01T00:00:00.000","2010-12-31T00:00:00.000","990EZ",
"201112279349300506","2010","742501953","CATHOLIC MEDIA GROUPS",,"2960 Wagner Street",,"Strasburg",,"80136","CO","2010-01-01T00:00:00.000","2010-12-31T00:00:00.000","990",
"201112279349302186","2010","208233098","Rockley Family Foundation",,"470 Sunrise Dr",,"Golden",,"80401","CO","2010-01-01T00:00:00.000","2010-12-31T00:00:00.000","990",
"201112279349302601","2010","113843192","GLOBAL SPHERES INC",,"PO BOX 1601",,"DENTON",,"76202","TX","2010-04-01T00:00:00.000","2011-03-31T00:00:00.000","990",
"201112289349201021","2010","237206110","EDUCATIONAL OPPORTUNITY FNDTN OF BLACK F",,"11340 BLACK FOREST RD",,"COLORADO SPRINGS",,"80908","CO","2010-01-01T00:00:00.000","2010-12-31T00:00:00.000","990EZ",
"201112289349300636","2010","840937981","ABATE OF COLORADO",,"4725 PARIS STREET NO 250",,"DENVER",,"80239","CO","2010-01-01T00:00:00.000","2010-12-31T00:00:00.000","990",
"201112289349300816","2010","841338927","VAIL INTERNATIONAL HOCKEY TOURNAMENT INC",,"232 W MEADOW DRIVE",,"VAIL",,"81657","CO","2010-01-01T00:00:00.000","2010-12-31T00:00:00.000","990",
"201112299349301006","2010","841230407","Gunnison Valley Masonic Temple Associati",,"112 N Iowa",,"Gunnison",,"81230","CO","2010-01-01T00:00:00.000","2010-12-31T00:00:00.000","990",
"201112299349301106","2010","521465583","FEDERAL EMPLOYEE EDUCATION & ASSISTANCE FUND",,"3333 SOUTH WADSWORTH BOULEVARD NO","300","LAKEWOOD",,"802275122","CO","2010-05-01T00:00:00.000","2011-04-30T00:00:00.000","990",
"201112309349300426","2010","742364554","FOUR MILE EMERGENCY SERVICES INC",,"8437 TELLER COUNTY ROAD 11",,"FLORISSANT",,"80816","CO","2010-01-01T00:00:00.000","2010-12-31T00:00:00.000","990",
"201112359349300701","2010","841305294","Denver Broncos Charities",,"13655 Broncos Parkway",,"Englewood",,"80112","CO","2010-04-01T00:00:00.000","2011-03-31T00:00:00.000","990",
"201112369349300021","2010","271791881","James Kirk Bernard Foundation",,"16033 Bolsa Chica Suite 104-142",,"Huntington Beach",,"92649","CA","2010-01-01T00:00:00.000","2010-12-31T00:00:00.000","990",
"201112439349300026","2010","841648607","EDUCATE",,"PO BOX 4847",,"BOULDER",,"80306","CO","2010-01-01T00:00:00.000","2010-12-31T00:00:00.000","990",
"201112439349300851","2010","204851671","Catalyst High School",,"1376 Miners Rd Suite 106",,"Lafayette",,"80026","CO","2010-07-01T00:00:00.000","2011-06-30T00:00:00.000","990",
"201112449349301001","2010","201857599","Childrens Haven Child Care Center",,"2600 S Sheridan Blvd",,"Denver",,"80227","CO","2010-01-01T00:00:00.000","2010-12-31T00:00:00.000","990",
"201112549349300301","2010","841455437","EDUCAUSE",,"4772 Walnut Street",,"Boulder",,"80301","CO","2010-01-01T00:00:00.000","2010-12-31T00:00:00.000","990",
"201112579349300616","2010","263588986","JUSTIN PARKER NEUROLOGICAL INSTITUTE",,"1155 ALPINE AVE SUITE 320",,"BOULDER",,"80304","CO","2010-01-01T00:00:00.000","2010-12-31T00:00:00.000","990",
"201112679349200601","2010","731732140","TEN HI FLYERS INC",,"1855 SOUTH AMMONS STREET",,"LAKEWOOD",,"802326715","CO","2010-01-01T00:00:00.000","2010-12-31T00:00:00.000","990EZ",
"201112769349200411","2010","841578672","BASALT HIGH SCHOOL BOOSTER CLUB INC",,"PO BOX 1681",,"BASALT",,"81621","CO","2010-07-01T00:00:00.000","2011-06-30T00:00:00.000","990EZ",
"201112859349200701","2010","841546924","FRONT RANGE CENTER FOR ASSAULT PREVENTION",,"PO Box 745727",,"Arvada",,"80006","CO","2010-06-01T00:00:00.000","2011-05-31T00:00:00.000","990EZ",
"201112859349300106","2010","522133439","FORT COLLINS GIRLS SOFTBALL CLUB",,"PO BOX 271366",,"FORT COLLINS",,"805271366","CO","2010-01-01T00:00:00.000","2010-12-31T00:00:00.000","990",
"201112859349300791","2010","840389860","DENVER BAR ASSOCIATION",,"1900 GRANT STREET NO 900",,"DENVER",,"80203","CO","2010-07-01T00:00:00.000","2011-06-30T00:00:00.000","990",
"201112879349200106","2010","208078010","NUBA WATER PROJECT INC",,"7708 S Poplar St",,"Centennial",,"80112","CO","2010-01-01T00:00:00.000","2010-12-31T00:00:00.000","990EZ",
"201112879349300411","2010","840619556","VETERANS OF FOREIGN WARS-POST 101",,"702 S TEJON",,"COLORADO SPRINGS",,"80903","CO","2010-07-01T00:00:00.000","2011-06-30T00:00:00.000","990",
"201112919349300961","2010","680587171","USA TAEKWONDO INC",,"1 OLYMPIC PLAZA",,"COLORADO SPRINGS",,"80909","CO","2010-01-01T00:00:00.000","2010-12-31T00:00:00.000","990",
"201112919349301201","2010","840643721","ASPEN VALLEY MEDICAL FOUNDATION",,"PO BOX 1639",,"ASPEN",,"81612","CO","2010-01-01T00:00:00.000","2010-12-31T00:00:00.000","990",
"201112939349300501","2010","742657972","Littleton Soccer Club",,"6557 S Acoma Street",,"Littleton",,"80120","CO","2010-06-01T00:00:00.000","2011-05-31T00:00:00.000","990",
"201112989349200766","2010","846048022","PTA COLORADO CONGRESS","Carson Elementary PTA","5420 East 1st Avenue",,"Denver",,"802205801","CO","2010-07-01T00:00:00.000","2011-06-30T00:00:00.000","990EZ",
"201112989349300231","2010","562307921","DURANGO AREA TOURISM OFFICE",,"111 S CAMINO DEL RIO",,"DURANGO",,"81303","CO","2010-01-01T00:00:00.000","2010-12-31T00:00:00.000","990",
"201112999349200766","2010","840614164","CHERRY CREEK SCHOOL DISTRIC PARENT TEACHER COMMUNITY COUNCIL INC",,"8195 E Costilla Blvd",,"Centennial",,"80112","CO","2010-07-01T00:00:00.000","2011-06-30T00:00:00.000","990EZ",
"201113059349200421","2010","742334932","WHEELER OPERA HOUSE ASSOCIATION",,"PO BOX 10750",,"ASPEN",,"81612","CO","2010-10-01T00:00:00.000","2011-09-30T00:00:00.000","990EZ",
"201113059349301606","2010","742537191","Telluride Wine Festival",,"PO Box 1677",,"Telluride",,"81435","CO","2010-01-01T00:00:00.000","2010-12-31T00:00:00.000","990",
"201113089349200306","2010","846049390","COLORADO COLLEGE FACULTY SALARY FUND TR R79230000",,"C/O JPMORGAN CHASE BANKNABOX 3038",,"MILWAUKEE",,"532013038","WI","2010-07-01T00:00:00.000","2011-06-30T00:00:00.000","990EZ",
"201113089349300711","2010","846268287","MARGARET TYSON BARNES CHARITABLE TRUST R79426004",,"C/O JPMORGAN CHASE BANKNABOX 3038",,"MILWAUKEE",,"532013038","WI","2010-07-01T00:00:00.000","2011-06-30T00:00:00.000","990",
"201113119349200521","2010","841157832","SPELLBINDERS",,"PO BOX 1986",,"BASALT",,"81621","CO","2010-07-01T00:00:00.000","2011-06-30T00:00:00.000","990EZ",
"201113139349300941","2010","311741530","GENERATIONS CANCER FOUNDATION",,"PO BOX 13903",,"DENVER",,"80201","CO","2010-01-01T00:00:00.000","2010-12-31T00:00:00.000","990",
"201113139349302101","2010","200564493","The Home Front Cares Inc",,"PO Box 38516",,"Colorado Springs",,"809378516","CO","2010-05-01T00:00:00.000","2011-04-30T00:00:00.000","990",
"201113149349201476","2010","203220522","Lazos Inc",,"3606 Decatur Street",,"Denver",,"80211","CO","2010-01-01T00:00:00.000","2010-12-31T00:00:00.000","990EZ",
"201113149349300741","2010","263651313","HOSPICE OF THE VALLEY INC",,"PO BOX 3768",,"BASALT",,"81621","CO","2010-01-01T00:00:00.000","2010-12-31T00:00:00.000","990",
"201113149349301826","2010","841447465","SAN JUAN CITIZENS ALLIANCE",,"PO BOX 2461",,"DURANGO",,"81302","CO","2010-01-01T00:00:00.000","2010-12-31T00:00:00.000","990",
"201113159349303406","2010","742317104","NATIONAL STROKE ASSOCIATION",,"9707 EAST EASTER LANE NO B",,"ENGLEWOOD",,"801123747","CO","2010-01-01T00:00:00.000","2010-12-31T00:00:00.000","990",
"201113179349200511","2010","203226087","KABBALAH EXPERIENCE",,"3599 S Ivanhoe Street",,"Denver",,"80237","CO","2010-07-01T00:00:00.000","2011-06-30T00:00:00.000","990EZ",
"201113189349201741","2010","840952692","COLORADO FILM & VIDEO ASSOC INC",,"PO BOX 181236",,"DENVER",,"80218","CO","2010-07-01T00:00:00.000","2011-06-30T00:00:00.000","990EZ",
"201113189349202466","2010","846036200","Rotary Club of North Colorado Springs",,"PO Box 7056",,"Colorado Springs",,"80933","CO","2010-07-01T00:00:00.000","2011-06-30T00:00:00.000","990EZ",
"201113189349202471","2010","263684506","TODDLER TOWN OF TELLURIDE INC",,"PO BOX 4204",,"TELLURIDE",,"81435","CO","2010-01-01T00:00:00.000","2010-12-31T00:00:00.000","990EZ",
"201113189349202626","2010","203285808","Mountain Region Black Economic Summit",,"16748 E Smoky Hill Rd Room No 181",,"Aurora",,"80015","CO","2010-01-01T00:00:00.000","2010-12-31T00:00:00.000","990EZ",
"201113189349203756","2010","264494253","The Treasure Traders aka Trading4Treasures",,"7979 South Eudora Circle",,"Centennial",,"80122","CO","2010-01-01T00:00:00.000","2010-12-31T00:00:00.000","990EZ",
"201113189349300916","2010","208846152","EXEMPLA LUTHERAN MEDICAL CENTER FOUNDATION",,"2480 W 26TH AVENUE SUITE 360B",,"DENVER",,"80211","CO","2010-01-01T00:00:00.000","2010-12-31T00:00:00.000","990",
"201113189349302886","2010","264810482","Neighborhood Development Collaborative Inc",,"777 Grant Street 6th Floor",,"Denver",,"80203","CO","2010-01-01T00:00:00.000","2010-12-31T00:00:00.000","990",
"201113189349303526","2010","841497942","Pikes Peak Range Riders Foundation",,"PO Box 758",,"Colorado Springs",,"80901","CO","2010-01-01T00:00:00.000","2010-12-31T00:00:00.000","990",
"201113189349304856","2010","680534523","COLORADO CONCERN",,"140 E 19TH AVENUE","ROOM/SUITE 400","DENVER",,"80203","CO","2010-01-01T00:00:00.000","2010-12-31T00:00:00.000","990",
"201113199349201701","2010","841088668","COLORADO ASSOCIATION OF FAMILY CHILD CAR","DBA JEFFERSON COUNTY CHILD CARE ASSOCIAT","PO BOX 280853",,"LAKEWOOD",,"80228","CO","2010-07-01T00:00:00.000","2011-06-30T00:00:00.000","990EZ",
"201113199349203376","2010","841286585","Foundation for Colorado Springs' Future",,"90 South Cascade No 1050",,"Colorado Springs",,"80903","CO","2010-01-01T00:00:00.000","2010-12-31T00:00:00.000","990EZ",
"201113199349203381","2010","760741469","DENVER POLICE PROTECTIVE ASSOCIATION RELIEF FUND",,"2105 DECATUR",,"DENVER",,"80211","CO","2010-01-01T00:00:00.000","2010-12-31T00:00:00.000","990EZ",
"201113199349204251","2010","200780104","ROCKY MOUNTAIN SMALL AND DISADVANTAGED","BUSINESS OPPORTUNITY COUNCIL","POBOX 1085",,"WHEAT RIDGE",,"80033","CO","2010-01-01T00:00:00.000","2010-12-31T00:00:00.000","990EZ",
"201113199349204406","2010","841210460","MOUNTAIN STATES GENETICS FOUNDATION",,"5917 RIO ARRIBA RD NE",,"RIO RANCHO",,"87144","NM","2010-01-01T00:00:00.000","2010-12-31T00:00:00.000","990EZ",
"201113199349300531","2010","846051923","FORT COLLINS LIONS FOUNDATION INC",,"3307 South College Ave Suite 108",,"Fort Collins",,"80525","CO","2010-07-01T00:00:00.000","2011-06-30T00:00:00.000","990",
"201113199349302086","2010","841284437","USA CYCLING INC",,"210 USA CYCLING POINT SUITE 100",,"COLORADO SPRINGS",,"80919","CO","2010-01-01T00:00:00.000","2010-12-31T00:00:00.000","990",
"201113199349303756","2010","841251585","KIDS CROSSING INC",,"1440 E FOUNTAIN BLVD",,"COLORADO SPRINGS",,"80910","CO","2010-01-01T00:00:00.000","2010-12-31T00:00:00.000","990",
"201113199349304566","2010","260045741","ONWARD A LEGACY FOUNDATION",,"PO BOX 26",,"CORTEZ",,"81321","CO","2010-01-01T00:00:00.000","2010-12-31T00:00:00.000","990",
"201113199349304781","2010","742462875","Dr A J Kauvar Foundation","CO Hanegan & Associates PC","1625 Broadway",,"Denver",,"80202","CO","2010-01-01T00:00:00.000","2010-12-31T00:00:00.000","990",
"201113199349307236","2010","421687053","New Life Promises Recovery Center",,"3033 S PARKER ROAD",,"AURORA",,"80014","CO","2010-01-01T00:00:00.000","2010-12-31T00:00:00.000","990",
"201113199349308371","2010","840588859","Rocky Mountain Region Porsche Club of Am",,"7741 S Foresthill Court",,"Littleton",,"80120","CO","2010-01-01T00:00:00.000","2010-12-31T00:00:00.000","990",
"201113199349308766","2010","202159989","BOULDER INNOVATION CENTER",,"1900 15TH STREET",,"BOULDER",,"803025414","CO","2010-01-01T00:00:00.000","2010-12-31T00:00:00.000","990",
"201121199349200102","2010","840817047","THE COLORODANS OF LONGMONT INC",,"209 KIMBARK ST",,"LONGMONT",,"80501","CO","2010-01-01T00:00:00.000","2010-12-31T00:00:00.000","990EZ",
"201113199349309996","2010","840426532","Housing & Building Association of","Colorado Springs/Pikes Peak Region","4585 Hilton Parkway",,"Colorado Springs",,"80907","CO","2010-01-01T00:00:00.000","2010-12-31T00:00:00.000","990",
"201113209349300101","2010","510157175","MOUNTAIN UNITED CHURCH HOUSING INC",,"142 WEST 5TH AVENUE",,"DENVER",,"80204","CO","2010-01-01T00:00:00.000","2010-12-31T00:00:00.000","990",
"201211079349300426","2010","846037756","ASPEN HISTORICAL SOCIETY",,"620 WEST BLEEKER",,"ASPEN",,"81611","CO","2010-11-01T00:00:00.000","2011-10-31T00:00:00.000","990",
"201113219349300611","2010","251796465","SURGICORPS INTERNATIONAL",,"3392 SAXONBURG BLVD NO 400",,"GLENSHAW",,"15116","PA","2010-01-01T00:00:00.000","2010-12-31T00:00:00.000","990",
"201113259349300816","2010","943283038","Ethiopian Books for Children","and Educational Foundation","1700 Humboldt Street",,"Denver",,"80218","CO","2010-01-01T00:00:00.000","2010-12-31T00:00:00.000","990",
"201113349349200006","2010","331061557","DOUGLASS ELEMENTARY PTO-SIT INC",,"840 75th Street",,"Boulder",,"80303","CO","2010-08-01T00:00:00.000","2011-07-31T00:00:00.000","990EZ",
"201113549349300806","2010","846041719","CHI OMEGA HOUSE ASSOCIATION ZETA",,"1011 16TH STREET",,"BOULDER",,"80302","CO","2010-07-01T00:00:00.000","2011-06-30T00:00:00.000","990",
"201113559349300511","2010","841590478","UNLIMITED LEARNING INC",,"PO BOX 1273",,"CORTEZ",,"81321","CO","2010-07-01T00:00:00.000","2011-06-30T00:00:00.000","990",
"201113569349300866","2010","846042160","PUBLIC ACCOUNTANTS SOCIETY OF COLORADO",,"PO BOX 1078",,"EASTLAKE",,"80614","CO","2010-07-01T00:00:00.000","2011-06-30T00:00:00.000","990",
"201120679349200702","2010","841312440","NORTHERN COLO INTERNET COOPERATIVE",,"PO BOX 271648",,"FORT COLLINS",,"80522","CO","2010-01-01T00:00:00.000","2010-12-31T00:00:00.000","990EZ",
"201120679349300207","2010","412069024","Air Force Academy Athletic Foundn",,"1740 Broadway C7300-492",,"Denver",,"80274","CO","2010-01-01T00:00:00.000","2010-12-31T00:00:00.000","990",
"201120779349300512","2010","742401288","LES DAMES D'ASPEN LTD",,"PO BOX 609",,"ASPEN",,"816120609","CO","2010-02-01T00:00:00.000","2011-01-31T00:00:00.000","990",
"201120879349300507","2010","840509784","ST JOSEPH CREDIT UNION",,"205 E 3RD ST",,"SALIDA",,"81201","CO","2010-01-01T00:00:00.000","2010-12-31T00:00:00.000","990",
"201120949349200317","2010","141855234","THE FINANCIAL EDUCATION AND ECONOMIC TRANSFORMATION CENTER",,"12474 EAST WESLEY AVENUE",,"AURORA",,"800141992","CO","2010-01-01T00:00:00.000","2010-12-31T00:00:00.000","990EZ",
"201120959349200302","2010","841284746","Totally Kids Inc",,"PO Box 264",,"Hayden",,"81639","CO","2010-01-01T00:00:00.000","2010-12-31T00:00:00.000","990EZ",
"201120969349300552","2010","840789188","CHILDRENS HOUSE OF WELD CO IN",,"3801 GODDING HOLLOW PKWY",,"FREDERICK",,"80516","CO","2010-01-01T00:00:00.000","2010-12-31T00:00:00.000","990",
"201121059349200607","2010","208899547","THE CODY ST JOHN FOUNDATION INC",,"6989 SO SYRACUSE CT",,"CENTENNIAL",,"80112","CO","2010-01-01T00:00:00.000","2010-12-31T00:00:00.000","990EZ",
"201121089349200107","2010","841004215","DOCTORS TO THE WORLD",,"PO Box 1546",,"Breckenridge",,"80424","CO","2010-01-01T00:00:00.000","2010-12-31T00:00:00.000","990EZ",
"201121129349200502","2010","841005713","PUEBLO HISTORICAL AIRCRAFT SOCIETY",,"31001 Magnuson",,"Pueblo",,"81001","CO","2010-01-01T00:00:00.000","2010-12-31T00:00:00.000","990EZ",
"201121129349300207","2010","841474063","CREATIVE ACRES INC",,"PO BOX 1143",,"BRIGHTON",,"80601","CO","2010-01-01T00:00:00.000","2010-12-31T00:00:00.000","990",
"201121179349200012","2010","311782363","Eye Health Institute Inc",,"PO Box 11052",,"Boulder",,"80301","CO","2010-01-01T00:00:00.000","2010-12-31T00:00:00.000","990EZ",
"201121229349200732","2010","731693536","BOLDEREACH",,"PO Box 17544",,"Boulder",,"80308","CO","2010-01-01T00:00:00.000","2010-12-31T00:00:00.000","990EZ",
"201121239349300607","2010","742236822","COLORADO WATER AND WASTEWATER SYSTEMS",,"1283 S Vance Street",,"Lakewood",,"80232","CO","2010-01-01T00:00:00.000","2010-12-31T00:00:00.000","990",
"201121249349301127","2010","263137605","SOUTHERN COLORADO TRAINING CENTER",,"2904 Graneros Lane",,"Pueblo",,"81005","CO","2010-01-01T00:00:00.000","2010-12-31T00:00:00.000","990",
"201121259349201117","2010","760824485","ASSISTANT COACH INC",,"3050 Josephine Street",,"Denver",,"80205","CO","2010-01-01T00:00:00.000","2010-12-31T00:00:00.000","990EZ",
"201121269349301007","2010","840188208","RIO GRANDE OPERATING CREDIT UNION",,"4593 PECOS ST",,"DENVER",,"80211","CO","2010-01-01T00:00:00.000","2010-12-31T00:00:00.000","990",
"201121269349301307","2010","830234545","CHEYENNE MOUNTAIN PUBLIC BROADCAST HOUSE","BROADCAST HOUSE INC","1921 N WEBER STREET",,"COLORADO SPRINGS",,"80907","CO","2010-01-01T00:00:00.000","2010-12-31T00:00:00.000","990",
"201121269349301522","2010","931197451","NATIONAL ORGANIZATION OF INVESTMENT PROFESSIONALS",,"C/O ATB 2224 S FRASER ST Room No 6",,"AURORA",,"80014","CO","2010-01-01T00:00:00.000","2010-12-31T00:00:00.000","990",
"201121299349200032","2010","201363398","WESTERN HERITAGE EVENT CENTER INC",,"PO Box 1841",,"Pagosa Springs",,"81147","CO","2010-01-01T00:00:00.000","2010-12-31T00:00:00.000","990EZ",
"201121299349200202","2010","208212881","BRIANNA BADGER FOUNDATION",,"PO Box 102257",,"Denver",,"802502257","CO","2010-01-01T00:00:00.000","2010-12-31T00:00:00.000","990EZ",
"201121309349301982","2010","710971044","THE SHRM COLORADO STATE COUNCIL INC",,"7010 BROADWAY NO 320",,"DENVER",,"80221","CO","2010-01-01T00:00:00.000","2010-12-31T00:00:00.000","990",
"201121319349301957","2010","846121152","Meals on Wheels of Canon City Colorado I",,"702 Greenwood Ave",,"Canon City",,"81212","CO","2010-01-01T00:00:00.000","2010-12-31T00:00:00.000","990",
"201121329349202327","2010","841145719","METABOLIC BONE DISEASE SOCIETY OF COLORADO",,"3190 SO WADSWORTH BLVD NO 250",,"LAKEWOOD",,"802274800","CO","2010-01-01T00:00:00.000","2010-12-31T00:00:00.000","990EZ",
"201121329349302742","2010","841476535","Special KidsSpecial Families Inc",,"424 W Pikes Peak Ave",,"Colorado Springs",,"80905","CO","2010-01-01T00:00:00.000","2010-12-31T00:00:00.000","990",
"201121339349202217","2010","841554352","ARKANSAS VALLEY PREGNANCY CENTER INC",,"211 Belleview Avenue","POB 249","La Junta",,"810500249","CO","2010-01-01T00:00:00.000","2010-12-31T00:00:00.000","990EZ",
"201121339349300142","2010","205124665","SEACHANGE CAPITAL PARTNERS",,"11 EAST 44TH STREET SUITE 900",,"NEW YORK",,"10017","NY","2010-01-01T00:00:00.000","2010-12-31T00:00:00.000","990",
"201121349349200412","2010","202298161","BEHOLD THE LAMB MINISTRIES",,"7997 S Iris Way",,"Littleton",,"80128","CO","2010-01-01T00:00:00.000","2010-12-31T00:00:00.000","990EZ",
"201121369349201552","2010","261233189","INSTITUTE FOR THE STUDY OF ENERGY AND OUR FUTURE",,"PO Box 270762",,"Fort Collins",,"805270762","CO","2010-01-01T00:00:00.000","2010-12-31T00:00:00.000","990EZ",
"201121369349301977","2010","840685552","ONE THIRTEEN CREDIT UNION",,"3505 N CHESTNUT ST",,"COLORADO SPRINGS",,"80907","CO","2010-01-01T00:00:00.000","2010-12-31T00:00:00.000","990",
"201121369349306427","2010","846029989","KNIGHTS OF COLUMBUS 1161",,"118 STEEN AVE",,"LA JUNTA",,"810501721","CO","2010-01-01T00:00:00.000","2010-12-31T00:00:00.000","990",
"201121369349307402","2010","841227157","LIFE SKILLS INTERNATIONAL INC",,"651 CHAMBERS ROAD",,"AURORA",,"80011","CO","2010-01-01T00:00:00.000","2010-12-31T00:00:00.000","990",
"201121459349300427","2010","840884901","ROARING FORK PUBLIC RADIO INC",,"110 E HALLAM NO 134",,"ASPEN",,"81611","CO","2010-01-01T00:00:00.000","2010-12-31T00:00:00.000","990",
"201121479349200012","2010","205340461","Falcon Youth Football Club Inc",,"6050 Stetson Hills Blvd",,"Colorado Springs",,"80923","CO","2010-01-01T00:00:00.000","2010-12-31T00:00:00.000","990EZ",
"201121529349200312","2010","840898474","SHEKINAH MINISTRIES",,"2040 Terry Street Suite 106",,"Longmont",,"80501","CO","2010-01-01T00:00:00.000","2010-12-31T00:00:00.000","990EZ",
"201121579349300557","2010","840382863","VETERANS OF FOREIGN WARS",,"2514 7TH AVENUE",,"GREELEY",,"80631","CO","2010-04-01T00:00:00.000","2011-03-31T00:00:00.000","990",
"201121589349200402","2010","841283828","HOPE FOR TODAY MINISTRIES",,"2401 Alcott Street",,"Denver",,"802114812","CO","2010-01-01T00:00:00.000","2010-12-31T00:00:00.000","990EZ",
"201121729349300402","2010","200778121","National Homeland Defense Foundation",,"1259 Lake Plaza Drive No 250",,"Colorado Springs",,"80906","CO","2010-01-01T00:00:00.000","2010-12-31T00:00:00.000","990",
"201121749349300707","2010","841192349","FOUNDATION FOR BIOMEDICAL EDUCATION AND RESEARCH",,"4230 PRESERVE PARKWAY SOUTH",,"GREENWOOD VILLAGE",,"80121","CO","2010-01-01T00:00:00.000","2010-12-31T00:00:00.000","990",
"201121939349300117","2010","201003777","PROJECT HOPE OF COLORADO CO FELLOWSHIP CHURCH",,"765 24 ROAD",,"GRAND JUNCTION",,"81505","CO","2010-01-01T00:00:00.000","2010-12-31T00:00:00.000","990",
"201122009349300307","2010","237225165","DENVER LYRIC OPERA GUILD",,"2020 SOUTH ONEIDA STREET",,"DENVER",,"80224","CO","2010-06-01T00:00:00.000","2011-05-31T00:00:00.000","990",
"201122009349300537","2010","931010269","WESTERN ENVIRONMENTAL LAW CENTER",,"1216 LINCOLN ST",,"EUGENE",,"97401","OR","2010-01-01T00:00:00.000","2010-12-31T00:00:00.000","990",
"201122039349300402","2010","743037370","Rocky Mountain Options for Long Term Care",,"2812 East Bijou",,"Colorado Springs",,"80909","CO","2010-01-01T00:00:00.000","2010-12-31T00:00:00.000","990",
"201122069349300307","2010","841179373","COLORADO ASSOCIATION FOR RECYCLING INC",,"PO BOX 11130",,"DENVER",,"802210130","CO","2010-01-01T00:00:00.000","2010-12-31T00:00:00.000","990",
"201122139349301012","2010","841216008","Friendship International Ministries",,"1623 N Circle Dr",,"Colorado Springs",,"80909","CO","2010-01-01T00:00:00.000","2010-12-31T00:00:00.000","990",
"201122159349200127","2010","841092371","LONGMONT THEATRE COMPANY INC",,"513 MAIN STREET",,"LONGMONT",,"80501","CO","2010-07-01T00:00:00.000","2011-06-30T00:00:00.000","990EZ",
"201122179349300632","2010","840523624","CREDIT UNIONS CHARTERED IN THE STATE OF COLORADO",,"1503 Ninth Ave",,"Greeley",,"80631","CO","2010-01-01T00:00:00.000","2010-12-31T00:00:00.000","990",
"201122209349200912","2010","510578378","NEXTGEN ENERGY COUNCIL INC",,"14405 W COLFAX AVE STE 160",,"LAKEWOOD",,"80401","CO","2010-01-01T00:00:00.000","2010-12-31T00:00:00.000","990EZ",
"201122219349301412","2010","861151502","The Catamount Institute",,"740 West Caramillo Street",,"Colorado Springs",,"80907","CO","2010-01-01T00:00:00.000","2010-12-31T00:00:00.000","990",
"201122239349300322","2010","742232416","CENTER FOR ENRICHED COMMUNICATION INC",,"2708 PATTERSON RD",,"GRAND JUNCTION",,"815064031","CO","2010-01-01T00:00:00.000","2010-12-31T00:00:00.000","990",
"201122249349300007","2010","840678596","ROUTT COUNTY COUNCIL ON AGING INC",,"PO BOX 770207",,"STEAMBOAT SPRINGS",,"80477","CO","2010-01-01T00:00:00.000","2010-12-31T00:00:00.000","990",
"201122249349300022","2010","201667120","GIRLS ON THE RUN OF DENVER",,"515 ALBION ST",,"DENVER",,"80220","CO","2010-01-01T00:00:00.000","2010-12-31T00:00:00.000","990",
"201122259349200602","2010","841451498","ROCKY MT RAPIDS SWIM TEAM",,"P O BOX 62485",,"COLORADO SPRINGS",,"80962","CO","2010-01-01T00:00:00.000","2010-12-31T00:00:00.000","990EZ",
"201122259349200617","2010","841074866","PARKER ECONOMIC DEVELOPMENT COUNCIL",,"19751 E MAINSTREET","SUITE R11","PARKER",,"80138","CO","2010-01-01T00:00:00.000","2010-12-31T00:00:00.000","990EZ",
"201122269349201007","2010","841550319","NEW BEES THRIFT STORE",,"PO BOX 139",,"BUENA VISTA",,"81211","CO","2010-01-01T00:00:00.000","2010-12-31T00:00:00.000","990EZ",
"201122279349200302","2010","841588210","SAN JUAN FIELD SCHOOL",,"PO BOX 3726",,"TELLURIDE",,"81435","CO","2010-01-01T00:00:00.000","2010-12-31T00:00:00.000","990EZ",
"201122279349201672","2010","460489189","HEALING ROOMS FROM THE ROCKIES",,"PO Box 620493",,"Litteton",,"801620493","CO","2010-01-01T00:00:00.000","2010-12-31T00:00:00.000","990EZ",
"201122279349201977","2010","841497650","LEWIS AND FLOORWAX FOR KIDS FOUNDATION INC",,"3609 S WADSWORTH BLVD",,"LAKEWOOD",,"802352122","CO","2010-01-01T00:00:00.000","2010-12-31T00:00:00.000","990EZ",
"201122279349202327","2010","300101161","MOUNTAIN TOP CHILDREN'S MUSEUM INC",,"PO BOX 4359",,"BRECKENRIDGE",,"80424","CO","2010-01-01T00:00:00.000","2010-12-31T00:00:00.000","990EZ",
"201122279349202397","2010","300439999","PROFESSIONAL ASSOCIATION OF COLORADO","EDUCATORS","9800 Mount Pyramid Court Suite 400",,"Englewood",,"80122","CO","2010-01-01T00:00:00.000","2010-12-31T00:00:00.000","990EZ",
"201122279349202877","2010","870814187","NORTHEAST CHURCH OF CHRIST MONTBELLO",,"5490 Crown Blvd",,"Denver",,"80239","CO","2010-01-01T00:00:00.000","2010-12-31T00:00:00.000","990EZ",
"201122279349203302","2010","204118871","FRIENDS OF COLORADO CREW",,"PO Box 18673",,"Boulder",,"80308","CO","2010-01-01T00:00:00.000","2010-12-31T00:00:00.000","990EZ",
"201122279349301227","2010","911959600","INTERNATIONAL FOUNDATION OF HOPE LOIS HYBARGER",,"7 N WENATCHEE AVE STE 205",,"WENATCHEE",,"98801","WA","2010-01-01T00:00:00.000","2010-12-31T00:00:00.000","990",
"201122289349301007","2010","203476202","JOSEPH INDIA MISSION","% JUDY JO GRANT","1518 ASHCROFT",,"LONGMONT",,"80501","CO","2010-01-01T00:00:00.000","2010-12-31T00:00:00.000","990",
"201122289349301392","2010","840633426","COLORADO ASSOCIATION FOR CONTINUING MEDICAL LABORATORY EDUCATION INC",,"6825 EAST TENNESSEE AVENUE",,"DENVER",,"80224","CO","2010-01-01T00:00:00.000","2010-12-31T00:00:00.000","990",
"201122289349301917","2010","203503189","ASPEN CANCER SURVIVOR CENTER",,"1450 CRYSTAL LAKE ROAD",,"ASPEN",,"81612","CO","2010-01-01T00:00:00.000","2010-12-31T00:00:00.000","990",
"201122309349200317","2010","263655986","PUEBLO POLICE ACTIVITY LEAGUE INC",,"200 South Main",,"Pueblo",,"81003","CO","2010-01-01T00:00:00.000","2010-12-31T00:00:00.000","990EZ",
"201122419349200027","2010","800562507","The Comfort Cafe",,"3945 Tennyson Street",,"Denver",,"80212","CO","2010-02-01T00:00:00.000","2010-12-31T00:00:00.000","990EZ",
"201122439349200707","2010","261204343","REVISION INTERNATIONAL",,"1536 Wynkoop St","Suite 600","Denver",,"80202","CO","2010-01-01T00:00:00.000","2010-12-31T00:00:00.000","990EZ",
"201122459349300812","2010","260317963","REDLINE",,"2350 ARAPAHOE ST",,"DENVER",,"80205","CO","2010-01-01T00:00:00.000","2010-12-31T00:00:00.000","990",
"201122509349300212","2010","841069605","Colorado Riverfront Foundation Inc",,"P O Box 2477",,"Grand Junction",,"81502","CO","2010-01-01T00:00:00.000","2010-12-31T00:00:00.000","990",
"201122569349300532","2010","571185029","COLORADO DEC INC",,"2000 WEST 120TH AVENUE NO 12",,"DENVER",,"80234","CO","2010-01-01T00:00:00.000","2010-12-31T00:00:00.000","990",
"201122669349300117","2010","840857176","COTTONWOOD PRESCHOOL",,"PO BOX 2654",,"LITTLETON",,"80161","CO","2010-07-01T00:00:00.000","2011-06-30T00:00:00.000","990",
"201122809349200307","2010","846047986","PTA Colorado Congress",,"320 South Marion Parkway",,"Denver",,"80209","CO","2010-07-01T00:00:00.000","2011-06-30T00:00:00.000","990EZ",
"201122849349300702","2010","840511799","Pikes Peak United Way",,"518 North Nevada Avenue",,"Colorado Springs",,"80903","CO","2010-07-01T00:00:00.000","2011-06-30T00:00:00.000","990",
"201122859349300517","2010","840446259","VALLEY VIEW HOSPITAL ASSOCIATION",,"PO BOX 1970",,"GLENWOOD SPRINGS",,"816021970","CO","2010-01-01T00:00:00.000","2010-12-31T00:00:00.000","990",
"201122859349300967","2010","840468385","COLORADO BAR ASSOCIATION",,"1900 GRANT STREET NO 900",,"DENVER",,"80203","CO","2010-07-01T00:00:00.000","2011-06-30T00:00:00.000","990",
"201122979349200402","2010","201197027","Whittier International School PTA",,"2007 Pine Street",,"Boulder",,"80302","CO","2010-08-01T00:00:00.000","2011-07-31T00:00:00.000","990EZ",
"201123009349300607","2010","743055232","UNIVERSAL EDUCATION SUPPORTERS INC",,"11197 E 6TH AVE",,"Aurora",,"80010","CO","2010-04-01T00:00:00.000","2011-03-31T00:00:00.000","990",
"201123049349300682","2010","203395808","Durango Film Institute",,"PO Box 1587",,"Durango",,"813011587","CO","2010-01-01T00:00:00.000","2011-06-30T00:00:00.000","990",
"201123069349200202","2010","841162742","PROFESSIONAL ENGINEERS OF COLORADO EDUCATION FOUNDATION",,"7515 Conifer Dr",,"Colorado Springs",,"80920","CO","2010-07-01T00:00:00.000","2011-06-30T00:00:00.000","990EZ",
"201123079349300042","2010","841606032","ASPEN LUNG CONFERENCE",,"1414 SOUTH LIMA STREET",,"AURORA",,"800124127","CO","2010-01-01T00:00:00.000","2010-12-31T00:00:00.000","990",
"201123089349201002","2010","262910748","INTERNATIONAL PATHOLOGY AND LABORATORY INC",,"2128 EAST 4TH AVENUE",,"DENVER",,"80206","CO","2010-01-01T00:00:00.000","2010-12-31T00:00:00.000","990EZ",
"201123109349200202","2010","840820238","CENTENNIAL SKATING CLUB OF COLORADO SPRINGS",,"PO Box 62991",,"Colorado Springs",,"809622991","CO","2010-07-01T00:00:00.000","2011-06-30T00:00:00.000","990EZ",
"201123119349301307","2010","841544523","TEN THOUSAND VILLAGES OF FORT COLLINS INC",,"113 LINDEN STREET",,"FORT COLLINS",,"80524","CO","2010-01-01T00:00:00.000","2010-12-31T00:00:00.000","990",
"201123129349301707","2010","742541265","Discovery Center Science Museum",,"200 Mathews Street",,"Fort Collins",,"80524","CO","2010-01-01T00:00:00.000","2010-12-31T00:00:00.000","990",
"201123149349200027","2010","800038840","BROOMFIELD BASEBALL LEAGUE INC",,"PO BOX 1053",,"BROOMFIELD",,"800381053","CO","2010-01-01T00:00:00.000","2010-12-31T00:00:00.000","990EZ",
"201123149349200617","2010","841226244","Club for Thirty Players",,"690 Pine Oaks Drive",,"Colorado Springs",,"80926","CO","2010-01-01T00:00:00.000","2010-12-31T00:00:00.000","990EZ",
"201123149349300147","2010","841039706","GTO ASSOCIATION OF AMERICA INC",,"C/O BETH BUTCHER PO BOX 213",,"TIMNATH",,"80547","CO","2010-01-01T00:00:00.000","2010-12-31T00:00:00.000","990",
"201123149349300947","2010","742427577","BIOMEDICAL RESEARCH FOUNDATION OF COLORADO",,"2020 SOUTH ONEIDA STREET",,"DENVER",,"80224","CO","2010-01-01T00:00:00.000","2010-12-31T00:00:00.000","990",
"201123149349302197","2010","841057336","THE COLORADO TRAIL FOUNDATION",,"710 10th Street Suite 210",,"Golden",,"804015843","CO","2010-01-01T00:00:00.000","2010-12-31T00:00:00.000","990",
"201123149349303662","2010","742503370","CORTEZ CENTER INC","DBA CORTEZ CULTURAL CENTER","25 NORTH MARKET STREET",,"CORTEZ",,"81321","CO","2010-01-01T00:00:00.000","2010-12-31T00:00:00.000","990",
"201123159349200627","2010","840528618","SPORTSMENS PARADISE",,"PO BOX 383",,"LAKE GEORGE",,"808270383","CO","2010-01-01T00:00:00.000","2010-12-31T00:00:00.000","990EZ",
"201123159349302877","2010","840531599","VALLEY SWIM CLUB",,"PO BOX 6184",,"COLORADO SPRINGS",,"80934","CO","2010-01-01T00:00:00.000","2010-12-31T00:00:00.000","990",
"201123159349303517","2010","841571405","SHELTER MINISTRIES INC",,"16825 GOSHAWK RD WEST",,"COLORADO SPRINGS",,"80908","CO","2010-01-01T00:00:00.000","2010-12-31T00:00:00.000","990",
"201123159349303812","2010","251620274","GERMAN SHEPHERD DOG CLUB OF AMERICA -","WORKING DOG ASSOCIATION","6880 E PICO DEL MONTE",,"TUCSON",,"857506315","AZ","2010-01-01T00:00:00.000","2010-12-31T00:00:00.000","990",
"201123179349200512","2010","841245648","CHERRY CREEK SCHOOL DISTRICT PARENT TEACHER COMMUNITY COUNCIL INC",,"14700 East Temple Place",,"Aurora",,"80015","CO","2010-07-01T00:00:00.000","2011-06-30T00:00:00.000","990EZ",
"201123189349202977","2010","742704537","Coronado Elementary PTA",,"7922 S Carr Street",,"Littleton",,"80128","CO","2010-07-01T00:00:00.000","2011-06-30T00:00:00.000","990EZ",
"201123189349300237","2010","204375532","Allied Jewish Apartments Endowment",,"22 S Adams Street",,"Denver",,"80209","CO","2010-01-01T00:00:00.000","2010-12-31T00:00:00.000","990",
"201123189349301017","2010","841649162","Exempla Good Samaritan Medical Ctr Foundation",,"200 Exempla Circle",,"Lafayette",,"80026","CO","2010-01-01T00:00:00.000","2010-12-31T00:00:00.000","990",
"201123189349304737","2010","237001007","St Mary's Hospital Foundation",,"2635 N 7th St",,"Grand Junction",,"81502","CO","2010-01-01T00:00:00.000","2010-12-31T00:00:00.000","990",
"201123199349203497","2010","840845710","NIWOT BASEBALL INC",,"6964 NORTH 79TH",,"LONGMONT",,"80503","CO","2010-01-01T00:00:00.000","2010-12-31T00:00:00.000","990EZ",
"201123199349204012","2010","450537941","KINGDOM BUILDERS NETWORK INC",,"406 RIDGEWAY DRIVE",,"GRAND JUNCTION",,"81507","CO","2010-01-01T00:00:00.000","2010-12-31T00:00:00.000","990EZ",
"201123199349300142","2010","742395098","Western Colorado Botanical Society",,"641 Struthers Ave",,"Grand Junction",,"81501","CO","2010-01-01T00:00:00.000","2010-12-31T00:00:00.000","990",
"201123199349302247","2010","840884042","COLORADO ASPHALT PAVEMENT ASSOCIATION",,"6880 S YOSEMITE COURT NO 110",,"ENGLEWOOD",,"801121440","CO","2010-01-01T00:00:00.000","2010-12-31T00:00:00.000","990",
"201123199349303112","2010","841521058","Colorado Natural Land Trust co Paul Geer",,"8073 Fenton Court",,"Arvada",,"80003","CO","2010-01-01T00:00:00.000","2010-12-31T00:00:00.000","990",
"201123199349304957","2010","841178699","MOUNTAIN RESOURCE CENTER INC",,"PO BOX 425",,"CONIFER",,"80433","CO","2010-01-01T00:00:00.000","2010-12-31T00:00:00.000","990",
"201123199349306702","2010","841362424","Computers In Ministry",,"P O Box 441383",,"Aurora",,"800441383","CO","2010-01-01T00:00:00.000","2010-12-31T00:00:00.000","990",
"201123199349307647","2010","840535419","Fort Town","Downtown Business Association","PO Box 229",,"Fort Collins",,"80522","CO","2010-01-01T00:00:00.000","2010-12-31T00:00:00.000","990",
"201123199349307842","2010","204919465","Our Sister's Keeper Coalition Inc",,"PO Box 3416",,"Durango",,"81302","CO","2010-01-01T00:00:00.000","2010-12-31T00:00:00.000","990",
"201123199349308597","2010","841582289","TRANSPORTATION SOLUTIONS FOUNDATION",,"280 COLUMBINE STREET NO 306",,"DENVER",,"80206","CO","2010-01-01T00:00:00.000","2010-12-31T00:00:00.000","990",
"201123199349308967","2010","840679337","THE ARC OF ADAMS COUNTY INC",,"641 E 112TH AVENUE",,"NORTHGLENN",,"80233","CO","2010-01-01T00:00:00.000","2010-12-31T00:00:00.000","990",
"201123199349309227","2010","841085822","MARILLAC CLINIC INC",,"2333 N 6TH STREET",,"GRAND JUNCTION",,"815012001","CO","2010-01-01T00:00:00.000","2010-12-31T00:00:00.000","990",
"201123199349309997","2010","841254485","LACROSSE OUTREACH FOUNDATION","C/O EDWARD W BARUCH PRESIDENT","14152 WEST 4TH AVENUE",,"GOLDEN",,"80401","CO","2010-01-01T00:00:00.000","2010-12-31T00:00:00.000","990",
"201123199349310277","2010","840766984","ALTERNATIVES TO FAMILY VIOLENCE",,"PO BOX 385",,"COMMERCE CITY",,"80037","CO","2010-01-01T00:00:00.000","2010-12-31T00:00:00.000","990",
"201123209349200022","2010","841304474","LIGHT FOR LIFE FOUNDATION INTERNATIONAL",,"PO Box 644",,"Westminster",,"800360644","CO","2010-01-01T00:00:00.000","2010-12-31T00:00:00.000","990EZ",
"201123209349300742","2010","272461746","SOUTHWESTERN COLORADO AREA HEALTH",,"700 MAIN AVE",,"Durango",,"81301","CO","2010-07-01T00:00:00.000","2011-06-30T00:00:00.000","990",
"201123269349200502","2010","841325807","FRIENDS OF IB SCHOLARS FOUNDATION",,"655 South Monaco Parkway",,"Denver",,"80224","CO","2010-07-01T00:00:00.000","2011-06-30T00:00:00.000","990EZ",
"201123269349300222","2010","841598698","ENSIGHT SKILLS CENTER",,"3307 South College Avenue","Suite 108","Fort Collins",,"80525","CO","2010-07-01T00:00:00.000","2011-06-30T00:00:00.000","990",
"201123269349300507","2010","237173293","GREELEY EVANS YOUTH LEAGUE INC",,"6501 W 20TH STREET",,"GREELEY",,"80634","CO","2010-09-01T00:00:00.000","2011-08-31T00:00:00.000","990",
"201123509349300622","2010","840779147","SOUTHWEST COLORADO COMMUNITY","CORRECTIONS CENTER INC","1050 AVENIDA DEL SOL",,"DURANGO",,"81301","CO","2010-07-01T00:00:00.000","2011-06-30T00:00:00.000","990",
"201123619349200102","2010","364522156","CALLIOPE INC",,"PO Box 384",,"Poncha Springs",,"812420384","CO","2010-12-01T00:00:00.000","2011-11-30T00:00:00.000","990EZ",
"201130459349200833","2010","272213217","BREEDER RELEASE ADOPTION SERVICE",,"PO BOX 181",,"BONCARBO",,"81024","CO","2010-01-01T00:00:00.000","2010-12-31T00:00:00.000","990EZ",
"201130529349300613","2010","336258491","BERGER COLLECTION EDUCATION TRUST","ATTN TIMOTHY STANDRING","100 WEST 14TH AVENUE PARKWAY",,"DENVER",,"80204","CO","2010-01-01T00:00:00.000","2010-12-31T00:00:00.000","990",
"201130749349200768","2010","841446075","PROFESSIONAL WILD HORSE RACERS INC",,"8180 EVEN RD W",,"BEULAH",,"81023","CO","2010-02-01T00:00:00.000","2011-01-31T00:00:00.000","990EZ",
"201130759349300703","2010","840197515","PRINTING & IMAGING ASSOCIATION MOUNTAIN STATES",,"5105 E 41ST AVE",,"DENVER",,"80216","CO","2010-01-01T00:00:00.000","2010-12-31T00:00:00.000","990",
"201130819349200308","2010","263439263","CADETS FOR CHRIST",,"1370 RANGELY DRIVE",,"COLORADO SPRINGS",,"80921","CO","2010-01-01T00:00:00.000","2010-12-31T00:00:00.000","990EZ",
"201130829349300713","2010","710947313","COLORADO ASSOCIATION OF FUNDERS",,"600 SOUTH CHERRY STREET",,"DENVER",,"80246","CO","2010-01-01T00:00:00.000","2010-12-31T00:00:00.000","990",
"201130829349300718","2010","841454927","ATLANTIS COMMUNITY FOUNDATION",,"225 SOUTH CHEROKEE",,"DENVER",,"80223","CO","2010-01-01T00:00:00.000","2010-12-31T00:00:00.000","990",
"201130869349200103","2010","202466081","LEONARD RICE MEMORIAL SCHOLARSHP FD",,"2000 CLAY ST STE 300",,"DENVER",,"80211","CO","2010-01-01T00:00:00.000","2010-12-31T00:00:00.000","990EZ",
"201130889349300613","2010","841575292","VisionQuest Alliance",,"18940 Base Camp Road",,"Monument",,"80132","CO","2010-01-01T00:00:00.000","2010-12-31T00:00:00.000","990",
"201130909349300108","2010","841599051","FASB FITNESS FESTIVAL INC",,"8390 E CRESCENT PARKWAY SUITE 100",,"GREENWOOD VILLAGE",,"80111","CO","2010-01-01T00:00:00.000","2010-12-31T00:00:00.000","990",
"201130919349200003","2010","262802728","PARK COUNTY LIVESTOCK COMMITTEE INC",,"PO BOX 1215",,"BAILEY",,"80421","CO","2010-01-01T00:00:00.000","2010-12-31T00:00:00.000","990EZ",
"201130919349300703","2010","264599901","COLORADO ORAL-DEAF PRESCHOOL",,"8081 E Orchard Rd",,"Greenwood Village",,"80111","CO","2010-01-01T00:00:00.000","2010-12-31T00:00:00.000","990",
"201130949349200518","2010","271008209","HitStreak FastPitch",,"23101 Timber Spring Lane",,"Parker",,"80138","CO","2010-01-01T00:00:00.000","2010-12-31T00:00:00.000","990EZ",
"201131019349200403","2010","272005625","Firestone Baptist Church",,"PO BOX 869",,"Firestone",,"80520","CO","2010-01-01T00:00:00.000","2010-12-31T00:00:00.000","990EZ",
"201131019349200703","2010","742811342","SAN JUAN OUTDOOR CLUB",,"PO Box 3856",,"Pagosa Springs",,"81147","CO","2010-01-01T00:00:00.000","2010-12-31T00:00:00.000","990EZ",
"201131109349300413","2010","203821616","COLORADO ART RANCH",,"6878 Taft Court",,"Arvada",,"800042575","CO","2010-01-01T00:00:00.000","2010-12-31T00:00:00.000","990",
"201131129349200308","2010","271035215","INSPIRING MINDS",,"4640 S DOWNING STREET",,"ENGLEWOOD",,"80113","CO","2010-01-01T00:00:00.000","2010-12-31T00:00:00.000","990EZ",
"201131159349200018","2010","841327921","LA PLATA ELECTRIC ROUND UP FOUNDATION",,"PO Box 2750",,"Durango",,"813022750","CO","2010-01-01T00:00:00.000","2010-12-31T00:00:00.000","990EZ",
"201131159349200303","2010","582683682","VIDAS",,"PO Box 20246",,"Boulder",,"80308","CO","2010-01-01T00:00:00.000","2010-12-31T00:00:00.000","990EZ",
"201131159349300303","2010","841424591","FRIENDS OF THE LOVELAND PUBLIC LIBRARY FOUNDATION INC",,"300 North Adams Avenue",,"Loveland",,"80537","CO","2010-01-01T00:00:00.000","2010-12-31T00:00:00.000","990",
"201131229349200528","2010","208496951","WORLD CAMPUS INTERNATIONAL",,"2765 Overlook Drive",,"Broomfield",,"80020","CO","2010-01-01T00:00:00.000","2010-12-31T00:00:00.000","990EZ",
"201131229349300703","2010","261389934","ANNA MARIA FACCO FOUNDATION",,"PO BOX 1056",,"LAKE CITY",,"81235","CO","2010-01-01T00:00:00.000","2010-12-31T00:00:00.000","990",
"201131249349200313","2010","841266080","GLENWOOD SPRINGS YOUTH HOCKEY ASSOC",,"PO BOX 576",,"GLENWOOD SPRINGS",,"81602","CO","2010-01-01T00:00:00.000","2010-12-31T00:00:00.000","990EZ",
"201131259349300218","2010","846061790","FOUNTAIN VALLEY SCHOOL ENDOWMENT","1012036910 / R79233004","C/O JPMORGAN CHASE BANKNABOX 3038",,"MILWAUKEE",,"532013038","WI","2010-01-01T00:00:00.000","2010-12-31T00:00:00.000","990",
"201131259349300533","2010","841194619","SUICIDE RESOURCE CTR OF LARIMER CTY",,"315 EAST 7TH STREET",,"LOVELAND",,"80537","CO","2010-01-01T00:00:00.000","2010-12-31T00:00:00.000","990",
"201131259349300748","2010","840405837","FREDERICK TAYLOR MEM ORGAN FD","1012028310 / R79213006","C/O JPMORGAN CHASE BANKNABOX 3038",,"MILWAUKEE",,"532013038","WI","2010-01-01T00:00:00.000","2010-12-31T00:00:00.000","990",
"201132219349300533","2010","371524412","THE EZRA PROJECT INC",,"1399 S HAVANA ST 201-E",,"AURORA",,"80012","CO","2010-01-01T00:00:00.000","2010-12-31T00:00:00.000","990",
"201131259349301613","2010","840748577","Hospice of Boulder County DBA Hospice-","Care of Boulder and Broomfield Counties","2594 Trailridge Drive East",,"Lafayette",,"80026","CO","2010-01-01T00:00:00.000","2010-12-31T00:00:00.000","990",
"201131269349200503","2010","800352913","GUARDIAN ANGEL RESCUE MISSION INC",,"220 West 10th Street",,"Pueblo",,"81003","CO","2010-01-01T00:00:00.000","2010-12-31T00:00:00.000","990EZ",
"201131269349200943","2010","541503911","RESTORATION MINISTRIES INT'L INC",,"2755 SOUTH LOCUST STREET",,"DENVER",,"80222","CO","2010-01-01T00:00:00.000","2010-12-31T00:00:00.000","990EZ",
"201131309349200743","2010","261229845","Ouray Mountain Trail Run Inc",,"PO Box 646",,"Ouray",,"81427","CO","2010-01-01T00:00:00.000","2010-12-31T00:00:00.000","990EZ",
"201131309349302558","2010","204226894","SOUTHEAST COMMUNITY OUTREACH",,"9650 JORDAN ROAD",,"PARKER",,"80134","CO","2010-02-01T00:00:00.000","2011-01-31T00:00:00.000","990",
"201131319349200248","2010","204162106","KIDS VOTING MESA COUNTY",,"2523 Patterson Road",,"Grand Junction",,"81505","CO","2010-01-01T00:00:00.000","2010-12-31T00:00:00.000","990EZ",
"201131319349301248","2010","232594045","AH HAA SCHOOL FOR THE ARTS",,"PO BOX 1590",,"TELLURIDE",,"81435","CO","2010-01-01T00:00:00.000","2010-12-31T00:00:00.000","990",
"201131319349302443","2010","840486338","METRONORTH CHAMBER OF COMMERCE",,"14583 ORCHARD PKWY STE 300 NO 210",,"WESTMINSTER",,"80023","CO","2010-01-01T00:00:00.000","2010-12-31T00:00:00.000","990",
"201131329349303953","2010","840772159","COLORADO TIMBER INDUSTRY ASSOC",,"PO BOX 32",,"Delta",,"81416","CO","2010-01-01T00:00:00.000","2010-12-31T00:00:00.000","990",
"201131339349200308","2010","205827289","RICO CENTER",,"PO BOX 114",,"Rico",,"81332","CO","2010-01-01T00:00:00.000","2010-12-31T00:00:00.000","990EZ",
"201131339349202963","2010","841160764","NORTH BOULDER LITTLE LEAGUE",,"3450 PENROSE PLACE","ROOM/SUITE 150","BOULDER",,"80301","CO","2010-01-01T00:00:00.000","2010-12-31T00:00:00.000","990EZ",
"201131359349300013","2010","841505469","BAM Swim Team",,"PO Box 2016",,"Boulder",,"803062016","CO","2010-01-01T00:00:00.000","2010-12-31T00:00:00.000","990",
"201131369349200738","2010","201887258","HIGHLANDS RANCH YOUTH FOOTBALL ASSOCIATION",,"9249 S BROADWAY BLVD SUITE 200 PMD","NO 530","HIGHLANDS RANCH",,"80129","CO","2010-01-01T00:00:00.000","2010-12-31T00:00:00.000","990EZ",
"201131369349202243","2010","260625429","CETAV",,"7036 E MOUNTAIN BRUSH CIRCLE",,"HIGHLANDS RANCH",,"80130","CO","2010-01-01T00:00:00.000","2010-12-31T00:00:00.000","990EZ",
"201131369349202503","2010","841552053","ROCKY MOUNTAIN CHILDHOOD CANCER FOUNDATION",,"7720 S BROADWAY NO 110",,"LITTLETON",,"80122","CO","2010-01-01T00:00:00.000","2010-12-31T00:00:00.000","990EZ",
"201131369349204068","2010","202464043","NATIONAL ALLIANCE FOR GRIEVING CHILDREN",,"555 Forest Avenue",,"Portland",,"41011504","ME","2010-01-01T00:00:00.000","2010-12-31T00:00:00.000","990EZ",
"201131369349302593","2010","208702202","NATIONAL FOUNDATION FOR FERTILITY","RESEARCH","10290 RIDGEGATE CIRCLE",,"LONE TREE",,"80124","CO","2010-01-01T00:00:00.000","2010-12-31T00:00:00.000","990",
"201131369349303208","2010","201641549","JOHN MCCONNELL MATH & SCIENCE CENTER","OF WESTERN CO INC","2660 UNAWEEP AVE",,"GRAND JUNCTION",,"81503","CO","2010-01-01T00:00:00.000","2010-12-31T00:00:00.000","990",
"201131369349304253","2010","262141365","LEADERSHIP INSTITUTE OF NEW SUDAN - LIONS",,"1300 Washington Street",,"Denver",,"80203","CO","2010-01-01T00:00:00.000","2010-12-31T00:00:00.000","990",
"201131379349200633","2010","841461845","PLATTE CANYON LITTLE LEAGUE INC",,"PO BOX 1738",,"BAILEY",,"80421","CO","2010-01-01T00:00:00.000","2010-12-31T00:00:00.000","990EZ",
"201131399349300923","2010","870253627","MOUNTAIN STATES LUMBER & BUILDING","MATERIALS DEALERS ASSOCIATION","9034 E EASTER PL","ROOM/SUITE 103","CENTENNIAL",,"801122104","CO","2010-01-01T00:00:00.000","2010-12-31T00:00:00.000","990",
"201131479349300303","2010","840622557","BIOLOGICAL SCIENCES CURRICULUM STUDY INC",,"5415 MARK DABLING BLVD",,"COLORADO SPRINGS",,"80918","CO","2010-01-01T00:00:00.000","2010-12-31T00:00:00.000","990",
"201131529349300223","2010","330589065","MISSION INTERNATIONAL MINISTRIES","C/O NANCY J BAUMANN CPA","24681 LA PLAZA","ROOM/SUITE 350","DANA POINT",,"92629","CA","2010-01-01T00:00:00.000","2010-12-31T00:00:00.000","990",
"201131539349200003","2010","260658619","VISIONSCAPE INTERNATIONAL MINISTRIES",,"PO BOX 63162",,"COLORADO SPRINGS",,"80962","CO","2010-01-01T00:00:00.000","2010-12-31T00:00:00.000","990EZ",
"201131549349300313","2010","840523354","BENET HILL MONASTERY OF COLORADO SPRINGS INC",,"3190 BENET LANE",,"COLORADO SPRINGS",,"809211509","CO","2010-01-01T00:00:00.000","2010-12-31T00:00:00.000","990",
"201131589349300208","2010","311494423","Mizel Center for Arts and Culture",,"350 South Dahlia Street",,"Denver",,"80246","CO","2010-01-01T00:00:00.000","2010-12-31T00:00:00.000","990",
"201131619349200508","2010","841283249","KENYAN CHILDREN FOUNDATION INC",,"P O Box 631116",,"Highlands Ranch",,"801631116","CO","2010-01-01T00:00:00.000","2010-12-31T00:00:00.000","990EZ",
"201131649349200408","2010","840701404","ASPEN COMMUNITY THEATRE",,"PO BOX 743",,"ASPEN",,"81612","CO","2010-05-01T00:00:00.000","2011-04-30T00:00:00.000","990EZ",
"201131649349300128","2010","581657207","MUSTARD SEED COMMUNITIES INC",,"29 JANES AVENUE",,"MEDFIELD",,"2052","MA","2010-01-01T00:00:00.000","2010-12-31T00:00:00.000","990",
"201131659349300423","2010","460472149","Healing Waters International Inc",,"534 Commons Drive",,"Golden",,"80401","CO","2010-01-01T00:00:00.000","2010-12-31T00:00:00.000","990",
"201131679349300313","2010","202015631","CHILDRENS HEALTH FOUNDATION",,"400 W MAIN NO 210",,"ASPEN",,"81611","CO","2010-01-01T00:00:00.000","2010-12-31T00:00:00.000","990",
"201131689349300018","2010","846037688","ROCKY MOUNTAIN MINERAL LAW FOUNDATION",,"9191 SHERIDAN BLVD",,"WESTMINSTER",,"800313020","CO","2010-01-01T00:00:00.000","2010-12-31T00:00:00.000","990",
"201131689349300218","2010","830481954","PLACEMATTERS INC",,"1536 WYNKOOP STREET STE 307",,"DENVER",,"80202","CO","2010-01-01T00:00:00.000","2010-12-31T00:00:00.000","990",
"201131739349300108","2010","237311825","Pueblo Joint Committee for","Electrical Apprenticeship and Training","2901 Farabaugh Lane",,"Pueblo",,"81005","CO","2010-01-01T00:00:00.000","2010-12-31T00:00:00.000","990",
"201131899349200013","2010","271165867","Philanthropia Ministries",,"272 Hottell Lane",,"Bayfield",,"81122","CO","2010-01-01T00:00:00.000","2010-12-31T00:00:00.000","990EZ",
"201131929349200308","2010","263938168","PROJECT V E T S",,"51 Pine View Lane",,"Boulder",,"80302","CO","2010-01-01T00:00:00.000","2010-12-31T00:00:00.000","990EZ",
"201131929349200328","2010","841300020","COLORADO BLUES SOCIETY INC",,"PO BOX 386",,"WINDSOR",,"805500386","CO","2010-01-01T00:00:00.000","2010-12-31T00:00:00.000","990EZ",
"201131949349300318","2010","841535770","Ransomed Heart Ministries",,"4965 North 30th Street",,"Colorado Springs",,"80919","CO","2010-01-01T00:00:00.000","2010-12-31T00:00:00.000","990",
"201131999349300123","2010","841562020","FOUNDATION OF THE HEART",,"PO BOX 51353",,"COLORADO SPRINGS",,"80949","CO","2010-01-01T00:00:00.000","2010-12-31T00:00:00.000","990",
"201132009349300518","2010","261094527","RESORT 2 KINDNESS",,"9781 S MERIDIAN BLVD STE 200","ROOM/SUITE 200","ENGLEWOOD",,"80112","CO","2010-01-01T00:00:00.000","2010-12-31T00:00:00.000","990",
"201132039349300803","2010","841564816","FRIENDS OF THE ASPEN ANIMAL SHELTER",,"PO BOX 985",,"ASPEN",,"81612","CO","2010-01-01T00:00:00.000","2010-12-31T00:00:00.000","990",
"201132089349200618","2010","841324887","FRIENDS OF CHEYENNE CANON INC",,"P O Box 60275",,"Colorado Springs",,"80960","CO","2010-01-01T00:00:00.000","2010-12-31T00:00:00.000","990EZ",
"201132089349300428","2010","200246205","NATIONAL ORGANIZATION OF RECOVERING","ALCOHOLICS NORA","PO BOX 3807",,"DURANGO",,"81302","CO","2010-01-01T00:00:00.000","2010-12-31T00:00:00.000","990",
"201132109349300703","2010","742457373","PEDCO FOUNDATION INC",,"301 N MAIN ST",,"PUEBLO",,"810033237","CO","2010-01-01T00:00:00.000","2010-12-31T00:00:00.000","990",
"201132109349300828","2010","840519638","PEOPLES CREDIT UNION",,"PO BOX 416",,"SPRINGFIELD",,"81073","CO","2010-01-01T00:00:00.000","2010-12-31T00:00:00.000","990",
"201132159349300643","2010","571212607","SPORTS MADE POSSIBLE INC",,"8200 S QUEBEC STREET NO A3 273",,"CENTENNIAL",,"80112","CO","2010-01-01T00:00:00.000","2010-12-31T00:00:00.000","990",
"201132169349200813","2010","592187367","SIGMA IOTA EPSILON NATIONAL OFFICE",,"312 ROCKWELL HALL CO ST UNIV",,"FORT COLLINS",,"80523","CO","2010-01-01T00:00:00.000","2010-12-31T00:00:00.000","990EZ",
"201132179349301353","2010","200940000","EXTREME SPORTS CAMP INC",,"PO BOX 10729",,"ASPEN",,"81612","CO","2010-01-01T00:00:00.000","2010-12-31T00:00:00.000","990",
"201132209349200723","2010","264518667","THE RITA FUND",,"PO BOX 7336",,"BOULDER",,"80306","CO","2010-01-01T00:00:00.000","2010-12-31T00:00:00.000","990EZ",
"201132229349300723","2010","200977545","BARNABAS MINISTRIES AFRICA AND NEW LIFE HOME AFRICA",,"PO Box 16778",,"Golden",,"804026012","CO","2010-01-01T00:00:00.000","2010-12-31T00:00:00.000","990",
"201132239349200528","2010","651003261","FREEDOM FOUNDATION INC",,"5216 FOREST BROOK PARKWAY",,"MARIETTA",,"30068","GA","2010-01-01T00:00:00.000","2010-12-31T00:00:00.000","990EZ",
"201132239349200823","2010","841345199","PUEBLO AFRICAN AMERICAN CONCERN ORGANIZATION",,"PO BOX 11833",,"PUEBLO",,"81001","CO","2010-01-01T00:00:00.000","2010-12-31T00:00:00.000","990EZ",
"201132239349300243","2010","841261595","CATHOLIC TELEVISION APOSTOLATE",,"PO BOX 441335",,"AURORA",,"800441335","CO","2010-01-01T00:00:00.000","2010-12-31T00:00:00.000","990",
"201132239349301688","2010","870792870","COLORADOWYOMING VIZSLA RESCUE GROUP INC",,"1017 EGGLESTON STREET",,"FORT COLLINS",,"80524","CO","2010-01-01T00:00:00.000","2010-12-31T00:00:00.000","990",
"201132239349302298","2010","841009399","PLAINS CONSERVATION CENTER",,"21901 E HAMPDEN AVE",,"AURORA",,"80013","CO","2010-01-01T00:00:00.000","2010-12-31T00:00:00.000","990",
"201132249349200323","2010","840611964","COLORADO SOCIETY OF CLINICAL PATHOLOGISTS",,"2760 E FLORA PLACE",,"DENVER",,"80210","CO","2010-01-01T00:00:00.000","2010-12-31T00:00:00.000","990EZ",
"201132259349200803","2010","260098940","National Remember Our Troops Campaign I",,"P O Box 34093",,"Essex",,"212214936","MD","2010-01-01T00:00:00.000","2010-12-31T00:00:00.000","990EZ",
"201132269349200608","2010","205698092","FAT CITY FARMERS INC",,"P O BOX 995",,"Basalt",,"81621","CO","2010-01-01T00:00:00.000","2010-12-31T00:00:00.000","990EZ",
"201132269349300618","2010","840413357","BIG CUT LATERAL & RESERVOIR CO",,"29470 WCR 15",,"WINDSOR",,"80550","CO","2010-01-01T00:00:00.000","2010-12-31T00:00:00.000","990",
"201132279349201278","2010","383648926","COMPANION ARTS",,"PO Box 19944",,"Boulder",,"80308","CO","2010-01-01T00:00:00.000","2010-12-31T00:00:00.000","990EZ",
"201132279349201353","2010","260843448","DURANGO LACROSSE CLUB INC",,"2615 MAIN AVENUE SUITE A",,"DURANGO",,"81301","CO","2010-01-01T00:00:00.000","2010-12-31T00:00:00.000","990EZ",
"201132279349300648","2010","260317963","REDLINE",,"2350 ARAPAHOE ST",,"DENVER",,"80205","CO","2010-01-01T00:00:00.000","2010-12-31T00:00:00.000","990",
"201132289349201078","2010","202325992","CONCRETE COUCH",,"206 SOUTH LIMIT ST",,"COLORADO SPRINGS",,"80905","CO","2010-01-01T00:00:00.000","2010-12-31T00:00:00.000","990EZ",
"201132289349300733","2010","201740623","THE CLOUD FOUNDATION INC",,"107 SOUTH 7TH STREET",,"COLORADO SPRINGS",,"809051602","CO","2010-01-01T00:00:00.000","2010-12-31T00:00:00.000","990",
"201132289349300823","2010","510210369","MAOZ INC",,"PO BOX 535788",,"GRAND PRAIRIE",,"750535788","TX","2010-01-01T00:00:00.000","2010-12-31T00:00:00.000","990",
"201132289349301063","2010","846042788","VAIL RELIGIOUS FOUNDATION",,"19 VAIL ROAD",,"VAIL",,"81657","CO","2010-01-01T00:00:00.000","2010-12-31T00:00:00.000","990",
"201132289349301363","2010","841305687","ASPEN GLOBAL CHANGE INSTITUTE",,"104 MIDLAND AVE NO 205",,"BASALT",,"81621","CO","2010-01-01T00:00:00.000","2010-12-31T00:00:00.000","990",
"201132289349301453","2010","526081248","NATIONAL SWIMMING POOL FOUNDATION",,"4775 GRANBY CIRCLE",,"COLORADO SPRINGS",,"80919","CO","2010-01-01T00:00:00.000","2010-12-31T00:00:00.000","990",
"201132299349300328","2010","841256929","BANDIMERE FAMILY FOUNDATION",,"3051 S ROONEY ROAD",,"MORRISON",,"804659748","CO","2010-01-01T00:00:00.000","2010-12-31T00:00:00.000","990",
"201132339349200253","2010","204218560","Colorado St Bernard Rescue Inc",,"P O Box 27772",,"Denver",,"80227","CO","2010-01-01T00:00:00.000","2010-12-31T00:00:00.000","990EZ",
"201132509349200118","2010","846045475","VELVET HILLS CHAPTER OF","SWEET ADELINES INTERNATIONAL","PO BOX 7448",,"COLORADO SPRINGS",,"809337448","CO","2010-05-01T00:00:00.000","2011-04-30T00:00:00.000","990EZ",
"201132519349300033","2010","262608100","LONGMONT AREA VISITORS ASSOCIATION INC",,"630 COFFMAN NO STE B",,"LONGMONT",,"80501","CO","2010-01-01T00:00:00.000","2010-12-31T00:00:00.000","990",
"201132579349300703","2010","846031758","EDUCATIONAL FOUNDATION OF THE CSCPA",,"7979 EAST TUFTS AVE NO 1000",,"DENVER",,"80237","CO","2010-05-01T00:00:00.000","2011-04-30T00:00:00.000","990",
"201132589349300733","2010","841337870","TELLURIDE ADAPTIVE SPORTS PROGRAM",,"PO BOX 2254",,"Telluride",,"81435","CO","2010-05-01T00:00:00.000","2011-04-30T00:00:00.000","990",
"201132649349300208","2010","840777296","Special Transit",,"2855 N 63rd Street",,"Boulder",,"803012959","CO","2010-01-01T00:00:00.000","2010-12-31T00:00:00.000","990",
"201132649349300408","2010","841342747","DAVINCI INSTITUTE INC",,"PO BOX 270315",,"LOUISVILLE",,"80027","CO","2010-06-01T00:00:00.000","2011-05-31T00:00:00.000","990",
"201132719349300108","2010","840510311","ASSISTANCE LEAGUE OF DENVER",,"1400 JOSEPHINE STREET",,"DENVER",,"80206","CO","2010-06-01T00:00:00.000","2011-05-31T00:00:00.000","990",
"201132739349200608","2010","273144717","Restoration Project",,"PO Box 273112",,"Fort Collins",,"805273112","CO","2010-01-01T00:00:00.000","2010-12-31T00:00:00.000","990EZ",
"201132779349300123","2010","742436293","ASSOCIATION OF INTERNATIONAL MISSION SERVICES",,"P O BOX 64534",,"VIRGINIA BEACH",,"234674534","VA","2010-05-01T00:00:00.000","2011-04-30T00:00:00.000","990",
"201132789349300818","2010","942608033","SAFARI CLUB INTERNATIONAL COLORADO CHAPTER",,"PO BOX 5486",,"WOODLAND PARK",,"808665486","CO","2010-05-01T00:00:00.000","2011-04-30T00:00:00.000","990",
"201132789349301008","2010","742535078","THE DENVER ACTIVE 2030 CHILDREN'S FOUNDATION",,"3445 ZUNI STREET",,"DENVER",,"80211","CO","2010-01-01T00:00:00.000","2010-12-31T00:00:00.000","990",
"201132809349200508","2010","846031955","INTERNATIONAL ASSOCIATION OF LIONS CLUBS","Fort Collins Lons Club","3307 South College Ave Suite 108",,"Fort Collins",,"80525","CO","2010-07-01T00:00:00.000","2011-06-30T00:00:00.000","990EZ",
"201132849349300628","2010","841129849","UPLIFT INTERNATIONALE",,"PO BOX 181658",,"DENVER",,"80218","CO","2010-06-01T00:00:00.000","2011-05-31T00:00:00.000","990",
"201132859349300903","2010","850283465","CASWELL SILVER FOUNDATION",,"UNM DEPT OF EARTH PLANETARY SCIENCE",,"ALBUQUERQUE",,"87131","NM","2010-07-01T00:00:00.000","2011-06-30T00:00:00.000","990",
"201132879349301413","2010","840744153","PETERSON SPOUSES' CLUB CHARITABLE ORGANIZATION",,"PO BOX 14217",,"COLORADO SPRINGS",,"80914","CO","2010-06-01T00:00:00.000","2011-05-31T00:00:00.000","990",
"201132949349300903","2010","208365069","SOUTHWEST INSTITUTE FOR","EDUCATION AND CONSERVATION","701 CAMINO DEL RIO","ROOM/SUITE 101","DURANGO",,"81301","CO","2010-01-01T00:00:00.000","2010-12-31T00:00:00.000","990",
"201132999349200113","2010","880473338","MINISTRY ARCHITECTURE INC",,"1904 S UNION PLACE",,"LAKEWOOD",,"80228","CO","2010-01-01T00:00:00.000","2010-12-31T00:00:00.000","990EZ",
"201133089349200213","2010","237099298","PTA COLORADO CONGRESS","Vanderhoof Elementary PTA","5875 Routt Ct",,"Arvada",,"80004","CO","2010-07-01T00:00:00.000","2011-06-30T00:00:00.000","990EZ",
"201133089349300013","2010","841073939","THOMPSON SOCCER ASSOCIATION INC",,"1217 W EISENHOWER BLVD",,"LOVELAND",,"805373128","CO","2010-08-01T00:00:00.000","2011-07-31T00:00:00.000","990",
"201133099349300503","2010","742254018","Allied Housing South Inc",,"22 South Adams Street",,"Denver",,"80209","CO","2010-01-01T00:00:00.000","2010-12-31T00:00:00.000","990",
"201133129349200608","2010","260844392","SHELLEDY ELEMENTARY PTO LLC",,"353 N Mesa Avenue",,"Fruita",,"81521","CO","2010-08-01T00:00:00.000","2011-07-31T00:00:00.000","990EZ",
"201133129349201158","2010","300566563","ASPEN HOMELESS SHELTER",,"PO BOX 1639",,"ASPEN",,"81612","CO","2010-01-01T00:00:00.000","2010-12-31T00:00:00.000","990EZ",
"201133129349302753","2010","840804704","ARAPAHOE COUNTY BAR ASSOCIATION",,"6060 GREENWOOD VILLAGE BLVD Room No",,"GREENWOOD VILLAGE",,"80111","CO","2010-08-01T00:00:00.000","2011-07-31T00:00:00.000","990",
"201133149349200818","2010","841355507","PEAKHARMONIC YOUTH ORCHESTRA",,"PO BOX 63356",,"COLORADO SPRINGS",,"80962","CO","2010-07-01T00:00:00.000","2011-06-30T00:00:00.000","990EZ",
"201133149349303768","2010","840591617","KAISER FDN HEALTH PLAN OF COLORADO",,"ONE KAISER PLAZA SUITE 15L",,"OAKLAND",,"94612","CA","2010-01-01T00:00:00.000","2010-12-31T00:00:00.000","990",
"201133159349301613","2010","841214145","TEN THOUSAND VILLAGES-DENVER",,"2626 E THIRD AVE",,"DENVER",,"80206","CO","2010-01-01T00:00:00.000","2010-12-31T00:00:00.000","990",
"201133189349201618","2010","841246092","CHERRY CREEK SCHOOL DISTRIC PARENT TEACHER COMMUNITY COUNCIL INC",,"19451 East Progress Circle",,"Centennial",,"80015","CO","2010-07-01T00:00:00.000","2011-06-30T00:00:00.000","990EZ",
"201133189349202613","2010","205187373","Teller County Animal Rescue ( Teller Elves)",,"PO Box 207",,"Florissant",,"808160207","CO","2010-01-01T00:00:00.000","2010-12-31T00:00:00.000","990EZ",
"201133189349304148","2010","840809393","ENERGY RESOURCE CENTER",,"5920 PAONIA COURT",,"COLORADO SPRINGS",,"80915","CO","2010-07-01T00:00:00.000","2011-06-30T00:00:00.000","990",
"201133189349304778","2010","841478699","TENDERFOOT CHILD AND FAMILY DEVELOPMENT CENTER",,"700 N COLORADO",,"GUNNISON",,"81230","CO","2010-01-01T00:00:00.000","2010-12-31T00:00:00.000","990",
"201133189349306508","2010","841316839","Community Housing Development Association Inc",,"325 Inverness Drive South",,"Englewood CO",,"80112","CO","2010-01-01T00:00:00.000","2010-12-31T00:00:00.000","990",
"201133199349201883","2010","460509886","Quest Ministries Inc",,"1525 E Jamison Pl",,"Centennial",,"80122","CO","2010-01-01T00:00:00.000","2010-12-31T00:00:00.000","990EZ",
"201133199349202413","2010","820560309","CHERRY CREEK SCHOOL DISTRICT PARENT TEACHER COMMUNITY COUNCIL INC",,"21500 East Dry Creek Road",,"Aurora",,"80016","CO","2010-07-01T00:00:00.000","2011-06-30T00:00:00.000","990EZ",
"201133199349203288","2010","264611931","THE HEARTHSTONE FOUNDATION",,"751 GARFIELD AVE",,"LOVELAND",,"80537","CO","2010-01-01T00:00:00.000","2010-12-31T00:00:00.000","990EZ",
"201133199349203958","2010","841356443","Annie's Orphans",,"1630 CR 214",,"Durango",,"81303","CO","2010-01-01T00:00:00.000","2010-12-31T00:00:00.000","990EZ",
"201133199349204358","2010","841286744","HEALTHY MOUNTAIN COMMUNITIES",,"PO Box 1582",,"Carbondale",,"81623","CO","2010-01-01T00:00:00.000","2010-12-31T00:00:00.000","990EZ",
"201133199349302083","2010","204264282","USA SWIMMING INC",,"1 OLYMPIC PLAZA",,"COLORADO SPRINGS",,"80909","CO","2010-01-01T00:00:00.000","2010-12-31T00:00:00.000","990",
"201133199349302323","2010","260370718","Tri for Your Cause co David Herron",,"8540 W 81st Drive",,"Arvada",,"80005","CO","2010-01-01T00:00:00.000","2010-12-31T00:00:00.000","990",
"201133199349305848","2010","840576978","SOUTHERN UTE COMMUNITY ACTION PROGRAMS INC",,"285 LAKIN STREET",,"IGNACIO",,"81137","CO","2010-01-01T00:00:00.000","2010-12-31T00:00:00.000","990",
"201133199349306668","2010","200967055","Nexus International",,"5948 E Caley Ave",,"Centennial",,"80111","CO","2010-01-01T00:00:00.000","2010-12-31T00:00:00.000","990",
"201133199349306998","2010","510167243","THE DENVER POLICE ORPHANS FUND INC",,"1331 CHEROKEE STREET NO 506",,"DENVER",,"80204","CO","2010-01-01T00:00:00.000","2010-12-31T00:00:00.000","990",
"201133199349308663","2010","841158371","CALVARY CHAPEL OF GRAND JUNCTION",,"492 MORNING GLORY LANE",,"GRAND JUNCTION",,"81504","CO","2010-01-01T00:00:00.000","2010-12-31T00:00:00.000","990",
"201133199349309468","2010","841339198","GUNNISON LEGACY FUND",,"307 N MAIN ST",,"GUNNISON",,"81230","CO","2010-01-01T00:00:00.000","2010-12-31T00:00:00.000","990",
"201133199349309818","2010","262337005","The Family Group",,"2495 County Line Road",,"Monument",,"80132","CO","2010-01-01T00:00:00.000","2010-12-31T00:00:00.000","990",
"201133209349200813","2010","841245691","CHERRY CREEK SCHOOL DISTRIC PARENT TEACHER COMMUNITY COUNCIL INC",,"6867 East Heritage Place South",,"Centennial",,"80111","CO","2010-07-01T00:00:00.000","2011-06-30T00:00:00.000","990EZ",
"201133259349300323","2010","846030911","SEWALL REHABILITATION CENTER FOUNDATION",,"5291 E YALE AVENUE",,"DENVER",,"80222","CO","2010-07-01T00:00:00.000","2011-06-30T00:00:00.000","990",
"201133279349300213","2010","841348897","ROARING FORK GAY & LESBIAN COMMUNITY FUND",,"P O BOX 3143",,"ASPEN",,"81612","CO","2010-06-01T00:00:00.000","2011-05-31T00:00:00.000","990",
"201133399349300058","2010","841419999","GOD'S FINGERPRINTS & HOPE CHRISTIAN ACADEMY",,"11455 W BELLEVIEW",,"LITTLETON",,"80127","CO","2010-07-01T00:00:00.000","2011-06-30T00:00:00.000","990",
"201133499349200418","2010","742213189","SALIDA CONCERTS INC",,"PO BOX 13",,"SALIDA",,"81201","CO","2010-10-01T00:00:00.000","2011-09-30T00:00:00.000","990EZ",
"201133549349300503","2010","510160095","ARAPAHOE YOUTH LEAGUE INC",,"PO BOX 4546",,"ENGLEWOOD",,"80155","CO","2010-09-01T00:00:00.000","2011-08-31T00:00:00.000","990",
"201133569349300823","2010","205864304","Castle Family Health Centers Inc",,"3605 Hospital Road",,"Atwater",,"95301","CA","2010-07-01T00:00:00.000","2011-06-30T00:00:00.000","990",
"201140529349300709","2010","850333985","LOVE SIGN MINISTRIES",,"PO BOX 280752",,"LAKEWOOD",,"802280752","CO","2010-01-01T00:00:00.000","2010-12-31T00:00:00.000","990",
"201140749349300349","2010","840999784","RETIRED ENLISTED ASSN 39 TREA CHAPTER",,"15821 EAST CENTRETECH CR",,"AURORA",,"80011","CO","2010-01-01T00:00:00.000","2010-12-31T00:00:00.000","990",
"201140909349200304","2010","200411457","GOSPEL OF GRACE MINISTRIES",,"PO Box 49272",,"Colorado Springs",,"80949","CO","2010-01-01T00:00:00.000","2010-12-31T00:00:00.000","990EZ",
"201140949349300809","2010","271847353","COLORADO BASKETBALL CLUB",,"PO BOX 632103",,"LITTLETON",,"80163","CO","2010-02-05T00:00:00.000","2010-12-31T00:00:00.000","990",
"201141099349200014","2010","460487482","ELLICOTT WILDLIFE REHABILITATION",,"PO BOX 75069",,"COLORADO SPRINGS",,"80970","CO","2010-01-01T00:00:00.000","2010-12-31T00:00:00.000","990EZ",
"201141169349200514","2010","431948858","Horticultural Therapy Institute",,"1432 Grape St",,"Denver",,"80220","CO","2010-01-01T00:00:00.000","2010-12-31T00:00:00.000","990EZ",
"201141169349200609","2010","680516407","ROCKY MOUNTAIN ESTATES FIRE","PREVENTION FUND INC","7688 FDR 250",,"ANTONITO",,"81120","CO","2010-01-01T00:00:00.000","2010-12-31T00:00:00.000","990EZ",
"201141179349200719","2010","840959900","COMMUNITY ACTION DEVELOPMENT CORP",,"PO BOX 471",,"Boulder",,"80306","CO","2010-01-01T00:00:00.000","2010-12-31T00:00:00.000","990EZ",
"201141249349200134","2010","752158092","Ouray Mountain Rescue Team Inc",,"PO Box 220",,"Ouray",,"81427","CO","2010-01-01T00:00:00.000","2010-12-31T00:00:00.000","990EZ",
"201141259349301669","2010","846019622","SHERWOOD CROCKER TRUST R79220001 1012000910",,"C/O JPMORGAN CHASE BANKNABOX 3038",,"MILWAUKEE",,"53201","WI","2010-01-01T00:00:00.000","2010-12-31T00:00:00.000","990",
"201141269349300609","2010","841266231","ANIMAL HUMANE SOCIETY OF OURAY COUNTY INC",,"PO Box 2096",,"Ridgway",,"81432","CO","2010-01-01T00:00:00.000","2010-12-31T00:00:00.000","990",
"201141269349300719","2010","840512667","CREDIT UNIONS CHARTERED IN THE","STATE OF COLORADO 240 COMMUNITY","6921 E 72ND AVE",,"COMMERCE CITY",,"80022","CO","2010-01-01T00:00:00.000","2010-12-31T00:00:00.000","990",
"201141299349300034","2010","742317361","REIJIM INC",,"PO BOX 212",,"PUEBLO",,"81002","CO","2010-01-01T00:00:00.000","2010-12-31T00:00:00.000","990",
"201141299349301254","2010","260563654","THE EXCELL FOUNDATION",,"7900 E UNION AVE NO 975",,"DENVER",,"80237","CO","2010-01-01T00:00:00.000","2010-12-31T00:00:00.000","990",
"201141299349301854","2010","841133782","INDEPENDENCE PASS FOUNDATION",,"PO BOX 1700",,"ASPEN",,"81612","CO","2010-01-01T00:00:00.000","2010-12-31T00:00:00.000","990",
"201141309349301109","2010","840528869","VALLEY EDUCATORS CREDIT UNION",,"910 MAIN ST",,"ALAMOSA",,"81101","CO","2010-01-01T00:00:00.000","2010-12-31T00:00:00.000","990",
"201141319349302424","2010","680619025","STILL WATER FOUNDATION",,"121 W 32ND STREET",,"Durango",,"81301","CO","2010-01-01T00:00:00.000","2010-12-31T00:00:00.000","990",
"201141329349201709","2010","431952245","Woodford Manufacturing Charities Inc",,"2121 Waynoka Road",,"Colorado Springs",,"80915","CO","2010-01-01T00:00:00.000","2010-12-31T00:00:00.000","990EZ",
"201141329349201994","2010","841510271","ASPEN VOLUNTEER FIRE DEPARTMENT INC",,"420 EAST HOPKINS AVENUE",,"ASPEN",,"81611","CO","2010-01-01T00:00:00.000","2010-12-31T00:00:00.000","990EZ",
"201141329349202059","2010","841029829","ROCKY MOUNTAIN ROWING CLUB INC",,"PO Box 370181",,"Denver",,"80237","CO","2010-01-01T00:00:00.000","2010-12-31T00:00:00.000","990EZ",
"201141329349202184","2010","202596488","NEDSK8 INC",,"397 Highway 119 East","PO Box 3240","Nederland",,"804663240","CO","2010-01-01T00:00:00.000","2010-12-31T00:00:00.000","990EZ",
"201141329349202384","2010","840796515","ROCKY MOUNTAIN BOOK PUBLISHERS ASSOC","C/O KENT WATSON","17501 HILL WAY",,"LAKE OSWEGO",,"97035","OR","2010-01-01T00:00:00.000","2010-12-31T00:00:00.000","990EZ",
"201141339349200614","2010","840632118","RED BRICK COUNCIL FOR THE ARTS",,"110 E HALLAM NO 118",,"ASPEN",,"81611","CO","2010-01-01T00:00:00.000","2010-12-31T00:00:00.000","990EZ",
"201141339349301644","2010","237317485","SAN MIGUEL EDUCATIONAL FUND",,"PO BO 1069",,"Telluride",,"81435","CO","2010-01-01T00:00:00.000","2010-12-31T00:00:00.000","990",
"201141339349305289","2010","841186592","NATIONAL NETWORK FOR ORAL HEALTH ACCESS INC",,"PMB 329 3700 QUEBEC STREET Room No",,"DENVER",,"802071639","CO","2010-01-01T00:00:00.000","2010-12-31T00:00:00.000","990",
"201141349349200714","2010","204928546","SOUND CIRCLE EURYTHMY FOUNDATION",,"5668 GUNBARREL ROAD",,"LONGMONT",,"805038610","CO","2010-01-01T00:00:00.000","2010-12-31T00:00:00.000","990EZ",
"201141369349204354","2010","742520505","Pikemasters Railroad Club of Colorado Springs",,"221 East Kiowa Street",,"Colorado Springs",,"80903","CO","2010-01-01T00:00:00.000","2010-12-31T00:00:00.000","990EZ",
"201141369349301619","2010","840409862","PIKES PEAK CREDIT UNION",,"1616 N CIRCLE DR",,"COLORADO SPRINGS",,"80909","CO","2010-01-01T00:00:00.000","2010-12-31T00:00:00.000","990",
"201141369349304469","2010","200458807","Capital Sisters International Inc",,"227 Lamb Lane",,"Golden",,"80401","CO","2010-01-01T00:00:00.000","2010-12-31T00:00:00.000","990",
"201141369349305634","2010","841330243","COLORADO HAITI PROJECT INC",,"908 Main Street","Suite 245","Louisville",,"80027","CO","2010-01-01T00:00:00.000","2010-12-31T00:00:00.000","990",
"201141389349300309","2010","232981610","The Veterans Fund Inc",,"1200 Red Hill Road",,"Port Trevorton",,"17864","PA","2010-01-01T00:00:00.000","2010-12-31T00:00:00.000","990",
"201141439349200014","2010","201740391","ELEOS PROJECT",,"6074 S Fairfax Ct",,"Centennial",,"80121","CO","2010-01-01T00:00:00.000","2010-12-31T00:00:00.000","990EZ",
"201141449349300009","2010","205331669","Colorado Juniors Volleyball Inc",,"2348 Elite Terrace",,"Colorado Springs",,"80920","CO","2010-01-01T00:00:00.000","2010-12-31T00:00:00.000","990",
"201141469349200404","2010","582461094","SWAN CENTER OUTREACH INC",,"PO Box 25749",,"Silverthorne",,"80497","CO","2010-01-01T00:00:00.000","2010-12-31T00:00:00.000","990EZ",
"201141579349300619","2010","741900412","WILDERNESS WORKSHOP",,"PO BOX 1442",,"CARBONDALE",,"81623","CO","2010-01-01T00:00:00.000","2010-12-31T00:00:00.000","990",
"201141679349300809","2010","841195069","Denver Dry Development Corporation",,"1555 California Street No 200",,"Denver",,"80202","CO","2010-01-01T00:00:00.000","2010-12-31T00:00:00.000","990",
"201141719349200504","2010","271527846","SAMARITAN COUNSELING NETWORK INC",,"3800 W 20TH STREET",,"GREELEY",,"80634","CO","2010-01-01T00:00:00.000","2010-12-31T00:00:00.000","990EZ",
"201141729349200224","2010","841523131","THE TRUST FOR LAND RESTORATION INC",,"PO Box 743","555 W Clinton Street","Ridgway",,"81432","CO","2010-01-01T00:00:00.000","2010-12-31T00:00:00.000","990EZ",
"201141789349300814","2010","200873516","NEW CARING & SHARING",,"220 WEST 4TH STREET",,"SALIDA",,"81201","CO","2010-01-01T00:00:00.000","2010-12-31T00:00:00.000","990",
"201141809349300509","2010","742335158","CHERRY CREEK COMMERCE ASSOCIATION",,"PO BOX 6449",,"DENVER",,"80206","CO","2010-01-01T00:00:00.000","2010-12-31T00:00:00.000","990",
"201141869349300624","2010","840817700","COLORADO BLACK CHAMBER OF COMMERCE",,"410 17TH STREET",,"DENVER",,"80202","CO","2010-01-01T00:00:00.000","2010-12-31T00:00:00.000","990",
"201141929349300539","2010","742274265","Our Savior's Lutheran Housing Corp","c/o Senior Housing Options Inc","1510 17th Street",,"Denver",,"80202","CO","2010-01-01T00:00:00.000","2010-12-31T00:00:00.000","990",
"201141949349200604","2010","841149702","YUMA DISTRICT HOSPITAL FOUNDATION",,"412 SOUTH GUM",,"YUMA",,"80759","CO","2010-01-01T00:00:00.000","2010-12-31T00:00:00.000","990EZ",
"201141969349300024","2010","510136492","UNIVERSITY OF COLORADO HOSPITAL GIFT SHOP",,"ATTN MAIL STOP A055 PO BOX 6510",,"AURORA",,"80045","CO","2010-03-01T00:00:00.000","2011-02-28T00:00:00.000","990",
"201141969349300839","2010","840192881","DURANGO CHAMBER OF COMMERCE",,"111 S CAMINO DEL RIO",,"DURANGO",,"81303","CO","2010-01-01T00:00:00.000","2010-12-31T00:00:00.000","990",
"201142069349300014","2010","846035888","EMPIRE ELECTRIC ASSOCIATION INC",,"801 N Broadway","PO Box K","Cortez",,"81321","CO","2010-01-01T00:00:00.000","2010-12-31T00:00:00.000","990",
"201142069349300209","2010","270931056","THE MGIVE FOUNDATION",,"2150 WEST 29TH AVENUE",,"DENVER",,"80211","CO","2010-01-01T00:00:00.000","2010-12-31T00:00:00.000","990",
"201142089349300429","2010","846052007","International Association of Firefighters Local #5",,"3265 W Carefree Circle Bldg C",,"Colorado Springs",,"80917","CO","2010-01-01T00:00:00.000","2010-12-31T00:00:00.000","990",
"201142149349200014","2010","205824323","COLORADO STORMWATER COUNCIL",,"4430 S ADAMS COUNTY PKWY",,"BRIGHTON",,"80601","CO","2010-01-01T00:00:00.000","2010-12-31T00:00:00.000","990EZ",
"201142149349300139","2010","481302998","ROCKY MOUNTAIN SUSTAINABLE LIVING ASSOCI","KELLIE FALBO","9860 POUDRE CANYON ROAD",,"BELLVUE",,"805127512","CO","2010-01-01T00:00:00.000","2010-12-31T00:00:00.000","990",
"201142149349300539","2010","200964369","REAL LIFE MINISTRIES",,"2407 W KIOWA STREET",,"COLORADO SPRINGS",,"80904","CO","2010-01-01T00:00:00.000","2010-12-31T00:00:00.000","990",
"201142159349200019","2010","261133318","BRIDGING HOPE INC",,"5320 N COLUMBINE RD",,"DENVER",,"80221","CO","2010-01-01T00:00:00.000","2010-12-31T00:00:00.000","990EZ",
"201142159349300234","2010","841415056","DENVER HOMELESS VOICE",,"999 18TH STREET",,"DENVER",,"80202","CO","2010-01-01T00:00:00.000","2010-12-31T00:00:00.000","990",
"201142159349300309","2010","840709410","EAST SIDE CHILD CARE CENTER INC",,"2717 EAST 8TH STREET",,"PUEBLO",,"81001","CO","2010-01-01T00:00:00.000","2010-12-31T00:00:00.000","990",
"201142169349200529","2010","203703131","YOUTH TRANSFORMATION CENTER",,"9979 BLACKBIRD CIRCLE",,"LITTLETON",,"80130","CO","2010-01-01T00:00:00.000","2010-12-31T00:00:00.000","990EZ",
"201142229349300919","2010","371021414","NATIONAL ASSOCIATION OF RV PARKS AND CAMPGROUNDS",,"9085 E MINERAL CIRCLE NO 200",,"ENGLEWOOD",,"80112","CO","2010-01-01T00:00:00.000","2010-12-31T00:00:00.000","990",
"201142229349301754","2010","841392442","DENVER RESEARCH INSTITUTE",,"2020 SOUTH ONEIDA STREET",,"DENVER",,"80224","CO","2010-01-01T00:00:00.000","2010-12-31T00:00:00.000","990",
"201142239349200049","2010","841218767","COLORADO PREGNANCY CENTER INC","AKA COLORADO FAMILY LIFE CENTER","PO BOX 111465",,"AURORA",,"80042","CO","2010-01-01T00:00:00.000","2010-12-31T00:00:00.000","990EZ",
"201142249349300224","2010","840681306","ASSOCIATED BUILDERS AND CONTRACTORS",,"2267 W YALE AVE",,"ENGLEWOOD",,"80110","CO","2010-01-01T00:00:00.000","2010-12-31T00:00:00.000","990",
"201142249349302054","2010","840586742","TRINIDAD AREA HEALTH ASSOCIATION DBA MOUNT SAN RAFAEL HOSPITAL",,"410 BENEDICTA AVENUE",,"TRINIDAD",,"81082","CO","2010-01-01T00:00:00.000","2010-12-31T00:00:00.000","990",
"201142279349201474","2010","841098212","DENVER FIRE FIGHTERS BURN FOUNDATION INC",,"2342 BROADWAY NO 140",,"DENVER",,"80205","CO","2010-01-01T00:00:00.000","2010-12-31T00:00:00.000","990EZ",
"201142279349202804","2010","841285201","Peoples Regional Clinic Inc",,"PO Box 93",,"Hugo",,"80821","CO","2010-01-01T00:00:00.000","2010-12-31T00:00:00.000","990EZ",
"201142279349304354","2010","752892493","GLORY OF ZION INTERNATIONAL MINISTRIES INC",,"PO BOX 1601",,"DENTON",,"76202","TX","2010-04-01T00:00:00.000","2011-03-31T00:00:00.000","990",
"201142289349200519","2010","320094244","DUK PAYUEL SCHOOL PROJECT",,"454 OWL DRIVE",,"LOUISVILLE",,"80027","CO","2010-01-01T00:00:00.000","2010-12-31T00:00:00.000","990EZ",
"201142289349300444","2010","840447998","LOWER VALLEY HOSPITAL ASSOCIATION",,"228 North Cherry",,"Fruita",,"81521","CO","2010-01-01T00:00:00.000","2010-12-31T00:00:00.000","990",
"201142359349200704","2010","770716253","Wellspring Community",,"17011 Lincoln Ave",,"Parker",,"80134","CO","2010-01-01T00:00:00.000","2010-12-31T00:00:00.000","990EZ",
"201142379349200209","2010","262602086","KIMMYS HOUSE",,"PO Box 151032",,"Lakewood",,"802151032","CO","2010-01-01T00:00:00.000","2010-12-31T00:00:00.000","990EZ",
"201142379349300404","2010","412020104","CHRISTIAN FRIENDS OF ISRAELI COMMUNITIES",,"PO BOX 50833",,"COLORADO SPRINGS",,"80949","CO","2010-01-01T00:00:00.000","2010-12-31T00:00:00.000","990",
"201142459349200409","2010","208093114","TRAINING GROUND",,"PO BOX 49595",,"COLORADO SPRINGS",,"80949","CO","2010-01-01T00:00:00.000","2010-12-31T00:00:00.000","990EZ",
"201142499349200179","2010","841145209","ASPEN HALL OF FAME",,"PO BOX 510",,"ASPEN",,"81612","CO","2010-05-01T00:00:00.000","2011-04-30T00:00:00.000","990EZ",
"201142559349300114","2010","521881591","ROTARY INTERNATIONAL ASPEN ROTARY CLUB",,"PO BOX 1527",,"ASPEN",,"81612","CO","2010-07-01T00:00:00.000","2011-06-30T00:00:00.000","990",
"201142569349200124","2010","208669300","ASPEN GROVE JOURNEY",,"224 DATURA STREET","ROOM/SUITE 1312","WEST PALM BEACH",,"33401","FL","2010-01-01T00:00:00.000","2010-12-31T00:00:00.000","990EZ",
"201142589349300104","2010","263408048","CAR DONATION FOUNDATION",,"5775 WAYZATA BOULAVARD",,"ST LOUIS PARK",,"55416","MN","2010-01-01T00:00:00.000","2010-12-31T00:00:00.000","990",
"201142629349300319","2010","840612062","PUEBLO ROTARY #43 FOUNDATION INC",,"PO BOX 8294",,"PUEBLO",,"81008","CO","2010-07-01T00:00:00.000","2011-06-30T00:00:00.000","990",
"201142709349300109","2010","840203704","FRATERNAL ORDER OF EAGLES AERIE 595",,"1674 HIGHWAY 50",,"GRAND JUNCTION",,"815031795","CO","2010-07-01T00:00:00.000","2011-06-30T00:00:00.000","990",
"201142709349300234","2010","841353940","METRO INFANTA FOUNDATION INC",,"7350 BRAUN WAY",,"Arvada",,"800052843","CO","2010-07-01T00:00:00.000","2011-06-30T00:00:00.000","990",
"201142709349300909","2010","208593088","HOMELESSNESS PREVENTION INITIATIVE",,"424 PINE STREET 102",,"FORT COLLINS",,"805242421","CO","2010-07-01T00:00:00.000","2011-06-30T00:00:00.000","990",
"201142729349300214","2010","840629532","National Guard Association of Colorado",,"6848 S Revere Parkway",,"Centennial",,"80112","CO","2010-01-01T00:00:00.000","2010-12-31T00:00:00.000","990",
"201142769349300904","2010","840864777","ELBIE & WILMA GANN MEMORIAL FOUNDATION",,"879 EUCLID AVE",,"CARBONDALE",,"81623","CO","2010-09-01T00:00:00.000","2011-08-31T00:00:00.000","990",
"201142809349300509","2010","840838108","TABLE MOUNTAIN SOCCER ASSOCIATION INC","DBA COLORADO ICE","PO BOX 943",,"GOLDEN",,"80402","CO","2010-01-01T00:00:00.000","2010-12-31T00:00:00.000","990",
"201142859349200019","2010","846037750","WATERMAN FUND CO DENVER BAR ASSOCIATION",,"1900 GRANT NO 900",,"DENVER",,"80203","CO","2010-07-01T00:00:00.000","2011-06-30T00:00:00.000","990EZ",
"201142859349300634","2010","742554415","DENVER BAR FOUNDATION",,"1900 GRANT STREET NO 900",,"DENVER",,"80203","CO","2010-07-01T00:00:00.000","2011-06-30T00:00:00.000","990",
"201142869349200034","2010","841313876","Victim Offender Reconciliation Program of Denver",,"430 West 9th Avenue",,"Denver",,"80204","CO","2010-01-01T00:00:00.000","2010-12-31T00:00:00.000","990EZ",
"201142869349300119","2010","311581512","Colorado Head Start Association",,"710 11th Ave PO Box 939",,"Greeley",,"80632","CO","2010-07-01T00:00:00.000","2011-06-30T00:00:00.000","990",
"201142899349200004","2010","742219765","SOUTHWEST LAND ALLIANCE",,"PO BOX 3417",,"Pagosa Springs",,"81147","CO","2010-01-01T00:00:00.000","2010-12-31T00:00:00.000","990EZ",
"201143019349200014","2010","841230969","SNOWMASS CAPITOL CREEK CAUCUS",,"1285 SNOWMASS CREEK ROAD",,"SNOWMASS",,"81654","CO","2010-01-01T00:00:00.000","2010-12-31T00:00:00.000","990EZ",
"201143059349300934","2010","841599036","RIGHTS FOR ALL PEOPLE INC",,"1400 DAYTON",,"AURORA",,"80010","CO","2010-01-01T00:00:00.000","2010-12-31T00:00:00.000","990",
"201143089349300824","2010","841604168","UNITED STATES AMATEUR BOXING INC",,"1 OLYMPIC PLAZA",,"COLORADO SPRINGS",,"80909","CO","2010-01-01T00:00:00.000","2010-12-31T00:00:00.000","990",
"201143109349200054","2010","204446159","Sanatan Mandir Cultural and Comm",,"218 N 6th Ave",,"Brighton",,"80601","CO","2010-01-01T00:00:00.000","2010-12-31T00:00:00.000","990EZ",
"201143119349300074","2010","651260799","WiseChoices",,"8601 W Cross Dr F5-180",,"Littleton",,"80123","CO","2010-07-01T00:00:00.000","2011-06-30T00:00:00.000","990",
"201143129349301124","2010","201621199","Adoption Dreams Come True Inc",,"316 W Mulberry Street",,"Fort Collins",,"80521","CO","2010-01-01T00:00:00.000","2010-12-31T00:00:00.000","990",
"201143129349301739","2010","840829849","BethHaven Incorporated",,"504 East Willamette Avenue",,"Colorado Springs",,"80903","CO","2010-07-01T00:00:00.000","2011-06-30T00:00:00.000","990",
"201143139349301884","2010","841526586","SHINING STARS FOUNDATION",,"PO BOX 1308",,"ASPEN",,"81612","CO","2010-07-01T00:00:00.000","2011-06-30T00:00:00.000","990",
"201143149349201709","2010","841394153","Hispanic Education Inc",,"11246 68th Ave",,"Seminole",,"33772","FL","2010-01-01T00:00:00.000","2010-12-31T00:00:00.000","990EZ",
"201143159349303464","2010","841461503","GROWING HOME INC",,"3489 WEST 72ND AVENUE SUITE 112",,"WESTMINSTER",,"80030","CO","2010-01-01T00:00:00.000","2010-12-31T00:00:00.000","990",
"201143169349300014","2010","841246263","CHERRY CREEK SCHOOL DISTRICT PARENT TEACHER COMMUNITY COUNCIL INC","WEST MIDDLE SCHOOL","5151 S Holly Street",,"Greenwood Village",,"80121","CO","2010-07-01T00:00:00.000","2011-06-30T00:00:00.000","990",
"201143189349203024","2010","208974913","Brandon & Paul Foundation",,"PO Box 270652",,"Littleton",,"80127","CO","2010-01-01T00:00:00.000","2010-12-31T00:00:00.000","990EZ",
"201143189349301989","2010","841061991","ALPINE LEGAL SERVICES INC",,"PO BOX 1890",,"GLENWOOD SPRINGS",,"81602","CO","2010-01-01T00:00:00.000","2010-12-31T00:00:00.000","990",
"201143189349303019","2010","264472879","ONLINE CONSUMERS NETWORK",,"725 SOUTH EMERSON STREET",,"DENVER",,"80209","CO","2010-01-01T00:00:00.000","2010-12-31T00:00:00.000","990",
"201143189349305834","2010","841325488","CONTINENTAL DIVIDE TRAIL ALLIANCE INC",,"19423 N TURKEY CREEK RD NO C",,"MORRISON",,"80465","CO","2010-01-01T00:00:00.000","2010-12-31T00:00:00.000","990",
"201143199349201919","2010","841245887","CHERRY CREEK SCHOOL DISTRICT PARENT TEACHER COMMUNITY COUNCIL INC",,"2985 S Oakland Street",,"Aurora",,"80014","CO","2010-07-01T00:00:00.000","2011-06-30T00:00:00.000","990EZ",
"201143199349202414","2010","841296027","PTA COLORADO CONGRESS-Rooney Ranch Elementary PTA",,"2200 S Coors St",,"Lakewood",,"80228","CO","2010-07-01T00:00:00.000","2011-06-30T00:00:00.000","990EZ",
"201143199349301844","2010","841072372","MILE HIGH CHAPTER - ASSOCIATION OF","LEGAL ADMINISTRATORS","PO BOX 373",,"DENVER",,"802010373","CO","2010-04-01T00:00:00.000","2011-03-31T00:00:00.000","990",
"201143199349305524","2010","841359401","METRO DENVER HOMELESS INITIATIVE",,"2505 18TH ST",,"DENVER",,"80211","CO","2010-07-01T00:00:00.000","2011-06-30T00:00:00.000","990",
"201143199349307579","2010","841171180","NORTHGLENN JUDO CLUB INC",,"C/O DENNIS MCGUIRE 10360 MELODY","DRIVE","NORTHGLENN",,"802606046","CO","2010-01-01T00:00:00.000","2010-12-31T00:00:00.000","990",
"201143199349309824","2010","841149045","CREATIVE ADOPTIONS INC",,"4251 KIPLING STREET NO 560",,"WHEAT RIDGE",,"80033","CO","2010-01-01T00:00:00.000","2010-12-31T00:00:00.000","990",
"201143219349300629","2010","841471924","CASA OF THE CONTINENTAL DIVIDE INC",,"PO BOX 2092",,"DILLON",,"80435","CO","2010-07-01T00:00:00.000","2011-06-30T00:00:00.000","990",
"201143419349300239","2010","840579106","Western Colorado Center for the Arts Inc",,"1803 N 7th St",,"Grand Junction",,"81501","CO","2010-07-01T00:00:00.000","2011-06-30T00:00:00.000","990",
"201143469349300129","2010","846036504","NU CHAPTER HOUSE ASSOCIATION","C/O ALPHA CHI OMEGA NATL HOUSING CORP","5939 CASTLE CREEK PARKWAY N DR",,"INDIANAPOLIS",,"46250","IN","2010-08-01T00:00:00.000","2011-07-31T00:00:00.000","990",
"201200619349200970","2010","840941349","DELTA ZETA SORORITY",,"3504 W 100th Pl",,"Westminster",,"80031","CO","2010-07-01T00:00:00.000","2011-06-30T00:00:00.000","990EZ",
"201200619349201215","2010","741884595","COLORADO STATE SCIENCE FAIR INC",,"Campus Delivery 1802","Colorado State University","Fort Collins",,"805231802","CO","2010-09-01T00:00:00.000","2011-08-31T00:00:00.000","990EZ",
"201200619349302775","2010","841307563","OMNI INSTITUTE",,"899 LOGAN STREET No 600",,"DENVER",,"80203","CO","2010-07-01T00:00:00.000","2011-06-30T00:00:00.000","990",
"201200619349302785","2010","840625478","THE LA RAZA SERVICES INC","D/B/A SERVICIOS DE LA RAZA INC","4055 TEJON STREET",,"DENVER",,"80211","CO","2010-07-01T00:00:00.000","2011-06-30T00:00:00.000","990",
"201200659349300935","2010","840820084","Senior Housing Options Inc",,"1510 17th Street",,"Denver",,"802021202","CO","2010-07-01T00:00:00.000","2011-06-30T00:00:00.000","990",
"201200659349301085","2010","841449940","Battlement Mesa Residence Inc",,"1510 17th Street",,"Denver",,"80202","CO","2010-07-01T00:00:00.000","2011-06-30T00:00:00.000","990",
"201200679349300800","2010","840682417","COLORADO CHILDREN'S CHORALE",,"2420 WEST 26TH AVENUE NO 350-D",,"DENVER",,"802115362","CO","2010-08-01T00:00:00.000","2011-07-31T00:00:00.000","990",
"201200679349301050","2010","840449425","COLORADO MINING ASSOCIATION",,"216 16TH STREET NO 1250",,"DENVER",,"802025161","CO","2010-07-01T00:00:00.000","2011-06-30T00:00:00.000","990",
"201200729349301325","2010","742373220","SERVICIOS HOUSING INC",,"4055 TEJON STREET",,"DENVER",,"80211","CO","2010-07-01T00:00:00.000","2011-06-30T00:00:00.000","990",
"201200759349300445","2010","841364297","CURIOUS THEATRE COMPANY",,"1080 ACOMA ST",,"DENVER",,"80204","CO","2010-08-01T00:00:00.000","2011-07-31T00:00:00.000","990",
"201200879349300520","2010","841244568","WOODLAND PARK PREGNANCY CENTER INC",,"PO BOX 5166",,"WOODLAND PARK",,"80866","CO","2010-07-01T00:00:00.000","2011-06-30T00:00:00.000","990",
"201200949349200705","2010","742469957","WINTER NIGHT CLUB",,"PO BOX 51",,"COLORADO SPRINGS",,"80901","CO","2010-06-01T00:00:00.000","2011-05-31T00:00:00.000","990EZ",
"201201039349300315","2010","742494265","PARKER TASK FORCE FOR HUMAN","SERVICES","20118 E MAINSTREET","ROOM/SUITE D","PARKER",,"801387404","CO","2010-07-01T00:00:00.000","2011-06-30T00:00:00.000","990",
"201201219349301100","2010","846045624","THE PARK PEOPLE",,"1510 S GRANT ST",,"DENVER",,"80210","CO","2010-07-01T00:00:00.000","2011-06-30T00:00:00.000","990",
"201201309349201370","2010","841204907","Butterfly Hope","co Cheltenham Elementary School","1580 Julian Street",,"Denver",,"80204","CO","2010-10-01T00:00:00.000","2011-09-30T00:00:00.000","990EZ",
"201201329349301580","2010","841513876","THE LEARNING SOURCE FOUNDATION",,"455 S PIERCE ST",,"LAKEWOOD",,"80266","CO","2010-07-01T00:00:00.000","2011-06-30T00:00:00.000","990",
"201201359349302170","2010","840927232","Total Healthcare",,"188 INVERNESS DRIVE WEST SUITE 500",,"ENGLEWOOD",,"80112","CO","2010-07-01T00:00:00.000","2011-06-30T00:00:00.000","990",
"201201469349300760","2010","841502863","COMMUNITY MEDIATION PROJECT",,"PO BOX 337634",,"GREELEY",,"80633","CO","2010-10-01T00:00:00.000","2011-09-30T00:00:00.000","990",
"201203219349200125","2010","263655986","PUEBLO POLICE ACTIVITY LEAGUE INC",,"200 South Main",,"Pueblo",,"81003","CO","2010-01-01T00:00:00.000","2010-12-31T00:00:00.000","990EZ",
"201201709349200105","2010","260632631","COMUNIDAD CONNECT",,"7608 S Grape Way",,"Centennial",,"80122","CO","2010-08-01T00:00:00.000","2011-07-31T00:00:00.000","990EZ",
"201201459349300315","2010","941339635","SIMPSON UNIVERSITY",,"2211 COLLEGE VIEW DRIVE",,"REDDING",,"96003","CA","2010-05-01T00:00:00.000","2011-04-30T00:00:00.000","990",
"201202009349300240","2010","742494265","PARKER TASK FORCE FOR HUMAN","SERVICES","20118 E MAINSTREET","ROOM/SUITE D","PARKER",,"801387404","CO","2010-07-01T00:00:00.000","2011-06-30T00:00:00.000","990",
"201220619349302847","2010","840800861","BOOTSTRAPS INC",,"PO BOX 253",,"EVERGREEN",,"804370253","CO","2010-07-01T00:00:00.000","2011-06-30T00:00:00.000","990",
"201200809349300800","2010","840620854","My School Inc",,"5555 S Yosemite Street",,"Greenwood Village",,"80111","CO","2010-08-01T00:00:00.000","2011-07-31T00:00:00.000","990",
"201202239349300210","2010","841191279","Planned Parenthood of Rocky","Mountains Action Fund Inc","7155 E 38th Avenue",,"Denver",,"80207","CO","2010-10-01T00:00:00.000","2011-09-30T00:00:00.000","990",
"201202289349301210","2010","237042291","ASPEN CENTER FOR ENVIRONMENTAL STUDIES",,"100 PUPPY SMITH ST",,"ASPEN",,"81611","CO","2010-11-01T00:00:00.000","2011-10-31T00:00:00.000","990",
"201210909349301166","2010","841540910","IMAGINE FOUNDATION",,"1400 Dixon Ave",,"Lafayette",,"80026","CO","2010-07-01T00:00:00.000","2011-06-30T00:00:00.000","990",
"201202489349300495","2010","486063403","American Numismatic Association Inc",,"818 North Cascade Avenue",,"Colorado Springs",,"80903","CO","2010-11-01T00:00:00.000","2011-10-31T00:00:00.000","990",
"201221359349305807","2010","880519835","EVERGREEN COUNTRY DAY SCHOOL INC",,"1093 SWEDE GULCH ROAD",,"EVERGREEN",,"80439","CO","2010-07-01T00:00:00.000","2011-06-30T00:00:00.000","990",
"201230679349301353","2010","840535171","BAL SWAN CHILDREN'S CENTER",,"1145 EAST 13TH AVENUE",,"BROOMFIELD",,"800201301","CO","2010-07-01T00:00:00.000","2011-06-30T00:00:00.000","990",
"201203429349300610","2010","841556358","YOUNG PRESIDENT'S ORGANIZATION INC",,"2068 LOCUST STREET",,"DENVER",,"80207","CO","2010-07-01T00:00:00.000","2011-06-30T00:00:00.000","990",
"201210619349201371","2010","841141786","CRABTREE APARTMENTS",,"1550 BLUE SPRUCE DRIVE",,"FORT COLLINS",,"80524","CO","2010-07-01T00:00:00.000","2011-06-30T00:00:00.000","990EZ",
"201210619349301971","2010","410693968","CROWN COLLEGE",,"8700 COLLEGE VIEW DRIVE",,"ST BONIFACIUS",,"553759001","MN","2010-07-01T00:00:00.000","2011-06-30T00:00:00.000","990",
"201210619349302781","2010","208367897","Colorado Institute of Family Medicine",,"Mail Stop F496 - 12631 E 17th Ave","3404","Aurora",,"800450508","CO","2010-07-01T00:00:00.000","2011-06-30T00:00:00.000","990",
"201210629349302011","2010","742119505","COLORADO JUDICIAL INSTITUTE",,"PO BOX 118",,"BROOMFIELD",,"800380118","CO","2010-07-01T00:00:00.000","2011-06-30T00:00:00.000","990",
"201210659349301291","2010","841339020","Park Hill Residence Inc",,"1510 17th Street",,"Denver",,"802021202","CO","2010-07-01T00:00:00.000","2011-06-30T00:00:00.000","990",
"201241079349300629","2010","840425174","COLORADO ROCKY MOUNTAIN SCHOOL","INC","1493 COUNTY ROAD 106",,"CARBONDALE",,"81623","CO","2010-07-01T00:00:00.000","2011-06-30T00:00:00.000","990",
"201210739349300406","2010","592147565","ASSOCIATION OF PHYSICIAN ASSISTANTS","IN CARDIOVASCULAR SURGERY","1000 PARKWOOD CIRCLE","ROOM/SUITE 360","ATLANTA",,"30339","GA","2010-09-01T00:00:00.000","2011-08-31T00:00:00.000","990",
"201210749349300796","2010","840186840","Denver Country Club",,"1700 E 1st Ave",,"Denver",,"80218","CO","2010-10-01T00:00:00.000","2011-09-30T00:00:00.000","990",
"201210759349300436","2010","742490203","PEAK PARENT CENTER INC",,"611 NORTH WEBER STREET NO 200",,"COLORADO SPRINGS",,"80903","CO","2010-10-01T00:00:00.000","2011-09-30T00:00:00.000","990",
"201210759349301166","2010","201607315","UNIVERSAL CHASTITY EDUCATION INC",,"511 W 10TH STREET STE B",,"PUEBLO",,"81003","CO","2010-08-01T00:00:00.000","2011-07-31T00:00:00.000","990",
"201210839349300316","2010","840518917","Spanish Peaks Mental Health Center Inc",,"1026 W Abriendo",,"Pueblo",,"81004","CO","2010-07-01T00:00:00.000","2011-06-30T00:00:00.000","990",
"201210909349200001","2010","262252480","THE MIDWEST NURSING RESEARCH SOCIETY FOUNDATION",,"15000 COMMERCE PARKWAY NO C",,"MOUNT LAUREL",,"8054","NJ","2010-07-01T00:00:00.000","2011-06-30T00:00:00.000","990EZ",
"201211189349300421","2010","846038137","COLORADO BALLET",,"1278 LINCOLN STREET",,"DENVER",,"80203","CO","2010-07-01T00:00:00.000","2011-06-30T00:00:00.000","990",
"201201329349301225","2010","841335382","Centura Health Corporation",,"188 Inverness Drive West",,"Englewood",,"80112","CO","2010-07-01T00:00:00.000","2011-06-30T00:00:00.000","990",
"201211299349300846","2010","270544143","METRO CRISIS SERVICES INC",,"PO BOX 460695",,"DENVER",,"80246","CO","2010-07-01T00:00:00.000","2011-06-30T00:00:00.000","990",
"201211359349302671","2010","742202961","WILDWOOD CHILD & ADULT CARE","FOOD PROGRAM INC","6880 S YOSEMITE CT","ROOM/SUITE 210","CENTENNIAL",,"80112","CO","2010-10-01T00:00:00.000","2011-09-30T00:00:00.000","990",
"201211369349302956","2010","841466141","PURGATORY SKI TEAM",,"PO BOX 4104",,"DURANGO",,"81302","CO","2010-07-01T00:00:00.000","2011-06-30T00:00:00.000","990",
"201211369349303011","2010","841553192","Porter Place Inc",,"1001 East Yale Ave",,"Denver",,"80210","CO","2010-07-01T00:00:00.000","2011-06-30T00:00:00.000","990",
"201212279349304011","2010","611458290","Tennyson Center for Children","at Colorado Christian Home","2950 Tennyson Street",,"Denver",,"80212","CO","2010-10-01T00:00:00.000","2011-09-30T00:00:00.000","990",
"201211369349304296","2010","204596400","STONE CREEK ELEMENTARY SCHOOL","DBA STONE CREEK CHARTER SCHOOL","PO BOX 5670",,"AVON",,"81620","CO","2010-07-01T00:00:00.000","2011-06-30T00:00:00.000","990",
"201211379349200201","2010","753053505","SURE PASSAGE","SURE PASSAGE","6660 Delmonico Dr Ste D-280",,"Colorado Springs",,"80919","CO","2010-10-01T00:00:00.000","2011-09-30T00:00:00.000","990EZ",
"201211539349300301","2010","742275546","ROCKY MOUNTAIN ARTS ASSOCIATION",,"700 Colorado Boulevard 325",,"Denver",,"80206","CO","2010-08-01T00:00:00.000","2011-07-31T00:00:00.000","990",
"201211669349300751","2010","201555643","JEPPESEN EMPLOYEES FLYING ASSOCIATION INC",,"12830 E CONTROL TOWER ROAD J4",,"ENGLEWOOD",,"80112","CO","2010-11-01T00:00:00.000","2011-10-31T00:00:00.000","990",
"201211989349301136","2010","742179293","OVERLAND HIGH SCHOOL BAND PARENT ASSOCIATION",,"12400 EAST JEWELL AVENUE",,"AURORA",,"800125324","CO","2010-09-01T00:00:00.000","2011-08-31T00:00:00.000","990",
"201210729349300016","2010","841150857","ASPEN SANTA FE BALLET",,"0245 SAGE WAY",,"ASPEN",,"81611","CO","2010-09-01T00:00:00.000","2011-08-31T00:00:00.000","990",
"201212169349300441","2010","237272040","KUVODENVER EDUCATIONAL","BROADCASTING INC","PO BOX 2040",,"DENVER",,"802012040","CO","2010-11-01T00:00:00.000","2011-10-31T00:00:00.000","990",
"201123499349200817","2010","840943973","FRIENDS OF THE LONGMONT PUBLIC LIBRARY",,"409 4th Avenue",,"Longmont",,"805015507","CO","2010-05-01T00:00:00.000","2011-04-30T00:00:00.000","990EZ",
"201220899349300842","2010","263619775","IMAGINE HOUSING CORP II",,"1400 DIXON AVE",,"LAFAYETTE",,"80026","CO","2010-07-01T00:00:00.000","2011-06-30T00:00:00.000","990",
"201113359349300111","2010","742586894","COLORADO 4-H FOUNDATION INC",,"4040 CAMPUS DELIVERY",,"FORT COLLINS",,"805234040","CO","2010-07-01T00:00:00.000","2011-06-30T00:00:00.000","990",
"201220619349301512","2010","841441504","ALFRED A BRAUN HUT SYSTEM INC",,"C/O MAROLT LLP CPAS POBOX 10671",,"ASPEN",,"81612","CO","2010-07-01T00:00:00.000","2011-06-30T00:00:00.000","990",
"201220619349302327","2010","846110279","COLORADO STATE HIGH SCHOOL RODEO ASSN",,"PO BOX 11",,"BURNS",,"80426","CO","2010-09-01T00:00:00.000","2011-08-31T00:00:00.000","990",
"201220619349302472","2010","841302735","Colorado Association of Family","Medicine Residencies","12631 E 17th Ave - Mail Stop F496",,"Aurora",,"800450508","CO","2010-07-01T00:00:00.000","2011-06-30T00:00:00.000","990",
"201220659349300642","2010","840781098","Centennial Mental Health Center",,"211 West Main Street",,"Sterling",,"80751","CO","2010-07-01T00:00:00.000","2011-06-30T00:00:00.000","990",
"201220729349301507","2010","264749698","COLORADO TIER HOCKEY ASSOCIATION",,"1626 COLE BLVD NO 100",,"LAKEWOOD",,"80401","CO","2010-05-01T00:00:00.000","2011-04-30T00:00:00.000","990",
"201220759349301212","2010","204236443","DEVELOPMENTAL PATHWAYS HOUSING CORP III",,"325 INVERNESS DRIVE SOUTH",,"ENGLEWOOD",,"80112","CO","2010-07-01T00:00:00.000","2011-06-30T00:00:00.000","990",
"201220869349300222","2010","351932176","MIDWEST NURSING RESEARCH SOCIETY",,"15000 COMMERCE PARKWAY NO C",,"MOUNT LAUREL",,"8054","NJ","2010-07-01T00:00:00.000","2011-06-30T00:00:00.000","990",
"201220869349300332","2010","840706945","Valley-Wide Health Systems Inc",,"128 Market Street",,"Alamosa",,"81101","CO","2010-07-01T00:00:00.000","2011-06-30T00:00:00.000","990",
"201220889349300047","2010","742341399","THE SUMMIT FOUNDATION",,"PO BOX 4000",,"BRECKENRIDGE",,"80424","CO","2010-10-01T00:00:00.000","2011-09-30T00:00:00.000","990",
"201220909349300522","2010","841194598","Spanish Peaks Foundation for Mental Health",,"1026 W Abriendo Ave",,"Pueblo",,"81004","CO","2010-07-01T00:00:00.000","2011-06-30T00:00:00.000","990",
"201221009349300332","2010","846027374","COLORADO BUSINESS WOMEN INC",,"C/O 10670 E BETHANY DR",,"AURORA",,"80014","CO","2010-06-01T00:00:00.000","2011-05-31T00:00:00.000","990",
"201221169349200207","2010","840838619","LARIMER COUNTY SPRING HORSE SHOW CO BARBARA ARKIN",,"16005 W 74TH",,"ARVADA",,"80007","CO","2010-10-01T00:00:00.000","2011-09-30T00:00:00.000","990EZ",
"201221299349301872","2010","840511458","COLORADO SYMPHONY ASSOCIATION",,"1000 14TH STREET NO 15",,"DENVER",,"802022333","CO","2010-07-01T00:00:00.000","2011-06-30T00:00:00.000","990",
"201221319349302032","2010","841102943","Health SET",,"4200 W Conejos Place Suite 436",,"Denver",,"80204","CO","2010-07-01T00:00:00.000","2011-06-30T00:00:00.000","990",
"201221369349303762","2010","840717880","Boulder County Mental Health Foundation",,"1333 Iris Avenue",,"Boulder",,"80304","CO","2010-07-01T00:00:00.000","2011-06-30T00:00:00.000","990",
"201221369349305772","2010","841526365","SPRINKLE ART INC",,"1515 N ACADEMY BLVD",,"COLORADO SPRINGS",,"809092749","CO","2010-07-01T00:00:00.000","2011-06-30T00:00:00.000","990",
"201221509349200012","2010","841246617","ATL FOUNDATION",,"PO BOX 740985",,"ARVADA",,"80006","CO","2010-11-01T00:00:00.000","2011-10-31T00:00:00.000","990EZ",
"201210619349302771","2010","840830318","Asian Pacific Development Center of Colorado",,"1544 Elmira Street",,"Aurora",,"80010","CO","2010-07-01T00:00:00.000","2011-06-30T00:00:00.000","990",
"201221849349300227","2010","840528764","BAPTIST HOMES ASSOCIATION OF THE ROCKY MOUNTAINS",,"14850 SCENIC HEIGHTS ROAD NO 125",,"EDEN PRAIRIE",,"55344","MN","2010-09-01T00:00:00.000","2011-08-31T00:00:00.000","990",
"201221929349300632","2010","742550850","MUSIC IN THE MOUNTAINS INC",,"PO BOX 3751",,"DURANGO",,"81302","CO","2010-10-01T00:00:00.000","2011-09-30T00:00:00.000","990",
"201222129349301112","2010","841390157","COLORADO MEDICAL SOCIETY FOUNDATION",,"7351 LOWRY BLVD",,"DENVER",,"80230","CO","2010-10-01T00:00:00.000","2011-09-30T00:00:00.000","990",
"201231379349300118","2010","201434851","AGRIBUSINESS FREEDOM FOUNDATION",,"PO BOX 88179",,"COLORADO SPRINGS",,"809088179","CO","2010-07-01T00:00:00.000","2011-06-30T00:00:00.000","990",
"201222209349301022","2010","742494250","SOUTHERN UTE INDIAN CULTURAL CENTER INC",,"PO BOX 737",,"IGNACIO",,"81137","CO","2010-10-01T00:00:00.000","2011-09-30T00:00:00.000","990",
"201222289349304072","2010","841316133","VILAR CENTER FOR THE ARTS FOUNDATION",,"PO BOX 3822",,"AVON",,"81620","CO","2010-10-01T00:00:00.000","2011-09-30T00:00:00.000","990",
"201113209349301406","2010","840458222","Valley Country Club",,"14601 Country Club Drive",,"Centennial",,"80016","CO","2010-10-01T00:00:00.000","2011-09-30T00:00:00.000","990",
"201222659349200102","2010","272643085","Arkansas Valley Dental Society",,"PO Box 1142",,"Lamar",,"81052","CO","2010-01-01T00:00:00.000","2010-12-31T00:00:00.000","990EZ",
"201231329349301433","2010","840585638","THE LEARNING SOURCE",,"455 S PIERCE ST",,"LAKEWOOD",,"80226","CO","2010-07-01T00:00:00.000","2011-06-30T00:00:00.000","990",
"201232269349301178","2010","841204273","LA PLATA OPEN SPACE CONSERVANCY",,"PO BOX 1651",,"DURANGO",,"81302","CO","2010-10-01T00:00:00.000","2011-09-30T00:00:00.000","990",
"201210659349200141","2010","846116675","Seniors in Community Living Inc",,"1510 17th Street",,"Denver",,"802021202","CO","2010-07-01T00:00:00.000","2011-06-30T00:00:00.000","990EZ",
"201230619349200163","2010","846059175","LITTLE LEAGUE BASEBALL INC",,"P O Box 1744",,"Grand Junction",,"81502","CO","2010-10-01T00:00:00.000","2011-09-30T00:00:00.000","990EZ",
"201230619349302693","2010","840630214","NEIGHBOR TO NEIGHBOR INC",,"1550 BLUE SPRUCE DRIVE",,"FORT COLLINS",,"80524","CO","2010-07-01T00:00:00.000","2011-06-30T00:00:00.000","990",
"201230629349301113","2010","846044855","MESA DEVELOPMENTAL SERVICES",,"950 GRAND AVE",,"GRAND JUNCTION",,"81501","CO","2010-07-01T00:00:00.000","2011-06-30T00:00:00.000","990",
"201230629349301373","2010","841166423","SHERIDAN ARTS FOUNDATION",,"PO BOX 2680",,"TELLURIDE",,"81435","CO","2010-10-01T00:00:00.000","2011-09-30T00:00:00.000","990",
"201230659349300323","2010","272830981","VAIL CHRISTIAN SCHOOL INC",,"31621 HWY 6",,"EDWARDS",,"81632","CO","2010-07-01T00:00:00.000","2011-06-30T00:00:00.000","990",
"201230759349300843","2010","311706977","DEVELOPMENTAL PATHWAYS HOUSING CORP II",,"325 INVERNESS DRIVE SOUTH",,"ENGLEWOOD",,"80112","CO","2010-07-01T00:00:00.000","2011-06-30T00:00:00.000","990",
"201230759349301223","2010","317148624","DEVELOPMENTAL PATHWAYS HOUSING CORP I",,"325 INVERNESS DRIVE SOUTH",,"ENGLEWOOD",,"80112","CO","2010-07-01T00:00:00.000","2011-06-30T00:00:00.000","990",
"201230839349300768","2010","510204742","USA HOCKEY INC",,"1775 BOB JOHNSON DRIVE",,"COLORADO SPRINGS",,"80906","CO","2010-09-01T00:00:00.000","2011-08-31T00:00:00.000","990",
"201230919349300513","2010","237286888","SERTOMA INTERNATIONAL",,"6813 BUCKHORN COURT",,"LOVELAND",,"80538","CO","2010-09-01T00:00:00.000","2011-08-31T00:00:00.000","990",
"201231079349300028","2010","841249911","COLORADO ROCKY MOUNTAIN SCHOOL","FOUNDATION INC","1493 COUNTY ROAD 106",,"CARBONDALE",,"81623","CO","2010-07-01T00:00:00.000","2011-06-30T00:00:00.000","990",
"201231099349300018","2010","841526078","CENTRAL HIGH SCHOOL BAND PARENTS INC",,"PO BOX 686",,"CLIFTON",,"81520","CO","2010-07-01T00:00:00.000","2011-06-30T00:00:00.000","990",
"201231189349300123","2010","840404231","COLORADO SEMINARY",,"2199 S University Blvd",,"Denver",,"802080001","CO","2010-07-01T00:00:00.000","2011-06-30T00:00:00.000","990",
"201231299349201323","2010","260138249","COLORADO SYMPHONY ENDOWMENT FUND",,"1000 14TH STREET NO 15",,"DENVER",,"80202","CO","2010-07-01T00:00:00.000","2011-06-30T00:00:00.000","990EZ",
"201231299349301908","2010","201404425","COMMUNITY RADIO PROJECT INC","KSJD","PO BOX 116",,"CORTEZ",,"81321","CO","2010-10-01T00:00:00.000","2011-09-30T00:00:00.000","990",
"201210619349302456","2010","841059678","Asian Pacific Center for Human Development",,"1544 Elmira Street",,"Aurora",,"80010","CO","2010-07-01T00:00:00.000","2011-06-30T00:00:00.000","990",
"201231359349305088","2010","840217390","THE GREEN GABLES COUNTRY CLUB",,"8101 EAST PRENTICE AVE 800",,"GREENWOOD VILLAGE",,"80111","CO","2010-10-01T00:00:00.000","2011-09-30T00:00:00.000","990",
"201231369349204173","2010","237179105","Rotary Club of University Hills co Paul Egan",,"3917 Simms Street",,"Wheat Ridge",,"80033","CO","2010-07-01T00:00:00.000","2011-06-30T00:00:00.000","990EZ",
"201231369349305948","2010","841234295","Pueblo StepUp",,"1925 E Orman Ave",,"Pueblo",,"81004","CO","2010-07-01T00:00:00.000","2011-06-30T00:00:00.000","990",
"201231679349301058","2010","742325997","STANLEY BRITISH PRIMARY SCHOOL",,"350 QUEBEC STREET",,"DENVER",,"80230","CO","2010-08-01T00:00:00.000","2011-07-31T00:00:00.000","990",
"201230699349200228","2010","311758810","Kiwanis Club of Alameda West Foundation DBA Kiwanis Clubs of Jefferson Coun",,"PO Box 150583",,"Lakewood",,"80215","CO","2010-10-01T00:00:00.000","2011-09-30T00:00:00.000","990EZ",
"201232159349301153","2010","364582437","Project Education Sudan",,"124 Jackson St",,"Denver",,"80206","CO","2010-10-01T00:00:00.000","2011-09-30T00:00:00.000","990",
"201232269349301893","2010","841152879","TELLURIDE SKI AND SNOWBOARD CLUB INC",,"PO BOX 2824",,"TELLURIDE",,"81435","CO","2010-10-01T00:00:00.000","2011-09-30T00:00:00.000","990",
"201232289349304073","2010","742215035","VAIL VALLEY FOUNDATION",,"PO BOX 309",,"VAIL",,"81658","CO","2010-10-01T00:00:00.000","2011-09-30T00:00:00.000","990",
"201241359349301344","2010","480543809","Saint Francis Community Services Inc",,"509 E Elm Street",,"Salina",,"674012353","KS","2010-07-01T00:00:00.000","2011-06-30T00:00:00.000","990",
"201240819349300734","2010","470377991","Doane College",,"1014 Boswell Ave",,"Crete",,"68333","NE","2010-07-01T00:00:00.000","2011-06-30T00:00:00.000","990",
"201143479349200314","2010","841015589","Stober Elementary PTA",,"2300 Urban Street",,"Lakewood",,"802151127","CO","2010-08-01T00:00:00.000","2011-07-31T00:00:00.000","990EZ",
"201242349349300329","2010","841164490","DEL NORTE COMMUNITY AMBULANCE INC",,"560 Pine Street","PO Box 370","Del Norte",,"81132","CO","2010-01-01T00:00:00.000","2010-12-31T00:00:00.000","990",
"201241359349306454","2010","237352287","Craig Hospital Foundation",,"3425 S Clarkson Street",,"Englewood",,"801132811","CO","2010-10-01T00:00:00.000","2011-09-30T00:00:00.000","990",
"201240619349200339","2010","841054300","PTA COLORADO CONGRESS","Fairmount Elementary PTA","15975 W 50th Ave",,"Golden",,"80403","CO","2010-07-01T00:00:00.000","2011-06-30T00:00:00.000","990EZ",
"201240619349200904","2010","846058573","Rotary International","Durango Rotary Club","P O Box 38",,"Durango",,"81302","CO","2010-07-01T00:00:00.000","2011-06-30T00:00:00.000","990EZ",
"201240629349301364","2010","840613540","PLAN DE SALUD DEL VALLE INC",,"203 SOUTH ROLLIE AVENUE",,"FORT LUPTON",,"80621","CO","2010-06-01T00:00:00.000","2011-05-31T00:00:00.000","990",
"201240659349300014","2010","742321009","HILLTOP HEALTH SERVICES CORPORATION",,"1331 HERMOSA STREET",,"GRAND JUNCTION",,"815064099","CO","2010-08-01T00:00:00.000","2011-07-31T00:00:00.000","990",
"201240689349300644","2010","810613961","THE CHILDREN'S CENTERINC",,"C/O M JONES 14000 WINDING RIVER CT",,"BROOMFIELD",,"80023","CO","2010-09-01T00:00:00.000","2011-08-31T00:00:00.000","990",
"201240729349200604","2010","841246205","CHERRY CREEK SCHOOL DISTRIC PARENT TEACHER COMMUNITY COUNCIL INC",,"7686 E Hinsdale Ave",,"Centennial",,"80112","CO","2010-07-01T00:00:00.000","2011-06-30T00:00:00.000","990EZ",
"201240759349300349","2010","840469270","COLORADO WEST HEALTHCARE SYSTEM DBA COMMUNITY HOSPITAL",,"2021 N 12TH STREET",,"GRAND JUNCTION",,"815012980","CO","2010-05-01T00:00:00.000","2011-04-30T00:00:00.000","990",
"201240759349301019","2010","840534643","DEVELOPMENTAL PATHWAYS INC",,"325 INVERNESS DRIVE SOUTH",,"ENGLEWOOD",,"80112","CO","2010-07-01T00:00:00.000","2011-06-30T00:00:00.000","990",
"201240899349301209","2010","311653564","DDC FOOTHILLS HOME",,"1400 Dixon Ave",,"Lafayette",,"80026","CO","2010-07-01T00:00:00.000","2011-06-30T00:00:00.000","990",
"201241359349306304","2010","841353944","FOCUS POINTS FAMILY RESOURCE CENTER",,"2501 E 48TH AVENUE",,"DENVER",,"80216","CO","2010-07-01T00:00:00.000","2011-06-30T00:00:00.000","990",
"201241369349202014","2010","201449487","MINDS MATTER OF DENVER INC",,"PO BOX 48162",,"DENVER",,"80204","CO","2010-07-01T00:00:00.000","2011-06-30T00:00:00.000","990EZ",
"201241369349204464","2010","846026288","ROTARY INTERNATIONAL","ARVADA ROTARY CLUB","PO BOX 171",,"ARVADA",,"80001","CO","2010-07-01T00:00:00.000","2011-06-30T00:00:00.000","990EZ",
"201241369349302609","2010","846035455","DEVELOPMENTAL DISABILITIES RESOURCE CENTER",,"11177 WEST 8TH AVENUE NO 300",,"LAKEWOOD",,"80215","CO","2010-07-01T00:00:00.000","2011-06-30T00:00:00.000","990",
"201241369349306354","2010","840779148","VAIL JUNIOR HOCKEY ASSOCIATION",,"PO BOX 2591",,"EDWARDS",,"81632","CO","2010-07-01T00:00:00.000","2011-06-30T00:00:00.000","990",
"201241369349307324","2010","841349572","ROCK SOLID HIGH SCHOOL",,"6570-B S BROADWAY",,"LITTLETON",,"801212306","CO","2010-07-01T00:00:00.000","2011-06-30T00:00:00.000","990",
"201241649349300764","2010","237006963","ASPEN CAMP OF THE DEAF & HARD OF HEARING",,"PO BOX 1494",,"ASPEN",,"81612","CO","2010-11-01T00:00:00.000","2011-10-31T00:00:00.000","990",
"201241849349300034","2010","742755828","BAPTIST HOME ASSOCIATION OF THE ROCKY","MOUNTAINS - AFFILIATES","14850 SCENIC HEIGHTS ROAD NO 125",,"EDEN PRAIRIE",,"55344","MN","2010-09-01T00:00:00.000","2011-08-31T00:00:00.000","990",
"201241989349300979","2010","841524095","AMERICA SCORES DENVER",,"4900 WEST 29TH AVENUE",,"Denver",,"80212","CO","2010-09-01T00:00:00.000","2011-08-31T00:00:00.000","990",
"201242269349302549","2010","742449502","Thistle Community Housing",,"1845 Folsom Street",,"Boulder",,"80302","CO","2010-10-01T00:00:00.000","2011-09-30T00:00:00.000","990",
"201133489349200418","2010","202820211","Kids on Bikes Inc",,"600 South 21st Street No 100",,"Colorado Springs",,"80904","CO","2010-05-01T00:00:00.000","2011-04-30T00:00:00.000","990EZ",
"201210799349300131","2010","710891869","PLATTEFORUM",,"1610 LITTLE RAVEN STREET STE 135",,"DENVER",,"80202","CO","2010-09-01T00:00:00.000","2011-08-31T00:00:00.000","990",
"201210739349300241","2010","841323007","MERCY AND SHARING",,"201 NORTH MILL STREET NO 201",,"ASPEN",,"81611","CO","2010-04-01T00:00:00.000","2011-03-31T00:00:00.000","990",
"201213619349200401","2010","364592577","FRONT RANGE GERMAN SHEPHERD RESCUE INC",,"Nancie Phelps-Director","Box 213","Larkspur",,"80118","CO","2010-01-01T00:00:00.000","2010-12-31T00:00:00.000","990EZ",
"201311359349200501","2010","260054492","BOULDER ROCKIES BASKETBALL INC",,"2860 7TH ST",,"BOULDER",,"80304","CO","2010-01-01T00:00:00.000","2010-12-31T00:00:00.000","990EZ",
"201321419349200507","2010","841603896","BERTHOUD YOUTH ATHLETIC ASSOCIATION",,"PO Box 554",,"Berthoud",,"80513","CO","2010-01-01T00:00:00.000","2010-12-31T00:00:00.000","990EZ",
"201241369349204174","2010","841180536","The Community International & Vocational","Charitable Fund","3917 Simms Street",,"Wheat Ridge",,"80033","CO","2010-07-01T00:00:00.000","2011-06-30T00:00:00.000","990EZ",
"201242589349300044","2010","841314292","SUMMER SCHOLARS",,"3401 QUEBEC STREET","ROOM/SUITE 5010","DENVER",,"80207","CO","2010-11-01T00:00:00.000","2011-10-31T00:00:00.000","990",
"201231729349200128","2010","204015118","RANGER LACROSSE CLUB",,"17875 Pioneer Crossing",,"Colorado Springs",,"80908","CO","2010-01-01T00:00:00.000","2010-12-31T00:00:00.000","990EZ",
"201113509349200401","2010","841603636","COACHING KIDS INC",,"545 W Burgundy St","Suite 117","Highlands Ranch",,"80129","CO","2010-05-01T00:00:00.000","2011-04-30T00:00:00.000","990EZ",
"201223419349200522","2010","113745662","NORTHEAST TIGERS OF METRO DENVER",,"4434 Eagle Street",,"Denver",,"80239","CO","2010-01-01T00:00:00.000","2010-12-31T00:00:00.000","990EZ",
"201230869349200518","2010","840677682","MOUNTAIN TOTS PRESCHOOL",,"PO BOX 333",,"EAGLE",,"816310333","CO","2010-07-01T00:00:00.000","2011-06-30T00:00:00.000","990EZ",
"201240729349300219","2010","840819602","COLORADO ALLIANCE OF RESEARCH LIBRARIES",,"3801 E FLORIDA AVENUE No 515",,"DENVER",,"80210","CO","2010-07-01T00:00:00.000","2011-06-30T00:00:00.000","990",
"201211359349305936","2010","841192823","THE WILDERNESS LAND TRUST",,"PO BOX 1420",,"CARBONDALE",,"81623","CO","2010-07-01T00:00:00.000","2011-06-30T00:00:00.000","990",
"201233049349200008","2010","841520728","OPEN INTERNET FOUNDATION",,"1365 Uinta St",,"Denver",,"80220","CO","2010-01-01T00:00:00.000","2010-12-31T00:00:00.000","990EZ",
"201231009349300223","2010","841349017","CLASSICAL ACADEMY",,"975 STOUT ROAD",,"COLORADO SPRINGS",,"80921","CO","2010-07-01T00:00:00.000","2011-06-30T00:00:00.000","990",
"201210699349300131","2010","205352983","EARLY CHILDHOOD PARTNERS INC",,"PO BOX 4532",,"EAGLE",,"816314532","CO","2010-07-01T00:00:00.000","2011-06-30T00:00:00.000","990",
"201230699349300608","2010","460471316","Colorado High School Charter Inc",,"1175 Osage St Room No 100",,"Denver",,"80204","CO","2010-07-01T00:00:00.000","2011-06-30T00:00:00.000","990",
"201201359349305200","2010","841182143","DENVER OPTIONS INC",,"9900 EAST ILIFF AVENUE",,"DENVER",,"80231","CO","2010-07-01T00:00:00.000","2011-06-30T00:00:00.000","990",
"201133489349200023","2010","263068964","THE BRIDGE EMERGENCY SHELTER",,"PO BOX 56",,"CORTEZ",,"81321","CO","2010-07-01T00:00:00.000","2011-06-30T00:00:00.000","990EZ",
"201230739349200018","2010","841341329","Native American Multi-Cultural Education","School Inc (NAMES)","6158 E Otero Place",,"Centennial",,"80112","CO","2010-07-01T00:00:00.000","2011-06-30T00:00:00.000","990EZ",
"201123479349300417","2010","742319032","THEATRE ASPEN",,"110 E HALLAM ST - STE 103",,"ASPEN",,"81611","CO","2010-05-01T00:00:00.000","2011-04-30T00:00:00.000","990",
"201240659349301289","2010","841069931","THE GOLDEN TRIANGLE LEARNING CENTER",,"990 ACOMA ST",,"DENVER",,"802044024","CO","2010-10-01T00:00:00.000","2011-09-30T00:00:00.000","990",
"201222979349200512","2010","263655986","PUEBLO POLICE ACTIVITY LEAGUE INC",,"200 South Main",,"Pueblo",,"81003","CO","2010-01-01T00:00:00.000","2010-12-31T00:00:00.000","990EZ",
"201240749349301014","2010","841171778","TELLURIDE SOCIETY FOR JAZZ",,"PO BOX 2132",,"TELLURIDE",,"81435","CO","2010-11-01T00:00:00.000","2011-10-31T00:00:00.000","990",
"201211809349300241","2010","841160185","THE EARLY LEARNING CENTER",,"215 NORTH GARMISCH",,"ASPEN",,"81611","CO","2010-09-01T00:00:00.000","2011-08-31T00:00:00.000","990",
"201113329349200311","2010","841606486","WORLD PRESIDENTS' ORGANIZATION","ROCKY MOUNTAIN CHAPTER","5609 BRAHMA PLACE",,"PARKER",,"80134","CO","2010-07-01T00:00:00.000","2011-06-30T00:00:00.000","990EZ",
"201230819349200018","2010","900036301","EAGLE VALLEY SELECT VOLLEYBALL DBA VAIL VOLLEYBALL CLUB",,"PO BOX 4440",,"EDWARDS",,"816324440","CO","2010-10-01T00:00:00.000","2011-09-30T00:00:00.000","990EZ",
"201222929349300042","2010","742385850","CERTIFIED FINANCIAL PLANNER BOARD OF","STANDARDS INC","1425 K STREET NW NO 500",,"WASHINGTON",,"20005","DC","2010-01-01T00:00:00.000","2010-12-31T00:00:00.000","990",
"201211019349200701","2010","742232561","COLORADO AREA COMMITTEE","OF ALCOHOLICS ANONYMOUS","12081 W ALAMEDA PKWY",,"LAKEWOOD",,"80228","CO","2010-12-01T00:00:00.000","2011-11-30T00:00:00.000","990EZ",
"201221949349300642","2010","841581685","ELK VALLEY PUBLIC IMPROVEMENT CORPORATION",,"1767 DENVER WEST BLVD",,"GOLDEN",,"80401","CO","2010-09-01T00:00:00.000","2011-08-31T00:00:00.000","990",
"201210899349300841","2010","840526620","DEVELOPMENTAL DISABILITIES CENTER",,"1400 Dixon Ave",,"Lafayette",,"80026","CO","2010-07-01T00:00:00.000","2011-06-30T00:00:00.000","990",
"201210619349200626","2010","841413423","SCYH INC",,"PO BOX 8470",,"BRECKENRIDGE",,"80424","CO","2010-07-01T00:00:00.000","2011-06-30T00:00:00.000","990EZ",
"201241369349308114","2010","841173226","THE PARTNERSHIP FOR FAMILIES & CHILDREN",,"450 LINCOLN ST STE 100",,"DENVER",,"80203","CO","2010-07-01T00:00:00.000","2011-06-30T00:00:00.000","990",
"201143489349300219","2010","841480014","THE CHALLENGE FOUNDATION INC",,"36 CHARLOU CIRCLE",,"ENGLEWOOD",,"80111","CO","2010-06-01T00:00:00.000","2011-05-31T00:00:00.000","990",
"201143429349301004","2010","840242810","KENT DENVER COUNTRY DAY SCHOOL",,"4000 E QUINCY AVENUE",,"ENGLEWOOD",,"80113","CO","2010-07-01T00:00:00.000","2011-06-30T00:00:00.000","990",
"201242779349200004","2010","010814316","SILVER CREEK ORGANIZATION FOR PERFORMING ARTS",,"4901 Nelson Rd",,"Longmont",,"80503","CO","2010-08-01T00:00:00.000","2011-07-31T00:00:00.000","990EZ",
"201231849349300033","2010","840630940","RESIDENCES AT FRANKLIN PARK INC",,"14850 SCENIC HEIGHTS ROAD NO 125",,"EDEN PRAIRIE",,"55344","MN","2010-09-01T00:00:00.000","2011-08-31T00:00:00.000","990",
"201201369349306280","2010","237093127","ARAPAHOE COMMUNITY COLLEGE FOUNDATION INC",,"5900 S SANTA FE DR CAMPUS BOX 43",,"LITTLETON",,"801609002","CO","2010-07-01T00:00:00.000","2011-06-30T00:00:00.000","990",
"201211609349300506","2010","237042291","ASPEN CENTER FOR ENVIRONMENTAL STUDIES",,"100 PUPPY SMITH ST",,"ASPEN",,"81611","CO","2010-11-01T00:00:00.000","2011-10-31T00:00:00.000","990",
"201230659349200538","2010","840821657","CHICANO HUMANITIES & ARTS COUNCIL","INC","772 SANTA FE DR",,"DENVER",,"80204","CO","2010-10-01T00:00:00.000","2011-09-30T00:00:00.000","990EZ",
"201133499349200523","2010","742451305","Gamma Phi Beta Sorority Inc - Beta Rho Chapter",,"935 16th Street",,"Boulder",,"80302","CO","2010-08-01T00:00:00.000","2011-07-31T00:00:00.000","990EZ",
"201221359349303202","2010","753004503","Colorado Springs Amateur Hockey","Association (CSAHA)","102 East Pikes Peak Avenue No 201",,"Colorado Springs",,"80903","CO","2010-07-01T00:00:00.000","2011-06-30T00:00:00.000","990",
"201242919349200309","2010","201740391","ELEOS PROJECT",,"6074 S Fairfax Ct",,"Centennial",,"80121","CO","2010-01-01T00:00:00.000","2010-12-31T00:00:00.000","990EZ",
"201221329349300342","2010","237066616","PURCHASE COLLEGE FOUNDATION INC","C/O PURCHASE COLLEGE SUNY","735 ANDERSON HILL ROAD",,"PURCHASE",,"10577","NY","2010-07-01T00:00:00.000","2011-06-30T00:00:00.000","990",
"201220619349201277","2010","841059545","Asian American Foundation of Colorado",,"1544 Elmira Street",,"Aurora",,"80010","CO","2010-07-01T00:00:00.000","2011-06-30T00:00:00.000","990EZ",
"201133499349300033","2010","260587834","NATIONAL STRENGTH & CONDITIONING","ASSOCIATION FOUNDATION","1885 BOB JOHNSON DRIVE",,"COLORADO SPRINGS",,"809064000","CO","2010-04-01T00:00:00.000","2011-03-31T00:00:00.000","990",
"201221819349300212","2010","840787141","DOLPHIN SWIM CLUB INC",,"380 MCFARLAND COURT",,"GRAND JUNCTION",,"81501","CO","2010-09-01T00:00:00.000","2011-08-31T00:00:00.000","990",
"201230659349301278","2010","840685056","QUALISTAR COLORADO",,"3607 MARTIN LUTHER KING BLVD",,"DENVER",,"80205","CO","2010-07-01T00:00:00.000","2011-06-30T00:00:00.000","990",
"201212209349301021","2010","846036701","AMERICAN NATIONAL CATTLEWOMEN INC",,"PO BOX 3881",,"ENGLEWOOD",,"80155","CO","2010-10-01T00:00:00.000","2011-09-30T00:00:00.000","990",
"201200659349301290","2010","742471052","Community Living Residents Inc",,"1510 17th Street",,"Denver",,"802021202","CO","2010-07-01T00:00:00.000","2011-06-30T00:00:00.000","990",
"201243559349200414","2010","840515794","DELTA GUNNISON VALLEY CHURCH OF THE NAZARENE",,"1721 H Road",,"Delta",,"81416","CO","2010-01-01T00:00:00.000","2010-12-31T00:00:00.000","990EZ",
"201130739349300213","2010","043683765","A Childs Hope Foundation",,"4885 North Canyon Road",,"Provo",,"84604","UT","2010-01-01T00:00:00.000","2010-12-31T00:00:00.000","990",
"201143199349204119","2010","061781093","ROARING FORK COMMUNITY DEVELOPMENT CORPORATION","84-1286744","PO Box 1582",,"Carbondale",,"81623","CO","2010-01-01T00:00:00.000","2010-12-31T00:00:00.000","990EZ",
