"area","park_name","address","drop_in_type_amenity","dates","hours","additional_info","latitude","longitude","location"
"Northeast","Abbottsfield (Abbott School Park)","Abbottsfield Road & 34 St","Flying Eagle","Jul 3 - Aug 23","2:30-6pm weekdays","https://edmonton.ca/greenshacks","53.57357648","-113.3899841","(53.57357648, -113.3899843)"
"Northeast","Alberta Avenue Park","9210 – 118 Ave","Green Shack","Jul 3 - Aug 23","2:30-6pm weekdays","https://edmonton.ca/greenshacks","53.57127585","-113.4838318","(53.57127585, -113.4838318)"
"Northeast","Alberta Avenue Park","9210 – 118 Ave","Water Play","Jul 3 - Aug 23","9am-9pm daily","https://edmonton.ca/waterplay","53.57099017","-113.4839793","(53.57099017, -113.4839793)"
"Northeast","Bannerman Park","13988 - 23 St","Green Shack","Jul 3 - Aug 23","10am-1:30pm weekdays","https://edmonton.ca/greenshacks","53.60416155","-113.378845","(53.60416155, -113.378845)"
"Northeast","Belle Rive (Poplar Park)","16410 - 82 St","Green Shack","Jul 3 - Aug 23","10am-6pm weeekdays","https://edmonton.ca/greenshacks","53.627521","-113.471148","(53.627521, -113.471148)"
"Northeast","Bellevue","11515 - 71 St","Green Shack","Jul 3 - Aug 23","10am-6pm weeekdays","https://edmonton.ca/greenshacks","53.568211","-113.449056","(53.568211, -113.449056)"
"Northeast","Belmont Park","3330 - 132A Ave NW","Green Shack","Jul 3 - Aug 23","10am-1:30pm weekdays","https://edmonton.ca/greenshacks","53.59325431","-113.3937697","(53.59325431, -113.3937697)"
"Northeast","Belvedere Park","13223 – 62 St","Flying Eagle","Jul 4 -6","10am-1:30pm","https://edmonton.ca/flyingeagle","53.59411659","-113.4349977","(53.59411659, -113.4349977)"
"Northeast","Belvedere Park","13223 – 62 St","Green Shack","Jul 3 - Aug 23","10am-6pm weeekdays","https://edmonton.ca/greenshacks","53.59411659","-113.4349977","(53.59411659, -113.4349977)"
"Northeast","Borden Park (Virgina Park)","7507 Borden Park Rd","Water Play","Jul 3 - Aug 23","9am-9pm daily","https://edmonton.ca/waterplay","53.563851","-113.451698","(53.563851, -113.451698)"
"Northeast","Boyle Street","9538 - 103 A Ave","Youth Events- Lord of the Parks","Aug 9","1:00 pm","https://edmonton.ca/youth","53.547909","-113.482196","(53.547909, -113.482196)"
"Northeast","Brintnell Park","210 Brintnell Boulevard","Green Shack","Jul 3 - Aug 23","10am-1:30pm weekdays","https://edmonton.ca/greenshacks","53.61876","-113.408805","(53.61876, -113.408805)"
"Northeast","Canon Ridge Park","1350 Hermitage Rd NW","Green Shack","Jul 3 - Aug 23","2:30-6pm weekdays","https://edmonton.ca/greenshacks","53.58043107","-113.3784922","(53.58043107, -113.3784922)"
"Northeast","Central McDougall Park","10630 – 109 Ave","Flying Eagle","Jul 23-27","10am-1:30pm","https://edmonton.ca/flyingeagle","53.55520564","-113.503861","(53.55520564, -113.503861)"
"Northeast","Central McDougall Park","10630 – 109 Ave","Green Shack","Jul 3 - Aug 23","10am-6pm weekdays","https://edmonton.ca/greenshacks","53.55520564","-113.503861","(53.55520564, -113.503861)"
"Northeast","Central McDougall Park","10630 – 109 Ave","Water Play","Jul 3 - Aug 23","9am-9pm daily","https://edmonton.ca/waterplay","53.55520564","-113.503861","(53.55520564, -113.503861)"
"Northeast","Clareview Community Recreation Centre","3804 - 139 Ave","Youth Programs","Jul 4 - Aug 22","Wednesdays: 5:30-8:30pm","https://edmonton.ca/youth","53.602347","-113.4021411","(53.60234, -113.4021411)"
"Northeast","Clareview Skateboard Park","3804 - 139 Ave NW","Skate Park","Jun 2 - Aug 26","Mon, Tues, Thurs, Fri: 12:30-8pm, Wed 3:30-8pm","https://edmonton.ca/skateparks","53.600859","-113.402671","(53.600859, -113.402671)"
"Northeast","Clarke Stadium","11000 Stadium Rd","Youth Events- YEGYouth World Cup Soccer","Jul 5","1:00 pm","https://edmonton.ca/youth","53.558223","-113.476328","(53.558223, -113.476328)"
"Northeast","Coliseum Parking Lot","7424 - 118 Ave","Youth Events- McDavid Cup","Aug 2","1:00 pm","https://edmonton.ca/youth","53.572134","-113.45571","(53.572134, -113.45571)"
"Northeast","Commonwealth Community Recreation Centre","11000 Stadium Rd","Youth Programs","Jul 6 - Aug 17","Fridays: 5:00-8:00pm","https://edmonton.ca/youth","53.558223","-113.476328","(53.558223, -113.476328)"
"Northeast","Cy Becker","283 Cy Becker Blvd","Pop Up Play","Jul 3 - Aug 23","Mondays & Thursdays: 2:30-6pm","https://edmonton.ca/popupplay","53.634618","-113.403793","(53.634618, -113.403793)"
"Northeast","Delton Park","12325 – 88 St","Green Shack","Jul 3 - Aug 23","10am-1:30pm weekdays","https://edmonton.ca/greenshacks","53.578367","-113.47621","(53.578367, -113.47621)"
"Northeast","Delwood Park","7515 Delwood Rd","Green Shack","Jul 3 - Aug 23","2:30-6pm weekdays","https://edmonton.ca/greenshacks","53.59654705","-113.4577786","(53.59654705, -113.4577786)"
"Northeast","Dovercourt Park","13510 Dovercourt Ave","Pop Up Play","Jul 3 - Aug 23","Tuesdays & Thursdays: 2:30-6pm","https://edmonton.ca/popupplay","53.575955","-113.557835","(53.575955, -113.557835)"
"Northeast","Dovercourt Park","13510 Dovercourt Ave","Water Play","Jul 3 - Aug 23","9am-9pm daily","https://edmonton.ca/waterplay","53.575955","-113.557835","(53.575955, -113.557835)"
"Northeast","Eastwood Park","11803 – 86 St","Green Shack","Jul 3 - Aug 23","10am-1:30pm weekdays","https://edmonton.ca/greenshacks","53.57480085","-113.4649612","(53.57480085, -113.4649612)"
"Northeast","Eastwood Park","11803 – 86 St","Water Play","Jul 3 - Aug 23","9am-9pm daily","https://edmonton.ca/waterplay","53.57120401","-113.4723683","(53.57120401, -113.4723683)"
"Northeast","Eaux Claires","16003 - 95 St","Green Shack","Jul 3 - Aug 23","10am-1:30pm weekdays","https://edmonton.ca/greenshacks","53.621448","-113.486856","(53.621448, -113.486856)"
"Northeast","Elmwood Park","12505 - 75 St","Flying Eagle","Aug 13 - 17","2:30-6pm","https://edmonton.ca/flyingeagle","53.581561","-113.456921","(53.581561, -113.456921)"
"Northeast","Elmwood Park","12505 - 75 St","Green Shack","Jul 3 - Aug 23","2:30-6pm weekdays","https://edmonton.ca/greenshacks","53.581561","-113.456921","(53.581561, -113.456921)"
"Northeast","Elmwood Park","12505 - 75 St","Water Play","Jul 3 - Aug 23","9am-9pm daily","https://edmonton.ca/waterplay","53.581561","-113.456921","(53.581561, -113.456921)"
"Northeast","Evansdale Park","9111 – 150 Ave","Flying Eagle","Jul 14 - 18","2:30-6pm","https://edmonton.ca/flyingeagle","53.61040244","-113.4826189","(53.61040244, -113.4826189)"
"Northeast","Evansdale Park","9111 – 150 Ave","Green Shack","Jul 3 - Aug 23","10am-6pm weekdays","https://edmonton.ca/greenshacks","53.61040244","-113.4826189","(53.61040244, -113.4826189)"
"Northeast","Floden Park (Beverley Heights)","4209 – 111 Ave","Flying Eagle","Aug 7 - 10","10am-1:30pm","https://edmonton.ca/flyingeagle","53.56374495","-113.4078852","(53.56374495, -113.4078852)"
"Northeast","Floden Park (Beverley Heights)","4209 – 111 Ave","Green Shack","Jul 3 - Aug 23","10am-1:30pm weekdays","https://edmonton.ca/greenshacks","53.56374495","-113.4078852","(53.56374495, -113.4078852)"
"Northeast","Fraser Park","14720 - 21 St","Flying Eagle","Jul 3 - Aug 23","10am-1:30pm weekdays","https://edmonton.ca/greenshacks","53.610659","-113.372952","(53.610659, -113.372952)"
"Northeast","Fraser Park","14720 - 21 St","Green Shack","Jul 3 - Aug 23","10am-1:30pm weekdays","https://edmonton.ca/greenshacks","53.610659","-113.372952","(53.610659, -113.372952)"
"Northeast","G. Edmund Kelly Water Spray Park","15005 79 St","Water Play","weekends in June; Jul 3 - Aug 23","Staffed 11am-6pm daily; operational hours 9am-9pm","https://edmonton.ca/waterplay","53.612318","-113.462089","(53.612318, -113.462089)"
"Northeast","Giovanni Caboto Park (McCauley)","9403 109A Ave","Flying Eagle","Aug 20 - 22","10am-1:30pm","https://edmonton.ca/flyingeagle","53.55631559","-113.4841374","(53.55631559, -113.4841374)"
"Northeast","Giovanni Caboto Park (McCauley)","9403 109A Ave","Green Shack","Jul 3 - Aug 23","10am-6pm weekdays","https://edmonton.ca/greenshacks","53.55631559","-113.4841374","(53.55631559, -113.4841374)"
"Northeast","Giovanni Caboto Park (McCauley)","9403 109A Ave","Water Play","Jul 3 - Aug 23","9am-9pm","https://edmonton.ca/waterplay","53.55631559","-113.4841374","(53.55631559, -113.4841374)"
"Northeast","Glengarry Spray Deck","13325 – 89 St","Water Play","weekends in June; Jul 3 - Aug 23","Staffed 11am-6pm daily; operational hours 9am-9pm","https://edmonton.ca/waterplay","53.59555429","-113.4846854","(53.59555429, -113.4846854)"
"Northeast","Hairsine Park","3120 139 Ave","Green Shack","Jul 3 - Aug 23","2:30-6pm weekdays","https://edmonton.ca/greenshacks","53.60335963","-113.390266","(53.60335963, -113.390266)"
"Northeast","Highlands Park","6112 - 113 Ave","Green Shack","Jul 3 - Aug 23","10am-1:30pm weekdays","https://edmonton.ca/greenshacks","53.567897","-113.433427","(53.567897, -113.433427)"
"Northeast","Highlands Park","6112 - 113 Ave","Water Play","Jul 3 - Aug 23","9am-9pm daily","https://edmonton.ca/waterplay","53.567897","-113.433427","(53.567897, -113.433427)"
"Northeast","Hollick Kenyon Park","5315 159 Ave","Flying Eagle","Jul 16 - 20","2:30-6pm","https://edmonton.ca/flyingeagle","53.575139","-113.424586","(53.575139, -113.424586)"
"Northeast","Hollick Kenyon Park","5315 159 Ave","Green Shack","Jul 3 - Aug 23","2:30-6pm weekdays","https://edmonton.ca/greenshacks","53.575139","-113.424586","(53.575139, -113.424586)"
"Northeast","Homesteader Park","575 Hermitage Rd NW","Green Shack","Jul 3 - Aug 23","2:30-6pm weekdays","https://edmonton.ca/greenshacks","53.58705076","-113.4125381","(53.58705076, -113.4125381)"
"Northeast","Inglewood School Park","12515 – 116 Ave","Green Shack","Jul 3 - Aug 23","10am-6pm weekdays","https://edmonton.ca/greenshacks","53.56619612","-113.5394107","(53.56619612, -113.5394107)"
"Northeast","Jubilee Park (Beacon Heights)","12037 – 43 St","Green Shack","Jul 3 - Aug 23","10am-6pm weekdays","https://edmonton.ca/greenshacks","53.3085943","-113.5371963","(53.3085943, -113.5371963)"
"Northeast","Jubilee Park (Beacon Heights)","12037 – 43 St","Water Play","May 20 - Sep 21","9am-9pm daily","https://edmonton.ca/waterplay","53.3085943","-113.5371963","(53.3085943, -113.5371963)"
"Northeast","Kernohan Park","699 Clareview Rd","Pop Up Play","Jul 3 - Aug 23","Wednesdays & Fridays: 2:30-6pm","https://edmonton.ca/popupplay","53.59342845","-113.3835749","(53.59342845, -113.3835749)"
"Northeast","Kildare Park","14224 74 St","Green Shack","Jul 3 - Aug 23","10am-1:30pm weekdays","https://edmonton.ca/greenshacks","53.60556732","-113.4563143","(53.60556732, -113.4563143)"
"Northeast","Kilkenny Park","14840 – 72 St","Green Shack","Jul 3 - Aug 23","10am-6pm weekdays","https://edmonton.ca/greenshacks","53.610477","-113.449095","(53.610477, -113.449095)"
"Northeast","Killarney Park","8720 130A Ave","Flying Eagle","Jul 4 -6","2:30-6pm","https://edmonton.ca/flyingeagle","53.59062282","-113.4750129","(53.59062282, -113.4750129)"
"Northeast","Killarney Park","8720 – 130A Ave","Green Shack","Jul 3 - Aug 23","10am-6pm weekdays","https://edmonton.ca/greenshacks","53.59062282","-113.4750129","(53.59062282, -113.4750129)"
"Northeast","Killarney Park","8720 130A Ave","Water Play","Jul 3 - Aug 23","9am-9pm daily","https://edmonton.ca/waterplay","53.59062282","-113.4750129","(53.59062282, -113.4750129)"
"Northeast","Kirkness Park","630 Kirkness Rd","Green Shack","Jul 3 - Aug 23","10am-6pm weekdays","https://edmonton.ca/greenshacks","53.61171468","-113.385088","(53.61171468, -113.385088)"
"Northeast","Kitchener Park (Oliver)","11411 - 103 Ave","Green Shack","Jul 3 - Aug 23","10am-1:30pm weekdays","https://edmonton.ca/greenshacks","53.54458","-113.517647","(53.54458, -113.517647)"
"Northeast","Klarvatten Park","200 Klarvatten Rd","Green Shack","Jul 3 - Aug 23","2:30-6pm weekdays","https://edmonton.ca/greenshacks","53.63312844","-113.4753565","(53.63312844, -113.4753565)"
"Northeast","Lago Lindo Park","17221 95 St NW","Flying Eagle","Jul 9 - 13","10am-1:30pm","https://edmonton.ca/flyingeagle","53.63479373","-113.4874213","(53.63479373, -113.4874213)"
"Northeast","Lago Lindo Park","17221 95 St NW","Green Shack","Jul 3 - Aug 23","10am-1:30pm weekdays","https://edmonton.ca/greenshacks","53.63479373","-113.4874213","(53.63479373, -113.4874213)"
"Northeast","Latitude 53","10242 - 106 St","Youth Events- Youth Art Show","Aug 14","6:00 pm","https://edmonton.ca/youth","53.544129","-113.502375","(53.544129, -113.502375)"
"Northeast","Matt Berry Park","15950 59A St","Green Shack","Jul 3 - Aug 23","10am-1:30pm weekdays","https://edmonton.ca/greenshacks","53.62191521","-113.4313124","(53.62191521, -113.4313124)"
"Northeast","Mayliewan Park","7503 161A Ave","Green Shack","Jul 3 - Aug 23","2:30-6pm weekdays","https://edmonton.ca/greenshacks","53.5618921","-113.4515811","(53.5618921, -113.4515811)"
"Northeast","McLeod Park","14715 – 59 St","Pop Up Play","Jul 3 - Aug 23","Tuesdays & Thursdays: 10am-6pm","https://edmonton.ca/popupplay","53.61505565","-113.4413796","(53.61505565, -113.4413796)"
"Northeast","Miller Park","14903 50 St","Green Shack","Jul 3 - Aug 23","2:30-6pm weekdays","https://edmonton.ca/greenshacks","53.61283059","-113.4160817","(53.61283059, -113.4160817)"
"Northeast","Montrose Park","5920 – 119 Ave","Flying Eagle","Aug 7 - 10","2:30-6pm","https://edmonton.ca/flyingeagle","53.57231622","-113.4330514","(53.57231622, -113.4330514)"
"Northeast","Montrose Park","5920 – 119 Ave","Green Shack","Jul 3 - Aug 23","2:30-6pm weekdays","https://edmonton.ca/greenshacks","53.57231622","-113.4330514","(53.57231622, -113.4330514)"
"Northeast","Montrose Park","5920 – 119 Ave","Water Play","Jul 3 - Aug 23","9am-9pm","https://edmonton.ca/waterplay","53.57251572","-113.4328011","(53.57251572, -113.4328011)"
"Northeast","Newton Park","5510 - 121 Ave","Pop Up Play","Jul 2 - Aug 21","Tuesdays & Thursdays: 10am-1:30pm","https://edmonton.ca/popupplay","53.575086","-113.426078","(53.575086, -113.426078)"
"Northeast","Northmount Park","9208 – 140 Ave","Green Shack","Jul 3 - Aug 23","10am-1:30pm weekdays","https://edmonton.ca/greenshacks","53.60323891","-113.4815549","(53.60323891, -113.4815549)"
"Northeast","Norwood Square Park (Alberta Avenue)","9516 – 114 Ave","Flying Eagle","Aug 13 - 17","10am-1:30pm","https://edmonton.ca/flyingeagle","53.56006888","-113.4883657","(53.56006888, -113.4883657)"
"Northeast","Norwood Square Park (Alberta Avenue)","9516 – 114 Ave","Green Shack","Jul 3 - Aug 23","10am-1:30pm weekdays","https://edmonton.ca/greenshacks","53.56006888","-113.4883657","(53.56006888, -113.4883657)"
"Northeast","Overlanders Park","1130 Hermitage Rd","Green Shack","Jul 3 - Aug 23","10am-6pm weekdays","https://edmonton.ca/greenshacks","53.579537","-113.38393","(53.579537, -113.38393)"
"Northeast","Ozerna Park","7010 158 Ave","Green Shack","Jul 3 - Aug 23","10am-1:30pm weekdays","https://edmonton.ca/greenshacks","53.62088912","-113.4486751","(53.62088912, -113.4486751)"
"Northeast","Prince Charles Park","12325-127 St","Green Shack","Jul 3 - Aug 23","10am-1:30pm weekdays","https://edmonton.ca/greenshacks","53.578606","-113.541196","(53.578606, -113.541196)"
"Northeast","Queen Mary Park","10844 – 117 St","Green Shack","Jul 3 - Aug 23","10am-6pm weekdays","https://edmonton.ca/greenshacks","53.55417401","-113.5246873","(53.55417401, -113.5246873)"
"Northeast","Queen Mary Park","10844 – 117 St","Water Play","Jul 3 - Aug 23","9am-9pm","https://edmonton.ca/waterplay","53.55417401","-113.5246873","(53.55417401, -113.5246873)"
"Northeast","Riverdale Park","9231 – 100 Ave","Pop Up Play","Jul 3 - Aug 23","Tuesdays & Fridays: 10am-1:30pm","https://edmonton.ca/popupplay","53.54138324","-113.4732372","(53.54138324, -113.4732372)"
"Northeast","Riverdale Park","9231 – 100 Ave","Water Play","Jul 3 - Aug 23","9am-9pm daily","https://edmonton.ca/waterplay","53.54138324","-113.4732372","(53.54138324, -113.4732372)"
"Northeast","Rosslyn Park","11015 – 134 Ave","Green Shack","Jul 3 - Aug 23","2:30-6pm weekdays","https://edmonton.ca/greenshacks","53.59413567","-113.5122458","(53.59400223, -113.5120775)"
"Northeast","Rosslyn Park","11015 – 134 Ave","Water Play","Jul 3 - Aug 23","9am-9pm daily","https://edmonton.ca/waterplay","53.59400223","-113.5120775","(53.59413567, -113.5122458)"
"Northeast","Rosssdale (Irene Parlby Park)","9545-100 St","Pop Up Play","Jul 3 - Aug 23","Tuesdays & Fridays: 2:30-6pm","https://edmonton.ca/popupplay","53.534155","-113.490621","(53.534155, -113.490621)"
"Northeast","Rural Northeast South Sturgeon","2 st & 163 Ave","Pop Up Play","Jul 3 - Aug 23","Mondays & Thursdays: 10am-1:30pm","https://edmonton.ca/popupplay","53.625743","-113.328605","(53.625743, -113.328605)"
"Northeast","Schonsee Park","5470 Schonsee Dr","Flying Eagle","Jul 16 - 20","10am-1:30pm","https://edmonton.ca/flyingeagle","53.632998","-113.45926","(53.632998, -113.45926)"
"Northeast","Schonsee Park","5470 Schonsee Dr","Green Shack","Jul 3 - Aug 23","10am-1:30pm weekdays","https://edmonton.ca/greenshacks","53.632998","-113.45926","(53.632998, -113.45926)"
"Northeast","Shaw Conference Centre","9797 Jasper Ave","Youth Events- City Challenge","Jul 17","12:30 pm","https://edmonton.ca/youth","53.541815","-113.48472","(53.541815, -113.48472)"
"Northeast","Sheila Bowker Park (Parkdale)","11335 – 85 St","Green Shack","Jul 3 - Aug 23","2:30-6pm weekdays","https://edmonton.ca/greenshacks","53.56298628","-113.4714293","(53.56298628, -113.4714293)"
"Northeast","Sherbrooke Park","13008 – 122 Ave","Flying Eagle","Aug 20 - 22","2:30-6pm","https://edmonton.ca/flyingeagle","53.57487202","-113.5482598","(53.57487202, -113.5482598)"
"Northeast","Sherbrooke Park","13008 – 122 Ave","Green Shack","Jul 3 - Aug 23","2:30-6pm weekdays","https://edmonton.ca/greenshacks","53.57481337","-113.5482665","(53.57487202, -113.5482598)"
"Northeast","Sherbrooke Park","13008 – 122 Ave","Water Play","Jul 3 - Aug 23","9am-9pm daily","https://edmonton.ca/waterplay","53.57487202","-113.5482598","(53.57481337, -113.5482665)"
"Northeast","Sheriff Robertson Park (Cromdale)","8112 – 111 Ave","Green Shack","Jul 3 - Aug 23","10am-1:30pm weekdays","https://edmonton.ca/greenshacks","53.5589481","-113.4663369","(53.5589481, -113.4663369)"
"Northeast","Sifton Park","4305 – 134 Ave","Flying Eagle","Jul 30 - Aug 3","2:30-6pm","https://edmonton.ca/flyingeagle","53.59412419","-113.4093789","(53.59412419, -113.4093789)"
"Northeast","Sifton Park","4305 – 134 Ave","Green Shack","Jul 3 - Aug 23","2:30-6pm weekdays","https://edmonton.ca/greenshacks","53.59412419","-113.4093789","(53.59412419, -113.4093789)"
"Northeast","Spruce Avenue Park","10240 – 115 Ave","Green Shack","Jul 3 - Aug 23","10am-1:30pm weekdays","https://edmonton.ca/greenshacks","53.56541605","-113.4975431","(53.56541605, -113.4975431)"
"Northeast","Spruce Avenue Park","10240 – 115 Ave","Water Play","Jul 3 - Aug 23","9am-9pm daily","https://edmonton.ca/waterplay","53.56541605","-113.4975431","(53.56541605, -113.4975431)"
"Northeast","St. Teresa of Calcutta School Park (Boyle Street)","9008 – 105A Ave","Green Shack","Jul 3 - Aug 23","10am-1:30pm weekdays","https://edmonton.ca/greenshacks","53.55185851","-113.4760875","(53.55185851, -113.4760875)"
"Northeast","Westmount Park","10970 127 St","Flying Eagle","Jul 23 - 27","2:30-6pm","https://edmonton.ca/flyingeagle","53.554978","-113.544562","(53.554978, -113.544562)"
"Northeast","Westmount Park","10970 127 St","Green Shack","Jul 3 - Aug 23","2:30-6pm weekdays","https://edmonton.ca/greenshacks","53.554978","-113.544562","(53.554978, -113.544562)"
"Northeast","Westmount Park","10970 127 St","Water Play","Jul 3 - Aug 23","9am-9pm daily","https://edmonton.ca/waterplay","53.554978","-113.544562","(53.554978, -113.544562)"
"Northeast","Westwood Park","12139 – 105 St","Green Shack","Jul 3 - Aug 23","10am-1:30pm weekdays","https://edmonton.ca/greenshacks","53.57613694","-113.4999075","(53.57613694, -113.4999075)"
"Northeast","Woodcroft (Coronation Park)","13915 – 115 Ave","Green Shack","Jul 3 - Aug 23","2:30-6pm weekdays","https://edmonton.ca/greenshacks","53.565219","-113.562205","(53.565219, -113.562205)"
"Northeast","Woodcroft (Coronation Park)","13915 – 115 Ave","Water Play","Jul 3 - Aug 23","9am-9pm daily","https://edmonton.ca/waterplay","53.565219","-113.562205","(53.565219, -113.562205)"
"Northeast","York Park","5825 – 140 Ave","Green Shack","Jul 3 - Aug 23","2:30-6pm weekdays","https://edmonton.ca/greenshacks","53.6026","-113.431838","(53.6026, -113.431838)"
"Northeast","Zoie Gardner Park (Balwin)","12710 70 St","Green Shack","Jul 3 - Aug 23","10am-6pm weekdays","https://edmonton.ca/greenshacks","53.58544553","-113.4505942","(53.58544553, -113.4505942)"
"Northeast","Zoie Gardner Park (Balwin)","12710 70 St","Water Play","Jul 3 - Aug 23","9am-9pm daily","https://edmonton.ca/waterplay","53.58544553","-113.4505942","(53.58544553, -113.4505942)"
"Northwest","Aldergrove Park","8535 – 182 St","Flying Eagle","Aug 7 - 10","2:30-6pm","https://edmonton.ca/flyingeagle","53.5189689","-113.6349116","(53.5189689, -113.6349116)"
"Northwest","Aldergrove Park","8535 – 182 St","Green Shack","Jul 3 - Aug 23","2:30-6pm weekdays","https://edmonton.ca/greenshacks","53.5189689","-113.6349116","(53.5189689, -113.6349116)"
"Northwest","Athlone Park","13010 – 129 St","Flying Eagle","Jul 3 - Aug 23","2:30-6pm","https://edmonton.ca/flyingeagle","53.5891528","-113.5459163","(53.5891528, -113.5459163)"
"Northwest","Athlone Park","13010 – 129 St","Green Shack","Jul 3 - Aug 23","2:30-6pm weekdays","https://edmonton.ca/greenshacks","53.5891528","-113.5459163","(53.5891528, -113.5459163)"
"Northwest","Athlone Park","13010 – 129 St","Water Play","Jul 3 - Aug 23","9am-9pm daily","https://edmonton.ca/waterplay","53.5891528","-113.5459163","(53.5891528, -113.5459163)"
"Northwest","Baturyn Park","10505 – 172 Ave","Flying Eagle","Jul 30 - Aug 3","10am-1:30pm","https://edmonton.ca/flyingeagle","53.63253221","-113.5048692","(53.63253221, -113.5048692)"
"Northwest","Baturyn Park","10505 – 172 Ave","Green Shack","Jul 3 - Aug 23","10am-1:30pm weekdays","https://edmonton.ca/greenshacks","53.63253221","-113.5048692","(53.63253221, -113.5048692)"
"Northwest","Beaumaris Park","10004 - 155 Ave","Green Shack","Jul 3 - Aug 23","10am-1:30pm weekdays","https://edmonton.ca/greenshacks","53.616088","-113.498182","(53.616088, -113.498182)"
"Northwest","Belmead Park","9109 – 182 St","Green Shack","Jul 3 - Aug 23","10am-1:30pm weekdays","https://edmonton.ca/greenshacks","53.52596027","-113.6355345","(53.52596027, -113.6355345)"
"Northwest","Caernarvon Park","14830 – 118 St","Flying Eagle","Aug 20 - 22","2:30-6pm","https://edmonton.ca/flyingeagle","53.61106179","-113.5282269","(53.61106179, -113.5282269)"
"Northwest","Caernarvon Park","14830 – 118 St","Green Shack","Jul 3 - Aug 23","2:30-6pm weekdays","https://edmonton.ca/greenshacks","53.61106179","-113.5282269","(53.61106179, -113.5282269)"
"Northwest","Calder Community Park","12803 - 120 St NW","Green Shack","Jul 3 - Aug 23","10am-1:30pm weekdays","https://edmonton.ca/greenshacks","53.5888468","-113.5263856","(53.5888468, -113.5263856)"
"Northwest","Callingwood Park","17740 - 69 Ave NW","Water Play","Jul 3 - Aug 23","Staffed 11am-6pm daily; operational hours 9am-9pm","https://edmonton.ca/waterplay","53.50833165","-113.6223636","(53.50833165, -113.6223636)"
"Northwest","Callingwood Skate Park","17740 - 69 Ave NW","Skate Park","Jun 2 - Aug 26","Mon, Tues, Thurs, Fri: 12:30-8pm, Wed 3:30-8pm","https://edmonton.ca/skateparks","53.503944","-113.625165","(53.503944, -113.625165)"
"Northwest","Callingwood South","17605 - 64 Ave NW","Flying Eagle","Aug 13 - 17","2:30-6pm","https://edmonton.ca/flyingeagle","53.50833165","-113.6223636","(53.50833165, -113.6223636)"
"Northwest","Callingwood South","17605 - 64 Ave NW","Green Shack","Jul 3 - Aug 23","2:30-6pm weekdays","https://edmonton.ca/greenshacks","53.50833165","-113.6223636","(53.50833165, -113.6223636)"
"Northwest","Cameron Heights","3265 Cameron Heights Way","Pop Up Play","Jul 3 - Aug 23","10am-1:30pm weekdays","https://edmonton.ca/greenshacks","53.473127","-113.636494","(53.473127, -113.636494)"
"Northwest","Canora Park","10425 – 152 St","Green Shack","Jul 3 - Aug 23","10am-1:30pm weekdays","https://edmonton.ca/greenshacks","53.54732369","-113.5825935","(53.54732369, -113.5825935)"
"Northwest","Canossa","17036 - 115 St NW","Green Shack","Jul 3 - Aug 23","2:30-6pm weekdays","https://edmonton.ca/greenshacks","53.633544","-113.522501","(53.633544, -113.522501)"
"Northwest","Carlisle Park","14240 – 117 St","Green Shack","Jul 3 - Aug 23","10am-1:30pm weekdays","https://edmonton.ca/greenshacks","53.60501068","-113.5237433","(53.60501068, -113.5237433)"
"Northwest","Carlton Park","13815 – 160 Ave","Flying Eagle","Jul 9 - 13","10am-1:30pm","https://edmonton.ca/flyingeagle","53.61998698","-113.5598505","(53.61998698, -113.5598505)"
"Northwest","Carlton Park","13815 – 160 Ave","Green Shack","Jul 3 - Aug 23","10am-1:30pm weekdays","https://edmonton.ca/greenshacks","53.61998698","-113.5598505","(53.61998698, -113.5598505)"
"Northwest","Castle Downs Skate Park","11520 – 153 Ave","Skate Park","Jun 2 - Aug 26","Mon, Tues, Thurs, Fri: 12:30-8pm, Wed 3:30-8pm","https://edmonton.ca/skateparks","53.614336","-113.521112","(53.614336, -113.521112)"
"Northwest","Castle Downs Spray Park","11520 - 153 Ave","Water Play","Jul 3 - Aug 23","Staffed 11am-6pm daily; operational hours 9am-9pm","https://edmonton.ca/waterplay","53.61683143","-113.5255333","(53.61683143, -113.5255333)"
"Northwest","Colonel F.C. Jamieson Park (Jamieson)","5303 – 190 St","Flying Eagle","Jul 23 - 27","2:30-6pm","https://edmonton.ca/flyingeagle","53.489699","-113.651437","(53.489699, -113.651437)"
"Northwest","Colonel F.C. Jamieson Park (Jamieson)","5303 – 190 St","Green Shack","Jul 3 - Aug 23","2:30-6pm weekdays","https://edmonton.ca/greenshacks","53.489699","-113.651437","(53.489699, -113.651437)"
"Northwest","Crestwood","14325 - 96 Ave","Pop Up Play","Jul 3 - Aug 23","Wednesdays & Fridays: 2:30-6pm","https://edmonton.ca/popupplay","53.532909","-113.568344","(53.532909, -113.568344)"
"Northwest","Cumberland Park","14816 129 St NW","Green Shack","Jul 3 - Aug 23","10am-1:30pm weekdays","https://edmonton.ca/greenshacks","53.61094399","-113.5444221","(53.61094399, -113.5444221)"
"Northwest","Dunluce Park","11620 – 162 Ave","Green Shack","Jul 3 - Aug 23","2:30-6pm weekdays","https://edmonton.ca/greenshacks","53.62367495","-113.5250818","(53.62367495, -113.5250818)"
"Northwest","Elsinore Chambery Park (Castlebrook)","17604 104 St NW","Green Shack","Jul 3 - Aug 23","2:30-6pm weekdays","https://edmonton.ca/greenshacks","53.64119946","-113.5056207","(53.64119946, -113.5056207)"
"Northwest","Gariepy Park","17404 - 57 Ave","Flying Eagle","Jul 4 - 6","10am-1:30pm","https://edmonton.ca/flyingeagle","53.494028","-113.622635","(53.494028, -113.622635)"
"Northwest","Gariepy Park","17404 - 57 Ave","Green Shack","Jul 3 - Aug 23","10am-1:30pm weekdays","https://edmonton.ca/greenshacks","53.494028","-113.622635","(53.494028, -113.622635)"
"Northwest","Glastonbury Park","1101 Grantham Drive","Green Shack","Jul 3 - Aug 23","2:30-6pm weekdays","https://edmonton.ca/greenshacks","53.50667067","-113.6675799","(53.492688, -113.680282)"
"Northwest","Glenora Park","10426 – 136 St","Flying Eagle","Jul 16 - 20","10am-1:30pm","https://edmonton.ca/flyingeagle","53.54657513","-113.5571581","(53.54657513, -113.5571581)"
"Northwest","Glenora Park","10426 – 136 St","Green Shack","Jul 3 - Aug 23","10am-1:30pm weekdays","https://edmonton.ca/greenshacks","53.54403633","-113.5550559","(53.54403633, -113.5550559)"
"Northwest","Glenora Park","10426 – 136 St","Water Play","Jul 3 - Aug 23","9am-9pm daily","https://edmonton.ca/waterplay","53.5466747","-113.5568867","(53.5466747, -113.5568867)"
"Northwest","Glenwood","16430 - 97 Ave","Green Shack","Jul 3 - Aug 23","10am-6pm weekdays","https://edmonton.ca/greenshacks","53.535685","-113.60506","(53.535685, -113.60506)"
"Northwest","Gordan Drynan Park (Britannia Youngstown)","15927 - 105 Ave","Green Shack","Jul 3 - Aug 23","2:30-6pm weekdays","https://edmonton.ca/greenshacks","53.54611249","-113.6094396","(53.54611249, -113.6094396)"
"Northwest","Gordan Drynan Park (Britannia Youngstown)","10320 – 166 St","Green Shack","Jul 3 - Aug 23","10am-1:30pm weekdays","https://edmonton.ca/greenshacks","53.54611249","-113.6094396","(53.54611249, -113.6094396)"
"Northwest","Grovenor Park","14325 104 Ave","Green Shack","Jul 3 - Aug 23","2:30-6pm weekdays","https://edmonton.ca/greenshacks","53.546212","-113.567765","(53.546212, -113.567765)"
"Northwest","Hamptons Park","365 Hemingway Rd NW","Green Shack","Jul 3 - Aug 23","10am-6pm weekdays","https://edmonton.ca/greenshacks","53.491072","-113.682684","(53.491072, -113.682684)"
"Northwest","High Park","11031 – 154 St","Pop Up Play","Jul 3 - Aug 23","Wednesdays & Fridays: 10am-1:30pm","https://edmonton.ca/popupplay","53.556388","-113.586346","(53.556388, -113.586346)"
"Northwest","Hudson Park","13625 Cumberland Rd","Flying Eagle","Jul 30 - Aug 3","2:30-6pm","https://edmonton.ca/flyingeagle","53.60775378","-113.5560773","(53.60775378, -113.5560773)"
"Northwest","Hudson Park","13625 Cumberland Rd","Green Shack","Jul 3 - Aug 23","2:30-6pm weekdays","https://edmonton.ca/greenshacks","53.60775378","-113.5560773","(53.60775378, -113.5560773)"
"Northwest","Hudson Park","13625 Cumberland Rd","Water Play","Jul 3 - Aug 23","9am-9pm daily","https://edmonton.ca/waterplay","53.60775378","-113.5560773","(53.60775378, -113.5560773)"
"Northwest","Jasper Park","8751 - 153 St","Green Shack","Jul 3 - Aug 23","2:30-6pm weekdays","https://edmonton.ca/greenshacks","53.520957","-113.585082","(53.520957, -113.585082)"
"Northwest","John Devoldere Memorial Park (Elmwood)","16415 83 Ave NW","Green Shack","Jul 3 - Aug 23","10am-1:30pm weekdays","https://edmonton.ca/greenshacks","53.516601","-113.606554","(53.516601, -113.606554)"
"Northwest","John Devoldere Memorial Park (Elmwood)","16415 83 Ave NW","Water Play","Jul 3 - Aug 23","9am-9pm daily","https://edmonton.ca/waterplay","53.516601","-113.606554","(53.516601, -113.606554)"
"Northwest","Johnny Bright Sports Park (West Meadowlark)","9311 – 165 St","Green Shack","Jul 3 - Aug 23","10am-1:30pm weekdays","https://edmonton.ca/greenshacks","53.52930329","-113.6067257","(53.52930329, -113.6067257)"
"Northwest","Johnny Bright Sports Park (West Meadowlark)","9311 – 165 St","Water Play","Jul 3 - Aug 23","9am-9pm daily","https://edmonton.ca/waterplay","53.52930329","-113.6067257","(53.52930329, -113.6067257)"
"Northwest","Kensington Park","12130 – 134A Ave","Green Shack","Jul 3 - Aug 23","10am-1:30pm weekdays","https://edmonton.ca/greenshacks","53.59589992","-113.5307082","(53.59589992, -113.5307082)"
"Northwest","Kensington Park","12130 – 134A Ave","Water Play","Jul 3 - Aug 23","9am-9pm daily","https://edmonton.ca/waterplay","53.59589992","-113.5307082","(53.59589992, -113.5307082)"
"Northwest","LaPerle Park","18611 – 97A Ave","Green Shack","Jul 3 - Aug 23","2:30-6pm weekdays","https://edmonton.ca/greenshacks","53.53336689","-113.6440036","(53.53336689, -113.6440036)"
"Northwest","Lauderdale Park","12937 – 107 St","Flying Eagle","Jul 9 - 13","2:30-6pm","https://edmonton.ca/flyingeagle","53.58857289","-113.5031773","(53.58857289, -113.5031773)"
"Northwest","Lauderdale Park","12937 – 107 St","Green Shack","Jul 3 - Aug 23","2:30-6pm weekdays","https://edmonton.ca/greenshacks","53.58857289","-113.5031773","(53.58857289, -113.5031773)"
"Northwest","Laurier Heights Park","14405 – 85 Ave","Flying Eagle","Aug 7 - 10","10am-1:30pm","https://edmonton.ca/flyingeagle","53.623428","-113.50095","(53.623428, -113.50095)"
"Northwest","Laurier Heights Park","14405 – 85 Ave","Green Shack","Jul 3 - Aug 23","10am-1:30pm weekdays","https://edmonton.ca/greenshacks","53.517557","-113.568476","(53.517557, -113.568476)"
"Northwest","Laurier Heights Park","14405 – 85 Ave","Water Play","Jul 3 - Aug 23","9am-9pm daily","https://edmonton.ca/waterplay","53.517557","-113.568476","(53.517557, -113.568476)"
"Northwest","Lorelei Park","16220 – 103 St","Green Shack","Jul 3 - Aug 23","2:30-6pm weekdays","https://edmonton.ca/greenshacks","53.623428","-113.50095","(53.623428, -113.50095)"
"Northwest","Lymburn Park","18740-72 Ave","Green Shack","Jul 3 - Aug 23","10am-1:30pm weekdays","https://edmonton.ca/greenshacks","53.46889291","-113.4087741","(53.46889291, -113.4087741)"
"Northwest","Lynnwood Park","15524 – 84 Ave","Flying Eagle","Jul 16 - 20","2:30-6pm","https://edmonton.ca/flyingeagle","53.51623846","-113.5898041","(53.51623846, -113.5898041)"
"Northwest","Lynnwood Park","15524 – 84 Ave","Green Shack","Jul 3 - Aug 23","10am-6pm weekdays","https://edmonton.ca/greenshacks","53.51623846","-113.5898041","(53.51623846, -113.5898041)"
"Northwest","Maple Leaf Park (Griesbach)","14300 102A St","Green Shack","Jul 3 - Aug 23","10am-1:30pm weekdays","https://edmonton.ca/greenshacks","53.608154","-113.497988","(53.608154, -113.497988)"
"Northwest","Mayfield Park","10920 - 159 St","Green Shack","Jul 3 - Aug 23","2:30-6pm weekdays","https://edmonton.ca/greenshacks","53.55493","-113.596374","(53.55493, -113.596374)"
"Northwest","McQueen Park","10825 McQueen Rd","Pop Up Play","Jul 3 - Aug 23","Tuesdays & Thursdays: 10am-1:30pm","https://edmonton.ca/popupplay","53.554513","-113.572164","(53.554513, -113.572164)"
"Northwest","Meadowlark Park","15961 92 Ave NW","Green Shack","Jul 3 - Aug 23","2:30-6pm weekdays","https://edmonton.ca/greenshacks","53.526684","-113.595618","(53.526684, -113.595618)"
"Northwest","North Glenora Park","13535 – 109A Ave","Green Shack","Jul 3 - Aug 23","10am-1:30pm weekdays","https://edmonton.ca/greenshacks","53.555764","-113.557017","(53.555764, -113.557017)"
"Northwest","North Glenora Park","13535 – 109A Ave","Water Play","Jul 3 - Aug 23","10am-1:30pm weekdays","https://edmonton.ca/waterplay","53.555764","-113.557017","(53.555764, -113.557017)"
"Northwest","Oleskiw (Wolf Willow Park)","887 Wanyandi Rd","Pop Up Play","Jul 3 - Aug 23","Tuesdays & Fridays: 2:30-6pm","https://edmonton.ca/popupplay","53.498842","-113.603202","(53.498842, -113.603202)"
"Northwest","Oxford Park","13104 155 Ave","Green Shack","Jul 3 - Aug 23","2:30-6pm weekdays","https://edmonton.ca/greenshacks","53.617887","-113.54567","(53.617887, -113.54567)"
"Northwest","Parkview Park","9135 – 146 St","Green Shack","Jul 3 - Aug 23","10am-1:30pm weekdays","https://edmonton.ca/greenshacks","53.52600085","-113.5676542","(53.52600085, -113.5676542)"
"Northwest","Patricia Heights Park","16216 - 78 Ave","Pop Up Play","Jul 3 - Aug 23","Tuesdays & Fridays: 10am-1:30pm","https://edmonton.ca/popupplay","53.511385","-113.603933","(53.511385, -113.603933)"
"Northwest","Potter Greens Park","924 Picard Drive","Pop Up Play","Jul 3 - Aug 23","Mondays & Wednesdays: 10am-1:30pm","https://edmonton.ca/popupplay","53.517966","-113.675082","(53.517966, -113.675082)"
"Northwest","Quesnell Heights","39 Quesnell Cres","Pop Up Play","Jul 3 - Aug 23","Mondays & Thursdays:2:30-6pm","https://edmonton.ca/popupplay","53.51015","-113.573755","(53.51015, -113.573755)"
"Northwest","Rapperswill","122 St & Rapperswill Dr","Pop Up Play","Jul 3 - Aug 23","Tuesdays & Thursdays: 2:30-6pm","https://edmonton.ca/popupplay","53.637271","-113.53286","(53.637271, -113.53286)"
"Northwest","Rio Terrace","15504 - 76 Ave","Green Shack","Jul 3 - Aug 23","2:30-6pm weekdays","https://edmonton.ca/greenshacks","53.508659","-113.589428","(53.508659, -113.589428)"
"Northwest","Rio Terrace","15504 - 76 Ave","Water Play","Jul 3 - Aug 23","9am-9pm daily","https://edmonton.ca/waterplay","53.508659","-113.589428","(53.508659, -113.589428)"
"Northwest","Rosenthal","1070 Rosenthal Blvd","Flying Eagle","Jul 23 - 27","10am-1:30pm","https://edmonton.ca/flyingeagle","53.517276","-113.696165","(53.517276, -113.696165)"
"Northwest","Rosenthal","1070 Rosenthal Blvd","Green Shack","Jul 3 - Aug 23","10am-1:30pm weekdays","https://edmonton.ca/greenshacks","53.517276","-113.696165","(53.517276, -113.696165)"
"Northwest","Rosenthal","1070 Rosenthal Blvd","Water Play","Jul 3 - Aug 23","9am-9pm daily","https://edmonton.ca/waterplay","53.517276","-113.696165","(53.517276, -113.696165)"
"Northwest","Secord Park","9550 - 217 St","Flying Eagle","Aug 13 - 17","10am-1:30pm","https://edmonton.ca/flyingeagle","53.533746","-113.68949","(53.533746, -113.68949)"
"Northwest","Secord Park","9550 - 217 St","Green Shack","Jul 3 - Aug 23","10am-1:30pm weekdays","https://edmonton.ca/greenshacks","53.533746","-113.68949","(53.533746, -113.68949)"
"Northwest","Sherwood","93 Ave & 155 St","Pop Up Play","Jul 3 - Aug 23","Mondays & Wednesdays: 2:30-6pm","https://edmonton.ca/popupplay","53.529092","-113.587523","(53.529092, -113.587523)"
"Northwest","St. Francis Xavier Sports Centre","9250 - 163 St","Youth Programs","Jul 16 - Aug 20","Mondays: 5:00-8:00pm","https://edmonton.ca/youth","53.529029","-113.603565","(53.529029, -113.603565)"
"Northwest","Suder Greens Park","290 Suder Greens Drive NW","Green Shack","Jul 3 - Aug 23","10am-1:30pm weekdays","https://edmonton.ca/greenshacks","53.52100924","-113.6844977","(53.52100924, -113.6844977)"
"Northwest","Summerlea Park","9020 – 175 St","Pop Up Play","Jul 3 - Aug 23","Mondays & Wednesdays: 10am-1:30pm","https://edmonton.ca/popupplay","53.52706765","-113.6239219","(53.52706765, -113.6239219)"
"Northwest","Thorncliff Park","8215 – 175 St","Green Shack","Jul 3 - Aug 23","10am-6pm weekdays","https://edmonton.ca/greenshacks","53.51607895","-113.6207344","(53.51607895, -113.6207344)"
"Northwest","Trumpeter","12956 - 202 St","Pop Up Play","Jul 3 - Aug 23","Tuesdays & Thursdays: 10am-1:30pm","https://edmonton.ca/popupplay","53.591153","-113.668439","(53.591153, -113.668439)"
"Northwest","Wedgewood Heights Park","1003 Wedgewood Boulevard","Pop Up Play","Jul 3 - Aug 23","Mondays & Wednesdays: 2:30-6pm","https://edmonton.ca/popupplay","53.48053501","-113.6467743","(53.48053501, -113.6467743)"
"Northwest","Wellington Park","13440 – 132 St","Green Shack","Jul 3 - Aug 23","10am-1:30pm weekdays","https://edmonton.ca/greenshacks","53.59648092","-113.5503554","(53.59648092, -113.5503554)"
"Northwest","Wellington Park","13440 – 132 St","Water Play","Jul 3 - Aug 23","9am-9pm daily","https://edmonton.ca/waterplay","53.59658643","-113.5507273","(53.59658643, -113.5507273)"
"Northwest","West Jasper Place (Arthur Elliot Park)","9620 - 152 St","Green Shack","Jul 3 - Aug 23","2:30-6pm weekdays","https://edmonton.ca/greenshacks","53.534609","-113.583315","(53.534609, -113.583315)"
"Northwest","Westridge Park","505 Wolf Willow Rd","Pop Up Play","Jul 3 - Aug 23","Mondays & Thursdays: 10am-1:30pm","https://edmonton.ca/popupplay","53.5064","-113.603149","(53.5064, -113.603149)"
"Northwest","Westview Village Park","10770 Winterburn Rd NW","Green Shack","Jul 3 - Aug 23","2:30-6pm weekdays","https://edmonton.ca/greenshacks","53.55302335","-113.6923648","(53.55302335, -113.6923648)"
"Northwest","Willowby Park (Ormsby Place)","6315 184 St","Green Shack","Jul 3 - Aug 23","2:30-6pm weekdays","https://edmonton.ca/greenshacks","53.496661","-113.637675","(53.496661, -113.637675)"
"Southeast","Avonmore Park","7902 – 73 Ave","Flying Eagle","Aug 20 - 22","2:30-6pm","https://edmonton.ca/flyingeagle","53.51006636","-113.4482255","(53.51006636, -113.4482255)"
"Southeast","Avonmore Park","7902 – 73 Ave","Green Shack","Jul 3 - Aug 23","2:30-6pm weekdays","https://edmonton.ca/greenshacks","53.51006636","-113.4482255","(53.51006636, -113.4482255)"
"Southeast","Avonmore Park","7902 – 73 Ave","Water Play","Jul 3 - Aug 23","9am-9pm daily","https://edmonton.ca/waterplay","53.51006636","-113.4482255","(53.51006636, -113.4482255)"
"Southeast","Bisset Park","3202 – 37 St","Green Shack","Jul 3 - Aug 23","2:30-6pm weekdays","https://edmonton.ca/greenshacks","53.46185041","-113.3994273","(53.46185041, -113.3994273)"
"Southeast","Bonnie Doon Park","9240 – 93 St","Green Shack","Jul 3 - Aug 23","2:30-6pm weekdays","https://edmonton.ca/greenshacks","53.5274026","-113.4702799","(53.5274026, -113.4702799)"
"Southeast","Bonnie Doon Park","9240 – 93 St","Water Play","Jul 3 - Aug 23","9am-9pm daily","https://edmonton.ca/waterplay","53.5274026","-113.4702799","(53.5274026, -113.4702799)"
"Southeast","Capilano","10810 - 54 St","Green Shack","Jul 3 - Aug 23","2:30-6pm weekdays","https://edmonton.ca/greenshacks","53.556463","-113.422725","(53.556463, -113.422725)"
"Southeast","Capilano","10810 - 54 St","Water Play","Jul 3 - Aug 23","9am-9pm daily","https://edmonton.ca/greenshacks","53.556463","-113.422725","(53.556463, -113.422725)"
"Southeast","Charlesworth","5805 - 3 Ave","Green Shack","Jul 3 - Aug 23","10am-1:30pm weekdays","https://edmonton.ca/greenshacks","53.429929","-113.431386","(53.429929, -113.431386)"
"Southeast","Cloverdale (Gallagher Park)","9411 – 97 Ave","Pop Up Play","Jul 3 - Aug 23","Tuesdays & Thursdays: 2:30 - 6pm","https://edmonton.ca/popupplay","53.5359655","-113.4723911","(53.5359655, -113.4723911)"
"Southeast","Cloverdale (Gallagher Park)","9411 – 97 Ave","Water Play","Jul 3 - Aug 23","9am-8pm daily","https://edmonton.ca/waterplay","53.5359655","-113.4723911","(53.5359655, -113.4723911)"
"Southeast","Crawford Plains","4212 – 12 Ave","Green Shack","Jul 3 - Aug 23","10am-1:30pm weekdays","https://edmonton.ca/greenshacks","53.44089133","-113.4043985","(53.44089133, -113.4043985)"
"Southeast","Daly Grove Park","1880 – 37 St","Flying Eagle","Jul 4 - 6","10am-1:30pm weekdays","https://edmonton.ca/flyingeagle","53.44883745","-113.3994041","(53.44883745, -113.3994041)"
"Southeast","Daly Grove Park","1880 – 37 St","Green Shack","Jul 3 - Aug 23","10am-1:30pm weekdays","https://edmonton.ca/greenshacks","53.44883745","-113.3994041","(53.44883745, -113.3994041)"
"Southeast","Ekota Park","1415 Knottwood Rd East NW","Flying Eagle","Jul 9 - 13","10am-1:30pm weekdays","https://edmonton.ca/greenshacks","53.450196","-113.440973","(53.450196, -113.440973)"
"Southeast","Ekota Park","1415 Knottwood Rd East NW","Green Shack","Jul 3 - Aug 23","10am-1:30pm weekdays","https://edmonton.ca/greenshacks","53.450196","-113.440973","(53.450196, -113.440973)"
"Southeast","Ellerslie","319 – 83 St SW","Green Shack","Jul 3 - Aug 23","2:30-6pm weekdays","https://edmonton.ca/greenshacks","53.42984","-113.460606","(53.42984, -113.460606)"
"Southeast","Ellerslie","319 – 83 St SW","Water Play","Jul 3 - Aug 23","9am-9pm daily","https://edmonton.ca/waterplay","53.42984","-113.460606","(53.42984, -113.460606)"
"Southeast","Forest Heights","10150 – 80 St","Pop Up Play","Jul 3 - Aug 23","Mondays & Wednesdays 2:30pm-6pm","https://edmonton.ca/popupplay","53.54346584","-113.4515601","(53.54346584, -113.4515601)"
"Southeast","Forest Heights","10150 – 80 St","Water Play","Jul 3 - Aug 23","9am-9pm daily","https://edmonton.ca/waterplay","53.54346584","-113.4515601","(53.54346584, -113.4515601)"
"Southeast","Fulton Ravine South Skate Park","6503 101 Ave (north of Fire Hall)","Skate Park","Jun 2 - Aug 26","Mon, Tues, Thurs, Fri: 12:30-8pm, Wed 3:30-8pm","https://edmonton.ca/skateparks","53.5396782","-113.4265577","(53.5396782, -113.4265577)"
"Southeast","Gold Bar Park","4620 – 105 Ave","Flying Eagle","Aug 20 - 22","10am-1:30pm","https://edmonton.ca/flyingeagle","53.54858585","-113.413604","(53.54858585, -113.413604)"
"Southeast","Gold Bar Park","4620 – 105 Ave","Green Shack","Jul 3 - Aug 23","10am-1:30pm weekdays","https://edmonton.ca/greenshacks","53.54858585","-113.413604","(53.54858585, -113.413604)"
"Southeast","Gold Bar Park","4620 – 105 Ave","Water Play","Jul 3 - Aug 23","9am-9pm daily","https://edmonton.ca/waterplay","53.54858585","-113.413604","(53.54858585, -113.413604)"
"Southeast","Greenview Park","5904 – 38 Ave","Flying Eagle","July 16 - 20","10am-1:30pm","https://edmonton.ca/flyingeagle","53.54858585","-113.413604","(53.54858585, -113.413604)"
"Southeast","Greenview Park","5904 – 38 Ave","Green Shack","Jul 3 - Aug 23","10am-1:30pm weekdays","https://edmonton.ca/greenshacks","53.47364029","-113.4264481","(53.47364029, -113.4264481)"
"Southeast","Hillview","355 Woodvale Road East","Green Shack","Jul 3 - Aug 23","2:30-6pm weekdays","https://edmonton.ca/greenshacks","53.468053","-113.427733","(53.468053, -113.427733)"
"Southeast","Holyrood Park","9411 Holyrood Rd","Green Shack","Jul 3 - Aug 23","10am-1:30pm weekdays","https://edmonton.ca/greenshacks","53.531257","-113.453094","(53.531257, -113.453094)"
"Southeast","Holyrood Park","9411 Holyrood Rd","Water Play","Jul 3 - Aug 23","9am-9pm daily","https://edmonton.ca/waterplay","53.531257","-113.453094","(53.531257, -113.453094)"
"Southeast","Idylwylde Park","8631 - 81 St",,"Closed for Season",,,"53.523374","-113.452119","(53.523374, -113.452119)"
"Southeast","Jackie Parker Park Spray Park","4540 - 50 St","Water Play","Jul 3 - Aug 23","Staffed 11am-6pm daily; operational hours 9am-9pm","https://edmonton.ca/waterplay","53.48445711","-113.4244773","(53.48445711, -113.4244773)"
"Southeast","Jackson Heights (Annie May Jackson Park)","311 Jackson Rd NW","Flying Eagle","Jul 16 - 20","2:30-6pm weekdays","https://edmonton.ca/flyingeagle","53.48334998","-113.4074189","(53.48334998, -113.4074189)"
"Southeast","Jackson Heights (Annie May Jackson Park)","311 Jackson Rd NW","Green Shack","Jul 3 - Aug 23","2:30-6pm weekdays",,"53.48334998","-113.4074189","(53.48334998, -113.4074189)"
"Southeast","Kameyosek Park","260 Lakewood Rd East","Green Shack","Jul 3 - Aug 23","2:30-6pm weekdays","https://edmonton.ca/greenshacks","53.46123865","-113.4433439","(53.46123865, -113.4433439)"
"Southeast","Kenilworth Park","7104 – 87 Ave","Pop Up Play","Jul 3 - Aug 23","Tuesdays & Thursdays 10am-1:30pm","https://edmonton.ca/popupplay","53.52254858","-113.4375198","(53.52254858, -113.4375198)"
"Southeast","Kenilworth Park","7104 – 87 Ave","Water Play","Jul 3 - Aug 23","9am-9pm daily","https://edmonton.ca/waterplay","53.52274369","-113.4376304","(53.52274369, -113.4376304)"
"Southeast","King Edward Park","7708 85 St","Green Shack","Jul 3 - Aug 23","10am-1:30pm weekdays","https://edmonton.ca/greenshacks","53.513238","-113.461348","(53.513238, -113.461348)"
"Southeast","King Edward Park","7708 85 St","Water Play","Jul 3 - Aug 23","9am-9pm daily","https://edmonton.ca/waterplay","53.513238","-113.461348","(53.513238, -113.461348)"
"Southeast","Kiniski Gardens Park","4104 – 41 St","Green Shack","Jul 3 - Aug 23","10am-1:30pm weekdays","https://edmonton.ca/greenshacks","53.47780121","-113.404161","(53.47780121, -113.404161)"
"Southeast","Larkspur Park","2845 – 43A Ave","Green Shack","Jul 3 - Aug 23","10am-1:30pm weekdays","https://edmonton.ca/greenshacks","53.48040114","-113.3870833","(53.48040114, -113.3870833)"
"Southeast","Laurel","3304 - 21 Ave","Flying Eagle","Jul 9 - 13","2:30-6pm weekdays","https://edmonton.ca/flyingeagle","53.451159","-113.385606","(53.451159, -113.385606)"
"Southeast","Laurel","3304 - 21 Ave","Green Shack","Jul 2 - Aug 21","2:30-6pm weekdays","https://edmonton.ca/greenshacks","53.451159","-113.385606","(53.451159, -113.385606)"
"Southeast","Lee Ridge","440 Millbourne Road East","Flying Eagle","Jul 23 - 27","2:30-6pm weekdays","https://edmonton.ca/flyingeagle","53.471402","-113.4428","(53.471402, -113.4428)"
"Southeast","Lee Ridge","440 Millbourne Road East","Green Shack","Jul 3 - Aug 23","2:30-6pm weekdays","https://edmonton.ca/greenshacks","53.471402","-113.4428","(53.471402, -113.4428)"
"Southeast","Maple Ridge (Maple Downs Park)","1515 – 66 Ave","Flying Eagle","Aug 13 - 17","2:30-6pm weekdays","https://edmonton.ca/flyingeagle","53.502883","-113.365966","(53.502883, -113.365966)"
"Southeast","Maple Ridge (Maple Downs Park)","1515 – 66 Ave","Green Shack","Jul 3 - Aug 23","2:30-6pm weekdays","https://edmonton.ca/greenshacks","53.502883","-113.365966","(53.502883, -113.365966)"
"Southeast","Menisa Park","943 Knottwood Rd South","Green Shack","Jul 3 - Aug 23","10am-1:30pm weekdays","https://edmonton.ca/greenshacks","53.44277784","-113.4473191","(53.44277784, -113.4473191)"
"Southeast","Meyokumin Park","5811 – 19A Ave","Green Shack","Jul 3 - Aug 23","2:30-6pm weekdays","https://edmonton.ca/greenshacks","53.45006584","-113.4294087","(53.45006584, -113.4294087)"
"Southeast","Meyonohk Park","1840 Lakewood Rd South","Green Shack","Jul 3 - Aug 23","2:30-6pm weekdays","https://edmonton.ca/greenshacks","53.454421","-113.454922","(53.454421, -113.454922)"
"Southeast","Michael’s Park","980 Millbourne Rd East","Green Shack","Jul 3 - Aug 23","10am-1:30pm weekdays","https://edmonton.ca/greenshacks","53.48043","-113.446201","(53.48043, -113.446201)"
"Southeast","Mill Woods Recreation Centre","7207 - 28 Ave","Youth Programs","Jul 6 - Aug 17","Fridays: 5:00-8:00pm","https://edmonton.ca/youth","53.456821","-113.444107","(53.456821, -113.444107)"
"Southeast","Mill Woods Skate Park","7207 - 28 Ave","Skate Park","Jun 2 - Aug 26","Mon, Tues, Thurs, Fri: 12:30-8pm, Wed 3:30-8pm","https://edmonton.ca/skateparks","53.4584006","-113.4416473","(53.47970336, -113.4416473)"
"Southeast","Mill Woods Spray Park","2730 – 66 St","Water Play","Jul 3 - Aug 23","Staffed 11am-6pm daily; operational hours 9am-9pm daily","https://edmonton.ca/waterplay","53.457097","-113.434571","(53.457097, -113.434571)"
"Southeast","Minchau Park","3724 Mill Woods Rd East","Green Shack","Jul 3 - Aug 23","2:30-6pm weekdays","https://edmonton.ca/greenshacks","53.46889291","-113.4087741","(53.46889291, -113.4087741)"
"Southeast","Ottewell Park","5920 – 93A Ave","Flying Eagle","Jul 30 - Aug 3","2:30-6pm weekdays","https://edmonton.ca/flyingeagle","53.53072635","-113.4241739","(53.53072635, -113.4241739)"
"Southeast","Ottewell Park","5920 – 93A Ave","Green Shack","Jul 3 - Aug 23","2:30-6pm weekdays","https://edmonton.ca/greenshacks","53.53090834","-113.4239603","(53.53090834, -113.4239603)"
"Southeast","Ottewell Park","5920 – 93A Ave","Water Play","Jul 3 - Aug 23","9am-9pm daily","https://edmonton.ca/waterplay","53.53072635","-113.4241739","(53.53072635, -113.4241739)"
"Southeast","Pollard Meadows Park","1751 – 48 St","Green Shack","Jul 3 - Aug 23","2:30-6pm weekdays","https://edmonton.ca/greenshacks","53.44779265","-113.4124863","(53.44779265, -113.4124863)"
"Southeast","Richfield Park","7910 – 36 Ave","Green Shack","Jul 3 - Aug 23","10am-6pm weekdays","https://edmonton.ca/greenshacks","53.46894707","-113.4524024","(53.46894707, -113.4524024)"
"Southeast","Sakaw","5820 - 11 A Ave","Green Shack","Jul 3 - Aug 23","10am-1:30pm weekdays","https://edmonton.ca/greenshacks","53.441266","-113.428481","(53.441266, -113.428481)"
"Southeast","Satoo Park","445 Knottwood Rd West","Flying Eagle","Jul 4 - 6","2:30-6pm weekdays","https://edmonton.ca/flyingeagle","53.44626429","-113.4591132","(53.44626429, -113.4591132)"
"Southeast","Satoo Park","445 Knottwood Rd West","Green Shack","Jul 3 - Aug 23","2:30-6pm weekdays","https://edmonton.ca/greenshacks","53.44626429","-113.4591132","(53.44626429, -113.4591132)"
"Southeast","Silver Berry Park","485 Silverberry Rd NW","Green Shack","Jul 3 - Aug 23","2:30-6pm weekdays","https://edmonton.ca/greenshacks","53.4577976","-113.3844913","(53.45751573, -113.384321)"
"Southeast","Strathearn (Ecole Gabrielle-Roy)","8728 - 93 Ave","Flying Eagle","Jul 3 - Aug 23","2:30-6pm weekdays","https://edmonton.ca/greenshacks","53.530073","-113.462924","(53.530073, -113.462924)"
"Southeast","Strathearn (Ecole Gabrielle-Roy)","8728 - 93 Ave","Green Shack","Jul 3 - Aug 23","2:30-6pm weekdays","https://edmonton.ca/greenshacks","53.530073","-113.462924","(53.530073, -113.462924)"
"Southeast","Strathearn (Ecole Gabrielle-Roy)","8728 - 93 Ave","Water Play","Jul 3 - Aug 23","2:30-6pm weekdays","https://edmonton.ca/greenshacks","53.530073","-113.462924","(53.530073, -113.462924)"
"Southeast","Summerside Park","4110 Savaryn Drive SW","Flying Eagle","Aug 7 - 10","2:30-6pm","https://edmonton.ca/flyingeagle","53.41292","-113.46159","(53.41292, -113.46159)"
"Southeast","Summerside Park","4110 Savaryn Drive SW","Green Shack","Jul 3 - Aug 23","2:30-6pm weekdays","https://edmonton.ca/greenshacks","53.41292","-113.46159","(53.41292, -113.46159)"
"Southeast","Tamarack Park","430 Tamarack Green","Flying Eagle","Jul 23 - 27","10am-1:30pm","https://edmonton.ca/flyingeagle","53.470313","-113.360984","(53.470313, -113.360984)"
"Southeast","Tamarack Park","430 Tamarack Green","Green Shack","Jul 3 - Aug 23","10am-1:30pm weekdays","https://edmonton.ca/greenshacks","53.470313","-113.360984","(53.470313, -113.360984)"
"Southeast","Terrace Heights","9835 - 71 St","Green Shack","Jul 3 - Aug 23","10am-1:30pm weekdays","https://edmonton.ca/greenshacks","53.539217","-113.435973","(53.539217, -113.435973)"
"Southeast","The Meadows Community Recreation Centre","2704 - 17 St","Youth Programs","Jul 9 - Aug 20","Mondays: 5:00-8:00pm","https://edmonton.ca/youth","53.457943","-113.370396","(53.457943, -113.370396)"
"Southeast","The Orchards at Ellerslie","4155 Orchards Drive SW","Green Shack","Jul 2 - Aug 21","10am-1:30pm weekdays","https://edmonton.ca/greenshacks","53.41046","-113.474366","(53.41046, -113.474366)"
"Southeast","Tipaskan Park","1220 Lakewood Rd West","Green Shack","Jul 3 - Aug 23","10am- 6pm weekdays","https://edmonton.ca/greenshacks","53.463126","-113.460259","(53.463126, -113.460259)"
"Southeast","Walker","1442 Watt Drive SW","Flying Eagle","Aug 7 - 10","10am-1:30pm","https://edmonton.ca/flyingeagle","53.415366","-113.435763","(53.415366, -113.435763)"
"Southeast","Walker","1442 Watt Drive SW","Green Shack","Jul 3 - Aug 23","10am-1:30pm weekdays","https://edmonton.ca/greenshacks","53.415366","-113.435763","(53.415366, -113.435763)"
"Southeast","Weinlos","2911 - 48 St","Green Shack","Jul 3 - Aug 23","10am-1:30pm weekdays","https://edmonton.ca/greenshacks","53.461071","-113.414812","(53.461071, -113.414812)"
"Southeast","Wild Rose (Kitlitz Park)","2850 – 36A Ave","Flying Eagle","Aug 13 - 17","10am-1:30pm","https://edmonton.ca/greenshacks","53.46993362","-113.3850353","(53.46993362, -113.3850353)"
"Southeast","Wild Rose (Kitlitz Park)","2850 – 36A Ave","Green Shack","Jul 3 - Aug 23","10am-1:30pm weekdays","https://edmonton.ca/greenshacks","53.46993362","-113.3850353","(53.46993362, -113.3850353)"
"Southwest","Allard Park","660 Allard Blvd SW","Green Shack","Jul 3 - Aug 23","2:30-6pm weekdays","https://edmonton.ca/greenshacks","53.400138","-113.534167","(53.400138, -113.534167)"
"Southwest","Allendale Park","6305 – 105A St","Green Shack","Jul 3 - Aug 23","10am-1:30pm weekdays","https://edmonton.ca/greenshacks","53.50097298","-113.5024397","(53.50097298, -113.5024397)"
"Southwest","Ambleside Park","181 Ambleside Drive SW","Green Shack","Jul 3 - Aug 23","10am-1:30pm weekdays","https://edmonton.ca/greenshacks","53.43332","-113.604248","(53.43332, -113.604248)"
"Southwest","Argyll","6750 - 88 St","Pop Up Play","Jul 2 - Aug 21","Mondays & Wednesdays: 10am-1:30pm","https://edmonton.ca/popupplay","53.505252","-113.463115","(53.505252, -113.463115)"
"Southwest","Aspen Gardens (Westbrook Park )","12015 – 39A Ave","Flying Eagle","Jul 4 - 6","2:30-6pm","https://edmonton.ca/flyingeagle","53.47548801","-113.5407234","(53.47548801, -113.5407234)"
"Southwest","Aspen Gardens (Westbrook Park )","12015 – 39A Ave","Green Shack","Jul 3 - Aug 23","2:30-6pm weekdays","https://edmonton.ca/greenshacks","53.47548801","-113.5407234","(53.47548801, -113.5407234)"
"Southwest","Aspen Gardens (Westbrook Park )","12015 – 39A Ave","Water Play","Jul 3 - Aug 23","9am-9pm daily","https://edmonton.ca/waterplay","53.47548801","-113.5407234","(53.47548801, -113.5407234)"
"Southwest","ATB Arts Barn","10330 - 84 Ave","Youth Events- Arts Jam","Jul 31","1:00 pm","https://edmonton.ca/youth","53.520034","-113.495711","(53.520034, -113.495711)"
"Southwest","Bears Paw","16 Ave & 105 St","Pop Up Play","Jul 3 - Aug 23","Mondays & Wednesday 10am-1:30pm","https://edmonton.ca/popupplay","53.444222","-113.499213","(53.444222, -113.499213)"
"Southwest","Belgravia","11540-73 Ave","Pop Up Play","Jul 3 - Aug 23","Wednesdays & Fridays 2:30-6pm","https://edmonton.ca/popupplay","53.509816","-113.53064","(53.509816, -113.53064)"
"Southwest","Blackburne Park","747 Blackwood Crescent","Pop Up Play","Jul 3 - Aug 23","Tuesdays & Fridays: 10am-1:30pm","https://edmonton.ca/popupplay","53.42938028","-113.4994936","(53.42938028, -113.4994936)"
"Southwest","Blackmud Creek","2099 Blackmud Creek Drive SW","Green Shack","Jul 3 - Aug 23","10am-1:30pm weekdays","https://edmonton.ca/greenshacks","53.420754","-113.514879","(53.420754, -113.514879)"
"Southwest","Blue Quill Community League","11304 - 25 Ave","Youth Events- Hoops Basketball Tournament","Aug 16","12:30 pm","https://edmonton.ca/youth","53.458293","-113.524831","(53.458293, -113.524831)"
"Southwest","Blue Quill Estates","2616 - 119 Street","Green Shack","Jul 3 - Aug 23","10am-1:30pm weekdays","https://edmonton.ca/greenshacks","53.45794003","-113.5249109","(53.45794003, -113.5249109)"
"Southwest","Blue Quill Park","11304 – 25 Ave NW","Green Shack","Jul 3 - Aug 23","2:30-6pm weekdays","https://edmonton.ca/greenshacks","53.45794003","-113.5249109","(53.45794003, -113.5249109)"
"Southwest","Brander Gardens Park","14815 – 56 Ave","Green Shack","Jul 3 - Aug 23","2:30-6pm weekdays","https://edmonton.ca/greenshacks","53.49367747","-113.5756883","(53.49367747, -113.5756883)"
"Southwest","Brookside Park","5320 – 143 St","Flying Eagle","Jul 4 - 6","10am-1:30pm","https://edmonton.ca/flyingeagle","53.491289","-113.567262","(53.491289, -113.567262)"
"Southwest","Brookside Park","5320 – 143 St","Green Shack","Jul 3 - Aug 23","10am-1:30pm weekdays","https://edmonton.ca/greenshacks","53.491289","-113.567262","(53.491289, -113.567262)"
"Southwest","Bulyea Heights  (G.M.V Bulyea Park)","300 Bulyea Rd","Green Shack","Jul 3 - Aug 23","10am-1:30pm weekdays","https://edmonton.ca/greenshacks","53.472809","-113.571937","(53.472809, -113.571937)"
"Southwest","Carter Crest (Robert Carter Park)","1078 Carter Crest Rd","Pop Up Play","Jul 3 - Aug 23","Tuesdays & Thursdays 2:30-6pm","https://edmonton.ca/popupplay","53.464505","-113.574181","(53.464505, -113.574181)"
"Southwest","Chappelle","1137 Chappelle Blvd SW","Flying Eagle","Jul 4 - 6","10am-1:30pm","https://edmonton.ca/flyingeagle","53.4068089","-113.5731357","(53.4068089, -113.5731357)"
"Southwest","Chappelle","1137 Chappelle Blvd SW","Green Shack","Jul 3 - Aug 23","10am-1:30pm daily","https://edmonton.ca/greenshacks","53.4068089","-113.5731357","(53.4068089, -113.5731357)"
"Southwest","Duggan Park","3728 – 106 St","Flying Eagle","Jul 30 - Aug 3","10am-1:30pm","https://edmonton.ca/flyingeagle","53.47321284","-113.5064169","(53.47321284, -113.5064169)"
"Southwest","Duggan Park","3728 – 106 St","Green Shack","Jul 3 - Aug 23","10am-1:30pm weekdays","https://edmonton.ca/greenshacks","53.47321284","-113.5064169","(53.47321284, -113.5064169)"
"Southwest","Empire Park","4804 – 107 St","Flying Eagle","Aug 13 - 17","10am-1:30pm","https://edmonton.ca/flyingeagle","53.48600609","-113.5086132","(53.48600609, -113.5086132)"
"Southwest","Empire Park","4804 – 107 St","Green Shack","Jul 3 - Aug 23","10am-1:30pm weekdays","https://edmonton.ca/greenshacks","53.48600609","-113.5086132","(53.48600609, -113.5086132)"
"Southwest","Ermineskin Park","10704 – 25 Ave","Green Shack","Jul 3 - Aug 23","10am-6pm weekdays","https://edmonton.ca/greenshacks","53.45686074","-113.5060228","(53.45686074, -113.5060228)"
"Southwest","Falconer Heights Park","1124 Falconer Rd","Pop Up Play","Jul 3 - Aug 23","Tuesdays & Thursdays: 10am-1:30pm","https://edmonton.ca/popupplay","53.46315439","-113.5884947","(53.46315439, -113.5884947)"
"Southwest","Glenridding Area","2340 Glenridding Blvd SW","Pop Up Play","Jul 3 - Aug 23","Mondays & Thursdays: 10am-1:30pm","https://edmonton.ca/popupplay","53.420656","-113.602856","(53.420656, -113.602856)"
"Southwest","Grandview School Park","6225 – 127 St","Flying Eagle","Jul 23 - 27","10am-1:30pm","https://edmonton.ca/flyingeagle","53.49903225","-113.5466469","(53.49903225, -113.5466469)"
"Southwest","Grandview School Park","6225 – 127 St","Green Shack","Jul 3 - Aug 23","10am-1:30pm weekdays","https://edmonton.ca/greenshacks","53.49903225","-113.5466469","(53.49903225, -113.5466469)"
"Southwest","Greenfield Park","3755 – 114 St","Green Shack","Jul 3 - Aug 23","2:30-6pm weekdays","https://edmonton.ca/greenshacks","53.473601","-113.527168","(53.473601, -113.527168)"
"Southwest","Greenfield Park","3755 – 114 St","Water Play","Jul 2 - Aug 21","9am-9pm daily","https://edmonton.ca/waterplay","53.473601","-113.527168","(53.473601, -113.527168)"
"Southwest","Haddow Park","2097 Haddow Drive","Flying Eagle","Jul 23 - 27","2:30-6pm","https://edmonton.ca/flyingeagle","53.45346196","-113.5969904","(53.45346196, -113.5969904)"
"Southwest","Haddow Park","2097 Haddow Drive","Green Shack","Jul 3 - Aug 23","2:30-6pm weekdays","https://edmonton.ca/greenshacks","53.45346196","-113.5969904","(53.45346196, -113.5969904)"
"Southwest","Haddow Park","2097 Haddow Drive","Water Play","Jul 3 - Aug 23","9am-9pm daily","https://edmonton.ca/waterplay","53.45346196","-113.5969904","(53.45346196, -113.5969904)"
"Southwest","Hazeldean Park","9630 66 Ave","Flying Eagle","Jul 30 - Aug 3","2:30-6pm","https://edmonton.ca/flyingeagle","53.503325","-113.477543","(53.503325, -113.477543)"
"Southwest","Hazeldean Park","9630 66 Ave","Green Shack","Jul 3 - Aug 23","2:30-6pm weekdays","https://edmonton.ca/waterplay","53.503325","-113.477543","(53.503325, -113.477543)"
"Southwest","Hazeldean Park","9630 66 Ave","Water Play","Jul 3 - Aug 23","9am-9pm daily","https://edmonton.ca/waterplay","53.503325","-113.477543","(53.503325, -113.477543)"
"Southwest","Henderson Park","3408 Henderson St","Flying Eagle","Aug 7 - 10","10am-1:30pm","https://edmonton.ca/flyingeagle","53.46886003","-113.5978326","(53.46886003, -113.5978326)"
"Southwest","Henderson Park","3408 Henderson St","Green Shack","Jul 3 - Aug 23","10am-1:30pm weekdays","https://edmonton.ca/greenshacks","53.46886003","-113.5978326","(53.46886003, -113.5978326)"
"Southwest","Hodgson Park","503 Hodgson Rd","Green Shack","Jul 3 - Aug 23","10am-1:30pm weekdays","https://edmonton.ca/greenshacks","53.45838135","-113.5588556","(53.45838135, -113.5588556)"
"Southwest","Kaskitayo Skate Park","1921 – 111 St","Skate Park","Jun 2 - Aug 26","Mon, Tues, Thurs, Fri: 12:30-8pm, Wed 3:30-8pm","https://edmonton.ca/skateparks","53.448999","-113.515935","(53.448999, -113.515935)"
"Southwest","Keheewin Park","10710 – 19 Ave","Green Shack","Jul 3 - Aug 23","2:30-6pm weekdays","https://edmonton.ca/greenshacks","53.44840567","-113.5029965","(53.44840567, -113.5029965)"
"Southwest","Keswick Area","3641 Keswick Blvd","Green Shack","Jul 3 - Aug 23","10am-1:30pm weekdays","https://edmonton.ca/greenshacks","53.419551","-113.63974","(53.419551, -113.63974)"
"Southwest","Kinsmen Sports Centre","9100 Walterdale Hill NW","Youth Events- YegYouth Dive in Movie","Jul 10","6:15 pm","https://edmonton.ca/youth","53.526188","-113.505312","(53.526188, -113.505312)"
"Southwest","Kinsmen Spray Park","9100 Walterdale Hill","Water Play","Jun - Sep","No staffed hours;operational hours 9am-9pm","https://edmonton.ca/waterplay","53.526645","-113.505925","(53.526645, -113.505925)"
"Southwest","Lansdowne Park","4915 – 124 St","Green Shack","Jul 3 - Aug 23","10am-1:30pm weekdays","https://edmonton.ca/greenshacks","53.48682666","-113.5460255","(53.48682666, -113.5460255)"
"Southwest","Lansdowne Park","4915 – 124 St","Water Play","Jul 3 - Aug 23","9am-9pm daily","https://edmonton.ca/waterplay","53.48682666","-113.5460255","(53.48682666, -113.5460255)"
"Southwest","Leger (Terwillegar Heights District Park)","750 Leger Way","Green Shack","Jul 3 - Aug 23","10am-6pm weekdays","https://edmonton.ca/greenshacks","53.460005","-113.57583","(53.460005, -113.57583)"
"Southwest","Lendrum Place Park","11335 – 57 Ave","Green Shack","Jul 3 - Aug 23","2:30-6pm weekdays","https://edmonton.ca/greenshacks","53.494493","-113.524967","(53.494493, -113.524967)"
"Southwest","Lendrum Place Park","11335 – 57 Ave","Water Play","Jul 3 - Aug 23","9am-9pm daily","https://edmonton.ca/waterplay","53.494493","-113.524967","(53.494493, -113.524967)"
"Southwest","MacEwan Park","250 MacEwan Rd SW","Green Shack","Jul 3 - Aug 23","10am-1:30pm weekdays","https://edmonton.ca/greenshacks","53.42928922","-113.530653","(53.42928922, -113.530653)"
"Southwest","Mactaggart","5025 McLuhan Raod","Green Shack","Jul 3 - Aug 23","2:30-6pm weekdays","https://edmonton.ca/greenshacks","53.43637","-113.565641","(53.43637, -113.565641)"
"Southwest","Magrath Park","243 Magrath Boulevard","Green Shack","Jul 3 - Aug 23","10am-1:30pm weekdays","https://edmonton.ca/greenshacks","53.44959727","-113.5596055","(53.44959727, -113.5596055)"
"Southwest","Malmo Plains Park","1525 – 48 Ave","Flying Eagle","Jul 16 - 20","10am-1:30pm","https://edmonton.ca/flyingeagle","53.48507778","-113.5304055","(53.48507778, -113.5304055)"
"Southwest","Malmo Plains Park","1525 – 48 Ave","Green Shack","Jul 3 - Aug 23","10am-6pm weekdays","https://edmonton.ca/greenshacks","53.48507778","-113.5304055","(53.48507778, -113.5304055)"
"Southwest","McKernan Park","7535 – 112 St","Green Shack","Jul 3 - Aug 23","10am-1:30pm weekdays","https://edmonton.ca/greenshacks","53.51095569","-113.5191369","(53.51095569, -113.5191369)"
"Southwest","McKernan Park","7535 – 112 St","Water Play","Jul 3 - Aug 23","9am-9pm daily","https://edmonton.ca/waterplay","53.51095569","-113.5191369","(53.51095569, -113.5191369)"
"Southwest","Ogilvie Ridge Park","951 Ogilvie Boulevard","Pop Up Play","Jul 3 - Aug 23","Mondays & Thursdays: 2:30-6pm","https://edmonton.ca/popupplay","53.4633217","-113.5621781","(53.4633217, -113.5621781)"
"Southwest","Paisley","3061 Paisley Green SW","Green Shack","Jul 3 - Aug 23","Tuesdays & Fridays: 2:30-6pm","https://edmonton.ca/popupplay","53.414459","-113.560467","(53.414459, -113.560467)"
"Southwest","Parkallen (Ellingson Park)","11104 – 65 Ave","Flying Eagle","Jul 16 - 20","2:30-6pm","https://edmonton.ca/flyingeagle","53.50315549","-113.5182273","(53.50315549, -113.5182273)"
"Southwest","Parkallen (Ellingson Park)","11104 – 65 Ave","Green Shack","Jul 3 - Aug 23","2:30-6pm weekdays","https://edmonton.ca/greenshacks","53.50315549","-113.5182273","(53.50315549, -113.5182273)"
"Southwest","Parkallen (Ellingson Park)","11104 – 65 Ave","Water Play","Jul 3 - Aug 23","9am-9pm","https://edmonton.ca/waterplay","53.50315549","-113.5182273","(53.50315549, -113.5182273)"
"Southwest","Pleasantview (Angus Murray Park )","5719 – 109 St","Green Shack","Jul 3 - Aug 23","2:30-6pm weekdays","https://edmonton.ca/greenshacks","53.4939052","-113.5105841","(53.4939052, -113.5105841)"
"Southwest","Queen Alexandra Park","10722 – 73 Ave","Green Shack","Jul 3 - Aug 23","2:30-6pm weekdays","https://edmonton.ca/greenshacks","53.509437","-113.50914","(53.509437, -113.50914)"
"Southwest","Queen Alexandra Park","10722 – 73 Ave","Water Play","Jul 3 - Aug 23","9am-9pm daily","https://edmonton.ca/waterplay","53.509437","-113.50914","(53.509437, -113.50914)"
"Southwest","Queen Elizabeth Outdoor Pool","9170 Walterdale hill","Youth Events- YegYouth Pool Party","Jul 19","6:30 pm","https://edmonton.ca/youth","53.527879","-113.505648","(53.527879, -113.505648)"
"Southwest","Ramsay Heights  (James Ramsay Park)","15010 – 43 Ave","Green Shack","Jul 3 - Aug 23","10am-1:30pm weekdays","https://edmonton.ca/greenshacks","53.48094664","-113.5813011","(53.48094664, -113.5813011)"
"Southwest","Rhatigan Ridge (Thomas Rhatigan Park)","270 Rhatigan Rd East","Green Shack","Jul 3 - Aug 23","2:30-6pm weekdays","https://edmonton.ca/greenshacks","53.4746","-113.583024","(53.4746, -113.583024)"
"Southwest","Ritchie Park","7727 - 98 St","Green Shack","Jul 3 - Aug 23","2:30-6pm weekdays","https://edmonton.ca/greenshacks","53.5139528","-113.4814372","(53.5139528, -113.4814372)"
"Southwest","Ritchie Park","7727 - 98 St","Water Play","Jul 3 - Aug 23","9am-9pm daily","https://edmonton.ca/waterplay","53.5139528","-113.4814372","(53.5139528, -113.4814372)"
"Southwest","Royal Gardens Park","4030 – 117 St","Green Shack","Jul 3 - Aug 23","10am-1:30pm weekdays","https://edmonton.ca/greenshacks","53.47820653","-113.5357677","(53.47820653, -113.5357677)"
"Southwest","Royal Gardens Park","4030 - 117 St","Water Play","May 20 - Sep 2","9am-9pm daily","https://edmonton.ca/waterplay","53.477681","-113.53525","(53.477681, -113.53525)"
"Southwest","Rutherford (Alexander Rutherford Park)","1327 Rutherford Rd SW","Flying Eagle","Aug 20 - 22","2:30-6pm","https://edmonton.ca/flyingeagle","53.419136","-113.536337","(53.419136, -113.536337)"
"Southwest","Rutherford (Alexander Rutherford Park)","1327 Rutherford Rd SW","Green Shack","Jul 3 - Aug 23","2:30-6pm weekdays","https://edmonton.ca/greenshacks","53.419136","-113.536337","(53.419136, -113.536337)"
"Southwest","Skyrattler Park","1058 Saddleback Rd","Green Shack","Jul 3 - Aug 23","10am-1:30pm weekdays","https://edmonton.ca/greenshacks","53.45048591","-113.52457","(53.45048591, -113.52457)"
"Southwest","South Terwillegar Park","7170 South Terwillegar Drive","Flying Eagle","Aug 7 - 10","2:30-6pm","https://edmonton.ca/flyingeagle","53.440333","-113.578642","(53.440333, -113.578642)"
"Southwest","South Terwillegar Park","7170 South Terwillegar Drive","Green Shack","Jul 3 - Aug 23","2:30-6pm weekdays","https://edmonton.ca/greenshacks","53.440333","-113.578642","(53.440333, -113.578642)"
"Southwest","South Terwillegar Park","7170 South Terwillegar Drive","Water Play","Jul 3 - Aug 23","9am-9pm daily","https://edmonton.ca/waterplay","53.440333","-113.578642","(53.440333, -113.578642)"
"Southwest","Steinhauer Park","10707 – 32A Ave NW","Flying Eagle","Aug 13 - 17","2:30-6pm","https://edmonton.ca/flyingeagle","53.46448029","-113.5047448","(53.46448029, -113.5047448)"
"Southwest","Steinhauer Park","10707 – 32A Ave NW","Green Shack","Jul 3 - Aug 23","2:30-6pm weekdays","https://edmonton.ca/greenshacks","53.46448029","-113.5047448","(53.46448029, -113.5047448)"
"Southwest","Strathcona Park","10139 - 87 Ave","Green Shack","Jul 3 - Aug 23","9am-9pm daily","https://edmonton.ca/waterplay","53.522394","-113.493175","(53.522394, -113.493175)"
"Southwest","Strathcona Park","10139 - 87 Ave","Water Play","Jul 3 - Aug 23","9am-9pm daily","https://edmonton.ca/waterplay","53.522394","-113.493175","(53.522394, -113.493175)"
"Southwest","Sweet Grass Park","11351 – 31 Ave","Flying Eagle","Aug 20 - 22","10am-1:30pm","https://edmonton.ca/flyingeagle","53.46304805","-113.5292585","(53.46304805, -113.5292585)"
"Southwest","Sweet Grass Park","11351 – 31 Ave","Green Shack","Jul 3 - Aug 23","10am-1:30pm weekdays","https://edmonton.ca/greenshacks","53.46304805","-113.5292585","(53.46304805, -113.5292585)"
"Southwest","Terwillegar Community Recreation Centre","2051 Leger Rd","Youth Programs","Jul 4 - Aug 22","Wednesdays: 5:00-8:00pm","https://edmonton.ca/youth","53.458619","-113.582333","(53.458619, -113.582333)"
"Southwest","Terwillegar Town  (Tomlinson Park)","1799 Tomlinson Common","Green Shack","Jul 3 - Aug 23","10am-1:30pm weekdays","https://edmonton.ca/greenshacks","53.449984","-113.58674","(53.449984, -113.58674)"
"Southwest","Twin Brooks Park","1120 – 113 St","Green Shack","Jul 3 - Aug 23","10am-1:30pm weekdays","https://edmonton.ca/greenshacks","53.44301611","-113.5265869","(53.44301611, -113.5265869)"
"Southwest","William Hawrelak Park","9330 Groat Rd","Youth Events- YegYouth Music Festival","Aug 21","1:00 pm","https://edmonton.ca/youth","53.527303","-113.546992","(53.527303, -113.546992)"
"Southwest","Windermere","808 - 174 St SW","Flying Eagle","Jul 9 -13","2:30-6pm","https://edmonton.ca/flyingeagle","53.426742","-113.621159","(53.426742, -113.621159)"
"Southwest","Windermere","808 - 174 St SW","Green Shack","Jul 3 - Aug 23","2:30-6pm weekdays","https://edmonton.ca/greenshacks","53.426742","-113.621159","(53.426742, -113.621159)"
"Southwest","Windsor Park","11840 – 87 Ave","Flying Eagle","Jul 9 -13","2:30-6pm","https://edmonton.ca/flyingeagle","53.52353719","-113.5355589","(53.52353719, -113.5355589)"
"Southwest","Windsor Park","11840 – 87 Ave","Green Shack","Jul 3 - Aug 23","2:30-6pm weekdays","https://edmonton.ca/greenshacks","53.52353719","-113.5355589","(53.52353719, -113.5355589)"
