"building_number","public_asset_name","address","known_asbestos","asbestos_management_plan_in_place","latitude","longitude","location","geometry_point"
"14","Beaver Hills House Park","105 Street & Jasper Avenue","Yes","Yes",,,,
"41","Civil Defence Building","94 Avenue & 142 Street","No","Yes",,,,
"257","Victoria Park - Tennis Court Building","101Street & Kingsway Avenue","No","Yes",,,,
"450","Emily Murphy Park - Cook Shelter","Emily Murphy Road & Groat Rd","No","Yes",,,,
"667","Old Man Creek - Tool Shed","53351 Range Rd 231 (Cloverbar Rd)","No","Yes",,,,
"942","William Nixon #7 - Training Sea Cans","12950 - 9 Street NE Future Building","No","Yes","53.588095","-113.334348","
,  
(53.588095, -113.334348)","POINT (-113.334348 53.588095)"
"9","Ambulance Station No.33","8120-137 Avenue NW","No","Yes","53.599942","-113.465073","
,  
(53.599942, -113.465073)","POINT (-113.465073 53.599942)"
"925","Whitemud Park - Amenity/Washroom Facility","13810 Fox Drive","No","Yes","53.5044274","-113.557558","
,  
(53.5044274, -113.557558)","POINT (-113.557558 53.5044274)"
"527","Fort Edmonton Building #65 - Ramsay's Greenhouse","6601 - 148 Street NW 1905 St.","No","Yes","53.5852417","-113.5742684","
,  
(53.5852417, -113.5742684)","POINT (-113.5742684 53.5852417)"
"98","Fire Station No.16","2904-66 Street NW","Yes","Yes","53.45964","-113.4351","
,  
(53.45964, -113.4351)","POINT (-113.4351 53.45964)"
"53","Commercial Leased Building","12640/42/44-Fort Road NW","Yes","Yes","53.5845061","-113.4448513","
,  
(53.5845061, -113.4448513)","POINT (-113.4448513 53.5845061)"
"646","NAIT Operator Washrooms","11627 - 109 Street NW","No","Yes","53.5661143","-113.5064049","
,  
(53.5661143, -113.5064049)","POINT (-113.5064049 53.5661143)"
"509","Fort Edmonton Building #43 - McDougall Methodist Church","6601 - 148 Street NW 1885 St.","No","Yes","53.5852417","-113.5742684","
,  
(53.5852417, -113.5742684)","POINT (-113.5742684 53.5852417)"
"495","Fort Edmonton Building #28 - Sanderson Lobby Blacksmith","6601 - 148 Street NW 1885 St.","No","Yes","53.5852417","-113.5742684","
,  
(53.5852417, -113.5742684)","POINT (-113.5742684 53.5852417)"
"924","Whitemud Park - Alfred H Savage Centre","13909 - Fox Drive NW","No","Yes","53.502353","-113.560638","
,  
(53.502353, -113.560638)","POINT (-113.560638 53.502353)"
"401","Clareview LRT Station","100 LRT Station NW","No","Yes","53.5409322","-113.4900248","
,  
(53.5409322, -113.4900248)","POINT (-113.4900248 53.5409322)"
"794","Riverbend Library","460 Riverbend Square NW","No","Yes","53.4682097","-113.5835983","
,  
(53.4682097, -113.5835983)","POINT (-113.5835983 53.4682097)"
"635","Mill Woods Senior and Multi Cultural Centre","2610 Hewes Way NW","No","Yes","53.4565997","-113.4274009","
,  
(53.4565997, -113.4274009)","POINT (-113.4274009 53.4565997)"
"383","Central Roadway Maintenance Yard - Grader Shop","10517 - 95 Street NW","No","Yes","53.5510275","-113.4794218","
,  
(53.5510275, -113.4794218)","POINT (-113.4794218 53.5510275)"
"118","Glengarry Community Services","13315-89 Street NW","Yes","Yes","53.5946978","-113.4767606","
,  
(53.5946978, -113.4767606)","POINT (-113.4767606 53.5946978)"
"848","Edmonton Valley Zoo #4 - Quarantine Building 1","13315 - Buena Vista Road NW","No","Yes","53.5109217","-113.5564743","
,  
(53.5109217, -113.5564743)","POINT (-113.5564743 53.5109217)"
"33","Central Roadway Maintenance Yard - Maintenance Shop","10517-95 Street NW","Yes","Yes","53.5510275","-113.4794218","
,  
(53.5510275, -113.4794218)","POINT (-113.4794218 53.5510275)"
"648","Northeast Transit Yard - De-Icing Dome","13003 - 56 Street NW","No","Yes","53.5899839999999","-113.426539","
,  
(53.5899839999999, -113.426539)","POINT (-113.426539 53.5899839999999)"
"514","Fort Edmonton Building #49 - McCauleys Livery Stable","6601 - 148 Street NW 1885 St.","No","Yes","53.5852417","-113.5742684","
,  
(53.5852417, -113.5742684)","POINT (-113.5742684 53.5852417)"
"570","Gold Bar Park - Recreation Building","10975 - 50 Street NW","No","Yes","53.5612751","-113.4185404","
,  
(53.5612751, -113.4185404)","POINT (-113.4185404 53.5612751)"
"273","Commercial Leased Building","10335-83 Avenue NW","No","Yes","53.5189441","-113.4971398","
,  
(53.5189441, -113.4971398)","POINT (-113.4971398 53.5189441)"
"799","Rundle Park - Paddleboat Building","2903 - 113 Avenue NW","No","Yes","53.5662584","-113.3871508","
,  
(53.5662584, -113.3871508)","POINT (-113.3871508 53.5662584)"
"875","Edmonton Valley Zoo #37 - Elephant Shelter","13315 - Buena Vista Road NW","No","Yes","53.5109217","-113.5564743","
,  
(53.5109217, -113.5564743)","POINT (-113.5564743 53.5109217)"
"73","Davies - Municipal Fleet Maintenance Garage","8733-58 Avenue NW","Yes","Yes","53.493316","-113.460177","
,  
(53.493316, -113.460177)","POINT (-113.460177 53.493316)"
"362","Beechmount Cemetery Maintenance Building","12420 - 104 Street NW","No","Yes","53.5801302","-113.4991063","
,  
(53.5801302, -113.4991063)","POINT (-113.4991063 53.5801302)"
"435","Davies - Modular Office","8725 - 58 Avenue NW","No","Yes","53.4922488","-113.4586412","
,  
(53.4922488, -113.4586412)","POINT (-113.4586412 53.4922488)"
"470","Fort Edmonton Building #3 - Rowand House","6601 - 148 Street NW 1846 Fort","No","Yes","53.5660463","-113.4714522","
,  
(53.5660463, -113.4714522)","POINT (-113.4714522 53.5660463)"
"130","Jasper Place Leisure Centre","9200-163 Street NW","No","Yes","53.526942","-113.603675","
,  
(53.526942, -113.603675)","POINT (-113.603675 53.526942)"
"613","Lewis Farms Transit Centre","8630 - 199 Street NW","No","Yes","53.521198","-113.667915","
,  
(53.521198, -113.667915)","POINT (-113.667915 53.521198)"
"79","Eastgate Building","9504 - 49 Street","No","Yes","53.5346325999999","-113.4154326","
,  
(53.5346325999999, -113.4154326)","POINT (-113.4154326 53.5346325999999)"
"396","Churchill Square South Pavilion - Leased","9918 - 102 Avenue NW","No","Yes","53.543644","-113.48967","
,  
(53.543644, -113.48967)","POINT (-113.48967 53.543644)"
"541","Fort Edmonton Building #84 - Motordrome","6601 - 148 Street NW 1920 St.","No","Yes","53.5852417","-113.5742684","
,  
(53.5852417, -113.5742684)","POINT (-113.5742684 53.5852417)"
"604","Kennedale Reuse Building","5355 - 127 Avenue NW","No","Yes","53.5846802","-113.4242247","
,  
(53.5846802, -113.4242247)","POINT (-113.4242247 53.5846802)"
"698","Rainbow Valley - West Cook Shelter","13204 - 45 Avenue NW","No","Yes","53.4814061","-113.5537004","
,  
(53.4814061, -113.5537004)","POINT (-113.5537004 53.4814061)"
"910","Waste Management - Contractor Lunch Trailer","250 Aurum Road NE #800 Q1","No","Yes","53.5900851","-113.340218","
,  
(53.5900851, -113.340218)","POINT (-113.340218 53.5900851)"
"426","Commercial Leased Building","10045 - 156 Street NW","No","Yes","53.5400596","-113.5894248","
,  
(53.5400596, -113.5894248)","POINT (-113.5894248 53.5400596)"
"341","Clareview LRT Substation","6090-137 Avenue NW","No","Yes","53.5999578","-113.4357558","
,  
(53.5999578, -113.4357558)","POINT (-113.4357558 53.5999578)"
"893","Waste Management - Control Centre/Administration","250 Aurum Road NE #100","No","Yes","53.5900851","-113.340218","
,  
(53.5900851, -113.340218)","POINT (-113.340218 53.5900851)"
"136","Kenilworth Arena","8313-68A Street NW","Yes","Yes","53.5195444","-113.4321826","
,  
(53.5195444, -113.4321826)","POINT (-113.4321826 53.5195444)"
"547","Fort Edmonton Building #92 - Gas Storage Shed","6601 - 148 Street NW","No","Yes","53.5132248","-113.5755126","
,  
(53.5132248, -113.5755126)","POINT (-113.5755126 53.5132248)"
"546","Fort Edmonton Building #91 - Foundation House Garage 2","6601 - 148 Street NW","No","Yes","53.5132248","-113.5755126","
,  
(53.5132248, -113.5755126)","POINT (-113.5755126 53.5132248)"
"243","University LRT Station","100 University Station","No","Yes","53.5232189","-113.5263186","
,  
(53.5232189, -113.5263186)","POINT (-113.5263186 53.5232189)"
"809","Southeast Transit Yard - Stores","5404 - 59 Avenue NW","No","Yes","53.4973059999999","-113.420918","
,  
(53.4973059999999, -113.420918)","POINT (-113.420918 53.4973059999999)"
"828","Strathcona Public Washroom","10270 - 82 Avenue NW","No","Yes","53.5183082","-113.4947282","
,  
(53.5183082, -113.4947282)","POINT (-113.4947282 53.5183082)"
"102","Fire Station No.20","2303-105 Street NW","Yes","Yes","53.454379","-113.500765","
,  
(53.454379, -113.500765)","POINT (-113.500765 53.454379)"
"639","Mill Woods Library","2610 Hewes Way NW","No","Yes","53.4565997","-113.4274009","
,  
(53.4565997, -113.4274009)","POINT (-113.4274009 53.4565997)"
"502","Fort Edmonton Building #36 - Ottewell House","6601 - 148 Street NW 1885 St.","No","Yes","53.5852417","-113.5742684","
,  
(53.5852417, -113.5742684)","POINT (-113.5742684 53.5852417)"
"814","Southwest Transit Yard - Equipment Storage","6611 - Gateway Boulevard NW","No","Yes","53.5032329999999","-113.493316","
,  
(53.5032329999999, -113.493316)","POINT (-113.493316 53.5032329999999)"
"117","Glengarry Arena","13340-85 Street NW","Yes","Yes","53.5945265999999","-113.4725948","
,  
(53.5945265999999, -113.4725948)","POINT (-113.4725948 53.5945265999999)"
"290","Gold Bar Park - Office/Shop","10975 50Street NW","Yes","Yes","53.5612751","-113.4185404","
,  
(53.5612751, -113.4185404)","POINT (-113.4185404 53.5612751)"
"566","Gateway Park Maintenance Garage","2404 - Gateway Park Road SW","No","Yes","53.4130489","-113.4981267","
,  
(53.4130489, -113.4981267)","POINT (-113.4981267 53.4130489)"
"310","Biotechnology Business Development Centre","2011 94 Street","Yes","Yes","53.4511729","-113.4716718","
,  
(53.4511729, -113.4716718)","POINT (-113.4716718 53.4511729)"
"210","Rundle Park - Family Recreation Centre","2903-113 Avenue NW","Yes","Yes","53.5662584","-113.3871508","
,  
(53.5662584, -113.3871508)","POINT (-113.3871508 53.5662584)"
"579","Highlands Transit Washroom","11137 - 61 Street NW","No","Yes","53.566117","-113.431612","
,  
(53.566117, -113.431612)","POINT (-113.431612 53.566117)"
"154","Mill Creek Pool","9555-84 Avenue NW","Yes","Yes","53.5196167999999","-113.4740396","
,  
(53.5196167999999, -113.4740396)","POINT (-113.4740396 53.5196167999999)"
"449","Ellerslie Fleet and Facility Services Building","2415 - 101 Street SW","No","Yes","53.411171","-113.490845","
,  
(53.411171, -113.490845)","POINT (-113.490845 53.411171)"
"462","Fire Station No.30","15850 50 Street NW","No","Yes","53.6198032","-113.4169725","
,  
(53.6198032, -113.4169725)","POINT (-113.4169725 53.6198032)"
"482","Fort Edmonton Building #15 - Clerks Quarters","6601 - 148 Street NW 1846 Fort","No","Yes","53.5660463","-113.4714522","
,  
(53.5660463, -113.4714522)","POINT (-113.4714522 53.5660463)"
"858","Edmonton Valley Zoo #17 - Porcupine Exhibit","13315 - Buena Vista Road NW","No","Yes","53.5109217","-113.5564743","
,  
(53.5109217, -113.5564743)","POINT (-113.5564743 53.5109217)"
"600","Kennedale Waste Operations","12806 - 58 Street NW","No","Yes","53.58458","-113.431272","
,  
(53.58458, -113.431272)","POINT (-113.431272 53.58458)"
"170","Prince Of Wales Armoury","10440-108 Avenue NW","No","Yes","53.5540882","-113.5001215","
,  
(53.5540882, -113.5001215)","POINT (-113.5001215 53.5540882)"
"155","Mill Woods Rec Centre Arena","7207-28 Avenue NW","Yes","Yes","53.4566882","-113.4444916","
,  
(53.4566882, -113.4444916)","POINT (-113.4444916 53.4566882)"
"410","Commercial Leased Building","10310/30 - 83 Avenue NW","No","Yes","53.5194525","-113.495884","
,  
(53.5194525, -113.495884)","POINT (-113.495884 53.5194525)"
"551","Fort Edmonton Building #97 - Sub-Station","6601 - 148 Street NW","No","Yes","53.5132248","-113.5755126","
,  
(53.5132248, -113.5755126)","POINT (-113.5755126 53.5132248)"
"239","Telus World of Science","11211 - 142 Street NW","Yes","Yes","53.5612133","-113.5640156","
,  
(53.5612133, -113.5640156)","POINT (-113.5640156 53.5612133)"
"140","Kennedale Drainage Offices/Shops","12810-58 Street NW","Yes","Yes","53.5855798","-113.4336731","
,  
(53.5855798, -113.4336731)","POINT (-113.4336731 53.5855798)"
"863","Edmonton Valley Zoo #24 - Paddle Boat Booth","13315 - Buena Vista Road NW","No","Yes","53.5109217","-113.5564743","
,  
(53.5109217, -113.5564743)","POINT (-113.5564743 53.5109217)"
"306","Commercial Leased Building","11410 Kingsway Ave NW","No","Yes","53.5647858","-113.517572","
,  
(53.5647858, -113.517572)","POINT (-113.517572 53.5647858)"
"534","Fort Edmonton Building #75 - St. Michael's Church","6601 - 148 Street NW 1905 St.","No","Yes","53.5852417","-113.5742684","
,  
(53.5852417, -113.5742684)","POINT (-113.5742684 53.5852417)"
"674","North Division Police Station","14203 - 50 Street NW","No","Yes","53.60509","-113.4172695","
,  
(53.60509, -113.4172695)","POINT (-113.4172695 53.60509)"
"67","Coronation Maintenance Garage","14323-115 Avenue NW","Yes","Yes","53.565104","-113.568646","
,  
(53.565104, -113.568646)","POINT (-113.568646 53.565104)"
"880","Edmonton Valley Zoo #43 - Education Centre","13315 - Buena Vista Road NW","No","Yes","53.5109217","-113.5564743","
,  
(53.5109217, -113.5564743)","POINT (-113.5564743 53.5109217)"
"915","Waste Management - Maintenance Tent","250 Aurum Road NE #350A","No","Yes","53.5900851","-113.340218","
,  
(53.5900851, -113.340218)","POINT (-113.340218 53.5900851)"
"85","Emergency Response Station No.42","10565-105 Street","Yes","Yes","53.5498163","-113.5009984","
,  
(53.5498163, -113.5009984)","POINT (-113.5009984 53.5498163)"
"506","Fort Edmonton Building #40 - Ottewell Pig Shelter","6601 - 148 Street NW 1885 St.","No","Yes","53.5852417","-113.5742684","
,  
(53.5852417, -113.5742684)","POINT (-113.5742684 53.5852417)"
"519","Fort Edmonton Building #56 - Henderson Barn","6601 - 148 Street NW 1905 St.","No","Yes","53.5852417","-113.5742684","
,  
(53.5852417, -113.5742684)","POINT (-113.5742684 53.5852417)"
"333","Coronation Grandstand/Maintenance Office","13811 114 Avenue NW","Yes","Yes","53.5638448","-113.5604336","
,  
(53.5638448, -113.5604336)","POINT (-113.5604336 53.5638448)"
"818","South Campus Transit Centre","115 Street & 66 Avenue","No","Yes","53.50298","-113.528896","
,  
(53.50298, -113.528896)","POINT (-113.528896 53.50298)"
"626","McKernan/Belgravia LRT Station","100 McKernan/Belgravia LRT Station","No","Yes","53.51272","-113.526195","
,  
(53.51272, -113.526195)","POINT (-113.526195 53.51272)"
"254","Edmonton Valley Zoo #38 - Elephant Building/Exhibit","13315-Beuna Vista Road NW","No","Yes","53.5109217","-113.5564743","
,  
(53.5109217, -113.5564743)","POINT (-113.5564743 53.5109217)"
"852","Edmonton Valley Zoo #8 - Quonset Hut North","13315 - Buena Vista Road NW","No","Yes","53.5109217","-113.5564743","
,  
(53.5109217, -113.5564743)","POINT (-113.5564743 53.5109217)"
"935","William Hawrelak Service Yard - Heritage Garage","9330 - Groat Road NW","No","Yes","53.5271128","-113.5475244","
,  
(53.5271128, -113.5475244)","POINT (-113.5475244 53.5271128)"
"318","Fort Edmonton Building #77 - Mellon Farm House","7000 - 143 Street","No","Yes","53.5033505","-113.5713762","
,  
(53.5033505, -113.5713762)","POINT (-113.5713762 53.5033505)"
"150","Stanley Milner Library Parkade","7 Sir Winston Churchill Square","Yes","Yes","53.542897","-113.4897586","
,  
(53.542897, -113.4897586)","POINT (-113.4897586 53.542897)"
"584","Jackie Parker Park Pavilion","4540 - 50 Street NW","No","Yes","53.4823785","-113.4185142","
,  
(53.4823785, -113.4185142)","POINT (-113.4185142 53.4823785)"
"214","Russ Barnes Arena","6725-121 Avenue NW","Yes","Yes","53.5748018","-113.4459348","
,  
(53.5748018, -113.4459348)","POINT (-113.4459348 53.5748018)"
"902","Waste Management - Blue and White Tent Storage","250 Aurum Road NE #350A","No","Yes","53.5900851","-113.340218","
,  
(53.5900851, -113.340218)","POINT (-113.340218 53.5900851)"
"443","Strathcona Eco Station - Fuel Pumps","5150 - 99 Street NW","No","Yes","53.4885319","-113.487664","
,  
(53.4885319, -113.487664)","POINT (-113.487664 53.4885319)"
"578","Highlands Park Washroom/Storage","6112 - 113 Avenue NW","No","Yes","53.567849","-113.433899","
,  
(53.567849, -113.433899)","POINT (-113.433899 53.567849)"
"487","Fort Edmonton Building #20 - Bellrose School","6601 - 148 Street NW 1885 Street","No","Yes","53.5852417","-113.5742684","
,  
(53.5852417, -113.5742684)","POINT (-113.5742684 53.5852417)"
"116","George S. Hughes Arena","10525-72 Avenue NW","Yes","Yes","53.508121","-113.501881","
,  
(53.508121, -113.501881)","POINT (-113.501881 53.508121)"
"374","Callingwood Park Pavilion","17710 - 69 Avenue NW","No","Yes","53.5064754","-113.6270333","
,  
(53.5064754, -113.6270333)","POINT (-113.6270333 53.5064754)"
"612","Leger Transit Centre","15204 - 23 Avenue NW","No","Yes","53.4551078","-113.5802705","
,  
(53.4551078, -113.5802705)","POINT (-113.5802705 53.4551078)"
"244","Edmonton Valley Zoo #1 - Saito Centre","13315-Beuna Vista Road NW","No","Yes","53.5109217","-113.5564743","
,  
(53.5109217, -113.5564743)","POINT (-113.5564743 53.5109217)"
"478","Fort Edmonton Building #11 - Ice House","6601 - 148 Street NW 1846 Fort","No","Yes","53.5660463","-113.4714522","
,  
(53.5660463, -113.4714522)","POINT (-113.4714522 53.5660463)"
"18","Bonnie Doon Health Centre","8314-88 Avenue NW","Yes","Yes","53.523636","-113.4571016","
,  
(53.523636, -113.4571016)","POINT (-113.4571016 53.523636)"
"414","Commercial Leased Building","10542 - 105 Street NW Suite 10548 & 10550","No","Yes",,,,
"161","Northwest Transit Yard - Fuelling Facility","14402-114 Avenue NW","No","Yes","53.5639841","-113.5720468","
,  
(53.5639841, -113.5720468)","POINT (-113.5720468 53.5639841)"
"360","Animal Care and Control Centre (ACCC)","13550 - 163 Street NW","No","Yes","53.5982512","-113.6026663","
,  
(53.5982512, -113.6026663)","POINT (-113.6026663 53.5982512)"
"642","Muttart Conservatory Storage","9681 - 98 Avenue NW","No","Yes","53.5378915999999","-113.4769671","
,  
(53.5378915999999, -113.4769671)","POINT (-113.4769671 53.5378915999999)"
"659","Northeast Transit Yard - Pavement Garage","13025 - 56 Street NW","No","Yes","53.5909093","-113.4255384","
,  
(53.5909093, -113.4255384)","POINT (-113.4255384 53.5909093)"
"263","Westwood Site - Pest Management","12304-107 Street NW","Yes","Yes","53.5781895999999","-113.5059906","
,  
(53.5781895999999, -113.5059906)","POINT (-113.5059906 53.5781895999999)"
"299","Davies - DATS Wash Facility","5610 86 Street","No","Yes","53.49231","-113.455438","
,  
(53.49231, -113.455438)","POINT (-113.455438 53.49231)"
"884","Edmonton Valley Zoo #47 - Trout Filtration Building","13315 - Buena Vista Road NW","No","Yes","53.5109217","-113.5564743","
,  
(53.5109217, -113.5564743)","POINT (-113.5564743 53.5109217)"
"607","Kinsmen Service Garage","9100 - Walterdale Hill NW","No","Yes","53.5261857","-113.5065533","
,  
(53.5261857, -113.5065533)","POINT (-113.5065533 53.5261857)"
"483","Fort Edmonton Building #16 - Columbia House/Washroom","6601 - 148 Street NW 1846 Fort","No","Yes","53.5660463","-113.4714522","
,  
(53.5660463, -113.4714522)","POINT (-113.4714522 53.5660463)"
"538","Fort Edmonton Building #80 - AGT Telephone Exchange","6601 - 148 Street NW 1920 St.","No","Yes","53.5852417","-113.5742684","
,  
(53.5852417, -113.5742684)","POINT (-113.5742684 53.5852417)"
"919","Westwood Cold Storage Garage","12304 - 107 Street NW","No","Yes","53.5781895999999","-113.5059906","
,  
(53.5781895999999, -113.5059906)","POINT (-113.5059906 53.5781895999999)"
"355","Ambulance Station No.32","5874 - 111 Street NW","No","Yes","53.4964468","-113.5172859","
,  
(53.4964468, -113.5172859)","POINT (-113.5172859 53.4964468)"
"943","Winspear Centre Pedway","Churchill to Winspear Centre","No","Yes","53.543705","-113.4886189","
,  
(53.543705, -113.4886189)","POINT (-113.4886189 53.543705)"
"405","Clareview Library","3804 - 139 Avenue NW","No","Yes","53.601831","-113.402669","
,  
(53.601831, -113.402669)","POINT (-113.402669 53.601831)"
"569","Glengarry Day Care","13315 - 89 Street NW Day Care (Portion of GLE102)","No","Yes",,,,
"652","Northern Lights Cemetary Maintenance Garage","15203 - Campbell Road NW","No","Yes","53.6120807","-113.5842967","
,  
(53.6120807, -113.5842967)","POINT (-113.5842967 53.6120807)"
"62","Commercial Leased Building","10629-95 Street NW","Yes","Yes","53.5520175","-113.4822023","
,  
(53.5520175, -113.4822023)","POINT (-113.4822023 53.5520175)"
"387","Central Roadway Maintenance Yard - De-Icing Dome","10517 - 95 Street NW","No","Yes","53.5510275","-113.4794218","
,  
(53.5510275, -113.4794218)","POINT (-113.4794218 53.5510275)"
"80","Strathcona Eco Station","5150-99 Street NW","Yes","Yes","53.4885319","-113.487664","
,  
(53.4885319, -113.487664)","POINT (-113.487664 53.4885319)"
"701","Rainbow Valley Campground - Office","13204 - 45 Avenue NW","No","Yes","53.4814061","-113.5537004","
,  
(53.4814061, -113.5537004)","POINT (-113.5537004 53.4814061)"
"510","Fort Edmonton Building #44 - Lauder's Barn","6601 - 148 Street NW 1885 St.","No","Yes","53.5852417","-113.5742684","
,  
(53.5852417, -113.5742684)","POINT (-113.5742684 53.5852417)"
"867","Edmonton Valley Zoo #28 - Caotimundi Pit","13315 - Buena Vista Road NW","No","Yes","53.5109217","-113.5564743","
,  
(53.5109217, -113.5564743)","POINT (-113.5564743 53.5109217)"
"29","Central Lions Recreation Centre","11113-113 Street NW","Yes","Yes","53.5601525","-113.5148912","
,  
(53.5601525, -113.5148912)","POINT (-113.5148912 53.5601525)"
"515","Fort Edmonton Building #50 - Peter Erasmus House","6601 - 148 Street NW 1885 St.","No","Yes","53.5852417","-113.5742684","
,  
(53.5852417, -113.5742684)","POINT (-113.5742684 53.5852417)"
"647","Northeast Transit Yard - Administrative Office","13003 - 56 Street NW","No","Yes","53.5899839999999","-113.426539","
,  
(53.5899839999999, -113.426539)","POINT (-113.426539 53.5899839999999)"
"898","Waste Management - Equipment Storage","250 Aurum Road NE #1100","No","Yes","53.5900851","-113.340218","
,  
(53.5900851, -113.340218)","POINT (-113.340218 53.5900851)"
"108","Fort Edmonton Building #70 - Ukrainian Bookstore","7000 - 143 Street","No","Yes","53.5033505","-113.5713762","
,  
(53.5033505, -113.5713762)","POINT (-113.5713762 53.5033505)"
"559","Fortieth Avenue LRT Substation","3841 - 111 Street NW","No","Yes","53.4740934","-113.516165","
,  
(53.4740934, -113.516165)","POINT (-113.516165 53.4740934)"
"439","Dawson Park Amenity Building","104 Avenue & 90 Street","No","Yes",,,,
"248","Edmonton Valley Zoo #13 - Old Concession (Candy Shack)","13315-Beuna Vista Road NW","Yes","Yes","53.5109217","-113.5564743","
,  
(53.5109217, -113.5564743)","POINT (-113.5564743 53.5109217)"
"931","William Hawrelak Park #5 - Playground Washroom","9330 - Graot Road NW","No","Yes","53.5271128","-113.5475244","
,  
(53.5271128, -113.5475244)","POINT (-113.5475244 53.5271128)"
"366","Bonnie Doon Tennis Courts Building","8636 - 81 Street NW","No","Yes","53.52334","-113.452663","
,  
(53.52334, -113.452663)","POINT (-113.452663 53.52334)"
"454","Ferrier Transit Tent","8620 - 58 Avenue NW 3 Tent Structures","No","Yes",,,,
"618","Louise McKinney Park - Greenroom Building","9621 Grierson Hill Road NW","No","Yes","53.5421477","-113.4821565","
,  
(53.5421477, -113.4821565)","POINT (-113.4821565 53.5421477)"
"92","Fire Station No.8","12503-128 Street NW","Yes","Yes","53.581259","-113.542592","
,  
(53.581259, -113.542592)","POINT (-113.542592 53.581259)"
"558","Fort Edmonton Building #104 - McNeil Hangar","6601 - 148 Street NW","No","Yes","53.5132248","-113.5755126","
,  
(53.5132248, -113.5755126)","POINT (-113.5755126 53.5132248)"
"34","Century Place Parkade","9803-102A Avenue NW","Yes","Yes","53.5443499999999","-113.487901","
,  
(53.5443499999999, -113.487901)","POINT (-113.487901 53.5443499999999)"
"93","Fire Station No.9","5604-50 Street NW","No","Yes","53.4937179999999","-113.418955","
,  
(53.4937179999999, -113.418955)","POINT (-113.418955 53.4937179999999)"
"573","Government Centre Pedway","Grandin to Gov Centre Pedway","No","Yes","53.5367641","-113.5103813","
,  
(53.5367641, -113.5103813)","POINT (-113.5103813 53.5367641)"
"75","DL Macdonald LRT Garage","13310-50A Street NW","Yes","Yes","53.5951633","-113.4200682","
,  
(53.5951633, -113.4200682)","POINT (-113.4200682 53.5951633)"
"392","Century Park LRT Station","100 Century Park","No","Yes","53.542865","-113.881399","
,  
(53.542865, -113.881399)","POINT (-113.881399 53.542865)"
"592","John Walter 1875 House","9180 Walterdale Hill NW","No","Yes","53.5276607","-113.5037136","
,  
(53.5276607, -113.5037136)","POINT (-113.5037136 53.5276607)"
"119","Glengarry Tennis Court Building","13340-85 Street NW","Yes","Yes","53.5945265999999","-113.4725948","
,  
(53.5945265999999, -113.4725948)","POINT (-113.4725948 53.5945265999999)"
"418","Commercial Leased Building","8219 Argyll Road","No","Yes","53.5026856","-113.4530577","
,  
(53.5026856, -113.4530577)","POINT (-113.4530577 53.5026856)"
"694","Queen Elizabeth Park Washroom","90 Avenue & 104 Street","No","Yes","53.524375","-113.49714","
,  
(53.524375, -113.49714)","POINT (-113.49714 53.524375)"
"803","Rundle Golf Course - Pumphouse","2903 - 113 Avenue NW","No","Yes","53.5662584","-113.3871508","
,  
(53.5662584, -113.3871508)","POINT (-113.3871508 53.5662584)"
"474","Fort Edmonton Building #7 - Meat House","6601 - 148 Street NW 1846 Fort","No","Yes","53.5660463","-113.4714522","
,  
(53.5660463, -113.4714522)","POINT (-113.4714522 53.5660463)"
"349","Airport Building #1 - ERRA Field Ops","12000 - 109 Street NW Buldg #3","No","Yes",,,,
"469","Fort Edmonton Building #2 - Harness Shed","6601 - 148 Street NW 1846 Fort","No","Yes","53.5660463","-113.4714522","
,  
(53.5660463, -113.4714522)","POINT (-113.4714522 53.5660463)"
"25","Cambridge/Frank Oliver Pedway","Central Station to McCauley Pl","Yes","Yes",,,,
"453","Engineered Services Building","11004 - 190 Street NW","No","Yes","53.557182","-113.65043","
,  
(53.557182, -113.65043)","POINT (-113.65043 53.557182)"
"382","Central LRT Transit Information","Jasper Avenue & 100A Street","No","Yes",,,,
"617","Louise McKinney Park - Riverfront East Plaza","9731 Grierson Hill Road","No","Yes","53.5408854","-113.4827849","
,  
(53.5408854, -113.4827849)","POINT (-113.4827849 53.5408854)"
"131","Jasper Place ANNEX","9200-163 Street NW","Yes","Yes","53.526942","-113.603675","
,  
(53.526942, -113.603675)","POINT (-113.603675 53.526942)"
"397","City Hall Parkade","1 Sir Winston Churchill Square","No","Yes","53.5456493","-113.490263","
,  
(53.5456493, -113.490263)","POINT (-113.490263 53.5456493)"
"247","Edmonton Valley Zoo #12 - Main Concession (Peanut Gallery)","13315-Beuna Vista Road NW","Yes","Yes","53.5109217","-113.5564743","
,  
(53.5109217, -113.5564743)","POINT (-113.5564743 53.5109217)"
"542","Fort Edmonton Building #85 - Teamsters Office/Garage","6601 - 148 Street NW 1920 St.","No","Yes","53.5852417","-113.5742684","
,  
(53.5852417, -113.5742684)","POINT (-113.5742684 53.5852417)"
"76","Donnan Arena","9105-80 Avenue NW","Yes","Yes","53.5160608","-113.4686205","
,  
(53.5160608, -113.4686205)","POINT (-113.4686205 53.5160608)"
"699","Rainbow Valley - West Washroom","13204 - 45 Avenue NW","No","Yes","53.4814061","-113.5537004","
,  
(53.4814061, -113.5537004)","POINT (-113.5537004 53.4814061)"
"603","Kennedale Eco Station","5355 - 127 Avenue NW","No","Yes","53.5846802","-113.4242247","
,  
(53.5846802, -113.4242247)","POINT (-113.4242247 53.5846802)"
"428","Commercial Leased Building","10419 - 96 Street NW","No","Yes","53.5485483999999","-113.4841399","
,  
(53.5485483999999, -113.4841399)","POINT (-113.4841399 53.5485483999999)"
"805","Sherbrooke Changerooms","13008 - 122 Avenue NW","No","Yes","53.5753764","-113.5481253","
,  
(53.5753764, -113.5481253)","POINT (-113.5481253 53.5753764)"
"823","Southwest Transit Yard - De-Icing Dome","68 Avenue & Gateway Boulevard","No","Yes","53.504668","-113.49361","
,  
(53.504668, -113.49361)","POINT (-113.49361 53.504668)"
"30","Central LRT Station","100 Central Lrt Station","Yes","Yes","53.5246183","-113.5230708","
,  
(53.5246183, -113.5230708)","POINT (-113.5230708 53.5246183)"
"340","Idylwylde Library","8310 88 Avenue NW","No","Yes","53.5239457","-113.4578136","
,  
(53.5239457, -113.4578136)","POINT (-113.4578136 53.5239457)"
"543","Fort Edmonton Building #87 - Storage Garage","6601 - 148 Street NW","No","Yes","53.5132248","-113.5755126","
,  
(53.5132248, -113.5755126)","POINT (-113.5755126 53.5132248)"
"365","Belvedere Transit Centre Washroom","12929 Fort Road NW","No","Yes","53.5880981","-113.4362834","
,  
(53.5880981, -113.4362834)","POINT (-113.4362834 53.5880981)"
"528","Fort Edmonton Building #66 - JB Little Brickyard","6601 - 148 Street NW 1905 St.","No","Yes","53.5852417","-113.5742684","
,  
(53.5852417, -113.5742684)","POINT (-113.5742684 53.5852417)"
"810","Southeast Transit Yard - Fuelling Station","5404 - 59 Avenue NW","No","Yes","53.4973059999999","-113.420918","
,  
(53.4973059999999, -113.420918)","POINT (-113.420918 53.4973059999999)"
"54","Commercial Leased Building","11516-103 Street NW","Yes","Yes","53.5662807999999","-113.4986681","
,  
(53.5662807999999, -113.4986681)","POINT (-113.4986681 53.5662807999999)"
"496","Fort Edmonton Building #30 - Jasper House Hotel Freezer","6601 - 148 Street NW 1885 St.","No","Yes","53.5852417","-113.5742684","
,  
(53.5852417, -113.5742684)","POINT (-113.5742684 53.5852417)"
"463","Pedestrian Bridge","93 Avenue & 101 Street","No","Yes",,,,
"413","Commercial Leased Building","21500 - 132 Avenue NW","No","Yes","53.5923491","-113.5671199","
,  
(53.5923491, -113.5671199)","POINT (-113.5671199 53.5923491)"
"511","Fort Edmonton Building #45 - Lauder's Bakery House","6601 - 148 Street NW 1885 St.","No","Yes","53.5852417","-113.5742684","
,  
(53.5852417, -113.5742684)","POINT (-113.5742684 53.5852417)"
"159","Northgate Lions Seniors Centre","7524-139 Avenue NW","Yes","Yes","53.6025237","-113.458011","
,  
(53.6025237, -113.458011)","POINT (-113.458011 53.6025237)"
"172","Queen Elizabeth Planetarium","13811-114 Avenue NW","Yes","Yes","53.5638448","-113.5604336","
,  
(53.5638448, -113.5604336)","POINT (-113.5604336 53.5638448)"
"894","Waste Management - Weigh Scales","250 Aurum Road NE #200","No","Yes","53.5900851","-113.340218","
,  
(53.5900851, -113.340218)","POINT (-113.340218 53.5900851)"
"259","Westmount Park Washroom/storage","12900-109 Avenue NW","No","Yes","53.5547549","-113.5429384","
,  
(53.5547549, -113.5429384)","POINT (-113.5429384 53.5547549)"
"854","Edmonton Valley Zoo #10 - Meter Shed/Storage","13315 - Buena Vista Road NW","No","Yes","53.5109217","-113.5564743","
,  
(53.5109217, -113.5564743)","POINT (-113.5564743 53.5109217)"
"554","Fort Edmonton Building #100 - Selkirk Hotel","6601 - 148 Street NW","No","Yes","53.5132248","-113.5755126","
,  
(53.5132248, -113.5755126)","POINT (-113.5755126 53.5132248)"
"458","Fire and Ambulance Station No.26","2803 - 34 Street NW","No","Yes","53.4583613999999","-113.3930652","
,  
(53.4583613999999, -113.3930652)","POINT (-113.3930652 53.4583613999999)"
"10","Ambulance Station No.34","10527-142 Street NW","Yes","Yes","53.548177","-113.565264","
,  
(53.548177, -113.565264)","POINT (-113.565264 53.548177)"
"588","Jasper Place Transit Womens Washroom","15627 - Stony Plain Road NW","No","Yes","53.5413016","-113.5917512","
,  
(53.5413016, -113.5917512)","POINT (-113.5917512 53.5413016)"
"323","Fort Edmonton Building #53 - Egge's Barn","7000 - 143 Street","Yes","Yes","53.5033505","-113.5713762","
,  
(53.5033505, -113.5713762)","POINT (-113.5713762 53.5033505)"
"927","Whitemud Equine Centre - Arena and Stables","12510 Keillor Road NW","No","Yes","53.5036632","-113.5580215","
,  
(53.5036632, -113.5580215)","POINT (-113.5580215 53.5036632)"
"593","John Walter 1886 House","9180 Walterdale Hill NW","No","Yes","53.5276607","-113.5037136","
,  
(53.5276607, -113.5037136)","POINT (-113.5037136 53.5276607)"
"434","Davies - Wash/Fuel Facility","8703 - 58 Avenue NW","No","Yes","53.492973","-113.4584761","
,  
(53.492973, -113.4584761)","POINT (-113.4584761 53.492973)"
"151","Londonderry Swimming Pool","14528-66 Street NW","No","Yes","53.6073065999999","-113.4444209","
,  
(53.6073065999999, -113.4444209)","POINT (-113.4444209 53.6073065999999)"
"97","Fire Station No.15","5120-97 Street NW","Yes","Yes","53.488968","-113.480078","
,  
(53.488968, -113.480078)","POINT (-113.480078 53.488968)"
"264","Westwood Site - Fleet Services","12404-107 Street NW","Yes","Yes","53.5798","-113.5070066","
,  
(53.5798, -113.5070066)","POINT (-113.5070066 53.5798)"
"165","Oliver Pool","10315-119 Street NW","No","Yes","53.5450931","-113.526301","
,  
(53.5450931, -113.526301)","POINT (-113.526301 53.5450931)"
"38","City Arts Centre","10943-84 Avenue NW","No","Yes","53.519641","-113.513868","
,  
(53.519641, -113.513868)","POINT (-113.513868 53.519641)"
"634","Mill Woods Transit Centre","2550 - Hewes Way NW","No","Yes","53.456105","-113.425386","
,  
(53.456105, -113.425386)","POINT (-113.425386 53.456105)"
"377","Capilano Park Amenity Building","10980 - 50 Street NW","No","Yes","53.5620671","-113.4196311","
,  
(53.5620671, -113.4196311)","POINT (-113.4196311 53.5620671)"
"859","Edmonton Valley Zoo #18 - Alpaca Building","13315 - Buena Vista Road NW","No","Yes","53.5109217","-113.5564743","
,  
(53.5109217, -113.5564743)","POINT (-113.5564743 53.5109217)"
"651","Northern Lights Cemetary Trailer","15203 - Campbell Road NW","No","Yes","53.6120807","-113.5842967","
,  
(53.6120807, -113.5842967)","POINT (-113.5842967 53.6120807)"
"404","Clareview Community Recreation Centre","3804 - 139 Avenue NW","No","Yes","53.601831","-113.402669","
,  
(53.601831, -113.402669)","POINT (-113.402669 53.601831)"
"336","Fire Station No.4","10949-156 Steet NW","No","Yes","53.555605","-113.589771","
,  
(53.555605, -113.589771)","POINT (-113.589771 53.555605)"
"523","Fort Edmonton Building #60 - Firkins House","6601 - 148 Street NW 1905 St.","No","Yes","53.5852417","-113.5742684","
,  
(53.5852417, -113.5742684)","POINT (-113.5742684 53.5852417)"
"5","Airport Building #6 - Parkade","101-Airport Road NW","No","Yes","53.5710828","-113.522451","
,  
(53.5710828, -113.522451)","POINT (-113.522451 53.5710828)"
"921","Westwood Wash Garage","12404 - 107 Street NW","No","Yes","53.5798","-113.5070066","
,  
(53.5798, -113.5070066)","POINT (-113.5070066 53.5798)"
"599","Kennedale Drainage Cold Storage","12810 - 58 Street NW","No","Yes","53.5855798","-113.4336731","
,  
(53.5855798, -113.4336731)","POINT (-113.4336731 53.5855798)"
"46","Commonwealth Community Recreation Centre","11000 Stadium Road NW","Yes","Yes","53.5580776","-113.4766379","
,  
(53.5580776, -113.4766379)","POINT (-113.4766379 53.5580776)"
"491","Fort Edmonton Building #24 - Ross Brother's Hardware","6601 - 148 Street NW 1885 St.","No","Yes","53.5852417","-113.5742684","
,  
(53.5852417, -113.5742684)","POINT (-113.5742684 53.5852417)"
"876","Edmonton Valley Zoo #39 - Lemur Building","13315 - Buena Vista Road NW","No","Yes","53.5109217","-113.5564743","
,  
(53.5109217, -113.5564743)","POINT (-113.5564743 53.5109217)"
"798","Rundle Park - Island Building","2903 - 113 Avenue NW","No","Yes","53.5662584","-113.3871508","
,  
(53.5662584, -113.3871508)","POINT (-113.3871508 53.5662584)"
"627","McKernan/Belgravia LRT Substation","11415 - 77 Avenue NW","No","Yes","53.5129552","-113.5265483","
,  
(53.5129552, -113.5265483)","POINT (-113.5265483 53.5129552)"
"660","Northeast Traffic Field Operations","13020 - 56 Street NW","No","Yes","53.589794","-113.427856","
,  
(53.589794, -113.427856)","POINT (-113.427856 53.589794)"
"843","Terwillegar Community Recreation Centre - Pool","2051 Leger Road NW","No","Yes","53.4584675","-113.5826084","
,  
(53.4584675, -113.5826084)","POINT (-113.5826084 53.4584675)"
"621","LRT Portal South","South end of Menzies Bridge","No","Yes","53.5306694","-113.5120227","
,  
(53.5306694, -113.5120227)","POINT (-113.5120227 53.5306694)"
"486","Fort Edmonton Building #19 - Water Tower","6601 - 148 Street NW 1846 Fort","No","Yes","53.5660463","-113.4714522","
,  
(53.5660463, -113.4714522)","POINT (-113.4714522 53.5660463)"
"444","Edmonton Cemetery - Storage Garage","11820 - 107 Avenue NW","No","Yes","53.551981","-113.526132","
,  
(53.551981, -113.526132)","POINT (-113.526132 53.551981)"
"369","Borden Park Tennis Court Building","7506 - 113A Avenue NW","No","Yes","53.5626709999999","-113.515853","
,  
(53.5626709999999, -113.515853)","POINT (-113.515853 53.5626709999999)"
"795","Rollie Miles Grand Stand","10500 - 74 Avenue NW","No","Yes","53.5484492","-113.4418386","
,  
(53.5484492, -113.4418386)","POINT (-113.4418386 53.5484492)"
"871","Edmonton Valley Zoo #32 - Swift Fox Exhibit","13315 - Buena Vista Road NW","No","Yes","53.5109217","-113.5564743","
,  
(53.5109217, -113.5564743)","POINT (-113.5564743 53.5109217)"
"479","Fort Edmonton Building #12 - Indian Trading House","6601 - 148 Street NW 1846 Fort","No","Yes","53.5660463","-113.4714522","
,  
(53.5660463, -113.4714522)","POINT (-113.4714522 53.5660463)"
"253","Edmonton Valley Zoo #33 - African Veldt Building","13315-Beuna Vista Road NW","No","Yes","53.5109217","-113.5564743","
,  
(53.5109217, -113.5564743)","POINT (-113.5564743 53.5109217)"
"911","Waste Management - Staff Trailer/Office","250 Aurum Road NE #800A","No","Yes","53.5900851","-113.340218","
,  
(53.5900851, -113.340218)","POINT (-113.340218 53.5900851)"
"565","Fort Edmonton Building #110 - Lift Station/Pump House","6601 - 148 Street NW Fort Edm. Park","No","Yes",,,,
"135","John Janzen Nature Centre","7000-143 Street NW","Yes","Yes","53.5033505","-113.5713762","
,  
(53.5033505, -113.5713762)","POINT (-113.5713762 53.5033505)"
"317","Fort Edmonton Building #73 - Reed's China and Tea","7000 - 143 Street","No","Yes","53.5033505","-113.5713762","
,  
(53.5033505, -113.5713762)","POINT (-113.5713762 53.5033505)"
"550","Fort Edmonton Building #96 - Freight Shed","6601 - 148 Street NW","No","Yes","53.5132248","-113.5755126","
,  
(53.5132248, -113.5755126)","POINT (-113.5755126 53.5132248)"
"240","Tiger Goldstick Recreation Building","4210-101 Avenue NW","Yes","Yes","53.5447539","-113.4027438","
,  
(53.5447539, -113.4027438)","POINT (-113.4027438 53.5447539)"
"518","Fort Edmonton Building #55 - Henderson House","6601 - 148 Street NW 1905 St.","No","Yes","53.5852417","-113.5742684","
,  
(53.5852417, -113.5742684)","POINT (-113.5742684 53.5852417)"
"268","William Hawrelak Park #1 - Pavillion","9330-Groat Road NW","Yes","Yes","53.5271128","-113.5475244","
,  
(53.5271128, -113.5475244)","POINT (-113.5475244 53.5271128)"
"887","Victoria Golf Course - Driving Range Building","12030 - River Valley Road NW","No","Yes","53.5340883999999","-113.5232979","
,  
(53.5340883999999, -113.5232979)","POINT (-113.5232979 53.5340883999999)"
"101","Fire Station No.19","6210-178 Street NW","Yes","Yes","53.496609","-113.630263","
,  
(53.496609, -113.630263)","POINT (-113.630263 53.496609)"
"906","Waste Management - AERF","250 Aurum Road NE #306","No","Yes","53.5900851","-113.340218","
,  
(53.5900851, -113.340218)","POINT (-113.340218 53.5900851)"
"583","Ivor Dent Park Clubhouse","175 50 Street SW","No","Yes","53.4291762","-113.4181958","
,  
(53.4291762, -113.4181958)","POINT (-113.4181958 53.4291762)"
"666","Old Man Creek - Garage","53351 Range Rd 231 (Cloverbar Rd)","No","Yes",,,,
"65","Coronation Drainage - Office/Shops","14323-115 Avenue NW","Yes","Yes","53.565104","-113.568646","
,  
(53.565104, -113.568646)","POINT (-113.568646 53.565104)"
"490","Fort Edmonton Building #23 - Bryne's Shoe Store","6601 - 148 Street NW 1885 St.","No","Yes","53.5852417","-113.5742684","
,  
(53.5852417, -113.5742684)","POINT (-113.5742684 53.5852417)"
"638","Mill Woods Service Yard - Garage","6904 - 23 Avenue NW","No","Yes","53.4547365","-113.4395565","
,  
(53.4547365, -113.4395565)","POINT (-113.4395565 53.4547365)"
"409","Commercial Leased Building","10329 - 83 Avenue NW","No","Yes","53.5188281","-113.4964291","
,  
(53.5188281, -113.4964291)","POINT (-113.4964291 53.5188281)"
"655","Northwest Transit Yard - De-Icing Dome","14402 - 114 Avenue NW","No","Yes","53.5639841","-113.5720468","
,  
(53.5639841, -113.5720468)","POINT (-113.5720468 53.5639841)"
"83","Edmonton Centre Pedway","Churchill Station to Edm Centre","No","Yes","53.5440445","-113.4899623","
,  
(53.5440445, -113.4899623)","POINT (-113.4899623 53.5440445)"
"370","Borden Park Concession Building","7517 - 113A Avenue NW","No","Yes","53.5626709999999","-113.515853","
,  
(53.5626709999999, -113.515853)","POINT (-113.515853 53.5626709999999)"
"501","Fort Edmonton Building #35 - Dominion Lands Office","6601 - 148 Street NW 1885 St.","No","Yes","53.5852417","-113.5742684","
,  
(53.5852417, -113.5742684)","POINT (-113.5742684 53.5852417)"
"17","Bonnie Doon Leisure Centre","8648-81 Street NW","Yes","Yes","53.523776","-113.453989","
,  
(53.523776, -113.453989)","POINT (-113.453989 53.523776)"
"847","Edmonton Valley Zoo #2 - Program Office Trailer","13315 - Buena Vista Road NW","No","Yes","53.5109217","-113.5564743","
,  
(53.5109217, -113.5564743)","POINT (-113.5564743 53.5109217)"
"324","Mill Woods Recreation Centre","7207 - 28 Avenue NW","No","Yes","53.4566882","-113.4444916","
,  
(53.4566882, -113.4444916)","POINT (-113.4444916 53.4566882)"
"813","Southwest Transit Yard - Concrete Building","6815 - Gateway Boulevard NW","No","Yes","53.504684","-113.494207","
,  
(53.504684, -113.494207)","POINT (-113.494207 53.504684)"
"643","NAIT LRT Station","116 Avenue - 109 Street NW","No","Yes","53.5626237","-113.5082942","
,  
(53.5626237, -113.5082942)","POINT (-113.5082942 53.5626237)"
"939","William Nixon #4 - Electrical Building","12950 - 9 Street NE","No","Yes","53.588095","-113.334348","
,  
(53.588095, -113.334348)","POINT (-113.334348 53.588095)"
"802","Rundle Golf Course - Cold Storage","2903 - 113 Avenue NW","No","Yes","53.5662584","-113.3871508","
,  
(53.5662584, -113.3871508)","POINT (-113.3871508 53.5662584)"
"934","William Hawrelak Service Yard - Vehicle Storage","9330 - Groat Road NW","No","Yes","53.5271128","-113.5475244","
,  
(53.5271128, -113.5475244)","POINT (-113.5475244 53.5271128)"
"656","Northwest Transit Yard - Equipment Shop","14402 - 114 Avenue NW","No","Yes","53.5639841","-113.5720468","
,  
(53.5639841, -113.5720468)","POINT (-113.5720468 53.5639841)"
"883","Edmonton Valley Zoo #46 - Otter Exhibit","13315 - Buena Vista Road NW","No","Yes","53.5109217","-113.5564743","
,  
(53.5109217, -113.5564743)","POINT (-113.5564743 53.5109217)"
"824","Stadium LRT Station","100 Stadium Lrt Station","No","Yes","53.5590076","-113.472778","
,  
(53.5590076, -113.472778)","POINT (-113.472778 53.5590076)"
"356","Ambleside ECO Station","14710 Ellerslie Road SW","No","Yes","53.4260868","-113.5749633","
,  
(53.4260868, -113.5749633)","POINT (-113.5749633 53.4260868)"
"45","Commonwealth Stadium","11000 Stadium Road NW","Yes","Yes","53.5580776","-113.4766379","
,  
(53.5580776, -113.4766379)","POINT (-113.4766379 53.5580776)"
"918","Westmount Transit Shelter","11150 - 135 Street NW","No","Yes","53.5591119","-113.5555237","
,  
(53.5591119, -113.5555237)","POINT (-113.5555237 53.5591119)"
"555","Fort Edmonton Building #101 - Carousel Building","6601 - 148 Street NW 1846 Fort","No","Yes","53.5660463","-113.4714522","
,  
(53.5660463, -113.4714522)","POINT (-113.4714522 53.5660463)"
"944","Woodcroft Library","13420 - 114 Avenue NW","No","Yes","53.5640332","-113.5535857","
,  
(53.5640332, -113.5535857)","POINT (-113.5535857 53.5640332)"
"791","Riverside Golf Course - Lounge","8630 - Rowland Road NW","No","Yes","53.5496237","-113.4646814","
,  
(53.5496237, -113.4646814)","POINT (-113.4646814 53.5496237)"
"622","LRT Tunnels South","South Side Underground","No","Yes","53.519337","-113.4980859","
,  
(53.519337, -113.4980859)","POINT (-113.4980859 53.519337)"
"280","Jasper Place Park Tennis Courts Building","9200-163 Street NW","Yes","Yes","53.526942","-113.603675","
,  
(53.526942, -113.603675)","POINT (-113.603675 53.526942)"
"139","Kennedale Waste Administration Building","12802-58 Street NW","No","Yes","53.5854852999999","-113.4309005","
,  
(53.5854852999999, -113.4309005)","POINT (-113.4309005 53.5854852999999)"
"89","Fire Station No.3","11226-76 Avenue NW","Yes","Yes","53.512579","-113.521955","
,  
(53.512579, -113.521955)","POINT (-113.521955 53.512579)"
"862","Edmonton Valley Zoo #22 - Capybara Shelter","13315 - Buena Vista Road NW","No","Yes","53.5109217","-113.5564743","
,  
(53.5109217, -113.5564743)","POINT (-113.5564743 53.5109217)"
"207","Riverside Golf Course - Clubhouse","8630-Rowland Road NW","Yes","Yes","53.5496237","-113.4646814","
,  
(53.5496237, -113.4646814)","POINT (-113.4646814 53.5496237)"
"533","Fort Edmonton Building #74 - Gyro Park Washrooms","6601 - 148 Street NW 1905 St.","No","Yes","53.5852417","-113.5742684","
,  
(53.5852417, -113.5742684)","POINT (-113.5742684 53.5852417)"
"673","Downtown Division Police Station - Parkade","9620 - 103A Avenue NW","No","Yes","53.5474374","-113.4849062","
,  
(53.5474374, -113.4849062)","POINT (-113.4849062 53.5474374)"
"901","Waste Management - Research and Development","250 Aurum Road NE #310","No","Yes","53.5900851","-113.340218","
,  
(53.5900851, -113.340218)","POINT (-113.340218 53.5900851)"
"94","Fire Station No.12","9020-156 Street NW","Yes","Yes","53.5237853","-113.5907484","
,  
(53.5237853, -113.5907484)","POINT (-113.5907484 53.5237853)"
"13","Bay LRT Station","100 Bay Lrt Station","Yes","Yes",,,,
"88","Fire Station No.1","10351-96 Street NW","Yes","Yes","53.5478136","-113.4836059","
,  
(53.5478136, -113.4836059)","POINT (-113.4836059 53.5478136)"
"505","Fort Edmonton Building #39 - Ottewell Turkey Shelter","6601 - 148 Street NW 1885 St.","No","Yes","53.5852417","-113.5742684","
,  
(53.5852417, -113.5742684)","POINT (-113.5742684 53.5852417)"
"386","Central Roadway Maintenance Yard - Cold Storage #3","10517 - 95 Street NW","No","Yes","53.5510275","-113.4794218","
,  
(53.5510275, -113.4794218)","POINT (-113.4794218 53.5510275)"
"61","Commercial Leased Building","15308-Stony Plain Road","Yes","Yes","53.5413943999999","-113.5857881","
,  
(53.5413943999999, -113.5857881)","POINT (-113.5857881 53.5413943999999)"
"393","Century Park LRT Substation","2407 - 111 Street NW","No","Yes","53.45648","-113.5160997","
,  
(53.45648, -113.5160997)","POINT (-113.5160997 53.45648)"
"120","Grand Trunk Leisure Centre","13025-112 Street NW","Yes","Yes","53.5895269","-113.510937","
,  
(53.5895269, -113.510937)","POINT (-113.510937 53.5895269)"
"420","Commercial Leased Building","5333 - 75 Street NW","No","Yes","53.4920825","-113.4420892","
,  
(53.4920825, -113.4420892)","POINT (-113.4420892 53.4920825)"
"930","William Hawrelak Park #4 - Pumphouse","9330 - Groat Road NW","No","Yes","53.5271128","-113.5475244","
,  
(53.5271128, -113.5475244)","POINT (-113.5475244 53.5271128)"
"522","Fort Edmonton Building #59 - Rutherford House","6601 - 148 Street NW 1905 St.","No","Yes","53.5852417","-113.5742684","
,  
(53.5852417, -113.5742684)","POINT (-113.5742684 53.5852417)"
"348","Abbottsfield Recreation Centre","3006 - 119 Avenue NW","No","Yes","53.5725136","-113.3893253","
,  
(53.5725136, -113.3893253)","POINT (-113.3893253 53.5725136)"
"695","Rainbow Valley Campground - Garage","13204 - 45 Avenue NW","No","Yes","53.4814061","-113.5537004","
,  
(53.4814061, -113.5537004)","POINT (-113.5537004 53.4814061)"
"473","Fort Edmonton Building #6 - Rundle Chapel","6601 - 148 Street NW 1846 Fort","No","Yes","53.5660463","-113.4714522","
,  
(53.5660463, -113.4714522)","POINT (-113.4714522 53.5660463)"
"817","South Campus LRT Station","115 Street & 66 Avenue","No","Yes","53.502796","-113.52847","
,  
(53.502796, -113.52847)","POINT (-113.52847 53.502796)"
"560","Fort Edmonton Building #105 - Maintenance Yard Storage Container 1","6601 - 148 Street NW Fort Maintenance Yard","No","Yes",,,,
"851","Edmonton Valley Zoo #7 - Hay Shed","13315 - Buena Vista Road NW","No","Yes","53.5109217","-113.5564743","
,  
(53.5109217, -113.5564743)","POINT (-113.5564743 53.5109217)"
"806","South Haven Cemetery - Off Trailer","5004 Meridian Street NW","No","Yes","53.488746","-113.346309","
,  
(53.488746, -113.346309)","POINT (-113.346309 53.488746)"
"879","Edmonton Valley Zoo #42 - Polar Filtration Building","13315 - Buena Vista Road NW","No","Yes","53.5109217","-113.5564743","
,  
(53.5109217, -113.5564743)","POINT (-113.5564743 53.5109217)"
"459","Fire Station No.27","1203 Ellwood Road SW","No","Yes","53.4290144","-113.4758527","
,  
(53.4290144, -113.4758527)","POINT (-113.4758527 53.4290144)"
"574","Government Centre Transit Centre","9827 - 107 Street NW","No","Yes","53.536307","-113.5041023","
,  
(53.536307, -113.5041023)","POINT (-113.5041023 53.536307)"
"914","Waste Management - Groundwater Pump Station 2","250 Aurum Road NE #1200","No","Yes","53.5900851","-113.340218","
,  
(53.5900851, -113.340218)","POINT (-113.340218 53.5900851)"
"589","Jasper Place Library","9509 - 156 Street NW","No","Yes","53.5318254","-113.5898385","
,  
(53.5318254, -113.5898385)","POINT (-113.5898385 53.5318254)"
"700","Rainbow Valley - Yard Garage","13204 - 45 Avenue NW","No","Yes","53.4814061","-113.5537004","
,  
(53.4814061, -113.5537004)","POINT (-113.5537004 53.4814061)"
"594","John Walter Office/Washroom","9180 Walterdale Hill NW","No","Yes","53.5276607","-113.5037136","
,  
(53.5276607, -113.5037136)","POINT (-113.5037136 53.5276607)"
"265","Westwood Transit Garage","11840-106A Street NW","Yes","Yes","53.5712988","-113.504837","
,  
(53.5712988, -113.504837)","POINT (-113.504837 53.5712988)"
"164","Oliver Arena","10335-119 Street NW","Yes","Yes","53.5461288","-113.5263028","
,  
(53.5461288, -113.5263028)","POINT (-113.5263028 53.5461288)"
"166","Ortona Armouries Arts Centre","9722-102 Street NW","Yes","Yes","53.5350924","-113.4957316","
,  
(53.5350924, -113.4957316)","POINT (-113.4957316 53.5350924)"
"109","Fort Edmonton Building #72 - Ernest Brown Studio","7000 - 143 Street","No","Yes","53.5033505","-113.5713762","
,  
(53.5033505, -113.5713762)","POINT (-113.5713762 53.5033505)"
"417","Commercial Leased Building","12515 - 128 Street NW","No","Yes","53.5817173","-113.5424161","
,  
(53.5817173, -113.5424161)","POINT (-113.5424161 53.5817173)"
"213","Rundle Golf Course - Clubhouse/Maintenance Building","2903-113 Avenue NW","Yes","Yes","53.5662584","-113.3871508","
,  
(53.5662584, -113.3871508)","POINT (-113.3871508 53.5662584)"
"260","Westwood Arena","12040-97 Street NW","Yes","Yes","53.5742815","-113.4923126","
,  
(53.5742815, -113.4923126)","POINT (-113.4923126 53.5742815)"
"438","Davies - Mechanical/Storage Building","8703 - 58 Avenue NW","No","Yes","53.492973","-113.4584761","
,  
(53.492973, -113.4584761)","POINT (-113.4584761 53.492973)"
"3","ACT Aquatic and Recreation Centre","2909-113 Avenue NW","Yes","Yes","53.555912","-113.3865486","
,  
(53.555912, -113.3865486)","POINT (-113.3865486 53.555912)"
"866","Edmonton Valley Zoo #27 - Souvenir Storage","13315 - Buena Vista Road NW","No","Yes","53.5109217","-113.5564743","
,  
(53.5109217, -113.5564743)","POINT (-113.5564743 53.5109217)"
"300","Fort Edmonton Building #29 - Jasper House Hotel","7000 143 Street","Yes","Yes","53.5033505","-113.5713762","
,  
(53.5033505, -113.5713762)","POINT (-113.5713762 53.5033505)"
"457","Fire Station No.25","8403 - 167 Avenue NW","No","Yes","53.628365","-113.470261","
,  
(53.628365, -113.470261)","POINT (-113.470261 53.628365)"
"144","Kinsmen Sports Centre","9100-Walterdale Hill NW","Yes","Yes","53.5261857","-113.5065533","
,  
(53.5261857, -113.5065533)","POINT (-113.5065533 53.5261857)"
"608","Kingsway/Royal Alex LRT Station","110 Avenue 105 Street NW","No","Yes","53.5537615","-113.5010466","
,  
(53.5537615, -113.5010466)","POINT (-113.5010466 53.5537615)"
"110","Fort Edmonton Building #86 - Carpentry Shop","6601 - 148 Street NW","No","Yes","53.5132248","-113.5755126","
,  
(53.5132248, -113.5755126)","POINT (-113.5755126 53.5132248)"
"537","Fort Edmonton Building #79 - Mellon Equipment Shelter","6601 - 148 Street NW 1920 St.","No","Yes","53.5852417","-113.5742684","
,  
(53.5852417, -113.5742684)","POINT (-113.5742684 53.5852417)"
"897","Waste Management - Lunchroom/Washroom","250 Aurum Road NE #1100","No","Yes","53.5900851","-113.340218","
,  
(53.5900851, -113.340218)","POINT (-113.340218 53.5900851)"
"877","Edmonton Valley Zoo #40 - Pony Barn","13315 - Buena Vista Road NW","No","Yes","53.5109217","-113.5564743","
,  
(53.5109217, -113.5564743)","POINT (-113.5564743 53.5109217)"
"855","Edmonton Valley Zoo #14 - Concession Shelter","13315 - Buena Vista Road NW","No","Yes","53.5109217","-113.5564743","
,  
(53.5109217, -113.5564743)","POINT (-113.5564743 53.5109217)"
"294","Airport Building #5 - Tower Visitor Centre","31 Airport Road","Yes","Yes","53.5686325","-113.5193337","
,  
(53.5686325, -113.5193337)","POINT (-113.5193337 53.5686325)"
"587","Jasper Place Transit Mens Washroom","15627 Stony Plain Road NW","No","Yes","53.5413016","-113.5917512","
,  
(53.5413016, -113.5917512)","POINT (-113.5917512 53.5413016)"
"320","Fort Edmonton Building #95 - Train Station/Office","7000 - 143 Street","No","Yes","53.5033505","-113.5713762","
,  
(53.5033505, -113.5713762)","POINT (-113.5713762 53.5033505)"
"564","Fort Edmonton Building #109 - Capitol Theatre","6601 - 148 Street NW","No","Yes","53.5132248","-113.5755126","
,  
(53.5132248, -113.5755126)","POINT (-113.5755126 53.5132248)"
"152","Londonderry Arena","14520-66 Street NW","Yes","Yes","53.6064888","-113.4444549","
,  
(53.6064888, -113.4444549)","POINT (-113.4444549 53.6064888)"
"212","Rundle Park - Tennis Court Building","2903-113 Avenue NW","Yes","Yes","53.5662584","-113.3871508","
,  
(53.5662584, -113.3871508)","POINT (-113.3871508 53.5662584)"
"445","Edmonton Soccer Centre West","17415 - 106A Avenue NW","No","Yes","53.5513023","-113.6211664","
,  
(53.5513023, -113.6211664)","POINT (-113.6211664 53.5513023)"
"870","Edmonton Valley Zoo #31 - Tiger Building","13315 - Buena Vista Road NW","No","Yes","53.5109217","-113.5564743","
,  
(53.5109217, -113.5564743)","POINT (-113.5564743 53.5109217)"
"872","Edmonton Valley Zoo #34 - Takin Exhibit","13315 - Buena Vista Road NW","No","Yes","53.5109217","-113.5564743","
,  
(53.5109217, -113.5564743)","POINT (-113.5564743 53.5109217)"
"452","Emily Murphy Park - Washroom","Emily Murphy Rd & Groat Rd","No","Yes",,,,
"246","Edmonton Valley Zoo #11 - Washroom","13315-Beuna Vista Road NW","No","Yes","53.5109217","-113.5564743","
,  
(53.5109217, -113.5564743)","POINT (-113.5564743 53.5109217)"
"77","Eastglen Leisure Centre","11430-68 Street NW","Yes","Yes","53.568814","-113.446049","
,  
(53.568814, -113.446049)","POINT (-113.446049 53.568814)"
"440","DL Macdonald Right of Way Building","13304 - 50A St NW","No","Yes","53.5946276","-113.4170484","
,  
(53.5946276, -113.4170484)","POINT (-113.4170484 53.5946276)"
"346","Commercial Leased Building","12520 Fort Road","Yes","Yes","53.5822924999999","-113.4498632","
,  
(53.5822924999999, -113.4498632)","POINT (-113.4498632 53.5822924999999)"
"821","Southgate LRT Substation","5401 - 111 Street NW","No","Yes","53.490618","-113.5164945","
,  
(53.490618, -113.5164945)","POINT (-113.5164945 53.490618)"
"412","Commercial Leased Building","9696/98 - Jasper Avenue NW","No","Yes","53.5425227","-113.4852805","
,  
(53.5425227, -113.4852805)","POINT (-113.4852805 53.5425227)"
"158","Muttart Conservatory","9626-96A Street NW","Yes","Yes","53.5352198999999","-113.4772768","
,  
(53.5352198999999, -113.4772768)","POINT (-113.4772768 53.5352198999999)"
"575","Grandin LRT Station","100 Grandin LRT Station","No","Yes","53.5367641","-113.5103813","
,  
(53.5367641, -113.5103813)","POINT (-113.5103813 53.5367641)"
"938","William Nixon #3 - Training Garage","12950 - 9 Street NE","No","Yes","53.588095","-113.334348","
,  
(53.588095, -113.334348)","POINT (-113.334348 53.588095)"
"11","Ambulance Station No. 5","11169-101 Street","Yes","Yes","53.5608191","-113.493309","
,  
(53.5608191, -113.493309)","POINT (-113.493309 53.5608191)"
"553","Fort Edmonton Building #99 - Railway Coach","6601 - 148 Street NW 1846 Fort","No","Yes","53.5660463","-113.4714522","
,  
(53.5660463, -113.4714522)","POINT (-113.4714522 53.5660463)"
"138","Kennedale East Parks Operations","12830-58 Street NW","Yes","Yes","53.5865982","-113.434304","
,  
(53.5865982, -113.434304)","POINT (-113.434304 53.5865982)"
"609","Kingsway/Royal Alex LRT Substation","11011 - 105 Street NW","No","Yes","53.5569394","-113.500756","
,  
(53.5569394, -113.500756)","POINT (-113.500756 53.5569394)"
"544","Fort Edmonton Building #88 - Cold Storage","6601 - 148 Street NW","No","Yes","53.5132248","-113.5755126","
,  
(53.5132248, -113.5755126)","POINT (-113.5755126 53.5132248)"
"241","Tipton Arena","10828-80 Avenue NW","Yes","Yes","53.5168254","-113.511463","
,  
(53.5168254, -113.511463)","POINT (-113.511463 53.5168254)"
"865","Edmonton Valley Zoo #26 - Souvenir Sales Building","13315 - Buena Vista Road NW","No","Yes","53.5109217","-113.5564743","
,  
(53.5109217, -113.5564743)","POINT (-113.5564743 53.5109217)"
"475","Fort Edmonton Building #8 - Watch Tower","6601 - 148 Street NW 1846 Fort","No","Yes","53.5660463","-113.4714522","
,  
(53.5660463, -113.4714522)","POINT (-113.4714522 53.5660463)"
"907","Waste Management - Equipment Storage/Maintenance","250 Aurum Road NE #320","No","Yes","53.5900851","-113.340218","
,  
(53.5900851, -113.340218)","POINT (-113.340218 53.5900851)"
"104","Fire Station No.23","10130-178 Street NW","Yes","Yes","53.543123","-113.628016","
,  
(53.543123, -113.628016)","POINT (-113.628016 53.543123)"
"665","Old Man Creek - Potting Shed","53351 Range Rd 231 (Cloverbar Rd)","No","Yes",,,,
"232","Sprucewood Library","11555-95 Street NW","No","Yes","53.5671593999999","-113.4868214","
,  
(53.5671593999999, -113.4868214)","POINT (-113.4868214 53.5671593999999)"
"633","Millgate Transit Centre","4503 - 86 Street NW","No","Yes","53.4853732","-113.45334","
,  
(53.4853732, -113.45334)","POINT (-113.45334 53.4853732)"
"497","Fort Edmonton Building #31 - NWMP Station","6601 - 148 Street NW 1885 St.","No","Yes","53.5852417","-113.5742684","
,  
(53.5852417, -113.5742684)","POINT (-113.5742684 53.5852417)"
"385","Central Roadway Maintenance Yard - Cold Storage #1","10517 - 95 Street NW","No","Yes","53.5510275","-113.4794218","
,  
(53.5510275, -113.4794218)","POINT (-113.4794218 53.5510275)"
"301","Fort Edmonton Building #52 - Egge's Stopping House","7000 143 Street","No","Yes","53.5033505","-113.5713762","
,  
(53.5033505, -113.5713762)","POINT (-113.5713762 53.5033505)"
"512","Fort Edmonton Building #46 - Lauder's Bakery and Residence","6601 - 148 Street NW 1885 St.","No","Yes","53.5852417","-113.5742684","
,  
(53.5852417, -113.5742684)","POINT (-113.5742684 53.5852417)"
"816","Southeast Aggregate Recycling - Office","5221 - 17 Street NW","No","Yes","53.4867443","-113.3627053","
,  
(53.4867443, -113.3627053)","POINT (-113.3627053 53.4867443)"
"31","Central Roadway Maintenance Yard - Office/Shops","10517-95 Street NW","Yes","Yes","53.5510275","-113.4794218","
,  
(53.5510275, -113.4794218)","POINT (-113.4794218 53.5510275)"
"900","Waste Management - Co-Composter","250 Aurum Road NE #500","No","Yes","53.5900851","-113.340218","
,  
(53.5900851, -113.340218)","POINT (-113.340218 53.5900851)"
"314","Fort Edmonton Building #48 - Kelly's Saloon","7000 - 143 Street","No","Yes","53.5033505","-113.5713762","
,  
(53.5033505, -113.5713762)","POINT (-113.5713762 53.5033505)"
"568","Giovanni Caboto Park Washroom","9403 - 109A Avenue NW","No","Yes","53.5576922","-113.4835527","
,  
(53.5576922, -113.4835527)","POINT (-113.4835527 53.5576922)"
"278","Southeast Transit Yard - Office/Shops","5404 59 Ave NW","Yes","Yes","53.4973059999999","-113.420918","
,  
(53.4973059999999, -113.420918)","POINT (-113.420918 53.4973059999999)"
"71","Crestwood Arena","9940-147 Street NW","Yes","Yes","53.538626","-113.575397","
,  
(53.538626, -113.575397)","POINT (-113.575397 53.538626)"
"364","Belvedere LRT Substation","6204 128 Avenue NW","No","Yes","53.5861045","-113.4377067","
,  
(53.5861045, -113.4377067)","POINT (-113.4377067 53.5861045)"
"433","Davies - Administration Building","8729 - 58 Avenue NW","No","Yes","53.4921328","-113.4596795","
,  
(53.4921328, -113.4596795)","POINT (-113.4596795 53.4921328)"
"582","Inglewood Transit Washroom","12312 - 112 Avenue NW","No","Yes","53.560806","-113.535414","
,  
(53.560806, -113.535414)","POINT (-113.535414 53.560806)"
"23","Callingwood Twin Arenas","17740-69 Avenue NW","No","Yes","53.505064","-113.627129","
,  
(53.505064, -113.627129)","POINT (-113.627129 53.505064)"
"539","Fort Edmonton Building #82 - Concession Booth","6601 - 148 Street NW 1920 St.","No","Yes","53.5852417","-113.5742684","
,  
(53.5852417, -113.5742684)","POINT (-113.5742684 53.5852417)"
"379","Castle Downs Transit Washroom","15445 - Castle Downs Road NW","No","Yes","53.6165759999999","-113.516392","
,  
(53.6165759999999, -113.516392)","POINT (-113.516392 53.6165759999999)"
"524","Fort Edmonton Building #62 - Penny Arcade","6601 - 148 Street NW 1905 St.","No","Yes","53.5852417","-113.5742684","
,  
(53.5852417, -113.5742684)","POINT (-113.5742684 53.5852417)"
"616","Louise McKinney Park - Riverfront Amenity Building","9735 Grierson Hill Road","No","Yes","53.5406023","-113.4830725","
,  
(53.5406023, -113.4830725)","POINT (-113.4830725 53.5406023)"
"16","Bill Hunter Arena","9200-163 Street NW","Yes","Yes","53.526942","-113.603675","
,  
(53.526942, -113.603675)","POINT (-113.603675 53.526942)"
"860","Edmonton Valley Zoo #20 - Petting Zoo Shelter","13315 - Buena Vista Road NW","No","Yes","53.5109217","-113.5564743","
,  
(53.5109217, -113.5564743)","POINT (-113.5564743 53.5109217)"
"133","John Fry Ball Park","9700-28 Avenue NW","Yes","Yes","53.460218","-113.480388","
,  
(53.460218, -113.480388)","POINT (-113.480388 53.460218)"
"394","Centennial Transit Maintenance Garage","15520 Ellerslie Road SW","No","Yes","53.4257678","-113.5868712","
,  
(53.4257678, -113.5868712)","POINT (-113.5868712 53.4257678)"
"480","Fort Edmonton Building #13 - Married Mens Quarters","6601 - 148 Street NW 1846 Fort","No","Yes","53.5660463","-113.4714522","
,  
(53.5660463, -113.4714522)","POINT (-113.4714522 53.5660463)"
"696","Rainbow Valley - East Cook Shelter","13204 - 45 Avenue NW","No","Yes","53.4814061","-113.5537004","
,  
(53.4814061, -113.5537004)","POINT (-113.5537004 53.4814061)"
"173","Queen Elizabeth Pool","9100 Walterdale Hill","Yes","Yes","53.5261857","-113.5065533","
,  
(53.5261857, -113.5065533)","POINT (-113.5065533 53.5261857)"
"946","Calder Library","12710 - 131 Avenue NW","No","Yes","53.5901997","-113.5563818","
,  
(53.5901997, -113.5563818)","POINT (-113.5563818 53.5901997)"
"598","Kennedale Wash/Fuel Facility","12850 - 58 Street NW","No","Yes","53.586319","-113.431575","
,  
(53.586319, -113.431575)","POINT (-113.431575 53.586319)"
"50","Commercial Leased Building","10327/29/31/33-97 Street NW","Yes","Yes","53.5619661","-113.4913242","
,  
(53.5619661, -113.4913242)","POINT (-113.4913242 53.5619661)"
"912","Waste Management - Scale and Fuel Facility","250 Aurum Road NE #470","No","Yes","53.5900851","-113.340218","
,  
(53.5900851, -113.340218)","POINT (-113.340218 53.5900851)"
"465","Fire Station No.5","9020 - 111 Avenue NW","No","Yes","53.5613041","-113.4807038","
,  
(53.5613041, -113.4807038)","POINT (-113.4807038 53.5613041)"
"429","Coronation Park Tennis Court Building","13811 - 114 Avenue NW","No","Yes","53.5638448","-113.5604336","
,  
(53.5638448, -113.5604336)","POINT (-113.5604336 53.5638448)"
"352","Airport Building #3 - Hangar 11","11760 - 109 Street NW Bldg #11","No","Yes",,,,
"895","Waste Management - Operations Centre","250 Aurum Road NE #300","No","Yes","53.5900851","-113.340218","
,  
(53.5900851, -113.340218)","POINT (-113.340218 53.5900851)"
"644","NAIT LRT Tration Substation","11615 - 109 Street NW","No","Yes","53.5678739","-113.5067005","
,  
(53.5678739, -113.5067005)","POINT (-113.5067005 53.5678739)"
"549","Fort Edmonton Building #94 - Street Car Garage/Shop","6601 - 148 Street NW","No","Yes","53.5132248","-113.5755126","
,  
(53.5132248, -113.5755126)","POINT (-113.5755126 53.5132248)"
"661","Northeast Transit Garage","12403 - Fort Road","No","Yes","53.5790113","-113.4564229","
,  
(53.5790113, -113.4564229)","POINT (-113.4564229 53.5790113)"
"928","William Hawrelak Park #2 - Amphitheatre","9330 - Groat Road NW","No","Yes","53.5271128","-113.5475244","
,  
(53.5271128, -113.5475244)","POINT (-113.5475244 53.5271128)"
"507","Fort Edmonton Building #41 - Bulletin Building","6601 - 148 Street NW 1885 St.","No","Yes","53.5852417","-113.5742684","
,  
(53.5852417, -113.5742684)","POINT (-113.5742684 53.5852417)"
"529","Fort Edmonton Building #67 - JB Little Brickyard Shed","6601 - 148 Street NW 1905 St.","No","Yes","53.5852417","-113.5742684","
,  
(53.5852417, -113.5742684)","POINT (-113.5742684 53.5852417)"
"844","Terwillegar Community Recreation Centre - Arena","2051 Leger Raod NW","No","Yes","53.4584675","-113.5826084","
,  
(53.4584675, -113.5826084)","POINT (-113.5826084 53.4584675)"
"811","Southgate Transit Centre","5005 - 111 Street NW","No","Yes","53.485238","-113.516056","
,  
(53.485238, -113.516056)","POINT (-113.516056 53.485238)"
"56","Commercial Leased Building","14435 Yellowhead Trail","Yes","Yes","53.5809079","-113.5697465","
,  
(53.5809079, -113.5697465)","POINT (-113.5697465 53.5809079)"
"905","Waste Management - IPTF Admin Building","250 Aurum Road NE #480","No","Yes","53.5900851","-113.340218","
,  
(53.5900851, -113.340218)","POINT (-113.340218 53.5900851)"
"485","Fort Edmonton Building #18 - Trading Post","6601 - 148 Street NW 1846 Fort","No","Yes","53.5660463","-113.4714522","
,  
(53.5660463, -113.4714522)","POINT (-113.4714522 53.5660463)"
"888","Victoria Golf Course - Maintenance/Mechanical Garage","12030 - River Valey Road NW","No","Yes","53.5340883999999","-113.5232979","
,  
(53.5340883999999, -113.5232979)","POINT (-113.5232979 53.5340883999999)"
"100","Fire Station No.18","13808-Victoria Trail NW","Yes","Yes","53.6012119","-113.387012","
,  
(53.6012119, -113.387012)","POINT (-113.387012 53.6012119)"
"357","Ambleside ECO Station","14720 Ellerslie Road SW","No","Yes","53.4267409","-113.5751799","
,  
(53.4267409, -113.5751799)","POINT (-113.5751799 53.4267409)"
"917","West Edmonton Mall Transit Centre","17410 - 87 Avenue NW","No","Yes","53.520483","-113.622545","
,  
(53.520483, -113.622545)","POINT (-113.622545 53.520483)"
"37","City Hall","1 Sir Winston Churchill Square","No","Yes","53.5456493","-113.490263","
,  
(53.5456493, -113.490263)","POINT (-113.490263 53.5456493)"
"650","Northeast Transit Yard - Traffic Building","13003 - 56 Street NW","No","Yes","53.5899839999999","-113.426539","
,  
(53.5899839999999, -113.426539)","POINT (-113.426539 53.5899839999999)"
"796","Rollie Miles Storage Garage","10500 - 74 Avenue NW","No","Yes","53.5484492","-113.4418386","
,  
(53.5484492, -113.4418386)","POINT (-113.4418386 53.5484492)"
"6","Ambulance Station No.25","5402-136 Avenue NW","No","Yes","53.596919","-113.420168","
,  
(53.596919, -113.420168)","POINT (-113.420168 53.596919)"
"389","Roadway Maintenance Yard Building","9406 - 105 Avenue NW","No","Yes","53.5496207","-113.4811552","
,  
(53.5496207, -113.4811552)","POINT (-113.4811552 53.5496207)"
"403","Clareview East Bus Terminal","100 LRT Station NW","No","Yes","53.5409322","-113.4900248","
,  
(53.5409322, -113.4900248)","POINT (-113.4900248 53.5409322)"
"922","Westwood Site - Central Stores","12404 - 107 Street NW Stores Portion of WES115","No","Yes","53.5798","-113.5070066","
,  
(53.5798, -113.5070066)","POINT (-113.5070066 53.5798)"
"250","Edmonton Valley Zoo #23 - Round House","13315-Beuna Vista Road NW","No","Yes","53.5109217","-113.5564743","
,  
(53.5109217, -113.5564743)","POINT (-113.5564743 53.5109217)"
"337","Beechmount Cemetery Garage","12420-104 Stret NW","Yes","Yes","53.5801302","-113.4991063","
,  
(53.5801302, -113.4991063)","POINT (-113.4991063 53.5801302)"
"64","Coronation Arena","13500-112 Avenure NW","Yes","Yes","53.561271","-113.558168","
,  
(53.561271, -113.558168)","POINT (-113.558168 53.561271)"
"492","Fort Edmonton Building #25 - Secord Fur Store","6601 - 148 Sttreet NW 1885 St.","No","Yes","53.5852417","-113.5742684","
,  
(53.5852417, -113.5742684)","POINT (-113.5742684 53.5852417)"
"628","Meadows Transit Centre","3803 - 17 Street SE","No","Yes","53.4785139","-113.3624876","
,  
(53.4785139, -113.3624876)","POINT (-113.3624876 53.4785139)"
"797","Rundle Park - Canoe Storage Building","2903 - 113 Avenue NW","No","Yes","53.5662584","-113.3871508","
,  
(53.5662584, -113.3871508)","POINT (-113.3871508 53.5662584)"
"90","Fire Station No.6","8105-96 Street NW","No","Yes","53.517383","-113.476186","
,  
(53.517383, -113.476186)","POINT (-113.476186 53.517383)"
"561","Fort Edmonton Building #106 - Maintenance Yard Storage Container 2","6601 - 148 Street NW Fort Maintenance Yard","No","Yes",,,,
"933","William Hawrelak Park #7 - Washroom 2","9330 - Graot Road NW","No","Yes","53.5271128","-113.5475244","
,  
(53.5271128, -113.5475244)","POINT (-113.5475244 53.5271128)"
"437","Davies - Quonset Storage Building","8733 - 58 Avenue NW","No","Not Required","53.493316","-113.460177","
,  
(53.493316, -113.460177)","POINT (-113.460177 53.493316)"
"620","LRT Portal North","North End of Menzies Bridge","No","Yes","53.5306694","-113.5120227","
,  
(53.5306694, -113.5120227)","POINT (-113.5120227 53.5306694)"
"368","Borden Park West Swim Amenity Building","7616 - 113A Avenue NW","No","Yes","53.5626709999999","-113.515853","
,  
(53.5626709999999, -113.515853)","POINT (-113.515853 53.5626709999999)"
"904","Waste Management - Processing and Transfer Facility","250 Aurum Road NE #480","No","Yes","53.5900851","-113.340218","
,  
(53.5900851, -113.340218)","POINT (-113.340218 53.5900851)"
"556","Fort Edmonton Building #102 - Administration Building","6601 - 148 Street NW 1846 Fort","No","Yes","53.5660463","-113.4714522","
,  
(53.5660463, -113.4714522)","POINT (-113.4714522 53.5660463)"
"468","Fort Edmonton Building #1 - Fort","6601 - 148 Atreet NW 1846 Fort","No","Yes","53.5660463","-113.4714522","
,  
(53.5660463, -113.4714522)","POINT (-113.4714522 53.5660463)"
"95","Fire Station No.13","4035-119 Street NW","Yes","Yes","53.477866","-113.537967","
,  
(53.477866, -113.537967)","POINT (-113.537967 53.477866)"
"856","Edmonton Valley Zoo #15 - Monkey Shelters","13315 - Buena Vista Raod NW","No","Yes","53.5109217","-113.5564743","
,  
(53.5109217, -113.5564743)","POINT (-113.5564743 53.5109217)"
"460","Fire Station No.28","12110 - 26 Avenue SW","No","Yes","53.410801","-113.5384976","
,  
(53.410801, -113.5384976)","POINT (-113.5384976 53.410801)"
"371","Borden Park Pavilion/Washroom","7715 - Borden Park Road NW","No","Yes","53.562767","-113.4585999","
,  
(53.562767, -113.4585999)","POINT (-113.4585999 53.562767)"
"121","Grand Trunk Arena","13025-112 Street NW","Yes","Yes","53.5895269","-113.510937","
,  
(53.5895269, -113.510937)","POINT (-113.510937 53.5895269)"
"421","Commercial Leased Building","9531 Jasper Avenue NW","No","Yes","53.5443659","-113.479784","
,  
(53.5443659, -113.479784)","POINT (-113.479784 53.5443659)"
"675","Southeast Division Police Station","104 Youville Drive East NW","No","Yes","53.4599147","-113.4265279","
,  
(53.4599147, -113.4265279)","POINT (-113.4265279 53.4599147)"
"602","Kennedale Waste Operations East Building","5721 - 128 Avenue NW","No","Yes","53.5848258","-113.4300682","
,  
(53.5848258, -113.4300682)","POINT (-113.4300682 53.5848258)"
"595","John Janzen Storage Garage","7000 - 143 Street NW","No","Yes","53.5033505","-113.5713762","
,  
(53.5033505, -113.5713762)","POINT (-113.5713762 53.5033505)"
"390","Roadway Maintenance Yard and Quonset","9410 - 106 Avenue NW","No","Yes","53.5521514","-113.4801558","
,  
(53.5521514, -113.4801558)","POINT (-113.4801558 53.5521514)"
"22","Calder Seniors Centre","12963 120 Street NW","No","Yes","53.5893266","-113.528205","
,  
(53.5893266, -113.528205)","POINT (-113.528205 53.5893266)"
"266","Westin Pedway","Library Parkade to Westin Hotel","No","Yes","53.542016","-113.4898745","
,  
(53.542016, -113.4898745)","POINT (-113.4898745 53.542016)"
"167","Peter Hemingway Leisure Centre","13808-111 Avenue NW","Yes","Yes","53.5607070999999","-113.5592051","
,  
(53.5607070999999, -113.5592051)","POINT (-113.5592051 53.5607070999999)"
"640","Mount Pleasant Columbarium","5420 - 106 Street NW","No","Yes","53.4915759999999","-113.504843","
,  
(53.4915759999999, -113.504843)","POINT (-113.504843 53.4915759999999)"
"657","Northwest Transit Yard - Fleet Services Office/Garage","14402 - 114 Avenue NW","No","Yes","53.5639841","-113.5720468","
,  
(53.5639841, -113.5720468)","POINT (-113.5720468 53.5639841)"
"590","Jasper Place Transit Shelter","15701 - Stony Plain Road NW","No","Yes","53.541036","-113.59211","
,  
(53.541036, -113.59211)","POINT (-113.59211 53.541036)"
"882","Edmonton Valley Zoo #45 - Store","13315 - Buena Vista Road NW","No","Yes","53.5109217","-113.5564743","
,  
(53.5109217, -113.5564743)","POINT (-113.5564743 53.5109217)"
"261","Westwood Coin Processing","11841-106A Street NW","Yes","Yes","53.5716899","-113.50222","
,  
(53.5716899, -113.50222)","POINT (-113.50222 53.5716899)"
"807","South Haven Cemetery - Maintenance Garage","5004 - Meridian Street NW","No","Yes","53.488746","-113.346309","
,  
(53.488746, -113.346309)","POINT (-113.346309 53.488746)"
"825","Stadium LRT Substation","11103 - Stadium Road NW","No","Yes","53.5590076","-113.472778","
,  
(53.5590076, -113.472778)","POINT (-113.472778 53.5590076)"
"536","Fort Edmonton Building #78 - Mellon Farm Barn","6601 - 148 Street NW 1920 St.","No","Yes","53.5852417","-113.5742684","
,  
(53.5852417, -113.5742684)","POINT (-113.5742684 53.5852417)"
"407","Coliseum LRT Substation","7603 - 119 Avenue NW","No","Yes","53.5719931999999","-113.4580304","
,  
(53.5719931999999, -113.4580304)","POINT (-113.4580304 53.5719931999999)"
"945","Zoie Gardner Park Building","12710 - 70 Street NW","No","Yes","53.585392","-113.4494543","
,  
(53.585392, -113.4494543)","POINT (-113.4494543 53.585392)"
"353","Airport Building #4 - James Curry Jefferson","11630 109 Street","No","Yes","53.5663065","-113.5067274","
,  
(53.5663065, -113.5067274)","POINT (-113.5067274 53.5663065)"
"654","Northwest Transit Yard - Asphalt Plant","14402 - 114 Avenue NW","No","Yes","53.5639841","-113.5720468","
,  
(53.5639841, -113.5720468)","POINT (-113.5720468 53.5639841)"
"69","Corporate Training School-Fire Rescue Services","10420-157 Street","Yes","Yes","53.5474118","-113.5929733","
,  
(53.5474118, -113.5929733)","POINT (-113.5929733 53.5474118)"
"913","Waste Management - Groundwater Pump Station 1","250 Aurum Road NE #900","No","Yes","53.5900851","-113.340218","
,  
(53.5900851, -113.340218)","POINT (-113.340218 53.5900851)"
"792","Riverside Golf Course - Maintenance Building","8630 - Rowland Road NW","No","Yes","53.5496237","-113.4646814","
,  
(53.5496237, -113.4646814)","POINT (-113.4646814 53.5496237)"
"504","Fort Edmonton Building #38 - Ottewell Barn","6601 - 148 Street NW 1885 St.","No","Yes","53.5852417","-113.5742684","
,  
(53.5852417, -113.5742684)","POINT (-113.5742684 53.5852417)"
"82","Edmonton Cemetery - Office","11820-107 Avenue NW","Yes","Yes","53.551981","-113.526132","
,  
(53.551981, -113.526132)","POINT (-113.526132 53.551981)"
"517","Fort Edmonton Building #54 - Metis Cabin","6601 - 148 Street NW 1885 St.","No","Yes","53.5852417","-113.5742684","
,  
(53.5852417, -113.5742684)","POINT (-113.5742684 53.5852417)"
"845","University Transit Centre","89 Avenue & 112 Street","No","Yes","53.524841","-113.521792","
,  
(53.524841, -113.521792)","POINT (-113.521792 53.524841)"
"623","MacEwan LRT Station","105 Avenue 103 Street NW","No","Yes","53.5657676","-113.4985979","
,  
(53.5657676, -113.4985979)","POINT (-113.4985979 53.5657676)"
"327","Fire Station No 21","9315 - 101 Street","No","Yes","53.5285873","-113.4934044","
,  
(53.5285873, -113.4934044)","POINT (-113.4934044 53.5285873)"
"105","Forest Heights Tennis Centre Building","10250-84 Street NW","Yes","Yes","53.544581","-113.4580924","
,  
(53.544581, -113.4580924)","POINT (-113.4580924 53.544581)"
"219","Southwest Transit Yard - Administration Building","6607 - 103 Street","No","Yes","53.5038901","-113.4946413","
,  
(53.5038901, -113.4946413)","POINT (-113.4946413 53.5038901)"
"801","Rundle Park - Trail House","2903 - 113 Avenue NW","No","Yes","53.5662584","-113.3871508","
,  
(53.5662584, -113.3871508)","POINT (-113.3871508 53.5662584)"
"850","Edmonton Valley Zoo #6 - Quarantine Building 3","13315 - Buena Vista Road NW","No","Yes","53.5109217","-113.5564743","
,  
(53.5109217, -113.5564743)","POINT (-113.5564743 53.5109217)"
"873","Edmonton Valley Zoo #35 - Bighorn Sheep Shelter","13315 - Buena Vista Road NW","No","Yes","53.5109217","-113.5564743","
,  
(53.5109217, -113.5564743)","POINT (-113.5564743 53.5109217)"
"2","Chancery Hall","3 Sir Winston Churchill Square","Yes","Yes","53.5442769","-113.4885939","
,  
(53.5442769, -113.4885939)","POINT (-113.4885939 53.5442769)"
"937","William Nixon #2 - Training Trailers","12950 - 9 Street NW","No","Yes","53.514292","-113.360713","
,  
(53.514292, -113.360713)","POINT (-113.360713 53.514292)"
"456","Fire and Ambulance Station No.24","131 Haddow Close NW","No","Yes","53.459373","-113.591074","
,  
(53.459373, -113.591074)","POINT (-113.591074 53.459373)"
"145","Kinsmen Park Playground Washroom","9100-Walterdale Hill NW","Yes","Yes","53.5261857","-113.5065533","
,  
(53.5261857, -113.5065533)","POINT (-113.5065533 53.5261857)"
"441","Downtown Community Arena","10245 - 105 Avenue NW","No","Yes","53.547795","-113.495518","
,  
(53.547795, -113.495518)","POINT (-113.495518 53.547795)"
"114","Fred Broadstock Pool","10515-158 Street NW","Yes","Yes","53.549218","-113.593062","
,  
(53.549218, -113.593062)","POINT (-113.593062 53.549218)"
"576","Health Sciences LRT Station","114 Street & 83 Avenue","No","Yes",,,,
"43","Clarke Stadium","11000 Stadium Road NW","No","Not Required","53.5580776","-113.4766379","
,  
(53.5580776, -113.4766379)","POINT (-113.4766379 53.5580776)"
"489","Fort Edmonton Building #22 - Raymer's Jewellery Store","6601 - 148 Street NW 1885 St.","No","Yes","53.5852417","-113.5742684","
,  
(53.5852417, -113.5742684)","POINT (-113.5742684 53.5852417)"
"571","Gold Bar Park - Snow Making Pump House","10975 - 50 Street NW","No","Yes","53.5612751","-113.4185404","
,  
(53.5612751, -113.4185404)","POINT (-113.4185404 53.5612751)"
"416","Commercial Leased Building","10303 - 96 Street","No","Yes","53.546626","-113.483209","
,  
(53.546626, -113.483209)","POINT (-113.483209 53.546626)"
"472","Fort Edmonton Building #5 - Horse Stable 2","6601 - 148 Street NW 1846 Fort","No","Yes","53.5660463","-113.4714522","
,  
(53.5660463, -113.4714522)","POINT (-113.4714522 53.5660463)"
"235","Strathcona Library","8331 - 104 St","Yes","Yes","53.519774","-113.497236","
,  
(53.519774, -113.497236)","POINT (-113.497236 53.519774)"
"7","Ambulance Station No.27","15724-100A Avenue NW","No","Yes","53.539675","-113.592882","
,  
(53.539675, -113.592882)","POINT (-113.592882 53.539675)"
"338","Strathcona Youth Co-op","10325 83 Street NW","No","Yes","53.5455324","-113.4555769","
,  
(53.5455324, -113.4555769)","POINT (-113.4555769 53.5455324)"
"295","Commercial Leased Building","10310 85 Ave NW","Yes","Yes","53.5211377","-113.4958313","
,  
(53.5211377, -113.4958313)","POINT (-113.4958313 53.5211377)"
"302","Fort Edmonton Building #81 - Al Rashid Mosque","7000 143 Street South","Yes","Yes","53.5033505","-113.5713762","
,  
(53.5033505, -113.5713762)","POINT (-113.5713762 53.5033505)"
"493","Fort Edmonton Building #26 - Secord Fur Warehouse","6601 - 148 Street NW 1885 St.","No","Yes","53.5852417","-113.5742684","
,  
(53.5852417, -113.5742684)","POINT (-113.5742684 53.5852417)"
"605","Kennedale Quonset","12802 - 58 Street NW","No","Yes","53.5854852999999","-113.4309005","
,  
(53.5854852999999, -113.4309005)","POINT (-113.4309005 53.5854852999999)"
"143","Kennedale Waste Transfer Station","12804 58 Street NW","Yes","Yes","53.58546","-113.431918","
,  
(53.58546, -113.431918)","POINT (-113.431918 53.58546)"
"878","Edmonton Valley Zoo #41 - Polar Retreat Building","13315 - Buena Vista Road NW","No","Yes","53.5109217","-113.5564743","
,  
(53.5109217, -113.5564743)","POINT (-113.5564743 53.5109217)"
"532","Fort Edmonton Building #71 - Fire Hall/Civic Centre","6601 - 148 Street NW 1905 St.","No","Yes","53.5852417","-113.5742684","
,  
(53.5852417, -113.5742684)","POINT (-113.5742684 53.5852417)"
"671","West Division Police Station","16505 - 100 Avenue NW","No","Yes","53.538883","-113.606904","
,  
(53.538883, -113.606904)","POINT (-113.606904 53.538883)"
"629","Meadows Community Recreation Centre","2704 - 17 Street NW","No","Yes","53.4576722","-113.371192","
,  
(53.4576722, -113.371192)","POINT (-113.371192 53.4576722)"
"87","Ferrier Transit Garage","8620-58 Avenue NW","Yes","Yes","53.49484","-113.456724","
,  
(53.49484, -113.456724)","POINT (-113.456724 53.49484)"
"500","Fort Edmonton Building #34 - Kenneth McDonald House","6601 - 148 Street NW 1885 St.","No","Yes","53.5852417","-113.5742684","
,  
(53.5852417, -113.5742684)","POINT (-113.5742684 53.5852417)"
"637","Mill Woods Service Yard - Office Trailer","6920 - 23 Avenue NW","No","Yes","53.4542085","-113.4400124","
,  
(53.4542085, -113.4400124)","POINT (-113.4400124 53.4542085)"
"869","Edmonton Valley Zoo #30 - Wolf House","13315 - Buena Vista Road NW","No","Yes","53.5109217","-113.5564743","
,  
(53.5109217, -113.5564743)","POINT (-113.5564743 53.5109217)"
"521","Fort Edmonton Building #58 - St. Anthony's Church","6601 - 148 Street NW 1905 St.","No","Yes","53.5852417","-113.5742684","
,  
(53.5852417, -113.5742684)","POINT (-113.5742684 53.5852417)"
"940","William Nixon #5 - Storage","12950 - 9 Street NE","No","Yes","53.588095","-113.334348","
,  
(53.588095, -113.334348)","POINT (-113.334348 53.588095)"
"820","Southgate LRT Station","100 Southgate Station","No","Yes","53.5388803","-113.6157804","
,  
(53.5388803, -113.6157804)","POINT (-113.6157804 53.5388803)"
"163","O'leary Pool","8804-132 Avenue NW","Yes","Yes","53.592849","-113.476254","
,  
(53.592849, -113.476254)","POINT (-113.476254 53.592849)"
"498","Fort Edmonton Building #32 - NWMP Gun Shed","6601 - 148 Street NW 1885 St.","No","Yes","53.5852417","-113.5742684","
,  
(53.5852417, -113.5742684)","POINT (-113.5742684 53.5852417)"
"909","Waste Management - Grey's Recycling Facility","250 Aurum Road NE #440","No","Yes","53.5900851","-113.340218","
,  
(53.5900851, -113.340218)","POINT (-113.340218 53.5900851)"
"249","Edmonton Valley Zoo #19 - Old MacDonalds Barn/Chicken Shelter","13315-Beuna Vista Road NW","No","Yes","53.5109217","-113.5564743","
,  
(53.5109217, -113.5564743)","POINT (-113.5564743 53.5109217)"
"896","Waste Management - Leachate Treatment","250 Aurum Road NE #330","No","Yes","53.5900851","-113.340218","
,  
(53.5900851, -113.340218)","POINT (-113.340218 53.5900851)"
"137","Kennedale Fleet Services Garage/Offices","12840-58 Street NW","No","Yes","53.5864839","-113.4323447","
,  
(53.5864839, -113.4323447)","POINT (-113.4323447 53.5864839)"
"12","Artifacts Centre","10542-Fort Hill Road NW","Yes","Yes","53.5245437","-113.505558","
,  
(53.5245437, -113.505558)","POINT (-113.505558 53.5245437)"
"291","Confederation Arena","11204 43 Avenue","Yes","Yes","53.4787119999999","-113.520398","
,  
(53.4787119999999, -113.520398)","POINT (-113.520398 53.4787119999999)"
"548","Fort Edmonton Building #93 - Train Garage/Shop","6601 - 148 Street NW","No","Yes","53.5132248","-113.5755126","
,  
(53.5132248, -113.5755126)","POINT (-113.5755126 53.5132248)"
"476","Fort Edmonton Building #9 - York Boat Picnic Shelter","6601 - 148 Street NW 1846 Fort","No","Yes","53.5660463","-113.4714522","
,  
(53.5660463, -113.4714522)","POINT (-113.4714522 53.5660463)"
"610","Kingsway/Royal Alex Transit Centre","10519 - 111 Avenue NW","No","Yes","53.5588552","-113.5024225","
,  
(53.5588552, -113.5024225)","POINT (-113.5024225 53.5588552)"
"864","Edmonton Valley Zoo #25 - Old Train Station","13315 - Buena Vista Road NW","No","Yes","53.5109217","-113.5564743","
,  
(53.5109217, -113.5564743)","POINT (-113.5564743 53.5109217)"
"889","Victoria Golf Course - Maintenance Building","12030 - River Valley Road NW","No","Yes","53.5340883999999","-113.5232979","
,  
(53.5340883999999, -113.5232979)","POINT (-113.5232979 53.5340883999999)"
"908","Waste Management - Construction and Demolitition Sorting","250 Aurum Road NE #800","No","Yes","53.5900851","-113.340218","
,  
(53.5900851, -113.340218)","POINT (-113.340218 53.5900851)"
"103","Fire Station No.22","10124-123 Street NW","Yes","Yes","53.542211","-113.534595","
,  
(53.542211, -113.534595)","POINT (-113.534595 53.542211)"
"664","Old Man Creek - Greenhouse","53351 Range Rd 231 (Cloverbar Rd)","No","Yes",,,,
"211","Rundle Park - Wildcats Clubhouse","2903-113 Avenue NW","Yes","Yes","53.5662584","-113.3871508","
,  
(53.5662584, -113.3871508)","POINT (-113.3871508 53.5662584)"
"402","Clareview West Bus Terminal","100 LRT Station NW","No","Yes","53.5409322","-113.4900248","
,  
(53.5409322, -113.4900248)","POINT (-113.4900248 53.5409322)"
"631","Meadows Arena","2704 - 17 Street NW","No","Yes","53.4576722","-113.371192","
,  
(53.4576722, -113.371192)","POINT (-113.371192 53.4576722)"
"380","Castle Downs Transit Shelter","15445 - Castle Downs Road NW","No","Yes","53.6165759999999","-113.516392","
,  
(53.6165759999999, -113.516392)","POINT (-113.516392 53.6165759999999)"
"923","Whitemud Equine Centre - Riding Office","12505 Keillor Road NW","No","Yes","53.5036946","-113.5561087","
,  
(53.5036946, -113.5561087)","POINT (-113.5561087 53.5036946)"
"615","Louise McKinney Park - Shumka Stage","9529 Grierson Hill Road NW","No","Yes","53.5428937","-113.4805427","
,  
(53.5428937, -113.4805427)","POINT (-113.4805427 53.5428937)"
"51","Commercial Leased Building","9641-102A Avenue NW","Yes","Yes","53.5451027","-113.4847612","
,  
(53.5451027, -113.4847612)","POINT (-113.4847612 53.5451027)"
"525","Fort Edmonton Building #63 - Band Shell","6601 - 148 Street NW 1905 St.","No","Yes","53.5852417","-113.5742684","
,  
(53.5852417, -113.5742684)","POINT (-113.5742684 53.5852417)"
"849","Edmonton Valley Zoo #5 - Quarantine Building 2","13315 - Buena Vista Road NW","No","Yes","53.5109217","-113.5564743","
,  
(53.5109217, -113.5564743)","POINT (-113.5564743 53.5109217)"
"815","Southwest Transit Yard - Fuel Facility","6607 - Gateway Boulevard NW","No","Yes","53.5030419","-113.4940361","
,  
(53.5030419, -113.4940361)","POINT (-113.4940361 53.5030419)"
"32","Central Roadway Maintenance Yard - Administration Office","10517-95 Street NW","Yes","Yes","53.5510275","-113.4794218","
,  
(53.5510275, -113.4794218)","POINT (-113.4794218 53.5510275)"
"649","Noortheast Transit Yard - Equipment Shop","13003 - 56 Street NW","No","Yes","53.5899839999999","-113.426539","
,  
(53.5899839999999, -113.426539)","POINT (-113.426539 53.5899839999999)"
"344","Edmonton Cemetery - Mausoleum","11820-107 Ave NW","No","Yes","53.551981","-113.526132","
,  
(53.551981, -113.526132)","POINT (-113.526132 53.551981)"
"800","Rundle Park - Pumphouse","2903 - 113 Avenue NW","No","Yes","53.5662584","-113.3871508","
,  
(53.5662584, -113.3871508)","POINT (-113.3871508 53.5662584)"
"874","Edmonton Valley Zoo #36 - Birds of Prey Exhibit","13315 - Buena Vista Road NW","No","Yes","53.5109217","-113.5564743","
,  
(53.5109217, -113.5564743)","POINT (-113.5564743 53.5109217)"
"662","Northgate Transit Centre Shelter","9560 - 137 Avenue NW","No","Yes","53.6005145","-113.4897906","
,  
(53.6005145, -113.4897906)","POINT (-113.4897906 53.6005145)"
"363","Belvedere LRT Station","6010 - 129 Avenue NW 100 Belveder LRT Station","No","Yes","53.588283","-113.4330549","
,  
(53.588283, -113.4330549)","POINT (-113.4330549 53.588283)"
"59","Commercial Leased Building","9604 - 101A Avenue","Yes","Yes","53.5438864","-113.4830266","
,  
(53.5438864, -113.4830266)","POINT (-113.4830266 53.5438864)"
"530","Fort Edmonton Building #68 - Bank Of Montreal","6601 - 148 Street NW 1905 St.","No","Yes","53.5852417","-113.5742684","
,  
(53.5852417, -113.5742684)","POINT (-113.5742684 53.5852417)"
"881","Edmonton Valley Zoo #44 - Cafe","13315 - Buena Vista Road NW","No","Yes","53.5109217","-113.5564743","
,  
(53.5109217, -113.5564743)","POINT (-113.5564743 53.5109217)"
"793","Riverbend Cabin","15515 - Whitemud Road NW","No","Yes","53.496164","-113.587483","
,  
(53.496164, -113.587483)","POINT (-113.587483 53.496164)"
"481","Fort Edmonton Building #14 - Tradesmen Quarters","6601 - 148 Street NW 1846 Fort","No","Yes","53.5660463","-113.4714522","
,  
(53.5660463, -113.4714522)","POINT (-113.4714522 53.5660463)"
"174","Rainbow Valley - Yard Storage","13204-45 Avenue NW","No","Yes","53.4814061","-113.5537004","
,  
(53.4814061, -113.5537004)","POINT (-113.5537004 53.4814061)"
"466","Fire Station No.10","12735 - 101 Street NW","No","Yes","53.5854276","-113.4932237","
,  
(53.5854276, -113.4932237)","POINT (-113.4932237 53.5854276)"
"156","Mitchell Transit Garage","11904-154 Street NW","No","Yes","53.5713987","-113.5888096","
,  
(53.5713987, -113.5888096)","POINT (-113.5888096 53.5713987)"
"411","Commercial Leased Building","9137 - Jasper Avenue NW","No","Yes","53.5497017","-113.4741759","
,  
(53.5497017, -113.4741759)","POINT (-113.4741759 53.5497017)"
"255","Victoria Golf Course - Clubhouse","12030-River Valley Road NW","Yes","Yes","53.5340883999999","-113.5232979","
,  
(53.5340883999999, -113.5232979)","POINT (-113.5232979 53.5340883999999)"
"513","Fort Edmonton Building #47 - Daly's Drug Store","6601 - 148 Street NW 1885 St.","No","Yes","53.5852417","-113.5742684","
,  
(53.5852417, -113.5742684)","POINT (-113.5742684 53.5852417)"
"552","Fort Edmonton Building #98 - Blatchford Hangar","6601 - 148 Street NW","No","Yes","53.5132248","-113.5755126","
,  
(53.5132248, -113.5755126)","POINT (-113.5755126 53.5132248)"
"311","Edmonton Research Park Building #1","9403-9419 20 Avenue","Yes","Yes","53.4502586","-113.4743309","
,  
(53.4502586, -113.4743309)","POINT (-113.4743309 53.4502586)"
"242","Tweedle Place Tennis Building","8230-Mill Woods Road NW","Yes","Yes","53.4743635","-113.4559343","
,  
(53.4743635, -113.4559343)","POINT (-113.4559343 53.4743635)"
"72","Richard Paterson Garage","5710-86 Street NW","Yes","Yes","53.4928555","-113.455054","
,  
(53.4928555, -113.455054)","POINT (-113.455054 53.4928555)"
"929","William Hawrelak Park #3 - Boat Pavilion","9330 - Groat Road NW","No","Yes","53.5271128","-113.5475244","
,  
(53.5271128, -113.5475244)","POINT (-113.5475244 53.5271128)"
"563","Fort Edmonton Building #108 - Maintenance Yard Storage Container 4","6601 - 148 Street NW South of FOR206","No","Yes",,,,
"275","Stanley Milner Library","7 Sir Winston Churchill Square","Yes","Yes","53.542897","-113.4897586","
,  
(53.542897, -113.4897586)","POINT (-113.4897586 53.542897)"
"99","Fire Station No.17","15505 Castle Downs Road NW","Yes","Yes","53.6178389","-113.516882","
,  
(53.6178389, -113.516882)","POINT (-113.516882 53.6178389)"
"580","Highlands Library","6710 - 118 Avenue NW","No","Yes","53.5705787","-113.4450537","
,  
(53.5705787, -113.4450537)","POINT (-113.4450537 53.5705787)"
"153","Michael Cameron Arena","10404 - 56 Street NW","Yes","Yes","53.546603","-113.4237","
,  
(53.546603, -113.4237)","POINT (-113.4237 53.546603)"
"134","John Walter Boiler House","9100 Walterdale Hill NW","Yes","Yes","53.5261857","-113.5065533","
,  
(53.5261857, -113.5065533)","POINT (-113.5065533 53.5261857)"
"15","Beechmount Cemetery Administration Building","12420-104 Street NW","Yes","Yes","53.5801302","-113.4991063","
,  
(53.5801302, -113.4991063)","POINT (-113.4991063 53.5801302)"
"861","Edmonton Valley Zoo #21 - Chicken Coop","13315 - Buena Vista Road NW","No","Yes","53.5109217","-113.5564743","
,  
(53.5109217, -113.5564743)","POINT (-113.5564743 53.5109217)"
"451","Emily Murphy Park - Maintenance Building","Emily Murphy Rd & Groat Rd","No","Yes",,,,
"78","Eastwood Community Police Station","11845-81 Street NW","Yes","Yes","53.5716344999999","-113.46508","
,  
(53.5716344999999, -113.46508)","POINT (-113.46508 53.5716344999999)"
"245","Edmonton Valley Zoo #3 - Old Winter Quarters","13315-Beuna Vista Road NW","Yes","Yes","53.5109217","-113.5564743","
,  
(53.5109217, -113.5564743)","POINT (-113.5564743 53.5109217)"
"540","Fort Edmonton Building #83 - Tom Thumb Mini Golf","6601 - 148 Street NW 1920 St.","No","Yes","53.5852417","-113.5742684","
,  
(53.5852417, -113.5742684)","POINT (-113.5742684 53.5852417)"
"384","Central Roadway Maintenance Yard - Vehicle Storage","10517 - 95 Street NW","No","Yes","53.5510275","-113.4794218","
,  
(53.5510275, -113.4794218)","POINT (-113.4794218 53.5510275)"
"395","Churchill Square Centennial Pavilion","9930 - 102 Avenue NW","No","Yes","53.5437449","-113.4903025","
,  
(53.5437449, -113.4903025)","POINT (-113.4903025 53.5437449)"
"597","Kennedale Community Services East","12834 - 58 Street NW East Portion","No","Yes","53.586514","-113.433613","
,  
(53.586514, -113.433613)","POINT (-113.433613 53.586514)"
"697","Rainbow Valley - East Washroom","13204 - 45 Avenue NW","No","Yes","53.4814061","-113.5537004","
,  
(53.4814061, -113.5537004)","POINT (-113.5537004 53.4814061)"
"350","Airport Building #2 - Keillor Shed","12000 - 109 Street NW","No","Yes","53.5637179999999","-113.5092175","
,  
(53.5637179999999, -113.5092175)","POINT (-113.5092175 53.5637179999999)"
"645","NAIT LRT Electrical and Communication","11615 - 109 Street NW","No","Yes","53.5678739","-113.5067005","
,  
(53.5678739, -113.5067005)","POINT (-113.5067005 53.5678739)"
"430","Coronation ECO Station","11440 - 143 Street NW","No","Yes","53.563911","-113.568739","
,  
(53.563911, -113.568739)","POINT (-113.568739 53.563911)"
"545","Fort Edmonton Building #90 - Foundation House Garage 1","6601 - 148 Street NW","No","Yes","53.5132248","-113.5755126","
,  
(53.5132248, -113.5755126)","POINT (-113.5755126 53.5132248)"
"508","Fort Edmonton Building #42 - Kernohans Millinery","6601 - 148 Street NW 1885 St.","No","Yes","53.5852417","-113.5742684","
,  
(53.5852417, -113.5742684)","POINT (-113.5742684 53.5852417)"
"826","Stanley Milner Bus Shelter","7 Sir Winston Churchill Square","No","Yes","53.542897","-113.4897586","
,  
(53.542897, -113.4897586)","POINT (-113.4897586 53.542897)"
"812","Southwest Transit Yard - Aux Struct Shop","6907 - Gateway Boulevard NW","No","Yes","53.505652","-113.494221","
,  
(53.505652, -113.494221)","POINT (-113.494221 53.505652)"
"358","Ambleside Yard Office Trailer","14320 - Ellerslie Road SW","No","Yes","53.4276229","-113.571327","
,  
(53.4276229, -113.571327)","POINT (-113.571327 53.4276229)"
"446","Edmonton Soccer Centre East","12720 - Victoria Trail NW","No","Yes","53.580475","-113.38505","
,  
(53.580475, -113.38505)","POINT (-113.38505 53.580475)"
"115","Gateway Park Police Station","2404-Gateway Boulevard SW","No","Yes","53.4592026","-113.4921019","
,  
(53.4592026, -113.4921019)","POINT (-113.4921019 53.4592026)"
"461","Fire Station No.29","9204 - 213 Street NW","No","Yes","53.5267583","-113.686551","
,  
(53.5267583, -113.686551)","POINT (-113.686551 53.5267583)"
"916","Waste Management - Portable Office Building","250 Aurum Road NE","No","Yes","53.5900851","-113.340218","
,  
(53.5900851, -113.340218)","POINT (-113.340218 53.5900851)"
"611","Kitchener Park Washroom/Storage","10245 - 115 Street NW","No","Yes","53.5437802","-113.5190756","
,  
(53.5437802, -113.5190756)","POINT (-113.5190756 53.5437802)"
"477","Fort Edmonton Building #10 - York Boat House","6601 -148 Street NW 1846 Fort","No","Yes","53.5660463","-113.4714522","
,  
(53.5660463, -113.4714522)","POINT (-113.4714522 53.5660463)"
"596","John Fry Park Pavilion","9664 - 28 Avenue NW","No","Yes","53.4602408","-113.4782965","
,  
(53.4602408, -113.4782965)","POINT (-113.4782965 53.4602408)"
"572","Gold Bar Park - Storage Trailer","10955 - 50 Street NW","No","Yes","53.559705","-113.415662","
,  
(53.559705, -113.415662)","POINT (-113.415662 53.559705)"
"168","Downtown Division Police Station","9620-103A Avenue NW","Yes","Yes","53.5474374","-113.4849062","
,  
(53.5474374, -113.4849062)","POINT (-113.4849062 53.5474374)"
"267","Whitemud Equine Centre - Field House","12505 Keillor Road NW","No","Yes","53.5036946","-113.5561087","
,  
(53.5036946, -113.5561087)","POINT (-113.5561087 53.5036946)"
"415","Commercial Leased Building","9440 - Jasper Avenue NW","No","Yes","53.5461706","-113.4783787","
,  
(53.5461706, -113.4783787)","POINT (-113.4783787 53.5461706)"
"107","Fort Edmonton Building #61 - Masonic Hall","7000 - 143 Street","No","Yes","53.5033505","-113.5713762","
,  
(53.5033505, -113.5713762)","POINT (-113.5713762 53.5033505)"
"162","Norwood Child and Family Resource Centre","9516-114 Avenue NW","Yes","Yes","53.564618","-113.4889456","
,  
(53.564618, -113.4889456)","POINT (-113.4889456 53.564618)"
"238","Telus Field","10233-96 Avenue N/W","No","Yes","53.532207","-113.496312","
,  
(53.532207, -113.496312)","POINT (-113.496312 53.532207)"
"567","Gateway Park Oil Derrick","2404 - Gateway Park Road SW","No","Yes","53.4130489","-113.4981267","
,  
(53.4130489, -113.4981267)","POINT (-113.4981267 53.4130489)"
"319","Fort Edmonton Building #89 - Foundation House","7000 - 143 Street","Yes","Yes","53.5033505","-113.5713762","
,  
(53.5033505, -113.5713762)","POINT (-113.5713762 53.5033505)"
"305","Sir Wilfred Laurier Washrooms","13221 Buena Vista Road","Yes","Yes","53.5095076","-113.5536948","
,  
(53.5095076, -113.5536948)","POINT (-113.5536948 53.5095076)"
"146","Kinsmen Park Washroom/Storage/Boathouse","9100-Walterdale Hill NW","Yes","Yes","53.5261857","-113.5065533","
,  
(53.5261857, -113.5065533)","POINT (-113.5065533 53.5261857)"
"585","Jasper Place Clinic","15626 - 100A Avenue NW","No","Yes","53.5404959","-113.5913828","
,  
(53.5404959, -113.5913828)","POINT (-113.5913828 53.5404959)"
"432","Cromdale Transit Washroom","115 Avenue & 82 Street","No","Yes",,,,
"535","Fort Edmonton Building #76 - Sun Drugs/Bills Confectionary","6601 - 148 Street NW 1920 St.","No","Yes","53.5852417","-113.5742684","
,  
(53.5852417, -113.5742684)","POINT (-113.5742684 53.5852417)"
"899","Waste Management - Materials Recovery","250 Aurum Road NE #600","No","Yes","53.5900851","-113.340218","
,  
(53.5900851, -113.340218)","POINT (-113.340218 53.5900851)"
"857","Edmonton Valley Zoo #16 - Swan Exhibit","13315 - Buena Vista Road NW","No","Yes","53.5109217","-113.5564743","
,  
(53.5109217, -113.5564743)","POINT (-113.5564743 53.5109217)"
"467","Fire Station No.11","6110 - 98 Avenue NW","No","Yes","53.5384513","-113.4290082","
,  
(53.5384513, -113.4290082)","POINT (-113.4290082 53.5384513)"
"354","Allin Park Changeroom","15919 96 Avenue NW","No","Yes","53.5310449","-113.6272977","
,  
(53.5310449, -113.6272977)","POINT (-113.6272977 53.5310449)"
"488","Fort Edmonton Building #21 - Macdonald's Carpentry","6601 - 148 Street NW 1885 St.","No","Yes","53.5852417","-113.5742684","
,  
(53.5852417, -113.5742684)","POINT (-113.5742684 53.5852417)"
"63","Confederation Leisure Centre","11204-43 Avenue NW","Yes","Yes","53.4787119999999","-113.520398","
,  
(53.4787119999999, -113.520398)","POINT (-113.520398 53.4787119999999)"
"388","Central Vehicle Wash/Fuel Facility","9509 - 106 Avenue NW","No","Yes","53.5512609","-113.482409","
,  
(53.5512609, -113.482409)","POINT (-113.482409 53.5512609)"
"391","Century Park Transit Centre","2515 - 111 Street NW","No","Yes","53.4577582999999","-113.5144797","
,  
(53.4577582999999, -113.5144797)","POINT (-113.5144797 53.4577582999999)"
"125","Hardisty Pool","10535-65 Street NW","Yes","Yes","53.5490207","-113.4305678","
,  
(53.5490207, -113.4305678)","POINT (-113.4305678 53.5490207)"
"455","Fire Station No.2","10217 - 107 Street NW","No","Yes","53.5430907","-113.5043359","
,  
(53.5430907, -113.5043359)","POINT (-113.5043359 53.5430907)"
"86","Community League Washroom","7103-105 Street NW","Yes","Yes","53.5074749","-113.4993997","
,  
(53.5074749, -113.4993997)","POINT (-113.4993997 53.5074749)"
"96","Fire Station No.14","7314-144 Avenue NW","Yes","Yes","53.6068","-113.453443","
,  
(53.6068, -113.453443)","POINT (-113.453443 53.6068)"
"503","Fort Edmonton Building #37 - Ottewell Chicken Coop","6601 - 148 Street NW 1885 St.","No","Yes","53.5852417","-113.5742684","
,  
(53.5852417, -113.5742684)","POINT (-113.5742684 53.5852417)"
"679","Southweise Police Station (Windermere)","1351 Windermere Way SW","No","Not Required","53.4340506","-113.616589","
,  
(53.4340506, -113.616589)","POINT (-113.616589 53.4340506)"
"422","Commercial Leased Building","9523 Jasper Avenue NW","No","Yes","53.544455","-113.479502","
,  
(53.544455, -113.479502)","POINT (-113.479502 53.544455)"
"520","Fort Edmonton Building #57 - Henderson Equipment Shelter","6601 - 148 Street NW 1905 St.","No","Yes","53.5852417","-113.5742684","
,  
(53.5852417, -113.5742684)","POINT (-113.5742684 53.5852417)"
"19","Borden Park Bandshell Storage Building","7703-113A Avenue NW","No","Yes","53.5626709999999","-113.515853","
,  
(53.5626709999999, -113.515853)","POINT (-113.515853 53.5626709999999)"
"332","Coronation Park Washroom/Dressing Room","13811 114 Avenue Northwest","Yes","Yes","53.5638448","-113.5604336","
,  
(53.5638448, -113.5604336)","POINT (-113.5604336 53.5638448)"
"601","Kennedale Sludge Facility","12810 - 58 Street NW","No","Yes","53.5855798","-113.4336731","
,  
(53.5855798, -113.4336731)","POINT (-113.4336731 53.5855798)"
"641","Muttart Conservatory Store","9626 - 96A Street NW","No","Yes","53.5352198999999","-113.4772768","
,  
(53.5352198999999, -113.4772768)","POINT (-113.4772768 53.5352198999999)"
"562","Fort Edmonton Building #107 - Maintenance Yard Storage Container 3","6601 - 148 Street NW East of FOR197","No","Yes",,,,
"932","William Hawrelak Park #6 - Washroom 1","9330 - Graot Road NW","No","Yes","53.5271128","-113.5475244","
,  
(53.5271128, -113.5475244)","POINT (-113.5475244 53.5271128)"
"808","Southeast Transit Yard - De-Icing Dome","5404 - 59 Avenue NW","No","Yes","53.4973059999999","-113.420918","
,  
(53.4973059999999, -113.420918)","POINT (-113.420918 53.4973059999999)"
"42","Clareview Twin Arena","3804-139 Avenue NW","No","Yes","53.601831","-113.402669","
,  
(53.601831, -113.402669)","POINT (-113.402669 53.601831)"
"442","Eaux Claire Transit Centre","9630 - 157 Avenue NW","No","Yes","53.6176584","-113.4910263","
,  
(53.6176584, -113.4910263)","POINT (-113.4910263 53.6176584)"
"577","Hermitage Park Washroom/Storage","2115 - 127 Avenue NW","No","Yes","53.5857336","-113.4063439","
,  
(53.5857336, -113.4063439)","POINT (-113.4063439 53.5857336)"
"557","Fort Edmonton Building #103 - Exhibits Building","6601 - 148 Street NW 1846 Fort","No","Yes","53.5660463","-113.4714522","
,  
(53.5660463, -113.4714522)","POINT (-113.4714522 53.5660463)"
"920","Westwood Clothing Stores","11920 - 106A Street NW","No","Yes","53.5723918","-113.5048601","
,  
(53.5723918, -113.5048601)","POINT (-113.5048601 53.5723918)"
"630","Meadows Library","2704 - 17 Street NW","No","Yes","53.4576722","-113.371192","
,  
(53.4576722, -113.371192)","POINT (-113.371192 53.4576722)"
"494","Fort Edmonton Building #27 - John A McDougall Store","6601 - 148 Street NW 1885 St.","No","Yes","53.5852417","-113.5742684","
,  
(53.5852417, -113.5742684)","POINT (-113.5742684 53.5852417)"
"868","Edmonton Valley Zoo #29 - Llama House","13315 - Buena Vista Road NW","No","Yes","53.5109217","-113.5564743","
,  
(53.5109217, -113.5564743)","POINT (-113.5564743 53.5109217)"
"591","John Walter 1901 House","9180 Walterdale Hill NW","No","Yes","53.5276607","-113.5037136","
,  
(53.5276607, -113.5037136)","POINT (-113.5037136 53.5276607)"
"890","Victoria Park - Pavilion","12010 River Valley Road NW","No","Yes","53.534245","-113.5225715","
,  
(53.534245, -113.5225715)","POINT (-113.5225715 53.534245)"
"804","Saint Francis Xavier Sports Centre","9240 - 163 Street","No","Yes","53.5283577","-113.6038041","
,  
(53.5283577, -113.6038041)","POINT (-113.6038041 53.5283577)"
"941","William Nixon #6 - Training Office","12950 - 9 Street NE","No","Yes","53.588095","-113.334348","
,  
(53.588095, -113.334348)","POINT (-113.334348 53.588095)"
"624","MacEwan LRT Substation","10512 - 103 Street NW","No","Yes","53.548205","-113.4977735","
,  
(53.548205, -113.4977735)","POINT (-113.4977735 53.548205)"
"91","Fire Station No.7","5025-118 Avenue NW","Yes","Yes","53.570052","-113.4193979","
,  
(53.570052, -113.4193979)","POINT (-113.4193979 53.570052)"
"216","Southeast Seniors Association","9350-82 Street NW","No","Yes","53.530531","-113.45245","
,  
(53.530531, -113.45245)","POINT (-113.45245 53.530531)"
"142","Kennedale Drainage Equipment Garage","12814-58 Street NW","Yes","Yes","53.5860864","-113.4306608","
,  
(53.5860864, -113.4306608)","POINT (-113.4306608 53.5860864)"
"262","Westwood Central Service Yard","12304-107 Street NW","Yes","Yes","53.5781895999999","-113.5059906","
,  
(53.5781895999999, -113.5059906)","POINT (-113.5059906 53.5781895999999)"
"339","Whitemud Equine Centre - Keillor Log Cabin","12505 Keillor Road NW","No","Yes","53.5036946","-113.5561087","
,  
(53.5036946, -113.5561087)","POINT (-113.5561087 53.5036946)"
"8","Ambulance Station No.28","8309-90 Avenue NW","No","Yes","53.5246507","-113.4560151","
,  
(53.5246507, -113.4560151)","POINT (-113.4560151 53.5246507)"
"1","Century Place","9803-102A Avenue NW","Yes","Yes","53.5443499999999","-113.487901","
,  
(53.5443499999999, -113.487901)","POINT (-113.487901 53.5443499999999)"
"297","Coliseum LRT Station","100 Coliseum Station","No","Yes",,,,
"436","Davies Wickman Garage","5610 - 86 Street NW","No","Yes","53.49231","-113.455438","
,  
(53.49231, -113.455438)","POINT (-113.455438 53.49231)"
"606","King Edward Park Washroom/Storage","7708 - 85 Street NW","No","Yes","53.513599","-113.459815","
,  
(53.513599, -113.459815)","POINT (-113.459815 53.513599)"
"669","Paul Kane Park - House Building","10220 - 121 Street NW","No","Yes","53.5436749","-113.5313437","
,  
(53.5436749, -113.5313437)","POINT (-113.5313437 53.5436749)"
"531","Fort Edmonton Building #69 - Post Office","6601 - 148 Street NW 1905 St.","No","Yes","53.5852417","-113.5742684","
,  
(53.5852417, -113.5742684)","POINT (-113.5742684 53.5852417)"
"903","Waste Management - Leachate Quonset","250 Aurum Road NE #330","No","Yes","53.5900851","-113.340218","
,  
(53.5900851, -113.340218)","POINT (-113.340218 53.5900851)"
"35","Churchill LRT Station","100 Churchill Lrt Station","Yes","Yes","53.5434601","-113.4899712","
,  
(53.5434601, -113.4899712)","POINT (-113.4899712 53.5434601)"
"68","Corona LRT Station","100 Corona Lrt Station","Yes","Yes","53.5409309","-113.5045369","
,  
(53.5409309, -113.5045369)","POINT (-113.5045369 53.5409309)"
"406","Clover Bar Cemetery","2025 Yellowhead Trail NE","No","Yes","53.5805784999999","-113.5311202","
,  
(53.5805784999999, -113.5311202)","POINT (-113.5311202 53.5805784999999)"
"372","Boyle Street Renaissance Community Centre","9541 - 104 Avenue NW","No","Yes","53.5479364","-113.4827904","
,  
(53.5479364, -113.4827904)","POINT (-113.4827904 53.5479364)"
"484","Fort Edmonton Building #17 - Train Shelter","6601 - 148 Street NW 1846 Fort","No","Yes","53.5660463","-113.4714522","
,  
(53.5660463, -113.4714522)","POINT (-113.4714522 53.5660463)"
"653","Northwest Transit Yard - Administrative Building","14402 - 114 Avenue NW","No","Yes","53.5639841","-113.5720468","
,  
(53.5639841, -113.5720468)","POINT (-113.5720468 53.5639841)"
"499","Fort Edmonton Building #33 - NWMP Guardhouse","6601 - 148 Street NW 1885 St.","No","Yes","53.5852417","-113.5742684","
,  
(53.5852417, -113.5742684)","POINT (-113.5742684 53.5852417)"
"81","Strathcona Eco Station - Storage Garage","5150-99 Street NW","Yes","Yes","53.4885319","-113.487664","
,  
(53.4885319, -113.487664)","POINT (-113.487664 53.4885319)"
"636","Mill Woods Park Pavilion","7008 - 23 Avenue NW","No","Yes","53.455944","-113.441716","
,  
(53.455944, -113.441716)","POINT (-113.441716 53.455944)"
"516","Fort Edmonton Building #51 - Egge's Bunk House/Washroom","6601 - 148 Street NW 1885 St.","No","Yes","53.5852417","-113.5742684","
,  
(53.5852417, -113.5742684)","POINT (-113.5742684 53.5852417)"
"28","Castle Downs Twin Arena","11520-153 Avenue NW","Yes","Yes","53.615731","-113.5204836","
,  
(53.615731, -113.5204836)","POINT (-113.5204836 53.615731)"
"471","Fort Edmonton Building #4 - Horse Stable 1","6601 - 148 Street NW 1846 Fort","No","Yes","53.5660463","-113.4714522","
,  
(53.5660463, -113.4714522)","POINT (-113.4714522 53.5660463)"
"819","South Campus LRT Substation","6460 - 113 Street NW","No","Yes","53.5017524999999","-113.5275642","
,  
(53.5017524999999, -113.5275642)","POINT (-113.5275642 53.5017524999999)"
"359","Ambleside Yard Quonset-Garage","14550 Ellerslie Road SW","No","Yes","53.4251853","-113.5736297","
,  
(53.4251853, -113.5736297)","POINT (-113.5736297 53.4251853)"
"853","Edmonton Valley Zoo #9 - Quonset Hut South","13315 - Buena Vista Road NW","No","Yes","53.5109217","-113.5564743","
,  
(53.5109217, -113.5564743)","POINT (-113.5564743 53.5109217)"
"936","William Nixon #1 - Training Building","12950 - 9 Street NE","No","Yes","53.588095","-113.334348","
,  
(53.588095, -113.334348)","POINT (-113.334348 53.588095)"
"658","Northwest Transit Yard - Scale House","14402 - 114 Avenue NW","No","Yes","53.5639841","-113.5720468","
,  
(53.5639841, -113.5720468)","POINT (-113.5720468 53.5639841)"
"367","Borden Park House Office","7515 - 113A Avenue NW","No","Yes","53.5626709999999","-113.515853","
,  
(53.5626709999999, -113.515853)","POINT (-113.515853 53.5626709999999)"
"885","Edmonton Valley Zoo #48 - Ungulate Building","13315 - Buena Vista Road NW","No","Yes","53.5109217","-113.5564743","
,  
(53.5109217, -113.5564743)","POINT (-113.5564743 53.5109217)"
"663","Old Man Creek - Office","53551 Range Rd 231 (Cloverbar Rd)","No","Yes",,,,
"619","LRT Tunnels North","Downtown, North Underground","No","Yes","53.5412858","-113.4906625","
,  
(53.5412858, -113.4906625)","POINT (-113.4906625 53.5412858)"
"526","Fort Edmonton Building #64 - Ramsay's Garage","6601 - 148 Street NW 1905 St.","No","Yes","53.5852417","-113.5742684","
,  
(53.5852417, -113.5742684)","POINT (-113.5742684 53.5852417)"
"381","Castle Downs Pavilion","11524 - 153 Avenue NW","No","Yes","53.6169008","-113.5205075","
,  
(53.6169008, -113.5205075)","POINT (-113.5205075 53.6169008)"
"52","Commercial Leased Building","12608-Fort Road NW","No","Yes","53.5842091","-113.4455645","
,  
(53.5842091, -113.4455645)","POINT (-113.4455645 53.5842091)"
