"name","latitude","longitude","location","type","address","quadrant","url","geometry_point"
"Castle Downs Recreation Centre","53.61603608576531","-113.52091910876221","
,  
(53.61603608576531, -113.52091910876221)","Recreation Centre","11520 - 153 Avenue NW",,,"POINT (-113.52091910876221 53.61603608576531)"
"Callingwood Recreation Centre","53.505290074821886","-113.62802544430254","
,  
(53.505290074821886, -113.62802544430254)","Recreation Centre","17740 69 Ave NW, Edmonton, AB T5T 6X3","NW","https://www.edmonton.ca/callingwoodtwinarenas/","POINT (-113.62802544430254 53.505290074821886)"
"Londonderry Fitness and Leisure Centre","53.60745050475148","-113.44418142821127","
,  
(53.60745050475148, -113.44418142821127)","Recreation Centre","14528 66 St NW, Edmonton, AB T5C 3R7","NE","https://www.edmonton.ca/londonderry/","POINT (-113.44418142821127 53.60745050475148)"
"Kinsmen Twin Arenas","53.45124394828186","-113.51389274892732","
,  
(53.45124394828186, -113.51389274892732)","Arena","1979 111 St NW, Edmonton, AB T6J 7C6","SW","https://www.edmonton.ca/kinsmentwinarenas/","POINT (-113.51389274892732 53.45124394828186)"
"Queen Elizabeth Outdoor Pool","53.52730543399421","-113.50688838763831","
,  
(53.52730543399421, -113.50688838763831)","Pool","9170 Walterdale Hill NW, Edmonton, AB T6E 2V3","SW","https://www.edmonton.ca/queenelizabethpool/","POINT (-113.50688838763831 53.52730543399421)"
"The Orange Hub","53.539883852689655","-113.58937532741146","
,  
(53.539883852689655, -113.58937532741146)","Attraction","10035 156 St NW, Edmonton, AB T5P 2P7",,,"POINT (-113.58937532741146 53.539883852689655)"
"Mill Creek Outdoor Swimming Pool","53.5195936949329","-113.47395247755895","
,  
(53.5195936949329, -113.47395247755895)","Pool","9555 84 Ave NW, Edmonton, AB T6S 1E4","SE","https://www.edmonton.ca/millcreekpool/","POINT (-113.47395247755895 53.5195936949329)"
"Crestwood Arena","53.53874820408859","-113.57575441072247","
,  
(53.53874820408859, -113.57575441072247)","Arena","9940 147 St NW, Edmonton, AB T5N 4A6","NW","https://www.edmonton.ca/crestwoodarena/","POINT (-113.57575441072247 53.53874820408859)"
"O'Leary Fitness and Leisure Centre","53.59305062880275","-113.47654757398385","
,  
(53.59305062880275, -113.47654757398385)","Recreation Centre","8804 132 Ave NW, Edmonton, AB T5E 0X9","NE","https://www.edmonton.ca/oleary/","POINT (-113.47654757398385 53.59305062880275)"
"St. Francis Xavier Field House","53.529049545623955","-113.60357931575619","
,  
(53.529049545623955, -113.60357931575619)","Recreation Centre","9240 163 St NW, Edmonton, AB T5R 0A7",,,"POINT (-113.60357931575619 53.529049545623955)"
"Russ Barnes Arena","53.574756539530725","-113.44592466793951","
,  
(53.574756539530725, -113.44592466793951)","Arena","6725 121 Ave NW, Edmonton, AB T5B 0Y7","NE","https://www.edmonton.ca/russbarnesarena/","POINT (-113.44592466793951 53.574756539530725)"
"Fort Edmonton Park","53.50339115314137","-113.57368914562934","
,  
(53.50339115314137, -113.57368914562934)","Attraction",,"SW","http://www.fortedmontonpark.ca/","POINT (-113.57368914562934 53.50339115314137)"
"Kinsmen Sports Centre","53.5261688148492","-113.50650845612024","
,  
(53.5261688148492, -113.50650845612024)","Recreation Centre","9100 Walterdale Hill","SW","https://www.edmonton.ca/kinsmen/","POINT (-113.50650845612024 53.5261688148492)"
"Clareview Recreation Centre","53.6021481618843","-113.40217823127887","
,  
(53.6021481618843, -113.40217823127887)","Recreation Centre","3804 139 Ave NW, Edmonton, AB T5Y 3G4","NE","https://www.edmonton.ca/clareviewrec/","POINT (-113.40217823127887 53.6021481618843)"
"Kinsmen Pitch & Putt","53.52564554919703","-113.50954382435947","
,  
(53.52564554919703, -113.50954382435947)","Attraction",,,,"POINT (-113.50954382435947 53.52564554919703)"
"Valley Zoo","53.51130575869989","-113.55337243318981","
,  
(53.51130575869989, -113.55337243318981)","Attraction","13315 Buena Vista Road And, 87 Ave NW, Edmonton, AB T5J 2R7","NW","https://www.edmonton.ca/valleyzoo/","POINT (-113.55337243318981 53.51130575869989)"
"Fred Broadstock Outdoor Swimming Pool","53.549038341493116","-113.59357268833298","
,  
(53.549038341493116, -113.59357268833298)","Pool","15720 105 Ave NW, Edmonton, AB T5P 2Y6","NW","https://www.edmonton.ca/fredbroadstock/","POINT (-113.59357268833298 53.549038341493116)"
"Prince of Wales Armouries Heritage Centre","53.55408799469411","-113.50014799727184","
,  
(53.55408799469411, -113.50014799727184)","Attraction",,"NE","https://www.edmonton.ca/princeofwales/","POINT (-113.50014799727184 53.55408799469411)"
"Hardisty Fitness and Leisure Centre","53.54904182805549","-113.43047687970501","
,  
(53.54904182805549, -113.43047687970501)","Recreation Centre","10535 65 St NW, Edmonton, AB T6A 3X7","SE","https://www.edmonton.ca/hardisty/","POINT (-113.43047687970501 53.54904182805549)"
"Donnan Arena","53.51562600671404","-113.46805288778332","
,  
(53.51562600671404, -113.46805288778332)","Arena","9105 80 Ave NW, Edmonton, AB T6C 0N9","SE","https://www.edmonton.ca/donnanarena/","POINT (-113.46805288778332 53.51562600671404)"
"Mill Woods Recreation Centre","53.45670920764423","-113.44439331330813","
,  
(53.45670920764423, -113.44439331330813)","Recreation Centre","7207 - 28 Avenue NW","SE","https://www.edmonton.ca/millwoodsrec/","POINT (-113.44439331330813 53.45670920764423)"
"Kenilworth Arena","53.519168702593895","-113.43104958506059","
,  
(53.519168702593895, -113.43104958506059)","Arena","8313 68A St NW, Edmonton, AB T6B 1T3","SE","https://www.edmonton.ca/kenilwortharena/","POINT (-113.43104958506059 53.519168702593895)"
"Grand Trunk Fitness and Leisure Centre","53.58998146642474","-113.51193442897357","
,  
(53.58998146642474, -113.51193442897357)","Recreation Centre","13025 112 St NW, Edmonton, AB T5E 6E4","NW","https://www.edmonton.ca/grandtrunk/","POINT (-113.51193442897357 53.58998146642474)"
"JP Annex","53.526954207035516","-113.6040604826989","
,  
(53.526954207035516, -113.6040604826989)","Attraction",,"NW","https://www.edmonton.ca/activities_parks_recreation/jasper-place-annex.aspx","POINT (-113.6040604826989 53.526954207035516)"
"John Janzen Nature Centre","53.502192797327666","-113.57248750823767","
,  
(53.502192797327666, -113.57248750823767)","Attraction","7000 143 St NW, Edmonton, AB T6H 4P3","SW","https://www.edmonton.ca/johnjanzen/","POINT (-113.57248750823767 53.502192797327666)"
"Oliver Arena","53.54563935759972","-113.5262935676955","
,  
(53.54563935759972, -113.5262935676955)","Arena","10335 119 St NW, Edmonton, AB T5K 1Z6","NE","https://www.edmonton.ca/oliverarena/","POINT (-113.5262935676955 53.54563935759972)"
"Terwillegar Community Recreation Centre","53.458354753679764","-113.58254496423555","
,  
(53.458354753679764, -113.58254496423555)","Recreation Centre","2051 Leger Road","SW","https://www.edmonton.ca/terwillegarrec/","POINT (-113.58254496423555 53.458354753679764)"
"Borden Park Outdoor Pool","53.56344833528109","-113.45437203106174","
,  
(53.56344833528109, -113.45437203106174)","Pool","7615 Borden Park Rd NW, Edmonton, AB T5B 4W8",,,"POINT (-113.45437203106174 53.56344833528109)"
"Michael Cameron Arena","53.546675427027445","-113.423808332632","
,  
(53.546675427027445, -113.423808332632)","Arena","10404 56 St, Edmonton, AB T6A 2J2","SE","https://www.edmonton.ca/michaelcameronarena/","POINT (-113.423808332632 53.546675427027445)"
"Telus World of Science Edmonton","53.5610796944491","-113.56360611213374","
,  
(53.5610796944491, -113.56360611213374)","Attraction",,,,"POINT (-113.56360611213374 53.5610796944491)"
"A.C.T. Aquatics and Recreation Centre","53.55593752223927","-113.38677582601781","
,  
(53.55593752223927, -113.38677582601781)","Recreation Centre","2909 113 Ave NW, Edmonton, AB T5W 4S1","NE","https://www.edmonton.ca/act/","POINT (-113.38677582601781 53.55593752223927)"
"George S. Hughes South Side Arena","53.50809147124166","-113.50163523155757","
,  
(53.50809147124166, -113.50163523155757)","Arena","10525 72 Ave NW, Edmonton, AB T6E 0Z6","SW","https://www.edmonton.ca/georgeshughesarena/","POINT (-113.50163523155757 53.50809147124166)"
"Confederation Arena","53.47989854135753","-113.52054004523912","
,  
(53.47989854135753, -113.52054004523912)","Arena","11204 43 Ave NW, Edmonton, AB T6J 0X8","SW","https://www.edmonton.ca/confederationarena/","POINT (-113.52054004523912 53.47989854135753)"
"Commonwealth Stadium","53.559733375944475","-113.47612691065851","
,  
(53.559733375944475, -113.47612691065851)","Recreation Centre","11000 Stadium Rd NW, Edmonton, AB T5H 4E2","NW","https://www.edmonton.ca/attractions_events/commonwealth-stadium.aspx","POINT (-113.47612691065851 53.559733375944475)"
"City Arts Centre","53.5197226706864","-113.51403037941095","
,  
(53.5197226706864, -113.51403037941095)","Attraction","10943 84 Avenue, Edmonton AB T6G 0V5","SW","https://www.edmonton.ca/cityarts/","POINT (-113.51403037941095 53.5197226706864)"
"Bonnie Doon Leisure Centre","53.52370738944766","-113.45411060782166","
,  
(53.52370738944766, -113.45411060782166)","Recreation Centre","8648 81 St NW, Edmonton, AB T5H 3S1","SE","https://www.edmonton.ca/bonniedoonlc/","POINT (-113.45411060782166 53.52370738944766)"
"John Walter Museum","53.52807153146017","-113.50568071187196","
,  
(53.52807153146017, -113.50568071187196)","Attraction","9180 Walterdale Hill NW, Edmonton, AB T6E 2V3","SW","https://www.edmonton.ca/johnwalter/","POINT (-113.50568071187196 53.52807153146017)"
"Bill Hunter Arena","53.52740073150887","-113.60383004353592","
,  
(53.52740073150887, -113.60383004353592)","Arena","9200 163 St NW, Edmonton, AB T5R 0A7","NW","https://www.edmonton.ca/billhunterarena/","POINT (-113.60383004353592 53.52740073150887)"
"Confederation Leisure Centre","53.47995027106927","-113.5200624780147","
,  
(53.47995027106927, -113.5200624780147)","Recreation Centre",,"SW","https://www.edmonton.ca/confederation/","POINT (-113.5200624780147 53.47995027106927)"
"Westwood Arena","53.57440156419375","-113.49318205207233","
,  
(53.57440156419375, -113.49318205207233)","Arena","12040 97 St NW, Edmonton, AB T5G 2C1","NE","https://www.edmonton.ca/westwoodarena/","POINT (-113.49318205207233 53.57440156419375)"
"The Meadows Community Recreation Centre","53.457908015849114","-113.3710378916788","
,  
(53.457908015849114, -113.3710378916788)","Recreation Centre","2704 - 17 STREET NW","SE","https://www.edmonton.ca/meadowsrec/","POINT (-113.3710378916788 53.457908015849114)"
"Rundle Park Mini Golf","53.55329822386937","-113.38947381315144","
,  
(53.55329822386937, -113.38947381315144)","Attraction","Rundle Park",,,"POINT (-113.38947381315144 53.55329822386937)"
"Jasper Place Fitness and Leisure Centre","53.52658601580744","-113.60381662366197","
,  
(53.52658601580744, -113.60381662366197)","Recreation Centre","9200 163 St NW, Edmonton, AB T5R 0A7","NW","https://www.edmonton.ca/jasperplace/","POINT (-113.60381662366197 53.52658601580744)"
"Londonderry Arena","53.60733882727395","-113.44491019306845","
,  
(53.60733882727395, -113.44491019306845)","Arena","14520 66 St, Edmonton, AB T5C 3C8","NE","https://www.edmonton.ca/londonderryarena/","POINT (-113.44491019306845 53.60733882727395)"
"Downtown Community Arena","53.54737506228772","-113.49615140220985","
,  
(53.54737506228772, -113.49615140220985)","Arena","10245 105 Avenue NW","NW","https://www.edmonton.ca/activities_parks_recreation/downtown-community-arena.aspx","POINT (-113.49615140220985 53.54737506228772)"
"Scona Pool","53.50933150153346","-113.5001514882429","
,  
(53.50933150153346, -113.5001514882429)","Pool","10450 72 Avenue NW",,,"POINT (-113.5001514882429 53.50933150153346)"
"Glengarry Arena","53.59451808706859","-113.47263565746876","
,  
(53.59451808706859, -113.47263565746876)","Arena","13340 85 St NW, Edmonton, AB T5E 2Z8","NE","https://www.edmonton.ca/glengarryarena/","POINT (-113.47263565746876 53.59451808706859)"
"Oliver Outdoor Swimming Pool","53.54497536060087","-113.52632872596271","
,  
(53.54497536060087, -113.52632872596271)","Pool","10315 119 St NW, Edmonton, AB T5K 1Z6","NE","https://www.edmonton.ca/oliverpool/","POINT (-113.52632872596271 53.54497536060087)"
"Peter Hemingway Fitness and Leisure Centre","53.559864246247564","-113.56040717597992","
,  
(53.559864246247564, -113.56040717597992)","Recreation Centre","13808 111 Ave NW, Edmonton, AB T5M 2P2","NW","https://www.edmonton.ca/peterhemingway/","POINT (-113.56040717597992 53.559864246247564)"
"Muttart Conservatory","53.53520457452499","-113.47727303300204","
,  
(53.53520457452499, -113.47727303300204)","Attraction","9626 96A St NW, Edmonton, AB T6C 4L8","SE","https://www.edmonton.ca/muttart/","POINT (-113.47727303300204 53.53520457452499)"
"Rundle Park Paddle Boat House","53.55373270544806","-113.38900898464553","
,  
(53.55373270544806, -113.38900898464553)","Attraction","Rundle Park",,,"POINT (-113.38900898464553 53.55373270544806)"
"Coronation Arena","53.56118440553047","-113.55807302924669","
,  
(53.56118440553047, -113.55807302924669)","Arena","13500 112 Ave NW, Edmonton, AB T5M 2T8","NW","https://www.edmonton.ca/coronationarena/","POINT (-113.55807302924669 53.56118440553047)"
"Commonwealth Community Recreation Centre","53.558071616916","-113.47660937541524","
,  
(53.558071616916, -113.47660937541524)","Recreation Centre","11000 Stadium Road","NE","https://www.edmonton.ca/commonwealthrec/","POINT (-113.47660937541524 53.558071616916)"
"Eastglen Leisure Centre","53.5670755981187","-113.44502674068129","
,  
(53.5670755981187, -113.44502674068129)","Recreation Centre","11410 68 St NW, Edmonton, AB T5B 1P1","NE","https://www.edmonton.ca/eastglen/","POINT (-113.44502674068129 53.5670755981187)"
"Tipton Arena","53.51666019638949","-113.51135052379269","
,  
(53.51666019638949, -113.51135052379269)","Arena","10828 80 Ave NW, Edmonton, AB T6E, Canada","SW","https://www.edmonton.ca/tiptonarena/","POINT (-113.51135052379269 53.51666019638949)"
"Abbottsfield Recreation Centre","53.5726928910208","-113.3890929577955","
,  
(53.5726928910208, -113.3890929577955)","Recreation Centre",,,,"POINT (-113.3890929577955 53.5726928910208)"
