"id","property_project","pid","name","address","city","postal_code","number_of_floors","residential_units","housing_authority","county","elevator","oil_heat","electric_heat","public_water","well","sewer","onsite_septic","municipality","x_coordina","y_coordina","location"
"117","330101X","65032708","Riverton Heights I","19/27/29 Riverton Heights Drive","Pictou County","B0K 1S0","2","20","Eastern Mainland Housing Authority","Pictou","No","Y","N","N","Y","Y","N","Municipality of the County of Pictou","-62.66641691","45.54323763","(45.543238, -62.666417)"
"324","200214X","50067362","Bellevue","10 Grand Etang","Grand Etang","B0E 1L0","2","15","Cape Breton Island Housing Authority","Inverness","No","N","Y","N","Y","N","Y","Municipality of the County of Inverness","-61.0559937","46.53726894","(46.537269, -61.055994)"
"247","100215X","15113962","Sydney Senior Duplexes - 77 Ainsley St","77 Ainsley St","Sydney",,"1","2","Cape Breton Island Housing Authority","Cape Breton","No","Y","N","Y","N","Y","N","Cape Breton Regional Municipality","-60.17292816","46.13510892","(46.135109, -60.172928)"
"337","390201X","25227687","Elgin Street Villa","22 Elgin Street","Springhill","B0M 1X0","1","17","Cobequid Housing Authority","Cumberland","No","Y","N","Y","N","Y","N","Municipality of the County of Cumberland","-64.0605951","45.65052228","(45.650522, -64.060595)"
"224","100201X","15130651","William Street S/C","10 William St","Sydney","B1N 1R4","2","20","Cape Breton Island Housing Authority","Cape Breton","No","Y","N","Y","N","Y","N","Cape Breton Regional Municipality","-60.17893532","46.15249845","(46.152498, -60.178935)"
"289","150226X","15242738","198 Pitt Street",,"Florence","B0C 1J0","2","15","Cape Breton Island Housing Authority","Cape Breton","No","N","Y","Y","N","Y","N","Cape Breton Regional Municipality","-60.25496229","46.26161753","(46.261618, -60.254962)"
"214","612301","90212812","Trinity Place","3 Trinity Place","Yarmouth","B5A 1P3","2","16","Western Regional Housing Authority","Yarmouth","Yes","N","Y","Y","N","Y","N","Town of Yarmouth","-66.11930184","43.82709972","(43.8271, -66.119302)"
"143","350801","20178653","Young St. Lodge","130 Young Street","Truro","B2N 3X4","2","16","Cobequid Housing Authority","Colchester","Yes","N","Y","Y","N","Y","N","Town of Truro","-63.27857094","45.35948674","(45.359487, -63.278571)"
"104","740101","60187283","Ritcey's Cove Manor Lunen","3809 Hwy. 332","Riverport","B0J 2W0","2","15","Western Regional Housing Authority","Lunenburg","No","Y","N","N","Y","N","Y","Municipality of the District of Lunenburg","-64.32493207","44.29439116","(44.294391, -64.324932)"
"174","430901","40177982","Dr. Prince Manor (HN)","3792 Novalea Drive","Halifax","B3K 3G5","9","135","Metropolitan Regional Housing Authority","Halifax","Yes(2)","Y","N","Y","N","Y","N","Halifax Regional Municipality","-63.61262715","44.67123728","(44.671237, -63.612627)"
"101","710201","60056843","Blockhouse Hill Apts. Lun","37 Blockhouse Hill","Lunenburg","B0J 2C0","2","15","Western Regional Housing Authority","Lunenburg","No","N","Y","Y","N","Y","N","Town of Lunenburg","-64.301968","44.37645305","(44.376453, -64.301968)"
"198","444101","420927","Woodlyn Manor","2 Woodlyn Drive","Hammonds Plain","B4B 1J2","2","15","Metropolitan Regional Housing Authority","Halifax","No","N","Y","Y","N","Y","N","Halifax Regional Municipality","-63.73906184","44.72348027","(44.72348, -63.739062)"
"47","480101","45191640","Kendall Villa West Hants","123 Kendall Lane","Windsor","B0N 2T0","2","25","Western Regional Housing Authority","Hants","No","Y","N","Y","N","Y","N","West Hants","-64.12745445","44.97500598","(44.975006, -64.127454)"
"9","250401","35054303","Pines Manor","1112 Union Street","Canso","B0H 1H0","2","15","Eastern Mainland Housing Authority","Guysborough","Yes","Y","N","Y","N","Y","N","Municipality of the District of Guysborough","-61.00151397","45.33727407","(45.337274, -61.001514)"
"115","320201X","984815","Strathcona Place I","115 Haliburton Road (20)","Pictou","B0K 1H0","1","20","Eastern Mainland Housing Authority","Pictou","No","Y","N","Y","N","Y","N","Town of Pictou","-62.72343241","45.67565742","(45.675657, -62.723432)"
"256","110204X","15246390","86 Nolans Lane-Valleyview","86 Nolans Lane","Glace Bay","B1A 6E1","1","60","Cape Breton Island Housing Authority","Cape Breton","No","N","Y","Y","N","Y","N","Cape Breton Regional Municipality","-59.97098725","46.19590016","(46.1959, -59.970987)"
"193","442301","40013518","Glendale Manor","1 Smokey Drive","Lower Sackville","B4C 3H9","2","40","Metropolitan Regional Housing Authority","Halifax","Yes","Y","N","Y","N","Y","N","Halifax Regional Municipality","-63.68924463","44.78221605","(44.782216, -63.689245)"
"282","150213X","15292329","Mira Manor","3961 Highway 327","Marion Bridge","B1K 1A6","2","15","Cape Breton Island Housing Authority","Cape Breton","No","Y","N","N","Y","N","Y","Cape Breton Regional Municipality","-60.21108203","45.98288632","(45.982886, -60.211082)"
"127","540101X","5116959","Anna Villa Seniors I","Fitch Road","Lawrencetown","B0S 1M0","2","40","Western Regional Housing Authority","Annapolis","No","Y","N","Y","N","Y","N","Municipality of the County of Annapolis","-65.14983708","44.89090664","(44.890907, -65.149837)"
"97","700201","60044575","Miller Manor Bridgewater","107 Miller Drive","Bridgewater","B4V 3J6","2","25","Western Regional Housing Authority","Lunenburg","Yes","Y","N","Y","N","Y","N","Town of Bridgewater","-64.50727874","44.38491723","(44.384917, -64.507279)"
"277","150205X","15278443","Donkin","10 Second St","Donkin","B0A 1A0","2","15","Cape Breton Island Housing Authority","Cape Breton","No","Y","N","Y","N","Y","N","Cape Breton Regional Municipality","-59.87144095","46.1858084","(46.185808, -59.871441)"
"261","120202X","15475155","Smith Street S/C",,"New Waterford",,"1","20","Cape Breton Island Housing Authority","Cape Breton","No","Y","N","Y","N","Y","N","Cape Breton Regional Municipality","-60.08794568","46.24805238","(46.248052, -60.087946)"
"26","310401","987396","Birch Hill II Phase 4","43 Acadia (101-208)","RR1 Stellarton","BOK 1SO","2","15","Eastern Mainland Housing Authority","Pictou","No","Y","N","Y","N","Y","N","Town of Stellarton","-62.66752109","45.55681243","(45.556812, -62.667521)"
"144","351001","20196325","H.A. Johnson Manor","9 Church Street","Truro","B2N 3Z5","3","23","Cobequid Housing Authority","Colchester","Yes","N","Y","Y","N","Y","N","Town of Truro","-63.27563137","45.36532006","(45.36532, -63.275631)"
"263","120204X","15465305","Nicholson Avenue S/C","3142 Nicholson Avenue","New Waterford","B1H 1N8","2","30","Cape Breton Island Housing Authority","Cape Breton","Yes","Y","N","Y","N","Y","N","Cape Breton Regional Municipality","-60.08048409","46.24199346","(46.241993, -60.080484)"
"227","100204X","15082159","Alexandra St","235 Alexandra St","Sydney","B1S 3A4","1","57","Cape Breton Island Housing Authority","Cape Breton","No","Y","N","Y","N","Y","N","Cape Breton Regional Municipality","-60.19631932","46.12272423","(46.122724, -60.196319)"
"207","490401","45199155","Cobequid Bay Manor","59 Maple Ave","Maitland N S","B0N 1T0","2","15","Cobequid Housing Authority","Hants","No","Y","N","Y","N","N","Y","East Hants","-63.50250332","45.31729935","(45.317299, -63.502503)"
"317","200207X","50128339","Church Street","119 Church Street","Inverness","B0E 1N0","1","10","Cape Breton Island Housing Authority","Inverness","No","Y","N","Y","N","Y","N","Municipality of the County of Inverness","-61.30242174","46.23168338","(46.231683, -61.302422)"
"93","680601","70021951","Waterloo Place II Queens","12 Hollands Drive","Liverpool","B0T 1K0","2","10","Western Regional Housing Authority","Queens","No","N","Y","Y","N","Y","N","Region of Queens Municipality","-64.70826641","44.03637485","(44.036375, -64.708266)"
"126","531101X","55141139","Fundy Villa","108 Commercial Street","South Berwick","B0P 1E0","1","40","Western Regional Housing Authority","Kings","No","Y","N","N","Y","N","Y","Municipality of the County of Kings","-64.7286658","45.03516542","(45.035165, -64.728666)"
"221","630301","90074485","Belle Vue Apts","30 Abbotts Harbour Road","Middle West Pubnico","B0W 2M0","2","15","Western Regional Housing Authority","Yarmouth","Yes","Y","N","N","Y","N","Y","Municipality of the District of Argyle","-65.8013841","43.66115371","(43.661154, -65.801384)"
"212","611001","90197385","Church Hill Manor","41 Main Street","Yarmouth","B5A 1A5","2","20","Western Regional Housing Authority","Yarmouth","No","Y","N","Y","N","Y","N","Town of Yarmouth","-66.12237598","43.8245879","(43.824588, -66.122376)"
"13","280501","1000017","Autumn Crest I","223 Abercrombie Rd.","New Glasgow","B2H 1K7","2","20","Eastern Mainland Housing Authority","Pictou","No","N","Y","Y","N","Y","N","Town of New Glasgow","-62.64877518","45.59517497","(45.595175, -62.648775)"
"211","610901","90200544","Hibernia Heights","51 Hibernia Street","Yarmouth","B5A 2M7","2","30","Western Regional Housing Authority","Yarmouth","No","Y","N","Y","N","Y","N","Town of Yarmouth","-66.10812631","43.85355916","(43.853559, -66.108126)"
"125","531001X","55202774","Edgewood Hall","Highland Avenue","New Minas","B4N 3J5","2","55","Western Regional Housing Authority","Kings","Yes","Y","N","Y","N","Y","N","Municipality of the County of Kings","-64.45484467","45.06544688","(45.065447, -64.454845)"
"314","200204X","50121177","Orangedale Road","1385 Orangedale Road","Orangedale","B0E 2K0","2","15","Cape Breton Island Housing Authority","Inverness","No","Y","N","Y","N","N","Y","Municipality of the County of Inverness","-61.09499824","45.90151583","(45.901516, -61.094998)"
"223","100106X","15092653","350 Terrace Street","350 Terrace Street","Sydney","B1P2M9","3","10","Cape Breton Island Housing Authority","Cape Breton","No","Y","N","Y","N","Y","N","Cape Breton Regional Municipality","-60.17124999","46.13223075","(46.132231, -60.17125)"
"283","150214X","15361090","2891 Louisbourg/Man-A-Die","2884 Main-A-Dieu Road","Main-A-Dieu","B0A 1N0","2","6","Cape Breton Island Housing Authority","Cape Breton","No","N","Y","N","Y","N","Y","Cape Breton Regional Municipality","-59.84751131","46.00452458","(46.004525, -59.847511)"
"204","450101","40302291","Bedford Manor","51 Bridge Street","Bedford","B4A 2B9","2","25","Metropolitan Regional Housing Authority","Halifax","Yes","Y","N","Y","N","Y","N","Halifax Regional Municipality","-63.65998622","44.73909208","(44.739092, -63.659986)"
"81","590401","30057442","Foyer Gabriel","77 Eustache Comeau Rd.","Saulnierville","B0W 2Z0","2","15","Western Regional Housing Authority","Digby","Yes","Y","N","N","Y","N","Y","Municipality of the District of Clare","-66.13012775","44.24246081","(44.242461, -66.130128)"
"150","380201","25032889","Marshview Manor","7 Summit Avenue","Amherst","B4H 2A6","1","20","Cobequid Housing Authority","Cumberland","No","Y","N","Y","N","Y","N","Town of Amherst","-64.20969836","45.83905998","(45.83906, -64.209698)"
"153","380601","25027434","Poplar Manor","6 Poplar Street","Amherst","B4H 1L5","2","20","Cobequid Housing Authority","Cumberland","No","Y","N","Y","N","Y","N","Town of Amherst","-64.2065344","45.82352276","(45.823523, -64.206534)"
"199","444201","40077208","Margaret Latter Manor","144 Hebridean Drive","Armdale","B3L 4J5","2","14","Metropolitan Regional Housing Authority","Halifax","No","N","Y","Y","N","Y","N","Halifax Regional Municipality","-63.56039754","44.5717622","(44.571762, -63.560398)"
"297","170202X","15179864","Hillside/Cooke",,"Sydney Mines","B1V 2Y6","1","20","Cape Breton Island Housing Authority","Cape Breton","No","Y","N","Y","N","Y","N","Cape Breton Regional Municipality","-60.22010704","46.24345478","(46.243455, -60.220107)"
"123","530302X","55085732","Garden View Manor I","365 Lincoln St.","Kingston","B0P 1R0","1","15","Western Regional Housing Authority","Kings","No","N","Y","N","Y","N","Y","Municipality of the County of Kings","-64.96041542","44.98781854","(44.987819, -64.960415)"
"19","282901","65053092","East River Manor","695 East River Road","New Glasgow","B2H 5W6","3","20","Eastern Mainland Housing Authority","Pictou","Yes","N","Y","Y","N","Y","N","Town of New Glasgow","-62.64277859","45.57515682","(45.575157, -62.642779)"
"92","680401","70021951","Waterloo Place Queens","10 Hollands Drive","Liverpool","B0T 1K0","2","15","Western Regional Housing Authority","Queens","No","Y","N","Y","N","Y","N","Region of Queens Municipality","-64.70867009","44.03661369","(44.036614, -64.70867)"
"332","341001X","5237513","Allison Place","40 Allison Avenue","Bible Hill","B2N 4L4","2","20","Cobequid Housing Authority","Colchester","No","Y","N","Y","N","Y","N","Municipality of the County of Colchester","-63.25720742","45.37852302","(45.378523, -63.257207)"
"196","443001","40135865","Forest Hills  Phase I","20 Circassion Drive","Dartmouth","B2W 5C2","2","15","Metropolitan Regional Housing Authority","Halifax","Yes","Y","N","Y","N","Y","N","Halifax Regional Municipality","-63.49333681","44.67662224","(44.676622, -63.493337)"
"145","360301","20121497","Riverview Villa","26 Dunrovin Avenue","Stewiacke","B0N 2J0","1","10","Cobequid Housing Authority","Colchester","No","N","Y","Y","N","Y","N","Town of Stewiacke","-63.35002059","45.1409127","(45.140913, -63.350021)"
"113","310101X","991414","Maple Crest I Phase 1","142 Maple Street (20)","Stellarton","B0K 1S0","1","20","Eastern Mainland Housing Authority","Pictou","No","Y","N","Y","N","Y","N","Town of Stellarton","-62.67191929","45.55443138","(45.554431, -62.671919)"
"65","532801","55224935","J.B. North Manor Kings","14043 Highway # 1","Hantsport","BOP 1PO","3","15","Western Regional Housing Authority","Kings","Yes","N","Y","Y","N","Y","N","Municipality of the County of Kings","-64.18499825","45.07270404","(45.072704, -64.184998)"
"10","260101","35100049","Scotia Heights Seniors Co","393 Murray Street","Mulgrave","B0E 2V0","1","10","Eastern Mainland Housing Authority","Guysborough","No","N","Y","Y","N","Y","N","Town of Mulgrave","-61.3949548","45.60807814","(45.608078, -61.394955)"
"67","533301","55055636","Centreville Place Kings","871 Murray Dr  Rr#2","Centreville","BOP 1J0","1","10","Western Regional Housing Authority","Kings","No","N","Y","N","Y","Y","N","Municipality of the County of Kings","-64.5290597","45.1325005","(45.132501, -64.52906)"
"329","210204X","85084259","408 Dingwall",,"Dingwall","B0C 1G0","1","10","Cape Breton Island Housing Authority","Victoria","No","N","Y","Y","N","N","Y","Municipality of the County of Victoria","-60.47192894","46.89479684","(46.894797, -60.471929)"
"22","300301","908517","Diamond Crest I","1714 Porters Lane","Westville","BOK 2AO","1","20","Eastern Mainland Housing Authority","Pictou","No","Y","N","Y","N","Y","N","Town of Westville","-62.71945314","45.56631965","(45.56632, -62.719453)"
"103","720201","60376282","Mahonne Manor Mahone Bay","35 Cherry Lane","Mahone Bay","B0J 2E0","2","15","Western Regional Housing Authority","Lunenburg","No","Y","N","Y","N","Y","N","Town of Mahone Bay","-64.38446006","44.45019785","(44.450198, -64.38446)"
"63","530901","55092407","Pine Grove Kings","1090 Sandy Court","Aylesford","BOP 1CO","1","15","Western Regional Housing Authority","Kings","No","Y","N","Y","N","N","Y","Municipality of the County of Kings","-64.83855732","45.02814509","(45.028145, -64.838557)"
"280","150211X","15285703","George St","1249 George St","Mira Road","1N7","2","22","Cape Breton Island Housing Authority","Cape Breton","Yes","N","Y","Y","N","Y","N","Cape Breton Regional Municipality","-60.17560204","46.12217065","(46.122171, -60.175602)"
"46","470301","45045481","Jubilee Court  Hantsport","I6 Jubilee Lane","Hantsport","B0N 1P0","1","15","Western Regional Housing Authority","Hants","No","N","Y","Y","N","Y","N","West Hants","-64.18233576","45.06778458","(45.067785, -64.182336)"
"222","100102X","15147895","250 James Street","250 James Street","Sydney","B1N 2T1","2","10","Cape Breton Island Housing Authority","Cape Breton","No","Y","N","Y","N","Y","N","Cape Breton Regional Municipality","-60.18197523","46.16369564","(46.163696, -60.181975)"
"342","611901","90211848","Fred Emin Manor","3 Grantham Street","Yarmouth","B5A 1Z7","2","25","Western Regional Housing Authority","Yarmouth","Yes","N","Y","Y","N","Y","N","Town of Yarmouth","-66.11366569","43.8276751","(43.827675, -66.113666)"
"21","290301","925396","Park View Manor","2 Porter St.","Trenton","B0K 1X0","2","20","Eastern Mainland Housing Authority","Pictou","Yes","Y","N","Y","N","Y","N","Town of Trenton","-62.63649212","45.61856455","(45.618565, -62.636492)"
"244","100215X","15077258","Sydney Senior Duplexes - 57 Windsor St","57 Windsor St","Sydney",,"1","2","Cape Breton Island Housing Authority","Cape Breton","No","Y","N","Y","N","Y","N","Cape Breton Regional Municipality","-60.19895495","46.11024986","(46.11025, -60.198955)"
"137","340901","20067963","Centennial House","46 Allison Avenue","Bible Hill","B2N 4L4","2","20","Cobequid Housing Authority","Colchester","No","Y","N","N","Y","Y","N","Municipality of the County of Colchester","-63.25776775","45.37833646","(45.378336, -63.257768)"
"284","150221X","15204902","Sunnydale I","50 Sunnydale Dr","Westmount","B1R 1J1","2","18","Cape Breton Island Housing Authority","Cape Breton","No","N","Y","Y","N","Y","N","Cape Breton Regional Municipality","-60.2127165","46.14103983","(46.14104, -60.212716)"
"302","180201X","75009266","Petit de Grat","21 Fougere Point Road","Petit de Grat","B0E 2L0","2","15","Cape Breton Island Housing Authority","Richmond","No","Y","N","Y","N","Y","N","Municipality of the County of Richmond","-60.95938804","45.51269542","(45.512695, -60.959388)"
"340","400301X","25219593","Mountain View Manor III","105/117 Smith Avenue","Parrsboro","B0M 1S0","1","10","Cobequid Housing Authority","Cumberland","No","Y","N","Y","N","Y","N","Town of Parrsboro","-64.33003371","45.40659335","(45.406593, -64.330034)"
"128","550101X","5000351","Evergreen/Willows","95 Champlain Drive","Annapolis Royal","B0S 1A0","2","29","Western Regional Housing Authority","Annapolis","Yes","Y","N","Y","N","Y","N","Town of Annapolis Royal","-65.5037106","44.74013883","(44.740139, -65.503711)"
"225","100202X","15160997","Griffin Street","19 Griffin St","Sydney","B1N 3E8","2","20","Cape Breton Island Housing Authority","Cape Breton","No","N","Y","Y","N","Y","N","Cape Breton Regional Municipality","-60.19027284","46.16325936","(46.163259, -60.190273)"
"264","120205X","15465198","St. Joseph Street S/C","669 St. Joseph Street","New Waterford","B1H 4G5","2","30","Cape Breton Island Housing Authority","Cape Breton","No","Y","N","Y","N","Y","N","Cape Breton Regional Municipality","-60.08088123","46.24083064","(46.240831, -60.080881)"
"285","150222X","15204985","30 Skyway Drive",,"Westmount","B1R 2C8","2","20","Cape Breton Island Housing Authority","Cape Breton","No","N","Y","N","Y","Y","N","Cape Breton Regional Municipality","-60.21240069","46.14016949","(46.140169, -60.212401)"
"166","410201","25209727","Meadow Vista Phase II","100 Medawell Street","Oxford","B0M 1P0","2","15","Cobequid Housing Authority","Cumberland","No","N","Y","Y","N","Y","N","Town of Oxford","-63.87108431","45.73196594","(45.731966, -63.871084)"
"130","560201X","5114301","Centennial Seniors II","129 Centennial Drive","Bridgetown","B0S 1C0","1","15","Western Regional Housing Authority","Annapolis","No","Y","N","Y","N","Y","N","Municipality of the County of Annapolis","-65.28420616","44.83976916","(44.839769, -65.284206)"
"251","100215X","15057417","Sydney Senior Duplexes - 9 Harrington Pl","9 Harrington Pl","Sydney",,"1","2","Cape Breton Island Housing Authority","Cape Breton","No","Y","N","Y","N","Y","N","Cape Breton Regional Municipality","-60.19419096","46.14383591","(46.143836, -60.194191)"
"2","220301","1301530","J.J. Carroll House","20 Orchard Terrace","Antigonish","B2G 1W5","3","50","Eastern Mainland Housing Authority","Antigonish","Yes","N","Y","Y","N","Y","N","Town of Antigonish","-61.99542225","45.62420393","(45.624204, -61.995422)"
"112","300401X","908517","Diamond Crest II","1696/1698 Porters Lane","Westville","B0K 2A0","1","10","Eastern Mainland Housing Authority","Pictou","No","Y","N","Y","N","Y","N","Town of Westville","-62.71892057","45.56661412","(45.566614, -62.718921)"
"168","420501","40175861","Eastwood Manor (GR)","55 Crichton Avenue","Dartmouth","B2Y 4G4","13","137","Metropolitan Regional Housing Authority","Halifax","Yes(2)","Y","N","Y","N","Y","N","Halifax Regional Municipality","-63.56520292","44.67275914","(44.672759, -63.565203)"
"279","150207X","15231509","Station Street",,"Reserve","B0A 1V0","1","10","Cape Breton Island Housing Authority","Cape Breton","No","N","Y","Y","N","Y","N","Cape Breton Regional Municipality","-60.02028046","46.17908696","(46.179087, -60.02028)"
"24","300601","908517","Diamond Crest IV","1688 Porters Lane","Westville","B0K 2A0","2","10","Eastern Mainland Housing Authority","Pictou","No","Y","N","Y","N","Y","N","Town of Westville","-62.71908447","45.5671487","(45.567149, -62.719084)"
"206","490201","45150109","Enfield Manor","41 Parker Place Cr.","Enfield","B2T 1K5","2","15","Metropolitan Regional Housing Authority","Hants","Yes","Y","N","Y","N","Y","N","East Hants","-63.53593166","44.93803959","(44.93804, -63.535932)"
"208","491301","45109865","Bayview Manor","9040 Highway 354","Noel N S","B0N 2C0","1","10","Cobequid Housing Authority","Hants","No","N","Y","N","Y","N","Y","East Hants","-63.74715258","45.29444609","(45.294446, -63.747153)"
"59","510401","55339758","Northend Pines Kentville","55 Oakdene Avenue","Kentville","B4N 2B6","2","20","Western Regional Housing Authority","Kings","Yes","Y","N","Y","N","Y","N","Town of Kentville","-64.49078854","45.08393346","(45.083933, -64.490789)"
"54","510301","55266423","Terrace Cottages Kentvill","55 Oakdene Avenue","Kentville","B4N 2B6","1","4","Western Regional Housing Authority","Kings","No","Y","N","Y","N","Y","N","Town of Kentville","-64.49112258","45.08327265","(45.083273, -64.491123)"
"100","710101","60057726","Cornwallis Apts. Lunenbur","119 Cornwallis Steet","Lunenburg","B0J 2C0","2","15","Western Regional Housing Authority","Lunenburg","No","Y","N","Y","N","Y","N","Town of Lunenburg","-64.31199936","44.38095301","(44.380953, -64.311999)"
"339","400201X","25219593","Mountain View Manor II","77/91 Smith Avenue","Parrsboro","B0M 1S0","1","10","Cobequid Housing Authority","Cumberland","No","Y","N","Y","N","Y","N","Town of Parrsboro","-64.32915141","45.40669831","(45.406698, -64.329151)"
"149","371101","25341363","Lakeside Manor","1419 Blair Road","Amherst","B4H 3Y4","2","15","Cobequid Housing Authority","Cumberland","Yes","Y","N","N","Y","N","Y","Municipality of the County of Cumberland","-64.19985652","45.80317066","(45.803171, -64.199857)"
"232","100209X","15123243","Celtic Manor","20 Tillock Dr","Sydney","B1P 6R1","2","30","Cape Breton Island Housing Authority","Cape Breton","No","Y","N","Y","N","Y","N","Cape Breton Regional Municipality","-60.16224299","46.13824083","(46.138241, -60.162243)"
"169","420601","67512","Crathorne I, 16 Jamieson","16 Jamieson Street","Dartmouth","B3A 3B7","2","30","Metropolitan Regional Housing Authority","Halifax","No","Y","N","Y","N","Y","N","Halifax Regional Municipality","-63.5851444","44.67048562","(44.670486, -63.585144)"
"49","480801","45201522","Kendall Terrace West Hant","87 Kendall Lane","Rr# 1 Windsor","B0N 2T0","2","15","Western Regional Housing Authority","Hants","No","N","Y","Y","N","Y","N","West Hants","-64.12821878","44.97508519","(44.975085, -64.128219)"
"295","160205X","15643703","Northside Guest Home","9 Queen Street","North Sydney","B2A 1A2","2","25","Cape Breton Island Housing Authority","Cape Breton","Yes","Y","N","Y","N","Y","N","Cape Breton Regional Municipality","-60.26340972","46.19464958","(46.19465, -60.26341)"
"167","420301","109926","Alderney Manor (GR)","1 Alderney Drive","Dartmouth","B2Y 4A7","12","199","Metropolitan Regional Housing Authority","Halifax","Yes(2)","Y","N","Y","N","Y","N","Halifax Regional Municipality","-63.5713989","44.66691047","(44.66691, -63.571399)"
"52","490301","45196730","Mt. Uniacke East Hants","664 Hwy. 1","Mount Uniacke","B0N 1Z0","2","15","Western Regional Housing Authority","Hants","No","Y","N","N","Y","N","Y","East Hants","-63.83389816","44.89473535","(44.894735, -63.833898)"
"70","540301","5116967","Anna-Villa West Annapolis","16 Fitch Road","Lawrencetown","B0S 1M0","2","10","Western Regional Housing Authority","Annapolis","No","N","Y","Y","N","Y","N","Municipality of the County of Annapolis","-65.15073886","44.89043548","(44.890435, -65.150739)"
"233","100210X","15123243","Tillock","22 Tillock Dr","Sydney","B1P 6R1","2","20","Cape Breton Island Housing Authority","Cape Breton","Yes","N","Y","Y","N","Y","N","Cape Breton Regional Municipality","-60.16127367","46.13809798","(46.138098, -60.161274)"
"275","150203X","15231509","32D Station Street","32 Station St","Reserve","B0A 1V0","2","15","Cape Breton Island Housing Authority","Cape Breton","No","N","Y","Y","N","Y","N","Cape Breton Regional Municipality","-60.02037087","46.17886323","(46.178863, -60.020371)"
"188","440301","40238487","Spruce Grove Apartments","27 James Roy Drive","Porters Lake","B3E 1H9","2","26","Metropolitan Regional Housing Authority","Halifax","Yes","Y","N","N","Y","N","Y","Halifax Regional Municipality","-63.27838013","44.74433144","(44.744331, -63.27838)"
"158","390301","25231937","The Corner Villa","1 King Street","Springhill","B0M 1X0","2","18","Cobequid Housing Authority","Cumberland","No","Y","N","Y","N","Y","N","Municipality of the County of Cumberland","-64.06246481","45.6521325","(45.652133, -64.062465)"
"323","200213X","50143767","Margaree Manor","1130 East Margaree","Inverness","B0E 1N0","3","15","Cape Breton Island Housing Authority","Inverness","Yes","Y","N","N","Y","N","Y","Municipality of the County of Inverness","-61.0748909","46.39565713","(46.395657, -61.074891)"
"162","390801","25230848","Hillcrest Villa","20 Junction Road","Springhill","B0M 1X0","2","15","Cobequid Housing Authority","Cumberland","No","Y","N","N","Y","Y","N","Municipality of the County of Cumberland","-64.0584378","45.6527235","(45.652724, -64.058438)"
"335","370501X","25174715","Remsheg Villa","6 mile road","Wallace","B0K 1Y0","1","10","Cobequid Housing Authority","Cumberland","No","N","Y","N","Y","N","Y","Municipality of the County of Cumberland","-63.47196991","45.81196109","(45.811961, -63.47197)"
"172","422901","40394686","Acadia Place (FH Demo)","8 Mount Hope Avenue","Dartmouth","B2Y 4K1","2","20","Metropolitan Regional Housing Authority","Halifax","Yes","N","Y","Y","N","Y","N","Halifax Regional Municipality","-63.54411569","44.65281124","(44.652811, -63.544116)"
"190","440601","40219685","Valley View Villa","28 Elm Drive","Middle Musquodoboit","B0N 1X0","2","25","Metropolitan Regional Housing Authority","Halifax","Yes","Y","N","Y","N","Y","N","Halifax Regional Municipality","-63.14809569","45.04428525","(45.044285, -63.148096)"
"160","390601","25230863","Pine Grove Villa","1 Pine Street","Springhill","B0M 1X0","3","14","Cobequid Housing Authority","Cumberland","No","Y","N","Y","N","Y","N","Municipality of the County of Cumberland","-64.05912647","45.65293461","(45.652935, -64.059126)"
"303","180202X","75087502","Arichat","27 Highland Street","Arichat","B0E 1A0","1","10","Cape Breton Island Housing Authority","Richmond","No","N","Y","Y","N","Y","N","Municipality of the County of Richmond","-61.02381041","45.51266073","(45.512661, -61.02381)"
"134","340501","20226783","Maccaull Villa","49 Lornevale Road","Great Village","B0M 1L0","2","20","Cobequid Housing Authority","Colchester","Yes","N","Y","N","Y","N","Y","Municipality of the County of Colchester","-63.60218903","45.41838192","(45.418382, -63.602189)"
"229","100206X","15064942","Vista Heights","312 Esplanade","Sydney","B1P 6P4","2","140","Cape Breton Island Housing Authority","Cape Breton","Yes(2)","N","Y","Y","N","Y","N","Cape Breton Regional Municipality","-60.19620969","46.1378222","(46.137822, -60.19621)"
"304","180203X","75017087","D Escousse","3309 Hwy 320","D'Escousse","B0E 1K0","2","10","Cape Breton Island Housing Authority","Richmond","No","Y","N","N","Y","N","Y","Municipality of the County of Richmond","-60.9623037","45.58826333","(45.588263, -60.962304)"
"109","230201X","1300037","Greenwold Manor - 55","57 Old South River Road","Antigonish","B2G 2H3","2","55","Eastern Mainland Housing Authority","Antigonish","Yes","Y","N","N","Y","N","Y","Municipality of the County of Antigonish","-61.97774458","45.61913297","(45.619133, -61.977745)"
"267","120208X","15477102","Sunrise Court","763 King Street","New Waterford","B1H 4S9","2","15","Cape Breton Island Housing Authority","Cape Breton","No","N","Y","Y","N","Y","N","Cape Breton Regional Municipality","-60.08746485","46.23952042","(46.23952, -60.087465)"
"210","610601","90204835","Beacon Terrace","1 Beacon Street","Yarmouth","B5A 2W2","2","36","Western Regional Housing Authority","Yarmouth","Yes","Y","N","Y","N","Y","N","Town of Yarmouth","-66.11716124","43.84304201","(43.843042, -66.117161)"
"43","460201","45231669","70 Tremain Cr.  Windsor","70 Tremain Cr.","Windsor","B0N 2T0","2","20","Western Regional Housing Authority","Hants","Yes","N","Y","Y","N","Y","N","Town of Windsor","-64.12805087","44.98122548","(44.981225, -64.128051)"
"316","200206X","50046432","Birch Street","35 Birch Street","Mabou","1X0","1","4","Cape Breton Island Housing Authority","Inverness","No","N","Y","Y","N","Y","N","Municipality of the County of Inverness","-61.39881871","46.07350975","(46.07351, -61.398819)"
"341","444601","40385296","D. A. Macdonald (Demo)","1935 Caldwell Road","Eastern Passage","B3G 1J2","2","20","Metropolitan Regional Housing Authority","Halifax","Yes","N","Y","Y","N","Y","N","Halifax Regional Municipality","-63.46897902","44.60625956","(44.60626, -63.468979)"
"237","100214X","15543457","Xavier Golden Heights","27 Xavier Dr","Sydney","B1S 2R9","3","26","Cape Breton Island Housing Authority","Cape Breton","Yes","N","Y","Y","N","Y","N","Cape Breton Regional Municipality","-60.19391019","46.12338428","(46.123384, -60.19391)"
"326","210201X","85020519","Macdermid Street",,"Baddeck","B0E 1B0","2","15","Cape Breton Island Housing Authority","Victoria","Yes","Y","N","Y","N","Y","N","Municipality of the County of Victoria","-60.75683938","46.10102822","(46.101028, -60.756839)"
"236","100213X","15071822","Argyle St","160 Argyle St","Sydney","B1S 2V7","3","15","Cape Breton Island Housing Authority","Cape Breton","Yes","N","Y","Y","N","Y","N","Cape Breton Regional Municipality","-60.19359559","46.12906289","(46.129063, -60.193596)"
"218","620401","90186552","Island View Manor","20 Island View Road","Arcadia","B5A 4A6","1","10","Western Regional Housing Authority","Yarmouth","No","N","Y","N","Y","N","Y","Municipality of the District of Yarmouth","-66.07806559","43.81687171","(43.816872, -66.078066)"
"33","330501","65021586","Lakeside Villa","2512 Highway 376","RR2 Pictou","B0K 1H0","1","10","Eastern Mainland Housing Authority","Pictou","No","Y","N","N","Y","N","Y","Municipality of the County of Pictou","-62.77511504","45.67154172","(45.671542, -62.775115)"
"205","490101","45162203","Sunnybrook Manor","48 Mill Village Rd Rr1","Shubenacadie N S","B0N 2H0","2","20","Cobequid Housing Authority","Hants","Yes","Y","N","N","Y","N","Y","East Hants","-63.41162005","45.08586273","(45.085863, -63.41162)"
"73","550301","5000351","Cedar House Annapolis Roy","97 Champlain Drive","Annapolis Royal","B0S 1A0","2","15","Western Regional Housing Authority","Annapolis","No","N","Y","Y","N","Y","N","Town of Annapolis Royal","-65.50321885","44.73987646","(44.739876, -65.503219)"
"12","280401","936849","Woodbine Crest II","345 Albert St.","New Glasgow","B2H 3V7","2","20","Eastern Mainland Housing Authority","Pictou","Yes","Y","N","Y","N","Y","N","Town of New Glasgow","-62.64097291","45.58195136","(45.581951, -62.640973)"
"29","320801","974220","Church Street Villa","29 Church St.","Pictou","B0K 1H0","2","15","Eastern Mainland Housing Authority","Pictou","Yes","N","Y","Y","N","Y","N","Town of Pictou","-62.710934","45.67684049","(45.67684, -62.710934)"
"292","160202X","15021264","1 William Street",,"North Sydney","B2A 3P2","2","20","Cape Breton Island Housing Authority","Cape Breton","No","N","Y","Y","N","Y","N","Cape Breton Regional Municipality","-60.2583885","46.20886585","(46.208866, -60.258388)"
"31","330201","906099","Riverton Heights II","22 Riverton Hghts Dr.","Stellarton","B0K 1S0","2","10","Eastern Mainland Housing Authority","Pictou","No","N","Y","N","Y","N","Y","Municipality of the County of Pictou","-62.66624888","45.54388486","(45.543885, -62.666249)"
"301","170206X","15176811","50 Jacob Street","50 Jacob Street","Sydney Mines","B1V 3G1","2","15","Cape Breton Island Housing Authority","Cape Breton","No","N","Y","Y","N","Y","N","Cape Breton Regional Municipality","-60.2198705","46.24253371","(46.242534, -60.21987)"
"200","445401","40525719","Forest Hills  Phase III","18 Circassion Drive","Dartmouth","B2W 5C2","2","15","Metropolitan Regional Housing Authority","Halifax","Yes","N","Y","Y","N","Y","N","Halifax Regional Municipality","-63.4942672","44.67604521","(44.676045, -63.494267)"
"139","341401","20271821","Bay View Homestead","23 Anita Crescent","Truro","B2N 5A9","2","15","Cobequid Housing Authority","Colchester","Yes","N","Y","N","Y","Y","N","Municipality of the County of Colchester","-63.32036555","45.35346673","(45.353467, -63.320366)"
"75","580301","30227938","Hillside Apartments (uppe","48 St. Mary's Street","Digby","B0V 1A0","1","14","Western Regional Housing Authority","Digby","No","Y","N","Y","N","Y","N","Town of Digby","-65.75864398","44.61598941","(44.615989, -65.758644)"
"58","510305","55266423","Terrace Cottages Kentvill","55 Oakdene Avenue","Kentville","B4N 2B6","1","4","Western Regional Housing Authority","Kings","No","Y","N","Y","N","Y","N","Town of Kentville","-64.49138835","45.08362932","(45.083629, -64.491388)"
"260","120201X","15478811","Mahon Street S/C",,"New Waterford","B1H3J2","1","20","Cape Breton Island Housing Authority","Cape Breton","No","N","Y","Y","N","Y","N","Cape Breton Regional Municipality","-60.09046695","46.2504398","(46.25044, -60.090467)"
"254","110202X","15389554","Disney East","3 McDonalds Lane","Glace Bay","B1A 4A8","2","63","Cape Breton Island Housing Authority","Cape Breton","Yes","N","Y","Y","N","Y","N","Cape Breton Regional Municipality","-59.96684852","46.19756251","(46.197563, -59.966849)"
"331","340301X","20067963","Nova Court","64 Allison Avenue","Bible Hill","B2N 4L4","2","20","Cobequid Housing Authority","Colchester","Yes","Y","N","Y","N","Y","N","Municipality of the County of Colchester","-63.2573743","45.37724766","(45.377248, -63.257374)"
"77","580401","30225619","Victoria Apartments","108 Victoria Street","Digby","B0V 1A0","2","20","Western Regional Housing Authority","Digby","No","N","Y","Y","N","Y","N","Town of Digby","-65.76534057","44.61930698","(44.619307, -65.765341)"
"155","381701","25005380","Fort Cumberland Manor","144 Victoria Street E.","Amherst","B4H 1Y1","4","30","Cobequid Housing Authority","Cumberland","Yes","Y","N","Y","N","Y","N","Town of Amherst","-64.2114486","45.83632769","(45.836328, -64.211449)"
"34","330601","65022493","Harbour View Manor","1525 Shore Road","Merigomish","B0K 1G0","2","10","Eastern Mainland Housing Authority","Pictou","No","Y","N","N","Y","N","Y","Municipality of the County of Pictou","-62.43053245","45.63189563","(45.631896, -62.430532)"
"17","282101","65030835","Hillside View II","235 Little Harbour Rd.","New Glasgow","B2H 3S9","2","16","Eastern Mainland Housing Authority","Pictou","Yes","N","Y","Y","N","Y","N","Town of New Glasgow","-62.63678084","45.59300476","(45.593005, -62.636781)"
"133","340101","20061701","Arcadian Apts","30 Blanchard Avenue","Bible Hill","B2N 4K6","1","20","Cobequid Housing Authority","Colchester","No","Y","N","N","Y","Y","N","Municipality of the County of Colchester","-63.26031018","45.3744999","(45.3745, -63.26031)"
"69","533601","55105647","Greenwood Seniors Kings","881 Rocknotch Road","Kingston","BOP 1R0","2","15","Western Regional Housing Authority","Kings","Yes","N","Y","Y","N","N","Y","Municipality of the County of Kings","-64.92026093","44.96305058","(44.963051, -64.920261)"
"119","500101X","55240584","Cottage Court Berwick","169 Cottage Street","Berwick","B0P 1E0","1","10","Western Regional Housing Authority","Kings","No","Y","N","Y","N","Y","N","Town of Berwick","-64.7333611","45.04564869","(45.045649, -64.733361)"
"290","150227X","15316425","25 King Street",,"Florence","B0C 1J0","2","14","Cape Breton Island Housing Authority","Cape Breton","No","N","Y","Y","N","Y","N","Cape Breton Regional Municipality","-60.25885175","46.2570756","(46.257076, -60.258852)"
"273","150201X","15272073","Cashin Crescent S/C","Cashin Crescent","Scotchtown","B1H 4K1","1","30","Cape Breton Island Housing Authority","Cape Breton","No","Y","N","Y","N","Y","N","Cape Breton Regional Municipality","-60.10446897","46.24146596","(46.241466, -60.104469)"
"80","590201","30327001","Foyer Evengeline","8394 Trunk#1","Metegan","B0W 2J0","2","15","Western Regional Housing Authority","Digby","Yes","Y","N","N","Y","N","Y","Municipality of the District of Clare","-66.15337986","44.19290215","(44.192902, -66.15338)"
"118","330301X","1045103","Burnside Manor","Scotsburn Road (15)","Scotsburn",,"1","15","Eastern Mainland Housing Authority","Pictou","No","N","Y","N","Y","Y","N","Municipality of the County of Pictou","-62.8484691","45.64903121","(45.649031, -62.848469)"
"308","180207X","75061226","Marguerite Manor","10074 Grenville Street","St Peters","B0E 3B0","2","11","Cape Breton Island Housing Authority","Richmond","No","Y","N","Y","N","Y","N","Municipality of the County of Richmond","-60.86926421","45.65680298","(45.656803, -60.869264)"
"5","230101","1308501","Havre Boucher - 10","12484 Highway 4","Antigonish Co","B0H 1P0","1","10","Eastern Mainland Housing Authority","Antigonish","No","Y","N","N","Y","N","Y","Municipality of the County of Antigonish","-61.53509007","45.68045432","(45.680454, -61.53509)"
"175","431001","102194","Joseph Howe Manor (MS)","5515 Victoria Road","Halifax","B3H 4J9","9","175","Metropolitan Regional Housing Authority","Halifax","Yes(2)","Y","N","Y","N","Y","N","Halifax Regional Municipality","-63.57419185","44.63670598","(44.636706, -63.574192)"
"68","533501","55202774","New Minas Seniors  Kings","1052 Highland Avenue","New Minas","B4N 3J5","2","12","Western Regional Housing Authority","Kings","Yes","N","Y","Y","N","Y","N","Municipality of the County of Kings","-64.45533477","45.06538351","(45.065384, -64.455335)"
"32","330401","863878","Riverview Manor","20 Seniors Drive","River John","B0K 1N0","2","15","Eastern Mainland Housing Authority","Pictou","No","N","Y","Y","N","Y","N","Municipality of the County of Pictou","-63.06179456","45.75103837","(45.751038, -63.061795)"
"45","470101","45229622","Jubilee Lodge Hantsport","11 Chittick Ave.","Hantsport","BOP 1PO","2","15","Western Regional Housing Authority","Hants","No","N","Y","Y","N","Y","N","West Hants","-64.18175577","45.0677468","(45.067747, -64.181756)"
"173","423201","40580680","Edgemere (GR)","79 Crichton Avenue","Dartmouth","B3A 4W6","4","65","Metropolitan Regional Housing Authority","Halifax","Yes(2)","N","Y","Y","N","Y","N","Halifax Regional Municipality","-63.56436001","44.67541731","(44.675417, -63.56436)"
"140","350101","20146130","Parkview Terrace","350 Robie Street","Truro","B2N 1L3","3","41","Cobequid Housing Authority","Colchester","Yes","N","Y","Y","N","Y","N","Town of Truro","-63.29580404","45.36942953","(45.36943, -63.295804)"
"270","130202X","15379894","29 Pleasant Street","29 Pleasant St","Dominion","B0A 1E0","1","15","Cape Breton Island Housing Authority","Cape Breton","No","N","Y","Y","N","Y","N","Cape Breton Regional Municipality","-60.02442226","46.21113861","(46.211139, -60.024422)"
"320","200210X","50131812","Namara","19 Joe's Lane","Inverness","B0E 1N0","2","20","Cape Breton Island Housing Authority","Inverness","Yes","Y","N","Y","N","Y","N","Municipality of the County of Inverness","-61.29997445","46.2295024","(46.229502, -61.299974)"
"219","630101","90095241","Wedge Haven Apts","125 Chemin De L'Est","Wedgeport","B0W 3P0","1","15","Western Regional Housing Authority","Yarmouth","No","N","Y","N","Y","N","Y","Municipality of the District of Argyle","-65.97267497","43.74140394","(43.741404, -65.972675)"
"276","150204X","15372030","Port Morien","27 Birch Grove Rd","Port Morien","B0A 1T0","2","15","Cape Breton Island Housing Authority","Cape Breton","No","Y","N","Y","N","Y","N","Cape Breton Regional Municipality","-59.87624293","46.13229336","(46.132293, -59.876243)"
"197","443601","40135865","Forest Hills  Phase II","16 Circassion Drive","Dartmouth","B2W 5C2","3","15","Metropolitan Regional Housing Authority","Halifax","Yes","N","Y","Y","N","Y","N","Halifax Regional Municipality","-63.49373527","44.676039","(44.676039, -63.493735)"
"328","210203X","85045797","Keltic View Manor",,"Ingonish","B0C 1L0","1","9","Cape Breton Island Housing Authority","Victoria","No","N","Y","Y","N","N","Y","Municipality of the County of Victoria","-60.41009678","46.63864329","(46.638643, -60.410097)"
"14","280601","1000017","Autumn Crest II","221 Abercrombie Rd","New Glasgow","B2H 1K7","3","30","Eastern Mainland Housing Authority","Pictou","Yes","Y","N","Y","N","Y","N","Town of New Glasgow","-62.64944252","45.59504308","(45.595043, -62.649443)"
"330","340201X","20087987","Hills of Annand","170 Blair Avenue","Tatamagouche","B0K1V0","1","50","Cobequid Housing Authority","Colchester","No","Y","N","Y","N","Y","N","Municipality of the County of Colchester","-63.29387965","45.70970349","(45.709703, -63.29388)"
"141","350201","20146171","Longworth Lodge","370 Robie Street","Truro","B2N 1L3","3","40","Cobequid Housing Authority","Colchester","Yes","Y","N","Y","N","Y","N","Town of Truro","-63.2944173","45.36964636","(45.369646, -63.294417)"
"62","530601","55008106","Glooscap Seniors Kings","1023 Cavelle Terrace","Canning","BOP 1HO","2","15","Western Regional Housing Authority","Kings","No","N","Y","Y","N","Y","N","Municipality of the County of Kings","-64.42450642","45.15999336","(45.159993, -64.424506)"
"120","500102X","55241848","Valley View Berwick","143 Cottage St.","Berwick","B0P 1E0","1","15","Western Regional Housing Authority","Kings","No","Y","N","Y","N","Y","N","Town of Berwick","-64.72927256","45.04620589","(45.046206, -64.729273)"
"1","220201","1225416","Orchard Villa - 29","15 Orchard Terrace","Antigonish","B2G 1W4","2","29","Eastern Mainland Housing Authority","Antigonish","Yes","Y","N","Y","N","Y","N","Town of Antigonish","-61.99489123","45.62546895","(45.625469, -61.994891)"
"152","380501","25006297","Ridgeview Villa","48 Summit Avenue","Amherst","B4H 2A7","2","20","Cobequid Housing Authority","Cumberland","No","N","Y","Y","N","Y","N","Town of Amherst","-64.20945645","45.83979379","(45.839794, -64.209456)"
"310","190201X","50131671","Sunset Manor","453 MacSween Street","Port Hawkesbury","B9A 2K1","2","31","Cape Breton Island Housing Authority","Inverness","Yes","Y","N","Y","N","Y","N","Town of Port Hawkesbury","-61.35463998","45.62010767","(45.620108, -61.35464)"
"299","170204X","15495336","568 Main Street","Fix","Sydney Mines","B1V 2K8","2","20","Cape Breton Island Housing Authority","Cape Breton","No","Y","N","Y","N","Y","N","Cape Breton Regional Municipality","-60.22069551","46.23860263","(46.238603, -60.220696)"
"333","360201X","20121497","Riverview Villa","Dunrovin Avenue","Stewiacke","B0N 2J0","2","20","Cobequid Housing Authority","Colchester","No","Y","N","Y","N","Y","N","Town of Stewiacke","-63.34970262","45.14148906","(45.141489, -63.349703)"
"171","421901","83840","Nantucket Place (GR)","45 Ochterloney Street","Dartmouth","B2Y 4M7","6","70","Metropolitan Regional Housing Authority","Halifax","Yes(2)","N","Y","Y","N","Y","N","Halifax Regional Municipality","-63.5689695","44.66661073","(44.666611, -63.568969)"
"48","480401","45259397","Kendall Manor West Hants","146 Kendall Lane","Windsor","B0N 2T0","2","15","Western Regional Housing Authority","Hants","No","N","Y","Y","N","Y","N","West Hants","-64.12672927","44.97542788","(44.975428, -64.126729)"
"307","180206X","75061226","Chateau Nicholas","10076 Grenville Street","St Peters","B0E 3B0","2","15","Cape Breton Island Housing Authority","Richmond","No","N","Y","Y","N","Y","N","Municipality of the County of Richmond","-60.8696884","45.65651966","(45.65652, -60.869688)"
"129","560101X","5145164","Centennial Seniors I",,"Bridgetown","B0S 1C0","1","23","Western Regional Housing Authority","Annapolis","No","Y","N","Y","N","Y","N","Municipality of the County of Annapolis","-65.28517821","44.83955074","(44.839551, -65.285178)"
"338","400101X","25219593","Mountain View Manor I","51/65 Smith Avenue","Parrsboro","B0M 1S0","1","10","Cobequid Housing Authority","Cumberland","No","Y","N","Y","N","Y","N","Town of Parrsboro","-64.32837334","45.40684831","(45.406848, -64.328373)"
"274","150202X","15263023","New Victoria","76 Daley Road","New Victoria","B1H 4Z6","2","15","Cape Breton Island Housing Authority","Cape Breton","No","Y","N","Y","N","Y","N","Cape Breton Regional Municipality","-60.134418","46.25032207","(46.250322, -60.134418)"
"287","150224X","15164239","97 Riverview Drive",,"Sydney River","B1S 1N7","2","15","Cape Breton Island Housing Authority","Cape Breton","No","Y","N","N","Y","Y","N","Cape Breton Regional Municipality","-60.22243861","46.10412091","(46.104121, -60.222439)"
"201","445402","40631160","Forest Hills  Phase IV","22 Circassion Drive","Dartmouth","B2W 5C2","2","20","Metropolitan Regional Housing Authority","Halifax","Yes","N","Y","Y","N","Y","N","Halifax Regional Municipality","-63.49507331","44.67662409","(44.676624, -63.495073)"
"309","180208X","75064840","LArdoise","28 O'Brien Road","L'Ardoise","B0E 1S0","2","10","Cape Breton Island Housing Authority","Richmond","No","N","Y","N","Y","N","Y","Municipality of the County of Richmond","-60.7706533","45.61124139","(45.611241, -60.770653)"
"106","750201","80077373","Beachview Sr.","71 John Street","Lockeport","B0T 1L0","2","10","Western Regional Housing Authority","Shelburne","No","Y","N","N","Y","N","Y","Town of Lockeport","-65.10776681","43.69345953","(43.69346, -65.107767)"
"271","130203X","15567548","Wilsons Ln","30 Wilsons Lane","Dominion","B0A 1E0","1","10","Cape Breton Island Housing Authority","Cape Breton","No","N","Y","Y","N","Y","N","Cape Breton Regional Municipality","-60.01239565","46.21449692","(46.214497, -60.012396)"
"336","380101X","25008871","Tantramar Place","20 North Adelaide St.","Amherst","B4H 3M5","1","25","Cobequid Housing Authority","Cumberland","No","Y","N","Y","N","Y","N","Town of Amherst","-64.2126524","45.83822404","(45.838224, -64.212652)"
"90","670201","80112220","Lake Road","1602 Lake Rodney Rd","Shelburne","B0T 1W0","1","15","Western Regional Housing Authority","Shelburne","No","N","Y","Y","N","Y","N","Municipality of the District of Barrington","-65.30851581","43.74851261","(43.748513, -65.308516)"
"240","100215X","15113954","Sydney Senior Duplexes - 305 Cartier St","305 Cartier St","Sydney",,"1","2","Cape Breton Island Housing Authority","Cape Breton","No","Y","N","Y","N","Y","N","Cape Breton Regional Municipality","-60.17275948","46.13513305","(46.135133, -60.172759)"
"163","400401","25219593","Mountain View Manor IV","118 Smith Avenue","Parrsboro","B0M 1S0","2","10","Cobequid Housing Authority","Cumberland","No","Y","N","Y","N","Y","N","Town of Parrsboro","-64.33019908","45.40697901","(45.406979, -64.330199)"
"55","510302","55266423","Terrace Cottages Kentvill","55 Oakdene Avenue","Kentville","B4N 2B6","1","4","Western Regional Housing Authority","Kings","No","Y","N","Y","N","Y","N","Town of Kentville","-64.49140468","45.08336882","(45.083369, -64.491405)"
"28","320401","973164","Coleraine Plaza","48 Coleraine St.","Pictou","B0K 1H0","2","20","Eastern Mainland Housing Authority","Pictou","Yes","Y","N","Y","N","Y","N","Town of Pictou","-62.70810063","45.67542753","(45.675428, -62.708101)"
"257","110205X","15246390","86 Nolans Lane-Paradise","86 Nolans Lane","Glace Bay","B1A 6E1","2","20","Cape Breton Island Housing Authority","Cape Breton","No","Y","N","Y","N","Y","N","Cape Breton Regional Municipality","-59.97129387","46.19485636","(46.194856, -59.971294)"
"136","340801","20200283","River View","5600 No. 2 Highway","Bass River","B0M 1B0","2","10","Cobequid Housing Authority","Colchester","No","Y","N","N","Y","N","Y","Municipality of the County of Colchester","-63.78063727","45.41292505","(45.412925, -63.780637)"
"226","100203X","15145626","Pier Duplex Seniors","Pier Duplex Seniors","Sydney",,"1","18","Cape Breton Island Housing Authority","Cape Breton","No","Y","N","Y","N","Y","N","Cape Breton Regional Municipality","-60.1781129","46.15995186","(46.159952, -60.178113)"
"179","431501","286906","Captain William Spry Mano","6 Arnold Drive","Halifax","B3P 2M8","2","38","Metropolitan Regional Housing Authority","Halifax","Yes","Y","N","Y","N","Y","N","Halifax Regional Municipality","-63.613491","44.61943666","(44.619437, -63.613491)"
"184","432401","40345233","Acadia Square Lodge-South","3340 Kenny Street","Halifax","B3K 5T4","2","20","Metropolitan Regional Housing Authority","Halifax","Yes","N","Y","Y","N","Y","N","Halifax Regional Municipality","-63.60313637","44.66612161","(44.666122, -63.603136)"
"142","350601","20187910","Lyman-Walker House","41 Lyman Street","Truro","B2N 4S1","3","18","Cobequid Housing Authority","Colchester","Yes","N","Y","Y","N","Y","N","Town of Truro","-63.26662608","45.36269213","(45.362692, -63.266626)"
"278","150206X","15507569","First St","37 First St","Birch Grove","B0A 1A0","1","6","Cape Breton Island Housing Authority","Cape Breton","No","N","Y","Y","N","Y","N","Cape Breton Regional Municipality","-59.9572326","46.12221242","(46.122212, -59.957233)"
"230","100207X","15100902","George St","955 George St","Sydney","B2P 6R6","3","22","Cape Breton Island Housing Authority","Cape Breton","Yes","Y","N","Y","N","Y","N","Cape Breton Regional Municipality","-60.18375667","46.12810205","(46.128102, -60.183757)"
"98","700701","60043817","Eastside Manor Bridgewate","61 Porter Crescent","Bridgewater","B4V 3N8","2","20","Western Regional Housing Authority","Lunenburg","Yes","N","Y","Y","N","Y","N","Town of Bridgewater","-64.51389681","44.37969311","(44.379693, -64.513897)"
"66","533101","55085732","Lincoln Court","365 Lincoln Street","Kingston","BOP 1RO","1","10","Western Regional Housing Authority","Kings","No","N","Y","N","Y","Y","N","Municipality of the County of Kings","-64.96085381","44.98804067","(44.988041, -64.960854)"
"116","320301X","984815","Strathcona Place II","115 Haliburton Road (40)","Pictou","B0K 1H0","1","40","Eastern Mainland Housing Authority","Pictou","No","Y","N","Y","N","Y","N","Town of Pictou","-62.7221679","45.67523114","(45.675231, -62.722168)"
"95","690401","70077789","Riverside Apartments Quee","326 Main Street","Milton","B0T 1P0","2","15","Western Regional Housing Authority","Queens","No","Y","N","N","Y","N","Y","Region of Queens Municipality","-64.75483724","44.06177725","(44.061777, -64.754837)"
"57","510304","55266423","Terrace Cottages Kentvill","55 Oakdene Avenue","Kentville","B4N 2B6","1","4","Western Regional Housing Authority","Kings","No","Y","N","Y","N","Y","N","Town of Kentville","-64.49123124","45.08354134","(45.083541, -64.491231)"
"72","541101","5114194","Crosskill Court Annapolis","192 Hampton Mountain Rd.","Bridgetown","B0S 1C0","1","25","Western Regional Housing Authority","Annapolis","No","N","Y","Y","N","Y","N","Municipality of the County of Annapolis","-65.29176293","44.84937978","(44.84938, -65.291763)"
"311","200201X","50011543","Judique","16 Keltic Drive","Judique","B0E 1P0","2","10","Cape Breton Island Housing Authority","Inverness","No","N","Y","Y","N","Y","N","Municipality of the County of Inverness","-61.49205247","45.87744523","(45.877445, -61.492052)"
"124","530602X","55163737","Twin Elms Kings","Maple Street","Waterville","B0P 1V0","2","15","Western Regional Housing Authority","Kings","No","N","Y","N","Y","N","Y","Municipality of the County of Kings","-64.6743741","45.05186447","(45.051864, -64.674374)"
"182","432201","204107","Cornwallis Morreau Lodge","103 Main Avenue","Halifax","B3M 1A8","4","41","Metropolitan Regional Housing Authority","Halifax","Yes","N","Y","Y","N","Y","N","Halifax Regional Municipality","-63.54184186","44.68195041","(44.68195, -63.541842)"
"11","280201","936849","Woodbine Crest I","346 Brother St.","New Glasgow","B2H 5J7","3","25","Eastern Mainland Housing Authority","Pictou","Yes","Y","N","Y","N","Y","N","Town of New Glasgow","-62.6410205","45.58146944","(45.581469, -62.64102)"
"209","610301","90210774","The Willows","2 Murphy Avenue","Yarmouth","B5A 1Z9","2","20","Western Regional Housing Authority","Yarmouth","No","Y","N","Y","N","Y","N","Town of Yarmouth","-66.1134849","43.82985063","(43.829851, -66.113485)"
"313","200203X","50027606","Reynolds Road","23 Reynolds Road","Port Hood","B0E 2W0","2","10","Cape Breton Island Housing Authority","Inverness","No","N","Y","Y","N","Y","N","Municipality of the County of Inverness","-61.53213058","46.01941521","(46.019415, -61.532131)"
"121","520101X","55276836","Blomidon View Wolfville (2 building)","16 Dale St","Wolfville","B0P 1X0","2","42","Western Regional Housing Authority","Kings","No","Y","N","Y","N","Y","N","Town of Wolfville","-64.34952241","45.09079663","(45.090797, -64.349522)"
"189","440302","40302283","Forest Glen Apartments","19 East Petpeswick Rd","Musquodoboit Harbour","B0J 2L0","2","20","Metropolitan Regional Housing Authority","Halifax","Yes","Y","N","N","Y","N","Y","Halifax Regional Municipality","-63.14714445","44.7863771","(44.786377, -63.147144)"
"213","611301","90218215","Lawndale Haven","2 Trask Avenue","Yarmouth","B5A 4K7","3","25","Western Regional Housing Authority","Yarmouth","No","N","Y","Y","N","Y","N","Town of Yarmouth","-66.09990548","43.83536026","(43.83536, -66.099905)"
"165","410101","25209719","Meadow Vista Phase I","5008 Main Street","Oxford","B0M 1P0","1","20","Cobequid Housing Authority","Cumberland","No","N","Y","Y","N","Y","N","Town of Oxford","-63.87135877","45.73212103","(45.732121, -63.871359)"
"15","280701","65030835","Hillside View I","235 Little Harbour Rd.","New Glasgow","B2H 3S9","2","20","Eastern Mainland Housing Authority","Pictou","No","Y","N","Y","N","Y","N","Town of New Glasgow","-62.637258","45.59314464","(45.593145, -62.637258)"
"293","160203X","15622848","1 Beacon Crescent",,"North Sydney","B2A 3R3","2","40","Cape Breton Island Housing Authority","Cape Breton","Yes","Y","N","Y","N","Y","N","Cape Breton Regional Municipality","-60.25709494","46.20693267","(46.206933, -60.257095)"
"148","370601","25055724","Hillside Villa II","1700 Highway 242","River Hebert","B0L 1G0","2","10","Cobequid Housing Authority","Cumberland","No","Y","N","Y","N","Y","N","Municipality of the County of Cumberland","-64.38237762","45.68916986","(45.68917, -64.382378)"
"246","100215X","15113962","Sydney Senior Duplexes - 75 Ainsley St","75 Ainsley St","Sydney",,"1","2","Cape Breton Island Housing Authority","Cape Breton","No","Y","N","Y","N","Y","N","Cape Breton Regional Municipality","-60.1730204","46.13515057","(46.135151, -60.17302)"
"3","220501","1297126","Hillside Manor - 15","25 Orchard Terrace","Antigonish","B2G 1W4","2","15","Eastern Mainland Housing Authority","Antigonish","No","N","Y","Y","N","Y","N","Town of Antigonish","-61.99452275","45.62431512","(45.624315, -61.994523)"
"42","440303","40143034","Sarah Jane Clayton Manor","1 Lwr.Governors Road","East Preston","B2W 3Y5","2","15","Metropolitan Regional Housing Authority","Halifax","No","Y","N","N","Y","N","Y","Halifax Regional Municipality","-63.434328","44.71501592","(44.715016, -63.434328)"
"318","200208X","50128099","Forest Street","19 Forest Street","Inverness","B0E 1N0","1","20","Cape Breton Island Housing Authority","Inverness","No","Y","N","Y","N","Y","N","Municipality of the County of Inverness","-61.30158789","46.23049687","(46.230497, -61.301588)"
"51","481401","45219912","Meadowland Place  West Ha","110 Dyke Road","Falmouth","B0P 1L0","1","10","Western Regional Housing Authority","Hants","No","N","Y","Y","N","Y","N","West Hants","-64.16828775","44.99701652","(44.997017, -64.168288)"
"312","200202X","50027606","Seaview Manor","21 Reynolds Road","Port Hood","B0E 2W0","1","11","Cape Breton Island Housing Authority","Inverness","No","Y","N","Y","N","Y","N","Municipality of the County of Inverness","-61.53244328","46.01917532","(46.019175, -61.532443)"
"83","600101","30210488","Dr. Melanson Mem. Manor","116 Back Street","Weymouth","B0W 3T0","2","15","Western Regional Housing Authority","Digby","No","Y","N","N","Y","N","Y","Municipality of the District of Digby","-65.99087017","44.41511804","(44.415118, -65.99087)"
"286","150223X","15561988","316 Keltic Drive",,"Coxheath","B1R 1V7","2","15","Cape Breton Island Housing Authority","Cape Breton","No","N","Y","Y","N","Y","N","Cape Breton Regional Municipality","-60.23093027","46.11762636","(46.117626, -60.23093)"
"30","321101","65042293","C. MacCarthy Place","12 Oak Street","Pictou","B0K 1H0","2","15","Eastern Mainland Housing Authority","Pictou","Yes","N","Y","Y","N","Y","N","Town of Pictou","-62.70780822","45.68362441","(45.683624, -62.707808)"
"216","620101","90159492","Hebron Terrace","43 Highway 340","Hebron","B0W 1X0","1","15","Western Regional Housing Authority","Yarmouth","No","Y","N","N","Y","N","Y","Municipality of the District of Yarmouth","-66.08794262","43.88877428","(43.888774, -66.087943)"
"23","300501","908517","Diamond Crest III","1692 Porters Lane","Westville","B0K 2A0","2","10","Eastern Mainland Housing Authority","Pictou","No","N","Y","Y","N","Y","N","Town of Westville","-62.71944788","45.56674565","(45.566746, -62.719448)"
"245","100215X","15077258","Sydney Senior Duplexes - 61 Windsor St","61 Windsor St","Sydney",,"1","2","Cape Breton Island Housing Authority","Cape Breton","No","Y","N","Y","N","Y","N","Cape Breton Regional Municipality","-60.19885797","46.11024396","(46.110244, -60.198858)"
"239","100215X","15081037","Sydney Senior Duplexes - 127 Moxham Dr","127 Moxham Dr","Sydney",,"1","2","Cape Breton Island Housing Authority","Cape Breton","No","Y","N","Y","N","Y","N","Cape Breton Regional Municipality","-60.19907045","46.11919546","(46.119195, -60.19907)"
"272","140201X","15463912","5 Lorway Street","5 Lorway St","Louisbourg","B0A 1M0","2","10","Cape Breton Island Housing Authority","Cape Breton","No","N","Y","Y","N","Y","N","Cape Breton Regional Municipality","-59.9788826","45.91909296","(45.919093, -59.978883)"
"96","700101","60032018","Westmount Manor Bridgewat","11 Atlantic Street","Bridgewater","B4V 3B4","3","49","Western Regional Housing Authority","Lunenburg","Yes","Y","N","Y","N","Y","N","Town of Bridgewater","-64.5235853","44.36627092","(44.366271, -64.523585)"
"110","250301X","35024694","Canso/Carleton Apartments","39 Telegraph St.","Canso","B0J 1H0","1","10","Eastern Mainland Housing Authority","Guysborough","No","Y","N","Y","N","Y","N","Municipality of the District of Guysborough","-60.99408278","45.33552098","(45.335521, -60.994083)"
"71","540601","5104443","Four Winds Clementsport A","1108 West Clementsport Rd.","Clementsport","B0S 1E0","3","15","Western Regional Housing Authority","Annapolis","No","Y","N","N","Y","N","Y","Municipality of the County of Annapolis","-65.61321345","44.66464416","(44.664644, -65.613213)"
"76","580302","30227938","Hillside Apartments (lowe","51 King Street","Digby","B0V 1A0","1","15","Western Regional Housing Authority","Digby","No","Y","N","Y","N","Y","N","Town of Digby","-65.75819957","44.61607749","(44.616077, -65.7582)"
"27","310801","987396","Birch Hill III Phase 5","43 Acadia Avenue","RR1 Stellarton","BOK 1S0","2","15","Eastern Mainland Housing Authority","Pictou","Yes","N","Y","Y","N","Y","N","Town of Stellarton","-62.66688502","45.55642818","(45.556428, -62.666885)"
"7","240201","35033323","Isaac's Harbour Villa","450 Isaac's Harbour Rd","Isaac's Harbour","BOH 1SO","2","20","Eastern Mainland Housing Authority","Guysborough","No","N","Y","N","Y","N","Y","Municipality of the District of Guysborough","-61.65905606","45.17742862","(45.177429, -61.659056)"
"154","380701","25010901","Westhighland Manor","3 Anson Avenue","Amherst","B4H 4G4","2","15","Cobequid Housing Authority","Cumberland","No","Y","N","Y","N","Y","N","Town of Amherst","-64.21631028","45.82360751","(45.823608, -64.21631)"
"298","170203X","15165780","2 Devoe Street",,"Sydney Mines","B1V 3B5","2","20","Cape Breton Island Housing Authority","Cape Breton","No","Y","N","Y","N","Y","N","Cape Breton Regional Municipality","-60.23464103","46.24134212","(46.241342, -60.234641)"
"85","600501","30279467","Island's Manor","32 Overcove Rd","Freeport","B0V 1B0","2","15","Western Regional Housing Authority","Digby","No","N","Y","N","Y","N","Y","Municipality of the District of Digby","-66.32086667","44.27815472","(44.278155, -66.320867)"
"25","310301","987396","Birch Hill I Phase 3","43 Acadia Ave (108-213)","Stellarton","B0K 1S0","2","10","Eastern Mainland Housing Authority","Pictou","No","Y","N","Y","N","Y","N","Town of Stellarton","-62.66719072","45.55661332","(45.556613, -62.667191)"
"194","442801","40045049","Waverley Manor","12 Faucheau Lane","Waverley","B0N 2S0","2","15","Metropolitan Regional Housing Authority","Halifax","Yes","N","Y","Y","N","Y","N","Halifax Regional Municipality","-63.59995678","44.78526835","(44.785268, -63.599957)"
"187","440201","40450447","Island View","36 Cow Bay Road","Eastern Passage","B3G 1A1","2","35","Metropolitan Regional Housing Authority","Halifax","Yes","Y","N","Y","N","Y","N","Halifax Regional Municipality","-63.49251637","44.6125398","(44.61254, -63.492516)"
"61","530201","55202766","Highland View Manor","1061 Highland Avenue","New Minas","B4N 3J5","2","22","Western Regional Housing Authority","Kings","No","Y","N","Y","N","Y","N","Municipality of the County of Kings","-64.45498897","45.06617729","(45.066177, -64.454989)"
"305","180204X","75036913","Louisdale","430 Hwy 320","Louisdale","B0E 1V0","1","10","Cape Breton Island Housing Authority","Richmond","No","Y","N","Y","N","Y","N","Municipality of the County of Richmond","-61.07414104","45.60725851","(45.607259, -61.074141)"
"18","282301","948166","Hillside View III","227 Little Harbour Rd.","New Glasgow","B2H 3S9","3","18","Eastern Mainland Housing Authority","Pictou","Yes","N","Y","Y","N","Y","N","Town of New Glasgow","-62.63731504","45.59276525","(45.592765, -62.637315)"
"114","310201X","991414","Maple Crest II Phase 2","142 Maple Street (10)","Stellarton","B0K 1S0","1","10","Eastern Mainland Housing Authority","Pictou","No","Y","N","Y","N","Y","N","Town of Stellarton","-62.6711204","45.55456756","(45.554568, -62.67112)"
"248","100215X","15054042","Sydney Senior Duplexes - 75 Esplanade","75 Esplanade","Sydney",,"1","2","Cape Breton Island Housing Authority","Cape Breton","No","Y","N","Y","N","Y","N","Cape Breton Regional Municipality","-60.19886234","46.14303543","(46.143035, -60.198862)"
"135","340701","20168076","Sunrise Crest","621 Highway # 2","Brookfield","BON 1C0","2","15","Cobequid Housing Authority","Colchester","No","N","Y","N","Y","N","Y","Municipality of the County of Colchester","-63.27868496","45.25489518","(45.254895, -63.278685)"
"253","110201X","15403025","Marion - Dolphin/Marion",,"Glace Bay","B1A 3K8","1","4","Cape Breton Island Housing Authority","Cape Breton","No","N","Y","Y","N","Y","N","Cape Breton Regional Municipality","-59.96797409","46.18800972","(46.18801, -59.967974)"
"321","200211X","50131812","Greenacres","21 Varniers Lane","Inverness","B0E 1N0","2","15","Cape Breton Island Housing Authority","Inverness","No","N","Y","Y","N","Y","N","Municipality of the County of Inverness","-61.29971815","46.22924617","(46.229246, -61.299718)"
"249","100215X","15054042","Sydney Senior Duplexes - 77 Esplanade","77 Esplanade","Sydney",,"1","2","Cape Breton Island Housing Authority","Cape Breton","No","Y","N","Y","N","Y","N","Cape Breton Regional Municipality","-60.19879859","46.14297229","(46.142972, -60.198799)"
"105","740201","60262375","Riverside Apts. Lunenburg","28 Hwy. 208","New Germany","B0R 1E0","2","15","Western Regional Housing Authority","Lunenburg","No","N","Y","N","Y","N","Y","Municipality of the District of Lunenburg","-64.72701496","44.54471485","(44.544715, -64.727015)"
"319","200209X","50128057","Joes Lane","11 Joe's Lane","Inverness","B0E 1N0","2","15","Cape Breton Island Housing Authority","Inverness","No","N","Y","Y","N","Y","N","Municipality of the County of Inverness","-61.30057322","46.22966847","(46.229668, -61.300573)"
"122","530301X","55084669","Garden View Manor II","466 Elm Street","Kingston","B0P 1R0","1","10","Western Regional Housing Authority","Kings","No","N","Y","N","Y","N","Y","Municipality of the County of Kings","-64.95297884","44.98756494","(44.987565, -64.952979)"
"56","510303","55266423","Terrace Cottages Kentvill","55 Oakdene Avenue","Kentville","B4N 2B6","1","4","Western Regional Housing Authority","Kings","No","Y","N","Y","N","Y","N","Town of Kentville","-64.49159531","45.08359061","(45.083591, -64.491595)"
"108","760201","60155546","Oceanview Apts.","14 Young Rd., Western Shore","Lunenburg Co.","B0J 3M0","2","15","Western Regional Housing Authority","Lunenburg","No","N","Y","N","Y","N","Y","Municipality of the District of Chester","-64.31006332","44.52845201","(44.528452, -64.310063)"
"243","100215X","15080013","Sydney Senior Duplexes - 389 Alexandra St","389 Alexandra St","Sydney",,"1","2","Cape Breton Island Housing Authority","Cape Breton","No","Y","N","Y","N","Y","N","Cape Breton Regional Municipality","-60.19861934","46.11886455","(46.118865, -60.198619)"
"44","460501","45231669","72 Tremain Cr. Windsor","72 Tremain Cr.","Windsor","B0N 2T0","2","15","Western Regional Housing Authority","Hants","No","N","Y","Y","N","Y","N","Town of Windsor","-64.12737921","44.98124457","(44.981245, -64.127379)"
"50","481201","45230919","Kendall Court West  Hants","73 Kendall Lane","Windsor","BON 2T0","1","20","Western Regional Housing Authority","Hants","No","N","Y","Y","N","Y","N","West Hants","-64.12868638","44.9753669","(44.975367, -64.128686)"
"147","370401","25338906","Fundy Manor","169 Highway 242","Joggins","B0L 1A0","1","15","Cobequid Housing Authority","Cumberland","No","N","Y","N","Y","Y","N","Municipality of the County of Cumberland","-64.4351515","45.68712934","(45.687129, -64.435151)"
"41","431101","155796","Gordon B. Isnor Manor","5565 Cornwallis Street","Halifax","B3K 5K9","15","217","Metropolitan Regional Housing Authority","Halifax","Yes","Y","N","Y","N","Y","N","Halifax Regional Municipality","-63.58544312","44.65184681","(44.651847, -63.585443)"
"36","330801","895060","Vale Mountain View","179 New Mountain Road","Thorburn","B0K 1W0","2","15","Eastern Mainland Housing Authority","Pictou","No","Y","N","N","Y","Y","N","Municipality of the County of Pictou","-62.55525097","45.56550871","(45.565509, -62.555251)"
"78","580601","30228092","Evangeline Manor","87 St. Mary's Street","Digby","B0V 1A0","2","15","Western Regional Housing Authority","Digby","No","Y","N","Y","N","Y","N","Town of Digby","-65.76249868","44.61437459","(44.614375, -65.762499)"
"228","100205X","15036163","Mapleridge","30 Maple Ridge Dr","Sydney","B1S 3B5","2","60","Cape Breton Island Housing Authority","Cape Breton","Yes","N","Y","Y","N","Y","N","Cape Breton Regional Municipality","-60.20138823","46.11649519","(46.116495, -60.201388)"
"159","390501","25230863","Hill Top Manor","22 Junction Road","Springhill","B0M 1X0","2","20","Cobequid Housing Authority","Cumberland","Yes","Y","N","Y","N","Y","N","Municipality of the County of Cumberland","-64.05858506","45.65302101","(45.653021, -64.058585)"
"16","281801","936831","Woodbine Crest III","364 Frederick St.","New Glasgow","B2H 3N8","2","15","Eastern Mainland Housing Authority","Pictou","No","Y","N","Y","N","Y","N","Town of New Glasgow","-62.64151712","45.58166275","(45.581663, -62.641517)"
"74","580201","30230601","Basinview Apartments","138 King Street","Digby","B0V 1A0","2","19","Western Regional Housing Authority","Digby","No","Y","N","Y","N","Y","N","Town of Digby","-65.7597985","44.62299344","(44.622993, -65.759798)"
"138","341201","20221347","The Meadows","1089 Plains Road","Debert","B0M 1G0","2","15","Cobequid Housing Authority","Colchester","No","Y","N","N","Y","N","Y","Municipality of the County of Colchester","-63.46629395","45.4382969","(45.438297, -63.466294)"
"265","120206X","15492184","Curran Street S/C","245 Curran Street","New Waterford","B1H2Z9","2","40","Cape Breton Island Housing Authority","Cape Breton","Yes","N","Y","Y","N","Y","N","Cape Breton Regional Municipality","-60.09313273","46.25650079","(46.256501, -60.093133)"
"262","120203X","15467152","Thompson Street S/C","557 Thompson Street","New Waterford","B1H 4C2","1","20","Cape Breton Island Housing Authority","Cape Breton","No","Y","N","Y","N","Y","N","Cape Breton Regional Municipality","-60.08205633","46.24390838","(46.243908, -60.082056)"
"84","600201","30141378","Riverside Manor","1126 River Road","Bear River","B0S 1B0","2","15","Western Regional Housing Authority","Digby","No","Y","N","N","Y","N","Y","Municipality of the District of Digby","-65.64265969","44.57989461","(44.579895, -65.64266)"
"99","700801","60032364","Pineview Apts. Bridgewate","59 Exhibition Drive","Bridgewater","B4V 3T8","2","30","Western Regional Housing Authority","Lunenburg","Yes","N","Y","Y","N","Y","N","Town of Bridgewater","-64.52131766","44.36918646","(44.369186, -64.521318)"
"294","160204X","15019995","3 Beacon Crescent",,"North Sydney","B2A 3R3","2","25","Cape Breton Island Housing Authority","Cape Breton","Yes","N","Y","Y","N","Y","N","Cape Breton Regional Municipality","-60.25780864","46.20720967","(46.20721, -60.257809)"
"203","447901","40615601","Eleanor Hubley Villa","9 Eleanor Lane","Stillwater Lake","B3Z 1H3","1","10","Metropolitan Regional Housing Authority","Halifax","No","N","Y","N","Y","N","Y","Halifax Regional Municipality","-63.85592164","44.702465","(44.702465, -63.855922)"
"53","510101","55339766","Hilltop Manor","55 Oakdene Avenue","Kentville","B4N 2B6","2","20","Western Regional Housing Authority","Kings","No","Y","N","Y","N","Y","N","Town of Kentville","-64.49067168","45.08352736","(45.083527, -64.490672)"
"4","221401","1228733","Antigonish Manor","138 College Street","Antigonish","B2G 1Y1","2","25","Eastern Mainland Housing Authority","Antigonish","Yes","Y","N","Y","N","Y","N","Town of Antigonish","-61.99230574","45.62544701","(45.625447, -61.992306)"
"156","382201","25008582","Shiretown Manor","2 Acadia Street","Amherst","B4H 3L5","2","15","Cobequid Housing Authority","Cumberland","No","Y","N","Y","N","Y","N","Town of Amherst","-64.21013789","45.83574857","(45.835749, -64.210138)"
"89","660101","80051477","BayVista apts.","3474 Highway #3","Barrington Passage","B0W 1G0","2","40","Western Regional Housing Authority","Shelburne","Yes","Y","N","N","Y","N","Y","Municipality of the District of Barrington","-65.60877715","43.53011275","(43.530113, -65.608777)"
"170","420602","67520","Crathorne II, 14 Jamieson","14 Jamieson Street","Dartmouth","B3A 3B7","2","6","Metropolitan Regional Housing Authority","Halifax","No","Y","N","Y","N","Y","N","Halifax Regional Municipality","-63.58550518","44.67065034","(44.67065, -63.585505)"
"180","431701","40182859","Richmond Manor","5594 Northridge Road","Halifax","B3K 4B1","3","30","Metropolitan Regional Housing Authority","Halifax","Yes","Y","N","Y","N","Y","N","Halifax Regional Municipality","-63.61595481","44.6715104","(44.67151, -63.615955)"
"164","400701","25219593","Mountain View Manor V","135 Smith Avenue","Parrsboro","B0M 1S0","2","16","Cobequid Housing Authority","Cumberland","Yes(2)","N","Y","Y","N","Y","N","Town of Parrsboro","-64.33074245","45.40641992","(45.40642, -64.330742)"
"215","613001","90218181","Mountain Veiw Manor","109 Parade Street","Yarmouth","B5A 3B6","2","17","Western Regional Housing Authority","Yarmouth","Yes","Y","N","Y","N","Y","N","Town of Yarmouth","-66.10118178","43.83586249","(43.835862, -66.101182)"
"315","200205X","50043926","Oak Point","31 Birch Street","Mabou","B0E 1X0","1","10","Cape Breton Island Housing Authority","Inverness","No","N","Y","Y","N","Y","N","Municipality of the County of Inverness","-61.39907416","46.07401345","(46.074013, -61.399074)"
"306","180205X","75104273","River Bourgeois","8652 Highway 4","River Bourgeios","B0E 2X0","2","10","Cape Breton Island Housing Authority","Richmond","No","N","Y","N","Y","N","Y","Municipality of the County of Richmond","-60.93820732","45.63606769","(45.636068, -60.938207)"
"79","590101","30035133","Foyer Acadien","1722 Highway 1","Church Point","B0W 1M0","2","20","Western Regional Housing Authority","Digby","Yes","Y","N","N","Y","N","Y","Municipality of the District of Clare","-66.11482318","44.33376074","(44.333761, -66.114823)"
"183","432301","40345225","Acadia Square Lodge-North","3450 Devonshire Avenue","Halifax","B3K 5R5","3","30","Metropolitan Regional Housing Authority","Halifax","Yes","N","Y","Y","N","Y","N","Halifax Regional Municipality","-63.60446931","44.66707332","(44.667073, -63.604469)"
"252","110201X","15393606","Dolphin - Dolphin/Marion",,"Glace Bay","B1A 3K8","1","10","Cape Breton Island Housing Authority","Cape Breton","No","N","Y","Y","N","Y","N","Cape Breton Regional Municipality","-59.95526029","46.19928286","(46.199283, -59.95526)"
"40","430601","148809","Sunrise Manor (HC)","2406 Gottingen Street","Halifax","B3K 3C1","10","165","Metro Regional Housing Authority","Halifax","Yes(2)","Y","N","Y","N","Y","N","Halifax Regional Municipality","-63.58867731","44.6553671","(44.655367, -63.588677)"
"250","100215X","15057417","Sydney Senior Duplexes - 7 Harrington Pl","7 Harrington Pl","Sydney",,"1","2","Cape Breton Island Housing Authority","Cape Breton","No","Y","N","Y","N","Y","N","Cape Breton Regional Municipality","-60.19411599","46.14376257","(46.143763, -60.194116)"
"220","630201","90087024","Apartment Nova","56 Gavel Road","Tusket","B0W 3M0","2","15","Western Regional Housing Authority","Yarmouth","Yes","Y","N","N","Y","N","Y","Municipality of the District of Argyle","-65.97355384","43.85778982","(43.85779, -65.973554)"
"242","100215X","15080013","Sydney Senior Duplexes - 391 Alexandra St","391 Alexandra St","Sydney",,"1","2","Cape Breton Island Housing Authority","Cape Breton","No","Y","N","Y","N","Y","N","Cape Breton Regional Municipality","-60.19857056","46.11893598","(46.118936, -60.198571)"
"20","290101","65016982","Hillcrest Manor","17 Forge St.","Trenton","B0K 1X0","2","20","Eastern Mainland Housing Authority","Pictou","No","N","Y","Y","N","Y","N","Town of Trenton","-62.63729646","45.61045369","(45.610454, -62.637296)"
"185","432601","40646267","Macdonald Laurier Place","3 Ford Street","Halifax","B3M 4P8","4","55","Metropolitan Regional Housing Authority","Halifax","Yes","Y","N","Y","N","Y","N","Halifax Regional Municipality","-63.63217749","44.66077728","(44.660777, -63.632177)"
"132","610801X","90214438","Roderick MacNeil Seniors (2 buildings)","11/35 MacNeil St","Yarmouth","B5A 4C7","1","30","Western Regional Housing Authority","Yarmouth","No","N","Y","Y","N","N","Y","Town of Yarmouth","-66.11312503","43.82624441","(43.826244, -66.113125)"
"235","100212X","15095599","Cottage Place ll","491 Cottage Rd","Sydney","B1P 6R4","2","24","Cape Breton Island Housing Authority","Cape Breton","Yes","N","Y","Y","N","Y","N","Cape Breton Regional Municipality","-60.16724348","46.1277978","(46.127798, -60.167243)"
"241","100215X","15113954","Sydney Senior Duplexes - 307 Cartier St","307 Cartier St","Sydney",,"1","2","Cape Breton Island Housing Authority","Cape Breton","No","Y","N","Y","N","Y","N","Cape Breton Regional Municipality","-60.17271863","46.13516534","(46.135165, -60.172719)"
"8","240501","35081538","Little Dover Senior Citiz","861 Dover Road","Little Dover","B0H 1V0","1","5","Eastern Mainland Housing Authority","Guysborough","No","N","Y","N","Y","Y","N","Municipality of the District of Guysborough","-61.05291994","45.29421177","(45.294212, -61.05292)"
"325","200215X","50094473","Pere Goirroir Avenue","21 Pere Goirroir Avenue","Cheticamp","B0E 1H0","2","56","Cape Breton Island Housing Authority","Inverness","Yes","Y","N","N","Y","Y","N","Municipality of the County of Inverness","-61.01949153","46.61838783","(46.618388, -61.019492)"
"38","331401","964924","Rose Heath Manor","8240 Pictou Landing Rd","RR1 New Glasgow","B2H 5C4","2","15","Eastern Mainland Housing Authority","Pictou","No","N","Y","N","Y","N","Y","Municipality of the County of Pictou","-62.55727699","45.64538614","(45.645386, -62.557277)"
"192","440801","40021453","Hubbards Manor","1 Fox Point Lane","Hubbards","B0J 1T0","2","10","Metropolitan Regional Housing Authority","Lunenburg","No","Y","N","N","Y","N","Y","Halifax Regional Municipality","-64.06507187","44.63704564","(44.637046, -64.065072)"
"281","150212X","15223290","Silver Birch Manor","130 Reeves St","Grand Lake Road","B1P 6N2","2","60","Cape Breton Island Housing Authority","Cape Breton","Yes","N","Y","Y","N","Y","N","Cape Breton Regional Municipality","-60.15817772","46.14073319","(46.140733, -60.158178)"
"82","590701","30102289","Foyer Sigogne","4872 Trunk#1","Salmon River","B0W 2Y0","1","15","Western Regional Housing Authority","Digby","No","N","Y","N","Y","N","Y","Municipality of the District of Clare","-66.16008649","44.05004314","(44.050043, -66.160086)"
"146","370301","25055724","Hillside Villa I","1700 Highway 242","River Hebert","B0L 1G0","1","20","Cobequid Housing Authority","Cumberland","No","Y","N","N","Y","N","Y","Municipality of the County of Cumberland","-64.38216896","45.68951892","(45.689519, -64.382169)"
"111","270101X","37501343","Sherbrook/Maple Manor","Maple Manor Complex (1-20)","Sherbrooke","B0J 3C0","1","20","Eastern Mainland Housing Authority","Guysborough","No","Y","N","Y","N","Y","N","Municipality of the District of Saint Marys","-61.97745358","45.14580956","(45.14581, -61.977454)"
"202","447301","40519530","Sackville Manor","51 Old Beaverbank Road","Lower Sackville","B4E 1V4","2","19","Metropolitan Regional Housing Authority","Halifax","Yes","N","Y","Y","N","Y","N","Halifax Regional Municipality","-63.68961703","44.77286406","(44.772864, -63.689617)"
"191","440701","40004277","Mcdougall Manor","20 Mcdougall Avenue","Lower Sackville","B4C 3E7","1","20","Metropolitan Regional Housing Authority","Halifax","No","N","Y","Y","N","Y","N","Halifax Regional Municipality","-63.67671327","44.77113743","(44.771137, -63.676713)"
"269","130201X","15376619","Mitchell Ave","268 Mitchell Ave","Dominion","B0A 1E0","1","10","Cape Breton Island Housing Authority","Cape Breton","No","N","Y","Y","N","Y","N","Cape Breton Regional Municipality","-60.02402902","46.20390753","(46.203908, -60.024029)"
"157","382601","25000498","Centennial Manor","81 West Victoria St.","Amherst","B4H 1C7","3","14","Cobequid Housing Authority","Cumberland","Yes","N","Y","Y","N","Y","N","Town of Amherst","-64.21941601","45.82555595","(45.825556, -64.219416)"
"255","110203X","15252323","Kennedy Dr","2 Kennedy Dr","Glace Bay","B1A 5S1","2","48","Cape Breton Island Housing Authority","Cape Breton","Yes","N","Y","Y","N","Y","N","Cape Breton Regional Municipality","-59.97003487","46.18981591","(46.189816, -59.970035)"
"266","120207X","15477102","Hillside Terrace","747 King Street","New Waterford","B1H4S9","2","24","Cape Breton Island Housing Authority","Cape Breton","No","Y","N","Y","N","Y","N","Cape Breton Regional Municipality","-60.08713643","46.23992372","(46.239924, -60.087136)"
"186","440101","40210452","Elmhurst Apartments","14 Elmhurst Drive","Sheet Harbour","B0J 3B0","2","30","Metropolitan Regional Housing Authority","Halifax","Yes","N","Y","N","Y","N","Y","Halifax Regional Municipality","-62.54283731","44.92642655","(44.926427, -62.542837)"
"322","200212X","50178086","Wynn Mira","98 Hillcrest Street","Inverness","B0E 1N0","2","15","Cape Breton Island Housing Authority","Inverness","Yes","N","Y","Y","N","Y","N","Municipality of the County of Inverness","-61.29768964","46.22966992","(46.22967, -61.29769)"
"131","570101X","5031166","Sunset Meadows Middleton",,"Middleton","B0S 1P0","1","40","Western Regional Housing Authority","Annapolis","No","Y","N","Y","N","Y","N","Town of Middleton","-65.07237592","44.95156013","(44.95156, -65.072376)"
"176","431201","40176265","Westmoor Lodge","6841 Cook Avenue","Halifax","B30 2J9","2","30","Metropolitan Regional Housing Authority","Halifax","No","Y","N","Y","N","Y","N","Halifax Regional Municipality","-63.61829602","44.6510272","(44.651027, -63.618296)"
"296","170201X","15175292","Main Street","Fix","Sydney Mines","B1V 2K4","1","11","Cape Breton Island Housing Authority","Cape Breton","No","N","Y","Y","N","Y","N","Cape Breton Regional Municipality","-60.22527255","46.24031806","(46.240318, -60.225273)"
"334","370101X","25155649","Harbourview Manor","19 Harbourview Manor","Pugwash","B0K 1L0","1","20","Cobequid Housing Authority","Cumberland","No","Y","N","N","Y","N","Y","Municipality of the County of Cumberland","-63.66300279","45.85474597","(45.854746, -63.663003)"
"6","240101","35049444","Ferry Lane","56 Ferry Lane","Guysborough","BOH 1NO","2","20","Eastern Mainland Housing Authority","Guysborough","Yes","N","Y","N","Y","N","Y","Municipality of the District of Guysborough","-61.50427328","45.40108997","(45.40109, -61.504273)"
"195","442901","40196495","Timberlea Manor","1746 Bay Road","Timberlea","B3T 1M8","2","15","Metropolitan Regional Housing Authority","Halifax","Yes","Y","N","Y","N","Y","N","Halifax Regional Municipality","-63.70943446","44.64352734","(44.643527, -63.709434)"
"259","110207X","15393432","Sterling Rd","46 Sterling Rd","Glace Bay","B1A 3X5","2","31","Cape Breton Island Housing Authority","Cape Breton","Yes","N","Y","Y","N","Y","N","Cape Breton Regional Municipality","-59.9554484","46.20456236","(46.204562, -59.955448)"
"102","720101","60376290","Cherry Lane Lodge Mahone","33 Cherry Lane","Mahone Bay","B0J 2E0","2","10","Western Regional Housing Authority","Lunenburg","No","Y","N","Y","N","Y","N","Town of Mahone Bay","-64.38398459","44.45042291","(44.450423, -64.383985)"
"238","100215X","15081037","Sydney Senior Duplexes - 125 Moxham Dr","125 Moxham Dr","Sydney",,"1","2","Cape Breton Island Housing Authority","Cape Breton","No","Y","N","Y","N","Y","N","Cape Breton Regional Municipality","-60.19916851","46.1192496","(46.11925, -60.199169)"
"107","760101","60120961","Charing Cross Manor","34 Forties Rd.","New Ross","BOJ 2M0","1","10","Western Regional Housing Authority","Lunenburg","No","N","Y","N","Y","N","Y","Municipality of the District of Chester","-64.45941205","44.73697092","(44.736971, -64.459412)"
"64","531301","55023949","Orchard View Manor Kings","1054 Main Street","Port Williams","BOP 1TO","3","15","Western Regional Housing Authority","Kings","Yes","Y","N","Y","N","Y","N","Municipality of the County of Kings","-64.41050165","45.09925234","(45.099252, -64.410502)"
"268","120209X","15477102","MacLeod Court","3331 MacLeod Street","New Waterford","B1H 4S9","2","15","Cape Breton Island Housing Authority","Cape Breton","Yes","N","Y","Y","N","Y","N","Cape Breton Regional Municipality","-60.08779233","46.23987183","(46.239872, -60.087792)"
"37","330901","863985","Glen Brae Villa","807 Marshdale Rd.","Hopewell","BOK ICO","2","10","Eastern Mainland Housing Authority","Pictou","No","Y","N","N","Y","N","Y","Municipality of the County of Pictou","-62.70724976","45.47940585","(45.479406, -62.70725)"
"291","160201X","15020878","40 Forman Street",,"North Sydney","B2A 2L9","2","16","Cape Breton Island Housing Authority","Cape Breton","No","Y","N","Y","N","Y","N","Cape Breton Regional Municipality","-60.25860824","46.2082721","(46.208272, -60.258608)"
"94","690101","70151113","Lakeview Apartments Queen","15 Caledonia","Caledonia","B0T 1B0","2","15","Western Regional Housing Authority","Queens","No","Y","N","Y","N","N","Y","Region of Queens Municipality","-65.03159722","44.3722116","(44.372212, -65.031597)"
"327","210202X","85005445","4398 Highway 223","Seallooh Breagh","Iona","B0A 1L0","2","15","Cape Breton Island Housing Authority","Victoria","No","Y","N","N","Y","N","Y","Municipality of the County of Victoria","-60.8081904","45.95868568","(45.958686, -60.80819)"
"234","100211X","15095599","Cottage Place I","487 Cottage Rd","Sydney","B1P 6R4","2","15","Cape Breton Island Housing Authority","Cape Breton","No","N","Y","Y","N","Y","N","Cape Breton Regional Municipality","-60.16754634","46.12790583","(46.127906, -60.167546)"
"288","150225X","15534647","21 Mapleview Drive",,"North Sydney","B2A 3K4","2","25","Cape Breton Island Housing Authority","Cape Breton","Yes","Y","N","Y","N","Y","N","Cape Breton Regional Municipality","-60.25519895","46.22685881","(46.226859, -60.255199)"
"181","431901","274258","Cowie Hill Lodge","166 Cowie Hill Road","Halifax","B3P 2N8","4","43","Metropolitan Regional Housing Authority","Halifax","Yes","Y","N","Y","N","Y","N","Halifax Regional Municipality","-63.6212221","44.63151792","(44.631518, -63.621222)"
"258","110206X","15395718","Sterling Villa l&ll","55 Minto St","Glace Bay","B1A 6E4","2","55","Cape Breton Island Housing Authority","Cape Breton","Yes","Y","N","Y","N","Y","N","Cape Breton Regional Municipality","-59.95685256","46.20006902","(46.200069, -59.956853)"
"161","390701","25258765","Four Winds","16 Herrett Road","Springhill","B0M 1X0","2","15","Cobequid Housing Authority","Cumberland","No","Y","N","Y","N","Y","N","Municipality of the County of Cumberland","-64.06574548","45.64226538","(45.642265, -64.065745)"
"39","331501","65039760","Haven Brook Manor","6127 Trafalgar Rd","RR1 Stellarton","BOK 1SO","1","20","Eastern Mainland Housing Authority","Pictou","No","N","Y","Y","N","Y","N","Municipality of the County of Pictou","-62.66717677","45.54011293","(45.540113, -62.667177)"
"151","380301","25006024","Havelock Terrace","64 Havelock Street","Amherst","B4H 3K4","3","30","Cobequid Housing Authority","Cumberland","Yes","Y","N","Y","N","Y","N","Town of Amherst","-64.20612942","45.83268531","(45.832685, -64.206129)"
"86","621001","90235755","754 & 756 Greenville","Greenville Road","Yarmouth County","B5A 4A6","1","2","Western Regional Housing Authority","Yarmouth","No","N","Y","N","Y","N","Y","Municipality of the District of Yarmouth","-66.05042853","43.86251969","(43.86252, -66.050429)"
"177","431301","102640","H.P. Mackeen Manor","1186 Queen Street","Halifax","B3H 4K9","10","134","Metropolitan Regional Housing Authority","Halifax","Yes(2)","Y","N","Y","N","Y","N","Halifax Regional Municipality","-63.57422304","44.63879114","(44.638791, -63.574223)"
"91","680301","70024625","Union Place Queens","116 Union Street","Liverpool","B0T 1K0","1","12","Western Regional Housing Authority","Queens","No","Y","N","Y","N","Y","N","Region of Queens Municipality","-64.71885047","44.03524554","(44.035246, -64.71885)"
"300","170205X","15495203","201 Crescent Street",,"Sydney Mines","B1V 3E1","2","20","Cape Breton Island Housing Authority","Cape Breton","Yes","Y","N","Y","N","Y","N","Cape Breton Regional Municipality","-60.21864219","46.24092564","(46.240926, -60.218642)"
"231","100208X","15123243","Sunrise Court","26 Tillock Dr","Sydney","B1P 6R1","2","22","Cape Breton Island Housing Authority","Cape Breton","No","Y","N","Y","N","Y","N","Cape Breton Regional Municipality","-60.16182981","46.13868979","(46.13869, -60.16183)"
"178","431401","1446","Sir John Thompson Manor","7001 Leppert Street","Halifax","B3L 4R4","4","168","Metropolitan Regional Housing Authority","Halifax","Yes","Y","N","Y","N","Y","N","Halifax Regional Municipality","-63.6174713","44.64623142","(44.646231, -63.617471)"
"88","650201","80068950","Oceanview Sr. Apartments","28 Manford Street","Clarkes Harbour","B0W 1P0","1","10","Western Regional Housing Authority","Shelburne","No","Y","N","N","Y","N","Y","Town of Clark's Harbour","-65.6456813","43.44707775","(43.447078, -65.645681)"
"35","330701","65032484","Seabreeze Manor","6026 Pictou Landing Rd","Trenton","B0K 1X0","2","10","Eastern Mainland Housing Authority","Pictou","No","Y","N","N","Y","N","Y","Municipality of the County of Pictou","-62.67524465","45.67362096","(45.673621, -62.675245)"
"60","520301","55276844","Woodland Apartments Wolfv","28 Woodland Drive","Wolfville","BOP 1XO","3","20","Western Regional Housing Authority","Kings","Yes","Y","N","Y","N","Y","N","Town of Wolfville","-64.34928249","45.08974941","(45.089749, -64.349282)"
"87","640201","80141575","Northwood Apts","232 Mowatt St","Shelburne","B0T 1W0","2","30","Western Regional Housing Authority","Shelburne","Yes","Y","N","Y","N","Y","N","Town of Shelburne","-65.32561137","43.76974706","(43.769747, -65.325611)"
"217","620201","90154188","Green Cove Manor","3093 Highway 1","Port Maitland","B5A 4A5","2","15","Western Regional Housing Authority","Yarmouth","No","Y","N","N","Y","N","Y","Municipality of the District of Yarmouth","-66.14679522","43.9772523","(43.977252, -66.146795)"
