Facility Name,Address,County,City,Zip,Phone,Fax,Facility ID,Operator,Certificate Number,Number of Beds,Assisted Living Program Beds,Assisted Living Residence (ALR) Beds,Enhanced ALR Beds,Special Needs ALR Beds,Type,Classification,Regional Office,Location
Ashton Place,190 Ashton Court,Ontario,Clifton Springs,14432,3154623140,3154625770,14916,"Clifton Park Associates, LLC",530-S-005,60,,,,,Enriched Housing Program,LLC,Western Regional Office - Buffalo,
Valehaven Home for Adults,"2989 North Main Street, Box 683",Clinton,Peru,12972,5186432740,5186430923,14661,James E. Kane Sr. James E. Kane Jr.,090-F-003,40,39,,,,Adult Home,Individual,Capital District Regional Office,
Dominican Village Enriched Housing Program 1,565-567 Albany Avenue,Suffolk,Amityville,11701,6318426091,6318426131,15070,Dominican Village EHP,700-S-287,66,,66,66,,Enriched Housing Program,Not for Profit Corporation,Metropolitan Area Regional Office - Long Island,
Keepsake Village at Greenpoint,138 Old Liverpool Road,Onondaga,Liverpool,13088,3154514567,3154531026,14890,"Greenpoint Special Needs, Inc.",520-F-143,57,,57,10,57,Adult Home,Business Corporation,Central New York Regional Office,"138 Old Liverpool Road
Liverpool, NY 13088
(43.08298, -76.18158)"
Sunrise at Sheepshead Bay,2211 Emmons Avenue,Kings,Brooklyn,11235,7186161850,7186161841,14757,"GWC-Sheepshead Bay, Inc.",331-S-012,189,,189,189,41,Enriched Housing Program,Business Corporation,Metropolitan Area Regional Office - New York City,"2211 Emmons Avenue
Brooklyn, NY 11235
(40.583788, -73.945741)"
The 80th Street Residence,430 East 80th Street,New York,New York,10075,2127178888,2125853544,14852,"Upper East Side Senior Residence, LLC",420-F-379,70,,70,70,70,Adult Home,LLC,Metropolitan Area Regional Office - New York City,"430 East 80th Street
New York, NY 10075
(40.772336, -73.950568)"
Islip Pearl Garden,36 Locust Avenue,Suffolk,Islip,11751,6318593228,6312771081,15045,Islip Pearl Garden LLC,700-F-963,26,,,,,Adult Home,LLC,Metropolitan Area Regional Office - Long Island,"36 Locust Avenue
Islip, NY 11751
(40.730446, -73.212945)"
The New Golden Acres SP LLC,11 Prospect Street,Rockland,Spring Valley,10977,8453562440,8453564158,14989,The New Golden Acres SP LLC,620-F-091,79,79,,,,Adult Home,LLC,Metropolitan Area Regional Office - New York City,"11 Prospect Street
Spring Valley, NY 10977
(41.119827, -74.039409)"
Alice Hyde Assisted Living Program,45 Sixth Street,Franklin,Malone,12953,5184818401,5184818403,14723,Alice Hyde Medical Center,270-E-007,30,30,,,,Adult Home,Not for Profit Corporation,Capital District Regional Office,"45 Sixth Street
Malone, NY 12953
(44.861149, -74.28875)"
Eden Heights of West Seneca,3030 Clinton Street,Erie,West Seneca,14224,7168224466,7168225107,14687,"Eden Management of West Seneca, Inc.",240-F-848,120,,,,,Adult Home,Business Corporation,Western Regional Office - Buffalo,"3030 Clinton Street
West Seneca, NY 14224
(42.861862, -78.767163)"
Westwood Commons Adult Home,50 Union Square Boulevard,Monroe,North Chili,14514,5852932060,5852932183,14765,"DePaul Adult Care Communities, Inc.",370-E-196,120,,,,,Adult Home,Not for Profit Corporation,Western Regional Office - Buffalo,"50 Union Square Boulevard
North Chili, NY 14514
(43.112632, -77.809366)"
The Terrace at The Eddy Memorial,2256 Burdett Avenue,Rensselaer,Troy,12180,5182749890,5182745407,14968,"The James A. Eddy Memorial Geriatric Center, Inc.",600-S-001,69,,,,,Enriched Housing Program,Not for Profit Corporation,Capital District Regional Office,"2256 Burdett Avenue
Troy, NY 12180
(42.735162, -73.670931)"
Assisted Living at Northern Riverview,89 South Route 9W,Rockland,Haverstraw,10927,8454294300,8454296267,14979,"Assisted Living At Northern Riverview, Inc.",620-E-019,105,100,23,,18,Adult Home,Not for Profit Corporation,Metropolitan Area Regional Office - New York City,"89 South Route 9W
Haverstraw, NY 10927
(41.202123, -73.983721)"
Esplanade of Woodmere,130 Irving Place,Nassau,Woodmere,11598,5166651645,5168940800,15247,Woodmere Operating Company LLC,400-F-345,70,,70,70,70,Adult Home,LLC,Metropolitan Area Regional Office - Long Island,"130 Irving Place
Woodmere, NY 11598
(40.63256, -73.709734)"
Hilltop Manor West,286 Deyo Hill Road,Broome,Johnson City,13790,6077987818,6077989382,14625,UMH NY Corp.,030-E-008,98,26,72,72,36,Adult Home,Not for Profit Corporation,Central New York Regional Office,"286 Deyo Hill Road
Johnson City, NY 13790
(42.144802, -75.959459)"
The Pavilion at Pine Valley,661 North Main Street,Rockland,Spring Valley,10977,8454265600,8453562781,14991,"Tppv, Llc",620-F-095,56,56,,,,Adult Home,LLC,Metropolitan Area Regional Office - New York City,"661 North Main Street
Spring Valley, NY 10977
(41.135606, -74.037494)"
"Valley Residential Services, Inc.",161 Valley Drive,Herkimer,Herkimer,13350,3152195700,3158660016,14734,"Valley Health Services, Inc.",320-S-001,76,36,,,,Enriched Housing Program,Not for Profit Corporation,Central New York Regional Office,
The Bristal at Jericho,310 Jericho Turnpike,Nassau,Jericho,11753,5162198688,5168027160,14848,"Engel Burman Senior Care at Jericho, LLC",400-S-332,200,,200,60,45,Enriched Housing Program,LLC,Metropolitan Area Regional Office - Long Island,"310 Jericho Turnpike
Jericho, NY 11753
(40.790841, -73.541809)"
Amber Court of Brooklyn,650 East 104th Street,Kings,Brooklyn,11236,7186490700,7186494441,14749,"Amber Court of Brooklyn, LLC",331-F-284,224,125,,,,Adult Home,LLC,Metropolitan Area Regional Office - New York City,"650 East 104th Street
Brooklyn, NY 11236
(40.64913, -73.897731)"
The New Swan Lake Adult Home LLC,Route 55,Sullivan,Swan Lake,12783,8452926298,8452926298,15081,The New Swan Lake Adult Home LLC,710-F-058,27,,,,,Adult Home,LLC,Metropolitan Area Regional Office - New York City,
Sunrise of West Babylon,580 Montauk Highway,Suffolk,West Babylon,11704,6314228500,6314228700,15053,"GWC - West Babylon, Inc.",700-F-924,110,,110,110,28,Adult Home,Business Corporation,Metropolitan Area Regional Office - Long Island,"580 Montauk Highway
West Babylon, NY 11704
(40.68729, -73.341924)"
St. Vincent de Paul Assisted Living Program,900 Interval Avenue,Bronx,Bronx,10459,9176459200,9176459214,14613,St. Vincent De Paul Residence,020-E-133,59,59,,,,Adult Home,Not for Profit Corporation,Metropolitan Area Regional Office - New York City,
"Good Shepherd- Fairview Home, Inc.",80 Fairview Avenue,Broome,Binghamton,13904,6077242477,6077240957,14624,"Good Shepherd-Fairview Home, Inc.",030-E-005,67,32,35,35,,Adult Home,Not for Profit Corporation,Central New York Regional Office,"80 Fairview Avenue
Binghamton, NY 13904
(42.110521, -75.876711)"
Greece Long Pond Senior Housing,1 GBC Parkway,Monroe,Rochester,14626,5852273007,5852271307,14801,"Family Service Of Rochester, Inc.",370-S-857,30,,,,,Enriched Housing Program,Not for Profit Corporation,Western Regional Office - Buffalo,"1 GBC Parkway
Rochester, NY 14626
(43.214329, -77.693699)"
Hampshire House Adult Home,1846 County Highway 48,Otsego,Oneonta,13820,6074326171,6074325045,14935,Hampshire House Operating Corporation,570-F-048,65,,,,,Adult Home,Business Corporation,Capital District Regional Office,"1846 County Highway 48
Oneonta, NY 13820
(42.439834, -75.081814)"
The Landing of Brighton,1350 Westfall Road,Monroe,Rochester,14618,5852711925,5852420744,14791,"Brighton Senior Care, LLC",370-S-197,121,,121,44,34,Enriched Housing Program,LLC,Western Regional Office - Buffalo,"1350 Westfall Road
Rochester, NY 14618
(43.115675, -77.582612)"
Ideal Senior Living Center,600 High Avenue,Broome,Endicott,13760,6077867300,6077867496,14626,Ideal Senior Living Housing Corporation,030-E-039,70,35,,,,Adult Home,Not for Profit Corporation,Central New York Regional Office,"600 High Avenue
Endicott, NY 13760
(42.091479, -76.067753)"
Brentland Woods,3831 East Henrietta Road,Monroe,Henrietta,14467,5853211490,5853213289,14794,"CH Services, Inc.",370-S-838,60,,,,,Enriched Housing Program,Not for Profit Corporation,Western Regional Office - Buffalo,"3831 East Henrietta Road
Henrietta, NY 14467
(43.044825, -77.62021)"
"Carlucci Homes, Inc.",516 Mullock Road,Orange,Port Jervis,12771,9144436835,8453557700,14922,"Carlucci Homes, Inc.",540-F-034,23,,23,19,,Adult Home,Business Corporation,Metropolitan Area Regional Office - New York City,"516 Mullock Road
Port Jervis, NY 12771
(41.401537, -74.56693)"
Sunrise of Dix Hills,337 Deer Park Avenue,Suffolk,Dix Hills,11746,6313851733,6313851754,15052,"GWC - Dix Hills, Inc.",700-F-923,114,,114,114,34,Adult Home,Business Corporation,Metropolitan Area Regional Office - Long Island,"337 Deer Park Avenue
Dix Hills, NY 11746
(40.816106, -73.342608)"
Alma Rangel Gardens NY Foundation EHP#7,55 West 137th Street,New York,New York,10037,9175071108,9175071560,14859,"New York Foundation for Senior Citizens, Inc.",420-S-381,47,,,,,Enriched Housing Program,Not for Profit Corporation,Metropolitan Area Regional Office - New York City,
Seneca Lake Terrace Assisted Living Center,3670 Pre-emption Road County Rd. #6,Ontario,Geneva,14456,3157894162,3157811494,14913,"Seneca Lake Terrace Operating, LLC",530-F-059,66,,66,,12,Adult Home,LLC,Western Regional Office - Buffalo,
Heritage Manor of Lockport,41 Lexington Court,Niagara,Lockport,14094,7164337626,7164337769,14868,"DePaul Adult Care Communities, Inc.",500-E-018,64,,,,,Adult Home,Not for Profit Corporation,Western Regional Office - Rochester,"41 Lexington Court
Lockport, NY 14094
(43.162402, -78.663941)"
Hillcrest Spring Residential,"5052 Rte30 Upper Market St, POB 383",Montgomery,Amsterdam,12010,5188433770,5188433878,14806,Paul F. Wolfe,380-F-043,80,40,,,,Adult Home,Individual,Capital District Regional Office,
Sarah Jane Sanford Home,69 Guy Park Avenue,Montgomery,Amsterdam,12010,5188423670,5188426340,14805,The Home for Elderly Women of Montgomery County,380-E-011,40,,,,,Adult Home,Not for Profit Corporation,Capital District Regional Office,"69 Guy Park Avenue
Amsterdam, NY 12010
(42.941293, -74.19457)"
Willow Gardens,60 Willow Drive,Westchester,New Rochelle,10805,9143362338,9142355683,15113,"Willow Gardens, Inc.",800-E-136,51,,51,30,51,Adult Home,Not for Profit Corporation,Metropolitan Area Regional Office - New York City,"60 Willow Drive
New Rochelle, NY 10805
(40.89789, -73.780411)"
The Cambridge,4 West Main Street,Washington,Cambridge,12816,5186773460,5186773460,15106,"Icc Management & Consulting, Inc.",760-F-018,40,,40,14,,Adult Home,Business Corporation,Capital District Regional Office,"4 West Main Street
Cambridge, NY 12816
(43.028004, -73.381427)"
The Bristal at White Plains,305 North Street,Westchester,White Plains,10605,9149845343,9146811801,15141,"EBC White Plains, LLC",800-S-145,190,,190,50,32,Enriched Housing Program,LLC,Metropolitan Area Regional Office - New York City,"305 North Street
White Plains, NY 10605
(41.027429, -73.7471)"
Loretto Village Apts. Enriched Housing Site #5,750 East Brighton Avenue,Onondaga,Syracuse,13205,3154921329,3154926076,14905,"Loretto Adult Community, Inc.",520-S-120,79,44,,,,Enriched Housing Program,Not for Profit Corporation,Central New York Regional Office,"750 East Brighton Avenue
Syracuse, NY 13205
(43.009243, -76.132783)"
Pleasant Gardens Home for Adults,396 Middle Road,Suffolk,Bayport,11705,6314721047,6314729483,15024,"Mercy Haven, Inc.",700-E-282,27,,,,,Adult Home,Not for Profit Corporation,Metropolitan Area Regional Office - Long Island,"396 Middle Road
Bayport, NY 11705
(40.736198, -73.063563)"
Sunrise of Staten Island,801 Narrows Road,Richmond,Staten Island,10304,7187278498,7187278542,14975,"SZR New York LH, Inc.",610-S-003,121,,121,121,54,Enriched Housing Program,Business Corporation,Metropolitan Area Regional Office - New York City,"801 Narrows Road
Staten Island, NY 10304
(40.610945, -74.095113)"
The Meadows,2650 North Forest Road,Erie,Getzville,14068,7166393311,7166890002,14713,"Menorah Campus Adult Home, Inc.",240-S-123,48,,,,,Enriched Housing Program,Not for Profit Corporation,Western Regional Office - Buffalo,"2650 North Forest Road
Getzville, NY 14068
(43.014019, -78.78439)"
Lincoln Rest Home,12 Lincoln Avenue,Westchester,Ardsley,10502,9146931146,9146931146,15118,"Politan, Nenita",800-F-125,23,,,,,Adult Home,Individual,Metropolitan Area Regional Office - New York City,"12 Lincoln Avenue
Ardsley, NY 10502
(41.009621, -73.844064)"
Babylon Beach House Home for Adults,23 Yacht Club Road,Suffolk,Babylon,11702,6316693323,6316692571,15031,William A. Lockwood William R. Lockwood Scott W. Lockwood Paul M. Lockwood,700-F-131,67,,,,,Adult Home,Individual,Metropolitan Area Regional Office - Long Island,"23 Yacht Club Road
Babylon, NY 11702
(40.684711, -73.316751)"
"Hyde Park Assisted Living Facility, Inc.",394 Violet Avenue,Dutchess,Poughkeepsie,12601,8452049572,8452049575,14677,"Hyde Park Assisted Living Facility, Inc.",230-F-282,78,66,,,,Adult Home,Business Corporation,Metropolitan Area Regional Office - New York City,"394 Violet Avenue
Poughkeepsie, NY 12601
(41.739115, -73.909616)"
The Bristal at North Hills,99 South Service Road,Nassau,North Hills,11040,5162333100,5162333300,14838,"Engel Burman Senior Housing at North Hills, Inc.",400-S-309,140,,,,,Enriched Housing Program,Business Corporation,Metropolitan Area Regional Office - Long Island,"99 South Service Road
North Hills, NY 11040
(40.771138, -73.686626)"
Peregrine Senior Living at Colonie,5 South Family Drive,Albany,Colonie,12205,5184564500,5184565016,14603,"Peregrine Senior Living of Colonie, LLC",000-F-312,68,,68,10,68,Adult Home,LLC,Capital District Regional Office,"5 South Family Drive
Colonie, NY 12205
(42.73366, -73.824259)"
Loudonville Assisted Living Residence,298 Albany Shaker Road,Albany,Loudonville,12211,5184634398,5184634409,14601,"Westmere Home for Adults, LLC",000-F-304,105,,105,36,18,Adult Home,LLC,Capital District Regional Office,"298 Albany Shaker Road
Loudonville, NY 12211
(42.68238, -73.759136)"
"Briarwood Manor, Inc.",1001 Lincoln Avenue,Niagara,Lockport,14094,7164331513,7164338142,14867,"Ferreri, Salvatore",500-F-092,160,160,20,,20,Adult Home,Individual,Western Regional Office - Buffalo,"1001 Lincoln Avenue
Lockport, NY 14094
(43.153272, -78.668692)"
"Manor Haven Adult Home, Inc.",222 Columbia Street,Suffolk,Huntington Station,11746,6315490226,6313671240,15039,"Manor Haven Adult Home, Inc.",700-F-896,32,,,,,Adult Home,Business Corporation,Metropolitan Area Regional Office - Long Island,
Atria Crossgate,140 Washington Avenue Extension,Albany,Albany,12203,5188690211,5188690269,14609,"ATR New York LH, Inc.",000-S-009,83,,,,,Enriched Housing Program,Business Corporation,Capital District Regional Office,"140 Washington Avenue Extension
Albany, NY 12203
(42.695149, -73.84996)"
Bronxwood,799 East Gun Hill Road,Bronx,Bronx,10467,7188819100,7185150150,14612,"Bronxwood Home For The Aged, Inc.",020-E-004,320,177,,,,Adult Home,Not for Profit Corporation,Metropolitan Area Regional Office - New York City,"799 East Gun Hill Road
Bronx, NY 10467
(40.876088, -73.86236)"
Southern Tier Meadows,4883 West Main Road,Chautauqua,Fredonia,14063,7166794883,7166794881,14649,"Southern Tier Environments for Living, Inc.",060-E-038,24,,,,,Adult Home,Not for Profit Corporation,Western Regional Office - Buffalo,"4883 West Main Road
Fredonia, NY 14063
(42.419214, -79.378867)"
Chai Home,125-02 Ocean Promenade,Queens,Belle Harbor,11694,7186346100,7186343983,14912,"Chai Home, LLC",530-F-057,71,,,,,Adult Home,LLC,Metropolitan Area Regional Office - New York City,"125-02 Ocean Promenade
Belle Harbor, NY 11694
(40.574982, -73.843632)"
Manor Hills,4192-B Bolivar Road,Allegany,Wellsville,14895,5855939800,5855934605,14611,Manor Hills Inc.,010-F-017,137,,137,,22,Adult Home,Business Corporation,Western Regional Office - Buffalo,"4192-B Bolivar Road
Wellsville, NY 14895
(42.126974, -77.965523)"
Rodden Home,15 Wittridge Street,Suffolk,Lake Ronkonkoma,11779,6315851906,6315851906,15030,Matthew Patkowski Margaret Patkowski,700-F-109,23,,,,,Adult Home,Individual,Metropolitan Area Regional Office - Long Island,"15 Wittridge Street
Lake Ronkonkoma, NY 11779
(40.819442, -73.109549)"
Elderwood Assisted Living at Waverly,44 Ball Street,Tioga,Waverly,14892,6075656216,6075652114,15085,"44 Ball Street Operating Company, LLC",720-S-004,40,25,,,,Enriched Housing Program,LLC,Central New York Regional Office,"44 Ball Street
Waverly, NY 14892
(42.01244, -76.529779)"
Island Assisted Living,800-820 Front Street,Nassau,Hempstead,11550,5165641100,5165645353,14812,Newco Alp Inc.,400-E-295,200,200,,,,Adult Home,Not for Profit Corporation,Metropolitan Area Regional Office - Long Island,"800-820 Front Street
Hempstead, NY 11550
(40.709383, -73.601531)"
Willow Towers EHP,355 Pelham Road,Westchester,New Rochelle,10805,9146366565,9146361890,15137,"Willow Towers, Inc.",800-S-131,150,,150,30,30,Enriched Housing Program,Not for Profit Corporation,Metropolitan Area Regional Office - New York City,"355 Pelham Road
New Rochelle, NY 10805
(40.898341, -73.778074)"
Ashley Woods,400 YMCA Way,Monroe,Penfield,14526,5859788889,5855107334,15165,"Episcopal Senior Housing, Penfield, LLC",370-S-865,40,,40,8,,Enriched Housing Program,Not for Profit Corporation,Western Regional Office - Rochester,
Maplewood Assisted Living,205 State Street Road,Saint Lawrence,Canton,13617,3153864541,3152291292,14994,"United Helpers Canton Nursing Home, Inc",630-E-008,48,48,,,,Adult Home,Not for Profit Corporation,Central New York Regional Office,"205 State Street Road
Canton, NY 13617
(44.612698, -75.161591)"
Elderwood Village at Fairport,7 Chardonnay Drive,Monroe,Fairport,14450,5854250210,5854250213,14782,"7 Chardonnay Drive Operating Company, LLC",370-F-246,80,,,,,Adult Home,LLC,Western Regional Office - Buffalo,"7 Chardonnay Drive
Fairport, NY 14450
(43.067884, -77.436099)"
Elmore Home for Adults,330 Elmore Street,Suffolk,Central Islip,11722,6312346506,6316719662,15035,Josevito Miranda Teresita Vasquez,700-F-300,22,,,,,Adult Home,Individual,Metropolitan Area Regional Office - Long Island,"330 Elmore Street
Central Islip, NY 11722
(40.784398, -73.19982)"
The Brielle at Seaview,140 Friendship Lane,Richmond,Staten Island,10314,9172816810,9292563034,14969,Seaview Senior Living Housing Development Fund Corporation,610-E-012,188,,188,188,26,Adult Home,Not for Profit Corporation,Metropolitan Area Regional Office - New York City,"140 Friendship Lane
Staten Island, NY 10314
(40.595149, -74.130994)"
Park Terrace at Radisson,2981 Town Center Road,Onondaga,Baldwinsville,13027,3156389207,3156388507,14900,"Park Terrace Operating, LLC",520-F-169,65,,65,,13,Adult Home,LLC,Central New York Regional Office,"2981 Town Center Road
Baldwinsville, NY 13027
(43.178846, -76.299839)"
Adirondack Manor HFA D.B.A Montcalm Manor HFA,45 Montcalm Street,Essex,Ticonderoga,12883,5185856230,5185856467,14719,James E. Kane Sr. James E. Kane Jr.,260-F-016,40,30,,,,Adult Home,Individual,Capital District Regional Office,"45 Montcalm Street
Ticonderoga, NY 12883
(43.848238, -73.430389)"
Mermaid Manor Home for Adults,3602 Mermaid Avenue,Kings,Brooklyn,11224,7182662100,7182662103,14744,"Mermaid Manor Home For Adults, Llc",331-F-276,200,199,,,,Adult Home,LLC,Metropolitan Area Regional Office - New York City,"3602 Mermaid Avenue
Brooklyn, NY 11224
(40.574715, -74.002105)"
New South Shore Manor,1041 East 83rd Street,Kings,Brooklyn,11236,7182417035,7182417039,14741,George Katz Batsheva Katz David J. Deutsch,331-F-266,74,,,,,Adult Home,Individual,Metropolitan Area Regional Office - New York City,"1041 East 83rd Street
Brooklyn, NY 11236
(40.634584, -73.908465)"
Five Star Premier Residences of Yonkers,537 Riverdale Avenue,Westchester,Yonkers,10705,9147091234,9143789062,15129,D&R Yonkers LLC,800-F-992,40,,40,18,40,Adult Home,LLC,Metropolitan Area Regional Office - New York City,"537 Riverdale Avenue
Yonkers, NY 10705
(40.913606, -73.902375)"
"Surfside Manor Home for Adults, LLC",95-02 Rockaway Beach Boulevard,Queens,Rockaway Beach,11693,7189455500,7186348925,14950,"Surfside Manor Home for Adults, LLC",590-F-314,200,199,,,,Adult Home,LLC,Metropolitan Area Regional Office - New York City,"95-02 Rockaway Beach Boulevard
Rockaway Beach, NY 11693
(40.58558, -73.817462)"
McPeak's Adult Home,286 North Ocean Avenue,Suffolk,Patchogue,11772,6314750445,6314755534,15028,"McPeak's Adult Home, Inc.",700-F-051,51,,,,,Adult Home,Business Corporation,Metropolitan Area Regional Office - Long Island,"286 North Ocean Avenue
Patchogue, NY 11772
(40.773581, -73.015288)"
The Avalon Assisted Living and Wellness Center,1629 Route 376,Dutchess,Wappingers Falls,12590,8454630500,8454632159,14673,Azzy Reckess Paula Reckess,230-F-068,76,75,,,,Adult Home,Individual,Metropolitan Area Regional Office - New York City,"1629 Route 376
Wappingers Falls, NY 12590
(41.6278, -73.875666)"
Brookdale Ithaca Memory Care,101 Bundy Road,Tompkins,Ithaca,14850,6072565094,6072565318,15088,"Ithaca Sterling Cottage Operator, Inc.",730-F-001,36,,,,,Adult Home,Business Corporation,Central New York Regional Office,
Lutheran Home Cottages,114 Utica Road,Oneida,Clinton,13323,3158015261,3158015262,14875,"The Lutheran Home of Central New York, Inc.",510-E-009,14,,14,14,14,Adult Home,Not for Profit Corporation,Central New York Regional Office,"114 Utica Road
Clinton, NY 13323
(43.057779, -75.363334)"
"Bayview Rest Home, LLC",143 East Main Street,Suffolk,Babylon,11702,6316613292,6316613292,15043,"Bayview Rest Home, LLC",700-F-908,75,,,,,Adult Home,LLC,Metropolitan Area Regional Office - Long Island,"143 East Main Street
Babylon, NY 11702
(40.697001, -73.320627)"
Fredonia Place of Williamsville,201 Reist Street,Erie,Williamsville,14221,7166322155,7166313135,14702,SOSF Ventures L.P.,240-F-904,99,,99,25,24,Adult Home,LLP,Western Regional Office - Buffalo,"201 Reist Street
Williamsville, NY 14221
(42.967463, -78.752609)"
"Hawthorne Ridge, Inc.",30 Community Way,Rensselaer,East Greenbush,12061,5188331111,5184772906,14964,"Hawthorne Ridge, Inc.",600-E-114,66,,66,,54,Adult Home,Not for Profit Corporation,Capital District Regional Office,"30 Community Way
East Greenbush, NY 12061
(42.615548, -73.695013)"
Lockport Presbyterian Home,327 High Street,Niagara,Lockport,14094,7164348805,7164346059,14866,"Lockport Presbyterian Home, Inc.",500-E-016,60,,,,,Adult Home,Not for Profit Corporation,Western Regional Office - Buffalo,"327 High Street
Lockport, NY 14094
(43.164477, -78.684895)"
Samuel F. Vilas Home,61 Beekman Street,Clinton,Plattsburgh,12901,5185634960,5185635406,14662,"Plattsburgh ALR, Inc",090-F-005,44,,,,,Adult Home,LLC,Capital District Regional Office,"61 Beekman Street
Plattsburgh, NY 12901
(44.699139, -73.466488)"
Mountain Valley Manor,373-421 Wilbur Avenue,Ulster,Kingston,12401,8453311254,8453311255,15095,"Salaber, Inc.",740-F-078,53,,,,,Adult Home,Business Corporation,Metropolitan Area Regional Office - New York City,"373-421 Wilbur Avenue
Kingston, NY 12401
(41.921686, -74.008876)"
Woodview Court,1015 Saw Mill River Road,Westchester,Ardsley,10502,9144001103,9144001510,15133,"ATR New York LH, Inc.",800-F-998,40,,,,,Adult Home,Business Corporation,Metropolitan Area Regional Office - New York City,"1015 Saw Mill River Road
Ardsley, NY 10502
(41.022987, -73.843787)"
Garden of Eden Assisted Living Program,1608-1620 Stillwell Avenue,Kings,Brooklyn,11223,7182365757,7182361985,14746,"Garden Of Eden Home, Llc",331-F-280,201,200,,,,Adult Home,LLC,Metropolitan Area Regional Office - New York City,"1608-1620 Stillwell Avenue
Brooklyn, NY 11223
(40.606965, -73.987206)"
"Woodside Hall, LLC",1 Main Street,Otsego,Cooperstown,13326,6075470600,6075470601,14934,Woodside Hall LLC,570-F-044,37,,,,,Adult Home,LLC,Capital District Regional Office,"1 Main Street
Cooperstown, NY 13326
(42.699275, -74.916658)"
Woodland Pond at New Paltz,100 Woodland Pond Circle,Ulster,New Paltz,12561,8452565910,8452565779,15098,"Woodland Pond, Inc.",740-S-010,60,,60,40,20,Enriched Housing Program,Not for Profit Corporation,Metropolitan Area Regional Office - New York City,"100 Woodland Pond Circle
New Paltz, NY 12561
(41.757746, -74.06162)"
Evergreen Heights,8939 Oakland Street,Cayuga,Weedsport,13166,3158346142,3158348960,14643,"Central New York Adult Homes, Inc.",050-E-010,60,,,,,Adult Home,Not for Profit Corporation,Central New York Regional Office,"8939 Oakland Street
Weedsport, NY 13166
(43.05075, -76.572437)"
The Watermark at Brooklyn Heights,21 Clark Street,Kings,Brooklyn,11201,3473434900,.,14759,"Brooklyn Operating Company, LLC",331-S-016,256,,256,100,52,Enriched Housing Program,LLC,Metropolitan Area Regional Office - New York City,"21 Clark Street
Brooklyn, NY 11201
(40.698051, -73.995201)"
Elderwood Assisted Living at Cheektowaga,229 Bennett Road,Erie,Cheektowaga,14227,7166818631,7166818762,14696,"229 Bennett Road Operating Company, Llc",240-F-886,80,66,,,,Adult Home,LLC,Western Regional Office - Buffalo,"229 Bennett Road
Cheektowaga, NY 14227
(42.889315, -78.747032)"
Heritage Manor of Ransomville Assisted Living Program,3509 Ransomville Road,Niagara,Ransomville,14131,7167914211,7167913398,14870,"Heritage Ransomville Management, LLC",500-F-099,142,97,,,,Adult Home,LLC,Western Regional Office - Buffalo,"3509 Ransomville Road
Ransomville, NY 14131
(43.244627, -78.909481)"
The Springs at Fountainview,2000 Fountainview Drive,Rockland,Monsey,10952,8454266757,8454266914,14980,"Fountainview at College Road, Inc.",620-E-021,60,60,,,,Enriched Housing Program,Not for Profit Corporation,Metropolitan Area Regional Office - New York City,"2000 Fountainview Drive
Monsey, NY 10952
(41.11329, -74.09044)"
The New Falls,117 Schuyler Street,Schuyler,Montour Falls,14865,6075357165,.,15014,The New Falls Home. LLC,670-F-006,111,89,,,,Adult Home,LLC,Western Regional Office - Buffalo,"117 Schuyler Street
Montour Falls, NY 14865
(42.34663, -76.84985)"
305 West End Assisted Living,305 West End Avenue,New York,New York,10023,2128745000,6469186936,14862,305 West End Avenue Operating LLC,420-S-393,200,,200,60,40,Enriched Housing Program,LLC,Metropolitan Area Regional Office - New York City,"305 West End Avenue
New York, NY 10023
(40.781348, -73.983358)"
"Mariners Residence, Inc.",2099 Forest Avenue,Richmond,Staten Island,10303,7187208800,7184478095,14972,"Mariners Residence, Inc.",610-F-066,200,200,,,,Adult Home,Business Corporation,Metropolitan Area Regional Office - New York City,"2099 Forest Avenue
Staten Island, NY 10303
(40.626454, -74.159318)"
Cloverhill Adult Home,355 South Main Street,Orleans,Albion,14411,5855897832,5855897832,14927,Alan R. Johnson Alan R. Johnson II,550-F-002,44,,,,,Adult Home,Individual,Western Regional Office - Buffalo,"355 South Main Street
Albion, NY 14411
(43.234809, -78.194041)"
Frewsburg Rest Home,106 West Main Street,Chautauqua,Frewsburg,14738,7164832876,7164832832,14651,"Frewsburg Rest Home, Inc.",060-F-035,81,81,81,,21,Adult Home,Business Corporation,Western Regional Office - Buffalo,
The Hamlet at Park Ridge,1471 Long Pond Road,Monroe,Rochester,14626,5857237820,5857237118,14790,"Park Ridge Housing, Inc.",370-S-193,66,,66,,21,Enriched Housing Program,Not for Profit Corporation,Western Regional Office - Buffalo,"1471 Long Pond Road
Rochester, NY 14626
(43.195168, -77.705899)"
The Sentinel of Port Jervis,2247 Greenville Turnpike,Orange,Port Jervis,12771,8458960400,8458960410,14925,"The Sentinel of Port Jervis, LLC",540-F-040,160,109,51,40,,Adult Home,LLC,Metropolitan Area Regional Office - New York City,"2247 Greenville Turnpike
Port Jervis, NY 12771
(41.352462, -74.680503)"
Atria New City,260 Main Street,Rockland,New City,10956,8452029651,8452136675,15162,"CSH New City Operator, Inc.",620-F-101,112,,112,83,29,Adult Home,Business Corporation,Metropolitan Area Regional Office - New Rochelle,"260 Main Street
New City, NY 10956
(41.369641, -73.965856)"
Olsen Rest,P.O. Box 256,Suffolk,Nesconset,11767,6315885676,6315885676,15033,"Olsen, George Jr.",700-F-223,40,,,,,Adult Home,Individual,Metropolitan Area Regional Office - Long Island,
Home of the Good Shepherd Wilton,60 Waller Road,Saratoga,Wilton,12831,5185800702,5185800709,14999,"The Church Aid of the Protestant Episcopal Church in the Town of Saratoga Springs, Inc.",640-E-038,54,,54,25,,Adult Home,Not for Profit Corporation,Capital District Regional Office,"60 Waller Road
Wilton, NY 12831
(43.130396, -73.76827)"
Absolutcare of Orchard Brooke,6060 Armor Road,Erie,Orchard Park,14127,7166626753,7166626752,14693,"Absolut at Orchard Brooke, LLC",240-F-878,80,69,,,,Adult Home,LLC,Western Regional Office - Buffalo,"6060 Armor Road
Orchard Park, NY 14127
(42.751208, -78.762696)"
The Bristal at Garden City,1001 Axinn Avenue,Nassau,Garden City,11530,5165707010,5168335514,14847,"EB Care at Garden City, LLC",400-S-330,170,,170,55,44,Enriched Housing Program,LLC,Metropolitan Area Regional Office - Long Island,"1001 Axinn Avenue
Garden City, NY 11530
(40.739809, -73.608258)"
Sachem Adult Home,1298 Coates Avenue,Suffolk,Holbrook,11741,6315884554,6315884578,15060,Sachem Adult Home And Alp Llc,700-F-935,46,35,,,,Adult Home,LLC,Metropolitan Area Regional Office - Long Island,"1298 Coates Avenue
Holbrook, NY 11741
(40.797614, -73.080149)"
Sunrise of Smithtown,"30 Hauppauge, Route 111",Suffolk,Smithtown,11787,6317242299,6317242922,15056,"SZR New York LH, Inc.",700-F-927,104,,104,104,43,Adult Home,Business Corporation,Metropolitan Area Regional Office - Long Island,"30 Hauppauge, Route 111
Smithtown, NY 11787
(40.853835, -73.187626)"
Willing Helpers' Home for Women,"226 West Madison Ave, P.O. Box O",Fulton,Johnstown,12095,5187627719,5187623415,14724,Willing Helpers,280-E-008,20,,,,,Adult Home,Not for Profit Corporation,Capital District Regional Office,
Brothers of Mercy Sacred Heart Home,4526 Ransom Road,Erie,Clarence,14031,7167592644,7167596433,14684,"Brothers Of Mercy Sacred Heart Home, Inc.",240-E-845,96,,96,64,32,Adult Home,Not for Profit Corporation,Western Regional Office - Buffalo,"4526 Ransom Road
Clarence, NY 14031
(42.969382, -78.592621)"
Samaritan Summit Village,22691 Campus Drive,Jefferson,Watertown,13601,3157826800,3157826950,14736,"Samaritan Senior Village, Inc.",330-E-005,120,89,31,31,,Adult Home,Not for Profit Corporation,Central New York Regional Office,
Garnerville Home,216 Ramapo Road Route 202,Rockland,Garnerville,10923,8452415284,7185044296,14990,"Garnerville HFA Operation & Management, LLC",620-F-093,39,,,,,Adult Home,LLC,Metropolitan Area Regional Office - New York City,
The Nottingham Memory Care Residence,1307 Nottingham Road,Onondaga,Jamesville,13078,3154133945,3154597548,14889,"Loretto Adult Community, Inc.",520-E-097,24,,24,,24,Adult Home,Not for Profit Corporation,Central New York Regional Office,"1307 Nottingham Road
Jamesville, NY 13078
(43.010775, -76.083746)"
Sunrise of Glen Cove,39 Forest Avenue,Nassau,Glen Cove,11542,5166560575,5166560574,14825,"GWC-Glen Cove, Inc.",400-F-327,111,,111,111,41,Adult Home,Business Corporation,Metropolitan Area Regional Office - Long Island,"39 Forest Avenue
Glen Cove, NY 11542
(40.870981, -73.626975)"
Chenango County Home Preston Manor,"1150 County Road 4  RFD #2, Box 203",Chenango,Oxford,13830,6073349428,6073348299,14660,Chenango County D.S.S.,080-N-007,48,,,,,Adult Home,County,Central New York Regional Office,"1150 County Road 4  RFD #2, Box 203
Oxford, NY 13830
(42.524248, -75.61481)"
Brandywine Senior Living at Huntington Terrace,70 Pinelawn Road,Suffolk,Melville,11747,6315310000,6315310003,15050,Brandywine Senior Living at Huntington Terrace LLC,700-F-919,54,,54,54,34,Adult Home,LLC,Metropolitan Area Regional Office - Long Island,"70 Pinelawn Road
Melville, NY 11747
(40.779952, -73.404589)"
The Bristal at Lake Grove,2995 Middle Country Road,Suffolk,Lake Grove,11755,6316767580,6316767581,15078,Lake Grove Senior Care LLC,700-S-311,155,,155,75,64,Enriched Housing Program,LLC,Metropolitan Area Regional Office - Long Island,"2995 Middle Country Road
Lake Grove, NY 11755
(40.862135, -73.131466)"
Brooklyn Boulevard ALP,636 Louisiana Avenue,Kings,Brooklyn,11239,7185570777,7186423510,14758,Brooklyn Boulevard ALP LLC,331-S-014,184,184,,,,Enriched Housing Program,LLC,Metropolitan Area Regional Office - New York City,"636 Louisiana Avenue
Brooklyn, NY 11239
(40.647007, -73.885206)"
Belle Harbor Manor,209 Beach 125th Street,Queens,Belle Harbor,11694,7189456600,7184748540,14941,"Belle Harbor Home of the Sages, Inc.",590-E-293,162,,,,,Adult Home,Not for Profit Corporation,Metropolitan Area Regional Office - New York City,"209 Beach 125th Street
Belle Harbor, NY 11694
(40.577679, -73.844916)"
Eastern Star Home,8290 State Route 69,Oneida,Oriskany,13424,3157369311,3157363047,15226,Trustees of the Eastern Star Hall and Home of the State of New York,510-E-067,14,,14,7,14,Adult Home,Not for Profit Corporation,Central New York Regional Office,"8290 State Route 69
Oriskany, NY 13424
(43.164908, -75.339511)"
Sunrise of Plainview,1231 Old Country Road,Nassau,Plainview,11803,5169325151,5169321759,14822,"GWC - Plainview, Inc.",400-F-323,65,,65,65,17,Adult Home,Business Corporation,Metropolitan Area Regional Office - Long Island,"1231 Old Country Road
Plainview, NY 11803
(40.776548, -73.460395)"
Marjorie Doyle Rockwell Center,18 Pasinella Way,Albany,Cohoes,12047,5182384150,5182384195,14599,"Marjorie Doyle Rockwell Center, Inc.",000-E-283,52,,52,,52,Adult Home,Not for Profit Corporation,Capital District Regional Office,"18 Pasinella Way
Cohoes, NY 12047
(42.775152, -73.724452)"
Brookdale Williamsville,6076 Main Street,Erie,Williamsville,14221,7166327123,7166327512,14688,"Williamsville Clare Bridge Operator, Inc.",240-F-851,52,,,,,Adult Home,Business Corporation,Western Regional Office - Buffalo,
NY Found-Sr Citizens EHP#2 Brown Gardens,225 East 93rd Street,New York,New York,10128,2123695523,2124104462,14854,"New York Foundation for Senior Citizens, Inc.",420-S-272,47,,,,,Enriched Housing Program,Not for Profit Corporation,Metropolitan Area Regional Office - New York City,"225 East 93rd Street
New York, NY 10128
(40.78277, -73.949587)"
Adirondack Manor HFA D.B.A Adirondack Manor HFA ALP,653 Bay Road,Warren,Queensbury,12804,5187610176,5187610338,15099,James E. Kane Sr. James E. Kane Jr.,750-F-046,60,54,,,,Adult Home,Individual,Capital District Regional Office,"653 Bay Road
Queensbury, NY 12804
(43.353709, -73.656664)"
The Manor House,427 East Main Street,Genesee,Batavia,14020,5853442345,5853444482,14728,"Manor House Enriched, LLC",290-S-003,60,,,,,Enriched Housing Program,LLC,Western Regional Office - Buffalo,"427 East Main Street
Batavia, NY 14020
(42.996217, -78.173356)"
Brookdale Fayetteville,5125 Highbridge Street,Onondaga,Fayetteville,13066,3156372000,3156372004,14891,"Manlius Clare Bridge Operator, Inc.",520-F-145,52,,,,,Adult Home,Business Corporation,Central New York Regional Office,"5125 Highbridge Street
Fayetteville, NY 13066
(43.019548, -76.011354)"
The Country House in Westchester,2000 Baldwin Road,Westchester,Yorktown Heights,10598,9149623625,9149624130,15116,Country House Operator LLC,800-F-138,100,,100,,,Adult Home,LLC,Metropolitan Area Regional Office - New York City,"2000 Baldwin Road
Yorktown Heights, NY 10598
(41.276076, -73.791543)"
Brookdale Bellevue,4330 Onondaga Boulevard,Onondaga,Syracuse,13219,3154685108,3154680663,14896,"Painted Post, LLC",520-F-163,91,,,,,Adult Home,LLC,Central New York Regional Office,"4330 Onondaga Boulevard
Syracuse, NY 13219
(43.026685, -76.215228)"
The Lake Shore Assisted Living Residence,211 Lake Shore Road,Suffolk,Lake Ronkonkoma,11779,6315858800,6315850716,15038,"Lakehaven Equities, Inc.",700-F-893,200,,200,,,Adult Home,Business Corporation,Metropolitan Area Regional Office - Long Island,"211 Lake Shore Road
Lake Ronkonkoma, NY 11779
(40.827155, -73.116657)"
Bridges Cornell Heights - The Tudor,407 Wyckoff Avenue,Tompkins,Ithaca,14850,6072575777,6072573565,15090,"Ambrose, Elizabeth Classen",730-F-003,15,,15,15,,Adult Home,Individual,Central New York Regional Office,"407 Wyckoff Avenue
Ithaca, NY 14850
(42.455695, -76.484425)"
Metro Interfaith EHP,110 Chenango Place,Broome,Binghamton,13901,6077243774,6077249602,14634,Metro Interfaith Housing Management Corporation,030-S-041,37,,,,,Enriched Housing Program,Not for Profit Corporation,Central New York Regional Office,"110 Chenango Place
Binghamton, NY 13901
(42.10162, -75.90956)"
Grande'ville Senior Living Community,555 Maiden Lane,Monroe,Rochester,14616,5856216160,5856218002,14778,"Grande'ville Senior Living Community, LLC",370-F-230,115,,115,30,35,Adult Home,LLC,Western Regional Office - Buffalo,"555 Maiden Lane
Rochester, NY 14616
(43.22375, -77.656982)"
Danforth Adult Care Center,19 Danforth Street,Rensselaer,Hoosick Falls,12090,5186865167,5186864428,14967,Danforth Assisted Living Program LLC,600-F-254,80,42,,,,Adult Home,LLC,Capital District Regional Office,"19 Danforth Street
Hoosick Falls, NY 12090
(42.909404, -73.347707)"
The New Jewish Home University Avenue Assisted Living,2553 University Avenue,Bronx,Bronx,10468,3474184270,3474184271,14622,"Jewish Home Lifecare, University Avenue Assisted Living",020-S-003,72,72,,,,Enriched Housing Program,Not for Profit Corporation,Metropolitan Area Regional Office - New York City,"2553 University Avenue
Bronx, NY 10468
(40.867576, -73.901646)"
NY Found-Sr Citizens EHP#5 Clinton Gardens,404-412 W. 54 St.- Clinton Gardens,New York,New York,10019,2124899339,2124899332,14857,"New York Foundation for Senior Citizens, Inc.",420-S-376,47,,,,,Enriched Housing Program,Not for Profit Corporation,Metropolitan Area Regional Office - New York City,
Atria East Northport,10 Cheshire Place,Suffolk,East Northport,11731,6317578000,6317578010,15057,"ATR New York LH, Inc.",700-F-929,200,,,,,Adult Home,Business Corporation,Metropolitan Area Regional Office - Long Island,"10 Cheshire Place
East Northport, NY 11731
(40.875196, -73.322698)"
Rockaway Manor HFA,145 Beach 8th Street,Queens,Far Rockaway,11691,7183276300,7183273834,14940,Foundation For The Elderly,590-E-292,120,,,,,Adult Home,Not for Profit Corporation,Metropolitan Area Regional Office - New York City,"145 Beach 8th Street
Far Rockaway, NY 11691
(40.595409, -73.742825)"
Garden House For Adults,91 Walnut Street,Broome,Binghamton,13905,6077245763,6077245763,14629,"Bawas, Imelda",030-F-038,24,,,,,Adult Home,Individual,Central New York Regional Office,"91 Walnut Street
Binghamton, NY 13905
(42.101266, -75.922988)"
The Arbors at Islandia East,1515A Veterans Memorial Highway,Suffolk,Islandia,11749,6312323131,6313421855,15047,"Arcadia Management, Inc.",700-F-914,200,,200,,57,Adult Home,Business Corporation,Metropolitan Area Regional Office - Long Island,"1515A Veterans Memorial Highway
Islandia, NY 11749
(40.809947, -73.186175)"
Birchwood Suites,423 Clay Pitts Road,Suffolk,East Northport,11731,6313685252,6313683128,15064,Birchwood Suites Operator LLC,700-F-943,95,,95,78,17,Adult Home,LLC,Metropolitan Area Regional Office - Long Island,"423 Clay Pitts Road
East Northport, NY 11731
(40.868385, -73.299583)"
Glenmere at Cloverwood,One Wheatley Terrace,Monroe,Pittsford,14534,5852481200,5852481101,14796,"Cloverwood Senior Living, Inc.",370-S-845,77,,77,19,19,Enriched Housing Program,Not for Profit Corporation,Western Regional Office - Buffalo,
The Sentinel of Rockland,200 Rella Blvd,Rockland,Montebello,10901,8452034500,8452034515,14982,"The Sentinel of Rockland, LLC",620-F-103,200,200,,,,Adult Home,LLC,Metropolitan Area Regional Office - New York City,
Sunrise of Holbrook,320 Patchogue-Holbrook Road,Suffolk,Holbrook,11741,6312898400,6312898484,15054,"GWC - Holbrook, Inc.",700-F-925,109,,109,109,25,Adult Home,Business Corporation,Metropolitan Area Regional Office - Long Island,"320 Patchogue-Holbrook Road
Holbrook, NY 11741
(40.785293, -73.042365)"
New Windsor Country Inn,450 Temple Hill Road P.O. Box 4328,Orange,New Windsor,12553,8455658110,8455657949,14918,William R. Lockwood  William A. Lockwood Scott W. Lockwood Paul M. Lockwood,540-F-026,86,,,,,Adult Home,Individual,Metropolitan Area Regional Office - New York City,"450 Temple Hill Road P.O. Box 4328
New Windsor, NY 12553
(41.478449, -74.06346)"
Brompton Heights,275 Brompton Road,Erie,Williamsville,14221,7166345734,7166341416,14685,"Brompton Heights, Inc.",240-F-133,200,,200,200,20,Adult Home,Business Corporation,Western Regional Office - Buffalo,"275 Brompton Road
Williamsville, NY 14221
(42.972941, -78.708288)"
Culinarians' Home Foundation,71 Old Tschirky Road,Ulster,New Paltz,12561,8452557010,8452552012,15092,Culinarians' Home Foundation,740-E-002,18,,,,,Adult Home,Not for Profit Corporation,Metropolitan Area Regional Office - New York City,"71 Old Tschirky Road
New Paltz, NY 12561
(41.804379, -74.064048)"
The Springvale Inn,62 Springvale Rd.,Westchester,Croton-on-Hudson,10520,9147394404,9149410115,15136,"Living Independently For The Elderly, Inc.",800-S-129,125,,125,,,Enriched Housing Program,Not for Profit Corporation,Metropolitan Area Regional Office - New York City,"62 Springvale Rd.
Croton-on-Hudson, NY 10520
(41.232978, -73.916281)"
Walden Place,839 Bennie Rd.,Cortland,Cortland,13045,6077568101,6077562357,14667,"SL Walden, LLC",210-F-030,86,,86,86,20,Adult Home,LLC,Central New York Regional Office,"839 Bennie Rd.
Cortland, NY 13045
(42.566614, -76.218975)"
Underwood Manor,"4460 Union Hill Road, R.D. #1",Cattaraugus,Hinsdale,14743,7165572322,7165572323,14637,"Johnson, Ronald",040-F-024,32,32,,,,Adult Home,Individual,Western Regional Office - Buffalo,"4460 Union Hill Road, R.D. #1
Hinsdale, NY 14743
(42.187199, -78.353355)"
The Northfield,4560 Nine Mile Point Road,Monroe,Fairport,14450,5853771810,5852323062,14797,"Family Service Of Rochester, Inc.",370-S-847,79,,,,,Enriched Housing Program,Not for Profit Corporation,Western Regional Office - Buffalo,
Elderwood Assisted Living at Hamburg,76 Buffalo Street,Erie,Hamburg,14075,7166497676,7166485607,14710,"76 Buffalo Street Operating Company, Llc",240-S-117,103,30,103,10,,Enriched Housing Program,LLC,Western Regional Office - Buffalo,"76 Buffalo Street
Hamburg, NY 14075
(42.718299, -78.829267)"
East Road Adult Home,7731 East Road,Lewis,Lowville,13367,3153767072,8552774713,14760,Homes for Humanity Holdings I LLC,340-F-019,20,,,,,Adult Home,LLC,Central New York Regional Office,"7731 East Road
Lowville, NY 13367
(43.843794, -75.512894)"
Bickford Home,56 Main Street,Wayne,Macedon,14502,3159865552,3159862968,15107,Peter Schumacher Shirley A. Schumacher,770-F-035,24,,,,,Adult Home,Individual,Western Regional Office - Buffalo,
Promenade at Tuxedo Place,40 Hospital Road,Orange,Tuxedo,10987,8457356846,8457356855,14920,Promenade Tuxedo LLC,540-F-030,89,58,,,,Adult Home,LLC,Metropolitan Area Regional Office - New York City,"40 Hospital Road
Tuxedo, NY 10987
(41.190363, -74.186115)"
The Courtyards LLC,5285 South Park Avenue,Erie,Hamburg,14075,7166499111,7166493553,14690,The Courtyards LLC,240-F-872,133,,,,,Adult Home,LLC,Western Regional Office - Buffalo,"5285 South Park Avenue
Hamburg, NY 14075
(42.75344, -78.824661)"
RiverSpring Assisted Living,5901 Palisades Avenue,Bronx,Bronx,10471,7185811780,7186018702,14614,The Hebrew Home for the Aged at Riverdale,020-E-136,35,35,,,,Adult Home,Not for Profit Corporation,Metropolitan Area Regional Office - New York City,"5901 Palisades Avenue
Bronx, NY 10471
(40.906763, -73.910634)"
"Madison York Assisted Living Community, LLC",112-14 Corona Avenue,Queens,Flushing,11368,7186994100,7188998126,14952,"Madison York Assisted Living Community, LLC",590-F-320,226,200,,,,Adult Home,LLC,Metropolitan Area Regional Office - New York City,"112-14 Corona Avenue
Flushing, NY 11368
(40.740102, -73.848324)"
Pineview Commons H.F.A.,201 South Melcher Street,Fulton,Johnstown,12095,5187625488,5187625583,14725,"Pineview Commons, LLC",280-F-034,94,52,,,,Adult Home,LLC,Capital District Regional Office,"201 South Melcher Street
Johnstown, NY 12095
(43.000988, -74.375382)"
New Gloria's Manor Home for Adults,140 Beach 119th Street,Queens,Rockaway Park,11694,7189455700,7189456086,14946,Gloria's Manor LLC,590-F-307,172,,,,,Adult Home,LLC,Metropolitan Area Regional Office - New York City,"140 Beach 119th Street
Rockaway Park, NY 11694
(40.577807, -73.839101)"
Canterbury Woods Gates Circle,1 Gates Circle,Erie,Buffalo,14209,7169295150,7169295108,14715,"Episcopal Church Home & Affiliates Life Care Community, Inc.",240-S-127,5,,5,5,,Enriched Housing Program,Not for Profit Corporation,Western Regional Office - Buffalo,"1 Gates Circle
Buffalo, NY 14209
(42.920226, -78.867303)"
Home Sweet Home of Athens,71 Second Street,Greene,Athens,12015,5189451673,5189452082,14731,"The W Group at Hudson, LLC",300-F-034,24,24,,,,Adult Home,LLC,Capital District Regional Office,"71 Second Street
Athens, NY 12015
(42.262568, -73.813889)"
The Bristal at North Hills,99 South Service Road,Nassau,North Hills,11040,5162333100,5162333300,14817,"Engel Burman Senior Housing at North Hills, Inc.",400-F-310,60,,,,,Adult Home,Business Corporation,Metropolitan Area Regional Office - Long Island,"99 South Service Road
North Hills, NY 11040
(40.771138, -73.686626)"
"Millview of Latham, LLC",514 Old Loudon Road,Albany,Cohoes,12047,5187857788,5187852745,14600,"Millview of Latham, LLC",000-F-294,55,,55,,,Adult Home,LLC,Capital District Regional Office,"514 Old Loudon Road
Cohoes, NY 12047
(42.787868, -73.73979)"
Wheatfield Commons,3920 Forest Parkway,Niagara,North Tonawanda,14120,7164757600,7162645624,14865,"DePaul Adult Care Communities, Inc.",500-E-014,114,,114,,34,Adult Home,Not for Profit Corporation,Western Regional Office - Buffalo,"3920 Forest Parkway
North Tonawanda, NY 14120
(43.062389, -78.829022)"
Adirondack Manor Home for Adults-Camden,128 Main Street,Oneida,Camden,13316,3152451520,3152454764,14878,James E. Kane Sr. James E. Kane Jr.,510-F-028,40,,,,,Adult Home,Individual,Central New York Regional Office,"128 Main Street
Camden, NY 13316
(43.338978, -75.748586)"
"Bristol Village, Inc.",8455 Clarence Center Road,Erie,Clarence Center,14032,7163199500,7163199501,14705,"Bristol Village, Inc.",240-S-107,142,,142,30,42,Enriched Housing Program,Not for Profit Corporation,Western Regional Office - Buffalo,"8455 Clarence Center Road
Clarence Center, NY 14032
(43.013406, -78.679374)"
Atria Park of Great Neck,51 Great Neck Road,Nassau,Great Neck,11021,5168294100,5168294989,14845,"ATR New York LH, Inc.",400-S-326,162,,162,90,49,Enriched Housing Program,Business Corporation,Metropolitan Area Regional Office - Long Island,"51 Great Neck Road
Great Neck, NY 11021
(40.785795, -73.728212)"
Kalet's Adult Home,504 Delaware Street,Onondaga,Syracuse,13204,3154797514,3154791058,14895,"Kalet, Diane",520-F-161,45,,,,,Adult Home,Individual,Central New York Regional Office,"504 Delaware Street
Syracuse, NY 13204
(43.037518, -76.169633)"
Atria Guilderland,300 Mill Rose Court,Albany,Slingerlands,12159,5182180506,5182180164,14602,"ATR New York LH, Inc.",000-F-308,120,,120,26,21,Adult Home,Business Corporation,Capital District Regional Office,"300 Mill Rose Court
Slingerlands, NY 12159
(42.685142, -73.904556)"
Crestview Manor ALP,150 Old Saw Mill River Road,Westchester,Hawthorne,10532,9147691762,9147692536,15120,Azzy Reckess Paula Reckess,800-F-129,76,58,,,,Adult Home,Individual,Metropolitan Area Regional Office - New York City,"150 Old Saw Mill River Road
Hawthorne, NY 10532
(41.097907, -73.808034)"
The Sentinel of Mohegan Lake,3441 Lexington Avenue,Westchester,Mohegan Lake,10547,9146001430,9146001435,15212,"The Sentinel Of Mohegan Lake, Llc",800-F-013,188,188,,,,Adult Home,LLC,Metropolitan Area Regional Office - New York City,
The Bristal at Lynbrook,8 Freer Street,Nassau,Lynbrook,11563,5165932424,5165995594,14830,"Lynbrook Senior Care, LLC",400-F-335,200,49,200,44,33,Adult Home,LLC,Metropolitan Area Regional Office - Long Island,"8 Freer Street
Lynbrook, NY 11563
(40.656359, -73.683683)"
Orchard Estate of Woodbury,900 Woodbury Road,Nassau,Woodbury,11797,5164078096,5162619024,14832,"BSL Woodbury Operations, Inc.",400-F-339,105,,105,105,32,Adult Home,Business Corporation,Metropolitan Area Regional Office - New York City,"900 Woodbury Road
Woodbury, NY 11797
(40.797807, -73.486478)"
Ingersoll Place,3359 Consaul Road,Schenectady,Schenectady,12304,5183704419,5183939410,15006,"Ingersoll Adult Home, Inc.",650-E-007,78,,78,8,17,Adult Home,Not for Profit Corporation,Capital District Regional Office,"3359 Consaul Road
Schenectady, NY 12304
(42.779945, -73.887993)"
The Pines at Heartwood,2405 Fifteenth Street,Rensselaer,Troy,12180,5182669654,5182660346,14965,"Troy Crossings, Llc",600-F-250,86,86,,,,Adult Home,LLC,Capital District Regional Office,"2405 Fifteenth Street
Troy, NY 12180
(42.739964, -73.674617)"
Atria Briarcliff Manor,1025 Pleasantville Road,Westchester,Briarcliff Manor,10510,9149234400,9149443055,15132,"ATR New York LH, Inc.",800-F-996,200,,,,,Adult Home,Business Corporation,Metropolitan Area Regional Office - New York City,"1025 Pleasantville Road
Briarcliff Manor, NY 10510
(41.146464, -73.827179)"
Home of the Good Shepherd at Highpointe,26 Rock Rose Way,Saratoga,Malta,12020,5185812800,5185812888,14997,"The Church Aid of the Protestant Episcopal Church in the Town of Saratoga Springs, Inc.",640-E-036,86,,86,41,16,Adult Home,Not for Profit Corporation,Capital District Regional Office,"26 Rock Rose Way
Malta, NY 12020
(42.983189, -73.79095)"
All American Assisted Living at Coram,463 Middle Country Road,Suffolk,Coram,11727,6314483768,6313203520,15163,"GK Coram Operating, LLC",700-S-317,112,,112,84,24,Enriched Housing Program,LLC,Metropolitan Area Regional Office - Long Island,"463 Middle Country Road
Coram, NY 11727
(40.868801, -73.008903)"
Massry Residence at Daughters of Sarah,182 Washington Ave. Extension,Albany,Albany,12203,5186890453,5186890454,14607,"Daughters of Sarah Housing Company, Inc.",000-S-006,70,,70,25,,Enriched Housing Program,Not for Profit Corporation,Capital District Regional Office,"182 Washington Ave. Extension
Albany, NY 12203
(42.700455, -73.851942)"
Cumberland Gardens NY Foundation EHP #6,425 Cumberland Street,Kings,Brooklyn,11201,7186238181,7186232809,14753,"New York Foundation for Senior Citizens, Inc.",331-S-003,47,,,,,Enriched Housing Program,Not for Profit Corporation,Metropolitan Area Regional Office - New York City,
Brightview Lake Tappan,31 Hunt Road,Rockland,Orangeburg,10962,8458672333,8454588271,14992,"BV Lake Tappan Operator, LLC",620-F-097,85,,85,85,28,Adult Home,LLC,Metropolitan Area Regional Office - New York City,"31 Hunt Road
Orangeburg, NY 10962
(41.042771, -73.985744)"
The Clark Manor House,318 Fort Hill Avenue,Ontario,Canandaigua,14424,5853940965,5853943575,14910,The Clark Manor House,530-E-002,17,,,,,Adult Home,Not for Profit Corporation,Western Regional Office - Buffalo,"318 Fort Hill Avenue
Canandaigua, NY 14424
(42.899727, -77.273498)"
Garden House,2720 North Forest Road,Erie,Getzville,14068,7166393311,7166393309,14712,"Menorah Campus Adult Home, Inc.",240-S-121,48,,48,33,24,Enriched Housing Program,Not for Profit Corporation,Western Regional Office - Buffalo,
Green Briar Adult Home,26 Old Route 82,Dutchess,Millbrook,12545,8456779997,8456776278,14674,"Green Briar Adult Home, LLC",230-F-072,53,,,,,Adult Home,LLC,Metropolitan Area Regional Office - New York City,"26 Old Route 82
Millbrook, NY 12545
(41.772203, -73.700175)"
The Bristal at East Northport,760 Larkfield Road,Suffolk,East Northport,11731,6318580100,6315806421,15075,"Engel Burman Sr. Housing at East Northport, LLC",700-S-303,166,,166,17,32,Enriched Housing Program,LLC,Metropolitan Area Regional Office - Long Island,"760 Larkfield Road
East Northport, NY 11731
(40.837566, -73.313365)"
Elm York Home for Adults,100-30 Ditmars Boulevard,Queens,East Elmhurst,11369,7184467900,7184467938,14951,Elm York LLC,590-F-319,262,200,,,,Adult Home,LLC,Metropolitan Area Regional Office - New York City,"100-30 Ditmars Boulevard
East Elmhurst, NY 11369
(40.769673, -73.869857)"
The Bixby Home,8342 North Main Street,Seneca,Interlaken,14847,6075324488,6075324487,15015,"Deborah Bixby, Richard Bixby",680-F-010,24,,,,,Adult Home,Individual,Western Regional Office - Buffalo,"8342 North Main Street
Interlaken, NY 14847
(42.620023, -76.72495)"
The Bristal at Armonk,90 Business Park Drive,Westchester,Armonk,10504,9142692375,9142195873,15144,Armonk Senior Care LLC,800-S-151,171,,171,55,40,Enriched Housing Program,LLC,Metropolitan Area Regional Office - New York City,"90 Business Park Drive
Armonk, NY 10504
(41.12147, -73.708107)"
Wavecrest Home for Adults,242 Beach 20th Street,Queens,Far Rockaway,11691,7184715500,7184710734,14945,"Wavecrest Hfa, Inc.",590-F-301,120,,,,,Adult Home,Business Corporation,Metropolitan Area Regional Office - New York City,"242 Beach 20th Street
Far Rockaway, NY 11691
(40.596654, -73.754204)"
Bida Adult Home,4 Washington Park Rd,Chenango,Oxford,13830,6078436769,6078436874,14659,William J. Lyons,080-F-010,28,,,,,Adult Home,Individual,Central New York Regional Office,"4 Washington Park Rd
Oxford, NY 13830
(42.439436, -75.592594)"
Woodbrook,1250 Maple Avenue,Chemung,Elmira,14904,6077347741,6077345636,14657,"Woodbrook Assisted Living, Inc.",070-E-011,80,,80,,,Adult Home,Not for Profit Corporation,Western Regional Office - Buffalo,"1250 Maple Avenue
Elmira, NY 14904
(42.067973, -76.786311)"
Jeff Senior Living,4804 Route 52- East Main Street,Sullivan,Jeffersonville,12748,8454824375,8456275405,15083,"The W Group at Jeffersonville, LLC",710-F-066,11,,,,,Adult Home,LLC,Metropolitan Area Regional Office - New York City,
The Vincent Bove Center at Jefferson Ferry,One Jefferson Ferry Drive,Suffolk,South Setauket,11720,6316502600,6316502620,15072,"Active Retirement Community, Inc.",700-S-291,87,,87,87,,Enriched Housing Program,Not for Profit Corporation,Metropolitan Area Regional Office - Long Island,
North Brook Heights Home for Adults,170 Murray Street Extension,Cayuga,Auburn,13021,3152532755,3152529970,14644,"North Brook Heights Home For Adults, Inc.",050-F-022,178,92,,,,Adult Home,Business Corporation,Central New York Regional Office,"170 Murray Street Extension
Auburn, NY 13021
(42.950298, -76.555111)"
The Inn at Millbrook,560 Flint Road,Dutchess,Millbrook,12545,8456778550,8456778630,14672,"The Fountains Operating Company (NY), Inc.",230-F-066,40,,40,40,,Adult Home,Business Corporation,Metropolitan Area Regional Office - New York City,"560 Flint Road
Millbrook, NY 12545
(41.73883, -73.664197)"
The Bristal at North Woodmere,477 Hungry Harbor Road,Nassau,North Woodmere,11581,5163362600,5167925402,14837,Hungry Harbor Care LLC,400-S-304,155,,,,,Enriched Housing Program,LLC,Metropolitan Area Regional Office - Long Island,"477 Hungry Harbor Road
North Woodmere, NY 11581
(40.644421, -73.723608)"
Sunrise at East 56th,139 East 56th Street,New York,New York,10022,2124791200,2123715032,15246,GWC-East 56th Street Inc.,420-S-399,182,,182,182,112,Enriched Housing Program,Business Corporation,Metropolitan Area Regional Office - New York City,"139 East 56th Street
New York, NY 10022
(40.760137, -73.969373)"
"The Eliot at Troy, LLC",2902 Upper Tibbits Avenue,Rensselaer,Troy,12180,5182732040,5182731542,14966,"The Eliot At Troy, Llc",600-F-252,155,95,,,,Adult Home,LLC,Capital District Regional Office,"2902 Upper Tibbits Avenue
Troy, NY 12180
(42.73024, -73.663734)"
The Regency at Glen Cove,94 School Street,Nassau,Glen Cove,11542,5166743007,5166744144,14811,"National Healthplex, Inc.",400-E-290,143,,143,25,35,Adult Home,Not for Profit Corporation,Metropolitan Area Regional Office - Long Island,"94 School Street
Glen Cove, NY 11542
(40.867134, -73.630766)"
The Fountains at RiverVue,1 Rivervue Place,Westchester,Tuckahoe,10707,9147686000,9147686020,15125,"The Fountains Operating Company (NY), Inc.",800-F-981,141,,141,141,24,Adult Home,Business Corporation,Metropolitan Area Regional Office - New York City,"1 Rivervue Place
Tuckahoe, NY 10707
(40.95218, -73.827927)"
St. Nicholas Home,437 Ovington Avenue,Kings,Brooklyn,11209,7182388141,7186802035,14739,St. Nicholas Home Inc.,331-E-125,75,,,,,Adult Home,Not for Profit Corporation,Metropolitan Area Regional Office - New York City,"437 Ovington Avenue
Brooklyn, NY 11209
(40.633281, -74.022905)"
Shire Senior Living Assisted Living Program,2515 Culver Road,Monroe,Rochester,14609,5854674544,5853382877,14780,Shire Senior Living LLC,370-F-240,200,48,,,,Adult Home,LLC,Western Regional Office - Buffalo,
Palisade Gardens,185 Palisade Avenue,Westchester,Yonkers,10703,9149661300,9144232264,15123,Israel Orzel,800-F-971,106,,,,,Adult Home,Individual,Metropolitan Area Regional Office - New York City,"185 Palisade Avenue
Yonkers, NY 10703
(40.940349, -73.893304)"
Lutheran Home of Central New York,108 Utica Road,Oneida,Clinton,13323,3158535515,3158531977,14874,Lutheran Home of Central NY,510-E-007,68,,,,,Adult Home,Not for Profit Corporation,Central New York Regional Office,"108 Utica Road
Clinton, NY 13323
(43.056798, -75.364774)"
Missionary Sisters of St. Benedict,350 Cuba Hill Road,Suffolk,Huntington,11743,6313689528,6312661015,15023,Missionary Sisters Of St. Benedict,700-E-054,60,,,,,Adult Home,Not for Profit Corporation,Metropolitan Area Regional Office - Long Island,"350 Cuba Hill Road
Huntington, NY 11743
(40.846295, -73.336111)"
Judson Meadows,39 Swaggertown Road,Schenectady,Glenville,12302,5188312400,5188312405,15010,"Baptist Health Enriched Housing Program, Inc.",650-S-009,80,10,70,70,,Enriched Housing Program,Not for Profit Corporation,Capital District Regional Office,"39 Swaggertown Road
Glenville, NY 12302
(42.845715, -73.948664)"
The Pavilion at Robinson Terrace,One Buntline Drive,Delaware,Stamford,12167,6076522960,6076522962,14669,"RTACF, LLC",220-F-032,60,39,,,,Adult Home,LLC,Capital District Regional Office,
New Broadview Home for Adults,70 Father Capodanno Boulevard,Richmond,Staten Island,10305,7182738900,7187202415,14973,"The W Group At New Broadview, Llc",610-F-067,200,125,,,,Adult Home,LLC,Metropolitan Area Regional Office - New York City,"70 Father Capodanno Boulevard
Staten Island, NY 10305
(40.594185, -74.062877)"
The Mansion at South Union,11 South Union Street,Washington,Cambridge,12816,5186773711,5186770869,15103,"Icc Management & Consulting, Inc.",760-F-012,44,40,10,,10,Adult Home,Business Corporation,Capital District Regional Office,"11 South Union Street
Cambridge, NY 12816
(43.026405, -73.387127)"
Woodlawn Commons,156 Lawrence Street,Saratoga,Saratoga Springs,12866,5185874100,5185871773,15004,"Woodlawn Apartments, Inc.",640-S-001,42,,42,15,,Enriched Housing Program,Business Corporation,Capital District Regional Office,"156 Lawrence Street
Saratoga Springs, NY 12866
(43.089679, -73.789692)"
Yorktown Assisted Living Residence,2276 Catherine Street,Westchester,Cortlandt Manor,10567,9147372255,9147378822,15122,"Yalr Operating, Llc",800-F-134,85,45,40,,40,Adult Home,LLC,Metropolitan Area Regional Office - New York City,"2276 Catherine Street
Cortlandt Manor, NY 10567
(41.281497, -73.849794)"
Jeffersonville Senior Living,4806 Route 52,Sullivan,Jeffersonville,12748,8454824375,8456275405,15082,"The W Group at Jeffersonville, LLC",710-F-068,49,,,,,Adult Home,LLC,Metropolitan Area Regional Office - New York City,"4806 Route 52
Jeffersonville, NY 12748
(41.78022, -74.92961)"
Fox Run at Orchard Park,One Fox Run Lane,Erie,Orchard Park,14127,7166625001,7166626985,14707,"Orchard Park CCRC, Inc.",240-S-111,52,,52,,18,Enriched Housing Program,Not for Profit Corporation,Western Regional Office - Buffalo,
Rochester Presbyterian Home,256 Thurston Road,Monroe,Rochester,14619,5852359100,5852351315,14764,"Rochester Presbyterian Home, Inc.",370-E-022,102,,102,22,65,Adult Home,Not for Profit Corporation,Western Regional Office - Buffalo,"256 Thurston Road
Rochester, NY 14619
(43.139952, -77.650986)"
Clinton Crest Manor,411 Clinton Street,Yates,Penn Yan,14527,3155368800,3155319088,15149,"Harpending Housing, Inc.",910-E-004,42,,,,,Adult Home,Not for Profit Corporation,Western Regional Office - Buffalo,"411 Clinton Street
Penn Yan, NY 14527
(42.668957, -77.041582)"
The Hearth on James,830 James Street,Onondaga,Syracuse,13203,3154222173,3154267583,14908,"Hearth Management, L.L.C.",520-S-135,60,,,,,Enriched Housing Program,LLC,Central New York Regional Office,"830 James Street
Syracuse, NY 13203
(43.056782, -76.139464)"
White Plains Guest Home for Adults,32 Ridgeview Avenue,Westchester,White Plains,10606,9149498984,9149490802,15112,"Family Services Of Westchester, Inc.",800-E-134,15,,,,,Adult Home,Not for Profit Corporation,Metropolitan Area Regional Office - New York City,
L'Dor,156 West Clarkstown Road,Rockland,New City,10956,8453564108,8453560167,14983,Elliot Markowitz,620-F-076,44,,,,,Adult Home,Individual,Metropolitan Area Regional Office - New York City,
Kendal at Ithaca,2230 North Triphammer Road,Tompkins,Ithaca,14850,6072665300,6072665353,15087,"Kendal at Ithaca, Inc.",730-E-005,36,,36,36,,Adult Home,Not for Profit Corporation,Central New York Regional Office,"2230 North Triphammer Road
Ithaca, NY 14850
(42.475533, -76.481764)"
Heritage Home for Women,1519 Union Street,Schenectady,Schenectady,12309,5183746921,5183701873,15005,Heritage Home For Women,650-E-003,36,,,,,Adult Home,Not for Profit Corporation,Capital District Regional Office,"1519 Union Street
Schenectady, NY 12309
(42.807422, -73.911406)"
Kendal on Hudson,1010 Kendal Way,Westchester,Sleepy Hollow,10591,9149221000,9143329585,15138,Kendal On Hudson,800-S-134,47,,47,47,13,Enriched Housing Program,Not for Profit Corporation,Metropolitan Area Regional Office - New York City,"1010 Kendal Way
Sleepy Hollow, NY 10591
(41.108947, -73.866585)"
Oceanview Manor Home for Adults,3010 West 33rd Street,Kings,Brooklyn,11224,7189961500,7189469102,14742,"Oceanview Manor Home for Adults, Inc.",331-F-270,176,176,,,,Adult Home,Business Corporation,Metropolitan Area Regional Office - New York City,"3010 West 33rd Street
Brooklyn, NY 11224
(40.572429, -73.999092)"
"Evergreen Place, Enhanced, Assisted Living & Memory Care",90 West Avenue,Monroe,Brockport,14420,5856373140,5856373145,14798,Wegman Family (Brockport) LLC II,370-S-849,114,,114,80,34,Enriched Housing Program,LLC,Western Regional Office - Buffalo,"90 West Avenue
Brockport, NY 14420
(43.22008, -77.941979)"
The Bristal at Massapequa,400 County Line Road,Nassau,Massapequa,11758,5166910706,5166917204,14819,"EB CARE at Massapequa, LLC",400-F-315,84,,,,,Adult Home,LLC,Metropolitan Area Regional Office - Long Island,"400 County Line Road
Massapequa, NY 11758
(40.686036, -73.425797)"
Village Walk A Carlisle Assisted Living Community,131 East Main Street,Suffolk,Patchogue,11772,6315039000,6313174870,15063,"Carlisle Patchogue Operator, Inc",700-F-941,146,,146,146,46,Adult Home,Business Corporation,Metropolitan Area Regional Office - Long Island,"131 East Main Street
Patchogue, NY 11772
(40.765771, -73.012009)"
Queens Adult Care Center,80-08 45th Avenue,Queens,Elmhurst,11373,7186391800,7188991917,14947,"Hofgur, LLC",590-F-309,352,200,,,,Adult Home,LLC,Metropolitan Area Regional Office - New York City,"80-08 45th Avenue
Elmhurst, NY 11373
(40.741456, -73.88431)"
The Athenaeum of Skaneateles,150 Genesee Street,Onondaga,Skaneateles,13152,3156851400,3156851407,14894,Peregrine Properties of Skaneateles LLC,520-F-159,16,,,,,Adult Home,LLC,Central New York Regional Office,"150 Genesee Street
Skaneateles, NY 13152
(42.944542, -76.418916)"
Parkview Home for Adults,3200 Bronx Boulevard,Bronx,Bronx,10467,7185479300,7185198378,14615,"Parkview Hfa, Inc.",020-F-131,134,,,,,Adult Home,Business Corporation,Metropolitan Area Regional Office - New York City,"3200 Bronx Boulevard
Bronx, NY 10467
(40.871821, -73.870523)"
Orchard Grove Residences,2000 Southwestern Drive W. E.,Chautauqua,Jamestown,14701,7163381600,7169856690,14650,The Gerry Homes,060-E-040,36,30,,,,Adult Home,Not for Profit Corporation,Western Regional Office - Buffalo,
Kings Adult Care Center,2255 Cropsey Avenue,Kings,Brooklyn,11214,7182665858,7182666406,14747,"Kings Adult Care Center, Llc",331-F-281,200,200,,,,Adult Home,LLC,Metropolitan Area Regional Office - New York City,"2255 Cropsey Avenue
Brooklyn, NY 11214
(40.59579, -73.996888)"
Crimson Ridge Meadows,3 Treeline Drive,Monroe,Rochester,14612,5857209330,5857209331,14776,"Peregrine Properties of Upstate, LLC",370-F-227,52,,,,,Adult Home,LLC,Western Regional Office - Buffalo,"3 Treeline Drive
Rochester, NY 14612
(43.251394, -77.67454)"
The Eliot at New Rochelle,41 Lockwood Ave.,Westchester,New Rochelle,10801,9143039710,9143039715,15117,"The Eliot at New Rochelle, LLC",800-F-011,200,200,,,,Adult Home,LLC,Metropolitan Area Regional Office - New York City,"41 Lockwood Ave.
New Rochelle, NY 10801
(40.914233, -73.786373)"
Grande'Vie Senior Living,2140 Five Mile Line Road,Monroe,Penfield,14526,5207974000,5207977757,14784,"Rochester Operating Company, LLC",370-F-250,178,,178,47,47,Adult Home,LLC,Western Regional Office - Buffalo,"2140 Five Mile Line Road
Penfield, NY 14526
(43.128733, -77.475909)"
The Terraces at Brookmeade,54 Brookmeade Drive,Dutchess,Rhinebeck,12572,8458765522,8458711391,14679,"Brookview, Inc.",230-S-001,29,,29,29,,Enriched Housing Program,Not for Profit Corporation,Metropolitan Area Regional Office - New York City,
Keene Valley Neighborhood House,1782 Route 73,Essex,Keene Valley,12943,5185764474,5185762012,14718,"Keene Valley Neighborhood Services, Inc.",260-E-006,50,,50,,,Adult Home,Not for Profit Corporation,Capital District Regional Office,"1782 Route 73
Keene Valley, NY 12943
(44.189592, -73.786474)"
Atria West 86,333 West 86th Street,New York,New York,10024,2127120200,2127120690,14861,"ATR New York LH, Inc.",420-S-389,189,,,,,Enriched Housing Program,Business Corporation,Metropolitan Area Regional Office - New York City,"333 West 86th Street
New York, NY 10024
(40.789507, -73.979341)"
Sedgwick Heights,1100 James Street,Onondaga,Syracuse,13203,3154754388,3154751911,14886,"Loretto Adult Community, Inc.",520-E-091,154,149,,,,Adult Home,Not for Profit Corporation,Central New York Regional Office,"1100 James Street
Syracuse, NY 13203
(43.06103, -76.130797)"
Elderwood Assisted Living at West Seneca,580 Orchard Park Road,Erie,West Seneca,14224,7166774242,7166770883,14711,"580 Orchard Park Road Operating Company, Llc",240-S-119,128,24,128,19,,Enriched Housing Program,LLC,Western Regional Office - Buffalo,"580 Orchard Park Road
West Seneca, NY 14224
(42.831525, -78.777818)"
Kenwood Manor,141 Rockefeller Road,Albany,Delmar,12054,5184398899,5184751690,14598,"Delmar AH Operations Associates, LLC",000-F-317,67,,,,,Adult Home,LLC,Capital District Regional Office,"141 Rockefeller Road
Delmar, NY 12054
(42.625193, -73.802946)"
The Terrace at Glen Eddy,1 Ascot Lane,Schenectady,Niskayuna,12309,5182808361,5182808396,15011,Glen Eddy Inc.,650-S-067,53,,,,,Enriched Housing Program,Not for Profit Corporation,Capital District Regional Office,"1 Ascot Lane
Niskayuna, NY 12309
(42.776027, -73.878175)"
Brookdale Hospital Medical Center ALP,558-578 Rockaway Parkway,Kings,Brooklyn,11212,7182406225,7182406851,14752,Brookdale Hospital Medical Center,331-S-001,43,43,,,,Enriched Housing Program,Not for Profit Corporation,Metropolitan Area Regional Office - New York City,"558-578 Rockaway Parkway
Brooklyn, NY 11212
(40.655163, -73.913488)"
Green Hills Estate,1 South Route 9W,Rockland,Haverstraw,10927,8454298411,8459472668,14981,"Green Hills Estate, L.L.C",620-F-038,164,51,,,,Adult Home,LLC,Metropolitan Area Regional Office - New York City,"1 South Route 9W
Haverstraw, NY 10927
(41.20973, -73.985544)"
Gables Home for Adults,127 Rider Avenue,Suffolk,Patchogue,11772,6314753857,6314753857,15044,"Gables Holding Company, Inc.",700-F-909,24,,,,,Adult Home,Business Corporation,Metropolitan Area Regional Office - Long Island,"127 Rider Avenue
Patchogue, NY 11772
(40.760676, -73.008719)"
Elderwood Village at Vestal,505 Clubhouse Road,Broome,Vestal,13850,6077223422,6077225841,14632,"505 Clubhouse Road Operating Company, LLC",030-F-060,116,,,,,Adult Home,LLC,Central New York Regional Office,
Westchester Center for Independent and Assisted Living,75 Stratton Street South,Westchester,Yonkers,10701,9147877400,.,15128,"Westchester ALP Management, LLC",800-F-990,195,195,,,,Adult Home,LLC,Metropolitan Area Regional Office - New York City,"75 Stratton Street South
Yonkers, NY 10701
(40.943006, -73.876041)"
Sunrise of North Lynbrook,53 Franklin Avenue,Nassau,Lynbrook,11563,5165962377,5165962378,14826,"SZR New York LH, Inc.",400-F-328,138,,138,138,29,Adult Home,Business Corporation,Metropolitan Area Regional Office - Long Island,"53 Franklin Avenue
Lynbrook, NY 11563
(40.670366, -73.673069)"
The New Village View SP LLC,1 Grove Street,Ulster,Highland,12528,8456918399,8456912390,15097,The New Village View SP LLC,740-F-084,80,46,,,,Adult Home,LLC,Metropolitan Area Regional Office - New York City,
Elderwood Village at Colonie,626 Watervliet-Shaker Road,Albany,Latham,12110,5187838695,5187835459,14604,"626 Watervliet Shaker Road Operating Company, LLC",000-F-314,94,,,,,Adult Home,LLC,Capital District Regional Office,"626 Watervliet-Shaker Road
Latham, NY 12110
(42.737274, -73.767909)"
NY Found-Sr Citizens EHP#3,1850 Second Avenue,New York,New York,10128,2123695523,2123487451,14855,"New York Foundation for Senior Citizens, Inc.",420-S-370,39,,,,,Enriched Housing Program,Not for Profit Corporation,Metropolitan Area Regional Office - New York City,"1850 Second Avenue
New York, NY 10128
(40.78401, -73.947259)"
Pounder Hall EHP,1400 Utica Street,Oneida,Oriskany,13424,3157361759,3157684751,14883,"Pounder Hall, Inc.",510-S-062,10,,,,,Enriched Housing Program,Not for Profit Corporation,Central New York Regional Office,"1400 Utica Street
Oriskany, NY 13424
(43.161788, -75.341174)"
Sunrise of East Setauket,1 Sunrise Drive,Suffolk,East Setauket,11733,6319414455,6319414455,15055,"GWC - East Setauket, Inc.",700-F-926,109,,109,109,40,Adult Home,Business Corporation,Metropolitan Area Regional Office - Long Island,"1 Sunrise Drive
East Setauket, NY 11733
(40.93503, -73.109849)"
Brookdale Liverpool,4055 Long Branch Road,Onondaga,Liverpool,13090,3154513221,3154570305,14898,"Painted Post, LLC",520-F-165,80,,,,,Adult Home,LLC,Central New York Regional Office,"4055 Long Branch Road
Liverpool, NY 13090
(43.125056, -76.233055)"
Atria Park of Lynbrook,100 Peninsula Boulevard,Nassau,Lynbrook,11563,5165962700,5165961408,14824,"ATR New York LH, Inc.",400-F-326,140,,40,40,40,Adult Home,Business Corporation,Metropolitan Area Regional Office - Long Island,"100 Peninsula Boulevard
Lynbrook, NY 11563
(40.654902, -73.678811)"
Juniper Glen Alzheimer's Special Care Center,8820 Transit Road,Erie,East Amherst,14051,7165682099,7165682089,14698,"Amherst Care Group, LLC",240-F-894,66,,66,66,66,Adult Home,LLC,Western Regional Office - Buffalo,"8820 Transit Road
East Amherst, NY 14051
(43.00872, -78.696935)"
The Club at Briarcliff Manor,25 Scarborough Road,Westchester,Briarcliff Manor,10510,9146185496,9148014953,15147,"SL Briarcliff Manor Operator, Inc.",800-S-157,145,,145,108,37,Enriched Housing Program,Business Corporation,Metropolitan Area Regional Office - New York City,"25 Scarborough Road
Briarcliff Manor, NY 10510
(41.144247, -73.840734)"
Promenade at University Place,1228 Western Avenue,Albany,Albany,12203,5185149500,5185149400,14605,Promenade Albany LLC,000-F-315,200,169,200,31,32,Adult Home,LLC,Capital District Regional Office,"1228 Western Avenue
Albany, NY 12203
(42.678062, -73.828164)"
"Rebekah Rehab Assisted Living Program, Inc.",1050 Havemeyer Avenue,Bronx,Bronx,10462,7188636200,9145302170,14623,"Rebekah Rehab Assisted Living Program, Inc.",020-S-005,56,56,,,,Enriched Housing Program,Not for Profit Corporation,Metropolitan Area Regional Office - New York City,"1050 Havemeyer Avenue
Bronx, NY 10462
(40.829896, -73.847396)"
Oyster Bay Manor,150 South Street,Nassau,Oyster Bay,11771,5166240600,5166247764,14818,"Oyster Bay Manor, Inc.",400-F-313,72,,72,,,Adult Home,Business Corporation,Metropolitan Area Regional Office - Long Island,"150 South Street
Oyster Bay, NY 11771
(40.87053, -73.531225)"
Robynwood Assisted Living,43 Walnut Street,Otsego,Oneonta,13820,6074326387,6076430195,14937,Robynwood ALP LLC,570-F-053,49,48,,,,Adult Home,LLC,Capital District Regional Office,"43 Walnut Street
Oneonta, NY 13820
(42.457588, -75.058852)"
Manlius Home for Adults,215 East Pleasant Street,Onondaga,Manlius,13104,3156826725,3156823320,14899,215 East Pleasant Street LLC,520-F-167,39,32,,,,Adult Home,LLC,Central New York Regional Office,"215 East Pleasant Street
Manlius, NY 13104
(43.003205, -75.977053)"
Artis Senior Living of Chestnut Ridge,801 Chestnut Ridge Road,Rockland,Chestnut Ridge,10977,8459208341,8459208345,14993,"Artis Senior Living Operator of Chestnut Ridge, LLC",620-F-099,64,,64,64,64,Adult Home,LLC,Metropolitan Area Regional Office - New York City,"801 Chestnut Ridge Road
Chestnut Ridge, NY 10977
(41.083736, -74.05725)"
Glenwell,2248 Old Union Road,Erie,Cheektowaga,14227,7166087000,7166080151,14683,"DePaul Adult Care Communities, Inc.",240-E-146,120,25,95,,24,Adult Home,Not for Profit Corporation,Western Regional Office - Buffalo,"2248 Old Union Road
Cheektowaga, NY 14227
(42.871495, -78.755777)"
Brookdale Clinton,115 Brookside Drive,Oneida,Clinton,13323,3158591947,3158591949,14880,"Clinton Sterling Cottage Operator, Inc.",510-F-057,40,,,,,Adult Home,Business Corporation,Central New York Regional Office,"115 Brookside Drive
Clinton, NY 13323
(43.038172, -75.359817)"
St. Louise Manor,861 Front Street,Broome,Binghamton,13905,6077244000,6077248300,14628,UMH NY Corp.,030-E-052,52,29,,,,Adult Home,Not for Profit Corporation,Central New York Regional Office,"861 Front Street
Binghamton, NY 13905
(42.130683, -75.905919)"
Apple Gate Adult Home,400 Ohio Street,Orleans,Medina,14103,5857983420,5857985662,14928,"Alan R. Johnson, II  Alan R. Johnson",550-F-004,28,,,,,Adult Home,Individual,Western Regional Office - Buffalo,"400 Ohio Street
Medina, NY 14103
(43.221681, -78.397016)"
Amber Court  of Smithtown,130-132 Lake Avenue,Suffolk,Nesconset,11767,6317681000,6316568822,15065,Amber Court @ Suffolk County LLC,700-F-945,186,168,,,,Adult Home,LLC,Metropolitan Area Regional Office - Long Island,"130-132 Lake Avenue
Nesconset, NY 11767
(40.854219, -73.153844)"
Family Srvs/Rochester EHP3 Hudson-Ridge Towers,401 Seneca Manor Drive,Monroe,Rochester,14621,5852665610,5852323062,14789,"Family Service Of Rochester, Inc.",370-S-191,47,,,,,Enriched Housing Program,Not for Profit Corporation,Western Regional Office - Buffalo,"401 Seneca Manor Drive
Rochester, NY 14621
(43.193662, -77.603585)"
Promenade at Middletown,70 Fulton Street,Orange,Middletown,10940,8453411888,8453445577,14921,Promenade Middletown LLC,540-F-032,200,131,,,,Adult Home,LLC,Metropolitan Area Regional Office - New York City,"70 Fulton Street
Middletown, NY 10940
(41.441508, -74.420579)"
Presbyterian Residential Community,4300 Middle Settlement Road,Oneida,New Hartford,13413,3157249300,3157929503,14877,"Presbyterian Residential Community, Inc.",510-E-065,96,78,,,,Adult Home,Not for Profit Corporation,Central New York Regional Office,"4300 Middle Settlement Road
New Hartford, NY 13413
(43.073771, -75.34243)"
"Cedarbrook Village, Incorporated",101 Sitrin Lane,Oneida,New Hartford,13413,3157372227,3157976955,14884,"Cedarbrook Village, Inc.",510-S-064,65,21,,,,Enriched Housing Program,Not for Profit Corporation,Central New York Regional Office,"101 Sitrin Lane
New Hartford, NY 13413
(43.055599, -75.237715)"
The Bristal at Westbury,117 Post Ave.,Nassau,Westbury,11590,5163339828,5169184002,14836,Westbury Senior Living Inc.,400-S-300,180,,,,,Enriched Housing Program,Business Corporation,Metropolitan Area Regional Office - Long Island,"117 Post Ave.
Westbury, NY 11590
(40.752375, -73.587785)"
The Landing at Queensbury,27 Woodvale Road,Warren,Queensbury,12804,5187935556,5187939863,15102,Wegman Family (Glens Falls) LLC V,750-S-003,88,,,,,Enriched Housing Program,LLC,Capital District Regional Office,"27 Woodvale Road
Queensbury, NY 12804
(43.334371, -73.662157)"
Woodhaven Home for Adults,1350 Route 112,Suffolk,Port Jefferson Sta.,11776,6314733304,6314730048,15042,"Woodhaven A.H., LLC",700-F-905,181,175,,,,Adult Home,LLC,Metropolitan Area Regional Office - Long Island,"1350 Route 112
Port Jefferson Sta., NY 11776
(40.917038, -73.036199)"
Chenango Valley Home,24 Canasawacta Street,Chenango,Norwich,13815,6073346598,6073366625,14658,"The Chenango Valley Home, Inc.",080-E-002,32,,,,,Adult Home,Not for Profit Corporation,Central New York Regional Office,
VillageCare at 46 and Ten,510 West 46th Street,New York,New York,10036,2129774600,2129774848,14858,Village Housing Development Fund Corporation,420-S-379,89,89,,,,Enriched Housing Program,Not for Profit Corporation,Metropolitan Area Regional Office - New York City,"510 West 46th Street
New York, NY 10036
(40.762415, -73.994175)"
Brightview Sayville,455 Broadway Avenue,Suffolk,Sayville,11782,6315460302,6313199770,15066,"BV Sayville Operator, LLC",700-F-947,92,,92,92,28,Adult Home,LLC,Metropolitan Area Regional Office - Long Island,"455 Broadway Avenue
Sayville, NY 11782
(40.766721, -73.066231)"
Bridges Cornell Heights - The Colonial,403 Wyckoff Avenue,Tompkins,Ithaca,14850,6072575777,6072573565,15089,"Ambrose, Elizabeth Classen",730-F-002,9,,9,9,,Adult Home,Individual,Central New York Regional Office,"403 Wyckoff Avenue
Ithaca, NY 14850
(42.455505, -76.484194)"
The Arbors at Bohemia,1065 Smithtown Avenue,Suffolk,Bohemia,11716,6315673113,6315673116,15046,"Arcadia Management, Inc.",700-F-913,200,,200,,,Adult Home,Business Corporation,Metropolitan Area Regional Office - Long Island,"1065 Smithtown Avenue
Bohemia, NY 11716
(40.76801, -73.108536)"
Peregrine's Landing at Orchard Park,101 Sterling Drive,Erie,Orchard Park,14127,7166751022,7166751007,14686,"Peregrine Properties of Upstate, LLC",240-F-827,52,,,,,Adult Home,LLC,Western Regional Office - Buffalo,
Meadowview at the Wartburg,2 Wartburg Place,Westchester,Mount Vernon,10552,9146990800,9146992512,15135,"Wartburg Senior Housing, Inc.",800-S-125,105,,105,15,15,Enriched Housing Program,Not for Profit Corporation,Metropolitan Area Regional Office - New York City,"2 Wartburg Place
Mount Vernon, NY 10552
(40.917669, -73.813138)"
Madison York Home for Adults,61-80 Woodhaven Boulevard,Queens,Rego Park,11374,7184464300,7188998126,14953,"Madison York Rego Park, LLC",590-F-321,202,200,,,,Adult Home,LLC,Metropolitan Area Regional Office - New York City,"61-80 Woodhaven Boulevard
Rego Park, NY 11374
(40.727066, -73.870752)"
Brookdale Niskayuna,1786 Union Street,Schenectady,Niskayuna,12309,5183466935,5183813945,15012,"WW Niskayuna Operator, Inc.",650-S-071,110,,110,110,,Enriched Housing Program,Business Corporation,Capital District Regional Office,"1786 Union Street
Niskayuna, NY 12309
(42.801437, -73.897492)"
NY Found-Sr Citizens EHP#4 Ridge Street Gardens,80-92 Ridge Street,New York,New York,10002,2125984148,2125984092,14856,"New York Foundation for Senior Citizens, Inc.",420-S-375,47,,,,,Enriched Housing Program,Not for Profit Corporation,Metropolitan Area Regional Office - New York City,"80-92 Ridge Street
New York, NY 10002
(40.717972, -73.983693)"
The Amsterdam at Harborside,300 East Overlook,Nassau,Port Washington,11050,5164726626,5164726698,14843,"Amsterdam House Continuing Care Retirement Community, Inc.",400-S-320,55,,55,18,18,Enriched Housing Program,Not for Profit Corporation,Metropolitan Area Regional Office - Long Island,"300 East Overlook
Port Washington, NY 11050
(40.827119, -73.664992)"
The Arbors at Westbury,45 Jericho Turnpike,Nassau,Jericho,11753,5163336400,5168760473,14816,"Arcadia Management, Inc.",400-F-307,200,,200,,,Adult Home,Business Corporation,Metropolitan Area Regional Office - Long Island,"45 Jericho Turnpike
Jericho, NY 11753
(40.777931, -73.564291)"
Focus Senior Living at Utica,1445 Kemble Street,Oneida,Utica,13501,3157320100,3157322342,14882,"Utica AH Operations Associates, LLC",510-S-061,110,96,,,,Enriched Housing Program,LLC,Central New York Regional Office,"1445 Kemble Street
Utica, NY 13501
(43.093115, -75.242471)"
The Willows,459 East Oak Orchard Street,Orleans,Medina,14103,5857985233,5857985827,14929,"Blue Heron Enterprises,  LLC",550-F-005,24,,,,,Adult Home,LLC,Western Regional Office - Buffalo,"459 East Oak Orchard Street
Medina, NY 14103
(43.215692, -78.372765)"
The Village at Mill Landing,45 Mill Road,Monroe,Rochester,14626,5857203033,5857203031,14802,WRP Operating Greece LLC,370-S-859,150,,150,75,55,Enriched Housing Program,LLC,Western Regional Office - Buffalo,"45 Mill Road
Rochester, NY 14626
(43.231208, -77.701255)"
Chelsea at Greenburgh,715 Dobbs Ferry Road,Westchester,Greenburgh,10607,9142750010,9145920859,15115,"CRP/CSH Greenburgh Operator, Inc.",800-F-004,137,,137,106,31,Adult Home,Business Corporation,Metropolitan Area Regional Office - New York City,"715 Dobbs Ferry Road
Greenburgh, NY 10607
(41.035028, -73.822776)"
Metro Interfaith Housing,21 New Street,Broome,Binghamton,13903,6077726766,6077239602,14636,Metro Interfaith Housing Management Corporation,030-S-046,11,,,,,Enriched Housing Program,Not for Profit Corporation,Central New York Regional Office,"21 New Street
Binghamton, NY 13903
(42.090241, -75.911192)"
Home Sweet Home on the Hudson,38 Prospect Avenue,Greene,Catskill,12414,5189435701,5189435033,14729,"The W Group At Catskill, Llc",300-F-032,60,48,,,,Adult Home,LLC,Capital District Regional Office,"38 Prospect Avenue
Catskill, NY 12414
(42.21696, -73.859314)"
Brookdale Painted Post,120 Creekside Drive,Steuben,Painted Post,14870,6079625096,6079373130,15022,"Painted Post, LLC",690-F-044,110,,,,,Adult Home,LLC,Western Regional Office - Buffalo,"120 Creekside Drive
Painted Post, NY 14870
(42.14304, -77.123571)"
Seabury Woods,110 Dalaker Drive,Monroe,Rochester,14624,5854264950,5854294625,14795,"CH Services, Inc.",370-S-841,85,,85,8,24,Enriched Housing Program,Not for Profit Corporation,Western Regional Office - Buffalo,"110 Dalaker Drive
Rochester, NY 14624
(43.14005, -77.741231)"
Boulevard ALP,71-61 159th Street,Queens,Flushing,11365,7189698102,7189698128,14963,Queens Boulevard ALP LLC,590-S-317,239,200,,,,Enriched Housing Program,LLC,Metropolitan Area Regional Office - New York City,
Park Creek Senior Living Community,410 Mill Street,Erie,Amherst,14221,7166323000,7166323003,14692,Mill Street Assisted Living LLC,240-F-876,94,,,,,Adult Home,LLC,Western Regional Office - Buffalo,"410 Mill Street
Amherst, NY 14221
(42.975422, -78.744416)"
Heritage at The Plains at Parish Homestead,163 Heritage Circle,Otsego,Oneonta,13820,6072674013,6072674971,14936,"CSL Heritage AL, Inc.",570-F-051,53,,53,,16,Adult Home,Business Corporation,Capital District Regional Office,
Vassar-Warner Home,52 South Hamilton Street,Dutchess,Poughkeepsie,12601,8454543754,8454546967,14670,Vassar-Warner Home,230-E-014,58,24,,,,Adult Home,Not for Profit Corporation,Metropolitan Area Regional Office - New York City,"52 South Hamilton Street
Poughkeepsie, NY 12601
(41.699284, -73.924999)"
Leroy Manor,8678 Lake Street Road,Genesee,Leroy,14482,5857686291,5857686293,14726,"Leroy Manor, LLC",290-F-005,79,79,,,,Adult Home,LLC,Western Regional Office - Buffalo,"8678 Lake Street Road
Leroy, NY 14482
(42.992925, -77.987994)"
Chester Hill Adult Home,187 Cottage Avenue,Westchester,Mount Vernon,10550,9146994294,9146657008,15126,187 Cottage Avenue Corporation,800-F-986,21,,,,,Adult Home,Business Corporation,Metropolitan Area Regional Office - New York City,"187 Cottage Avenue
Mount Vernon, NY 10550
(40.91756, -73.833427)"
Fredonia Place,50 Howard Street,Chautauqua,Fredonia,14063,7166792250,7166792259,14655,"Water/Howard Associates, LLC",060-S-003,84,,84,15,24,Enriched Housing Program,LLC,Western Regional Office - Buffalo,"50 Howard Street
Fredonia, NY 14063
(42.432002, -79.326923)"
"West Side Federation For Senior And Supportive Housing, Inc.",109 West 129th Street,New York,New York,10027,2123488513,2128604568,14851,"West Side Federation For Sr And Supportive Housing, Inc.",420-E-377,99,,,,,Adult Home,Not for Profit Corporation,Metropolitan Area Regional Office - New York City,"109 West 129th Street
New York, NY 10027
(40.810565, -73.944212)"
Horizons,3132 State Route 21 South,Ontario,Canandaigua,14424,5853963390,5853967332,14911,"DePaul Adult Care Communities, Inc.",530-E-051,76,34,,,,Adult Home,Not for Profit Corporation,Western Regional Office - Buffalo,"3132 State Route 21 South
Canandaigua, NY 14424
(42.8735, -77.308397)"
The Glen at Maple Pointe,260 Maple Avenue,Nassau,Rockville Center,11570,5167644848,5167644442,14841,"Maple Pointe Senior Care, Llc",400-S-316,83,36,,,,Enriched Housing Program,LLC,Metropolitan Area Regional Office - Long Island,"260 Maple Avenue
Rockville Center, NY 11570
(40.658221, -73.631765)"
Updyke's Willow Ridge Quality Care Facility,131 Hornell Street,Steuben,Hornell,14843,6073245417,6073241913,15020,"Josephine Updyke, Inc.",690-F-046,40,,,,,Adult Home,Individual,Western Regional Office - Buffalo,"131 Hornell Street
Hornell, NY 14843
(42.332593, -77.665732)"
Signature Senior Living,631 Foster Avenue,Kings,Brooklyn,11230,7188592400,7188597911,14740,"SMACF, Inc.",331-F-022,199,,,,,Adult Home,Business Corporation,Metropolitan Area Regional Office - New York City,"631 Foster Avenue
Brooklyn, NY 11230
(40.630493, -73.970516)"
Brookdale Niagara Memory Care,6751 Nash Road,Niagara,North Tonawanda,14120,7167311461,7167311521,14869,"Niagara Sterling Cottage Operator, Inc.",500-F-095,40,,,,,Adult Home,Business Corporation,Western Regional Office - Buffalo,"6751 Nash Road
North Tonawanda, NY 14120
(43.096421, -78.866377)"
Heathwood Assisted Living at Penfield,100 Elderwood Court,Monroe,Penfield,14526,5854259663,5853888632,14799,"Heathwood Assisted Living At Penfield, Inc.",370-S-852,151,25,151,25,24,Enriched Housing Program,Business Corporation,Western Regional Office - Buffalo,"100 Elderwood Court
Penfield, NY 14526
(43.13651, -77.441542)"
Brookdale Niagara Assisted Living,6741 Nash Road,Niagara,North Tonawanda,14120,7167311634,7167311823,14873,"SH Niagara Operator, Inc.",500-S-002,53,,53,53,,Enriched Housing Program,Business Corporation,Western Regional Office - Buffalo,"6741 Nash Road
North Tonawanda, NY 14120
(43.097462, -78.866425)"
Peregrine's Landing Senior Community,575 Cayuga Creek Road,Erie,Cheektowaga,14227,7168933000,7168933103,14706,"Peregrine's Landing, L.L.C",240-S-109,112,,112,25,22,Enriched Housing Program,LLC,Western Regional Office - Buffalo,"575 Cayuga Creek Road
Cheektowaga, NY 14227
(42.87806, -78.765465)"
Laurelwood at the Highlands,300 Hahnemann Trail,Monroe,Pittsford,14534,5853891630,5855864758,14792,Highland Community Development Corp.,370-S-835,68,,68,,,Enriched Housing Program,Not for Profit Corporation,Western Regional Office - Buffalo,"300 Hahnemann Trail
Pittsford, NY 14534
(43.085296, -77.497605)"
Atria Bay Shore,53 Ocean Ave.,Suffolk,Bay Shore,11706,6312061200,6312061300,15076,"ATR New York LH, Inc.",700-S-305,116,,,,,Enriched Housing Program,Business Corporation,Metropolitan Area Regional Office - Long Island,"53 Ocean Ave.
Bay Shore, NY 11706
(40.71693, -73.246931)"
Assisted Living at Jennings Hall,260 Powers Street,Kings,Brooklyn,11211,7187823390,7183876335,14754,St. Nicks Alliance Corp.,331-S-007,40,40,,,,Enriched Housing Program,Not for Profit Corporation,Metropolitan Area Regional Office - New York City,
Gallagher Home,517 North Lake Boulevard,Putnam,Mahopac,10541,8456287000,8456283132,14939,"Lake Mahopac Heights, LLC",580-F-003,16,,,,,Adult Home,LLC,Metropolitan Area Regional Office - New York City,"517 North Lake Boulevard
Mahopac, NY 10541
(41.391048, -73.735148)"
RPH East,20 Crossing Creek Drive,Monroe,Fairport,14450,5852230160,5852230140,14769,"Rochester Presbyterian Home, Inc.",370-E-204,64,,64,20,64,Adult Home,Not for Profit Corporation,Western Regional Office - Buffalo,"20 Crossing Creek Drive
Fairport, NY 14450
(43.065909, -77.406664)"
Hultquist Place,715 Falconer Street,Chautauqua,Jamestown,14701,7167209610,7167209609,14647,Lutheran Housing Realty Inc.,060-E-015,96,96,,,,Adult Home,Not for Profit Corporation,Western Regional Office - Buffalo,
Memory Garden,560 Fairmount Avenue,Chautauqua,Jamestown,14701,7164832876,7164832832,14653,"Memory Garden at Tanglewood, Inc.",060-F-040,56,56,56,,56,Adult Home,Business Corporation,Western Regional Office - Buffalo,"560 Fairmount Avenue
Jamestown, NY 14701
(42.097086, -79.272001)"
St. Columban's on the Lake,"2546 Lake Road, Route 5",Chautauqua,Silver Creek,14136,7169344515,7169343919,14645,"St Columban's on the Lake, Home for Well-Aged Inc.",060-E-008,57,,,,,Adult Home,Not for Profit Corporation,Western Regional Office - Buffalo,"2546 Lake Road, Route 5
Silver Creek, NY 14136
(42.533592, -79.230462)"
The Arbors at Hauppauge,1740 Express Drive South,Suffolk,Hauppauge,11788,6315823334,6315829450,15049,"Arcadia Management, Inc.",700-F-916,200,,200,,,Adult Home,Business Corporation,Metropolitan Area Regional Office - Long Island,"1740 Express Drive South
Hauppauge, NY 11788
(40.806651, -73.231415)"
Canterbury Woods,725 Renaissance Drive,Erie,Williamsville,14221,7169295150,7169295812,14704,"Episcopal Church Home & Affiliates Life Care Community, Inc.",240-S-106,32,,32,32,12,Enriched Housing Program,Not for Profit Corporation,Western Regional Office - Buffalo,"725 Renaissance Drive
Williamsville, NY 14221
(42.996438, -78.7229)"
Brookdale Manlius,100 Flume Road,Onondaga,Manlius,13104,3156829261,3156821129,14909,"WW Manlius Operator, Inc.",520-S-137,86,,86,86,,Enriched Housing Program,Business Corporation,Central New York Regional Office,"100 Flume Road
Manlius, NY 13104
(43.000543, -75.978845)"
Mary Agnes Manor ALP,307 Porter Avenue,Erie,Buffalo,14201,7168810565,7168810582,14689,"Mary Agnes Manor, LLC",240-F-868,230,70,230,,96,Adult Home,LLC,Western Regional Office - Buffalo,"307 Porter Avenue
Buffalo, NY 14201
(42.901967, -78.890912)"
Claremont Village ALP,1160 Teller Avenue,Bronx,Bronx,10456,7182931500,7189319700,14617,DOJ ALP Operations Associates LLC,020-F-135,70,70,,,,Adult Home,LLC,Metropolitan Area Regional Office - New York City,"1160 Teller Avenue
Bronx, NY 10456
(40.83171, -73.911944)"
Marian Woods,152 Ridge Road,Westchester,Hartsdale,10530,9147506000,9147506100,15111,"Marian Woods, Inc.",800-E-130,50,,,,,Adult Home,Not for Profit Corporation,Metropolitan Area Regional Office - New York City,"152 Ridge Road
Hartsdale, NY 10530
(41.020493, -73.806603)"
Brookhaven Care Center,111 Beaverdam Road,Suffolk,Brookhaven,11719,6312862500,6312866488,15034,Brookhaven Care Center LLC,700-F-290,182,181,,,,Adult Home,LLC,Metropolitan Area Regional Office - Long Island,"111 Beaverdam Road
Brookhaven, NY 11719
(40.772671, -72.934735)"
"Evergreen Court Home for Adults SP, LLC",65 Lafayette Street,Rockland,Spring Valley,10977,8453567700,8453526244,14984,"Evergreen Court Home for Adults SP, LLC",620-F-078,200,200,,,,Adult Home,LLC,Metropolitan Area Regional Office - New York City,"65 Lafayette Street
Spring Valley, NY 10977
(41.1149, -74.039551)"
Christian Fellowship House,369 Split Rock Road,Nassau,Syosset,11791,5169226040,5169226130,14810,Christian Fellowship,400-E-264,45,,,,,Adult Home,Not for Profit Corporation,Metropolitan Area Regional Office - Long Island,"369 Split Rock Road
Syosset, NY 11791
(40.838653, -73.514531)"
Pinecrest Home For Adults,7 Charlesworth Avenue,Steuben,Avoca,14809,6075662252,6075662253,15016,Pinecrest Voluntary Home For The Aged,690-E-001,17,,,,,Adult Home,Not for Profit Corporation,Western Regional Office - Buffalo,"7 Charlesworth Avenue
Avoca, NY 14809
(42.410416, -77.418373)"
Elderwood Village at Ticonderoga,101 Adirondack Drive Suite 201,Essex,Ticonderoga,12883,5185853871,5185852576,14721,"1019 Wicker Street AL Operating Company, LLC",260-F-020,23,,,,,Adult Home,LLC,Capital District Regional Office,
Alpine Manor,2714 Poplar Hill Road,Livingston,Lima,14485,5853465880,5853465011,14761,Louise Kinsella Thomas M. Kinsella Thomas E. Kinsella Mary E. Knapp,350-F-001,41,,,,,Adult Home,Individual,Western Regional Office - Buffalo,"2714 Poplar Hill Road
Lima, NY 14485
(42.867714, -77.655984)"
The Ambassador at Scarsdale,9 Saxon Woods Road,Westchester,White Plains,10605,6465280099,9144283785,15145,"KARP Scarsdale, LLC",800-S-153,138,,138,39,22,Enriched Housing Program,LLC,Metropolitan Area Regional Office - New York City,"9 Saxon Woods Road
White Plains, NY 10605
(40.989071, -73.746569)"
Parkwood Heights Senior Living Community,1340 Parkwood Drive,Wayne,Macedon,14502,3159869100,3159865970,15109,Parkwood Heights LLC,770-S-039,49,,,,,Enriched Housing Program,LLC,Western Regional Office - Buffalo,"1340 Parkwood Drive
Macedon, NY 14502
(43.061722, -77.31488)"
Inspir Carnegie Hill,1802 2nd Avenue,New York,New York,10128,6469789040,3323221227,14864,"Inspir Carnegie Hill, LLC",420-S-397,100,,100,50,,Enriched Housing Program,LLC,Metropolitan Area Regional Office - New York City,"1802 2nd Avenue
New York, NY 10128
(40.78249, -73.94839)"
Brookdale Lakewood,220 Southwestern Drive,Chautauqua,Lakewood,14750,7166652414,7166652978,14654,"Painted Post Properties, Inc.",060-S-001,100,,,,,Enriched Housing Program,Business Corporation,Western Regional Office - Buffalo,"220 Southwestern Drive
Lakewood, NY 14750
(42.094471, -79.295071)"
Somerset Gardens,150 Sunnyside Boulevard,Nassau,Plainview,11803,5165763330,5165761112,14842,"Somerset Gardens Senior Care, LLC",400-S-318,160,,,,,Enriched Housing Program,LLC,Metropolitan Area Regional Office - Long Island,"150 Sunnyside Boulevard
Plainview, NY 11803
(40.794416, -73.469793)"
Braemar Living at Wallkill,21 Riverside Drive,Orange,Middletown,10941,9143052230,8456955601,14923,"The Hamlet at Wallkill, LLC",540-F-036,200,88,112,60,24,Adult Home,LLC,Metropolitan Area Regional Office - New York City,"21 Riverside Drive
Middletown, NY 10941
(41.449694, -74.348998)"
Promenade at Blue Hill,582 Veterans Memorial Drive,Rockland,Pearl River,10965,8457356846,8457356855,14986,Promenade Blue Hill LLC,620-F-085,61,,61,40,30,Adult Home,LLC,Metropolitan Area Regional Office - New York City,
Ahana House,31 Sixth Street,Saratoga,Waterford,12188,5182380471,5182331168,14996,"Support Ministries, Inc",640-E-034,17,,,,,Adult Home,Not for Profit Corporation,Capital District Regional Office,"31 Sixth Street
Waterford, NY 12188
(42.793158, -73.680451)"
"The Shores at Peconic Landing Assisted Living Residence, Inc.",1600 Brecknock Road,Suffolk,Greenport,11944,6314773800,6314770061,15073,"The Shores at Peconic Landing Assisted Living Residence, Inc.",700-S-298,47,,47,20,16,Enriched Housing Program,Not for Profit Corporation,Metropolitan Area Regional Office - Long Island,"1600 Brecknock Road
Greenport, NY 11944
(41.119537, -72.36191)"
Brandywine Assisted Living at The Savoy,55-15 Little Neck Parkway,Queens,Little Neck,11362,7184237900,7184235050,14959,"Brandywine Assisted Living at The Savoy, LLC",590-S-305,160,,160,160,37,Enriched Housing Program,LLC,Metropolitan Area Regional Office - New York City,"55-15 Little Neck Parkway
Little Neck, NY 11362
(40.764913, -73.724406)"
Atria Plainview,12 Washington Avenue,Nassau,Plainview,11803,5169330002,5169330003,14827,"ATR New York LH, Inc.",400-F-329,99,,,,,Adult Home,Business Corporation,Metropolitan Area Regional Office - Long Island,"12 Washington Avenue
Plainview, NY 11803
(40.779076, -73.466302)"
The Terrace at Newark,208 Route 88 South,Wayne,Newark,14513,3153315282,3153315285,15108,"The Terrace At Newark, Inc.",770-F-037,71,32,39,,12,Adult Home,Business Corporation,Western Regional Office - Buffalo,"208 Route 88 South
Newark, NY 14513
(43.019288, -77.094171)"
"The Sentinel of Amsterdam, LLC",10 Market Street,Montgomery,Amsterdam,12010,5188960010,5188960015,14807,"The Sentinel of Amsterdam, LLC",380-F-047,150,129,21,21,,Adult Home,LLC,Capital District Regional Office,"10 Market Street
Amsterdam, NY 12010
(42.938048, -74.192923)"
Helen Keller National Center,111 Middle Neck Road,Nassau,Sands Point,11050,5169448900,5169447302,14809,Helen Keller Services for the Blind,400-E-040,52,,,,,Adult Home,Not for Profit Corporation,Metropolitan Area Regional Office - Long Island,"111 Middle Neck Road
Sands Point, NY 11050
(40.855962, -73.701363)"
Westminster Manor,81 South Street,Cayuga,Auburn,13021,3152520507,3152583157,14641,Cayuga-Syracuse Presbyterian Home for the Elderly,050-E-002,37,,,,,Adult Home,Not for Profit Corporation,Central New York Regional Office,"81 South Street
Auburn, NY 13021
(42.925267, -76.565653)"
"Hedgewood Assisted Living, LLC",355 Fishkill Avenue,Dutchess,Beacon,12508,8458316000,8458314810,14675,"Hedgewood Assisted Living, LLC",230-F-082,192,192,,,,Adult Home,LLC,Metropolitan Area Regional Office - New York City,"355 Fishkill Avenue
Beacon, NY 12508
(41.507949, -73.955897)"
"Central Assisted Living, LLC",1509 Central Avenue,Queens,Far Rockaway,11691,7184717700,7184717732,14954,"Central Assisted Living, LLC",590-F-322,186,186,,,,Adult Home,LLC,Metropolitan Area Regional Office - New York City,"1509 Central Avenue
Far Rockaway, NY 11691
(40.605609, -73.751435)"
Brandywine Senior Living at Huntington Terrace,70 Pinelawn Road,Suffolk,Melville,11747,6315310000,6315310003,15074,Brandywine Senior Living at Huntington Terrace LLC,700-S-299,110,,110,110,,Enriched Housing Program,LLC,Metropolitan Area Regional Office - Long Island,"70 Pinelawn Road
Melville, NY 11747
(40.779952, -73.404589)"
Legacy at Cranberry Landing,300 Cranberry Landing Drive,Monroe,Rochester,14609,5852443630,5207977757,14785,"Rochester Operating Company, LLC",370-F-252,78,,78,26,19,Adult Home,LLC,Western Regional Office - Buffalo,"300 Cranberry Landing Drive
Rochester, NY 14609
(43.189762, -77.548507)"
Amber Court of Westbury,3400 Brush Hollow Road,Nassau,Westbury,11590,5163343838,5167807162,14828,"Amber Court of Westbury II, LLC",400-F-331,64,,64,32,32,Adult Home,LLC,Metropolitan Area Regional Office - Long Island,"3400 Brush Hollow Road
Westbury, NY 11590
(40.775689, -73.56025)"
Brentwood Adult Home,147 Second Avenue,Suffolk,Brentwood,11717,6312737204,6319519161,15026,Sarah Halpert Simon Halpert,700-F-013,30,,,,,Adult Home,Individual,Metropolitan Area Regional Office - Long Island,
New Haven Manor,1526 New Haven Avenue,Queens,Far Rockaway,11691,7184717200,7184717650,14944,"New Haven Manor Home for Adults, LLC",590-F-172,123,,,,,Adult Home,LLC,Metropolitan Area Regional Office - New York City,"1526 New Haven Avenue
Far Rockaway, NY 11691
(40.599339, -73.749563)"
Atria Tanglewood,125 Ocean Avenue,Nassau,Lynbrook,11563,5165963400,5165360599,14815,"ATR New York LH, Inc.",400-F-306,160,,,,,Adult Home,Business Corporation,Metropolitan Area Regional Office - Long Island,
The Glen at Maple Pointe,260 Maple Avenue,Nassau,Rockville Center,11570,5167644848,5167644442,14820,"Maple Pointe Senior Care, Llc",400-F-320,60,4,,,,Adult Home,LLC,Metropolitan Area Regional Office - Long Island,"260 Maple Avenue
Rockville Center, NY 11570
(40.658221, -73.631765)"
Atria Riverdale,3718-3726 Henry Hudson Parkway,Bronx,Riverdale,10463,7184322448,7184322447,14621,"ATR New York LH, Inc.",020-S-001,195,,195,55,40,Enriched Housing Program,Business Corporation,Metropolitan Area Regional Office - New York City,"3718-3726 Henry Hudson Parkway
Riverdale, NY 10463
(40.888183, -73.910559)"
Family Srvs/Rochester EHP2 Jonathan Child Project,399 Colvin Avenue,Monroe,Rochester,14611,5854369462,5855294863,14788,"Family Service Of Rochester, Inc.",370-S-132,30,30,,,,Enriched Housing Program,Not for Profit Corporation,Western Regional Office - Buffalo,"399 Colvin Avenue
Rochester, NY 14611
(43.158531, -77.641204)"
Terrace at Beverwyck,41 Beverwyck Lane,Albany,Slingerlands,12159,5184594062,5184820106,14606,"Beverwyck, Inc.",000-S-005,48,,,,,Enriched Housing Program,Not for Profit Corporation,Capital District Regional Office,"41 Beverwyck Lane
Slingerlands, NY 12159
(42.66026, -73.835275)"
Gurwin Jewish Fay J. Lindner Residence,50 Hauppauge Road,Suffolk,Commack,11725,6317158500,6317158580,15071,"Gurwin Jewish - Fay J. Lindner Residences, Inc.",700-S-289,200,,200,59,,Enriched Housing Program,Not for Profit Corporation,Metropolitan Area Regional Office - Long Island,"50 Hauppauge Road
Commack, NY 11725
(40.828338, -73.298129)"
Kenwood Manor,141 Rockefeller Road,Albany,Delmar,12054,5184398899,5184751690,14598,"Kenwood Manor, Inc.",000-F-317,67,,,,,Adult Home,Not for Profit Corporation,Capital District Regional Office,"141 Rockefeller Road
Delmar, NY 12054
(42.625193, -73.802946)"
The Amberleigh,2330-40 Maple Road,Erie,Amherst,14221,7166894195,7166363687,14714,"CSL Amberleigh, Inc.",240-S-125,76,,76,76,17,Enriched Housing Program,Business Corporation,Western Regional Office - Buffalo,"2330-40 Maple Road
Amherst, NY 14221
(42.989322, -78.702521)"
The Bristal at Sayville,129 Lakeland Avenue,Suffolk,Sayville,11782,6315631160,6315631161,15036,Sayville Senior Care LLC,700-F-302,155,,155,61,51,Adult Home,LLC,Metropolitan Area Regional Office - Long Island,"129 Lakeland Avenue
Sayville, NY 11782
(40.744584, -73.087596)"
Mount Alverno Center,20 Grand Street,Orange,Warwick,10990,8459862267,8459863604,14917,"St. Francis Center At The Knolls, Inc.",540-E-051,85,55,,,,Adult Home,Not for Profit Corporation,Metropolitan Area Regional Office - New York City,"20 Grand Street
Warwick, NY 10990
(41.262536, -74.362399)"
Loretto EHP #3 Nottingham,1301 Nottingham Road,Onondaga,Jamesville,13078,3154459242,3154465346,14903,"Loretto Adult Community, Inc.",520-S-114,64,,64,16,,Enriched Housing Program,Not for Profit Corporation,Central New York Regional Office,"1301 Nottingham Road
Jamesville, NY 13078
(43.01025, -76.086052)"
Atria Greece,150 Towngate Road,Monroe,Rochester,14626,5852253010,5852253011,14771,"ATR New York LH, Inc.",370-F-210,79,,,,,Adult Home,Business Corporation,Western Regional Office - Buffalo,"150 Towngate Road
Rochester, NY 14626
(43.205031, -77.698087)"
Genesee Adult Home,278 Bank Street,Genesee,Batavia,14020,5853440584,5853444685,14727,Genesee Center Operating II LLC,290-F-007,80,,80,,40,Adult Home,LLC,Western Regional Office - Buffalo,"278 Bank Street
Batavia, NY 14020
(43.008753, -78.176654)"
Brookdale Pittsford,159 Sully's Trail,Monroe,Pittsford,14534,5852499990,5852499940,14773,"Perinton Clare Bridge Operator, Inc.",370-F-217,52,,,,,Adult Home,Business Corporation,Western Regional Office - Buffalo,"159 Sully's Trail
Pittsford, NY 14534
(43.05807, -77.466667)"
GreenField Terrace,5979 Broadway Street,Erie,Lancaster,14086,7166814434,7166816894,14681,"Lutheran Church Home Of Buffalo, Inc.",240-E-013,56,,56,23,42,Adult Home,Not for Profit Corporation,Western Regional Office - Buffalo,"5979 Broadway Street
Lancaster, NY 14086
(42.894438, -78.62848)"
Rudolf Steiner Fellowship Foundation,241 Hungry Hollow Road,Rockland,Spring Valley,10977,8453568494,8453568468,14977,"Rudolf Steiner Fellowship Foundation, Inc.",620-E-013,33,,,,,Adult Home,Not for Profit Corporation,Metropolitan Area Regional Office - New York City,"241 Hungry Hollow Road
Spring Valley, NY 10977
(41.088591, -74.064862)"
Brookdale East Niskayuna,2861 Troy-Schenectady Road,Schenectady,Niskayuna,12309,5187827381,5187827382,15008,"Niskayuna Clare Bridge Operator, Inc.",650-F-101,52,,,,,Adult Home,Business Corporation,Capital District Regional Office,"2861 Troy-Schenectady Road
Niskayuna, NY 12309
(42.778866, -73.842894)"
Crossroads,120 Gifford Street,Onondaga,Syracuse,13202,3157013894,3154763615,14885,"Rescue Mission Alliance of Syracuse New York, Inc.",520-E-088,59,,,,,Adult Home,Not for Profit Corporation,Central New York Regional Office,"120 Gifford Street
Syracuse, NY 13202
(43.043597, -76.154875)"
Atria Shaker,345 Northern Boulevard,Albany,Albany,12204,5184654444,5184652127,14610,"ATR New York LH, Inc.",000-S-011,171,,171,47,35,Enriched Housing Program,Business Corporation,Capital District Regional Office,"345 Northern Boulevard
Albany, NY 12204
(42.672357, -73.751906)"
Countryside Adult Home,353 Schroon River Road,Warren,Warrensburg,12885,5186233451,5186235590,15100,Warren County D.S.S,750-N-006,48,,,,,Adult Home,County,Capital District Regional Office,"353 Schroon River Road
Warrensburg, NY 12885
(43.510763, -73.750346)"
The Osborn,101 Theall Road,Westchester,Rye,10580,9149258200,9149674555,15139,The Osborn,800-S-141,103,,103,103,13,Enriched Housing Program,Not for Profit Corporation,Metropolitan Area Regional Office - New York City,"101 Theall Road
Rye, NY 10580
(40.971997, -73.70068)"
Family Srvs/Rochester EHP1 Danforth Towers East,140 West Avenue,Monroe,Rochester,14611,5854369462,5855294863,14787,"Family Service Of Rochester, Inc.",370-S-051,28,,,,,Enriched Housing Program,Not for Profit Corporation,Western Regional Office - Buffalo,"140 West Avenue
Rochester, NY 14611
(43.149982, -77.64161)"
Heathwood Assisted Living at Williamsville,815 Hopkins Road,Erie,Williamsville,14221,7166880111,7166887266,14694,"Heathwood Assisted Living At Williamsville, Inc.",240-F-881,128,36,128,35,25,Adult Home,Business Corporation,Western Regional Office - Buffalo,
The Eliot at Catskill,122 Jefferson Heights,Greene,Catskill,12414,5189437100,5189437123,14730,"The Eliot at Catskill, LLC",300-F-033,98,58,,,,Adult Home,LLC,Capital District Regional Office,"122 Jefferson Heights
Catskill, NY 12414
(42.229672, -73.874139)"
Beacon Pointe Memory Care Community,1 Emma Lane,Saratoga,Clifton Park,12065,5183712200,5183715151,15003,"Peregrine Properties of Upstate, LLC",640-F-042,52,,,,,Adult Home,LLC,Capital District Regional Office,"1 Emma Lane
Clifton Park, NY 12065
(42.867177, -73.795683)"
The Cloisters,171 North Maple Street,Wyoming,Warsaw,14569,5857868727,5857860436,15148,"Sunrise Assets, LLC",900-F-005,48,,,,,Adult Home,LLC,Western Regional Office - Buffalo,"171 North Maple Street
Warsaw, NY 14569
(42.745893, -78.139088)"
Whisper Woods of Smithtown,71 St. Johnland Road,Suffolk,Smithtown,11787,6313203181,6317805296,15067,"BSL Smithtown Operations, Inc.",700-F-957,136,,136,136,38,Adult Home,Business Corporation,Metropolitan Area Regional Office - Long Island,
Ken-Ton Enriched Housing,3735 Delaware Avenue,Erie,Kenmore,14217,7168746070,7168741455,14717,Ken-Ton Enriched Housing LLC,240-S-131,49,,,,,Enriched Housing Program,Not for Profit Corporation,Western Regional Office - Buffalo,
Willow Ridge Pointe,1 Prospect Street,Saratoga,Mechanicville,12118,5186648014,5186641075,15002,"Willow Ridge Pointe, LLC",640-F-044,13,,,,,Adult Home,Individual,Capital District Regional Office,"1 Prospect Street
Mechanicville, NY 12118
(42.901169, -73.695933)"
Norwegian Christian Home and Health Center,1250-1270 67th Street,Kings,Brooklyn,11219,7182322322,7183315111,14738,Norwegian Christian Home and Health Center,331-E-030,88,88,,,,Adult Home,Not for Profit Corporation,Metropolitan Area Regional Office - New York City,"1250-1270 67th Street
Brooklyn, NY 11219
(40.625424, -74.003729)"
The Knolls,55 Grasslands Road,Westchester,Valhalla,10595,9149897878,9149897818,15146,The Bethel Methodist Home,800-S-155,12,,,,,Enriched Housing Program,Not for Profit Corporation,Metropolitan Area Regional Office - New York City,"55 Grasslands Road
Valhalla, NY 10595
(41.076341, -73.816524)"
"New Homestead Home for Adults, Inc.",82-45 Grenfell Street,Queens,Kew Gardens,11415,7184412000,7188493997,14948,"New Homestead Home for Adults, Inc.",590-F-311,163,,,,,Adult Home,Business Corporation,Metropolitan Area Regional Office - New York City,"82-45 Grenfell Street
Kew Gardens, NY 11415
(40.709088, -73.831231)"
Adirondack Manor HFA D.B.A. Willow Park HFA,1550 Herkimer Road,Oneida,Utica,13502,3157322257,3157338944,14879,James E. Kane Sr. James E. Kane Jr.,510-F-055,60,45,,,,Adult Home,Individual,Central New York Regional Office,"1550 Herkimer Road
Utica, NY 13502
(43.108029, -75.169519)"
The Villa at Westhampton,68 Old Country Road,Suffolk,Westhampton,11977,6312408100,6312408190,15062,"Westhampton Senior Living, Inc.",700-F-939,100,,100,100,24,Adult Home,Business Corporation,Metropolitan Area Regional Office - Long Island,"68 Old Country Road
Westhampton, NY 11977
(40.826508, -72.67602)"
Harbor House,150 South Street,Nassau,Oyster Bay,11771,5166248400,5166242949,14814,"Oyster Bay Senior Residence, Inc.",400-F-305,136,,136,,124,Adult Home,Business Corporation,Metropolitan Area Regional Office - Long Island,"150 South Street
Oyster Bay, NY 11771
(40.87053, -73.531225)"
"Longview, an Ithacare Community",1 Bella Vista Drive,Tompkins,Ithaca,14850,6073756300,6073756301,15086,"Ithacare Center Service Company, Inc.",730-E-002,96,,96,32,,Adult Home,Not for Profit Corporation,Central New York Regional Office,"1 Bella Vista Drive
Ithaca, NY 14850
(42.416482, -76.503256)"
"Kingsway Manor, LLC",357 Kings Road,Schenectady,Schenectady,12304,5183934304,5183930749,15009,"Kingsway Manor, LLC",650-F-103,140,,140,50,20,Adult Home,LLC,Capital District Regional Office,"357 Kings Road
Schenectady, NY 12304
(42.775054, -73.912414)"
"Sutton Gardens, LLC",147-02 34th Avenue,Queens,Flushing,11354,7184611923,7184617617,14956,"Sutton Gardens, LLC",590-F-326,47,,47,47,,Adult Home,LLC,Metropolitan Area Regional Office - New York City,"147-02 34th Avenue
Flushing, NY 11354
(40.767392, -73.81978)"
Eden Heights of Olean,161 South Twenty-Fifth Street,Cattaraugus,Olean,14760,7163724466,7163721681,14639,"Eden Management of Olean, Inc.",040-F-028,120,,,,,Adult Home,Business Corporation,Western Regional Office - Buffalo,"161 South Twenty-Fifth Street
Olean, NY 14760
(42.076257, -78.436379)"
Ivy Lodge,108 Main Street,Ulster,Saugerties,12477,8452464646,8452466095,15096,"Ivy Hall at the Family Lodge, LLC",740-F-082,40,,40,40,16,Adult Home,LLC,Metropolitan Area Regional Office - New York City,"108 Main Street
Saugerties, NY 12477
(42.079049, -73.94874)"
The Bristal at Mount Sinai,400 Sutton Court,Suffolk,Mount Sinai,11766,6312508989,6318288448,15080,"EB Care at Mount Sinai, LLC",700-S-315,157,,157,64,44,Enriched Housing Program,LLC,Metropolitan Area Regional Office - Long Island,
Carnegie East House,1844 Second Avenue,New York,New York,10128,2123602275,2124105180,14860,"Carnegie East House Housing Development Fund Company, Inc.",420-S-387,112,,,,,Enriched Housing Program,Not for Profit Corporation,Metropolitan Area Regional Office - New York City,"1844 Second Avenue
New York, NY 10128
(40.783782, -73.947426)"
Bethany Village,3005 Watkins Road,Chemung,Horseheads,14845,6077398711,6077962566,14656,"Bethany Retirement Home, Inc.",070-E-002,144,60,144,70,30,Adult Home,Not for Profit Corporation,Western Regional Office - Buffalo,"3005 Watkins Road
Horseheads, NY 14845
(42.182446, -76.832208)"
Elizabeth Brewster House,41 South Main Street,Cortland,Homer,13077,6077493061,6077495862,14666,Elizabeth Brewster House,210-E-001,45,,,,,Adult Home,Not for Profit Corporation,Central New York Regional Office,"41 South Main Street
Homer, NY 13077
(42.634815, -76.178773)"
West Seventy-Fourth Street Home,300 Amsterdam Avenue,New York,New York,10023,2125958983,2125950369,14849,West Side Federation For Senior and Support Housing,420-E-254,95,,,,,Adult Home,Not for Profit Corporation,Metropolitan Area Regional Office - New York City,"300 Amsterdam Avenue
New York, NY 10023
(40.780061, -73.980574)"
Home of the Good Shepherd,390 Church Street,Saratoga,Saratoga Springs,12866,5185843317,5185844760,14998,"The Church Aid of the Protestant Episcopal Church in the Town of Saratoga Springs, Inc.",640-E-037,42,,42,42,42,Adult Home,Not for Profit Corporation,Capital District Regional Office,"390 Church Street
Saratoga Springs, NY 12866
(43.086233, -73.818855)"
The Pavilion at Vestal,105 West Sheedy Road,Broome,Vestal,13850,6077544105,6077485689,14631,"The Pavilion At Vestal, Llc",030-F-058,40,40,,,,Adult Home,LLC,Central New York Regional Office,"105 West Sheedy Road
Vestal, NY 13850
(42.052628, -76.033408)"
Legacy at Maiden Park,749 Maiden Lane,Monroe,Rochester,14615,5855467275,5207977757,14786,"Rochester Operating Company, LLC",370-F-254,98,,98,39,26,Adult Home,LLC,Western Regional Office - Buffalo,"749 Maiden Lane
Rochester, NY 14615
(43.223727, -77.664287)"
St. Francis Commons,12 Burkle Street,Oswego,Oswego,13126,3153260870,3153490797,14930,"St. Francis Commons, Inc.",560-E-009,60,60,60,,14,Adult Home,Not for Profit Corporation,Central New York Regional Office,"12 Burkle Street
Oswego, NY 13126
(43.447926, -76.494342)"
The Terrace at Woodland,8299 Turin Road,Oneida,Rome,13440,3153360307,3153360338,14881,"Forest Hill Associates, Inc.",510-F-059,60,16,44,,12,Adult Home,Business Corporation,Central New York Regional Office,"8299 Turin Road
Rome, NY 13440
(43.264437, -75.46406)"
Woodcrest Commons,4455 West Henrietta Road,Monroe,Henrietta,14467,5853341800,5853219395,14766,"DePaul Adult Care Communities, Inc.",370-E-198,120,42,,,,Adult Home,Not for Profit Corporation,Western Regional Office - Buffalo,"4455 West Henrietta Road
Henrietta, NY 14467
(43.063488, -77.649432)"
South Bay Adult Home,"33 Cottontail Run, Box 601",Suffolk,Center Moriches,11934,6318780758,6318780776,15061,South Bay Adult Home And Alp Llc,700-F-937,39,33,,,,Adult Home,LLC,Metropolitan Area Regional Office - Long Island,"33 Cottontail Run, Box 601
Center Moriches, NY 11934
(40.788845, -72.814465)"
Crystal House Manor,"97 Mills Street, P.O. Box 576",Dutchess,Dover Plains,12522,8458776400,8458776500,14676,"Crsytal House Manor, Inc.",230-F-272,39,,,,,Adult Home,Business Corporation,Metropolitan Area Regional Office - New York City,
The W Senior Living at Goshen,46 Harriman Drive,Orange,Goshen,10924,8453881251,8452913737,14924,"The W Group of Goshen, LLC",540-F-038,120,,,,,Adult Home,LLC,Metropolitan Area Regional Office - New York City,"46 Harriman Drive
Goshen, NY 10924
(41.389389, -74.319656)"
Adirondack Manor HFA D.B.A Scotia Mansion,39 Wallace Street,Schenectady,Scotia,12302,5183466458,5183463458,15007,James E. Kane Sr. James E. Kane Jr.,650-F-078,49,34,,,,Adult Home,Individual,Capital District Regional Office,"39 Wallace Street
Scotia, NY 12302
(42.8331, -73.96009)"
Crimson Ridge Gardens,1 Treeline Drive,Monroe,Rochester,14612,5857209310,5857209311,14775,"Peregrine Properties of Upstate, LLC",370-F-226,52,,,,,Adult Home,LLC,Western Regional Office - Buffalo,"1 Treeline Drive
Rochester, NY 14612
(43.252366, -77.674542)"
Maple Rest,61 Rollstone Avenue,Suffolk,West Sayville,11796,6315894840,6315631610,15032,Simon Halpert Sarah Halpert,700-F-146,27,,,,,Adult Home,Individual,Metropolitan Area Regional Office - Long Island,"61 Rollstone Avenue
West Sayville, NY 11796
(40.731775, -73.098489)"
Castle Senior Living at Forest Hills,108-25 Horace Harding,Queens,Forest Hills,11368,7187604600,7185921808,14955,"Midway A.L., LLC",590-F-324,20,,,,,Adult Home,LLC,Metropolitan Area Regional Office - New York City,
Brightview Tarrytown,581 Old White Plains Rd,Westchester,Tarrytown,10591,9142978594,9149095547,15121,"BV Tarrytown Operator, LLC",800-F-131,107,,107,107,31,Adult Home,LLC,Metropolitan Area Regional Office - New York City,"581 Old White Plains Rd
Tarrytown, NY 10591
(41.062229, -73.835654)"
Greenfield Court,5951 Broadway,Erie,Lancaster,14086,7166848400,7166848480,14703,Lutheran Church Home at Greenfield Inc.,240-S-105,57,,57,,,Enriched Housing Program,Not for Profit Corporation,Western Regional Office - Buffalo,"5951 Broadway
Lancaster, NY 14086
(42.895015, -78.631814)"
Harbor Terrace Adult Home and Assisted Living,110 Henderson Avenue,Richmond,Staten Island,10301,7187278100,7189819116,14971,Baywood LLC,610-F-064,363,200,,,,Adult Home,LLC,Metropolitan Area Regional Office - New York City,"110 Henderson Avenue
Staten Island, NY 10301
(40.640667, -74.095421)"
Brooklyn Terrace,2316 Surf Avenue,Kings,Brooklyn,11224,7189968400,7189968403,14751,"Brooklyn Terrace, LLC",331-F-290,200,,,,,Adult Home,LLC,Metropolitan Area Regional Office - New York City,"2316 Surf Avenue
Brooklyn, NY 11224
(40.573795, -73.990247)"
Sunrise of Fleetwood,500 North Columbus Avenue,Westchester,Mount Vernon,10552,9146675660,9146651488,15131,"SZR New York LH, Inc.",800-F-995,136,,136,136,30,Adult Home,Business Corporation,Metropolitan Area Regional Office - New York City,"500 North Columbus Avenue
Mount Vernon, NY 10552
(40.926603, -73.820983)"
Fairport Baptist Homes Adult Care Facility,4646 Nine Mile Point Road,Monroe,Fairport,14450,5853770350,5853772620,14768,"Fairport Baptist Homes Adult Care Facility, Inc.",370-E-202,42,11,,,,Adult Home,Not for Profit Corporation,Western Regional Office - Buffalo,"4646 Nine Mile Point Road
Fairport, NY 14450
(43.110368, -77.44177)"
Elderwood Assisted Living at Tonawanda,111 Ensminger Road,Erie,Tonawanda,14150,7168711814,7168710809,14697,"111 Ensminger Road Operating Company, Llc",240-F-890,120,49,,,,Adult Home,LLC,Western Regional Office - Buffalo,"111 Ensminger Road
Tonawanda, NY 14150
(42.988104, -78.887869)"
"Eger Harbor House, Inc.",110 Meisner Avenue,Richmond,Staten Island,10306,7185548700,7185548707,14974,"Eger Harbor House, Inc.",610-S-001,75,75,,,,Enriched Housing Program,Not for Profit Corporation,Metropolitan Area Regional Office - New York City,"110 Meisner Avenue
Staten Island, NY 10306
(40.58099, -74.131586)"
The Hearth at Castle Gardens,1715 Castle Gardens Road,Broome,Vestal,13850,6077485700,6077481079,14635,"Hearth Management, L.L.C.",030-S-044,58,,,,,Enriched Housing Program,LLC,Central New York Regional Office,"1715 Castle Gardens Road
Vestal, NY 13850
(42.078757, -76.082013)"
The Bristal at East Meadow,40 Merrick Ave.,Nassau,East Meadow,11554,5165420800,5164650165,14835,"Engel Burman Senior Housing at East Meadow, Inc.",400-S-299,151,,151,37,22,Enriched Housing Program,Business Corporation,Metropolitan Area Regional Office - Long Island,"40 Merrick Ave.
East Meadow, NY 11554
(40.735953, -73.582572)"
Ghent Assisted Living,30 Whittier Way,Columbia,Ghent,12075,5188280900,5182787710,14665,Galr Operating Llc,200-F-022,80,49,,,,Adult Home,LLC,Capital District Regional Office,
Plattduetsche Home Society,1150 Hempstead Turnpike,Nassau,Franklin Square,11010,5163524252,5163528656,14808,"Plattduetsche Altenheim Gesellschaft Von Brooklyn Und Umgegend, Inc.",400-E-028,91,,,,,Adult Home,Not for Profit Corporation,Metropolitan Area Regional Office - Long Island,
Randolph Manor,40 East Main Street,Cattaraugus,Randolph,14772,7163584041,7163584041,14638,"Randolph Manor Home for Adults, LLC",040-F-026,50,,,,,Adult Home,LLC,Western Regional Office - Buffalo,"40 East Main Street
Randolph, NY 14772
(42.322697, -79.577048)"
The Gardens by Morningstar,132 Ellen Street,Oswego,Oswego,13126,3153430880,3152072500,14931,"The Gardens By Morningstar, Llc",560-F-042,106,86,,,,Adult Home,LLC,Central New York Regional Office,"132 Ellen Street
Oswego, NY 13126
(43.444149, -76.512568)"
Meadowbrook Terrace Assisted Living Facility,21957 Cole Road,Jefferson,Carthage,13619,3155191246,3155191339,14735,Meadowbrook Terrace Inc.,330-E-004,60,58,,,,Adult Home,Not for Profit Corporation,Central New York Regional Office,"21957 Cole Road
Carthage, NY 13619
(43.986881, -75.647318)"
Country Valley Home,5946 County Route 11,Steuben,Bath,14810,6077765730,6077765730,15021,"Tetor Enterprises, Ltd.",690-F-039,19,,,,,Adult Home,Limited Partnership,Western Regional Office - Buffalo,"5946 County Route 11
Bath, NY 14810
(42.289466, -77.293155)"
Buckley Landing Enriched Housing Site #6,7430 Buckley Road,Onondaga,North Syracuse,13212,3154521207,3154525949,14906,"Loretto Adult Community, Inc.",520-S-121,90,75,,,,Enriched Housing Program,Not for Profit Corporation,Central New York Regional Office,"7430 Buckley Road
North Syracuse, NY 13212
(43.131166, -76.163658)"
Champlain Valley Senior Community,10 Gilliland Lane,Essex,Willsboro,12996,5188179108,8889631110,14720,"Stonebrook Properties, LLC",260-F-018,81,,81,29,21,Adult Home,LLC,Capital District Regional Office,"10 Gilliland Lane
Willsboro, NY 12996
(44.365461, -73.390694)"
Atria Kew Gardens,117-01 84th Avenue,Queens,Kew Gardens,11418,7184410300,7184415140,14962,"ATR New York LH, Inc.",590-S-315,175,,175,47,43,Enriched Housing Program,Business Corporation,Metropolitan Area Regional Office - New York City,"117-01 84th Avenue
Kew Gardens, NY 11418
(40.703958, -73.834416)"
Atria South Setauket,4089 Nesconset Highway,Suffolk,Centereach,11720,6314738000,6314730384,15059,"ATR New York LH, Inc.",700-F-933,200,,,,,Adult Home,Business Corporation,Metropolitan Area Regional Office - Long Island,"4089 Nesconset Highway
Centereach, NY 11720
(40.90363, -73.073576)"
The Plaza at Clover Lake,838 Fair Street,Putnam,Carmel,10512,8458784111,8458784333,14938,"Clover Lake Management, LLC",580-F-001,175,135,40,,,Adult Home,LLC,Metropolitan Area Regional Office - New York City,"838 Fair Street
Carmel, NY 10512
(41.470681, -73.639325)"
The Kensington,100 Maple Avenue,Westchester,White Plains,10601,9143900080,9143900277,15127,"White Plains Kensington, LLC",800-F-988,130,,130,130,62,Adult Home,LLC,Metropolitan Area Regional Office - New York City,"100 Maple Avenue
White Plains, NY 10601
(41.026615, -73.766906)"
"Moffat Gardens ALP, Inc",22 Moffat Street,Kings,Brooklyn,11207,7183663800,8663405850,14755,"Ridgewood Bushwick Senior Citizens Council, Inc",331-S-009,30,30,,,,Enriched Housing Program,Not for Profit Corporation,Metropolitan Area Regional Office - New York City,"22 Moffat Street
Brooklyn, NY 11207
(40.683617, -73.910278)"
Sunnydale Home,809 Stuart Avenue,Westchester,Mamaroneck,10543,9146982824,9146981286,15119,Perlita Guerzon Robert Guerzon,800-F-127,17,,,,,Adult Home,Individual,Metropolitan Area Regional Office - New York City,"809 Stuart Avenue
Mamaroneck, NY 10543
(40.95224, -73.724593)"
Good Shepherd Village at Endwell,14 Village Drive,Broome,Endwell,13760,6077573100,6077573101,14627,"Good Shepherd Village at Endwell, Inc.",030-E-050,32,,32,32,16,Adult Home,Not for Profit Corporation,Central New York Regional Office,"14 Village Drive
Endwell, NY 13760
(42.147973, -76.021268)"
Claddagh Care (L.B.S.H.) EHP #1,34 Church Street,Saint Lawrence,Brasher Falls,13613,3153895149,3153895560,14995,L.B.S.H. Housing,630-S-016,28,,,,,Enriched Housing Program,Not for Profit Corporation,Central New York Regional Office,"34 Church Street
Brasher Falls, NY 13613
(44.809184, -74.774711)"
Elderwood Assisted Living at Wheatfield,2600 Niagara Falls,Niagara,Niagara Falls,14304,7167312200,7167316590,14871,"2600 Niagara Falls Boulevard Al Operating Company, Llc",500-F-103,65,37,,,,Adult Home,LLC,Western Regional Office - Buffalo,"2600 Niagara Falls
Niagara Falls, NY 14304
(43.092676, -78.90685)"
Arcadia Residence,25 Carrier Street,Sullivan,Liberty,12754,8452927011,8452927011,15084,"Greater Adult Neighbors, Inc.",710-F-063,114,,,,,Adult Home,Business Corporation,Metropolitan Area Regional Office - New York City,"25 Carrier Street
Liberty, NY 12754
(41.794285, -74.749048)"
Maryville Home For Adults,7678 County Road 70,Steuben,Avoca,14809,6075662368,6075662368,15018,Suzanne Coddington  Hubert Coddington,690-F-024,14,,,,,Adult Home,Individual,Western Regional Office - Buffalo,
The Terrace at the Glen at Hiland Meadows,71 Longview Drive,Warren,Queensbury,12804,5188327894,5188327891,15101,The Glen at Hiland Meadows Inc.,750-S-002,52,,52,52,,Enriched Housing Program,Not for Profit Corporation,Capital District Regional Office,"71 Longview Drive
Queensbury, NY 12804
(43.354292, -73.642033)"
Inspir Carnegie Hill,1802 2nd Avenue,New York,New York,10128,6469789040,3323221227,14853,"Inspir Carnegie Hill, LLC",420-F-381,158,,158,125,80,Adult Home,LLC,Metropolitan Area Regional Office - New York City,"1802 2nd Avenue
New York, NY 10128
(40.78249, -73.94839)"
Hamilton Manor Home for Adults,8196 Green Road,Madison,Hubbardsville,13355,3156914051,3156913043,14763,8196 Green Road LLC,360-F-010,38,,,,,Adult Home,LLC,Central New York Regional Office,"8196 Green Road
Hubbardsville, NY 13355
(42.815361, -75.45682)"
Sunrise of Huntington,300 West Hills Road,Suffolk,Huntington Station,11746,6317602044,6317602045,15068,"GWC-West Hills, Inc.",700-F-959,130,,130,130,62,Adult Home,Business Corporation,Metropolitan Area Regional Office - Long Island,"300 West Hills Road
Huntington Station, NY 11746
(40.827014, -73.42102)"
The Women's Christian Association,134 Temple Street,Chautauqua,Fredonia,14063,7166727961,7166723496,14646,The Women'S Christian Association,060-E-014,42,32,,,,Adult Home,Not for Profit Corporation,Western Regional Office - Buffalo,"134 Temple Street
Fredonia, NY 14063
(42.444207, -79.337118)"
Brookdale Kenmore,2971 Delaware Avenue,Erie,Kenmore,14217,7168743200,7168734953,14708,"WW Kenmore Operator, Inc.",240-S-113,120,,120,120,,Enriched Housing Program,Business Corporation,Western Regional Office - Buffalo,"2971 Delaware Avenue
Kenmore, NY 14217
(42.964849, -78.870283)"
New Fordham Arms Assisted Living,2915 Williamsbridge Road,Bronx,Bronx,10467,7186553433,7186544307,14619,Bridgewood LLC,020-F-819,35,35,,,,Adult Home,LLC,Metropolitan Area Regional Office - New York City,"2915 Williamsbridge Road
Bronx, NY 10467
(40.868344, -73.862169)"
Hidden Gem Home for Adults,11 Wittridge Street,Suffolk,Lake Ronkonkoma,11779,6315884755,6315883180,15029,"Golden Homes Operating, Inc.",700-F-085,18,,,,,Adult Home,Business Corporation,Metropolitan Area Regional Office - Long Island,"11 Wittridge Street
Lake Ronkonkoma, NY 11779
(40.819447, -73.109085)"
Home of the Good Shepherd Moreau,186-200 Bluebird Road,Saratoga,Moreau,12803,5187921000,5187921066,15000,"The Church Aid of the Protestant Episcopal Church in the Town of Saratoga Springs, Inc.",640-E-040,72,,72,72,,Adult Home,Not for Profit Corporation,Capital District Regional Office,"186-200 Bluebird Road
Moreau, NY 12803
(43.285338, -73.61973)"
Clara Welch Thanksgiving Home,48 Grove Street,Otsego,Cooperstown,13326,6075478844,6075479306,14933,"Clara Welch Thanksgiving Home, Inc.",570-E-002,26,,,,,Adult Home,Not for Profit Corporation,Capital District Regional Office,"48 Grove Street
Cooperstown, NY 13326
(42.697924, -74.933761)"
The Mohawk Homestead,62 East Main Street,Herkimer,Mohawk,13407,3158661841,3158660603,14732,The Mohawk Homestead,320-E-005,41,20,,,,Adult Home,Not for Profit Corporation,Central New York Regional Office,"62 East Main Street
Mohawk, NY 13407
(43.012696, -74.99973)"
Long Beach Assisted Living,274 West Broadway,Nassau,Long Beach,11561,5168970140,5168970385,14813,"Hempstead Alp, Llc",400-F-301,200,200,,,,Adult Home,LLC,Metropolitan Area Regional Office - Long Island,
Amber Court of Pelham Gardens,1800 Waring Avenue,Bronx,Bronx,10469,7183794400,7183202442,14618,"Judith Lynn Home for Adults, LLC",020-F-817,200,178,,,,Adult Home,LLC,Metropolitan Area Regional Office - New York City,"1800 Waring Avenue
Bronx, NY 10469
(40.860716, -73.833854)"
Artis Senior Living of Briarcliff Manor,553 North State Road,Westchester,Briarcliff Manor,10510,9148009057,9148009061,15114,"Artis Senior Living Operator of Briarcliff Manor, LLC",800-F-002,64,,64,64,64,Adult Home,LLC,Metropolitan Area Regional Office - New York City,"553 North State Road
Briarcliff Manor, NY 10510
(41.167702, -73.819148)"
Sanford Home,140-40 Sanford Avenue,Queens,Flushing,11355,7183531400,7183531495,14943,"Sanford Home for Adults, LLC",590-F-142,200,,,,,Adult Home,LLC,Metropolitan Area Regional Office - New York City,"140-40 Sanford Avenue
Flushing, NY 11355
(40.757523, -73.825658)"
Plattduetsche Home Society,1150 Hempstead Turnpike,Nassau,Franklin Square,11010,5163524252,5163528656,14834,"Plattduetsche Altenheim Gesellschaft Von Brooklyn Und Umgegend, Inc.",400-S-290,90,,,,,Enriched Housing Program,Not for Profit Corporation,Metropolitan Area Regional Office - Long Island,
Amber Court of Westbury,3400 Brush Hollow Road,Nassau,Westbury,11590,5163343838,5163343866,14823,"Amber Court of Westbury, LLC",400-F-325,225,189,,,,Adult Home,LLC,Metropolitan Area Regional Office - Long Island,"3400 Brush Hollow Road
Westbury, NY 11590
(40.775689, -73.56025)"
The W Assisted Living at Riverdale Home for Adults,6355 Broadway,Bronx,Bronx,10471,7185493300,7186010593,14616,"Elener Associates, LLC",020-F-133,256,200,,,,Adult Home,LLC,Metropolitan Area Regional Office - New York City,"6355 Broadway
Bronx, NY 10471
(40.901621, -73.896845)"
Mount View Assisted Living,5465 Upper Mountain Road,Niagara,Lockport,14094,7164330790,7169570324,14872,"Mount View Assisted Living, Inc.",500-F-105,156,150,,,,Adult Home,Business Corporation,Western Regional Office - Buffalo,"5465 Upper Mountain Road
Lockport, NY 14094
(43.174138, -78.740581)"
"Fairlawn Adult Home, Inc.",301 Eighth Avenue,Suffolk,East Northport,11731,6317577666,6317572959,15041,"Fairlawn Adult Home, Inc.",700-F-898,30,,,,,Adult Home,Business Corporation,Metropolitan Area Regional Office - Long Island,"301 Eighth Avenue
East Northport, NY 11731
(40.877165, -73.329338)"
The Eliot at Erie Station ALP,10 - 18 John Street,Orange,Middletown,10940,8453422077,8453422091,14919,"The Eliot Management Group, LLC",540-F-028,136,120,16,16,,Adult Home,LLC,Metropolitan Area Regional Office - New York City,"10 - 18 John Street
Middletown, NY 10940
(41.448204, -74.419652)"
Heather Heights of Pittsford,160 West Jefferson Road,Monroe,Pittsford,14534,5852641600,5852641010,14774,"Heather Heights of Pittsford, Inc.",370-F-220,120,,120,120,24,Adult Home,Business Corporation,Western Regional Office - Buffalo,"160 West Jefferson Road
Pittsford, NY 14534
(43.087157, -77.531709)"
The Landing of Poughkeepsie,251 Boardman Road,Dutchess,Poughkeepsie,12603,8454714044,8454621329,14680,"Landing Senior Care, LLC",230-S-005,121,,121,44,34,Enriched Housing Program,LLC,Metropolitan Area Regional Office - New York City,"251 Boardman Road
Poughkeepsie, NY 12603
(41.658268, -73.890382)"
Elderwood Village at Williamsville,5271 Main Street,Erie,Williamsville,14221,7165659663,7165652331,14709,"5271 Main Street Operating Company, Llc",240-S-115,110,,110,19,,Enriched Housing Program,LLC,Western Regional Office - Buffalo,"5271 Main Street
Williamsville, NY 14221
(42.960784, -78.757321)"
The Bristal at Holtsville,5535 Expressway Drive North,Suffolk,Holtsville,11742,6317322300,6318283601,15077,EB Care at Farmingville LLC,700-S-309,166,,166,50,40,Enriched Housing Program,LLC,Metropolitan Area Regional Office - Long Island,"5535 Expressway Drive North
Holtsville, NY 11742
(40.823446, -73.026483)"
Wolk Manor Enriched Living Center,4000 Summit Circle Drive,Monroe,Rochester,14618,5854421950,5854425095,14793,"Jewish Home of Rochester Enriched Housing, Inc.",370-S-836,85,,85,20,18,Enriched Housing Program,Not for Profit Corporation,Western Regional Office - Buffalo,"4000 Summit Circle Drive
Rochester, NY 14618
(43.106118, -77.581309)"
Atria Forest Hills,112-50 72nd Avenue,Queens,Forest Hills,11375,7182615300,7182615457,14961,"ATR New York LH, Inc.",590-S-313,90,,,,,Enriched Housing Program,Business Corporation,Metropolitan Area Regional Office - New York City,"112-50 72nd Avenue
Forest Hills, NY 11375
(40.722159, -73.837098)"
Field of Dreams Senior Living,3260 N. 7th Street,Cattaraugus,Allegany,14706,7165434200,7163731850,14640,"Olean Manor, Inc.",040-F-030,140,100,140,40,64,Adult Home,Business Corporation,Western Regional Office - Buffalo,"3260 N. 7th Street
Allegany, NY 14706
(42.090993, -78.476606)"
The Hearth at Greenpoint Senior Living,150 Old Liverpool Road,Onondaga,Liverpool,13088,3154537911,3154575602,14907,"Hearth Management, L.L.C.",520-S-129,139,,,,,Enriched Housing Program,LLC,Central New York Regional Office,"150 Old Liverpool Road
Liverpool, NY 13088
(43.082541, -76.181022)"
Braemar Living at Medford,1529 North Ocean Avenue,Suffolk,Medford,11763,6312890600,6316820622,15051,Medford Hamlet Llc,700-F-921,200,200,,,,Adult Home,LLC,Metropolitan Area Regional Office - Long Island,"1529 North Ocean Avenue
Medford, NY 11763
(40.81021, -73.019667)"
Long Island Living Center,431 Beach 20th Street,Queens,Far Rockaway,11691,7183272700,7183272223,14957,"Long Island Living Center, LLC",590-F-328,306,124,,,,Adult Home,LLC,Metropolitan Area Regional Office - New York City,"431 Beach 20th Street
Far Rockaway, NY 11691
(40.599139, -73.754161)"
Sunrise of New City,233 North Main Street,Rockland,New City,10956,8457087855,8457087858,14988,"SZR New York LH, Inc.",620-F-089,120,,120,120,48,Adult Home,Business Corporation,Metropolitan Area Regional Office - New York City,"233 North Main Street
New City, NY 10956
(41.159385, -73.988554)"
Holbrook Adult Home,73 North Street,Washington,Granville,12832,5186423476,5186423801,15104,"73 North of Granville, Inc.",760-F-014,33,,,,,Adult Home,Business Corporation,Capital District Regional Office,"73 North Street
Granville, NY 12832
(43.414541, -73.264577)"
The Hawthorne,1 Johnsarbor Dr. E,Monroe,Rochester,14620,5857601300,5852410365,14803,St. John's Meadows,370-S-861,42,,42,42,,Enriched Housing Program,Not for Profit Corporation,Western Regional Office - Buffalo,
The Farrar Home,46 Constable Street,Franklin,Malone,12953,5184837550,5184838107,14722,Farrar Home For Deserving Old Ladies,270-E-005,30,,,,,Adult Home,Not for Profit Corporation,Capital District Regional Office,"46 Constable Street
Malone, NY 12953
(44.855268, -74.287202)"
Five Star Premier Residences of Yonkers,537 Riverdale Avenue,Westchester,Yonkers,10705,9144237200,9144237046,15140,D&R Yonkers LLC,800-S-143,84,,84,42,,Enriched Housing Program,LLC,Metropolitan Area Regional Office - New York City,"537 Riverdale Avenue
Yonkers, NY 10705
(40.913606, -73.902375)"
St. Michael's Home,3 Lehman Terrace,Westchester,Yonkers,10705,9144763374,9144761744,15110,"St. Michael's Home, Inc.",800-E-038,60,,,,,Adult Home,Not for Profit Corporation,Metropolitan Area Regional Office - New York City,"3 Lehman Terrace
Yonkers, NY 10705
(40.913804, -73.901231)"
Elderwood Village at Bassett Park,245 Bassett Road,Erie,Williamsville,14221,7166884011,7166882733,14699,"245 Bassett Road Operating Company, LLC",240-F-898,105,,105,,22,Adult Home,LLC,Western Regional Office - Buffalo,"245 Bassett Road
Williamsville, NY 14221
(42.996802, -78.728452)"
Victor Views Assisted Living,1440 State Route 444,Ontario,Victor,14564,3155765082,5852073983,15184,Poole Senior Living LLC,530-F-063,12,,12,,,Adult Home,LLC,Western Regional Office - Buffalo,"1440 State Route 444
Victor, NY 14564
(42.964697, -77.41202)"
Atria Cutter Mill,96 Cutter Mill Road,Nassau,Great Neck,11021,5168583023,5167738735,14846,"ATR New York LH, Inc.",400-S-328,130,,,,,Enriched Housing Program,Business Corporation,Metropolitan Area Regional Office - Long Island,"96 Cutter Mill Road
Great Neck, NY 11021
(40.784272, -73.732339)"
The Bristal at West Babylon,520 Montauk Highway (Unit A),Suffolk,West Babylon,11704,6316355501,6315399860,15079,EB Care at West Babylon LLC,700-S-313,187,,187,60,41,Enriched Housing Program,LLC,Metropolitan Area Regional Office - Long Island,"520 Montauk Highway (Unit A)
West Babylon, NY 11704
(40.687991, -73.340602)"
Atria Delmar Place,467 Delaware Ave,Albany,Delmar,12054,5184344663,5184344660,14608,"ATR New York LH, Inc.",000-S-008,106,,106,,,Enriched Housing Program,Business Corporation,Capital District Regional Office,"467 Delaware Ave
Delmar, NY 12054
(42.618759, -73.842359)"
Bishop's Commons at St. Luke,4 Burkle Street,Oswego,Oswego,13126,3153490799,3153490797,14932,"Bishop's Commons, Inc.",560-S-002,68,,,,,Enriched Housing Program,Not for Profit Corporation,Central New York Regional Office,"4 Burkle Street
Oswego, NY 13126
(43.44762, -76.495336)"
Faatz-Crofut Home for the Elderly,46 Grant Avenue,Cayuga,Auburn,13021,3152536141,3152534862,14642,Faatz-Crofut Home for the Elderly,050-E-006,53,,,,,Adult Home,Not for Profit Corporation,Central New York Regional Office,"46 Grant Avenue
Auburn, NY 13021
(42.93832, -76.555784)"
E.R.I.E.  EHP #1 Toomey Abbott Tower,1207 Almond Street,Onondaga,Syracuse,13210,3154288562,3154250529,14904,Enriched Resources for the Independent Elderly Inc,520-S-118,95,,,,,Enriched Housing Program,Not for Profit Corporation,Central New York Regional Office,"1207 Almond Street
Syracuse, NY 13210
(43.038611, -76.142106)"
Frederic Fleming Residence,443-445 West 22nd Street,New York,New York,10011,2122425277,2126758619,14850,West Side Federation For Senior Housing,420-E-374,47,,,,,Adult Home,Not for Profit Corporation,Metropolitan Area Regional Office - New York City,"443-445 West 22nd Street
New York, NY 10011
(40.746411, -74.003209)"
Sue's Rest,396 Canisteo Street,Steuben,Hornell,14843,6073243222,6073243222,15017,Suzanne Coddington  Hubert Coddington,690-F-019,14,,,,,Adult Home,Individual,Western Regional Office - Buffalo,
Eden Heights,4071 Hardt Road,Erie,Eden,14057,7169924466,7169929078,14700,"Eden Heights of Eden Operating, LLC",240-F-900,120,,120,,,Adult Home,LLC,Western Regional Office - Buffalo,
Bergquist Memorial Assisted Living Residences,"4600 Route 60, P.O. Box 350",Chautauqua,Gerry,14740,7169856832,7169854197,14648,The Gerry Homes,060-E-036,32,,32,,,Adult Home,Not for Profit Corporation,Western Regional Office - Buffalo,"4600 Route 60, P.O. Box 350
Gerry, NY 14740
(42.195522, -79.251372)"
The Inn at Menorah Park,4101 East Genesee Street,Onondaga,Syracuse,13214,3154469111,3154461537,14888,"Jewish Home of Central New York Senior Apartments, Inc.",520-E-095,61,,61,,,Adult Home,Not for Profit Corporation,Central New York Regional Office,"4101 East Genesee Street
Syracuse, NY 13214
(43.038147, -76.078344)"
Loretto EHP #1 Bernardine Apartments,417 Churchill Avenue,Onondaga,Syracuse,13205,3154697786,3154694048,14902,"Loretto Adult Community, Inc.",520-S-054,148,117,,,,Enriched Housing Program,Not for Profit Corporation,Central New York Regional Office,"417 Churchill Avenue
Syracuse, NY 13205
(43.0089, -76.139562)"
Atria on the Hudson,321 North Highland Avenue,Westchester,Ossining,10562,9147621980,9147623501,15142,"ATR New York LH, Inc.",800-S-147,185,,185,29,29,Enriched Housing Program,Business Corporation,Metropolitan Area Regional Office - New York City,"321 North Highland Avenue
Ossining, NY 10562
(41.178931, -73.869032)"
The Bristal at Massapequa,400 County Line Road,Nassau,Massapequa,11758,5166910706,5166917204,14840,"EB CARE at Massapequa, LLC",400-S-314,86,,,,,Enriched Housing Program,LLC,Metropolitan Area Regional Office - Long Island,"400 County Line Road
Massapequa, NY 11758
(40.686036, -73.425797)"
Dutchess Care,186 Washington Street,Dutchess,Poughkeepsie,12601,8454717930,8454738189,14671,Azzy Reckess Paula Reckess,230-F-044,92,92,,,,Adult Home,Individual,Metropolitan Area Regional Office - New York City,"186 Washington Street
Poughkeepsie, NY 12601
(41.714475, -73.929507)"
Foltsbrook Center for Senior Living,104 North Washington Street,Herkimer,Herkimer,13350,3158666964,3158666760,14733,"ClaxtonManor, LLC (as Receiver)",320-E-008,80,,,,,Adult Home,Not for Profit Corporation,Central New York Regional Office,
Sage Harbor at Baywinde,100 Kidd Castle Way,Monroe,Webster,14580,5856707000,5857872249,14779,"SL Sage Harbor, LLC",370-F-236,88,,88,,24,Adult Home,LLC,Western Regional Office - Buffalo,"100 Kidd Castle Way
Webster, NY 14580
(43.192951, -77.509176)"
Masonic Home,2150 Bleecker Street,Oneida,Utica,13501,3157984800,3157984901,14876,Trustees of The Masonic Hall and Asylym Fund,510-E-033,96,,,,,Adult Home,Not for Profit Corporation,Central New York Regional Office,
Dawn Hill Adult Home,65 Lisa Drive,Suffolk,North Port,11768,6312618088,6312618088,15040,"Flowerfield Associates, Inc.",700-F-897,30,,,,,Adult Home,Business Corporation,Metropolitan Area Regional Office - Long Island,"65 Lisa Drive
North Port, NY 11768
(40.891866, -73.348777)"
Elderwood Village at Greece,1404 Long Pond Road,Monroe,Rochester,14626,5852257210,5852256411,14783,"1404 Long Pond Road Operating Company, LLC",370-F-248,72,,,,,Adult Home,LLC,Western Regional Office - Buffalo,"1404 Long Pond Road
Rochester, NY 14626
(43.200872, -77.699038)"
Morningside at Home Assisted Living Program,1000 Pelham Parkway South,Bronx,Bronx,10461,7184098266,7189046587,14620,"Morningside Acquisition III, LLC",020-F-821,40,40,,,,Adult Home,LLC,Metropolitan Area Regional Office - New York City,
Valley Vista Adult Home and Assisted Living Program,141 North Road,Ulster,Highland,12528,8456917400,8456913787,15094,"New York Senior Care in the Valley, LLC",740-F-076,89,71,,,,Adult Home,LLC,Metropolitan Area Regional Office - New York City,"141 North Road
Highland, NY 12528
(41.735739, -73.963792)"
"Camphill Ghent, Inc.",2542 Route 66,Columbia,Chatham,12037,5183922760,5183922760,14664,"Camphill Ghent, Inc.",200-E-007,31,18,,,,Adult Home,Business Corporation,Capital District Regional Office,"2542 Route 66
Chatham, NY 12037
(42.342823, -73.608222)"
Dosberg Manor,2680 North Forest Road,Erie,Amherst,14068,7166393311,7166393309,14682,"Menorah Campus Adult Home, Inc.",240-E-141,96,30,,,,Adult Home,Not for Profit Corporation,Western Regional Office - Buffalo,"2680 North Forest Road
Amherst, NY 14068
(43.014946, -78.785382)"
Atria Glen Cove,146 Glen Street,Nassau,Glen Cove,11542,5166717008,5166717810,14844,"ATR New York LH, Inc.",400-S-324,128,,,,,Enriched Housing Program,Business Corporation,Metropolitan Area Regional Office - Long Island,"146 Glen Street
Glen Cove, NY 11542
(40.863196, -73.62517)"
Morgan Estates,4588 Morgan View Road,Livingston,Geneseo,14454,5852436000,5852430286,14762,Peter S. Bruckel,350-F-008,78,,78,39,27,Adult Home,Individual,Western Regional Office - Buffalo,"4588 Morgan View Road
Geneseo, NY 14454
(42.796053, -77.778042)"
Camillus Ridge Terrace,2453 W. Genesee Turnpike,Onondaga,Camillus,13031,3156723790,3156725607,14893,"Eastview Associates, LLC",520-F-157,56,,56,,15,Adult Home,LLC,Central New York Regional Office,"2453 W. Genesee Turnpike
Camillus, NY 13031
(43.035978, -76.338717)"
Tappan Zee Manor,51 Mountainview Avenue,Rockland,Nyack,10960,8453536100,8453531660,14987,"TZ Manor, LLC",620-F-087,150,,,,,Adult Home,LLC,Metropolitan Area Regional Office - New York City,"51 Mountainview Avenue
Nyack, NY 10960
(41.096427, -73.93647)"
Cobbs Hill Manor,1175 Monroe Avenue,Monroe,Rochester,14620,5858518696,5857305397,14781,"Cobbs Hill Manor, Inc.",370-F-242,127,93,,,,Adult Home,Business Corporation,Western Regional Office - Buffalo,"1175 Monroe Avenue
Rochester, NY 14620
(43.138097, -77.57882)"
Harbor View Home for Adults,3900 Shore Parkway,Kings,Brooklyn,11235,7187699700,7189340680,14748,"Harbor View Senior Living Residence, LLC",331-F-282,162,,,,,Adult Home,LLC,Metropolitan Area Regional Office - New York City,"3900 Shore Parkway
Brooklyn, NY 11235
(40.58518, -73.930487)"
St. Francis Park,5229 South Park Avenue,Erie,Hamburg,14075,7166491205,7169612034,14716,"St. Francis Geriatric and Healthcare Services, Inc.",240-S-129,36,,,,,Enriched Housing Program,Not for Profit Corporation,Western Regional Office - Buffalo,"5229 South Park Avenue
Hamburg, NY 14075
(42.754294, -78.824626)"
Maryville Assisted Living,70 Greenlawn Road,Suffolk,Huntington,11743,6314277685,6316734636,15037,"Maryville Adult Home, Inc.",700-F-891,32,,32,32,,Adult Home,Business Corporation,Metropolitan Area Regional Office - Long Island,"70 Greenlawn Road
Huntington, NY 11743
(40.873834, -73.393183)"
Arkell Hall,55 Montgomery Street,Montgomery,Canajoharie,13317,5186735514,5186735612,14804,Arkell Hall Foundation,380-E-002,24,,,,,Adult Home,Not for Profit Corporation,Capital District Regional Office,"55 Montgomery Street
Canajoharie, NY 13317
(42.904189, -74.568867)"
Brooklyn Adult Care Center,2830 Pitkin Avenue,Kings,Brooklyn,11208,7182350900,7182355916,14745,"Brooklyn Adult Care Center, LLC",331-F-278,210,200,,,,Adult Home,LLC,Metropolitan Area Regional Office - New York City,"2830 Pitkin Avenue
Brooklyn, NY 11208
(40.675998, -73.867745)"
The Belvedere,5110 19th Avenue,Kings,Brooklyn,11204,7182231800,7182231801,14750,Boro Park Senior Living Community LLC,331-F-288,200,,200,50,32,Adult Home,LLC,Metropolitan Area Regional Office - New York City,"5110 19th Avenue
Brooklyn, NY 11204
(40.625593, -73.979995)"
St. Mary's Manor,60 Doughty Boulevard,Nassau,Inwood,11096,5162503234,5162395272,14839,"St. Mary's Manor for Senior Citizen Housing Development Fund Company, Inc.",400-S-312,28,,,,,Enriched Housing Program,Not for Profit Corporation,Metropolitan Area Regional Office - Long Island,"60 Doughty Boulevard
Inwood, NY 11096
(40.613528, -73.745846)"
Quail Summit,5102 Parrish Street Ext.,Ontario,Canandaigua,14424,5853961010,5853961741,14914,"Quail Summit, Inc.",530-S-001,55,,,,,Enriched Housing Program,Not for Profit Corporation,Western Regional Office - Buffalo,"5102 Parrish Street Ext.
Canandaigua, NY 14424
(42.872398, -77.296394)"
St. Joseph's Assisted Living,125 Sisters Servants Lane P.O. Box 8,Rockland,Sloatsburg,10974,8457532555,8457536910,14978,"St. Joseph'S Adult Care Home, Inc.",620-E-016,31,20,,,,Adult Home,Not for Profit Corporation,Metropolitan Area Regional Office - New York City,
Rosewood on the Sound,59 Bayville Avenue,Nassau,Bayville,11709,5166281350,5166282839,14829,"Rosewood on the Sound, LLC",400-F-333,50,,50,22,,Adult Home,LLC,Metropolitan Area Regional Office - Long Island,"59 Bayville Avenue
Bayville, NY 11709
(40.910502, -73.57357)"
Argyle Center for Independent Living,4573 State Route 40,Washington,Argyle,12809,5186388274,5186386420,15105,Washington AH Operations Associates LLC,760-F-016,35,35,,,,Adult Home,LLC,Capital District Regional Office,"4573 State Route 40
Argyle, NY 12809
(43.203374, -73.486272)"
Tennyson Court,49 Tennyson Court,Erie,Williamsville,14221,7166329496,7166321822,14691,"Tennyson Court, LLC",240-F-874,93,,93,40,32,Adult Home,LLC,Western Regional Office - Buffalo,"49 Tennyson Court
Williamsville, NY 14221
(42.971049, -78.698756)"
Artis Senior Living of Commack,1131 Jericho Turnpike,Suffolk,Commack,11725,6313437942,6313437946,15069,"Artis Senior Living Operator of Commack, LLC",700-F-961,64,,64,64,64,Adult Home,LLC,Metropolitan Area Regional Office - Long Island,"1131 Jericho Turnpike
Commack, NY 11725
(40.846857, -73.263166)"
Vista on 5th,1261 Fifth Avenue,New York,New York,10029,2125346464,6468548568,14863,Vista on 5th Corp.,420-S-395,127,127,,,,Enriched Housing Program,Not for Profit Corporation,Metropolitan Area Regional Office - New York City,"1261 Fifth Avenue
New York, NY 10029
(40.79539, -73.950289)"
Sunrise of East Meadow,1555 Glenn Curtiss Blvd.,Nassau,East Meadow,11554,5165420990,5165420999,14821,"GWC - East Meadow, Inc.",400-F-322,107,,107,107,26,Adult Home,Business Corporation,Metropolitan Area Regional Office - Long Island,"1555 Glenn Curtiss Blvd.
East Meadow, NY 11554
(40.716891, -73.575557)"
River View Gardens NY Foundation EHP #8,4-12 49th Avenue,Queens,Long Island City,11101,7183618442,7183618534,14958,"New York Foundation for Senior Citizens, Inc.",590-S-303,46,,,,,Enriched Housing Program,Not for Profit Corporation,Metropolitan Area Regional Office - New York City,"4-12 49th Avenue
Long Island City, NY 11101
(40.744217, -73.957969)"
Inspire of McClelland,126 Old Castle Point Road,Dutchess,Wappinger Falls,12590,8458311909,8458311846,14678,"Inspire of McClelland, LLC",230-F-284,75,,,,,Adult Home,LLC,Metropolitan Area Regional Office - New York City,"126 Old Castle Point Road
Wappinger Falls, NY 12590
(41.54165, -73.96333)"
McHarrie Pointe,7740 Meigs Road,Onondaga,Baldwinsville,13027,3156382521,3156382552,14887,Syracuse Home Association,520-E-093,47,,47,47,27,Adult Home,Not for Profit Corporation,Central New York Regional Office,"7740 Meigs Road
Baldwinsville, NY 13027
(43.143853, -76.344759)"
Brookdale Ithaca Assisted Living,103 Bundy Road,Tompkins,Ithaca,14850,6072562580,6072562446,15091,"SH Ithaca Operator, Inc.",730-S-011,53,,53,53,,Enriched Housing Program,Business Corporation,Central New York Regional Office,"103 Bundy Road
Ithaca, NY 14850
(42.460437, -76.530455)"
"Seaview Manor, LLC",210 Beach 47th Street,Queens,Far Rockaway,11691,7184711311,7184711352,14949,"Seaview Manor, Llc",590-F-313,118,118,118,,,Adult Home,LLC,Metropolitan Area Regional Office - New York City,"210 Beach 47th Street
Far Rockaway, NY 11691
(40.593169, -73.777934)"
Castle Gardens Keepsake Village,1715 Castle Gardens Road,Broome,Vestal,13850,6077485700,6074844826,14633,"Hearth Management, LLC",030-F-062,48,,48,14,48,Adult Home,LLC,Central New York Regional Office,"1715 Castle Gardens Road
Vestal, NY 13850
(42.078757, -76.082013)"
The Bristal at Lake Success,69 North Service Road,Nassau,Lake Success,11020,5166001800,5166001900,14831,EB Care at Lake Success LLC,400-F-337,110,,110,50,110,Adult Home,LLC,Metropolitan Area Regional Office - Long Island,"69 North Service Road
Lake Success, NY 11020
(40.768489, -73.712202)"
Ashley Woods,400 YMCA Way,Monroe,Penfield,14526,5859788889,5855107334,15166,"Episcopal Senior Housing, Penfield, LLC",370-E-206,30,,30,4,30,Adult Home,Not for Profit Corporation,Western Regional Office - Rochester,
Village Green A Carlisle Assisted Living Community,90 Schoolhouse Road,Nassau,Levittown,11756,5162712500,5162034307,14833,"D & F Levittown, A.L., LLC",400-F-341,103,,103,103,46,Adult Home,LLC,Metropolitan Area Regional Office - Long Island,"90 Schoolhouse Road
Levittown, NY 11756
(40.729042, -73.531719)"
Clark Meadows at Ferris Hills,One Clark Meadows,Ontario,Canandaigua,14424,5853934330,5853930567,14915,"FF Thompson Senior Communities, Inc.",530-S-003,54,,,,,Enriched Housing Program,Business Corporation,Western Regional Office - Buffalo,
Peregrine Senior Living at Onondaga Hill,4701 Peregrine Way,Onondaga,Syracuse,13207,3154698900,3154221420,14901,Peregrine Senior Living Onondaga Hill LLC,520-F-171,68,,68,15,68,Adult Home,LLC,Central New York Regional Office,
Gurwin Jewish Fay J. Lindner Residence,50 Hauppauge Road,Suffolk,Commack,11725,6317156500,6317158580,15025,"Gurwin Jewish - Fay J. Lindner Residences, Inc.",700-E-288,65,,65,40,14,Adult Home,Not for Profit Corporation,Metropolitan Area Regional Office - Long Island,"50 Hauppauge Road
Commack, NY 11725
(40.828338, -73.298129)"
Promenade at Chestnut Ridge,168 Red Schoolhouse Road,Rockland,Chestnut Ridge,10977,8456200606,8456209056,14985,"Chestnut Operating Company, LLC",620-F-081,198,54,,,,Adult Home,LLC,Metropolitan Area Regional Office - New York City,"168 Red Schoolhouse Road
Chestnut Ridge, NY 10977
(41.073666, -74.054168)"
The Arbors at Islandia West,1515 Veterans Memorial Highway,Suffolk,Islandia,11749,6315823600,6315826082,15048,"Arcadia Management, Inc.",700-F-915,200,,200,,,Adult Home,Business Corporation,Metropolitan Area Regional Office - Long Island,"1515 Veterans Memorial Highway
Islandia, NY 11749
(40.809947, -73.186175)"
"Glen Arden, Inc.",214 Harriman Drive,Orange,Goshen,10924,8452917822,8452917878,14926,"Glen Arden, Inc.",540-S-003,28,,,,,Enriched Housing Program,Not for Profit Corporation,Metropolitan Area Regional Office - New York City,"214 Harriman Drive
Goshen, NY 10924
(41.387222, -74.315188)"
Echo Arms Adult Home,204 Patchogue Road,Suffolk,Port Jefferson Stat.,11776,6314730166,6314736803,15027,"Katz, Harry",700-F-020,49,,,,,Adult Home,Individual,Metropolitan Area Regional Office - Long Island,
Hilton East Assisted Living,231 East Avenue,Monroe,Hilton,14468,5853927171,5853923631,14770,Hilton East Assisted Living LLC,370-F-208,205,119,,,,Adult Home,LLC,Western Regional Office - Buffalo,"231 East Avenue
Hilton, NY 14468
(43.289973, -77.786253)"
RPH-West,48 Cottage Grove Circle,Monroe,North Chili,14514,5852359100,5852351315,14767,"Rochester Presbyterian Home, Inc.",370-E-200,52,,52,19,52,Adult Home,Not for Profit Corporation,Western Regional Office - Buffalo,"48 Cottage Grove Circle
North Chili, NY 14514
(43.120494, -77.810089)"
Pine Harbour,15 New Hampshire Street,Clinton,Plattsburgh,12903,5185615307,5185615377,14663,"Pine Harbour, Inc.",090-S-001,66,,,,,Enriched Housing Program,Not for Profit Corporation,Capital District Regional Office,"15 New Hampshire Street
Plattsburgh, NY 12903
(44.676466, -73.444242)"
Brookdale East Side,7164 East Genesee Street,Onondaga,Fayetteville,13066,3156375127,3156371429,14897,"Painted Post, LLC",520-F-164,88,,,,,Adult Home,LLC,Central New York Regional Office,"7164 East Genesee Street
Fayetteville, NY 13066
(43.028816, -76.027096)"
Maplewood Commons,1015 Saw Mill River Road,Westchester,Ardsley,10502,9144001103,9144780602,15143,"ATR New York LH, Inc.",800-S-149,80,,,,,Enriched Housing Program,Business Corporation,Metropolitan Area Regional Office - New York City,"1015 Saw Mill River Road
Ardsley, NY 10502
(41.022987, -73.843787)"
"Tanglewood Manor, Inc.",560 Fairmount Avenue,Chautauqua,Jamestown,14701,7164832876,7164832832,14652,"Tanglewood Manor, Inc.",060-F-036,158,158,158,,36,Adult Home,Business Corporation,Western Regional Office - Buffalo,"560 Fairmount Avenue
Jamestown, NY 14701
(42.097086, -79.272001)"
Home of the Good Shepherd Saratoga,394-402 Church Street,Saratoga,Saratoga Springs,12866,5184507360,5184507525,15001,"The Church Aid of the Protestant Episcopal Church in the Town of Saratoga Springs, Inc.",640-E-042,105,,105,57,,Adult Home,Not for Profit Corporation,Capital District Regional Office,"394-402 Church Street
Saratoga Springs, NY 12866
(43.0862, -73.818638)"
Symphony Manor at Lancaster,5539 Broadway,Erie,Lancaster,14086,7166835150,7166834049,14701,"Symphony Manor, LLC",240-F-902,117,,,,,Adult Home,LLC,Western Regional Office - Buffalo,
The Waterford on the Bay,2900 Bragg Street,Kings,Brooklyn,11235,7188918400,7187691006,14743,"The Palm Beach Home for Adults, LLC",331-F-272,200,53,147,147,38,Adult Home,LLC,Metropolitan Area Regional Office - New York City,"2900 Bragg Street
Brooklyn, NY 11235
(40.583515, -73.93289)"
"Lakeside Manor Home for Adults, Inc.",797 Brighton Avenue,Richmond,Staten Island,10301,7187209600,7188165356,14970,"Lakeside Manor Home For Adults, Inc.",610-F-037,200,200,,,,Adult Home,Business Corporation,Metropolitan Area Regional Office - New York City,"797 Brighton Avenue
Staten Island, NY 10301
(40.632189, -74.097166)"
The Lodge at Ives Hill,1200 Jewell Drive,Jefferson,Watertown,13601,3156814038,3156816039,14737,"The Lodge at Ives Hill, Inc.",330-S-038,24,,,,,Enriched Housing Program,Not for Profit Corporation,Central New York Regional Office,
Orchard Heights,5200 Chestnut Ridge Road,Erie,Orchard Park,14127,7166620651,7166623870,14695,"Orchard Heights, Inc.",240-F-884,200,,200,200,22,Adult Home,Business Corporation,Western Regional Office - Buffalo,"5200 Chestnut Ridge Road
Orchard Park, NY 14127
(42.744271, -78.748162)"
Brookdale Vestal West,421 Plaza Drive,Broome,Vestal,13850,6077711700,6077710001,14630,"Painted Post, LLC",030-F-056,65,,65,65,65,Adult Home,LLC,Central New York Regional Office,"421 Plaza Drive
Vestal, NY 13850
(42.089853, -75.955659)"
Sunrise of Crestwood,65 Crisfield Street,Westchester,Yonkers,10710,9143953500,9143953510,15130,"GWC-Crestwood, Inc.",800-F-994,116,,116,116,25,Adult Home,Business Corporation,Metropolitan Area Regional Office - New York City,"65 Crisfield Street
Yonkers, NY 10710
(40.975667, -73.828602)"
Castle Senior Living at Forest Hills,108-25 Horace Harding,Queens,Forest Hills,11368,7187604600,7185921808,14960,"Midway A.L., LLC",590-S-307,177,138,,,,Enriched Housing Program,LLC,Metropolitan Area Regional Office - New York City,
Marchand Manor,"121 Main Street, Route 10",Schoharie,Sharon Springs,13459,5182842357,5182842357,15013,"Marchand Manor, LLC",660-F-051,36,36,,,,Adult Home,LLC,Capital District Regional Office,"121 Main Street, Route 10
Sharon Springs, NY 13459
(42.790589, -74.620801)"
Atria Penfield,2006 Five Mile Line Road,Monroe,Penfield,14526,5853810282,5853810788,14772,"ATR New York LH, Inc.",370-F-212,120,,,,,Adult Home,Business Corporation,Western Regional Office - Buffalo,"2006 Five Mile Line Road
Penfield, NY 14526
(43.138181, -77.475664)"
Cohocton Valley Home for Adults,64 South Main Street,Steuben,Avoca,14809,6075662543,6075664144,15019,Cohocton Valley Home for Adults LLC,690-F-031,10,,,,,Adult Home,LLC,Western Regional Office - Buffalo,"64 South Main Street
Avoca, NY 14809
(42.406152, -77.420892)"
Park Inn Home,115-02 Ocean Promenade,Queens,Rockaway Park,11694,7186343400,7186343403,14942,"Konig, Samuel",590-F-104,181,,,,,Adult Home,Individual,Metropolitan Area Regional Office - New York City,"115-02 Ocean Promenade
Rockaway Park, NY 11694
(40.577971, -73.835499)"
Sunrise at Mill Basin,5905 Strickland Avenue,Kings,Brooklyn,11234,7184442600,7184442167,14756,"GWC-Mill Basin, Inc.",331-S-011,142,,142,142,39,Enriched Housing Program,Business Corporation,Metropolitan Area Regional Office - New York City,"5905 Strickland Avenue
Brooklyn, NY 11234
(40.607478, -73.916069)"
Atria Huntington,165 Beverly Road,Suffolk,Huntington,11746,6315493533,6315470439,15058,"ATR New York LH, Inc.",700-F-931,198,,,,,Adult Home,Business Corporation,Metropolitan Area Regional Office - Long Island,"165 Beverly Road
Huntington, NY 11746
(40.830291, -73.380657)"
Rainier Grove at Cherry Ridge,900 Cherry Ridge Road,Monroe,Webster,14580,5856976700,5856718255,14777,"The Glen at Cherry Ridge, LLC",370-F-229,87,,87,15,26,Adult Home,LLC,Western Regional Office - Buffalo,
