Company Name,SBFCertNum,Contact Name,Address 1,Address 2,City,State,Tel,Fax,WebSite,EMail,Wholesale,Retail,Manufacturing,Service,Construction,Architecture and Engineering Services,Small Business,NAICSCode1,NAICSCode2,NAICSCode3,NAICSCode4,NAICSCode5,NAICSCode6,NAICSCode7,NAICSCode8,NAICSCode9,NAICSCode10,NAICSCode11,NAICSCode12,NAICSCode13,NAICSCode14,NAICSCode15,NAICSCode16,NAICSCode17,NAICSCode18,NAICSCode19,NAICSCode20,NAICSCode21,NAICSCode22,NAICSCode23,NAICSCode24,NAICSCode25,NAICSCode26,NAICSCode27,NAICSCode28,NAICSCode29,NAICSCode30,NAICSCode31,NAICSCode32,NAICSCode33,NAICSCode34,NAICSCode35,NAICSCode36,NAICSCode37,NAICSCode38,Geocoded Location
"1st State Staffing Solutions, LLC",SBF20121430,Gary Carter,1050 Industrial Drive,,Middletown,DE,3022859044,,http://www.1ststatestaffingsolutions.com,support@1stStateStaffingSolutions.com,,,,YES,,,YES,561320,561311,0,0,0,0,0,0,0,0,0,0,0,0,0,0,0,0,0,0,0,0,0,0,0,0,0,0,0,0,0,0,0,0,0,0,0,0,"1050 Industrial Drive
Middletown, DE 19709
(39.435521, -75.721501)"
"39 Degrees North Architects, LLC",SBF20071394,Mary McClenaghan,123 N. 3rd Street,2nd Floor,Philadelphia,PA,2154403939,,http://www.39northarchitects.com,mary@39northarchitects.com,,,,,,YES,YES,541310,0,0,0,0,0,0,0,0,0,0,0,0,0,0,0,0,0,0,0,0,0,0,0,0,0,0,0,0,0,0,0,0,0,0,0,0,0,"123 N. 3rd Street
Philadelphia, PA 19106
(39.952685, -75.145123)"
"3rd Wave Brewing Co., LLC",SBF22081596,Lori Clough,501 N. Bi-State Blvd.,,Delmar,DE,3029070423,,http://www.3rdWaveBrewingCo.com,BrewMaster@3rdWaveBrewingCo.com,YES,YES,YES,,,,YES,312120,424810,722410,0,0,0,0,0,0,0,0,0,0,0,0,0,0,0,0,0,0,0,0,0,0,0,0,0,0,0,0,0,0,0,0,0,0,0,"501 N. Bi-State Blvd.
Delmar, DE 18840
(38.460769, -75.57414)"
7 Jewel Logistics LLC,SBF22061588,Kevin McAllister,2 North Sherman Drive,,Bear,DE,4093509759,,,,,,,YES,,,YES,541614,0,0,0,0,0,0,0,0,0,0,0,0,0,0,0,0,0,0,0,0,0,0,0,0,0,0,0,0,0,0,0,0,0,0,0,0,0,"2 North Sherman Drive
Bear, DE 19701
(39.634893, -75.665697)"
"ABBI PRINT, LLC",SBF18083033,Abdoulaye Coumbassa,321 S. 60th Street,,Philadelphia,PA,2154718801,2154718806,http://www.abbiprint.com,acoumbassa@abbiprint.com,,,,YES,,,YES,323111,323113,323117,313310,0,0,0,0,0,0,0,0,0,0,0,0,0,0,0,0,0,0,0,0,0,0,0,0,0,0,0,0,0,0,0,0,0,0,"321 S. 60th Street
Philadelphia, PA 19143
(39.955834, -75.242041)"
"Absolute Solutions and Associates, LLC",DE20033386,Kevin Lisenby,7603 Georgia Avenue NW,Suite 402,Washington,DC,2026309469,8007240163,http://www.absolute-saa.com,info@absolute-saa.com,YES,,,,,,YES,423990,423730,423610,423850,423440,423720,0,0,0,0,0,0,0,0,0,0,0,0,0,0,0,0,0,0,0,0,0,0,0,0,0,0,0,0,0,0,0,0,"7603 Georgia Avenue NW
Washington, DC 20012
(38.981911, -77.026536)"
"Absolute Staffing & Consulting Solutions, LLC",SBF20061376,Tawanda Huff,"532 Baltimore Boulevard, Suite 305",,Westminster,MD,4108489480,4108489486,http://www.ascs1.com,huff.t@ascs1.com,,,,YES,,,YES,561320,524291,541990,0,0,0,0,0,0,0,0,0,0,0,0,0,0,0,0,0,0,0,0,0,0,0,0,0,0,0,0,0,0,0,0,0,0,0,"532 Baltimore Boulevard, Suite 305
Westminster, MD 21157
(39.567072, -76.978098)"
"Absolute Supply and Services, LLC",DE22054074,Paula Tilghman,4592 Beech Road,,Temple Hills,MD,3014564927,8885599693,http://www.absolute-sas.com,ptilghman@absolute-sas.com,YES,,,,,,,423730,423990,423720,238210,238220,423610,423850,425120,0,0,0,0,0,0,0,0,0,0,0,0,0,0,0,0,0,0,0,0,0,0,0,0,0,0,0,0,0,0,"4592 Beech Road
Temple Hills, MD 20748
(38.8243, -76.939371)"
"Accent Consulting Group of Delaware, LLC",SBF19013093,Milton Booth,21691 D Street,,Rehoboth Beach,DE,3022125051,,,MiltonBooth21691@yahoo.com,,,,YES,,,YES,531320,0,0,0,0,0,0,0,0,0,0,0,0,0,0,0,0,0,0,0,0,0,0,0,0,0,0,0,0,0,0,0,0,0,0,0,0,0,"21691 D Street
Rehoboth Beach, DE 199717413
(38.690376, -75.12677)"
"Access Dental, LLC",SBF18061188,Karen Rose,446 S. New Street,,Dover,DE,3026743303,3026743304,http://www.accessdentalllc.com,smile@accessdentalllc.com,,,,YES,,,YES,621210,0,0,0,0,0,0,0,0,0,0,0,0,0,0,0,0,0,0,0,0,0,0,0,0,0,0,0,0,0,0,0,0,0,0,0,0,0,"446 S. New Street
Dover, DE 19904
(39.154111, -75.526946)"
"ACK Contracting, LLC",DE22034016,Brenda Kellogg,DBA: ACK Contracting,1420 E. Mermaid Lane #242,Wyndmoor,PA,2676887312,,http://www.ackcontracting.com,brenda.kellogg@ackcontracting.com,,,,YES,YES,,,541620,562910,484220,562212,0,0,0,0,0,0,0,0,0,0,0,0,0,0,0,0,0,0,0,0,0,0,0,0,0,0,0,0,0,0,0,0,0,0,
Action Unlimited Resources Inc.,SBF20031349,Aaron Glazar,230 Quigley Boulevard,,New Castle,DE,3023231455,3023231442,http://www.actioncleanup.com,adglazar@actioncleanup.com,YES,,,,,,YES,423850,424130,424690,424990,0,0,0,0,0,0,0,0,0,0,0,0,0,0,0,0,0,0,0,0,0,0,0,0,0,0,0,0,0,0,0,0,0,0,"230 Quigley Boulevard
New Castle, DE 19720
(39.659164, -75.602134)"
AdamBlaine Consulting LLC,SBF21031456,Karalee Adam,512 Quarry Lane,,Bismarck,ND,7014005615,,,kadam@adamblaine.consulting,,,,YES,,,YES,541519,541512,0,0,0,0,0,0,0,0,0,0,0,0,0,0,0,0,0,0,0,0,0,0,0,0,0,0,0,0,0,0,0,0,0,0,0,0,"512 Quarry Lane
Bismarck, ND 58503
(46.857316, -100.786246)"
Addi Naturals LLC,DE22024005,Yemina Israel,400 McCabe Ave,,Wilmington,DE,3029328179,,http://www.AddiNaturals.com,contact@AddiNaturals.com,YES,YES,YES,,,,YES,446120,111998,424210,339999,325611,325620,423850,424990,453998,0,0,0,0,0,0,0,0,0,0,0,0,0,0,0,0,0,0,0,0,0,0,0,0,0,0,0,0,0,"400 McCabe Ave
Wilmington, DE 19802
(39.756707, -75.542143)"
"AGEM Event Management, LLC",DE21023737,Victoria Brown,201 Waterview Drive,,New Castle,DE,3023840115,3022762929,http://www.agemevents.com,agemevents@gmail.com,,,,YES,,,YES,561920,0,0,0,0,0,0,0,0,0,0,0,0,0,0,0,0,0,0,0,0,0,0,0,0,0,0,0,0,0,0,0,0,0,0,0,0,0,"201 Waterview Drive
New Castle, DE 19720
(39.640573, -75.603222)"
"AKOBEN, LLC",SBF20041358,Abdul-Malik Muhammad,"364 East Main Street, Suite 1405",,Middletown,DE,3023791043,,http://www.akobenllc.org,admin@akoben.org,,,,YES,,,YES,611699,611710,0,0,0,0,0,0,0,0,0,0,0,0,0,0,0,0,0,0,0,0,0,0,0,0,0,0,0,0,0,0,0,0,0,0,0,0,"364 East Main Street, Suite 1405
Middletown, DE 19709
(39.450315, -75.704261)"
All-Span Inc.,SBF20121431,James Carter,9347 All-Span Drive,,Bridgeville,DE,3023499460,,http://www.allspaninc.com,rgriffith@allspaninc.com,,,YES,,,,,332312,0,0,0,0,0,0,0,0,0,0,0,0,0,0,0,0,0,0,0,0,0,0,0,0,0,0,0,0,0,0,0,0,0,0,0,0,0,"9347 All-Span Drive
Bridgeville, DE 19933
(38.781582, -75.589947)"
"ALLy Community Health Associates, LLC",SBF20011330,April Lyons,913 N. Market Street,,Wilmington,DE,3023179422,,https://allycommunityhealth.com/,april.lyons@allycommunityhealth.com,,,,YES,,,YES,541611,541612,541613,541990,611710,621999,624110,624190,813319,624120,541720,0,0,0,0,0,0,0,0,0,0,0,0,0,0,0,0,0,0,0,0,0,0,0,0,0,0,0,"913 N. Market Street
Wilmington, DE 19801
(39.745098, -75.54807)"
"Alpha Energy, LLC",SBF19031260,Marcellous Butler,409 Chester Avenue,Suite-B,Annapolis,MD,8887772813,8665967172,http://www.alpha-energy.com,msb@alpha-energy.com,,,,YES,YES,,,221122,237130,238110,238120,541690,0,0,0,0,0,0,0,0,0,0,0,0,0,0,0,0,0,0,0,0,0,0,0,0,0,0,0,0,0,0,0,0,0,"409 Chester Avenue
Annapolis, MD 21403
(38.96893, -76.4804)"
"Alpha Professional Solutions, Inc",SBF20041353,Terrill Brown,,4950 Parkside Ave. Suite 502,Philadelphia,PA,2152262690,2152230321,http://www.alphaprosol.com,execs@alphaprosol.com,,,,YES,,,YES,424120,423210,423420,423740,423850,444190,541990,561410,561499,0,0,0,0,0,0,0,0,0,0,0,0,0,0,0,0,0,0,0,0,0,0,0,0,0,0,0,0,0,"Philadelphia, PA 19131
(39.985962, -75.221785)"
"Alvi Associates, Inc.",DE19113320,Irfan Alvi,110 West Rd,Ste 250,Towson,MD,4103218877,4103218970,http://www.alviassociates.com,admin@alviassociates.com,,,,,,YES,YES,541330,541350,237310,0,0,0,0,0,0,0,0,0,0,0,0,0,0,0,0,0,0,0,0,0,0,0,0,0,0,0,0,0,0,0,0,0,0,0,"110 West Rd
Towson, MD 21204
(39.41066, -76.615462)"
ALW Sourcing LLC,DE22013957,William Allen,200 Continental Drive,Suite 401,Newark,DE,8772595521,8669642430,http://www.alwsourcing.com,bill.allen@alwsourcing.com,,,,YES,,,YES,561440,541613,561422,0,0,0,0,0,0,0,0,0,0,0,0,0,0,0,0,0,0,0,0,0,0,0,0,0,0,0,0,0,0,0,0,0,0,0,"200 Continental Drive
Newark, DE 19713
(39.687535, -75.659049)"
AM40,SBF20091416,Ronald Harrison,800 N. Madison Street,,Wilmington,DE,8043560673,,,a.harrison40@outlook.com,,,,,YES,,YES,236118,0,0,0,0,0,0,0,0,0,0,0,0,0,0,0,0,0,0,0,0,0,0,0,0,0,0,0,0,0,0,0,0,0,0,0,0,0,"800 N. Madison Street
Wilmington, DE 19801
(39.746002, -75.555381)"
"Amazing Family Enterprises, LLC",SBF21121542,Tanerra Willis,DBA The Amazing Corner,112 Gloucester Boulevard,Middletown,DE,2156516933,,http://www.theamazingcorner.com,amazingwethead@gmail.com,,YES,,,,,YES,454110,424120,453998,711510,711320,511130,454111,0,0,0,0,0,0,0,0,0,0,0,0,0,0,0,0,0,0,0,0,0,0,0,0,0,0,0,0,0,0,0,
Ambishes Diva,SBF20071400,Semeko Wimber,PO Box 358,,Cheswold,DE,7575108363,,http://www.ambishesdiva.com,ambishesdiva@gmail.com,,YES,,,,,YES,448140,448190,454110,0,0,0,0,0,0,0,0,0,0,0,0,0,0,0,0,0,0,0,0,0,0,0,0,0,0,0,0,0,0,0,0,0,0,0,
American Energy Supply Corp,DE22064131,Kristen Biaocco,1704 Chichester Avenue,,Upper Chichester,PA,6104944874,6104947444,http://www.fueloilnow.com,kb@fueloilnow.com,,YES,,,,,YES,454310,324110,324199,423860,424710,424720,484220,493190,0,0,0,0,0,0,0,0,0,0,0,0,0,0,0,0,0,0,0,0,0,0,0,0,0,0,0,0,0,0,"1704 Chichester Avenue
Upper Chichester, PA 19061
(39.82755, -75.428916)"
"American Power, LLC DBA American Power Electrical",SBF20031345,Craig Williams,,110 North 63rd Street,Philadelphia,PA,2157477800,2157475874,http://www.americanpoweresc.com,info@americanpoweresc.com,YES,YES,,,,,YES,423610,0,0,0,0,0,0,0,0,0,0,0,0,0,0,0,0,0,0,0,0,0,0,0,0,0,0,0,0,0,0,0,0,0,0,0,0,0,"Philadelphia, PA 19139
(39.961704, -75.22974)"
"American Professional Manufacturing, Inc.",SBF21081511,John Jeffries,dba California Professional Manufacturing,154 Coyado Avenue,Modesto,CA,2095272686,2095273095,http://www.cpmbags.com,john@apm-usa.com,,,YES,,,,YES,326111,326199,0,0,0,0,0,0,0,0,0,0,0,0,0,0,0,0,0,0,0,0,0,0,0,0,0,0,0,0,0,0,0,0,0,0,0,0,
American Public Safety LLC,SBF20041362,Brittany Sgambato,31507 Trading Post Plaza,Unit 10,Millsboro,DE,3023940303,3029074025,http://www.americanpublicsafety.com,brittany@americanpublicsafety.com,YES,,,,,,YES,453998,423850,0,0,0,0,0,0,0,0,0,0,0,0,0,0,0,0,0,0,0,0,0,0,0,0,0,0,0,0,0,0,0,0,0,0,0,0,
"Amodu Engineering Solutions, LLC",SBF21031459,Amodu Osuma,7701 Lindbergh Boulevard,Suite 1708,Philadelphia,PA,3142498623,,http://www.amodu-engineering.com,aosuma@amodu-engineering.com,,,,YES,,,YES,541330,0,0,0,0,0,0,0,0,0,0,0,0,0,0,0,0,0,0,0,0,0,0,0,0,0,0,0,0,0,0,0,0,0,0,0,0,0,"7701 Lindbergh Boulevard
Philadelphia, PA 19153
(39.904105, -75.241038)"
"ANCAR Enterprises, LLC dba AlphaGraphics",DE20123694,Atul Chugh,3411 Silverside Road,Tatnall Building Suite 103,Wilmington,DE,3024711884,3024771540,http://www.alphagraphicswilmington.com,achugh@alphagraphics.com,,,,YES,,,YES,323111,323120,339950,511199,541430,0,0,0,0,0,0,0,0,0,0,0,0,0,0,0,0,0,0,0,0,0,0,0,0,0,0,0,0,0,0,0,0,0,"3411 Silverside Road
Wilmington, DE 19810
(39.808728, -75.541424)"
"Angarai International, Inc.",SBF19031263,Venkat Subramanian,9111 Edmonston Road,Suite 305,Greenbelt,MD,4104725000,2405424903,http://www.angarai-intl.com,debids@angarai-intl.com,,,,YES,YES,,YES,541511,541519,541611,541614,541512,541513,611430,541612,561110,561320,541613,561499,236220,541430,0,0,0,0,0,0,0,0,0,0,0,0,0,0,0,0,0,0,0,0,0,0,0,0,"9111 Edmonston Road
Greenbelt, MD 20770
(38.99939, -76.899492)"
Angela Jo Manieri,SBF18091222,Angela Jo Manieri,DBA: I AM CENTER STAGE,"814 Arbern Place, The Highlands at the Ridge",Newark,DE,3025881142,,http://www.angelajo.com,aj@angelajo.com,,,,YES,,,YES,711510,611699,0,0,0,0,0,0,0,0,0,0,0,0,0,0,0,0,0,0,0,0,0,0,0,0,0,0,0,0,0,0,0,0,0,0,0,0,
"Anglin Cultured Stone Products, LLC",SBF19041279,Stuart Anglin,DBA: Anglin Construction,873 Salem Church Road,Newark,DE,3028347044,3028347033,http://www.anglinconstruction.com,sanglin@anglinconstruction.com,,,YES,,YES,,,236118,236117,238110,238120,238310,237110,237310,238130,238910,238320,0,0,0,0,0,0,0,0,0,0,0,0,0,0,0,0,0,0,0,0,0,0,0,0,0,0,0,0,
A.N.J.J. Staffing & Training LLC,SBF20071390,Donna Johnson,10 Ashley Drive,,New Castle,DE,3025219857,,,anjjstaffingtraining@yahoo.com,,,,YES,,,YES,213112,212321,236115,236116,236210,236220,237110,237120,237310,0,0,0,0,0,0,0,0,0,0,0,0,0,0,0,0,0,0,0,0,0,0,0,0,0,0,0,0,0,"10 Ashley Drive
New Castle, DE 19720
(39.651976, -75.627699)"
archScan LLC,SBF20031346,Vivica Williams,503 Coover Road,,Annapolis,MD,4109748183,4109748286,http://archscan.com,archscan@archscan.com,,,,YES,,,YES,518210,541618,561410,0,0,0,0,0,0,0,0,0,0,0,0,0,0,0,0,0,0,0,0,0,0,0,0,0,0,0,0,0,0,0,0,0,0,0,"503 Coover Road
Annapolis, MD 21401
(38.983391, -76.577073)"
Arimas LLC,SBF20101427,Hafsa Gorman,600 Meldon Avenue,,Donora,PA,4128335753,4128335753,http://www.arimasllc.com,hafsa.gorman@arimasllc.com,YES,,,,,,YES,423310,423330,423390,423720,423730,425120,0,0,0,0,0,0,0,0,0,0,0,0,0,0,0,0,0,0,0,0,0,0,0,0,0,0,0,0,0,0,0,0,"600 Meldon Avenue
Donora, PA 15033
(40.178429, -79.855164)"
Arrow Safety Device Co.,DE19033158,David Speier,123 Dixon Street,P.O. Box 205,Selbyville,DE,3028562516,3028561549,http://www.ArrowSafetyDevice.com,dave@arrowsouthpenn.com,YES,,YES,,,,YES,332312,332313,332322,332323,339991,339993,339999,423120,326220,326291,0,0,0,0,0,0,0,0,0,0,0,0,0,0,0,0,0,0,0,0,0,0,0,0,0,0,0,0,"123 Dixon Street
Selbyville, DE 19975
(38.455084, -75.22938)"
"Atlantic Screen & MFG, Inc.",SBF18051186,Patricia Lawson,142 Broadkill Road,,Milton,DE,3026843197,3026840643,http://www.atlantic-screen.com,atlantic@ce.net,YES,,YES,,,,YES,326122,0,0,0,0,0,0,0,0,0,0,0,0,0,0,0,0,0,0,0,0,0,0,0,0,0,0,0,0,0,0,0,0,0,0,0,0,0,"142 Broadkill Road
Milton, DE 19968
(38.788134, -75.313482)"
"Atriade, LLC",SBF21041475,Mohammed Shehzad,251 Little Falls Drive,,Wilmington,DE,2017218570,2015268333,http://www.atriade.com,mshehzad@atriade.com,,,,YES,,,YES,541618,541690,561621,0,0,0,0,0,0,0,0,0,0,0,0,0,0,0,0,0,0,0,0,0,0,0,0,0,0,0,0,0,0,0,0,0,0,0,"251 Little Falls Drive
Wilmington, DE 19808
(39.760288, -75.623283)"
"Audubon Environmental, Inc.",DE21083851,Carla Morris- Lombardo,372 Atsion Road,,Shamong,NJ,6098593652,,http://www.audubonenvironmental.com,carla@audubonenvironmental.com,,,,,YES,,YES,238910,0,0,0,0,0,0,0,0,0,0,0,0,0,0,0,0,0,0,0,0,0,0,0,0,0,0,0,0,0,0,0,0,0,0,0,0,0,"372 Atsion Road
Shamong, NJ 08088
(39.816884, -74.792146)"
Axiom Acturarial Consulting LLC,SBF21041465,Carlos Sanchez-Fuentes,26 Knapton Street,,Barrington,RI,8605500740,,http://www.axiom-actuarial.com,carlos-fuentes@axiom-actuarial.com,,,,YES,,,YES,541611,541612,541720,524298,0,0,0,0,0,0,0,0,0,0,0,0,0,0,0,0,0,0,0,0,0,0,0,0,0,0,0,0,0,0,0,0,0,0,"26 Knapton Street
Barrington, RI 02806
(41.757339, -71.307716)"
Axon Advisors LLC,SBF21101532,Emily Brammer,333 N. Alabama Street,Suite 350,Indianapolis,IN,3178007962,3178007962,http://www.axonadvisors.com,emily.brammer@axonadvisors.com,,,,YES,,,YES,541611,541618,541690,561320,541910,541990,561311,561312,0,0,0,0,0,0,0,0,0,0,0,0,0,0,0,0,0,0,0,0,0,0,0,0,0,0,0,0,0,0,"333 N. Alabama Street
Indianapolis, IN 46204
(39.772174, -86.152447)"
"AYB Investments, LLC",SBF21011439,Yvette Biggs,314 Friedman Drive,,New Castle,DE,4102995065,,http://www.ybiggshomes.com,biggs69@comcast.net,,,,YES,,,YES,531210,541199,0,0,0,0,0,0,0,0,0,0,0,0,0,0,0,0,0,0,0,0,0,0,0,0,0,0,0,0,0,0,0,0,0,0,0,0,"314 Friedman Drive
New Castle, DE 19720
(39.568899, -75.661038)"
Barter or Buy dba Barter or Buy Childrens',SBF19061299,Jessica King,24 W. Lockwood Street,,Middletown,DE,3027234165,,http://barterorbuyking.com,mrnmrsking824@gmail.com,,YES,,,,,YES,448130,454110,0,0,0,0,0,0,0,0,0,0,0,0,0,0,0,0,0,0,0,0,0,0,0,0,0,0,0,0,0,0,0,0,0,0,0,0,"24 W. Lockwood Street
Middletown, DE 19709
(39.452603, -75.718725)"
"BCAC Financial Services, LLC",SBF20121438,Aisha Copeland,118 Bunche Boulevard,,Wilmington,DE,3023333405,,http://www.badcreditaintcute.com,aishamarie@bcacfinancial.com,,,,YES,,,YES,541611,541990,0,0,0,0,0,0,0,0,0,0,0,0,0,0,0,0,0,0,0,0,0,0,0,0,0,0,0,0,0,0,0,0,0,0,0,0,"118 Bunche Boulevard
Wilmington, DE 19801
(39.712455, -75.553599)"
Beachin Bash LLC,SBF22071595,Erica Kirlin,21273 Catalina Circle,,Rehoboth Beach,DE,3022981414,,http://www.beachinbash.com,erica@beachinbash.com,,,,YES,,,YES,812990,561920,532289,722320,0,0,0,0,0,0,0,0,0,0,0,0,0,0,0,0,0,0,0,0,0,0,0,0,0,0,0,0,0,0,0,0,0,0,"21273 Catalina Circle
Rehoboth Beach, DE 19971
(38.700748, -75.126197)"
"Berner Construction, Inc.",SBF18081208,Andrea Irey,1101 Quarry Road,,Gap,PA,7174423110,7174420457,http://www.bernerconstruction.com,andrea.irey@bernerconstruction.com,,,,,YES,,YES,541620,238910,237990,236210,562910,237310,238110,541380,0,0,0,0,0,0,0,0,0,0,0,0,0,0,0,0,0,0,0,0,0,0,0,0,0,0,0,0,0,0,"1101 Quarry Road
Gap, PA 17527
(40.007718, -75.952625)"
"BGP Publicity, Inc. dba GillespieHall, Inc.",SBF22071593,Bridget Paverd,"1214 A, Old Lancaster Pike",,Hockessin,DE,3022349500,,http://www.GillespieHall.com,Bridget@GillespieHall.com,,,,YES,,,,541820,0,0,0,0,0,0,0,0,0,0,0,0,0,0,0,0,0,0,0,0,0,0,0,0,0,0,0,0,0,0,0,0,0,0,0,0,0,"1214 A, Old Lancaster Pike
Hockessin, DE 19707
(39.78706, -75.695183)"
"Binkley Horticultural Services, Inc.",DE21043790,Erica Boston,PO Box 198,,Montchanin,DE,3027571943,,http://www.binkleyhorticulture.com,binkleyhort@hotmail.com,,,,YES,,,YES,561730,0,0,0,0,0,0,0,0,0,0,0,0,0,0,0,0,0,0,0,0,0,0,0,0,0,0,0,0,0,0,0,0,0,0,0,0,0,
"Black Star Security, Inc.",DE19083280,Ernest Muhammad,"56 Gill Drive, Newark, DE 19713",P.O. Box 526,Wilmington,DE,3022754533,,http://www.blackstarsecurityinc.com,blackstarsecurity@verizon.net,,,,YES,,,YES,561612,541519,541690,561621,611519,541513,0,0,0,0,0,0,0,0,0,0,0,0,0,0,0,0,0,0,0,0,0,0,0,0,0,0,0,0,0,0,0,0,
BlaqRose Consulting LLC DBA BRC LLC,SBF22051583,Ebony Albright,501 Delaware Street,PO Box 26,New Castle,DE,3028983393,,,brc_llc@outlook.com,,,,YES,,,YES,541199,541611,812990,0,0,0,0,0,0,0,0,0,0,0,0,0,0,0,0,0,0,0,0,0,0,0,0,0,0,0,0,0,0,0,0,0,0,0,"501 Delaware Street
New Castle, DE 19720
(39.661333, -75.565954)"
Blasco Contractors,SBF21101531,Brian Starke,802 S. 52nd Street,,Philadelphia,PA,2153138363,,http://www.blascocontractors.com,4blasco@gmail.com,,,,,YES,,YES,484220,0,0,0,0,0,0,0,0,0,0,0,0,0,0,0,0,0,0,0,0,0,0,0,0,0,0,0,0,0,0,0,0,0,0,0,0,0,"802 S. 52nd Street
Philadelphia, PA 19143
(39.945434, -75.224733)"
BLJ&D Flagging LLC,DE20103634,Corlet Demby,820 Carvel Drive,Apt. J12,Dover,DE,3022720574,3027247272,http://bljdflaggingllc.weebly.com,bljdflaggingllc@gmail.com,,,,,YES,,YES,561990,0,0,0,0,0,0,0,0,0,0,0,0,0,0,0,0,0,0,0,0,0,0,0,0,0,0,0,0,0,0,0,0,0,0,0,0,0,"820 Carvel Drive
Dover, DE 19901
(39.174677, -75.518669)"
Blue Collar Utilities LLC,SBF21061495,Stephanie Jarmon,7003 Seashore Highway,,Bridgeville,DE,4104220886,,,jarmonstephanie@yahoo.com,,,,,YES,,YES,237130,0,0,0,0,0,0,0,0,0,0,0,0,0,0,0,0,0,0,0,0,0,0,0,0,0,0,0,0,0,0,0,0,0,0,0,0,0,"7003 Seashore Highway
Bridgeville, DE 19933
(38.750516, -75.621656)"
Blue Diamond Construction/Window Treatments & More,SBF20071399,Wayne Smith,405 W 34th Street,,Wilmington,DE,3022757019,8446011694,http://www.bluediamondconstruction.net,bluediamondconstruction@yahoo.com,,,,YES,YES,,YES,238390,337121,442291,236118,238910,236116,236220,0,0,0,0,0,0,0,0,0,0,0,0,0,0,0,0,0,0,0,0,0,0,0,0,0,0,0,0,0,0,0,"405 W 34th Street
Wilmington, DE 19802
(39.76163, -75.531681)"
Blue Hen Spring Works Inc.,SBF21071504,Billie Thompson,112 N. Rehoboth Boulevard,,Milford,DE,3024226600,3024226613,http://www.bluehensprings.com,bluehensprings@verizon.net,,,YES,YES,,,YES,336330,336390,423110,423120,423850,336340,0,0,0,0,0,0,0,0,0,0,0,0,0,0,0,0,0,0,0,0,0,0,0,0,0,0,0,0,0,0,0,0,"112 N. Rehoboth Boulevard
Milford, DE 19963
(38.918444, -75.418981)"
"Blue Heron Engineering Services, LTD",SBF18061189,Laurie Chase,4784 Donegal Cliffs Drive,,Dublin,OH,6144257462,,https://blueheronengineering.com,lchase@bluehenengineering.com,,,,,,YES,YES,541330,541620,611430,711510,0,0,0,0,0,0,0,0,0,0,0,0,0,0,0,0,0,0,0,0,0,0,0,0,0,0,0,0,0,0,0,0,0,0,"4784 Donegal Cliffs Drive
Dublin, OH 43017
(40.130789, -83.116664)"
"B.L.Ward and Associates, LLC",DE19033154,Brewster Ward,P.O. Box 9312,,Wilmington,DE,3023126051,,http://www.blwardassociates.com,questions@blwardassociates.com,,,,YES,YES,,YES,238320,236118,238310,238330,0,0,0,0,0,0,0,0,0,0,0,0,0,0,0,0,0,0,0,0,0,0,0,0,0,0,0,0,0,0,0,0,0,0,
"BNC Realtors 1000, LLC",SBF19031265,Charles Robinson,564 Brookfield Drive,,Dover,DE,4109215510,,,BNCRealtors@outlook.com,,,,,YES,,YES,562119,484220,238910,0,0,0,0,0,0,0,0,0,0,0,0,0,0,0,0,0,0,0,0,0,0,0,0,0,0,0,0,0,0,0,0,0,0,0,"564 Brookfield Drive
Dover, DE 19901
(39.091695, -75.53775)"
"Booth Management Consulting, LLC",SBF21021448,Robin Booth,7230 Lee Deforest Drive,Suite 202,Columbia,MD,4103094929,4102901171,http://www.bmc-llc.net/,robinb@bmc-llc.net,,,,YES,,,YES,541211,541613,0,0,0,0,0,0,0,0,0,0,0,0,0,0,0,0,0,0,0,0,0,0,0,0,0,0,0,0,0,0,0,0,0,0,0,0,"7230 Lee Deforest Drive
Columbia, MD 21046
(39.17412, -76.81961)"
Bowling Business Strategies LLC,SBF22061591,Jacob Bowling,1210 S. 3rd Street,,Philadelphia,PA,8567392476,,http://www.bowlingbizpa.com,blake@bowlingbizpa.com,,,,YES,,,,541611,541910,624190,0,0,0,0,0,0,0,0,0,0,0,0,0,0,0,0,0,0,0,0,0,0,0,0,0,0,0,0,0,0,0,0,0,0,0,"1210 S. 3rd Street
Philadelphia, PA 19147
(39.932704, -75.149533)"
"Brenneman Printing, Inc.",DE20073572,Jennifer B. Hostetter,P.O. Box 579,,Brownstown,PA,7172992847,7172994965,http://www.brennemaninc.com,jennifer.hostetter@brennemaninc.com,,,YES,YES,,,YES,323111,323117,323120,541430,541860,541870,541890,518210,0,0,0,0,0,0,0,0,0,0,0,0,0,0,0,0,0,0,0,0,0,0,0,0,0,0,0,0,0,0,
"Bridging the Gap Learning Center, LLC",SBF21051490,Cynthia Mewborn-McGowan,dba Bridging the Gap Learning Center,222 Nob Hill Road,Dover,DE,8883022452,,http://www.bridgingthegaplearning.org,info@bridgingthegaplearning.org,,,,YES,,,YES,611710,611430,611691,624190,0,0,0,0,0,0,0,0,0,0,0,0,0,0,0,0,0,0,0,0,0,0,0,0,0,0,0,0,0,0,0,0,0,0,
"Britt's Industries, Inc.",SBF22031561,Elizabeth Britt,40 Hudson Street,Suite 112,Annapolis,MD,4102668100,4102243960,http://www.wosbprinting.com,contact@wosbprinting.com,,,,YES,,,,323117,323120,323111,511130,518210,561499,323113,424110,424490,425120,541430,541614,541890,561410,0,0,0,0,0,0,0,0,0,0,0,0,0,0,0,0,0,0,0,0,0,0,0,0,"40 Hudson Street
Annapolis, MD 21401
(38.986988, -76.529393)"
"Brothers & Associates, LLC",SBF20021334,Danielle Brothers,345 Norman Drive,,Newark,DE,3029832392,3025335278,,dbrothers@brothersandassociates.com,,,,YES,,,YES,624310,0,0,0,0,0,0,0,0,0,0,0,0,0,0,0,0,0,0,0,0,0,0,0,0,0,0,0,0,0,0,0,0,0,0,0,0,0,"345 Norman Drive
Newark, DE 19702
(39.62409, -75.747288)"
"Buy Back Time, LLC",SBF19081311,Laura Kantor-Chupp,P.O.Box 1610,,Dover,DE,3022705107,,http://www.buybacktime.com,Laura.Chupp@buybacktime.com,,,,YES,,,YES,541611,541720,561110,561410,0,0,0,0,0,0,0,0,0,0,0,0,0,0,0,0,0,0,0,0,0,0,0,0,0,0,0,0,0,0,0,0,0,0,
"CAD Import, Inc.",SBF19051292,Evelio Velasquez,650 Centerpoint Blvd,,New Castle,DE,3026284178,3023224262,http://www.cadimportinc.com,ana@cadimportinc.com,YES,,,,,,YES,424210,0,0,0,0,0,0,0,0,0,0,0,0,0,0,0,0,0,0,0,0,0,0,0,0,0,0,0,0,0,0,0,0,0,0,0,0,0,"650 Centerpoint Blvd
New Castle, DE 19720
(39.660412, -75.593126)"
"Capital Courier, LLC",SBF22021551,Isaiah Greene,4022B Rhode Island Drive,,Dover,DE,3028570811,,http://www.capitalcourier.com,info@capitalcourierde.com,,,,YES,,,YES,541199,492110,561499,0,0,0,0,0,0,0,0,0,0,0,0,0,0,0,0,0,0,0,0,0,0,0,0,0,0,0,0,0,0,0,0,0,0,0,"4022B Rhode Island Drive
Dover, DE 19901
(39.104308, -75.507037)"
Caretix LLC,SBF20071393,Juliet Berberian,221 S. Rehoboth Boulevard,,Milford,DE,6262538175,,,jnberberian@gmail.com,,YES,,YES,,,YES,532283,0,0,0,0,0,0,0,0,0,0,0,0,0,0,0,0,0,0,0,0,0,0,0,0,0,0,0,0,0,0,0,0,0,0,0,0,0,"221 S. Rehoboth Boulevard
Milford, DE 19963
(38.913643, -75.415439)"
"Caring Hands Phlebotomy Services, LLC",SBF22061589,Denara Charles,301 6th Avenue,,Wilmington,DE,3025595539,3024821395,,caringhandsphleb@outlook.com,,,,YES,,,YES,621399,621511,0,0,0,0,0,0,0,0,0,0,0,0,0,0,0,0,0,0,0,0,0,0,0,0,0,0,0,0,0,0,0,0,0,0,0,0,"301 6th Avenue
Wilmington, DE 19805
(39.733029, -75.568825)"
"Caring Hearts Home Care, LLC",DE21063827,Dawn Sbriglia,838 Walker Road,Ste.# 22-3,Dover,DE,3027349000,3027349002,,dawns@caringheartshc.com,,,,YES,,,YES,624120,812990,0,0,0,0,0,0,0,0,0,0,0,0,0,0,0,0,0,0,0,0,0,0,0,0,0,0,0,0,0,0,0,0,0,0,0,0,"838 Walker Road
Dover, DE 19904
(39.170044, -75.543612)"
"Carpet For Pennies, LLC",SBF21121543,Marvin Jackson,3422 Retlaw Road,,Gwynn Oak,MD,4109778568,,,cfpgroup1@gmail.com,YES,,,YES,,,YES,236115,236116,236118,236220,238110,238130,238140,238160,238170,238310,238320,238330,238340,238350,238990,442210,444190,0,0,0,0,0,0,0,0,0,0,0,0,0,0,0,0,0,0,0,0,0,"3422 Retlaw Road
Gwynn Oak, MD 21207
(39.336022, -76.717735)"
Carson Research Consulting Inc. dba Inciter,SBF20011333,Taj Carson,,904 West 26th Street,Baltimore,MD,4107934115,,http://www.inciter.io,taj@inciter.io,,,,YES,,,YES,541611,541720,541910,611430,541511,0,0,0,0,0,0,0,0,0,0,0,0,0,0,0,0,0,0,0,0,0,0,0,0,0,0,0,0,0,0,0,0,0,"Baltimore, MD 21211
(39.329817, -76.636119)"
Caterina Supply Inc.,SBF20051371,Linda Gardner,"325 Columbia Turnpike, Suite 308",,Florham Park,NJ,9733253030,9733257360,http://www.caterinasupply.com,peter@brentmaterial.com,YES,,,,,,,423390,0,0,0,0,0,0,0,0,0,0,0,0,0,0,0,0,0,0,0,0,0,0,0,0,0,0,0,0,0,0,0,0,0,0,0,0,0,"325 Columbia Turnpike, Suite 308
Florham Park, NJ 07932
(40.790353, -74.409938)"
"C&D Forrest Transport, LLC",SBF20031344,Charles Forrest,37 Cameo Rd.,PO Box 119,Claymont,DE,3027987404,3027989659,,Cndforrest50@comcast.net,,,,YES,,,YES,484230,484220,484121,484110,484122,0,0,0,0,0,0,0,0,0,0,0,0,0,0,0,0,0,0,0,0,0,0,0,0,0,0,0,0,0,0,0,0,0,"37 Cameo Rd.
Claymont, DE 19703
(39.810971, -75.468345)"
CGC Consulting LLC,SBF18042949,Stacy Ziegler,5400 Limestone Road,Suite 200,Wilmington,DE,3024892280,3024892395,http://www.cgcconsult.com,sziegler@cgcconsult.com,,,,YES,YES,YES,YES,541330,541380,541620,541690,0,0,0,0,0,0,0,0,0,0,0,0,0,0,0,0,0,0,0,0,0,0,0,0,0,0,0,0,0,0,0,0,0,0,"5400 Limestone Road
Wilmington, DE 19808
(39.746197, -75.69984)"
"CGC Geoservices, LLC",DE21023732,Stacy Ziegler,1000 Dawson Drive,Suite C,Newark,DE,3024892398,,http://www.cgcgeoservices.com,stacy@cgcgeoservices.com,,,,YES,YES,,YES,238910,562910,237110,541330,541380,541620,0,0,0,0,0,0,0,0,0,0,0,0,0,0,0,0,0,0,0,0,0,0,0,0,0,0,0,0,0,0,0,0,"1000 Dawson Drive
Newark, DE 19713
(39.653351, -75.721962)"
CG Global Management Solutions LLC,SBF21021453,Ayokunle Jemiri,218 Pavin Court,,Newark,DE,9179228858,,http://www.cggmanagement.com,ayo.jemiri@cggmanagement.com,,,,YES,,,YES,541611,541350,541618,611430,236220,237130,541614,0,0,0,0,0,0,0,0,0,0,0,0,0,0,0,0,0,0,0,0,0,0,0,0,0,0,0,0,0,0,0,"218 Pavin Court
Newark, DE 19702
(39.623758, -75.748388)"
Chiru Consulting LLC,DE21093892,Vijaya Jayaraj,64 Wellesley Way,,Marlton,NJ,8565136388,8053,http://chiruconsulting.com,Vijaya@chiruconsulting.com,,,,YES,,YES,YES,541370,541330,541340,541511,541512,561320,0,0,0,0,0,0,0,0,0,0,0,0,0,0,0,0,0,0,0,0,0,0,0,0,0,0,0,0,0,0,0,0,"64 Wellesley Way
Marlton, NJ 08053
(39.918366, -74.863541)"
C.H. Laws Transport LLC,SBF22081599,Charles Laws,25130 Bethesda Road,,Georgetown,DE,3025195415,,,chlawstransport@yahoo.com,,,,YES,,,YES,484121,484110,484122,0,0,0,0,0,0,0,0,0,0,0,0,0,0,0,0,0,0,0,0,0,0,0,0,0,0,0,0,0,0,0,0,0,0,0,"25130 Bethesda Road
Georgetown, DE 19947
(38.637398, -75.345954)"
Choice MedWaste,SBF19051288,Bruce Georgov,P.O.Box 1443,,Hockessin,DE,3027667575,,http://www.choicemedwaste.com,mat.georgov@choicemedwaste.com,,,,YES,,,YES,562211,562111,562112,562119,562219,562910,562998,0,0,0,0,0,0,0,0,0,0,0,0,0,0,0,0,0,0,0,0,0,0,0,0,0,0,0,0,0,0,0,
"ChromAnimals, LLC",SBF19041278,Ashley Jordan,3 Ashen Sky Ct.,,Bear,DE,6109992967,,http://www.chromanimals.com,chromanimals@gmail.com,YES,YES,,,,,,424990,454110,454390,0,0,0,0,0,0,0,0,0,0,0,0,0,0,0,0,0,0,0,0,0,0,0,0,0,0,0,0,0,0,0,0,0,0,0,"3 Ashen Sky Ct.
Bear, DE 19701
(39.620159, -75.666371)"
CKS Global Ventures LLC DBA AssetOne,SBF21031458,Chaitali Sanghvi,792 Jacobsen Circle,,Newark,DE,3027829844,,http://www.assetone.net,,,,,YES,,,YES,541511,541512,541513,541519,541611,541614,611430,541618,611420,0,0,0,0,0,0,0,0,0,0,0,0,0,0,0,0,0,0,0,0,0,0,0,0,0,0,0,0,0,"792 Jacobsen Circle
Newark, DE 19702
(39.6859, -75.6839)"
"Clean Sweep Custodial Services, LLC",SBF19091316,Alvin Emory,PO Box 10404,,Wilmington,DE,3026502755,,,,,,,YES,,,YES,561720,0,0,0,0,0,0,0,0,0,0,0,0,0,0,0,0,0,0,0,0,0,0,0,0,0,0,0,0,0,0,0,0,0,0,0,0,0,
Clear Ridge Nursery Inc,SBF18081210,Jessica Todd,217 Clear Ridge Road,,Union Bridge,MD,4107757700,4108485806,http://www.clearridgenursery.com,jessica@clearridgenursery.com,YES,,,,,,YES,424930,424910,425120,0,0,0,0,0,0,0,0,0,0,0,0,0,0,0,0,0,0,0,0,0,0,0,0,0,0,0,0,0,0,0,0,0,0,0,"217 Clear Ridge Road
Union Bridge, MD 21791
(39.578049, -77.125729)"
CloudTrend Technologies LLC,SBF21051481,Jatan Upadhyay,1521 Concord Pike,Suite 302,Wilmington,DE,3023842454,,http://www.cloudtrendtechnologies.com,jatan@cloudtrendtechnologies.com,,,,YES,,,YES,541511,541618,0,0,0,0,0,0,0,0,0,0,0,0,0,0,0,0,0,0,0,0,0,0,0,0,0,0,0,0,0,0,0,0,0,0,0,0,
"CNN & O, LLC",SBF18081211,Charles Onwudinjo,P.O Box 5920,,Newark,DE,3029838529,3023595236,,hunteroc@verizon.net,,,,YES,,,YES,561720,561740,0,0,0,0,0,0,0,0,0,0,0,0,0,0,0,0,0,0,0,0,0,0,0,0,0,0,0,0,0,0,0,0,0,0,0,0,
Coaching Edge Consulting LLC,SBF21051487,Susan Long,33707 Skiff Aly,Unit 304,Lewes,DE,4433507128,,,susanlong28@gmail.com,,,,YES,,,YES,611710,0,0,0,0,0,0,0,0,0,0,0,0,0,0,0,0,0,0,0,0,0,0,0,0,0,0,0,0,0,0,0,0,0,0,0,0,0,
Coastal Paint & Remodeling LLC,DE19053233,Eliud Ramirez Mejia,PO Box 547,,Frankford,DE,3022785471,,,Eliud@coastalpaintremodeling.com,,,,,YES,,YES,238320,236118,0,0,0,0,0,0,0,0,0,0,0,0,0,0,0,0,0,0,0,0,0,0,0,0,0,0,0,0,0,0,0,0,0,0,0,0,
"Code Differently, LLC",SBF20081407,Stephanie Eldridge,920 Justison Street,,Wilmington,DE,3019224158,,http://www.codedifferently.com,stephanie@codedifferently.com,,,,YES,,,YES,541511,541512,541519,611420,611513,611519,541611,541618,561311,561320,611430,0,0,0,0,0,0,0,0,0,0,0,0,0,0,0,0,0,0,0,0,0,0,0,0,0,0,0,"920 Justison Street
Wilmington, DE 19801
(39.732233, -75.562091)"
"Compliance Plus Services, Inc.",DE21053819,Michael Logan,240 Gibraltar Road,Suite 100,Horsham,PA,2157341414,2157341424,http://www.complianceplusservices.com,Mlogan@complianceplusservices.com,,,,YES,,,YES,541620,541690,541990,0,0,0,0,0,0,0,0,0,0,0,0,0,0,0,0,0,0,0,0,0,0,0,0,0,0,0,0,0,0,0,0,0,0,0,"240 Gibraltar Road
Horsham, PA 19044
(40.172667, -75.134363)"
Connector Street Inc.,SBF19021249,Andrea Tinianow,101 Norris Road,,Wilmington,DE,3022292147,,http://connectorstreet.com,AndreaBethNY@gmail.com,,,,YES,,,YES,812990,0,0,0,0,0,0,0,0,0,0,0,0,0,0,0,0,0,0,0,0,0,0,0,0,0,0,0,0,0,0,0,0,0,0,0,0,0,"101 Norris Road
Wilmington, DE 19803
(39.769122, -75.549607)"
"Consolidated Energy Design, Inc.",SBF22081600,Rey Montalvo,28 Cedar Street,,Eatontown,NJ,7326818800,,http://www.fadrs.com,reym@cedinternational.com,,,,YES,,,YES,541690,541490,541420,237130,221118,221112,238210,334512,541350,0,0,0,0,0,0,0,0,0,0,0,0,0,0,0,0,0,0,0,0,0,0,0,0,0,0,0,0,0,"28 Cedar Street
Eatontown, NJ 07724
(40.287907, -74.045761)"
Cookie's Paper Petals,SBF21091520,Anastasia Jackson,10 SW Front Street,,Milford,DE,3024010009,,http://www.cookiespaperpetals.com,cookiespaperpetals@yahoo.com,,YES,,YES,,,YES,451120,453110,454110,442299,0,0,0,0,0,0,0,0,0,0,0,0,0,0,0,0,0,0,0,0,0,0,0,0,0,0,0,0,0,0,0,0,0,0,"10 SW Front Street
Milford, DE 19963
(38.912616, -75.429292)"
"Corporate Strategies Group, LLC",SBF21101526,Michele Williams,17436 Slipper Shell Way,Unit 2,Lewes,DE,3023440658,,http://www.corporatestrategiesgrp.com,michele@corporatestrategiesgrp.com,,,,YES,,,YES,541611,541720,531390,925110,921190,0,0,0,0,0,0,0,0,0,0,0,0,0,0,0,0,0,0,0,0,0,0,0,0,0,0,0,0,0,0,0,0,0,"17436 Slipper Shell Way
Lewes, DE 19958
(38.748408, -75.180897)"
"Courageous Hearts, LLC",DE21093911,Rosemary Baughman,,8848 September Way,Lincoln,DE,3025931378,3024220819,http://www.courageoushearts.us,courageoushearts1@rocketmail.com,,,,YES,,,YES,621330,624190,0,0,0,0,0,0,0,0,0,0,0,0,0,0,0,0,0,0,0,0,0,0,0,0,0,0,0,0,0,0,0,0,0,0,0,0,"Lincoln, DE 19960
(38.854423, -75.4094)"
Cra-Monsterz LLC,SBF21011443,Eric Daniels,3 E. Mozart Drive,,Wilmington,DE,3023886425,,,,YES,,,,,,YES,339940,0,0,0,0,0,0,0,0,0,0,0,0,0,0,0,0,0,0,0,0,0,0,0,0,0,0,0,0,0,0,0,0,0,0,0,0,0,"3 E. Mozart Drive
Wilmington, DE 19807
(39.769685, -75.624458)"
"Crawford Consulting Services, Inc.",DE20043512,Linda Schroeder,"239 Highland Avenue, Suite 100",,East Pittsburgh,PA,4128230400,4128232004,http://www.crawfordconsultingservices.com,mcrawford@crawfordcs.com,,,,,YES,,YES,541618,236115,236220,237990,541330,541690,236116,237130,238390,541350,541990,236210,237310,541310,541611,561210,0,0,0,0,0,0,0,0,0,0,0,0,0,0,0,0,0,0,0,0,0,0,"239 Highland Avenue, Suite 100
East Pittsburgh, PA 15112
(40.410183, -79.838153)"
"Creative Flooring Contractors, Inc.",DE21053823,Lisa Rose,95 Pier Head Blvd.,PO Box 350,Smyrna,DE,3026537521,3026533633,,creative-flooring@comcast.net,,,,,YES,,YES,238340,238330,0,0,0,0,0,0,0,0,0,0,0,0,0,0,0,0,0,0,0,0,0,0,0,0,0,0,0,0,0,0,0,0,0,0,0,0,"95 Pier Head Blvd.
Smyrna, DE 19977
(39.268996, -75.58674)"
"C & T Tag Team, LLC",SBF18081213,Clifton Jones,,PO Box 47,Magnolia,DE,3023102211,,,info@cttagteam.com,,,,YES,,,YES,561720,561740,0,0,0,0,0,0,0,0,0,0,0,0,0,0,0,0,0,0,0,0,0,0,0,0,0,0,0,0,0,0,0,0,0,0,0,0,"Magnolia, DE 199622401
(39.069425, -75.499533)"
"Daash Kleaning, Inc.",SBF19081315,Deborah Carter,P.O. Box 1090,,New Castle,DE,3029835246,3023655146,https://www.daashklean.vpweb.com,cleaning@daashklean.com,,,,YES,,,YES,531311,238990,236118,0,0,0,0,0,0,0,0,0,0,0,0,0,0,0,0,0,0,0,0,0,0,0,0,0,0,0,0,0,0,0,0,0,0,0,
"DAB Mediation Consultant, LLC",SBF18071204,Ajawavi Ajavon,1211 North King Street,Second Floor,Wilmington,DE,3025023845,3025167648,http://www.dabmediations.com,info@dabmediations.com,,,,YES,,,YES,541990,624190,541612,0,0,0,0,0,0,0,0,0,0,0,0,0,0,0,0,0,0,0,0,0,0,0,0,0,0,0,0,0,0,0,0,0,0,0,"1211 North King Street
Wilmington, DE 19801
(39.747378, -75.545456)"
"Dara Business Consulting, LLC",SBF20071389,Dale Matthews,222 Remi Drive,,New Castle,DE,3023456037,,,dale@darabiz.com,,,,YES,,,YES,541611,541618,0,0,0,0,0,0,0,0,0,0,0,0,0,0,0,0,0,0,0,0,0,0,0,0,0,0,0,0,0,0,0,0,0,0,0,0,"222 Remi Drive
New Castle, DE 19720
(39.572428, -75.66119)"
Data Management Internationale,SBF20031338,Carol Swezey,55 Lukens Drive,,New Castle,DE,3026561151,3026561169,http://www.dmi-inc.com,carolswezey@dmi-inc.com,,,,YES,,,,518210,0,0,0,0,0,0,0,0,0,0,0,0,0,0,0,0,0,0,0,0,0,0,0,0,0,0,0,0,0,0,0,0,0,0,0,0,0,"55 Lukens Drive
New Castle, DE 19720
(39.687736, -75.550107)"
D by D Printing LLC DBA Delaware Sign Shop,SBF21071503,Kelly Ann Connell,"5083 North DuPont Highway, Suite A & B",,Dover,DE,3026593373,,http://www.delawaresignshop.com,denny@delawaresignshop.com,,,YES,YES,,,YES,339920,323111,424310,423990,423440,541430,453220,541850,424120,314999,323113,0,0,0,0,0,0,0,0,0,0,0,0,0,0,0,0,0,0,0,0,0,0,0,0,0,0,0,"5083 North DuPont Highway, Suite A & B
Dover, DE 19901
(39.218953, -75.574453)"
"DCC Design Group, LLC",SBF18101229,Nicole Cocolin,"2 Mill Road, Suite 103",,Wilmington,DE,3027772100,,http://www.dccdesigngroup.com,n.cocolin@dccdesigngroup.com,,,,YES,,,YES,541410,0,0,0,0,0,0,0,0,0,0,0,0,0,0,0,0,0,0,0,0,0,0,0,0,0,0,0,0,0,0,0,0,0,0,0,0,0,"2 Mill Road, Suite 103
Wilmington, DE 19806
(39.763227, -75.557985)"
"D&D Supply, LLC",SBF21091519,Diana Duffy,135 Hay Road,,Edgemoor,DE,3029903130,3027653700,http://www.danddsupply.com,diana@danddsupply.com,YES,,,,,,YES,423390,423930,424990,238910,238990,0,0,0,0,0,0,0,0,0,0,0,0,0,0,0,0,0,0,0,0,0,0,0,0,0,0,0,0,0,0,0,0,0,"135 Hay Road
Edgemoor, DE 19809
(39.748212, -75.505057)"
"Deafinitions & Interpreting, LLC",DE22024002,Pamela D'Occhio,1148 Pulaski Highway,Suite 236,Bear,DE,3025637714,3023388050,http://www.deafinterpreting.com,info@deafinterpreting.com,,,,YES,,,YES,541930,0,0,0,0,0,0,0,0,0,0,0,0,0,0,0,0,0,0,0,0,0,0,0,0,0,0,0,0,0,0,0,0,0,0,0,0,0,"1148 Pulaski Highway
Bear, DE 19701
(39.630625, -75.663714)"
DE Catering Inc dba SHERM'S Catering,DE21043792,Michael Porter,913 Brandywine Blvd,,Wilmington,DE,3026077200,8669668880,http://www.shermscatering.com,sherm@shermscatering.com,,YES,,YES,,,YES,722320,0,0,0,0,0,0,0,0,0,0,0,0,0,0,0,0,0,0,0,0,0,0,0,0,0,0,0,0,0,0,0,0,0,0,0,0,0,"913 Brandywine Blvd
Wilmington, DE 19809
(39.766806, -75.499604)"
"Deductiv, Inc.",SBF20051368,Joseph Murray,"1148 Pulaski Highway, Suite 225",,Bear,DE,3025880340,,http://www.deductiv.net/,contact@deductiv.net,,,,YES,,,,541519,518210,541511,541618,0,0,0,0,0,0,0,0,0,0,0,0,0,0,0,0,0,0,0,0,0,0,0,0,0,0,0,0,0,0,0,0,0,0,"1148 Pulaski Highway, Suite 225
Bear, DE 19701
(39.630625, -75.663714)"
Deez Creationz LLC,SBF21041472,Dasianee Foster,127 Tidbury Crossing,,Camden,DE,3026708178,,http://www.deezcreationz.info,deefoster@deezcreationz.info,,YES,,,,,YES,454390,454110,0,0,0,0,0,0,0,0,0,0,0,0,0,0,0,0,0,0,0,0,0,0,0,0,0,0,0,0,0,0,0,0,0,0,0,0,"127 Tidbury Crossing
Camden, DE 19934
(39.097412, -75.551183)"
Delaware Green Mattress Disassembling & Recycling,DE20063549,Tanya Whye,PO Box 622,,Claymont,DE,3022752619,,http://www.Dgreenmdr.com,dgreenmdr@gmail.com,,,YES,YES,,,YES,423930,0,0,0,0,0,0,0,0,0,0,0,0,0,0,0,0,0,0,0,0,0,0,0,0,0,0,0,0,0,0,0,0,0,0,0,0,0,
"Delaware IT Institute, Inc.",SBF20051373,Amanda Alli,260 Chapman Road,Suite 104A,Newark,DE,3023685656,,http://www.deitinstitute.com,apokhan@deitinstitute.com,,,,YES,,,YES,611420,611430,611710,611691,611519,0,0,0,0,0,0,0,0,0,0,0,0,0,0,0,0,0,0,0,0,0,0,0,0,0,0,0,0,0,0,0,0,0,"260 Chapman Road
Newark, DE 19702
(39.668077, -75.673683)"
"Delmarva Aquatic and Wetland Services, LLC",SBF19101319,Heather Shotzberger,120 Log Yard Lane,,Townsend,DE,3023761709,,,hshotzberger@verizon.net,,,,,,YES,,541620,541330,112511,112519,0,0,0,0,0,0,0,0,0,0,0,0,0,0,0,0,0,0,0,0,0,0,0,0,0,0,0,0,0,0,0,0,0,0,"120 Log Yard Lane
Townsend, DE 19734
(39.378493, -75.736293)"
Delmarva Community Consultant Services LLC,SBF20121435,Joanne Wescott,10930 Concord Road,,Seaford,DE,3026284690,,http://www.delmarvaccs.com,jwescott@delmarvaccs.com,,,,YES,,,YES,813920,485991,541199,611430,621999,0,0,0,0,0,0,0,0,0,0,0,0,0,0,0,0,0,0,0,0,0,0,0,0,0,0,0,0,0,0,0,0,0,"10930 Concord Road
Seaford, DE 19973
(38.635901, -75.548995)"
DelVideo Productions,SBF20031343,Kristen Melendez,P.O. Box 224,,Smyrna,DE,3022234049,,http://www.delvideo.com,info@delvideo.com,,,,YES,,,YES,512110,512120,512191,512199,512240,541430,0,0,0,0,0,0,0,0,0,0,0,0,0,0,0,0,0,0,0,0,0,0,0,0,0,0,0,0,0,0,0,0,
Denson Mitchell Photography,SBF20011329,Brenda Denson-Mitchell,4023 Kennett Pike,Suite 128,Wilmington,DE,3023146213,,http://www.densonmitchellphotography@zenfolio.com,brenda@densonmitchellphotography.com,,,,YES,,,YES,541921,541922,0,0,0,0,0,0,0,0,0,0,0,0,0,0,0,0,0,0,0,0,0,0,0,0,0,0,0,0,0,0,0,0,0,0,0,0,"4023 Kennett Pike
Wilmington, DE 19807
(39.780714, -75.599616)"
Deny Howeth Photography,SBF21091517,Denise Howeth,17228 Ridge Line Drive,,Lewes,DE,7023396132,,http://www.denyhoweth.com,denyhoweth@gmail.com,,,,YES,,,YES,541922,0,0,0,0,0,0,0,0,0,0,0,0,0,0,0,0,0,0,0,0,0,0,0,0,0,0,0,0,0,0,0,0,0,0,0,0,0,"17228 Ridge Line Drive
Lewes, DE 29958
(38.751418, -75.224685)"
Dependable Construction of Delaware,SBF21111533,William Holley,"300 Cornell Drive, Suite A-2",,Wilmington,DE,3024219152,3024219494,,dcod900@yahoo.com,,,,,YES,,YES,238910,0,0,0,0,0,0,0,0,0,0,0,0,0,0,0,0,0,0,0,0,0,0,0,0,0,0,0,0,0,0,0,0,0,0,0,0,0,"300 Cornell Drive, Suite A-2
Wilmington, DE 19801
(39.714502, -75.552949)"
Derricka Lewis dba Precious Moments Childcare,SBF18061195,Derricka Lewis,,33 Coachlight Ct.,"New Castle,",DE,3023123248,3023260313,,preciousmomentsde@yahoo.com,,,,YES,,,YES,624410,0,0,0,0,0,0,0,0,0,0,0,0,0,0,0,0,0,0,0,0,0,0,0,0,0,0,0,0,0,0,0,0,0,0,0,0,0,"New Castle,, DE 19720
(39.6657, -75.599195)"
Desmond A. Baker & Associates LLC,DE21043795,Desmond Baker,2012 Baynard Boulevard,,Wilmington,DE,3025841383,3024219140,http://www.dabakerllc.com,dabaker01@comcast.net,,,,,,YES,YES,541330,541310,0,0,0,0,0,0,0,0,0,0,0,0,0,0,0,0,0,0,0,0,0,0,0,0,0,0,0,0,0,0,0,0,0,0,0,0,"2012 Baynard Boulevard
Wilmington, DE 19802
(39.757099, -75.545029)"
Desserts By Dana,SBF22061590,Dana Herbert,1212 Capitol Trail,,Newark,DE,3027215798,,http://www.dessertsbydana.com,chef.herbert@dessertsbydana.com,,YES,,,,,YES,722515,0,0,0,0,0,0,0,0,0,0,0,0,0,0,0,0,0,0,0,0,0,0,0,0,0,0,0,0,0,0,0,0,0,0,0,0,0,"1212 Capitol Trail
Newark, DE 19711
(39.697103, -75.71142)"
"DEW Softech, Inc",SBF20101418,Christie Merigala,200 Biddle Avenue,Suite 212,Newark,DE,3029186030,8773399566,http://www.dewsoftech.com,sam.merigala@dewsoftech.com,,,,YES,,,YES,541511,541512,0,0,0,0,0,0,0,0,0,0,0,0,0,0,0,0,0,0,0,0,0,0,0,0,0,0,0,0,0,0,0,0,0,0,0,0,"200 Biddle Avenue
Newark, DE 19702
(39.603097, -75.7553)"
"Dietary Directions, Inc",SBF20081410,Irene Soucy MS RD LDN,7 Augustine Boulevard,,Middletown,DE,3027530560,8006514099,http://www.dietarydirectionsinc.com,Irene@dietarydirectionsinc.com,,,,YES,,,YES,621399,0,0,0,0,0,0,0,0,0,0,0,0,0,0,0,0,0,0,0,0,0,0,0,0,0,0,0,0,0,0,0,0,0,0,0,0,0,"7 Augustine Boulevard
Middletown, DE 19709
(39.508334, -75.631228)"
"Dimensional Products, Inc.",SBF19061304,Cathy Wolfson,2601 Emory Road,Bldg. #7,Finksburg,MD,4108618654,4108618655,https://dpihighwaysystems.com,cwolfson@dpihighwaysystems.com,YES,,,,,,YES,423390,532412,0,0,0,0,0,0,0,0,0,0,0,0,0,0,0,0,0,0,0,0,0,0,0,0,0,0,0,0,0,0,0,0,0,0,0,0,"2601 Emory Road
Finksburg, MD 21048
(39.500464, -76.881191)"
"Dimurian, LLC",SBF19011236,Ana Llinas Gonzalez,24A Trolley Square,Suite 125,Wilmington,DE,2673989670,,,allinas@dimurian.com,YES,,,,YES,,YES,423510,423720,423320,423610,0,0,0,0,0,0,0,0,0,0,0,0,0,0,0,0,0,0,0,0,0,0,0,0,0,0,0,0,0,0,0,0,0,0,"24A Trolley Square
Wilmington, DE 19806
(39.757756, -75.561349)"
Dineste Transportation Group LLC dba Dineste,SBF21041478,Darlene Murray,80 Old Creek Drive,,Clayton,DE,9174424776,,http://www.dineste.com,dvm@dinestetransportationgroup.com,,,,YES,,,YES,485991,485310,485320,485410,485999,722330,492210,0,0,0,0,0,0,0,0,0,0,0,0,0,0,0,0,0,0,0,0,0,0,0,0,0,0,0,0,0,0,0,"80 Old Creek Drive
Clayton, DE 19938
(39.274418, -75.626488)"
"Directory Wizards, Inc.",DE21093882,Stephanie Nichols,P.O. Box 165,,Odessa,DE,3024828004,,http://www.dirwiz.com,sales@dirwiz.com,YES,,,,,,YES,511210,0,0,0,0,0,0,0,0,0,0,0,0,0,0,0,0,0,0,0,0,0,0,0,0,0,0,0,0,0,0,0,0,0,0,0,0,0,
"Diverse Agile Solutions, LLC",SBF19021246,Jerome Brown,307 Sir Paul's Place,,Bel Air,MD,4107132545,,http://www.diverseagilesolutions.com,jbrown@diverseagilesolutions.com,,,,YES,,,YES,541512,541611,0,0,0,0,0,0,0,0,0,0,0,0,0,0,0,0,0,0,0,0,0,0,0,0,0,0,0,0,0,0,0,0,0,0,0,0,"307 Sir Paul's Place
Bel Air, MD 21014
(39.55233, -76.378961)"
"Diverse Supply Solutions, LLC",DE21093895,Kathleen Gorman,35486 Bayview Lane,,Millsboro,DE,2155888300,,http://www.DiversesupplySolutions.net,kathy@diversesupplysolutions.net,YES,,,YES,,,YES,423610,423710,423830,423990,424330,541890,424120,423120,424130,424340,424720,0,0,0,0,0,0,0,0,0,0,0,0,0,0,0,0,0,0,0,0,0,0,0,0,0,0,0,"35486 Bayview Lane
Millsboro, DE 19966
(38.633664, -75.131533)"
Diversity Marketing and Communications,SBF22081604,Susan Cohen,28 Washington Street,Suite 103,East Orange,NJ,9733770300,9733773090,http://www.diversitymc.com,laura.febbi@diversitymc.com,,,,YES,,,YES,541613,541810,541820,0,0,0,0,0,0,0,0,0,0,0,0,0,0,0,0,0,0,0,0,0,0,0,0,0,0,0,0,0,0,0,0,0,0,0,"28 Washington Street
East Orange, NJ 07017
(40.768811, -74.218859)"
Divine Imaging LLC,SBF20021335,Valerie Reilly,624 Cicada Lane,,Milford,DE,3022496611,,http://www.simplydivinede.com,hello@SimplyDivineDE.com,,,,YES,,,YES,541430,323111,541860,323120,0,0,0,0,0,0,0,0,0,0,0,0,0,0,0,0,0,0,0,0,0,0,0,0,0,0,0,0,0,0,0,0,0,0,"624 Cicada Lane
Milford, DE 19963
(38.963409, -75.433296)"
DL Metal Design LLC,SBF20071401,David Lopez,462 Front Street,,Hellertown,PA,2157013988,,http://www.dlmetaldesign.com,blopez@dlmetaldesign.com,,,YES,,,,YES,236220,236210,0,0,0,0,0,0,0,0,0,0,0,0,0,0,0,0,0,0,0,0,0,0,0,0,0,0,0,0,0,0,0,0,0,0,0,0,"462 Front Street
Hellertown, PA 18055
(40.577866, -75.342538)"
Doc's Medical LLC,SBF20011332,Marvin Nunez,25 Dynasty Drive,,Bear,DE,3024508671,,http://www.docsmedicalsupplies.com,docsmedicalsupplies@gmail.com,YES,,,,,,YES,339112,339113,334516,322291,333314,334510,334519,423210,0,0,0,0,0,0,0,0,0,0,0,0,0,0,0,0,0,0,0,0,0,0,0,0,0,0,0,0,0,0,"25 Dynasty Drive
Bear, DE 19701
(39.580271, -75.730928)"
"Donaldson Electric, Inc.",DE21053817,Kimberly Donaldson,"124 Middleboro Road, Suite A",,Wilmington,DE,3026607534,3026607542,http://www.donaldson-electric.com,kim@donaldson-electric.com,,,,,YES,,YES,238210,0,0,0,0,0,0,0,0,0,0,0,0,0,0,0,0,0,0,0,0,0,0,0,0,0,0,0,0,0,0,0,0,0,0,0,0,0,"124 Middleboro Road, Suite A
Wilmington, DE 19804
(39.721192, -75.582069)"
"Dragonfly, Inc. DBA 95 Traffic Safety Supply",SBF21111538,Mei Greer,9011 E. Hampton Drive,,Capitol Heights,MD,3013955161,,http://www.95trafficsafety.com,info@95trafficsafety.com,YES,,,,,,YES,423320,423390,423450,423710,423860,423990,424690,424910,424950,424990,541690,0,0,0,0,0,0,0,0,0,0,0,0,0,0,0,0,0,0,0,0,0,0,0,0,0,0,0,"9011 E. Hampton Drive
Capitol Heights, MD 20743
(38.883476, -76.849917)"
DSHERRI LLC,SBF19011234,Deneen Thompson,DBA: GS Piles,15 Stallion Drive,Newark,DE,3023532069,,http://www.gspiles.com,info@gspiles.com,,,,,YES,,YES,238190,236220,238990,238910,238130,238120,0,0,0,0,0,0,0,0,0,0,0,0,0,0,0,0,0,0,0,0,0,0,0,0,0,0,0,0,0,0,0,0,
"DSQuorum, LLC DBA Data Society",SBF21021452,Merav Yuravlivker,1717 E. Cary Street,,Richmond,VA,2026990822,2028279832,http://www.datasociety.com,legal@datasociety.com,,,,YES,,,YES,611420,512110,512191,512240,518210,541611,541618,541910,611430,0,0,0,0,0,0,0,0,0,0,0,0,0,0,0,0,0,0,0,0,0,0,0,0,0,0,0,0,0,"1717 E. Cary Street
Richmond, VA 23223
(37.532197, -77.428671)"
"D. Stafford and Associates, LLC",DE22034021,Dolores Stafford,179 Rehoboth Avenue,#1121,Rehoboth Beach,DE,2024385929,,http://www.dstaffordandassociates.com/,dolores@dstaffordandassociates.com,,,,YES,,,YES,541618,611430,561312,561320,0,0,0,0,0,0,0,0,0,0,0,0,0,0,0,0,0,0,0,0,0,0,0,0,0,0,0,0,0,0,0,0,0,0,"179 Rehoboth Avenue
Rehoboth Beach, DE 19971
(38.716221, -75.081669)"
DTI Inc.(DBA Digital Technologies),SBF18083015,Akbar Rahman,62 Albe Drive,Suite B,Newark,DE,3027311928,3027311938,http://www.usedti.com,jboddorff@usedti.com,,,,YES,,,YES,238210,0,0,0,0,0,0,0,0,0,0,0,0,0,0,0,0,0,0,0,0,0,0,0,0,0,0,0,0,0,0,0,0,0,0,0,0,0,"62 Albe Drive
Newark, DE 197021370
(39.65084, -75.713539)"
Eagle Point Solution LLC aka EPS,SBF19061297,Suvas Pandya,8 Hunters Hill Drive,,Morgantown,PA,2153684713,,http://www.epsresource.com,suvasp@eps-llc.com,,,,YES,,,YES,541511,813920,541618,541219,611430,0,0,0,0,0,0,0,0,0,0,0,0,0,0,0,0,0,0,0,0,0,0,0,0,0,0,0,0,0,0,0,0,0,"8 Hunters Hill Drive
Morgantown, PA 19543
(40.161101, -75.869498)"
Early Dawn Refreshment Services Inc.,SBF22081601,Brian Kilgore,DBA Eastern Shore Coffee & Water,31404 Old Ocean City Road,Salisbury,MD,4107494494,8772659962,http://www.easternshorecoffee.com,bkilgore@easternshorecoffee.com,YES,,,,,,,424490,722515,423440,0,0,0,0,0,0,0,0,0,0,0,0,0,0,0,0,0,0,0,0,0,0,0,0,0,0,0,0,0,0,0,0,0,0,0,
Earth Data Incorporated,SBF21111536,Mark Williams,131 Comet Drive,,Centreville,MD,4107588160,,http://www.earthdatainc.com,mwilliams@earthdatainc.com,,,,,,YES,YES,541370,541620,541330,541519,541611,541690,0,0,0,0,0,0,0,0,0,0,0,0,0,0,0,0,0,0,0,0,0,0,0,0,0,0,0,0,0,0,0,0,"131 Comet Drive
Centreville, MD 21617
(39.034181, -76.071476)"
"Easy Lift Co., Inc.",SBF19121325,A. Joseph Irons,2 Mill Park Court,,Newark,DE,3027377000,3027377333,http://www.easylifteqpt.com,bjacobs.com,,,YES,,,,,333924,0,0,0,0,0,0,0,0,0,0,0,0,0,0,0,0,0,0,0,0,0,0,0,0,0,0,0,0,0,0,0,0,0,0,0,0,0,"2 Mill Park Court
Newark, DE 19713
(39.684894, -75.700804)"
"Ebert Enterprises, Inc. dba Curry Printing",SBF20051367,Paula Fargo,314 N. Charles Street,,Baltimore,MD,4106852679,,http://www.curryprint.com,annie@curryprint.com,,,YES,,,,YES,323111,323120,541430,541890,314999,0,0,0,0,0,0,0,0,0,0,0,0,0,0,0,0,0,0,0,0,0,0,0,0,0,0,0,0,0,0,0,0,0,"314 N. Charles Street
Baltimore, MD 21201
(39.292792, -76.615376)"
"Eden Rock Project Solutions, LLC",SBF22051585,Carmel Anerino,15 Clayton Avenue,,Wilmington,DE,3024941583,,,carmelanerino@gmail.com,YES,,,YES,,,YES,541614,541990,423320,423510,423390,0,0,0,0,0,0,0,0,0,0,0,0,0,0,0,0,0,0,0,0,0,0,0,0,0,0,0,0,0,0,0,0,0,"15 Clayton Avenue
Wilmington, DE 19809
(39.788567, -75.477534)"
EDH Consulting,DE20063562,Ed Haggerty,19633 Blue Bird Lane,,Rehoboth Beach,DE,3024709322,,http://www.edhcxconsulting.com,ed.Haggerty@edhCXconsulting.com,,,,YES,,,YES,518210,541511,541512,541513,541519,611420,541613,541611,0,0,0,0,0,0,0,0,0,0,0,0,0,0,0,0,0,0,0,0,0,0,0,0,0,0,0,0,0,0,"19633 Blue Bird Lane
Rehoboth Beach, DE 19971
(38.718158, -75.116884)"
"EDLYNCARE, LLC",SBF18081214,Edmond Agyapong,261 Ann Drive,,Middletown,DE,3023766279,3023786829,http://www.edlyncare.com,info@edlynncare.com,,,,YES,,,YES,621610,624120,0,0,0,0,0,0,0,0,0,0,0,0,0,0,0,0,0,0,0,0,0,0,0,0,0,0,0,0,0,0,0,0,0,0,0,0,"261 Ann Drive
Middletown, DE 19709
(39.535914, -75.657584)"
ED-TECH Enterprises LLC,SBF21081509,L'Tanya Spinelli,10 Paisley Street,,Bear,DE,2024211577,,http://www.ed-techenterprises.net,lspinelli@ed-techgroup.com,,,,YES,,,YES,541513,0,0,0,0,0,0,0,0,0,0,0,0,0,0,0,0,0,0,0,0,0,0,0,0,0,0,0,0,0,0,0,0,0,0,0,0,0,"10 Paisley Street
Bear, DE 19701
(39.611729, -75.69536)"
Elaborit Inc.,SBF22031565,Derick Furtado,1237 Parish Avenue,,Claymont,DE,3024673080,,http://www.elaborit.com,dfurtado@elaborit.com,,,,YES,,,YES,541511,541512,423430,541519,541690,541990,511210,519190,517919,541513,0,0,0,0,0,0,0,0,0,0,0,0,0,0,0,0,0,0,0,0,0,0,0,0,0,0,0,0,"1237 Parish Avenue
Claymont, DE 19703
(39.804495, -75.45997)"
"Elegant Enterprise-Wide Solutions, Inc.",DE20123699,Vikas Arora,25961 Hartwood Drive,,Chantilly,VA,7036090215,7037226628,http://www.elegantsolutions.us,varora@elegantsolutions.us,,,,YES,,,YES,541511,541519,541512,518210,541690,561320,561110,0,0,0,0,0,0,0,0,0,0,0,0,0,0,0,0,0,0,0,0,0,0,0,0,0,0,0,0,0,0,0,"25961 Hartwood Drive
Chantilly, VA 20152
(38.89832, -77.493)"
Eleventh House Solutions LLC,SBF20031350,Neoma Rohman,DBA Eleventh House Solutions,19 Bay St. Suite 2,Easton,MD,4437866444,4106908188,http://www.eleventhhousesolutions.com,neomarohman@gmail.com,,,,YES,,,YES,541611,561110,561410,0,0,0,0,0,0,0,0,0,0,0,0,0,0,0,0,0,0,0,0,0,0,0,0,0,0,0,0,0,0,0,0,0,0,0,
"Elite Construction & Design, Inc",SBF19031258,James Burgess,600 Beachwood Avenue,,Milford,DE,3023993974,,http://www.buildelite.com,james@buildelite.com,,,,,YES,,YES,236115,236116,236118,236210,236220,0,0,0,0,0,0,0,0,0,0,0,0,0,0,0,0,0,0,0,0,0,0,0,0,0,0,0,0,0,0,0,0,0,"600 Beachwood Avenue
Milford, DE 19963
(38.903629, -75.421068)"
"ELM Properties, Inc.",SBF21041477,Evette Morrow,301 Old Dupont Road,Suite G,Wilmington,DE,3027623757,3027622127,http://www.elmproperties.net,evette@elmproperties.net,,,,YES,,,YES,531110,531311,531210,531120,531130,531190,561320,0,0,0,0,0,0,0,0,0,0,0,0,0,0,0,0,0,0,0,0,0,0,0,0,0,0,0,0,0,0,0,"301 Old Dupont Road
Wilmington, DE 19804
(39.736486, -75.587856)"
"Endevor, LLC",SBF19051295,Richard Gilbert,3844 Kennett Pike,Suite 210-4,Greenville,DE,3025435055,,http://www.endevorllc.com,tjohnson@endevorllc.com,,YES,,YES,,,YES,541511,511210,518210,0,0,0,0,0,0,0,0,0,0,0,0,0,0,0,0,0,0,0,0,0,0,0,0,0,0,0,0,0,0,0,0,0,0,0,"3844 Kennett Pike
Greenville, DE 19807
(39.776333, -75.596201)"
"Envision2bWell, Inc.",SBF21041476,Tammy Williams,929 High Street,Suite 204,West Chester,PA,8444734748,8447434748,http://www.envision2bwell.io,info@envision2bwell.io,,,,YES,,,YES,511210,541511,0,0,0,0,0,0,0,0,0,0,0,0,0,0,0,0,0,0,0,0,0,0,0,0,0,0,0,0,0,0,0,0,0,0,0,0,"929 High Street
West Chester, PA 19382
(39.941891, -75.591245)"
Epic Marketing Consultants Corporation,DE21043787,Nancy Dibert,501 Main Street,,Odessa,DE,3022859790,3025959091,http://www.epicmc2.com,info@epicmc2.com,,,,YES,,,YES,541613,541810,541860,0,0,0,0,0,0,0,0,0,0,0,0,0,0,0,0,0,0,0,0,0,0,0,0,0,0,0,0,0,0,0,0,0,0,0,"501 Main Street
Odessa, DE 19730
(39.45656, -75.66081)"
Equinox Consulting Partners LLC,SBF19021250,Melvin Williams,9682 Poindexter Court,,Burke,VA,5713141417,8003138784,http://www.equinoxconsultingpartnersllc.com,melvin@equinoxconsultingpartnersllc.com,,,,YES,,,YES,541611,541612,541618,561311,561330,0,0,0,0,0,0,0,0,0,0,0,0,0,0,0,0,0,0,0,0,0,0,0,0,0,0,0,0,0,0,0,0,0,"9682 Poindexter Court
Burke, VA 220151867
(38.802119, -77.281267)"
Eric Hicks Realtor LLC,SBF20111429,Eric Hicks,40 Rambo Terrace,,New Castle,DE,3023575041,,,erichicksrealtor@aol.com,,,,YES,,,YES,531390,531210,0,0,0,0,0,0,0,0,0,0,0,0,0,0,0,0,0,0,0,0,0,0,0,0,0,0,0,0,0,0,0,0,0,0,0,0,"40 Rambo Terrace
New Castle, DE 19720
(39.662725, -75.6224)"
E-Squared Consulting Corporation,DE20023369,Richard Easley,43969 Tavern Drive,Suite 200,Ashburn,VA,7038585588,7037240983,http://www.e-squared.org,reasley@e-squared.org,,,,YES,,,YES,541618,611430,541614,541611,611420,0,0,0,0,0,0,0,0,0,0,0,0,0,0,0,0,0,0,0,0,0,0,0,0,0,0,0,0,0,0,0,0,0,"43969 Tavern Drive
Ashburn, VA 20147
(39.041492, -77.48072)"
"Ethan Solutions, Inc.",SBF20071397,James Wilkinson,"DBA Ethan Solutions Technologies, Inc.","1431 Greenway Drive, Suite 800",Irving,TX,8883340343,8883310344,http://www.ethan-solutions.com,info@ethan-solutions.com,,YES,,,,,YES,541611,541618,541519,541513,541511,541713,518210,611430,0,0,0,0,0,0,0,0,0,0,0,0,0,0,0,0,0,0,0,0,0,0,0,0,0,0,0,0,0,0,
"Eunity Solutions, LLC",SBF21081507,Eunity Gwanmesia,128 Fieldbrook Drive,,Magnolia,DE,3023995776,,http://www.eunitysolutions.com,eunitysolutions@gmail.com,,,,YES,,,YES,541990,0,0,0,0,0,0,0,0,0,0,0,0,0,0,0,0,0,0,0,0,0,0,0,0,0,0,0,0,0,0,0,0,0,0,0,0,0,"128 Fieldbrook Drive
Magnolia, DE 19962
(39.069739, -75.495587)"
Everyone Can Achieve LLC,SBF20081404,Earl Cooper,2010 Woodlawn Avenure,,Wilmington,DE,3023172275,,http://www.ecamot.us,ecooper@ecamot.us,,,,,YES,,YES,238320,561990,561790,562910,0,0,0,0,0,0,0,0,0,0,0,0,0,0,0,0,0,0,0,0,0,0,0,0,0,0,0,0,0,0,0,0,0,0,
"Ewing Safety and Industrial, Inc.",DE22064127,Katherine (Katie) Ewing,1824 North Division Street,,Morris,IL,5185055033,8006471002,http://www.ewingsafety.com,katie@ewingsafety.com,,YES,,,,,YES,454390,423710,423840,423990,423450,423850,424130,424690,448190,453998,812332,424340,424950,0,0,0,0,0,0,0,0,0,0,0,0,0,0,0,0,0,0,0,0,0,0,0,0,0,"1824 North Division Street
Morris, IL 60450
(41.3789, -88.422089)"
Excella Staffing Solutions LLC,SBF21041469,Tammy Zello,PO Box 911,,Middletown,DE,3029857373,3023553079,http://www.goexcella.com,info@goexcella.com,,,,YES,,,YES,561320,561330,0,0,0,0,0,0,0,0,0,0,0,0,0,0,0,0,0,0,0,0,0,0,0,0,0,0,0,0,0,0,0,0,0,0,0,0,
"Executive Broadband Communications, LLC",DE22064124,Pete Daly,6 Jaymar Blvd,,Newark,DE,3024634335,,http://www.executive-broadband.com,pdaly@executive-broadband.com,,YES,,YES,,,YES,515210,517410,517311,517110,0,0,0,0,0,0,0,0,0,0,0,0,0,0,0,0,0,0,0,0,0,0,0,0,0,0,0,0,0,0,0,0,0,0,"6 Jaymar Blvd
Newark, DE 19702
(39.647162, -75.692711)"
"Facility Services Group, Inc.",SBF22021553,Albert Grimes,300 Cornell Drive,,Wilmington,DE,3026913970,,http://www.fsgmaintenance.com,cgrimes@fsgmaintenance.com,,,,YES,,,YES,423220,444190,561720,561740,325612,561790,0,0,0,0,0,0,0,0,0,0,0,0,0,0,0,0,0,0,0,0,0,0,0,0,0,0,0,0,0,0,0,0,"300 Cornell Drive
Wilmington, DE 19801
(39.714502, -75.552949)"
Fifty Plus Home Services LLC dba FPHS,DE22044057,Roland Leonard Ray,23 Beacon Lane,,New Castle,DE,3023223951,3023223951,http://www.50plushomesvc.com,rlndray@aol.com,,,,YES,,,YES,561730,238320,561720,484210,624120,0,0,0,0,0,0,0,0,0,0,0,0,0,0,0,0,0,0,0,0,0,0,0,0,0,0,0,0,0,0,0,0,0,"23 Beacon Lane
New Castle, DE 19720
(39.659078, -75.636128)"
"Fineline Graphics, Inc.",DE22034037,Richard Miller,DBA: Fineline Printing Group,8081 Zionsville Road,Indianapolis,IN,3178724490,3178704410,http://www.finelineprintinggroup.com,richardm@finelineprintinggroup.com,,,YES,,,,YES,541890,323111,322230,0,0,0,0,0,0,0,0,0,0,0,0,0,0,0,0,0,0,0,0,0,0,0,0,0,0,0,0,0,0,0,0,0,0,0,
First Genesis Holdings Inc.,SBF19021241,Roman McDonald,AKA First Genesis Financial Group DBA Benefyx,6020 Greene Street,Philadelphia,PA,6109942124,4847140785,http://www.firstgenesis.net,rmcdonald@firstgenesis.net,,,,YES,,,YES,524126,523930,524113,524210,524298,524114,0,0,0,0,0,0,0,0,0,0,0,0,0,0,0,0,0,0,0,0,0,0,0,0,0,0,0,0,0,0,0,0,
"First State Flagging, LLC",SBF20011331,Patrick Baynard,755 Walker Rd. Suite B,,Dover,DE,3025050213,,,firststateflaggingllc17@outlook.com,,,,,YES,,,561990,0,0,0,0,0,0,0,0,0,0,0,0,0,0,0,0,0,0,0,0,0,0,0,0,0,0,0,0,0,0,0,0,0,0,0,0,0,"755 Walker Rd. Suite B
Dover, DE 19904
(39.170717, -75.540658)"
"FJM Solutions, LLC",SBF20071391,Fred Maahs,1302 Grayson Road,,Wilmington,DE,3023845625,,,fjmsolutionsllc@gmail.com,,,,YES,,,YES,541612,541613,541611,611430,0,0,0,0,0,0,0,0,0,0,0,0,0,0,0,0,0,0,0,0,0,0,0,0,0,0,0,0,0,0,0,0,0,0,"1302 Grayson Road
Wilmington, DE 19803
(39.787011, -75.516072)"
"Forever First Enterprises, LLC",DE20123697,Rochellda Adderly,33 Abbey Road,,Newark,DE,3024383424,3027375542,,Rochellda.Adderly@comcast.net,,,,YES,,,YES,541611,611430,611710,624190,561320,561920,0,0,0,0,0,0,0,0,0,0,0,0,0,0,0,0,0,0,0,0,0,0,0,0,0,0,0,0,0,0,0,0,"33 Abbey Road
Newark, DE 19702
(39.658632, -75.682936)"
"Fortress Veterans, LLC",SBF18071202,Paul Savanuck,12714 Veirs Mill Road,Ste.# 301,Rockville,MD,3016032073,,http://www.fortressveterans.com,paul@fortressveterans.com,,,,YES,YES,,YES,238320,238990,561740,561720,0,0,0,0,0,0,0,0,0,0,0,0,0,0,0,0,0,0,0,0,0,0,0,0,0,0,0,0,0,0,0,0,0,0,"12714 Veirs Mill Road
Rockville, MD 20853
(39.0647, -77.097569)"
"For Your Good Consulting Group, LLC",SBF21031461,Tiffany Scott,331 Wilmore Drive,,Middletown,DE,4047811485,,,drew@fygconsultinggroupllc.com,,,,YES,,,YES,561110,541513,541611,541612,541613,541614,561920,0,0,0,0,0,0,0,0,0,0,0,0,0,0,0,0,0,0,0,0,0,0,0,0,0,0,0,0,0,0,0,"331 Wilmore Drive
Middletown, DE 19709
(39.451752, -75.67704)"
"Foster Bookkeeping Service, LLC",DE22054097,Sarah L. Foster,P.O. BOX 7673,,Newark,DE,3024206091,3023269336,,fosterbookkeep@aol.com,,,,YES,,,YES,541219,541213,518210,541611,0,0,0,0,0,0,0,0,0,0,0,0,0,0,0,0,0,0,0,0,0,0,0,0,0,0,0,0,0,0,0,0,0,0,
Frankie's Trucking LLC,SBF21011442,Francisco Gonzalez,23747 Dove Road,,Seaford,DE,4107138917,,,frankiestrucking@outlook.com,,,,YES,,,YES,484110,484121,484122,0,0,0,0,0,0,0,0,0,0,0,0,0,0,0,0,0,0,0,0,0,0,0,0,0,0,0,0,0,0,0,0,0,0,0,"23747 Dove Road
Seaford, DE 19973
(38.661602, -75.557326)"
Fresh Wind Recovery House,SBF21011446,Nakesha Ross,2101 N. Locust Street,,Wilmington,DE,3025435095,,,freshwindrecoveryllc@gmail.com,,,,YES,,,YES,623210,623220,0,0,0,0,0,0,0,0,0,0,0,0,0,0,0,0,0,0,0,0,0,0,0,0,0,0,0,0,0,0,0,0,0,0,0,0,"2101 N. Locust Street
Wilmington, DE 19802
(39.747889, -75.533662)"
"Friendly One Solutions, LLC",SBF19041274,Joel Johnson-Friendly,241 Porcher Street,,Dover,DE,3026745190,,http://www.friendlyone.us,info@friendlyone.us,YES,YES,,YES,,,YES,423850,423440,423990,453998,541611,0,0,0,0,0,0,0,0,0,0,0,0,0,0,0,0,0,0,0,0,0,0,0,0,0,0,0,0,0,0,0,0,0,"241 Porcher Street
Dover, DE 19901
(39.136501, -75.507356)"
"Frontier Technologies, Inc.",DE22023997,Jayshree Moorthy,1521 Concord Pike,Suite 302,Wilmington,DE,3022252530,3027667080,http://www.ftiusa.com,rmoorthy@ftiusa.com,YES,,,,,,YES,541519,541511,541512,541513,518210,0,0,0,0,0,0,0,0,0,0,0,0,0,0,0,0,0,0,0,0,0,0,0,0,0,0,0,0,0,0,0,0,0,
Galvanized Financial LLC,SBF20081405,Michael Leslie,504 Lilac Drive,,Middletown,DE,2672359559,,http://www.galvanizedfinancial.com,info@galvanizedfinancial.com,,,,YES,,,YES,523930,611710,813211,523920,0,0,0,0,0,0,0,0,0,0,0,0,0,0,0,0,0,0,0,0,0,0,0,0,0,0,0,0,0,0,0,0,0,0,"504 Lilac Drive
Middletown, DE 19709
(39.447056, -75.686783)"
"Gateway International 360, LLC",SBF21071505,Harper Zarker,125 Rickey Boulevard,Unit 518,Bear,DE,6094581806,,http://www.gatewayintl360.com,harper@gatewayintl360.com,,,YES,YES,,,YES,335129,238210,335121,335122,335999,0,0,0,0,0,0,0,0,0,0,0,0,0,0,0,0,0,0,0,0,0,0,0,0,0,0,0,0,0,0,0,0,0,"125 Rickey Boulevard
Bear, DE 19701
(39.607787, -75.708662)"
"Generation Electrical Services, LLC",SBF19031262,Brent Greenfield,P.O. Box 225,,Townsend,DE,3025400397,,http://www.generationelectricalservices.com,info@generationelectricservices.com,,,,YES,,,YES,238210,236220,0,0,0,0,0,0,0,0,0,0,0,0,0,0,0,0,0,0,0,0,0,0,0,0,0,0,0,0,0,0,0,0,0,0,0,0,
GenVision Consulting Group,SBF22041575,Taryn Guy,P.O. Box 446,,Townsend,DE,2677169556,,http://www.genvisionconsultants.com,tguy@genvisionconsultants.com,,,,YES,,,YES,541611,611430,541613,0,0,0,0,0,0,0,0,0,0,0,0,0,0,0,0,0,0,0,0,0,0,0,0,0,0,0,0,0,0,0,0,0,0,0,
GFC Logistics LLC,SBF20101420,Nicholas Berg,9 E. Lookerman Street,Suite 202-735,Dover,DE,3212039511,,http://www.gfc-logistics.net,info@gfclogistics.net,,,YES,,,,,335921,0,0,0,0,0,0,0,0,0,0,0,0,0,0,0,0,0,0,0,0,0,0,0,0,0,0,0,0,0,0,0,0,0,0,0,0,0,"9 E. Lookerman Street
Dover, DE 19901
(39.159071, -75.520096)"
G&G Transport LLC,SBF21051486,Gabriel Galban,4080 Willey Drive,,Townsend,DE,3522665282,,,ggtransportllc1@yahoo.com,,,,YES,,,YES,484220,0,0,0,0,0,0,0,0,0,0,0,0,0,0,0,0,0,0,0,0,0,0,0,0,0,0,0,0,0,0,0,0,0,0,0,0,0,"4080 Willey Drive
Townsend, DE 19734
(39.391038, -75.662411)"
Gina M. Wilson DBA System Strategies,SBF21121546,Gina Wilson,9 E. Aldine Drive,,Hockessin,DE,3022299711,,http://www.systemstrategiesconsulting.com,gwilson@systemstrategiesconsulting.com,,,,YES,,,YES,611430,541611,624110,611699,541612,611710,541512,561110,541614,541720,0,0,0,0,0,0,0,0,0,0,0,0,0,0,0,0,0,0,0,0,0,0,0,0,0,0,0,0,"9 E. Aldine Drive
Hockessin, DE 19707
(39.785111, -75.671128)"
"G&J Delaware Homes, LLC",SBF20021336,Pamela Hill,DBA G&J Quality Homes,31-C Trolley Sq.,Wilmington,DE,4047353025,,http://www.GJQualityHomes.com,gjqualityhomes@gmail.com,,,,YES,,,,531110,624221,623990,624229,531311,531390,238350,0,0,0,0,0,0,0,0,0,0,0,0,0,0,0,0,0,0,0,0,0,0,0,0,0,0,0,0,0,0,0,
Glo-Chem International Inc.,SBF20041356,Mujahid Nyahuma,,3000 Market St. Suite 202,Philadelphia,PA,8006518430,2155211502,http://www.glo-chem.com,info@glo-chem.com,YES,,,,,,YES,236220,423850,425120,541611,0,0,0,0,0,0,0,0,0,0,0,0,0,0,0,0,0,0,0,0,0,0,0,0,0,0,0,0,0,0,0,0,0,0,"Philadelphia, PA 19104
(39.960516, -75.199047)"
"Gon & Clark Group, LLC",SBF20081411,Nakiya McAdams,29 Reilly Court,,Metuchen,NJ,7323393189,,http://www.thegonclarkgroup.com,n.mcadams@thegonclarkgroup.com,,,,,YES,,YES,237310,237110,237990,238320,238910,238990,0,0,0,0,0,0,0,0,0,0,0,0,0,0,0,0,0,0,0,0,0,0,0,0,0,0,0,0,0,0,0,0,"29 Reilly Court
Metuchen, NJ 08840
(40.553504, -74.319795)"
Graphite Systems Inc.,SBF20081413,James Smith,2901 W. Bluegrass Boulevard,Suite 205,Lehi,UT,3854848741,,http://www.graphiteconnect.com,conrad@graphiteconnect.com,,,,YES,,,,511210,0,0,0,0,0,0,0,0,0,0,0,0,0,0,0,0,0,0,0,0,0,0,0,0,0,0,0,0,0,0,0,0,0,0,0,0,0,"2901 W. Bluegrass Boulevard
Lehi, UT 84043
(40.435326, -111.896775)"
"GRC as a Service, LLC",SBF19111323,Nancy Kim,112 Downs Drive,,Wilmington,DE,3026851429,,http://www.grc-as-a-service.com,nk@grc-as-a-service.com,,,,YES,,,,541990,0,0,0,0,0,0,0,0,0,0,0,0,0,0,0,0,0,0,0,0,0,0,0,0,0,0,0,0,0,0,0,0,0,0,0,0,0,"112 Downs Drive
Wilmington, DE 19807
(39.757295, -75.612255)"
Greentec Laboratories LLC,SBF22051582,Kendel Covington,122 Delaware Street,Suite F-7,New Castle,DE,3017047336,,http://www.greenteclabs.com,k.covington@greenteclabs.com,,,YES,,,,YES,325199,325110,325120,0,0,0,0,0,0,0,0,0,0,0,0,0,0,0,0,0,0,0,0,0,0,0,0,0,0,0,0,0,0,0,0,0,0,0,"122 Delaware Street
New Castle, DE 19720
(39.659174, -75.563285)"
"Ground Reconsidered, Inc.",SBF20071392,Karen Skafte,"230 S. Broad Street, Suite 604",,Philadelphia,PA,2157900727,,http://www.groundreconsidered.com,garnier@groundreconsidered.com,,,,,,YES,YES,541320,0,0,0,0,0,0,0,0,0,0,0,0,0,0,0,0,0,0,0,0,0,0,0,0,0,0,0,0,0,0,0,0,0,0,0,0,0,"230 S. Broad Street, Suite 604
Philadelphia, PA 19102
(39.948296, -75.164561)"
"GTech Cleaning Services, LLC.",DE21093905,Tyreese Green,950 Ridge Road,Unit B5,Claymont,DE,3024942102,3027986396,http://www.GTechCleaning.com,tyreese@GTechCleaning.com,,,,YES,,,YES,561720,423850,453998,0,0,0,0,0,0,0,0,0,0,0,0,0,0,0,0,0,0,0,0,0,0,0,0,0,0,0,0,0,0,0,0,0,0,0,"950 Ridge Road
Claymont, DE 19703
(39.814399, -75.441244)"
GwesJones and Associates LLC,SBF22041574,Gregory Jones,338 Meadow Glen Drive,,Bear,DE,3029717100,,http://www.gwesjone.com,gwesjones@gmail.com,,,,YES,,,YES,541611,541990,0,0,0,0,0,0,0,0,0,0,0,0,0,0,0,0,0,0,0,0,0,0,0,0,0,0,0,0,0,0,0,0,0,0,0,0,"338 Meadow Glen Drive
Bear, DE 19701
(39.574534, -75.72862)"
"Halosil Internaitional, Inc.",SBF20061378,David St. Clair,"91 Lukens Drive, Suite A",,New Castle,DE,3024548102,3024548009,http://www.halosil.com,jill@halosil.com,,,YES,,,,,325612,0,0,0,0,0,0,0,0,0,0,0,0,0,0,0,0,0,0,0,0,0,0,0,0,0,0,0,0,0,0,0,0,0,0,0,0,0,"91 Lukens Drive, Suite A
New Castle, DE 197202799
(39.685871, -75.548093)"
"Hampton Enterprises of Delaware, Inc.",SBF20051366,LaMont Hampton,DBA Fresh Coat Painters of MOT,413 Prestwick Place,Townsend,DE,3023787365,,http://www.hampton-enterprises.com,info@hampton-enterprises.com,,,,YES,,,YES,561740,711510,0,0,0,0,0,0,0,0,0,0,0,0,0,0,0,0,0,0,0,0,0,0,0,0,0,0,0,0,0,0,0,0,0,0,0,0,
"Hand in Hand Respite Care Services, LLC",SBF21101527,Tonika Johnson,5 Daniel Rodney Drive,,Dover,DE,3026482536,,,tjohnson@hihrespitecare.com,,,,YES,,,YES,812199,812990,0,0,0,0,0,0,0,0,0,0,0,0,0,0,0,0,0,0,0,0,0,0,0,0,0,0,0,0,0,0,0,0,0,0,0,0,"5 Daniel Rodney Drive
Dover, DE 19904
(39.127866, -75.534589)"
"Happy Helpers Home & Office Services, LLC",SBF20041361,Kendra Perry,364 E. Maint Street,Suite 133,Middletown,DE,3025700073,,http://www.squeakycleanhappy.com,info@squeakycleanhappy.com,,,,YES,,,YES,561720,811192,812910,0,0,0,0,0,0,0,0,0,0,0,0,0,0,0,0,0,0,0,0,0,0,0,0,0,0,0,0,0,0,0,0,0,0,0,"364 E. Maint Street
Middletown, DE 19709
(39.450315, -75.704261)"
"Harvard and Hardship, LLC",SBF18011173,Angel Everett,2406 Middleton Grove Drive,,Brandon,FL,8136252303,,https://www.angeleverett.com/,everettangel7@gmail.com,,,,YES,,,YES,561410,611710,0,0,0,0,0,0,0,0,0,0,0,0,0,0,0,0,0,0,0,0,0,0,0,0,0,0,0,0,0,0,0,0,0,0,0,0,"2406 Middleton Grove Drive
Brandon, FL 33511
(27.914585, -82.327692)"
"HATTIN CONSTRUCTION MANAGEMENT, INC.",SBF20051372,Roosevelt Hattin,"300 Frank H. Ogawa Plaza, Suite 239",,Oakland,CA,5108325800,5102509090,http://www.hattincm.com,rh@hattincm.com,,,,YES,,,YES,541350,541990,541611,541618,0,0,0,0,0,0,0,0,0,0,0,0,0,0,0,0,0,0,0,0,0,0,0,0,0,0,0,0,0,0,0,0,0,0,"300 Frank H. Ogawa Plaza, Suite 239
Oakland, CA 946122038
(37.805567, -122.271641)"
Healing Adults & Adolescents Residential Treatment,SBF21041471,Sheryl Herbert,DBA HAART Program,3560 Wrangle Hill Road,Bear,DE,3028364000,3028363222,http://www.haartprogram.org,sherylherbert@comcast.net,,,,YES,,,YES,623220,623210,0,0,0,0,0,0,0,0,0,0,0,0,0,0,0,0,0,0,0,0,0,0,0,0,0,0,0,0,0,0,0,0,0,0,0,0,
Health Care Solutions of Delaware Valley LLC,SBF21121544,Kristen Motley,131 Woodgreen Road,,Claymont,DE,4842342427,4842444614,http://www.hcsdv.com/,contact@hcsdv.com,,,,YES,,,YES,624190,923120,541611,0,0,0,0,0,0,0,0,0,0,0,0,0,0,0,0,0,0,0,0,0,0,0,0,0,0,0,0,0,0,0,0,0,0,0,"131 Woodgreen Road
Claymont, DE 19703
(39.805457, -75.466714)"
Healthcierge LLC,SBF21041470,Abdou Bah,90 East Hasley Road,Suite 333 #272,Parsippany,NJ,4122929540,,,abah@healthciergellc.com,,,,YES,,,YES,561422,541990,0,0,0,0,0,0,0,0,0,0,0,0,0,0,0,0,0,0,0,0,0,0,0,0,0,0,0,0,0,0,0,0,0,0,0,0,"90 East Hasley Road
Parsippany, NJ 07054
(40.849077, -74.421114)"
"HEALTHe Insights Consulting, LLC",SBF20071385,Lisa Johnson,1306 North Dupont Street,,Wilmington,DE,3028938954,,http://www.HEALTHeinsightsconsulting.com,lisa@healtheinsightsconsulting.com,,,,YES,,,YES,541512,541611,923120,0,0,0,0,0,0,0,0,0,0,0,0,0,0,0,0,0,0,0,0,0,0,0,0,0,0,0,0,0,0,0,0,0,0,0,"1306 North Dupont Street
Wilmington, DE 19806
(39.756013, -75.563835)"
Heart To Heart Health Services,SBF22051579,Theressa Milhouse,896 S. State Street,,Dover,DE,3023820570,,http://www.heart2hearthealthservices.co,heart2hearthealthservices@gmail.com,,,,YES,,,YES,541380,621511,611430,0,0,0,0,0,0,0,0,0,0,0,0,0,0,0,0,0,0,0,0,0,0,0,0,0,0,0,0,0,0,0,0,0,0,0,"896 S. State Street
Dover, DE 19901
(39.144705, -75.52266)"
Henry H Hom DBA First State Safety Services,SBF20071383,Henry Hom,560 Peoples Plaza #283,,Newark,DE,3022921368,3022920761,http://www.firststatesafetyservices.com,info@firststatesafetyservices.com,,,,YES,,,YES,611699,541690,0,0,0,0,0,0,0,0,0,0,0,0,0,0,0,0,0,0,0,0,0,0,0,0,0,0,0,0,0,0,0,0,0,0,0,0,"560 Peoples Plaza #283
Newark, DE 19702
(39.602674, -75.747909)"
"Heritage Consulting, Inc.",SBF18071207,Donna Harris,422 South Camac Street,,Philadelphia,PA,2155461988,,http://www.heritageconsultinginc.com,donna@heritageconsultinginc.com,,,,YES,,,YES,541720,541611,611430,541910,541612,0,0,0,0,0,0,0,0,0,0,0,0,0,0,0,0,0,0,0,0,0,0,0,0,0,0,0,0,0,0,0,0,0,"422 South Camac Street
Philadelphia, PA 19147
(39.944475, -75.162315)"
"Herschel Consulting, LLC",SBF19051290,Ben Lykens,230 Vercelli Drive,,Bear,DE,3017049733,,http://www.herschelconsultingllc.com,herschelconsultingllc@outlook.com,,,,YES,,,YES,611420,523930,812990,0,0,0,0,0,0,0,0,0,0,0,0,0,0,0,0,0,0,0,0,0,0,0,0,0,0,0,0,0,0,0,0,0,0,0,"230 Vercelli Drive
Bear, DE 19701
(39.603388, -75.701162)"
Highpointe LLC,SBF21081510,Opeyemi Ola,1105 Casey Drive,,New Castle,DE,3025461601,,,info.3ellc@gmail.com,,YES,,,,,YES,454110,0,0,0,0,0,0,0,0,0,0,0,0,0,0,0,0,0,0,0,0,0,0,0,0,0,0,0,0,0,0,0,0,0,0,0,0,0,"1105 Casey Drive
New Castle, DE 19720
(39.561923, -75.658662)"
H&M Underground Works LLC,SBF21051485,Monique Gravatt,6 S. Main Street,,Middletown,DE,3025137638,,http://www.hmundergroundworks.com,monique@hmundergroundworks.com,,,,,YES,,YES,237130,238910,238210,237990,0,0,0,0,0,0,0,0,0,0,0,0,0,0,0,0,0,0,0,0,0,0,0,0,0,0,0,0,0,0,0,0,0,0,"6 S. Main Street
Middletown, DE 19709
(39.547649, -75.648917)"
Hola Delaware LLC,SBF19021244,Marianelly Vera,100 Hickory Place,,Newark,DE,3025889582,3028323620,http://www.ElTiempoHispano.com,manellyvera@yahoo.com,,YES,,YES,,,YES,541890,511110,541930,511120,0,0,0,0,0,0,0,0,0,0,0,0,0,0,0,0,0,0,0,0,0,0,0,0,0,0,0,0,0,0,0,0,0,0,"100 Hickory Place
Newark, DE 19702
(39.617513, -75.707026)"
Hoofprints Inc. dba M Lyons Photography,DE22054099,Mary Lyons,246 Deakyneville Rd.,,Townsend,DE,3027573599,,http://hoofprintsinc.com,mary@hoofprintsinc.com,,,,YES,,,YES,541922,541921,711510,541490,541890,711320,442299,0,0,0,0,0,0,0,0,0,0,0,0,0,0,0,0,0,0,0,0,0,0,0,0,0,0,0,0,0,0,0,"246 Deakyneville Rd.
Townsend, DE 19734
(39.368685, -75.546487)"
"Hound Dog Recovery, LLC",DE22054078,Crystal Grelock,2151 S. Dupont Boulevard,,Smyrna,DE,3028363806,3028363805,http://www.hounddogrecovery.com,www.hounddogrecovery@comcast.net,,,,YES,,,YES,488410,561491,0,0,0,0,0,0,0,0,0,0,0,0,0,0,0,0,0,0,0,0,0,0,0,0,0,0,0,0,0,0,0,0,0,0,0,0,"2151 S. Dupont Boulevard
Smyrna, DE 19977
(39.273595, -75.590244)"
"HR Business Expert, LLC",SBF19021251,Adriana Cherundolo,1 Innovation Way,,Newark,DE,3026350655,3022952888,http://www.HRBusinessExpert.com,adriana@hrbusinessexpert.com,,,,YES,,,YES,541612,541618,541611,561311,561320,561110,561312,561330,0,0,0,0,0,0,0,0,0,0,0,0,0,0,0,0,0,0,0,0,0,0,0,0,0,0,0,0,0,0,"1 Innovation Way
Newark, DE 19711
(39.678754, -75.732158)"
"HR Consultants, Inc.",DE21093884,Jonna Contacos-Sawyer,160 Jari Drive,Suite 180,Johnstown,PA,8142663818,8142660189,http://www.hrconsults.com,yvette@hrconsults.com,,,,YES,,,YES,541611,611430,541612,611710,541219,0,0,0,0,0,0,0,0,0,0,0,0,0,0,0,0,0,0,0,0,0,0,0,0,0,0,0,0,0,0,0,0,0,"160 Jari Drive
Johnstown, PA 15904
(40.287092, -78.8277)"
"HR Office Solutions, Inc.",SBF19041273,Deidra Smith,,49 Representative Lane,Dover,DE,7576046812,2068884342,http://www.hrosinc.com,legal@hrosinc.com,,,,YES,,,YES,541199,492110,541120,541611,561110,561499,624310,0,0,0,0,0,0,0,0,0,0,0,0,0,0,0,0,0,0,0,0,0,0,0,0,0,0,0,0,0,0,0,"Dover, DE 19904
(39.171778, -75.577313)"
HR Strategies LLC,DE22054092,Patricia Clendening,137 Back Creek Drive,,Middletown,DE,3023768595,3023768595,http://www.HRStrategies.org,Tricia@HRStrategies.org,,,,YES,,,YES,541612,0,0,0,0,0,0,0,0,0,0,0,0,0,0,0,0,0,0,0,0,0,0,0,0,0,0,0,0,0,0,0,0,0,0,0,0,0,"137 Back Creek Drive
Middletown, DE 19709
(39.502563, -75.76207)"
"ibranch Lab Consultants, LLC",SBF22011548,Sandy Almassou,465 Preakness Run,,Newark,DE,3026029575,,http://www.ibranchlabconsultants.com,support@ibranchlabconsultants.com,,,,YES,,,YES,541611,0,0,0,0,0,0,0,0,0,0,0,0,0,0,0,0,0,0,0,0,0,0,0,0,0,0,0,0,0,0,0,0,0,0,0,0,0,"465 Preakness Run
Newark, DE 19702
(39.625056, -75.78296)"
Icarus Aerospace Inc.,SBF20061377,Joshua Brown,108 Sharlow Drive,,Wallingford,PA,4844088248,,http://www.icarusuas.com,jbrown@icarusuas.com,,,,YES,,,YES,611512,624230,611519,541922,423850,541360,541370,541990,0,0,0,0,0,0,0,0,0,0,0,0,0,0,0,0,0,0,0,0,0,0,0,0,0,0,0,0,0,0,"108 Sharlow Drive
Wallingford, PA 19086
(39.87834, -75.354335)"
"IEI Group, Ltd.",SBF19061303,Rosemary Espanol,428 North 2nd Street,,Philadelphia,PA,2154133700,2154133773,http://www.ieigroup.com,respanol@ieigroup.com,,,,YES,,,YES,541410,0,0,0,0,0,0,0,0,0,0,0,0,0,0,0,0,0,0,0,0,0,0,0,0,0,0,0,0,0,0,0,0,0,0,0,0,0,"428 North 2nd Street
Philadelphia, PA 19123
(39.958272, -75.141949)"
"IJC Systems, Inc.",SBF19041276,Celestinah Ibironke,7021 Holly Springs Lane,Suite A,Elkridge,MD,2403435724,,http://www.ijcsystems.com,info@ijcsystems.com,,,,YES,,,YES,236118,237130,541611,541618,611430,0,0,0,0,0,0,0,0,0,0,0,0,0,0,0,0,0,0,0,0,0,0,0,0,0,0,0,0,0,0,0,0,0,"7021 Holly Springs Lane
Elkridge, MD 21075
(39.178149, -76.784472)"
Illuminate Health Inc.,SBF22081602,Varun Goyal,12172 Frenzel Parkway,,Carmel,IN,3126052390,,https://illuminate.health/,vg@illuminate.health,,,,YES,,,YES,511210,0,0,0,0,0,0,0,0,0,0,0,0,0,0,0,0,0,0,0,0,0,0,0,0,0,0,0,0,0,0,0,0,0,0,0,0,0,"12172 Frenzel Parkway
Carmel, IN 46032
(39.959795, -86.171297)"
Illuminative Strategies Inc.,SBF22051577,Geralyn James,3309 Robbins Road 139,,Springfield,IL,9495471493,8889134032,http://www.illum-strat.com,accounting@illum-strat.com,,,,YES,,,YES,541612,541611,0,0,0,0,0,0,0,0,0,0,0,0,0,0,0,0,0,0,0,0,0,0,0,0,0,0,0,0,0,0,0,0,0,0,0,0,"3309 Robbins Road 139
Springfield, IL 62704
(39.75588, -89.712679)"
"Inspiration Global, LLC",SBF20101424,Jogendra Daita,2538 Raleigh Road,,Hummelstown,PA,7173646530,,http://www.inspirationglobal.com,jdaita@inspirationglobal.com,,,,YES,,,YES,541511,541512,541519,0,0,0,0,0,0,0,0,0,0,0,0,0,0,0,0,0,0,0,0,0,0,0,0,0,0,0,0,0,0,0,0,0,0,0,"2538 Raleigh Road
Hummelstown, PA 17036
(40.243263, -76.723754)"
Inspire By Touch,SBF20051369,Khalil Abdul-Majid,104 McMullen Avenue,Apt B4,New Castle,DE,3028986810,,http://www.inspirebytouch.com,ibtouched@gmail.com,,,,YES,,,YES,812199,0,0,0,0,0,0,0,0,0,0,0,0,0,0,0,0,0,0,0,0,0,0,0,0,0,0,0,0,0,0,0,0,0,0,0,0,0,"104 McMullen Avenue
New Castle, DE 19720
(39.693827, -75.579743)"
"Integrated Health Associates, LLC",SBF19041282,Tiffany Rubin,DBA: Nurse Next Door,101 N. Main St. Ste. A,Camden,DE,3023595561,8556314365,http://www.nursenextdoordelaware.com,tiffany.rubin@nursenextdoor.com,,,,YES,,,YES,621610,0,0,0,0,0,0,0,0,0,0,0,0,0,0,0,0,0,0,0,0,0,0,0,0,0,0,0,0,0,0,0,0,0,0,0,0,0,
"Integrated Technology Solutions, Inc.",SBF18071203,Debra Shapiro,6325 Woodside CT,Suite 130,Columbia,MD,4434209014,4434309020,http://www.itsi-inc.com,dshapiro@itsi-inc.com,,,,YES,,,YES,541511,541513,541512,511210,541519,811212,0,0,0,0,0,0,0,0,0,0,0,0,0,0,0,0,0,0,0,0,0,0,0,0,0,0,0,0,0,0,0,0,"6325 Woodside CT
Columbia, MD 21046
(39.195092, -76.853166)"
"Integrity Multimedia Group, LLC",DE22034013,Albert Street,112 Carroll Lane,,Camden,DE,3025148800,,,integritymmg@gmail.com,,,,YES,,,YES,238210,0,0,0,0,0,0,0,0,0,0,0,0,0,0,0,0,0,0,0,0,0,0,0,0,0,0,0,0,0,0,0,0,0,0,0,0,0,"112 Carroll Lane
Camden, DE 19934
(39.094576, -75.586944)"
"Intellibee, Inc.",SBF19081310,Prasad Beesabathuni,400 Renaissance Center,Suite 2600,Detroit,MI,3135864100,3135864114,http://www.intellibee.com,sales@intellibee.com,,,,YES,,,YES,541511,541512,541519,518210,611420,511210,0,0,0,0,0,0,0,0,0,0,0,0,0,0,0,0,0,0,0,0,0,0,0,0,0,0,0,0,0,0,0,0,"400 Renaissance Center
Detroit, MI 48243
(42.330076, -83.040219)"
Intelogix Solutions LLC,SBF21071500,Toure Wright,3 Germay Drive,Suite 4 #1014,Wilmington,DE,3022839615,,http://www.intelogixsolutions.com,twright@intelogixsolutions.com,,,,YES,,,YES,541690,541519,541511,541512,518210,0,0,0,0,0,0,0,0,0,0,0,0,0,0,0,0,0,0,0,0,0,0,0,0,0,0,0,0,0,0,0,0,0,"3 Germay Drive
Wilmington, DE 19804
(39.731656, -75.578898)"
Interboro Packaging Corporation,DE20033409,Abraham Jeremias,114 Bracken Road,,Montgomery,NY,8457826800,8457812450,,interboro@frontiernet.net,YES,,,,,,YES,326111,315990,0,0,0,0,0,0,0,0,0,0,0,0,0,0,0,0,0,0,0,0,0,0,0,0,0,0,0,0,0,0,0,0,0,0,0,0,"114 Bracken Road
Montgomery, NY 12549-2600
(41.52157, -74.198296)"
"Interpreting Services dba Caroline Greene, NIC",DE22034018,Caroline Greene,302 Concord Road,,Dover,DE,3022997823,,,carolinegreene@comcast.net,,,,YES,,,YES,541930,0,0,0,0,0,0,0,0,0,0,0,0,0,0,0,0,0,0,0,0,0,0,0,0,0,0,0,0,0,0,0,0,0,0,0,0,0,"302 Concord Road
Dover, DE 19904
(39.163234, -75.581594)"
"Intreegue Design, Inc DBA Landscape Acrhcitects",SBF20031341,Colleen Vacelet,,"5668 Furnace Avenue, Unit A",Elkridge,MD,4102059040,,http://www.intreeguedesigns.com,Cvacelet@intreeguedesigns.com,,,,,,YES,YES,541320,0,0,0,0,0,0,0,0,0,0,0,0,0,0,0,0,0,0,0,0,0,0,0,0,0,0,0,0,0,0,0,0,0,0,0,0,0,"Elkridge, MD 21075
(39.201354, -76.754291)"
"It's R Joy, LLC",SBF20121434,Tara White,1201 N. Orange Street,Suite 7581,Wilmington,DE,2153158300,2404687377,http://www.itsrjoy.com,tara@itsrjoy.com,,,,YES,,,YES,561720,561740,0,0,0,0,0,0,0,0,0,0,0,0,0,0,0,0,0,0,0,0,0,0,0,0,0,0,0,0,0,0,0,0,0,0,0,0,"1201 N. Orange Street
Wilmington, DE 19801
(39.748013, -75.547755)"
IVA VOICE & MUSIC LLC,SBF21051480,Emily Tepe,502 Woodlawn Road,,Wilmington,DE,3025453885,,http://www.ivavoice.com,iva@ivavoice.com,,,,YES,,,YES,711510,0,0,0,0,0,0,0,0,0,0,0,0,0,0,0,0,0,0,0,0,0,0,0,0,0,0,0,0,0,0,0,0,0,0,0,0,0,"502 Woodlawn Road
Wilmington, DE 19803
(39.823172, -75.555894)"
"JANUS Software, Inc.",DE22023973,Patricia Fisher,"DBA JANUS Associates, Inc.",2 Omega Drive,Stamford,CT,2032510200,2032510222,http://www.janusassociates.com,Patfisher@JanusAssociates.com,,,,YES,,,YES,541519,541513,611430,541511,541618,541512,511210,519190,541611,541690,611420,541712,541990,561611,0,0,0,0,0,0,0,0,0,0,0,0,0,0,0,0,0,0,0,0,0,0,0,0,
Janust Solutions Inc.,SBF22011550,Parth Hardikar,62 Chippenham Drive,,Voorheers,NJ,8564263709,8562100842,http://www.janustinc.com,parthh@janustinc.com,,,,YES,,,YES,541611,0,0,0,0,0,0,0,0,0,0,0,0,0,0,0,0,0,0,0,0,0,0,0,0,0,0,0,0,0,0,0,0,0,0,0,0,0,"62 Chippenham Drive
Voorheers, NJ 08043
(39.837071, -74.946561)"
Java Bean Caf,SBF22051581,Joe Pilkus,3533 Philadelphia Pike,,Claymont,DE,3027988888,,http://javabeanclaymont.com,jbcafe2021@gmail.com,,YES,,,,,YES,492210,722511,722513,722320,0,0,0,0,0,0,0,0,0,0,0,0,0,0,0,0,0,0,0,0,0,0,0,0,0,0,0,0,0,0,0,0,0,0,"3533 Philadelphia Pike
Claymont, DE 19703
(39.802741, -75.45735)"
"Jaykal LED Solutions, Inc.",SBF20041359,Sanjay Kapuria,26832 Lewes- Georgetown Highway,Building 2 Unit E,Harbeson,DE,3022950015,3022950016,http://www.jaykalusa.com/,Sanjay@Jaykal.net,,,YES,,,,YES,335122,335129,236220,238210,332510,334413,0,0,0,0,0,0,0,0,0,0,0,0,0,0,0,0,0,0,0,0,0,0,0,0,0,0,0,0,0,0,0,0,"26832 Lewes- Georgetown Highway
Harbeson, DE 19951
(38.727532, -75.272256)"
JDJS LLC dba JennyGems,SBF21051489,Jennifer McMillan,26850 Lewes-Georgetown Highway,,Harbeson,DE,8449673748,,http://www.jennygems.com,jennifer@jennygems.com,,,YES,,,,YES,321999,452990,454110,453220,442299,0,0,0,0,0,0,0,0,0,0,0,0,0,0,0,0,0,0,0,0,0,0,0,0,0,0,0,0,0,0,0,0,0,"26850 Lewes-Georgetown Highway
Harbeson, DE 19951
(38.727718, -75.271287)"
JEM Star Enterprises DBA Celestial Shoes,SBF21041466,Michelle Devillers,P.O. Box 2923,,Wilmington,DE,3027225414,3023972665,,mdevillers@celestialshoes.com,YES,,,,,,YES,448210,454110,0,0,0,0,0,0,0,0,0,0,0,0,0,0,0,0,0,0,0,0,0,0,0,0,0,0,0,0,0,0,0,0,0,0,0,0,
"JHP Industrial Supply Company, Inc.",SBF22031560,Emanuel Henderson,321 West Taylor Street,,Syracuse,NY,3154220050,3154223331,http://www.jhpindustrial.com,emo405@aol.com,YES,,,,,,YES,423720,0,0,0,0,0,0,0,0,0,0,0,0,0,0,0,0,0,0,0,0,0,0,0,0,0,0,0,0,0,0,0,0,0,0,0,0,0,"321 West Taylor Street
Syracuse, NY 13202
(43.03868, -76.153743)"
"JHS Medical, Inc.",SBF18081209,Scott M. Green,4 Broadway Avenue,,Duncannon,PA,8668238643,8668645889,http://www.jhsmed.com,scott.green@jhsmed.com,YES,,,,,,YES,423450,0,0,0,0,0,0,0,0,0,0,0,0,0,0,0,0,0,0,0,0,0,0,0,0,0,0,0,0,0,0,0,0,0,0,0,0,0,"4 Broadway Avenue
Duncannon, PA 17020
(40.392435, -77.028722)"
JMD Building Products LLC,DE19083289,Julie D'Agostino,40 Pier Lane West,Building 1,Fairfield,NJ,2122561830,2122561831,http://www.JMDBP.com,,YES,,,,,,YES,423610,423720,424950,423390,423320,423310,423330,423510,423730,423990,423690,423710,423830,423840,425120,332312,0,0,0,0,0,0,0,0,0,0,0,0,0,0,0,0,0,0,0,0,0,0,"40 Pier Lane West
Fairfield, NJ 07004
(40.880965, -74.275107)"
"JMK Behavior, LLC",SBF19101317,Jodi Karabin,3521 Silverside Road,"Quillen Building, Suite 2E",Newark,DE,3029819003,3028610645,http://www.jmkbehavior.com,jodi@jmkbehavior.com,,,,YES,,,YES,621330,621399,0,0,0,0,0,0,0,0,0,0,0,0,0,0,0,0,0,0,0,0,0,0,0,0,0,0,0,0,0,0,0,0,0,0,0,0,
JMM Services LLC,DE21033753,Julia Moffitt,8 The Green,Suite A,Dover,DE,3022880670,,http://www.jmmservices.com,julia@jmmservices.com,,,,YES,,,YES,541613,541614,541199,0,0,0,0,0,0,0,0,0,0,0,0,0,0,0,0,0,0,0,0,0,0,0,0,0,0,0,0,0,0,0,0,0,0,0,"8 The Green
Dover, DE 19901
(39.156426, -75.524087)"
Jones Masonry Restoration Corporation,DE19103302,Derek Jones,6740 Allentown Blvd,Suite 6,Harrisburg,PA,7172338323,7172338150,,jmrccorp1@verizon.net,,,,,YES,,YES,238140,238110,238990,0,0,0,0,0,0,0,0,0,0,0,0,0,0,0,0,0,0,0,0,0,0,0,0,0,0,0,0,0,0,0,0,0,0,0,"6740 Allentown Blvd
Harrisburg, PA 17112
(40.327903, -76.765053)"
Jones Property Company,SBF21061492,Necia Jones,1308 Lancaster Avenue,,Wilmington,DE,3022132695,,,jonespropertycompany@gmail.com,,,,YES,,,YES,531110,531190,531311,531312,541199,0,0,0,0,0,0,0,0,0,0,0,0,0,0,0,0,0,0,0,0,0,0,0,0,0,0,0,0,0,0,0,0,0,"1308 Lancaster Avenue
Wilmington, DE 19805
(39.743381, -75.566103)"
"Journeys, LLC",DE21093880,Rebecca Trent,5201 W. Woodmill Drive,Suite 31,Wilmington,DE,3023847843,3023516427,https://www.journeysllc.com/,rebecca@journeysllc.com,,,,YES,,,YES,621330,0,0,0,0,0,0,0,0,0,0,0,0,0,0,0,0,0,0,0,0,0,0,0,0,0,0,0,0,0,0,0,0,0,0,0,0,0,"5201 W. Woodmill Drive
Wilmington, DE 19808
(39.719469, -75.669868)"
"Journey Wellness & Consulting Group, LLC",DE22023979,Lena Queen,364 E. Main Street,Suite 184,Middletown,DE,3027238859,3023517176,http://www.journeywellnessdelaware.com,lenaq@journeywellnessdelaware.com,,,,YES,,,YES,621330,611710,0,0,0,0,0,0,0,0,0,0,0,0,0,0,0,0,0,0,0,0,0,0,0,0,0,0,0,0,0,0,0,0,0,0,0,0,"364 E. Main Street
Middletown, DE 19709
(39.450315, -75.704261)"
"JP's Touch Painting, LLC",SBF21041468,Joel Pacheco,1200 Carr Road,,Wilmington,DE,7173307778,,,jpacheco1220@gmail.com,,,,YES,,,YES,238320,238310,561790,238190,0,0,0,0,0,0,0,0,0,0,0,0,0,0,0,0,0,0,0,0,0,0,0,0,0,0,0,0,0,0,0,0,0,0,"1200 Carr Road
Wilmington, DE 19809
(39.784847, -75.490991)"
"Jules Enterprise Group, Inc. DBA Anuco Rx",SBF20121433,Gina Jules,1000 N. West Street,Suite 1200,Wilmington,DE,8884981444,8886143890,http://www.anucorx.com,gina.jules@anucorx.com,,,,YES,,,YES,621999,621399,621498,624120,423450,446110,0,0,0,0,0,0,0,0,0,0,0,0,0,0,0,0,0,0,0,0,0,0,0,0,0,0,0,0,0,0,0,0,"1000 N. West Street
Wilmington, DE 19801
(39.747295, -75.550463)"
"Jupiter Associates, LLC",DE20113670,"Pradeep ""Phil"" Bansal",12 Aiken Court,,Malvern,PA,6102832560,6103210427,http://www.jupiter-llc.com,cs@jupiter-llc.com,YES,,,,,,YES,424920,511130,541513,561110,561210,611420,611710,0,0,0,0,0,0,0,0,0,0,0,0,0,0,0,0,0,0,0,0,0,0,0,0,0,0,0,0,0,0,0,"12 Aiken Court
Malvern, PA 19355
(40.049163, -75.537677)"
"Justin R. Connor, MD",SBF21071498,Justin Connor,Growing Bones Pediatric NM and OR Institute,1057 S. Bradford Street,Dover,DE,3022311245,3022311246,http://www.growing-bones.com,justinconnormd@aol.com,,,,YES,,,YES,621111,621112,0,0,0,0,0,0,0,0,0,0,0,0,0,0,0,0,0,0,0,0,0,0,0,0,0,0,0,0,0,0,0,0,0,0,0,0,
JustMar LLP,SBF19013091,Mary Portagallo,42 Princeton Ct.,,Newark,DE,3023223585,8667542847,http://www.justmar.net,sales@justmar.net,YES,YES,,,,,YES,441310,541890,541870,541860,541850,423830,541430,453998,423990,541613,453220,448140,0,0,0,0,0,0,0,0,0,0,0,0,0,0,0,0,0,0,0,0,0,0,0,0,0,0,"42 Princeton Ct.
Newark, DE 19702
(39.641726, -75.65916)"
JW WorkZone Supplies,DE22054090,Stephanie Jackson,,"101 Cassidy Drive, Suite D",Dover,DE,8006320485,8006320485,http://www.jwworkzone.com,sjackson@jwworkzone.com,YES,,,,,,YES,423490,541890,812331,424990,424950,423830,452319,423710,453998,0,0,0,0,0,0,0,0,0,0,0,0,0,0,0,0,0,0,0,0,0,0,0,0,0,0,0,0,0,"Dover, DE 19904
(39.171778, -75.577313)"
KAM Electric Inc,DE21103922,Kenneth Mosley,847 Kiamensi Road,,Wilmington,DE,3029985262,3029985261,http://www.KAMelectricInc.com,Ken@KAMelectricinc.com,,,,,YES,,YES,238210,0,0,0,0,0,0,0,0,0,0,0,0,0,0,0,0,0,0,0,0,0,0,0,0,0,0,0,0,0,0,0,0,0,0,0,0,0,"847 Kiamensi Road
Wilmington, DE 19804
(39.724949, -75.633169)"
Kent County Traffic Control LLC,SBF21061496,Arthur Tuck,1208 Woodrow Court,,Dover,DE,3025050213,,http://www.kentctc.com,kentcotc@outlook.com,,,,YES,,,YES,561990,0,0,0,0,0,0,0,0,0,0,0,0,0,0,0,0,0,0,0,0,0,0,0,0,0,0,0,0,0,0,0,0,0,0,0,0,0,"1208 Woodrow Court
Dover, DE 19904
(39.161589, -75.550827)"
"Keys to Life Logistics, LLC",SBF21021449,Shonda Green,1320 Central Park Boulevard,Suite 200,Fredericksburg,VA,5407790622,,,shonda@keystolifelogistics.com,,,,YES,,,YES,561720,0,0,0,0,0,0,0,0,0,0,0,0,0,0,0,0,0,0,0,0,0,0,0,0,0,0,0,0,0,0,0,0,0,0,0,0,0,"1320 Central Park Boulevard
Fredericksburg, VA 22401
(38.302069, -77.512993)"
Keystone Granite and Tile Inc.,SBF20061374,Mustafa Kol,217 Lisa Dr.,Suite C.,New Castle,DE,3023230200,3023230203,http://keystone-granite.com,DE@keystone-granite.com,YES,,,,,,,327991,238350,337110,0,0,0,0,0,0,0,0,0,0,0,0,0,0,0,0,0,0,0,0,0,0,0,0,0,0,0,0,0,0,0,0,0,0,0,"217 Lisa Dr.
New Castle, DE 19720
(39.658417, -75.60591)"
"Khan Consulting, LLC",SBF19031268,Ayanna Osinuga,103 Tweedsmere Drive,,Townsend,DE,3023320641,,http://www.khanconsultingllc.com,ayannaosinuga@gmail.com,,,,YES,,,YES,541990,561410,561499,541611,0,0,0,0,0,0,0,0,0,0,0,0,0,0,0,0,0,0,0,0,0,0,0,0,0,0,0,0,0,0,0,0,0,0,"103 Tweedsmere Drive
Townsend, DE 19734
(39.420041, -75.634733)"
"KLM Consulting, LLC",SBF19121327,Kristin Marinelli,,28 Staten Drive,Hockessin,DE,8005208135,8005208135,http://www.klmcons.com,kristi@kompli.com,,,,YES,,,,524210,524298,541612,541690,524113,524126,524114,0,0,0,0,0,0,0,0,0,0,0,0,0,0,0,0,0,0,0,0,0,0,0,0,0,0,0,0,0,0,0,"Hockessin, DE 19707
(39.781538, -75.687026)"
"KLT Group, LLC",SBF20031339,Kelly Lyles,,21 Montvieu Court,Cockeysville,MD,4109035043,,http://www.kltgroup.com,klyles@kltgroup.com,,,,YES,,,YES,541620,541690,541611,541614,0,0,0,0,0,0,0,0,0,0,0,0,0,0,0,0,0,0,0,0,0,0,0,0,0,0,0,0,0,0,0,0,0,0,"Cockeysville, MD 21030
(39.48372, -76.653962)"
Kojent Consultants Corporation,SBF20101425,Toni Bush Neal,"30 Country Gates Drive, Suite 100",,Wilmington,DE,3027225323,,http://www.kojentconsultants.com,info@kojentconsultants.com,,,,YES,,,YES,541611,611430,541618,541614,541613,0,0,0,0,0,0,0,0,0,0,0,0,0,0,0,0,0,0,0,0,0,0,0,0,0,0,0,0,0,0,0,0,0,"30 Country Gates Drive, Suite 100
Wilmington, DE 19810
(39.8252, -75.52937)"
"Korak Healthsource Group, Inc.",SBF21011441,Adedoyin Famodu,10015 Old Columbia Road,Suite B215,Columbia,MD,4436568330,3015179667,http://www.korak.com,ohassan@korak.com,,,,YES,,,YES,518210,524291,524292,524298,525120,541611,561110,561311,561312,561320,561422,611430,0,0,0,0,0,0,0,0,0,0,0,0,0,0,0,0,0,0,0,0,0,0,0,0,0,0,"10015 Old Columbia Road
Columbia, MD 21046
(39.174435, -76.859111)"
KSN Technologies Inc,SBF20101419,Rukhsana Khan,364 Indian Boundary Road,Suite A,Chesterton,IN,2198774770,,http://www.ksntech.com,kareem@ksntech.com,,,,YES,,,YES,541511,541512,541519,611420,0,0,0,0,0,0,0,0,0,0,0,0,0,0,0,0,0,0,0,0,0,0,0,0,0,0,0,0,0,0,0,0,0,0,"364 Indian Boundary Road
Chesterton, IN 46304
(41.616852, -87.04564)"
KTM 2 LLC,SBF22031573,Travis Wyshock,DBA Arrow Safety Device Company,123 Dixon Street,Selbyville,DE,3028562516,3028561549,http://www.arrowsafetydevice.com,twyshock@arrowsafetydevice.com,,,YES,,,,YES,336320,423690,332312,339999,332722,339950,453998,441310,423120,423490,423450,0,0,0,0,0,0,0,0,0,0,0,0,0,0,0,0,0,0,0,0,0,0,0,0,0,0,0,
"L.A.B. Computer Consultants, LLC",SBF20041364,Lorna Charles,PO Box 991,,Middletown,DE,5162043682,5165091012,http://www.llbtechs.com,lcharles151@gmail.com,,,,YES,,,YES,541512,541519,811212,0,0,0,0,0,0,0,0,0,0,0,0,0,0,0,0,0,0,0,0,0,0,0,0,0,0,0,0,0,0,0,0,0,0,0,
"Language Liaisons, LLC",DE21093903,Leah daPonte Lightcap,920 Justison Street,,Wilmington,DE,3025454257,3025454257,http://www.LanguageLiaisons.com,leah@LanguageLiaisons.com,,,,YES,,,YES,541930,611691,0,0,0,0,0,0,0,0,0,0,0,0,0,0,0,0,0,0,0,0,0,0,0,0,0,0,0,0,0,0,0,0,0,0,0,0,"920 Justison Street
Wilmington, DE 19801
(39.732233, -75.562091)"
"LearningCoreLeadership, Inc.",SBF20071388,Jason Woo,24 Old Creek Court,,Rockville,MD,2404013837,,http://www.learningcoreleadership.org,jwoo@learningcoreleadership.com,,,,YES,,,YES,541611,611430,621111,621112,621410,812990,813212,813920,0,0,0,0,0,0,0,0,0,0,0,0,0,0,0,0,0,0,0,0,0,0,0,0,0,0,0,0,0,0,"24 Old Creek Court
Rockville, MD 20854
(39.072456, -77.178526)"
Lewis Legal LLC,SBF19101320,Sonrisa Lewis,12 Bristlecone Court,,Newark,DE,3024046697,,http://lewislegalfreelance.com,sonrisa@lewislegalfreelance.com,,,,YES,,,YES,541110,541199,0,0,0,0,0,0,0,0,0,0,0,0,0,0,0,0,0,0,0,0,0,0,0,0,0,0,0,0,0,0,0,0,0,0,0,0,"12 Bristlecone Court
Newark, DE 19702
(39.609613, -75.716881)"
Linda McCormick,SBF22071594,Linda McCormick,DBA Locust Construction & Contracting Services,200 Tyrone Avenue,Wilmington,DE,4439872099,,,lindamccormick515@gmail.com,YES,,,,,,,339940,424120,0,0,0,0,0,0,0,0,0,0,0,0,0,0,0,0,0,0,0,0,0,0,0,0,0,0,0,0,0,0,0,0,0,0,0,0,
"Linne Industries, LLC",DE20033417,Sandra Burton,P.O. Box. 9856,,Newark,DE,3028931354,6067531439,http://www.LinneIndustries.com,sburton@linneindustries.com,,,YES,,,,YES,333912,0,0,0,0,0,0,0,0,0,0,0,0,0,0,0,0,0,0,0,0,0,0,0,0,0,0,0,0,0,0,0,0,0,0,0,0,0,
"LM Bryant Consulting, LLC",DE19023137,Lisa Bryant,21 Benning Road,,Claymont,DE,8777379719,,http://www.bryconsult.com,lisa@bryconsult.com,,,,YES,,,YES,611430,0,0,0,0,0,0,0,0,0,0,0,0,0,0,0,0,0,0,0,0,0,0,0,0,0,0,0,0,0,0,0,0,0,0,0,0,0,"21 Benning Road
Claymont, DE 19703
(39.801812, -75.475481)"
"LM Metals, LLC",SBF19041281,Lisa Carl,684 Sunnyside Road,,Smyrna,DE,3022330426,,,lmmetals1@gmail.com,,,YES,,,,YES,238190,238120,0,0,0,0,0,0,0,0,0,0,0,0,0,0,0,0,0,0,0,0,0,0,0,0,0,0,0,0,0,0,0,0,0,0,0,0,"684 Sunnyside Road
Smyrna, DE 19977
(39.281323, -75.607552)"
"Loyalty Termite and Pest Control, LLC",SBF20071395,Ceyron Cran,709 N. Broom Street,Apt 8,Wilmington,DE,3023863999,,http://www.loyalpest.com,contactloyaltypest@gmail.com,,,,YES,,,YES,561710,0,0,0,0,0,0,0,0,0,0,0,0,0,0,0,0,0,0,0,0,0,0,0,0,0,0,0,0,0,0,0,0,0,0,0,0,0,"709 N. Broom Street
Wilmington, DE 19805
(39.749106, -75.563858)"
Lozedo LLC dba Brain Love Neurotherapy,SBF21061493,Lauren Haggerty,19633 Blue Bird Lane,Suite 5,Milton,DE,3022787828,,http://www.brainloveneurotherapy.com,lauren.brainlove@gmail.com,,,,YES,,,YES,621498,621340,0,0,0,0,0,0,0,0,0,0,0,0,0,0,0,0,0,0,0,0,0,0,0,0,0,0,0,0,0,0,0,0,0,0,0,0,"19633 Blue Bird Lane
Milton, DE 19971
(38.718158, -75.116884)"
Ma Ada's Enterprise,SBF22031571,Ada Grimes-Black,71 Broadleaf Drive,,Newark,DE,3026020417,,,maadaenterprise@gmail.com,,YES,,YES,,,YES,722330,722310,722320,0,0,0,0,0,0,0,0,0,0,0,0,0,0,0,0,0,0,0,0,0,0,0,0,0,0,0,0,0,0,0,0,0,0,0,"71 Broadleaf Drive
Newark, DE 19702
(39.608377, -75.7197)"
Maranatha Hauling LLC,SBF20031340,Thomas Santiago,8 Berton Court,,Middletown,DE,3025597611,,,maranathahaulingllc@gmail.com,,,,YES,,,YES,484220,0,0,0,0,0,0,0,0,0,0,0,0,0,0,0,0,0,0,0,0,0,0,0,0,0,0,0,0,0,0,0,0,0,0,0,0,0,"8 Berton Court
Middletown, DE 19709
(39.488985, -75.696385)"
Marico Consulting LLC,SBF21121540,Maria Anderson,1036 Creekside Drive,,Wilmington,DE,2024453232,,http://www.maricoconsulting.com,maria@maricoconsulting.com,,,,YES,,,YES,541219,541611,541614,541618,561410,541990,0,0,0,0,0,0,0,0,0,0,0,0,0,0,0,0,0,0,0,0,0,0,0,0,0,0,0,0,0,0,0,0,"1036 Creekside Drive
Wilmington, DE 19804
(39.710638, -75.645886)"
"Marlex Pharmaceuticals, Inc.",SBF20021337,Samir Patel,65 Lukens Drive,,New Castle,DE,3023283355,3023286968,http://www.marlexpharm.com,samir@marlexpharm.com,YES,,YES,,,,,325412,423450,339113,424990,0,0,0,0,0,0,0,0,0,0,0,0,0,0,0,0,0,0,0,0,0,0,0,0,0,0,0,0,0,0,0,0,0,0,"65 Lukens Drive
New Castle, DE 19720
(39.686392, -75.549198)"
Master Concepts and Impressions,SBF21101530,Wanda Morales,57 Saulsbury Road,Suite C,Dover,DE,3026034818,,,masterconceptsandimpressions@gmail.com,,,,YES,,,YES,541410,0,0,0,0,0,0,0,0,0,0,0,0,0,0,0,0,0,0,0,0,0,0,0,0,0,0,0,0,0,0,0,0,0,0,0,0,0,"57 Saulsbury Road
Dover, DE 19904
(39.16064, -75.543375)"
MB Nicholson Investments LLC,SBF18062980,Robert Nicholson,DBA Cartridge World of Delaware,800 Peoples Plaza,Newark,DE,3028322933,3028322923,https://www.cartridgeworld.com/newark-de/19702-047,cwde@cwdelaware.com,,YES,,,,,YES,453210,811212,0,0,0,0,0,0,0,0,0,0,0,0,0,0,0,0,0,0,0,0,0,0,0,0,0,0,0,0,0,0,0,0,0,0,0,0,
MCF Group LLC,SBF22081598,Malita Robinson,150 Kane Drive,,Newark,DE,3025746965,,,hello@mcfgrp.com,,,,YES,,,YES,541611,541618,541519,488490,0,0,0,0,0,0,0,0,0,0,0,0,0,0,0,0,0,0,0,0,0,0,0,0,0,0,0,0,0,0,0,0,0,0,"150 Kane Drive
Newark, DE 19702
(39.647234, -75.699848)"
MDee Beauty and Accessories dba MDee Beauty,SBF21071499,Deidra Smith,49 Representative Lane,,Dover,DE,7576046812,,http://www.mdeebeauty.com,iamdeidrasmith@gmail.com,,YES,,,,,YES,446120,0,0,0,0,0,0,0,0,0,0,0,0,0,0,0,0,0,0,0,0,0,0,0,0,0,0,0,0,0,0,0,0,0,0,0,0,0,"49 Representative Lane
Dover, DE 19904
(39.177436, -75.537998)"
MDS Interpreting LLC,DE22044060,Margaret Stewart,116 Churchill Lane,,Wilmington,DE,3022397989,,,peg.stewart@verizon.net,,,,YES,,,YES,541930,0,0,0,0,0,0,0,0,0,0,0,0,0,0,0,0,0,0,0,0,0,0,0,0,0,0,0,0,0,0,0,0,0,0,0,0,0,"116 Churchill Lane
Wilmington, DE 19808
(39.753677, -75.697196)"
Mebro Inc. DBA: Servpro of Hockessin/Elsmere;,SBF18081216,Tara Brown,Servpro of Brandywine/Wilmington; & of Newark,224 N. James Street,Wilmington,DE,3029920104,3029927994,http://www.servprohockessinelsmere.com,office@servprowilmington.com,,,,YES,,,YES,,,,,,,,,,,,,,,,,,,,,,,,,,,,,,,,,,,,,,,
"Mechanical Maintenance Technologies, Inc DBA MMTI",SBF21011440,Delani Ly,,"1010 West Chester Pike, Suite 301",Havertown,PA,2672658685,2677127915,,DelaniLy@mmti.tech,,,,YES,,,YES,238220,561720,561790,332322,423730,238990,423720,423740,0,0,0,0,0,0,0,0,0,0,0,0,0,0,0,0,0,0,0,0,0,0,0,0,0,0,0,0,0,0,"Havertown, PA 19083
(39.977505, -75.31077)"
Medical Laboratory Service Inc.,SBF21121545,Mary Iocca-Smith,P.O. Box 884,,Jackson,MI,5179971000,5177952962,,mismith@prolabserviceusa.com,,,,YES,,,YES,621511,0,0,0,0,0,0,0,0,0,0,0,0,0,0,0,0,0,0,0,0,0,0,0,0,0,0,0,0,0,0,0,0,0,0,0,0,0,
"MED-TECH Equipment, Inc.",DE20063560,Patricia Gentile,2207 Concord Pike,Suite 135,Wilmington,DE,8003222609,8564238062,http://www.buymedtech.com,info@buymedtech.com,YES,,,YES,,,YES,423450,423910,423490,811219,423850,423440,423990,0,0,0,0,0,0,0,0,0,0,0,0,0,0,0,0,0,0,0,0,0,0,0,0,0,0,0,0,0,0,0,
"Mega Contractors, Inc.",SBF18061196,Joao Miranda,201 Yardley Road,,Delran,NJ,9737259235,,,megacontractorsinc@gmail.com,,,,,YES,,YES,236116,236118,236115,236117,236210,236220,0,0,0,0,0,0,0,0,0,0,0,0,0,0,0,0,0,0,0,0,0,0,0,0,0,0,0,0,0,0,0,0,"201 Yardley Road
Delran, NJ 08075
(40.006482, -74.966939)"
"Melior- Delaware, Inc. dba Melior, Inc.",SBF18061197,Rodney Boyes,2700 Corporate Drive,Suite 200,Birmingham,AL,2052988302,,http://www.todaysclass.com,sthompson@todaysclass.com,,,,YES,,,YES,611511,611519,0,0,0,0,0,0,0,0,0,0,0,0,0,0,0,0,0,0,0,0,0,0,0,0,0,0,0,0,0,0,0,0,0,0,0,0,"2700 Corporate Drive
Birmingham, AL 35242
(33.414083, -86.676479)"
Melrose Trucking and Transportation LLC,SBF21091523,Sanya Beard,4 Grissom Drive,,Bear,DE,3474386157,,,sanyabeard@melrosett.net,,,,YES,,,YES,541614,0,0,0,0,0,0,0,0,0,0,0,0,0,0,0,0,0,0,0,0,0,0,0,0,0,0,0,0,0,0,0,0,0,0,0,0,0,"4 Grissom Drive
Bear, DE 19701
(39.610454, -75.68742)"
Messy Solutions,SBF21101528,Kamilah Laws,106 Donhaven Drive,,New Castle,DE,3022768652,,,messysolutionsllc@yahoo.com,,,,YES,,,YES,561720,0,0,0,0,0,0,0,0,0,0,0,0,0,0,0,0,0,0,0,0,0,0,0,0,0,0,0,0,0,0,0,0,0,0,0,0,0,"106 Donhaven Drive
New Castle, DE 19720
(39.699304, -75.557216)"
"Metropolitan Acoustics, LLC",SBF19121326,Felicia Doggett,1628 JFK Blvd.,8 Penn Center Suite #1902,Philadelphia,PA,2152484352,,http://www.metro-acoustics.com,info@metro-acoustics.com,,,,,,YES,YES,541380,0,0,0,0,0,0,0,0,0,0,0,0,0,0,0,0,0,0,0,0,0,0,0,0,0,0,0,0,0,0,0,0,0,0,0,0,0,
"MFR Consultants, Inc.",DE20033392,Maria Frizelle Roberts,128 Chestnut Street,"Atrium at Olde City, Terrace Level",Philadelphia,PA,2152389270,2152389733,http://www.mfrconsultants.com,mfrizelle@mfrconsultants.com,,,,YES,,,YES,541519,541511,541512,541611,561110,518210,541513,541690,541614,0,0,0,0,0,0,0,0,0,0,0,0,0,0,0,0,0,0,0,0,0,0,0,0,0,0,0,0,0,"128 Chestnut Street
Philadelphia, PA 19106
(39.948315, -75.143581)"
"Midnight Blue, Inc.",DE20113677,Al McDonald,DBA: McGRAPHIX Advertising Products,37091 E. Whitetail Drive,Selbyville,DE,3024369665,,http://www.mcgraphixinc.com,webinfo@mcgraphixinc.com,,,,YES,,,YES,314999,323111,323113,541430,541850,0,0,0,0,0,0,0,0,0,0,0,0,0,0,0,0,0,0,0,0,0,0,0,0,0,0,0,0,0,0,0,0,0,
"Milligan & Associates, LLC",SBF19081314,Tyler Milligan,17250 Dallas Parkway,,Dallas,TX,8887167274,,,info@milligan.associates,,,,YES,,,YES,541611,0,0,0,0,0,0,0,0,0,0,0,0,0,0,0,0,0,0,0,0,0,0,0,0,0,0,0,0,0,0,0,0,0,0,0,0,0,"17250 Dallas Parkway
Dallas, TX 75248
(32.985234, -96.828328)"
"Minority Environmental Solutions and Services, LLC",SBF20061379,Donna Wilson,DBA MESS,14001 Tollison Drive,Bowie,MD,3014522599,8884458110,http://www.minority-environmental.business.site,donna@mess20720.com,,,,YES,,,YES,561730,562910,0,0,0,0,0,0,0,0,0,0,0,0,0,0,0,0,0,0,0,0,0,0,0,0,0,0,0,0,0,0,0,0,0,0,0,0,
MITM LLC DBA Key 2 Life Juice Bar,SBF21111535,Terez Trott,32 W. Loockerman Street,Apt. 409,Dover,DE,3026708813,,,key2lifejuicebar@gmail.com,,YES,,,,,YES,722515,0,0,0,0,0,0,0,0,0,0,0,0,0,0,0,0,0,0,0,0,0,0,0,0,0,0,0,0,0,0,0,0,0,0,0,0,0,"32 W. Loockerman Street
Dover, DE 19901
(39.157876, -75.525568)"
"MKS Consulting, LLC",SBF22021559,Kelly Morgan,516 Wake Forest Drive,,Newark,DE,3025933748,,,kmorgan@mksconsultant.com,,,,YES,,,YES,541611,541618,541690,561499,611430,0,0,0,0,0,0,0,0,0,0,0,0,0,0,0,0,0,0,0,0,0,0,0,0,0,0,0,0,0,0,0,0,0,"516 Wake Forest Drive
Newark, DE 19713
(39.649077, -75.77485)"
MMI Inc. DBA Market Analytics International,SBF20041354,Michelle Mckenna,,350 W. Passaic St.,Rochelle Park,NJ,2015561188,2015561189,http://www.marketanalytics.com,mmckenna@marketanalytics.com,,,,YES,,,YES,541910,541613,0,0,0,0,0,0,0,0,0,0,0,0,0,0,0,0,0,0,0,0,0,0,0,0,0,0,0,0,0,0,0,0,0,0,0,0,"Rochelle Park, NJ 07662
(40.906734, -74.078327)"
"Modulus, LLC",SBF22051578,Dilan Mack,2200 Pennsylvania Avenue NW,4th Floor E,Washington,DC,3015782733,,http://www.moduluscompany.com,services@moduluscompany.com,,,,YES,,,YES,541330,541512,541611,541620,562910,0,0,0,0,0,0,0,0,0,0,0,0,0,0,0,0,0,0,0,0,0,0,0,0,0,0,0,0,0,0,0,0,0,"2200 Pennsylvania Avenue NW
Washington, DC 20037
(38.90207, -77.048944)"
"Mondre Energy, Inc.",DE22044067,Judith Mondre,1800 John F. Kennedy Blvd,Suite 1504,Philadelphia,PA,2159880577,2159880579,http://www.mondreenergy.com,jmondre@mondreenergy.com,,,,YES,,,YES,541690,541611,541618,221210,221122,541350,541330,541511,561210,0,0,0,0,0,0,0,0,0,0,0,0,0,0,0,0,0,0,0,0,0,0,0,0,0,0,0,0,0,"1800 John F. Kennedy Blvd
Philadelphia, PA 191037401
(39.954251, -75.170222)"
Moonloop Photography,SBF21111537,Joseph del Tufo,1704 Green Lane,,Wilmington,DE,3025840308,,http://www.moonloopphoto.com,joe@moonloopphoto.com,,,,YES,,,YES,541921,541922,0,0,0,0,0,0,0,0,0,0,0,0,0,0,0,0,0,0,0,0,0,0,0,0,0,0,0,0,0,0,0,0,0,0,0,0,"1704 Green Lane
Wilmington, DE 19810
(39.812028, -75.483038)"
Moore Staffing Agency,SBF20101422,Lisa Moore,"3 Germay Drive, Suite 5",PO Box 28496,Wilmington,DE,2153002770,,,lisa@mstaffingagency.com,,,,YES,,,YES,561320,561110,561210,541519,561410,561312,0,0,0,0,0,0,0,0,0,0,0,0,0,0,0,0,0,0,0,0,0,0,0,0,0,0,0,0,0,0,0,0,"3 Germay Drive, Suite 5
Wilmington, DE 19804
(39.731656, -75.578898)"
"Mountain Consulting, Inc.",SBF20041357,Kim Adams,103 South Bradford Street,,Dover,DE,3027449875,8666726428,http://www.mountainconsultinginc.net,kadams@mountainconsultinginc.com,,,,,YES,,YES,541330,541370,237310,237110,238990,0,0,0,0,0,0,0,0,0,0,0,0,0,0,0,0,0,0,0,0,0,0,0,0,0,0,0,0,0,0,0,0,0,"103 South Bradford Street
Dover, DE 19962
(39.159408, -75.526357)"
Mountaineer Logistics LLC DBA Happy Foods Delaware,SBF20041355,Khary DeWitt,,PO Box 611,Townsend,DE,8884120603,,,service@mountaineerlogistics.com,YES,YES,,YES,,,YES,492210,492110,484210,424450,424430,0,0,0,0,0,0,0,0,0,0,0,0,0,0,0,0,0,0,0,0,0,0,0,0,0,0,0,0,0,0,0,0,0,"Townsend, DE 19734
(39.389197, -75.666254)"
MS Awards LLC dba Crown Trophy of Delaware,DE20093626,Melissa Soutar,4103 Concord Pike,,Wilmington,DE,3024789620,3024789611,http://www.crowntrophy.com/store-86,crownde1@gmail.com,,YES,,,,,YES,453998,0,0,0,0,0,0,0,0,0,0,0,0,0,0,0,0,0,0,0,0,0,0,0,0,0,0,0,0,0,0,0,0,0,0,0,0,0,
"Ms. Pipe, LLC",DE21093870,Kimberly Cadorette,P.O. Box 1295,49 Oakland Road,South Windsor,CT,8606447070,8606447373,http://www.mspipellc.com,kim@mspipellc.com,YES,,,,,,,423510,423840,423720,0,0,0,0,0,0,0,0,0,0,0,0,0,0,0,0,0,0,0,0,0,0,0,0,0,0,0,0,0,0,0,0,0,0,0,
"MS Unlimited, Inc.",SBF19041272,Mary Sbaraglia,PO Box 577,,East Syracuse,NY,3154371291,3154376086,http://www.msunlim.com,marybeth@msunlim.com,YES,,YES,,,,YES,332999,333120,423320,423390,423510,423610,423720,424930,424950,425120,532412,0,0,0,0,0,0,0,0,0,0,0,0,0,0,0,0,0,0,0,0,0,0,0,0,0,0,0,
"MX4 Electronics, Inc.",SBF18061191,Susan Grill,2203 Greenspring Drive,,Timonium,MD,4102521192,4105612458,http://www.mX4elect.com,susan@mx4elect.com,YES,,,,,,YES,423690,0,0,0,0,0,0,0,0,0,0,0,0,0,0,0,0,0,0,0,0,0,0,0,0,0,0,0,0,0,0,0,0,0,0,0,0,0,"2203 Greenspring Drive
Timonium, MD 21093
(39.446264, -76.635061)"
Myers Land Survey Corporation,SBF22071592,Jill Myers,11 Nathan Hale Court,,Newark,DE,3022733703,,http://www.myerslandsurvey.com,myerslandsurvey@gmail.com,,,,YES,,,YES,541370,0,0,0,0,0,0,0,0,0,0,0,0,0,0,0,0,0,0,0,0,0,0,0,0,0,0,0,0,0,0,0,0,0,0,0,0,0,"11 Nathan Hale Court
Newark, DE 19711
(39.677074, -75.771723)"
My Innerscents LLC,SBF21091516,Tammy Parris,53 Barnsley Court,,Dover,DE,3026709098,,,pparrisss@aol.com,,YES,YES,,,,YES,339999,325611,0,0,0,0,0,0,0,0,0,0,0,0,0,0,0,0,0,0,0,0,0,0,0,0,0,0,0,0,0,0,0,0,0,0,0,0,"53 Barnsley Court
Dover, DE 19904
(39.223883, -75.583162)"
NAE Global Supply Company,SBF21121541,Berenice Espinal,9480 Poinciana Place,#304,Davie,FL,9546681248,,http://www.naeglobalsupply.com,berenice@naeglobalsupply.com,YES,,,,,,YES,424950,423320,0,0,0,0,0,0,0,0,0,0,0,0,0,0,0,0,0,0,0,0,0,0,0,0,0,0,0,0,0,0,0,0,0,0,0,0,"9480 Poinciana Place
Davie, FL 33324
(26.096734, -80.27434)"
Nally Ventures LLC,DE21083856,T. Michael Nally,P.O. Box 424,,Ocean View,DE,3028418331,,http://www.nallyventures.com,conor.nally@nallyventures.com,,,,YES,,,YES,541611,541612,611430,541618,541513,541519,541990,0,0,0,0,0,0,0,0,0,0,0,0,0,0,0,0,0,0,0,0,0,0,0,0,0,0,0,0,0,0,0,
Nancy Lorinda Greene,SBF19081309,Nancy Lorinda Greene,21045 Elizabeth Avenue,,Rehoboth Beach,DE,3018062628,,,greenenancy@yahoo.com,,,,YES,,,YES,541611,541612,541613,0,0,0,0,0,0,0,0,0,0,0,0,0,0,0,0,0,0,0,0,0,0,0,0,0,0,0,0,0,0,0,0,0,0,0,"21045 Elizabeth Avenue
Rehoboth Beach, DE 19971
(38.69896, -75.079011)"
Navitas Partners LLC,SBF21051491,Shaloo Mital,2050 Route 27,Suite 202,North Brunswick,NJ,7324221500,7324224667,,certs@compuvis.com,,,,YES,,,YES,541511,0,0,0,0,0,0,0,0,0,0,0,0,0,0,0,0,0,0,0,0,0,0,0,0,0,0,0,0,0,0,0,0,0,0,0,0,0,"2050 Route 27
North Brunswick, NJ 08902
(40.457245, -74.51163)"
"NBB Media Solutions, LLC",DE20113674,Aprile' Brown,"132 Sheridan St. NE,",,Washington,DC,2026699467,,http://www.nbbmedia.solutions,aprile@nbbmedia.com,,,,YES,,,YES,541810,541613,541830,541850,541890,541820,0,0,0,0,0,0,0,0,0,0,0,0,0,0,0,0,0,0,0,0,0,0,0,0,0,0,0,0,0,0,0,0,"132 Sheridan St. NE,
Washington, DC 20011
(38.966425, -77.00438)"
"NERDiT NOW, LLC",DE20103662,Markevis Gideon,1614 W. Newport Pike,,Wilmington,DE,3022839871,,http://www.NERDiTNOW.com,nerditnow@gmail.com,,YES,,YES,,,YES,811212,443142,541513,541519,811213,0,0,0,0,0,0,0,0,0,0,0,0,0,0,0,0,0,0,0,0,0,0,0,0,0,0,0,0,0,0,0,0,0,"1614 W. Newport Pike
Wilmington, DE 19804
(39.715475, -75.62839)"
Network Design Technologies Inc.,SBF19031257,Joseph Ruffin,1000 N. West Street,Suite 1200,Wilmington,DE,6109912929,,http://www.networkdesigntechnologies.com,jruffin@networkdesigntechnologies.com,,,,YES,YES,,YES,238210,518210,0,0,0,0,0,0,0,0,0,0,0,0,0,0,0,0,0,0,0,0,0,0,0,0,0,0,0,0,0,0,0,0,0,0,0,0,"1000 N. West Street
Wilmington, DE 19801
(39.747295, -75.550463)"
"Newark Land Group, Inc. DBA Baymont Inn & Suites",SBF21041464,Anjelie Patel,630 South College Avenue,,Newark,DE,3027224380,,https://www.wyndhamhotels.com/baymont/newark-delaw,a.patel@hemispheremgmt.com,,,,YES,,,YES,721110,0,0,0,0,0,0,0,0,0,0,0,0,0,0,0,0,0,0,0,0,0,0,0,0,0,0,0,0,0,0,0,0,0,0,0,0,0,"630 South College Avenue
Newark, DE 19713
(39.660121, -75.751974)"
"Next World Collective, LLC",SBF20081406,Julia Byrem,600 N. Broad Street,Suite 5 #3181,Middletown,DE,3027509949,,http://www.nextworldcollective.org,julia@nextworldcollective.org,,,,YES,,,YES,711510,0,0,0,0,0,0,0,0,0,0,0,0,0,0,0,0,0,0,0,0,0,0,0,0,0,0,0,0,0,0,0,0,0,0,0,0,0,"600 N. Broad Street
Middletown, DE 19709
(39.455364, -75.718514)"
"NJ Jackson Real Estate Investor, LLC",SBF21111534,Nia Jackson,431 Homestead Road,Unit 2,Wilmington,DE,6027834064,,,nia81j@gmail.com,,,,YES,,,YES,425120,531110,0,0,0,0,0,0,0,0,0,0,0,0,0,0,0,0,0,0,0,0,0,0,0,0,0,0,0,0,0,0,0,0,0,0,0,0,"431 Homestead Road
Wilmington, DE 19805
(39.730481, -75.572109)"
N. Mallari General Contracting Corp,SBF19061302,Nino Mallari,44 Bastille Loop,,Newark,DE,3025167738,3025167741,http://www.Nmallarigc.com,nmallarigc@gmail.com,,,,,YES,,YES,236118,236220,238130,238140,238150,238160,238170,238190,0,0,0,0,0,0,0,0,0,0,0,0,0,0,0,0,0,0,0,0,0,0,0,0,0,0,0,0,0,0,"44 Bastille Loop
Newark, DE 19702
(39.602083, -75.780905)"
Noble Territory LLC,SBF22021552,Kelly Maresca,DBA Expert Resume Solutions,112 W Flagstone Drive,Newark,DE,7326866455,,http://www.nobleterritory.com,kelly@nobleterritory.com,,,,YES,,,YES,541611,541612,561410,611430,921190,0,0,0,0,0,0,0,0,0,0,0,0,0,0,0,0,0,0,0,0,0,0,0,0,0,0,0,0,0,0,0,0,0,
"NorthNode Group Counseling, LLC",SBF20071398,Antonya Jordan,1609 South State Street,,Dover,DE,3022573135,3025262410,http://www.northnodecounseling.com,toni@northnodecounseling.com,,,,YES,,,YES,621420,624190,0,0,0,0,0,0,0,0,0,0,0,0,0,0,0,0,0,0,0,0,0,0,0,0,0,0,0,0,0,0,0,0,0,0,0,0,"1609 South State Street
Dover, DE 19901
(39.130227, -75.51919)"
Nourish Markets LLC,SBF22081603,Sophia Banafato,4 Clyth Drive,,Wilmington,DE,3028034392,,http://www.nourishmarkets.com,noursihmarkets@gmail.com,,YES,,,,,YES,445110,722513,445230,492210,0,0,0,0,0,0,0,0,0,0,0,0,0,0,0,0,0,0,0,0,0,0,0,0,0,0,0,0,0,0,0,0,0,0,"4 Clyth Drive
Wilmington, DE 19803
(39.802814, -75.522475)"
Nu Millennium Audio Visual System Inc.,SBF19121324,Kirk Duggan,525 Mildred Avenue,,Primos,PA,6102004574,,,rashid.duggan@nmavs.com,,,,YES,,,,512240,532490,0,0,0,0,0,0,0,0,0,0,0,0,0,0,0,0,0,0,0,0,0,0,0,0,0,0,0,0,0,0,0,0,0,0,0,0,"525 Mildred Avenue
Primos, PA 19018
(39.919609, -75.299252)"
OBZ Enterprises LLC dba OBZ Graphics,SBF20091415,Christine Degliobizzi,PO Box 501,,Odessa,DE,3029185333,,http://www.obzgraphics.com,hello@obzgraphics.com,,,,YES,,,YES,424310,0,0,0,0,0,0,0,0,0,0,0,0,0,0,0,0,0,0,0,0,0,0,0,0,0,0,0,0,0,0,0,0,0,0,0,0,0,
Oceanside Elite Cleaning & Building Services,SBF20121436,Noreen Kushner,17527 Nassau Commons Boulevard,Suite 200,Lewes,DE,3025264400,,,info@oceanside-elite.com,,,,YES,,,YES,561790,238990,0,0,0,0,0,0,0,0,0,0,0,0,0,0,0,0,0,0,0,0,0,0,0,0,0,0,0,0,0,0,0,0,0,0,0,0,"17527 Nassau Commons Boulevard
Lewes, DE 19958
(38.747003, -75.186466)"
"Old Philadelphia Associates, Inc.",DE21053821,Vicki Lee,315 S. Bolmar Street,,West Chester,PA,6104368022,6104368045,http://www.oldphiladelphiapa.com,Vicki.L@oldphila.com,,,,,YES,,YES,238140,238910,236220,238340,238110,238160,238320,238330,238990,236116,238210,0,0,0,0,0,0,0,0,0,0,0,0,0,0,0,0,0,0,0,0,0,0,0,0,0,0,0,"315 S. Bolmar Street
West Chester, PA 19380
(39.960444, -75.591916)"
Olivia's Bread's,SBF19011240,Veronica Austin,304 Matthew Circle,,Milford,DE,5713380322,3024223243,http://www.oliviasbreads.com,oliviasbreads@msn.com,,YES,,,,,,445291,311812,311999,445299,0,0,0,0,0,0,0,0,0,0,0,0,0,0,0,0,0,0,0,0,0,0,0,0,0,0,0,0,0,0,0,0,0,0,"304 Matthew Circle
Milford, DE 19963
(38.89328, -75.393796)"
"On-Demand Services, LLC",SBF19031269,Lanre Akinola,DBA: On-Demand Moving Services,412 Park Avenue,New Castle,DE,8882081989,8882081989,http://www.ondemand-services.com,info@ondemand-services.com,,,,YES,,,,484210,0,0,0,0,0,0,0,0,0,0,0,0,0,0,0,0,0,0,0,0,0,0,0,0,0,0,0,0,0,0,0,0,0,0,0,0,0,
One Way Insurance Group,SBF22021555,Gertha Jean,110 N Cannon Street,,Seaford,DE,3023216727,,http://www.onewayinsurancegroup.com,gjean@onewayinsurancegroup.com,,,,YES,,,YES,524210,0,0,0,0,0,0,0,0,0,0,0,0,0,0,0,0,0,0,0,0,0,0,0,0,0,0,0,0,0,0,0,0,0,0,0,0,0,"110 N Cannon Street
Seaford, DE 19973
(38.641031, -75.612349)"
"On The Mark Locators, LLC",DE22064123,Tyese T. Gillespie,,P.O. Box 918,Bear,DE,8882726065,3025953581,http://www.onthemarklocators.com,tgillespie@onthemarklocators.com,,,,YES,YES,,YES,541990,541320,541330,236115,236117,236220,237310,237990,541370,0,0,0,0,0,0,0,0,0,0,0,0,0,0,0,0,0,0,0,0,0,0,0,0,0,0,0,0,0,"Bear, DE 19701
(39.597379, -75.694272)"
"Open Heartz Care, LLC",SBF20031342,Rosemary Johnson-Eaton,300 Delaware Ave. Suite 210,,Wilmington,DE,3024336613,,,openheartzcare@gmail.com,,,,YES,,,YES,621610,0,0,0,0,0,0,0,0,0,0,0,0,0,0,0,0,0,0,0,0,0,0,0,0,0,0,0,0,0,0,0,0,0,0,0,0,0,"300 Delaware Ave. Suite 210
Wilmington, DE 19801
(39.746828, -75.550262)"
"Original Tube T-Shirt Company, LLC",DE20033419,Ellen Cohen,24455 Lighthouse Point,,Seaford,DE,8452917031,,http://www.tubet.com,ellen@tubet.com,YES,,,,,,YES,541613,314999,313310,323113,541890,0,0,0,0,0,0,0,0,0,0,0,0,0,0,0,0,0,0,0,0,0,0,0,0,0,0,0,0,0,0,0,0,0,"24455 Lighthouse Point
Seaford, DE 199737850
(38.65228, -75.579586)"
Parris Nail Lounge,SBF21091515,Tammy Parris,149 South Governors Avenue,,Dover,DE,3026782935,,http://www.parrisnaillounge.com,pparrisss@aol.com,,,,YES,,,YES,812113,0,0,0,0,0,0,0,0,0,0,0,0,0,0,0,0,0,0,0,0,0,0,0,0,0,0,0,0,0,0,0,0,0,0,0,0,0,"149 South Governors Avenue
Dover, DE 19904
(39.15813, -75.527185)"
Patriot Insulation Contractors LLC,SBF21121547,Vivian Dillon,316 Woodale Avenue,,New Castle,DE,3025445771,3025445733,http://www.patriotinsulationcontractors.com,vdillon@patriotinsulationcontractors.com,,,,,YES,,,238220,238990,0,0,0,0,0,0,0,0,0,0,0,0,0,0,0,0,0,0,0,0,0,0,0,0,0,0,0,0,0,0,0,0,0,0,0,0,
"Paul's Pointing, Inc.",SBF18041183,Paul Steiner,230 N. Thistle Down Drive,,Kennett Square,PA,6106332510,,http://www.paulspointing.com,paul@paulspointing.com,,,,YES,YES,,YES,238140,0,0,0,0,0,0,0,0,0,0,0,0,0,0,0,0,0,0,0,0,0,0,0,0,0,0,0,0,0,0,0,0,0,0,0,0,0,"230 N. Thistle Down Drive
Kennett Square, PA 19348
(39.852317, -75.731709)"
P&C Roofing Inc,DE22023983,Angela Papa Mariano,35 Southgate Blvd,,New Castle,DE,3023226767,3023228809,http://www.pcroofinginc.com,Angela@pcroofinginc.com,,,,,YES,,YES,238160,238170,332322,332323,238390,236220,0,0,0,0,0,0,0,0,0,0,0,0,0,0,0,0,0,0,0,0,0,0,0,0,0,0,0,0,0,0,0,0,"35 Southgate Blvd
New Castle, DE 19720
(39.692093, -75.573964)"
"P.C. Supplies, Inc.",SBF19023105,R. Scott Martin,1003 S. Chapel Street,Suite A,Newark,DE,3023684800,3023685288,http://www.PCSupplies.com,Scott@PCSupplies.com,YES,YES,,YES,,,YES,443142,334419,423430,334118,541511,339940,811212,334112,541512,424120,423410,423620,423690,0,0,0,0,0,0,0,0,0,0,0,0,0,0,0,0,0,0,0,0,0,0,0,0,0,"1003 S. Chapel Street
Newark, DE 19702
(39.647376, -75.731676)"
Penn-G Services,SBF22031569,Donna Downs-Johnson,54 Browning Circle,,Middletown,DE,2158821400,,,dldj1125@yahoo.com,,,,YES,,,YES,561720,238990,0,0,0,0,0,0,0,0,0,0,0,0,0,0,0,0,0,0,0,0,0,0,0,0,0,0,0,0,0,0,0,0,0,0,0,0,"54 Browning Circle
Middletown, DE 19709
(39.446119, -75.705387)"
"Pharmadel, LLC",SBF19051291,Evelio Velasquez,650 Centerpoint Blvd,,New Castle,DE,3026284178,,http://www.pharmadel.com,ana@pharmadel.com,YES,,,,,,YES,424210,0,0,0,0,0,0,0,0,0,0,0,0,0,0,0,0,0,0,0,0,0,0,0,0,0,0,0,0,0,0,0,0,0,0,0,0,0,"650 Centerpoint Blvd
New Castle, DE 19720
(39.660412, -75.593126)"
Phoenix Used Clothing,SBF20051370,Babita Jagnanan,,8 Tamar Court,Bear,DE,3025939470,,http://www.phoenixusedclothing.online,babitaj@verizon.net,YES,,,,,,YES,484210,562111,424330,0,0,0,0,0,0,0,0,0,0,0,0,0,0,0,0,0,0,0,0,0,0,0,0,0,0,0,0,0,0,0,0,0,0,0,"Bear, DE 19701
(39.597379, -75.694272)"
"Pineal Consulting Group, LLC",SBF20071381,Johnathan Brown,"40 E. Main Street, #181",,Newark,DE,2129188170,,http://www.pinealconsulting.com,clientservices@pinealconsulting.com,,,,YES,,,YES,541611,541614,541618,425120,541720,541613,541910,541690,0,0,0,0,0,0,0,0,0,0,0,0,0,0,0,0,0,0,0,0,0,0,0,0,0,0,0,0,0,0,"40 E. Main Street, #181
Newark, DE 19711
(39.683127, -75.751913)"
Pipe Services Corporation,SBF18071201,Megan Beardsley,665 Tower Lane,,West Chester,PA,6106929160,6106929169,http://www.pipeservicesco.com,pipeservicescorp@comcast.net,,,,YES,YES,,YES,221320,237310,561210,562111,561790,237110,541350,238910,0,0,0,0,0,0,0,0,0,0,0,0,0,0,0,0,0,0,0,0,0,0,0,0,0,0,0,0,0,0,"665 Tower Lane
West Chester, PA 19380
(39.965455, -75.626065)"
Polatnick Zacharjasz Architects DBA PZS Architects,SBF21081512,Mario Zacharjasz,4539 Mitchell Street,,Philadelphia,PA,2154037218,,http://www.pzsarchitects.com,mario@pzsarchitects.com,,,,,,YES,YES,541310,0,0,0,0,0,0,0,0,0,0,0,0,0,0,0,0,0,0,0,0,0,0,0,0,0,0,0,0,0,0,0,0,0,0,0,0,0,"4539 Mitchell Street
Philadelphia, PA 19128
(40.034216, -75.21885)"
"Polished Concrete Systems, Inc.",SBF22031572,Carol Price,2211 Commerce Road,Suite 4,Forest Hill,MD,4439871801,4436406408,http://www.polishedconcretesystems.com,cp@pcs99.com,,,,,YES,,YES,238110,238190,238330,238910,0,0,0,0,0,0,0,0,0,0,0,0,0,0,0,0,0,0,0,0,0,0,0,0,0,0,0,0,0,0,0,0,0,0,"2211 Commerce Road
Forest Hill, MD 21050
(39.577164, -76.368679)"
Polymer Technologies Inc.,SBF18073000,Robert Prybutok,Pencader Corporate Center,420 Corporate Blvd.,Newark,DE,3027389001,3027389085,http://www.polytechinc.com,Bob@PolyTechInc.com,,,YES,,,,YES,325211,325212,325991,325998,326112,326113,326121,326130,326140,326150,326199,326220,326291,326299,336413,336419,339920,339991,339999,326122,0,0,0,0,0,0,0,0,0,0,0,0,0,0,0,0,0,0,
Premier Generation LLC,SBF21011447,Alex Bailey,400 Kathryn Court,,New Castle,DE,3029834974,,,3257621@gmail.com,,,,YES,,,YES,522320,423850,541611,561110,561410,0,0,0,0,0,0,0,0,0,0,0,0,0,0,0,0,0,0,0,0,0,0,0,0,0,0,0,0,0,0,0,0,0,"400 Kathryn Court
New Castle, DE 19720
(39.565893, -75.656026)"
Pretty Moody,SBF22081597,Sherell Flagg,15 Latour Lane,,Newark,DE,3025227646,3026016086,http://www.prettymoody.com,sherell@prettymoody.com,,,,YES,,,YES,812199,0,0,0,0,0,0,0,0,0,0,0,0,0,0,0,0,0,0,0,0,0,0,0,0,0,0,0,0,0,0,0,0,0,0,0,0,0,"15 Latour Lane
Newark, DE 19702
(39.589995, -75.764776)"
"Princeton Hosted Solutions, LLC",SBF20081408,Bradford Bono,30 Washington Avenue,Suite D-2,Haddonfield,NJ,8564701369,8666075826,http://www.princetonhs.com,bbono@princetonhs.com,,,,YES,,,YES,517911,0,0,0,0,0,0,0,0,0,0,0,0,0,0,0,0,0,0,0,0,0,0,0,0,0,0,0,0,0,0,0,0,0,0,0,0,0,"30 Washington Avenue
Haddonfield, NJ 08033
(39.895012, -75.035456)"
"Professional Window Tinting, Inc.",SBF18021179,Gail Bluestein,9 Albe Drive #A,,Newark,DE,3024563456,,http://www.tintglass.com,info@tintglass.com,,,,YES,,,YES,238150,811122,325998,0,0,0,0,0,0,0,0,0,0,0,0,0,0,0,0,0,0,0,0,0,0,0,0,0,0,0,0,0,0,0,0,0,0,0,"9 Albe Drive #A
Newark, DE 19702
(39.647229, -75.715006)"
Profile Partners LLC,SBF21011445,Joan Michel,"101 N. Haven Street, #301",,Baltimore,MD,4435631100,,http://www.profilellc.com,joan@profilellc.com,,,,YES,,,YES,541430,541611,541612,541613,611430,611710,0,0,0,0,0,0,0,0,0,0,0,0,0,0,0,0,0,0,0,0,0,0,0,0,0,0,0,0,0,0,0,0,"101 N. Haven Street, #301
Baltimore, MD 21224
(39.294244, -76.562909)"
"Pro-Line Industrial Products, Inc.",SBF19051294,Lori Rehn,P.O. Box 401,,Dixon,CA,8002639436,,http://www.prolineindustrial.com,sherri@prolineindustrial.com,YES,,YES,,,,YES,325612,424690,0,0,0,0,0,0,0,0,0,0,0,0,0,0,0,0,0,0,0,0,0,0,0,0,0,0,0,0,0,0,0,0,0,0,0,0,
Prominent Insurance Services Inc.,SBF20101421,Jason Rodriguez,1201 N. Orange Street,,Wilmington,DE,3023513368,3023512560,http://www.prominentagency.com,jason@prominentagency.com,,,,YES,,,YES,524210,0,0,0,0,0,0,0,0,0,0,0,0,0,0,0,0,0,0,0,0,0,0,0,0,0,0,0,0,0,0,0,0,0,0,0,0,0,"1201 N. Orange Street
Wilmington, DE 19801
(39.748013, -75.547755)"
"Proper Pitch, LLC",SBF19041271,Scott Stewart,131 Dixon Street,,Selbyville,DE,3024365442,3024366309,http://www.properpitch.com,scott@properpitch.com,,YES,YES,YES,,,YES,332710,332999,336611,336612,811310,0,0,0,0,0,0,0,0,0,0,0,0,0,0,0,0,0,0,0,0,0,0,0,0,0,0,0,0,0,0,0,0,0,"131 Dixon Street
Selbyville, DE 19975
(38.455022, -75.228733)"
"PS3G, Inc.",DE22023994,Ankit Goyal,1201 N. Market Street,Suite 111,Wilmington,DE,3022980270,3022980271,http://www.PS3G.com,info@ps3g.com,,,,YES,,,YES,541511,0,0,0,0,0,0,0,0,0,0,0,0,0,0,0,0,0,0,0,0,0,0,0,0,0,0,0,0,0,0,0,0,0,0,0,0,0,"1201 N. Market Street
Wilmington, DE 19801
(39.74782, -75.546274)"
PSP Cleaning LLC,SBF22021554,Curtis Winfield,5 Weir Circle,,Middletown,DE,2157609575,,http://www.pspcleaning.com,pspcleaningllc@gmail.com,,,,YES,,,YES,561790,0,0,0,0,0,0,0,0,0,0,0,0,0,0,0,0,0,0,0,0,0,0,0,0,0,0,0,0,0,0,0,0,0,0,0,0,0,"5 Weir Circle
Middletown, DE 19709
(39.433005, -75.711716)"
"Psychometric Solutions, LLC",SBF20081414,Tameka Payton,643 Andrews Road,,Aberdeen,MD,4433278292,4433603767,http://www.psychometricsolutions.org,admin@psychometricsolutions.org,,,,YES,,,YES,541720,611710,0,0,0,0,0,0,0,0,0,0,0,0,0,0,0,0,0,0,0,0,0,0,0,0,0,0,0,0,0,0,0,0,0,0,0,0,"643 Andrews Road
Aberdeen, MD 21001
(39.523434, -76.174028)"
"Quality Compass Janitorial Services, LLC",SBF21021451,Linda Farrow,199 Pine Cone Drive,,Dover,DE,3023990302,,,qualitycompassjs@gmail.com,,,,YES,,,YES,561720,0,0,0,0,0,0,0,0,0,0,0,0,0,0,0,0,0,0,0,0,0,0,0,0,0,0,0,0,0,0,0,0,0,0,0,0,0,"199 Pine Cone Drive
Dover, DE 19901
(39.21502, -75.580443)"
"Quality Compliance Management, Inc. dba QCM",DE20113666,Tina Young,QCM,"14502 Greenview Drive, Suite 510",Laurel,MD,3016049898,2405541696,http://www.qcmconsulting.com,tyoung@qcmconsulting.com,,,,YES,,,YES,541611,541690,541990,611420,611430,541618,624310,561110,541614,541612,611710,0,0,0,0,0,0,0,0,0,0,0,0,0,0,0,0,0,0,0,0,0,0,0,0,0,0,0,
Quarry Products Unlimited Inc,DE22013955,Diana Walker,12315 Twiford Road,PO Box 395,Sharptown,MD,4108832538,4108832538,,quarryunlimited@aol.com,YES,,,,,,YES,423320,484220,0,0,0,0,0,0,0,0,0,0,0,0,0,0,0,0,0,0,0,0,0,0,0,0,0,0,0,0,0,0,0,0,0,0,0,0,"12315 Twiford Road
Sharptown, MD 21861
(38.532557, -75.725179)"
"QUIAH Group, Inc.",SBF18011174,Rosetta Kpona Quiah,11317 Aristotle Drive,Suite 310,Fairfax,VA,7036791048,,http://www.QuiahGroup.com,Rquiah@QuiahGroup.com,,,,YES,,,YES,541611,561312,561320,541219,541613,541810,0,0,0,0,0,0,0,0,0,0,0,0,0,0,0,0,0,0,0,0,0,0,0,0,0,0,0,0,0,0,0,0,"11317 Aristotle Drive
Fairfax, VA 22030
(38.862054, -77.338749)"
"R2T, Inc.",DE21043767,Kimberly Ajy,580 W. Crossville Road Suite 101,,Roswell,GA,7705697038,7709935082,http://www.r2tinc.com,kim.ajy@r2tinc.com,,,,,YES,,YES,541620,221310,237110,237990,236220,238910,541340,541350,541360,541611,541618,541990,0,0,0,0,0,0,0,0,0,0,0,0,0,0,0,0,0,0,0,0,0,0,0,0,0,0,"580 W. Crossville Road Suite 101
Roswell, GA 300757505
(34.054621, -84.378581)"
Reis Enterprises LLC dba Reis Painting LLC,SBF20091417,Soner Kece,,504 Conner Boulevard,Bear,DE,3023655588,,http://www.paintbyreis.com,soner@paintbyreis.com,,,,,YES,,,238320,0,0,0,0,0,0,0,0,0,0,0,0,0,0,0,0,0,0,0,0,0,0,0,0,0,0,0,0,0,0,0,0,0,0,0,0,0,"Bear, DE 19701
(39.597379, -75.694272)"
"Reliance Medical Billing Solutions, LLC",SBF20071396,Ben Eison,,844 Court Lane,Lancaster,PA,7177402622,7177402629,http://www.reliancembs.com,ben@reliancembs.com,,,,YES,,,YES,541219,0,0,0,0,0,0,0,0,0,0,0,0,0,0,0,0,0,0,0,0,0,0,0,0,0,0,0,0,0,0,0,0,0,0,0,0,0,"Lancaster, PA 17601
(40.072525, -76.320393)"
Reliance Virtual Services LLC,SBF22051584,Debbie Ryder,DBA Fast-N-Fresh Laundry,117 S. Washington Street,Millsboro,DE,3025226691,,,reliancevirtualservices@gmail.com,,,,YES,,,YES,812310,0,0,0,0,0,0,0,0,0,0,0,0,0,0,0,0,0,0,0,0,0,0,0,0,0,0,0,0,0,0,0,0,0,0,0,0,0,
"Renee R. Fisher, Consulting",SBF19021253,Renee Fisher,903 Devon Drive,,Newark,DE,3025408872,,,drreneerfisher@gmail.com,,,,YES,,,YES,611430,0,0,0,0,0,0,0,0,0,0,0,0,0,0,0,0,0,0,0,0,0,0,0,0,0,0,0,0,0,0,0,0,0,0,0,0,0,"903 Devon Drive
Newark, DE 19711
(39.668261, -75.761709)"
"Reprographics Center, Inc.",DE20033403,Mike Janis,298 Churchmans Road,,New Castle,DE,3023285019,3023285067,http://www.rciplot.com,mike.janis@rciplot.com,,,YES,YES,,,YES,323111,561439,541890,0,0,0,0,0,0,0,0,0,0,0,0,0,0,0,0,0,0,0,0,0,0,0,0,0,0,0,0,0,0,0,0,0,0,0,"298 Churchmans Road
New Castle, DE 19720
(39.673275, -75.620161)"
Resh,SBF20011328,Sherell Flagg,206 Jestan Boulevard,206 Jestan Boulevard,New Castle,DE,3025435469,,http://www.myresh.com,sherell@blisselements.com,,,,YES,,,,812112,812199,0,0,0,0,0,0,0,0,0,0,0,0,0,0,0,0,0,0,0,0,0,0,0,0,0,0,0,0,0,0,0,0,0,0,0,0,"206 Jestan Boulevard
New Castle, DE 19720
(39.61292, -75.656466)"
Reyna Information Technology Services LLC,DE20033388,Patricia Bryner,590 Centerville Road,#179,Lancaster,PA,7179403426,7178987125,http://ReynaITS.com,PatyBryner@reynaits.com,,,,YES,,,YES,541512,541513,541519,541611,541511,0,0,0,0,0,0,0,0,0,0,0,0,0,0,0,0,0,0,0,0,0,0,0,0,0,0,0,0,0,0,0,0,0,"590 Centerville Road
Lancaster, PA 17601
(40.055211, -76.398266)"
RG Promotions Inc.,DE20073577,Roxanne Gadaingan,506 Hopewell Drive,,Clayton,DE,3023553579,3022235255,http://www.rgpromotionsinc.com,roxanne@rgpromotionsinc.com,,YES,,,,,YES,314999,323113,0,0,0,0,0,0,0,0,0,0,0,0,0,0,0,0,0,0,0,0,0,0,0,0,0,0,0,0,0,0,0,0,0,0,0,0,"506 Hopewell Drive
Clayton, DE 19938
(39.228425, -75.72022)"
Rogers Plumbing,SBF19081312,Ralph Rogers,12 Ridge Road,,Smyrna,DE,3025071619,3025085788,,rogersplumbing302@gmail.com,,,,YES,,,YES,238220,0,0,0,0,0,0,0,0,0,0,0,0,0,0,0,0,0,0,0,0,0,0,0,0,0,0,0,0,0,0,0,0,0,0,0,0,0,"12 Ridge Road
Smyrna, DE 19977
(39.268844, -75.598317)"
"Rossi Transporation Group, Inc.",SBF20101426,Rita Ossiander,"120 Cockeysville Road, Suite 103",,Hunt Valley,MD,4433305505,,http://www.rossitg.com,rita.ossiander@rossitg.com,,,,,,YES,YES,541330,541320,541340,237310,237990,541370,541511,541611,541614,0,0,0,0,0,0,0,0,0,0,0,0,0,0,0,0,0,0,0,0,0,0,0,0,0,0,0,0,0,"120 Cockeysville Road, Suite 103
Hunt Valley, MD 21030
(39.481579, -76.64754)"
"Rozbed Holdings, LLC DBA American Fiber Company",SBF21031457,James Brobyn,4023 Kennet Pike,#302,Greenville,DE,3026962464,,http://www.americanfiber.com,jb@americanfiber.com,,,,YES,,,YES,561110,531390,0,0,0,0,0,0,0,0,0,0,0,0,0,0,0,0,0,0,0,0,0,0,0,0,0,0,0,0,0,0,0,0,0,0,0,0,"4023 Kennet Pike
Greenville, DE 19807
(39.780714, -75.599616)"
"R.S. Widdoes & Son, Inc.",DE22054107,Michael J. Widdoes,204 Channel Road,,Wilmington,DE,3027647455,3027640777,http://www.rswiddoes.com,mikew@rswiddoes.com,,,,,YES,,YES,238110,238140,238910,238990,237310,237990,236210,236220,236118,236116,236115,0,0,0,0,0,0,0,0,0,0,0,0,0,0,0,0,0,0,0,0,0,0,0,0,0,0,0,"204 Channel Road
Wilmington, DE 19809
(39.756779, -75.496611)"
Ryan McCrossan LLC DBA Lockerbie & Co.,SBF21021450,Stephanie Lokker,447 Van Houten Avenue,Unit 110A,Passaic,NJ,9177449850,,,ryan@letsgetstrategic.com,,,,YES,,,YES,541611,0,0,0,0,0,0,0,0,0,0,0,0,0,0,0,0,0,0,0,0,0,0,0,0,0,0,0,0,0,0,0,0,0,0,0,0,0,"447 Van Houten Avenue
Passaic, NJ 07055
(40.854325, -74.141524)"
Ryzhka International LLC,SBF20041351,Michael Dunbar,,600 SW 3rd St. Suite 6121A,Pompano Beach,FL,9543669199,,http://www.ryzhka.com,mdunbar@ryzhka.com,YES,,YES,,,,YES,324191,324199,324110,424720,425120,0,0,0,0,0,0,0,0,0,0,0,0,0,0,0,0,0,0,0,0,0,0,0,0,0,0,0,0,0,0,0,0,0,"Pompano Beach, FL 33060
(26.232002, -80.12274)"
Sales Solutions,DE20033397,Susan Miller,37 Berkely Way,,New Castle,DE,3025471944,3023229505,http://www.salessolutionsde.com,smiller@salessolutionsde.com,,,,YES,,,YES,454390,531210,0,0,0,0,0,0,0,0,0,0,0,0,0,0,0,0,0,0,0,0,0,0,0,0,0,0,0,0,0,0,0,0,0,0,0,0,"37 Berkely Way
New Castle, DE 19720
(39.656102, -75.63392)"
Sanchez FK Repairs LLC,SBF22061586,Jose Pache,10428 Country Grove Circle,,Delmar,DE,3023620900,,,josefrancis1982@gmail.com,,,,YES,,,YES,811111,0,0,0,0,0,0,0,0,0,0,0,0,0,0,0,0,0,0,0,0,0,0,0,0,0,0,0,0,0,0,0,0,0,0,0,0,0,"10428 Country Grove Circle
Delmar, DE 19940
(38.503403, -75.572481)"
"Sassy Bee Honey, LLC dba Sassy Bee",SBF21051483,Stephanie Grant,912 Highland Avenue,,Bellefonte,DE,6107049601,,http://www.justbeesassy.com,beesassyhoney@gmail.com,,YES,,,,,YES,311999,112910,454110,0,0,0,0,0,0,0,0,0,0,0,0,0,0,0,0,0,0,0,0,0,0,0,0,0,0,0,0,0,0,0,0,0,0,0,"912 Highland Avenue
Bellefonte, DE 19809
(39.766865, -75.495089)"
"Scanlon Safety Services, LLC",DE20033443,Cheryl Scanlon-Zinner,2516 Channin Drive,,Wilmington,DE,3025297718,,http://www.scanlonsafety.com,cheryl@scanlonsefety.com,,,,YES,,,YES,541690,0,0,0,0,0,0,0,0,0,0,0,0,0,0,0,0,0,0,0,0,0,0,0,0,0,0,0,0,0,0,0,0,0,0,0,0,0,"2516 Channin Drive
Wilmington, DE 19810
(39.829782, -75.514934)"
"Security Dimensions, LLC",SBF18021178,Troy McCoy,20453 Old Meadows Lane,,Lewes,DE,3015128838,3026447343,https://www.sd-llc.org/,tmac5322@gmail.com,,,,YES,,,YES,518210,541512,541513,541519,541611,541690,611420,0,0,0,0,0,0,0,0,0,0,0,0,0,0,0,0,0,0,0,0,0,0,0,0,0,0,0,0,0,0,0,"20453 Old Meadows Lane
Lewes, DE 19958
(38.708135, -75.158226)"
Serpent Dancer Alchemy,SBF21091521,Lenesh Baughmar,28545 Seaford Road,,Laurel,DE,7173684270,,,leneshmarie@yahoo.com,,,,YES,,,YES,323111,541430,812990,0,0,0,0,0,0,0,0,0,0,0,0,0,0,0,0,0,0,0,0,0,0,0,0,0,0,0,0,0,0,0,0,0,0,0,"28545 Seaford Road
Laurel, DE 19956
(38.590239, -75.586775)"
"Set Fa Life, LLC",DE21103919,Christopher M. Williams,2600 N. Market Street,,Wilmington,DE,3025105865,3024076878,https://set-fa-life-llc.business.site/,cmw@SFLBuild.com,,,,,YES,,YES,236118,238910,238320,238330,238130,238350,811490,238340,238310,238170,236220,238190,0,0,0,0,0,0,0,0,0,0,0,0,0,0,0,0,0,0,0,0,0,0,0,0,0,0,"2600 N. Market Street
Wilmington, DE 19802
(39.754587, -75.535639)"
Sharon J. Harris DBA Hart of Gold Services,SBF18071206,Sharon Harrris,14 Haggis Road,,Middletown,DE,6095569971,6788562228,http://www.hartofgoldservices.weebly.com,hartofgoldservices@gmail.com,,,,YES,,,YES,561720,561510,0,0,0,0,0,0,0,0,0,0,0,0,0,0,0,0,0,0,0,0,0,0,0,0,0,0,0,0,0,0,0,0,0,0,0,0,"14 Haggis Road
Middletown, DE 19709
(39.425165, -75.738218)"
Shoreline Medical LLC,SBF22051580,Mareya Steinbacher,219 Clydia Court,,Middletown,DE,3023797609,,,mareyasteinbacher@gmail.com,YES,,,,,,YES,423450,0,0,0,0,0,0,0,0,0,0,0,0,0,0,0,0,0,0,0,0,0,0,0,0,0,0,0,0,0,0,0,0,0,0,0,0,0,"219 Clydia Court
Middletown, DE 19709
(39.413995, -75.727274)"
Sibrew Group LLC,SBF21021454,Donald Thompson,107 S. State Street,,Dover,DE,3023824701,8666726428,,sibrewgroup@gmail.com,,,,,YES,,YES,236220,238130,238110,236115,236116,236118,0,0,0,0,0,0,0,0,0,0,0,0,0,0,0,0,0,0,0,0,0,0,0,0,0,0,0,0,0,0,0,0,"107 S. State Street
Dover, DE 19901
(39.159658, -75.525008)"
"SID, LLC",SBF20071382,Annette Rogers,,4505 A New Jersey Dr.,Dover,DE,4436082218,,,SGTGigi64@gmail.com,,,,YES,,,YES,561110,541611,561410,541612,541990,0,0,0,0,0,0,0,0,0,0,0,0,0,0,0,0,0,0,0,0,0,0,0,0,0,0,0,0,0,0,0,0,0,"Dover, DE 19901
(39.15873, -75.511168)"
"Simplr Resource Staffing, Inc.",SBF18091221,Albert J. Ryans,1015 W. 8th Street,,Wilmington,DE,3024336061,,http://www.simplrrs.com,aryans@simplrrs.com,,,,YES,,,YES,561320,561311,0,0,0,0,0,0,0,0,0,0,0,0,0,0,0,0,0,0,0,0,0,0,0,0,0,0,0,0,0,0,0,0,0,0,0,0,"1015 W. 8th Street
Wilmington, DE 19806
(39.747552, -75.559428)"
Sisu Athletics,SBF21091524,Alisa Rose,2807 Concord Pike,,Wilmington,DE,3024770123,,,alisa@sisuathletics.com,,YES,,,,,YES,448120,0,0,0,0,0,0,0,0,0,0,0,0,0,0,0,0,0,0,0,0,0,0,0,0,0,0,0,0,0,0,0,0,0,0,0,0,0,
SJB Capital Group dba Back to Basics Learning Dyna,SBF19101318,Juli Bennett,SJB Capital Group dba Back to Basics Learning Dyna,6 Stone Hill Road,Wilmington,DE,3025940754,3024219479,http://www.backtobasicslearning.com,juli@backtobasicslearning.com,,,,YES,,,YES,611691,611110,611710,611430,541930,923110,0,0,0,0,0,0,0,0,0,0,0,0,0,0,0,0,0,0,0,0,0,0,0,0,0,0,0,0,0,0,0,0,
"S.L. Burton Consulting, LLC",DE20123701,Sharon Burton,PO Box 7274,,Wilmington,DE,3025478010,3026611081,http://www.slburton.com,sharon.burton@slburton.com,,,,YES,,,YES,541611,611699,541612,711510,541720,561410,611430,0,0,0,0,0,0,0,0,0,0,0,0,0,0,0,0,0,0,0,0,0,0,0,0,0,0,0,0,0,0,0,
Smakkfitness LLC,SBF21031455,LaMarqus Collins,410 N. Market Street,,Wilmington,DE,2153973800,,http://www.smakkfit.com,ceo@smakkfit.com,,,,YES,,,YES,713940,0,0,0,0,0,0,0,0,0,0,0,0,0,0,0,0,0,0,0,0,0,0,0,0,0,0,0,0,0,0,0,0,0,0,0,0,0,"410 N. Market Street
Wilmington, DE 19801
(39.740736, -75.551071)"
"Sound-n-Secure, Inc.",DE20023374,Melissa Pingue,20444 Pingue Drive,,Milford,DE,3024243670,3024244764,http://www.sound-n-secure.com,sound-n-secure@comcast.net,,YES,,YES,YES,,YES,561621,238210,811219,811213,811211,517919,0,0,0,0,0,0,0,0,0,0,0,0,0,0,0,0,0,0,0,0,0,0,0,0,0,0,0,0,0,0,0,0,"20444 Pingue Drive
Milford, DE 19963
(38.917733, -75.397004)"
Sovereign Certified DBA WillMc Janitorial Service,SBF22021556,Shauntay Furbush,29 W Loockerman Street,,Dover,DE,3026720189,,http://www.willmc.net,shauntaytg@gmail.com,,,,YES,,,YES,561720,0,0,0,0,0,0,0,0,0,0,0,0,0,0,0,0,0,0,0,0,0,0,0,0,0,0,0,0,0,0,0,0,0,0,0,0,0,"29 W Loockerman Street
Dover, DE 19904
(39.157898, -75.52543)"
SPAA Corporation,SBF20031348,Payal Patel,767 Wood Duck Court,,Middletown,DE,3028981609,,,payal@spaacorp.com,YES,,,,,,YES,424210,424990,0,0,0,0,0,0,0,0,0,0,0,0,0,0,0,0,0,0,0,0,0,0,0,0,0,0,0,0,0,0,0,0,0,0,0,0,"767 Wood Duck Court
Middletown, DE 19709
(39.461424, -75.69006)"
"Spore & Co., LLC DBA Breathe Clean",SBF22031564,Samar Kargbo,1900 N. Jefferson Street,,Wilmington,DE,3023041888,,,samarkargbo@gmail.com,,,,YES,,,YES,561720,561790,0,0,0,0,0,0,0,0,0,0,0,0,0,0,0,0,0,0,0,0,0,0,0,0,0,0,0,0,0,0,0,0,0,0,0,0,"1900 N. Jefferson Street
Wilmington, DE 19802
(39.755229, -75.545107)"
"Stable Ground In-Situ, LLC",SBF22021557,Fernando Garcia,917 Indian Runner Road,,Felton,DE,2678965380,,http://www.sgi-insitu.com,admin@sgi-insitu.com,,,,,,YES,YES,541330,541380,238910,0,0,0,0,0,0,0,0,0,0,0,0,0,0,0,0,0,0,0,0,0,0,0,0,0,0,0,0,0,0,0,0,0,0,0,"917 Indian Runner Road
Felton, DE 19943
(39.022705, -75.609672)"
"Standard Petroleum Logistics, Inc.",DE22084150,Misty Sexton,"8300 Guilford Road, Suite D",,Columbia,MD,4104612607,,http://standardpetroleumlogistics.com,Misty.Sexton@StandardPetroleumLogistics.com,YES,,,,,,YES,541614,541620,541690,541990,611430,424720,425120,454310,0,0,0,0,0,0,0,0,0,0,0,0,0,0,0,0,0,0,0,0,0,0,0,0,0,0,0,0,0,0,"8300 Guilford Road, Suite D
Columbia, MD 21046
(39.176263, -76.870037)"
Starz Math,SBF21081508,Charlotte Coston,156 Hawk Drive,,Newark,DE,3024657776,,http://www.starzmath.com,starzmath156@gmail.com,,,,YES,,,YES,611691,611710,923110,0,0,0,0,0,0,0,0,0,0,0,0,0,0,0,0,0,0,0,0,0,0,0,0,0,0,0,0,0,0,0,0,0,0,0,"156 Hawk Drive
Newark, DE 19702
(39.625137, -75.682183)"
"Statewide Mechanical, Inc.",DE21063831,Paige Stewart,3295 Harris Road,,Townsend,DE,3023766117,3023766127,,statewideinc8@aol.com,,,,,YES,,YES,238220,0,0,0,0,0,0,0,0,0,0,0,0,0,0,0,0,0,0,0,0,0,0,0,0,0,0,0,0,0,0,0,0,0,0,0,0,0,"3295 Harris Road
Townsend, DE 19734
(39.438883, -75.662262)"
"Stewart National Transportation, LLC",SBF19051284,Alfred Stewart,60 Almonds Way,,Magnolia,DE,3022446456,,,alfred.stewart@ymail.com,,,,YES,,,YES,484121,0,0,0,0,0,0,0,0,0,0,0,0,0,0,0,0,0,0,0,0,0,0,0,0,0,0,0,0,0,0,0,0,0,0,0,0,0,"60 Almonds Way
Magnolia, DE 19962
(39.052217, -75.522051)"
"Strategic Performance Coaching and Consulting, LLC",SBF20121437,Jennifer Griffin,717 Fawn Road,,Newark,DE,3023730046,,,jgriffinresiliency@gmail.com,,,,YES,,,YES,611430,611710,541612,611699,0,0,0,0,0,0,0,0,0,0,0,0,0,0,0,0,0,0,0,0,0,0,0,0,0,0,0,0,0,0,0,0,0,0,"717 Fawn Road
Newark, DE 19711
(39.757091, -75.737635)"
"Strobert Tree Services, Inc.",SBF19081313,Andrew Strobert,1806 Zebley Road,,Wilmington,DE,3026566077,,http://www.stroberttree.com,Matt.Capozzi@ADStrobert.com,,,,YES,YES,,,238910,561730,0,0,0,0,0,0,0,0,0,0,0,0,0,0,0,0,0,0,0,0,0,0,0,0,0,0,0,0,0,0,0,0,0,0,0,0,"1806 Zebley Road
Wilmington, DE
(39.826376, -75.488233)"
"Strongpoint Mobius Partners, LLC",SBF20071387,Mary Rowley,DBA NuPoint Marketing,"818 N. Market Street, Suite 2R",Wilmington,DE,8556861566,,http://www.nupointmarketing.com,mrowley@nupointmarketing.com,,,,YES,,,YES,541613,541618,541810,541830,541850,541860,541890,541910,541922,541612,541611,0,0,0,0,0,0,0,0,0,0,0,0,0,0,0,0,0,0,0,0,0,0,0,0,0,0,0,
Strong Tower Fuel,SBF21101525,Dana Lewis,300 Delaware Avenue,Suite 210,Wilmington,DE,2677027187,,http://www.strongtowerfuel.com,strongtowerfuel@gmail.com,YES,,,,,,YES,424720,486910,0,0,0,0,0,0,0,0,0,0,0,0,0,0,0,0,0,0,0,0,0,0,0,0,0,0,0,0,0,0,0,0,0,0,0,0,"300 Delaware Avenue
Wilmington, DE 19801
(39.746828, -75.550262)"
"Strong Women Industrial Materials, LLC",DE21033757,Kelly Penoyer,14 Hadco Road,,Wilmington,DE,3027434061,,http://www.strongwomenindustrial.com,strongwomenindustrialmaterials@gmail.com,YES,,,,YES,,YES,423320,423510,424690,0,0,0,0,0,0,0,0,0,0,0,0,0,0,0,0,0,0,0,0,0,0,0,0,0,0,0,0,0,0,0,0,0,0,0,"14 Hadco Road
Wilmington, DE 19804
(39.73892, -75.586758)"
"Studio 10, LLC",DE21103913,Toren Williams,2424 Grubb Road,,Wilmington,DE,3024389188,,,twilliams@studio10llc.com,,,,YES,,,YES,236115,236116,236118,236210,236220,236117,0,0,0,0,0,0,0,0,0,0,0,0,0,0,0,0,0,0,0,0,0,0,0,0,0,0,0,0,0,0,0,0,"2424 Grubb Road
Wilmington, DE 19810
(39.816378, -75.505542)"
"SUM, Inc.",SBF18081215,Jane Moore,DBA Stanley Steemer - New Castle and Kent Counties,31 Southgate Blvd,New Castle,DE,3023225511,3023225585,http://www.stanleysteemer.com,Jane.Moore@steemer.com,,,,YES,,,YES,561740,0,0,0,0,0,0,0,0,0,0,0,0,0,0,0,0,0,0,0,0,0,0,0,0,0,0,0,0,0,0,0,0,0,0,0,0,0,
Sunray Studio LLC,SBF22051576,James Mitchell,1124 Lancaster Avenue,,Wilmington,DE,7702824358,7707900083,http://www.sunraystudio.com,james@sunraystudio.com,,,,YES,,,YES,541430,541810,519130,541511,0,0,0,0,0,0,0,0,0,0,0,0,0,0,0,0,0,0,0,0,0,0,0,0,0,0,0,0,0,0,0,0,0,0,"1124 Lancaster Avenue
Wilmington, DE 19805
(39.742595, -75.564166)"
"Sussex Environmental Consultants, LLC",DE22034050,Susan White,PO Box 489,,Georgetown,DE,3022281708,3022281708,http://www.sussexenvironmental.com,susan.white@mchsi.com,,,,YES,,,YES,541620,562910,0,0,0,0,0,0,0,0,0,0,0,0,0,0,0,0,0,0,0,0,0,0,0,0,0,0,0,0,0,0,0,0,0,0,0,0,
Sussex Pain Relief Center LLC,SBF20121432,Manonmani Antony,18229 Dupont Boulevard,,Georgetown,DE,3025191616,,http://www.sussexpainrelief.com,caroline@sussexpainrelief.com,,,,YES,,,YES,621111,0,0,0,0,0,0,0,0,0,0,0,0,0,0,0,0,0,0,0,0,0,0,0,0,0,0,0,0,0,0,0,0,0,0,0,0,0,"18229 Dupont Boulevard
Georgetown, DE 19947
(38.73652, -75.421653)"
"SuYash Consulting, LLC",SBF22031563,Rahul Kesarkar,4016 Arjay Circle,,Ellicott City,MD,4434135370,,http://www.suyashconsulting.com,contact@suyashconsulting.com,,,,YES,,,YES,541330,541620,237310,238990,0,0,0,0,0,0,0,0,0,0,0,0,0,0,0,0,0,0,0,0,0,0,0,0,0,0,0,0,0,0,0,0,0,0,"4016 Arjay Circle
Ellicott City, MD 21042
(39.260492, -76.853103)"
SwitchLane Inc.,DE20113672,Meera Kalyani,"5 Christy Drive, Suite 303",,Chadds Ford,PA,6105583500,8772037131,http://www.switchlane.com,meera@switchlane.com,,,,YES,,,YES,541511,541512,0,0,0,0,0,0,0,0,0,0,0,0,0,0,0,0,0,0,0,0,0,0,0,0,0,0,0,0,0,0,0,0,0,0,0,0,"5 Christy Drive, Suite 303
Chadds Ford, PA 19317
(39.878537, -75.547339)"
"Syncretic Press, LLC",SBF19031259,Enrique Moras,P.O. Box 7401,,Wilmington,DE,4437238355,,https://syncreticpress.com/,emoras@syncreticpress.com,,,,YES,,,,511130,0,0,0,0,0,0,0,0,0,0,0,0,0,0,0,0,0,0,0,0,0,0,0,0,0,0,0,0,0,0,0,0,0,0,0,0,0,
"Synergy Systems & Services, Inc.",DE21043780,Abhay Nigam,dba: S Cube,"11155 Dolfield Blvd., Suite 114",Owings Mills,MD,4109606761,4433949815,http://www.sss-inc.com,abhay@sss-inc.com,,,,YES,,,YES,541511,541513,541512,541611,541910,0,0,0,0,0,0,0,0,0,0,0,0,0,0,0,0,0,0,0,0,0,0,0,0,0,0,0,0,0,0,0,0,0,
Tailored Care LLC,SBF20071384,Tabitha Cephas,85 Point Landing Lane,,Magnolia,DE,3026971633,8663978966,http://www.tailoredcarellc.com,tabitha.cephas@tailoredcarellc.com,,,,YES,,,YES,624120,621610,541611,0,0,0,0,0,0,0,0,0,0,0,0,0,0,0,0,0,0,0,0,0,0,0,0,0,0,0,0,0,0,0,0,0,0,0,"85 Point Landing Lane
Magnolia, DE 19962
(39.09964, -75.484826)"
"Taxes Galore & More, LLC",SBF22011549,Erma Graves-Davie,123 Sweetbay Lane,,New Castle,DE,3025659813,,,taxesgaloremore@gmail.com,,,,YES,,,YES,541611,541213,541511,921190,541618,541219,541512,0,0,0,0,0,0,0,0,0,0,0,0,0,0,0,0,0,0,0,0,0,0,0,0,0,0,0,0,0,0,0,"123 Sweetbay Lane
New Castle, DE 19720
(39.6147, -75.651737)"
"Taylor Distribution Group, LLC DBA TDG Scientific",DE22034030,Autura Taylor,15950 Dallas Parkway,Suite #400,Dallas,TX,8882484929,9729394506,http://www.tdgscientific.com,artura@tdgsci.com,YES,,,,,,YES,423450,423490,424690,0,0,0,0,0,0,0,0,0,0,0,0,0,0,0,0,0,0,0,0,0,0,0,0,0,0,0,0,0,0,0,0,0,0,0,"15950 Dallas Parkway
Dallas, TX 75248
(32.966097, -96.821043)"
"Taylormade Behavioral Health Solutions, LLC",SBF22031567,Anitra Green,86 Peyton Street,,Dover,DE,4847160336,,http://www.taylormadebhs.com,anitra_taylor@yahoo.com,,,,YES,,,YES,621610,611430,561990,624110,624190,0,0,0,0,0,0,0,0,0,0,0,0,0,0,0,0,0,0,0,0,0,0,0,0,0,0,0,0,0,0,0,0,0,"86 Peyton Street
Dover, DE 19901
(39.136511, -75.509706)"
Techvio,SBF21031460,Vijaya Rao,201 Marjoram Drive,,Bear,DE,6143952385,,,vijaya@techvio.com,,,,YES,,,YES,541511,541512,541611,541618,0,0,0,0,0,0,0,0,0,0,0,0,0,0,0,0,0,0,0,0,0,0,0,0,0,0,0,0,0,0,0,0,0,0,"201 Marjoram Drive
Bear, DE 19701
(39.634425, -75.670604)"
"Teddy Bear Fresh Produce, LLC",SBF21111539,Mary Salins,28595 Marys Court,,Easton,MD,4108198205,4108193753,http://www.teddybearfresh.com,mary@teddybearfresh.com,YES,,,,,,YES,424480,424430,424410,445230,0,0,0,0,0,0,0,0,0,0,0,0,0,0,0,0,0,0,0,0,0,0,0,0,0,0,0,0,0,0,0,0,0,0,"28595 Marys Court
Easton, MD 21601
(38.792959, -76.084125)"
Tegeler Source LLC,SBF18061198,Brittany Tegeler,2515 Boston Street,# 504,Baltimore,MD,4102368165,,http://www.tegelersource.com,brittany@tegelersource.com,,,,,YES,,YES,236115,236116,236210,236220,423310,423320,425120,0,0,0,0,0,0,0,0,0,0,0,0,0,0,0,0,0,0,0,0,0,0,0,0,0,0,0,0,0,0,0,"2515 Boston Street
Baltimore, MD 21224
(39.28056, -76.580458)"
Tek Solutions LLC,SBF21091522,Somasundaram Ramesh,1112 Tway Lane,,Herndon,VA,2023725515,,http://www.teksolutionsgov.com,soma.ramesh@teksolutionsgov.com,,,,YES,,,YES,541511,541512,0,0,0,0,0,0,0,0,0,0,0,0,0,0,0,0,0,0,0,0,0,0,0,0,0,0,0,0,0,0,0,0,0,0,0,0,"1112 Tway Lane
Herndon, VA 20170
(38.979919, -77.390885)"
"TFC Lifesavers, Inc.",SBF22031568,Tara White,DBA TFC Lifesavers CPR Institute,11 Shawn Lane,Bear,DE,2404687555,2404687672,http://www.tfclifesavers.com,tara@tfclifesavers.com,,,,YES,,,YES,611699,0,0,0,0,0,0,0,0,0,0,0,0,0,0,0,0,0,0,0,0,0,0,0,0,0,0,0,0,0,0,0,0,0,0,0,0,0,
T.H. Easter Consulting LLC,SBF21091514,Terri Hartwell,207 Christina Landing Drive,Level 1,Wilmington,DE,3024502443,2028851055,http://www.theasterconsulting.com,thecadmin@theasterconsulting.com,,,,YES,,,YES,541611,541612,541618,541990,561312,611430,541720,541910,0,0,0,0,0,0,0,0,0,0,0,0,0,0,0,0,0,0,0,0,0,0,0,0,0,0,0,0,0,0,
"The Baskin Group, LLC",SBF22031562,Tanya Baskin,2507 Kensington Boulevard,,Silver Spring,MD,2026640465,,http://www.tbgstrategies.com,tanya@tbgstrategies.com,,,,YES,,,YES,541613,541820,541870,541910,0,0,0,0,0,0,0,0,0,0,0,0,0,0,0,0,0,0,0,0,0,0,0,0,0,0,0,0,0,0,0,0,0,0,"2507 Kensington Boulevard
Silver Spring, MD 20902
(39.041743, -77.053596)"
"The Flower Place of New Castle, LLC",SBF21091513,Diane Hess,DBA The Flower Place,907 N. DuPont Highway,New Castle,DE,3023280442,,http://www.flowerplaceofnewcastle.com,2theflowerplace907@gmail.com,,YES,,,,,YES,453110,0,0,0,0,0,0,0,0,0,0,0,0,0,0,0,0,0,0,0,0,0,0,0,0,0,0,0,0,0,0,0,0,0,0,0,0,0,
The Houze Group,SBF20061380,Thomas Houze,651 N. Broad Street,,Middletown,DE,3012327274,,http://www.thehouzegroup.pw,thomas@thehouzegroup.pw,,,,YES,,,YES,541613,541618,561499,611430,541511,541512,541513,541519,541611,541690,541990,0,0,0,0,0,0,0,0,0,0,0,0,0,0,0,0,0,0,0,0,0,0,0,0,0,0,0,"651 N. Broad Street
Middletown, DE 19709
(39.455888, -75.718689)"
The Juice Joint LLC,SBF22031566,Lanice Wilson,323 Justison Street,,Wilmington,DE,3023884755,,http://www.thejuicejoint.de,hello@thejuicejoint.de,,YES,,,,,YES,311421,722515,0,0,0,0,0,0,0,0,0,0,0,0,0,0,0,0,0,0,0,0,0,0,0,0,0,0,0,0,0,0,0,0,0,0,0,0,"323 Justison Street
Wilmington, DE 19801
(39.736527, -75.55988)"
The Loop Factor LLC,SBF22061587,Sherica Cheek,1201 North Market Street,Suite 111-E39,Wilmington,DE,3022063640,3022063639,http://www.theloopfactor.com/,scheek@theloopfactor.com,,,,YES,,,YES,518210,541511,541512,541513,541519,561311,561320,561312,0,0,0,0,0,0,0,0,0,0,0,0,0,0,0,0,0,0,0,0,0,0,0,0,0,0,0,0,0,0,"1201 North Market Street
Wilmington, DE 19801
(39.74782, -75.546274)"
The Montclair Valley Group LLC,SBF22021558,Shari Rattray,331 Justison Street,Apt 313,Wilmington,DE,9546559444,,,montclairvalleygroup@gmail.com,,,,YES,,,YES,541614,423610,541618,0,0,0,0,0,0,0,0,0,0,0,0,0,0,0,0,0,0,0,0,0,0,0,0,0,0,0,0,0,0,0,0,0,0,0,"331 Justison Street
Wilmington, DE 19801
(39.736759, -75.559726)"
"The Obscidion Group, LLC",SBF21091518,Eric Williams,"1220 L. St, NW",Suite 192,Washington,DC,2407317112,,http://www.obscidion.com,ewilliams@obscidion.com,,,,YES,,,YES,541611,541612,541613,541614,541618,541690,541990,541512,611430,0,0,0,0,0,0,0,0,0,0,0,0,0,0,0,0,0,0,0,0,0,0,0,0,0,0,0,0,0,"1220 L. St, NW
Washington, DC 20005
(38.90374, -77.029157)"
"The Speech Clinic, Inc.",DE22044065,Marie Azzara,"5147 West Woodmill Drive, #21",,Wilmington,DE,3029990702,3029990842,http://www.SpeechClinicInc.com,41chip41@comcast.net,,,,YES,,,YES,621340,0,0,0,0,0,0,0,0,0,0,0,0,0,0,0,0,0,0,0,0,0,0,0,0,0,0,0,0,0,0,0,0,0,0,0,0,0,"5147 West Woodmill Drive, #21
Wilmington, DE 19808
(39.718511, -75.670498)"
The Vision Investment Properties LLC,SBF21041473,Timothy Massado,407 N. Lynn Drive,,Wilmington,DE,3479796697,,,thevipllc11@gmail.com,,,,,YES,,YES,236118,238130,238160,238170,238310,238320,238330,238340,238350,238990,0,0,0,0,0,0,0,0,0,0,0,0,0,0,0,0,0,0,0,0,0,0,0,0,0,0,0,0,"407 N. Lynn Drive
Wilmington, DE 19809
(39.767101, -75.510869)"
"Think Tank Technologies, LLC",SBF20031347,Leland Nelson,DBA Think Tank Consulting,2405 Park Drive,Harrisburg,PA,7172206700,,http://www.thinktankit.co,info@thinktankit.co,,,,YES,,,YES,561330,561320,541512,541513,541612,541618,541611,541613,0,0,0,0,0,0,0,0,0,0,0,0,0,0,0,0,0,0,0,0,0,0,0,0,0,0,0,0,0,0,
"Thomas Clinical Consultation Services, LLC",SBF21101529,Shawnisha Thomas,"DBA T2C Services, LLC",260 Preston Avenue,Clayton,DE,3023368028,,http://www.t2cservices.org,t2cservices@gmail.com,,,,YES,,,YES,621330,0,0,0,0,0,0,0,0,0,0,0,0,0,0,0,0,0,0,0,0,0,0,0,0,0,0,0,0,0,0,0,0,0,0,0,0,0,
Timi Pharmaceuticals Inc.,SBF22031570,Idayat Adewunmi,DBA Pelham Pharmacy,"6555 Greene Street, Suite #3",Philadelphia,PA,3475744754,,,idadewunmi@timipharma.com,YES,,,,,,YES,424210,446110,423450,0,0,0,0,0,0,0,0,0,0,0,0,0,0,0,0,0,0,0,0,0,0,0,0,0,0,0,0,0,0,0,0,0,0,0,
Tinianow Consulting LLC,SBF19021248,Andrea Tinianow,101 Norris Road,,Wilmington,DE,3022292147,,http://www.AndreaTinianow.com,Andrea@AndreaTinianow.com,,,,YES,,,YES,541618,541613,541611,0,0,0,0,0,0,0,0,0,0,0,0,0,0,0,0,0,0,0,0,0,0,0,0,0,0,0,0,0,0,0,0,0,0,0,"101 Norris Road
Wilmington, DE 19803
(39.769122, -75.549607)"
Top Score Credit Services/ Tiffany Smith,SBF19011238,Tiffany Smith,46 Downey Oak Circle,,Camden-Wyoming,DE,3025729821,,,topscore1981@gmail.com,,,,YES,,,YES,541990,0,0,0,0,0,0,0,0,0,0,0,0,0,0,0,0,0,0,0,0,0,0,0,0,0,0,0,0,0,0,0,0,0,0,0,0,0,"46 Downey Oak Circle
Camden-Wyoming, DE 199342295
(39.114559, -75.565032)"
TORREngineering LLC,SBF20041360,Javier Torrijos,2058 Sewell Branch Road,,Clayton,DE,3023678365,,http://www.torrellc.com,jtorrijos@torrellc.com,,,,,,YES,YES,541330,0,0,0,0,0,0,0,0,0,0,0,0,0,0,0,0,0,0,0,0,0,0,0,0,0,0,0,0,0,0,0,0,0,0,0,0,0,"2058 Sewell Branch Road
Clayton, DE 19938
(39.258905, -75.744277)"
"Total Personnel Services, Inc.",SBF21071502,Aaron Littles,11274 W. Hillsborough Avenue,,Tampa,F,3026744357,,,aaron.littles@usegale.com,,,,YES,,,YES,561320,561330,0,0,0,0,0,0,0,0,0,0,0,0,0,0,0,0,0,0,0,0,0,0,0,0,0,0,0,0,0,0,0,0,0,0,0,0,"11274 W. Hillsborough Avenue
Tampa, F 33635
(28.011504, -82.610002)"
TOVA Healthcare,SBF21071497,Nina Anderson,P.O. Box 9663,"#7 Lori Lane, Suite 100",Wilmington,DE,8884334219,8884334219,,contact@tovahealthcare.com,,,,YES,,,YES,621399,541611,611710,621610,0,0,0,0,0,0,0,0,0,0,0,0,0,0,0,0,0,0,0,0,0,0,0,0,0,0,0,0,0,0,0,0,0,0,
"Tower Business Machine, Inc.",DE22084146,Kevin Laird,DBA: Tower Business Systems,278 Quigley Blvd.,New Castle,DE,3023951445,3023951085,http://www.towerbiz.com,klaird@towerbiz.com,,YES,,YES,,,YES,811212,811219,541512,0,0,0,0,0,0,0,0,0,0,0,0,0,0,0,0,0,0,0,0,0,0,0,0,0,0,0,0,0,0,0,0,0,0,0,
"Transforming Lives, Inc.",SBF20041363,Abdul-Malik Muhammad,364 East Main Street,Suite 1405,Middletown,DE,3023791043,,,mmuhammad@tliservices.org,,,,YES,,,YES,624110,611710,0,0,0,0,0,0,0,0,0,0,0,0,0,0,0,0,0,0,0,0,0,0,0,0,0,0,0,0,0,0,0,0,0,0,0,0,"364 East Main Street
Middletown, DE 19709
(39.450315, -75.704261)"
TransGen Energy Inc.,SBF20101423,Lueve Morlee,407 Stanley Plaza Boulevard,,Newark,DE,6109318493,,http://www.transgen-energy.com,lmorlee@transgen-energy.com,YES,,,,,,YES,424710,425120,0,0,0,0,0,0,0,0,0,0,0,0,0,0,0,0,0,0,0,0,0,0,0,0,0,0,0,0,0,0,0,0,0,0,0,0,"407 Stanley Plaza Boulevard
Newark, DE 19713
(39.670958, -75.702217)"
Transitions Delaware LLC,DE21023740,Karla Fleshman,1305 Kirkwood Highway,,Wilmington,DE,6107243542,3024824728,http://www.TransitionsDE.com,administrator@transitionsde.com,,,,YES,,,YES,621330,611430,541612,0,0,0,0,0,0,0,0,0,0,0,0,0,0,0,0,0,0,0,0,0,0,0,0,0,0,0,0,0,0,0,0,0,0,0,"1305 Kirkwood Highway
Wilmington, DE 19805
(39.73918, -75.602229)"
"Trans Plus, Inc.",DE20043492,Kelli Kruger,423 W. 7th Street,,New Castle,DE,3023233051,3023233076,http://www.transplusdelaware.com,klk@transplusdelaware.com,,,,YES,,,YES,811111,811112,811113,811118,811198,811211,0,0,0,0,0,0,0,0,0,0,0,0,0,0,0,0,0,0,0,0,0,0,0,0,0,0,0,0,0,0,0,0,"423 W. 7th Street
New Castle, DE 19720
(39.659688, -75.5721)"
Tricon Drywall LLC,SBF21041474,Kelvin Tyrell,34 Avignon Drive,,Newark,DE,3027437067,3028321046,,styrell35@gmail.com,,,,,YES,,YES,238310,0,0,0,0,0,0,0,0,0,0,0,0,0,0,0,0,0,0,0,0,0,0,0,0,0,0,0,0,0,0,0,0,0,0,0,0,0,"34 Avignon Drive
Newark, DE 19702
(39.603809, -75.779044)"
Trinity II Corp,SBF19111322,Patrick McRae,1140 3rd Street N.E.,,Washington,DC,2017976422,3013904450,http://trinityii.net,pmcrae@trinityii.net,,,,YES,YES,,,238310,238320,561210,561720,561790,0,0,0,0,0,0,0,0,0,0,0,0,0,0,0,0,0,0,0,0,0,0,0,0,0,0,0,0,0,0,0,0,0,"1140 3rd Street N.E.
Washington, DC 20002
(38.905397, -77.002051)"
"Trinity Property Advisors, LLC",SBF21061494,Candis Pressley,3900 Ford Road,Suite 6,Philadelphia,PA,2154223822,,http://www.trinitypropertyadvisors.com,cpressley@trinitypropertyadvisors.com,,,,YES,,,YES,531210,0,0,0,0,0,0,0,0,0,0,0,0,0,0,0,0,0,0,0,0,0,0,0,0,0,0,0,0,0,0,0,0,0,0,0,0,0,"3900 Ford Road
Philadelphia, PA 19131
(39.999798, -75.210237)"
TriosysIT Inc.,DE22054109,Mona Bhatt,4 Moonlight Court,,Newark,DE,3026748709,,http://www.triosysit.com,mona@triosysit.com,,,,YES,,,YES,541511,541519,541512,0,0,0,0,0,0,0,0,0,0,0,0,0,0,0,0,0,0,0,0,0,0,0,0,0,0,0,0,0,0,0,0,0,0,0,"4 Moonlight Court
Newark, DE 19702
(39.656562, -75.684126)"
"Trivial Pursuits, Inc",SBF21051482,Joanna Wells,PO Box 371,,Yorklyn,DE,3035237197,,http://www.jwellswine.com,joannakwells@gmail.com,,,,YES,,,YES,541690,0,0,0,0,0,0,0,0,0,0,0,0,0,0,0,0,0,0,0,0,0,0,0,0,0,0,0,0,0,0,0,0,0,0,0,0,0,
TruSolutions LLC,SBF21011444,Dominique Truitt,1327 Carrick Court,,Middletown,DE,3023308830,,,dtruitt@trusolutionsllc.org,,,,YES,,,YES,624190,561311,0,0,0,0,0,0,0,0,0,0,0,0,0,0,0,0,0,0,0,0,0,0,0,0,0,0,0,0,0,0,0,0,0,0,0,0,"1327 Carrick Court
Middletown, DE 19709
(39.477364, -75.626204)"
"Ultimate Fire Protection, LLC",SBF19041275,Fidel Ajava Maxwell,450 Copper Drive,,Wilmington,DE,3029948371,3029948373,https://ultimate-fire-protection-llc.business.site,ultimatefireprotection1@gmail.com,,,,YES,,,YES,541990,561790,238290,0,0,0,0,0,0,0,0,0,0,0,0,0,0,0,0,0,0,0,0,0,0,0,0,0,0,0,0,0,0,0,0,0,0,0,"450 Copper Drive
Wilmington, DE 19804
(39.711983, -75.598698)"
"Union Press Printing, Inc.",SBF20081409,Christine Grimes,1723 W. 8th Street,,Wilmington,DE,3026520496,3026522252,http://www.unionpress.com,chrissy@unionpress.com,,,YES,,,,YES,323111,0,0,0,0,0,0,0,0,0,0,0,0,0,0,0,0,0,0,0,0,0,0,0,0,0,0,0,0,0,0,0,0,0,0,0,0,0,"1723 W. 8th Street
Wilmington, DE 19805
(39.751088, -75.568073)"
United Source LLC DBA United Source,SBF20071386,Jin Zhang,1906 Brackenville Road,,Hockessin,DE,3025091178,,http://www.united-source.com,info@united-source.com,YES,,,YES,,,YES,423450,423990,339113,541611,541613,0,0,0,0,0,0,0,0,0,0,0,0,0,0,0,0,0,0,0,0,0,0,0,0,0,0,0,0,0,0,0,0,0,"1906 Brackenville Road
Hockessin, DE 19707
(39.778978, -75.682767)"
"Unlimited Express, LLC",SBF21051484,Alisha Broughton,13 Lorraine Lane,,Ellendale,DE,3022363557,,http://www.unlimitedexpress.com,alishabroughton@hotmail.com,,,,YES,,,YES,611710,611430,611699,541613,541614,541870,541611,541120,0,0,0,0,0,0,0,0,0,0,0,0,0,0,0,0,0,0,0,0,0,0,0,0,0,0,0,0,0,0,"13 Lorraine Lane
Ellendale, DE 19941
(38.808407, -75.385762)"
"Utility Service Associates, LLC",DE21053805,Lee Moore,28148 Sloop Avenue,,Millsboro,DE,4432521160,,,utilityserviceassoc@gmail.com,,,,YES,,,YES,423610,0,0,0,0,0,0,0,0,0,0,0,0,0,0,0,0,0,0,0,0,0,0,0,0,0,0,0,0,0,0,0,0,0,0,0,0,0,"28148 Sloop Avenue
Millsboro, DE 19966
(38.614555, -75.144581)"
"Venus Fire Protection & Safety Services, Inc.",DE20073595,Frances Kukla,159 21st Street,,Brooklyn,NY,7182153892,7182153893,http://www.venusfireprotection.net,Fran@venusfireprotection.net,YES,YES,,YES,,,YES,423990,0,0,0,0,0,0,0,0,0,0,0,0,0,0,0,0,0,0,0,0,0,0,0,0,0,0,0,0,0,0,0,0,0,0,0,0,0,"159 21st Street
Brooklyn, NY 11232
(40.663047, -73.996247)"
Venus Supplies & Services,SBF21071501,Terry Girifalco,3770 Ridge Pike,,Collegeville,PA,6102872600,2152566480,http://www.venusuppliescompany.com,terryg@venussuppliescompany.com,YES,,,,,,YES,423850,423710,423740,423830,423840,424120,424130,424690,453998,561720,0,0,0,0,0,0,0,0,0,0,0,0,0,0,0,0,0,0,0,0,0,0,0,0,0,0,0,0,"3770 Ridge Pike
Collegeville, PA 19426
(40.175112, -75.435163)"
"VEOS360, LLC",SBF20041352,Susan Chu,,205 N. Star Rd.,Newark,DE,4105960978,,http://www.culturecrush.me,susan@veos360.com,,,,YES,,,YES,511210,541612,541618,541611,0,0,0,0,0,0,0,0,0,0,0,0,0,0,0,0,0,0,0,0,0,0,0,0,0,0,0,0,0,0,0,0,0,0,"Newark, DE 19711
(39.708658, -75.737018)"
"V.E. Public Relations, LLC",SBF19101321,Laura Van Eperen,dba Van Eperen,"11333 Woodglen Drive, Suite 103",Rockville,MD,3018361516,,http://www.vaneperen.com,laura@vaneperen.com,,,,YES,,,YES,541430,541613,541820,541810,541830,541840,561920,0,0,0,0,0,0,0,0,0,0,0,0,0,0,0,0,0,0,0,0,0,0,0,0,0,0,0,0,0,0,0,
Victory Cleaning LLC,SBF21051488,Sakarah Bey,18 Mifflin Meadows Drive,,Dover,DE,2673309422,,http://www.victorycleaningllc.godaddysites.com,sakarahlee@gmail.com,,,,YES,,,YES,561720,0,0,0,0,0,0,0,0,0,0,0,0,0,0,0,0,0,0,0,0,0,0,0,0,0,0,0,0,0,0,0,0,0,0,0,0,0,
"Voith & Mactavish Architects, LLP",SBF18071200,Daniela Voith,2401 Walnut Street,6th Floor,Philadelphia,PA,2155454544,,http://www.voithandmactavish.com,dhv@vma1.com,,,,,,YES,YES,541310,541410,0,0,0,0,0,0,0,0,0,0,0,0,0,0,0,0,0,0,0,0,0,0,0,0,0,0,0,0,0,0,0,0,0,0,0,0,"2401 Walnut Street
Philadelphia, PA 19103
(39.951354, -75.18039)"
Wallace Mobile Notary Services LLC,SBF21031462,Cynthia Wallace,2212 Thomas Road,,Wilmington,DE,3024943800,,,cynthialwallace@aol.com,,,,YES,,,YES,541199,0,0,0,0,0,0,0,0,0,0,0,0,0,0,0,0,0,0,0,0,0,0,0,0,0,0,0,0,0,0,0,0,0,0,0,0,0,"2212 Thomas Road
Wilmington, DE 19803
(39.792976, -75.542568)"
WCI Property Management,SBF21041467,Beverly Berry,518 Wyndham Road,,Wilmington,DE,9173342011,,,dollardent@yahoo.com,,,,YES,,,YES,531311,236118,238160,238110,0,0,0,0,0,0,0,0,0,0,0,0,0,0,0,0,0,0,0,0,0,0,0,0,0,0,0,0,0,0,0,0,0,0,"518 Wyndham Road
Wilmington, DE 19809
(39.772234, -75.510993)"
Wellfit LLC,SBF21041479,Susan Cicala,1009 Elizabeth Avenue,,Wilmington,DE,6106396869,,http://www.wellfitbrandywine.com,wellfitbrandywine@gmail.com,,,,YES,,,YES,713940,621340,0,0,0,0,0,0,0,0,0,0,0,0,0,0,0,0,0,0,0,0,0,0,0,0,0,0,0,0,0,0,0,0,0,0,0,0,"1009 Elizabeth Avenue
Wilmington, DE 19809
(39.764746, -75.49576)"
"W.H. Environmental, LLC",SBF18021177,Wanda Hancock,1506 A Street,,Wilmington,DE,3025181261,3026566077,,wanda.hancock@whenvironmentalllc.com,,,,YES,YES,,YES,238910,561730,113310,0,0,0,0,0,0,0,0,0,0,0,0,0,0,0,0,0,0,0,0,0,0,0,0,0,0,0,0,0,0,0,0,0,0,0,"1506 A Street
Wilmington, DE 19801
(39.728983, -75.539983)"
"Whitakers Business Entities, LLC Series # 1",SBF18091220,Brian Whitaker,"Trade name: Whitakers Notary Services, LLC",302 East 14th Street,New Castle,DE,3023288633,3023284468,,usaironeagle@comcast.net,,,,YES,,,YES,541199,0,0,0,0,0,0,0,0,0,0,0,0,0,0,0,0,0,0,0,0,0,0,0,0,0,0,0,0,0,0,0,0,0,0,0,0,0,
"Whitakers Business Entities, LLC Series # 2",SBF18091219,Brian Whitaker,"Trade name: Whitaker's Fitness Solutions, LLC",302 East 14th Street,New Castle,DE,3023288633,3023287446,,usaironeagle@comcast.net,,,,YES,,,YES,812990,713990,713940,0,0,0,0,0,0,0,0,0,0,0,0,0,0,0,0,0,0,0,0,0,0,0,0,0,0,0,0,0,0,0,0,0,0,0,
"Whitakers Business Entities, LLC Series # 3",SBF18091218,Brian Whitaker,"Trade name: Whitaker Peer Support Services, LLC",302 East 14th Street,New Castle,DE,3023288633,3023284468,,usaironeale@comcast.net,,,,YES,,,YES,624120,624190,0,0,0,0,0,0,0,0,0,0,0,0,0,0,0,0,0,0,0,0,0,0,0,0,0,0,0,0,0,0,0,0,0,0,0,0,
Williams Engineering Solutions,SBF20081412,Brian Williams,24 W. Chestnut Ridge Drive,,Magnolia,DE,3026704841,,,willengsol@gmail.com,YES,,YES,,,,YES,334515,334519,334513,334514,334512,332911,335311,541380,811219,334419,334290,423690,0,0,0,0,0,0,0,0,0,0,0,0,0,0,0,0,0,0,0,0,0,0,0,0,0,0,"24 W. Chestnut Ridge Drive
Magnolia, DE 19962
(39.060994, -75.526856)"
Workforce Solutions Today LLC,SBF20101428,Ruth Briggs King,3 Par Court,,Georgetown,DE,3028414249,,http://www.workforcesolutionstoday.com,ruth@worksolutionstoday.com,,,,YES,,,YES,541612,611430,0,0,0,0,0,0,0,0,0,0,0,0,0,0,0,0,0,0,0,0,0,0,0,0,0,0,0,0,0,0,0,0,0,0,0,0,"3 Par Court
Georgetown, DE 19947
(38.658994, -75.352644)"
