"retailer","name","street","city","state","zip","quick_draw","latitude","longitude","georeference"
"113269","CORNER MARKET","38235 STATE ROUTE 37","THERESA","NY","13691",,"44.222618","-75.822593","POINT (-75.822593 44.222618)"
"113264","3001 STAR GROCERY INC","3001 6TH AVE","TROY","NY","12180",,"42.747237","-73.682124","POINT (-73.682124 42.747237)"
"113245","CROSBY'S LEWISTON #40101","820 CENTER ST.","LEWISTON","NY","14092",,"43.172521","-79.034646","POINT (-79.034646 43.172521)"
"113240","NEEL FOOD MART INC","137-11 NORTHERN BLVD","FLUSHING","NY","11354",,"40.763687","-73.830863","POINT (-73.830863 40.763687)"
"113228","7-ELEVEN #29753J","550 PORTION RD","RONKONKOMA","NY","11779",,"40.830445","-73.090263","POINT (-73.090263 40.830445)"
"113226","BP PRODUCTS N AMERICA #48357","824 ALLERTON AVE","BRONX","NY","10467",,"40.865233","-73.861856","POINT (-73.861856 40.865233)"
"113220","REBEL","776 BEDFORD RD","BEDFORD HILLS","NY","10507",,"41.223302","-73.714643","POINT (-73.714643 41.223302)"
"113219","SMS UNLIMITED MARKET INC","471 E FERRY ST","BUFFALO","NY","14208","Y","42.914430","-78.846474","POINT (-78.846474 42.91443)"
"113217","RAMESHPATEL NEWSTEND","1657 BROADWAY","NEW YORK","NY","10019",,"40.684672","-73.913037","POINT (-73.913037 40.684672)"
"113213","7-ELEVEN #25627D","120 ROUTE 25A","MOUNT SINAI","NY","11766","Y","40.931785","-73.052818","POINT (-73.052818 40.931785)"
"113210","CORNER MARKET","38 US RTE 20","SENECA FALLS","NY","13148",,"42.922077","-76.788638","POINT (-76.788638 42.922077)"
"113208","STITTVILLE FOOD MART","9060 STATE ROUTE 365","STITTVILLE","NY","13469",,"43.232552","-75.287919","POINT (-75.287919 43.232552)"
"113204","QUICKLEE'S #029","2291 HUDSON AVE","ROCHESTER","NY","14617",,"43.210376","-77.600916","POINT (-77.600916 43.210376)"
"113203","SUNOCO APLUS","1694 NIAGARA FALLS BLVD","TONAWANDA","NY","14150",,"43.000995","-78.822880","POINT (-78.82288 43.000995)"
"113202","CLINTON MINI MART","1880 CLINTON ST","BUFFALO","NY","14206","Y","42.872117","-78.806955","POINT (-78.806955 42.872117)"
"113201","RUBI DISOUNT STORE CORP","2109 AVENUE U","BROOKLYN","NY","11229",,"40.599687","-73.950049","POINT (-73.950049 40.599687)"
"113198","LUCKY 7S GOURMET DELI & GROCER","276 ATLANTIC AVE","EAST ROCKAWAY","NY","11518",,"40.649301","-73.666067","POINT (-73.666067 40.649301)"
"113192","J&M WINE & LIQUOR","293 E 170TH ST","BRONX","NY","10456",,"40.837716","-73.910722","POINT (-73.910722 40.837716)"
"113190","BAGEL BOX","5840 AMBOY RD","STATEN ISLAND","NY","10309",,"40.525790","-74.201967","POINT (-74.201967 40.52579)"
"113188","SIBLINGS 99 CENTS INC","74 AVENUE O","BROOKLYN","NY","11204",,"40.610150","-73.982351","POINT (-73.982351 40.61015)"
"113187","TREMONT 9 STAR GOURMET CORP","303 E TREMONT AVE","BRONX","NY","10457",,"40.848777","-73.903023","POINT (-73.903023 40.848777)"
"113184","SCHUYLER FALLS MINIMART LLC","954 RT 22B","SCHUYLER FALLS","NY","12985",,"44.629897","-73.558660","POINT (-73.55866 44.629897)"
"113181","MIA MIA ENTERPRISE CORP","1308 JEROME AVE","BRONX","NY","10452",,"40.838208","-73.918910","POINT (-73.91891 40.838208)"
"113180","MANDA'S DELI CORP","88 BROADWAY","FREEPORT","NY","11520",,"40.659242","-73.580535","POINT (-73.580535 40.659242)"
"113179","DOLLAR CITY","60-80 MYRTLE AVE","RIDGEWOOD","NY","11385","Y","40.700492","-73.895359","POINT (-73.895359 40.700492)"
"113178","EMFA 2 INCORPORATED","149-53 14 AVE","WHITESTONE","NY","11357",,"40.788867","-73.814380","POINT (-73.81438 40.788867)"
"113175","C&D LIQUOR STORE","9214 JAMAICA AVE","WOODHAVEN","NY","11421",,"40.693264","-73.852642","POINT (-73.852642 40.693264)"
"113174","BYRNE DAIRY #140","2180 EAST RIDGE RD","ROCHESTER","NY","14622","Y","43.204590","-77.559415","POINT (-77.559415 43.20459)"
"113172","BYRNE DAIRY #142","798 WEST BROADWAY","FULTON","NY","13069","Y","43.317404","-76.433306","POINT (-76.433306 43.317404)"
"113171","JS SMOKE SHOP INCORPORATED","216 DRIGGS AVE","BROOKLYN","NY","11222",,"40.722939","-73.946839","POINT (-73.946839 40.722939)"
"113169","DUNTON CORNER DELI","703 S COUNTRY RD","PATCHOGUE","NY","11772",,"40.756923","-72.963010","POINT (-72.96301 40.756923)"
"113167","7-ELEVEN #11205B","864 LONG ISLAND AVE","DEER PARK","NY","11729",,"40.763739","-73.320910","POINT (-73.32091 40.763739)"
"113166","BAD APPLE GARAGE LLC","1120 WASHINGTON ST","WATERTOWN","NY","13601","Y","43.961247","-75.913799","POINT (-75.913799 43.961247)"
"113165","SMOKES 4 LESS","59 NORTH PLANK RD","NEWBURGH","NY","12550","Y","41.523394","-74.031781","POINT (-74.031781 41.523394)"
"113160","STRAWBERRY FIELD MARKET","4504 5TH AVE","BROOKLYN","NY","11220","Y","40.647910","-74.007805","POINT (-74.007805 40.64791)"
"113158","OLDE LOG LAKE GEORGE","2814 ROUTE 9","LAKE GEORGE","NY","12845","Y","43.404905","-73.709296","POINT (-73.709296 43.404905)"
"113157","ROSA PHARMACY 2","2182 AMSTERDAM AVE","NEW YORK","NY","10032",,"40.840085","-73.937034","POINT (-73.937034 40.840085)"
"113155","HALAL MEAT & VEGETABLES INC","1667 NOSTRAND AVE","BROOKLYN","NY","11226",,"40.645458","-73.948716","POINT (-73.948716 40.645458)"
"113154","ALEX DELI FOOD CORP","1872 BERGEN ST","BROOKLYN","NY","11233",,"40.674193","-73.919324","POINT (-73.919324 40.674193)"
"113151","814 M & M DELI INC","814 W 187TH ST STORE 4","NEW YORK","NY","10033",,"40.855247","-73.937624","POINT (-73.937624 40.855247)"
"113150","BIG SHOTZ GOLF LLC","22 DEPOT ST","POTSDAM","NY","13676","Y","44.670121","-74.990202","POINT (-74.990202 44.670121)"
"113149","CHEAP CHARLIE'S RESTAURANT LLC","8 ELM ST","BLOOMFIELD","NY","14469","Y","42.903838","-77.419918","POINT (-77.419918 42.903838)"
"113148","STONE PUB INC","3115 E HENRIETTA RD","HENRIETTA","NY","14467","Y","43.058904","-77.613100","POINT (-77.6131 43.058904)"
"113147","ESTHER PHARMACY","71 S BROADWAY","YONKERS","NY","10701",,"40.931303","-73.898853","POINT (-73.898853 40.931303)"
"113146","MICKEYS CORNER","2 EMPIRE STATE PLAZA","ALBANY","NY","12223",,"42.651124","-73.758935","POINT (-73.758935 42.651124)"
"113145","CORNER MARKET","6766 ERIE RD","DERBY","NY","14047","Y","42.704080","-78.974826","POINT (-78.974826 42.70408)"
"113144","ROC 7","1325 DEWEY AVE","ROCHESTER","NY","14613","Y","43.190569","-77.639291","POINT (-77.639291 43.190569)"
"113143","SOUTH CITY TAVERN LLC","1345 S PARK AVE","BUFFALO","NY","14220","Y","42.858636","-78.840717","POINT (-78.840717 42.858636)"
"113142","SOCO PETRO LLC AMG#2","3500 CONNER ST","BRONX","NY","10475",,"40.884786","-73.826583","POINT (-73.826583 40.884786)"
"113141","9W CONVENIENCE MART INC","1364 RTE 9W","MARLBORO","NY","12542",,"41.607153","-73.970073","POINT (-73.970073 41.607153)"
"113140","KHAN FUELS INC","2044 CENTRAL AVE","ALBANY","NY","12205","Y","42.749050","-73.869328","POINT (-73.869328 42.74905)"
"113134","CROSBY'S #40099","16672 RT 31","HOLLEY","NY","14470","Y","43.225902","-78.040351","POINT (-78.040351 43.225902)"
"113133","G.D.I. COUNTRYSIDE INN","2049 SANDRIDGE RD","ALDEN","NY","14004","Y","42.912180","-78.523185","POINT (-78.523185 42.91218)"
"113132","DELAVAN FOOD MART","817 E DELAVAN AVE","BUFFALO","NY","14215",,"42.922062","-78.826733","POINT (-78.826733 42.922062)"
"113130","7-ELEVEN #38383A","751 N COUNTRY RD","ROCKY POINT","NY","11778",,"40.945190","-72.956970","POINT (-72.95697 40.94519)"
"113129","7-ELEVEN #26072E","365 ROUTE 25A","MILLER PLACE","NY","11764","Y","40.941541","-72.989123","POINT (-72.989123 40.941541)"
"113128","66 WEST SUNRISE FUEL CORP","66 W SUNRISE HWY","VALLEY STREAM","NY","11581",,"40.659953","-73.703489","POINT (-73.703489 40.659953)"
"113127","7-ELEVEN #34248B","1440 FOREST AVE","STATEN ISLAND","NY","10302","Y","40.624507","-74.136465","POINT (-74.136465 40.624507)"
"113124","MY DUDE STORES CORP","125 FRONT ST STE 2A","MASSAPEQUA PARK","NY","11762",,"40.678249","-73.455002","POINT (-73.455002 40.678249)"
"113123","LOS PAISAS DELI GROCERY CORP","45-14 NATIONAL ST","CORONA","NY","11368",,"40.745574","-73.864464","POINT (-73.864464 40.745574)"
"113122","SUPERIOR WINE & LIQUOR CORP","18721 HILLSIDE AVE","JAMAICA","NY","11432",,"40.715052","-73.774997","POINT (-73.774997 40.715052)"
"113121","MCP RX","89 BOWERY","NEW YORK","NY","10002",,"40.716944","-73.995195","POINT (-73.995195 40.716944)"
"113120","PEOPLES PHARMACY","65 MOTT ST","NEW YORK","NY","10013",,"40.716182","-73.998451","POINT (-73.998451 40.716182)"
"113119","JANA FOOD CORP","159 LAFAYETTE AVE","STATEN ISLAND","NY","10301",,"40.640969","-74.094591","POINT (-74.094591 40.640969)"
"113118","SELDEN DRIVE-THROUGH CONVENIEN","729 MIDDLE COUNTRY RD","SELDEN","NY","11784",,"40.866566","-73.038116","POINT (-73.038116 40.866566)"
"113114","ROGER'S LIQUOR WINE & SPIRITS","107 NORTH ST","ENDICOTT","NY","13760",,"42.098114","-76.065363","POINT (-76.065363 42.098114)"
"113113","BADRAN CONVENIENCE STORE CORP","2831 JERUSALEM AVE","BELLMORE","NY","11710",,"40.692568","-73.527478","POINT (-73.527478 40.692568)"
"113111","RK SMOKE & VAPE INC","2363 MIDDLE COUNTRY RD","CENTEREACH","NY","11720",,"40.858401","-73.095234","POINT (-73.095234 40.858401)"
"113110","C-TOWN SUPERMARKET","1016 SAINT NICHOLAS AVE","NEW YORK","NY","10032",,"40.835147","-73.939765","POINT (-73.939765 40.835147)"
"113109","SOL'S PHARMACY","1515 SOUTHERN BLVD","BRONX","NY","10460",,"40.833217","-73.890624","POINT (-73.890624 40.833217)"
"113108","UNITED FUEL & FOOD MART INC","378 DUANESBURG RD","SCHENECTADY","NY","12306",,"42.790157","-73.981582","POINT (-73.981582 42.790157)"
"113107","ONE MART NOSTRAND AVE CORP","3600 NOSTRAND AVE","BROOKLYN","NY","11229",,"40.596132","-73.941366","POINT (-73.941366 40.596132)"
"113106","7-ELEVEN #22653K","436 MONROE AVE","ROCHESTER","NY","14607","Y","43.147357","-77.595110","POINT (-77.59511 43.147357)"
"113104","BYRNE DAIRY #136","491 ELECTRONICS PARKWAY","LIVERPOOL","NY","13088","Y","43.104490","-76.186181","POINT (-76.186181 43.10449)"
"113101","PORT HENRY MOBIL","4270 MAIN ST","PORT HENRY","NY","12974","Y","44.044982","-73.459471","POINT (-73.459471 44.044982)"
"113099","AYISHA PETROLEUM INC","91-97 N MAIN ST","MECHANICVILLE","NY","12118",,"42.905596","-73.684581","POINT (-73.684581 42.905596)"
"113098","7-ELEVEN #34707B","247 3RD AVE","NEW YORK","NY","10010",,"40.737037","-73.984263","POINT (-73.984263 40.737037)"
"113096","GATES BIG M","1520 SPENCERPORT RD","ROCHESTER","NY","14606","Y","43.175392","-77.731346","POINT (-77.731346 43.175392)"
"113094","212 TARRYTOWN FOOD MART CORP","212 TARRYTOWN RD","WHITE PLAINS","NY","10607",,"41.041616","-73.790486","POINT (-73.790486 41.041616)"
"113093","MARIO'S","503 STATE ROUTE 32","HIGHLAND MILLS","NY","10930","Y","41.346688","-74.126645","POINT (-74.126645 41.346688)"
"113091","THE CRITCHEN","3373 CLINTON ST","BUFFALO","NY","14224","Y","42.856156","-78.758755","POINT (-78.758755 42.856156)"
"113090","ALLERTON GROCERY & CONVENIENCE","685 ALLERTON AVE","BRONX","NY","10467",,"40.865571","-73.867839","POINT (-73.867839 40.865571)"
"113088","PASS THROUGH FOOD MART","360 WILLIAM ST","BUFFALO","NY","14204",,"42.885319","-78.858068","POINT (-78.858068 42.885319)"
"113087","PINCEZACHRY DELI GROCERY CORP","1898 LONGFELLOW AVE","BRONX","NY","10460",,"40.838767","-73.882323","POINT (-73.882323 40.838767)"
"113086","REBEL","6125 MAIN ST","BUFFALO","NY","14221","Y","42.965487","-78.725156","POINT (-78.725156 42.965487)"
"113085","ROYAL EMERALD INC","2665 ROUTE 112","MEDFORD","NY","11763",,"40.820823","-72.997857","POINT (-72.997857 40.820823)"
"113084","SHREE GANESH 179 INC","172A GARDINERS AVE","LEVITTOWN","NY","11756",,"40.721539","-73.516228","POINT (-73.516228 40.721539)"
"113083","TURNPIKE EXPRESS INC","202 ROCKAWAY TPKE UNIT A","CEDARHURST","NY","11516",,"40.618497","-73.731401","POINT (-73.731401 40.618497)"
"113082","7-ELEVEN #41326H","9 FORT SALONGA RD","NORTHPORT","NY","11768","Y","40.912870","-73.300173","POINT (-73.300173 40.91287)"
"113081","MARCOS GROCERY & DELI INC.","900 RIVERSIDE DR STORE #3","NEW YORK","NY","10032",,"40.838125","-73.946054","POINT (-73.946054 40.838125)"
"113079","Y.PATEL INC","1181 BEDFORD AVE","BROOKLYN","NY","11216",,"40.683085","-73.953579","POINT (-73.953579 40.683085)"
"113078","KRM GROCERY INC","7503 37TH AVE","JACKSON HEIGHTS","NY","11372",,"40.749205","-73.890657","POINT (-73.890657 40.749205)"
"113076","SHREE HARI 9026 LLC","9026 43RD AVE","ELMHURST","NY","11373",,"40.743026","-73.874683","POINT (-73.874683 40.743026)"
"113075","RAINBOW DELI GROCERY CORP","38-15 GREENPOINT AVE","LONG ISLAND CITY","NY","11101",,"40.738592","-73.927852","POINT (-73.927852 40.738592)"
"113074","JAIDEN GROCERY INC","276 ALBANY AVE","BROOKLYN","NY","11213",,"40.671218","-73.939448","POINT (-73.939448 40.671218)"
"113073","AMOL NEWS STAND","101 W 14TH ST","NEW YORK","NY","10011",,"40.737597","-73.996886","POINT (-73.996886 40.737597)"
"113071","KELLYS ALE HOUSE","4777 SUNRISE HIGHWAY","BOHEMIA","NY","11716","Y","40.757157","-73.109229","POINT (-73.109229 40.757157)"
"113070","SAMA GOURMET MARKET CORP","27 ESSEX ST","NEW YORK","NY","10002",,"40.715829","-73.989845","POINT (-73.989845 40.715829)"
"113069","SLD WINES & SPIRITS INC","1101 MAIN ST STORE 4","PEEKSKILL","NY","10566",,"41.291625","-73.916962","POINT (-73.916962 41.291625)"
"113068","ZAK DELI GROCERY & GRILL INC","9717 KINGS HWY","BROOKLYN","NY","11212",,"40.661686","-73.920072","POINT (-73.920072 40.661686)"
"113067","FOOD MART","7555 ROUTE 32","CAIRO","NY","12413","Y","42.309035","-74.005097","POINT (-74.005097 42.309035)"
"113066","YOUR HOMETOWN DELI INC","1755 RT 209","WESTBROOKVILLE","NY","12785",,"41.498637","-74.562964","POINT (-74.562964 41.498637)"
"113065","SB PHARMACY","27-29 E 124TH ST","NEW YORK","NY","10035",,"40.805377","-73.941734","POINT (-73.941734 40.805377)"
"113064","UVERAL MEAT MARKET & GROCERY C","2558 GRAND CONCOURSE","BRONX","NY","10458",,"40.863738","-73.895626","POINT (-73.895626 40.863738)"
"113063","J & R 1 WINES & LIQUORS CORP","2300 CROTONA AVE #4","BRONX","NY","10458",,"40.851944","-73.884449","POINT (-73.884449 40.851944)"
"113061","MITCHI BOMBS PUB","13228 US ROUTE 11","ADAMS CENTER","NY","13606","Y","43.859641","-76.005758","POINT (-76.005758 43.859641)"
"113060","MAHAKALI 396 CORP","3096 12TH ST","ASTORIA","NY","11102",,"40.769064","-73.933469","POINT (-73.933469 40.769064)"
"113059","J & C DELI FOOD NY CORP","1293 BUSHWICK AVE","BROOKLYN","NY","11207",,"40.686822","-73.912794","POINT (-73.912794 40.686822)"
"113058","NICKS SMOKESHOP","586 ROUTE 25A","ROCKY POINT","NY","11778",,"40.946809","-72.926869","POINT (-72.926869 40.946809)"
"113056","KAT'S NEW YORK DELI CORP","416 LEWIS AVE","BROOKLYN","NY","11233",,"40.681157","-73.934919","POINT (-73.934919 40.681157)"
"113055","LI CITY GAS & CONVENIENCE INC","3745 21ST ST","LONG ISLAND CITY","NY","11101",,"40.757515","-73.938553","POINT (-73.938553 40.757515)"
"113054","RED'S CHITTENANGO MARKET","1305 NYS ROUTE 5","CHITTENANGO","NY","13037",,"43.050266","-75.907926","POINT (-75.907926 43.050266)"
"113053","SMOKES 4 LESS","59 NORTH PLANK RD.","NEWBURGH","NY","12550","Y","41.523394","-74.031781","POINT (-74.031781 41.523394)"
"113052","MUKTI 2054 PETROLEUM INC","1511 MIDDLE COUNTRY RD","RIDGE","NY","11961",,"40.894636","-72.888781","POINT (-72.888781 40.894636)"
"113051","MARTY'S PARTY","265 PINE HOLLOW RD","OYSTER BAY","NY","11771",,"40.858520","-73.534889","POINT (-73.534889 40.85852)"
"113048","KV NEWS","750 AVENUE OF THE AMERICAS","NEW YORK","NY","10010",,"40.743638","-73.991904","POINT (-73.991904 40.743638)"
"113047","PARKWAY EXPRESS IGA","150 LINCOLN AVE","WADDINGTON","NY","13694","Y","44.863984","-75.198750","POINT (-75.19875 44.863984)"
"113046","BYRNE DAIRY #139","2155 LONG POND RD","ROCHESTER","NY","14606","Y","43.170269","-77.701835","POINT (-77.701835 43.170269)"
"113044","GEORGETOWN WINES & LIQUORS","2131 RALPH AVE","BROOKLYN","NY","11234",,"40.624924","-73.917340","POINT (-73.91734 40.624924)"
"113043","E LAVIN INC","227 OAKDALE RD","JOHNSON CITY","NY","13790","Y","42.125989","-75.978007","POINT (-75.978007 42.125989)"
"113042","125 CONVENIENT INC","12432 ROCKAWAY BLVD","SOUTH OZONE PARK","NY","11420",,"40.675102","-73.812818","POINT (-73.812818 40.675102)"
"113041","FIRE GRILL & DELI INC","720 COURTLANDT AVE","BRONX","NY","10451",,"40.820770","-73.917486","POINT (-73.917486 40.82077)"
"113040","PLAYERS CAFE","241 BLEECKER ST","NEW YORK","NY","10014",,"40.730822","-74.002479","POINT (-74.002479 40.730822)"
"113039","REJA PETROLEUM INC","21 E BROADWAY","MONTICELLO","NY","12701",,"41.646563","-74.655870","POINT (-74.65587 41.646563)"
"113038","MR KHAN GAS & CONVENIENCE INC","245 LINDEN BLVD","ELMONT","NY","11003",,"40.688237","-73.719232","POINT (-73.719232 40.688237)"
"113037","7-ELEVEN #38623A","1580 BROADHOLLOW RD","FARMINGDALE","NY","11735","Y","40.738792","-73.423712","POINT (-73.423712 40.738792)"
"113036","CHESTNUT MARTS INC","280 SAW MILL RIVER RD","ELMSFORD","NY","10523",,"41.064374","-73.813734","POINT (-73.813734 41.064374)"
"113035","BIG M SENECA KNOLLS MARKET","7252 STATE FAIR BLVD","SYRACUSE","NY","13209","Y","43.121469","-76.286521","POINT (-76.286521 43.121469)"
"113033","LOS TUCAYOS DELI & GRILL INC","90 NASSAU RD","ROOSEVELT","NY","11575",,"40.674408","-73.587947","POINT (-73.587947 40.674408)"
"113032","48 EXPRESS MART","8204 PARK RD","BATAVIA","NY","14020","Y","43.017151","-78.194189","POINT (-78.194189 43.017151)"
"113031","ULTRA FUEL","45 W SUNRISE HWY","LINDENHURST","NY","11757",,"40.697386","-73.385374","POINT (-73.385374 40.697386)"
"113030","MAPLE MART & DELI INC","507 MAPLE ST","ROCHESTER","NY","14611",,"43.155045","-77.638667","POINT (-77.638667 43.155045)"
"113029","QUEEN SHEBA MART INC","1302 PIERCE AVE","NIAGARA FALLS","NY","14301",,"43.101876","-79.046615","POINT (-79.046615 43.101876)"
"113028","QUICKLEE'S #27","204 OAK ST.","BATAVIA","NY","14020","Y","43.015091","-78.191604","POINT (-78.191604 43.015091)"
"113027","EL DORADO CONVINIENCE STORE IN","220 WESTCHESTER AVE","PORT CHESTER","NY","10573",,"41.002472","-73.667655","POINT (-73.667655 41.002472)"
"113026","RAY STEPHENS GAS INC II","1610 UTICA AVE","BROOKLYN","NY","11234",,"40.632937","-73.928591","POINT (-73.928591 40.632937)"
"113025","T.H. FRUIT & VEGETABLE MARKET","938B 4TH AVE","BROOKLYN","NY","11232",,"40.654876","-74.004225","POINT (-74.004225 40.654876)"
"113024","8 ON EIGHTH","4008 8TH AVE FL 1","BROOKLYN","NY","11232","Y","40.646661","-73.998349","POINT (-73.998349 40.646661)"
"113023","LIAN JIANG GROCERY INC","5405 6TH AVE FL1","BROOKLYN","NY","11220",,"40.641230","-74.010403","POINT (-74.010403 40.64123)"
"113021","N & R DELI GROCERY CORP","2258 MORRIS AVE","BRONX","NY","10453",,"40.857345","-73.902224","POINT (-73.902224 40.857345)"
"113020","AMATO PHARMACY INC","619 E 187TH ST","BRONX","NY","10458",,"40.855371","-73.886907","POINT (-73.886907 40.855371)"
"113019","FULTON AVE DELI LLC","1725 FULTON AVE","BRONX","NY","10457",,"40.842279","-73.897650","POINT (-73.89765 40.842279)"
"113018","READY PENNY INC","3707 73RD ST","JACKSON HEIGHTS","NY","11372","Y","40.748581","-73.892419","POINT (-73.892419 40.748581)"
"113017","BRAVO SUPERMARKET","309 E BURNSIDE AVE","BRONX","NY","10457","Y","40.850599","-73.900912","POINT (-73.900912 40.850599)"
"113016","HOUSE OF WINE","479 MAIN ST","NEW ROCHELLE","NY","10801","Y","40.909548","-73.781046","POINT (-73.781046 40.909548)"
"113015","BEST DISCOUNT DEPOT INC","86 TOWNERS RD","CARMEL","NY","10512",,"41.447778","-73.665597","POINT (-73.665597 41.447778)"
"113013","QUISQUEYA PHARMACY","174 AUDUBON AVE","NEW YORK","NY","10033",,"40.844062","-73.935838","POINT (-73.935838 40.844062)"
"113011","WILLOW RIDGE CONVENIENT AND DE","15 WILLOW RIDGE DR # 37","BUFFALO","NY","14228","Y","43.012067","-78.821420","POINT (-78.82142 43.012067)"
"113010","MCCALL MINI MART","90 MCCALL RD","ROCHESTER","NY","14615",,"43.211348","-77.641046","POINT (-77.641046 43.211348)"
"113009","EVERYDAY MINI MARKET","69-53 GRAND AVE","MASPETH","NY","11378","Y","40.727091","-73.893911","POINT (-73.893911 40.727091)"
"113008","CAMILA DELI MARKET LLC","950 ANDERSON AVE","BRONX","NY","10452",,"40.830891","-73.928043","POINT (-73.928043 40.830891)"
"113006","NOR ROCKAWAY SERVICE CENTER IN","14920 ROCKAWAY BLVD","JAMAICA","NY","11436",,"40.672853","-73.788642","POINT (-73.788642 40.672853)"
"113004","GUZZELS STORE INC","354 RTE 59 STORE #8","NANUET","NY","10954","Y","41.102203","-74.026476","POINT (-74.026476 41.102203)"
"113001","DELICIAS EXPRESS INC","45 MAIN ST STE B","PORT WASHINGTON","NY","11050",,"40.831010","-73.686560","POINT (-73.68656 40.83101)"
"113000","GALLO'S BAR & GRILL INC","52 RAILROAD AVE","HAMLIN","NY","14464","Y","43.303391","-77.916449","POINT (-77.916449 43.303391)"
"112998","CASTEL EXPRESS GOURMET DELI IN","2170 WESTCHESTER AVE","BRONX","NY","10462",,"40.834012","-73.851936","POINT (-73.851936 40.834012)"
"112996","CENTRAL AID PHARMACY INC","546 CENTRAL AVE","CEDARHURST","NY","11516",,"40.622660","-73.722741","POINT (-73.722741 40.62266)"
"112995","SUPER 7 CONVENIENCE MART INC","148 UNION AVE","LYNBROOK","NY","11563",,"40.649635","-73.675530","POINT (-73.67553 40.649635)"
"112994","AAA MASTIC GAS INC","1081 MASTIC RD","MASTIC","NY","11950",,"40.802432","-72.840387","POINT (-72.840387 40.802432)"
"112992","HAYRI PETROLEUM INC","382 PORTION RD","RONKONKOMA","NY","11779",,"40.828476","-73.097513","POINT (-73.097513 40.828476)"
"112991","HY PETRO INC RT","1501 JERICHO TURNPIKE","NEW HYDE PARK","NY","11040",,"40.733989","-73.679827","POINT (-73.679827 40.733989)"
"112990","VALLARTA CONVENIENCE INC","41 CEDAR SWAMP RD","GLEN COVE","NY","11542",,"40.855633","-73.619263","POINT (-73.619263 40.855633)"
"112988","7-ELEVEN #32955H","429A N COUNTRY RD","SAINT JAMES","NY","11780",,"40.878132","-73.170002","POINT (-73.170002 40.878132)"
"112985","N & J PHARMACY","7306 AUSTIN ST","FOREST HILLS","NY","11375",,"40.718152","-73.840384","POINT (-73.840384 40.718152)"
"112983","111 FARMERS DELI GROCERY INC","11104 FARMERS BLVD","SAINT ALBANS","NY","11412",,"40.701655","-73.765744","POINT (-73.765744 40.701655)"
"112982","HERMANOS DELI AND GROCERY CORP","3142 FULTON ST","BROOKLYN","NY","11208",,"40.681573","-73.878871","POINT (-73.878871 40.681573)"
"112980","OSPREY PUBLIC HOUSE","8353 COUNTY ROUTE 9","CLAYTON","NY","13624","Y","44.193546","-76.202942","POINT (-76.202942 44.193546)"
"112978","MADISON DELI & GRILL NY CORP","383 NOSTRAND AVE","BROOKLYN","NY","11216",,"40.684646","-73.950157","POINT (-73.950157 40.684646)"
"112977","CHEMI DELI GROCERY CORP","404 MARCUS GARVEY BLVD","BROOKLYN","NY","11216",,"40.683006","-73.938324","POINT (-73.938324 40.683006)"
"112975","TACO BOB'S WAYSIDE INN","1376/1378 NYS ROUTE 3","ELLISBURG","NY","13636","Y","43.687933","-76.175647","POINT (-76.175647 43.687933)"
"112974","ROUNDIN THIRD SPORTS GRILL LLC","253-257 W.WATER ST","ELMIRA","NY","14901","Y","42.087112","-76.808811","POINT (-76.808811 42.087112)"
"112973","BYRNE DAIRY #141","301 E. MAIN ST.","ENDICOTT","NY","13760","Y","42.094403","-76.062019","POINT (-76.062019 42.094403)"
"112971","DELTA SONIC CARWASH #950","3100 NIAGARA FALLS BLVD","BUFFALO","NY","14228","Y","43.038535","-78.824670","POINT (-78.82467 43.038535)"
"112970","LUCAS MART INC","352 LUCAS AVE","KINGSTON","NY","12401",,"41.934450","-74.016177","POINT (-74.016177 41.93445)"
"112969","KHUSDIL INC","310 RIGOR HILL RD","CHATHAM","NY","12037",,"42.291072","-73.582094","POINT (-73.582094 42.291072)"
"112968","NISHA RAJ & SONS INC","502 ROSA RD","SCHENECTADY","NY","12309",,"42.824742","-73.910895","POINT (-73.910895 42.824742)"
"112967","BOLLA 640 OLD COUNTRY RD","640 OLD COUNTRY RD","GARDEN CITY","NY","11530",,"40.742976","-73.614054","POINT (-73.614054 40.742976)"
"112964","SABANETA 046 GROCERY CORP","1068 NOSTRAND AVE","BROOKLYN","NY","11225",,"40.661951","-73.951063","POINT (-73.951063 40.661951)"
"112962","PARADISE DELI OF NY","18-05 215ST S2 LEVEL","BAYSIDE","NY","11360",,"40.783980","-73.775884","POINT (-73.775884 40.78398)"
"112961","978 SUTTER GROCERY INC","978 SUTTER AVE","BROOKLYN","NY","11208",,"40.671065","-73.882511","POINT (-73.882511 40.671065)"
"112960","BUDDHA GROCERY CORP","39-43 48TH AVE","SUNNYSIDE","NY","11104",,"40.739686","-73.922708","POINT (-73.922708 40.739686)"
"112958","ALLIED PACK N SHIP STORE","922 E TREMONT AVE","BRONX","NY","10460",,"40.841630","-73.883755","POINT (-73.883755 40.84163)"
"112957","VEGA CONVENIENT STORE INC","232 W PARK AVE","LONG BEACH","NY","11561",,"40.588090","-73.671176","POINT (-73.671176 40.58809)"
"112956","NILKANTH DELI & GROCERY INC","7551 67TH DR","MIDDLE VILLAGE","NY","11379",,"40.711872","-73.875560","POINT (-73.87556 40.711872)"
"112955","FLAG BEVERAGE","75 W HOFFMAN AVE","LINDENHURST","NY","11757",,"40.685942","-73.375610","POINT (-73.37561 40.685942)"
"112954","CHESTNUT MARTS","1156 NY ROUTE 35","SOUTH SALEM","NY","10590",,"41.275090","-73.575927","POINT (-73.575927 41.27509)"
"112952","271 PORTION SERVICE CENTER INC","271 PORTION RD","RONKONKOMA","NY","11779",,"40.827784","-73.102071","POINT (-73.102071 40.827784)"
"112951","PAMELA GREEN DELI","785 E 163RD ST","BRONX","NY","10456",,"40.822805","-73.902789","POINT (-73.902789 40.822805)"
"112949","7-ELEVEN #36951B","179-55 HILLSIDE AVE","JAMAICA","NY","11432",,"40.712832","-73.783136","POINT (-73.783136 40.712832)"
"112948","APPLE GRANNY","433 CENTER ST","LEWISTON","NY","14092","Y","43.172677","-79.043329","POINT (-79.043329 43.172677)"
"112947","BROOKS SUPER STORE INC","973 GENESEE ST","ROCHESTER","NY","14611",,"43.130845","-77.636576","POINT (-77.636576 43.130845)"
"112946","RK GAS & CONVENIENCE INC","607 STATION RD","BELLPORT","NY","11713",,"40.777488","-72.943575","POINT (-72.943575 40.777488)"
"112945","JIM'S SMOKE SHOP","331 NY-25A","MOUNT SINAI","NY","11766",,"40.934497","-73.025197","POINT (-73.025197 40.934497)"
"112944","TJ NOONAN'S INC","7408 PITTSFORD PALMYRA RD","FAIRPORT","NY","14450","Y","43.064690","-77.410094","POINT (-77.410094 43.06469)"
"112942","GUILFORD DELI & GROCERY INC","1286 COUNTY ROAD 35","GUILFORD","NY","13780",,"42.404229","-75.489463","POINT (-75.489463 42.404229)"
"112941","EL BODEGON DELI CORP","341 WASHINGTON AVE","BRENTWOOD","NY","11717",,"40.798898","-73.247394","POINT (-73.247394 40.798898)"
"112939","DC & BK LIN WIRELESS INC","1026 49TH ST","BROOKLYN","NY","11219",,"40.638509","-73.998086","POINT (-73.998086 40.638509)"
"112938","SUPER MARIO MKT INC","2304 PINE AVE","NIAGARA FALLS","NY","14301","Y","43.095386","-79.034121","POINT (-79.034121 43.095386)"
"112936","BROOKLYN BAGELS N MORE","72 AVENUE U","BROOKLYN","NY","11223",,"40.595797","-73.981739","POINT (-73.981739 40.595797)"
"112935","IN N OUT CONVENIENCE STORES","309 N MAIN ST","SPRING VALLEY","NY","10977","Y","41.130437","-74.040906","POINT (-74.040906 41.130437)"
"112934","IMPERIAL DELI MART","111 CRESCENT PL","YONKERS","NY","10704",,"40.919399","-73.848985","POINT (-73.848985 40.919399)"
"112933","CITY LINE PHARMACY","4704 WHITE PLAINS RD","BRONX","NY","10470",,"40.903653","-73.849835","POINT (-73.849835 40.903653)"
"112932","WEST END BEVERAGE & GROCERY","1806 W WATER ST","ELMIRA","NY","14905",,"42.081454","-76.857583","POINT (-76.857583 42.081454)"
"112931","AZE PHARMACY","4519 7TH AVE","BROOKLYN","NY","11220",,"40.644627","-74.003159","POINT (-74.003159 40.644627)"
"112930","ADAN FOOD CENTER CORP","1626 PARK AVE","NEW YORK","NY","10029",,"40.798922","-73.943955","POINT (-73.943955 40.798922)"
"112929","LIBERTY BEER & CONVENIENCE","93-18 LIBERTY AVE","OZONE PARK","NY","11417",,"40.680043","-73.845070","POINT (-73.84507 40.680043)"
"112928","511 CHURCH DELI GRILL CORP","511 CHURCH AVE","BROOKLYN","NY","11218",,"40.644682","-73.975376","POINT (-73.975376 40.644682)"
"112927","NOR ATLANTIC SERVICE CENTER IN","1998 ATLANTIC AVE","BROOKLYN","NY","11233",,"40.676622","-73.921559","POINT (-73.921559 40.676622)"
"112926","SI CONVENIENCE STORE CORP","65 PAGE AVE STE 2","STATEN ISLAND","NY","10309",,"40.522773","-74.234529","POINT (-74.234529 40.522773)"
"112925","NOR ATLANTIC 2 SERVICE CENTER","1450 ATLANTIC AVE","BROOKLYN","NY","11216",,"40.677914","-73.943915","POINT (-73.943915 40.677914)"
"112924","KIM'S MARINE PARK DELI & GROCE","3509 AVENUE S","BROOKLYN","NY","11234",,"40.609618","-73.932000","POINT (-73.932 40.609618)"
"112920","BERGEN MINIMARKET CORP","1664 BERGEN ST","BROOKLYN","NY","11213",,"40.674676","-73.927519","POINT (-73.927519 40.674676)"
"112918","VENOM SMOKE SHOP INC","1002 MONTAUK HWY","COPIAGUE","NY","11726",,"40.669183","-73.391086","POINT (-73.391086 40.669183)"
"112917","B & P AUTO SERVICE 3 INC","1080 MAIN ST","HOLBROOK","NY","11741",,"40.810027","-73.078088","POINT (-73.078088 40.810027)"
"112916","KARMA SMOKE SHOP INC","217-219 WALT WHITMAN RD","HUNTINGTON STATION","NY","11746",,"40.822008","-73.412760","POINT (-73.41276 40.822008)"
"112915","CITY WINE CELLAR","2295 RICHMOND AVE","STATEN ISLAND","NY","10314",,"40.591173","-74.163886","POINT (-74.163886 40.591173)"
"112912","CHAMPS BEVERAGE","2248 HYLAN BLVD","STATEN ISLAND","NY","10306",,"40.575662","-74.104100","POINT (-74.1041 40.575662)"
"112911","AYRA CONVENIENCE INC","428 EDDY ST","ITHACA","NY","14850",,"42.442266","-76.487656","POINT (-76.487656 42.442266)"
"112910","QUICK ONE STOP","684 CONKLIN RD","BINGHAMTON","NY","13903",,"42.099321","-75.855478","POINT (-75.855478 42.099321)"
"112909","7-ELEVEN #33243B","2045 JERICHO TPKE","COMMACK","NY","11725",,"40.845098","-73.273342","POINT (-73.273342 40.845098)"
"112908","MANCE'S LANDING INC","9439 RIVERFOREST RD","WEEDSPORT","NY","13166","Y","43.073553","-76.567735","POINT (-76.567735 43.073553)"
"112907","CITY TAVERN","7635 STATE ROUTE 96","VICTOR","NY","14564","Y","43.021294","-77.440620","POINT (-77.44062 43.021294)"
"112906","PIG AND MOO BARBECUE LLC","14169 STATE HIGHWAY 37","MASSENA","NY","13662",,"44.909162","-75.029230","POINT (-75.02923 44.909162)"
"112905","FIFTH TEA CORP","372 MIDDLE COUNTRY RD","CORAM","NY","11727",,"40.869238","-72.999898","POINT (-72.999898 40.869238)"
"112904","JESSI'S DELI CORP","105-17 JAMAICA AVE","RICHMOND HILL","NY","11418",,"40.695507","-73.841370","POINT (-73.84137 40.695507)"
"112903","PINEBROOK PHARMACY","1183 JEROME AVE","BRONX","NY","10452",,"40.835788","-73.923166","POINT (-73.923166 40.835788)"
"112902","BEBOB'S BACKSTREET BBQ LLC","75 DIESKAU ST","LAKE GEORGE","NY","12845","Y","43.422206","-73.716338","POINT (-73.716338 43.422206)"
"112900","VICTOR'S HALLMARK SHOP INC","4 METROTECH CTR","BROOKLYN","NY","11201","Y","40.692863","-73.983842","POINT (-73.983842 40.692863)"
"112899","COCO FARMS OF SHRUB OAK INC","3700 BARGER ST","SHRUB OAK","NY","10588",,"41.331166","-73.820729","POINT (-73.820729 41.331166)"
"112898","1584 DELI FOOD CORP","1584 UNIVERSITY AVE","BRONX","NY","10452",,"40.846666","-73.920474","POINT (-73.920474 40.846666)"
"112897","CASA PHARMACY","456 WILLIS AVE","BRONX","NY","10455",,"40.813730","-73.919097","POINT (-73.919097 40.81373)"
"112896","BAJWA GROCERY LLC","10403 47TH AVE","CORONA","NY","11368",,"40.745880","-73.859442","POINT (-73.859442 40.74588)"
"112895","GRILLE IN THE VILLE","756 HORSEBLOCK RD","FARMINGVILLE","NY","11738","Y","40.831190","-73.031869","POINT (-73.031869 40.83119)"
"112894","WAYLAND EXPRESS 1 LLC","2341 STATE ROUTE 63","WAYLAND","NY","14572",,"42.564204","-77.602609","POINT (-77.602609 42.564204)"
"112893","CARDELLA WINES & LIQUORS","203 N HIGHLAND AVE STE 2","OSSINING","NY","10562",,"41.172500","-73.866346","POINT (-73.866346 41.1725)"
"112891","AKN ENTERPRISES INC","386 COMMACK RD","DEER PARK","NY","11729",,"40.760119","-73.313751","POINT (-73.313751 40.760119)"
"112890","7-ELEVEN #35047B","440 NEWBRIDGE RD","HICKSVILLE","NY","11801",,"40.747053","-73.534434","POINT (-73.534434 40.747053)"
"112889","FORTUNE LIQUORS CORP","106-16 NORTHERN BLVD","CORONA","NY","11368",,"40.757511","-73.862198","POINT (-73.862198 40.757511)"
"112888","LUCKY SPOT DELI & GROCERY INC","453A N MAIN ST","FREEPORT","NY","11520","Y","40.671782","-73.588417","POINT (-73.588417 40.671782)"
"112887","FAMILY FRUIT FARM","15 GREAT NECK RD","GREAT NECK","NY","11021",,"40.786573","-73.727454","POINT (-73.727454 40.786573)"
"112886","STAR GENIUS CORP","98-10 NORTHERN BLVD","CORONA","NY","11368",,"40.756908","-73.869933","POINT (-73.869933 40.756908)"
"112885","MINEOLA FOOD MARKET","269 WILLIS AVE","MINEOLA","NY","11501",,"40.748638","-73.641083","POINT (-73.641083 40.748638)"
"112883","RETAIL MANAGEMENT INC RMI3911","743 WALT WHITMAN RD","MELVILLE","NY","11747",,"40.803630","-73.411890","POINT (-73.41189 40.80363)"
"112882","RETAIL MANAGEMENT INC RMI 3910","3117 NESCONSET HWY","CENTEREACH","NY","11720",,"40.887984","-73.097945","POINT (-73.097945 40.887984)"
"112881","RETAIL MANAGEMENT INC RMI 3904","2298 JERICHO TURNPIKE","NEW HYDE PARK","NY","11040",,"40.740964","-73.662258","POINT (-73.662258 40.740964)"
"112880","AMG RETAIL 1 LLC AMG#129","99 E 149TH STREET","BRONX","NY","10451",,"40.819361","-73.929406","POINT (-73.929406 40.819361)"
"112878","CORNER MARKET","420 W COMMERCIAL ST","EAST ROCHESTER","NY","14445",,"43.115446","-77.495274","POINT (-77.495274 43.115446)"
"112877","YAZZY'S MARKET INC","1210 ALTAMONT AVE","SCHENECTADY","NY","12303",,"42.786752","-73.941525","POINT (-73.941525 42.786752)"
"112876","CROSBY'S #40098","10 WEST AVENUE","LYNDONVILLE","NY","14098","Y","43.326592","-78.389185","POINT (-78.389185 43.326592)"
"112875","SPEEDWAY #01695","351 SOUTHERN BLVD.","ALBANY","NY","12209",,"42.630054","-73.773836","POINT (-73.773836 42.630054)"
"112873","THE STATION GRILLE","2578 ROUTE 55","POUGHQUAG","NY","12570","Y","41.623343","-73.685889","POINT (-73.685889 41.623343)"
"112872","221 DISCOUNT STORE INC","92 94 OLD RIVERHEAD RD","WESTHAMPTON BEACH","NY","11978",,"40.827512","-72.646437","POINT (-72.646437 40.827512)"
"112871","LA NUEVA MAZAMITLA INC","209 UNION AVE","NEW ROCHELLE","NY","10801",,"40.909637","-73.794067","POINT (-73.794067 40.909637)"
"112869","GARDEN MARKET II CORP","162 NASSAU AVE","BROOKLYN","NY","11222",,"40.724955","-73.946618","POINT (-73.946618 40.724955)"
"112868","BRICK OVEN PIZZERIA & PUB","2457 GRAND ISLAND BLVD","GRAND ISLAND","NY","14072","Y","43.028787","-78.968793","POINT (-78.968793 43.028787)"
"112867","MAIN ST PETROLEUM CORP","115 E 138TH ST","BRONX","NY","10451","Y","40.813910","-73.930577","POINT (-73.930577 40.81391)"
"112866","5 CORNERS GRCOERY CORP","1701 UNIONPORT RD","BRONX","NY","10462",,"40.843454","-73.866647","POINT (-73.866647 40.843454)"
"112865","GAME DAY GRILLE INC","1927 COMMERCE ST","YORKTOWN HEIGHTS","NY","10598","Y","41.274409","-73.781095","POINT (-73.781095 41.274409)"
"112864","PARNASA39 INC","4000 HEMPSTEAD TURNPIKE","BETHPAGE","NY","11714",,"40.724940","-73.487864","POINT (-73.487864 40.72494)"
"112862","CARIBBEAN DELI GROCERY CORP","646 E 241ST ST","BRONX","NY","10470",,"40.904055","-73.852126","POINT (-73.852126 40.904055)"
"112861","SHREEJA 1 INC","165 PAINE ST","TROY","NY","12183",,"42.794922","-73.653157","POINT (-73.653157 42.794922)"
"112858","OLD COUNTRY DAIRY BARN INC","645 OLD COUNTRY RD","PLAINVIEW","NY","11803",,"40.772382","-73.489304","POINT (-73.489304 40.772382)"
"112857","N&N DELI AND GRILL INC","116-28 ROCKAWAY BLVD","SOUTH OZONE PARK","NY","11420",,"40.676220","-73.821482","POINT (-73.821482 40.67622)"
"112856","K & K MULTISERVICE","188 AUDUBON AVE #4","NEW YORK","NY","10033",,"40.844642","-73.935568","POINT (-73.935568 40.844642)"
"112855","DATLA III INC","47 GENESEE ST","GREENE","NY","13778",,"42.329619","-75.771149","POINT (-75.771149 42.329619)"
"112854","LAKE CITY BEVERAGE INC","306 CORNELIA ST","PLATTSBURGH","NY","12901",,"44.697838","-73.476365","POINT (-73.476365 44.697838)"
"112853","NAT GAS INC","500 WESTBURY AVE","CARLE PLACE","NY","11514",,"40.750608","-73.605958","POINT (-73.605958 40.750608)"
"112852","RED DELICIOUS DELI GROCERY","48-32 104TH ST","CORONA","NY","11368",,"40.744263","-73.858989","POINT (-73.858989 40.744263)"
"112851","PK PETROLEUM THREE","1550 UNION CENTER MAINE HGWY","ENDICOTT","NY","13760",,"42.128727","-76.064717","POINT (-76.064717 42.128727)"
"112850","GOOD NEIGHBOR GOURMET DELI","488 JEFFERSON AVE","BROOKLYN","NY","11221",,"40.684380","-73.938486","POINT (-73.938486 40.68438)"
"112849","SMOKIN EAGLE BBQ & BREW","5-13 MAIN ST","LE ROY","NY","14482","Y","42.977446","-77.989320","POINT (-77.98932 42.977446)"
"112848","SMOKE & SNACKS STOP INC","1435 BROADWAY","HEWLETT","NY","11557",,"40.642185","-73.696862","POINT (-73.696862 40.642185)"
"112847","AJ CAFE","2557 SOUTH AVE","WAPPINGERS FALLS","NY","12590","Y","41.592149","-73.920183","POINT (-73.920183 41.592149)"
"112846","651 BRONX RIVER INC","651 BRONX RIVER RD","YONKERS","NY","10704",,"40.922207","-73.847377","POINT (-73.847377 40.922207)"
"112845","ALI & SON CANDY & GROCERY CORP","738 E 182ND ST","BRONX","NY","10457",,"40.849550","-73.885592","POINT (-73.885592 40.84955)"
"112844","CIGAR SHOP","2685 MERRICK RD","BELLMORE","NY","11710",,"40.663754","-73.526645","POINT (-73.526645 40.663754)"
"112843","PAPA'S DELI & GRILL CORP","18243 JAMAICA AVE FL 1","HOLLIS","NY","11423",,"40.709155","-73.777648","POINT (-73.777648 40.709155)"
"112842","AMERICAN 1 GAS","86 SUNRISE HWY","LINDENHURST","NY","11757",,"40.701271","-73.379085","POINT (-73.379085 40.701271)"
"112841","4306 HAPPY GROCERY INC","4306 NATIONAL ST","CORONA","NY","11368",,"40.746525","-73.864087","POINT (-73.864087 40.746525)"
"112840","GRAMEEN PLAZA 55","54-24 ROOSEVELT AVE","WOODSIDE","NY","11377",,"40.744730","-73.909892","POINT (-73.909892 40.74473)"
"112838","SEATTLE CAFE","2 PENN PLZ","NEW YORK","NY","10121",,"40.749634","-73.992468","POINT (-73.992468 40.749634)"
"112836","COLUMBUS AVE PHARMACY","916 COLUMBUS AVE","NEW YORK","NY","10025",,"40.798486","-73.963682","POINT (-73.963682 40.798486)"
"112835","W&D LIQUOR INC","596 NEW YORK AVE","BROOKLYN","NY","11203",,"40.661810","-73.943094","POINT (-73.943094 40.66181)"
"112834","HAVEMEYER CONVENIENCE STORE IN","149 HAVEMEYER ST","BROOKLYN","NY","11211",,"40.711762","-73.957189","POINT (-73.957189 40.711762)"
"112833","HELP DESK","1141 LIBERTY AVE","BROOKLYN","NY","11208",,"40.678851","-73.867382","POINT (-73.867382 40.678851)"
"112832","QUICK SMOKE SHOP LLC","2440 HEMPSTEAD TPKE STORE 2","EAST MEADOW","NY","11554",,"40.724358","-73.545748","POINT (-73.545748 40.724358)"
"112830","RAVENS VIEW PHARMACY","3449 21 ST","ASTORIA","NY","11106",,"40.761376","-73.934978","POINT (-73.934978 40.761376)"
"112829","SMITH PHARMACY","102A BELMONT AVE","BROOKLYN","NY","11212",,"40.668801","-73.906346","POINT (-73.906346 40.668801)"
"112828","SHREY & SHRUTI INC","246 E 51ST ST FRNT 2","NEW YORK","NY","10022",,"40.755740","-73.969252","POINT (-73.969252 40.75574)"
"112826","NOSTRAND EXPRESS GOURMET INC I","2184 NOSTRAND AVE","BROOKLYN","NY","11210",,"40.631756","-73.947846","POINT (-73.947846 40.631756)"
"112825","R & R 1 STOP","7356 STATE ROUTE 3","PULASKI","NY","13142","Y","43.562342","-76.187128","POINT (-76.187128 43.562342)"
"112824","MORGAN DELICATESSEN INC","29 CARPENTER ST","GLEN COVE","NY","11542",,"40.864607","-73.645933","POINT (-73.645933 40.864607)"
"112823","SARA DELI MINIMART INC","4511 AVENUE L","BROOKLYN","NY","11234",,"40.623442","-73.931659","POINT (-73.931659 40.623442)"
"112820","TOWN EDGE BOWLING BAR & GRILL","2071 CLINTON ST","BUFFALO","NY","14206","Y","42.871336","-78.799514","POINT (-78.799514 42.871336)"
"112818","CHESTNUT MARTS","87 ROUTE 6","BALDWIN PLACE","NY","10505",,"41.344634","-73.758443","POINT (-73.758443 41.344634)"
"112817","GIANT FOOD MART","44 PARK AVE","WELLSVILLE","NY","14895","Y","42.120465","-77.946907","POINT (-77.946907 42.120465)"
"112816","GIANT FOOD MART","72 GENESEE ST","CUBA","NY","14727","Y","42.221183","-78.277237","POINT (-78.277237 42.221183)"
"112815","WINE & LIQUOR TIGER","843A E 149TH ST","BRONX","NY","10455",,"40.812560","-73.904821","POINT (-73.904821 40.81256)"
"112814","ERIE BOULEVARD GAS STOP INC","1701 ERIE BLVD E","SYRACUSE","NY","13210",,"43.049916","-76.121179","POINT (-76.121179 43.049916)"
"112813","THE WOOD","7439 CANTON STREET RD","BALDWINSVILLE","NY","13027","Y","43.131486","-76.336799","POINT (-76.336799 43.131486)"
"112812","PILOT TRAVEL CENTERS #1317","164 RIVERSIDE DRIVE","FULTONVILLE","NY","12072","Y","42.947109","-74.354449","POINT (-74.354449 42.947109)"
"112811","BIG AMERICAN DELI","1400 CASTLE HILL AVE","BRONX","NY","10462",,"40.835768","-73.851745","POINT (-73.851745 40.835768)"
"112809","ASHLEY & WILBIS DELI GROCERY I","2160 WALTON AVE","BRONX","NY","10453",,"40.855654","-73.904099","POINT (-73.904099 40.855654)"
"112808","ADAM'S MARKET INC","1470 ORCHARD PARK RD","BUFFALO","NY","14224","Y","42.811608","-78.762082","POINT (-78.762082 42.811608)"
"112807","ANDY'S QUICK STOP INC","294 N MAIN ST","SPRING VALLEY","NY","10977","Y","41.127479","-74.040793","POINT (-74.040793 41.127479)"
"112806","GREAT NECK CONVENIENCE INC","105 STEAMBOAT RD","GREAT NECK","NY","11024",,"40.808319","-73.745808","POINT (-73.745808 40.808319)"
"112805","B & H LIQUOR AND WINE INC","134-17 LIBERTY AVE","S RICHMOND HL","NY","11419",,"40.691813","-73.812155","POINT (-73.812155 40.691813)"
"112804","JOSMING DISCOUNT INC","967 FLATBUSH AVE","BROOKLYN","NY","11226",,"40.648022","-73.957844","POINT (-73.957844 40.648022)"
"112803","MAUI CHOP HOUSE INC","49 ROUTE 25A","ROCKY POINT","NY","11778","Y","40.945017","-72.946746","POINT (-72.946746 40.945017)"
"112801","KAY & ASH INC","115-18 95TH AVE","S RICHMOND HL","NY","11419",,"40.691526","-73.829786","POINT (-73.829786 40.691526)"
"112800","VALAM FOOD INC","156-18 45TH AVE","FLUSHING","NY","11355",,"40.756821","-73.809959","POINT (-73.809959 40.756821)"
"112799","ARIF DISCOUNT MART INC","661 CLASSON AVE","BROOKLYN","NY","11238",,"40.677768","-73.958741","POINT (-73.958741 40.677768)"
"112798","AMHERST MART INC","553 E AMHERST ST","BUFFALO","NY","14215",,"42.939932","-78.817127","POINT (-78.817127 42.939932)"
"112797","BODEGA FAMILIA INC","357 N MAIN ST","FREEPORT","NY","11520",,"40.668881","-73.587885","POINT (-73.587885 40.668881)"
"112794","LUNA PARK FOOD CORP","1204 NEPTUNE AVE","BROOKLYN","NY","11224",,"40.578987","-73.979882","POINT (-73.979882 40.578987)"
"112793","BEST INDIAN GROCERY","188 MAIN ST","BINGHAMTON","NY","13905",,"42.104357","-75.931866","POINT (-75.931866 42.104357)"
"112791","ALL RX PHARMACY II INC","1231 AVENUE U","BROOKLYN","NY","11229",,"40.598739","-73.958927","POINT (-73.958927 40.598739)"
"112790","NEW ESTRELLA MINIMARKET CORP","140 W 3RD ST","MOUNT VERNON","NY","10550",,"40.905503","-73.841215","POINT (-73.841215 40.905503)"
"112787","LIBERTY LIQUOR & WINE INC","99 W MAIN ST STE A","STONY POINT","NY","10980",,"41.229477","-73.987156","POINT (-73.987156 41.229477)"
"112785","NY HOMETOWN DELI CORP","165 S PLANK RD","NEWBURGH","NY","12550",,"41.522674","-74.064376","POINT (-74.064376 41.522674)"
"112784","GRAND UNION OF SHERILL","87 E. STATE ST.","SHERRILL","NY","13461","Y","43.075500","-75.594700","POINT (-75.5947 43.0755)"
"112783","GRAND UNION OF ROME","217 ERIE BLVD WEST","ROME","NY","13440","Y","43.211289","-75.460557","POINT (-75.460557 43.211289)"
"112782","SWEET DELI GROCERY CORP","3001 ALBANY CRESCENT","BRONX","NY","10463",,"40.876962","-73.903118","POINT (-73.903118 40.876962)"
"112781","QUEST INTERNATIONAL DISTRIBUTO","504 E98TH ST","BROOKLYN","NY","11212",,"40.656481","-73.913647","POINT (-73.913647 40.656481)"
"112778","QAMAR FOOD CORP","1505 SAINT JOHNS PL","BROOKLYN","NY","11213",,"40.670567","-73.927882","POINT (-73.927882 40.670567)"
"112777","7-ELEVEN #16202E","274 BAY SHORE RD","NORTH BABYLON","NY","11703",,"40.744157","-73.312073","POINT (-73.312073 40.744157)"
"112776","7-ELEVEN #32760B","837 WALT WHITMAN RD","MELVILLE","NY","11747","Y","40.800639","-73.412517","POINT (-73.412517 40.800639)"
"112775","7-ELEVEN #11209G","301 UNION AVE","HOLBROOK","NY","11741","Y","40.812059","-73.081364","POINT (-73.081364 40.812059)"
"112774","7-ELEVEN #38103A","2320 UNION BLVD","BAY SHORE","NY","11706","Y","40.730697","-73.227674","POINT (-73.227674 40.730697)"
"112773","M & B METRO DELI LLC","571 BROADWAY","AMITYVILLE","NY","11701",,"40.692630","-73.421998","POINT (-73.421998 40.69263)"
"112771","FEEL GOOD PHARMACY","3058 3RD AVE","BRONX","NY","10451",,"40.820602","-73.912380","POINT (-73.91238 40.820602)"
"112770","FOOD IS LOVE","4818 BROADWAY","ASTORIA","NY","11103",,"40.755882","-73.912550","POINT (-73.91255 40.755882)"
"112769","M & G FOOD CORP","391 E 167TH ST","BRONX","NY","10456","Y","40.830763","-73.910925","POINT (-73.910925 40.830763)"
"112768","SP FOOD MART INC","11 W LAMOKA AVE","SAVONA","NY","14879","Y","42.288642","-77.220818","POINT (-77.220818 42.288642)"
"112767","ARIANA SUPERMARKET","1064 CULVER RD","ROCHESTER","NY","14609",,"43.164504","-77.563237","POINT (-77.563237 43.164504)"
"112766","BLOOMFIELD'S PUB LLC","114 BLOOMFIELD AVE","DEPEW","NY","14043","Y","42.901915","-78.687609","POINT (-78.687609 42.901915)"
"112765","8325 DELI ON 5TH CORP","8325 5TH AVE","BROOKLYN","NY","11209",,"40.622868","-74.025123","POINT (-74.025123 40.622868)"
"112764","MUNCHIE MIKE'S","65 NIAGARA SQUARE","BUFFALO","NY","14202",,"42.886611","-78.879304","POINT (-78.879304 42.886611)"
"112762","THE GOODS MART","30 ROCKEFELLER PLZ STE ST23","NEW YORK","NY","10112",,"40.759093","-73.979423","POINT (-73.979423 40.759093)"
"112761","M A PASHA SUPER CONVENIENCE IN","1818 BATH AVE","BROOKLYN","NY","11214",,"40.603377","-74.005576","POINT (-74.005576 40.603377)"
"112760","FRAGRANCE GROCERY & 99C PLUS I","8019 18TH AVE","BROOKLYN","NY","11214",,"40.610037","-73.999144","POINT (-73.999144 40.610037)"
"112757","REDWOOD APOTHECARY","1280 SAINT NICHOLAS AVE","NEW YORK","NY","10033",,"40.844826","-73.936788","POINT (-73.936788 40.844826)"
"112756","KHALED DELI GROCERY CORP.","1502 NEPTUNE AVE","BROOKLYN","NY","11224",,"40.578909","-73.983218","POINT (-73.983218 40.578909)"
"112755","S & S ADAM CORP","1780 HYLAN BLVD","STATEN ISLAND","NY","10305",,"40.585241","-74.092766","POINT (-74.092766 40.585241)"
"112754","BUSHWICK MINIMART INC","1124 BUSHWICK AVE","BROOKLYN","NY","11221",,"40.689376","-73.918496","POINT (-73.918496 40.689376)"
"112753","5 BORO MARKET CORP","3900 5TH AVE","BROOKLYN","NY","11232",,"40.651253","-74.004134","POINT (-74.004134 40.651253)"
"112752","POND PIT LLC","8883 CO RTE 3","SANDY CREEK","NY","13145","Y","43.660615","-76.151894","POINT (-76.151894 43.660615)"
"112751","BUSY BEE DELI NY CORP","755 FRONT ST","HEMPSTEAD","NY","11550",,"40.709634","-73.604410","POINT (-73.60441 40.709634)"
"112750","DELI & GROCERY LAS DELICIAS IN","1230 ISLIP AVE","BRENTWOOD","NY","11717",,"40.769300","-73.211684","POINT (-73.211684 40.7693)"
"112749","FOOD UNIVERSE MARKET PLACE","1187 JEROME AVE","BRONX","NY","10452","Y","40.835873","-73.923035","POINT (-73.923035 40.835873)"
"112748","MOTHERS DELI INC","395 E MOSHOLU PKWY N","BRONX","NY","10467",,"40.869880","-73.879658","POINT (-73.879658 40.86988)"
"112747","CANZ","4780 SUNRISE HWY","BOHEMIA","NY","11716","Y","40.756342","-73.107621","POINT (-73.107621 40.756342)"
"112746","DUNCAN'S LOUDONMART","484 LOUDON RD","ALBANY","NY","12211",,"42.712708","-73.755891","POINT (-73.755891 42.712708)"
"112745","534 GRANT GROCERY INC","534 GRANT AVE","BROOKLYN","NY","11208",,"40.677669","-73.866043","POINT (-73.866043 40.677669)"
"112744","MANITO FOOD CENTER CORP","1133 WASHINGTON AVE","BRONX","NY","10456",,"40.829349","-73.908296","POINT (-73.908296 40.829349)"
"112743","600 TULIP AVENUE INC","600 TULIP AVE","FLORAL PARK","NY","11001",,"40.717420","-73.688530","POINT (-73.68853 40.71742)"
"112742","GRAND UNION OF SOUTH WATERTOWN","1330 WASHINGTON ST","WATERTOWN","NY","13601","Y","43.957546","-75.913976","POINT (-75.913976 43.957546)"
"112741","GRAND UNION OF WATERTOWN","22050 SEAWAY PLAZA","WATERTOWN","NY","13601",,"43.974785","-75.910761","POINT (-75.910761 43.974785)"
"112740","STOP & GO CONVENIENCE & SMOKE","376 S BAYVIEW AVE","FREEPORT","NY","11520",,"40.644168","-73.592944","POINT (-73.592944 40.644168)"
"112739","ONESTOP SMOKE SHOP","1698 OLD COUNTRY RD","RIVERHEAD","NY","11901",,"40.925072","-72.700731","POINT (-72.700731 40.925072)"
"112738","BALDWIN ROAD DELI CORP.","193 BALDWIN RD","HEMPSTEAD","NY","11550",,"40.695885","-73.615012","POINT (-73.615012 40.695885)"
"112737","ISLAND OIL INC","969 ATLANTIC AVE","BALDWIN","NY","11510",,"40.640211","-73.606533","POINT (-73.606533 40.640211)"
"112736","KINGS DELI & CONVENIENCE INC","319 E HOUSTON ST","NEW YORK","NY","10002",,"40.720923","-73.982992","POINT (-73.982992 40.720923)"
"112735","7-ELEVEN #32117C","8813 4TH AVE","BROOKLYN","NY","11209",,"40.620753","-74.029190","POINT (-74.02919 40.620753)"
"112734","7-ELEVEN #35049B","2474 FLATBUSH AVE","BROOKLYN","NY","11234",,"40.610155","-73.923070","POINT (-73.92307 40.610155)"
"112733","NEWS CENTER","787 7TH AVENUE","NEW YORK","NY","10019",,"40.761884","-73.982300","POINT (-73.9823 40.761884)"
"112732","CLIFF'S LOCAL MARKET #519","385 NORTH GENESSEE STREET","UTICA","NY","13502","Y","43.116313","-75.211398","POINT (-75.211398 43.116313)"
"112731","NATALIS RESTAURANT","37067 NYS ROUTE 12","CLAYTON","NY","13624","Y","44.203125","-76.075632","POINT (-76.075632 44.203125)"
"112730","GRAND UNION OF PERU","2 GORMAN WAY SUITE 1","PERU","NY","12972","Y","44.577119","-73.525850","POINT (-73.52585 44.577119)"
"112729","GRAND UNION OF SARANAC LAKE","156 CHURCH ST","SARANAC LAKE","NY","12983","Y","44.328772","-74.130596","POINT (-74.130596 44.328772)"
"112728","B&N WINES AND LIQUORS INC","406 E TREMONT AVE","BRONX","NY","10457",,"40.847397","-73.900691","POINT (-73.900691 40.847397)"
"112726","ITALY CONVENIENCE AND MORE INC","139 MULBERRY ST","NEW YORK","NY","10013",,"40.718768","-73.997847","POINT (-73.997847 40.718768)"
"112725","TJ DELI & GRILL CORP","1920 RICHMOND TER","STATEN ISLAND","NY","10302",,"40.637606","-74.128879","POINT (-74.128879 40.637606)"
"112724","PAPIN MINI MARKET CORP.","259 PATCHEN AVE","BROOKLYN","NY","11233",,"40.682460","-73.925668","POINT (-73.925668 40.68246)"
"112723","FRESH DELI MARKET INC","710 GEORGIA AVE","BROOKLYN","NY","11207",,"40.659349","-73.893515","POINT (-73.893515 40.659349)"
"112722","A J PETROLEUM INC","1880 FRONT ST","EAST MEADOW","NY","11554",,"40.719409","-73.564042","POINT (-73.564042 40.719409)"
"112721","QUICK STOP DELI AND CONVENIENC","266 CENTRAL AVE","WHITE PLAINS","NY","10606",,"41.035646","-73.782224","POINT (-73.782224 41.035646)"
"112719","J & M CORONA DELI","91-14 CORONA AVE","ELMHURST","NY","11373",,"40.742237","-73.873008","POINT (-73.873008 40.742237)"
"112718","MASTIC BEACH DELI CORP.","65 MASTIC BEACH ROAD","MASTIC BEACH","NY","11951",,"40.771450","-72.842191","POINT (-72.842191 40.77145)"
"112717","CARLE PLACE GOURMET & PRODUCE","514 WESTBURY AVE","CARLE PLACE","NY","11514",,"40.750961","-73.605214","POINT (-73.605214 40.750961)"
"112716","GOOD LUCK GROCERY STORE","1102 AVE U","BROOKLYN","NY","11223",,"40.598150","-73.960928","POINT (-73.960928 40.59815)"
"112715","NEWS CORNER","854 3RD ST","NEW YORK","NY","10022",,"40.757263","-73.969500","POINT (-73.9695 40.757263)"
"112713","GRAND UNION OF CORTLAND","3932 ST. ROUTE 281","CORTLAND","NY","13045","Y","42.601181","-76.180484","POINT (-76.180484 42.601181)"
"112712","GRAND UNION OF COOPERSTOWN","5 COMMONS DR. ROUTE 28","COOPERSTOWN","NY","13326","Y","42.700630","-74.924321","POINT (-74.924321 42.70063)"
"112711","METROPHARM INC","123 WALKER ST","NEW YORK","NY","10013",,"40.717384","-73.999937","POINT (-73.999937 40.717384)"
"112710","RATTAN PETROLEUM 2 INC","677 KENT AVE","BROOKLYN","NY","11249",,"40.700831","-73.962490","POINT (-73.96249 40.700831)"
"112709","7-ELEVEN #20480C","362 VETERANS MEMORIAL HWY","COMMACK","NY","11725",,"40.832095","-73.259651","POINT (-73.259651 40.832095)"
"112708","PARKWAY EXPRESS CANTON","5994 US HWY 11","CANTON","NY","13617","Y","44.599719","-75.140182","POINT (-75.140182 44.599719)"
"112706","BP 205 INC","205 LOWELL AVE","CENTRAL ISLIP","NY","11722",,"40.791921","-73.191932","POINT (-73.191932 40.791921)"
"112704","PLAYERS CAFE","241 BLEECKER ST","NEW YORK","NY","10014",,"40.730822","-74.002479","POINT (-74.002479 40.730822)"
"112702","LOVE'S TRAVEL STOP #833","6201 SHORTMAN RD","RIPLEY","NY","14775","Y","42.270007","-79.751004","POINT (-79.751004 42.270007)"
"112700","161 LI AVE FOOD STORE CORP","161-6 & 161-7 LONG ISLAND AVE","HOLTSVILLE","NY","11742",,"40.814802","-73.042587","POINT (-73.042587 40.814802)"
"112699","QUICK STOP & GO DELI CORP","300 302 NEW MAIN ST","YONKERS","NY","10701",,"40.927709","-73.895337","POINT (-73.895337 40.927709)"
"112698","101 LUCKY DELI INC.","97-19 101 AVE","OZONE PARK","NY","11416",,"40.685201","-73.843632","POINT (-73.843632 40.685201)"
"112697","NEW YARA WINES & LIQUOR","122-126 EAST 157TH ST","BRONX","NY","10451",,"40.825203","-73.926102","POINT (-73.926102 40.825203)"
"112696","AFZAL HOSSAIN","675 3RD AVENUE","NEW YORK","NY","10017",,"40.751016","-73.973869","POINT (-73.973869 40.751016)"
"112695","ARDEN CANDY CORP","1547 ARTHUR KILL RD STE 6","STATEN ISLAND","NY","10312",,"40.563099","-74.191742","POINT (-74.191742 40.563099)"
"112694","GOURMET DELI NYC INC","25 SAINT NICHOLAS TER","NEW YORK","NY","10027",,"40.813235","-73.951898","POINT (-73.951898 40.813235)"
"112693","GRAND UNION OF NORWICH","54 E. MAIN ST.","NORWICH","NY","13815","Y","42.531471","-75.520545","POINT (-75.520545 42.531471)"
"112692","GRAND UNION OF OWEGO","1145 RT. 17-C","OWEGO","NY","13827","Y","42.101840","-76.252821","POINT (-76.252821 42.10184)"
"112691","CLARKS FOOD MART LLC","33 NORTH ST","DRYDEN","NY","13053",,"42.494697","-76.298827","POINT (-76.298827 42.494697)"
"112690","BUSY BEE STORES CORP #101","17 MERRICK RD","BALDWIN","NY","11510",,"40.650941","-73.611360","POINT (-73.61136 40.650941)"
"112689","GTB FUEL 4 CORPORATION","6371 STATE ROUTE 167","DOLGEVILLE","NY","13329","Y","43.094365","-74.785776","POINT (-74.785776 43.094365)"
"112688","THE MILLS COUNTRY STORE","5270 COUNTY ROUTE 14","CHASE MILLS","NY","13621",,"44.848948","-75.080361","POINT (-75.080361 44.848948)"
"112687","FARMACIA POPULAR INC","8111 NORTHERN BLVD","JACKSON HEIGHTS","NY","11372",,"40.755785","-73.885866","POINT (-73.885866 40.755785)"
"112686","THE MORLEY STORE","7249 COUNTY ROUTE 27","CANTON","NY","13617",,"44.666032","-75.199286","POINT (-75.199286 44.666032)"
"112685","CORNER SIDE NEWS","93 W CAMPBELL RD","SCHENECTADY","NY","12306",,"42.808854","-73.987859","POINT (-73.987859 42.808854)"
"112684","AMERICANS BEST DEAL ABD TRADIN","4507 48TH AVE","WOODSIDE","NY","11377","Y","40.739528","-73.919929","POINT (-73.919929 40.739528)"
"112683","KARAM SERVICE STATION INC","600 PELHAM PKWY S","BRONX","NY","10462",,"40.856398","-73.868794","POINT (-73.868794 40.856398)"
"112682","THE PROMISE FOOD CORP","4201 FARRAGUT RD","BROOKLYN","NY","11203",,"40.637601","-73.936865","POINT (-73.936865 40.637601)"
"112681","M K FOOD MART INC","1065 UPPER FRONT ST","BINGHAMTON","NY","13905",,"42.146194","-75.902516","POINT (-75.902516 42.146194)"
"112680","KING GOURMET AVE N DELI INC","5803 AVENUE N","BROOKLYN","NY","11234",,"40.619684","-73.919011","POINT (-73.919011 40.619684)"
"112679","GTB FUEL 6 CORPORATION","32 MOHAWK AVE","SCHENECTADY","NY","12302",,"42.825001","-73.960399","POINT (-73.960399 42.825001)"
"112678","MIKE DELI & CONVENIENCE INC","418 E 14TH ST","NEW YORK","NY","10009",,"40.730713","-73.981774","POINT (-73.981774 40.730713)"
"112677","A ROD GROCERY","457 MYRTLE AVE","BROOKLYN","NY","11205",,"40.693476","-73.967252","POINT (-73.967252 40.693476)"
"112676","LUCKY MOON CONVIENCE INC","872 JAY ST","ROCHESTER","NY","14611",,"43.159607","-77.644259","POINT (-77.644259 43.159607)"
"112675","COCO FARMS OF SOUTH SALEM INC","380 SMITH RIDGE RD","SOUTH SALEM","NY","10590",,"41.214969","-73.517170","POINT (-73.51717 41.214969)"
"112674","POTTERSVILLE MINI MART","38 VALLEY FARM RD","POTTERSVILLE","NY","12860","Y","43.712540","-73.810078","POINT (-73.810078 43.71254)"
"112673","ATTIYA PETROLEUM INC.","558 HOOSICK ST","TROY","NY","12180",,"42.739604","-73.657547","POINT (-73.657547 42.739604)"
"112672","GTB FUEL 5 CORPORATION","185 BROADWAY","WHITEHALL","NY","12887",,"43.548110","-73.405249","POINT (-73.405249 43.54811)"
"112671","GEORGE HENRY'S","3735 MAIN ST","WARRENSBURG","NY","12885","Y","43.490843","-73.767088","POINT (-73.767088 43.490843)"
"112669","JAHAAN'S FOOD MART INC","784 ULSTER AVE","KINGSTON","NY","12401",,"41.951475","-73.993650","POINT (-73.99365 41.951475)"
"112668","KNUCKLES KNOCKOUT GRILL","25 OLD SCOTTSVILLE CHILI RD","ROCHESTER","NY","14624","Y","43.101928","-77.754377","POINT (-77.754377 43.101928)"
"112667","RALPH'S SPORTS BAR","1571 RICHMOND RD","STATEN ISLAND","NY","10304","Y","40.591347","-74.101272","POINT (-74.101272 40.591347)"
"112666","SMOKE SHOP","377 FLATBUSH AVE","BROOKLYN","NY","11238",,"40.676537","-73.971775","POINT (-73.971775 40.676537)"
"112662","GREEN'S GRAB AND GO","50 WOLF ROAD","ALBANY","NY","12205",,"42.713642","-73.815672","POINT (-73.815672 42.713642)"
"112661","KWIK-E MART","666 ELM ST (@CARLTON RM#K-130A","BUFFALO","NY","14263",,"42.898014","-78.865395","POINT (-78.865395 42.898014)"
"112660","BOLLA 203 E PARK AVE","203 E PARK AVE","LONG BEACH","NY","11561","Y","40.588966","-73.657638","POINT (-73.657638 40.588966)"
"112659","ARJ GAS CO II INC","1550 BRENTWOOD RD","BAY SHORE","NY","11706",,"40.756413","-73.245359","POINT (-73.245359 40.756413)"
"112658","ISLANDIA EXPRESSWAY INC","1395 VETERANS HWY","ISLANDIA","NY","11749",,"40.813043","-73.189316","POINT (-73.189316 40.813043)"
"112657","GREENPORT MINI STOP","200 FRONT ST","GREENPORT","NY","11944",,"41.102077","-72.361889","POINT (-72.361889 41.102077)"
"112656","FOLEYS","558 SMITHTOWN BYP","SMITHTOWN","NY","11787","Y","40.836667","-73.185832","POINT (-73.185832 40.836667)"
"112655","TAX DEPOT","652 JACKSON AVE","BRONX","NY","10455",,"40.815855","-73.907997","POINT (-73.907997 40.815855)"
"112654","58 MAIN BBQ & BREW","58 N MAIN ST","BROCKPORT","NY","14420","Y","43.218842","-77.937100","POINT (-77.9371 43.218842)"
"112653","RIVERSIDE EXPRESS MART INC","550 TONAWANDA ST","BUFFALO","NY","14207",,"42.943987","-78.901111","POINT (-78.901111 42.943987)"
"112651","SOUTH GATE DELI INC","1 S GATE DR","POUGHKEEPSIE","NY","12601",,"41.642408","-73.920804","POINT (-73.920804 41.642408)"
"112650","BEST PHARMACY","720 E TREMONT AVE","BRONX","NY","10457",,"40.844914","-73.890546","POINT (-73.890546 40.844914)"
"112649","SUNNYSIDE MARKET","4601 SKILLMAN AVE","SUNNYSIDE","NY","11104",,"40.746680","-73.917848","POINT (-73.917848 40.74668)"
"112648","KINGS 616 BROADWAY C-STORE","616 BROADWAY","AMITYVILLE","NY","11701",,"40.695377","-73.424604","POINT (-73.424604 40.695377)"
"112647","BLAUVELT STATION ONE DELI","549 WESTERN HWY","BLAUVELT","NY","10913",,"41.060619","-73.957350","POINT (-73.95735 41.060619)"
"112644","SAI STOP DELI & GROCERY","101-05 LEFFERTS BLVD","S RICHMOND HL","NY","11419",,"40.689805","-73.825602","POINT (-73.825602 40.689805)"
"112643","85 NORTH MAIN ST CORP","85 N MAIN ST","FREEPORT","NY","11520",,"40.659660","-73.585269","POINT (-73.585269 40.65966)"
"112642","MIDLAND RS 1CORP","875 MIDLAND AVE","YONKERS","NY","10704",,"40.935791","-73.860108","POINT (-73.860108 40.935791)"
"112641","YINGS","1460 FRENCH RD","DEPEW","NY","14043","Y","42.869279","-78.698479","POINT (-78.698479 42.869279)"
"112640","HILLSIDE TAVERN LLC","2630 OLD BUFFALO RD","ATTICA","NY","14011","Y","42.873971","-78.305046","POINT (-78.305046 42.873971)"
"112639","EDEN BOWLING LLC","8716 S MAIN ST","EDEN","NY","14057","Y","42.648807","-78.899346","POINT (-78.899346 42.648807)"
"112638","ST JAMES PLEASANT INN LLC","268 LAKE AVE","SAINT JAMES","NY","11780","Y","40.876972","-73.157080","POINT (-73.15708 40.876972)"
"112636","M & S SARAH CORP","180 W SERVICE RD","STATEN ISLAND","NY","10314",,"40.589188","-74.194291","POINT (-74.194291 40.589188)"
"112635","WILLIS SERVICE STATION CORP.","993 WILLIS AVE","ALBERTSON","NY","11507",,"40.771079","-73.649187","POINT (-73.649187 40.771079)"
"112634","LIGHT2 PETROL LLC","2054 GRAND AVENUE","BALDWIN","NY","11510",,"40.646503","-73.612182","POINT (-73.612182 40.646503)"
"112633","DGNJ 144 GASSTATION INC","144 HEMPSTEAD TPKE","WEST HEMPSTEAD","NY","11552",,"40.405377","-73.643925","POINT (-73.643925 40.405377)"
"112632","MY PLACE TAVERN","990 MIDDLE COUNTRY RD","SELDEN","NY","11784","Y","40.863729","-73.047458","POINT (-73.047458 40.863729)"
"112631","QUICKLEE'S #26","1311 FAIRPORT RD.","FAIRPORT","NY","14450","Y","43.101351","-77.461640","POINT (-77.46164 43.101351)"
"112630","XANDERMART","95 FRANKLIN ST","BUFFALO","NY","14202",,"42.884067","-78.877086","POINT (-78.877086 42.884067)"
"112629","JAMAO DELI & GROCERY INC","201-01 LINDEN BLVD","SAINT ALBANS","NY","11412",,"40.694971","-73.751249","POINT (-73.751249 40.694971)"
"112628","A & E SUPERMARKET INC","11731 FARMERS BLVD","SAINT ALBANS","NY","11412",,"40.690741","-73.761911","POINT (-73.761911 40.690741)"
"112627","BIG LOU DELI & GROCERY CORP","20101 MURDOCK AVE","SAINT ALBANS","NY","11412",,"40.700547","-73.753609","POINT (-73.753609 40.700547)"
"112626","GRAND UNION OF WARRENSBURG","3836 MAIN STREET","WARRENSBURG","NY","12885","Y","43.495377","-73.773326","POINT (-73.773326 43.495377)"
"112625","BOLLA 1152 UTICA AVENUE C-STOR","1152 UTICA AVE","BROOKLYN","NY","11203",,"40.644525","-73.929830","POINT (-73.92983 40.644525)"
"112624","CHAUMONT COUNTRY STORE","12070 NY STATE ROUTE 12E","CHAUMONT","NY","13622","Y","44.066577","-76.130130","POINT (-76.13013 44.066577)"
"112623","SHIV NEWSTAND INC","1211 6TH AVE","NEW YORK","NY","10036",,"40.758504","-73.981828","POINT (-73.981828 40.758504)"
"112621","ALLTOWN FRESH LIVINGSTON","US RTE 9H & RTE 23","HUDSON","NY","12534",,"42.222439","-73.734975","POINT (-73.734975 42.222439)"
"112619","LAPOSTA BROS. MARKET","181 SPEIGLETOWN ROAD","TROY","NY","12182",,"42.795914","-73.645986","POINT (-73.645986 42.795914)"
"112618","MINOGUE'S BEVERAGE CENTER","266 QUAKER RD","QUEENSBURY","NY","12804","Y","43.331536","-73.649056","POINT (-73.649056 43.331536)"
"112617","MINOGUE'S BEVERAGE CENTER","624 MAPLE AVE","SARATOGA SPRINGS","NY","12866","Y","43.119860","-73.768036","POINT (-73.768036 43.11986)"
"112616","MINOGUE'S BEVERAGE CENTER","16 WEST AVE","SARATOGA SPRINGS","NY","12866","Y","43.084045","-73.803549","POINT (-73.803549 43.084045)"
"112615","MINOGUE'S BEVERAGE CENTER","2421 STATE ROUTE 9","BALLSTON SPA","NY","12020","Y","43.028434","-73.792359","POINT (-73.792359 43.028434)"
"112614","LEX NEWS CORP","277 PARK AVE IN LOBBY","NEW YORK","NY","10172",,"40.755472","-73.974295","POINT (-73.974295 40.755472)"
"112613","GRAYS DELI INC.","31 S WHITE ST","POUGHKEEPSIE","NY","12601",,"41.697504","-73.916522","POINT (-73.916522 41.697504)"
"112612","MAYSALAH CORP","34-02 31ST STREET","ASTORIA","NY","11106",,"40.759572","-73.927667","POINT (-73.927667 40.759572)"
"112611","JAY BHOLE NEWSSTAND INC.","393 MERRICK AVE","MERRICK","NY","11566",,"40.676382","-73.557686","POINT (-73.557686 40.676382)"
"112610","MUKTI 360 PETROLEUM INC.","360 SUNRISE HWY","ROCKVILLE CENTRE","NY","11570",,"40.656827","-73.640986","POINT (-73.640986 40.656827)"
"112608","ALLERTON LIQUORS","691 ALLERTON AVE","BRONX","NY","10467",,"40.865572","-73.867683","POINT (-73.867683 40.865572)"
"112607","A&M DELI MARKET","1815 ROUTE 22","WINGDALE","NY","12594","Y","41.648813","-73.564216","POINT (-73.564216 41.648813)"
"112606","CLEVER SMOKE N CIGAR","2370 MERRICK RD # A","BELLMORE","NY","11710",,"40.661116","-73.538359","POINT (-73.538359 40.661116)"
"112605","BEER & SMOKE CORP","7805 17TH AVE","BROOKLYN","NY","11214",,"40.612806","-74.000260","POINT (-74.00026 40.612806)"
"112604","IN N OUT CONVENIENCE & SMOKE S","343 ROCKAWAY TPKE UNIT 1","LAWRENCE","NY","11559",,"40.626264","-73.738311","POINT (-73.738311 40.626264)"
"112602","LIC GOURMET DELI","2103 45TH AVE","LONG ISLAND CITY","NY","11101",,"40.747458","-73.947389","POINT (-73.947389 40.747458)"
"112601","TAKE FIVE GOURMET DELI INC","714 CASTLETON AVE","STATEN ISLAND","NY","10310",,"40.634574","-74.106445","POINT (-74.106445 40.634574)"
"112598","AVENUE NEWSSTAND LLP","200 PARK AVE","NEW YORK","NY","10166",,"40.753532","-73.976679","POINT (-73.976679 40.753532)"
"112596","WESTERN BEEF #02","44-44 COLLEGE POINT BLVD","FLUSHING","NY","11355",,"40.750665","-73.832395","POINT (-73.832395 40.750665)"
"112595","FARM FRESH EXPRESS 2","233 E RIDGE RD","ROCHESTER","NY","14621",,"43.194142","-77.611689","POINT (-77.611689 43.194142)"
"112594","SOUTH WEDGE CONVENIENT MART IN","931 CLINTON AVE S","ROCHESTER","NY","14620",,"43.139878","-77.596210","POINT (-77.59621 43.139878)"
"112592","MINI MART","16902 35TH AVE","FLUSHING","NY","11358","Y","40.764694","-73.796503","POINT (-73.796503 40.764694)"
"112591","GOLDEN BRIDGE II INC.","30 SPORTSMEN ST","CENTRAL ISLIP","NY","11722",,"40.783196","-73.177975","POINT (-73.177975 40.783196)"
"112589","FOUR STAR BEER & SMOKE INC","237 MEDFORD AVE","PATCHOGUE","NY","11772",,"40.775480","-73.007425","POINT (-73.007425 40.77548)"
"112588","TM CONVENIENCE INC.","1800 GREAT NECK RD STE 5","COPIAGUE","NY","11726",,"40.681277","-73.400254","POINT (-73.400254 40.681277)"
"112586","C TOWN FOOD MART INC.","308 CHENANGO ST","BINGHAMTON","NY","13901",,"42.107347","-75.904104","POINT (-75.904104 42.107347)"
"112584","LUCKY ONE STOP INC","158A CHURCH STREET","NEW YORK","NY","10007",,"40.715183","-74.007954","POINT (-74.007954 40.715183)"
"112582","COMMACK EXPRESSWAY INC","700 COMMACK RD","COMMACK","NY","11725",,"40.805597","-73.294119","POINT (-73.294119 40.805597)"
"112581","M C'S DUGOUT SPORTS BAR & GRIL","1370 BUFFALO RD","ROCHESTER","NY","14624","Y","43.150163","-77.687225","POINT (-77.687225 43.150163)"
"112580","KEY FOOD","5725 SHORE FRONT PKWY","ARVERNE","NY","11692","Y","40.589384","-73.787551","POINT (-73.787551 40.589384)"
"112579","NEW GRAND AVE WINE & LIQUOR","7003 GRAND AVE","MASPETH","NY","11378",,"40.727584","-73.892947","POINT (-73.892947 40.727584)"
"112577","TORRES DELI & GROCERY CORP.","84A BROADWAY","FREEPORT","NY","11520",,"40.659043","-73.580912","POINT (-73.580912 40.659043)"
"112576","K & E MOBIL LLC","1764 DR MARTIN L KING JR BLVD","BRONX","NY","10453",,"40.849159","-73.916540","POINT (-73.91654 40.849159)"
"112575","99 CENTS PLUS & DELI GROCERY","215-12 91ST AVE","QUEENS VILLAGE","NY","11428",,"40.722712","-73.744987","POINT (-73.744987 40.722712)"
"112574","101 METRO DISCOUNTS INC","105-01 101 AVENUE","OZONE PARK","NY","11416","Y","40.686802","-73.838002","POINT (-73.838002 40.686802)"
"112573","SNACK SHACK","618 UPPER FALLS BLVD","ROCHESTER","NY","14605","Y","43.171244","-77.601408","POINT (-77.601408 43.171244)"
"112572","JOE JOE DELI INC","2712 HIGHLAND AVE","NIAGARA FALLS","NY","14305",,"43.113067","-79.049247","POINT (-79.049247 43.113067)"
"112571","JAY VISAT ONE STOP CORP.","1409 COUNTY ROUTE 24","GRANVILLE","NY","12832",,"43.432642","-73.282602","POINT (-73.282602 43.432642)"
"112570","7-ELEVEN 38103H","2320 UNION BLVD","BAY SHORE","NY","11706","Y","40.730697","-73.227674","POINT (-73.227674 40.730697)"
"112569","7-ELEVEN #41742H","425 UNION BLVD","WEST ISLIP","NY","11795","Y","40.708144","-73.301052","POINT (-73.301052 40.708144)"
"112568","BJ'S WHOLESALE CLUB #386","2 VETERAN'S MEMORIAL HWY","COMMACK","NY","11725",,"40.840952","-73.290243","POINT (-73.290243 40.840952)"
"112567","SPEEDWAY #01615","7001 PACKARD AVE","NIAGARA FALLS","NY","14304","Y","43.108817","-78.984851","POINT (-78.984851 43.108817)"
"112566","7-ELEVEN #38022A","4525 SUNRISE HWY","BOHEMIA","NY","11716",,"40.754067","-73.119258","POINT (-73.119258 40.754067)"
"112565","BRIGHTON MINI MART LLC","846 STATE ROUTE 86","GABRIELS","NY","12939",,"44.429543","-74.175315","POINT (-74.175315 44.429543)"
"112564","JOY DELI & MINI MART INC.","1617 BAY RIDGE PKWY","BROOKLYN","NY","11204",,"40.616097","-74.000141","POINT (-74.000141 40.616097)"
"112563","7-ELEVEN #20944F","69-58 MAIN STREET","FLUSHING","NY","11367",,"40.729891","-73.823476","POINT (-73.823476 40.729891)"
"112562","7-ELEVEN #32406B","162-01 46TH AVENUE","FLUSHING","NY","11358",,"40.753749","-73.804819","POINT (-73.804819 40.753749)"
"112561","7-ELEVEN #33975B","101-04 METROPOLITAN AVE","FOREST HILLS","NY","11375",,"40.710616","-73.851841","POINT (-73.851841 40.710616)"
"112560","STEWART'S SHOPS #0138","1560 CENTRAL AVE","ALBANY","NY","12205",,"42.715581","-73.831065","POINT (-73.831065 42.715581)"
"112559","INNIS DELI INC","174 INNIS AVE","POUGHKEEPSIE","NY","12601",,"41.708419","-73.903604","POINT (-73.903604 41.708419)"
"112558","BOLLA 820 HEMPSTEAD C-STORE","820 HEMPSTEAD AVE","WEST HEMPSTEAD","NY","11552","Y","40.687598","-73.659395","POINT (-73.659395 40.687598)"
"112557","DARK HORSE SALOON INC","10516 STATE RTE 36","DANSVILLE","NY","14437","Y","42.511257","-77.696789","POINT (-77.696789 42.511257)"
"112556","EXPRESS CONVENIENCE","25 CHESTNUT RIDGE RD","ROCHESTER","NY","14624","Y","43.115859","-77.730372","POINT (-77.730372 43.115859)"
"112553","3389 ROUTE 82 INC.","3389 ROUTE 82","VERBANK","NY","12585","Y","41.729026","-73.715852","POINT (-73.715852 41.729026)"
"112550","AMNAS PETROLEUM INC","2955 CROPSEY AVE","BROOKLYN","NY","11214",,"40.582852","-73.985861","POINT (-73.985861 40.582852)"
"112549","ANDREWS DELI GROCERY LLC","6816 3RD AVE","BROOKLYN","NY","11220",,"40.636326","-74.026128","POINT (-74.026128 40.636326)"
"112548","RAJESHWARI D PANDYA","1656 BROADWAY","NEW YORK","NY","10019",,"40.762155","-73.983298","POINT (-73.983298 40.762155)"
"112547","FOREST HILLS PHARMACY","6365 108TH ST","FOREST HILLS","NY","11375",,"40.733421","-73.849623","POINT (-73.849623 40.733421)"
"112544","E-Z SUPERMART INC.","619 MONROE AVE","ROCHESTER","NY","14607",,"43.144792","-77.591328","POINT (-77.591328 43.144792)"
"112542","OLD SCHOOL BAR & GRILL","600 CULVER AVE STE 3","UTICA","NY","13501","Y","43.090418","-75.198738","POINT (-75.198738 43.090418)"
"112541","M S SMOKE & GROCERY INC","707 FULTON STREET","BROOKLYN","NY","11217",,"40.687616","-73.977112","POINT (-73.977112 40.687616)"
"112540","SPRINGFIELD PARKWAY INC","18525 N CONDUIT AVE","SPRNGFLD GDNS","NY","11413",,"40.666837","-73.758124","POINT (-73.758124 40.666837)"
"112539","SEASONS EXPRESS WOODMERE","700 W BROADWAY","WOODMERE","NY","11598",,"40.627919","-73.721831","POINT (-73.721831 40.627919)"
"112538","RIDGE CHEMISTS LLC","4620 3RD AVE","BROOKLYN","NY","11220",,"40.649715","-74.013109","POINT (-74.013109 40.649715)"
"112537","INKONAV CORP","64 AVENUE A","NEW YORK","NY","10009",,"40.724391","-73.984554","POINT (-73.984554 40.724391)"
"112533","SMOKE KILGORE","1965 NEW HIGHWAY","FARMINGDALE","NY","11735",,"40.753294","-73.414260","POINT (-73.41426 40.753294)"
"112531","FAIRWAYS AND DREAMS","6919 STATE ROUTE 3","PULASKI","NY","13142","Y","43.537196","-76.199301","POINT (-76.199301 43.537196)"
"112528","HEMPSTEAD PETROLEUM INC","1955 HEMPSTEAD TPKE","EAST MEADOW","NY","11554",,"40.724657","-73.563841","POINT (-73.563841 40.724657)"
"112527","CREEKSIDE CONVENIENCE","4200 ROUTE 78","BLISS","NY","14024",,"42.647841","-78.198703","POINT (-78.198703 42.647841)"
"112526","GREEN DELI","1 PARK LN STE F","MASSAPEQUA","NY","11758",,"40.679333","-73.439449","POINT (-73.439449 40.679333)"
"112525","K AND K UNION INC","1747 UNION ST","SCHENECTADY","NY","12309",,"42.802959","-73.899540","POINT (-73.89954 42.802959)"
"112524","AJ GAS MART INC","1981 FILLMORE AVE","BUFFALO","NY","14214","Y","42.927978","-78.838950","POINT (-78.83895 42.927978)"
"112521","TULL'S MARKET","18 NYS ROUTE # 38B","ENDICOTT","NY","13760",,"42.155690","-76.070407","POINT (-76.070407 42.15569)"
"112519","BELVEDERES LOUNGE","194 STATE ST","AUBURN","NY","13021","Y","42.940289","-76.572323","POINT (-76.572323 42.940289)"
"112518","PROCTORS LOTTO & GROCERY LLC","2621 MAIN ST","GORHAM","NY","14461",,"42.798772","-77.132158","POINT (-77.132158 42.798772)"
"112517","REZEKINC","535 VANDERBILT AVE","STATEN ISLAND","NY","10304",,"40.613716","-74.087051","POINT (-74.087051 40.613716)"
"112516","WINE & LIQUOR","1173 BEDFORD AVE","BROOKLYN","NY","11216",,"40.683327","-73.953618","POINT (-73.953618 40.683327)"
"112513","88 LIBERTY WINE AND LIQUOR","8817 LIBERTY AVE","OZONE PARK","NY","11417",,"40.680065","-73.849986","POINT (-73.849986 40.680065)"
"112512","COBBLE POND FARMS","1771 ROUTE 23","CRARYVILLE","NY","12521","Y","42.175248","-73.581673","POINT (-73.581673 42.175248)"
"112511","BROADWAY AUTO TECH INC","4275 BROADWAY","NEW YORK","NY","10033",,"40.851002","-73.935715","POINT (-73.935715 40.851002)"
"112508","WHEELER ENT INC","360 WHEELER RD","HAUPPAUGE","NY","11788",,"40.808052","-73.217587","POINT (-73.217587 40.808052)"
"112507","SUPERFRESH","1764 GRAND AVE","BALDWIN","NY","11510","Y","40.667069","-73.609503","POINT (-73.609503 40.667069)"
"112506","UNION MARKET VARIETY STORE","648A UNION AVE","WESTBURY","NY","11590",,"40.760138","-73.576738","POINT (-73.576738 40.760138)"
"112502","ECUATORIANITA DELI CORP","978 LONGWOOD AVE","BRONX","NY","10459",,"40.817047","-73.897766","POINT (-73.897766 40.817047)"
"112499","HUANG LING LIQUORS INC","2557 3RD AVE","BRONX","NY","10451",,"40.811693","-73.926406","POINT (-73.926406 40.811693)"
"112498","CHESTNUT MARTS INC","680 MAIN ST","MOUNT KISCO","NY","10549",,"41.188838","-73.733099","POINT (-73.733099 41.188838)"
"112497","NG SUPERMARKET INC","507 CORTELYOU RD","BROOKLYN","NY","11218",,"40.638603","-73.974310","POINT (-73.97431 40.638603)"
"112496","TINDAHAN","8104 BROADWAY","ELMHURST","NY","11373",,"40.743212","-73.883796","POINT (-73.883796 40.743212)"
"112495","BOLLA 494 MEDFORD AVE C-STORE","494 MEDFORD AVE","PATCHOGUE","NY","11772",,"40.785246","-73.009288","POINT (-73.009288 40.785246)"
"112494","TENDA DISCOUNT INC.","6801 FORT HAMILTON PKWY","BROOKLYN","NY","11219",,"40.628949","-74.011301","POINT (-74.011301 40.628949)"
"112492","ONE STOP DELI MARKET INC","1574 ROUTE 9G","HYDE PARK","NY","12538","Y","41.819438","-73.902119","POINT (-73.902119 41.819438)"
"112491","VIBRANT STAR INC","750 YONKERS AVE","YONKERS","NY","10704",,"40.923032","-73.865069","POINT (-73.865069 40.923032)"
"112490","KATY DELI GROCERY CORP","1960 BATHGATE AVENUE","BRONX","NY","10457",,"40.848142","-73.896310","POINT (-73.89631 40.848142)"
"112489","KRISH WINE $ LIQUOR INC","2593 ROUTE 52","HOPEWELL JUNCTION","NY","12533",,"41.554972","-73.784687","POINT (-73.784687 41.554972)"
"112488","DEVELOP GAS CORP","6520 COOPER AVE","RIDGEWOOD","NY","11385",,"40.698517","-73.888411","POINT (-73.888411 40.698517)"
"112487","GT CONVENIENCE INC","671 BROOKS AVE","ROCHESTER","NY","14619",,"43.130501","-77.654250","POINT (-77.65425 43.130501)"
"112486","JENNY LEE FEED MILL","17 MAIN ST","CATTARAUGUS","NY","14719","Y","42.329825","-78.869000","POINT (-78.869 42.329825)"
"112485","MIRABITO #32- NORTH ST.","414 7TH NORTH ST.","LIVERPOOL","NY","13088","Y","43.092107","-76.169269","POINT (-76.169269 43.092107)"
"112484","ROCKLAND MOBIL MART INC","1904 ROUTE 44","PLEASANT VALLEY","NY","12569","Y","41.751843","-73.797727","POINT (-73.797727 41.751843)"
"112482","IMPERIAL WINE & SPIRITS","2223 AVENUE U","BROOKLYN","NY","11229",,"40.599923","-73.948705","POINT (-73.948705 40.599923)"
"112481","FASTSTOP DELI & MINI MART CORP","1667 FLATBUSH AVE","BROOKLYN","NY","11210",,"40.629842","-73.944057","POINT (-73.944057 40.629842)"
"112480","SID CONVENIENCE CORP","1322 STATE ROUTE 17B","WHITE LAKE","NY","12786","Y","41.674462","-74.812353","POINT (-74.812353 41.674462)"
"112478","7-ELEVEN #32346D","72-01 ELIOT AVENUE","MIDDLE VILLAGE","NY","11379",,"40.719478","-73.891123","POINT (-73.891123 40.719478)"
"112476","BUENO DELI NY CORP","132-134 HEYWARD ST","BRENTWOOD","NY","11717",,"40.798158","-73.249731","POINT (-73.249731 40.798158)"
"112475","7-ELEVEN #29779D","206 GLEN COVE AVE","GLEN COVE","NY","11542","Y","40.849827","-73.635409","POINT (-73.635409 40.849827)"
"112473","NEW CENTURY LIQUOR CORP","6224 11TH AVE","BROOKLYN","NY","11219",,"40.629960","-74.004767","POINT (-74.004767 40.62996)"
"112472","WESTSIDE VALUE MINI MAX INC","319 MASSACHUSETTS AVE","BUFFALO","NY","14213",,"42.911675","-78.889553","POINT (-78.889553 42.911675)"
"112471","POLERS PUB LLC","610 MAIN ST","MEDINA","NY","14103","Y","43.218637","-78.387138","POINT (-78.387138 43.218637)"
"112470","EASTONS FOOD & DRINK LLC","6659 W MAIN RD","LIMA","NY","14485","Y","42.901657","-77.649848","POINT (-77.649848 42.901657)"
"112469","KELLYS ON THE GREENS INC.","4343 PORTER RD","NIAGARA FALLS","NY","14305","Y","43.105964","-79.014455","POINT (-79.014455 43.105964)"
"112468","AMRUTAM INC","216 W OLD COUNTRY RD","HICKSVILLE","NY","11801",,"40.762172","-73.529292","POINT (-73.529292 40.762172)"
"112467","LIQUORS","1492 ST NICHOLAS AVENUE","NEW YORK","NY","10033",,"40.851453","-73.931923","POINT (-73.931923 40.851453)"
"112466","AGAM DELI INC","451 FISHKILL AVE","BEACON","NY","12508",,"41.513457","-73.950804","POINT (-73.950804 41.513457)"
"112465","THE TAP IT BAR AND GRILL","1761 SCOTTSVILLE RD","ROCHESTER","NY","14623","Y","43.088775","-77.683921","POINT (-77.683921 43.088775)"
"112464","MEDINA LANES","11249 MAPLE RIDGE RD","MEDINA","NY","14103","Y","43.207625","-78.396026","POINT (-78.396026 43.207625)"
"112463","JM DELI & GRILL INC","282 BROADWAY","BROOKLYN","NY","11211",,"40.708528","-73.958701","POINT (-73.958701 40.708528)"
"112462","CARTHAGE MARKET CORP","120 RIVERSIDE DR","CARTHAGE","NY","13619",,"43.977322","-75.612255","POINT (-75.612255 43.977322)"
"112461","GRAND PARSONS MART LLC","8404 PARSONS BLVD","JAMAICA","NY","11432",,"40.713982","-73.807558","POINT (-73.807558 40.713982)"
"112460","SUNRISE SMOKE & CONVENIENCE ST","411 40TH ST","LINDENHURST","NY","11757",,"40.694528","-73.390143","POINT (-73.390143 40.694528)"
"112459","HARBOR SHOP","20-22 WEST WATER ST","SAG HARBOR","NY","11963","Y","41.000631","-72.299655","POINT (-72.299655 41.000631)"
"112457","WEST 7TH CAFE' INC.","172 AVENUE S","BROOKLYN","NY","11223",,"40.600825","-73.979129","POINT (-73.979129 40.600825)"
"112455","MD S ALIM","460 PARK AVE","NEW YORK","NY","10022",,"40.761931","-73.970756","POINT (-73.970756 40.761931)"
"112452","X & Y GROCERY INC","6820 14TH AVE","BROOKLYN","NY","11219",,"40.622611","-74.001861","POINT (-74.001861 40.622611)"
"112451","NU CONVENIENCE INC.","4708 HYDE PARK BLVD","NIAGARA FALLS","NY","14305","Y","43.130457","-79.039733","POINT (-79.039733 43.130457)"
"112450","MAPLE AVE. QUICK STOP","1137 MAPLE AVE","ELMIRA","NY","14904",,"42.071064","-76.786591","POINT (-76.786591 42.071064)"
"112449","STAR QUICK MART INC","11 FRONT ST","HEMPSTEAD","NY","11550",,"40.704527","-73.637411","POINT (-73.637411 40.704527)"
"112448","JORDAN DELI & MART","425 STATE ROUTE 31","JORDAN","NY","13080","Y","43.082144","-76.476928","POINT (-76.476928 43.082144)"
"112447","MO'S DELI","267 W PARK AVE","LONG BEACH","NY","11561",,"40.588850","-73.672224","POINT (-73.672224 40.58885)"
"112446","SRJ BROTHERS INC","1565 ROUTE 22","BREWSTER","NY","10509",,"41.424355","-73.577998","POINT (-73.577998 41.424355)"
"112445","HIGHWAY DELI INC.","3032 ROUTE 6","SLATE HILL","NY","10973",,"41.400069","-74.457303","POINT (-74.457303 41.400069)"
"112444","SPRING STREET NORTH","59 ORANGE TURNPIKE","SLOATSBURG","NY","10974",,"41.155523","-74.193725","POINT (-74.193725 41.155523)"
"112442","102 ST BODEGA CORP","4207 102ND ST","CORONA","NY","11368",,"40.747496","-73.862797","POINT (-73.862797 40.747496)"
"112440","FRONT STREET FARMERS MARKET IN","1275 FRONT ST","UNIONDALE","NY","11553",,"40.711512","-73.583360","POINT (-73.58336 40.711512)"
"112439","HAMBURG MINI MART","5461 SOUTHWESTERN BLVD","HAMBURG","NY","14075",,"42.738218","-78.874907","POINT (-78.874907 42.738218)"
"112437","CLUB HOUSE CAFE","1937 MIDDLE COUNTRY ROAD","CENTEREACH","NY","11720","Y","40.859937","-73.080272","POINT (-73.080272 40.859937)"
"112436","LOVE'S TRAVEL STOPS #820","1262 ROUTE 414","WATERLOO","NY","13165","Y","42.964259","-76.846969","POINT (-76.846969 42.964259)"
"112435","BRIYANA ORGANICS DELI 2 CORP.","1017 BEDFORD AVE","BROOKLYN","NY","11205",,"40.689191","-73.954820","POINT (-73.95482 40.689191)"
"112433","JOSIE GREEN'S","55 WATER ST LBBY","NEW YORK","NY","10041",,"40.703833","-74.009116","POINT (-74.009116 40.703833)"
"112432","SCOTIA BEVERAGE","162 SACANDAGA RD","SCHENECTADY","NY","12302","Y","42.834421","-73.969675","POINT (-73.969675 42.834421)"
"112431","EDDIES COVE","28 LAKESHORE RD","PULASKI","NY","13142","Y","43.635543","-76.186001","POINT (-76.186001 43.635543)"
"112430","HALL PASS TAVERN LLC","19 BRIDGE ST","CARTHAGE","NY","13619","Y","43.973470","-75.615584","POINT (-75.615584 43.97347)"
"112429","JOSIE GREEN'S","200 VESEY STREET","NEW YORK","NY","10285",,"40.713576","-74.014551","POINT (-74.014551 40.713576)"
"112428","BALI NEWSSTAND","44 WALL STREET & WILLIAM STREE","NEW YORK","NY","10005",,"40.706840","-74.009692","POINT (-74.009692 40.70684)"
"112425","ILIYAS GOURMET DELI 1 INC.","3211 WESTCHESTER AVE","BRONX","NY","10461",,"40.851965","-73.829836","POINT (-73.829836 40.851965)"
"112424","101 TOBACCO INC.","101 FOREST AVE","LOCUST VALLEY","NY","11560",,"40.875306","-73.599300","POINT (-73.5993 40.875306)"
"112423","1278 MCR PETROLEUM LLC","1274 MIDDLE COUNTRY RD","SELDEN","NY","11784",,"40.862226","-73.057290","POINT (-73.05729 40.862226)"
"112421","CA DELI & GRILL CORP","219 SAINT NICHOLAS AVE","BROOKLYN","NY","11237",,"40.703476","-73.914328","POINT (-73.914328 40.703476)"
"112420","TINA LIQUOR & WINE INC","2 MALCOLM X BLVD","BROOKLYN","NY","11221",,"40.694275","-73.931544","POINT (-73.931544 40.694275)"
"112419","127 DELI & GRILL CORP","12620 135TH AVE","SOUTH OZONE PARK","NY","11420",,"40.668840","-73.812853","POINT (-73.812853 40.66884)"
"112418","NINOS CONVENIENCE","185 ROMA AVE","STATEN ISLAND","NY","10306",,"40.561422","-74.104119","POINT (-74.104119 40.561422)"
"112417","WALMART SUPERCENTER #8331","901 BOULEVARD EAST","YAPHANK","NY","11980","Y","40.846876","-72.899040","POINT (-72.89904 40.846876)"
"112416","LOS TRES HERMANO GROCERY CORP","154 SOUTH BROADWAY","YONKERS","NY","10701",,"40.928501","-73.896095","POINT (-73.896095 40.928501)"
"112415","SHARIFF CONVENIENCE CORP","233 E 172ND ST","BRONX","NY","10457",,"40.840565","-73.911039","POINT (-73.911039 40.840565)"
"112414","TRYKERS INC","265 AVENUE X","BROOKLYN","NY","11223",,"40.590350","-73.973118","POINT (-73.973118 40.59035)"
"112413","460 ENTERPRISES INC.","460 JERICHO TPKE","JERICHO","NY","11753",,"40.796610","-73.534581","POINT (-73.534581 40.79661)"
"112412","QUARTERS","183 BALLSTON AVE","SARATOGA SPRINGS","NY","12866","Y","43.069854","-73.794090","POINT (-73.79409 43.069854)"
"112411","TIGER EXPRESS","2220 NIAGARA FALLS BLVD","TONAWANDA","NY","14150",,"43.014926","-78.822328","POINT (-78.822328 43.014926)"
"112410","DUTCHESS EQUIPMENT SERVICE","1820 NEW HACKENSACK ROAD","POUGHKEEPSIE","NY","12603","Y","41.640603","-73.874290","POINT (-73.87429 41.640603)"
"112409","PARK CIRCLE MART INC","203-211 NORTH STREET","MIDDLETOWN","NY","10940",,"41.450569","-74.416913","POINT (-74.416913 41.450569)"
"112408","COULSONS NEWS AND DELI","420 BROADWAY","ALBANY","NY","12207",,"42.699300","-73.718950","POINT (-73.71895 42.6993)"
"112406","TIME OUT DELI CORP 2","8837 51ST AVE","ELMHURST","NY","11373",,"40.739629","-73.874301","POINT (-73.874301 40.739629)"
"112405","MINGALA STORE LLC","42 PARTITION ST APT 1","RENSSELAER","NY","12144",,"42.645135","-73.736841","POINT (-73.736841 42.645135)"
"112403","SUPERIOR PHARMACY","8022 ROOSEVELT AVE","JACKSON HEIGHTS","NY","11372",,"40.747388","-73.885079","POINT (-73.885079 40.747388)"
"112402","MIRABITO #57- FREEVILLE #2","1321 DRYDEN RD","ITHACA","NY","14850",,"42.468106","-76.408261","POINT (-76.408261 42.468106)"
"112401","SPEEDWAY #07008","8465 ALLEGHANY RD","CORFU","NY","14036","Y","43.003851","-78.405526","POINT (-78.405526 43.003851)"
"112400","FAMILY BAZAR SUPERMARKET INC.","196 HOYT ST","BROOKLYN","NY","11217",,"40.684349","-73.989436","POINT (-73.989436 40.684349)"
"112399","RED STORE GROCERY & DELI CORP","323 POWELL ST","BROOKLYN","NY","11212",,"40.666420","-73.902820","POINT (-73.90282 40.66642)"
"112398","BALDWINSVILLE C-STORE INC","35 E GENESEE ST","BALDWINSVILLE","NY","13027",,"43.159265","-76.328721","POINT (-76.328721 43.159265)"
"112395","7-ELEVEN #38468B","2663 JERUSALEM AVE","BELLMORE","NY","11710","Y","40.691708","-73.533366","POINT (-73.533366 40.691708)"
"112394","7-ELEVEN STORE #35163B","782 ELMWOOD AVE","BUFFALO","NY","14222","Y","42.918370","-78.877027","POINT (-78.877027 42.91837)"
"112393","WOODSTOCK OASIS","2166 STATE ROUTE 17B #224","BETHEL","NY","12720",,"41.688153","-74.886873","POINT (-74.886873 41.688153)"
"112391","SLIDERS FOOD MART","634 JAMES ST","CLAYTON","NY","13624","Y","44.236839","-76.085078","POINT (-76.085078 44.236839)"
"112390","BELLMORE MARKET","1992 N JERUSALEM RD","BELLMORE","NY","11710","Y","40.700865","-73.552079","POINT (-73.552079 40.700865)"
"112389","7-ELEVEN #26802D","4220 HEMPSTEAD TPKE","BETHPAGE","NY","11714",,"40.725425","-73.483125","POINT (-73.483125 40.725425)"
"112387","QUICKLEES #024","9924 NY 408","DALTON","NY","14836","Y","42.548200","-77.948500","POINT (-77.9485 42.5482)"
"112385","TAJ & HASH CORPORATION","60 MAIN ST","KINGS PARK","NY","11754","Y","40.883915","-73.251230","POINT (-73.25123 40.883915)"
"112382","ROYAL CROWN SMOKE SHOP","394 N WANTAGH AVE","BETHPAGE","NY","11714",,"40.735413","-73.495389","POINT (-73.495389 40.735413)"
"112381","1 HOME WOOD CORP","1 HOMEWOOD AVE","NEWBURGH","NY","12550","Y","41.519095","-74.107657","POINT (-74.107657 41.519095)"
"112380","WARSAW C STORE LLC","2489 STATE ROUTE 19 N","WARSAW","NY","14569","Y","42.761324","-78.128864","POINT (-78.128864 42.761324)"
"112379","J&K CORNER MARKET","3030 SWEET HOME RD","BUFFALO","NY","14228","Y","43.042570","-78.800180","POINT (-78.80018 43.04257)"
"112378","P-Y DELI CORP","151 VREELAND ST","STATEN ISLAND","NY","10302",,"40.637581","-74.133184","POINT (-74.133184 40.637581)"
"112377","OCEANSIDE WINE&LIQUOR","3141 LAWSON BLVD","OCEANSIDE","NY","11572",,"40.634872","-73.653626","POINT (-73.653626 40.634872)"
"112375","9602 SNACKS INC","9602 ROOSEVELT AVE","CORONA","NY","11368",,"40.749053","-73.869146","POINT (-73.869146 40.749053)"
"112374","DESHI GROCERY MARKET","349 SMITHTOWN BLVD","RONKONKOMA","NY","11779",,"40.832251","-73.131183","POINT (-73.131183 40.832251)"
"112373","SOF DELI CORP","6803 3RD AVE","BROOKLYN","NY","11220",,"40.636200","-74.025532","POINT (-74.025532 40.6362)"
"112372","107 GROCERY DELI CORP.","10701 37TH AVE","CORONA","NY","11368",,"40.754157","-73.861094","POINT (-73.861094 40.754157)"
"112371","ANNERYS DELI CORP","2178 CROTONA AVE","BRONX","NY","10457",,"40.850597","-73.885759","POINT (-73.885759 40.850597)"
"112370","JASMINE GROCERY INC","317 ALEXANDER AVE","BRONX","NY","10454",,"40.811990","-73.924075","POINT (-73.924075 40.81199)"
"112369","CARE FIRST PHARMACY","91 W KINGSBRIDGE RD","BRONX","NY","10468",,"40.868372","-73.900767","POINT (-73.900767 40.868372)"
"112368","KARINA NEW YORK DELI CORP.","400 MAPLE AVE","WESTBURY","NY","11590",,"40.756031","-73.584637","POINT (-73.584637 40.756031)"
"112367","KHIZER 111 GAS CO INC","740 HEMPSTEAD TPKE","FRANKLIN SQUARE","NY","11010",,"40.707079","-73.667277","POINT (-73.667277 40.707079)"
"112366","FOOD UNIVERSE MARKET PLACE","700 WOODFIELD RD","WEST HEMPSTEAD","NY","11552","Y","40.685869","-73.652857","POINT (-73.652857 40.685869)"
"112365","CENTRAL AVE PHARMACY","65 CENTRAL AVE","ALBANY","NY","12206",,"42.659000","-73.765540","POINT (-73.76554 42.659)"
"112364","WIZE DELI GROCERY CORP","102-48 JAMAICA AVE","RICHMOND HILL","NY","11418",,"40.694992","-73.843517","POINT (-73.843517 40.694992)"
"112363","RYAN'S IRISH BAR & GRILL","22407 UNION TURNPIKE","OAKLAND GARDENS","NY","11364","Y","40.735994","-73.746397","POINT (-73.746397 40.735994)"
"112362","LAKE AVE PHARMACY","130 LAKE AVE","YONKERS","NY","10703",,"40.946839","-73.886690","POINT (-73.88669 40.946839)"
"112361","BEVERAGE STOP","482 MONTAUK HWY","EAST HAMPTON","NY","11937",,"40.968988","-72.159780","POINT (-72.15978 40.968988)"
"112360","KENMORE CONVENIENCE INC","2411 ELMWOOD AVE","BUFFALO","NY","14217",,"42.963064","-78.878260","POINT (-78.87826 42.963064)"
"112358","BROOKLYN CENTER PHARMACY","112 DEKALB AVE","BROOKLYN","NY","11201",,"40.689703","-73.978274","POINT (-73.978274 40.689703)"
"112356","MAHANT 391 INC","391 JERICHO TPKE","SYOSSET","NY","11791",,"40.810537","-73.502286","POINT (-73.502286 40.810537)"
"112355","MANHATTAN NEWS","10 MANHATTAN SQUARE DR STE 2","ROCHESTER","NY","14607",,"43.154332","-77.600509","POINT (-77.600509 43.154332)"
"112354","BARCODE","39 ROUTE 25A","MOUNT SINAI","NY","11766",,"40.933452","-73.034479","POINT (-73.034479 40.933452)"
"112353","AMITYVILLE CONVENIENCE INC","65 MERRICK RD STE F","AMITYVILLE","NY","11701",,"40.671163","-73.420690","POINT (-73.42069 40.671163)"
"112352","MILL STREET MART INC","195 MILL ST","POUGHKEEPSIE","NY","12601",,"41.707138","-73.931866","POINT (-73.931866 41.707138)"
"112350","JP AUTO SHOP LLC","39 JERICHO TPKE","JERICHO","NY","11753",,"40.777315","-73.564918","POINT (-73.564918 40.777315)"
"112347","7-ELEVEN #16050F","2140 MOTOR PKWY","HAUPPAUGE","NY","11788","Y","40.817422","-73.155171","POINT (-73.155171 40.817422)"
"112346","7-ELEVEN #24427C","3000 NORTH OCEAN AVE","FARMINGVILLE","NY","11738","Y","40.830527","-73.021305","POINT (-73.021305 40.830527)"
"112345","7-ELEVEN #25150C","450 COUNTY ROAD 111","MANORVILLE","NY","11949","Y","40.869041","-72.793864","POINT (-72.793864 40.869041)"
"112344","7-ELEVEN #23377D","876 JOHNSON AVE","RONKONKOMA","NY","11779","Y","40.807452","-73.124640","POINT (-73.12464 40.807452)"
"112342","RED OAKS MILL WINE AND LIQUOR","40 VASSAR RD","POUGHKEEPSIE","NY","12603",,"41.652926","-73.875902","POINT (-73.875902 41.652926)"
"112341","BEVERAGE AND SMOKE CONVENIENT","501 ROUTE 20","NEW LEBANON","NY","12125","Y","42.467247","-73.390132","POINT (-73.390132 42.467247)"
"112340","ANDY'S PIT STOP LLC","307 BROADWAY","NEWBURGH","NY","12550",,"41.500303","-74.021677","POINT (-74.021677 41.500303)"
"112339","DOCK STREET FRESH GOURMET DELI","31 DOCK ST","YONKERS","NY","10701",,"40.935656","-73.900026","POINT (-73.900026 40.935656)"
"112338","EMPIRE PUB LLC","2014 EMPIRE BLVD","WEBSTER","NY","14580","Y","43.195312","-77.500503","POINT (-77.500503 43.195312)"
"112337","NIAGARA'S CONVENIENCE MART INC","8628 NIAGARA FALLS BLVD","NIAGARA FALLS","NY","14304",,"43.091809","-78.964177","POINT (-78.964177 43.091809)"
"112336","SAM'S FOOD STORES","88 90 ACADEMY AVENUE","MIDDLETOWN","NY","10940",,"41.440176","-74.419587","POINT (-74.419587 41.440176)"
"112335","AMEER DELI GROCERY INC","215 W 3RD ST","MOUNT VERNON","NY","10550",,"40.905161","-73.843610","POINT (-73.84361 40.905161)"
"112334","UTICA GAS INC","5001 KINGS HWY","BROOKLYN","NY","11234",,"40.634950","-73.928254","POINT (-73.928254 40.63495)"
"112333","ORGANIC DELI FOOD MART INC.","2317 VOORHIES AVE","BROOKLYN","NY","11235",,"40.586869","-73.945357","POINT (-73.945357 40.586869)"
"112332","7-ELEVEN #15098E","805 MEDFORD AVE","PATCHOGUE","NY","11772",,"40.794230","-73.007191","POINT (-73.007191 40.79423)"
"112331","WESTERLO COUNTRY CORNER INC.","3664 COUNTY ROUTE 85","WESTERLO","NY","12193",,"42.414813","-73.996823","POINT (-73.996823 42.414813)"
"112330","SALEEM'S FOOD MART INC.","560 HOOSICK ST","TROY","NY","12180",,"42.739789","-73.657213","POINT (-73.657213 42.739789)"
"112329","CHOITHRAMS NY","400 W 42ND ST","NEW YORK","NY","10036",,"40.758386","-73.993158","POINT (-73.993158 40.758386)"
"112328","7-ELEVEN #11225G","286 W ROE BLVD","PATCHOGUE","NY","11772",,"40.774583","-73.027651","POINT (-73.027651 40.774583)"
"112327","7-ELEVEN #22644C","1050 OLD COUNTRY RD","RIVERHEAD","NY","11901",,"40.936850","-72.649650","POINT (-72.64965 40.93685)"
"112326","HARTSDALE TOBACCO & CANDY CORP","205 E HARTSDALE AVE","HARTSDALE","NY","10530",,"41.012046","-73.795889","POINT (-73.795889 41.012046)"
"112325","CHESTER'S LAST STAND","601 W BROADWAY","FULTON","NY","13069","Y","43.313936","-76.424295","POINT (-76.424295 43.313936)"
"112324","PENN YAN C-STORE INC","139 ELM ST","PENN YAN","NY","14527",,"42.660946","-77.055930","POINT (-77.05593 42.660946)"
"112323","AM FOOD TRUCK STOP INC","2544 COUNTY ROUTE 57","FULTON","NY","13069",,"43.338599","-76.415821","POINT (-76.415821 43.338599)"
"112322","LIQUOR UNIVERSE","1145 CENTRAL AVE","ALBANY","NY","12205",,"42.691734","-73.802688","POINT (-73.802688 42.691734)"
"112321","SHOPRITE GOURMET DELI","5802 4TH AVE","BROOKLYN","NY","11220",,"40.642087","-74.017626","POINT (-74.017626 40.642087)"
"112319","STOP ONE SUPERMARKET 4023 CORP","4023 CHURCH AVE","BROOKLYN","NY","11203",,"40.651492","-73.939248","POINT (-73.939248 40.651492)"
"112318","PAPA JUICE BAR NY CORP","438 NOSTRAND AVE","BROOKLYN","NY","11216",,"40.684165","-73.950469","POINT (-73.950469 40.684165)"
"112317","KESHI'S DELI INC","220 PORT RICHMOND AVE.","STATEN ISLAND","NY","10302",,"40.635901","-74.135132","POINT (-74.135132 40.635901)"
"112316","WOODY'S TAVERN","14 GROSSETT DR","KIRKWOOD","NY","13795","Y","42.085864","-75.816095","POINT (-75.816095 42.085864)"
"112314","CITY DELI AND CAFE","55-12 MYRTLE AVE","RIDGEWOOD","NY","11385","Y","40.699715","-73.907981","POINT (-73.907981 40.699715)"
"112311","REAZ & MAK INC","733 ROUTE 9","FISHKILL","NY","12524",,"41.537047","-73.900504","POINT (-73.900504 41.537047)"
"112310","THE LAST SHOT PUB AND GRUB LLC","2 ROBBINS RD","MIDDLETOWN","NY","10940","Y","41.496352","-74.483778","POINT (-74.483778 41.496352)"
"112307","SOODS DELI INC","36 JAMES ST","MIDDLETOWN","NY","10940",,"41.446471","-74.421318","POINT (-74.421318 41.446471)"
"112306","GIANNA MARIE INC","1595 ROUTE 82","HOPEWELL JUNCTION","NY","12533",,"41.624985","-73.775076","POINT (-73.775076 41.624985)"
"112305","688 FREEDOM PLAINS INC","688 FREEDOM PLAINS RD","POUGHKEEPSIE","NY","12603",,"41.680928","-73.884147","POINT (-73.884147 41.680928)"
"112304","MAZIGH CORP.","531 MAIN ST","POUGHKEEPSIE","NY","12601",,"41.700736","-73.917226","POINT (-73.917226 41.700736)"
"112303","BROADWAY SCHENECTADY PETROLEUM","2302 BROADWAY","SCHENECTADY","NY","12306",,"42.795822","-73.969535","POINT (-73.969535 42.795822)"
"112301","NEW TOWN 99 INC","3830 150TH ST","FLUSHING","NY","11354",,"40.763948","-73.814743","POINT (-73.814743 40.763948)"
"112299","ANTILLANA SUPERFOOD MARKETPLAC","2285 GRAND CONCOURSE","BRONX","NY","10453","Y","40.857103","-73.900529","POINT (-73.900529 40.857103)"
"112298","BLISS BAR AND GRILL","3396 SCHOOL ST","BLISS","NY","14024","Y","42.578874","-78.255515","POINT (-78.255515 42.578874)"
"112297","NIDHI NEWSSTANDS INC","23 W PARK AVE","LONG BEACH","NY","11561",,"40.588961","-73.664872","POINT (-73.664872 40.588961)"
"112296","J C DISCOUNT WINE AND LIQUOR","2315 CURRY RD","SCHENECTADY","NY","12303",,"42.771911","-73.947934","POINT (-73.947934 42.771911)"
"112295","189 KINGS PARK INC.","189 MAIN STREET","KINGS PARK","NY","11754",,"40.887811","-73.260616","POINT (-73.260616 40.887811)"
"112293","7-ELEVEN #19131C","1481 WILLIAM FLOYD PKWY","SHIRLEY","NY","11967",,"40.838182","-72.887045","POINT (-72.887045 40.838182)"
"112292","YOGI 20 CORP","20 FLOYD RD","SHIRLEY","NY","11967",,"40.796503","-72.863766","POINT (-72.863766 40.796503)"
"112290","KING 18 DELI & GRILL CORP","4416 18TH AVE","BROOKLYN","NY","11204",,"40.630742","-73.977738","POINT (-73.977738 40.630742)"
"112288","JOE'S KWIK MARTS #451","1701 UNION BLVD.","BAY SHORE","NY","11706","Y","40.724526","-73.251394","POINT (-73.251394 40.724526)"
"112287","JOE'S KWIK MARTS #482","933 W RIDGE RD","ROCHESTER","NY","14615","Y","43.203231","-77.651726","POINT (-77.651726 43.203231)"
"112286","JOE'S KWIK MARTS #474","951 NEW LOUDON RD","LATHAM","NY","12110",,"42.744150","-73.761779","POINT (-73.761779 42.74415)"
"112285","JOE'S KWIK MARTS #468","4350 DEWEY AVE","ROCHESTER","NY","14616",,"43.251012","-77.646798","POINT (-77.646798 43.251012)"
"112284","JOE'S KWIK MARTS #463","146 DELAWARE AVE","DELMAR","NY","12054",,"42.629136","-73.809785","POINT (-73.809785 42.629136)"
"112283","JOE'S KWIK MARTS #492","1910 EMPIRE BLVD","WEBSTER","NY","14580",,"43.189027","-77.504361","POINT (-77.504361 43.189027)"
"112282","JOE'S KWIK MARTS #470","3068 E HENRIETTA RD","HENRIETTA","NY","14467",,"43.059918","-77.612136","POINT (-77.612136 43.059918)"
"112281","JOE'S KWIK MARTS #484","3006 ROUTE 50","SARATOGA SPRINGS","NY","12866",,"43.098041","-73.749581","POINT (-73.749581 43.098041)"
"112280","JOE'S KWIK MARTS #485","5028 RIDGE ROAD WEST","SPENCERPORT","NY","14559","Y","43.218984","-77.793604","POINT (-77.793604 43.218984)"
"112279","JOE'S KWIK MARTS #464","7409 PITTSFORD PALMYRA RD","FAIRPORT","NY","14450",,"43.088242","-77.433811","POINT (-77.433811 43.088242)"
"112278","HUSCO","736 MAIN ST","ISLIP","NY","11751",,"40.729704","-73.208461","POINT (-73.208461 40.729704)"
"112277","MINI MARKET LA BODEGUITA ALEX","10205A 32ND AVE","EAST ELMHURST","NY","11369",,"40.759634","-73.866640","POINT (-73.86664 40.759634)"
"112276","ANTILLANA SUPERFOOD MARKET PLA","2185 WHITE PLAINS RD","BRONX","NY","10462","Y","40.856253","-73.867849","POINT (-73.867849 40.856253)"
"112275","KD BEER & SMOKE INC.","121 W MAIN ST","RIVERHEAD","NY","11901",,"40.916950","-72.664311","POINT (-72.664311 40.91695)"
"112273","JOE'S KWIK MARTS #480","711 S. MAIN ST.","SYRACUSE","NY","13212",,"43.123155","-76.141011","POINT (-76.141011 43.123155)"
"112272","JOE'S KWIK MARTS #487","685 HIAWATHA BLVD. WEST","SYRACUSE","NY","13204",,"43.063121","-76.175347","POINT (-76.175347 43.063121)"
"112271","JOE'S KWIK MARTS #481","1952 LYELL AVE","ROCHESTER","NY","14606","Y","43.164699","-77.678459","POINT (-77.678459 43.164699)"
"112270","JOE'S KWIK MARTS #493","819 RIDGE ROAD","WEBSTER","NY","14580","Y","43.204602","-77.475167","POINT (-77.475167 43.204602)"
"112269","JOE'S KWIK MARTS #486","758 ERIE BLVD. WEST","SYRACUSE","NY","13204",,"43.048093","-76.169937","POINT (-76.169937 43.048093)"
"112268","18 LUCKY MARKET INC","6802 18TH AVE","BROOKLYN","NY","11204","Y","40.617448","-73.992264","POINT (-73.992264 40.617448)"
"112267","EXTRA JUMBO MARKETPLACE","312 AUDUBON AVENUE","NEW YORK","NY","10033",,"40.848527","-73.932739","POINT (-73.932739 40.848527)"
"112266","SHREE BHAVANI1 INC","218 COLUMBIA ST","COHOES","NY","12047",,"42.772092","-73.713862","POINT (-73.713862 42.772092)"
"112265","TRISHA FENI NOVAH INC","101 W 4TH ST","JAMESTOWN","NY","14701",,"42.096693","-79.242983","POINT (-79.242983 42.096693)"
"112264","THIRD STREET LIQUORS AND WINES","455 3RD ST","NIAGARA FALLS","NY","14301",,"43.089971","-79.059140","POINT (-79.05914 43.089971)"
"112263","ZOOM FOOD AND FUEL CORP","4788 CRETE BLVD","PLATTSBURGH","NY","12901",,"44.674080","-73.462055","POINT (-73.462055 44.67408)"
"112262","A.M. PHARMACY II INC","223 GRAND ST","NEW YORK","NY","10013",,"40.718583","-73.995651","POINT (-73.995651 40.718583)"
"112261","WESTERN BEEF #46","994 MYRTLE AVE","BROOKLYN","NY","11206",,"40.696031","-73.941420","POINT (-73.94142 40.696031)"
"112260","PRAMUKH 2294 INC","2294 HEMPSTEAD TPKE","EAST MEADOW","NY","11554",,"40.724677","-73.551251","POINT (-73.551251 40.724677)"
"112258","PEACE PHARMACY INC","2366 UNIVERSITY AVE","BRONX","NY","10468",,"40.862455","-73.904738","POINT (-73.904738 40.862455)"
"112257","EXPRESS DELI","7902 PARSONS BLVD","FRESH MEADOWS","NY","11366",,"40.720548","-73.809545","POINT (-73.809545 40.720548)"
"112256","WALL ST GAS INC","234 WALL ST","HUNTINGTON","NY","11743",,"40.879731","-73.425031","POINT (-73.425031 40.879731)"
"112255","ROCKAWAY GOURMET DELI INC","13102 ROCKAWAY BLVD","SOUTH OZONE PARK","NY","11420",,"40.674602","-73.807256","POINT (-73.807256 40.674602)"
"112254","US FUEL","1146 MIDDLE COUNTRY RD","MIDDLE ISLAND","NY","11953",,"40.885466","-72.925705","POINT (-72.925705 40.885466)"
"112253","7-ELEVEN #37142J","66 S. FRANKLIN ST","HEMPSTEAD","NY","11550","Y","40.703312","-73.625224","POINT (-73.625224 40.703312)"
"112252","JOE'S KWIK MARTS #483","3001 WINTON RD","ROCHESTER","NY","14623","Y","43.087320","-77.582108","POINT (-77.582108 43.08732)"
"112251","JOE'S KWIK MARTS #467","6896 E. GENESEE ST.","FAYETTEVILLE","NY","13066",,"43.028281","-76.045126","POINT (-76.045126 43.028281)"
"112250","JOE'S KWIK MARTS #469","1877 WEST RIDGE RD","ROCHESTER","NY","14615","Y","43.206713","-77.667434","POINT (-77.667434 43.206713)"
"112249","UNCLE JOE DELI AND GROCERY COR","3323 CHURCH AVE","BROOKLYN","NY","11203",,"40.651161","-73.945915","POINT (-73.945915 40.651161)"
"112248","GOLDEN PRODUCE II LLC","2108 - 2110 GRAND CONCOURSE","BRONX","NY","10457",,"40.854385","-73.901624","POINT (-73.901624 40.854385)"
"112247","SHOMAHAR INC.","5015 SKILLMAN AVENUE","WOODSIDE","NY","11377",,"40.746251","-73.913663","POINT (-73.913663 40.746251)"
"112245","7-ELEVEN #36951H","179-55 HILLSIDE AVE.","JAMAICA","NY","11432",,"40.712832","-73.783136","POINT (-73.783136 40.712832)"
"112244","6TH AVE DELI DELIGHT CORP","7901 6TH AVE","BROOKLYN","NY","11209",,"40.624873","-74.021344","POINT (-74.021344 40.624873)"
"112241","ENTOURAGE CONVENIENCE STORE","327 NASSAU RD","ROOSEVELT","NY","11575",,"40.680720","-73.591144","POINT (-73.591144 40.68072)"
"112240","A&M SMOKE SHOP & DELI LLC","27 COYLE PLACE","YONKERS","NY","10705",,"40.912487","-73.890206","POINT (-73.890206 40.912487)"
"112239","KITTY MULLIGANS","615 E MAIN ST","BAY SHORE","NY","11706","Y","40.728474","-73.227782","POINT (-73.227782 40.728474)"
"112238","AMEER FOOD GROCERY CORP","1964 GRAND CONCOURSE","BRONX","NY","10457",,"40.850824","-73.904349","POINT (-73.904349 40.850824)"
"112237","DOUBLE L TAVERN","4 WEST VILLAGE GREEN","HICKSVILLE","NY","11801","Y","40.745022","-73.533726","POINT (-73.533726 40.745022)"
"112236","MAHADAV ENTERPRISES INC","5818 BROADWAY","BRONX","NY","10463",,"40.884817","-73.900568","POINT (-73.900568 40.884817)"
"112235","SAYVILLE BAIT & TACKLE LLC","220 N MAIN ST","SAYVILLE","NY","11782","Y","40.739139","-73.079110","POINT (-73.07911 40.739139)"
"112233","JOE'S KWIK MARTS #475","4803 W. TAFT RD.","LIVERPOOL","NY","13088","Y","43.120695","-76.182865","POINT (-76.182865 43.120695)"
"112232","JOE'S KWIK MARTS #460","6640 CLINTON ST.","ELMA","NY","14059",,"42.855635","-78.640373","POINT (-78.640373 42.855635)"
"112231","JOE'S KWIK MARTS #488","400 ERIE BLVD. EAST","SYRACUSE","NY","13202",,"43.050815","-76.147201","POINT (-76.147201 43.050815)"
"112230","JOE'S KWIK MARTS #490","3085 DELAWARE AVE","BUFFALO","NY","14217",,"42.968293","-78.870696","POINT (-78.870696 42.968293)"
"112229","JOE'S KWIK MARTS #476","4031 NYS RTE. 31","LIVERPOOL","NY","13090",,"43.185492","-76.234989","POINT (-76.234989 43.185492)"
"112228","BRIGHTON GOURMET DELI INC.","606 BRIGHTON BEACH AVE","BROOKLYN","NY","11235",,"40.577414","-73.961163","POINT (-73.961163 40.577414)"
"112227","MARIA'S FOOD MART & CONVENIENC","49 UNION ST","SIDNEY","NY","13838",,"42.308287","-75.393663","POINT (-75.393663 42.308287)"
"112226","DKRJ LLC","57 FALL ST","SENECA FALLS","NY","13148","Y","42.910079","-76.796586","POINT (-76.796586 42.910079)"
"112225","CAL'S CONVENIENCE INC","890 CENTER ST","LEWISTON","NY","14092",,"43.172961","-79.032495","POINT (-79.032495 43.172961)"
"112224","BEDFORD SNACK SHOP INC","193 POUND RIDGE RD","BEDFORD","NY","10506",,"41.202329","-73.628048","POINT (-73.628048 41.202329)"
"112223","POPER LIQUORS INC.","11708 ROCKAWAY BLVD","SOUTH OZONE PARK","NY","11420",,"40.676089","-73.820746","POINT (-73.820746 40.676089)"
"112221","JOE'S KWIK MARTS #462","300 MAPLE AVE","ELMIRA","NY","14904","Y","42.085870","-76.798473","POINT (-76.798473 42.08587)"
"112220","JOE'S KWIK MARTS #494","5300 MAIN ST.","BUFFALO","NY","14221",,"42.960998","-78.756314","POINT (-78.756314 42.960998)"
"112219","JOE'S KWIK MARTS #452","697 ORCHARD PARK RD","BUFFALO","NY","14224",,"42.827088","-78.775781","POINT (-78.775781 42.827088)"
"112218","JOE'S KWIK MARTS #491","1268 ARSENAL ST","WATERTOWN","NY","13601","Y","43.976159","-75.945601","POINT (-75.945601 43.976159)"
"112217","JOE'S KWIK MARTS #455","642 CLEVELAND DR","BUFFALO","NY","14225",,"42.944964","-78.775680","POINT (-78.77568 42.944964)"
"112216","JOE'S KWIK MARTS #457","152 CLINTON AVE","CORTLAND","NY","13045","Y","42.606556","-76.167694","POINT (-76.167694 42.606556)"
"112214","SAMMY QUICK STOP","361 WALNUT ST","ELMIRA","NY","14901",,"42.088468","-76.818535","POINT (-76.818535 42.088468)"
"112212","FUN CITY MINI MARKET INC","255 JAY ST","ROCHESTER","NY","14608",,"43.159317","-77.626646","POINT (-77.626646 43.159317)"
"112211","LAKE GEORGE XTRA MART #690","3586 STATE ROUTE 9","LAKE GEORGE","NY","12845","Y","43.426181","-73.712341","POINT (-73.712341 43.426181)"
"112210","SMILEY FOOD MART","327 N MIDDLETOWN RD","PEARL RIVER","NY","10965",,"41.071032","-74.013393","POINT (-74.013393 41.071032)"
"112209","CITY PHARMACY","13358 41ST RD","FLUSHING","NY","11355",,"40.757155","-73.829575","POINT (-73.829575 40.757155)"
"112208","SMITHTOWN FUEL INC.","377 VETERANS HWY","SMITHTOWN","NY","11787",,"40.832639","-73.258523","POINT (-73.258523 40.832639)"
"112207","JAHAAN'S FOOD MART INC","718 FREEDOM PLAINS RD","POUGHKEEPSIE","NY","12603",,"41.669324","-73.838236","POINT (-73.838236 41.669324)"
"112206","7-ELEVEN #38159A","640 PINE AIRE DR.","BAY SHORE","NY","11706","Y","40.769789","-73.290711","POINT (-73.290711 40.769789)"
"112205","LUCKY 4502 GROCERY INC","4502 6TH AVE","BROOKLYN","NY","11220",,"40.646625","-74.005507","POINT (-74.005507 40.646625)"
"112204","THE LIEUTENANT SPIRITS WINE &","7020 NEW UTRECHT AVE","BROOKLYN","NY","11228",,"40.619287","-73.999176","POINT (-73.999176 40.619287)"
"112203","PRINGLE'S PLACE","1220 WASHINGTON AVE. BLDG 4","ALBANY","NY","12226",,"42.678675","-73.809935","POINT (-73.809935 42.678675)"
"112202","BOLLA 901 HILLSIDE C-STORE","901 HILLSIDE AVE","NEW HYDE PARK","NY","11040",,"40.743826","-73.693385","POINT (-73.693385 40.743826)"
"112200","MOUNTAIN MART #112","5556 STATE ROUTE 11","ELLENBURG CENTER","NY","12934","Y","44.892885","-73.839299","POINT (-73.839299 44.892885)"
"112198","ROYAL SMOKE N CONVENIENCE INC","3316 ROUTE 112 UNIT A","MEDFORD","NY","11763",,"40.843849","-72.997531","POINT (-72.997531 40.843849)"
"112196","RICHMOND WINE & LIQUOR INC","3275 RICHMOND AVE","STATEN ISLAND","NY","10312",,"40.559635","-74.168391","POINT (-74.168391 40.559635)"
"112195","SOUNDVIEW DELI AND MARKET LLC","1980 GILDERSLEEVE AVE","BRONX","NY","10473",,"40.809517","-73.851898","POINT (-73.851898 40.809517)"
"112194","SJS PHARMACY","105 E BURNSIDE AVE","BRONX","NY","10453","Y","40.853157","-73.905271","POINT (-73.905271 40.853157)"
"112192","301 PINTO'S DELI INC.","2737 ROUTE 301","CARMEL","NY","10512",,"41.457080","-73.753676","POINT (-73.753676 41.45708)"
"112191","RIVER MINI MARKET INC","4660 DEWEY AVE","ROCHESTER","NY","14612",,"43.263351","-77.646095","POINT (-77.646095 43.263351)"
"112190","JOE'S KWIK MARTS #459","56 HAMBURG ST.","EAST AURORA","NY","14052","Y","42.766588","-78.629952","POINT (-78.629952 42.766588)"
"112189","JOE'S KWIK MARTS #471","31 S. WEST ST.","HOMER","NY","13077","Y","42.633695","-76.191138","POINT (-76.191138 42.633695)"
"112188","JOE'S KWIK MARTS #472","2080 ABBOTT RD","BUFFALO","NY","14218","Y","42.808483","-78.798450","POINT (-78.79845 42.808483)"
"112187","JOE'S KWIK MARTS #479","6724 WILLIAMS RD","NIAGARA FALLS","NY","14304",,"43.098264","-78.940888","POINT (-78.940888 43.098264)"
"112186","JOE'S KWIK MARTS #456","8925 MAIN ST.","CLARENCE","NY","14031","Y","42.967144","-78.659585","POINT (-78.659585 42.967144)"
"112185","CLYDE'S","164 ROUTE 25A","MOUNT SINAI","NY","11766","Y","40.933268","-73.034746","POINT (-73.034746 40.933268)"
"112184","SHREEJI 312 INC","312 MAIN ST","HUNTINGTON","NY","11743",,"40.882482","-73.385847","POINT (-73.385847 40.882482)"
"112182","NAS DELI AND GRILL CORP","2140 MOTT AVE","FAR ROCKAWAY","NY","11691",,"40.605304","-73.754628","POINT (-73.754628 40.605304)"
"112179","GULYANA INC","21201 HILLSIDE AVE","QUEENS VILLAGE","NY","11427",,"40.725035","-73.754104","POINT (-73.754104 40.725035)"
"112178","JAMAICA GAS STOP LLC","18433 JAMAICA AVE","HOLLIS","NY","11423",,"40.709666","-73.774875","POINT (-73.774875 40.709666)"
"112176","BEECHMONT TAVERN","750 NORTH AVE","NEW ROCHELLE","NY","10801","Y","40.926914","-73.789383","POINT (-73.789383 40.926914)"
"112173","BIG APPLE BUSINESS CORP INC","3170 ATLANTIC AVE","BROOKLYN","NY","11208",,"40.679481","-73.877960","POINT (-73.87796 40.679481)"
"112171","LAI FU 88 GROCERY INC","2102 BATH AVE","BROOKLYN","NY","11214",,"40.599767","-73.999479","POINT (-73.999479 40.599767)"
"112170","BYRNE DAIRY #135","7456 MORGAN RD","LIVERPOOL","NY","13090","Y","43.131354","-76.205726","POINT (-76.205726 43.131354)"
"112169","BYRNE DAIRY #138","528-538 PENNSYLVANIA AVE","ELMIRA","NY","14904","Y","42.075678","-76.804361","POINT (-76.804361 42.075678)"
"112167","CHARLIE & FRANK DELI GROCERY I","1550 MEADOWBROOK RD","MERRICK","NY","11566",,"40.680488","-73.570257","POINT (-73.570257 40.680488)"
"112166","7-ELEVEN #38431B","5650 SUNRISE HWY","SAYVILLE","NY","11782","Y","40.766130","-73.073270","POINT (-73.07327 40.76613)"
"112165","7-ELEVEN #11153D","294 GUY LOMBARDO AVE","FREEPORT","NY","11520",,"40.647043","-73.583310","POINT (-73.58331 40.647043)"
"112164","JOE'S KWIK MARTS #461","661 JAMISON RD","ELMA","NY","14059",,"42.805144","-78.636852","POINT (-78.636852 42.805144)"
"112163","JOE'S KWIK MARTS #454","5114 TRANSIT RD","DEPEW","NY","14043",,"42.892127","-78.696980","POINT (-78.69698 42.892127)"
"112162","JOE'S KWIK MARTS #458","1199 FRENCH RD.","DEPEW","NY","14043","Y","42.867843","-78.707897","POINT (-78.707897 42.867843)"
"112161","JOE'S KWIK MARTS #450","1555 N FRENCH RD","GETZVILLE","NY","14068","Y","43.034795","-78.767225","POINT (-78.767225 43.034795)"
"112160","JOE'S KWIK MARTS #473","4221 WALDEN AVE","LANCASTER","NY","14086","Y","42.923838","-78.621103","POINT (-78.621103 42.923838)"
"112159","JOE'S KWIK MARTS #466","1801 N. OCEAN AVE.","FARMINGVILLE","NY","11738",,"40.824204","-73.020400","POINT (-73.0204 40.824204)"
"112158","7-ELEVEN STORE #39287A","330 BECKER DR","SCHENECTADY","NY","12306","Y","42.780008","-74.029175","POINT (-74.029175 42.780008)"
"112157","LAKE FOOD MART LLC","2691 MIDDLE COUNTRY RD","LAKE GROVE","NY","11755",,"40.859354","-73.108441","POINT (-73.108441 40.859354)"
"112156","SHELL MYERS FOOD MART","233 MYERS CORNERS RD","WAPPINGERS FALLS","NY","12590","Y","41.606860","-73.867440","POINT (-73.86744 41.60686)"
"112153","7-ELEVEN # 33261B","3993 AUSTIN BLVD","ISLAND PARK","NY","11558","Y","40.612445","-73.643988","POINT (-73.643988 40.612445)"
"112152","S. J. BEER AND SMOKE INC.","1805 DEER PARK AVE","DEER PARK","NY","11729",,"40.757796","-73.327140","POINT (-73.32714 40.757796)"
"112151","NEW TIAN YUN INC","293 KINGS HWY","BROOKLYN","NY","11223",,"40.605368","-73.979693","POINT (-73.979693 40.605368)"
"112149","GND2 FOOD MART INC","67 CROTON POINT AVE","CROTON ON HUDSON","NY","10520",,"41.193678","-73.880721","POINT (-73.880721 41.193678)"
"112148","JK 3 FOOD MART","976 PARKSVILLE RD","PARKSVILLE","NY","12768","Y","41.861466","-74.783108","POINT (-74.783108 41.861466)"
"112147","MINI MART 786 DELI GROCERY INC","30 MOUNT VERNON AVE","MOUNT VERNON","NY","10550",,"40.910824","-73.845410","POINT (-73.84541 40.910824)"
"112146","R & K POUGHKEEPSIE GROCERY II","144 MILL ST","POUGHKEEPSIE","NY","12601",,"41.707522","-73.934535","POINT (-73.934535 41.707522)"
"112145","FOOD WORLD SUPERMARKET","937 E 107TH ST","BROOKLYN","NY","11236","Y","40.648014","-73.892527","POINT (-73.892527 40.648014)"
"112144","SIP SIP HOORAY WINES & LIQUORS","1 DESTINY USA DR","SYRACUSE","NY","13204",,"43.069641","-76.173079","POINT (-76.173079 43.069641)"
"112143","XPRESS MART","63 BRIDGE ST","PLATTSBURGH","NY","12901",,"44.697583","-73.450098","POINT (-73.450098 44.697583)"
"112140","CLARKSON DELI LLC","902 CLARKSON AVE","BROOKLYN","NY","11203",,"40.656564","-73.927647","POINT (-73.927647 40.656564)"
"112139","JR FOOD DELI & GRILL INC","18427 JAMAICA AVE","HOLLIS","NY","11423",,"40.709622","-73.775167","POINT (-73.775167 40.709622)"
"112138","GOOD THYMES PUB & GRUB","12 SKYWAY PLAZA","PLATTSBURGH","NY","12901","Y","44.679736","-73.451105","POINT (-73.451105 44.679736)"
"112137","7-ELEVEN#39992A","673 8TH AVE","NEW YORK","NY","10036",,"40.757767","-73.989626","POINT (-73.989626 40.757767)"
"112136","7-ELEVEN #39516A","800 6TH AVE","NEW YORK","NY","10001",,"40.745342","-73.990486","POINT (-73.990486 40.745342)"
"112135","7-ELEVEN #11173J","475 MERRICK RD","OCEANSIDE","NY","11572","Y","40.653418","-73.623197","POINT (-73.623197 40.653418)"
"112134","ANGAD GAS INC.","225 HIGBIE LN","WEST ISLIP","NY","11795",,"40.708368","-73.305873","POINT (-73.305873 40.708368)"
"112133","MI PUEBLO GROCERY","2939 FULTON ST","BROOKLYN","NY","11207",,"40.679585","-73.886260","POINT (-73.88626 40.679585)"
"112131","VERSUS SPORTS BAR","611 PORTWASHINGTON BLVD.","PORT WASHINGTON","NY","11050","Y","40.825116","-73.682220","POINT (-73.68222 40.825116)"
"112130","BM PETRO NY INC","2 CHURCH ST","NASSAU","NY","12123",,"42.515806","-73.609461","POINT (-73.609461 42.515806)"
"112129","1854 TAVERN LLC","150 CANAL ST","CANASTOTA","NY","13032","Y","43.079727","-75.752864","POINT (-75.752864 43.079727)"
"112128","700 SUFFOLK PRODUCE MARKET COR","700 SUFFOLK AVE","BRENTWOOD","NY","11717","Y","40.779990","-73.249333","POINT (-73.249333 40.77999)"
"112127","HARP & HOUND","528 MAIN ST","ISLIP","NY","11751","Y","40.729108","-73.213392","POINT (-73.213392 40.729108)"
"112126","SAHADEVAM LLC","435 SING SING RD","HORSEHEADS","NY","14845","Y","42.172039","-76.890951","POINT (-76.890951 42.172039)"
"112124","71 VIRGINIA ROAD MART INC","71 VIRGINIA RD","WHITE PLAINS","NY","10603",,"41.063257","-73.775284","POINT (-73.775284 41.063257)"
"112123","100 ROUTE 17 INC.","100 ROUTE 17K","NEWBURGH","NY","12550",,"41.506763","-74.077721","POINT (-74.077721 41.506763)"
"112122","HAVERSTRAW ELKS","877 ELKS DR","HAVERSTRAW","NY","10927","Y","41.194173","-73.960292","POINT (-73.960292 41.194173)"
"112121","7909 DELI AND GROCERY CORP","7909 ROCKAWAY BLVD","WOODHAVEN","NY","11421",,"40.685016","-73.860999","POINT (-73.860999 40.685016)"
"112112","LA MINA GROCERY & DELI","731 MAIN ST","NEW ROCHELLE","NY","10801","Y","40.903496","-73.789420","POINT (-73.78942 40.903496)"
"112111","SRG CONVENIENCE & GROCERY INC","360 W OLD COUNTRY ROAD","HICKSVILLE","NY","11801",,"40.759590","-73.538527","POINT (-73.538527 40.75959)"
"112110","AAA VALLEY STREAM GAS INC","192 E SUNRISE HWY","VALLEY STREAM","NY","11581",,"40.657609","-73.691234","POINT (-73.691234 40.657609)"
"112109","DIAMOND ARROW CORPORATION","1525 MONTAUK HWY","MASTIC","NY","11950",,"40.806363","-72.843836","POINT (-72.843836 40.806363)"
"112108","A TO Z CONVENIENCE & SMOKE","579-581 WEST JERICHO TURNPIKE","HUNTINGTON","NY","11743",,"40.828367","-73.432822","POINT (-73.432822 40.828367)"
"112107","SMITHTOWN PETROLEUM LLC","294 SMITHTOWN BLVD","NESCONSET","NY","11767",,"40.832142","-73.139895","POINT (-73.139895 40.832142)"
"112105","RIVERSIDE AT MAGGIES LLC","500 NEWELL ST","WATERTOWN","NY","13601","Y","43.981428","-75.917787","POINT (-75.917787 43.981428)"
"112104","STOP & SHOP #2571","101 MARKET ST","NANUET","NY","10954","Y","41.097226","-74.018429","POINT (-74.018429 41.097226)"
"112103","JJ'S PUB","669 N WINTON RD","ROCHESTER","NY","14609","Y","43.158472","-77.548542","POINT (-77.548542 43.158472)"
"112102","MICHAEL JOHN'S GAS N GO","290 MAIN ST","HORNELL","NY","14843",,"42.324467","-77.652185","POINT (-77.652185 42.324467)"
"112101","RAY MARKET II INC","1032 WEST AVE","BUFFALO","NY","14213","Y","42.918452","-78.897260","POINT (-78.89726 42.918452)"
"112100","7-ELEVEN #38159H","640 PINE AIRE DR","BAY SHORE","NY","11706","Y","40.769789","-73.290711","POINT (-73.290711 40.769789)"
"112099","7-ELEVEN # 16432E","174 HIGBIE LANE","WEST ISLIP","NY","11795",,"40.706200","-73.306547","POINT (-73.306547 40.7062)"
"112097","MARLY 2 GROCERY CORP.","4238 WHITE PLAINS RD","BRONX","NY","10466",,"40.894533","-73.856510","POINT (-73.85651 40.894533)"
"112095","THE LAFAYETTE INN","2419 US ROUTE 11","LA FAYETTE","NY","13084","Y","42.888663","-76.106347","POINT (-76.106347 42.888663)"
"112094","NORTH OIL CORPORATION","1670 VETERANS HWY","ISLANDIA","NY","11749",,"40.806348","-73.182439","POINT (-73.182439 40.806348)"
"112093","PAPAFIN DELI GROCERY INC.","2172 AMSTERDAM AVE","NEW YORK","NY","10032",,"40.839683","-73.937342","POINT (-73.937342 40.839683)"
"112092","FAMILY CARE PHARMACY","2518 ADAM CLAYTON POWELL JR BL","NEW YORK","NY","10039",,"40.822298","-73.938928","POINT (-73.938928 40.822298)"
"112091","CP MINI MARKET CORP.","101 AUDUBON AVE","NEW YORK","NY","10032",,"40.841799","-73.937179","POINT (-73.937179 40.841799)"
"112089","AKSHAN WINE & LIQUOR","1100 WAVERLY AVE STE 12","HOLTSVILLE","NY","11742",,"40.822328","-73.046657","POINT (-73.046657 40.822328)"
"112088","B & P AUTO SERVICES II","209 TERRY RD","SMITHTOWN","NY","11787",,"40.841891","-73.168316","POINT (-73.168316 40.841891)"
"112087","VISAT ONE STOP INC.","57 STATE ROUTE 296","WINDHAM","NY","12496",,"42.304861","-74.229489","POINT (-74.229489 42.304861)"
"112086","FAMCO 7 LLC","510 STATE FAIR BLVD","SYRACUSE","NY","13204",,"43.059562","-76.182150","POINT (-76.18215 43.059562)"
"112085","WN GAS MART INC","1266 E DELAVAN AVE","BUFFALO","NY","14215",,"42.922864","-78.810101","POINT (-78.810101 42.922864)"
"112082","QUENCH LIQUORS","90 W MAIN ST","PATCHOGUE","NY","11772",,"40.765476","-73.017387","POINT (-73.017387 40.765476)"
"112081","MCNIKKI'S TIME OUT LOUNGE","532 HULL RD","GOUVERNEUR","NY","13642","Y","44.305248","-75.445486","POINT (-75.445486 44.305248)"
"112080","7-ELEVEN #39291C","1200 VICTORY BLVD","STATEN ISLAND","NY","10301",,"40.616234","-74.103735","POINT (-74.103735 40.616234)"
"112079","FLEISCHMANNS SUPERMARKET","1050 MAIN ST","FLEISCHMANNS","NY","12430","Y","42.156380","-74.528420","POINT (-74.52842 42.15638)"
"112078","JAMES THOMAS JENKINS INC","876 CHURCH ST","BOHEMIA","NY","11716","Y","40.768946","-73.112983","POINT (-73.112983 40.768946)"
"112077","R&K WINES AND LIQUORS","570 STEWART AVE","BETHPAGE","NY","11714",,"40.743294","-73.480932","POINT (-73.480932 40.743294)"
"112076","FREEPORT FUEL CORP","229 N MAIN ST","FREEPORT","NY","11520",,"40.664947","-73.586951","POINT (-73.586951 40.664947)"
"112075","M & Z DELI 1 CORP","185 AVENUE C","NEW YORK","NY","10009",,"40.726870","-73.977154","POINT (-73.977154 40.72687)"
"112073","RIDGE VALLEY INC","68 OLD TEMPLE HILL RD","NEW WINDSOR","NY","12553",,"41.456399","-74.056857","POINT (-74.056857 41.456399)"
"112072","JOE'S KWIK MARTS #477","285 WADING RIVER ROAD","MANORVILLE","NY","11949","Y","40.832971","-72.809474","POINT (-72.809474 40.832971)"
"112071","JOE'S KWIK MARTS #478","1215 ROUTE 300","NEWBURGH","NY","12550","Y","41.536946","-74.062571","POINT (-74.062571 41.536946)"
"112070","JOE'S KWIK MARTS #465","6180 COLLETT RD.","FARMINGTON","NY","14425","Y","42.983802","-77.363879","POINT (-77.363879 42.983802)"
"112069","JOE'S KWIK MARTS #453","1338 ROUTE 52","CARMEL","NY","10512","Y","41.456687","-73.670381","POINT (-73.670381 41.456687)"
"112068","JOE'S KWIK MARTS #489","386 S BROADWAY","TARRYTOWN","NY","10591",,"41.063468","-73.862274","POINT (-73.862274 41.063468)"
"112065","HENRY'S DELI MARKET CORP","10202 43RD AVE","CORONA","NY","11368",,"40.747009","-73.862574","POINT (-73.862574 40.747009)"
"112062","JAS CHICKEN BURGER GYRO","578 RALPH AVENUE","BROOKLYN","NY","11233",,"40.669395","-73.922834","POINT (-73.922834 40.669395)"
"112060","7-ELEVEN #38253A","3215 MERRICK RD","WANTAGH","NY","11793","Y","40.664502","-73.520828","POINT (-73.520828 40.664502)"
"112059","HOOPS AND SHOT'S BAR AND GRILL","401 SUNRISE HWY","WEST ISLIP","NY","11795","Y","40.722594","-73.297330","POINT (-73.29733 40.722594)"
"112058","FAST FOOD & GAS INC.","2 FIELDS LN","NORTH SALEM","NY","10560",,"41.348321","-73.647519","POINT (-73.647519 41.348321)"
"112057","S & V CONVENIENCE INC","51 W MAIN ST","SMITHTOWN","NY","11787",,"40.855045","-73.196561","POINT (-73.196561 40.855045)"
"112056","7-ELEVEN 16258H","540 ROUTE 109","LINDENHURST","NY","11757",,"40.712700","-73.374395","POINT (-73.374395 40.7127)"
"112055","7-ELEVEN #41113H","37 E MAIN ST","ELMSFORD","NY","10523","Y","41.054317","-73.817547","POINT (-73.817547 41.054317)"
"112054","QV PHARMACY4","214-09 JAMAICA AVE","QUEENS VILLAGE","NY","11428",,"40.716586","-73.743628","POINT (-73.743628 40.716586)"
"112052","WINES & LIQUORS","47-31/33 JUNCTION BOULEVARD","CORONA","NY","11368",,"40.742435","-73.867324","POINT (-73.867324 40.742435)"
"112051","82ND CONVENIENCE STORE CORP","82-02 ROOSVELT AVE","JACKSON HEIGHTS","NY","11372",,"40.747459","-73.883714","POINT (-73.883714 40.747459)"
"112050","A & S MORNINGSTAR CORP","127 MORNINGSTAR RD","STATEN ISLAND","NY","10303",,"40.634965","-74.145513","POINT (-74.145513 40.634965)"
"112048","THE LITTLE MARKET AT FIVE POIN","42 PARK PLACE","SARATOGA SPRINGS","NY","12866",,"43.073967","-73.781065","POINT (-73.781065 43.073967)"
"112047","JSM QUICK SHOP INC","1144 ROUTE 55","LAGRANGEVILLE","NY","12540","Y","41.671000","-73.797840","POINT (-73.79784 41.671)"
"112046","D&B BEER AND SMOKE INC.","4509 A SUNRISE HWY","BOHEMIA","NY","11716",,"40.753813","-73.119972","POINT (-73.119972 40.753813)"
"112045","SOUND AVENUE DELI","5087 SOUND AVE","RIVERHEAD","NY","11901",,"40.967760","-72.626796","POINT (-72.626796 40.96776)"
"112043","145 FOOD PLAZA CORP","701 LENOX AVE","NEW YORK","NY","10039",,"40.820794","-73.936475","POINT (-73.936475 40.820794)"
"112042","R & S MARINE AVENUE CORP","9801 3RD AVE","BROOKLYN","NY","11209",,"40.614756","-74.034457","POINT (-74.034457 40.614756)"
"112037","3MS SANDBAR LLC","8461 STATE ROUTE 3","PULASKI","NY","13142","Y","43.632760","-76.153784","POINT (-76.153784 43.63276)"
"112036","MERRITTS ROAD VALERO","229 MERRITTS RD","FARMINGDALE","NY","11735",,"40.721099","-73.457750","POINT (-73.45775 40.721099)"
"112035","VALLEY COTTAGE CIGAR SHOP INC","114 NORTH COUNTY CENTER","GOLDENS BRIDGE","NY","10526",,"41.293449","-73.675514","POINT (-73.675514 41.293449)"
"112034","SMITH STREET MART INC","108 SMITH ST","POUGHKEEPSIE","NY","12601",,"40.690364","-73.840687","POINT (-73.840687 40.690364)"
"112033","MIRABITO #5- COMMONS","33 SOUTH WASHINGTON ST","BINGHAMTON","NY","13903","Y","42.090246","-75.913670","POINT (-75.91367 42.090246)"
"112031","BYRNE DAIRY #132","1305 MAIDEN LANE","ROCHESTER","NY","14626","Y","43.223498","-77.677394","POINT (-77.677394 43.223498)"
"112030","LA BELLA FOODS LLC","6 YOUNG AVENUE","YONKERS","NY","10710",,"40.981930","-73.830110","POINT (-73.83011 40.98193)"
"112029","MUMTAZ & SONS INC","791 NEW SCOTLAND AVE","ALBANY","NY","12208",,"42.658382","-73.814924","POINT (-73.814924 42.658382)"
"112025","ALISAN 2 CORP.","153 MIDDLE COUNTRY RD","RIDGE","NY","11961",,"40.908994","-72.846545","POINT (-72.846545 40.908994)"
"112024","SULLY'S TAVERN","214 MAPLE ST","GLENS FALLS","NY","12801","Y","43.312294","-73.633716","POINT (-73.633716 43.312294)"
"112023","LULU'S LOBSTER INNE","91 HOWELLS RD","BRIGHTWATERS","NY","11718","Y","40.730474","-73.263268","POINT (-73.263268 40.730474)"
"112021","SAIKRUPA DELI & GROCERY INC","1021 ELMONT RD","VALLEY STREAM","NY","11580",,"40.685024","-73.724484","POINT (-73.724484 40.685024)"
"112020","BOURBON & BREWS","361 MERRICK AVE","MERRICK","NY","11566","Y","40.675776","-73.557440","POINT (-73.55744 40.675776)"
"112018","MARIO'S ITALIAN RESTAURANT","212 MAIN ST","EAST SETAUKET","NY","11733","Y","40.942124","-73.103697","POINT (-73.103697 40.942124)"
"112016","FUTURO DELI","2375 2ND AVE","NEW YORK","NY","10035",,"40.800842","-73.935378","POINT (-73.935378 40.800842)"
"112015","PEREZ ALMONTE MEAT MARKET","10648 SUTPHIN BLVD","JAMAICA","NY","11435",,"40.694044","-73.801710","POINT (-73.80171 40.694044)"
"112014","NIAGARA FOOD & DELI INC","259 NIAGARA ST","BUFFALO","NY","14201",,"42.891500","-78.882920","POINT (-78.88292 42.8915)"
"112013","SUNSHINE MINI MART INC","691 BAY ST","ROCHESTER","NY","14609",,"43.170804","-77.574916","POINT (-77.574916 43.170804)"
"112011","BTB WOOD FIRED BAR & GRILL","134 GREECE RIDGE CENTER DR","ROCHESTER","NY","14626","Y","43.206500","-77.687533","POINT (-77.687533 43.2065)"
"112010","7-ELEVEN #39640","110 CHURCH ST","NEW YORK","NY","10007",,"40.713507","-74.009269","POINT (-74.009269 40.713507)"
"112009","FRANKLIN EXPRESS MULTISERVICE","20 BRYANT AVE","ROSLYN","NY","11576",,"40.803831","-73.646501","POINT (-73.646501 40.803831)"
"112008","BHUMI BEER & SMOKE INC","949 MONTAUK HWY STE C","OAKDALE","NY","11769",,"40.738388","-73.120279","POINT (-73.120279 40.738388)"
"112007","6002 GAS CORP","6002 18TH AVE","BROOKLYN","NY","11204",,"40.622038","-73.987708","POINT (-73.987708 40.622038)"
"112005","3 WAY DELI GROCERY CORP","1106 E 216TH ST","BRONX","NY","10469",,"40.877753","-73.853017","POINT (-73.853017 40.877753)"
"112004","FRANCIS LEWIS PHARMACY INC","3333 FRANCIS LEWIS BLVD","FLUSHING","NY","11358",,"40.766662","-73.789658","POINT (-73.789658 40.766662)"
"112002","WILSON'S DELI & GRILL CORP","366 WILSON AVE","BROOKLYN","NY","11221",,"40.694935","-73.916023","POINT (-73.916023 40.694935)"
"112001","ARTHURS'S COTTAGE HOTEL","19 S MAIN ST","DOLGEVILLE","NY","13329","Y","43.101010","-74.771600","POINT (-74.7716 43.10101)"
"112000","XPRESS MARKET TO GO","1273 DEER PARK AVE","NORTH BABYLON","NY","11703",,"40.739248","-73.320316","POINT (-73.320316 40.739248)"
"111999","ERIC BAGEL & DELI INC","6504 CENTRAL AVE","RIDGEWOOD","NY","11385",,"40.702182","-73.890437","POINT (-73.890437 40.702182)"
"111997","1671 GROCERY INC","1671 ISLIP AVE SUITE #A","CENTRAL ISLIP","NY","11722",,"40.762559","-73.209974","POINT (-73.209974 40.762559)"
"111996","KINGS COMMACK C-STORE","2207 JERICHO TPKE","COMMACK","NY","11725",,"40.842825","-73.288637","POINT (-73.288637 40.842825)"
"111994","CITY ISLAND DISCOUNT","250 CITY ISLAND AVE","BRONX","NY","10464",,"40.845603","-73.785608","POINT (-73.785608 40.845603)"
"111992","S&B JOY LLC","177 W MAIN ST","SHERMAN","NY","14781",,"42.158256","-79.601508","POINT (-79.601508 42.158256)"
"111991","HIGHLAND MART INC","3600 US HIGHWAY 9W","HIGHLAND","NY","12528","Y","41.711075","-73.964666","POINT (-73.964666 41.711075)"
"111990","BRANDEN SOLO DELI CORP","407 NOSTRAND AVE","BROOKLYN","NY","11216",,"40.683680","-73.950062","POINT (-73.950062 40.68368)"
"111989","CIGAR SHOP","1690 SUNRISE HWY","MERRICK","NY","11566","Y","40.660031","-73.563523","POINT (-73.563523 40.660031)"
"111986","TIPSY NY LLC","1663A CLAY AVE","BRONX","NY","10457",,"40.843144","-73.905172","POINT (-73.905172 40.843144)"
"111985","SAILLY AVENUE MINIMART LLC","34 SAILLY AVE","PLATTSBURGH","NY","12901",,"44.702690","-73.450066","POINT (-73.450066 44.70269)"
"111984","SONA SONY QUICK MART","52 FULLER ROAD","ALBANY","NY","12205",,"42.699616","-73.821289","POINT (-73.821289 42.699616)"
"111982","COLOMBIA PHARMACY","85 26 37TH AVENUE","JACKSON HEIGHTS","NY","11372",,"40.749947","-73.880845","POINT (-73.880845 40.749947)"
"111981","MELO BAEZ FOOD CORP","413 LEFFERTS AVE","BROOKLYN","NY","11225",,"40.662701","-73.947561","POINT (-73.947561 40.662701)"
"111980","BITE DELIGHT DELI GROCERY CORP","732 10TH AVE","NEW YORK","NY","10019",,"40.764488","-73.991612","POINT (-73.991612 40.764488)"
"111979","RAYMOND DELI & GROCERY CORP","297 BROOK AVE","BRONX","NY","10454",,"40.809097","-73.918500","POINT (-73.9185 40.809097)"
"111978","MIRABITO #17- BRIGHTON AVE.","415 BRIGHTON AVE.","SYRACUSE","NY","13210","Y","43.017234","-76.137081","POINT (-76.137081 43.017234)"
"111977","M&A SUPERMARKET NY INC.","1531 STRAIGHT PATH","WYANDANCH","NY","11798",,"40.750859","-73.361814","POINT (-73.361814 40.750859)"
"111976","MERRICK SERVICE STATION INC.","185 MERRICK ROAD","MERRICK","NY","11566",,"40.653312","-73.556292","POINT (-73.556292 40.653312)"
"111972","POWER FUEL INC","925 STRAIGHT PATH","WEST BABYLON","NY","11704",,"40.722766","-73.376795","POINT (-73.376795 40.722766)"
"111970","HASKELL'S INN","3655 STATE ROUTE 8","COLD BROOK","NY","13324","Y","43.367669","-74.949752","POINT (-74.949752 43.367669)"
"111969","NOBEL WINE & SPIRITS","503 N BROADWAY","JERICHO","NY","11753",,"40.791801","-73.535066","POINT (-73.535066 40.791801)"
"111968","MDS MARKET","2900 E GENESEE ST","SYRACUSE","NY","13224",,"43.042024","-76.104753","POINT (-76.104753 43.042024)"
"111967","RAPID RX PHARMACY","9330 43RD AVE","ELMHURST","NY","11373",,"40.744020","-73.871353","POINT (-73.871353 40.74402)"
"111966","WALLY'S DELI CORP","664 E 233RD ST","BRONX","NY","10466",,"40.893649","-73.858618","POINT (-73.858618 40.893649)"
"111964","TOTAL CARE DISCOUNT","1244 VIRGINIA AVE","BRONX","NY","10472",,"40.831924","-73.861016","POINT (-73.861016 40.831924)"
"111963","BARRY GROCERY LLC","1167 CASTLE HILL AVE","BRONX","NY","10462",,"40.831395","-73.851183","POINT (-73.851183 40.831395)"
"111962","THREE STARS CONVENIENCE INC","610 CENTRAL PARK AVE","SCARSDALE","NY","10583",,"41.001212","-73.814205","POINT (-73.814205 41.001212)"
"111961","KINGS PORT RICHMOND C-STORE","387 PORT RICHMOND AVE","STATEN ISLAND","NY","10302",,"40.632425","-74.137117","POINT (-74.137117 40.632425)"
"111960","THE LOOKOUT BAR & GRILLE AT TU","141 COUNTRY CLUB RD","TUPPER LAKE","NY","12986","Y","44.187571","-74.480505","POINT (-74.480505 44.187571)"
"111957","VIDA CARE PHARMACY LLC","3764 90TH ST","JACKSON HEIGHTS","NY","11372",,"40.748862","-73.876710","POINT (-73.87671 40.748862)"
"111956","PLACID PINES PUB LLC","773 NORTH SHORE RD","HADLEY","NY","12835","Y","43.265913","-74.070875","POINT (-74.070875 43.265913)"
"111955","LIMA MARKET INC","7328 E MAIN ST","LIMA","NY","14485",,"42.904881","-77.610435","POINT (-77.610435 42.904881)"
"111954","PERALTA BRENTWOOD DELI CORP.","152 HEYWARD ST","BRENTWOOD","NY","11717",,"40.798330","-73.248507","POINT (-73.248507 40.79833)"
"111953","ANGRY MARK'S LLC","1706 US ROUTE 11","HASTINGS","NY","13076","Y","43.357045","-76.152188","POINT (-76.152188 43.357045)"
"111952","MB DELI CORP.","590 SEAMAN AVE","BALDWIN","NY","11510",,"40.662670","-73.616942","POINT (-73.616942 40.66267)"
"111951","A & H DISCOUNT INC","7201 20TH AVENUE","BROOKLYN","NY","11204",,"40.612331","-73.989818","POINT (-73.989818 40.612331)"
"111949","CAPITAL BEER DEPOT INC","1687 NEW YORK AVE","HUNTINGTON STATION","NY","11746","Y","40.842438","-73.412341","POINT (-73.412341 40.842438)"
"111948","CLASSIC BEVERAGE","492 ATLANTIC AVE","FREEPORT","NY","11520","Y","40.643547","-73.597015","POINT (-73.597015 40.643547)"
"111946","STOP N GO","135 BABYLON TPKE","ROOSEVELT","NY","11575",,"40.676771","-73.584719","POINT (-73.584719 40.676771)"
"111945","MYRNAS DELI INC","6610 GRAND AVE","MASPETH","NY","11378",,"40.724219","-73.898261","POINT (-73.898261 40.724219)"
"111944","LAURELTON STOP DELI & GROCERY","14132 224TH ST","SPRNGFLD GDNS","NY","11413",,"40.669015","-73.751917","POINT (-73.751917 40.669015)"
"111942","CHESTNUT MARTS INC","142 TUCKAHOE RD","YONKERS","NY","10710",,"40.954557","-73.863974","POINT (-73.863974 40.954557)"
"111941","TJS FREIGHT HOUSE RESTAURANT","20 MARKET ST","OGDENSBURG","NY","13669","Y","44.694115","-75.499902","POINT (-75.499902 44.694115)"
"111940","D J & C DELI CORP","839 MILE SQUARE RD","YONKERS","NY","10704",,"40.926603","-73.858972","POINT (-73.858972 40.926603)"
"111939","MOON ROCK DELI LLC","1160 YONKERS AVENUE","YONKERS","NY","10704",,"40.913932","-73.853050","POINT (-73.85305 40.913932)"
"111938","LIGHTHOUSE PHARMACY","747 MONTAUK HWY","PATCHOGUE","NY","11772",,"40.767581","-72.994400","POINT (-72.9944 40.767581)"
"111937","DOLO DELI & GROCERY","13207 14TH AVE","COLLEGE POINT","NY","11356",,"40.787090","-73.835640","POINT (-73.83564 40.78709)"
"111936","PICA DELI GROCERY CORP","7020 CENTRAL AVE","RIDGEWOOD","NY","11385",,"40.704356","-73.881176","POINT (-73.881176 40.704356)"
"111935","MOUNT EVEREST MARKET & DELI IN","5609 MYRTLE AVE","RIDGEWOOD","NY","11385",,"40.700365","-73.905887","POINT (-73.905887 40.700365)"
"111934","AMSTERDAM TOBACCO DEPOT","4755 STATE HIGHWAY 30","AMSTERDAM","NY","12010","Y","42.978021","-74.187864","POINT (-74.187864 42.978021)"
"111933","THE DOORS OF OLD FORGE INC","3092 STATE ROUTE 28","OLD FORGE","NY","13420","Y","43.710748","-74.972316","POINT (-74.972316 43.710748)"
"111932","LIQUOR WAREHOUSE NY INC","792-794 ELMONT RD","ELMONT","NY","11003",,"40.689789","-73.721135","POINT (-73.721135 40.689789)"
"111930","7-ELEVEN #11459B","2084 VICTORY BLVD","STATEN ISLAND","NY","10314",,"40.612384","-74.133005","POINT (-74.133005 40.612384)"
"111929","CARE FIRST PHARMACY","8330 BROADWAY","ELMHURST","NY","11373",,"40.740355","-73.879222","POINT (-73.879222 40.740355)"
"111928","LOS MOROCHOS GROCERY STORE INC","1973 WALTON AVE","BRONX","NY","10453",,"40.851615","-73.908327","POINT (-73.908327 40.851615)"
"111927","XING FU YUAN INC","5802 FORT HAMILTON PKWY FL 1","BROOKLYN","NY","11219",,"40.634146","-74.004479","POINT (-74.004479 40.634146)"
"111924","MOKE & BEER 89 CORP","8917 37TH AVE","JACKSON HEIGHTS","NY","11372",,"40.750599","-73.877345","POINT (-73.877345 40.750599)"
"111923","FRANKLIN SQ CONVENIENCE","727 FRANKLIN AVE # Q","FRANKLIN SQUARE","NY","11010",,"40.688287","-73.685307","POINT (-73.685307 40.688287)"
"111922","BARGAIN BEVERAGE","124 FRANKLIN AVE","VALLEY STREAM","NY","11580","Y","40.677195","-73.684129","POINT (-73.684129 40.677195)"
"111921","EVOLVE SMOKE SHOP","457 WALT WHITMAN RD","MELVILLE","NY","11747",,"40.814031","-73.410615","POINT (-73.410615 40.814031)"
"111920","BROTHERS MINI MARKET NY INC.","1088 MASTIC RD","MASTIC","NY","11950",,"40.803168","-72.841134","POINT (-72.841134 40.803168)"
"111919","SEAFORD SNACKS SHACK LLC","975 HICKSVILLE RD","SEAFORD","NY","11783",,"40.705952","-73.483155","POINT (-73.483155 40.705952)"
