County,Market Name,Market Location,Address Line 1,City,State,Zip,Contact,Phone,Market Link,Operation Hours,Operation Season,Operating Months,FMNP,SNAP,FCC Issued,FCC Accepted,Latitude,Longitude,Georeference_1
Albany,Delmar Saturday Farmers' Market,"Bethlehem Middle School, 332 Kenwood Ave",332 Kenwood Avenue,Delmar,NY,12054,Ken Myer,5184871991,http://www.delmarmarket.org,Sat 9am-1pm,May 7-December 17,P/M/X,Y,N,N,Y,42.60116,-73.84,POINT (-73.84 42.60116)
Albany,Empire State Plaza Wed Farmers' Market,"Empire State Plaza, (Winter inside South Concourse)",170 State St,Albany,NY,12210,Nicholas DeBlois,5184863966,https://empirestateplaza.ny.gov/empire-state-plaza-farmers-market,Wed 10am-2pm,Year-round,YR,Y,Y,Y,Y,42.65068,-73.758,POINT (-73.758 42.65068)
Albany,The Gade Farm Farm Stand,2479 Western Ave Altamont,2479 Western Avenue,Altamont,NY,12009,Amy Castillo,5188698019,http://www.gadefarm.com,"Mon-Sat 9am-6pm, Sun 9am-4pm",Year-round,YR,Y,N,N,Y,42.71055,-73.92593,POINT (-73.92593 42.71055)
Albany,Veggie Mobile-Arbor Hill/Oak Street Park,Oak St and Second St Albany,Second Street & Oak Street,Albany,NY,12210,Marissa Peck,5182748685,http://www.capitalroots.org,Thu 12:45pm-1:30pm,Year-round,YR,Y,Y,N,Y,42.6629,-73.76094,POINT (-73.76094 42.6629)
Albany,Veggie Mobile-Center for Disability,700 South Pearl St Albany,700 South Pearl Street,Albany,NY,12202,Marissa Peck,5182748685,http://www.capitalroots.org,Tue 12:15pm-1pm,Year-round,YR,Y,Y,N,Y,42.63003,-73.76585,POINT (-73.76585 42.63003)
Albany,Veggie Mobile-Cohoes Senior Ctr,100 Cayuga Plaza Cohoes,100 Cayuga Plaza,Cohoes,NY,12047,Marissa Peck,5182748685,http://www.capitalroots.org,Wed 3pm-4pm,Year-round,YR,Y,Y,N,Y,42.77712,-73.70101,POINT (-73.70101 42.77712)
Albany,Veggie Mobile-South Mall Towers,101 S Pearl St Albany,101 South Pearl Street,Albany,NY,12207,Marissa Peck,5182748685,http://www.capitalroots.org,Fri 11am-12:15pm,Year-round,YR,Y,Y,N,Y,42.6465,-73.75482,POINT (-73.75482 42.6465)
Albany,Veggie Mobile Sprout-Creighton Storey Homes,158 3rd Street Albany,158 3rd Street,Albany,NY,12202,Marissa Peck,5182748685,http://www.capitalroots.org,Thu 3:45pm-4:15pm,Year-round,YR,Y,Y,N,Y,42.66205,-73.7578,POINT (-73.7578 42.66205)
Albany,Veggie Mobile Sprout-Howe Library,Schuyler St and Broad St Albany,Schuyler St and Broad Street,Albany,NY,12202,Marissa Peck,5182748685,http://www.capitalroots.org,Tue 3pm-3:45pm,Year-round,YR,Y,Y,N,Y,42.64112,-73.75802,POINT (-73.75802 42.64112)
Albany,Veggie Mobile Sprout-Jim DiNapoli Park,Pine St & Broadway Albany,Pine St & Broadway,Albany,NY,12207,Marissa Peck,5182748685,http://www.capitalroots.org,Fri 11:45am-12:15pm,year-round,YR,Y,Y,N,Y,42.65029,-73.75079,POINT (-73.75079 42.65029)
Albany,Veggie Mobile Sprout-Koinonia Primary Care,553 Clinton Ave & N Lake Ave Albany,553 Clinton Avenue,Albany,NY,12206,Marissa Peck,5182748685,http://www.capitalroots.org,Tue 2pm-2:45pm,Year-round,YR,Y,Y,N,Y,42.66508,-73.76804,POINT (-73.76804 42.66508)
Albany,Veggie Mobile Sprout-Robert Whalen,305 Colonie Street Albany,305 Colonie Street,Albany,NY,12210,Marissa Peck,5182748685,http://www.capitalroots.org,Wed 11:15am-12pm,Year-round,YR,Y,Y,N,Y,42.66338,-73.75595,POINT (-73.75595 42.66338)
Albany,Veggie Mobile Sprout-St. Sophia Church,440 Whitehall Rd. Albany,440 Whitehall Road,Albany,NY,12208,Marissa Peck,5182748685,http://www.capitalroots.org,Wed 12:15pm-1:15pm,Year-round,YR,Y,Y,N,Y,42.65197,-73.81477,POINT (-73.81477 42.65197)
Albany,Veggie Mobile-Steamboat Square Apts,20 Rensselaer St Albany,20 Rensselaer Street,Albany,NY,12202,Marissa Peck,5182748685,http://www.capitalroots.org,Wed 11am-11:45am,Year-round,YR,Y,Y,N,Y,42.64093,-73.75363,POINT (-73.75363 42.64093)
Albany,Veggie Mobile-Thurlow Terrace,2 Thurlow Terrace Albany,2 Thurlow Terrace,Albany,NY,12203,Marissa Peck,5182748685,http://www.capitalroots.org,Wed 12pm-1pm,Year-round,YR,Y,Y,N,Y,42.65998,-73.77276,POINT (-73.77276 42.65998)
Albany,Veggie Mobile-Whitney Young Health Ctr,920 Lark Drive Albany,920 Lark Drive,Albany,NY,12207,Marissa Peck,5182748685,http://www.capitalroots.org,Tue 11am-12pm,Year-round,YR,Y,Y,N,Y,42.66215,-73.74859,POINT (-73.74859 42.66215)
Allegany,Backporch Produce,10260 Fairview Rd Farmersville Station,10260 Fairview Rd,Farmersville Station,NY,14060,Cheri Stresing,7169468308,http://www.backporchproduce.com,Daily  9am-8pm,Year-round,YR,N,N,N,Y,42.44791997,-78.29298113,POINT (-78.29298113 42.44791997)
Bronx,Lincoln Hospital Fri Greenmarket,234 E 149th St btwn Park and Morris Aves,East 149th St and Morris Ave,Bronx,NY,10451,Siobahn Keys,2127887476,http://www.grownyc.org/greenmarket,Fri 8am-3pm,Year-round,YR,Y,Y,N,Y,40.8174,-73.92276,POINT (-73.92276 40.8174)
Bronx,Norwood GrowNYC Farm Stand,E Gun Hill Rd & Dekalb Ave,Dekalb Ave. and East Gun Hill Rd.,Bronx,NY,10467,Siobahn Keys,2127887476,https://www.grownyc.org/farmstands,Thu 8:30am-4pm,Year-round,YR,Y,Y,N,Y,40.88223,-73.88048,POINT (-73.88048 40.88223)
Bronx,Riverdale Y Sunday Farmers' Market,4545 Independence Ave. Bronx,649 W 237th St,Bronx,NY,10463,Shira Silverman,7188771270,http://www.riverdaley.org/community/Sunday-market,Sun 9am-2pm,April 3-December 18,P/M/X/W,Y,Y,N,Y,40.888442,-73.912784,POINT (-73.912784 40.888442)
Broome,Broome Co Regional Sat Farmers' Market,840 Upper Front St Binghamton,840 Upper Front St.,Binghamton,NY,13905,Amanda Poodiack,6077728953,http://www.broomecountyregionalmarket.com,Sat 9am-1pm,May 7-December 31,P/M/X,Y,Y,N,Y,42.12921,-75.90609,POINT (-75.90609 42.12921)
Cattaraugus,Canticle Farm Market,3809 Old State Rd Allegany,3809 Old State Road,Allegany,NY,14706,Mark Printz,7163789714,http://www.canticlefarm.org,"Tue/Fri 12pm-6pm, Dec-June: Tue only",Year-round,YR,Y,Y,N,Y,42.09601,-78.50618,POINT (-78.50618 42.09601)
Cattaraugus,Miller's Farm Market,1685 Olean Portville Rd Olean,1685 Olean Portville Rd.,Olean,NY,14760,Shanna Miller,7163722521,,"Mon-Sat 9am-6pm, Sun 9am-5pm",April 15-December 24,P/M/X,Y,Y,N,Y,42.071439,-78.39814,POINT (-78.39814 42.071439)
Cayuga,Horning's Produce Farm Stand,2213 State Rt 270,2213 State Rt 270,Cato,NY,13033,Vera Horning,3156513320,,Mon-Sat 9am-6pm,Year-round,YR,Y,Y,N,Y,43.16733,-76.59499,POINT (-76.59499 43.16733)
Cayuga,Owen Orchards Farm Stand,8174 Grant Ave Weedsport,8174 Grant Ave.,Weedsport,NY,13166,Gordon Tripp,3152524097,http://www.owenorchard.com,Mon-Sat 9am-6pm Sun 9am-5pm,"Aug 1-March 31, 2023",M/X/W,Y,Y,N,Y,43.01314,-76.50749,POINT (-76.50749 43.01314)
Chautauqua,Abers Acres Farm Stand,884 Route 394  Kennedy,884 Rte. 394,Kennedy,NY,14747,Sue Abers,7162672431,http://www.abersacres.com,"Daily 9am-6:30pm, Nov-May 19am-5pm",Year-round,YR,N,Y,N,Y,42.14495,-79.10996,POINT (-79.10996 42.14495)
Chautauqua,Fredonia Farmers' Market,"Village Hall Barker Commons , 9 Church St",11 Church St,Fredonia,NY,14063,Anneliese Bruegel,7166802104,,Sat 9am-1pm,Year-round,YR,Y,Y,Y,Y,42.44064,-79.33235,POINT (-79.33235 42.44064)
Chautauqua,Fredonia WINTER Farmers' Market,329 East Main St. (Rt 20) Masonic Lodge,321 East Main St. (Rte 20),Fredonia,NY,14063,Rosemary Joy,7164107313,http://www.fredoniafarmersmarket.org,Sat 10am-1pm,"November 6-May 14, 2022",M/X/W/P,N,Y,Y,Y,42.44764,-79.315,POINT (-79.315 42.44764)
Chautauqua,Scott's Farm & Greenhouse Farm Stand,6029 Route 60 Sinclairville,6029 Route 60,Sinclairville,NY,14782,Kurt Scott,7166404447,,Daily 9am-6pm,March 31-December 25,P/M/X,Y,Y,N,Y,42.26142,-79.28836,POINT (-79.28836 42.26142)
Chenango,Lamb's Quarters Organic Farm Stand,213 Pierce Rd.  Plymouth,213 Pierce Road,Plymouth,NY,13832,Sandy Pierce,6073344928,http://www.lambsquarterorganicfarm.com,"Daily  12pm-6pm, Closed  Wed & Sat",Year-round,YR,N,Y,N,Y,42.60058,-75.59991,POINT (-75.59991 42.60058)
Chenango,Sunrise Farms Farm Stand,252 Plymouth-North Norwich Rd  Plymouth,252 Plymouth-North Norwich Rd.,Plymouth,NY,13832,Kathryn Clemens,6073365834,,"Mon-Fri 9am-5pm, Sun 9am-2pm",Year-round,YR,Y,N,N,Y,42.62427,-75.59152,POINT (-75.59152 42.62427)
Clinton,Northern Orchard Farm Stand,470 Union Rd Peru,470 Union Road,Peru,NY,12972,Jenna Mulbury,5186439718,http://www.northernorchard.com,Daily 10am-5pm,May 1-December 23,P/M/X,Y,Y,N,Y,44.5569,-73.53324,POINT (-73.53324 44.5569)
Clinton,Prays Family Farm Stand-Plattsburgh,605 State Route 3 Plattsburgh,605 State Route 3,Plattsburgh,NY,12944,Maureen Pray,5185695307,,Daily  8:30am-6pm,Year-round,YR,N,N,N,Y,44.6948,-73.5069,POINT (-73.5069 44.6948)
Clinton,Rulfs Orchard Farm Stand,531 Bear Swamp Rd Peru,531 Bear Swamp Road,Peru,NY,12972,Shannon Wilkins,5186438636,http://www.rulfsorchard.com,Daily 6am-6pm,Year-round,YR,Y,N,N,Y,44.5786,-73.49804,POINT (-73.49804 44.5786)
Columbia,City of Hudson WINTER Farmers' Market,"601 Union St. Hudson, sidewalk",601 Union St.,Hudson,NY,12534,Marilyn Cederoth,5189650552,http://www.hudsonfarmersmarketny.com,Saturday  10am-1pm,"December 3-December 24, 2022",X,N,N,N,Y,42.24738,-73.78535,POINT (-73.78535 42.24738)
Delaware,Catskill Cattle Farm Stand,96 Laurel Bank Ave Deposit,96 Laurel Bank Ave,Deposit,NY,13754,Lonny Schaefer,6074675762,http://www.catskillcattle.com,"Wed-Sat 11am-6pm, Sun 12pm-4pm",Year-round,YR,Y,N,N,Y,42.06673,-75.40725,POINT (-75.40725 42.06673)
Dutchess,Beacon Farmers' Market,223 Main St,Veteran's Place,Beacon,NY,12508,Lisa Urrico,8452314424,http://www.beaconfarmersmarket.org,"Sun 10am-3pm, Dec-April 10am-2pm",Year-round,YR,Y,Y,Y,Y,41.50402,-73.96823,POINT (-73.96823 41.50402)
Dutchess,Beacon WINTER Farmers' Market,"223 Main St, Beacpm",413 Main Street,Beacon,NY,12508,Paloma Wake,5108514865,http://www.beaconfarmersmarket.org,Sun  10am-2pm,December 6-April 24,X/W/P,N,Y,Y,Y,41.50321,-73.96674,POINT (-73.96674 41.50321)
Dutchess,Millerton Farmers' Market,"6 Dutchess Ave , Millerton Methodist Church",6 Dutchess Ave.,Millerton,NY,12546,Christine Sergent,5187894259,https://www.neccmillerton.org/farmers-market,Sat 10am-2pm,Year-round,YR,Y,Y,N,Y,41.9543,-73.50977,POINT (-73.50977 41.9543)
Dutchess,Obercreek Farm Stand,"81 New Hamburg Rd , Wappingers Falls",87 New Hamburg Road,Wappingers Falls,NY,12590,Nina Doig,8452980888,http://www.obercreekfarm.com,"Wed-Sat 11am-6pm, Sun 11am-5pm",Year-round,YR,Y,N,N,Y,41.58378,-73.93705,POINT (-73.93705 41.58378)
Dutchess,Rhinebeck Farmers' Market,Municipal lot 61 E Market St,61 East Market St,Rhinebeck,NY,12572,Andrea Bartolomeo,5188211481,http://www.rhinebeckfarmersmarket.com,Sun 10am-2pm,May 1-December 18,P/M/X,Y,Y,N,Y,41.92704,-73.91027,POINT (-73.91027 41.92704)
Dutchess,Z Farms Farm Stand,355 Poplar Hill Rd.  Dover Plains,355 Poplar Hill Road,Dover Plains,NY,12522,Zachary Elwood,8456254798,http://www.zfarmsorganic.com,"Daily 10am-6pm, closed Wednesday",Year-round,YR,N,Y,N,Y,41.75631,-73.55278,POINT (-73.55278 41.75631)
Erie,Broadway Farmers' Market,999 Broadway Buffalo parking entrances on Gibson or Lombard St.,999 Broadway,Buffalo,NY,14212,Kathleen Peterson,7168930705,,Mon-Sat  8am-5pm,Year-round,YR,N,Y,N,Y,42.893162,-78.837667,POINT (-78.837667 42.893162)
Erie,Clinton Bailey Sat Farmers' Market,"1443-1517 Clinton St Buffalo, corner of Clinton & Bailey Sts",Bailey Ave and Clinton St,Buffalo,NY,14206,Sharon Baldi,7168222466,http://www.clintonbaileymarket.com,"Sat 4am-5pm, Nov-Apr 6am-12pm",Year-round,YR,Y,Y,N,Y,42.87205,-78.81998,POINT (-78.81998 42.87205)
Erie,MAP Farm Stand,"387 Massachusetts Ave Buffalo, btwn Barton & Shields",389 Massachusetts Ave.,Buffalo,NY,14213,Karine Amato,7168825327,http://www.mass-ave.org,Thu 3pm-6pm,Year-round,YR,Y,Y,N,Y,42.9128,-78.88774,POINT (-78.88774 42.9128)
Erie,Springville Farmers' Market,Gentner Auction 341 W. Main St. (Rt. 39),341 West Main St,Springville,NY,14141,Donna Goldhawk,7165600198,,Wednesday  7am-3pm,Year-round,YR,N,Y,N,Y,42.50906,-78.67989,POINT (-78.67989 42.50906)
Essex,Mountain Weavers' Farm Store,4322 Main St Port Henry,4322 Main Street,Port Henry,NY,12974,Andrea Connor,5185463386,http://www.mountainweaversfarmstore.com,Tue-Sat 10am-5pm,Year-round,YR,Y,Y,N,Y,44.04849,-73.45958,POINT (-73.45958 44.04849)
Franklin,Franklin WINTER Farmers Market,Franklin Railroad Museum and Franklin Community Center,574 Main St.,Franklin,NY,13775,Brian Brock,5187060612,,Second Sundays 10am-1pm,December 12-April 1,X/W/P,N,N,N,Y,42.3418,-75.16374,POINT (-75.16374 42.3418)
Genesee,Curbside Market-400 Towers,400 E Main St Batavia,400 East Main St.,Batavia,NY,14020,Camille Verbofsky,5854135077,http://www.foodlinkny.org,Mon 1:30pm-2:30pm,Year-round,YR,Y,Y,N,Y,42.99659,-78.17634,POINT (-78.17634 42.99659)
Greene,Black Horse Farms Farm Stand,10094 Route 9W Athens,10094 Rte 9W,Athens,NY,12015,Chellie Apa,5187318776,http://www.blackhorsefarms.com,Daily 9am-6pm,Year-round,YR,Y,Y,N,Y,42.30634,-73.85043,POINT (-73.85043 42.30634)
Greene,Fromer Market Gardens Farm Stand,6120 Main St Tannersville,6120 Main Street,Tannersville,NY,12485,Samantha Metz,8622001935,http://www.fromermarketgardens.com,"Sat 9am-2pm, Wed 2pm-6pm",Year-round,YR,Y,Y,N,Y,42.19546,-74.13889,POINT (-74.13889 42.19546)
Herkimer,MAWS Farm Stand,7342 Main Street Newport,7342 Main Street,Newport,NY,13416,Michael Skwara,3159850088,http://www.mawsfarm.com,Daily  9am-6pm,Year-round,YR,N,Y,N,Y,43.18096,-75.01054,POINT (-75.01054 43.18096)
Herkimer,Northshire Farm Farm Stand,1067 US Highway 20 West Winfield,1067 US Highway 20,West Winfield,NY,13491,S. James Grillo,3157256226,http://www.northshirefarmstore.com,Daily 8am-7pm,Year-round,YR,Y,N,N,Y,42.89471,-75.14503,POINT (-75.14503 42.89471)
Jefferson,Cross Island Farms Farm Stand,"44301 Cross Island Rd, Wellesley Island",44301 Cross Island Road,Wellesley Island,NY,13640,Dani Baker,3154823663,http://www.crossislandfarms.com,Daily 7am-8pm,Year-round,YR,Y,N,N,Y,44.30891,-76.00675,POINT (-76.00675 44.30891)
Kings,6th Ave. Sunset Park Greenmarket,602 44th St at 6th Ave,44th Street at 6th Avenue,Brooklyn,NY,11220,Siobahn Keys,2127887476,http://www.grownyc.org/greenmarket,Sat 8am-3pm,Year-round,YR,Y,Y,N,Y,40.64711,-74.00463,POINT (-74.00463 40.64711)
Kings,Bartel-Pritchard Square Sunday Greenmarket,205 Prospect Park at West 15th St inside park,Prospect Park West and 14th Street,Brooklyn,NY,11215,Siobahn Keys,2127887476,http://www.grownyc.org/greenmarket,Sun 9am-3pm,Year-round,YR,Y,Y,N,Y,40.66094,-73.97979,POINT (-73.97979 40.66094)
Kings,Bartel-Pritchard Square Wed Greenmarket,205 Prospect Park at West 15th St inside park,Prospect Park West and 14th Street,Brooklyn,NY,11215,Siobahn Keys,2127887476,http://www.grownyc.org/greenmarket,Wed 8am-3pm,Year-round,YR,Y,Y,N,Y,40.6616,-73.97939,POINT (-73.97939 40.6616)
Kings,Brooklyn Borough Hall Saturday Greenmarket,211 Montague St Supreme Court Plaza,Court St and Montague St,Brooklyn,NY,11201,Siobahn Keys,2127887476,http://www.grownyc.org/greenmarket,Sat 8am-4pm,Year-round,YR,Y,Y,N,Y,40.69374,-73.99043,POINT (-73.99043 40.69374)
Kings,Brooklyn Borough Hall Tuesday Greenmarket,211 Montague St Supreme Court Plaza,Court St and Montague St,Brooklyn,NY,11201,Siobahn Keys,2127887476,http://www.grownyc.org/greenmarket/brooklyn/boro-hall-sa,Tue 8am-4pm,Year-round,YR,Y,Y,N,Y,40.69374,-73.99043,POINT (-73.99043 40.69374)
Kings,Carroll Gardens Greenmarket,330 Carroll St btwn Smith & Court Sts,Carroll St and Court St,Brooklyn,NY,11231,Siobahn Keys,2127887476,http://www.grownyc.org/greenmarket/brooklyn/carroll-gardens,Sun 8am-2pm,Year-round,YR,Y,Y,N,Y,40.68106,-73.99653,POINT (-73.99653 40.68106)
Kings,Cortelyou Greenmarket,Cortelyou Rd btwn Argyle & Rugby Rds,1399 Cortelyou Rd,Brooklyn,NY,11226,Siobahn Keys,2127887476,https://www.grownyc.org/farmstands,Sun 8am-2pm,Year-round,YR,Y,Y,N,Y,40.64044,-73.96617,POINT (-73.96617 40.64044)
Kings,Crown Heights GrowNYC Farm Stand,Nostrand Ave and Crown St Brooklyn,Nostrand Ave and Crown St,Brooklyn,NY,11255,Andrei Kozlov,2127887476,http://grownyc.org/farmstands,Fri 9am-3pm,Year-round,YR,Y,Y,N,Y,40.66629,-73.95081,POINT (-73.95081 40.66629)
Kings,Fort Greene Park Greenmarket,Washington Park btwn Dekalb Ave & Willoughby St,Washington Park and DeKalb Ave,Brooklyn,NY,11205,Siobahn Keys,2127887476,http://www.grownyc.org/greenmarket/brooklyn/fort-greene,Sat 8am-3pm,Year-round,YR,Y,Y,N,Y,40.68962,-73.97313,POINT (-73.97313 40.68962)
Kings,Grand Army Plaza Greenmarket,Flatbush Ave & Prospect Park W,Flatbush Ave and Grand Army Plaza,Brooklyn,NY,11238,Siobahn Keys,2127887476,http://www.grownyc.org/greenmarket/brooklyn-grand-army-plaza,Sat 8am-4pm,Year-round,YR,Y,Y,N,Y,40.67412,-73.9695,POINT (-73.9695 40.67412)
Kings,McCarren Park Greenmarket,228 N 12th St at Union Ave,N 12th Street and Driggs Ave,Brooklyn,NY,11222,Siobahn Keys,2127887476,http://www.grownyc.org/greenmarket/brooklyn/greenpoint-sa,Sat 8am-2pm,Year-round,YR,Y,Y,N,Y,40.72046,-73.95269,POINT (-73.95269 40.72046)
Kings,McGolrick Park Farmers' Market,"130 Russell St. Brooklyn, Center Pavillion in McGolrick Park",130 Russell Street,Brooklyn,NY,11222,Dacotah Rousseau,9149234837,http://www.downtoearthmarkets.com,Sun 10am-3pm,May 15-December 18,P/M/X,Y,Y,N,Y,40.72483,-73.94432,POINT (-73.94432 40.72483)
Kings,Park Slope Farmers' Market,289 4th Street at 5th Ave.  near PS 51 Brooklyn,289 4th Street,Brooklyn,NY,11215,Dacotah Rousseau,9149234837,http://www.downtoearthmarkets.com,Sun 10am-3pm,May 15-December 18,P/M/X,Y,Y,N,Y,40.6722,-73.98379,POINT (-73.98379 40.6722)
Kings,Seeds in the Middle Farm Stand-Brownsville,213 Osborn St Brooklyn,213 Osborn St,Brooklyn,NY,11212,Nancie Katz,9176973745,http://seedsinthemiddle.org,Friday 2pm-5pm,Year-round,YR,N,Y,N,Y,40.66699,-73.90811,POINT (-73.90811 40.66699)
Kings,Seeds in the Middle Farm Stand Ocean Hill,2163 Dean Street,2163 Dean Street,Brooklyn,NY,11233,Nancie Katz,9176973745,http://seedsinthemiddle.org,Wednesday 12:30pm-3:00pm,Year-round,YR,N,Y,N,Y,40.67524,-73.91536,POINT (-73.91536 40.67524)
Kings,Seeds in the Middle Farm Stand-Parkside Plaza,"Parkside Plaza, Brooklyn NY",Ocean Avenue at Parkside Avenue,Brooklyn,NY,11226,Nancie Katz,9176973745,http://seedsinthemiddle.org,Sunday 10am-2pm,Year-round,YR,N,N,N,Y,40.65487,-73.96188,POINT (-73.96188 40.65487)
Kings,Seeds in the Middle Farm Stand-Wyckoff,Wyckoff Street between Bond and Hoyt Streets,Wyckoff Street between Bond and Hoyt Streets,Brooklyn,NY,11217,Nancie Katz,9176973745,http://seedsinthemiddle.org,Saturday 10am-2pm,Year-round,YR,N,N,N,Y,40.68523,-73.98871,POINT (-73.98871 40.68523)
Lewis,Roads End Orchards Farm Stand,5044 Crofoot Hill Rd Constableville,5044 Crofoot Hill Road,Constableville,NY,13325,Matthew Swiernik,3157833695,http://www.roadsendorchards.com,Sat/Sun 1pm-4pm,Year-round,YR,Y,N,N,Y,43.59227,-75.48159,POINT (-75.48159 43.59227)
Monroe,Brightly's Farm Market,525 Drake Rd Hamlin,525 Drake Rd.,Hamlin,NY,14464,Betsy Brightly,5859679499,http://www.brightlyfarms.com,"Mon-Thu 9am-5pm, Fri/Sat 9am-7pm, Sun 10am-4pm",Year-round,YR,Y,N,N,Y,43.29471,-77.94344,POINT (-77.94344 43.29471)
Monroe,Brighton Farmers' Market,"Brighton High School lot, 1150 Winton Rd. South",1150 Winton Rd South,Rochester,NY,14618,Sue Gardner-Smith,5852698918,http://www.brightonfarmersmarket.org,Sun 9am-1pm,April 24-December 18,P/M/X,Y,Y,Y,Y,43.12204,-77.56808,POINT (-77.56808 43.12204)
Monroe,Brighton WINTER Farmers' Market,Brookside Center  220 Idlewood Rd. Rochester,220 Idlewood Road,Rochester,NY,14618,Sue Gardner-Smith,5852698918,http://www.brightonfarmersmarket.org,Sun 10am-12pm,November 27-December 18,M/X,N,Y,N,Y,43.11275,-77.56809,POINT (-77.56809 43.11275)
Monroe,Curbside Market-Andrews Terrace,125 St. Paul St Rochester,125 Saint Paul Street,Rochester,NY,14604,Camille Verbofsky,5854135077,http://www.foodlinkny.org,Wed 1:15pm-2:30pm,Year-round,YR,Y,Y,N,Y,43.15872,-77.61047,POINT (-77.61047 43.15872)
Monroe,Curbside Market-Beechwood Neighborhood,441 Parsells Ave Rochester,441 Parsells Ave,Rochester,NY,14609,Camille Verbofsky,5854135077,http://www.foodlinkny.org,Thu 3pm-4pm,Year-round,YR,Y,Y,N,Y,43.1658,-77.56665,POINT (-77.56665 43.1658)
Monroe,Curbside Market-Buena Vista Manor,229 Avenue A Rochester,229 Avenue A,Rochester,NY,14621,Camille Verbofsky,5854135077,http://www.foodlinkny.org,Thu 1:45pm-2:45pm,Year-round,YR,Y,Y,N,Y,43.17777,-77.61842,POINT (-77.61842 43.17777)
Monroe,Curbside Market-Carriage Factory Apts,33 Litchfield St Rochester,33 Litchfield Street,Rochester,NY,14608,Camille Verbofsky,5854135077,http://www.foodlinkny.org,Tue 1:30pm-2:30pm,Year-round,YR,Y,Y,N,Y,43.15396,-77.62575,POINT (-77.62575 43.15396)
Monroe,Curbside Market-Charlotte Harbortower I,4575 Lake Ave Rochester,4575 Lake Avenue,Rochester,NY,14612,Camille Verbofsky,5854135077,http://www.foodlinkny.org,Fri 1:30pm-2:30pm,Year-round,YR,Y,Y,N,Y,43.25492,-77.61411,POINT (-77.61411 43.25492)
Monroe,Curbside Market-Charlotte Harbortower II,60 River St Rochester,60 River Street,Rochester,NY,14612,Camille Verbofsky,5854135077,http://www.foodlinkny.org,Fri 2:45pm-4pm,Year-round,YR,Y,Y,N,Y,43.2444,-77.61607,POINT (-77.61607 43.2444)
Monroe,Curbside Market-Cornerstone Pointe,3 GBC Parkway Greece,3 GBC Parkway,Greece,NY,14626,Camille Verbofsky,5854135077,http://www.foodlinkny.org,Thu 11:15am-12:15pm,Year-round,YR,Y,Y,N,Y,43.21335,-77.69366,POINT (-77.69366 43.21335)
Monroe,Curbside Market-Creek House Commons,3000 White Swan Dr Rochester,3000 White Swan Dr,Rochester,NY,14626,Camille Verbofsky,5854135077,http://www.foodlinkny.org,Sat 3:30pm-4:15pm,Year-round,YR,Y,Y,N,Y,43.21894,-77.73798,POINT (-77.73798 43.21894)
Monroe,Curbside Market-Danforth Towers,140 West Ave Rochester,140 West Avenue,Rochester,NY,14611,Camille Verbofsky,5854135077,http://www.foodlinkny.org,Thu 1:30pm-2:30pm,Year-round,YR,Y,Y,N,Y,43.15038,-77.64166,POINT (-77.64166 43.15038)
Monroe,Curbside Market-DePaul Ridgeview,109 Marburger St Rochester,109 Marburger Street,Rochester,NY,14621,Camille Verbofsky,5854135077,http://www.foodlinkny.org,Wed 3:15pm-4:15pm,Year-round,YR,Y,Y,N,Y,43.19375,-77.6078,POINT (-77.6078 43.19375)
Monroe,Curbside Market-Dunn Towers,100 Dunn Tower Dr Rochester,100 Dunn Tower Drive,Rochester,NY,14606,Camille Verbofsky,5854135077,http://www.foodlinkny.org,Thu 11am-12pm,Year-round,YR,Y,Y,N,Y,43.16924,-77.69727,POINT (-77.69727 43.16924)
Monroe,Curbside Market-EL Towers,500 South Ave Rochester,500 South Ave,Rochester,NY,14620,Camille Verbofsky,5854135077,http://www.foodlinkny.org,Tue 3pm-4:15pm,Year-round,YR,Y,Y,N,Y,43.1465,-77.60524,POINT (-77.60524 43.1465)
Monroe,Curbside Market-Fairport Apartments,1030 Whitney Rd E Fairport,1030 Whitney Road E,Fairport,NY,14450,Camille Verbofsky,5854135077,http://www.foodlinkny.org,Thu 10:45am-11:45am,Year-round,YR,Y,Y,N,Y,43.10913,-77.43938,POINT (-77.43938 43.10913)
Monroe,Curbside Market-Glenwood Gardens (Santee St),306 Santee St Rochester,295 Santee St,Rochester,NY,14613,Camille Verbofsky,5854135077,http://www.foodlinkny.org,Tue 3:15pm-4pm,Year-round,YR,Y,Y,N,Y,43.17496,-77.64307,POINT (-77.64307 43.17496)
Monroe,Curbside Market-Hudson Ridge Tower,401 Seneca Manor Dr Rochester,401 Seneca Manor Drive,Rochester,NY,14621,Camille Verbofsky,5854135077,http://www.foodlinkny.org,Wed 1:45pm-2:45pm,Year-round,YR,Y,Y,N,Y,43.19309,-77.60324,POINT (-77.60324 43.19309)
Monroe,Curbside Market-James Dobson Apts,150 Van Auker St Rochester,150 Van Auker Street,Rochester,NY,14608,Camille Verbofsky,5854135077,http://www.foodlinkny.org,Sat 12:15pm-1:45pm,Year-round,YR,Y,Y,N,Y,43.14997,-77.62109,POINT (-77.62109 43.14997)
Monroe,Curbside Market-Keeler Apts,501 Seneca Manor Dr Rochester,501 Seneca Manor Dr.,Rochester,NY,14621,Camille Verbofsky,5854135077,http://www.foodlinkny.org,Wed 3pm-4pm,Year-round,YR,Y,Y,N,Y,43.19395,-77.60168,POINT (-77.60168 43.19395)
Monroe,Curbside Market-Kennedy Towers,666 S Plymouth Ave Rochester,666 South Plymouth Ave,Rochester,NY,14608,Camille Verbofsky,5854135077,http://www.foodlinkny.org,Mon 3:30pm-4:30pm,Year-round,YR,Y,Y,N,Y,43.14251,-77.61894,POINT (-77.61894 43.14251)
Monroe,Curbside Market-Lake Tower,321 Lake Ave Rochester,321 Lake Ave.,Rochester,NY,14608,Camille Verbofsky,5854135077,http://www.foodlinkny.org,Tue 11am-12pm,Year-round,YR,Y,Y,N,Y,43.17054,-77.62751,POINT (-77.62751 43.17054)
Monroe,Curbside Market-Long Pond Sr Housing,1230 Long Pond Rd Greece,1230 Long Pond Road,Rochester,NY,14626,Camille Verbofsky,5854135077,http://www.foodlinkny.org,Thu 10am-11am,Year-round,YR,Y,Y,N,Y,43.2122,-77.69579,POINT (-77.69579 43.2122)
Monroe,Curbside Market-Manhattan Sq Family Medicine,454 E Broad St Rochester,454 E Broad St,Rochester,NY,14607,Camille Verbofsky,5854135077,http://www.foodlinkny.org,Thu 1:15pm-2:30pm,Year-round,YR,Y,Y,N,Y,43.15531,-77.59957,POINT (-77.59957 43.15531)
Monroe,Curbside Market-Maplewood YMCA,25 Driving Park Blvd Rochester,25 Driving Park Ave,Rochester,NY,14613,Camille Verbofsky,5854135077,http://www.foodlinkny.org,Fri 10:30am-11:30am,Year-round,YR,Y,Y,N,Y,43.18092,-77.63017,POINT (-77.63017 43.18092)
Monroe,Curbside Market-Phillips Village,100 Krieger Rd Webster,100 Krieger Rd.,Webster,NY,14580,Camille Verbofsky,5854135077,http://www.foodlinkny.org,Sat 2pm-2:45pm,Year-round,YR,Y,Y,N,Y,43.20943,-77.4189,POINT (-77.4189 43.20943)
Monroe,Curbside Market-Pinnacle Place Apartments,919 S Clinton Ave Rochester,919 South Clinton Ave,Rochester,NY,14620,Camille Verbofsky,5854135077,http://www.foodlinkny.org,Wed 10:30am-11:45am,Year-round,YR,Y,Y,N,Y,43.14006,-77.59637,POINT (-77.59637 43.14006)
Monroe,Curbside Market-Plymouth Gardens,1400 S Plymouth Ave Rochester,1400 S Plymouth Ave.,Rochester,NY,14611,Camille Verbofsky,5854135077,http://www.foodlinkny.org,Fri 10:30am-11:45pm,Year-round,YR,Y,Y,N,Y,43.13192,-77.6339,POINT (-77.6339 43.13192)
Monroe,Curbside Market-RCSD School #33,500 Webster Ave Rochester,500 Webster Ave,Rochester,NY,14609,Camille Verbofsky,5854135077,http://www.foodlinkny.org,Sat 11am-12:30pm,Year-round,YR,Y,Y,N,Y,43.16969,-77.57192,POINT (-77.57192 43.16969)
Monroe,Curbside Market-Rochester Highlands,"47 Green Knolls Dr, across from dog park",47 Green Knolls Dr,Rochester,NY,14620,Camille Verbofsky,5854135077,http://www.foodlinkny.org/CurbsideMarket,Mon 3:30pm-4:30pm,Year-round,YR,Y,Y,N,Y,43.11568,-77.61362,POINT (-77.61362 43.11568)
Monroe,Curbside Market-Rochester View Apartments,4365 W Henrietta Rd Henrietta,4365 W Henrietta Road,Henrietta,NY,14467,Camille Verbofsky,5854135077,http://www.foodlinkny.org,Wed 3pm-4pm,Year-round,YR,Y,Y,N,Y,43.06563,-77.64833,POINT (-77.64833 43.06563)
Monroe,Curbside Market-Seneca Towers,200 Seth Green Dr Rochester,200 Seth Green St,Rochester,NY,14621,Camille Verbofsky,5854135077,http://www.foodlinkny.org,Tue 1:30pm-2:45pm,Year-round,YR,Y,Y,N,Y,43.1904,-77.61943,POINT (-77.61943 43.1904)
Monroe,Curbside Market-Southwest Family YMCA,597 Thurston Rd Rochester,597 Thurston Rd,Rochester,NY,14619,Camille Verbofsky,5854135077,http://www.foodlinkny.org,Wed 10am-10:45am,Year-round,YR,Y,Y,N,Y,43.132866,-77.651137,POINT (-77.651137 43.132866)
Monroe,Curbside Market-The Hamilton Apts,185 Mt. Hope Ave Rochester,185 Mount Hope Avenue,Rochester,NY,14620,Camille Verbofsky,5854135077,http://www.foodlinkny.org,Sat 2pm-3:30pm,Year-round,YR,Y,Y,N,Y,43.14573,-77.61013,POINT (-77.61013 43.14573)
Monroe,Curbside Market-Winton Gardens Towers,"2052 E Main St Rochester, Parking lot off Cedarwood Terrace",2052 East Main St,Rochester,NY,14609,Camille Verbofsky,5854135077,http://www.foodlinkny.org,Mon 2pm-3pm,Year-round,YR,Y,Y,N,Y,43.16076,-77.55556,POINT (-77.55556 43.16076)
Monroe,Curbside Market-YWCA Apartments,175 N. Clinton Ave Rochester,175 North Clinton Ave,Rochester,NY,14604,Camille Verbofsky,5854135077,http://www.foodlinkny.org,Thu 3pm-4pm,Year-round,YR,Y,Y,N,Y,43.16073,-77.6082,POINT (-77.6082 43.16073)
Monroe,Kirby's Farm Market,9739 Ridge Rd Brockport,9739 Ridge Rd,Brockport,NY,14420,Linda Kirby,5852819077,http://www.kirbysfm.com,"Mon-Sat 10am-6pm, Sun 10am-5pm",May 1-December 24,P/M/X,Y,N,N,Y,43.25194,-77.98451,POINT (-77.98451 43.25194)
Monroe,Partyka Farms Farm Stand,1420 County Line Rd. Kendall,1420 County Line Rd.,Kendall,NY,14470,Lora Partyka,5857520258,http://www.partykafarms.com,Daily  9am-7pm,Year-round,YR,N,Y,N,Y,43.29811,-77.99548,POINT (-77.99548 43.29811)
Monroe,Rochester Public Market-Saturday,280 N. Union St. off East Main St.,280 North Union St.,Rochester,NY,14609,Cindy De Coste,5854286907,http://www.cityofrochester.gov/publicmarket,Sat 5am-3pm,Year-round,YR,Y,Y,Y,Y,43.1657,-77.59016,POINT (-77.59016 43.1657)
Monroe,Rochester Public Market -Thursday,280 N. Union St. off East Main St.,280 North Union St.,Rochester,NY,14609,Cindy De Coste,5854286907,http://www.cityofrochester.gov/publicmarket,Thu 6am-1pm,Year-round,YR,Y,Y,Y,Y,43.1657,-77.59016,POINT (-77.59016 43.1657)
Monroe,Rochester Public Market -Tuesday,280 N. Union St. off East Main St.,280 North Union St.,Rochester,NY,14609,Cindy De Coste,5854286907,http://www.cityofrochester.gov/publicmarket,Tue 6am-1pm,Year-round,YR,Y,Y,Y,Y,43.1657,-77.59016,POINT (-77.59016 43.1657)
Monroe,South Wedge Farmers' Market,357 Gregory St Rochester,151 Mt. Hope Ave,Rochester,NY,14620,Glynis Valenti,5852561740,http://www.swfm.org,Thu 4pm-7pm,June 16-September 22; October 20-May 4,M/X/W/P,Y,Y,Y,Y,43.1464,-77.60882,POINT (-77.60882 43.1464)
Montgomery,Canajoharie WINTER Farmers Market,Moose Lodge 205 Erie Blvd.,205 Erie Blvd.,canajoharie,NY,13317,Janet L. Stanley,5186730292,,2nd Sunday 10a-12p,Nov-April,X/W/P,N,N,N,Y,42.90518,-74.58031,POINT (-74.58031 42.90518)
Montgomery,Damin Farm Stand,8075 State Highway 5  St. Johnsville,8075 State Highway 5,St. Johnsville,NY,13452,Barb Damin,5185682643,,Daily 9am-6pm,Year-round,YR,Y,N,N,Y,43.00497,-74.72233,POINT (-74.72233 43.00497)
Montgomery,Haven of Hope Farm Stand,19 Cemetery St. Fonda,19 Cemetery Street,Fonda,NY,12068,Pat Brooking,5185223342,http://www.havenofhopefarm.org,"Thu-Sat 9am-4pm, Sun 12pm-2pm",Year-round,YR,Y,Y,N,Y,42.95627,-74.36841,POINT (-74.36841 42.95627)
Nassau,Deep Roots WINTER Farmers Market,"100 Village Square Glen Cove, at Bridge St","100 Village Square,",Glen Cove,NY,11542,Amy Peters,5163185487,https://www.facebook.com/seaclifffarmersmarket/,Saturdays 10-2 PM,"December 4-April 30, 2022",X/W/P,N,N,N,Y,40.8643,-73.63233,POINT (-73.63233 40.8643)
Nassau,Kennedy Plaza WINTER Farmers' Market,50 W Park Ave Long Beach,50 W Park Ave,Long Beach,NY,11561,Debbie Grattan,5166705046,http://www.ligreenmarket.org,Wed 1pm-6pm,December 7-March 29,X/W,N,Y,N,Y,40.58814,-73.66575,POINT (-73.66575 40.58814)
Nassau,Restoration Farm Farm Stand,140 Bethpage-Sweet Hollow Road,140 Bethpage-Sweet Hollow Road,Old Bethpage,NY,11804,Caroline Fanning,7183094220,http://www.restorationfarm.com,"Tue/Thu  2pm-6pm, Saturday  9am-1pm",May 21-October 29,M/X/W,N,N,N,Y,40.76181,-73.44488,POINT (-73.44488 40.76181)
Nassau,Rockville Centre Farmers' Market,"Sunrise Hwy & Longbeach Rd , Village of Rockville Centre",Sunrise Hwy and Long Beach Rd,Rockville Centre,NY,11570,Ethel Terry,6313233653,http://www.longislandgrowersmarket.com,Sun 7am-12pm,June 5-December 18,M/X,Y,N,N,Y,40.65712,-73.6321,POINT (-73.6321 40.65712)
Nassau,Roslyn Farmers' Market,Christopher Morley Park 500 Searingtown Rd,500 Searingtown Rd,Roslyn Heights,NY,11577,Ethel Terry,6313233653,http://www.longislandgrowersmarket.com,Wed 7am-1pm,June 1-December 28,M/X,Y,N,N,Y,40.78188,-73.66277,POINT (-73.66277 40.78188)
New York,79th Street Greenmarket,366 Columbus Ave btwn W 77th & W 81st Sts,West 79th St and Columbus Ave,New York,NY,10024,Siobahn Keys,2127887476,http://www.grownyc.org/greenmarket/manhattan/79th-street,Sun 9am-4pm,Year-Round,YR,Y,Y,N,Y,40.78195,-73.97548,POINT (-73.97548 40.78195)
New York,82nd Street Saint Stephen's Greenmarket,408 E 82nd St btwn 1st & York Aves,408 East 82nd Street,New York,NY,10128,Siobahn Keys,2127887476,http://www.grownyc.org/greenmarket/manhattan/82nd-street,Sat 9am-2:30pm,Year-round,YR,Y,Y,N,Y,40.77394,-73.9506,POINT (-73.9506 40.77394)
New York,97th Street Greenmarket,125 W 97th St btwn Amsterdam & Columbus Aves,West 97th St and Columbus Ave,New York,NY,10025,Siobahn Keys,2127887476,http://www.grownyc.org/greenmarket/manhattan/west-97,Fri 8am-2pm,Year-round,YR,Y,Y,N,Y,40.79356,-73.96701,POINT (-73.96701 40.79356)
New York,Abingdon Square Greenmarket,601 Hudson St at W 12th St,Hudson St and W 12 St,New York,NY,10014,Siobahn Keys,2127887476,http://www.grownyc.org/greenmarket/manhattan/abingdon-square,Sat 8am-2pm,Year-round,YR,Y,Y,N,Y,40.73755,-74.00568,POINT (-74.00568 40.73755)
New York,Bowling Green Thursday Greenmarket,1 Bowling Green,1 Bowling Green,New York,NY,10004,Siobahn Keys,2127887476,http://www.grownyc.org/greenmarket,Thu 8am-5pm,Year-round,YR,Y,Y,N,Y,40.70445,-74.01423,POINT (-74.01423 40.70445)
New York,Bowling Green Tuesday Greenmarket,1 Bowling Green,1 Bowling Green,New York,NY,10004,Siobahn Keys,2127887476,http://www.grownyc.org/greenmarket/manhattan/bowling-green-tu,Tue 8am-5pm,Year-round,YR,Y,Y,N,Y,40.70454,-74.01418,POINT (-74.01418 40.70454)
New York,Chelsea Farmers' Market,383 W 23rd St.,383 W 23rd Street,New York,NY,10011,Dacotah Rousseau,9149234837,http://www.downtoearthmarkets.com,Sun 9am-2pm,May 14-December 17,P/M/X,Y,Y,N,Y,40.74633,-74.00081,POINT (-74.00081 40.74633)
New York,Columbia Sun Greenmarket,2910 Broadway btwn W114th & W115th Sts,Broadway and West 115th St,New York,NY,10027,Siobahn Keys,2127887476,http://www.grownyc.org/greenmarket,Sun 8am-3pm,Year-round,YR,Y,Y,N,Y,40.8073,-73.9643,POINT (-73.9643 40.8073)
New York,Columbia Thu Greenmarket,Broadway btwn W 114th &  W 115th Sts,Broadway and West 115th St,New York,NY,10027,Siobahn Keys,2127887476,http://www.grownyc.org/greenmarket/manhattan/columbia-th,Thu 8am-5pm,Year-round,YR,Y,Y,N,Y,40.80731,-73.9643,POINT (-73.9643 40.80731)
New York,Dag Hammarskjold Plaza Greenmarket,245 E 47th St btwn 1st & 2nd Aves,East 47th St and Second Ave,New York,NY,10017,Siobahn Keys,2127887476,http://www.grownyc.org/greenmarket/manhattan/dag-hammarskjold,Wed 8am-4pm,Year-round,YR,Y,Y,N,Y,40.75298,-73.96989,POINT (-73.96989 40.75298)
New York,Inwood Greenmarket,"620 Isham St Isham Park, btwn Seaman Ave & Cooper St",Isham St and Seaman St,New York,NY,10034,Siobahn Keys,2127887476,http://www.grownyc.org/greenmarket/manhattan/inwood,Sat 8am-3pm,Year-round,YR,Y,Y,N,Y,40.86988,-73.9209,POINT (-73.9209 40.86988)
New York,Morningside Park Farmers' Market,237 Manhattan Ave,237 Manhattan Ave.,New York,NY,10025,Dacotah Rousseau,9149234837,http://www.downtoearthmarkets.com,Sat 9am-2pm,May 14-December 17,P/M/X,Y,Y,N,Y,40.80173,-73.95915,POINT (-73.95915 40.80173)
New York,NYCP Live Healthy Market,8 E 109th St New York,8 E 109th St,New York,NY,10029,Ora Kemp,9177209702,,Tue 10am-4pm,August 16-December 27,M/X,Y,N,N,Y,40.79587,-73.94912,POINT (-73.94912 40.79587)
New York,Soul to Soul Community Farm Stand,Adam Clayton Powell Jr. Blvd between 110th-111th St,1800 Adam Clayton Powell Jr. Blvd,New York,NY,10026,Marlow White,6464984764,,Thu/Fri 11am-5pm,Year-round,YR,Y,Y,N,Y,40.79967,-73.95481,POINT (-73.95481 40.79967)
New York,Soul to Soul Community Farm Stand 2,2079 Fredrick Douglas Blvd New York,2079 Fredrick Douglas Blvd,New York,NY,10026,Marlow White,6464984764,,Tue/Wed 11am-5pm,Year-round,YR,Y,Y,N,Y,40.80231,-73.95719,POINT (-73.95719 40.80231)
New York,Stuyvesant Town Greenmarket,E 14th St Loop & Ave A South end of Oval,1 Stuyvesant Oval,New York,NY,10009,Siobahn Keys,2127887476,http://www.grownyc.org/greenmarket,Sun 9:30am-4pm,May 15-December 18,P/M/X,Y,Y,N,Y,40.73146,-73.97875,POINT (-73.97875 40.73146)
New York,Tompkins Square Greenmarket,Tompkins Square Park 111 Ave A at E 7 St,Avenue A and East 7th St,New York,NY,10009,Siobahn Keys,2127887476,http://www.grownyc.org/greenmarket/manhattan/tompkins-square,Sun 9am-5pm,Year-round,YR,Y,Y,N,Y,40.72602,-73.98353,POINT (-73.98353 40.72602)
New York,Tribeca Greenmarket Saturday,315 Greenwich St at Chambers St,Greenwich St and Chambers St,New York,NY,10023,Siobahn Keys,2127887476,http://www.grownyc.org/greenmarket/manhattan/tribeca-sa,Sat 8am-3pm,Year-round,YR,Y,Y,N,Y,40.7163,-74.01097,POINT (-74.01097 40.7163)
New York,Tribeca Greenmarket Wednesday,315 Greenwich St at Chambers St,Greenwich St and Chambers St,New York,NY,10023,Siobahn Keys,2127887476,http://www.grownyc.org/greenmarket,Wed 8am-3pm,Year-Round,YR,Y,Y,N,Y,40.71629,-74.01095,POINT (-74.01095 40.71629)
New York,Tucker Square Saturday Greenmarket,125 Columbus Ave btwn W 65th & W 66th Sts,Columbus and West 66th St,New York,NY,10023,Siobahn Keys,2127887476,http://www.grownyc.org/greenmarket/manhattan/tuckerthursday,Sat 8am-5pm,Year-round,YR,Y,Y,N,Y,40.77361,-73.98158,POINT (-73.98158 40.77361)
New York,Tucker Square Thursday Greenmarket,125 Columbus Ave btwn W 65th & W 66th Sts,Columbus and West 66th St,New York,NY,10023,Siobahn Keys,2127887476,http://www.grownyc.org/greenmarket,Thu 8am-5pm,Year-round,YR,Y,Y,N,Y,40.77362,-73.98156,POINT (-73.98156 40.77362)
New York,Union Square Friday Greenmarket,"31 Union Square W, NW side of Park",Broadway and East 17th St,New York,NY,10003,Siobahn Keys,2127887476,https://www.grownyc.org/greenmarket,Fri 8am-6pm,Year-round,YR,Y,Y,N,Y,40.73701,-73.99025,POINT (-73.99025 40.73701)
New York,Union Square Monday Greenmarket,"31 Union Square W, NW side of Park",Broadway and East 17th St,New York,NY,10003,Siobahn Keys,2127887476,https://www.grownyc.org/greenmarket/manhattan-union-square-w,Mon 8am-6pm,Year-round,YR,Y,Y,N,Y,40.73712,-73.99029,POINT (-73.99029 40.73712)
New York,Union Square Saturday Greenmarket,"31 Union Square W , NW side of Park",Broadway and East 17th St,New York,NY,10003,Siobahn Keys,2127887476,https://www.grownyc.org/greenmarket,Sat 8am-6pm,Year-round,YR,Y,Y,N,Y,40.7371,-73.99032,POINT (-73.99032 40.7371)
New York,Union Square Wednesday Greenmarkets,"31 Union Square W, NW side of Park",Broadway and East 17th St,New York,NY,10003,Siobahn Keys,2127887476,https://www.grownyc.org/greenmarket,Wed 8am-6pm,Year-round,YR,Y,Y,N,Y,40.7371,-73.99032,POINT (-73.99032 40.7371)
Niagara,Becken Farms Farm Stand,2585 Upper Mt. Rd Sanborn,2585 Upper Mt. Rd,Sanborn,NY,14132,Elaine Becken,7167313329,,Daily 9am-6pm,Year-round,YR,Y,Y,N,Y,43.16823,-78.90518,POINT (-78.90518 43.16823)
Niagara,Fleckensteins Farms Farm Stand,2813 Youngstown-Lockport Rd Ransomville,2813 Youngstown Lockport Road,Ransomville,NY,14131,Pete Fleckenstein,7166284841,https://www.fleckensteinfarms.com/,Sat/Sun 11am-5pm,Year-round,YR,Y,N,N,Y,43.23252,-78.89288,POINT (-78.89288 43.23252)
Niagara,Human Farms and Greenhouse Farm Stand,2853 Hess Rd. Appleton,2853 Hess Rd,Appleton,NY,14008,JoMarie Human,7165312820,,Daily 10am-6pm,June 1-December 31,M/X,Y,Y,N,Y,43.27537,-78.64954,POINT (-78.64954 43.27537)
Niagara,Niagara Falls City Friday Farmers' Market,19th St & Pine Ave,1800-1808 Pine Ave,Niagara Falls,NY,14301,Alfonse Muto,7169984107,https://www.niagarafallsusa.com/directory/niagara-falls-city-market/,Fri 8am-3pm,Year-round,YR,Y,Y,N,Y,43.09513,-79.03972,POINT (-79.03972 43.09513)
Niagara,Niagara Falls City Monday Market,19th St & Pine Ave,1800-1808 Pine Ave,Niagara Falls,NY,14301,Alfonse Muto,7169984107,,Mon 8am-3pm,Year-round,YR,Y,Y,N,Y,43.09513,-79.03972,POINT (-79.03972 43.09513)
Niagara,Niagara Falls City Wednesday Market,19th St & Pine Ave,1800-1808 Pine Ave,Niagara Falls,NY,14301,Alfonse Muto,7169984107,,Wed 8am-3pm,Year-round,YR,Y,Y,N,Y,43.09513,-79.03972,POINT (-79.03972 43.09513)
Niagara,North Tonawanda City Sat Farmers' Market,Robinson Rd. & Payne Ave.,310 Robinson Road,North Tonawanda,NY,14120,Donna Braun,7166958555,,Sat 7am-1pm,Year-round,YR,Y,Y,N,Y,43.03377,-78.87021,POINT (-78.87021 43.03377)
Niagara,North Tonawanda City Thurs Farmers' Market,Robinson Rd. & Payne Ave.,310 Robinson Road,North Tonawanda,NY,14120,Donna Braun,7166958555,,Thursday  7am-1pm,Year-round,YR,Y,Y,N,Y,43.03377,-78.87021,POINT (-78.87021 43.03377)
Niagara,North Tonawanda City Tue Farmers' Market,Robinson Rd. & Payne Ave.,310 Robinson Road,North Tonawanda,NY,14120,Donna Braun,7166958555,,Tuesday 7am-1pm,Year-round,YR,Y,Y,N,Y,43.03377,-78.87021,POINT (-78.87021 43.03377)
Niagara,Schwab Farm Stand,9035 Rochester Rd Gasport,9035 Rochester Rd,Gasport,NY,14067,Sharon Brent,7167357570,http://www.schwabsfarm.com,"Mon-Fri 8am-7pm, Sat 8-6  Sun 9-5",Year-round,YR,Y,Y,N,Y,43.20425,-78.52308,POINT (-78.52308 43.20425)
Oneida,Oneida County WINTER Public Market,"Inside Main Lobby Union Station, 321 Main Street Downtown Utica",321 Main Street,Utica,NY,13501,Elizabeth Irons,3157983639,http://www.oneidacountymarket.com,Alt Saturdays  9am-1pm,"November 5 - April 22, 2023",X/W/P,N,Y,N,Y,43.10393,-75.2239,POINT (-75.2239 43.10393)
Oneida,Wagner Farms Farm Stand,5841 Old Oneida Rd Rome,5841 Old Oneida Rd,Rome,NY,13440,Ronald Wagner,3153395182,http://wagnerfarmsny.com,Daily 10am-6pm,Year-round,YR,Y,N,N,Y,43.1805,-75.50086,POINT (-75.50086 43.1805)
Onondaga,Central NY Saturday Regional Market Authority,2100 Park St. Syracuse,2100 Park Street,Syracuse,NY,13208,Rachael Ristau,3154228647,http://www.cnyrma.com,Sat 7am-2pm,Year-round,YR,Y,Y,Y,Y,43.07269,-76.16835,POINT (-76.16835 43.07269)
Onondaga,Central NY Sunday Regional Market Authority,2100 Park St. Syracuse,2100 Park Street,Syracuse,NY,13208,Rachael Ristau,3154228647,http://www.cnyrma.com,Sun 7am-2pm,Year-round,YR,Y,Y,Y,Y,43.07269,-76.16835,POINT (-76.16835 43.07269)
Onondaga,Fayetteville Farmers' Market,Fayetteville Town Ctr 504 Burdick St.,504 Burdick Street,Fayetteville,NY,13066,Lacey Cashman,3013351434,http://www.fayettevillefarmersmarketcny.com,Thur 12pm-6pm,Year-round,YR,N,N,N,Y,43.02764,-76.01608,POINT (-76.01608 43.02764)
Onondaga,Gillie Brook Farm Stand,6147 Gillie Brook Rd.  Memphis,6147 Gillie Brook Road,Memphis,NY,13112,Robert Nogash,3156723706,http://www.gilliefarms.com,Sun  9am-1pm,May 1-Feb 28,P/M/X/W,N,Y,N,Y,43.07172,-76.35375,POINT (-76.35375 43.07172)
Ontario,Canandaigua WINTER Farmers' Market,"Antis St. Parkling lot, Behind Byrne Dairy",Antis St.,Canandaigua,NY,14424,Brian Howell,5854064771,,"Every other Sat  , 10am-11am",November -May 25,M/X/W/P,N,N,N,Y,42.88362,-77.2801,POINT (-77.2801 42.88362)
Ontario,Outback Farm Farm Stand,2135 County Rd 8 Canandaigua,2135 County Rd 8,Canandaigua,NY,14424,Marlin & Leann Sensenig,7175870079,http://www.outbackfarmmarket.com,"Mon-Fri 8am-8pm, Sat 8am-5pm",Year-round,YR,Y,Y,N,Y,42.92848,-77.30929,POINT (-77.30929 42.92848)
Orange,Hoeffner Farms,405 Goodwill Rd Montgomery,405 Goodwill Rd,Montgomery,NY,12549,John Hoeffner,8454573453,,"Mon-Sat 9am-5pm, Sun 9am-4pm, Nov 9am-4pm",June 1-December 24,M/X,Y,N,N,Y,41.51517,-74.21735,POINT (-74.21735 41.51517)
Orange,Kirby Farm Hemlock Grove Farm Stand,25 Kinne Lane Middletown,25 Kinne Lane,Middletown,NY,10940,Charles F. Kirby,8453552718,,Daily 8am-6pm,Year-round,YR,Y,N,N,Y,41.40479,-74.50332,POINT (-74.50332 41.40479)
Orange,Newburgh Farmers' Market,97 Broadway,95-107 Broadway,Newburgh,NY,12550,Sember Weinman,8452314424,http://www.newburghnyfarmersmarket.org,Sat 10am-3pm,Year-round,YR,Y,Y,N,Y,41.49992,-74.0112,POINT (-74.0112 41.49992)
Orange,Soons Orchards Farm Stand,23 Soons Circle  New Hampton,23 Soons Circle,New Hampton,NY,10958,Darcy Whyte,8453745471,http://www.soonsorchards.com,Daily 9am-6pm,Year-round,YR,Y,N,N,Y,41.40258,-74.40356,POINT (-74.40356 41.40258)
Orleans,Canal Village Farmers' Market,127 W Center St. Medina,127 W Center St.,Medina,NY,14103,Gail Miller,5857983904,,Sat 9am-2pm,Year-round,YR,Y,Y,N,Y,43.220217,-78.38851,POINT (-78.38851 43.220217)
Orleans,Navarras Farm Market and Greenhouses,3272 Eagle Harbor Rd Albion,3272 Eagle Harbor Road,Albion,NY,14411,Amanda Mrzyuka,5855894674,,"Mon-Fri 9am-6pm, Sat/Sun 9am-5pm",Year-Round,YR,Y,Y,N,Y,43.18941,-78.25422,POINT (-78.25422 43.18941)
Orleans,Roberts Farm Market,11170 Maple Ridge Rd Medina,11170 Maple Ridge Rd.,Medina,NY,14103,Margaret Roberts,5857984247,http://www.robertsfarmmarket.com,Mon-Sat 8am-6pm,April 1-December 23,P/M/X,Y,N,N,Y,43.20679,-78.40098,POINT (-78.40098 43.20679)
Orleans,Saeva Farm Stand,"3715 Eagle Harbor Rd , Albion",3715 Eagle Harbor Rd,Albion,NY,14411,Heather Saeva,5852615055,,Daily 7am-7pm,Year-round,YR,Y,N,N,Y,43.2342,-78.2533,POINT (-78.2533 43.2342)
Oswego,B30 Farm Farm Stand,676 Baldwin Road  Fulton,676 Baldwin Road,Fulton,NY,13069,Timothy F. Moshier,3154399991,http://www.b30f.com,Mon-Wed  11am-5pm,Year-round,YR,N,N,N,Y,43.38285,-76.34859,POINT (-76.34859 43.38285)
Oswego,Godfrey's Last Stand Farm Stand,1232 State Route 264 Phoenix,1232 State Route 264,Phoenix,NY,13135,Roberta and Josephine Godfrey,3155937291,,Daily 10am-4pm,May 1-December 20,P/M/X,Y,Y,N,Y,43.31155,-76.29001,POINT (-76.29001 43.31155)
Oswego,Grindstone Farm Stand,780 County Route 28,780 County Route 28,Pulaski,NY,13142,Ella Gibbs,3152984139,http://grindstonefarm.com,Fri 11am-5pm,Year-round,YR,Y,Y,N,Y,43.50657,-76.10799,POINT (-76.10799 43.50657)
Otsego,Cooperstown Saturday Farmers' Market,101 Main St. in Pioneer Alley near Keybank,101 Main St,Cooperstown,NY,13326,Karrie Larsson,6075476195,http://www.cooperstownfarmersmarket.org,Sat 9am-2pm,Year-round,YR,Y,Y,N,Y,42.70001,-74.92526,POINT (-74.92526 42.70001)
Otsego,Oneonta Farmers' Market,51-55 Market St,205 Main Street,Oneonta,NY,13820,Meg Kennedy,6074342407,http://www.oneontafarmersmarket.org,Sat 9am-12pm,Year-round,YR,Y,N,N,Y,42.45417,-75.06173,POINT (-75.06173 42.45417)
Otsego,Oneonta WINTER Farmers' Market,"Foothills Performing Arts & Civic Center, 24 Market St., Oneonta",196 Main Street,Oneonta,NY,13820,Betty Lee,6072671807,http://www.oneontafarmersmarket.com,Saturday  9am-12pm,Nov 7-April 24,X/W/P,N,N,N,Y,42.45397,-75.06188,POINT (-75.06188 42.45397)
Putnam,Cold Spring Farmers' Market,Boscobel House & Gardens  1601 Rt 9D Garrison,1601 State Route 9D,Garrison,NY,10516,Colin Wright,9179570695,http://www.csfarmmarket.org,Sat  8:30am-1pm,Year-round,YR,N,Y,N,Y,41.41403,-73.93809,POINT (-73.93809 41.41403)
Putnam,Hudson Valley Regional Farmers' Market,15 Mt Ebo Rd South Brewster,15 Mt Ebo Drive,Brewster,NY,10509,Melissa Kamin,8458789078,http://www.hudsonvalleyfarmersmarket.org,Sunday  10am-2pm,Year-round,YR,N,N,N,Y,41.43416,-73.57263,POINT (-73.57263 41.43416)
Queens,Cunningham Park Farmers' Market,"196-10 Union Tpke, Fresh Meadows, NE corner parking lot near 196th Pl",196-10 Union Turnpike,Fresh Meadows,NY,11366,Dacotah Rousseau,9149234837,http://www.downtoearthmarkets.com,Sun 9am-2pm,April 24-December 18,P/M/X,Y,Y,N,Y,40.73056,-73.77346,POINT (-73.77346 40.73056)
Queens,Forest Hills Greenmarket,106-28 Queens Blvd at 70th Ave near Post Office,106-28 Queens Blvd.,Queens,NY,11375,Siobahn Keys,2127887476,http://www.grownyc.org/greenmarket/queens/forest-hills,Sun 8am-2pm,Year-Round,YR,Y,Y,N,Y,40.72193,-73.84676,POINT (-73.84676 40.72193)
Queens,Jackson Heights Greenmarket,78-09 34th Ave,78-99 34th Ave,Jackson heights,NY,11372,Siobahn Keys,2127887476,http://www.grownyc.org/greenmarket/queens/jackson-heights,Sun 8am-2pm,Year-round,YR,Y,Y,N,Y,40.7535,-73.88791,POINT (-73.88791 40.7535)
Queens,Sunnyside Greenmarket,41-15 Skillman Ave at 42nd St,Skillman Ave and 42nd St,Sunnyside,NY,11104,Siobahn Keys,2127887476,http://www.grownyc.org/greenmarket/queens/sunnyside,Sat 8am-2pm,Year-round,YR,Y,Y,N,Y,40.74694,-73.92139,POINT (-73.92139 40.74694)
Rensselaer,Capital Roots Produce Market,594 River Street Troy,594 River Street,Troy,NY,12180,Marissa Peck,5182748685,http://www.capitalroots.org/urban-grow-center-market/,Mon-Fri 9am-5:30pm,Year-round,YR,Y,Y,N,Y,42.74208,-73.68525,POINT (-73.68525 42.74208)
Rensselaer,Troy Waterfront WINTER Farmers' Market,"new 2022 location, Troy Atrium, 49 4th St, Troy, NY 12180",865 2nd Avenue,Troy,NY,12182,Stephen Ridler,5187084216,http://www.troymarket.org,Saturday  9am-2pm,"Nov 5-Apr 29, 2023",X/W/P,N,Y,Y,Y,42.73196,-73.68893,POINT (-73.68893 42.73196)
Rensselaer,Veggie Mobile-Kennedy Towers Apts,2100 6th Ave Troy,2100 6th Avenue,Troy,NY,12180,Marissa Peck,5182748685,http://www.capitalroots.org,Thu 2:45pm-3:45pm,Year-round,YR,Y,Y,N,Y,42.73495,-73.68493,POINT (-73.68493 42.73495)
Rensselaer,Veggie Mobile-Renwyck Place,18 4th Ave Rensselaer,18 4th Ave,Rensselaer,NY,12144,Marissa Peck,5182748685,http://www.capitalroots.org,Thu 11:45am-12:30pm,Year-round,YR,Y,Y,N,Y,42.63925,-73.73936,POINT (-73.73936 42.63925)
Rensselaer,Veggie Mobile Sprout-Barker Park,Corner 3rd & State St Troy,3rd and State St.,Troy,NY,12180,Marissa Peck,5182748685,http://www.capitalroots.org,Tue 11:30am-12pm,Year-round,YR,Y,Y,N,Y,42.73006,-73.69055,POINT (-73.69055 42.73006)
Rensselaer,Veggie Mobile Sprout-Burns Apts,720 Federal St. Troy,720 Federal Street,Troy,NY,12180,Marissa Peck,5182748685,http://www.capitalroots.org,Thu  12:30pm-1:15pm,Year-round,YR,Y,Y,N,Y,42.733148,-73.684555,POINT (-73.684555 42.733148)
Rensselaer,Veggie Mobile Sprout-Conway Court Apts,12 Conway Ct. Troy,12 Conway Ct.,Troy,NY,12180,Marissa Peck,5182748685,http://www.capitalroots.org,Fri 10:45am-11:30,Year-round,YR,Y,Y,N,Y,42.73979,-73.66072,POINT (-73.66072 42.73979)
Rensselaer,Veggie Mobile Sprout-Edward A. Kane Apts,115th Street & 2nd Ave Troy,5 115th Street,Troy,NY,12182,Marissa Peck,5182748685,http://www.capitalroots.org,Thu 11am-11:45am,Year-round,YR,Y,Y,N,Y,42.7748,-73.67761,POINT (-73.67761 42.7748)
Rensselaer,Veggie Mobile Sprout-Lansingburgh Apts,41 114th Street Troy,41 114th Street,Troy,NY,12182,Marissa Peck,5182748685,http://www.capitalroots.org,Wed 2:30pm-3:15pm,Year-round,YR,Y,Y,N,Y,42.77223,-73.67258,POINT (-73.67258 42.77223)
Rensselaer,Veggie Mobile Sprout-Monument Square Apts,2  1st Street #1 Troy,1st Street #1,Troy,NY,12180,Marissa Peck,5182748685,http://www.captialroots.org,Tue 12:15pm-12:45pm,Year-round,YR,Y,Y,N,Y,42.73123,-73.69261,POINT (-73.69261 42.73123)
Rensselaer,Veggie Mobile Sprout-O'Neil Apts,2121 6th Ave. Troy,2121 6th Ave.,Troy,NY,12180,Marissa Peck,5182748685,http://www.capitalroots.org,Wed 3:30pm-4:15pm,Year-round,YR,Y,Y,N,Y,42.73436,-73.68587,POINT (-73.68587 42.73436)
Rensselaer,Veggie Mobile Sprout-Public Library Sr. Ctr,1501 Broadway #1 Watervliet,1501 Broadway,Watervliet,NY,12189,Marissa Peck,5182748685,http://www.capitalroots.org,Thu 2:30pm-3:30pm,Year-round,YR,Y,Y,N,Y,42.72629,-73.70008,POINT (-73.70008 42.72629)
Rensselaer,Veggie Mobile-Van Rensselaer Heights,460 Forbes Ave Rensselaer,460 Forbes Avenue,Rensselaer,NY,12144,Marissa Peck,5182748685,http://www.capitalroots.org,Thu 10:45am-11:15am,Year-round,YR,Y,Y,N,Y,42.65953,-73.73008,POINT (-73.73008 42.65953)
Richmond,Saint George Greenmarket,35 Hyatt St at St Mark's Pl Staten Island,St Marks Pl and Hyatt St,Staten Island,NY,10301,Siobahn Keys,2127887476,http://www.grownyc.org/greenmarket/staten-island/saint-george,Sat 9am-1pm,Year-round,YR,Y,Y,N,Y,40.64159,-74.07791,POINT (-74.07791 40.64159)
Rockland,Nyack Farmers' Market,119 Main St Municipal Parking Lot,Main St and Franklin St,Nyack,NY,10960,Roger Cohen,8453532221,http://www.nyackchamber.org,Thu 8am-2pm,Year-round,YR,Y,Y,N,Y,41.09154,-73.9216,POINT (-73.9216 41.09154)
Rockland,Piermont WINTER Farmers' Market,Piermont Ave. (Library),527 Piermont Ave,Piermont,NY,10968,Joe Serra,8453900706,https://www.facebook.com/piermontfm,Sunday  10am-2pm,January 9-May 15,X/W,N,N,N,Y,41.04158,-73.91632,POINT (-73.91632 41.04158)
Saratoga,Halfmoon Farmers' Market,2 Halfmoon Town Plaza,2 Halfmoon Town Plaza,Halfmoon,NY,12065,Ross MacNeil,5183717410,,Wed 3pm-7pm,Year-round,YR,Y,N,N,Y,42.85348,-73.72559,POINT (-73.72559 42.85348)
Saratoga,Saratoga WINTER Farmers' Market,"Wilton Mall 3065 NY-50 Saratoga Springs, Food Court/Bow Tie Cinemas entrance",3065 NY-50,Saratoga Springs,NY,12866,Toni Nastasi,5189269962,http://www.saratogafarmersmarket.org,Saturday  9:30am-1:30pm,November 5-April 29,X/W/P,N,Y,Y,Y,43.06464,-73.79044,POINT (-73.79044 43.06464)
Saratoga,Spa City Farmers' Market,"65 South Broadway Saratoga Spa St Pk, Lincoln Bath House Building",65 South Broadway,Saratoga Springs,NY,12866,Colleen Zorbas,5183390958,http://www.spacityfarmersmarket.com,Sun 10am-2pm,Year-round,YR,Y,N,N,Y,43.06474,-73.78876,POINT (-73.78876 43.06474)
Saratoga,Veggie Mobile Sprout-John S. Moore,2 Harris Ave. Mechanicville,2 Harris Avenue,Mechanicville,NY,12118,Marissa Peck,5182748685,http://www.capitalroots.org,Fri 3:30pm-4:00pm,Year-round,YR,Y,Y,N,Y,42.89934,-73.69122,POINT (-73.69122 42.89934)
Saratoga,Veggie Mobile Sprout-Mechanicville Sr Center,178 North Main Street Mechanicville,178 North Main Street,Mechanicville,NY,12118,Marissa Peck,5182748685,http://www.capitalroots.org,Fri 2:30pm-3:15pm,Year-round,YR,Y,Y,N,Y,42.90829,-73.68374,POINT (-73.68374 42.90829)
Schenectady,Buhrmaster Farm Stand,189 Saratoga Rd Scotia,189 Saratoga Road,Scotia,NY,12302,Keith Buhrmaster,5183995931,http://www.buhrmasterfarms.com,Daily 9am-6pm,May 1-December 24,M/X,Y,N,N,Y,42.86538,-73.93288,POINT (-73.93288 42.86538)
Schenectady,Schenectady WINTER Greenmarket,"Proctors Theater, 432 State St.",432 State St.,Schenectady,NY,12305,Erika Baer,5189860318,http://www.schenectadygreenmarket.com,Sunday  10am-2pm,"December 5-April 24, 2022",X/W/P,N,Y,N,Y,42.812373,-73.941802,POINT (-73.941802 42.812373)
Schenectady,Veggie Mobile-Edison Senior,1310 Princetown Rd,1310 Princetown Rd,Schenectady,NY,12306,Marissa Peck,5182748685,http://www.capitalroots.org,Tues 2:45pm-3:30pm,Year-Round,YR,Y,Y,N,Y,42.8054,-73.99947,POINT (-73.99947 42.8054)
Schenectady,Veggie Mobile-Father Leo Obrien,3151 Marra Lane Schenectady,3151 Marra Lane,Schenectady,NY,12303,Marissa Peck,5182748685,http://www.capitalroots.org,Mon 1pm-1:45pm,Year-round,YR,Y,Y,N,Y,42.76062,-73.94004,POINT (-73.94004 42.76062)
Schenectady,Veggie Mobile-Hillside View Apts,602 Craig Street Schenectady,602 Craig Street,Schenectady,NY,12307,Marissa Peck,5182748685,http://www.captialroots.org,Fri 2:15pm-3pm,Year-round,YR,Y,Y,N,Y,42.80323,-73.93741,POINT (-73.93741 42.80323)
Schenectady,Veggie Mobile-Holly Manor,2415 Curry Rd Schenectady,2415 Curry Rd,Schenectady,NY,12303,Marissa Peck,5182748685,http://www.capitalroots.org,Tues 3:45pm-4:30pm,year-round,YR,Y,Y,N,Y,42.76857,-73.94259,POINT (-73.94259 42.76857)
Schenectady,Veggie Mobile-Hometown Health Ctr,1044 State St Schenectady,1044 State Street,Schenectady,NY,12307,Marissa Peck,5182748685,http://www.capitalroots.org,Mon 2pm-2:45pm,Year-round,YR,Y,Y,N,Y,42.8014,-73.9278,POINT (-73.9278 42.8014)
Schenectady,Veggie Mobile-Schenectady DSS,797 Broadway Schenectady,797 Broadway,Schenectady,NY,12305,Marissa Peck,5182748685,http://www.capitalroots.org,Mon 3pm-3:45pm,Year-round,YR,Y,Y,N,Y,42.80375,-73.95193,POINT (-73.95193 42.80375)
Schenectady,Veggie Mobile Sprout-Mont Pleasant Commons Sr Housing,1502 Chrisler Ave #1 Schenectady,1502 Chrisler Ave,Schenectady,NY,12303,Marissa Peck,5182748685,http://www.capitalroots.org,Mon 3pm-3:34pm,year-round,YR,Y,Y,N,Y,42.79161,-73.94003,POINT (-73.94003 42.79161)
Schenectady,Veggie Mobile Sprout-Schenectady Day Nursery,25 Lafayette St Schenectady,25 Lafayette St,Schenectady,NY,12307,Marissa Peck,5182748685,http://www.captialroots.org,Monday 4pm-4:30pm,Year-round,YR,Y,Y,N,Y,42.81479,-73.93633,POINT (-73.93633 42.81479)
Schenectady,Veggie Mobile-Summit Towers,720 Albany St Schenectady,720 Albany street,Schenectady,NY,12307,Marissa Peck,5182748685,http://www.capitalroots.org,Fri 1:30pm-2pm,Year-round,YR,Y,Y,N,Y,42.80923,-73.93822,POINT (-73.93822 42.80923)
Schenectady,Veggie Mobile-Ten Eyck Apts,375 Broadway Schenectady,375 Broadway,Schenectady,NY,12305,Marissa Peck,5182748685,http://www.capitalroots.org,Fri 3:15pm-4pm,Year-round,YR,Y,Y,N,Y,42.80919,-73.94511,POINT (-73.94511 42.80919)
Schoharie,Barber Family Farm Stand,3617 State Route 30 Middleburgh,3617 State Route 30,Fulton,NY,12122,Sarah Barber,5188275454,http://www.barbersfarm.com,"Wed-Sun 9am-5:30pm, Winter hours change",Year-round,YR,Y,Y,N,Y,42.58123,-74.39189,POINT (-74.39189 42.58123)
Schoharie,Parsons Vegetable Farm Farm Stand,756 US Highway 20 Sharon Springs,756 US Highway 20,Sharon Springs,NY,13459,Kenyon Parsons,5182842330,,Daily 10am-6pm,Year-round,YR,Y,N,N,Y,42.78332,-74.60004,POINT (-74.60004 42.78332)
Schoharie,Schoharie County Festival Farmers' Market,"127 Kenyon Rd, Cobleskill",127 Kenyon Rd,Cobleskill,NY,12043,Kimberly Witkowski,5188234338,,Sat 10am-2pm,July 9-December 31,M/X,Y,Y,N,Y,42.68283,-74.44221,POINT (-74.44221 42.68283)
Schoharie,Schoharie Valley Farms Farm Stand,"""The Carrot Barn"", 5605 State Route 30",5605 State Route 30,Schoharie,NY,12157,Shirley Ball,5182957139,http://www.schoharievalleyfarms.com,Daily 9am-6pm,Year-round,YR,Y,Y,N,Y,42.68477,-74.29692,POINT (-74.29692 42.68477)
Steuben,Dave's Produce Farm Stand,6719 State Route 415 S Bath,6719 State Route 415 South,Bath,NY,14810,David Hyer,6077947043,,"Mon-Fri 10am-6pm, Sat 9am-5pm , Sun 10am-5pm",May 1-December 24,P/M/X,Y,N,N,Y,42.32583,-77.29073,POINT (-77.29073 42.32583)
Steuben,Lowery Family Farms Farm Stand,8295 Route 415 Campbell,8295 Route 415,Campbell,NY,14821,Tess McKinley,6076642301,http://www.loweryfamilyfarms.com,Wed 9am-4pm,Year-round,YR,N,N,N,Y,42.26157,-77.20976,POINT (-77.20976 42.26157)
St. Lawrence,Martin's Farm Stand,11 Needham Rd. Potsdam,11 Needham Rd.,Potsdam,NY,13676,Daniel Martin,3152651246,http://www.martinsfarmstand.com,Mon-Sat 10am-6pm,Year-Round,YR,Y,Y,N,Y,44.67107,-74.90401,POINT (-74.90401 44.67107)
Suffolk,HOG Farm Stand-Brookhaven,319 Beaverdam Rd. Brookhaven,319 Beaverdam Rd,Brookhaven,NY,11719,Lauren Napoli,6317902561,http://thehogfarm.org,"M/W/F 3:30pm-6:30pm, Sat 9am-1pm",May 7-December 10,P/M/X,Y,Y,N,Y,40.77329,-72.90525,POINT (-72.90525 40.77329)
Sullivan,Callicoon Farmers' Market,Callicoon Creek Park 23 Dorrer Drive,23 Dorrer Drive,Callicoon,NY,12723,Kaylin Joslin,6076436667,http://www.callicoonfarmersmarket.org,Sun 11am-2pm,Year-round,YR,Y,N,N,Y,41.76559,-75.05797,POINT (-75.05797 41.76559)
Sullivan,Fare View Gardens Farm Stand,584 Budd Rd. Woodbourne,Budd Road,Woodbourne,NY,12788,Ryan Mitro,2072101733,,"Daily 9am-6pm , closed Friday",Year-round,YR,N,N,N,Y,41.77132,-74.56862,POINT (-74.56862 41.77132)
Tompkins,Ithaca Farmers' Market (Steamboat Sat),"Steamboat Landing, 545 Third St. Extension off Rt. 13",545 Third Street,Ithaca,NY,14850,Kelly Sauve,6072737109,http://www.ithacamarket.com,Sat 9am-3pm,April 2-December 17,P/M/X,Y,Y,Y,Y,42.44958,-76.50785,POINT (-76.50785 42.44958)
Tompkins,Ithaca Farmers' Market (Steamboat Sun),"Steamboat Landing, 545 Third St. Extension off Rt. 13",545 Third Street,Ithaca,NY,14850,Kelly Sauve,6072737109,http://www.ithacamarket.com,Sun 10am-2pm,April 3-December 18,P/M/X,Y,Y,Y,Y,42.44958,-76.50782,POINT (-76.50782 42.44958)
Tompkins,Ithaca WINTER Farmers' Market,"Triphammer Plaza, 2255 Triphammer Road",2255 Triphammer Road,Ithaca,NY,14850,Kelly Sauve,6072737109,http://www.ithacamarket.com,Saturday  10:30am-2pm,January 8-March 26,W/P,N,Y,Y,Y,42.44097,-76.51093,POINT (-76.51093 42.44097)
Ulster,Kingston WINTER Farmers' Market,"County Courthouse lot  285 Wall St, Jan/Feb only:  Senate Garage 4 N. Front St.",272 Wall Street,Kingston,NY,12401,Laura Crimmins,6462624672,http://www.kingstonfarmersmarket.org,Alt Saturdays  10am-2pm,December 4-April 23,X/W/P,N,Y,Y,Y,41.93286,-74.01884,POINT (-74.01884 41.93286)
Ulster,Kingston YMCA Farm Stand,"507 Broadway, Winter moves into Lobby",507 Broadway,Kingston,NY,12401,Kaycee Wimbish,8453322927,http://www.kingstonymcafarmproject.org,"Tue 10am-12:30pm, Thu 3:30pm-6pm",June 2-February 25,M/X/W,Y,Y,N,Y,41.92805,-74.0007,POINT (-74.0007 41.92805)
Warren,Glens Falls WINTER Farmers' Market,"Aviation Mall, 578 Aviation Rd, Queensbury, NY 12804","578 Aviation Rd, NY",Queensbury,NY,12804,Richard Sandora,5187920438,http://www.glensfallsfarmersmarket.com,Sat  9am-12pm,November 6-April 30,M/X/W/P,N,Y,N,Y,43.30817,-73.6419,POINT (-73.6419 43.30817)
Washington,Cambridge Valley WINTER Farmers' Market,"Brieman Building , Park Place",Park Place,Cambridge,NY,12816,Lindsay Fisk,5185389467,,Sunday  12pm-2pm,Nov 6-December 18,M/X,N,N,N,Y,43.02872,-73.37955,POINT (-73.37955 43.02872)
Wayne,The Apple Shed Farm Stand,"3391 Fairville Maple Ridge Rd.  , Newark",3391 Fairville Maple Ridge Rd,Newark,NY,14513,Barbara Wells,3153316294,http://www.theappleshed.com,Daily 10am-5pm,August 15-December 23,M/X,Y,N,N,Y,43.12967,-77.09774,POINT (-77.09774 43.12967)
Westchester,Chappaqua Farmers' Market,Chappaqua Train Station 108 Allen Pl,108 Allen Place,Chappaqua,NY,10514,Pascale Le Draoulec,9148063380,http://chappaquafarmersmarket.org,Sat 8:30am-1pm,May 7-December 18,P/M/X,Y,Y,N,Y,41.158667,-73.774039,POINT (-73.774039 41.158667)
Westchester,Larchmont Farmers' Market,"122 Myrtle Blvd. Larchmont, Metro North lot off Chatsworth Ave.",Metro-North parking deck off Chatsworth Avenue,Larchmont,NY,10538,Dacotah Rousseau,9149234837,http://www.downtoearthmarkets.com,Sun 8:30am-1pm,April 23-December 17,P/M/X,Y,Y,Y,Y,40.93322,-73.75951,POINT (-73.75951 40.93322)
Westchester,Ossining Farmers' Market,100 Main St at Spring St. Market Square,100 Main Street,Ossining,NY,10562,Dacotah Rousseau,9149234837,http://www.downtoearthmarkets.com,Sat 8:30am-1pm,May 7-December 17,P/M/X,Y,Y,N,Y,41.16105,-73.86351,POINT (-73.86351 41.16105)
Westchester,Pleasantville Farmers' Market,"Memorial Plaza parking lot, off Manville Rd next to Train Station",Manville Rd and Wheeler Ave,Pleasantville,NY,10570,Steven Bates,9142054545,http://www.pleasantvillefarmersmarket.org,Sat 8:30am-1pm,Year-round,YR,Y,Y,N,Y,41.13526,-73.79218,POINT (-73.79218 41.13526)
Westchester,Rye Farmers' Market,"9 Theodore Fremd Ave. Rye , behind Purchase Street Stores",9 Theodore Fremd Ave,Rye,NY,10580,Dacotah Rousseau,9149234837,http://www.downtoearthmarkets.com,Sun 8:30am-1pm,May 8-December 4,P/M/X,Y,Y,Y,Y,40.98485,-73.68464,POINT (-73.68464 40.98485)
Westchester,TaSH Winter Farmers' Market,"250 West Main St Tarrytown, (Recreation Center Parking Lot)",250 West Main St,Tarrytown,NY,10591,Linda Eder,9144717437,http://www.tashfarmersmarket.org,"Sat 8:30a-12:30p, Alternate Sat",January 8-May 7,W/P,N,Y,Y,Y,41.07716,-73.86799,POINT (-73.86799 41.07716)
Wyoming,Merle's Fresh Produce Farm Stand,1408 Creek Rd. Rt 98 Attica,1408 Creek Road,Attica,NY,14011,Ashley Merle,5857081465,,"Mon-Fri 10am-6pm, Sat 10am-5pm",June 15-December 31,M/X,Y,N,N,Y,42.81336,-78.30333,POINT (-78.30333 42.81336)
Wyoming,Plato Dale Farm Stand,5401 Curriers Road  Arcade NY,5401 Curriers Road,Arcade,NY,14009,Kent Miller,5854571358,http://platodalefarm.com,9am-6pm  Daily,Year-Round,YR,N,N,N,Y,42.63228,-78.4172,POINT (-78.4172 42.63228)
