Fire Department Name,Fire Department Code,Address,City,State,Zip Code,County Code,County Name,Phone Number,Latitude,Longitude,Location 1,Counties,New York Zip Codes,NYS Municipal Boundaries
ALBANY FIRE DEPARTMENT,01001,26 BROAD STREET,ALBANY,NY,12202-0000,01,Albany,5184477879,42.662577,-73.759898,"(42.662577, -73.759898)",2030,43,811
ALTAMONT FIRE DEPARTMENT,01002,115 MAIN STREET PO BOX 642,ALTAMONT,NY,12009,01,Albany,5188618171,42.702865,-74.02531,"(42.702865, -74.02531)",2030,1142,806
BERNE FIRE DEPARTMENT,01003,CANADAY ROAD,BERNE,NY,12023,01,Albany,5188720470,42.612842,-74.070082,"(42.612842, -74.070082)",2030,1184,810
BOGHT COMMUNITY FIRE DEPARTMENT,01004,1095 LOUDON ROAD,COHOES,NY,12047,01,Albany,5187850339,42.783571,-73.743969,"(42.783571, -73.743969)",2030,1176,808
COEYMANS FIRE DEPARTMENT,01005,67 CHURCH STREET,COEYMANS,NY,12045,01,Albany,5187562027,42.474106,-73.798832,"(42.474106, -73.798832)",2030,1174,837
COEYMANS HOLLOW FIRE DEPARTMENT,01006,1290 ROUTE 143,COEYMANS HOLLOW,NY,12046,01,Albany,5187566310,42.48034,-73.92286,"(42.48034, -73.92286)",2030,1175,837
COHOES FIRE DEPARTMENT,01007,97 MOHAWK STREET,COHOES,NY,12047,01,Albany,5182372125,42.774511,-73.700005,"(42.774511, -73.700005)",2030,1176,816
COLONIE FIRE DEPARTMENT,01008,1631 CENTRAL AVENUE,ALBANY,NY,12205,01,Albany,5188699306,42.719292,-73.834697,"(42.719292, -73.834697)",2030,42,808
DELMAR FIRE DEPARTMENT,01009,145 ADAMS STREET,DELMAR,NY,12054,01,Albany,5184757310,42.621806,-73.83503,"(42.621806, -73.83503)",2030,1180,838
ELSMERE FIRE DEPARTMENT,01010,15 WEST POPLAR DRIVE,DELMAR,NY,12054,01,Albany,5184399144,42.624501,-73.819623,"(42.624501, -73.819623)",2030,1180,838
FORT HUNTER FIRE DEPARTMENT,01011,3525 CARMAN ROAD,SCHENECTADY,NY,12303,01,Albany,5183552434,42.7403,-73.942101,"(42.7403, -73.942101)",2030,72,806
FULLER ROAD FIRE DEPARTMENT,01012,1342 CENTRAL AVENUE,ALBANY,NY,12205,01,Albany,5184894421,42.702595,-73.815808,"(42.702595, -73.815808)",2030,42,808
GREEN ISLAND FIRE DEPARTMENT,01013,7  CLINTON STREET,GREEN ISLAND,NY,12183,01,Albany,5182731041,42.742022,-73.692784,"(42.742022, -73.692784)",2030,13,807
GUILDERLAND FIRE DEPARTMENT,01014,2303 WESTERN AVE,GUILDERLAND,NY,12084,01,Albany,5184565000,42.703916,-73.91061,"(42.703916, -73.91061)",2030,1229,806
GUILDERLAND CENTER FIRE DEPT,01015,30 SCHOOL ROAD,GUILDERLAND CENTER,NY,12085,01,Albany,5188618871,42.701834,-73.966158,"(42.701834, -73.966158)",2030,1142,806
KNOX FIRE DEPARTMENT,01016,2198 BERNE ALTAMONT ROAD,KNOX,NY,12107,01,Albany,5188720368,42.668944,-74.119396,"(42.668944, -74.119396)",2030,1142,836
LATHAM FIRE DEPARTMENT,01017,226 OLD LOUDON ROAD,LATHAM,NY,12110,01,Albany,5187855060,42.748925,-73.758425,"(42.748925, -73.758425)",2030,1288,808
MEDUSA FIRE DEPARTMENT,01018,458 CR 351,MEDUSA,NY,12120,01,Albany,5182396006,42.436845,-74.12705,"(42.436845, -74.12705)",2030,1293,834
MAPLEWOOD FIRE DEPARTMENT,01019,61 COHOES ROAD,WATERVLIET,NY,12189,01,Albany,5182731200,42.746005,-73.700941,"(42.746005, -73.700941)",2030,19,808
MC KOWNVILLE FIRE DEPARTMENT,01020,1250 WESTERN AVENUE,ALBANY,NY,12203,01,Albany,5184894340,42.67876,-73.830528,"(42.67876, -73.830528)",2030,40,806
MENANDS FIRE DEPARTMENT,01021,250 BROADWAY,MENANDS,NY,12204,01,Albany,5184639494,42.68282,-73.73486,"(42.68282, -73.73486)",2030,41,808
MIDWAY FIRE DEPARTMENT,01022,1956 CENTRAL AVENUE,ALBANY,NY,12205,01,Albany,5184561993,42.739023,-73.857362,"(42.739023, -73.857362)",2030,42,808
NEW SALEM FIRE DEPARTMENT,01023,694 NEW SALEM ROAD,VOORHEESVILLE,NY,12186,01,Albany,5187652244,42.625059,-73.968935,"(42.625059, -73.968935)",2030,16,835
NORTH BETHLEHEM FIRE DEPARTMENT,01024,589 RUSSELL ROAD,ALBANY,NY,12203,01,Albany,5184896556,42.664105,-73.84205,"(42.664105, -73.84205)",2030,1406,838
ONESQUETHAW FIRE DEPARTMENT,01025,2178 TARRYTOWN RD PO BOX E,CLARKSVILLE,NY,12041,01,Albany,5184682823,42.57541,-73.96359,"(42.57541, -73.96359)",2030,1171,835
RAVENA FIRE DEPARTMENT,01026,116 MAIN STREET PO BOX 207,RAVENA,NY,12143,01,Albany,5187562089,42.471694,-73.810532,"(42.471694, -73.810532)",2030,1308,837
RENSSELAERVILLE FIRE DEPARTMENT,01027,21 RICE RD PO BOX 134,RENSSELAERVILLE,NY,12147,01,Albany,5187975269,42.518434,-74.138762,"(42.518434, -74.138762)",2030,1310,834
SCHUYLER HEIGHTS FIRE DEPT,01028,900 FIRST STREET,WATERVLIET,NY,12189,01,Albany,5182717851,42.710658,-73.720103,"(42.710658, -73.720103)",2030,19,808
SELKIRK FIRE DEPARTMENT,01029,126 MAPLE AVENUE,SELKIRK,NY,12158,01,Albany,5184360534,42.53155,-73.795146,"(42.53155, -73.795146)",2030,1405,838
SHAKER RD-LOUDONVILLE FIRE DEPT,01030,550 ALBANY-SHAKER ROAD,LOUDONVILLE,NY,12211,01,Albany,5184581499,42.715127,-73.784522,"(42.715127, -73.784522)",2030,42,808
SLINGERLANDS FIRE DEPARTMENT,01031,PO BOX 99,SLINGERLANDS,NY,12159,01,Albany,5184394734,42.62985,-73.862168,"(42.62985, -73.862168)",2030,1406,838
STANFORD HEIGHTS FIRE DEPARTMENT,01032,2240 CENTRAL AVENUE,SCHENECTADY,NY,12304,01,Albany,5183467948,42.764326,-73.8861,"(42.764326, -73.8861)",2030,73,808
TRI-VILLAGE FIRE DEPARTMENT,01033,3096 CO RTE 145 PO BOX 575,PRESTON HOLLOW,NY,12469,01,Albany,5182396780,42.446314,-74.209669,"(42.446314, -74.209669)",2030,261,834
VERDOY FIRE DEPARTMENT,01034,988 TROY SCHENECTADY ROAD,LATHAM,NY,12110,01,Albany,5187857291,42.763506,-73.800801,"(42.763506, -73.800801)",2030,1288,808
VOORHEESVILLE FIRE DEPARTMENT,01035,12 ALTAMONT RD PO BOX 525,VOORHEESVILLE,NY,12186,01,Albany,5187654048,42.650819,-73.937756,"(42.650819, -73.937756)",2030,16,835
WATERVLIET FIRE DEPARTMENT,01036,FIRE HEADQRTRS 116 13TH ST,WATERVLIET,NY,12189,01,Albany,5182703826,42.723228,-73.702914,"(42.723228, -73.702914)",2030,19,802
WEST ALBANY FIRE DEPARTMENT,01038,113 SAND CREEK ROAD,ALBANY,NY,12205,01,Albany,5184216624,42.692166,-73.785673,"(42.692166, -73.785673)",2030,42,808
WESTERLO FIRE DEPARTMENT,01039,591 ST RTE 143 PO BOX 87,WESTERLO,NY,12193,01,Albany,5187973321,42.51526,-74.046139,"(42.51526, -74.046139)",2030,22,830
WESTMERE FIRE DEPARTMENT,01040,1732 WESTERN AVENUE,ALBANY,NY,12203,01,Albany,5184566734,42.688816,-73.861582,"(42.688816, -73.861582)",2030,40,806
A E  CRANDALL HOOK AND LADDER CO,02001,8 S MAIN ST BOX 582,ALFRED,NY,14802,02,Allegany,6075878880,42.254065,-77.790323,"(42.254065, -77.790323)",2031,1749,477
ALFRED STATION FIRE DEPARTMENT,02002,623 STATE RTE 244 BOX 282,ALFRED STATION,NY,14803,02,Allegany,6075879201,42.268636,-77.75986,"(42.268636, -77.75986)",2031,1750,477
ALLENTOWN FIRE DEPARTMENT,02003,1966 CHURCH ST PO BOX 82,ALLENTOWN,NY,14707,02,Allegany,5855934020,42.12375,-77.94883,"(42.12375, -77.94883)",2031,923,396
ALMA FIRE DEPARTMENT,02004,5778 CNTY ROUTE 18 BOX 49,ALMA,NY,14708,02,Allegany,5855930044,42.012599,-78.060224,"(42.012599, -78.060224)",2031,1690,475
ALMOND FIRE DEPARTMENT,02005,1 MARVIN LANE BOX 256,ALMOND,NY,14804,02,Allegany,6072765921,42.316386,-77.740698,"(42.316386, -77.740698)",2031,1751,474
ANDOVER FIRE DEPARTMENT,02006,60 S MAIN ST PO BOX 714,ANDOVER,NY,14806,02,Allegany,6074788361,42.154809,-77.795274,"(42.154809, -77.795274)",2031,1753,472
ANGELICA FIRE DEPARTMENT,02007,85 MAIN ST PO BOX 154,ANGELICA,NY,14709,02,Allegany,5854667621,42.307251,-78.020337,"(42.307251, -78.020337)",2031,1691,449
BELFAST FIRE DEPARTMENT,02008,11 MERTON AVENUE PO BOX 487,BELFAST,NY,14711,02,Allegany,5853652606,42.344075,-78.110895,"(42.344075, -78.110895)",2031,1693,471
BELMONT FIRE DEPARTMENT,02009,80 SCHUYLER STREET,BELMONT,NY,14813,02,Allegany,5852685550,42.22457,-78.030511,"(42.22457, -78.030511)",2031,1759,473
BOLIVAR FIRE DEPARTMENT,02010,460 MAIN ST  PO BOX 483,BOLIVAR,NY,14715,02,Allegany,5859281250,42.064374,-78.168037,"(42.064374, -78.168037)",2031,1696,469
CANASERAGA FIRE DEPARTMENT,02011,10 MAIN ST BOX 322,CANASERAGA,NY,14822,02,Allegany,6075456221,42.43964,-77.85099,"(42.43964, -77.85099)",2031,1768,463
CENTERVILLE MEMORIAL FIRE DEPT,02013,8936 CNTY ROAD 3 BOX 16,CENTERVILLE,NY,14029,02,Allegany,5855678132,42.4802,-78.24897,"(42.4802, -78.24897)",2031,520,467
CLARKSVILLE FIRE DEPARTMENT,02014,8854 CNTY ROAD 40 BOX 132,WEST CLARKSVILLE,NY,14786,02,Allegany,5859683138,42.2186,-78.28209,"(42.2186, -78.28209)",2031,1707,466
CUBA FIRE DEPARTMENT,02015,51 E MAIN ST PO BOX 84,CUBA,NY,14727,02,Allegany,5859682530,42.21782,-78.2883,"(42.21782, -78.2883)",2031,1707,466
BROOKS FIRE DEPARTMENT,02016,20 S GENESEE ST BOX 53,FILLMORE,NY,14735,02,Allegany,5855678614,42.465164,-78.112337,"(42.465164, -78.112337)",2031,1713,462
FRIENDSHIP FIRE DEPARTMENT,02017,3 DEPOT STREET PO BOX 503,FRIENDSHIP,NY,14739,02,Allegany,5859732371,42.208223,-78.133936,"(42.208223, -78.133936)",2031,1717,465
HOUGHTON FIRE DEPARTMENT,02018,9750 STATE RT 19 PO BOX 96,HOUGHTON,NY,14744,02,Allegany,5855678229,42.424165,-78.155972,"(42.424165, -78.155972)",2031,1722,468
NEW HUDSON FIRE DEPARTMENT,02019,8597 STATE RTE 305 PO BOX 1,BLACK CREEK,NY,14714,02,Allegany,5859681566,42.275383,-78.226176,"(42.275383, -78.226176)",2031,1695,457
ORAMEL FIRE DEPARTMENT,02020,8415 STATE ROUTE 19,BELFAST,NY,14711,02,Allegany,5853652511,42.31418,-78.13784,"(42.31418, -78.13784)",2031,1693,471
RICHBURG FIRE DEPARTMENT,02021,277 MAIN ST PO BOX 74,RICHBURG,NY,14774,02,Allegany,5859281800,42.08828,-78.15372,"(42.08828, -78.15372)",2031,1737,444
RUSHFORD FIRE DEPARTMENT,02022,BOX 223,RUSHFORD,NY,14777,02,Allegany,5854372522,42.389617,-78.246587,"(42.389617, -78.246587)",2031,1739,455
SCIO FIRE DEPARTMENT,02023,4359 CNTY RD 10 PO BOX 231,SCIO,NY,14880,02,Allegany,5855932046,42.191917,-77.899663,"(42.191917, -77.899663)",2031,911,398
SHORT TRACT FIRE DEPARTMENT,02024,10355 CO RD 15 PO BOX 105,FILLMORE,NY,14735,02,Allegany,5855678075,42.43816,-78.07038,"(42.43816, -78.07038)",2031,1713,461
WELLSVILLE FIRE DEPARTMENT,02025,40 S MAIN ST PO BOX 1156,WELLSVILLE,NY,14895,02,Allegany,5855934980,42.11894,-77.943226,"(42.11894, -77.943226)",2031,923,396
WHITESVILLE FIRE DEPARTMENT,02026,496 MAIN ST PO BOX 256,WHITESVILLE,NY,14897,02,Allegany,6073563223,42.037822,-77.767082,"(42.037822, -77.767082)",2031,924,458
WILLING FIRE DEPARTMENT,02027,1395 ST ROUTE 19 SOUTH,WELLSVILLE,NY,14895,02,Allegany,5855932385,42.055868,-77.915924,"(42.055868, -77.915924)",2031,923,445
WISCOY-ROSSBURG FIRE DEPARTMENT,02028,11490 CO RD 27 PO BOX 171,FILLMORE,NY,14735,02,Allegany,5855678989,42.499877,-78.07623,"(42.499877, -78.07623)",2031,373,462
BIRDSALL FIRE DEPARTMENT,02029,9040 CO RD 15B PO BOX 162,CANASERAGA,NY,14822,02,Allegany,5854663000,42.390335,-77.91577,"(42.390335, -77.91577)",2031,1768,470
BINGHAMTON FIRE DEPARTMENT,04001,38 HAWLEY ST GOV PLZ 4TH FL,BINGHAMTON,NY,13901,04,Broome,6077727016,,,,,,
CHENANGO FIRE DEPARTMENT,04003,86 CASTLE CREEK ROAD,BINGHAMTON,NY,13901-1044,04,Broome,,42.162783,-75.894162,"(42.162783, -75.894162)",2033,475,971
CHENANGO BRIDGE FIRE DEPARTMENT,04005,PO BOX 12,CHENANGO,NY,13745,04,Broome,6076485742,42.16892,-75.87468,"(42.16892, -75.87468)",2033,475,971
CHENANGO FORKS FIRE DEPARTMENT,04006,PO BOX 139,CHENANGO FORKS,NY,13746,04,Broome,6076484136,42.27234,-75.85153,"(42.27234, -75.85153)",2033,378,965
CHOCONUT CENTER FIRE DEPARTMENT,04007,1011 MIDDLE STELLA IRELD RD,BINGHAMTON,NY,13905,04,Broome,6077970914,42.15921,-75.92738,"(42.15921, -75.92738)",2033,475,971
CONKLIN FIRE DEPARTMENT,04008,1032 CONKLIN RD,CONKLIN,NY,13748,04,Broome,6077750370,42.078376,-75.823243,"(42.078376, -75.823243)",2033,379,963
DEPOSIT FIRE DEPARTMENT,04009,130 SECOND STREET,DEPOSIT,NY,13754,04,Broome,6074672894,42.06305,-75.42649,"(42.06305, -75.42649)",2033,384,937
EAST MAINE FIRE DEPARTMENT,04010,847 EAST MAIN ROAD,JOHNSON CITY,NY,13790,04,Broome,6077970685,,,,,,
ENDICOTT FIRE DEPARMENT,04011,1009 EAST MAIN STREET,ENDICOTT,NY,13760,04,Broome,6077572463,42.098898,-76.049109,"(42.098898, -76.049109)",2033,388,942
ENDWELL FIRE DEPARTMENT,04012,3508 COUNTRY CLUB ROAD,ENDWELL,NY,13760,04,Broome,6077850985,42.116163,-76.018581,"(42.116163, -76.018581)",2033,388,942
FIVE MILE POINT FIRE DEPARTMENT,04013,16 CRESCENT DRIVE,KIRKWOOD,NY,13795,04,Broome,6077753322,42.091499,-75.822996,"(42.091499, -75.822996)",2033,431,946
GLEN AUBREY FIRE DEPARTMENT,04014,PO BOX 328,GLEN AUBREY,NY,13777,04,Broome,6076928230,42.2457,-75.98993,"(42.2457, -75.98993)",2033,392,941
HARPURSVILLE FIRE DEPARTMENT,04015,2 MAIN STREET PO BOX 98,HARPURSVILLE,NY,13787,04,Broome,6076931454,42.178566,-75.624686,"(42.178566, -75.624686)",2033,399,968
HILLCREST FIRE DEPARTMENT,04016,1115 AVENUE B,BINGHAMTON,NY,13901,04,Broome,6077782110,42.14919,-75.883879,"(42.14919, -75.883879)",2033,475,948
JOHNSON CITY FIRE DEPARTMENT,04018,320 HARRY L DRIVE,JOHNSON CITY,NY,13790,04,Broome,6077299512,42.122658,-75.961976,"(42.122658, -75.961976)",2033,429,942
KILLAWOG FIRE DEPARTMENT,04019,PO BOX 13,KILLAWOG,NY,13794,04,Broome,6078496194,42.40046,-76.02046,"(42.40046, -76.02046)",2033,436,945
KIRKWOOD FIRE DEPARTMENT,04020,297 MAIN STREET,KIRKWOOD,NY,13795,04,Broome,6077752411,42.03948,-75.797248,"(42.03948, -75.797248)",2033,431,946
LISLE FIRE DEPARTMENT,04021,ST RT 79 PO BOX 306,LISLE,NY,13797,04,Broome,6076923411,42.353093,-76.01085,"(42.353093, -76.01085)",2033,433,945
MAINE FIRE DEPARTMENT,04022,29 MC GREGOR AVE PO BOX 357,MAINE,NY,13802,04,Broome,6078623927,42.23717,-76.05457,"(42.23717, -76.05457)",2033,435,944
NANTICOKE FIRE DEPARTMENT,04023,1042 NANTICOKE ROAD,MAINE,NY,13802,04,Broome,6078623296,42.26949,-76.054809,"(42.26949, -76.054809)",2033,435,941
OUAQUAGA FIRE DEPARTMENT,04025,PO BOX 5,WINDSOR,NY,13865,04,Broome,6076551913,42.11097,-75.64151,"(42.11097, -75.64151)",2033,449,934
PORT CRANE FIRE DEPARTMENT,04026,844 STATE ROUTE 369,PORT CRANE,NY,13833-1006,04,Broome,,42.18961,-75.78658,"(42.18961, -75.78658)",2033,453,948
PORT DICKINSON FIRE DEPARTMENT,04027,786 CHENANGO STREET,BINGHAMTON,NY,13901,04,Broome,6077221256,42.138373,-75.89541,"(42.138373, -75.89541)",2033,475,947
PROSPECT TERRACE FIRE DEPARTMENT,04028,PROSPECT ST & GIRARD AVE,BINGHAMTON,NY,13905,04,Broome,6077293741,42.11418,-75.93491,"(42.11418, -75.93491)",2033,479,974
SANITARIA SPRINGS FIRE DEPT,04029,811 NY ROUTE 7,SANITARIA SPRINGS,NY,13833,04,Broome,6076482332,42.18961,-75.78658,"(42.18961, -75.78658)",2033,453,948
TOWN OF BINGHAMTON DEPARTMENT,04030,22 REXFORD STREET,BINGHAMTON,NY,13903,04,Broome,6076694146,42.069611,-75.918801,"(42.069611, -75.918801)",2033,477,972
TRIANGLE FIRE DEPARTMENT,04031,3621 NY ROUTE 206,WHITNEY POINT,NY,13862,04,Broome,,42.32906,-75.97022,"(42.32906, -75.97022)",2033,471,936
UNION CENTER FIRE COMPANY INC,04032,PO BOX 8800,ENDICOTT,NY,13762,04,Broome,6077481321,42.12071,-76.05295,"(42.12071, -76.05295)",2033,388,942
VESTAL FIRE DEPARTMENT,04034,605 VESTAL PARKWAY WEST,VESTAL,NY,13850,04,Broome,6077481514,42.083166,-76.065433,"(42.083166, -76.065433)",2033,466,940
WEST COLESVILLE FIRE DEPARTMENT,04035,1305 COLESVILLE RD,BINGHAMTON,NY,13904,04,Broome,,42.141368,-75.740889,"(42.141368, -75.740889)",2033,478,968
WEST CORNERS FIRE DEPARTMENT,04036,500 DAY HOLLOW ROAD,ENDICOTT,NY,13760,04,Broome,6077854185,42.111249,-76.073003,"(42.111249, -76.073003)",2033,388,942
WEST ENDICOTT FIRE DEPARTMENT,04037,113 NORTH PAGE AVE,ENDICOTT,NY,13760,04,Broome,,42.098958,-76.073512,"(42.098958, -76.073512)",2033,388,942
WEST WINDSOR FIRE DEPARTMENT,04038,8 CARLA DRIVE,WINDSOR,NY,13865,04,Broome,6077752918,42.096876,-75.764906,"(42.096876, -75.764906)",2033,474,934
WHITNEY POINT FIRE DEPARTMENT,04039,32 N PARSONS DR,WHITNEY POINT,NY,13862,04,Broome,6076923845,42.328955,-75.967353,"(42.328955, -75.967353)",2033,471,936
WINDSOR FIRE DEPARTMENT,04040,PO BOX 433,WINDSOR,NY,13865,04,Broome,6076551462,,,,,,
ALLEGANY FIRE DEPARTMENT,05001,PO BOX 95,ALLEGANY,NY,14706-0095,05,Cattaraugus,7163730477,42.094612,-78.49954,"(42.094612, -78.49954)",2034,1688,376
CATTARAUGUS FIRE DEPARTMENT,05002,MEMORIAL DRIVE,CATTARAUGUS,NY,14719,05,Cattaraugus,7169389491,42.319333,-78.866453,"(42.319333, -78.866453)",2034,1700,355
CONEWANGO FIRE DEPARTMENT,05003,PO BOX 72,CONEWANGO VALLEY,NY,14726,05,Cattaraugus,,42.2619,-79.03158,"(42.2619, -79.03158)",2034,1706,360
DAYTON FIRE DEPARTMENT,05004,12749 COTTAGE ROAD,SOUTH DAYTON,NY,14138,05,Cattaraugus,7165322627,42.40311,-78.97281,"(42.40311, -78.97281)",2034,504,372
DELEVAN FIRE DEPARTMENT,05005,85 S MAIN ST PO BOX 218,DELEVAN,NY,14042,00,Cattaraugus,7164920945,42.488256,-78.48041,"(42.488256, -78.48041)",2034,505,379
EAST OTTO FIRE DEPARTMENT,05006,7894 E FLATS RD PO BOX 171,EAST OTTO,NY,14729,05,Cattaraugus,,42.3959,-78.73065,"(42.3959, -78.73065)",2034,1709,371
EAST RANDOLPH FIRE DEPARTMENT,05007,147 MAIN STREET ER,EAST RANDOLPH,NY,14730,05,Cattaraugus,7163586070,42.171685,-78.94941,"(42.171685, -78.94941)",2034,1736,335
ELLICOTTVILLE FIRE DEPARTMENT,05008,PO BOX 397,ELLICOTTVILLE,NY,14731,05,Cattaraugus,7166992717,42.2971,-78.64982,"(42.2971, -78.64982)",2034,1710,370
FARMERSVILLE FIRE DEPARTMENT,05009,ELTON ROAD,FARMERSVILLE STATION,NY,14060,05,Cattaraugus,7166765717,42.428311,-78.359776,"(42.428311, -78.359776)",2034,516,369
FRANKLINVILLE FIRE DEPARTMENT,05010,75 NORTH MAIN ST PO BOX 74,FRANKLINVILLE,NY,14737,05,Cattaraugus,7166762539,42.342979,-78.455747,"(42.342979, -78.455747)",2034,1715,366
GREAT VALLEY FIRE DEPARTMENT,05011,5099 RT 219,GREAT VALLEY,NY,14741,05,Cattaraugus,,42.216861,-78.63805,"(42.216861, -78.63805)",2034,1719,364
GOWANDA FIRE DEPARTMENT,05012,230 ALDRICH STREET,GOWANDA,NY,14070,05,Cattaraugus,7165323434,42.468796,-78.941678,"(42.468796, -78.941678)",2034,525,289
HINSDALE FIRE DEPARTMENT,05013,MAIN STREET,HINSDALE,NY,14743,05,Cattaraugus,7163734119,42.169456,-78.383949,"(42.169456, -78.383949)",2034,1721,363
ISCHUA FIRE DEPARTMENT,05014,ROUTE 16,ISCHUA,NY,14746,05,Cattaraugus,7163780177,42.169456,-78.383949,"(42.169456, -78.383949)",2034,1721,363
KILL BUCK FIRE DEPARTMENT,05015,3790 KILL BUCK RD PO BX 252,KILL BUCK,NY,14748,05,Cattaraugus,,42.15402,-78.72221,"(42.15402, -78.72221)",2034,1741,381
KNAPP CREEK FIRE DEPARTMENT,05016,253 NYS ROUTE 16 SOUTH,KNAPP CREEK,NY,14760,05,Cattaraugus,7163724523,42.077415,-78.43251,"(42.077415, -78.43251)",2034,1732,353
MANSFIELD FIRE DEPARTMENT,05017,RFD 1 BOX 69 MAPLES,LITTLE VALLEY,NY,14755,05,Cattaraugus,7166995401,42.333312,-78.735397,"(42.333312, -78.735397)",2034,1729,352
LITTLE VALLEY FIRE DEPARTMENT,05018,101 3RD STREET,LITTLE VALLEY,NY,14755,05,Cattaraugus,7169389151,42.248853,-78.797557,"(42.248853, -78.797557)",2034,1729,359
LIMESTONE FIRE DEPARTMENT,05019,631 MAIN STREET,LIMESTONE,NY,14753,05,Cattaraugus,7169258813,42.026175,-78.628962,"(42.026175, -78.628962)",2034,1727,367
LEON FIRE DEPARTMENT,05020,PO BOX 34,LEON,NY,14751,05,Cattaraugus,,42.292941,-79.054032,"(42.292941, -79.054032)",2034,1706,360
MACHIAS FIRE DEPARTMENT,05021,9548 MAIN STREET,MACHIAS,NY,14101,05,Cattaraugus,7163534611,42.414357,-78.492458,"(42.414357, -78.492458)",2034,932,357
OLEAN FIRE DEPARTMENT (CITY),05022,542 NORTH UNION STREET,OLEAN,NY,14760,05,Cattaraugus,7163765609,42.08635,-78.429876,"(42.08635, -78.429876)",2034,1732,353
OLEAN FIRE DEPARTMENT (TOWN),05023,1276 OLD ROCK CITY RD,OLEAN,NY,14760,05,Cattaraugus,,42.05595,-78.43963,"(42.05595, -78.43963)",2034,1732,351
OTTO FIRE DEPARTMENT,05024,8960 OTTO - EAST OTTO ROAD,CATTARAUGUS,NY,14719-9645,05,Cattaraugus,7162579776,42.355976,-78.830843,"(42.355976, -78.830843)",2034,1700,350
PERRYSBURG FIRE DEPARTMENT,05025,11949 MAIN STREET,PERRYSBURG,NY,14129,05,Cattaraugus,7165324441,42.45649,-79.002499,"(42.45649, -79.002499)",2034,1104,349
PORTVILLE FIRE DEPARTMENT,05026,58 BROOKLYN STREET,PORTVILLE,NY,14770,05,Cattaraugus,,42.030034,-78.341948,"(42.030034, -78.341948)",2034,1735,347
RANDOLPH FIRE DEPARTMENT,05027,70 MAIN STREET,RANDOLPH,NY,14772,05,Cattaraugus,7163589300,42.172602,-78.947487,"(42.172602, -78.947487)",2034,1736,373
SALAMANCA FIRE DEPARTMENT,05028,225 WILDWOOD AVENUE,SALAMANCA,NY,14779,05,Cattaraugus,7169453311,42.156798,-78.7075,"(42.156798, -78.7075)",2034,1741,381
SOUTH DAYTON FIRE DEPARTMENT,05029,34 MAPLE STREET  PO BOX 88,SOUTH DAYTON,NY,14138,05,Cattaraugus,7169885153,42.361729,-79.04873,"(42.361729, -79.04873)",2034,3,372
COLDSPRING FIRE DEPARTMENT,05030,2603 RT 394,STEAMBURG,NY,14783,05,Cattaraugus,7163545425,42.108803,-78.911384,"(42.108803, -78.911384)",2034,1744,374
VERSAILLES FIRE DEPARTMENT,05031,BUFFALO ROAD,VERSAILLES,NY,14168,05,Cattaraugus,7165324065,42.520164,-78.994416,"(42.520164, -78.994416)",2041,1104,349
WESTONS MILLS FIRE DEPT,05032,PO BOX 601,WESTON MILLS,NY,14788,05,Cattaraugus,7163720280,42.06206,-78.3782,"(42.06206, -78.3782)",2034,1747,347
WEST VALLEY FIRE DEPARTMENT,05033,PO BOX 289,WEST VALLEY,NY,14171,05,Cattaraugus,7169423768,42.41152,-78.65312,"(42.41152, -78.65312)",2034,28,368
YORKSHIRE FIRE DEPARTMENT,05034,12211 CHURCH STREET,YORKSHIRE,NY,14173,05,Cattaraugus,7164924470,42.52949,-78.47812,"(42.52949, -78.47812)",2034,30,379
LYNDON FIRE DEPARTMENT,05035,6943 ABBOTT ROAD,FRANKLINVILLE,NY,14737,05,Cattaraugus,7166765150,42.305095,-78.350587,"(42.305095, -78.350587)",2034,1715,358
HUMPHREY FIRE DEPARTMENT,05036,4704 PUMPKIN HOLLOW ROAD,GREAT VALLEY,NY,14741,05,Cattaraugus,,42.202143,-78.552614,"(42.202143, -78.552614)",2034,1719,362
AUBURN CITY FIRE DEPARTMENT,06001,23 MARKET STREET,AUBURN,NY,13021,06,Cayuga,3152534031,42.933196,-76.56558,"(42.933196, -76.56558)",618,343,97
AURELIUS FIRE DEPARTMENT,06002,1241 W GENESEE STREET ROAD,AUBURN,NY,13021,06,Cayuga,3152520039,42.923817,-76.624858,"(42.923817, -76.624858)",618,343,95
AURORA FIRE DEPARTMENT,06003,456 MAIN STREET,AURORA,NY,13026,06,Cayuga,3153648590,42.757976,-76.70362,"(42.757976, -76.70362)",618,345,85
CATO FIRE DEPARTMENT,06004,2569 E MAIN STREET,CATO,NY,13033,06,Cayuga,3156262393,43.175153,-76.553605,"(43.175153, -76.553605)",618,352,86
CAYUGA FIRE DEPARTMENT,06005,6233 COURT STREET,CAYUGA,NY,13034,06,Cayuga,,42.918625,-76.726189,"(42.918625, -76.726189)",618,353,95
FAIR HAVEN FIRE DEPARTMENT,06006,14430 FAIR HAVEN RD POB 334,FAIR HAVEN,NY,13064,06,Cayuga,3159475145,43.313855,-76.699919,"(43.313855, -76.699919)",618,693,72
FLEMING #1 FIRE DEPARTMENT,06007,6063 WEST LAKE ROAD,AUBURN,NY,13021,06,Cayuga,3152526902,42.895616,-76.551042,"(42.895616, -76.551042)",618,343,88
FLEMING #2 FIRE DEPARTMENT,06008,5024 STATE RT 34,AUBURN,NY,13021,06,Cayuga,3152527371,42.92239,-76.56369,"(42.92239, -76.56369)",618,343,97
GENOA FIRE DEPARTMENT,06009,10015 RT 90,GENOA,NY,13071,06,Cayuga,3154970009,42.66778,-76.538061,"(42.66778, -76.538061)",618,624,87
IRA FIRE DEPARTMENT,06010,12591 STATE ROUTE 176,CATO,NY,13033,06,Cayuga,3156262607,43.25495,-76.56449,"(43.25495, -76.56449)",2135,352,86
KING FERRY FIRE DEPARTMENT,06011,1009 ROUTE 34B PO BOX 419,KING FERRY,NY,13081,06,Cayuga,3153648940,42.67139,-76.61901,"(42.67139, -76.61901)",618,632,87
LOCKE FIRE DEPARTMENT,06012,900 MAIN STREET  BOX 78,LOCKE,NY,13092,06,Cayuga,3154970595,42.66347,-76.43076,"(42.66347, -76.43076)",618,639,84
MERIDIAN FIRE DEPARTMENT,06013,11375 FERRIS ROAD,MERIDIAN,NY,13113,06,Cayuga,3156263167,43.169435,-76.53723,"(43.169435, -76.53723)",618,352,86
MORAVIA FIRE DEPARTMENT,06014,38 KEELER AVE PO BOX 686,MORAVIA,NY,13118,06,Cayuga,3154971700,42.715114,-76.424566,"(42.715114, -76.424566)",618,662,79
MONTEZUMA FIRE DEPARTMENT,06015,8115 HIGH ST BOX 381,MONTEZUMA,NY,13117,06,Cayuga,3157764316,43.010267,-76.703687,"(43.010267, -76.703687)",618,661,81
NEW HOPE FIRE DEPARTMENT,06016,5947 NEW HOPE ROAD,MORAVIA,NY,13118,06,Cayuga,3154970448,42.797917,-76.349131,"(42.797917, -76.349131)",618,662,78
OWASCO FIRE DEPARTMENT,06017,7174 OWASCO ROAD,AUBURN,NY,13021,06,Cayuga,3152539197,42.916603,-76.545537,"(42.916603, -76.545537)",618,343,77
POPLAR RIDGE FIRE DEPARTMENT,06018,PO BOX 55,POLAR RIDGE,NY,13139,06,Cayuga,3153647344,42.73843,-76.61772,"(42.73843, -76.61772)",618,345,70
PORT BYRON FIRE DEPARTMENT,06019,50 UTICA ST,PORT BYRON,NY,13181,06,Cayuga,3157768670,43.036498,-76.621459,"(43.036498, -76.621459)",618,681,80
SCIPIO CENTER FIRE DEPARTMENT,06020,3550 ROUTE 34,SCIPIO CENTER,NY,13147,06,Cayuga,3153647323,42.78323,-76.56877,"(42.78323, -76.56877)",618,688,76
SENNETT FIRE DEPARTMENT,06021,PO BOX 1524,AUBURN,NY,13021,06,Cayuga,3152523993,42.92239,-76.56369,"(42.92239, -76.56369)",618,343,97
THROOP FIRE DEPARTMENT,06022,7159 BEECH TREE RD,AUBURN,NY,13021,06,Cayuga,3152524051,42.963197,-76.606987,"(42.963197, -76.606987)",618,343,42
UNION SPRINGS FIRE DEPARTMENT,06023,257 CAYUGA STREET,UNION SPRINGS,NY,13160,06,Cayuga,3158897288,42.852348,-76.69077,"(42.852348, -76.69077)",618,697,73
VICTORY FIRE DEPARTMENT,06024,12009 ROUTE 38,CATO,NY,13033,06,Cayuga,3156266682,43.17423,-76.55246,"(43.17423, -76.55246)",618,352,86
WEEDSPORT FIRE DEPARTMENT,06025,8892 SOUTH STREET,WEEDSPORT,NY,13166,06,Cayuga,,43.047901,-76.561461,"(43.047901, -76.561461)",618,702,93
LONG HILL FIRE DEPARTMENT,06026,3513 LONG HILL ROAD,VENICE CENTER,NY,13147,06,Cayuga,3154973805,42.739826,-76.508616,"(42.739826, -76.508616)",618,688,70
SEMPRONIUS FIRE DEPARTMENT,06027,2284 RT 41A,MORAVIA,NY,13118,06,Cayuga,3154962084,42.73971,-76.38689,"(42.73971, -76.38689)",618,662,79
WEST NILES FIRE DEPARTMENT,06028,3956 VALENTINE ROAD,MORAVIA,NY,13118,06,Cayuga,3157845093,42.809473,-76.470236,"(42.809473, -76.470236)",618,662,78
CONQUEST FIRE DEPARTMENT,06029,10351 SLAYTON ROAD,PORT BYRON,NY,13140,06,Cayuga,3157764512,43.120255,-76.64051,"(43.120255, -76.64051)",618,681,89
ASHVILLE FIRE DEPARTMENT,07001,4853 ROUTE 474  PO BOX 129,ASHVILLE,NY,14710,07,Chautauqua,7167638196,42.10429,-79.38114,"(42.10429, -79.38114)",2035,1692,216
BEMUS POINT FIRE DEPARTMENT,07002,13 ALBURTUS AVE PO BOX 306,BEMUS POINT,NY,14712,07,Chautauqua,7163866011,42.158577,-79.392522,"(42.158577, -79.392522)",2035,1694,225
BROCTON FIRE DEPARTMENT,07003,80 LAKE AVE PO BOX 457,BROCTON,NY,14716,07,Chautauqua,7167924734,42.392564,-79.44116,"(42.392564, -79.44116)",2035,1697,212
BUSTI FIRE DEPARTMENT,07004,886 MILL ROAD,JAMESTOWN,NY,14701,07,Chautauqua,7164871271,42.037701,-79.283338,"(42.037701, -79.283338)",2035,1687,232
CASSADAGA FIRE DEPARTMENT,07005,22 MILL STREET PO BOX 226,CASSADAGA,NY,14718,07,Chautauqua,7165953131,42.341653,-79.310307,"(42.341653, -79.310307)",2035,1699,208
CELORON FIRE DEPARTMENT,07006,92 DUNHAM AVENUE PO BOX 328,CELORON,NY,14720,07,Chautauqua,7164881788,42.101517,-79.283424,"(42.101517, -79.283424)",2035,1687,224
CHAUTAUQUA FIRE DEPARTMENT,07007,2 ROYAL WAY PO BOX F,CHAUTAUQUA,NY,14722,07,Chautauqua,7163572905,42.25483,-79.50418,"(42.25483, -79.50418)",2035,1731,213
CHERRY CREEK FIRE DEPARTMENT,07008,6763 MAIN STREET,CHERRY CREEK,NY,14723,07,Chautauqua,7162965757,42.293398,-79.099808,"(42.293398, -79.099808)",2035,1704,229
CLYMER FIRE DEPARTMENT,07009,8756 W MAIN STREET,CLYMER,NY,14724,07,Chautauqua,7163559954,42.020865,-79.631002,"(42.020865, -79.631002)",2035,1705,235
DEWITTVILLE FIRE DEPARTMENT,07010,5459 E LAKE RD PO BOX 28,DEWITTVILLE,NY,14728,07,Chautauqua,7167537231,42.26316,-79.41302,"(42.26316, -79.41302)",2035,1708,208
DUNKIRK FIRE DEPARTMENT,07011,311 EAGLE ST,DUNKIRK,NY,14048,07,Chautauqua,7163662577,42.484331,-79.33646,"(42.484331, -79.33646)",2035,508,228
EAST DUNKIRK FIRE DEPARTMENT,07012,10949 SOUTH ROBERTS ROAD,DUNKIRK,NY,14048,07,Chautauqua,7163662211,42.474927,-79.306002,"(42.474927, -79.306002)",2035,508,226
ELLERY CENTER FIRE DEPARTMENT,07013,4400 DUTCH HOLLOW ROAD,BEMUS POINT,NY,14712,07,Chautauqua,7163865381,42.17896,-79.343332,"(42.17896, -79.343332)",2035,1694,225
ELLINGTON FIRE DEPARTMENT,07014,769 W MAIN ST  PO BOX 59,ELLINGTON,NY,14732,07,Chautauqua,7162872168,42.21592,-79.10791,"(42.21592, -79.10791)",2035,1723,223
FALCONER FIRE DEPARTMENT,07015,101 W MAIN STREET,FALCONER,NY,14733,07,Chautauqua,7166656208,42.117123,-79.197971,"(42.117123, -79.197971)",2035,1712,224
FINDLEY LAKE FIRE DEPARTMENT,07016,10372 MAIN ST PO BOX 158,FINDLEY LAKE,NY,14736,07,Chautauqua,7167697321,42.12942,-79.7416,"(42.12942, -79.7416)",2035,1714,207
FLUVANNA FIRE DEPARTMENT,07017,3536 FLUVANNA AVE EXT,JAMESTOWN,NY,14701,07,Chautauqua,7164838505,42.11889,-79.290769,"(42.11889, -79.290769)",2035,1687,224
FORESTVILLE FIRE DEPARTMENT,07018,18 CHESTNUT ST PO BOX 299,FORESTVILLE,NY,14062,07,Chautauqua,7169654106,42.468965,-79.179586,"(42.468965, -79.179586)",2035,518,237
FREDONIA FIRE DEPARTMENT,07019,80 WEST MAIN STREET,FREDONIA,NY,14063,07,Chautauqua,7166722124,42.438063,-79.33336,"(42.438063, -79.33336)",2035,519,214
FREWSBURG FIRE DEPARTMENT,07020,88 W MAIN ST PO BOX 590,FREWSBURG,NY,14736,07,Chautauqua,7165693505,42.052705,-79.163838,"(42.052705, -79.163838)",2035,1716,231
GERRY FIRE DEPARTMENT,07021,4490 GERRY LEVNT RD POB 182,GERRY,NY,14740,07,Chautauqua,7169854648,42.192985,-79.248063,"(42.192985, -79.248063)",2035,1718,221
HARTFIELD FIRE DEPARTMENT,07022,PO BOX 182  6078 ELMWOOD RD,MAYVILLE,NY,14757,07,Chautauqua,7167532459,42.24224,-79.49711,"(42.24224, -79.49711)",2035,1731,213
IRVING FIRE DEPARTMENT,07023,12847 ERIE ST  PO BOX 357,IRVING,NY,14081,07,Chautauqua,7169344639,42.56251,-79.135982,"(42.56251, -79.135982)",2035,529,237
JAMESTOWN FIRE DEPARTMENT,07024,200 SPRING STREET,JAMESTOWN,NY,14701,07,Chautauqua,7164837598,42.095983,-79.238599,"(42.095983, -79.238599)",2035,1687,218
KENNEDY FIRE DEPARTMENT NO 1,07025,3590 DAILEY HILL ROAD,KENNEDY,NY,14747,07,Chautauqua,7162674655,42.157967,-79.102433,"(42.157967, -79.102433)",2035,1723,215
KIANTONE FIRE DEPARTMENT,07026,2318 STILLWATR FREWSBURG RD,JAMESTOWN,NY,14701,07,Chautauqua,7166645433,42.058799,-79.21246,"(42.058799, -79.21246)",2035,1687,217
LAKEWOOD FIRE DEPARTMENT,07027,37 J W PACKARD BLVD,LAKEWOOD,NY,14750,07,Chautauqua,7167633005,42.100247,-79.324943,"(42.100247, -79.324943)",2035,1725,232
LILY DALE FIRE DEPARTMENT,07028,17 EAST STREET PO BOX 245,LILY DALE,NY,14752-0245,07,Chautauqua,7165953470,42.34905,-79.32952,"(42.34905, -79.32952)",2035,1699,208
MAPLE SPRINGS FIRE DEPARTMENT,07029,PO BOX D  5385 MAPLE SPG,MAPLE SPRINGS,NY,14756,07,Chautauqua,7163862114,42.19681,-79.42209,"(42.19681, -79.42209)",2035,1730,225
MAYVILLE FIRE DEPARTMENT,07030,1 S ERIE ST PO BOX 2,MAYVILLE,NY,14757,07,Chautauqua,7167532322,42.253905,-79.504809,"(42.253905, -79.504809)",2035,1731,213
PANAMA FIRE DEPARTMENT,07031,27 E MAIN ST  PO BOX 57,PANAMA,NY,14769,07,Chautauqua,7167822345,42.074997,-79.480151,"(42.074997, -79.480151)",2035,1733,219
PORTLAND FIRE DEPT,07032,6481 W MAIN RD PO BOX 229,PORTLAND,NY,14769-0229,07,Chautauqua,7167929296,42.375112,-79.478238,"(42.375112, -79.478238)",2035,1734,212
RIPLEY FIRE DEPARTMENT,07033,15 SOUTH STATE ST,RIPLEY,NY,14775,07,Chautauqua,7167362001,42.265369,-79.709523,"(42.265369, -79.709523)",2035,1738,211
SHERIDAN FIRE DEPARTMENT,07034,2800 ROUTE 20 PO BOX 122,SHERIDAN,NY,14135,07,Chautauqua,7166791212,42.48687,-79.23661,"(42.48687, -79.23661)",2035,2,210
SHERMAN FIRE DEPARTMENT,07035,PO BOX 574  122 PARK ST,SHERMAN,NY,14781,07,Chautauqua,7167616700,42.160705,-79.595068,"(42.160705, -79.595068)",2035,1742,209
SILVER CREEK FIRE DEPARTMENT,07036,172 CENTRAL AVE PO BOX 70,SILVER CREEK,NY,14136,07,Chautauqua,7169343036,42.545033,-79.169914,"(42.545033, -79.169914)",2035,2,237
SINCLAIRVILLE FIRE DEPARTMENT,07037,30 MAIN ST PO BOX 403,SINCLAIRVILLE,NY,14782,07,Chautauqua,7169622025,42.263965,-79.258937,"(42.263965, -79.258937)",2035,1743,220
STOCKTON FIRE DEPARTMENT,07038,7243 ROUTE 380 PO BOX 12,STOCKTON,NY,14784,07,Chautauqua,7165953068,42.31556,-79.38198,"(42.31556, -79.38198)",2035,1745,208
SUNSET BAY FIRE DEPARTMENT,07039,12798 ALLEGANY ROAD,IRVING,NY,14081,07,Chautauqua,7169344880,42.560755,-79.131909,"(42.560755, -79.131909)",2035,529,237
WEST DUNKIRK FIRE DEPARTMENT,07040,4741 WILLOW ROAD,DUNKIRK,NY,14048,07,Chautauqua,7163661231,42.464089,-79.368298,"(42.464089, -79.368298)",2035,508,226
WESTFIELD FIRE DEPARTMENT,07041,20 CLINTON STREET,WESTFIELD,NY,14787,07,Chautauqua,7163262661,42.323651,-79.577671,"(42.323651, -79.577671)",2035,1746,205
HANOVER FIRE DEPARTMENT,07042,11919 HANOVER ROAD,SILVER CREEK,NY,14136,07,Chautauqua,7169347389,42.517845,-79.131708,"(42.517845, -79.131708)",2035,2,237
BALDWIN FIRE DEPARTMENT,08002,460 BREESPORT-N CHEMUNG RD,LOWMAN,NY,14861,08,Chemung,6077343068,42.088247,-76.700091,"(42.088247, -76.700091)",2036,51,490
BIG FLATS FIRE DEPARTMENT,08003,PO BOX 28  505 MAPLE STREET,BIG FLATS,NY,14814,08,Chemung,6075623063,42.14106,-76.933014,"(42.14106, -76.933014)",2036,1760,492
BREESPORT FIRE DEPARTMENT,08004,3 JACKSON AVENUE PO BOX A,BREESPORT,NY,14816,08,Chemung,6077391953,42.18075,-76.73351,"(42.18075, -76.73351)",2036,1777,481
CHEMUNG VOLUNTEER FIRE DEPT,08005,679 MAIN STREET,CHEMUNG,NY,14825,08,Chemung,6075293233,42.05116,-76.6233,"(42.05116, -76.6233)",2036,1771,489
ELMIRA FIRE DEPARTMENT,08006,101-109 WEST SECOND STREET,ELMIRA,NY,14901,08,Chemung,6077375700,42.091892,-76.807425,"(42.091892, -76.807425)",2036,926,483
ELMIRA HEIGHTS FIRE DEPARTMENT,08007,215 ELMWOOD AVENUE,ELMIRA HEIGHTS,NY,13094,08,Chemung,6077336580,42.127812,-76.82168,"(42.127812, -76.82168)",2036,927,481
ERIN FIRE DEPARTMENT,08008,1462 BREESPORT ROAD,ERIN,NY,14838,08,Chemung,6077393417,42.185947,-76.666193,"(42.185947, -76.666193)",2036,1777,482
GOLDEN GLOW FIRE DEPT,08009,39 ALVORD DR PO BOX 3045,ELMIRA,NY,14902,08,Chemung,6077344474,42.084094,-76.872496,"(42.084094, -76.872496)",2036,929,492
HORSEHEADS FIRE DEPARTMENT,08010,134 N MAIN STREET,HORSEHEADS,NY,14845,08,Chemung,6077395045,42.169087,-76.822292,"(42.169087, -76.822292)",2036,1783,481
MILLPORT FIRE DEPARTMENT,08011,2016 CRESCENT ST  PO BOX A,MILLPORT,NY,14864,08,Chemung,6077391030,42.265533,-76.835538,"(42.265533, -76.835538)",2036,52,478
PINE CITY FIRE DEPARTMENT,08012,1463 PENNSYLVANIA AV POB 72,PINE CITY,NY,14871,08,Chemung,6077336941,42.040915,-76.859952,"(42.040915, -76.859952)",2036,57,480
SOUTHPORT FIRE DEPARTMENT,08014,1001 CARL STREET,ELMIRA,NY,14904,08,Chemung,6077337599,42.059441,-76.809013,"(42.059441, -76.809013)",2036,928,480
TOMPKINS CORNERS FIRE DEPARTMENT,08015,422 CHAMBERS RD,HORSEHEADS,NY,14845,08,Chemung,6077397415,42.204287,-76.88921,"(42.204287, -76.88921)",2036,1783,491
TOWN AND COUNTRY FIRE DEPARTMENT,08016,130 GARDNER ROAD,HORSEHEADS,NY,14845,08,Chemung,6077397134,42.167265,-76.832156,"(42.167265, -76.832156)",2036,1783,481
VAN ETTEN FIRE DEPARTMENT,08017,2 HIXSON STREET  PO BOX 88,VAN ETTEN,NY,14889,08,Chemung,6075894530,42.198579,-76.55134,"(42.198579, -76.55134)",2036,918,479
WEBB MILLS FIRE DEPARTMENT,08018,PO BOX 97,PINE CITY,NY,14871,08,Chemung,6077321028,42.03588,-76.87267,"(42.03588, -76.87267)",2036,57,480
WELLSBURG FIRE DEPARTMENT,08019,3661 FRONT STREET PO BOX 23,WELLSBURG,NY,14894,08,Chemung,6077347628,42.02112,-76.76891,"(42.02112, -76.76891)",2036,922,493
WEST HILL FIRE DEPARTMENT,08020,471 WEST HILL ROAD,ELMIRA,NY,14903,08,Chemung,6077333346,42.116834,-76.864283,"(42.116834, -76.864283)",2036,927,492
EAST HILL FIRE DEPARTMENT,08022,266 JERUSALEM HILL ROAD,ELMIRA,NY,14901,08,Chemung,6077345535,42.083858,-76.760796,"(42.083858, -76.760796)",2036,926,484
WEST ELMIRA FIRE DEPT,08023,1299 WEST WATER STREET,ELMIRA,NY,14905,08,Chemung,6077342204,42.077852,-76.845352,"(42.077852, -76.845352)",2036,929,484
VAN ETTEN TOWN FIRE DEPARTMENT,08024,PO BOX 67,VAN ETTEN,NY,14889,08,Chemung,,,,,,,
AFTON FIRE DEPARTMENT,09001,15 SPRING STREET,AFTON,NY,13730,09,Chenango,6076391848,42.228585,-75.527079,"(42.228585, -75.527079)",2037,1625,280
BAINBRIDGE FIRE DEPARTMENT,09002,22 WEST MAIN,BAINBRIDGE,NY,13733,09,Chenango,6079673281,42.294085,-75.48035,"(42.294085, -75.48035)",2037,1628,279
BORDEN HOSE FIRE DEPARTMENT,09003,PO BOX 197,MT UPTON,NY,13809,09,Chenango,6077648517,42.39255,-75.40072,"(42.39255, -75.40072)",2037,441,111
BRISBEN FIRE DEPARTMENT,09004,2716 STATE HIGHWAY 12,BRISBEN,NY,13830,09,Chenango,6076568130,42.4291,-75.62265,"(42.4291, -75.62265)",2037,451,269
COVENTRY FIRE DEPARTMENT,09005,109 NORTH ROAD,GREENE,NY,13778,09,Chenango,6076568071,42.316654,-75.63854,"(42.316654, -75.63854)",2037,393,278
GENEGANTSLET FIRE DEPARTMENT,09007,PO BOX 151,SMITHVILLE FLATS,NY,13841,09,Chenango,6076564382,42.39885,-75.83935,"(42.39885, -75.83935)",2037,458,265
GUILFORD FIRE DEPARTMENT,09008,110 MECHANIC STREET,GUILFORD,NY,13780,09,Chenango,6078956814,42.404721,-75.491374,"(42.404721, -75.491374)",2037,394,111
GREENE FIRE DEPARTMENT,09009,8 NORTH CANAL STREET,GREENE,NY,13778,09,Chenango,6076569724,42.330905,-75.77073,"(42.330905, -75.77073)",2037,393,276
MC DONOUGH FIRE DEPARTMENT,09010,PO BOX 99,MC DONOUGH,NY,13801,09,Chenango,6076475308,42.50227,-75.77655,"(42.50227, -75.77655)",2037,434,272
NORWICH FIRE DEPARTMENT,09011,31 EAST MAIN STREET,NORWICH,NY,13815,09,Chenango,6073343411,42.531471,-75.521233,"(42.531471, -75.521233)",2037,446,273
NORTH NORWICH FIRE DEPARTMENT,09012,108 BEACH LANE BOX X,NORTH NORWICH,NY,13814,09,Chenango,6073347340,42.61792,-75.52279,"(42.61792, -75.52279)",2037,446,274
NEW BERLIN FIRE DEPARTMENT,09013,PO BOX T,NEW BERLIN,NY,13411,09,Chenango,6078478516,42.6244,-75.33074,"(42.6244, -75.33074)",2037,1273,275
OXFORD FIRE DEPARTMENT,09014,20 MAIN STREET PO BOX 570,OXFORD,NY,13830,09,Chenango,6078437951,42.4291,-75.62265,"(42.4291, -75.62265)",2037,451,269
PRESTON FIRE DEPARTMENT,09015,124 CTY RD 19,OXFORD,NY,13830,09,Chenango,6073361013,42.46151,-75.62572,"(42.46151, -75.62572)",2037,451,267
PLYMOUTH FIRE DEPARTMENT,09016,3461 STATE RTE 23 PO BX 112,PLYMOUTH,NY,13832,09,Chenango,6073343049,42.65984,-75.6709,"(42.65984, -75.6709)",2037,452,248
SHERBURNE FIRE DEPARTMENT,09017,15 WEST STATE STREET,SHERBURNE,NY,13460,09,Chenango,6076749560,42.678275,-75.499937,"(42.678275, -75.499937)",2037,1373,266
SMYRNA FIRE DEPARTMENT,09018,1 EAST MAIN STREET,SMYRNA,NY,13464,09,Chenango,6076276222,42.67687,-75.61705,"(42.67687, -75.61705)",2037,1375,248
SOUTH NEW BERLIN FIRE DEPT,09019,PO BOX 164,SOUTH NEW BERLIN,NY,13843,09,Chenango,6078592284,42.53002,-75.38608,"(42.53002, -75.38608)",2037,460,275
SOUTH OTSELIC FIRE DEPARTMENT,09020,1577 STATE HWY 26 PO BOX 41,SOUTH OTSELIC,NY,13155,09,Chenango,3156534455,42.65152,-75.77114,"(42.65152, -75.77114)",2037,692,270
PHARSALIA FIRE DEPARTMENT,09023,838 COUNTY ROAD 10,EAST PHARSALIA,NY,13758,09,Chenango,6076475772,42.50227,-75.77655,"(42.50227, -75.77655)",2037,434,272
ALTONA FIRE DEPARTMENT,10002,PO BX 36  480 DEVILS DEN RD,ALTONA,NY,12910,10,Clinton,5182367223,44.886813,-73.655651,"(44.886813, -73.655651)",2038,204,16
BEEKMANTOWN FIRE DEPARTMENT,10004,6973 STATE ROUTE 22,WEST CHAZY,NY,12992,10,Clinton,5185634303,44.70092,-73.46677,"(44.70092, -73.46677)",2038,202,5
NORTH HOOSICK FIRE DEPARTMENT,42023,PO BOX 94,NORTH HOOSICK,NY,12133,42,Rensselaer,5186865322,,,,,,
CADYVILLE FIRE DEPARTMENT,10005,PO BOX 97   2122 ROUTE 3,CADYVILLE,NY,12918,10,Clinton,5182938326,44.68187,-73.6683,"(44.68187, -73.6683)",2038,211,2
CHAMPLAIN FIRE DEPARTMENT,10006,612 ELM STREET PO BOX 489,CHAMPLAIN,NY,12919,10,Clinton,5182985500,44.986091,-73.44157,"(44.986091, -73.44157)",2038,212,9
CHAZY FIRE DEPARTMENT,10007,9666 ROUTE 9,CHAZY,NY,12921,10,Clinton,5188467326,44.86955,-73.45399,"(44.86955, -73.45399)",2038,337,14
DANNEMORA VILLAGE FIRE DEPT,10008,163 EMMONS ST PO BOX 123,DANNEMORA,NY,12929,10,Clinton,5184922202,44.722082,-73.724254,"(44.722082, -73.724254)",2038,221,11
CUMBERLAND HEAD FIRE DEPARTMENT,10009,38 FIREHOUSE LANE,PLATTSBURGH,NY,12901,10,Clinton,5185616515,44.723861,-73.417963,"(44.723861, -73.417963)",2038,202,3
ELLENBURG CENTER FIRE DEPARTMENT,10012,1 CHURCH STREET PO BOX 1,ELLENBURG CENTER,NY,12934,10,Clinton,5185943850,44.864449,-73.894774,"(44.864449, -73.894774)",2038,225,10
CAIRO HOSE FIRE DEPARTMENT,20004,BOX 500,CAIRO,NY,12413,20,Greene,5186223112,42.30163,-73.99801,"(42.30163, -73.99801)",2087,88,778
ELLENBURG DEPOT FIRE DEPARTMENT,10013,5035 ROUTE 11,ELLENBURG DEPOT,NY,12935,10,Clinton,5185947010,44.86069,-73.78495,"(44.86069, -73.78495)",2038,226,10
KEESEVILLE FIRE DEPARTMENT,10014,8 PLEASANT STREET,KEESEVILLE,NY,12944,10,Clinton,5188349053,44.508275,-73.480493,"(44.508275, -73.480493)",2038,273,18
LYON MOUNTAIN FIRE DEPARTMENT,10015,9 FIREHOUSE RD PO BOX 145,LYON MOUNTAIN,NY,12952,10,Clinton,5187354334,44.72577,-73.95432,"(44.72577, -73.95432)",2038,277,11
MOOERS FIRE DEPARTMENT,10016,2508 RT 11    MAIN STREET,MOOERS,NY,12958,10,Clinton,5182365311,44.95898,-73.58159,"(44.95898, -73.58159)",2038,282,6
MORRISONVILLE FIRE DEPARTMENT,10017,PO BOX 207  1927 RTE 22B,MORRISONVILLE,NY,12962,10,Clinton,5185631112,44.694264,-73.56376,"(44.694264, -73.56376)",2038,286,1
PERU FIRE DEPARTMENT,10018,753 BEAR SWAMP RD PO BX 635,PERU,NY,12972,10,Clinton,5186439271,44.57674,-73.5165,"(44.57674, -73.5165)",2038,293,8
PLATTSBURGH FIRE DEPARTMENT,10019,65 CORNELIA STREET,PLATTSBURGH,NY,12901,10,Clinton,5185612347,44.699168,-73.45663,"(44.699168, -73.45663)",2038,202,5
ROUSES POINT FIRE DEPARTMENT,10021,48 LAKE STREET,ROUSES POINT,NY,12979,10,Clinton,5182975502,44.995546,-73.36531,"(44.995546, -73.36531)",2038,300,9
SARANAC FIRE DEPARTMENT,10022,PO BOX 130  3277 RTE 3,SARANAC,NY,12981,10,Clinton,5182938290,44.666,-73.76888,"(44.666, -73.76888)",2038,302,2
SOUTH PLATTSBURGH FIRE DEPT,10023,PO BOX 2009,PLATTSBURGH,NY,12901,10,Clinton,5187260058,44.651673,-73.444811,"(44.651673, -73.444811)",2038,202,3
WEST CHAZY FIRE DEPARTMENT,10024,7656 RT 22 PO BOX 185,WEST CHAZY,NY,12992,10,Clinton,5184934995,44.812264,-73.506217,"(44.812264, -73.506217)",2038,337,14
CHURUBUSCO FIRE DEPARTMENT,10025,1301 CLINTON MLS RD POB 26,CHURUBUSCO,NY,12923,10,Clinton,5184976623,44.954264,-73.927407,"(44.954264, -73.927407)",2038,216,13
PLATTSBURG FD DISTRICT #3,10026,128 WALLACE HILL ROAD,PLATTSBURGH,NY,12901,10,Clinton,5185617370,44.720352,-73.48622,"(44.720352, -73.48622)",2038,202,3
ANCRAM FIRE DEPARTMENT,11001,BOX 114,ANCRAM,NY,12502,11,Columbia,5183293430,42.06411,-73.6628,"(42.06411, -73.6628)",619,946,526
CANAAN FIRE DEPARTMENT,11003,PO BOX 207,CANAAN,NY,12029,11,Columbia,5187814787,42.40609,-73.4299,"(42.40609, -73.4299)",619,1155,530
CHATHAM FIRE DEPARTMENT,11004,10 HOFFMAN AVENUE,CHATHAM,NY,12037,11,Columbia,5183922751,42.358261,-73.600431,"(42.358261, -73.600431)",619,1161,525
EAST CHATHAM FIRE DEPARTMENT,11005,43 ALESSI ROAD,OLD CHATHAM,NY,12136,11,Columbia,5183929469,42.410407,-73.523906,"(42.410407, -73.523906)",619,1185,529
NORTH CHATHAM FIRE DEPARTMENT,11006,PO BOX 132,NORTH CHATHAM,NY,12132,11,Columbia,5187663366,42.476245,-73.626889,"(42.476245, -73.626889)",619,1301,529
CHURCHTOWN FIRE DEPARTMENT,11007,PO BOX 655,CLAVERACK,NY,12513,11,Columbia,5188512227,42.24822,-73.77092,"(42.24822, -73.77092)",619,977,515
CLAVERACK FIRE DEPARTMENT,11008,DRAWER A,CLAVERACK,NY,12513,11,Columbia,5188519869,42.21772,-73.70847,"(42.21772, -73.70847)",619,958,7
CLERMONT FIRE DEPARTMENT,11009,65 FIRE HOUSE ROAD,GERMANTOWN,NY,12526,11,Columbia,5185374803,42.090639,-73.894796,"(42.090639, -73.894796)",619,970,4
COPAKE FIRE DEPARTMENT,11010,390 CENTER HILL ROAD,COPAKE,NY,12516,11,Columbia,5183294464,42.09881,-73.56392,"(42.09881, -73.56392)",619,961,528
CRARYVILLE FIRE DEPARTMENT,11011,PO BOX 350,CRARYVILLE,NY,12521,11,Columbia,5183254888,42.16636,-73.64881,"(42.16636, -73.64881)",619,965,521
GERMANTOWN FIRE DEPARTMENT,11013,PO BOX 331,GERMANTOWN,NY,12526,11,Columbia,5185375735,42.133057,-73.884509,"(42.133057, -73.884509)",619,970,527
GHENT FIRE DEPARTMENT,11014,PO BOX 32,GHENT,NY,12075,11,Columbia,5183923838,42.326275,-73.61947,"(42.326275, -73.61947)",619,1223,525
GREENPORT FIRE DEPARTMENT,11015,129 MIDDLE ROAD,HUDSON,NY,12534,11,Columbia,5188281719,42.24822,-73.77092,"(42.24822, -73.77092)",619,977,515
HILLSDALE FIRE DEPARTMENT,11016,9387 STATE RTE 22,HILLSDALE,NY,12529,11,Columbia,5183253098,42.184355,-73.517719,"(42.184355, -73.517719)",619,973,517
HUDSON FIRE DEPARTMENT,11017,520 WARREN STREET,HUDSON,NY,12534,11,Columbia,5188229752,42.24822,-73.77092,"(42.24822, -73.77092)",619,977,515
KINDERHOOK FIRE DEPARTMENT,11018,39 CHATHAM STREET,KINDERHOOK,NY,12106,11,Columbia,5187589220,42.399075,-73.696028,"(42.399075, -73.696028)",619,1239,524
LEBANON VALLEY FIRE DEPARTMENT,11019,BOX 162,NEW LEBANON,NY,12125,11,Columbia,5187940519,42.466449,-73.392531,"(42.466449, -73.392531)",619,1298,511
LIVINGSTON FIRE DEPARTMENT,11021,PO BOX 34,LIVINGSTON,NY,12541-0034,11,Columbia,5188512710,42.11677,-73.71462,"(42.11677, -73.71462)",619,946,521
MELLENVILLE FIRE DEPARTMENT,11022,33 COUNTY RT 9,MELLENVILLE,NY,12544,11,Columbia,5186727014,42.25193,-73.66104,"(42.25193, -73.66104)",619,1000,7
NIVERVILLE FIRE DEPARTMENT,11023,PO BOX 422,NIVERVILLE,NY,12130,11,Columbia,5187842961,42.4446,-73.65956,"(42.4446, -73.65956)",619,1299,524
PHILMONT FIRE DEPARTMENT,11024,1 MAPLE AVENUE,PHILMONT,NY,12565,11,Columbia,5186727401,42.25235,-73.64086,"(42.25235, -73.64086)",619,1000,7
RED ROCK FIRE DEPARTMENT,11025,99 CODY LANE,EAST CHATHAM,NY,12060,11,Columbia,5183926459,42.418,-73.48931,"(42.418, -73.48931)",619,1185,530
AUSTERLITZ FIRE DEPARTMENT,11026,PO BOX 98,SPENCERTOWN,NY,12165,11,Columbia,5183923578,42.31636,-73.50175,"(42.31636, -73.50175)",619,1410,531
STOCKPORT FIRE DEPARTMENT,11027,43 ROUTE 25,HUDSON,NY,12534,11,Columbia,5188284524,,,,,,
STOTTVILLE FIRE DEPARTMENT,11028,PO BOX 169,STOTTVILLE,NY,12172,11,Columbia,5188281817,42.286354,-73.752545,"(42.286354, -73.752545)",619,977,523
STUYVESANT FIRE DEPARTMENT,11029,194 ROUTE 26A,STUYVESANT,NY,12173,11,Columbia,5187993620,42.36834,-73.75346,"(42.36834, -73.75346)",619,1417,522
STUYVESANT FALLS FIRE DEPARTMENT,11030,9 FIREHOUSE LANE PO BOX 56,STUYVESANT FALLS,NY,12174,11,Columbia,5187996433,42.35589,-73.73004,"(42.35589, -73.73004)",619,1418,522
TAGHKANIC FIRE DEPARTMENT,11031,631 OLD ROUTE 82,WEST TAGHKANIC,NY,12502,11,Columbia,5188517476,42.06411,-73.6628,"(42.06411, -73.6628)",619,946,526
TRI-VILLAGE FIRE DEPARTMENT,11032,593 ALBANY TPKE,OLD CHATHAM,NY,12136,11,Columbia,5183922386,42.44063,-73.557078,"(42.44063, -73.557078)",619,1303,529
VALATIE FIRE DEPARTMENT,11033,3102  LAKE STREET,VALATIE,NY,12184,11,Columbia,5187589732,42.416519,-73.672353,"(42.416519, -73.672353)",619,14,524
WEST GHENT FIRE DEPARTMENT,11034,425 ROUTE 20,GHENT,NY,12075,11,Columbia,5188284502,42.28599,-73.716537,"(42.28599, -73.716537)",619,1223,525
CINCINNATUS FIRE DEPARTMENT,12001,5722 TELEPHONE ROAD EXT,CINCINNATUS,NY,13040,12,Cortland,6078634445,42.541633,-75.898535,"(42.541633, -75.898535)",620,358,671
CORTLAND FIRE DEPARTMENT,12002,21 COURT STREET,CORTLAND,NY,13045,12,Cortland,6077565612,42.599301,-76.178821,"(42.599301, -76.178821)",620,362,784
CUYLER FIRE DEPARTMENT,12003,PO BOX 364,DE RUYTER,NY,13052,12,Cortland,6078426630,42.73261,-75.96738,"(42.73261, -75.96738)",620,695,639
HARFORD FIRE DEPARTMENT,12004,760 RTE 221 PO BOX 7,HARFORD,NY,13784,12,Cortland,6078449200,42.42608,-76.22654,"(42.42608, -76.22654)",620,397,779
HOMER FIRE DEPARTMENT,12005,45 SOUTH MAIN ST PO BOX 58,HOMER,NY,13077,12,Cortland,6077493121,42.635195,-76.178644,"(42.635195, -76.178644)",620,629,775
MARATHON FIRE DEPARTMENT,12006,PECK AVENUE PO BOX 488,MARATHON,NY,13803,12,Cortland,6078496157,42.440357,-76.034838,"(42.440357, -76.034838)",620,436,765
MC GRAW FIRE DEPARTMENT,12007,7 W CENTER ST PO BOX 717,MC GRAW,NY,13101,12,Cortland,6078364123,42.594523,-76.09568,"(42.594523, -76.09568)",620,640,783
PREBLE FIRE DEPARTMENT,12008,1911 PREBLE ROAD,PREBLE,NY,13141,12,Cortland,6077494237,42.735555,-76.148975,"(42.735555, -76.148975)",620,682,753
TRUXTON FIRE DEPARTMENT,12009,3741 RT 13 PO BOX 118,TRUXTON,NY,13158,12,Cortland,6078426291,42.73261,-75.96738,"(42.73261, -75.96738)",620,695,639
VIRGIL FIRE DEPARTMENT,12010,1195 WEST STATE ROAD,CORTLAND,NY,13045,12,Cortland,6078356400,42.510555,-76.196537,"(42.510555, -76.196537)",620,362,780
WILLET FIRE DEPARTMENT,12011,5524 RTE 41,WILLET,NY,13863,12,Cortland,6078633363,42.469285,-75.911568,"(42.469285, -75.911568)",620,472,723
CORTLANDVILLE FIRE DEPARTMENT,12013,999 ROUTE 13,CORTLAND,NY,13045,12,Cortland,6077539014,42.579654,-76.20993,"(42.579654, -76.20993)",620,362,783
ANDES FIRE DEPARTMENT,13001,5259 CO HWY 1  PO BOX 475,ANDES,NY,13731,13,Delaware,8456764588,42.18371,-74.789411,"(42.18371, -74.789411)",2039,1626,583
ARENA FIRE DEPARTMENT,13002,2411 MILLBROOK RD,MARGARETVILLE,NY,12455,13,Delaware,9145864785,42.08844,-74.69201,"(42.08844, -74.69201)",2039,249,570
ARKVILLE FIRE DEPT,13003,43365 STATE HIGHWAY 28,ARKVILLE,NY,12406,13,Delaware,9145864480,42.147643,-74.619711,"(42.147643, -74.619711)",2039,82,570
BLOOMVILLE FIRE DEPARTMENT,13004,POB 756  243 SCOTCH HILL RD,BLOOMVILLE,NY,13739,13,Delaware,6075389081,42.335548,-74.811021,"(42.335548, -74.811021)",2039,1631,574
BOVINA CENTER FIRE DEPARTMENT,13005,36 MAPLE AVENUE,BOVINA CENTER,NY,13740,13,Delaware,6078324857,42.262478,-74.781007,"(42.262478, -74.781007)",2039,1632,582
COOKS FALLS FIRE DEPARTMENT,13006,116 COOKS FALLS ROAD,ROSCOE,NY,12776,13,Delaware,6074984447,41.948057,-74.980598,"(41.948057, -74.980598)",2039,1093,581
DAVENPORT FIRE DEPARTMENT,13007,15838 STATE HIGHWAY 23,DAVENPORT,NY,13750,13,Delaware,6072785222,42.47144,-74.84471,"(42.47144, -74.84471)",2039,380,579
DELHI FIRE DEPARTMENT,13008,140 DELVIEW TERR EX POB 405,DELHI,NY,13753,13,Delaware,6077462221,42.27961,-74.91371,"(42.27961, -74.91371)",2039,383,578
DOWNSVILLE FIRE DEPARTMENT,13010,15166 STATE HIGHWAY 30,DOWNSVILLE,NY,13755,13,Delaware,6073637362,42.05067,-75.01249,"(42.05067, -75.01249)",2039,385,581
EAST BRANCH FIRE DEPARTMENT,13011,29 BRIDGE STREET,EAST BRANCH,NY,13756,13,Delaware,6073637140,42.0392,-75.11213,"(42.0392, -75.11213)",2039,386,552
EAST MEREDITH FIRE DEPARTMENT,13012,6192 COUNTY HIGHWAY 10,EAST MEREDITH,NY,13757,13,Delaware,6072785747,42.40775,-74.91055,"(42.40775, -74.91055)",2039,387,571
FLEISCHMANNS FIRE DEPARTMENT,13013,1298 MAIN STREET,FLEISCHMANNS,NY,12430,13,Delaware,9142545924,42.20351,-74.48996,"(42.20351, -74.48996)",2087,124,770
FRANKLIN FIRE DEPARTMENT,13014,351 MAIN STREET,FRANKLIN,NY,13775,13,Delaware,6078292802,42.341664,-75.164318,"(42.341664, -75.164318)",2039,390,576
GRAND GORGE HOSE FIRE DEPARTMENT,13015,37429 ST HWY 23 PO BOX 40,GRAND GORGE,NY,12434,13,Delaware,6075886666,42.42875,-74.652,"(42.42875, -74.652)",2039,1412,551
HALCOTTSVILLE FIRE DEPARTMENT,13016,369 HALCOTTSVILLE ROAD,HALCOTTSVILLE,NY,12438,13,Delaware,6073264244,42.207535,-74.601132,"(42.207535, -74.601132)",2039,188,570
HANCOCK FIRE DEPARTMENT,13017,24501 ST HWY 97 PO BOX 883,HANCOCK,NY,13783,13,Delaware,,41.944151,-75.273624,"(41.944151, -75.273624)",2039,396,552
HOBART FIRE DEPARTMENT,13018,80 CORNELL AVE PO BOX 237,HOBART,NY,13788,13,Delaware,6075389815,42.36078,-74.6398,"(42.36078, -74.6398)",2039,428,564
MARGARETVILLE FIRE DEPARTMENT,13019,77 CHURCH ST PO BOX 201,MARGARETVILLE,NY,12455,13,Delaware,9145862801,42.16697,-74.63317,"(42.16697, -74.63317)",2039,249,570
MASONVILLE FIRE DEPARTMENT,13020,15488 ST HWY 8 PO BOX 362,MASONVILLE,NY,13804,13,Delaware,6072653524,42.2148,-75.3705,"(42.2148, -75.3705)",2039,437,545
MERIDALE FIRE DEPARTMENT,13021,50 COUNTY HIGHWAY 10,MERIDALE,NY,13806,13,Delaware,6077467180,,,,,,
PINDARS CORNERS FIRE DEPARTMENT,13022,8898 STATE HWAY 23,EST DAVENPORT,NY,13860,13,Delaware,6074332245,42.43835,-74.964964,"(42.43835, -74.964964)",2039,447,579
ROXBURY FIRE DEPARTMENT,13023,53613 ST HWY 30 PO BOX 514,ROXBURY,NY,12474,13,Delaware,6073263712,42.285014,-74.564476,"(42.285014, -74.564476)",2039,266,566
SIDNEY FIRE DEPARTMENT,13024,74 RIVER STREET,SIDNEY,NY,13838,13,Delaware,6075638881,42.312479,-75.399,"(42.312479, -75.399)",2039,456,565
SIDNEY CENTER FIRE DEPARTMENT,13025,10433 CO HWAY 23 PO BOX 302,SIDNEY CENTER,NY,13839,13,Delaware,6073697750,42.25079,-75.24796,"(42.25079, -75.24796)",2039,457,545
SOUTH KORTRIGHT FIRE DEPT,13026,10668 COUNTY HIGHWAY 18,SOUTH KORTRIGHT,NY,13842,13,Delaware,6075389038,42.38792,-74.7337,"(42.38792, -74.7337)",2039,459,574
STAMFORD FIRE DEPARTMENT,13027,111 MAIN STREET,STAMFORD,NY,12167,13,Delaware,6076527241,42.40873,-74.617847,"(42.40873, -74.617847)",2039,1412,564
TREADWELL FIRE DEPARTMENT,13028,9202 COUNTY HIGHWAY 16,TREADWELL,NY,13846,13,Delaware,,42.35763,-75.06177,"(42.35763, -75.06177)",2039,463,576
TROUT CREEK FIRE DEPARTMENT,13029,8695 COUNTY HIGHWAY 27,TROUT CREEK,NY,13847,13,Delaware,6078656207,42.206253,-75.280116,"(42.206253, -75.280116)",2039,457,563
WALTON FIRE DEPARTMENT,13030,59-61 WEST STREET,WALTON,NY,13856,13,Delaware,6078655229,42.174411,-75.139315,"(42.174411, -75.139315)",2039,467,562
AMENIA FIRE DEPARTMENT,14001,PO BOX 166  36 MECHANIC ST,AMENIA,NY,12501,14,Dutchess,8453738467,41.849019,-73.552878,"(41.849019, -73.552878)",2040,945,605
ARLINGTON FIRE DEPARTMENT,14002,11 BURNETT BOULEVARD,POUGHKEEPSIE,NY,12603,14,Dutchess,8454866300,41.69692,-73.888499,"(41.69692, -73.888499)",2040,1022,598
BEACON FIRE DEPARTMENT,14003,13 SOUTH AVENUE,BEACON,NY,12508,14,Dutchess,8457650899,41.503024,-73.966554,"(41.503024, -73.966554)",2040,950,606
BEEKMAN FIRE DEPARTMENT,14004,316 BEEKMAN-POUGHQUAG ROAD,POUGHQUAG,NY,12570,14,Dutchess,8457245280,41.611741,-73.684684,"(41.611741, -73.684684)",2040,1004,604
CHELSEA FIRE DEPARTMENT,14005,16 LIBERTY ST PO BOX 61,CHELSEA,NY,12512,14,Dutchess,8458314434,41.552552,-73.96718,"(41.552552, -73.96718)",2040,957,608
DOVER FIRE DEPARTMENT,14006,3133 RTE 22 PO BOX 706,DOVER PLAINS,NY,12522,14,Dutchess,8458779381,41.7389,-73.580072,"(41.7389, -73.580072)",2040,966,602
EAST CLINTON FIRE DEPARTMENT,14007,PO BOX 1  9 FIREHOUSE RD,CLINTON CORNERS,NY,12514,14,Dutchess,8452663602,41.83694,-73.79331,"(41.83694, -73.79331)",2040,959,603
EAST FISHKILL FIRE DEPARTMENT,14008,2502 RT 52,HOPEWELL JUNCTION,NY,12533,14,Dutchess,8452261652,41.55341,-73.792171,"(41.55341, -73.792171)",2040,976,573
FAIRVIEW FIRE DEPARTMENT,14009,258 VIOLET AVENUE,POUGHKEEPSIE,NY,12601,14,Dutchess,8454527543,41.729749,-73.910456,"(41.729749, -73.910456)",2040,1021,598
FISHKILL FIRE DEPARTMENT,14010,1132 MAIN STREET,FISHKILL,NY,12524,14,Dutchess,8458966613,41.535695,-73.901408,"(41.535695, -73.901408)",2040,968,572
GLENHAM FIRE DEPARTMENT,14011,76 OLD GLENHAM RD POB 391,GLENHAM,NY,12527,14,Dutchess,8458312322,41.51973,-73.93738,"(41.51973, -73.93738)",2040,971,572
HILLSIDE FIRE DEPARTMENT,14012,11 FOX HOLLOW RD,RHINEBECK,NY,12572,14,Dutchess,8458763307,41.892019,-73.910524,"(41.892019, -73.910524)",2040,1006,611
HUGHSONVILLE FIRE DEPARTMENT,14013,88 OLD HOPEWLL RD PO BX 545,HUGHSONVILLE,NY,12537,14,Dutchess,8452973735,41.57888,-73.91097,"(41.57888, -73.91097)",2040,1018,608
HYDE PARK FIRE DEPARTMENT,14014,4306 ALBNY POST RDPOB 2007,HYDE PARK,NY,12538,14,Dutchess,8452295258,41.785563,-73.93349,"(41.785563, -73.93349)",2040,978,569
LA GRANGE FIRE DEPARTMENT,14015,504 FREEDOM PLAINS ROAD,POUGHKEEPSIE,NY,12603,14,Dutchess,8454524998,41.679333,-73.852999,"(41.679333, -73.852999)",2040,1022,568
MILAN FIRE DEPARTMENT,14016,900 ROUTE 199,MILAN,NY,12571,14,Dutchess,8455329911,41.968904,-73.807571,"(41.968904, -73.807571)",2040,1005,567
MILLBROOK FIRE DEPARTMENT,14017,20 FRONT ST PO BOX 202,MILLBROOK,NY,12545,14,Dutchess,8456773871,41.783136,-73.695661,"(41.783136, -73.695661)",2040,982,607
MILLERTON FIRE DEPARTMENT,14018,24 CENTURY BLVD PO BOX 733,MILLERTON,NY,12546,14,Dutchess,9147893215,41.954123,-73.507432,"(41.954123, -73.507432)",2040,983,599
NEW HACKENSACK FIRE DEPARTMENT,14019,217 MYERS CORNERS ROAD,WAPPINGERS FALLS,NY,12590,14,Dutchess,8452973897,41.606557,-73.871251,"(41.606557, -73.871251)",2040,1018,608
NEW HAMBURG FIRE DEPARTMENT,14020,15 CHANNINGVILLE ROAD,WAPPINGERS FALLS,NY,12590,14,Dutchess,8454624952,41.592446,-73.941765,"(41.592446, -73.941765)",2040,1018,598
PAWLING FIRE DEPARTMENT,14021,25 SOUTH STREET PO BOX 132,PAWLING,NY,12564,14,Dutchess,8458553630,41.552797,-73.602211,"(41.552797, -73.602211)",2040,999,596
PINE PLAINS FIRE DEPARTMENT,14022,7 LAKE ROAD PO BOX 668,PINE PLAINS,NY,12567,14,Dutchess,5183981311,41.9955,-73.65855,"(41.9955, -73.65855)",2040,1002,586
PLEASANT VALLEY FIRE DEPARTMENT,14023,1619 MAIN ST PO BOX 417,PLEASANT VALLEY,NY,12569,14,Dutchess,8456359350,41.744648,-73.822924,"(41.744648, -73.822924)",2040,1003,601
POUGHKEEPSIE FIRE DEPARTMENT,14024,18 NORTH CLOVER STREET,POUGHKEEPSIE,NY,12601,14,Dutchess,8454514080,41.706576,-73.935267,"(41.706576, -73.935267)",2040,1021,600
RED HOOK FIRE DEPARTMENT,14025,42 FIREHOUSE LA PO BOX 100,RED HOOK,NY,12571,14,Dutchess,8457588706,41.989379,-73.876699,"(41.989379, -73.876699)",2040,1005,597
RHINEBECK FIRE DEPARTMENT,14026,76 MARKET STREET,RHINEBECK,NY,12572,14,Dutchess,8458762645,41.93349,-73.88073,"(41.93349, -73.88073)",2040,1006,611
RHINECLIFF FIRE DEPARTMENT,14027,17 SHATZELL AVE PO BOX 6,RHINECLIFF,NY,12574,14,Dutchess,8458766149,41.91908,-73.95178,"(41.91908, -73.95178)",2040,1007,611
ROOSEVELT FIRE DEPARTMENT,14028,1 ROOSEVELT RD PO BOX 394,HYDE PARK,NY,12538,14,Dutchess,8454546299,41.768335,-73.904958,"(41.768335, -73.904958)",2040,978,569
STAATSBURG FIRE DEPARTMENT,14029,49 OLD POST RD PO BOX 205,STAATSBURG,NY,12580,14,Dutchess,8456569767,41.847995,-73.929022,"(41.847995, -73.929022)",2040,1011,569
STANFORD FIRE CO 1,14030,6096 RTE 82,STANFORDVILLE,NY,12581,14,Dutchess,8458681313,41.92469,-73.68508,"(41.92469, -73.68508)",2040,1012,610
TIVOLI FIRE DEPARTMENT,14031,2 TIVOLI COMMONS PO BOX 486,TIVOLI,NY,12583,14,Dutchess,8457574445,42.059053,-73.912002,"(42.059053, -73.912002)",2040,1014,597
UNION VALE FIRE DEPT,14032,3373 RTE 82 PO BOX 21,VERBANK,NY,12585,14,Dutchess,8456779841,41.72417,-73.71129,"(41.72417, -73.71129)",2040,1015,609
WASSAIC FIRE DEPARTMENT,14033,27 FIREHOUSE RD PO BOX 287,WASSAIC,NY,12592,14,Dutchess,8453738807,41.806743,-73.559059,"(41.806743, -73.559059)",2040,1019,605
WAPPINGERS FALLS FIRE DEPARTMENT,14034,2628 SOUTH AVENUE,WAPPINGERS FALLS,NY,12590,14,Dutchess,8452978773,41.596918,-73.917743,"(41.596918, -73.917743)",2040,1018,608
WEST CLINTON FIRE DEPARTMENT,14035,219 HOLLOW ROAD,STAATSBURG,NY,12580-5607,14,Dutchess,8458894444,41.93349,-73.88073,"(41.93349, -73.88073)",2040,1006,611
ROMBOUT FIRE DEPARTMENT,14037,901 MAIN ST PO BOX 401,FISHKILL,NY,12524,14,Dutchess,8458968620,41.527959,-73.913598,"(41.527959, -73.913598)",2040,968,572
DUTCHESS JUNCTION FIRE DEPT,14038,75 SLOCUM ROAD PO BOX 107,BEACON,NY,12508,14,Dutchess,8319430,41.50686,-73.9611,"(41.50686, -73.9611)",2040,950,606
AKRON FIRE DEPARTMENT,15001,1 MAIN ST  PO BOX 1,AKRON,NY,14001,15,Erie,7165429091,43.020082,-78.502899,"(43.020082, -78.502899)",2041,480,292
ALDEN FIRE DEPARTMENT,15002,13336 BROADWAY,ALDEN,NY,14004,15,Erie,7169379216,42.900163,-78.490835,"(42.900163, -78.490835)",2041,481,309
ANGOLA FIRE DEPARTMENT,15003,41 COMMERCIAL ST PO BOX 303,ANGOLA,NY,14006,15,Erie,7165493022,42.637473,-79.028789,"(42.637473, -79.028789)",2041,483,299
ARMOR FIRE DEPARTMENT,15004,4932 CLARK ST  PO BOX 971,HAMBURG,NY,14075,15,Erie,7166499821,42.73975,-78.799379,"(42.73975, -78.799379)",2041,527,297
BELLEVUE FIRE DEPARTMENT,15005,511 COMO PARK BLVD,CHEEKTOWAGA,NY,14227,15,Erie,7166851680,42.892788,-78.740534,"(42.892788, -78.740534)",2041,162,304
BIG TREE FIRE DEPARTMENT,15006,4307 SOUTH PARK AVE,BLASDELL,NY,14219,15,Erie,7168256144,42.77952,-78.823893,"(42.77952, -78.823893)",2041,108,297
BLASDELL FIRE DEPARTMENT,15007,121 MIRIAM AVENUE,BLASDELL,NY,14219,15,Erie,7168250456,42.797996,-78.829812,"(42.797996, -78.829812)",2041,108,297
BLOSSOM FIRE DEPARTMENT,15008,1000 N BLOSSOM ROAD,ELMA,NY,14059,15,Erie,7166682775,42.854064,-78.692408,"(42.854064, -78.692408)",2041,515,294
FONDA FIRE DEPARTMENT,29007,PO BOX 71,FONDA,NY,12068,29,Montgomery,5188531372,42.954518,-74.373668,"(42.954518, -74.373668)",624,1217,488
BOSTON FIRE DEPARTMENT,15009,6746 MILL ST  PO BOX 357,BOSTON,NY,14025,15,Erie,7169416200,42.628713,-78.738227,"(42.628713, -78.738227)",2041,491,303
BOWMANSVILLE FIRE DEPARTMENT,15010,36 MAIN STREET PO BOX 137,BOWMANSVILLE,NY,14026,15,Erie,7166830910,42.942263,-78.685384,"(42.942263, -78.685384)",2041,492,293
BRANT VOLUNTEER FIRE DEPARTMENT,15011,1231 BRANT-FRNHM RD POB 184,BRANT,NY,14027,15,Erie,7165493691,42.58852,-79.01755,"(42.58852, -79.01755)",2041,938,302
BRIGHTON FIRE DEPARTMENT,15012,50 JAMAICA ROAD,TONAWANDA,NY,14150,15,Erie,7168376255,42.992963,-78.840565,"(42.992963, -78.840565)",2041,8,283
CLARENCE FIRE DEPARTMENT,15013,10355 MAIN ST PO BOX 340,CLARENCE,NY,14031,15,Erie,7167598919,42.979059,-78.603454,"(42.979059, -78.603454)",2041,495,301
CLARENCE CENTER FIRE DEPT,15014,9415 CLARNCE CTR RD POB 252,CLARENCE CENTER,NY,14032,15,Erie,7167412062,43.010738,-78.640122,"(43.010738, -78.640122)",2041,496,301
CLEVELAND HILL FIRE DEPT #6,15015,440 CLEVELAND DRIVE,CHEEKTOWAGA,NY,14225,15,Erie,7168362161,42.944955,-78.78269,"(42.944955, -78.78269)",2041,160,304
COLDEN FIRE DEPARTMENT,15016,8448 GUTEKUNST RD POB 176,COLDEN,NY,14033,15,Erie,7169415353,42.652475,-78.685967,"(42.652475, -78.685967)",2041,497,300
COLLINS FIRE DEPARTMENT,15017,2365 MAIN ST PO BOX 361,COLLINS,NY,14034,15,Erie,7165323918,42.496486,-78.916564,"(42.496486, -78.916564)",2041,498,289
COLLINS CENTER FIRE DEPARTMENT,15018,3514 MAIN ST  PO BOX 461,COLLINS CENTER,NY,14035,15,Erie,7165323300,42.494194,-78.855504,"(42.494194, -78.855504)",2041,499,289
CRITTENDEN FIRE DEPARTMENT,15019,13415 GENESEE ST PO BOX 120,CRITTENDEN,NY,14038,15,Erie,7169379166,42.95968,-78.4077,"(42.95968, -78.4077)",2086,500,790
DEPEW FIRE DEPARTMENT,15020,85 MANITOU ST  PO BOX 21,DEPEW,NY,14043,15,Erie,7166839803,42.904778,-78.68627,"(42.904778, -78.68627)",2041,506,293
DOYLE HOSE FIRE DEPARTMENT,15021,2199 WILLIAM STREET,CHEEKTOWAGA,NY,14206,15,Erie,7168246188,42.874711,-78.796922,"(42.874711, -78.796922)",2041,62,304
EAST AURORA FIRE DEPARTMENT,15023,575 OAKWOOD AVENUE,EAST AURORA,NY,14052,15,Erie,7166528200,42.765575,-78.613715,"(42.765575, -78.613715)",2041,510,307
EAST CONCORD FIRE DEPARTMENT,15024,9413 GENESEE ROAD,EAST CONCORD,NY,14055,15,Erie,7165924567,42.552102,-78.644285,"(42.552102, -78.644285)",2041,512,288
EAST EDEN FIRE DEPARTMENT,15025,8097 EAST EDEN ROAD,EDEN,NY,14057,15,Erie,7169923160,42.666021,-78.827425,"(42.666021, -78.827425)",2041,513,287
EAST SENECA FIRE DEPARTMENT,15026,100 LEIN ROAD,WEST SENECA,NY,14224,15,Erie,7166745107,42.838039,-78.711956,"(42.838039, -78.711956)",2041,159,281
EDEN FIRE DEPARTMENT,15027,2791 E CHURCH ST PO BOX 85,EDEN,NY,14057,15,Erie,7169924062,42.65234,-78.895966,"(42.65234, -78.895966)",2041,513,287
EGGERTSVILLE FIRE DEPARTMENT,15028,1880 EGGERT ROAD,BUFFALO,NY,14226,15,Erie,7168368942,42.976993,-78.811794,"(42.976993, -78.811794)",2041,161,308
ELLICOTT CREEK FIRE DEPARTMENT,15029,45 SOUTH ELLICOTTT CREEK RD,AMHERST,NY,14228,15,Erie,7166917439,43.024137,-78.820622,"(43.024137, -78.820622)",2041,163,308
ELLWOOD FIRE DEPARTMENT,15030,1000 ENGLEWOOD AVE,KENMORE,NY,14223,15,Erie,7168779524,42.970793,-78.850989,"(42.970793, -78.850989)",2041,158,283
ELMA FIRE DEPARTMENT,15031,2945 BOWEN RD  PO BOX 3,ELMA,NY,14059,15,Erie,7166521676,42.84961,-78.640196,"(42.84961, -78.640196)",2041,515,294
EVANS CENTER FIRE DEPARTMENT,15032,8298 ERIE ROAD PO BOX 193,ANGOLA,NY,14006,15,Erie,7165491221,42.63703,-79.04899,"(42.63703, -79.04899)",2041,483,299
FARNHAM FIRE DEPARTMENT,15033,526 COMMERCIAL ST,FARNHAM,NY,14061,15,Erie,7165495489,42.59301,-79.082918,"(42.59301, -79.082918)",2041,517,302
FORKS HOSE FIRE DEPARTMENT,15034,3330 BROADWAY,CHEEKTOWAGA,NY,14227,15,Erie,7166838668,42.903873,-78.751995,"(42.903873, -78.751995)",2041,162,304
GETZVILLE FIRE DEPARTMENT,15035,630 DODGE RD  PO BOX 111,GETZVILLE,NY,14068,15,Erie,7166880116,43.024255,-78.769277,"(43.024255, -78.769277)",2041,523,308
GRAND ISLAND FIRE DEPARTMENT,15037,2275 BASELINE ROAD,GRAND ISLAND,NY,14072,15,Erie,7167734334,43.02392,-78.965687,"(43.02392, -78.965687)",2041,526,298
HAMBURG FIRE DEPARTMENT,15038,301 UNION STREET PO BOX 82,HAMBURG,NY,14075,15,Erie,7166491753,42.71743,-78.839005,"(42.71743, -78.839005)",2041,527,297
HARRIS HILL FIRE DEPARTMENT,15039,8630 MAIN STREET,WILLIAMSVILLE,NY,14221,15,Erie,7166321199,42.965329,-78.67162,"(42.965329, -78.67162)",2041,110,301
HOLLAND FIRE DEPARTMENT,15043,49 N MAIN STREET PO BOX 610,HOLLAND,NY,14080,15,Erie,7165379568,42.641857,-78.543005,"(42.641857, -78.543005)",2041,528,296
HUTCHINSON HOSE DEPARTMENT,15044,5565 MAIN STREET,WILLIAMSVILLE,NY,14221,15,Erie,7166324070,42.96257,-78.745899,"(42.96257, -78.745899)",2041,110,308
HYVIEW FIRE DEPARTMENT,15045,8 AIRPORT DRIVE,DEPEW,NY,14043,15,Erie,7166842371,42.924337,-78.721105,"(42.924337, -78.721105)",2041,506,304
JAMISON ROAD FIRE DEPARTMENT,15046,1071 JAMISON ROAD,ELMA,NY,14059,15,Erie,7166526760,42.805051,-78.622194,"(42.805051, -78.622194)",2041,515,294
KENILWORTH FIRE DEPARTMENT,15047,84 HAWTHORNE AVE,BUFFALO,NY,14223,15,Erie,7168340138,42.960726,-78.8261,"(42.960726, -78.8261)",2041,158,283
KENMORE FIRE DEPT,15048,16 NASH ROAD,KENMORE,NY,14217,15,Erie,7168753274,42.965344,-78.869445,"(42.965344, -78.869445)",2041,106,283
LACKAWANNA FIRE DEPARTMENT,15049,1630 ABBOTT ROAD,LACKAWANNA,NY,14218,15,Erie,7168276436,42.820526,-78.801938,"(42.820526, -78.801938)",2041,107,295
LAKE ERIE BEACH FIRE DEPT,15050,9483 LAKE SHORE ROAD,ANGOLA,NY,14006,15,Erie,7165491122,42.626907,-79.09018,"(42.626907, -79.09018)",2041,483,299
LAKE SHORE FIRE DEPARTMENT,15051,4591 LAKE SHORE RD,HAMBURG,NY,14075,15,Erie,7166273522,42.758676,-78.883954,"(42.758676, -78.883954)",2041,527,297
LAKE VIEW FIRE DEPARTMENT,15052,2005 LAKE VIEW RD PO BX 345,LAKE VIEW,NY,14085,15,Erie,7166277941,42.72431,-78.9329,"(42.72431, -78.9329)",2041,531,297
LANCASTER FIRE DEPARTMENT,15053,5423 BROADWAY  PO BOX 15,LANCASTER,NY,14086,15,Erie,7166831901,42.900296,-78.67008,"(42.900296, -78.67008)",2041,532,293
LANGFORD NEW OREGON FIRE DEPT,15054,3901 LANGFORD ROAD,NORTH COLLINS,NY,14111,15,Erie,7163373440,42.587415,-78.839489,"(42.587415, -78.839489)",2041,938,291
LAWTONS FIRE DEPARTMENT,15055,GOWANDA STATE RD  PO BOX 84,LAWTONS,NY,14091,15,Erie,7163372555,42.539001,-78.930637,"(42.539001, -78.930637)",2041,533,291
MAIN TRANSIT FIRE DEPARTMENT,15056,6777 MAIN STREET,WILLIAMSVILLE,NY,14231,15,Erie,7166329710,42.965347,-78.701285,"(42.965347, -78.701285)",2041,110,308
MARILLA FIRE DEPARTMENT,15057,1950 WEST AVE PO BOX 124,MARILLA,NY,14102,15,Erie,7166521080,42.84178,-78.55531,"(42.84178, -78.55531)",2041,933,163
CHAFFEE-SARDINIA FIRE DEPT,15058,13670 BRIGGS ST  PO BOX 203,CHAFFEE,NY,14030,15,Erie,7164965150,42.55167,-78.51108,"(42.55167, -78.51108)",2041,494,286
MILLGROVE FIRE DEPARTMENT,15059,11621 GENESEE ST,ALDEN,NY,14004,15,Erie,7169377612,42.943625,-78.55488,"(42.943625, -78.55488)",2041,481,309
MORTONS CORNERS FIRE DEPT,15060,RD #1 MORTONS CORNERS ROAD,SPRINGVILLE,NY,14141,15,Erie,7165924665,42.5242,-78.67118,"(42.5242, -78.67118)",2041,5,288
NEWSTEAD FIRE DEPARTMENT,15061,5691 CUMMINGS RD PO BOX 386,AKRON,NY,14001,15,Erie,7165425337,43.001467,-78.517085,"(43.001467, -78.517085)",2041,480,292
NEWTON ABBOTT FIRE DEPARTMENT,15062,3426 ABBOTT RD PO BOX 2001,BLASDELL,NY,14219,15,Erie,7168253663,42.78961,-78.82382,"(42.78961, -78.82382)",2041,108,297
NORTH AMHERST FIRE DEPARTMENT,15063,2200 TONAWANDA CREEK ROAD,AMHERST,NY,14228,15,Erie,7166917131,43.068073,-78.770753,"(43.068073, -78.770753)",2041,163,308
NORTH BAILEY FIRE DEPARTMENT,15064,966 SWEET HOME ROAD,AMHERST,NY,14226,15,Erie,7168369571,42.989218,-78.805681,"(42.989218, -78.805681)",2041,161,308
NORTH BOSTON FIRE DEPARTMENT,15065,7223 BOSTON STATE RD BX 124,NORTH BOSTON,NY,14110,15,Erie,7166490974,42.67352,-78.75503,"(42.67352, -78.75503)",2041,527,303
NORTH COLLINS FIRE DEPARTMENT,15066,10543 MAIN ST PO BOX 448,NORTH COLLINS,NY,14111,15,Erie,7163373294,42.594714,-78.940859,"(42.594714, -78.940859)",2041,938,291
NORTH EVANS FIRE DEPARTMENT,15067,6980 VARSAILLES RD PO BX 92,NORTH EVANS,NY,14112,15,Erie,7166273410,42.68528,-78.94228,"(42.68528, -78.94228)",2041,513,287
ORCHARD PARK FIRE DEPARTMENT,15068,30 SCHOOL ST PO BOX 1140,ORCHARD PARK,NY,14127,15,Erie,7166621127,42.67352,-78.75503,"(42.67352, -78.75503)",2041,527,303
PATCHIN FIRE DEPARTMENT,15069,8333 BOSTON STATE RD BX 173,BOSTON,NY,14025,15,Erie,7169413555,42.657305,-78.747221,"(42.657305, -78.747221)",2041,491,303
PINE HILL HOSE FIRE DEPT,15070,2435 GENESEE STREET,CHEEKTOWAGA,NY,14225,15,Erie,7168968690,42.919998,-78.792763,"(42.919998, -78.792763)",2041,160,304
RESCUE HOSE FIRE DEPARTMENT,15071,20 PINE RIDGE ROAD,CHEEKTOWAGA,NY,14211,15,Erie,7168971168,42.907621,-78.796433,"(42.907621, -78.796433)",2041,67,304
RESERVE HOSE FIRE DEPARTMENT,15072,2400 BERG ROAD,WEST SENECA,NY,14218,15,Erie,7166751122,42.80946,-78.763206,"(42.80946, -78.763206)",2041,107,281
RIVER ROAD FIRE DEPARTMENT,15073,39 KAUFMAN AVENUE,TONAWANDA,NY,14150,15,Erie,7168749140,42.974293,-78.928288,"(42.974293, -78.928288)",2041,8,283
SCRANTON FIRE DEPARTMENT,15074,5395 SCRANTON ROAD,HAMBURG,NY,14075,15,Erie,7166484563,42.740062,-78.831937,"(42.740062, -78.831937)",2041,527,297
SENECA HOSE FIRE DEPARTMENT,15075,2801 SENECA STREET,WEST SENECA,NY,14224,15,Erie,7168255511,42.842497,-78.788963,"(42.842497, -78.788963)",2041,159,281
SHERIDAN PARK FIRE DEPARTMENT,15076,738 SHERIDAN DRIVE,TONAWANDA,NY,14150,15,Erie,7168731111,42.978902,-78.904686,"(42.978902, -78.904686)",2041,8,283
SLOAN ACTIVE HOSE FIRE DEPT,15077,55 GATES AVENUE,SLOAN,NY,14212,15,Erie,7168971564,42.826456,-78.848579,"(42.826456, -78.848579)",2041,107,295
SNYDER FIRE DEPARTMENT,15078,4531 MAIN STREET,SNYDER,NY,14226,15,Erie,7168393440,42.962894,-78.782638,"(42.962894, -78.782638)",2041,161,308
SOUTH LINE FIRE DEPARTMENT,15079,1049 FRENCH ROAD,CHEEKTOWAGA,NY,14227,15,Erie,7166681232,42.867754,-78.713493,"(42.867754, -78.713493)",2041,162,304
SOUTH WALES FIRE DEPARTMENT,15080,6406 OLEAN RD  PO BOX 185,SOUTH WALES,NY,14139,15,Erie,7166526659,42.710299,-78.578126,"(42.710299, -78.578126)",2041,4,282
SPRING BROOK FIRE DEPARTMENT,15081,70 POUND RD  PO BOX 310,SPRING BROOK,NY,14140,15,Erie,7166522670,42.823391,-78.679874,"(42.823391, -78.679874)",2041,515,294
SPRINGVILLE FIRE DEPARTMENT,15082,405 WEST MAIN ST PO BOX 12,SPRINGVILLE,NY,14141,15,Erie,7165924487,42.5242,-78.67118,"(42.5242, -78.67118)",2041,5,288
SWORMVILLE FIRE DEPARTMENT,15083,6971 TRANSIT RD PO BOX 707,EAST AMHERST,NY,14051,15,Erie,7166887055,43.038991,-78.696845,"(43.038991, -78.696845)",2041,509,301
TONAWANDA FIRE DEPT (CITY),15084,44 WILLIAM STREET,TONAWANDA,NY,14150,15,Erie,7166921275,43.017259,-78.876274,"(43.017259, -78.876274)",2041,8,285
TOWN LINE FIRE DEPARTMENT,15085,6507 BROADWAY,LANCASTER,NY,14086,15,Erie,7166830385,42.890749,-78.58022,"(42.890749, -78.58022)",2041,532,293
EAST AMHERST FIRE DEPARTMENT,15086,9100 TRANSIT RD PO BOX 55,EAST AMHERST,NY,14051,15,Erie,7166882121,43.016639,-78.697065,"(43.016639, -78.697065)",2041,509,308
TWIN DISTRICT FIRE DEPARTMENT,15087,4999 WILLIAM ST PO BOX 406,LANCASTER,NY,14086,15,Erie,7166813118,42.880758,-78.670367,"(42.880758, -78.670367)",2041,532,293
U-CREST FIRE DEPARTMENT,15088,255 CLOVER PLACE,CHEEKTOWAGA,NY,14225,15,Erie,7166342633,42.923394,-78.755049,"(42.923394, -78.755049)",2041,160,304
UNION FIRE DEPARTMENT,15089,2055 UNION ROAD,WEST SENECA,NY,14224,15,Erie,7166682828,42.85623,-78.754578,"(42.85623, -78.754578)",2041,159,281
VIGILANT FIRE DEPARTMENT,15090,666 MAIN STREET,WEST SENECA,NY,14224,15,Erie,7166741453,42.834015,-78.750567,"(42.834015, -78.750567)",2041,159,281
WALES CENTER FIRE DEPARTMENT,15091,12300 BIG TREE RD  BOX 124,WALES CENTER,NY,14169,15,Erie,7166521051,42.76789,-78.52194,"(42.76789, -78.52194)",2041,510,282
WEST FALLS FIRE DEPARTMENT,15092,1864 DAVIS RD PO BOX 140,WEST FALLS,NY,14170,15,Erie,7166521353,42.704738,-78.681136,"(42.704738, -78.681136)",2041,27,307
WINCHESTER FIRE DEPARTMENT,15093,514 HARLEM ROAD,WEST SENECA,NY,14224,15,Erie,7168242565,42.856749,-78.787801,"(42.856749, -78.787801)",2041,159,281
WOODLAWN FIRE DEPARTMENT,15095,S-3281 LAKE SHORE ROAD,BLASDELL,NY,14219,15,Erie,7168242284,42.796796,-78.846715,"(42.796796, -78.846715)",2041,108,297
INDUSTRIAL FIRE DEPARTMENT #1,15097,1835 SHERIDAN DRIVE,KENMORE,NY,14223,15,Erie,,,,,,,
BUFFALO FIRE DEPARTMENT,15100,195 COURT STREET,BUFFALO,NY,14202,15,Erie,7168515333,42.887005,-78.881198,"(42.887005, -78.881198)",2041,33,306
AUSABLE FORKS FIRE DEPARTMENT,16001,29 SCHOOL ST PO BOX 785,AUSABLE FORKS,NY,12912,16,Essex,5186475582,44.48598,-73.7599,"(44.48598, -73.7599)",2038,206,15
BLOOMINGDALE FIRE DEPARTMENT,16002,1635 STATE RT 3 PO BOX 226,BLOOMINGDALE,NY,12913,16,Essex,5188911770,44.39829,-74.07402,"(44.39829, -74.07402)",2084,207,419
CHILSON FIRE DEPARTMENT,16003,60 PUTTS POND ROAD,TICONDEROGA,NY,12883,16,Essex,5185852510,43.87418,-73.530618,"(43.87418, -73.530618)",2084,154,436
CROWN POINT FIRE DEPARTMENT,16004,2764 MAIN ST,CROWN POINT,NY,12928,16,Essex,5185973211,43.95112,-73.43033,"(43.95112, -73.43033)",2084,220,459
ELIZABETHTOWN FIRE DEPARTMENT,16005,22 WOODRUFF ST PO BOX 457,ELIZABETHTOWN,NY,12932,16,Essex,5188739944,44.214896,-73.584893,"(44.214896, -73.584893)",2084,223,438
ESSEX FIRE DEPARTMENT NO. 1,16006,RTE 22W BOX 58,ESSEX,NY,12936,16,Essex,5189637619,44.23855,-73.40427,"(44.23855, -73.40427)",2084,267,406
JAY FIRE DEPARTMENT,16007,PO BOX 358,JAY,NY,12941,16,Essex,5189462552,44.389656,-73.710402,"(44.389656, -73.710402)",2084,270,412
KEENE FIRE DEPARTMENT,16008,1 EAST HILL ROAD BOX 136,KEENE,NY,12942,16,Essex,5185764301,44.2529,-73.78776,"(44.2529, -73.78776)",2084,271,454
KEENE VALLEY FIRE DEPARTMENT,16009,"PO BOX 699, MARKET STREET",KEENE VALLEY,NY,12943,16,Essex,5185764727,44.189522,-73.79019,"(44.189522, -73.79019)",2084,272,454
LAKE PLACID FIRE DEPARTMENT,16011,RIVER STREET EXT PO BOX 569,LAKE PLACID,NY,12946,16,Essex,5185233211,44.269992,-73.99269,"(44.269992, -73.99269)",2084,275,443
LEWIS FIRE DEPARTMENT,16012,18 FIRE HOUSE LA PO BOX 23,LEWIS,NY,12950,16,Essex,5188732232,44.30939,-73.57114,"(44.30939, -73.57114)",2084,276,453
MINEVILLE-WITHERBEE FIRE DEPT,16013,112 RAYMOND WRIGHT AVENUE,MINEVILLE,NY,12956,16,Essex,5189427126,44.087461,-73.524848,"(44.087461, -73.524848)",2084,280,451
MORIAH FIRE DEPARTMENT,16014,630 TARBELL HILL ROAD,MORIAH,NY,12960,16,Essex,5185463749,44.046222,-73.503993,"(44.046222, -73.503993)",2084,284,451
NEWCOMB FIRE DEPARTMENT,16015,RT 28 N,NEWCOMB,NY,12852,16,Essex,5185823093,43.969394,-74.158971,"(43.969394, -74.158971)",2084,134,450
NORTH HUDSON FIRE DEPARTMENT,16016,3034 US ROUTE 9,NORTH HUDSON,NY,12855,16,Essex,5185327093,43.960461,-73.723777,"(43.960461, -73.723777)",2084,136,421
PORT HENRY FIRE DEPARTMENT,16018,14 CHURCH ST  PO BOX 182,PORT HENRY,NY,12974,16,Essex,5185467771,44.047595,-73.461265,"(44.047595, -73.461265)",2084,295,451
SCHROON LAKE FIRE DEPARTMENT,16020,ROUTE 9 POB 456,SCHROON LAKE,NY,12870,16,Essex,5185327477,43.842236,-73.766577,"(43.842236, -73.766577)",2084,148,417
TICONDEROGA FIRE DEPARTMENT,16021,PO BOX 367 MONTCALM STREET,TICONDEROGA,NY,12883,16,Essex,5185857771,43.848156,-73.429029,"(43.848156, -73.429029)",2084,154,436
UPPER JAY FIRE DEPARTMENT,16022,ROUTE 9N HCR BOX 38,UPPER JAY,NY,12987,16,Essex,5189467022,44.33509,-73.78671,"(44.33509, -73.78671)",2084,306,412
WESTPORT FIRE DEPARTMENT,16023,PO BOX 226,WESTPORT,NY,12993,16,Essex,5189624701,44.186946,-73.43573,"(44.186946, -73.43573)",2084,338,406
WHALLONSBURG FIRE DEPARTMENT,16025,"RT 22, BOX 399, RR1",ESSEX,NY,12936,16,Essex,5189634027,44.23855,-73.40427,"(44.23855, -73.40427)",2084,267,406
WILLSBORO/REBER FIRE DEPT,16026,17 FARRELL ROAD PO BOX 332,WILLSBORO,NY,12996,16,Essex,5189638316,44.374605,-73.394636,"(44.374605, -73.394636)",2084,339,404
WILMINGTON FIRE DEPARTMENT,16027,1197 HASELTON RD PO BOX 425,WILMINGTON,NY,12997,16,Essex,5189467187,44.389899,-73.813516,"(44.389899, -73.813516)",2084,340,435
MINERVA FIRE DEPARTMENT,16028,ROUTE 28N PO BOX 102,OLMSTEDVILLE,NY,12857,16,Essex,5182513333,43.780381,-73.971037,"(43.780381, -73.971037)",2084,133,452
BANGOR FIRE DEPARTMENT,17001,2265 STATE RTE 11,NORTH BANGOR,NY,12966,17,Franklin,5184832780,44.0355,-73.50323,"(44.0355, -73.50323)",2084,284,451
BOMBAY FIRE DEPARTMENT,17002,1856 STATE RTE 95 PO BOX 27,BOMBAY,NY,12914,17,Franklin,5183584502,44.92898,-74.60753,"(44.92898, -74.60753)",621,208,201
BRUSHTON FIRE DEPARTMENT,17003,816 COUNTY RD 7 PO BOX 607,BRUSHTON,NY,12916,17,Franklin,5185296007,44.826606,-74.521276,"(44.826606, -74.521276)",621,209,190
BURKE FIRE DEPARTMENT,17004,1041 E MAIN ST  PO BOX 40,BURKE,NY,12917,17,Franklin,5184832787,44.904644,-74.168708,"(44.904644, -74.168708)",621,210,198
CHATEAUGAY FIRE DEPARTMENT,17005,2 LAKE STREET PO BOX 911,CHATEAUGAY,NY,12920,17,Franklin,5184973135,44.923109,-74.079339,"(44.923109, -74.079339)",621,213,197
CONSTABLE FIRE DEPARTMENT,17006,1136 STATE RT 122 PO BX 151,CONSTABLE,NY,12926,17,Franklin,5184835908,44.929242,-74.297668,"(44.929242, -74.297668)",621,218,196
DICKINSON CENTER FIRE DEPT,17007,7 CHURCH STREET  PO BOX 88,DICKINSON CENTER,NY,12930,17,Franklin,5188569515,44.714197,-74.55287,"(44.714197, -74.55287)",621,222,195
FORT COVINGTON FIRE DEPARTMENT,17008,2454 STATE RT 37 PO BOX 447,FORT COVINGTON,NY,12937,17,Franklin,5183582990,44.987785,-74.498327,"(44.987785, -74.498327)",621,268,194
HOGANSBURG FIRE DEPARTMENT,17009,818 STATE RT 37 PO BOX 426,HOGANSBURG,NY,13655,17,Franklin,5183582161,44.97637,-74.65243,"(44.97637, -74.65243)",621,1579,189
MALONE (CALL FIREMAN) FIRE DEPT,17010,37 FINNY BLVD PO BOX 412,MALONE,NY,12953,17,Franklin,5184834853,44.847719,-74.300844,"(44.847719, -74.300844)",621,278,191
MOIRA FIRE DEPARTMENT,17012,2340 COUNTY RT 5 PO BOX 122,MOIRA,NY,12957,17,Franklin,5185296010,44.81564,-74.56561,"(44.81564, -74.56561)",621,281,190
OWLS HEAD-MT VIEW FIRE DEPT,17013,46 RAGGED LAKE ROAD,OWLS HEAD,NY,12969,17,Franklin,5184837094,44.733522,-74.170683,"(44.733522, -74.170683)",621,291,202
SARANAC LAKE FIRE DEPT,17014,100 BROADWAY PO BOX 509,SARANAC LAKE,NY,12983,17,Franklin,5188912333,44.329681,-74.133813,"(44.329681, -74.133813)",621,303,192
ST REGIS FALLS FIRE DEPT,17015,PO BOX 177,ST REGIS FALLS,NY,12980,17,Franklin,5188569459,44.673379,-74.544539,"(44.673379, -74.544539)",621,301,171
TUPPER LAKE FIRE DEPARTMENT,17016,21 HIGH STREET  PO BOX 849,TUPPER LAKE,NY,12986,17,Franklin,5183593530,44.222532,-74.464409,"(44.222532, -74.464409)",621,305,184
WESTVILLE FIRE DEPARTMENT,17017,3891 STATE ROUTE 37,CONSTABLE,NY,12926,17,Franklin,5183584450,44.942971,-74.394404,"(44.942971, -74.394404)",621,218,187
PAUL SMITH-GABRIELS FIRE DEPT,17018,68 STATE RTE 86  PO BOX 145,GABRIELS,NY,12939,17,Franklin,5183273600,44.42558,-74.16809,"(44.42558, -74.16809)",621,269,199
DUANE FIRE DEPARTMENT,17019,172 COUNTY ROUTE 26,MALONE,NY,12953,17,Franklin,5184830386,44.65922,-74.266179,"(44.65922, -74.266179)",621,278,166
BERKSHIRE FIRE DEPARTMENT,18001,320 STEELE AVENUE EXT,GLOVERSVILLE,NY,12078,18,Fulton,5187251612,43.05696,-74.34146,"(43.05696, -74.34146)",2085,1227,392
BROADALBIN FIRE DEPARTMENT,18002,PO BOX 126,BROADALBIN,NY,12025,18,Fulton,5188833611,43.058493,-74.188601,"(43.058493, -74.188601)",2085,1152,390
CAROGA LAKE FIRE DEPARTMENT,18003,PO BOX 882,CAROGA LAKE,NY,12032,18,Fulton,5188354137,43.22482,-74.51752,"(43.22482, -74.51752)",2085,1157,386
EPHRATAH FIRE DEPARTMENT,18004,4305 ST HWY 10,ST JOHNSVILLE,NY,13452,18,Fulton,5189933182,43.03743,-74.66391,"(43.03743, -74.66391)",2085,1369,385
GLOVERSVILLE FIRE DEPARTMENT,18005,5 FRONTAGE ROAD,GLOVERSVILLE,NY,12078,18,Fulton,5187253125,43.051136,-74.348805,"(43.051136, -74.348805)",2085,1227,392
HILL TOP FIRE DEPARTMENT,18006,7770 ST HWY 29,DOLGEVILLE,NY,13329,18,Fulton,3154293211,43.1007,-74.77267,"(43.1007, -74.77267)",2088,543,690
JOHNSTOWN FIRE DEPARTMENT,18007,244 NORTH PERRY STREET,JOHNSTOWN,NY,12095,18,Fulton,5187364079,43.01461,-74.370377,"(43.01461, -74.370377)",2085,1238,391
MAYFIELD FIRE DEPARTMENT,18008,PO BOX 722,MAYFIELD,NY,12117,18,Fulton,5186615611,43.101903,-74.262044,"(43.101903, -74.262044)",2085,1291,388
MECO FIRE DEPARTMENT,18009,1600 STATE HWAY 29A,GLOVERSVILLE,NY,12078,18,Fulton,5187251173,43.054883,-74.378957,"(43.054883, -74.378957)",2085,1227,389
NORTHVILLE FIRE DEPARTMENT,18010,PO BOX 756,NORTHVILLE,NY,12134,18,Fulton,5188638791,43.225192,-74.171495,"(43.225192, -74.171495)",2085,1302,387
OPPENHEIM CENTER FIRE DEPARTMENT,18011,6786 STATE HWY 29,ST JOHNSVILLE,NY,13452,18,Fulton,5185682036,43.03743,-74.66391,"(43.03743, -74.66391)",2085,1369,385
PERTH FIRE DEPARTMENT,18012,4080 ST HWY 30,AMSTERDAM,NY,12010,18,Fulton,5188838238,42.95356,-74.17751,"(42.95356, -74.17751)",624,1143,500
PLEASANT SQUARE FIRE DEPARTMENT,18013,1208 CO HWY 122,GLOVERSVILLE,NY,12078,18,Fulton,3157254626,43.077022,-74.329203,"(43.077022, -74.329203)",2085,1227,389
ROCKWOOD GAROGA LASSELLSVILLE FD,18014,172 CHURCH STREET,ST JOHNSVILLE,NY,13452,18,Fulton,5187627444,43.048973,-74.600154,"(43.048973, -74.600154)",2085,1369,382
SAMMONSVILLE FIRE DEPARTMENT,18015,1362 STATE HIGHWAY 67,JOHNSTOWN,NY,12095,18,Fulton,5187621404,43.006624,-74.430789,"(43.006624, -74.430789)",2085,1238,389
SIR WILLIAM JOHNSON FIRE DEPT,18016,224 CO HWY 131A,JOHNSTOWN,NY,12095,18,Fulton,5187621220,43.022279,-74.407646,"(43.022279, -74.407646)",2085,1238,389
STRATFORD FIRE DEPARTMENT,18017,COUNTY ROAD 104,STRATFORD,NY,13470,18,Fulton,3154293607,43.19708,-74.65372,"(43.19708, -74.65372)",2085,1378,383
ALABAMA FIRE DEPARTMENT,19001,PO BOX 798,BASOM,NY,14013,19,Genesee,5859485760,43.07737,-78.39152,"(43.07737, -78.39152)",2086,488,798
ALEXANDER FIRE DEPARTMENT,19002,PO BOX 152,ALEXANDER,NY,14005,19,Genesee,5855912411,42.904573,-78.253454,"(42.904573, -78.253454)",2086,482,796
BATAVIA FIRE DEPT (CITY),19003,18 EVANS STREET,BATAVIA,NY,14020,19,Genesee,5853456375,42.995803,-78.186787,"(42.995803, -78.186787)",2086,489,795
BATAVIA FIRE DEPT (TOWN),19004,LEWISTON ROAD PO BOX 417,BATAVIA,NY,14020,19,Genesee,5853443284,43.007676,-78.207078,"(43.007676, -78.207078)",2086,489,794
BERGEN FIRE DEPARTMENT,19005,10 HUNTER ST PO BOX 428,BERGEN,NY,14416,19,Genesee,5854942100,43.088915,-77.942356,"(43.088915, -77.942356)",2086,173,771
BETHANY FIRE DEPARTMENT,19006,5253 OLD TELEPHONE ROAD,EAST BETHANY,NY,14054,19,Genesee,5853440535,42.903999,-78.130628,"(42.903999, -78.130628)",2086,511,712
BYRON FIRE DEPARTMENT,19007,6157 E MAIN ST PO BOX 210,BYRON,NY,14422,19,Genesee,5855482206,43.079668,-78.062161,"(43.079668, -78.062161)",2086,176,797
CORFU FIRE DEPARTMENT,19008,116 E MAIN ST PO BOX 134,CORFU,NY,14036,19,Genesee,5855993618,42.96277,-78.391107,"(42.96277, -78.391107)",2086,500,790
DARIEN CENTER FIRE DEPARTMENT,19009,10537 ALLEGHANY RD,DARIEN,NY,14040,19,Genesee,5855479586,42.90119,-78.3874,"(42.90119, -78.3874)",2086,503,793
EAST PEMBROKE FIRE DEPARTMENT,19010,2623 MAIN RD PO BOX 44,EAST PEMBROKE,NY,14056,19,Genesee,5857629044,42.995849,-78.30763,"(42.995849, -78.30763)",2086,489,794
ELBA FIRE DEPARTMENT,19011,4 S MAIN ST PO BOX 58,ELBA,NY,14058,19,Genesee,5857579011,43.07027,-78.188095,"(43.07027, -78.188095)",2086,514,792
LEROY FIRE DEPARTMENT,19012,4 CLAY STREET,LEROY,NY,14482,19,Genesee,5857682527,42.977451,-77.99238,"(42.977451, -77.99238)",2086,311,721
OAKFIELD FIRE DEPARTMENT,19013,20 ALBERT ST PO BOX 184,OAKFIELD,NY,14125,19,Genesee,5859485810,43.06812,-78.276445,"(43.06812, -78.276445)",2086,954,773
PAVILION FIRE DEPARTMENT,19014,11302 S LAKE RD PO BOX 156,PAVILION,NY,14525,19,Genesee,5855843232,42.87462,-78.02323,"(42.87462, -78.02323)",2086,365,791
PEMBROKE FIRE DEPARTMENT,19015,630 MAIN ROAD,CORFU,NY,14036,19,Genesee,5855993521,42.998489,-78.438627,"(42.998489, -78.438627)",2086,500,790
SOUTH BYRON FIRE DEPARTMENT,19016,7389 ROUTE 237 PO BOX 22,SOUTH BYRON,NY,14557,19,Genesee,5855482451,43.04812,-78.06573,"(43.04812, -78.06573)",2086,176,797
STAFFORD FIRE DEPARTMENT,19017,6153 MAIN ROAD PO BOX 56,STAFFORD,NY,14143,19,Genesee,5853450938,42.981944,-78.075399,"(42.981944, -78.075399)",2086,6,787
INDIAN FALLS FIRE DEPT,19018,8030 ALLEGHENY ROAD,CORFU,NY,14036,19,Genesee,5857628887,43.028914,-78.396936,"(43.028914, -78.396936)",2086,500,790
ASHLAND FIRE DEPARTMENT,20001,RD 1 BOX 49A,ASHLAND,NY,12407,20,Greene,5187343006,42.23923,-74.31383,"(42.23923, -74.31383)",2087,194,767
ATHENS FIRE DEPARTMENT,20002,39 THIRD ST PO BOX 207,ATHENS,NY,12015,20,Greene,5189451597,42.28709,-73.83206,"(42.28709, -73.83206)",2087,1144,732
CATSKILL FIRE DEPARTMENT,20003,422 MAIN STREET,CATSKILL,NY,12414,20,Greene,5189432520,42.220441,-73.865918,"(42.220441, -73.865918)",2087,89,777
COXSACKIE FIRE DEPARTMENT,20005,119 MANSION STREET,COXSACKIE,NY,12051,20,Greene,5184423495,42.35594,-73.808474,"(42.35594, -73.808474)",2087,1177,776
H D LANE FIRE DEPARTMENT,20006,26 BEECHER RD PO BOX 26,LANESVILLE,NY,12450,20,Greene,8456885290,42.120711,-74.270941,"(42.120711, -74.270941)",2087,198,769
EARLTON FIRE DEPARTMENT,20007,PO BOX 187,EARLTON,NY,12058,20,Greene,5187316371,42.389034,-73.94632,"(42.389034, -73.94632)",2087,1183,764
EAST DURHAM FIRE COMPANY,20008,PO BOX 92,EAST DURHAM,NY,12423,20,Greene,5186223856,42.30194,-74.0039,"(42.30194, -74.0039)",2087,88,778
EAST JEWETT FIRE DEPARTMENT,20009,PO BOX 105,EAST JEWETT,NY,12424,20,Greene,5185897180,42.236268,-74.145823,"(42.236268, -74.145823)",2087,120,767
FREEHOLD FIRE DEPARTMENT,20010,PO BOX 128,FREEHOLD,NY,12431,20,Greene,5186347746,42.34101,-74.02838,"(42.34101, -74.02838)",2087,88,778
GREENVILLE FIRE DEPARTMENT,20011,5124 RT 81 PO BOX 296,GREENVILLE,NY,12083,20,Greene,5189668911,42.43031,-74.01438,"(42.43031, -74.01438)",2087,1228,772
HAINES FALLS FIRE DEPARTMENT,20012,PO BOX 233,HAINES FALLS,NY,12436,20,Greene,5185895138,42.19736,-74.09495,"(42.19736, -74.09495)",2087,187,769
HENSONVILLE HOSE FIRE DEPARTMENT,20013,BOX 121,HENSONVILLE,NY,12439,20,Greene,5187343844,42.30849,-74.19244,"(42.30849, -74.19244)",2087,943,763
HUNTER FIRE DEPARTMENT,20014,17 BRIDGE ST PO BOX 181,HUNTER,NY,12442,20,Greene,5188214882,42.23276,-74.27003,"(42.23276, -74.27003)",2087,192,767
JEWETT FIRE DEPARTMENT,20015,PO BOX 201,JEWETT,NY,12444,20,Greene,5187344114,42.269198,-74.303657,"(42.269198, -74.303657)",2087,194,767
KISKATOM FIRE DEPARTMENT,20016,4838 ROUTE 32,CATSKILL,NY,12414,20,Greene,5186789986,42.205433,-73.983507,"(42.205433, -73.983507)",2087,89,777
LEEDS FIRE DEPARTMENT,20017,PO BOX 189,LEEDS,NY,12451,20,Greene,5189432918,42.30242,-73.95201,"(42.30242, -73.95201)",2087,199,778
LEXINGTON-WESTKILL FIRE DEPT,20018,2587 RTE 42 PO BOX 98,WESTKILL,NY,12492,20,Greene,5189899787,42.20928,-74.33664,"(42.20928, -74.33664)",2087,908,766
MEDWAY-GRAPEVILLE FIRE DEPT,20019,522 SODOM RD PO BOX 89,CLIMAX,NY,12087,20,Greene,5187318527,42.39509,-73.88342,"(42.39509, -73.88342)",2087,1177,764
CORNEL HOOK & LADDER FIRE DEPT,20020,BOX 400,NEW BALTIMORE,NY,12124,20,Greene,5187568222,42.44564,-73.78939,"(42.44564, -73.78939)",2087,1297,764
OAK HILL-DURHAM FIRE DEPT,20021,PO BOX 51,OAK HILL,NY,12460,20,Greene,5182394837,42.405905,-74.154555,"(42.405905, -74.154555)",2087,254,774
PALENVILLE FIRE DEPARTMENT,20022,717 ROUTE 32A PO BOX 540,PALENVILLE,NY,12463,20,Greene,5186783311,42.173988,-74.019269,"(42.173988, -74.019269)",2182,256,777
PRATTSVILLE FIRE DEPARTMENT,20023,PO BOX 416,PRATTSVILLE,NY,12468,20,Greene,5182993288,42.31486,-74.43291,"(42.31486, -74.43291)",2087,260,691
ROUND TOP FIRE DEPARTMENT,20024,PO BOX 61,ROUND TOP,NY,12473,20,Greene,5186229509,42.26404,-74.03671,"(42.26404, -74.03671)",2087,265,778
TANNERSVILLE FIRE DEPARTMENT,20025,PO BOX 671,TANNERSVILLE,NY,12485,20,Greene,5185896095,42.1946,-74.1535,"(42.1946, -74.1535)",2087,336,769
WINDHAM HOSE FIRE DEPARTMENT,20026,PO BOX 3,WINDHAM,NY,12496,20,Greene,5187343883,42.33651,-74.26059,"(42.33651, -74.26059)",2087,943,763
WEST ATHENS-LIMESTREET FIRE DEPT,20027,337 VOSENKILL ROAD,ATHENS,NY,12015,20,Greene,5189432347,42.25903,-73.87549,"(42.25903, -73.87549)",2087,89,732
BLUE MOUNTAIN LAKE FIRE DEPT,21001,RT 28 MAIN ST,BLUE MOUNTAIN LAKE,NY,12812,21,Hamilton,5183527740,43.83799,-74.42681,"(43.83799, -74.42681)",622,103,869
HOPE FIRE DEPARTMENT,21002,HC 1 RT 30,NORTHVILLE,NY,12134,21,Hamilton,5189242562,43.2268,-74.17638,"(43.2268, -74.17638)",2085,1302,387
INDIAN LAKE FIRE DEPARTMENT,21003,MAIN STREET PO BOX 773,INDIAN LAKE,NY,12842,21,Hamilton,5186485651,43.75583,-74.28429,"(43.75583, -74.28429)",622,103,869
INLET FIRE DEPARTMENT,21004,PO BOX 300,INLET,NY,13360,21,Hamilton,3153576601,43.72586,-74.73557,"(43.72586, -74.73557)",622,565,868
LAKE PLEASANT FIRE DEPARTMENT,21005,PO BOX 545,LAKE PLEASANT,NY,12108,21,Hamilton,5185483485,43.454857,-74.40261,"(43.454857, -74.40261)",622,1287,867
LONG LAKE FIRE DEPARTMENT,21006,1204 RT 30 PO BOX 576,LONG LAKE,NY,12847,21,Hamilton,5186244599,43.90539,-74.51266,"(43.90539, -74.51266)",622,130,871
MOREHOUSE FIRE DEPARTMENT,21007,HCR BOX 344,COLD BROOK,NY,13324,21,Hamilton,,43.47118,-74.72735,"(43.47118, -74.72735)",622,561,865
PISECO FIRE DEPARTMENT,21008,RT 8 BOX 40,LAKE PLEASANT,NY,12108,21,Hamilton,5185485700,43.55342,-74.43809,"(43.55342, -74.43809)",622,1287,867
RAQUETTE LAKE FIRE DEPARTMENT,21009,PO BOX 160,RAQUETTE LAKE,NY,13436,21,Hamilton,3153544471,43.87131,-74.55318,"(43.87131, -74.55318)",622,130,871
SPECULATOR FIRE DEPARTMENT,21010,RTE 30 & 8 PO BOX 371,SPECULATOR,NY,12164,21,Hamilton,5185486648,43.55909,-74.35659,"(43.55909, -74.35659)",622,1409,867
WELLS FIRE DEPARTMENT,21011,ROUTE 30 BOX 400,WELLS,NY,12190,21,Hamilton,5189243473,43.47344,-74.27389,"(43.47344, -74.27389)",622,20,864
BIG MOOSE FIRE DEPARTMENT,22001,BIG MOOSE ROAD,EAGLE BAY,NY,13331,22,Herkimer,3153573475,43.848964,-74.998,"(43.848964, -74.998)",2088,544,683
CEDARVILLE FIRE DEPARTMENT,22002,960 STATE ROUTE 51,ILION,NY,13357,22,Herkimer,3158225377,42.930954,-75.114118,"(42.930954, -75.114118)",2088,564,694
DOLGEVILLE FIRE DEPARTMENT,22003,20 S HELMER AVENUE,DOLGEVILLE,NY,13329,22,Herkimer,3154298261,43.102632,-74.77331,"(43.102632, -74.77331)",2088,543,690
EAGLE BAY FIRE DEPARTMENT,22004,5516 RT 28 PO BOX 102,EAGLE BAY,NY,13331,22,Herkimer,3153573414,43.81793,-74.87234,"(43.81793, -74.87234)",2088,544,683
EAST HERKIMER FIRE DEPARTMENT,22005,PO BOX 95,HERKIMER,NY,13350,22,Herkimer,3158661140,43.030341,-74.966574,"(43.030341, -74.966574)",2088,559,695
FRANKFORT FIRE DEPARTMENT,22006,158 SOUTH LITCHFIELD STREET,FRANKFORT,NY,13340,22,Herkimer,3158945621,43.038152,-75.073291,"(43.038152, -75.073291)",2088,552,698
FRANKFORT CENTER FIRE DEPARTMENT,22007,799 CENTER ROAD,FRANKFORT,NY,13340,22,Herkimer,3157331937,43.068163,-75.153911,"(43.068163, -75.153911)",2088,552,698
FRANKFORT HILL FIRE DEPARTMENT,22008,2235 ALBANY ROAD,FRANKFORT,NY,13340,22,Herkimer,3155340613,43.03529,-75.184729,"(43.03529, -75.184729)",2088,552,698
HERKIMER FIRE DEPARTMENT,22010,125 N WASHINGTON STREET,HERKIMER,NY,13350,22,Herkimer,3158662242,43.027172,-74.985612,"(43.027172, -74.985612)",2088,559,695
ILION FIRE DEPARTMENT,22011,1 CENTRAL AVENUE,ILION,NY,13357,22,Herkimer,3158946048,43.016373,-75.034995,"(43.016373, -75.034995)",2088,564,697
LITTLE FALLS FIRE DEPARTMENT,22012,659 E MAIN STREET,LITTLE FALLS,NY,13365,22,Herkimer,3158232234,43.044498,-74.856208,"(43.044498, -74.856208)",2088,570,693
MIDDLEVILLE FIRE DEPARTMENT,22013,41 N MAIN ST PO BOX 536,MIDDLEVILLE,NY,13406,22,Herkimer,3158913649,43.13783,-74.92005,"(43.13783, -74.92005)",2088,377,699
MOHAWK FIRE DEPARTMENT,22014,28 COLUMBIA ST PO BOX 261,MOHAWK,NY,13407,22,Herkimer,3158664350,42.9681,-74.97035,"(42.9681, -74.97035)",2088,1269,697
NEWPORT FIRE DEPARTMENT,22015,POB 522,NEWPORT,NY,13416,22,Herkimer,3158458129,43.181643,-75.011065,"(43.181643, -75.011065)",2088,1276,677
OLD FORGE FIRE DEPARTMENT,22016,114 FULTON ST PO BOX 1170,OLD FORGE,NY,13420,22,Herkimer,3153693424,43.71029,-74.972219,"(43.71029, -74.972219)",2088,1279,683
POLAND FIRE DEPARTMENT,22017,11 CASE STREET PO BOX 117,POLAND,NY,13431-0117,22,Herkimer,3158267141,43.225499,-75.063924,"(43.225499, -75.063924)",2088,1284,686
SALISBURY FIRE DEPARTMENT,22018,PO BOX 65,SALISBURY CENTER,NY,13454,22,Herkimer,3154295121,43.16,-74.76323,"(43.16, -74.76323)",2088,1370,685
SCHUYLER FIRE DEPARTMENT,22019,120 NEWPORT ROAD,UTICA,NY,13502,22,Herkimer,3157322348,43.09976,-75.14985,"(43.09976, -75.14985)",2088,1465,659
VAN HORNSVILLE FIRE DEPARTMENT,22020,BOX 6,VAN HORNSVILLE,NY,13475,22,Herkimer,5189933970,42.88874,-74.83381,"(42.88874, -74.83381)",2088,566,658
WEST WINFIELD FIRE DEPARTMENT,22021,PO BOX 158,WEST WINFIELD,NY,13491,22,Herkimer,3158226223,42.85264,-75.17106,"(42.85264, -75.17106)",2136,1394,902
ADAMS FIRE DEPARTMENT,23001,6 N MAIN ST PO BOX 52,ADAMS,NY,13605,23,Jefferson,3152324033,43.809476,-76.02401,"(43.809476, -76.02401)",2089,1469,862
ADAMS CENTER FIRE DEPARTMENT,23002,13401 N MAIN STREET,ADAMS CENTER,NY,13606,23,Jefferson,3155835533,43.862577,-76.006188,"(43.862577, -76.006188)",2089,1470,862
ALEXANDRIA BAY FIRE DEPARTMENT,23003,PO BOX 623,ALEXANDRIA BAY,NY,13607,23,Jefferson,,44.337103,-75.908083,"(44.337103, -75.908083)",2089,1471,861
ANTWERP FIRE DEPARTMENT,23004,2 VANBUREN STREET,ANTWERP,NY,13608,23,Jefferson,3156598631,44.198629,-75.606946,"(44.198629, -75.606946)",2089,1472,859
BELLEVILLE FIRE DEPARTMENT,23005,7981 NYS RTE 289,BELLEVILLE,NY,13611,23,Jefferson,3158465510,43.78768,-76.13446,"(43.78768, -76.13446)",2089,1469,855
BLACK RIVER FIRE DEPARTMENT,23006,218 LERAY ST PO BOX 95,BLACK RIVER,NY,13612,23,Jefferson,3157734522,44.016848,-75.802925,"(44.016848, -75.802925)",2089,1473,852
BROWNVILLE FIRE DEPARTMENT,23007,121 BROWN BOULEVARD,BROWNVILLE,NY,13615,23,Jefferson,3157827220,44.00299,-75.9838,"(44.00299, -75.9838)",2089,1476,858
CALCIUM FIRE DEPARTMENT,23008,SANFORD RD PO BOX 161,CALCIUM,NY,13616,23,Jefferson,3157826576,44.02904,-75.84522,"(44.02904, -75.84522)",2089,1477,852
CAPE VINCENT FIRE DEPARTMENT,23010,214 E BROADWAY ST,CAPE VINCENT,NY,13618,23,Jefferson,3156542004,44.128155,-76.335544,"(44.128155, -76.335544)",2089,1479,857
CARTHAGE FIRE DEPARTMENT,23011,317 S WASHINGTON ST,CARTHAGE,NY,13619,23,Jefferson,3154932346,43.972092,-75.589751,"(43.972092, -75.589751)",2089,1480,840
CHAMPION FIRE DEPT (TOWN),23012,220 COUNTY RT 47,CARTHAGE,NY,13619,23,Jefferson,3154932099,43.97989,-75.60827,"(43.97989, -75.60827)",2089,1480,840
CHAUMONT FIRE DEPARTMENT,23013,PO BOX 158,CHAUMONT,NY,13622,23,Jefferson,3156492410,44.07332,-76.1464,"(44.07332, -76.1464)",2089,1483,851
CLAYTON FIRE DEPARTMENT,23014,855 GRAVES STREET,CLAYTON,NY,13624,23,Jefferson,3156865731,44.232287,-76.075919,"(44.232287, -76.075919)",2089,1511,849
DEFERIET FIRE DEPARTMENT,23015,101 RIVERSIDE DRIVE,DEFERIET,NY,13628,23,Jefferson,3152865623,43.976265,-75.612224,"(43.976265, -75.612224)",2089,1480,840
DEPAUVILLE FIRE DEPARTMENT,23016,15231 SCHOOL STREET,DEPAUVILLE,NY,13632,23,Jefferson,3156863795,44.138462,-76.066251,"(44.138462, -76.066251)",2089,1483,849
DEXTER FIRE DEPARTMENT,23017,PO BOX 74,DEXTER,NY,13634,23,Jefferson,3156396271,43.979552,-76.206734,"(43.979552, -76.206734)",2089,1517,858
ELLISBURG FIRE DEPARTMENT,23019,11901 ST RTE 193,ELLISBURG,NY,13636,23,Jefferson,3158465555,43.73747,-76.12578,"(43.73747, -76.12578)",2089,1519,855
EVANS MILLS FIRE DEPARTMENT,23020,8615 LERAY STREET,EVANS MILLS,NY,13637,23,Jefferson,3156294931,44.07548,-75.8184,"(44.07548, -75.8184)",2089,1520,852
FELTS MILLS FIRE DEPARTMENT,23021,30743 NYS ROUTE 3,FELTS MILLS,NY,13638,23,Jefferson,3157732604,44.01816,-75.7656,"(44.01816, -75.7656)",2089,1521,846
FISHERS LANDING FIRE DEPARTMENT,23022,42038 CO RTE 195,FISHERS LANDING,NY,13641,23,Jefferson,3156862924,44.27738,-76.00709,"(44.27738, -76.00709)",2089,1524,850
GLEN PARK FIRE DEPARTMENT,23023,630 MAIN ST,GLEN PARK,NY,13601,23,Jefferson,3157825674,43.999812,-75.957651,"(43.999812, -75.957651)",2089,1466,858
GREAT BEND FIRE DEPARTMENT,23024,32768 NYS RTE 26,GREAT BEND,NY,13643,23,Jefferson,3154932258,44.03381,-75.71935,"(44.03381, -75.71935)",2089,1480,856
HENDERSON FIRE DEPARTMENT,23025,8939 STATE RTE 178,HENDERSON,NY,13650,23,Jefferson,3159385032,43.845811,-76.181167,"(43.845811, -76.181167)",2089,1575,854
LA FARGEVILLE FIRE DEPT,23027,20411 SUNRISE AVE POB 121,LA FARGEVILLE,NY,13656,23,Jefferson,3156582919,44.19396,-75.96636,"(44.19396, -75.96636)",2089,1580,850
LORRAINE FIRE DEPARTMENT,23028,20876 CO RTE 189,LORRAINE,NY,13659,23,Jefferson,3152322601,43.75342,-75.89153,"(43.75342, -75.89153)",2089,1582,839
MANNSVILLE FIRE DEPARTMENT,23029,310 S MAIN ST PO BOX 460,MANNSVILLE,NY,13661,23,Jefferson,3154657000,43.71825,-76.10882,"(43.71825, -76.10882)",2089,1584,855
NATURAL BRIDGE FIRE DEPARTMENT,23031,27570 HIGH STREET,NATURAL BRIDGE,NY,13665,23,Jefferson,3156449898,44.067669,-75.495334,"(44.067669, -75.495334)",2089,1587,840
NORTHPOLE FIRE DEPARTMENT,23032,22334 US RTE 11,WATERTOWN,NY,13601,23,Jefferson,3157889020,44.000338,-75.900468,"(44.000338, -75.900468)",2089,1466,848
OXBOW FIRE DEPARTMENT,23033,37635 CO RTE 25,ANTWERP,NY,13608-4117,23,Jefferson,3152879898,44.286961,-75.620892,"(44.286961, -75.620892)",2089,1472,859
PAMELIA FIRE DEPARTMENT,23034,25082 CO RTE 16,EVANS MILLS,NY,13736,23,Jefferson,3156295260,42.31332,-76.19317,"(42.31332, -76.19317)",630,1630,64
PHILADELPHIA FIRE DEPARTMENT,23035,1 ANTWERP STREET,PHILADELPHIA,NY,13673,23,Jefferson,3156425781,44.158676,-75.705815,"(44.158676, -75.705815)",2089,1594,843
PLESSIS FIRE DEPARTMENT,23036,21691 COUNTY ROUTE 3,LA FARGEVILLE,NY,13656,23,Jefferson,3154829752,44.28263,-75.84181,"(44.28263, -75.84181)",2089,1596,861
REDWOOD FIRE DEPARTMENT,23037,43676 STINE ROAD,REDWOOD,NY,13679,23,Jefferson,3154823962,44.299312,-75.800588,"(44.299312, -75.800588)",2089,1610,861
RODMAN FIRE DEPARTMENT,23038,21495 COUNTY RTE 69,RODMAN,NY,13682,23,Jefferson,3152322966,43.83952,-75.89954,"(43.83952, -75.89954)",2089,1613,847
RUTLAND FIRE DEPT (TOWN),23039,28502 STATE RT 126,BLACK RIVER,NY,13612,23,Jefferson,3157884434,43.98885,-75.76688,"(43.98885, -75.76688)",2089,1473,846
SACKETS HARBOR FIRE DEPARTMENT,23040,112 N BROAD STREET,SACKETS HARBOR,NY,13685,23,Jefferson,3156462770,43.94679,-76.118219,"(43.94679, -76.118219)",2089,1615,853
SMITHVILLE FIRE DEPARTMENT,23041,13727 CO RTE 63,ADAMS,NY,13605,23,Jefferson,3152324160,43.81076,-76.02339,"(43.81076, -76.02339)",2089,1469,862
THERESA FIRE DEPT,23042,LOT 8 INDIAN RIVER ESTATES,THERESA,NY,13691,23,Jefferson,3157862601,44.214746,-75.783094,"(44.214746, -75.783094)",2089,1618,844
THREE MILE BAY FIRE DEPARTMENT,23044,8581 NYS RTE 12E,THREE MILE BAY,NY,13693,23,Jefferson,3156492888,44.02273,-76.24897,"(44.02273, -76.24897)",2089,1620,851
WATERTOWN FIRE DEPT (TOWN),23046,22825 COUNTY RT 67,WATERTOWN,NY,13601,23,Jefferson,3157889101,43.9752,-75.91171,"(43.9752, -75.91171)",2089,1466,842
WATERTOWN FIRE DEPT (CITY),23047,224 S MASSEY STREET,WATERTOWN,NY,13601,23,Jefferson,3157857800,43.973698,-75.918694,"(43.973698, -75.918694)",2089,1466,842
WELLESLEY-THOUSAND IS FIRE DEPT,23048,PO BOX 1125,THOUSAND ISLAND PARK,NY,13692,23,Jefferson,3154824222,44.28675,-76.02673,"(44.28675, -76.02673)",2089,1619,850
WEST CARTHAGE FIRE DEPARTMENT,23049,61 HIGH STREET,WEST CARTHAGE,NY,13619,23,Jefferson,3154931955,43.970405,-75.623047,"(43.970405, -75.623047)",2089,1480,856
WORTH FIRE DEPARTMENT,23050,24750 MACKLIN ROAD,LORRAINE,NY,13659-3150,23,Jefferson,3152322659,,,,,,
NEW YORK CITY FIRE DEPARTMENT,24001,9 METROTECH CENTER,BROOKLYN,NY,11201-5884,31,New York,7189992117,40.69384,-73.9871,"(40.69384, -73.9871)",2090,880,895
BEAVER FALLS FIRE DEPARTMENT,25001,9583 MAIN STREET,BEAVER FALLS,NY,13305,25,Lewis,3153466712,43.88756,-75.42521,"(43.88756, -75.42521)",623,765,613
CASTORLAND FIRE DEPARTMENT,25002,MAIN STREET PO BOX 37,CASTORLAND,NY,13620,25,Lewis,3153766212,43.88967,-75.43976,"(43.88967, -75.43976)",623,1481,613
CONSTABLEVILLE FIRE DEPARTMENT,25003,PO BOX 348,CONSTABLEVILLE,NY,13325,25,Lewis,3153972828,43.562213,-75.427527,"(43.562213, -75.427527)",623,539,614
COPENHAGEN FIRE DEPARTMENT,25004,PO BOX 364,COPENHAGEN,NY,13626,25,Lewis,3156884103,43.895558,-75.676997,"(43.895558, -75.676997)",623,1513,612
CROGHAN FIRE DEPARTMENT,25005,PO BOX 405,CROGHAN,NY,13327,25,Lewis,3153466164,43.894473,-75.390569,"(43.894473, -75.390569)",623,541,613
GLENFIELD FIRE DEPARTMENT (3-G),25006,6042 MAIN STREET,GLENFIELD,NY,13343,25,Lewis,3153762135,43.706855,-75.405001,"(43.706855, -75.405001)",623,555,617
HARRISVILLE FIRE DEPARTMENT,25007,PO BOX 51,HARRISVILLE,NY,13648,25,Lewis,3155432833,44.152225,-75.320459,"(44.152225, -75.320459)",623,1574,629
LOWVILLE FIRE DEPARTMENT,25008,PO BOX 81,LOWVILLE,NY,13367,25,Lewis,3153766827,43.79166,-75.49026,"(43.79166, -75.49026)",623,571,620
LYONS FALLS FIRE DEPARTMENT,25009,PO BOX 520,LYONS FALLS,NY,13368,25,Lewis,3153488813,43.616694,-75.361024,"(43.616694, -75.361024)",623,572,614
MARTINSBURG FIRE DEPARTMENT,25010,PO BOX 353,MARTINSBURG,NY,13404,25,Lewis,3153760307,,,,,,
NEW BREMEN FIRE DEPARTMENT,25011,8154 STATE ROUTE 812,LOWVILLE,NY,13367,25,Lewis,3153760364,43.806466,-75.476343,"(43.806466, -75.476343)",623,571,620
PORT LEYDEN FIRE DEPARTMENT,25012,PO BOX 67,PORT LEYDEN,NY,13433,25,Lewis,3153488575,43.583373,-75.346308,"(43.583373, -75.346308)",623,1285,625
TURIN FIRE DEPARTMENT,25013,4239 NYS RT 26,TURIN,NY,13473,25,Lewis,3153484233,43.56693,-75.82155,"(43.56693, -75.82155)",2135,1363,245
WEST LEYDEN FIRE DEPARTMENT,25014,PO BOX 205 ROUTE 26,WEST LEYDEN,NY,13489,25,Lewis,3159425421,43.4823,-75.56105,"(43.4823, -75.56105)",623,1392,626
AVON FIRE DEPARTMENT,26001,74 GENESEE STREET,AVON,NY,14414,26,Livingston,5852268770,42.910934,-77.746424,"(42.910934, -77.746424)",2091,171,761
CALEDONIA FIRE DEPARTMENT,26002,442 ARMSTRONG RD PO BOX 426,MUMFORD,NY,14511,26,Livingston,7165386130,42.973216,-77.855372,"(42.973216, -77.855372)",2091,177,760
CONESUS FIRE DEPARTMENT,26003,PO BOX 216,CONESUS,NY,14435,26,Livingston,5853463460,42.725245,-77.673786,"(42.725245, -77.673786)",2091,227,759
CUYLERVILLE FIRE DEPARTMENT,26005,2949 CANANDAIGUA STREET,LEICESTER,NY,14481,26,Livingston,7163823577,42.777105,-77.871125,"(42.777105, -77.871125)",2091,310,756
DANSVILLE FIRE DEPARTMENT,26006,PO BOX 401,DANSVILLE,NY,14437,26,Livingston,5853357770,42.562069,-77.699436,"(42.562069, -77.699436)",2091,228,751
EAST AVON FIRE DEPARTMENT,26007,BOX 358,AVON,NY,14414,26,Livingston,7162268207,42.90895,-77.73008,"(42.90895, -77.73008)",2091,171,761
GENESEO FIRE DEPARTMENT,26008,PO BOX 428,GENESEO,NY,14454,26,Livingston,7162431200,42.794404,-77.800585,"(42.794404, -77.800585)",2091,232,758
GROVELAND FIRE DEPARTMENT,26009,7428 ROUTE 63,GROVELAND,NY,14462,26,Livingston,5852431441,42.66141,-77.76671,"(42.66141, -77.76671)",2091,234,757
HEMLOCK FIRE DEPARTMENT,26010,4698 MAIN STREET BOX 101,HEMLOCK,NY,14466,26,Livingston,7163672730,42.77233,-77.56982,"(42.77233, -77.56982)",2133,236,804
LAKEVILLE FIRE DEPARTMENT,26011,PO BOX 376,LAKEVILLE,NY,14480,26,Livingston,,42.83651,-77.704076,"(42.83651, -77.704076)",2091,309,754
LEICESTER FIRE DEPARTMENT,26012,PO BOX 144,LEICESTER,NY,14481,26,Livingston,5855336440,42.76139,-77.91142,"(42.76139, -77.91142)",2091,310,756
LIMA FIRE DEPARTMENT,26013,PO BOX 29A,LIMA,NY,14485,26,Livingston,7165821770,42.90367,-77.617382,"(42.90367, -77.617382)",2091,312,755
LIVONIA FIRE DEPARTMENT,26014,5 MAIN STREET PO BOX 151,LIVONIA,NY,14487,26,Livingston,7163462257,42.82176,-77.66757,"(42.82176, -77.66757)",2091,314,754
MT MORRIS FIRE DEPARTMENT,26015,MAIN ST  PO BOX 127,MT MORRIS,NY,14510,26,Livingston,7166583130,42.72331,-77.87265,"(42.72331, -77.87265)",2091,321,752
NUNDA FIRE DEPARTMENT,26016,4 SO STATE ST PO BOX 551,NUNDA,NY,14517,26,Livingston,7164682323,42.59102026,-77.94253671,"(42.59102026, -77.94253671)",2091,327,749
YORK FIRE DEPARTMENT,26017,2667 YORK ROAD W,YORK,NY,14592,26,Livingston,7162433344,42.831132,-77.882033,"(42.831132, -77.882033)",2091,371,743
SPARTA CENTER FIRE DEPARTMENT,26018,5610 SCOTTSBURG-GROVELND RD,SCOTTSBURG,NY,14545,26,Livingston,7163356872,42.618031,-77.682888,"(42.618031, -77.682888)",2091,228,747
SPRINGWATER FIRE DEPARTMENT,26019,8145 SOUTH MAIN STREET,SPRINGWATER,NY,14560,26,Livingston,5856699342,42.629579,-77.598537,"(42.629579, -77.598537)",2091,411,746
WEST SPARTA FIRE DEPARTMENT,26023,4451 RED SCHOOL ROAD,DANSVILLE,NY,14437,26,Livingston,7163353322,42.618307,-77.789748,"(42.618307, -77.789748)",2091,228,744
BRIDGEPORT FIRE DEPARTMENT,27001,PO BOX 600,BRIDGEPORT,NY,13030,27,Madison,3156339048,43.16727,-75.94515,"(43.16727, -75.94515)",2092,349,133
BROOKFIELD FIRE DEPARTMENT,27002,MAIN ST PO BOX 99,BROOKFIELD,NY,13314,27,Madison,3158996251,42.811925,-75.326185,"(42.811925, -75.326185)",2092,771,178
CANASTOTA FIRE DEPARTMENT,27003,PO BOX 81,CANASTOTA,NY,13032,27,Madison,3156972771,43.07812,-75.753198,"(43.07812, -75.753198)",2092,351,83
CAZENOVIA FIRE DEPARTMENT,27004,121 ALBANY STREET,CAZENOVIA,NY,13035,27,Madison,3156552834,42.929933,-75.850825,"(42.929933, -75.850825)",2092,354,177
CHITTENANGO FIRE DEPARTMENT,27005,417 E GENESEE ST PO BOX 356,CHITTENANGO,NY,13037,27,Madison,3156876424,43.049786,-75.865938,"(43.049786, -75.865938)",2092,356,133
DE RUYTER FIRE DEPARTMENT,27006,1663 CORTLAND ST PO BOX 278,DE RUYTER,NY,13052,27,Madison,3153961500,42.71399,-75.8827,"(42.71399, -75.8827)",2037,423,110
EARLVILLE FIRE DEPARTMENT,27007,PO BOX 37,EARLVILLE,NY,13332,27,Madison,6076744926,42.7459,-75.54682,"(42.7459, -75.54682)",2092,545,145
EATON FIRE DEPARTMENT,27008,PO BOX 52,EATON,NY,13334,27,Madison,3156847397,42.850567,-75.611237,"(42.850567, -75.611237)",2092,547,149
ERIEVILLE FIRE DEPARTMENT,27009,4085 EATONBROOK ROAD,ERIEVILLE,NY,13061,27,Madison,3156627375,42.851365,-75.753635,"(42.851365, -75.753635)",2092,617,129
GEORGETOWN FIRE DEPARTMENT,27010,PO BOX 215,GEORGETOWN,NY,13072,27,Madison,3158374645,42.76538,-75.76438,"(42.76538, -75.76438)",2092,625,146
HAMILTON FIRE DEPARTMENT,27011,121 LEBANON STREET,HAMILTON,NY,13346,27,Madison,3158242460,42.822507,-75.550778,"(42.822507, -75.550778)",2092,557,145
HUBBARDSVILLE FIRE DEPARTMENT,27012,PO BOX 847,HUBBARDSVILLE,NY,13355,27,Madison,3156912727,42.81489,-75.42527,"(42.81489, -75.42527)",2092,563,178
LEONARDSVILLE FIRE DEPARTMENT,27013,11306 MILL ST PO BOX 185,LEONARDSVILLE,NY,13364,27,Madison,3158554466,42.80859,-75.25248,"(42.80859, -75.25248)",2092,569,178
LINCOLN FIRE DEPARTMENT,27014,PO BOX 60,CLOCKVILLE,NY,13043,27,Madison,3156979809,43.04153,-75.74476,"(43.04153, -75.74476)",2092,351,82
MADISON FIRE DEPARTMENT,27015,PO BOX 72,MADISON,NY,13402,27,Madison,3158931893,42.89668,-75.51198,"(42.89668, -75.51198)",2092,573,142
MORRISVILLE FIRE DEPARTMENT,27016,MAIN & UNION ST PO BOX 244,MORRISVILLE,NY,13408,27,Madison,3156843214,42.93004,-75.67398,"(42.93004, -75.67398)",2092,1270,149
MUNNSVILLE FIRE DEPARTMENT,27017,5210 S MAIN ST,MUNNSVILLE,NY,13409,27,Madison,3154955401,42.99167,-75.584,"(42.99167, -75.584)",2092,1271,117
NEW WOODSTOCK FIRE DEPARTMENT,27018,PO BOX 165 STATE ROUTE 13,NEW WOODSTOCK,NY,13122,27,Madison,3156623661,42.83603,-75.86669,"(42.83603, -75.86669)",2092,664,177
NORTH BROOKFIELD FIRE DEPARTMENT,27019,9199 MAIN STREET,NORTH BROOKFIELD,NY,13418,27,Madison,3158612116,42.850587,-75.388952,"(42.850587, -75.388952)",2092,1278,178
NORTH CHITTENANGO FIRE DEPT,27020,1699 FYLER RD PO BOX 180,CHITTENANGO,NY,13037,27,Madison,3156876529,43.05325,-75.86708,"(43.05325, -75.86708)",2092,356,133
ONEIDA FIRE DEPARTMENT,27021,109 N MAIN ST PO BOX 550,ONEIDA,NY,13421,27,Madison,3153631910,43.096586,-75.652851,"(43.096586, -75.652851)",2092,1280,125
SMITHFIELD FIRE DEPARTMENT,27023,PO BOX 115,PETERBORO,NY,13134,27,Madison,3156843280,42.96727,-75.6856,"(42.96727, -75.6856)",2092,670,124
WAMPSVILLE FIRE DEPARTMENT,27024,NORTH COURT ST PO BOX 51,WAMPSVILLE,NY,13163,27,Madison,3153638171,43.08229,-75.70765,"(43.08229, -75.70765)",2092,699,83
BARNARD FIRE DEPARTMENT,28001,3084 DEWEY AVENUE,ROCHESTER,NY,14616,28,Monroe,5856631113,43.225629,-77.643327,"(43.225629, -77.643327)",2093,1675,555
BRIGHTON FIRE DEPARTMENT,28003,3100 EAST AVENUE,ROCHESTER,NY,14610,28,Monroe,7163813200,43.127985,-77.528444,"(43.127985, -77.528444)",2093,1668,560
BROCKPORT FIRE DEPARTMENT,28004,38 MARKET STREET,BROCKPORT,NY,14420,28,Monroe,5856371030,43.21568,-77.93358,"(43.21568, -77.93358)",2093,175,506
BUSHNELLS BASIN FIRE DEPARTMENT,28005,661 KREAG ROAD,PITTSFORD,NY,14534,28,Monroe,7162485606,43.061036,-77.476059,"(43.061036, -77.476059)",2093,372,546
CHILI FIRE DEPARTMENT,28006,3231 CHILI AVENUE,ROCHESTER,NY,14624,28,Monroe,7168892873,43.104807,-77.750744,"(43.104807, -77.750744)",2093,1683,559
CHURCHVILLE FIRE DEPARTMENT,28007,25 E BUFFALO STREET,CHURCHVILLE,NY,14428,28,Monroe,7162933770,43.104349,-77.882417,"(43.104349, -77.882417)",2093,181,543
ROCHESTER FIRE DEPT (CITY),28008,185 EXCHANGE BLVD SUITE 660,ROCHESTER,NY,14614,28,Monroe,5854286739,43.151658,-77.611092,"(43.151658, -77.611092)",2093,1673,542
CLIFTON FIRE DEPARTMENT,28009,53 WHEATLAND CENTER ROAD,CLIFTON,NY,14431,28,Monroe,7168899636,43.054378,-77.814348,"(43.054378, -77.814348)",2093,181,559
EAST ROCHESTER FIRE DEPARTMENT,28011,415 MAIN STREET,EAST ROCHESTER,NY,14445,28,Monroe,5853811112,43.112074,-77.485572,"(43.112074, -77.485572)",2093,230,557
EGYPT FIRE DEPARTMENT,28012,7478 PITTSFORD-PALMYRA ROAD,FAIRPORT,NY,14450,28,Monroe,7162231992,43.064534,-77.407056,"(43.064534, -77.407056)",2093,231,546
FAIRPORT FIRE DEPARTMENT,28013,27 E CHURCH ST PO BOX 66124,FAIRPORT,NY,14450,28,Monroe,7162239220,43.098575,-77.440116,"(43.098575, -77.440116)",2093,231,546
GATES FIRE DISTRICT,28014,2355 CHILI AVENUE,ROCHESTER,NY,14624,28,Monroe,5854267932,43.129246,-77.695826,"(43.129246, -77.695826)",2093,1683,556
RIDGE ROAD FIRE DISTRICT,28017,1299 LONG POND ROAD,ROCHESTER,NY,14626,28,Monroe,5852272123,43.207263,-77.696045,"(43.207263, -77.696045)",2093,1685,555
HAMLIN FIRE DEPARTMENT,28018,1503 LAKE RD PO BOX 39,HAMLIN,NY,14464,28,Monroe,7169642330,43.301674,-77.921046,"(43.301674, -77.921046)",2093,235,554
HENRIETTA FIRE DEPARTMENT,28019,850 BAILEY ROAD,WEST HENRIETTA,NY,14586,28,Monroe,7163341234,43.072675,-77.648556,"(43.072675, -77.648556)",2093,1682,553
HILTON FIRE DEPARTMENT,28020,120 OLD HOJACK LANE,HILTON,NY,14468,28,Monroe,7163928601,43.285366,-77.791548,"(43.285366, -77.791548)",2093,238,548
HONEOYE FALLS FIRE DEPARTMENT,28021,7 MONROE STREET,HONEOYE FALLS,NY,14472,28,Monroe,7166241100,42.953155,-77.591291,"(42.953155, -77.591291)",2093,242,549
LAKE SHORE FIRE DEPARTMENT,28023,1 LONG POND ROAD,ROCHESTER,NY,14612,28,Monroe,5857238425,43.290878,-77.673251,"(43.290878, -77.673251)",2093,1670,555
LAURELTON FIRE DEPARTMENT,28024,405 EMPIRE BLVD,ROCHESTER,NY,14609,28,Monroe,7164828584,43.176699,-77.545902,"(43.176699, -77.545902)",2093,1667,550
MENDON FIRE DEPARTMENT,28025,101 MENDON-IONIA RD POB 184,MENDON,NY,14506,28,Monroe,7166241738,42.95744,-77.59882,"(42.95744, -77.59882)",2093,242,549
MORTON FIRE DEPARTMENT,28026,1094 COUNTYLINE RD POB 129,MORTON,NY,14508,28,Monroe,5856598777,,,,,,
MUMFORD FIRE DEPARTMENT,28027,1013 MAIN STREET PO BOX 477,MUMFORD,NY,14511,28,Monroe,7165382330,42.992798,-77.860811,"(42.992798, -77.860811)",2093,322,539
NORTH GREECE FIRE DEPARTMENT,28028,1766 LATTA ROAD,ROCHESTER,NY,14612,28,Monroe,5858652887,43.252955,-77.658923,"(43.252955, -77.658923)",2093,1670,555
PENFIELD FIRE DEPARTMENT,28029,1838 PENFIELD ROAD,PENFIELD,NY,14526,28,Monroe,5855862413,43.130545,-77.474568,"(43.130545, -77.474568)",2093,366,547
PITTSFORD FIRE DEPARTMENT,28030,8 MONROE AVENUE,PITTSFORD,NY,14534,28,Monroe,7165868967,43.091171,-77.51606,"(43.091171, -77.51606)",2093,372,544
POINT PLEASANT FIRE DEPARTMENT,28031,55 EWER AVENUE,ROCHESTER,NY,14622,28,Monroe,7163232200,43.223464,-77.543058,"(43.223464, -77.543058)",2093,1681,550
RIDGE-CULVER FIRE DEPARTMENT,28032,2960 CULVER ROAD,ROCHESTER,NY,14622,28,Monroe,5854672277,43.202314,-77.561711,"(43.202314, -77.561711)",2093,1681,550
RUSH FIRE DEPARTMENT,28035,1971 RUSH-MENDON ROAD,RUSH,NY,14543,28,Monroe,7165332058,42.995756,-77.64288,"(42.995756, -77.64288)",2093,401,541
ST PAUL BOULEVARD FIRE DEPT,28036,433 COOPER ROAD,ROCHESTER,NY,14617,28,Monroe,7162664645,43.219215,-77.598759,"(43.219215, -77.598759)",2093,1676,550
SCOTTSVILLE FIRE DEPARTMENT,28037,PO BOX 10,SCOTTSVILLE,NY,14546,28,Monroe,5858891900,43.014585,-77.766101,"(43.014585, -77.766101)",2093,404,539
SEA BREEZE FIRE DEPARTMENT,28038,4657 CULVER ROAD,ROCHESTER,NY,14622,28,Monroe,7163231040,43.233956,-77.543917,"(43.233956, -77.543917)",2093,1681,550
SPENCERPORT FIRE DEPARTMENT,28039,175 LYELL AVENUE,SPENCERPORT,NY,14559,28,Monroe,7163526115,43.18617,-77.80389,"(43.18617, -77.80389)",2093,410,534
WALKER FIRE DEPARTMENT,28041,1420 WALKER LAKE ONT ROAD,HILTON,NY,14468,28,Monroe,7169643692,43.299893,-77.859541,"(43.299893, -77.859541)",2093,238,554
WEBSTER FIRE DEPARTMENT,28042,35 SOUTH AVENUE,WEBSTER,NY,14580,28,Monroe,7162653650,43.21112,-77.43039,"(43.21112, -77.43039)",2093,418,540
WEST BRIGHTON FIRE DEPARTMENT,28043,2695 W HENRIETTA ROAD,ROCHESTER,NY,14623,28,Monroe,7164241414,43.09773,-77.631213,"(43.09773, -77.631213)",2093,1682,560
WEST WEBSTER FIRE DEPARTMENT,28045,1051 GRAVEL ROAD,WEBSTER,NY,14580,28,Monroe,5856713211,43.203544,-77.496846,"(43.203544, -77.496846)",2093,418,540
AMSTERDAM FIRE DEPARTMENT,29001,GUY PARK AVENUE EXTENSION,AMSTERDAM,NY,12010,29,Montgomery,5188431312,42.95356,-74.17751,"(42.95356, -74.17751)",624,1143,500
AMES FIRE DEPARTMENT,29002,200 BECKER ROAD,CANAJOHARIE,NY,13317,29,Montgomery,5186733044,42.83731,-74.60146,"(42.83731, -74.60146)",624,774,494
BURTONSVILLE FIRE DEPARTMENT,29003,1231 ESPERANCE ROAD,ESPERANCE,NY,12066,29,Montgomery,5188956815,42.80508,-74.259445,"(42.80508, -74.259445)",2142,1191,496
CANAJOHARIE FIRE DEPARTMENT,29004,PO BOX 28,CANAJOHARIE,NY,13317,29,Montgomery,5186733812,42.906534,-74.575124,"(42.906534, -74.575124)",624,774,494
CHARLESTON FIRE DEPARTMENT,29005,222 SULLIVAN ROAD,ESPERANCE,NY,12066,29,Montgomery,5189226706,42.802994,-74.40089,"(42.802994, -74.40089)",624,1411,496
CRANESVILLE FIRE DEPARTMENT,29006,167 RIVERVIEW ROADE,AMSTERDAM,NY,12010,29,Montgomery,5186270008,42.916095,-74.128267,"(42.916095, -74.128267)",624,1143,499
FORT HUNTER FIRE DEPARTMENT,29008,PO BOX 181,FORT HUNTER,NY,12069,29,Montgomery,5188297300,42.951,-74.29108,"(42.951, -74.29108)",624,10,488
FORT JOHNSON FIRE DEPARTMENT,29009,2 PROSPECT STREET,FORT JOHNSON,NY,12070,29,Montgomery,5188431269,42.957528,-74.239532,"(42.957528, -74.239532)",624,1219,499
FORT PLAIN FIRE DEPARTMENT,29010,168 CANAL STREET,FORT PLAIN,NY,13339,29,Montgomery,5189934271,42.93363,-74.624674,"(42.93363, -74.624674)",624,551,495
FULTONVILLE FIRE DEPARTMENT,29011,PO BOX 241,FULTONVILLE,NY,12072,29,Montgomery,5188534522,42.946385,-74.369183,"(42.946385, -74.369183)",624,1221,497
FLORIDA FIRE DEPARTMENT,29012,193 THAYER ROAD,AMSTERDAM,NY,12010,29,Montgomery,,42.6267,-73.36018,"(42.6267, -73.36018)",2138,1149,159
GLEN FIRE DEPARTMENT,29013,134 AURIESVILLE RD,FULTONVILLE,NY,12072,29,Montgomery,5189226422,42.896503,-74.3429,"(42.896503, -74.3429)",624,1221,497
HAGAMAN FIRE DEPARTMENT,29014,21 HAGAMAN AVE,HAGAMAN,NY,12086,29,Montgomery,5188423641,42.974808,-74.151241,"(42.974808, -74.151241)",624,1231,499
RURAL GROVE FIRE DEPARTMENT,29015,PO BOX 219,SPRAKERS,NY,12166,29,Montgomery,5189229981,42.82867,-74.43507,"(42.82867, -74.43507)",624,1411,486
ST JOHNSVILLE FIRE DEPARTMENT,29016,6 W MAIN STREET,ST JOHNSVILLE,NY,13452,29,Montgomery,5185682121,42.998913,-74.679202,"(42.998913, -74.679202)",624,1369,485
SOUTH MINDEN FIRE DEPARTMENT,29017,1029 STATE HIGHWAY 163,FORT PLAIN,NY,13339,29,Montgomery,5189932093,42.92898,-74.6361,"(42.92898, -74.6361)",624,551,495
TOWN OF MOHAWK FIRE DEPARTMENT,29018,2553 STATE HIGHWAY 30A,FONDA,NY,12068,29,Montgomery,5188534213,42.966619,-74.387983,"(42.966619, -74.387983)",624,1217,488
TRIBES HILL FIRE DEPARTMENT,29019,139 IROQUOIS TRAIL,TRIBES HILL,NY,12177,29,Montgomery,,42.95425,-74.29173,"(42.95425, -74.29173)",624,10,488
ALBERTSON FIRE DEPARTMENT,30001,100 I U WILLETS ROAD,ALBERTSON,NY,11507,30,Nassau,5162487182,40.770362,-73.652689,"(40.770362, -73.652689)",2094,1266,67
BALDWIN FIRE DEPARTMENT,30002,2386 GRAND AVENUE,BALDWIN,NY,11510,30,Nassau,5162236858,40.652879,-73.611392,"(40.652879, -73.611392)",2094,1268,54
BAYVILLE FIRE DEPARTMENT,30003,258 BAYVILLE AVENUE,BAYVILLE,NY,11709,30,Nassau,5166281922,40.907197,-73.550439,"(40.907197, -73.550439)",2094,1068,66
BELLEROSE FIRE DEPARTMENT,30004,50 SUPERIOR ROAD,BELLEROSE VILLAGE,NY,11001,30,Nassau,5163548419,40.722718,-73.716377,"(40.722718, -73.716377)",2094,859,54
BELLEROSE TERRACE FIRE DEPT,30005,PO BOX 725,FLORAL PARK,NY,11001,30,Nassau,5163548419,40.72508,-73.70817,"(40.72508, -73.70817)",2094,859,54
BELLMORE FIRE DEPARTMENT,30006,230 PETTIT AVENUE,BELLMORE,NY,11710,30,Nassau,5167812384,40.667379,-73.530784,"(40.667379, -73.530784)",2094,1069,54
BETHPAGE FIRE DEPARTMENT,30007,225 BROADWWAY,BETHPAGE,NY,11714,30,Nassau,5169312660,40.738833,-73.479646,"(40.738833, -73.479646)",2094,1071,66
CARLE PLACE FIRE DEPARTMENT,30008,460 BROADWAY PO BOX 22,CARLE PLACE,NY,11514,30,Nassau,5163348888,40.74986,-73.607122,"(40.74986, -73.607122)",2094,1353,67
EAST MEADOW FIRE DEPARTMENT,30009,197 EAST MEADOW AVENUE,EAST MEADOW,NY,11554,30,Nassau,5165420578,40.720178,-73.564111,"(40.720178, -73.564111)",2094,1459,54
EAST NORWICH FIRE DEPARTMENT,30010,900 OYSTER BAY ROAD,EAST NORWICH,NY,11732,30,Nassau,5169220263,40.846538,-73.53493,"(40.846538, -73.53493)",2094,1113,66
EAST ROCKAWAY FIRE DEPARTMENT,30011,PO BOX 203 473 ATLANTIC AVE,EAST ROCKAWAY,NY,11518,30,Nassau,5168876340,40.643103,-73.665564,"(40.643103, -73.665564)",2094,1355,54
EAST WILLISTON FIRE DEPARTMENT,30012,456 SAGAMORE AVENUE,EAST WILLISTON,NY,11596,30,Nassau,5162487566,40.754741,-73.638603,"(40.754741, -73.638603)",2094,998,67
ELMONT FIRE DEPARTMENT,30013,95 LEHRER AVENUE,ELMONT,NY,11003,30,Nassau,5163544560,40.704216,-73.696496,"(40.704216, -73.696496)",2094,860,54
FARMINGDALE FIRE DEPARTMENT,30014,361 MAIN STREET,FARMINGDALE,NY,11735,30,Nassau,5165319820,,,,,,
FLORAL PARK FIRE DEPARTMENT,30015,ONE FLORAL BLVD,FLORAL PARK,NY,11001,30,Nassau,5163266327,40.723759,-73.70527,"(40.723759, -73.70527)",2094,859,54
FLORAL PARK CENTRE FIRE DEPT,30016,94 MC KEE STREET,FLORAL PARK CENTRE,NY,11001,30,Nassau,5167754127,40.732673,-73.696448,"(40.732673, -73.696448)",2094,859,67
FRANKLIN SQUARE-MUNSON FIRE DEPT,30017,841 LIBERTY PLACE,FRANKLIN SQUARE,NY,11010,30,Nassau,5163542110,40.706055,-73.670534,"(40.706055, -73.670534)",2094,863,54
FREEPORT FIRE DEPARTMENT,30018,46 N OCEAN AVE,FREEPORT,NY,11520,30,Nassau,5163772190,40.658,-73.582952,"(40.658, -73.582952)",2094,1356,54
GARDEN CITY FIRE DEPARTMENT,30019,347 STEWART AVENUE,GARDEN CITY,NY,11530,30,Nassau,5167461301,40.726303,-73.636,"(40.726303, -73.636)",2094,1357,54
GARDEN CITY PARK FIRE DEPARTMENT,30020,2264 JERICHO TURNPIKE,GARDEN CITY PARK,NY,11040,30,Nassau,5167412718,40.739666,-73.66562,"(40.739666, -73.66562)",2094,869,67
GLEN COVE FIRE DEPARTMENT,30021,10 GLEN COVE AVE,GLEN COVE,NY,11542,30,Nassau,5166760366,40.86112,-73.634028,"(40.86112, -73.634028)",2094,1358,68
GLENWOOD FIRE DEPARTMENT,30022,PO BOX 403,GLENWOOD LANDING,NY,11547,30,Nassau,5166762822,40.827506,-73.644874,"(40.827506, -73.644874)",2094,1360,66
GREAT NECK ALERT FIRE DEPT,30023,555 MIDDLE NECK ROAD,GREAT NECK,NY,11023,30,Nassau,5164871057,40.801145,-73.735008,"(40.801145, -73.735008)",2094,866,67
GREAT NECK VIGILANT FIRE DEPT,30024,83 CUTTER MILL ROAD,GREAT NECK,NY,11021,30,Nassau,5164871086,40.785103,-73.731878,"(40.785103, -73.731878)",2094,865,67
HEMPSTEAD FIRE DEPARTMENT,30025,75 CLINTON ST  PO BOX 32,HEMPSTEAD,NY,11551,30,Nassau,5164786357,40.708471,-73.619305,"(40.708471, -73.619305)",2094,1456,54
HEWLETT FIRE DEPARTMENT,30026,25 FRANKLIN AVENUE,HEWLETT,NY,11557,30,Nassau,5163749801,40.63661,-73.702898,"(40.63661, -73.702898)",2094,1461,54
HICKSVILLE FIRE DEPARTMENT,30027,20 EAST MARIE STREET,HICKSVILLE,NY,11801-4304,30,Nassau,5169336444,40.767786,-73.522391,"(40.767786, -73.522391)",2094,1489,66
INWOOD FIRE DEPARTMENT,30028,188 DOUGHTY BLVD,INWOOD,NY,11696,30,Nassau,5162394428,40.616805,-73.746558,"(40.616805, -73.746558)",2094,872,54
ISLAND PARK FIRE DEPARTMENT,30029,440 LONG BEACH RD PO BX 500,ISLAND PARK,NY,11558,30,Nassau,5164320738,40.608383,-73.653325,"(40.608383, -73.653325)",2094,1462,54
JERICHO FIRE DEPARTMENT,30030,424 NORTH BROADWAY,JERICHO,NY,11753,30,Nassau,5169313546,40.786802,-73.534822,"(40.786802, -73.534822)",2094,1126,66
LAKEVIEW FIRE DEPARTMENT,30031,891-895 WOODFIELD ROAD,WEST HEMPSTEAD,NY,11552,30,Nassau,5167669869,40.68002,-73.653039,"(40.68002, -73.653039)",2094,1457,54
LAWRENCE-CEDARHURST FIRE DEPT,30032,75 WASHINGTON AVENUE,LAWRENCE,NY,11559,30,Nassau,5165690042,40.619088,-73.726684,"(40.619088, -73.726684)",2094,1563,54
LEVITTOWN FIRE DEPARTMENT,30033,120 GARDINERS AVENUE,LEVITTOWN,NY,11756,30,Nassau,5167315800,40.722157,-73.515546,"(40.722157, -73.515546)",2094,1240,54
LOCUST VALLEY FIRE DEPARTMENT,30034,228 BUCKRAM ROAD,LOCUST VALLEY,NY,11560,30,Nassau,5166760560,40.878293,-73.588558,"(40.878293, -73.588558)",2094,1564,66
LONG BEACH FIRE DEPARTMENT,30035,1 WEST CHESTER ST PO BOX 53,LONG BEACH,NY,11561,30,Nassau,5164312434,40.589435,-73.66601,"(40.589435, -73.66601)",2094,1565,53
LYNBROOK FIRE DEPARTMENT,30036,81 WRIGHT AVE PO BOX 7021,LYNBROOK,NY,11563,30,Nassau,5165991547,40.658292,-73.685756,"(40.658292, -73.685756)",2094,1566,54
MALVERNE FIRE DEPARTMENT,30037,30 BROADWAY,MALVERNE,NY,11565,30,Nassau,5165998281,40.673257,-73.673563,"(40.673257, -73.673563)",2094,1567,54
MANHASSET-LAKEVILLE FIRE DEPT,30038,170 E SHORE ROAD,GREAT NECK,NY,10023,30,Nassau,5164664435,40.7958,-73.69006,"(40.7958, -73.69006)",2094,868,67
MASSAPEQUA FIRE DEPARTMENT,30039,ONE BROOKLYN AVENUE,MASSAPEQUA,NY,11758,30,Nassau,5167989849,,,,,,
MEADOWMERE PARK FIRE DEPARTMENT,30040,EAST & MEYER AVENUES,LAWRENCE,NY,11559,30,Nassau,5162393088,40.61501,-73.73055,"(40.61501, -73.73055)",2094,1563,54
MERRICK FIRE DEPARTMENT,30041,2075 MEADOWBRK RD POB 235,MERRICK,NY,11566,30,Nassau,5162231501,40.67159,-73.55535,"(40.67159, -73.55535)",2094,1568,54
MINEOLA FIRE DEPARTMENT,30042,171 JERICHO TPKE,MINEOLA,NY,11501,30,Nassau,5167475860,40.748679,-73.642357,"(40.748679, -73.642357)",2094,1265,67
NEW HYDE PARK FIRE DEPARTMENT,30043,1555 JERICHO TPKE,NEW HYDE PARK,NY,11040,30,Nassau,5164375541,40.734177,-73.678026,"(40.734177, -73.678026)",2094,869,67
NORTH BELLMORE FIRE DEPARTMENT,30044,1500 NEWBRIDGE ROAD,NORTH BELLMORE,NY,11710,30,Nassau,5164094700,40.683992,-73.540178,"(40.683992, -73.540178)",2094,1069,54
NORTH MASSAPEQUA FIRE DEPARTMENT,30045,1000 NORTH BROADWAY,NORTH MASSAPEQUA,NY,11758,30,Nassau,5165790900,40.706937,-73.460999,"(40.706937, -73.460999)",2094,1242,66
NORTH MERRICK FIRE DEPARTMENT,30046,2095 CAMP AVENUE,NORTH MERRICK,NY,11566,30,Nassau,5163789405,40.676813,-73.558159,"(40.676813, -73.558159)",2094,1568,54
OCEANSIDE FIRE DEPARTMENT,30047,65 FOXHURST ROAD,OCEANSIDE,NY,11572,30,Nassau,5167662717,40.645737,-73.636214,"(40.645737, -73.636214)",2094,1572,54
OYSTER BAY FIRE DEPARTMENT,30049,188 SOUTH ST PO BOX 448,OYSTER BAY,NY,11771,30,Nassau,5169221226,40.869973,-73.531445,"(40.869973, -73.531445)",2094,1321,66
PLAINVIEW FIRE DEPARTMENT,30050,885 OLD COUNTRY ROAD,PLAINVIEW,NY,11803,30,Nassau,5169389601,40.773935,-73.480331,"(40.773935, -73.480331)",2094,1490,66
PLANDOME FIRE DEPARTMENT,30051,65 SOUTH DRIVE,PLANDOME,NY,11030,30,Nassau,5166271085,40.80709,-73.701405,"(40.80709, -73.701405)",2094,868,67
POINT LOOKOUT-LIDO FIRE DEPT,30052,106 LIDO BLVD  PO BOX 782,POINT LOOKOUT,NY,11569,30,Nassau,5164326687,40.59209,-73.58336,"(40.59209, -73.58336)",2094,1570,54
PORT WASHINGTON FIRE DEPARTMENT,30053,423 PORT WASHINGTON BLVD,PORT WASHINGTON,NY,11050,30,Nassau,5168832200,40.83546,-73.69373,"(40.83546, -73.69373)",2094,871,67
ROCKVILLE CENTRE FIRE DEPARTMENT,30054,58 N CENTRE AVE,ROCKVILLE CENTRE,NY,11570,30,Nassau,5166789320,40.65848,-73.649617,"(40.65848, -73.649617)",2094,1571,54
ROOSEVELT FIRE DEPARTMENT,30055,56 W CENTENNIAL AVE POB 501,ROOSEVELT,NY,11575,30,Nassau,5163783066,40.672639,-73.575563,"(40.672639, -73.575563)",2094,991,54
ROSLYN HIGHLANDS HOOK AND LADDER,30056,270 WARNER AVE,ROSLYN HEIGHTS,NY,11577,30,Nassau,5166217539,40.791745,-73.644833,"(40.791745, -73.644833)",2094,993,67
ROSLYN RESCUE HOOK & LADDER,30057,155 MINEOLA AVENUE,ROSLYN,NY,11577,30,Nassau,5166213899,40.787036,-73.650017,"(40.787036, -73.650017)",2094,993,67
SEA CLIFF FIRE DEPARTMENT,30058,67 ROSLYN AVENUE,SEA CLIFF,NY,11579,30,Nassau,5166711690,40.84858,-73.644801,"(40.84858, -73.644801)",2094,994,66
SEAFORD FIRE DEPARTMENT,30059,2170 SOUTHARD AVENUE,SEAFORD,NY,11783,30,Nassau,5166796560,40.668533,-73.488599,"(40.668533, -73.488599)",2094,1424,54
SOUTH FARMINGDALE FIRE DEPT,30060,819 SOUTH MAIN ST,SOUTH FARMINGDALE,NY,11735,30,Nassau,5162498855,40.716547,-73.435719,"(40.716547, -73.435719)",2094,1115,66
SOUTH FLORAL PARK FIRE DEPT,30061,383 ROQUETTE AVENUE,SOUTH FLORAL PARK,NY,11001,30,Nassau,5163547833,40.714225,-73.700347,"(40.714225, -73.700347)",2094,859,54
SOUTH HEMPSTEAD FIRE DEPARTMENT,30062,555 MAY STREET,SOUTH HEMPSTEAD,NY,11550,30,Nassau,5165380606,40.683855,-73.620007,"(40.683855, -73.620007)",2094,1456,54
STEWART MANOR FIRE DEPARTMENT,30063,120 COVERT AVENUE,STEWART MANOR,NY,11530,30,Nassau,5163540880,40.720165,-73.688611,"(40.720165, -73.688611)",2094,859,54
SYOSSET FIRE DEPARTMENT,30064,50 COLD SPRING ROAD,SYOSSET,NY,11791,30,Nassau,5169210728,40.826164,-73.500862,"(40.826164, -73.500862)",2094,1431,66
UNIONDALE FIRE DEPARTMENT,30065,501 UNIONDALE AVE PO BX 248,UNIONDALE,NY,11553,30,Nassau,5164818808,40.702908,-73.592807,"(40.702908, -73.592807)",2094,1458,54
VALLEY STREAM FIRE DEPARTMENT,30066,123 S CENTRAL AVE PO BOX 38,VALLEY STREAM,NY,11582,30,Nassau,5168259225,40.67256,-73.7051,"(40.67256, -73.7051)",2094,995,54
WANTAGH FIRE DEPARTMENT,30067,2995 JERUSALEM AVENUE,WANTAGH,NY,11793,30,Nassau,5167850180,40.69213,-73.520904,"(40.69213, -73.520904)",2094,1433,54
WESTBURY FIRE DEPARTMENT,30068,355 MAPLE AVENUE,WESTBURY,NY,11590,30,Nassau,5163347968,40.756102,-73.585761,"(40.756102, -73.585761)",2094,997,67
WEST HEMPSTEAD FIRE DEPARTMENT,30069,295 HEMPSTEAD TURNPIKE,WEST HEMPSTEAD,NY,11552,30,Nassau,5164868846,40.704985,-73.648985,"(40.704985, -73.648985)",2094,1457,54
WILLISTON PARK FIRE DEPARTMENT,30070,454 WILLIS AVENUE,WILLISTON PARK,NY,11596,30,Nassau,5167428535,40.75578,-73.644783,"(40.75578, -73.644783)",2094,998,67
WOODMERE FIRE DEPARTMENT,30071,20 IRVING PLACE,WOODMERE,NY,11598,30,Nassau,5163742105,40.631159,-73.708406,"(40.631159, -73.708406)",2094,1026,54
ADAMS FIRE DEPARTMENT,32001,7113 NASH ROAD,NORTH TONAWANDA,NY,14120,32,Niagara,7166923212,43.080923,-78.865808,"(43.080923, -78.865808)",2131,953,143
BARKER FIRE DEPARTMENT,32002,1660 QUAKER ROAD,BARKER,NY,14012,32,Niagara,7167953011,43.331699,-78.554952,"(43.331699, -78.554952)",2131,487,161
BERGHOLTZ FIRE DEPARTMENT,32003,2470 NIAGARA RD,NIAGARA FALLS,NY,14304,32,Niagara,7167314848,43.102877,-78.911855,"(43.102877, -78.911855)",2131,168,143
CAMBRIA FIRE DEPARTMENT,32004,4631 CAMBRIA WILSON RD,LOCKPORT,NY,14094,32,Niagara,7164348948,43.190407,-78.822773,"(43.190407, -78.822773)",2131,930,183
FRONTIER FIRE DEPARTMENT,32005,2176 LIBERTY DR,NIAGARA FALLS,NY,14304,32,Niagara,7162835700,43.073545,-78.93181,"(43.073545, -78.93181)",2131,168,143
GASPORT FIRE DEPARTMENT,32006,8412 STATE ST BOX 345,GASPORT,NY,14067,32,Niagara,7167727751,43.19942,-78.573716,"(43.19942, -78.573716)",2131,522,162
LEWISTON FIRE DEPARTMENT #1,32007,145 N 6TH ST PO BOX 748,LEWISTON,NY,14092,32,Niagara,7167542180,43.173447,-79.040021,"(43.173447, -79.040021)",2131,534,176
LEWISTON FIRE DEPARTMENT #2,32008,1705 SAUNDERS-SETTLEMENT RD,NIAGARA FALLS,NY,14304,32,Niagara,7162970050,43.138767,-78.964769,"(43.138767, -78.964769)",2131,168,176
LOCKPORT FIRE DEPARTMENT,32009,1 LOCKS PLAZA,LOCKPORT,NY,14094,32,Niagara,7164396724,43.169571,-78.695649,"(43.169571, -78.695649)",2131,930,175
MIDDLEPORT FIRE DEPARTMENT,32010,28 MAIN ST PO  BOX 94,MIDDLEPORT,NY,14105,32,Niagara,7167357872,,,,,,
MILLER HOSE FIRE DEPARTMENT,32011,2737 MAIN STREET,NEWFANE,NY,14108,32,Niagara,7167788770,43.282479,-78.708061,"(43.282479, -78.708061)",2131,936,172
NIAGARA ACTIVE FIRE DEPARTMENT,32012,6010 LOCKPORT ROAD,NIAGARA FALLS,NY,14305,32,Niagara,7162988100,43.120507,-78.993551,"(43.120507, -78.993551)",2131,169,170
NIAGARA FIRE DEPARTMENT #1,32013,6010 LOCKPORT RD,NIAGARA FALLS,NY,14305,32,Niagara,7162972209,43.120503,-78.993785,"(43.120503, -78.993785)",2131,169,170
NIAGARA FALLS FIRE DEPARTMENT,32014,3115 WALNUT AVE PO BOX 69,NIAGARA FALLS,NY,14302,32,Niagara,7162864720,43.093453,-79.024142,"(43.093453, -79.024142)",2131,165,168
NORTH TONAWANDA FIRE DEPARTMENT,32015,495 ZIMMERMAN STREET,NORTH TONAWANDA,NY,14120,32,Niagara,7166932201,43.04403,-78.855806,"(43.04403, -78.855806)",2131,953,165
OLCOTT FIRE DEPARTMENT,32016,1691 LOCKPORT OLCOTT ROAD,OLCOTT,NY,14126,32,Niagara,7167789252,43.330304,-78.713893,"(43.330304, -78.713893)",2131,493,172
PEKIN FIRE DEPARTMENT,32017,3024 UPPER MTN RD PO BX 521,SANBORN,NY,14132,32,Niagara,7167314777,43.169304,-78.880283,"(43.169304, -78.880283)",2131,1107,183
RANSOMVILLE FIRE DEPARTMENT,32018,BX239/2521 YNGSTWN LCKPT RD,RANSOMVILLE,NY,14131,32,Niagara,7167914411,43.21275,-78.9039,"(43.21275, -78.9039)",2131,1106,176
RAPIDS FIRE DEPARTMENT,32019,7195 PLANK ROAD,LOCKPORT,NY,14094,32,Niagara,7164344502,43.095862,-78.636603,"(43.095862, -78.636603)",2131,930,173
ST JOHNSBURG FIRE DEPARTMENT,32020,7165 WARD ROAD,NORTH TONAWANDA,NY,14120,32,Niagara,7166933131,43.077769,-78.889315,"(43.077769, -78.889315)",2131,953,143
SANBORN FIRE DEPARTMENT,32021,5811 BUFFALO ST   BOX 362,SANBORN,NY,14132,32,Niagara,7167314616,43.140312,-78.884712,"(43.140312, -78.884712)",2131,1107,183
SHAWNEE FIRE DEPARTMENT,32022,3747 LOCKPORT RD,SANBORN,NY,14132,32,Niagara,7167313666,43.126701,-78.84099,"(43.126701, -78.84099)",2131,1107,143
SOUTH LOCKPORT FIRE DEPARTMENT,32023,5666 S TRANSIT RD,LOCKPORT,NY,14094,32,Niagara,7164344626,43.150573,-78.696939,"(43.150573, -78.696939)",2131,930,173
SOUTH WILSON FIRE DEPARTMENT,32024,4194 CHESTNUT ST,WILSON,NY,14172,32,Niagara,7167516079,43.24189,-78.81644,"(43.24189, -78.81644)",2131,29,141
TERRY'S CORNERS FIRE DEPARTMENT,32025,7801 CHESTNUT RIDGE RD,GASPORT,NY,14067,32,Niagara,7164344800,43.173106,-78.597879,"(43.173106, -78.597879)",2131,522,162
UPPER MOUNTAIN FIRE DEPARTMENT,32026,839 MOYER RD,LEWISTON,NY,14092,32,Niagara,7162970330,43.155675,-79.014881,"(43.155675, -79.014881)",2131,534,176
WENDELVILLE FIRE DEPARTMENT,32027,7340 CAMPBELL BLVD,NORTH TONAWANDA,NY,14120,32,Niagara,7166934747,43.071968,-78.771036,"(43.071968, -78.771036)",2131,953,167
WILSON FIRE DEPARTMENT,32028,250 YOUNG STREET BOX 609,WILSON,NY,14172,32,Niagara,7167516038,43.308949,-78.827467,"(43.308949, -78.827467)",2131,29,141
WOLCOTTSVILLE FIRE DEPARTMENT,32029,6337 WOLCOTTSVILLE BOX 189,AKRON,NY,14001-0189,32,Niagara,7165424422,43.117593,-78.517688,"(43.117593, -78.517688)",2131,480,162
WRIGHTS CORNERS FIRE DEPT,32030,4043 LAKE AVE,LOCKPORT,NY,14094,32,Niagara,7164396496,43.216172,-78.67664,"(43.216172, -78.67664)",2131,930,173
YOUNGSTOWN FIRE DEPARTMENT,32031,625 THIRD ST BOX 387,YOUNGSTOWN,NY,14174,32,Niagara,7167453324,43.246185,-79.04691,"(43.246185, -79.04691)",2131,31,164
HARTLAND FIRE DEPT,32033,8945 RIDGE ROAD,GASPORT,NY,14067,32,Niagara,7167353283,43.242525,-78.532766,"(43.242525, -78.532766)",2131,522,186
BOONVILLE FIRE DEPARTMENT,33002,PO BOX 164,BOONVILLE,NY,13309,33,Oneida,3159425389,43.482408,-75.333189,"(43.482408, -75.333189)",625,767,935
BRIDGEWATER FIRE DEPARTMENT,33003,BOX 365,BRIDGEWATER,NY,13313,33,Oneida,,42.879282,-75.254596,"(42.879282, -75.254596)",625,770,933
CAMDEN FIRE DEPARTMENT,33004,14 CHURCH ST,CAMDEN,NY,13316,33,Oneida,3152450560,43.336046,-75.746113,"(43.336046, -75.746113)",625,773,932
CASSVILLE FIRE DEPARTMENT,33005,1907 STATE ROUTE 8,CASSVILLE,NY,13318,33,Oneida,,42.943363,-75.251415,"(42.943363, -75.251415)",625,775,922
CLARK MILLS FIRE DEPARTMENT,33006,7715 MAIN ST PO BOX 0,CLARK MILLS,NY,13321,33,Oneida,3158538008,,,,,,
CLAYVILLE FIRE DEPARTMENT,33007,2246 ONEIDA STREET,CLAYVILLE,NY,13322,33,Oneida,3158395277,42.974845,-75.24835,"(42.974845, -75.24835)",625,536,922
CLINTON FIRE DEPARTMENT,33008,PO BOX 134,CLINTON,NY,13323,33,Oneida,3158535031,43.04927,-75.37878,"(43.04927, -75.37878)",625,537,927
DEANSBORO FIRE DEPARTMENT,33009,PO BOX 83,DEANSBORO,NY,13328,33,Oneida,,42.98434,-75.41957,"(42.98434, -75.41957)",625,542,920
DURHAMVILLE FIRE DEPARTMENT,33010,5302 CHURCH STREET,DURHAMVILLE,NY,13054,33,Oneida,3153636467,43.118792,-75.66935,"(43.118792, -75.66935)",2092,425,975
DEERFIELD FIRE DEPARTMENT,33011,5476 TRENTON RD,DEERFIELD,NY,13502,33,Oneida,3157322693,43.126975,-75.210765,"(43.126975, -75.210765)",625,1465,931
FLORENCE FIRE DEPARTMENT,33012,R D #3 CAMDEN  BOX 176,FLORENCE,NY,13316,33,Oneida,3152451028,43.442782,-75.753987,"(43.442782, -75.753987)",625,773,930
FLOYD FIRE DEPARTMENT,33013,CAMRODEN ROAD,ROME,NY,13440,33,Oneida,,43.220014,-75.334565,"(43.220014, -75.334565)",625,1366,929
FORESTPORT FIRE DEPARTMENT,33014,11965 RIVER ROAD,FORESTPORT,NY,13338,33,Oneida,3153924741,43.442565,-75.206976,"(43.442565, -75.206976)",625,550,928
HOLLAND PATENT FIRE DEPARTMENT,33015,PO BOX 12,HOLLAND PATENT,NY,13354,33,Oneida,3158658200,43.242471,-75.257263,"(43.242471, -75.257263)",625,562,993
LAKE DELTA FIRE DEPARTMENT,33017,PO BOX 596,ROME,NY,13442,33,Oneida,3153372809,43.275395,-75.448846,"(43.275395, -75.448846)",625,1366,982
LEE CENTER FIRE DEPARTMENT,33018,5220 BROOKFIELD RD POB 194,LEE CENTER,NY,13363,33,Oneida,3153375929,43.303239,-75.513637,"(43.303239, -75.513637)",625,568,926
MAYNARD FIRE DEPARTMENT,33019,PO BOX 377,MARCY,NY,13403,33,Oneida,3157328181,43.136575,-75.259185,"(43.136575, -75.259185)",625,574,923
MC CONNELLSVILLE FIRE DEPT,33020,PO BOX 39,MC CONNELLSVILLE,NY,13401,33,Oneida,3152454621,43.273584,-75.693793,"(43.273584, -75.693793)",625,766,973
NEW HARTFORD FIRE DEPARTMENT,33021,PO BOX 328,NEW HARTFORD,NY,13413,33,Oneida,3157363182,43.072263,-75.287322,"(43.072263, -75.287322)",625,1274,924
NEW LONDON FIRE DEPARTMENT,33022,PO BOX 4421,ROME,NY,13442,33,Oneida,3153390918,43.22014,-75.45029,"(43.22014, -75.45029)",625,1366,982
NEW YORK MILLS FIRE DEPARTMENT,33023,1 MAPLE STREET,NEW YORK MILLS,NY,13417,33,Oneida,3157239554,43.103548,-75.292839,"(43.103548, -75.292839)",625,1277,990
NORTH BAY FIRE DEPARTMENT,33024,2114 STATE RT 49,NORTH BAY,NY,13123,33,Oneida,3152455007,43.23046,-75.74809,"(43.23046, -75.74809)",625,766,973
ONEIDA CASTLE FIRE DEPARTMENT,33025,3989 SHOLTZ ROAD,ONEIDA CASTLE,NY,13421,33,Oneida,3153634406,43.07952,-75.636561,"(43.07952, -75.636561)",625,1280,976
ORISKANY FIRE DEPARTMENT,33026,708 UTICA ST PO BOX 217,ORISKANY,NY,13424,33,Oneida,3157363221,43.16121,-75.3667,"(43.16121, -75.3667)",625,1281,990
ORISKANY FALLS FIRE DEPARTMENT,33027,MADISON STREET,ORISKANY FALLS,NY,13425,33,Oneida,3158217855,42.933726,-75.466416,"(42.933726, -75.466416)",625,1282,939
OTTER LAKE FIRE DEPARTMENT,33028,13853 ROUTE 28,OTTER LAKE,NY,13427,33,Oneida,3153693668,43.47537,-75.09455,"(43.47537, -75.09455)",625,550,687
PARIS HILL FIRE DEPARTMENT,33029,2845 ROUTE 12,PARIS,NY,13456,33,Oneida,3157375169,43.0046,-75.26014,"(43.0046, -75.26014)",625,1371,922
PROSPECT FIRE DEPARTMENT,33032,PO BOX 66,PROSPECT,NY,13435,33,Oneida,3158966514,43.35137,-75.18775,"(43.35137, -75.18775)",625,1364,983
REMSEN FIRE DEPARTMENT,33033,MAIN STREET PO BOX 299,REMSEN,NY,13438,33,Oneida,3158312131,43.326844,-75.186844,"(43.326844, -75.186844)",625,1364,983
ROME FIRE DEPARTMENT,33034,158 BLACK RIVER BLVD,ROME,NY,13440,33,Oneida,3153397784,43.211391,-75.452785,"(43.211391, -75.452785)",625,1366,982
SAUQUOIT FIRE DEPARTMENT,33036,PINNACLE ROAD PO BOX 534,SAUQUOIT,NY,13456,33,Oneida,3157379550,43.00507,-75.256643,"(43.00507, -75.256643)",625,1371,922
SHERRILL-KENWOOD FIRE DEPARTMENT,33038,373 SHERRILL ROAD,SHERRILL,NY,13461,33,Oneida,,43.071933,-75.598668,"(43.071933, -75.598668)",625,1374,995
STANWIX HEIGHTS FIRE DEPARTMENT,33039,6920 DIX ROAD,ROME,NY,13440,33,Oneida,,43.180786,-75.430934,"(43.180786, -75.430934)",625,1366,982
STITTVILLE FIRE DEPARTMENT,33040,9069 MAIN ST,STITTVILLE,NY,13469,33,Oneida,3158654531,43.222931,-75.286879,"(43.222931, -75.286879)",625,1377,923
SYLVAN BEACH FIRE DEPARTMENT,33041,329 16TH AVENUE,SYLVAN BEACH,NY,13157,33,Oneida,,43.199341,-75.728911,"(43.199341, -75.728911)",625,694,973
TABERG FIRE DEPARTMENT,33042,PO BOX 523,TABERG,NY,13471,33,Oneida,3153378447,43.265975,-75.60677,"(43.265975, -75.60677)",625,1379,982
BARNEVELD FIRE DEPARTMENT,33043,PO BOX 480,BARNEVELD,NY,13304,33,Oneida,3158962410,43.273658,-75.185024,"(43.273658, -75.185024)",625,764,993
UTICA FIRE DEPARTMENT (CITY),33044,552 BLEECKER STREET,UTICA,NY,13501,33,Oneida,3157245151,43.099461,-75.221847,"(43.099461, -75.221847)",625,1464,977
VERNON FIRE DEPARTMENT,33045,PO BOX 773,VERNON,NY,13476,33,Oneida,3158293475,43.079103,-75.540966,"(43.079103, -75.540966)",625,1383,976
VERONA FIRE DEPARTMENT,33046,PO BOX 137,VERONA,NY,13478,33,Oneida,3153636009,43.13964,-75.57198,"(43.13964, -75.57198)",625,1385,975
VIENNA FIRE DEPARTMENT,33047,2875 STATE RTE 49,BLOSSVALE,NY,13308,33,Oneida,3152451237,43.239521,-75.697047,"(43.239521, -75.697047)",625,766,973
WATERVILLE FIRE DEPARTMENT,33048,PO BOX 272,WATERVILLE,NY,13480,33,Oneida,3158414521,42.91361,-75.38468,"(42.91361, -75.38468)",625,1386,981
WESTERNVILLE FIRE DEPARTMENT,33049,PO BOX 17 / 9305 ST RTE 46,WESTERNVILLE,NY,13486,33,Oneida,3158274242,43.34718,-75.34765,"(43.34718, -75.34765)",625,1390,970
WESTMORELAND FIRE DEPARTMENT,33050,PO BOX 478,WESTMORELAND,NY,13490,33,Oneida,3158536884,43.10362,-75.43262,"(43.10362, -75.43262)",625,1393,979
WHITESBORO FIRE DEPARTMENT,33051,171 ORISKANY BLVD,WHITESBORO,NY,13492,33,Oneida,3157361238,43.117366,-75.291905,"(43.117366, -75.291905)",625,1395,990
WILLOWVALE FIRE DEPARTMENT,33052,3533 BLEACHERY AVENUE,CHADWICKS,NY,13319,33,Oneida,,43.031153,-75.27404,"(43.031153, -75.27404)",625,776,924
YORKVILLE FIRE DEPARTMENT,33053,SIXTH ST AND CALDER AVENUE,YORKVILLE,NY,13495,33,Oneida,3157361523,43.112106,-75.278512,"(43.112106, -75.278512)",625,1463,990
LOWELL VOLUNTEER FIRE DEPARTMENT,33054,5783 STATE ROUTE 26,ROME,NY,13440,33,Oneida,3153391034,43.133013,-75.500422,"(43.133013, -75.500422)",625,1366,979
VERNON CENTER VOLUNTEER FD,33055,5770 NORTON ROAD,VERNON CENTER,NY,13477,33,Oneida,3158292139,43.053952,-75.504459,"(43.053952, -75.504459)",625,1384,976
WOODGATE VOL FIRE DEPARTMENT,33056,BOX 52,WOODGATE,NY,13494,33,Oneida,3153926611,43.522315,-75.154821,"(43.522315, -75.154821)",625,1397,928
AMBER FIRE DEPARTMENT,34001,PO BOX 172,MARIETTA,NY,13110,34,Onondaga,3156367741,42.87702,-76.26723,"(42.87702, -76.26723)",2132,645,706
APULIA FIRE DEPARTMENT,34002,BOX 96,APULIA STATION,NY,13020,34,Onondaga,3156965636,42.81903,-76.07032,"(42.81903, -76.07032)",2132,342,710
BALDWINSVILLE FIRE DEPARTMENT,34003,7911 CREGO RD,BALDWINSVILLE,NY,13027,34,Onondaga,3156358787,43.15893,-76.32919,"(43.15893, -76.32919)",2132,346,509
BELGIUM-COLD SPRING VOL FIRE CO,34004,8435 LOOP ROAD,BALDWINSVILLE,NY,13027-8400,34,Onondaga,3156355136,43.153843,-76.277072,"(43.153843, -76.277072)",2132,346,509
BORODINO FIRE DEPARTMENT,34005,2500 NUNNERY RD RD #3,SKANEATELES,NY,13152,34,Onondaga,3156733735,42.858103,-76.337904,"(42.858103, -76.337904)",2132,690,703
BREWERTON FIRE DEPARTMENT,34006,PO BOX 708,BREWERTON,NY,13029,34,Onondaga,3156767724,43.235896,-76.140285,"(43.235896, -76.140285)",2132,348,714
CAMILLUS FIRE DEPARTMENT,34007,5801 NEEWPORT ROAD,CAMILLUS,NY,13031,34,Onondaga,3156724207,43.052289,-76.31019,"(43.052289, -76.31019)",2132,350,675
CICERO FIRE DEPARTMENT,34008,MAIN STREET PO BOX 1111,CICERO,NY,13039,34,Onondaga,3156997721,43.175815,-76.119476,"(43.175815, -76.119476)",2132,357,714
CLAY FIRE DEPARTMENT,34009,4383 STATE ROUTE 31,CLAY,NY,13041,34,Onondaga,3156524242,43.186347,-76.213974,"(43.186347, -76.213974)",2132,359,713
DELPHI FALLS FIRE DEPARTMENT,34010,2260 ORAN-DELPHI ROAD,MANLIUS,NY,13104,34,Onondaga,3156623595,42.880805,-75.913713,"(42.880805, -75.913713)",2132,643,696
DEWITT FIRE DEPARTMENT,34011,4500 E GENESEE STREET,DEWITT,NY,13214,34,Onondaga,3154463195,43.034653,-76.065396,"(43.034653, -76.065396)",2132,731,711
EAST SYRACUSE FIRE DEPARTMENT,34012,204 NORTH CENTER STREET,EAST SYRACUSE,NY,13057,34,Onondaga,3156713380,43.064091,-76.070985,"(43.064091, -76.070985)",2132,426,711
ELBRIDGE FIRE DEPT,34013,275 E MAIN ST PO BOX 250,ELBRIDGE,NY,13060,34,Onondaga,3156893021,43.033643,-76.452672,"(43.033643, -76.452672)",2132,427,649
FABIUS FIRE DEPARTMENT,34014,7825 MAIN STREET BOX 60,FABIUS,NY,13063,34,Onondaga,3156835362,42.85628,-75.99683,"(42.85628, -75.99683)",2132,619,710
FAIRMOUNT FIRE DEPARTMENT,34015,4611 W GENESEE ST,SYRACUSE,NY,13219,34,Onondaga,3154875811,43.044579,-76.247656,"(43.044579, -76.247656)",2132,733,675
FAYETTEVILLE FIRE DEPARTMENT,34016,425 EAST GENESEE STREET,FAYETTEVILLE,NY,13066,34,Onondaga,3156376101,43.02976,-76.005992,"(43.02976, -76.005992)",2132,621,508
HINSDALE FIRE DEPARTMENT,34018,113 MALDEN ROAD,MATTYDALE,NY,13211,34,Onondaga,3154552511,43.104317,-76.144665,"(43.104317, -76.144665)",2132,729,705
HOWLETT HILL FIRE DEPARTMENT,34019,3384 HOWLETT HILL ROAD,SYRACUSE,NY,13215,34,Onondaga,3156731817,42.98659,-76.26076,"(42.98659, -76.26076)",2132,732,707
JAMESVILLE FIRE DEPARTMENT,34020,6486 E SENECA TPK POB 516,JAMESVILLE,NY,13078,34,Onondaga,3154922872,42.991646,-76.071983,"(42.991646, -76.071983)",2132,630,711
JORDAN FIRE DEPARTMENT,34021,1 NORTH HAMILTON STREET,JORDAN,NY,13080,34,Onondaga,3156893923,43.065627,-76.477049,"(43.065627, -76.477049)",2132,631,649
KIRKVILLE FIRE COMPANY,34022,6225 KIRKVILLE RD N  POB 6,KIRKVILLE,NY,13082,34,Onondaga,3156563093,43.071408,-75.950825,"(43.071408, -75.950825)",2132,633,508
LAFAYETTE FIRE DEPARTMENT,34023,2436 ROUTE 11 SO PO BOX 260,LAFAYETTE,NY,13084,34,Onondaga,3156773400,42.89281,-76.10546,"(42.89281, -76.10546)",2132,635,628
LAKESIDE FIRE DEPARTMENT,34024,1002 STATE FAIR BLVD POB 69,SYRACUSE,NY,13209,34,Onondaga,3154877218,43.099219,-76.247604,"(43.099219, -76.247604)",2132,727,709
LIVERPOOL VOLUNTEER FIRE DEPT,34025,1110 OSWEGO ST,LIVERPOOL,NY,13088,34,Onondaga,3154576347,43.111168,-76.211316,"(43.111168, -76.211316)",2132,637,705
LYNCOURT VOLUNTEER FIRE DEPT,34026,2909 COURT STREET,SYRACUSE,NY,13208,34,Onondaga,3154556570,43.083325,-76.129547,"(43.083325, -76.129547)",2132,726,705
LYSANDER FIRE DEPARTMENT,34027,664 LAMSON ROAD,BALDWINSVILLE,NY,13027,34,Onondaga,3156782260,43.15893,-76.32919,"(43.15893, -76.32919)",2132,346,509
MANLIUS FIRE DEPARTMENT,34028,4 STICKLEY DR PO BOX 236,MANLIUS,NY,13104,34,Onondaga,3156828318,43.002049,-75.98375,"(43.002049, -75.98375)",2132,643,508
MARCELLUS VOLUNTEER FIRE DEPT,34029,PO BOX 186,MARCELLUS,NY,13108,34,Onondaga,3156731818,42.9825,-76.33878,"(42.9825, -76.33878)",2132,644,504
MATTYDALE FIRE DEPARTMENT,34030,173 EAST MOLLOY ROAD,MATTYDALE,NY,13211,34,Onondaga,3154540090,43.097977,-76.141988,"(43.097977, -76.141988)",2132,729,705
MEMPHIS FIRE DEPARTMENT,34031,PO BOX 38,MEMPHIS,NY,13112,34,Onondaga,3156893359,43.084042,-76.376164,"(43.084042, -76.376164)",2132,656,700
MINOA FIRE DEPARTMENT,34032,238 N MAIN ST PO BOX 104,MINOA,NY,13116,34,Onondaga,3156569204,43.077311,-76.000746,"(43.077311, -76.000746)",2132,660,508
MOTTVILLE FIRE COMPANY,34033,4149 FROST ST PO BOX 9,MOTTVILLE,NY,13119,34,Onondaga,3156853832,42.97443,-76.42751,"(42.97443, -76.42751)",2132,690,704
MOYERS CORNERS VOL FIRE DEPT,34034,7697 MORGAN RD,LIVERPOOL,NY,13090,34,Onondaga,3156527733,43.144772,-76.207133,"(43.144772, -76.207133)",2132,638,713
NAVARINO VOLUNTEER FIRE DEPT,34035,PO BOX 15004,SYRACUSE,NY,13215,34,Onondaga,3156733260,42.929828,-76.273972,"(42.929828, -76.273972)",2132,732,707
NEDROW FIRE DEPARTMENT,34036,6505 SOUTH SALINA STREET,NEDROW,NY,13120,34,Onondaga,3154690053,42.977462,-76.141536,"(42.977462, -76.141536)",2132,663,707
NORTH SYRACUSE FIRE DEPARTMENT,34037,109 CHESTNUT STREET,NORTH SYRACUSE,NY,13212,34,Onondaga,3154585345,43.13625,-76.130626,"(43.13625, -76.130626)",2132,730,713
ONONDAGA HILL FIRE DEPARTMENT,34038,4831 VELASKO ROAD,SYRACUSE,NY,13215,34,Onondaga,3154929191,43.005854,-76.184948,"(43.005854, -76.184948)",2132,732,707
ONONDAGA NATION FIRE DEPARTMENT,34039,ONONDAGA NATION BOX 290,NEDROW,NY,13120,34,Onondaga,3154691384,,,,,,
OTISCO FIRE DEPARTMENT,34040,1933 ROUTE 80,TULLY,NY,13159,34,Onondaga,3156968226,42.80235,-76.14671,"(42.80235, -76.14671)",2132,696,701
PLAINVILLE FIRE DEPARTMENT,34041,767 W GENESEE RD PO BOX 286,PLAINVILLE,NY,13137,34,Onondaga,3156382994,43.15956,-76.44717,"(43.15956, -76.44717)",2132,346,509
POMPEY HILL FIRE DEPARTMENT,34042,7407 ACADEMY ST PO BOX 112,POMPEY,NY,13138,34,Onondaga,3156773212,42.90128,-76.01134,"(42.90128, -76.01134)",2132,630,696
SENECA RIVER FIRE DEPARTMENT,34043,3457 HAYES ROAD,BALDWINSVILLE,NY,13027,34,Onondaga,3156223369,43.125649,-76.272387,"(43.125649, -76.272387)",2132,346,509
SENTINEL HEIGHTS FIRE DEPT,34044,4200 DAVE TILDEN ROAD,JAMESVILLE,NY,13078,34,Onondaga,3154693653,42.974293,-76.120474,"(42.974293, -76.120474)",2132,630,707
SKANEATELES FIRE DEPARTMENT,34045,77 W GENESEE STREET,SKANEATELES,NY,13152-1065,34,Onondaga,3156853496,42.947581,-76.431953,"(42.947581, -76.431953)",2132,690,704
SOLVAY FIRE DEPARTMENT,34046,PO BOX 123,SOLVAY,NY,13209,34,Onondaga,3154681313,43.062059,-76.209117,"(43.062059, -76.209117)",2132,727,709
SOUTH BAY VOLUNTEER FIRE DEPT,34047,8819 CICERO CENTER RD,CICERO,NY,13039,34,Onondaga,3156992893,43.193937,-76.041651,"(43.193937, -76.041651)",2132,357,714
SOUTH ONONDAGA FIRE DEPARTMENT,34048,3130 CEDARVALE ROAD,NEDROW,NY,13120,34,Onondaga,3154921147,42.930411,-76.21426,"(42.930411, -76.21426)",2132,663,707
SOUTHWOOD FIRE DEPARTMENT,34049,PO BOX 365,JAMESVILLE,NY,13078,34,Onondaga,3154695171,42.993596,-76.109848,"(42.993596, -76.109848)",2132,630,707
SPAFFORD FIRE DEPARTMENT,34050,660 RTE 41,HOMER,NY,13077,34,Onondaga,6077494422,42.803076,-76.264225,"(42.803076, -76.264225)",2132,629,703
SYRACUSE FIRE DEPARTMENT (CITY),34051,511 SOUTH STATE STREET,SYRACUSE,NY,13202,34,Onondaga,3154735525,43.046921,-76.147406,"(43.046921, -76.147406)",2132,711,702
TAUNTON VOLUNTEER FIRE DEPT,34052,4300 ONONDAGA BOULEVARD,SYRACUSE,NY,13219,34,Onondaga,3154681011,43.02661,-76.214991,"(43.02661, -76.214991)",2132,733,707
TULLY FIRE DEPARTMENT,34053,1 RAILROAD ST,TULLY,NY,13159,34,Onondaga,3156966414,42.798818,-76.106112,"(42.798818, -76.106112)",2132,696,701
WARNERS FIRE DEPARTMENT,34054,6444 NEWPORT RD PO BOX 72,WARNERS,NY,13164,34,Onondaga,3156725740,43.083044,-76.328734,"(43.083044, -76.328734)",2132,700,675
BRISTOL VOLUNTEER FIRE DEPT,35001,4350 ROUTE 64,CANANDAIGUA,NY,14424,35,Ontario,7166576694,42.816371,-77.394158,"(42.816371, -77.394158)",2133,178,788
CANANDAIGUA FIRE DEPT (CITY),35002,335 SOUTH MAIN STREET,CANANDAIGUA,NY,14424,35,Ontario,5853942111,42.882765,-77.277585,"(42.882765, -77.277585)",2133,178,785
CHESHIRE VOLUNTEER FIRE DEPT,35004,4285 RTE 21,CANANDAIGUA,NY,14424,35,Ontario,7163948871,42.86943,-77.29118,"(42.86943, -77.29118)",2133,178,825
CLIFTON SPRINGS FIRE DEPARTMENT,35005,RAILROAD AVENUE BOX 15,CLIFTON SPRINGS,NY,14432,35,Ontario,3154623358,42.966121,-77.139859,"(42.966121, -77.139859)",2133,182,812
CRYSTAL BEACH VOL FIRE DEPT,35006,4477 MAIDEN LANE,CANANDAIGUA,NY,14424-9785,35,Ontario,7163942975,42.86943,-77.29118,"(42.86943, -77.29118)",2133,178,825
EAST BLOOMFIELD FIRE DEPARTMENT,35007,PO BOX 246  105 MAIN STREET,E BLOOMFIELD,NY,14443-0246,35,Ontario,7162295563,42.897633,-77.432361,"(42.897633, -77.432361)",2133,239,824
FARMINGTON FIRE DEPARTMENT,35008,1225 HOOK ROAD,FARMINGTON,NY,14425,35,Ontario,5857421894,42.975447,-77.348733,"(42.975447, -77.348733)",2133,179,822
FISHERS FIRE DEPARTMENT,35009,7853 MAIN ST PO BOX 397,FISHERS,NY,14453,35,Ontario,7169243451,43.0092,-77.46899,"(43.0092, -77.46899)",2133,413,800
GENEVA FIRE DEPARTMENT,35011,47 CASTLE STREET,GENEVA,NY,14456,35,Ontario,3157896305,42.867905,-76.982723,"(42.867905, -76.982723)",2133,233,819
GORHAM FIRE CO,35012,4676 KEARNEY ROAD,GORHAM,NY,14461,35,Ontario,5855265363,42.80147,-77.136839,"(42.80147, -77.136839)",2133,412,817
HALL FIRE DEPARTMENT,35013,4852 MAIN STREET PO BOX 8,HALL,NY,14463,35,Ontario,5855265944,42.7937,-77.06879,"(42.7937, -77.06879)",2133,233,803
HONEOYE FIRE DEPARTMENT,35014,PO BOX 469,HONEOYE,NY,14471,35,Ontario,7163673381,42.72754,-77.48391,"(42.72754, -77.48391)",2133,241,804
HOPEWELL FIRE DEPARTMENT,35015,PO BOX 932,CANANDAIGUA,NY,14424,35,Ontario,7163947173,42.86943,-77.29118,"(42.86943, -77.29118)",2133,178,825
IONIA VOLUNTEER FIRE COMPANY,35016,8338 CO ROAD #14 PO BOX 43,IONIA,NY,14475,35,Ontario,7163964411,42.931399,-77.496632,"(42.931399, -77.496632)",2133,243,799
MANCHESTER FIRE DEPARTMENT,35017,3808 DEWEY ROAD,SHORTSVILLE,NY,14548,35,Ontario,7162893022,42.96955,-77.228717,"(42.96955, -77.228717)",2133,317,812
NAPLES FIRE DEPARTMENT,35018,297 ITALY TURNPIKE,NAPLES,NY,14512,35,Ontario,7163746452,42.61358,-77.404047,"(42.61358, -77.404047)",2133,323,809
NORTH SIDE FIRE COMPANY,35019,270 CARTER ROAD,GENEVA,NY,14456,35,Ontario,3157890805,42.889771,-76.993945,"(42.889771, -76.993945)",2133,233,818
PHELPS FIRE DEPARTMENT,35021,7 EXCHANGE ST PO BOX 81,PHELPS,NY,14532,35,Ontario,3155482028,42.957992,-77.057002,"(42.957992, -77.057002)",2133,370,805
PORT GIBSON VOL FIRE DEPT,35022,305 COUNTY RD #27,CLIFTON SPRINGS,NY,14432,35,Ontario,3155979376,42.95558,-77.22075,"(42.95558, -77.22075)",2133,405,812
SENECA CASTLE FIRE DEPARTMENT,35024,PO BOX 59,SENECA CASTLE,NY,14547,35,Ontario,7165265296,42.82481,-77.09493,"(42.82481, -77.09493)",2133,412,803
SHORTSVILLE FIRE DEPARTMENT,35025,5 SHELDON STREET,SHORTSVILLE,NY,14548,35,Ontario,7162893017,42.955756,-77.220702,"(42.955756, -77.220702)",2133,405,812
STANLEY FIRE COMPANY,35026,PO BOX 481,STANLEY,NY,14561,35,Ontario,7165265087,42.81855,-77.11322,"(42.81855, -77.11322)",2133,412,803
VICTOR VOLUNTEER FIRE DEPT,35027,34 MAPLE AVENUE,VICTOR,NY,14564,35,Ontario,5857422468,42.981169,-77.409605,"(42.981169, -77.409605)",2133,413,800
WEST BLOOMFIELD FIRE DEPARTMENT,35028,PO BOX 24,WEST BLOOMFIELD,NY,14585,35,Ontario,5852428394,42.9073,-77.5514,"(42.9073, -77.5514)",2133,419,799
WEST LAKE ROAD FIRE ASSN,35029,5275 OLD LAKE ROAD,GENEVA,NY,14456,35,Ontario,3157890061,42.86003,-76.98868,"(42.86003, -76.98868)",2133,233,819
WHITE SPRINGS FIRE DEPARTMENT,35031,PO BOX 401,GENEVA,NY,14456,35,Ontario,3157897274,42.86003,-76.98868,"(42.86003, -76.98868)",2133,233,819
OAKS CORNERS FIRE DEPARTMENT,35032,607 CROSS ROAD PO BOX 54,OAKS CORNERS,NY,14518,35,Ontario,3155483836,42.932925,-77.00047,"(42.932925, -77.00047)",2133,233,805
PINE ISLAND FIRE DEPARTMENT,36001,PO BOX 159 CNTY RT 1,PINE ISLAND,NY,10969,36,Orange,9142584377,41.28681,-74.49178,"(41.28681, -74.49178)",2134,1554,886
CAMPBELL HALL ENGINE CO NO 1,36002,COUNTY ROUTE 4,CAMPBELL HALL,NY,10916,36,Orange,9144272888,41.455253,-74.258304,"(41.455253, -74.258304)",2134,1496,880
CHESTER FIRE DEPT,36004,PO BOX 504,CHESTER,NY,10918,36,Orange,9144394100,41.3603,-74.275652,"(41.3603, -74.275652)",2134,1498,882
CIRCLEVILLE FIRE DEPARTMENT,36005,2147 ROUTE 302,CIRCLEVILLE,NY,10919,36,Orange,9143613702,41.52166,-74.38235,"(41.52166, -74.38235)",2134,1499,887
COLDENHAM FIRE COMPANY,36006,511 COLDENHAM ROAD,WALDEN,NY,12586,36,Orange,9145647223,41.527015,-74.152814,"(41.527015, -74.152814)",2134,1016,894
