"public_authority_type","public_authority_name","address_line_1","address_line_2","city","state","zip","website"
"State","Agriculture and New York State Horse Breeding Development Fund","1 Broadway Center",,"SCHENECTADY","NY","12305","http://www.nysirestakes.com"
"LDC","Finger Lakes Regional Land Bank Corporation","1 DiPronio Drive",,"WATERLOO","NY","13165-1680","http://www.flrlandbank.org/"
"LDC","Seneca Tobacco Asset Securitization Corporation","1 Dipronio Drive",,"WATERLOO","NY","13165","http://seneca.yourtasc.com"
"State","Port of Oswego Authority","1 East 2nd Street",,"OSWEGO","NY","13126","http://www.portoswego.com/"
"IDA","Fulton County Industrial Development Agency","1 East Montgomery Street",,"JOHNSTOWN","NY","12095",
"Local","Harrison Parking Authority","1 Heineman Place",,"HARRISON","NY","10528",
"LDC","Town of Brookhaven Local Development Corporation","1 Independence Hill",,"FARMINGVILLE","NY","11738","http://www.brookhavenldc.org/"
"IDA","Brookhaven Industrial Development Agency","1 Independence Hill",,"FARMINGVILLE","NY","11738","http://www.brookhavenida.org"
"LDC","Utica Harbor Point Local Development Corporation","1 Kennedy Plaza",,"UTICA","NY","13502","http://www.cityofutica.com"
"LDC","Utica Civic Development Corporation","1 Kennedy Plaza",,"UTICA","NY","13502","http://www.cityofutica.com"
"IDA","City of Utica Industrial Development Agency","1 Kennedy Plaza",,"UTICA","NY","13502","http://www.cityofutica.com"
"Local","Upper Mohawk Valley Regional Water Board","1 Kennedy Plaza",,"UTICA","NY","13502","http://www.mvwa.us"
"Local","Upper Mohawk Valley Regional Water Finance Authority","1 Kennedy Plaza",,"UTICA","NY","13502","http://www.mvwa.us"
"Local","Utica Urban Renewal Agency","1 Kennedy Plaza",,"UTICA","NY","13502",
"LDC","Finger Lakes Horizon Economic Development Corporation","1 Keuka Business Park",,"PENN YAN","NY","14527","http://fingerlakesedc.com"
"LDC","Yates County Capital Resource Corporation","1 Keuka Business Park",,"PENN YAN","NY","14527","http://www.fingerlakesedc.com"
"Local","Dutchess County Water and Wastewater Authority","1 LaGrange Avenue",,"POUGHKEEPSIE","NY","12603","http://www.co.dutchess.ny.us/CountyGov/Departments/WaterandWaste/WRIndex.htm"
"Local","Yonkers Community Development Agency","1 Larkin Center",,"YONKERS","NY","10701","http://www.cityofyonkers"
"IDA","New York City Industrial Development Agency","1 Liberty Plaza","14th Floor","NEW YORK","NY","10006","http://www.nycedc.com/nycida"
"LDC","New York City Land Development Corporation","1 Liberty Plaza","14th Floor","NEW YORK","NY","10006","http://www.nycldc.com/"
"Local","Trust for Cultural Resources of the City of New York","1 Liberty Plaza","14th Floor","NEW YORK","NY","10006","http://www.tcrnyc.org"
"LDC","NYC Neighborhood Capital Corporation","1 Liberty Plaza","14th Floor","NEW YORK","NY","10038","http://www.nycedc.com/program/new-markets-tax-credits-program"
"LDC","Build NYC Resource Corporation","1 Liberty Plaza","14th Floor","NEW YORK","NY","10038","http://www.nycedc.com/build-nyc"
"LDC","New York City Business Assistance Corporation","1 Liberty Street","11th Floor","NEW YORK","NY","10006",
"LDC","Lake Champlain-Lake George Regional Development Corporation","1 Lower Amherst Street","PO Box 765","LAKE GEORGE","NY","12845","http://www.lclgrpb.org"
"LDC","Hudson Development Corporation","1 NORTH FRONT STREET",,"HUDSON","NY","12534","http://www.hudsonfirst.com"
"IDA","Mount Pleasant Industrial Development Agency","1 Town Hall Plaza",,"VALHALLA","NY","10595","http://www.mtpleasantny.com"
"LDC","MUNIPRO, Inc.","1 Vince Tofany Boulevard",,"GREECE","NY","14612","http://www.muniproldc.org"
"Local","Nassau County Sewer and Storm Water Finance Authority","1 WEST STREET",,"MINEOLA","NY","11501","http://www.nassaucountyny.gov/540/Sewer-Storm-Water-Finance-Authority"
"LDC","Long Beach Local Development Corporation","1 West Chester Street",,"LONG BEACH","NY","11561","http://www.longbeachny.gov"
"LDC","Nassau County Local Economic Assistance Corporation","1 West Street","4th Floor","MINEOLA","NY","11501","https://nassauleac.com"
"IDA","Nassau County Industrial Development Agency","1 West Street","4th Floor","MINEOLA","NY","11501","http://www.nassauida.org"
"Local","Albany Municipal Water Finance Authority","10 N. Enterprise Ln",,"ALBANY","NY","12204","http://www.albanyny.gov/Government/CityOfficials/BoardsAndCommissions/AlbanyMunicipalWaterFinanceAuthority.aspx"
"Local","Albany Water Board","10 North Enterprise Drive",,"ALBANY","NY","12204","http://www.albanyny.gov/Government/CityOfficials/BoardsAndCommissions/AlbanyWaterBoard.aspx"
"LDC","Governors Island Corporation","10 South Street","Slip 7","NEW YORK","NY","10004","http://govisland.com"
"Local","Onondaga County Resource Recovery Agency","100 Elwood Davis Rd.",,"N SYRACUSE","NY","13212-4312",
"LDC","The Town of Huntington Economic Development Corporation","100 Main Street","Room 309","HUNTINGTON","NY","11743","http://huntingtonny.gov/action_orgs_detail.cfm?boardID=29"
"LDC","Town of Huntington Local Development Corporation","100 Main Street","Suite 200","HUNTINGTON","NY","11743","http://www.huntingtonny.gov"
"Local","Huntington Community Development Agency","100 Main Street","Suite 309","HUNTINGTON","NY","11743","http://huntingtonny.gov"
"LDC","Sullivan County Land Bank Corporation","100 North Street",,"MONTICELLO","NY","12701","http://www.sullivancountylandbank.org"
"LDC","Sullivan Tobacco Asset Securitization Corporation","100 North Street",,"MONTICELLO","NY","12701",
"LDC","Emerald Corporate Center Economic Development Corporation","100 North Street",,"MONTICELLO","NY","12701",
"LDC","The Recreation and Economic Development Corporation of Suffolk County","100 Veterans Highway","P.O. Box 6100","HAUPPAUGE","NY","11788",
"LDC","Suffolk Tobacco Asset Securitization Corporation","100 Veterans Memorial Highway",,"HAUPPAUGE","NY","11788",
"LDC","Suffolk County Economic Development Corporation","100 Veterans Memorial Hwy","H. Lee Dennison Building; 11th Floor","HAUPPAUGE","NY","11788-0099","http://www.suffolkcountyny.gov/scedc"
"IDA","Suffolk County Industrial Development Agency","100 Veterans Memorial Hwy","H. Lee Dennison Building; 3rd Floor","HAUPPAUGE","NY","11788-0099","http://www.suffolkida.org"
"LDC","Olean Local Development Corporation","101 East State Street",,"OLEAN","NY","14760","http://www.cityofolean.org"
"Local","Olean Urban Renewal Agency","101 East State Street",,"OLEAN","NY","14760",
"LDC","Tioga Tobacco Asset Securitization Corporation","103 Southside Drive Ste. 6",,"OWEGO","NY","13827-4317",
"Local","Buffalo Sewer Authority","1038 City Hall","65 Niagara Square","BUFFALO","NY","14202-3378","https://buffalosewer.org/"
"LDC","Schuyler County Human Services Development Corporation","105 Ninth Street","Unit 37","WATKINS GLEN","NY","14891","http://www.schuylercounty.us/Index.aspx?NID=425"
"Local","Albany Port District Commission","106 Smith Blvd.","Port of Albany","ALBANY","NY","12202","http://www.portofalbany.us"
"Local","Ithaca Urban Renewal Agency","108 East Green Street","City Hall, 3rd Floor","ITHACA","NY","14850","http://www.cityofithaca.org/290/Ithaca-Urban-Renewal-Agency"
"LDC","Herkimer Tobacco Asset Securitization Corporation","109 Mary Street","Suite 1310","HERKIMER","NY","13350","http://herkimer.yourtasc.com"
"Local","Freeport Community Development Agency","11 Richmond Street",,"FREEPORT","NY","11520","https://www.freeportny.gov/20/Community-Development-Agency"
"LDC","Town of Montgomery Capital Resource Corporation","110 Bracken Road",,"MONTGOMERY","NY","12549",
"IDA","Town of Montgomery Industrial Development Agency","110 Bracken Road",,"MONTGOMERY","NY","12549",
"LDC","Fulton County Economic Development Corporation","110 Decker Drive","Suite 110","JOHNSTOWN","NY","12095","http://www.sites4u.org/"
"LDC","Crossroads Incubator Corporation","110 Decker Drive","Suite 110","JOHNSTOWN","NY","12095",
"State","New York Local Government Assistance Corporation","110 State Street",,"ALBANY","NY","12236","https://www.osc.state.ny.us/debt/lgac"
"State","Capital District Transportation Authority","110 Watervilet Avenue",,"ALBANY","NY","12206","http://www.cdta.org"
"Local","New York City Housing Development Corporation","110 William Street",,"NEW YORK","NY","10038","http://www.nychdc.com"
"LDC","Dobbs Ferry Local Development Corporation","112 Main Street",,"DOBBS FERRY","NY","10522-1610","http://www.dobbsferry.com"
"LDC","Advance Albany County Alliance Local Development Corporation","112 State Street",,"ALBANY","NY","12207","https://www.advancealbanycountyalliance.com/"
"LDC","Albany County Capital Resource Corporation","112 State Street","Room 740","ALBANY","NY","12207",
"LDC","Canandaigua Local Development Corporation, Inc","113 Soth Main Street",,"CANANDAIGUA","NY","14424","http://www.canandaiguameansbusiness.com"
"Local","Town of Erwin Urban Renewal Agency","117 West Water Street",,"PAINTED POST","NY","14870","http://www.erwinny.org"
"IDA","Town of Erwin Industrial Development Agency","117 West Water Street",,"PAINTED POST","NY","14870","http://www.erwinny.org"
"LDC","Lloyd Community Development Corporation","12 Church St",,"HIGHLAND","NY","12528",
"LDC","Public Realm Improvement Fund Governing Group Inc","120 Broadway","31st Floor","NEW YORK","NY","10271","https://www1.nyc.gov/site/planning/zoning/districts-tools/public-realm-improvement-fund.page"
"LDC","Queens Economic Development Corporation","120-55 Queens Blvd. Suite 309",,"KEW GARDENS","NY","11424","http://www.queensny.org"
"Local","Monroe County Airport Authority","1200 Brooks Avenue",,"ROCHESTER","NY","14624",
"LDC","Orleans County Local Development Corporation","121 North Main Street",,"ALBION","NY","14411","http://orleansny.com/Home/COIDA/OCLDCAuthorityPage/tabid/275/Default.aspx"
"LDC","Orleans Land Restoration Corporation","121 North Main Street",,"ALBION","NY","14411","http://orleansny.com/Home/COIDA/tabid/251/Default.aspx"
"IDA","Orleans County Industrial Development Agency","121 North Main Street",,"ALBION","NY","14411","http://www.orleansdevelopment,org"
"State","Power Authority of the State of New York","123 Main Street","17th Floor","WHITE PLAINS","NY","10601","http://www.nypa.gov"
"Local","Orange County Water Authority","124 Main Street",,"GOSHEN","NY","10924","http://waterauthority.orangecountygov.com"
"LDC","Tompkins Tobacco Asset Securitization Corporation","125 East Court Street",,"ITHACA","NY","14850","http://tompkins.yourtasc.com/"
"Local","City of Fulton Community Development Agency","125 West Broadway",,"FULTON","NY","13069","http://www.fultoncda.com"
"State","Nassau County Interim Finance Authority","1305 Franklin Avenue","Suite 302","GARDEN CITY","NY","11530","http://www.nifa.state.ny.gov"
"LDC","New York City Energy Efficiency Corporation","1359 Broadway","19th Floor","NEW YORK","NY","10018","http://www.nyceec.com"
"LDC","Clinton County Capital Resource Corporation","137 Margaret Street, Suite 209",,"PLATTSBURGH","NY","12901","http://www.clintoncountyida.com/Clinton-IDA/cc_capital-resource-corp.html"
"IDA","Clinton County Industrial Development Agency","137 Margaret Street, Suite 209",,"PLATTSBURGH","NY","12901","http://www.clintoncountyida.com/Clinton-IDA/clinton.html"
"LDC","Clinton Grant Facilitation Corporation","137 Margaret Street, Suite 209",,"PLATTSBURGH","NY","12901","http://www.clintoncountyida.com/information-page/"
"State","Rochester-Genesee Regional Transportation Authority","1372 East Main Street",,"ROCHESTER","NY","14609","http://www.rgrta.com"
"Local","Village of Patchogue Community Development Agency","14 Baker Street","PO Box 719","PATCHOGUE","NY","11772","http://www.patchoguevillage.org/commdev.htm"
"IDA","Port Jervis Industrial Development Agency","14-20 Hammond St.","P O Box 1002","PORT JERVIS","NY","12771",
"LDC","Prattsville Local Development Corporation","14517 Main Street","PO Box 418","PRATTSVILLE","NY","12468",
"LDC","Westchester Tobacco Asset Securitization Corporation","148 Martine Avenue","Room 720","WHITE PLAINS","NY","10601","http://www.westchestertasc.com"
"LDC","Westchester County Local Development Corporation","148 Martine Avenue","9th Floor","WHITE PLAINS","NY","10601",
"IDA","Westchester County Industrial Development Agency","148 Martine Avenue","Room 903","WHITE PLAINS","NY","10601",
"LDC","Columbia Tobacco Asset Securitization Corporation","15 North 6th Street",,"HUDSON","NY","12534","https://sites.google.com/a/columbiacountyny.com/columbia-county-ctasc/"
"LDC","Development Chenango Corporation","15 South Broad Street",,"NORWICH","NY","13815","http://www.commercechenango.com"
"IDA","Chenango Industrial Development Agency","15 South Broad Street",,"NORWICH","NY","13815","http://www.commercechenango.com"
"LDC","Sherburne Area Local Development Corporation","15 West State Street","P.O. Box 704","SHERBURNE","NY","13460",
"LDC","Town of Plattsburgh Local Development Corporation","151 Banker Road",,"PLATTSBURGH","NY","12901","http://www.townofplattsburgh.com"
"Local","Water Authority of Western Nassau County","1580 Union Turnpike",,"NEW HYDE PARK","NY","11040-1762",
"IDA","Middletown Industrial Development Agency","16 James St",,"MIDDLETOWN","NY","10940",
"Local","Middletown Community Development Agency","16 James Street",,"MIDDLETOWN","NY","10940","http://www.middletown-ny.com/government/middletown-community-development-agency.html"
"LDC","Wayne County Regional Land Bank Corporation","16 William Street",,"LYONS","NY","14489","http://waynecountylandbankny.com"
"LDC","Cayuga Tobacco Asset Securitization Corporation","160 Genesee Street., 6th Floor",,"AUBURN","NY","13021","http://cayuga.yourtasc.com"
"Local","New York City Health and Hospitals Corporation","160 Water Street",,"NEW YORK","NY","10013","http://www.nyc.gov/html/hhc/html/home/home.shtml"
"IDA","Rensselaer County Industrial Development Agency","1600 7th Avenue",,"TROY","NY","12180",
"Local","Oneida-Herkimer Solid Waste Management Authority","1600 Genesee Street",,"UTICA","NY","13502","http://www.ohswa.org"
"LDC","Rensselaer County Capital Resource Corporation","1600 Seventh Avenue",,"TROY","NY","12180","http://www.discoverrensselaer.com/rccrc/"
"Local","Rensselaer County Water and Sewer Authority","1600 Seventh Avenue",,"TROY","NY","12180","http://www.discoverrensselaer.com/rcwsa-2/"
"LDC","Kingston City Land Bank, Inc.","17 Hoffman Street",,"KINGSTON","NY","12401","http://www.kingstoncitylandbank.org"
"Local","Rockland County Solid Waste Management Authority","172 Main Street",,"NANUET","NY","10954","http://www.rocklandgreen.com"
"LDC","Niagara Tobacco Asset Securitization Corporation","175 Hawley Street",,"LOCKPORT","NY","14094","http://www.niagaracounty.com/ntasc.asp"
"State","Niagara Frontier Transportation Authority","181 Ellicot Street",,"BUFFALO","NY","14203","http://www.nfta.com"
"LDC","Otsego County Capital Resource Corporation","189 Main St","Suite 500","ONEONTA","NY","13820","http://www.otsegocounty.com"
"IDA","Otsego County Industrial Development Agency","189 Main St","suite 500","ONEONTA","NY","13820","http://www.otsegonow.com"
"LDC","Oneonta Rail Yards Local Development Corporation","189 Main Street",,"ONEONTA","NY","13820","https://otsegonow.com"
"LDC","St. Lawrence County Industrial Development Agency Civic Development Corporation","19 Commerce Lane","Suite 1","CANTON","NY","13617","http://www.slcida.com/about-the-slc-ida-cdc.html"
"LDC","St. Lawrence County Industrial Development Agency Local Development Corporation","19 Commerce Lane","Suite 1","CANTON","NY","13617","http://www.slcida.com/ida-local-development-corp.html"
"IDA","St. Lawrence County Industrial Development Agency","19 Commerce Lane","Suite 1","CANTON","NY","13617","http://www.slcida.com"
"LDC","St. Lawrence County Property Development Corporation","19 Commerce Lane, Ste 1",,"CANTON","NY","13617","http://www.slcida.com/property-development-corp.html"
"LDC","Owasco Lake Watershed Management Council, Inc","197 Franklin St",,"AUBURN","NY","13021","https://www.olwmc.org/"
"Local","Livingston County Water and Sewer Authority","1997 D'Angelo Drive","PO Box 396","LAKEVILLE","NY","14480","http://wwww.co.livingston.state.us/lcwsa.htm"
"LDC","Nassau County Tobacco Settlement Corporation","1West Street",,"MINEOLA","NY","11501","http://www.nassaucountyny.gov/agencies/Treasurer/tobacco.html"
"State","Metropolitan Transportation Authority","2 Broadway",,"NEW YORK","NY","10004","http://www.mta.info"
"IDA","North Greenbush Industrial Development Agency","2 Douglas Street",,"WYNANTSKILL","NY","12198","http://townofng.com"
"LDC","East of Hudson Watershed Corporation","2 Route 164",,"PATTERSON","NY","12563","http://www.EOHWC.org"
"LDC","City of Watervliet Local Development Corporation","2-15th Street",,"WATERVLIET","NY","12189-2846","http://www.watervlietldc.com"
"IDA","Green Island Industrial Development Agency","20 Clinton Street",,"GREEN ISLAND","NY","12183","http://www.villageofgreenisland.com"
"LDC","Seneca Falls Development Corporation","20 East Bayard Street",,"SENECA FALLS","NY","13148","http://senecafallsdevcorp.org/"
"LDC","Ontario County Economic Development Corporation","20 Ontario St Suite 106B",,"CANANDAIGUA","NY","14424","http://www.co.ontario.ny.us"
"LDC","Ontario County Local Development Corporation","20 Ontario Street","Suite 106B","CANANDAIGUA","NY","14424","http://ontariocountydev.org"
"IDA","Ontario County Industrial Development Agency","20 Ontario Street","Suite 106B","CANANDAIGUA","NY","14424","http://www.co.ontario.ny.us"
"Local","Wilton Water and Sewer Authority","20 Traver Road",,"GANSEVOORT","NY","12831","http://water.townofwilton.com"
"LDC","Troy Community Land Bank Corporation","200 Broadway","Suite 701","TROY","NY","12180-0826","http://www.troycommunitylandbank.org"
"State","Central New York Regional Transportation Authority","200 Cortland Avenue","P.O. Box 820","SYRACUSE","NY","13205-0820","http://www.centro.org"
"LDC","Tompkins County Area Development","200 East Buffalo Street","Suite 102A","ITHACA","NY","14850","http://www.tcad.org/"
"LDC","Jamestown Local Development Corporation","200 East Third Street","Municipal Building 3rd Floor","JAMESTOWN","NY","14701",
"LDC","Chautauqua County Capital Resource Corporation","200 Harrison St",,"JAMESTOWN","NY","14701","http://www.ccida.com"
"Local","Albany Community Development Agency","200 Henry Johnson Boulevard","Second Floor","ALBANY","NY","12210-1522","http://www.albanyny.org/Government/Departments/DevelopmentandPlanning/ACDA.aspx"
"IDA","Riverhead Industrial Development Agency","200 Howell Avenue",,"RIVERHEAD","NY","11901","http://www.riverheadida.org"
"LDC","Riverhead IDA Economic Job Development Corporation","200 Howell Avenue",,"RIVERHEAD","NY","11901",
"State","Battery Park City Authority","200 Liberty Street","24th Floor","NEW YORK","NY","10281-1097","http://www.bpca.ny.gov"
"Local","Village of Spring Valley Urban Renewal Agency","200 North Main Street",,"SPRING VALLEY","NY","10977",
"Local","Onondaga County Water Authority","200 Northern Concourse",,"SYRACUSE","NY","13212","http://www.ocwa.org"
"State","New York State Thruway Authority","200 Southern Boulevard","P.O. Box 189","ALBANY","NY","12201-0189","http://www.thruway.ny.gov"
"Local","Syracuse Parking Authority","201 E. Washington St - 7th floor",,"SYRACUSE","NY","13202-1473","http://syracuse.ny.us/Parking_Authority.aspx"
"LDC","Syracuse Economic Development Corporation","201 East Washington St","6th Floor","SYRACUSE","NY","13202","http://www.syracuse.ny.us/SEDCO_Home.aspx"
"IDA","Syracuse Industrial Development Agency","201 East Washington Street","7th Floor","SYRACUSE","NY","13202","http://www.syracuse.ny.us/Syracuse_Industrial_Development_Agency.aspx"
"Local","Syracuse Urban Renewal Agency","201 East Washington Street","Room 600","SYRACUSE","NY","13202","http://www.syrgov.net/SURA.aspx"
"IDA","Chautauqua Industrial Development Agency","201 West 3rd Street","Suite 115","JAMESTOWN","NY","14701","http://www.ccida.com"
"IDA","Lancaster Industrial Development Agency","21 Central Avenue",,"LANCASTER","NY","14086","http://www.lancasternyida.com/"
"Local","Eastern Rensselaer County Solid Waste Management Authority","21 Church Street",,"MELROSE","NY","12121",
"IDA","Albany County Industrial Development Agency","21 Everett Road Extension",,"ALBANY","NY","12205","http://www.albanycounty.com/ida/"
"LDC","City of Albany Capital Resource Corporation","21 Lodge Street",,"ALBANY","NY","12207","http://www.albanyida.com"
"IDA","Albany City Industrial Development Agency","21 Lodge Street",,"ALBANY","NY","12207","http://www.albanyida.com"
"LDC","Capitalize Albany Corporation","21 Lodge Stret",,"ALBANY","NY","12207","http://www.capitalizealbany.com"
"LDC","Tusten Local Development Corporation","210 Bridge St.",,"NARROWSBURG","NY","12764",
"Local","Central New York Regional Market Authority","2100 Park Street",,"SYRACUSE","NY","13208","http://www.cnyrma@cnyrma.com"
"Local","Village of Elmira Heights Urban Renewal Agency","215 Elmwood Avenue",,"ELMIRA HEIGHTS","NY","14903","http://www.elmiraheightsura.com"
"LDC","Dutchess Tobacco Asset Securitization Corporation","22 Market Street",,"POUGHKEEPSIE","NY","12601","http://www.co.dutchess.ny.us/CountyGov/Departments/DTASC/DTindex.htm"
"State","Nassau Health Care Corporation","2201 Hempstead Turnpike",,"EAST MEADOW","NY","11554","http://www.nuhealth.net"
"IDA","Port Chester Industrial Development Agency","222 GRACE CHURCH STREET",,"PORT CHESTER","NY","10573",
"LDC","Village of Chittenango Local Development Corporation","222 Genesee Street",,"CHITTENANGO","NY","13037",
"LDC","Port Chester Local Development Corporation","222 Grace Church Street",,"PORT CHESTER","NY","10573",
"LDC","Salamanca Area Development Corporation","225 Wildwood Avenue","Suite 14","SALAMANCA","NY","14779","http://www.salmun.com/html/sadc.html"
"IDA","Salamanca Industrial Development Agency","225 Wildwood Avenue",,"SALAMANCA","NY","14779",
"LDC","Local Development Corporation of Laurelton, Rosedale, and Springfield Gardens","232-18 Merrick Boulevard",,"LAURELTON","NY","11413","http://www.ldclrs.org"
"LDC","Greater Syracuse Soundstage Development Corporation","24 Aspen Park Blvd.",,"EAST SYRACUSE","NY","13057-6075","http://www.syrsoundstage.com"
"IDA","Auburn Industrial Development Agency","24 South Street",,"AUBURN","NY","13021","http://www.auburnida.org"
"Local","Albany Parking Authority","25 Orange Street",,"ALBANY","NY","12207","http://www.ParkAlbany.com"
"LDC","The Mayor's Fund to Advance New York City","253 Broadway, 6th Floor",,"NEW YORK","NY","10007","http://www1.nyc.gov/fund"
"Local","New York City Municipal Water Finance Authority","255 Greenwich Street","6th Floor","NEW YORK","NY","10007","http://www.ci.nyc.ny.us/html/nyw/"
"Local","New York City Transitional Finance Authority","255 Greenwich Street","6th Floor","NEW YORK","NY","10007","http://www.ci.nyc.ny.us/html/tfa/"
"LDC","TSASC, Inc.","255 Greenwich Street",,"NEW YORK","NY","10007",
"Local","Saratoga County Water Authority","260 Butler Road",,"GANSEVOORT","NY","12831","http://www.saratogacountywaterauthority.com"
"State","New York State Olympic Regional Development Authority","2634 Main Street",,"LAKE PLACID","NY","12946","http://www.orda.org"
"IDA","Town of Malone Industrial Development Agency","27 Airport Road",,"MALONE","NY","12953","http://www.malonetown.com"
"LDC","Hoosick Local Development Corporation","273 breese hollow road",,"HOOSICK FALLS","NY","12090","http://hoosickldc.org"
"LDC","Sleepy Hollow Local Development Corporation","28 BEEKMAN AVENUE",,"SLEEPY HOLLOW","NY","10591","http://www.sleepyhollowny.gov/sleepy-hollow-local-development-corporation"
"LDC","Saratoga Economic Development Corporation","28 Clinton Street",,"SARATOGA SPRINGS","NY","12866","http://www.saratogaedc.com"
"LDC","Saratoga County Prosperity Partnership, Inc","28 Clinton Street","Second Floor","SARATOGA SPRINGS","NY","12866","http://www.saratogapartnership.org"
"LDC","Wheatfield Local Development Corporation","2800 Church Road",,"NORTH TONAWANDA","NY","14120","http://www.wheatfieldbusiness.com/ldc_about.html"
"LDC","Energy Improvement Corporation","2875 Route 35",,"KATONAH","NY","10536","https://www.eicpace.org/"
"LDC","Mamakating Local Development Corporation","2948 Route 209","PO BOX 761","WURTSBORO","NY","12790","http://www.visitmamakating.org"
"State","Erie County Fiscal Stability Authority","295 Main Street","Room 946","BUFFALO","NY","14203","http://www.ecfsa.state.ny.us"
"Local","Erie County Water Authority","295 Main Street","Suite 350","BUFFALO","NY","14203","http://www.ecwa.org"
"LDC","Steuben County Land Bank Corporation","3 E. Pulteney Square #303",,"BATH","NY","14810-1579",
"LDC","Chautauqua Tobacco Asset Securitization Corporation","3 N. Erie St",,"MAYVILLE","NY","14757","http://ny-chautauquacounty.civicplus.com/504/CTASC"
"LDC","Roberts Road Development Corporation","3 N. Erie St",,"MAYVILLE","NY","14757","http://www.co.chautauqua.ny.us/departments/finance/RRDC/Pages/default.aspx"
"LDC","Dutchess County Local Development Corporation","3 Neptune Road",,"POUGHKEEPSIE","NY","12601-5545","http://www.thinkdutchess.com"
"IDA","Dutchess County Industrial Development Agency","3 Neptune Road",,"POUGHKEEPSIE","NY","12601-5545",
"LDC","Rochester Land Bank Corporation","30 Church St. - Room 125B",,"ROCHESTER","NY","14614","http://www.cityofrochester.gov/landbank/"
"Local","New York City Educational Construction Fund","30-30 Thomson Avenue","Room 6-027","LONG ISLAND CITY","NY","11101","http://schools.nyc.gov/community/facilities/ecf/default.htm"
"LDC","Cattaraugus County Land Bank Corporation","303 Court Street",,"LITTLE VALLEY","NY","14755","http://www.CattLandBank.org"
"LDC","Cattaraugus County Economic Sustainability and Growth Corporation","303 Court Street",,"LITTLE VALLEY","NY","14755","http://www.ccesgc.org"
"Local","New York City School Construction Authority","3030 Thomson Ave",,"LONG ISLAND CITY","NY","11101","http://www.nycsca.org"
"Local","Village of Fairport Urban Renewal Agency","31 South Main Street",,"FAIRPORT","NY","14450","http://www.fairportoced.org"
"LDC","Fairport Local Development Corporation","31 South Main Street",,"FAIRPORT","NY","14450","http://www.fairportoced.org"
"IDA","Fairport Industrial Development Agency","31 South Main Street",,"FAIRPORT","NY","14450","http://www.fairportoced.org"
"LDC","Local Development Corporation of the Town of Union","3111 East Main Street",,"ENDWELL","NY","13760","http://www.townofunion.com/depts_services_economic_dev.php"
"Local","Elmira Urban Renewal Agency","317 East Church Street","City Hall, 3rd Floor","ELMIRA","NY","14901","http://www.cityofelmira.net/community-development/urban-renewal-agency"
"LDC","Madison County Capital Resource Corporation","3215 Seneca Tpk",,"CANASTOTA","NY","13032","http://www.madisoncountyida.com"
"LDC","Madison Grant Facilitation Corporation","3215 Seneca Tpk",,"CANASTOTA","NY","13032","http://www.madisoncountyida.com"
"IDA","Madison County Industrial Development Agency","3215 Seneca Turnpike",,"CANASTOTA","NY","13032","http://www.madisoncountyida.com"
"LDC","Ogdensburg Growth Fund Development Corp.","330 Ford Street","Room 11","OGDENSBURG","NY","13669","http://ogdensburg.org/index.aspx?nid=92"
"State","Utility Debt Securitization Authority (UDSA)","333 Earle Ovington Blvd",,"UNIONDALE","NY","11553","http://www.lipower.org/UDSA/"
"State","Long Island Power Authority","333 Earle Ovington Boulevard","Suite 403","UNIONDALE","NY","11553","http://www.lipower.org"
"LDC","Economic Development Corporation - Warren County","333 Glen St., Suite 101",,"GLENS FALLS","NY","12801","http://www.edcwc.org/"
"Local","Greater Rochester Sports Authority","333 N. Plymouth Avenue",,"ROCHESTER","NY","14608","http://mcnypa.com/authority"
"Local","Trust for Cultural Resources of the County of Onondaga","333 West Washington Street, Suite 130",,"SYRACUSE","NY","13202","http://www.syracusecentral.com"
"IDA","Onondaga County Industrial Development Agency","333 West Washington Street, Suite 130",,"SYRACUSE","NY","13202","http://www.syracusecentral.com"
"LDC","Onondaga Civic Development Corporation","333 West Washington Street, Suite 130","108 Vanida Drive","SYRACUSE","NY","13202-1342","http://www.syracusecentral.com"
"LDC","Brooklyn Bridge Park Corporation","334 Furman Street",,"BROOKLYN","NY","11201-6443","http://www.brooklynbridgeparknyc.org"
"Local","Wayne County Water and Sewer Authority","3377 Daansen Road",,"WALWORTH","NY","14568","http://www.wcwsa.org"
"LDC","Chadwick Bay Regional Development Corporation","338 Main Street","Suite 210","DUNKIRK","NY","14048","http://www.chadwickbayrdc.com"
"LDC","Fulton County Center for Regional Growth, Inc.","34 West Fulton Street",,"GLOVERSVILLE","NY","12078","http://www.fccrg.org"
"LDC","Dunkirk Local Development Corporation","342 Central Avenue",,"DUNKIRK","NY","14048","http://www.dunkirktoday.com/city-offices/economic-development"
"IDA","Dunkirk Industrial Development Agency","342 Central Avenue",,"DUNKIRK","NY","14048","http://www.cityofdunkirk,com"
"LDC","Town of Colonie Local Development Corporation","347 Old Niskayuna Road",,"LATHAM","NY","12110","http://www.colonieldc.org"
"IDA","Colonie Industrial Development Agency","347 Old Niskayuna Road",,"LATHAM","NY","12110",
"LDC","Schoharie County Capital Resource Corporation","349 Mineral Springs Road",,"COBLESKILL","NY","12043",
"IDA","Schoharie County Industrial Development Agency","349 Mineral Springs Road",,"COBLESKILL","NY","12043-9702","http://www.schohariecountyida.com"
"IDA","Hempstead Industrial Development Agency","350 Front Street","Room 240","HEMPSTEAD","NY","11550","http://www.tohida.org"
"State","Hudson River-Black River Regulating District","350 Northern Boulevard","3rd Floor","ALBANY","NY","12204","http://www.hrbrrd.ny.gov"
"LDC","Franklin County Local Development Corporation","355 West Main Street","Suite 428","MALONE","NY","12953","http://www.franklinida.org"
"LDC","Franklin County Civic Development Corporation","355 West Main Street","Suite 428","MALONE","NY","12953","http://www.franklinida.org"
"IDA","Franklin County Industrial Development Agency","355 West Main Street","Suite 428","MALONE","NY","12953","http://www.franklinida.org"
"LDC","Wyoming County Business Center","36 Center Street","Suite D","WARSAW","NY","14569","http://www.wycoida.org/"
"LDC","Wyoming Tobacco Asset Securitization Corporation","36 Center Street",,"WARSAW","NY","14569","http://wyoming.yourtasc.com"
"IDA","Wyoming County Industrial Development Agency","36 Center Street","Suite D","WARSAW","NY","14569-9796","http://www.wycoida.org"
"Local","Mechanicville Community Development Agency","36 N. Main Street",,"MECHANICVILLE","NY","12118",
"IDA","Mechanicville-Stillwater Industrial Development Agency","36 North Main Street",,"MECHANICVILLE","NY","12118","http://mechanicville-stillwater-ida.org"
"Local","Binghamton Urban Renewal Agency","38 Hawley Street","City Hall, 4th Floor","BINGHAMTON","NY","13901","http://www.binghamton-ny.gov/binghamton-urban-renewal-agency-bura"
"State","Housing Trust Fund Corporation","38-40 State Street",,"ALBANY","NY","12207","http://www.nyshcr.org/HTFC/"
"LDC","Saranac Lake Local Development Corporation","39 Main Street",,"SARANAC LAKE","NY","12983","https://www.saranaclakeny.gov/index.php?section=departments_communitydev_ldc"
"LDC","Orange County Funding Corporation","4 Crotty Lane","Suite 100","NEW WINDSOR","NY","12553","http://www.ocnyida.com"
"IDA","Orange County Industrial Development Agency","4 Crotty Lane","Suite 100","NEW WINDSOR","NY","12553","http://www.ocnyida.com"
"LDC","Local Development Corporation of Mount Vernon","4 North Seventh Avenue",,"MOUNT VERNON","NY","10550",
"LDC","Putnam Tobacco Asset Securitization Corporation","40 Gleneida Avenue","Room 105","CARMEL","NY","10512","http://www.putnamcountyny.gov"
"LDC","Putnam County Economic Development Corporation","40 Gleneida Avenue","3rd Floor; Suite 310","CARMEL","NY","10512-1705","http://www.putnamedc.org"
"IDA","Hornell Industrial Development Agency","40 Main Street",,"HORNELL","NY","14843","http://www.hornellny.com/"
"LDC","Hornell Area Industrial Development Corporation","40 Main Street",,"HORNELL","NY","14843","http://www.hornellny.com/content/about-haidc"
"LDC","Cortland County Business Development Corporation","40 Main Street, Suite A",,"CORTLAND","NY","13045","http://www.cortlandbusiness.com"
"IDA","Cortland Industrial Development Agency","40 Main Street, Suite A",,"CORTLAND","NY","13045","http://www.cortlandbusiness.com"
"LDC","Cortland County Development Corporation","40 Main Street, Suite A",,"CORTLAND","NY","13045",
"LDC","Orange County Partnership Inc","40 Matthews Street",,"GOSHEN","NY","10924",
"LDC","Town Of Islip Economic Development Corporation","40 Nassau Ave.",,"ISLIP","NY","11751","http://www.islipida.com"
"IDA","Islip Industrial Development Agency","40 Nassau Avenue",,"ISLIP","NY","11751",
"State","Homeless Housing Assistance Corporation","40 North Pearl Street","10th Floor, Section B","ALBANY","NY","12243-0001","http://www.otda.state.ny.us/main/bhs/"
"Local","Yonkers Joint Schools Construction Board","40 South Broadway",,"YONKERS","NY","10701","https://www.yonkersny.gov/government/boards-commissions/boards-commissions-n-z/yonkers-joint-schools-construction-board"
"LDC","Monroe Tobacco Asset Securitization Corporation","400 County Office Building","39 West Main Street","ROCHESTER","NY","14614",
"LDC","Chemung County Property Development Corporation","400 East Church St",,"ELMIRA","NY","14901","http://www.chemunglandbank.com/"
"LDC","Chemung County Capital Resource Corporation","400 East Church Street",,"ELMIRA","NY","14901","http://Chemungcountyida.org"
"IDA","Chemung Industrial Development Agency","400 East Church Street",,"ELMIRA","NY","14901","http://chemungcountyida.com"
"Local","Upper Mohawk Valley Memorial Auditorium Authority","400 Oriskany Street",,"UTICA","NY","13502","http://www.theuticaaud.com"
"LDC","Tompkins County Development Corporation","401 E. State Street","Suite 402B","ITHACA","NY","14850","http://www.tcad.org"
"IDA","Tompkins County Industrial Development Agency","401 E. State Street","Suite 402B","ITHACA","NY","14850","http://www.tcad.org"
"Local","Islip Resource Recovery Authority","401 Main Street Frnt",,"ISLIP","NY","11751","https://www.toirra.com"
"LDC","Buffalo Erie Niagara Land Improvement Corporation","403 Main Street","Suite 602","BUFFALO","NY","14203","http://www.benlic.org/"
"Local","Chautauqua, Cattaraugus, Allegany and Steuben Southern Tier Extension Railroad Authority","4039 Route 219, Suite 200",,"SALAMANCA","NY","14779","http://www.ccasstera.org"
"Local","Suffolk County Water Authority","4060 Sunrise Highway",,"OAKDALE","NY","11769","http://www.scwa.com"
"Local","Suffolk County Judicial Facilities Agency","41 Joseph St",,"SAYVILLE","NY","11782-9238",
"LDC","Griffiss Utility Services Corporation","410 Phoenix Drive",,"ROME","NY","13441","http://www.gusc.net/"
"LDC","Greene Tobacco Asset Securitization Corporation","411 Main Street",,"CATSKILL","NY","12414","http://greene.yourtasc.com"
"LDC","Greene County Economic Development Corporation","411 Main Street",,"CATSKILL","NY","12414","http://www.greenecountyedc.com"
"LDC","Carthage Industrial Development Corporation","414 State Street",,"CARTHAGE","NY","13619","http://villageofcarthageny.com/cidc"
"LDC","Yates Tobacco Asset Securitization Corporation","417 Liberty Street","Suite 1081","PENN YAN","NY","14527","http://Yates.YourTasc.com"
"Local","Glens Falls Urban Renewal Agency","42 Ridge Street",,"GLENS FALLS","NY","12801","http://www.cityofglensfalls.com"
"LDC","Glens Falls Civic Development Corporation","42 Ridge Street",,"GLENS FALLS","NY","12801",
"IDA","Glens Falls Industrial Development Agency","42 Ridge Street",,"GLENS FALLS","NY","12801",
"IDA","Herkimer Industrial Development Agency","420 E. German St., Suite 101A",,"HERKIMER","NY","13350","http://www.herkimercountyida.org"
"LDC","Onondaga Convention Center Hotel Development Corporation","421 Montgomery Street","Civic Center, 10th Floor (Law Dept.)","SYRACUSE","NY","13202","http://www.ongov.net"
"LDC","The Catskill Local Development Corporation","422 Main Street",,"CATSKILL","NY","12414","http://welcometocatskill.com/LDC/default.asp"
"IDA","Amherst Industrial Development Agency","4287 Main St",,"AMHERST","NY","14226","http://www.amherstida.com"
"LDC","Town of Amherst Development Corporation","4287 Main Street",,"AMHERST","NY","14226","http://www.AmherstIDA.com"
"LDC","Greater Syracuse Property Development Corporation","431 E Fayette Street","Suite 375","SYRACUSE","NY","13202","http://www.syracuselandbank.org"
"LDC","City of Troy Capital Resource Corporation","433 River Street, Suite 5000",,"TROY","NY","12180","http://www.troyny.gov/Departments/EconomicDevelopment/TroyCRC.aspx"
"IDA","Troy Industrial Development Authority","433 River Street, Suite 5000","City Hall","TROY","NY","12180","http://www.troyny.gov"
"Local","Schenectady Metroplex Development Authority","433 State Street","Suite 401","SCHENECTADY","NY","12305","http://www.schenectadymetroplex.org"
"LDC","Land Reutilization Corporation of The Capital Region","433 State Street","433 State Street","SCHENECTADY","NY","12305-1109","http://capitalregionlandbank.org/"
"LDC","Oswego County Land Bank Corporation","44 East Bridge Street","Suite 303","OSWEGO","NY","13126","http://www.oswegocountylandbank.com"
"LDC","Operation Oswego County","44 West Bridge Street",,"OSWEGO","NY","13126","http://www.oswegocounty.org"
"IDA","Oswego County Industrial Development Agency","44 West Bridge Street",,"OSWEGO","NY","13126","http://www.oswegocountyida.org/"
"LDC","Oswego County Civic Facilities Corporation","44 West Bridge Street",,"OSWEGO","NY","13126",
"IDA","Bethlehem Industrial Development Agency","445 Delaware Avenue",,"DELMAR","NY","12054","http://www.bethlehemida.com"
"LDC","The Greene Local Development Corporation","45 Sunset Blvd","Suite 3","COXSACKIE","NY","12051","http://www.greeneida.com/greene-local-development-corporation"
"IDA","Greene County Industrial Development Agency","45 Sunset Blvd.","Suite 3","COXSACKIE","NY","12051","http://www.greeneida.com"
"LDC","Oswego Tobacco Asset Securitization Corporation","46 East Bridge Street",,"OSWEGO","NY","13126","http://www.oswegocounty.com/otasc.html"
"State","Erie County Medical Center Corporation","462 Grider Street",,"BUFFALO","NY","14215","http://www.ecmc.edu/"
"LDC","Geneva Local Development Corporation","47 Castle Street",,"GENEVA","NY","14456",
"IDA","Geneva Industrial Development Agency","47 Castle Street",,"GENEVA","NY","14456",
"IDA","Babylon Industrial Development Agency","47 West Main Street, Suite 3",,"BABYLON","NY","11702","http://www.babylonida.org"
"IDA","Yonkers Industrial Development Agency","470 Nepperhan Avenue","Suite 200","YONKERS","NY","10701","http://www.yonkersida.com"
"LDC","Yonkers Economic Development Corporation","470 Nepperhan Avenue, Suite 200",,"YONKERS","NY","10701",
"Local","Monroe County Water Authority","475 Norris Drive",,"ROCHESTER","NY","14610","http://www.mcwa.com"
"LDC","Bolton Local Development Corporation","4949 Lakeshore Drive","P.O. Box 698","BOLTON LANDING","NY","12814","http://www.boltonldc.com/"
"LDC","Albany County Business Development Corporation","5 Computer Drive South",,"ALBANY","NY","12205-1608",
"LDC","Counties of Warren and Washington Civic Development Corporation","5 Warren St. Suite 210",,"GLENS FALLS","NY","12801","http://warren-washingtonida.com"
"IDA","Warren and Washington Counties Industrial Development Agency","5 Warren Street, Suite 210",,"GLENS FALLS","NY","12801","http://www.warren-washingtonida.com"
"Local","Incorporated Village of Hempstead Community Development Agency","50 Clinton Street","Ste. 504","HEMPSTEAD","NY","11550","http://www.villageofhempsteadcda.org"
"LDC","Rockland Second Tobacco Asset Securitization Corporation","50 Sanatorium Road","Building A Floor 8","POMONA","NY","10970","http://rocklandgov.com/departments/finance/"
"LDC","Rockland Tobacco Asset Securitization Corporation","50 Sanatorium Road","Building A - Floor 8","POMONA","NY","10970","http://rocklandgov.com/departments/finance/"
"LDC","Rockland County Health Facilities Corporation","50 Sanitorium Road",,"POMONA","NY","10970","http://www.rocklandgov.com"
"Local","Water Authority of Great Neck North","50 Watermill Lane",,"GREAT NECK","NY","11021","http://www.waterauthorityofgreatnecknorth.com"
"IDA","Saratoga County Industrial Development Agency","50 West High St.","Municipal Center","BALLSTON SPA","NY","12020","http://www.saratogacountyida.org"
"LDC","Saratoga County Capital Resource Corporation","50 West High Street",,"BALLSTON SPA","NY","12020","http://www.saratogacountyny.gov"
"IDA","Monroe Industrial Development Agency","50 West Main St Suite 1150",,"ROCHESTER","NY","14614","http://www.monroecountyida.org"
"LDC","Monroe County Industrial Development Corporation","50 West Main Street","Suite 1150","ROCHESTER","NY","14614","http://www.mcidcweb.com/about"
"LDC","Greater Mohawk Valley Land Bank Corporation","500 East Main Street","PO Box 53","LITTLE FALLS","NY","13365","http://gmvlb.org"
"LDC","Cornell Agriculture and Food Technology Park Corporation","500 Technology Farm Drive",,"GENEVA","NY","14456-0070","http://www.thetechnologyfarm.com"
"LDC","Lumber City Development Corporation","500 Wheatfield Street",,"NORTH TONAWANDA","NY","14120","http://www.lumbercitydc.com"
"Local","Buffalo Municipal Water Finance Authority","502 City Hall","65 Niagara Square","BUFFALO","NY","14202","http://www.buffalowaterauthority.com/"
"Local","Buffalo Water Board","502 City Hall","65 Niagara Square","BUFFALO","NY","14202","http://www.buffalowaterauthority.com/About/WaterBoard"
"LDC","Hudson Valley AgriBusiness Development Corp","507 Warren St",,"HUDSON","NY","12534","http://www.hvadc.org"
"Local","Town of North Hempstead Community Development Agency","51 Orchard Street",,"ROSLYN HEIGHTS","NY","11577-1326","http://www.northhempstead.com/content/7358/7129/4244/4278/default.aspx"
"LDC","Town of North Hempstead Business and Tourism Development Corporation","51 Orchard Street",,"ROSLYN HEIGHTS","NY","11577-1326","https://northhempsteadny.gov/Our-Mission"
"State","Dormitory Authority of the State of New York","515 Broadway",,"ALBANY","NY","12207-2964","http://www.dasny.org"
"LDC","New Rochelle Corporation for Local Development","515 North Avenue","Department of Development","NEW ROCHELLE","NY","10801","http://www.newrochelleny.com"
"IDA","New Rochelle Industrial Development Agency","515 North Avenue","Department of Development","NEW ROCHELLE","NY","10801","http://www.newrochelleny.com"
"LDC","New Rochelle Local Development Corporation","515 North Avenue",,"NEW ROCHELLE","NY","10801",
"IDA","Hudson Industrial Development Agency","520 Warren Street","City Hall","HUDSON","NY","12534","http://cityofhudson.org/content/Boards/View/1"
"Local","City of Hudson Community Development and Planning Agency","520 Warren Street",,"HUDSON","NY","12534","https://cms3.revize.com/revize/hudsonny/departments/boards_and_committees/hudson_community_development_and_planning_agency.php"
"Local","Saratoga Springs City Center Authority","522 Broadway",,"SARATOGA SPRINGS","NY","12866",
"LDC","Southold Local Development Corporation","53095 Route 25","PO Box 1179","SOUTHOLD","NY","11971","http://www.southoldldc.org"
"Local","Town of Riverhead Community Development Agency","542 East Main Street",,"RIVERHEAD","NY","11901","http://www.riverheadli.com/rthome.html"
"IDA","Sullivan County Industrial Development Agency","548 Broadway",,"MONTICELLO","NY","12701","http://www.sullivanida.com/"
"LDC","Sullivan County Funding Corporation","548 Broadway",,"MONTICELLO","NY","12701","http://www.scfundingcorp.com"
"LDC","The Sullivan County Infrastructure Local Development Corporation","548 Broadway",,"MONTICELLO","NY","12701","http://www.sullivanldc.com"
"IDA","Tioga County Industrial Development Agency","56 Main St.","County Office Bldg.","OWEGO","NY","13827","https://www.tiogacountyny.com/programs-agencies/industrial-development-agency/"
"LDC","Tioga County Property Development Corporation","56 Main Street",,"OWEGO","NY","13827","https://www.tiogacountyny.com/departments/economic-development-planning/"
"LDC","Greater Aurora Development Corporation","571 Main St.",,"EAST AURORA","NY","14052","http://www.east-aurora.ny.us/government/water-meter/water-meter-replacement-program.html"
"Local","Niagara Falls Public Water Authority","5815 Buffalo Avenue",,"NIAGARA FALLS","NY","14304","http://nfwb.org/NFPWA"
"Local","Niagara Falls Water Board","5815 Buffalo Avenue",,"NIAGARA FALLS","NY","14304","http://www.nfwb.org"
"LDC","Griffiss Local Development Corporation","584 Phoenix Drive",,"ROME","NY","13441","http://www.griffissldc.org"
"IDA","Oneida County Industrial Development Agency","584 Phoenix Drive",,"ROME","NY","13441","http://www.mvedge.org/ocida.asp"
"LDC","Oneida County Local Development Corporation","584 Phoenix Drive",,"ROME","NY","13441","http://www.oneidacountyIDA.org/OCLDC"
"LDC","Wyandanch Community Development Corporation","59 Cumberbach Street",,"WYANDANCH","NY","11798","http://www.wyandanchcdc.org"
"Local","New York City Water Board","59-17 Junction Blvd.","8th Floor","FLUSHING","NY","11373-5108","http://nyc.gov/html/nycwaterboard/html/home/home.shtml"
"State","Roosevelt Island Operating Corporation","591 Main Street",,"ROOSEVELT ISLAND","NY","10044","http://www.rioc.ny.gov"
"LDC","Livingston County Capital Resource Corporation","6 Court Street","Room 306","GENESEO","NY","14454","http://www.co.livingston.state.ny.us/"
"LDC","Livingston County Land Bank Corporation","6 Court Street","Room 305","GENESEO","NY","14454",
"IDA","Livingston County Industrial Development Agency","6 Court Street Room 306",,"GENESEO","NY","14454","http://www.co.livingston.state.ny.us/lcida"
"LDC","Cortland Tobacco Asset Securitization Corporation","60 Central Avenue",,"CORTLAND","NY","13045","http://cortland.yourtasc.com"
"LDC","Broome County Land Bank","60 Hawley St","PO Box 1766","BINGHAMTON","NY","13902-1766","http://www.broomelandbank.org"
"IDA","Corinth Industrial Development Agency","600 Palmer Avenue",,"CORINTH","NY","12822","http://www.townofcorinthny.com"
"LDC","Allegany County Land Bank Corporation","6087 State Rt 19n suite 300",,"BELMONT","NY","14813","http://www.alleganyco.com/development/allegany-county-land-bank-corporation/"
"LDC","TDC NNY INC.","61 Area Development Drive",,"PLATTSBURGH","NY","12901",
"IDA","Amsterdam Industrial Development Agency","61 Church Street",,"AMSTERDAM","NY","12010","http://www.amsterdamny.gov/business/amsterdam-industrial-development-agency.php"
"Local","Amsterdam Urban Renewal Agency","61 Church Street",,"AMSTERDAM","NY","12010","http://www.amsterdamny.gov/business/urban-renewal-agency.php"
"LDC","Hamburg New York Land Development Corporation","6100 South Park Avenue",,"HAMBURG","NY","14075","http://hamburgida.com"
"Local","Poughkeepsie Urban Renewal Agency","62 Civic Center Plaza",,"POUGHKEEPSIE","NY","12601",
"IDA","Poughkeepsie Industrial Development Agency","62 Civic Center Plaza",,"POUGHKEEPSIE","NY","12601",
"IDA","City of Rensselaer Industrial Development Agency","62 Washington Street",,"RENSSELAER","NY","12144",
"State","Natural Heritage Trust","625 Broadway",,"ALBANY","NY","12207","http://www.naturalheritagetrust.org"
"State","Environmental Facilities Corporation","625 Broadway","7th Floor","ALBANY","NY","12207-2997","http://www.efc.ny.gov"
"State","Greenway Conservancy for the Hudson River Valley, Inc.","625 Broadway - 4th Floor",,"ALBANY","NY","12207-2995","https://hudsongreenway.ny.gov/"
"LDC","Niagara Power Coalition","630 - 66th Street",,"NIAGARA FALLS","NY","14304","http://www.niagarapowercoalition.com"
"IDA","Niagara County Industrial Development Agency","6311 Inducon Corporate Dr Suite 1",,"SANBORN","NY","14132-9099","http://www.niagaracountybusiness.com"
"LDC","Niagara County Development Corporation","6311 Inducon Corporate Drive",,"SANBORN","NY","14132","http://www.niagaracountybusiness.com"
"LDC","Niagara Orleans Land Improvement Corporation","6311 Inducon Corporate Drive",,"SANBORN","NY","14132","http://www.niagaraorleanslandbank.com"
"LDC","Niagara Area Development Corporation","6311 Inducon Corporate Drive","Suite One","SANBORN","NY","14132-9099","http://www.niagaracountybusiness.com"
"State","New York Job Development Authority","633 Third Avenue",,"NEW YORK","NY","10017-6754",
"State","New York State Urban Development Corporation","633 Third Avenue",,"NEW YORK","NY","10017-8167","http://www.esd.ny.gov/"
"State","New York State Housing Finance Agency","641 Lexington Avenue",,"NEW YORK","NY","10022","http://www.nyshcr.org"
"State","State of New York Municipal Bond Bank Agency","641 Lexington Avenue",,"NEW YORK","NY","10022","http://www.nyshcr.org"
"State","New York State Affordable Housing Corporation","641 Lexington Avenue",,"NEW YORK","NY","10022","http://www.nyshcr.org"
"State","State of New York Mortgage Agency","641 Lexington Avenue",,"NEW YORK","NY","10022","http://www.nyshcr.org/"
"State","Tobacco Settlement Financing Corporation","641 Lexington Avenue",,"NEW YORK","NY","10022","http://www.nyshcr.org/"
"LDC","The Village of Waterford Local Development Corporation","65 Broad Street",,"WATERFORD","NY","12188",
"LDC","Town of Waterford Capital Resource Corporation","65 Broad Street",,"WATERFORD","NY","12188-2412",
"LDC","The North Country Alliance Local Development Corporation","65 Main Street, Box 8561","Clarkson University","POTSDAM","NY","13699-8561","http://northcountryalliance.org"
"State","New York Convention Center Operating Corporation","655 West 34th Street",,"NEW YORK","NY","10001-1188","http://www.javitscenter.com"
"IDA","Town of Lockport Industrial Development Agency","6560 Dysinger Road",,"LOCKPORT","NY","14094","http://www.lockporteconomicdevelopment.com"
"Local","Little Falls Urban Renewal Agency","659 E. Main Street","2nd Floor City Hall","LITTLE FALLS","NY","13365","http://cityoflittlefalls.net"
"Local","Clifton Park Water Authority","661 Clifton Park Center Road",,"CLIFTON PARK","NY","12065","http://www.cpwa.org"
"LDC","Catskill Watershed Corporation","669 County Highway 38","Suite 1","ARKVILLE","NY","12406","http://www.cwconline.org"
"IDA","Rockland County Industrial Development Agency","67 N","67 N. Main Street","NEW CITY","NY","10956","http://rocklandida.com"
"LDC","Rockland County Economic Assistance Corporation","67 North Main Street",,"NEW CITY","NY","10956","http://www.rocklandida.com"
"LDC","West Brighton Community Local Development Corporation","686 Forest Avenue",,"STATEN ISLAND","NY","10310","http://www.siboc.org/"
"Local","Green Island Power Authority","69 Hudson Avenue",,"TROY","NY","12183",
"LDC","Village of Holley Development Corporation","69 Public Square",,"HOLLEY","NY","14470",
"LDC","Albany County Land Bank Corporation","69 State Street","8th Floor","ALBANY","NY","12207","http://www.albanycountylandbank.org"
"Local","White Plains Urban Renewal Agency","70 Church Street",,"WHITE PLAINS","NY","10601-1901","http://www.whiteplainsny.gov/ura"
"LDC","Finger Lakes Regional Telecommunications Development Corporation","70 Ontario Street",,"CANANDAIGUA","NY","14424","http://www.axcessontario.com"
"IDA","Niagara Town Industrial Development Agency","7105 Lockport Road",,"NIAGARA FALLS","NY","14305",
"LDC","Steuben Area Economic Development Corporation","7234 Route 54 North","P.O. Box 393","BATH","NY","14810","http://www.steubencountyida.com"
"Local","Cayuga County Water and Sewer Authority","7413 County House Road",,"AUBURN","NY","13021","http://www.cayugacounty.us/CountyGovernment/WaterandSewerAuthority.aspx"
"LDC","NFC Development Corporation","745 Main Street",,"NIAGARA FALLS","NY","14302","http://niagarafallsusa.org/government/city-departments/nfc-development-corp/"
"Local","Niagara Falls Urban Renewal Agency","745 Main Street","MPO Box 69","NIAGARA FALLS","NY","14302","http://www.niagarafallsusa.org"
"LDC","Hudson Yards Infrastructure Corporation","75 Park Place","6th Floor","NEW YORK","NY","10007",
"LDC","Town of Sullivan Development Corporation","7507 Lakeport Rd",,"CHITTENANGO","NY","13037",
"IDA","Lewis County Industrial Development Agency","7551 S. State Street",,"LOWVILLE","NY","13367","http://www.naturallylewis.com"
"LDC","Essex County Capital Resource Corporation","7566 Court Street","PO Box 217","ELIZABETHTOWN","NY","12932","http://www.essexcountyida.com"
"LDC","Greater Brockport Development Corporation","76 Adams Street",,"BROCKPORT","NY","14420-1921","http://www.growbrockport.org"
"Local","American Museum of Natural History Planetarium Authority","79th Street @ Central Park West",,"NEW YORK","NY","10024",
"Local","Yonkers Parking Authority","8 Buena Vista Avenue",,"YONKERS","NY","10701","http://www.yonkersparkingauthority.com"
"LDC","Southern Tier Network, Inc.","8 Denison Parkway East","Suite 310","CORNING","NY","14830","http://southerntiernetwork.org"
"State","Municipal Assistance Corporation for the City of Troy","80 Maiden Lane","Suite 402","NEW YORK","NY","10038","https://www.troyny.gov/government/mac/"
"LDC","Tioga County Local Development Corporation","80 North Avenue",,"OWEGO","NY","13827","http://tclocaldevelopmentcorp.squarespace.com/"
"LDC","Town of Wawayanda Local Development Corporation","80 Ridgebury Hill Road",,"SLATE HILL","NY","10973","https://townofwawayanda.com/"
"IDA","Jefferson Industrial Development Agency","800 Starbuck Ave Suite 800",,"WATERTOWN","NY","13601","http://www.jcida.com"
"LDC","Jefferson County Local Development Corporation","800 Starbuck Avenue","Suite 800","WATERTOWN","NY","13601","http://www.jcida.com"
"LDC","Jefferson County Civic Facility Development Corporation","800 Starbuck Avenue","Suite 800","WATERTOWN","NY","13601","http://www.jcida.com"
"LDC","Watertown Industrial Center Local Development Corporation","800 Starbuck Avenue","Suite 804","WATERTOWN","NY","13601","http://www.wicldc.com"
"Local","North Hempstead Solid Waste Management Authority","802 West Shore Road",,"PORT WASHINGTON","NY","11050","http://www.northhempsteadny.gov/content/7352/7123/7215/4433/7217/default.aspx"
"LDC","Town of Babylon L. D. Corporation II","816 Deer Park Avenue",,"NORTH BABYLON","NY","11703","http://townofbabylon.com"
"LDC","City of Watertown Local Development Corporation","82 Public Square",,"WATERTOWN","NY","13601","http://www.watertownldc.com"
"Local","Franklin County Solid Waste Management Authority","828 County Route 20",,"CONSTABLE","NY","12926","http://www.cfswma.com"
"IDA","Newburgh Industrial Development Agency","83 Broadway, 3rd Floor","PO Box 1298","NEWBURGH","NY","12551-1298","http://www.cityofnewburgh-ny.gov/industrial-development-agency"
"IDA","Peekskill Industrial Development Agency","840 Main Street",,"PEEKSKILL","NY","10566","http://www.cityofpeekskill.com/industrialdevelopmentagency"
"LDC","Peekskill Facilities Development Corporation","840 Main Street",,"PEEKSKILL","NY","10566","http://www.cityofpeekskill.com/industrialdevelopmentagency/peekskill-facilities-development-corp"
"LDC","City of Peekskill Local Development Corporation","840 Main Street",,"PEEKSKILL","NY","10566","http://www.cityofpeekskill.com/industrialdevelopmentagency/peekskill-local-development-corp"
"LDC","Victor Local Development Corporation","85 East Main Street",,"VICTOR","NY","14564-5073","http://www.victorldc.org/"
"LDC","Business Development Corporation for a Greater Massena","85 Robinson Road","PO Box 5217","MASSENA","NY","13662","http://www.massenaworks.com"
"LDC","The Castleton-Schodack Local Development Corporation","85 South Main Street",,"CASTLETON","NY","12033",
"LDC","Bronx Overall Economic Development Corporation","851 Grand Concourse","Room 123","BRONX","NY","10451","http://www.boedc.com"
"IDA","Concord Industrial Development Agency","86 Franklin Street",,"SPRINGVILLE","NY","14141",
"LDC","Yonkers Downtown Waterfront Development Corporation","87 Nepperhan Avenue","suite 309","YONKERS","NY","10701","http://www.ydwdc.com"
"LDC","Cattaraugus County Capital Resource Corporation","9 E. Washington Street",,"ELLICOTTVILLE","NY","14731","http://www.cattcoida.com"
"LDC","Glen Cove Local Economic Assistance Corporation","9 Glen Street",,"GLEN COVE","NY","11542","http://glencoveida.org/local-economic-assistance-corporation/"
"IDA","Glen Cove Industrial Development Agency","9 Glen Street",,"GLEN COVE","NY","11542","http://www.glencoveida.org"
"Local","Nyack Parking Authority","9 North Broadway","Village Hall","NYACK","NY","10960",
"LDC","Montgomery County Capital Resource Corporation","9 Park Street","PO Box 1500","FONDA","NY","12068","http://www.mcbdc.org"
"LDC","Wayne Economic Development Corporation","9 Pearl Street",,"LYONS","NY","14489","http://wedcny.com"
"LDC","Wayne County Civic Facility Development Corporation","9 Pearl Street",,"LYONS","NY","14489","http://wedcny.com"
"IDA","Wayne County Industrial Development Agency","9 Pearl Street",,"LYONS","NY","14489-5917","https://web.co.wayne.ny.us/index.php/wcida/"
"Local","Glen Cove Community Development Agency","9-13 Glen Street","City Hall","GLEN COVE","NY","11542",
"Local","Genesee Valley Regional Market Authority","900 Jefferson Road",,"ROCHESTER","NY","14623","http://www.geneseevalleyregionalmarketauthority.com"
"IDA","Schuyler County Industrial Development Agency","910 South Decatur Street",,"WATKINS GLEN","NY","14891","http://flxgateway.com/scida/"
"Local","Buffalo Urban Renewal Agency","920 City Hall","65 Niagara Square","BUFFALO","NY","14202","http://www.ci.buffalo.ny.us/Home/City_Departments/BURA"
"LDC","Erie Tobacco Asset Securitization Corporation","95 Franklin","Room 1603","BUFFALO","NY","14202","http://www2.erie.gov/etasc/"
"LDC","Buffalo Urban Development Corporation","95 Perry Street","Suite 404","BUFFALO","NY","14203","http://budc.ecidany.com/index.asp"
"LDC","Buffalo and Erie County Industrial Land Development Corporation","95 Perry Street","Suite 403","BUFFALO","NY","14203","http://www.ecidany.com"
"LDC","Buffalo and Erie County Regional Development Corporation","95 Perry Street","Suite 403","BUFFALO","NY","14203","http://www.ecidany.com"
"IDA","Erie County Industrial Development Agency","95 Perry Street","Suite 403","BUFFALO","NY","14203-6525","http://www.ecidany.com"
"Local","Dutchess County Resource Recovery Agency","96 Sand Dock Road",,"POUGHKEEPSIE","NY","12601","http://www.dcrra.org"
"LDC","Cohoes Local Development Corporation","97 Mohawk Street",,"COHOES","NY","12047","http://www.cohoesldc.org/"
"IDA","Cohoes Industrial Development Agency","97 Mohawk Street",,"COHOES","NY","12047","http://www.cohoesida.org"
"LDC","Genesee Gateway Local Development Corporation","99 MedTEch Drive",,"BATAVIA","NY","14020","http://www.gcedc.com"
"IDA","Genesee County Industrial Development Agency","99 MedTech Drive",,"BATAVIA","NY","14020","http://www.gcedc.com"
"IDA","Wallkill Industrial Development Agency","99 Tower Drive","Building A","MIDDLETOWN","NY","10941","http://www.townofwallkill.com"
"Local","Albany County Airport Authority","Albany International Airport","Admin Bldg Room 204","ALBANY","NY","12211","http://www.albanyairport.com/"
"LDC","Binghamton Local Development Corporation","Binghamton City Hall, 4th Floor","38 Hawley St., 4th Floor","BINGHAMTON","NY","13903-7161","http://www.cityofbinghamton.com/department.asp?zone=Dept-Economic-Development&pid=6&pm=page"
"LDC","Brooklyn Navy Yard Development Corporation","Brooklyn Navy Yard, Building 292","63 Flushing Avenue, Unit 300","BROOKLYN","NY","11205-5928","http://www.brooklynnavyyard.org/procurementrfp4.html"
"LDC","Rensselaer Tobacco Asset Securitization Corporation","Bureau of Finance","1600 Seventh Avenue","TROY","NY","12180",
"LDC","Ramapo Local Development Corporation","C/O  TOWN OF RAMAPO","237 Route 59 - Purchasing","SUFFERN","NY","10901","http://www.ramapoldc.com"
"LDC","Rochester Economic Development Corporation","C/O Rochester Economic Development Department","57 St. Paul Street","ROCHESTER","NY","14604","http://www.redcoroc.com"
"LDC","Albany CSO Pool Communities Corporation","CDRPC","One Park Place, Suite 102","ALBANY","NY","12205-0850","http://cdrpc.org/programs/water-quality/combined-sewer-overflow-cso/"
"LDC","Cayuga County Development Corporation","Cayuga County Office Building","160 Genesee Street","AUBURN","NY","13021","http://www.cayugacounty.us/DoingBusiness/PlanningandEconomicDevelopment/EconomicDevelopment/PartnersandResources/DevelopmentCorporation.aspx#docs"
"IDA","Cayuga Industrial Development Agency","Cayuga Economic Development Agency (CEDA)","2 State Street","AUBURN","NY","13021","http://www.cayugacountyida.com/"
"LDC","BURA INC","City Hall","65 Niagara Sq Room 213","BUFFALO","NY","14202","http://burainc.org"
"LDC","City of Kingston Local Development Corporation","City Hall","420 Broadway","KINGSTON","NY","12401","http://www.kingston-ny.gov/kldc"
"Local","Rochester Urban Renewal Agency","City Hall","30 Church Street, Room 223B","ROCHESTER","NY","14614-1290","http://www.cityofrochester.gov/article.aspx?id=8589937368"
"Local","Schenectady Urban Renewal Agency","City Hall","105 Jay Street, Rm 14","SCHENECTADY","NY","12305",
"LDC","Troy Local Development Corporation","City Hall","433 River Street, Suite 5000","TROY","NY","12180","http://www.troyny.gov/departments/planning-department/economic-development/troy-ldc/"
"Local","Gloversville Community Development Agency","City Hall, 3 Frontage Road",,"GLOVERSVILLE","NY","12078","http://www.cityofgloversville.com"
"IDA","Mount Vernon Industrial Development Agency","City Hall, One Roosevelt Square",,"MOUNT VERNON","NY","10550","http://cmvny.com/departments/planning/industrial-development-agency/"
"LDC","White Plains Center Local Development Corporation","City of White Plains","255 Main Street Suite 102","WHITE PLAINS","NY","10601-2409",
"Local","Clifton-Fine Health Care Corporation","Clifton-Fine Hospital","1014 Oswegatchie Trail","STAR LAKE","NY","13690",
"LDC","Lake City Local Development Corporation","Community Development Office","41 City Hall Place","PLATTSBURGH","NY","12901","http://lakecityldc.com/"
"State","New York State Energy Research and Development Authority","Corporate Plaza West","17 Columbia Circle","ALBANY","NY","12203-6399","http://www.nyserda.org"
"LDC","Ontario Tobacco Asset Securitization Corporation","County Municipal Building","20 Ontario Street","CANANDAIGUA","NY","14424","http://www.co.ontario.ny.us/otasc/index.html"
"LDC","Washington County Local Development Corporation","County Municipal Center","383 Broadway, Building A","FORT EDWARD","NY","12828","http://www.wcldc.org"
"LDC","Washington Tobacco Asset Securitization Corporation","County Municipal Center - Building B","383 Broadway","FORT EDWARD","NY","12828","http://washingtoncountyny.gov/373/WTASC"
"LDC","Steuben Tobacco Asset Securitization Corporation","County Office Building","3 East Pulteney Square","BATH","NY","14810",
"LDC","Oneida Tobacco Asset Securitization Corporation","County Office Building","800 Park Avenue","UTICA","NY","13501","http://www.ocgov.net/comptroller/tobacco"
"LDC","Schuyler Tobacco Asset Securitization Corporation","County Office Building","105 Ninth Street","WATKINS GLEN","NY","14891","http://www.schuylercounty.us/Index.aspx?NID=433"
"LDC","Allegany County Capital Resource Corporation","Crossroads Commerce Center","6087 State Route 19N","BELMONT","NY","14813","http://www.acida.org"
"IDA","Allegany Industrial Development Agency","Crossroads Commerce Center","6087 State Route 19N - Suite 100","BELMONT","NY","14813","http://www.acida.org"
"LDC","The City of Newburgh Local Development Corporation","Department of Planning and Development","83 Broadway","NEWBURGH","NY","12550","http://www.newburgh-ny.com"
"Local","Nassau County Bridge Authority","Doughty Blvd",,"LAWRENCE","NY","11559","http://www.ncbaabb.com/"
"State","Development Authority of the North Country","Dulles State Office Building","317 Washington Street, Suite 414","WATERTOWN","NY","13601","http://www.danc.org"
"LDC","Niagara County Brownfields Development Corporation","Economic Development Center","6311 Inducon Corporate Drive","SANBORN","NY","14132","http://www.niagaracountybusiness.com/brownfields.asp"
"LDC","Broome Tobacco Asset Securitization Corporation","Edwin L Crawford County Office Building","P.O. Box 1766","BINGHAMTON","NY","13902",
"State","Roswell Park Cancer Institute Corporation","Elm and Carlton Street",,"BUFFALO","NY","14263","http://www.roswellpark.org"
"LDC","Broome County Local Development Corporation","FIVE South College Drive, Suite 201",,"BINGHAMTON","NY","13905","http://www.theagency-ny.com"
"IDA","Broome Industrial Development Agency","FIVE South College Drive, Suite 201",,"BINGHAMTON","NY","13905-9000","http://www.theagency-ny.com"
"LDC","Ontario County Four Seasons Development Corporation","Finger Lakes Visitors Connection","19 Susan B. Anthony Lane","CANANDAIGUA","NY","14424","http://www.visitfingerlakes.com"
"LDC","Genesee Tobacco Asset Securitization Corporation","Genesee County Building 1","15 Main Street","BATAVIA","NY","14020","http://genesee.yourtasc.com"
"LDC","Genesee County Funding Corporation","Genesee County Funding Corporation","99 MedTech Drive, Suite 106","BATAVIA","NY","14020","http://www.gcedc.com"
"IDA","Guilderland Industrial Development Agency","Guilderland Town Hall","P O Box 339","GUILDERLAND","NY","12084","http://www.townofguilderland.org/Pages/GuilderlandNY_IDA"
"LDC","The Suffolk County Land Bank Corporation","H. Lee Dennison Bldg","100 Veterans Memorial Hwy","HAUPPAUGE","NY","11788",
"LDC","Wyoming County Business Assistance Corporation","James Pierce","36 Center Street, Suite D","WARSAW","NY","14569","http://Wycoida.org"
"LDC","Onondaga Tobacco Asset Securitization Corporation","John H. Mulroy Civic Center, 14th Floor","421 Montgomery Street","SYRACUSE","NY","13202","http://www.ongov.net/otasc/"
"LDC","Village of Lancaster Community Development Corporation","Lancaster Municipal Building","5423 Broadway","LANCASTER","NY","14086","https://www.rediscoveringlancaster.com/"
"LDC","Livingston Tobacco Asset Securitization Corporation","Livingston City Government Center","6 Court Street, Room 302","GENESEO","NY","14454",
"LDC","Livingston County Development Corporation","Livingston County Government Center","6 Court St., Room 306","GENESEO","NY","14454","http://www.co.livingston.state.ny.us/lcdc.htm"
"State","Buffalo Fiscal Stability Authority","Market Arcade Bldg.","617 Main Street, Suite 400","BUFFALO","NY","14203","http://www.bfsa.state.ny.us"
"State","New York State Bridge Authority","Mid-Hudson Bridge Plaza","P.O. Box 1010","HIGHLAND","NY","12528","http://www.nysba.state.ny.us"
"Local","Jamestown Urban Renewal Agency","Municipal Building","200 East 3rd Street","JAMESTOWN","NY","14701",
"LDC","Cheektowaga Economic Development Corporation","Office of Community & Economic Development","275 Alexander Avenue","BUFFALO","NY","14211-2742","http://www.cheektowagadevelopment.com/"
"LDC","Greater Glens Falls Local Development Corporation","Office of Economic Development","42 Ridge Street","GLENS FALLS","NY","12801","http://www.glensfallsldc.com/"
"LDC","Theater Subdistrict Council Local Development Corporation","Office of The Counsel","120 Broadway, 31st Floor","NEW YORK","NY","10271","https://www1.nyc.gov/site/planning/zoning/districts-tools/theater-subdistrict-council-ldc.page"
"LDC","Batavia Development Corporation","One Batavia City Centre",,"BATAVIA","NY","14020","http://www.bataviadevelopmentcorp.org"
"LDC","Rockland Economic Development Corporation","One Blue Hill Plaza","P.O. Box 1575","PEARL RIVER","NY","10965","http://redc.org"
"State","Ogdensburg Bridge and Port Authority","One Bridge Plaza",,"OGDENSBURG","NY","13669","http://www.ogdensport.com"
"State","New York State Thoroughbred Breeding Development Fund","One Broadway Center - 1st floor",,"SCHENECTADY","NY","12305","http://www.nybreds.com"
"Local","Village of Rockville Centre Community Development Agency","One College Place and Clinton Avenue","P.O. Box 950","ROCKVILLE CENTRE","NY","11571-0950","http://www.rvcny.gov"
"LDC","Buffalo Niagara Convention Center Management Corporation","One Convention Center Plaza",,"BUFFALO","NY","14202-3105","http://www.buffaloconvention.com"
"LDC","Delaware County Local Development Corporation","One Courthouse Square","Suite 4","DELHI","NY","13753",
"IDA","Delaware County Industrial Development Agency","One Courthouse Square","Suite 4","DELHI","NY","13753",
"IDA","Seneca County Industrial Development Agency","One DiPronio Drive",,"WATERLOO","NY","13165","http://www.senecacountyida.org/"
"LDC","Seneca County Funding Corporation","One DiPronio Drive",,"WATERLOO","NY","13165","http://www.senecacountyida.org"
"LDC","Seneca County Economic Development Corporation","One Dipronio Drive","One DiPronio Drive","WATERLOO","NY","13165","http://www.senecacountyida.org"
"LDC","Columbia Economic Development Corporation","One Hudson City Centre","Suite 301","HUDSON","NY","12534","http://www.columbiaedc.com/"
"LDC","Columbia County Capital Resource Corporation","One Hudson City Centre","Suite 301","HUDSON","NY","12534","http://www.columbiaedc.com/?page_id=12"
"IDA","Columbia Industrial Development Agency","One Hudson City Centre","Suite 301","HUDSON","NY","12534","http://www.Columbiaedc.com"
"IDA","Yates County Industrial Development Agency","One Keuka Business Park",,"PENN YAN","NY","14527","http://fingerlakesedc.com"
"LDC","New York City Economic Development Corporation","One Liberty Plaza","14th Floor","NEW YORK","NY","10006","http://www.nycedc.com"
"LDC","Greater Lockport Development Corporation","One Locks Plaza",,"LOCKPORT","NY","14094","http://www.lockportny.gov/gldc"
"LDC","Canton Capital Resource Corporation","One Main St.","Suite 101","CANTON","NY","13617","https://cantonny.gov/canton-capital-corporation/"
"Local","Mount Vernon Urban Renewal Agency","One Roosevelt Square","City Hall, 2nd Floor","MOUNT VERNON","NY","10550",
"Local","Haverstraw Urban Renewal Agency","One Rosman Road",,"GARNERVILLE","NY","10923",
"LDC","Tuxedo Local Development Corporation","One Temple Drive",,"TUXEDO PARK","NY","10987-4436","http://www.tuxedogov.org"
"LDC","Tuxedo Farms Local Development Corporation","One Temple Drive",,"TUXEDO PARK","NY","10987-4436","http://www.tuxedogov.org/tuxedofarms"
"IDA","Clifton Park Industrial Development Agency","One Town Hall Plaza",,"CLIFTON PARK","NY","12065","http://www.cliftonpark.org/townhall/cpida"
"IDA","Clarence Industrial Development Agency","One Town Place",,"CLARENCE","NY","14031","http://www.clarenceida.com"
"LDC","Nassau County Land Bank Corporation","One West Street",,"MINEOLA","NY","11501","https://www.nassaucountyny.gov/4293/Land-Bank"
"Local","Oneida County Sports Facility Authority","Oneida County Office Building","800 Park Ave.","UTICA","NY","13501",
"IDA","Montgomery County Industrial Development Agency","P O Box 1500",,"FONDA","NY","12068","http://www.mcida.org"
"IDA","Hamilton County Industrial Development Agency","P O Box 205",,"LAKE PLEASANT","NY","12108","http://www.hamiltoncounty.com/economic-development"
"LDC","Glenville Local Development Corporation","P O Box 2894",,"GLENVILLE","NY","12325","http://www.GlenvilleLDC.org"
"IDA","City of Schenectady Industrial Development Agency","P O Box 68",,"SCHENECTADY","NY","12301-0068","http://www.cityofschenectady.com"
"Local","Water Authority of Southeastern Nassau County","P.O. Box 1098",,"BELLMORE","NY","11710-0176",
"LDC","Sackets Harbor Local Development Corporation","P.O. Box 121",,"SACKETS HARBOR","NY","13685","http://www.sacketsharbor-ny.gov"
"LDC","Village of South Glens Falls Local Development Corporation","P.O. Box 1210",,"SOUTH GLENS FALLS","NY","12803","http://www.sgfny.com/SGF-Village-Attorney.htm"
"IDA","Cattaraugus Industrial Development Agency","P.O. Box 1749","9 E Washington St","ELLICOTTVILLE","NY","14731","http://www.cattcoida.com"
"LDC","Ulster Tobacco Asset Securitization Corporation","P.O. Box 1800",,"KINGSTON","NY","12402-1800","http://ulstercountyny.gov/ulster-tobacco-asset-securitization-corporation"
"State","Nelson A. Rockefeller Empire State Plaza Performing Arts Center Operating Corporation","P.O. Box 2065","Empire State Plaza","ALBANY","NY","12220","http://www.theegg.org/"
"IDA","Essex County Industrial Development Agency","P.O. Box 217","7566 Court Street","ELIZABETHTOWN","NY","12932","http://www.essexcountyida.com"
"LDC","Bethel Local Development Corporation","P.O. Box 300",,"WHITE LAKE","NY","12786","http://www.town.bethel.ny.us/bldc.htm"
"IDA","Steuben County Industrial Development Agency","P.O. Box 393",,"BATH","NY","14810","http://www.steubencountyida.com"
"LDC","Greater Wawarsing Local Development Corporation","P.O. Box 46","108 Canal Street","ELLENVILLE","NY","12428","http://greaterwawarsing.org"
"LDC","Seneca Knit Development Corporation","P.O. Box 499",,"SENECA FALLS","NY","13148",
"LDC","Potsdam Community Development Corporation","P.O. Box 5168/Civic Center",,"POTSDAM","NY","13676","http://www.potsdamcdc.org"
"Local","Town of Islip Community Development Agency","P.O. Box 5587",,"BAY SHORE","NY","11706",
"LDC","Chemung Tobacco Asset Securitization Corporation","P.O. Box 588","203 Lake Street","ELMIRA","NY","14901",
"LDC","Chautauqua County Land Bank Corporation","P.O. Box 603",,"FREDONIA","NY","14063-0603","http://www.chautauqualandbank.org"
"Local","Ulster County Resource Recovery Agency","P.O. Box 6219",,"KINGSTON","NY","12402","http://www.ucrra.org"
"Local","Port Jervis Community Development Agency","PO Box 1002","20 Hammond St","PORT JERVIS","NY","12771","http://www.portjervisny.org"
"LDC","Newburgh Community Land Bank","PO Box 152",,"NEWBURGH","NY","12550","http://www.newburghcommunitylandbank.org"
"LDC","Ulster County Economic Development Alliance, Inc.","PO Box 1800","244 Fair Street","KINGSTON","NY","12402","http://ulstercountyny.gov/economic-development/ulster-county-economic-development-alliance"
"LDC","Golden Hill Local Development Corporation","PO Box 1800","P.O. Box 1800","KINGSTON","NY","12402","http://ulstercountyny.gov/golden-hill-local-development-corporation"
"LDC","Ticonderoga Revitalization Alliance","PO Box 247",,"TICONDEROGA","NY","12883","http://www.ticonderoga-alliance.org"
"LDC","The Walden Local Development Corporation","PO Box 367","158 Orange Avenue","WALDEN","NY","12586",
"LDC","Ulster County Capital Resource Corporation","PO Box 4265",,"KINGSTON","NY","12402","http://ulstercountyida.com"
"IDA","Ulster County Industrial Development Agency","PO Box 4265",,"KINGSTON","NY","12402","http://ulstercountyida.com"
"LDC","Village of Valatie Local Development Corporation","PO Box 702",,"VALATIE","NY","12184-9998",
"LDC","Lewis County Development Corporation","PO Box 704",,"LYONS FALLS","NY","13368","https://sites.google.com/site/lewiscountydevelopmentcorp/home"
"LDC","Municipal Electric and Gas Alliance, Inc","PO Box 88",,"ITHACA","NY","14851","http://www.megaenergy.org"
"IDA","Schenectady County Industrial Development Agency","PO Box 912",,"SCHENECTADY","NY","12301","http://www.schenectadycounty.com"
"LDC","Clayton Local Development Corporation","PO Box 99","913 Strawberry Lane","CLAYTON","NY","13624","http://www.claytonldc.org"
"State","Hudson River Park Trust","Pier 40 - 353 West St.","2nd Floor","NEW YORK","NY","10014","http://www.hudsonriverpark.org/"
"IDA","Hamburg Industrial Development Agency","S6100 South Park Avenue",,"HAMBURG","NY","14075",
"IDA","Putnam County Industrial Development Agency","Suite 2,","2 Route 164","PATTERSON","NY","12563","http://www.putnamida.com"
"Local","Syracuse Regional Airport Authority","Syracuse Hancock International Airport","1000 Colonel Eileen Collins Boulevard","SYRACUSE","NY","13212","http://www.flysyracuse.com"
"LDC","Syracuse Local Development Corporation","Syracuse Local Development Corporation","201 East Washington St., 7th Floor","SYRACUSE","NY","13202","http://www.syracuse.ny.us/SLDC.aspx"
"Local","Tonawanda (City) Community Development Agency","Tonawanda City Hall","200 Niagara Street","TONAWANDA","NY","14150","http://www.ci.tonawanda.ny.us"
"LDC","Town of Hempstead Local Development Corp.","Town Hall Plaza","350 Front Street Room 234-A","HEMPSTEAD","NY","11550","http://www.tohldc.org"
"LDC","Town of Dewitt Local Development Corporation","Town of Dewitt","5400 Butternut Drive","EAST SYRACUSE","NY","13057","http://www.townofdewitt.com/TownofDeWittLocalDevelopmentCorporation.aspx"
"State","United Nations Development Corporation","Two United Nations Plaza","27th Floor","NEW YORK","NY","10017-4403","http://www.undc.org/"
"State","Westchester County Health Care Corporation","Valhalla Campus","100 Woods Road","VALHALLA","NY","10595","http://www.worldclassmedicine.com/"
"Local","Victor Urban Renewal Agency","Village of Victor","60 East Main Street","VICTOR","NY","14564","http://victorny.org"
"LDC","Warren County Local Development Corporation","Warren County Municipal Center","1340 State Route 9","LAKE GEORGE","NY","12845","http://www.warrenldc.org"
"LDC","Warren Tobacco Asset Securitization Corporation","Warren County Municipal Center","1340 State Route 9","LAKE GEORGE","NY","12845",
"State","Albany Convention Center Authority","c/o Albany Capital Center","55 Eagle St","ALBANY","NY","12207","http://www.accany.com"
"LDC","Hudson Yards Development Corporation","c/o NYCEDC","165 Broadway, 14th Floor","NEW YORK","NY","10006","http://www.hydc.org"
"LDC","Schenectady County Capital Resource Corporation","c/o Schdy Co. IDA","PO Box 912","SCHENECTADY","NY","12301-0912","http://www.schenectadycounty.com"
"LDC","The Schoharie Community Development Corporation",,,,,,
"LDC","Nassau County Economic Development Corporation",,,,,,
"LDC","Otsego County Development Corporation",,,,,,
"LDC","Malone Economic Development Corporation",,,,,,
"LDC","Western Ontario Local Community Development Corporation",,,,,,
"LDC","Batavia Regional Recreation Corporation",,,,,,
"LDC","Southern Tier Economic Development, Inc.",,,,,,
"LDC","Oswegatchie Development Corporation",,,,,,
"LDC","Utica Industrial Development Corporation",,,,,,
"LDC","Rome Community Brownfield Restoration Corporation",,,,,,
"LDC","Sullivan County Partnership for Economic Development",,,,,,
"LDC","Tompkins Consolidated Area Transit Inc.",,,,,,
"LDC","Albion Housing and Economic Development Corporation",,,,,,
"LDC","Village of Highland Falls High Point Utility Local Development Corporation",,,,,,
"LDC","Allegany County Telecommunications Development Corp",,,,,,
"LDC","Ogdensburg Land Bank Corporation",,,,,,
"LDC","Ft. Edward Local Property Development Corporation",,,,,,
"LDC","Warwick Valley Local Development Corporation",,,,,,
"LDC","Tonawanda Local Development Corporation",,,,,,
"LDC","New York City School Bus Umbrella Services, Inc.",,,,,,
"LDC","Pelham Local Development Corporation",,,,,,
"LDC","Sullivan Broadband Local Development Corporation",,,,,,
"LDC","Plattsburgh Progress Local Development Corporation",,,,,,
"LDC","Dutchess County-Poughkeepsie Land Bank Corporation",,,,,,
"LDC","Ulster County Housing Development Corporation",,,,,,
