"agent_id","business_name","address_1","address_2","city","state","zip","phone_number","county","dec_region","latitude","longitude","georeference"
"1263","TOWN OF MIDDLEFIELD","County Route 35","Po Box 961","Cooperstown","NY","13326","6075472629","Otsego",,,,
"1284","TOWN OF MACEDON","32 Main Street",,"Macedon","NY","14502","3159865932","Wayne",,,,
"1384","TOWN OF PALERMO","53 Co.Rte.35",,"Fulton","NY","13069","3157514220","Oswego",,,,
"1491","ALL SEASONS SPORTS INC.","3733 State Route #13",,"Pulaski","NY","13142","3158946136","Oswego",,,,
"1649","TOWN OF RUTLAND","28411 Nys Route 126",,"Black River","NY","13612","315-788-9997","Jefferson",,,,
"2005","TOWN OF TYRONE","457 County Route 23",,"Dundee","NY","14837","6072926757","Schuyler",,,,
"3866","BUBBAS BOBBERS & BAIT","10519 Cty Rt 76",,"Hammondsport","NY","14840","607-868-7088","Steuben",,,,
"1958","TOWN OF SIDNEY","44 Grand Street, Suite 1",,"Sidney","NY","13838","607-561-2334","Delaware",,,,"POINT (-75.391647 42.313796)"
"2334","TOWN OF TUSCARORA","1094 Gill Road",,"Addison","NY","14801","6073593234","Steuben",,,,"POINT (-77.271603 42.054356)"
"1109","TOWN OF SENECA","3675 Flint Road",,"Stanley","NY","14463","5855265251","Ontario",,,,"POINT (-77.10666 42.854059)"
"2775","MARINE VILLAGE COTTAGES","82 Dickson Point Rd",,"Plattsburgh","NY","12901","5185635698","Clinton",,,,"POINT (-73.366863 44.807573000000005)"
"2215","TOWN OF EDINBURG","45 Military Road",,"Edinburg","NY","12134","5188634655","Saratoga",,,,"POINT (-74.103001 43.229116)"
"1930","TOWN OF HORNELLSVILLE","4 Park Street","P O Box 1","Arkport","NY","14807","6072959660","Steuben",,,,"POINT (-77.7889 42.252225)"
"2702","TOWN OF FLORIDA","181 State Highway 161",,"Amsterdam","NY","12010","5188435817","Montgomery",,,,"POINT (-74.231044 42.901623)"
"1528","INLET ACE, LLC","3085 State Rte 28 Main Street","P O Box 1150","Old Forge","NY","13420","3153696342","Herkimer",,,,
"1224","WAL-MART STORES INC.","10401 Bennett Road  Rt#60",,"Fredonia","NY","14063","7166793150","Chautauqua",,,,"POINT (-79.310121 42.454627)"
"3945","GREENWOOD SUPPLY","77 Windermere Ave",,"Greenwood Lake","NY","10925","845-477-3327","Orange",,,,"POINT (-74.29353000000002 41.223322)"
"3915","TOTAL FIREARM TECHNIQUES","1004 Route 22",,"Brewster","NY","10509","8452220768","Putnam",,,,"POINT (-73.601465 41.397994)"
"2134","TOWN OF SPENCER","79 East Tioga Street",,"Spencer","NY","14883","6075894653","Tioga",,,,"POINT (-76.487276 42.20989300000001)"
"1166","LIVECCHI'S GUN SALES","10580 Rail Road Avenue",,"North Collins","NY","14111 1506","7169495286","Erie",,,,"POINT (-78.93697700000001 42.593765)"
"1708","TOWN OF YORKSHIRE","82 South Main Street",,"Delevan","NY","14042","7164921640","Cattaraugus",,,,"POINT (-78.480307 42.488646)"
"3655","DICK'S SPORTING GOODS","45 Fitzgerald Street",,"Yonkers","NY","10710","8454014560","Westchester",,,,"POINT (-73.856375 40.965967)"
"1496","BUCKINGHAM HARDWARE","9801 Main Street","P O Box 342","Croghan","NY","13620","3153763410","Lewis",,,,"POINT (-75.44218100000002 43.88602000000001)"
"3996","BASS PRO SHOP #21","1579 CLARK STREET ROAD",,"AUBURN","NY","13022","315-258-2700","CAYUGA",,,,"POINT (-76.612621 42.928032)"
"2262","TOWN OF BERKSHIRE","12421 Route 38",,"Berkshire","NY","13736","607-657-8647","Tioga",,,,"POINT (-76.187336 42.300091)"
"2353","O & H BAIT SHOP","48 Main Street",,"Chester","NY","10918","8454692566","Orange",,,,"POINT (-74.272586 41.362035)"
"1473","TOWN OF RIDGEWAY","410 West Ave.",,"Medina","NY","14103","5857980730","Orleans",,,,"POINT (-78.388884 43.221363)"
"1929","TOWN OF HOPEWELL","2716 County Road #47",,"Canandaigua","NY","14432","5853948955","Ontario",,,,"POINT (-77.183747 42.899245)"
"2740","R&L ARCHERY,INC","70 Smith St",,"Barre","VT","5641","8023719193","Washington",,,,"POINT (-72.51377 44.204575)"
"1359","TOWN OF CICERO","8236 BREWERTON ROAD",,"CICERO","NY","13039","3156998109","ONONDAGA",,,,"POINT (-76.117042 43.169609)"
"2335","TOWN OF ANDES","115 Delaware Ave.",,"Andes","NY","13731","8453257238","Delaware",,,,"POINT (-74.787121 42.190663)"
"1765","TOWN OF POUND RIDGE","179 Westchester Avenue",,"Pound Ridge","NY","10576","9147644435","Westchester",,,,"POINT (-73.569169 41.198013)"
"3330","NORTHWAY STOP N SHOP, INC.","12034 State Rte.365",,"Remsen","NY","13431","3158263008","Oneida",,,,"POINT (-75.097553 43.337789)"
"2468","TOWN OF ROCHESTER","50 Scenic Road","P O Box 65","Accord","NY","12472","8456267384","Ulster",,,,"POINT (-74.231414 41.787925)"
"1692","TOWN OF WATERTOWN","22867 County Rt. 67",,"Watertown","NY","13601","3157828847","Jefferson",,,,"POINT (-75.912919 43.941434)"
"1336","TOWN OF WHEATFIELD","2800 Church Road",,"North Tonawanda","NY","14120","7168302402","Niagara",,,,"POINT (-78.893468 43.085988)"
"2426","WAL-MART STORES, INC. 002426","317 South Cascade Drive",,"Springville","NY","14141","7165921460","Erie",,,,"POINT (-78.689625 42.501743)"
"1000","TOWN OF BERNE","1656 Helderberg Trail",,"Berne","NY","12023","5188721448","Albany",,,,"POINT (-74.13561500000002 42.624738)"
"3929","VILLAGE OF NEWARK VALLEY","9 Park Street",,"Newark Valley","NY","13811","607/642-8686","Tioga",,,,"POINT (-76.183626 42.223228)"
"2158","NU-WAY CONCRETE EQUIPMENT SALES INC.","150 Faulkner Road",,"Hancock","NY","13850","6072459343","Cortland",,,,"POINT (-75.364788 42.003176)"
"1819","TOWN OF LISLE","9234 NY Route 79",,"Lisle","NY","13797",,"Broome",,,,"POINT (-76.020805 42.355314)"
"1989","TOWN OF SCHOHARIE","300 Main Street","P O Box 544","Schoharie","NY","12157","5182312709","Schoharie",,,,"POINT (-74.311405 42.664459)"
"1142","CASSADAGA SUPERMARKET INC","8038 Route 60",,"Cassadaga","NY","14063","7167854315","Chautauqua",,,,"POINT (-79.31142 42.35116)"
"3697","WAL-MART STORES INC. 003697","3800 Dewey Avenue",,"Rochester","NY","14616","5854024569","Monroe",,,,"POINT (-77.646834 43.23981)"
"1710","CITY OF OLEAN","101 East State Street","P O Box 668","Olean","NY","14760","716-376-5604","Cattaraugus",,,,"POINT (-78.42874400000001 42.077568)"
"1505","TOWN OF PLATTEKILL","1915 Route 44-55","P O Box 45","Modena","NY","12548","8458837130","Ulster",,,,"POINT (-74.104511 41.668194)"
"3956","COLISEUM GUN TRADERS, LTD.","1180 Hempstead Tpke",,"Uniondale","NY","11553","5164813593","Nassau",,,,"POINT (-73.591908 40.718326)"
"1597","TOWN OF MINDEN","134 State Highway 80",,"Fort Plain","NY","13339","5189934172","Montgomery",,,,"POINT (-74.642612 42.928213)"
"2489","WAL-MART CORPORATION 002489","1490 Hudson Avenue",,"Rochester","NY","14612","5853053943","Monroe",,,,"POINT (-77.599985 43.193539)"
"3967","A&J ENTERPRISES OF SALEM","7 Thomas Street",,"Salem","NY","12865","518-854-7414","Washington",,,,"POINT (-73.328982 43.17423)"
"1772","TOWN OF PELHAM","34 Fifth Avenue",,"Pelham","NY","10803","9147380057","Westchester",,,,"POINT (-73.80945 40.911761)"
"3901","GOOD GUYS GUNS & AMMO","161 South Middletown Road",,"Nanuet","NY","10954","8456231427","Rockland",,,,"POINT (-74.012876 41.091421)"
"1863","TOWN OF PLYMOUTH","816 German Hollow Road",,"Smyrna","NY","13464","6073362116","Chenango",,,,"POINT (-75.57832 42.644733)"
"2136","TOWN OF NICHOLS","54 East River Road",,"Nichols","NY","13812","6079726697","Tioga",,,,"POINT (-76.341466 42.049168)"
"2581","TOWN OF TRUXTON","6290 Railroad Street",,"Truxton","NY","13158","6078426984","Cortland",,,,"POINT (-76.029958 42.710859)"
"1193","TOWN OF BENNINGTON","905 Old Alleghany Road",,"Attica","NY","14011","5859379749","Wyoming",,,,"POINT (-78.39850000000001 42.839839)"
"2020","TOWN OF ROXBURY","53690 State Highway 30","P O Box 189","Roxbury","NY","12434","6075889493","Delaware",,,,"POINT (-74.563672 42.286145000000005)"
"2090","HONEY'S BAIT SHOP","21 Broadway",,"Whitehall","NY","12887","5184992291","Washington",,,,"POINT (-73.403361 43.556079)"
"1315","TOWN OF WATERLOO","66 Virginia Street",,"Waterloo","NY","13165","3155399731","Seneca",,,,"POINT (-76.862122 42.907526)"
"1393","TOWN OF MILAN","1415 Route 199",,"Milan","NY","12571","8457589325","Dutchess",,,,"POINT (-73.764711 41.953769)"
"2908","SENECA GUN SPORTS","4705 Route 14",,"Rock Stream","NY","14878","6072433654","Yates",,,,"POINT (-76.91424 42.461106)"
"2527","TOWN OF BURLINGTON","6011 State Highway 51",,"Burlington Flats","NY","13315","6074374667","Otsego",,,,"POINT (-75.181225 42.744001)"
"1444","TOWN OF STRATFORD","120 Piseco Road","Po Box 186","Stratford","NY","13470","3154293126","Fulton",,,,"POINT (-74.691521 43.180391)"
"2104","TOWN OF LAURENS","37 Brook Street",,"Laurens","NY","13796","6074332816","Otsego",,,,"POINT (-75.089034 42.533406)"
"2967","WAL-MART STORES INC. 002967","3222 State Route 11",,"Malone","NY","12966","518-483-5968","Franklin",,,,"POINT (-74.329438 44.847267)"
"1006","TOWN OF COLONIE","534 Loudon Road",,"Newtonville","NY","12211","5187833409","Albany",,,,"POINT (-73.75589 42.721171)"
"2298","TOWN OF FLEMING","2433 Dublin Road",,"Auburn","NY","13021","3157301917","Cayuga",,,,"POINT (-76.57947 42.861508)"
"3961","ACE HARDWARE OF BRUNSWICK","831 Hoosick Road",,"Troy","NY","12144","518-874-0251","Rensselaer",,,,"POINT (-73.632276 42.750298)"
"1656","TOWN OF CUBA","15 Water Street",,"Cuba","NY","14739","5859689306","Allegany",,,,"POINT (-78.280309 42.218689000000005)"
"1199","TOWN OF MOUNT MORRIS","103 Main Street",,"Mount Morris","NY","14510","5856589437","Livingston",,,,"POINT (-77.873364 42.724494)"
"1354","TOWN OF CAMILLUS","4600 West Genesee Street",,"Syracuse","NY","13219","3154881234","Onondaga",,,,"POINT (-76.248251 43.044431)"
"3874","BLUE LAGOON RESORT","3670 Lakeshore Drive",,"Lake George","NY","12824","518-685-5827","Warren",,,,"POINT (-73.687477 43.478581)"
"1557","PINEVILLE TACKLE & ARCHERY","2836 State Route 13",,"Pulaski","NY","13142","3155325937","Oswego",,,,"POINT (-76.039458 43.528914)"
"2308","TOWN OF BEEKMAN","4 Main Street",,"Poughquag","NY","12570","8457245300","Dutchess",,,,"POINT (-73.679943 41.61083)"
"1644","TOWN OF MASSENA","60 Main Street  Room 3",,"Massena","NY","13662","3157690276","St Lawrence",,,,"POINT (-74.892832 44.931332)"
"1971","TOWN OF WELLSVILLE","156 North Main Street",,"Wellsville","NY","14895","5855936620","Allegany",,,,"POINT (-77.948815 42.122312)"
"1754","TOWN OF CHATEAUGAY","191 East Main Street","P O Box 9","Chateaugay","NY","12920","5184976453","Franklin",,,,"POINT (-74.077935 44.926611)"
"1911","TOWN OF AUSABLE","111 Ausable Street",,"Keeseville","NY","12944","5186439328","Essex",,,,"POINT (-73.482724 44.504651)"
"2012","MARINO FIREARMS  INC.","95 East Front Street",,"Hancock","NY","13783","6078218033","Cortland",,,,"POINT (-75.280164 41.954163)"
"1298","TOWN OF LAFAYETTE","2577 Route 11 North","P O Box 193","La Fayette","NY","13084","3153741695","Onondaga",,,,"POINT (-76.106978 42.897377)"
"1890","DICK'S SPORTING GOODS, INC. # 6","304 Greece Ridge Center",,"Rochester","NY","14586",,"Monroe",,,,"POINT (-77.69219100000001 43.207691)"
"2790","DICK'S SPORTING GOOD'S, INC. # 164","578 Aviation Road Space D-103",,"Queensbury","NY","12804","518-743-8790","Warren",,,,"POINT (-73.677778 43.328901)"
"2281","TOWN OF WESTPORT","22 Champlain Avenue","P O Box 465","Westport","NY","12993","5189628360","Essex",,,,"POINT (-73.435844 44.185779)"
"3921","MACHIAS OUTDOORS LLC","9703 McKinstry Road",,"Machias","NY","14304","716-228-5113","Cattaraugus",,,,"POINT (-78.494554 42.419578)"
"1011","TOWN OF WESTERLO","933 County Route 401","P O Box 148","Westerlo","NY","12193","5187975179","Albany",,,,"POINT (-74.045646 42.510033)"
"3268","WAL-MART STORES INC. 003268","1818 State Route 3",,"Fulton","NY","13069","3152976964","Oswego",,,,
"1564","TOWN OF NEW HUDSON","8561 Tibbetts Hill Road",,"Black Creek","NY","14714","5859685291","Allegany",,,,"POINT (-78.225002 42.275462)"
"1563","TOWN OF CANEADEA","8911 State Route 19","P O Box 596","Caneadea","NY","14717 0596","5856109354","Allegany",,,,"POINT (-78.153144 42.387803)"
"1092","TOWN OF CANAAN","1647 County Route 5","P O Box 58","Canaan","NY","12029","5187814234","Rensselaer",,,,"POINT (-73.448867 42.411764)"
"1786","TOWN OF CHENANGO","1529 Ny Rt 12",,"Binghamton","NY","13901","6076484809","Broome",,,,"POINT (-75.884849 42.17433)"
"1809","TOWN OF SCHUYLER","2090 State Route 5",,"Utica","NY","13502","3157332190","Oneida",,,,"POINT (-75.16287400000002 43.104485)"
"1228","TOWN OF PERRYSBURG","10460 Peckhill Road","P O Box 250","Perrysburg","NY","14129","716-982-3772","Cattaraugus",,,,"POINT (-79.002205 42.455402)"
"1739","TOWN OF OLIVE","45 Watson Hollow Road","P O Box 96","West Shokan","NY","12461","8456572320","Ulster",,,,"POINT (-74.28071200000001 41.968565)"
"3908","ADIRONDACK ARCHERY LLC","3478 State Route 3",,"Saranac","NY","12981","5182938487","Clinton",,,,"POINT (-73.741414 44.651815)"
"2196","TOWN OF GARDINER","2340 Route 44/55","P O Box 1","Gardiner","NY","12525",,"Ulster",,,,"POINT (-74.148634 41.678943)"
"2064","LI OUTDOORSMAN INC.","434 Sunrise Highway",,"Rockville Centre","NY","11570","5166785554","Nassau",,,,"POINT (-73.637028 40.657322)"
"1697","WAL-MART STORES INC. 001697","990 Routes 5 & 20",,"Geneva","NY","13165","3155215378","Ontario",,,,
"3991","TOWN OF CLARE","3441 Co. Rt. 27",,"Russell","NY","13684",,"St. Lawrence",,,,
"2222","TOWN OF LIBERTY","120 North Main Street",,"Liberty","NY","12754","8457019140","Sullivan",,,,"POINT (-74.746898 41.801338)"
"4022","SUGARBUSH Armory, LLC","1427 Maxon Road",,"Attica","NY","14011",,"Wyoming",,,,"POINT (-78.336238 42.815389)"
"2042","TOWN OF ARGYLE","41 Main Street","P O Box 38","Argyle","NY","12809","5186388860","Washington",,,,"POINT (-73.490443 43.234474)"
"2113","THE CAMP-SITE SPORT SHOP","1877 New York Ave",,"Huntington Station","NY","11743","6318271719","Suffolk",,,,"POINT (-73.411844 40.836945)"
"2361","TOWN OF MONROE","11 Stage Road",,"Monroe","NY","10950","8455901348","Orange",,,,"POINT (-74.187121 41.32807100000001)"
"2431","TRIPLE H STORES INC.","163 East 14th Street",,"Elmira Heights","NY","14903","55555555555","Chemung",,,,"POINT (-76.823725 42.128973)"
"2846","WAL-MART STORES INC. 002846","13858 Route 31 West",,"Albion","NY","14094","7165310250","Orleans",,,,
"1481","TOWN OF CLERMONT","1795 Route 9",,"Germantown","NY","12526","5185376487","Columbia",,,,"POINT (-73.825109 42.08685)"
"1792","TOWN OF READING","3914 Co. Rte 28","P O Box 5","Reading Center","NY","14876 0005","6078575938","Schuyler",,,,"POINT (-76.925206 42.423119)"
"1243","TOWN OF GROVELAND","4955 Aten Road",,"Groveland","NY","14462","585-243-1750","Livingston",,,,"POINT (-77.74863600000002 42.701616)"
"3979","EARTH SPIRITS ARCHERY","4821 Stevens Road",,"Warsaw","NY","14569","5853560802","Wyoming",,,,"POINT (-78.161559 42.77202)"
"2396","TOWN OF AVOCA","3 Chase Street","P O Box 29","Avoca","NY","14809","6073772241","Steuben",,,,"POINT (-77.420716 42.409578)"
"2003","TOWN OF ORANGE","899 Hornby Road",,"Beaver Dams","NY","14812","607-962-2978","Schuyler",,,,"POINT (-76.992656 42.286157)"
"2240","TOWN OF LEDYARD","1099 Poplar Ridge Road",,"Aurora","NY","13026","3153645707","Cayuga",,,,"POINT (-76.667227 42.735671)"
"1267","TOWN OF FREEDOM","1188 Eagle Street","P O Box 89","Sandusky","NY","14133","716-492-0961","Cattaraugus",,,,
"3476","TACONIC VALLEY LAWN & GARDEN, INC.","2714 Route 23",,"Hillsdale","NY","12529","5189292205","columbia",,,,"POINT (-73.52036200000002 42.180191)"
"1590","TOWN OF ALLEGANY","52 West Main Street",,"Allegany","NY","14706","7163730120","Cattaraugus",,,,"POINT (-78.495792 42.091021)"
"3951","CHAUMONT BAY MARINA","11599 Circle Drive",,"Chaumont","NY","13622","315-649-5050","Jefferson",,,,"POINT (-76.141038 44.071437)"
"2340","B & J BAIT SHOP","221 Water Street","P O Box 203","Dexter","NY","13634","3156393829","Jefferson",,,,"POINT (-76.045907 44.00615)"
"1280","TOWN OF SOUTH BRISTOL","6500 Gannett Hill Road West",,"Naples","NY","14512","5853748085","Ontario",,,,"POINT (-77.381984 42.708878)"
"2573","TOWN OF ANCRAM","1416 County Route 7","P O Box 158","Ancram","NY","12502","5183296512","Columbia",,,,"POINT (-73.632124 42.055721)"
"4005","The Online Exchange","6338 St. Rt. 167",,"Dolgeville","NY","13329","315-429-5111","Herkimer",,,,"POINT (-74.787042 43.092459)"
"3854","BUSY BEE TRANSPORTATION","100 Sullivan Street","PO Box 8","Wurtsboro","NY","12775","7186140011","Sullivan",,,,"POINT (-74.483155 41.575065)"
"1073","TOWN OF POESTENKILL","38 Davis Drive","P O Box 210","Poestenkill","NY","12140","5186742550","Rensselaer",,,,"POINT (-73.563755 42.690251)"
"2168","CAMO-HUT","4287 Swamp College Road",,"Trumansburg","NY","14886","6073876463","Tompkins",,,,"POINT (-76.645307 42.509236)"
"2058","TOWN OF HANCOCK","661 West Main St.",,"Hancock","NY","13783","6073637977","Delaware",,,,"POINT (-75.294679 41.956588)"
"2256","TOWN OF DANBY","1830 Danby Road",,"Ithaca","NY","14850","6072738678","Tompkins",,,,"POINT (-76.481562 42.354153)"
"1609","TOWN OF FLORENCE","11173 Taberg-Florence Rd",,"Camden","NY","13316","3158571271","Oneida",,,,"POINT (-75.699653 43.385287)"
"1026","TOWN OF EVANS","8787 Erie Road",,"Angola","NY","14006","7165492084","Erie",,,,"POINT (-79.04282 42.646879)"
"2482","TOWN OF PERTH","1849 County Highway 107",,"Amsterdam","NY","12086","5188422164","Fulton",,,,"POINT (-74.192235 43.017977)"
"2327","TOWN OF JAVA","4222 Route 98","P.O. Box 4","North Java","NY","14082","5854573140","Wyoming",,,,"POINT (-78.33776000000002 42.684101)"
"2808","RACERS LIVE BAIT N TACKLE SHOP","8403 Route 62",,"South Dayton","NY","14138","7169883301","Cattaraugus",,,,"POINT (-79.002462 42.364748)"
"1415","TOWN OF ELLISBURG","11574 S Main Street",,"Ellisburg","NY","13636","3153873476","Jefferson",,,,"POINT (-76.14142 43.729112)"
"1432","THE BOAT DOCTORS","5790 West Washington Street","P.O. Box 297","Olcott","NY","14126","7167788592","Niagara",,,,"POINT (-78.718906 43.335464)"
"1459","TOWN OF PHILADELPHIA","33019 Us Route 11",,"Philadelphia","NY","13673","3156420005","Jefferson",,,,"POINT (-75.713212 44.145236)"
"1835","TOWN OF FRENCH CREEK","169 Route 426",,"Clymer","NY","14724","7163556374","Chautauqua",,,,"POINT (-79.687415 42.005097)"
"1640","TOWN OF STARK","207 Fiery Hill Road",,"Fort Plain","NY","13339","3159933606","Herkimer",,,,"POINT (-74.806192 42.940543)"
"1066","TOWN OF EAST GREENBUSH","225 Columbia Turnpike",,"East Greenbush","NY","12061","5184775919","Rensselaer",,,,
"3985","THE PIT STOP / MARSHALL BROS","8463 Bay Street",,"Sodus Point","NY","13166","3154838865","Wayne",,,,"POINT (-76.981974 43.270571)"
"1027","TOWN OF HAMBURG","S6100 South Park Ave",,"Hamburg","NY","14075","7166275955","Erie",,,,
"4016","RUNNINGS #47","720 Fairmont Ave",,"Jamestown","NY","14701","716-296-0512","Chautauqua",,,,"POINT (-79.280114 42.097225)"
"1965","WAL-MART STORES INC. 001965","16 Old Gick Road",,"Saratoga Springs","NY","12804","5185818035","Saratoga",,,,"POINT (-73.762255 43.095207)"
"1369","TOWN OF ESOPUS","284 Broadway",,"Ulster Park","NY","12466","8457069121","Ulster",,,,"POINT (-73.974241 41.899064)"
"1568","TOWN OF ELLINGTON","813 West Main Street","P O Box 344","Ellington","NY","14732 0344","7162873689","Chautauqua",,,,"POINT (-79.113309 42.216603)"
"1087","TOWN OF HANNIBAL","824 Cayuga Street","Drawer B","Hannibal","NY","13074","3155645324","Oswego",,,,"POINT (-76.579152 43.311188)"
"2836","BLUE LINE SPORTS","81 Main St",,"Saranac Lake","NY","12983","5188919751","Franklin",,,,"POINT (-74.131409 44.32671)"
"2076","TOWN OF CAYUTA","6360 State Route 224","P O Box 85","Cayuta","NY","14824","607/624-9329","Schuyler",,,,"POINT (-76.693105 42.278636)"
"1016","TOWN OF AURORA","5 South Grove St",,"East Aurora","NY","14052","7166527039","Erie",,,,"POINT (-78.6178 42.767927)"
"1848","WAL-MART STORES INC. 001848","3133 East Main Street",,"Mohegan Lake","NY","10547",,"Westchester",,,,"POINT (-73.868625 41.312681)"
"1279","TOWN OF ALBION","3665 Clarendon Road",,"Albion","NY","14411","5855897088","Orleans",,,,"POINT (-78.178924 43.23864)"
"2069","CITY OF YONKERS","40 South Broadway Rm# 104 City Clerk",,"Yonkers","NY","10701","9143776015","Westchester",,,,"POINT (-73.898934 40.93243300000001)"
"2177","THE CROSSROADS","40 Dixon Road",,"Chestertown","NY","12817","5187938226","Warren",,,,"POINT (-73.77624000000002 43.671053)"
"1543","TOWN OF FRANKLINVILLE","11 Park Square","P O Box 146","Franklinville","NY","14737","7166763792","Cattaraugus",,,,"POINT (-78.45765 42.337696)"
"1743","TOWN OF PITTSFORD","11 South Main Street",,"Pittsford","NY","14534","5855062230","Monroe",,,,"POINT (-77.515517 43.090479)"
"1186","TOWN OF SAND LAKE","8428 New York 66","P O Box 273","Sand Lake","NY","12153 0273","5186745721","Rensselaer",,,,
"1873","TOWN OF ALLEN","4949 Klein Rd",,"Fillmore","NY","14735","5855678940","Allegany",,,,"POINT (-78.014687 42.411315)"
"1919","TOWN OF UNION VALE","249 Duncan Road",,"Lagrangeville","NY","12570","845-724-5600","Dutchess",,,,"POINT (-73.703115 41.642009)"
"2252","TOWN OF MONTGOMERY","110 Bracken Rd.",,"Montgomery","NY","12549","8454575562","Orange",,,,"POINT (-74.19906 41.521468)"
"2370","WAL-MART STORES INC. 002370","288 Larkin Drive",,"Monroe","NY","10950","9142607035","Orange",,,,"POINT (-74.149987 41.320547)"
"2046","BEACH ROAD BAIT & TACKLE LLC","2239 State Route 9",,"Lake George","NY","12845","5186684960","Warren",,,,"POINT (-73.712789 43.415974)"
"2123","ORVIS SANDANONA","3047 Sharon Turpilke Route 44","P O Box 450","Millbrook","NY","12545","6053210636","Dutchess",,,,"POINT (-73.713248 41.794239)"
"2206","TOWN OF STOCKPORT","2787 Atlantic Avenue",,"Hudson","NY","12050","5185286477","Columbia",,,,"POINT (-73.747899 42.286733)"
"1205","FLYTYER, INC.","596 Main Street Route 104a",,"Fair Haven","NY","13064","3159475954","Cayuga",,,,"POINT (-76.61228300000002 43.380698)"
"2418","TOWN OF HOPE","548 Nys Rte. 30",,"Northville","NY","12134","518/863-6363","Hamilton",,,,"POINT (-74.245429 43.306018)"
"1511","TOWN OF RHINEBECK","80 East Market Street",,"Rhinebeck","NY","12572","8458763203","Dutchess",,,,"POINT (-73.908981 41.927065)"
"3946","DICK'S SPORTING GOODS #1317","200 Sunrise Mall",,"Massapequa","NY","11758","516-710-7088","Nassau",,,,"POINT (-73.436617 40.680001)"
"1292","TOWN OF ONONDAGA","4801 West Seneca Tnpke.",,"Syracuse","NY","13215","3156731521","Onondaga",,,,"POINT (-76.184459 43.004718)"
"2842","WAL-MART STORES INC. 002842","25737 Us Route #11",,"Evans Mills","NY","13637","3157502725","Jefferson",,,,"POINT (-75.841909 44.037917)"
"3861","AJS ARCHERY LLC","3938 Nelson Heights Road",,"Cazenovia","NY","13035","315-655-2232","Madison",,,,"POINT (-75.810057 42.912085)"
"2441","PHOENICIA SUPPLY","52 Main Street","P O Box 261","Phoenicia","NY","12464","8456887738","Ulster",,,,"POINT (-74.314575 42.083208)"
"1796","TOWN OF WAYNE","9772 Silsbee Road","P.O. Box  182","Wayne","NY","14893","6072923450","Steuben",,,,"POINT (-77.113335 42.468636)"
"1676","TOWN OF NEW ALBION","14 Main Street",,"Cattaraugus","NY","14719","7162575512","Cattaraugus",,,,"POINT (-78.86877 42.32989)"
"1247","TOWN OF GRANBY","820 County Route 8",,"Fulton","NY","13069","3155938471","Oswego",,,,"POINT (-76.463914 43.284943000000005)"
"2226","WAL-MART STORES, INC. 002226","1990 Brandt Point Drive",,"Webster","NY","14568",,"Monroe",,,,
"2346","TOWN OF WARWICK","132 Kings Highway",,"Warwick","NY","10990","845-986-1124","Orange",,,,"POINT (-74.314577 41.28091)"
"1824","TOWN OF SMITHFIELD","5257 Pleasant Valley Road","P O Box 146","Peterboro","NY","13035","3156847982","Madison",,,,"POINT (-75.687549 42.965716)"
"1948","TOWN OF UNADILLA","1648 State Highway 7",,"Unadilla","NY","13849","6073694922","Otsego",,,,"POINT (-75.288364 42.343095)"
"2271","TOWN OF BLOOMING GROVE","6 Horton Road","P O Box 358","Blooming Grove","NY","10992","845/496-3895","Orange",,,,"POINT (-74.191119 41.407351)"
"3393","COUNTY OF ONEIDA","800 Park Ave",,"Utica","NY","13501","3154045833","Oneida",,,,"POINT (-75.229902 43.098756)"
"1022","TOWN OF COLLINS","14093 Mill Street",,"Collins","NY","14035","7165323603","Erie",,,,"POINT (-78.92012600000001 42.49505200000001)"
"3884","DON JERRY X-PLO INC","1080 Military Turnpike",,"Plattsburgh","NY","12901","5185617810","Clinton",,,,"POINT (-73.507921 44.66572500000001)"
"4009","SP Firearms Unlimited","804 Hempstead Turnpike",,"FRANKLIN SQUARE","NY","11001","516-345-6000","NASSAU",,,,"POINT (-73.669411 40.706896)"
"1618","TOWN OF FARMINGTON","1000 County Road #8",,"Farmington","NY","14425","5853550256","Ontario",,,,"POINT (-77.326193 42.990154)"
"2294","TOWN OF SENNETT","6931 Cherry Street Rd  Rd 4",,"Auburn","NY","13021","3152532453","Cayuga",,,,
"1078","TOWN OF HAMLIN","1658 Lake Road","P O Box 148","Hamlin","NY","14464","5859643948","Monroe",,,,"POINT (-77.920833 43.297032)"
"2477","TOWN OF TUXEDO","One Temple Drive",,"Tuxedo","NY","10987","8453514411","Orange",,,,
"1153","TOWN OF NUNDA","4 Massachusetts Street","Po Box 699","Nunda","NY","14517","5854683454","Livingston",,,,"POINT (-77.941323 42.582436)"
"1901","TOWN OF ELMIRA","1255 West Water St",,"Elmira","NY","14905","6077370653","Chemung",,,,"POINT (-76.845034 42.077935)"
"2685","INDIAN LAKE CHAMBER OF COMMERCE","6301 NYS Rte 30",,"Indian Lake","NY","12842","5186480294","Hamilton",,,,
"1405","TOWN OF VIENNA","2083 State Route 49","P O Box 250","North Bay","NY","13308","3158130064","Oneida",,,,"POINT (-75.748915 43.229686)"
"2149","TOWN OF LAKE GEORGE","20 Old Post Road",,"Lake George","NY","12845 0392","5186685722","Warren",,,,"POINT (-73.716514 43.431467)"
"2321","TOWN OF IRONDEQUOIT","1280 Titus Avenue",,"Rochester","NY","14617","585-467-8840","Monroe",,,,"POINT (-77.580942 43.211183)"
"1608","TOWN OF LOUISVILLE","14810 State Highway 37",,"Massena","NY","13662","3157693657","St Lawrence",,,,"POINT (-74.966885 44.922175)"
"3777","TOWN OF PLATTSBURGH","151 Banker Road",,"Plattsburgh","NY","12901","5185610485","Clinton",,,,"POINT (-73.540357 44.705513)"
"1465","TOWN OF CAMBRIA","4160 Upper Mountain Rd",,"Sanborn","NY","14132","716-433-7664","Niagara",,,,"POINT (-78.818493 43.164032)"
"1241","TOWN OF CANISTEO","6 South Main Street",,"Canisteo","NY","14823","6076984843","Steuben",,,,"POINT (-77.605304 42.26979)"
"1328","WAL-MART STORES, INC. #1806","329 South Kingsburo Ave",,"Gloversville","NY","12850","518-725-2403","Fulton",,,,"POINT (-74.344957 43.031517)"
"1416","TOWN OF CAPE VINCENT","1964 Nys Route 12e","P O Box 915","Cape Vincent","NY","13618","3156542158","Jefferson",,,,
"1510","TOWN OF SAUGERTIES","4 High Street",,"Saugerties","NY","12477","8458535280","Ulster",,,,"POINT (-73.958464 42.08163)"
"1654","TOWN OF HUMPHREY","4875 Humphrey Road",,"Great Valley","NY","14741","7169454008","Cattaraugus",,,,"POINT (-78.570823 42.200786)"
"1093","CITY OF GLOVERSVILLE","3 Frontage Road",,"Gloversville","NY","12078","5187734545","Fulton",,,,"POINT (-74.348869 43.052119000000005)"
"1455","TOWN OF RUSSELL","4 Pestile Street",,"Russell","NY","13684","3153472232","St Lawrence",,,,"POINT (-75.150053 44.429191)"
"1119","TOWN OF LYONS","43 Phelps Street",,"Lyons","NY","14489","3159466266","Wayne",,,,"POINT (-76.989341 43.068763)"
"3553","WAL-MART STORES INC. 003553","2 Gannett Drive",,"Johnson City","NY","13760","6076448002","Broome",,,,"POINT (-75.948673 42.116618)"
"1373","BILL'S HOOKS","5139 West Lake Road",,"Dunkirk","NY","14048","7163668993","Chautauqua",,,,"POINT (-79.394676 42.457879)"
"3990","LOCK-N-LOAD","161 ERIE ST.",,"OWEGO","NY","13827",,"TIOGA",,,,"POINT (-76.258638 42.108926)"
"1031","TOWN OF NEWSTEAD","57 John Street",,"Akron","NY","14001","7165429695","Erie",,,,"POINT (-78.498182 43.0212)"
"1314","TOWN OF VICTOR","85 East Main Street",,"Victor","NY","14564","5857425080","Ontario",,,,"POINT (-77.408011 42.982146)"
"1704","TOWN OF AVA","11468 State Route 26","P O Box 68","Ava","NY","13303","3159424638","Oneida",,,,"POINT (-75.480416 43.41684)"
"2386","TOWN OF MEREDITH","4247 Turnpike Road","P O Box 116","Meridale","NY","13753","6077462431","Delaware",,,,"POINT (-74.93256600000001 42.358761)"
"1728","TOWN OF SMITHVILLE","5285 State Highway 41",,"Smithville Flats","NY","13841","607-656-8020","Chenango",,,,"POINT (-75.80840800000001 42.398379)"
"1257","TOWN OF GLEN","7 Erie Street",,"Fultonville","NY","12072","5189225186","Montgomery",,,,"POINT (-74.368119 42.946013)"
"2130","TOWN OF ERIN","1138 Breesport Road",,"Erin","NY","14838","6077398681","Chemung",,,,"POINT (-76.692584 42.179017)"
"2187","WAL-MART STORES INC. 002187","2055 Niagara Falls Blvd",,"Amherst","NY","14226","716-846-5683","Erie",,,,"POINT (-78.822308 43.009994)"
"1273","TOWN OF RIPLEY","14 N. State St.",,"Ripley","NY","14775","7167369341","Chautauqua",,,,"POINT (-79.711426 42.268298)"
"1877","BUCK'S DISCOUNT CENTER","6114 Route 22",,"Plattsburgh","NY","12901","518-569-1363","Clinton",,,,"POINT (-73.468688 44.725163)"
"2787","TOWN OF NAPOLI","4672 Allegany Rd",,"Little Valley","NY","14755","7168010781","Cattaraugus",,,,"POINT (-78.891978 42.203111)"
"3696","WAL-MART SUPERCENTER 003696","866 Niagara Falls Blvd",,"North Tonawanda","NY","14221","7162434138","Niagara",,,,"POINT (-78.839789 43.06000000000001)"
"1460","TOWN OF ANTWERP","45 Main Street","P O Box 658","Antwerp","NY","13608","3153175527","Jefferson",,,,"POINT (-75.608213 44.199868)"
"1548","TOWN OF LEE","5808 Stokes-Lee Center Road","P O Box 191","Lee Center","NY","13363","3153379038","Oneida",,,,"POINT (-75.504109 43.301996)"
"1924","TOWN OF CASTILE","53 North Main Street","P.O. Box 179","Castile","NY","14427 0179","5857035514","Wyoming",,,,"POINT (-78.048363 42.633753)"
"1307","TOWN OF WATERFORD","65 Broad Street",,"Waterford","NY","12188","5182331774","Saratoga",,,,"POINT (-73.678734 42.790305)"
"1959","GIFFORD'S SPORTS SUPPLY, INC.","133 Stockton Avenue",,"Walton","NY","13856","6077462593","Delaware",,,,"POINT (-75.130054 42.166034)"
"1365","DICK'S SPORTING GOODS, INC. #667","1 Crossgates Road",,"Albany","NY","12203","518-584-0876","Albany",,,,
"1717","TOWN OF WIRT","210 Main Street","P O Box 243","Richburg","NY","14774","5859282130","Allegany",,,,"POINT (-78.953889 42.170256)"
"3865","HUDSON RIVER BAIT & TACKLE CO","85 South Street",,"Rensselaer","NY","12144","5184622248","Renselaer",,,,"POINT (-73.743262 42.631919)"
"2246","CITY OF NEWBURGH","83 Broadway",,"Newburgh","NY","12550-5969","8455644554","Orange",,,,"POINT (-74.010182 41.49995)"
"1173","DICK'S SPORTING GOODS INC #28","20 Cobblestone Court Drive",,"Victor","NY","14424","5853948291","Ontario",,,,"POINT (-77.43851600000002 43.029307)"
"1340","TOWN OF RIGA","6460 Buffalo Rd",,"Churchville","NY","14428","5852933880","Monroe",,,,"POINT (-77.866047 43.109921)"
"1200","TOWN OF ARCADIA","201 Frey Street",,"Newark","NY","14513","3159450422","Wayne",,,,"POINT (-77.098508 43.058988)"
"1760","TOWN OF BLACK BROOK","18 North Main Street","P O Box 715","Ausable Forks","NY","12912",,"Clinton",,,,"POINT (-73.674909 44.442556)"
"3889","RUNNINGS 35","3191 County Route 10",,"Canandaigua","NY","14424","5853961977","Ontario",,,,
"2421","WAL-MART STORES INC. 002421","1890 Old Country Road",,"Riverhead","NY","11901","631-369-1041","Suffolk",,,,"POINT (-72.713601 40.922651)"
"2695","BLACK ASH HOLDINGS INC","6098 State Hwy 80",,"Cooperstown","NY","13825","6079886305","Otsego",,,,"POINT (-74.918674 42.73160200000001)"
"1498","CITY OF OGDENSBURG","330 Ford Street  Rm. 4",,"Ogdensburg","NY","13669","3153930277","St Lawrence",,,,"POINT (-75.491751 44.698011)"
"1853","TOWN OF BARTON","304 Route 17c",,"Waverly","NY","14892",,"Tioga",,,,"POINT (-76.506571 42.009833)"
"2212","TOWN OF GREENWICH","2 Academy Street",,"Greenwich","NY","12823","5186927611","Washington",,,,"POINT (-73.502373 43.091791)"
"1138","CITY OF MECHANICVILLE","36 N Main St City Hall",,"Mechanicville","NY","12118","5186642865","Saratoga",,,,"POINT (-73.685568 42.903928)"
"1506","WAL-MART STORES INC. 001506","5033 Transit Road",,"Williamsville","NY","14221","607-227-2170","Erie",,,,"POINT (-78.693806 42.98321)"
"2474","WAL-MART STORES INC. 002474","1200 Marketplace Drive",,"Henrietta","NY","14624","5854267481","Monroe",,,,"POINT (-77.62466 43.08006)"
"3934","DICK'S SPORTING GOODS #1221","7 Green Acres Commons",,"Valley Stream","NY","11729",,"Nassau",,,,"POINT (-73.724952 40.665139)"
"2824","HOSS'S COUNTRY CORNER INC","1142 Main St",,"Long Lake","NY","12847","5182696003","Hamilton",,,,"POINT (-74.418892 43.968766)"
"2230","TOWN OF PUTNAM","14 Putnam Center Road",,"Putnam Station  N.Y.","NY","12861","518-586-4588","Washington",,,,"POINT (-73.397158 43.74690600000001)"
"2349","TOWN OF PAWLING","160 Charles Colman Blvd.",,"Pawling","NY","12564","8458553819","Dutchess",,,,"POINT (-73.599521 41.569045)"
"1709","TOWN OF RODMAN","12509 School Street","P O Box 523","Rodman","NY","13682","3152324727","Jefferson",,,,"POINT (-75.94088 43.84942)"
"1897","TOWN OF CAMPBELL","8529 Main Street",,"Campbell","NY","14821","6075278244","Steuben",,,,"POINT (-77.194053 42.23133700000001)"
"2498","TOWN OF LITTLE FALLS","124 O'Hara Road",,"Little Falls","NY","13365","3158232879","Herkimer",,,,"POINT (-74.881089 43.057424)"
"2141","TOWN OF ASHLAND","3663 Sixth Street",,"Wellsburg","NY","14894","6078575968","Chemung",,,,"POINT (-76.728109 42.010262)"
"1236","TOWN OF PENFIELD","3100 Atlantic Ave",,"Penfield","NY","14580","585408628","Monroe",,,,"POINT (-77.447959 43.160269)"
"3916","BUCK-N-BEARS GUN SHOP","2200 State Route 104",,"Parish","NY","13131","3159638270","Oswego",,,,"POINT (-76.129603 43.457315)"
"1580","TOWN OF LISBON","6963 County Route 10",,"Lisbon","NY","13658","3153230503","St Lawrence",,,,"POINT (-75.320213 44.72902100000001)"
"2028","WAL-MART STORES INC. 002028","1000 State Route 36",,"Hornell","NY","14843","6073247019","Steuben",,,,"POINT (-77.691232 42.381135)"
"1398","TOWN OF AUGUSTA","185 North Main Street",,"Oriskany Falls","NY","13425","3158212354","Oneida",,,,"POINT (-75.460521 42.939849)"
"3971","CROSSBAY MASTER BAIT & TACKLE","164-30 Crossbay Blvd",,"Howard Beach","NY","11414","7188351018","Queens",,,,"POINT (-73.837754 40.650274)"
"1099","TOWN OF GAINESVILLE","2 Toolhouse Road","Town Highway Building","Gainesville","NY","14550","5854935888","Wyoming",,,,"POINT (-78.13557 42.640841)"
"1938","TOWN OF BABYLON","200 E. Sunrise Highway",,"Lindenhurst","NY","11798","6319207607","Suffolk",,,,"POINT (-73.374094 40.704395)"
"2306","THRUWAY SPORTING GOODS, INC.","78 Oak Street",,"Walden","NY","12549","8454579427","Orange",,,,"POINT (-74.19180400000002 41.563616)"
"2035","TOWN OF HADLEY","4 Stony Creek Road","P O Box 323","Hadley","NY","12835 0323","5186962055","Saratoga",,,,"POINT (-73.849006 43.317745)"
"2096","TOWN OF STONY CREEK","52 Hadley Road",,"Stony Creek","NY","12878","5187917675","Warren",,,,"POINT (-73.929626 43.422412)"
"1319","TOWN OF WEST MONROE","46 County Route 11",,"West Monroe","NY","13167","3156686218","Oswego",,,,"POINT (-76.065343 43.28368400000001)"
"1424","TOWN OF BALLSTON","323 Charlton Road",,"Ballston Spa","NY","12027","5183991427","Saratoga",,,,"POINT (-73.90567 42.951363)"
"2454","TOWN OF NEWCOMB","5639 State Rt 28N",,"Newcomb","NY","12852","5185822069","Essex",,,,"POINT (-74.159497 43.969343)"
"2288","TOWN OF SEMPRONIUS","2452 Hathaway Road",,"Moravia","NY","13118","3154962060","Cayuga",,,,"POINT (-76.330074 42.7372)"
"2947","STUEBEN SPORTING GOODS","44 W. Lamoka Ave",,"Savona","NY","14819","6077767874","Steuben",,,,"POINT (-77.227411 42.288782)"
"1661","TOWN OF COLDSPRING","3806 Route 394",,"Randolph","NY","14772","7163586354","Cattaraugus",,,,"POINT (-78.932821 42.166044)"
"3842","B&D GUNSMOKE, LLC","141 West Campbell Rd.",,"Schenectady","NY","12306","518-376-5125","Schenectady",,,,"POINT (-73.982227 42.81345)"
"1218","TOWN OF CHATHAM","488 State Route 295",,"Chatham","NY","12037",,"Columbia",,,,"POINT (-73.565372 42.385284)"
"2155","TOWN OF FRANKLIN","554 Main Street",,"Franklin","NY","13775","607-829-3440","Delaware",,,,"POINT (-75.164228 42.341682)"
"1579","TOWN OF MARCY","8801 Paul Becker Road",,"Marcy","NY","13403","3157686011","Oneida",,,,"POINT (-75.285249 43.156701000000005)"
"1144","TOWN OF ATTICA","9 Water Street",,"Attica","NY","14011","5855910984","Wyoming",,,,"POINT (-78.283013 42.864849)"
"1219","TOWN OF COPAKE","230 Mt. View Road",,"Copake","NY","12516","5183291302","Columbia",,,,"POINT (-73.55706100000002 42.11193)"
"1983","TOWN OF CONESVILLE","1306 State Route 990v",,"Gilboa","NY","12076","6075887211","Schoharie",,,,"POINT (-74.376741 42.386625)"
"2560","TOWN OF CHARLESTON","480 Corbin Hill Road",,"Sprakers","NY","12166","5189225190","Montgomery",,,,"POINT (-74.380994 42.816702)"
"1602","TOWN OF HAMMOND","17 N. Main Street","P O Box 219","Hammond","NY","13646","315-324-5321","St Lawrence",,,,"POINT (-75.694061 44.449375)"
"2519","TOWN OF BROOKHAVEN","One Independence Hill",,"Farmingville","NY","11738","6314519124","Suffolk",,,,
"1195","TOWN OF EAST OTTO","9407 Bowen Road",,"East Otto","NY","14729","716-801-5382","Cattaraugus",,,,"POINT (-78.732365 42.409758)"
"1345","TOWN OF MARION","3823 North Main Street","P.O. Box 260","Marion","NY","14519","3159264271","Wayne",,,,"POINT (-77.189022 43.143225)"
"1629","CITY OF LITTLE FALLS","659 E. Main Street",,"Little Falls","NY","13365","3157177550","Herkimer",,,,"POINT (-74.855596 43.044752)"
"3957","OUTLANDER SURVIVAL SUPPLY","6721 Duanesburg Road",,"Duanesburg","NY","12056","5184146763","Schenectady",,,,"POINT (-74.130964 42.762141)"
"1001","TOWN OF BETHLEHEM","445 Delaware Avenue",,"Delmar","NY","12054","5184390236","Albany",,,,"POINT (-73.839267 42.619876)"
"3634","DICK'S SPORTING GOODS #626","2505 Richmond Avenue",,"Staten Island","NY","10314","718-982-7260","Richmond",,,,"POINT (-74.168329 40.586531)"
"4002","Riverbay Adventure Inn","97 New Road",,"Chippewa Bay","NY","13623","3157598174","St. Lawrence",,,,"POINT (-75.753652 44.447878)"
"1378","TOWN OF STERLING","1290 State Rt. 104a",,"Sterling","NY","13156","3159476215","Cayuga",,,,"POINT (-76.647179 43.323133)"
"2266","TOWN OF QUEENSBURY","742 Bay Road",,"Queensbury","NY","12804","5187938490","Warren",,,,"POINT (-73.657901 43.35967200000001)"
"1748","MAYHOOD'S SPORTING GOODS INC.","102 Gilmore Lane",,"Norwich","NY","13830","6078436906","Chenango",,,,"POINT (-75.529751 42.496)"
"1778","TOWN OF HARMONY","1001 Blockville-Watts Flat Rd.",,"Ashville","NY","14710","7167824503","Chautauqua",,,,"POINT (-79.411946 42.043808)"
"1449","TOWN OF PARIS","2580 Sulphur Springs Road",,"Sauquoit","NY","13456-0451","3154046361","Oneida",,,,"POINT (-75.259181 42.987277)"
"1114","TOWN OF RICHMOND","8690 Main Street","P O Box 145","Honeoye","NY","14471","5852337852","Ontario",,,,"POINT (-77.514348 42.789725)"
"1302","TOWN OF NISKAYUNA","One Niskayuna Circle",,"Niskayuna","NY","12309","5184415545","Schenectady",,,,
"1442","DOLHOF HARDWARE INC.","4057 Center Street","P O Box 308","Lyons Falls","NY","13309",,"Lewis",,,,"POINT (-75.361704 43.618806)"
"2987","WAL-MART SUPERCENTER 002987","30 Catskill Cmns",,"Catskill","NY","12414-1755","5189439770","Greene",,,,"POINT (-73.881438 42.213184)"
"1423","TOWN OF THERESA","103 Main Street","P O Box 692","Theresa","NY","13691","3156285678","Jefferson",,,,"POINT (-75.796501 44.214906)"
"3962","LAKESIDE GUNS & AMMO","35 Gadway Road",,"Merrill","NY","12955","5186515225","Clinton",,,,"POINT (-73.985007 44.776625)"
"1335","VILLAGE OF LEWISTON","145 North Fourth Street",,"Lewiston","NY","14092","7167549152","Niagara",,,,"POINT (-79.044404 43.174135)"
"1660","TOWN OF LYNDON","852 Lyndon Center Road",,"Cuba","NY","14727","7166769311","Cattaraugus",,,,"POINT (-78.352727 42.305042)"
"1007","TOWN OF GUILDERLAND","5209 Western Turnpike","P.O. Box 339","Guilderland","NY","12084","5183561980","Albany",,,,"POINT (-73.936846 42.716944)"
"2376","TOWN OF SHERMAN","111a Mill Street",,"Sherman","NY","14781 0568","7167616911","Chautauqua",,,,"POINT (-79.596987 42.156932)"
"1355","CITY OF SCHENECTADY","105 Jay Street Room 107",,"Schenectady","NY","12305","5182250957","Schenectady",,,,"POINT (-73.939068 42.81569700000001)"
"1098","TOWN OF MINA","2883 North Road","P O Box 38","Findley Lake","NY","14736 0038","7167697204","Chautauqua",,,,"POINT (-79.731355 42.123732)"
"1559","TOWN OF ORLEANS","20558 Sunrise Avenue","P O Box 103","Lafargeville","NY","13656","3156584713","Jefferson",,,,"POINT (-75.96211 44.193415)"
"1196","TOWN OF BUSTI","125 Chautauqua Avenue",,"Lakewood","NY","14701","7167636221","Chautauqua",,,,"POINT (-79.32620700000001 42.102038)"
"1756","TOWN OF BRASHER","11 Factory Street",,"Brasher Falls","NY","13613","3153894223","St Lawrence",,,,"POINT (-74.77330200000002 44.808793)"
"2427","WAL-MART STORES INC. 002427","9951 Chatfield Place",,"Painted Post","NY","14870","6075246500","Steuben",,,,
"1643","TOWN OF CLAYTON","405 Riverside Drive",,"Clayton","NY","13624","3156863512","Jefferson",,,,"POINT (-76.08697600000002 44.242789)"
"2013","RAY'S SPORT SHOP","46046 State Highway 28",,"Fleischmanns","NY","12430","8452545136","Delaware",,,,"POINT (-74.569549 42.158634)"
"1386","DICK'S SPORTING GOODS #11  -now #1237","640 Alberta Drive","Boulevard Mall","Amherst","NY","14218","7168034068","Erie",,,,"POINT (-78.817269 42.986767)"
"1782","TOWN OF GEORGETOWN","1398 Texas Hill Rd",,"Georgetown","NY","13072","3158374350","Madison",,,,
"1984","TOWN OF BOVINA","1866 County Hwy 6",,"Bovina Center","NY","13753","6078324415","Delaware",,,,"POINT (-74.785053 42.262062)"
"1802","TOWN OF CHAZY","9631 Route 9","PO  Box 219","Chazy","NY","12921","518467544","Clinton",,,,"POINT (-73.436554 44.887308)"
"2191","TOWN OF STARKEY","40 Seneca Street",,"Dundee","NY","14837","607-243-5410","Yates",,,,"POINT (-76.97261 42.523546)"
"2388","TOWN OF LEROY","48 Main Street",,"Leroy","NY","14482","5857687902","Genesee",,,,"POINT (-77.991048 42.977662)"
"1139","CITY OF HUDSON","520 Warren Street",,"Hudson","NY","12534","5186724285","Columbia",,,,"POINT (-73.7859 42.249067)"
"1297","TOWN OF NEW HARTFORD","8635 Clinton Street",,"New Hartford","NY","13413","3157340447","Oneida",,,,"POINT (-75.31648 43.089861)"
"3955","KARP'S HARDWARE","2 Larkfield Drive",,"East Northport","NY","11731",,"Suffolk",,,,"POINT (-73.325765 40.880514)"
"3894","RUNNINGS 39","5949 Taberg Road",,"Rome","NY","13440","3153368989","Oneida",,,,
"2135","TOWN OF SENECA FALLS","130 Ovid Street",,"Seneca Falls","NY","13148","3155686844","Seneca",,,,"POINT (-76.798126 42.900529)"
"2216","TOWN OF HAVERSTRAW","1 Rosman Road",,"Garnerville","NY","10923","845-942-3727","Rockland",,,,"POINT (-74.010371 41.200381)"
"1560","TOWN OF ALEXANDRIA","4637 County Route 1","P O Box 130","Alexandria Bay","NY","13607","3157786595","Jefferson",,,,
"1318","WAL-MART STORES INC. 001318","8770 Dell Center Road",,"Liverpool","NY","130908700",,"Onondaga",,,,"POINT (-76.243839 43.188701)"
"1531","TOWN OF HOUNSFIELD","14202 County Route 75",,"Sackets Harbor","NY","13685","3156462073","Jefferson",,,,"POINT (-76.088644 43.952192)"
"1787","TOWN OF BAINBRIDGE","15 North Main Street",,"Bainbridge","NY","13733","6073530672","Chenango",,,,"POINT (-75.47905600000001 42.293805)"
"1167","TOWN OF SHELDON","1380 Centerline Road",,"Strykersville","NY","14145","7165976074","Wyoming",,,,"POINT (-78.389104 42.737516)"
"1721","TOWN OF WILLING","1431 Ackerman Hill",,"Wellsville","NY","14895","5855931587","Allegany",,,,
"2895","TOMS TAXIDERMY & SPORTING GOODS","7109 Rte 209",,"Wawarsing","NY","12489","8456478157","Ulster",,,,"POINT (-74.35552300000002 41.759571)"
"2063","TOWN OF RIVERHEAD","200 Howell Ave",,"Riverhead","NY","11967","6312051615","Suffolk",,,,"POINT (-72.654464 40.922739)"
"2818","HENCHEN MARINE INC","13442 County Route 123","P.O. Box 36","Henderson Harbor","NY","13651","3153454294","Jefferson",,,,"POINT (-76.201309 43.861854)"
"2199","TOWN OF ULSTER","1 Town Hall Drive",,"Lake Katrine","NY","12449","8453822455","Ulster",,,,"POINT (-74.00256600000002 41.97731)"
"2840","DICK'S SPORTING GOODS #195","1062 Ridge Road",,"Webster","NY","14580","5854742035","Monroe",,,,"POINT (-77.450004 43.210054)"
"3907","ERNIES BAIT & TACKLE II","51 MILL STREET",,"RIchford","NY","13835","6077652793","Tioga",,,,"POINT (-76.199099 42.355392)"
"1474","TOWN OF HYDE PARK","4383 Albany Post Road","P O Box 311","Hyde Park","NY","12580",,"Dutchess",,,,"POINT (-73.935957 41.790835)"
"2355","WAL-MART STORES INC. 002355","2150 Chili Avenue",,"Gates","NY","14615","5854154465","Monroe",,,,"POINT (-77.687399 43.131713)"
"2456","TOWN OF AMSTERDAM","283 Mannys Corners Rd",,"Amsterdam","NY","12010","5188429860","Monroe",,,,"POINT (-74.145763 42.951847)"
"3980","CORNELLS TRUE VALUE","310 White Plains Road",,"Eastchester","NY","10504","914-961-2400","Westchester",,,,"POINT (-73.817418 40.950343)"
"2336","TOWN OF PIERREPONT","864 State Highway 68",,"Canton","NY","13625","3152622458","St Lawrence",,,,"POINT (-75.011174 44.541761)"
"2111","TOWN OF SOUTHAMPTON","116 Hampton Road",,"Southampton","NY","11942","6312875740","Suffolk",,,,"POINT (-72.385281 40.88798)"
"3427","EDGE OF TIME TRADING POST","44 South Main St.","P.O. Box 275","Prattsburgh","NY","14873","6073299606","Steuben",,,,"POINT (-77.289037 42.521701)"
"2234","WAL-MART STORES INC. 002234","819 Bennie Road",,"Cortland","NY","14883","6072728752","Cortland",,,,"POINT (-76.22018 42.56701300000001)"
"2696","BARCELONA MARKET INC","8246 Rt 5",,"Westfield","NY","14787","7163262773","Chautauqua",,,,"POINT (-79.59573 42.340518)"
"2160","TOWN OF MARYLAND","40 Main St.","Po Box 124","Schenevus","NY","12155","6076385542","Otsego",,,,"POINT (-74.82887 42.547605)"
"2796","TRADING POST DELI INC.","3 Jasmine Drive",,"Port Jervis","NY","12771","8458587985","Orange",,,,"POINT (-74.642255 41.407059)"
"2448","MARTIN'S MARINA & MOTEL INC.","28491 County Route 6",,"Cape Vincent","NY","13618","3156543104","Jefferson",,,,"POINT (-76.310074 44.079466000000004)"
"4017","Oxxshire Creamery","4631 County Rt.17",,"Rensselaer Falls","NY","13680","315-771-8646","St. Lawrence",,,,"POINT (-75.408285 44.525872)"
"1434","LAKE ONTARIO MOTEL","3330 Lockport-Olcott Road",,"Newfane","NY","14108","716-778-5004","Niagara",,,,"POINT (-78.69423200000001 43.253472)"
"1372","TOWN OF NORTH EAST","19 North Maple Avenue","P O Box 516","Millerton","NY","12546","5187890020","Dutchess",,,,"POINT (-73.50549 41.954211)"
"3850","MIKES MINNOWS","2061 STATE ROUTE 29",,"DOLGEVILLE","NY","13329","315 669-6015","HERKIMER",,,,"POINT (-74.821785 43.134784)"
"2283","WAL-MART STORES, INC. 002283","350 E. Fairmont Avenue",,"Lakewood","NY","14750","7163584051","Chautauqua",,,,"POINT (-79.299914 42.099073000000004)"
"1499","CAMP CAROL","4014 County Route 6",,"Hammond","NY","13646","3153756637","St Lawrence",,,,"POINT (-75.546112 44.557252)"
"3922","SNUG HARBOR SOUTH, INC","7968 LAKESHORE DRIVE",,"SILVER BAY","NY","12874","518/543-3037","WARREN",,,,"POINT (-73.509784 43.675737)"
"1030","TOWN OF MARILLA","1740 Two Rod Road",,"Marilla","NY","14004","7166525350","Erie",,,,
"1067","TOWN OF LIVINGSTON","119 Route 19","Po Box 65","Livingston","NY","12541","5188512379","Columbia",,,,
"3973","BARE ARMS GUN SHOP, LLC","738 Creek Road",,"Little Falls","NY","13365","315-868-4831","Herkimer",,,,"POINT (-74.792907 42.99213)"
"1891","TOWN OF NAPLES","PO Box 535","106 South Main St","Naples","NY","14512","5853742052","Ontario",,,,
"1250","TOWN OF CUYLER","4763 Pardee Road",,"Cuyler","NY","13158","6073450447","Cortland",,,,"POINT (-75.961159 42.722094)"
"2229","TOWN OF WHITEHALL","57 Skenesborough Dr.",,"Whitehall","NY","12887","518-499-1535","Washington",,,,"POINT (-73.40288 43.553666)"
"1829","TOWN OF PRESTON","1043 County Road 19",,"Norwich","NY","13815","6073361662","Chenango",,,,"POINT (-75.565226 42.550269)"
"1572","TOWN OF STOCKBRIDGE","5314 N. Main Street",,"Munnsville","NY","13409","3154952405","Madison",,,,"POINT (-75.590741 42.979574)"
"1428","TOWN OF NEW HAVEN","4279 State Route 104","P O Box 141","New Haven","NY","13121","3155911321","Oswego",,,,"POINT (-76.31728 43.479774)"
"1110","TOWN OF ELBA","7 Maple Avenue","P O Box 295","Elba","NY","14058","5857572762","Genesee",,,,"POINT (-78.188601 43.079636)"
"1621","TOWN OF AVON","23 Genessee Street",,"Avon","NY","14414","5852266367","Livingston",,,,"POINT (-77.746244 42.911697)"
"1287","K&G LODGE TWIN PINE CABINS","1917 County Route 1",,"Oswego","NY","13126","3155297576","Oswego",,,,"POINT (-76.449883 43.486325)"
"1596","TOWN OF STEUBEN","9458 Soule Road",,"Remsen","NY","13438","3158654737","Oneida",,,,"POINT (-75.28295 43.319583)"
"2036","TOWN OF HOOSICK","80 Church Street","P O Box 12090","Hoosick Falls","NY","12090","5186864571","Rensselaer",,,,"POINT (-73.351996 42.899443000000005)"
"1931","TOWN OF ITALY","6060 Italy Valley Road",,"Naples","NY","14512","5853742308","Ontario",,,,"POINT (-77.311671 42.601861)"
"1630","WAL-MART STORES, INC.","101 Sanford Farms Shopping Ctr",,"Amsterdam","NY","12010","518-843-6890","Montgomery",,,,"POINT (-74.184497 42.964445)"
"1391","TOWN OF LAGRANGE","120 Stringham Road",,"La Grangeville","NY","12540","845-227-6644","Dutchess",,,,"POINT (-73.796887 41.66301)"
"2186","TANNERS OUTDOOR SPORTS INC.","2854 Route 8","P O Box 186","Speculator","NY","12164","5185486425","Hamilton",,,,"POINT (-74.368924 43.496826)"
"1023","TOWN OF CONCORD","86 Franklin Street",,"Springville","NY","14141","7167253233","Erie",,,,"POINT (-78.666178 42.509787)"
"1223","TOWN OF POMFRET","9 Day Street",,"Fredonia","NY","14063","7164107684","Chautauqua",,,,"POINT (-79.331529 42.44076)"
"1258","TOWN OF CAIRO","512 Main Street","P O Box 261","Cairo","NY","12413","518622-3120","Greene",,,,"POINT (-74.000137 42.300209)"
"2223","TOWN OF DENNING","1567 Denning Road",,"Claryville","NY","12725","8459857914","Ulster",,,,"POINT (-74.553252 41.92607700000001)"
"2089","TOWN OF MOREAU","351 Reynolds Road",,"Moreau","NY","12828","5187930378","Saratoga",,,,"POINT (-73.655179 43.251256)"
"1035","TOWN OF TONAWANDA","2919 Delaware Avenue, Room 14",,"Kenmore","NY","14217","7168778800","Erie",,,,"POINT (-78.870135 42.963646)"
"3997","BASS PRO Shop #71","710 Horatio St.",,"Utica","NY","13166","315-266-4904","Oneida",,,,"POINT (-75.225463 43.127976)"
"1151","TOWN OF WILLIAMSON","6380 State Route 21","Suite 2","Williamson","NY","14589","3155898100","Wayne",,,,"POINT (-77.187129 43.231187)"
"2364","TOWN OF FREMONT","12 County Road 95",,"Fremont Center","NY","12776","8457013650","Sullivan",,,,"POINT (-75.039741 41.842898)"
"1690","WAL-MART CORPORATION 001690","20823 State Route 3",,"Watertown","NY","13619","3157675263","Jefferson",,,,"POINT (-75.955795 43.974562)"
"1330","WAL-MART STORES INC. 001330","279 Troy Road",,"Rensselaer","NY","12144","5184455017","Rensselaer",,,,"POINT (-73.699189 42.641635)"
"2263","WAL-MART STORES, INC. 002263","297 Grant Avenue",,"Auburn","NY","13064","3152088600","Cayuga",,,,"POINT (-76.545392 42.952649)"
"1838","DEER RIVER CAMPSITE, INC.","123 Deer River Drive",,"Malone","NY","12953",,"Franklin",,,,"POINT (-74.305128 44.656002)"
"1716","TOWN OF NORTH HARMONY","3445 Old Bridge Road","P O Box 167","Stow","NY","14710","7167822976","Chautauqua",,,,"POINT (-79.40495 42.154428)"
"2747","VILLAGE HOME & GARDEN","5246 North Street",,"Galway","NY","12074","5188825600","Saratoga",,,,"POINT (-74.03165 43.019139)"
"1363","GREAT WHITE NORTH TRADING POST","518 State Route 13",,"Williamstown","NY","13493","3159642669","Oswego",,,,"POINT (-75.889633 43.423629)"
"1293","TOWN OF OSWEGO","2320 County Route 7",,"Oswego","NY","13126","3153424365","Oswego",,,,"POINT (-76.533806 43.415406)"
"1517","WAL-MART STORES INC. 001517","601 Frank Sottile Blvd.",,"Kingston","NY","12401","5186781146","Ulster",,,,"POINT (-73.985132 41.972613)"
"1104","TOWN OF BATAVIA","3833 West Main Street Road",,"Batavia","NY","14020","5853431729","Genesee",,,,"POINT (-78.229598 43.007492000000006)"
"1926","TOWN OF GENEVA","3750 County Road 6",,"Geneva","NY","14456","3157896907","Ontario",,,,"POINT (-77.010462 42.849622000000004)"
"2313","TOWN OF SEWARD","795-1 Lowe Road",,"Cobleskill","NY","12043","5182342480","Schoharie",,,,"POINT (-74.616159 42.711322)"
"2270","TOWN OF WOODBURY","615 Route 32","Lower Level","Highland Mills","NY","10930","845-928-6829","Orange",,,,
"1639","TOWN OF MOHAWK","2-4 Park Street","P O Box 415","Fonda","NY","12068","5183328690","Montgomery",,,,"POINT (-74.377892 42.952568)"
"1158","CITY OF SYRACUSE","231 City Hall","233 East Washington Street","Syracuse","NY","13203","3152998050","Onondaga",,,,
"1469","TOWN OF NIAGARA","7105 Lockport Road",,"Niagara Falls","NY","14305","716-297-2150  x131","Niagara",,,,"POINT (-78.985008 43.121713)"
"3927","CAPTAINS COVE MOTEL & MARINA","14339 Roosevelt Highway",,"Waterport","NY","14098",,"Orleans",,,,"POINT (-78.192048 43.351345)"
"1988","TOWN OF HARPERSFIELD","25399 State Highway 23",,"Harpersfield","NY","13786","607-652-5060","Delaware",,,,"POINT (-74.680683 42.437228)"
"1865","TOWN OF ADDISON","21 Main Street",,"Addison","NY","14801","607-368-7249","Steuben",,,,"POINT (-77.233828 42.106716)"
"1771","TOWN OF PATTERSON","1142 Route 311","P O Box 470","Patterson","NY","12563","8452792195","Putnam",,,,"POINT (-73.604605 41.513538)"
"2241","TOWN OF MONTOUR","135 Havana Glen Road","P O Box 579","Montour Falls","NY","14865","6075354635","Schuyler",,,,"POINT (-76.83345400000002 42.336588)"
"2331","CITY OF LACKAWANNA","714 Ridge Road",,"Lackawanna","NY","14218","7168276452","Erie",,,,"POINT (-78.825125 42.825799)"
"3902","UPSTATE GUNS & AMMO","3410 State Street",,"Schenectady","NY","12056","5188589683","Schenectady",,,,"POINT (-73.895929 42.7732)"
"1677","TOWN OF OTTO","8842 Otto-East Otto Road",,"Cattaraugus","NY","14719","7162579681","Cattaraugus",,,,"POINT (-78.816806 42.355616)"
"1730","TOWN OF NEW BERLIN","30 North Main Street","P O Box 845","New Berlin","NY","13411","6073730894","Chenango",,,,"POINT (-75.332433 42.625522)"
"3966","ALL IN THE SAME BOAT","2911 Lockport-Olcott Road",,"Newfane","NY","14094","716-638-4158","Niagara",,,,
"3290","NYSDEC REGION 9 ALLEGANY","182 E Union St",,"Allegany","NY","14706 1328","7163796414",,,,,"POINT (-78.489169 42.084922)"
"2728","HOGANS HUT","3503 Old Bridge Road",,"Stow","NY","14712","7167893831","Chautauqua",,,,"POINT (-79.406681 42.15495700000001)"
"2131","TOWN OF HORSEHEADS","150 Wygant Road",,"Horseheads","NY","14845","6077965036","Chemung",,,,"POINT (-76.822163 42.190273)"
"2018","TOWN OF ESPERANCE","104 Charleston Street","P O Box 226","Esperance","NY","12066","5188689304","Schoharie",,,,"POINT (-74.25674 42.761095)"
"3950","McNIKKI'S OUTDOOR SHOP","229 Island Branch Road",,"Gouverneur","NY","13642","315-535-4383","St.Laurence",,,,"POINT (-75.427629 44.315565)"
"1812","WAL-MART STORES INC. 001812","5360 Southwestern Blvd.",,"Hamburg","NY","14224",,"Erie",,,,"POINT (-78.869482 42.741577)"
"3856","BLUE COLLAR WORKWEAR","2380 Constitution Ave",,"Olean","NY","14760","716-307-3321","Cattaraugus",,,,"POINT (-78.457273 42.083166)"
"2059","TOWN OF SOUTHOLD","53095 Main Road","P O Box 1179","Southold","NY","11971","6317658461","Suffolk",,,,"POINT (-72.430912 41.063093)"
"1668","VILLAGE OF SYLVAN BEACH","808 Marina Drive","P O Box 508","Sylvan Beach","NY","13157","315-762-4844","Oneida",,,,
"2258","TOWN OF COVERT","8469 S. Main Street","P O Box 265","Interlaken","NY","14847","6075328358","Seneca",,,,"POINT (-76.724623 42.614074)"
"1464","TOWN OF ROYALTON","5316 Royalton Center Rd",,"Middleport","NY","14105","7165421235","Niagara",,,,"POINT (-78.538303 43.161375)"
"2484","TOWN OF DOVER","126 East Duncan Hill Road",,"Dover Plains","NY","12522","8458776155","Dutchess",,,,"POINT (-73.577689 41.697491)"
"2684","WAL-MART STORES INC. 002684","515 East 4th Street",,"Watkins Glen","NY","14891","607-535-3108","Schuyler",,,,"POINT (-76.86479 42.383126)"
"1407","TOWN OF SANGERFIELD","1084 State Route 12","P O Box 175","Sangerfield","NY","13455","3157943243","Oneida",,,,"POINT (-75.379668 42.916051)"
"1323","TOWN OF SKANEATELES","24 Jordan Street",,"Skaneateles","NY","13152","3156853473","Onondaga",,,,"POINT (-76.429299 42.946786)"
"3656","TOWN OF DAVENPORT","11790 St. Hwy 23",,"Davenport Center","NY","13750","6072786105","Delaware",,,,"POINT (-74.915528 42.44986600000001)"
"1767","TOWN OF PUTNAM VALLEY","265 Oscawna Lake Road",,"Putnam Valley","NY","10579","845-526-3280","Putnam",,,,"POINT (-73.865885 41.367181)"
"2105","TOWN OF MILFORD","2859 State Hwy  28","P O Box 417","Portlandville","NY","13834","6072869033","Otsego",,,,"POINT (-74.967505 42.530269)"
"1858","VILLAGE OF ENDICOTT","1009 East Main Street",,"Endicott","NY","13760-5260","6077572443","Broome",,,,"POINT (-76.05012 42.097741)"
"2040","TOWN OF LAKE LUZERNE","539 Lake Ave",,"Lake Luzerne","NY","12846","5187910462","Warren",,,,"POINT (-73.83793 43.339684)"
"3418","SOUTH SHORE SPORTSMAN INC.","9 Lansdowne Ave.",,"Merrick","NY","11544","5169920004","Nassau",,,,"POINT (-73.55644 40.661737)"
"3992","WOODS & WATERS","255 BROADWAY",,"SARANAC LAKE","NY","12983","5188911110","FRANKLIN",,,,"POINT (-74.138642 44.333494)"
"2299","TOWN OF OWASCO","2 Bristol Ave.",,"Auburn","NY","13021","3152539021","Cayuga",,,,"POINT (-76.545034 42.918551)"
"3875","BIG WAVE SPORT & TACKLE INC","441 Route 6",,"Mahopac","NY","12590","914-505-2198","Putnam",,,,"POINT (-73.745194 41.363657)"
"4021","AMITY Firearms","27 Whitney Ave",,"Belmont","NY","14813","585-610-3321","Allegany",,,,"POINT (-78.037747 42.22193)"
"1456","TOWN OF FINE","4078 Sh 3","P.O. Box 238","Star Lake","NY","13690","3158483803","St Lawrence",,,,"POINT (-75.045802 44.165097)"
"1963","TOWN OF FARMERSVILLE","8963 Lake Ave",,"Franklinville","NY","14737","7166762905","Cattaraugus",,,,"POINT (-78.377138 42.386324)"
"2439","TOWN OF JERUSALEM","3816 Italy Hill Road",,"Branchport","NY","14418","3155361184","Yates",,,,"POINT (-77.15871 42.598635)"
"2690","OLD FORGE HARDWARE","104 Fulton St",,"Old Forge","NY","13420","3153698099","Herkimer",,,,"POINT (-74.972777 43.710223)"
"1246","TOWN OF HURON","10880 Lummisville Rd",,"Wolcott","NY","14590 9549","3155731700","Wayne",,,,"POINT (-76.86775 43.235988)"
"1912","TOWN OF BELLMONT","1251 County Road 24",,"Malone","NY","12953","5184839313","Franklin",,,,
"3845","ATLANTIC OUTFITTERS LLC","405 Main St Suite 2",,"Port Washington","NY","11050","5167672215","Nassau",,,,"POINT (-73.702056 40.829681)"
"2867","THE SUFFOLK SPORTSMAN,LLC","119 East Main St.",,"Smithtown","NY","11787","5167641962","Suffolk",,,,"POINT (-73.189674 40.856025)"
"3717","DICK'S SPORTING GOODS 003717","2400 Palisades Center Drive",,"West Nyack","NY","7945","845-512-7035","Rockland",,,,"POINT (-73.952198 41.097999)"
"3984","GANDER OUTDOORS","5864 Carmenica Dr.",,"CICERO","NY","14487","315-698-1100","ONONDAGA",,,,"POINT (-76.114465 43.181328)"
"2080","COUNTY OF SCHUYLER","105 9th Street  Unit 8",,"Watkins Glen","NY","14812","6075358133","Schuyler",,,,"POINT (-76.871133 42.377392)"
"2496","TOWN OF CORNWALL","183 Main Street",,"Cornwall","NY","12518","8455345831","Orange",,,,"POINT (-74.02942400000002 41.440408)"
"1588","TOWN OF MALTA","2540 Rt. 9  Malta Town Complex",,"Malta","NY","12020","518-899-2552","Saratoga",,,,
"1010","TOWN OF RENSSELAERVILLE","87 Barger Road",,"Medusa","NY","12469","5182396722","Albany",,,,"POINT (-74.138114 42.454938)"
"3495","ZONI ENTERPRISES INC.","1567 Us Route 9",,"Schroon Lake","NY","12870","5183547251","Essex",,,,"POINT (-73.75249800000002 43.869195)"
"1283","TOWN OF MANCHESTER","1272 County Rd 7",,"Clifton Springs","NY","14504","5852894206","Ontario",,,,"POINT (-77.18086 42.971393)"
"2582","TOWN OF NEW PALTZ","1 Veterans Dr",,"New Paltz","NY","12561","845-255-9198","Ulster",,,,"POINT (-74.081548 41.756785)"
"1567","TOWN OF CARROLL","5 West Main Street","P O Box 497","Frewsburg","NY","14738","7169224003","Chautauqua",,,,"POINT (-79.159845 42.053065)"
"1088","TOWN OF CONSTANTIA","14 Frederick Street","Po Box 222","Constantia","NY","13044","3156237104","Orleans",,,,"POINT (-76.001717 43.248915)"
"3867","TRB'S GUNS","9089 Plack Road",,"Remsen","NY","13438","315-892-5082",,,,,"POINT (-75.183006 43.300447)"
"1262","TOWN OF MILTON","503 Geyser Road",,"Ballston Spa","NY","12020","5188859220","Saratoga",,,,"POINT (-73.85198 43.045159)"
"1882","TOWN OF WAVERLY","123 Spring Street","P O Box 289","St. Regis Falls","NY","12980","5188569632","Franklin",,,,"POINT (-74.538735 44.67465)"
"1227","TOWN OF PERSIA","8 West Main",,"Gowanda","NY","14070","7162575530","Cattaraugus",,,,"POINT (-78.935653 42.463014)"
"2293","TOWN OF VIRGIL","1176 Church Street",,"Cortland","NY","13045","6078356810","Cortland",,,,"POINT (-76.198289 42.509102)"
"1905","TOWN OF OYSTER BAY","54 Audrey Avenue",,"Oyster Bay","NY","11762","5169221753","Nassau",,,,"POINT (-73.531878 40.873154)"
"2171","DICK'S SPORTING GOODS # 156","40 Catherwood Road",,"Ithaca","NY","13053","6072298009","Tompkins",,,,"POINT (-76.487765 42.483784)"
"1616","CITY OF JAMESTOWN","200 East Third Street",,"Jamestown","NY","14701","7164837612","Chautauqua",,,,"POINT (-79.240573 42.096486)"
"3838","TOWN OF SOUTHAMPTON ANNEX","116 Hampton Road",,"Southampton","NY","11968","631 325 5526","Suffolk",,,,"POINT (-72.385281 40.88798)"
"1737","TOWN OF LEWISBORO","11 Main Street",,"South Salem","NY","10590","9147633511","Westchester",,,,"POINT (-73.555967 41.275553)"
"2520","WAL-MART STORES INC. 002520","2500 Merritt Boulevard",,"Fishkill","NY","12524","8452401459","Dutchess",,,,
"2275","TOWN OF NEVERSINK","273 Main Street","P O Box 307","Grahamsville","NY","12740","8459852262","Suffolk",,,,"POINT (-74.54802 41.847511)"
"1185","TOWN OF COXSACKIE","56 Bailey Street","P O Box 135","Coxsackie","NY","12058","5187316334","Greene",,,,"POINT (-73.81933 42.353944)"
"1468","TOWN OF NEWFANE","2737main St.",,"Newfane","NY","14108","716-778-0640","Niagara",,,,
"1696","TOWN OF OTISCO","1924 Barker Street",,"Tully","NY","13084","3156964676","Onondaga",,,,"POINT (-76.201316 42.865721)"
"1368","TOWN OF HURLEY","10 Wamsley Place",,"Hurley","NY","12443","845-334-9147","Ulster",,,,"POINT (-74.066849 41.925646)"
"2325","TOWN OF PHELPS","79 Main Street","P O Box 187","Phelps","NY","14532","3155489282","Ontario",,,,"POINT (-77.057132 42.957489)"
"3904","CHAUTAUQUA REEL OUTDOORS GUIDE & TACKLE LLC","165 W. Fairmount Ave Suite 3",,"Lakewood","NY","14750","7167823404","Chautauqua",,,,"POINT (-79.341124 42.098467)"
"2733","DICKS SPORTING GOODS #158","21143 Salmon Run Loop West",,"Watertown","NY","13601","3157820255","Jefferson",,,,
"3293","RUSS'S TACKLE SHOP, INC","1226 Niagara Street",,"Buffalo","NY","14213","7167432724","Erie",,,,"POINT (-78.899209 42.91720300000001)"
"1722","WAL-MART STORES INC. 001722","2348 Route 19",,"Warsaw","NY","14020","5853706115","Wyoming",,,,"POINT (-78.134154 42.635574)"
"1204","TOWN OF ELBRIDGE","5 Route 31 West","P O Box 568","Jordan","NY","13080","3156896444","Onondaga",,,,
"1325","TOWN OF HASTINGS","1134 Us Route 11",,"Central Square","NY","13036",,"Oswego",,,,"POINT (-76.15128 43.317705)"
"1480","TOWN OF CLINTON","1215 Centre Road",,"Rhinebeck","NY","12572","8452665289","Dutchess",,,,"POINT (-73.803823 41.883684)"
"2417","TOWN OF SPRINGFIELD","141 County Route 29a","P O Box 235","Springfield Ctr","NY","13468","3158580008","Otsego",,,,"POINT (-74.872735 42.829365)"
"1118","TOWN OF WOLCOTT","6070 Lake Ave",,"Wolcott","NY","14590","3155949431","Wayne",,,,"POINT (-76.815207 43.221725)"
"1818","TOWN OF CINCINNATUS","2628 Lower Cincinnatus Rd",,"Cincinnatus","NY","13040","6078634758","Cortland",,,,"POINT (-75.897725 42.534516)"
"2127","TOWN OF ANNSVILLE","4225 State Route 69",,"Taberg","NY","13471","3153398515","Oneida",,,,"POINT (-75.608814 43.292033)"
"3933","DICK'S SPORTING GOODS #1199","650 Lee Blvd",,"Yorktown Heights","NY","12563","914/302-5452","Westchester",,,,"POINT (-73.808792 41.327196)"
"1289","TOWN OF MANLIUS","301 Brooklea Drive",,"Fayetteville","NY","13066","315/637-3521","Onondaga",,,,"POINT (-76.012186 43.031987)"
"1790","TOWN OF BURNS","10 Main Street","P O Box 222","Canaseraga","NY","14822",,"Allegany",,,,"POINT (-77.77194 42.461594)"
"2002","TOWN OF NORTH DANSVILLE","14 Clara Barton Street",,"Dansville","NY","14437","5853358415","Livingston",,,,"POINT (-77.695532 42.559186)"
"2345","WAL-MART STORES INC. 002345","710 Horatio Street",,"Utica","NY","13502","3155074125","Oneida",,,,"POINT (-75.225463 43.127976)"
"2027","TOWN OF AUSTERLITZ","812 Rt 203","Po Box 238","Spencertown","NY","12165","5183923260","Columbia",,,,"POINT (-73.545308 42.322784)"
"3087","WAL-MART SUPERCENTER 003087","425 Rt.31",,"Macedon","NY","14502","6077693898","Wayne",,,,"POINT (-77.357736 43.064391)"
"1705","TOWN OF DEKALB","2907 County Route 17","P O Box 133","De Kalb Junction","NY","13630","3153024068","Oneida",,,,"POINT (-75.273237 44.504835)"
"1954","TOWN OF BUTTERNUTS","1234 State Hwy 51","P O Box 318","Gilbertsville","NY","13776","6077832339","Otsego",,,,"POINT (-75.345459 42.441499)"
"1777","TOWN OF WEBSTER","1000 Ridge Road",,"Webster","NY","14580","5857879197","Monroe",,,,"POINT (-77.457645 43.209218)"
"1946","TOWN OF SCHUYLER FALLS","997 Mason Street","P O Box 99","Morrisonville","NY","12962","5185632857","Clinton",,,,"POINT (-73.560674 44.68956)"
"1723","TOWN OF WESTFIELD","23 Elm Street",,"Westfield","NY","14787","716326-3211","Chautauqua",,,,"POINT (-79.576479 42.322073)"
"3970","CRAWFORD'S WEST END, LLC","475 Main Street",,"Sterling","NY","13156","3159476900","Cayuga",,,,"POINT (-76.708849 43.313967)"
"2689","NORTH POLE CAMPGROUND","5636 ST RT 86","Po Box 68","Wilmington","NY","12997","5185247733","Essex",,,,
"3963","RJ'S ARCHERY & TACKLE","11828 Route 9W",,"W. Coxsackie","NY","12076","6074274505","Greene",,,,
"1876","TOWN OF KEENE","10892 NYS Rt. 9N","P O Box 89","Keene","NY","12942","5185769790","Essex",,,,"POINT (-73.790017 44.254318)"
"2014","TOWN OF ASHLAND","12094 Rt 23",,"Ashland","NY","12407","5189293592","Greene",,,,"POINT (-74.335671 42.30422)"
"2784","PRICE SLASHERS","41 Front Street",,"Port Jervis","NY","12771","8455519265","Orange",,,,"POINT (-74.69234 41.373528)"
"2478","TOWN OF AURELIUS","1241 West Genesee Street Road",,"Auburn","NY","13021","3157308510","Cayuga",,,,"POINT (-76.65756200000001 42.91996)"
"3896","RUNNINGS 37","3949 State Route 31",,"Liverpool","NY","13471","3152640631","Onondaga",,,,"POINT (-76.239857 43.185318)"
"1803","TOWN OF CHAMPLAIN","729 Route 9",,"Champlain","NY","12919","5182366051","Clinton",,,,"POINT (-73.44299600000001 44.959963)"
"1309","TOWN OF TAGHKANIC","483 County Route 15",,"Elizaville","NY","12523","5188517161","Columbia",,,,"POINT (-73.71882 42.105392)"
"2053","TOWN OF CHERRY VALLEY","2 Genesse St.",,"Cherry Valley","NY","133200401","6072643986","Otsego",,,,"POINT (-74.75768 42.798501)"
"1156","BAY BRIDGE SPORTS","9555 Ridge Road",,"North Rose","NY","14516","315-587-9508","Wayne",,,,"POINT (-76.930416 43.223128)"
"1923","TOWN OF GRANGER","10404 County Road 15",,"Fillmore","NY","14735","585-567-8605","Allegany",,,,"POINT (-78.014452 42.452319)"
"2251","TOWN OF CHESTER","1786 Kings Highway",,"Chester","NY","10981","8457749213","Orange",,,,"POINT (-74.276041 41.339848)"
"1573","TOWN OF RICHFIELD","18 East James Street","P O Box 786","Richfield Springs","NY","13439","3158588809","Otsego",,,,"POINT (-74.983421 42.851782)"
"3758","NYSDEC REGION 5 WARRENSBURG","232 Golf Course Rd.",,"Warrensburg","NY","12885","518-623-1273","Warren",,,,"POINT (-73.796922 43.499974)"
"1960","TOWN OF MORRIS","93 Main Street",,"Morris","NY","13808","6072635735","Otsego",,,,"POINT (-75.248288 42.547439)"
"2556","WAL-MART STORES INC. 002556","1134 Wicker Street",,"Ticonderoga","NY","12944","5183223101","Essex",,,,"POINT (-73.438051 43.857579)"
"3533","SNUG HARBOR MARINA INC","92 Black Point Rd.",,"Ticonderoga","NY","12883","5187960227","Essex",,,,"POINT (-73.424366 43.826036)"
"2516","TOWN OF ANGELICA","49 Park Circle","P O Box 338","Angelica","NY","14709","5854663503","Allegany",,,,"POINT (-78.015694 42.30561)"
"2045","TOWN OF HARTFORD","165 County Route 23",,"Hartford","NY","12827","5186325702","Washington",,,,
"1761","TOWN OF BURKE","5165 State Route 11","P O Box 121","Burke","NY","12917","5185213098","Franklin",,,,"POINT (-74.194874 44.918173)"
"3888","DICKS SPORTING GOODS 1185","Gateway Center Two","499-64 Sunrise Highway","Patchogue","NY","11713","631-891-4044","Suffolk",,,,
"4011","RUNNINGS #44","230 West Main St",,"Malone","NY","12953","518-795-9160","Franklin",,,,"POINT (-74.30794 44.848227)"
"2100","TOWN OF OTEGO","3526 State Highway 7","P O Box 468","Otego","NY","13825","6074327585","Otsego",,,,"POINT (-75.160038 42.404715)"
"3989","RIVERTRONICZ","682 Broadway St",,"Cape Vincent","NY","13618","315-816-1196","JEFFERSON",,,,"POINT (-76.345911 44.124612)"
"3860","EXTREME ARCHERY","801 E Boston Post Rd",,"Mamaroneck","NY","10598","914-835-4474","Westchester",,,,"POINT (-73.724389 40.953594)"
"1970","TOWN OF JAY","11 School Lane",,"Ausable Forks","NY","12941","5189467782","Essex",,,,"POINT (-73.676799 44.438657)"
"3947","WOLCOTT GUNS INC.","3052 Walden Ave",,"Depew","NY","14043","716-901-7807","Erie",,,,"POINT (-78.71422 42.90918)"
"2843","WAL-MART STORES INC. 002843","7155 State Route #12 South",,"Lowville","NY","13494","3153926352","Lewis",,,,"POINT (-75.474234 43.774274)"
"2823","ARTHUR J YOUNG & SON,INC.","10 Washington Street Ext.",,"Prattsville","NY","12468","5185984112","Greene",,,,"POINT (-74.433682 42.314358)"
"1670","TOWN OF WARREN","383 Hogsback Road",,"Richfield Springs","NY","13439","3158581207","Herkimer",,,,"POINT (-74.945427 42.874011)"
"2504","TOWN OF CRAWFORD","121 Route 302","P O Box 109","Pine Bush","NY","12566","8457446593","Orange",,,,"POINT (-74.330111 41.574757)"
"1266","TOWN OF GREENVILLE","11159 SR 32",,"Greenville","NY","12176","5189668218","Greene",,,,"POINT (-74.022072 42.415095)"
"2358","WAL-MART STORES INC. 002358","3018 East Avenue",,"Central Square","NY","13036","3156682972","Oswego",,,,"POINT (-76.127475 43.29137)"
"2072","TOWN OF WASHINGTON","10 Reservoir Drive",,"Millbrook","NY","12545","8456778395","Dutchess",,,,"POINT (-73.692288 41.784311)"
"1015","TOWN OF AMHERST","5583 Main Street",,"Williamsville","NY","14221","716-631-7021","Erie",,,,"POINT (-78.744842 42.962857)"
"1215","TOWN OF BRUNSWICK","336 Town Office Road",,"Troy","NY","12180","5183014605","Rensselaer",,,,"POINT (-73.611257 42.756413)"
"2574","TOWN OF SHELTER ISLAND","38 North Ferry Road","P O Box 1549","Shelter Island","NY","11964","6317490952","Suffolk",,,,"POINT (-72.338732 41.068283)"
"1846","TOWN OF ORANGETOWN","26 W. Orangeburg Road",,"Orangetown","NY","10962",,"Rockland",,,,"POINT (-73.955712 41.045893)"
"4008","Public Safety & Ed.","2154 US 11 South",,"LAFAYETTE","NY","13084","315-567-9268","ONONDAGA",,,,"POINT (-76.107309 42.876556)"
"1072","TOWN OF SCHODACK","265 Schuurman Rd",,"Castleton","NY","12123","518-477-7590","Rensselaer",,,,"POINT (-73.683592 42.564842)"
"2164","BELLIS GUNS","1330 Oak Hill Rd",,"Barton","NY","13734","6075654348","Tioga",,,,"POINT (-76.442345 42.108791)"
"1542","TOWN OF HINSDALE","4129 Route 16 North","P O Box 95","Hinsdale","NY","14743","7165572643","Cattaraugus",,,,"POINT (-78.381607 42.178832)"
"1742","TOWN OF SOMERSET","8700 Haight Road","P O Box 368","Barker","NY","14012","7167953575","Niagara",,,,"POINT (-78.550131 43.337408)"
"1900","TOWN OF DANSVILLE","1487 Day Road",,"Arkport","NY","14807","6073247985","Steuben",,,,"POINT (-77.65237400000001 42.470348)"
"1220","TOWN OF DUANESBURG","5853 Western Tpk.",,"Duanesburg","NY","12056","5188958920","Schenectady",,,,"POINT (-74.146456 42.76521)"
"1113","TOWN OF COVINGTON","7486 Boyd Rd",,"Pavilion","NY","14525","5855848217","Genesee",,,,"POINT (-77.987398 42.857361)"
"1212","TOWN OF BYRON","7028 Byron Holley Road","P O Box 9","Byron","NY","14422","5855487759","Genesee",,,,"POINT (-78.064442 43.072572)"
"1488","TOWN OF FRANKFORT","140 South Litchfield Road",,"Frankfort","NY","13340","3158949027","Herkimer",,,,"POINT (-75.072298 43.038949)"
"1339","TOWN OF SHELBY","4062 Salt Works Road","P O Box 348","Medina","NY","14103","5857984071","Orleans",,,,"POINT (-78.410906 43.214491)"
"1171","TOWN OF CONESUS","6210 South Livonia Road","P O Box 188","Conesus","NY","14435","5853462368","Livingston",,,,"POINT (-77.676037 42.719071)"
"1351","CITY OF OSWEGO","13 West Oneida Street",,"Oswego","NY","13126","315-342-8117","Oswego",,,,"POINT (-76.511108 43.455167)"
"3958","LIGHTHOUSE MARINE SERVICES INC","67680 Main Rd",,"Greenport","NY","11971",,"Suffolk",,,,"POINT (-72.39187 41.087651)"
"2190","TOWN OF ROSE","5074 North Main Street","P O Box 310","North Rose","NY","14433","3156511737","Wayne",,,,"POINT (-76.89343 43.187276)"
"1002","DICK'S SPORTING GOODS INC.#20","579 Troy-Schdy Rd, Suite 124",,"Latham","NY","12110","5185052199","Albany",,,,
"3374","DICK'S SPORTING GOODS, INC. #756","Sangertown Mall Route 5 And 5a",,"New Hartford","NY","13413","2013903086","Oneida",,,,
"2422","WAL-MART STORES, INC. #1909","1540 Military Road",,"Niagara Falls","NY","14086","716-298-4484","Niagara",,,,"POINT (-78.974273 43.09653)"
"4001","MoHos Bait & Tackle","213 Cafferty Road",,"Harpursville","NY","13787","607-222-4614","Broome",,,,"POINT (-75.745699 42.160810000000005)"
"1380","TOWN OF EPHRATAH","3782 State Highway 10",,"St. Johnsville","NY","13452","518-568-2526","Fulton",,,,"POINT (-74.530162 43.037067)"
"1936","DF BROTHERS SPORTS CENTER LTD.","7919 New Utrecht Ave.",,"Brooklyn","NY","10314","7189168984","Kings",,,,"POINT (-74.000951 40.612291)"
"1514","TOWN OF PLEASANT VALLEY","1554 Main Street",,"Pleasant Valley","NY","12578","8456353274","Dutchess",,,,"POINT (-73.828602 41.743205)"
"2210","TOWN OF DRESDEN","1 Lillian'S Way",,"Clemons","NY","12819","5184991813","Washington",,,,"POINT (-73.449414 43.638125)"
"1301","TOWN OF CLIFTON PARK","1 Town Hall Plaza",,"Clifton Park","NY","12065","5183578825","Saratoga",,,,"POINT (-73.820211 42.859283000000005)"
"1750","DICK'S SPORTING GOODS, INC. # 2","2433 Vestal Pkwy East",,"Vestal","NY","13790","607-797-5220","Broome",,,,"POINT (-76.008869 42.094864)"
"1448","TOWN OF WESTERN","9219 Main Street","P O Box 248","Westernville","NY","13303","3158274928","Oneida",,,,"POINT (-75.380245 43.307846)"
"2382","WAL-MART STORES INC. 002382","1860 North Road",,"Waterloo","NY","13165","3155482848","Seneca",,,,"POINT (-76.840935 42.907732)"
"1795","TOWN OF WOODHULL","1585 Academy Street","P O Box 12","Woodhull","NY","14898","6074585665","Steuben",,,,"POINT (-77.413839 42.078561)"
"1977","TOWN OF TUPPER LAKE","120 Demars Blvd.",,"Tupper Lake","NY","12986","5183597111","Franklin",,,,"POINT (-74.46817100000001 44.235065)"
"2140","TOWN OF SANDY CREEK","1992 Harwood Drive","P O Box 52","Sandy Creek","NY","13145","3153872195","Oswego",,,,"POINT (-76.078216 43.64362200000001)"
"2834","WAL-MART STORES INC. 002834","8064 Brewerton Rd",,"Cicero","NY","13104","3156635222","Onondaga",,,,"POINT (-76.11999800000001 43.162107)"
"3918","BOWMANS GUN SHOP","337 CR 11",,"Gouverneur","NY","13642","3154890030","St. Lawrence",,,,
"1583","TOWN OF LOWVILLE","5533 Bostwick St",,"Lowville","NY","13367 9302","315-376-8070","Lewis",,,,"POINT (-75.484131 43.796457)"
"2771","TOWN OF WALTON","129 North Street",,"Walton","NY","13856","6078658686","Delaware",,,,"POINT (-75.125108 42.17579400000001)"
"1823","TOWN OF SANFORD","91 Second Street",,"Deposit","NY","13754","6074672178","Broome",,,,"POINT (-75.426577 42.061525)"
"2929","VILLAGE SHORES BAIT & TACKLE","6368 Robie Road",,"Savona","NY","14879","6077698694","Steuben",,,,"POINT (-77.204172 42.309026)"
"3941","CLET GUN SHOP","4-B Willow Ave",,"Staten Island","NY","10305","718-682-1031","Richmond",,,,"POINT (-74.069393 40.619248)"
"2008","TOWN OF TORREY","56 Geneva Street","P O Box 280","Dresden","NY","14441 0280","3155210723","Yates",,,,"POINT (-76.957632 42.68258)"
"2719","JS MOBIL","1 Kingston Ave",,"Port Jervis","NY","12771","8458562486","Orange",,,,"POINT (-74.684888 41.375906)"
"3913","RIZZOS MARKET","401 South James Street",,"Rome","NY","13440","3153363760","Oneida",,,,"POINT (-75.461168 43.207319)"
"1783","TOWN OF FENTON","44 Park Street",,"Port Crane","NY","13833","6076483155","Broome",,,,"POINT (-75.82998 42.165582)"
"2449","TOWN OF SULLIVAN","7507 Lakeport Road",,"Chittenango","NY","13037","315-687-7221","Madison",,,,"POINT (-75.872518 43.086696)"
"3937","FOX COUNTRY GUN & TACKLE","176 Mcgraw Rd",,"Amsterdam","NY","12010","518-389-5211","Montgomery",,,,"POINT (-74.258203 42.926535)"
"2153","TOWN OF WORCESTER","19 Katie Lane",,"Worcester","NY","12197","6073979413","Otsego",,,,"POINT (-74.752605 42.587872)"
"2192","TOWN OF PARISHVILLE","1771 State Highway 72","P O Box 246","Parishville","NY","13672","3152658079","St Lawrence",,,,"POINT (-74.814031 44.628634)"
"1872","TOWN OF ALMOND","1 Marvin Lane",,"Almond","NY","14804","6072766665","Allegany",,,,"POINT (-77.741229 42.316474)"
"1985","TOWN OF JEFFERSON","677 North Harpersfield Road","P O Box 34","Jefferson","NY","12093","6076525200","Schoharie",,,,"POINT (-74.620556 42.480036)"
"2068","TOWN OF MENDON","16 West Main Street",,"Honeoye Falls","NY","14472",,"Ontario",,,,"POINT (-77.59196 42.95231)"
"2330","TOWN OF PITCAIRN","10 Edwards Road",,"Harrisville","NY","13648","3157776890","Lewis",,,,"POINT (-75.282175 44.181788)"
"2389","NEMEC'S SPORT SHOP FARM & GARDEN CENTER","4036 Main Street",,"Warrensburg","NY","12885","5186234660","Warren",,,,"POINT (-73.786448 43.50378)"
"2350","TOWN OF NEWBURGH","1496 Route 300",,"Newburgh","NY","12550","8455623727","Orange",,,,"POINT (-74.077125 41.559091)"
"1429","TOWN OF CANTON","60 Main Street",,"Canton","NY","13617",,"St Lawrence",,,,"POINT (-75.171138 44.595503)"
"3864","HOZMERICA LLC DBA HOSMERS MARINA","54 East River St",,"Ogdensburg","NY","13669","315-323-6037","ST LAWRENCE",,,,"POINT (-75.495147 44.694954)"
"1603","TOWN OF WADDINGTON","48 Maple Street","P.O. Box 338","Waddington","NY","13694","3153884347","St Lawrence",,,,"POINT (-75.205403 44.860824)"
"2473","TOWN OF AMENIA","4988 Rt 22",,"Amenia","NY","12501-0081","8453738860","Dutchess",,,,"POINT (-73.555684 41.851654)"
"2120","TOWN OF MAINE","12 Lewis Street",,"Maine","NY","13802","6078623334","Broome",,,,"POINT (-75.053412 42.454867)"
"4013","RUNNINGS #46","57 Centre Drive",,"Plattsburgh","NY","12901","518-564-0445","Clinton",,,,"POINT (-73.495953 44.693943)"
"1918","TOWN OF SCRIBA","42 Creamery Road",,"Oswego","NY","13126","3154022413","Oswego",,,,"POINT (-76.430759 43.468202)"
"1622","TOWN OF STOCKHOLM","540 State Highway 11c",,"Winthrop","NY","13697","3153843418","St Lawrence",,,,"POINT (-74.794271 44.788734)"
"1757","TOWN OF LAWRENCE","11403 Us Highway 11 C",,"North Lawrence","NY","12967","3153894487","St Lawrence",,,,"POINT (-74.6576 44.777382)"
"3881","SURE SHOT GUNSMITHING & SALES","117 Covered Bridge Rd",,"Livingston Manor","NY","12758","8456659255","Sullivan",,,,"POINT (-74.831062 41.913202)"
"1631","H. D. ROWELL EST.","11129 Route 13","P O Box 101","Westdale","NY","13483","3152454993","Oneida",,,,"POINT (-75.81455200000002 43.387729)"
"3633","THE SPRING HOUSE COMMONS LLC","54 River Road",,"Barryville","NY","10990","8459877881","Sullivan",,,,"POINT (-74.918839 41.477944)"
"3975","RENE'S REPAIRS","7327 Route 9",,"Plattsburgh","NY","12901","518-298-3667","Albany",,,,"POINT (-73.426825 44.737427)"
"2233","TOWN OF SOUTH VALLEY","444 West Perimeter Road",,"Frewsburg","NY","14738","7163542015","Chautauqua",,,,"POINT (-78.987442 42.016669)"
"1259","TOWN OF NEW BALTIMORE","3809 County Route 51",,"Hannacroix","NY","12124","5187563658","Greene",,,,
"1034","TOWN OF SARDINIA","12320 Savage Road",,"Sardinia","NY","14134","7164968900","Erie",,,,
"1036","TOWN OF WALES","12345 Big Tree Road","P O Box 264","Wales Center","NY","14139","7164573404","Erie",,,,
"1237","TOWN OF CANANDAIGUA","5440 Rt 5&20 West",,"Canandaigua","NY","14424","5853965903","Ontario",,,,
"1377","TOWN OF STEPHENTOWN","26 Grange Hall Road","P O Box 268","Stephentown","NY","12168","5189287208","Rensselaer",,,,"POINT (-73.379305 42.551484)"
"1077","TOWN OF CALEDONIA","3109 Main Street",,"Caledonia","NY","14423","5854105383","Livingston",,,,"POINT (-77.854159 42.973132)"
"2274","TOWN OF WAWAYANDA","80 Ridgebury Hill Road",,"Slate Hill","NY","10940","8455917934","Orange",,,,"POINT (-74.456118 41.390943)"
"1251","TOWN OF CLAY","4401 State Route 31",,"Clay","NY","13090","3156527812","Onondaga",,,,"POINT (-76.207585 43.186399)"
"2110","VILLAGE OF MASSAPEQUA PARK","151 Front Street",,"Massapequa Park","NY","11762",,"Nassau",,,,"POINT (-73.461135 40.677619)"
"1397","TOWN OF PALATINE","141 West Grand Street","P O Box 40","Palatine Bridge","NY","13339","5189932579","Montgomery",,,,"POINT (-74.581552 42.913086)"
"1103","TOWN OF PAVILION","10991 Lake Rd.",,"Pavilion","NY","14591","5855843449","Genesee",,,,
"1852","TOWN OF DERUYTER","735 Utica Street","P O Box 394","Deruyter","NY","13052 0394","3153671350","Madison",,,,"POINT (-75.88426 42.758848)"
"1275","WAL-MART STORES INC. #2586","2500 Walden Ave",,"Cheektowaga","NY","14225","716-896-3669","Erie",,,,"POINT (-78.742926 42.908354)"
"2032","TOWN OF WAYLAND","17 Main Street - Town Hall",,"Wayland","NY","14572","5857282116","Steuben",,,,
"1427","TOWN OF BERLIN","17563 State Route 22 PO Box 307",,"Berlin","NY","12022","5186582633","Rensselaer",,,,"POINT (-73.3641 42.649822)"
"1019","TOWN OF CHEEKTOWAGA","3301 Broadway Town Hall",,"Cheektowaga","NY","14227","716-686-3434","Erie",,,,
"1650","TOWN OF POTSDAM","18 Elm Street",,"Potsdam","NY","13676","3152653430","St Lawrence",,,,"POINT (-74.984186 44.669836)"
"1238","TOWN OF CHILI","3333 Chili Avenue",,"Rochester","NY","14624","5858896127","Monroe",,,,"POINT (-77.759289 43.100674)"
"1547","TA-GA-SOKE CAMPGROUNDS","7820 Higginsville Road",,"Blossvale","NY","13308","3154279570","Oneida",,,,"POINT (-75.699048 43.22468)"
"2095","CITY OF SARATOGA SPRINGS","474 Broadway-City Hall",,"Saratoga Springs","NY","12866","5183692183","Saratoga",,,,"POINT (-73.784683 43.083441)"
"1896","TOWN OF CAMERON","PO Box 1932","3625 County Rt. 22","Cameron","NY","14819","6076959722","Steuben",,,,
"1866","THE BEVERAGE BARON","136 Lake St.",,"Penn Yan","NY","14527",,"Yates",,,,"POINT (-77.054839 42.657136)"
"3895","RUNNINGS 38","233 5th Ave Ext",,"Gloversville","NY","12078","5186733483","Fulton",,,,"POINT (-74.323533 43.05952500000001)"
"2228","TOWN OF BALDWIN","622 Breesport-North Chemung Rd",,"Lowman","NY","14861","6077332861","Chemung",,,,"POINT (-76.69241 42.09734)"
"1830","TOWN OF VAN ETTEN","83 Main Street",,"Van Etten","NY","14889","6075894480","Chemung",,,,"POINT (-76.559662 42.198932000000006)"
"2348","TOWN OF SHAWANGUNK","14 Central Avenue","P O Box 247","Walkill","NY","12589","8458952959","Ulster",,,,"POINT (-74.18171 41.605094)"
"2485","WAL-MART STORES INC. 002485","1201 Route 300",,"Newburgh","NY","12550","8455676007","Orange",,,,"POINT (-74.072121 41.496977)"
"1269","CITY OF DUNKIRK","342 Central Avenue  City Hall",,"Dunkirk","NY","14048","7167853109","Chautauqua",,,,"POINT (-79.334494 42.48329)"
"1620","TOWN OF CLARKSON","3710 Lake Road","P O Box 858","Clarkson","NY","14430","5853913520","Monroe",,,,"POINT (-77.927924 43.232787)"
"2605","SHINNECOCK INDIAN NATION","100 Church Street",,"Southampton","NY","11969","6312592103","Suffolk",,,,"POINT (-72.428573 40.873997)"
"2037","TOWN OF NORTHAMPTON","412 South Main Street","P O Box 479","Northville","NY","12134","5188638977","Fulton",,,,"POINT (-74.169646 43.221287)"
"1286","TOWN OF LIMA","7329 East Main Street",,"Lima","NY","14485","5856245923","Livingston",,,,"POINT (-77.610443 42.905254)"
"1587","TOWN OF HANOVER","68 Hanover Street",,"Silver Creek","NY","14062","7169652607","Chautauqua",,,,"POINT (-79.169534 42.475715)"
"2093","DISCOVERIES","4498 State Route 9",,"Warrensburg","NY","12885","5186234168","Warren",,,,"POINT (-73.794388 43.532218)"
"1024","TOWN OF EDEN","2795 East Church Street",,"Eden","NY","14057","716-992-3406","Erie",,,,
"1075","TOWN OF LIVONIA","35 Commercial Street","P O Box 43","Livonia","NY","14487","5853463710","Livingston",,,,"POINT (-77.669172 42.81929000000001)"
"2259","TOWN OF CORTLANDVILLE","3577 Terrace Road",,"Cortland","NY","13045","6077565725","Cortland",,,,"POINT (-76.21019400000002 42.580983)"
"3852","CREEKSIDE SPORTS LLC","409 Main Street",,"Schoharie","NY","12157","518-295-6473","Schoharie",,,,"POINT (-74.307247 42.671369)"
"2151","TOWN OF HAGUE","9793 Graphite Mountain Road","P O Box 509","Hague","NY","12836","5185436161","Warren",,,,"POINT (-73.50229 43.748392)"
"1409","TOWN OF EDWARDS","161 Main Street","P.O. Box 24","Edwards","NY","13635","3155628264","St Lawrence",,,,"POINT (-75.251543 44.324434)"
"2106","TOWN OF SUMMIT","1580 Charlotte Valley Road","P O Box 132","Summit","NY","12175","5182871208","Schoharie",,,,"POINT (-74.592719 42.579314)"
"2300","TOWN OF SOUTHPORT","1139 Pennsylvania Ave.",,"Elmira","NY","14904","6074256264","Chemung",,,,"POINT (-76.818688 42.05575)"
"2235","TOWN OF WHEATLAND","22 Main Street","P O Box 15","Scottsville","NY","14546","5858895517","Monroe",,,,"POINT (-77.74950400000002 43.019687)"
"1857","TOWN OF TRIANGLE","2612 Liberty Street","P O Box 289","Whitney Point","NY","13862","6076923805","Broome",,,,"POINT (-75.969376 42.327483)"
"2060","TOWN OF EAST HAMPTON","159 Pantigo Road",,"East Hampton","NY","11963","6313244142","Suffolk",,,,"POINT (-72.171884 40.967682)"
"1859","WAL-MART STORES INC. 001859","5396 State Highway 12",,"Norwich","NY","13815","607-334-5553","Chenango",,,,"POINT (-75.528745 42.498072)"
"1420","SCHERMERHORN HARBOR,LLC","71 Schermerhorn Landing Road",,"Hammond","NY","13646","6077590225","St Lawrence",,,,"POINT (-75.789867 44.41299)"
"2457","TOWN OF EXETER","7411 State Highway 28","Po Box 31","Schuyler Lake","NY","13457","3158581878","Otsego",,,,"POINT (-75.02661500000002 42.782687)"
"1096","CITY OF COHOES","97 Mohawk Street",,"Cohoes","NY","12047-2897",,"Albany",,,,"POINT (-73.70008 42.774603)"
"1197","TOWN OF CLARENDON","16385 Church Street","P O Box 145","Clarendon","NY","14470","5856385416","Orleans",,,,"POINT (-78.059752 43.191208)"
"3851","DICKS BAIT & TACKLE","286 Neighborhood Rd",,"MASTIC BEACH","NY","11951",,"SUFFOLK",,,,"POINT (-72.853171 40.763156)"
"1399","INLET ACE, LLC","167 State Route 28",,"Inlet","NY","13360","3153574337","Hamilton",,,,"POINT (-74.794257 43.751007)"
"1300","VILLAGE OF SCOTIA","4 North Ten Broeck Street",,"Scotia","NY","12302","5189158251","Schenectady",,,,"POINT (-73.964067 42.826871)"
"4018","All Seasons Outfitters","3179 Erie Blvd East Suite 194",,"Dewitt","NY","13214","315-410-4656","Onondaga",,,,"POINT (-76.075161 43.053928)"
"3983","ROCK HILL TRADING POST","214 Rock Hill Drive",,"Rock Hill","NY","12775","845-796-3060","Sullivan",,,,"POINT (-74.597101 41.62551)"
"1799","TOWN OF DICKINSON","657 County Route 5",,"Dickinson Center","NY","12930","5188569576","Franklin",,,,"POINT (-74.553078 44.715834)"
"1371","TOWN OF WAPPINGER","20 Middlebush Road","P O Box 324","Wappinger Falls","NY","12590","8454621815","Dutchess",,,,"POINT (-73.918573 41.585801)"
"1029","TOWN OF LANCASTER","21 Central Ave",,"Lancaster","NY","14086","7166836373","Erie",,,,"POINT (-78.670441 42.901244)"
"1604","TOWN OF OSCEOLA","2145 N. Osceola Road",,"Camden","NY","13316","3155997120","Lewis",,,,"POINT (-75.721273 43.505512)"
"1951","GEORGE'S GUN SHOP","1368 Jump Brook Road","P O Box 39","Grand Gorge","NY","12434","6075886290","Delaware",,,,"POINT (-74.522693 42.370208)"
"1111","TOWN OF BERGEN","10 Hunter St.",,"Bergen","NY","14416","5854941121","Genesee",,,,"POINT (-77.942007 43.088869)"
"1571","TOWN OF EATON","335 Cedar Street","P O Box 66","Morrisville","NY","13408","3156849319","Madison",,,,"POINT (-75.653673 42.906259)"
"3869","TOWN OF OYSTER BAY ANNEX","977  HICKSVILLE ROAD",,"MASSAPEQUA","NY","11758",,"NASSAU",,,,"POINT (-73.477282 40.689719)"
"1014","TOWN OF ALDEN","3311 Wende Road",,"Alden","NY","14004","7169376969","Erie",,,,"POINT (-78.550598 42.939258)"
"1651","TOWN OF NEW BREMEN","8420 State Route 812",,"Lowville","NY","13367","3153461402","Lewis",,,,"POINT (-75.421932 43.840839)"
"2420","TOWN OF BOLTON","4949 Lakeshore Drive","P O Box 7","Bolton Landing","NY","12814","5187443901","Warren",,,,"POINT (-73.655172 43.55683)"
"1561","TOWN OF DENMARK","3707 Roberts Rd",,"Carthage","NY","13626","315-493-3846","Lewis",,,,"POINT (-75.596569 43.928578)"
"1089","TOWN OF TULLY","5833 Meetinghouse Road","P O Box 206","Tully","NY","13159","3156966439","Onondaga",,,,"POINT (-76.115697 42.791227)"
"1851","TOWN OF TIOGA","54 5th Avenue","P O Box 193","Tioga Center","NY","13845","6076872847","Tioga",,,,
"1450","TOWN OF MARSHALL","2651  State Route 12b","P O Box 233","Deansboro","NY","13328","3158414804","Oneida",,,,"POINT (-75.429168 42.992907)"
"1906","HUNTER SPORTS, INC.","4166 Sunrise Highway",,"Massapequa","NY","11758","5167997923","Nassau",,,,"POINT (-73.479433 40.675238)"
"2184","FISH307LLC","1571 State Route 9",,"Lake George","NY","12845","5185275117","Warren",,,,"POINT (-73.699172 43.373634)"
"1230","TOWN OF MIDDLEBURY","584 Kingsley Road",,"Wyoming","NY","14591","7164741572","Wyoming",,,,"POINT (-78.127136 42.853982)"
"2062","TOWN OF ISLIP","655 Main Street",,"Islip","NY","11706","6312245490","Suffolk",,,,"POINT (-73.210649 40.729762)"
"1736","TOWN OF CLARKSTOWN","10 Maple Avenue",,"New City","NY","10956","8454067479","Rockland",,,,"POINT (-73.988445 41.146811)"
"2841","DICK'S SPORTING GOODS #464","630 Old Country Rd",,"Garden City","NY","11530","516-247-6400","Nassau",,,,"POINT (-73.613 40.7385)"
"3657","TOWN OF EDMESTON","2 West Street",,"Edmeston","NY","13335","6079658544","Otsego",,,,"POINT (-75.244204 42.697741)"
"3998","Northern Adirondack Gun Sales","13 Cinnamon Ridge",,"Keeseville","NY","12944","518/570-6429","Essex",,,,"POINT (-73.484907 44.485488)"
"1081","TOWN OF MIDDLESEX","1216 Route 245 - Main Street","P O Box 147","Middlesex","NY","14507","5855546024","Yates",,,,
"1689","WAL-MART STORES INC. 001689","49 Smith Road",,"Massena","NY","13662","3152507723","St Lawrence",,,,"POINT (-74.845641 44.951151)"
"3436","GUN WORKS OF CENTRAL NEW YORK","5366 State Rt. 31",,"Verona","NY","13478","3152643126","Oneida",,,,"POINT (-75.571611 43.121812)"
"1476","TOWN OF LLOYD","12 Church Street",,"Highland","NY","12528","8456917336","Ulster",,,,"POINT (-73.965545 41.719191)"
"3424","UNCLE TOMS KABINN","10985 Rushford Rd.","P.O. Box 24","Centerville","NY","14029","7162270100","Allegany",,,,"POINT (-78.249486 42.479818)"
"1338","TOWN OF GAINES","14087 Ridge Road",,"Albion","NY","14411","585-589-4592","Orleans",,,,"POINT (-78.219152 43.283925)"
"2372","TOWN OF GATES","1605 Buffalo Rd",,"Rochester","NY","14624","5854298205","Monroe",,,,"POINT (-77.694079 43.149865)"
"2209","TOWN OF CORINTH","600 Palmer Ave",,"Corinth","NY","12822","5186546552","Saratoga",,,,"POINT (-73.815181 43.246556000000005)"
"1276","WEBER'S BAIT & TACKLE","8137 Erie Road",,"Angola","NY","14006","7165493426","Erie",,,,"POINT (-79.030272 42.663882)"
"4020","RABYS ACE Home Center","247 Washington Blvd",,"Oswego","NY","13126","3153429663","Oswego",,,,"POINT (-76.529231 43.453827)"
"2049","AL'S SPORT SHOP","6964 River Road","P O Box L","Downsville","NY","13755","6072870624","Delaware",,,,
"2435","TOWN OF PORTAGE","806 Main Street",,"Hunt","NY","14846","5854762777","Livingston",,,,"POINT (-77.999478 42.546622)"
"3981","NORTH CREEK TRADING POST","256 Main Streeet",,"North Creek","NY","12853","5182514867","Warren",,,,
"1503","WAL-MART STORES INC. 001503","4238 Recreation Drive",,"Canandaigua","NY","14424","5857032062","Ontario",,,,"POINT (-77.241899 42.877858)"
"1794","TOWN OF JASPER","3807 Preacher Street Drawer 10",,"Jasper","NY","14855","6077923726","Steuben",,,,
"1140","CITY OF JOHNSTOWN","33-41 East Main Street",,"Johnstown","NY","12078","5187364011","Fulton",,,,"POINT (-74.369991 43.006485)"
"1249","TOWN OF FENNER","3151 Fenner East Road",,"Cazenovia","NY","13035","315-655-2705","Madison",,,,"POINT (-75.787734 42.95047)"
"2006","TOWN OF PULTENEY","9226 County Rte. 74","P O Box 214","Pulteney","NY","14840","8148827820","Steuben",,,,"POINT (-77.165833 42.526662)"
"2139","TOWN OF LANSING","29 Auburn Road","Po Box 186","Lansing","NY","14882","6075338968","Tompkins",,,,"POINT (-76.503207 42.538056)"
"2494","TOWN OF CORNING","20 South Maple St",,"Corning","NY","14830","6073776021","Steuben",,,,"POINT (-77.035549 42.122072)"
"1899","TOWN OF CHEMUNG","48 Rotary Road Ext.",,"Chemung","NY","14825","6075293308","Chemung",,,,"POINT (-76.619865 42.029254)"
"3949","DICK'S SPORTING GOODS #1318","1701 Sunrise Highway",,"Bay Shore","NY","11746",,"Suffolk",,,,"POINT (-73.244445 40.736677)"
"1282","TOWN OF OGDEN","269 Ogden Center Road",,"Spencerport","NY","14559","5857483328","Monroe",,,,"POINT (-77.802675 43.172431)"
"3965","HARNISH OUTDOOR SUPPLY","132 West State Street",,"Gloversville","NY","12078","518-752-9454","Fulton",,,,
"2343","O'DELL'S MINI MART, INC.","1015 Route 209","P O Box 262","Cuddebackville","NY","12729","8457547541","Orange",,,,"POINT (-74.594018 41.461868)"
"1595","TOWN OF AMITY","1 Schuyler Street",,"Belmont","NY","14709","585-268-5423","Allegany",,,,"POINT (-78.03435 42.223197)"
"1265","TOWN OF HEBRON","3161 County Route 30",,"Salem","NY","12865","5188543494","Washington",,,,"POINT (-73.374536 43.229228)"
"2242","TOWN OF NEWFIELD","166 Main Street",,"Newfield","NY","14867","6072209768","Tompkins",,,,"POINT (-76.589087 42.362728)"
"1191","TOWN OF ARCADE","15 Liberty Street",,"Arcade","NY","14009","5854924685","Wyoming",,,,"POINT (-78.422638 42.533742)"
"2016","TOWN OF JEWETT","3547 County Route 23c","P O Box 132","Jewett","NY","12424","5187346589","Greene",,,,
"1317","WAL-MART STORES INC. 001317","100 Elmridge Plaza",,"Rochester","NY","14626",,"Monroe",,,,
"1390","TOWN OF BETHEL","3454 Route 55","P O Box 300","White Lake","NY","12783","8452925551","Sullivan",,,,
"2175","TOWN OF SCHROON","15 Leland Avenue","P O Box 578","Schroon Lake","NY","12870","5185329213","Essex",,,,"POINT (-73.760131 43.836571)"
"3837","WAL-MART SUPERCENTER 003837","7500 Route 209",,"Napanoch","NY","12458","8453327768","Ulster",,,,
"2642","TOM'S BAIT AND TACKLE","116 Kirk Rd.",,"Narrowsburg","NY","12764","8452527445","Sullivan",,,,"POINT (-75.056539 41.612141)"
"1612","TOWN OF LERAY","8650 Leray Street",,"Evans Mills","NY","13637","3156294940","Jefferson",,,,"POINT (-75.79996 44.085086)"
"1135","FRANK'S GUN SHOP INC.","3831 State Highway 30",,"Amsterdam","NY","12078","5187255754","Fulton",,,,"POINT (-74.209217 43.03976900000001)"
"2821","TOWN OF ELLICOTTVILLE","1 W. Washington St.",,"Ellicottville","NY","14731","7162441985","Cattaraugus",,,,"POINT (-78.67311 42.274944)"
"2098","TOWN OF WINDHAM","371 State Route 296","P O Box 96","Hensonville","NY","12439","5187344167","Greene",,,,"POINT (-74.217846 42.29114)"
"1551","TOWN OF WEBB","3140 State Route 28","P O Box 157","Old Forge","NY","13420","3153693878","Herkimer",,,,"POINT (-74.970089 43.712114)"
"2521","TOWN OF RATHBONE","8088 County Route 21",,"Addison","NY","14801","6073592861","Steuben",,,,"POINT (-77.31915 42.131034)"
"2552","WAL-MART STORES INC. 002552","1549 Route 9",,"Clifton Park","NY","12118","5185412648","Saratoga",,,,
"1332","TOWN OF PARMA","1300 Hilton Parma Road",,"Hilton","NY","14468","5853929461","Monroe",,,,"POINT (-77.791125 43.252018)"
"1520","TOWN OF MADISON","7358 Route 20",,"Madison","NY","13402 0066","3158937020","Madison",,,,"POINT (-75.510477 42.899596)"
"1659","TOWN OF BOLIVAR","252 North Main Street",,"Bolivar","NY","14715","5859281208","Allegany",,,,"POINT (-78.151418 42.090074)"
"1117","TOWN OF BRUTUS","9021 N Seneca St",,"Weedsport","NY","13166","3158349143","Cayuga",,,,"POINT (-76.559009 43.054096)"
"1844","MARTIN'S BAIT AND TACKLE","5101 Rt 374",,"Merrill","NY","12955","518-425-3312","Clinton",,,,"POINT (-73.985612 44.78526)"
"1008","TOWN OF KNOX","PO Box 116",,"Knox","NY","12107","5188722551","Albany",,,,
"3876","SHORTSTOP MARKETING","3750 State Route 13",,"Pulaski","NY","13142","3154479502","Oswego",,,,
"1352","WHITAKERS SPORT SHOP & MOTEL","3707 State Route 13",,"Pulaski","NY","13142","3152981207","Oswego",,,,
"2099","TOWN OF ONEONTA","3966 State Highway 23","P O Box A","West Oneonta","NY","13861","6074322900","Otsego",,,,"POINT (-75.113064 42.471632)"
"1457","THE LOG CABINS","3114 A County Route 6",,"Hammond","NY","13646","3153756691","St Lawrence",,,,"POINT (-75.606606 44.51536)"
"1752","TOWN OF MOOERS","2508 Route 11","P O Box 242","Mooers","NY","12959","5182367927","Clinton",,,,"POINT (-73.589147 44.960235)"
"2318","TOWN OF WILLSBORO","1 Point Road","P O Box 370","Willsboro","NY","12996","5189633355","Essex",,,,"POINT (-73.394815 44.372193)"
"1068","TOWN OF GALWAY","5910 Sacandaga Road","P O Box 219","Galway","NY","12074","5185779560","Saratoga",,,,"POINT (-74.047026 43.052267)"
"1962","CITY OF NIAGARA FALLS","745 Main Street","City Hall","Niagara Falls","NY","14302 0069","7169309510","Niagara",,,,"POINT (-79.055488 43.096018)"
"2797","WAL-MART STORES INC. 002797","135 Fairgrounds Memorial Pkwy",,"Ithaca","NY","14860","6072774510","Tompkins",,,,"POINT (-76.511717 42.429978)"
"1638","TOWN OF ALABAMA","2218 Judge Rd",,"Oakfield","NY","14125","5857378579","Genesee",,,,"POINT (-78.334352 43.073801)"
"1159","TOWN OF CONQUEST","1289 Fuller Road",,"Port Byron","NY","13140","3157764539","Cayuga",,,,"POINT (-76.655929 43.12261)"
"1914","TOWN OF CHESTERFIELD","1 Vine Street","P O Box 456","Keeseville","NY","12944","5188349262","Essex",,,,"POINT (-73.479003 44.503208)"
"1435","RAINBOW SPORTS INC.","267 Oliver Street",,"North Tonawanda","NY","14120","716-361-9320","Niagara",,,,"POINT (-78.875515 43.02992)"
"3847","SWARTHOUT'S BAIT & TACKLE SHOP","133 E. Hudson St",,"Elmira","NY","14871","607-733-6954","Chemung",,,,"POINT (-76.800553 42.084423)"
"1387","CITY OF NORTH TONAWANDA CITY CLERK'S OFFICE","216 Payne Avenue",,"North Tonawanda","NY","14120","716-695-8555","Niagara",,,,"POINT (-78.869536 43.02971)"
"1304","TOWN OF PROVIDENCE","7187 Barkersville Road",,"Middle Grove","NY","12850","5188838569","Saratoga",,,,"POINT (-74.038171 43.088924)"
"1892","TOWN OF BATH","110 Liberty Street- Rm 103",,"Bath","NY","14810",,"Steuben",,,,"POINT (-77.318127 42.335962)"
"2284","TOWN OF ELLENBURG","16 St. Edmund's Way","Suite 7","Ellenburg Center","NY","12955","5185943178","Clinton",,,,"POINT (-73.838239 44.893984)"
"3923","DEC REGION 5 - NORTHVILLE","701 S Main St",,"Northville","NY","12134","518/524-3637","Fulton",,,,"POINT (-74.167411 43.217123)"
"2332","TOWN OF BROOME","920 State Route 145",,"Middleburgh","NY","12122","5188276670","Schoharie",,,,"POINT (-74.292937 42.508237)"
"1706","TOWN OF CLAVERACK","91 Church Street","P O Box V","Mellenville","NY","12513","5188517452","Columbia",,,,"POINT (-73.512036 41.958018)"
"2218","TOWN OF MINISINK","20 Ray Smith Drive","P O Box 349","Westtown","NY","10969","8459817235","Orange",,,,"POINT (-74.566904 41.320492)"
"1566","TOWN OF CARROLLTON","64o Main Street Suite 1",,"Limestone","NY","14753 0146","7169257753","Cattaraugus",,,,"POINT (-79.06382 42.220222)"
"1731","TOWN OF UNION","3111 E. Main Street",,"Endwell","NY","13760","6077862918","Broome",,,,"POINT (-76.025871 42.106349)"
"3291","NYSDEC REGION 9 BUFFALO","270 Michigan Avenue",,"Buffalo","NY","14006","716-851-7050","Erie",,,,"POINT (-78.869834 42.878979)"
"1932","TOWN OF LINDLEY","637 County Route 115",,"Lindley","NY","14870","6073291316","Steuben",,,,"POINT (-77.139281 42.027502)"
"2132","TOWN OF GROTON","101 Conger Boulevard",,"Groton","NY","13073","6078985704","Tompkins",,,,"POINT (-76.369273 42.590264)"
"1492","TOWN OF LEBANON","1210 Bradley Brook Road",,"Earlville","NY","13332","3158374261","Madison",,,,"POINT (-75.647731 42.782127)"
"2278","TOWN OF ROCKLAND","95 Main Street","Po Box 964","Livingston Manor","NY","12758","8454395450","Sullivan",,,,"POINT (-74.830139 41.89928)"
"1538","TOWN OF LEON","12195 Leon-New Albion Road",,"Conewango Valley","NY","14138","7169883527","Cattaraugus",,,,
"1813","ACCURATE SPORTS","50 Tuckahoe Road",,"Yonkers","NY","10705","914-965-5224","Westchester",,,,"POINT (-73.868561 40.95588)"
"1788","TOWN OF KIRKWOOD","70 Crescent Drive",,"Kirkwood","NY","13795","6077753128","Broome",,,,"POINT (-75.821968 42.095216)"
"2224","TOWN OF GREENVILLE","1537 Us Hwy #6",,"Port Jervis","NY","12771","8453551613","Orange",,,,"POINT (-74.56079 41.375049)"
"1168","TOWN OF CHAUTAUQUA","2 Academy St",,"Mayville","NY","14757","7165811309","Chautauqua",,,,"POINT (-79.507838 42.254698)"
"1904","WOODHAVEN RIFLE & PISTOL RANGE, INC.","74-16 Jamaica Ave",,"Woodhaven","NY","11421","7188352455","Queens",,,,"POINT (-73.867423 40.691266)"
"1463","CLAYTON BAIT SHOP","302 State Street",,"Clayton","NY","13624","3156864169","Jefferson",,,,"POINT (-76.080649 44.237144)"
"1883","TOWN OF WILMINGTON","7 Community Circle",,"Wilmington","NY","12997","5189462249","Essex",,,,"POINT (-73.816328 44.386067)"
"1226","TOWN OF CHERRY CREEK","6845 Main Street","P O Box 98","Cherry Creek","NY","14723","7162965334","Chautauqua",,,,"POINT (-79.099069 42.296479)"
"2200","TOWN OF ELLERY","25 Sunnyside Avenue","P O Box 429","Bemus Point","NY","14712","7163383505","Chautauqua",,,,"POINT (-79.389893 42.15980900000001)"
"1310","TOWN OF RUSH","5977 E. Henrietta Road",,"Rush","NY","14543","5855331018","Monroe",,,,"POINT (-77.645649 42.995383)"
"3906","SPORTSMENS DEN","623 Gabel Road",,"Callicoon","NY","12723","8458874935","Sullivan",,,,"POINT (-74.977945 41.737134)"
"2086","HILLTOP ARCHERY","66 Russell Lane",,"Argyle","NY","12809","5186325311","Washington",,,,"POINT (-73.449275 43.318442)"
"1921","TOWN OF GREENBURGH","177 Hillside Avenue",,"White Plains","NY","10603","9144346848","Westchester",,,,"POINT (-73.790198 41.046779)"
"1149","B-E FISHING TACKLE  INC.","6275 Dean Parkway",,"Ontario","NY","14519","3154838726","Wayne",,,,"POINT (-77.365082 43.226664)"
"1712","TOWN OF ST. JOHNSVILLE","7431 State Highway 5","P O Box 28","Saint Johnsville","NY","13452","5185687469","Montgomery",,,,"POINT (-74.664428 42.997081)"
"2265","COUNTY OF HAMILTON","102 County View Drive","P O Box 204","Lake Pleasant","NY","12108","5185486692","Hamilton",,,,"POINT (-74.412714 43.469529)"
"2044","TOWN OF HAMPTON","2629 State Route 22a","P O Box 125","Hampton","NY","12837","5182829632","Washington",,,,"POINT (-73.25065 43.526525)"
"1768","TOWN OF NORTH CASTLE","15 Bedford Road",,"Armonk","NY","10504","9142733962","Westchester",,,,"POINT (-73.712706 41.122511)"
"1105","TOWN OF BETHANY","10510 Bethany Center Road",,"East Bethany","NY","14054","5853560820","Genesee",,,,"POINT (-78.13313900000001 42.904984)"
"1342","WAL-MART CORPORATION","4235 Veteran Drive",,"Geneseo","NY","14454","5854937065","Livingston",,,,"POINT (-77.788132 42.800719)"
"1361","TOWN OF COBLESKILL","378 Mineral Springs Road, Suite 5",,"Cobleskill","NY","12043","5182341719","Schoharie",,,,"POINT (-74.480407 42.669237)"
"2734","DICKS SPORTING GOODS #159","60 Smithfield Blvd",,"Plattsburgh","NY","12972",,"Clinton",,,,"POINT (-73.494795 44.702655)"
"2337","TOWN OF GOUVERNEUR","1227 Us Highway 11",,"Gouverneur","NY","13642","3152872340","St Lawrence",,,,"POINT (-75.481162 44.324705)"
"3887","LOUIES GUN SHOP","367 West Morris Street",,"Bath","NY","14843","6079680452","Steuben",,,,"POINT (-77.334694 42.339876)"
"2471","TOWN OF SPRINGWATER","8022 South Main Street",,"Springwater","NY","14560","585-669-2545","Livingston",,,,"POINT (-77.596856 42.634766)"
"1927","TOWN OF GREENWOOD","2696 State Route 248",,"Greenwood","NY","14839","6072254654","Steuben",,,,"POINT (-77.648426 42.135467)"
"2363","TOWN OF HAMPTONBURGH","18 Bull Rd",,"Campbell Hall","NY","10916","8454960343","Orange",,,,"POINT (-74.272038 41.457138)"
"2147","TOWN OF CROWN POINT","17 Monitor Bay","P O Box 444","Crown Point","NY","12928","5185973612","Essex",,,,"POINT (-73.415009 43.94832000000001)"
"2428","WAL-MART STORES INC. 002428","760 Hoosick Road",,"Troy","NY","12180","518-279-0685","Rensselaer",,,,"POINT (-73.640006 42.746715)"
"2697","LAKE VALLEY ARCHERS AND ANGLERS","3971 State Rt 226",,"Dundee","NY","14837","6072926483","Schuyler",,,,"POINT (-77.040813 42.427995)"
"1999","TOWN OF MANSFIELD","7691 Toad Hollow Road",,"Little Valley","NY","14755","7169389360","Cattaraugus",,,,"POINT (-78.761979 42.332254)"
"1245","TOWN OF LENOX","205 South Peterboro St",,"Canastota","NY","13032","3152642044","Madison",,,,"POINT (-75.75165 43.077676)"
"1294","TOWN OF POMPEY","8354 Route 20",,"Manlius","NY","13104","315-682-9877","Onondaga",,,,"POINT (-75.949225 42.923277)"
"3925","JC BAIT & TACKLE","1625 Co. Hwy 25",,"Richfield Springs","NY","13439","315-858-2123","Otsego",,,,
"1183","SAWDUST CAFE","105 County Highway 112",,"Gloversville","NY","12078","5187730405","Fulton",,,,"POINT (-74.36792 43.120054)"
"1470","TOWN OF PEMBROKE","1145 Main Rd.",,"Corfu","NY","14036","5855993533","Genesee",,,,"POINT (-78.404739 42.993014)"
"1679","TOWN OF VILLENOVA","8395 Route 83",,"South Dayton","NY","14138","7166800128","Cattaraugus",,,,"POINT (-79.090576 42.367004)"
"2415","WAL-MART STORES INC. 002415","4765 Commercial Drive",,"New Hartford","NY","13413","3157329894","Oneida",,,,"POINT (-75.311984 43.095371)"
"2844","DICKS SPORTING GOODS INC #296 -now #4605","870 Walt Whitman Rd",,"Melville","NY","11776","631/421-3028","Suffolk",,,,"POINT (-73.412534 40.79869300000001)"
"3718","DICK'S SPORTING GOODS # 1085","5006 State Highway 23 Suite 1c",,"Oneonta","NY","13732","6074320203","Otsego",,,,
"2360","TOWN OF MOUNT HOPE","1706 Route 211 West",,"Otisville","NY","10940","8453861062","Orange",,,,"POINT (-74.528182 41.471844)"
"2023","J AND J BAIT AND TACKLE","265 W Main Street",,"Patchogue","NY","11772",,"Suffolk",,,,"POINT (-73.023365 40.764947)"
"1770","TOWN OF OSSINING","6 Croton Avenue",,"Ossining","NY","10562","9147151147","Westchester",,,,"POINT (-73.861424 41.162835)"
"3919","SPORTSMAN ADVENTURES","114 Southside Drive",,"Oneonta","NY","13820","6073761044","Otsego",,,,"POINT (-75.018712 42.444636)"
"2503","TOWN OF CATO","11320 Short Cut Rd.",,"Cato","NY","13033","3152092243","Cayuga",,,,"POINT (-76.54533 43.152311)"
"3954","RON'S HARDWARE","4979 Lakeshore Drive",,"Bolton Landing","NY","12814",,"Warren",,,,"POINT (-73.654719 43.558595)"
"1216","TOWN OF CANAJOHARIE","12 Mitchell Street",,"Canajoharie","NY","13317","5186733112","Montgomery",,,,"POINT (-74.570712 42.905421)"
"1584","TOWN OF BROWNVILLE","16431 Star Schoolhouse Road",,"Dexter","NY","13634","3152125225","Jefferson",,,,"POINT (-76.043388 44.028988)"
"2465","WAL-MART STORES INC. 002465","1400 County Rd 64",,"Horseheads","NY","13850","6073439878","Chemung",,,,"POINT (-76.855968 42.160454)"
"3969","HILLTOP BAIT SHOP","107 Hilltop Dr",,"Afton","NY","13730","607/349-1255","Chenango",,,,"POINT (-75.595092 42.229728)"
"2145","TOWN OF JACKSON","2355 State Route 22",,"Cambridge","NY","12865","5188543254","Washington",,,,"POINT (-73.374043 43.061323)"
"2238","TOWN OF HECTOR","5097 State Route 227",,"Burdett","NY","14886","6073879813","Schuyler",,,,"POINT (-76.776026 42.464194)"
"1945","TOWN OF MORIAH","38 Park Place","Suite 2","Port Henry","NY","12960","5185463351","Essex",,,,"POINT (-73.458329 44.043127)"
"2799","DICKS SPORTING GOODS #422","2 Galleria Drive",,"Buffalo","NY","14225","7162072367","Erie",,,,"POINT (-78.764004 42.915842)"
"2038","TOWN OF SARATOGA","12 Spring St.",,"Schuylerville","NY","12871","5186956982","Saratoga",,,,"POINT (-73.579987 43.104075)"
"4007","Crowell Home & Auto Supply","14722 Aldrich St.",,"Gowanda","NY","14070","716-532-3381","Cattaraugus",,,,
"2890","MITCHELS BAIT","4531 Lake Ave",,"Rochester","NY","14559","5856634564","Monroe",,,,"POINT (-77.612224 43.25327000000001)"
"1395","TOWN OF STANFORD","26 Town Hall Road","P O Box 436","Stanfordville","NY","12581","8458681387","Dutchess",,,,"POINT (-73.704007 41.869783)"
"2292","TOWN OF ULYSSES","10 Elm Street",,"Trumansburg","NY","14886","6075927904","Tompkins",,,,"POINT (-76.661089 42.541062)"
"2165","CITY OF CORTLAND","25 Court Street",,"Cortland","NY","13045","6077588331","Cortland",,,,"POINT (-76.178366 42.599380000000004)"
"1664","TOWN OF REMSEN","10540 Academy Lane","P O Box 308","Remsen","NY","13438","3158312681","Oneida",,,,"POINT (-75.190556 43.333779)"
"2324","SLIPPERY SINKER","5780 West Main Street",,"Olcott","NY","14028","716-778-0713","Niagara",,,,"POINT (-78.71983 43.336268)"
"2688","MOORES OUTBOARD CENTER","3052 Dubois Rd",,"Ithaca","NY","14850","6073510631","Tompkins",,,,"POINT (-76.550463 42.483274)"
"3924","EAST DURHAM HARDWARE","2373 Route 145",,"East Durham","NY","12405","518-622-8038","Greene",,,,"POINT (-74.090342 42.370672)"
"1322","TOWN OF SPAFFORD","1984 Rt#174",,"Skaneateles","NY","13152","3156369542","Onondaga",,,,"POINT (-76.338597 42.86718)"
"1903","TOWN OF DIX","304 Seventh Street",,"Watkins Glen","NY","14891","6075354777","Schuyler",,,,"POINT (-76.868436 42.379734)"
"1574","TOWN OF OTSEGO","811 County Highway 26","P O Box 183","Fly Creek","NY","13337","6075475786","Otsego",,,,"POINT (-74.982592 42.716342)"
"2517","COUNTY OF RICHMOND","130 Stuyvesant Place",,"Staten Island","NY","10308","7186758910","Richmond",,,,"POINT (-74.076886 40.642933)"
"1441","TOWN OF FALLSBURG","19 Railroad Plaza","P O Box 830","South Fallsburg","NY","12779","8454343093","Sullivan",,,,"POINT (-74.629099 41.70728)"
"1221","TOWN OF GHENT","2306 Route 66","P O Box 98","Ghent","NY","12075","5187554740","Columbia",,,,
"3737","DICK'S SPORTING GOODS, INC # 1060","6070 Jericho Turnpike",,"Commack","NY","11725","6314560610","Suffolk",,,,"POINT (-73.30419 40.841766)"
"1831","TOWN OF BIG FLATS","476 Maple Street",,"Big Flats","NY","14845",,"Chemung",,,,"POINT (-76.934186 42.141073)"
"2568","TOWN OF SOMERS","335 Route 202",,"Somers","NY","10540","9142487760","Westchester",,,,"POINT (-73.685134 41.328456)"
"1430","OAK ORCHARD TACKLE & LODGE  INC.","1764 Oak Orchard Road",,"Albion","NY","14411","5856824546","Orleans",,,,"POINT (-78.19084 43.327567)"
"1326","WAL-MART STORES INC. 001326","341 Rt. 104 East",,"Oswego","NY","13126","3158060478","Oswego",,,,
"1004","NEW YORK STATE DEPARTMENT OF ENVIRONMENTAL CONSERVATION","625 Broadway",,"Albany","NY","12233",,"Albany",,,,"POINT (-73.749302 42.652548)"
"4012","Take it to the Bank Guns","370 Mariaville Rd.",,"Schenectady","NY","12306","518-930-0050","Schenectady",,,,"POINT (-73.98197 42.790495)"
"1381","TOWN OF LINCOLN","6886 Tuttle Road",,"Canastota","NY","13032","3156978837","Madison",,,,"POINT (-75.716716 43.044192)"
"2269","WAL-MART STORES INC. 002269","891 Route 9",,"Queensbury","NY","12804","5188127578","Warren",,,,"POINT (-73.678835 43.335018)"
"3593","DICK'S SPORTING GOODS #690","1 Maple Avenue",,"White Plains","NY","10605","914-328-3487","Westchester",,,,"POINT (-73.759287 41.029451)"
"1745","TOWN OF NANTICOKE","755 Cherry Valley Road",,"Glen Aubrey","NY","13777","6076924041","Broome",,,,"POINT (-76.008655 42.286283)"
"1642","TOWN OF OSWEGATCHIE","51 State Street","P.O. Box 134","Heuvelton","NY","13654","3153441262","St Lawrence",,,,"POINT (-75.408828 44.619032)"
"1633","WAL-MART STORES, INC. 001633","6438 Baisel Rowe",,"East Syracuse","NY","13057","3156991573","Onondaga",,,,
"1343","WAL-MART SUPERCENTER","4828 Lake Road South",,"Brockport","NY","14411","5852020719","Monroe",,,,"POINT (-77.943904 43.195251)"
"1134","DICK'S SPORTING GOODS, INC. #22","3065 Route 50",,"Saratoga Springs","NY","12866","6105043663","Saratoga",,,,"POINT (-73.741108 43.105128)"
"1969","TOWN OF STUYVESANT","5 Sunset Drive","P O Box 250","Stuyvesant","NY","12173","5187586012","Columbia",,,,"POINT (-73.776988 42.386098)"
"2384","NORTHERN DUTCHESS ARCHERY LLC","7375 South Broadway",,"Red Hook","NY","12572","8458760379","Dutchess",,,,"POINT (-73.880459 41.989788)"
"1260","TOWN OF NORTH GREENBUSH","2 Douglas Street",,"Wynantskill","NY","12198","518-283-4306","Rensselaer",,,,"POINT (-73.639601 42.696234)"
"1037","TOWN OF WEST SENECA","1250 Union Road",,"West Seneca","NY","14224","7168641172","Erie",,,,"POINT (-78.75386 42.835072)"
"1978","TOWN OF LEWIS","8574 US Route 9",,"Lewis","NY","12950","5188736777","Essex",,,,"POINT (-73.564831 44.276475)"
"1701","MANLIUS TRUE VALUE","8225 Cazenovia Road",,"Manlius","NY","13104","3156828907","Onondaga",,,,"POINT (-75.957501 42.992333)"
"3107","DICKS SPORTING GOODS # 262","620 Smithaven Mall",,"Lake Grove","NY","11775","6318364470","Suffolk",,,,"POINT (-73.132318 40.865834)"
"2073","TOWN OF MALONE","27 Airport Road",,"Malone","NY","12953","5184834740","Franklin",,,,"POINT (-74.327745 44.847714)"
"2759","WAL-MART STORES INC. 002759","311 Rt 9w",,"Glenmont","NY","12077","4132190422","Albany",,,,"POINT (-73.789653 42.608501)"
"1724","TOWN OF INDEPENDENCE","887 Marietta Avenue","P O Box 38","Whitesville","NY","14897","6073563654","Allegany",,,,"POINT (-77.768211 42.037028)"
"2010","TOWN OF POTTER","1226 Phelps Road",,"Middlesex","NY","14507","5855546758","Yates",,,,"POINT (-77.206972 42.704271)"
"1623","BLACK LAKE MARINE","3732 County Route 6",,"Hammond","NY","13646","3153758962","St Lawrence",,,,"POINT (-75.567412 44.545421)"
"3912","YOGI BEARS JELLYSTONE PARK","601 County Route 16",,"Mexico","NY","13114","3157668126","Oswego",,,,"POINT (-76.249669 43.497608)"
"3959","RUNNINGS #40","4828 Lake Road",,"Brockport","NY","14470","585-637-6791","Monroe",,,,"POINT (-77.943904 43.195251)"
"3964","164 MAIN STREET MARKET, INC","164 Main Street",,"Edwards","NY","13652","315-562-3307","St. Lawrence",,,,"POINT (-75.251192 44.32480600000001)"
"1875","TOWN OF HEMPSTEAD","1 Washington Street",,"Hempstead","NY","11550","5168123024","Nassau",,,,"POINT (-73.619919 40.705798)"
"1252","TOWN OF CAZENOVIA","7 Albany Street",,"Cazenovia","NY","13035","3156559213","Madison",,,,"POINT (-75.858635 42.929894)"
"1784","TOWN OF DICKINSON","531 Old Front Street",,"Binghamton","NY","13905","6077230302","Broome",,,,"POINT (-75.910312 42.119799)"
"2430","TOWN OF GRANVILLE","42 Main Street","P O Box 177","Granville","NY","12832","5189260548","Washington",,,,"POINT (-73.260403 43.407602)"
"2194","TOWN/VILLAGE OF HARRISON","One Heineman Place",,"Harrison","NY","10528","9144627706","Westchester",,,,
"2015","TOWN OF HUNTER","5748 Route 23A",,"Tannersville","NY","12485 0070","5185896822","Greene",,,,"POINT (-74.120727 42.195739)"
"1986","TOWN OF GILBOA","373 State Route 990V- Suite 1","P O Box 187","Gilboa","NY","12076","6075887536","Schoharie",,,,"POINT (-74.446584 42.397536)"
"1804","TOWN OF ALTONA","3124 Miner Farm Road","P O Box 79","Altona","NY","12910",,"Clinton",,,,"POINT (-73.654661 44.888389)"
"2390","TOWN OF WHITE CREEK","28 Mountain View Drive",,"Cambridge","NY","12816","5186775968","Washington",,,,"POINT (-73.37479600000002 43.021488000000005)"
"1546","TOWN OF PORTVILLE","1102 Olean-Portville Rd",,"Portville","NY","14770","5555555555","Cattaraugus",,,,"POINT (-78.357492 42.052784)"
"1367","TOWN OF MARLBOROUGH","21 Milton Turnpike","Suite 200","Milton","NY","12547",,"Ulster",,,,"POINT (-73.960171 41.65976)"
"3863","CATSKILL FLY FISHING ADVENTURES DBA SALMON RIVER OUTFITTERS","44 Bridge Street",,"Altmar","NY","13302","201-650-5682","Oswego",,,,"POINT (-76.00185 43.51116)"
"1961","TOWN OF YORKTOWN","363 Underhill Avenue",,"Yorktown Heights","NY","10598","9149625577","Westchester",,,,"POINT (-73.782286 41.269066)"
"1305","TOWN OF ROTTERDAM","1100 Sunrise Blvd.",,"Rotterdam","NY","12306","5184284240","Schenectady",,,,"POINT (-73.974087 42.786159)"
"1189","TOWN OF NEW LEBANON","14755 Route 22 North","P O Box 328","New Lebanon","NY","12125","5187948853","Columbia",,,,
"2220","TOWN OF PHILIPSTOWN","238 Main Street","P O Box 155","Cold Spring","NY","10516","8452652749","Putnam",,,,"POINT (-73.950605 41.422762)"
"3292","NYSDEC REGION 5 RAYBROOK","1115 Nys Route 86",,"Ray Brook","NY","12977","5188971213","Essex",,,,"POINT (-74.079829 44.29976800000001)"
"2117","WAL-MART STORES INC. 002117","1869 Plaza Drive",,"Olean","NY","14042","7168642122","Cattaraugus",,,,"POINT (-78.468111 42.079813)"
"1917","TOWN OF COLTON","94 Main Street",,"Colton","NY","13687","3152623102","St Lawrence",,,,"POINT (-74.938655 44.553484)"
"1762","TOWN OF HOPKINTON","7 Church Street",,"Hopkinton","NY","12965","3153284187","St Lawrence",,,,"POINT (-74.704158 44.690603)"
"2424","PRO LINE ARCHERY LANES INC","95-11 101st Avenue",,"Ozone Park","NY","11001","7188459280","Nassau",,,,"POINT (-73.845367 40.684443)"
"1486","TOWN OF RUSSIA","8916 North Main Street",,"Poland","NY","13431","3158263432","Herkimer",,,,"POINT (-75.065813 43.228642)"
"1203","TOWN OF GREECE","1 Vince Tofany Blvd.",,"Greece","NY","14612","5857232389","Monroe",,,,"POINT (-77.698848 43.257736)"
"3880","BUCKS & BOLTS LLC","2442 State Route 49",,"Blossvale","NY","13308","3158204212","Oneida",,,,"POINT (-75.725119 43.23193)"
"2691","FORTUNE'S HARDWARE INC","66 Main St",,"Tupper Lake","NY","12986","5183597817","Franklin",,,,"POINT (-74.479113 44.240422)"
"1509","WAL-MART STORES INC. 001509","5735 S Transit Rd",,"Lockport","NY","14094","7167151028","Niagara",,,,"POINT (-78.696899 43.147051)"
"2128","TOWN OF MOUNT PLEASANT","One Town Hall Plaza",,"Valhalla","NY","10545","9147422311","Westchester",,,,
"1815","TOWN OF BUTLER","4576 Butler-Center Road",,"Wolcott","NY","14590","3155942719","Wayne",,,,"POINT (-76.770144 43.17121300000001)"
"2476","COUNTY OF MONROE","39 West Main Street Room 101",,"Rochester","NY","14611","5857531640","Monroe",,,,"POINT (-77.613698 43.155455)"
"1671","TOWN OF LITCHFIELD","1241 Albany Road",,"Clayville","NY","13322","3157370554","Herkimer",,,,"POINT (-75.188293 42.98316)"
"3932","NYS OPRHP- Allegany State Park","2373 Allehgany State Park Rt 1,  Ste #3",,"Salamanca","NY","14004","716/354-9101  x238","Cattaraugus",,,,
"2232","JOHNSON'S COUNTRY STORE","6221 Robinson Road",,"Lockport","NY","14094","7166256186","Niagara",,,,"POINT (-78.69505100000002 43.132362)"
"2249","TOWN OF FORESTBURGH","332 King Road","P O Box 114","Forestburgh","NY","12777","8457943188","Sullivan",,,,"POINT (-74.750145 41.540813)"
"1290","TOWN OF MARCELLUS","24 East Main Street",,"Marcellus","NY","13110","3156368063","Oneida",,,,"POINT (-76.33882300000002 42.982498)"
"1232","TOWN OF SAVANNAH","1564 North Main Street","P O Box 296","Savannah","NY","13146","3158790012","Wayne",,,,"POINT (-76.760174 43.06709)"
"2822","HUNTER MOUNTAIN SKI BOWL, INC","Main St Route 23a",,"Hunter","NY","12442","5187557775","Greene",,,,
"2157","WAL-MART STORES INC. 002157","5054 State Highway 23",,"Oneonta","NY","13849","6073692430","Otsego",,,,"POINT (-75.039669 42.448891)"
"1080","TOWN OF PERRY","22 South Main Street","P O Box 205","Perry","NY","14427","5854028042","Wyoming",,,,"POINT (-78.052808 42.630373)"
"1776","TOWN OF STAFFORD","8903 Route 237",,"Stafford","NY","14422","5853441554","Genesee",,,,"POINT (-78.073488 42.983176)"
"2061","TOWN OF HUNTINGTON","100 Main Street Room 102",,"Huntington","NY","11786","6076171801","Suffolk",,,,"POINT (-73.41942000000002 40.87439)"
"1822","TOWN OF PITCHER","156 Pitcher Springs Road",,"Pitcher","NY","13136","6078633621","Chenango",,,,"POINT (-75.83602 42.594686)"
"2578","ST. REGIS MOHAWK TRIBE","412 State Route 37",,"Hogansburg","NY","13655","5185210730","Franklin",,,,"POINT (-74.685276 44.978615000000005)"
"1860","TOWN OF WINDSOR","124 Main Street",,"Windsor","NY","13865","6076552023","Broome",,,,"POINT (-75.639832 42.078003)"
"2273","TOWN OF GOSHEN","41 Webster Avenue","P O Box 217","Goshen","NY","10924","8452946956","Orange",,,,"POINT (-74.323324 41.40265)"
"2033","TOWN OF CATON","11161 Hendy Hollow Road",,"Corning","NY","14830","6079364084","Steuben",,,,"POINT (-77.02656 42.055903)"
"1102","TOWN OF CLYMER","595 Freeman Street","P O Box 58","Clymer","NY","14724","7163552230","Chautauqua",,,,"POINT (-79.629042 42.023166)"
"1950","TOWN OF STAMFORD","101 Maple Avenue","P O Box M","Hobart","NY","13788","6075389421","Delaware",,,,"POINT (-74.668019 42.369521)"
"2706","DELAWARE VALLEY FARM&GARDEN CENTER INC","30 Viaduct Rd",,"Callicoon","NY","12723","845-887-5100","Sullivan",,,,"POINT (-75.053054 41.76295900000001)"
"1426","TOWN OF PETERSBURGH","65 Main Street","P O Box 125","Petersburgh","NY","12138 0125","5186580073","Rensselaer",,,,"POINT (-73.341857 42.750595)"
"1020","TOWN OF CLARENCE","1 Town Place",,"Clarence","NY","14031","7167598480","Erie",,,,"POINT (-78.64185100000002 42.994817)"
"2911","S & R BAIT & TACKLE","4423 Culver Rd",,"Rochester","NY","14612","5852253672","Monroe",,,,"POINT (-77.545865 43.229458)"
"2296","TOWN OF SCOTT","6689 State Rt 41",,"Homer","NY","13077","6077492902","Cortland",,,,"POINT (-76.243663 42.730195)"
"2051","TOWN OF DELHI","5 Elm Street",,"Delhi","NY","13753","6077463737","Delaware",,,,"POINT (-74.920681 42.272588)"
"1402","TOWN OF BOONVILLE","13149 State Route 12",,"Boonville","NY","13309","3159422034","Oneida",,,,"POINT (-75.314956 43.475642)"
"3897","SOUTH BAY BOAT & TACKLE LLC","1350 Empire Blvd",,"Rochester","NY","14609","5856900172","Monroe",,,,"POINT (-77.522321 43.175576)"
"3982","DOMINICS HARDWARE","5195 St. Rt. 11",,"Ellenburg Depot","NY","12923","518-594-3922","Clinton",,,,"POINT (-73.809043 44.90223)"
"1239","TOWN OF EAST ROCHESTER","317 Main Street",,"East Rochester","NY","14445","5853810127","Monroe",,,,"POINT (-77.485268 43.112524)"
"2054","TOWN OF LEXINGTON","3542 Route 42","P O Box 30","Lexington","NY","12452","5189896476","Greene",,,,"POINT (-74.380105 42.245247000000006)"
"2329","TOWN OF SOUTHEAST","1 Main Street",,"Brewster","NY","10509","8452784458","Putnam",,,,"POINT (-73.619301 41.394581)"
"1606","TOWN OF MARTINSBURG","5405 Cemetery Road","P O Box 8","Martinsburg","NY","13404","3153766263","Lewis",,,,
"2479","ROY'S MARINA INC.","4398 Clarks Point",,"Geneva","NY","14456","3155211930","Ontario",,,,"POINT (-76.975882 42.81321)"
"1155","CITY OF BATAVIA","10 West Main Street",,"Batavia","NY","14020","5853438194","Genesee",,,,"POINT (-78.187752 42.998164)"
"1467","TOWN OF MURRAY","3840 Fancher Road",,"Holley","NY","14470","5855901046","Orleans",,,,"POINT (-78.085746 43.228808)"
"2451","TOWN OF CARMEL","60 Mcalpin Ave",,"Mahopac","NY","10541","8456212540","Putnam",,,,"POINT (-73.724144 41.37727)"
"4014","Sportsmans Warehouse #604","830 County Rte 64",,"Elmira","NY","14903","607-739-8190","Chemung",,,,
"2102","TOWN OF HARTWICK","103 Town Drive",,"Hartwick","NY","13348","6072938123","Otsego",,,,"POINT (-75.044228 42.660054)"
"1599","TOWN OF PITTSFIELD","175 State Highway 80",,"New Berlin","NY","13411","6078479885","Chenango",,,,"POINT (-75.318661 42.6275)"
"3988","MATTISON'S SPORT SHOP","9869 St. Rt. 4",,"Whitehall","NY","12887","518/499-0461","Washington",,,,"POINT (-73.409281 43.538761)"
"1376","TOWN OF CAROGA","1840 State Highway #10","P O Box 328","Caroga Lake","NY","12032","518-835-4211","Fulton",,,,"POINT (-74.486325 43.155194)"
"3513","WAL-MART STORES INC. 003513","441 Commerce Drive",,"Victor","NY","14469","5854781614","Ontario",,,,"POINT (-77.436739 43.018047)"
"1447","TOWN OF WEST TURIN","5727 West Main Street",,"Constableville","NY","13325","3153972723","Lewis",,,,"POINT (-75.439775 43.563061)"
"2526","TOWN OF EAGLE","3378 School St.","P.O. Box 67","Bliss","NY","14024","5853229257","Wyoming",,,,"POINT (-78.256591 42.578896)"
"1082","TOWN OF GORHAM","4736 South Street","P O Box 224","Gorham","NY","14464","5853943499","Ontario",,,,
"2833","INTERLAKEN GUNS & AMMO","8268 Main Street",,"Interlaken","NY","14847","6075324750","Seneca",,,,"POINT (-76.725169 42.623981)"
"1106","TOWN OF OAKFIELD","3219 Drake Rd",,"Oakfield","NY","14125","5859485929","Genesee",,,,"POINT (-78.263578 43.066058)"
"1295","TOWN OF SALINA","201 School Road",,"Liverpool","NY","13088","3154575092","Onondaga",,,,"POINT (-76.183534 43.086879)"
"2007","TOWN OF SPARTA","8824 Rt 256",,"Dansville","NY","14437","5853353570","Livingston",,,,"POINT (-77.698665 42.595812)"
"1270","DICK'S SPORTING GOODS #689","3434 Amelia Drive","Quaker Crossing","Orchard Park","NY","14127","7164807898","Erie",,,,"POINT (-78.782148 42.791097)"
"2189","TOWN OF WOODSTOCK","45 Comeau Drive",,"Woodstock","NY","12489","8456796128","Ulster",,,,
"1277","TOWN OF PALMYRA","1180 Canandaigua Road",,"Palmyra","NY","14522","3155970011","Wayne",,,,"POINT (-77.233443 43.052121)"
"1471","TOWN OF PENDLETON","6570 Campbell Blvd.",,"Lockport","NY","14094","7166258333","Niagara",,,,"POINT (-78.773072 43.107017)"
"3943","DICK'S SPORTING GOODS #1406","7325 Woodhaven Blvd",,"Glendale","NY","11385",,"Queens",,,,"POINT (-73.85938100000001 40.710034)"
"3939","2nd AMENDMENT ARMS","234 Burrell Rd",,"Little Falls","NY","13365","315-823-3376","Herkimer",,,,"POINT (-74.848393 43.056483)"
"1645","TOWN OF MORRISTOWN","604 Main Street",,"Morristown","NY","13664","3158544067","St Lawrence",,,,"POINT (-75.64654400000002 44.584354)"
"1018","TOWN OF BRANT","1294 Brant-North Collins Road",,"Brant","NY","14027","7165495679","Erie",,,,
"2780","CHAPMAN'S SPORT SHOP","2420 Co.Rte.6",,"Hammond","NY","13646","3153245265","St Lawrence",,,,
"1869","ANDOVER HARDWARE AND HOME CENTER","7 East Chestnut",,"Andover","NY","14806","6074788556","Allegany",,,,"POINT (-77.792735 42.154563)"
"1541","TOWN OF LITTLE VALLEY","201 Third Street",,"Little Valley","NY","14755","7168011200","Cattaraugus",,,,"POINT (-78.796446 42.249695)"
"2066","TOWN OF KENT","25 Sybil'S Crossing",,"Kent Lakes","NY","10512","8452252067","Putnam",,,,"POINT (-73.670474 41.479969000000004)"
"1741","TOWN OF HARDENBURGH","51 Rider Hollow Road",,"Arkville","NY","12455","8455862054","Ulster",,,,"POINT (-74.549473 42.110238)"
"2255","TOWN OF DRYDEN","93 East Main Street",,"Dryden","NY","13053","6073518387","Tompkins",,,,"POINT (-76.290816 42.490779)"
"3994","BOB's Bait LLC","4723 ROUTE 9N",,"CORINTH","NY","12822","5186549391","SARATOGA",,,,"POINT (-73.852973 43.220058)"
"1680","TOWN OF BEDFORD","321 Bedford Road",,"Bedford Hills","NY","10507","9148641666","Westchester",,,,"POINT (-73.699337 41.23929)"
"1210","CITY OF RENSSELAER","62 -Washington St",,"Rensselaer","NY","12144","5182863719","Rensselaer",,,,"POINT (-73.74538 42.638798)"
"1479","TOWN OF HIGHLAND","4 Proctor Road","P O Box 138","Eldred","NY","12792","8457011330","Sullivan",,,,"POINT (-74.884002 41.526814)"
"3351","WAL-MART SUPERCENTER 003351","7494 Us Highway 11",,"Potsdam","NY","13668","3152626400","St Lawrence",,,,"POINT (-75.028954 44.66452)"
"1695","WOODY'S TACKLE AND GENERAL STORE,INC","7402 State Route #3",,"Pulaski","NY","13142","3155094148","Oswego",,,,"POINT (-76.187778 43.565969)"
"1856","TOWN OF SMYRNA","1893 State Hwy 80",,"Smyrna","NY","13464",,"Chenango",,,,"POINT (-75.586862 42.691828)"
"2445","TOWN OF PHARSALIA","945 County Route 10","P O Box 63","East Pharsalia","NY","13758","6076475604","Chenango",,,,"POINT (-75.189199 42.526451)"
"2214","TOWN OF MINERVA","56 Donnelly Road",,"Olmstedville","NY","12857","5182512832","Essex",,,,"POINT (-73.92666600000001 43.773698)"
"1513","TOWN OF POUGHKEEPSIE","1 Overocker Rd",,"Poughkeepsie","NY","12603","8454854758","Dutchess",,,,"POINT (-73.88896 41.69306)"
"3859","CHUCKS MARKET","84 Atkinson Rd",,"Harrisvile","NY","13648","315-486-0048","Lewis",,,,"POINT (-75.306085 44.164770000000004)"
"3974","POIRIERS TRUE VALUE","9592 Rt. 9",,"Chazy","NY","12959","518-298-3667","Clinton",,,,
"1956","TOWN OF NEW LISBON","829 County Highway 16",,"Garrattsville","NY","13342","6079658508","Otsego",,,,"POINT (-75.171345 42.646478)"
"3976","CHESTER PUBLIC LIBRARY","1784 Kings Highway",,"Chester","NY","12721","845-469-4252","Orange",,,,"POINT (-74.276037 41.339862)"
"1798","TOWN OF PRATTSBURGH","19 North Main Street","P O Box 427","Prattsburgh","NY","14873","6075223761","Steuben",,,,"POINT (-77.288008 42.524042)"
"2351","TOWN OF NEW WINDSOR","555 Union Avenue",,"New Windsor","NY","12553","8455634613","Orange",,,,"POINT (-74.062645 41.483156)"
"1033","TOWN OF ORCHARD PARK","4295 South Buffalo Street",,"Orchard Park","NY","14127","7166621995","Erie",,,,"POINT (-78.743868 42.76585)"
"2107","TOWN OF HALCOTT","264 Route 3",,"Halcott Center","NY","12430","8452544833","Greene",,,,"POINT (-74.485947 42.191116)"
"1477","TOWN OF FISHKILL","807 Route 52",,"Fishkill","NY","12508","8458311222","Dutchess",,,,"POINT (-73.921773 41.525636)"
"4019","RUNNINGS #45","5789 So. Transit Road",,"LOCKPORT","NY","14094","716-513-9002","NIAGARA",,,,"POINT (-78.696899 43.144129)"
"2047","TOWN OF TICONDEROGA","132 Montcalm Street","P O Box 471","Ticonderoga","NY","12883","5185857384","Essex",,,,"POINT (-73.422336 43.848722)"
"3872","BLUE TUNA GUNSMITHING LLC","870 Ontario Street",,"Kenmore","NY","14217","716-570-6799","Erie",,,,"POINT (-78.889154 42.9654)"
"1976","VILLAGE OF MALONE","343 W. Main Street",,"Malone","NY","12953","5183531346","Franklin",,,,"POINT (-74.296154 44.848778)"
"2701","S&S TAXIDERMY","455 So. Cascade Dr",,"Springville","NY","14141","7165922404","Erie",,,,"POINT (-78.691118 42.497022)"
"1909","TOWN OF BEEKMANTOWN","571 Spellman Road",,"West Chazy","NY","12992","5185636253","Clinton",,,,"POINT (-73.483254 44.775855)"
"3978","CATSKILL INTERPRETIVE CENTER","5096 St. Rt. 28",,"Mount Tremper","NY","12414","8456883369","Ulster",,,,
"1244","TOWN OF NELSON","4085 Nelson Road",,"Cazenovia","NY","13035","3156552846","Madison",,,,"POINT (-75.776738 42.921011)"
"1894","TOWN OF BARRINGTON","4424 Old Bath Road",,"Penn Yan","NY","14527","6072435323","Yates",,,,"POINT (-77.056391 42.5513)"
"2825","C&S BAIT & TACKLE PLUS","4676 State Rte 3",,"Saranac","NY","12981","5182937218","Clinton",,,,"POINT (-73.824147 44.598192)"
"2285","TOWN OF BRADFORD","7625 Route 20",,"Bradford","NY","14815","6077429385","Steuben",,,,
"1013","CITY OF TONAWANDA","200 Niagara St",,"Tonawanda","NY","14150-1099","7166951800","Erie",,,,"POINT (-78.886515 43.018798)"
"2087","TOWN OF FORT ANN","80 George Street",,"Fort Ann","NY","12827 0314","5187938341","Washington",,,,"POINT (-73.487681 43.414944)"
"1112","TOWN OF ALEXANDER","3350 Church Street",,"Alexander","NY","14005","585-591-2455","Genesee",,,,"POINT (-78.259371 42.902585)"
"1268","TOWN OF GERRY","4519 Route 60","P O Box 15","Gerry","NY","14740 0015","7169625916","Chautauqua",,,,"POINT (-79.249718 42.194224)"
"3474","BELSTEN HARDWARE AND SUPPLY, INC.","10 Wallace Street","Po Box 866","Otisville","NY","12729","8457548782","Orange",,,,"POINT (-74.538067 41.473921)"
"2490","TOWN OF CARLTON","14341 Waterport Carlton Rd",,"Albion","NY","14477","5856824406","Orleans",,,,"POINT (-78.192526 43.323185)"
"3871","MAKEN FRENZ PLUS BAIT N TACKLE SHOP","1679 Water Street",,"Deruyter","NY","13052","315-852-9710","Madison",,,,"POINT (-75.885012 42.759265)"
"1565","TOWN OF RUSHFORD","8999 Main Street",,"Rushford","NY","14777","5854372023","Allegany",,,,"POINT (-78.250874 42.392332)"
"2608","CAYUGA NATION","66 Genesee Street",,"Auburn","NY","13148","7169981422","Cayuga",,,,"POINT (-76.56575 42.931967)"
"1451","TOWN OF BRIDGEWATER","404 State Route 8","P O Box 370","Bridgewater","NY","13313","3158224000","Oneida",,,,
"1652","TOWN OF ASHFORD","9377 Route 240","P O Box 306","West Valley","NY","14171","7169426746","Cattaraugus",,,,"POINT (-78.612275 42.406822)"
"1850","WHITETAIL LLC","1102 West State Street",,"Olean","NY","14760",,"Cattaraugus",,,,"POINT (-78.442447 42.077408000000005)"
"1887","THE COUNTRY STORE","5869-A  State Highway 56",,"Hannawa Falls","NY","13647","3152656391","St Lawrence",,,,"POINT (-74.970608 44.612434)"
"1908","TOWN OF NORTH HEMPSTEAD","200 Plandome Road","P O Box 3000","Manhasset","NY","11030","5168690922","Nassau",,,,"POINT (-73.698802 40.79505300000001)"
"1229","TOWN OF ORANGEVILLE","3529 Rt 20a",,"Warsaw","NY","14569","5857868394","Wyoming",,,,
"1734","TOWN OF BINGHAMTON","279 Park Avenue",,"Binghamton","NY","13903","6077720357","Broome",,,,"POINT (-75.911728 42.068463)"
"1074","TOWN OF YORK","2668 Main Street","P O Box 187","York","NY","14533","5852982162","Livingston",,,,
"2302","LIBERTY HOME GARDEN & PET  INC","11 Bonjovi Lane",,"Liberty","NY","12758","8452927989","Sullivan",,,,"POINT (-74.748978 41.796999)"
"2279","TOWN OF WALLKILL","99 Tower Dr","Bldg A","Middletown","NY","10941","845-692-7826","Orange",,,,"POINT (-74.372601 41.467697)"
"3999","STELLA'S STYLES GENERAL STORE","28 No. MAIN STREET",,"DOLGEVILLE","NY","13329","315/868-0894","HERKIMER",,,,"POINT (-75.335894 43.484414)"
"2524","TOWN OF ROSENDALE","1915 Lucas Ave","P O Box 423","Cottekill","NY","12419","8457508912","Ulster",,,,
"2261","TOWN OF CANDOR","101 Owego Road","P O Box 6","Candor","NY","13811","6076595389","Tioga",,,,
"1360","TOWN OF GREEN ISLAND","69 Hudson Avenue",,"Green Island","NY","12183","518-273-0661","Albany",,,,"POINT (-73.691584 42.741673)"
"1684","FRANK'S SPORT SHOP, INC.","430 E Tremont Ave",,"Bronx","NY","10591","7184664222","Bronx",,,,"POINT (-73.899933 40.847493)"
"1333","TOWN OF LEWISTON","1375 Ridge Road","P O Box 330","Lewiston","NY","14092","7167548118","Niagara",,,,"POINT (-78.984222 43.178676)"
"1928","TOWN OF HARTSVILLE","5150 Purdy Creek Road",,"Hornell","NY","14843","6076984940","Steuben",,,,"POINT (-77.688907 42.250252)"
"1657","TOWN OF CONEWANGO","4762 Rt. 241",,"Conewango Valley","NY","14726","7163589466","Cattaraugus",,,,"POINT (-79.000241 42.206948)"
"3350","CONVENIENCE EXPRESS STORES INC.","49 Court Street Po Box 5306",,"Binghamton","NY","13902","3156762693","Broome",,,,"POINT (-75.913167 42.098705)"
"1162","DICK'S SPORTING GOODS INC #4","4081 Rt.31 Great Northern Mall",,"Clay","NY","13090","3156220051","Onondaga",,,,
"3930","YOUNG'S GENERAL CORP","150 Central Ave",,"Ilion","NY","13357","315-444-9081","Herkimer",,,,"POINT (-75.03256 43.018821)"
"1522","TOWN OF BROOKFIELD","10535 Main Street","P O Box 83","Brookfield","NY","13314","3155071631","Madison",,,,
"1820","TOWN OF NORTH NORWICH","188 County Road 23","P O Box 104","North Norwich","NY","13814","6076742269","Chenango",,,,"POINT (-75.527549 42.618396)"
"2397","WAL-MART STORES, INC. 002397","1320 Altamont Avenue",,"Rotterdam","NY","12303","518248-4746","Schenectady",,,,"POINT (-73.942505 42.786474)"
"1793","TOWN OF COHOCTON","19 Main St.","P.O. Box 200","Atlanta","NY","14808","5859057484","Steuben",,,,"POINT (-77.477414 42.553278)"
"1141","TOWN OF CATSKILL","439 Main Street",,"Catskill","NY","12414","5182093121","Greene",,,,"POINT (-73.866254 42.22111400000001)"
