"schoolid","county","agency","streetaddress1","streetaddress2","city","state","zip","fireams_training","georeference"
"10498","Albany","NYS Dept of Health","NYS Department of Health",,"Albany","NY","12201","no",
"391475","Otsego","Otsego County Law Enforcement Academy","University Police Department",,"Oneonta","NY","13820","no",
"692050",,"GMCS, Inc.","25 Wentworth Drive",,"Williston","VT","5495","no","POINT (-73.114453 44.475892)"
"310370","Westchester","Elite Investigations, Ltd.","2001 Central Park Ave",,"Yonkers","NY","10710","no","POINT (-73.83726 40.968429)"
"601370","Westchester","Security Guard Training Academy","138 Oak Street",,"Yonkers","NY","10701","yes","POINT (-73.890749 40.930369)"
"602178","Westchester","Eagle Eye Security Solutions","342 Warburton Avenue",,"Yonkers","NY","10702","no","POINT (-73.896615 40.947408)"
"600802","Westchester","HAS UWC Belvedere","723 South Broadway",,"Tarrytown","NY","10591","no","POINT (-73.860933 41.053152)"
"600751","Westchester","Greenrock Corporation","c/o Green Rock Corp.",,"Tarrytown","NY","10591","no",
"410445",,"Corporate Loss Prevention Associates, Inc","Cargo Building 151",,"Jamiaca","NY","11758","no",
"241270","Westchester","Security Science Institute","1841 Central Park Ave",,"Yonkers","NY","10710","no","POINT (-73.840227 40.96208)"
"600338","Westchester","New York Power Authority","123 Main Street",,"White Plains","NY","10601","no","POINT (-73.769148 41.032172)"
"600152","Westchester","NJB Security Services Inc.","35 E. Grassy Sprain Rd",,"Yonkers","NY","10710","no","POINT (-73.851201 40.954117)"
"601204","Westchester","Westhab Security Guard Training Institute","123 East Post Rd",,"White Plains","NY","10601","no","POINT (-73.7663 41.028504)"
"600440","Westchester","Gold Shield Training Center","4 South Sixth Ave.",,"Mount  Vernon","NY","10550","yes","POINT (-73.838905 40.911071)"
"601282","Westchester","SSC Training Services","480 Bedford Rd",,"Chappaqua","CT","6484","no","POINT (-73.750676 41.177688)"
"601888","Westchester","New York Medical College","Administration Building Basic Sciences - Security",,"Valhalla","NY","10595","no",
"601988","Westchester","Professional Protection Security Svcs Corp","7 Columbus Ave",,"Tuckahoe","NY","10707","no","POINT (-73.827396 40.950777)"
"602220","Westchester","Top of The Line Security Training Inc.","62 Pine St.",,"Yonkers","NY","10701","no","POINT (-73.894472 40.946878)"
"520538",,"State Security Consultants","321 Fox Chase Ct.",,"Marvin","NC","28173","no","POINT (-80.819864 35.014323)"
"432223","Westchester","Westchester Rickland SG Trng School","49 Clayton Blvd",,"Baldwin Place","NY","10505","no","POINT (-73.758637 41.341785)"
"602146","Westchester","GLL Unlimited Security Service","618 Saw Mill River Road",,"Yonkers","NY","10705","no","POINT (-73.87098 40.956149)"
"122046","Cortland","SUNY Cortland","SUNY Cortland",,"Cortland","NY","13045","no",
"432307","Rockland","Rockland Indoor Shooting & Education","100 North Middletown Road",,"PEARL RIVER","NY","10956","yes","POINT (-74.012803 41.06332)"
"31742","Kings","The Doe Fund Inc.","89-111 Porter Ave. Rm # 1",,"Brooklyn","NY","11237","no","POINT (-73.92894 40.707904)"
"171725","Franklin","Paul Smith's College of Arts and Science","7777 State Rte 30",,"Paul Smiths","NY","12970-0265","no","POINT (-74.245054 44.435637)"
"420291","Rensselaer","RPI Dept. of Public Safety","RPI Public Safety Dept.",,"Troy","NY","12180","no",
"412183","Queens","Supreme Academy Security","1931 Mott Avenue Rm 405",,"Far Rockaway","NY","11691","no","POINT (-73.75254 40.604051)"
"310004","New York","NYU Langone Medical Ctr","NYU Security Dept",,"New York","NY","10016","no",
"310297","New York","John Jay College CUNY CJC","524 W. 59th St, BMW",,"New York","NY","10019","no","POINT (-73.989201 40.771087)"
"10008","Albany","Albany Medical Center","43 New Scotland Ave.",,"Albany","NY","12208","no","POINT (-73.774505 42.652821)"
"150689","Erie","Don's Security Services, Inc. (DSS)","3125 Walden Ave. Suite 1",,"Depew","NY","14043","yes","POINT (-78.70985 42.909865)"
"441050","Richmond","East Coast Detectives, Ltd.","740 Delafield Ave",,"Staten Island","NY","10310","no","POINT (-74.12344 40.629164)"
"521906","Suffolk","Polecat Security Testing, Ltd.","120 East 6th St, # 5",,"Deer Park","NY","11729","yes","POINT (-73.321836 40.757905)"
"282262","Monroe","The Security Guard Institute","200 W. Ridge Rd, Suite 450",,"Rochester","NY","14615","no","POINT (-77.632341 43.197045)"
"241618","Kings","ASA College.","151 Lawrence St",,"Brooklyn","NY","11201","no","POINT (-73.986288 40.691415)"
"310161","New York","Barnard Security Academy Barnard College","3009 Broadway",,"New York","NY","10027","no","POINT (-73.96362 40.808574)"
"330884","Oneida","Oneida BOCES Career & Tech Ed Ctr","Career & Technical Education Center",,"New Hartford","NY","13413","no",
"11685","Albany","K&S Security, LLC","87 James Street",,"Green Island","NY","12183","no","POINT (-73.693026 42.747822)"
"241136","Kings","CAMBA","2244 Church Ave",,"Brooklyn","NY","11226","no","POINT (-73.957093 40.650476)"
"310343","New York","New York University Dept of Public Safety","7 Washington Place",,"New York","NY","10003","no","POINT (-73.994658 40.729457)"
"492005","Schuyler","Watkins Glen International","2790 County Route 16",,"Watkins Glen","NY","14891","no","POINT (-76.925907 42.347212)"
"582207","Washington","Lloyd J Swartz Protection & Investigation","215 Perkins Drive Ext.",,"Hudson Falls","NY","12839","yes","POINT (-73.574 43.290019)"
"321327","Niagara","Niagara University Campus Safety","Niagara University Campus Safety",,"Niagara","NY","14109","no",
"301122","Nassau","Rockville Centre UFSD","Elmont Memorial HS",,"Elmont","NY","11570","no",
"511099","Steuben","Greater Southern Tier BOCES","9579 Vocational Drive",,"Painted Post","NY","14870","no","POINT (-77.135341 42.192874)"
"510798","Steuben","Corning Incorporated","1 River Front Plaza / MP-HQ-01-E03",,"Corning","NY","14831","no",
"62345","Cayuga","Auburn Community Hospital","17 Lansing St.  (Attn: Security)",,"Auburn","NY","13021","no","POINT (-76.56447 42.940766)"
"270910","Madison","Cazenovia College","22 Sullivan St., Campus Security",,"Cazenovia","NY","13035","no","POINT (-75.855218 42.932043)"
"411056","Queens","Vicado Guards Training School","148-07 Hillside Ave., 1st. Flr.",,"Jamaica","NY","11435","no","POINT (-73.808656 40.706097)"
"280948","Monroe","Intercept Security, Inc.","1900 Empire Blvd",,"Webster","NY","14580","no","POINT (-77.502944 43.191693)"
"280169","Monroe","Wilmorite Security, LLC","1265 Scottsville Rd",,"Rochester","NY","14624","no","POINT (-77.659316 43.117347)"
"521486","Suffolk","Longwood Senior High School","100 Longwood Rd",,"Middle Island","NY","11953","no","POINT (-72.926242 40.866102)"
"301970","Nassau","Cablevision Systems Corporation","1111 Stewart Avenue",,"Bethpage","NY","11714","no","POINT (-73.493718 40.76202)"
"30691","Bronx","School For Asset Protection","2804 Third Avenue",,"Bronx","NY","10455","no","POINT (-73.91887 40.815402)"
"522373","Suffolk","Wilson & Associates Security","1 Sheldon Way",,"Westhampton Beach","NY","11978","no",
"32348","Bronx","Anpu Security Services","3379 Capuchin Way",,"Bronx","NY","10467","no","POINT (-73.863761 40.874527)"
"342311","Onondaga","Public Service Leadership Academy","227 Magnolia Street",,"Syracuse","NY","13204","no","POINT (-76.174154 43.043584)"
"361628","Orange","Newburgh Free Academy","301 Robinson Ave # 202",,"Newburgh","NY","12550","no","POINT (-74.020242 41.511948)"
"412237","Queens","New York City Transit Consol Revenue Fac.","46-25 Metropolitan Avenue",,"Ridgewood","NY","11385","yes","POINT (-73.922945 40.713947)"
"570513","Warren","Glens Falls Hospital","100 Park St.",,"Glens Falls","NY","12801","no","POINT (-73.646299 43.307257)"
"312285","Bronx","NYC Hospital Police Academy","1400 Pelham Pkwy S",,"Bronx","NY","10461","no","POINT (-73.847249 40.857455)"
"31902","Bronx","Blackhawk Security School","2650 Morris Ave","Ste. 1","Bronx","NY","10468","no","POINT (-73.896564 40.86673)"
"310708","New York","Silver Screen Security Training School","c/o Eastern Security",,"New York","NY","10271","no",
"521833","Suffolk","Aegis Security & Patrol Inc.","1707 Old Country Rd",,"Riverhead","NY","11901","no","POINT (-72.701005 40.924531)"
"42349","Broome","UHS, Inc","10-42 Mitchell Ave",,"Binghamton","NY","13903","no","POINT (-75.914075 42.086413)"
"10149","Albany","St. Peter's Health Partners","315 South Manning Blvd.",,"Albany","NY","12208","no","POINT (-73.803815 42.657766)"
"301968","Nassau","BSI Security Training Inc","2946 Hempstead Tpke  Suite 201",,"Levittown","NY","11756","yes","POINT (-73.526665 40.724558)"
"461354","Saratoga","Saratoga Hospital","211 Church St.",,"Saratoga Springs","NY","12866","yes","POINT (-73.797121 43.084761)"
"232230","Jefferson","ICU Security & Private Investigations","34 Public Square Suite 6",,"Watertown","NY","13601","no","POINT (-75.909461 43.974454)"
"241205","Kings","High Tech Security Training Center","1266 Bedford Ave",,"Brooklyn","NY","11216","no","POINT (-73.953309 40.680338)"
"420019","Rensselaer","Hudson Valley Community College","80 Vandenburgh Ave",,"Troy","NY","12180","no","POINT (-73.687977 42.696283)"
"432165","Rockland","CJ Security Services Inc","143 Main Street 2nd Floor",,"Nanuet","NY","10954","no","POINT (-74.012777 41.09234)"
"300058","Nassau","Nassau Community College SG Trn Sch","1 Education Drive",,"East Garden City","NY","11530","no","POINT (-73.592524 40.729923)"
"280208","Monroe","Monroe Community College","1190 Scottsville Rd.",,"Rochester","NY","14624","no","POINT (-77.654486 43.119394)"
"302099","Nassau","Interstate Security & Investigation, Inc.","313 Post Ave",,"Westbury","NY","11590","no","POINT (-73.58786 40.760367)"
"720768","Baltimore","Special Response Corporation","14804 York Rd.",,"Sparks","MD","21152","no","POINT (-76.645416 39.529811)"
"531481","Sullivan","EEA Security Svces, Sec Guard Trn Ctr LLC","15 Sullivan Ave. Unit 4",,"Liberty","NY","12754","no","POINT (-74.728978 41.785629)"
"31729","Bronx","United Security Training Center","369 E. 149th St., 3rd Fl.",,"Bronx","NY","10455","no","POINT (-73.918788 40.816451)"
"152357","Erie","Final Stop Advanced Training Ctr","2180 Elmwood Ave",,"Buffalo","NY","14216","no","POINT (-78.878399 42.956482)"
"340113","Onondaga","Morris Protective Service Training School","1723 Burnet Ave.",,"Syracuse","NY","13206","no","POINT (-76.11199 43.056876)"
"522292","Suffolk","West Babylon School District","10 Farmingdale Rd",,"West Babylon","NY","11704","no","POINT (-73.344956 40.704345)"
"412201","Queens","S.C.I. Security Training LLC","39-05 63rd St",,"Woodside","NY","11377","no","POINT (-73.900915 40.746239)"
"280653","Monroe","Highland Hospital","1000 South Ave",,"Rochester","NY","14620","no","POINT (-77.607295 43.136451)"
"311907","New York","Global Security Group Inc.","421 7th Ave 4th Fl",,"New York","NY","10001","yes","POINT (-73.990996 40.750469)"
"341624","Onondaga","Security Innovations","157 Chaffee Avenue",,"Syracuse","NY","13207","yes","POINT (-76.155188 42.997628)"
,"Cayuga","Onondaga BOCES","1879 West Genesee Street Road",,"Auburn","NY","13021","no","POINT (-76.615842 42.917627)"
"411818","Queens","Continuum Security Consultants Inc","152 32 Rockaway Blvd, Ste # 200/201",,"Jamaica","NY","11434","no",
"140279","Dutchess","Vassar Brothers Medical Center","Security Department",,"Poughkeepsie","NY","12601","yes",
"310177","New York","T&M USA LLC","230 Park Ave., Ste. # 440",,"New York","NY","10169","no","POINT (-73.988371 40.73754)"
"32291","Bronx","DCW Training Academy","4563 White Plains Road",,"Bronx","NY","10470","no","POINT (-73.851763 40.901692)"
"312332","New York","ASNY Security","1441 Broadway",,"New York","NY","10018","no","POINT (-73.986695 40.754917)"
"282217","Monroe","Rochester Police Department","185 Exchange Blvd",,"Rochester","NY","14614","no","POINT (-77.611017 43.151726)"
"302327","Nassau","A & R Solutions","431 North Main St",,"Freeport","NY","11520","no","POINT (-73.58807 40.671038)"
"591642","Wayne","Marshall Farms Security","5800 Lake Bluff Road",,"North Rose","NY","14516","yes","POINT (-76.907459 43.215485)"
"242270","Queens","Norelia Professional Security Training","140-27 248th St.",,"Rosedale","NY","11422","no","POINT (-73.73443 40.662756)"
"471199","Schenectady","Ellis Medicine","1101 Nott St.",,"Schenectady","NY","12308","no","POINT (-73.917988 42.819574)"
"410049","Nassau","Summit Security Services, Inc.","390 RXR Plaza W Tower, Lobby Level",,"Uniondale","NY","11556","no",
"310934","New York","Rockefeller University","Rockefeller University",,"New York","NY","10021","no",
"200743","Greene","Ski Windham Operating Corp.","19 Resort Dr",,"Windham","NY","12496","no","POINT (-74.255668 42.299322)"
"312226","New York","Mount Sinai Beth Israel Medical Center","281 First Avenue",,"New York","NY","10003","no","POINT (-73.9816 40.732665)"
"242372","Kings","Castillo Security Guard Training, Ltd","511-74th St.",,"Brooklyn","NY","11209","no","POINT (-73.979578 40.685694)"
"442069","Richmond","Adequate Security Services, Inc.","78 Beach St",,"Staten Island","NY","10304","no","POINT (-74.078705 40.628401)"
"150942","Erie","Buffalo & Erie County Public Library","1 Lafayette Square",,"Buffalo","NY","14203","no","POINT (-78.87459 42.885805)"
"441933","Richmond","Neighborhood Change","871 Castleton Ave",,"Staten Island","NY","10310","no","POINT (-74.111488 40.634736)"
"281889","Monroe","C.I.S. Training Academy","4651 Babcock Street, NE suite 18-238",,"Palm Bay","FL","32905","yes","POINT (-80.621705 28.036803)"
"521517","Suffolk","Firearms Tactics & Trng Inc","427 W. Main Street, Ste 1",,"Patchogue","NY","11772","yes","POINT (-73.028385 40.761809)"
"381361","Onondaga","Chestnut Street Security, Inc.","221 Kinne St.",,"East Syracuse","NY","13057","no","POINT (-76.076848 43.068108)"
"80179","Chemung","Arnot Ogden Medical Center","600 Roe Avenue",,"Elmira","NY","14838","no","POINT (-76.826745 42.099234)"
"311596","New York","Classic Security Training School","318 West 39th Street, 8th Floor",,"New York","NY","10018","no","POINT (-73.992316 40.755808)"
"351353","Ontario","CAE Security Training","300 Pulteney St.",,"Geneva","NY","14456","no","POINT (-76.985317 42.859689)"
"241741","Kings","Public Safety Security Training Academy","864 East New York Ave",,"Brooklyn","NY","11203","no","POINT (-73.934143 40.662598)"
"521874","Suffolk","Eastern Suffolk BOCES","750 Waverly Ave",,"Holtsville","NY","11742","no","POINT (-73.043251 40.7922)"
"150087","Erie","Erie 1 BOCES","355 Harlem Rd.",,"West Seneca","NY","14224","no","POINT (-78.787875 42.851671)"
"241267","Kings","Pulson Security Training Institute","40 4th Ave,   Floor 1",,"Brooklyn","NY","11217","no","POINT (-73.979011 40.683496)"
"561602","Suffolk","Strategic Security Corp.","367 Veterans Memorial Highway",,"Commack","NY","11725","yes","POINT (-73.259719 40.832657)"
"241405","Kings","AWICS","962 East 3lst Street",,"Brooklyn","NY","11210-3832","no","POINT (-73.974452 40.627805)"
"242253","New York","New York Career Training & Advancement Inc","115 West 30th St",,"New York","NY","10001","no","POINT (-73.990628 40.747694)"
"551819","Tompkins","Ithaca College Public Safety","953 Danby Road",,"Ithaca","NY","14850","no","POINT (-76.501063 42.421687)"
"10780","Albany","Albany, Schoharie, Schenectady, Saratoga BOCES","900 Watervliet-Shaker",,"Albany","NY","12205","no","POINT (-73.823302 42.73884)"
"310591","New York","Times Square Alliance","1560 Broadway Ste 1001",,"New York","NY","10036","no","POINT (-73.985224 40.759016)"
"412040","Queens","Big Apple Learning Center","168-47 Hillside Avenue #2 Floor",,"Jamaica","NY","11432","no","POINT (-73.793196 40.710696)"
"142315","Dutchess","Hudson Valley Protection, LLC","7 Carolina Drive",,"Rhinebeck","NY","12572","no","POINT (-73.901738 41.919877)"
"302257","Nassau","SJR Security Consultants","2005 Merrick Road #323",,"Merrick","NY","11566","yes","POINT (-73.549594 40.656249)"
"390845","Otsego","National Baseball Hall of Fame & Museum Inc","25 Main Street",,"Cooperstown","NY","13326","no","POINT (-74.922882 42.700168)"
"340339","Onondaga","Syracuse University Dept of Public Safety","Dept. of Public Safety",,"Syracuse","NY","13244","no",
"310813","New York","International Protective Service Academy","481 8th Avenue",,"New York","NY","10001","no","POINT (-73.993188 40.752578)"
"11681","Albany","Keeplock Security Svcs","1019 DiBella Dr",,"Schenectady","NY","12303","yes","POINT (-73.931671 42.737133)"
"312274","New York","NYC Parks & Recreation","1234 Fifth Avenue Rm 223",,"New York","NY","10029","no","POINT (-73.951794 40.793349)"
"72261","Chautauqua","Cassadaga Job Corps Academy","8115 Glasgow Road",,"Cassadaga","NY","14718","no","POINT (-79.330071 42.352595)"
"451619","St. Lawrence","Clarkson University","10 Clarkson Avenue",,"Potsdam","NY","13699","no","POINT (-74.994043 44.666931)"
"412309","Kings","B & H Security Training, Inc.","2329 Norstrand Ave",,"Brooklyn","NY","11210","no","POINT (-73.947083 40.627874)"
"572293","Warren","Word of Life Fellowship","4200 Glendale Rd",,"Pottersville","NY","12860","no","POINT (-73.812294 43.72952)"
"270561","Oneida","BOCES Consortium of Continuing Education","P.O. Box 168",,"Verona","NY","13478-0168","no",
"152339","Erie","Buffalo Educational Opportunity Ctr","555 Ellicott St",,"Buffalo","NY","14213","no","POINT (-78.869327 42.893978)"
"302362","Nassau","Red Dragon Security Training","606 Johnson Ave",,"Bohemia","NY","11756","no","POINT (-73.095694 40.778618)"
"451071","St. Lawrence","St. Lawrence University Security & Safety","Security & Safety Dept",,"Canton","NY","13617","no",
"242125","New York","Center Security Training","225 Broadway",,"New York","NY","10007","no","POINT (-74.008232 40.711837)"
"311366","Rockland","Shadow Firearms & Tactics Academy","137 Sneden Place West  Ste 137",,"Spring Valley","NY","10977","yes","POINT (-74.042751 41.123612)"
"291492","Fulton","Orion Security Training School","505 South Market St",,"Johnstown","NY","12095","no","POINT (-74.37223 42.99832)"
"301737","Queens","Sykes Group","36-46 37th St",,"Long Island City","NY","11101","yes","POINT (-73.925941 40.753129)"
"361393","Orange","Orange County Community College","Continuing Ed Dept",,"Middletown","NY","10940","no",
"311632","New York","SUNY College of Optometry","NYS University Police",,"New York","NY","10036","no",
"411494","Richmond","ALS Security Academy","433 Virginia Ave",,"Staten Island","NY","10305","no","POINT (-74.078584 40.607708)"
"30436","Bronx","CDC Security Corporation Training Center","1403 Grand Concourse,","2D, Comm. Rm.","Bronx","NY","10452","no","POINT (-73.91387 40.83887)"
"30364","Bronx","Olinville Security School","3356 White Plains Rd.",,"Bronx","NY","10467","yes","POINT (-73.867117 40.874553)"
"282331","Monroe","On Target Firearms, Inc","750 Basket Rd",,"Webster","NY","14580","yes","POINT (-77.387319 43.224542)"
"521187","Suffolk","Center Moriches UFSD","529 Main St.",,"Center Moriches","NY","11934","no","POINT (-72.798768 40.800428)"
"361597","Orange","DMDI Security Training","10 South Plank Rd.",,"Newburgh","NY","12550","yes","POINT (-74.047688 41.51133)"
"302297","Delaware","SWFT Group LLC","Capt. James Small Firing Range",,"Delhi","NY","11357","yes",
"532265","Sullivan","Upscale Security School","96 Lake Louise Road",,"Rock Hill","NY","12775","no",
"302114","Nassau","Long Island Security Academy","1393 Jerusalem Ave",,"Merrick","NY","11566","no","POINT (-73.568616 40.693543)"
"521524","Suffolk","Peconic Security Services","75 Tyler St",,"Flanders","NY","11901","no","POINT (-72.626871 40.903865)"
,"Tompkins","Tompkins","555 Warren Road",,"Ithaca","NY","14850","no","POINT (-76.466544 42.475644)"
,"Oneida","Munson-Williams","310 Genesee St",,"Utica","NY","13502","no","POINT (-75.241192 43.096605)"
"442361","Bergen","4 Bridges Tactical Group","1 Pennington Ave.",,"Waldwick","NY","10308","yes",
"240545","Kings","Sunset Park Security Training School","6310 5th Ave., 1st Flr.",,"Brooklyn","NY","11220","yes","POINT (-74.018153 40.637573)"
"282120","Monroe","Rochester Security Training Center","3000 Mt Read Blvd # 204",,"Rochester","NY","14616","no","POINT (-77.659111 43.211818)"
"30477","Bronx","J & O Security Guard Training School","4557 White Plains Rd",,"Bronx","NY","10470","no","POINT (-73.851922 40.901446)"
"152216","Erie","Executive Investigation & Security Trng","1660 Kensington Ave",,"Cheektowaga","NY","14215","no","POINT (-78.795436 42.945361)"
"311009","New York","Harvard Protection Services Academy","59 Maiden Lane,",,"New York","NY","10038","no","POINT (-74.008478 40.708501)"
"312051","New York","Radiant Training & Consulting School","566 Seventh Avenue, Suite 602",,"New York","NY","10018","no","POINT (-73.987665 40.755072)"
"322310","Nassau","New York Security Guard Training","559 Parkway Drive",,"Elmont","NY","11003","no","POINT (-73.726466 40.697968)"
"431581","Rockland","RGA Investigations, Inc.","254 South Main Street, Suite 102",,"New City","NY","10956","yes","POINT (-73.990573 41.14007)"
"101586","Clinton","DRP Training Service","664 O'Neil Rd",,"West Chazy","NY","12992","no","POINT (-73.519219 44.80564)"
"560039","Ulster","Ulster Co. Law Enforcement Trng Academy","380 Boulevard",,"Kingston","NY","12401","no","POINT (-74.018226 41.913123)"
"150860","Erie","Security Weapons & Training Inst.","659 Ridge Road",,"Lackawanna","NY","14218","yes","POINT (-78.827115 42.82575)"
"410032","Queens","Security Training Institute","90-24 161st St",,"Jamaica","NY","11432","no","POINT (-73.799005 40.704775)"
"412334","Queens","Rochdale Village Public Safety","169-65 137th Ave",,"Jamaica","NY","11434","no","POINT (-73.773931 40.672036)"
"340021","Onondaga","Onondaga Community College","4585 W. Seneca Tpke.",,"Syracuse","NY","13215","no","POINT (-76.195328 43.001013)"
"312369","New York","DHS Security Guard School","33 Beaver St.",,"New York","NY","10004","no","POINT (-74.011528 40.704985)"
"31456","Queens","CUNY Public Safety Academy","92-31 Union Hall Street",,"Jamaica","NY","11433","no","POINT (-73.797588 40.703762)"
"280999","Monroe","Monroe 2  Orleans BOCES Career & Tech Ed","3589 Big Ridge Road",,"Spencerport","NY","14559","no","POINT (-77.790124 43.195121)"
"522301","Suffolk","Lakeview Security & Investigations, Inc.","5835 Route 25",,"Calverton","NY","11933","no",
"10816","Albany","New York State Police Security Services","Executive Services Detail",,"Albany","NY","12242","no",
"300001","Nassau","Hofstra University","117 Hofstra Info Ctr.",,"Hempstead","NY","11901","no",
"521961","Suffolk","Advanced Security Training","79 West Main St",,"Smithtown","NY","11787","yes","POINT (-73.197697 40.855055)"
,"Cattaraugus","Allegany BOCES","1825 Windfall Rd.",,"Olean","NY","14760","no","POINT (-78.405337 42.094275)"
"442337","Richmond","Safe Campus","162 Covington Circle",,"Staten Island","NY","10312","no","POINT (-74.20207 40.546494)"
"282240","Monroe","The Museum Security Academy","1 Manhattan Square Drive",,"Rochester","NY","14607","no","POINT (-77.602698 43.153129)"
"261408","Livingston","Genesee Valley BOCES","27 Lackawanna Avenue",,"Mt. Morris","NY","14510","no","POINT (-77.873529 42.729982)"
"530318","Sullivan","Delaware Valley Job Corps","9368 State Rt 97",,"Callicoon","NY","12723","no","POINT (-75.060197 41.771109)"
"230413","Jefferson","Bohlen Technical Center","20104 NYS Route 3",,"Watertown","NY","13601","no",
"411985","Queens","Securit Training Academy","2518 Francis Lewis Blvd",,"Flushing","NY","11358","no","POINT (-73.797634 40.774114)"
"312288","New York","Security Industry Specialists, Inc","601 W. 26th St",,"New York","CA","90230","no","POINT (-118.409531 33.89542)"
"242298","Kings","Guardian Group Services","44 Court Street - Room 820",,"Brooklyn","NY","11201","no","POINT (-73.990915 40.692678)"
"310825","New York","Excel Security Guard School","505 Eight Avenue",,"New York","NY","10018-6505","no","POINT (-73.992858 40.753037)"
"412272","Queens","Vera Security & Training Academy","147-04 Rockaway Blvd",,"Jamaica","NY","11436","no","POINT (-73.79065 40.673409)"
"142354","Dutchess","TS SCI","515 Haight Avenue",,"Poughkeepsie","NY","12603","no","POINT (-73.899171 41.694826)"
"301733","Nassau","Mattimore Armed Sec. Training","30 Pine Pl",,"Lindenhurst","NY","11757","yes","POINT (-73.34993 40.672887)"
"300390","Nassau","Town of Hempstead Dept of Public Safety","200 North Franklin St.",,"Hempstead","NY","11550","no","POINT (-73.629158 40.712928)"
"150147","Erie","Kaleida Health","Security Department",,"Buffalo","NY","14203","no",
"522280","Suffolk","Central Islip Union Free School District","Alfano Administration Building",,"Central Islip","NY","11722","no",
"280182","Monroe","Wegmans Food Markets Inc","1500 Brooks Ave",,"Rochester","NY","14603","yes","POINT (-77.676815 43.130703)"
"10839","Albany","Siena College","515 Loudon Road",,"Loudonville","NY","12211","no","POINT (-73.755335 42.717915)"
"241592","Kings","Lasi Security Guard Training School","822 Utica Ave., 2 F",,"Brooklyn","NY","11203","no","POINT (-73.930524 40.653035)"
"242229","Bronx","S & S Security Training and Services, LLC","281 East Burnside Ave",,"Bronx","NY","11233","no","POINT (-73.90169 40.850988)"
"460452","Saratoga","Saratoga Casino Hotel","342 Jefferson St.",,"Saratoga Springs","NY","12866","yes","POINT (-73.778652 43.061685)"
"242287","Kings","RJS Security Training School","767-769 Rogers Avenue",,"Brooklyn","NY","11226","no","POINT (-73.952624 40.652113)"
"140148","Dutchess","Dutchess Community College","53 Pendell Road, Browne Hall","Rm. # 118","Poughkeepsie","NY","12601","no","POINT (-73.904236 41.722292)"
"242358","Kings","Knight Security Training","217 Boerum Street",,"Brooklyn","NY","11206","no","POINT (-73.939063 40.706262)"
"421317","Rensselaer","Emma Willard School","285 Pawling Avenue",,"Troy","NY","12180","no","POINT (-73.66511 42.71118)"
"310185","New York","Metropolitan Museum of Art","1000 5th Ave.",,"New York","NY","10028","no","POINT (-73.962688 40.778406)"
"190193","Genesee","Genesee Community College","One College Road, Rm. # T 112",,"Batavia","NY","14020-9704","no",
"312214","New York","New York Law School","185 West Broadway - Room EM100",,"New York","NY","10013-2921","no","POINT (-74.007161 40.718123)"
"10037","Albany","College of Saint Rose","432 Western Ave.",,"Albany","NY","12203-1490","no","POINT (-73.786425 42.664782)"
"242093","New York","Win Security & Safety Training","One State Street Plaza",,"New York","NY","10004","no",
"432363","Rockland","North Rockland Central School District","106 Hammond Rd",,"Thiells","NY","10984","no","POINT (-74.016343 41.215204)"
"300363","Nassau","Security and Safety Training","10 Michele Terrace",,"Massapequa Park","NY","11762","no","POINT (-73.445706 40.668135)"
"412338","Queens","AG Training Group Inc","65-52 160 Street - Suite 2F",,"Flushing","NY","11365","no","POINT (-73.808875 40.735278)"
"522268","Suffolk","Front Line Training Center","1520 Ocean Avenue Suite B",,"Bohemia","NY","11716","no","POINT (-73.120527 40.781819)"
"362289","Orange","Foley Security Consulting","3 Snoop St",,"Monroe","NY","10950","yes","POINT (-74.164675 41.313953)"
"520742","Suffolk","Suffolk Co Police Academy SG School","502 Wicks Rd.",,"Brentwood","NY","11717","yes","POINT (-73.268805 40.803004)"
"532124","Sullivan","Watch Dawg Investigations & Security","140 Kortright Road",,"Bethel","NY","12734","yes","POINT (-74.757532 41.701386)"
"562071","Ulster","Alert Security Training School","130 North Front Street Suite #2",,"Kingston","NY","12401","yes","POINT (-74.024148 41.935037)"
"282266","Monroe","SRT Training Academy","1425 Mt Read Blvd",,"Rochester","NY","14606","yes","POINT (-77.659597 43.179594)"
"31901","Bronx","Hunts Point Public Safety","NYC Terminal Produce Market Room 8B",,"Bronx","NY","10474","yes",
"30337","Bronx","Monroe College","2501  Jerome Ave Room 201",,"Bronx","NY","10468","no","POINT (-73.900167 40.863922)"
"281222","Monroe","Enterprise Security Consulting and Training","875 E. Main St.",,"Rochester","NY","14605","no","POINT (-77.589201 43.160978)"
"312374","New York","Tiger Security Inc.","1216 Broadway",,"New York","NY","11209","no","POINT (-73.988491 40.746632)"
"30659","Bronx","The New York Botanical Gardens","2900 Southern Blvd. P101",,"Bronx","NY","10458","no","POINT (-73.880923 40.861377)"
"282330","Monroe","Roberts Wesleyan College","2301 Westside Dr.",,"Rochester","NY","14624","no","POINT (-77.798734 43.126874)"
"342366","Onondaga","BMD Security Training, Inc.","499 S Warren St.",,"Syracuse","NY","13202","no","POINT (-76.150806 43.045944)"
"100720","Clinton","Champlain Valley Ed Svcs CV TEC","518 Rugar St.",,"Plattsburgh","NY","12901","no","POINT (-73.509351 44.685689)"
"302355","Nassau","Able Center for Training","510 Hempstead Turnpike",,"West Hempstead","NY","11552","yes","POINT (-73.658961 40.705922)"
"361599","Orange","Damon Finch Power Sessions","158 North Plank Rd",,"Newburgh","NY","12550","yes","POINT (-74.039986 41.536962)"
"11757","Albany","University at Albany Police","NYS University Police - Albany",,"Albany","NY","12222","no",
"591468","Wayne","New York Security Training Ctr, LLC","215 South Main St",,"Newark","NY","14513","yes","POINT (-77.095208 43.045143)"
"282033","Monroe","Executive Protection of Monroe County Inc","642 Old Country Road",,"Rochester","NY","14612","no","POINT (-77.710739 43.258871)"
"472303","Schenectady","Capital Region Gaming LLC","1 Rush St",,"Schenectady","NY","12305","no","POINT (-73.936666 42.822525)"
"180427","Montgomery","HFM BOCES CTC","2755 State Highway 67",,"Johnstown","NY","12095","no","POINT (-74.300862 42.983063)"
"532199","Sullivan","The Center for Discovery","593 Old Route 17, 2nd Fl",,"Monticello","NY","12742","no",
"302282","Nassau","Lincoln Investigation","255 Executive Drive, Suite 110",,"Plainview","NY","11803","no","POINT (-73.464681 40.793263)"
"521686","Suffolk","Island Security Services","225 Hidden Acres Path",,"Wading River","NY","11792","no","POINT (-72.830123 40.930561)"
"31518","Bronx","A & J Security Training School","368 East 149th St.",,"Bronx","NY","10455","no","POINT (-73.918714 40.816277)"
"601839","Bronx","South Bronx Job Corps Academy","1771 Andrews Ave. South",,"Bronx","NY","10453","no","POINT (-73.916524 40.85085)"
"341438","Onondaga","Onondaga County Sheriff's Office Security Guard School","Elbridge Rod and Gun Club",,"Jordan","NY","13206","no",
"342305","Onondaga","Syracuse EOC","100 New Street",,"Syracuse","NY","13202","no","POINT (-76.149264 43.040589)"
"150878","Chautauqua","Belin Security Guard Training School","3135 Falconer-Kimball Stand Rd.",,"Falconer","NY","14733","no","POINT (-79.209753 42.134981)"
"240211","Kings","BNYDC Security Training Facility","141 Flushing Avenue, Building 77",,"Brooklyn","NY","11205","no","POINT (-73.970545 40.697846)"
"340886","Onondaga","IPI/Verdad Investigations & Protection Inc","110 Tempo Circle",,"Liverpool","NY","13088","yes","POINT (-76.223829 43.113131)"
"31929","Nassau","Security Academy of New York","250 Fulton Ave, Ste. # M231",,"Hempstead","NY","11550","no","POINT (-73.579886 40.677573)"
"311656","New York","Stuy Town Property Services Housing Academy","276 First Avenue Loop",,"New York","NY","10009","no",
"32371","Bronx","Bronxwood Prep Law Academy","921 E. 228th St.",,"Bronx","NY","10466","no","POINT (-73.852571 40.887778)"
"522224","Suffolk","Suffolk County Community College","1001 College Rd - Public Safety",,"Brentwood","NY","11717","no",
"142323","Dutchess","Beacon City School District","1 Education Drive",,"Beacon","NY","12508","no","POINT (-73.973102 41.496089)"
"520322","Suffolk","Brentwood UFSD","Felicio Admin Bldg",,"Brentwood","NY","11717","no",
"12376","Albany","Premium Investigations Training Academy","1988 Central Ave",,"Albany","NY","12205","no","POINT (-73.86206 42.74321)"
"602316","Westchester","Black and White, LLC","147 KINGSTON AVENUE",,"YONKERS","NY","10701","no","POINT (-73.859485 40.939903)"
"450207","St. Lawrence","SUNY Canton College","34 Cornell Drive",,"Canton","NY","13617","no","POINT (-75.185057 44.607325)"
"52340","Cattaraugus","MPS Security Guard Training Center","313.5 Main St",,"Olean","NY","14760","no",
"412193","Queens","Broadlink Security Carrier School","7307 37th Rd",,"Jackson Heights","NY","11372","no","POINT (-73.892099 40.747178)"
"272235","Madison","North Atlantic Security Services, LLC","2037 Dream Catcher Plaza",,"Oneida","NY","13421","no","POINT (-75.646993 43.076984)"
"41604","Broome","Huron Real Estate Associates, LLC","Huron Campus",,"Endicott","NY","13760","no",
"412140","Queens","The GEO Group Inc.","182-22 150th ave",,"Jamaica","NY","11413","yes","POINT (-73.765577 40.657226)"
"312249","New York","Liberty Security Training Institute, Inc.","13 E. 37th St, suite 5R",,"New York","NY","10016","no","POINT (-73.98221 40.749935)"
"301305","Nassau","Alante Security Group, Inc.","Nassau County Rifle & Pistol Range",,"Uniondale","NY","11590","yes",
"441073","Richmond","College of Staten Island","Continuing Education - Public Safety",,"Staten Island","NY","10314","no",
"152328","Erie","Buffalo Special Investigations Training Center","700 Broadway Street",,"Buffalo","NY","14240","no","POINT (-78.848331 42.891027)"
"282161","Monroe","OACES Security Guard Academy","30 Hart Street",,"Rochester","NY","14605","no","POINT (-77.618131 43.171119)"
"411516","Nassau","Global Security Associates, LLC","825 East Gate Blvd.  Suite 301",,"Garden City","NY","11530","no","POINT (-73.606433 40.741429)"
"522279","Suffolk","Neary Confidential Investigative Service","14 Havens Ave",,"Patchogue","NY","11772","no","POINT (-73.016999 40.765888)"
"282258","Monroe","Valor Training Group LLC","39 Harmon Rd",,"Churchville","NY","14428","yes","POINT (-77.848593 43.023661)"
"241649","Kings","A L M Security Training Academy","540 Atlantic Ave",,"Brooklyn","NY","11217","no","POINT (-73.980012 40.685053)"
"312360","New York","Bushido Security Training","224 West 35th St.",,"New York","NY","10001","no","POINT (-73.991146 40.752106)"
"330202","Oneida","Mohawk Valley Community College","Dept Corp & Comm Pgm",,"Utica","NY","13501","no",
"531880","Sullivan","Bethel Woods Performing Arts Center","200 Hurd Rd.",,"Bethel","NY","12720","no","POINT (-74.882011 41.69941)"
"152370","Erie","Aries Security & Training","1576 Sweet Home Road",,"Amherst","NY","14228","no","POINT (-78.798834 43.0037)"
"470921","Schenectady","GE Global Research Ctr Security","1 Research Circle",,"Niskayuna","NY","12309","no","POINT (-73.879153 42.826241)"
"311488","New York","Hughes Institute for Security Training","200 E 127th (Basement)",,"New York","NY","10035","no","POINT (-73.934508 40.804843)"
"430585","Rockland","Rockland BOCES","65 Parrott Rd, Building 3",,"West Nyack","NY","10994","no","POINT (-73.980559 41.121657)"
"140652","Dutchess","The Culinary Institute of America","1946 Campus Dr",,"Hyde Park","NY","12538","no","POINT (-73.931609 41.746082)"
"11667","Albany","New York State Education Dept","89 Washington Ave.","Rm. # 10","Albany","NY","12234","no","POINT (-73.757764 42.65355)"
"310246","New York","New York Private Police Academy","2067 Broadway",,"New York","NY","10023","no","POINT (-73.982125 40.778373)"
"412203","Queens","Diamond Security Academy","69-27 Myrtle Avenue",,"Glendale","NY","11385","no","POINT (-73.881843 40.701868)"
"30566","Bronx","Parkchester Training Academy","2000 East Tremont Avenue",,"Bronx","NY","10462","yes","POINT (-73.8603 40.841623)"
"560090","Ulster","Ulster BOCES","319 Broadway",,"Port Ewen","NY","12466","no","POINT (-73.973901 41.896459)"
"151744","Erie","Sportsystems Gaming Management","5600 McKinley Parkway",,"Hamburg","NY","14075","no","POINT (-78.812718 42.735875)"
"360047","Orange","Orange Ulster BOCES","53 Gibson Road, 414-400 Bldg.",,"Goshen","NY","10924","no","POINT (-74.353633 41.386962)"
"330815","Oneida","DFTF, LLC","38 Hollywood Drive",,"Whitesboro","NY","13321","yes","POINT (-75.304547 43.107004)"
"301940","Nassau","South Shore Sportsman, Inc.","9 Lansdowne Avenue",,"Merrick","NY","11566","yes","POINT (-73.55644 40.661737)"
"512245","Steuben","Steuben County Sheriff's Office","7007 Rumsey Street Ext",,"Bath","NY","14810","yes","POINT (-77.29521 42.349219)"
"422322","Rensselaer","Hudson Valley Public Safety","80 Vandenburgh Ave.",,"Troy","NY","12180","no","POINT (-73.687977 42.696283)"
"392336","Saratoga","C.R.E. Tactical, LLC","P.O. Box 4283",,"Clifton Park","NY","12065","yes",
"191960","Genesee","Batavia Downs Gaming","8315 Park Road",,"Batavia","NY","14020","no","POINT (-78.205085 43.010172)"
"412208","Queens","Resorts World Casino New York City Security","110-00 Rockaway Boulevard",,"Jamaica","NY","11420","no","POINT (-73.833633 40.672796)"
"242335","Kings","Valor Security Training","626 Sheepshead Bay Rd",,"Brooklyn","NY","11224","no","POINT (-73.975234 40.578975)"
"301836","Nassau","Town of Oyster Bay Dept of Public Safety","150 Miller Place",,"Syosset","NY","11791","no","POINT (-73.515908 40.784482)"
"151040","Erie","Erie Community College","6205 Main St",,"Williamsville","NY","14221","no","POINT (-78.721921 42.966295)"
"101233","Clinton","UVHN CVPH Medical","75 Beekman St.",,"Plattsburgh","NY","12901","no","POINT (-73.466695 44.700423)"
"311885","New York","MSA Security","9 Murray Street",,"New York","NY","10007","no","POINT (-74.008006 40.713406)"
"241572","New York","R.A.C.K. Security Training","5 Penn Plaza",,"New York","NY","10044","no","POINT (-74.001001 40.736731)"
"280966","Monroe","Monroe # 1 BOCES","Monroe # 1 BOCES",,"Fairport","NY","14450","no",
"411434","Nassau","Northeast Security Academy","831 Eastfield Rd",,"Westbury","NY","11590","no","POINT (-73.573471 40.769576)"
"660217","Hudson","Port Authority of N.Y. & N.J.","241 Erie Street",,"Jersey City","NJ","7310","no","POINT (-74.042872 40.731105)"
"411031","Queens","Seneca Sporting Range, Inc.","1716 Wierfield St.",,"Ridgefield","NY","11561","yes",
"242083","Kings","Mega Security Services Inc","269 Barbey Street",,"Brooklyn","NY","11207","yes","POINT (-73.888433 40.676322)"
"521867","Suffolk","Good Samaritan Hospital","1000 Montauk Hwy",,"West Islip","NY","11795","no","POINT (-73.294768 40.695844)"
"342259","Onondaga","Alpha Security Training","615 South Main St",,"North Syracuse","NY","13212","no","POINT (-76.139662 43.124715)"
"522324","New York","Croker Fire & Life Safety Institute","1601 Broadway",,"New York","NY","11788","no","POINT (-73.984597 40.760575)"
"522057","Suffolk","Covert Investigations Inc","2805 Veterans Memorial Hwy",,"Ronkonkoma","NY","11779","yes","POINT (-73.147188 40.789151)"
"352037","Orleans","Security Professionals Group","168A Heritage Estates",,"Albion","NY","14411","no","POINT (-78.178393 43.253596)"
"311520","Kings","S.B.I. Academy","126-10th Street",,"Brooklyn","NY","11215","yes","POINT (-73.995095 40.691187)"
"361350","Orange","Hudson Valley Security Services Inc.","321 S. William St.",,"Newburgh","NY","12550","no","POINT (-74.024817 41.497002)"
"311185","New York","Fedcap Career Design School","210 East 43rd St, 3rd Fl.",,"New York","NY","10017","no","POINT (-73.97331 40.751178)"
"12254","Albany","Flynn & Loveridge Security Training LLC","720 New Salem Rd",,"Voorheesville","NY","12186","no","POINT (-73.968483 42.623593)"
"310086","New York","Winfield Training School","57 West 38th Street 5th Flr",,"New York","NY","10018","no","POINT (-73.98522 40.752033)"
"572364","Warren","SUNY Adirondack","SUNY Adirondack Public Safety",,"Queensbury","NY","12804","no",
"560929","Ulster","Benedictine Hospital","Benedictine Hospital",,"Kingston","NY","12401","no",
"310140","New York","Mulligan Security Corp.","Two Penn Plaza, 24th Fl.",,"New York","NY","10121","no",
"151700","Erie","Arena Security Institute","One Seymour H. Knox III Plaza",,"Buffalo","NY","14203","no",
"281184","Monroe","St John Fisher College","3690 East Ave",,"Rochester","NY","14618","no","POINT (-77.517013 43.117075)"
"31297","Bronx","Montefiore Security Training School","Montefiore Medical Ctr.",,"Bronx","NY","10467","no",
"541911","Tioga","Tioga Downs Racetrack, LLC","P.O. Box 509",,"Nichols","NY","13812","no",
"282148","Monroe","Rochester Educational Opportunity Center","161 Chestnut Street",,"Rochester","NY","14604","no","POINT (-77.602919 43.153592)"
"462264","Saratoga","Town of Clifton Park","Public Safety Office",,"Clifton Park","NY","12065","no",
"661000","New York","Securitas Security Services USA, Inc.","1412 Broadway, 17th Floor",,"New York","NY","10018","yes","POINT (-73.987055 40.753727)"
"300484","Nassau","St. Francis Hospital","100 Port Washington Blvd.",,"Roslyn","NY","11576","no","POINT (-73.672669 40.804505)"
"232375","Jefferson","Tri State Security","6145A Meadow Wood Dr.",,"Fort Drum","NY","13603","no","POINT (-75.782383 44.02627)"
"422284","Rensselaer","10X Security Training Solutions","11 Den Besten Way",,"Castleton","NY","12033","yes","POINT (-73.708667 42.496007)"
"241414","Kings","First Executive Security Corp","8613 18th Ave Flr # 1",,"Brooklyn","NY","11214","no","POINT (-74.003046 40.606897)"
"442228","Richmond","Powerpoint Security Corp.","49 Churchill Avenue",,"Staten Island","NY","10309","no","POINT (-74.21843 40.52929)"
"301918","Nassau","Nassau BOCES","Joseph M. Barry Career & Tech Ed Ctr.",,"Westbury","NY","11590","no",
"282294","Monroe","1st Choice Security Training","593 Broad St West suite 87",,"Rochester","NY","14608","no","POINT (-77.625738 43.158487)"
"40197","Broome","Broome Community College","Broome Com. College",,"Binghamton","NY","13902","no",
"91728","Chenango","Delaware (DCMO) BOCES","6678 County Road 32",,"Norwich","NY","13815","no","POINT (-75.521798 42.584968)"
"361996","Orange","Bell's Security Guard Training School","367 Windsor Hwy # 228",,"New Windsor","NY","12553","no","POINT (-74.054461 41.459018)"
"421125","Albany","University Heights Assoc.","130 New Scotland Ave.",,"Albany","NY","12208","no","POINT (-73.78146 42.65276)"
"341217","Onondaga","LeMoyne College Campus Security","LeMoyne College",,"Syracuse","NY","13214","no",
"281391","Monroe","Greece Central School District","750 Maiden Lane",,"Rochester","NY","14615","no","POINT (-77.663314 43.223723)"
"601450","Suffolk","Target Northeast Training School","230 Oser Ave.",,"Hauppauge","NY","11788","no","POINT (-73.254936 40.816554)"
"150220","Erie","I.R. Mueller Corp.","789 Colvin Avenue",,"Kenmore","NY","14217","no","POINT (-78.858341 42.962434)"
"522172","Queens","Sec-curity Safety Center","172-21 Hillside Ave, Suite 204-205",,"Jamaica","NY","11432","no","POINT (-73.789436 40.71204)"
"520024","Suffolk","Professional Training Consultants","800 Horton's Lane",,"Southold","NY","11971","yes","POINT (-72.433274 41.064436)"
"310935","New York","Tiffany & Company","2 E 57th St.",,"New York","NY","10022","no","POINT (-73.973608 40.762821)"
"401688","Putnam","St. Christopher's Inn","21 Franciscan Way",,"Garrison","NY","10524","no","POINT (-73.924684 41.345336)"
"42346","Broome","Lourdes Hospital","169 Riverside Dr",,"Binghamton","NY","13905","no","POINT (-75.93562 42.092655)"
,"Columbia","Greene Comm. College","4400 Rte. 23",,"Hudson","NY","12534","no",
"300298","Nassau","Northwell Health Sec Guard Training School","145 Community Dr./ Corporate Security",,"Great Neck","NY","11021","no",
"292347","Montgomery","Montgomery County Sheriffs","200 Clark Dr",,"Fultonville","NY","12072","no","POINT (-74.332473 42.933127)"
"302326","Nassau","All County Investigations, Inc","158 Bernice Drive",,"East Meadow","NY","11554","no","POINT (-73.535978 40.720711)"
"412227","Queens","SOA Security Training Center","37-20 74th St., 2nd Fl.",,"Jackson Heights","NY","11372","no","POINT (-73.891714 40.74833)"
"460012","Washington","WSWHE BOCES","10 LaCrosse St",,"Hudson Falls","NY","12839","no","POINT (-73.579476 43.312603)"
"12329","Albany","The Palace Theater Security Academy","19 Clinton Avenue",,"Albany","NY","12207","no","POINT (-73.750648 42.654646)"
"461064","Saratoga","S & K Prevention, Inc.","4 Avis Drive",,"Latham","NY","12110","yes","POINT (-73.777853 42.752694)"
"242368","Kings","JMI Security Services","495 Flatbush Ave",,"Brooklyn","NY","11225","no","POINT (-73.961731 40.662134)"
"412314","Queens","USPIO Corp","163-10 Northern Blvd. #205",,"Flushing","NY","11358","no","POINT (-73.80268 40.761232)"
"602239","Rockland","ISSM Security Training Services","3 College Rd",,"Monsey","NY","10952","yes","POINT (-74.08982 41.110724)"
"311748","Bronx","Focus Career Solutions, LLC.","391 E. 149th Street",,"Bronx","NY","10455","no","POINT (-73.918168 40.816295)"
"412295","Queens","Tribune Security Training","35-01 Queens Blvd",,"Long Island City","NY","11101","no","POINT (-73.929515 40.744571)"
"281138","Monroe","Jewish Home of Rochester","2021 Winton Road South",,"Rochester","NY","14618","no","POINT (-77.577436 43.104778)"
"12351","Albany","Paragon Systems, Inc.","1 Pine West Plaza",,"Albany","NY","12205","yes","POINT (-73.864588 42.710592)"
"140511","Dutchess","Dutchess BOCES","5 BOCES Rd",,"Poughkeepsie","NY","12601","no","POINT (-73.866453 41.743819)"
"291543","Montgomery","FMCC Security Inst","2805 State Highway 67",,"Johnstown","NY","12095","no","POINT (-74.295408 42.981632)"
"512312","Steuben","Southern Tier Training Group LLC","5 East Market Street",,"Corning","NY","14830","yes","POINT (-77.05408 42.143329)"
"410637","Queens","Chapin Home for the Aging","165-01 Chapin Parkway",,"Jamaica","NY","11432","no","POINT (-73.800963 40.714328)"
"602045","Westchester","BOCES Southern Westchester","450 Mamaroneck Ave - 3rd flr",,"Harrison","NY","10528","no","POINT (-73.742895 40.974136)"
"270059","Madison","Colgate University","13 Oak Drive",,"Hamilton","NY","13346","no","POINT (-75.535735 42.819795)"
"30830","Bronx","Sentry Security Co., Inc.","980 Aldus St.",,"Bronx","NY","10459","no","POINT (-73.889899 40.823163)"
"312134","New York","Paramount Group Inc.","1325 Avenue of the Americas 7th Floor",,"New York","NY","10019","no","POINT (-73.97886 40.762079)"
"312342","New York","ICD Institute for Career Development","123 William St",,"New York","NY","10038","no","POINT (-74.006844 40.709154)"
"152300","Erie","Vista Security Group, Inc.","60 Bryant Woods South",,"Amherst","NY","14228","no","POINT (-78.785437 43.01936)"
"432320","Rockland","Rockland Community College","145 college road",,"suffern","NY","10901","no","POINT (-74.085149 41.13087)"
"152367","Erie","Criminal Justice Professionals Training and Consulting","2476 Elmwood Ave",,"Kenmore","NY","14217","yes","POINT (-78.878728 42.964811)"
"300048","Nassau","Rogusa International","2593 Irene Lane",,"Seaford","NY","11783","yes","POINT (-73.491079 40.656991)"
"312365","New York","Berkeley College","3 East 43rd St",,"New York","NY","10017","no","POINT (-73.979553 40.753791)"
"190414","Genesee","Darien Lake Theme Park Resort","9993 Allegheny Road",,"Darien Center","NY","14036","no",
"460108","Saratoga","Foster Associates Ltd.","62 Werner Road",,"Clifton Park","NY","12065-3412","no","POINT (-73.744726 42.873224)"
"411269","Queens","Eagle Security Training Academy","125-17 Jamaica Ave.",,"Richmond Hill","NY","11418","no","POINT (-73.824974 40.701134)"
"32234","Bronx","PGP Security Consultants","540 East 180th Street","Suite 202","Bronx","NY","10457","no","POINT (-73.893515 40.850437)"
"362277","Orange","Warwick Valley Central High School","89 Sandfordville Rd",,"Warwick","NY","10990","no","POINT (-74.39001 41.253617)"
"32271","Bronx","Bronx CC Security Mgt. Institute","2155 University Ave.",,"Bronx","NY","10453","no","POINT (-73.909741 40.857184)"
"310472","New York","Solomon R. Guggenheim Museum","1071 5th Ave, 2nd Flr, Security Office",,"New York","NY","10128","no","POINT (-73.959264 40.783077)"
"281019","Monroe","Nazareth College of Rochester","4245 East Avenue",,"Rochester","NY","14618","no","POINT (-77.516092 43.106288)"
"442350","Richmond","Dahlcore, LLC","4 Minthorne St",,"Staten Island","NY","10301","no","POINT (-74.075352 40.637493)"
"521087","Suffolk","Arrow Security","300 West Main Street",,"Smithtown","NY","11787","no","POINT (-73.205797 40.857059)"
"302352","Nassau","E.M.A. Training Consultants, LLC","236 Fulton Ave",,"Hempstead","NY","11550","no","POINT (-73.62675 40.707708)"
"50107","Cattaraugus","Saint Bonaventure University","3261 West State Rd, PO Box AQ",,"Saint Bonaventure","NY","14706","no",
"361723","Kings","All Star Security Trng Sch","PO Box 240568",,"Brooklyn","NY","11224","no",
"521828","Suffolk","High Caliber Security Institute","10 Lakeland Ave.",,"Patchogue","NY","11772","yes","POINT (-73.028243 40.762231)"
"280389","Monroe","University of Rochester Security","Univ. of Rochester Public Safety",,"Rochester","NY","14627","no",
"242306","Kings","TIL Security Guard Training Program","8804 Flatlands Avenue",,"Brooklyn","NY","11236","no","POINT (-73.907251 40.639357)"
"522248","Suffolk","World Security Training Institute","1315 West Main Street",,"Riverhead","NY","11901","yes","POINT (-72.694768 40.917207)"
"32168","Bronx","Above All Security Training","609 Walton Ave",,"Bronx","NY","10451","no","POINT (-73.927783 40.820439)"
"11669","Albany","New York State Park Police","N.Y. State Park Police Academy",,"Rensselaerville","NY","12147","no",
"141544","Dutchess","Marist College","3399 North Road",,"Poughkeepsie","NY","12601","no","POINT (-73.934048 41.722523)"
"340594","Onondaga","St. Joseph's Hospital Health Center","301 Prospect Avenue",,"Syracuse","NY","13203","no","POINT (-76.14934 43.055797)"
"241531","Kings","Brooklyn Job Corps Academy","585 Dekalb Avenue",,"Brooklyn","NY","11205","no","POINT (-73.952742 40.691216)"
"60661","Cayuga","Cayuga Community College","197 Franklin Street, R 209, BIC",,"Auburn","NY","13021","no","POINT (-76.542779 42.942341)"
"331322","Schoharie","Wal Mart Loss Prevention","180 High St",,"Sharon Springs","NY","13459","no","POINT (-74.607718 42.786743)"
"312359","New York","KTI Training Institute","213 West 35th St.",,"New York","NY","10001","no","POINT (-73.990804 40.751964)"
"240104","New York","New York Stock Exchange","11 Wall St.",,"New York","NY","10005","no","POINT (-74.011035 40.707327)"
"560142","Ulster","THT of New York, Inc.","129 Wrentham St.",,"Kingston","NY","12402","yes","POINT (-74.00205 41.945884)"
"302318","Nassau","SNCH Security Training School","1 Healthy Way",,"Oceanside","NY","11572","no","POINT (-73.630803 40.652297)"
"331229","Oneida","Hamilton College","Hamilton College Campus Safety",,"Clinton","NY","13323","no",
"511436","Steuben","Corning Community College","1 Academic Dr.",,"Corning","NY","14830","no","POINT (-77.072451 42.119944)"
"291635","Rensselaer","Questar III, Rensselaer Educational Ctr","35 Colleen Road",,"Troy","NY","12180","no","POINT (-73.674264 42.702622)"
"152278","Erie","Asset Protective Services Inc.","274 Delaware Avenue Rm 1",,"Buffalo","NY","14202","yes","POINT (-78.876381 42.891879)"
"312242","New York","Alliance Computing Solutions","545 8th Avenue",,"New York","NY","10018","no","POINT (-73.991882 40.754383)"
"342344","Onondaga","PS&Ed","615 S. Main St",,"North Syracuse","NY","13204","yes","POINT (-76.139662 43.124715)"
"280643","Monroe","High Falls Operating Co.","445 St. Paul Street",,"Rochester","NY","14605","no","POINT (-77.614501 43.16514)"
"362276","Orange","Mid Hudson Security School of Orange County","PO Box 4054",,"Middletown","NY","10941","yes",
"31959","Westchester","Correct Security Training","75 South Broadway",,"White Plains","NY","3195","no","POINT (-73.762407 41.029835)"
"412155","Queens","Christle Security Training School","90 50 Parsons Blvd # 301",,"Jamaica","NY","11432","no",
"561987","Ulster","Colonial Protective Services Corporation","132 Flatbush Ave",,"Kingston","NY","12401","no","POINT (-73.994879 41.938737)"
"520826","Suffolk","SPTS Training School","7 Harwick St",,"East Northport","NY","11731","no","POINT (-73.321967 40.851449)"
"31799","Bronx","New Millennium Training Academy","391 E. 149th St. at 3rd Ave.","Ste. # 309","Bronx","NY","10455","no",
"281528","Monroe","Swoop 1, Inc.","516 Titus Ave",,"Rochester","NY","14617","no","POINT (-77.603145 43.21053)"
"311605","New York","Thomas Shortman Training","25 W. 18th St.",,"New York","NY","10011-4676","no","POINT (-73.993344 40.739139)"
"282159","Monroe","Blackhawk Training Academy Inc","3300 Monroe Ave Ste 206",,"Rochester","NY","14618","yes","POINT (-77.538853 43.103333)"
"32353","Bronx","First Choice Global Venture","2825 East 3rd Ave",,"Bronx","NY","10455","no","POINT (-73.91826 40.815732)"
"42112","Broome","North Star Agency","1202 Monroe St",,"Endicott","NY","13760","yes","POINT (-76.048975 42.102455)"
"521950","Suffolk","MSS Training Academy","709 W Jericho Turnpike",,"Huntington","NY","12831","no","POINT (-73.436573 40.827556)"
"302356","Nassau","Joseph Security, LLC","2280 Grand Avenue",,"Baldwin","NY","11510","no","POINT (-73.609289 40.668947)"
"522136","Nassau","Alliance Group Affiliates, Inc.","C/O Strike Force Sports",,"Farmingdale","NY","11702","no",
"20719","Allegany","Alfred University","1 Saxon Drive",,"Alfred","NY","14802","no","POINT (-77.790408 42.253956)"
"530264","Sullivan","Sullivan County BOCES","6 Wierk Ave",,"Liberty","NY","12754","no","POINT (-74.746692 41.795377)"
"330333","Oneida","L.B. Security and Investigations, Inc.","2507 Genesee St.",,"Utica","NY","13501","no","POINT (-75.273426 43.080481)"
"460342","Saratoga","Skidmore College Dept. of Campus Safety","815 N. Broadway",,"Saratoga Springs","NY","12866","no","POINT (-73.779953 43.094924)"
"320516","Orleans","Orleans Niagara BOCES","4232 Shelby Basin Rd",,"Medina","NY","14103","no","POINT (-78.427564 43.204135)"
"301816","Nassau","Starlight Training Academy","920 Oyster Bay Road",,"Bethpage","NY","11714","no","POINT (-73.534635 40.845895)"
"412267","Queens","Safe and Secured Security Services","411 Onderdonk Avenue",,"Ridgewood Queens","NY","11385","no","POINT (-73.91296 40.707371)"
"32256","Hudson","Infinity Protection Services Trng Academy","355 Communipaw Ave",,"Jersey City","NJ","7304","yes","POINT (-74.062534 40.711335)"
"310091","New York","Mount Sinai Hospital","Dir of Security",,"New York","NY","10029","no",
"311014","New York","Mutual of America Life Insurance Company","320 Park Avenue",,"New York","NY","10022","no","POINT (-73.973861 40.757534)"
"11584","Albany","Independent Security Services","38 Sheridan Avenue",,"Albany","NY","12210","no","POINT (-73.752596 42.653761)"
"350872","Ontario","Finger Lakes Tech. & Career Ctr","3501 Country Rd. 20",,"Stanley","NY","14561","no",
"241381","Kings","ISS Security Training","2720 86th Street",,"Brooklyn","NY","11223","yes","POINT (-73.981328 40.594376)"
"242063","Kings","Star Security Training Corp","1891 Fulton St",,"Brooklyn","NY","11233","no","POINT (-73.92111 40.67884)"
"410040","Queens","Woodhaven Rifle & Pistol Range","74-16 Jamaica Ave.",,"Woodhaven","NY","11421","yes","POINT (-73.867423 40.691266)"
"320377","Niagara","Niagara County Community College","3111 Saunders Settlement Rd",,"Sanborn","NY","14132","no","POINT (-78.874472 43.143159)"
"432180","Rockland","Frontline Security Training Services","39 East Central Ave",,"Pearl River","NY","10970","yes","POINT (-74.019973 41.059186)"
"140739","Dutchess","Vassar College","124 Raymond Avenue",,"Poughkeepsie","NY","12604","no","POINT (-73.898132 41.686553)"
"300505","Nassau","Nassau BOCES Barry Tech","1196 Prospect Ave.",,"Westbury","NY","11590","no","POINT (-73.552994 40.764242)"
"572341","Warren","Great Escape Security Guard Training","Great Escape Safety and Security",,"Queensbury","NY","12804","no",
"522321","Suffolk","Guardian Security Training, Inc","150 Motor Parkway, Suite LL20",,"Hauppauge","NY","11788","yes","POINT (-73.259212 40.806462)"
"740899","Erie","G4S Secure Solutions (USA) Inc.","374 Delaware Ave",,"Buffalo","NY","14202","yes","POINT (-78.875561 42.894426)"
"340145","Onondaga","Marley Education Center","Crouse Hospital",,"Syracuse","NY","13210","no",
"520528","Suffolk","Town of Islip Security Guard School","401 Main St",,"Islip","NY","11751","no","POINT (-73.215989 40.728648)"
"520435","Suffolk","East Islip Central School","1 Craig B Gariepy Ave",,"Islip Terrace","NY","11752","no","POINT (-73.184264 40.747686)"
"601448","Westchester","Westchester Inst. of Comp. Tech.","481 Main Street",,"New Rochelle","NY","10801","no","POINT (-73.780923 40.909302)"
"410256","Queens","St. John's University","8000 Utopia Pky., ROTC Rm. # 115",,"Jamaica","NY","11439","no","POINT (-73.791771 40.725725)"
"552053","Tompkins","Cornell University Police","117 Statler Drive",,"Ithaca","NY","14853","no","POINT (-76.481573 42.445929)"
"600612","Westchester","Putnam/Northern Westchester BOCES","200 BOCES Dr.",,"Yorktown Heights","NY","10598-4399","no","POINT (-73.77117 41.277957)"
"240673","Kings","MTA New York City Transit Security","130 Livingston Street",,"Brooklyn","NY","11201","no","POINT (-73.988568 40.690728)"
"40857","Broome","Broome  Tioga B.O.C.E.S","435 Glenwood Road","Rm. 506","Binghamton","NY","13905","no","POINT (-75.930593 42.12947)"
"10289","Albany","SUNY Office of University Police","353 Broadway",,"Albany","NY","12246","no","POINT (-73.750127 42.647243)"
"280507","Monroe","Rochester Institute of Technology","61 Lomb Memorial Dr.,  A 125",,"Rochester","NY","14623","no","POINT (-77.67414 43.090777)"
"302035","Nassau","Professional Safety & Sec Training LLC","1 Fulton Ave Ste 120",,"Hempstead","NY","11550","no","POINT (-73.637644 40.70491)"
"420065","Columbia","Questar III Rens. Columbia Greene BOCES","Columbia Green Ed Ctr",,"Hudson","NY","12534","no",
"80497","Chemung","Elmira College","One Park Place",,"Elmira","NY","14901","no",
"291002","Montgomery","NEA Training Center","25 Broadway",,"Fonda","NY","12068","yes","POINT (-74.377219 42.955368)"
"331625","Oneida","SGK Security Specialist","6830 Main St.",,"Verona Beach","NY","13042","yes","POINT (-75.728017 43.192333)"
"62109","Wayne","Gold Shield Training Academy.","190 Kemp Drive",,"Macedon","NY","14502","yes","POINT (-77.314933 43.070463)"
"411678","Saratoga","New York Racing Association","267 Union Avenue",,"Saratoga Springs","NY","12866","no","POINT (-73.769355 43.074943)"
"150969","Erie","Erie 2/Chautauqua/Cattaraugus BOCES","8685 Erie Rd.",,"Angola","NY","14006","no","POINT (-79.041898 42.648389)"
"230508","Jefferson","Jefferson Community College","1220 Coffen St",,"Watertown","NY","13601","no","POINT (-75.939793 43.987373)"
"310173","New York","RSD/Westside Rifle & Pistol Range Inc.","20 West 20th Street",,"New York","NY","10011","yes","POINT (-73.992415 40.740306)"
"312286","New York","Global Borough","40 Exchange Place, 3rd Fl",,"New York","NY","10012","no","POINT (-74.010179 40.705907)"
"411082","Queens","Paramount Security Bureau, Inc.","Alpha Kalpa Sorority School",,"Jamaica","NY","11003","no",
"412252","Queens","TSC Training Academy, LLC","36-06 43 Ave",,"Long Island City","NY","11101","no","POINT (-73.928267 40.74605)"
"411766","Kings","Concept Security Trng Institute","61-43 186th Street",,"Fresh Meadows","NY","11412","no","POINT (-73.787845 40.739002)"
"360868",,"Mid Hudson Institute of Security Services","142 Camp Stadie Rd.",,"Middletown","NY","12553","yes","POINT (-74.506396 41.421294)"
"441975","Richmond","Pinpoint Investigations and Security Corp.","159 New Dorp Plaza",,"STATEN ISLAND","NY","10306","no","POINT (-74.120079 40.571665)"
"151066","Erie","Badges of Honor Academy","148 Lovering Ave",,"Buffalo","NY","14216","no","POINT (-78.863134 42.951739)"
"400258","Putnam","Armed & Unarmed School of Security Inc.","408 State Rt. 164",,"Brewster","NY","10509","yes","POINT (-73.59267 41.479237)"
"680052","New York","Allied Universal Academy","229 West 36th Street",,"New York","NY","10018","no","POINT (-73.990938 40.75281)"
"310763","New York","Columbia University","535 W 116th St",,"New York","NY","10027","no","POINT (-73.961775 40.807129)"
"602304","Westchester","Melissa Security Training Center, LLC","151 E. POST ROAD, SUITE 106",,"WHITE PLAINS","NY","10601","no","POINT (-73.765397 41.029055)"
"430988","Rockland","Rockland County Police & Public Safety Academy","50 Sanatorium Road",,"Pomona","NY","10970","no","POINT (-74.039136 41.161232)"
"310989","New York","International Development Institute","39 W. 32nd St.",,"New York","NY","10001","yes","POINT (-73.987446 40.747971)"
"140483","Fairfield","House Watch, Incorporated","42 Maura Lane",,"Danbury","CT","6810","no","POINT (-73.416506 41.393684)"
