Facility Name,Address,Telephone,Website,Icon,Zip Codes
Doctor's Community Hospital,"8118 Good Luck Road
Lanham, MD 20706
(38.980315104000454, -76.86648306499967)",301-552-8118,http://www.dchweb.org/,https://data.princegeorgescountymd.gov/views/hgu2-yg52/files/2pWFWklKMe3SKinZfurEC44lQlT-1jKxsPAp2D1mGb4,15994
Laurel Regional Hospital,"7300 Van Dusen Road
Laurel, MD 20707
(39.08595909900049, -76.88007567099964)",301-725-4300,http://www.dimensionshealth.org/index.php/dimensions-healthcare-facilities/laurel-regional-hospital/,https://data.princegeorgescountymd.gov/views/hgu2-yg52/files/2pWFWklKMe3SKinZfurEC44lQlT-1jKxsPAp2D1mGb4,15996
Bowie Health Center,"15001 Health Center Drive
Bowie, MD 20716
(38.94995483200046, -76.74564370499968)",301-262-5511,http://www.dimensionshealth.org/index.php/dimensions-healthcare-facilities/bowie-health-campus/,https://data.princegeorgescountymd.gov/views/hgu2-yg52/files/2pWFWklKMe3SKinZfurEC44lQlT-1jKxsPAp2D1mGb4,16438
Prince George's Hospital Center,"3001 Hospital Drive
Hyattsville, MD 20785
(38.93172104200045, -76.91928616299964)",301-618-2000,http://www.dimensionshealth.org/index.php/dimensions-healthcare-facilities/prince-georges-hospital-center/,https://data.princegeorgescountymd.gov/views/hgu2-yg52/files/2pWFWklKMe3SKinZfurEC44lQlT-1jKxsPAp2D1mGb4,31451
Malcolm Grow USAF Medical Center,"1050 West Perimeter Road
Joint Base Andrews, MD 20762
(38.8080920970005, -76.89496035399964)",240-857-5911,http://www.79mdw.af.mil/,https://data.princegeorgescountymd.gov/views/hgu2-yg52/files/2pWFWklKMe3SKinZfurEC44lQlT-1jKxsPAp2D1mGb4,16235
Southern Maryland Hospital Center,"7503 Surrats Road
Clinton, MD 20735
(38.75026163400048, -76.87697268299968)",301-868-8000,http://www.medstarsouthernmaryland.org/,https://data.princegeorgescountymd.gov/views/hgu2-yg52/files/2pWFWklKMe3SKinZfurEC44lQlT-1jKxsPAp2D1mGb4,15298
Fort Washington Medical Center,"11711 Livingston Road
Fort Washington, MD 20744
(38.72834338400048, -76.99134821299964)",301-292-7000,http://www.fortwashingtonmc.org/,https://data.princegeorgescountymd.gov/views/hgu2-yg52/files/2pWFWklKMe3SKinZfurEC44lQlT-1jKxsPAp2D1mGb4,15572
