"license_number","license_type","establishment","street_address","city_town","province","postal_code","location"
"006392","Beverage Room","The Ten Spot","5165 South ST","Halifax","NS","B3J 0E2","5165 South ST
Halifax, NS B3J 0E2
(44.640233, -63.569558)"
"006888","Cabaret","Village Taphouse","11 Bloom LN","Bedford","NS","B4B 2E6",
"001028","Club","RCL Br. 70, Stewiacke","299 George ST","Stewiacke","NS","B0N 2J0","299 George ST
Stewiacke, NS B0N 2J0
(45.138522, -63.348163)"
"004328","Club","Clare Curling Club","32 Connector RD","Meteghan","NS","B0W 2J0",
"004954","Club","Pictou Yacht Club","2 Harbour DR","Pictou","NS","B0K 1H0","2 Harbour DR
Pictou, NS B0K 1H0
(45.681528, -62.693674)"
"005947","Club","Whycocomagh Fire Hall","9519 Trans Canada Hwy.","Whycocomagh","NS","B0E 3M0",
"000949","Eating Establishment","Pizza Delight (Antigonish)","348 Main ST","Antigonish","NS","B2G 2C5","348 Main ST
Antigonish, NS B2G 2C5
(45.622192, -61.994309)"
"004744","Eating Establishment","Chanterelle Inn","RR #4","North River Bridge","NS","B0E 1B0",
"004909","Eating Establishment","Uniacke Pizza","158 Old Windsor Hwy","Mount Uniacke","NS","B0N 1Z0",
"005436","Eating Establishment","Bistro 22","16 Inglis PL","Truro","NS","B2N 4B4","16 Inglis PL
Truro, NS B2N 4B4
(45.364162, -63.276368)"
"005993","Eating Establishment","Robie Street Diner","2394 Robie ST","Halifax","NS","B3K 4M7","2394 Robie ST
Halifax, NS B3K 4M7
(44.651045, -63.592532)"
"006487","Eating Establishment","Hub Grub","41 Inglis PL","Truro","NS","B2N4B5","41 Inglis PL
Truro, NS B2N4B5
(45.363905, -63.276286)"
"006580","Eating Establishment","Steinhart Distillery Limited","5963 Highway 245","Arisaig","NS","B2G 2L1",
"006647","Eating Establishment","Osprey's Nest","30 John Rieser DR","Petite Riviere","NS","B0J 2P0",
"006713","Eating Establishment","The Brown Hound Pub","1450 Ironstone LN","Halifax","NS","B3J 0H9",
"006830","Eating Establishment","Jessy's Pizza","501 Timberlea Village Parkw","Timberlea","NS","B3T 1B8",
"003028","Lounge","Sea Deck Lounge","36 Water ST","Chester","NS","B0J 1J0","36 Water ST
Chester, NS B0J 1J0
(44.538749, -64.238296)"
"004893","Lounge","Roost Lounge, The","358 Lacewood DR","Halifax","NS","B3M 2P2",
"006011","Lounge","Obladee, A Wine Bar","1600 Barrington ST","Halifax","NS","B3J 1Z6","1600 Barrington ST
Halifax, NS B3J 1Z6
(44.646118, -63.573498)"
"006078","Special Premises","Cabot Cliffs Golf Course","39 Broad Cove","Inverness","NS","B0E 1N0",
"006426","Special Premises","Greenwood Golf Club","520 Thunderbird Way","Greenwood","NS","B0P 1J0",
"005492","Special Premises","Imagine Salon & Spa","950 Bedford HY","Bedford","NS","B4A 4B5","950 Bedford HY
Bedford, NS B4A 4B5
(44.715825, -63.678165)"
"003547","Eating Establishment","East of Grafton","1580 Argyle ST","Halifax","NS","B3J 2B3","1580 Argyle ST
Halifax, NS B3J 2B3
(44.645494, -63.573972)"
"005248","Eating Establishment","Boston Pizza Dining Room Bridgewater","485 Highway #10","Cookville","NS","B4V 1A9","485 Highway #10
Cookville, NS B4V 1A9
(44.399548, -64.536828)"
"001005","Club","RCL Br. 92, Freeport","184 Water ST","Freeport","NS","B0V 1B0","184 Water ST
Freeport, NS B0V 1B0
(44.273226, -66.326038)"
"005811","Special Premises","Hotel Alt Halifax Stanfield","40 Silver Dart DR","Enfield","NS","B0N 1Y0","40 Silver Dart DR
Enfield, NS B0N 1Y0
(44.885922, -63.515656)"
"006563","Eating Establishment","Boardwalk Tap Room and Eatery","320 Esplanade ST","Sydney","NS","B1P 5X3","320 Esplanade ST
Sydney, NS B1P 5X3
(46.137358, -60.195536)"
"004092","Lounge","Dooly's Lounge, New Minas","9049 Commercial ST","New Minas","NS","B4N 5A4","9049 Commercial ST
New Minas, NS B4N 5A4
(45.067624, -64.456362)"
"005781","Eating Establishment","Tako Sushi and Ramen Restaurant","480 Parkland DR","Halifax","NS","B3S 1P9","480 Parkland DR
Halifax, NS B3S 1P9
(44.671066, -63.675992)"
"006859","Eating Establishment","Sushi 101","912 Cole Harbour RD","Dartmouth","NS","B2V 2J5","912 Cole Harbour RD
Dartmouth, NS B2V 2J5
(44.671237, -63.499437)"
"004831","Eating Establishment","Brooklyn Warehouse","2795 Windsor ST","Halifax","NS","B3K 5E3","2795 Windsor ST
Halifax, NS B3K 5E3
(44.65414, -63.602497)"
"006518","Lounge","Rob's Underground Entertainment","2 Elliot ST","Sydney Mines","NS","B1V 2N2","2 Elliot ST
Sydney Mines, NS B1V 2N2
(46.242594, -60.228959)"
"006595","Eating Establishment","Melt""wich"" Food Co.","325 Prince ST","Sydney","NS","B1P 5K6","325 Prince ST
Sydney, NS B1P 5K6
(46.139447, -60.185387)"
"004819","Lounge","Paddy's Irish Pub Lounge","460 Main ST","Wolfville","NS","B4P 1E2","460 Main ST
Wolfville, NS B4P 1E2
(45.091364, -64.363043)"
"004289","Special Premises","East Preston Recreation Centre","24 Brooks DR","East Preston","NS","B2Z 1G1","24 Brooks DR
East Preston, NS B2Z 1G1
(44.719544, -63.433568)"
"006707","Eating Establishment","Chop Steakhouse and Bar","1680 Grafton ST","Halifax","NS","B3J 2C4","1680 Grafton ST
Halifax, NS B3J 2C4
(44.646772, -63.57534)"
"003287","Eating Establishment","Smokey's Restaurant","81 Wright AV","Dartmouth","NS","B3B 1H4","81 Wright AV
Dartmouth, NS B3B 1H4
(44.704566, -63.596399)"
"005738","Eating Establishment","Edible Matters","1345 Hammonds Plains RD","Bedford","NS","B4B 1P6","1345 Hammonds Plains RD
Bedford, NS B4B 1P6
(44.727047, -63.744504)"
"006803","Eating Establishment","Ecole dans l'anse Resto sur mer","2 Belliveau Cove RD","Belliveau Cove","NS","B0W 1J0","2 Belliveau Cove RD
Belliveau Cove, NS B0W 1J0
(44.386059, -66.062691)"
"005096","Club","Lakeshore Curling Club","409 Glendale DR","Lower Sackville","NS","B4E 1M2","409 Glendale DR
Lower Sackville, NS B4E 1M2
(44.7728, -63.675398)"
"006642","Eating Establishment","D’Theatre Restaurant and Pub","236 Commercial ST","North Sydney","NS","B2A 3M4","236 Commercial ST
North Sydney, NS B2A 3M4
(46.208099, -60.249896)"
"001166","Club","RCL Br. 45, Parrsboro","56 Moore ST","Parrsboro","NS","B0M 1S0","56 Moore ST
Parrsboro, NS B0M 1S0
(45.405409, -64.323618)"
"006254","Eating Establishment","USTA Turkish & Mediterranean Restaurant","635 Portland Hills DR","Dartmouth",,"B2W 0J7","635 Portland Hills DR
Dartmouth,  B2W 0J7
(44.669294, -63.507608)"
"006193","Eating Establishment","The Dart Gallery & Picnic at Dart","127 Portland ST","Dartmouth","NS","B2Y 1H8","127 Portland ST
Dartmouth, NS B2Y 1H8
(44.666736, -63.565379)"
"006515","Special Premises","Chedabucto Lifestyle Complex","60 Green ST","Guysborough","NS","B0H 1N0","60 Green ST
Guysborough, NS B0H 1N0
(45.386509, -61.50259)"
"006606","Special Premises","Black Point and Area Community Hall","8579-B St. Margaret's Bay R","Black Point","NS","B0J 1B0",
"004517","Eating Establishment","Saltspray Restaurant","300 Esplanade ST","Sydney","NS","B1P 1A7","300 Esplanade ST
Sydney, NS B1P 1A7
(46.138764, -60.195975)"
"001044","Club","Birch Grove Fire Department","1424 Birch Grove RD","Birch Grove","NS","B1B 1L9","1424 Birch Grove RD
Birch Grove, NS B1B 1L9
(46.121236, -59.96045)"
"004775","Special Premises","Mariner King Inn","15 King ST","Lunenburg","NS","B0J 2C0","15 King ST
Lunenburg, NS B0J 2C0
(44.376982, -64.30973)"
"005079","Special Premises","Antigonish Arena","30 James ST","Antigonish","NS","B2G 1R7","30 James ST
Antigonish, NS B2G 1R7
(45.616116, -62.000916)"
"006781","Eating Establishment","The Commune Drinks + Music + Culture","84 Provost ST","New Glasgow","NS",,"84 Provost ST
New Glasgow, NS 
(45.588788, -62.644598)"
"002587","Special Premises","North Shore Recreation Centre","30 Blair AV","Tatamagouche","NS","B0K 1V0","30 Blair AV
Tatamagouche, NS B0K 1V0
(45.714638, -63.300631)"
"003781","Lounge","Sherlock's Piano Bar Lounge","150 Willow ST","Truro","NS","B2N 4Z6","150 Willow ST
Truro, NS B2N 4Z6
(45.360136, -63.289977)"
"003830","Special Premises","Digby Pines Golf Resort & Spa","111 Culloden RD","Digby","NS","B0V 1A0","111 Culloden RD
Digby, NS B0V 1A0
(44.63129, -65.773315)"
"005384","Lounge","Courtyard by Marriott Hotel Lounge","5120 Salter ST","Halifax","NS","B3J 0A1","5120 Salter ST
Halifax, NS B3J 0A1
(44.645174, -63.570959)"
"001686","Special Premises","Old Orchard Inn","153 Greenwich RD","Wolfville","NS","B4P 2R2","153 Greenwich RD
Wolfville, NS B4P 2R2
(45.0748, -64.3995)"
"006275","Special Premises","Art Bar & Projects","1873 Granville ST","Halifax","NS","B3J 1Y1","1873 Granville ST
Halifax, NS B3J 1Y1
(44.649822, -63.57465)"
"001512","Eating Establishment","Gales Eatery","417 Main ST","Yarmouth","NS","B5A 4B2","417 Main ST
Yarmouth, NS B5A 4B2
(43.839136, -66.119414)"
"002673","Lounge","Glooscap Lounge","758 Upper Main ST","Parrsboro","NS","B0M 1S0","758 Upper Main ST
Parrsboro, NS B0M 1S0
(45.416137, -64.332685)"
"004341","Club","Margaree Kinsmen Club","1280 East Margaree RD","East Margaree","NS","B0E 1Y0","1280 East Margaree RD
East Margaree, NS B0E 1Y0
(46.388944, -61.071957)"
"004968","Lounge","Redwood Grill Lounge","30 Fairfax DR","Halifax","NS","B3S 1P1","30 Fairfax DR
Halifax, NS B3S 1P1
(44.658931, -63.671445)"
"006386","Eating Establishment","Nayya Pizza and Grill","540 Southgate DR","Bedford","NS","B4A0C9","540 Southgate DR
Bedford, NS B4A0C9
(44.701469, -63.67804)"
"005001","Eating Establishment","The Captain's Boil","5680 Spring Garden RD","Halifax","NS","B3J 1H5","5680 Spring Garden RD
Halifax, NS B3J 1H5
(44.642443, -63.579159)"
"005325","Eating Establishment","Dekies Restaurant","752 Sackville Drive","Lower Sackville","NS","B4E 1R7","752 Sackville Drive
Lower Sackville, NS B4E 1R7
(44.773716, -63.692823)"
"003893","Club","Northumberland Golf Club","1776 Gulf Shore RD","Pugwash","NS","B0K 1L0","1776 Gulf Shore RD
Pugwash, NS B0K 1L0
(45.873158, -63.577781)"
"003265","Eating Establishment","La Frasca Cibi & Vini","5650 Spring Garden RD","Halifax","NS","B3J 3T2","5650 Spring Garden RD
Halifax, NS B3J 3T2
(44.642657, -63.578338)"
"005764","Eating Establishment","Samira's Lebanese Cuisine","8465 Bay RD","Black Point","NS","B0J 1B0",
"001841","Club","Cape Breton Ski Club","5101 East Bay Hwy 4","Ben Eoin","NS","B1J 1P1","5101 East Bay Hwy 4
Ben Eoin, NS B1J 1P1
(45.976339, -60.436701)"
"006643","Lounge","D’Theatre Restaurant and Pub","236 Commercial ST","North Sydney","NS","B2A 3M4","236 Commercial ST
North Sydney, NS B2A 3M4
(46.208099, -60.249896)"
"005253","Eating Establishment","Swiss Chalet (Bridgewater)","8 Pine Grove RD","Cookville","NS","B4V 4H5","8 Pine Grove RD
Cookville, NS B4V 4H5
(44.400093, -64.536488)"
"006152","Lounge","St. Louis Bar & Grill","547 Portland ST","Dartmouth","NS","B2Y 4B1","547 Portland ST
Dartmouth, NS B2Y 4B1
(44.670253, -63.538624)"
"006551","Eating Establishment","Williams Beach House Restaurant and B &B Inc","36905 Cabot Trail","Ingonish Beach","NS","B0C 1L0","36905 Cabot Trail
Ingonish Beach, NS B0C 1L0
(46.674486, -60.408137)"
"002064","Eating Establishment","The Narrows Bistro","101 Wyse RD","Dartmouth","NS","B3A 1L9","101 Wyse RD
Dartmouth, NS B3A 1L9
(44.669385, -63.576658)"
"006221","Lounge","Edible Matters","1345 Hammonds Plains RD","Bedford","NS","B4B 1P6","1345 Hammonds Plains RD
Bedford, NS B4B 1P6
(44.727047, -63.744504)"
"005914","Eating Establishment","Rose & Rooster Bakery","6502 Hwy. 207","Head of Chezzetcook","NS","B0J 1N0","6502 Hwy. 207
Head of Chezzetcook, NS B0J 1N0
(44.688038, -63.257604)"
"005511","Eating Establishment","Coastal Coffee","2731 Robie ST","Halifax","NS","B3K 4P1","2731 Robie ST
Halifax, NS B3K 4P1
(44.656522, -63.597563)"
"001325","Special Premises","Bicentennial Theatre & Cultural Centre","12390 Hwy 224","Mid. Musquodoboit","NS","B0N 1X0","12390 Hwy 224
Mid. Musquodoboit, NS B0N 1X0
(45.044246, -63.150661)"
"001198","Eating Establishment","Brownstone Cafe","244 Main ST","Antigonish","NS","B2G 2C2","244 Main ST
Antigonish, NS B2G 2C2
(45.622487, -61.990514)"
"001722","Club","RCL Br. 62, Louisbourg","7569 Main ST","Louisbourg","NS","B1C 1J9","7569 Main ST
Louisbourg, NS B1C 1J9
(45.918916, -59.975865)"
"005418","Eating Establishment","Cut Steakhouse & Urban Grill","5120 Salter ST","Halifax",,"B3J 0A1","5120 Salter ST
Halifax,  B3J 0A1
(44.645174, -63.570959)"
"003157","Beverage Room","Bar@Bowlarama","16 Dentith RD","Spryfield","NS","B3R 2H9","16 Dentith RD
Spryfield, NS B3R 2H9
(44.613268, -63.618324)"
"006223","Eating Establishment","The Golden Fortune Restaurant","189 Herring Cove RD","Halifax","NS","B3P 1K9","189 Herring Cove RD
Halifax, NS B3P 1K9
(44.624934, -63.617177)"
"006894","Special Premises","Chester Art Centre","60 Queen ST","Chester","NS","B0J 1J0","60 Queen ST
Chester, NS B0J 1J0
(44.539248, -64.240188)"
"004653","Eating Establishment","May Garden Restaurant","829 Sackville DR","Lower Sackville","NS","B4E1V5","829 Sackville DR
Lower Sackville, NS B4E1V5
(44.775474, -63.694922)"
"002590","Eating Establishment","Pizza Delight (Greenwood)","801 Central AV","Greenwood","NS","B0P 1N0","801 Central AV
Greenwood, NS B0P 1N0
(44.970936, -64.935567)"
"003715","Eating Establishment","Mount Uniacke Pub & Eatery","125 #1, Highway","Mount Uniacke","NS","B0N  1Z0",
"005943","Lounge","The Butchers Block Pub & Eatery","540 Southgate DR","Bedford","NS","B4A 0C9","540 Southgate DR
Bedford, NS B4A 0C9
(44.701469, -63.67804)"
"006517","Eating Establishment","Rob's Underground Entertainment","2 Elliot ST","Sydney Mines","NS","B1V 2N2","2 Elliot ST
Sydney Mines, NS B1V 2N2
(46.242594, -60.228959)"
"000796","Special Premises","LaHave River Yacht Club","77 Pernette RD","Pleasantville","NS","B4V 2W8","77 Pernette RD
Pleasantville, NS B4V 2W8
(44.311247, -64.408933)"
"004516","Military","36 Canadian Brigade Group HQ","5480 Royal Artillery CT","Halifax","NS","B3J 0A8","5480 Royal Artillery CT
Halifax, NS B3J 0A8
(44.644783, -63.577409)"
"002289","Lounge","Steamers Lounge","73A Starrs RD","Yarmouth","NS","B5A 2T6","73A Starrs RD
Yarmouth, NS B5A 2T6
(43.844241, -66.107437)"
"002527","Lounge","Flying Bridge Lounge","84 Montague ST","Lunenburg","NS","B0J 2C0","84 Montague ST
Lunenburg, NS B0J 2C0
(44.376495, -64.310927)"
"006022","Eating Establishment","Lin Garden Restaurant","537 Hwy. 2","Elmsdale","NS","B2S 1A4","537 Hwy. 2
Elmsdale, NS B2S 1A4
(44.957309, -63.520796)"
"004269","Lounge","Harbour Lounge","15299 Cabot Trail","Cheticamp","NS","B0E 1H0","15299 Cabot Trail
Cheticamp, NS B0E 1H0
(46.631956, -61.010804)"
"001578","Eating Establishment","Amherst Shore Country Inn","5091 Route 366","Lorneville","NS","B4H 3X9","5091 Route 366
Lorneville, NS B4H 3X9
(45.988703, -63.963151)"
"004823","Club","Barrington Regional Curling Club","40 Park LN","Barrington Passage","NS","B0W 1G0","40 Park LN
Barrington Passage, NS B0W 1G0
(43.537424, -65.598654)"
"006145","Special Premises","Luckett Vineyards","1293 Grand Pre RD","Wolfville","NS","B4P 2R3","1293 Grand Pre RD
Wolfville, NS B4P 2R3
(45.072527, -64.295302)"
"006265","Lounge","Rack & Cue Snooker Club Limited","334 Stewart ST","New Glasgow","NS","B2H 2R4","334 Stewart ST
New Glasgow, NS B2H 2R4
(45.584456, -62.646686)"
"006299","Eating Establishment","Rinaldo's Italian American Specialties","2186 Windsor ST","Halifax","NS","B3K 5B8","2186 Windsor ST
Halifax, NS B3K 5B8
(44.649984, -63.59515)"
"003970","Special Premises","Sherwood Golf & Country Club","500 Sherwood RD","Sherwood","NS","B0J 1J0","500 Sherwood RD
Sherwood, NS B0J 1J0
(44.718704, -64.30931)"
"005203","Lounge","Red Shoe Pub & Eatery Lounge","11533 Highway 19","Mabou","NS","B0E 1X0","11533 Highway 19
Mabou, NS B0E 1X0
(46.072366, -61.391023)"
"006508","Club","Inverness Volunteer Fire Department","15797 Central AV","Inverness","NS","B0E1N0","15797 Central AV
Inverness, NS B0E1N0
(46.229897, -61.306285)"
"005566","Eating Establishment","Cha Baa Thai Dartmouth","100 Ilsley AV","Dartmouth","NS","B3B 1L3","100 Ilsley AV
Dartmouth, NS B3B 1L3
(44.699791, -63.586618)"
"001317","Club","RCL Br. 8, Sydney Mines","769 Main ST","Sydney Mines","NS","B1V 2Y4","769 Main ST
Sydney Mines, NS B1V 2Y4
(46.242192, -60.229587)"
"006323","Eating Establishment","EJ's Grill & General Store","644 Route 8","Maitland Bridge","NS","B0T 1B0","644 Route 8
Maitland Bridge, NS B0T 1B0
(44.441466, -65.198675)"
"002173","Eating Establishment","Old Orchard Inn Dining Room","153 Greenwich RD","Wolfville","NS","B4P 2R2","153 Greenwich RD
Wolfville, NS B4P 2R2
(45.0748, -64.3995)"
"006168","Eating Establishment","Highwayman Restaurant & Bar","1673 Barrington ST","Halifax","NS","B3J 1Z9","1673 Barrington ST
Halifax, NS B3J 1Z9
(44.646865, -63.573903)"
"006656","Special Premises","Sensea Nature Spa","40 Sensea RD","Chester","NS","B0J 1J0","40 Sensea RD
Chester, NS B0J 1J0
(44.551944, -64.238992)"
"002871","Eating Establishment","Kings Arms Pub by Lew Murphy's","390 Main ST","Kentville","NS","B4N 4H8","390 Main ST
Kentville, NS B4N 4H8
(45.07715, -64.495846)"
"004547","Eating Establishment","Terris Place Bar & Grill EE","498 Sackville DR","Lower Sackville","NS","B4C 2S1","498 Sackville DR
Lower Sackville, NS B4C 2S1
(44.765858, -63.68116)"
"006794","Lounge","Salt Yard Social","1597 Lower Water ST","Halifax","NS","B3J 3P6","1597 Lower Water ST
Halifax, NS B3J 3P6
(44.646419, -63.57098)"
"005665","Eating Establishment","Wok By the Bay","49 Water ST","Digby","NS","B0V 1A0","49 Water ST
Digby, NS B0V 1A0
(44.623875, -65.756556)"
"005913","Special Premises","Hampton Inn Sydney","60 Maillard ST","Sydney","NS","B1S 3W3","60 Maillard ST
Sydney, NS B1S 3W3
(46.121734, -60.190659)"
"004908","Special Premises","Glen Lovat Golf Course","151 Frassers Mt. Branch RD","New Glasgow","NS","B2H 5C4",
"003139","Lounge","Elm Tree Pub & Grill Lounge","1 Victoria ST","Amherst","NS","B4H 1X3","1 Victoria ST
Amherst, NS B4H 1X3
(45.832025, -64.213801)"
"006701","Eating Establishment","Auld Shamrock","85 Commercial ST","Dominion","NS","B1G 1B3","85 Commercial ST
Dominion, NS B1G 1B3
(46.210828, -60.022715)"
"001073","Club","Georges River Comm. Vol. Fire Dept.","1208 Georges River RD","Georges River","NS","B1Y 3Y6","1208 Georges River RD
Georges River, NS B1Y 3Y6
(46.204139, -60.324015)"
"004705","Special Premises","Baddeck Curling Club","14 Campbell ST","Baddeck","NS","B0E 1B0","14 Campbell ST
Baddeck, NS B0E 1B0
(46.100139, -60.758525)"
"003827","Eating Establishment","Engine Room Dining Room","166 Esplanade ST","Truro","NS","B2N 2K3","166 Esplanade ST
Truro, NS B2N 2K3
(45.363365, -63.274194)"
"004179","Eating Establishment","Red Asian Fusion Restaurant","5169 South ST","Halifax","NS","B3J 1A2","5169 South ST
Halifax, NS B3J 1A2
(44.640126, -63.570025)"
"006509","Eating Establishment","Old Church Cafe","3606 Highway 209","Advocate Harbour","NS","B0M 1A0","3606 Highway 209
Advocate Harbour, NS B0M 1A0
(45.337576, -64.783969)"
"006545","Lounge","Winemakers Tavern","498 Main ST","Lawrencetown","NS","B0S 1M0","498 Main ST
Lawrencetown, NS B0S 1M0
(44.882264, -65.158552)"
"001617","Club","St. Joseph's Lebanese & Syrian Club","30 MacKenzie ST","Sydney","NS","B1P 1W5","30 MacKenzie ST
Sydney, NS B1P 1W5
(46.134683, -60.186228)"
"002201","Club","Kingston Lions Club","1482 Veterans LN","Kingston","NS","B0P 1R0","1482 Veterans LN
Kingston, NS B0P 1R0
(44.987064, -64.947647)"
"006031","Special Premises","Bowlarama","16 Dentith RD","Spryfield","NS","B3R 2H9","16 Dentith RD
Spryfield, NS B3R 2H9
(44.613268, -63.618324)"
"005853","Eating Establishment","East Foodies Chinese Restaurant","1465 St. Margarets Bay RD","Lakeside","NS","B3T 1B3","1465 St. Margarets Bay RD
Lakeside, NS B3T 1B3
(44.637706, -63.697973)"
"000775","Lounge","Top Deck Lounge","441 Shore RD","Digby","NS","B0V 1A0","441 Shore RD
Digby, NS B0V 1A0
(44.646859, -65.757844)"
"003513","Special Premises","Amherst Stadium","185 Church ST","Amherst","NS","B4H 4A1","185 Church ST
Amherst, NS B4H 4A1
(45.82735, -64.199035)"
"006759","Eating Establishment","Fossil Farms","77 McVicar LN","Egerton","NS","B0X 1G0","77 McVicar LN
Egerton, NS B0X 1G0
(45.615315, -62.47165)"
"005860","Lounge","Shining Waters","148 Nautical Way","Tantallon","NS","B3Z 2P3","148 Nautical Way
Tantallon, NS B3Z 2P3
(44.657224, -63.911768)"
"003609","Lounge","Dock-Food Spirits and Ales Lounge","130 George ST","New Glasgow","NS","B2H 2K6","130 George ST
New Glasgow, NS B2H 2K6
(45.589386, -62.644919)"
"002455","Club","Banook Canoe Club","17 Banook AV","Dartmouth","NS","B2Y 3Y2","17 Banook AV
Dartmouth, NS B2Y 3Y2
(44.675502, -63.56253)"
"005633","Eating Establishment","Modern Orchid-Southeast Asian Cuisine","171 Hector Gate","Dartmouth Crossing","NS","B3B 0E5","171 Hector Gate
Dartmouth Crossing, NS B3B 0E5
(44.705582, -63.562012)"
"006694","Eating Establishment","Wok Your Way Restaurant","535 Portland ST","Dartmouth","NS","B2Y4B1","535 Portland ST
Dartmouth, NS B2Y4B1
(44.670252, -63.538573)"
"006727","Eating Establishment","Cheese Curds/ Habaneros","277 Lacewood DR","Halifax","NS","B3M 4K3","277 Lacewood DR
Halifax, NS B3M 4K3
(44.662681, -63.655423)"
"003299","Club","Meteghan Lions Club","313 Maxwellton RD","Meteghan Centre","NS","B0W 2K0","313 Maxwellton RD
Meteghan Centre, NS B0W 2K0
(44.198864, -66.136313)"
"002900","Lounge","Glasgow Pub Lounge","300 Stewart ST","New Glasgow","NS","B2H 2R4","300 Stewart ST
New Glasgow, NS B2H 2R4
(45.584957, -62.646381)"
"006863","Lounge","Dickie Baxter Taproom & Bistro","9809 Main ST","Canning","NS","B0P 1H0","9809 Main ST
Canning, NS B0P 1H0
(45.157816, -64.422373)"
"006134","Special Premises","Patrons Rec Room","105-27 Dellridge LN","Bedford","NS","B4A 0H1","105-27 Dellridge LN
Bedford, NS B4A 0H1
(44.701674, -63.68758)"
"004231","Eating Establishment","Whistler's Pub & Grub Dining Room","285 George ST","Stewiacke","NS","B0N 2J0","285 George ST
Stewiacke, NS B0N 2J0
(45.138356, -63.349121)"
"005879","Eating Establishment","The Nook on Gottingen","2118 Gottingen ST","Halifax","NS","B3K 0C5","2118 Gottingen ST
Halifax, NS B3K 0C5
(44.652102, -63.583511)"
"002017","Lounge","The Wooden Monkey Lounge","88 Alderney DR","Dartmouth","NS","B2Y 3Z6","88 Alderney DR
Dartmouth, NS B2Y 3Z6
(44.664577, -63.568717)"
"002089","Special Premises","M.V. Blue Puttees","355 Purves ST","North Sydney","NS","B2A 3M5","355 Purves ST
North Sydney, NS B2A 3M5
(46.212223, -60.243672)"
"005807","Beverage Room","Hervic Beverage Room","2896 Melbourne RD","Pinkney's Pt.","NS","B0W 1B0","2896 Melbourne RD
Pinkney's Pt., NS B0W 1B0
(43.704296, -66.055974)"
"004958","Lounge","Niche Lounge Supperclub Lounge","1505 Barrington ST","Halifax","NS","B3J 3K5","1505 Barrington ST
Halifax, NS B3J 3K5
(44.64422, -63.572526)"
"005159","Eating Establishment","French Club 2004 Grill","425 Eighth ST","New Waterford","NS","B1H 3S6","425 Eighth ST
New Waterford, NS B1H 3S6
(46.24928, -60.085437)"
"006310","Eating Establishment","Vernon's Thunderbird Diner Inc.","2094 Hammonds Plains RD","Hammonds Plains","NS","B4B 1P3","2094 Hammonds Plains RD
Hammonds Plains, NS B4B 1P3
(44.733656, -63.785509)"
"001083","Club","Barrington Area Lions Club","2904 NS Trunk 3","Barrington Passage","NS","B0W 1E0","2904 NS Trunk 3
Barrington Passage, NS B0W 1E0
(43.554342, -65.601581)"
"004629","Special Premises","Annapolis Basin Conference Center","180 Atlantic ST","Cornwallis Park","NS","B0S 1E0","180 Atlantic ST
Cornwallis Park, NS B0S 1E0
(44.651586, -65.633973)"
"006437","Special Premises","Dartmouth 4-Pad Arena","259 Commodore DR","Dartmouth","NS","B3B 0M1","259 Commodore DR
Dartmouth, NS B3B 0M1
(44.701212, -63.577226)"
"001819","Club","RCL Br. 17, Springhill","10 Elgin ST","Springhill","NS","B0M 1X0","10 Elgin ST
Springhill, NS B0M 1X0
(45.650176, -64.059838)"
"003081","Lounge","A.J.'s  Lounge","237 Main ST","Canso","NS","B0H 1H0","237 Main ST
Canso, NS B0H 1H0
(45.334199, -61.000455)"
"004865","Special Premises","Mabou River Inn","19 Southwest Ridge RD","Mabou","NS","B0E 1X0","19 Southwest Ridge RD
Mabou, NS B0E 1X0
(46.068004, -61.397796)"
"006139","Eating Establishment","Good Robot Brewing Company","2736 Robie ST","Halifax","NS","B3K 4P2","2736 Robie ST
Halifax, NS B3K 4P2
(44.65662, -63.597711)"
"005385","Club","Lennox Passage Yacht Club","3335 Highway 320","D'Escousse","NS","B0E 1K0","3335 Highway 320
D'Escousse, NS B0E 1K0
(45.587871, -60.961233)"
"006460","Eating Establishment","Foggy Hermit Cafe","7551 Main ST","Louisbourg","NS","B1C 1J5","7551 Main ST
Louisbourg, NS B1C 1J5
(45.919246, -59.974125)"
"005184","Eating Establishment","Deb's Hidden Cafe","4149 Scotsburn RD","Pictou","NS","B0K 1R0","4149 Scotsburn RD
Pictou, NS B0K 1R0
(45.651826, -62.854362)"
"000876","Eating Establishment","Ko's Restaurant","434 King ST","Bridgewater","NS","B4V 1A9","434 King ST
Bridgewater, NS B4V 1A9
(44.376065, -64.517056)"
"003630","Eating Establishment","Farmers Family Diner","1256 Ward RD","Millville","NS","B0P 1C0","1256 Ward RD
Millville, NS B0P 1C0
(45.001047, -64.828434)"
"001982","Eating Establishment","Parkview Restaurant","16546 Cabot Trail","Cheticamp","NS","B0E 1H0","16546 Cabot Trail
Cheticamp, NS B0E 1H0
(46.64771, -60.956246)"
"001134","Special Premises","Martock II Ski & Recreation Lodge","370 Ski Martock RD","Windsor","NS","B0N 2T0","370 Ski Martock RD
Windsor, NS B0N 2T0
(44.935916, -64.172711)"
"005691","Lounge","Big Al's Acadian Lounge","9 Station RD","Tatamagouche","NS","B0K 1V0","9 Station RD
Tatamagouche, NS B0K 1V0
(45.708695, -63.285006)"
"001513","Lounge","Haley's Lounge","417 Main ST","Yarmouth","NS","B5A 4B2","417 Main ST
Yarmouth, NS B5A 4B2
(43.839136, -66.119414)"
"003080","Eating Establishment","A.J.'s Dining Room","237 Main ST","Canso","NS","B0H 1H0","237 Main ST
Canso, NS B0H 1H0
(45.334199, -61.000455)"
"004338","Lounge","Townhouse Brewpub & Eatery Lounge","76 College ST","Antigonish","NS","B2G 1X7","76 College ST
Antigonish, NS B2G 1X7
(45.622709, -61.991471)"
"002100","Club","Church Point Social Club","1838 Trunk 1","Church Point","NS","B0W 1M0",
"003798","Eating Establishment","The Pond Classic Grill","191 Pictou RD","Bible Hill","NS","B2N 2S7","191 Pictou RD
Bible Hill, NS B2N 2S7
(45.378261, -63.250379)"
"006533","Eating Establishment","Kajohn Thai Restaurant","6140 Young ST","Halifax","NS","B3K 0G2","6140 Young ST
Halifax, NS B3K 0G2
(44.657806, -63.60478)"
"001476","Club","RCL Br. 153, Whites Lake","3495 Prospect RD","Whites Lake","NS","B3T 1Z3","3495 Prospect RD
Whites Lake, NS B3T 1Z3
(44.525173, -63.770677)"
"002960","Eating Establishment","Bonnie Prince Dining Room","50 Reeves ST","Sydney","NS","B1P 6G6","50 Reeves ST
Sydney, NS B1P 6G6
(46.142703, -60.159692)"
"006751","Eating Establishment","Grind House","294 Main ST","Antigonish","NS","B2G 2C4","294 Main ST
Antigonish, NS B2G 2C4
(45.622502, -61.992412)"
"005791","Eating Establishment","Dieter's German Baked Goods & Cafe","358 St. George ST","Annapolis Royal","NS","B0S 1A0","358 St. George ST
Annapolis Royal, NS B0S 1A0
(44.742313, -65.516729)"
"005089","Eating Establishment","King Bo Restaurant","226 Duke ST","Chester","NS","B0J 1J0","226 Duke ST
Chester, NS B0J 1J0
(44.546149, -64.237052)"
"006205","Eating Establishment","Crystany's Brasserie","9848 Main ST","Canning","NS","B0P 1H0","9848 Main ST
Canning, NS B0P 1H0
(45.157218, -64.420022)"
"006828","Eating Establishment","Gerrish and Gray","134 Gerrish ST","Windsor","NS","B0N 2T0","134 Gerrish ST
Windsor, NS B0N 2T0
(44.994312, -64.136911)"
"006850","Eating Establishment","Young Pocha Korean Restaurant (BBQ)","5650 Spring Garden RD","Halifax","NS","B3J 1H4","5650 Spring Garden RD
Halifax, NS B3J 1H4
(44.642657, -63.578338)"
"006215","Beverage Room","Hell Bay Brewing Company","38 Legion ST","Liverpool","NS","B0T 1K0","38 Legion ST
Liverpool, NS B0T 1K0
(44.038242, -64.717545)"
"005771","Special Premises","Parkland at the Gardens Retirement Campus","5732 College ST","Halifax","NS","B3H 1X3","5732 College ST
Halifax, NS B3H 1X3
(44.640815, -63.580749)"
"004675","Lounge","Gutters Lounge","5 Gerrard AV","Amherst","NS","B4H 4S8","5 Gerrard AV
Amherst, NS B4H 4S8
(45.830047, -64.213806)"
"005891","Eating Establishment","Agricola Street Brasserie","2540 Agricola ST","Halifax","NS","B3K 4C5","2540 Agricola ST
Halifax, NS B3K 4C5
(44.654691, -63.592653)"
"005637","Lounge","Clove Hitch Bar & Bistro","8790 Highway#19","Port Hood","NS","B0E 2W0","8790 Highway#19
Port Hood, NS B0E 2W0
(46.00829, -61.527573)"
"006732","Eating Establishment","LOS TOROS Spanish Restaurant","5075 George ST","Halifax","NS","B3J 3R6","5075 George ST
Halifax, NS B3J 3R6
(44.649178, -63.571869)"
"004130","Lounge","Black Diamond Bar & Grill Lounge","76 Townsend ST","Sydney","NS","B1P 5C8","76 Townsend ST
Sydney, NS B1P 5C8
(46.134667, -60.193232)"
"003358","Lounge","Thistle Bar and Grill","610 East River RD","New Glasgow","NS","B2H 3S2","610 East River RD
New Glasgow, NS B2H 3S2
(45.577716, -62.642391)"
"005519","Club","East Side Community Centre","700 Highway #3","Middle East Pubnico","NS","B0W 2A0","700 Highway #3
Middle East Pubnico, NS B0W 2A0
(43.626379, -65.769082)"
"005457","Club","Bible Hill Village Hall (Community & Fire Hall)","69 Pictou RD","Bible Hill","NS","B2N 2R9","69 Pictou RD
Bible Hill, NS B2N 2R9
(45.375034, -63.264065)"
"000990","Club","RCL Br. 69, Berwick","232 Main ST","Berwick","NS","B0P 1E0","232 Main ST
Berwick, NS B0P 1E0
(45.051251, -64.73681)"
"003978","Lounge","Dooly's Lounge (Sydney)","65 Pitt ST","Sydney","NS","B1P 5X6","65 Pitt ST
Sydney, NS B1P 5X6
(46.139319, -60.194257)"
"006118","Eating Establishment","Two Doors Down Bar & Bites","1533 Barrington ST","Halifax","NS","B3J 1Z4","1533 Barrington ST
Halifax, NS B3J 1Z4
(44.644805, -63.572794)"
"005269","Lounge","Hilton Garden Inn Lounge","200 Pratt & Whitney DR","Enfield","NS","B2T 0A2",
"006541","Eating Establishment","The Mercantile Social","1579 Hollis ST","Halifax","NS","B3J1V3","1579 Hollis ST
Halifax, NS B3J1V3
(44.645807, -63.57194)"
"002327","Eating Establishment","Le Gabriel Restaurant","15424 Cabot Trail","Cheticamp","NS","B0E 1H0","15424 Cabot Trail
Cheticamp, NS B0E 1H0
(46.636098, -61.007937)"
"002691","Special Premises","Dominion & District Recreation Complex","142 Kings RD","Dominion","NS","B1G 1H6","142 Kings RD
Dominion, NS B1G 1H6
(46.213436, -60.014667)"
"002508","Eating Establishment","Pizza Delight (Digby)","100 Victoria ST","Digby","NS","B0V 1A0","100 Victoria ST
Digby, NS B0V 1A0
(44.618189, -65.765417)"
"001217","Club","Christmas Island, Dist. #6, Vol. F. D","8539 Grand Narrows Hwy.","Grand Narrows","NS","B1T 1B1","8539 Grand Narrows Hwy.
Grand Narrows, NS B1T 1B1
(45.970132, -60.751379)"
"005031","Lounge","Wick Pub","183 Commercial ST","Berwick","NS","B0P 1E0","183 Commercial ST
Berwick, NS B0P 1E0
(45.042376, -64.735055)"
"006393","Lounge","The Brown Hound Pub Incorporated","2394 Agricola ST","Halifax","NS","B3K 4B9","2394 Agricola ST
Halifax, NS B3K 4B9
(44.652823, -63.589897)"
"001913","Eating Establishment","Marco's Grill & Pasta House","624 Main ST","Yarmouth","NS","B5A 1J9","624 Main ST
Yarmouth, NS B5A 1J9
(43.850972, -66.11457)"
"005722","Special Premises","Tracie's Spa","176 Inglis ST","Sydney","NS","B1P 1X2","176 Inglis ST
Sydney, NS B1P 1X2
(46.135743, -60.184495)"
"006186","Eating Establishment","Fisherman's Catch Family Eatery","80 Montague ST","Lunenburg","NS","B0J 2C0","80 Montague ST
Lunenburg, NS B0J 2C0
(44.376552, -64.311444)"
"001813","Special Premises","Nova Scotia Provincial Exhibition","73 Ryland AV","Bible Hill","NS","B2N 5C5","73 Ryland AV
Bible Hill, NS B2N 5C5
(45.375456, -63.26663)"
"004747","Eating Establishment","Rhubarb Restaurant","8650 Peggy's Cove RD","Indian Harbour","NS","B3Z 3P4","8650 Peggy's Cove RD
Indian Harbour, NS B3Z 3P4
(44.520763, -63.935851)"
"006710","Special Premises","Fired Creations, The Pottery Painting Cafe","582 George ST","Sydney","NS","B4P 1K9","582 George ST
Sydney, NS B4P 1K9
(46.134752, -60.191439)"
"004090","Eating Establishment","Jiang Nan Restaurant","1518 Dresden RD","Halifax","NS","B3J 2K2","1518 Dresden RD
Halifax, NS B3J 2K2
(44.643218, -63.578054)"
"006472","Eating Establishment","Pascalice's Bistro","976 Central AV","Greenwood","NS","B0P 1N0","976 Central AV
Greenwood, NS B0P 1N0
(44.968093, -64.927194)"
"005176","Special Premises","Al MacInnis Sports Center","45 Wharf RD","Port Hood","NS","B0E 2W0","45 Wharf RD
Port Hood, NS B0E 2W0
(46.016994, -61.535707)"
"006458","Lounge","Hopyard Halifax","2103 Gottingen ST","Halifax","NS","B3K 3B2","2103 Gottingen ST
Halifax, NS B3K 3B2
(44.651834, -63.583108)"
"001272","Eating Establishment","Miller's Cafe","717 Reeves ST","Port Hawkesbury","NS","B9A 2S2","717 Reeves ST
Port Hawkesbury, NS B9A 2S2
(45.6145, -61.350791)"
"006380","Eating Establishment","Buta Ramen Inc.","5190 Morris ST","Halifax","NS","B3J 1B3","5190 Morris ST
Halifax, NS B3J 1B3
(44.64182, -63.571058)"
"004868","Eating Establishment","Double Dragon Restaurant","9006 Commercial ST","New Minas","NS","B4N 3E2","9006 Commercial ST
New Minas, NS B4N 3E2
(45.067901, -64.4595)"
"006573","Eating Establishment","Gahan House Nova","5239 Sackville ST","Halifax","NS","B3J 2C4","5239 Sackville ST
Halifax, NS B3J 2C4
(44.646099, -63.574151)"
"005567","Special Premises","The Birches at Ben Eoin Country Inn Ltd.","5101 East Bay Hwy 4","Ben Eoin","NS","B1J 1P1","5101 East Bay Hwy 4
Ben Eoin, NS B1J 1P1
(45.976339, -60.436701)"
"006443","Eating Establishment","Portside Beer Garden","144 Esplanade","Sydney","NS","B1P 1A1","144 Esplanade
Sydney, NS B1P 1A1
(46.14178, -60.197654)"
"003944","Eating Establishment","Sushi Nami Royale","1458 Queen ST","Halifax","NS","B3J 2H7","1458 Queen ST
Halifax, NS B3J 2H7
(44.642462, -63.575516)"
"006761","Lounge","Church Brewing Company","329 Main ST","Wolfville","NS","B4P 1C8","329 Main ST
Wolfville, NS B4P 1C8
(45.091816, -64.358183)"
"001462","Special Premises","VIA Rail Canada Inc.","1161 Hollis ST","Halifax","NS","B3H 2P6","1161 Hollis ST
Halifax, NS B3H 2P6
(44.639636, -63.568817)"
"005333","Lounge","Shooters Sports Billiard Club","194 Highway #2","Enfield","NS","B2T 1C8","194 Highway #2
Enfield, NS B2T 1C8
(44.938532, -63.534545)"
"006603","Eating Establishment","Harvest-A Farm-To-Table Eatery","5268 Sackville ST","Halifax","NS","B3J 1K8","5268 Sackville ST
Halifax, NS B3J 1K8
(44.645781, -63.57546)"
"004263","Eating Establishment","Pickford and Black Seafood and Oyster Bar","1869 Upper Water ST","Halifax","NS","B3J 1Y1","1869 Upper Water ST
Halifax, NS B3J 1Y1
(44.649968, -63.573534)"
"005332","Eating Establishment","Shooters Sports Billiard Club","194 Highway #2","Enfield","NS","B2T 1C8","194 Highway #2
Enfield, NS B2T 1C8
(44.938532, -63.534545)"
"003826","Lounge","Tempo Food & Drink","1875 Barrington ST","Halifax","NS","B3J 3L6","1875 Barrington ST
Halifax, NS B3J 3L6
(44.649822, -63.575396)"
"005843","Eating Establishment","Fries and Company","2603 Connolly ST","Halifax","NS","B3L 3M4","2603 Connolly ST
Halifax, NS B3L 3M4
(44.648119, -63.605135)"
"002396","Permanent  Special Occasion","I.W. Akerley Campus","21 Woodlawn RD","Dartmouth","NS","B2W 2R7","21 Woodlawn RD
Dartmouth, NS B2W 2R7
(44.683371, -63.528798)"
"004128","Club","Yarmouth Golf & Country Club","28 Forbes ST","Yarmouth","NS","B5A 4B4","28 Forbes ST
Yarmouth, NS B5A 4B4
(43.823566, -66.117469)"
"002832","Special Premises","Blomidon Inn","195 Main ST","Wolfville","NS","B4P 1C3","195 Main ST
Wolfville, NS B4P 1C3
(45.092216, -64.350549)"
"002369","Eating Establishment","Swiss Chalet #1741","482 Grand Lake RD","Sydney","NS","B1P 5S8","482 Grand Lake RD
Sydney, NS B1P 5S8
(46.145851, -60.155958)"
"006621","Eating Establishment","Point Pleasant Lodge-Eleven21 Restobar","1121 South Park ST","Halifax","NS","B3H 2W6","1121 South Park ST
Halifax, NS B3H 2W6
(44.636529, -63.576986)"
"001288","Club","Club L'Estantue Community Centre","81 Club RD","Pinkney's Point","NS","B0W 1B0","81 Club RD
Pinkney's Point, NS B0W 1B0
(43.716335, -66.061035)"
"005240","Special Premises","Embrace Spa","827 Bedford Hwy.","Bedford","NS","B4A 0J1","827 Bedford Hwy.
Bedford, NS B4A 0J1
(44.710564, -63.670552)"
"006871","Eating Establishment","The Atlantic Tavern","88 Gerrish ST","Windsor","NS","B0N 2T0","88 Gerrish ST
Windsor, NS B0N 2T0
(44.994534, -64.137388)"
"006351","Eating Establishment","Comvest Commercial Real Estate Inc","1682 Hollis ST","Halifax","NS","B3J 2R7","1682 Hollis ST
Halifax, NS B3J 2R7
(44.647171, -63.572639)"
"005392","Eating Establishment","Mern's Place Licensed Diner","82 Main ST","Yarmouth","NS","B5A 1B1","82 Main ST
Yarmouth, NS B5A 1B1
(43.827569, -66.121403)"
"006788","Eating Establishment","Geo’s Pizzeria & Restaurant","202 Brownlow AV","Dartmouth","NS","B3B 1T5","202 Brownlow AV
Dartmouth, NS B3B 1T5
(44.698403, -63.580504)"
"003744","Eating Establishment","Townhouse Brewpub & Eatery","76 College ST","Antigonish","NS","B2G 1X7","76 College ST
Antigonish, NS B2G 1X7
(45.622709, -61.991471)"
"004933","Eating Establishment","Rissers Social House","94 Pelham ST","Lunenburg","NS","B0J 2C0","94 Pelham ST
Lunenburg, NS B0J 2C0
(44.376918, -64.310654)"
"001321","Club","RCL Br. 144, Western Shore","6582 Highway #3","Western Shore","NS","B0J 3M0","6582 Highway #3
Western Shore, NS B0J 3M0
(44.519679, -64.312025)"
"005954","Eating Establishment","The South Shore Fish Shack","108 Montague ST","Lunenburg","NS","B0J 2C0","108 Montague ST
Lunenburg, NS B0J 2C0
(44.376405, -64.310159)"
"006294","Club","Freeport Fire Department","291 # 217 HY","Freeport","NS","B0V 1B0","291 # 217 HY
Freeport, NS B0V 1B0
(44.279067, -66.322536)"
"006281","Eating Establishment","The Turtleback Tap & Grill","3187 Hwy #2","Fall River","NS","B2T 1K6","3187 Hwy #2
Fall River, NS B2T 1K6
(44.813964, -63.60986)"
"005155","Lounge","Woodside Lounge","209 Pleasant ST","Dartmouth","NS","B2Y 3R5","209 Pleasant ST
Dartmouth, NS B2Y 3R5
(44.659947, -63.551933)"
"005275","Eating Establishment","Bras d'Or View Restaurant & Pizzeria","1289 Trans Canada HY","Bras d'Or","NS","B1Y 2N4",
"001443","Club","Bridgewater Curling Club","90 Dominion ST","Bridgewater","NS","B4V 2K1","90 Dominion ST
Bridgewater, NS B4V 2K1
(44.375542, -64.522859)"
"006126","Lounge","East Side Mario's, Sydney","800 Grand Lake RD","Sydney","NS","B1P 6S9","800 Grand Lake RD
Sydney, NS B1P 6S9
(46.149649, -60.138254)"
"005942","Special Premises","Bowlarama (Halifax)","3459 Desmond AV","Halifax","NS","B3L 2C2","3459 Desmond AV
Halifax, NS B3L 2C2
(44.655807, -63.627704)"
"005653","Eating Establishment","Sushi Cove","355 Herring Cove RD","Halifax","NS","B3R 1V9","355 Herring Cove RD
Halifax, NS B3R 1V9
(44.6132, -63.617222)"
"003083","Special Premises","Westville Miners Sports Centre","1840 Park ST","Westville","NS","B0K 2A0","1840 Park ST
Westville, NS B0K 2A0
(45.552144, -62.712151)"
"006743","Lounge","The Millstone Public House","67 Kings Wharf PL","Dartmouth","NS","B2Y 0B4","67 Kings Wharf PL
Dartmouth, NS B2Y 0B4
(44.663271, -63.562984)"
"006404","Eating Establishment","Ruby's Rhinestone Reception & Lounge","5187 Salter ST","Halifax","NS","B3J 1E6","5187 Salter ST
Halifax, NS B3J 1E6
(44.644796, -63.572411)"
"006088","Eating Establishment","Freemans Sackville","552 Sackville DR","Sackville","NS","B4C 2S2","552 Sackville DR
Sackville, NS B4C 2S2
(44.767366, -63.68392)"
"005549","Lounge","Stubborn Goat Gastropub","1579 Grafton ST","Halifax","NS","B3J 2C3","1579 Grafton ST
Halifax, NS B3J 2C3
(44.645336, -63.574596)"
"000805","Cabaret","Palace Cabaret","1721 Brunswick ST","Halifax","NS","B3J 2G4","1721 Brunswick ST
Halifax, NS B3J 2G4
(44.646917, -63.576901)"
"005986","Special Premises","The Flying Apron Cookery","3 Summerville Wharf RD","Summerville","NS","B0N 2K0","3 Summerville Wharf RD
Summerville, NS B0N 2K0
(45.099948, -64.170872)"
"006682","Eating Establishment","Copper Branch","1474 Lower Water ST","Halifax","NS","B3J 1R9","1474 Lower Water ST
Halifax, NS B3J 1R9
(44.644022, -63.569698)"
"002959","Lounge","Blue Mist Lounge","85 Main ST","Bras d'Or","NS","B1Y 2M2","85 Main ST
Bras d'Or, NS B1Y 2M2
(46.253306, -60.289952)"
"004676","Eating Establishment","Jamieson's Irish House & Grill","5 Cumberland DR","Dartmouth","NS","B2V 2T6","5 Cumberland DR
Dartmouth, NS B2V 2T6
(44.670538, -63.48975)"
"006756","Eating Establishment","The Whiskey Teller Wood Fired Pub Ltd.","9-11 Church ST","Annapolis Royal","NS","B0S 1A0","9-11 Church ST
Annapolis Royal, NS B0S 1A0
(44.74493, -65.517745)"
"004035","Eating Establishment","Dooly's Dining Room (Yarmouth)","117 Water ST","Yarmouth","NS","B5A 4K3","117 Water ST
Yarmouth, NS B5A 4K3
(43.839612, -66.120757)"
"002249","Special Premises","Ski Wentworth","14595 Hwy #4","Wentworth","NS","B0M 1Z0","14595 Hwy #4
Wentworth, NS B0M 1Z0
(45.60946, -63.562403)"
"004983","Eating Establishment","Montana's Cookhouse Dining Room","194B Chain Lake DR","Halifax","NS","B3S 1C5","194B Chain Lake DR
Halifax, NS B3S 1C5
(44.650669, -63.675687)"
"000774","Eating Establishment","Admiral Digby Inn","441 Shore RD","Digby","NS","B0V 1A0","441 Shore RD
Digby, NS B0V 1A0
(44.646859, -65.757844)"
"006540","Beverage Room","King Street Beer Company","463 King ST","Bridgewater","NS","B4V 1B2","463 King ST
Bridgewater, NS B4V 1B2
(44.376393, -64.517324)"
"005553","Eating Establishment","Meat Cove Chowder Hut","2481 Meat Cove RD","Capstick","NS","B0C 1E0",
"005208","Eating Establishment","West Side Charlies","9137 Commercial ST","New Minas","NS","B4N 3E6","9137 Commercial ST
New Minas, NS B4N 3E6
(45.06724, -64.45139)"
"005799","Eating Establishment","Chowder House","90 Lighthouse RD","Neil's Harbour","NS","B0C 1N0","90 Lighthouse RD
Neil's Harbour, NS B0C 1N0
(46.806991, -60.318183)"
"002517","Club","Chedabucto Curling Club","6 Reddy Hill","Boylston","NS","B0H 1G0",
"003385","Lounge","Liverpool Pizzeria Lounge","155 Main ST","Liverpool","NS","B0T 1K0","155 Main ST
Liverpool, NS B0T 1K0
(44.039286, -64.714494)"
"002032","Special Premises","Dartmouth Senior Citizens Service Centre","45 Ochterloney ST","Dartmouth","NS","B2Y 4M7","45 Ochterloney ST
Dartmouth, NS B2Y 4M7
(44.666376, -63.568683)"
"006852","Lounge","The Annex Restaurant","66 Lower Railway ST","Inverness","NS","B0E 1N0","66 Lower Railway ST
Inverness, NS B0E 1N0
(46.230729, -61.309272)"
"003892","Lounge","Piper's Pub Lounge","31 College ST","Antigonish","NS","B2G 1X5","31 College ST
Antigonish, NS B2G 1X5
(45.621554, -61.991536)"
"003855","Lounge","The Bistro on Prince Lounge","437 Prince ST","Truro","NS","B2N 1E6","437 Prince ST
Truro, NS B2N 1E6
(45.366137, -63.290095)"
"006775","Lounge","Terra Rossa Trattoria","117 Front ST","Wolfville","NS","B4P 1A5","117 Front ST
Wolfville, NS B4P 1A5
(45.092219, -64.361825)"
"006628","Eating Establishment","Pur & Simple","535 Portland ST","Dartmouth","NS","B2Y4B1","535 Portland ST
Dartmouth, NS B2Y4B1
(44.670252, -63.538573)"
"003201","Lounge","Tilted Tap Bar & Grill Inc.","172 Wyse RD","Dartmouth","NS","B3A 1M6","172 Wyse RD
Dartmouth, NS B3A 1M6
(44.671384, -63.579763)"
"006675","Eating Establishment","White Sails Bakery & Deli","12930 Peggys Cove RD","Tantallon","NS","B3Z 2K4","12930 Peggys Cove RD
Tantallon, NS B3Z 2K4
(44.66482, -63.89469)"
"003008","Club","Catalone Seniors and Pensioners Recreation Association","20 New Boston RD","Catalone","NS","B1C 2L2","20 New Boston RD
Catalone, NS B1C 2L2
(45.986787, -59.996402)"
"004085","Special Premises","Mariners Centre","45 Jody Shelley DR","Yarmouth","NS","B5A 4B2","45 Jody Shelley DR
Yarmouth, NS B5A 4B2
(43.83916, -66.098076)"
"004901","Lounge","Library Pub Lounge","472 Main ST","Wolfville","NS","B4P 1E2","472 Main ST
Wolfville, NS B4P 1E2
(45.09132, -64.363493)"
"006809","Eating Establishment","Brightyard","53 1/2 Portland ST","Dartmouth","NS","B2Y 1H1","53 1/2 Portland ST
Dartmouth, NS B2Y 1H1
(44.66521, -63.567107)"
"003544","Club","Berwick & District Volunteer Fire Dept.","300 Commercial ST","Berwick","NS","B0P 1E0","300 Commercial ST
Berwick, NS B0P 1E0
(45.052972, -64.738748)"
"005619","Special Premises","Redwood Grill","30 Fairfax DR","Halifax","NS","B3S 1P1","30 Fairfax DR
Halifax, NS B3S 1P1
(44.658931, -63.671445)"
"002672","Eating Establishment","Glooscap Restaurant","758 Upper Main ST","Parrsboro","NS","B0M 1S0","758 Upper Main ST
Parrsboro, NS B0M 1S0
(45.416137, -64.332685)"
"006637","Eating Establishment","Lunenburg Chill Dairy and Grill","103 Victoria RD","Lunenburg","NS","B0J2C0","103 Victoria RD
Lunenburg, NS B0J2C0
(44.375961, -64.323483)"
"003624","Special Premises","Westin Nova Scotia","1181 Hollis ST","Halifax","NS","B3H 2P6","1181 Hollis ST
Halifax, NS B3H 2P6
(44.64019, -63.569037)"
"001144","Lounge","Salty Dog Bar & Grill Lounge","1869 Upper Water ST","Halifax","NS","B3J 1S9","1869 Upper Water ST
Halifax, NS B3J 1S9
(44.649968, -63.573534)"
"001125","Special Premises","Dalhousie University Truro","135 College RD","Bible Hill","NS","B2N 5E5","135 College RD
Bible Hill, NS B2N 5E5
(45.372527, -63.263703)"
"000861","Eating Establishment","Inverary Inn Dining Room","368 Shore RD","Baddeck","NS","B0E 1B0","368 Shore RD
Baddeck, NS B0E 1B0
(46.097112, -60.756883)"
"005826","Lounge","Old Triangle Irish Alehouse Lounge","424 Charlotte ST","Sydney","NS","B1P 1E2","424 Charlotte ST
Sydney, NS B1P 1E2
(46.135975, -60.194026)"
"005146","Special Premises","Le Village Historique Acadien de la N.E.","91 Old Church RD","Lower West Pubnico","NS","B0W 2C0","91 Old Church RD
Lower West Pubnico, NS B0W 2C0
(43.636589, -65.793516)"
"006834","Beverage Room","Bulwark Cider House","1518 Dresden RW","Halifax","NS","B3J 2K2","1518 Dresden RW
Halifax, NS B3J 2K2
(44.643218, -63.578054)"
"006667","Lounge","Ostrich Club","5529 Young ST","Halifax","NS","B3K 1Z7","5529 Young ST
Halifax, NS B3K 1Z7
(44.662004, -63.599233)"
"006890","Eating Establishment","Ori Foods","258 Wyse RD","Dartmouth","NS","B3A 1N2","258 Wyse RD
Dartmouth, NS B3A 1N2
(44.675428, -63.585995)"
"006455","Eating Establishment","Founders House Dining & Drinks Ltd","3816 Hwy. #1","Annapolis Royal","NS","B0S1A0","3816 Hwy. #1
Annapolis Royal, NS B0S1A0
(44.729279, -65.527077)"
"004647","Lounge","Knot Lounge, The","4 Dufferin ST","Lunenburg","NS","B0J 2C0","4 Dufferin ST
Lunenburg, NS B0J 2C0
(44.378506, -64.316917)"
"006368","Eating Establishment","St. Louis Bar & Grill","792 Sackville DR","Lr. Sackville","NS","B4E 1R7","792 Sackville DR
Lr. Sackville, NS B4E 1R7
(44.774362, -63.693451)"
"003683","Lounge","Dooly's Lounge (Young Street)","3129 Kempt RD","Halifax","NS","B3K 5N6","3129 Kempt RD
Halifax, NS B3K 5N6
(44.659503, -63.60387)"
"006820","Eating Establishment","The Front Porch","39 Loggie ST","Mulgrave","NS","B0E 2G0","39 Loggie ST
Mulgrave, NS B0E 2G0
(45.615175, -61.391029)"
"006568","Beverage Room","Sourwood","5576 Cornwallis ST","Halifax","NS","B3K 1B4","5576 Cornwallis ST
Halifax, NS B3K 1B4
(44.651476, -63.585415)"
"006433","Eating Establishment","The Keeper's Kitchen","1856 Hwy. 304","Cape Forchu","NS","B5A 4A7","1856 Hwy. 304
Cape Forchu, NS B5A 4A7
(43.79454, -66.154342)"
"006564","Lounge","Boardwalk Tap Room and Eatery","320 Esplanade ST","Sydney","NS","B1P 5X3","320 Esplanade ST
Sydney, NS B1P 5X3
(46.137358, -60.195536)"
"003597","Eating Establishment","Wabo's Pizza, Sub & Donair","15279 Cabot Trail","Cheticamp","NS","B0E 1H0","15279 Cabot Trail
Cheticamp, NS B0E 1H0
(46.631312, -61.01138)"
"001901","Club","East Bay Fire Dept.","3542 East  Bay Highway","East Bay","NS","B1J 1A3","3542 East  Bay Highway
East Bay, NS B1J 1A3
(46.021469, -60.362186)"
"005698","Club","Southside Boularderie Fire Department","3840 Hillside Bouldarderie R","Southside Boularderie","NS","B1Y 2R2",
"003716","Lounge","Mount Uniacke Pub & Eatery","125 #1, Highway","Mount Uniacke","NS","B0N  1Z0",
"005825","Eating Establishment","Old Triangle Irish Alehouse, Sydney","424 Charlotte ST","Sydney","NS","B1P 1E2","424 Charlotte ST
Sydney, NS B1P 1E2
(46.135975, -60.194026)"
"006705","Eating Establishment","Martha's Pizza II","746 Bedford Hwy.","Halifax","NS","B3M 2L9","746 Bedford Hwy.
Halifax, NS B3M 2L9
(44.706914, -63.664674)"
"004131","Eating Establishment","Marina Bar & Grill","67 Caladh AV","Pictou","NS","B0K 1H0","67 Caladh AV
Pictou, NS B0K 1H0
(45.675262, -62.711009)"
"006504","Eating Establishment","Briny Bay Cafe","951 Highway 2","Five Islands","NS","B0M 1K0","951 Highway 2
Five Islands, NS B0M 1K0
(45.411472, -64.04662)"
"006376","Beverage Room","Tusket Falls Brewing Company","20 Slocomb CR","Tusket","NS","B0W 3M0","20 Slocomb CR
Tusket, NS B0W 3M0
(43.870571, -65.967908)"
"004711","Lounge","Back Alley Lounge","300 Sackville DR","Lower Sackville","NS","B4C 2R6","300 Sackville DR
Lower Sackville, NS B4C 2R6
(44.760977, -63.672604)"
"006846","Special Premises","Muir Hotel","1709 Lower Water ST","Halifax","NS","B3J 1S2","1709 Lower Water ST
Halifax, NS B3J 1S2
(44.648102, -63.571625)"
"002700","Eating Establishment","Lakeside Family Restaurant & Pizza","1594 St Margaret's Bay RD","Lakeside","NS","B3T 1B6","1594 St Margaret's Bay RD
Lakeside, NS B3T 1B6
(44.63866, -63.70461)"
"005674","Lounge","McGill's Junkyard Lounge","18 Kentucky CT","New Minas","NS","B4N 4N2","18 Kentucky CT
New Minas, NS B4N 4N2
(45.070172, -64.473456)"
"006740","Eating Establishment","Let's Ko Restaurant","30 Damascus RD","Bedford","NS","B4A 0C2","30 Damascus RD
Bedford, NS B4A 0C2
(44.750007, -63.640547)"
"001340","Special Premises","Mount Saint Vincent University","166 Bedford Highway","Halifax","NS","B3M 2J6","166 Bedford Highway
Halifax, NS B3M 2J6
(44.672888, -63.644385)"
"002780","Special Premises","Delta Hotels By Marriott Dartmouth","240 Brownlow AV","Dartmouth","NS","B3B 1X6","240 Brownlow AV
Dartmouth, NS B3B 1X6
(44.695024, -63.578462)"
"001442","Club","Nine Mile River Comminity Club","7160 Highway 14","Nine Mile River","NS","B2S 2V4","7160 Highway 14
Nine Mile River, NS B2S 2V4
(45.024701, -63.56115)"
"005329","Lounge","Boston Pizza Lng, New Minas","9278 Commercial ST","New Minas","NS","B4N 3E9","9278 Commercial ST
New Minas, NS B4N 3E9
(45.068611, -64.442586)"
"004020","Lounge","Monte's Lounge","245 Waverley RD","Dartmouth","NS","B2X 2C5","245 Waverley RD
Dartmouth, NS B2X 2C5
(44.697549, -63.547605)"
"006521","Eating Establishment","Korca Pizza","2777 Agricola ST","Halifax","NS","B3K 4E3","2777 Agricola ST
Halifax, NS B3K 4E3
(44.657913, -63.597069)"
"004106","Eating Establishment","Dooly's Dining Room (Burnside)","121 Ilsley AV","Dartmouth","NS","B3B 1T1","121 Ilsley AV
Dartmouth, NS B3B 1T1
(44.697398, -63.584856)"
"004695","Eating Establishment","Don Cherry's Sports Grill EE","45 Keltic DR","Sydney","NS","B1S 1P4","45 Keltic DR
Sydney, NS B1S 1P4
(46.110304, -60.224)"
"006348","Special Premises","Bowl-More (1987) Ltd.","240 Dufferin ST","Bridgewater","NS","B4V 2G7","240 Dufferin ST
Bridgewater, NS B4V 2G7
(44.369702, -64.524183)"
"005267","Club","Spryfield Lions Club","25 Drysdale RD","Halifax","NS","B3R 1L5","25 Drysdale RD
Halifax, NS B3R 1L5
(44.608793, -63.609209)"
"001964","Eating Establishment","Pictou Lodge Dining Room","172 Lodge RD","Pictou","NS","B0K 1H0","172 Lodge RD
Pictou, NS B0K 1H0
(45.718736, -62.641973)"
"006444","Lounge","Portside Beer Garden","144 Esplanade","Sydney","NS","B1P 1A1","144 Esplanade
Sydney, NS B1P 1A1
(46.14178, -60.197654)"
"001066","Club","Digby Volunteer Firemen's Society","163 First AV","Digby","NS","B0V 1A0","163 First AV
Digby, NS B0V 1A0
(44.625325, -65.757569)"
"006699","Lounge","Swaagat - The Real Taste of India","54 Union ST","Glace Bay","NS","B1A 2P5","54 Union ST
Glace Bay, NS B1A 2P5
(46.195652, -59.958415)"
"006581","Eating Establishment","Bistro","35 Shubie DR","Dartmouth","NS","B3B0C3","35 Shubie DR
Dartmouth, NS B3B0C3
(44.707034, -63.564764)"
"006337","Lounge","Sydney Street Pub & Cafe","14 Sydney ST","Digby","NS","B0V 1A0","14 Sydney ST
Digby, NS B0V 1A0
(44.624128, -65.757609)"
"006453","Eating Establishment","Cha Baa Thai (Demone Street)","5858 Demone ST","Halifax","NS","B3K 1X9","5858 Demone ST
Halifax, NS B3K 1X9
(44.659655, -63.601222)"
"005951","Special Premises","Cabot Shores Adventure & Retreat Centre","30 Buchanan DR","Englishtown","NS","B0C 1H0","30 Buchanan DR
Englishtown, NS B0C 1H0
(46.371874, -60.528364)"
"002899","Eating Establishment","Glasgow Pub Dining Room","300 Stewart ST","New Glasgow","NS","B2H 2R4","300 Stewart ST
New Glasgow, NS B2H 2R4
(45.584957, -62.646381)"
"006565","Eating Establishment","Julep","1688 Barrington ST","Halifax","NS","B3J 3K4","1688 Barrington ST
Halifax, NS B3J 3K4
(44.647122, -63.574043)"
"003138","Eating Establishment","Elm Tree Pub & Grill","1 Victoria ST","Amherst","NS","B4H 1X3","1 Victoria ST
Amherst, NS B4H 1X3
(45.832025, -64.213801)"
"004971","Eating Establishment","Sam's Seafood & Grill Dining Room","10 Gordon AV","Dartmouth","NS","B2W 4S8","10 Gordon AV
Dartmouth, NS B2W 4S8
(44.681001, -63.540695)"
"006878","Eating Establishment","The Narrows Public House","2720 Gottingen ST","Halifax","NS","B3K 3C7","2720 Gottingen ST
Halifax, NS B3K 3C7
(44.658955, -63.593464)"
"006395","Special Premises","Super 8 Windsor","63 Cole DR","Windsor","NS","B0N 2T0","63 Cole DR
Windsor, NS B0N 2T0
(44.986242, -64.110062)"
"005342","Eating Establishment","Pizza Hut  -Portland Street","510 Portland ST","Dartmouth","NS","B2Y 4W7","510 Portland ST
Dartmouth, NS B2Y 4W7
(44.670155, -63.539843)"
"003983","Eating Establishment","Rasa Flavours of India","1535 Dresden RW","Halifax","NS","B3J 3T1","1535 Dresden RW
Halifax, NS B3J 3T1
(44.643597, -63.578245)"
"004313","Eating Establishment","The Arms","1515 South Park ST","Halifax","NS","B3J 2L2","1515 South Park ST
Halifax, NS B3J 2L2
(44.642717, -63.57999)"
"004788","Eating Establishment","Pizza Delight (Elmsdale)","269 Highway 214","Elmsdale","NS","B2S 1K1","269 Highway 214
Elmsdale, NS B2S 1K1
(44.976493, -63.507668)"
"001088","Club","Margaree Firemen's Club","7811 Cabot Trail","Margaree Forks","NS","B0E 2A0","7811 Cabot Trail
Margaree Forks, NS B0E 2A0
(46.329082, -61.08926)"
"006065","Lounge","The Frolic & Folk Pub & Grill","4115 Highway 223","Iona","NS","B2C 1A3","4115 Highway 223
Iona, NS B2C 1A3
(45.947631, -60.816902)"
"006547","Eating Establishment","McPuffin's Atlantic Seafood","152 Main ST","Joggins","NS","B0M 1S0","152 Main ST
Joggins, NS B0M 1S0
(45.652312, -64.04919)"
"006480","Eating Establishment","Upstreet BBQ Brew House","612 Windmill RD","Dartmouth","NS","B3B 1B5","612 Windmill RD
Dartmouth, NS B3B 1B5
(44.697143, -63.603148)"
"005725","Special Premises","Nova Scotia Community College, Pictou Campus","39 Acadia AV","Stellarton","NS","B0K 1S0","39 Acadia AV
Stellarton, NS B0K 1S0
(45.557442, -62.665124)"
"002961","Lounge","Bonnie Prince Lounge","50 Reeves ST","Sydney","NS","B1P 6G6","50 Reeves ST
Sydney, NS B1P 6G6
(46.142703, -60.159692)"
"006784","Eating Establishment","The Long Table Social Club","5611 Hwy. 358","Canning","NS","B0P 1H0","5611 Hwy. 358
Canning, NS B0P 1H0
(45.295447, -64.392145)"
"006106","Lounge","Seven Bays Bouldering","2019 Gottingen ST","Halifax","NS","B3K 3B1","2019 Gottingen ST
Halifax, NS B3K 3B1
(44.650996, -63.581863)"
"005402","Eating Establishment","Shaw's Landing Restaurant","6958 Prospect RD","West Dover","NS","B3Z  3T2","6958 Prospect RD
West Dover, NS B3Z  3T2
(44.49935, -63.880522)"
"004985","Club","Bras d'Or Seniors & Pensioners","66 Main ST","Bras d'Or","NS","B1Y 2M3","66 Main ST
Bras d'Or, NS B1Y 2M3
(46.253369, -60.290965)"
"006255","Eating Establishment","Applewoods Restaurant","5494 Prospect RD","New Minas","NS","B4N 3K8","5494 Prospect RD
New Minas, NS B4N 3K8
(45.056905, -64.468836)"
"001529","Special Premises","White Point Beach Lodge","75 White Point RD","Hunts Point","NS","B0T 1G0","75 White Point RD
Hunts Point, NS B0T 1G0
(44.031366, -64.719831)"
"005025","Special Premises","Debert Golf Club","388 Reid RD","Debert","NS","B0M 1G0","388 Reid RD
Debert, NS B0M 1G0
(45.446956, -63.494925)"
"001469","Club","RCL Br. 1, Middleton","205 Marshal ST","Middleton","NS","B0S 1P0","205 Marshal ST
Middleton, NS B0S 1P0
(44.942839, -65.076316)"
"006792","Eating Establishment","Bombay Bistro","210 Wentworth DR","Halifax","NS","B3M 0N7","210 Wentworth DR
Halifax, NS B3M 0N7
(44.674404, -63.660583)"
"005835","Eating Establishment","Ferrymen's Hall","415 Grand Narrows DR","Grand Narrows","NS","B1T 1A4","415 Grand Narrows DR
Grand Narrows, NS B1T 1A4
(45.959413, -60.774192)"
"006105","Eating Establishment","Seven Bays Bouldering","2019 Gottingen ST","Halifax","NS","B3K 3B1","2019 Gottingen ST
Halifax, NS B3K 3B1
(44.650996, -63.581863)"
"005462","Eating Establishment","Angie's Family Restaurant","29329 Cabot Trail","Cape North","NS","B0C 1G0","29329 Cabot Trail
Cape North, NS B0C 1G0
(46.883769, -60.500539)"
"002419","Eating Establishment","Foggy Goggle Bar & Grill","2057 Gottingen ST","Halifax","NS","B3K 3B1","2057 Gottingen ST
Halifax, NS B3K 3B1
(44.651407, -63.582453)"
"000976","Eating Establishment","Day's Inn Hotel & Conference Centre","50 North ST","Bridgewater","NS","B4V 1E9","50 North ST
Bridgewater, NS B4V 1E9
(44.385703, -64.517046)"
"001294","Club","Bedford Basin Yacht Club","73 Shore DR","Bedford","NS","B4A 2C7","73 Shore DR
Bedford, NS B4A 2C7
(44.721855, -63.670269)"
"002065","Lounge","The Narrows Bistro","101 Wyse RD","Dartmouth","NS","B3A 1L9","101 Wyse RD
Dartmouth, NS B3A 1L9
(44.669385, -63.576658)"
"006782","Lounge","The Commune Drinks + Music + Culture","84 Provost ST","New Glasgow","NS",,"84 Provost ST
New Glasgow, NS 
(45.588788, -62.644598)"
"004876","Eating Establishment","Sugar Moon Pancake House","221 Alex MacDonald RD","Earltown","NS","B0K 1V0","221 Alex MacDonald RD
Earltown, NS B0K 1V0
(45.56536, -63.153782)"
"005297","Eating Establishment","Clucking Hen Cafe","45073 Cabot Trail","North Shore","NS","B0C 1H0","45073 Cabot Trail
North Shore, NS B0C 1H0
(46.407513, -60.482216)"
"002629","Eating Establishment","Lotus Garden Restaurant","67 Starrs RD","Yarmouth","NS","B5A 2T6","67 Starrs RD
Yarmouth, NS B5A 2T6
(43.844353, -66.10776)"
"005805","Lounge","La Frasca Cibi & Vini","5650 Spring Garden RD","Halifax","NS","B3J 3T2","5650 Spring Garden RD
Halifax, NS B3J 3T2
(44.642657, -63.578338)"
"003443","Eating Establishment","Crofter's Steak & Seafood Dining Room","565 Stellarton RD","New Glasgow","NS","B2H 1M7","565 Stellarton RD
New Glasgow, NS B2H 1M7
(45.579321, -62.655753)"
"005046","Eating Establishment","Jamaica Vibes Express","5527 Cornwallis ST","Halifax","NS","B3K 1B2","5527 Cornwallis ST
Halifax, NS B3K 1B2
(44.652009, -63.58454)"
"006589","Lounge","The Daily Grind","1475 Lower Water ST","Halifax","NS","B3J 3Z2","1475 Lower Water ST
Halifax, NS B3J 3Z2
(44.643248, -63.569274)"
"006663","Eating Establishment","Tako Loko Restaurant","3248 Isleville ST","Halifax","NS","B3K 3Y5","3248 Isleville ST
Halifax, NS B3K 3Y5
(44.663739, -63.603073)"
"005573","Special Premises","Prospect Road Community Centre","2141 Prospect RD","Prospect","NS","B3T 1S1","2141 Prospect RD
Prospect, NS B3T 1S1
(44.566192, -63.728142)"
"005929","Eating Establishment","Hampton Inn & Homewood Suites by Hilton","1960 Brunswick ST","Halifax","NS","B3J 2G7","1960 Brunswick ST
Halifax, NS B3J 2G7
(44.650226, -63.578569)"
"006884","Eating Establishment","Pane E Circo","1475 Lower Water ST","Halifax","NS","B3J 3Z2","1475 Lower Water ST
Halifax, NS B3J 3Z2
(44.643248, -63.569274)"
"001447","Club","Wellington/Fletchers Lake Station House","4132 #2 HY","Wellington","NS","B2T 1A3",
"006429","Beverage Room","Annapolis Brewing Company Limited","302 St. George ST","Annapolis Royal","NS","B0S1A0","302 St. George ST
Annapolis Royal, NS B0S1A0
(44.742857, -65.518774)"
"006147","Eating Establishment","The Noodle Guy","964 Hwy.358 .","Port Williams","NS","B0P 1T0","964 Hwy.358 .
Port Williams, NS B0P 1T0
(45.095582, -64.40834)"
"006413","Eating Establishment","Cheese Curds & Habaneros","14 Treaty Trail","Millbrook","NS","B6L 1V9","14 Treaty Trail
Millbrook, NS B6L 1V9
(45.334169, -63.304985)"
"003155","Special Premises","Victoria Highland Civic Centre","26 Campbell ST","Baddeck","NS","B0E 1B0","26 Campbell ST
Baddeck, NS B0E 1B0
(46.098915, -60.757832)"
"006558","Eating Establishment","Verano Food Purveyors","1871 Hollis ST","Halifax","NS","B3J 1S8","1871 Hollis ST
Halifax, NS B3J 1S8
(44.649838, -63.573992)"
"004649","Lounge","Press Gang Dining Room (The)","5218 Prince ST","Halifax","NS","B3J 1L6","5218 Prince ST
Halifax, NS B3J 1L6
(44.647146, -63.574549)"
"000801","Eating Establishment","Upper Deck Waterfront Fishery","1869 Upper Water ST","Halifax","NS","B3J 1S9","1869 Upper Water ST
Halifax, NS B3J 1S9
(44.649968, -63.573534)"
"005142","Eating Establishment","Birches at Ben Eoin Country Inn","5153 East Bay Highway","Ben Eoin","NS","B1J 1P1","5153 East Bay Highway
Ben Eoin, NS B1J 1P1
(45.974876, -60.440166)"
"006582","Lounge","Bistro","35 Shubie DR","Dartmouth","NS","B3B0C3","35 Shubie DR
Dartmouth, NS B3B0C3
(44.707034, -63.564764)"
"006817","Eating Establishment","The Brixton","115 Commercial ST","Glace Bay","NS","B1A 3C1","115 Commercial ST
Glace Bay, NS B1A 3C1
(46.196643, -59.956822)"
"005126","Cabaret","Toothy Moose","1661 Argyle ST","Halifax","NS","B3J 2B5","1661 Argyle ST
Halifax, NS B3J 2B5
(44.646266, -63.574385)"
"003362","Lounge","Clansman Lounge","9 Baird ST","North Sydney","NS","B2A 2M3","9 Baird ST
North Sydney, NS B2A 2M3
(46.213469, -60.270356)"
"005544","Eating Establishment","Best Choice Food","28B Titus ST","Halifax","NS","B3M 2N4","28B Titus ST
Halifax, NS B3M 2N4
(44.660039, -63.634819)"
"001034","Club","RCL Br. 66, West Pubnico","668 Rte 335","West Pubnico","NS","B0W 3S0","668 Rte 335
West Pubnico, NS B0W 3S0
(43.675084, -65.795306)"
"003010","Eating Establishment","River Pub Dining Room","750 King ST","Bridgewater","NS","B4V 3B6","750 King ST
Bridgewater, NS B4V 3B6
(44.380111, -64.521767)"
"006611","Eating Establishment","The Harbour General Store and Restaurant Ltd.","8545 Peggy's Cove RD","Indian Harbour","NS","B3P 1Z3","8545 Peggy's Cove RD
Indian Harbour, NS B3P 1Z3
(44.51708, -63.934569)"
"002927","Lounge","Bearly's Lounge","1269 Barrington ST","Halifax","NS","B3J 1Y2","1269 Barrington ST
Halifax, NS B3J 1Y2
(44.641323, -63.571059)"
"005697","Eating Establishment","Cafe l'Acadie","8369 Peggy's Cove RD","Indian Harbour","NS","B3Z 3R2","8369 Peggy's Cove RD
Indian Harbour, NS B3Z 3R2
(44.510428, -63.936405)"
"004600","Eating Establishment","Lynwood Inn","441 Shore RD","Baddeck","NS","B0E 1B0","441 Shore RD
Baddeck, NS B0E 1B0
(46.099201, -60.75365)"
"005073","Lounge","Henry House","1222 Barrington ST","Halifax","NS","B3J 1Y4","1222 Barrington ST
Halifax, NS B3J 1Y4
(44.64038, -63.570583)"
"006690","Eating Establishment","Randy's Pizza & Donair- Kearney Lake","117 Kearney Lake RD","Halifax","NS","B3M 4N9","117 Kearney Lake RD
Halifax, NS B3M 4N9
(44.684199, -63.675465)"
"005191","Eating Establishment","Tan's Family Restaurant","900 Cole Harbour RD","Dartmouth","NS","B2V 2J4","900 Cole Harbour RD
Dartmouth, NS B2V 2J4
(44.67112, -63.501336)"
"000769","Eating Establishment","Five Fisherman Dining Room","1740 Argyle ST","Halifax","NS","B3J 2B6","1740 Argyle ST
Halifax, NS B3J 2B6
(44.647873, -63.575225)"
"006048","Eating Establishment","Arichat Seafood Market","2392 Hwy. 206","Arichat","NS","B0E 1A0","2392 Hwy. 206
Arichat, NS B0E 1A0
(45.511154, -61.024032)"
"003636","Club","Springfield Lake Recreation Centre","266 Lakeview AV","Middle Sackville","NS","B4E 3B6","266 Lakeview AV
Middle Sackville, NS B4E 3B6
(44.813486, -63.744619)"
"006829","Lounge","Gerrish and Gray","134 Gerrish ST","Windsor","NS","B0N 2T0","134 Gerrish ST
Windsor, NS B0N 2T0
(44.994312, -64.136911)"
"001233","Club","RCL Br. 126, Westmount","99 Midgley DR","Westmount","NS","B1R 1Z6","99 Midgley DR
Westmount, NS B1R 1Z6
(46.14295, -60.220346)"
"002898","Lounge","Whitetail Pub and Grill Lng","1988 South Main ST","Westville","NS","B0K 2A0","1988 South Main ST
Westville, NS B0K 2A0
(45.556693, -62.715242)"
"001706","Club","Resolute A. A. Club","5461 Inglis ST","Halifax","NS","B3H 1J6","5461 Inglis ST
Halifax, NS B3H 1J6
(44.635437, -63.571971)"
"005455","Special Premises","Edinburg Hall, Parkland Estates Truro","378 Young ST","Truro","NS","B2N 7H2","378 Young ST
Truro, NS B2N 7H2
(45.350685, -63.274745)"
"002399","Special Premises","Dr. Bernie MacLean Cultural & Recreation Centre","109 Forest ST","Inverness","NS","B0E 1N0","109 Forest ST
Inverness, NS B0E 1N0
(46.228004, -61.299106)"
"003828","Lounge","Engine Room Lounge","166 Esplanade ST","Truro","NS","B2N 2K3","166 Esplanade ST
Truro, NS B2N 2K3
(45.363365, -63.274194)"
"002524","Club","RCL Br. 165, Mount Uniacke","18 Veterans LN","Mount Uniacke","NS","B0N 1Z0","18 Veterans LN
Mount Uniacke, NS B0N 1Z0
(44.891563, -63.826591)"
"005419","Lounge","Cut Steakhouse & Urban Grill","5120 Salter ST","Halifax",,"B3J 0A1","5120 Salter ST
Halifax,  B3J 0A1
(44.645174, -63.570959)"
"000945","Eating Establishment","Digby Pines Golf Resort & Spa","103 Shore RD","Digby","NS","B0V 1A0","103 Shore RD
Digby, NS B0V 1A0
(44.634322, -65.758567)"
"006569","Special Premises","Tangled Garden","11187 HWY# 1","Grand Pre","NS","B0P1M0","11187 HWY# 1
Grand Pre, NS B0P1M0
(45.095663, -64.331592)"
"005901","Lounge","The Stillwell Freehouse","2534 Agricola ST","Halifax","NS","B3K 4C5","2534 Agricola ST
Halifax, NS B3K 4C5
(44.654613, -63.592541)"
"006847","Eating Establishment","Drift Salon & Bar","1709 Lower Water ST","Halifax","NS","B3J 1S5","1709 Lower Water ST
Halifax, NS B3J 1S5
(44.648102, -63.571625)"
"000991","Club","RCL Br. 33, Bridgetown","20 Jeffery ST","Bridgetown","NS","B0S 1C0","20 Jeffery ST
Bridgetown, NS B0S 1C0
(44.842388, -65.287032)"
"003496","Club","Tidnish Crossroads Community Centre","4358 Tyndal RD","Amherst","NS","B4H 3X9",
"006633","Eating Establishment","Kanpai Izakaya","1535 Dresden RW","Halifax","NS","B3J3T1","1535 Dresden RW
Halifax, NS B3J3T1
(44.643597, -63.578245)"
"001118","Special Premises","DeCoste Entertainment Society","99 Water ST","Pictou","NS","B0K 1H0","99 Water ST
Pictou, NS B0K 1H0
(45.676357, -62.712988)"
"001014","Club","RCL Br. 162, Sackville","45 Sackville Cross RD","Lower Sackville","NS","B4C 3G4","45 Sackville Cross RD
Lower Sackville, NS B4C 3G4
(44.765939, -63.686136)"
"006495","Lounge","Cafe Lara","2347 Agricola ST","Halifax","NS","B3K 4B7","2347 Agricola ST
Halifax, NS B3K 4B7
(44.652161, -63.588901)"
"005471","Lounge","Battery Park Beer Bar & Eatery","62 Ochterloney ST","Dartmouth","NS","B2Y 1C2","62 Ochterloney ST
Dartmouth, NS B2Y 1C2
(44.666916, -63.56805)"
"005975","Eating Establishment","Scanway Gourmet","1567 Grafton ST","Halifax","NS","B3J 2C3","1567 Grafton ST
Halifax, NS B3J 2C3
(44.645136, -63.574493)"
"001929","Club","St. Mary's District Lions Club","8296 Highway #7","Sherbrooke","NS","B0J 3C0","8296 Highway #7
Sherbrooke, NS B0J 3C0
(45.148552, -61.974932)"
"006378","Eating Establishment","Jekyll & Hyde Restaurant","3061 Gottigen ST","Halifax","NS","B3K 0C5","3061 Gottigen ST
Halifax, NS B3K 0C5
(44.661829, -63.597637)"
"006207","Lounge","Boston  Pizza Truro","68 Robie ST","Truro","NS","B2N 1L2","68 Robie ST
Truro, NS B2N 1L2
(45.367863, -63.313162)"
"006597","Beverage Room","Boxing Rock Brewing Legendary Tap Room","218 Water ST","Shelburne","NS","B0T 1W0","218 Water ST
Shelburne, NS B0T 1W0
(43.768189, -65.326405)"
"001997","Special Premises","Doubletree by Hilton Halifax-Dartmouth","101 Wyse RD","Dartmouth","NS","B3A 1L9","101 Wyse RD
Dartmouth, NS B3A 1L9
(44.669385, -63.576658)"
"005689","Special Premises","Sykea Salon Spa","1181 Hollis ST","Halifax","NS","B3H 2P6","1181 Hollis ST
Halifax, NS B3H 2P6
(44.64019, -63.569037)"
"005970","Special Premises","Sea Shore Volunteer Fire Department","4853 Highway 211","Bickerton West","NS","B0J 1A0","4853 Highway 211
Bickerton West, NS B0J 1A0
(45.101314, -61.73782)"
"001616","Club","Ashburn Golf & Country Club","60 Golf Club RD","Windsor Jct.","NS","B2T 1Z2","60 Golf Club RD
Windsor Jct., NS B2T 1Z2
(44.809058, -63.648903)"
"006835","Eating Establishment","Rosa Rugosa Seaside Market","30 Highway #3","Hubbards","NS","B0J 1T0","30 Highway #3
Hubbards, NS B0J 1T0
(44.637669, -64.067632)"
"006075","Special Premises","Avondale Sky Winery","80 Avondale Cross RD","Newport","NS","B0N 2A0","80 Avondale Cross RD
Newport, NS B0N 2A0
(45.022111, -64.123965)"
"006716","Eating Establishment","Hermitage","1460 Lower Water ST","Halifax","NS","B3J 3S8","1460 Lower Water ST
Halifax, NS B3J 3S8
(44.643701, -63.569536)"
"001370","Eating Establishment","Sheet Harbour Motel & The Slippery Oyster Restaurant","22715 Highway 7","Sheet Harbour","NS","B0J 3B0","22715 Highway 7
Sheet Harbour, NS B0J 3B0
(44.917733, -62.529888)"
"005366","Eating Establishment","Jack Astor's Bar and Grill","107 Shubie DR","Dartmouth","NS","B3B 0C3","107 Shubie DR
Dartmouth, NS B3B 0C3
(44.706846, -63.562327)"
"001481","Military","Canadian Forces Base Halifax","FMO Halifax","Halifax","NS","B3K 2X0",
"001806","Eating Establishment","Red Cap Restaurant and Motel","1034 Highway 335","Mid. West Pubnico","NS","B0W 2M0","1034 Highway 335
Mid. West Pubnico, NS B0W 2M0
(43.660058, -65.79973)"
"001307","Club","St. Croix Community Club","18 Cemetery RD","St. Croix","NS","B0N 2E0","18 Cemetery RD
St. Croix, NS B0N 2E0
(44.962683, -64.034774)"
"006797","Eating Establishment","The Monarch -  East River's Monarch Restaurant at the Marina","15 Riverside ST","New Glasgow","NS","B2H 2N2","15 Riverside ST
New Glasgow, NS B2H 2N2
(45.590318, -62.645047)"
"006530","Eating Establishment","Mary's Place Cafe II","5982 Spring Garden RD","Halifax","NS","B3H 1X7","5982 Spring Garden RD
Halifax, NS B3H 1X7
(44.640493, -63.586425)"
"004334","Eating Establishment","Jack Astor's Bar & Grill Dining Room","184 Chain Lake DR","Halifax","NS","B3S 1C5","184 Chain Lake DR
Halifax, NS B3S 1C5
(44.647106, -63.674105)"
"004082","Lounge","Dooly's Lounge (Port Hawkesbury)","634  Hwy 4 Reeves ST","Port Hawkesbury","NS","B9A 2R7","634  Hwy 4 Reeves ST
Port Hawkesbury, NS B9A 2R7
(45.615537, -61.353746)"
"006814","Special Premises","Alderdale Greens","403 Rudderham RD","Point Edward","NS","B2A 4V8","403 Rudderham RD
Point Edward, NS B2A 4V8
(46.157606, -60.254426)"
"004764","Lounge","Bitter End Lounge, The","1572 Argyle ST","Halifax","NS","B3J 2B3","1572 Argyle ST
Halifax, NS B3J 2B3
(44.645397, -63.573921)"
"002466","Special Premises","St. Margaret's Arena Association","12 Westwood BL","Upper Tantallon","NS","B3Z 1H3","12 Westwood BL
Upper Tantallon, NS B3Z 1H3
(44.706385, -63.858924)"
"004715","Eating Establishment","Pizza Delight (Bayers Lake)","209 Chain Lake DR","Halifax","NS","B3S 1C9","209 Chain Lake DR
Halifax, NS B3S 1C9
(44.652419, -63.676686)"
"004730","Special Premises","Casino Banquet Rooms","1983 Upper Water ST","Halifax","NS","B3J 3Y5","1983 Upper Water ST
Halifax, NS B3J 3Y5
(44.651629, -63.575552)"
"005884","Lounge","Winners Circle","493 Prince ST","Sydney","NS","B1P 5L8","493 Prince ST
Sydney, NS B1P 5L8
(46.140695, -60.176879)"
"001432","Club","Yarmouth Knights of Columbus Club","10 Collins ST","Yarmouth","NS","B5A 3C4","10 Collins ST
Yarmouth, NS B5A 3C4
(43.836854, -66.118612)"
"006771","Eating Establishment","Wild Roots Restaurant","4200 Highway #308","Tusket","NS","B0W 3M0","4200 Highway #308
Tusket, NS B0W 3M0
(43.868803, -65.968426)"
"004234","Special Premises","Osprey Ridge Golf Course","492 Harold Whynott RD","Bridgewater","NS","B4V 2W1","492 Harold Whynott RD
Bridgewater, NS B4V 2W1
(44.400786, -64.508965)"
"002928","Eating Establishment","Split Crow Dining Room Halifax","1855 Granville ST","Halifax","NS","B3J 1Y1","1855 Granville ST
Halifax, NS B3J 1Y1
(44.64943, -63.574501)"
"006649","Eating Establishment","Winners One Stop Restaurant","10574 Highway #3","Yarmouth","NS","B5A5J7","10574 Highway #3
Yarmouth, NS B5A5J7
(43.834229, -66.086117)"
"000881","Eating Establishment","Kai Brady's Fancy Dive Bar","5675 Spring Garden RD","Halifax","NS","B3J 1G9","5675 Spring Garden RD
Halifax, NS B3J 1G9
(44.642464, -63.579079)"
"006714","Lounge","The Brown Hound Pub","1450 Ironstone LN","Halifax","NS","B3J 0H9",
"005787","Eating Establishment","The Stretch Diner","3758 Highway #3","Chester","NS","B0J 1J0","3758 Highway #3
Chester, NS B0J 1J0
(44.547499, -64.231122)"
"006013","Eating Establishment","King Lam Restaurant","39 Main ST","Bible Hill","NS","B2N 4G5","39 Main ST
Bible Hill, NS B2N 4G5
(45.369516, -63.271688)"
"003774","Lounge","Split Crow Lounge Halifax","1855 Granville ST","Halifax","NS","B3J 1Y1","1855 Granville ST
Halifax, NS B3J 1Y1
(44.64943, -63.574501)"
"003553","Club","Shelburne Curling Club","144 Carleton ST","Shelburne","NS","B0T 1W0","144 Carleton ST
Shelburne, NS B0T 1W0
(43.753869, -65.31069)"
"005327","Club","St. Margaret's Men's Club","2353 Grand Mira South RD","Grand Mira South","NS","B1K 1K4","2353 Grand Mira South RD
Grand Mira South, NS B1K 1K4
(45.887213, -60.291035)"
"006238","Special Premises","Baile-Mor Salonspa Ltd.","143 Main ST","Antigonish","NS","B2G 2B6","143 Main ST
Antigonish, NS B2G 2B6
(45.623424, -61.986737)"
"006723","Eating Establishment","Antoinette's Cheesecakes - ""Let Them Eat Cake""","250 Baker DR","Dartmouth","NS","B2W 6L4","250 Baker DR
Dartmouth, NS B2W 6L4
(44.65634, -63.528856)"
"006070","Special Premises","Planters Ridge Winery","1441 Church ST","Port Williams","NS","B0P 1T0","1441 Church ST
Port Williams, NS B0P 1T0
(45.11329, -64.412928)"
"003168","Eating Establishment","Fo'c'sle Tavern","42 Queen ST","Chester","NS","B0J 1J0","42 Queen ST
Chester, NS B0J 1J0
(44.538396, -64.240229)"
"006590","Eating Establishment","Bione Restaurant","1030 South Park ST","Halifax","NS","B3H2W3","1030 South Park ST
Halifax, NS B3H2W3
(44.635395, -63.57644)"
"001567","Club","RCL Br. 151, Howie Centre (East Bay)","2317 King's RD","Sydney","NS","B1L 1C1","2317 King's RD
Sydney, NS B1L 1C1
(46.070429, -60.278782)"
"003571","Eating Establishment","The Olive Tree Pizzeria Bistro","137 Victoria RD","Sydney","NS","B1N 2V5",
"001865","Club","Twin Village Social Club","2699 Amiraults Hill RD","Amirault's Hill","NS","B0W 3M0",
"004232","Lounge","Whistler's Pub & Grub Lounge","285 George ST","Stewiacke","NS","B0N 2J0","285 George ST
Stewiacke, NS B0N 2J0
(45.138356, -63.349121)"
"001672","Eating Establishment","Bluenose II Restaurant & Grill","1824 Hollis ST","Halifax","NS","B3J 1W4","1824 Hollis ST
Halifax, NS B3J 1W4
(44.649355, -63.573724)"
"006117","Eating Establishment","Studio East Food + Drink","6021 Cunard ST","Halifax","NS","B3K 1E5","6021 Cunard ST
Halifax, NS B3K 1E5
(44.650716, -63.593132)"
"004956","Eating Establishment","Main Street Restaurant and Bakery","37764 Cabot Trail","Ingonish Beach","NS","B0C 1L0","37764 Cabot Trail
Ingonish Beach, NS B0C 1L0
(46.640593, -60.404172)"
"006306","Lounge","Sip Cafe","357 Main ST","Yarmouth","NS","B5A 1E7","357 Main ST
Yarmouth, NS B5A 1E7
(43.836588, -66.119944)"
"006369","Lounge","St. Louis Bar & Grill","792 Sackville DR","Lr. Sackville","NS","B4E 1R7","792 Sackville DR
Lr. Sackville, NS B4E 1R7
(44.774362, -63.693451)"
"004947","Special Premises","Oak Island Resort & Conference Centre","36 Treasure DR","Western Shore","NS","B0J 3M0","36 Treasure DR
Western Shore, NS B0J 3M0
(44.52084, -64.308393)"
"001053","Club","Chester Golf Club","222 Golf Course RD","Chester","NS","B0J 1J0","222 Golf Course RD
Chester, NS B0J 1J0
(44.540828, -64.225257)"
"001761","Club","Big Pond Volunteer Fire Department","7193 East Bay Hwy","Big Pond","NS","B1J 1V2","7193 East Bay Hwy
Big Pond, NS B1J 1V2
(45.912524, -60.532528)"
"006089","Lounge","Freemans Sackville","552 Sackville DR","Sackville","NS","B4C 2S2","552 Sackville DR
Sackville, NS B4C 2S2
(44.767366, -63.68392)"
"001210","Special Premises","Scotiabank Centre","5284 Duke ST","Halifax","NS","B3J 2V9","5284 Duke ST
Halifax, NS B3J 2V9
(44.648592, -63.577589)"
"001084","Club","Pubnico Area Lions Club","2562 HWY #3","Pubnico Head","NS","B0W 3S0","2562 HWY #3
Pubnico Head, NS B0W 3S0
(43.706136, -65.775165)"
"002011","Eating Establishment","Normaway Inn","691 Egypt RD","Margaree Valley","NS","B0E 2C0","691 Egypt RD
Margaree Valley, NS B0E 2C0
(46.336224, -60.951882)"
"006155","Eating Establishment","Byblos Lebanese Grill","644 Portland ST","Dartmouth","NS","B2W 2M3","644 Portland ST
Dartmouth, NS B2W 2M3
(44.671564, -63.526554)"
"005408","Eating Establishment","Blue Olive Greek Taverna","6196 Quinpool RD","Halifax","NS","B3L 1A3","6196 Quinpool RD
Halifax, NS B3L 1A3
(44.645848, -63.595866)"
"006493","Special Premises","Northwoodcare Bedford Inc.","123 Gary Martin DR","Bedford","NS","B4B 1G7","123 Gary Martin DR
Bedford, NS B4B 1G7
(44.722711, -63.705873)"
"006672","Eating Establishment","Bamboo Garden Restaurant","157 John Doucette RD","Mavillette","NS","B0W 2L0","157 John Doucette RD
Mavillette, NS B0W 2L0
(44.083613, -66.183939)"
"005727","Eating Establishment","The Butchers Block Pub & Eatery","540 Southgate DR","Bedford","NS","B4A 0C9","540 Southgate DR
Bedford, NS B4A 0C9
(44.701469, -63.67804)"
"004519","Club","Reserve & Gardiner Mines Firemen's Club","203 Main ST","Reserve Mines","NS","B1E 1E5","203 Main ST
Reserve Mines, NS B1E 1E5
(46.186918, -60.01687)"
"002756","Eating Establishment","Sandbar Dining Room","117 Mitchell AV","Dominion","NS","B1G 1M3","117 Mitchell AV
Dominion, NS B1G 1M3
(46.208847, -60.024471)"
"006180","Special Premises","Meadowview Development Association","8464 Brooklyn ST","Kentville","NS","B4N 4G8","8464 Brooklyn ST
Kentville, NS B4N 4G8
(45.083381, -64.508787)"
"004172","Lounge","S.S. Deck Lounge","35 High ST","Bridgewater","NS","B4V 1V8","35 High ST
Bridgewater, NS B4V 1V8
(44.369957, -64.52723)"
"002657","Special Premises","Cambridge Suites (Sydney)","380 Esplanade ST","Sydney","NS","B1P 1B1","380 Esplanade ST
Sydney, NS B1P 1B1
(46.136375, -60.195232)"
"001114","Special Premises","Baddeck Forks Golf & Recreation Club","12 Baddeck Forks Ext.","Baddeck Forks","NS","B0E 1B0",
"004812","Eating Establishment","Vines Pasta Grill","4 Panavista DR","Dartmouth","NS","B2W 3M7","4 Panavista DR
Dartmouth, NS B2W 3M7
(44.694543, -63.496607)"
"001022","Club","RCL Br. 108, River John","2506 River John Station RD","River John","NS","B0K 1N0","2506 River John Station RD
River John, NS B0K 1N0
(45.740933, -63.054782)"
"002983","Lounge","Jenny's Place Lounge","6211 Lady Hammond RD","Halifax","NS","B3K 2S1","6211 Lady Hammond RD
Halifax, NS B3K 2S1
(44.665127, -63.615867)"
"004887","Club","Mira Boat Club & Seniors Community Centre","545 Hillside RD","Albert Bridge","NS","B1K 3H9","545 Hillside RD
Albert Bridge, NS B1K 3H9
(46.024032, -60.095869)"
"005538","Eating Establishment","China Boat Restaurant","21 George ST","New Glasgow","NS","B2H 2J9","21 George ST
New Glasgow, NS B2H 2J9
(45.590096, -62.64941)"
"006237","Eating Establishment","Sushi Nami Royale","827 Bedford Hwy.","Bedford","NS","B4A 0J1","827 Bedford Hwy.
Bedford, NS B4A 0J1
(44.710564, -63.670552)"
"006490","Eating Establishment","Tacocat Taqueria","1870 Clementsvale RD","Bear River","NS","B0S 1B0","1870 Clementsvale RD
Bear River, NS B0S 1B0
(44.57581, -65.639575)"
"003833","Special Premises","Chester Playhouse","22 Pleasant ST","Chester","NS","B0J 1J0","22 Pleasant ST
Chester, NS B0J 1J0
(44.538221, -64.240767)"
"005817","Eating Establishment","Cha Baa Thai Bedford","1511 Bedford Hwy.","Bedford","NS","B4A 1E3","1511 Bedford Hwy.
Bedford, NS B4A 1E3
(44.731438, -63.658691)"
"004885","Eating Establishment","Coffee Merchant Restaurant, The","472 Main ST","Wolfville","NS","B4P 1E2","472 Main ST
Wolfville, NS B4P 1E2
(45.09132, -64.363493)"
"002129","Special Premises","Centre 200","481 George ST","Sydney","NS","B1P 1K1","481 George ST
Sydney, NS B1P 1K1
(46.137157, -60.192208)"
"005312","Eating Establishment","Woodshire Inn and Bistro","494 King ST","Windsor","NS","B0N 2T0","494 King ST
Windsor, NS B0N 2T0
(44.99123, -64.131786)"
"001527","Eating Establishment","White Point Beach Lodge Dining Room","75 White Point RD","Hunts Point","NS","B0T 1G0","75 White Point RD
Hunts Point, NS B0T 1G0
(44.031366, -64.719831)"
"002992","Eating Establishment","Ho Ho Wok Restaurant","23 Inglis ST","Truro","NS","B2N 4B5","23 Inglis ST
Truro, NS B2N 4B5
(45.364114, -63.276352)"
"005578","Eating Establishment","Pizza Delight (New Glasgow)","690 East River RD","New Glasgow","NS","B2H 3S1","690 East River RD
New Glasgow, NS B2H 3S1
(45.575575, -62.642139)"
"004578","Eating Establishment","Happy Garden Chinese Restaurant","1304 Birmingham ST","Halifax","NS","B3J 1G8","1304 Birmingham ST
Halifax, NS B3J 1G8
(44.640688, -63.575673)"
"001227","Club","Shelburne & Area Lions Club","188 Elliot ST","Shelburne","NS","B0T 1W0","188 Elliot ST
Shelburne, NS B0T 1W0
(43.768977, -65.314453)"
"006169","Lounge","Highwayman Restaurant & Bar","1673 Barrington ST","Halifax","NS","B3J 1Z9","1673 Barrington ST
Halifax, NS B3J 1Z9
(44.646865, -63.573903)"
"003453","Special Premises","Inverary Inn Resort","368 Shore RD","Baddeck","NS","B0E 1B0","368 Shore RD
Baddeck, NS B0E 1B0
(46.097112, -60.756883)"
"006200","Eating Establishment","Huo Le Restaurant","5650 Spring Garden RD","Halifax","NS","B3J 1H4","5650 Spring Garden RD
Halifax, NS B3J 1H4
(44.642657, -63.578338)"
"003856","Eating Establishment","The British Bulldog Gastro Pub","920 Cole Harbour RD","Dartmouth","NS","B2V 2J5","920 Cole Harbour RD
Dartmouth, NS B2V 2J5
(44.671258, -63.497913)"
"006815","Lounge","Quinn's Arms","6285 Quinpool RD","Halifax","NS","B3L 1A4","6285 Quinpool RD
Halifax, NS B3L 1A4
(44.645138, -63.5983)"
"006660","Eating Establishment","Ralph's Downeast Diner","13080 Highway # 7","Ship Harbour","NS","B0J1Y0","13080 Highway # 7
Ship Harbour, NS B0J1Y0
(44.805101, -62.881183)"
"002310","Club","Caledonia Athletic Club","20 Pitt ST","Glace Bay","NS","B1A 2B7","20 Pitt ST
Glace Bay, NS B1A 2B7
(46.185595, -59.958832)"
"006432","Special Premises","MARSA/Merigomish Schoolhouse","1682 Shore RD","Merigomish","NS","B0K 1G0","1682 Shore RD
Merigomish, NS B0K 1G0
(45.634571, -62.420915)"
"006335","Eating Establishment","Temple on Queen","48 Queen ST","Bridgetown","NS","B0S1C0","48 Queen ST
Bridgetown, NS B0S1C0
(44.839344, -65.291298)"
"000997","Club","RCL Br. 88, Chester Basin","25 Highway #12","Chester Basin","NS","B0J 1K0","25 Highway #12
Chester Basin, NS B0J 1K0
(44.565617, -64.308875)"
"003378","Eating Establishment","Roadside Willies Dining Room","27 Jennifer DR","Bible Hill","NS","B2N 6M5","27 Jennifer DR
Bible Hill, NS B2N 6M5
(45.379414, -63.251406)"
"006608","Lounge","Lew Murphy's Smoke & BBQ","9049 Commercial ST","New Minas","NS","B4N 5A4","9049 Commercial ST
New Minas, NS B4N 5A4
(45.067624, -64.456362)"
"005183","Eating Establishment","La Cucina Cafe Pizzeria & Spaghetti House","151 Hector  Gate","Dartmouth","NS","B3B 0E5","151 Hector  Gate
Dartmouth, NS B3B 0E5
(44.705154, -63.562265)"
"003884","Eating Establishment","Fan's Chinese Restaurant","451 Windmill RD","Dartmouth","NS","B3A 1J9","451 Windmill RD
Dartmouth, NS B3A 1J9
(44.68477, -63.598489)"
"005747","Special Premises","Life SalonSpa Bedford","540 Southgate DR","Bedford","NS","B4A 0C9","540 Southgate DR
Bedford, NS B4A 0C9
(44.701469, -63.67804)"
"004200","Eating Establishment","Parkview Family Restaurant","4670 Main ST","Oxford","NS","B0M 1P0","4670 Main ST
Oxford, NS B0M 1P0
(45.726637, -63.879453)"
"001627","Club","RCL Br. 95,  Bedford","1772 Bedford Highway","Bedford","NS","B4A 1G2","1772 Bedford Highway
Bedford, NS B4A 1G2
(44.740909, -63.654999)"
"006766","Eating Establishment","Cumin Kitchen and Drink","21 Roy AV","New Minas","NS","B4N 3R7","21 Roy AV
New Minas, NS B4N 3R7
(45.068788, -64.471169)"
"002611","Club","RCL Br. 147, Upper Musquodoboit","2768 Caribou RD","Upper Musquodoboit","NS","B0N 2M0","2768 Caribou RD
Upper Musquodoboit, NS B0N 2M0
(45.121812, -62.962815)"
"005485","Eating Establishment","Moxie's Classic Grill Dining Room","9 Countryview DR","Dartmouth","NS","B3B 0G4","9 Countryview DR
Dartmouth, NS B3B 0G4
(44.701, -63.564989)"
"005115","Eating Establishment","Szechuan Restaurant","950 Bedford Highway","Halifax","NS","B4A 4B5","950 Bedford Highway
Halifax, NS B4A 4B5
(44.715825, -63.678165)"
"006562","Lounge","Route 3 Cellar - Tap Room and Grill Limited","344 Main ST","Liverpool","NS","B2M 3G4","344 Main ST
Liverpool, NS B2M 3G4
(44.037467, -64.717873)"
"005770","Lounge","Canvas Resto Lounge","1583 Brunswick ST","Halifax","NS","B3J 3P1","1583 Brunswick ST
Halifax, NS B3J 3P1
(44.645042, -63.575935)"
"005873","Eating Establishment","Pine Grove Grill","83 Alder LN","Mt. Uniacke","NS","B0N 1Z0","83 Alder LN
Mt. Uniacke, NS B0N 1Z0
(44.890336, -63.832685)"
"000962","Eating Establishment","Silver Dragon Restaurant","2827 Robie ST","Halifax","NS","B3K 4P3","2827 Robie ST
Halifax, NS B3K 4P3
(44.657763, -63.599418)"
"006061","Eating Establishment","Bamboo Garden Restaurant","8690 Hwy.1","Meteghan Centre","NS","B0W 2K0","8690 Hwy.1
Meteghan Centre, NS B0W 2K0
(44.202762, -66.141833)"
"001101","Club","Royal Canadian Naval Association","3660 Commission ST","Halifax",,"B3K 0A5","3660 Commission ST
Halifax,  B3K 0A5
(44.664286, -63.617485)"
"003674","Lounge","Midtown-Boomers Tavern & Lounge","1725 Market ST","Halifax","NS","B3J 3N9","1725 Market ST
Halifax, NS B3J 3N9
(44.647237, -63.57632)"
"004630","Eating Establishment","Dockside Cafe","34 Water ST","Digby","NS","B0V 1A0","34 Water ST
Digby, NS B0V 1A0
(44.623376, -65.756332)"
"006686","Eating Establishment","The Tea Brewery","503 Main ST","Mahone Bay","NS","B0J 2E0","503 Main ST
Mahone Bay, NS B0J 2E0
(44.449177, -64.382365)"
"005931","Club","Caribou District Fire Hall","512 Three Brooks RD","Pictou","NS","B0K 1H0","512 Three Brooks RD
Pictou, NS B0K 1H0
(45.722659, -62.748912)"
"000882","Lounge","Kai Brady's Fancy Dive Bar","5675 Spring Garden RD","Halifax","NS","B3J 1G9","5675 Spring Garden RD
Halifax, NS B3J 1G9
(44.642464, -63.579079)"
"005152","Special Premises","Coyote Hill Golf Course/Driving Range","303 Highway 215","Ellershouse","NS","B0N 1L0","303 Highway 215
Ellershouse, NS B0N 1L0
(44.976607, -63.986166)"
"001029","Club","RCL Br. 128, Whitney Pier","836 Victoria RD","Sydney","NS","B1N 1K1","836 Victoria RD
Sydney, NS B1N 1K1
(46.157386, -60.184723)"
"006616","Eating Establishment","Yellow Leaf Restaurant","583 Main ST","Kingston","NS","B0P 1R0","583 Main ST
Kingston, NS B0P 1R0
(44.987399, -64.949492)"
"001105","Club","Strait Area Community Curling Club","15 MacQuarrie DR","Port Hawkesbury","NS","B9A 3A3","15 MacQuarrie DR
Port Hawkesbury, NS B9A 3A3
(45.620464, -61.356826)"
"003682","Eating Establishment","Dooly's Dining Room (Young Street)","3129 Kempt RD","Halifax","NS","B3K 5N6","3129 Kempt RD
Halifax, NS B3K 5N6
(44.659503, -63.60387)"
"001852","Special Premises","Shore Club","250 Shore Club RD","Hubbards","NS","B0J 1T0","250 Shore Club RD
Hubbards, NS B0J 1T0
(44.634142, -64.057403)"
"005640","Eating Establishment","Mike's Kwik Way","11261 Highway #3","Lunenburg","NS","B0J 2C0","11261 Highway #3
Lunenburg, NS B0J 2C0
(44.377502, -64.339908)"
"006110","Special Premises","East Dartmouth Community Centre","50 Caledonia RD","Dartmouth","NS","B2X 1K8","50 Caledonia RD
Dartmouth, NS B2X 1K8
(44.687485, -63.530726)"
"006668","Club","River John Lions Club","2726 River John Station RD","River John","NS","B0K 1N0","2726 River John Station RD
River John, NS B0K 1N0
(45.750791, -63.057826)"
"006609","Eating Establishment","Alexandra's Pizza","1735 Grafton ST","Halifax","NS","B3J 2C6","1735 Grafton ST
Halifax, NS B3J 2C6
(44.647417, -63.57569)"
"005618","Eating Establishment","Kenny's Pizza Sydney","89 Townsend ST","Sydney","NS","B1P 5C7","89 Townsend ST
Sydney, NS B1P 5C7
(46.134787, -60.192424)"
"006463","Special Premises","Fort View Golf Course","3816 Hwy. #1","Annapolis Royal","NS","B0S1A0","3816 Hwy. #1
Annapolis Royal, NS B0S1A0
(44.729279, -65.527077)"
"006744","Eating Establishment","Boomburger","64 Dellridge LN","Bedford","NS","B4A 0H1","64 Dellridge LN
Bedford, NS B4A 0H1
(44.701078, -63.688828)"
"001074","Club","Glooscap Curling Club","17 Crescent AV","Kentville","NS","B4N 3V9","17 Crescent AV
Kentville, NS B4N 3V9
(45.076244, -64.488945)"
"004698","Special Premises","Halifax Exhibition Centre","200 Prospect RD","Goodwood","NS","B3T 1P2","200 Prospect RD
Goodwood, NS B3T 1P2
(44.618158, -63.667319)"
"001771","Club","RCL Br. 155, Wedgeport","24 Corporon RD","Wedgeport","NS","B0W 3P0","24 Corporon RD
Wedgeport, NS B0W 3P0
(43.731968, -65.979144)"
"006698","Eating Establishment","Swaagat - The Real Taste of India","54 Union ST","Glace Bay","NS","B1A 2P5","54 Union ST
Glace Bay, NS B1A 2P5
(46.195652, -59.958415)"
"006879","Lounge","The Narrows Public House","2720 Gottingen ST","Halifax","NS","B3K 3C7","2720 Gottingen ST
Halifax, NS B3K 3C7
(44.658955, -63.593464)"
"000835","Eating Establishment","Gold House Restaurant","4190 Highway #1","Garlands Crossing","NS","B0N 2T0","4190 Highway #1
Garlands Crossing, NS B0N 2T0
(44.97408, -64.10945)"
"006300","Eating Establishment","Chain-Yard Cider","2606 Agricola ST","Halifax","NS","B3K 4C8","2606 Agricola ST
Halifax, NS B3K 4C8
(44.65563, -63.593934)"
"003367","Beverage Room","Bar@Bowlarama","31 Atlantic ST","Dartmouth","NS","B2Y 4P4","31 Atlantic ST
Dartmouth, NS B2Y 4P4
(44.650804, -63.543286)"
"003181","Lounge","Blue Rock Lounge","8467 Highway #1","Meteghan","NS","B0W 2J0","8467 Highway #1
Meteghan, NS B0W 2J0
(44.194846, -66.149875)"
"005990","Eating Establishment","The Middle Spoon Desserterie & Bar","1595 Bedford Hwy.","Bedford","NS","B4A 3Y4","1595 Bedford Hwy.
Bedford, NS B4A 3Y4
(44.73313, -63.655999)"
"004569","Lounge","Sea Dog Saloon Lounge","1 Dock ST","Shelburne","NS","B0T 1W0","1 Dock ST
Shelburne, NS B0T 1W0
(43.758974, -65.323014)"
"006403","Eating Establishment","Bird's Nest Cafe","1547 Barrington ST","Halifax","NS","B3J1Z4","1547 Barrington ST
Halifax, NS B3J1Z4
(44.645038, -63.572916)"
"001956","Club","Parrsboro Golf Club","984 Two Islands RD","Parrsboro","NS","B0M 1S0",
"005018","Eating Establishment","Coal Miners Cafe EE","15832 Central AV","Inverness","NS","B0E 1N0","15832 Central AV
Inverness, NS B0E 1N0
(46.231026, -61.305255)"
"005378","Special Premises","The Rafter's Lodge","12215 Highway 215","Urbania","NS","B0N 2H0","12215 Highway 215
Urbania, NS B0N 2H0
(45.190955, -63.422119)"
"006893","Eating Establishment","Pur & Simple","6140 Young ST","Halifax","NS","B3K 0G2","6140 Young ST
Halifax, NS B3K 0G2
(44.657806, -63.60478)"
"001972","Eating Establishment","Grubstake Restaurant","7499 Main ST","Louisbourg","NS","B1C 1H8","7499 Main ST
Louisbourg, NS B1C 1H8
(45.921421, -59.970172)"
"002247","Eating Establishment","Grafton Street Dinner Theatre","1741 Grafton ST","Halifax","NS","B3J 2C6","1741 Grafton ST
Halifax, NS B3J 2C6
(44.647554, -63.575764)"
"003387","Club","St. Andrew's District Community Centre","81 Pomquet River RD","St. Andrews","NS","B0H 1X0","81 Pomquet River RD
St. Andrews, NS B0H 1X0
(45.559098, -61.885503)"
"001010","Club","RCL Br. 98, Kingston","1472 Veterans LN","Kingston","NS","B0P 1R0","1472 Veterans LN
Kingston, NS B0P 1R0
(44.986723, -64.947413)"
"005862","Special Premises","Wink Day Spa","49 Inglis PL","Truro","NS","B2N 4B5","49 Inglis PL
Truro, NS B2N 4B5
(45.363598, -63.276189)"
"004548","Lounge","Terris Place Bar & Grill Lng","498 Sackville DR","Lower Sackville","NS","B4C 2S1","498 Sackville DR
Lower Sackville, NS B4C 2S1
(44.765858, -63.68116)"
"001556","Club","Pictou Club","58 Front ST","Pictou","NS","B0K 1H0","58 Front ST
Pictou, NS B0K 1H0
(45.676304, -62.706522)"
"001174","Special Premises","Saint Mary's University","923 Robie ST","Halifax","NS","B3H 3C3","923 Robie ST
Halifax, NS B3H 3C3
(44.631124, -63.582548)"
"002872","Lounge","Kings Arms Pub by Lew Murphy's Lounge","390 Main ST","Kentville","NS","B4N 4H8","390 Main ST
Kentville, NS B4N 4H8
(45.07715, -64.495846)"
"006353","Lounge","ORSO Pub and Eatery","1859 Brunswick ST","Halifax","NS","B3J 3L8","1859 Brunswick ST
Halifax, NS B3J 3L8
(44.648689, -63.57782)"
"003224","Club","South Bar Volunteer Fire Department","2148 Highway 28","South Bar","NS","B1N 3H7","2148 Highway 28
South Bar, NS B1N 3H7
(46.193544, -60.20071)"
"003925","Lounge","Whiskey's Lounge, Dartmouth","29 Portland ST","Dartmouth","NS","B2Y 4N3","29 Portland ST
Dartmouth, NS B2Y 4N3
(44.664798, -63.567582)"
"005883","Eating Establishment","Winners Circle","493 Prince ST","Sydney","NS","B1P 5L8","493 Prince ST
Sydney, NS B1P 5L8
(46.140695, -60.176879)"
"003263","Lounge","Reilly's Lounge","313 Prince Albert RD","Dartmouth","NS","B2Y 1N3","313 Prince Albert RD
Dartmouth, NS B2Y 1N3
(44.679453, -63.550092)"
"002050","Special Premises","River Oaks Golf Club","3909 Hwy #357","Meaghers Grant","NS","B0N 1V0","3909 Hwy #357
Meaghers Grant, NS B0N 1V0
(44.916599, -63.232369)"
"002601","Club","Boisdale Volunteer Fire Department","3810 Grand Narrows RD","Boisdale","NS","B1Y 3T9","3810 Grand Narrows RD
Boisdale, NS B1Y 3T9
(46.096265, -60.508044)"
"006311","Eating Establishment","Salty Rose's and the Periwinkle Cafe","36056 Cabot Trail","Ingonish","NS","B0C 1K0","36056 Cabot Trail
Ingonish, NS B0C 1K0
(46.691237, -60.36938)"
"001721","Club","RCL Br. 4, Joggins","12 School ST","Joggins","NS","B0L 1A0","12 School ST
Joggins, NS B0L 1A0
(45.69139, -64.439689)"
"000960","Eating Establishment","Rope Loft Dining Room","36 Water ST","Chester","NS","B0J 1J0","36 Water ST
Chester, NS B0J 1J0
(44.538749, -64.238296)"
"006095","Beverage Room","Breton Brewing Co.","364 Keltic DR","Sydney","NS","B1R 1V7","364 Keltic DR
Sydney, NS B1R 1V7
(46.117962, -60.233807)"
"005351","Eating Establishment","Tom's Family Restaurant","585 Sackville DR","Lr. Sackville","NS","B4C 2C4","585 Sackville DR
Lr. Sackville, NS B4C 2C4
(44.768128, -63.685386)"
"001820","Club","RCL Br. 27, Halifax (Vimy)","3200 Kempt RD","Halifax","NS","B3K 1V1","3200 Kempt RD
Halifax, NS B3K 1V1
(44.660411, -63.606555)"
"000996","Club","RCL Br. 44, Chester","14 Union ST","Chester","NS","B0J 1J0","14 Union ST
Chester, NS B0J 1J0
(44.539787, -64.239284)"
"005397","Club","St. Joseph's Lakeside Community Centre","2752 Ohio East RD","Antigonish","NS","B2G 2K8","2752 Ohio East RD
Antigonish, NS B2G 2K8
(45.539064, -62.075924)"
"001077","Club","Halifax Curling Club","948 South Bland ST","Halifax","NS","B3H 2S5","948 South Bland ST
Halifax, NS B3H 2S5
(44.634205, -63.572036)"
"001985","Eating Establishment","Duck Cove Inn Dining Room","10289 Cabot Trail","Margaree Harbour","NS","B0E 2B0","10289 Cabot Trail
Margaree Harbour, NS B0E 2B0
(46.430264, -61.105874)"
"005424","Eating Establishment","Shenanigans Sports Bar","197 Archimedies ST","New Glasgow","NS","B2H 3R3","197 Archimedies ST
New Glasgow, NS B2H 3R3
(45.586277, -62.644758)"
"000874","Eating Establishment","Keg Dining Room","1712 Market ST","Halifax","NS","B3J 2E3","1712 Market ST
Halifax, NS B3J 2E3
(44.647083, -63.576235)"
"005861","Special Premises","Lunenburg County Lifestyle Centre","135 North Park ST","Bridgewater","NS","B4V 9B3","135 North Park ST
Bridgewater, NS B4V 9B3
(44.386077, -64.536059)"
"003800","Eating Establishment","Lower Deck Neighbour Bar & Grill","278 Lacewood DR","Halifax","NS","B3M 3N8","278 Lacewood DR
Halifax, NS B3M 3N8
(44.662406, -63.656085)"
"002101","Club","Canso Lions Club","98 Queen ST","Canso","NS","B0H 1H0","98 Queen ST
Canso, NS B0H 1H0
(45.333789, -60.992553)"
"002288","Eating Establishment","Prince Arthur Restaurant","73A Starrs RD","Yarmouth","NS","B5A 2T6","73A Starrs RD
Yarmouth, NS B5A 2T6
(43.844241, -66.107437)"
"004335","Lounge","Jack Astor's Bar & Grill Lounge","184 Chain Lake DR","Halifax","NS","B3S 1C5","184 Chain Lake DR
Halifax, NS B3S 1C5
(44.647106, -63.674105)"
"006752","Eating Establishment","Kebab Kitchen","600 Windmill RD","Dartmouth","NS","B3A 4K1",
"003687","Eating Establishment","Snappers Bar & Grill Limited","6202 Highway 354","Kennetcook","NS","B0N1P0","6202 Highway 354
Kennetcook, NS B0N1P0
(45.176519, -63.722294)"
"002461","Eating Establishment","Red Barn Restaurant","2 Cabot Trail","Nyanza","NS","B0E 1B0","2 Cabot Trail
Nyanza, NS B0E 1B0
(46.094497, -60.866612)"
"004727","Eating Establishment","King Town Chinese Restaurant","225 Cobequid RD","Lower Sackville","NS","B4C 3J7","225 Cobequid RD
Lower Sackville, NS B4C 3J7
(44.760182, -63.659296)"
"005372","Eating Establishment","Pizzaland","287 Lacewood DR","Halifax","NS","B3M 3Y7","287 Lacewood DR
Halifax, NS B3M 3Y7
(44.662326, -63.65693)"
"001023","Club","RCL Br. 58, Sheet Harbour","23566 Watt Section","Sheet Harbour","NS","B0J 3B0",
"006534","Eating Establishment","Lemon Tree Home Style Food Limited","805 Bedford HY","Bedford","NS","B4A 1A4","805 Bedford HY
Bedford, NS B4A 1A4
(44.709323, -63.668393)"
"001475","Club","RCL Br. 150, Arichat","1219 Veteran's Memorial DR","Arichat","NS","B0E 1A0","1219 Veteran's Memorial DR
Arichat, NS B0E 1A0
(45.513704, -60.982438)"
"006298","Eating Establishment","New Germany's Riverside Eatery","4744 Highway 10","New Germany","NS","B0R 1E0","4744 Highway 10
New Germany, NS B0R 1E0
(44.533794, -64.700728)"
"005510","Special Premises","Caritas Hall","215 Seton RD","Halifax","NS","B3M 0C9","215 Seton RD
Halifax, NS B3M 0C9
(44.668774, -63.648757)"
"006158","Eating Establishment","Wild Leek Food and Juice Bar","2156 Windsor ST","Halifax","NS","B3K 5B6","2156 Windsor ST
Halifax, NS B3K 5B6
(44.649547, -63.59457)"
"004544","Eating Establishment","Mainstreet Cafe Dining Room","158 Main ST","Antigonish","NS","B2G 2B7","158 Main ST
Antigonish, NS B2G 2B7
(45.62325, -61.987199)"
"004926","Special Premises","Memory Lane Heritage Village","5435 Clam Harbour RD","Lake Charlotte","NS","B0J 1Y0","5435 Clam Harbour RD
Lake Charlotte, NS B0J 1Y0
(44.766752, -62.948803)"
"004835","Eating Establishment","Chowder House On Main","265 Main ST","Tatamagouche","NS","B0K 1V0","265 Main ST
Tatamagouche, NS B0K 1V0
(45.711639, -63.289641)"
"006598","Eating Establishment","Mr. Fish","104 King ST","Shelburne","NS","B0T 1W0","104 King ST
Shelburne, NS B0T 1W0
(43.766653, -65.312485)"
"005012","Club","Ukrainian Catholic Men's Club","49 West ST","Sydney","NS","B1N 1R9","49 West ST
Sydney, NS B1N 1R9
(46.158006, -60.180725)"
"005401","Club","St. Louis Parish Hall","150 Grandique Ferry RD","Louisdale","NS","B0E 1V0","150 Grandique Ferry RD
Louisdale, NS B0E 1V0
(45.605083, -61.059019)"
"003112","Special Premises","Super Cue Billiards","300 Sackville DR","Lower Sackville","NS","B4C 2R6","300 Sackville DR
Lower Sackville, NS B4C 2R6
(44.760977, -63.672604)"
"006804","Eating Establishment","Little Eden Bakery & Cafe","1996 Brunswick ST","Halifax","NS","B3J 2G7","1996 Brunswick ST
Halifax, NS B3J 2G7
(44.650672, -63.578761)"
"006746","Lounge","TALO Miners Forum","151 Lower North ST","Glace Bay","NS","B1A6B4","151 Lower North ST
Glace Bay, NS B1A6B4
(46.197804, -59.951925)"
"004694","Lounge","Don Cherry's Sports Grill Lng","45 Keltic DR","Sydney","NS","B1S 1P4","45 Keltic DR
Sydney, NS B1S 1P4
(46.110304, -60.224)"
"004286","Special Premises","Avon River Heritage Society Museum","17 Belmont RD","Newport","NS","B0N 2A0","17 Belmont RD
Newport, NS B0N 2A0
(45.022144, -64.130378)"
"005560","Lounge","Cheachie's Grill","102 Chain Lake DR","Halifax","NS","B3S 1A7","102 Chain Lake DR
Halifax, NS B3S 1A7
(44.637593, -63.665938)"
"001623","Club","Purcell's Cove Social Club","16 Shipside LN","Halifax","NS","B3P 0K2",
"005099","Club","Canadian Lebanon Society","255 Bedford Hwy","Halifax","NS","B3M 2K5","255 Bedford Hwy
Halifax, NS B3M 2K5
(44.677248, -63.649149)"
"006543","Eating Establishment","Almonak","5659 Almon ST","Halifax","NS","B3K 3X2","5659 Almon ST
Halifax, NS B3K 3X2
(44.658822, -63.596714)"
"002331","Eating Establishment","Capital Sports Circle Bar","6300 Lady Hammond RD","Halifax","NS","B3K 2R6","6300 Lady Hammond RD
Halifax, NS B3K 2R6
(44.6647, -63.617369)"
"006032","Special Premises","Port Medway Fire Department","66 Long Cove RD","Port Medway","NS","B0T 1K0","66 Long Cove RD
Port Medway, NS B0T 1K0
(44.127859, -64.571684)"
"006528","Special Premises","Cape Breton Centre For Craft & Design - Cape Breton School of Crafts","322 Charlotte ST","Sydney",,"B1P 1C8","322 Charlotte ST
Sydney,  B1P 1C8
(46.137924, -60.194623)"
"006617","Special Premises","Iron Mountain Wilderness Cabins","901 Whycocomagh Mounta","Whycocomagh","NS","B0E 3M0",
"001045","Club","Bateston Athletic Pensioners and Seniors Club","1426 Mira Bay DR","Bateston","NS","B1C 2A8","1426 Mira Bay DR
Bateston, NS B1C 2A8
(46.005422, -59.918568)"
"004111","Special Premises","Khyber Arts Centre","1880 Hollis ST","Halifax","NS","B3K 1W6","1880 Hollis ST
Halifax, NS B3K 1W6
(44.650034, -63.574086)"
"005849","Eating Establishment","Mother's Pizza Canada","5710 Young ST","Halifax","NS","B3K 1Z8","5710 Young ST
Halifax, NS B3K 1Z8
(44.660549, -63.601164)"
"005037","Lounge","ela! Greek Taverna","150 Hector Gate RD","Dartmouth","NS","B3B 0E6","150 Hector Gate RD
Dartmouth, NS B3B 0E6
(44.704988, -63.561862)"
"005386","Lounge","Loose Cannon Lounge","1566 Argyle ST","Halifax","NS","B3J 2B3","1566 Argyle ST
Halifax, NS B3J 2B3
(44.645226, -63.573831)"
"004081","Eating Establishment","Dooly's Dining Room (Port Hawkesbury)","634  Hwy 4 Reeves ST","Port Hawkesbury","NS","B9A 2R7","634  Hwy 4 Reeves ST
Port Hawkesbury, NS B9A 2R7
(45.615537, -61.353746)"
"006398","Lounge","Schoolhouse Brewery Inc.","40 Water ST","Windsor","NS","B0N 2T0","40 Water ST
Windsor, NS B0N 2T0
(44.995356, -64.138623)"
"003501","Special Premises","NSCC Kingstec","236 Belcher ST","Kentville","NS","B4N 0A6","236 Belcher ST
Kentville, NS B4N 0A6
(45.084772, -64.48196)"
"001814","Special Premises","Yarmouth Arts Regional Centre","76 Parade ST","Yarmouth","NS","B5A 3B3","76 Parade ST
Yarmouth, NS B5A 3B3
(43.836721, -66.110086)"
"003797","Lounge","Staggers Pub & Grill","26 Portland ST","Dartmouth","NS","B2Y 1G9","26 Portland ST
Dartmouth, NS B2Y 1G9
(44.664802, -63.567577)"
"005800","Eating Establishment","Cheese Curds Gourmet Burgers/Poutinerie & Habaneros Modern Taco Bar","590-600 Windmill RD","Dartmouth","NS","B3B 1B5","590-600 Windmill RD
Dartmouth, NS B3B 1B5
(44.696396, -63.602128)"
"004974","Lounge","Yuan of Asia Restaurant Inc.","107 South Albion ST","Amherst","NS","B4H 2X2","107 South Albion ST
Amherst, NS B4H 2X2
(45.81779, -64.205122)"
"004748","Eating Establishment","Windlass Restaurant","1615 Chebogue RD","Kelleys Cove","NS","B5A 4A6","1615 Chebogue RD
Kelleys Cove, NS B5A 4A6
(43.782313, -66.121549)"
"005831","Eating Establishment","Sailors Galley","43 Bridge AV","Stellarton","NS","B0K 1S0","43 Bridge AV
Stellarton, NS B0K 1S0
(45.562448, -62.658764)"
"006185","Eating Establishment","The Wheelhouse Seafood & Pasta","217A Highway 1","Smiths Cove","NS","B0S 1C0","217A Highway 1
Smiths Cove, NS B0S 1C0
(44.626801, -65.672958)"
"006471","Eating Establishment","Thai Express","720 Sackville DR","Lower Sackville","NS","B4E1R7","720 Sackville DR
Lower Sackville, NS B4E1R7
(44.771496, -63.691127)"
"003894","Club","West Pubnico Firefighters Club","897 Highway 335","West Pubnico","NS","B0W 3S0","897 Highway 335
West Pubnico, NS B0W 3S0
(43.666072, -65.799172)"
"006291","Special Premises","Life Salon Spa","1592 Barrington ST","Halifax","NS","B3J 0C7","1592 Barrington ST
Halifax, NS B3J 0C7
(44.646003, -63.573435)"
"006676","Eating Establishment","The Sea Biscuit Cafe & Eatery","87 Water ST","Digby","NS","B0V 1A0","87 Water ST
Digby, NS B0V 1A0
(44.625205, -65.756695)"
"006651","Lounge","Capital Sports Circle Bar","6300 Lady Hammond RD","Halifax","NS","B3K 2R6","6300 Lady Hammond RD
Halifax, NS B3K 2R6
(44.6647, -63.617369)"
"005326","Eating Establishment","Boston Pizza EE, Antigonish","135 Church ST","Antigonish","NS","B2G 2E3","135 Church ST
Antigonish, NS B2G 2E3
(45.615852, -61.985693)"
"005498","Eating Establishment","Sushi Nami Royale, Lacewood","201 Chain Lake DR","Halifax","NS","B3S 1C8","201 Chain Lake DR
Halifax, NS B3S 1C8
(44.650821, -63.675891)"
"006352","Eating Establishment","ORSO Pub and Eatery","1859 Brunswick ST","Halifax","NS","B3J 3L8","1859 Brunswick ST
Halifax, NS B3J 3L8
(44.648689, -63.57782)"
"005254","Eating Establishment","JB's Steak & Seafood","55 Highway 330","Barrington Passage","NS","B0W 1G0","55 Highway 330
Barrington Passage, NS B0W 1G0
(43.518879, -65.615543)"
"004260","Eating Establishment","Shoreline Restaurant","88 Water ST","Digby","NS","B0V 1A0","88 Water ST
Digby, NS B0V 1A0
(44.625232, -65.756694)"
"005939","Eating Establishment","The Shanty Cafe, Yarmouth","6B Central ST","Yarmouth","NS","B5A 3H1","6B Central ST
Yarmouth, NS B5A 3H1
(43.836114, -66.120943)"
"006605","Eating Establishment","Swaagat - The Real Taste of India","453 Prince ST","Sydney","NS","B1P5L3","453 Prince ST
Sydney, NS B1P5L3
(46.140456, -60.178478)"
"006143","Special Premises","Digby Curling Centre","27 Shreve ST","Digby","NS","B0V 1A0","27 Shreve ST
Digby, NS B0V 1A0
(44.618804, -65.768009)"
"005731","Eating Establishment","Sahla Thai Limited","793-795 Prince ST","Truro","NS","B2N 1G7","793-795 Prince ST
Truro, NS B2N 1G7
(45.364687, -63.277308)"
"004658","Eating Establishment","Halls Harbour Restaurant & Gift Shop","1157 West Halls Harbour R","Halls Harbour","NS","B0P 1J0","1157 West Halls Harbour R
Halls Harbour, NS B0P 1J0
(45.200558, -64.620228)"
"005792","Eating Establishment","Coda Ramen","2157 Gottingen ST","Halifax","NS","B3K 3B5","2157 Gottingen ST
Halifax, NS B3K 3B5
(44.652538, -63.584156)"
"005476","Eating Establishment","Trendz Cafe","15 Spectacle Lake DR","Dartmouth","NS","B3B 1X7","15 Spectacle Lake DR
Dartmouth, NS B3B 1X7
(44.701576, -63.582613)"
"006891","Eating Establishment","Diners Delight Family Restaurant","7182 Hwy #1","Coldbrook","NS","B4R 1A2","7182 Hwy #1
Coldbrook, NS B4R 1A2
(45.067728, -64.566651)"
"006624","Eating Establishment","Roadside Chinese Cuisine","1569 Dresden RW","Halifax","NS","B3J 2K4","1569 Dresden RW
Halifax, NS B3J 2K4
(44.644193, -63.578555)"
"002981","Lounge","McKelvie's Lounge","1680 Lower Water ST","Halifax","NS","B3J 2Y3","1680 Lower Water ST
Halifax, NS B3J 2Y3
(44.647655, -63.571386)"
"006414","Special Premises","Hantsport Memorial Community Centre","6 Main ST","Hantsport","NS","B0P 1P0","6 Main ST
Hantsport, NS B0P 1P0
(45.06529, -64.180205)"
"006434","Eating Establishment","The Bayport Pub","3017 Hwy. #332","Bayport","NS","B0J 2X0","3017 Hwy. #332
Bayport, NS B0J 2X0
(44.315035, -64.302541)"
"003072","Club","New Waterford District Senior Citizens Recreation Club","3390 Plummer AV","New Waterford","NS","B1H 1Y9","3390 Plummer AV
New Waterford, NS B1H 1Y9
(46.248876, -60.086156)"
"001928","Club","Truro Golf Club","86 Golf ST","Truro","NS","B2N 5C7","86 Golf ST
Truro, NS B2N 5C7
(45.364177, -63.296469)"
"006073","Eating Establishment","Bar Kismet Ltd.","2733 Agricola ST","Halifax","NS","B3K 4E2","2733 Agricola ST
Halifax, NS B3K 4E2
(44.657365, -63.596244)"
"005097","Eating Establishment","Jungle Jim's Dining Room, Stellarton","127 North Foord ST","Stellarton","NS","B0K 1S0",
"004614","Club","RCL Br. 55, Port Morien","2832 Highway 255","Port Morien","NS","B1B 1V8","2832 Highway 255
Port Morien, NS B1B 1V8
(46.129418, -59.876204)"
"002902","Lounge","Wranglers Lounge","221 Glasgow ST","New Glasgow","NS","B2H 5C1","221 Glasgow ST
New Glasgow, NS B2H 5C1
(45.586822, -62.646107)"
"006206","Eating Establishment","Boston Pizza Truro","68 Robie ST","Truro","NS","B2N 1L2","68 Robie ST
Truro, NS B2N 1L2
(45.367863, -63.313162)"
"006591","Beverage Room","Lisa Drader Murphy","1869 Upper Water ST","Halifax","NS","B3J 1S9","1869 Upper Water ST
Halifax, NS B3J 1S9
(44.649968, -63.573534)"
"004165","Lounge","Daniel's Alehouse and Eatery","456 Charlotte ST","Sydney","NS","B1P 1E4","456 Charlotte ST
Sydney, NS B1P 1E4
(46.135213, -60.193788)"
"005081","Special Premises","Harbourview Inn & Suites","100 Kings RD","Sydney","NS","B1S 1A1","100 Kings RD
Sydney, NS B1S 1A1
(46.13074, -60.195285)"
"006840","Beverage Room","Sober Island Brewing Company","22462 Hwy # 7","Sheet Harbour","NS","B0J 3B0","22462 Hwy # 7
Sheet Harbour, NS B0J 3B0
(44.925484, -62.5409)"
"006342","Eating Establishment","The Chesnutt Cafe","10163 Durham ST","Pugwash","NS","B0K 1L0","10163 Durham ST
Pugwash, NS B0K 1L0
(45.849552, -63.662593)"
"002967","Eating Establishment","Mug & Anchor Dining Room","643 South Main ST","Mahone Bay","NS","B0J 2E0","643 South Main ST
Mahone Bay, NS B0J 2E0
(44.44786, -64.376371)"
"005257","Special Premises","Holiday Inn Express & Suites Halifax-Bedford","980 Parkland DR","Halifax","NS","B3M 4Y7","980 Parkland DR
Halifax, NS B3M 4Y7
(44.682958, -63.676462)"
"001298","Club","Dartmouth Yacht Club","697 Windmill RD","Dartmouth","NS","B3B 1B7","697 Windmill RD
Dartmouth, NS B3B 1B7
(44.702378, -63.60864)"
"006860","Eating Establishment","BKS Speakeasy","1709 Lower Water ST","Halifax","NS","B3J 1S5","1709 Lower Water ST
Halifax, NS B3J 1S5
(44.648102, -63.571625)"
"005204","Lounge","Riverbank Lounge","856 Grand Mira South RD","Juniper Mountain","NS","B1K 1G8","856 Grand Mira South RD
Juniper Mountain, NS B1K 1G8
(45.951455, -60.265735)"
"004882","Eating Establishment","Hop Scotch Dinner Club","1537 Barrington ST","Halifax","NS","B3J 1Z4","1537 Barrington ST
Halifax, NS B3J 1Z4
(44.644959, -63.572875)"
"002652","Eating Establishment","Lockmasters Quarters Pub","10095 Grenville ST","St. Peters","NS","B0E 3B0","10095 Grenville ST
St. Peters, NS B0E 3B0
(45.657445, -60.867952)"
"004098","Lounge","Eastside Billiards Lounge","189 Chain Lake DR","Halifax","NS","B3S 1G9","189 Chain Lake DR
Halifax, NS B3S 1G9
(44.647414, -63.674594)"
"005830","Club","HMCS Acadia Mess","761 Broadway AV","Cornwallis","NS","B0S 1H0","761 Broadway AV
Cornwallis, NS B0S 1H0
(44.656604, -65.633352)"
"002748","Club","Sackville Lions Club","101 Old Beaverbank RD","Lower Sackville","NS","B4C 2S9",
"001006","Club","RCL Br. 81, Guysborough","10628 Route 16","Guysborough","NS","B0H 1N0","10628 Route 16
Guysborough, NS B0H 1N0
(45.406799, -61.509481)"
"001320","Club","RCL Br. 67, Weymouth","24 Back ST","Weymouth","NS","B0W 3T0","24 Back ST
Weymouth, NS B0W 3T0
(44.413327, -65.994793)"
"000827","Eating Establishment","Chow Family Restaurant","344 Prince ST","Truro","NS","B2N 1E2","344 Prince ST
Truro, NS B2N 1E2
(45.36681, -63.296477)"
"001452","Club","R.C.A.F. Association #110 (Northumberland) Wing","221 Foord ST","Stellarton","NS","B0K 1S0","221 Foord ST
Stellarton, NS B0K 1S0
(45.5608, -62.659738)"
"006503","Club","The Construction Zone 14 CES/143 CEF Combined Mess","417 Harold Whynot RD","Pine Grove","NS","B4V 2W8","417 Harold Whynot RD
Pine Grove, NS B4V 2W8
(44.398787, -64.511196)"
"003899","Eating Establishment","Papa's Pub Eatery Dining Room","714 Reeves ST","Port Hawkesbury","NS","B9A 2S1","714 Reeves ST
Port Hawkesbury, NS B9A 2S1
(45.614252, -61.350073)"
"003313","Eating Establishment","The Station","73 Queen ST","Bridgetown","NS","B0S 1C0","73 Queen ST
Bridgetown, NS B0S 1C0
(44.837193, -65.2929)"
"000840","Eating Establishment","Joe's Food Emporium Dining Room","434 Main ST","Wolfville","NS","B4P 1E2","434 Main ST
Wolfville, NS B4P 1E2
(45.091459, -64.362084)"
"006026","Lounge","ela! Greek Taverna","215 Chain Lake DR","Halifax","NS","B3S 1C9","215 Chain Lake DR
Halifax, NS B3S 1C9
(44.653969, -63.677855)"
"002178","Club","RCL Br. 36, Oxford","74 Jackson ST","Oxford","NS","B0M 1P0","74 Jackson ST
Oxford, NS B0M 1P0
(45.735847, -63.870254)"
"004712","Eating Establishment","Rack and Roll Billiards Dining Room","3345 Plummer AV","New Waterford","NS","B1H 4K4","3345 Plummer AV
New Waterford, NS B1H 4K4
(46.248499, -60.084488)"
"006436","Beverage Room","Heritage Brewing Company Ltd.","250 Main ST","Yarmouth","NS","B5A 1C9","250 Main ST
Yarmouth, NS B5A 1C9
(43.834005, -66.120133)"
"003612","Lounge","Waterfront Warehouse Lounge","1549 Lower Water ST","Halifax","NS","B3J 1S2","1549 Lower Water ST
Halifax, NS B3J 1S2
(44.645615, -63.570746)"
"005273","Special Premises","Remedy Facial Bar & Spa","5640 Spring Garden RD","Halifax","NS","B3J 3M7","5640 Spring Garden RD
Halifax, NS B3J 3M7
(44.642719, -63.578117)"
"006645","Eating Establishment","Il Ferramenta Pizzeria","59 Duke ST","Chester","NS","B0J 1J0","59 Duke ST
Chester, NS B0J 1J0
(44.539011, -64.238987)"
"001165","Club","RCL Br. 22, Bear River","1877 Clementsvale RD","Bear River","NS","B0S 1B0","1877 Clementsvale RD
Bear River, NS B0S 1B0
(44.5762, -65.639356)"
"002613","Special Premises","Rodd Grand Hotel","417 Main ST","Yarmouth","NS","B5A 4B2","417 Main ST
Yarmouth, NS B5A 4B2
(43.839136, -66.119414)"
"001309","Club","Windsor Curling Club","174 Grey ST","Windsor","NS","B0N 2T0","174 Grey ST
Windsor, NS B0N 2T0
(44.992529, -64.138244)"
"004871","Eating Establishment","Mabou River Inn Dining Room","19 Southwest Ridge RD","Mabou","NS","B0E 1X0","19 Southwest Ridge RD
Mabou, NS B0E 1X0
(46.068004, -61.397796)"
"005080","Special Premises","Mersey Lodge","2537 River RD","Milton","NS","B0T 1P0","2537 River RD
Milton, NS B0T 1P0
(44.123899, -64.910855)"
"004175","Eating Establishment","L'Abri Cafe', Restaurant et bar","15559 Cabot Trail","Cheticamp","NS","B0E 1H0","15559 Cabot Trail
Cheticamp, NS B0E 1H0
(46.641862, -61.003058)"
"006719","Beverage Room","Encore Nail Bar","117 Kearney Lake RD","Halifax","NS","B3M 4N9","117 Kearney Lake RD
Halifax, NS B3M 4N9
(44.684199, -63.675465)"
"006390","Eating Establishment","The Hub","55 Tacoma DR","Dartmouth","NS","B2W 3E7","55 Tacoma DR
Dartmouth, NS B2W 3E7
(44.680846, -63.540017)"
"002093","Special Premises","Halifax International Airport","747 Bell BL","Goff's","NS","B2T 1K2",
"006554","Lounge","Stubborn Goat Beer Garden","1597 Lower Water ST","Halifax","NS","B3J 3P6","1597 Lower Water ST
Halifax, NS B3J 3P6
(44.646419, -63.57098)"
"002693","Lounge","Jigger's Lounge","99 Union ST","Glace Bay","NS","B1A 2P6","99 Union ST
Glace Bay, NS B1A 2P6
(46.194661, -59.959717)"
"001032","Club","RCL Br. 26, Truro","42 Brunswick ST","Truro","NS","B2N 5E5","42 Brunswick ST
Truro, NS B2N 5E5
(45.36142, -63.275849)"
"006728","Eating Establishment","Tipico Pasta Restaurant","3450 Dutch Village RD","Halifax","NS",,"3450 Dutch Village RD
Halifax, NS 
(44.654492, -63.632004)"
"005341","Eating Establishment","Just Us! Cafe","450 Main ST","Wolfville","NS","B0P 1X0","450 Main ST
Wolfville, NS B0P 1X0
(45.0914, -64.36269)"
"001193","Eating Establishment","Jade Palace","2 Fir ST","Springhill","NS","B0M 1X0","2 Fir ST
Springhill, NS B0M 1X0
(45.650634, -64.05974)"
"006861","Lounge","BKS Speakeasy","1709 Lower Water ST","Halifax","NS","B3J 1S5","1709 Lower Water ST
Halifax, NS B3J 1S5
(44.648102, -63.571625)"
"001708","Club","Stellarton Firefighters Association","11 Jubilee AV","Stellarton","NS","B0K 1S0","11 Jubilee AV
Stellarton, NS B0K 1S0
(45.559574, -62.662059)"
"005004","Eating Establishment","Spitfire Arms Alehouse","29 Water ST","Windsor","NS","B0N 2T0","29 Water ST
Windsor, NS B0N 2T0
(44.99545, -64.138521)"
"002681","Eating Establishment","Pizza Delight (Truro)","61 Robie ST","Lower Truro","NS","B2N 1K8","61 Robie ST
Lower Truro, NS B2N 1K8
(45.367784, -63.315025)"
"001670","Eating Establishment","Lobster Galley Restaurant","51943 Cabot Trail","South Haven","NS","B0E 1B0","51943 Cabot Trail
South Haven, NS B0E 1B0
(46.208445, -60.595288)"
"005766","Eating Establishment","Wok Box","55 Gale Terrace","Dartmouth","NS","B3B 0B7","55 Gale Terrace
Dartmouth, NS B3B 0B7
(44.699269, -63.564594)"
"001863","Club","Cheticamp Columbus Club","13956 Cabot Trail, Point Cro","Cheticamp","NS","B0E 1H0",
"006136","Lounge","Patrons Rec Room","105-27 Dellridge LN","Bedford","NS","B4A 0H1","105-27 Dellridge LN
Bedford, NS B4A 0H1
(44.701674, -63.68758)"
"003232","Lounge","Kempster's Lounge","3644 Kempt RD","Halifax","NS","B3M 1B6","3644 Kempt RD
Halifax, NS B3M 1B6
(44.662703, -63.61846)"
"001471","Club","RCL Br. 46, Canso","1131 Union ST","Canso","NS","B0H 1H0","1131 Union ST
Canso, NS B0H 1H0
(45.337521, -61.000893)"
"006636","Eating Establishment","Derado's Pizzeria and Donair","275 Main ST","Tatamagouche","NS","B0K 1V0","275 Main ST
Tatamagouche, NS B0K 1V0
(45.711393, -63.289181)"
"001001","Club","RCL Br. 5, Donkin","11 Second ST","Donkin","NS","B1A 6S5","11 Second ST
Donkin, NS B1A 6S5
(46.185904, -59.870976)"
"006763","Lounge","Trattoria da Claudio","1569 Dresden Row","Halifax","NS","B3J 2K4","1569 Dresden Row
Halifax, NS B3J 2K4
(44.644193, -63.578555)"
"003180","Eating Establishment","Seashore Restaurant","8467 Highway #1","Meteghan","NS","B0W 2J0","8467 Highway #1
Meteghan, NS B0W 2J0
(44.194846, -66.149875)"
"001128","Special Premises","Arborstone Enhanced Care","126 Purcell's Cove RD","Halifax","NS","B3P 1B5",
"005185","Eating Establishment","HK Wong's Palace Restaurant","644 Portland ST","Dartmouth","NS","B2W 6A3","644 Portland ST
Dartmouth, NS B2W 6A3
(44.671564, -63.526554)"
"005036","Eating Establishment","ela! Greek Taverna","150 Hector Gate RD","Dartmouth","NS","B3B 0E6","150 Hector Gate RD
Dartmouth, NS B3B 0E6
(44.704988, -63.561862)"
"002545","Lounge","Big Land Bar","39 Forrest ST","North Sydney","NS","B2A 3B1","39 Forrest ST
North Sydney, NS B2A 3B1
(46.214539, -60.245836)"
"000860","Eating Establishment","3A Restaurant Food & Drink","264 Bedford Highway","Halifax","NS","B3M 2K7","264 Bedford Highway
Halifax, NS B3M 2K7
(44.677947, -63.649666)"
"001039","Club","Annapolis Royal Fire Department","5 St. Anthony ST","Annapolis Royal","NS","B0S 1A0","5 St. Anthony ST
Annapolis Royal, NS B0S 1A0
(44.748675, -65.513076)"
"003698","Club","Truro Curling Club","56 Young ST","Truro","NS","B2N 5E4","56 Young ST
Truro, NS B2N 5E4
(45.362717, -63.278989)"
"006222","Eating Establishment","Naru Japanese Restaurant","216 Bentinck ST","Sydney","NS","B1P 1G8","216 Bentinck ST
Sydney, NS B1P 1G8
(46.135039, -60.192683)"
"002384","Permanent  Special Occasion","Shoreham Village Senior Citizens","3777 North ST","Chester","NS","B0J 1J0","3777 North ST
Chester, NS B0J 1J0
(44.546518, -64.236677)"
"006566","Lounge","Julep","1688 Barrington ST","Halifax","NS","B3J 3K4","1688 Barrington ST
Halifax, NS B3J 3K4
(44.647122, -63.574043)"
"006519","Eating Establishment","Mabata","636 Bedford HY","Bedford","NS","B4A 0H6",
"003706","Eating Establishment","ASAP Mabuhay Bar and Grill","5237 Blower ST","Halifax","NS","B3J 1J8","5237 Blower ST
Halifax, NS B3J 1J8
(44.645027, -63.57408)"
"004296","Lounge","Durty Nelly's Irish Pub Lng","1646 Barrington ST","Halifax","NS","B3J 2A3","1646 Barrington ST
Halifax, NS B3J 2A3
(44.64642, -63.573661)"
"006787","Eating Establishment","Portside View Restaurant","100 Water ST","Digby","NS","B0V 1A0","100 Water ST
Digby, NS B0V 1A0
(44.625661, -65.756643)"
"003642","Special Premises","Truro Parks and Recreation Commission","14 Lorne ST","Truro","NS","B2N 3K3","14 Lorne ST
Truro, NS B2N 3K3
(45.369579, -63.279266)"
"005946","Lounge","Flavor on the Water","74 Esplanade","Sydney","NS","B1P 1A1","74 Esplanade
Sydney, NS B1P 1A1
(46.142789, -60.198916)"
"003688","Lounge","Snappers Bar & Grill Limited","6202 Highway 354","Kennetcook","NS","B0N1P0","6202 Highway 354
Kennetcook, NS B0N1P0
(45.176519, -63.722294)"
"002873","Eating Establishment","Lion's Head Dining Room","3085 Robie ST","Halifax","NS","B3K4P7","3085 Robie ST
Halifax, NS B3K4P7
(44.659392, -63.601903)"
"005827","Special Premises","Boscawen Inn","150 Cumberland ST","Lunenburg","NS","B0J 2C0","150 Cumberland ST
Lunenburg, NS B0J 2C0
(44.377593, -64.308469)"
"002165","Eating Establishment","Baddeck Lobster Suppers","17 Ross ST","Baddeck","NS","B0E 1B0","17 Ross ST
Baddeck, NS B0E 1B0
(46.097151, -60.755058)"
"004941","Eating Establishment","A Good Day Kitchen and Cafe","1480 Fall River RD","Fall River","NS","B2T 1J1","1480 Fall River RD
Fall River, NS B2T 1J1
(44.817853, -63.613377)"
"005236","Eating Establishment","Boston Pizza Dining Room, Lwr Sackville","710 Sackville DR","Lower Sackville","NS","B4E 3A4","710 Sackville DR
Lower Sackville, NS B4E 3A4
(44.770897, -63.690525)"
"005693","Special Premises","Waegwoltic Club","6549 Coburg RD","Halifax","NS","B3H4E3","6549 Coburg RD
Halifax, NS B3H4E3
(44.636244, -63.600904)"
"006172","Eating Establishment","A Bite of Asia Inc.","80 Dorchester ST","Sydney","NS","B1P 5Z1","80 Dorchester ST
Sydney, NS B1P 5Z1
(46.141321, -60.194468)"
"000985","Eating Establishment","Wong's Restaurant, Baddeck","480 Chebucto ST","Baddeck","NS","B0E 1B0","480 Chebucto ST
Baddeck, NS B0E 1B0
(46.099943, -60.751974)"
"006129","Lounge","Groundswell Guest House","3283 Hwy #320","D'Escousse","NS","B0E 1K0","3283 Hwy #320
D'Escousse, NS B0E 1K0
(45.588076, -60.963932)"
"005636","Lounge","Flavor 19 Lounge","1225 Grand Lake RD","Sydney","NS","B1M 1A2","1225 Grand Lake RD
Sydney, NS B1M 1A2
(46.17024, -60.098348)"
"005708","Special Premises","Republic Airline Inc","8909 Purdue RD","Indpls","IN","46268","8909 Purdue RD
Indpls, IN 46268
(45.092918, -75.947117)"
"001849","Eating Establishment","Inn On The Lake","3009 Hwy. #2","Fall River","NS","B2T 1J5","3009 Hwy. #2
Fall River, NS B2T 1J5
(44.807494, -63.606776)"
"006322","Eating Establishment","May Garden Restaurant","961 Bedford HY","Bedford","NS","B4A1A9","961 Bedford HY
Bedford, NS B4A1A9
(44.716981, -63.677608)"
"003984","Lounge","Sura Lounge","1535 Dresden RW","Halifax","NS","B3J 3T1","1535 Dresden RW
Halifax, NS B3J 3T1
(44.643597, -63.578245)"
"005898","Eating Establishment","Salvatore's Pizzaiolo Trattoria","5541 Young ST","Halifax","NS","B3K 1Z7","5541 Young ST
Halifax, NS B3K 1Z7
(44.661823, -63.599464)"
"005744","Eating Establishment","Tomavinos Pizzeria Restaurant","1113 Marginal RD","Halifax","NS","B3H 4P7","1113 Marginal RD
Halifax, NS B3H 4P7
(44.639267, -63.56643)"
"006839","Special Premises","Culture Link CIC","1800 Argyle ST","Halifax","NS","B3J 3N8","1800 Argyle ST
Halifax, NS B3J 3N8
(44.648405, -63.575492)"
"005934","Special Premises","Woods Harbour Community Centre","6881 Highway #3","Woods Harbour","NS","B0W 2E0","6881 Highway #3
Woods Harbour, NS B0W 2E0
(43.536559, -65.733401)"
"004336","Eating Establishment","Minato Sushi Japanese Restaurant","1520 Queen ST","Halifax","NS","B3J 2H8","1520 Queen ST
Halifax, NS B3J 2H8
(44.643656, -63.576347)"
"003825","Eating Establishment","Tempo Food + Drink","1875 Barrington ST","Halifax","NS","B3J 3L6","1875 Barrington ST
Halifax, NS B3J 3L6
(44.649822, -63.575396)"
"006279","Eating Establishment","Colleen's Pub & Grill","245 Waverley","Dartmouth","NS","B2X 2C4","245 Waverley
Dartmouth, NS B2X 2C4
(44.697549, -63.547605)"
"005923","Special Premises","Kara's Urban Day Spa","5980 Spring Garden RD","Halifax","NS","B3H 1Y7","5980 Spring Garden RD
Halifax, NS B3H 1Y7
(44.640519, -63.586338)"
"006703","Eating Establishment","Fresh From the Oven Bakery N More","678 Central AV","Greenwood","NS","B0P 1R0","678 Central AV
Greenwood, NS B0P 1R0
(44.967168, -64.941304)"
"006691","Special Premises","The Highlander Spa","1597 South Park ST","Halifax","NS","B3J 2L2",
"002526","Eating Establishment","Dockside Lobster & Seafood Restaurant","84 Montague ST","Lunenburg","NS","B0J 2C0","84 Montague ST
Lunenburg, NS B0J 2C0
(44.376495, -64.310927)"
"006090","Eating Establishment","Lot Six Bar & Restaurant","1685 Argyle ST","Halifax","NS","B3J 2B5","1685 Argyle ST
Halifax, NS B3J 2B5
(44.646805, -63.574684)"
"003786","Lounge","Crossroads Lounge","RR#2 4140 Garlands Cross","Windsor","NS","B0N 2T0",
"006684","Eating Establishment","Darby's Old Church Kitchen","2689 Highway #223","MacKinnon's Harbour","NS","B2C 1H5","2689 Highway #223
MacKinnon's Harbour, NS B2C 1H5
(45.949902, -60.899745)"
"005987","Special Premises","Avon Valley Bowling Lanes","120 Centennial DR","Windsor","NS","B0N 2T0","120 Centennial DR
Windsor, NS B0N 2T0
(44.99394, -64.124669)"
"004845","Special Premises","Berwick Heights Golf Course","3060 Highway 221","Weston","NS","B0P 1E0","3060 Highway 221
Weston, NS B0P 1E0
(45.067738, -64.810306)"
"006510","Eating Establishment","Halimac Axe Throwing Halifax","1920 Brunswick ST","Halifax","NS","B3J0C5","1920 Brunswick ST
Halifax, NS B3J0C5
(44.649809, -63.578358)"
"004037","Eating Establishment","Dooly's Dining Room (Portland St.)","590 Portland ST","Dartmouth","NS","B2W 6B7","590 Portland ST
Dartmouth, NS B2W 6B7
(44.670811, -63.530948)"
"000966","Eating Establishment","Steak & Stein Family Rest.(Portlant St)","620 Portland ST","Dartmouth","NS","B2W 3E5","620 Portland ST
Dartmouth, NS B2W 3E5
(44.670934, -63.529499)"
"005071","Lounge","Boston Pizza Lng, Dartmouth","611 Portland ST","Dartmouth","NS","B2W 2M6","611 Portland ST
Dartmouth, NS B2W 2M6
(44.67091, -63.529657)"
"006712","Lounge","Kings Arms Commons Restaurant Inc.","430 Main ST","Wolfville","NS","B4P 2A6","430 Main ST
Wolfville, NS B4P 2A6
(45.091474, -64.361941)"
"004987","Eating Establishment","Last Port Motel Dining Room","10 Yellow Marsh RD","Hazel Hill","NS","B0H 1H0","10 Yellow Marsh RD
Hazel Hill, NS B0H 1H0
(45.325109, -61.044942)"
"003594","Club","Kingston District Fire Department","570 Sparky ST","Kingston","NS","B0P 1R0","570 Sparky ST
Kingston, NS B0P 1R0
(44.991074, -64.943719)"
"002931","Lounge","Maxwell's Plum Lounge","1600 Grafton ST","Halifax","NS","B3J 2C2","1600 Grafton ST
Halifax, NS B3J 2C2
(44.645764, -63.574816)"
"005556","Eating Establishment","Sushi Nami Dartmouth Restaurant","159 Hector Gate","Dartmouth","NS","B3B 0E5","159 Hector Gate
Dartmouth, NS B3B 0E5
(44.705321, -63.562166)"
"005686","Eating Establishment","Wasabi House Restaurant","6403 Quinpool RD","Halifax","NS","B3L 1A7","6403 Quinpool RD
Halifax, NS B3L 1A7
(44.644499, -63.600507)"
"002500","Club","Tangier & Area Volunteer Fire Dept.","17559 #7 Highway","Tangier","NS","B0J 3H0",
"001631","Club","RCL Br. 129, Halifax (White Ensign)","5519 Almon ST","Halifax","NS","B3K 1T4","5519 Almon ST
Halifax, NS B3K 1T4
(44.659688, -63.595523)"
"005994","Eating Establishment","Genji Sushi","184 Wyse RD","Dartmouth","NS","B3A 1M9","184 Wyse RD
Dartmouth, NS B3A 1M9
(44.672234, -63.581577)"
"006695","Eating Establishment","Seven Bays Bouldering","114 Chain Lake DR","Halifax","NS","B3S 1C8","114 Chain Lake DR
Halifax, NS B3S 1C8
(44.637729, -63.664024)"
"006629","Eating Establishment","Simply ""Pho"" you Vietnamese Cuisine","460 Main ST","Yarmouth","NS","B5A1H1","460 Main ST
Yarmouth, NS B5A1H1
(43.840839, -66.118986)"
"006120","Special Premises","Atlantic Funeral Home~Sackville","125 Sackville DR","Sackville","NS","B4C 2R3","125 Sackville DR
Sackville, NS B4C 2R3
(44.755318, -63.666864)"
"006614","Eating Establishment","North Brewing Taproom and Side Hustle Snack Bar","899 Portland ST","Dartmouth","NS","B2W 2N4","899 Portland ST
Dartmouth, NS B2W 2N4
(44.67099, -63.503465)"
"006853","Lounge","Drift Salon & Bar","1709 Lower Water ST","Halifax","NS","B3J 1S5","1709 Lower Water ST
Halifax, NS B3J 1S5
(44.648102, -63.571625)"
"002091","Eating Establishment","Fitzgerald's Restaurant","785 Highway 105","Boularderie","NS","B1Y 1J6","785 Highway 105
Boularderie, NS B1Y 1J6
(46.243281, -60.272034)"
"003090","Lounge","Anvil Lounge","10 Harbourside DR","Wolfville","NS","B4P 2N5","10 Harbourside DR
Wolfville, NS B4P 2N5
(45.092227, -64.359846)"
"004233","Eating Establishment","Restaurant Evangeline","15150 Cabot Trail","Cheticamp","NS","B0E 1H0","15150 Cabot Trail
Cheticamp, NS B0E 1H0
(46.627011, -61.015014)"
"006552","Special Premises","Truro Raceway","73 Ryland AV","Truro","NS","B2N2V5","73 Ryland AV
Truro, NS B2N2V5
(45.375456, -63.26663)"
"002792","Eating Establishment","River Oaks Golf Club Dining Room","3909 Hwy #357","Meaghers Grant","NS","B0N 1V0","3909 Hwy #357
Meaghers Grant, NS B0N 1V0
(44.916599, -63.232369)"
"003940","Eating Establishment","Captain's Cabin","1 Birch ST","Digby","NS","B0V 1A0","1 Birch ST
Digby, NS B0V 1A0
(44.625946, -65.75669)"
"005936","Eating Establishment","Westside Cafe","15844 Central AV","Inverness","NS","B0E 1N0","15844 Central AV
Inverness, NS B0E 1N0
(46.231341, -61.304939)"
"006382","Eating Establishment","Montana's BBQ & Bar","31 Reeves ST","Sydney","NS","B1P 6N2","31 Reeves ST
Sydney, NS B1P 6N2
(46.143771, -60.160198)"
"001980","Lounge","Glenghorm Beach Resort","36743 Cabot Trail","Ingonish","NS","B0C 1K0","36743 Cabot Trail
Ingonish, NS B0C 1K0
(46.681414, -60.40651)"
"001327","Special Premises","Harbourview Lounge","2615 Northwood Terrace","Halifax","NS","B3K 3S5","2615 Northwood Terrace
Halifax, NS B3K 3S5
(44.656979, -63.592295)"
"005162","Eating Establishment","Cafe Compose","235 St. George ST","Annapolis Royal","NS","B0S 1A0","235 St. George ST
Annapolis Royal, NS B0S 1A0
(44.744452, -65.519479)"
"005447","Special Premises","Riverside International Speedway","101 Beaver Mountain RD","James River","NS","B2G 2K8","101 Beaver Mountain RD
James River, NS B2G 2K8
(45.56511, -62.134338)"
"006140","Eating Establishment","Black Sheep Restaurant","1496 Lower Water ST","Halifax","NS","B3J 1R9","1496 Lower Water ST
Halifax, NS B3J 1R9
(44.644436, -63.569933)"
"004870","Special Premises","Four Points by Sheraton Halifax","1496 Hollis ST","Halifax","NS","B3J 3Z1","1496 Hollis ST
Halifax, NS B3J 3Z1
(44.644952, -63.571485)"
"005334","Lounge","Athens Lounge","6273 Quinpool RD","Halifax","NS","B3L 1A4","6273 Quinpool RD
Halifax, NS B3L 1A4
(44.645205, -63.598066)"
"004644","Special Premises","Lost Creek Golf Club","310 Kinsac RD","Beaverbank","NS","B4G 1C6","310 Kinsac RD
Beaverbank, NS B4G 1C6
(44.842239, -63.670639)"
"006461","Eating Establishment","Gold Bean Cafe","35 Beech Hill RD","Gold River","NS","B0J 1K0","35 Beech Hill RD
Gold River, NS B0J 1K0
(44.554386, -64.325802)"
"006226","Lounge","Salmon Pool Inn","9378 Cabot Trail","Margaree","NS","B0E 1Y0","9378 Cabot Trail
Margaree, NS B0E 1Y0
(46.393655, -61.083246)"
"005417","Lounge","Port Bistro Lounge","980 Terry's Creek RD","Port Williams","NS","B0P 1T0","980 Terry's Creek RD
Port Williams, NS B0P 1T0
(45.09682, -64.406478)"
"006442","Eating Establishment","Sushi Jet Dim Sum Fund","3471 Dutch Village RD","Halifax","NS","B3N 2S8","3471 Dutch Village RD
Halifax, NS B3N 2S8
(44.655204, -63.632062)"
"003500","Club","West River Fire Department","19 Gates RD","Saltsprings","NS","B0K 1P0","19 Gates RD
Saltsprings, NS B0K 1P0
(45.576979, -62.844867)"
"003592","Eating Establishment","Rusty Anchor Dining Room","23197 Cabot Trail RD","Pleasant Bay","NS","B0E 2P0","23197 Cabot Trail RD
Pleasant Bay, NS B0E 2P0
(46.824155, -60.819773)"
"005454","Eating Establishment","Battery Park Beer Bar & Eatery","62 Ochterloney ST","Dartmouth","NS","B2Y 1C2","62 Ochterloney ST
Dartmouth, NS B2Y 1C2
(44.666916, -63.56805)"
"001528","Lounge","White Point Beach Lodge Lounge","75 White Point RD","Hunts Point","NS","B0T 1G0","75 White Point RD
Hunts Point, NS B0T 1G0
(44.031366, -64.719831)"
"005710","Lounge","Seamus David's Pub","21 Logiealmond Close","Dartmouth Crossing","NS","B3B0C7","21 Logiealmond Close
Dartmouth Crossing, NS B3B0C7
(44.704198, -63.563828)"
"005716","Eating Establishment","Willman's Fried Foods Ltd.","3154 Isleville ST","Halifax","NS","B3K 3Y2","3154 Isleville ST
Halifax, NS B3K 3Y2
(44.662368, -63.60104)"
"002388","Permanent  Special Occasion","Ocean View Continuing Care Centre","1909 Caldwell RD","Eastern Passage","NS","B3G 1M4","1909 Caldwell RD
Eastern Passage, NS B3G 1M4
(44.607161, -63.469559)"
"005833","Lounge","Super Star Karaoke","2099B Gottingen ST","Halifax",,"B3K 3B4","2099B Gottingen ST
Halifax,  B3K 3B4
(44.651771, -63.583022)"
"001293","Club","Armdale Yacht Club","75 Burgee Run","Halifax","NS","B3P 0C9","75 Burgee Run
Halifax, NS B3P 0C9
(44.635614, -63.613497)"
"003086","Eating Establishment","Pizza Delight (Barrington Passage)","3469 Highway #3","Barrington Passage","NS","B0W 1G0","3469 Highway #3
Barrington Passage, NS B0W 1G0
(43.530235, -65.608461)"
"006578","Eating Establishment","Old Road BBQ","190 Industrial AV","Truro","NS","B2N 6V4","190 Industrial AV
Truro, NS B2N 6V4
(45.349053, -63.289231)"
"006653","Eating Establishment","Moxie's Grill / Bar Nova Center","1610 Argyle ST","Halifax",,"B3J0G2","1610 Argyle ST
Halifax,  B3J0G2
(44.646171, -63.574332)"
"006064","Eating Establishment","The Frolic & Folk Pub & Grill","4115 Highway 223","Iona","NS","B2C 1A3","4115 Highway 223
Iona, NS B2C 1A3
(45.947631, -60.816902)"
"005845","Eating Establishment","Gaia Global Kitchen","222 Main ST","Yarmouth","NS","B5A 1C8","222 Main ST
Yarmouth, NS B5A 1C8
(43.832723, -66.120229)"
"006024","Eating Establishment","Mizu All You Can Eat","644 Portland ST","Dartmouth","NS","B2W 2M3","644 Portland ST
Dartmouth, NS B2W 2M3
(44.671564, -63.526554)"
"001133","Special Premises","Air Canada - Maple Leaf Lounge","1 Bell BL","Halifax","NS","B2T 1K2","1 Bell BL
Halifax, NS B2T 1K2
(44.886264, -63.515307)"
"006367","Eating Establishment","The Millstone Public House 2 Inc.","50 Gary Martin DR","Bedford","NS","B4B 1H3","50 Gary Martin DR
Bedford, NS B4B 1H3
(44.725261, -63.703562)"
"006280","Lounge","Colleen's Pub & Grill","245 Waverley","Dartmouth","NS","B2X 2C4","245 Waverley
Dartmouth, NS B2X 2C4
(44.697549, -63.547605)"
"004139","Eating Establishment","Jake's Dining Room & Lounge","7464 Main ST","Louisbourg","NS","B1C 1H4","7464 Main ST
Louisbourg, NS B1C 1H4
(45.922551, -59.96823)"
"005571","Eating Establishment","Bistro East Dining Room","274 St. George ST","Annapolis Royal","NS","B0S 1A0","274 St. George ST
Annapolis Royal, NS B0S 1A0
(44.743545, -65.51954)"
"006290","Club","Clare Veterans Association","9938 Highway 1","Saulnierville","NS","B0W 2Z0","9938 Highway 1
Saulnierville, NS B0W 2Z0
(44.255934, -66.129287)"
"006851","Eating Establishment","The Annex Restaurant","66 Lower Railway ST","Inverness","NS","B0E 1N0","66 Lower Railway ST
Inverness, NS B0E 1N0
(46.230729, -61.309272)"
"006214","Beverage Room","Wayfarers' Ale Ltd.","1116 Kars ST","Port Williams","NS","B0P 1T0","1116 Kars ST
Port Williams, NS B0P 1T0
(45.096614, -64.406579)"
"003030","Lounge","Melville Heights Lounge","24 Ramsgate LN","Halifax","NS","B3P 2R6","24 Ramsgate LN
Halifax, NS B3P 2R6
(44.630554, -63.614929)"
"006731","Eating Establishment","Cafe Salvador","125 Montague ST","Lunenburg","NS","B0J 2C0","125 Montague ST
Lunenburg, NS B0J 2C0
(44.376319, -64.309369)"
"005956","Eating Establishment","Beaver Bank Station Limited","991 Windgate DR","Lower Sackville","NS","B4G 0A7","991 Windgate DR
Lower Sackville, NS B4G 0A7
(44.7956, -63.690613)"
"001446","Club","G.B. Centennial Citizens Band Radio Club","50 West AV","Glace Bay","NS","B1A 5P3","50 West AV
Glace Bay, NS B1A 5P3
(46.211289, -59.959478)"
"004132","Lounge","Marina Bar & Grill","67 Caladh AV","Pictou","NS","B0K 1H0","67 Caladh AV
Pictou, NS B0K 1H0
(45.675262, -62.711009)"
"001973","Lounge","Brass Stallion Lounge","7499 Main ST","Louisbourg","NS","B1C 1H8","7499 Main ST
Louisbourg, NS B1C 1H8
(45.921421, -59.970172)"
"005669","Eating Establishment","Song's Korean Restaurant","6249 Quinpool RD","Halifax","NS","B3L 1A3","6249 Quinpool RD
Halifax, NS B3L 1A3
(44.645445, -63.597281)"
"005685","Club","Creignish Recreation Centre","2123 Highway 19","Creignish","NS","B9A 1B7","2123 Highway 19
Creignish, NS B9A 1B7
(45.732885, -61.459943)"
"006511","Lounge","Halimac Axe Throwing Halifax","1920 Brunswick ST","Halifax","NS","B3J0C5","1920 Brunswick ST
Halifax, NS B3J0C5
(44.649809, -63.578358)"
"006895","Cabaret","Highlander Beverage Room","16 Twinning ST","Pictou","NS","B0K 1H0","16 Twinning ST
Pictou, NS B0K 1H0
(45.676485, -62.708028)"
"006121","Eating Establishment","La Shoppe Verte Ltee","1474 Patrice RD","Church Point","NS","B0W 1M0","1474 Patrice RD
Church Point, NS B0W 1M0
(44.289493, -66.070828)"
"004849","Lounge","Boston Pizza Lounge, Bayers Lake","194 Chain Lake DR","Halifax","NS","B3S 1C5","194 Chain Lake DR
Halifax, NS B3S 1C5
(44.651006, -63.6758)"
"004955","Club","Walton Shore Fire Department","4281 Walton Woods RD","Walton","NS","B0N 2R0","4281 Walton Woods RD
Walton, NS B0N 2R0
(45.228356, -64.002774)"
"001315","Club","RCL Br. 60, Pugwash","10778 Durham ST","Pugwash",,"B0K 1L0","10778 Durham ST
Pugwash,  B0K 1L0
(45.84524, -63.648228)"
"002932","Eating Establishment","Mexi's","222 Chain Lake DR","Halifax","NS","B3S 1C5","222 Chain Lake DR
Halifax, NS B3S 1C5
(44.65543, -63.677752)"
"001172","Club","Stellar Curling Club","234 Foord ST","Stellarton","NS","B0K 1S0","234 Foord ST
Stellarton, NS B0K 1S0
(45.560785, -62.65974)"
"005131","Eating Establishment","Krave Burger","5680 Spring Garden RD","Halifax",,"B3J 1H5","5680 Spring Garden RD
Halifax,  B3J 1H5
(44.642443, -63.579159)"
"003035","Eating Establishment","Timberlea Dining Room","1820 St. Margaret's Bay RD","Timberlea","NS","B3T 1K8","1820 St. Margaret's Bay RD
Timberlea, NS B3T 1K8
(44.645618, -63.712448)"
"005249","Lounge","Boston Pizza Lounge, Bridgewater","485 Highway #10","Cookville","NS","B4V 1A9","485 Highway #10
Cookville, NS B4V 1A9
(44.399548, -64.536828)"
"004678","Eating Establishment","Dooly's Dining Room (Lr. Sackville)","776 Sackville DR","Lr. Sackville","NS","B4E 1R7","776 Sackville DR
Lr. Sackville, NS B4E 1R7
(44.77328, -63.692437)"
"000795","Eating Establishment","Smitty's Pancake House (Halifax)","1490 Cathedral LN","Halifax","NS","B3H 4L4","1490 Cathedral LN
Halifax, NS B3H 4L4
(44.641841, -63.580246)"
"006060","Eating Establishment","Lanna Thai Kitchen","547 King ST","Bridgewater","NS","B4V 1B3","547 King ST
Bridgewater, NS B4V 1B3
(44.37752, -64.518612)"
"006333","Special Premises","Lightfoot & Wolfville Vineyards","11143 Highway 1","Wolfville","NS","B4P 2R1","11143 Highway 1
Wolfville, NS B4P 2R1
(45.0943, -64.335507)"
"001909","Eating Establishment","Pizza Delight (Bridgewater)","236 Dufferin ST","Bridgewater","NS","B4V 2G7","236 Dufferin ST
Bridgewater, NS B4V 2G7
(44.369725, -64.524117)"
"005620","Eating Establishment","Swiss Chalet-Bedford","1658 Bedford Highway","Bedford","NS","B4A 2X9","1658 Bedford Highway
Bedford, NS B4A 2X9
(44.735967, -63.654777)"
"005068","Eating Establishment","Mateus Bistro","533 South Main ST","Mahone Bay","NS","B0J 2E0","533 South Main ST
Mahone Bay, NS B0J 2E0
(44.448648, -64.381252)"
"006689","Eating Establishment","Bubba Magoos Inc.","48 Peggy's Cove RD","Peggy's Cove","NS","B3Z 2S3","48 Peggy's Cove RD
Peggy's Cove, NS B3Z 2S3
(44.495574, -63.914824)"
"001065","Club","Dartmouth Curling Club","35 Canal ST","Dartmouth","NS","B2Y 2W1","35 Canal ST
Dartmouth, NS B2Y 2W1
(44.66662, -63.563072)"
"003649","Club","St Ninian's Parish","121 St. Ninian's ST","Antigonish","NS","B2G 1Y9","121 St. Ninian's ST
Antigonish, NS B2G 1Y9
(45.620868, -61.993411)"
"002896","Lounge","La Tavern Lounge","8946 Route 1","Meteghan River","NS","B0W 2L0","8946 Route 1
Meteghan River, NS B0W 2L0
(44.21368, -66.143605)"
"001267","Eating Establishment","Smitty's Family Restaurant (Dartmouth)","107 Main ST","Dartmouth","NS","B2X 1R6","107 Main ST
Dartmouth, NS B2X 1R6
(44.681826, -63.540254)"
"001886","Club","Wolfville Curling Club","22 Elm AV","Wolfville","NS","B4P 1Z9","22 Elm AV
Wolfville, NS B4P 1Z9
(45.092393, -64.363927)"
"006844","Eating Establishment","Krave Vero Dual Pleasant Street","370 Pleasant ST","Dartmouth","NS","B2Y 3S5","370 Pleasant ST
Dartmouth, NS B2Y 3S5
(44.649136, -63.545842)"
"004244","Lounge","Seal Cove Lounge","474 Main RD","Louisdale","NS","B0E 1V0","474 Main RD
Louisdale, NS B0E 1V0
(46.026586, -61.537299)"
"005202","Eating Establishment","Red Shoe Pub & Eatery Dining Room","11533 Highway 19","Mabou","NS","B0E 1X0","11533 Highway 19
Mabou, NS B0E 1X0
(46.072366, -61.391023)"
"006173","Eating Establishment","Ugly Mug Cafe & Emporium","1290 Kings RD","Sydney","NS","B1S 1E1","1290 Kings RD
Sydney, NS B1S 1E1
(46.107079, -60.22467)"
"005748","Eating Establishment","The Cheeky Neighbour","6024 Quinpool RD","Halifax","NS","B3Z 1L7","6024 Quinpool RD
Halifax, NS B3Z 1L7
(44.646983, -63.591455)"
"005910","Eating Establishment","Sociables Pub and Eatery","25 Main ST","Springhill","NS","B0M 1X0","25 Main ST
Springhill, NS B0M 1X0
(45.649034, -64.059855)"
"002395","Special Premises","Maritime Inn (Pt. Hawkesbury)","717 Reeves ST","Port Hawkesbury","NS","B9A 2S2","717 Reeves ST
Port Hawkesbury, NS B9A 2S2
(45.6145, -61.350791)"
"001728","Eating Establishment","Canton Restaurant","294 Commercial ST","North Sydney","NS","B2A 1C1","294 Commercial ST
North Sydney, NS B2A 1C1
(46.209541, -60.248278)"
"006630","Eating Establishment","Juniper Food & Wine","389 Main ST","Wolfville","NS","B4P 1E1","389 Main ST
Wolfville, NS B4P 1E1
(45.091647, -64.360352)"
"001087","Club","Lunenburg Curling Club","13 Green ST","Lunenburg","NS","B0J 2C0","13 Green ST
Lunenburg, NS B0J 2C0
(44.376257, -64.320024)"
"001121","Special Premises","Halifax Forum","2901 Windsor ST","Halifax","NS","B3K 5E5","2901 Windsor ST
Halifax, NS B3K 5E5
(44.65502, -63.604511)"
"006875","Lounge","Bar Sofia","1709 Lower Water ST","Halifax","NS","B3J 1S5","1709 Lower Water ST
Halifax, NS B3J 1S5
(44.648102, -63.571625)"
"001699","Club","Berwick & District Lions Club","250 Veterans DR","Berwick","NS","B0P 1E0","250 Veterans DR
Berwick, NS B0P 1E0
(45.044276, -64.743695)"
"004017","Lounge","Pilot's Pub Lounge","10 Atlantic ST","Dartmouth","NS","B2Y 3S5","10 Atlantic ST
Dartmouth, NS B2Y 3S5
(44.64864, -63.54708)"
"006796","Special Premises","Ross Creek Centre for the Arts","555 Ross Creek RD","Canning","NS","B0P 1H0","555 Ross Creek RD
Canning, NS B0P 1H0
(45.223648, -64.43197)"
"004084","Club","Abercrombie Fire Department","2030 Abercrombie RD","New Glasgow","NS","B2H 5C6",
"006512","Eating Establishment","Bent Ridge Winery","4499 Hwy #14","Windsor Forks","NS","B0N 2T0","4499 Hwy #14
Windsor Forks, NS B0N 2T0
(44.94958, -64.174608)"
"005398","Eating Establishment","New Century Restaurant","280 Main ST","Yarmouth","NS","B4A 1C9","280 Main ST
Yarmouth, NS B4A 1C9
(43.834757, -66.120082)"
"001013","Club","RCL Br. 110,  Lower L'Ardoise","20 St. Peters-Forchu RD","Lower L'Ardoise","NS","B0E 1W0","20 St. Peters-Forchu RD
Lower L'Ardoise, NS B0E 1W0
(45.602031, -60.740025)"
"002539","Eating Establishment","Tattingstone Inn Dining Room","620 Main ST","Wolfville","NS","B4P 1E8","620 Main ST
Wolfville, NS B4P 1E8
(45.089772, -64.373715)"
"004319","Eating Establishment","Bambino's Pizzeria & Fine Foods","12 Prince Arthur ST","Amherst","NS","B4H 1V4","12 Prince Arthur ST
Amherst, NS B4H 1V4
(45.83174, -64.211216)"
"006231","Eating Establishment","The Brown Hound Pub Incorporated","2394 Agricola ST","Halifax","NS","B3K 4B9","2394 Agricola ST
Halifax, NS B3K 4B9
(44.652823, -63.589897)"
"005061","Lounge","Mic Mac Lounge","219 Waverley RD","Dartmouth","NS","B2X 2C3","219 Waverley RD
Dartmouth, NS B2X 2C3
(44.694989, -63.547304)"
"001453","Club","Royal N.S. Yacht Squadron","376 Purcell's Cove RD","Halifax","NS","B3P 1C7","376 Purcell's Cove RD
Halifax, NS B3P 1C7
(44.620886, -63.582779)"
"006791","Eating Establishment","Bliss Caffeine Bar","1451 South Park ST","Halifax","NS","B3J 2L1","1451 South Park ST
Halifax, NS B3J 2L1
(44.641345, -63.579316)"
"002367","Eating Establishment","Pizza Delight (Yarmouth)","77 Starrs RD","Yarmouth","NT","B5A 2T6","77 Starrs RD
Yarmouth, NT B5A 2T6
(43.843732, -66.106011)"
"003738","Eating Establishment","Ziggy's Pub and Grill","1167 Kings RD","Sydney River","NS","B1S 3B3","1167 Kings RD
Sydney River, NS B1S 3B3
(46.110551, -60.220975)"
"005295","Eating Establishment","Reel Pizza","15862 Central AV","Inverness","NS","B0E 1N0","15862 Central AV
Inverness, NS B0E 1N0
(46.232564, -61.303818)"
"003850","Eating Establishment","Golden Harvest Restaurant","12 Old Enfield RD","Enfield","NS","B2T 1C9","12 Old Enfield RD
Enfield, NS B2T 1C9
(44.944036, -63.536631)"
"005885","Eating Establishment","Three Doors Down Diner","474 Chebucto ST","Baddeck","NS","B0E 1B0","474 Chebucto ST
Baddeck, NS B0E 1B0
(46.099904, -60.752317)"
"001374","Eating Establishment","Blomidon Inn Dining Room","195 Main ST","Wolfville","NS","B4P 1C3","195 Main ST
Wolfville, NS B4P 1C3
(45.092216, -64.350549)"
"006729","Eating Establishment","Honey Bee Ice Cream Parlor","409 Hwy #1","Dayton","NS","B5A 5A2","409 Hwy #1
Dayton, NS B5A 5A2
(43.873726, -66.103854)"
"006680","Special Premises","Estabrooks Community Hall","4408 St. Margaret's Bay RD","Lewis Lake","NS","B3Z 1E1","4408 St. Margaret's Bay RD
Lewis Lake, NS B3Z 1E1
(44.684023, -63.840659)"
"004057","Special Premises","Delta Halifax","1990 Barrington ST","Halifax","NS","B3J 1P2","1990 Barrington ST
Halifax, NS B3J 1P2
(44.650557, -63.575787)"
"003503","Eating Establishment","Palladium Family Restaurant","942 Cole Harbour RD","Dartmouth","NS","B2V 1E6","942 Cole Harbour RD
Dartmouth, NS B2V 1E6
(44.671305, -63.496437)"
"006715","Eating Establishment","Odell's Gluten Free Bakery & Cafe","30 Farnham Gate RD","Halifax","NS","B3M 4R8","30 Farnham Gate RD
Halifax, NS B3M 4R8
(44.67329, -63.664683)"
"003355","Special Premises","Octagon Room","802 Dingwall RD","Dingwall","NS","B0C 1G0","802 Dingwall RD
Dingwall, NS B0C 1G0
(46.898638, -60.450515)"
"005772","Special Premises","Harrietsfield Williamswood Community Centre","1138 Old Sambro RD","Harrietsfield","NS","B3V 1B1","1138 Old Sambro RD
Harrietsfield, NS B3V 1B1
(44.569528, -63.634664)"
"006092","Special Premises","Smith Rock Chalets","378 Fitzpatrick Mtn. RD","Scotsburn","NS","B0K 1R0","378 Fitzpatrick Mtn. RD
Scotsburn, NS B0K 1R0
(45.64496, -62.880118)"
"002219","Eating Establishment","Freeman's Little New York Restaurant","6092 Quinpool RD","Halifax","NS","B3L 1A1","6092 Quinpool RD
Halifax, NS B3L 1A1
(44.646593, -63.593156)"
"006167","Lounge","Chameleon Cafe & Supper Club","7071 Bayers RD","Halifax","NS","B3L 2C2","7071 Bayers RD
Halifax, NS B3L 2C2
(44.653682, -63.627016)"
"003432","Eating Establishment","Anchor's Away Family Restaurant","10341 Highway 103","Clyde River","NS","B0W 1R0","10341 Highway 103
Clyde River, NS B0W 1R0
(43.635714, -65.468222)"
"003007","Lounge","Doryman Pub & Grill","15528 Cabot Trail","Cheticamp","NS","B0E 1H0","15528 Cabot Trail
Cheticamp, NS B0E 1H0
(46.64036, -61.005096)"
"004604","Lounge","Finbar's Irish Pub Lounge","1595 Bedford Highway","Bedford","NS","B4A 3Y4","1595 Bedford Highway
Bedford, NS B4A 3Y4
(44.73313, -63.655999)"
"001739","Eating Establishment","House of Jade Restaurant","8164 Main RD","Sherbrooke","NS","B0J 3C0",
"006855","Lounge","Blue Lobster Public House","230 Foord ST","New Glasgow","NS","B0K 0A2","230 Foord ST
New Glasgow, NS B0K 0A2
(45.561355, -62.659696)"
"005880","Lounge","The Nook on Gottingen  Lounge","2118 Gottingen ST","Halifax","NS","B3K 0C5","2118 Gottingen ST
Halifax, NS B3K 0C5
(44.652102, -63.583511)"
"005661","Lounge","The Middle Spoon","1563 Barrington ST","Halifax","NS","B3J 1Z7","1563 Barrington ST
Halifax, NS B3J 1Z7
(44.645468, -63.573144)"
"005585","Special Premises","Kings Riverside Court","125 Webster ST","Kentville","NS","B4N 0C6","125 Webster ST
Kentville, NS B4N 0C6
(45.078579, -64.49848)"
"006334","Eating Establishment","The Freight Shed Waterside Bistro & Market Ltd.","2 Jones ST","Baddeck","NS","B0E 1B0","2 Jones ST
Baddeck, NS B0E 1B0
(46.100308, -60.747824)"
"004769","Special Premises","Trout Point Lodge","189 Trout Point RD","East Kemptville","NS","B5A 5X9","189 Trout Point RD
East Kemptville, NS B5A 5X9
(44.129016, -65.739158)"
"002770","Special Premises","Gisele Country Inn","387 Shore RD","Baddeck","NS","B0E 1B0","387 Shore RD
Baddeck, NS B0E 1B0
(46.097728, -60.756017)"
"006765","Eating Establishment","MediTerra Kitchen","111 Cobequid RD","Lower Sackville","NS","B4C 2N1","111 Cobequid RD
Lower Sackville, NS B4C 2N1
(44.756092, -63.661873)"
"005709","Eating Establishment","Seamus David's Pub","21 Logiealmond Close","Dartmouth Crossing","NS","B3B0C7","21 Logiealmond Close
Dartmouth Crossing, NS B3B0C7
(44.704198, -63.563828)"
"006312","Eating Establishment","Anja Henschel","3452 Hwy # 332","Rose Bay","NS","B0J 2X0","3452 Hwy # 332
Rose Bay, NS B0J 2X0
(44.298717, -64.304577)"
"002926","Eating Establishment","Bearly's Dining Room","1269 Barrington ST","Halifax","NS","B3J 1Y2","1269 Barrington ST
Halifax, NS B3J 1Y2
(44.641323, -63.571059)"
"004117","Special Premises","Big Intervale Fishing Lodge","3719 Big Intervale RD","Margaree Valley","NS","B0E 2C0","3719 Big Intervale RD
Margaree Valley, NS B0E 2C0
(46.42642, -60.945372)"
"006574","Lounge","Gahan House Nova","5239 Sackville ST","Halifax","NS","B3J 2C4","5239 Sackville ST
Halifax, NS B3J 2C4
(44.646099, -63.574151)"
"003848","Lounge","Big Leagues Lounge","920 Cole Harbour RD","Dartmouth","NS","B2V 2J5","920 Cole Harbour RD
Dartmouth, NS B2V 2J5
(44.671258, -63.497913)"
"003381","Lounge","King's Lounge","100 Kings RD","Sydney","NS","B1S 1A1","100 Kings RD
Sydney, NS B1S 1A1
(46.13074, -60.195285)"
"003809","Eating Establishment","Ong's Restaurant","9101 Highway #7","Head of Jeddore","NS","B0J 1P0","9101 Highway #7
Head of Jeddore, NS B0J 1P0
(44.778666, -63.084915)"
"005785","Eating Establishment","Marquee Ballroom (The)","2037 Gottingen ST","Halifax","NS","B3K 3B1","2037 Gottingen ST
Halifax, NS B3K 3B1
(44.651131, -63.582071)"
"005546","Eating Establishment","The Savvy Sailor Cafe","100 Montague ST","Lunenburg","NS","B0J 2C0","100 Montague ST
Lunenburg, NS B0J 2C0
(44.376436, -64.310424)"
"006718","Special Premises","Ingonish Landing Marina","38613 Cabot Trail RD","Ingonish Beach","NS","B0C 1L0","38613 Cabot Trail RD
Ingonish Beach, NS B0C 1L0
(46.627833, -60.417222)"
"006163","Eating Establishment","Joe's Pizzeria and Italian Fare","324 Commercial ST","North Sydney","NS","B2A 1C2","324 Commercial ST
North Sydney, NS B2A 1C2
(46.210308, -60.247551)"
"002471","Eating Establishment","Kai Wing Restaurant","7299 Hwy.#1","Coldbrook","NS","B4R 1B9","7299 Hwy.#1
Coldbrook, NS B4R 1B9
(45.068833, -64.559319)"
"005132","Lounge","Krave Burger","5680 Spring Garden RD","Halifax",,"B3J 1H5","5680 Spring Garden RD
Halifax,  B3J 1H5
(44.642443, -63.579159)"
"001568","Club","RCL Br. 35, Westville","2066 Spring Garden RD","Westville","NS","B0K 2A0","2066 Spring Garden RD
Westville, NS B0K 2A0
(45.567304, -62.707074)"
"004016","Eating Establishment","Pilot's Pub Dining Room","10 Atlantic ST","Dartmouth","NS","B2Y 3S5","10 Atlantic ST
Dartmouth, NS B2Y 3S5
(44.64864, -63.54708)"
"001038","Club","Albert Bridge Vol. Fire Dept.","4330 Highway 22","Albert Bridge","NS","B1K 2P4","4330 Highway 22
Albert Bridge, NS B1K 2P4
(46.014954, -60.060117)"
"006724","Eating Establishment","Cheese Curds","380 Pleasant ST","Dartmouth","NS","B2Y 3Y5","380 Pleasant ST
Dartmouth, NS B2Y 3Y5
(44.648472, -63.545438)"
"003166","Eating Establishment","Mountain View Motel Dining Room","23659 Cabot Trail RD","Pleasant Bay","NS","B0E 2P0","23659 Cabot Trail RD
Pleasant Bay, NS B0E 2P0
(46.820101, -60.796283)"
"004967","Eating Establishment","Redwood Grill Dining Room","30 Fairfax DR","Halifax","NS","B3S 1P1","30 Fairfax DR
Halifax, NS B3S 1P1
(44.658931, -63.671445)"
"006035","Lounge","TALO Cafebar","195 Commercial ST","Glace Bay","NS","B1A 3B9","195 Commercial ST
Glace Bay, NS B1A 3B9
(46.195706, -59.956251)"
"006567","Eating Establishment","Sweet Side of the Moon","78 McKeen ST","Glace Bay","NS","B1A 5B9","78 McKeen ST
Glace Bay, NS B1A 5B9
(46.19935, -59.958482)"
"006454","Special Premises","The Maples Supportive Living","31 Smith WA","Antigonish","NS","B2G 0G7",
"005895","Club","Strait of Canso Yacht Club","2 MacSween ST","Port Hawkesbury","NS","B9A 2H6","2 MacSween ST
Port Hawkesbury, NS B9A 2H6
(45.614822, -61.364766)"
"006041","Eating Establishment","Fry Daddy's","109 Gerrish ST","Windsor","NS","B0N 2T0","109 Gerrish ST
Windsor, NS B0N 2T0
(44.994354, -64.137001)"
"003576","Eating Establishment","Old Warehouse Cafe, The","4 Havelock ST","Amherst","NS","B4H 2A3","4 Havelock ST
Amherst, NS B4H 2A3
(45.834325, -64.211919)"
"005442","Lounge","The Carleton","1685 Argyle ST","Halifax","NS","B3J 2B5","1685 Argyle ST
Halifax, NS B3J 2B5
(44.646805, -63.574684)"
"006452","Eating Establishment","Aspotogan Ridge Golf Course","376 Parkwood DR","Mill Cove","NS","B0J 1T0","376 Parkwood DR
Mill Cove, NS B0J 1T0
(44.588858, -64.08772)"
"005638","Eating Establishment","Baton Rouge Restaurant","1877 Hollis ST","Halifax","NS","B3J 1W5","1877 Hollis ST
Halifax, NS B3J 1W5
(44.650044, -63.574091)"
"005024","Special Premises","S.V. Amoeba","1340 Big Baddeck RD","Baddeck","NS","B0E 1B0","1340 Big Baddeck RD
Baddeck, NS B0E 1B0
(46.152025, -60.774614)"
"003036","Lounge","Timberlea Lounge","1820 St. Margaret's Bay RD","Timberlea","NS","B3T 1K8","1820 St. Margaret's Bay RD
Timberlea, NS B3T 1K8
(44.645618, -63.712448)"
"005972","Eating Establishment","Baby Panda Asian Cuisine","467 King ST","Windsor","NS","B0N 2T0","467 King ST
Windsor, NS B0N 2T0
(44.99147, -64.131963)"
"005600","Eating Establishment","Fresh, Happy Healthy Sushi Restaurant","75 Peakview WA","Halifax","NS","B3M 0G2","75 Peakview WA
Halifax, NS B3M 0G2
(44.698811, -63.686133)"
"003977","Eating Establishment","Dooly's Dining Room (Sydney)","65 Pitt ST","Sydney","NS","B1P 5X6","65 Pitt ST
Sydney, NS B1P 5X6
(46.139319, -60.194257)"
"002016","Eating Establishment","The Wooden Monkey Dining Room","88 Alderney DR","Dartmouth","NS","B2Y 3Z6","88 Alderney DR
Dartmouth, NS B2Y 3Z6
(44.664577, -63.568717)"
"006153","Eating Establishment","Exit5ive Pub and Restaurant","4120 Highway #1","Garlands Crossing","NS","B0N 2T0","4120 Highway #1
Garlands Crossing, NS B0N 2T0
(44.975842, -64.111517)"
"006813","Eating Establishment","The Wayside Cafe and Gallery","8729 Hwy 2","Great Village","NS","B0M 1L0","8729 Hwy 2
Great Village, NS B0M 1L0
(45.592368, -64.253314)"
"006418","Eating Establishment","Coburg Social Bar and Cafe","6085 Coburg RD","Halifax","NS","B3H 1Z3","6085 Coburg RD
Halifax, NS B3H 1Z3
(44.639511, -63.589098)"
"006520","Eating Establishment","Warmth By Design Inc (Barbecue Heaven)","16 Hub Center DR","Upper Onslow","NS",,"16 Hub Center DR
Upper Onslow, NS 
(45.381414, -63.319021)"
"006774","Eating Establishment","Terra Rossa Trattoria","117 Front ST","Wolfville","NS","B4P 1A5","117 Front ST
Wolfville, NS B4P 1A5
(45.092219, -64.361825)"
"004219","Eating Establishment","Antonio's Pasta & Grill","9066 Highway #1","Digby","NS","B0V 1A0",
"006586","Special Premises","DesBrisay Museum","130 Jubilee RD","Bridgewater","NS","B4V 2A7","130 Jubilee RD
Bridgewater, NS B4V 2A7
(44.367652, -64.511943)"
"001158","Lounge","Sam's Lounge (Stellarton)","255 Foord ST","Stellarton","NS","B0K 1S0","255 Foord ST
Stellarton, NS B0K 1S0
(45.559031, -62.659911)"
"001967","Lounge","Gio Lounge","1725 Market ST","Halifax","NS","B3J 3N9","1725 Market ST
Halifax, NS B3J 3N9
(44.647237, -63.57632)"
"006786","Eating Establishment","Hunts Point Market & cafe","6756 Hwy #3","Hunts Point","NS","B0T 1G0","6756 Hwy #3
Hunts Point, NS B0T 1G0
(43.953908, -64.769316)"
"006670","Eating Establishment","Mo & Jules Catering and Eatery Inc.","813 Bedford Hwy.","Bedford","NS","B4A 1A4","813 Bedford Hwy.
Bedford, NS B4A 1A4
(44.709602, -63.668881)"
"006456","Eating Establishment","Morris East Pizzeria","1984 Vernon ST","Halifax","NS","B3H 0B9","1984 Vernon ST
Halifax, NS B3H 0B9
(44.64603, -63.593103)"
"005374","Special Premises","Passchendale Golf Club & Driving Range","185 Dominion ST","Glace Bay","NS","B1A 3N2","185 Dominion ST
Glace Bay, NS B1A 3N2
(46.181456, -59.984149)"
"006104","Lounge","Fat Tony's Bar & Grill","9 Water ST","Pictou","NS","B0K1HO","9 Water ST
Pictou, NS B0K1HO
(45.676092, -62.709329)"
"006375","Eating Establishment","The Farmers Daughter","9393 Hwy 105","Whycocomagh","NS","B0E 3M0","9393 Hwy 105
Whycocomagh, NS B0E 3M0
(45.974818, -61.12669)"
"006103","Eating Establishment","Fat Tony's Bar & Grill","9 Water ST","Pictou","NS","B0K1HO","9 Water ST
Pictou, NS B0K1HO
(45.676092, -62.709329)"
"003622","Eating Establishment","Seaport Social","1181 Hollis ST","Halifax","NS","B3H 2P6","1181 Hollis ST
Halifax, NS B3H 2P6
(44.64019, -63.569037)"
"004107","Lounge","Dooly's Lounge (Burnside)","121 Ilsley AV","Dartmouth","NS","B3B 1T1","121 Ilsley AV
Dartmouth, NS B3B 1T1
(44.697398, -63.584856)"
"001173","Special Premises","Springhill Centennial Golf Club","2770 Pleasant Valley","Springhill","NS","B0M 1X0","2770 Pleasant Valley
Springhill, NS B0M 1X0
(45.682323, -63.921445)"
"002328","Lounge","Le Gabriel Lounge","15424 Cabot Trail","Cheticamp","NS","B0E 1H0","15424 Cabot Trail
Cheticamp, NS B0E 1H0
(46.636098, -61.007937)"
"006111","Special Premises","North Queens Fire Multi-Purpose Centre","9793 Highway#8","Caledonia","NS","B0T 1B0","9793 Highway#8
Caledonia, NS B0T 1B0
(44.37593, -65.028276)"
"006264","Eating Establishment","Rack & Cue Snooker Club Limited","334 Stewart ST","New Glasgow","NS","B2H 2R4","334 Stewart ST
New Glasgow, NS B2H 2R4
(45.584456, -62.646686)"
"006831","Lounge","The Brixton","115 Commercial ST","Glace Bay","NS","B1A 3C1","115 Commercial ST
Glace Bay, NS B1A 3C1
(46.196643, -59.956822)"
"005838","Eating Establishment","Envie -  A Vegan Kitchen","5775 Charles ST","Halifax","NS","B3K 1K7","5775 Charles ST
Halifax, NS B3K 1K7
(44.654263, -63.592465)"
"005814","Eating Establishment","Hotel Alt Halifax Stanfield Dining Room","40 Silver Dart DR","Enfield","NS","B0N 1Y0","40 Silver Dart DR
Enfield, NS B0N 1Y0
(44.885922, -63.515656)"
"000968","Eating Establishment","Swiss Chalet  Restaurant, Halifax (Kempt Rd.)","3434 Kempt RD","Halifax","NS","B3K 4S7","3434 Kempt RD
Halifax, NS B3K 4S7
(44.662364, -63.612153)"
"005583","Eating Establishment","27 South Restaurant","527 Highway 10","Bridgewater","NS","B4V 2W6","527 Highway 10
Bridgewater, NS B4V 2W6
(44.400395, -64.538686)"
"005328","Eating Establishment","Boston Pizza EE, New Minas","9278 Commercial ST","New Minas","NS","B4N 3E9","9278 Commercial ST
New Minas, NS B4N 3E9
(45.068611, -64.442586)"
"001969","Special Premises","Harbour Queen I","1751 Lower Water ST","Halifax","NS","B3J 1S5","1751 Lower Water ST
Halifax, NS B3J 1S5
(44.648574, -63.571938)"
"004122","Eating Establishment","Reilly's Restaurant","313 Prince Albert RD","Dartmouth","NS","B2Y 1N3","313 Prince Albert RD
Dartmouth, NS B2Y 1N3
(44.679453, -63.550092)"
"005803","Lounge","The Cabot Public House Lounge","10 Beach RD","Inverness","NS","B0E 1N0","10 Beach RD
Inverness, NS B0E 1N0
(46.015421, -61.558427)"
"006338","Beverage Room","Lunn's Mill Beer Company Ltd.","515 Hwy 201","Lawrencetown","NS","B0S 1M0","515 Hwy 201
Lawrencetown, NS B0S 1M0
(44.873401, -65.165877)"
"001485","Military","Canadian Forces Base - 14 Wing Greenwood",,"Greenwood","NS","B0P 1N0","
Greenwood, NS B0P 1N0
(45.041857, -64.644093)"
"001098","Club","Rocky Bay Irish Club","751 Rocky Bay RD","D'Escousse","NS","B0E 1K0","751 Rocky Bay RD
D'Escousse, NS B0E 1K0
(45.554657, -60.952112)"
"001330","Special Premises","King's Theatre","209 St. George ST","Annapolis Royal","NS","B0S 1A0","209 St. George ST
Annapolis Royal, NS B0S 1A0
(44.745236, -65.519178)"
"005655","Eating Establishment","The Stone Soup Cafe & Catering","41 Water ST","Pictou","NS","B0K 1H0","41 Water ST
Pictou, NS B0K 1H0
(45.676086, -62.710709)"
