"name","type","gradelevels","public_private","schoolsystem","open_closed","name_former","full_address","city","state","zip","phone_number","website","geolocation","recno"
"McKinley Senior High School","High","9 to 12","Public","East Baton Rouge Parish","O",,"800 E MC KINLEY ST","BATON ROUGE","LOUISIANA","70802","225-344-7696","https://www.ebrschools.org/schools/","800 E MC KINLEY ST
BATON ROUGE, LOUISIANA 70802
(30.42377, -91.174815)","494"
"Bethany Christian School","Elementary","K to 6","Private","Private","O",,"11107 HONORE LN","BATON ROUGE","LOUISIANA","70809","225-774-0133","http://www.bethanychristianschool.com/","11107 HONORE LN
BATON ROUGE, LOUISIANA 70809
(30.385502, -91.057233)","581"
"Helix Aviation Academy","All Grades","K to 12","Charter","East Baton Rouge Parish","O",,"4400 AIRPARK BLVD","BATON ROUGE","LOUISIANA","70807","225-427-8004","https://helixaviationacademy.org","4400 AIRPARK BLVD
BATON ROUGE, LOUISIANA 70807
(30.5413, -91.1448)","989"
"Baton Rouge Bridge Academy","Elementary","K to 1","Public","Recovery","C",,"5300 MONARCH AVE","BATON ROUGE","LOUISIANA","70811",,"http://www.bridgeacademybr.org/","5300 MONARCH AVE
BATON ROUGE, LOUISIANA 70811
(30.51576, -91.137084)","809"
"Agape School of Baton Rouge","Elementary","K to 8","Private","Private","O",,"17170 PERKINS RD","BATON ROUGE","LOUISIANA","70810","225-605-3055","https://agapeschoolofbr.com","17170 PERKINS RD
BATON ROUGE, LOUISIANA 70810
(30.350616, -91.03573)","1009"
"Children's Charter School","Elementary",,"Public","Charter - EBRPSS","C","Nicholson Elementary School","1143 NORTH ST","BATON ROUGE","LOUISIANA","70802",,,"1143 NORTH ST
BATON ROUGE, LOUISIANA 70802
(30.452766, -91.178121)","547"
"Liberty Magnet High School","High","9 to 12","Public","East Baton Rouge Parish","O","Robert E. Lee High School","1105 LEE DR","BATON ROUGE","LOUISIANA","70808","225-924-9406","https://www.ebrschools.org/schools/","1105 LEE DR
BATON ROUGE, LOUISIANA 70808
(30.405015, -91.150544)","370"
"Community Christian Academy","All Grades",,"Private",,"C",,,,,,,,,"519"
"Hollywood School","Elementary",,"Public",,"C",,,,,,,,,"482"
"South Greenville School (historical)","Elementary",,"Public",,"C",,,,,,,,,"381"
"Scott Street School (historical)","Elementary",,"Public",,"C",,,,,,,,,"380"
"Junior Academy","All Grades",,"Private",,"C",,,,,,,,,"443"
"Highland School (historical)","Elementary",,"Public",,"C",,,,,,,,,"527"
"Baton Rouge Foreign Language Academic Immersion Magnet Elementary School","Elementary","Pre-K to 5","Public","East Baton Rouge Parish","O","Valley Park Alternative School","4510 BAWELL ST","BATON ROUGE","LOUISIANA","70808","225-343-6630","http://www.brflaim.org","4510 BAWELL ST
BATON ROUGE, LOUISIANA 70808
(30.42751, -91.143477)","549"
"Audubon Elementary School","Elementary","Pre-K to 5","Public","East Baton Rouge Parish","O",,"10730 GOODWOOD BLVD","BATON ROUGE","LOUISIANA","70815","225-272-2620","https://www.ebrschools.org/schools/","10730 GOODWOOD BLVD
BATON ROUGE, LOUISIANA 70815
(30.446615, -91.065865)","421"
"Thrive Academy","High","6 to 12","Public","Charter","O",,"2585 BRIGHTSIDE DR","BATON ROUGE","LOUISIANA","70820","225-239-7820","http://thrivebr.org/","2585 BRIGHTSIDE DR
BATON ROUGE, LOUISIANA 70820
(30.388985, -91.188421)","630"
"Calvary Christian School","Elementary","Pre-K to 8","Private","Private","C",,"9611 SIEGEN LN","BATON ROUGE","LOUISIANA","70810",,,"9611 SIEGEN LN
BATON ROUGE, LOUISIANA 70810
(30.362153, -91.078054)","436"
"Baton Rouge Magnet High School","High","9 to 12","Public","East Baton Rouge Parish","O",,"2825 GOVERNMENT ST","BATON ROUGE","LOUISIANA","70806","225-383-0520","https://www.ebrschools.org/schools/","2825 GOVERNMENT ST
BATON ROUGE, LOUISIANA 70806
(30.444054, -91.159443)","453"
"Impact Charter Elementary School","Elementary","K to 8","Public","Charter","O",,"4815 LAVEY LN","BAKER","LOUISIANA","70714","225-308-9565","http://www.impactcharter.org/","4815 LAVEY LN
BAKER, LOUISIANA 70714
(30.575442, -91.150043)","829"
"Louisiana Training Institute","College",,"Public",,"C",,,,,,,,,"529"
"Episcopal High School","High","Pre-K to 12","Private","Private","O",,"3200 WOODLAND RIDGE BLVD","BATON ROUGE","LOUISIANA","70816","225-753-3180","http://www.ehsbr.org/","3200 WOODLAND RIDGE BLVD
BATON ROUGE, LOUISIANA 70816
(30.423376, -91.033125)","423"
"Choctaw School (historical)","Elementary",,"Public",,"C",,,,,,,,,"468"
"Broadmoor Middle School","Middle","6 to 8","Public","East Baton Rouge Parish","C",,"1225 SHARP RD","BATON ROUGE","LOUISIANA","70815","225-272-0540","http://ebr.oncoursesystems.com/websites/12916971","1225 SHARP RD
BATON ROUGE, LOUISIANA 70815
(30.443692, -91.067207)","420"
"Rosenwald School (historical)","Elementary",,"Public",,"C",,,,,,,,,"536"
"Saint Joseph School (historical)","Elementary",,"Public",,"C",,,,,,,,,"378"
"Southside Christian Academy","All Grades",,"Private",,"C",,,,,,,,,"417"
"Sharon Hills Elementary School","Elementary","Pre-K to 5","Public","East Baton Rouge Parish","O",,"6450 GUYNELL DR","BATON ROUGE","LOUISIANA","70811","225-355-6522","https://www.ebrschools.org/schools/","6450 GUYNELL DR
BATON ROUGE, LOUISIANA 70811
(30.534289, -91.126245)","542"
"Gardere Community Christian School","Elementary","PK to 8","Private","Private","O",,"8538 GSRI AVE","BATON ROUGE","LOUISIANA","70810","225-387-5082","http://gardereschool.com/","8538 GSRI AVE
BATON ROUGE, LOUISIANA 70810
(30.354988, -91.126567)","649"
"Liberty School (historical)","Elementary",,"Public",,"C",,,,,,,,,"528"
"Saint Luke's Episcopal Day School","Elementary","Pre-K to 8","Private","Private","O",,"8833 GOODWOOD BLVD","BATON ROUGE","LOUISIANA","70806","225-927-8601","https://www.slesbr.org/","8833 GOODWOOD BLVD
BATON ROUGE, LOUISIANA 70806
(30.442814, -91.094561)","570"
"Comite Christian Academy","Elementary","K to 8","Private","Private","C",,"12250 GREENWELL SPRINGS RD","BATON ROUGE","LOUISIANA","70814",,,"12250 GREENWELL SPRINGS RD
BATON ROUGE, LOUISIANA 70814
(30.499775, -91.047502)","407"
"Merrydale Elementary School","Elementary","Pre-K to 5","Public","East Baton Rouge Parish","O",,"6700 RIO DR","BATON ROUGE","LOUISIANA","70812","225-355-0346","https://www.ebrschools.org/schools/","6700 RIO DR
BATON ROUGE, LOUISIANA 70812
(30.503708, -91.122792)","531"
"Fairfield School (historical)","Elementary",,"Public",,"C",,,,,,,,,"474"
"Louisiana State University Laboratory School","All Grades","K to 12","Public","Louisiana State University System","O",,"45 LAB SCHOOL SERVICE LOT","BATON ROUGE","LOUISIANA","70803","225-578-3221","http://www.uhigh.lsu.edu/","45 LAB SCHOOL SERVICE LOT
BATON ROUGE, LOUISIANA 70803","627"
"The Dufrocq School","Elementary","Pre-K to 5","Public","East Baton Rouge Parish","O",,"330 S 19TH ST","BATON ROUGE","LOUISIANA","70806","225-334-7653","https://www.ebrschools.org/schools/","330 S 19TH ST
BATON ROUGE, LOUISIANA 70806
(30.445299, -91.169113)","472"
"J.K. Haynes Middle School","Middle","6 to 8","Public","Charter - EBRPSS","C","Banks Elementary School","2401 72ND AVE","BATON ROUGE","LOUISIANA","70807","225-302-7077","http://www.jkhaynesschools.org/ms/","2401 72ND AVE
BATON ROUGE, LOUISIANA 70807
(30.514457, -91.167549)","452"
"LaSalle Elementary School","Elementary","Pre-K to 5","Public","East Baton Rouge Parish","O",,"8000 LASALLE AVE","BATON ROUGE","LOUISIANA","70806","225-927-6130","https://www.ebrschools.org/schools/","8000 LASALLE AVE
BATON ROUGE, LOUISIANA 70806
(30.434757, -91.103634)","488"
"Career Academy","High","9 to 12","Public","Charter","C",,"9700 SCENIC HWY","BATON ROUGE","LOUISIANA","70807","225-388-5252","http://www.careeracademybr.org/","9700 SCENIC HWY
BATON ROUGE, LOUISIANA 70807
(30.532721, -91.186345)","631"
"Baton Rouge International School","All Grades","K to 12","Private","Private","O",,"5015 AUTOPLEX DR","BATON ROUGE","LOUISIANA","70809","225-293-4338","http://www.brintl.com/","5015 AUTOPLEX DR
BATON ROUGE, LOUISIANA 70809
(30.401324, -91.061503)","751"
"Saint James Episcopal Day School","Elementary","Pre-K to 5","Private","Private","O",,"445 CONVENTION ST","BATON ROUGE","LOUISIANA","70801","225-344-0805","http://www.stjameseds.org/","445 CONVENTION ST
BATON ROUGE, LOUISIANA 70801
(30.448305, -91.186008)","449"
"Baton Rouge Montessori KIds","All Grades","PK to K","Private","Private","C",,"12663 PERKINS RD","BATON ROUGE","LOUISIANA","70810","225-767-2500",,"12663 PERKINS RD
BATON ROUGE, LOUISIANA 70810
(30.368593, -91.075528)","752"
"Elan Vital Montessori School","Elementary","K to 6","Private","Private","O",,"7518 HIGHLAND RD","BATON ROUGE","LOUISIANA","70808","225-767-6620","http://www.elanvitalmontessori.org/","7518 HIGHLAND RD
BATON ROUGE, LOUISIANA 70808
(30.376933, -91.137001)","755"
"Charity Christian Academy","Elementary","Pre-K to 9","Private","Private","C",,"871 O'NEAL LN","BATON ROUGE","LOUISIANA","70816",,,"871 O'NEAL LN
BATON ROUGE, LOUISIANA 70816
(30.456253, -91.008386)","577"
"The Dunham School","All Grades","Pre-K to 12","Private","Private","O","Chapel Trafton School","11111 ROY EMERSON DR","BATON ROUGE","LOUISIANA","70810","225-767-7097","http://www.dunhamschool.org/","11111 ROY EMERSON DR
BATON ROUGE, LOUISIANA 70810
(30.381849, -91.084995)","428"
"Temple Christian School","All Grades",,"Private",,"C",,,,,,,,,"410"
"South School","Elementary",,"Public",,"C",,,,,,,,,"382"
"Montessori School of Baton Rouge","Elementary","PK to K","Private","Private","O",,"8227 WIMBLEDON AVE","BATON ROUGE","LOUISIANA","70810","225-766-9942","http://montessorischoolofbatonrouge.org/","8227 WIMBLEDON AVE
BATON ROUGE, LOUISIANA 70810
(30.374932, -91.089399)","759"
"Our Lady of Mercy Catholic School","Elementary","Pre-K to 8","Private","Catholic","O",,"400 MARQUETTE AVE","BATON ROUGE","LOUISIANA","70806","225-924-1054","http://www.olomschool.org/","400 MARQUETTE AVE
BATON ROUGE, LOUISIANA 70806
(30.44709, -91.124876)","504"
"Parkview Baptist School","All Grades","K to 12","Private","Private","O",,"5750 PARKVIEW CHURCH RD","BATON ROUGE","LOUISIANA","70816","225-291-2500","http://www.parkviewbaptist.com/","5750 PARKVIEW CHURCH RD
BATON ROUGE, LOUISIANA 70816
(30.397448, -91.049557)","584"
"Baton Rouge Community College - Acadian Campus","College",,"Public","Louisiana Community and Technical College System","O","Baton Rouge Vocational Technical Institute","3250 N ACADIAN THWY","BATON ROUGE","LOUISIANA","70805","1-866-217-9823","http://www.mybrcc.edu/","3250 N ACADIAN THWY
BATON ROUGE, LOUISIANA 70805
(30.476005, -91.156062)","447"
"Alsen Elementary School","Elementary",,"Public",,"C",,,,,,,,,"511"
"Virginia College","College",,"Private","Private","C",,"9501 CORTANA PL","BATON ROUGE","LOUISIANA","70815",,"https://www.vc.edu","9501 CORTANA PL
BATON ROUGE, LOUISIANA 70815
(30.459729, -91.096117)","849"
"Central Private School","All Grades","Pre-K to 12","Private","Private","O",,"12801 CENTERRA CT","BAKER","LOUISIANA","70714","225-261-3341","http://www.centralprivate.org/","12801 CENTERRA CT
BAKER, LOUISIANA 70714
(30.566305, -91.060388)","573"
"Silverside Academy","Elementary","Pre-K to 8","Private","Private","C",,"2070 SILVERSIDE DR","BATON ROUGE","LOUISIANA","70808",,,"2070 SILVERSIDE DR
BATON ROUGE, LOUISIANA 70808
(30.395183, -91.112484)","576"
"Christa McAuliffe Center","Middle","6 to 8","Public","East Baton Rouge Parish","C","Sherwood Forest Elementary School","12000 GOODWOOD BLVD","BATON ROUGE","LOUISIANA","70815","225-226-7940","http://ebr.oncoursesystems.com/websites/12697998","12000 GOODWOOD BLVD
BATON ROUGE, LOUISIANA 70815
(30.448801, -91.050058)","571"
"Trinity Episcopal School","Elementary","Pre-K to 5","Private","Private","O",,"3550 MORNING GLORY AVE","BATON ROUGE","LOUISIANA","70808","225-387-0398","http://www.trinityschoolbr.org/","3550 MORNING GLORY AVE
BATON ROUGE, LOUISIANA 70808
(30.417192, -91.156104)","451"
"Central Christian Academy","All Grades","Pre-K to 12","Private","Private","C",,"9739 JOOR RD","CENTRAL","LOUISIANA","70818",,,"9739 JOOR RD
CENTRAL, LOUISIANA 70818
(30.53709, -91.059189)","854"
"Rose Hill School (historical)","Elementary",,"Public",,"C",,,,,,,,,"535"
"Perkins Road School (historical)","Elementary",,"Public",,"C",,,,,,,,,"506"
"Scotlandville Magnet High School","High","9 to 12","Public","East Baton Rouge Parish","O",,"9870 SCOTLAND AVE","BATON ROUGE","LOUISIANA","70807","225-775-3715","https://www.ebrschools.org/schools/","9870 SCOTLAND AVE
BATON ROUGE, LOUISIANA 70807
(30.534144, -91.178505)","540"
"Brownfields Baptist Academy","All Grades","K to 12","Private","Private","C",,"11998 PLANK RD","BATON ROUGE","LOUISIANA","70811",,,"11998 PLANK RD
BATON ROUGE, LOUISIANA 70811
(30.554026, -91.134686)","580"
"Cornerstone Academy","All Grades",,"Private",,"C",,,,,,,,,"408"
"Cedarcrest-Southmoor Elementary School","Elementary","Pre-K to 5","Public","East Baton Rouge Parish","O",,"10187 TWIN CEDARS ST","BATON ROUGE","LOUISIANA","70816","225-293-9950","https://www.ebrschools.org/schools/","10187 TWIN CEDARS ST
BATON ROUGE, LOUISIANA 70816
(30.4246, -91.069189)","419"
"Saint Pius X School","Elementary",,"Private","Catholic","C",,,,,,,,,"539"
"Leland College","College",,"Private",,"C",,,,,,,,,"490"
"Belaire Magnet High School","High","9 to 12","Public","East Baton Rouge Parish","O",,"12121 TAMS DR","BATON ROUGE","LOUISIANA","70815","225-272-1860","https://www.ebrschools.org/schools/","12121 TAMS DR
BATON ROUGE, LOUISIANA 70815
(30.466651, -91.048351)","413"
"Shiloh Baptist Early Learning Academy","Elementary","K to 1","Private","Private","O",,"185 EDDIE ROBINSON SR DR","BATON ROUGE","LOUISIANA","70802","225-343-4734",,"185 EDDIE ROBINSON SR DR
BATON ROUGE, LOUISIANA 70802
(30.445932, -91.175877)","761"
"Bellingrath Hills Elementary School","Elementary","Pre-K to K","Public","Central Community","O",,"6612 AUDUSSON DR","GREENWELL SPRINGS","LOUISIANA","70739","225-261-4093","http://bellingrathhills.centralcss.org/","6612 AUDUSSON DR
GREENWELL SPRINGS, LOUISIANA 70739
(30.515526, -90.993273)","398"
"Brighter Horizon School of Baton Rouge","All Grades","PK to 12","Private","Private","O",,"1896 WOODDALE BLVD","BATON ROUGE","LOUISIANA","70806","225-927-2521","http://www.brighterhorizonschool.org/","1896 WOODDALE BLVD
BATON ROUGE, LOUISIANA 70806
(30.4651, -91.112943)","753"
"Central High School","High","9 to 12","Public","Central Community","O",,"10200 E BROOKSIDE DR","CENTRAL","LOUISIANA","70818","225-261-3438","http://centralhigh.centralcss.org/","10200 E BROOKSIDE DR
CENTRAL, LOUISIANA 70818
(30.540803, -91.019599)","517"
"Catholic High School","High","8 to 12","Private","Catholic","O",,"855 HEARTHSTONE DR","BATON ROUGE","LOUISIANA","70806","225-383-0397","http://www.catholichigh.org/","855 HEARTHSTONE DR
BATON ROUGE, LOUISIANA 70806
(30.440635, -91.157017)","551"
"Forest Heights Academy of Excellence","Elementary","Pre-K to 5","Public","East Baton Rouge Parish","O","Forest Heights Elementary School","7447 SUMRALL DR","BATON ROUGE","LOUISIANA","70812","225-355-5681","https://www.ebrschools.org/schools/","7447 SUMRALL DR
BATON ROUGE, LOUISIANA 70812
(30.514647, -91.114031)","523"
"Bethany College","College",,"Private","Private","O",,"10877 RIEGER RD","BATON ROUGE","LOUISIANA","70809","225-412-5308","http://www.bethanycollege.net","10877 RIEGER RD
BATON ROUGE, LOUISIANA 70809
(30.380123, -91.061674)","853"
"Saint Jude the Apostle School","Elementary","Pre-K to 8","Private","Catholic","O",,"9150 HIGHLAND RD","BATON ROUGE","LOUISIANA","70808","225-769-2344","http://www.stjudebr.org/","9150 HIGHLAND RD
BATON ROUGE, LOUISIANA 70808
(30.367251, -91.120758)","437"
"Melrose Elementary School","Elementary","Pre-K to 5","Public","East Baton Rouge Parish","O",,"1348 VALCOUR DR","BATON ROUGE","LOUISIANA","70806","225-926-2353","https://www.ebrschools.org/schools/","1348 VALCOUR DR
BATON ROUGE, LOUISIANA 70806
(30.461586, -91.135439)","497"
"Most Blessed Sacrament School","Elementary","Pre-K to 8","Private","Catholic","O",,"8033 BARINGER RD","BATON ROUGE","LOUISIANA","70817","225-751-0273","http://www.mbsbr.org/","8033 BARINGER RD
BATON ROUGE, LOUISIANA 70817
(30.378093, -91.015507)","434"
"Tara High School","High","9 to 12","Public","East Baton Rouge Parish","O",,"9002 WHITEHALL AVE","BATON ROUGE","LOUISIANA","70806","225-927-6100","https://www.ebrschools.org/schools/","9002 WHITEHALL AVE
BATON ROUGE, LOUISIANA 70806
(30.434927, -91.088709)","416"
"North School","Elementary",,"Public",,"C",,,,,,,,,"501"
"McKinley School","Elementary",,"Public",,"C",,,,,,,,,"496"
"North Highlands Elementary School","Elementary","Pre-K to 5","Public","East Baton Rouge Parish","C",,"3875 BYRON ST","BATON ROUGE","LOUISIANA","70805",,,"3875 BYRON ST
BATON ROUGE, LOUISIANA 70805
(30.49378, -91.150806)","500"
"Frenchtown School (historical)","Elementary",,"Public",,"C",,,,,,,,,"524"
"Jimmy Swaggart Bible College and Seminary","College",,"Private","Private","O","World Evangelism Bible College","7320 BLUEBONNET BLVD","BATON ROUGE","LOUISIANA","70810","225-768-3890","http://www.jsbc.edu","7320 BLUEBONNET BLVD
BATON ROUGE, LOUISIANA 70810
(30.384894, -91.094908)","402"
"Greater Baton Rouge Hope Academy","All Grades","1 to 12","Private","Private","O","Gables Academy","15333 JEFFERSON HWY","BATON ROUGE","LOUISIANA","70817","225-293-0141","http://hopeacademybr.org","15333 JEFFERSON HWY
BATON ROUGE, LOUISIANA 70817
(30.376176, -91.017794)","401"
"Saint Joseph's Academy","High","9 to 12","Private","Catholic","O",,"3015 BROUSSARD ST","BATON ROUGE","LOUISIANA","70806","225-383-7207","https://sjabr.org/","3015 BROUSSARD ST
BATON ROUGE, LOUISIANA 70806
(30.435988, -91.157221)","377"
"Louisiana School for the Visually Impaired","All Grades","Pre-K to 12","Public","Louisiana Board of Elementary and Secondary Education","O","Louisiana State School for the Blind","2888 BRIGHTSIDE DR","BATON ROUGE","LOUISIANA","70820","225-757-3481","http://lsvi.org/","2888 BRIGHTSIDE DR
BATON ROUGE, LOUISIANA 70820
(30.389786, -91.191459)","448"
"Saint Aloysius Catholic School","Elementary","Pre-K to 8","Private","Catholic","O",,"4001 MIMOSA ST","BATON ROUGE","LOUISIANA","70808","225-383-3871","http://school.aloysius.org/","4001 MIMOSA ST
BATON ROUGE, LOUISIANA 70808
(30.415119, -91.1511)","372"
"Millerville Academy","All Grades",,"Private",,"C",,,,,,,,,"404"
"Broadmoor Senior High School","High","9 to 12","Public","East Baton Rouge Parish","O",,"10100 GOODWOOD BLVD","BATON ROUGE","LOUISIANA","70815","225-926-1420","https://www.ebrschools.org/schools/","10100 GOODWOOD BLVD
BATON ROUGE, LOUISIANA 70815
(30.443623, -91.075098)","459"
"Capitol Elementary School","Elementary","Pre-K to 5","Public","East Baton Rouge Parish","O",,"4141 GUS YOUNG AVE","BATON ROUGE","LOUISIANA","70802","225-343-9364","https://www.ebrschools.org/schools/","4141 GUS YOUNG AVE
BATON ROUGE, LOUISIANA 70802
(30.461964, -91.148848)","587"
"Sacred Heart of Jesus School","Elementary","Pre-K to 8","Private","Catholic","O",,"2251 MAIN ST","BATON ROUGE","LOUISIANA","70802","225-383-7481","http://sacredheartbr.com/","2251 MAIN ST
BATON ROUGE, LOUISIANA 70802
(30.452112, -91.164767)","371"
"Louisiana Key Academy","Elementary","K to 4","Public","Charter","O",,"3172 GOVERNMENT ST","BATON ROUGE","LOUISIANA","70806","225-298-1223","http://www.lakeyacademy.com/","3172 GOVERNMENT ST
BATON ROUGE, LOUISIANA 70806
(30.444122, -91.156505)","732"
"Baton Rouge Junior High School (historical)","Middle","7 to 9","Public",,"C",,,,,,,,,"454"
"Buchanan Elementary School","Elementary","Pre-K to 5","Public","East Baton Rouge Parish","O",,"1222 E BUCHANAN ST","BATON ROUGE","LOUISIANA","70802","225-343-4585","https://www.ebrschools.org/schools/","1222 E BUCHANAN ST
BATON ROUGE, LOUISIANA 70802
(30.425167, -91.172181)","463"
"Zachary Early Learning Center","Elementary","Pre-K","Public","Zachary Community","O",,"4400 ROLLINS PL","ZACHARY","LOUISIANA","70791","225-654-6011","http://www.zacharyelc.org/","4400 ROLLINS PL
ZACHARY, LOUISIANA 70791
(30.668956, -91.162435)","607"
"Scotlandville Pre-Engineering Magnet Academy","Middle","6 to 8","Public","East Baton Rouge Parish","O","Scotlandville Elementary School","9147 ELM GROVE GARDEN DR","BATON ROUGE","LOUISIANA","70807","225-775-0776","https://www.ebrschools.org/schools/","9147 ELM GROVE GARDEN DR
BATON ROUGE, LOUISIANA 70807
(30.529584, -91.169307)","541"
"Shenandoah Elementary School","Elementary","Pre-K to 5","Public","East Baton Rouge Parish","O",,"16555 APPOMATTOX AVE","BATON ROUGE","LOUISIANA","70817","225-753-3560","https://www.ebrschools.org/schools/","16555 APPOMATTOX AVE
BATON ROUGE, LOUISIANA 70817
(30.395228, -91.000893)","433"
"Saint Anthony School (historical)","Elementary",,"Public",,"C",,,,,,,,,"373"
"Blundon School (historical)","Elementary",,"Public",,"C",,,,,,,,,"458"
"Riverdale Christian Academy","Elementary","K to 12","Private","Private","C",,"2791 O'NEAL LN","BATON ROUGE","LOUISIANA","70816","225-753-6722","http://www.riverdalechristianacademy.org/","2791 O'NEAL LN
BATON ROUGE, LOUISIANA 70816
(30.428712, -91.007538)","760"
"LSU Carrol L. Herring Fire and Emergency Training Institute","University",,"Public","Louisiana State University System","O","Louisiana State University Fireman Training Center","6868 NICHOLSON DR","BATON ROUGE","LOUISIANA","70820","225-334-6300","http://feti.lsu.edu/","6868 NICHOLSON DR
BATON ROUGE, LOUISIANA 70820
(30.379217, -91.165037)","435"
"Northwestern Middle School","Middle","6 to 8","Public","Zachary Community","O",,"5200 E CENTRAL AVE","ZACHARY","LOUISIANA","70791","225-654-9201","http://northwesternmiddle.org/","5200 E CENTRAL AVE
ZACHARY, LOUISIANA 70791
(30.655132, -91.155189)","503"
"Chaneyville School","Elementary",,"Public",,"C",,,,,,,,,"467"
"Northwestern Elementary School","Elementary","K to 1","Public","Zachary Community","O",,"4200 ROLLINS RD","ZACHARY","LOUISIANA","70791","225-654-2786","http://www.northwesternelementary.org/","4200 ROLLINS RD
ZACHARY, LOUISIANA 70791
(30.668987, -91.162665)","533"
"Arlington Preparatory Academy","High","8 to 12","Public","East Baton Rouge Parish","C",,"931 DEAN LEE DR","BATON ROUGE","LOUISIANA","70820","225-766-8188","http://ebr.oncoursesystems.com/websites/12783282","931 DEAN LEE DR
BATON ROUGE, LOUISIANA 70820
(30.385159, -91.1712)","439"
"Baton Rouge Community College","College",,"Public","Louisiana Community and Technical College System","O",,"201 COMMUNITY COLLEGE DR","BATON ROUGE","LOUISIANA","70806","1-866-217-9823","http://www.mybrcc.edu/","201 COMMUNITY COLLEGE DR
BATON ROUGE, LOUISIANA 70806
(30.449549, -91.135986)","633"
"Louisiana Virtual Charter Academy","All Grades","Pre-K to 12","Public","Charter - Virtual","O",,"4962 FLORIDA BLVD","BATON ROUGE","LOUISIANA","70806","877-490-3596","https://lavca.k12.com","4962 FLORIDA BLVD
BATON ROUGE, LOUISIANA 70806
(30.450719, -91.139613)","893"
"Goodwood Special Education Center","Elementary",,"Public","East Baton Rouge Parish","C",,"6550 SEVENOAKS AVE","BATON ROUGE","LOUISIANA","70806",,,"6550 SEVENOAKS AVE
BATON ROUGE, LOUISIANA 70806
(30.438849, -91.122805)","478"
"Brighton School, The","Elementary","K to 6","Private","Private","O","Brighton Academy","9150 BEREFORD DR","BATON ROUGE","LOUISIANA","70809","225-291-2524","http://www.thebrightonschool.org/","9150 BEREFORD DR
BATON ROUGE, LOUISIANA 70809
(30.418288, -91.082513)","586"
"Divine Guidance Christian School","All Grades",,"Private",,"C",,,,,,,,,"411"
"Brighton School, The","High","7 to 12","Private","Private","O","Depaul School","12108 PARKMEADOW AVE","BATON ROUGE","LOUISIANA","70816","225-923-2068","http://www.thebrightonschool.org/","12108 PARKMEADOW AVE
BATON ROUGE, LOUISIANA 70816
(30.406052, -91.045458)","418"
"Baton Rouge College (historical)","College",,"Public",,"C",,,,,,,,,"446"
"Baton Rouge Center for the Visual and Performing Arts","Elementary","Pre-K to 5","Public","East Baton Rouge Parish","O","Walnut Hills Elementary School","2040 S ACADIAN THWY","BATON ROUGE","LOUISIANA","70808","225-344-0084","http://www.brcvpa.com/","2040 S ACADIAN THWY
BATON ROUGE, LOUISIANA 70808
(30.42915, -91.15269)","389"
"AMIKids Baton Rouge","All Grades","4 to 12","Private","Private","O",,"5555 BEECHWOOD DR","BATON ROUGE","LOUISIANA","70805","225-356-3461","http://www.amikidsbatonrouge.org","5555 BEECHWOOD DR
BATON ROUGE, LOUISIANA 70805
(30.500741, -91.144171)","729"
"Lake Sherwood School","All Grades",,"Private",,"C",,,,,,,,,"431"
"Saint Louis King of France School","Elementary","Pre-K to 8","Private","Catholic","C",,"2311 N SHERWOOD FOREST DR","BATON ROUGE","LOUISIANA","70815","225-273-3932","http://www.edline.net/pages/slkf","2311 N SHERWOOD FOREST DR
BATON ROUGE, LOUISIANA 70815
(30.469773, -91.058082)","579"
"Cornucopia School (historical)","Elementary",,"Public",,"C",,,,,,,,,"520"
"Northeast High School","High","7 to 12","Public","East Baton Rouge Parish","O",,"13700 PORT HUDSON-PRIDE RD","PRIDE","LOUISIANA","70770","225-654-5808","https://www.ebrschools.org/schools/","13700 PORT HUDSON-PRIDE RD
PRIDE, LOUISIANA 70770
(30.704602, -91.014926)","550"
"Central Intermediate School","Elementary","3 to 5","Public","Central Community","O",,"12636 SULLIVAN RD","CENTRAL","LOUISIANA","70818","225-261-1390","http://centralintermediate.centralcss.org/","12636 SULLIVAN RD
CENTRAL, LOUISIANA 70818
(30.562913, -91.042229)","610"
"Valley Park School (historical)","Elementary",,"Public",,"C",,,,,,,,,"387"
"Glasgow Middle School","Middle","6 to 8","Public","East Baton Rouge Parish","O",,"1676 GLASGOW AVE","BATON ROUGE","LOUISIANA","70808","225-925-2942","https://www.ebrschools.org/schools/","1676 GLASGOW AVE
BATON ROUGE, LOUISIANA 70808
(30.408841, -91.143762)","475"
"Westdale Middle School","Middle","6 to 8","Public","East Baton Rouge Parish","O",,"5650 CLAYCUT RD","BATON ROUGE","LOUISIANA","70806","225-924-1308","https://www.ebrschools.org/schools/","5650 CLAYCUT RD
BATON ROUGE, LOUISIANA 70806
(30.441628, -91.13228)","390"
"Greenville Alternative at Wyandotte","Middle","6 to 8","Public","East Baton Rouge Parish","C","Wyandotte School","2525 WYANDOTTE ST","BATON ROUGE","LOUISIANA","70805","225-358-6928","http://ebr.oncoursesystems.com/websites/12886525","2525 WYANDOTTE ST
BATON ROUGE, LOUISIANA 70805
(30.481794, -91.16453)","396"
"Jefferson Terrace Elementary School","Elementary","K to 8","Public","East Baton Rouge Parish","O",,"5601 UPTON DR","BATON ROUGE","LOUISIANA","70809","225-293-3210","https://www.ebrschools.org/schools/","5601 UPTON DR
BATON ROUGE, LOUISIANA 70809
(30.397464, -91.077746)","929"
"University Terrace Elementary School","Elementary","Pre-K to 5","Public","East Baton Rouge Parish","O",,"575 W ROOSEVELT ST","BATON ROUGE","LOUISIANA","70802","225-387-2328","https://www.ebrschools.org/schools/","575 W ROOSEVELT ST
BATON ROUGE, LOUISIANA 70802
(30.421709, -91.182398)","386"
"Standard Heights School (historical)","Elementary",,"Public",,"C",,,,,,,,,"385"
"Reddy School (historical)","Elementary",,"Public",,"C",,,,,,,,,"369"
"Istrouma School","Elementary",,"Public",,"C",,,,,,,,,"486"
"Heritage Preparatory School","All Grades",,"Private",,"C",,,,,,,,,"526"
"Sherwood Middle Academic Magnet School","Middle","6 to 8","Public","East Baton Rouge Parish","O",,"1020 MARLBROOK DR","BATON ROUGE","LOUISIANA","70815","225-272-3090","https://www.ebrschools.org/schools/","1020 MARLBROOK DR
BATON ROUGE, LOUISIANA 70815
(30.445978, -91.062429)","422"
"Saint George Catholic School","Elementary","K to 8","Private","Catholic","O",,"7880 SAINT GEORGE DR","BATON ROUGE","LOUISIANA","70809","225-293-1298","http://st-georgeschool.com/","7880 SAINT GEORGE DR
BATON ROUGE, LOUISIANA 70809
(30.377786, -91.068764)","374"
"White Hills Elementary School","Elementary","Pre-K to 5","Public","East Baton Rouge Parish","O",,"5300 BENTLEY DR","BAKER","LOUISIANA","70714","225-775-5891","https://www.ebrschools.org/schools/","5300 BENTLEY DR
BAKER, LOUISIANA 70714
(30.593726, -91.138495)","392"
"Rosenwald Pre-K Center","Elementary","Pre-K","Public","East Baton Rouge Parish","C","Wright School","2611 DAYTON ST","BATON ROUGE","LOUISIANA","70805",,,"2611 DAYTON ST
BATON ROUGE, LOUISIANA 70805
(30.488154, -91.163914)","395"
"Bernard Terrace Elementary School","Elementary","Pre-K to 5","Public","East Baton Rouge Parish","O",,"241 EDISON ST","BATON ROUGE","LOUISIANA","70806","225-343-5769","https://www.ebrschools.org/schools/","241 EDISON ST
BATON ROUGE, LOUISIANA 70806
(30.446909, -91.147159)","457"
"Copper Mill Elementary School","Elementary",,"Public","Zachary Community","O",,"1300 INDEPENDENCE BLVD","ZACHARY","LOUISIANA","70791","225-658-1288","http://www.coppermillelementary.org/","1300 INDEPENDENCE BLVD
ZACHARY, LOUISIANA 70791
(30.64227, -91.19097)","609"
"Zachary Elementary School","Elementary",,"Public","Zachary Community","O",,"3775 HEMLOCK ST","ZACHARY","LOUISIANA","70791","225-654-4036","http://zacharyelementary.org/","3775 HEMLOCK ST
ZACHARY, LOUISIANA 70791
(30.640571, -91.166865)","544"
"Saint Jean Vianney Catholic School","Elementary","K to 8","Private","Catholic","O",,"16266 S HARRELL'S FERRY RD","BATON ROUGE","LOUISIANA","70816","225-751-1831","http://www.stjeanvianneyschool.org/","16266 S HARRELL'S FERRY RD
BATON ROUGE, LOUISIANA 70816
(30.425098, -91.005564)","424"
"Progress Elementary School","Elementary","Pre-K to 5","Public","East Baton Rouge Parish","O",,"855 PROGRESS RD","BATON ROUGE","LOUISIANA","70807","225-775-4986","https://www.ebrschools.org/schools/","855 PROGRESS RD
BATON ROUGE, LOUISIANA 70807
(30.537411, -91.185858)","367"
"ITI Technical College","College",,"Private","Private","O",,"13944 AIRLINE HWY","BATON ROUGE","LOUISIANA","70809","225-752-4233","https://www.iticollege.edu","13944 AIRLINE HWY
BATON ROUGE, LOUISIANA 70809
(30.368871, -91.028496)","850"
"Belfair Montessori Magnet School","Elementary","Pre-K to 5","Public","East Baton Rouge Parish","O",,"4451 FAIRFIELDS AVE","BATON ROUGE","LOUISIANA","70802","225-356-6191","https://www.ebrschools.org/schools/","4451 FAIRFIELDS AVE
BATON ROUGE, LOUISIANA 70802
(30.467559, -91.145855)","456"
"Southeast Middle Magnet School","Middle","6 to 8","Public","East Baton Rouge Parish","O",,"15000 S HARRELL'S FERRY RD","BATON ROUGE","LOUISIANA","70816","225-753-5930","https://www.ebrschools.org/schools/","15000 S HARRELL'S FERRY RD
BATON ROUGE, LOUISIANA 70816
(30.427887, -91.017797)","425"
"Eden Park Superintendent's Academy","Elementary","Pre-K to 5","Public","East Baton Rouge Parish","C",,"1650 N ACADIAN THWY E","BATON ROUGE","LOUISIANA","70802","225-387-5224","http://ebr.oncoursesystems.com/websites/12782524","1650 N ACADIAN THWY E
BATON ROUGE, LOUISIANA 70802
(30.462765, -91.155328)","473"
"La Printaniere Montessori School","Elementary","K to 5","Private","Private","O",,"5064 PERKINS RD","BATON ROUGE","LOUISIANA","70808","225-769-2255","http://www.laprintaniere.com/","5064 PERKINS RD
BATON ROUGE, LOUISIANA 70808
(30.413188, -91.135956)","756"
"Redemptorist High School","High","7 to 12","Private","Catholic","C",,"4000 SAINT GERARD AVE","BATON ROUGE","LOUISIANA","70805",,,"4000 SAINT GERARD AVE
BATON ROUGE, LOUISIANA 70805
(30.497428, -91.148839)","440"
"Northeast Elementary School","Elementary","Pre-K to 6","Public","East Baton Rouge Parish","O",,"13801 PORT HUDSON-PRIDE RD","PRIDE","LOUISIANA","70770","225-654-5113","https://www.ebrschools.org/schools/","13801 PORT HUDSON-PRIDE RD
PRIDE, LOUISIANA 70770
(30.704617, -91.013777)","532"
"Idea Innovation Charter School","Elementary","K to 9","Public","Charter - EBRPSS","O",,"7800 INNOVATION PARK DR","BATON ROUGE","LOUISIANA","70820","225-953-7963","https://www.ideapublicschools.org/our-schools/idea-innovation","7800 INNOVATION PARK DR
BATON ROUGE, LOUISIANA 70820
(30.361797, -91.140963)","891"
"Eva Legard Center for Coastal and Environmental Studies","High","6 to 12","Public","East Baton Rouge Parish","O",,"10730 GOODWOOD BLVD","BATON ROUGE","LOUISIANA","70815","225-922-5472","https://ebrschools.org/eva-legard-center-for-coastal-and-environmental-studies/","10730 GOODWOOD BLVD
BATON ROUGE, LOUISIANA 70815
(30.446615, -91.065865)","507"
"J.K. Haynes Elementary Charter School","Elementary","Pre-K to 8","Public","Charter - EBRPSS","O","Harding Elementary School","8600 ELM GROVE GARDEN DR","BATON ROUGE","LOUISIANA","70807","225-774-1311","https://sites.google.com/view/jkhaynescharterschools/","8600 ELM GROVE GARDEN DR
BATON ROUGE, LOUISIANA 70807
(30.525938, -91.169222)","481"
"Church Academy","All Grades","Pre-K to 12","Private","Private","C","Christian Life Academy","2037 QUAIL DR","BATON ROUGE","LOUISIANA","70808","225-769-6760","http://gocrusaders.com/","2037 QUAIL DR
BATON ROUGE, LOUISIANA 70808
(30.396304, -91.130652)","445"
"Baton Rouge Community College - Frazier Campus","College",,"Public","Louisiana Community and Technical College System","O",,"555 JULIA ST","BATON ROUGE","LOUISIANA","70802","1-866-217-9823","http://www.mybrcc.edu/","555 JULIA ST
BATON ROUGE, LOUISIANA 70802
(30.437126, -91.18554)","669"
"Tanglewood Elementary School","Elementary","1 to 2","Public","Central Community","O",,"9352 RUSTLING OAKS DR","CENTRAL","LOUISIANA","70818","225-261-3454","http://tanglewood.centralcss.org/","9352 RUSTLING OAKS DR
CENTRAL, LOUISIANA 70818
(30.534127, -91.074714)","543"
"Park Forest Elementary School","Elementary","Pre-K to 5","Public","East Baton Rouge Parish","O",,"10717 ELAIN DR","BATON ROUGE","LOUISIANA","70814","225-272-0814","https://www.ebrschools.org/schools/","10717 ELAIN DR
BATON ROUGE, LOUISIANA 70814
(30.482477, -91.065621)","412"
"Central Middle School","Middle","6 to 8","Public","Central Community","O",,"12656 SULLIVAN RD","CENTRAL","LOUISIANA","70818","225-261-2237","http://centralmiddle.centralcss.org/","12656 SULLIVAN RD
CENTRAL, LOUISIANA 70818
(30.56447, -91.043502)","518"
"Glen Oaks Park Elementary School","Elementary","Pre-K to 5","Public","East Baton Rouge Parish","O",,"5656 LANIER DR","BATON ROUGE","LOUISIANA","70812","225-356-4521","https://www.ebrschools.org/schools/","5656 LANIER DR
BATON ROUGE, LOUISIANA 70812
(30.503577, -91.107847)","525"
"Villa Del Rey Elementary School","Elementary","Pre-K to 5","Public","East Baton Rouge Parish","O",,"9765 CUYHANGA PKWY","BATON ROUGE","LOUISIANA","70815","225-924-1606","https://www.ebrschools.org/schools/","9765 CUYHANGA PKWY
BATON ROUGE, LOUISIANA 70815
(30.46439, -91.0766)","388"
"Rollins Place Elementary School","Elementary","K to 2","Public","Zachary Community","O",,"4400 ROLLINS PL","ZACHARY","LOUISIANA","70791","225-658-1940","http://www.rollinsplaceelementary.org/","4400 ROLLINS PL
ZACHARY, LOUISIANA 70791
(30.668956, -91.162435)","608"
"Twin Oaks Elementary School","Elementary","Pre-K to 5","Public","East Baton Rouge Parish","O",,"819 TRAMMELL DR","BATON ROUGE","LOUISIANA","70815","225-275-6620","https://www.ebrschools.org/schools/","819 TRAMMELL DR
BATON ROUGE, LOUISIANA 70815
(30.45139, -91.038477)","427"
"Hosanna Christian Academy","All Grades","K to 8","Private","Private","O",,"8850 GOODWOOD BLVD","BATON ROUGE","LOUISIANA","70806","225-926-4885","http://hcablazers.org/","8850 GOODWOOD BLVD
BATON ROUGE, LOUISIANA 70806
(30.442758, -91.091564)","405"
"EBR Readiness High School","High","9 to 12","Public","East Baton Rouge Parish","O","Brookstown Middle Magnet Academy","4375 E BROOKSTOWN DR","BATON ROUGE","LOUISIANA","70805","225-355-6556","https://www.ebrschools.org/schools/","4375 E BROOKSTOWN DR
BATON ROUGE, LOUISIANA 70805
(30.490406, -91.128262)","461"
"Magnolia Woods Elementary School","Elementary","Pre-K to 5","Public","East Baton Rouge Parish","O",,"760 MAXINE DR","BATON ROUGE","LOUISIANA","70808","225-769-6845","https://www.ebrschools.org/schools/","760 MAXINE DR
BATON ROUGE, LOUISIANA 70808
(30.382721, -91.123552)","492"
"Family Christian Academy","All Grades","K to 12","Private","Private","O",,"8919 WORLD MINISTRY AVE","BATON ROUGE","LOUISIANA","70810","225-768-3026","http://fcacademy.net/","8919 WORLD MINISTRY AVE
BATON ROUGE, LOUISIANA 70810
(30.383764, -91.094261)","403"
"Park Elementary School","Elementary","Pre-K to 5","Public","East Baton Rouge Parish","O",,"2700 FUQUA ST","BATON ROUGE","LOUISIANA","70802","225-344-2145","https://www.ebrschools.org/schools/","2700 FUQUA ST
BATON ROUGE, LOUISIANA 70802
(30.457537, -91.160831)","505"
"Franciscan High School","High","9 to 12","Private","Catholic","O","Redemptorist High School","4000 SAINT GERARD AVE","BATON ROUGE","LOUISIANA","70805","225-615-7479","https://www.franciscanhigh.org","4000 SAINT GERARD AVE
BATON ROUGE, LOUISIANA 70805
(30.497428, -91.148839)","789"
"Istrouma Middle Magnet School","Middle","6 to 8","Public","East Baton Rouge Parish","O",,"3730 WINBOURNE AVE","BATON ROUGE","LOUISIANA","70805","225-636-2686","https://www.ebrschools.org/schools/","3730 WINBOURNE AVE
BATON ROUGE, LOUISIANA 70805
(30.478472, -91.152268)","485"
"Idea Bridge Charter School","Elementary","K to 8","Public","Charter - EBRPSS","O",,"1500 N AIRWAY DR","BATON ROUGE","LOUISIANA","70815","225-963-5910","https://ideapublicschools.org/our-schools/idea-bridge","1500 N AIRWAY DR
BATON ROUGE, LOUISIANA 70815
(30.462504, -91.097696)","890"
"EBR Readiness Superintendent's Academy","High","9 to 12","Public","East Baton Rouge Parish","C",,"2401 72ND AVE","BATON ROUGE","LOUISIANA","70807","225-757-9679","https://www.ebrschools.org/schools/","2401 72ND AVE
BATON ROUGE, LOUISIANA 70807
(30.514451, -91.167726)","629"
"Jefferson Terrace Elementary School","Elementary","Pre-K to 5","Public","East Baton Rouge Parish","C",,"9902 CAL RD","BATON ROUGE","LOUISIANA","70809","225-293-3210","https://www.ebrschools.org/schools/","9902 CAL RD
BATON ROUGE, LOUISIANA 70809
(30.40152, -91.072108)","487"
"Helix Mentorship STEAM Academy","High","9 to 12","Public","Charter - EBRPSS","O",,"339 FLORIDA ST","BATON ROUGE","LOUISIANA","70801","225-346-5180","https://www.helixmentorshipacademy.org/index.jsp","339 FLORIDA ST
BATON ROUGE, LOUISIANA 70801
(30.449328, -91.187497)","611"
"Highland Elementary School","Elementary","Pre-K to 5","Public","East Baton Rouge Parish","O",,"280 SUNSET BLVD","BATON ROUGE","LOUISIANA","70808","225-766-1272","https://www.ebrschools.org/schools/","280 SUNSET BLVD
BATON ROUGE, LOUISIANA 70808
(30.390832, -91.150915)","444"
"McKinley Middle Academic Magnet School of Visual and Performing Arts","Middle","6 to 8","Public","East Baton Rouge Parish","O",,"1550 EDDIE ROBINSON SR DR","BATON ROUGE","LOUISIANA","70802","225-388-0089","https://www.ebrschools.org/schools/","1550 EDDIE ROBINSON SR DR
BATON ROUGE, LOUISIANA 70802
(30.434155, -91.17398)","495"
"Saint Michael the Archangel Diocesan Regional High School","High","9 to 12","Private","Catholic","O","Bishop Sullivan High School","17521 MONITOR AVE","BATON ROUGE","LOUISIANA","70817","225-753-9782","http://www.smhsbr.org/","17521 MONITOR AVE
BATON ROUGE, LOUISIANA 70817
(30.408941, -90.989064)","400"
"Greenbrier Elementary School","Elementary","Pre-K to 5","Public","East Baton Rouge Parish","O",,"12203 CANTERBURY DR","BATON ROUGE","LOUISIANA","70814","225-275-4260","https://www.ebrschools.org/schools/","12203 CANTERBURY DR
BATON ROUGE, LOUISIANA 70814
(30.494787, -91.049536)","479"
"Woodlawn Magnet High School","High","9 to 12","Public","East Baton Rouge Parish","O",,"15755 JEFFERSON HWY","BATON ROUGE","LOUISIANA","70817","225-753-1200","https://www.ebrschools.org/schools/","15755 JEFFERSON HWY
BATON ROUGE, LOUISIANA 70817
(30.372394, -91.012978)","394"
"Southern University","University",,"Public","Southern University System","O",,"803 HARDING BLVD","BATON ROUGE","LOUISIANA","70813","225-771-4500","http://www.subr.edu/","803 HARDING BLVD
BATON ROUGE, LOUISIANA 70813
(30.520387, -91.186499)","384"
"Southern University Laboratory School","All Grades","K to 12","Public","Southern University System","O",,"807 SWAN AVE","BATON ROUGE","LOUISIANA","70813","225-771-3490","http://www.sulabschool.com/","807 SWAN AVE
BATON ROUGE, LOUISIANA 70813
(30.523615, -91.18557)","628"
"Park Ridge Academic Magnet School","Elementary","Pre-K to 5","Public","City of Baker","O",,"5905 GROOM RD","BAKER","LOUISIANA","70714","225-775-5924","https://www.bakerschools.org/apps/pages/PRAMSchool","5905 GROOM RD
BAKER, LOUISIANA 70714
(30.583474, -91.133996)","534"
"Westdale Heights Academic Magnet School","Elementary","Pre-K to 5","Public","East Baton Rouge Parish","O",,"2000 COLLEGE DR","BATON ROUGE","LOUISIANA","70808","225-926-5421","https://www.ebrschools.org/schools/","2000 COLLEGE DR
BATON ROUGE, LOUISIANA 70808
(30.431241, -91.135187)","391"
"Idea University Prep","Elementary","K to 5","Public","Charter - EBRPSS","O",,"7701 PLANK RD","BATON ROUGE","LOUISIANA","70807","225-364-9805","https://ideapublicschools.org/our-schools/idea-university-prep/","7701 PLANK RD
BATON ROUGE, LOUISIANA 70807
(30.518602, -91.146421)","1011"
"Redemptorist St. Gerard School","Elementary","Pre-K to 8","Private","Catholic","O",,"3655 SAINT GERARD AVE","BATON ROUGE","LOUISIANA","70805","225-355-1437","http://rsgbr.org","3655 SAINT GERARD AVE
BATON ROUGE, LOUISIANA 70805
(30.49732, -91.152502)","375"
"Basis Baton Rouge Primary Mid City","Elementary","K to 5","Public","Charter - EBRPSS","O",,"7921 FLORIDA BLVD","BATON ROUGE","LOUISIANA","70806","225-347-0209","https://enrollbasis.com/baton-rouge-mid-city/","7921 FLORIDA BLVD
BATON ROUGE, LOUISIANA 70806
(30.451954, -91.10627)","1010"
"Arlington Preparatory Academy","High","9 to 12","Public","East Baton Rouge Parish","O","Howell Park Elementary School","6125 WINBOURNE AVE","BATON ROUGE","LOUISIANA","70805","225-766-8188","https://www.ebrschools.org/schools/","6125 WINBOURNE AVE
BATON ROUGE, LOUISIANA 70805
(30.479238, -91.128728)","483"
"Country Day School of Baton Rouge","Elementary","Pre-K","Private","Private","O",,"3131 CONGRESS BLVD","BATON ROUGE","LOUISIANA","70808","225-761-4800","http://www.countrydayschoolbr.com/","3131 CONGRESS BLVD
BATON ROUGE, LOUISIANA 70808
(30.414203, -91.136229)","898"
"Country Day School of Baton Rouge","Elementary","Pre-K","Private","Private","O",,"7424 HIGHLAND RD","BATON ROUGE","LOUISIANA","70808","225-766-1159","http://www.countrydayschoolbr.com/","7424 HIGHLAND RD
BATON ROUGE, LOUISIANA 70808
(30.37744, -91.137619)","897"
"Woodlawn Middle Magnet School","Middle","6 to 8","Public","East Baton Rouge Parish","O",,"14939 TIGER BEND RD","BATON ROUGE","LOUISIANA","70817","225-751-0436","https://www.ebrschools.org/schools/","14939 TIGER BEND RD
BATON ROUGE, LOUISIANA 70817
(30.391292, -91.01603)","546"
"Ryan Elementary School","Elementary","Pre-K to 5","Public","East Baton Rouge Parish","O",,"10337 ELM GROVE GARDEN DR","BATON ROUGE","LOUISIANA","70807","225-775-2407","https://www.ebrschools.org/schools/","10337 ELM GROVE GARDEN DR
BATON ROUGE, LOUISIANA 70807
(30.539504, -91.169533)","537"
"Capitol  Avenue School (Historic)","Elementary",,"Public","East Baton Rouge Parish","C",,,,,,,,,"464"
"Country Day School of Baton Rouge","Elementary","Pre-K","Private","Private","O",,"4455 NORTH BLVD","BATON ROUGE","LOUISIANA","70806","225-928-4042","http://www.countrydayschoolbr.com/","4455 NORTH BLVD
BATON ROUGE, LOUISIANA 70806
(30.448567, -91.143788)","575"
"Baton Rouge University Preparatory Academy","Elementary","K to 5","Public","Charter","C",,"7802 HOWELL BLVD","BATON ROUGE","LOUISIANA","70807","225-364-9805","https://www.upelementary.org","7802 HOWELL BLVD
BATON ROUGE, LOUISIANA 70807
(30.518328, -91.154671)","869"
"Country Day School of Baton Rouge","Elementary","Pre-K","Private","Private","O",,"3743 SILVERSIDE DR","BATON ROUGE","LOUISIANA","70808","225-767-5259","http://www.countrydayschoolbr.com/","3743 SILVERSIDE DR
BATON ROUGE, LOUISIANA 70808
(30.394536, -91.112925)","896"
"CSAL Charter Middle School","Middle","6 to 8","Public","Charter - EBRPSS","O",,"1555 MADISON AVE","BATON ROUGE","LOUISIANA","70802","225-448-5399","https://mcs.csalcharterschools.org","1555 MADISON AVE
BATON ROUGE, LOUISIANA 70802
(30.467284, -91.173759)","502"
"Helix Legal Academy","Middle","6 to 7","Public","Charter - EBRPSS","O",,"339 FLORIDA ST","BATON ROUGE","LOUISIANA","70801","225-346-5180","https://helixlegalacademy.org","339 FLORIDA ST
BATON ROUGE, LOUISIANA 70801
(30.449328, -91.187497)","1012"
"Wildwood Elementary School","Elementary","Pre-K to 5","Public","East Baton Rouge Parish","O",,"444 HALFWAY TREE RD","BATON ROUGE","LOUISIANA","70810","225-766-6002","https://www.ebrschools.org/schools/","444 HALFWAY TREE RD
BATON ROUGE, LOUISIANA 70810
(30.371048, -91.11731)","438"
"Istrouma Magnet High School","High","9 to 12","Public","East Baton Rouge Parish","O",,"3730 WINBOURNE AVE","BATON ROUGE","LOUISIANA","70805","225-636-2686","https://www.ebrschools.org/schools/","3730 WINBOURNE AVE
BATON ROUGE, LOUISIANA 70805
(30.478472, -91.152268)","484"
"Claiborne Elementary School","Elementary","Pre-K to 5","Public","East Baton Rouge Parish","O",,"4707 DENHAM ST","BATON ROUGE","LOUISIANA","70805","225-357-9712","https://www.ebrschools.org/schools/","4707 DENHAM ST
BATON ROUGE, LOUISIANA 70805
(30.504619, -91.142845)","471"
"Riveroaks Elementary School","Elementary","Pre-K to 5","Public","East Baton Rouge Parish","O",,"950 FONTAINEBLEAU DR","BATON ROUGE","LOUISIANA","70819","225-275-4600","https://www.ebrschools.org/schools/","950 FONTAINEBLEAU DR
BATON ROUGE, LOUISIANA 70819
(30.454182, -91.021918)","415"
"LaBelle Aire Elementary School","Elementary","Pre-K to 5","Public","East Baton Rouge Parish","O",,"12255 TAMS DR","BATON ROUGE","LOUISIANA","70815","225-275-7480","https://www.ebrschools.org/schools/","12255 TAMS DR
BATON ROUGE, LOUISIANA 70815
(30.466657, -91.046249)","414"
"CSAL Elementary School","Elementary","K to 5","Public","Charter - EBRPSS","O",,"1555 MADISON AVE","BATON ROUGE","LOUISIANA","70802","225-448-5399","https://ces.csalcharterschools.org","1555 MADISON AVE
BATON ROUGE, LOUISIANA 70802
(30.467284, -91.173759)","971"
"Woodlawn Elementary School","Elementary","Pre-K to 5","Public","East Baton Rouge Parish","O",,"8160 ANTIOCH RD","BATON ROUGE","LOUISIANA","70817","225-756-3681","https://www.ebrschools.org/schools/","8160 ANTIOCH RD
BATON ROUGE, LOUISIANA 70817
(30.378437, -91.007387)","588"
"Westminster Elementary School","Elementary","Pre-K to 5","Public","East Baton Rouge Parish","O",,"8935 WESTMINSTER DR","BATON ROUGE","LOUISIANA","70809","225-927-2930","https://www.ebrschools.org/schools/","8935 WESTMINSTER DR
BATON ROUGE, LOUISIANA 70809
(30.409599, -91.092016)","430"
"Parkview Elementary School","Elementary","Pre-K to 5","Public","East Baton Rouge Parish","O",,"5660 PARKFOREST DR","BATON ROUGE","LOUISIANA","70816","225-753-5615","https://www.ebrschools.org/schools/","5660 PARKFOREST DR
BATON ROUGE, LOUISIANA 70816
(30.400361, -91.044148)","432"
"Wedgewood Elementary School","Elementary","Pre-K to 5","Public","East Baton Rouge Parish","O",,"2330 ASPENWOOD DR","BATON ROUGE","LOUISIANA","70816","225-753-7301","https://www.ebrschools.org/schools/","2330 ASPENWOOD DR
BATON ROUGE, LOUISIANA 70816
(30.435766, -91.012959)","426"
"South Baton Rouge Charter Academy","Elementary","PK to 8","Public","Charter - EBRPSS","O",,"9211 PARKWAY DR","BATON ROUGE","LOUISIANA","70810","225-349-7489","http://www.sbrcharter.org/","9211 PARKWAY DR
BATON ROUGE, LOUISIANA 70810
(30.354827, -91.114461)","632"
"Broadmoor Elementary School","Elementary","Pre-K to 5","Public","East Baton Rouge Parish","O",,"9650 GOODWOOD BLVD","BATON ROUGE","LOUISIANA","70815","225-925-0343","https://www.ebrschools.org/schools/","9650 GOODWOOD BLVD
BATON ROUGE, LOUISIANA 70815
(30.443621, -91.078815)","460"
"Brownfields Elementary School","Elementary","Pre-K to 5","Public","East Baton Rouge Parish","O",,"11615 ELLEN DR","BATON ROUGE","LOUISIANA","70811","225-775-3527","https://www.ebrschools.org/schools/","11615 ELLEN DR
BATON ROUGE, LOUISIANA 70811
(30.550716, -91.130505)","462"
"Second Chance Academy College","All Grades","K to 12","Private","Private","C",,"6748 RENOIR AVE","BATON ROUGE","LOUISIANA","70806","225-364-2442","http://www.sca-br.com","6748 RENOIR AVE
BATON ROUGE, LOUISIANA 70806
(30.461004, -91.121858)","583"
"CSAL Madison Preparatory Academy","High","9 to 12","Public","Charter","O",,"2269 N 17TH ST","BATON ROUGE","LOUISIANA","70802","225-448-5399","https://mpa.csalcharterschools.org","2269 N 17TH ST
BATON ROUGE, LOUISIANA 70802
(30.469685, -91.172469)","970"
"University View Academy","All Grades","K to 12","Public","Charter - Virtual","O",,"3113 VALLEY CREEK DR","BATON ROUGE","LOUISIANA","70808","225-421-2900","https://www.universityview.academy","3113 VALLEY CREEK DR
BATON ROUGE, LOUISIANA 70808
(30.419212, -91.137592)","730"
"EBR Readiness Middle Campus","Middle","6 to 8","Public","East Baton Rouge Parish","O","Beechwood Elementary School","2555 DESOTO DR","BATON ROUGE","LOUISIANA","70807","225-775-4285","https://www.ebrschools.org/schools/","2555 DESOTO DR
BATON ROUGE, LOUISIANA 70807
(30.554485, -91.164291)","516"
"Emerge School for Autism","Elementary","K to 5","Public","Charter - EBRPSS","O",,"7784 INNOVATION PARK DR","BATON ROUGE","LOUISIANA","70820","225-343-4232","https://www.emergeschool.org","7784 INNOVATION PARK DR
BATON ROUGE, LOUISIANA 70820
(30.362246, -91.141919)","762"
"Capitol Middle Magnet School","Middle","6 to 8","Public","East Baton Rouge Parish","O",,"5100 GREENWELL SPRINGS RD","BATON ROUGE","LOUISIANA","70806","225-231-9292","https://www.ebrschools.org/schools/","5100 GREENWELL SPRINGS RD
BATON ROUGE, LOUISIANA 70806
(30.462555, -91.138681)","466"
"Park Forest Middle Creative Sciences and Art Magnet School","Middle","6 to 8","Public","East Baton Rouge Parish","O",,"3760 ALETHA DR","BATON ROUGE","LOUISIANA","70814","225-275-6650","https://www.ebrschools.org/schools/","3760 ALETHA DR
BATON ROUGE, LOUISIANA 70814
(30.483992, -91.074261)","409"
"Mayfair Laboratory School","Elementary","K to 8","Public","East Baton Rouge Parish","O",,"9880 HYACINTH AVE","BATON ROUGE","LOUISIANA","70810","225-761-7849","https://www.ebrschools.org/schools/","9880 HYACINTH AVE
BATON ROUGE, LOUISIANA 70810
(30.380864, -91.102256)","493"
"Winbourne Elementary School","Elementary","Pre-K to 5","Public","East Baton Rouge Parish","O",,"4503 WINBOURNE AVE","BATON ROUGE","LOUISIANA","70805","225-355-4446","https://www.ebrschools.org/schools/","4503 WINBOURNE AVE
BATON ROUGE, LOUISIANA 70805
(30.478723, -91.143926)","393"
"Glen Oaks Magnet High School","High","6 to 12","Public","East Baton Rouge Parish","O",,"6650 CEDAR GROVE DR","BATON ROUGE","LOUISIANA","70812","225-356-4306","https://www.ebrschools.org/schools/","6650 CEDAR GROVE DR
BATON ROUGE, LOUISIANA 70812
(30.511712, -91.121858)","476"
"Basis Baton Rouge Materra Campus","Elementary","K to 8","Public","Charter - EBRPSS","O",,"7550 MC CALL DR","BATON ROUGE","LOUISIANA","70817",,"https://www.basised.com/baton-rouge/","7550 MC CALL DR
BATON ROUGE, LOUISIANA 70817","889"
"Northdale Academy","High","6 to 12","Public","East Baton Rouge Parish","O","Red Oaks Elementary School","10755 CLETUS DR","BATON ROUGE","LOUISIANA","70815","225-272-2036","https://www.ebrschools.org/schools/","10755 CLETUS DR
BATON ROUGE, LOUISIANA 70815
(30.468609, -91.064999)","368"
"Southdowns Pre-K Center","Elementary","Pre-K to K","Public","East Baton Rouge Parish","O",,"2050 HOOD AVE","BATON ROUGE","LOUISIANA","70808","225-346-1127","https://www.ebrschools.org/schools/","2050 HOOD AVE
BATON ROUGE, LOUISIANA 70808
(30.417326, -91.151846)","383"
"EBR Readiness Elementary Campus","Elementary","K to 5","Public","East Baton Rouge Parish","O","Greenville Elementary School","1645 N FOSTER DR","BATON ROUGE","LOUISIANA","70802","225-930-5637","https://www.ebrschools.org/schools/","1645 N FOSTER DR
BATON ROUGE, LOUISIANA 70802
(30.463011, -91.139562)","480"
"Inspire Charter Academy","Elementary","K to 8","Public","Charter - EBRPSS","O",,"5454 N FOSTER DR","BATON ROUGE","LOUISIANA","70805","225-356-3936","https://www.nhaschools.com/schools/Inspire-Charter-Academy/en","5454 N FOSTER DR
BATON ROUGE, LOUISIANA 70805
(30.498455, -91.140967)","589"
"McKanstry Preparatory School","Elementary","PK to 6","Private","Private","C",,"10022 GREENWELL SPRINGS RD","BATON ROUGE","LOUISIANA","70814","225-272-0730","http://succee6.wix.com/mckanstryprepschool","10022 GREENWELL SPRINGS RD
BATON ROUGE, LOUISIANA 70814
(30.49038, -91.073067)","758"
"Zachary Career and Technical Center at Port Hudson","High",,"Public","Zachary Community","C","Port Hudson Elementary School","205 FLONACHER RD","ZACHARY","LOUISIANA","70791","225-658-7381",,"205 FLONACHER RD
ZACHARY, LOUISIANA 70791
(30.67112, -91.255586)","508"
"Saint Thomas More Catholic School","Elementary","Pre-K to 8","Private","Catholic","O",,"11400 SHERBROOK DR","BATON ROUGE","LOUISIANA","70815","225-275-2820","http://www.stmbr.org/","11400 SHERBROOK DR
BATON ROUGE, LOUISIANA 70815
(30.45088, -91.055821)","379"
"Louisiana State University And A&M College","University",,"Public","Louisiana State University System","O",,"3810 W LAKESHORE DR","BATON ROUGE","LOUISIANA","70808",,"http://www.lsu.edu/","3810 W LAKESHORE DR
BATON ROUGE, LOUISIANA 70808
(30.414318, -91.168658)","491"
"Runnels School","Elementary","1 to 8","Private","Private","C",,"17255 S HARRELL'S FERRY RD","BATON ROUGE","LOUISIANA","70816",,"http://www.runnels.org/","17255 S HARRELL'S FERRY RD
BATON ROUGE, LOUISIANA 70816
(30.423721, -90.995059)","399"
"Trinity Christian Academy","All Grades","4 to 12","Private","Private","C",,"4315 CHURCH ST","ZACHARY","LOUISIANA","70791","225-228-0750","http://www.tcazachary.org","4315 CHURCH ST
ZACHARY, LOUISIANA 70791
(30.650423, -91.158676)","763"
"Glen Oaks Middle A Redesign School","Middle","6 to 8","Public","Charter","O","Zion City School","5959 CADILLAC ST","BATON ROUGE","LOUISIANA","70811","225-771-8128","https://www.redesignschoolslouisiana.org","5959 CADILLAC ST
BATON ROUGE, LOUISIANA 70811
(30.518005, -91.13004)","397"
"Capitol High School","High",,"Public","Charter","O",,"1000 N 23RD ST","BATON ROUGE","LOUISIANA","70802","225-239-7506","https://capitolhighbr.org","1000 N 23RD ST
BATON ROUGE, LOUISIANA 70802
(30.459306, -91.164953)","465"
"Geo Prep Academy of Baton Rouge","Elementary","K to 7","Public","Charter","O",,"2311 N SHERWOOD FOREST DR","BATON ROUGE","LOUISIANA","70815","225-927-1500","http://geoprep.org/","2311 N SHERWOOD FOREST DR
BATON ROUGE, LOUISIANA 70815
(30.469773, -91.058082)","749"
"Delmont Pre-K/K Center","Elementary","Pre-K to K","Public","East Baton Rouge Parish","O",,"5300 DOUGLAS AVE","BATON ROUGE","LOUISIANA","70805","225-355-2106","https://www.ebrschools.org/schools/","5300 DOUGLAS AVE
BATON ROUGE, LOUISIANA 70805
(30.49813, -91.160852)","470"
"Saint Alphonsus Catholic School","Elementary","Pre-K to 8","Private","Catholic","O",,"13940 GREENWELL SPRINGS RD","GREENWELL SPRINGS","LOUISIANA","70739","225-261-5299","http://www.stalphonsusbr.org/","13940 GREENWELL SPRINGS RD
GREENWELL SPRINGS, LOUISIANA 70739
(30.509035, -91.031243)","578"
"Saint Francis Xavier Catholic School","Elementary","Pre-K to 8","Private","Catholic","O",,"1150 S 12TH ST","BATON ROUGE","LOUISIANA","70802","225-387-6639","https://www.sfxbr.org","1150 S 12TH ST
BATON ROUGE, LOUISIANA 70802
(30.436652, -91.176526)","538"
"Lanier Elementary A Redesign School","Elementary","Pre-K to 5","Public","Charter","O","Lanier Elementary School","4705 LANIER DR","BATON ROUGE","LOUISIANA","70812","225-308-3273","https://www.redesignschoolslouisiana.org","4705 LANIER DR
BATON ROUGE, LOUISIANA 70812
(30.49384, -91.107467)","489"
"Baker High School","High","9 to 12","Public","City of Baker","O",,"3200 GROOM RD","BAKER","LOUISIANA","70714","225-775-1259","https://www.bakerschools.org/apps/pages/BakerHighSchool","3200 GROOM RD
BAKER, LOUISIANA 70714
(30.587966, -91.164618)","513"
"Geo Prep Mid City","Elementary","K to 8","Public","Charter","O",,"1900 LOBDELL BLVD","BATON ROUGE","LOUISIANA","70806","225-236-9333","https://geoprepmc.org/","1900 LOBDELL BLVD
BATON ROUGE, LOUISIANA 70806
(30.464614, -91.117769)","769"
"Trinity Lutheran School","Elementary","Pre-K to 8","Private","Private","O",,"15160 S HARRELL'S FERRY RD","BATON ROUGE","LOUISIANA","70816","225-272-3110","http://tlcbr.org/","15160 S HARRELL'S FERRY RD
BATON ROUGE, LOUISIANA 70816
(30.42764, -91.017017)","572"
"Baton Rouge Community College - Ardendale Campus","College",,"Public","Louisiana Community and Technical College System","O",,"2115 LOBDELL BLVD","BATON ROUGE","LOUISIANA","70806","1-866-217-9823","http://www.mybrcc.edu/","2115 LOBDELL BLVD
BATON ROUGE, LOUISIANA 70806
(30.469955, -91.121897)","894"
"Crestworth Elementary School","Elementary","Pre-K to 5","Public","East Baton Rouge Parish","O","Crestworth Learning Academy","10650 AVENUE F","BATON ROUGE","LOUISIANA","70807","225-778-1317","https://www.ebrschools.org/schools/","10650 AVENUE F
BATON ROUGE, LOUISIANA 70807
(30.541306, -91.195664)","522"
"EBR Career and Technical Education Center","High","9 to 12","Public","East Baton Rouge Parish","O",,"2101 LOBDELL BLVD","BATON ROUGE","LOUISIANA","70806","225-412-1663","https://www.ebrschools.org/schools/","2101 LOBDELL BLVD
BATON ROUGE, LOUISIANA 70806
(30.46993, -91.121879)","892"
"Democracy Prep Louisiana Charter School","All Grades","K to 8","Public","Charter","O",,"4055 PRESCOTT RD","BATON ROUGE","LOUISIANA","70805","225-372-2037","http://dpbrms.democracyprep.org/","4055 PRESCOTT RD
BATON ROUGE, LOUISIANA 70805
(30.487427, -91.146232)","509"
"Advantage Charter Academy","Elementary","K to 8","Public","Charter","O",,"14740 PLANK RD","BAKER","LOUISIANA","70714","225-774-3111","https://www.nhaschools.com/schools/Advantage-Charter-Academy/en","14740 PLANK RD
BAKER, LOUISIANA 70714
(30.579086, -91.12705)","731"
"Louisiana New School Academy","All Grades","4 to 12","Private","Private","O",,"1900 NORTH BLVD","BATON ROUGE","LOUISIANA","70806","225-344-8900","http://www.lanewschoolacademy.com","1900 NORTH BLVD
BATON ROUGE, LOUISIANA 70806
(30.447789, -91.16904)","757"
"EBR Virtual Academy","All Grades","Pre-K to 12","Public","East Baton Rouge Parish","O","South Boulevard Elementary","802 MAYFLOWER ST","BATON ROUGE","LOUISIANA","70802","225-922-5595","http://schools.ebrschools.org/virtualacademy/","802 MAYFLOWER ST
BATON ROUGE, LOUISIANA 70802
(30.440913, -91.181876)","455"
"Cypress Heights Academy","Elementary","K to 8","Private","Private","C",,"10420 BARINGER FOREMAN RD","BATON ROUGE","LOUISIANA","70809","225-755-1558","http://www.cypressheights.org/","10420 BARINGER FOREMAN RD
BATON ROUGE, LOUISIANA 70809
(30.354506, -91.027579)","754"
"Geo Next Generation High School","High","9 to 12","Public","Charter","O",,"2355 N SHERWOOD FOREST DR","BATON ROUGE","LOUISIANA","70815","225-314-2044","http://geonextgenerationhighschool.org/","2355 N SHERWOOD FOREST DR
BATON ROUGE, LOUISIANA 70815
(30.470252, -91.05808)","909"
"Crestworth Elementary School","Elementary","Pre-K to 5","Public","East Baton Rouge Parish","C",,"11200 AVENUE F","BATON ROUGE","LOUISIANA","70807","225-778-1317","https://www.ebrschools.org/schools/","11200 AVENUE F
BATON ROUGE, LOUISIANA 70807
(30.543596, -91.1965)","521"
"Collegiate Baton Rouge","High","9 to 12","Public","Charter","O",,"282 LOBDELL BLVD","BATON ROUGE","LOUISIANA","70806","225-892-6962","https://cbr.collegiateacademies.org","282 LOBDELL BLVD
BATON ROUGE, LOUISIANA 70806
(30.453117, -91.11204)","910"
"Camelot College","College",,"Private","Private","O",,"2618 WOODDALE BLVD","BATON ROUGE","LOUISIANA","70805","225-928-3005","http://www.camelotcollege.com/","2618 WOODDALE BLVD
BATON ROUGE, LOUISIANA 70805
(30.473767, -91.115993)","750"
"Baker Middle School","Middle","6 to 8","Public","City of Baker","O","Bakerfield Elementary School","2550 SOUTH ST","BAKER","LOUISIANA","70714","225-775-0550","https://www.bakerschools.org/apps/pages/BakerMiddleSchool","2550 SOUTH ST
BAKER, LOUISIANA 70714
(30.5809, -91.175819)","515"
"Dalton Elementary A Redesign School","Elementary","Pre-K to 5","Public","Charter","O","Celerity Dalton Charter School","3605 ONTARIO ST","BATON ROUGE","LOUISIANA","70805","225-357-0244","https://www.redesignschoolslouisiana.org","3605 ONTARIO ST
BATON ROUGE, LOUISIANA 70805
(30.475586, -91.153762)","469"
"Victory Academy","Elementary","Pre-K to 8","Private","Private","O",,"3953 N FLANNERY RD","BATON ROUGE","LOUISIANA","70814","225-272-8339","https://www.vcawarriors.org","3953 N FLANNERY RD
BATON ROUGE, LOUISIANA 70814
(30.487374, -91.034571)","406"
"Louisiana School for the Deaf","All Grades","Pre-K to 12","Public","Louisiana Board of Elementary and Secondary Education","O",,"2888 BRIGHTSIDE DR","BATON ROUGE","LOUISIANA","70820","225-769-8160","http://lalsd.org/","2888 BRIGHTSIDE DR
BATON ROUGE, LOUISIANA 70820
(30.389786, -91.191459)","441"
"Baker Middle School","Middle","6 to 8","Public","City of Baker","C",,"5903 GROOM RD","BAKER","LOUISIANA","70714","225-775-9750","https://www.bakerschools.org/apps/pages/BakerMiddleSchool","5903 GROOM RD
BAKER, LOUISIANA 70714
(30.583942, -91.135033)","514"
"Baker Heights Elementary School","Elementary","Pre-K to 1","Public","City of Baker","O",,"3750 HARDING ST","BAKER","LOUISIANA","70714","225-775-1493","https://www.bakerschools.org/apps/pages/BHESchool","3750 HARDING ST
BAKER, LOUISIANA 70714
(30.583881, -91.160038)","512"
"Runnels Pre-School","Preschool","Pre-K to K","Private","Private","C",,"6455 JEFFERSON HWY","BATON ROUGE","LOUISIANA","70806",,"http://www.runnels.org/","6455 JEFFERSON HWY
BATON ROUGE, LOUISIANA 70806
(30.435156, -91.123493)","709"
"Baton Rouge College Preparatory","Middle","5 to 7","Public","Charter","O",,"5300 MONARCH AVE","BATON ROUGE","LOUISIANA","70811","225-771-8128","http://brcollegeprep.org/","5300 MONARCH AVE
BATON ROUGE, LOUISIANA 70811
(30.51576, -91.137084)","810"
"Jehovah-Jireh Christian Academy","All Grades","K to 12","Private","Private","O",,"1771 LOBDELL BLVD","BATON ROUGE","LOUISIANA","70806","225-932-2357","http://jjcacademy.org/","1771 LOBDELL BLVD
BATON ROUGE, LOUISIANA 70806
(30.464426, -91.117839)","582"
"Martin Luther King Junior Christian Academy","Elementary","Pre-K to 8","Private","Private","O",,"4295 PRESCOTT CT","BATON ROUGE","LOUISIANA","70805","225-356-7407",,"4295 PRESCOTT CT
BATON ROUGE, LOUISIANA 70805
(30.48942, -91.138877)","530"
"Zachary High School","High",,"Public","Zachary Community","O",,"4100 BRONCO LN","ZACHARY","LOUISIANA","70791","225-654-2776","http://www.zacharyhigh.org/","4100 BRONCO LN
ZACHARY, LOUISIANA 70791
(30.650655, -91.160445)","545"
"Southeastern Louisiana University School of Nursing","University",,"Public","University of Louisiana System","O",,"7900 MARGARET ANN AVE","BATON ROUGE","LOUISIANA","70809","225-765-2324","http://southeastern.edu/acad_research/depts/nurs/","7900 MARGARET ANN AVE
BATON ROUGE, LOUISIANA 70809
(30.403169, -91.102669)","429"
"Zachary Christian Academy","All Grades","K to 12","Private","Private","O",,"11950 MILLDALE RD","ZACHARY","LOUISIANA","70791","225-570-2539","https://www.milldale.org/zachary-christian-academy","11950 MILLDALE RD
ZACHARY, LOUISIANA 70791
(30.664066, -91.042233)","949"
"Kenilworth Science and Technology School","Middle","6 to 8","Public","Charter","O",,"7600 BOONE DR","BATON ROUGE","LOUISIANA","70808","225-766-8111","https://www.kenilworthschool.org","7600 BOONE DR
BATON ROUGE, LOUISIANA 70808
(30.381863, -91.13174)","442"
"Wilma C. Montgomery Education Center","Adult",,"Public","East Baton Rouge Parish","C",,"4050 TUNICA ST","BATON ROUGE","LOUISIANA","70805","225-355-0388","https://www.ebrschools.org/schools/","4050 TUNICA ST
BATON ROUGE, LOUISIANA 70805
(30.484868, -91.151581)","498"
"Franciscan Missionaries of Our Lady University","University",,"Private","Private","O","Our Lady of the Lake College","5414 BRITTANY DR","BATON ROUGE","LOUISIANA","70808","225-768-1700","https://franu.edu","5414 BRITTANY DR
BATON ROUGE, LOUISIANA 70808
(30.400007, -91.110098)","852"
"Baton Rouge Community College - Central Campus","College",,"Public","Louisiana Community and Technical College System","O",,"10700 HOOPER RD","CENTRAL","LOUISIANA","70818","1-866-217-9823","http://www.mybrcc.edu/","10700 HOOPER RD
CENTRAL, LOUISIANA 70818
(30.541365, -91.067581)","895"
