"the_geom","id","description","facility_type","agency","owner","full_address","city","state","zip","phone_number","website","address_id"
"POINT (-91.165802436764 30.456998733215)","419","LWC Workforce Development Center","STATE OFFICES","STATE OF LOUISIANA","STATE","950 N 22ND ST","BATON ROUGE","LOUISIANA","70802",,,"126096"
"POINT (-91.17939972015 30.449964392821)","131","Department of Development Permits-Inspections","PUBLIC WORKS","DEPARTMENT OF DEVELOPMENT","CITY/PARISH","300 N 10TH ST","BATON ROUGE","LOUISIANA","70802",,,"136099"
"POINT (-91.150266600659 30.522253025443)","93","BRFD Administration And Training Center","FIRE PROTECTION","BATON ROUGE FIRE DEPARTMENT","CITY/PARISH","8011 MERLE GUSTAFSON DR","BATON ROUGE","LOUISIANA","70807",,,"114792"
"POINT (-91.066028104189 30.534967971673)","122","Central FD Station 35","FIRE PROTECTION","CENTRAL VOLUNTEER FIRE DEPARTMENT","CITY/PARISH","10626 LOVETT RD","CENTRAL","LOUISIANA","70818",,,"143067"
"POINT (-91.043065796869 30.560511991296)","3","EBRSO Central Substation","POLICE PROTECTION","EBR SHERIFFS OFFICE","CITY/PARISH","13016 GURNEY RD","CENTRAL","LOUISIANA","70818","225-389-5176",,"143079"
"POINT (-91.084004648105 30.479735846456)","8","BRFD Station 5","FIRE PROTECTION","BATON ROUGE FIRE DEPARTMENT","CITY/PARISH","3215 MONTERREY DR","BATON ROUGE","LOUISIANA","70814",,,"70128"
"POINT (-91.007061486397 30.388391741162)","324","St George FD Station 63","FIRE PROTECTION","ST GEORGE VOLUNTEER FIRE DEPARTMENT","CITY/PARISH","7027 ANTIOCH RD","BATON ROUGE","LOUISIANA","70817",,,"107951"
"POINT (-91.156518745557 30.532729121221)","141","Baton Rouge Metropolitan Airport","SPECIAL FACILITY","BATON ROUGE METROPOLITAN AIRPORT AUTHORITY","CITY/PARISH","9430 JACKIE COCHRAN DR","BATON ROUGE","LOUISIANA","70807",,,"138274"
"POINT (-91.067058874379 30.389835508346)","370","Industriplex Park","BREC PARK","BREC","BREC","10777 INDUSTRIPLEX BLVD","BATON ROUGE","LOUISIANA","70809","225-272-9200","http://www.brec.org/index.cfm/park/Industriplex","130220"
"POINT (-91.189335716634 30.446472823515)","331","Old State Capitol","SPECIAL FACILITY","STATE OF LOUISIANA","STATE","100 NORTH BLVD","BATON ROUGE","LOUISIANA","70802",,,"13"
"POINT (-90.997890118056 30.383035745695)","245","Woodlawn Acres Park","BREC PARK","BREC","BREC","16600 WOODLAWN ACRES AVE","BATON ROUGE","LOUISIANA","70817","225-272-9200","http://www.brec.org/index.cfm/park/WoodlawnAcres","102428"
"POINT (-91.194586607771 30.533606164259)","353","Mills Avenue Park","BREC PARK","BREC","BREC","401 MILLS AVE","BATON ROUGE","LOUISIANA","70807","225-778-1288","http://www.brec.org/index.cfm/park/MillsAvenue","248221"
"POINT (-91.103320111808 30.449409544829)","393","LA State Fire Marshal","PUBLIC SAFETY","STATE OF LOUISIANA","STATE","8181 INDEPENDENCE BLVD","BATON ROUGE","LOUISIANA","70806",,,"133317"
"POINT (-91.156305437219 30.648078996899)","98","Zachary Police Headquarters","POLICE PROTECTION","CITY OF ZACHARY","ZACHARY","4510 MAIN ST","ZACHARY","LOUISIANA","70791","225-654-9393","http://www.zacharypd.org/","175529"
"POINT (-90.986917424325 30.551665642149)","269","Kinchloe Lloyd Baker Park","BREC PARK","BREC","BREC","20821 GREENWELL SPRINGS RD","GREENWELL SPRINGS","LOUISIANA","70739","225-272-9200","http://www.brec.org/index.cfm/park/KinchloeLloydBaker","52886"
"POINT (-91.116317410264 30.50007576039)","369","Dover Street Park","BREC PARK","BREC","BREC","7300 DOVER ST","BATON ROUGE","LOUISIANA","70812","225-272-9200","http://www.brec.org/index.cfm/park/DoverStreet","110015"
"POINT (-91.076074869286 30.373804688959)","10","EMS Station 11","EMS","EMERGENCY MEDICAL SERVICES","CITY/PARISH","8140 YMCA PLAZA DR","BATON ROUGE","LOUISIANA","70810","225-389-5155",,"115743"
"POINT (-91.072842710051 30.35041982292)","202","Highland Road Community Park","BREC PARK","BREC","BREC","14024 HIGHLAND RD","BATON ROUGE","LOUISIANA","70810","225-767-4003","http://brec.org/index.cfm/park/HighlandRoadCommunityPark","25999"
"POINT (-91.17687433347 30.577746724363)","358","South Magnolia Park","BREC PARK","BREC","BREC","2409 S MAGNOLIA DR","BAKER","LOUISIANA","70714","225-272-9200","http://www.brec.org/index.cfm/park/SouthMagnolia","161238"
"POINT (-91.130410874114 30.441331311824)","167","EMS Station 14-9","EMS","EMERGENCY MEDICAL SERVICES","CITY/PARISH","5758 CLAYCUT RD","BATON ROUGE","LOUISIANA","70806","225-389-5155",,"159183"
"POINT (-91.160294661324 30.490969383086)","364","Department of Maintenance","PUBLIC WORKS","DEPARTMENT OF MAINTENANCE","CITY/PARISH","4445 PLANK RD","BATON ROUGE","LOUISIANA","70805",,,"217345"
"POINT (-91.103914678235 30.482879230197)","349","Thomas Maher Park","BREC PARK","BREC","BREC","8200 OAK VIEW DR","BATON ROUGE","LOUISIANA","70814","225-272-9200","http://www.brec.org/index.cfm/park/ThomasMaher","116181"
"POINT (-91.162601827054 30.568557045174)","360","Greenwood Community Park","BREC PARK","BREC","BREC","13350 SCOTLAND-ZACHARY HWY","BAKER","LOUISIANA","70714","225-620-0500","http://brec.org/index.cfm/park/GreenwoodCommunityPark","179550"
"POINT (-91.170053638216 30.467057817106)","34","Madison Avenue Park","BREC PARK","BREC","BREC","1820 MADISON AVE","BATON ROUGE","LOUISIANA","70802","225-272-9200","http://www.brec.org/index.cfm/park/MadisonAvenue","45566"
"POINT (-91.186160781159 30.471755264252)","80","Department of Environmental Services","PUBLIC WORKS","DEPARTMENT OF ENVIRONMENTAL SERVICES","CITY/PARISH","345 CHIPPEWA ST","BATON ROUGE","LOUISIANA","70805",,,"144066"
"POINT (-91.082342174709 30.412655507432)","451","LA State Police Retirement System","STATE OFFICES","STATE OF LOUISIANA","STATE","9224 JEFFERSON HWY","BATON ROUGE","LOUISIANA","70809",,,"123425"
"POINT (-91.190412688955 30.446268961735)","219","Louisiana Arts and Sciences Museum","SPECIAL FACILITY","STATE OF LOUISIANA","STATE","100 S RIVER RD, STE A","BATON ROUGE","LOUISIANA","70802",,,"14"
"POINT (-91.156412444208 30.451344826324)","36","Kernan Avenue Park","BREC PARK","BREC","BREC","333 KERNAN AVE","BATON ROUGE","LOUISIANA","70802","225-381-0067","http://brec.org/index.cfm/park/KernanAvenue","71555"
"POINT (-91.198390517042 30.650154772184)","381","Zachary Community Park","BREC PARK","BREC","BREC","20055 OLD SCENIC HWY","ZACHARY","LOUISIANA","70791","225-654-4261","http://www.brec.org/index.cfm/park/ZacharyCommunityPark","161229"
"POINT (-91.164699322967 30.449632943447)","138","Capital Area Transit System","MUNICIPAL OFFICES","CAPITAL AREA TRANSIT SYSTEM","CITY/PARISH","2250 FLORIDA ST","BATON ROUGE","LOUISIANA","70802",,,"55816"
"POINT (-91.165406882898 30.487799207184)","38","Tuscarora Street Park","BREC PARK","BREC","BREC","4200 TUSCARORA ST","BATON ROUGE","LOUISIANA","70805","225-272-9200","http://www.brec.org/index.cfm/park/TuscaroraStreet","81107"
"POINT (-91.156951252615 30.47287334162)","41","Acadian Thruway Park","BREC PARK","BREC","BREC","2751 N ACADIAN THWY W","BATON ROUGE","LOUISIANA","70805","225-272-9200","http://www.brec.org/index.cfm/park/AcadianThruway","130065"
"POINT (-91.104755020796 30.394350952517)","238","Homewood Aquatic Center Senior Center","SENIOR CENTER","COUNCIL ON AGING","CITY/PARISH","3653 GRANADA DR","BATON ROUGE","LOUISIANA","70810",,"http://www.ebrcoa.org/","75406"
"POINT (-91.140991695547 30.448952328531)","218","EBRP Housing Authority","MUNICIPAL OFFICES","EBRP HOUSING AUTHORITY","CITY/PARISH","4731 NORTH BLVD","BATON ROUGE","LOUISIANA","70806",,,"86262"
"POINT (-91.235109145629 30.679026230552)","272","Beaver Creek Park And Golf Course","BREC PARK","BREC","BREC","1100 PORT HUDSON-PLAINS RD","ZACHARY","LOUISIANA","70791","225-658-6338","http://golf.brec.org/courses/beaver-creek/","8230"
"POINT (-91.158409899709 30.455800102127)","37","Mary J. Lands Park","BREC PARK","BREC","BREC","802 N 30TH ST","BATON ROUGE","LOUISIANA","70802","225-272-9200","http://www.brec.org/index.cfm/park/MaryJLands","114855"
"POINT (-91.13141444158 30.515520405511)","64","Fortune Addition Park","BREC PARK","BREC","BREC","5900 PEERLESS ST","BATON ROUGE","LOUISIANA","70811","225-272-9200","http://www.brec.org/index.cfm/park/FortuneAddition","98343"
"POINT (-91.204900963559 30.387127723017)","411","BRPD Mounted Patrol","POLICE PROTECTION","BATON ROUGE POLICE DEPARTMENT","CITY/PARISH","6402 RIVER RD","BATON ROUGE","LOUISIANA","70820","225-389-7626","https://www.brla.gov/291/Special-Operations","220101"
"POINT (-91.140375372933 30.461409934135)","418","LSU Health System Mid City Clinic","HEALTH CARE","STATE OF LOUISIANA","STATE","1401 N FOSTER DR","BATON ROUGE","LOUISIANA","70806",,,"25904"
"POINT (-91.123287422725 30.588538073147)","340","Brownsfield VFD Station 72","FIRE PROTECTION","BROWNSFIELD VOLUNTEER FIRE DEPARTMENT","CITY/PARISH","6850 KENT DR","BAKER","LOUISIANA","70714",,,"139463"
"POINT (-91.161032979941 30.506554768462)","367","Monte Sano Village","PUBLIC HOUSING","EBRP HOUSING AUTHORITY","CITY/PARISH","3002 MASON AVE","BATON ROUGE","LOUISIANA","70805",,,"66865"
"POINT (-91.135848789866 30.549042733082)","114","Brownsfield VFD Station 71","FIRE PROTECTION","BROWNSFIELD VOLUNTEER FIRE DEPARTMENT","CITY/PARISH","11420 PLANK RD","BATON ROUGE","LOUISIANA","70811",,,"10950"
"POINT (-91.143292356561 30.452724927927)","234","Turner Plaza Senior Center","SENIOR CENTER","COUNCIL ON AGING","CITY/PARISH","4546 NORTH ST","BATON ROUGE","LOUISIANA","70806",,"http://www.ebrcoa.org/","142189"
"POINT (-91.031136246297 30.346284989884)","327","Louisiana State Police Troop A","POLICE PROTECTION","LOUISIANA STATE POLICE","STATE","17801 HIGHLAND RD","BATON ROUGE","LOUISIANA","70810","225-754-8500","http://www.lsp.org/troopa.html","155931"
"POINT (-91.012265609006 30.468761148844)","77","East Maintenance Lot","PUBLIC WORKS","DEPARTMENT OF MAINTENANCE","CITY/PARISH","1505 CENTRAL THWY","BATON ROUGE","LOUISIANA","70819",,,"142117"
"POINT (-91.130339722168 30.575358614099)","169","EMS Station 13","EMS","EMERGENCY MEDICAL SERVICES","CITY/PARISH","6252 LAVEY LN","BAKER","LOUISIANA","70714","225-389-5155",,"175509"
"POINT (-91.170117337462 30.450120131776)","133","Human Resources","MUNICIPAL OFFICES","HUMAN RESOURCES","CITY/PARISH","1755 FLORIDA ST","BATON ROUGE","LOUISIANA","70802",,,"42728"
"POINT (-91.160183499175 30.583601666237)","432","Baker Heights Head Start","HEAD START","HEAD START","CITY/PARISH","3750 HARDING ST","BAKER","LOUISIANA","70714",,,"187704"
"POINT (-91.187368649133 30.457082951919)","293","Louisiana State Capitol","SPECIAL FACILITY","STATE OF LOUISIANA","STATE","900 N 3RD ST","BATON ROUGE","LOUISIANA","70802",,,"121405"
"POINT (-91.11073111769 30.508168684651)","350","Maplewood Park","BREC PARK","BREC","BREC","7950 MAPLEWOOD DR","BATON ROUGE","LOUISIANA","70812","225-357-7357","http://www.brec.org/index.cfm/park/Maplewood","116180"
"POINT (-91.175792731325 30.43094281394)","142","Dr. Leo S. Butler Community Center","COMMUNITY CENTER","COMMUNITY DEVELOPMENT","CITY/PARISH","950 E WASHINGTON ST","BATON ROUGE","LOUISIANA","70802",,,"126114"
"POINT (-91.177153154199 30.515103584298)","84","EBRP Library Scotlandville Branch","LIBRARY","EBR PARISH LIBRARY","CITY/PARISH","7373 SCENIC HWY","BATON ROUGE","LOUISIANA","70807","225-354-7580",,"138927"
"POINT (-91.125687240236 30.355873140058)","325","St George FD Station 65","FIRE PROTECTION","ST GEORGE VOLUNTEER FIRE DEPARTMENT","CITY/PARISH","1506 SEABORD DR","BATON ROUGE","LOUISIANA","70820",,,"30795"
"POINT (-91.152702805213 30.393241930155)","48","Leeward Drive Park","BREC PARK","BREC","BREC","5800 MENLO DR","BATON ROUGE","LOUISIANA","70808","225-272-9200","http://www.brec.org/index.cfm/park/LeewardDrive","143477"
"POINT (-91.188659563362 30.44943629979)","135","Downtown Development District","MUNICIPAL OFFICES","DOWNTOWN DEVELOPMENT DISTRICT","CITY/PARISH","247 FLORIDA ST","BATON ROUGE","LOUISIANA","70801",,,"142357"
"POINT (-91.206334246508 30.584095902347)","392","Louisiana Correctional Institute for Women","PUBLIC SAFETY","STATE OF LOUISIANA","STATE","15200 OLD SCENIC HWY","BAKER","LOUISIANA","70714","225-319-2701","https://doc.louisiana.gov/location/louisiana-correctional-institute-for-women/","31398"
"POINT (-91.128614438503 30.465953130523)","58","Blueberry Street Park","BREC PARK","BREC","BREC","6050 BLUEBERRY ST","BATON ROUGE","LOUISIANA","70806","225-925-5998","http://www.brec.org/index.cfm/park/BlueberryStreet","168668"
"POINT (-91.172845978351 30.554864170606)","281","Clifford T. Seymour, Sr. Park","BREC PARK","BREC","BREC","12000 SCOTLAND-ZACHARY HWY","BATON ROUGE","LOUISIANA","70807","225-272-9200","http://www.brec.org/index.cfm/park/CliffordTSeymour","130403"
"POINT (-90.992407720709 30.423119914681)","341","Eastside FD Station 92","FIRE PROTECTION","EASTSIDE VOLUNTEER FIRE DEPARTMENT","CITY/PARISH","17505 S HARRELL'S FERRY RD","BATON ROUGE","LOUISIANA","70816",,,"140854"
"POINT (-91.197962344165 30.653371550955)","223","Zachary Youth Park","SPECIAL FACILITY","CITY OF ZACHARY","ZACHARY","1650 MOUNT PLEASANT-ZACHARY RD","ZACHARY","LOUISIANA","70791",,,"192110"
"POINT (-91.023780875093 30.6862679977)","231","Chaneyville Senior Center","SENIOR CENTER","COUNCIL ON AGING","CITY/PARISH","13211 JACKSON RD","ZACHARY","LOUISIANA","70791",,"http://www.ebrcoa.org/","21863"
"POINT (-91.181138983365 30.66400660394)","184","Rita Street Park","BREC PARK","BREC","BREC","2315 RITA ST","ZACHARY","LOUISIANA","70791","225-272-9200","http://www.brec.org/index.cfm/park/RitaStreet","161230"
"POINT (-91.091465604603 30.445428770424)","100","BRPD Headquarters","POLICE PROTECTION","BATON ROUGE POLICE DEPARTMENT","CITY/PARISH","9000 AIRLINE HWY","BATON ROUGE","LOUISIANA","70815","225-389-2000","https://www.brla.gov/203/Police-Department","139586"
"POINT (-91.190280489518 30.443234858528)","220","USS Kidd","SPECIAL FACILITY","STATE OF LOUISIANA","STATE","305 S RIVER RD","BATON ROUGE","LOUISIANA","70802",,,"67898"
"POINT (-91.112118445678 30.682984000088)","201","Doyle's Bayou Park","BREC PARK","BREC","BREC","7801 PORT HUDSON-PRIDE RD","SLAUGHTER","LOUISIANA","70777","225-272-9200","http://www.brec.org/index.cfm/park/DoylesBayou","113622"
"POINT (-91.154672485878 30.640284500718)","239","Zachary Senior Center","SENIOR CENTER","COUNCIL ON AGING","CITY/PARISH","3541 HIGHWAY 19","ZACHARY","LOUISIANA","70791",,"http://www.ebrcoa.org/","198755"
"POINT (-91.035082036607 30.444343895356)","9","EBRP Library Fairwood Branch","LIBRARY","EBR PARISH LIBRARY","CITY/PARISH","12910 OLD HAMMOND HWY","BATON ROUGE","LOUISIANA","70816","225-924-9380",,"142476"
"POINT (-91.111252590334 30.458517558454)","240","Bishop Ott Senior Center","SENIOR CENTER","COUNCIL ON AGING","CITY/PARISH","7545 BISHOP OTT DR","BATON ROUGE","LOUISIANA","70806",,"http://www.ebrcoa.org/","112047"
"POINT (-91.190058637536 30.421005418745)","12","Roosevelt Street Park","BREC PARK","BREC","BREC","1011 W ROOSEVELT ST","BATON ROUGE","LOUISIANA","70802","225-272-9200","http://www.brec.org/index.cfm/park/RooseveltStreet","873"
"POINT (-91.187161990672 30.446650385682)","94","19th Judicial District Court","COURTHOUSE","STATE OF LOUISIANA","STATE","300 NORTH BLVD","BATON ROUGE","LOUISIANA","70802",,,"155393"
"POINT (-91.166188810912 30.487753759696)","39","Dayton Street Park","BREC PARK","BREC","BREC","2404 DAYTON ST","BATON ROUGE","LOUISIANA","70805","225-272-9200","http://www.brec.org/index.cfm/park/DaytonStreet","214239"
"POINT (-91.146292316628 30.452779596274)","54","North Street Park","BREC PARK","BREC","BREC","4100 NORTH ST","BATON ROUGE","LOUISIANA","70806","225-383-0563","http://www.brec.org/index.cfm/park/NorthStreet","80096"
"POINT (-91.177020647041 30.461870432719)","395","DEQ Lab","STATE OFFICES","STATE OF LOUISIANA","STATE","1209 E HIGHWAY DR","BATON ROUGE","LOUISIANA","70802",,,"138345"
"POINT (-91.039152872086 30.559226444026)","261","Jackson Community Park","BREC PARK","BREC","BREC","12250 SULLIVAN RD","CENTRAL","LOUISIANA","70818","225-261-2161","http://www.brec.org/index.cfm/park/JacksonCommunityPark","16445"
"POINT (-91.127385783275 30.566211958156)","189","Le Brent Avenue Park","BREC PARK","BREC","BREC","6401 LEBRENT AVE","BAKER","LOUISIANA","70714","225-272-9200","http://www.brec.org/index.cfm/park/LebrentAvenue","142281"
"POINT (-90.981966958689 30.691183083934)","271","Pride Park","BREC PARK","BREC","BREC","16440 PORT HUDSON-PRIDE RD","PRIDE","LOUISIANA","70770","225-272-9200","http://www.brec.org/index.cfm/park/Pride","35215"
"POINT (-91.14593024798 30.467202847235)","55","Belfair Park","BREC PARK","BREC","BREC","4390 FAIRFIELDS AVE","BATON ROUGE","LOUISIANA","70802","225-355-7091","http://brec.org/index.cfm/park/Belfair","83137"
"POINT (-91.187598593933 30.463844689127)","397","LA Office of State Buildings","STATE OFFICES","STATE OF LOUISIANA","STATE","1928 N 3RD ST","BATON ROUGE","LOUISIANA","70802",,,"142300"
"POINT (-91.155203029478 30.498891337417)","144","Charles R. Kelly Community Center","COMMUNITY CENTER","COMMUNITY DEVELOPMENT","CITY/PARISH","3535 RILEY ST","BATON ROUGE","LOUISIANA","70805",,,"142081"
"POINT (-91.173481326495 30.538152703562)","442","Progress Road Head Start","HEAD START","HEAD START","CITY/PARISH","1881 PROGRESS RD","BATON ROUGE","LOUISIANA","70807",,,"47925"
"POINT (-91.062840805771 30.468115174038)","247","Red Oaks Park","BREC PARK","BREC","BREC","2100 GREEN OAK DR","BATON ROUGE","LOUISIANA","70815","225-275-7320","http://www.brec.org/index.cfm/park/RedOaks","53014"
"POINT (-90.915385187773 30.712964848345)","273","Baywood Park","BREC PARK","BREC","BREC","20001 PRIDE-BAYWOOD RD","GREENWELL SPRINGS","LOUISIANA","70739","225-272-9200","http://www.brec.org/index.cfm/park/Baywood","51061"
"POINT (-91.157054319259 30.658404139192)","390","Zachary Rural Program","COMMUNITY CENTER","COMMUNITY DEVELOPMENT","CITY/PARISH","5746 ROLLINS RD","ZACHARY","LOUISIANA","70791",,,"196359"
"POINT (-91.180506890387 30.521855079906)","149","BRPD District 4 Station","POLICE PROTECTION","BATON ROUGE POLICE DEPARTMENT","CITY/PARISH","8227 SCENIC HWY","BATON ROUGE","LOUISIANA","70807","225-389-2000","https://www.brla.gov/203/Police-Department","116025"
"POINT (-91.140201442179 30.360088937157)","413","LSU South Campus","UNIVERSITY","STATE OF LOUISIANA","STATE","8000 INNOVATION PARK DR","BATON ROUGE","LOUISIANA","70820",,,"114737"
"POINT (-91.069318734337 30.449611398468)","376","Sharp Road Park","BREC PARK","BREC","BREC","501 SHARP RD","BATON ROUGE","LOUISIANA","70815","225-273-3924","http://www.brec.org/index.cfm/park/SharpRoad","88455"
"POINT (-91.164424954918 30.5359241278)","425","EBRSO Training Facility","POLICE PROTECTION","EBR SHERIFFS OFFICE","CITY/PARISH","2829 LIEUTENANT GENERAL BENJAMIN DAVIS, JR. AVE","BATON ROUGE","LOUISIANA","70807","225-389-5000","https://www.ebrso.org/SHERIFF","139851"
"POINT (-91.183939097215 30.453282023267)","23","Seventh Street Park","BREC PARK","BREC","BREC","639 N 7TH ST","BATON ROUGE","LOUISIANA","70802","225-272-9200","http://www.brec.org/index.cfm/park/SeventhStreet","147551"
"POINT (-91.188698830389 30.459845032326)","302","Claiborne Building","STATE OFFICES","STATE OF LOUISIANA","STATE","1201 N 3RD ST","BATON ROUGE","LOUISIANA","70802",,,"138344"
"POINT (-91.16402631138 30.589523486965)","361","Baker Playground","BREC PARK","BREC","BREC","3439 GROOM RD","BAKER","LOUISIANA","70714","225-272-9200",,"189686"
"POINT (-91.157224480655 30.58516252725)","362","Harding Street Park","BREC PARK","BREC","BREC","4037 HARDING ST","BAKER","LOUISIANA","70714","225-272-9200","http://www.brec.org/index.cfm/park/HardingStreet","161241"
"POINT (-91.130093982592 30.450428466006)","232","Florida Blvd Senior Center","SENIOR CENTER","COUNCIL ON AGING","CITY/PARISH","5790 FLORIDA BLVD","BATON ROUGE","LOUISIANA","70806",,"http://www.ebrcoa.org/","97359"
"POINT (-91.156052112011 30.477280511992)","433","Capital Area Head Start","HEAD START","HEAD START","CITY/PARISH","3250 N ACADIAN THWY","BATON ROUGE","LOUISIANA","70805",,,"70772"
"POINT (-91.164560212263 30.53427438688)","69","EBR Parish Prison","POLICE PROTECTION","EBR SHERIFFS OFFICE","CITY/PARISH","2867 BRIGADIER GENERAL ISAAC SMITH AVE","BATON ROUGE","LOUISIANA","70807","225-355-3311",,"65432"
"POINT (-91.09264695186 30.642661710915)","151","Chaneyville VFD Station 42","FIRE PROTECTION","CHANEYVILLE VOLUNTEER FIRE DEPARTMENT","CITY/PARISH","8801 ZACHARY-DEERFORD RD","ZACHARY","LOUISIANA","70791",,,"159827"
"POINT (-91.189696711568 30.454092223543)","295","Capitol Park Welcome Center","SPECIAL FACILITY","STATE OF LOUISIANA","STATE","702 N RIVER RD","BATON ROUGE","LOUISIANA","70802",,,"142437"
"POINT (-91.111166384421 30.640719543018)","200","Little Farms Park","BREC PARK","BREC","BREC","3754 LITTLE FARMS DR","ZACHARY","LOUISIANA","70791","225-272-9200","http://www.brec.org/index.cfm/park/LittleFarms","161236"
"POINT (-91.164185821515 30.408341189299)","17","Milford Wampold Memorial Park","BREC PARK","BREC","BREC","901 STANFORD AVE","BATON ROUGE","LOUISIANA","70808","225-272-9200","http://www.brec.org/index.cfm/park/MilfordWampoldMemorialPark","121518"
"POINT (-91.127930130343 30.488760190719)","7","BRFD Station 4","FIRE PROTECTION","BATON ROUGE FIRE DEPARTMENT","CITY/PARISH","6241 PRESCOTT RD","BATON ROUGE","LOUISIANA","70805",,,"101937"
"POINT (-91.186137324579 30.439786998101)","444","Women's Community Rehabilitation Center","PUBLIC SAFETY","STATE OF LOUISIANA","STATE","855 SAINT FERDINAND ST","BATON ROUGE","LOUISIANA","70802",,,"144074"
"POINT (-91.028356828572 30.42750706486)","289","Forest Community Park","BREC PARK","BREC","BREC","13900 S HARRELL'S FERRY RD","BATON ROUGE","LOUISIANA","70816","225-752-1853","http://brec.org/index.cfm/park/forestcommunitypark","25514"
"POINT (-91.164734405575 30.590107184314)","177","Baker Recreation Center","BREC PARK","BREC","BREC","1420 ALABAMA AVE","BAKER","LOUISIANA","70714","225-778-0779","http://brec.org/index.cfm/park/BakerRecreationCenter","161239"
"POINT (-91.138271520088 30.450027633557)","396","LADOTD Environmental Section","STATE OFFICES","STATE OF LOUISIANA","STATE","5040 FLORIDA BLVD","BATON ROUGE","LOUISIANA","70806",,,"88879"
"POINT (-91.114506574173 30.464300683177)","435","Child Development And Learning Center","HEAD START","HEAD START","CITY/PARISH","7315 EXCHANGE PL","BATON ROUGE","LOUISIANA","70806",,,"110138"
"POINT (-91.045779451788 30.404507056356)","175","Parklawn Park","BREC PARK","BREC","BREC","12228 PARKLAWN AVE","BATON ROUGE","LOUISIANA","70816","225-751-0823","http://www.brec.org/index.cfm/park/Parklawn","16385"
"POINT (-91.023766389661 30.686199616668)","146","Chaneyville Community Center","COMMUNITY CENTER","COMMUNITY DEVELOPMENT","CITY/PARISH","13211 JACKSON RD","ZACHARY","LOUISIANA","70791",,,"21863"
"POINT (-91.111723272214 30.385943009622)","371","Mary Ruth Park","BREC PARK","BREC","BREC","8808 MARY RUTH AVE","BATON ROUGE","LOUISIANA","70810","225-272-9200","http://www.brec.org/index.cfm/park/MaryRuth","120203"
"POINT (-91.172485103218 30.460158925655)","422","LA Federal Property Assistance Agency","STATE OFFICES","STATE OF LOUISIANA","STATE","1635 FOSS ST","BATON ROUGE","LOUISIANA","70802",,,"142545"
"POINT (-91.181300934135 30.3681253026)","399","LSU Aquaculture Research Station","UNIVERSITY","STATE OF LOUISIANA","STATE","709 TECHNOLOGY WAY","BATON ROUGE","LOUISIANA","70820",,,"232901"
"POINT (-91.15628844436 30.648296174657)","217","Zachary City Hall","MUNICIPAL OFFICES","CITY OF ZACHARY","ZACHARY","4510 MAIN ST","ZACHARY","LOUISIANA","70791",,,"175529"
"POINT (-91.160605258635 30.563218956264)","357","Baton Rouge Zoo","BREC PARK","BREC","BREC","3601 THOMAS RD","BATON ROUGE","LOUISIANA","70807","225-775-3877","http://www.brzoo.org/","139916"
"POINT (-91.177499121758 30.419631285184)","105","BRFD Station 11","FIRE PROTECTION","BATON ROUGE FIRE DEPARTMENT","CITY/PARISH","3186 HIGHLAND RD","BATON ROUGE","LOUISIANA","70802",,,"142215"
"POINT (-91.211468165831 30.383464295624)","13","Farr Park Equestrian Center","BREC PARK","BREC","BREC","6400 RIVER RD","BATON ROUGE","LOUISIANA","70820","225-769-7805","http://brec.org/index.cfm/park/FarrPark","103452"
"POINT (-91.097961771657 30.414676319886)","310","Louisiana State Archives","SPECIAL FACILITY","STATE OF LOUISIANA","STATE","3851 ESSEN LN","BATON ROUGE","LOUISIANA","70809",,,"77493"
"POINT (-91.011166121753 30.422749639826)","333","South Harrell's Ferry Road Park","BREC PARK","BREC","BREC","15750 S HARRELL'S FERRY RD","BATON ROUGE","LOUISIANA","70816","225-272-9200","http://www.brec.org/index.cfm/park/SouthHarrellsFerry","130206"
"POINT (-91.154148250585 30.523737622865)","74","EBRP Coroner","MUNICIPAL OFFICES",,"CITY/PARISH","4030 T.B. HERNDON AVE","BATON ROUGE","LOUISIANA","70807",,,"154919"
"POINT (-91.227038842474 30.6624243349)","182","Flonacher Road Park","BREC PARK","BREC","BREC","864 FLONACHER RD","ZACHARY","LOUISIANA","70791","225-654-2617","http://brec.org/index.cfm/park/Flanacher","153295"
"POINT (-91.172207499728 30.44741902262)","31","North Boulevard Park","BREC PARK","BREC","BREC","1640 NORTH BLVD","BATON ROUGE","LOUISIANA","70802","225-272-9200","http://www.brec.org/index.cfm/park/NorthBoulevard","37283"
"POINT (-91.054968039225 30.466749488781)","248","Tams Drive Park","BREC PARK","BREC","BREC","11600 TAMS DR","BATON ROUGE","LOUISIANA","70815","225-272-9200","http://www.brec.org/index.cfm/park/TamsDrive","12098"
"POINT (-91.16635633422 30.445157567061)","377","Spain Street Park","BREC PARK","BREC","BREC","2101 SPAIN ST","BATON ROUGE","LOUISIANA","70806","225-272-9200","http://www.brec.org/index.cfm/park/SpainStreet","53021"
"POINT (-91.166462528981 30.535640854319)","408","BRPD K9/SRT","POLICE PROTECTION","BATON ROUGE POLICE DEPARTMENT","CITY/PARISH","2727 LIEUTENANT GENERAL BENJAMIN DAVIS, JR. AVE","BATON ROUGE","LOUISIANA","70807","225-389-5208",,"154921"
"POINT (-91.164276774537 30.539837639642)","71","Mosquito Abatement and Rodent Control","MUNICIPAL OFFICES","MARC","CITY/PARISH","10550 VETERANS MEMORIAL BLVD","BATON ROUGE","LOUISIANA","70807",,,"173014"
"POINT (-91.18308489375 30.531652531849)","158","Kelly Terrace","PUBLIC HOUSING","EBRP HOUSING AUTHORITY","CITY/PARISH","999 ROSENWALD RD","BATON ROUGE","LOUISIANA","70807",,,"129791"
"POINT (-91.057332057101 30.492825660648)","87","EBRP Library Greenwell Springs Regional Branch","LIBRARY","EBR PARISH LIBRARY","CITY/PARISH","11300 GREENWELL SPRINGS RD","BATON ROUGE","LOUISIANA","70814","225-274-4480",,"10307"
"POINT (-91.19265179817 30.664253953266)","120","Zachary FD Station 82","FIRE PROTECTION","CITY OF ZACHARY","ZACHARY","2250 FLONACHER RD","ZACHARY","LOUISIANA","70791",,,"175510"
"POINT (-91.083968580261 30.413657322379)","321","St George FD Station 62","FIRE PROTECTION","ST GEORGE VOLUNTEER FIRE DEPARTMENT","CITY/PARISH","9214 JEFFERSON HWY","BATON ROUGE","LOUISIANA","70809",,,"121559"
"POINT (-91.128661746285 30.443073964751)","57","Goodwood Park","BREC PARK","BREC","BREC","6025 SEVENOAKS AVE","BATON ROUGE","LOUISIANA","70806","225-272-9200","http://brec.org/index.cfm/park/Goodwood","99583"
"POINT (-91.17467953287 30.447867600395)","30","North 14th Street Park","BREC PARK","BREC","BREC","100 N 14TH ST","BATON ROUGE","LOUISIANA","70802","225-343-0228","http://www.brec.org/index.cfm/park/North14thStreet","10"
"POINT (-91.179019536193 30.439017599635)","21","Expressway Park","BREC PARK","BREC","BREC","935 S 11TH ST","BATON ROUGE","LOUISIANA","70802","225-343-7110","http://brec.org/index.cfm/park/Expressway","124653"
"POINT (-91.177704477962 30.459193805213)","307","Department of Transportation and Development","STATE OFFICES","STATE OF LOUISIANA","STATE","1201 CAPITOL ACCESS RD","BATON ROUGE","LOUISIANA","70802",,,"14380"
"POINT (-91.103729084575 30.450194485508)","386","BRFD Station 8","FIRE PROTECTION","BATON ROUGE FIRE DEPARTMENT","CITY/PARISH","150 S WOODDALE DR","BATON ROUGE","LOUISIANA","70806",,,"165335"
"POINT (-91.073733564949 30.4946931261)","385","Wray Park","BREC PARK","BREC","BREC","9801 RIDGEWOOD DR","BATON ROUGE","LOUISIANA","70814","225-272-9200","http://www.brec.org/index.cfm/park/Wray","173134"
"POINT (-91.114600253235 30.455258132199)","407","BRPD Traffic Division","POLICE PROTECTION","BATON ROUGE POLICE DEPARTMENT","CITY/PARISH","7261 FLORIDA BLVD","BATON ROUGE","LOUISIANA","70806","225-389-3874",,"142075"
"POINT (-91.138981538026 30.437763600987)","278","Webb Memorial Park And Golf Course","BREC PARK","BREC","BREC","1351 COUNTRY CLUB DR","BATON ROUGE","LOUISIANA","70806","225-383-4919","http://golf.brec.org/courses/webb-memorial/","23583"
"POINT (-91.091337737561 30.445337242321)","2","BRPD District 3 Station","POLICE PROTECTION","BATON ROUGE POLICE DEPARTMENT","CITY/PARISH","9000 AIRLINE HWY","BATON ROUGE","LOUISIANA","70815","225-389-2000","https://www.brla.gov/203/Police-Department","139586"
"POINT (-91.204959756287 30.69116572151)","157","Zachary FD Station 84","FIRE PROTECTION","CITY OF ZACHARY","ZACHARY","23060 BRIAN RD","ZACHARY","LOUISIANA","70791",,,"175511"
"POINT (-91.166681804867 30.502862142404)","42","Monte Sano Park","BREC PARK","BREC","BREC","2727 GREENWELL ST","BATON ROUGE","LOUISIANA","70805","225-357-9989","http://www.brec.org/index.cfm/park/MonteSano","63065"
"POINT (-91.160607403877 30.504743922455)","43","Alexander Street Park","BREC PARK","BREC","BREC","6000 ALEXANDER AVE","BATON ROUGE","LOUISIANA","70805","225-272-9200","http://www.brec.org/index.cfm/park/AlexanderStreet","143464"
"POINT (-91.166676604729 30.454510411419)","32","Gayosa Street Park","BREC PARK","BREC","BREC","2129 GAYOSA ST","BATON ROUGE","LOUISIANA","70802","225-272-9200","http://www.brec.org/index.cfm/park/Gayosa","53780"
"POINT (-91.161938089786 30.524875414063)","73","Juvenile Services and Court","COURTHOUSE","STATE OF LOUISIANA","STATE","8333 VETERANS MEMORIAL BLVD","BATON ROUGE","LOUISIANA","70807",,,"117210"
"POINT (-91.0186422639 30.45390715168)","319","Eastside FD Station 91","FIRE PROTECTION","EASTSIDE VOLUNTEER FIRE DEPARTMENT","CITY/PARISH","15094 OLD HAMMOND HWY","BATON ROUGE","LOUISIANA","70816",,,"30879"
"POINT (-91.047774811436 30.470774511912)","440","Labelle Aire Head Start","HEAD START","HEAD START","CITY/PARISH","1919 N CRISTY DR","BATON ROUGE","LOUISIANA","70815",,,"139377"
"POINT (-91.147013042118 30.343962726424)","162","EBRSO Gardere Substation","POLICE PROTECTION","EBR SHERIFFS OFFICE","CITY/PARISH","3777 L'AUBERGE CROSSING DR","BATON ROUGE","LOUISIANA","70820","225-389-5511",,"175205"
"POINT (-91.085182201079 30.427839611934)","344","Drusilla Lane Park","BREC PARK","BREC","BREC","2546 DRUSILLA LN","BATON ROUGE","LOUISIANA","70809","225-927-6882","http://www.brec.org/index.cfm/park/DrusillaLane","61300"
"POINT (-91.187558391074 30.462881705152)","398","LA Office of Information Technology","STATE OFFICES","STATE OF LOUISIANA","STATE","1800 N 3RD ST","BATON ROUGE","LOUISIANA","70802",,,"142439"
"POINT (-91.167704277233 30.466815103402)","374","Pawnee Street Park","BREC PARK","BREC","BREC","2100 SCENIC HWY","BATON ROUGE","LOUISIANA","70802","225-272-9200","http://www.brec.org/index.cfm/park/PawneeStreet","53016"
"POINT (-91.142327277658 30.461905644219)","406","BRPD Misdemeanor Investigations","POLICE PROTECTION","BATON ROUGE POLICE DEPARTMENT","CITY/PARISH","4778 GUS YOUNG AVE","BATON ROUGE","LOUISIANA","70802","225-389-4979","https://www.brla.gov/1654/Uniform-Patrol-Bureau","86785"
"POINT (-91.156952992365 30.429526705054)","29","Edward Avenue Park","BREC PARK","BREC","BREC","3000 EDWARD AVE","BATON ROUGE","LOUISIANA","70808","225-272-9200","http://www.brec.org/index.cfm/park/EdwardsAvenue","130163"
"POINT (-91.172371561331 30.425404949323)","26","Buchanan Park","BREC PARK","BREC","BREC","2300 MISSOURI ST","BATON ROUGE","LOUISIANA","70802","225-272-9200","http://www.brec.org/index.cfm/park/Buchanan","57410"
"POINT (-90.970709376998 30.667413844894)","115","Pride VFD Station 10","FIRE PROTECTION","PRIDE VOLUNTEER FIRE DEPARTMENT","CITY/PARISH","20920 CARSON RD","PRIDE","LOUISIANA","70770",,,"52960"
"POINT (-91.165304495422 30.599346366144)","453","EBR Registrar of Voters Baker Branch","MUNICIPAL OFFICES","REGISTRAR OF VOTERS","CITY/PARISH","2250 MAIN ST","BAKER","LOUISIANA","70714",,,"182171"
"POINT (-91.130932713631 30.360534292115)","276","Burbank Conservation Area","BREC PARK","BREC","BREC","8858 BURBANK DR","BATON ROUGE","LOUISIANA","70820","225-272-9200","http://www.brec.org/index.cfm/park/BurbankConservation","228900"
"POINT (-91.034957878704 30.524411094691)","260","Lovett Road Park","BREC PARK","BREC","BREC","13443 LOVETT RD","CENTRAL","LOUISIANA","70818","225-261-0126","http://brec.org/index.cfm/park/LovettRoad","23293"
"POINT (-91.091701604999 30.47401882456)","351","Hartley/Vey Sports Park","BREC PARK","BREC","BREC","2615 OAK VILLA BLVD","BATON ROUGE","LOUISIANA","70814","225-382-3596","http://www.brec.org/index.cfm/park/HartleyVeyOakVilla","137992"
"POINT (-91.161750290773 30.492752536369)","402","BRPD Evidence/Crime Scene","POLICE PROTECTION","BATON ROUGE POLICE DEPARTMENT","CITY/PARISH","2905 EVANGELINE ST","BATON ROUGE","LOUISIANA","70805","225-389-3848","https://www.brla.gov/237/Criminal-Investigations-Bureau","65666"
"POINT (-90.997438228692 30.369687198816)","210","Erich Sternberg Family Park","BREC PARK","BREC","BREC","8715 ROUND OAK DR","BATON ROUGE","LOUISIANA","70817","225-272-9200","http://www.brec.org/index.cfm/park/ErichSternberg","142292"
"POINT (-91.105918781789 30.393797615661)","429","LA Public Broadcasting","STATE OFFICES","STATE OF LOUISIANA","STATE","7733 PERKINS RD","BATON ROUGE","LOUISIANA","70810",,,"143532"
"POINT (-91.159565523898 30.570381119705)","384","Dumas Memorial Golf Course","BREC PARK","BREC","BREC","3400 LAVEY LN","BAKER","LOUISIANA","70714","225-775-9166","http://www.brec.org/index.cfm/park/DumasMemorialGolf","161247"
"POINT (-91.197533859507 30.570183832945)","113","Alsen/St Irma Lee VFD Station 25","FIRE PROTECTION","ALSEN/ST IRMA LEE VOLUNTEER FIRE DEPARTMENT","CITY/PARISH","674 OLD RAFE MAYER RD","BATON ROUGE","LOUISIANA","70807",,,"106048"
"POINT (-91.171893972988 30.46165472833)","421","LA State Property Control","STATE OFFICES","STATE OF LOUISIANA","STATE","1502 N 17TH ST","BATON ROUGE","LOUISIANA","70802",,,"143818"
"POINT (-91.058381298511 30.414457120298)","170","EMS Station 4","EMS","EMERGENCY MEDICAL SERVICES","CITY/PARISH","11010 COURSEY BLVD","BATON ROUGE","LOUISIANA","70816","225-389-5155",,"8280"
"POINT (-90.913302596073 30.345588617762)","258","Kendalwood Road Park","BREC PARK","BREC","BREC","24700 KENDALWOOD RD","BATON ROUGE","LOUISIANA","70817","225-272-9200","http://www.brec.org/index.cfm/park/Kendalwood","62665"
"POINT (-91.009088388 30.482260857443)","290","Hamilton Avenue Park","BREC PARK","BREC","BREC","16200 HAMILTON AVE","BATON ROUGE","LOUISIANA","70819","225-272-1917","http://www.brec.org/index.cfm/park/HamiltonAvenue","36196"
"POINT (-91.156081741598 30.648936665465)","119","Zachary FD Station 81","FIRE PROTECTION","CITY OF ZACHARY","ZACHARY","4525 MAIN ST","ZACHARY","LOUISIANA","70791",,,"144558"
"POINT (-91.062943995905 30.370690390718)","204","Gentilly Court Park","BREC PARK","BREC","BREC","13750 GENTILLY CT","BATON ROUGE","LOUISIANA","70810","225-272-9200","http://www.brec.org/index.cfm/park/GentillyCourt","28263"
"POINT (-91.154308018248 30.447763536921)","224","EBRP Library Recycled Reads","LIBRARY","EBR PARISH LIBRARY","CITY/PARISH","3434 NORTH BLVD","BATON ROUGE","LOUISIANA","70806","225-231-3750",,"72890"
"POINT (-91.172173492994 30.693414683211)","187","Quarterhorse Drive Park","BREC PARK","BREC","BREC","23400 QUARTER HORSE DR","ZACHARY","LOUISIANA","70791","225-272-9200","http://www.brec.org/index.cfm/park/QuarterhorseDrive","159590"
"POINT (-91.011441219094 30.342093333599)","207","Santa Maria Playground","BREC PARK","BREC","BREC","18460 SANTA MARIA PKWY","BATON ROUGE","LOUISIANA","70809","225-753-9372","http://www.brec.org/index.cfm/park/SantaMariaPark","171827"
"POINT (-91.09753703525 30.41301537858)","449","LA State Employees Retirement System","STATE OFFICES","STATE OF LOUISIANA","STATE","8401 UNITED PLAZA BLVD","BATON ROUGE","LOUISIANA","70809",,,"135737"
"POINT (-91.141804584636 30.578957779874)","284","Myrtle Street Park","BREC PARK","BREC","BREC","5530 MYRTLE ST","BAKER","LOUISIANA","70714","225-272-9200","http://www.brec.org/index.cfm/park/MyrtleStreet","161242"
"POINT (-91.156574767579 30.512350852426)","45","Scotlandville Parkway","BREC PARK","BREC","BREC","3200 HARDING BLVD","BATON ROUGE","LOUISIANA","70807","225-272-9200","http://www.brec.org/index.cfm/park/ScotlandvilleParkway","130204"
"POINT (-91.144273024346 30.532285065939)","405","BRPD Air Support","POLICE PROTECTION","BATON ROUGE POLICE DEPARTMENT","CITY/PARISH","4475 BLANCHE NOYES AVE","BATON ROUGE","LOUISIANA","70807","225-389-7918","https://www.brla.gov/291/Special-Operations","220079"
"POINT (-91.103610589788 30.423102151819)","445","LA State Troopers Association","STATE OFFICES","STATE OF LOUISIANA","STATE","8120 JEFFERSON HWY","BATON ROUGE","LOUISIANA","70809",,,"115540"
"POINT (-91.008868333291 30.51761341042)","226","Central Senior Center","SENIOR CENTER","COUNCIL ON AGING","CITY/PARISH","6923 OAK CLUSTER DR","GREENWELL SPRINGS","LOUISIANA","70739",,"http://www.ebrcoa.org/","202924"
"POINT (-91.125777752 30.361693569403)","97","EBRSO Traffic Section","POLICE PROTECTION","EBR SHERIFFS OFFICE","CITY/PARISH","9313 BURBANK DR","BATON ROUGE","LOUISIANA","70820","225-389-4851",,"124120"
"POINT (-91.115095564002 30.466562525586)","330","LWC Business And Career Solutions Center","STATE OFFICES","STATE OF LOUISIANA","STATE","1991 WOODDALE BLVD","BATON ROUGE","LOUISIANA","70806",,,"50970"
"POINT (-91.129813872777 30.35449000603)","47","Hartley/Vey Park at Gardere (Gardere Lane Park)","BREC PARK","BREC","BREC","1702 GARDERE LN","BATON ROUGE","LOUISIANA","70820","225-272-9200","http://www.brec.org/index.cfm/park/HartleyVeyGardere","40009"
"POINT (-91.125882666038 30.523840158604)","318","District 6 FD Station 52","FIRE PROTECTION","HOOPER ROAD VOLUNTEER FIRE DEPARTMENT","CITY/PARISH","6324 MICKENS RD","BATON ROUGE","LOUISIANA","70811",,,"102718"
"POINT (-91.03637705223 30.450832774258)","288","Flannery Road Park","BREC PARK","BREC","BREC","801 S FLANNERY RD","BATON ROUGE","LOUISIANA","70815","225-272-4615","http://brec.org/index.cfm/park/FlanneryRoad","114778"
"POINT (-91.08874336683 30.431886695487)","181","Old Hammond Highway Park","BREC PARK","BREC","BREC","8900 OLD HAMMOND HWY","BATON ROUGE","LOUISIANA","70806","225-272-9200","http://www.brec.org/index.cfm/park/OldHammondHighway","120729"
"POINT (-91.187822382735 30.452890015711)","299","Iberville Building","STATE OFFICES","STATE OF LOUISIANA","STATE","627 N 4TH ST","BATON ROUGE","LOUISIANA","70802",,,"102019"
"POINT (-91.169605083163 30.5528864497)","355","Cunard Avenue Park","BREC PARK","BREC","BREC","2290 CUNARD AVE","BATON ROUGE","LOUISIANA","70807","225-272-9200","http://www.brec.org/index.cfm/park/CunardAvenue","57313"
"POINT (-91.232615022532 30.608578610807)","410","BRPD Pistol Range & EBRSO Training Facility","POLICE PROTECTION","BATON ROUGE POLICE DEPARTMENT","CITY/PARISH","999 W IRENE RD","ZACHARY","LOUISIANA","70791","225-389-8268","https://www.ebrso.org/WHO-WE-ARE/Divisions/Pistol-Range","129788"
"POINT (-91.186396009972 30.453910287829)","297","Louisiana State Museum","SPECIAL FACILITY","STATE OF LOUISIANA","STATE","660 N 4TH ST","BATON ROUGE","LOUISIANA","70802",,,"139117"
"POINT (-91.184964412166 30.420808663746)","15","Alaska Street Park","BREC PARK","BREC","BREC","3014 ALASKA ST","BATON ROUGE","LOUISIANA","70802","225-346-1311","http://www.brec.org/index.cfm/park/AlaskaStreet","67091"
"POINT (-91.190605073834 30.424708431483)","156","Central Wastewater Treatment Facility","PUBLIC WORKS","DEPARTMENT OF ENVIRONMENTAL SERVICES","CITY/PARISH","2443 S RIVER RD, STE B","BATON ROUGE","LOUISIANA","70802",,,"59926"
"POINT (-91.127817521031 30.44962313432)","426","DCFS Child Welfare","STATE OFFICES","STATE OF LOUISIANA","STATE","160 S ARDENWOOD DR","BATON ROUGE","LOUISIANA","70806",,,"137275"
"POINT (-91.18532038057 30.45298327822)","301","Galvez Building","STATE OFFICES","STATE OF LOUISIANA","STATE","602 N 5TH ST","BATON ROUGE","LOUISIANA","70802",,,"139122"
"POINT (-91.138239565708 30.464556765199)","83","EBRP Library Eden Park Branch","LIBRARY","EBR PARISH LIBRARY","CITY/PARISH","5131 GREENWELL SPRINGS RD","BATON ROUGE","LOUISIANA","70806","225-231-3280",,"133974"
"POINT (-91.108458169227 30.64848021474)","152","Zachary FD Station 83","FIRE PROTECTION","CITY OF ZACHARY","ZACHARY","9366 MAIN ST","ZACHARY","LOUISIANA","70791",,,"196860"
"POINT (-91.198418986378 30.535472553941)","365","Wood Plaza","PUBLIC HOUSING","EBRP HOUSING AUTHORITY","CITY/PARISH","9990 AVENUE J","BATON ROUGE","LOUISIANA","70807",,,"129795"
"POINT (-91.050694525505 30.495574168158)","121","Central FD Station 32","FIRE PROTECTION","CENTRAL VOLUNTEER FIRE DEPARTMENT","CITY/PARISH","4864 MONTICELLO BLVD","BATON ROUGE","LOUISIANA","70814",,,"138483"
"POINT (-91.137897980434 30.359084582101)","215","Armed Forces Reserve Center & BR Armory","MILITARY","STATE OF LOUISIANA","STATE","8110 INNOVATION PARK DR","BATON ROUGE","LOUISIANA","70820",,,"177413"
"POINT (-91.111170989426 30.449398455955)","343","Liberty Lagoon","BREC PARK","BREC","BREC","111 LOBDELL AVE","BATON ROUGE","LOUISIANA","70806","225-923-3202","http://www.libertylagoon.com/","158936"
"POINT (-91.176314690947 30.454463946502)","25","Spanish Town Park","BREC PARK","BREC","BREC","1300 SPANISH TOWN RD","BATON ROUGE","LOUISIANA","70802","225-272-9200","http://www.brec.org/index.cfm/park/SpanishTown","21044"
"POINT (-91.148370780871 30.419269936723)","103","BRFD Station 9","FIRE PROTECTION","BATON ROUGE FIRE DEPARTMENT","CITY/PARISH","4025 PERKINS RD","BATON ROUGE","LOUISIANA","70808",,,"79295"
"POINT (-91.09248703527 30.447095884378)","153","EMS Station 9 (future)","EMS","EMERGENCY MEDICAL SERVICES","CITY/PARISH","8912 AIRLINE HWY","BATON ROUGE","LOUISIANA","70815","225-389-5155",,"243564"
"POINT (-91.107975061692 30.445837522127)","214","LA Office of Motor Vehicles - EBR Office","STATE OFFICES","STATE OF LOUISIANA","STATE","7701 INDEPENDENCE BLVD","BAKER","LOUISIANA","70714",,,"133304"
"POINT (-91.005732302396 30.341710862325)","286","Santa Maria Golf Course","BREC PARK","BREC","BREC","18460 SANTA MARIA PKWY","BATON ROUGE","LOUISIANA","70810","225-752-9667","http://golf.brec.org/courses/santamaria/","134704"
"POINT (-91.186298573082 30.445546796152)","129","City-Parish Employees Retirement System","MUNICIPAL OFFICES","RETIREMENT SYSTEM","CITY/PARISH","209 SAINT FERDINAND ST","BATON ROUGE","LOUISIANA","70802",,,"52940"
"POINT (-91.042840900686 30.423944352525)","251","Camelot Park","BREC PARK","BREC","BREC","3166 LANCELOT DR","BATON ROUGE","LOUISIANA","70816","225-272-9200","http://www.brec.org/index.cfm/park/Camelot","69697"
"POINT (-91.172233652887 30.433564117303)","274","Brooks Park","BREC PARK","BREC","BREC","1650 EDDIE ROBINSON SR DR","BATON ROUGE","LOUISIANA","70802","225-387-1482","http://brec.org/index.cfm/park/CityBrooksCommunityPark","37909"
"POINT (-91.169683822535 30.650083244823)","185","Church Street Park","BREC PARK","BREC","BREC","3210 CHURCH ST","ZACHARY","LOUISIANA","70791","225-654-9861","http://brec.org/index.cfm/park/ChurchStreet","161231"
"POINT (-91.18554432819 30.443697663359)","137","City-Parish Employees Federal Credit Union","MUNICIPAL OFFICES","C-P EMPLOYEES FEDERAL CREDIT UNION","CITY/PARISH","433 GOVERNMENT ST","BATON ROUGE","LOUISIANA","70802",,,"82506"
"POINT (-91.11879449589 30.532712313301)","188","Hooper Road Park","BREC PARK","BREC","BREC","6261 GUYNELL DR","BATON ROUGE","LOUISIANA","70811","225-357-7903","http://brec.org/index.cfm/park/HooperRoad","102184"
"POINT (-91.16365186742 30.473460763709)","40","Wenonah Street Park","BREC PARK","BREC","BREC","2521 CHIPPEWA ST","BATON ROUGE","LOUISIANA","70805","225-272-9200","http://www.brec.org/index.cfm/park/WenonahStreet","150339"
"POINT (-91.063918311886 30.416352929312)","75","EBR Assessor Coursey Branch Office","MUNICIPAL OFFICES","EBRP ASSESSOR","CITY/PARISH","10500 COURSEY BLVD","BATON ROUGE","LOUISIANA","70816",,,"135291"
"POINT (-91.160314263369 30.638771856812)","174","Hunters Point Drive Park","BREC PARK","BREC","BREC","4366 HUNTERS POINT DR","ZACHARY","LOUISIANA","70791","225-272-9200","http://www.brec.org/index.cfm/park/HuntersPoint","161233"
"POINT (-91.039041924426 30.554637525786)","382","Central Police Department","POLICE PROTECTION","CITY OF CENTRAL","CENTRAL","13505 HOOPER RD","CENTRAL","LOUISIANA","70818","225-367-1254","https://www.centralgov.com/police-department","202772"
"POINT (-91.029483571877 30.342217403308)","326","St George FD Station 68","FIRE PROTECTION","ST GEORGE VOLUNTEER FIRE DEPARTMENT","CITY/PARISH","326 HIGHLANDIA DR","BATON ROUGE","LOUISIANA","70810",,,"70887"
"POINT (-91.155052421034 30.49902157779)","236","Charles Kelly Senior Center","SENIOR CENTER","COUNCIL ON AGING","CITY/PARISH","3535 RILEY ST","BATON ROUGE","LOUISIANA","70805",,"http://www.ebrcoa.org/","142081"
"POINT (-91.111922930684 30.551579187637)","196","Cohn Nature Preserve","BREC PARK","BREC","BREC","11332 FOSTER RD","BATON ROUGE","LOUISIANA","70811","225-775-1006","http://www.brec.org/index.cfm/park/CohnNaturePreserve","138009"
"POINT (-91.046315988434 30.422321533114)","249","Longridge Park","BREC PARK","BREC","BREC","12127 LONGRIDGE AVE","BATON ROUGE","LOUISIANA","70816","225-272-9200","http://www.brec.org/index.cfm/park/Longridge","136618"
"POINT (-91.185327767221 30.524639421986)","334","Clarksdale Apartments","PUBLIC HOUSING","EBRP HOUSING AUTHORITY","CITY/PARISH","801 SWAN AVE","BATON ROUGE","LOUISIANA","70807",,,"177430"
"POINT (-91.171459560917 30.452206137826)","154","Lotus Center","SENIOR CENTER","COUNCIL ON AGING","CITY/PARISH","1701 MAIN ST","BATON ROUGE","LOUISIANA","70802",,"http://www.ebrcoa.org/","39963"
"POINT (-91.017417985018 30.392224549181)","242","Woodlawn Walking Trail","BREC PARK","BREC","BREC","14939 TIGER BEND RD","BATON ROUGE","LOUISIANA","70817","225-272-9200","http://www.brec.org/index.cfm/park/WoodlawnWalkingTrail","30249"
"POINT (-91.188996076463 30.447659906071)","211","Shaw Center","SPECIAL FACILITY","STATE OF LOUISIANA","STATE","100 LAFAYETTE ST","BATON ROUGE","LOUISIANA","70801",,,"136159"
"POINT (-91.161062878072 30.58806498328)","117","Baker FD Station 21","FIRE PROTECTION","BAKER FIRE DEPARTMENT","BAKER","3701 GROOM RD","BAKER","LOUISIANA","70714",,,"144557"
"POINT (-91.120277664118 30.505830558158)","436","Children's World Early Head Start","HEAD START","HEAD START","CITY/PARISH","7200 MAPLEWOOD DR","BATON ROUGE","LOUISIANA","70812",,,"142076"
"POINT (-91.167521341067 30.639120762944)","379","39th Street Park","BREC PARK","BREC","BREC","3451 39TH ST","ZACHARY","LOUISIANA","70791","225-272-9200","http://www.brec.org/index.cfm/park/ThirtyNinthStreet","161232"
"POINT (-91.205014979557 30.691111240517)","4","EBRSO Zachary-Plains Substation","POLICE PROTECTION","EBR SHERIFFS OFFICE","CITY/PARISH","23060 BRIAN RD","ZACHARY","LOUISIANA","70791","225-389-5037",,"175511"
"POINT (-91.156000084153 30.470540360127)","5","BRFD Station 2","FIRE PROTECTION","BATON ROUGE FIRE DEPARTMENT","CITY/PARISH","3333 CHOCTAW DR","BATON ROUGE","LOUISIANA","70805",,,"151038"
"POINT (-91.119500629527 30.457628736955)","59","Saia Park","BREC PARK","BREC","BREC","855 N DONMOOR AVE","BATON ROUGE","LOUISIANA","70806","225-927-5092","http://www.brec.org/index.cfm/park/Saia","118699"
"POINT (-91.148002249005 30.493666594801)","60","Evangeline Street Park","BREC PARK","BREC","BREC","4201 EVANGELINE ST","BATON ROUGE","LOUISIANA","70805","225-272-9200","http://www.brec.org/index.cfm/park/EvangelineStreet","81108"
"POINT (-91.184212781506 30.652510079361)","342","EBRP Library Zachary Branch","LIBRARY","EBR PARISH LIBRARY","CITY/PARISH","1900 CHURCH ST","ZACHARY","LOUISIANA","70791","225-658-1880",,"144559"
"POINT (-91.005400679684 30.603271246933)","267","Yatasi Drive Park","BREC PARK","BREC","BREC","16941 YATASI DR","GREENWELL SPRINGS","LOUISIANA","70739","225-272-9200","http://www.brec.org/index.cfm/park/YatasiDrive","161245"
"POINT (-91.143098589956 30.452966404516)","172","Turner Plaza","PUBLIC HOUSING","EBRP HOUSING AUTHORITY","CITY/PARISH","4546 NORTH ST","BATON ROUGE","LOUISIANA","70806",,,"142189"
"POINT (-91.108675148933 30.486987116687)","348","Lanier Drive Park","BREC PARK","BREC","BREC","3901 LANIER DR","BATON ROUGE","LOUISIANA","70812","225-272-9200","http://www.brec.org/index.cfm/park/LanierDrive","77853"
"POINT (-91.179658763169 30.390753446959)","159","Sharlo Terrace Apartments","PUBLIC HOUSING","EBRP HOUSING AUTHORITY","CITY/PARISH","4915 ALVIN DARK AVE","BATON ROUGE","LOUISIANA","70820",,,"87776"
"POINT (-90.881603822737 30.691851277532)","312","Pride VFD Station 12","FIRE PROTECTION","PRIDE VOLUNTEER FIRE DEPARTMENT","CITY/PARISH","38260 GREENWELL SPRINGS RD","CLINTON","LOUISIANA","70722",,,"138940"
"POINT (-91.233566180167 30.59987890943)","79","North Landfill","PUBLIC WORKS","DEPARTMENT OF ENVIRONMENTAL SERVICES","CITY/PARISH","16001 SAMUELS RD","ZACHARY","LOUISIANA","70791",,,"35261"
"POINT (-91.200807577204 30.38616536206)","14","River Bend Park","BREC PARK","BREC","BREC","5800 RIVERBEND LAKES DR","BATON ROUGE","LOUISIANA","70820","225-272-9200","http://www.brec.org/index.cfm/park/RiverBend","130328"
"POINT (-91.165588952137 30.458310677427)","309","Louisiana Workforce Commission","STATE OFFICES","STATE OF LOUISIANA","STATE","1001 N 23RD ST","BATON ROUGE","LOUISIANA","70802",,,"75"
"POINT (-91.18795848687 30.446498045429)","124","EBRP Library River Center Branch","LIBRARY","EBR PARISH LIBRARY","CITY/PARISH","250 SAINT LOUIS ST","BATON ROUGE","LOUISIANA","70802","225-389-4967",,"14322"
"POINT (-91.158560111095 30.497760280056)","44","Longfellow Park","BREC PARK","BREC","BREC","5201 LONGFELLOW DR","BAKER","LOUISIANA","70714","225-272-9200","http://brec.org/index.cfm/park/Longfellow","90706"
"POINT (-91.008004331886 30.388460141092)","244","Louisiana Park","BREC PARK","BREC","BREC","6998 ANTIOCH RD","BATON ROUGE","LOUISIANA","70817","225-272-9200","http://www.brec.org/index.cfm/park/Louisiana","107696"
"POINT (-91.106044378425 30.449158048656)","291","BRPD VCU","POLICE PROTECTION","BATON ROUGE POLICE DEPARTMENT","CITY/PARISH","7919 INDEPENDENCE BLVD","BATON ROUGE","LOUISIANA","70806",,,"133312"
"POINT (-91.187108573929 30.440720968909)","128","Cooperative Extension","MUNICIPAL OFFICES","STATE OF LOUISIANA","CITY/PARISH","805 SAINT LOUIS ST","BATON ROUGE","LOUISIANA","70802",,,"115126"
"POINT (-91.184534339301 30.443661038502)","106","BRFD Station 12","FIRE PROTECTION","BATON ROUGE FIRE DEPARTMENT","CITY/PARISH","555 GOVERNMENT ST","BATON ROUGE","LOUISIANA","70802",,,"94969"
"POINT (-91.178728271098 30.450415488684)","134","Public Works And Planning Center","MUNICIPAL OFFICES","PLANNING COMMISSION","CITY/PARISH","1100 LAUREL ST","BATON ROUGE","LOUISIANA","70802",,,"142369"
"POINT (-91.138068596681 30.380469926932)","104","BRFD Station 10","FIRE PROTECTION","BATON ROUGE FIRE DEPARTMENT","CITY/PARISH","7380 MENLO DR","BATON ROUGE","LOUISIANA","70808",,,"110747"
"POINT (-91.186902240933 30.426007213146)","18","Magnolia Mound Plantation","BREC PARK","BREC","BREC","2161 NICHOLSON DR","BATON ROUGE","LOUISIANA","70802","225-343-4955","http://www.brec.org/index.cfm/park/MagnoliaMoundPlantation","54732"
"POINT (-91.130239957036 30.452492543476)","308","Department of Agriculture and Forestry","STATE OFFICES","STATE OF LOUISIANA","STATE","5825 FLORIDA BLVD","BATON ROUGE","LOUISIANA","70806",,,"97679"
"POINT (-91.184885061001 30.457678848194)","88","Old Arsenal Museum","SPECIAL FACILITY","STATE OF LOUISIANA","STATE","900 CAPITOL LAKE DR","BATON ROUGE","LOUISIANA","70802",,,"153916"
"POINT (-91.187987220136 30.453843465564)","296","Louisiana State Library","LIBRARY","STATE OF LOUISIANA","STATE","701 N 4TH ST","BATON ROUGE","LOUISIANA","70802",,,"107754"
"POINT (-91.187033193437 30.445619406453)","126","Baton Rouge City Court and Constable","COURTHOUSE","CITY COURT","CITY/PARISH","233 SAINT LOUIS ST","BATON ROUGE","LOUISIANA","70802",,,"58068"
"POINT (-91.153948033162 30.591815346051)","192","Baker Park","BREC PARK","BREC","BREC","4331 JEFFERSON ST","BAKER","LOUISIANA","70714","225-778-0779","http://www.brec.org/index.cfm/park/BakerPark","161246"
"POINT (-91.017694010339 30.560251342425)","263","Jacob Kornmeyer Park","BREC PARK","BREC","BREC","15352 HOOPER RD","GREENWELL SPRINGS","LOUISIANA","70739","225-272-9200","http://www.brec.org/index.cfm/park/JacobKornmeyer","199302"
"POINT (-91.134937278826 30.50094584708)","366","Autumn Place Townhomes","PUBLIC HOUSING","EBRP HOUSING AUTHORITY","CITY/PARISH","5656 AUTUMN BLOSSOM AVE","BATON ROUGE","LOUISIANA","70805",,,"96125"
"POINT (-91.170466389392 30.427329690262)","27","East Polk Street Park","BREC PARK","BREC","BREC","1700 E POLK ST","BATON ROUGE","LOUISIANA","70802","225-272-9200","http://www.brec.org/index.cfm/park/EastPolkStreet","39932"
"POINT (-91.158432520498 30.492303458809)","6","BRFD Station 3","FIRE PROTECTION","BATON ROUGE FIRE DEPARTMENT","CITY/PARISH","3142 EVANGELINE ST","BATON ROUGE","LOUISIANA","70805",,,"69269"
"POINT (-91.193008958608 30.390820775284)","109","BRFD Station 15","FIRE PROTECTION","BATON ROUGE FIRE DEPARTMENT","CITY/PARISH","3150 BRIGHTSIDE DR","BATON ROUGE","LOUISIANA","70820",,,"69443"
"POINT (-90.99651846701 30.603584077218)","116","Pride VFD Station 11","FIRE PROTECTION","PRIDE VOLUNTEER FIRE DEPARTMENT","CITY/PARISH","16929 LIBERTY RD","GREENWELL SPRINGS","LOUISIANA","70739",,,"39793"
"POINT (-91.164498187181 30.590332261535)","225","Baker Senior Center","SENIOR CENTER","COUNCIL ON AGING","CITY/PARISH","3334 JEFFERSON ST","BAKER","LOUISIANA","70714",,"http://www.ebrcoa.org/","189692"
"POINT (-91.163365214989 30.588936594173)","91","EBRP Library Baker Branch","LIBRARY","EBR PARISH LIBRARY","CITY/PARISH","3501 GROOM RD","BAKER","LOUISIANA","70714","225-778-5980",,"144555"
"POINT (-91.183876459822 30.452925343175)","235","Catholic-Presbyterian Apts Senior Center","SENIOR CENTER","COUNCIL ON AGING","CITY/PARISH","655 NORTH ST","BATON ROUGE","LOUISIANA","70802",,"http://www.ebrcoa.org/","104788"
"POINT (-91.103924513931 30.443949426342)","67","Independence Community Park","BREC PARK","BREC","BREC","7505 INDEPENDENCE BLVD","BATON ROUGE","LOUISIANA","70806","225-928-7860","http://brec.org/index.cfm/park/independenceCommunityPark","111587"
"POINT (-91.161802675818 30.526981181512)","430","DHH Office of Public Health","STATE OFFICES","STATE OF LOUISIANA","STATE","8453 VETERANS MEMORIAL BLVD","BATON ROUGE","LOUISIANA","70807",,,"118068"
"POINT (-91.136647483427 30.351318766688)","68","South Wastewater Treatment Facility","PUBLIC WORKS","DEPARTMENT OF ENVIRONMENTAL SERVICES","CITY/PARISH","2850 GARDERE LN","BATON ROUGE","LOUISIANA","70820",,,"65202"
"POINT (-91.070384089302 30.399535987085)","205","Jefferson Terrace Park","BREC PARK","BREC","BREC","10282 CAL RD","BATON ROUGE","LOUISIANA","70809","225-272-9200","http://www.brec.org/index.cfm/park/JeffersonTerrace","1714"
"POINT (-91.129404150852 30.466039547696)","166","Ardenwood Village","PUBLIC HOUSING","EBRP HOUSING AUTHORITY","CITY/PARISH","1957 N ARDENWOOD DR","BATON ROUGE","LOUISIANA","70806",,,"50304"
"POINT (-91.162114104003 30.48719355443)","275","Kerr Warren Park","BREC PARK","BREC","BREC","4100 GERONIMO ST","BATON ROUGE","LOUISIANA","70805","225-356-5118","http://brec.org/index.cfm/park/KerrWarren","80093"
"POINT (-91.074726545583 30.500082976647)","352","Samuel D'Agostino Park","BREC PARK","BREC","BREC","10300 EL SCOTT AVE","BATON ROUGE","LOUISIANA","70811","225-272-9200","http://www.brec.org/index.cfm/park/SamuelDAgostino","2645"
"POINT (-91.157884314578 30.449658583001)","165","EMS Station 6","EMS","EMERGENCY MEDICAL SERVICES","CITY/PARISH","3024 FLORIDA ST","BATON ROUGE","LOUISIANA","70806","225-389-5155",,"160948"
"POINT (-91.017407564294 30.704856379633)","90","EBRP Library Pride-Chaneyville Branch","LIBRARY","EBR PARISH LIBRARY","CITY/PARISH","13600 PORT HUDSON-PRIDE RD","PRIDE","LOUISIANA","70770","225-658-1580",,"140266"
"POINT (-91.106293690695 30.463618497423)","329","LADOTD District 61","STATE OFFICES","STATE OF LOUISIANA","STATE","8100 AIRLINE HWY","BATON ROUGE","LOUISIANA","70806",,,"138602"
"POINT (-91.105885138286 30.449166794796)","311","Department of Public Safety & La State Police","PUBLIC SAFETY","STATE OF LOUISIANA","STATE","7919 INDEPENDENCE BLVD","BATON ROUGE","LOUISIANA","70806",,,"133312"
"POINT (-91.037120551263 30.555263999974)","313","Central FD Station 31","FIRE PROTECTION","CENTRAL VOLUNTEER FIRE DEPARTMENT","CITY/PARISH","11646 SULLIVAN RD","CENTRAL","LOUISIANA","70818",,,"12463"
"POINT (-91.186421179255 30.452950189589)","300","Bienville Building","STATE OFFICES","STATE OF LOUISIANA","STATE","628 N 4TH ST","BATON ROUGE","LOUISIANA","70802",,,"102152"
"POINT (-91.171564445661 30.405177650422)","16","College Town Park","BREC PARK","BREC","BREC","251 AMHERST AVE","BATON ROUGE","LOUISIANA","70808","225-272-9200","http://www.brec.org/index.cfm/park/CollegeTown","51218"
"POINT (-91.185791664024 30.430822391778)","337","Duane Street Apartments","PUBLIC HOUSING","EBRP HOUSING AUTHORITY","CITY/PARISH","1701 DUANE ST","BATON ROUGE","LOUISIANA","70802",,,"39958"
"POINT (-91.157662458792 30.449648678664)","339","BRFD Station 1","FIRE PROTECTION","BATON ROUGE FIRE DEPARTMENT","CITY/PARISH","3024 FLORIDA ST","BATON ROUGE","LOUISIANA","70806",,,"160948"
"POINT (-91.146898962537 30.420646443697)","76","South Maintenance Lot","PUBLIC WORKS","DEPARTMENT OF MAINTENANCE","CITY/PARISH","3055 VALLEY ST","BATON ROUGE","LOUISIANA","70808",,,"142887"
"POINT (-91.197990298965 30.571910047791)","176","Alsen Park","BREC PARK","BREC","BREC","601 OLD RAFE MAYER RD","BATON ROUGE","LOUISIANA","70807","225-774-8078","http://brec.org/index.cfm/park/Alsen","99348"
"POINT (-91.156964482315 30.528720292909)","11","EBR Sheriff's Office","POLICE PROTECTION","EBR SHERIFFS OFFICE","CITY/PARISH","8900 JIMMY WEDELL DR","BATON ROUGE","LOUISIANA","70807","225-389-5000","https://www.ebrso.org/SHERIFF","155682"
"POINT (-91.044330812088 30.439314142431)","250","Boulevard De Province Park","BREC PARK","BREC","BREC","1717 BOULEVARD DE PROVINCE","BATON ROUGE","LOUISIANA","70816","225-272-9200","http://www.brec.org/index.cfm/park/BoulevarddeProvince","149686"
"POINT (-91.182967500152 30.600396060216)","359","Chamberlain Street Park","BREC PARK","BREC","BREC","16900 CHAMBERLAIN AVE","BAKER","LOUISIANA","70714","225-272-9200","http://www.brec.org/index.cfm/park/ChamberlainStreet","161237"
"POINT (-91.089333345066 30.533696825447)","197","Blackwater Conservation Area","BREC PARK","BREC","BREC","9385 BLACKWATER RD","BAKER","LOUISIANA","70714","225-273-6405","http://www.brec.org/index.cfm/park/BlackwaterConservationArea","125016"
"POINT (-91.102793851598 30.420872911698)","446","Municipal Employees Retirement System of La.","STATE OFFICES","STATE OF LOUISIANA","STATE","7937 OFFICE PARK BLVD","BATON ROUGE","LOUISIANA","70809",,,"114397"
"POINT (-91.172610299809 30.535772716697)","145","Jewel J. Newman Community Center","COMMUNITY CENTER","COMMUNITY DEVELOPMENT","CITY/PARISH","2013 CENTRAL RD","BATON ROUGE","LOUISIANA","70807",,,"51324"
"POINT (-91.180716046883 30.531143810707)","1","EBRSO Scotlandville Substation","POLICE PROTECTION","EBR SHERIFFS OFFICE","CITY/PARISH","1270 ROSENWALD RD","BATON ROUGE","LOUISIANA","70807","225-389-5105",,"19987"
"POINT (-91.026068981234 30.450311879738)","112","BRFD Station 17","FIRE PROTECTION","BATON ROUGE FIRE DEPARTMENT","CITY/PARISH","14350 OLD HAMMOND HWY","BATON ROUGE","LOUISIANA","70816",,,"28337"
"POINT (-91.074584609501 30.459639281697)","347","Fiesta Park","BREC PARK","BREC","BREC","1000 FIESTA CT","BATON ROUGE","LOUISIANA","70815","225-272-9200","http://www.brec.org/index.cfm/park/Fiesta","20"
"POINT (-90.989162527372 30.345896577018)","257","Manchac Park","BREC PARK","BREC","BREC","19010 JEFFERSON HWY","BATON ROUGE","LOUISIANA","70817","225-272-9200","http://www.brec.org/index.cfm/park/Manchac","48315"
"POINT (-91.186963400434 30.461015846934)","303","Louisiana 1st Circuit Court of Appeals","COURTHOUSE","STATE OF LOUISIANA","STATE","1600 N 3RD ST","BATON ROUGE","LOUISIANA","70802",,,"40019"
"POINT (-91.013113290612 30.44226517595)","256","Kathy Drive Park","BREC PARK","BREC","BREC","1801 KATHY DR","BATON ROUGE","LOUISIANA","70816","225-275-9819","http://brec.org/index.cfm/park/KathyDrive","44780"
"POINT (-91.035009432628 30.414259132352)","206","Leo And Murlin Willie Park","BREC PARK","BREC","BREC","4101 STUMBERG LN","BATON ROUGE","LOUISIANA","70817","225-272-9200","http://www.brec.org/index.cfm/park/LeoMurlinWillie","153709"
"POINT (-91.14131944362 30.455416869189)","171","48th Street Park","BREC PARK","BREC","BREC","628 N 48TH ST","BATON ROUGE","LOUISIANA","70806","225-927-2538","http://www.brec.org/index.cfm/park/FortyEigthStreet","102308"
"POINT (-91.148333188333 30.419272408167)","164","EMS Station 7","EMS","EMERGENCY MEDICAL SERVICES","CITY/PARISH","4025 PERKINS RD","BATON ROUGE","LOUISIANA","70808","225-389-5155",,"79295"
"POINT (-91.182412211995 30.435407670779)","439","Freeman-Matthews Head Start","HEAD START","HEAD START","CITY/PARISH","1383 NAPOLEON ST","BATON ROUGE","LOUISIANA","70802",,,"136647"
"POINT (-91.129876418556 30.504737778209)","336","Willow Creek Townhomes","PUBLIC HOUSING","EBRP HOUSING AUTHORITY","CITY/PARISH","5876 QUIDA MAE DR","BATON ROUGE","LOUISIANA","70812",,,"98249"
"POINT (-91.097441131875 30.409202733542)","450","LA School Employees Retirement System","STATE OFFICES","STATE OF LOUISIANA","STATE","8660 UNITED PLAZA BLVD","BATON ROUGE","LOUISIANA","70809",,,"119456"
"POINT (-91.051699780939 30.550620514412)","89","EBRP Library Central Branch","LIBRARY","EBR PARISH LIBRARY","CITY/PARISH","11260 JOOR RD","CENTRAL","LOUISIANA","70818","225-262-2680",,"10177"
"POINT (-91.176670608045 30.46147862431)","394","DOTD Permit and Weight Enforcement","STATE OFFICES","STATE OF LOUISIANA","STATE","1404 E HIGHWAY DR","BATON ROUGE","LOUISIANA","70802",,,"138346"
"POINT (-91.091057693271 30.444777540429)","403","BRPD Training","POLICE PROTECTION","BATON ROUGE POLICE DEPARTMENT","CITY/PARISH","9050 AIRLINE HWY, STE 110","BATON ROUGE","LOUISIANA","70815","225-389-3886","http://www.lsp.org/academy.html","121936"
"POINT (-91.130647712293 30.491986192515)","62","West Brookstown Park","BREC PARK","BREC","BREC","4550 E BROOKSTOWN DR","BATON ROUGE","LOUISIANA","70805","225-272-9200","http://www.brec.org/index.cfm/park/WestBrookstown","143495"
"POINT (-90.957746682307 30.662471350495)","270","Sandy Creek Community Park","BREC PARK","BREC","BREC","21572 CARSON RD","GREENWELL SPRINGS","LOUISIANA","70739","225-273-6405","http://www.brec.org/index.cfm/park/SandyCreek","150718"
"POINT (-91.101558693736 30.424479120157)","66","Jefferson Highway Park","BREC PARK","BREC","BREC","8133 JEFFERSON HWY","BATON ROUGE","LOUISIANA","70809","225-926-9834","http://www.brec.org/index.cfm/park/JeffersonHighway","115658"
"POINT (-91.149047188391 30.46175999122)","143","Dr. Martin Luther King, Jr. Community Center","COMMUNITY CENTER","COMMUNITY DEVELOPMENT","CITY/PARISH","4142 GUS YOUNG AVE","BATON ROUGE","LOUISIANA","70802",,,"134594"
"POINT (-91.055739581441 30.478737802989)","254","North Sherwood Forest Community Park","BREC PARK","BREC","BREC","3140 N SHERWOOD FOREST DR","BATON ROUGE","LOUISIANA","70814","225-275-0568","http://www.brec.org/index.cfm/park/NorthSherwoodForestCommunityPark","69249"
"POINT (-91.003863851985 30.407554661309)","322","St George FD Station 66","FIRE PROTECTION","ST GEORGE VOLUNTEER FIRE DEPARTMENT","CITY/PARISH","16415 GEORGE O'NEAL RD","BATON ROUGE","LOUISIANA","70817",,,"37387"
"POINT (-91.157431110649 30.490914248883)","155","BRPD District 1 Station","POLICE PROTECTION","BATON ROUGE POLICE DEPARTMENT","CITY/PARISH","4545 PLANK RD","BATON ROUGE","LOUISIANA","70805","225-389-3866","https://www.brla.gov/203/Police-Department","83755"
"POINT (-91.093180007002 30.445278530993)","404","BRPD S-3 Building","POLICE PROTECTION","BATON ROUGE POLICE DEPARTMENT","CITY/PARISH","9048 AIRLINE HWY","BATON ROUGE","LOUISIANA","70815","225-389-3414","https://www.ebrda.org/child_support.php","213203"
"POINT (-91.200739919983 30.538129510211)","228","Greater King David Baptist Church Senior Center","SENIOR CENTER","COUNCIL ON AGING","CITY/PARISH","131 ELMER AVE","BATON ROUGE","LOUISIANA","70807",,"http://www.ebrcoa.org/","21315"
"POINT (-91.200115130431 30.535190717984)","338","Wesley Chapel Apartments","PUBLIC HOUSING","EBRP HOUSING AUTHORITY","CITY/PARISH","10008 AVENUE L","BATON ROUGE","LOUISIANA","70807",,,"67"
"POINT (-91.126354527525 30.403371663529)","414","Louisiana Housing Corporation","STATE OFFICES","STATE OF LOUISIANA","STATE","2415 QUAIL DR","BATON ROUGE","LOUISIANA","70808",,,"59422"
"POINT (-91.103514203858 30.382578793459)","424","LSU Health System Perkins Surgical Center","HEALTH CARE","STATE OF LOUISIANA","STATE","9032 PERKINS RD","BATON ROUGE","LOUISIANA","70810",,,"121756"
"POINT (-91.19539734887 30.580886102354)","400","Southern Univ. Research Farm & Livestock Arena","UNIVERSITY","STATE OF LOUISIANA","STATE","14600 SCENIC HWY","BATON ROUGE","LOUISIANA","70807",,,"143081"
"POINT (-91.116405804035 30.550834524912)","237","Foster Road Baptist Church Senior Center","SENIOR CENTER","COUNCIL ON AGING","CITY/PARISH","11333 FOSTER RD","BATON ROUGE","LOUISIANA","70811",,"http://www.ebrcoa.org/","10509"
"POINT (-91.091754035093 30.368881249856)","52","Rue Lebouef Park","BREC PARK","BREC","BREC","11550 RUE LEBOUEF","BATON ROUGE","LOUISIANA","70810","225-272-9200","http://www.brec.org/index.cfm/park/RueLeBouef","130333"
"POINT (-91.104145461725 30.418662597514)","447","Municipal Police Employees Retirement System","STATE OFFICES","STATE OF LOUISIANA","STATE","7722 OFFICE PARK BLVD","BATON ROUGE","LOUISIANA","70809",,,"135027"
"POINT (-91.172483678387 30.441371817064)","443","Wonderland Head Start","HEAD START","HEAD START","CITY/PARISH","1500 OLEANDER ST","BATON ROUGE","LOUISIANA","70802",,,"30392"
"POINT (-91.175500971129 30.541801921467)","161","Scotland Villa Apartments","PUBLIC HOUSING","EBRP HOUSING AUTHORITY","CITY/PARISH","10666 SCOTLAND AVE","BATON ROUGE","LOUISIANA","70807",,,"5952"
"POINT (-91.118414286233 30.575956293388)","194","T.D. Bickham, Jr. Park","BREC PARK","BREC","BREC","6850 PETTIT RD","BAKER","LOUISIANA","70714","225-774-9513","http://www.brec.org/index.cfm/park/TDBickham","106868"
"POINT (-91.186165478613 30.533347864328)","438","Discovery Head Start","HEAD START","HEAD START","CITY/PARISH","9700 SCENIC HWY","BATON ROUGE","LOUISIANA","70807",,,"127755"
"POINT (-91.164661020044 30.613593111208)","78","North Maintenance Lot","PUBLIC WORKS","DEPARTMENT OF MAINTENANCE","CITY/PARISH","3207 MAIN ST","BAKER","LOUISIANA","70714",,,"144064"
"POINT (-91.185066380336 30.446749828235)","332","Old Governor's Mansion","SPECIAL FACILITY","STATE OF LOUISIANA","STATE","502 NORTH BLVD","BATON ROUGE","LOUISIANA","70802",,,"88586"
"POINT (-91.072664375555 30.428198818232)","246","Cedarcrest Park","BREC PARK","BREC","BREC","2490 SILVEREST AVE","BATON ROUGE","LOUISIANA","70816","225-927-8092","http://www.brec.org/index.cfm/park/Cedarcrest","60449"
"POINT (-90.99952434639 30.346561898898)","208","Airline Highway Park","BREC PARK","BREC","BREC","16072 AIRLINE HWY","BATON ROUGE","LOUISIANA","70817","225-272-9200","http://www.brec.org/index.cfm/park/AirlineHighway","40787"
"POINT (-91.188367116483 30.448541011095)","409","BRPD Downtown District Station","POLICE PROTECTION","BATON ROUGE POLICE DEPARTMENT","CITY/PARISH","201 3RD ST","BATON ROUGE","LOUISIANA","70801","225-389-3854","https://www.brla.gov/1654/Uniform-Patrol-Bureau","142435"
"POINT (-91.137271808429 30.464267344134)","101","BRFD Station 6","FIRE PROTECTION","BATON ROUGE FIRE DEPARTMENT","CITY/PARISH","5321 GREENWELL SPRINGS RD","BATON ROUGE","LOUISIANA","70806",,,"92337"
"POINT (-91.089305951763 30.446222609731)","345","Parkview Park","BREC PARK","BREC","BREC","9000 N PARKVIEW DR","BATON ROUGE","LOUISIANA","70815","225-272-9200","http://www.brec.org/index.cfm/park/Parkview","121408"
"POINT (-90.997262546641 30.393679709542)","287","Antioch Boulevard Park","BREC PARK","BREC","BREC","6229 ANTIOCH BLVD","BATON ROUGE","LOUISIANA","70817","225-752-8316","http://brec.org/index.cfm/park/Antioch","101720"
"POINT (-91.018636233686 30.396405157334)","86","EBRP Library Jones Creek Regional Branch","LIBRARY","EBR PARISH LIBRARY","CITY/PARISH","6222 JONES CREEK RD","BATON ROUGE","LOUISIANA","70817","225-756-1180",,"101619"
"POINT (-91.036998523783 30.555094180899)","173","EMS Station 3","EMS","EMERGENCY MEDICAL SERVICES","CITY/PARISH","11644 SULLIVAN RD","CENTRAL","LOUISIANA","70818","225-389-5155",,"217341"
"POINT (-91.182742843214 30.436030164154)","81","EBRP Library Carver Branch","LIBRARY","EBR PARISH LIBRARY","CITY/PARISH","720 TERRACE ST","BATON ROUGE","LOUISIANA","70802","225-389-7480",,"136646"
"POINT (-91.010317641597 30.578631667373)","266","Palomino Drive Park","BREC PARK","BREC","BREC","14100 PALOMINO DR","GREENWELL SPRINGS","LOUISIANA","70739","225-272-9200","http://www.brec.org/index.cfm/park/PalominoDrive","142413"
"POINT (-91.119383425961 30.350520544341)","434","Charlie Thomas Memorial Head Start","HEAD START","HEAD START","CITY/PARISH","8686 PECAN TREE DR","BATON ROUGE","LOUISIANA","70810",,,"138685"
"POINT (-91.161047289267 30.459141501166)","441","New Horizon Head Start","HEAD START","HEAD START","CITY/PARISH","1111 N 28TH ST","BATON ROUGE","LOUISIANA","70802",,,"142079"
"POINT (-91.101845451958 30.639324320966)","199","Plank Road Park","BREC PARK","BREC","BREC","19550 PLANK RD","ZACHARY","LOUISIANA","70791","225-654-8401","http://www.brec.org/index.cfm/park/PlankRoad","50259"
"POINT (-91.142697120765 30.647295000922)","150","EBR Assessor Zachary Branch Office","MUNICIPAL OFFICES","EBRP ASSESSOR","CITY/PARISH","5850 MAIN ST","ZACHARY","LOUISIANA","70791",,,"197663"
"POINT (-91.186098646526 30.46226304917)","304","Poydras Building","STATE OFFICES","STATE OF LOUISIANA","STATE","1702 N 3RD ST","BATON ROUGE","LOUISIANA","70802",,,"139121"
"POINT (-91.105274129145 30.365212564127)","85","EBRP Library Bluebonnet Regional Branch","LIBRARY","EBR PARISH LIBRARY","CITY/PARISH","9200 BLUEBONNET BLVD","BATON ROUGE","LOUISIANA","70810","225-763-2280",,"123212"
"POINT (-91.153233562805 30.605075848029)","380","Warren O. Watson Park","BREC PARK","BREC","BREC","2700 TROTTER DR","BAKER","LOUISIANA","70714","225-272-9200","http://www.brec.org/index.cfm/park/WarrenOWatson","161244"
"POINT (-91.180956195933 30.531808926275)","110","BRFD Station 16","FIRE PROTECTION","BATON ROUGE FIRE DEPARTMENT","CITY/PARISH","1200 ROSENWALD RD","BATON ROUGE","LOUISIANA","70807",,,"14335"
"POINT (-90.99930567641 30.358930292266)","209","Brookfield Avenue Park","BREC PARK","BREC","BREC","17650 BROOKFIELD AVE","BATON ROUGE","LOUISIANA","70817","225-272-9200","http://www.brec.org/index.cfm/park/BrookfieldAvenue","130109"
"POINT (-91.133686512414 30.419386498134)","50","Congress Park","BREC PARK","BREC","BREC","5100 CONGRESS BLVD","BATON ROUGE","LOUISIANA","70808","225-272-9200","http://www.brec.org/index.cfm/park/Congress","151276"
"POINT (-91.119223675203 30.558214327344)","191","Cohn Arboretum","BREC PARK","BREC","BREC","12206 FOSTER RD","BATON ROUGE","LOUISIANA","70811","225-775-1006","http://brec.org/index.cfm/park/CohnArboretum","15851"
"POINT (-91.260248315896 30.595331042446)","212","Joint Emergency Services Training Center","STATE OFFICES","STATE OF LOUISIANA","STATE","1400 W IRENE RD","ZACHARY","LOUISIANA","70791",,,"25880"
"POINT (-91.130327967581 30.441161445347)","102","BRFD Station 7","FIRE PROTECTION","BATON ROUGE FIRE DEPARTMENT","CITY/PARISH","5758 CLAYCUT RD","BATON ROUGE","LOUISIANA","70806",,,"159183"
"POINT (-91.165030352362 30.58852942271)","216","Baker City Hall","MUNICIPAL OFFICES","CITY OF BAKER","BAKER","3325 GROOM RD","BAKER","LOUISIANA","70714",,,"189665"
"POINT (-91.171263086576 30.45381528607)","160","Capitol Square","PUBLIC HOUSING","EBRP HOUSING AUTHORITY","CITY/PARISH","700 N 17TH ST","BATON ROUGE","LOUISIANA","70802",,,"107707"
"POINT (-91.167681391335 30.450975956803)","383","Magnolia Cemetery","BREC PARK","BREC","BREC","422 N 19TH ST","BATON ROUGE","LOUISIANA","70802","225-272-9200","http://www.brec.org/index.cfm/park/MagnoliaCemetary","81290"
"POINT (-91.177770613837 30.450146075908)","132","EBRP Health Unit","HEALTH CARE","STATE OF LOUISIANA","STATE","353 N 12TH ST","BATON ROUGE","LOUISIANA","70802",,,"136098"
"POINT (-91.18663481874 30.463724405589)","305","Livingston Building","STATE OFFICES","STATE OF LOUISIANA","STATE","1885 N 3RD ST","BATON ROUGE","LOUISIANA","70802",,,"48048"
"POINT (-91.18735311236 30.471668112782)","72","Central Garage","PUBLIC WORKS","DEPARTMENT OF FLEET MANAGEMENT","CITY/PARISH","333 CHIPPEWA ST","BATON ROUGE","LOUISIANA","70805",,,"70425"
"POINT (-91.17118188095 30.46038306723)","420","L.C. Saurage Army Reserve Center","MILITARY","US FEDERAL GOVERNMENT","FEDERAL","1735 FOSS ST","BATON ROUGE","LOUISIANA","70802",,,"41530"
"POINT (-91.107700619093 30.488833229176)","317","District 6 FD Station 51","FIRE PROTECTION","HOOPER ROAD VOLUNTEER FIRE DEPARTMENT","CITY/PARISH","7878 PRESCOTT RD","BATON ROUGE","LOUISIANA","70812",,,"114145"
"POINT (-91.128920494971 30.518805746498)","283","Cadillac Street Park","BREC PARK","BREC","BREC","6117 CADILLAC ST","BATON ROUGE","LOUISIANA","70811","225-355-3505","http://brec.org/index.cfm/park/CadillacStreet","100384"
"POINT (-91.02882594661 30.691520666397)","268","Reames Road Park","BREC PARK","BREC","BREC","23223 REAMES RD","ZACHARY","LOUISIANA","70791","225-654-8190","http://www.brec.org/index.cfm/park/ReamesRoad","57879"
"POINT (-91.115313298726 30.41173277561)","221","LSU Rural Life Museum","SPECIAL FACILITY","STATE OF LOUISIANA","STATE","4560 ESSEN LN","BATON ROUGE","LOUISIANA","70809",,,"152865"
"POINT (-91.022294854947 30.428500967554)","92","Capital Region Planning Commission","MUNICIPAL OFFICES","CAPITAL REGION PLANNING COMMISSION","CITY/PARISH","14734 S HARRELL'S FERRY RD","BATON ROUGE","LOUISIANA","70816",,,"29522"
"POINT (-91.05951918657 30.460893276003)","227","Dumas House Senior Center","SENIOR CENTER","COUNCIL ON AGING","CITY/PARISH","1313 N SHERWOOD FOREST DR","BATON ROUGE","LOUISIANA","70815",,"http://www.ebrcoa.org/","138852"
"POINT (-91.188340105437 30.43847243901)","423","LA Property Assistance Agency","STATE OFFICES","STATE OF LOUISIANA","STATE","1059 BRICKYARD LN","BATON ROUGE","LOUISIANA","70802",,,"141965"
"POINT (-91.153811070844 30.522455507124)","140","ATM-EOC (Communications)","PUBLIC SAFETY","EBR COMMUNICATIONS DISTRICT","CITY/PARISH","3773 HARDING BLVD","BATON ROUGE","LOUISIANA","70807",,,"76623"
"POINT (-91.12823191366 30.496088243773)","63","East Brookstown Park","BREC PARK","BREC","BREC","4300 E BROOKSTOWN DR","BATON ROUGE","LOUISIANA","70805","225-272-9200","http://www.brec.org/index.cfm/park/EastBrookstown","82148"
"POINT (-91.180629494944 30.390376372001)","229","Sharlo Terrace Senior Center","SENIOR CENTER","COUNCIL ON AGING","CITY/PARISH","4915 ALVIN DARK AVE","BATON ROUGE","LOUISIANA","70820",,"http://www.ebrcoa.org/","87776"
"POINT (-91.149123402556 30.52207356407)","108","BRFD Station 14","FIRE PROTECTION","BATON ROUGE FIRE DEPARTMENT","CITY/PARISH","4121 HARDING BLVD","BATON ROUGE","LOUISIANA","70811",,,"80324"
"POINT (-91.097665858621 30.525945979249)","195","Comite River Park","BREC PARK","BREC","BREC","8900 HOOPER RD","BATON ROUGE","LOUISIANA","70811","225-272-9200","http://www.brec.org/index.cfm/park/Comite","120728"
"POINT (-91.18458253416 30.440657618499)","328","Department of Corrections","STATE OFFICES","STATE OF LOUISIANA","STATE","504 MAYFLOWER ST","BATON ROUGE","LOUISIANA","70802",,,"142261"
"POINT (-91.126021344339 30.472738854431)","280","Bird Station Park","BREC PARK","BREC","BREC","2623 MICHELLI DR","BATON ROUGE","LOUISIANA","70805","225-272-9200","http://www.brec.org/index.cfm/park/BirdStation","62173"
"POINT (-91.183055180021 30.436492371924)","20","Terrace Street Park","BREC PARK","BREC","BREC","701 TERRACE ST","BATON ROUGE","LOUISIANA","70802","225-344-7046","http://www.brec.org/index.cfm/park/TerraceStreet","107714"
"POINT (-91.1669974604 30.433174883446)","28","City Community Park","BREC PARK","BREC","BREC","1515 DALRYMPLE DR","BATON ROUGE","LOUISIANA","70808","225-387-1482","http://brec.org/index.cfm/park/CityBrooksCommunityPark","28075"
"POINT (-91.004724833729 30.553067714078)","375","Railey Roshto Park","BREC PARK","BREC","BREC","11207 NORWAY PINE DR","GREENWELL SPRINGS","LOUISIANA","70739","225-272-9200","http://www.brec.org/index.cfm/park/RaileyRoshto","12100"
"POINT (-91.18056603662 30.458924430905)","306","Governor's Mansion","SPECIAL FACILITY","STATE OF LOUISIANA","STATE","1001 CAPITOL ACCESS RD","BATON ROUGE","LOUISIANA","70802",,,"81"
"POINT (-91.221973104739 30.672361367261)","183","Ligon Road Park","BREC PARK","BREC","BREC","21600 LIGON RD","ZACHARY","LOUISIANA","70791","225-272-9200","http://www.brec.org/index.cfm/park/LigonRoad","54717"
"POINT (-91.008264618275 30.521396579857)","264","Greenwell Springs Park","BREC PARK","BREC","BREC","7550 SHADY PARK DR","GREENWELL SPRINGS","LOUISIANA","70739","225-272-9200","http://www.brec.org/index.cfm/park/GreenwellSprings","112105"
"POINT (-91.179335873841 30.450370735504)","24","Sports Academy","BREC PARK","BREC","BREC","1002 LAUREL ST","BATON ROUGE","LOUISIANA","70802","225-344-9688","http://www.brec.org/index.cfm/park/SportsAcademy","142368"
"POINT (-91.145231512943 30.422464292613)","372","Nairn Park","BREC PARK","BREC","BREC","2800 NAIRN DR","BATON ROUGE","LOUISIANA","70808","225-923-2720","http://www.brec.org/index.cfm/park/NairnDrive","65630"
"POINT (-91.188470030964 30.45020690843)","136","Visit Baton Rouge","MUNICIPAL OFFICES","VISIT BATON ROUGE","CITY/PARISH","359 3RD ST","BATON ROUGE","LOUISIANA","70801",,,"74683"
"POINT (-91.173501662969 30.52740341176)","354","Anna T. Jordan Community Park","BREC PARK","BREC","BREC","1750 STILT ST","BATON ROUGE","LOUISIANA","70807","225-775-1707","http://brec.org/index.cfm/park/AnnaTJordanCommunityPark","42306"
"POINT (-91.036014672792 30.468862255449)","387","BRFD Station 18","FIRE PROTECTION","BATON ROUGE FIRE DEPARTMENT","CITY/PARISH","1993 N FLANNERY RD","BATON ROUGE","LOUISIANA","70815",,,"50990"
"POINT (-91.095785847857 30.345979095513)","51","Burbank Soccer Complex","BREC PARK","BREC","BREC","12400 BURBANK DR","BATON ROUGE","LOUISIANA","70810","225-272-9200","http://www.brec.org/index.cfm/park/BurbankSoccerComplex","17626"
"POINT (-91.117005380124 30.472735389286)","427","DHH EBR Medicaid Office","STATE OFFICES","STATE OF LOUISIANA","STATE","2521 WOODDALE BLVD","BATON ROUGE","LOUISIANA","70805",,,"60854"
"POINT (-91.168677400792 30.560954317509)","356","J.S. Clark Park And Golf Course","BREC PARK","BREC","BREC","2301 THOMAS RD","BATON ROUGE","LOUISIANA","70807","225-775-9008","http://golf.brec.org/courses/dumas-memorial/","60123"
"POINT (-91.022335335961 30.587836812236)","316","Central FD Station 34","FIRE PROTECTION","CENTRAL VOLUNTEER FIRE DEPARTMENT","CITY/PARISH","15341 E BEAVER DR","PRIDE","LOUISIANA","70770",,,"32277"
"POINT (-91.029391911685 30.45801741385)","255","Lafitte Street Park","BREC PARK","BREC","BREC","400 LAFITTE DR","BATON ROUGE","LOUISIANA","70819","225-272-9200","http://www.brec.org/index.cfm/park/LafitteStreet","78919"
"POINT (-91.152816023121 30.523343493724)","130","Emergency Medical Services HQ and EMS Station 5","EMS","EMERGENCY MEDICAL SERVICES","CITY/PARISH","3801 HARDING BLVD","BATON ROUGE","LOUISIANA","70807","225-389-5155",,"166620"
"POINT (-91.134818245192 30.452983108459)","56","Fairfax Park","BREC PARK","BREC","BREC","5300 S AFTON PKWY","BATON ROUGE","LOUISIANA","70806","225-272-9200","http://www.brec.org/index.cfm/park/Fairfax","143471"
"POINT (-91.070326503777 30.408903106384)","452","LA Clerk of Courts Retirement System","STATE OFFICES","STATE OF LOUISIANA","STATE","10202 JEFFERSON HWY","BATON ROUGE","LOUISIANA","70809",,,"1421"
"POINT (-91.18899016327 30.452870661186)","298","LaSalle Building","STATE OFFICES","STATE OF LOUISIANA","STATE","617 N 3RD ST","BATON ROUGE","LOUISIANA","70802",,,"139120"
"POINT (-91.142848845165 30.59921521071)","193","Tristian Avenue Park","BREC PARK","BREC","BREC","5209 TRISTIAN AVE","BAKER","LOUISIANA","70714","225-272-9200","http://www.brec.org/index.cfm/park/TristianAvenue","161243"
"POINT (-91.058541779458 30.388180874205)","456","EBRSO Property Crimes Complex","PUBLIC SAFETY","EBR SHERIFFS OFFICE","CITY/PARISH","11130 INDUSTRIPLEX BLVD","BATON ROUGE","LOUISIANA","70809",,,"9204"
"POINT (-91.004711881942 30.520954490324)","265","Droze Road Park","BREC PARK","BREC","BREC","7700 DROZE RD","GREENWELL SPRINGS","LOUISIANA","70739","225-272-9200","http://www.brec.org/index.cfm/park/DrozeRoad","113029"
"POINT (-91.163355411579 30.535803522417)","363","Building Maintenance For Parish Prison","PUBLIC WORKS","DEPARTMENT OF BUILDINGS AND GROUNDS","CITY/PARISH","2859 LIEUTENANT GENERAL BENJAMIN DAVIS, JR. AVE","BATON ROUGE","LOUISIANA","70807",,,"163709"
"POINT (-91.173225098357 30.461415993643)","455","LADOTD Bridge Maintenance Unit","STATE OFFICES","STATE OF LOUISIANA","STATE","1375 N 17TH ST","BATON ROUGE","LOUISIANA","70802",,,"143484"
"POINT (-90.991217559184 30.356683039188)","123","St George FD Station 64","FIRE PROTECTION","ST GEORGE VOLUNTEER FIRE DEPARTMENT","CITY/PARISH","17575 HOO SHOO TOO RD","BATON ROUGE","LOUISIANA","70817",,,"138987"
"POINT (-91.15777357163 30.490815607957)","139","Human Development and Services","MUNICIPAL OFFICES","HUMAN DEVELOPMENT AND SERVICES","CITY/PARISH","4523 PLANK RD","BATON ROUGE","LOUISIANA","70805",,,"139434"
"POINT (-91.187900174299 30.445021476534)","96","River Center Performing Arts Theater","SPECIAL FACILITY",,"CITY/PARISH","240 SAINT LOUIS ST","BATON ROUGE","LOUISIANA","70802",,,"53004"
"POINT (-91.004423165388 30.517987491113)","315","Central FD Station 33","FIRE PROTECTION","CENTRAL VOLUNTEER FIRE DEPARTMENT","CITY/PARISH","7019 DONNYBROOK AVE","GREENWELL SPRINGS","LOUISIANA","70739",,,"202916"
"POINT (-91.098726841873 30.421403768836)","448","Public Safety Retirement Systems","STATE OFFICES","STATE OF LOUISIANA","STATE","3100 BRENTWOOD DR","BATON ROUGE","LOUISIANA","70809",,,"143096"
"POINT (-91.118033380037 30.396094381525)","49","Perkins Road Community Park and Olympia Field","BREC PARK","BREC","BREC","7122 PERKINS RD","BATON ROUGE","LOUISIANA","70808","225-766-5209","http://www.brec.org/index.cfm/park/PerkinsRoadCommunityPark","108627"
"POINT (-91.157004602359 30.496914923569)","82","EBRP Library Delmont Gardens Branch","LIBRARY","EBR PARISH LIBRARY","CITY/PARISH","3351 LORRAINE ST","BATON ROUGE","LOUISIANA","70805","225-354-7080",,"136619"
"POINT (-91.136436679017 30.507973934738)","417","LSU Health System North BR Clinic","HEALTH CARE","STATE OF LOUISIANA","STATE","5439 AIRLINE HWY","BATON ROUGE","LOUISIANA","70811",,,"147793"
"POINT (-91.118393824532 30.54395606849)","190","James Watson Park","BREC PARK","BREC","BREC","10555 FOSTER RD","BATON ROUGE","LOUISIANA","70811","225-272-9200","http://www.brec.org/index.cfm/park/JamesWatson","6979"
"POINT (-91.058219614804 30.414447460858)","111","BRFD Station 19","FIRE PROTECTION","BATON ROUGE FIRE DEPARTMENT","CITY/PARISH","11010 COURSEY BLVD","BATON ROUGE","LOUISIANA","70816",,,"8280"
"POINT (-91.068422109544 30.37140011882)","203","Meadow Park","BREC PARK","BREC","BREC","6951 MEADOW PARK AVE","BATON ROUGE","LOUISIANA","70810","225-272-9200","http://www.brec.org/index.cfm/park/Meadow","116991"
"POINT (-91.110366879387 30.37612749987)","53","Mayfair Park","BREC PARK","BREC","BREC","650 S SABINE DR","BATON ROUGE","LOUISIANA","70810","225-767-0710","http://www.brec.org/index.cfm/park/Mayfair","104303"
"POINT (-91.175953634197 30.431004737817)","230","Leo S. Butler Senior Center","SENIOR CENTER","COUNCIL ON AGING","CITY/PARISH","950 E WASHINGTON ST","BATON ROUGE","LOUISIANA","70802",,"http://www.ebrcoa.org/","126114"
"POINT (-91.189346329487 30.455525173654)","294","Pentagon Barracks","SPECIAL FACILITY","STATE OF LOUISIANA","STATE","959 N 3RD ST","BATON ROUGE","LOUISIANA","70802",,,"139118"
"POINT (-91.124390771822 30.346352453783)","46","Ben Burge Park","BREC PARK","BREC","BREC","9350 ANTIGUA DR","BATON ROUGE","LOUISIANA","70810","225-766-8616","http://www.brec.org/index.cfm/park/BenBurge","124680"
"POINT (-91.0401802579 30.492840992889)","378","Sugarland Park","BREC PARK","BREC","BREC","4700 SUGAR LAND DR","BATON ROUGE","LOUISIANA","70814","225-272-9200","http://www.brec.org/index.cfm/park/Sugarland","85943"
"POINT (-91.172442467983 30.458768799835)","33","Memorial Sports Complex","BREC PARK","BREC","BREC","1702 FOSS ST","BATON ROUGE","LOUISIANA","70802","225-273-6400","http://www.brec.org/index.cfm/park/MemorialStadium","40007"
"POINT (-91.129283040723 30.517508040425)","368","Zion Terrace","PUBLIC HOUSING","EBRP HOUSING AUTHORITY","CITY/PARISH","5958 CADILLAC ST","BATON ROUGE","LOUISIANA","70811",,,"142294"
"POINT (-91.022144175665 30.365343951288)","95","EBRSO Kleinpeter Substation","POLICE PROTECTION","EBR SHERIFFS OFFICE","CITY/PARISH","14431 AIRLINE HWY","BATON ROUGE","LOUISIANA","70817","225-389-5114",,"28174"
"POINT (-90.981072545226 30.473485455395)","259","Frenchtown Road Conservation Area","BREC PARK","BREC","BREC","17819 FRENCHTOWN RD","GREENWELL SPRINGS","LOUISIANA","70739","225-272-9200","http://www.brec.org/index.cfm/park/FrenchtownRoadConservationArea","44188"
"POINT (-91.033131745239 30.399438786793)","243","Cedar Ridge Avenue Park","BREC PARK","BREC","BREC","13300 CEDAR RIDGE AVE","BATON ROUGE","LOUISIANA","70817","225-751-2563","http://brec.org/index.cfm/park/CedarRidge","22342"
"POINT (-91.133679836813 30.480913076367)","61","Howell Community Park","BREC PARK","BREC","BREC","5509 WINBOURNE AVE","BATON ROUGE","LOUISIANA","70805","225-357-7906","http://brec.org/index.cfm/park/HowellCommunityPark","94357"
"POINT (-91.170528308554 30.454341476576)","373","North 18th Street Park","BREC PARK","BREC","BREC","1801 GAYOSA ST","BATON ROUGE","LOUISIANA","70802","225-272-9200","http://www.brec.org/index.cfm/park/North18thStreet","44779"
"POINT (-91.147019050143 30.462933589262)","180","Gus Young Park","BREC PARK","BREC","BREC","4201 GUS YOUNG AVE","BATON ROUGE","LOUISIANA","70802","225-926-5848","http://brec.org/index.cfm/park/GusYoung","81109"
"POINT (-91.128599691889 30.398848820612)","213","Department of Wildlife and Fisheries","STATE OFFICES","STATE OF LOUISIANA","STATE","2000 QUAIL DR","BATON ROUGE","LOUISIANA","70808",,,"51055"
"POINT (-91.187877810385 30.446095406515)","125","City Hall","MUNICIPAL OFFICES",,"CITY/PARISH","222 SAINT LOUIS ST","BATON ROUGE","LOUISIANA","70802",,,"55737"
"POINT (-91.123970404098 30.585806592689)","285","Brown Heights Park","BREC PARK","BREC","BREC","15206 PLANK RD","BAKER","LOUISIANA","70714","225-272-9200","http://www.brec.org/index.cfm/park/BrownHeights","143687"
"POINT (-91.164959416556 30.589346069909)","389","Baker Police Headquarters","POLICE PROTECTION","BAKER POLICE DEPARTMENT","BAKER","1320 ALABAMA AVE","BAKER","LOUISIANA","70714","225-775-6000","https://cityofbakerla.com/wp/police-department/","144556"
"POINT (-91.095144554689 30.413598155901)","428","Secretary of State","STATE OFFICES","STATE OF LOUISIANA","STATE","8585 ARCHIVES AVE","BATON ROUGE","LOUISIANA","70809",,,"147833"
"POINT (-91.161537992449 30.591790655894)","282","Jefferson Street Park","BREC PARK","BREC","BREC","3503 JEFFERSON ST","BAKER","LOUISIANA","70714","225-272-9200","http://www.brec.org/index.cfm/park/JeffersonStreet","161240"
"POINT (-91.125730052251 30.452492218657)","279","Milton J. Womack Park","BREC PARK","BREC","BREC","6201 FLORIDA BLVD","BATON ROUGE","LOUISIANA","70806","225-272-9200","http://www.brec.org/index.cfm/park/MiltonJWomack","137715"
"POINT (-91.184912774834 30.450642431622)","431","LA Lottery Corporation","STATE OFFICES","STATE OF LOUISIANA","STATE","555 LAUREL ST","BATON ROUGE","LOUISIANA","70801",,,"94976"
"POINT (-91.19162822832 30.420803046718)","335","Roosevelt Terrace","PUBLIC HOUSING","EBRP HOUSING AUTHORITY","CITY/PARISH","1255 W ROOSEVELT ST","BATON ROUGE","LOUISIANA","70802",,,"19090"
"POINT (-91.172333284387 30.574718312532)","416","National Guard Baker Armory","MILITARY","STATE OF LOUISIANA","STATE","2900 S MAGNOLIA DR","BAKER","LOUISIANA","70714",,,"175949"
"POINT (-91.107048544056 30.443843189552)","314","EBRP Main Library","LIBRARY","EBR PARISH LIBRARY","CITY/PARISH","7711 GOODWOOD BLVD","BATON ROUGE","LOUISIANA","70806","225-231-3750",,"113073"
"POINT (-91.03091083602 30.684573455797)","147","EBRSO Pride-Chaneyville Substation","POLICE PROTECTION","EBR SHERIFFS OFFICE","CITY/PARISH","12828 JACKSON RD","ZACHARY","LOUISIANA","70791","225-389-8985",,"20573"
"POINT (-91.150905859588 30.658644558217)","198","Avenue F Park","BREC PARK","BREC","BREC","4790 AVENUE F","ZACHARY","LOUISIANA","70791","225-272-9200","http://www.brec.org/index.cfm/park/AvenueF","161235"
"POINT (-91.021072064211 30.545120011971)","262","Kolby Park","BREC PARK","BREC","BREC","10620 CENTRAL PINE DR","CENTRAL","LOUISIANA","70818","225-272-9200","http://www.brec.org/index.cfm/park/Kolby","150839"
"POINT (-91.148389308314 30.461735527943)","233","Pearl George Senior Center","SENIOR CENTER","COUNCIL ON AGING","CITY/PARISH","4142 GUS YOUNG AVE","BATON ROUGE","LOUISIANA","70802",,"http://www.ebrcoa.org/","134594"
"POINT (-91.062874933635 30.539509818786)","179","Central Community Sports Park","BREC PARK","BREC","BREC","10501 LOVETT RD","CENTRAL","LOUISIANA","70818","225-272-9200","http://www.brec.org/index.cfm/park/CentralSportsPark","9851"
"POINT (-91.117951755261 30.478364547878)","437","Creative Head Start","HEAD START","HEAD START","CITY/PARISH","3165 VICTORIA DR","BATON ROUGE","LOUISIANA","70805",,,"142077"
"POINT (-91.121390559713 30.502601429344)","65","Rio Drive Park","BREC PARK","BREC","BREC","6900 RIO DR","BATON ROUGE","LOUISIANA","70812","225-272-9200","http://www.brec.org/index.cfm/park/RioDrive","107141"
"POINT (-91.024420546491 30.452119263481)","391","EMS Station 12","EMS","EMERGENCY MEDICAL SERVICES","CITY/PARISH","14523 OLD HAMMOND HWY","BATON ROUGE","LOUISIANA","70819","225-389-5155",,"138964"
"POINT (-91.189125920466 30.456811963435)","292","Louisiana State Capitol Annex","SPECIAL FACILITY","STATE OF LOUISIANA","STATE","1051 N 3RD ST","BATON ROUGE","LOUISIANA","70802",,,"4489"
"POINT (-91.058261790626 30.41432170624)","412","EBR Registrar of Voters Coursey Branch","MUNICIPAL OFFICES","REGISTRAR OF VOTERS","CITY/PARISH","11010 COURSEY BLVD","BATON ROUGE","LOUISIANA","70816",,,"8280"
"POINT (-91.155845079691 30.659861141778)","186","Rollins Road Park","BREC PARK","BREC","BREC","5794 ROLLINS RD","ZACHARY","LOUISIANA","70791","225-272-9200","http://www.brec.org/index.cfm/park/RollinsRoad","161234"
"POINT (-91.168998316316 30.460735031635)","35","Goldsby Field Park","BREC PARK","BREC","BREC","1502 FOSS ST","BATON ROUGE","LOUISIANA","70802","225-272-9200","http://www.brec.org/index.cfm/park/GoldsbyField","30497"
"POINT (-91.068838183186 30.447413899459)","107","BRFD Station 13","FIRE PROTECTION","BATON ROUGE FIRE DEPARTMENT","CITY/PARISH","835 SHARP RD","BATON ROUGE","LOUISIANA","70815",,,"117359"
"POINT (-91.189197307206 30.444238377648)","127","Raising Cane's River Center","SPECIAL FACILITY",,"CITY/PARISH","275 S RIVER RD","BATON ROUGE","LOUISIANA","70802",,,"63902"
"POINT (-91.177542223061 30.423485740333)","19","Corporate Parkway","BREC PARK","BREC","BREC","333 E GRANT ST","BATON ROUGE","LOUISIANA","70802","225-272-9200","http://www.brec.org/index.cfm/park/CorporateParkway","71550"
"POINT (-91.018358548782 30.384512489837)","178","Baringer Road Park","BREC PARK","BREC","BREC","7401 BARINGER RD","BATON ROUGE","LOUISIANA","70817","225-751-3733","http://www.brec.org/index.cfm/park/baringer","110814"
"POINT (-91.143576032122 30.646790101637)","163","EMS Station 8","EMS","EMERGENCY MEDICAL SERVICES","CITY/PARISH","5650 CARPENTER RD","ZACHARY","LOUISIANA","70791","225-389-5155",,"197655"
"POINT (-91.130403696609 30.575362796601)","118","Baker FD Station 22","FIRE PROTECTION","BAKER FIRE DEPARTMENT","BAKER","6252 LAVEY LN","BAKER","LOUISIANA","70714",,,"175509"
"POINT (-91.183712849412 30.448761429454)","22","Convention Street Park","BREC PARK","BREC","BREC","717 CONVENTION ST","BATON ROUGE","LOUISIANA","70801","225-272-9200","http://www.brec.org/index.cfm/park/ConventionStreet","109085"
"POINT (-91.203249880188 30.533939502634)","148","North Wastewater Treatment Facility","PUBLIC WORKS","DEPARTMENT OF ENVIRONMENTAL SERVICES","CITY/PARISH","50 WOODPECKER ST","BATON ROUGE","LOUISIANA","70807",,,"88389"
"POINT (-91.091506256749 30.445296019668)","401","BRPD CIB Annex","POLICE PROTECTION","BATON ROUGE POLICE DEPARTMENT","CITY/PARISH","9000 AIRLINE HWY","BATON ROUGE","LOUISIANA","70815",,,"139586"
"POINT (-91.068290439396 30.365611090529)","320","St George FD Station 61","FIRE PROTECTION","ST GEORGE VOLUNTEER FIRE DEPARTMENT","CITY/PARISH","13686 PERKINS RD","BATON ROUGE","LOUISIANA","70810",,,"24614"
"POINT (-91.179858081881 30.426097383121)","99","BRPD District 2 Station","POLICE PROTECTION","BATON ROUGE POLICE DEPARTMENT","CITY/PARISH","2265 HIGHLAND RD","BATON ROUGE","LOUISIANA","70802","225-389-3863","http://brgov.com/","56915"
"POINT (-91.108077205092 30.368194929805)","277","Bluebonnet Swamp Nature Center","BREC PARK","BREC","BREC","10503 N OAK HILLS PKWY","BATON ROUGE","LOUISIANA","70810","225-757-8905","http://brec.org/index.cfm/park/BluebonnetSwamp","4436"
"POINT (-91.032302487423 30.381399935263)","241","Pinehurst Park","BREC PARK","BREC","BREC","13888 PINEHURST AVE","BATON ROUGE","LOUISIANA","70817","225-272-9200","http://www.brec.org/index.cfm/park-map/pinehurst","130311"
"POINT (-91.040396188847 30.55394149834)","222","Central City Hall","MUNICIPAL OFFICES","CITY OF CENTRAL","CENTRAL","13421 HOOPER RD, STE 9","CENTRAL","LOUISIANA","70818",,,"201800"
"POINT (-91.042058095846 30.438541407382)","252","Jones Creek Park","BREC PARK","BREC","BREC","12300 OLD HAMMOND HWY","BATON ROUGE","LOUISIANA","70816","225-272-9200","http://www.brec.org/index.cfm/park/JonesCreek","142786"
"POINT (-91.103566299678 30.446567178563)","415","DPS Data Processing Center","STATE OFFICES","STATE OF LOUISIANA","STATE","8001 INDEPENDENCE BLVD","BATON ROUGE","LOUISIANA","70806",,,"133313"
"POINT (-91.027050459191 30.685152577649)","388","Chaneyville VFD Station 40","FIRE PROTECTION","CHANEYVILLE VOLUNTEER FIRE DEPARTMENT","CITY/PARISH","22790 REAMES RD","ZACHARY","LOUISIANA","70791",,,"57157"
"POINT (-91.039144081153 30.469263847809)","253","Duchess Drive Park","BREC PARK","BREC","BREC","1701 DUCHESS DR","BATON ROUGE","LOUISIANA","70815","225-272-9200","http://www.brec.org/index.cfm/park/DuchessDrive","39959"
"POINT (-91.158429710959 30.492337874379)","168","EMS Station 15-10","EMS","EMERGENCY MEDICAL SERVICES","CITY/PARISH","3142 EVANGELINE ST","BATON ROUGE","LOUISIANA","70805","225-389-5155",,"69269"
"POINT (-91.091907554308 30.467633290361)","346","Cortana Place Park","BREC PARK","BREC","BREC","1901 CORTANA PL","BATON ROUGE","LOUISIANA","70815","225-272-9200","http://www.brec.org/index.cfm/park/map/42","124041"
"POINT (-91.165245483579 30.537185481932)","70","Animal Control Center","MUNICIPAL OFFICES",,"CITY/PARISH","2680 PROGRESS RD","BATON ROUGE","LOUISIANA","70807",,,"62957"
"POINT (-91.116661775815 30.474598523341)","454","DPS&C Probation and Parole District Office","STATE OFFICES","STATE OF LOUISIANA","STATE","2751 WOODDALE BLVD","BATON ROUGE","LOUISIANA","70805",,,"63939"
"POINT (-91.178902358885 30.414488686075)","466","Louisiana State University","UNIVERSITY","STATE OF LOUISIANA","STATE","3810 W LAKESHORE DR","BATON ROUGE","LOUISIANA","70808",,,"76829"
"POINT (-90.979981433934 30.693179808019)","514","US Post Office - Pride","POSTAL","US POSTAL SERVICE","FEDERAL","16524 PORT HUDSON-PRIDE RD","PRIDE","LOUISIANA","70770",,,"38061"
"POINT (-91.094025719737 30.376815480953)","507","US Post Office - Commerce Park","POSTAL","US POSTAL SERVICE","FEDERAL","10380 PERKINS RD","BATON ROUGE","LOUISIANA","70810",,,"3467"
"POINT (-90.993412932069 30.573048577911)","512","US Post Office - Greenwell Springs","POSTAL","US POSTAL SERVICE","FEDERAL","22801 GREENWELL SPRINGS RD","GREENWELL SPRINGS","LOUISIANA","70739",,,"202245"
"POINT (-91.242742637245 30.609130477115)","475","Irene Road Facility","PUBLIC WORKS","DEPARTMENT OF ENVIRONMENTAL SERVICES","CITY/PARISH","801 W IRENE RD","ZACHARY","LOUISIANA","70791",,,"144838"
"POINT (-91.146140592931 30.421853126788)","457","Business Operations Warehouse","PUBLIC WORKS","OFFICE OF BUSINESS OPERATIONS","CITY/PARISH","2931 VALLEY ST","BATON ROUGE","LOUISIANA","70808",,,"66101"
"POINT (-91.104992149344 30.472715473376)","477","Wastewater Engineering and Technology","PUBLIC WORKS","DEPARTMENT OF ENVIRONMENTAL SERVICES","CITY/PARISH","8080 PARIS AVE","BATON ROUGE","LOUISIANA","70814",,,"174884"
"POINT (-91.143860464459 30.444108719643)","501","US Post Office - Audubon","POSTAL","US POSTAL SERVICE","FEDERAL","4500 GOVERNMENT ST","BATON ROUGE","LOUISIANA","70806",,,"84117"
"POINT (-91.139640111211 30.421043993968)","502","US Post Office - Southeast","POSTAL","US POSTAL SERVICE","FEDERAL","4535 BENNINGTON AVE","BATON ROUGE","LOUISIANA","70808",,,"84471"
"POINT (-91.076420658026 30.454357420842)","504","US Post Office - Broadview","POSTAL","US POSTAL SERVICE","FEDERAL","235 MARILYN DR","BATON ROUGE","LOUISIANA","70815",,,"58588"
"POINT (-91.156357339676 30.518441794052)","518","North Baton Rouge Behavioral Health","HEALTH CARE","CAPITAL AREA HUMAN SERVICES DISTRICT","STATE","7855 HOWELL BLVD","BATON ROUGE","LOUISIANA","70807","225-359-9315","http://www.cahsd.org","114054"
"POINT (-91.106879869943 30.408399044565)","495","LSU Burden Research Center","UNIVERSITY","STATE OF LOUISIANA","STATE","276 CONFERENCE CENTER LN","BATON ROUGE","LOUISIANA","70809",,,"232972"
"POINT (-91.026605026689 30.365766669595)","515","St George FD HQ","FIRE PROTECTION","ST GEORGE VOLUNTEER FIRE DEPARTMENT","CITY/PARISH","14100 AIRLINE HWY","BATON ROUGE","LOUISIANA","70809",,,"26272"
"POINT (-91.140233249153 30.447236811437)","486","Department of Veterans Affairs Outpatient Clinic","HEALTH CARE","US FEDERAL GOVERNMENT","FEDERAL","216 S FOSTER DR","BATON ROUGE","LOUISIANA","70806",,,"54694"
"POINT (-91.183032016294 30.449700501653)","483","Federal Building","COURTHOUSE","US FEDERAL GOVERNMENT","FEDERAL","707 FLORIDA ST","BATON ROUGE","LOUISIANA","70801",,,"108330"
"POINT (-91.169548281933 30.450200425933)","473","Baton Rouge Area Drug and Alcohol Center","HEALTH CARE",,"CITY/PARISH","1819 FLORIDA ST","BATON ROUGE","LOUISIANA","70802",,,"139124"
"POINT (-91.169819835674 30.586481799024)","510","US Post Office - Baker","POSTAL","US POSTAL SERVICE","FEDERAL","3009 RAY WEILAND DR","BAKER","LOUISIANA","70714",,,"188997"
"POINT (-91.136973718477 30.448683986744)","468","Baton Rouge Community College","UNIVERSITY","STATE OF LOUISIANA","STATE","201 COMMUNITY COLLEGE DR","BATON ROUGE","LOUISIANA","70806",,,"153378"
"POINT (-91.097702409452 30.375842776936)","508","US Post Office - General Mail Facility","POSTAL","US POSTAL SERVICE","FEDERAL","8101 BLUEBONNET BLVD","BATON ROUGE","LOUISIANA","70810",,,"115395"
"POINT (-91.001190348719 30.393719975947)","460","Antioch Rd Park Senior Center","SENIOR CENTER","COUNCIL ON AGING","CITY/PARISH","6229 ANTIOCH BLVD","BATON ROUGE","LOUISIANA","70817",,"http://www.ebrcoa.org/","101720"
"POINT (-91.182273593922 30.450037909805)","484","Russell B. Long Federal Building and Courthouse","COURTHOUSE","US FEDERAL GOVERNMENT","FEDERAL","777 FLORIDA ST","BATON ROUGE","LOUISIANA","70801",,,"140405"
"POINT (-91.167001526162 30.591594235117)","481","Baker Heritage Museum","SPECIAL FACILITY","CITY OF BAKER","BAKER","1606 MAIN ST","BAKER","LOUISIANA","70714",,,"189947"
"POINT (-91.030483296423 30.514566408953)","482","Central Municipal Services Center","MUNICIPAL OFFICES","CITY OF CENTRAL","CENTRAL","6703 SULLIVAN RD","GREENWELL SPRINGS","LOUISIANA","70739",,,"202761"
"POINT (-91.140348961032 30.650197489978)","513","US Post Office - Zachary","POSTAL","US POSTAL SERVICE","FEDERAL","6001 MAIN ST","ZACHARY","LOUISIANA","70791",,,"198717"
"POINT (-91.102618451034 30.402262157214)","471","Southeastern La. Univ. School Of Nursing","UNIVERSITY","STATE OF LOUISIANA","STATE","7900 MARGARET ANN AVE","BATON ROUGE","LOUISIANA","70809",,,"87347"
"POINT (-91.171731711987 30.369232234729)","492","LSU Central Agriculture Research Station","UNIVERSITY","STATE OF LOUISIANA","STATE","2310 BEN HUR RD","BATON ROUGE","LOUISIANA","70820",,,"135025"
"POINT (-91.189932857032 30.453435908167)","490","Capitol Complex Central Plant South","STATE OFFICES","STATE OF LOUISIANA","STATE","602 N RIVER RD","BATON ROUGE","LOUISIANA","70802",,,"142438"
"POINT (-91.155413252766 30.477320150152)","470","Baton Rouge Community College - Acadian Campus","UNIVERSITY","STATE OF LOUISIANA","STATE","3250 N ACADIAN THWY","BATON ROUGE","LOUISIANA","70805",,,"70772"
"POINT (-91.165385454216 30.449531934833)","474","Capital Area Transit System Transfer Terminal","SPECIAL FACILITY","CAPITAL AREA TRANSIT SYSTEM","CITY/PARISH","2222 FLORIDA ST","BATON ROUGE","LOUISIANA","70802",,,"154917"
"POINT (-91.168779094802 30.44834869325)","494","DCFS Office of Economic Stability","STATE OFFICES","STATE OF LOUISIANA","STATE","1919 NORTH BLVD","BATON ROUGE","LOUISIANA","70806",,,"48885"
"POINT (-91.185147766883 30.437641048401)","469","Baton Rouge Community College - Frazier Campus","UNIVERSITY","STATE OF LOUISIANA","STATE","555 JULIA ST","BATON ROUGE","LOUISIANA","70802",,,"94974"
"POINT (-91.106682327615 30.447953349606)","517","LSP Training Academy","PUBLIC SAFETY","STATE OF LOUISIANA","STATE","7901 INDEPENDENCE BLVD","BATON ROUGE","LOUISIANA","70806",,,"133308"
"POINT (-91.182539598627 30.449319756516)","500","US Post Office - BR Main","POSTAL","US POSTAL SERVICE","FEDERAL","750 FLORIDA ST","BATON ROUGE","LOUISIANA","70801",,,"111572"
"POINT (-91.063070757213 30.434900260424)","506","US Post Office - Old Hammond","POSTAL","US POSTAL SERVICE","FEDERAL","10936 OLD HAMMOND HWY","BATON ROUGE","LOUISIANA","70816",,,"142299"
"POINT (-91.106477516292 30.395025856889)","487","Department of Veterans Affairs Clinic","HEALTH CARE","US FEDERAL GOVERNMENT","FEDERAL","7850 ANSELMO LN","BATON ROUGE","LOUISIANA","70810",,,"114027"
"POINT (-91.130126792597 30.45040517693)","480","EBR Council on Aging","MUNICIPAL OFFICES","COUNCIL ON AGING","CITY/PARISH","5790 FLORIDA BLVD","BATON ROUGE","LOUISIANA","70806",,,"97359"
"POINT (-91.026959944967 30.366116913993)","323","St George FD Station 60","FIRE PROTECTION","ST GEORGE VOLUNTEER FIRE DEPARTMENT","CITY/PARISH","14100 AIRLINE HWY","BATON ROUGE","LOUISIANA","70809",,,"26272"
"POINT (-91.194405450798 30.524498943269)","467","Southern University","UNIVERSITY","STATE OF LOUISIANA","STATE","803 HARDING BLVD","BATON ROUGE","LOUISIANA","70813",,,"130280"
"POINT (-91.116022389251 30.39812542716)","458","Perkins Rd Park Senior Center","SENIOR CENTER","COUNCIL ON AGING","CITY/PARISH","7122 PERKINS RD","BATON ROUGE","LOUISIANA","70808",,"http://www.ebrcoa.org/","108627"
"POINT (-91.189004184622 30.462779652993)","491","Capitol Complex Central Plant North","STATE OFFICES","STATE OF LOUISIANA","STATE","1835 N 3RD ST","BATON ROUGE","LOUISIANA","70802",,,"142436"
"POINT (-91.159758566487 30.527570926913)","479","EBR Sheriff's Office Special Ops & Fleet Services","POLICE PROTECTION","EBR SHERIFFS OFFICE","CITY/PARISH","8686 GENERAL CHENNAULT DR","BATON ROUGE","LOUISIANA","70807","225-907-0963",,"144601"
"POINT (-91.098900103779 30.446928170522)","465","Children's Behavioral Health","HEALTH CARE","CAPITAL AREA HUMAN SERVICES DISTRICT","STATE","422 COLONIAL DR","BATON ROUGE","LOUISIANA","70806","225-922-0445","http://www.cahsd.org","81295"
"POINT (-91.187825015892 30.470695102194)","476","Traffic Engineering Division","PUBLIC WORKS","DEPARTMENT OF TRANSPORTATION AND DRAINAGE","CITY/PARISH","329 CHIPPEWA ST","BATON ROUGE","LOUISIANA","70805",,,"138978"
"POINT (-91.172598444372 30.451389198536)","488","Federal Emergency Management Agency","PUBLIC SAFETY","US FEDERAL GOVERNMENT","FEDERAL","1500 MAIN ST","BATON ROUGE","LOUISIANA","70802",,,"30387"
"POINT (-91.017856591325 30.705828198418)","499","Pride VFD Station 13","FIRE PROTECTION","PRIDE VOLUNTEER FIRE DEPARTMENT","CITY/PARISH","13467 PORT HUDSON-PRIDE RD","PRIDE","LOUISIANA","70770",,,"162528"
"POINT (-91.137366368568 30.450014041658)","520","LADOTD Materials and Testing Lab","STATE OFFICES","STATE OF LOUISIANA","STATE","5080 FLORIDA BLVD","BATON ROUGE","LOUISIANA","70806",,,"136907"
"POINT (-91.156678793861 30.498165082636)","503","US Post Office - Istrouma","POSTAL","US POSTAL SERVICE","FEDERAL","5200 LONGFELLOW DR","BATON ROUGE","LOUISIANA","70805",,,"90701"
"POINT (-91.103986435702 30.448175890048)","496","LSP Crime/Photo Lab","PUBLIC SAFETY","STATE OF LOUISIANA","STATE","376 E AIRPORT AVE","BATON ROUGE","LOUISIANA","70806",,,"133316"
"POINT (-91.124964948254 30.346888453924)","461","Ben Burge Park Senior Center","SENIOR CENTER","COUNCIL ON AGING","CITY/PARISH","9350 ANTIGUA DR","BATON ROUGE","LOUISIANA","70810",,"http://www.ebrcoa.org/","124680"
"POINT (-91.108788653716 30.449662138369)","497","Gov. Office of Homeland Security and Emer. Prep.","PUBLIC SAFETY","STATE OF LOUISIANA","STATE","7667 INDEPENDENCE BLVD","BATON ROUGE","LOUISIANA","70806",,,"133309"
"POINT (-91.11705427222 30.474075518634)","489","BR Behavioral Health Addiction Recovery Services","HEALTH CARE","CAPITAL AREA HUMAN SERVICES DISTRICT","STATE","2751 WOODDALE BLVD","BATON ROUGE","LOUISIANA","70805","225-925-1906","http://www.cahsd.org","63939"
"POINT (-91.123139793929 30.401049333088)","498","Pennington Biomedical Research Center","UNIVERSITY","STATE OF LOUISIANA","STATE","6400 PERKINS RD","BATON ROUGE","LOUISIANA","70808",,,"103451"
"POINT (-91.138202981687 30.446642503819)","521","LA Community & Technical College System","UNIVERSITY","STATE OF LOUISIANA","STATE","265 S FOSTER DR","BATON ROUGE","LOUISIANA","70806",,,"133020"
"POINT (-91.100599001538 30.403903419647)","485","Department of Veterans Affairs Outpatient Clinic","HEALTH CARE","US FEDERAL GOVERNMENT","FEDERAL","7968 ESSEN PARK AVE","BATON ROUGE","LOUISIANA","70809",,,"114632"
"POINT (-91.144651221835 30.521170461173)","505","US Post Office - Scotlandville","POSTAL","US POSTAL SERVICE","FEDERAL","7980 PLANK RD","BATON ROUGE","LOUISIANA","70811",,,"114689"
"POINT (-91.113875937933 30.454238240875)","464","Capital Area Human Services District","HEALTH CARE","CAPITAL AREA HUMAN SERVICES DISTRICT","STATE","7389 FLORIDA BLVD, STE 100","BATON ROUGE","LOUISIANA","70806","225-922-2700","http://www.cahsd.org","218845"
"POINT (-91.038839828009 30.554232770489)","511","US Post Office - Central","POSTAL","US POSTAL SERVICE","FEDERAL","13579 HOOPER RD","CENTRAL","LOUISIANA","70818",,,"201931"
"POINT (-91.226584142238 30.662739647199)","462","Flonacher Rd Park Senior Center","SENIOR CENTER","COUNCIL ON AGING","CITY/PARISH","864 FLONACHER RD","ZACHARY","LOUISIANA","70791",,"http://www.ebrcoa.org/","153295"
"POINT (-91.143222680436 30.530616695254)","493","Civil Air Patrol","PUBLIC SAFETY","STATE OF LOUISIANA","STATE","9163 BLANCHE NOYES AVE","BATON ROUGE","LOUISIANA","70807",,,"159438"
"POINT (-91.032992979057 30.408021311347)","509","US Post Office - Woodlawn","POSTAL","US POSTAL SERVICE","FEDERAL","4700 MILLWOOD DR","BATON ROUGE","LOUISIANA","70817",,,"85942"
"POINT (-91.106214246691 30.450442422664)","516","DPS Support, Warehouse, Supply","STATE OFFICES","STATE OF LOUISIANA","STATE","290 E AIRPORT AVE","BATON ROUGE","LOUISIANA","70806",,,"133311"
"POINT (-91.118228244217 30.431887888123)","519","Center for Advanced Microstructures and Devices","UNIVERSITY","STATE OF LOUISIANA","STATE","6980 JEFFERSON HWY","BATON ROUGE","LOUISIANA","70809",,,"107656"
"POINT (-91.090874445517 30.444302580944)","472","19th Judicial District Court Branch Office","STATE OFFICES","STATE OF LOUISIANA","STATE","9050 AIRLINE HWY, STE 100","BATON ROUGE","LOUISIANA","70815",,,"229201"
"POINT (-91.182341152844 30.447596637978)","478","EBR Redevelopment Authority","MUNICIPAL OFFICES","COMMUNITY DEVELOPMENT","CITY/PARISH","801 NORTH BLVD","BATON ROUGE","LOUISIANA","70802",,,"114780"
"POINT (-91.076089532457 30.347569257747)","459","Highland Rd Park Senior Center","SENIOR CENTER","COUNCIL ON AGING","CITY/PARISH","14024 HIGHLAND RD","BATON ROUGE","LOUISIANA","70810",,"http://www.ebrcoa.org/","25999"
"POINT (-91.172319366768 30.535902009209)","463","Jewel J. Newman Senior Center","SENIOR CENTER","COUNCIL ON AGING","CITY/PARISH","2013 CENTRAL RD","BATON ROUGE","LOUISIANA","70807",,"http://www.ebrcoa.org/","51324"
