"id","description","facility_type","agency","full_address","city","state","zip","geolocation"
"378","39th Street Park","BREC PARK","BREC","3451 39TH ST","ZACHARY","LA","70791","3451 39TH ST
ZACHARY, LA 70791
(30.638857, -91.1657)"
"170","48th Street Park","BREC PARK","BREC","628 N 48TH ST","BATON ROUGE","LA","70806","628 N 48TH ST
BATON ROUGE, LA 70806
(30.455139, -91.141501)"
"40","Acadian Thruway Park","BREC PARK","BREC","2751 N ACADIAN THWY W","BATON ROUGE","LA","70805","2751 N ACADIAN THWY W
BATON ROUGE, LA 70805
(30.472717, -91.156551)"
"207","Airline Highway Park","BREC PARK","BREC","16072 AIRLINE HWY","BATON ROUGE","LA","70817","16072 AIRLINE HWY
BATON ROUGE, LA 70817
(30.351631, -91.000131)"
"14","Alaska Street Park","BREC PARK","BREC","3014 ALASKA ST","BATON ROUGE","LA","70802","3014 ALASKA ST
BATON ROUGE, LA 70802
(30.420778, -91.184234)"
"42","Alexander Street Park","BREC PARK","BREC","6000 ALEXANDER AVE","BATON ROUGE","LA","70805","6000 ALEXANDER AVE
BATON ROUGE, LA 70805
(30.504104, -91.1615)"
"175","Alsen Park","BREC PARK","BREC","601 OLD RAFE MAYER RD","BATON ROUGE","LA","70807","601 OLD RAFE MAYER RD
BATON ROUGE, LA 70807
(30.570722, -91.197566)"
"353","Anna T. Jordan Community Park","BREC PARK","BREC","1750 STILT ST","BATON ROUGE","LA","70807","1750 STILT ST
BATON ROUGE, LA 70807
(30.527419, -91.175259)"
"286","Antioch Boulevard Park","BREC PARK","BREC","6229 ANTIOCH BLVD","BATON ROUGE","LA","70817","6229 ANTIOCH BLVD
BATON ROUGE, LA 70817
(30.39352, -91.002156)"
"197","Avenue F Park","BREC PARK","BREC","4790 AVENUE F","ZACHARY","LA","70791","4790 AVENUE F
ZACHARY, LA 70791
(30.658808, -91.150894)"
"191","Baker Park","BREC PARK","BREC","4331 JEFFERSON ST","BAKER","LA","70714","4331 JEFFERSON ST
BAKER, LA 70714
(30.590626, -91.153925)"
"360","Baker Playground","BREC PARK","BREC","3439 GROOM RD","BAKER","LA","70714","3439 GROOM RD
BAKER, LA 70714
(30.587918, -91.164128)"
"176","Baker Recreation Center","BREC PARK","BREC","1420 ALABAMA AVE","BAKER","LA","70714","1420 ALABAMA AVE
BAKER, LA 70714"
"177","Baringer Road Park","BREC PARK","BREC","7401 BARINGER RD","BATON ROUGE","LA","70817","7401 BARINGER RD
BATON ROUGE, LA 70817
(30.384181, -91.01908)"
"356","Baton Rouge Zoo","BREC PARK","BREC","3601 THOMAS RD","BATON ROUGE","LA","70807","3601 THOMAS RD
BATON ROUGE, LA 70807
(30.558918, -91.155481)"
"272","Baywood Park","BREC PARK","BREC","20001 PRIDE-BAYWOOD RD","GREENWELL SPRINGS","LA","70739","20001 PRIDE-BAYWOOD RD
GREENWELL SPRINGS, LA 70739
(30.711177, -90.914756)"
"271","Beaver Creek Park And Golf Course","BREC PARK","BREC","1100 PORT HUDSON-PLAINS RD","ZACHARY","LA","70791","1100 PORT HUDSON-PLAINS RD
ZACHARY, LA 70791"
"54","Belfair Park","BREC PARK","BREC","4390 FAIRFIELDS AVE","BATON ROUGE","LA","70802","4390 FAIRFIELDS AVE
BATON ROUGE, LA 70802
(30.467461, -91.146633)"
"45","Ben Burge Park","BREC PARK","BREC","9350 ANTIGUA DR","BATON ROUGE","LA","70810","9350 ANTIGUA DR
BATON ROUGE, LA 70810
(30.346769, -91.125847)"
"279","Bird Station Park","BREC PARK","BREC","2623 MICHELLI DR","BATON ROUGE","LA","70805","2623 MICHELLI DR
BATON ROUGE, LA 70805
(30.472412, -91.12723)"
"196","Blackwater Conservation Area","BREC PARK","BREC","9385 BLACKWATER RD","BAKER","LA","70714","9385 BLACKWATER RD
BAKER, LA 70714
(30.534655, -91.086841)"
"57","Blueberry Street Park","BREC PARK","BREC","6050 BLUEBERRY ST","BATON ROUGE","LA","70806","6050 BLUEBERRY ST
BATON ROUGE, LA 70806
(30.466471, -91.128354)"
"276","Bluebonnet Swamp Nature Center","BREC PARK","BREC","10503 N OAK HILLS PKWY","BATON ROUGE","LA","70810","10503 N OAK HILLS PKWY
BATON ROUGE, LA 70810
(30.370023, -91.104375)"
"249","Boulevard De Province Park","BREC PARK","BREC","1717 BOULEVARD DE PROVINCE","BATON ROUGE","LA","70816","1717 BOULEVARD DE PROVINCE
BATON ROUGE, LA 70816
(30.439366, -91.045201)"
"208","Brookfield Avenue Park","BREC PARK","BREC","17650 BROOKFIELD AVE","BATON ROUGE","LA","70817","17650 BROOKFIELD AVE
BATON ROUGE, LA 70817
(30.358224, -91.000308)"
"273","Brooks Park","BREC PARK","BREC","1650 EDDIE ROBINSON SR DR","BATON ROUGE","LA","70802","1650 EDDIE ROBINSON SR DR
BATON ROUGE, LA 70802
(30.433085, -91.173263)"
"284","Brown Heights Park","BREC PARK","BREC","15206 PLANK RD","BAKER","LA","70714","15206 PLANK RD
BAKER, LA 70714
(30.586059, -91.125013)"
"25","Buchanan Park","BREC PARK","BREC","2300 MISSOURI ST","BATON ROUGE","LA","70802","2300 MISSOURI ST
BATON ROUGE, LA 70802
(30.425408, -91.172149)"
"275","Burbank Conservation Area","BREC PARK","BREC","8858 BURBANK DR","BATON ROUGE","LA","70820","8858 BURBANK DR
BATON ROUGE, LA 70820
(30.362503, -91.128799)"
"50","Burbank Soccer Complex","BREC PARK","BREC","12400 BURBANK DR","BATON ROUGE","LA","70810","12400 BURBANK DR
BATON ROUGE, LA 70810
(30.348275, -91.094308)"
"282","Cadillac Street Park","BREC PARK","BREC","6117 CADILLAC ST","BATON ROUGE","LA","70811","6117 CADILLAC ST
BATON ROUGE, LA 70811
(30.518068, -91.129186)"
"250","Camelot Park","BREC PARK","BREC","3166 LANCELOT DR","BATON ROUGE","LA","70816","3166 LANCELOT DR
BATON ROUGE, LA 70816
(30.424185, -91.043807)"
"245","Cedarcrest Park","BREC PARK","BREC","2490 SILVEREST AVE","BATON ROUGE","LA","70816","2490 SILVEREST AVE
BATON ROUGE, LA 70816
(30.428373, -91.072308)"
"242","Cedar Ridge Avenue Park","BREC PARK","BREC","13300 CEDAR RIDGE AVE","BATON ROUGE","LA","70817","13300 CEDAR RIDGE AVE
BATON ROUGE, LA 70817
(30.400862, -91.031982)"
"178","Central Community Sports Park","BREC PARK","BREC","10501 LOVETT RD","CENTRAL","LA","70818","10501 LOVETT RD
CENTRAL, LA 70818
(30.537635, -91.065432)"
"358","Chamberlain Street Park","BREC PARK","BREC","16900 CHAMBERLAIN AVE","BAKER","LA","70714","16900 CHAMBERLAIN AVE
BAKER, LA 70714
(30.60553, -91.182748)"
"184","Church Street Park","BREC PARK","BREC","3210 CHURCH ST","ZACHARY","LA","70791","3210 CHURCH ST
ZACHARY, LA 70791
(30.651721, -91.169715)"
"27","City Community Park","BREC PARK","BREC","1515 DALRYMPLE DR","BATON ROUGE","LA","70808","1515 DALRYMPLE DR
BATON ROUGE, LA 70808
(30.434252, -91.16845)"
"280","Clifford T. Seymour, Sr. Park","BREC PARK","BREC","12000 SCOTLAND-ZACHARY HWY","BATON ROUGE","LA","70807","12000 SCOTLAND-ZACHARY HWY
BATON ROUGE, LA 70807"
"190","Cohn Arboretum","BREC PARK","BREC","12206 FOSTER RD","BATON ROUGE","LA","70811","12206 FOSTER RD
BATON ROUGE, LA 70811
(30.557891, -91.120515)"
"195","Cohn Nature Preserve","BREC PARK","BREC","11332 FOSTER RD","BATON ROUGE","LA","70811","11332 FOSTER RD
BATON ROUGE, LA 70811
(30.550876, -91.114933)"
"15","College Town Park","BREC PARK","BREC","251 AMHERST AVE","BATON ROUGE","LA","70808","251 AMHERST AVE
BATON ROUGE, LA 70808
(30.404782, -91.171364)"
"194","Comite River Park","BREC PARK","BREC","8900 HOOPER RD","BATON ROUGE","LA","70811","8900 HOOPER RD
BATON ROUGE, LA 70811
(30.530708, -91.095856)"
"49","Congress Park","BREC PARK","BREC","5100 CONGRESS BLVD","BATON ROUGE","LA","70808","5100 CONGRESS BLVD
BATON ROUGE, LA 70808
(30.418656, -91.133326)"
"21","Convention Street Park","BREC PARK","BREC","717 CONVENTION ST","BATON ROUGE","LA","70801","717 CONVENTION ST
BATON ROUGE, LA 70801
(30.448377, -91.183613)"
"18","Corporate Parkway","BREC PARK","BREC","333 E GRANT ST","BATON ROUGE","LA","70802","333 E GRANT ST
BATON ROUGE, LA 70802
(30.423117, -91.177956)"
"345","Cortana Place Park","BREC PARK","BREC","1901 CORTANA PL","BATON ROUGE","LA","70815","1901 CORTANA PL
BATON ROUGE, LA 70815"
"354","Cunard Avenue Park","BREC PARK","BREC","2290 CUNARD AVE","BATON ROUGE","LA","70807","2290 CUNARD AVE
BATON ROUGE, LA 70807
(30.552928, -91.170598)"
"38","Dayton Street Park","BREC PARK","BREC","2404 DAYTON ST","BATON ROUGE","LA","70805","2404 DAYTON ST
BATON ROUGE, LA 70805
(30.488063, -91.166206)"
"368","Dover Street Park","BREC PARK","BREC","7300 DOVER ST","BATON ROUGE","LA","70812","7300 DOVER ST
BATON ROUGE, LA 70812
(30.49948, -91.116978)"
"200","Doyle's Bayou Park","BREC PARK","BREC","7801 PORT HUDSON-PRIDE RD","SLAUGHTER","LA","70777","7801 PORT HUDSON-PRIDE RD
SLAUGHTER, LA 70777
(30.681243, -91.111948)"
"264","Droze Road Park","BREC PARK","BREC","7700 DROZE RD","GREENWELL SPRINGS","LA","70739","7700 DROZE RD
GREENWELL SPRINGS, LA 70739
(30.521196, -91.005946)"
"343","Drusilla Lane Park","BREC PARK","BREC","2546 DRUSILLA LN","BATON ROUGE","LA","70809","2546 DRUSILLA LN
BATON ROUGE, LA 70809
(30.427214, -91.084201)"
"252","Duchess Drive Park","BREC PARK","BREC","1701 DUCHESS DR","BATON ROUGE","LA","70815","1701 DUCHESS DR
BATON ROUGE, LA 70815
(30.468875, -91.040649)"
"383","Dumas Memorial Golf Course","BREC PARK","BREC","3400 LAVEY LN","BAKER","LA","70714","3400 LAVEY LN
BAKER, LA 70714
(30.575345, -91.16583)"
"62","East Brookstown Park","BREC PARK","BREC","4300 E BROOKSTOWN DR","BATON ROUGE","LA","70805","4300 E BROOKSTOWN DR
BATON ROUGE, LA 70805
(30.489563, -91.128239)"
"26","East Polk Street Park","BREC PARK","BREC","1700 E POLK ST","BATON ROUGE","LA","70802","1700 E POLK ST
BATON ROUGE, LA 70802
(30.427214, -91.170884)"
"28","Edward Avenue Park","BREC PARK","BREC","3000 EDWARD AVE","BATON ROUGE","LA","70808","3000 EDWARD AVE
BATON ROUGE, LA 70808
(30.429511, -91.157503)"
"209","Erich Sternberg Family Park","BREC PARK","BREC","8715 ROUND OAK DR","BATON ROUGE","LA","70817","8715 ROUND OAK DR
BATON ROUGE, LA 70817
(30.370427, -90.999459)"
"59","Evangeline Street Park","BREC PARK","BREC","4201 EVANGELINE ST","BATON ROUGE","LA","70805","4201 EVANGELINE ST
BATON ROUGE, LA 70805
(30.492947, -91.148269)"
"20","Expressway Park","BREC PARK","BREC","935 S 11TH ST","BATON ROUGE","LA","70802","935 S 11TH ST
BATON ROUGE, LA 70802
(30.438845, -91.177737)"
"55","Fairfax Park","BREC PARK","BREC","5300 S AFTON PKWY","BATON ROUGE","LA","70806","5300 S AFTON PKWY
BATON ROUGE, LA 70806
(30.453079, -91.135021)"
"12","Farr Park Equestrian Center","BREC PARK","BREC","6400 RIVER RD","BATON ROUGE","LA","70820","6400 RIVER RD
BATON ROUGE, LA 70820
(30.382316, -91.219035)"
"346","Fiesta Park","BREC PARK","BREC","1000 FIESTA CT","BATON ROUGE","LA","70815","1000 FIESTA CT
BATON ROUGE, LA 70815
(30.459672, -91.07456)"
"287","Flannery Road Park","BREC PARK","BREC","801 S FLANNERY RD","BATON ROUGE","LA","70815","801 S FLANNERY RD
BATON ROUGE, LA 70815
(30.450558, -91.034639)"
"181","Flonacher Road Park","BREC PARK","BREC","864 FLONACHER RD","ZACHARY","LA","70791","864 FLONACHER RD
ZACHARY, LA 70791
(30.66636, -91.229842)"
"288","Forest Community Park","BREC PARK","BREC","13900 S HARRELL'S FERRY RD","BATON ROUGE","LA","70816","13900 S HARRELL'S FERRY RD
BATON ROUGE, LA 70816
(30.43105, -91.030829)"
"63","Fortune Addition Park","BREC PARK","BREC","5900 PEERLESS ST","BATON ROUGE","LA","70811","5900 PEERLESS ST
BATON ROUGE, LA 70811
(30.516849, -91.132287)"
"258","Frenchtown Road Conservation Area","BREC PARK","BREC","17819 FRENCHTOWN RD","GREENWELL SPRINGS","LA","70739","17819 FRENCHTOWN RD
GREENWELL SPRINGS, LA 70739
(30.478605, -90.986074)"
"31","Gayosa Street Park","BREC PARK","BREC","2129 GAYOSA ST","BATON ROUGE","LA","70802","2129 GAYOSA ST
BATON ROUGE, LA 70802
(30.454205, -91.166618)"
"203","Gentilly Court Park","BREC PARK","BREC","13750 GENTILLY CT","BATON ROUGE","LA","70810","13750 GENTILLY CT
BATON ROUGE, LA 70810
(30.370122, -91.063314)"
"34","Goldsby Field Park","BREC PARK","BREC","1502 FOSS ST","BATON ROUGE","LA","70802","1502 FOSS ST
BATON ROUGE, LA 70802
(30.459813, -91.17176)"
"56","Goodwood Park","BREC PARK","BREC","6025 SEVENOAKS AVE","BATON ROUGE","LA","70806","6025 SEVENOAKS AVE
BATON ROUGE, LA 70806
(30.443276, -91.129288)"
"263","Greenwell Springs Park","BREC PARK","BREC","7550 SHADY PARK DR","GREENWELL SPRINGS","LA","70739","7550 SHADY PARK DR
GREENWELL SPRINGS, LA 70739
(30.520889, -91.011185)"
"359","Greenwood Community Park","BREC PARK","BREC","13350 SCOTLAND-ZACHARY HWY","BAKER","LA","70714","13350 SCOTLAND-ZACHARY HWY
BAKER, LA 70714"
"179","Gus Young Park","BREC PARK","BREC","4201 GUS YOUNG AVE","BATON ROUGE","LA","70802","4201 GUS YOUNG AVE
BATON ROUGE, LA 70802
(30.462018, -91.147209)"
"289","Hamilton Avenue Park","BREC PARK","BREC","16200 HAMILTON AVE","BATON ROUGE","LA","70819","16200 HAMILTON AVE
BATON ROUGE, LA 70819
(30.481677, -91.007306)"
"361","Harding Street Park","BREC PARK","BREC","4037 HARDING ST","BAKER","LA","70714","4037 HARDING ST
BAKER, LA 70714
(30.583614, -91.156875)"
"46","Hartley/Vey Park at Gardere (Gardere Lane Park)","BREC PARK","BREC","1702 GARDERE LN","BATON ROUGE","LA","70820","1702 GARDERE LN
BATON ROUGE, LA 70820
(30.353264, -91.12903)"
"350","Hartley/Vey Sports Park","BREC PARK","BREC","2615 OAK VILLA BLVD","BATON ROUGE","LA","70814","2615 OAK VILLA BLVD
BATON ROUGE, LA 70814
(30.471791, -91.089107)"
"201","Highland Road Community Park","BREC PARK","BREC","14024 HIGHLAND RD","BATON ROUGE","LA","70810","14024 HIGHLAND RD
BATON ROUGE, LA 70810
(30.347841, -91.075618)"
"187","Hooper Road Park","BREC PARK","BREC","6261 GUYNELL DR","BATON ROUGE","LA","70811","6261 GUYNELL DR
BATON ROUGE, LA 70811
(30.533906, -91.125716)"
"60","Howell Community Park","BREC PARK","BREC","5509 WINBOURNE AVE","BATON ROUGE","LA","70805","5509 WINBOURNE AVE
BATON ROUGE, LA 70805
(30.479215, -91.132644)"
"173","Hunters Point Drive Park","BREC PARK","BREC","4366 HUNTERS POINT DR","ZACHARY","LA","70791","4366 HUNTERS POINT DR
ZACHARY, LA 70791
(30.639156, -91.159928)"
"66","Independence Community Park","BREC PARK","BREC","7505 INDEPENDENCE BLVD","BATON ROUGE","LA","70806","7505 INDEPENDENCE BLVD
BATON ROUGE, LA 70806
(30.44536, -91.111038)"
"369","Industriplex Park","BREC PARK","BREC","10777 INDUSTRIPLEX BLVD","BATON ROUGE","LA","70809","10777 INDUSTRIPLEX BLVD
BATON ROUGE, LA 70809"
"260","Jackson Community Park","BREC PARK","BREC","12250 SULLIVAN RD","CENTRAL","LA","70818","12250 SULLIVAN RD
CENTRAL, LA 70818
(30.558812, -91.040128)"
"262","Jacob Kornmeyer Park","BREC PARK","BREC","15352 HOOPER RD","GREENWELL SPRINGS","LA","70739","15352 HOOPER RD
GREENWELL SPRINGS, LA 70739
(30.561794, -91.018683)"
"189","James Watson Park","BREC PARK","BREC","10555 FOSTER RD","BATON ROUGE","LA","70811","10555 FOSTER RD
BATON ROUGE, LA 70811
(30.543589, -91.11264)"
"65","Jefferson Highway Park","BREC PARK","BREC","8133 JEFFERSON HWY","BATON ROUGE","LA","70809","8133 JEFFERSON HWY
BATON ROUGE, LA 70809
(30.422874, -91.102789)"
"281","Jefferson Street Park","BREC PARK","BREC","3503 JEFFERSON ST","BAKER","LA","70714","3503 JEFFERSON ST
BAKER, LA 70714
(30.5906, -91.161549)"
"204","Jefferson Terrace Park","BREC PARK","BREC","10282 CAL RD","BATON ROUGE","LA","70809","10282 CAL RD
BATON ROUGE, LA 70809
(30.400903, -91.070068)"
"251","Jones Creek Park","BREC PARK","BREC","12300 OLD HAMMOND HWY","BATON ROUGE","LA","70816","12300 OLD HAMMOND HWY
BATON ROUGE, LA 70816
(30.44131, -91.042472)"
"355","J.S. Clark Park And Golf Course","BREC PARK","BREC","2301 THOMAS RD","BATON ROUGE","LA","70807","2301 THOMAS RD
BATON ROUGE, LA 70807
(30.558653, -91.171238)"
"255","Kathy Drive Park","BREC PARK","BREC","1801 KATHY DR","BATON ROUGE","LA","70816","1801 KATHY DR
BATON ROUGE, LA 70816
(30.443249, -91.014462)"
"257","Kendalwood Road Park","BREC PARK","BREC","24700 KENDALWOOD RD","BATON ROUGE","LA","70817","24700 KENDALWOOD RD
BATON ROUGE, LA 70817
(30.350498, -90.912951)"
"35","Kernan Avenue Park","BREC PARK","BREC","333 KERNAN AVE","BATON ROUGE","LA","70802","333 KERNAN AVE
BATON ROUGE, LA 70802
(30.450691, -91.155898)"
"274","Kerr Warren Park","BREC PARK","BREC","4100 GERONIMO ST","BATON ROUGE","LA","70805","4100 GERONIMO ST
BATON ROUGE, LA 70805
(30.486832, -91.161971)"
"268","Kinchloe Lloyd Baker Park","BREC PARK","BREC","20821 GREENWELL SPRINGS RD","GREENWELL SPRINGS","LA","70739","20821 GREENWELL SPRINGS RD
GREENWELL SPRINGS, LA 70739
(30.552309, -90.982634)"
"261","Kolby Park","BREC PARK","BREC","10620 CENTRAL PINE DR","CENTRAL","LA","70818","10620 CENTRAL PINE DR
CENTRAL, LA 70818
(30.545177, -91.021348)"
"254","Lafitte Street Park","BREC PARK","BREC","400 LAFITTE DR","BATON ROUGE","LA","70819","400 LAFITTE DR
BATON ROUGE, LA 70819
(30.458806, -91.028496)"
"347","Lanier Drive Park","BREC PARK","BREC","3901 LANIER DR","BATON ROUGE","LA","70812","3901 LANIER DR
BATON ROUGE, LA 70812
(30.486603, -91.107924)"
"188","Le Brent Avenue Park","BREC PARK","BREC","6401 LEBRENT AVE","BAKER","LA","70714","6401 LEBRENT AVE
BAKER, LA 70714
(30.565944, -91.127147)"
"47","Leeward Drive Park","BREC PARK","BREC","5800 MENLO DR","BATON ROUGE","LA","70808","5800 MENLO DR
BATON ROUGE, LA 70808
(30.393011, -91.152648)"
"205","Leo And Murlin Willie Park","BREC PARK","BREC","4101 STUMBERG LN","BATON ROUGE","LA","70817","4101 STUMBERG LN
BATON ROUGE, LA 70817
(30.414269, -91.035425)"
"342","Liberty Lagoon","BREC PARK","BREC","111 LOBDELL AVE","BATON ROUGE","LA","70806","111 LOBDELL AVE
BATON ROUGE, LA 70806
(30.449861, -91.111989)"
"182","Ligon Road Park","BREC PARK","BREC","21600 LIGON RD","ZACHARY","LA","70791","21600 LIGON RD
ZACHARY, LA 70791
(30.671966, -91.222636)"
"199","Little Farms Park","BREC PARK","BREC","3754 LITTLE FARMS DR","ZACHARY","LA","70791","3754 LITTLE FARMS DR
ZACHARY, LA 70791
(30.640804, -91.112145)"
"43","Longfellow Park","BREC PARK","BREC","5201 LONGFELLOW DR","BAKER","LA","70714","5201 LONGFELLOW DR
BAKER, LA 70714"
"248","Longridge Park","BREC PARK","BREC","12127 LONGRIDGE AVE","BATON ROUGE","LA","70816","12127 LONGRIDGE AVE
BATON ROUGE, LA 70816
(30.422027, -91.046931)"
"243","Louisiana Park","BREC PARK","BREC","6998 ANTIOCH RD","BATON ROUGE","LA","70817","6998 ANTIOCH RD
BATON ROUGE, LA 70817
(30.387799, -91.007377)"
"259","Lovett Road Park","BREC PARK","BREC","13443 LOVETT RD","CENTRAL","LA","70818","13443 LOVETT RD
CENTRAL, LA 70818
(30.522875, -91.038994)"
"33","Madison Avenue Park","BREC PARK","BREC","1820 MADISON AVE","BATON ROUGE","LA","70802","1820 MADISON AVE
BATON ROUGE, LA 70802
(30.467378, -91.170475)"
"382","Magnolia Cemetery","BREC PARK","BREC","422 N 19TH ST","BATON ROUGE","LA","70802","422 N 19TH ST
BATON ROUGE, LA 70802
(30.450908, -91.169341)"
"17","Magnolia Mound Plantation","BREC PARK","BREC","2161 NICHOLSON DR","BATON ROUGE","LA","70802","2161 NICHOLSON DR
BATON ROUGE, LA 70802
(30.426591, -91.187958)"
"256","Manchac Park","BREC PARK","BREC","19010 JEFFERSON HWY","BATON ROUGE","LA","70817","19010 JEFFERSON HWY
BATON ROUGE, LA 70817
(30.347861, -90.986201)"
"349","Maplewood Park","BREC PARK","BREC","7950 MAPLEWOOD DR","BATON ROUGE","LA","70812","7950 MAPLEWOOD DR
BATON ROUGE, LA 70812
(30.507701, -91.112059)"
"36","Mary J. Lands Park","BREC PARK","BREC","802 N 30TH ST","BATON ROUGE","LA","70802","802 N 30TH ST
BATON ROUGE, LA 70802
(30.456659, -91.158713)"
"370","Mary Ruth Park","BREC PARK","BREC","8808 MARY RUTH AVE","BATON ROUGE","LA","70810","8808 MARY RUTH AVE
BATON ROUGE, LA 70810
(30.386113, -91.111457)"
"52","Mayfair Park","BREC PARK","BREC","650 S SABINE DR","BATON ROUGE","LA","70810","650 S SABINE DR
BATON ROUGE, LA 70810
(30.375838, -91.107876)"
"202","Meadow Park","BREC PARK","BREC","6951 MEADOW PARK AVE","BATON ROUGE","LA","70810","6951 MEADOW PARK AVE
BATON ROUGE, LA 70810
(30.372194, -91.069272)"
"32","Memorial Sports Complex","BREC PARK","BREC","1702 FOSS ST","BATON ROUGE","LA","70802","1702 FOSS ST
BATON ROUGE, LA 70802
(30.4598, -91.172094)"
"16","Milford Wampold Memorial Park","BREC PARK","BREC","901 STANFORD AVE","BATON ROUGE","LA","70808","901 STANFORD AVE
BATON ROUGE, LA 70808
(30.408352, -91.163484)"
"352","Mills Avenue Park","BREC PARK","BREC","401 MILLS AVE","BATON ROUGE","LA","70807","401 MILLS AVE
BATON ROUGE, LA 70807
(30.53271, -91.194955)"
"278","Milton J. Womack Park","BREC PARK","BREC","6201 FLORIDA BLVD","BATON ROUGE","LA","70806","6201 FLORIDA BLVD
BATON ROUGE, LA 70806
(30.45133, -91.125656)"
"41","Monte Sano Park","BREC PARK","BREC","2727 GREENWELL ST","BATON ROUGE","LA","70805","2727 GREENWELL ST
BATON ROUGE, LA 70805
(30.502728, -91.162878)"
"283","Myrtle Street Park","BREC PARK","BREC","5530 MYRTLE ST","BAKER","LA","70714","5530 MYRTLE ST
BAKER, LA 70714
(30.57872, -91.143271)"
"371","Nairn Park","BREC PARK","BREC","2800 NAIRN DR","BATON ROUGE","LA","70808","2800 NAIRN DR
BATON ROUGE, LA 70808
(30.422995, -91.146268)"
"29","North 14th Street Park","BREC PARK","BREC","100 N 14TH ST","BATON ROUGE","LA","70802","100 N 14TH ST
BATON ROUGE, LA 70802
(30.447838, -91.17504)"
"372","North 18th Street Park","BREC PARK","BREC","1801 GAYOSA ST","BATON ROUGE","LA","70802","1801 GAYOSA ST
BATON ROUGE, LA 70802
(30.454097, -91.170536)"
"30","North Boulevard Park","BREC PARK","BREC","1640 NORTH BLVD","BATON ROUGE","LA","70802","1640 NORTH BLVD
BATON ROUGE, LA 70802
(30.447669, -91.172129)"
"253","North Sherwood Forest Community Park","BREC PARK","BREC","3140 N SHERWOOD FOREST DR","BATON ROUGE","LA","70814","3140 N SHERWOOD FOREST DR
BATON ROUGE, LA 70814"
"53","North Street Park","BREC PARK","BREC","4100 NORTH ST","BATON ROUGE","LA","70806","4100 NORTH ST
BATON ROUGE, LA 70806
(30.453764, -91.144809)"
"180","Old Hammond Highway Park","BREC PARK","BREC","8900 OLD HAMMOND HWY","BATON ROUGE","LA","70806","8900 OLD HAMMOND HWY
BATON ROUGE, LA 70806
(30.430937, -91.087887)"
"265","Palomino Drive Park","BREC PARK","BREC","14100 PALOMINO DR","GREENWELL SPRINGS","LA","70739","14100 PALOMINO DR
GREENWELL SPRINGS, LA 70739
(30.574595, -91.011598)"
"174","Parklawn Park","BREC PARK","BREC","12228 PARKLAWN AVE","BATON ROUGE","LA","70816","12228 PARKLAWN AVE
BATON ROUGE, LA 70816
(30.404201, -91.045195)"
"344","Parkview Park","BREC PARK","BREC","9000 N PARKVIEW DR","BATON ROUGE","LA","70815","9000 N PARKVIEW DR
BATON ROUGE, LA 70815
(30.446082, -91.090565)"
"373","Pawnee Street Park","BREC PARK","BREC","2100 SCENIC HWY","BATON ROUGE","LA","70802","2100 SCENIC HWY
BATON ROUGE, LA 70802
(30.46656, -91.167969)"
"48","Perkins Road Community Park and Olympia Field","BREC PARK","BREC","7122 PERKINS RD","BATON ROUGE","LA","70808","7122 PERKINS RD
BATON ROUGE, LA 70808
(30.39795, -91.114153)"
"240","Pinehurst Park","BREC PARK","BREC","13888 PINEHURST AVE","BATON ROUGE","LA","70817","13888 PINEHURST AVE
BATON ROUGE, LA 70817
(30.380922, -91.031405)"
"198","Plank Road Park","BREC PARK","BREC","19550 PLANK RD","ZACHARY","LA","70791","19550 PLANK RD
ZACHARY, LA 70791
(30.640614, -91.107858)"
"270","Pride Park","BREC PARK","BREC","16440 PORT HUDSON-PRIDE RD","PRIDE","LA","70770","16440 PORT HUDSON-PRIDE RD
PRIDE, LA 70770
(30.694486, -90.98622)"
"186","Quarterhorse Drive Park","BREC PARK","BREC","23400 QUARTER HORSE DR","ZACHARY","LA","70791","23400 QUARTER HORSE DR
ZACHARY, LA 70791
(30.694819, -91.172549)"
"374","Railey Roshto Park","BREC PARK","BREC","11207 NORWAY PINE DR","GREENWELL SPRINGS","LA","70739","11207 NORWAY PINE DR
GREENWELL SPRINGS, LA 70739
(30.553132, -91.002268)"
"267","Reames Road Park","BREC PARK","BREC","23223 REAMES RD","ZACHARY","LA","70791","23223 REAMES RD
ZACHARY, LA 70791
(30.690453, -91.027428)"
"246","Red Oaks Park","BREC PARK","BREC","2100 GREEN OAK DR","BATON ROUGE","LA","70815","2100 GREEN OAK DR
BATON ROUGE, LA 70815
(30.468118, -91.0633)"
"64","Rio Drive Park","BREC PARK","BREC","6900 RIO DR","BATON ROUGE","LA","70812","6900 RIO DR
BATON ROUGE, LA 70812
(30.503751, -91.121395)"
"183","Rita Street Park","BREC PARK","BREC","2315 RITA ST","ZACHARY","LA","70791","2315 RITA ST
ZACHARY, LA 70791
(30.664318, -91.18111)"
"13","River Bend Park","BREC PARK","BREC","5800 RIVERBEND LAKES DR","BATON ROUGE","LA","70820","5800 RIVERBEND LAKES DR
BATON ROUGE, LA 70820
(30.385852, -91.202346)"
"185","Rollins Road Park","BREC PARK","BREC","5794 ROLLINS RD","ZACHARY","LA","70791","5794 ROLLINS RD
ZACHARY, LA 70791
(30.659091, -91.157363)"
"11","Roosevelt Street Park","BREC PARK","BREC","1011 W ROOSEVELT ST","BATON ROUGE","LA","70802","1011 W ROOSEVELT ST
BATON ROUGE, LA 70802
(30.421514, -91.190765)"
"51","Rue Lebouef Park","BREC PARK","BREC","11550 RUE LEBOUEF","BATON ROUGE","LA","70810","11550 RUE LEBOUEF
BATON ROUGE, LA 70810
(30.369828, -91.091251)"
"58","Saia Park","BREC PARK","BREC","855 N DONMOOR AVE","BATON ROUGE","LA","70806","855 N DONMOOR AVE
BATON ROUGE, LA 70806
(30.457925, -91.118605)"
"351","Samuel D'Agostino Park","BREC PARK","BREC","10300 EL SCOTT AVE","BATON ROUGE","LA","70811","10300 EL SCOTT AVE
BATON ROUGE, LA 70811
(30.500051, -91.073456)"
"269","Sandy Creek Community Park","BREC PARK","BREC","21572 CARSON RD","GREENWELL SPRINGS","LA","70739","21572 CARSON RD
GREENWELL SPRINGS, LA 70739
(30.668811, -90.960714)"
"285","Santa Maria Golf Course","BREC PARK","BREC","18460 SANTA MARIA PKWY","BATON ROUGE","LA","70810","18460 SANTA MARIA PKWY
BATON ROUGE, LA 70810
(30.340164, -91.009735)"
"206","Santa Maria Playground","BREC PARK","BREC","18460 SANTA MARIA PKWY","BATON ROUGE","LA","70809","18460 SANTA MARIA PKWY
BATON ROUGE, LA 70809
(30.341042, -91.009044)"
"44","Scotlandville Parkway","BREC PARK","BREC","3200 HARDING BLVD","BATON ROUGE","LA","70807","3200 HARDING BLVD
BATON ROUGE, LA 70807
(30.521289, -91.158377)"
"22","Seventh Street Park","BREC PARK","BREC","639 N 7TH ST","BATON ROUGE","LA","70802","639 N 7TH ST
BATON ROUGE, LA 70802
(30.453498, -91.183575)"
"375","Sharp Road Park","BREC PARK","BREC","501 SHARP RD","BATON ROUGE","LA","70815","501 SHARP RD
BATON ROUGE, LA 70815
(30.449757, -91.07049)"
"332","South Harrell's Ferry Road Park","BREC PARK","BREC","15750 S HARRELL'S FERRY RD","BATON ROUGE","LA","70816","15750 S HARRELL'S FERRY RD
BATON ROUGE, LA 70816
(30.426892, -91.014543)"
"357","South Magnolia Park","BREC PARK","BREC","2409 S MAGNOLIA DR","BAKER","LA","70714","2409 S MAGNOLIA DR
BAKER, LA 70714
(30.576488, -91.177414)"
"376","Spain Street Park","BREC PARK","BREC","2101 SPAIN ST","BATON ROUGE","LA","70806","2101 SPAIN ST
BATON ROUGE, LA 70806
(30.44489, -91.166629)"
"24","Spanish Town Park","BREC PARK","BREC","1300 SPANISH TOWN RD","BATON ROUGE","LA","70802","1300 SPANISH TOWN RD
BATON ROUGE, LA 70802
(30.454976, -91.176163)"
"23","Sports Academy","BREC PARK","BREC","1002 LAUREL ST","BATON ROUGE","LA","70802","1002 LAUREL ST
BATON ROUGE, LA 70802
(30.450637, -91.179311)"
"377","Sugarland Park","BREC PARK","BREC","4700 SUGAR LAND DR","BATON ROUGE","LA","70814","4700 SUGAR LAND DR
BATON ROUGE, LA 70814
(30.492404, -91.040305)"
"247","Tams Drive Park","BREC PARK","BREC","11600 TAMS DR","BATON ROUGE","LA","70815","11600 TAMS DR
BATON ROUGE, LA 70815
(30.466668, -91.054206)"
"193","T.D. Bickham, Jr. Park","BREC PARK","BREC","6850 PETTIT RD","BAKER","LA","70714","6850 PETTIT RD
BAKER, LA 70714
(30.579231, -91.121058)"
"19","Terrace Street Park","BREC PARK","BREC","701 TERRACE ST","BATON ROUGE","LA","70802","701 TERRACE ST
BATON ROUGE, LA 70802
(30.436234, -91.183111)"
"348","Thomas Maher Park","BREC PARK","BREC","8200 OAK VIEW DR","BATON ROUGE","LA","70814","8200 OAK VIEW DR
BATON ROUGE, LA 70814
(30.484425, -91.103941)"
"192","Tristian Avenue Park","BREC PARK","BREC","5209 TRISTIAN AVE","BAKER","LA","70714","5209 TRISTIAN AVE
BAKER, LA 70714
(30.599195, -91.143545)"
"37","Tuscarora Street Park","BREC PARK","BREC","4200 TUSCARORA ST","BATON ROUGE","LA","70805","4200 TUSCARORA ST
BATON ROUGE, LA 70805
(30.488105, -91.165304)"
"379","Warren O. Watson Park","BREC PARK","BREC","2700 TROTTER DR","BAKER","LA","70714","2700 TROTTER DR
BAKER, LA 70714
(30.604583, -91.153264)"
"277","Webb Memorial Park And Golf Course","BREC PARK","BREC","1351 COUNTRY CLUB DR","BATON ROUGE","LA","70806","1351 COUNTRY CLUB DR
BATON ROUGE, LA 70806
(30.436635, -91.141961)"
"39","Wenonah Street Park","BREC PARK","BREC","2521 CHIPPEWA ST","BATON ROUGE","LA","70805","2521 CHIPPEWA ST
BATON ROUGE, LA 70805
(30.47327, -91.163657)"
"61","West Brookstown Park","BREC PARK","BREC","4550 E BROOKSTOWN DR","BATON ROUGE","LA","70805","4550 E BROOKSTOWN DR
BATON ROUGE, LA 70805
(30.492175, -91.128315)"
"244","Woodlawn Acres Park","BREC PARK","BREC","16600 WOODLAWN ACRES AVE","BATON ROUGE","LA","70817","16600 WOODLAWN ACRES AVE
BATON ROUGE, LA 70817
(30.383674, -90.999547)"
"241","Woodlawn Walking Trail","BREC PARK","BREC","14939 TIGER BEND RD","BATON ROUGE","LA","70817","14939 TIGER BEND RD
BATON ROUGE, LA 70817
(30.391292, -91.01603)"
"384","Wray Park","BREC PARK","BREC","9801 RIDGEWOOD DR","BATON ROUGE","LA","70814","9801 RIDGEWOOD DR
BATON ROUGE, LA 70814
(30.492974, -91.078672)"
"266","Yatasi Drive Park","BREC PARK","BREC","16941 YATASI DR","GREENWELL SPRINGS","LA","70739","16941 YATASI DR
GREENWELL SPRINGS, LA 70739"
"380","Zachary Community Park","BREC PARK","BREC","20055 OLD SCENIC HWY","ZACHARY","LA","70791","20055 OLD SCENIC HWY
ZACHARY, LA 70791
(30.649828, -91.193084)"
"145","Chaneyville Community Center","COMMUNITY CENTER","COMMUNITY DEVELOPMENT","13211 JACKSON RD","ZACHARY","LA","70791","13211 JACKSON RD
ZACHARY, LA 70791
(30.685625, -91.023709)"
"143","Charles R. Kelly Community Center","COMMUNITY CENTER","COMMUNITY DEVELOPMENT","3535 RILEY ST","BATON ROUGE","LA","70805","3535 RILEY ST
BATON ROUGE, LA 70805
(30.498622, -91.155078)"
"141","Dr. Leo S. Butler Community Center","COMMUNITY CENTER","COMMUNITY DEVELOPMENT","950 E WASHINGTON ST","BATON ROUGE","LA","70802","950 E WASHINGTON ST
BATON ROUGE, LA 70802
(30.431143, -91.176091)"
"142","Dr. Martin Luther King, Jr. Community Center","COMMUNITY CENTER","COMMUNITY DEVELOPMENT","4142 GUS YOUNG AVE","BATON ROUGE","LA","70802","4142 GUS YOUNG AVE
BATON ROUGE, LA 70802
(30.461962, -91.148878)"
"144","Jewel J. Newman Community Center","COMMUNITY CENTER","COMMUNITY DEVELOPMENT","2013 CENTRAL RD","BATON ROUGE","LA","70807","2013 CENTRAL RD
BATON ROUGE, LA 70807
(30.535694, -91.173149)"
"389","Zachary Rural Program","COMMUNITY CENTER","COMMUNITY DEVELOPMENT","5746 ROLLINS RD","ZACHARY","LA","70791","5746 ROLLINS RD
ZACHARY, LA 70791
(30.658495, -91.157401)"
"125","Baton Rouge City Court and Constable","COURTHOUSE","CITY COURT","233 SAINT LOUIS ST","BATON ROUGE","LA","70802","233 SAINT LOUIS ST
BATON ROUGE, LA 70802
(30.445536, -91.187577)"
"93","19th Judicial District Court","COURTHOUSE","STATE OF LOUISIANA","300 NORTH BLVD","BATON ROUGE","LA","70802","300 NORTH BLVD
BATON ROUGE, LA 70802
(30.446946, -91.187162)"
"72","Juvenile Services and Court","COURTHOUSE","STATE OF LOUISIANA","8333 VETERANS MEMORIAL BLVD","BATON ROUGE","LA","70807","8333 VETERANS MEMORIAL BLVD
BATON ROUGE, LA 70807
(30.525105, -91.161123)"
"302","Louisiana 1st Circuit Court of Appeals","COURTHOUSE","STATE OF LOUISIANA","1600 N 3RD ST","BATON ROUGE","LA","70802","1600 N 3RD ST
BATON ROUGE, LA 70802
(30.461662, -91.187766)"
"479","Federal Building","COURTHOUSE","US FEDERAL GOVERNMENT","707 FLORIDA ST","BATON ROUGE","LA","70801","707 FLORIDA ST
BATON ROUGE, LA 70801
(30.44945, -91.18305)"
"480","Russell B. Long Federal Building and Courthouse","COURTHOUSE","US FEDERAL GOVERNMENT","777 FLORIDA ST","BATON ROUGE","LA","70801","777 FLORIDA ST
BATON ROUGE, LA 70801
(30.449473, -91.182211)"
"129","Emergency Medical Services HQ and EMS Station 5","EMS","EMERGENCY MEDICAL SERVICES","3801 HARDING BLVD","BATON ROUGE","LA","70807","3801 HARDING BLVD
BATON ROUGE, LA 70807
(30.521579, -91.153041)"
"9","EMS Station 11","EMS","EMERGENCY MEDICAL SERVICES","8140 YMCA PLAZA DR","BATON ROUGE","LA","70810","8140 YMCA PLAZA DR
BATON ROUGE, LA 70810
(30.373571, -91.075941)"
"390","EMS Station 12","EMS","EMERGENCY MEDICAL SERVICES","14523 OLD HAMMOND HWY","BATON ROUGE","LA","70819","14523 OLD HAMMOND HWY
BATON ROUGE, LA 70819
(30.451854, -91.024229)"
"168","EMS Station 13","EMS","EMERGENCY MEDICAL SERVICES","6252 LAVEY LN","BAKER","LA","70714","6252 LAVEY LN
BAKER, LA 70714
(30.575663, -91.13046)"
"166","EMS Station 14-9","EMS","EMERGENCY MEDICAL SERVICES","5758 CLAYCUT RD","BATON ROUGE","LA","70806","5758 CLAYCUT RD
BATON ROUGE, LA 70806
(30.441604, -91.13322)"
"167","EMS Station 15-10","EMS","EMERGENCY MEDICAL SERVICES","3142 EVANGELINE ST","BATON ROUGE","LA","70805","3142 EVANGELINE ST
BATON ROUGE, LA 70805
(30.492592, -91.158389)"
"172","EMS Station 3","EMS","EMERGENCY MEDICAL SERVICES","11644 SULLIVAN RD","CENTRAL","LA","70818","11644 SULLIVAN RD
CENTRAL, LA 70818
(30.554902, -91.037327)"
"169","EMS Station 4","EMS","EMERGENCY MEDICAL SERVICES","11010 COURSEY BLVD","BATON ROUGE","LA","70816","11010 COURSEY BLVD
BATON ROUGE, LA 70816
(30.414844, -91.058341)"
"164","EMS Station 6","EMS","EMERGENCY MEDICAL SERVICES","3024 FLORIDA ST","BATON ROUGE","LA","70806","3024 FLORIDA ST
BATON ROUGE, LA 70806
(30.450236, -91.157732)"
"163","EMS Station 7","EMS","EMERGENCY MEDICAL SERVICES","4025 PERKINS RD","BATON ROUGE","LA","70808","4025 PERKINS RD
BATON ROUGE, LA 70808
(30.419034, -91.148567)"
"162","EMS Station 8","EMS","EMERGENCY MEDICAL SERVICES","5650 CARPENTER RD","ZACHARY","LA","70791","5650 CARPENTER RD
ZACHARY, LA 70791
(30.646869, -91.142103)"
"152","EMS Station 9 (future)","EMS","EMERGENCY MEDICAL SERVICES","8912 AIRLINE HWY","BATON ROUGE","LA","70815","8912 AIRLINE HWY
BATON ROUGE, LA 70815
(30.447423, -91.092045)"
"112","Alsen/St Irma Lee VFD Station 25","FIRE PROTECTION","ALSEN/ST IRMA LEE VOLUNTEER FIRE DEPARTMENT","674 OLD RAFE MAYER RD","BATON ROUGE","LA","70807","674 OLD RAFE MAYER RD
BATON ROUGE, LA 70807
(30.570706, -91.197437)"
"116","Baker FD Station 21","FIRE PROTECTION","BAKER FIRE DEPARTMENT","3701 GROOM RD","BAKER","LA","70714","3701 GROOM RD
BAKER, LA 70714
(30.587715, -91.16114)"
"117","Baker FD Station 22","FIRE PROTECTION","BAKER FIRE DEPARTMENT","6252 LAVEY LN","BAKER","LA","70714","6252 LAVEY LN
BAKER, LA 70714
(30.575663, -91.13046)"
"92","BRFD Administration And Training Center","FIRE PROTECTION","BATON ROUGE FIRE DEPARTMENT","8011 MERLE GUSTAFSON DR","BATON ROUGE","LA","70807","8011 MERLE GUSTAFSON DR
BATON ROUGE, LA 70807
(30.523683, -91.149532)"
"338","BRFD Station 1","FIRE PROTECTION","BATON ROUGE FIRE DEPARTMENT","3024 FLORIDA ST","BATON ROUGE","LA","70806","3024 FLORIDA ST
BATON ROUGE, LA 70806
(30.450236, -91.157732)"
"103","BRFD Station 10","FIRE PROTECTION","BATON ROUGE FIRE DEPARTMENT","7380 MENLO DR","BATON ROUGE","LA","70808","7380 MENLO DR
BATON ROUGE, LA 70808
(30.380842, -91.137911)"
"104","BRFD Station 11","FIRE PROTECTION","BATON ROUGE FIRE DEPARTMENT","3186 HIGHLAND RD","BATON ROUGE","LA","70802","3186 HIGHLAND RD
BATON ROUGE, LA 70802
(30.419718, -91.177273)"
"105","BRFD Station 12","FIRE PROTECTION","BATON ROUGE FIRE DEPARTMENT","555 GOVERNMENT ST","BATON ROUGE","LA","70802","555 GOVERNMENT ST
BATON ROUGE, LA 70802
(30.443393, -91.184695)"
"106","BRFD Station 13","FIRE PROTECTION","BATON ROUGE FIRE DEPARTMENT","835 SHARP RD","BATON ROUGE","LA","70815","835 SHARP RD
BATON ROUGE, LA 70815
(30.446998, -91.069181)"
"107","BRFD Station 14","FIRE PROTECTION","BATON ROUGE FIRE DEPARTMENT","4121 HARDING BLVD","BATON ROUGE","LA","70811","4121 HARDING BLVD
BATON ROUGE, LA 70811
(30.521686, -91.149271)"
"108","BRFD Station 15","FIRE PROTECTION","BATON ROUGE FIRE DEPARTMENT","3150 BRIGHTSIDE DR","BATON ROUGE","LA","70820","3150 BRIGHTSIDE DR
BATON ROUGE, LA 70820
(30.390355, -91.193101)"
"109","BRFD Station 16","FIRE PROTECTION","BATON ROUGE FIRE DEPARTMENT","1200 ROSENWALD RD","BATON ROUGE","LA","70807","1200 ROSENWALD RD
BATON ROUGE, LA 70807
(30.531412, -91.181045)"
"111","BRFD Station 17","FIRE PROTECTION","BATON ROUGE FIRE DEPARTMENT","14350 OLD HAMMOND HWY","BATON ROUGE","LA","70816","14350 OLD HAMMOND HWY
BATON ROUGE, LA 70816
(30.450608, -91.026615)"
"386","BRFD Station 18","FIRE PROTECTION","BATON ROUGE FIRE DEPARTMENT","1993 N FLANNERY RD","BATON ROUGE","LA","70815","1993 N FLANNERY RD
BATON ROUGE, LA 70815
(30.469252, -91.035195)"
"110","BRFD Station 19","FIRE PROTECTION","BATON ROUGE FIRE DEPARTMENT","11010 COURSEY BLVD","BATON ROUGE","LA","70816","11010 COURSEY BLVD
BATON ROUGE, LA 70816
(30.414844, -91.058341)"
"4","BRFD Station 2","FIRE PROTECTION","BATON ROUGE FIRE DEPARTMENT","3333 CHOCTAW DR","BATON ROUGE","LA","70805","3333 CHOCTAW DR
BATON ROUGE, LA 70805
(30.470174, -91.155898)"
"5","BRFD Station 3","FIRE PROTECTION","BATON ROUGE FIRE DEPARTMENT","3142 EVANGELINE ST","BATON ROUGE","LA","70805","3142 EVANGELINE ST
BATON ROUGE, LA 70805
(30.492592, -91.158389)"
"6","BRFD Station 4","FIRE PROTECTION","BATON ROUGE FIRE DEPARTMENT","6241 PRESCOTT RD","BATON ROUGE","LA","70805","6241 PRESCOTT RD
BATON ROUGE, LA 70805
(30.48846, -91.127959)"
"7","BRFD Station 5","FIRE PROTECTION","BATON ROUGE FIRE DEPARTMENT","3215 MONTERREY DR","BATON ROUGE","LA","70814","3215 MONTERREY DR
BATON ROUGE, LA 70814
(30.479816, -91.083713)"
"100","BRFD Station 6","FIRE PROTECTION","BATON ROUGE FIRE DEPARTMENT","5321 GREENWELL SPRINGS RD","BATON ROUGE","LA","70806","5321 GREENWELL SPRINGS RD
BATON ROUGE, LA 70806
(30.464405, -91.135808)"
"101","BRFD Station 7","FIRE PROTECTION","BATON ROUGE FIRE DEPARTMENT","5758 CLAYCUT RD","BATON ROUGE","LA","70806","5758 CLAYCUT RD
BATON ROUGE, LA 70806
(30.441604, -91.13322)"
"385","BRFD Station 8","FIRE PROTECTION","BATON ROUGE FIRE DEPARTMENT","150 S WOODDALE DR","BATON ROUGE","LA","70806","150 S WOODDALE DR
BATON ROUGE, LA 70806
(30.450927, -91.103524)"
"102","BRFD Station 9","FIRE PROTECTION","BATON ROUGE FIRE DEPARTMENT","4025 PERKINS RD","BATON ROUGE","LA","70808","4025 PERKINS RD
BATON ROUGE, LA 70808
(30.419034, -91.148567)"
"113","Brownsfield VFD Station 71","FIRE PROTECTION","BROWNSFIELD VOLUNTEER FIRE DEPARTMENT","11420 PLANK RD","BATON ROUGE","LA","70811","11420 PLANK RD
BATON ROUGE, LA 70811
(30.549391, -91.13614)"
"339","Brownsfield VFD Station 72","FIRE PROTECTION","BROWNSFIELD VOLUNTEER FIRE DEPARTMENT","6850 KENT DR","BAKER","LA","70714","6850 KENT DR
BAKER, LA 70714
(30.58889, -91.122895)"
"312","Central FD Station 31","FIRE PROTECTION","CENTRAL VOLUNTEER FIRE DEPARTMENT","11646 SULLIVAN RD","CENTRAL","LA","70818","11646 SULLIVAN RD
CENTRAL, LA 70818
(30.555129, -91.03749)"
"120","Central FD Station 32","FIRE PROTECTION","CENTRAL VOLUNTEER FIRE DEPARTMENT","4864 MONTICELLO BLVD","BATON ROUGE","LA","70814","4864 MONTICELLO BLVD
BATON ROUGE, LA 70814
(30.495647, -91.051053)"
"314","Central FD Station 33","FIRE PROTECTION","CENTRAL VOLUNTEER FIRE DEPARTMENT","7019 DONNYBROOK AVE","GREENWELL SPRINGS","LA","70739","7019 DONNYBROOK AVE
GREENWELL SPRINGS, LA 70739
(30.517956, -91.004061)"
"315","Central FD Station 34","FIRE PROTECTION","CENTRAL VOLUNTEER FIRE DEPARTMENT","15341 E BEAVER DR","PRIDE","LA","70770","15341 E BEAVER DR
PRIDE, LA 70770
(30.587822, -91.022031)"
"121","Central FD Station 35","FIRE PROTECTION","CENTRAL VOLUNTEER FIRE DEPARTMENT","10626 LOVETT RD","CENTRAL","LA","70818","10626 LOVETT RD
CENTRAL, LA 70818
(30.534908, -91.065587)"
"387","Chaneyville VFD Station 40","FIRE PROTECTION","CHANEYVILLE VOLUNTEER FIRE DEPARTMENT","22790 REAMES RD","ZACHARY","LA","70791","22790 REAMES RD
ZACHARY, LA 70791
(30.683626, -91.027445)"
"150","Chaneyville VFD Station 42","FIRE PROTECTION","CHANEYVILLE VOLUNTEER FIRE DEPARTMENT","8801 ZACHARY-DEERFORD RD","ZACHARY","LA","70791","8801 ZACHARY-DEERFORD RD
ZACHARY, LA 70791
(30.642227, -91.092263)"
"118","Zachary FD Station 81","FIRE PROTECTION","CITY OF ZACHARY","4525 MAIN ST","ZACHARY","LA","70791","4525 MAIN ST
ZACHARY, LA 70791
(30.648442, -91.156161)"
"119","Zachary FD Station 82","FIRE PROTECTION","CITY OF ZACHARY","2250 FLONACHER RD","ZACHARY","LA","70791","2250 FLONACHER RD
ZACHARY, LA 70791
(30.664485, -91.192748)"
"151","Zachary FD Station 83","FIRE PROTECTION","CITY OF ZACHARY","9366 MAIN ST","ZACHARY","LA","70791","9366 MAIN ST
ZACHARY, LA 70791
(30.648864, -91.108445)"
"156","Zachary FD Station 84","FIRE PROTECTION","CITY OF ZACHARY","23060 BRIAN RD","ZACHARY","LA","70791","23060 BRIAN RD
ZACHARY, LA 70791
(30.690625, -91.205112)"
"318","Eastside FD Station 91","FIRE PROTECTION","EASTSIDE VOLUNTEER FIRE DEPARTMENT","15094 OLD HAMMOND HWY","BATON ROUGE","LA","70816","15094 OLD HAMMOND HWY
BATON ROUGE, LA 70816
(30.454599, -91.019033)"
"340","Eastside FD Station 92","FIRE PROTECTION","EASTSIDE VOLUNTEER FIRE DEPARTMENT","17505 S HARRELL'S FERRY RD","BATON ROUGE","LA","70816","17505 S HARRELL'S FERRY RD
BATON ROUGE, LA 70816
(30.422641, -90.992582)"
"316","District 6 FD Station 51","FIRE PROTECTION","HOOPER ROAD VOLUNTEER FIRE DEPARTMENT","7878 PRESCOTT RD","BATON ROUGE","LA","70812","7878 PRESCOTT RD
BATON ROUGE, LA 70812
(30.489108, -91.107747)"
"317","District 6 FD Station 52","FIRE PROTECTION","HOOPER ROAD VOLUNTEER FIRE DEPARTMENT","6324 MICKENS RD","BATON ROUGE","LA","70811","6324 MICKENS RD
BATON ROUGE, LA 70811
(30.524062, -91.125638)"
"114","Pride VFD Station 10","FIRE PROTECTION","PRIDE VOLUNTEER FIRE DEPARTMENT","20920 CARSON RD","PRIDE","LA","70770","20920 CARSON RD
PRIDE, LA 70770
(30.667698, -90.970557)"
"115","Pride VFD Station 11","FIRE PROTECTION","PRIDE VOLUNTEER FIRE DEPARTMENT","16929 LIBERTY RD","GREENWELL SPRINGS","LA","70739","16929 LIBERTY RD
GREENWELL SPRINGS, LA 70739
(30.60356, -90.996132)"
"311","Pride VFD Station 12","FIRE PROTECTION","PRIDE VOLUNTEER FIRE DEPARTMENT","38260 GREENWELL SPRINGS RD","CLINTON","LA","70722","38260 GREENWELL SPRINGS RD
CLINTON, LA 70722
(30.692086, -90.881962)"
"495","Pride VFD Station 13","FIRE PROTECTION","PRIDE VOLUNTEER FIRE DEPARTMENT","13467 PORT HUDSON-PRIDE RD","PRIDE","LA","70770","13467 PORT HUDSON-PRIDE RD
PRIDE, LA 70770
(30.705957, -91.018923)"
"511","St George FD HQ","FIRE PROTECTION","ST GEORGE VOLUNTEER FIRE DEPARTMENT","14100 AIRLINE HWY","BATON ROUGE","LA","70809","14100 AIRLINE HWY
BATON ROUGE, LA 70809
(30.366266, -91.026282)"
"322","St George FD Station 60","FIRE PROTECTION","ST GEORGE VOLUNTEER FIRE DEPARTMENT","14100 AIRLINE HWY","BATON ROUGE","LA","70809","14100 AIRLINE HWY
BATON ROUGE, LA 70809
(30.366266, -91.026282)"
"319","St George FD Station 61","FIRE PROTECTION","ST GEORGE VOLUNTEER FIRE DEPARTMENT","13686 PERKINS RD","BATON ROUGE","LA","70810","13686 PERKINS RD
BATON ROUGE, LA 70810
(30.365974, -91.067796)"
"320","St George FD Station 62","FIRE PROTECTION","ST GEORGE VOLUNTEER FIRE DEPARTMENT","9214 JEFFERSON HWY","BATON ROUGE","LA","70809","9214 JEFFERSON HWY
BATON ROUGE, LA 70809
(30.413952, -91.083784)"
"323","St George FD Station 63","FIRE PROTECTION","ST GEORGE VOLUNTEER FIRE DEPARTMENT","7027 ANTIOCH RD","BATON ROUGE","LA","70817","7027 ANTIOCH RD
BATON ROUGE, LA 70817
(30.388366, -91.007362)"
"122","St George FD Station 64","FIRE PROTECTION","ST GEORGE VOLUNTEER FIRE DEPARTMENT","17575 HOO SHOO TOO RD","BATON ROUGE","LA","70817","17575 HOO SHOO TOO RD
BATON ROUGE, LA 70817
(30.356462, -90.990879)"
"324","St George FD Station 65","FIRE PROTECTION","ST GEORGE VOLUNTEER FIRE DEPARTMENT","1506 SEABORD DR","BATON ROUGE","LA","70820","1506 SEABORD DR
BATON ROUGE, LA 70820
(30.355726, -91.125321)"
"321","St George FD Station 66","FIRE PROTECTION","ST GEORGE VOLUNTEER FIRE DEPARTMENT","16415 GEORGE O'NEAL RD","BATON ROUGE","LA","70817","16415 GEORGE O'NEAL RD
BATON ROUGE, LA 70817
(30.407146, -91.004783)"
"325","St George FD Station 68","FIRE PROTECTION","ST GEORGE VOLUNTEER FIRE DEPARTMENT","326 HIGHLANDIA DR","BATON ROUGE","LA","70810","326 HIGHLANDIA DR
BATON ROUGE, LA 70810
(30.342598, -91.028883)"
"428","Baker Heights Head Start","HEAD START","HEAD START","3750 HARDING ST","BAKER","LA","70714","3750 HARDING ST
BAKER, LA 70714
(30.583894, -91.160202)"
"429","Capital Area Head Start","HEAD START","HEAD START","3250 N ACADIAN THWY","BATON ROUGE","LA","70805","3250 N ACADIAN THWY
BATON ROUGE, LA 70805
(30.47612, -91.156067)"
"430","Charlie Thomas Memorial Head Start","HEAD START","HEAD START","8686 PECAN TREE DR","BATON ROUGE","LA","70810","8686 PECAN TREE DR
BATON ROUGE, LA 70810
(30.35086, -91.119377)"
"431","Child Development And Learning Center","HEAD START","HEAD START","7315 EXCHANGE PL","BATON ROUGE","LA","70806","7315 EXCHANGE PL
BATON ROUGE, LA 70806
(30.464056, -91.114818)"
"432","Children's World Early Head Start","HEAD START","HEAD START","7200 MAPLEWOOD DR","BATON ROUGE","LA","70812","7200 MAPLEWOOD DR
BATON ROUGE, LA 70812
(30.506099, -91.120273)"
"433","Creative Head Start","HEAD START","HEAD START","3165 VICTORIA DR","BATON ROUGE","LA","70805","3165 VICTORIA DR
BATON ROUGE, LA 70805
(30.478388, -91.117549)"
"434","Discovery Head Start","HEAD START","HEAD START","9700 SCENIC HWY","BATON ROUGE","LA","70807","9700 SCENIC HWY
BATON ROUGE, LA 70807
(30.532721, -91.186345)"
"435","Freeman-Matthews Head Start","HEAD START","HEAD START","1383 NAPOLEON ST","BATON ROUGE","LA","70802","1383 NAPOLEON ST
BATON ROUGE, LA 70802
(30.4356, -91.182973)"
"436","Labelle Aire Head Start","HEAD START","HEAD START","1919 N CRISTY DR","BATON ROUGE","LA","70815","1919 N CRISTY DR
BATON ROUGE, LA 70815
(30.470666, -91.045863)"
"437","New Horizon Head Start","HEAD START","HEAD START","1111 N 28TH ST","BATON ROUGE","LA","70802","1111 N 28TH ST
BATON ROUGE, LA 70802
(30.459131, -91.160625)"
"438","Progress Road Head Start","HEAD START","HEAD START","1881 PROGRESS RD","BATON ROUGE","LA","70807","1881 PROGRESS RD
BATON ROUGE, LA 70807
(30.537792, -91.173556)"
"439","Wonderland Head Start","HEAD START","HEAD START","1500 OLEANDER ST","BATON ROUGE","LA","70802","1500 OLEANDER ST
BATON ROUGE, LA 70802
(30.44177, -91.172522)"
"485","BR Behavioral Health Addiction Recovery Services","HEALTH CARE","CAPITAL AREA HUMAN SERVICES DISTRICT","2751 WOODDALE BLVD","BATON ROUGE","LA","70805","2751 WOODDALE BLVD
BATON ROUGE, LA 70805
(30.473939, -91.116173)"
"460","Capital Area Human Services District","HEALTH CARE","CAPITAL AREA HUMAN SERVICES DISTRICT","7389 FLORIDA BLVD, STE 100","BATON ROUGE","LA","70806","7389 FLORIDA BLVD, STE 100
BATON ROUGE, LA 70806
(30.45171, -91.113614)"
"461","Children's Behavioral Health","HEALTH CARE","CAPITAL AREA HUMAN SERVICES DISTRICT","422 COLONIAL DR","BATON ROUGE","LA","70806","422 COLONIAL DR
BATON ROUGE, LA 70806
(30.446973, -91.098537)"
"514","North Baton Rouge Behavioral Health","HEALTH CARE","CAPITAL AREA HUMAN SERVICES DISTRICT","7855 HOWELL BLVD","BATON ROUGE","LA","70807","7855 HOWELL BLVD
BATON ROUGE, LA 70807
(30.517611, -91.157573)"
"131","EBRP Health Unit","HEALTH CARE","STATE OF LOUISIANA","353 N 12TH ST","BATON ROUGE","LA","70802","353 N 12TH ST
BATON ROUGE, LA 70802
(30.45019, -91.177338)"
"414","LSU Health System Mid City Clinic","HEALTH CARE","STATE OF LOUISIANA","1401 N FOSTER DR","BATON ROUGE","LA","70806","1401 N FOSTER DR
BATON ROUGE, LA 70806
(30.461271, -91.139534)"
"413","LSU Health System North BR Clinic","HEALTH CARE","STATE OF LOUISIANA","5439 AIRLINE HWY","BATON ROUGE","LA","70811","5439 AIRLINE HWY
BATON ROUGE, LA 70811
(30.50719, -91.137058)"
"420","LSU Health System Perkins Surgical Center","HEALTH CARE","STATE OF LOUISIANA","9032 PERKINS RD","BATON ROUGE","LA","70810","9032 PERKINS RD
BATON ROUGE, LA 70810
(30.383422, -91.101751)"
"483","Department of Veterans Affairs Clinic","HEALTH CARE","US FEDERAL GOVERNMENT","7850 ANSELMO LN","BATON ROUGE","LA","70810","7850 ANSELMO LN
BATON ROUGE, LA 70810
(30.396066, -91.106034)"
"481","Department of Veterans Affairs Outpatient Clinic","HEALTH CARE","US FEDERAL GOVERNMENT","7968 ESSEN PARK AVE","BATON ROUGE","LA","70809","7968 ESSEN PARK AVE
BATON ROUGE, LA 70809
(30.40373, -91.09972)"
"482","Department of Veterans Affairs Outpatient Clinic","HEALTH CARE","US FEDERAL GOVERNMENT","216 S FOSTER DR","BATON ROUGE","LA","70806","216 S FOSTER DR
BATON ROUGE, LA 70806
(30.446942, -91.138839)"
"469","Baton Rouge Area Drug and Alcohol Center","HEALTH CARE",,"1819 FLORIDA ST","BATON ROUGE","LA","70802","1819 FLORIDA ST
BATON ROUGE, LA 70802
(30.449879, -91.169522)"
"90","EBRP Library Baker Branch","LIBRARY","EBR PARISH LIBRARY","3501 GROOM RD","BAKER","LA","70714","3501 GROOM RD
BAKER, LA 70714
(30.587858, -91.163523)"
"84","EBRP Library Bluebonnet Regional Branch","LIBRARY","EBR PARISH LIBRARY","9200 BLUEBONNET BLVD","BATON ROUGE","LA","70810","9200 BLUEBONNET BLVD
BATON ROUGE, LA 70810
(30.36453, -91.104772)"
"80","EBRP Library Carver Branch","LIBRARY","EBR PARISH LIBRARY","720 TERRACE ST","BATON ROUGE","LA","70802","720 TERRACE ST
BATON ROUGE, LA 70802
(30.436239, -91.18294)"
"88","EBRP Library Central Branch","LIBRARY","EBR PARISH LIBRARY","11260 JOOR RD","CENTRAL","LA","70818","11260 JOOR RD
CENTRAL, LA 70818
(30.551193, -91.052893)"
"81","EBRP Library Delmont Gardens Branch","LIBRARY","EBR PARISH LIBRARY","3351 LORRAINE ST","BATON ROUGE","LA","70805","3351 LORRAINE ST
BATON ROUGE, LA 70805
(30.496641, -91.155535)"
"82","EBRP Library Eden Park Branch","LIBRARY","EBR PARISH LIBRARY","5131 GREENWELL SPRINGS RD","BATON ROUGE","LA","70806","5131 GREENWELL SPRINGS RD
BATON ROUGE, LA 70806
(30.463368, -91.1377)"
"8","EBRP Library Fairwood Branch","LIBRARY","EBR PARISH LIBRARY","12910 OLD HAMMOND HWY","BATON ROUGE","LA","70816","12910 OLD HAMMOND HWY
BATON ROUGE, LA 70816
(30.444768, -91.035315)"
"86","EBRP Library Greenwell Springs Regional Branch","LIBRARY","EBR PARISH LIBRARY","11300 GREENWELL SPRINGS RD","BATON ROUGE","LA","70814","11300 GREENWELL SPRINGS RD
BATON ROUGE, LA 70814
(30.493805, -91.05761)"
"85","EBRP Library Jones Creek Regional Branch","LIBRARY","EBR PARISH LIBRARY","6222 JONES CREEK RD","BATON ROUGE","LA","70817","6222 JONES CREEK RD
BATON ROUGE, LA 70817
(30.395491, -91.017895)"
"89","EBRP Library Pride-Chaneyville Branch","LIBRARY","EBR PARISH LIBRARY","13600 PORT HUDSON-PRIDE RD","PRIDE","LA","70770","13600 PORT HUDSON-PRIDE RD
PRIDE, LA 70770
(30.7051, -91.016573)"
"223","EBRP Library Recycled Reads","LIBRARY","EBR PARISH LIBRARY","3434 NORTH BLVD","BATON ROUGE","LA","70806","3434 NORTH BLVD
BATON ROUGE, LA 70806
(30.448224, -91.154504)"
"123","EBRP Library River Center Branch","LIBRARY","EBR PARISH LIBRARY","250 SAINT LOUIS ST","BATON ROUGE","LA","70802","250 SAINT LOUIS ST
BATON ROUGE, LA 70802
(30.445281, -91.187565)"
"83","EBRP Library Scotlandville Branch","LIBRARY","EBR PARISH LIBRARY","7373 SCENIC HWY","BATON ROUGE","LA","70807","7373 SCENIC HWY
BATON ROUGE, LA 70807
(30.515672, -91.176309)"
"341","EBRP Library Zachary Branch","LIBRARY","EBR PARISH LIBRARY","1900 CHURCH ST","ZACHARY","LA","70791","1900 CHURCH ST
ZACHARY, LA 70791
(30.653486, -91.184129)"
"313","EBRP Main Library","LIBRARY","EBR PARISH LIBRARY","7711 GOODWOOD BLVD","BATON ROUGE","LA","70806","7711 GOODWOOD BLVD
BATON ROUGE, LA 70806
(30.442427, -91.106472)"
"295","Louisiana State Library","LIBRARY","STATE OF LOUISIANA","701 N 4TH ST","BATON ROUGE","LA","70802","701 N 4TH ST
BATON ROUGE, LA 70802
(30.453876, -91.187224)"
"214","Armed Forces Reserve Center & BR Armory","MILITARY","STATE OF LOUISIANA","8110 INNOVATION PARK DR","BATON ROUGE","LA","70820","8110 INNOVATION PARK DR
BATON ROUGE, LA 70820
(30.360041, -91.137216)"
"412","National Guard Baker Armory","MILITARY","STATE OF LOUISIANA","2900 S MAGNOLIA DR","BAKER","LA","70714","2900 S MAGNOLIA DR
BAKER, LA 70714
(30.575828, -91.173546)"
"416","L.C. Saurage Army Reserve Center","MILITARY","US FEDERAL GOVERNMENT","1735 FOSS ST","BATON ROUGE","LA","70802","1735 FOSS ST
BATON ROUGE, LA 70802
(30.459769, -91.173237)"
"137","Capital Area Transit System","MUNICIPAL OFFICES","CAPITAL AREA TRANSIT SYSTEM","2250 FLORIDA ST","BATON ROUGE","LA","70802","2250 FLORIDA ST
BATON ROUGE, LA 70802
(30.450016, -91.164697)"
"91","Capital Region Planning Commission","MUNICIPAL OFFICES","CAPITAL REGION PLANNING COMMISSION","14734 S HARRELL'S FERRY RD","BATON ROUGE","LA","70816","14734 S HARRELL'S FERRY RD
BATON ROUGE, LA 70816
(30.429136, -91.022232)"
"215","Baker City Hall","MUNICIPAL OFFICES","CITY OF BAKER","3325 GROOM RD","BAKER","LA","70714","3325 GROOM RD
BAKER, LA 70714
(30.588041, -91.165418)"
"221","Central City Hall","MUNICIPAL OFFICES","CITY OF CENTRAL","13421 HOOPER RD, STE 9","CENTRAL","LA","70818","13421 HOOPER RD, STE 9
CENTRAL, LA 70818
(30.552963, -91.039988)"
"478","Central Municipal Services Center","MUNICIPAL OFFICES","CITY OF CENTRAL","6703 SULLIVAN RD","GREENWELL SPRINGS","LA","70739","6703 SULLIVAN RD
GREENWELL SPRINGS, LA 70739
(30.514001, -91.029792)"
"216","Zachary City Hall","MUNICIPAL OFFICES","CITY OF ZACHARY","4510 MAIN ST","ZACHARY","LA","70791","4510 MAIN ST
ZACHARY, LA 70791
(30.648469, -91.15642)"
"474","EBR Redevelopment Authority","MUNICIPAL OFFICES","COMMUNITY DEVELOPMENT","801 NORTH BLVD","BATON ROUGE","LA","70802","801 NORTH BLVD
BATON ROUGE, LA 70802
(30.44736, -91.181964)"
"476","EBR Council on Aging","MUNICIPAL OFFICES","COUNCIL ON AGING","5790 FLORIDA BLVD","BATON ROUGE","LA","70806","5790 FLORIDA BLVD
BATON ROUGE, LA 70806
(30.451052, -91.130123)"
"136","City-Parish Employees Federal Credit Union","MUNICIPAL OFFICES","C-P EMPLOYEES FEDERAL CREDIT UNION","433 GOVERNMENT ST","BATON ROUGE","LA","70802","433 GOVERNMENT ST
BATON ROUGE, LA 70802
(30.443367, -91.185757)"
"134","Downtown Development District","MUNICIPAL OFFICES","DOWNTOWN DEVELOPMENT DISTRICT","247 FLORIDA ST","BATON ROUGE","LA","70801","247 FLORIDA ST
BATON ROUGE, LA 70801
(30.449304, -91.188628)"
"74","EBR Assessor Coursey Branch Office","MUNICIPAL OFFICES","EBRP ASSESSOR","10500 COURSEY BLVD","BATON ROUGE","LA","70816","10500 COURSEY BLVD
BATON ROUGE, LA 70816
(30.416454, -91.063406)"
"149","EBR Assessor Zachary Branch Office","MUNICIPAL OFFICES","EBRP ASSESSOR","5850 MAIN ST","ZACHARY","LA","70791","5850 MAIN ST
ZACHARY, LA 70791
(30.648492, -91.143184)"
"217","EBRP Housing Authority","MUNICIPAL OFFICES","EBRP HOUSING AUTHORITY","4731 NORTH BLVD","BATON ROUGE","LA","70806","4731 NORTH BLVD
BATON ROUGE, LA 70806
(30.448621, -91.141638)"
"138","Human Development and Services","MUNICIPAL OFFICES","HUMAN DEVELOPMENT AND SERVICES","4523 PLANK RD","BATON ROUGE","LA","70805","4523 PLANK RD
BATON ROUGE, LA 70805
(30.491025, -91.156127)"
"132","Human Resources","MUNICIPAL OFFICES","HUMAN RESOURCES","1755 FLORIDA ST","BATON ROUGE","LA","70802","1755 FLORIDA ST
BATON ROUGE, LA 70802
(30.449855, -91.170221)"
"70","Mosquito Abatement and Rodent Control","MUNICIPAL OFFICES","MARC","10550 VETERANS MEMORIAL BLVD","BATON ROUGE","LA","70807","10550 VETERANS MEMORIAL BLVD
BATON ROUGE, LA 70807
(30.540543, -91.165399)"
"133","Public Works And Planning Center","MUNICIPAL OFFICES","PLANNING COMMISSION","1100 LAUREL ST","BATON ROUGE","LA","70802","1100 LAUREL ST
BATON ROUGE, LA 70802
(30.450653, -91.178712)"
"449","EBR Registrar of Voters Baker Branch","MUNICIPAL OFFICES","REGISTRAR OF VOTERS","2250 MAIN ST","BAKER","LA","70714","2250 MAIN ST
BAKER, LA 70714
(30.60003, -91.16578)"
"408","EBR Registrar of Voters Coursey Branch","MUNICIPAL OFFICES","REGISTRAR OF VOTERS","11010 COURSEY BLVD","BATON ROUGE","LA","70816","11010 COURSEY BLVD
BATON ROUGE, LA 70816
(30.414844, -91.058341)"
"128","City-Parish Employees Retirement System","MUNICIPAL OFFICES","RETIREMENT SYSTEM","209 SAINT FERDINAND ST","BATON ROUGE","LA","70802","209 SAINT FERDINAND ST
BATON ROUGE, LA 70802
(30.445579, -91.186562)"
"127","Cooperative Extension","MUNICIPAL OFFICES","STATE OF LOUISIANA","805 SAINT LOUIS ST","BATON ROUGE","LA","70802","805 SAINT LOUIS ST
BATON ROUGE, LA 70802
(30.440759, -91.1874)"
"135","Visit Baton Rouge","MUNICIPAL OFFICES","VISIT BATON ROUGE","359 3RD ST","BATON ROUGE","LA","70801","359 3RD ST
BATON ROUGE, LA 70801
(30.450171, -91.188301)"
"69","Animal Control Center","MUNICIPAL OFFICES",,"2680 PROGRESS RD","BATON ROUGE","LA","70807","2680 PROGRESS RD
BATON ROUGE, LA 70807
(30.537793, -91.165529)"
"124","City Hall","MUNICIPAL OFFICES",,"222 SAINT LOUIS ST","BATON ROUGE","LA","70802","222 SAINT LOUIS ST
BATON ROUGE, LA 70802
(30.446377, -91.187599)"
"73","EBRP Coroner","MUNICIPAL OFFICES",,"4030 T.B. HERNDON AVE","BATON ROUGE","LA","70807","4030 T.B. HERNDON AVE
BATON ROUGE, LA 70807
(30.524543, -91.145693)"
"388","Baker Police Headquarters","POLICE PROTECTION","BAKER POLICE DEPARTMENT","1320 ALABAMA AVE","BAKER","LA","70714","1320 ALABAMA AVE
BAKER, LA 70714"
"403","BRPD Air Support","POLICE PROTECTION","BATON ROUGE POLICE DEPARTMENT","4475 BLANCHE NOYES AVE","BATON ROUGE","LA","70807","4475 BLANCHE NOYES AVE
BATON ROUGE, LA 70807
(30.53179, -91.144473)"
"154","BRPD District 1 Station","POLICE PROTECTION","BATON ROUGE POLICE DEPARTMENT","4545 PLANK RD","BATON ROUGE","LA","70805","4545 PLANK RD
BATON ROUGE, LA 70805
(30.490629, -91.156264)"
"98","BRPD District 2 Station","POLICE PROTECTION","BATON ROUGE POLICE DEPARTMENT","2265 HIGHLAND RD","BATON ROUGE","LA","70802","2265 HIGHLAND RD
BATON ROUGE, LA 70802
(30.426109, -91.180187)"
"148","BRPD District 4 Station","POLICE PROTECTION","BATON ROUGE POLICE DEPARTMENT","8227 SCENIC HWY","BATON ROUGE","LA","70807","8227 SCENIC HWY
BATON ROUGE, LA 70807
(30.522404, -91.180314)"
"405","BRPD Downtown District Station","POLICE PROTECTION","BATON ROUGE POLICE DEPARTMENT","201 3RD ST","BATON ROUGE","LA","70801","201 3RD ST
BATON ROUGE, LA 70801
(30.448622, -91.188219)"
"400","BRPD Evidence/Crime Scene","POLICE PROTECTION","BATON ROUGE POLICE DEPARTMENT","2905 EVANGELINE ST","BATON ROUGE","LA","70805","2905 EVANGELINE ST
BATON ROUGE, LA 70805
(30.492432, -91.16089)"
"99","BRPD Headquarters / District 3 Station","POLICE PROTECTION","BATON ROUGE POLICE DEPARTMENT","9000 AIRLINE HWY","BATON ROUGE","LA","70815","9000 AIRLINE HWY
BATON ROUGE, LA 70815
(30.446031, -91.09105)"
"404","BRPD K9/SRT","POLICE PROTECTION","BATON ROUGE POLICE DEPARTMENT","2727 LIEUTENANT GENERAL BENJAMIN DAVIS, JR. AVE","BATON ROUGE","LA","70807","2727 LIEUTENANT GENERAL BENJAMIN DAVIS, JR. AVE
BATON ROUGE, LA 70807"
"407","BRPD Mounted Patrol","POLICE PROTECTION","BATON ROUGE POLICE DEPARTMENT","6402 RIVER RD","BATON ROUGE","LA","70820","6402 RIVER RD
BATON ROUGE, LA 70820
(30.382589, -91.218727)"
"406","BRPD Pistol Range & EBRSO Training Facility","POLICE PROTECTION","BATON ROUGE POLICE DEPARTMENT","999 W IRENE RD","ZACHARY","LA","70791","999 W IRENE RD
ZACHARY, LA 70791
(30.611468, -91.240097)"
"402","BRPD S-3 Building","POLICE PROTECTION","BATON ROUGE POLICE DEPARTMENT","9048 AIRLINE HWY","BATON ROUGE","LA","70815","9048 AIRLINE HWY
BATON ROUGE, LA 70815
(30.445288, -91.090519)"
"401","BRPD Training","POLICE PROTECTION","BATON ROUGE POLICE DEPARTMENT","9050 AIRLINE HWY, STE 110","BATON ROUGE","LA","70815","9050 AIRLINE HWY, STE 110
BATON ROUGE, LA 70815
(30.44508, -91.090375)"
"290","BRPD VCU","POLICE PROTECTION","BATON ROUGE POLICE DEPARTMENT","7919 INDEPENDENCE BLVD","BATON ROUGE","LA","70806","7919 INDEPENDENCE BLVD
BATON ROUGE, LA 70806
(30.445617, -91.104136)"
"381","Central Police Department","POLICE PROTECTION","CITY OF CENTRAL","13505 HOOPER RD","CENTRAL","LA","70818","13505 HOOPER RD
CENTRAL, LA 70818
(30.553813, -91.038003)"
"97","Zachary Police Headquarters","POLICE PROTECTION","CITY OF ZACHARY","4510 MAIN ST","ZACHARY","LA","70791","4510 MAIN ST
ZACHARY, LA 70791
(30.648469, -91.15642)"
"68","EBR Parish Prison","POLICE PROTECTION","EBR SHERIFFS OFFICE","2867 BRIGADIER GENERAL ISAAC SMITH AVE","BATON ROUGE","LA","70807","2867 BRIGADIER GENERAL ISAAC SMITH AVE
BATON ROUGE, LA 70807"
"10","EBR Sheriff's Office","POLICE PROTECTION","EBR SHERIFFS OFFICE","8900 JIMMY WEDELL DR","BATON ROUGE","LA","70807","8900 JIMMY WEDELL DR
BATON ROUGE, LA 70807
(30.528833, -91.157625)"
"475","EBR Sheriff's Office Special Ops & Fleet Services","POLICE PROTECTION","EBR SHERIFFS OFFICE","8686 GENERAL CHENNAULT DR","BATON ROUGE","LA","70807","8686 GENERAL CHENNAULT DR
BATON ROUGE, LA 70807
(30.527442, -91.160217)"
"2","EBRSO Central Substation","POLICE PROTECTION","EBR SHERIFFS OFFICE","13016 GURNEY RD","CENTRAL","LA","70818","13016 GURNEY RD
CENTRAL, LA 70818
(30.561052, -91.043827)"
"161","EBRSO Gardere Substation","POLICE PROTECTION","EBR SHERIFFS OFFICE","3777 L'AUBERGE CROSSING DR","BATON ROUGE","LA","70820","3777 L'AUBERGE CROSSING DR
BATON ROUGE, LA 70820
(30.34369, -91.147014)"
"94","EBRSO Kleinpeter Substation","POLICE PROTECTION","EBR SHERIFFS OFFICE","14431 AIRLINE HWY","BATON ROUGE","LA","70817","14431 AIRLINE HWY
BATON ROUGE, LA 70817
(30.36457, -91.022593)"
"146","EBRSO Pride-Chaneyville Substation","POLICE PROTECTION","EBR SHERIFFS OFFICE","12828 JACKSON RD","ZACHARY","LA","70791","12828 JACKSON RD
ZACHARY, LA 70791
(30.68563, -91.030903)"
"1","EBRSO Scotlandville Substation","POLICE PROTECTION","EBR SHERIFFS OFFICE","1270 ROSENWALD RD","BATON ROUGE","LA","70807","1270 ROSENWALD RD
BATON ROUGE, LA 70807
(30.53141, -91.180628)"
"96","EBRSO Traffic Section","POLICE PROTECTION","EBR SHERIFFS OFFICE","9313 BURBANK DR","BATON ROUGE","LA","70820","9313 BURBANK DR
BATON ROUGE, LA 70820
(30.36114, -91.125616)"
"421","EBRSO Training Facility","POLICE PROTECTION","EBR SHERIFFS OFFICE","2829 LIEUTENANT GENERAL BENJAMIN DAVIS, JR. AVE","BATON ROUGE","LA","70807","2829 LIEUTENANT GENERAL BENJAMIN DAVIS, JR. AVE
BATON ROUGE, LA 70807"
"3","EBRSO Zachary-Plains Substation","POLICE PROTECTION","EBR SHERIFFS OFFICE","23060 BRIAN RD","ZACHARY","LA","70791","23060 BRIAN RD
ZACHARY, LA 70791
(30.690625, -91.205112)"
"326","Louisiana State Police Troop A","POLICE PROTECTION","LOUISIANA STATE POLICE","17801 HIGHLAND RD","BATON ROUGE","LA","70810","17801 HIGHLAND RD
BATON ROUGE, LA 70810
(30.34562, -91.030779)"
"165","Ardenwood Village","PUBLIC HOUSING","EBRP HOUSING AUTHORITY","1957 N ARDENWOOD DR","BATON ROUGE","LA","70806","1957 N ARDENWOOD DR
BATON ROUGE, LA 70806
(30.466626, -91.129545)"
"365","Autumn Place Townhomes","PUBLIC HOUSING","EBRP HOUSING AUTHORITY","5656 AUTUMN BLOSSOM AVE","BATON ROUGE","LA","70805","5656 AUTUMN BLOSSOM AVE
BATON ROUGE, LA 70805
(30.501183, -91.134917)"
"159","Capitol Square","PUBLIC HOUSING","EBRP HOUSING AUTHORITY","700 N 17TH ST","BATON ROUGE","LA","70802","700 N 17TH ST
BATON ROUGE, LA 70802
(30.453206, -91.171967)"
"333","Clarksdale Apartments","PUBLIC HOUSING","EBRP HOUSING AUTHORITY","801 SWAN AVE","BATON ROUGE","LA","70807","801 SWAN AVE
BATON ROUGE, LA 70807
(30.523627, -91.184861)"
"336","Duane Street Apartments","PUBLIC HOUSING","EBRP HOUSING AUTHORITY","1701 DUANE ST","BATON ROUGE","LA","70802","1701 DUANE ST
BATON ROUGE, LA 70802
(30.430716, -91.185302)"
"157","Kelly Terrace","PUBLIC HOUSING","EBRP HOUSING AUTHORITY","999 ROSENWALD RD","BATON ROUGE","LA","70807","999 ROSENWALD RD
BATON ROUGE, LA 70807
(30.531364, -91.182614)"
"366","Monte Sano Village","PUBLIC HOUSING","EBRP HOUSING AUTHORITY","3002 MASON AVE","BATON ROUGE","LA","70805","3002 MASON AVE
BATON ROUGE, LA 70805
(30.507372, -91.160351)"
"334","Roosevelt Terrace","PUBLIC HOUSING","EBRP HOUSING AUTHORITY","1255 W ROOSEVELT ST","BATON ROUGE","LA","70802","1255 W ROOSEVELT ST
BATON ROUGE, LA 70802
(30.421486, -91.191207)"
"160","Scotland Villa Apartments","PUBLIC HOUSING","EBRP HOUSING AUTHORITY","10666 SCOTLAND AVE","BATON ROUGE","LA","70807","10666 SCOTLAND AVE
BATON ROUGE, LA 70807
(30.542041, -91.177056)"
"158","Sharlo Terrace Apartments","PUBLIC HOUSING","EBRP HOUSING AUTHORITY","4915 ALVIN DARK AVE","BATON ROUGE","LA","70820","4915 ALVIN DARK AVE
BATON ROUGE, LA 70820
(30.390201, -91.181573)"
"171","Turner Plaza","PUBLIC HOUSING","EBRP HOUSING AUTHORITY","4546 NORTH ST","BATON ROUGE","LA","70806","4546 NORTH ST
BATON ROUGE, LA 70806
(30.453828, -91.143298)"
"337","Wesley Chapel Apartments","PUBLIC HOUSING","EBRP HOUSING AUTHORITY","10008 AVENUE L","BATON ROUGE","LA","70807","10008 AVENUE L
BATON ROUGE, LA 70807
(30.535684, -91.200697)"
"335","Willow Creek Townhomes","PUBLIC HOUSING","EBRP HOUSING AUTHORITY","5876 QUIDA MAE DR","BATON ROUGE","LA","70812","5876 QUIDA MAE DR
BATON ROUGE, LA 70812
(30.504114, -91.130294)"
"364","Wood Plaza","PUBLIC HOUSING","EBRP HOUSING AUTHORITY","9990 AVENUE J","BATON ROUGE","LA","70807","9990 AVENUE J
BATON ROUGE, LA 70807
(30.535976, -91.198869)"
"367","Zion Terrace","PUBLIC HOUSING","EBRP HOUSING AUTHORITY","5958 CADILLAC ST","BATON ROUGE","LA","70811","5958 CADILLAC ST
BATON ROUGE, LA 70811
(30.518084, -91.128639)"
"139","ATM-EOC (Communications)","PUBLIC SAFETY","EBR COMMUNICATIONS DISTRICT","3773 HARDING BLVD","BATON ROUGE","LA","70807","3773 HARDING BLVD
BATON ROUGE, LA 70807
(30.521567, -91.153472)"
"452","EBRSO Property Crimes Complex","PUBLIC SAFETY","EBR SHERIFFS OFFICE","11130 INDUSTRIPLEX BLVD","BATON ROUGE","LA","70809","11130 INDUSTRIPLEX BLVD
BATON ROUGE, LA 70809
(30.388455, -91.058527)"
"489","Civil Air Patrol","PUBLIC SAFETY","STATE OF LOUISIANA","9163 BLANCHE NOYES AVE","BATON ROUGE","LA","70807","9163 BLANCHE NOYES AVE
BATON ROUGE, LA 70807
(30.531002, -91.14295)"
"310","Department of Public Safety & La State Police","PUBLIC SAFETY","STATE OF LOUISIANA","7919 INDEPENDENCE BLVD","BATON ROUGE","LA","70806","7919 INDEPENDENCE BLVD
BATON ROUGE, LA 70806
(30.445617, -91.104136)"
"493","Gov. Office of Homeland Security and Emer. Prep.","PUBLIC SAFETY","STATE OF LOUISIANA","7667 INDEPENDENCE BLVD","BATON ROUGE","LA","70806","7667 INDEPENDENCE BLVD
BATON ROUGE, LA 70806
(30.44538, -91.110101)"
"392","LA State Fire Marshal","PUBLIC SAFETY","STATE OF LOUISIANA","8181 INDEPENDENCE BLVD","BATON ROUGE","LA","70806","8181 INDEPENDENCE BLVD
BATON ROUGE, LA 70806
(30.44569, -91.102293)"
"391","Louisiana Correctional Institute for Women","PUBLIC SAFETY","STATE OF LOUISIANA","15200 OLD SCENIC HWY","BAKER","LA","70714","15200 OLD SCENIC HWY
BAKER, LA 70714
(30.586775, -91.208226)"
"492","LSP Crime/Photo Lab","PUBLIC SAFETY","STATE OF LOUISIANA","376 E AIRPORT AVE","BATON ROUGE","LA","70806","376 E AIRPORT AVE
BATON ROUGE, LA 70806
(30.448414, -91.102347)"
"513","LSP Training Academy","PUBLIC SAFETY","STATE OF LOUISIANA","7901 INDEPENDENCE BLVD","BATON ROUGE","LA","70806","7901 INDEPENDENCE BLVD
BATON ROUGE, LA 70806
(30.445553, -91.106678)"
"440","Women's Community Rehabilitation Center","PUBLIC SAFETY","STATE OF LOUISIANA","855 SAINT FERDINAND ST","BATON ROUGE","LA","70802","855 SAINT FERDINAND ST
BATON ROUGE, LA 70802
(30.439762, -91.186383)"
"484","Federal Emergency Management Agency","PUBLIC SAFETY","US FEDERAL GOVERNMENT","1500 MAIN ST","BATON ROUGE","LA","70802","1500 MAIN ST
BATON ROUGE, LA 70802
(30.451913, -91.171843)"
"362","Building Maintenance For Parish Prison","PUBLIC WORKS","DEPARTMENT OF BUILDINGS AND GROUNDS","2859 LIEUTENANT GENERAL BENJAMIN DAVIS, JR. AVE","BATON ROUGE","LA","70807","2859 LIEUTENANT GENERAL BENJAMIN DAVIS, JR. AVE
BATON ROUGE, LA 70807"
"130","Department of Development Permits-Inspections","PUBLIC WORKS","DEPARTMENT OF DEVELOPMENT","300 N 10TH ST","BATON ROUGE","LA","70802","300 N 10TH ST
BATON ROUGE, LA 70802
(30.450215, -91.179813)"
"155","Central Wastewater Treatment Facility","PUBLIC WORKS","DEPARTMENT OF ENVIRONMENTAL SERVICES","2443 S RIVER RD, STE B","BATON ROUGE","LA","70802","2443 S RIVER RD, STE B
BATON ROUGE, LA 70802
(30.424311, -91.192395)"
"79","Department of Environmental Services","PUBLIC WORKS","DEPARTMENT OF ENVIRONMENTAL SERVICES","345 CHIPPEWA ST","BATON ROUGE","LA","70805","345 CHIPPEWA ST
BATON ROUGE, LA 70805
(30.471366, -91.185821)"
"471","Irene Road Facility","PUBLIC WORKS","DEPARTMENT OF ENVIRONMENTAL SERVICES","801 W IRENE RD","ZACHARY","LA","70791","801 W IRENE RD
ZACHARY, LA 70791
(30.609825, -91.242647)"
"78","North Landfill","PUBLIC WORKS","DEPARTMENT OF ENVIRONMENTAL SERVICES","16001 SAMUELS RD","ZACHARY","LA","70791","16001 SAMUELS RD
ZACHARY, LA 70791
(30.598421, -91.222493)"
"147","North Wastewater Treatment Facility","PUBLIC WORKS","DEPARTMENT OF ENVIRONMENTAL SERVICES","50 WOODPECKER ST","BATON ROUGE","LA","70807","50 WOODPECKER ST
BATON ROUGE, LA 70807
(30.534247, -91.201958)"
"67","South Wastewater Treatment Facility","PUBLIC WORKS","DEPARTMENT OF ENVIRONMENTAL SERVICES","2850 GARDERE LN","BATON ROUGE","LA","70820","2850 GARDERE LN
BATON ROUGE, LA 70820
(30.348629, -91.136117)"
"473","Wastewater Engineering and Technology","PUBLIC WORKS","DEPARTMENT OF ENVIRONMENTAL SERVICES","8080 PARIS AVE","BATON ROUGE","LA","70814","8080 PARIS AVE
BATON ROUGE, LA 70814"
"71","Central Garage","PUBLIC WORKS","DEPARTMENT OF FLEET MANAGEMENT","333 CHIPPEWA ST","BATON ROUGE","LA","70805","333 CHIPPEWA ST
BATON ROUGE, LA 70805
(30.470513, -91.187246)"
"363","Department of Maintenance","PUBLIC WORKS","DEPARTMENT OF MAINTENANCE","4445 PLANK RD","BATON ROUGE","LA","70805","4445 PLANK RD
BATON ROUGE, LA 70805
(30.490433, -91.156332)"
"76","East Maintenance Lot","PUBLIC WORKS","DEPARTMENT OF MAINTENANCE","1505 CENTRAL THWY","BATON ROUGE","LA","70819","1505 CENTRAL THWY
BATON ROUGE, LA 70819"
"77","North Maintenance Lot","PUBLIC WORKS","DEPARTMENT OF MAINTENANCE","3207 MAIN ST","BAKER","LA","70714","3207 MAIN ST
BAKER, LA 70714
(30.611756, -91.163372)"
"75","South Maintenance Lot","PUBLIC WORKS","DEPARTMENT OF MAINTENANCE","3055 VALLEY ST","BATON ROUGE","LA","70808","3055 VALLEY ST
BATON ROUGE, LA 70808
(30.421549, -91.147319)"
"472","Traffic Engineering Division","PUBLIC WORKS","DEPARTMENT OF TRANSPORTATION AND DRAINAGE","329 CHIPPEWA ST","BATON ROUGE","LA","70805","329 CHIPPEWA ST
BATON ROUGE, LA 70805
(30.470395, -91.187447)"
"453","Business Operations Warehouse","PUBLIC WORKS","OFFICE OF BUSINESS OPERATIONS","2931 VALLEY ST","BATON ROUGE","LA","70808","2931 VALLEY ST
BATON ROUGE, LA 70808
(30.421549, -91.147319)"
"456","Antioch Rd Park Senior Center","SENIOR CENTER","COUNCIL ON AGING","6229 ANTIOCH BLVD","BATON ROUGE","LA","70817","6229 ANTIOCH BLVD
BATON ROUGE, LA 70817
(30.39352, -91.002156)"
"224","Baker Senior Center","SENIOR CENTER","COUNCIL ON AGING","3334 JEFFERSON ST","BAKER","LA","70714","3334 JEFFERSON ST
BAKER, LA 70714
(30.59058, -91.164448)"
"457","Ben Burge Park Senior Center","SENIOR CENTER","COUNCIL ON AGING","9350 ANTIGUA DR","BATON ROUGE","LA","70810","9350 ANTIGUA DR
BATON ROUGE, LA 70810
(30.346769, -91.125847)"
"239","Bishop Ott Senior Center","SENIOR CENTER","COUNCIL ON AGING","7545 BISHOP OTT DR","BATON ROUGE","LA","70806","7545 BISHOP OTT DR
BATON ROUGE, LA 70806
(30.457751, -91.111205)"
"234","Catholic-Presbyterian Apts Senior Center","SENIOR CENTER","COUNCIL ON AGING","655 NORTH ST","BATON ROUGE","LA","70802","655 NORTH ST
BATON ROUGE, LA 70802
(30.45261, -91.184174)"
"225","Central Senior Center","SENIOR CENTER","COUNCIL ON AGING","6923 OAK CLUSTER DR","GREENWELL SPRINGS","LA","70739","6923 OAK CLUSTER DR
GREENWELL SPRINGS, LA 70739
(30.517574, -91.008376)"
"230","Chaneyville Senior Center","SENIOR CENTER","COUNCIL ON AGING","13211 JACKSON RD","ZACHARY","LA","70791","13211 JACKSON RD
ZACHARY, LA 70791
(30.685625, -91.023709)"
"235","Charles Kelly Senior Center","SENIOR CENTER","COUNCIL ON AGING","3535 RILEY ST","BATON ROUGE","LA","70805","3535 RILEY ST
BATON ROUGE, LA 70805
(30.498622, -91.155078)"
"226","Dumas House Senior Center","SENIOR CENTER","COUNCIL ON AGING","1313 N SHERWOOD FOREST DR","BATON ROUGE","LA","70815","1313 N SHERWOOD FOREST DR
BATON ROUGE, LA 70815
(30.461063, -91.058114)"
"458","Flonacher Rd Park Senior Center","SENIOR CENTER","COUNCIL ON AGING","864 FLONACHER RD","ZACHARY","LA","70791","864 FLONACHER RD
ZACHARY, LA 70791
(30.66636, -91.229842)"
"231","Florida Blvd Senior Center","SENIOR CENTER","COUNCIL ON AGING","5790 FLORIDA BLVD","BATON ROUGE","LA","70806","5790 FLORIDA BLVD
BATON ROUGE, LA 70806
(30.451052, -91.130123)"
"236","Foster Road Baptist Church Senior Center","SENIOR CENTER","COUNCIL ON AGING","11333 FOSTER RD","BATON ROUGE","LA","70811","11333 FOSTER RD
BATON ROUGE, LA 70811
(30.552548, -91.115464)"
"227","Greater King David Baptist Church Senior Center","SENIOR CENTER","COUNCIL ON AGING","131 ELMER AVE","BATON ROUGE","LA","70807","131 ELMER AVE
BATON ROUGE, LA 70807
(30.537863, -91.20068)"
"455","Highland Rd Park Senior Center","SENIOR CENTER","COUNCIL ON AGING","14024 HIGHLAND RD","BATON ROUGE","LA","70810","14024 HIGHLAND RD
BATON ROUGE, LA 70810
(30.347841, -91.075618)"
"237","Homewood Aquatic Center Senior Center","SENIOR CENTER","COUNCIL ON AGING","3653 GRANADA DR","BATON ROUGE","LA","70810","3653 GRANADA DR
BATON ROUGE, LA 70810
(30.394076, -91.104461)"
"459","Jewel J. Newman Senior Center","SENIOR CENTER","COUNCIL ON AGING","2013 CENTRAL RD","BATON ROUGE","LA","70807","2013 CENTRAL RD
BATON ROUGE, LA 70807
(30.535694, -91.173149)"
"229","Leo S. Butler Senior Center","SENIOR CENTER","COUNCIL ON AGING","950 E WASHINGTON ST","BATON ROUGE","LA","70802","950 E WASHINGTON ST
BATON ROUGE, LA 70802
(30.431143, -91.176091)"
"153","Lotus Center","SENIOR CENTER","COUNCIL ON AGING","1701 MAIN ST","BATON ROUGE","LA","70802","1701 MAIN ST
BATON ROUGE, LA 70802
(30.451918, -91.171697)"
"232","Pearl George Senior Center","SENIOR CENTER","COUNCIL ON AGING","4142 GUS YOUNG AVE","BATON ROUGE","LA","70802","4142 GUS YOUNG AVE
BATON ROUGE, LA 70802
(30.461962, -91.148878)"
"454","Perkins Rd Park Senior Center","SENIOR CENTER","COUNCIL ON AGING","7122 PERKINS RD","BATON ROUGE","LA","70808","7122 PERKINS RD
BATON ROUGE, LA 70808
(30.39795, -91.114153)"
"228","Sharlo Terrace Senior Center","SENIOR CENTER","COUNCIL ON AGING","4915 ALVIN DARK AVE","BATON ROUGE","LA","70820","4915 ALVIN DARK AVE
BATON ROUGE, LA 70820
(30.390201, -91.181573)"
"233","Turner Plaza Senior Center","SENIOR CENTER","COUNCIL ON AGING","4546 NORTH ST","BATON ROUGE","LA","70806","4546 NORTH ST
BATON ROUGE, LA 70806
(30.453828, -91.143298)"
"238","Zachary Senior Center","SENIOR CENTER","COUNCIL ON AGING","3541 HIGHWAY 19","ZACHARY","LA","70791","3541 HIGHWAY 19
ZACHARY, LA 70791
(30.640071, -91.154411)"
"140","Baton Rouge Metropolitan Airport","SPECIAL FACILITY","BATON ROUGE METROPOLITAN AIRPORT AUTHORITY","9430 JACKIE COCHRAN DR","BATON ROUGE","LA","70807","9430 JACKIE COCHRAN DR
BATON ROUGE, LA 70807
(30.53271, -91.156766)"
"470","Capital Area Transit System Transfer Terminal","SPECIAL FACILITY","CAPITAL AREA TRANSIT SYSTEM","2222 FLORIDA ST","BATON ROUGE","LA","70802","2222 FLORIDA ST
BATON ROUGE, LA 70802
(30.450016, -91.164705)"
"477","Baker Heritage Museum","SPECIAL FACILITY","CITY OF BAKER","1606 MAIN ST","BAKER","LA","70714","1606 MAIN ST
BAKER, LA 70714
(30.591755, -91.16745)"
"222","Zachary Youth Park","SPECIAL FACILITY","CITY OF ZACHARY","1650 MOUNT PLEASANT-ZACHARY RD","ZACHARY","LA","70791","1650 MOUNT PLEASANT-ZACHARY RD
ZACHARY, LA 70791"
"294","Capitol Park Welcome Center","SPECIAL FACILITY","STATE OF LOUISIANA","702 N RIVER RD","BATON ROUGE","LA","70802","702 N RIVER RD
BATON ROUGE, LA 70802
(30.45339, -91.190295)"
"305","Governor's Mansion","SPECIAL FACILITY","STATE OF LOUISIANA","1001 CAPITOL ACCESS RD","BATON ROUGE","LA","70802","1001 CAPITOL ACCESS RD
BATON ROUGE, LA 70802
(30.458195, -91.178931)"
"218","Louisiana Arts and Sciences Museum","SPECIAL FACILITY","STATE OF LOUISIANA","100 S RIVER RD, STE A","BATON ROUGE","LA","70802","100 S RIVER RD, STE A
BATON ROUGE, LA 70802
(30.445729, -91.1901)"
"309","Louisiana State Archives","SPECIAL FACILITY","STATE OF LOUISIANA","3851 ESSEN LN","BATON ROUGE","LA","70809","3851 ESSEN LN
BATON ROUGE, LA 70809
(30.415055, -91.098554)"
"292","Louisiana State Capitol","SPECIAL FACILITY","STATE OF LOUISIANA","900 N 3RD ST","BATON ROUGE","LA","70802","900 N 3RD ST
BATON ROUGE, LA 70802
(30.454793, -91.188495)"
"291","Louisiana State Capitol Annex","SPECIAL FACILITY","STATE OF LOUISIANA","1051 N 3RD ST","BATON ROUGE","LA","70802","1051 N 3RD ST
BATON ROUGE, LA 70802
(30.457709, -91.188566)"
"296","Louisiana State Museum","SPECIAL FACILITY","STATE OF LOUISIANA","660 N 4TH ST","BATON ROUGE","LA","70802","660 N 4TH ST
BATON ROUGE, LA 70802
(30.453909, -91.187223)"
"220","LSU Rural Life Museum","SPECIAL FACILITY","STATE OF LOUISIANA","4560 ESSEN LN","BATON ROUGE","LA","70809","4560 ESSEN LN
BATON ROUGE, LA 70809
(30.406313, -91.102647)"
"87","Old Arsenal Museum","SPECIAL FACILITY","STATE OF LOUISIANA","900 CAPITOL LAKE DR","BATON ROUGE","LA","70802","900 CAPITOL LAKE DR
BATON ROUGE, LA 70802"
"331","Old Governor's Mansion","SPECIAL FACILITY","STATE OF LOUISIANA","502 NORTH BLVD","BATON ROUGE","LA","70802","502 NORTH BLVD
BATON ROUGE, LA 70802
(30.447004, -91.185148)"
"330","Old State Capitol","SPECIAL FACILITY","STATE OF LOUISIANA","100 NORTH BLVD","BATON ROUGE","LA","70802","100 NORTH BLVD
BATON ROUGE, LA 70802
(30.447112, -91.189056)"
"293","Pentagon Barracks","SPECIAL FACILITY","STATE OF LOUISIANA","959 N 3RD ST","BATON ROUGE","LA","70802","959 N 3RD ST
BATON ROUGE, LA 70802
(30.455828, -91.18853)"
"210","Shaw Center","SPECIAL FACILITY","STATE OF LOUISIANA","100 LAFAYETTE ST","BATON ROUGE","LA","70801","100 LAFAYETTE ST
BATON ROUGE, LA 70801
(30.448081, -91.18939)"
"219","USS Kidd","SPECIAL FACILITY","STATE OF LOUISIANA","305 S RIVER RD","BATON ROUGE","LA","70802","305 S RIVER RD
BATON ROUGE, LA 70802
(30.443438, -91.190098)"
"126","Raising Cane's River Center","SPECIAL FACILITY",,"275 S RIVER RD","BATON ROUGE","LA","70802","275 S RIVER RD
BATON ROUGE, LA 70802
(30.444661, -91.19004)"
"95","River Center Performing Arts Theater","SPECIAL FACILITY",,"240 SAINT LOUIS ST","BATON ROUGE","LA","70802","240 SAINT LOUIS ST
BATON ROUGE, LA 70802
(30.445047, -91.187554)"
"468","19th Judicial District Court Branch Office","STATE OFFICES","STATE OF LOUISIANA","9050 AIRLINE HWY, STE 100","BATON ROUGE","LA","70815","9050 AIRLINE HWY, STE 100
BATON ROUGE, LA 70815
(30.44508, -91.090375)"
"299","Bienville Building","STATE OFFICES","STATE OF LOUISIANA","628 N 4TH ST","BATON ROUGE","LA","70802","628 N 4TH ST
BATON ROUGE, LA 70802
(30.452886, -91.187213)"
"487","Capitol Complex Central Plant North","STATE OFFICES","STATE OF LOUISIANA","1835 N 3RD ST","BATON ROUGE","LA","70802","1835 N 3RD ST
BATON ROUGE, LA 70802
(30.462223, -91.187981)"
"486","Capitol Complex Central Plant South","STATE OFFICES","STATE OF LOUISIANA","602 N RIVER RD","BATON ROUGE","LA","70802","602 N RIVER RD
BATON ROUGE, LA 70802
(30.452449, -91.190426)"
"301","Claiborne Building","STATE OFFICES","STATE OF LOUISIANA","1201 N 3RD ST","BATON ROUGE","LA","70802","1201 N 3RD ST
BATON ROUGE, LA 70802
(30.460072, -91.187884)"
"422","DCFS Child Welfare","STATE OFFICES","STATE OF LOUISIANA","160 S ARDENWOOD DR","BATON ROUGE","LA","70806","160 S ARDENWOOD DR
BATON ROUGE, LA 70806
(30.449647, -91.127382)"
"490","DCFS Office of Economic Stability","STATE OFFICES","STATE OF LOUISIANA","1919 NORTH BLVD","BATON ROUGE","LA","70806","1919 NORTH BLVD
BATON ROUGE, LA 70806
(30.44779, -91.168974)"
"307","Department of Agriculture and Forestry","STATE OFFICES","STATE OF LOUISIANA","5825 FLORIDA BLVD","BATON ROUGE","LA","70806","5825 FLORIDA BLVD
BATON ROUGE, LA 70806
(30.451214, -91.129361)"
"327","Department of Corrections","STATE OFFICES","STATE OF LOUISIANA","504 MAYFLOWER ST","BATON ROUGE","LA","70802","504 MAYFLOWER ST
BATON ROUGE, LA 70802
(30.440826, -91.184849)"
"306","Department of Transportation and Development","STATE OFFICES","STATE OF LOUISIANA","1201 CAPITOL ACCESS RD","BATON ROUGE","LA","70802","1201 CAPITOL ACCESS RD
BATON ROUGE, LA 70802
(30.458254, -91.177612)"
"212","Department of Wildlife and Fisheries","STATE OFFICES","STATE OF LOUISIANA","2000 QUAIL DR","BATON ROUGE","LA","70808","2000 QUAIL DR
BATON ROUGE, LA 70808
(30.399639, -91.129705)"
"394","DEQ Lab","STATE OFFICES","STATE OF LOUISIANA","1209 E HIGHWAY DR","BATON ROUGE","LA","70802","1209 E HIGHWAY DR
BATON ROUGE, LA 70802
(30.45986, -91.176892)"
"423","DHH EBR Medicaid Office","STATE OFFICES","STATE OF LOUISIANA","2521 WOODDALE BLVD","BATON ROUGE","LA","70805","2521 WOODDALE BLVD
BATON ROUGE, LA 70805
(30.473003, -91.116141)"
"426","DHH Office of Public Health","STATE OFFICES","STATE OF LOUISIANA","8453 VETERANS MEMORIAL BLVD","BATON ROUGE","LA","70807","8453 VETERANS MEMORIAL BLVD
BATON ROUGE, LA 70807
(30.527061, -91.16118)"
"393","DOTD Permit and Weight Enforcement","STATE OFFICES","STATE OF LOUISIANA","1404 E HIGHWAY DR","BATON ROUGE","LA","70802","1404 E HIGHWAY DR
BATON ROUGE, LA 70802
(30.46104, -91.176956)"
"450","DPS&C Probation and Parole District Office","STATE OFFICES","STATE OF LOUISIANA","2751 WOODDALE BLVD","BATON ROUGE","LA","70805","2751 WOODDALE BLVD
BATON ROUGE, LA 70805
(30.473939, -91.116173)"
"411","DPS Data Processing Center","STATE OFFICES","STATE OF LOUISIANA","8001 INDEPENDENCE BLVD","BATON ROUGE","LA","70806","8001 INDEPENDENCE BLVD
BATON ROUGE, LA 70806
(30.445644, -91.103452)"
"512","DPS Support, Warehouse, Supply","STATE OFFICES","STATE OF LOUISIANA","290 E AIRPORT AVE","BATON ROUGE","LA","70806","290 E AIRPORT AVE
BATON ROUGE, LA 70806
(30.44943, -91.102319)"
"300","Galvez Building","STATE OFFICES","STATE OF LOUISIANA","602 N 5TH ST","BATON ROUGE","LA","70802","602 N 5TH ST
BATON ROUGE, LA 70802
(30.45259, -91.185784)"
"298","Iberville Building","STATE OFFICES","STATE OF LOUISIANA","627 N 4TH ST","BATON ROUGE","LA","70802","627 N 4TH ST
BATON ROUGE, LA 70802
(30.452791, -91.187209)"
"211","Joint Emergency Services Training Center","STATE OFFICES","STATE OF LOUISIANA","1400 W IRENE RD","ZACHARY","LA","70791","1400 W IRENE RD
ZACHARY, LA 70791
(30.598678, -91.261176)"
"448","LA Clerk of Courts Retirement System","STATE OFFICES","STATE OF LOUISIANA","10202 JEFFERSON HWY","BATON ROUGE","LA","70809","10202 JEFFERSON HWY
BATON ROUGE, LA 70809
(30.409483, -91.070255)"
"451","LADOTD Bridge Maintenance Unit","STATE OFFICES","STATE OF LOUISIANA","1375 N 17TH ST","BATON ROUGE","LA","70802","1375 N 17TH ST
BATON ROUGE, LA 70802
(30.460958, -91.172826)"
"328","LADOTD District 61","STATE OFFICES","STATE OF LOUISIANA","8100 AIRLINE HWY","BATON ROUGE","LA","70806","8100 AIRLINE HWY
BATON ROUGE, LA 70806
(30.464452, -91.104197)"
"395","LADOTD Environmental Section","STATE OFFICES","STATE OF LOUISIANA","5040 FLORIDA BLVD","BATON ROUGE","LA","70806","5040 FLORIDA BLVD
BATON ROUGE, LA 70806
(30.450799, -91.13753)"
"516","LADOTD Materials and Testing Lab","STATE OFFICES","STATE OF LOUISIANA","5080 FLORIDA BLVD","BATON ROUGE","LA","70806","5080 FLORIDA BLVD
BATON ROUGE, LA 70806
(30.450809, -91.13728)"
"418","LA Federal Property Assistance Agency","STATE OFFICES","STATE OF LOUISIANA","1635 FOSS ST","BATON ROUGE","LA","70802","1635 FOSS ST
BATON ROUGE, LA 70802
(30.45979, -91.172351)"
"427","LA Lottery Corporation","STATE OFFICES","STATE OF LOUISIANA","555 LAUREL ST","BATON ROUGE","LA","70801","555 LAUREL ST
BATON ROUGE, LA 70801
(30.450472, -91.184957)"
"397","LA Office of Information Technology","STATE OFFICES","STATE OF LOUISIANA","1800 N 3RD ST","BATON ROUGE","LA","70802","1800 N 3RD ST
BATON ROUGE, LA 70802
(30.462793, -91.188057)"
"213","LA Office of Motor Vehicles - EBR Office","STATE OFFICES","STATE OF LOUISIANA","7701 INDEPENDENCE BLVD","BAKER","LA","70714","7701 INDEPENDENCE BLVD
BAKER, LA 70714"
"396","LA Office of State Buildings","STATE OFFICES","STATE OF LOUISIANA","1928 N 3RD ST","BATON ROUGE","LA","70802","1928 N 3RD ST
BATON ROUGE, LA 70802
(30.464068, -91.188212)"
"419","LA Property Assistance Agency","STATE OFFICES","STATE OF LOUISIANA","1059 BRICKYARD LN","BATON ROUGE","LA","70802","1059 BRICKYARD LN
BATON ROUGE, LA 70802
(30.438819, -91.188749)"
"425","LA Public Broadcasting","STATE OFFICES","STATE OF LOUISIANA","7733 PERKINS RD","BATON ROUGE","LA","70810","7733 PERKINS RD
BATON ROUGE, LA 70810
(30.39279, -91.107434)"
"297","LaSalle Building","STATE OFFICES","STATE OF LOUISIANA","617 N 3RD ST","BATON ROUGE","LA","70802","617 N 3RD ST
BATON ROUGE, LA 70802
(30.452912, -91.188413)"
"446","LA School Employees Retirement System","STATE OFFICES","STATE OF LOUISIANA","8660 UNITED PLAZA BLVD","BATON ROUGE","LA","70809","8660 UNITED PLAZA BLVD
BATON ROUGE, LA 70809
(30.408542, -91.09775)"
"445","LA State Employees Retirement System","STATE OFFICES","STATE OF LOUISIANA","8401 UNITED PLAZA BLVD","BATON ROUGE","LA","70809","8401 UNITED PLAZA BLVD
BATON ROUGE, LA 70809
(30.412567, -91.097997)"
"447","LA State Police Retirement System","STATE OFFICES","STATE OF LOUISIANA","9224 JEFFERSON HWY","BATON ROUGE","LA","70809","9224 JEFFERSON HWY
BATON ROUGE, LA 70809
(30.413033, -91.082056)"
"417","LA State Property Control","STATE OFFICES","STATE OF LOUISIANA","1502 N 17TH ST","BATON ROUGE","LA","70802","1502 N 17TH ST
BATON ROUGE, LA 70802
(30.461916, -91.172237)"
"441","LA State Troopers Association","STATE OFFICES","STATE OF LOUISIANA","8120 JEFFERSON HWY","BATON ROUGE","LA","70809","8120 JEFFERSON HWY
BATON ROUGE, LA 70809
(30.423401, -91.103508)"
"304","Livingston Building","STATE OFFICES","STATE OF LOUISIANA","1885 N 3RD ST","BATON ROUGE","LA","70802","1885 N 3RD ST
BATON ROUGE, LA 70802
(30.463785, -91.188194)"
"410","Louisiana Housing Corporation","STATE OFFICES","STATE OF LOUISIANA","2415 QUAIL DR","BATON ROUGE","LA","70808","2415 QUAIL DR
BATON ROUGE, LA 70808
(30.403108, -91.126052)"
"308","Louisiana Workforce Commission","STATE OFFICES","STATE OF LOUISIANA","1001 N 23RD ST","BATON ROUGE","LA","70802","1001 N 23RD ST
BATON ROUGE, LA 70802
(30.458309, -91.164912)"
"329","LWC Business And Career Solutions Center","STATE OFFICES","STATE OF LOUISIANA","1991 WOODDALE BLVD","BATON ROUGE","LA","70806","1991 WOODDALE BLVD
BATON ROUGE, LA 70806
(30.467003, -91.114512)"
"415","LWC Workforce Development Center","STATE OFFICES","STATE OF LOUISIANA","950 N 22ND ST","BATON ROUGE","LA","70802","950 N 22ND ST
BATON ROUGE, LA 70802
(30.45693, -91.166146)"
"442","Municipal Employees Retirement System of La.","STATE OFFICES","STATE OF LOUISIANA","7937 OFFICE PARK BLVD","BATON ROUGE","LA","70809","7937 OFFICE PARK BLVD
BATON ROUGE, LA 70809
(30.420869, -91.102182)"
"443","Municipal Police Employees Retirement System","STATE OFFICES","STATE OF LOUISIANA","7722 OFFICE PARK BLVD","BATON ROUGE","LA","70809","7722 OFFICE PARK BLVD
BATON ROUGE, LA 70809
(30.418757, -91.10344)"
"303","Poydras Building","STATE OFFICES","STATE OF LOUISIANA","1702 N 3RD ST","BATON ROUGE","LA","70802","1702 N 3RD ST
BATON ROUGE, LA 70802
(30.461364, -91.187602)"
"444","Public Safety Retirement Systems","STATE OFFICES","STATE OF LOUISIANA","3100 BRENTWOOD DR","BATON ROUGE","LA","70809","3100 BRENTWOOD DR
BATON ROUGE, LA 70809
(30.422251, -91.097929)"
"424","Secretary of State","STATE OFFICES","STATE OF LOUISIANA","8585 ARCHIVES AVE","BATON ROUGE","LA","70809","8585 ARCHIVES AVE
BATON ROUGE, LA 70809
(30.413402, -91.095618)"
"464","Baton Rouge Community College","UNIVERSITY","STATE OF LOUISIANA","201 COMMUNITY COLLEGE DR","BATON ROUGE","LA","70806","201 COMMUNITY COLLEGE DR
BATON ROUGE, LA 70806
(30.448719, -91.135948)"
"466","Baton Rouge Community College - Acadian Campus","UNIVERSITY","STATE OF LOUISIANA","3250 N ACADIAN THWY","BATON ROUGE","LA","70805","3250 N ACADIAN THWY
BATON ROUGE, LA 70805
(30.47612, -91.156067)"
"465","Baton Rouge Community College - Frazier Campus","UNIVERSITY","STATE OF LOUISIANA","555 JULIA ST","BATON ROUGE","LA","70802","555 JULIA ST
BATON ROUGE, LA 70802
(30.437126, -91.18554)"
"515","Center for Advanced Microstructures and Devices","UNIVERSITY","STATE OF LOUISIANA","6980 JEFFERSON HWY","BATON ROUGE","LA","70809","6980 JEFFERSON HWY
BATON ROUGE, LA 70809
(30.433923, -91.11831)"
"517","LA Community & Technical College System","UNIVERSITY","STATE OF LOUISIANA","265 S FOSTER DR","BATON ROUGE","LA","70806","265 S FOSTER DR
BATON ROUGE, LA 70806
(30.447838, -91.138871)"
"462","Louisiana State University","UNIVERSITY","STATE OF LOUISIANA","3810 W LAKESHORE DR","BATON ROUGE","LA","70808","3810 W LAKESHORE DR
BATON ROUGE, LA 70808
(30.414833, -91.168779)"
"398","LSU Aquaculture Research Station","UNIVERSITY","STATE OF LOUISIANA","709 TECHNOLOGY WAY","BATON ROUGE","LA","70820","709 TECHNOLOGY WAY
BATON ROUGE, LA 70820"
"491","LSU Burden Research Center","UNIVERSITY","STATE OF LOUISIANA","276 CONFERENCE CENTER LN","BATON ROUGE","LA","70809","276 CONFERENCE CENTER LN
BATON ROUGE, LA 70809"
"488","LSU Central Agriculture Research Station","UNIVERSITY","STATE OF LOUISIANA","2310 BEN HUR RD","BATON ROUGE","LA","70820","2310 BEN HUR RD
BATON ROUGE, LA 70820
(30.368335, -91.170148)"
"409","LSU South Campus","UNIVERSITY","STATE OF LOUISIANA","8000 INNOVATION PARK DR","BATON ROUGE","LA","70820","8000 INNOVATION PARK DR
BATON ROUGE, LA 70820
(30.36327, -91.144098)"
"494","Pennington Biomedical Research Center","UNIVERSITY","STATE OF LOUISIANA","6400 PERKINS RD","BATON ROUGE","LA","70808","6400 PERKINS RD
BATON ROUGE, LA 70808
(30.404676, -91.122639)"
"467","Southeastern La. Univ. School Of Nursing","UNIVERSITY","STATE OF LOUISIANA","7900 MARGARET ANN AVE","BATON ROUGE","LA","70809","7900 MARGARET ANN AVE
BATON ROUGE, LA 70809
(30.403322, -91.102902)"
"463","Southern University","UNIVERSITY","STATE OF LOUISIANA","803 HARDING BLVD","BATON ROUGE","LA","70813","803 HARDING BLVD
BATON ROUGE, LA 70813
(30.520387, -91.186499)"
"399","Southern Univ. Research Farm & Livestock Arena","UNIVERSITY","STATE OF LOUISIANA","14600 SCENIC HWY","BATON ROUGE","LA","70807","14600 SCENIC HWY
BATON ROUGE, LA 70807
(30.58064, -91.212007)"
