"address_no_complete","st_prefix_dir","st_prefix_type","st_name","st_suffix_type","st_suffix_dir","st_ext","full_address","city","zip","district_num","council_person","lot_location"
"500","N",,"10TH","ST",,,"500 N 10TH ST","BATON ROUGE","70802","10","Carolyn Coleman","BATON ROUGE"
"615","S",,"10TH","ST",,,"615 S 10TH ST","BATON ROUGE","70802","10","Carolyn Coleman","BATON ROUGE"
"639","S",,"10TH","ST",,,"639 S 10TH ST","BATON ROUGE","70802","10","Carolyn Coleman","BATON ROUGE"
"613","S",,"10TH","ST",,,"613 S 10TH ST","BATON ROUGE","70802","10","Carolyn Coleman","BATON ROUGE"
"348","S",,"10TH","ST",,,"348 S 10TH ST","BATON ROUGE","70802","10","Carolyn Coleman","BATON ROUGE"
"600","S",,"10TH","ST",,,"600 S 10TH ST","BATON ROUGE","70802","10","Carolyn Coleman","BATON ROUGE"
"1219","S",,"10TH","ST",,,"1219 S 10TH ST","BATON ROUGE","70802","10","Carolyn Coleman","BATON ROUGE"
"822","S",,"10TH","ST",,,"822 S 10TH ST","BATON ROUGE","70802","10","Carolyn Coleman","BATON ROUGE"
"404","N",,"10TH","ST",,,"404 N 10TH ST","BATON ROUGE","70802","10","Carolyn Coleman","BATON ROUGE"
"1200-1300","S",,"10TH","ST",,,"1200-1300 S 10TH ST","BATON ROUGE","70802","10","Carolyn Coleman","BATON ROUGE"
"1200-1300","S",,"10TH","ST",,,"1200-1300 S 10TH ST","BATON ROUGE","70802","10","Carolyn Coleman","BATON ROUGE"
"1200-1300","S",,"10TH","ST",,,"1200-1300 S 10TH ST","BATON ROUGE","70802","10","Carolyn Coleman","BATON ROUGE"
"840","N",,"10TH","ST",,,"840 N 10TH ST","BATON ROUGE","70802","10","Carolyn Coleman","BATON ROUGE"
"300","N",,"10TH","ST",,,"300 N 10TH ST","BATON ROUGE","70802","10","Carolyn Coleman","BATON ROUGE"
"1230","S",,"10TH","ST",,,"1230 S 10TH ST","BATON ROUGE","70802","10","Carolyn Coleman","BATON ROUGE"
"830","N",,"10TH","ST",,,"830 N 10TH ST","BATON ROUGE","70802","10","Carolyn Coleman","BATON ROUGE"
"107","S",,"10TH","ST",,,"107 S 10TH ST","BATON ROUGE","70802","10","Carolyn Coleman","BATON ROUGE"
"177","S",,"10TH","ST",,,"177 S 10TH ST","BATON ROUGE","70802","10","Carolyn Coleman","BATON ROUGE"
"BILLBD 510","N",,"10TH","ST",,,"BILLBD 510 N 10TH ST","BATON ROUGE","70802","10","Carolyn Coleman","BATON ROUGE"
"1215","S",,"10TH","ST",,,"1215 S 10TH ST","BATON ROUGE","70802","10","Carolyn Coleman","BATON ROUGE"
"700","N",,"10TH","ST",,,"700 N 10TH ST","BATON ROUGE","70802","10","Carolyn Coleman","BATON ROUGE"
"1234","S",,"10TH","ST",,,"1234 S 10TH ST","BATON ROUGE","70802","10","Carolyn Coleman","BATON ROUGE"
"BILLBD 140","N",,"10TH","ST",,,"BILLBD 140 N 10TH ST","BATON ROUGE","70802","10","Carolyn Coleman","BATON ROUGE"
"T 140","N",,"10TH","ST",,,"T 140 N 10TH ST","BATON ROUGE","70802","10","Carolyn Coleman","BATON ROUGE"
"T 634","N",,"10TH","ST",,,"T 634 N 10TH ST","BATON ROUGE","70802","10","Carolyn Coleman","BATON ROUGE"
"1239","S",,"10TH","ST",,,"1239 S 10TH ST","BATON ROUGE","70802","10","Carolyn Coleman","BATON ROUGE"
"1237","S",,"10TH","ST",,,"1237 S 10TH ST","BATON ROUGE","70802","10","Carolyn Coleman","BATON ROUGE"
"622","S",,"10TH","ST",,,"622 S 10TH ST","BATON ROUGE","70802","10","Carolyn Coleman","BATON ROUGE"
"621","S",,"10TH","ST",,,"621 S 10TH ST","BATON ROUGE","70802","10","Carolyn Coleman","BATON ROUGE"
"610","S",,"10TH","ST",,,"610 S 10TH ST","BATON ROUGE","70802","10","Carolyn Coleman","BATON ROUGE"
"133","S",,"10TH","ST",,,"133 S 10TH ST","BATON ROUGE","70802","10","Carolyn Coleman","BATON ROUGE"
"1100-1200","S",,"10TH","ST",,,"1100-1200 S 10TH ST","BATON ROUGE","70802","10","Carolyn Coleman","BATON ROUGE"
"604","S",,"10TH","ST",,,"604 S 10TH ST","BATON ROUGE","70802","10","Carolyn Coleman","BATON ROUGE"
"T 620","N",,"10TH","ST",,,"T 620 N 10TH ST","BATON ROUGE","70802","10","Carolyn Coleman","BATON ROUGE"
"630","S",,"10TH","ST",,,"630 S 10TH ST","BATON ROUGE","70802","10","Carolyn Coleman","BATON ROUGE"
"T 141","S",,"10TH","ST",,,"T 141 S 10TH ST","BATON ROUGE","70802","10","Carolyn Coleman","BATON ROUGE"
"1232","S",,"10TH","ST",,,"1232 S 10TH ST","BATON ROUGE","70802","10","Carolyn Coleman","BATON ROUGE"
"1150","S",,"10TH","ST",,,"1150 S 10TH ST","BATON ROUGE","70802","10","Carolyn Coleman","BATON ROUGE"
"BILLBD 551","S",,"10TH","ST",,,"BILLBD 551 S 10TH ST","BATON ROUGE","70802","10","Carolyn Coleman","BATON ROUGE"
"1226","S",,"10TH","ST",,,"1226 S 10TH ST","BATON ROUGE","70802","10","Carolyn Coleman","BATON ROUGE"
"600-800","N",,"10TH","ST",,,"600-800 N 10TH ST","BATON ROUGE","70802","10","Carolyn Coleman","BATON ROUGE"
"600-800","N",,"10TH","ST",,,"600-800 N 10TH ST","BATON ROUGE","70802","10","Carolyn Coleman","BATON ROUGE"
"600-800","N",,"10TH","ST",,,"600-800 N 10TH ST","BATON ROUGE","70802","10","Carolyn Coleman","BATON ROUGE"
"121","S",,"10TH","ST",,,"121 S 10TH ST","BATON ROUGE","70802","10","Carolyn Coleman","BATON ROUGE"
"T 645","S",,"10TH","ST",,,"T 645 S 10TH ST","BATON ROUGE","70802","10","Carolyn Coleman","BATON ROUGE"
"338","S",,"10TH","ST",,,"338 S 10TH ST","BATON ROUGE","70802","10","Carolyn Coleman","BATON ROUGE"
"T 159","S",,"10TH","ST",,,"T 159 S 10TH ST","BATON ROUGE","70802","10","Carolyn Coleman","BATON ROUGE"
"625","S",,"10TH","ST",,,"625 S 10TH ST","BATON ROUGE","70802","10","Carolyn Coleman","BATON ROUGE"
"1228","S",,"10TH","ST",,,"1228 S 10TH ST","BATON ROUGE","70802","10","Carolyn Coleman","BATON ROUGE"
"618","S",,"10TH","ST",,,"618 S 10TH ST","BATON ROUGE","70802","10","Carolyn Coleman","BATON ROUGE"
"111","S",,"10TH","ST",,,"111 S 10TH ST","BATON ROUGE","70802","10","Carolyn Coleman","BATON ROUGE"
"731","S",,"10TH","ST",,,"731 S 10TH ST","BATON ROUGE","70802","10","Carolyn Coleman","BATON ROUGE"
"408","N",,"10TH","ST",,,"408 N 10TH ST","BATON ROUGE","70802","10","Carolyn Coleman","BATON ROUGE"
"659","N",,"11TH","ST",,,"659 N 11TH ST","BATON ROUGE","70802","10","Carolyn Coleman","BATON ROUGE"
"161","S",,"11TH","ST",,,"161 S 11TH ST","BATON ROUGE","70802","10","Carolyn Coleman","BATON ROUGE"
"715","N",,"11TH","ST",,,"715 N 11TH ST","BATON ROUGE","70802","10","Carolyn Coleman","BATON ROUGE"
"225","S",,"11TH","ST",,,"225 S 11TH ST","BATON ROUGE","70802","10","Carolyn Coleman","BATON ROUGE"
"336","S",,"11TH","ST",,,"336 S 11TH ST","BATON ROUGE","70802","10","Carolyn Coleman","BATON ROUGE"
"827","N",,"11TH","ST",,,"827 N 11TH ST","BATON ROUGE","70802","10","Carolyn Coleman","BATON ROUGE"
"819","N",,"11TH","ST",,,"819 N 11TH ST","BATON ROUGE","70802","10","Carolyn Coleman","BATON ROUGE"
"729","N",,"11TH","ST",,,"729 N 11TH ST","BATON ROUGE","70802","10","Carolyn Coleman","BATON ROUGE"
"460","N",,"11TH","ST",,,"460 N 11TH ST","BATON ROUGE","70802","10","Carolyn Coleman","BATON ROUGE"
"927","S",,"11TH","ST",,,"927 S 11TH ST","BATON ROUGE","70802","10","Carolyn Coleman","BATON ROUGE"
"347","S",,"11TH","ST",,,"347 S 11TH ST","BATON ROUGE","70802","10","Carolyn Coleman","BATON ROUGE"
"224","N",,"11TH","ST",,,"224 N 11TH ST","BATON ROUGE","70802","10","Carolyn Coleman","BATON ROUGE"
"BILLBD 935","S",,"11TH","ST",,,"BILLBD 935 S 11TH ST","BATON ROUGE","70802","10","Carolyn Coleman","BATON ROUGE"
"236","S",,"11TH","ST",,,"236 S 11TH ST","BATON ROUGE","70802","10","Carolyn Coleman","BATON ROUGE"
"220","S",,"11TH","ST",,,"220 S 11TH ST","BATON ROUGE","70802","10","Carolyn Coleman","BATON ROUGE"
"302","S",,"11TH","ST",,,"302 S 11TH ST","BATON ROUGE","70802","10","Carolyn Coleman","BATON ROUGE"
"137","S",,"11TH","ST",,,"137 S 11TH ST","BATON ROUGE","70802","10","Carolyn Coleman","BATON ROUGE"
"128","S",,"11TH","ST",,,"128 S 11TH ST","BATON ROUGE","70802","10","Carolyn Coleman","BATON ROUGE"
"335","S",,"11TH","ST",,,"335 S 11TH ST","BATON ROUGE","70802","10","Carolyn Coleman","BATON ROUGE"
"719","N",,"11TH","ST",,,"719 N 11TH ST","BATON ROUGE","70802","10","Carolyn Coleman","BATON ROUGE"
"627","N",,"11TH","ST",,,"627 N 11TH ST","BATON ROUGE","70802","10","Carolyn Coleman","BATON ROUGE"
"307","S",,"11TH","ST",,,"307 S 11TH ST","BATON ROUGE","70802","10","Carolyn Coleman","BATON ROUGE"
"709","N",,"11TH","ST",,,"709 N 11TH ST","BATON ROUGE","70802","10","Carolyn Coleman","BATON ROUGE"
"326","S",,"11TH","ST",,,"326 S 11TH ST","BATON ROUGE","70802","10","Carolyn Coleman","BATON ROUGE"
"308","S",,"11TH","ST",,,"308 S 11TH ST","BATON ROUGE","70802","10","Carolyn Coleman","BATON ROUGE"
"149","S",,"11TH","ST",,,"149 S 11TH ST","BATON ROUGE","70802","10","Carolyn Coleman","BATON ROUGE"
"BILLBD 336","S",,"11TH","ST",,,"BILLBD 336 S 11TH ST","BATON ROUGE","70802","10","Carolyn Coleman","BATON ROUGE"
"130","S",,"11TH","ST",,,"130 S 11TH ST","BATON ROUGE","70802","10","Carolyn Coleman","BATON ROUGE"
"301","S",,"11TH","ST",,,"301 S 11TH ST","BATON ROUGE","70802","10","Carolyn Coleman","BATON ROUGE"
"158","S",,"11TH","ST",,,"158 S 11TH ST","BATON ROUGE","70802","10","Carolyn Coleman","BATON ROUGE"
"138","N",,"11TH","ST",,,"138 N 11TH ST","BATON ROUGE","70802","10","Carolyn Coleman","BATON ROUGE"
"385","S",,"11TH","ST",,,"385 S 11TH ST","BATON ROUGE","70802","10","Carolyn Coleman","BATON ROUGE"
"629","N",,"11TH","ST",,,"629 N 11TH ST","BATON ROUGE","70802","10","Carolyn Coleman","BATON ROUGE"
"744","N",,"11TH","ST",,,"744 N 11TH ST","BATON ROUGE","70802","10","Carolyn Coleman","BATON ROUGE"
"727","N",,"11TH","ST",,,"727 N 11TH ST","BATON ROUGE","70802","10","Carolyn Coleman","BATON ROUGE"
"338","S",,"11TH","ST",,,"338 S 11TH ST","BATON ROUGE","70802","10","Carolyn Coleman","BATON ROUGE"
"665","N",,"11TH","ST",,,"665 N 11TH ST","BATON ROUGE","70802","10","Carolyn Coleman","BATON ROUGE"
"221","S",,"11TH","ST",,,"221 S 11TH ST","BATON ROUGE","70802","10","Carolyn Coleman","BATON ROUGE"
"448","N",,"11TH","ST",,,"448 N 11TH ST","BATON ROUGE","70802","10","Carolyn Coleman","BATON ROUGE"
"621","N",,"11TH","ST",,,"621 N 11TH ST","BATON ROUGE","70802","10","Carolyn Coleman","BATON ROUGE"
"917","S",,"11TH","ST",,,"917 S 11TH ST","BATON ROUGE","70802","10","Carolyn Coleman","BATON ROUGE"
"635","N",,"11TH","ST",,,"635 N 11TH ST","BATON ROUGE","70802","10","Carolyn Coleman","BATON ROUGE"
"363","S",,"11TH","ST",,,"363 S 11TH ST","BATON ROUGE","70802","10","Carolyn Coleman","BATON ROUGE"
"219","S",,"11TH","ST",,,"219 S 11TH ST","BATON ROUGE","70802","10","Carolyn Coleman","BATON ROUGE"
"T 624","N",,"11TH","ST",,,"T 624 N 11TH ST","BATON ROUGE","70802","10","Carolyn Coleman","BATON ROUGE"
"144","N",,"11TH","ST",,,"144 N 11TH ST","BATON ROUGE","70802","10","Carolyn Coleman","BATON ROUGE"
"449","N",,"11TH","ST",,,"449 N 11TH ST","BATON ROUGE","70802","10","Carolyn Coleman","BATON ROUGE"
"439","N",,"11TH","ST",,,"439 N 11TH ST","BATON ROUGE","70802","10","Carolyn Coleman","BATON ROUGE"
"124","N",,"11TH","ST",,,"124 N 11TH ST","BATON ROUGE","70802","10","Carolyn Coleman","BATON ROUGE"
"645","N",,"11TH","ST",,,"645 N 11TH ST","BATON ROUGE","70802","10","Carolyn Coleman","BATON ROUGE"
"125","S",,"11TH","ST",,,"125 S 11TH ST","BATON ROUGE","70802","10","Carolyn Coleman","BATON ROUGE"
"514","N",,"11TH","ST",,,"514 N 11TH ST","BATON ROUGE","70802","10","Carolyn Coleman","BATON ROUGE"
"226","S",,"11TH","ST",,,"226 S 11TH ST","BATON ROUGE","70802","10","Carolyn Coleman","BATON ROUGE"
"923","S",,"11TH","ST",,,"923 S 11TH ST","BATON ROUGE","70802","10","Carolyn Coleman","BATON ROUGE"
"236","N",,"11TH","ST",,,"236 N 11TH ST","BATON ROUGE","70802","10","Carolyn Coleman","BATON ROUGE"
"615","N",,"11TH","ST",,,"615 N 11TH ST","BATON ROUGE","70802","10","Carolyn Coleman","BATON ROUGE"
"325","S",,"11TH","ST",,,"325 S 11TH ST","BATON ROUGE","70802","10","Carolyn Coleman","BATON ROUGE"
"314","S",,"11TH","ST",,,"314 S 11TH ST","BATON ROUGE","70802","10","Carolyn Coleman","BATON ROUGE"
"156","S",,"11TH","ST",,,"156 S 11TH ST","BATON ROUGE","70802","10","Carolyn Coleman","BATON ROUGE"
"300-500","S",,"11TH","ST",,,"300-500 S 11TH ST","BATON ROUGE","70802","10","Carolyn Coleman","BATON ROUGE"
"170","S",,"11TH","ST",,,"170 S 11TH ST","BATON ROUGE","70802","10","Carolyn Coleman","BATON ROUGE"
"935","S",,"11TH","ST",,,"935 S 11TH ST","BATON ROUGE","70802","10","Carolyn Coleman","BATON ROUGE"
"833","N",,"11TH","ST",,,"833 N 11TH ST","BATON ROUGE","70802","10","Carolyn Coleman","BATON ROUGE"
"819","S",,"12TH","ST",,,"819 S 12TH ST","BATON ROUGE","70802","10","Carolyn Coleman","BATON ROUGE"
"317","S",,"12TH","ST",,,"317 S 12TH ST","BATON ROUGE","70802","10","Carolyn Coleman","BATON ROUGE"
"832","S",,"12TH","ST",,,"832 S 12TH ST","BATON ROUGE","70802","10","Carolyn Coleman","BATON ROUGE"
"1150","S",,"12TH","ST",,,"1150 S 12TH ST","BATON ROUGE","70802","10","Carolyn Coleman","BATON ROUGE"
"857","S",,"12TH","ST",,,"857 S 12TH ST","BATON ROUGE","70802","10","Carolyn Coleman","BATON ROUGE"
"358","S",,"12TH","ST",,,"358 S 12TH ST","BATON ROUGE","70802","10","Carolyn Coleman","BATON ROUGE"
"932","S",,"12TH","ST",,,"932 S 12TH ST","BATON ROUGE","70802","10","Carolyn Coleman","BATON ROUGE"
"946","S",,"12TH","ST",,,"946 S 12TH ST","BATON ROUGE","70802","10","Carolyn Coleman","BATON ROUGE"
"951","S",,"12TH","ST",,,"951 S 12TH ST","BATON ROUGE","70802","10","Carolyn Coleman","BATON ROUGE"
"858","S",,"12TH","ST",,,"858 S 12TH ST","BATON ROUGE","70802","10","Carolyn Coleman","BATON ROUGE"
"T 352","N",,"12TH","ST",,,"T 352 N 12TH ST","BATON ROUGE","70802","10","Carolyn Coleman","BATON ROUGE"
"950","S",,"12TH","ST",,,"950 S 12TH ST","BATON ROUGE","70802","10","Carolyn Coleman","BATON ROUGE"
"215","N",,"12TH","ST",,,"215 N 12TH ST","BATON ROUGE","70802","10","Carolyn Coleman","BATON ROUGE"
"968","S",,"12TH","ST",,,"968 S 12TH ST","BATON ROUGE","70802","10","Carolyn Coleman","BATON ROUGE"
"702","S",,"12TH","ST",,,"702 S 12TH ST","BATON ROUGE","70802","10","Carolyn Coleman","BATON ROUGE"
"801","S",,"12TH","ST",,,"801 S 12TH ST","BATON ROUGE","70802","10","Carolyn Coleman","BATON ROUGE"
"846","S",,"12TH","ST",,,"846 S 12TH ST","BATON ROUGE","70802","10","Carolyn Coleman","BATON ROUGE"
"810","S",,"12TH","ST",,,"810 S 12TH ST","BATON ROUGE","70802","10","Carolyn Coleman","BATON ROUGE"
"915","S",,"12TH","ST",,,"915 S 12TH ST","BATON ROUGE","70802","10","Carolyn Coleman","BATON ROUGE"
"962","S",,"12TH","ST",,,"962 S 12TH ST","BATON ROUGE","70802","10","Carolyn Coleman","BATON ROUGE"
"365","S",,"12TH","ST",,,"365 S 12TH ST","BATON ROUGE","70802","10","Carolyn Coleman","BATON ROUGE"
"917","S",,"12TH","ST",,,"917 S 12TH ST","BATON ROUGE","70802","10","Carolyn Coleman","BATON ROUGE"
"546","N",,"12TH","ST",,,"546 N 12TH ST","BATON ROUGE","70802","10","Carolyn Coleman","BATON ROUGE"
"445","N",,"12TH","ST",,,"445 N 12TH ST","BATON ROUGE","70802","10","Carolyn Coleman","BATON ROUGE"
"1129","S",,"12TH","ST",,,"1129 S 12TH ST","BATON ROUGE","70802","10","Carolyn Coleman","BATON ROUGE"
"211","N",,"12TH","ST",,,"211 N 12TH ST","BATON ROUGE","70802","10","Carolyn Coleman","BATON ROUGE"
"804","S",,"12TH","ST",,,"804 S 12TH ST","BATON ROUGE","70802","10","Carolyn Coleman","BATON ROUGE"
"213","S",,"12TH","ST",,,"213 S 12TH ST","BATON ROUGE","70802","10","Carolyn Coleman","BATON ROUGE"
"325","S",,"12TH","ST",,,"325 S 12TH ST","BATON ROUGE","70802","10","Carolyn Coleman","BATON ROUGE"
"349","S",,"12TH","ST",,,"349 S 12TH ST","BATON ROUGE","70802","10","Carolyn Coleman","BATON ROUGE"
"911","S",,"12TH","ST",,,"911 S 12TH ST","BATON ROUGE","70802","10","Carolyn Coleman","BATON ROUGE"
"721","S",,"12TH","ST",,,"721 S 12TH ST","BATON ROUGE","70802","10","Carolyn Coleman","BATON ROUGE"
"135","N",,"12TH","ST",,,"135 N 12TH ST","BATON ROUGE","70802","10","Carolyn Coleman","BATON ROUGE"
"173","S",,"12TH","ST",,,"173 S 12TH ST","BATON ROUGE","70802","10","Carolyn Coleman","BATON ROUGE"
"344","S",,"12TH","ST",,,"344 S 12TH ST","BATON ROUGE","70802","10","Carolyn Coleman","BATON ROUGE"
"763","S",,"12TH","ST",,,"763 S 12TH ST","BATON ROUGE","70802","10","Carolyn Coleman","BATON ROUGE"
"222","S",,"12TH","ST",,,"222 S 12TH ST","BATON ROUGE","70802","10","Carolyn Coleman","BATON ROUGE"
"247","S",,"12TH","ST",,,"247 S 12TH ST","BATON ROUGE","70802","10","Carolyn Coleman","BATON ROUGE"
"811","S",,"12TH","ST",,,"811 S 12TH ST","BATON ROUGE","70802","10","Carolyn Coleman","BATON ROUGE"
"214","N",,"12TH","ST",,,"214 N 12TH ST","BATON ROUGE","70802","10","Carolyn Coleman","BATON ROUGE"
"230","S",,"12TH","ST",,,"230 S 12TH ST","BATON ROUGE","70802","10","Carolyn Coleman","BATON ROUGE"
"166","S",,"12TH","ST",,,"166 S 12TH ST","BATON ROUGE","70802","10","Carolyn Coleman","BATON ROUGE"
"709","S",,"12TH","ST",,,"709 S 12TH ST","BATON ROUGE","70802","10","Carolyn Coleman","BATON ROUGE"
"338","S",,"12TH","ST",,,"338 S 12TH ST","BATON ROUGE","70802","10","Carolyn Coleman","BATON ROUGE"
"236","S",,"12TH","ST",,,"236 S 12TH ST","BATON ROUGE","70802","10","Carolyn Coleman","BATON ROUGE"
"156","S",,"12TH","ST",,,"156 S 12TH ST","BATON ROUGE","70802","10","Carolyn Coleman","BATON ROUGE"
"353","N",,"12TH","ST",,,"353 N 12TH ST","BATON ROUGE","70802","10","Carolyn Coleman","BATON ROUGE"
"345","S",,"12TH","ST",,,"345 S 12TH ST","BATON ROUGE","70802","10","Carolyn Coleman","BATON ROUGE"
"700-900","S",,"12TH","ST",,,"700-900 S 12TH ST","BATON ROUGE","70802","10","Carolyn Coleman","BATON ROUGE"
"700-900","S",,"12TH","ST",,,"700-900 S 12TH ST","BATON ROUGE","70802","10","Carolyn Coleman","BATON ROUGE"
"700-900","S",,"12TH","ST",,,"700-900 S 12TH ST","BATON ROUGE","70802","10","Carolyn Coleman","BATON ROUGE"
"700-900","S",,"12TH","ST",,,"700-900 S 12TH ST","BATON ROUGE","70802","10","Carolyn Coleman","BATON ROUGE"
"700-900","S",,"12TH","ST",,,"700-900 S 12TH ST","BATON ROUGE","70802","10","Carolyn Coleman","BATON ROUGE"
"1245","S",,"12TH","ST",,,"1245 S 12TH ST","BATON ROUGE","70802","10","Carolyn Coleman","BATON ROUGE"
"729","S",,"12TH","ST",,,"729 S 12TH ST","BATON ROUGE","70802","10","Carolyn Coleman","BATON ROUGE"
"T 344","N",,"12TH","ST",,,"T 344 N 12TH ST","BATON ROUGE","70802","10","Carolyn Coleman","BATON ROUGE"
"320","S",,"12TH","ST",,,"320 S 12TH ST","BATON ROUGE","70802","10","Carolyn Coleman","BATON ROUGE"
"171","S",,"12TH","ST",,,"171 S 12TH ST","BATON ROUGE","70802","10","Carolyn Coleman","BATON ROUGE"
"1226","S",,"12TH","ST",,,"1226 S 12TH ST","BATON ROUGE","70802","10","Carolyn Coleman","BATON ROUGE"
"229","S",,"12TH","ST",,,"229 S 12TH ST","BATON ROUGE","70802","10","Carolyn Coleman","BATON ROUGE"
"446","N",,"12TH","ST",,,"446 N 12TH ST","BATON ROUGE","70802","10","Carolyn Coleman","BATON ROUGE"
"823","S",,"12TH","ST",,,"823 S 12TH ST","BATON ROUGE","70802","10","Carolyn Coleman","BATON ROUGE"
"1232","S",,"12TH","ST",,,"1232 S 12TH ST","BATON ROUGE","70802","10","Carolyn Coleman","BATON ROUGE"
"100-200","S",,"12TH","ST",,,"100-200 S 12TH ST","BATON ROUGE","70802","10","Carolyn Coleman","BATON ROUGE"
"722","S",,"12TH","ST",,,"722 S 12TH ST","BATON ROUGE","70802","10","Carolyn Coleman","BATON ROUGE"
"954","S",,"12TH","ST",,,"954 S 12TH ST","BATON ROUGE","70802","10","Carolyn Coleman","BATON ROUGE"
"839","S",,"12TH","ST",,,"839 S 12TH ST","BATON ROUGE","70802","10","Carolyn Coleman","BATON ROUGE"
"840","S",,"12TH","ST",,,"840 S 12TH ST","BATON ROUGE","70802","10","Carolyn Coleman","BATON ROUGE"
"714","S",,"12TH","ST",,,"714 S 12TH ST","BATON ROUGE","70802","10","Carolyn Coleman","BATON ROUGE"
"220","S",,"12TH","ST",,,"220 S 12TH ST","BATON ROUGE","70802","10","Carolyn Coleman","BATON ROUGE"
"224","N",,"12TH","ST",,,"224 N 12TH ST","BATON ROUGE","70802","10","Carolyn Coleman","BATON ROUGE"
"158","S",,"12TH","ST",,,"158 S 12TH ST","BATON ROUGE","70802","10","Carolyn Coleman","BATON ROUGE"
"242","S",,"12TH","ST",,,"242 S 12TH ST","BATON ROUGE","70802","10","Carolyn Coleman","BATON ROUGE"
"T 148","S",,"12TH","ST",,,"T 148 S 12TH ST","BATON ROUGE","70802","10","Carolyn Coleman","BATON ROUGE"
"703","S",,"12TH","ST",,,"703 S 12TH ST","BATON ROUGE","70802","10","Carolyn Coleman","BATON ROUGE"
"818","S",,"12TH","ST",,,"818 S 12TH ST","BATON ROUGE","70802","10","Carolyn Coleman","BATON ROUGE"
"305","S",,"12TH","ST",,,"305 S 12TH ST","BATON ROUGE","70802","10","Carolyn Coleman","BATON ROUGE"
"216","N",,"12TH","ST",,,"216 N 12TH ST","BATON ROUGE","70802","10","Carolyn Coleman","BATON ROUGE"
"1239","S",,"12TH","ST",,,"1239 S 12TH ST","BATON ROUGE","70802","10","Carolyn Coleman","BATON ROUGE"
"T 336","N",,"12TH","ST",,,"T 336 N 12TH ST","BATON ROUGE","70802","10","Carolyn Coleman","BATON ROUGE"
"945","S",,"12TH","ST",,,"945 S 12TH ST","BATON ROUGE","70802","10","Carolyn Coleman","BATON ROUGE"
"130","N",,"12TH","ST",,,"130 N 12TH ST","BATON ROUGE","70802","10","Carolyn Coleman","BATON ROUGE"
"744","S",,"12TH","ST",,,"744 S 12TH ST","BATON ROUGE","70802","10","Carolyn Coleman","BATON ROUGE"
"824","S",,"12TH","ST",,,"824 S 12TH ST","BATON ROUGE","70802","10","Carolyn Coleman","BATON ROUGE"
"142","S",,"12TH","ST",,,"142 S 12TH ST","BATON ROUGE","70802","10","Carolyn Coleman","BATON ROUGE"
"339","S",,"12TH","ST",,,"339 S 12TH ST","BATON ROUGE","70802","10","Carolyn Coleman","BATON ROUGE"
"329","N",,"13TH","ST",,,"329 N 13TH ST","BATON ROUGE","70802","10","Carolyn Coleman","BATON ROUGE"
"334","N",,"13TH","ST",,,"334 N 13TH ST","BATON ROUGE","70802","10","Carolyn Coleman","BATON ROUGE"
"123","N",,"13TH","ST",,,"123 N 13TH ST","BATON ROUGE","70802","10","Carolyn Coleman","BATON ROUGE"
"124","N",,"13TH","ST",,,"124 N 13TH ST","BATON ROUGE","70802","10","Carolyn Coleman","BATON ROUGE"
"125","N",,"13TH","ST",,,"125 N 13TH ST","BATON ROUGE","70802","10","Carolyn Coleman","BATON ROUGE"
"427","N",,"13TH","ST",,,"427 N 13TH ST","BATON ROUGE","70802","10","Carolyn Coleman","BATON ROUGE"
"600-700","N",,"13TH","ST",,,"600-700 N 13TH ST","BATON ROUGE","70802","10","Carolyn Coleman","BATON ROUGE"
"T 426","N",,"13TH","ST",,,"T 426 N 13TH ST","BATON ROUGE","70802","10","Carolyn Coleman","BATON ROUGE"
"227","N",,"13TH","ST",,,"227 N 13TH ST","BATON ROUGE","70802","10","Carolyn Coleman","BATON ROUGE"
"T 436","N",,"13TH","ST",,,"T 436 N 13TH ST","BATON ROUGE","70802","10","Carolyn Coleman","BATON ROUGE"
"122","N",,"13TH","ST",,,"122 N 13TH ST","BATON ROUGE","70802","10","Carolyn Coleman","BATON ROUGE"
"1242","S",,"14TH","ST",,,"1242 S 14TH ST","BATON ROUGE","70802","10","Carolyn Coleman","BATON ROUGE"
"645","S",,"14TH","ST",,,"645 S 14TH ST","BATON ROUGE","70802","10","Carolyn Coleman","BATON ROUGE"
"1230","S",,"14TH","ST",,,"1230 S 14TH ST","BATON ROUGE","70802","10","Carolyn Coleman","BATON ROUGE"
"753","S",,"14TH","ST",,,"753 S 14TH ST","BATON ROUGE","70802","10","Carolyn Coleman","BATON ROUGE"
"214","S",,"14TH","ST",,,"214 S 14TH ST","BATON ROUGE","70802","10","Carolyn Coleman","BATON ROUGE"
"628","S",,"14TH","ST",,,"628 S 14TH ST","BATON ROUGE","70802","10","Carolyn Coleman","BATON ROUGE"
"125","S",,"14TH","ST",,,"125 S 14TH ST","BATON ROUGE","70802","10","Carolyn Coleman","BATON ROUGE"
"340","S",,"14TH","ST",,,"340 S 14TH ST","BATON ROUGE","70802","10","Carolyn Coleman","BATON ROUGE"
"700-900","S",,"14TH","ST",,,"700-900 S 14TH ST","BATON ROUGE","70802","10","Carolyn Coleman","BATON ROUGE"
"700-900","S",,"14TH","ST",,,"700-900 S 14TH ST","BATON ROUGE","70802","10","Carolyn Coleman","BATON ROUGE"
"700-900","S",,"14TH","ST",,,"700-900 S 14TH ST","BATON ROUGE","70802","10","Carolyn Coleman","BATON ROUGE"
"700-900","S",,"14TH","ST",,,"700-900 S 14TH ST","BATON ROUGE","70802","10","Carolyn Coleman","BATON ROUGE"
"700-900","S",,"14TH","ST",,,"700-900 S 14TH ST","BATON ROUGE","70802","10","Carolyn Coleman","BATON ROUGE"
"700-900","S",,"14TH","ST",,,"700-900 S 14TH ST","BATON ROUGE","70802","10","Carolyn Coleman","BATON ROUGE"
"700-900","S",,"14TH","ST",,,"700-900 S 14TH ST","BATON ROUGE","70802","10","Carolyn Coleman","BATON ROUGE"
"700-900","S",,"14TH","ST",,,"700-900 S 14TH ST","BATON ROUGE","70802","10","Carolyn Coleman","BATON ROUGE"
"700-900","S",,"14TH","ST",,,"700-900 S 14TH ST","BATON ROUGE","70802","10","Carolyn Coleman","BATON ROUGE"
"700-900","S",,"14TH","ST",,,"700-900 S 14TH ST","BATON ROUGE","70802","10","Carolyn Coleman","BATON ROUGE"
"700-900","S",,"14TH","ST",,,"700-900 S 14TH ST","BATON ROUGE","70802","10","Carolyn Coleman","BATON ROUGE"
"700-900","S",,"14TH","ST",,,"700-900 S 14TH ST","BATON ROUGE","70802","10","Carolyn Coleman","BATON ROUGE"
"700-900","S",,"14TH","ST",,,"700-900 S 14TH ST","BATON ROUGE","70802","10","Carolyn Coleman","BATON ROUGE"
"700-900","S",,"14TH","ST",,,"700-900 S 14TH ST","BATON ROUGE","70802","10","Carolyn Coleman","BATON ROUGE"
"828","S",,"14TH","ST",,,"828 S 14TH ST","BATON ROUGE","70802","10","Carolyn Coleman","BATON ROUGE"
"602","S",,"14TH","ST",,,"602 S 14TH ST","BATON ROUGE","70802","10","Carolyn Coleman","BATON ROUGE"
"1232","S",,"14TH","ST",,,"1232 S 14TH ST","BATON ROUGE","70802","10","Carolyn Coleman","BATON ROUGE"
"120","S",,"14TH","ST",,,"120 S 14TH ST","BATON ROUGE","70802","10","Carolyn Coleman","BATON ROUGE"
"207","S",,"14TH","ST",,,"207 S 14TH ST","BATON ROUGE","70802","10","Carolyn Coleman","BATON ROUGE"
"524","S",,"14TH","ST",,,"524 S 14TH ST","BATON ROUGE","70802","10","Carolyn Coleman","BATON ROUGE"
"1126","S",,"14TH","ST",,,"1126 S 14TH ST","BATON ROUGE","70802","10","Carolyn Coleman","BATON ROUGE"
"1246","S",,"14TH","ST",,,"1246 S 14TH ST","BATON ROUGE","70802","10","Carolyn Coleman","BATON ROUGE"
"740","N",,"14TH","ST",,,"740 N 14TH ST","BATON ROUGE","70802","10","Carolyn Coleman","BATON ROUGE"
"748","S",,"14TH","ST",,,"748 S 14TH ST","BATON ROUGE","70802","10","Carolyn Coleman","BATON ROUGE"
"538","S",,"14TH","ST",,,"538 S 14TH ST","BATON ROUGE","70802","10","Carolyn Coleman","BATON ROUGE"
"150","S",,"14TH","ST",,,"150 S 14TH ST","BATON ROUGE","70802","10","Carolyn Coleman","BATON ROUGE"
"1238","S",,"14TH","ST",,,"1238 S 14TH ST","BATON ROUGE","70802","10","Carolyn Coleman","BATON ROUGE"
"1130","S",,"14TH","ST",,,"1130 S 14TH ST","BATON ROUGE","70802","10","Carolyn Coleman","BATON ROUGE"
"208","S",,"14TH","ST",,,"208 S 14TH ST","BATON ROUGE","70802","10","Carolyn Coleman","BATON ROUGE"
"210","S",,"14TH","ST",,,"210 S 14TH ST","BATON ROUGE","70802","10","Carolyn Coleman","BATON ROUGE"
"600-700","N",,"14TH","ST",,,"600-700 N 14TH ST","BATON ROUGE","70802","10","Carolyn Coleman","BATON ROUGE"
"600-700","N",,"14TH","ST",,,"600-700 N 14TH ST","BATON ROUGE","70802","10","Carolyn Coleman","BATON ROUGE"
"600-700","N",,"14TH","ST",,,"600-700 N 14TH ST","BATON ROUGE","70802","10","Carolyn Coleman","BATON ROUGE"
"T 373","S",,"14TH","ST",,,"T 373 S 14TH ST","BATON ROUGE","70802","10","Carolyn Coleman","BATON ROUGE"
"711","S",,"14TH","ST",,,"711 S 14TH ST","BATON ROUGE","70802","10","Carolyn Coleman","BATON ROUGE"
"900-1000","S",,"14TH","ST",,,"900-1000 S 14TH ST","BATON ROUGE","70802","10","Carolyn Coleman","BATON ROUGE"
"900-1000","S",,"14TH","ST",,,"900-1000 S 14TH ST","BATON ROUGE","70802","10","Carolyn Coleman","BATON ROUGE"
"900-1000","S",,"14TH","ST",,,"900-1000 S 14TH ST","BATON ROUGE","70802","10","Carolyn Coleman","BATON ROUGE"
"900-1000","S",,"14TH","ST",,,"900-1000 S 14TH ST","BATON ROUGE","70802","10","Carolyn Coleman","BATON ROUGE"
"188","S",,"14TH","ST",,,"188 S 14TH ST","BATON ROUGE","70802","10","Carolyn Coleman","BATON ROUGE"
"605","S",,"14TH","ST",,,"605 S 14TH ST","BATON ROUGE","70802","10","Carolyn Coleman","BATON ROUGE"
"751","S",,"14TH","ST",,,"751 S 14TH ST","BATON ROUGE","70802","10","Carolyn Coleman","BATON ROUGE"
"724","S",,"14TH","ST",,,"724 S 14TH ST","BATON ROUGE","70802","10","Carolyn Coleman","BATON ROUGE"
"236","S",,"14TH","ST",,,"236 S 14TH ST","BATON ROUGE","70802","10","Carolyn Coleman","BATON ROUGE"
"615","S",,"14TH","ST",,,"615 S 14TH ST","BATON ROUGE","70802","10","Carolyn Coleman","BATON ROUGE"
"1254","S",,"14TH","ST",,,"1254 S 14TH ST","BATON ROUGE","70802","10","Carolyn Coleman","BATON ROUGE"
"1250","S",,"14TH","ST",,,"1250 S 14TH ST","BATON ROUGE","70802","10","Carolyn Coleman","BATON ROUGE"
"211","S",,"14TH","ST",,,"211 S 14TH ST","BATON ROUGE","70802","10","Carolyn Coleman","BATON ROUGE"
"956","S",,"14TH","ST",,,"956 S 14TH ST","BATON ROUGE","70802","10","Carolyn Coleman","BATON ROUGE"
"924","S",,"14TH","ST",,,"924 S 14TH ST","BATON ROUGE","70802","10","Carolyn Coleman","BATON ROUGE"
"540","S",,"14TH","ST",,,"540 S 14TH ST","BATON ROUGE","70802","10","Carolyn Coleman","BATON ROUGE"
"920","S",,"14TH","ST",,,"920 S 14TH ST","BATON ROUGE","70802","10","Carolyn Coleman","BATON ROUGE"
"744","S",,"14TH","ST",,,"744 S 14TH ST","BATON ROUGE","70802","10","Carolyn Coleman","BATON ROUGE"
"606","S",,"14TH","ST",,,"606 S 14TH ST","BATON ROUGE","70802","10","Carolyn Coleman","BATON ROUGE"
"100-500","S",,"14TH","ST",,,"100-500 S 14TH ST","BATON ROUGE","70802","10","Carolyn Coleman","BATON ROUGE"
"100-500","S",,"14TH","ST",,,"100-500 S 14TH ST","BATON ROUGE","70802","10","Carolyn Coleman","BATON ROUGE"
"100-500","S",,"14TH","ST",,,"100-500 S 14TH ST","BATON ROUGE","70802","10","Carolyn Coleman","BATON ROUGE"
"618","S",,"14TH","ST",,,"618 S 14TH ST","BATON ROUGE","70802","10","Carolyn Coleman","BATON ROUGE"
"624","S",,"14TH","ST",,,"624 S 14TH ST","BATON ROUGE","70802","10","Carolyn Coleman","BATON ROUGE"
"609","S",,"14TH","ST",,,"609 S 14TH ST","BATON ROUGE","70802","10","Carolyn Coleman","BATON ROUGE"
"224","N",,"14TH","ST",,,"224 N 14TH ST","BATON ROUGE","70802","10","Carolyn Coleman","BATON ROUGE"
"100","N",,"14TH","ST",,,"100 N 14TH ST","BATON ROUGE","70802","10","Carolyn Coleman","BATON ROUGE"
"1236","S",,"14TH","ST",,,"1236 S 14TH ST","BATON ROUGE","70802","10","Carolyn Coleman","BATON ROUGE"
"212 STE A","S",,"14TH","ST",,,"212 S 14TH ST, STE A","BATON ROUGE","70802","10","Carolyn Coleman","BATON ROUGE"
"802","S",,"14TH","ST",,,"802 S 14TH ST","BATON ROUGE","70802","10","Carolyn Coleman","BATON ROUGE"
"1108","S",,"14TH","ST",,,"1108 S 14TH ST","BATON ROUGE","70802","10","Carolyn Coleman","BATON ROUGE"
"T 741","N",,"14TH","ST",,,"T 741 N 14TH ST","BATON ROUGE","70802","10","Carolyn Coleman","BATON ROUGE"
"601","S",,"14TH","ST",,,"601 S 14TH ST","BATON ROUGE","70802","10","Carolyn Coleman","BATON ROUGE"
"836","S",,"14TH","ST",,,"836 S 14TH ST","BATON ROUGE","70802","10","Carolyn Coleman","BATON ROUGE"
"658","S",,"14TH","ST",,,"658 S 14TH ST","BATON ROUGE","70802","10","Carolyn Coleman","BATON ROUGE"
"1115","S",,"14TH","ST",,,"1115 S 14TH ST","BATON ROUGE","70802","10","Carolyn Coleman","BATON ROUGE"
"T 355","S",,"14TH","ST",,,"T 355 S 14TH ST","BATON ROUGE","70802","10","Carolyn Coleman","BATON ROUGE"
"526","S",,"14TH","ST",,,"526 S 14TH ST","BATON ROUGE","70802","10","Carolyn Coleman","BATON ROUGE"
"235","S",,"14TH","ST",,,"235 S 14TH ST","BATON ROUGE","70802","10","Carolyn Coleman","BATON ROUGE"
"519","S",,"14TH","ST",,,"519 S 14TH ST","BATON ROUGE","70802","10","Carolyn Coleman","BATON ROUGE"
"614","S",,"14TH","ST",,,"614 S 14TH ST","BATON ROUGE","70802","10","Carolyn Coleman","BATON ROUGE"
"T 339","S",,"14TH","ST",,,"T 339 S 14TH ST","BATON ROUGE","70802","10","Carolyn Coleman","BATON ROUGE"
"1116","S",,"14TH","ST",,,"1116 S 14TH ST","BATON ROUGE","70802","10","Carolyn Coleman","BATON ROUGE"
"1234","S",,"14TH","ST",,,"1234 S 14TH ST","BATON ROUGE","70802","10","Carolyn Coleman","BATON ROUGE"
"638","S",,"14TH","ST",,,"638 S 14TH ST","BATON ROUGE","70802","10","Carolyn Coleman","BATON ROUGE"
"820","S",,"14TH","ST",,,"820 S 14TH ST","BATON ROUGE","70802","10","Carolyn Coleman","BATON ROUGE"
"212 STE B","S",,"14TH","ST",,,"212 S 14TH ST, STE B","BATON ROUGE","70802","10","Carolyn Coleman","BATON ROUGE"
"1124","S",,"14TH","ST",,,"1124 S 14TH ST","BATON ROUGE","70802","10","Carolyn Coleman","BATON ROUGE"
"528","S",,"14TH","ST",,,"528 S 14TH ST","BATON ROUGE","70802","10","Carolyn Coleman","BATON ROUGE"
"600-700","S",,"14TH","ST",,,"600-700 S 14TH ST","BATON ROUGE","70802","10","Carolyn Coleman","BATON ROUGE"
"600-700","S",,"14TH","ST",,,"600-700 S 14TH ST","BATON ROUGE","70802","10","Carolyn Coleman","BATON ROUGE"
"600-700","S",,"14TH","ST",,,"600-700 S 14TH ST","BATON ROUGE","70802","10","Carolyn Coleman","BATON ROUGE"
"600-700","S",,"14TH","ST",,,"600-700 S 14TH ST","BATON ROUGE","70802","10","Carolyn Coleman","BATON ROUGE"
"600-700","S",,"14TH","ST",,,"600-700 S 14TH ST","BATON ROUGE","70802","10","Carolyn Coleman","BATON ROUGE"
"838","S",,"14TH","ST",,,"838 S 14TH ST","BATON ROUGE","70802","10","Carolyn Coleman","BATON ROUGE"
"728","S",,"14TH","ST",,,"728 S 14TH ST","BATON ROUGE","70802","10","Carolyn Coleman","BATON ROUGE"
"808","S",,"14TH","ST",,,"808 S 14TH ST","BATON ROUGE","70802","10","Carolyn Coleman","BATON ROUGE"
"812","S",,"14TH","ST",,,"812 S 14TH ST","BATON ROUGE","70802","10","Carolyn Coleman","BATON ROUGE"
"T 401","S",,"14TH","ST",,,"T 401 S 14TH ST","BATON ROUGE","70802","10","Carolyn Coleman","BATON ROUGE"
"626","N",,"15TH","ST",,,"626 N 15TH ST","BATON ROUGE","70802","10","Carolyn Coleman","BATON ROUGE"
"630","N",,"15TH","ST",,,"630 N 15TH ST","BATON ROUGE","70802","10","Carolyn Coleman","BATON ROUGE"
"1137","S",,"15TH","ST",,,"1137 S 15TH ST","BATON ROUGE","70802","10","Carolyn Coleman","BATON ROUGE"
"2109","N",,"15TH","ST",,,"2109 N 15TH ST","BATON ROUGE","70802","10","Carolyn Coleman","BATON ROUGE"
"614","N",,"15TH","ST",,,"614 N 15TH ST","BATON ROUGE","70802","10","Carolyn Coleman","BATON ROUGE"
"1902","N",,"15TH","ST",,,"1902 N 15TH ST","BATON ROUGE","70802","10","Carolyn Coleman","BATON ROUGE"
"829","S",,"15TH","ST",,,"829 S 15TH ST","BATON ROUGE","70802","10","Carolyn Coleman","BATON ROUGE"
"1942","N",,"15TH","ST",,,"1942 N 15TH ST","BATON ROUGE","70802","10","Carolyn Coleman","BATON ROUGE"
"1232","S",,"15TH","ST",,,"1232 S 15TH ST","BATON ROUGE","70802","10","Carolyn Coleman","BATON ROUGE"
"610","S",,"15TH","ST",,,"610 S 15TH ST","BATON ROUGE","70802","10","Carolyn Coleman","BATON ROUGE"
"1816","N",,"15TH","ST",,,"1816 N 15TH ST","BATON ROUGE","70802","10","Carolyn Coleman","BATON ROUGE"
"1955","N",,"15TH","ST",,,"1955 N 15TH ST","BATON ROUGE","70802","10","Carolyn Coleman","BATON ROUGE"
"1155","S",,"15TH","ST",,,"1155 S 15TH ST","BATON ROUGE","70802","10","Carolyn Coleman","BATON ROUGE"
"1133","S",,"15TH","ST",,,"1133 S 15TH ST","BATON ROUGE","70802","10","Carolyn Coleman","BATON ROUGE"
"647","S",,"15TH","ST",,,"647 S 15TH ST","BATON ROUGE","70802","10","Carolyn Coleman","BATON ROUGE"
"1744","N",,"15TH","ST",,,"1744 N 15TH ST","BATON ROUGE","70802","10","Carolyn Coleman","BATON ROUGE"
"1205","S",,"15TH","ST",,,"1205 S 15TH ST","BATON ROUGE","70802","10","Carolyn Coleman","BATON ROUGE"
"1806","N",,"15TH","ST",,,"1806 N 15TH ST","BATON ROUGE","70802","10","Carolyn Coleman","BATON ROUGE"
"1230","S",,"15TH","ST",,,"1230 S 15TH ST","BATON ROUGE","70802","10","Carolyn Coleman","BATON ROUGE"
"625","S",,"15TH","ST",,,"625 S 15TH ST","BATON ROUGE","70802","10","Carolyn Coleman","BATON ROUGE"
"552","S",,"15TH","ST",,,"552 S 15TH ST","BATON ROUGE","70802","10","Carolyn Coleman","BATON ROUGE"
"1220","S",,"15TH","ST",,,"1220 S 15TH ST","BATON ROUGE","70802","10","Carolyn Coleman","BATON ROUGE"
"1754","N",,"15TH","ST",,,"1754 N 15TH ST","BATON ROUGE","70802","10","Carolyn Coleman","BATON ROUGE"
"956","S",,"15TH","ST",,,"956 S 15TH ST","BATON ROUGE","70802","10","Carolyn Coleman","BATON ROUGE"
"1364","S",,"15TH","ST",,,"1364 S 15TH ST","BATON ROUGE","70802","10","Carolyn Coleman","BATON ROUGE"
"633","S",,"15TH","ST",,,"633 S 15TH ST","BATON ROUGE","70802","10","Carolyn Coleman","BATON ROUGE"
"2027","N",,"15TH","ST",,,"2027 N 15TH ST","BATON ROUGE","70802","10","Carolyn Coleman","BATON ROUGE"
"2136","N",,"15TH","ST",,,"2136 N 15TH ST","BATON ROUGE","70802","10","Carolyn Coleman","BATON ROUGE"
"1952","N",,"15TH","ST",,,"1952 N 15TH ST","BATON ROUGE","70802","10","Carolyn Coleman","BATON ROUGE"
"1707","N",,"15TH","ST",,,"1707 N 15TH ST","BATON ROUGE","70802","10","Carolyn Coleman","BATON ROUGE"
"1849","N",,"15TH","ST",,,"1849 N 15TH ST","BATON ROUGE","70802","10","Carolyn Coleman","BATON ROUGE"
"704","S",,"15TH","ST",,,"704 S 15TH ST","BATON ROUGE","70802","10","Carolyn Coleman","BATON ROUGE"
"1925","N",,"15TH","ST",,,"1925 N 15TH ST","BATON ROUGE","70802","10","Carolyn Coleman","BATON ROUGE"
"1625","N",,"15TH","ST",,,"1625 N 15TH ST","BATON ROUGE","70802","10","Carolyn Coleman","BATON ROUGE"
"1826","N",,"15TH","ST",,,"1826 N 15TH ST","BATON ROUGE","70802","10","Carolyn Coleman","BATON ROUGE"
"824","S",,"15TH","ST",,,"824 S 15TH ST","BATON ROUGE","70802","10","Carolyn Coleman","BATON ROUGE"
"2146","N",,"15TH","ST",,,"2146 N 15TH ST","BATON ROUGE","70802","10","Carolyn Coleman","BATON ROUGE"
"1635","N",,"15TH","ST",,,"1635 N 15TH ST","BATON ROUGE","70802","10","Carolyn Coleman","BATON ROUGE"
"1151","S",,"15TH","ST",,,"1151 S 15TH ST","BATON ROUGE","70802","10","Carolyn Coleman","BATON ROUGE"
"1622","N",,"15TH","ST",,,"1622 N 15TH ST","BATON ROUGE","70802","10","Carolyn Coleman","BATON ROUGE"
"100-200","N",,"15TH","ST",,,"100-200 N 15TH ST","BATON ROUGE","70802","10","Carolyn Coleman","BATON ROUGE"
"100-200","N",,"15TH","ST",,,"100-200 N 15TH ST","BATON ROUGE","70802","10","Carolyn Coleman","BATON ROUGE"
"1819","N",,"15TH","ST",,,"1819 N 15TH ST","BATON ROUGE","70802","10","Carolyn Coleman","BATON ROUGE"
"547","S",,"15TH","ST",,,"547 S 15TH ST","BATON ROUGE","70802","10","Carolyn Coleman","BATON ROUGE"
"570","S",,"15TH","ST",,,"570 S 15TH ST","BATON ROUGE","70802","10","Carolyn Coleman","BATON ROUGE"
"1124","S",,"15TH","ST",,,"1124 S 15TH ST","BATON ROUGE","70802","10","Carolyn Coleman","BATON ROUGE"
"1915","N",,"15TH","ST",,,"1915 N 15TH ST","BATON ROUGE","70802","10","Carolyn Coleman","BATON ROUGE"
"1605","N",,"15TH","ST",,,"1605 N 15TH ST","BATON ROUGE","70802","10","Carolyn Coleman","BATON ROUGE"
"724","S",,"15TH","ST",,,"724 S 15TH ST","BATON ROUGE","70802","10","Carolyn Coleman","BATON ROUGE"
"702","S",,"15TH","ST",,,"702 S 15TH ST","BATON ROUGE","70802","10","Carolyn Coleman","BATON ROUGE"
"1200-1300","S",,"15TH","ST",,,"1200-1300 S 15TH ST","BATON ROUGE","70802","10","Carolyn Coleman","BATON ROUGE"
"1747","N",,"15TH","ST",,,"1747 N 15TH ST","BATON ROUGE","70802","10","Carolyn Coleman","BATON ROUGE"
"2004","N",,"15TH","ST",,,"2004 N 15TH ST","BATON ROUGE","70802","10","Carolyn Coleman","BATON ROUGE"
"2007","N",,"15TH","ST",,,"2007 N 15TH ST","BATON ROUGE","70802","10","Carolyn Coleman","BATON ROUGE"
"639","S",,"15TH","ST",,,"639 S 15TH ST","BATON ROUGE","70802","10","Carolyn Coleman","BATON ROUGE"
"835","S",,"15TH","ST",,,"835 S 15TH ST","BATON ROUGE","70802","10","Carolyn Coleman","BATON ROUGE"
"576","S",,"15TH","ST",,,"576 S 15TH ST","BATON ROUGE","70802","10","Carolyn Coleman","BATON ROUGE"
"802","S",,"15TH","ST",,,"802 S 15TH ST","BATON ROUGE","70802","10","Carolyn Coleman","BATON ROUGE"
"2139","N",,"15TH","ST",,,"2139 N 15TH ST","BATON ROUGE","70802","10","Carolyn Coleman","BATON ROUGE"
"1945","N",,"15TH","ST",,,"1945 N 15TH ST","BATON ROUGE","70802","10","Carolyn Coleman","BATON ROUGE"
"1912","N",,"15TH","ST",,,"1912 N 15TH ST","BATON ROUGE","70802","10","Carolyn Coleman","BATON ROUGE"
"2017","N",,"15TH","ST",,,"2017 N 15TH ST","BATON ROUGE","70802","10","Carolyn Coleman","BATON ROUGE"
"2119","N",,"15TH","ST",,,"2119 N 15TH ST","BATON ROUGE","70802","10","Carolyn Coleman","BATON ROUGE"
"618","S",,"15TH","ST",,,"618 S 15TH ST","BATON ROUGE","70802","10","Carolyn Coleman","BATON ROUGE"
"2034","N",,"15TH","ST",,,"2034 N 15TH ST","BATON ROUGE","70802","10","Carolyn Coleman","BATON ROUGE"
"604","S",,"15TH","ST",,,"604 S 15TH ST","BATON ROUGE","70802","10","Carolyn Coleman","BATON ROUGE"
"1103","S",,"15TH","ST",,,"1103 S 15TH ST","BATON ROUGE","70802","10","Carolyn Coleman","BATON ROUGE"
"1642","N",,"15TH","ST",,,"1642 N 15TH ST","BATON ROUGE","70802","10","Carolyn Coleman","BATON ROUGE"
"1021","S",,"15TH","ST",,,"1021 S 15TH ST","BATON ROUGE","70802","10","Carolyn Coleman","BATON ROUGE"
"2037","N",,"15TH","ST",,,"2037 N 15TH ST","BATON ROUGE","70802","10","Carolyn Coleman","BATON ROUGE"
"624","S",,"15TH","ST",,,"624 S 15TH ST","BATON ROUGE","70802","10","Carolyn Coleman","BATON ROUGE"
"1717","N",,"15TH","ST",,,"1717 N 15TH ST","BATON ROUGE","70802","10","Carolyn Coleman","BATON ROUGE"
"1737","N",,"15TH","ST",,,"1737 N 15TH ST","BATON ROUGE","70802","10","Carolyn Coleman","BATON ROUGE"
"1201","S",,"15TH","ST",,,"1201 S 15TH ST","BATON ROUGE","70802","10","Carolyn Coleman","BATON ROUGE"
"1905","N",,"15TH","ST",,,"1905 N 15TH ST","BATON ROUGE","70802","10","Carolyn Coleman","BATON ROUGE"
"1922","N",,"15TH","ST",,,"1922 N 15TH ST","BATON ROUGE","70802","10","Carolyn Coleman","BATON ROUGE"
"1107","S",,"15TH","ST",,,"1107 S 15TH ST","BATON ROUGE","70802","10","Carolyn Coleman","BATON ROUGE"
"2044","N",,"15TH","ST",,,"2044 N 15TH ST","BATON ROUGE","70802","10","Carolyn Coleman","BATON ROUGE"
"521","S",,"15TH","ST",,,"521 S 15TH ST","BATON ROUGE","70802","10","Carolyn Coleman","BATON ROUGE"
"1612","N",,"15TH","ST",,,"1612 N 15TH ST","BATON ROUGE","70802","10","Carolyn Coleman","BATON ROUGE"
"1233","S",,"15TH","ST",,,"1233 S 15TH ST","BATON ROUGE","70802","10","Carolyn Coleman","BATON ROUGE"
"1935","N",,"15TH","ST",,,"1935 N 15TH ST","BATON ROUGE","70802","10","Carolyn Coleman","BATON ROUGE"
"754","S",,"15TH","ST",,,"754 S 15TH ST","BATON ROUGE","70802","10","Carolyn Coleman","BATON ROUGE"
"2047","N",,"15TH","ST",,,"2047 N 15TH ST","BATON ROUGE","70802","10","Carolyn Coleman","BATON ROUGE"
"546","S",,"15TH","ST",,,"546 S 15TH ST","BATON ROUGE","70802","10","Carolyn Coleman","BATON ROUGE"
"656","S",,"15TH","ST",,,"656 S 15TH ST","BATON ROUGE","70802","10","Carolyn Coleman","BATON ROUGE"
"1809","N",,"15TH","ST",,,"1809 N 15TH ST","BATON ROUGE","70802","10","Carolyn Coleman","BATON ROUGE"
"806","S",,"15TH","ST",,,"806 S 15TH ST","BATON ROUGE","70802","10","Carolyn Coleman","BATON ROUGE"
"808","S",,"15TH","ST",,,"808 S 15TH ST","BATON ROUGE","70802","10","Carolyn Coleman","BATON ROUGE"
"812","S",,"15TH","ST",,,"812 S 15TH ST","BATON ROUGE","70802","10","Carolyn Coleman","BATON ROUGE"
"1203","S",,"15TH","ST",,,"1203 S 15TH ST","BATON ROUGE","70802","10","Carolyn Coleman","BATON ROUGE"
"744","N",,"15TH","ST",,,"744 N 15TH ST","BATON ROUGE","70802","10","Carolyn Coleman","BATON ROUGE"
"831","S",,"15TH","ST",,,"831 S 15TH ST","BATON ROUGE","70802","10","Carolyn Coleman","BATON ROUGE"
"1839","N",,"15TH","ST",,,"1839 N 15TH ST","BATON ROUGE","70802","10","Carolyn Coleman","BATON ROUGE"
"562","S",,"15TH","ST",,,"562 S 15TH ST","BATON ROUGE","70802","10","Carolyn Coleman","BATON ROUGE"
"572","S",,"15TH","ST",,,"572 S 15TH ST","BATON ROUGE","70802","10","Carolyn Coleman","BATON ROUGE"
"804","S",,"15TH","ST",,,"804 S 15TH ST","BATON ROUGE","70802","10","Carolyn Coleman","BATON ROUGE"
"837","S",,"15TH","ST",,,"837 S 15TH ST","BATON ROUGE","70802","10","Carolyn Coleman","BATON ROUGE"
"1025","S",,"15TH","ST",,,"1025 S 15TH ST","BATON ROUGE","70802","10","Carolyn Coleman","BATON ROUGE"
"1123","S",,"15TH","ST",,,"1123 S 15TH ST","BATON ROUGE","70802","10","Carolyn Coleman","BATON ROUGE"
"1727","N",,"15TH","ST",,,"1727 N 15TH ST","BATON ROUGE","70802","10","Carolyn Coleman","BATON ROUGE"
"1704","N",,"15TH","ST",,,"1704 N 15TH ST","BATON ROUGE","70802","10","Carolyn Coleman","BATON ROUGE"
"622","N",,"15TH","ST",,,"622 N 15TH ST","BATON ROUGE","70802","10","Carolyn Coleman","BATON ROUGE"
"1228","S",,"15TH","ST",,,"1228 S 15TH ST","BATON ROUGE","70802","10","Carolyn Coleman","BATON ROUGE"
"1358","S",,"15TH","ST",,,"1358 S 15TH ST","BATON ROUGE","70802","10","Carolyn Coleman","BATON ROUGE"
"1138","S",,"15TH","ST",,,"1138 S 15TH ST","BATON ROUGE","70802","10","Carolyn Coleman","BATON ROUGE"
"742","S",,"15TH","ST",,,"742 S 15TH ST","BATON ROUGE","70802","10","Carolyn Coleman","BATON ROUGE"
"740","S",,"15TH","ST",,,"740 S 15TH ST","BATON ROUGE","70802","10","Carolyn Coleman","BATON ROUGE"
"1602","N",,"15TH","ST",,,"1602 N 15TH ST","BATON ROUGE","70802","10","Carolyn Coleman","BATON ROUGE"
"1131","S",,"15TH","ST",,,"1131 S 15TH ST","BATON ROUGE","70802","10","Carolyn Coleman","BATON ROUGE"
"2116","N",,"15TH","ST",,,"2116 N 15TH ST","BATON ROUGE","70802","10","Carolyn Coleman","BATON ROUGE"
"801","S",,"15TH","ST",,,"801 S 15TH ST","BATON ROUGE","70802","10","Carolyn Coleman","BATON ROUGE"
"568","S",,"15TH","ST",,,"568 S 15TH ST","BATON ROUGE","70802","10","Carolyn Coleman","BATON ROUGE"
"533","S",,"15TH","ST",,,"533 S 15TH ST","BATON ROUGE","70802","10","Carolyn Coleman","BATON ROUGE"
"574","S",,"15TH","ST",,,"574 S 15TH ST","BATON ROUGE","70802","10","Carolyn Coleman","BATON ROUGE"
"1352","S",,"15TH","ST",,,"1352 S 15TH ST","BATON ROUGE","70802","10","Carolyn Coleman","BATON ROUGE"
"430","S",,"15TH","ST",,,"430 S 15TH ST","BATON ROUGE","70802","10","Carolyn Coleman","BATON ROUGE"
"716","N",,"15TH","ST",,,"716 N 15TH ST","BATON ROUGE","70802","10","Carolyn Coleman","BATON ROUGE"
"809","S",,"15TH","ST",,,"809 S 15TH ST","BATON ROUGE","70802","10","Carolyn Coleman","BATON ROUGE"
"2024","N",,"15TH","ST",,,"2024 N 15TH ST","BATON ROUGE","70802","10","Carolyn Coleman","BATON ROUGE"
"1224","S",,"15TH","ST",,,"1224 S 15TH ST","BATON ROUGE","70802","10","Carolyn Coleman","BATON ROUGE"
"631","S",,"15TH","ST",,,"631 S 15TH ST","BATON ROUGE","70802","10","Carolyn Coleman","BATON ROUGE"
"638","S",,"15TH","ST",,,"638 S 15TH ST","BATON ROUGE","70802","10","Carolyn Coleman","BATON ROUGE"
"652","S",,"15TH","ST",,,"652 S 15TH ST","BATON ROUGE","70802","10","Carolyn Coleman","BATON ROUGE"
"632","S",,"15TH","ST",,,"632 S 15TH ST","BATON ROUGE","70802","10","Carolyn Coleman","BATON ROUGE"
"912","S",,"15TH","ST",,,"912 S 15TH ST","BATON ROUGE","70802","10","Carolyn Coleman","BATON ROUGE"
"722","N",,"15TH","ST",,,"722 N 15TH ST","BATON ROUGE","70802","10","Carolyn Coleman","BATON ROUGE"
"1153","S",,"15TH","ST",,,"1153 S 15TH ST","BATON ROUGE","70802","10","Carolyn Coleman","BATON ROUGE"
"415","N",,"15TH","ST",,,"415 N 15TH ST","BATON ROUGE","70802","10","Carolyn Coleman","BATON ROUGE"
"750","S",,"15TH","ST",,,"750 S 15TH ST","BATON ROUGE","70802","10","Carolyn Coleman","BATON ROUGE"
"1655","N",,"15TH","ST",,,"1655 N 15TH ST","BATON ROUGE","70802","10","Carolyn Coleman","BATON ROUGE"
"1157","S",,"15TH","ST",,,"1157 S 15TH ST","BATON ROUGE","70802","10","Carolyn Coleman","BATON ROUGE"
"2149","N",,"15TH","ST",,,"2149 N 15TH ST","BATON ROUGE","70802","10","Carolyn Coleman","BATON ROUGE"
"618","N",,"15TH","ST",,,"618 N 15TH ST","BATON ROUGE","70802","10","Carolyn Coleman","BATON ROUGE"
"1846","N",,"15TH","ST",,,"1846 N 15TH ST","BATON ROUGE","70802","10","Carolyn Coleman","BATON ROUGE"
"1615","N",,"15TH","ST",,,"1615 N 15TH ST","BATON ROUGE","70802","10","Carolyn Coleman","BATON ROUGE"
"1714","N",,"15TH","ST",,,"1714 N 15TH ST","BATON ROUGE","70802","10","Carolyn Coleman","BATON ROUGE"
"307","S",,"15TH","ST",,,"307 S 15TH ST","BATON ROUGE","70802","10","Carolyn Coleman","BATON ROUGE"
"935","S",,"15TH","ST",,,"935 S 15TH ST","BATON ROUGE","70802","10","Carolyn Coleman","BATON ROUGE"
"2106","N",,"15TH","ST",,,"2106 N 15TH ST","BATON ROUGE","70802","10","Carolyn Coleman","BATON ROUGE"
"1836","N",,"15TH","ST",,,"1836 N 15TH ST","BATON ROUGE","70802","10","Carolyn Coleman","BATON ROUGE"
"558","S",,"15TH","ST",,,"558 S 15TH ST","BATON ROUGE","70802","10","Carolyn Coleman","BATON ROUGE"
"1734","N",,"15TH","ST",,,"1734 N 15TH ST","BATON ROUGE","70802","10","Carolyn Coleman","BATON ROUGE"
"1127","S",,"15TH","ST",,,"1127 S 15TH ST","BATON ROUGE","70802","10","Carolyn Coleman","BATON ROUGE"
"539","S",,"15TH","ST",,,"539 S 15TH ST","BATON ROUGE","70802","10","Carolyn Coleman","BATON ROUGE"
"2126","N",,"15TH","ST",,,"2126 N 15TH ST","BATON ROUGE","70802","10","Carolyn Coleman","BATON ROUGE"
"2129","N",,"15TH","ST",,,"2129 N 15TH ST","BATON ROUGE","70802","10","Carolyn Coleman","BATON ROUGE"
"100-500","S",,"15TH","ST",,,"100-500 S 15TH ST","BATON ROUGE","70802","10","Carolyn Coleman","BATON ROUGE"
"100-500","S",,"15TH","ST",,,"100-500 S 15TH ST","BATON ROUGE","70802","10","Carolyn Coleman","BATON ROUGE"
"100-500","S",,"15TH","ST",,,"100-500 S 15TH ST","BATON ROUGE","70802","10","Carolyn Coleman","BATON ROUGE"
"100-500","S",,"15TH","ST",,,"100-500 S 15TH ST","BATON ROUGE","70802","10","Carolyn Coleman","BATON ROUGE"
"100-500","S",,"15TH","ST",,,"100-500 S 15TH ST","BATON ROUGE","70802","10","Carolyn Coleman","BATON ROUGE"
"100-500","S",,"15TH","ST",,,"100-500 S 15TH ST","BATON ROUGE","70802","10","Carolyn Coleman","BATON ROUGE"
"100-500","S",,"15TH","ST",,,"100-500 S 15TH ST","BATON ROUGE","70802","10","Carolyn Coleman","BATON ROUGE"
"100-500","S",,"15TH","ST",,,"100-500 S 15TH ST","BATON ROUGE","70802","10","Carolyn Coleman","BATON ROUGE"
"100-500","S",,"15TH","ST",,,"100-500 S 15TH ST","BATON ROUGE","70802","10","Carolyn Coleman","BATON ROUGE"
"100-500","S",,"15TH","ST",,,"100-500 S 15TH ST","BATON ROUGE","70802","10","Carolyn Coleman","BATON ROUGE"
"100-500","S",,"15TH","ST",,,"100-500 S 15TH ST","BATON ROUGE","70802","10","Carolyn Coleman","BATON ROUGE"
"100-500","S",,"15TH","ST",,,"100-500 S 15TH ST","BATON ROUGE","70802","10","Carolyn Coleman","BATON ROUGE"
"100-500","S",,"15TH","ST",,,"100-500 S 15TH ST","BATON ROUGE","70802","10","Carolyn Coleman","BATON ROUGE"
"100-500","S",,"15TH","ST",,,"100-500 S 15TH ST","BATON ROUGE","70802","10","Carolyn Coleman","BATON ROUGE"
"1724","N",,"15TH","ST",,,"1724 N 15TH ST","BATON ROUGE","70802","10","Carolyn Coleman","BATON ROUGE"
"803","S",,"15TH","ST",,,"803 S 15TH ST","BATON ROUGE","70802","10","Carolyn Coleman","BATON ROUGE"
"704","N",,"15TH","ST",,,"704 N 15TH ST","BATON ROUGE","70802","10","Carolyn Coleman","BATON ROUGE"
"1147","S",,"15TH","ST",,,"1147 S 15TH ST","BATON ROUGE","70802","10","Carolyn Coleman","BATON ROUGE"
"610","N",,"15TH","ST",,,"610 N 15TH ST","BATON ROUGE","70802","10","Carolyn Coleman","BATON ROUGE"
"1757","N",,"15TH","ST",,,"1757 N 15TH ST","BATON ROUGE","70802","10","Carolyn Coleman","BATON ROUGE"
"646","S",,"15TH","ST",,,"646 S 15TH ST","BATON ROUGE","70802","10","Carolyn Coleman","BATON ROUGE"
"811","S",,"15TH","ST",,,"811 S 15TH ST","BATON ROUGE","70802","10","Carolyn Coleman","BATON ROUGE"
"1632","N",,"15TH","ST",,,"1632 N 15TH ST","BATON ROUGE","70802","10","Carolyn Coleman","BATON ROUGE"
"525","S",,"15TH","ST",,,"525 S 15TH ST","BATON ROUGE","70802","10","Carolyn Coleman","BATON ROUGE"
"800","S",,"15TH","ST",,,"800 S 15TH ST","BATON ROUGE","70802","10","Carolyn Coleman","BATON ROUGE"
"1829","N",,"15TH","ST",,,"1829 N 15TH ST","BATON ROUGE","70802","10","Carolyn Coleman","BATON ROUGE"
"698","S",,"15TH","ST",,,"698 S 15TH ST","BATON ROUGE","70802","10","Carolyn Coleman","BATON ROUGE"
"1645","N",,"15TH","ST",,,"1645 N 15TH ST","BATON ROUGE","70802","10","Carolyn Coleman","BATON ROUGE"
"2014","N",,"15TH","ST",,,"2014 N 15TH ST","BATON ROUGE","70802","10","Carolyn Coleman","BATON ROUGE"
"1932","N",,"15TH","ST",,,"1932 N 15TH ST","BATON ROUGE","70802","10","Carolyn Coleman","BATON ROUGE"
"655","S",,"15TH","ST",,,"655 S 15TH ST","BATON ROUGE","70802","10","Carolyn Coleman","BATON ROUGE"
"1111","S",,"15TH","ST",,,"1111 S 15TH ST","BATON ROUGE","70802","10","Carolyn Coleman","BATON ROUGE"
"915","S",,"15TH","ST",,,"915 S 15TH ST","BATON ROUGE","70802","10","Carolyn Coleman","BATON ROUGE"
"1652","N",,"15TH","ST",,,"1652 N 15TH ST","BATON ROUGE","70802","10","Carolyn Coleman","BATON ROUGE"
"1370","S",,"15TH","ST",,,"1370 S 15TH ST","BATON ROUGE","70802","10","Carolyn Coleman","BATON ROUGE"
"715","N",,"16TH","ST",,,"715 N 16TH ST","BATON ROUGE","70802","10","Carolyn Coleman","BATON ROUGE"
"727","N",,"16TH","ST",,,"727 N 16TH ST","BATON ROUGE","70802","10","Carolyn Coleman","BATON ROUGE"
"818","N",,"16TH","ST",,,"818 N 16TH ST","BATON ROUGE","70802","10","Carolyn Coleman","BATON ROUGE"
"631","S",,"16TH","ST",,,"631 S 16TH ST","BATON ROUGE","70802","10","Carolyn Coleman","BATON ROUGE"
"531","S",,"16TH","ST",,,"531 S 16TH ST","BATON ROUGE","70802","10","Carolyn Coleman","BATON ROUGE"
"649","S",,"16TH","ST",,,"649 S 16TH ST","BATON ROUGE","70802","10","Carolyn Coleman","BATON ROUGE"
"1726","N",,"16TH","ST",,,"1726 N 16TH ST","BATON ROUGE","70802","10","Carolyn Coleman","BATON ROUGE"
"1626","N",,"16TH","ST",,,"1626 N 16TH ST","BATON ROUGE","70802","10","Carolyn Coleman","BATON ROUGE"
"534","S",,"16TH","ST",,,"534 S 16TH ST","BATON ROUGE","70802","10","Carolyn Coleman","BATON ROUGE"
"519","S",,"16TH","ST",,,"519 S 16TH ST","BATON ROUGE","70802","10","Carolyn Coleman","BATON ROUGE"
"1746","N",,"16TH","ST",,,"1746 N 16TH ST","BATON ROUGE","70802","10","Carolyn Coleman","BATON ROUGE"
"810","N",,"16TH","ST",,,"810 N 16TH ST","BATON ROUGE","70802","10","Carolyn Coleman","BATON ROUGE"
"632","N",,"16TH","ST",,,"632 N 16TH ST","BATON ROUGE","70802","10","Carolyn Coleman","BATON ROUGE"
"2116","N",,"16TH","ST",,,"2116 N 16TH ST","BATON ROUGE","70802","10","Carolyn Coleman","BATON ROUGE"
"615","N",,"16TH","ST",,,"615 N 16TH ST","BATON ROUGE","70802","10","Carolyn Coleman","BATON ROUGE"
"608","S",,"16TH","ST",,,"608 S 16TH ST","BATON ROUGE","70802","10","Carolyn Coleman","BATON ROUGE"
"804","N",,"16TH","ST",,,"804 N 16TH ST","BATON ROUGE","70802","10","Carolyn Coleman","BATON ROUGE"
"520","S",,"16TH","ST",,,"520 S 16TH ST","BATON ROUGE","70802","10","Carolyn Coleman","BATON ROUGE"
"701","S",,"16TH","ST",,,"701 S 16TH ST","BATON ROUGE","70802","10","Carolyn Coleman","BATON ROUGE"
"2025","N",,"16TH","ST",,,"2025 N 16TH ST","BATON ROUGE","70802","10","Carolyn Coleman","BATON ROUGE"
"1201","S",,"16TH","ST",,,"1201 S 16TH ST","BATON ROUGE","70802","10","Carolyn Coleman","BATON ROUGE"
"524","S",,"16TH","ST",,,"524 S 16TH ST","BATON ROUGE","70802","10","Carolyn Coleman","BATON ROUGE"
"1643","N",,"16TH","ST",,,"1643 N 16TH ST","BATON ROUGE","70802","10","Carolyn Coleman","BATON ROUGE"
"2107","N",,"16TH","ST",,,"2107 N 16TH ST","BATON ROUGE","70802","10","Carolyn Coleman","BATON ROUGE"
"901","S",,"16TH","ST",,,"901 S 16TH ST","BATON ROUGE","70802","10","Carolyn Coleman","BATON ROUGE"
"1252","S",,"16TH","ST",,,"1252 S 16TH ST","BATON ROUGE","70802","10","Carolyn Coleman","BATON ROUGE"
"1715","N",,"16TH","ST",,,"1715 N 16TH ST","BATON ROUGE","70802","10","Carolyn Coleman","BATON ROUGE"
"1054","S",,"16TH","ST",,,"1054 S 16TH ST","BATON ROUGE","70802","10","Carolyn Coleman","BATON ROUGE"
"1644","N",,"16TH","ST",,,"1644 N 16TH ST","BATON ROUGE","70802","10","Carolyn Coleman","BATON ROUGE"
"2024","N",,"16TH","ST",,,"2024 N 16TH ST","BATON ROUGE","70802","10","Carolyn Coleman","BATON ROUGE"
"630","S",,"16TH","ST",,,"630 S 16TH ST","BATON ROUGE","70802","10","Carolyn Coleman","BATON ROUGE"
"650","N",,"16TH","ST",,,"650 N 16TH ST","BATON ROUGE","70802","10","Carolyn Coleman","BATON ROUGE"
"325","S",,"16TH","ST",,,"325 S 16TH ST","BATON ROUGE","70802","10","Carolyn Coleman","BATON ROUGE"
"628","S",,"16TH","ST",,,"628 S 16TH ST","BATON ROUGE","70802","10","Carolyn Coleman","BATON ROUGE"
"1923","N",,"16TH","ST",,,"1923 N 16TH ST","BATON ROUGE","70802","10","Carolyn Coleman","BATON ROUGE"
"1623","N",,"16TH","ST",,,"1623 N 16TH ST","BATON ROUGE","70802","10","Carolyn Coleman","BATON ROUGE"
"823","S",,"16TH","ST",,,"823 S 16TH ST","BATON ROUGE","70802","10","Carolyn Coleman","BATON ROUGE"
"1017","S",,"16TH","ST",,,"1017 S 16TH ST","BATON ROUGE","70802","10","Carolyn Coleman","BATON ROUGE"
"1943","N",,"16TH","ST",,,"1943 N 16TH ST","BATON ROUGE","70802","10","Carolyn Coleman","BATON ROUGE"
"731","N",,"16TH","ST",,,"731 N 16TH ST","BATON ROUGE","70802","10","Carolyn Coleman","BATON ROUGE"
"1233","S",,"16TH","ST",,,"1233 S 16TH ST","BATON ROUGE","70802","10","Carolyn Coleman","BATON ROUGE"
"636","S",,"16TH","ST",,,"636 S 16TH ST","BATON ROUGE","70802","10","Carolyn Coleman","BATON ROUGE"
"545","S",,"16TH","ST",,,"545 S 16TH ST","BATON ROUGE","70802","10","Carolyn Coleman","BATON ROUGE"
"817","S",,"16TH","ST",,,"817 S 16TH ST","BATON ROUGE","70802","10","Carolyn Coleman","BATON ROUGE"
"2044","N",,"16TH","ST",,,"2044 N 16TH ST","BATON ROUGE","70802","10","Carolyn Coleman","BATON ROUGE"
"1933","N",,"16TH","ST",,,"1933 N 16TH ST","BATON ROUGE","70802","10","Carolyn Coleman","BATON ROUGE"
"745","N",,"16TH","ST",,,"745 N 16TH ST","BATON ROUGE","70802","10","Carolyn Coleman","BATON ROUGE"
"323","S",,"16TH","ST",,,"323 S 16TH ST","BATON ROUGE","70802","10","Carolyn Coleman","BATON ROUGE"
"1736","N",,"16TH","ST",,,"1736 N 16TH ST","BATON ROUGE","70802","10","Carolyn Coleman","BATON ROUGE"
"923","S",,"16TH","ST",,,"923 S 16TH ST","BATON ROUGE","70802","10","Carolyn Coleman","BATON ROUGE"
"100-400","S",,"16TH","ST",,,"100-400 S 16TH ST","BATON ROUGE","70802","10","Carolyn Coleman","BATON ROUGE"
"100-400","S",,"16TH","ST",,,"100-400 S 16TH ST","BATON ROUGE","70802","10","Carolyn Coleman","BATON ROUGE"
"100-400","S",,"16TH","ST",,,"100-400 S 16TH ST","BATON ROUGE","70802","10","Carolyn Coleman","BATON ROUGE"
"100-400","S",,"16TH","ST",,,"100-400 S 16TH ST","BATON ROUGE","70802","10","Carolyn Coleman","BATON ROUGE"
"100-400","S",,"16TH","ST",,,"100-400 S 16TH ST","BATON ROUGE","70802","10","Carolyn Coleman","BATON ROUGE"
"100-400","S",,"16TH","ST",,,"100-400 S 16TH ST","BATON ROUGE","70802","10","Carolyn Coleman","BATON ROUGE"
"100-400","S",,"16TH","ST",,,"100-400 S 16TH ST","BATON ROUGE","70802","10","Carolyn Coleman","BATON ROUGE"
"100-400","S",,"16TH","ST",,,"100-400 S 16TH ST","BATON ROUGE","70802","10","Carolyn Coleman","BATON ROUGE"
"100-400","S",,"16TH","ST",,,"100-400 S 16TH ST","BATON ROUGE","70802","10","Carolyn Coleman","BATON ROUGE"
"100-400","S",,"16TH","ST",,,"100-400 S 16TH ST","BATON ROUGE","70802","10","Carolyn Coleman","BATON ROUGE"
"100-400","S",,"16TH","ST",,,"100-400 S 16TH ST","BATON ROUGE","70802","10","Carolyn Coleman","BATON ROUGE"
"100-400","S",,"16TH","ST",,,"100-400 S 16TH ST","BATON ROUGE","70802","10","Carolyn Coleman","BATON ROUGE"
"100-400","S",,"16TH","ST",,,"100-400 S 16TH ST","BATON ROUGE","70802","10","Carolyn Coleman","BATON ROUGE"
"100-400","S",,"16TH","ST",,,"100-400 S 16TH ST","BATON ROUGE","70802","10","Carolyn Coleman","BATON ROUGE"
"100-400","S",,"16TH","ST",,,"100-400 S 16TH ST","BATON ROUGE","70802","10","Carolyn Coleman","BATON ROUGE"
"100-400","S",,"16TH","ST",,,"100-400 S 16TH ST","BATON ROUGE","70802","10","Carolyn Coleman","BATON ROUGE"
"100-400","S",,"16TH","ST",,,"100-400 S 16TH ST","BATON ROUGE","70802","10","Carolyn Coleman","BATON ROUGE"
"928","S",,"16TH","ST",,,"928 S 16TH ST","BATON ROUGE","70802","10","Carolyn Coleman","BATON ROUGE"
"1827","N",,"16TH","ST",,,"1827 N 16TH ST","BATON ROUGE","70802","10","Carolyn Coleman","BATON ROUGE"
"525","S",,"16TH","ST",,,"525 S 16TH ST","BATON ROUGE","70802","10","Carolyn Coleman","BATON ROUGE"
"605","S",,"16TH","ST",,,"605 S 16TH ST","BATON ROUGE","70802","10","Carolyn Coleman","BATON ROUGE"
"1633","N",,"16TH","ST",,,"1633 N 16TH ST","BATON ROUGE","70802","10","Carolyn Coleman","BATON ROUGE"
"739","S",,"16TH","ST",,,"739 S 16TH ST","BATON ROUGE","70802","10","Carolyn Coleman","BATON ROUGE"
"677","S",,"16TH","ST",,,"677 S 16TH ST","BATON ROUGE","70802","10","Carolyn Coleman","BATON ROUGE"
"1606","N",,"16TH","ST",,,"1606 N 16TH ST","BATON ROUGE","70802","10","Carolyn Coleman","BATON ROUGE"
"825","S",,"16TH","ST",,,"825 S 16TH ST","BATON ROUGE","70802","10","Carolyn Coleman","BATON ROUGE"
"2136","N",,"16TH","ST",,,"2136 N 16TH ST","BATON ROUGE","70802","10","Carolyn Coleman","BATON ROUGE"
"603","S",,"16TH","ST",,,"603 S 16TH ST","BATON ROUGE","70802","10","Carolyn Coleman","BATON ROUGE"
"151","S",,"16TH","ST",,,"151 S 16TH ST","BATON ROUGE","70802","10","Carolyn Coleman","BATON ROUGE"
"2106","N",,"16TH","ST",,,"2106 N 16TH ST","BATON ROUGE","70802","10","Carolyn Coleman","BATON ROUGE"
"1944","N",,"16TH","ST",,,"1944 N 16TH ST","BATON ROUGE","70802","10","Carolyn Coleman","BATON ROUGE"
"2014","N",,"16TH","ST",,,"2014 N 16TH ST","BATON ROUGE","70802","10","Carolyn Coleman","BATON ROUGE"
"2004","N",,"16TH","ST",,,"2004 N 16TH ST","BATON ROUGE","70802","10","Carolyn Coleman","BATON ROUGE"
"1603","N",,"16TH","ST",,,"1603 N 16TH ST","BATON ROUGE","70802","10","Carolyn Coleman","BATON ROUGE"
"723","N",,"16TH","ST",,,"723 N 16TH ST","BATON ROUGE","70802","10","Carolyn Coleman","BATON ROUGE"
"1904","N",,"16TH","ST",,,"1904 N 16TH ST","BATON ROUGE","70802","10","Carolyn Coleman","BATON ROUGE"
"1238","S",,"16TH","ST",,,"1238 S 16TH ST","BATON ROUGE","70802","10","Carolyn Coleman","BATON ROUGE"
"1055","S",,"16TH","ST",,,"1055 S 16TH ST","BATON ROUGE","70802","10","Carolyn Coleman","BATON ROUGE"
"1704","N",,"16TH","ST",,,"1704 N 16TH ST","BATON ROUGE","70802","10","Carolyn Coleman","BATON ROUGE"
"1914","N",,"16TH","ST",,,"1914 N 16TH ST","BATON ROUGE","70802","10","Carolyn Coleman","BATON ROUGE"
"841","S",,"16TH","ST",,,"841 S 16TH ST","BATON ROUGE","70802","10","Carolyn Coleman","BATON ROUGE"
"814","N",,"16TH","ST",,,"814 N 16TH ST","BATON ROUGE","70802","10","Carolyn Coleman","BATON ROUGE"
"1807","N",,"16TH","ST",,,"1807 N 16TH ST","BATON ROUGE","70802","10","Carolyn Coleman","BATON ROUGE"
"1924","N",,"16TH","ST",,,"1924 N 16TH ST","BATON ROUGE","70802","10","Carolyn Coleman","BATON ROUGE"
"2015","N",,"16TH","ST",,,"2015 N 16TH ST","BATON ROUGE","70802","10","Carolyn Coleman","BATON ROUGE"
"510","S",,"16TH","ST",,,"510 S 16TH ST","BATON ROUGE","70802","10","Carolyn Coleman","BATON ROUGE"
"1634","N",,"16TH","ST",,,"1634 N 16TH ST","BATON ROUGE","70802","10","Carolyn Coleman","BATON ROUGE"
"807","S",,"16TH","ST",,,"807 S 16TH ST","BATON ROUGE","70802","10","Carolyn Coleman","BATON ROUGE"
"838","S",,"16TH","ST",,,"838 S 16TH ST","BATON ROUGE","70802","10","Carolyn Coleman","BATON ROUGE"
"1616","N",,"16TH","ST",,,"1616 N 16TH ST","BATON ROUGE","70802","10","Carolyn Coleman","BATON ROUGE"
"2005","N",,"16TH","ST",,,"2005 N 16TH ST","BATON ROUGE","70802","10","Carolyn Coleman","BATON ROUGE"
"535","S",,"16TH","ST",,,"535 S 16TH ST","BATON ROUGE","70802","10","Carolyn Coleman","BATON ROUGE"
"1242","S",,"16TH","ST",,,"1242 S 16TH ST","BATON ROUGE","70802","10","Carolyn Coleman","BATON ROUGE"
"606","S",,"16TH","ST",,,"606 S 16TH ST","BATON ROUGE","70802","10","Carolyn Coleman","BATON ROUGE"
"729","S",,"16TH","ST",,,"729 S 16TH ST","BATON ROUGE","70802","10","Carolyn Coleman","BATON ROUGE"
"1654","N",,"16TH","ST",,,"1654 N 16TH ST","BATON ROUGE","70802","10","Carolyn Coleman","BATON ROUGE"
"1258","S",,"16TH","ST",,,"1258 S 16TH ST","BATON ROUGE","70802","10","Carolyn Coleman","BATON ROUGE"
"1706","N",,"16TH","ST",,,"1706 N 16TH ST","BATON ROUGE","70802","10","Carolyn Coleman","BATON ROUGE"
"305","S",,"16TH","ST",,,"305 S 16TH ST","BATON ROUGE","70802","10","Carolyn Coleman","BATON ROUGE"
"1847","N",,"16TH","ST",,,"1847 N 16TH ST","BATON ROUGE","70802","10","Carolyn Coleman","BATON ROUGE"
"1745","N",,"16TH","ST",,,"1745 N 16TH ST","BATON ROUGE","70802","10","Carolyn Coleman","BATON ROUGE"
"1735","N",,"16TH","ST",,,"1735 N 16TH ST","BATON ROUGE","70802","10","Carolyn Coleman","BATON ROUGE"
"912","S",,"16TH","ST",,,"912 S 16TH ST","BATON ROUGE","70802","10","Carolyn Coleman","BATON ROUGE"
"624","S",,"16TH","ST",,,"624 S 16TH ST","BATON ROUGE","70802","10","Carolyn Coleman","BATON ROUGE"
"703","S",,"16TH","ST",,,"703 S 16TH ST","BATON ROUGE","70802","10","Carolyn Coleman","BATON ROUGE"
"2117","N",,"16TH","ST",,,"2117 N 16TH ST","BATON ROUGE","70802","10","Carolyn Coleman","BATON ROUGE"
"2126","N",,"16TH","ST",,,"2126 N 16TH ST","BATON ROUGE","70802","10","Carolyn Coleman","BATON ROUGE"
"723","S",,"16TH","ST",,,"723 S 16TH ST","BATON ROUGE","70802","10","Carolyn Coleman","BATON ROUGE"
"1002","S",,"16TH","ST",,,"1002 S 16TH ST","BATON ROUGE","70802","10","Carolyn Coleman","BATON ROUGE"
"1846","N",,"16TH","ST",,,"1846 N 16TH ST","BATON ROUGE","70802","10","Carolyn Coleman","BATON ROUGE"
"T 621","N",,"16TH","ST",,,"T 621 N 16TH ST","BATON ROUGE","70802","10","Carolyn Coleman","BATON ROUGE"
"1613","N",,"16TH","ST",,,"1613 N 16TH ST","BATON ROUGE","70802","10","Carolyn Coleman","BATON ROUGE"
"1755","N",,"16TH","ST",,,"1755 N 16TH ST","BATON ROUGE","70802","10","Carolyn Coleman","BATON ROUGE"
"629","N",,"16TH","ST",,,"629 N 16TH ST","BATON ROUGE","70802","10","Carolyn Coleman","BATON ROUGE"
"814","S",,"16TH","ST",,,"814 S 16TH ST","BATON ROUGE","70802","10","Carolyn Coleman","BATON ROUGE"
"2137","N",,"16TH","ST",,,"2137 N 16TH ST","BATON ROUGE","70802","10","Carolyn Coleman","BATON ROUGE"
"1031","S",,"16TH","ST",,,"1031 S 16TH ST","BATON ROUGE","70802","10","Carolyn Coleman","BATON ROUGE"
"2045","N",,"16TH","ST",,,"2045 N 16TH ST","BATON ROUGE","70802","10","Carolyn Coleman","BATON ROUGE"
"1817","N",,"16TH","ST",,,"1817 N 16TH ST","BATON ROUGE","70802","10","Carolyn Coleman","BATON ROUGE"
"2035","N",,"16TH","ST",,,"2035 N 16TH ST","BATON ROUGE","70802","10","Carolyn Coleman","BATON ROUGE"
"200-300","S",,"16TH","ST",,,"200-300 S 16TH ST","BATON ROUGE","70802","10","Carolyn Coleman","BATON ROUGE"
"200-300","S",,"16TH","ST",,,"200-300 S 16TH ST","BATON ROUGE","70802","10","Carolyn Coleman","BATON ROUGE"
"200-300","S",,"16TH","ST",,,"200-300 S 16TH ST","BATON ROUGE","70802","10","Carolyn Coleman","BATON ROUGE"
"1826","N",,"16TH","ST",,,"1826 N 16TH ST","BATON ROUGE","70802","10","Carolyn Coleman","BATON ROUGE"
"634","S",,"16TH","ST",,,"634 S 16TH ST","BATON ROUGE","70802","10","Carolyn Coleman","BATON ROUGE"
"1266","S",,"16TH","ST",,,"1266 S 16TH ST","BATON ROUGE","70802","10","Carolyn Coleman","BATON ROUGE"
"1806","N",,"16TH","ST",,,"1806 N 16TH ST","BATON ROUGE","70802","10","Carolyn Coleman","BATON ROUGE"
"541","S",,"16TH","ST",,,"541 S 16TH ST","BATON ROUGE","70802","10","Carolyn Coleman","BATON ROUGE"
"1934","N",,"16TH","ST",,,"1934 N 16TH ST","BATON ROUGE","70802","10","Carolyn Coleman","BATON ROUGE"
"822","N",,"16TH","ST",,,"822 N 16TH ST","BATON ROUGE","70802","10","Carolyn Coleman","BATON ROUGE"
"725","S",,"16TH","ST",,,"725 S 16TH ST","BATON ROUGE","70802","10","Carolyn Coleman","BATON ROUGE"
"635","N",,"16TH","ST",,,"635 N 16TH ST","BATON ROUGE","70802","10","Carolyn Coleman","BATON ROUGE"
"900","S",,"16TH","ST",,,"900 S 16TH ST","BATON ROUGE","70802","10","Carolyn Coleman","BATON ROUGE"
"1226","S",,"16TH","ST",,,"1226 S 16TH ST","BATON ROUGE","70802","10","Carolyn Coleman","BATON ROUGE"
"322","S",,"16TH","ST",,,"322 S 16TH ST","BATON ROUGE","70802","10","Carolyn Coleman","BATON ROUGE"
"1837","N",,"16TH","ST",,,"1837 N 16TH ST","BATON ROUGE","70802","10","Carolyn Coleman","BATON ROUGE"
"1953","N",,"16TH","ST",,,"1953 N 16TH ST","BATON ROUGE","70802","10","Carolyn Coleman","BATON ROUGE"
"735","N",,"16TH","ST",,,"735 N 16TH ST","BATON ROUGE","70802","10","Carolyn Coleman","BATON ROUGE"
"315","S",,"16TH","ST",,,"315 S 16TH ST","BATON ROUGE","70802","10","Carolyn Coleman","BATON ROUGE"
"1006","S",,"16TH","ST",,,"1006 S 16TH ST","BATON ROUGE","70802","10","Carolyn Coleman","BATON ROUGE"
"1716","N",,"16TH","ST",,,"1716 N 16TH ST","BATON ROUGE","70802","10","Carolyn Coleman","BATON ROUGE"
"902","S",,"16TH","ST",,,"902 S 16TH ST","BATON ROUGE","70802","10","Carolyn Coleman","BATON ROUGE"
"528","S",,"16TH","ST",,,"528 S 16TH ST","BATON ROUGE","70802","10","Carolyn Coleman","BATON ROUGE"
"655","S",,"16TH","ST",,,"655 S 16TH ST","BATON ROUGE","70802","10","Carolyn Coleman","BATON ROUGE"
"1050","S",,"16TH","ST",,,"1050 S 16TH ST","BATON ROUGE","70802","10","Carolyn Coleman","BATON ROUGE"
"915","S",,"16TH","ST",,,"915 S 16TH ST","BATON ROUGE","70802","10","Carolyn Coleman","BATON ROUGE"
"818","S",,"16TH","ST",,,"818 S 16TH ST","BATON ROUGE","70802","10","Carolyn Coleman","BATON ROUGE"
"1251","S",,"16TH","ST",,,"1251 S 16TH ST","BATON ROUGE","70802","10","Carolyn Coleman","BATON ROUGE"
"1212","S",,"16TH","ST",,,"1212 S 16TH ST","BATON ROUGE","70802","10","Carolyn Coleman","BATON ROUGE"
"711","S",,"16TH","ST",,,"711 S 16TH ST","BATON ROUGE","70802","10","Carolyn Coleman","BATON ROUGE"
"1903","N",,"16TH","ST",,,"1903 N 16TH ST","BATON ROUGE","70802","10","Carolyn Coleman","BATON ROUGE"
"650","S",,"16TH","ST",,,"650 S 16TH ST","BATON ROUGE","70802","10","Carolyn Coleman","BATON ROUGE"
"1224","S",,"16TH","ST",,,"1224 S 16TH ST","BATON ROUGE","70802","10","Carolyn Coleman","BATON ROUGE"
"640","N",,"16TH","ST",,,"640 N 16TH ST","BATON ROUGE","70802","10","Carolyn Coleman","BATON ROUGE"
"800","S",,"16TH","ST",,,"800 S 16TH ST","BATON ROUGE","70802","10","Carolyn Coleman","BATON ROUGE"
"1211","S",,"16TH","ST",,,"1211 S 16TH ST","BATON ROUGE","70802","10","Carolyn Coleman","BATON ROUGE"
"720","N",,"16TH","ST",,,"720 N 16TH ST","BATON ROUGE","70802","10","Carolyn Coleman","BATON ROUGE"
"1248","S",,"16TH","ST",,,"1248 S 16TH ST","BATON ROUGE","70802","10","Carolyn Coleman","BATON ROUGE"
"1257","S",,"16TH","ST",,,"1257 S 16TH ST","BATON ROUGE","70802","10","Carolyn Coleman","BATON ROUGE"
"1816","N",,"16TH","ST",,,"1816 N 16TH ST","BATON ROUGE","70802","10","Carolyn Coleman","BATON ROUGE"
"100-200","S",,"16TH","ST",,,"100-200 S 16TH ST","BATON ROUGE","70802","10","Carolyn Coleman","BATON ROUGE"
"100-200","S",,"16TH","ST",,,"100-200 S 16TH ST","BATON ROUGE","70802","10","Carolyn Coleman","BATON ROUGE"
"2147","N",,"16TH","ST",,,"2147 N 16TH ST","BATON ROUGE","70802","10","Carolyn Coleman","BATON ROUGE"
"618","S",,"16TH","ST",,,"618 S 16TH ST","BATON ROUGE","70802","10","Carolyn Coleman","BATON ROUGE"
"1653","N",,"16TH","ST",,,"1653 N 16TH ST","BATON ROUGE","70802","10","Carolyn Coleman","BATON ROUGE"
"911","S",,"16TH","ST",,,"911 S 16TH ST","BATON ROUGE","70802","10","Carolyn Coleman","BATON ROUGE"
"642","N",,"16TH","ST",,,"642 N 16TH ST","BATON ROUGE","70802","10","Carolyn Coleman","BATON ROUGE"
"739","N",,"16TH","ST",,,"739 N 16TH ST","BATON ROUGE","70802","10","Carolyn Coleman","BATON ROUGE"
"508","S",,"16TH","ST",,,"508 S 16TH ST","BATON ROUGE","70802","10","Carolyn Coleman","BATON ROUGE"
"732","N",,"16TH","ST",,,"732 N 16TH ST","BATON ROUGE","70802","10","Carolyn Coleman","BATON ROUGE"
"526","S",,"16TH","ST",,,"526 S 16TH ST","BATON ROUGE","70802","10","Carolyn Coleman","BATON ROUGE"
"1913","N",,"16TH","ST",,,"1913 N 16TH ST","BATON ROUGE","70802","10","Carolyn Coleman","BATON ROUGE"
"1756","N",,"16TH","ST",,,"1756 N 16TH ST","BATON ROUGE","70802","10","Carolyn Coleman","BATON ROUGE"
"633","N",,"16TH","ST",,,"633 N 16TH ST","BATON ROUGE","70802","10","Carolyn Coleman","BATON ROUGE"
"1259","S",,"16TH","ST",,,"1259 S 16TH ST","BATON ROUGE","70802","10","Carolyn Coleman","BATON ROUGE"
"831","S",,"16TH","ST",,,"831 S 16TH ST","BATON ROUGE","70802","10","Carolyn Coleman","BATON ROUGE"
"1725","N",,"16TH","ST",,,"1725 N 16TH ST","BATON ROUGE","70802","10","Carolyn Coleman","BATON ROUGE"
"2125","N",,"16TH","ST",,,"2125 N 16TH ST","BATON ROUGE","70802","10","Carolyn Coleman","BATON ROUGE"
"2034","N",,"16TH","ST",,,"2034 N 16TH ST","BATON ROUGE","70802","10","Carolyn Coleman","BATON ROUGE"
"1275","S",,"16TH","ST",,,"1275 S 16TH ST","BATON ROUGE","70802","10","Carolyn Coleman","BATON ROUGE"
"803","S",,"16TH","ST",,,"803 S 16TH ST","BATON ROUGE","70802","10","Carolyn Coleman","BATON ROUGE"
"812","S",,"16TH","ST",,,"812 S 16TH ST","BATON ROUGE","70802","10","Carolyn Coleman","BATON ROUGE"
"736","N",,"16TH","ST",,,"736 N 16TH ST","BATON ROUGE","70802","10","Carolyn Coleman","BATON ROUGE"
"1707","N",,"16TH","ST",,,"1707 N 16TH ST","BATON ROUGE","70802","10","Carolyn Coleman","BATON ROUGE"
"130","S",,"16TH","ST",,,"130 S 16TH ST","BATON ROUGE","70802","10","Carolyn Coleman","BATON ROUGE"
"1836","N",,"16TH","ST",,,"1836 N 16TH ST","BATON ROUGE","70802","10","Carolyn Coleman","BATON ROUGE"
"1954","N",,"16TH","ST",,,"1954 N 16TH ST","BATON ROUGE","70802","10","Carolyn Coleman","BATON ROUGE"
"2146","N",,"16TH","ST",,,"2146 N 16TH ST","BATON ROUGE","70802","10","Carolyn Coleman","BATON ROUGE"
"514","S",,"16TH","ST",,,"514 S 16TH ST","BATON ROUGE","70802","10","Carolyn Coleman","BATON ROUGE"
"1405","S",,"17TH","ST",,,"1405 S 17TH ST","BATON ROUGE","70802","10","Carolyn Coleman","BATON ROUGE"
"1415","S",,"17TH","ST",,,"1415 S 17TH ST","BATON ROUGE","70802","10","Carolyn Coleman","BATON ROUGE"
"526","S",,"17TH","ST",,,"526 S 17TH ST","BATON ROUGE","70802","10","Carolyn Coleman","BATON ROUGE"
"1277","S",,"17TH","ST",,,"1277 S 17TH ST","BATON ROUGE","70802","10","Carolyn Coleman","BATON ROUGE"
"532","S",,"17TH","ST",,,"532 S 17TH ST","BATON ROUGE","70802","10","Carolyn Coleman","BATON ROUGE"
"1566","S",,"17TH","ST",,,"1566 S 17TH ST","BATON ROUGE","70802","10","Carolyn Coleman","BATON ROUGE"
"1271","S",,"17TH","ST",,,"1271 S 17TH ST","BATON ROUGE","70802","10","Carolyn Coleman","BATON ROUGE"
"1745","N",,"17TH","ST",,,"1745 N 17TH ST","BATON ROUGE","70802","10","Carolyn Coleman","BATON ROUGE"
"1265","S",,"17TH","ST",,,"1265 S 17TH ST","BATON ROUGE","70802","10","Carolyn Coleman","BATON ROUGE"
"2136","N",,"17TH","ST",,,"2136 N 17TH ST","BATON ROUGE","70802","10","Carolyn Coleman","BATON ROUGE"
"1214","S",,"17TH","ST",,,"1214 S 17TH ST","BATON ROUGE","70802","10","Carolyn Coleman","BATON ROUGE"
"810","S",,"17TH","ST",,,"810 S 17TH ST","BATON ROUGE","70802","10","Carolyn Coleman","BATON ROUGE"
"541","N",,"17TH","ST",,,"541 N 17TH ST","BATON ROUGE","70802","10","Carolyn Coleman","BATON ROUGE"
"840","S",,"17TH","ST",,,"840 S 17TH ST","BATON ROUGE","70802","10","Carolyn Coleman","BATON ROUGE"
"753","N",,"17TH","ST",,,"753 N 17TH ST","BATON ROUGE","70802","10","Carolyn Coleman","BATON ROUGE"
"2045","N",,"17TH","ST",,,"2045 N 17TH ST","BATON ROUGE","70802","10","Carolyn Coleman","BATON ROUGE"
"745","S",,"17TH","ST",,,"745 S 17TH ST","BATON ROUGE","70802","10","Carolyn Coleman","BATON ROUGE"
"715","S",,"17TH","ST",,,"715 S 17TH ST","BATON ROUGE","70802","10","Carolyn Coleman","BATON ROUGE"
"2134","N",,"17TH","ST",,,"2134 N 17TH ST","BATON ROUGE","70802","10","Carolyn Coleman","BATON ROUGE"
"1626","N",,"17TH","ST",,,"1626 N 17TH ST","BATON ROUGE","70802","10","Carolyn Coleman","BATON ROUGE"
"2145","N",,"17TH","ST",,,"2145 N 17TH ST","BATON ROUGE","70802","10","Carolyn Coleman","BATON ROUGE"
"1716","N",,"17TH","ST",,,"1716 N 17TH ST","BATON ROUGE","70802","10","Carolyn Coleman","BATON ROUGE"
"740","S",,"17TH","ST",,,"740 S 17TH ST","BATON ROUGE","70802","10","Carolyn Coleman","BATON ROUGE"
"820","S",,"17TH","ST",,,"820 S 17TH ST","BATON ROUGE","70802","10","Carolyn Coleman","BATON ROUGE"
"546","S",,"17TH","ST",,,"546 S 17TH ST","BATON ROUGE","70802","10","Carolyn Coleman","BATON ROUGE"
"1455","S",,"17TH","ST",,,"1455 S 17TH ST","BATON ROUGE","70802","10","Carolyn Coleman","BATON ROUGE"
"1816","N",,"17TH","ST",,,"1816 N 17TH ST","BATON ROUGE","70802","10","Carolyn Coleman","BATON ROUGE"
"1616","N",,"17TH","ST",,,"1616 N 17TH ST","BATON ROUGE","70802","10","Carolyn Coleman","BATON ROUGE"
"210","S",,"17TH","ST",,,"210 S 17TH ST","BATON ROUGE","70802","10","Carolyn Coleman","BATON ROUGE"
"1327","S",,"17TH","ST",,,"1327 S 17TH ST","BATON ROUGE","70802","10","Carolyn Coleman","BATON ROUGE"
"431","S",,"17TH","ST",,,"431 S 17TH ST","BATON ROUGE","70802","10","Carolyn Coleman","BATON ROUGE"
"1216","S",,"17TH","ST",,,"1216 S 17TH ST","BATON ROUGE","70802","10","Carolyn Coleman","BATON ROUGE"
"1804","N",,"17TH","ST",,,"1804 N 17TH ST","BATON ROUGE","70802","10","Carolyn Coleman","BATON ROUGE"
"909","N",,"17TH","ST",,,"909 N 17TH ST","BATON ROUGE","70802","10","Carolyn Coleman","BATON ROUGE"
"708","S",,"17TH","ST",,,"708 S 17TH ST","BATON ROUGE","70802","10","Carolyn Coleman","BATON ROUGE"
"700","N",,"17TH","ST",,,"700 N 17TH ST","BATON ROUGE","70802","10","Carolyn Coleman","BATON ROUGE"
"2004","N",,"17TH","ST",,,"2004 N 17TH ST","BATON ROUGE","70802","10","Carolyn Coleman","BATON ROUGE"
"226","S",,"17TH","ST",,,"226 S 17TH ST","BATON ROUGE","70802","10","Carolyn Coleman","BATON ROUGE"
"1826","N",,"17TH","ST",,,"1826 N 17TH ST","BATON ROUGE","70802","10","Carolyn Coleman","BATON ROUGE"
"702","S",,"17TH","ST",,,"702 S 17TH ST","BATON ROUGE","70802","10","Carolyn Coleman","BATON ROUGE"
"900-1000","N",,"17TH","ST",,,"900-1000 N 17TH ST","BATON ROUGE","70802","10","Carolyn Coleman","BATON ROUGE"
"900-1000","N",,"17TH","ST",,,"900-1000 N 17TH ST","BATON ROUGE","70802","10","Carolyn Coleman","BATON ROUGE"
"900-1000","N",,"17TH","ST",,,"900-1000 N 17TH ST","BATON ROUGE","70802","10","Carolyn Coleman","BATON ROUGE"
"2005","N",,"17TH","ST",,,"2005 N 17TH ST","BATON ROUGE","70802","10","Carolyn Coleman","BATON ROUGE"
"1430","S",,"17TH","ST",,,"1430 S 17TH ST","BATON ROUGE","70802","10","Carolyn Coleman","BATON ROUGE"
"2138","N",,"17TH","ST",,,"2138 N 17TH ST","BATON ROUGE","70802","10","Carolyn Coleman","BATON ROUGE"
"1656","N",,"17TH","ST",,,"1656 N 17TH ST","BATON ROUGE","70802","10","Carolyn Coleman","BATON ROUGE"
"703","S",,"17TH","ST",,,"703 S 17TH ST","BATON ROUGE","70802","10","Carolyn Coleman","BATON ROUGE"
"1337","S",,"17TH","ST",,,"1337 S 17TH ST","BATON ROUGE","70802","10","Carolyn Coleman","BATON ROUGE"
"828","S",,"17TH","ST",,,"828 S 17TH ST","BATON ROUGE","70802","10","Carolyn Coleman","BATON ROUGE"
"728","S",,"17TH","ST",,,"728 S 17TH ST","BATON ROUGE","70802","10","Carolyn Coleman","BATON ROUGE"
"390","S",,"17TH","ST",,,"390 S 17TH ST","BATON ROUGE","70802","10","Carolyn Coleman","BATON ROUGE"
"1331","S",,"17TH","ST",,,"1331 S 17TH ST","BATON ROUGE","70802","10","Carolyn Coleman","BATON ROUGE"
"1955","N",,"17TH","ST",,,"1955 N 17TH ST","BATON ROUGE","70802","10","Carolyn Coleman","BATON ROUGE"
"2035","N",,"17TH","ST",,,"2035 N 17TH ST","BATON ROUGE","70802","10","Carolyn Coleman","BATON ROUGE"
"243","S",,"17TH","ST",,,"243 S 17TH ST","BATON ROUGE","70802","10","Carolyn Coleman","BATON ROUGE"
"1655","N",,"17TH","ST",,,"1655 N 17TH ST","BATON ROUGE","70802","10","Carolyn Coleman","BATON ROUGE"
"1335","S",,"17TH","ST",,,"1335 S 17TH ST","BATON ROUGE","70802","10","Carolyn Coleman","BATON ROUGE"
"2046","N",,"17TH","ST",,,"2046 N 17TH ST","BATON ROUGE","70802","10","Carolyn Coleman","BATON ROUGE"
"1332","S",,"17TH","ST",,,"1332 S 17TH ST","BATON ROUGE","70802","10","Carolyn Coleman","BATON ROUGE"
"500-600","S",,"17TH","ST",,,"500-600 S 17TH ST","BATON ROUGE","70802","10","Carolyn Coleman","BATON ROUGE"
"500-600","S",,"17TH","ST",,,"500-600 S 17TH ST","BATON ROUGE","70802","10","Carolyn Coleman","BATON ROUGE"
"1251","S",,"17TH","ST",,,"1251 S 17TH ST","BATON ROUGE","70802","10","Carolyn Coleman","BATON ROUGE"
"1736","N",,"17TH","ST",,,"1736 N 17TH ST","BATON ROUGE","70802","10","Carolyn Coleman","BATON ROUGE"
"1217","S",,"17TH","ST",,,"1217 S 17TH ST","BATON ROUGE","70802","10","Carolyn Coleman","BATON ROUGE"
"232","N",,"17TH","ST",,,"232 N 17TH ST","BATON ROUGE","70802","10","Carolyn Coleman","BATON ROUGE"
"2044","N",,"17TH","ST",,,"2044 N 17TH ST","BATON ROUGE","70802","10","Carolyn Coleman","BATON ROUGE"
"755","S",,"17TH","ST",,,"755 S 17TH ST","BATON ROUGE","70802","10","Carolyn Coleman","BATON ROUGE"
"625","N",,"17TH","ST",,,"625 N 17TH ST","BATON ROUGE","70802","10","Carolyn Coleman","BATON ROUGE"
"836","S",,"17TH","ST",,,"836 S 17TH ST","BATON ROUGE","70802","10","Carolyn Coleman","BATON ROUGE"
"926","N",,"17TH","ST",,,"926 N 17TH ST","BATON ROUGE","70802","10","Carolyn Coleman","BATON ROUGE"
"1229","S",,"17TH","ST",,,"1229 S 17TH ST","BATON ROUGE","70802","10","Carolyn Coleman","BATON ROUGE"
"214","N",,"17TH","ST",,,"214 N 17TH ST","BATON ROUGE","70802","10","Carolyn Coleman","BATON ROUGE"
"758","S",,"17TH","ST",,,"758 S 17TH ST","BATON ROUGE","70802","10","Carolyn Coleman","BATON ROUGE"
"537","S",,"17TH","ST",,,"537 S 17TH ST","BATON ROUGE","70802","10","Carolyn Coleman","BATON ROUGE"
"312","S",,"17TH","ST",,,"312 S 17TH ST","BATON ROUGE","70802","10","Carolyn Coleman","BATON ROUGE"
"903","N",,"17TH","ST",,,"903 N 17TH ST","BATON ROUGE","70802","10","Carolyn Coleman","BATON ROUGE"
"748","S",,"17TH","ST",,,"748 S 17TH ST","BATON ROUGE","70802","10","Carolyn Coleman","BATON ROUGE"
"1646","N",,"17TH","ST",,,"1646 N 17TH ST","BATON ROUGE","70802","10","Carolyn Coleman","BATON ROUGE"
"1272","S",,"17TH","ST",,,"1272 S 17TH ST","BATON ROUGE","70802","10","Carolyn Coleman","BATON ROUGE"
"823","S",,"17TH","ST",,,"823 S 17TH ST","BATON ROUGE","70802","10","Carolyn Coleman","BATON ROUGE"
"327","S",,"17TH","ST",,,"327 S 17TH ST","BATON ROUGE","70802","10","Carolyn Coleman","BATON ROUGE"
"1920","N",,"17TH","ST",,,"1920 N 17TH ST","BATON ROUGE","70802","10","Carolyn Coleman","BATON ROUGE"
"1704","N",,"17TH","ST",,,"1704 N 17TH ST","BATON ROUGE","70802","10","Carolyn Coleman","BATON ROUGE"
"725","N",,"17TH","ST",,,"725 N 17TH ST","BATON ROUGE","70802","10","Carolyn Coleman","BATON ROUGE"
"733","S",,"17TH","ST",,,"733 S 17TH ST","BATON ROUGE","70802","10","Carolyn Coleman","BATON ROUGE"
"2014","N",,"17TH","ST",,,"2014 N 17TH ST","BATON ROUGE","70802","10","Carolyn Coleman","BATON ROUGE"
"1333","S",,"17TH","ST",,,"1333 S 17TH ST","BATON ROUGE","70802","10","Carolyn Coleman","BATON ROUGE"
"1418","S",,"17TH","ST",,,"1418 S 17TH ST","BATON ROUGE","70802","10","Carolyn Coleman","BATON ROUGE"
"2026","N",,"17TH","ST",,,"2026 N 17TH ST","BATON ROUGE","70802","10","Carolyn Coleman","BATON ROUGE"
"1645","N",,"17TH","ST",,,"1645 N 17TH ST","BATON ROUGE","70802","10","Carolyn Coleman","BATON ROUGE"
"425","S",,"17TH","ST",,,"425 S 17TH ST","BATON ROUGE","70802","10","Carolyn Coleman","BATON ROUGE"
"724","S",,"17TH","ST",,,"724 S 17TH ST","BATON ROUGE","70802","10","Carolyn Coleman","BATON ROUGE"
"2125","N",,"17TH","ST",,,"2125 N 17TH ST","BATON ROUGE","70802","10","Carolyn Coleman","BATON ROUGE"
"1230","S",,"17TH","ST",,,"1230 S 17TH ST","BATON ROUGE","70802","10","Carolyn Coleman","BATON ROUGE"
"1746","N",,"17TH","ST",,,"1746 N 17TH ST","BATON ROUGE","70802","10","Carolyn Coleman","BATON ROUGE"
"1805","N",,"17TH","ST",,,"1805 N 17TH ST","BATON ROUGE","70802","10","Carolyn Coleman","BATON ROUGE"
"701","S",,"17TH","ST",,,"701 S 17TH ST","BATON ROUGE","70802","10","Carolyn Coleman","BATON ROUGE"
"1726","N",,"17TH","ST",,,"1726 N 17TH ST","BATON ROUGE","70802","10","Carolyn Coleman","BATON ROUGE"
"1276","S",,"17TH","ST",,,"1276 S 17TH ST","BATON ROUGE","70802","10","Carolyn Coleman","BATON ROUGE"
"817","S",,"17TH","ST",,,"817 S 17TH ST","BATON ROUGE","70802","10","Carolyn Coleman","BATON ROUGE"
"1256","S",,"17TH","ST",,,"1256 S 17TH ST","BATON ROUGE","70802","10","Carolyn Coleman","BATON ROUGE"
"2250","N",,"17TH","ST",,,"2250 N 17TH ST","BATON ROUGE","70802","10","Carolyn Coleman","BATON ROUGE"
"222","S",,"17TH","ST",,,"222 S 17TH ST","BATON ROUGE","70802","10","Carolyn Coleman","BATON ROUGE"
"150","S",,"17TH","ST",,,"150 S 17TH ST","BATON ROUGE","70802","10","Carolyn Coleman","BATON ROUGE"
"729","S",,"17TH","ST",,,"729 S 17TH ST","BATON ROUGE","70802","10","Carolyn Coleman","BATON ROUGE"
"1465","S",,"17TH","ST",,,"1465 S 17TH ST","BATON ROUGE","70802","10","Carolyn Coleman","BATON ROUGE"
"848","S",,"17TH","ST",,,"848 S 17TH ST","BATON ROUGE","70802","10","Carolyn Coleman","BATON ROUGE"
"562","S",,"17TH","ST",,,"562 S 17TH ST","BATON ROUGE","70802","10","Carolyn Coleman","BATON ROUGE"
"1240","S",,"17TH","ST",,,"1240 S 17TH ST","BATON ROUGE","70802","10","Carolyn Coleman","BATON ROUGE"
"802","S",,"17TH","ST",,,"802 S 17TH ST","BATON ROUGE","70802","10","Carolyn Coleman","BATON ROUGE"
"741","N",,"17TH","ST",,,"741 N 17TH ST","BATON ROUGE","70802","10","Carolyn Coleman","BATON ROUGE"
"1635","N",,"17TH","ST",,,"1635 N 17TH ST","BATON ROUGE","70802","10","Carolyn Coleman","BATON ROUGE"
"1735","N",,"17TH","ST",,,"1735 N 17TH ST","BATON ROUGE","70802","10","Carolyn Coleman","BATON ROUGE"
"1264","S",,"17TH","ST",,,"1264 S 17TH ST","BATON ROUGE","70802","10","Carolyn Coleman","BATON ROUGE"
"754","S",,"17TH","ST",,,"754 S 17TH ST","BATON ROUGE","70802","10","Carolyn Coleman","BATON ROUGE"
"1606","N",,"17TH","ST",,,"1606 N 17TH ST","BATON ROUGE","70802","10","Carolyn Coleman","BATON ROUGE"
"219","N",,"17TH","ST",,,"219 N 17TH ST","BATON ROUGE","70802","10","Carolyn Coleman","BATON ROUGE"
"855","N",,"17TH","ST",,,"855 N 17TH ST","BATON ROUGE","70802","10","Carolyn Coleman","BATON ROUGE"
"1235","S",,"17TH","ST",,,"1235 S 17TH ST","BATON ROUGE","70802","10","Carolyn Coleman","BATON ROUGE"
"223","S",,"17TH","ST",,,"223 S 17TH ST","BATON ROUGE","70802","10","Carolyn Coleman","BATON ROUGE"
"1502","N",,"17TH","ST",,,"1502 N 17TH ST","BATON ROUGE","70802","10","Carolyn Coleman","BATON ROUGE"
"1268","S",,"17TH","ST",,,"1268 S 17TH ST","BATON ROUGE","70802","10","Carolyn Coleman","BATON ROUGE"
"311","S",,"17TH","ST",,,"311 S 17TH ST","BATON ROUGE","70802","10","Carolyn Coleman","BATON ROUGE"
"525","S",,"17TH","ST",,,"525 S 17TH ST","BATON ROUGE","70802","10","Carolyn Coleman","BATON ROUGE"
"250","S",,"17TH","ST",,,"250 S 17TH ST","BATON ROUGE","70802","10","Carolyn Coleman","BATON ROUGE"
"924","N",,"17TH","ST",,,"924 N 17TH ST","BATON ROUGE","70802","10","Carolyn Coleman","BATON ROUGE"
"370","S",,"17TH","ST",,,"370 S 17TH ST","BATON ROUGE","70802","10","Carolyn Coleman","BATON ROUGE"
"737","S",,"17TH","ST",,,"737 S 17TH ST","BATON ROUGE","70802","10","Carolyn Coleman","BATON ROUGE"
"1400","S",,"17TH","ST",,,"1400 S 17TH ST","BATON ROUGE","70802","10","Carolyn Coleman","BATON ROUGE"
"859","N",,"17TH","ST",,,"859 N 17TH ST","BATON ROUGE","70802","10","Carolyn Coleman","BATON ROUGE"
"1755","N",,"17TH","ST",,,"1755 N 17TH ST","BATON ROUGE","70802","10","Carolyn Coleman","BATON ROUGE"
"234","S",,"17TH","ST",,,"234 S 17TH ST","BATON ROUGE","70802","10","Carolyn Coleman","BATON ROUGE"
"1815","N",,"17TH","ST",,,"1815 N 17TH ST","BATON ROUGE","70802","10","Carolyn Coleman","BATON ROUGE"
"1825","N",,"17TH","ST",,,"1825 N 17TH ST","BATON ROUGE","70802","10","Carolyn Coleman","BATON ROUGE"
"813","S",,"17TH","ST",,,"813 S 17TH ST","BATON ROUGE","70802","10","Carolyn Coleman","BATON ROUGE"
"1904","N",,"17TH","ST",,,"1904 N 17TH ST","BATON ROUGE","70802","10","Carolyn Coleman","BATON ROUGE"
"317","S",,"17TH","ST",,,"317 S 17TH ST","BATON ROUGE","70802","10","Carolyn Coleman","BATON ROUGE"
"863","N",,"17TH","ST",,,"863 N 17TH ST","BATON ROUGE","70802","10","Carolyn Coleman","BATON ROUGE"
"1914","N",,"17TH","ST",,,"1914 N 17TH ST","BATON ROUGE","70802","10","Carolyn Coleman","BATON ROUGE"
"1916","N",,"17TH","ST",,,"1916 N 17TH ST","BATON ROUGE","70802","10","Carolyn Coleman","BATON ROUGE"
"1725","N",,"17TH","ST",,,"1725 N 17TH ST","BATON ROUGE","70802","10","Carolyn Coleman","BATON ROUGE"
"520","S",,"17TH","ST",,,"520 S 17TH ST","BATON ROUGE","70802","10","Carolyn Coleman","BATON ROUGE"
"1935","N",,"17TH","ST",,,"1935 N 17TH ST","BATON ROUGE","70802","10","Carolyn Coleman","BATON ROUGE"
"437","S",,"17TH","ST",,,"437 S 17TH ST","BATON ROUGE","70802","10","Carolyn Coleman","BATON ROUGE"
"2135","N",,"17TH","ST",,,"2135 N 17TH ST","BATON ROUGE","70802","10","Carolyn Coleman","BATON ROUGE"
"849","S",,"17TH","ST",,,"849 S 17TH ST","BATON ROUGE","70802","10","Carolyn Coleman","BATON ROUGE"
"800-900","N",,"17TH","ST",,,"800-900 N 17TH ST","BATON ROUGE","70802","10","Carolyn Coleman","BATON ROUGE"
"800-900","N",,"17TH","ST",,,"800-900 N 17TH ST","BATON ROUGE","70802","10","Carolyn Coleman","BATON ROUGE"
"800-900","N",,"17TH","ST",,,"800-900 N 17TH ST","BATON ROUGE","70802","10","Carolyn Coleman","BATON ROUGE"
"800-900","N",,"17TH","ST",,,"800-900 N 17TH ST","BATON ROUGE","70802","10","Carolyn Coleman","BATON ROUGE"
"800-900","N",,"17TH","ST",,,"800-900 N 17TH ST","BATON ROUGE","70802","10","Carolyn Coleman","BATON ROUGE"
"800-900","N",,"17TH","ST",,,"800-900 N 17TH ST","BATON ROUGE","70802","10","Carolyn Coleman","BATON ROUGE"
"224","S",,"17TH","ST",,,"224 S 17TH ST","BATON ROUGE","70802","10","Carolyn Coleman","BATON ROUGE"
"801","S",,"17TH","ST",,,"801 S 17TH ST","BATON ROUGE","70802","10","Carolyn Coleman","BATON ROUGE"
"240","S",,"17TH","ST",,,"240 S 17TH ST","BATON ROUGE","70802","10","Carolyn Coleman","BATON ROUGE"
"1328","S",,"17TH","ST",,,"1328 S 17TH ST","BATON ROUGE","70802","10","Carolyn Coleman","BATON ROUGE"
"255","S",,"17TH","ST",,,"255 S 17TH ST","BATON ROUGE","70802","10","Carolyn Coleman","BATON ROUGE"
"635","N",,"17TH","ST",,,"635 N 17TH ST","BATON ROUGE","70802","10","Carolyn Coleman","BATON ROUGE"
"2037","N",,"17TH","ST",,,"2037 N 17TH ST","BATON ROUGE","70802","10","Carolyn Coleman","BATON ROUGE"
"1556","S",,"17TH","ST",,,"1556 S 17TH ST","BATON ROUGE","70802","10","Carolyn Coleman","BATON ROUGE"
"2105","N",,"17TH","ST",,,"2105 N 17TH ST","BATON ROUGE","70802","10","Carolyn Coleman","BATON ROUGE"
"220","N",,"17TH","ST",,,"220 N 17TH ST","BATON ROUGE","70802","10","Carolyn Coleman","BATON ROUGE"
"1245","S",,"17TH","ST",,,"1245 S 17TH ST","BATON ROUGE","70802","10","Carolyn Coleman","BATON ROUGE"
"829","S",,"17TH","ST",,,"829 S 17TH ST","BATON ROUGE","70802","10","Carolyn Coleman","BATON ROUGE"
"155","S",,"17TH","ST",,,"155 S 17TH ST","BATON ROUGE","70802","10","Carolyn Coleman","BATON ROUGE"
"907","N",,"17TH","ST",,,"907 N 17TH ST","BATON ROUGE","70802","10","Carolyn Coleman","BATON ROUGE"
"216","S",,"17TH","ST",,,"216 S 17TH ST","BATON ROUGE","70802","10","Carolyn Coleman","BATON ROUGE"
"308","S",,"17TH","ST",,,"308 S 17TH ST","BATON ROUGE","70802","10","Carolyn Coleman","BATON ROUGE"
"517","N",,"17TH","ST",,,"517 N 17TH ST","BATON ROUGE","70802","10","Carolyn Coleman","BATON ROUGE"
"725","S",,"17TH","ST",,,"725 S 17TH ST","BATON ROUGE","70802","10","Carolyn Coleman","BATON ROUGE"
"953","N",,"17TH","ST",,,"953 N 17TH ST","BATON ROUGE","70802","10","Carolyn Coleman","BATON ROUGE"
"310","S",,"17TH","ST",,,"310 S 17TH ST","BATON ROUGE","70802","10","Carolyn Coleman","BATON ROUGE"
"1954","N",,"17TH","ST",,,"1954 N 17TH ST","BATON ROUGE","70802","10","Carolyn Coleman","BATON ROUGE"
"364","S",,"17TH","ST",,,"364 S 17TH ST","BATON ROUGE","70802","10","Carolyn Coleman","BATON ROUGE"
"2015","N",,"17TH","ST",,,"2015 N 17TH ST","BATON ROUGE","70802","10","Carolyn Coleman","BATON ROUGE"
"2115","N",,"17TH","ST",,,"2115 N 17TH ST","BATON ROUGE","70802","10","Carolyn Coleman","BATON ROUGE"
"1835","N",,"17TH","ST",,,"1835 N 17TH ST","BATON ROUGE","70802","10","Carolyn Coleman","BATON ROUGE"
"410","S",,"17TH","ST",,,"410 S 17TH ST","BATON ROUGE","70802","10","Carolyn Coleman","BATON ROUGE"
"1605","N",,"17TH","ST",,,"1605 N 17TH ST","BATON ROUGE","70802","10","Carolyn Coleman","BATON ROUGE"
"1925","N",,"17TH","ST",,,"1925 N 17TH ST","BATON ROUGE","70802","10","Carolyn Coleman","BATON ROUGE"
"225","S",,"17TH","ST",,,"225 S 17TH ST","BATON ROUGE","70802","10","Carolyn Coleman","BATON ROUGE"
"716","S",,"17TH","ST",,,"716 S 17TH ST","BATON ROUGE","70802","10","Carolyn Coleman","BATON ROUGE"
"533","N",,"17TH","ST",,,"533 N 17TH ST","BATON ROUGE","70802","10","Carolyn Coleman","BATON ROUGE"
"222 1/2","S",,"17TH","ST",,,"222 S 17TH ST, 1/2","BATON ROUGE","70802","10","Carolyn Coleman","BATON ROUGE"
"1425","S",,"17TH","ST",,,"1425 S 17TH ST","BATON ROUGE","70802","10","Carolyn Coleman","BATON ROUGE"
"1445","S",,"17TH","ST",,,"1445 S 17TH ST","BATON ROUGE","70802","10","Carolyn Coleman","BATON ROUGE"
"2269 STE A","N",,"17TH","ST",,,"2269 N 17TH ST, STE A","BATON ROUGE","70802","10","Carolyn Coleman","BATON ROUGE"
"749","S",,"17TH","ST",,,"749 S 17TH ST","BATON ROUGE","70802","10","Carolyn Coleman","BATON ROUGE"
"1283","S",,"17TH","ST",,,"1283 S 17TH ST","BATON ROUGE","70802","10","Carolyn Coleman","BATON ROUGE"
"721","S",,"17TH","ST",,,"721 S 17TH ST","BATON ROUGE","70802","10","Carolyn Coleman","BATON ROUGE"
"905","N",,"17TH","ST",,,"905 N 17TH ST","BATON ROUGE","70802","10","Carolyn Coleman","BATON ROUGE"
"700-800","N",,"17TH","ST",,,"700-800 N 17TH ST","BATON ROUGE","70802","10","Carolyn Coleman","BATON ROUGE"
"700-800","N",,"17TH","ST",,,"700-800 N 17TH ST","BATON ROUGE","70802","10","Carolyn Coleman","BATON ROUGE"
"2025","N",,"17TH","ST",,,"2025 N 17TH ST","BATON ROUGE","70802","10","Carolyn Coleman","BATON ROUGE"
"200","N",,"17TH","ST",,,"200 N 17TH ST","BATON ROUGE","70802","10","Carolyn Coleman","BATON ROUGE"
"304","S",,"17TH","ST",,,"304 S 17TH ST","BATON ROUGE","70802","10","Carolyn Coleman","BATON ROUGE"
"1578","S",,"17TH","ST",,,"1578 S 17TH ST","BATON ROUGE","70802","10","Carolyn Coleman","BATON ROUGE"
"1252","S",,"17TH","ST",,,"1252 S 17TH ST","BATON ROUGE","70802","10","Carolyn Coleman","BATON ROUGE"
"1806","N",,"17TH","ST",,,"1806 N 17TH ST","BATON ROUGE","70802","10","Carolyn Coleman","BATON ROUGE"
"837","S",,"17TH","ST",,,"837 S 17TH ST","BATON ROUGE","70802","10","Carolyn Coleman","BATON ROUGE"
"1715","N",,"17TH","ST",,,"1715 N 17TH ST","BATON ROUGE","70802","10","Carolyn Coleman","BATON ROUGE"
"1248","S",,"17TH","ST",,,"1248 S 17TH ST","BATON ROUGE","70802","10","Carolyn Coleman","BATON ROUGE"
"538","S",,"17TH","ST",,,"538 S 17TH ST","BATON ROUGE","70802","10","Carolyn Coleman","BATON ROUGE"
"1150","S",,"17TH","ST",,,"1150 S 17TH ST","BATON ROUGE","70802","10","Carolyn Coleman","BATON ROUGE"
"841","S",,"17TH","ST",,,"841 S 17TH ST","BATON ROUGE","70802","10","Carolyn Coleman","BATON ROUGE"
"1625","N",,"17TH","ST",,,"1625 N 17TH ST","BATON ROUGE","70802","10","Carolyn Coleman","BATON ROUGE"
"1260","S",,"17TH","ST",,,"1260 S 17TH ST","BATON ROUGE","70802","10","Carolyn Coleman","BATON ROUGE"
"1259","S",,"17TH","ST",,,"1259 S 17TH ST","BATON ROUGE","70802","10","Carolyn Coleman","BATON ROUGE"
"2112","N",,"17TH","ST",,,"2112 N 17TH ST","BATON ROUGE","70802","10","Carolyn Coleman","BATON ROUGE"
"1836","N",,"17TH","ST",,,"1836 N 17TH ST","BATON ROUGE","70802","10","Carolyn Coleman","BATON ROUGE"
"1915","N",,"17TH","ST",,,"1915 N 17TH ST","BATON ROUGE","70802","10","Carolyn Coleman","BATON ROUGE"
"1440","S",,"17TH","ST",,,"1440 S 17TH ST","BATON ROUGE","70802","10","Carolyn Coleman","BATON ROUGE"
"720","S",,"17TH","ST",,,"720 S 17TH ST","BATON ROUGE","70802","10","Carolyn Coleman","BATON ROUGE"
"153","N",,"17TH","ST",,,"153 N 17TH ST","BATON ROUGE","70802","10","Carolyn Coleman","BATON ROUGE"
"1636","N",,"17TH","ST",,,"1636 N 17TH ST","BATON ROUGE","70802","10","Carolyn Coleman","BATON ROUGE"
"347","S",,"17TH","ST",,,"347 S 17TH ST","BATON ROUGE","70802","10","Carolyn Coleman","BATON ROUGE"
"1375","N",,"17TH","ST",,,"1375 N 17TH ST","BATON ROUGE","70802","10","Carolyn Coleman","BATON ROUGE"
"1329","S",,"17TH","ST",,,"1329 S 17TH ST","BATON ROUGE","70802","10","Carolyn Coleman","BATON ROUGE"
"T 121","N",,"17TH","ST",,,"T 121 N 17TH ST","BATON ROUGE","70802","10","Carolyn Coleman","BATON ROUGE"
"1615","N",,"17TH","ST",,,"1615 N 17TH ST","BATON ROUGE","70802","10","Carolyn Coleman","BATON ROUGE"
"2269","N",,"17TH","ST",,,"2269 N 17TH ST","BATON ROUGE","70802","10","Carolyn Coleman","BATON ROUGE"
"1944","N",,"17TH","ST",,,"1944 N 17TH ST","BATON ROUGE","70802","10","Carolyn Coleman","BATON ROUGE"
"286","S",,"17TH","ST",,,"286 S 17TH ST","BATON ROUGE","70802","10","Carolyn Coleman","BATON ROUGE"
"1834","N",,"18TH","ST",,,"1834 N 18TH ST","BATON ROUGE","70802","10","Carolyn Coleman","BATON ROUGE"
"1824","N",,"18TH","ST",,,"1824 N 18TH ST","BATON ROUGE","70802","10","Carolyn Coleman","BATON ROUGE"
"1844","N",,"18TH","ST",,,"1844 N 18TH ST","BATON ROUGE","70802","10","Carolyn Coleman","BATON ROUGE"
"965","N",,"18TH","ST",,,"965 N 18TH ST","BATON ROUGE","70802","10","Carolyn Coleman","BATON ROUGE"
"1635","N",,"18TH","ST",,,"1635 N 18TH ST","BATON ROUGE","70802","10","Carolyn Coleman","BATON ROUGE"
"2145","N",,"18TH","ST",,,"2145 N 18TH ST","BATON ROUGE","70802","10","Carolyn Coleman","BATON ROUGE"
"744","N",,"18TH","ST",,,"744 N 18TH ST","BATON ROUGE","70802","10","Carolyn Coleman","BATON ROUGE"
"312","S",,"18TH","ST",,,"312 S 18TH ST","BATON ROUGE","70802","10","Carolyn Coleman","BATON ROUGE"
"636","S",,"18TH","ST",,,"636 S 18TH ST","BATON ROUGE","70802","10","Carolyn Coleman","BATON ROUGE"
"2125","N",,"18TH","ST",,,"2125 N 18TH ST","BATON ROUGE","70802","10","Carolyn Coleman","BATON ROUGE"
"1229","S",,"18TH","ST",,,"1229 S 18TH ST","BATON ROUGE","70802","10","Carolyn Coleman","BATON ROUGE"
"301","S",,"18TH","ST",,,"301 S 18TH ST","BATON ROUGE","70802","10","Carolyn Coleman","BATON ROUGE"
"1745","N",,"18TH","ST",,,"1745 N 18TH ST","BATON ROUGE","70802","10","Carolyn Coleman","BATON ROUGE"
"1725","N",,"18TH","ST",,,"1725 N 18TH ST","BATON ROUGE","70802","10","Carolyn Coleman","BATON ROUGE"
"1815","N",,"18TH","ST",,,"1815 N 18TH ST","BATON ROUGE","70802","10","Carolyn Coleman","BATON ROUGE"
"1736","N",,"18TH","ST",,,"1736 N 18TH ST","BATON ROUGE","70802","10","Carolyn Coleman","BATON ROUGE"
"119","S",,"18TH","ST",,,"119 S 18TH ST","BATON ROUGE","70802","10","Carolyn Coleman","BATON ROUGE"
"121","S",,"18TH","ST",,,"121 S 18TH ST","BATON ROUGE","70802","10","Carolyn Coleman","BATON ROUGE"
"316","S",,"18TH","ST",,,"316 S 18TH ST","BATON ROUGE","70802","10","Carolyn Coleman","BATON ROUGE"
"125","N",,"18TH","ST",,,"125 N 18TH ST","BATON ROUGE","70802","10","Carolyn Coleman","BATON ROUGE"
"1756","N",,"18TH","ST",,,"1756 N 18TH ST","BATON ROUGE","70802","10","Carolyn Coleman","BATON ROUGE"
"410","S",,"18TH","ST",,,"410 S 18TH ST","BATON ROUGE","70802","10","Carolyn Coleman","BATON ROUGE"
"1646","N",,"18TH","ST",,,"1646 N 18TH ST","BATON ROUGE","70802","10","Carolyn Coleman","BATON ROUGE"
"668","S",,"18TH","ST",,,"668 S 18TH ST","BATON ROUGE","70802","10","Carolyn Coleman","BATON ROUGE"
"2116","N",,"18TH","ST",,,"2116 N 18TH ST","BATON ROUGE","70802","10","Carolyn Coleman","BATON ROUGE"
"1222","S",,"18TH","ST",,,"1222 S 18TH ST","BATON ROUGE","70802","10","Carolyn Coleman","BATON ROUGE"
"253","S",,"18TH","ST",,,"253 S 18TH ST","BATON ROUGE","70802","10","Carolyn Coleman","BATON ROUGE"
"2136","N",,"18TH","ST",,,"2136 N 18TH ST","BATON ROUGE","70802","10","Carolyn Coleman","BATON ROUGE"
"658","S",,"18TH","ST",,,"658 S 18TH ST","BATON ROUGE","70802","10","Carolyn Coleman","BATON ROUGE"
"602","S",,"18TH","ST",,,"602 S 18TH ST","BATON ROUGE","70802","10","Carolyn Coleman","BATON ROUGE"
"408","S",,"18TH","ST",,,"408 S 18TH ST","BATON ROUGE","70802","10","Carolyn Coleman","BATON ROUGE"
"1925","N",,"18TH","ST",,,"1925 N 18TH ST","BATON ROUGE","70802","10","Carolyn Coleman","BATON ROUGE"
"900-1000","N",,"18TH","ST",,,"900-1000 N 18TH ST","BATON ROUGE","70802","10","Carolyn Coleman","BATON ROUGE"
"404","S",,"18TH","ST",,,"404 S 18TH ST","BATON ROUGE","70802","10","Carolyn Coleman","BATON ROUGE"
"900","S",,"18TH","ST",,,"900 S 18TH ST","BATON ROUGE","70802","10","Carolyn Coleman","BATON ROUGE"
"411","S",,"18TH","ST",,,"411 S 18TH ST","BATON ROUGE","70802","10","Carolyn Coleman","BATON ROUGE"
"2026","N",,"18TH","ST",,,"2026 N 18TH ST","BATON ROUGE","70802","10","Carolyn Coleman","BATON ROUGE"
"1330","S",,"18TH","ST",,,"1330 S 18TH ST","BATON ROUGE","70802","10","Carolyn Coleman","BATON ROUGE"
"1238","S",,"18TH","ST",,,"1238 S 18TH ST","BATON ROUGE","70802","10","Carolyn Coleman","BATON ROUGE"
"1626","N",,"18TH","ST",,,"1626 N 18TH ST","BATON ROUGE","70802","10","Carolyn Coleman","BATON ROUGE"
"612","S",,"18TH","ST",,,"612 S 18TH ST","BATON ROUGE","70802","10","Carolyn Coleman","BATON ROUGE"
"310","S",,"18TH","ST",,,"310 S 18TH ST","BATON ROUGE","70802","10","Carolyn Coleman","BATON ROUGE"
"2016","N",,"18TH","ST",,,"2016 N 18TH ST","BATON ROUGE","70802","10","Carolyn Coleman","BATON ROUGE"
"1329","S",,"18TH","ST",,,"1329 S 18TH ST","BATON ROUGE","70802","10","Carolyn Coleman","BATON ROUGE"
"820","S",,"18TH","ST",,,"820 S 18TH ST","BATON ROUGE","70802","10","Carolyn Coleman","BATON ROUGE"
"710","S",,"18TH","ST",,,"710 S 18TH ST","BATON ROUGE","70802","10","Carolyn Coleman","BATON ROUGE"
"1339","S",,"18TH","ST",,,"1339 S 18TH ST","BATON ROUGE","70802","10","Carolyn Coleman","BATON ROUGE"
"626","S",,"18TH","ST",,,"626 S 18TH ST","BATON ROUGE","70802","10","Carolyn Coleman","BATON ROUGE"
"1744","N",,"18TH","ST",,,"1744 N 18TH ST","BATON ROUGE","70802","10","Carolyn Coleman","BATON ROUGE"
"117","S",,"18TH","ST",,,"117 S 18TH ST","BATON ROUGE","70802","10","Carolyn Coleman","BATON ROUGE"
"252","S",,"18TH","ST",,,"252 S 18TH ST","BATON ROUGE","70802","10","Carolyn Coleman","BATON ROUGE"
"1014","S",,"18TH","ST",,,"1014 S 18TH ST","BATON ROUGE","70802","10","Carolyn Coleman","BATON ROUGE"
"2126","N",,"18TH","ST",,,"2126 N 18TH ST","BATON ROUGE","70802","10","Carolyn Coleman","BATON ROUGE"
"1350","S",,"18TH","ST",,,"1350 S 18TH ST","BATON ROUGE","70802","10","Carolyn Coleman","BATON ROUGE"
"1638","N",,"18TH","ST",,,"1638 N 18TH ST","BATON ROUGE","70802","10","Carolyn Coleman","BATON ROUGE"
"T 155","N",,"18TH","ST",,,"T 155 N 18TH ST","BATON ROUGE","70802","10","Carolyn Coleman","BATON ROUGE"
"260","S",,"18TH","ST",,,"260 S 18TH ST","BATON ROUGE","70802","10","Carolyn Coleman","BATON ROUGE"
"1320","S",,"18TH","ST",,,"1320 S 18TH ST","BATON ROUGE","70802","10","Carolyn Coleman","BATON ROUGE"
"2106","N",,"18TH","ST",,,"2106 N 18TH ST","BATON ROUGE","70802","10","Carolyn Coleman","BATON ROUGE"
"115","S",,"18TH","ST",,,"115 S 18TH ST","BATON ROUGE","70802","10","Carolyn Coleman","BATON ROUGE"
"1706","N",,"18TH","ST",,,"1706 N 18TH ST","BATON ROUGE","70802","10","Carolyn Coleman","BATON ROUGE"
"2115","N",,"18TH","ST",,,"2115 N 18TH ST","BATON ROUGE","70802","10","Carolyn Coleman","BATON ROUGE"
"325","N",,"18TH","ST",,,"325 N 18TH ST","BATON ROUGE","70802","10","Carolyn Coleman","BATON ROUGE"
"1901","N",,"18TH","ST",,,"1901 N 18TH ST","BATON ROUGE","70802","10","Carolyn Coleman","BATON ROUGE"
"1239","S",,"18TH","ST",,,"1239 S 18TH ST","BATON ROUGE","70802","10","Carolyn Coleman","BATON ROUGE"
"1735","N",,"18TH","ST",,,"1735 N 18TH ST","BATON ROUGE","70802","10","Carolyn Coleman","BATON ROUGE"
"1242","S",,"18TH","ST",,,"1242 S 18TH ST","BATON ROUGE","70802","10","Carolyn Coleman","BATON ROUGE"
"742","N",,"18TH","ST",,,"742 N 18TH ST","BATON ROUGE","70802","10","Carolyn Coleman","BATON ROUGE"
"315","S",,"18TH","ST",,,"315 S 18TH ST","BATON ROUGE","70802","10","Carolyn Coleman","BATON ROUGE"
"BILLBD 155","N",,"18TH","ST",,,"BILLBD 155 N 18TH ST","BATON ROUGE","70802","10","Carolyn Coleman","BATON ROUGE"
"708","S",,"18TH","ST",,,"708 S 18TH ST","BATON ROUGE","70802","10","Carolyn Coleman","BATON ROUGE"
"920","S",,"18TH","ST",,,"920 S 18TH ST","BATON ROUGE","70802","10","Carolyn Coleman","BATON ROUGE"
"1955","N",,"18TH","ST",,,"1955 N 18TH ST","BATON ROUGE","70802","10","Carolyn Coleman","BATON ROUGE"
"100-200","N",,"18TH","ST",,,"100-200 N 18TH ST","BATON ROUGE","70802","10","Carolyn Coleman","BATON ROUGE"
"247","S",,"18TH","ST",,,"247 S 18TH ST","BATON ROUGE","70802","10","Carolyn Coleman","BATON ROUGE"
"1319","S",,"18TH","ST",,,"1319 S 18TH ST","BATON ROUGE","70802","10","Carolyn Coleman","BATON ROUGE"
"1228","S",,"18TH","ST",,,"1228 S 18TH ST","BATON ROUGE","70802","10","Carolyn Coleman","BATON ROUGE"
"2005","N",,"18TH","ST",,,"2005 N 18TH ST","BATON ROUGE","70802","10","Carolyn Coleman","BATON ROUGE"
"1203","S",,"18TH","ST",,,"1203 S 18TH ST","BATON ROUGE","70802","10","Carolyn Coleman","BATON ROUGE"
"817","N",,"18TH","ST",,,"817 N 18TH ST","BATON ROUGE","70802","10","Carolyn Coleman","BATON ROUGE"
