"the_geom","id","address_id","full_address","city","state","zip_code","address_authority","latitude","longitude"
"POINT (-91.033195890393 30.349945468452)","252","0","BILLBD 17455 PERKINS RD","BATON ROUGE","LOUISIANA","70810","PARISH","30","-91"
"POINT (-91.097253119404 30.349074957611)","250","0","12102 BURBANK DR","BATON ROUGE","LOUISIANA","70810","PARISH","30","-91"
"POINT (-91.125065915075 30.360765467237)","251","0","BILLBD 9222 BURBANK DR","BATON ROUGE","LOUISIANA","70820","PARISH","30","-91"
"POINT (-91.127865925425 30.575505513541)","3","0","BILLBD 14030 PLANK RD","BAKER","LOUISIANA","70714","BAKER","31","-91"
"POINT (-91.021465889051 30.407975481457)","5","0","BILLBD 13950 COURSEY BLVD","BATON ROUGE","LOUISIANA","70817","PARISH","30","-91"
"POINT (-91.042743652443 30.373740720117)","82","0","BILLBD 8386 PECUE LN","BATON ROUGE","LOUISIANA","70809","PARISH","30","-91"
"POINT (-91.127765925929 30.577135514009)","214","0","BILLBD 14229 PLANK RD","BAKER","LOUISIANA","70714","BAKER","31","-91"
"POINT (-91.181175935389 30.472585489613)","359","0","BILLBD 913 CHIPPEWA ST","BATON ROUGE","LOUISIANA","70805","BATON ROUGE","30","-91"
"POINT (-91.007555886226 30.425625485461)","335","0","BILLBD 2991 O'NEAL LN","BATON ROUGE","LOUISIANA","70816","BATON ROUGE","30","-91"
"POINT (-91.096765912707 30.481895494759)","306","0","BILLBD 8644 GREENWELL SPRINGS RD","BATON ROUGE","LOUISIANA","70814","PARISH","30","-91"
"POINT (-91.152225928568 30.501665496862)","391","0","BILLBD 5676 PLANK RD","BATON ROUGE","LOUISIANA","70805","BATON ROUGE","31","-91"
"POINT (-91.179075931457 30.398145473598)","354","0","BILLBD 4245 NICHOLSON DR","BATON ROUGE","LOUISIANA","70820","BATON ROUGE","30","-91"
"POINT (-91.166422931102 30.46132848763)","112","0","BILLBD 1402 PLANK RD","BATON ROUGE","LOUISIANA","70802","BATON ROUGE","30","-91"
"POINT (-91.139395921788 30.423605480232)","177","0","BILLBD 4753 ALDRICH DR","BATON ROUGE","LOUISIANA","70808","BATON ROUGE","30","-91"
"POINT (-91.069355901276 30.374305472833)","4","0","BILLBD 8181 SIEGEN LN","BATON ROUGE","LOUISIANA","70810","PARISH","30","-91"
"POINT (-91.040905893807 30.385505476235)","249","0","BILLBD 12601 AIRLINE HWY","BATON ROUGE","LOUISIANA","70817","BATON ROUGE","30","-91"
"POINT (-91.071595903473 30.41819548179)","6","0","BILLBD 10270 AIRLINE HWY","BATON ROUGE","LOUISIANA","70809","BATON ROUGE","30","-91"
"POINT (-91.058739138618 30.472210498615)","445","0","BILLBD 11210 S CHOCTAW DR","BATON ROUGE","LOUISIANA","70815","BATON ROUGE","30","-91"
"POINT (-91.05947765396 30.392545287426)","446","0","BILLBD 6275 SIEGEN LN","BATON ROUGE","LOUISIANA","70809","PARISH","30","-91"
"POINT (-91.111573386822 30.433904377252)","447","0","7441 JEFFERSON HWY","BATON ROUGE","LOUISIANA","70806","BATON ROUGE","30","-91"
"POINT (-91.037385900319 30.554655511797)","230","0","BILLBD 13561 HOOPER RD","CENTRAL","LOUISIANA","70818","CENTRAL","31","-91"
"POINT (-91.143175925074 30.462185488375)","110","0","BILLBD 4643 GUS YOUNG AVE","BATON ROUGE","LOUISIANA","70802","BATON ROUGE","30","-91"
"POINT (-91.060485899743 30.406615479404)","21","0","BILLBD 10835 AIRLINE HWY","BATON ROUGE","LOUISIANA","70816","PARISH","30","-91"
"POINT (-91.178200933083 30.444470483439)","51","0","BILLBD 336 S 11TH ST","BATON ROUGE","LOUISIANA","70802","BATON ROUGE","30","-91"
"POINT (-91.18679093506 30.43876048264)","71","0","BILLBD 989 NICHOLSON DR","BATON ROUGE","LOUISIANA","70802","BATON ROUGE","30","-91"
"POINT (-91.130245921 30.468275490684)","117","0","BILLBD 2178 N ARDENWOOD DR","BATON ROUGE","LOUISIANA","70806","BATON ROUGE","30","-91"
"POINT (-91.062475903861 30.493695497925)","345","0","BILLBD 10838 GREENWELL SPRINGS RD","BATON ROUGE","LOUISIANA","70814","BATON ROUGE","30","-91"
"POINT (-91.179645933472 30.448075484525)","309","0","BILLBD 140 N 10TH ST","BATON ROUGE","LOUISIANA","70802","BATON ROUGE","30","-91"
"POINT (-91.084845909392 30.472285492522)","49","0","BILLBD 9313 S CHOCTAW DR","BATON ROUGE","LOUISIANA","70814","BATON ROUGE","30","-91"
"POINT (-91.095275910513 30.442525486141)","344","0","BILLBD 8558 GOODWOOD BLVD","BATON ROUGE","LOUISIANA","70806","BATON ROUGE","30","-91"
"POINT (-91.090505911166 30.471575492186)","222","0","BILLBD 8900 S CHOCTAW DR","BATON ROUGE","LOUISIANA","70815","BATON ROUGE","30","-91"
"POINT (-91.099835912837 30.45912548956)","196","0","BILLBD 8383 AIRLINE HWY","BATON ROUGE","LOUISIANA","70815","BATON ROUGE","30","-91"
"POINT (-91.042795899797 30.504845501468)","367","0","BILLBD 12821 GREENWELL SPRINGS RD","BATON ROUGE","LOUISIANA","70814","PARISH","31","-91"
"POINT (-91.073618905699 30.456768490202)","210","0","BILLBD 10039 FLORIDA BLVD","BATON ROUGE","LOUISIANA","70815","BATON ROUGE","30","-91"
"POINT (-91.038895892104 30.357285469575)","386","0","BILLBD 16255 OLD PERKINS RD","BATON ROUGE","LOUISIANA","70810","PARISH","30","-91"
"POINT (-91.1546259275 30.453865486375)","305","0","BILLBD 622 N ACADIAN THWY E","BATON ROUGE","LOUISIANA","70802","BATON ROUGE","30","-91"
"POINT (-91.06421590686 30.542755508535)","248","0","BILLBD 11154 HOOPER RD","CENTRAL","LOUISIANA","70818","CENTRAL","31","-91"
"POINT (-91.093365906208 30.34779546632)","173","0","12420 BURBANK DR","BATON ROUGE","LOUISIANA","70810","PARISH","30","-91"
"POINT (-91.105965914616 30.452385487469)","299","0","BILLBD 7981 FLORIDA BLVD","BATON ROUGE","LOUISIANA","70806","BATON ROUGE","30","-91"
"POINT (-91.088751847196 30.471473394406)","131","0","BILLBD 8950 S CHOCTAW DR","BATON ROUGE","LOUISIANA","70815","BATON ROUGE","30","-91"
"POINT (-91.067915903774 30.456965489715)","12","0","BILLBD 10550 FLORIDA BLVD","BATON ROUGE","LOUISIANA","70815","BATON ROUGE","30","-91"
"POINT (-91.011025888809 30.465995493699)","373","0","BILLBD 15838 FLORIDA BLVD","BATON ROUGE","LOUISIANA","70819","PARISH","30","-91"
"POINT (-91.071595904937 30.456345489819)","142","0","BILLBD 10130 FLORIDA BLVD","BATON ROUGE","LOUISIANA","70815","BATON ROUGE","30","-91"
"POINT (-91.145935307956 30.423174245783)","207","0","BILLBD 2800 NAIRN DR","BATON ROUGE","LOUISIANA","70808","BATON ROUGE","30","-91"
"POINT (-91.187449669704 30.436739836476)","118","0","BILLBD 1220 NICHOLSON DR","BATON ROUGE","LOUISIANA","70802","BATON ROUGE","30","-91"
"POINT (-91.014405888321 30.42652548552)","18","0","BILLBD 15454 S HARRELL'S FERRY RD","BATON ROUGE","LOUISIANA","70816","BATON ROUGE","30","-91"
"POINT (-91.119948307187 30.488548467747)","315","0","BILLBD 6985 AIRLINE HWY","BATON ROUGE","LOUISIANA","70812","PARISH","30","-91"
"POINT (-91.041435894572 30.393905477757)","245","0","BILLBD 12768 JEFFERSON HWY","BATON ROUGE","LOUISIANA","70816","PARISH","30","-91"
"POINT (-91.068785902272 30.414025481137)","9","0","BILLBD 10424 AIRLINE HWY","BATON ROUGE","LOUISIANA","70809","PARISH","30","-91"
"POINT (-91.070045900681 30.366355471057)","47","0","BILLBD 13377 HONEY DR","BATON ROUGE","LOUISIANA","70810","PARISH","30","-91"
"POINT (-91.163975931359 30.490795494353)","282","0","BILLBD 2625 CABLE ST","BATON ROUGE","LOUISIANA","70805","BATON ROUGE","30","-91"
"POINT (-91.173935091511 30.390912375844)","353","0","BILLBD 5055 NICHOLSON DR","BATON ROUGE","LOUISIANA","70820","BATON ROUGE","30","-91"
"POINT (-91.096815908229 30.378505472756)","17","0","BILLBD 9990 PERKINS RD","BATON ROUGE","LOUISIANA","70810","PARISH","30","-91"
"POINT (-91.166055930056 30.456565487045)","302","0","BILLBD 2150 FUQUA ST","BATON ROUGE","LOUISIANA","70802","BATON ROUGE","30","-91"
"POINT (-91.150465929792 30.521835501417)","54","0","BILLBD 8011 MERLE GUSTAFSON DR","BATON ROUGE","LOUISIANA","70807","BATON ROUGE","31","-91"
"POINT (-91.027655890242 30.391175477881)","80","0","BILLBD 14050 TIGER BEND RD","BATON ROUGE","LOUISIANA","70817","PARISH","30","-91"
"POINT (-91.075150163586 30.367579157339)","162","0","BILLBD 12860 PERKINS RD","BATON ROUGE","LOUISIANA","70810","PARISH","30","-91"
"POINT (-91.123495914624 30.360985467718)","260","0","BILLBD 9385 BURBANK DR","BATON ROUGE","LOUISIANA","70810","PARISH","30","-91"
"POINT (-91.155575930663 30.521545501313)","141","0","BILLBD 3445 HARDING BLVD","BATON ROUGE","LOUISIANA","70807","BATON ROUGE","31","-91"
"POINT (-91.141662916124 30.423669201295)","258","0","BILLBD 2740 BROWNLEE ST","BATON ROUGE","LOUISIANA","70808","BATON ROUGE","30","-91"
"POINT (-91.066705901807 30.408805479761)","227","0","BILLBD 10423 JEFFERSON HWY","BATON ROUGE","LOUISIANA","70809","PARISH","30","-91"
"POINT (-91.008580717517 30.459075188374)","374","0","BILLBD 763 O'NEAL LN","BATON ROUGE","LOUISIANA","70816","PARISH","30","-91"
"POINT (-91.069065902573 30.425895483196)","188","0","BILLBD 10187 TWIN CEDARS ST","BATON ROUGE","LOUISIANA","70816","BATON ROUGE","30","-91"
"POINT (-91.112035913289 30.389525474325)","134","0","BILLBD 1713 STARING LN","BATON ROUGE","LOUISIANA","70808","BATON ROUGE","30","-91"
"POINT (-91.103765911743 30.404915477928)","137","0","BILLBD 4950 ESSEN LN","BATON ROUGE","LOUISIANA","70808","BATON ROUGE","30","-91"
"POINT (-91.174750932197 30.430895481203)","52","0","BILLBD 1831 KENTUCKY ST","BATON ROUGE","LOUISIANA","70802","BATON ROUGE","30","-91"
"POINT (-91.088435908221 30.419525481584)","158","0","BILLBD 3438 DRUSILLA LN","BATON ROUGE","LOUISIANA","70809","BATON ROUGE","30","-91"
"POINT (-91.161470931089 30.495960495309)","75","0","BILLBD 2900 DOUGLAS AVE","BATON ROUGE","LOUISIANA","70805","BATON ROUGE","30","-91"
"POINT (-91.122685915004 30.360045467469)","259","0","BILLBD 9413 BURBANK DR","BATON ROUGE","LOUISIANA","70810","PARISH","30","-91"
"POINT (-91.177280933002 30.436395482096)","380","0","BILLBD 1145 TERRACE ST","BATON ROUGE","LOUISIANA","70802","BATON ROUGE","30","-91"
"POINT (-91.146385928032 30.519445500766)","58","0","BILLBD 7811 PLANK RD","BATON ROUGE","LOUISIANA","70807","BATON ROUGE","31","-91"
"POINT (-91.186425935415 30.437905481796)","204","0","BILLBD 1100 HIGHLAND RD","BATON ROUGE","LOUISIANA","70802","BATON ROUGE","30","-91"
"POINT (-91.114010528047 30.355309456094)","1","0","10001 PARKWAY DR","BATON ROUGE","LOUISIANA","70810","PARISH","30","-91"
"POINT (-91.099935909809 30.381025472994)","356","0","BILLBD 7514 BLUEBONNET BLVD","BATON ROUGE","LOUISIANA","70810","PARISH","30","-91"
"POINT (-91.180705937827 30.522785500027)","358","0","BILLBD 8235 SCENIC HWY","BATON ROUGE","LOUISIANA","70807","BATON ROUGE","31","-91"
"POINT (-91.008268502515 30.463805115756)","98","0","BILLBD 481 O'NEAL LN","BATON ROUGE","LOUISIANA","70819","PARISH","30","-91"
"POINT (-91.008035885376 30.407535481923)","96","0","BILLBD 5115 BLUEWATER DR","BATON ROUGE","LOUISIANA","70817","PARISH","30","-91"
"POINT (-91.157385927284 30.42569548029)","239","0","BILLBD 3040 S EUGENE ST","BATON ROUGE","LOUISIANA","70808","BATON ROUGE","30","-91"
"POINT (-91.107315923812 30.648815529616)","218","0","BILLBD 9522 MAIN ST","ZACHARY","LOUISIANA","70791","ZACHARY","31","-91"
"POINT (-91.17024592878 30.389175472048)","229","0","BILLBD 990 W LEE DR","BATON ROUGE","LOUISIANA","70820","BATON ROUGE","30","-91"
"POINT (-91.151245926674 30.450635485737)","172","0","BILLBD 3829 FLORIDA BLVD","BATON ROUGE","LOUISIANA","70806","BATON ROUGE","30","-91"
"POINT (-91.17776593256 30.439935482457)","72","0","BILLBD 935 S 11TH ST","BATON ROUGE","LOUISIANA","70802","BATON ROUGE","30","-91"
"POINT (-91.106565911074 30.390965474681)","253","0","BILLBD 8150 PERKINS RD","BATON ROUGE","LOUISIANA","70810","BATON ROUGE","30","-91"
"POINT (-91.066443906643 30.434718972638)","40","0","BILLBD 1844 SHARP RD","BATON ROUGE","LOUISIANA","70815","BATON ROUGE","30","-91"
"POINT (-91.073925522295 30.367855407037)","228","0","BILLBD 9031 SIEGEN LN","BATON ROUGE","LOUISIANA","70810","PARISH","30","-91"
"POINT (-91.083140906857 30.434260484891)","14","0","BILLBD 9550 AIRLINE HWY","BATON ROUGE","LOUISIANA","70815","BATON ROUGE","30","-91"
"POINT (-91.092735910712 30.447895487606)","168","0","BILLBD 8888 AIRLINE HWY","BATON ROUGE","LOUISIANA","70806","BATON ROUGE","30","-91"
"POINT (-91.173375932272 30.447765484435)","167","0","BILLBD 1503 NORTH BLVD","BATON ROUGE","LOUISIANA","70802","BATON ROUGE","30","-91"
"POINT (-91.071575901004 30.367585470497)","365","0","BILLBD 13226 MEADOWLANE DR","BATON ROUGE","LOUISIANA","70810","PARISH","30","-91"
"POINT (-91.103145910951 30.405005477623)","28","0","BILLBD 4675 ESSEN LN","BATON ROUGE","LOUISIANA","70809","BATON ROUGE","30","-91"
"POINT (-91.166605930857 30.462805488096)","313","0","BILLBD 1630 POCAHONTAS ST","BATON ROUGE","LOUISIANA","70802","BATON ROUGE","30","-91"
"POINT (-91.161440929259 30.450245485515)","349","0","BILLBD 2604 FLORIDA ST","BATON ROUGE","LOUISIANA","70802","BATON ROUGE","30","-91"
"POINT (-91.060425902584 30.458875490948)","78","0","BILLBD 11179 FLORIDA BLVD","BATON ROUGE","LOUISIANA","70815","BATON ROUGE","30","-91"
"POINT (-91.137385922585 30.444535485329)","364","0","BILLBD 5035 GOVERNMENT ST","BATON ROUGE","LOUISIANA","70806","BATON ROUGE","30","-91"
"POINT (-91.159025927265 30.425385480469)","202","0","BILLBD 2929 PERKINS RD","BATON ROUGE","LOUISIANA","70808","BATON ROUGE","30","-91"
"POINT (-91.118575917369 30.451885487025)","232","0","BILLBD 7003 FLORIDA BLVD","BATON ROUGE","LOUISIANA","70806","BATON ROUGE","30","-91"
"POINT (-91.073195901352 30.370895471148)","203","0","BILLBD 8716 SIEGEN LN","BATON ROUGE","LOUISIANA","70810","PARISH","30","-91"
"POINT (-91.188630937046 30.467845488712)","133","0","BILLBD 2400 N 3RD ST","BATON ROUGE","LOUISIANA","70802","BATON ROUGE","30","-91"
"POINT (-91.182195933998 30.430595481068)","59","0","BILLBD 1824 HIGHLAND RD","BATON ROUGE","LOUISIANA","70802","BATON ROUGE","30","-91"
"POINT (-91.172325931722 30.447625484996)","347","0","BILLBD 1690 NORTH BLVD","BATON ROUGE","LOUISIANA","70802","BATON ROUGE","30","-91"
"POINT (-91.148250924307 30.423565480053)","384","0","BILLBD 2864 YAZOO ST","BATON ROUGE","LOUISIANA","70808","BATON ROUGE","30","-91"
"POINT (-91.173403202225 30.511284766095)","57","0","BILLBD 6720 SCENIC HWY","BATON ROUGE","LOUISIANA","70807","BATON ROUGE","31","-91"
"POINT (-91.01137588421 30.360510471087)","169","0","BILLBD 14801 AIRLINE HWY","BATON ROUGE","LOUISIANA","70817","PARISH","30","-91"
"POINT (-91.211165948467 30.577115511145)","377","0","BILLBD 14400 SCENIC HWY","BATON ROUGE","LOUISIANA","70807","PARISH","31","-91"
"POINT (-91.051935898737 30.423255483204)","13","0","BILLBD 3232 S SHERWOOD FOREST BLVD","BATON ROUGE","LOUISIANA","70816","BATON ROUGE","30","-91"
"POINT (-91.048455897854 30.431755485042)","265","0","BILLBD 12000 S HARRELL'S FERRY RD","BATON ROUGE","LOUISIANA","70816","BATON ROUGE","30","-91"
"POINT (-91.154795927561 30.452545486129)","127","0","BILLBD 500 N ACADIAN THWY","BATON ROUGE","LOUISIANA","70806","BATON ROUGE","30","-91"
"POINT (-91.134675926681 30.555355508477)","212","0","BILLBD 5661 BROWNFIELDS DR","BATON ROUGE","LOUISIANA","70811","PARISH","31","-91"
"POINT (-91.171065931643 30.450095485121)","65","0","BILLBD 1719 FLORIDA ST","BATON ROUGE","LOUISIANA","70802","BATON ROUGE","30","-91"
"POINT (-91.127515920648 30.456575488033)","103","0","BILLBD 6113 VILLA ASHLEY DR","BATON ROUGE","LOUISIANA","70806","BATON ROUGE","30","-91"
"POINT (-91.126465915728 30.355985466222)","357","0","BILLBD 1557 GARDERE LN","BATON ROUGE","LOUISIANA","70820","PARISH","30","-91"
"POINT (-91.102375911202 30.418135481137)","329","0","BILLBD 7750 OFFICE PARK BLVD","BATON ROUGE","LOUISIANA","70809","PARISH","30","-91"
"POINT (-91.121820726577 30.359012403954)","231","0","9528 BURBANK DR","BATON ROUGE","LOUISIANA","70810","PARISH","30","-91"
"POINT (-91.102055908951 30.370895470851)","159","0","BILLBD 8748 BLUEBONNET BLVD","BATON ROUGE","LOUISIANA","70810","PARISH","30","-91"
"POINT (-91.166755932059 30.480325491873)","267","0","BILLBD 3540 HIAWATHA ST","BATON ROUGE","LOUISIANA","70805","BATON ROUGE","30","-91"
"POINT (-91.052925898516 30.432265485505)","284","0","BILLBD 11631 N HARRELL'S FERRY RD","BATON ROUGE","LOUISIANA","70816","BATON ROUGE","30","-91"
"POINT (-91.113905919708 30.527525503208)","111","0","BILLBD 7524 HOOPER RD","BATON ROUGE","LOUISIANA","70811","PARISH","31","-91"
"POINT (-91.165255930551 30.461065487332)","183","0","BILLBD 2276 WILLOW ST","BATON ROUGE","LOUISIANA","70802","BATON ROUGE","30","-91"
"POINT (-91.141565922767 30.422715480147)","35","0","BILLBD 2950 COLLEGE DR","BATON ROUGE","LOUISIANA","70808","BATON ROUGE","30","-91"
"POINT (-91.048255895908 30.395265477336)","225","0","BILLBD 11855 AIRLINE HWY","BATON ROUGE","LOUISIANA","70816","BATON ROUGE","30","-91"
"POINT (-91.101255913646 30.461155490269)","269","0","BILLBD 8287 AIRLINE HWY","BATON ROUGE","LOUISIANA","70815","BATON ROUGE","30","-91"
"POINT (-91.098735909269 30.377575471871)","233","0","BILLBD 8101 BLUEBONNET BLVD","BATON ROUGE","LOUISIANA","70810","PARISH","30","-91"
"POINT (-91.179625933149 30.437885481842)","273","0","BILLBD 962 MYRTLE ST","BATON ROUGE","LOUISIANA","70802","BATON ROUGE","30","-91"
"POINT (-91.04376589479 30.38811547617)","387","0","BILLBD 12485 AIRLINE HWY","BATON ROUGE","LOUISIANA","70817","PARISH","30","-91"
"POINT (-91.105115922747 30.648625529881)","22","0","BILLBD 20150 PLANK RD","ZACHARY","LOUISIANA","70791","ZACHARY","31","-91"
"POINT (-91.111045914063 30.43076548349)","281","0","BILLBD 7415 CORPORATE BLVD","BATON ROUGE","LOUISIANA","70809","BATON ROUGE","30","-91"
"POINT (-91.177375932326 30.434415482044)","38","0","BILLBD 945 LOUISE ST","BATON ROUGE","LOUISIANA","70802","BATON ROUGE","30","-91"
"POINT (-91.064575901628 30.427905484181)","15","0","BILLBD 10795 MEAD RD","BATON ROUGE","LOUISIANA","70816","BATON ROUGE","30","-91"
"POINT (-91.173695931279 30.430935481181)","238","0","BILLBD 1220 E WASHINGTON ST","BATON ROUGE","LOUISIANA","70802","BATON ROUGE","30","-91"
"POINT (-91.041175892729 30.359845470364)","323","0","BILLBD 16191 OLD PERKINS RD","BATON ROUGE","LOUISIANA","70809","PARISH","30","-91"
"POINT (-91.166715931955 30.482745492086)","240","0","BILLBD 3764 PONTIAC ST","BATON ROUGE","LOUISIANA","70805","BATON ROUGE","30","-91"
"POINT (-91.055299283759 30.411597212345)","324","0","BILLBD 11450 COURSEY BLVD","BATON ROUGE","LOUISIANA","70816","PARISH","30","-91"
"POINT (-91.076975906075 30.456145489641)","310","0","BILLBD 9895 FLORIDA BLVD","BATON ROUGE","LOUISIANA","70815","BATON ROUGE","30","-91"
"POINT (-91.050935898934 30.432252485122)","381","0","BILLBD 11855 N HARRELL'S FERRY RD","BATON ROUGE","LOUISIANA","70816","BATON ROUGE","30","-91"
"POINT (-91.10554591097 30.388835474723)","149","0","BILLBD 8342 PERKINS RD","BATON ROUGE","LOUISIANA","70810","BATON ROUGE","30","-91"
"POINT (-91.130115919981 30.442505484991)","376","0","BILLBD 711 JEFFERSON HWY","BATON ROUGE","LOUISIANA","70806","BATON ROUGE","30","-91"
"POINT (-91.110785915011 30.435425484153)","124","0","BILLBD 1500 LOBDELL AVE","BATON ROUGE","LOUISIANA","70806","BATON ROUGE","30","-91"
"POINT (-91.150235929008 30.507505498132)","211","0","BILLBD 6224 PLANK RD","BATON ROUGE","LOUISIANA","70805","BATON ROUGE","31","-91"
"POINT (-91.12787592213 30.498445496552)","401","0","BILLBD 6310 MERRYDALE AVE","BATON ROUGE","LOUISIANA","70805","BATON ROUGE","30","-91"
"POINT (-91.087965909326 30.45458048893)","191","0","BILLBD 577 OAK VILLA BLVD","BATON ROUGE","LOUISIANA","70815","BATON ROUGE","30","-91"
"POINT (-91.17108593144 30.457125486298)","298","0","BILLBD 1760 FUQUA ST","BATON ROUGE","LOUISIANA","70802","BATON ROUGE","30","-91"
"POINT (-91.066305899122 30.365365470993)","198","0","BILLBD 13796 PERKINS RD","BATON ROUGE","LOUISIANA","70810","PARISH","30","-91"
"POINT (-91.068835903222 30.434095485181)","144","0","BILLBD 10495 OLD HAMMOND HWY","BATON ROUGE","LOUISIANA","70815","BATON ROUGE","30","-91"
"POINT (-91.024185891619 30.429615485368)","146","0","BILLBD 14546 S HARRELL'S FERRY RD","BATON ROUGE","LOUISIANA","70816","BATON ROUGE","30","-91"
"POINT (-91.146335923442 30.417875479019)","164","0","BILLBD 4222 PERKINS RD","BATON ROUGE","LOUISIANA","70808","BATON ROUGE","30","-91"
"POINT (-90.995195879171 30.346415469143)","396","0","BILLBD 16165 AIRLINE HWY","BATON ROUGE","LOUISIANA","70817","PARISH","30","-91"
"POINT (-90.985935885919 30.534755509215)","161","0","BILLBD 18750 MAGNOLIA BRIDGE RD","GREENWELL SPRINGS","LOUISIANA","70739","CENTRAL","31","-91"
"POINT (-91.034355891628 30.390655477322)","362","0","BILLBD 13460 JEFFERSON HWY","BATON ROUGE","LOUISIANA","70816","PARISH","30","-91"
"POINT (-91.041505894242 30.385955475565)","85","0","BILLBD 12555 AIRLINE HWY","BATON ROUGE","LOUISIANA","70817","PARISH","30","-91"
"POINT (-91.129845920112 30.444025485596)","116","0","BILLBD 573 JEFFERSON HWY","BATON ROUGE","LOUISIANA","70806","BATON ROUGE","30","-91"
"POINT (-91.016565888387 30.409205482149)","270","0","BILLBD 4970 JONES CREEK RD","BATON ROUGE","LOUISIANA","70817","PARISH","30","-91"
"POINT (-91.059605900583 30.428775484084)","276","0","BILLBD 10920 MEAD RD","BATON ROUGE","LOUISIANA","70816","BATON ROUGE","30","-91"
"POINT (-91.099453912902 30.45172548818)","37","0","BILLBD 8424 FLORIDA BLVD","BATON ROUGE","LOUISIANA","70806","BATON ROUGE","30","-91"
"POINT (-91.151095935641 30.663935531304)","219","0","BILLBD 6565 ZACHARY-SLAUGHTER HWY","ZACHARY","LOUISIANA","70791","ZACHARY","31","-91"
"POINT (-91.111490916326 30.473985492324)","289","0","BILLBD 7600 AIRLINE HWY","BATON ROUGE","LOUISIANA","70814","BATON ROUGE","30","-91"
"POINT (-91.146495927466 30.509035498373)","389","0","BILLBD 4388 AIRLINE HWY","BATON ROUGE","LOUISIANA","70805","BATON ROUGE","31","-91"
"POINT (-91.078315908198 30.487095496285)","255","0","BILLBD 9726 GREENWELL SPRINGS RD","BATON ROUGE","LOUISIANA","70814","BATON ROUGE","30","-91"
"POINT (-91.00212588715 30.46792549452)","148","0","BILLBD 16825 FLORIDA BLVD","BATON ROUGE","LOUISIANA","70819","PARISH","30","-91"
"POINT (-91.118285919223 30.479715493485)","67","0","BILLBD 7171 WINBOURNE AVE","BATON ROUGE","LOUISIANA","70805","BATON ROUGE","30","-91"
"POINT (-91.084725909292 30.473165492616)","61","0","BILLBD 2651 MONTERREY DR","BATON ROUGE","LOUISIANA","70814","BATON ROUGE","30","-91"
"POINT (-91.036735893432 30.41044548138)","378","0","BILLBD 12891 COURSEY BLVD","BATON ROUGE","LOUISIANA","70816","BATON ROUGE","30","-91"
"POINT (-91.167485932004 30.471445490048)","180","0","BILLBD 2623 POCAHONTAS ST","BATON ROUGE","LOUISIANA","70805","BATON ROUGE","30","-91"
"POINT (-91.15779592734 30.424865479979)","74","0","BILLBD 3033 PERKINS RD","BATON ROUGE","LOUISIANA","70808","BATON ROUGE","30","-91"
"POINT (-91.0321758921 30.409155481461)","300","0","BILLBD 13180 COURSEY BLVD","BATON ROUGE","LOUISIANA","70817","PARISH","30","-91"
"POINT (-91.267565968479 30.688695532533)","213","0","BILLBD 22120 SAMUELS RD","ZACHARY","LOUISIANA","70791","PARISH","31","-91"
"POINT (-91.165955930311 30.453765485871)","372","0","BILLBD 622 N 22ND ST","BATON ROUGE","LOUISIANA","70802","BATON ROUGE","30","-91"
"POINT (-91.178895010525 30.423584781416)","121","0","BILLBD 2771 HIGHLAND RD","BATON ROUGE","LOUISIANA","70802","BATON ROUGE","30","-91"
"POINT (-91.100395912564 30.452445487799)","223","0","BILLBD 8325 FLORIDA BLVD","BATON ROUGE","LOUISIANA","70806","BATON ROUGE","30","-91"
"POINT (-91.080920905965 30.421765481792)","176","0","BILLBD 9336 INTERLINE AVE","BATON ROUGE","LOUISIANA","70809","BATON ROUGE","30","-91"
"POINT (-91.055245899477 30.43134548511)","192","0","BILLBD 11444 REULET AVE","BATON ROUGE","LOUISIANA","70816","BATON ROUGE","30","-91"
"POINT (-91.137110921243 30.422325480527)","23","0","BILLBD 4646 CONSTITUTION AVE","BATON ROUGE","LOUISIANA","70808","BATON ROUGE","30","-91"
"POINT (-91.056355899529 30.427545484206)","243","0","BILLBD 2510 S SHERWOOD FOREST BLVD","BATON ROUGE","LOUISIANA","70816","BATON ROUGE","30","-91"
"POINT (-91.098095912458 30.471455492157)","220","0","BILLBD 8536 S CHOCTAW DR","BATON ROUGE","LOUISIANA","70815","BATON ROUGE","30","-91"
"POINT (-91.005815882855 30.360495471782)","246","0","BILLBD 20280 HIGHLAND RD","BATON ROUGE","LOUISIANA","70817","PARISH","30","-91"
"POINT (-90.996455885172 30.46724549438)","120","0","BILLBD 17331 FLORIDA BLVD","BATON ROUGE","LOUISIANA","70819","PARISH","30","-91"
"POINT (-91.111025915036 30.443885486159)","175","0","BILLBD 654 LOBDELL AVE","BATON ROUGE","LOUISIANA","70806","BATON ROUGE","30","-91"
"POINT (-91.077065904759 30.410545480072)","64","0","BILLBD 9724 JEFFERSON HWY","BATON ROUGE","LOUISIANA","70809","PARISH","30","-91"
"POINT (-91.137585921924 30.426785481227)","339","0","BILLBD 2374 COLLEGE DR","BATON ROUGE","LOUISIANA","70808","BATON ROUGE","30","-91"
"POINT (-91.038165891821 30.351735468708)","256","0","BILLBD 17031 PERKINS RD","BATON ROUGE","LOUISIANA","70810","PARISH","30","-91"
"POINT (-91.175085936997 30.551265506564)","163","0","BILLBD 11686 SCOTLAND-ZACHARY HWY","BATON ROUGE","LOUISIANA","70807","BATON ROUGE","31","-91"
"POINT (-91.05701589977 30.414245481479)","25","0","BILLBD 11111 COURSEY BLVD","BATON ROUGE","LOUISIANA","70816","BATON ROUGE","30","-91"
"POINT (-91.053765898623 30.426905484479)","90","0","BILLBD 11586 AUBURN DR","BATON ROUGE","LOUISIANA","70816","BATON ROUGE","30","-91"
"POINT (-91.019825888866 30.409405481599)","92","0","BILLBD 14241 COURSEY BLVD","BATON ROUGE","LOUISIANA","70817","PARISH","30","-91"
"POINT (-91.154965927406 30.454035486324)","208","0","BILLBD 3365 NORTH ST","BATON ROUGE","LOUISIANA","70802","BATON ROUGE","30","-91"
"POINT (-91.044465897106 30.433815485821)","76","0","BILLBD 12187 N HARRELL'S FERRY RD","BATON ROUGE","LOUISIANA","70816","BATON ROUGE","30","-91"
"POINT (-91.0503759011 30.497495499021)","242","0","BILLBD 12116 GREENWELL SPRINGS RD","BATON ROUGE","LOUISIANA","70814","PARISH","30","-91"
"POINT (-91.063465900057 30.384725474581)","30","0","BILLBD 10715 RIEGER RD","BATON ROUGE","LOUISIANA","70809","PARISH","30","-91"
"POINT (-91.007815886876 30.432635487433)","351","0","BILLBD 2520 O'NEAL LN","BATON ROUGE","LOUISIANA","70816","BATON ROUGE","30","-91"
"POINT (-91.155055929681 30.495105495072)","303","0","BILLBD 5115 PLANK RD","BATON ROUGE","LOUISIANA","70805","BATON ROUGE","30","-91"
"POINT (-91.106445915747 30.479295493458)","390","0","BILLBD 8015 GREENWELL SPRINGS RD","BATON ROUGE","LOUISIANA","70814","BATON ROUGE","30","-91"
"POINT (-91.051885898321 30.430725485143)","350","0","BILLBD 11770 S HARRELL'S FERRY RD","BATON ROUGE","LOUISIANA","70816","BATON ROUGE","30","-91"
"POINT (-91.131065919804 30.422590480972)","264","0","BILLBD 2552 CITIPLACE CT","BATON ROUGE","LOUISIANA","70808","BATON ROUGE","30","-91"
"POINT (-91.091435908499 30.418065480691)","182","0","BILLBD 8775 JEFFERSON HWY","BATON ROUGE","LOUISIANA","70809","BATON ROUGE","30","-91"
"POINT (-91.093105911104 30.471575492453)","130","0","BILLBD 8794 S CHOCTAW DR","BATON ROUGE","LOUISIANA","70815","BATON ROUGE","30","-91"
"POINT (-91.170735928797 30.388005471509)","379","0","BILLBD 1015 W LEE DR","BATON ROUGE","LOUISIANA","70820","BATON ROUGE","30","-91"
"POINT (-91.179363841333 30.423942456521)","371","0","BILLBD 2507 HIGHLAND RD","BATON ROUGE","LOUISIANA","70802","BATON ROUGE","30","-91"
"POINT (-91.18136502575 30.428183505948)","114","0","BILLBD 2066 HIGHLAND RD","BATON ROUGE","LOUISIANA","70802","BATON ROUGE","30","-91"
"POINT (-91.136515927118 30.549545507198)","319","0","BILLBD 11419 PLANK RD","BATON ROUGE","LOUISIANA","70811","PARISH","31","-91"
"POINT (-91.139395921539 30.42338548045)","44","0","BILLBD 4765 ALDRICH DR","BATON ROUGE","LOUISIANA","70808","BATON ROUGE","30","-91"
"POINT (-91.174845935606 30.512965498422)","125","0","BILLBD 7067 SCENIC HWY","BATON ROUGE","LOUISIANA","70807","BATON ROUGE","31","-91"
"POINT (-91.171225928305 30.38729547203)","352","0","BILLBD 900 DEAN LEE DR","BATON ROUGE","LOUISIANA","70820","BATON ROUGE","30","-91"
"POINT (-91.16775593735 30.589555514755)","29","0","BILLBD 1348 MAIN ST","BAKER","LOUISIANA","70714","BAKER","31","-91"
"POINT (-91.070350902647 30.417805481386)","332","0","BILLBD 10313 AIRLINE HWY","BATON ROUGE","LOUISIANA","70816","BATON ROUGE","30","-91"
"POINT (-91.065105903018 30.458085490228)","153","0","BILLBD 10785 FLORIDA BLVD","BATON ROUGE","LOUISIANA","70815","BATON ROUGE","30","-91"
"POINT (-91.025655892167 30.451085490131)","342","0","BILLBD 14423 OLD HAMMOND HWY","BATON ROUGE","LOUISIANA","70816","PARISH","30","-91"
"POINT (-91.183729831178 30.433663598757)","122","0","BILLBD 1460 HIGHLAND RD","BATON ROUGE","LOUISIANA","70802","BATON ROUGE","30","-91"
"POINT (-91.033345895823 30.479115496364)","370","0","BILLBD 2850 N FLANNERY RD","BATON ROUGE","LOUISIANA","70814","PARISH","30","-91"
"POINT (-91.143780924677 30.450955485948)","73","0","BILLBD 4547 FLORIDA BLVD","BATON ROUGE","LOUISIANA","70806","BATON ROUGE","30","-91"
"POINT (-91.109035913943 30.431215483229)","170","0","BILLBD 7587 JEFFERSON HWY","BATON ROUGE","LOUISIANA","70806","BATON ROUGE","30","-91"
"POINT (-91.051435897955 30.407195479992)","11","0","BILLBD 5235 S SHERWOOD FOREST BLVD","BATON ROUGE","LOUISIANA","70816","BATON ROUGE","30","-91"
"POINT (-91.051195897525 30.410225480355)","7","0","BILLBD 4875 S SHERWOOD FOREST BLVD","BATON ROUGE","LOUISIANA","70816","BATON ROUGE","30","-91"
"POINT (-91.073075902889 30.409635479926)","139","0","BILLBD 4425 FLOYNELL DR","BATON ROUGE","LOUISIANA","70809","PARISH","30","-91"
"POINT (-91.06632590162 30.408215479793)","336","0","BILLBD 10448 JEFFERSON HWY","BATON ROUGE","LOUISIANA","70809","PARISH","30","-91"
"POINT (-91.07206590325 30.415835481628)","89","0","BILLBD 3373 BLUEBONNET BLVD","BATON ROUGE","LOUISIANA","70816","BATON ROUGE","30","-91"
"POINT (-91.04293089395 30.386055475941)","41","0","BILLBD 12636 AIRLINE HWY","BATON ROUGE","LOUISIANA","70809","PARISH","30","-91"
"POINT (-91.186040935289 30.43936548268)","70","0","BILLBD 440 SOUTH BLVD","BATON ROUGE","LOUISIANA","70802","BATON ROUGE","30","-91"
"POINT (-91.047155897655 30.433315486155)","32","0","BILLBD 11969 N HARRELL'S FERRY RD","BATON ROUGE","LOUISIANA","70816","BATON ROUGE","30","-91"
"POINT (-91.10812591263 30.397225476174)","247","0","BILLBD 5615 ESSEN LN","BATON ROUGE","LOUISIANA","70810","BATON ROUGE","30","-91"
"POINT (-91.141365921987 30.415955479004)","293","0","BILLBD 4665 PERKINS RD","BATON ROUGE","LOUISIANA","70808","BATON ROUGE","30","-91"
"POINT (-91.091700108046 30.416863266654)","34","0","BILLBD 8890 QUARTERS LAKE RD","BATON ROUGE","LOUISIANA","70809","PARISH","30","-91"
"POINT (-91.057815900248 30.435175486215)","152","0","BILLBD 11124 OLD HAMMOND HWY","BATON ROUGE","LOUISIANA","70816","BATON ROUGE","30","-91"
"POINT (-91.102200856231 30.350910692488)","195","0","11152 BURBANK DR","BATON ROUGE","LOUISIANA","70810","PARISH","30","-91"
"POINT (-91.050115897439 30.410885480568)","295","0","BILLBD 11740 COURSEY BLVD","BATON ROUGE","LOUISIANA","70816","BATON ROUGE","30","-91"
"POINT (-91.157185925137 30.396615474538)","10","0","BILLBD 320 LEE DR","BATON ROUGE","LOUISIANA","70808","BATON ROUGE","30","-91"
"POINT (-91.052065898103 30.410145480264)","330","0","BILLBD 4888 S SHERWOOD FOREST BLVD","BATON ROUGE","LOUISIANA","70816","PARISH","30","-91"
"POINT (-91.144169875708 30.524182376586)","101","0","8206 PLANK RD","BATON ROUGE","LOUISIANA","70811","BATON ROUGE","31","-91"
"POINT (-91.140865926566 30.522465501872)","290","0","BILLBD 4949 HOOPER RD","BATON ROUGE","LOUISIANA","70811","BATON ROUGE","31","-91"
"POINT (-91.158945930304 30.499815496124)","268","0","BILLBD 3145 HOLLYWOOD ST","BATON ROUGE","LOUISIANA","70805","BATON ROUGE","30","-91"
"POINT (-91.08856591094 30.489945496062)","388","0","BILLBD 4206 JOOR RD","BATON ROUGE","LOUISIANA","70814","PARISH","30","-91"
"POINT (-91.178255930454 30.388025471678)","337","0","BILLBD 1855 BRIGHTSIDE DR","BATON ROUGE","LOUISIANA","70820","BATON ROUGE","30","-91"
"POINT (-91.129325925395 30.568405511906)","217","0","BILLBD 13434 PLANK RD","BAKER","LOUISIANA","70714","BAKER","31","-91"
"POINT (-91.100795913232 30.459165489263)","186","0","BILLBD 8366 AIRLINE HWY","BATON ROUGE","LOUISIANA","70806","BATON ROUGE","30","-91"
"POINT (-91.179145932981 30.443255483574)","308","0","BILLBD 551 S 10TH ST","BATON ROUGE","LOUISIANA","70802","BATON ROUGE","30","-91"
"POINT (-91.047915895889 30.392385477403)","84","0","BILLBD 11997 AIRLINE HWY","BATON ROUGE","LOUISIANA","70816","PARISH","30","-91"
"POINT (-91.16717093169 30.469120488965)","262","0","BILLBD 2170 MONROE AVE","BATON ROUGE","LOUISIANA","70802","BATON ROUGE","30","-91"
"POINT (-91.139485923515 30.453265486842)","113","0","BILLBD 585 N FOSTER DR","BATON ROUGE","LOUISIANA","70806","BATON ROUGE","30","-91"
"POINT (-91.114105917264 30.47909549323)","179","0","BILLBD 7375 AIRLINE HWY","BATON ROUGE","LOUISIANA","70805","BATON ROUGE","30","-91"
"POINT (-91.125021586755 30.421657781278)","321","0","BILLBD 2612 CITIPLACE CT","BATON ROUGE","LOUISIANA","70808","BATON ROUGE","30","-91"
"POINT (-91.163018390741 30.610860799683)","42","0","BILLBD 3204 MAIN ST","BAKER","LOUISIANA","70714","BAKER","31","-91"
"POINT (-91.168455932528 30.484245492791)","301","0","BILLBD 3884 SCENIC HWY","BATON ROUGE","LOUISIANA","70805","BATON ROUGE","30","-91"
"POINT (-91.015475887411 30.405795481326)","140","0","BILLBD 5233 JONES CREEK RD","BATON ROUGE","LOUISIANA","70817","PARISH","30","-91"
"POINT (-91.087305909538 30.455685488869)","108","0","BILLBD 640 OAK VILLA BLVD","BATON ROUGE","LOUISIANA","70815","BATON ROUGE","30","-91"
"POINT (-91.169545936655 30.580245513212)","215","0","BILLBD 430 MAIN ST","BAKER","LOUISIANA","70714","BAKER","31","-91"
"POINT (-91.116075917326 30.451155487649)","286","0","BILLBD 7122 FLORIDA BLVD","BATON ROUGE","LOUISIANA","70806","BATON ROUGE","30","-91"
"POINT (-91.113335916896 30.458275489121)","360","0","BILLBD 851 LOBDELL BLVD","BATON ROUGE","LOUISIANA","70806","BATON ROUGE","30","-91"
"POINT (-91.100400792356 30.380750311917)","165","0","BILLBD 9460 PERKINS RD","BATON ROUGE","LOUISIANA","70810","BATON ROUGE","30","-91"
"POINT (-91.107605911872 30.397415475669)","91","0","BILLBD 5901 MANCUSO LN","BATON ROUGE","LOUISIANA","70809","PARISH","30","-91"
"POINT (-91.126135918001 30.408645478161)","129","0","BILLBD 6202 WINDRUSH HOLLOW","BATON ROUGE","LOUISIANA","70808","BATON ROUGE","30","-91"
"POINT (-91.167765932221 30.47405549078)","234","0","BILLBD 2183 OSAGE ST","BATON ROUGE","LOUISIANA","70805","BATON ROUGE","30","-91"
"POINT (-91.057095898373 30.40126547895)","327","0","BILLBD 11112 AIRLINE HWY","BATON ROUGE","LOUISIANA","70809","PARISH","30","-91"
"POINT (-91.16625593026 30.446545484739)","307","0","BILLBD 223 S 22ND ST","BATON ROUGE","LOUISIANA","70806","BATON ROUGE","30","-91"
"POINT (-91.031335894776 30.463435492765)","60","0","BILLBD 13875 FLORIDA BLVD","BATON ROUGE","LOUISIANA","70819","BATON ROUGE","30","-91"
"POINT (-91.098805909007 30.378515472712)","224","0","BILLBD 9690 PERKINS RD","BATON ROUGE","LOUISIANA","70810","PARISH","30","-91"
"POINT (-91.172615929525 30.389675472106)","271","0","BILLBD 5201 NICHOLSON DR","BATON ROUGE","LOUISIANA","70820","BATON ROUGE","30","-91"
"POINT (-91.187143731273 30.438213272721)","100","0","BILLBD 1010 NICHOLSON DR","BATON ROUGE","LOUISIANA","70802","BATON ROUGE","30","-91"
"POINT (-91.054985898308 30.398685477994)","145","0","BILLBD 11310 AIRLINE HWY","BATON ROUGE","LOUISIANA","70816","PARISH","30","-91"
"POINT (-91.178315933814 30.449465484512)","126","0","1124 FLORIDA ST","BATON ROUGE","LOUISIANA","70802","BATON ROUGE","30","-91"
"POINT (-91.089505909767 30.442505486653)","199","0","BILLBD 9110 AIRLINE HWY","BATON ROUGE","LOUISIANA","70815","BATON ROUGE","30","-91"
"POINT (-91.140145919647 30.379005471481)","174","0","BILLBD 7280 HIGHLAND RD","BATON ROUGE","LOUISIANA","70808","BATON ROUGE","30","-91"
"POINT (-91.165625932024 30.485315493092)","24","0","BILLBD 3931 TUSCARORA ST","BATON ROUGE","LOUISIANA","70805","BATON ROUGE","30","-91"
"POINT (-91.187605934896 30.422675478334)","105","0","BILLBD 2750 NICHOLSON DR","BATON ROUGE","LOUISIANA","70802","BATON ROUGE","30","-91"
"POINT (-91.12179591863 30.451845487519)","136","0","BILLBD 6615 FLORIDA BLVD","BATON ROUGE","LOUISIANA","70806","BATON ROUGE","30","-91"
"POINT (-91.159315926855 30.424435480526)","278","0","BILLBD 2210 CHRISTIAN ST","BATON ROUGE","LOUISIANA","70808","BATON ROUGE","30","-91"
"POINT (-91.168425937308 30.586285514258)","8","0","BILLBD 1082 MAIN ST","BAKER","LOUISIANA","70714","BAKER","31","-91"
"POINT (-91.072015903409 30.420265482165)","279","0","BILLBD 10120 DARADELE AVE","BATON ROUGE","LOUISIANA","70816","BATON ROUGE","30","-91"
"POINT (-91.048342183787 30.370209924932)","266","0","BILLBD 11900 RIEGER RD","BATON ROUGE","LOUISIANA","70809","PARISH","30","-91"
"POINT (-91.149855935177 30.650855528417)","395","0","BILLBD 5005 CHURCH ST","ZACHARY","LOUISIANA","70791","ZACHARY","31","-91"
"POINT (-91.130575917238 30.364125468116)","87","0","BILLBD 828 MEADOW BEND DR","BATON ROUGE","LOUISIANA","70820","PARISH","30","-91"
"POINT (-91.107555915209 30.471095491737)","399","0","BILLBD 7878 S CHOCTAW DR","BATON ROUGE","LOUISIANA","70815","BATON ROUGE","30","-91"
"POINT (-91.039945897482 30.473195494872)","132","0","BILLBD 13113 S CHOCTAW DR","BATON ROUGE","LOUISIANA","70815","BATON ROUGE","30","-91"
"POINT (-91.034265891836 30.391305477229)","334","0","BILLBD 13455 JEFFERSON HWY","BATON ROUGE","LOUISIANA","70817","PARISH","30","-91"
"POINT (-91.062045899577 30.389225475994)","39","0","BILLBD 6678 SIEGEN LN","BATON ROUGE","LOUISIANA","70809","PARISH","30","-91"
"POINT (-91.038775898723 30.506445501922)","368","0","BILLBD 13333 GREENWELL SPRINGS RD","GREENWELL SPRINGS","LOUISIANA","70739","CENTRAL","31","-91"
"POINT (-91.096105908171 30.381375472899)","123","0","BILLBD 7505 BLUEBONNET BLVD","BATON ROUGE","LOUISIANA","70810","PARISH","30","-91"
"POINT (-91.025805893448 30.463685492698)","392","0","BILLBD 14322 FLORIDA BLVD","BATON ROUGE","LOUISIANA","70819","PARISH","30","-91"
"POINT (-91.16600593083 30.465775488518)","291","0","BILLBD 2319 SHAWNEE ST","BATON ROUGE","LOUISIANA","70802","BATON ROUGE","30","-91"
"POINT (-91.032863438366 30.462583704672)","2","0","13602 FLORIDA BLVD","BATON ROUGE","LOUISIANA","70819","BATON ROUGE","30","-91"
"POINT (-91.048041357028 30.365341553127)","83","0","BILLBD 9160 PECUE LN","BATON ROUGE","LOUISIANA","70809","PARISH","30","-91"
"POINT (-91.086755908431 30.440885486234)","197","0","BILLBD 9245 AIRLINE HWY","BATON ROUGE","LOUISIANA","70815","BATON ROUGE","30","-91"
"POINT (-91.04985589638 30.395255478021)","382","0","BILLBD 11866 JEFFERSON HWY","BATON ROUGE","LOUISIANA","70816","PARISH","30","-91"
"POINT (-91.0828359099 30.485135495436)","160","0","BILLBD 9470 GREENWELL SPRINGS RD","BATON ROUGE","LOUISIANA","70814","BATON ROUGE","30","-91"
"POINT (-91.116505918142 30.474765492424)","341","0","BILLBD 2751 WOODDALE BLVD","BATON ROUGE","LOUISIANA","70805","BATON ROUGE","30","-91"
"POINT (-91.115315916642 30.461155489364)","48","0","BILLBD 7137 RENOIR AVE","BATON ROUGE","LOUISIANA","70806","BATON ROUGE","30","-91"
"POINT (-91.170715931198 30.4485654851)","93","0","BILLBD 155 N 18TH ST","BATON ROUGE","LOUISIANA","70802","BATON ROUGE","30","-91"
"POINT (-91.014875887845 30.408365481587)","143","0","BILLBD 15222 GEORGE O'NEAL RD","BATON ROUGE","LOUISIANA","70817","PARISH","30","-91"
"POINT (-91.165975937146 30.599145517183)","398","0","BILLBD 2250 MAIN ST","BAKER","LOUISIANA","70714","BAKER","31","-91"
"POINT (-91.168755937164 30.585115513565)","393","0","BILLBD 918 MAIN ST","BAKER","LOUISIANA","70714","BAKER","31","-91"
"POINT (-91.044495894641 30.395095478133)","361","0","BILLBD 6155 PARKFOREST DR","BATON ROUGE","LOUISIANA","70816","BATON ROUGE","30","-91"
"POINT (-91.140355922107 30.421805480463)","383","0","BILLBD 2929 COLLEGE DR","BATON ROUGE","LOUISIANA","70808","BATON ROUGE","30","-91"
"POINT (-91.179775934473 30.451965485406)","304","0","BILLBD 510 N 10TH ST","BATON ROUGE","LOUISIANA","70802","BATON ROUGE","30","-91"
"POINT (-91.054705898205 30.400475478993)","331","0","BILLBD 11377 AIRLINE HWY","BATON ROUGE","LOUISIANA","70816","PARISH","30","-91"
"POINT (-91.174765932356 30.44381548389)","346","0","BILLBD 1385 GOVERNMENT ST","BATON ROUGE","LOUISIANA","70802","BATON ROUGE","30","-91"
"POINT (-91.131815919709 30.425205481097)","95","0","BILLBD 5757 CORPORATE BLVD","BATON ROUGE","LOUISIANA","70808","BATON ROUGE","30","-91"
"POINT (-91.062345898733 30.364245470236)","348","0","BILLBD 13943 PERKINS RD","BATON ROUGE","LOUISIANA","70810","PARISH","30","-91"
"POINT (-91.128545925849 30.57371551261)","397","0","BILLBD 13920 PLANK RD","BAKER","LOUISIANA","70714","BAKER","31","-91"
"POINT (-91.110275912633 30.394305475646)","209","0","BILLBD 2159 STARING LN","BATON ROUGE","LOUISIANA","70808","BATON ROUGE","30","-91"
"POINT (-91.050085895323 30.359215469875)","138","0","BILLBD 9901 PERFORMANCE WAY","BATON ROUGE","LOUISIANA","70810","PARISH","30","-91"
"POINT (-91.069515903377 30.426765484096)","297","0","BILLBD 10525 PLAZA AMERICANA DR","BATON ROUGE","LOUISIANA","70816","BATON ROUGE","30","-91"
"POINT (-91.144825922875 30.423665480045)","189","0","BILLBD 4510 BAWELL ST","BATON ROUGE","LOUISIANA","70808","BATON ROUGE","30","-91"
"POINT (-91.025115887953 30.350855468575)","187","0","BILLBD 18313 HIGHLAND RD","BATON ROUGE","LOUISIANA","70810","PARISH","30","-91"
"POINT (-91.14838160506 30.424333401774)","205","0","2355 S ACADIAN THWY","BATON ROUGE","LOUISIANA","70808","BATON ROUGE","30","-91"
"POINT (-91.059572091763 30.392295751626)","325","0","BILLBD 6363 SIEGEN LN","BATON ROUGE","LOUISIANA","70809","PARISH","30","-91"
"POINT (-91.031755891177 30.392075477231)","363","0","BILLBD 13659 TIGER BEND RD","BATON ROUGE","LOUISIANA","70817","PARISH","30","-91"
"POINT (-91.166005930647 30.463015487715)","109","0","BILLBD 1600 PLANK RD","BATON ROUGE","LOUISIANA","70802","BATON ROUGE","30","-91"
"POINT (-91.177295930411 30.395695473007)","355","0","BILLBD 4450 NICHOLSON DR","BATON ROUGE","LOUISIANA","70820","PARISH","30","-91"
"POINT (-91.106155914595 30.467860490942)","50","0","BILLBD 7919 AIRLINE HWY","BATON ROUGE","LOUISIANA","70815","BATON ROUGE","30","-91"
"POINT (-90.997285885721 30.466755494493)","400","0","BILLBD 17360 FLORIDA BLVD","BATON ROUGE","LOUISIANA","70816","PARISH","30","-91"
"POINT (-91.055795901403 30.45895549118)","287","0","BILLBD 11522 FLORIDA BLVD","BATON ROUGE","LOUISIANA","70815","BATON ROUGE","30","-91"
"POINT (-91.169375936717 30.581335513556)","216","0","BILLBD 580 MAIN ST","BAKER","LOUISIANA","70714","BAKER","31","-91"
"POINT (-91.044925896495 30.432645485384)","190","0","BILLBD 12451 S HARRELL'S FERRY RD","BATON ROUGE","LOUISIANA","70816","BATON ROUGE","30","-91"
"POINT (-91.127585920148 30.453705487654)","102","0","BILLBD 6201 FLORIDA BLVD","BATON ROUGE","LOUISIANA","70806","BATON ROUGE","30","-91"
"POINT (-91.01724588783 30.399785479345)","154","0","BILLBD 5917 JONES CREEK RD","BATON ROUGE","LOUISIANA","70817","PARISH","30","-91"
"POINT (-91.151185925526 30.426815481229)","338","0","BILLBD 2246 S ACADIAN THWY","BATON ROUGE","LOUISIANA","70808","BATON ROUGE","30","-91"
"POINT (-91.136824921437 30.425719481563)","150","0","BILLBD 5151 CORPORATE BLVD","BATON ROUGE","LOUISIANA","70808","BATON ROUGE","30","-91"
"POINT (-91.057505898682 30.397595478092)","16","0","BILLBD 5760 SIEGEN LN","BATON ROUGE","LOUISIANA","70809","PARISH","30","-91"
"POINT (-91.001124782633 30.361881133015)","62","0","BILLBD 17232 JEFFERSON HWY","BATON ROUGE","LOUISIANA","70817","PARISH","30","-91"
"POINT (-91.044105892663 30.353445468627)","86","0","BILLBD 16200 PERKINS RD","BATON ROUGE","LOUISIANA","70810","PARISH","30","-91"
"POINT (-91.078425905701 30.42299548276)","326","0","BILLBD 9502 INTERLINE AVE","BATON ROUGE","LOUISIANA","70809","BATON ROUGE","30","-91"
"POINT (-91.150815924839 30.420365479202)","156","0","BILLBD 3753 PERKINS RD","BATON ROUGE","LOUISIANA","70808","BATON ROUGE","30","-91"
"POINT (-91.167092931027 30.46566848833)","312","0","BILLBD 2015 POCAHONTAS ST","BATON ROUGE","LOUISIANA","70802","BATON ROUGE","30","-91"
"POINT (-91.107564364727 30.352847197342)","343","0","10706 BURBANK DR","BATON ROUGE","LOUISIANA","70810","PARISH","30","-91"
"POINT (-91.053265898599 30.411415481097)","31","0","BILLBD 11575 COURSEY BLVD","BATON ROUGE","LOUISIANA","70816","BATON ROUGE","30","-91"
"POINT (-91.136035921351 30.423225480602)","296","0","BILLBD 5210 CORPORATE BLVD","BATON ROUGE","LOUISIANA","70808","BATON ROUGE","30","-91"
"POINT (-91.04424589308 30.363535471213)","322","0","BILLBD 9201 PECUE LN","BATON ROUGE","LOUISIANA","70809","PARISH","30","-91"
"POINT (-91.166865931782 30.485245492492)","193","0","BILLBD 2360 WELLER AVE","BATON ROUGE","LOUISIANA","70805","BATON ROUGE","30","-91"
"POINT (-91.154155936008 30.640605526389)","394","0","BILLBD 3755 HIGHWAY 19","ZACHARY","LOUISIANA","70791","ZACHARY","31","-91"
"POINT (-91.180124827818 30.443150480662)","26","0","BILLBD 929 GOVERNMENT ST","BATON ROUGE","LOUISIANA","70802","BATON ROUGE","30","-91"
"POINT (-91.167475933389 30.50843549748)","56","0","BILLBD 2360 AIRLINE HWY","BATON ROUGE","LOUISIANA","70805","BATON ROUGE","31","-91"
"POINT (-91.092255908089 30.388565474888)","20","0","BILLBD 6851 BLUEBONNET BLVD","BATON ROUGE","LOUISIANA","70809","BATON ROUGE","30","-91"
"POINT (-91.116695912269 30.356815466778)","375","0","BILLBD 10040 BURBANK DR","BATON ROUGE","LOUISIANA","70810","PARISH","30","-91"
"POINT (-91.061035900676 30.42927548486)","171","0","BILLBD 11110 BOARDWALK DR","BATON ROUGE","LOUISIANA","70816","BATON ROUGE","30","-91"
"POINT (-91.184165934913 30.434575481655)","257","0","BILLBD 1420 HIGHLAND RD","BATON ROUGE","LOUISIANA","70802","BATON ROUGE","30","-91"
"POINT (-91.116305914978 30.399725476675)","94","0","BILLBD 7049 PERKINS RD","BATON ROUGE","LOUISIANA","70808","BATON ROUGE","30","-91"
"POINT (-91.086325910274 30.471745492642)","221","0","BILLBD 9150 S CHOCTAW DR","BATON ROUGE","LOUISIANA","70815","BATON ROUGE","30","-91"
"POINT (-91.07224590679 30.48998549682)","128","0","BILLBD 10061 ALPHA DR","BATON ROUGE","LOUISIANA","70814","BATON ROUGE","30","-91"
"POINT (-91.000735881363 30.362425472587)","151","0","BILLBD 17155 JEFFERSON HWY","BATON ROUGE","LOUISIANA","70817","PARISH","30","-91"
"POINT (-91.04017589405 30.391161477311)","81","0","BILLBD 6629 PECUE LN","BATON ROUGE","LOUISIANA","70816","PARISH","30","-91"
"POINT (-91.169245936703 30.581445513512)","106","0","BILLBD 590 MAIN ST","BAKER","LOUISIANA","70714","BAKER","31","-91"
"POINT (-91.156435928159 30.45040548549)","119","0","BILLBD 3135 FLORIDA BLVD","BATON ROUGE","LOUISIANA","70802","BATON ROUGE","30","-91"
"POINT (-91.08920590704 30.393385476077)","157","0","BILLBD 6230 BLUEBONNET BLVD","BATON ROUGE","LOUISIANA","70809","PARISH","30","-91"
"POINT (-91.034815892715 30.410135481065)","201","0","BILLBD 12944 COURSEY BLVD","BATON ROUGE","LOUISIANA","70817","PARISH","30","-91"
"POINT (-91.126545921699 30.495285496298)","235","0","BILLBD 6454 AIRLINE HWY","BATON ROUGE","LOUISIANA","70805","BATON ROUGE","30","-91"
"POINT (-91.130875920411 30.444465485672)","115","0","BILLBD 534 JEFFERSON HWY","BATON ROUGE","LOUISIANA","70806","BATON ROUGE","30","-91"
"POINT (-91.055255900802 30.459650491428)","277","0","BILLBD 11599 FLORIDA BLVD","BATON ROUGE","LOUISIANA","70815","BATON ROUGE","30","-91"
"POINT (-91.131885919511 30.421885480516)","185","0","BILLBD 4964 CONSTITUTION AVE","BATON ROUGE","LOUISIANA","70808","BATON ROUGE","30","-91"
"POINT (-91.15796092653 30.425420480382)","69","0","BILLBD 2361 HOLLYDALE AVE","BATON ROUGE","LOUISIANA","70808","BATON ROUGE","30","-91"
"POINT (-91.167435932107 30.476775490709)","77","0","BILLBD 3120 SCENIC HWY","BATON ROUGE","LOUISIANA","70805","BATON ROUGE","30","-91"
"POINT (-91.055985898571 30.412265481313)","254","0","BILLBD 11330 COURSEY BLVD","BATON ROUGE","LOUISIANA","70816","PARISH","30","-91"
"POINT (-91.096605909747 30.403475477594)","33","0","BILLBD 8411 ONE CALAIS AVE","BATON ROUGE","LOUISIANA","70809","BATON ROUGE","30","-91"
"POINT (-91.151865925429 30.422255479801)","155","0","BILLBD 2505 S ACADIAN THWY","BATON ROUGE","LOUISIANA","70808","BATON ROUGE","30","-91"
"POINT (-91.14248592218 30.41727547878)","46","0","BILLBD 4615 PERKINS RD","BATON ROUGE","LOUISIANA","70808","BATON ROUGE","30","-91"
"POINT (-91.051075899621 30.460300491879)","237","0","BILLBD 11917 FLORIDA BLVD","BATON ROUGE","LOUISIANA","70815","BATON ROUGE","30","-91"
"POINT (-91.089505908121 30.41839548162)","274","0","BILLBD 3550 DRUSILLA LN","BATON ROUGE","LOUISIANA","70809","BATON ROUGE","30","-91"
"POINT (-91.165618931693 30.490285494055)","184","0","BILLBD 4504 BATON ROUGE AVE","BATON ROUGE","LOUISIANA","70805","BATON ROUGE","30","-91"
"POINT (-91.171485930598 30.42907548095)","206","0","BILLBD 1420 E HARRISON ST","BATON ROUGE","LOUISIANA","70802","BATON ROUGE","30","-91"
"POINT (-91.127905926231 30.575955513364)","27","0","BILLBD 6655 LAVEY LN","BAKER","LOUISIANA","70714","BAKER","31","-91"
"POINT (-91.160485930988 30.496075494973)","181","0","BILLBD 3004 LORRAINE ST","BATON ROUGE","LOUISIANA","70805","BATON ROUGE","30","-91"
"POINT (-91.142925922981 30.417415479352)","135","0","BILLBD 4485 PERKINS RD","BATON ROUGE","LOUISIANA","70808","BATON ROUGE","30","-91"
"POINT (-91.156055928096 30.468665489494)","104","0","BILLBD 2305 N ACADIAN THWY E","BATON ROUGE","LOUISIANA","70802","BATON ROUGE","30","-91"
"POINT (-91.024135891049 30.430285485856)","147","0","BILLBD 3255 MILLERVILLE RD","BATON ROUGE","LOUISIANA","70816","BATON ROUGE","30","-91"
"POINT (-91.038975891673 30.358795470511)","320","0","BILLBD 16205 OLD PERKINS RD","BATON ROUGE","LOUISIANA","70809","PARISH","30","-91"
"POINT (-91.145805923161 30.417405478833)","340","0","BILLBD 4270 PERKINS RD","BATON ROUGE","LOUISIANA","70808","BATON ROUGE","30","-91"
"POINT (-91.093895912163 30.471555492309)","318","0","BILLBD 8784 S CHOCTAW DR","BATON ROUGE","LOUISIANA","70815","BATON ROUGE","30","-91"
"POINT (-91.082925906477 30.420995481996)","178","0","BILLBD 9224 INTERLINE AVE","BATON ROUGE","LOUISIANA","70809","BATON ROUGE","30","-91"
"POINT (-91.178065930586 30.397085473475)","19","0","BILLBD 4383 NICHOLSON DR","BATON ROUGE","LOUISIANA","70808","BATON ROUGE","30","-91"
"POINT (-91.108905915498 30.470585491227)","79","0","BILLBD 7700 AIRLINE HWY","BATON ROUGE","LOUISIANA","70806","BATON ROUGE","30","-91"
"POINT (-91.085985906939 30.41984548119)","333","0","BILLBD 9059 INTERLINE AVE","BATON ROUGE","LOUISIANA","70809","BATON ROUGE","30","-91"
"POINT (-91.036275897576 30.506275501487)","369","0","BILLBD 13450 GREENWELL SPRINGS RD","GREENWELL SPRINGS","LOUISIANA","70739","CENTRAL","31","-91"
"POINT (-91.092175909357 30.417585481089)","283","0","BILLBD 3460 SAN FELIPE DR","BATON ROUGE","LOUISIANA","70809","PARISH","30","-91"
"POINT (-91.117885918829 30.482785494038)","236","0","BILLBD 7186 AIRLINE HWY","BATON ROUGE","LOUISIANA","70805","BATON ROUGE","30","-91"
"POINT (-91.050290896674 30.394120477513)","385","0","BILLBD 11770 AIRLINE HWY","BATON ROUGE","LOUISIANA","70816","PARISH","30","-91"
"POINT (-91.036515895879 30.462615492433)","226","0","BILLBD 13475 FLORIDA BLVD","BATON ROUGE","LOUISIANA","70815","BATON ROUGE","30","-91"
"POINT (-91.140925925374 30.498455496645)","53","0","BILLBD 5397 N FOSTER DR","BATON ROUGE","LOUISIANA","70805","BATON ROUGE","30","-91"
"POINT (-91.158764616262 30.394572498006)","99","0","152 LEE DR","BATON ROUGE","LOUISIANA","70808","BATON ROUGE","30","-91"
"POINT (-91.080065906051 30.430195483852)","288","0","BILLBD 9712 AIRLINE HWY","BATON ROUGE","LOUISIANA","70809","BATON ROUGE","30","-91"
"POINT (-91.06505590218 30.435025485934)","68","0","BILLBD 10759 OLD HAMMOND HWY","BATON ROUGE","LOUISIANA","70815","BATON ROUGE","30","-91"
"POINT (-91.110905914286 30.434295483929)","317","0","BILLBD 1670 LOBDELL AVE","BATON ROUGE","LOUISIANA","70806","BATON ROUGE","30","-91"
"POINT (-91.1730459316 30.429465481117)","272","0","BILLBD 1201 E HARRISON ST","BATON ROUGE","LOUISIANA","70802","BATON ROUGE","30","-91"
"POINT (-91.048225893974 30.358005469525)","88","0","BILLBD 15717 PERKINS RD","BATON ROUGE","LOUISIANA","70810","PARISH","30","-91"
"POINT (-91.057465897933 30.377705473198)","244","0","BILLBD 11025 RIEGER RD","BATON ROUGE","LOUISIANA","70809","PARISH","30","-91"
"POINT (-91.027885897339 30.540235509002)","241","0","BILLBD 10200 SULLIVAN RD","CENTRAL","LOUISIANA","70818","CENTRAL","31","-91"
"POINT (-91.13565592495 30.506745498004)","166","0","BILLBD 5455 AIRLINE HWY","BATON ROUGE","LOUISIANA","70811","BATON ROUGE","31","-91"
"POINT (-91.140135925636 30.50866549887)","200","0","BILLBD 5035 AIRLINE HWY","BATON ROUGE","LOUISIANA","70811","BATON ROUGE","31","-91"
"POINT (-91.053735897646 30.397625478103)","36","0","BILLBD 11450 AIRLINE HWY","BATON ROUGE","LOUISIANA","70816","PARISH","30","-91"
"POINT (-91.058925899689 30.40344047883)","55","0","BILLBD 11020 AIRLINE HWY","BATON ROUGE","LOUISIANA","70816","PARISH","30","-91"
"POINT (-91.083765909354 30.485455495257)","316","0","BILLBD 9409 GREENWELL SPRINGS RD","BATON ROUGE","LOUISIANA","70814","PARISH","30","-91"
"POINT (-91.052985899081 30.437875486986)","107","0","BILLBD 11810 OLD HAMMOND HWY","BATON ROUGE","LOUISIANA","70816","BATON ROUGE","30","-91"
"POINT (-91.012565888201 30.440655488739)","328","0","BILLBD 16040 HATTERAS AVE","BATON ROUGE","LOUISIANA","70816","BATON ROUGE","30","-91"
"POINT (-91.171115934415 30.50772549704)","311","0","BILLBD 6450 SCENIC HWY","BATON ROUGE","LOUISIANA","70805","BATON ROUGE","31","-91"
"POINT (-91.138135921524 30.41458547847)","294","0","BILLBD 4851 PERKINS RD","BATON ROUGE","LOUISIANA","70808","BATON ROUGE","30","-91"
"POINT (-91.057295898133 30.395995477665)","63","0","BILLBD 5801 SIEGEN LN","BATON ROUGE","LOUISIANA","70809","PARISH","30","-91"
"POINT (-91.081325906911 30.433305485024)","194","0","BILLBD 9625 AIRLINE HWY","BATON ROUGE","LOUISIANA","70815","BATON ROUGE","30","-91"
"POINT (-91.104595914261 30.45144548814)","43","0","BILLBD 8046 FLORIDA BLVD","BATON ROUGE","LOUISIANA","70806","BATON ROUGE","30","-91"
"POINT (-91.085905905173 30.371945471802)","66","0","BILLBD 11440 PERKINS RD","BATON ROUGE","LOUISIANA","70810","PARISH","30","-91"
"POINT (-91.091155906952 30.376685472345)","261","0","BILLBD 10761 PERKINS RD","BATON ROUGE","LOUISIANA","70810","PARISH","30","-91"
"POINT (-91.108775910946 30.357675467562)","97","0","BILLBD 9804 BLUEBONNET BLVD","BATON ROUGE","LOUISIANA","70810","PARISH","30","-91"
"POINT (-91.056075898036 30.400145478202)","285","0","BILLBD 11238 AIRLINE HWY","BATON ROUGE","LOUISIANA","70809","PARISH","30","-91"
"POINT (-91.097284786468 30.416306285488)","402","0","8610 QUARTERS LAKE RD","BATON ROUGE","LOUISIANA","70809","PARISH","30","-91"
"POINT (-91.0934359072 30.376845471767)","280","0","BILLBD 10380 PERKINS RD","BATON ROUGE","LOUISIANA","70810","PARISH","30","-91"
"POINT (-91.004795887597 30.461675493011)","45","0","BILLBD 16270 OLD HAMMOND HWY","BATON ROUGE","LOUISIANA","70816","PARISH","30","-91"
"POINT (-91.019825890226 30.439835488321)","292","0","BILLBD 2301 MILLERVILLE RD","BATON ROUGE","LOUISIANA","70816","PARISH","30","-91"
"POINT (-91.083645906673 30.419655481993)","263","0","BILLBD 8939 JEFFERSON HWY","BATON ROUGE","LOUISIANA","70809","BATON ROUGE","30","-91"
"POINT (-90.998405884484 30.445045490235)","275","0","BILLBD 16572 COMMERCIAL AVE","BATON ROUGE","LOUISIANA","70816","PARISH","30","-91"
"POINT (-91.04157589359 30.39177547757)","366","0","BILLBD 6638 PECUE LN","BATON ROUGE","LOUISIANA","70816","PARISH","30","-91"
"POINT (-91.072368118305 30.425625128362)","441","0","BILLBD 10332 PLAZA AMERICANA DR","BATON ROUGE","LOUISIANA","70816","BATON ROUGE","30","-91"
"POINT (-91.146618550314 30.44453635759)","427","0","BILLBD 4149 GOVERNMENT ST","BATON ROUGE","LOUISIANA","70806","BATON ROUGE","30","-91"
"POINT (-91.034475681334 30.447073107554)","415","0","BILLBD 1215 S FLANNERY RD","BATON ROUGE","LOUISIANA","70815","PARISH","30","-91"
"POINT (-91.180208632154 30.446266968636)","403","0","165 S T.J. JEMISON BLVD","BATON ROUGE","LOUISIANA","70802","BATON ROUGE","30","-91"
"POINT (-91.033411861548 30.435414780699)","443","0","BILLBD 13465 S HARRELL'S FERRY RD","BATON ROUGE","LOUISIANA","70816","BATON ROUGE","30","-91"
"POINT (-91.083072175455 30.43561919783)","435","0","BILLBD 9585 AIRLINE HWY","BATON ROUGE","LOUISIANA","70815","BATON ROUGE","30","-91"
"POINT (-91.152333026465 30.422292998227)","430","0","BILLBD 3535 PERKINS RD","BATON ROUGE","LOUISIANA","70808","BATON ROUGE","30","-91"
"POINT (-91.021793666591 30.408400837275)","417","0","BILLBD 14041 COURSEY BLVD","BATON ROUGE","LOUISIANA","70817","PARISH","30","-91"
"POINT (-91.159214535881 30.394870778427)","416","0","BILLBD 133 LEE DR","BATON ROUGE","LOUISIANA","70808","BATON ROUGE","30","-91"
"POINT (-91.006611179775 30.358924701117)","422","0","BILLBD 15055 AIRLINE HWY","BATON ROUGE","LOUISIANA","70817","PARISH","30","-91"
"POINT (-91.088476076488 30.416939398081)","425","0","BILLBD 8939 JEFFERSON HWY","BATON ROUGE","LOUISIANA","70809","BATON ROUGE","30","-91"
"POINT (-91.094634073535 30.401603600652)","419","0","BILLBD 8410 ONE CALAIS AVE","BATON ROUGE","LOUISIANA","70809","BATON ROUGE","30","-91"
"POINT (-91.049188236165 30.498738204146)","404","0","12189 GREENWELL SPRINGS RD","BATON ROUGE","LOUISIANA","70814","PARISH","30","-91"
"POINT (-91.149345935162 30.655185529614)","314","0","BILLBD 5328 ZACHARY-SLAUGHTER HWY","ZACHARY","LOUISIANA","70791","ZACHARY","31","-91"
"POINT (-91.018248148448 30.4088344649)","408","0","14355 COURSEY BLVD","BATON ROUGE","LOUISIANA","70817","PARISH","30","-91"
"POINT (-91.050565585959 30.460438010685)","444","0","BILLBD 11939 FLORIDA BLVD","BATON ROUGE","LOUISIANA","70815","BATON ROUGE","30","-91"
"POINT (-91.083395332191 30.420766011378)","438","0","BILLBD 9190 INTERLINE AVE","BATON ROUGE","LOUISIANA","70809","BATON ROUGE","30","-91"
"POINT (-91.076034369061 30.426474274559)","407","0","10085 GWENADELLE DR","BATON ROUGE","LOUISIANA","70816","BATON ROUGE","30","-91"
"POINT (-91.060324934906 30.379393457947)","418","0","BILLBD 10897 RIEGER RD","BATON ROUGE","LOUISIANA","70809","PARISH","30","-91"
"POINT (-91.078195082854 30.421795335799)","409","0","9450 N INTERSTATE DR","BATON ROUGE","LOUISIANA","70809","BATON ROUGE","30","-91"
"POINT (-91.098677146617 30.456034146191)","433","0","BILLBD 8484 AIRLINE HWY","BATON ROUGE","LOUISIANA","70806","BATON ROUGE","30","-91"
"POINT (-91.093257264457 30.452736557357)","426","0","BILLBD 8878 FLORIDA BLVD","BATON ROUGE","LOUISIANA","70815","BATON ROUGE","30","-91"
"POINT (-91.163480630192 30.469708146905)","413","0","2450 PLANK RD","BATON ROUGE","LOUISIANA","70802","BATON ROUGE","30","-91"
"POINT (-91.026904299969 30.438078846977)","429","0","13550 MILLERVILLE GREENS BLVD","BATON ROUGE","LOUISIANA","70816","BATON ROUGE","30","-91"
"POINT (-91.085412856335 30.348640147805)","414","0","12791 BURBANK DR","BATON ROUGE","LOUISIANA","70810","PARISH","30","-91"
"POINT (-91.036140650238 30.353456251232)","437","0","BILLBD 16560 OLD PERKINS RD","BATON ROUGE","LOUISIANA","70810","PARISH","30","-91"
"POINT (-91.05776325943 30.470882592943)","412","0","BILLBD 2398 N SHERWOOD FOREST DR","BATON ROUGE","LOUISIANA","70815","BATON ROUGE","30","-91"
"POINT (-91.007828410802 30.425942378007)","423","0","BILLBD 2924 O'NEAL LN","BATON ROUGE","LOUISIANA","70816","BATON ROUGE","30","-91"
"POINT (-91.059568008511 30.39373357837)","428","0","BILLBD 6212 SIEGEN LN","BATON ROUGE","LOUISIANA","70809","PARISH","30","-91"
"POINT (-91.03723861873 30.354643099236)","436","0","BILLBD 16500 OLD PERKINS RD","BATON ROUGE","LOUISIANA","70810","PARISH","30","-91"
"POINT (-91.109975912966 30.395475475801)","405","0","7555 PERKINS RD","BATON ROUGE","LOUISIANA","70808","BATON ROUGE","30","-91"
"POINT (-91.097545698359 30.456207022605)","434","0","8503 AIRLINE HWY","BATON ROUGE","LOUISIANA","70815","BATON ROUGE","30","-91"
"POINT (-91.106667631406 30.400495385325)","439","0","BILLBD 5230 ESSEN LN","BATON ROUGE","LOUISIANA","70809","BATON ROUGE","30","-91"
"POINT (-91.057920898317 30.396291760663)","421","0","5960 SIEGEN LN, STE BB","BATON ROUGE","LOUISIANA","70809","PARISH","30","-91"
"POINT (-91.158896025727 30.393028263966)","411","0","5428 HIGHLAND RD","BATON ROUGE","LOUISIANA","70808","BATON ROUGE","30","-91"
"POINT (-91.099675809523 30.45180434141)","424","0","BILLBD 8312 FLORIDA BLVD","BATON ROUGE","LOUISIANA","70806","BATON ROUGE","30","-91"
"POINT (-91.085068609085 30.438488530939)","440","0","BILLBD 9469 AIRLINE HWY","BATON ROUGE","LOUISIANA","70815","BATON ROUGE","30","-91"
"POINT (-91.050947273819 30.373233515514)","410","0","BILLBD 11575 RIEGER RD","BATON ROUGE","LOUISIANA","70809","BATON ROUGE","30","-91"
"POINT (-91.007655887052 30.433605486891)","406","0","BILLBD 2434 O'NEAL LN","BATON ROUGE","LOUISIANA","70816","BATON ROUGE","30","-91"
"POINT (-91.101770367384 30.406756735275)","431","0","BILLBD 7931 ONE CALAIS AVE","BATON ROUGE","LOUISIANA","70809","BATON ROUGE","30","-91"
"POINT (-91.187793491877 30.422143334491)","442","0","BILLBD 2820 NICHOLSON DR","BATON ROUGE","LOUISIANA","70802","BATON ROUGE","30","-91"
"POINT (-91.079662368547 30.43093590659)","420","0","BILLBD 9745 AIRLINE HWY","BATON ROUGE","LOUISIANA","70816","BATON ROUGE","30","-91"
"POINT (-91.132148019747 30.424794652063)","432","0","BILLBD 5522 CORPORATE BLVD","BATON ROUGE","LOUISIANA","70808","BATON ROUGE","30","-91"
