"the_geom","id","business_name","full_address","city","state","zip","phone_number","website","resource_type","sub_resource_type"
"POINT (-91.110870118598 30.431455492498)","148020","AT&T AUTHORIZED RETAILER #2715","7539 CORPORATE BLVD","BATON ROUGE","LOUISIANA","70806",,,"RETAIL","CONVENIENCE STORE"
"POINT (-91.118959863733 30.459964471821)","33963","DONMOOR FOODMART","1079 N DONMOOR AVE","BATON ROUGE","LOUISIANA","70806",,,"RETAIL","CONVENIENCE STORE"
"POINT (-91.14019167545 30.421280603498)","21164","CIRCLE K STORES INC. 2709725","2959 COLLEGE DR","BATON ROUGE","LOUISIANA","70808","225-923-1075","http://circlek.com/","RETAIL","CONVENIENCE STORE"
"POINT (-91.179700690005 30.531715151417)","9220","SCOTLANDVILLE CONVENIENCE STORE","1375 ROSENWALD RD","BATON ROUGE","LOUISIANA","70807","225-774-1062",,"RETAIL","CONVENIENCE STORE"
"POINT (-91.027007923992 30.544396188975)","163901","SUBWAY #28827","14455 WAX RD, STE H","CENTRAL","LOUISIANA","70818",,,"RETAIL","CONVENIENCE STORE"
"POINT (-91.187860541706 30.421035417894)","17427","SAVE MORE MARKET 4","2956 NICHOLSON DR","BATON ROUGE","LOUISIANA","70802","225-769-0404",,"RETAIL","CONVENIENCE STORE"
"POINT (-91.139464446181 30.468022250423)","118384","TRIPLE S FOOD MART","2112 N FOSTER DR","BATON ROUGE","LOUISIANA","70806",,,"RETAIL","CONVENIENCE STORE"
"POINT (-91.150253395355 30.426309736662)","17345","HIT-N-RUN FOOD STORES #3","2313 S ACADIAN THWY","BATON ROUGE","LOUISIANA","70808",,,"RETAIL","CONVENIENCE STORE"
"POINT (-91.179253472908 30.388428208212)","51463","KWIK STOP","1910 BRIGHTSIDE DR","BATON ROUGE","LOUISIANA","70820",,,"RETAIL","CONVENIENCE STORE"
"POINT (-91.034520271009 30.44918681709)","26173","MINUTE MART","1087 S FLANNERY RD","BATON ROUGE","LOUISIANA","70815",,,"RETAIL","CONVENIENCE STORE"
"POINT (-91.092275838267 30.419026019715)","150297","JEFFS FOOD MART","8731 JEFFERSON HWY","BATON ROUGE","LOUISIANA","70809",,,"RETAIL","CONVENIENCE STORE"
"POINT (-91.156100781299 30.490327248961)","17696","PLANK MARLET & DELI","4432 PLANK RD","BATON ROUGE","LOUISIANA","70805",,,"RETAIL","CONVENIENCE STORE"
"POINT (-91.111038150986 30.433832817477)","25713","KWIK STOP","7475 JEFFERSON HWY","BATON ROUGE","LOUISIANA","70806",,,"RETAIL","CONVENIENCE STORE"
"POINT (-91.057620966654 30.467518623082)","26259","K & D GROCERY","2068 N SHERWOOD FOREST DR","BATON ROUGE","LOUISIANA","70815",,,"RETAIL","CONVENIENCE STORE"
"POINT (-91.141776550301 30.50920316168)","23836","FAST LYON CONVENIENCE STORE","4887 AIRLINE HWY","BATON ROUGE","LOUISIANA","70811",,,"RETAIL","CONVENIENCE STORE"
"POINT (-91.179664712798 30.527176408905)","10541","RAGUSA'S MEAT MARKET","8818 SCOTLAND AVE","BATON ROUGE","LOUISIANA","70807",,,"RETAIL","CONVENIENCE STORE"
"POINT (-91.06597448153 30.385406348696)","172561","LA MEXICANA JAL.","7034 SIEGEN LN","BATON ROUGE","LOUISIANA","70809","225-296-8286",,"RETAIL","CONVENIENCE STORE"
"POINT (-91.109681295183 30.356040129971)","41586","LUCYS HEALTH FOODS","9880 BLUEBONNET BLVD","BATON ROUGE","LOUISIANA","70810",,,"RETAIL","CONVENIENCE STORE"
"POINT (-91.119506966983 30.451987632329)","137082","TEXACO TIGER SHOP","6945 FLORIDA BLVD","BATON ROUGE","LOUISIANA","70806",,,"RETAIL","CONVENIENCE STORE"
"POINT (-91.161627306772 30.450368073826)","177446","ONE STOP GROCERY & DISCOUNT LIQUOR","2601 FLORIDA ST","BATON ROUGE","LOUISIANA","70802","225-338-1380",,"RETAIL","CONVENIENCE STORE"
"POINT (-91.224600432651 30.666212184005)","10668","STEVENSON QUICK PACK","1213 FLONACHER RD","ZACHARY","LOUISIANA","70791",,,"RETAIL","CONVENIENCE STORE"
"POINT (-91.013442802963 30.44373752608)","130638","ONE STOP DELI AND GROCERIES LLC","15518 RHONDA AVE","BATON ROUGE","LOUISIANA","70816",,,"RETAIL","CONVENIENCE STORE"
"POINT (-91.088138117677 30.490892151512)","15718","KWIK STOP","4346 JOOR RD","BATON ROUGE","LOUISIANA","70814",,,"RETAIL","CONVENIENCE STORE"
"POINT (-91.144027925972 30.508778434654)","13205","ROAD RUNNER'S EXPRESS CONVENIENCE STORE","4650 AIRLINE HWY","BATON ROUGE","LOUISIANA","70805",,,"RETAIL","CONVENIENCE STORE"
"POINT (-91.106938278718 30.426377296304)","40852","BOCAGE LA ROUGE MART","7930 JEFFERSON HWY","BATON ROUGE","LOUISIANA","70809",,,"RETAIL","CONVENIENCE STORE"
"POINT (-91.128010185884 30.498851838548)","120218","MEAT MARKET","6163 AIRLINE HWY","BATON ROUGE","LOUISIANA","70805",,,"RETAIL","CONVENIENCE STORE"
"POINT (-91.156632110656 30.468159594363)","32211","ACADIAN FOOD MART","2223 N ACADIAN THWY W","BATON ROUGE","LOUISIANA","70802",,,"RETAIL","CONVENIENCE STORE"
"POINT (-91.065091498549 30.457239426296)","32667","KWIK STOP","10770 FLORIDA BLVD","BATON ROUGE","LOUISIANA","70815",,,"RETAIL","CONVENIENCE STORE"
"POINT (-91.009727394764 30.68510447583)","152474","LG SHOP LLC","14110 JACKSON RD","ZACHARY","LOUISIANA","70791",,,"RETAIL","CONVENIENCE STORE"
"POINT (-91.059995614966 30.435614155632)","173594","MI CUEVITA PLUS LLC","1853 W MURIEL DR","BATON ROUGE","LOUISIANA","70816",,,"RETAIL","CONVENIENCE STORE"
"POINT (-91.119286145885 30.461291665111)","20683","MARTIN GROCERY & MARKET INC","6951 RENOIR AVE","BATON ROUGE","LOUISIANA","70806",,,"RETAIL","CONVENIENCE STORE"
"POINT (-91.155274228142 30.450714740502)","30852","CIRCLE K STORE #2707653","3373 FLORIDA ST","BATON ROUGE","LOUISIANA","70806","225-383-0422","http://circlek.com/","RETAIL","CONVENIENCE STORE"
"POINT (-91.027283106912 30.704423348892)","100971","CAIN'S GROCERY","24110 REAMES RD","ZACHARY","LOUISIANA","70791",,,"RETAIL","CONVENIENCE STORE"
"POINT (-91.138549559302 30.487899726352)","147441","PRESCOTT GROCERY","5153 PRESCOTT RD","BATON ROUGE","LOUISIANA","70805",,,"RETAIL","CONVENIENCE STORE"
"POINT (-91.150253395355 30.426309736662)","17344","JET 24","2313 S ACADIAN THWY","BATON ROUGE","LOUISIANA","70808",,,"RETAIL","CONVENIENCE STORE"
"POINT (-91.163160208979 30.608588699455)","157576","CANAMRO","3102 MAIN ST","BAKER","LOUISIANA","70714",,,"RETAIL","CONVENIENCE STORE"
"POINT (-91.160703622333 30.479238777927)","113289","JOHNNY JUNIOR GROCERY","3401 PLANK RD","BATON ROUGE","LOUISIANA","70805",,,"RETAIL","CONVENIENCE STORE"
"POINT (-91.062852662705 30.40946851281)","181378","ALCO FOODMART & DELI","10605 AIRLINE HWY","BATON ROUGE","LOUISIANA","70816",,,"RETAIL","CONVENIENCE STORE"
"POINT (-91.105194982123 30.455488907303)","125520","THOMAS GROCERY","600 WOODDALE BLVD","BATON ROUGE","LOUISIANA","70806",,,"RETAIL","CONVENIENCE STORE"
"POINT (-91.178227536042 30.422302371201)","14206","UNIVERSITY CAR CARE","2801 HIGHLAND RD","BATON ROUGE","LOUISIANA","70802",,,"RETAIL","CONVENIENCE STORE"
"POINT (-91.171968582879 30.440846992165)","17790","TONY'S GROCERY","739 S 16TH ST","BATON ROUGE","LOUISIANA","70802","225-383-9032",,"RETAIL","CONVENIENCE STORE"
"POINT (-91.179417525003 30.434823266342)","56144","EAST BLVD. FOOD MART","1440 THOMAS H DELPIT DR","BATON ROUGE","LOUISIANA","70802",,,"RETAIL","CONVENIENCE STORE"
"POINT (-91.156911386146 30.48157775809)","17691","ACADIAN SUPERETTE","3609 N ACADIAN THWY","BATON ROUGE","LOUISIANA","70805","225-357-0276",,"RETAIL","CONVENIENCE STORE"
"POINT (-91.187892804534 30.421308722244)","51432","SAVE MORE MARKET 4","2956 NICHOLSON DR, STE B","BATON ROUGE","LOUISIANA","70802","225-769-0404",,"RETAIL","CONVENIENCE STORE"
"POINT (-91.161658067738 30.474912402231)","17465","CARLINS FOOD MART","2944 PLANK RD","BATON ROUGE","LOUISIANA","70805","225-355-9235",,"RETAIL","CONVENIENCE STORE"
"POINT (-91.024197253554 30.451487167258)","26406","TOBACCO EXPRESS","14590 OLD HAMMOND HWY","BATON ROUGE","LOUISIANA","70816",,,"RETAIL","CONVENIENCE STORE"
"POINT (-91.1402618727 30.479172886427)","12542","EXPRESS MART","3322 N FOSTER DR","BATON ROUGE","LOUISIANA","70805",,,"RETAIL","CONVENIENCE STORE"
"POINT (-91.118714763264 30.454123110553)","26846","DONMOOR POBOY","457 N DONMOOR AVE","BATON ROUGE","LOUISIANA","70806",,,"RETAIL","CONVENIENCE STORE"
"POINT (-91.035033425206 30.463018201541)","17017","KASEDS INTERNATIONAL MARKET","13501 FLORIDA BLVD, STE 4","BATON ROUGE","LOUISIANA","70815",,,"RETAIL","CONVENIENCE STORE"
"POINT (-91.158578564467 30.483511996424)","18083","E Z PACK N SERV","3800 PLANK RD","BATON ROUGE","LOUISIANA","70805","225-356-4847",,"RETAIL","CONVENIENCE STORE"
"POINT (-91.066094248328 30.364948169488)","42925","KWIK STOP","13796 PERKINS RD","BATON ROUGE","LOUISIANA","70810",,,"RETAIL","CONVENIENCE STORE"
"POINT (-91.128151903819 30.469044689185)","139054","TRANZSIR FOOD MART","6223 GREENWELL SPRINGS RD","BATON ROUGE","LOUISIANA","70806",,,"RETAIL","CONVENIENCE STORE"
"POINT (-91.112134085065 30.390883882633)","26338","TOWN SOUTH FOOD MART","1801 STARING LN","BATON ROUGE","LOUISIANA","70808",,,"RETAIL","CONVENIENCE STORE"
"POINT (-91.122287786667 30.488805490315)","125269","BENS FOOD MARKET","6894 AIRLINE HWY","BATON ROUGE","LOUISIANA","70805",,,"RETAIL","CONVENIENCE STORE"
"POINT (-91.140145129078 30.488496674223)","12561","SUPER STOP","4162 N FOSTER DR","BATON ROUGE","LOUISIANA","70805","225-355-7340",,"RETAIL","CONVENIENCE STORE"
"POINT (-91.16609341301 30.472860610011)","17993","CHIPPEWA SUPER STORE","2332 CHIPPEWA ST","BATON ROUGE","LOUISIANA","70805","225-356-9288",,"RETAIL","CONVENIENCE STORE"
"POINT (-91.124822479104 30.503136251937)","104684","SILVERLEAF GROCERY","5742 SILVERLEAF AVE","BATON ROUGE","LOUISIANA","70812","2255-355-2219",,"RETAIL","CONVENIENCE STORE"
"POINT (-91.188079511511 30.432095586468)","14033","CIRCLE K STORES #2707750","1644 NICHOLSON DR","BATON ROUGE","LOUISIANA","70802",,"http://circlek.com/","RETAIL","CONVENIENCE STORE"
"POINT (-91.165036079043 30.466481996852)","104060","LIVING WATERS GOODWILL STORE","2065 PLANK RD","BATON ROUGE","LOUISIANA","70802",,,"RETAIL","CONVENIENCE STORE"
"POINT (-91.146053436162 30.51894818953)","18964","KELLYS FOOD MART","7744 PLANK RD","BATON ROUGE","LOUISIANA","70811",,,"RETAIL","CONVENIENCE STORE"
"POINT (-91.057767318913 30.470164244013)","174069","CITY TOWN MARKET #2","2336 N SHERWOOD FOREST DR","BATON ROUGE","LOUISIANA","70815",,,"RETAIL","CONVENIENCE STORE"
"POINT (-91.138219685575 30.444858435967)","26623","CIRCLE K STORE 2729721","5035 GOVERNMENT ST","BATON ROUGE","LOUISIANA","70806",,"http://circlek.com/","RETAIL","CONVENIENCE STORE"
"POINT (-91.163818976915 30.558348755097)","176504","STOP N GO","2650 THOMAS RD","BATON ROUGE","LOUISIANA","70807",,,"RETAIL","CONVENIENCE STORE"
"POINT (-91.126378142602 30.355463171063)","37314","SAVE MORE MARKET 4","1557 GARDERE LN","BATON ROUGE","LOUISIANA","70820","225-769-0404",,"RETAIL","CONVENIENCE STORE"
"POINT (-91.026592720776 30.348064994541)","43830","ON THE RUN #14","18051 PERKINS RD E","BATON ROUGE","LOUISIANA","70810",,,"RETAIL","CONVENIENCE STORE"
"POINT (-91.108732503314 30.395240398813)","179581","CIRCLE K STORE #2707656","5857 ESSEN LN","BATON ROUGE","LOUISIANA","70810","225-767-6880","http://circlek.com/","RETAIL","CONVENIENCE STORE"
"POINT (-91.190193180012 30.533049684538)","8500","TRIPLET FOOD MART","605 MILLS AVE","BATON ROUGE","LOUISIANA","70807",,,"RETAIL","CONVENIENCE STORE"
"POINT (-91.12029156399 30.358133221471)","39621","EL TIO SUPERMARKET LLC","9656 BURBANK DR","BATON ROUGE","LOUISIANA","70810","225-757-2290",,"RETAIL","CONVENIENCE STORE"
"POINT (-91.165955411931 30.463962628793)","102980","GENE CASH & CARRY GROCERY","1735 PLANK RD","BATON ROUGE","LOUISIANA","70802",,,"RETAIL","CONVENIENCE STORE"
"POINT (-91.165477755416 30.523938203976)","93883","K & H MINIMART","2703 BADLEY RD","BATON ROUGE","LOUISIANA","70807",,,"RETAIL","CONVENIENCE STORE"
"POINT (-91.180883974017 30.426978206953)","16545","HIGHLAND ROAD MEAT MARKET","2226 HIGHLAND RD","BATON ROUGE","LOUISIANA","70802",,,"RETAIL","CONVENIENCE STORE"
"POINT (-91.183343203709 30.438266795976)","49763","ACCOUNTING SOLUTIONS","701 MYRTLE ST","BATON ROUGE","LOUISIANA","70802",,,"RETAIL","CONVENIENCE STORE"
"POINT (-91.179807994232 30.424702729797)","12195","AM MART 2018","2400 HIGHLAND RD","BATON ROUGE","LOUISIANA","70802",,,"RETAIL","CONVENIENCE STORE"
"POINT (-91.126440496648 30.355873311318)","37311","COMMUNITY MARKET","1535 GARDERE LN","BATON ROUGE","LOUISIANA","70820",,,"RETAIL","CONVENIENCE STORE"
"POINT (-91.056331106729 30.460107986403)","26997","LATINOS SUPERMARKET","11435 FLORIDA BLVD","BATON ROUGE","LOUISIANA","70815",,,"RETAIL","CONVENIENCE STORE"
"POINT (-91.168496177301 30.472954140603)","17005","TRIANGLE FOOD MART","2799 SCENIC HWY","BATON ROUGE","LOUISIANA","70805","225-357-1340",,"RETAIL","CONVENIENCE STORE"
"POINT (-91.163818976915 30.558348755097)","176503","3 STARS FOOD MART","2650 THOMAS RD","BATON ROUGE","LOUISIANA","70807",,,"RETAIL","CONVENIENCE STORE"
"POINT (-91.196886275621 30.552574695674)","139790","MADE TO GO TRUCKSTOP LLC","111 THOMAS RD","BATON ROUGE","LOUISIANA","70807",,,"RETAIL","CONVENIENCE STORE"
"POINT (-91.132136445492 30.519534276403)","95538","BRADFORD'S GROCERY","5916 FORD ST","BATON ROUGE","LOUISIANA","70811",,,"RETAIL","CONVENIENCE STORE"
"POINT (-91.143659833857 30.494615205432)","141047","CITY TOWN MEAT MARKET #3","4850 BEECHWOOD DR","BATON ROUGE","LOUISIANA","70805",,,"RETAIL","CONVENIENCE STORE"
"POINT (-91.016676264044 30.409049736148)","41910","ON THE RUN #14","14441 COURSEY BLVD","BATON ROUGE","LOUISIANA","70817",,,"RETAIL","CONVENIENCE STORE"
"POINT (-91.16078251861 30.476811097694)","20431","UNITED FOOD MART","3164 PLANK RD","BATON ROUGE","LOUISIANA","70805",,,"RETAIL","CONVENIENCE STORE"
"POINT (-91.180060495207 30.525018690059)","83447","VINCES LIQUOR","8556 SCOTLAND AVE","BATON ROUGE","LOUISIANA","70807",,,"RETAIL","CONVENIENCE STORE"
"POINT (-91.188079511511 30.432095586468)","14027","KWIK STOP","1644 NICHOLSON DR","BATON ROUGE","LOUISIANA","70802",,,"RETAIL","CONVENIENCE STORE"
"POINT (-91.142007199946 30.462405627993)","113355","BELLONAIRE","4801 GUS YOUNG AVE","BATON ROUGE","LOUISIANA","70802","225-924-6900",,"RETAIL","CONVENIENCE STORE"
"POINT (-91.122287786667 30.488805490315)","125272","COUSINS FOOD MART","6894 AIRLINE HWY","BATON ROUGE","LOUISIANA","70805",,,"RETAIL","CONVENIENCE STORE"
"POINT (-91.035718651206 30.409547253018)","44008","JIFFY MART #15","12924 COURSEY BLVD","BATON ROUGE","LOUISIANA","70817",,,"RETAIL","CONVENIENCE STORE"
"POINT (-91.057772190891 30.468973906521)","175429","SAHARA AFRICAN MARKET","2216 N SHERWOOD FOREST DR","BATON ROUGE","LOUISIANA","70815","225-275-2757",,"RETAIL","CONVENIENCE STORE"
"POINT (-91.025032396347 30.441399622373)","139375","CIRCLE K STORES #2706827","2020 MILLERVILLE RD","BATON ROUGE","LOUISIANA","70816",,,"RETAIL","CONVENIENCE STORE"
"POINT (-91.143233465947 30.509613969137)","24133","BT SEAFOOD AND GROCERY","4763 AIRLINE HWY","BATON ROUGE","LOUISIANA","70811",,,"RETAIL","CONVENIENCE STORE"
"POINT (-91.124984215179 30.50269815905)","22641","ROSE MARY MART","5732 SILVERLEAF AVE","BATON ROUGE","LOUISIANA","70812",,,"RETAIL","CONVENIENCE STORE"
"POINT (-91.176947691786 30.423270446813)","14026","STOP N GO","2650 THOMAS H DELPIT DR","BATON ROUGE","LOUISIANA","70802",,,"RETAIL","CONVENIENCE STORE"
"POINT (-91.204442294561 30.565344656477)","11852","DANIEL'S FOOD MARKET","13150 SCENIC HWY","BATON ROUGE","LOUISIANA","70807",,,"RETAIL","CONVENIENCE STORE"
"POINT (-91.075540744849 30.488304491073)","135073","EXPRESS 1 STOP","9824 GREENWELL SPRINGS RD","BATON ROUGE","LOUISIANA","70814",,,"RETAIL","CONVENIENCE STORE"
"POINT (-91.081397159804 30.433818633321)","28094","B-QUICK CONVENIENCE STORE #1","9611 AIRLINE HWY","BATON ROUGE","LOUISIANA","70815",,,"RETAIL","CONVENIENCE STORE"
"POINT (-91.089508075723 30.418924773889)","28996","CIRCLE K STORE 2709726","3536 DRUSILLA LN","BATON ROUGE","LOUISIANA","70809","225-927-5131","http://circlek.com/","RETAIL","CONVENIENCE STORE"
"POINT (-91.004897817426 30.361920294625)","37739","LA EXPRESS FOOD STORE","16970 JEFFERSON HWY, STE A - K","BATON ROUGE","LOUISIANA","70817",,,"RETAIL","CONVENIENCE STORE"
"POINT (-91.044006234775 30.431544906229)","68036","SPEEDY MART","12532 S HARRELL'S FERRY RD","BATON ROUGE","LOUISIANA","70816",,,"RETAIL","CONVENIENCE STORE"
"POINT (-91.152774503666 30.472180348091)","19191","NORTH 38TH FOOD MART","2645 N 38TH ST","BATON ROUGE","LOUISIANA","70805",,,"RETAIL","CONVENIENCE STORE"
"POINT (-91.103477313265 30.452486055361)","28278","KASEDS INTERNATIONAL MARKET","8129 FLORIDA BLVD","BATON ROUGE","LOUISIANA","70806",,,"RETAIL","CONVENIENCE STORE"
"POINT (-91.069379702551 30.366180514656)","41132","VILLAGE GROCERY & DELI","13510 PERKINS RD","BATON ROUGE","LOUISIANA","70810",,,"RETAIL","CONVENIENCE STORE"
"POINT (-91.049753848161 30.410781138172)","149304","FASHION INDIA","11802 COURSEY BLVD","BATON ROUGE","LOUISIANA","70816","225-293-4719",,"RETAIL","CONVENIENCE STORE"
"POINT (-91.177195217387 30.431003099303)","15259","HASSAN FASHION","740 E WASHINGTON ST","BATON ROUGE","LOUISIANA","70802",,,"RETAIL","CONVENIENCE STORE"
"POINT (-91.149250857115 30.654126390613)","191054","BAYOU BLUE GROCERY","5252 ZACHARY-SLAUGHTER HWY","ZACHARY","LOUISIANA","70791",,,"RETAIL","CONVENIENCE STORE"
"POINT (-91.142914574066 30.509592518779)","23843","SCALLANS MEAT & GROCERY","4775 AIRLINE HWY","BATON ROUGE","LOUISIANA","70811","225-356-2521",,"RETAIL","CONVENIENCE STORE"
"POINT (-91.155385446102 30.4923063338)","170070","SAVE MORE MARKET #6","4670 PLANK RD, STE A","BATON ROUGE","LOUISIANA","70805",,,"RETAIL","CONVENIENCE STORE"
"POINT (-91.056206893405 30.436470636095)","174957","IDEAL MARKET #8","1807 S SHERWOOD FOREST BLVD","BATON ROUGE","LOUISIANA","70816",,,"RETAIL","CONVENIENCE STORE"
"POINT (-91.172958189895 30.509650523405)","178513","CAPITOL MEAT SUPPLY","6569 SCENIC HWY","BATON ROUGE","LOUISIANA","70807",,,"RETAIL","CONVENIENCE STORE"
"POINT (-91.125543507359 30.503295434148)","179182","SNACK PACK #2 CONCESSIONS","5777 SILVERLEAF AVE","BATON ROUGE","LOUISIANA","70812",,,"RETAIL","CONVENIENCE STORE"
"POINT (-91.151395540115 30.460689763726)","125538","NEW LOOK NEIGHBORHOOD GROCERY","1376 N 39TH ST","BATON ROUGE","LOUISIANA","70802",,,"RETAIL","CONVENIENCE STORE"
"POINT (-91.177983856442 30.520123866596)","13904","COLEMANS MINI-MART","1472 HARDING BLVD","BATON ROUGE","LOUISIANA","70807",,,"RETAIL","CONVENIENCE STORE"
"POINT (-91.139605746115 30.4536196676)","32362","Q MART","585 N FOSTER DR","BATON ROUGE","LOUISIANA","70806",,,"RETAIL","CONVENIENCE STORE"
"POINT (-91.17665732787 30.42693294588)","177852","THOMAS GROCERY","600 E POLK ST","BATON ROUGE","LOUISIANA","70802",,,"RETAIL","CONVENIENCE STORE"
"POINT (-91.178367642908 30.398204033461)","42692","RED ENTERTAINMENT EXPRESS","4245 NICHOLSON DR","BATON ROUGE","LOUISIANA","70808",,,"RETAIL","CONVENIENCE STORE"
"POINT (-91.155245516182 30.494563327705)","19112","CITY FOOD MART","4865 PLANK RD","BATON ROUGE","LOUISIANA","70805",,,"RETAIL","CONVENIENCE STORE"
"POINT (-91.171762440223 30.388897292979)","174626","AMERICAN FOOD MART","5251 NICHOLSON DR, STE Q","BATON ROUGE","LOUISIANA","70820",,,"RETAIL","CONVENIENCE STORE"
"POINT (-91.008102195846 30.445641384478)","25580","CITI MART 1","1640 O'NEAL LN","BATON ROUGE","LOUISIANA","70816",,,"RETAIL","CONVENIENCE STORE"
"POINT (-91.150347416116 30.506569899517)","21089","CAJUN NOVELTIES LLC","6168 PLANK RD","BATON ROUGE","LOUISIANA","70805",,,"RETAIL","CONVENIENCE STORE"
"POINT (-91.133128774473 30.488008880511)","12063","TAKS FOOD MART","5765 PRESCOTT RD","BATON ROUGE","LOUISIANA","70805",,,"RETAIL","CONVENIENCE STORE"
"POINT (-91.154405469734 30.497025018203)","18818","TONYS SEAFOOD","5215 PLANK RD","BATON ROUGE","LOUISIANA","70805",,,"RETAIL","CONVENIENCE STORE"
"POINT (-91.141105192935 30.493479360513)","20254","KWIK STOP","4959 EVANGELINE ST","BATON ROUGE","LOUISIANA","70805",,,"RETAIL","CONVENIENCE STORE"
"POINT (-91.118037009563 30.484807207293)","12860","RIGHT WAY 1","7111 AIRLINE HWY","BATON ROUGE","LOUISIANA","70805",,,"RETAIL","CONVENIENCE STORE"
"POINT (-91.128212431916 30.497409682491)","14443","LARRYS QUICK STOP","6288 AIRLINE HWY","BATON ROUGE","LOUISIANA","70805","225-354-0104",,"RETAIL","CONVENIENCE STORE"
"POINT (-91.057117022213 30.432445181198)","23105","CIRCLE K STORES, INC 2709720","2205 S SHERWOOD FOREST BLVD","BATON ROUGE","LOUISIANA","70816","225-273-3521","http://circlek.com/","RETAIL","CONVENIENCE STORE"
"POINT (-91.06870878159 30.416493538801)","26009","ON THE RUN #14","10391 AIRLINE HWY","BATON ROUGE","LOUISIANA","70816",,,"RETAIL","CONVENIENCE STORE"
"POINT (-91.180044250663 30.395647535557)","40949","STRIPES FOOD MART","4405 ALVIN DARK AVE","BATON ROUGE","LOUISIANA","70820",,,"RETAIL","CONVENIENCE STORE"
"POINT (-91.04706820424 30.394699396496)","39633","JAYLA FOOD MART","12256 JEFFERSON HWY","BATON ROUGE","LOUISIANA","70816",,,"RETAIL","CONVENIENCE STORE"
"POINT (-91.073080130182 30.409582776403)","40779","KWIK STOP","4415 FLOYNELL DR","BATON ROUGE","LOUISIANA","70809",,,"RETAIL","CONVENIENCE STORE"
"POINT (-91.144027925972 30.508778434654)","13207","IN A FLASH","4650 AIRLINE HWY","BATON ROUGE","LOUISIANA","70805",,,"RETAIL","CONVENIENCE STORE"
"POINT (-91.110492816167 30.35494881821)","37632","VALERO CORNER STORE #1726","9990 BLUEBONNET BLVD","BATON ROUGE","LOUISIANA","70810",,,"RETAIL","CONVENIENCE STORE"
"POINT (-91.140274983453 30.346641160951)","38857","GEAUX TIGER MART","11693 NICHOLSON DR","BATON ROUGE","LOUISIANA","70820",,,"RETAIL","CONVENIENCE STORE"
"POINT (-91.179893489159 30.438543631911)","52748","SERVICE MARKET GROCERY","945 EAST BLVD","BATON ROUGE","LOUISIANA","70802",,,"RETAIL","CONVENIENCE STORE"
"POINT (-91.171792914461 30.388936585751)","173189","ZEN NAIL'S & SPA","5251 NICHOLSON DR, STE P","BATON ROUGE","LOUISIANA","70820",,,"RETAIL","CONVENIENCE STORE"
"POINT (-91.145704224305 30.522055757154)","15690","CIRCLE K #9727","8133 PLANK RD","BATON ROUGE","LOUISIANA","70811","225-357-5006","http://circlek.com/","RETAIL","CONVENIENCE STORE"
"POINT (-91.160688553105 30.449810749122)","29088","EASY STOP FOOD MART INC","2712 FLORIDA ST","BATON ROUGE","LOUISIANA","70806",,,"RETAIL","CONVENIENCE STORE"
"POINT (-90.988205787334 30.533915723382)","951","CIRCLE K STORE #2706799","18696 MAGNOLIA BRIDGE RD","GREENWELL SPRINGS","LOUISIANA","70739",,,"RETAIL","CONVENIENCE STORE"
"POINT (-91.186711011902 30.443117915031)","16124","CHEVRON FOOD MART #2","510 SAINT FERDINAND ST","BATON ROUGE","LOUISIANA","70802",,,"RETAIL","CONVENIENCE STORE"
"POINT (-91.163133544524 30.450253466762)","187839","CORNER DELI LLC","2427 FLORIDA ST, STE A","BATON ROUGE","LOUISIANA","70802",,,"RETAIL","CONVENIENCE STORE"
"POINT (-91.172958189895 30.509650523405)","178514","CAPITAL MEAT SUPPLY","6569 SCENIC HWY","BATON ROUGE","LOUISIANA","70807","225-357-6561",,"RETAIL","CONVENIENCE STORE"
"POINT (-91.070036950194 30.366305063668)","41130","NASH DISCOUNT TOBACCO & LIQUOR","13434 PERKINS RD","BATON ROUGE","LOUISIANA","70810",,,"RETAIL","CONVENIENCE STORE"
"POINT (-91.144390194033 30.522908447358)","14967","PLANK FOOD MART","8085 PLANK RD","BATON ROUGE","LOUISIANA","70811",,,"RETAIL","CONVENIENCE STORE"
"POINT (-91.152005030716 30.502017199913)","15411","PLANK ROAD MARKET","5686 PLANK RD","BATON ROUGE","LOUISIANA","70805","225-355-0220",,"RETAIL","CONVENIENCE STORE"
"POINT (-91.179893489159 30.438543631911)","52749","LEO SERVICE MARKET & GROCERY","945 EAST BLVD","BATON ROUGE","LOUISIANA","70802",,,"RETAIL","CONVENIENCE STORE"
"POINT (-91.103467839426 30.452605576067)","153497","KASEDS INTERNATIONAL MARKET","8133 FLORIDA BLVD","BATON ROUGE","LOUISIANA","70806",,,"RETAIL","CONVENIENCE STORE"
"POINT (-91.173345416525 30.436644341086)","151718","TERRACE GROCERY","1457 TERRACE ST","BATON ROUGE","LOUISIANA","70802",,,"RETAIL","CONVENIENCE STORE"
"POINT (-91.15500680403 30.458081549701)","30846","NORTH ACADIAN FOOD MART","1100 N ACADIAN THWY E","BATON ROUGE","LOUISIANA","70802",,,"RETAIL","CONVENIENCE STORE"
"POINT (-91.179253472908 30.388428208212)","51467","CIRCLE K #4765","1910 BRIGHTSIDE DR","BATON ROUGE","LOUISIANA","70820","225-766-7183","http://circlek.com/","RETAIL","CONVENIENCE STORE"
"POINT (-91.075483760972 30.368903013171)","175305","AT&T AUTHORIZED RETAILER #2715","12871 PERKINS RD, STE B","BATON ROUGE","LOUISIANA","70810",,,"RETAIL","CONVENIENCE STORE"
"POINT (-91.009001527536 30.460556772882)","169642","FOOD N GEAUX","15913 OLD HAMMOND HWY, STE C","BATON ROUGE","LOUISIANA","70808",,,"RETAIL","CONVENIENCE STORE"
"POINT (-91.150347416116 30.506569899517)","21088","SHORTY'S FOOD MART","6168 PLANK RD","BATON ROUGE","LOUISIANA","70805",,,"RETAIL","CONVENIENCE STORE"
"POINT (-91.080575601382 30.454640968818)","151979","RONNIE'S BOUDIN","9726 FLORIDA BLVD","BATON ROUGE","LOUISIANA","70815","225-216-7151",,"RETAIL","CONVENIENCE STORE"
"POINT (-91.168180143744 30.465118772853)","18480","PETERS GROCERY","1915 SCENIC HWY","BATON ROUGE","LOUISIANA","70802","225-346-6868",,"RETAIL","CONVENIENCE STORE"
"POINT (-91.042859960214 30.462418362592)","27843","HUNG THINH SUPERMARKET","1134 MARQUE ANN DR","BATON ROUGE","LOUISIANA","70815",,,"RETAIL","CONVENIENCE STORE"
"POINT (-91.10496276454 30.452709661309)","30754","ONE STOP DELI AND GROCERIES LLC","191 WOODDALE BLVD","BATON ROUGE","LOUISIANA","70806",,,"RETAIL","CONVENIENCE STORE"
"POINT (-91.089256459529 30.44246312842)","25014","KWIK STOP","9110 AIRLINE HWY","BATON ROUGE","LOUISIANA","70815",,,"RETAIL","CONVENIENCE STORE"
"POINT (-91.157712814918 30.453157778043)","32022","ERIC'S GROCERY","3038 NORTH ST","BATON ROUGE","LOUISIANA","70802",,,"RETAIL","CONVENIENCE STORE"
"POINT (-91.145082695391 30.461865905024)","111337","GUS YOUNG GROCERY","4412 GUS YOUNG AVE","BATON ROUGE","LOUISIANA","70802",,,"RETAIL","CONVENIENCE STORE"
"POINT (-91.073097709261 30.409356587492)","40783","KWIK STOP","4425 FLOYNELL DR","BATON ROUGE","LOUISIANA","70809",,,"RETAIL","CONVENIENCE STORE"
"POINT (-91.164661027783 30.466057443176)","117171","ANN'S GROCERY","2004 PLANK RD","BATON ROUGE","LOUISIANA","70802","225-344-4670",,"RETAIL","CONVENIENCE STORE"
"POINT (-91.08337233506 30.484796633251)","23761","BROTHER'S FOOD MART","9410 GREENWELL SPRINGS RD","BATON ROUGE","LOUISIANA","70814",,,"RETAIL","CONVENIENCE STORE"
"POINT (-91.137081217655 30.425932052504)","120561","JUBILEE 2","2385 COLLEGE DR","BATON ROUGE","LOUISIANA","70808",,,"RETAIL","CONVENIENCE STORE"
"POINT (-91.141105192935 30.493479360513)","20258","CIRCLE K STORE 2703772","4959 EVANGELINE ST","BATON ROUGE","LOUISIANA","70805","225-356-8972","http://circlek.com/","RETAIL","CONVENIENCE STORE"
"POINT (-91.154855382159 30.493039475121)","19078","CIRCLE K STORE #2707654","4718 PLANK RD","BATON ROUGE","LOUISIANA","70805",,"http://circlek.com/","RETAIL","CONVENIENCE STORE"
"POINT (-91.171021411931 30.402227805973)","29507","E Z STOP EXPRESS","4454 HIGHLAND RD","BATON ROUGE","LOUISIANA","70808",,,"RETAIL","CONVENIENCE STORE"
"POINT (-91.165036079043 30.466481996852)","104061","WAYNE'S MINI MART","2065 PLANK RD","BATON ROUGE","LOUISIANA","70802",,,"RETAIL","CONVENIENCE STORE"
"POINT (-91.145924127533 30.700204600226)","146980","DANNYS 2 GO","23896 ZACHARY-SLAUGHTER HWY","SLAUGHTER","LOUISIANA","70777",,,"RETAIL","CONVENIENCE STORE"
"POINT (-91.176153120456 30.418582859353)","33259","CIRCLE K #1818","3289 HIGHLAND RD","BATON ROUGE","LOUISIANA","70802","225-383-1325","http://circlek.com/","RETAIL","CONVENIENCE STORE"
"POINT (-91.120437241452 30.468726034877)","22831","SAVE MORE MARKET #2","2180 LOBDELL BLVD","BATON ROUGE","LOUISIANA","70806","225-924-3927",,"RETAIL","CONVENIENCE STORE"
"POINT (-91.126407353546 30.502682619575)","21053","RAGUSA MEAT MARKET","6525 GREENWELL ST","BATON ROUGE","LOUISIANA","70812",,,"RETAIL","CONVENIENCE STORE"
"POINT (-91.160703622333 30.479238777927)","113291","ICANDI COUTURE","3401 PLANK RD","BATON ROUGE","LOUISIANA","70805",,,"RETAIL","CONVENIENCE STORE"
"POINT (-91.065995655054 30.457995569152)","25905","LA MICHOACANA SUPER MARKET","10715 FLORIDA BLVD","BATON ROUGE","LOUISIANA","70815",,,"RETAIL","CONVENIENCE STORE"
"POINT (-91.169283321078 30.493485526548)","15766","FARMER'S MEAT MARKET & DELI","4850 SCENIC HWY","BATON ROUGE","LOUISIANA","70805",,,"RETAIL","CONVENIENCE STORE"
"POINT (-91.163818976915 30.558348755097)","176506","LINDA FOOD MART","2650 THOMAS RD","BATON ROUGE","LOUISIANA","70807",,,"RETAIL","CONVENIENCE STORE"
"POINT (-91.140805481661 30.426072212595)","149781","OWENS & ASSOCIATES GROCERIES","2444 BALIS DR","BATON ROUGE","LOUISIANA","70808",,,"RETAIL","CONVENIENCE STORE"
"POINT (-91.124984215179 30.50269815905)","22638","ROSEMARY'S FOOD MART","5732 SILVERLEAF AVE","BATON ROUGE","LOUISIANA","70812","225-355-5560",,"RETAIL","CONVENIENCE STORE"
"POINT (-90.992086243326 30.355346079963)","38037","ON THE RUN #14","18211 JEFFERSON HWY","BATON ROUGE","LOUISIANA","70817",,,"RETAIL","CONVENIENCE STORE"
"POINT (-91.179664712798 30.527176408905)","10543","CITY TOWN MEAT MARKET #2","8818 SCOTLAND AVE","BATON ROUGE","LOUISIANA","70807",,,"RETAIL","CONVENIENCE STORE"
"POINT (-91.155274228142 30.450714740502)","30848","ON THE RUN #14","3373 FLORIDA ST","BATON ROUGE","LOUISIANA","70806",,,"RETAIL","CONVENIENCE STORE"
"POINT (-91.008748075662 30.45960263692)","25547","SAVEMORE MARKET #5","15958 OLD HAMMOND HWY","BATON ROUGE","LOUISIANA","70816",,,"RETAIL","CONVENIENCE STORE"
"POINT (-91.049565313496 30.460621071427)","28684","COOK'S SUPERETTE","12021 FLORIDA BLVD","BATON ROUGE","LOUISIANA","70815",,,"RETAIL","CONVENIENCE STORE"
"POINT (-91.179194761938 30.423575440991)","173511","CARUSO GROCERY","2608 HIGHLAND RD","BATON ROUGE","LOUISIANA","70802","225-343-5736",,"RETAIL","CONVENIENCE STORE"
"POINT (-91.124548375075 30.358579558228)","38411","GARDERE VILLAGE SUPERMARKET","1221 GARDERE LN, STE 1","BATON ROUGE","LOUISIANA","70820","225-767-0402",,"RETAIL","CONVENIENCE STORE"
"POINT (-91.016380714945 30.402337430443)","38385","KWIK STOP","5605 JONES CREEK RD","BATON ROUGE","LOUISIANA","70817",,,"RETAIL","CONVENIENCE STORE"
"POINT (-91.183343203709 30.438266795976)","49764","RED & WHITE EXPRESS MART","701 MYRTLE ST","BATON ROUGE","LOUISIANA","70802",,,"RETAIL","CONVENIENCE STORE"
"POINT (-91.133075142138 30.466304495378)","25047","LUCKY FOOD MART INC","5635 GREENWELL SPRINGS RD","BATON ROUGE","LOUISIANA","70806",,,"RETAIL","CONVENIENCE STORE"
"POINT (-91.139870905048 30.471224277332)","14334","FOSTER FOOD MART INC","2534 N FOSTER DR","BATON ROUGE","LOUISIANA","70805",,,"RETAIL","CONVENIENCE STORE"
"POINT (-91.133075142138 30.466304495378)","25049","FRESH GROCERY","5635 GREENWELL SPRINGS RD","BATON ROUGE","LOUISIANA","70806",,,"RETAIL","CONVENIENCE STORE"
"POINT (-91.087609208099 30.394053090867)","26017","RUG STORE, THE","6060 BLUEBONNET BLVD","BATON ROUGE","LOUISIANA","70809",,,"RETAIL","CONVENIENCE STORE"
"POINT (-91.145704224305 30.522055757154)","15687","KWIK STOP","8133 PLANK RD","BATON ROUGE","LOUISIANA","70811",,,"RETAIL","CONVENIENCE STORE"
"POINT (-91.165464852182 30.464184524683)","178476","B'S SEAFOOD & DELI","1760 PLANK RD","BATON ROUGE","LOUISIANA","70802",,,"RETAIL","CONVENIENCE STORE"
"POINT (-91.153295391286 30.500120159902)","114554","UNCLE MO FOOD MART & DELI","5557 PLANK RD","BATON ROUGE","LOUISIANA","70805",,,"RETAIL","CONVENIENCE STORE"
"POINT (-91.177342602985 30.421633421358)","52037","HIGHLAND ROAD HOP IN","2915 HIGHLAND RD","BATON ROUGE","LOUISIANA","70802",,,"RETAIL","CONVENIENCE STORE"
"POINT (-91.135629006538 30.493568442416)","21331","ONE STOP MARKET & DELI","5433 EVANGELINE ST","BATON ROUGE","LOUISIANA","70805",,,"RETAIL","CONVENIENCE STORE"
"POINT (-91.17799235104 30.397074279569)","40137","TIGERLAND MARKET INC","4383 NICHOLSON DR","BATON ROUGE","LOUISIANA","70808",,,"RETAIL","CONVENIENCE STORE"
"POINT (-91.155037058336 30.492478394224)","112784","DAVE BROTHERS INC","4670 PLANK RD","BATON ROUGE","LOUISIANA","70805",,,"RETAIL","CONVENIENCE STORE"
"POINT (-91.024587451055 30.408562311214)","36079","LOUISIANA CAJUN SEAFOOD LLC","13785 COURSEY BLVD","BATON ROUGE","LOUISIANA","70817",,,"RETAIL","CONVENIENCE STORE"
"POINT (-91.122287786667 30.488805490315)","125270","KWIK STOP","6894 AIRLINE HWY","BATON ROUGE","LOUISIANA","70805",,,"RETAIL","CONVENIENCE STORE"
"POINT (-91.159808526185 30.394407993006)","39248","ON THE RUN #14","5295 HIGHLAND RD","BATON ROUGE","LOUISIANA","70808",,,"RETAIL","CONVENIENCE STORE"
"POINT (-91.104471134468 30.478911213911)","176154","GREENWELL MARKET","8142 GREENWELL SPRINGS RD","BATON ROUGE","LOUISIANA","70814","225-928-5887",,"RETAIL","CONVENIENCE STORE"
"POINT (-91.157712814918 30.453157778043)","32025","FAST LINK COMMUNICATION","3038 NORTH ST","BATON ROUGE","LOUISIANA","70802",,,"RETAIL","CONVENIENCE STORE"
"POINT (-91.192493054486 30.542382183505)","178435","S & Y GROCERY","10833 SCENIC HWY","BATON ROUGE","LOUISIANA","70807",,,"RETAIL","CONVENIENCE STORE"
"POINT (-91.091239097482 30.37355478643)","72167","COLEMAN MINI MART","1758 GREAT OAK DR","BATON ROUGE","LOUISIANA","70810",,,"RETAIL","CONVENIENCE STORE"
"POINT (-91.118792330172 30.455338240755)","27617","JOHNSON GROCERY & MARKET","6979 VAN GOGH AVE","BATON ROUGE","LOUISIANA","70806","225-929-9923",,"RETAIL","CONVENIENCE STORE"
"POINT (-91.163260813581 30.593825148496)","160604","BAKER BLVD GROCERY","3306 BAKER BLVD","BAKER","LOUISIANA","70714",,,"RETAIL","CONVENIENCE STORE"
"POINT (-91.020451576883 30.453365775887)","29549","MI QUEVITA PLUS LLC","14890 OLD HAMMOND HWY","BATON ROUGE","LOUISIANA","70816",,,"RETAIL","CONVENIENCE STORE"
"POINT (-91.152320932968 30.460548448497)","112517","LG SHOP LLC","1305 N 38TH ST","BATON ROUGE","LOUISIANA","70802",,,"RETAIL","CONVENIENCE STORE"
"POINT (-91.168439259758 30.471279197506)","15631","GENERAL GROCERY","2665 SCENIC HWY","BATON ROUGE","LOUISIANA","70805","225-385-0710",,"RETAIL","CONVENIENCE STORE"
"POINT (-91.098931894186 30.458002778114)","26123","ON THE RUN #14","8455 AIRLINE HWY","BATON ROUGE","LOUISIANA","70815",,,"RETAIL","CONVENIENCE STORE"
"POINT (-91.056226364621 30.428026686801)","23122","AWESOME FRIENDS","2510 S SHERWOOD FOREST BLVD","BATON ROUGE","LOUISIANA","70816",,,"RETAIL","CONVENIENCE STORE"
"POINT (-91.105183670531 30.466861083179)","33612","MAX FOOD MART SNO CONES","7979 AIRLINE HWY","BATON ROUGE","LOUISIANA","70815",,,"RETAIL","CONVENIENCE STORE"
"POINT (-91.076443709015 30.473967350131)","19931","AT&T AUTHORIZED RETAILER #2715","2751 W PERDUE DR","BATON ROUGE","LOUISIANA","70814",,,"RETAIL","CONVENIENCE STORE"
"POINT (-91.066932200591 30.417949709046)","176309","AT&T AUTHORIZED RETAILER #2715","10241 COURSEY BLVD, STE B","BATON ROUGE","LOUISIANA","70816",,,"RETAIL","CONVENIENCE STORE"
"POINT (-91.064331882691 30.384550630153)","54352","SIEGEN SUPER STOP","7133 SIEGEN LN","BATON ROUGE","LOUISIANA","70809",,,"RETAIL","CONVENIENCE STORE"
"POINT (-91.072590951327 30.456025328341)","30499","LA FOOD MART","9988 FLORIDA BLVD","BATON ROUGE","LOUISIANA","70815",,,"RETAIL","CONVENIENCE STORE"
"POINT (-91.128212431916 30.497409682491)","14444","COUSINS FOOD MART","6288 AIRLINE HWY","BATON ROUGE","LOUISIANA","70805",,,"RETAIL","CONVENIENCE STORE"
"POINT (-91.06870878159 30.416493538801)","26012","CIRCLE K STORE #2707659","10391 AIRLINE HWY","BATON ROUGE","LOUISIANA","70816","225-239-8214","http://circlek.com/","RETAIL","CONVENIENCE STORE"
"POINT (-91.169623527093 30.515182572669)","23711","THOMAS & VALENTINE NEIGHBORHOOD GROCERY","2215 73RD AVE","BATON ROUGE","LOUISIANA","70807",,,"RETAIL","CONVENIENCE STORE"
"POINT (-91.057625116136 30.4721752017)","32768","SHERWOOD DISCOUNT MART","2564 N SHERWOOD FOREST DR","BATON ROUGE","LOUISIANA","70815",,,"RETAIL","CONVENIENCE STORE"
"POINT (-91.161565301445 30.431722972961)","31478","COUNTRY CORNER GROCERY","1923 PERKINS RD","BATON ROUGE","LOUISIANA","70808",,,"RETAIL","CONVENIENCE STORE"
"POINT (-91.155037058336 30.492478394224)","112785","SAVE MORE MARKET #6","4670 PLANK RD","BATON ROUGE","LOUISIANA","70805",,,"RETAIL","CONVENIENCE STORE"
"POINT (-91.180463561235 30.425543083212)","175376","ABU SAKER INC.","126 W BUCHANAN ST","BATON ROUGE","LOUISIANA","70802",,,"RETAIL","CONVENIENCE STORE"
"POINT (-91.13942560759 30.464845798402)","25040","MOMS SEAFOOD & DELI","1792 N FOSTER DR","BATON ROUGE","LOUISIANA","70806",,,"RETAIL","CONVENIENCE STORE"
"POINT (-91.161606557917 30.444321641576)","31719","SPI MINI MART","2515 GOVERNMENT ST","BATON ROUGE","LOUISIANA","70806",,,"RETAIL","CONVENIENCE STORE"
"POINT (-91.180241283925 30.396325017735)","198343","AKASHA MARKET","1190 BOB PETTIT BLVD","BATON ROUGE","LOUISIANA","70820","225-766-6478",,"RETAIL","CONVENIENCE STORE"
"POINT (-91.159113728073 30.394030798999)","25839","CIRCLE K  STORES, INC 2709724","5377 HIGHLAND RD","BATON ROUGE","LOUISIANA","70808","225-766-6365","http://circlek.com/","RETAIL","CONVENIENCE STORE"
"POINT (-91.084150733845 30.484606306919)","23754","SWIFTYS FOOD MART","9396 GREENWELL SPRINGS RD","BATON ROUGE","LOUISIANA","70814",,,"RETAIL","CONVENIENCE STORE"
"POINT (-91.174863894014 30.51612576462)","82423","NEIGHBORHOOD MINI PAK","1710 75TH AVE","BATON ROUGE","LOUISIANA","70807",,,"RETAIL","CONVENIENCE STORE"
"POINT (-91.158637841196 30.394591079615)","25841","ORIENTAL FOOD MARKET","162 LEE DR","BATON ROUGE","LOUISIANA","70808",,,"RETAIL","CONVENIENCE STORE"
"POINT (-91.169492213488 30.577996460828)","3911","C AND H MART, LLC","310 MAIN ST","BAKER","LOUISIANA","70714",,,"RETAIL","CONVENIENCE STORE"
"POINT (-91.127058037075 30.457100079635)","125330","TIMS FOOD MART","824 N ARDENWOOD DR","BATON ROUGE","LOUISIANA","70806","225-356-3445",,"RETAIL","CONVENIENCE STORE"
"POINT (-91.137243597818 30.444322736109)","29742","ANDREWS FOOD MART","5102 GOVERNMENT ST","BATON ROUGE","LOUISIANA","70806",,,"RETAIL","CONVENIENCE STORE"
"POINT (-91.107558393139 30.429775865217)","155388","BOCAGE SUPERMARKET LLC","7675 JEFFERSON HWY","BATON ROUGE","LOUISIANA","70809",,,"RETAIL","CONVENIENCE STORE"
"POINT (-91.124832629768 30.457251263229)","12924","JOHNS GROCERY & MARKET","6409 HARRY DR","BATON ROUGE","LOUISIANA","70806","225-927-8893",,"RETAIL","CONVENIENCE STORE"
"POINT (-91.154606530649 30.422226446294)","44911","CIRCLE K  STORES INC 2709717","3375 PERKINS RD","BATON ROUGE","LOUISIANA","70808","225-387-5887","http://circlek.com/","RETAIL","CONVENIENCE STORE"
"POINT (-91.142492359975 30.41663951645)","27188","CIRCLE K STORES #270765","4527 PERKINS RD","BATON ROUGE","LOUISIANA","70808","225-216-7666","http://circlek.com/","RETAIL","CONVENIENCE STORE"
"POINT (-91.111038150986 30.433832817477)","25716","CIRCLE K #8036","7475 JEFFERSON HWY","BATON ROUGE","LOUISIANA","70806",,"http://circlek.com/","RETAIL","CONVENIENCE STORE"
"POINT (-91.119506966983 30.451987632329)","137083","TIGER ONE STOP","6945 FLORIDA BLVD","BATON ROUGE","LOUISIANA","70806",,,"RETAIL","CONVENIENCE STORE"
"POINT (-91.135449433419 30.500117666314)","13779","HOLLYWOOD FOOD MART","5521 MC CLELLAND DR","BATON ROUGE","LOUISIANA","70805",,,"RETAIL","CONVENIENCE STORE"
"POINT (-91.153053838116 30.641357688811)","183180","GATE CITY FOOD MART","3840 HIGHWAY 19","ZACHARY","LOUISIANA","70791",,,"RETAIL","CONVENIENCE STORE"
"POINT (-91.071707633489 30.418480021268)","40400","AIRLINE SUPER EXPRESS","10174 AIRLINE HWY","BATON ROUGE","LOUISIANA","70809",,,"RETAIL","CONVENIENCE STORE"
"POINT (-91.117290547369 30.481873758348)","22928","STOP 7","7234 AIRLINE HWY","BATON ROUGE","LOUISIANA","70805",,,"RETAIL","CONVENIENCE STORE"
"POINT (-91.083225763995 30.476530757451)","20013","RENDE QUIK STOP","3036 MONTERREY DR","BATON ROUGE","LOUISIANA","70814",,,"RETAIL","CONVENIENCE STORE"
"POINT (-91.085219512337 30.70105225272)","6187","B & B EZ FOOD MART","24021 PLANK RD","ZACHARY","LOUISIANA","70791",,,"RETAIL","CONVENIENCE STORE"
"POINT (-91.192447699925 30.542329115276)","95274","S & Y GROCERY","10823 SCENIC HWY","BATON ROUGE","LOUISIANA","70807",,,"RETAIL","CONVENIENCE STORE"
"POINT (-91.123283853312 30.588452651485)","175884","KEEP MOVING FOOD MART","6890 KENT DR","BAKER","LOUISIANA","70714",,,"RETAIL","CONVENIENCE STORE"
"POINT (-91.17120658052 30.388212351389)","36849","KWIK STOP","5313 NICHOLSON DR","BATON ROUGE","LOUISIANA","70820",,,"RETAIL","CONVENIENCE STORE"
"POINT (-91.105183670531 30.466861083179)","33611","MAX FOOD MART","7979 AIRLINE HWY","BATON ROUGE","LOUISIANA","70815",,,"RETAIL","CONVENIENCE STORE"
"POINT (-91.157628190533 30.499994666693)","115471","LIVING WATERS GOODWILL STORE","3255 HOLLYWOOD ST","BATON ROUGE","LOUISIANA","70805",,,"RETAIL","CONVENIENCE STORE"
"POINT (-91.084329291885 30.471439242586)","25681","COUNTRY CORNER FOOD STORE #2","9232 S CHOCTAW DR","BATON ROUGE","LOUISIANA","70815",,,"RETAIL","CONVENIENCE STORE"
"POINT (-91.176435946785 30.543154604354)","20222","SCOTLAND MONEY MART","10888 SCOTLAND AVE","BATON ROUGE","LOUISIANA","70807",,,"RETAIL","CONVENIENCE STORE"
"POINT (-91.142492359975 30.41663951645)","27184","ON THE RUN #14","4527 PERKINS RD","BATON ROUGE","LOUISIANA","70808",,,"RETAIL","CONVENIENCE STORE"
"POINT (-91.065091498549 30.457239426296)","32670","CIRCLE K #8080","10770 FLORIDA BLVD","BATON ROUGE","LOUISIANA","70815",,"http://circlek.com/","RETAIL","CONVENIENCE STORE"
"POINT (-91.149456182737 30.594267817135)","1279","DANNY'S GROCERY","4701 BAKER BLVD","BAKER","LOUISIANA","70714","225-774-8884",,"RETAIL","CONVENIENCE STORE"
"POINT (-91.14620460088 30.521258058154)","15897","ON THE RUN #14","7997 PLANK RD","BATON ROUGE","LOUISIANA","70807",,,"RETAIL","CONVENIENCE STORE"
"POINT (-91.14620460088 30.521258058154)","15901","CIRCLE K STORES #2707657","7997 PLANK RD","BATON ROUGE","LOUISIANA","70807","225-357-5661","http://circlek.com/","RETAIL","CONVENIENCE STORE"
"POINT (-91.104832837537 30.648194094731)","190772","CROSSROAD GROCERY","20190 PLANK RD","ZACHARY","LOUISIANA","70791",,,"RETAIL","CONVENIENCE STORE"
"POINT (-91.142493146485 30.454020775048)","32334","KIMS MARKET","4695 NORTH ST","BATON ROUGE","LOUISIANA","70802",,,"RETAIL","CONVENIENCE STORE"
"POINT (-91.156355165605 30.461180917209)","116039","ADAMS GROCERY","1455 N ACADIAN THWY W","BATON ROUGE","LOUISIANA","70802",,,"RETAIL","CONVENIENCE STORE"
"POINT (-91.175078863749 30.514303233719)","24012","THE GOOD STORE","7202 SCENIC HWY","BATON ROUGE","LOUISIANA","70807",,,"RETAIL","CONVENIENCE STORE"
"POINT (-91.135724902227 30.475094998553)","124393","HAPPY FOOD MART","2879 DOUGHERTY DR","BATON ROUGE","LOUISIANA","70805",,,"RETAIL","CONVENIENCE STORE"
"POINT (-91.127348415494 30.461139707016)","26849","B C FOOD MART","1200 N ARDENWOOD DR","BATON ROUGE","LOUISIANA","70806","225-201-9299",,"RETAIL","CONVENIENCE STORE"
"POINT (-91.020451576883 30.453365775887)","29550","MI CUEVITA PLUS # 2","14890 OLD HAMMOND HWY","BATON ROUGE","LOUISIANA","70816",,,"RETAIL","CONVENIENCE STORE"
"POINT (-91.159932644112 30.482324671235)","16879","SMILES MARKET & DELI","2905 WYANDOTTE ST","BATON ROUGE","LOUISIANA","70805",,,"RETAIL","CONVENIENCE STORE"
"POINT (-91.124061286971 30.360935614819)","94919","S & P FOOD STORE","9385 BURBANK DR","BATON ROUGE","LOUISIANA","70820","225-767-2662",,"RETAIL","CONVENIENCE STORE"
"POINT (-91.159800893922 30.450284951327)","27738","FLORIDA DISCOUNT","2801 FLORIDA ST","BATON ROUGE","LOUISIANA","70802","225-274-0121","http://fhl.org","RETAIL","CONVENIENCE STORE"
"POINT (-91.171436178277 30.443925168545)","20358","JIM & LU GROCERY FOODMART","1701 GOVERNMENT ST","BATON ROUGE","LOUISIANA","70802","225-381-3938",,"RETAIL","CONVENIENCE STORE"
"POINT (-91.156978929662 30.478792693974)","106565","QUICK MART","3333 N ACADIAN THWY","BATON ROUGE","LOUISIANA","70805",,,"RETAIL","CONVENIENCE STORE"
"POINT (-91.192700760701 30.654129127618)","193684","JETT'S FOOD MART #2","1080 CHURCH ST","ZACHARY","LOUISIANA","70791",,,"RETAIL","CONVENIENCE STORE"
"POINT (-91.160415282183 30.499907940292)","115546","HOLDEN'S GROCERY & PACKAGE","5520 DOUGLAS AVE","BATON ROUGE","LOUISIANA","70805","225-356-6945",,"RETAIL","CONVENIENCE STORE"
"POINT (-91.182236517877 30.523877385761)","11411","COLLEGE QUICK STOP","1091 SWAN AVE","BATON ROUGE","LOUISIANA","70807",,,"RETAIL","CONVENIENCE STORE"
"POINT (-91.081471328362 30.705571084567)","101616","MIKE'S FOOD MART","24330 PLANK RD","ZACHARY","LOUISIANA","70791",,,"RETAIL","CONVENIENCE STORE"
"POINT (-91.108732503314 30.395240398813)","179578","ON THE RUN #14","5857 ESSEN LN","BATON ROUGE","LOUISIANA","70810",,,"RETAIL","CONVENIENCE STORE"
"POINT (-91.11911473601 30.479997619518)","21865","KIMS FOOD MART","7079 WINBOURNE AVE","BATON ROUGE","LOUISIANA","70805","225-924-1813",,"RETAIL","CONVENIENCE STORE"
"POINT (-91.158637841196 30.394591079615)","25843","RAGE HAIR SALON","162 LEE DR","BATON ROUGE","LOUISIANA","70808",,,"RETAIL","CONVENIENCE STORE"
"POINT (-91.142766459406 30.586334603002)","198452","RAGUSA'S MEAT MARKET","5240 GROOM RD","BAKER","LOUISIANA","70714",,,"RETAIL","CONVENIENCE STORE"
