"the_geom","id","business_name","full_address","city","state","zip","business_naics_code","phone_number","website","resource_type","sub_resource_type","abc","address_authority","address_id","business_id"
"POINT (-91.015668444327 30.404624171929)","149068","BICYCLE SHOP","5443 JONES CREEK RD, STE C-D","BATON ROUGE","LOUISIANA","70817","453310",,,"RETAIL",,"NO","PARISH","0","11468"
"POINT (-90.998751406183 30.442123710912)","41821","THE MASTOLOGY CENTERS INC","17050 MEDICAL CENTER DR","BATON ROUGE","LOUISIANA","70816","621000",,,"HEALTH CARE",,"NO","PARISH","0","37136"
"POINT (-91.099145459279 30.451813215327)","93305","CULLENS BABYLAND INC #1","8424 FLORIDA BLVD, STE B","BATON ROUGE","LOUISIANA","70806","453000",,,"RETAIL",,"NO","BATON ROUGE","0","27200"
"POINT (-91.145924127533 30.700204600226)","146981","TEXACO","23896 ZACHARY-SLAUGHTER HWY","SLAUGHTER","LOUISIANA","70777","447110",,,"RETAIL","GAS STATION","YES","PARISH","0","23161"
"POINT (-91.088851263251 30.545005696324)","186936","CHERISHED PORTRAITS","10275 BLACKWATER RD","BAKER","LOUISIANA","70714","541000",,,"PROFESSIONAL SERVICES",,"NO","CENTRAL","0","48156"
"POINT (-91.088104665139 30.381034088859)","53050","BONILLA ENTERPRISES LLC","7614 JOHN NEWCOMBE AVE","BATON ROUGE","LOUISIANA","70810","238000",,,"CONSTRUCTION",,"NO","PARISH","0","23377"
"POINT (-91.107471072413 30.478716216876)","174638","MIRROR IMAGE BEAUTY AND BARBER","7871 GREENWELL SPRINGS RD","BATON ROUGE","LOUISIANA","70814","812112",,,"PERSONAL SERVICES","HAIR SALON","NO","BATON ROUGE","0","31415"
"POINT (-91.077948946664 30.355681617095)","172875","ASOKAS LANDSCAPING & MAINT INC","13354 BRIARBEND AVE","BATON ROUGE","LOUISIANA","70810","561730",,,"PROFESSIONAL SERVICES",,"NO","PARISH","0","24589"
"POINT (-91.117954674657 30.356602095316)","85524","BROUSSARD COMMUNITY HOME","9929 GLERMA AVE","BATON ROUGE","LOUISIANA","70810","621000",,,"HEALTH CARE",,"NO","PARISH","0","60075"
"POINT (-91.168310427305 30.474919008506)","20156","LUCKY LITEHOUSE SPIRITUAL SUPPLY SHOP","2994 SCENIC HWY","BATON ROUGE","LOUISIANA","70805","453000",,,"RETAIL",,"NO","BATON ROUGE","0","32264"
"POINT (-91.129005666053 30.452955475296)","155077","DEEP SOUTH FLEA MARKET","5905 FLORIDA BLVD","BATON ROUGE","LOUISIANA","70806","453000",,,"RETAIL",,"NO","BATON ROUGE","0","60487"
"POINT (-91.110628371512 30.394155046863)","29816","FUEL ZONE","2147 STARING LN","BATON ROUGE","LOUISIANA","70808",,,,"RETAIL","GAS STATION","YES","BATON ROUGE","0","10566"
"POINT (-91.120460118852 30.455317174728)","33850","GRADUATE SUPPLY INC","6855 VAN GOGH AVE","BATON ROUGE","LOUISIANA","70806","448000",,,"RETAIL",,"NO","BATON ROUGE","0","29504"
"POINT (-91.161541591949 30.42762938267)","110298","LIBBY WILLINGHAM DESIGNS","2421 HILLSDALE DR","BATON ROUGE","LOUISIANA","70808","454000",,,"RETAIL",,"NO","BATON ROUGE","0","48801"
"POINT (-91.026607382902 30.330231794168)","80783","R & S CORPORATION","17906 E AUGUSTA DR","BATON ROUGE","LOUISIANA","70810","339000",,,"INDUSTRIAL",,"NO","PARISH","0","41079"
"POINT (-91.060129141039 30.415270878435)","173918","EXOTIC NAIL #3","10979 COURSEY BLVD, STE C","BATON ROUGE","LOUISIANA","70816","812000",,,"PERSONAL SERVICES","NAIL SALON","NO","PARISH","0","49946"
"POINT (-91.142424531321 30.420577502744)","32115","WALMART STORES INC 1206","3132 COLLEGE DR","BATON ROUGE","LOUISIANA","70808","453000",,,"RETAIL",,"NO","BATON ROUGE","0","36447"
"POINT (-91.138290068197 30.418811561155)","43899","SOUTHSIDE CHILD DEVELOPMENT CENTER","3030 VALLEY CREEK DR","BATON ROUGE","LOUISIANA","70808","624000",,,"COMMUNITY RESOURCE","PLAY PLACE","NO","BATON ROUGE","0","36120"
"POINT (-91.119725424595 30.509970114732)","111214","RONNIES HOME IMPROVEMENT","7076 GLEN OAKS DR","BATON ROUGE","LOUISIANA","70812","238000",,,"CONSTRUCTION",,"NO","PARISH","0","35155"
"POINT (-90.987877200983 30.529136260045)","177507","RICKS GUNS","18544 GREENWELL SPRINGS RD","GREENWELL SPRINGS","LOUISIANA","70739","453000",,,"RETAIL",,"NO","CENTRAL","0","49155"
"POINT (-91.115246192267 30.55298523429)","102380","RONNIE C MONTAGUE TRUCKING INC","11526 FOSTER RD","BATON ROUGE","LOUISIANA","70811","484000",,,"SHIPPING",,"NO","PARISH","0","35150"
"POINT (-91.0765784356 30.367851396653)","176119","DAVIS SALES CO INC","12688 PERKINS RD","BATON ROUGE","LOUISIANA","70810","444000",,,"RETAIL","HOME IMPROVEMENT STORE","NO","PARISH","0","27482"
"POINT (-91.101659605869 30.420166104134)","40717","A GREGORY ROME","7884 OFFICE PARK BLVD","BATON ROUGE","LOUISIANA","70809","541000",,,"PROFESSIONAL SERVICES",,"NO","BATON ROUGE","0","36627"
"POINT (-91.192447699925 30.542329115276)","95274","S & Y GROCERY","10823 SCENIC HWY","BATON ROUGE","LOUISIANA","70807","445120",,,"RETAIL","CONVENIENCE STORE","YES","BATON ROUGE","0","4430"
"POINT (-91.114901191072 30.46873254135)","20583","CALS COMPLETE AUTOMOTIVE","2138 WOODDALE BLVD, STE 1C","BATON ROUGE","LOUISIANA","70806","811000",,,"AUTO","REPAIR","NO","BATON ROUGE","0","24363"
"POINT (-91.111712281334 30.466182163288)","29564","WOODDALE GLASS CO","1830 WOODDALE CT","BATON ROUGE","LOUISIANA","70806","453000",,,"RETAIL",,"NO","BATON ROUGE","0","38407"
"POINT (-91.131100725733 30.52340454733)","106220","EVANS BROTHERS WELDING & REPAIR","5960 HOOPER RD","BATON ROUGE","LOUISIANA","70811","811310",,,"CONSTRUCTION","REPAIR","NO","PARISH","0","3197"
"POINT (-91.14996381208 30.429443268194)","122359","WANDERLUST BY ABBY","3748 CHURCHILL AVE","BATON ROUGE","LOUISIANA","70808","454000",,,"RETAIL",,"NO","BATON ROUGE","0","49564"
"POINT (-91.050473768516 30.405442854853)","72736","GEORGE ROBINSON REAL ESTATE","5422 GALERIA DR","BATON ROUGE","LOUISIANA","70816","531210",,,"PROFESSIONAL SERVICES","REAL ESTATE","NO","BATON ROUGE","0","24842"
"POINT (-91.108639889106 30.404220482625)","148183","SUBWAY #13154","7777 HENNESSY BLVD","BATON ROUGE","LOUISIANA","70808","722000",,,"RESTAURANT",,"NO","BATON ROUGE","0","37256"
"POINT (-91.120621836968 30.470228213006)","177637","INDUST PLASTICS & MACHINE INC","6829 S CHOCTAW DR","BATON ROUGE","LOUISIANA","70805","326000",,,"INDUSTRIAL",,"NO","BATON ROUGE","0","30348"
"POINT (-91.152587940227 30.45338990289)","30025","ADAMS AUTO REPAIR WORKS","3686 NORTH ST","BATON ROUGE","LOUISIANA","70806","811111",,,"AUTO","REPAIR","NO","BATON ROUGE","0","23883"
"POINT (-91.1676726274 30.587914214357)","194314","WINGS N-MORE","1180 MAIN ST","BAKER","LOUISIANA","70714","722000",,,"RESTAURANT",,"NO","BAKER","0","40464"
"POINT (-91.135052946837 30.359744094486)","50045","GULF SOUTH RESEARCH CORPORATION","8081 INNOVATION PARK DR","BATON ROUGE","LOUISIANA","70820","541620",,,"PROFESSIONAL SERVICES",,"NO","PARISH","0","29664"
"POINT (-91.072890946986 30.369880325607)","5753","THE UPS STORE #3162","8733 SIEGEN LN","BATON ROUGE","LOUISIANA","70810","561000",,,"PROFESSIONAL SERVICES",,"NO","PARISH","0","39911"
"POINT (-91.077154914283 30.457660548301)","135027","AWNING & SHEET METAL LLC","866 MADELINE CT","BATON ROUGE","LOUISIANA","70815","238000",,,"CONSTRUCTION",,"NO","BATON ROUGE","0","24736"
"POINT (-91.135983951584 30.419937762963)","43888","KIMM'S INSTITUTE OF SELF DEFENSE","4816 JAMESTOWN AVE","BATON ROUGE","LOUISIANA","70808","611699",,,"EDUCATION",,"NO","BATON ROUGE","0","4808"
"POINT (-91.187271552969 30.432678196226)","31409","PHIL AND NICK'S SERVICE CEMTER","1625 NICHOLSON DR","BATON ROUGE","LOUISIANA","70802","811111",,,"AUTO","REPAIR","NO","BATON ROUGE","0","49043"
"POINT (-91.156314104868 30.460685625319)","31355","JONES JOHNNIE A JR","1409 N ACADIAN THWY W","BATON ROUGE","LOUISIANA","70802","541110",,,"COMMUNITY RESOURCE","LEGAL ASSISTANCE","NO","BATON ROUGE","0","4675"
"POINT (-91.186698698095 30.442701622914)","15033","DEJEAN LAW OFFICE LLC","604 SAINT FERDINAND ST","BATON ROUGE","LOUISIANA","70802","541000",,,"PROFESSIONAL SERVICES","LEGAL ASSISTANCE","NO","BATON ROUGE","0","48282"
"POINT (-91.138617261563 30.442447668398)","30931","RUFUS H CRAIG JR ATTORNEY AT LAW","704 S FOSTER DR","BATON ROUGE","LOUISIANA","70806","541000",,,"PROFESSIONAL SERVICES","LEGAL ASSISTANCE","NO","BATON ROUGE","0","35260"
"POINT (-91.092375159624 30.453968861734)","36584","RAISING CANES #65","8899 FLORIDA BLVD","BATON ROUGE","LOUISIANA","70815","722000",,,"RESTAURANT",,"NO","BATON ROUGE","0","34630"
"POINT (-91.023974695353 30.39490410616)","66087","RYAN SCHEWE PAINTING SVCS","6325 CHIPPENDALE DR","BATON ROUGE","LOUISIANA","70817","238000",,,"CONSTRUCTION",,"NO","PARISH","0","35286"
"POINT (-91.153005831687 30.422411020914)","156552","ACADIAN MODERN DENTISTRY","3535 PERKINS RD, STE 345","BATON ROUGE","LOUISIANA","70808","541000",,,"PROFESSIONAL SERVICES",,"NO","BATON ROUGE","0","46143"
"POINT (-91.027320968509 30.390874483619)","96090","LOUISIANA CHEER FORCE INC","14050 TIGER BEND RD","BATON ROUGE","LOUISIANA","70817","711000",,,"RECREATION",,"NO","PARISH","0","32049"
"POINT (-91.050911028109 30.471018085298)","24189","CAPITAL BOLT CO LLC","11888 DARRYL DR","BATON ROUGE","LOUISIANA","70815","423000",,,"DISTRIBUTOR",,"NO","BATON ROUGE","0","26011"
"POINT (-91.185201001312 30.629487692962)","53614","ELECTRIC POWER LINES","18700-18800 OLD SCENIC HWY","ZACHARY","LOUISIANA","70791","221122",,,"UTILITY",,"NO","ZACHARY","0","14507"
"POINT (-91.028208260945 30.514395445538)","189300","OAK POINT FRESH MARKET CENTRAL","14485 GREENWELL SPRINGS RD","GREENWELL SPRINGS","LOUISIANA","70739","445000",,,"RETAIL","SNAP RETAILER","YES","CENTRAL","0","46174"
"POINT (-91.052224328231 30.385213466221)","54435","TRIUMPH AUTO GLASS","11646 INDUSTRIPLEX BLVD","BATON ROUGE","LOUISIANA","70809","811122",,,"AUTO","REPAIR","NO","PARISH","0","39974"
"POINT (-91.055642155817 30.39771859348)","147538","A.K. AUTOMOTIVE","5701 SIEGEN LN","BATON ROUGE","LOUISIANA","70809","811111",,,"AUTO","REPAIR","NO","PARISH","0","20865"
"POINT (-91.172472550002 30.449151649074)","14539","BATON ROUGE BAR ASSOCIATION - THIRST FOR JUSTICE","220 SAINT VINCENT DE PAUL PL","BATON ROUGE","LOUISIANA","70802","813000","225-383-7837","https://brba.org/Web/Public_Resources/Pro_Bono/Thirst_for_Justice/Web/Public_Resources/Thirst_for_justice.aspx?hkey=42c943ef-592c-49be-a739-f0890518e8de","PROFESSIONAL ASSOCIATIONS",,"NO","BATON ROUGE","0","7863"
"POINT (-91.208905784846 30.646881401627)","158670","AMERICANA YMCA","4200 LIBERTY WAY","ZACHARY","LOUISIANA","70791","713940","225-654-9622","http://ymcabr.org/","COMMUNITY RESOURCE","HEALTH","NO","ZACHARY","0","40447"
"POINT (-91.12240118995 30.321876827199)","71084","EWING TOOL COMPANY LLC","15103 COPPING DR","BATON ROUGE","LOUISIANA","70810","454000",,,"RETAIL",,"NO","PARISH","0","28501"
"POINT (-91.070398633571 30.478380750937)","21273","ACE HEATING & AIR CONDITIONING","10444 MAMMOTH AVE","BATON ROUGE","LOUISIANA","70814","238220",,,"CONSTRUCTION",,"NO","BATON ROUGE","0","196"
"POINT (-91.130535313433 30.424711033194)","40421","HOMEWOOD SUITES HOTEL","5860 CORPORATE BLVD","BATON ROUGE","LOUISIANA","70808","721110",,,"HOTEL/MOTEL",,"YES","BATON ROUGE","0","30255"
"POINT (-91.102645415595 30.660116936307)","190190","EXPERT AUTO CARE","20985 PLANK RD","ZACHARY","LOUISIANA","70791","811000",,,"AUTO","REPAIR","NO","ZACHARY","0","47155"
"POINT (-91.062906167352 30.489152549417)","180108","WOLFMASTER UNLIMITED SVCS LLC","3733 CARIBOU CT","BATON ROUGE","LOUISIANA","70814","561000",,,"PROFESSIONAL SERVICES",,"NO","BATON ROUGE","0","38392"
"POINT (-91.049852965325 30.37828593059)","37523","ACADIAN HOUSE INC","6971 EXCHEQUER DR","BATON ROUGE","LOUISIANA","70809","238000",,,"CONSTRUCTION",,"NO","PARISH","0","33593"
"POINT (-91.083225763995 30.476530757451)","20012","RENDE QUIK STOP","3036 MONTERREY DR","BATON ROUGE","LOUISIANA","70814","445000",,,"RETAIL","GAS STATION","YES","BATON ROUGE","0","14489"
"POINT (-91.141776550301 30.50920316168)","23836","FAST LYON CONVENIENCE STORE","4887 AIRLINE HWY","BATON ROUGE","LOUISIANA","70811","445110",,,"RETAIL","CONVENIENCE STORE","YES","BATON ROUGE","0","2024"
"POINT (-91.18400676721 30.444441245506)","117898","HAMILTON BENN ATTY","332 NAPOLEON ST","BATON ROUGE","LOUISIANA","70802","541110",,,"COMMUNITY RESOURCE","LEGAL ASSISTANCE","NO","BATON ROUGE","0","12570"
"POINT (-91.121740424612 30.404558216506)","46963","BRYSON INSURANCE","6421 PERKINS RD","BATON ROUGE","LOUISIANA","70808","524210",,,"PROFESSIONAL SERVICES","INSURANCE","NO","BATON ROUGE","0","29732"
"POINT (-91.072310903484 30.490251224929)","23749","FRANK ARD INVESTMENTS INC","10088 GREENWELL SPRINGS RD","BATON ROUGE","LOUISIANA","70814","541000",,,"PROFESSIONAL SERVICES",,"NO","BATON ROUGE","0","28990"
"POINT (-91.162838150743 30.440627205051)","100586","MICHAEL CHOL LAWN SERVICE","2349 TULIP ST","BATON ROUGE","LOUISIANA","70806","815000",,,"PROFESSIONAL SERVICES","LANDSCAPE","NO","BATON ROUGE","0","32765"
"POINT (-91.188541618746 30.449432031082)","150348","GARTH J RIDGE ATTORNEY AT LAW","251 FLORIDA ST","BATON ROUGE","LOUISIANA","70801","541000",,,"PROFESSIONAL SERVICES","LEGAL ASSISTANCE","NO","BATON ROUGE","0","36344"
"POINT (-91.024437492533 30.683715915553)","10113","JACKSON MOORE MORRIS AMERICAN LEGION","13214 JACKSON RD","ZACHARY","LOUISIANA","70791","813410",,,"CIVIC ORGANIZATION",,"NO","PARISH","0","4474"
"POINT (-91.127409912076 30.404637321451)","29494","BEAU BOX COMMERCIAL REAL ESTATE","2137 QUAIL RUN DR","BATON ROUGE","LOUISIANA","70808","531210",,,"PROFESSIONAL SERVICES","REAL ESTATE","NO","BATON ROUGE","0","35788"
"POINT (-91.112670620994 30.395983274036)","152597","GULF COAST RESEARCH","2133 SILVERSIDE DR, STE D","BATON ROUGE","LOUISIANA","70808","561439",,,"PROFESSIONAL SERVICES",,"NO","BATON ROUGE","0","12414"
"POINT (-91.049448360925 30.404109151045)","150326","WELLNESS KNEADS MASSAGE THERAPY","5618 SUPERIOR DR, STE H","BATON ROUGE","LOUISIANA","70816","812000",,,"PERSONAL SERVICES",,"NO","BATON ROUGE","0","38177"
"POINT (-91.07525883218 30.407861951742)","96615","TEAMS OF TOMORROW LIVINGSTON PARISH PRAIRIEVILLE G","4543 INNISWOLD RD","BATON ROUGE","LOUISIANA","70809","451000",,,"RETAIL",,"NO","PARISH","0","49402"
"POINT (-91.177193551856 30.522439255876)","11226","ETHEL'S SNACK SHOP","1553 FAIRCHILD ST","BATON ROUGE","LOUISIANA","70807","722000",,,"RESTAURANT",,"NO","BATON ROUGE","0","19718"
"POINT (-91.127223966966 30.390787757949)","60228","GREEN BIORESEARCH LLC","7522 SHREWSBURY AVE","BATON ROUGE","LOUISIANA","70808","454000",,,"RETAIL",,"NO","BATON ROUGE","0","29543"
"POINT (-90.98591336031 30.520169440266)","191065","KB DESIGNS","18638 MAGNOLIA BEND RD","GREENWELL SPRINGS","LOUISIANA","70739","454000",,,"RETAIL",,"NO","CENTRAL","0","48706"
"POINT (-91.046566015667 30.395385373769)","66667","HOLLY HARRISON INTERIORS","12245 JEFFERSON HWY","BATON ROUGE","LOUISIANA","70816","541410",,,"PROFESSIONAL SERVICES",,"NO","BATON ROUGE","0","23287"
"POINT (-91.15265121396 30.451889110898)","153152","ALM CONSTRUCTION","465 PEACHTREE BLVD","BATON ROUGE","LOUISIANA","70806","238000",,,"CONSTRUCTION",,"NO","BATON ROUGE","0","24179"
"POINT (-91.035274641639 30.466333890358)","31847","ULYSSES TRUCKING CO","1752 N FLANNERY RD","BATON ROUGE","LOUISIANA","70815","484000",,,"SHIPPING",,"NO","BATON ROUGE","0","37699"
"POINT (-91.025032396347 30.441399622373)","139375","CIRCLE K STORES #2706827","2020 MILLERVILLE RD","BATON ROUGE","LOUISIANA","70816","447000",,,"RETAIL","CONVENIENCE STORE","YES","PARISH","0","39016"
"POINT (-91.148459148683 30.417953223607)","98255","NAPOLI ENTERPRISES INC","2232 IDLE OAKS DR","BATON ROUGE","LOUISIANA","70808","236000",,,"CONSTRUCTION",,"NO","BATON ROUGE","0","33158"
"POINT (-91.024605979838 30.366317866997)","85562","MIE PROPERTIES LA LLC","14111 AIRLINE HWY","BATON ROUGE","LOUISIANA","70817","236220",,,"CONSTRUCTION",,"NO","PARISH","0","39961"
"POINT (-91.156222863447 30.469709782199)","147844","QUALIT LAWN CARE","2418 N ACADIAN THWY W","BATON ROUGE","LOUISIANA","70802","561000",,,"PROFESSIONAL SERVICES",,"NO","BATON ROUGE","0","23209"
"POINT (-91.197437562478 30.540450331942)","102527","IN KOVENANT MINISTRIES","326 HILLCREST AVE","BATON ROUGE","LOUISIANA","70807","813000","225-775-3926",,"COMMUNITY RESOURCE","RELIGIOUS ORGANIZATION","NO","BATON ROUGE","0","41799"
"POINT (-91.105372498696 30.452537510904)","30758","MCDONALDS WOODDALE","8009 FLORIDA BLVD","BATON ROUGE","LOUISIANA","70806","722000",,,"RESTAURANT",,"NO","BATON ROUGE","0","32593"
"POINT (-91.106679294744 30.428130255686)","46338","SAUNDERS LUX JEWELER LLC","7809 JEFFERSON HWY","BATON ROUGE","LOUISIANA","70809","453000",,,"RETAIL",,"NO","BATON ROUGE","0","59840"
"POINT (-91.155517432686 30.491926895076)","17221","SYNERGY INVESTMENT GROUP","4604 PLANK RD","BATON ROUGE","LOUISIANA","70805","523110",,,"PROFESSIONAL SERVICES","FINANCIAL ASSISTANCE","NO","BATON ROUGE","0","29908"
"POINT (-91.076080021738 30.486919153951)","151138","VISIBLE CHANGE HAIR CARE","9718 GREENWELL SPRINGS RD","BATON ROUGE","LOUISIANA","70814","812112",,,"PERSONAL SERVICES","HAIR SALON","NO","BATON ROUGE","0","18530"
"POINT (-91.180175162746 30.445362236087)","118206","ROBERTO MACEDO & ASSOC","213 S T.J. JEMISON BLVD","BATON ROUGE","LOUISIANA","70802","541611",,,"PROFESSIONAL SERVICES",,"NO","BATON ROUGE","0","7100"
"POINT (-91.150549375182 30.450729505693)","33238","HOME HEALTH SOLUTIONS, LLC","3875 FLORIDA BLVD","BATON ROUGE","LOUISIANA","70806","621000",,,"HEALTH CARE",,"NO","BATON ROUGE","0","4209"
"POINT (-91.071249399329 30.455671430083)","5669","MUGSYS INC","10090 FLORIDA BLVD","BATON ROUGE","LOUISIANA","70815","722000",,,"BAR/NIGHTCLUB/LOUNGE",,"YES","BATON ROUGE","0","33078"
"POINT (-91.00998457526 30.422216700241)","75640","BMP DIVINELY MINE PHOTOGRAPHY","15854 S SANDERLAND AVE","BATON ROUGE","LOUISIANA","70816","541000",,,"PROFESSIONAL SERVICES",,"NO","PARISH","0","47636"
"POINT (-91.124554910655 30.471330508192)","124851","P & R ELECTRIC, INC.","6523 CHOCTAW DR","BATON ROUGE","LOUISIANA","70805","811412",,,"DISTRIBUTOR","ELECTRICIAN","NO","BATON ROUGE","0","6228"
"POINT (-91.05748709408 30.401300520333)","56166","SCHUMACHER HOMES OF LOUISIANA INC","11112 AIRLINE HWY","BATON ROUGE","LOUISIANA","70809","236000",,,"CONSTRUCTION",,"NO","PARISH","0","35503"
"POINT (-91.107530013701 30.429770456571)","176167","BELLA BELLA","7651 JEFFERSON HWY","BATON ROUGE","LOUISIANA","70809","448120",,,"RETAIL",,"NO","BATON ROUGE","0","25191"
"POINT (-91.026405206363 30.423335917311)","80771","JANE OLSON DESIGNS","14238 ADDINGTON AVE","BATON ROUGE","LOUISIANA","70816","453000",,,"RETAIL",,"NO","BATON ROUGE","0","23222"
"POINT (-91.087109333298 30.466435956695)","135968","BLALA","1815 N ALAMEDA DR","BATON ROUGE","LOUISIANA","70815","448000",,,"RETAIL",,"NO","BATON ROUGE","0","25397"
"POINT (-91.136302913087 30.402336389484)","48600","SOUTHERN PHOTOGRAPHIC IMAGES","1479 POLLARD PKWY","BATON ROUGE","LOUISIANA","70808","541000",,,"PROFESSIONAL SERVICES",,"NO","BATON ROUGE","0","36094"
"POINT (-91.040802171126 30.391661943737)","51857","BLUEWATER RUBBER & GASKET CO","6629 PECUE LN","BATON ROUGE","LOUISIANA","70816","423000",,,"DISTRIBUTOR",,"NO","PARISH","0","20500"
"POINT (-91.087416712996 30.471453245771)","25939","UPHOLSTERY LIMITED LLC","9020 S CHOCTAW DR","BATON ROUGE","LOUISIANA","70815","811000",,,"AUTO","REPAIR","NO","BATON ROUGE","0","37792"
"POINT (-91.135742658603 30.424453384889)","150304","MELTING POT","5294 CORPORATE BLVD","BATON ROUGE","LOUISIANA","70808","722410",,,"BAR/NIGHTCLUB/LOUNGE",,"NO","BATON ROUGE","0","37066"
"POINT (-91.105132964086 30.45136240522)","41873","RENT N ROLL","8030 FLORIDA BLVD","BATON ROUGE","LOUISIANA","70806","532310",,,"AUTO","RENTAL","NO","BATON ROUGE","0","18648"
"POINT (-91.138219065905 30.443854603539)","26533","JAE ACCENTS LLC","545 S FOSTER DR","BATON ROUGE","LOUISIANA","70806","453000",,,"RETAIL",,"NO","BATON ROUGE","0","30686"
"POINT (-91.167665403742 30.587593665421)","156334","BAKER CLEANERS","1160 MAIN ST","BAKER","LOUISIANA","70714","561000",,,"PROFESSIONAL SERVICES",,"NO","BAKER","0","40463"
"POINT (-91.051095523769 30.406094612602)","36120","REGIONS BANK","5341 S SHERWOOD FOREST BLVD","BATON ROUGE","LOUISIANA","70816","522110",,,"FINANCIAL INSTITUTION","BANK","NO","BATON ROUGE","0","35156"
"POINT (-91.051227290193 30.426146768461)","162190","GREGORY GOUNER ATTY","11715 BRICKSOME AVE, STE C","BATON ROUGE","LOUISIANA","70816","541110",,,"COMMUNITY RESOURCE","LEGAL ASSISTANCE","NO","BATON ROUGE","0","15902"
"POINT (-91.079215198316 30.408867122343)","172392","BRACE INTEGRATED SERVICES","4315 BLUEBONNET BLVD, STE B","BATON ROUGE","LOUISIANA","70809","237000",,,"INDUSTRIAL",,"NO","PARISH","0","50342"
"POINT (-91.048814596724 30.403449227835)","194415","2G MARKETING COMMUNICATIONS IN","5713 SUPERIOR DR, STE B3","BATON ROUGE","LOUISIANA","70816","541000",,,"PROFESSIONAL SERVICES",,"NO","BATON ROUGE","0","23517"
"POINT (-91.18108234011 30.468129676722)","18373","WILSON WAREHOUSE CO INC","2400 SORREL AVE","BATON ROUGE","LOUISIANA","70802","493000",,,"WAREHOUSING",,"NO","BATON ROUGE","0","38336"
"POINT (-91.100899804057 30.473500337115)","17396","ALUMINUM SPECIALTIES CO","8391 PARIS AVE","BATON ROUGE","LOUISIANA","70814","339000",,,"INDUSTRIAL",,"NO","BATON ROUGE","0","24208"
"POINT (-91.053878349777 30.417329288127)","170060","PERSONAL TOUCH HEALTHCARE SVCS LLC","4212 AMERICAN WAY, STE B","BATON ROUGE","LOUISIANA","70816","621000",,,"HEALTH CARE",,"NO","PARISH","0","47698"
"POINT (-91.115903134665 30.431477868869)","150083","ZEA ROTISSERIE & GRILL","2380 TOWNE CENTER BLVD","BATON ROUGE","LOUISIANA","70809","445000",,,"RESTAURANT",,"YES","PARISH","0","38540"
"POINT (-91.109746157947 30.352314948783)","185082","WALMART SUPERCENTER #4683","10550 BURBANK DR","BATON ROUGE","LOUISIANA","70810","445110",,"http://walmart.com/","RETAIL","SNAP RETAILER","YES","PARISH","0","8696"
"POINT (-91.115976309149 30.434237807904)","30772","RICHARD ATKINS DDS","7059 JEFFERSON HWY","BATON ROUGE","LOUISIANA","70806","621000",,,"HEALTH CARE",,"NO","BATON ROUGE","0","34933"
"POINT (-91.108874121194 30.354326791761)","98181","MCDONALD'S","10501 BURBANK DR","BATON ROUGE","LOUISIANA","70810","722000",,,"RESTAURANT","FAST FOOD","NO","PARISH","0","32583"
"POINT (-91.159236885138 30.39509939003)","39260","FABIAN'S EXPRESSIONS IN HAIR","143 LEE DR, STE 1-7","BATON ROUGE","LOUISIANA","70808","812112",,,"PERSONAL SERVICES","HAIR SALON","NO","BATON ROUGE","0","35995"
"POINT (-91.021836837263 30.430899578639)","65690","COX RESEARCH & TECHNOLOGY","14697 S HARRELL'S FERRY RD","BATON ROUGE","LOUISIANA","70816","541000",,,"PROFESSIONAL SERVICES",,"NO","BATON ROUGE","0","27058"
"POINT (-91.045357662607 30.440822403911)","25608","ACCU BUILDERS INC","12097 OLD HAMMOND HWY","BATON ROUGE","LOUISIANA","70815","236000",,,"CONSTRUCTION",,"NO","BATON ROUGE","0","39367"
"POINT (-91.150860932346 30.448529464146)","30033","SHERMAN CREDIT","3829 NORTH BLVD","BATON ROUGE","LOUISIANA","70806","521000",,,"FINANCIAL INSTITUTION",,"NO","BATON ROUGE","0","35705"
"POINT (-91.182112694624 30.522164400106)","91509","LARRY BOOKER CAR WASH ON WHEEL","1060 SIMMS ST","BATON ROUGE","LOUISIANA","70807","815000",,,"AUTO","CAR WASH","NO","BATON ROUGE","0","31644"
"POINT (-91.035692667565 30.4866913284)","17611","CARE PREGNANCY CLINIC","3813 N FLANNERY RD","BATON ROUGE","LOUISIANA","70814","624190","225-275-0100","http://achoice.org","COMMUNITY RESOURCE","HEALTH/EDUCATION ISSUES","NO","PARISH","0","1798"
"POINT (-91.121401122116 30.470198884366)","33388","APPLIANCE PARTS INC","2322 LOBDELL BLVD","BATON ROUGE","LOUISIANA","70806","811412",,,"PERSONAL SERVICES","REPAIR","NO","BATON ROUGE","0","23499"
"POINT (-91.090129262908 30.469609260756)","25364","ORION INSTRUMENTS LLC","2105 OAK VILLA BLVD","BATON ROUGE","LOUISIANA","70815","453000",,,"RETAIL",,"NO","BATON ROUGE","0","33551"
"POINT (-91.110756730157 30.466071243659)","25867","TROPHY HOUSE, THE","1815 DALLAS DR","BATON ROUGE","LOUISIANA","70806","453998",,,"RETAIL",,"NO","BATON ROUGE","0","8390"
"POINT (-91.082984537187 30.40100194433)","2236","TYNER JETER INSURANCE AGENCY LLC","5139 BLUEBONNET BLVD","BATON ROUGE","LOUISIANA","70809","524210",,,"PROFESSIONAL SERVICES","INSURANCE","NO","PARISH","0","22401"
"POINT (-91.046744439581 30.394577503944)","71243","NOBLE MASSAGE LLC","12314 JEFFERSON HWY","BATON ROUGE","LOUISIANA","70816","713000",,,"RECREATION",,"NO","PARISH","0","12672"
"POINT (-91.034132695613 30.394945805459)","35459","ACCU-TEMP A/C AND REFRIGERATION","6338 QUIN DR","BATON ROUGE","LOUISIANA","70817","238220",,,"CONSTRUCTION",,"NO","PARISH","0","23870"
"POINT (-91.123217201873 30.457745728895)","141712","STORAGE UNITS","6532 REMBRANDT AVE","BATON ROUGE","LOUISIANA","70806","531130",,,"SELF-STORAGE",,"NO","BATON ROUGE","0","7976"
"POINT (-91.087580331197 30.38887693489)","39331","MASONRY ARTS","6401 BLUEBONNET BLVD","BATON ROUGE","LOUISIANA","70836","238000",,,"CONSTRUCTION",,"NO","BATON ROUGE","0","38833"
"POINT (-91.146356010312 30.517305514284)","93152","DC INSPECTIONS","7474 PLANK RD","BATON ROUGE","LOUISIANA","70811","811000",,,"REPAIR",,"NO","BATON ROUGE","0","27498"
"POINT (-91.000085104251 30.553961537621)","168078","COTTONMOUTH CUSTOM BOATS","11257 CREIGHTON DR","GREENWELL SPRINGS","LOUISIANA","70739","454000",,,"RETAIL",,"NO","CENTRAL","0","48215"
"POINT (-91.053119340216 30.419771417634)","178114","NEW CENTURY MORTGAGE","11550 NEWCASTLE AVE","BATON ROUGE","LOUISIANA","70816","522310",,,"FINANCIAL INSTITUTION","MORTGAGE LENDER","NO","BATON ROUGE","0","36274"
"POINT (-91.0878672731 30.415524115704)","85025","MAESTRI MURRELL","9018 JEFFERSON HWY","BATON ROUGE","LOUISIANA","70809","531000",,,"PROFESSIONAL SERVICES","REAL ESTATE","NO","PARISH","0","23243"
"POINT (-91.1164573028 30.430230850017)","162214","NEWK'S EATERY","7211 CORPORATE BLVD, STE B","BATON ROUGE","LOUISIANA","70809","722000",,,"RESTAURANT",,"YES","PARISH","0","42049"
"POINT (-91.112376942512 30.393847119902)","29802","G T AND ASSOCIATES","7354 ALBERTA DR","BATON ROUGE","LOUISIANA","70808","812000",,,"PERSONAL SERVICES",,"NO","BATON ROUGE","0","36449"
"POINT (-91.139299111812 30.444234632478)","30933","HAIR RAZORS","4914 GOVERNMENT ST","BATON ROUGE","LOUISIANA","70806","812000",,,"PERSONAL SERVICES",,"NO","BATON ROUGE","0","60332"
"POINT (-91.045931534346 30.440575916885)","25600","DOLCE TREATS LLC","12087 OLD HAMMOND HWY, STE B","BATON ROUGE","LOUISIANA","70815","445291",,,"FOOD ACCESS",,"NO","BATON ROUGE","0","40112"
"POINT (-91.11156338427 30.467231255138)","138454","TIMS GUITAR WORKSHOP","1935 DALLAS DR, STE B","BATON ROUGE","LOUISIANA","70806","811000",,,"REPAIR",,"NO","BATON ROUGE","0","37335"
"POINT (-91.071093203394 30.473620125124)","177891","ADVANCED BUILDING PRODUCTS INC","10213 S PERDUE AVE","BATON ROUGE","LOUISIANA","70814","444000",,,"RETAIL","HOME IMPROVEMENT STORE","NO","BATON ROUGE","0","23923"
"POINT (-91.132743470366 30.565897304707)","8415","MANDA FINE MEATS","13111 PLANK RD","BATON ROUGE","LOUISIANA","70811","311613",,,"INDUSTRIAL",,"NO","PARISH","0","5457"
"POINT (-91.168565268961 30.456659565218)","120076","SOLOMONS MAINT & HOME REPAIR","915 N 20TH ST","BATON ROUGE","LOUISIANA","70802","238000",,,"CONSTRUCTION",,"NO","BATON ROUGE","0","35978"
"POINT (-91.08010003276 30.454777148047)","11422","CHASE BANK","9632 FLORIDA BLVD","BATON ROUGE","LOUISIANA","70815","521110",,,"FINANCIAL INSTITUTION","BANK","NO","BATON ROUGE","0","755"
"POINT (-91.142400912002 30.462413117603)","30327","COMMUNITY ASSOCIATION FOR WELFARE OF THE CHILD","4771 GUS YOUNG AVE","BATON ROUGE","LOUISIANA","70802","624410",,,"COMMUNITY RESOURCE","CHILD DAY CARE","NO","BATON ROUGE","0","6897"
"POINT (-91.093968023721 30.387898913452)","27664","CAPITAL ONE BANK","6920 BLUEBONNET BLVD","BATON ROUGE","LOUISIANA","70810","522110",,,"FINANCIAL INSTITUTION","BANK","NO","PARISH","0","4102"
"POINT (-91.171599295981 30.515491060309)","87584","CUPCAKE JUNKIE LLC","2040 74TH AVE","BATON ROUGE","LOUISIANA","70807","454000",,,"RETAIL",,"NO","BATON ROUGE","0","41396"
"POINT (-91.079725178819 30.466075706402)","133431","PIERSONS CRAFT","9625 VENTURA DR","BATON ROUGE","LOUISIANA","70815","451000",,,"RETAIL",,"NO","BATON ROUGE","0","40189"
"POINT (-91.018851109795 30.443625739194)","143465","NEW CREATION WELLNESS","1913 HUNTERS WAY DR","BATON ROUGE","LOUISIANA","70816","611000",,,"EDUCATION",,"NO","PARISH","0","33260"
"POINT (-91.157687075854 30.409321649845)","58969","SCISSORHANDZ MCGEHEE","3730 FLOYD DR","BATON ROUGE","LOUISIANA","70808","812000",,,"PERSONAL SERVICES",,"NO","BATON ROUGE","0","32596"
"POINT (-91.106857637484 30.393738191034)","28700","EXOTIC NAILS","7731 PERKINS RD","BATON ROUGE","LOUISIANA","70810","812113",,,"PERSONAL SERVICES","NAIL SALON","NO","BATON ROUGE","0","28535"
"POINT (-91.114643560827 30.463616279419)","179511","DELTA COLLEGE OF ARTS & TECHNOLOGY","7380 EXCHANGE PL, BLDG E","BATON ROUGE","LOUISIANA","70806","611410",,,"EDUCATION","VOCATIONAL TECHNICAL SCHOOL","NO","BATON ROUGE","0","2720"
"POINT (-91.084052809878 30.479268350011)","17647","LOUISIANA PROTECTIVE AGENCY","3213 MONTERREY DR, STE A","BATON ROUGE","LOUISIANA","70814","561612",,,"PROFESSIONAL SERVICES",,"NO","BATON ROUGE","0","49958"
"POINT (-91.050365119456 30.417116846686)","40380","COASTAL CARE SERVICES LLC","3909 PLAZA TOWER DR","BATON ROUGE","LOUISIANA","70816","624000",,,"HEALTH CARE",,"NO","BATON ROUGE","0","37719"
"POINT (-91.105712203821 30.467659360246)","29312","TEAM CERTIFIED AUTO SALES LLC","7945 AIRLINE HWY","BATON ROUGE","LOUISIANA","70815","441000",,,"AUTO","SALES","NO","BATON ROUGE","0","38870"
"POINT (-91.188079511511 30.432095586468)","14027","KWIK STOP","1644 NICHOLSON DR","BATON ROUGE","LOUISIANA","70802","447110",,,"RETAIL","CONVENIENCE STORE","YES","BATON ROUGE","0","26600"
"POINT (-91.063774911497 30.364190033375)","43335","CABALLERO LAW FIRM","13862 PERKINS RD","BATON ROUGE","LOUISIANA","70810","541110",,,"COMMUNITY RESOURCE","LEGAL ASSISTANCE","NO","PARISH","0","35307"
"POINT (-91.136288718162 30.419965281014)","43889","REAL ESTATE VENTURES INC","4744 JAMESTOWN AVE","BATON ROUGE","LOUISIANA","70808","531000",,,"PROFESSIONAL SERVICES","REAL ESTATE","NO","BATON ROUGE","0","34713"
"POINT (-91.101005315239 30.471090787022)","43869","HARRISON METAL WORKS","8344 S CHOCTAW DR","BATON ROUGE","LOUISIANA","70815","238000",,,"CONSTRUCTION",,"NO","BATON ROUGE","0","29835"
"POINT (-91.124159091102 30.457710677728)","27757","PROSPERITY HOUSE","855 N CARROLLTON AVE","BATON ROUGE","LOUISIANA","70806","623000",,,"HEALTH CARE",,"NO","BATON ROUGE","0","1833"
"POINT (-91.015097614789 30.405279569367)","173200","HI NABOR SUPERMARKET INC","5383 JONES CREEK RD","BATON ROUGE","LOUISIANA","70817","445110","225-927-5450","http://hinabor.com/","RETAIL","SNAP RETAILER","YES","PARISH","0","23401"
"POINT (-91.149886739414 30.469462630967)","126320","AMPED UP CUSTOMS","4036 MONROE AVE","BATON ROUGE","LOUISIANA","70802","454000",,,"RETAIL",,"NO","BATON ROUGE","0","47623"
"POINT (-91.057898911462 30.397925555418)","89605","BUDGET RENT A CAR SYSTEM","5760 SIEGEN LN, STE E","BATON ROUGE","LOUISIANA","70809","532000",,,"AUTO","RENTAL","NO","PARISH","0","36548"
"POINT (-91.020194037697 30.35235296243)","97139","MAXWELLS MARKET","18135 E PETROLEUM DR, STE A","BATON ROUGE","LOUISIANA","70809","445110",,"http://maxwells-market.com/","RETAIL","GROCERY","YES","PARISH","0","38874"
"POINT (-91.046678618141 30.347851659331)","197620","HIGHLAND ROAD ANTIQUES","16255 HIGHLAND RD","BATON ROUGE","LOUISIANA","70810","453310",,,"RETAIL",,"NO","PARISH","0","33294"
"POINT (-91.095599624953 30.44233750995)","33041","GOODWOOD GRILL","8558 GOODWOOD BLVD","BATON ROUGE","LOUISIANA","70806","722000",,,"RESTAURANT",,"NO","BATON ROUGE","0","29460"
"POINT (-91.097826140589 30.45772965034)","25315","MATTRESS FIRM","8686 FLORLINE BLVD","BATON ROUGE","LOUISIANA","70815","442110",,,"RETAIL","FURNITURE STORE","NO","BATON ROUGE","0","62403"
"POINT (-91.110796572934 30.538997141812)","101328","MAXCINE GILES REAL ESTATE SERVICES","10054 FOSTER RD","BATON ROUGE","LOUISIANA","70811","531000",,,"PROFESSIONAL SERVICES","REAL ESTATE","NO","PARISH","0","48886"
"POINT (-91.051431028368 30.390349280814)","72056","SCANNING TECHNOLOGIES INC","6134 BENEFIT DR, STE A","BATON ROUGE","LOUISIANA","70809","236220",,,"CONSTRUCTION",,"NO","PARISH","0","20440"
"POINT (-91.141105192935 30.493479360513)","20255","KWIK STOP","4959 EVANGELINE ST","BATON ROUGE","LOUISIANA","70805","447110",,,"RETAIL","SNAP RETAILER","YES","BATON ROUGE","0","26561"
"POINT (-91.093611257563 30.378639352548)","96336","BAIN & COMPANY","10156 PERKINS ROWE, STE 130","BATON ROUGE","LOUISIANA","70810","541611",,,"PROFESSIONAL SERVICES",,"NO","PARISH","0","37029"
"POINT (-91.114888725897 30.401754940078)","85788","O'DONOVAN PHYSICAL THERAPY","5438 O'DONOVAN DR, STE 100","BATON ROUGE","LOUISIANA","70808","622120",,,"HEALTH CARE",,"NO","BATON ROUGE","0","31872"
"POINT (-91.081764156886 30.368028223907)","54516","CAPITOL REALTY & ASSOCIATES","12328 SIR WALTER AVE","BATON ROUGE","LOUISIANA","70810","531000",,,"PROFESSIONAL SERVICES","REAL ESTATE","NO","PARISH","0","26067"
"POINT (-91.052742439826 30.418105724939)","174480","SHARP DOOLEY","3888 S SHERWOOD FOREST BLVD, STE F","BATON ROUGE","LOUISIANA","70816","541110",,,"COMMUNITY RESOURCE","LEGAL ASSISTANCE","NO","BATON ROUGE","0","36289"
"POINT (-90.998613839267 30.40520213659)","77401","SEASCRIPT LLC","5012 MOBILE DR","BATON ROUGE","LOUISIANA","70817","561000",,,"PROFESSIONAL SERVICES",,"NO","PARISH","0","35560"
"POINT (-91.129005666053 30.452955475296)","155062","PROMISING BOUTIQUE","5905 FLORIDA BLVD","BATON ROUGE","LOUISIANA","70806","448000",,,"RETAIL",,"NO","BATON ROUGE","0","60487"
"POINT (-91.084413792841 30.438019164114)","21695","BARRY BETTER MENSWEAR","9505 AIRLINE HWY","BATON ROUGE","LOUISIANA","70815","448110",,,"RETAIL",,"NO","BATON ROUGE","0","18565"
"POINT (-91.079144475113 30.453821621197)","148357","CASH ADVANCE","9620 FLORIDA BLVD, STE 400","BATON ROUGE","LOUISIANA","70815","522390",,,"FINANCIAL INSTITUTION","CHECK CASHING","NO","BATON ROUGE","0","13072"
"POINT (-91.119408188724 30.434339104527)","5976","CARL BARKEMEYER ATTORNEY AT LAW","6811 JEFFERSON HWY","BATON ROUGE","LOUISIANA","70806","541000",,,"PROFESSIONAL SERVICES","LEGAL ASSISTANCE","NO","BATON ROUGE","0","3346"
"POINT (-91.072850964506 30.36726260321)","96097","STATE FARM INSURANCE","13234 PERKINS RD","BATON ROUGE","LOUISIANA","70810","524210",,,"PROFESSIONAL SERVICES","INSURANCE","NO","PARISH","0","30823"
"POINT (-90.994273026355 30.389282774919)","74540","FIBROMYALGIA ACTIVISTS COOPERATIVE TEAM SUPPORT","17325 TIGER BEND RD","BATON ROUGE","LOUISIANA","70817","813000","225-752-3162",,"COMMUNITY RESOURCE","HEALTH/EDUCATION ISSUES","NO","PARISH","0","41779"
"POINT (-91.163484245887 30.444143535811)","34238","JOHN P CALMES JR","2335 GOVERNMENT ST","BATON ROUGE","LOUISIANA","70806","541000",,,"PROFESSIONAL SERVICES",,"NO","BATON ROUGE","0","30950"
"POINT (-91.008075458881 30.409347611353)","36259","DEAN EYE CARE CLINIC","4747 O'NEAL LN, STE A","BATON ROUGE","LOUISIANA","70817","621320",,,"HEALTH CARE",,"NO","PARISH","0","39189"
"POINT (-91.107682862385 30.43072544136)","151624","MCKEARN JOSEPH ATTY","7642 OLD HAMMOND HWY","BATON ROUGE","LOUISIANA","70809","541110",,,"COMMUNITY RESOURCE","LEGAL ASSISTANCE","NO","BATON ROUGE","0","5580"
"POINT (-91.158239287052 30.453634743378)","30882","HOUSE DOCTOR","3023 NORTH ST","BATON ROUGE","LOUISIANA","70802","453000",,,"RETAIL",,"NO","BATON ROUGE","0","40043"
"POINT (-91.104850002999 30.479115261595)","123706","BROWIE'S KITCHEN & GROCERY, LLC","8154 GREENWELL SPRINGS RD","BATON ROUGE","LOUISIANA","70814",,,,"FOOD ACCESS","GROCERY",,"BATON ROUGE","0","28540"
"POINT (-91.057721668134 30.469544182509)","32744","PAULA CAMPBELL","2236 N SHERWOOD FOREST DR","BATON ROUGE","LOUISIANA","70815","454000",,,"RETAIL",,"NO","BATON ROUGE","0","38231"
"POINT (-91.187871060605 30.468443314656)","16475","TERMINAL TRANSFER & STORAGE INC","2330 N 3RD ST","BATON ROUGE","LOUISIANA","70802","815000",,,"WAREHOUSING",,"NO","BATON ROUGE","0","36834"
"POINT (-91.164767089863 30.453488176644)","184346","EIGHT 18 HAIR STUDIOS AND BOUTIQUE","2285 NORTH ST","BATON ROUGE","LOUISIANA","70802","812112",,,"PERSONAL SERVICES","HAIR SALON","NO","BATON ROUGE","0","39149"
"POINT (-91.130813138238 30.531913936345)","106607","JEARY RODRIGUE CLEANING SERVICES","8866 MABLE DR","BATON ROUGE","LOUISIANA","70811","812000",,,"PERSONAL SERVICES",,"NO","PARISH","0","30819"
"POINT (-91.095474646138 30.415426922275)","86977","BODY TUNING","8664 FOREST HILL DR","BATON ROUGE","LOUISIANA","70809","812000",,,"PERSONAL SERVICES",,"NO","PARISH","0","25483"
"POINT (-91.052130031663 30.390903051531)","43262","SOUTH LA AUTOMATED VALVE SERVICE","6107 HOLLYFIELD DR","BATON ROUGE","LOUISIANA","70809","311999",,,"INDUSTRIAL",,"NO","PARISH","0","22476"
"POINT (-91.110639179177 30.466948011575)","32707","PAETEC POWERS ENGINEERING","1874 DALLAS DR","BATON ROUGE","LOUISIANA","70806","238990",,,"CONSTRUCTION",,"NO","BATON ROUGE","0","20864"
"POINT (-91.083666788019 30.421583466166)","40990","AUDUBON HOSPICE CARE","9181 INTERLINE AVE","BATON ROUGE","LOUISIANA","70809","621000",,,"HEALTH CARE",,"NO","BATON ROUGE","0","34989"
"POINT (-91.19201119328 30.652039817538)","187897","TURN THE PAGES","4368 ROSE GARDEN CIR","ZACHARY","LOUISIANA","70791","453000",,,"RETAIL",,"NO","ZACHARY","0","46975"
"POINT (-91.098975569058 30.412145126371)","28907","WRIGHT AND PERCY INSURANCE","4041 ESSEN LN","BATON ROUGE","LOUISIANA","70809","524000",,,"PROFESSIONAL SERVICES","INSURANCE","NO","BATON ROUGE","0","38443"
"POINT (-91.10663266411 30.419814601329)","12487","JOHN H FETZER REAL ESTATE","7543 N JEFFERSON PLACE CIR","BATON ROUGE","LOUISIANA","70809","531000",,,"PROFESSIONAL SERVICES","REAL ESTATE","NO","PARISH","0","36495"
"POINT (-91.081726016268 30.431893936446)","25366","MATTRESS FIRM INC #42007","9696 AIRLINE HWY","BATON ROUGE","LOUISIANA","70815","453000",,,"RETAIL",,"NO","BATON ROUGE","0","32521"
"POINT (-91.083544845067 30.428636601203)","43514","ROY KIESTEL KEEGAN DENICOLI ATTYS AT LAW","2355 DRUSILLA LN","BATON ROUGE","LOUISIANA","70809","541110",,,"COMMUNITY RESOURCE","LEGAL ASSISTANCE","NO","BATON ROUGE","0","11342"
"POINT (-91.07935718329 30.433853688449)","26266","VOLUNTEERS OF AMERICA EMERGENCY SHELTER CARE","1945 CAROLYN SUE DR","BATON ROUGE","LOUISIANA","70815","624110","225-928-9398","http://voa-br.org","COMMUNITY RESOURCE","VOLUNTEER ORGANIZATION","NO","BATON ROUGE","0","8669"
"POINT (-91.153786429028 30.448641310706)","30628","BRG PHYSICIANS OB GYN MID CITY","3401 NORTH BLVD","BATON ROUGE","LOUISIANA","70806","621000",,,"HEALTH CARE",,"NO","BATON ROUGE","0","32647"
"POINT (-91.004481795952 30.369424631409)","78820","WCJ CONSULTANTS LLC","16415 CREPEMYRTLE DR","BATON ROUGE","LOUISIANA","70817","541000",,,"PROFESSIONAL SERVICES",,"NO","PARISH","0","41484"
"POINT (-91.148650428285 30.446481177801)","127778","MICHAEL GERSHEY","264 RICHLAND AVE","BATON ROUGE","LOUISIANA","70806","541000",,,"PROFESSIONAL SERVICES",,"NO","BATON ROUGE","0","39017"
"POINT (-91.116460153401 30.485839852756)","175286","HARRY D PAINT AND BODY","3834 VICTORIA DR","BATON ROUGE","LOUISIANA","70812","811121",,,"AUTO","REPAIR","NO","BATON ROUGE","0","18944"
"POINT (-91.00635073115 30.399710177763)","75543","R DUANE HUFF PRODUCTIONS INC","15821 CHICKAMAUGA AVE","BATON ROUGE","LOUISIANA","70817","611000",,,"EDUCATION",,"NO","PARISH","0","49105"
"POINT (-91.122698173482 30.489644019076)","12818","INDUSTRIAL CONSTRUCTION EQUIPMENT RENTALS","6866 AIRLINE HWY","BATON ROUGE","LOUISIANA","70805","532412",,,"CONSTRUCTION",,"NO","BATON ROUGE","0","4325"
"POINT (-91.100983320277 30.370631392371)","38101","REEVES DEVELOPMENT LLC","8675 BLUEBONNET BLVD","BATON ROUGE","LOUISIANA","70810","237210",,,"CONSTRUCTION",,"NO","PARISH","0","37046"
"POINT (-91.022819578878 30.430376830847)","98819","SHERWOOD FOOT CARE CENTER","14635 S HARRELL'S FERRY RD, STE 3","BATON ROUGE","LOUISIANA","70816","621000","225-753-4994",,"HEALTH CARE","COMMUNITY HEALTH CLINIC","NO","BATON ROUGE","0","38724"
"POINT (-91.185409998504 30.519503036538)","157179","PRINTING SOURCE, THE","882 HARDING BLVD","BATON ROUGE","LOUISIANA","70807","511000",,,"MERCHANT","OFFICE SUPPLY STORE","NO","BATON ROUGE","0","6744"
"POINT (-91.06514913656 30.451568715646)","130963","LES AMIS BAKE SHOPPE","10745 RANCHWOOD DR","BATON ROUGE","LOUISIANA","70815","722000",,,"RESTAURANT",,"NO","BATON ROUGE","0","31825"
"POINT (-91.084022624872 30.431978628701)","23975","ONEMAIN FINANCIAL INC","9634 AIRLINE HWY, STE F1","BATON ROUGE","LOUISIANA","70815","521000",,,"FINANCIAL INSTITUTION",,"NO","BATON ROUGE","0","35137"
"POINT (-91.034010791733 30.406641749735)","79786","SAMAK WHOLESALE","4831 ANGLETON CT","BATON ROUGE","LOUISIANA","70817","423000",,,"DISTRIBUTOR",,"NO","PARISH","0","35411"
"POINT (-91.157628190533 30.499994666693)","115471","LIVING WATERS GOODWILL STORE","3255 HOLLYWOOD ST","BATON ROUGE","LOUISIANA","70805","453998",,,"RETAIL","CONVENIENCE STORE","NO","BATON ROUGE","0","16834"
"POINT (-91.133423111571 30.42657728981)","14114","DANIEL D HOLLIDAY III ATTORNEY AT LAW","5500 BANKERS AVE","BATON ROUGE","LOUISIANA","70808","541000",,,"PROFESSIONAL SERVICES","LEGAL ASSISTANCE","NO","BATON ROUGE","0","48258"
"POINT (-91.180975425038 30.443831396328)","12355","GUARANTY INCOME LIFE INSURANCE COMPANY","929 GOVERNMENT ST","BATON ROUGE","LOUISIANA","70802","524210",,,"PROFESSIONAL SERVICES","INSURANCE","NO","BATON ROUGE","0","29617"
"POINT (-91.007903037275 30.43812807954)","41936","SHELL","2112 O'NEAL LN","BATON ROUGE","LOUISIANA","70816","447000",,,"RETAIL","GAS STATION","YES","BATON ROUGE","0","35940"
"POINT (-91.020915424718 30.407590876623)","163324","DOLLAR TREE STORES #7085","14064 COURSEY BLVD","BATON ROUGE","LOUISIANA","70817","453000",,,"RETAIL","SNAP RETAILER","NO","PARISH","0","50370"
"POINT (-91.041617903545 30.378038575754)","73463","MIKES TREE SERVICE","8028 PECUE LN","BATON ROUGE","LOUISIANA","70809","111000",,,"AGRICULTURE",,"NO","PARISH","0","32849"
"POINT (-91.084977494407 30.372261695035)","149646","LORIO KEITH DDS FAMILY DENTISTRY","11505 PERKINS RD, STE K","BATON ROUGE","LOUISIANA","70810","621210",,,"HEALTH CARE",,"NO","PARISH","0","12796"
"POINT (-91.186901036072 30.43730698233)","50782","LOUISIANA SHERIFF'S ASSOCIATION","1175 NICHOLSON DR","BATON ROUGE","LOUISIANA","70802","813920",,,"CIVIC ORGANIZATION",,"NO","BATON ROUGE","0","4937"
"POINT (-91.139464446181 30.468022250423)","118384","TRIPLE S FOOD MART","2112 N FOSTER DR","BATON ROUGE","LOUISIANA","70806","445000",,,"RETAIL","CONVENIENCE STORE","YES","BATON ROUGE","0","38736"
"POINT (-91.048623139695 30.404878702048)","165337","MASTER FOUNDATIONS","5525 SUPERIOR DR, STE C3","BATON ROUGE","LOUISIANA","70816","238000",,,"CONSTRUCTION",,"NO","BATON ROUGE","0","41596"
"POINT (-91.025374558451 30.409128736356)","102485","SWEETIME BAKERY","13711 COURSEY BLVD","BATON ROUGE","LOUISIANA","70817","445000",,,"RESTAURANT",,"NO","PARISH","0","37515"
"POINT (-91.111628490631 30.468297704032)","198814","EVERYTHING BEAUTIFUL","1986 DALLAS DR, STE 11","BATON ROUGE","LOUISIANA","70806","448000",,,"RETAIL",,"NO","BATON ROUGE","0","49799"
"POINT (-91.127543693264 30.42332189326)","40459","IRWIN FRITCHIE URQUHART & MOORE LLC","2600 CITIPLACE DR","BATON ROUGE","LOUISIANA","70808","541000",,,"PROFESSIONAL SERVICES",,"NO","BATON ROUGE","0","29786"
"POINT (-91.055829989682 30.471472757235)","26245","COATING SYSTEMS AND SUPPLY, LLC","11479 DARRYL DR","BATON ROUGE","LOUISIANA","70815","453000",,,"RETAIL",,"NO","BATON ROUGE","0","48191"
"POINT (-91.10896500242 30.473796372432)","17632","G. M. VERNARDO & SONS","7836 RECO AVE","BATON ROUGE","LOUISIANA","70814","811198",,,"AUTO","REPAIR","NO","BATON ROUGE","0","3595"
"POINT (-91.035473083185 30.392956780614)","38818","DR. JAMES W. GILBERT, III","13431 TIGER BEND RD","BATON ROUGE","LOUISIANA","70817","621210",,,"HEALTH CARE",,"NO","PARISH","0","30728"
"POINT (-91.087580331197 30.38887693489)","39346","DUPRES PUMP","6401 BLUEBONNET BLVD","BATON ROUGE","LOUISIANA","70836","238000",,,"CONSTRUCTION",,"NO","BATON ROUGE","0","38833"
"POINT (-91.115186690216 30.468989393715)","179526","BLESSED ANGELS BEAUTY SALON","2156 WOODDALE BLVD, STE 125","BATON ROUGE","LOUISIANA","70806","812000",,,"PERSONAL SERVICES",,"NO","BATON ROUGE","0","43516"
"POINT (-91.080037408867 30.427872693144)","43504","EUREKA HOMESTEAD","9664 BROOKLINE AVE","BATON ROUGE","LOUISIANA","70809","522120",,,"FINANCIAL INSTITUTION",,"NO","BATON ROUGE","0","17505"
"POINT (-91.149111018291 30.452659919831)","178688","CRIBBS INC","523 LIVE OAK BLVD","BATON ROUGE","LOUISIANA","70806","238000",,,"CONSTRUCTION",,"NO","BATON ROUGE","0","27152"
"POINT (-91.085991236452 30.473744872175)","21559","METRO WELDING SUPPLY","9228 MAMMOTH AVE","BATON ROUGE","LOUISIANA","70814","333992",,,"CONSTRUCTION","REPAIR","NO","BATON ROUGE","0","27320"
"POINT (-91.145082695391 30.461865905024)","111335","GUS YOUNG GROCERY","4412 GUS YOUNG AVE","BATON ROUGE","LOUISIANA","70802","445120",,,"RETAIL","SNAP RETAILER","YES","BATON ROUGE","0","21599"
"POINT (-91.101168281314 30.474490018379)","20899","RUBBER HOUSE OF BATON ROUGE","8357 MADRID AVE","BATON ROUGE","LOUISIANA","70814","326220",,,"INDUSTRIAL",,"NO","BATON ROUGE","0","7184"
"POINT (-91.193113484664 30.635161016954)","7423","BARBARAS BEAUTY SALON","18950 OLD SCENIC HWY","ZACHARY","LOUISIANA","70791","812000",,,"PERSONAL SERVICES",,"NO","PARISH","0","38580"
"POINT (-91.116113845293 30.480435848242)","16242","QUICK CASH LOAN & JEWELRY INC","7334 AIRLINE HWY","BATON ROUGE","LOUISIANA","70805","453000",,,"FINANCIAL INSTITUTION","CHECK CASHING","NO","BATON ROUGE","0","34500"
"POINT (-91.187417629857 30.450563155871)","18765","ALLRIGHT AUTO PARK LOT #6006","401 N 4TH ST","BATON ROUGE","LOUISIANA","70801","812000",,,"PARKING","PAY PUBLIC PARKING","NO","BATON ROUGE","0","24166"
"POINT (-91.068311389818 30.456703356676)","32911","PAYDAY LOANS","10440 FLORIDA BLVD","BATON ROUGE","LOUISIANA","70815","522291",,,"FINANCIAL INSTITUTION","CHECK CASHING","NO","BATON ROUGE","0","28695"
"POINT (-91.056813114717 30.427067449628)","148070","SUGAR INDUSTRY EQUIPMENT","2644 S SHERWOOD FOREST BLVD","BATON ROUGE","LOUISIANA","70816","339000",,,"INDUSTRIAL",,"NO","BATON ROUGE","0","37822"
"POINT (-91.071444945206 30.471840483232)","25320","CAPCO AIR CONDITIONING & HEATING CO","10186 S CHOCTAW DR","BATON ROUGE","LOUISIANA","70815","238220",,,"CONSTRUCTION",,"NO","BATON ROUGE","0","1721"
"POINT (-91.031003453462 30.408073262765)","42078","GARRY JOHNSON & ASSOC","13360 COURSEY BLVD","BATON ROUGE","LOUISIANA","70817","541612",,,"PROFESSIONAL SERVICES",,"NO","PARISH","0","27396"
"POINT (-91.093358898032 30.479588170938)","122264","QUALITY FITNESS PERFECTED - QFP","8882 SYBLE DR","BATON ROUGE","LOUISIANA","70814","815000",,,"FITNESS",,"NO","BATON ROUGE","0","34461"
"POINT (-91.140301256172 30.476723990176)","120664","BOATNERS FAMILY HAIR CENTER","3034 N FOSTER DR","BATON ROUGE","LOUISIANA","70805","812112",,,"PERSONAL SERVICES","HAIR SALON","NO","BATON ROUGE","0","15082"
"POINT (-91.038944299045 30.555422606965)","185814","PAPA JOHNS PIZZA","13585 HOOPER RD","CENTRAL","LOUISIANA","70818","722000",,,"RESTAURANT",,"NO","CENTRAL","0","33657"
"POINT (-91.174557421794 30.445263826195)","33931","DYKE NELSON ARCHITECTURE","235 S 14TH ST","BATON ROUGE","LOUISIANA","70802","541310",,,"PROFESSIONAL SERVICES",,"NO","BATON ROUGE","0","23000"
"POINT (-91.176936437865 30.451662386873)","32308","WAREHOUSE FOR COASTAL ENVIRONMENTS, INC.","1252 MAIN ST","BATON ROUGE","LOUISIANA","70802","236220",,,"CONSTRUCTION",,"NO","BATON ROUGE","0","8730"
"POINT (-90.969844151591 30.366647300039)","42263","QUALITY ELECTRIC","9050 S TIGER BEND RD","BATON ROUGE","LOUISIANA","70817","238210",,,"CONSTRUCTION",,"NO","PARISH","0","6839"
"POINT (-91.124564182821 30.406690793438)","27152","MICHAEL SIMON","6161 PERKINS RD","BATON ROUGE","LOUISIANA","70808","541000",,,"PROFESSIONAL SERVICES",,"NO","BATON ROUGE","0","37882"
"POINT (-91.100950488133 30.422108959035)","152269","OVERLAND SOLUTIONS","7906 WRENWOOD BLVD","BATON ROUGE","LOUISIANA","70809","524210",,,"PROFESSIONAL SERVICES","INSURANCE","NO","BATON ROUGE","0","32955"
"POINT (-91.083409548819 30.428053959211)","43512","COURT REPORTERS OF LOUISIANA LLC","9418 BROOKLINE AVE","BATON ROUGE","LOUISIANA","70809","561492",,,"PROFESSIONAL SERVICES",,"NO","BATON ROUGE","0","22190"
"POINT (-91.083643641924 30.466547384201)","136301","PAYNES TRUCKING","1787 N REDONDO DR","BATON ROUGE","LOUISIANA","70815","484000",,,"SHIPPING",,"NO","BATON ROUGE","0","39199"
"POINT (-91.135125818735 30.446204553375)","174062","SUN HAIR CROWN #3","5355 GOVERNMENT ST, STE C","BATON ROUGE","LOUISIANA","70806","448150",,,"RETAIL",,"NO","BATON ROUGE","0","20603"
"POINT (-91.049853633989 30.392665442166)","42349","AREA TIRE SERVICE","11860 AIRLINE HWY","BATON ROUGE","LOUISIANA","70816","236210",,,"CONSTRUCTION",,"NO","PARISH","0","19327"
"POINT (-91.122913944194 30.445226839515)","26573","MARSHA'S HAIR NAIL & ACCESSORI","6555 GOVERNMENT ST","BATON ROUGE","LOUISIANA","70806","812000",,,"PERSONAL SERVICES","NAIL SALON","NO","BATON ROUGE","0","32446"
"POINT (-91.128550572927 30.478382366925)","140735","LIVING FAITH ACADEMY OF EXCELLENCE","6180 WINBOURNE AVE","BATON ROUGE","LOUISIANA","70805","621000",,,"HEALTH CARE",,"NO","BATON ROUGE","0","45680"
"POINT (-91.162945530054 30.470406899389)","21875","CVS PHARMACY #5615","2520 PLANK RD","BATON ROUGE","LOUISIANA","70805","446110","225-357-1484","http://cvs.com/","RETAIL","SNAP RETAILER","YES","BATON ROUGE","0","27279"
"POINT (-91.161208220137 30.448378324338)","25531","FMC DIALYSIS CENTER","2661 NORTH BLVD","BATON ROUGE","LOUISIANA","70806","621492","225-357-9055",,"HEALTH CARE","COMMUNITY HEALTH CLINIC","NO","BATON ROUGE","0","24793"
"POINT (-91.065016716173 30.408945131078)","155283","ST JOSEPH HOSPICE","10615 JEFFERSON HWY","BATON ROUGE","LOUISIANA","70809","623110",,,"HEALTH CARE",,"NO","PARISH","0","60178"
"POINT (-91.025372540769 30.338991074872)","35420","BROWN INDUSTRIIES","727 HIGHLANDIA DR","BATON ROUGE","LOUISIANA","70810","541000",,,"PROFESSIONAL SERVICES",,"NO","PARISH","0","37727"
"POINT (-91.018931932711 30.464599934119)","22016","RELIABLE PLUMBING INC","15016 FLORIDA BLVD","BATON ROUGE","LOUISIANA","70819","238000",,,"CONSTRUCTION",,"NO","PARISH","0","34835"
"POINT (-91.051718207201 30.430132572538)","160693","SKIN DEEP ESTHETICS","11748 S HARRELL'S FERRY RD, STE A","BATON ROUGE","LOUISIANA","70816","812000",,,"PERSONAL SERVICES",,"NO","BATON ROUGE","0","46745"
"POINT (-91.162919314905 30.426701394998)","101924","LEE NEWMAN","2368 DOGWOOD AVE","BATON ROUGE","LOUISIANA","70808","238000",,,"CONSTRUCTION",,"NO","BATON ROUGE","0","31768"
"POINT (-91.173772848413 30.565928695594)","11027","AKT ENVIRONMENTAL SERVICES INC","1980 RAFE MAYER RD","BATON ROUGE","LOUISIANA","70807","237000",,,"CONSTRUCTION",,"NO","PARISH","0","61954"
"POINT (-91.063638650583 30.493403335865)","21799","LIL' RUGRATS DAYCARE CENTER INC.","10808 GREENWELL SPRINGS RD","BATON ROUGE","LOUISIANA","70814","624410",,,"COMMUNITY RESOURCE","CHILD DAY CARE","NO","BATON ROUGE","0","35089"
"POINT (-91.155336086438 30.651999464434)","189459","SWAMP ASSASSIN LLC","4537 COBB ST","ZACHARY","LOUISIANA","70791","454000",,,"RETAIL",,"NO","ZACHARY","0","40601"
"POINT (-91.128336200733 30.573681021381)","157057","BAKER FOOTCARE","13888 PLANK RD","BAKER","LOUISIANA","70714","621000",,,"HEALTH CARE",,"NO","BAKER","0","40709"
"POINT (-91.015180089969 30.404523307259)","173204","IN THE DOGHOUSE PET GROOMING","5441 JONES CREEK RD","BATON ROUGE","LOUISIANA","70817","812000",,,"PERSONAL SERVICES",,"NO","PARISH","0","62794"
"POINT (-91.174998246893 30.44715060297)","119361","STAMPLEY'S AUTO REPAIR","120 S 14TH ST","BATON ROUGE","LOUISIANA","70802","811121",,,"AUTO","REPAIR","NO","BATON ROUGE","0","7875"
"POINT (-91.071446797822 30.427220912132)","20826","ASI LLC","10415 PLAZA AMERICANA DR","BATON ROUGE","LOUISIANA","70816","541512",,,"PROFESSIONAL SERVICES",,"NO","BATON ROUGE","0","606"
"POINT (-91.097058192702 30.446415888437)","34470","WHITLEY JOHN B","541 SHADOWS LN","BATON ROUGE","LOUISIANA","70806","621210",,,"HEALTH CARE",,"NO","BATON ROUGE","0","33803"
"POINT (-91.113058416176 30.463599503809)","26968","ENGRAVED DESIGNS","1713 WOODDALE BLVD","BATON ROUGE","LOUISIANA","70806","453000",,,"RETAIL",,"NO","BATON ROUGE","0","37802"
"POINT (-91.137912038928 30.491271731029)","117006","NIQCAS CREATIVE DESIGNS","4482 ELM DR","BATON ROUGE","LOUISIANA","70805","453000",,,"RETAIL",,"NO","BATON ROUGE","0","33331"
"POINT (-91.134789792779 30.555412211643)","14913","DRUSILLA CLEANERS","12031 PLANK RD","BATON ROUGE","LOUISIANA","70811","812000",,,"PERSONAL SERVICES",,"NO","PARISH","0","11292"
"POINT (-91.159769006839 30.424848978499)","28603","LA BELLA BARCELONA SALON & BOUTIQUE","2265 CHRISTIAN ST","BATON ROUGE","LOUISIANA","70808","812112",,,"PERSONAL SERVICES","HAIR SALON","NO","BATON ROUGE","0","23047"
"POINT (-91.108639889106 30.404220482625)","148198","FASHION OPTIQUE","7777 HENNESSY BLVD","BATON ROUGE","LOUISIANA","70808","453000",,,"RETAIL",,"NO","BATON ROUGE","0","37256"
"POINT (-91.18748999365 30.451948432494)","18110","HUE MEDIA COMPANY","301 MAIN ST","BATON ROUGE","LOUISIANA","70802","541000",,,"PROFESSIONAL SERVICES",,"NO","BATON ROUGE","0","38712"
"POINT (-91.129698279898 30.450647544245)","43874","GULF COAST SOCIAL SERVICES","5850 FLORIDA BLVD","BATON ROUGE","LOUISIANA","70806","623210","225-201-0696","http://gctfs.org","COMMUNITY RESOURCE","YOUTH SERVICES","NO","BATON ROUGE","0","16116"
"POINT (-91.04405694341 30.384183530381)","56678","PEDIATRIC SERVICES OF AMERICA","12241 INDUSTRIPLEX BLVD, STE A-D","BATON ROUGE","LOUISIANA","70809","621610",,,"HEALTH CARE",,"NO","PARISH","0","29241"
"POINT (-91.100923849354 30.369313380776)","83184","FUSSELL CUSTOM HOMES BY JIM","10723 N OAK HILLS PKWY, BLDG A","BATON ROUGE","LOUISIANA","70810","236115",,,"CONSTRUCTION",,"NO","PARISH","0","30715"
"POINT (-91.059893148265 30.386592702293)","149651","HOME GOODS #658","6835 SIEGEN LN","BATON ROUGE","LOUISIANA","70809","442000",,,"RETAIL","FURNITURE STORE","NO","PARISH","0","62571"
"POINT (-91.183338770636 30.451689971252)","17342","KEOGH, COX, WILSON","701 MAIN ST","BATON ROUGE","LOUISIANA","70802","541110",,,"COMMUNITY RESOURCE","LEGAL ASSISTANCE","NO","BATON ROUGE","0","31251"
"POINT (-91.048974430404 30.382383522012)","52322","ARCHITECTURAL GLASS & METAL INC.","6640 EXCHEQUER DR","BATON ROUGE","LOUISIANA","70809","332323",,,"INDUSTRIAL",,"NO","PARISH","0","560"
"POINT (-91.071914776221 30.477843143414)","20234","PHCC BR MASTER PLUMBER ASSOCIATION","10359 MAMMOTH AVE","BATON ROUGE","LOUISIANA","70814","238220",,,"CONSTRUCTION",,"NO","BATON ROUGE","0","16157"
"POINT (-91.008530815179 30.431500451142)","97813","BATON ROUGE RADIOLOGY GROUP","2550 O'NEAL LN","BATON ROUGE","LOUISIANA","70816","621512","225-769-9337","http://brrg.com/","HEALTH CARE","COMMUNITY HEALTH CLINIC","NO","BATON ROUGE","0","48044"
"POINT (-91.072272640418 30.393205764611)","74380","H FOUR GROUP LLC","10330 E GRONER AVE","BATON ROUGE","LOUISIANA","70809","531000",,,"PROFESSIONAL SERVICES","REAL ESTATE","NO","PARISH","0","29802"
"POINT (-91.139066544191 30.586077842567)","2413","ALL ABOUT STORAGE","5553 GROOM RD","BAKER","LOUISIANA","70714",,,,"WAREHOUSING",,"NO","BAKER","0","40431"
"POINT (-91.114374002801 30.433504719532)","172828","BATH JUNKIE","7150 JEFFERSON HWY","BATON ROUGE","LOUISIANA","70806","453220",,,"RETAIL",,"NO","BATON ROUGE","0","37844"
"POINT (-91.065068389069 30.386721956696)","54357","STAGE # 354","6900 SIEGEN LN","BATON ROUGE","LOUISIANA","70809","453000",,,"RETAIL",,"NO","PARISH","0","36246"
"POINT (-91.192556832754 30.649249904611)","197040","SHERWIN-WILLIAMS #7680","20012 OLD SCENIC HWY","ZACHARY","LOUISIANA","70791","453000",,,"RETAIL",,"NO","ZACHARY","0","47021"
"POINT (-91.096404842853 30.367764099185)","180444","LEOPARD DIGITAL LLC","11027 N OAK HILLS PKWY","BATON ROUGE","LOUISIANA","70810","541000",,,"PROFESSIONAL SERVICES",,"NO","PARISH","0","47677"
"POINT (-91.002256380552 30.459709670471)","195305","JOYA ENTERPRISES LLC","16352 OLD HAMMOND HWY","BATON ROUGE","LOUISIANA","70816","238000",,,"CONSTRUCTION",,"NO","PARISH","0","30200"
"POINT (-91.111402484919 30.432940685943)","148052","BODY FACTORY LLC","7450 JEFFERSON HWY","BATON ROUGE","LOUISIANA","70806","713940",,,"RECREATION",,"NO","BATON ROUGE","0","35386"
"POINT (-91.048137436028 30.424310495996)","42184","THE LIFE OF A SINGLE MOM","12015 JUSTICE AVE","BATON ROUGE","LOUISIANA","70816","815000","225-341-8055","http://thelifeofasinglemom.com","COMMUNITY RESOURCE","DIAPER BANKS","NO","BATON ROUGE","0","32386"
"POINT (-91.185475718849 30.442126880903)","154494","SHANDA J MCCLAIN","658 SAINT CHARLES ST","BATON ROUGE","LOUISIANA","70802","541000",,,"PROFESSIONAL SERVICES",,"NO","BATON ROUGE","0","35658"
"POINT (-91.106241341504 30.366945090805)","162197","D B SYSGRAPH","10532 S GLENSTONE PL, STE D","BATON ROUGE","LOUISIANA","70810","541000",,,"PROFESSIONAL SERVICES",,"NO","PARISH","0","42013"
"POINT (-91.022806967463 30.365767462389)","26728","AMERICA'S HOME PLACE INC.","14241 AIRLINE HWY","BATON ROUGE","LOUISIANA","70817","236115",,,"CONSTRUCTION",,"NO","PARISH","0","37033"
"POINT (-91.070007015164 30.420854315132)","60643","COURTNEY'S RV PARK","10240 JANICE ST","BATON ROUGE","LOUISIANA","70816","531190",,,"MOBILE HOME PARK",,,"BATON ROUGE","0","66238"
"POINT (-91.105447423999 30.397465068677)","76482","NATIONAL CAPITAL CORP.","7941 PICARDY AVE","BATON ROUGE","LOUISIANA","70809","523930",,,"PROFESSIONAL SERVICES","FINANCIAL ASSISTANCE","NO","PARISH","0","26091"
"POINT (-91.034042440768 30.422279747583)","29951","EPISCOPAL HIGH SCHOOL","3200 WOODLAND RIDGE BLVD","BATON ROUGE","LOUISIANA","70816","611110","225-753-9782","http://ehsbr.org/","FOOD ACCESS","SUMMER YOUTH MEALS","NO","BATON ROUGE","0","29210"
"POINT (-91.180916160582 30.651385010165)","190593","ROUSES MARKET #60","2300 CHURCH ST","ZACHARY","LOUISIANA","70791","445000",,,"RESTAURANT",,"YES","ZACHARY","0","47478"
"POINT (-91.168258212792 30.389963371382)","46427","AT&T","960 W LEE DR","BATON ROUGE","LOUISIANA","70820","517110",,,"COMMUNICATIONS",,"NO","BATON ROUGE","0","14717"
"POINT (-91.133014279227 30.404834922381)","46291","JANE EVANS DESIGNS","5721 HYACINTH AVE","BATON ROUGE","LOUISIANA","70808","453000",,,"RETAIL",,"NO","BATON ROUGE","0","30742"
"POINT (-91.152005030716 30.502017199913)","15411","PLANK ROAD MARKET","5686 PLANK RD","BATON ROUGE","LOUISIANA","70805","445110","225-355-0220",,"RETAIL","CONVENIENCE STORE","YES","BATON ROUGE","0","34060"
"POINT (-91.023546747786 30.368958049502)","174944","HMT INSPECTION","14141 AIRLINE HWY, STE 4F","BATON ROUGE","LOUISIANA","70817","541330",,,"PROFESSIONAL SERVICES",,"NO","PARISH","0","18584"
"POINT (-91.083008404842 30.47352779303)","132875","SOUTHERN FASTENER & TOOL CO IN","9440 MAMMOTH AVE","BATON ROUGE","LOUISIANA","70814","444000",,,"RETAIL","HOME IMPROVEMENT STORE","NO","BATON ROUGE","0","36062"
"POINT (-91.098099631446 30.380393901455)","5712","PAPACITOS CAF","7750 BLUEBONNET BLVD","BATON ROUGE","LOUISIANA","70810","722110",,,"RESTAURANT",,"NO","PARISH","0","32754"
"POINT (-91.139202538768 30.417372688533)","40502","COLLEGE DRIVE MINI-STORAGE","4661 CONCORD AVE","BATON ROUGE","LOUISIANA","70808","531130",,,"SELF-STORAGE",,"NO","BATON ROUGE","0","11968"
"POINT (-91.150175740971 30.420916041134)","161013","CUPCAKE ALLIE LLC","3753 PERKINS RD, STE A","BATON ROUGE","LOUISIANA","70808","445000",,,"RESTAURANT",,"NO","BATON ROUGE","0","20933"
"POINT (-91.11093046387 30.466621487733)","25861","KOMET AMPLIFICATION","1865 DALLAS DR","BATON ROUGE","LOUISIANA","70806","339000",,,"INDUSTRIAL",,"NO","BATON ROUGE","0","35027"
"POINT (-91.139605746115 30.4536196676)","32363","Q MART","585 N FOSTER DR","BATON ROUGE","LOUISIANA","70806","453000",,,"RETAIL","HEALTHY CORNER STORE","YES","BATON ROUGE","0","38480"
"POINT (-91.108763622428 30.429123012178)","147150","BEEHIVE SALON LLC THE","7656 JEFFERSON HWY","BATON ROUGE","LOUISIANA","70809","812000",,,"PERSONAL SERVICES",,"NO","BATON ROUGE","0","39326"
"POINT (-91.028796802407 30.407935687955)","38539","21ST SERVICE CORP. OFFICES","13480 COURSEY BLVD","BATON ROUGE","LOUISIANA","70817","524291",,,"PROFESSIONAL SERVICES","INSURANCE","NO","PARISH","0","7952"
"POINT (-91.083029722627 30.428597926255)","152772","MUSCARELLO PHIL","9487 BROOKLINE AVE","BATON ROUGE","LOUISIANA","70809","524210",,,"PROFESSIONAL SERVICES","INSURANCE","NO","BATON ROUGE","0","22423"
"POINT (-91.095400771557 30.416332518551)","28725","LAW OFFICES OF KEVIN CAIRE CPA","8658 QUARTERS LAKE RD","BATON ROUGE","LOUISIANA","70809","541110",,,"COMMUNITY RESOURCE","LEGAL ASSISTANCE","NO","PARISH","0","43399"
"POINT (-91.032708262689 30.343605347357)","151441","CAPDECON SCHOOL OF BALLET","17650 HIGHLAND RD, STE A","BATON ROUGE","LOUISIANA","70810","711120",,,"RECREATION",,"NO","PARISH","0","19329"
"POINT (-91.145982737113 30.44867976618)","27802","DUPONT  IRBY  DR","4217 NORTH BLVD","BATON ROUGE","LOUISIANA","70806","621320",,,"HEALTH CARE",,"NO","BATON ROUGE","0","2972"
"POINT (-91.178227536042 30.422302371201)","14207","UNIVERSITY TEXACO","2801 HIGHLAND RD","BATON ROUGE","LOUISIANA","70802","447110",,,"RETAIL","GAS STATION","NO","BATON ROUGE","0","37785"
"POINT (-90.96241482141 30.354226107713)","35642","PRIVATE SANITARY SEWER TREATMENT PLANT","10460 MONTRACHET DR","BATON ROUGE","LOUISIANA","70817","221000",,,"UTILITY",,"NO","PARISH","0","6751"
"POINT (-91.159262326495 30.42618073893)","108114","KALURAH STREET GRILL","2857 PERKINS RD","BATON ROUGE","LOUISIANA","70808","722000",,,"RESTAURANT",,"YES","BATON ROUGE","0","47591"
"POINT (-91.125610640149 30.424069905797)","40460","IZZO'S ILLEGAL BURRITO","6220 CORPORATE BLVD","BATON ROUGE","LOUISIANA","70809","722110",,,"RESTAURANT",,"YES","BATON ROUGE","0","30550"
"POINT (-91.049347919851 30.404621180184)","67185","THE CHESNEY CENTER","5536 SUPERIOR DR, STE B","BATON ROUGE","LOUISIANA","70816","621000",,,"HEALTH CARE",,"NO","BATON ROUGE","0","36914"
"POINT (-91.051752237468 30.426628101413)","162871","SCHIFF SCHECKMAN & WHITE LLP","11715 BRICKSOME AVE, STE A3","BATON ROUGE","LOUISIANA","70816","541000",,,"PROFESSIONAL SERVICES",,"NO","BATON ROUGE","0","35492"
"POINT (-91.107492626317 30.455428028891)","121362","BRADYS MEDICAL TRANSPORATION","675 WOODDALE BLVD","BATON ROUGE","LOUISIANA","70806","485000",,,"SHIPPING",,"NO","BATON ROUGE","0","39900"
"POINT (-91.015097614789 30.405279569367)","173201","HI NABOR SUPERMARKET INC","5383 JONES CREEK RD","BATON ROUGE","LOUISIANA","70817","445110","225-927-5450","http://hinabor.com/","RETAIL","GROCERY","YES","PARISH","0","23401"
"POINT (-91.178939778458 30.451523763864)","173996","RLF LEGAL LLC","1040 MAIN ST","BATON ROUGE","LOUISIANA","70802","541000",,,"PROFESSIONAL SERVICES",,"NO","BATON ROUGE","0","49165"
"POINT (-91.061002250261 30.387421765082)","146653","WHICH WICH SUPERIOR SANDWICHES","6725 SIEGEN LN","BATON ROUGE","LOUISIANA","70809","722000",,,"RESTAURANT",,"NO","PARISH","0","38403"
"POINT (-91.170421225107 30.401600861481)","86453","BROUSSARD HOUSE","4512 HIGHLAND RD","BATON ROUGE","LOUISIANA","70808","712120",,,"ATTRACTION",,"NO","BATON ROUGE","0","1528"
"POINT (-91.141022297549 30.509149329572)","20484","PETE'S FARMER'S MARKET/PETE'S SNOWBALL STAND","4919 AIRLINE HWY","BATON ROUGE","LOUISIANA","70811","445230",,,"FOOD ACCESS","GROCERY","NO","BATON ROUGE","0","41952"
"POINT (-91.085488211738 30.398474591143)","27339","ALBASHA GREEK LEBANESE RESTAURANT","5454 BLUEBONNET BLVD, STE A","BATON ROUGE","LOUISIANA","70809","722000",,,"RESTAURANT",,"YES","PARISH","0","30240"
"POINT (-91.130219389309 30.444160878362)","23957","SALON AT SEVEN OAKS","573 JEFFERSON HWY","BATON ROUGE","LOUISIANA","70806","812112",,,"PERSONAL SERVICES","HAIR SALON","NO","BATON ROUGE","0","37574"
"POINT (-91.228681263384 30.642969444541)","181201","JAZZY GIRL BOUTIQUE","19595 BARNETT CUT-OFF RD","ZACHARY","LOUISIANA","70791","448000",,,"RETAIL",,"NO","PARISH","0","30795"
"POINT (-91.154660955749 30.494179331723)","18333","MONROES FLORAL DESIGNS","4886 PLANK RD","BATON ROUGE","LOUISIANA","70805","444000",,,"RETAIL","HOME IMPROVEMENT STORE","NO","BATON ROUGE","0","32983"
"POINT (-91.159694992837 30.393301104867)","42547","CVS PHARMACY INC #8309","5360 HIGHLAND RD","BATON ROUGE","LOUISIANA","70808","446000",,,"RETAIL","SNAP RETAILER","YES","BATON ROUGE","0","2569"
"POINT (-91.133586783942 30.55647127772)","9071","SUBWAY SANDWICHES #15526","12044 PLANK RD","BATON ROUGE","LOUISIANA","70811","722000",,,"RESTAURANT",,"NO","PARISH","0","36478"
"POINT (-91.096523665342 30.471163485715)","33016","REDSTICK SALES","8652 S CHOCTAW DR","BATON ROUGE","LOUISIANA","70815","454000",,,"RETAIL",,"NO","BATON ROUGE","0","34784"
"POINT (-91.127290761041 30.580956226056)","187836","WALGREENS #13875","6485 GROOM RD","BATON ROUGE","LOUISIANA","70814","446110",,"http://walgreens.com/","RETAIL","PHARMACY","YES","BAKER","0","41483"
"POINT (-91.086058244297 30.438218461274)","174382","GENERAL AUTOMOBILE INSURANCE, THE","9450 AIRLINE HWY, STE B","BATON ROUGE","LOUISIANA","70815","524210",,,"PROFESSIONAL SERVICES","INSURANCE","NO","BATON ROUGE","0","10709"
"POINT (-91.033706918593 30.393452922173)","181130","BMR INVESTMENTS","6415 QUIN DR","BATON ROUGE","LOUISIANA","70817","541330",,,"PROFESSIONAL SERVICES",,"NO","PARISH","0","23095"
"POINT (-91.163153168567 30.442877462591)","114509","JARED YOUNG SANDERS JR. HOUSE","2332 WISTERIA ST","BATON ROUGE","LOUISIANA","70806","712120",,,"ATTRACTION",,"NO","BATON ROUGE","0","4520"
"POINT (-91.102466802033 30.421380328748)","40706","POWERS, SELLERS& CHAPOTON LLP","7967 OFFICE PARK BLVD","BATON ROUGE","LOUISIANA","70809","541000",,,"PROFESSIONAL SERVICES",,"NO","BATON ROUGE","0","34179"
"POINT (-91.075714067495 30.489636606251)","156652","CUSTOM WOOD PRODUCTS","9845 GREENWELL SPRINGS RD","BATON ROUGE","LOUISIANA","70814","339000",,,"INDUSTRIAL",,"NO","PARISH","0","27256"
"POINT (-91.045953471348 30.423959603102)","155114","PRIMARY RESIDENTIAL MORTGAGE","13010 JUSTICE AVE","BATON ROUGE","LOUISIANA","70816","531210",,,"PROFESSIONAL SERVICES","REAL ESTATE","NO","BATON ROUGE","0","11091"
"POINT (-91.112542216102 30.434767499798)","2246","LORD WELLINGTON FINANCIAL INC","7341 JEFFERSON HWY, STE M","BATON ROUGE","LOUISIANA","70806","815000",,,"FINANCIAL INSTITUTION",,"NO","BATON ROUGE","0","35398"
"POINT (-91.184414256346 30.44589017434)","12365","MAYEUX LAW FIRM","600 AMERICA ST","BATON ROUGE","LOUISIANA","70802","541000",,,"PROFESSIONAL SERVICES","LEGAL ASSISTANCE","NO","BATON ROUGE","0","32539"
"POINT (-91.100399726248 30.468292345382)","28496","MBD AUTOMATION LLC","8305 TOM DR","BATON ROUGE","LOUISIANA","70815","238000",,,"CONSTRUCTION",,"NO","BATON ROUGE","0","32612"
"POINT (-91.089621627235 30.406391346699)","53202","KG AUTO TECH LLC","4549 BLECKER DR","BATON ROUGE","LOUISIANA","70809","815000",,,"AUTO","REPAIR","NO","PARISH","0","31272"
"POINT (-91.104702717632 30.394288104312)","61011","HOMEWOOD SENIOR CENTER","3653 GRANADA DR","BATON ROUGE","LOUISIANA","70810","713940",,,"RECREATION",,"NO","BATON ROUGE","0","18732"
"POINT (-91.142257068897 30.650443225724)","194076","SUBWAY 37730","5801 MAIN ST","ZACHARY","LOUISIANA","70791","722000",,,"RESTAURANT",,"NO","ZACHARY","0","46964"
"POINT (-91.190242957105 30.451194848684)","15061","HILTON BATON ROUGE CAPITOL CENTER","100 MAIN ST","BATON ROUGE","LOUISIANA","70801","722000",,,"HOTEL/MOTEL",,"YES","BATON ROUGE","0","30041"
"POINT (-91.050648485514 30.425575149238)","46950","FIRST FAMILY MORTGAGE","2924 BRAKLEY DR, STE A-B","BATON ROUGE","LOUISIANA","70816","532310",,,"FINANCIAL INSTITUTION","MORTGAGE LENDER","NO","BATON ROUGE","0","32793"
"POINT (-91.016190893628 30.455744790533)","5641","BEAUTY & BEYOND HAIR SALON","15254 OLD HAMMOND HWY, STE C4","BATON ROUGE","LOUISIANA","70816","812112",,,"PERSONAL SERVICES","HAIR SALON","NO","PARISH","0","50646"
"POINT (-91.081564104027 30.352869627485)","153229","PAIGE S JENKINS LCSW LLC","10431 SIEGEN LN","BATON ROUGE","LOUISIANA","70810","541000",,,"PROFESSIONAL SERVICES",,"NO","PARISH","0","36584"
"POINT (-91.055587972794 30.460108048196)","22717","PAYDAY TODAY LLC","11457 FLORIDA BLVD","BATON ROUGE","LOUISIANA","70815","521000",,,"FINANCIAL INSTITUTION","CHECK CASHING","NO","BATON ROUGE","0","33773"
"POINT (-91.005935046404 30.445515471327)","42560","FLOOR SURPLUS","1683 O'NEAL LN","BATON ROUGE","LOUISIANA","70816","453000",,,"RETAIL",,"NO","PARISH","0","30055"
"POINT (-91.094911155601 30.481920512897)","35201","SUPERIOR SPORT WEAR","8770 GREENWELL SPRINGS RD","BATON ROUGE","LOUISIANA","70814","448000",,,"RETAIL",,"NO","BATON ROUGE","0","36865"
"POINT (-91.050621736262 30.42537267551)","166040","NATASHIA CARTER BENOIT ATTORNEY AT LAW","2924 BRAKLEY DR, STE A1","BATON ROUGE","LOUISIANA","70816",,,,"PROFESSIONAL SERVICES","LEGAL ASSISTANCE",,"BATON ROUGE","0","41497"
"POINT (-91.14624601262 30.450214756588)","147491","COOPER CREDIT CORP","4220 FLORIDA BLVD","BATON ROUGE","LOUISIANA","70806","521000",,,"FINANCIAL INSTITUTION",,"NO","BATON ROUGE","0","26966"
"POINT (-91.108795402853 30.441574539502)","27551","CAPITAL HEIGHTS VETERINARY CLINIC","7662 GOODWOOD BLVD","BATON ROUGE","LOUISIANA","70806","541940",,,"PETS","VETERINARY","NO","BATON ROUGE","0","12885"
"POINT (-91.112054930554 30.536054941432)","106827","AARON CORMIER PHOTOGRAPHER","7753 GOVERNOR DERBIGNY DR","BATON ROUGE","LOUISIANA","70811","541921",,,"PROFESSIONAL SERVICES",,"NO","PARISH","0","23687"
"POINT (-91.147619078585 30.466765619294)","126916","MUSCLE GANG","2026 RICE DR","BATON ROUGE","LOUISIANA","70802","451000",,,"RETAIL",,"NO","BATON ROUGE","0","40968"
"POINT (-91.167981162555 30.577383750897)","198290","BAKER SHIP-N-STORE","254 MAIN ST","BAKER","LOUISIANA","70714","448000",,,"RETAIL",,"NO","BAKER","0","40424"
"POINT (-91.179781217973 30.435411916301)","175866","YOUTH BUILD CAPITAL CITY","1374 THOMAS H DELPIT DR","BATON ROUGE","LOUISIANA","70802","813000","225-379-3807","http://ebrpha.org/youthbuild-capital-city-who-and-what-we-are","COMMUNITY RESOURCE","YOUTH SERVICES","NO","BATON ROUGE","0","41934"
"POINT (-91.052945508999 30.385639940672)","35722","HVAC SYSTEMS","11616 INDUSTRIPLEX BLVD, STE 1","BATON ROUGE","LOUISIANA","70809","333414",,,"INDUSTRIAL",,"NO","PARISH","0","39898"
"POINT (-91.002021001366 30.665007262253)","174279","SOUTHEAST MATERIAL HANDLING LLC","14411 MILLDALE RD","ZACHARY","LOUISIANA","70791","454000",,,"RETAIL",,"NO","PARISH","0","38667"
"POINT (-91.014454336102 30.390804382358)","49535","CHANGES UNLIMITED SALON","15224 TIGER BEND RD","BATON ROUGE","LOUISIANA","70817","812112",,,"PERSONAL SERVICES","HAIR SALON","NO","PARISH","0","34793"
"POINT (-91.110079425248 30.468263878868)","28578","BIG RIVER GLASS INC","1948 BEAUMONT DR","BATON ROUGE","LOUISIANA","70806","811122",,,"AUTO","REPAIR","NO","BATON ROUGE","0","1200"
"POINT (-91.11609748704 30.452114240766)","31895","DOLLAR TREE # 4872","7119 FLORIDA BLVD","BATON ROUGE","LOUISIANA","70806","453000","225-928-8618","http://dollartree.com","RETAIL","SNAP RETAILER","NO","BATON ROUGE","0","27862"
"POINT (-91.045357662607 30.440822403911)","25605","ACC U BUILDERS","12097 OLD HAMMOND HWY","BATON ROUGE","LOUISIANA","70815","236115",,,"CONSTRUCTION",,"NO","BATON ROUGE","0","39367"
"POINT (-91.015394086743 30.533667615666)","167625","KNUCKLEHEAD PET ACCESSORIES LLC","9445 TRENDALE DR","GREENWELL SPRINGS","LOUISIANA","70739","453000",,,"RETAIL",,"NO","CENTRAL","0","48731"
"POINT (-91.040198246196 30.377237197977)","165308","SMW","7987 PECUE LN, STE C3","BATON ROUGE","LOUISIANA","70809","423000",,,"DISTRIBUTOR",,"NO","PARISH","0","40850"
"POINT (-91.148445459251 30.452173021752)","148501","CREATIVE CRAFTS INC","455 ROSELAWN AVE","BATON ROUGE","LOUISIANA","70806","453000",,,"RETAIL",,"NO","BATON ROUGE","0","27117"
"POINT (-91.151234699276 30.421388182653)","41313","MCS DESIGNS INC","3655 PERKINS RD","BATON ROUGE","LOUISIANA","70808","453000",,,"RETAIL",,"NO","BATON ROUGE","0","38856"
"POINT (-91.100640881601 30.415002548618)","63364","START HEALTHY","8296 RAINBOW DR","BATON ROUGE","LOUISIANA","70809","454000",,,"RETAIL",,"NO","PARISH","0","49316"
"POINT (-91.038686038126 30.406230466976)","71764","PROFESSIONAL LAWNSCAPES  OF BR","4929 WOODLYN DR","BATON ROUGE","LOUISIANA","70816","815000",,,"PROFESSIONAL SERVICES","LANDSCAPE","NO","BATON ROUGE","0","37509"
"POINT (-91.161606557917 30.444321641576)","31720","SPI MINI MART","2515 GOVERNMENT ST","BATON ROUGE","LOUISIANA","70806",,,,"RETAIL","SNAP RETAILER",,"BATON ROUGE","0","36167"
"POINT (-91.098631579783 30.380149279205)","160324","BICHONNE NAILS & SPA","9655 PERKINS RD, STE G","BATON ROUGE","LOUISIANA","70810","918581",,,"PERSONAL SERVICES","NAIL SALON","NO","PARISH","0","45922"
"POINT (-91.110533702202 30.40021148424)","41775","FARMER LEO MD","5414 BRITTANY DR","BATON ROUGE","LOUISIANA","70808","621111",,,"HEALTH CARE",,"NO","BATON ROUGE","0","12120"
"POINT (-91.11189312185 30.466202033051)","29566","TMC CONTRACTORS","1856 WOODDALE CT","BATON ROUGE","LOUISIANA","70806","541330",,,"PROFESSIONAL SERVICES",,"NO","BATON ROUGE","0","37412"
"POINT (-91.055424170665 30.418056078325)","153832","ACCIDENT FUND HOLDINGS INC","11404 LAKE SHERWOOD AVE N","BATON ROUGE","LOUISIANA","70816","524210",,,"PROFESSIONAL SERVICES","INSURANCE","NO","PARISH","0","47692"
"POINT (-91.056363030237 30.392324309353)","42778","KLINGER ADVANTAGE INC","11224 PENNYWOOD AVE","BATON ROUGE","LOUISIANA","70809","453000",,,"RETAIL",,"NO","PARISH","0","39970"
"POINT (-91.010681290761 30.348582356872)","76766","KREWE OF ARTEMIS INC","19204 BELLERIVE CT","BATON ROUGE","LOUISIANA","70809","454000",,,"RETAIL",,"NO","PARISH","0","31397"
"POINT (-91.135233995803 30.443308504293)","128227","LONGCO SPECIALTIES","653 ACADIA ST","BATON ROUGE","LOUISIANA","70806","236000",,,"CONSTRUCTION",,"NO","BATON ROUGE","0","23208"
"POINT (-91.107758578929 30.43135047954)","43594","E V PATTERSON DDS-PERIODONTICS","7707 OLD HAMMOND HWY","BATON ROUGE","LOUISIANA","70806","621210",,,"HEALTH CARE",,"NO","BATON ROUGE","0","35147"
"POINT (-91.17842797369 30.537413423306)","94321","JOUSE GRAPHICS & DESIGN","1450 PROGRESS RD","BATON ROUGE","LOUISIANA","70807","453000",,,"RETAIL",,"NO","BATON ROUGE","0","31029"
"POINT (-91.185566304162 30.445819415654)","17877","ANNA KARINS PHOTOGRAPHY","458 AMERICA ST","BATON ROUGE","LOUISIANA","70802","624000",,,"PROFESSIONAL SERVICES","PHOTOGRAPHERS","NO","BATON ROUGE","0","24386"
"POINT (-91.065254800903 30.456658392255)","5633","AMENA ADULT DAY & REHAB CENTER","138 MC GEHEE DR","BATON ROUGE","LOUISIANA","70815","624000",,,"HEALTH CARE",,"NO","BATON ROUGE","0","49962"
"POINT (-91.176306133118 30.451611571101)","116627","N-Y ASSOCIATES","1290 MAIN ST","BATON ROUGE","LOUISIANA","70802","541110",,,"COMMUNITY RESOURCE","LEGAL ASSISTANCE","NO","BATON ROUGE","0","33128"
"POINT (-91.062708491092 30.367972614528)","69096","JARREAU PHOTOGRAPHY","8905 ORLEANS DR","BATON ROUGE","LOUISIANA","70810","541000",,,"PROFESSIONAL SERVICES",,"NO","PARISH","0","30773"
"POINT (-91.126279382859 30.406229561262)","176374","NORBERT F SCHEXNAYDER APPRAISE","2223 QUAIL RUN DR","BATON ROUGE","LOUISIANA","70808","531000",,,"PROFESSIONAL SERVICES","REAL ESTATE","NO","BATON ROUGE","0","37238"
"POINT (-91.16186742575 30.474342920463)","21320","BLESSED","2880 PLANK RD","BATON ROUGE","LOUISIANA","70805","238000",,,"CONSTRUCTION",,"NO","BATON ROUGE","0","16822"
"POINT (-91.143448311317 30.418206186573)","173665","PLAYMAKERS","3154 COLLEGE DR, STE D","BATON ROUGE","LOUISIANA","70808","711110",,,"RECREATION",,"NO","BATON ROUGE","0","15047"
"POINT (-91.129005666053 30.452955475296)","155071","UNIQUE FASHIONS BOUTIQUE&GIFT SHOP","5905 FLORIDA BLVD","BATON ROUGE","LOUISIANA","70806","448000",,,"RETAIL",,"NO","BATON ROUGE","0","60487"
"POINT (-91.009189035964 30.357374261049)","30145","CAKE GODDESS","19970 HIGHLAND RD, STE B2","BATON ROUGE","LOUISIANA","70809","445000",,,"RESTAURANT",,"NO","PARISH","0","28536"
"POINT (-91.056459328347 30.43533815192)","196959","HARBOR FREIGHT TOOLS","1821 S SHERWOOD FOREST BLVD","BATON ROUGE","LOUISIANA","70816","444130",,,"SHIPPING",,"NO","BATON ROUGE","0","12839"
"POINT (-91.168376940342 30.470234001353)","18489","DMI COMMERCIAL PAINT & BODY SHOP","2501 SCENIC HWY","BATON ROUGE","LOUISIANA","70805","811121",,,"AUTO","REPAIR","NO","BATON ROUGE","0","24951"
"POINT (-91.083139191214 30.42179531001)","176133","FORMS, FILES, & SYSTEMS","9215 INTERLINE AVE","BATON ROUGE","LOUISIANA","70809","541199",,,"PROFESSIONAL SERVICES",,"NO","BATON ROUGE","0","15572"
"POINT (-91.085706455228 30.396872632971)","27356","ADVANCED SURGICAL CONCEPTS LLC","9118 BLUEBONNET CENTRE BLVD","BATON ROUGE","LOUISIANA","70809","541000",,,"PROFESSIONAL SERVICES",,"NO","PARISH","0","23945"
"POINT (-91.106818659246 30.345058293382)","82080","ON TIME MEDICAL TRANSPORT LLC","10761 HILLROSE AVE","BATON ROUGE","LOUISIANA","70810","485000",,,"SHIPPING",,"NO","PARISH","0","39022"
"POINT (-91.239787242427 30.646277936058)","7025","EMSCO SALES LLC","224 MOUNT PLEASANT-ZACHARY RD","ZACHARY","LOUISIANA","70791","454000",,,"RETAIL",,"NO","PARISH","0","38609"
"POINT (-91.138756077657 30.377833231472)","175215","GREATSTATES FINANCIAL GROUP IN","7388 HIGHLAND RD","BATON ROUGE","LOUISIANA","70808","815000",,,"FINANCIAL INSTITUTION",,"NO","BATON ROUGE","0","35686"
"POINT (-91.071553883312 30.477513860651)","21285","S&S FRAC TANKS, INC.","10368 MAMMOTH AVE","BATON ROUGE","LOUISIANA","70814","333298",,,"INDUSTRIAL",,"NO","BATON ROUGE","0","35300"
"POINT (-91.145030305758 30.419348110565)","27779","TIGER PEOPLE CLOTHIERS","3185 BALIS DR","BATON ROUGE","LOUISIANA","70808","448140",,,"RETAIL",,"NO","BATON ROUGE","0","61362"
"POINT (-91.155958172755 30.495524138024)","152833","HAIR CROWN BEAUTY SUPPLY","5151 PLANK RD","BATON ROUGE","LOUISIANA","70805","448000",,,"RETAIL",,"NO","BATON ROUGE","0","60540"
"POINT (-91.148286687578 30.444079334908)","31935","CAFFERY ARCHITECTURAL STAINED GLASS & GALLERY","4016 GOVERNMENT ST","BATON ROUGE","LOUISIANA","70806","453910",,,"RETAIL",,"NO","BATON ROUGE","0","25923"
"POINT (-91.149369900765 30.444049222785)","32126","MCMILLIN INTERIORS","3924 GOVERNMENT ST","BATON ROUGE","LOUISIANA","70806","541410",,,"PROFESSIONAL SERVICES",,"NO","BATON ROUGE","0","1113"
"POINT (-91.048177596807 30.389646588687)","179617","MIKE WILLIES RESTAURANT AND BAR","11950 CLOVERLAND AVE","BATON ROUGE","LOUISIANA","70809","722000",,,"RESTAURANT",,"YES","PARISH","0","32833"
"POINT (-91.116081663055 30.345886084045)","75402","PREMEIR SOUND SERVICES OF LA","10278 W SPRINGWIND CT","BATON ROUGE","LOUISIANA","70810","812000",,,"PERSONAL SERVICES",,"NO","PARISH","0","34221"
"POINT (-91.085505125431 30.433693016532)","152506","Z OUTLET","9622 AIRLINE HWY","BATON ROUGE","LOUISIANA","70815","448000",,,"RETAIL",,"NO","BATON ROUGE","0","23437"
"POINT (-91.156736137162 30.588036028603)","158127","SHEAR PERFECTION","4107 GROOM RD","BAKER","LOUISIANA","70714","812000",,,"PERSONAL SERVICES",,"NO","BAKER","0","40414"
"POINT (-91.035310117267 30.410459112534)","81615","SAVE MORE MARKET #7","12929 COURSEY BLVD","BATON ROUGE","LOUISIANA","70817","445000",,,"RETAIL","SNAP RETAILER","YES","PARISH","0","66601"
"POINT (-91.052259622679 30.424725967515)","23131","SIGNS IN A DAY","3034 S SHERWOOD FOREST BLVD, STE A1","BATON ROUGE","LOUISIANA","70816","541890",,,"PROFESSIONAL SERVICES",,"NO","BATON ROUGE","0","62039"
"POINT (-91.064240930696 30.427105889428)","27223","SOUTHERN CRAFTS INC","2625 AUBIN LN","BATON ROUGE","LOUISIANA","70816","453000",,,"RETAIL",,"NO","PARISH","0","36054"
"POINT (-91.119037296255 30.4589324582)","152519","GREATER LOVE OUTREACH & COMMUNITY SERVICES","957 N DONMOOR AVE","BATON ROUGE","LOUISIANA","70806","624120",,,"HEALTH CARE",,"NO","BATON ROUGE","0","13477"
"POINT (-91.06844461111 30.409710212096)","6007","KEY LENDING SOLUTIONS LLC","10311 JEFFERSON HWY","BATON ROUGE","LOUISIANA","70809","521000",,,"FINANCIAL INSTITUTION","MORTGAGE LENDER","NO","PARISH","0","23279"
"POINT (-91.168230392442 30.583794877707)","2416","CASH IN A FLASH","830 MAIN ST, STE A","BAKER","LOUISIANA","70714","522291",,,"FINANCIAL INSTITUTION","CHECK CASHING","NO","BAKER","0","17249"
"POINT (-91.188391244128 30.449131918027)","18576","CASSIE FELDER & ASSOCIATIATES LLC","263 3RD ST","BATON ROUGE","LOUISIANA","70801","541000",,,"PROFESSIONAL SERVICES",,"NO","BATON ROUGE","0","38982"
"POINT (-91.057441563594 30.39521079663)","42020","COLLISION WORKS","5959 SIEGEN LN","BATON ROUGE","LOUISIANA","70809","811000",,,"AUTO","REPAIR","NO","PARISH","0","46680"
"POINT (-91.186934808644 30.443192350938)","154532","A.A. ADKINSON ATTORNEY AT LAW","328 GOVERNMENT ST","BATON ROUGE","LOUISIANA","70802","541000",,,"PROFESSIONAL SERVICES","LEGAL ASSISTANCE","NO","BATON ROUGE","0","24910"
"POINT (-91.11149935162 30.469244495165)","146469","NEW FAITH PERSONAL CARE SVCS LLC","2097 BEAUMONT DR","BATON ROUGE","LOUISIANA","70806","812000",,,"PERSONAL SERVICES",,"NO","BATON ROUGE","0","35665"
"POINT (-91.143404416186 30.417215651618)","42151","WALGREENS # 06448","4485 PERKINS RD","BATON ROUGE","LOUISIANA","70808","446110","225-926-0734","http://walgreens.com/","RETAIL","SNAP RETAILER","YES","BATON ROUGE","0","38064"
"POINT (-91.019618270953 30.409317795638)","172907","ARLINGTON MORTGAGE","14241 COURSEY BLVD, STE A10","BATON ROUGE","LOUISIANA","70817","522291",,,"FINANCIAL INSTITUTION","MORTGAGE LENDER","NO","PARISH","0","11484"
"POINT (-91.052952519532 30.412696313413)","148214","FRESENIUS MEDICAL CARE","4520 S SHERWOOD FOREST BLVD, STE 112","BATON ROUGE","LOUISIANA","70816","621492",,,"HEALTH CARE",,"NO","BATON ROUGE","0","21985"
"POINT (-91.048566205549 30.431025573915)","71157","HOMEWORKS HOME IMPROVEMENTS","12000 S HARRELL'S FERRY RD","BATON ROUGE","LOUISIANA","70816","236115",,,"CONSTRUCTION",,"NO","BATON ROUGE","0","4215"
"POINT (-91.15723230394 30.432867555147)","114924","GEODATA","3030 EASTLAND AVE","BATON ROUGE","LOUISIANA","70808","236000",,,"CONSTRUCTION",,"NO","BATON ROUGE","0","29278"
"POINT (-91.078191281894 30.450064103712)","134754","SIMPLE LAWN","9854 S RIVER OAKS DR","BATON ROUGE","LOUISIANA","70815","541000",,,"PROFESSIONAL SERVICES","LEGAL ASSISTANCE","NO","BATON ROUGE","0","46743"
"POINT (-91.081138640027 30.429830989028)","40866","ROTARY CLUB OF BATON ROUGE","9625 FENWAY AVE","BATON ROUGE","LOUISIANA","70809","624229","225-922-9940","http://rotarybr.org","COMMUNITY RESOURCE","CIVIC ORGANIZATION","NO","BATON ROUGE","0","11393"
"POINT (-91.159769006839 30.424848978499)","28602","APQ STYLES LLC","2265 CHRISTIAN ST","BATON ROUGE","LOUISIANA","70808","812112",,,"PERSONAL SERVICES","HAIR SALON","NO","BATON ROUGE","0","23047"
"POINT (-91.015341746924 30.410004282573)","173212","BRUMBLES HAIR SALON","15255 GEORGE O'NEAL RD, STE C","BATON ROUGE","LOUISIANA","70817","812112",,,"PERSONAL SERVICES","HAIR SALON","NO","PARISH","0","11409"
"POINT (-91.057625116136 30.4721752017)","32767","SHERWOOD DISCOUNT MART","2564 N SHERWOOD FOREST DR","BATON ROUGE","LOUISIANA","70815","445000",,,"RETAIL","GAS STATION","YES","BATON ROUGE","0","35719"
"POINT (-91.167858768234 30.510793429643)","157185","GERRIS HANDI WORK","2348 GOUDCHAUX ST","BATON ROUGE","LOUISIANA","70807","454000",,,"RETAIL",,"NO","BATON ROUGE","0","39861"
"POINT (-91.127556592457 30.440682814289)","127512","THE FORGERY & FRAUD FORENSIC RESEARCH CENTER","920 MARION DR","BATON ROUGE","LOUISIANA","70806","541000",,,"PROFESSIONAL SERVICES",,"NO","BATON ROUGE","0","49422"
"POINT (-91.132522178399 30.423826508007)","39549","NCS PEARSON INC","5555 HILTON AVE","BATON ROUGE","LOUISIANA","70808","454000",,,"RETAIL",,"NO","BATON ROUGE","0","34694"
"POINT (-91.178820703421 30.423532115659)","14769","JACKSON HEWITT TAX SERVICE","2625 HIGHLAND RD","BATON ROUGE","LOUISIANA","70802","541000",,,"PROFESSIONAL SERVICES",,"NO","BATON ROUGE","0","48633"
"POINT (-91.073896640454 30.367627536571)","37868","BELLE AMI SALON & SPA","13022 PERKINS RD, STE A-B","BATON ROUGE","LOUISIANA","70810","812000",,,"PERSONAL SERVICES",,"NO","PARISH","0","25202"
"POINT (-91.126407353546 30.502682619575)","21054","RAGUSA MEAT MARKET","6525 GREENWELL ST","BATON ROUGE","LOUISIANA","70812","445000",,,"RETAIL","SNAP RETAILER","YES","PARISH","0","34601"
"POINT (-91.183607349315 30.450773496285)","154088","ARCHITECTURAL STUDIO","409 N 7TH ST","BATON ROUGE","LOUISIANA","70801","541310",,,"PROFESSIONAL SERVICES",,"NO","BATON ROUGE","0","36874"
"POINT (-91.178255005197 30.404209605962)","175786","USDA AGRICULTURAL RESEARCH SERVICE","4117 GOURRIER AVE","BATON ROUGE","LOUISIANA","70808","541710",,,"PROFESSIONAL SERVICES",,"NO","LSU","0","17940"
"POINT (-91.085800803417 30.437873830517)","149766","NM APPAREL","9490 AIRLINE HWY, STE A","BATON ROUGE","LOUISIANA","70815","448190",,,"RETAIL",,"NO","BATON ROUGE","0","22908"
"POINT (-91.070328973099 30.409076194506)","41275","PEAK PERFORMANCE PELVIC FLOOR CLINIC","10202 JEFFERSON HWY","BATON ROUGE","LOUISIANA","70809","621000",,,"HEALTH CARE",,"NO","PARISH","0","45667"
"POINT (-91.1723867241 30.448968008607)","14532","ST. VINCENT DE PAUL BISHOP OTT SWEET DREAMS SHELTER FOR WOMEN AND CHILDREN","1623 CONVENTION ST","BATON ROUGE","LOUISIANA","70802","624210","225-383-7837","http://svdpbr.org/","COMMUNITY RESOURCE","DIAPER BANKS","NO","BATON ROUGE","0","1127"
"POINT (-91.149966318808 30.649772707697)","192931","TUCKERS SEAFOOD OF ZACHARY LLC","4720 ZACHARY-SLAUGHTER HWY","ZACHARY","LOUISIANA","70791","453000",,,"RETAIL","SNAP RETAILER","NO","ZACHARY","0","46976"
"POINT (-91.050195261947 30.410757894709)","50534","DIRECT GENERAL AUTO INSURANCE","11748 COURSEY BLVD","BATON ROUGE","LOUISIANA","70816","524210",,,"PROFESSIONAL SERVICES","INSURANCE","NO","BATON ROUGE","0","2814"
"POINT (-91.048912705558 30.402902501243)","39732","SUPERIOR HOME HEALTH CARE, INC.","11925 WENTLING AVE","BATON ROUGE","LOUISIANA","70816","621610",,,"HEALTH CARE","HOME HEALTH","NO","BATON ROUGE","0","29687"
"POINT (-91.121740424612 30.404558216506)","46965","GETTOM, LLC","6421 PERKINS RD","BATON ROUGE","LOUISIANA","70808","541110",,,"COMMUNITY RESOURCE","LEGAL ASSISTANCE","NO","BATON ROUGE","0","29732"
"POINT (-91.144906092125 30.474091983093)","14212","BATON ROUGE UPHOLSTERING CO","2859 MISSION DR","BATON ROUGE","LOUISIANA","70805","811420",,,"PERSONAL SERVICES","REPAIR","NO","BATON ROUGE","0","24985"
"POINT (-91.053620300705 30.425494487377)","176325","LOUISIANA CONTRACTORS LICENSIN","2834 S SHERWOOD FOREST BLVD, STE D10","BATON ROUGE","LOUISIANA","70816","541000",,,"PROFESSIONAL SERVICES",,"NO","BATON ROUGE","0","37900"
"POINT (-91.131859868811 30.565284384425)","91022","ERIMAN ANALYTICAL SERVICES LLC","13073 PLANK RD","BATON ROUGE","LOUISIANA","70811","238000",,,"CONSTRUCTION",,"NO","PARISH","0","10588"
"POINT (-91.134396525356 30.384002680865)","47873","BITE AND BOOZE LLC","663 KENILWORTH PKWY","BATON ROUGE","LOUISIANA","70808","453000",,,"RETAIL",,"NO","BATON ROUGE","0","25369"
"POINT (-91.086032569921 30.467552233659)","178353","KIM CLEANING SERVICES","1975 N VEGA DR","BATON ROUGE","LOUISIANA","70815","561000",,,"PROFESSIONAL SERVICES",,"NO","BATON ROUGE","0","46608"
"POINT (-91.14552027242 30.478476749147)","163197","RJB ACCESSORIES","4458 WINBOURNE AVE","BATON ROUGE","LOUISIANA","70805","448000",,,"RETAIL",,,"BATON ROUGE","0","41889"
"POINT (-91.06411513306 30.412417345049)","69021","VH ACOUSTIC CEILINGS LLC","10615 AIRLINE HWY","BATON ROUGE","LOUISIANA","70816","238000",,,"CONSTRUCTION",,"NO","PARISH","0","29955"
"POINT (-91.057144205713 30.405603682468)","24202","CAPITOL TRUCKS LLC","4747 SHERWOOD COMMON BLVD","BATON ROUGE","LOUISIANA","70816","441000",,,"AUTO","SALES","NO","PARISH","0","26072"
"POINT (-91.050000961351 30.40398728128)","149310","ATLAS MANUFACTURING","5637 GALERIA DR, STE 203","BATON ROUGE","LOUISIANA","70816","333120",,,"INDUSTRIAL",,"NO","BATON ROUGE","0","11608"
"POINT (-91.061881034672 30.364292848003)","39526","WELCOME HOST","13953 PERKINS RD","BATON ROUGE","LOUISIANA","70810","511140",,,"MEDIA",,"NO","PARISH","0","8768"
"POINT (-91.151920263766 30.663857605708)","170541","FIRST IN COUNTERS","4610 SUNSET BLVD","ZACHARY","LOUISIANA","70791","238000",,,"CONSTRUCTION",,"NO","ZACHARY","0","47146"
"POINT (-91.049557113579 30.426471789527)","45496","AMERICAN CREDIT & INDEMNITY","11857 BRICKSOME AVE, STE A","BATON ROUGE","LOUISIANA","70816","522390",,,"FINANCIAL INSTITUTION",,"NO","BATON ROUGE","0","15891"
"POINT (-91.140094370863 30.501782348224)","108011","IN LOVING ARMS HEALTHCARE FOR KIDS","5675 LANCASTER AVE","BATON ROUGE","LOUISIANA","70805","621000",,,"HEALTH CARE",,"NO","BATON ROUGE","0","30335"
"POINT (-90.996356966628 30.354001625891)","95466","COAST CONCRETE SERVICES","15535 KNOX DR","BATON ROUGE","LOUISIANA","70817","238110",,,"CONSTRUCTION",,"NO","PARISH","0","2249"
"POINT (-91.164289519772 30.444869204891)","102146","ROB THE BUILDER","408 DELPHINE ST","BATON ROUGE","LOUISIANA","70806","236000",,,"CONSTRUCTION",,"NO","BATON ROUGE","0","47368"
"POINT (-91.109435664351 30.394357830661)","152592","BURGER KING # 1772","7638 PERKINS RD","BATON ROUGE","LOUISIANA","70810","722000",,,"RESTAURANT",,"NO","BATON ROUGE","0","25800"
"POINT (-91.051794842236 30.409997892309)","23145","DUANG TAWAN THAI SUSHI BAR","4850 S SHERWOOD FOREST BLVD","BATON ROUGE","LOUISIANA","70816","722000",,,"RESTAURANT",,"YES","PARISH","0","28026"
"POINT (-91.0711647497 30.479204542786)","21301","REDDY ELECTRIC INC","10451 MAMMOTH AVE","BATON ROUGE","LOUISIANA","70814","238000",,,"CONSTRUCTION",,"NO","BATON ROUGE","0","34779"
"POINT (-91.065091498549 30.457239426296)","32670","CIRCLE K #8080","10770 FLORIDA BLVD","BATON ROUGE","LOUISIANA","70815","447000",,"http://circlek.com/","RETAIL","CONVENIENCE STORE","YES","BATON ROUGE","0","26576"
"POINT (-91.14837604024 30.511122712293)","22769","J & J'S INSPECTION","6710 PLANK RD","BATON ROUGE","LOUISIANA","70811","811198",,,"AUTO","REPAIR","NO","BATON ROUGE","0","37235"
"POINT (-91.147250359297 30.448713183572)","125884","CLASSIQUE COIFFURE CREATIONS HAIR SALON","4109 NORTH BLVD","BATON ROUGE","LOUISIANA","70806","812112",,,"PERSONAL SERVICES","HAIR SALON","NO","BATON ROUGE","0","13593"
"POINT (-91.152789157809 30.411980762174)","40219","THE LOWE COMPANY APAC","4008 HYACINTH AVE","BATON ROUGE","LOUISIANA","70808","541000",,,"PROFESSIONAL SERVICES",,"NO","BATON ROUGE","0","37041"
"POINT (-91.188036471724 30.447283321616)","148532","SUBWAY #12641- CHOUCO","301 NORTH BLVD","BATON ROUGE","LOUISIANA","70801","722000",,,"RESTAURANT",,"NO","BATON ROUGE","0","36448"
"POINT (-91.048772047143 30.384166149357)","43001","RENT-A-CENTER","11940 INDUSTRIPLEX BLVD, STE 1","BATON ROUGE","LOUISIANA","70809","532210",,,"AUTO","RENTAL","NO","PARISH","0","61829"
"POINT (-91.044690558529 30.461595311941)","174084","DUC HOANG JEWLRY & WATCH","12387 FLORIDA BLVD","BATON ROUGE","LOUISIANA","70815","811000",,,"REPAIR",,"NO","BATON ROUGE","0","36420"
"POINT (-91.139472889079 30.466802608641)","30748","CELL TOUCH","1966 N FOSTER DR","BATON ROUGE","LOUISIANA","70806","453000",,,"RETAIL",,"NO","BATON ROUGE","0","38266"
"POINT (-90.995619279228 30.399824561594)","75203","INNOVATIVE NETWORK & SYSTEMS MANAGEMENT","5524 STONEWALL DR","BATON ROUGE","LOUISIANA","70817","541000",,,"PROFESSIONAL SERVICES",,"NO","PARISH","0","46521"
"POINT (-91.141022297549 30.509149329572)","20482","CVS PHARMACY #5319","4919 AIRLINE HWY","BATON ROUGE","LOUISIANA","70811",,,,"RETAIL","PHARMACY","YES","BATON ROUGE","0","41952"
"POINT (-91.140885408776 30.442806496716)","198406","SUDDEN SERVICES","4747 CAPITAL HEIGHTS AVE","BATON ROUGE","LOUISIANA","70806","811000",,,"REPAIR",,"NO","BATON ROUGE","0","39915"
"POINT (-91.143988351414 30.417100515015)","174142","SHERWIN WILLIAMS COMPANY #7229","4469 PERKINS RD","BATON ROUGE","LOUISIANA","70808","444000",,,"RETAIL","HOME IMPROVEMENT STORE","NO","BATON ROUGE","0","36546"
"POINT (-91.149071875269 30.448179582165)","31605","ELSIE COLIN","3968 NORTH BLVD","BATON ROUGE","LOUISIANA","70806","622000",,,"HEALTH CARE",,"NO","BATON ROUGE","0","28329"
"POINT (-91.095973418893 30.380115319378)","161421","KIKI","7707 BLUEBONNET BLVD, STE 110","BATON ROUGE","LOUISIANA","70810","448120",,,"RETAIL",,"NO","PARISH","0","18643"
"POINT (-91.139886110862 30.490227961395)","113004","RONS A/C & REFRIGERATION","5036 SHERWOOD ST","BATON ROUGE","LOUISIANA","70805","238000",,,"CONSTRUCTION",,"NO","BATON ROUGE","0","35157"
"POINT (-91.126788479759 30.40596146977)","146642","JOUBERT LAW FIRM A P L C","2171 QUAIL RUN DR","BATON ROUGE","LOUISIANA","70808","541000",,,"PROFESSIONAL SERVICES","LEGAL ASSISTANCE","NO","BATON ROUGE","0","31025"
"POINT (-91.008841493096 30.412943299888)","173533","AMBER SERVICES INC","3948 MEADOW RIDGE DR","BATON ROUGE","LOUISIANA","70817","541000",,,"PROFESSIONAL SERVICES",,"NO","PARISH","0","24228"
"POINT (-91.04868341557 30.473372590342)","23545","RUIZ CONTRACTORS","11930 RICHCROFT AVE","BATON ROUGE","LOUISIANA","70814","236116",,,"CONSTRUCTION",,"NO","BATON ROUGE","0","30599"
"POINT (-91.01615143171 30.412190994818)","21131","THE BAYOU BUNGALOW","4606 JONES CREEK RD, STE 130","BATON ROUGE","LOUISIANA","70817","561000",,,"PROFESSIONAL SERVICES",,"NO","PARISH","0","20955"
"POINT (-91.016132332237 30.403899937363)","150236","JIMBOS SEAFOOD MARKET","5511 JONES CREEK RD","BATON ROUGE","LOUISIANA","70817","445220",,,"FOOD ACCESS","GROCERY","NO","PARISH","0","11464"
"POINT (-91.086634485001 30.397053739524)","27342","US DEPT OF HEALTH & HUMAN SERVICES","9100 BLUEBONNET CENTRE BLVD","BATON ROUGE","LOUISIANA","70809","923120",,,"HEALTH CARE",,"NO","PARISH","0","35339"
"POINT (-91.042954067693 30.39416391597)","40039","CW CONSULTING LLC","12646 JEFFERSON HWY","BATON ROUGE","LOUISIANA","70816","541620",,,"PROFESSIONAL SERVICES",,"NO","PARISH","0","21303"
"POINT (-91.133999336881 30.421389911916)","46599","SPORT ZONE","4848 CONSTITUTION AVE","BATON ROUGE","LOUISIANA","70808","722000",,,"HOTEL/MOTEL",,"YES","BATON ROUGE","0","36188"
"POINT (-91.00869375927 30.456283014525)","25556","LIBERTY COMMUNITY SUPPORT CENTER","862 O'NEAL LN","BATON ROUGE","LOUISIANA","70816","621111",,,"HEALTH CARE",,"NO","PARISH","0","17633"
"POINT (-91.104824678431 30.470981275)","25721","TOTAL TIRE SOLUTIONS LLC","8056 S CHOCTAW DR","BATON ROUGE","LOUISIANA","70815","453000",,,"RETAIL",,"NO","BATON ROUGE","0","37455"
"POINT (-91.094358677239 30.379415126171)","96326","THE GRAPE","10111 PERKINS ROWE, STE 100","BATON ROUGE","LOUISIANA","70810","722000",,,"RESTAURANT",,"NO","PARISH","0","36983"
"POINT (-91.112369238993 30.464881237562)","33489","V.T.M. PLAZA","1772 WOODDALE BLVD","BATON ROUGE","LOUISIANA","70806","561621",,,"PROFESSIONAL SERVICES",,"NO","BATON ROUGE","0","33716"
"POINT (-91.058692718257 30.460466109485)","28552","LITTLE SAIGON VIET CUISINE","1295 N SHERWOOD FOREST DR","BATON ROUGE","LOUISIANA","70815","722110",,,"RESTAURANT",,"NO","BATON ROUGE","0","39347"
"POINT (-91.077701013755 30.424789346654)","39902","FOUNDATION INSURANCE AGENCY","9613 INTERLINE AVE","BATON ROUGE","LOUISIANA","70809","524210",,,"PROFESSIONAL SERVICES","INSURANCE","NO","BATON ROUGE","0","27526"
"POINT (-91.053553022573 30.422401431249)","152177","LIFE SOURCE SERVICES OF BATON ROUGE","11605 SOUTHFORK AVE","BATON ROUGE","LOUISIANA","70816","621000",,,"HEALTH CARE",,"NO","PARISH","0","60132"
"POINT (-91.031820950061 30.447857399166)","147989","GO PHONE COMMUNICATIONS","13787 OLD HAMMOND HWY","BATON ROUGE","LOUISIANA","70816","517212",,,"COMMUNICATIONS",,"NO","PARISH","0","15930"
"POINT (-91.156403615921 30.49183726647)","177423","CHRIS' BARBER SHOP","4611 PLANK RD","BATON ROUGE","LOUISIANA","70805","812000",,,"PERSONAL SERVICES",,"NO","BATON ROUGE","0","26504"
"POINT (-91.153189790287 30.438856522614)","176778","CERTIFIED BUREAU OF THE SOUTH","1012 S ACADIAN THWY, STE 21","BATON ROUGE","LOUISIANA","70806","561440",,,"PROFESSIONAL SERVICES",,"NO","BATON ROUGE","0","20125"
"POINT (-91.11090948979 30.395455855328)","29840","FRAZER & PERSAC A CPA FIRM","7520 PERKINS RD","BATON ROUGE","LOUISIANA","70808","541211",,,"PROFESSIONAL SERVICES",,"NO","BATON ROUGE","0","38933"
"POINT (-91.105885464404 30.39712995952)","22527","WENDY A WAGUESPACK OD INC","7932 PICARDY AVE, STE A","BATON ROUGE","LOUISIANA","70809","621000",,,"HEALTH CARE",,"NO","PARISH","0","38190"
"POINT (-91.105772746787 30.465848630879)","31890","RACETRAC #2417","8008 AIRLINE HWY","BATON ROUGE","LOUISIANA","70806","447000",,,"RETAIL","GAS STATION","YES","BATON ROUGE","0","47599"
"POINT (-91.049565313496 30.460621071427)","28682","NU GROWTH BARBER SHOP","12021 FLORIDA BLVD","BATON ROUGE","LOUISIANA","70815","812000",,,"PERSONAL SERVICES",,"NO","BATON ROUGE","0","2393"
"POINT (-91.11712355484 30.480279426842)","176696","HI NABOR SUPER MARKET LLC","7201 WINBOURNE AVE","BATON ROUGE","LOUISIANA","70805","445110",,"http://hinabor.com/","RETAIL","SNAP RETAILER","YES","BATON ROUGE","0","34968"
"POINT (-91.062772170936 30.388802341931)","37505","POBOY EXPRESS","6606 SIEGEN LN","BATON ROUGE","LOUISIANA","70809","722211",,,"RESTAURANT","FAST FOOD","NO","PARISH","0","6633"
"POINT (-91.141473519535 30.481957285881)","108446","SATISFACTION MAINTENANCE LLC","4925 CHARLES ST","BATON ROUGE","LOUISIANA","70805","236000",,,"CONSTRUCTION",,"NO","BATON ROUGE","0","35458"
"POINT (-91.015322468877 30.410086439278)","173211","LANGLEY JAMES DDS","4809 JONES CREEK RD","BATON ROUGE","LOUISIANA","70817","621210",,,"HEALTH CARE",,"NO","PARISH","0","11425"
"POINT (-91.1154420239 30.472178387628)","156974","INTERIOR EXTERIOR BLDG SUPPLY","7350 E INDUSTRIAL AVE","BATON ROUGE","LOUISIANA","70805","423000",,,"DISTRIBUTOR",,"NO","BATON ROUGE","0","30455"
"POINT (-90.994356742498 30.402612837552)","80086","FLUID CONCEPTS INC","17043 SHARPSBURG AVE","BATON ROUGE","LOUISIANA","70817","423000",,,"DISTRIBUTOR",,"NO","PARISH","0","28900"
"POINT (-91.131661505917 30.424522579803)","149721","POTTERY WORKS","5720 CORPORATE BLVD, STE B","BATON ROUGE","LOUISIANA","70808","327112",,,"INDUSTRIAL",,"NO","BATON ROUGE","0","11927"
"POINT (-91.082982717597 30.428436498398)","152781","MIKE GLOVER CPA","9497 BROOKLINE AVE","BATON ROUGE","LOUISIANA","70809","541000",,,"PROFESSIONAL SERVICES","ACCOUNTING","NO","BATON ROUGE","0","32831"
"POINT (-91.049061705326 30.380757385492)","49547","SAMUEL'S RESTAURANT","6721 EXCHEQUER DR","BATON ROUGE","LOUISIANA","70809","722110",,,"RESTAURANT",,"NO","PARISH","0","36963"
"POINT (-91.049891482727 30.388051991192)","177406","FRANKLY NO.1","11725 SUN BELT CT, STE A","BATON ROUGE","LOUISIANA","70809","453998",,,"RETAIL",,"NO","PARISH","0","37214"
"POINT (-91.18616204005 30.439338122978)","30247","CITY CITRUS","400 SOUTH BLVD","BATON ROUGE","LOUISIANA","70802",,"(225) 381-0037","http://citycitrus.com/","FOOD ACCESS","PUBLIC ORCHARD","NO","BATON ROUGE","0","43482"
"POINT (-91.179803204123 30.443313809079)","20288","MANESSAH GILL AND KNIPE ATTYS","982 GOVERNMENT ST","BATON ROUGE","LOUISIANA","70802","541110",,,"COMMUNITY RESOURCE","LEGAL ASSISTANCE","NO","BATON ROUGE","0","34296"
"POINT (-91.09852258525 30.381615621945)","173418","MATHERNES SUPERMARKET","7580 BLUEBONNET BLVD","BATON ROUGE","LOUISIANA","70810","445110","225-767-0074","http://mathernes.com/","RETAIL","GROCERY","NO","PARISH","0","59858"
"POINT (-91.033307756673 30.550091021399)","156039","LES B TROIS","11237 SULLIVAN RD","CENTRAL","LOUISIANA","70818","453000",,,"RETAIL",,"NO","CENTRAL","0","48799"
"POINT (-91.050648485514 30.425575149238)","46952","COUNSELING FOR GROWTH LLC","2924 BRAKLEY DR, STE A-B","BATON ROUGE","LOUISIANA","70816","621000",,,"HEALTH CARE",,"NO","BATON ROUGE","0","32793"
"POINT (-91.069880715998 30.456192346804)","173441","AMERICAN PAWN #2","10224 FLORIDA BLVD","BATON ROUGE","LOUISIANA","70815","453000",,,"PAWN SHOP",,"NO","BATON ROUGE","0","24275"
"POINT (-91.158344965008 30.424630721082)","175532","BOLTONS HEALTH MART","2958 PERKINS RD","BATON ROUGE","LOUISIANA","70808","446110","(225) 343-4869","http://healthmart.com","RETAIL","PHARMACY","NO","BATON ROUGE","0","25501"
"POINT (-91.047790399787 30.393375128374)","65483","BRIAN HARRIS CHRYSLER JEEP","11977 AIRLINE HWY","BATON ROUGE","LOUISIANA","70816","441110",,,"AUTO","SALES","NO","PARISH","0","33675"
"POINT (-91.053475892019 30.389027152312)","36040","LITTLE HOUSE LLC","11572 CEDAR PARK AVE","BATON ROUGE","LOUISIANA","70809","512240",,,"MEDIA",,"NO","PARISH","0","39901"
"POINT (-91.17665732787 30.42693294588)","177852","THOMAS GROCERY","600 E POLK ST","BATON ROUGE","LOUISIANA","70802","445000",,,"RETAIL","CONVENIENCE STORE","YES","BATON ROUGE","0","37248"
"POINT (-91.168230627207 30.58365390791)","1913","JACKSON HEWITT TAX SERVICE","810 MAIN ST, STE A","BAKER","LOUISIANA","70714","541213",,,"PROFESSIONAL SERVICES",,"NO","BAKER","0","4472"
"POINT (-91.10325618176 30.467950103329)","34446","ELECTRICAL WORKERS LOCAL UNION 995","8181 TOM DR","BATON ROUGE","LOUISIANA","70815","813930",,,"CIVIC ORGANIZATION",,"NO","BATON ROUGE","0","3082"
"POINT (-91.08043865156 30.43037842744)","43758","B.R. AUTOPLEX","9712 AIRLINE HWY","BATON ROUGE","LOUISIANA","70809","441120",,,"AUTO","SALES","NO","BATON ROUGE","0","24801"
"POINT (-91.177723875028 30.520193864099)","22985","TOP CHOICE","1492 HARDING BLVD","BATON ROUGE","LOUISIANA","70807","453000",,,"RETAIL",,"NO","BATON ROUGE","0","37418"
"POINT (-91.057917451295 30.431297818202)","26609","CHUCK E CHEESE","11324 BOARDWALK DR","BATON ROUGE","LOUISIANA","70816","722000",,,"RESTAURANT",,"NO","BATON ROUGE","0","26527"
"POINT (-91.048974074648 30.425704639262)","180288","MORTGAGE FINANAICAL SERVICES","11940 BRICKSOME AVE, STE D","BATON ROUGE","LOUISIANA","70816",,,,"FINANCIAL INSTITUTION","MORTGAGE LENDER",,"BATON ROUGE","0","42033"
"POINT (-91.079603557802 30.431412056619)","25972","WALGREENS # 06028","9820 OLD HAMMOND HWY","BATON ROUGE","LOUISIANA","70816","446110","225-248-1104","http://walgreens.com/","RETAIL","SNAP RETAILER","YES","BATON ROUGE","0","38063"
"POINT (-91.104635865322 30.441834575868)","153423","JEANSONNE LOUIS O MD, ASSOCIATES IN PEDIATRIC & ADOLESCENT MEDICINE","7964 GOODWOOD BLVD, STE A","BATON ROUGE","LOUISIANA","70806","621112",,,"HEALTH CARE",,"NO","BATON ROUGE","0","15243"
"POINT (-91.149111018291 30.452659919831)","178687","CRIBB'S ROOFING & SHEET METAL","523 LIVE OAK BLVD","BATON ROUGE","LOUISIANA","70806","444190",,,"INDUSTRIAL",,"NO","BATON ROUGE","0","27152"
"POINT (-91.061494338641 30.377483357066)","91344","WOODFOREST NATIONAL BANK","10606 N MALL DR","BATON ROUGE","LOUISIANA","70809","521000",,,"FINANCIAL INSTITUTION","BANK","NO","BATON ROUGE","0","38410"
"POINT (-91.147899553284 30.451268065538)","126405","JTM GENERAL CONTRACTING","360 ROSELAWN AVE","BATON ROUGE","LOUISIANA","70806","236000",,,"CONSTRUCTION",,"NO","BATON ROUGE","0","32973"
"POINT (-91.156412207908 30.463142050723)","113577","BOYD'S BAKERY","1659 N ACADIAN THWY W","BATON ROUGE","LOUISIANA","70802","311811",,,"FOOD ACCESS","FOOD PRODUCTION","NO","BATON ROUGE","0","1251"
"POINT (-91.043825712899 30.383309481812)","150205","ALLA'S FINE ART INC","12232 INDUSTRIPLEX BLVD, STE 29","BATON ROUGE","LOUISIANA","70809","453220",,,"RETAIL",,"NO","PARISH","0","21580"
"POINT (-91.062266662393 30.356209801308)","65452","THE LOUVER SHOP OF CENTRAL LOUISIANA","14543 COTTAGE OAK AVE","BATON ROUGE","LOUISIANA","70810","454000",,,"RETAIL",,"NO","PARISH","0","38873"
"POINT (-91.137378045303 30.416074407185)","86009","CHARLES N MALONE","4866 REVERE AVE","BATON ROUGE","LOUISIANA","70808","541000",,,"PROFESSIONAL SERVICES",,"NO","BATON ROUGE","0","33881"
"POINT (-91.131500957271 30.444828821191)","40386","FLEUR DE LIS COCKTAIL LOUNGE, INC.","5655 GOVERNMENT ST","BATON ROUGE","LOUISIANA","70806","722000",,,"BAR/NIGHTCLUB/LOUNGE",,"YES","BATON ROUGE","0","28871"
"POINT (-91.044198812234 30.383271486705)","150202","D & W SYSTEM SALES, INC.","12232 INDUSTRIPLEX BLVD, STE 4","BATON ROUGE","LOUISIANA","70809","335314",,,"INDUSTRIAL",,"NO","PARISH","0","10140"
"POINT (-91.162732705153 30.389453163488)","29692","ROUSES MARKET  #70","600 ARLINGTON CREEK CENTRE BLVD","BATON ROUGE","LOUISIANA","70820","445000",,,"RETAIL","SNAP RETAILER","NO","BATON ROUGE","0","64577"
"POINT (-91.1129407127 30.400667881327)","28452","DERMASURGERY CENTER","7414 PICARDY AVE","BATON ROUGE","LOUISIANA","70808","621000",,,"HEALTH CARE",,"NO","BATON ROUGE","0","31473"
"POINT (-91.135985833525 30.346379508314)","85459","SANTA ROSA HEIGHTS CLUBHOUSE","8602 SANTA ROSA AVE","BATON ROUGE","LOUISIANA","70810","713940",,,"RECREATION",,"NO","PARISH","0","19706"
"POINT (-91.063688381008 30.457413523191)","29177","EL RANCHO MEXICAN GRILL","10820 FLORIDA BLVD","BATON ROUGE","LOUISIANA","70815","722110",,,"RESTAURANT",,"YES","BATON ROUGE","0","13431"
"POINT (-91.110819579163 30.423226035792)","134616","DOREEN ATCHISON TARAVELLA ATTY AT LAW","3033 GILBERT DR","BATON ROUGE","LOUISIANA","70809","541000",,,"PROFESSIONAL SERVICES","LEGAL ASSISTANCE","NO","BATON ROUGE","0","27921"
"POINT (-91.195412106681 30.535063761419)","99010","BROWN'S CONFIDENTIAL INVESTIGATIONS","9927 AVENUE F","BATON ROUGE","LOUISIANA","70807","561611",,,"PROFESSIONAL SERVICES",,"NO","BATON ROUGE","0","1537"
"POINT (-91.117630297876 30.469740283032)","119733","VETERAN CONRACTORS LLC","7058 S CHOCTAW DR","BATON ROUGE","LOUISIANA","70806","238000",,,"CONSTRUCTION",,"NO","BATON ROUGE","0","39087"
"POINT (-91.128227459086 30.495340537994)","15167","DOROTHY'S BOUTIQUE","4824 E BROOKSTOWN DR","BATON ROUGE","LOUISIANA","70805","448190",,,"RETAIL",,"NO","BATON ROUGE","0","2881"
"POINT (-91.135564022509 30.408271902598)","52422","INLAND MARINE SERVICES LLC","1959 WOODCHASE BLVD","BATON ROUGE","LOUISIANA","70808","237000",,,"CONSTRUCTION",,"NO","BATON ROUGE","0","30396"
"POINT (-91.13274443433 30.438715714825)","26619","LOUISIANA TRAVEL PROMOTION ASSOCIATION","1165 S FOSTER DR","BATON ROUGE","LOUISIANA","70806","813910",,,"CIVIC ORGANIZATION",,"NO","BATON ROUGE","0","5326"
"POINT (-91.179893489159 30.438543631911)","52749","LEO SERVICE MARKET & GROCERY","945 EAST BLVD","BATON ROUGE","LOUISIANA","70802","445000",,,"RETAIL","CONVENIENCE STORE","YES","BATON ROUGE","0","31803"
"POINT (-91.056181234409 30.394611171226)","42026","CABINET AND GRANITE","11059 CLOVERLAND AVE","BATON ROUGE","LOUISIANA","70809","337000",,,"INDUSTRIAL",,"NO","PARISH","0","28500"
"POINT (-91.105682053618 30.496860207185)","137731","ALISSA PHILLIPS REALTY LLC","8055 HANKS DR","BATON ROUGE","LOUISIANA","70812","531000",,,"PROFESSIONAL SERVICES","REAL ESTATE","NO","PARISH","0","34222"
"POINT (-91.055812909358 30.54292837911)","1133","JOOR ROAD VETERINARY HOSP LLC","10433 JOOR RD","CENTRAL","LOUISIANA","70818","541940",,,"PETS","VETERINARY","NO","CENTRAL","0","48679"
"POINT (-91.054134928492 30.548844462154)","192715","AUTO ZONE","11205 JOOR RD","CENTRAL","LOUISIANA","70818","441000",,,"AUTO","AUTO PARTS","NO","CENTRAL","0","40412"
"POINT (-91.050014715654 30.419723142096)","21434","UNIQUE FAMILY TIES REALTY LLC","11832 NEWCASTLE AVE","BATON ROUGE","LOUISIANA","70816","531000",,,"FINANCIAL INSTITUTION",,"NO","BATON ROUGE","0","37733"
"POINT (-91.146540019563 30.510112085967)","147124","LEGACY MEDICAL TRANSPORTATION","4303 AIRLINE HWY","BATON ROUGE","LOUISIANA","70811","488000",,,"SHIPPING",,"NO","BATON ROUGE","0","18129"
"POINT (-91.09351392438 30.447326134632)","147572","US AGENCIES","8894 AIRLINE HWY, STE F","BATON ROUGE","LOUISIANA","70806","524210",,,"PROFESSIONAL SERVICES","INSURANCE","NO","BATON ROUGE","0","12274"
"POINT (-91.114540080843 30.462137198122)","31259","ASSOCIATED TECHNOLOGIES AND MANUFACTURING INC","7284 TOM DR","BATON ROUGE","LOUISIANA","70806","339000",,,"INDUSTRIAL",,"NO","BATON ROUGE","0","24605"
"POINT (-91.187117848092 30.432985446273)","101954","ENTERPRISE RENT A CAR 1452","1575 NICHOLSON DR","BATON ROUGE","LOUISIANA","70802","532000",,,"AUTO","RENTAL","NO","BATON ROUGE","0","28399"
"POINT (-91.08546273963 30.432624818044)","147733","MARSHALLS #225","9630 AIRLINE HWY","BATON ROUGE","LOUISIANA","70815","454000",,,"RETAIL",,"NO","BATON ROUGE","0","39002"
"POINT (-91.046604769754 30.459489850956)","5703","SURPLUS WAREHOUSE BATON ROUGE","12152 FLORIDA BLVD","BATON ROUGE","LOUISIANA","70815","444000",,,"RETAIL","HOME IMPROVEMENT STORE","NO","BATON ROUGE","0","36577"
"POINT (-91.182095678783 30.446201715895)","16799","VOLUNTEERS OF AMERICA EMERGENCY SHELTER CARE-ADULT","827 AMERICA ST","BATON ROUGE","LOUISIANA","70802","624190",,,"HEALTH CARE",,"NO","BATON ROUGE","0","8670"
"POINT (-91.049998336792 30.430984113434)","181265","PRINTING TECH","11930 S HARRELL'S FERRY RD","BATON ROUGE","LOUISIANA","70816","541850",,,"MERCHANT","OFFICE SUPPLY STORE","NO","BATON ROUGE","0","11069"
"POINT (-91.075329625341 30.487286231727)","19483","TOTS N TODDLERS INC","4006 PLATT DR","BATON ROUGE","LOUISIANA","70814","624000",,,"COMMUNITY RESOURCE","CHILD DAY CARE","NO","BATON ROUGE","0","37458"
"POINT (-91.05878154061 30.459245475185)","28550","WALGREENS #2996","11297 FLORIDA BLVD","BATON ROUGE","LOUISIANA","70815","446110","225-272-9769","http://walgreens.com/","RETAIL","PHARMACY","YES","BATON ROUGE","0","38071"
"POINT (-91.114077950984 30.550355640215)","107493","BARTONS OF BATON ROUGE","11260 FOSTER RD","BATON ROUGE","LOUISIANA","70811","453000",,,"RETAIL",,"NO","PARISH","0","24913"
"POINT (-91.121458349983 30.650400553888)","190905","MEDCOMP TOX LLC","20203 MACHOST RD","ZACHARY","LOUISIANA","70791","621000",,,"HEALTH CARE",,"NO","ZACHARY","0","48908"
"POINT (-91.098996736474 30.463721774219)","33456","CATERING CAJUN OF LOUISIANA","1625 N AIRWAY DR","BATON ROUGE","LOUISIANA","70815","722000",,,"RESTAURANT",,"YES","BATON ROUGE","0","48110"
"POINT (-91.055695851683 30.403408495787)","173922","QUALITY GROUP, THE","11095 AIRLINE HWY","BATON ROUGE","LOUISIANA","70816","484110",,,"SHIPPING",,"NO","PARISH","0","16732"
"POINT (-91.053517137144 30.42211336207)","97348","GRESHAM & ASSOCIATES","11607 SOUTHFORK AVE","BATON ROUGE","LOUISIANA","70816","524113",,,"PROFESSIONAL SERVICES","INSURANCE","NO","PARISH","0","15533"
"POINT (-91.107945964438 30.470812204756)","28569","JACK IN THE BOX","7725 AIRLINE HWY","BATON ROUGE","LOUISIANA","70815","722000",,,"RESTAURANT",,"NO","BATON ROUGE","0","4465"
"POINT (-91.087580331197 30.38887693489)","39352","GAMESTOP INC  #4544","6401 BLUEBONNET BLVD","BATON ROUGE","LOUISIANA","70836","453000",,,"RETAIL",,"NO","BATON ROUGE","0","38833"
"POINT (-91.13537764161 30.418583487154)","26049","BRYAN BUSH CONSTRUCTION COMPANY","3003 OLD FORGE DR","BATON ROUGE","LOUISIANA","70808","551114",,,"PROFESSIONAL SERVICES",,"NO","BATON ROUGE","0","17705"
"POINT (-91.086950838213 30.371270459833)","46389","ROBERT D HOOVER","1737 OAKDALE DR","BATON ROUGE","LOUISIANA","70810","541000",,,"PROFESSIONAL SERVICES",,"NO","PARISH","0","35061"
"POINT (-91.098899667861 30.446147154801)","34164","FRESENIUS MEDICAL CARE","524 COLONIAL DR","BATON ROUGE","LOUISIANA","70806","621492",,,"HEALTH CARE",,"NO","BATON ROUGE","0","24791"
"POINT (-91.156463034083 30.444951402957)","120189","CUSTOM HOUSE LIMITED LLC","429 HEARTHSTONE DR","BATON ROUGE","LOUISIANA","70806","423000",,,"DISTRIBUTOR",,"NO","BATON ROUGE","0","27237"
"POINT (-91.127058037075 30.457100079635)","125329","TIMS FOOD MART","824 N ARDENWOOD DR","BATON ROUGE","LOUISIANA","70806","445110","225-356-3445",,"RETAIL","SNAP RETAILER","YES","BATON ROUGE","0","37333"
"POINT (-91.007266720844 30.42928429849)","36649","WHITE OAK ANIMAL HOSPITAL INC","2721 O'NEAL LN","BATON ROUGE","LOUISIANA","70816","541940",,,"HEALTH CARE",,"NO","PARISH","0","38241"
"POINT (-91.059666735953 30.458231520211)","174468","BASKIN ROBBINS #1801","11222 FLORIDA BLVD","BATON ROUGE","LOUISIANA","70815","722000",,,"RESTAURANT",,"NO","BATON ROUGE","0","24919"
"POINT (-91.083686665537 30.432631535163)","174388","SPRINT STORE","9638 AIRLINE HWY","BATON ROUGE","LOUISIANA","70815","517212",,,"MERCHANT","OFFICE SUPPLY STORE","NO","BATON ROUGE","0","26208"
"POINT (-91.050648485514 30.425575149238)","46945","KATHERINE HATCHER,LMT & CAROLINE LAMY,MEDLPC","2924 BRAKLEY DR, STE A-B","BATON ROUGE","LOUISIANA","70816","621111",,,"HEALTH CARE",,"NO","BATON ROUGE","0","32793"
"POINT (-91.083409548819 30.428053959211)","43513","NATIONAL ADVANTAGE INSURANCE AGENCY","9418 BROOKLINE AVE","BATON ROUGE","LOUISIANA","70809","524210",,,"PROFESSIONAL SERVICES","INSURANCE","NO","BATON ROUGE","0","22190"
"POINT (-91.169444958704 30.443974140845)","18189","THE MARKET","1857 GOVERNMENT ST","BATON ROUGE","LOUISIANA","70802","453000",,,"RETAIL",,"NO","BATON ROUGE","0","38520"
"POINT (-91.107044804937 30.428410065297)","46323","JUNIOR ACHIEVEMENT OF GREATER BATON ROUGE","7809 JEFFERSON HWY, STE A1","BATON ROUGE","LOUISIANA","70809","611710","225-928-7008","http://batonrouge.ja.org","COMMUNITY RESOURCE","YOUTH SERVICES","NO","BATON ROUGE","0","21747"
"POINT (-91.049002507343 30.378441716492)","36387","R JAMES TATUM INC","6920 N MERCHANT CT","BATON ROUGE","LOUISIANA","70809","541000",,,"PROFESSIONAL SERVICES",,"NO","PARISH","0","34539"
"POINT (-91.131048221485 30.442566905403)","28873","MARGO E BOUANCHAUD INC","5744 CAPITAL HEIGHTS AVE","BATON ROUGE","LOUISIANA","70806","453000",,,"RETAIL",,"NO","BATON ROUGE","0","32399"
"POINT (-91.040013128208 30.440830117564)","146270","KECIA'S KAKES","12351 ELVA DR","BATON ROUGE","LOUISIANA","70816","454000",,,"RETAIL",,"NO","BATON ROUGE","0","40809"
"POINT (-91.13415379945 30.513198883742)","101280","PALA INTERSTATE INC","5650 SUMRALL DR","BATON ROUGE","LOUISIANA","70811","236000",,,"CONSTRUCTION",,"NO","BATON ROUGE","0","33629"
"POINT (-91.05200884311 30.414033168741)","176284","SOUTHERN CARE","4324 S SHERWOOD FOREST BLVD","BATON ROUGE","LOUISIANA","70816","621610",,,"HEALTH CARE",,"NO","BATON ROUGE","0","38218"
"POINT (-91.085904747502 30.475456112996)","5935","METRO INDUSTRIAL CORP.","9231 RATON AVE","BATON ROUGE","LOUISIANA","70814","238220",,,"CONSTRUCTION",,"NO","BATON ROUGE","0","4162"
"POINT (-91.099972621707 30.398485594113)","27452","SOUTHERN HEALTH CARE CONSULTANTS INC","8338 SUMMA AVE","BATON ROUGE","LOUISIANA","70809","541918",,,"PROFESSIONAL SERVICES",,"NO","PARISH","0","7680"
"POINT (-91.134822833518 30.419987598873)","42737","RED LANE PRODUCTIONS","4919 JAMESTOWN AVE","BATON ROUGE","LOUISIANA","70808","512240",,,"MEDIA",,"NO","BATON ROUGE","0","39151"
"POINT (-91.164496992268 30.463220528932)","117946","DOUGLAS REAL ESTATE LLC","1629 N 24TH ST","BATON ROUGE","LOUISIANA","70802","531000",,,"PROFESSIONAL SERVICES","REAL ESTATE","NO","BATON ROUGE","0","27936"
"POINT (-91.04390406969 30.383501221916)","151127","TECH QUIP INC","12232 INDUSTRIPLEX BLVD, STE 31","BATON ROUGE","LOUISIANA","70809","339000",,,"INDUSTRIAL",,"NO","PARISH","0","38464"
"POINT (-91.11609748704 30.452114240766)","31896","DOLLAR TREE # 4872","7119 FLORIDA BLVD","BATON ROUGE","LOUISIANA","70806","453000","225-928-8618","http://dollartree.com","DOLLAR STORE","SNAP RETAILER","NO","BATON ROUGE","0","27862"
"POINT (-91.099680417397 30.452857029661)","169401","RENT A WHEEL","8345 FLORIDA BLVD, STE A","BATON ROUGE","LOUISIANA","70806","453000",,,"RETAIL",,"NO","BATON ROUGE","0","40404"
"POINT (-91.096797317367 30.411799696268)","46634","DAVID WARE & ASSOCIATES","8550 UNITED PLAZA BLVD","BATON ROUGE","LOUISIANA","70809","541000",,,"PROFESSIONAL SERVICES",,"NO","BATON ROUGE","0","39862"
"POINT (-91.017386138519 30.4021955294)","172660","STATE FARM INSURANCE","5664 JONES CREEK RD, STE A","BATON ROUGE","LOUISIANA","70817","524210",,,"PROFESSIONAL SERVICES","INSURANCE","NO","PARISH","0","7908"
"POINT (-91.080411895871 30.394371399281)","35309","ARAMARK SRVC INC- BLUE CROSS#5586","5525 REITZ AVE","BATON ROUGE","LOUISIANA","70809","454000",,,"RETAIL",,"NO","PARISH","0","36089"
"POINT (-91.188381113973 30.450033618279)","23803","AMERICAN UTILITY METALS LLC","341 3RD ST","BATON ROUGE","LOUISIANA","70801","423000",,,"DISTRIBUTOR",,"NO","BATON ROUGE","0","48234"
"POINT (-91.005150054521 30.407476675818)","40739","CLIPPER SHIP FURNITURE OUTLET","16333 GEORGE O'NEAL RD","BATON ROUGE","LOUISIANA","70817","442000",,,"RETAIL","FURNITURE STORE","NO","PARISH","0","11441"
"POINT (-91.046553128726 30.436360346215)","139543","J C H PAINTING","1860 BOULEVARD DE PROVINCE","BATON ROUGE","LOUISIANA","70816","238000",,,"CONSTRUCTION",,"NO","BATON ROUGE","0","40389"
"POINT (-91.092633638528 30.482640001542)","147564","HARRIS ENTERPRISE","8854 GREENWELL SPRINGS RD","BATON ROUGE","LOUISIANA","70814","441120",,,"AUTO","SALES","NO","BATON ROUGE","0","21793"
"POINT (-91.115244067814 30.467699747364)","20592","A & B AUTOMOTIVE","2071 WOODDALE BLVD","BATON ROUGE","LOUISIANA","70806","811111",,,"AUTO","REPAIR","NO","BATON ROUGE","0","16931"
"POINT (-91.066019440499 30.385329291443)","172564","HAIR WORLD","7014 SIEGEN LN","BATON ROUGE","LOUISIANA","70809","453000",,,"RETAIL",,"NO","PARISH","0","29758"
"POINT (-91.184359029577 30.451441053911)","18072","MICHAEL C PALMINTIER A PROFESS","618 MAIN ST","BATON ROUGE","LOUISIANA","70801","541000",,,"PROFESSIONAL SERVICES",,"NO","BATON ROUGE","0","32762"
"POINT (-91.079413544959 30.471675862491)","29909","PIT STOP TIRE & CAR CARE LLC","9556 S CHOCTAW DR","BATON ROUGE","LOUISIANA","70815","811000",,,"AUTO","REPAIR","NO","BATON ROUGE","0","34021"
"POINT (-91.005126081541 30.476947722383)","130660","JL & SM REMODELING LLC","16546 STEPHANIE AVE","BATON ROUGE","LOUISIANA","70819","238000",,,"CONSTRUCTION",,"NO","BATON ROUGE","0","48660"
"POINT (-91.188379480424 30.447361567276)","150695","STROUBE'S CHOP HOUSE","107 3RD ST","BATON ROUGE","LOUISIANA","70801","722000",,,"RESTAURANT",,"YES","BATON ROUGE","0","19245"
"POINT (-91.130097920224 30.443249033632)","180637","BLOCK BUILDERS LLC","619 JEFFERSON HWY, STE G","BATON ROUGE","LOUISIANA","70806","236000",,,"CONSTRUCTION",,"NO","BATON ROUGE","0","25411"
"POINT (-91.008835796238 30.455584604891)","151894","PIZZA HUT 33399","930 O'NEAL LN, STE E2","BATON ROUGE","LOUISIANA","70816","722000",,,"RESTAURANT",,"NO","PARISH","0","38827"
"POINT (-91.101454630064 30.421048433416)","148783","THIRD COAST SOCCER","8312 JEFFERSON HWY, STE 1","BATON ROUGE","LOUISIANA","70809","713990",,,"RECREATION",,"NO","PARISH","0","10934"
"POINT (-91.063638650583 30.493403335865)","21802","ROBERTSON AUTOMOTIVE & FLEET REPAIR","10808 GREENWELL SPRINGS RD","BATON ROUGE","LOUISIANA","70814","811000",,,"AUTO","REPAIR","NO","BATON ROUGE","0","35089"
"POINT (-91.076554020308 30.363951253808)","175856","SUNRISE SENIOR LIVING","9351 SIEGEN LN","BATON ROUGE","LOUISIANA","70810","623110",,,"HEALTH CARE",,"NO","PARISH","0","36515"
"POINT (-91.051404718489 30.43057209067)","176025","AM PM","11768 S HARRELL'S FERRY RD, STE A","BATON ROUGE","LOUISIANA","70816","811000",,,"REPAIR",,"NO","BATON ROUGE","0","34241"
"POINT (-91.103517078192 30.399321998655)","148428","ST JOSEPH HOSPICE","5215 ESSEN LN","BATON ROUGE","LOUISIANA","70809","623110",,,"HEALTH CARE",,"NO","PARISH","0","43528"
"POINT (-91.083120795967 30.484923212622)","23764","JAZZ AUTO GLASS","9420 GREENWELL SPRINGS RD","BATON ROUGE","LOUISIANA","70814","812000",,,"PERSONAL SERVICES",,"NO","BATON ROUGE","0","19540"
"POINT (-91.127239941789 30.469564487205)","139051","LOUIS LOUNGE","6347 GREENWELL SPRINGS RD","BATON ROUGE","LOUISIANA","70806","722000",,,"BAR/NIGHTCLUB/LOUNGE",,"YES","BATON ROUGE","0","32031"
"POINT (-91.182486174971 30.43642031437)","52734","SPURLOCK & SONS CO INC","765 TERRACE ST","BATON ROUGE","LOUISIANA","70802","238000",,,"CONSTRUCTION",,"NO","BATON ROUGE","0","36204"
"POINT (-91.061316781435 30.409853662827)","30382","SECURITY DATA BATON ROUGE","10652 ALCO AVE, STE A","BATON ROUGE","LOUISIANA","70816","453000",,,"RETAIL",,"NO","PARISH","0","35574"
"POINT (-91.087580331197 30.38887693489)","39369","THE SHOE DEPT #505","6401 BLUEBONNET BLVD","BATON ROUGE","LOUISIANA","70836","448000",,,"RETAIL",,"NO","BATON ROUGE","0","38833"
"POINT (-91.071902949787 30.490485404037)","146687","CLASSIC BRIDAL AND LIMOUSINE SERVICE","10130 GREENWELL SPRINGS RD","BATON ROUGE","LOUISIANA","70814","453000",,,"RETAIL",,"NO","BATON ROUGE","0","35153"
"POINT (-91.007908325517 30.456859684573)","29263","FAMILY DOLLAR STORES OF LA INC # 8831","801 O'NEAL LN","BATON ROUGE","LOUISIANA","70816","453000","225-273-5992","http://familydollar.com","RETAIL","SNAP RETAILER","NO","PARISH","0","28660"
"POINT (-91.112244304769 30.398036369018)","43075","BATON ROUGE CLINIC AMC","7373 PERKINS RD","BATON ROUGE","LOUISIANA","70808","621000","225-769-4044","https://batonrougeclinic.com/","HEALTH CARE","PRENATAL CARE","NO","BATON ROUGE","0","24956"
"POINT (-91.206080265033 30.380367452834)","88889","SUPERFIT LLC","6124 RIVERBROOK DR","BATON ROUGE","LOUISIANA","70820","454000",,,"RETAIL",,"NO","BATON ROUGE","0","36547"
"POINT (-91.060185968243 30.48569803509)","19472","FAMILY DOLLAR STORES OF LA INC #11623","3777 N SHERWOOD FOREST DR","BATON ROUGE","LOUISIANA","70814","453000",,,"DOLLAR STORE",,"NO","BATON ROUGE","0","46788"
"POINT (-91.100327121397 30.423249945074)","148852","BARDWELL DEVELOPMENT CO LLC","7922 WRENWOOD BLVD, STE A","BATON ROUGE","LOUISIANA","70809","541000",,,"PROFESSIONAL SERVICES",,"NO","BATON ROUGE","0","24895"
"POINT (-91.094428213715 30.379021042523)","169356","FROCK CANDY","10000 PERKINS ROWE, STE 180","BATON ROUGE","LOUISIANA","70810","454000",,,"RETAIL",,"NO","PARISH","0","29056"
"POINT (-91.099152476296 30.415098636182)","27867","IBERIABANK","3700 ESSEN LN","BATON ROUGE","LOUISIANA","70809","521000",,,"FINANCIAL INSTITUTION","BANK","NO","PARISH","0","30263"
"POINT (-91.153323352093 30.504167254704)","23185","SHOPPERS VALUE","5963 PLANK RD","BATON ROUGE","LOUISIANA","70805","445110","225-357-7400","http://shoppersvaluefoodla.com/","RETAIL","GROCERY","YES","BATON ROUGE","0","35822"
"POINT (-91.076888684594 30.365268943561)","42647","ROBIN MARRERO LCSW","9270 SIEGEN LN","BATON ROUGE","LOUISIANA","70810","815000",,,"HEALTH CARE","ADULT SERVICES","NO","PARISH","0","39008"
"POINT (-91.070852652009 30.478683717772)","20241","G&B BUILDING SPECIALIST INC","10441 MAMMOTH AVE","BATON ROUGE","LOUISIANA","70814","236000",,,"CONSTRUCTION",,"NO","BATON ROUGE","0","29134"
"POINT (-91.050187420079 30.406031517937)","37722","ROY HENDRICK ARCHITECT","11741 MARKET PLACE AVE","BATON ROUGE","LOUISIANA","70816","541000",,,"PROFESSIONAL SERVICES",,"NO","BATON ROUGE","0","35220"
"POINT (-91.083222803862 30.47753886224)","159642","ESTEB FINE JEWELERS","3066 MONTERREY DR","BATON ROUGE","LOUISIANA","70814","448310",,,"RETAIL",,"NO","BATON ROUGE","0","50291"
"POINT (-91.053498201275 30.425871450988)","5424","BEAUTY BASICS","2834 S SHERWOOD FOREST BLVD, STE C6","BATON ROUGE","LOUISIANA","70816","812112",,,"PERSONAL SERVICES","HAIR SALON","NO","BATON ROUGE","0","10996"
"POINT (-91.16517749614 30.49187935371)","16895","G M ENTERPRISES","2550 EVANGELINE ST","BATON ROUGE","LOUISIANA","70805","541000",,,"PROFESSIONAL SERVICES",,"NO","BATON ROUGE","0","29398"
"POINT (-91.022819578878 30.430376830847)","98832","ANY LAB TEST NOW","14635 S HARRELL'S FERRY RD, STE 3","BATON ROUGE","LOUISIANA","70816","541380",,,"PROFESSIONAL SERVICES",,"NO","BATON ROUGE","0","38724"
"POINT (-91.073713695288 30.409165894196)","34768","VU TAILOR SHOP","4448 FLOYNELL DR","BATON ROUGE","LOUISIANA","70809","811490",,,"PERSONAL SERVICES","REPAIR","NO","PARISH","0","36862"
"POINT (-91.120168663742 30.54433359339)","105761","AAA ACCOUNTING SERVICES","10512 FLINTWOOD AVE","BATON ROUGE","LOUISIANA","70811","541000",,,"PROFESSIONAL SERVICES",,"NO","PARISH","0","38900"
"POINT (-91.17934399518 30.653479674635)","168450","MOREAU PHYSICAL THERAPY","2335 CHURCH ST","ZACHARY","LOUISIANA","70791","621000",,,"HEALTH CARE",,"NO","ZACHARY","0","47077"
"POINT (-91.080210020618 30.422309299103)","122337","GW OLIVER POOL CONSTRUCTION LLC","9362 INTERLINE AVE","BATON ROUGE","LOUISIANA","70809","236000",,,"CONSTRUCTION",,"NO","BATON ROUGE","0","48522"
"POINT (-91.087304276163 30.452067080248)","137402","GROUNDWORKS","9185 WYNNEWOOD ST","BATON ROUGE","LOUISIANA","70815","111000",,,"AGRICULTURE",,"NO","BATON ROUGE","0","33525"
"POINT (-91.053517564305 30.420463043949)","95732","WJP ENTERPRISE LLC","11606 SOUTHFORK AVE","BATON ROUGE","LOUISIANA","70816","523999",,,"PROFESSIONAL SERVICES","FINANCIAL ASSISTANCE","NO","PARISH","0","35865"
"POINT (-91.110518002127 30.399184120928)","160668","HEALTHQUEST","7612 PICARDY AVE, STE N","BATON ROUGE","LOUISIANA","70808","813920",,,"HEALTH CARE",,"NO","BATON ROUGE","0","12132"
"POINT (-91.037730628605 30.472895765452)","21671","ABOUTTIME MEDICAL TRANSPORTATION","13317 S CHOCTAW DR","BATON ROUGE","LOUISIANA","70815","485000",,,"SHIPPING",,"NO","BATON ROUGE","0","39327"
"POINT (-91.14554609164 30.554915614689)","93015","H & H AUTO REPAIR","11866 ENGELSWOOD ST","BATON ROUGE","LOUISIANA","70811","811000",,,"AUTO","REPAIR","NO","PARISH","0","29702"
"POINT (-91.083686665537 30.432631535163)","174390","PURPLE AND GOLD SPORTS SHOP IN","9638 AIRLINE HWY","BATON ROUGE","LOUISIANA","70815","453000",,,"RETAIL",,"NO","BATON ROUGE","0","26208"
"POINT (-91.050069710783 30.363596179343)","38028","PRIVATE SANITARY SEWER TREATMENT PLANT","9550 PECUE LN","BATON ROUGE","LOUISIANA","70810","221000",,,"UTILITY",,"NO","PARISH","0","6751"
"POINT (-91.043401241338 30.578150364751)","1369","SWEETPEA'S DESIGN SHACK","12919 BIG OAK AVE","CENTRAL","LOUISIANA","70818","453000",,,"RETAIL",,"NO","CENTRAL","0","49375"
"POINT (-91.096251140729 30.377604036531)","43013","WBRL-TV CHANNEL 21","10000 PERKINS RD","BATON ROUGE","LOUISIANA","70810","926130",,,"COMMUNICATIONS","TV STATION","NO","PARISH","0","31366"
"POINT (-91.039141994113 30.521055962921)","162885","STAB'S STEAK AND SEAFOOD","13438 MAGNOLIA SQUARE CIR, STE B","CENTRAL","LOUISIANA","70818","722000",,,"RESTAURANT",,"NO","CENTRAL","0","46183"
"POINT (-91.184523423973 30.452085548167)","184358","ALLRIGHT BATON ROUGE INC #6012","524 N 6TH ST","BATON ROUGE","LOUISIANA","70801","812000",,,"PARKING","PAY PUBLIC PARKING","NO","BATON ROUGE","0","24167"
"POINT (-91.137675027394 30.426633250049)","32072","MIDAS AUTO SYSTEMS EXPERT","2358 COLLEGE DR","BATON ROUGE","LOUISIANA","70808","811112",,,"AUTO","REPAIR","NO","BATON ROUGE","0","32814"
"POINT (-91.046312026854 30.4112734192)","41547","KIDS COVE DAYCARE AND LEARNING CENTER","12006 COURSEY BLVD","BATON ROUGE","LOUISIANA","70816","624410",,,"COMMUNITY RESOURCE","CHILD DAY CARE","NO","BATON ROUGE","0","2049"
"POINT (-91.100327121397 30.423249945074)","148851","BARDWELL CONSTRUCTION CO LLC","7922 WRENWOOD BLVD, STE A","BATON ROUGE","LOUISIANA","70809","236000",,,"CONSTRUCTION",,"NO","BATON ROUGE","0","24895"
"POINT (-91.160791425781 30.605609051622)","92840","LITTLE LAKE ESTATES","2732 MANCHESTER DR","BAKER","LOUISIANA","70714","531190",,,"MOBILE HOME PARK",,,"PARISH","0","61999"
"POINT (-91.143797237287 30.58240367019)","189818","OVER AND BEYOND APPAREL MANUFACTURING","5112 HARDING ST","BAKER","LOUISIANA","70714","339000",,,"INDUSTRIAL",,"NO","BAKER","0","49971"
"POINT (-91.156597911221 30.531502536768)","53661","B.R. METROPOLITAN AIRPORT AIRCRAFT RESCUE FIRE FIGHTING FACILITY","9412 JACKIE COCHRAN DR","BATON ROUGE","LOUISIANA","70807","922160",,,"GOVERNMENT AGENCIES",,"NO","BATON ROUGE","0","19494"
"POINT (-91.099907725451 30.481236156808)","148895","DAIQUIRI CAFE","8501 GREENWELL SPRINGS RD","BATON ROUGE","LOUISIANA","70814","722000",,,"RESTAURANT",,"YES","PARISH","0","27368"
"POINT (-91.076631631035 30.405604442751)","86035","RANDALLS HAIR STUDIO","4721 INNISWOLD RD","BATON ROUGE","LOUISIANA","70809","812000",,,"PERSONAL SERVICES",,"NO","PARISH","0","34655"
"POINT (-91.061889271992 30.409899218759)","180676","SCOOTER STORE BATON ROUGE LLC","10632 ALCO AVE","BATON ROUGE","LOUISIANA","70816","453000",,,"RETAIL",,"NO","PARISH","0","35509"
"POINT (-91.085597149337 30.372555178851)","162198","LIFEWORKS PSYCHIATRY  AND RECOVERY","11505 PERKINS RD, STE A1","BATON ROUGE","LOUISIANA","70810","621000",,,"HEALTH CARE",,"NO","PARISH","0","42018"
"POINT (-91.1509109309 30.648717493651)","188825","WALGREENS #11498","5061 MAIN ST","ZACHARY","LOUISIANA","70791","453000",,,"RETAIL","SNAP RETAILER","YES","ZACHARY","0","46965"
"POINT (-91.082332548106 30.404487030572)","174758","SHARON B KYLE APLC","4960 BLUEBONNET BLVD, STE B","BATON ROUGE","LOUISIANA","70809","541000",,,"PROFESSIONAL SERVICES",,"NO","PARISH","0","35666"
"POINT (-91.1154420239 30.472178387628)","156973","INTERIOR/EXTERIOR BUILDING SUPPLY","7350 E INDUSTRIAL AVE","BATON ROUGE","LOUISIANA","70805","238310",,,"CONSTRUCTION",,"NO","BATON ROUGE","0","30455"
"POINT (-91.032517432359 30.343746734129)","151445","C&K FINE VINTAGE JEWELERS","17650 HIGHLAND RD, STE C","BATON ROUGE","LOUISIANA","70810","448310",,,"RETAIL",,"NO","PARISH","0","16271"
"POINT (-91.097940870345 30.390980906631)","44166","BOEL AND ASSOCIATES","8530 ANSELMO LN","BATON ROUGE","LOUISIANA","70810","541211",,,"PROFESSIONAL SERVICES",,"NO","PARISH","0","28359"
"POINT (-91.126279382859 30.406229561262)","176381","JKB & ASSOC","2223 QUAIL RUN DR","BATON ROUGE","LOUISIANA","70808","541910",,,"PROFESSIONAL SERVICES",,"NO","BATON ROUGE","0","37238"
"POINT (-91.145326445046 30.5088786449)","21094","AIRLINE AUTOMART, INC.","4520 AIRLINE HWY","BATON ROUGE","LOUISIANA","70805","441120",,,"AUTO","SALES","NO","BATON ROUGE","0","299"
"POINT (-91.270030028501 30.647607691162)","165326","GP LOUISIANA FEDERAL CREDIT UNION","820 W MOUNT PLEASANT RD","ZACHARY","LOUISIANA","70791","521000",,,"FINANCIAL INSTITUTION","CREDIT UNION","NO","PARISH","0","40897"
"POINT (-91.099562658209 30.482145108559)","148897","THE NEW GREENWAY BILLARDS","8515 GREENWELL SPRINGS RD","BATON ROUGE","LOUISIANA","70814","722000",,,"RESTAURANT",,"NO","PARISH","0","37081"
"POINT (-91.046586129865 30.382782675738)","41343","UNISOURCE","12124 INDUSTRIPLEX BLVD","BATON ROUGE","LOUISIANA","70809","322299",,,"INDUSTRIAL",,"NO","PARISH","0","8467"
"POINT (-91.049337247436 30.411502515211)","33531","B ALLEN HAIR SALON","11831 COURSEY BLVD","BATON ROUGE","LOUISIANA","70816","812112",,,"PERSONAL SERVICES","HAIR SALON","NO","BATON ROUGE","0","24776"
"POINT (-91.03747100515 30.378810644248)","35917","TOOMER ELECTRICAL COMPANY INC","13050 AIRLINE HWY","BATON ROUGE","LOUISIANA","70809","238000",,,"CONSTRUCTION",,"NO","PARISH","0","37414"
"POINT (-91.050659998563 30.472369437034)","24191","SOUTHLAND MARBLE","2550 DUMONT DR","BATON ROUGE","LOUISIANA","70815","238000",,,"CONSTRUCTION",,"NO","BATON ROUGE","0","36116"
"POINT (-91.114494274699 30.322278947897)","81903","PRIME REALTY GROUP","15053 REVEILLE AVE","BATON ROUGE","LOUISIANA","70810","531000",,,"PROFESSIONAL SERVICES","REAL ESTATE","NO","PARISH","0","34285"
"POINT (-91.134967221295 30.405226342611)","47591","FARMER MEDICAL LEGAL CONSULTING","1726 POINTER CT","BATON ROUGE","LOUISIANA","70808","541000",,,"PROFESSIONAL SERVICES",,"NO","BATON ROUGE","0","28681"
"POINT (-91.177740771263 30.449467693069)","19635","ASANTE & ASSOCIATES LAW FIRM","1150 FLORIDA ST","BATON ROUGE","LOUISIANA","70802","541000",,,"PROFESSIONAL SERVICES","LEGAL ASSISTANCE","NO","BATON ROUGE","0","24569"
"POINT (-91.110030685903 30.396623124564)","41751","ALBERTSONS #1311","7515 PERKINS RD","BATON ROUGE","LOUISIANA","70808","445110","225-769-6100","http://albertsons.com/","RETAIL","SNAP RETAILER","YES","BATON ROUGE","0","37847"
"POINT (-91.112315677872 30.469257052706)","34343","THE ARC BATON ROUGE - METRO ENTERPRISES","2082 DALLAS DR","BATON ROUGE","LOUISIANA","70806","813319","225-356-0141","http://arcbatonrouge.org/","COMMUNITY RESOURCE","EMPLOYMENT ASSISTANCE","NO","BATON ROUGE","0","5662"
"POINT (-91.11475438222 30.522991084522)","104680","SUPERB VENDING SERVICE","7359 CARLENE AVE","BATON ROUGE","LOUISIANA","70811","453000",,,"RETAIL",,"NO","PARISH","0","36542"
"POINT (-91.204529913586 30.570242394244)","100648","TAYLOR MADE CONCESSIONS","13684 MC CLURE ST","BATON ROUGE","LOUISIANA","70807","454000",,,"RETAIL",,"NO","PARISH","0","36764"
"POINT (-91.087580331197 30.38887693489)","39342","RAISING CANES #08","6401 BLUEBONNET BLVD","BATON ROUGE","LOUISIANA","70836","722000",,,"RESTAURANT",,"NO","BATON ROUGE","0","38833"
"POINT (-91.178858599448 30.448737500541)","116327","ARKEL INTERNATIONAL","1055 CONVENTION ST","BATON ROUGE","LOUISIANA","70802","236000",,,"CONSTRUCTION",,"NO","BATON ROUGE","0","24520"
"POINT (-91.079793421135 30.445675934739)","129459","EHRHARDT & ASSOCIATES","9744 DAMUTH DR","BATON ROUGE","LOUISIANA","70815","531000",,,"PROFESSIONAL SERVICES","REAL ESTATE","NO","BATON ROUGE","0","28261"
"POINT (-91.076703450404 30.486847745282)","5462","SHOPPERS VALUE FOODS","9708 GREENWELL SPRINGS RD","BATON ROUGE","LOUISIANA","70814","453000",,,"RETAIL",,"NO","BATON ROUGE","0","49242"
"POINT (-91.147428425766 30.461801486644)","125030","STAN J MAYS MD","4242 GUS YOUNG AVE","BATON ROUGE","LOUISIANA","70802","621000",,,"HEALTH CARE",,"NO","BATON ROUGE","0","36257"
"POINT (-91.180574482556 30.426194596844)","83664","AARONS FURNITURE","2286 HIGHLAND RD","BATON ROUGE","LOUISIANA","70802","442110",,,"RETAIL","FURNITURE STORE","NO","BATON ROUGE","0","24897"
"POINT (-91.100954953047 30.373286014421)","156457","DEES MANAGEMENT GROUP","8440 BLUEBONNET BLVD","BATON ROUGE","LOUISIANA","70810","523930",,,"PROFESSIONAL SERVICES","FINANCIAL ASSISTANCE","NO","PARISH","0","31834"
"POINT (-91.049244102508 30.410808025734)","175626","BOOK TRADER, THE","11830 COURSEY BLVD","BATON ROUGE","LOUISIANA","70816","451211",,,"RETAIL",,"NO","BATON ROUGE","0","11639"
"POINT (-91.109216134828 30.431714816364)","33003","GOALS & POLES","7575 JEFFERSON HWY","BATON ROUGE","LOUISIANA","70806","453000",,,"RETAIL",,"NO","BATON ROUGE","0","38744"
"POINT (-91.093435848204 30.378974370989)","96331","J. CREW","10155 PERKINS ROWE","BATON ROUGE","LOUISIANA","70810","448110",,,"RETAIL",,"NO","PARISH","0","36853"
"POINT (-91.105885464404 30.39712995952)","22528","ALPHA BODY SPA LLC","7932 PICARDY AVE, STE A","BATON ROUGE","LOUISIANA","70809","812000",,,"PERSONAL SERVICES",,"NO","PARISH","0","38190"
"POINT (-91.177852921435 30.450902551867)","118357","LAW OFFICES OF BRYANT H GRAVES","1153 LAUREL ST","BATON ROUGE","LOUISIANA","70802","541000",,,"PROFESSIONAL SERVICES","LEGAL ASSISTANCE","NO","BATON ROUGE","0","31707"
"POINT (-91.109216134828 30.431714816364)","33002","AFTER 6 LOCKSMITH","7575 JEFFERSON HWY","BATON ROUGE","LOUISIANA","70806","561000",,,"PROFESSIONAL SERVICES",,"NO","BATON ROUGE","0","38744"
"POINT (-91.152013915523 30.470712674004)","187827","FAMILY DOLLAR STORE #11461","3815 CHOCTAW DR","BATON ROUGE","LOUISIANA","70805","453000",,,"RETAIL","SNAP RETAILER","NO","BATON ROUGE","0","46593"
"POINT (-91.013513103938 30.406947241539)","150573","BATON ROUGE FENCING CLUB","15450 GEORGE O'NEAL RD","BATON ROUGE","LOUISIANA","70817","813000","225-772-1053","http://brfencing.org","COMMUNITY RESOURCE","ENTERTAINMENT","NO","PARISH","0","38798"
"POINT (-91.096357534068 30.442200462933)","31833","ALLEN'S CONSULTATION AND TRAINING. INC","888 TARA BLVD","BATON ROUGE","LOUISIANA","70806","621330",,,"HEALTH CARE",,"NO","BATON ROUGE","0","37100"
"POINT (-91.127348415494 30.461139707016)","26848","B C FOOD MART","1200 N ARDENWOOD DR","BATON ROUGE","LOUISIANA","70806","445110","225-201-9299",,"RETAIL","GAS STATION","YES","BATON ROUGE","0","24779"
"POINT (-91.168214758094 30.58386534371)","2417","ACP VOCATIONAL SERVICES, LLC","830 MAIN ST, STE B","BAKER","LOUISIANA","70714","624000",,,"HEALTH CARE",,"NO","BAKER","0","40444"
"POINT (-91.077578335127 30.371852509028)","39220","AKERS AND WISBAR, ATTORNEYS AT LAW","8280 YMCA PLAZA DR","BATON ROUGE","LOUISIANA","70810","541110",,,"COMMUNITY RESOURCE","LEGAL ASSISTANCE","NO","PARISH","0","21999"
"POINT (-91.173162165993 30.558202798235)","152917","COIN LAU N DRY","12390 SCOTLAND-ZACHARY HWY","BATON ROUGE","LOUISIANA","70807","812000",,,"PERSONAL SERVICES",,"NO","BATON ROUGE","0","26774"
"POINT (-91.008712299567 30.459185899664)","25549","O'NEAL LANE PET HOSPITAL","650 O'NEAL LN","BATON ROUGE","LOUISIANA","70816","541940",,,"PETS","VETERINARY","NO","PARISH","0","16785"
"POINT (-91.111978646427 30.393402678459)","173718","WALLACE BRITTON'S TAE KWON DO PLUS","1927 STARING LN","BATON ROUGE","LOUISIANA","70808","815000",,,"FINANCIAL INSTITUTION","CHECK CASHING","NO","BATON ROUGE","0","38084"
"POINT (-91.077213985507 30.365604674324)","167951","CAPITAL ONE BANK","9270 SIEGEN LN, STE 601","BATON ROUGE","LOUISIANA","70810","522110",,,"FINANCIAL INSTITUTION","BANK","NO","PARISH","0","4102"
"POINT (-91.021779964073 30.451118528608)","153315","COLONIAL CARE RETIREMENT CENTER","14686 OLD HAMMOND HWY","BATON ROUGE","LOUISIANA","70816","623110",,,"HEALTH CARE","ELDERLY SERVICES","NO","PARISH","0","7025"
"POINT (-91.183639111134 30.449222595994)","143294","LOUISIANA ASSOCIATION OF BROADCASTERS","660 FLORIDA ST","BATON ROUGE","LOUISIANA","70801","813920","225-267-4522","http://broadcasters.org","PROFESSIONAL ASSOCIATIONS",,"NO","BATON ROUGE","0","14829"
"POINT (-91.081398845913 30.352904519791)","202000","MAGGIE SHAVER LCSW LLC","10431 SIEGEN LN, STE 103","BATON ROUGE","LOUISIANA","70810","541000",,,"HEALTH CARE","ADULT SERVICES","NO","PARISH","0","49852"
"POINT (-91.149441042964 30.493447649878)","15191","LEVEL OF SUCCESS TAX SERVICE LLC","4762 WILDWOOD PKWY","BATON ROUGE","LOUISIANA","70805","815000",,,"PROFESSIONAL SERVICES","FINANCIAL ASSISTANCE","NO","BATON ROUGE","0","31840"
"POINT (-91.03409804761 30.465732009832)","27053","FLANNERY OAKS GUEST HOUSE","1642 N FLANNERY RD","BATON ROUGE","LOUISIANA","70815","523110",,,"HEALTH CARE","ELDERLY SERVICES","NO","BATON ROUGE","0","3429"
"POINT (-91.027525859893 30.411813473579)","79447","SD BOWMAN COMPANY","13612 BUCKLEY AVE","BATON ROUGE","LOUISIANA","70817","811000",,,"REPAIR",,"NO","BATON ROUGE","0","35540"
"POINT (-91.126378142602 30.355463171063)","37314","SAVE MORE MARKET 4","1557 GARDERE LN","BATON ROUGE","LOUISIANA","70820","445110","225-769-0404",,"RETAIL","CONVENIENCE STORE","YES","PARISH","0","7305"
"POINT (-91.176862704763 30.417370207616)","175409","HIGHLAND COFFEES","3350 HIGHLAND RD","BATON ROUGE","LOUISIANA","70802","453220",,,"RETAIL",,"NO","BATON ROUGE","0","12475"
"POINT (-91.057620966654 30.467518623082)","26259","K & D GROCERY","2068 N SHERWOOD FOREST DR","BATON ROUGE","LOUISIANA","70815","445120",,,"RETAIL","CONVENIENCE STORE","YES","BATON ROUGE","0","17498"
"POINT (-91.08592992285 30.492903597809)","137535","MCPIPE ROOFING","9215 RIDGEWOOD DR","BATON ROUGE","LOUISIANA","70814","238000",,,"CONSTRUCTION",,"NO","PARISH","0","48903"
"POINT (-91.122686953762 30.403352545519)","56746","PENNINGTON BALLOON CHAMPIONSHIP","6400 PERKINS RD","BATON ROUGE","LOUISIANA","70808","713000",,,"RECREATION",,"NO","BATON ROUGE","0","33840"
"POINT (-91.085488211738 30.398474591143)","27328","CITIFINANCIAL","5454 BLUEBONNET BLVD, STE A","BATON ROUGE","LOUISIANA","70809","523930",,,"PROFESSIONAL SERVICES","FINANCIAL ASSISTANCE","NO","PARISH","0","30240"
"POINT (-91.107815930139 30.400523665132)","40583","ORAL AND MAXILLAFACIAL SURGERY","5227 FLANDERS DR","BATON ROUGE","LOUISIANA","70809","621210",,,"HEALTH CARE",,"NO","BATON ROUGE","0","25021"
"POINT (-91.077700969467 30.410536976913)","43968","SUBWAY #33230","9618 JEFFERSON HWY","BATON ROUGE","LOUISIANA","70809","722000",,,"RESTAURANT",,"NO","PARISH","0","39128"
"POINT (-91.157100570301 30.444471440834)","112697","ADVANCE AMERICA CASH ADVANCE","3045 GOVERNMENT ST","BATON ROUGE","LOUISIANA","70806","522390",,,"FINANCIAL INSTITUTION","CHECK CASHING","NO","BATON ROUGE","0","23903"
"POINT (-91.137306911527 30.420534357659)","42508","PUBLIC AFFAIRS RESEARCH COUNCIL","4664 JAMESTOWN AVE","BATON ROUGE","LOUISIANA","70808","541000","225-926-8414","http://la-par.org","COMMUNITY RESOURCE","CIVIC ORGANIZATION","NO","BATON ROUGE","0","37294"
"POINT (-91.156518745557 30.532729121221)","49050","DELTA AIR LINES INC","9430 JACKIE COCHRAN DR","BATON ROUGE","LOUISIANA","70807","453000",,,"RETAIL",,"NO","BATON ROUGE","0","36216"
"POINT (-91.166364437166 30.435176276327)","151685","TREUIL MONTAGUE LLC","1465 PERKINS RD","BATON ROUGE","LOUISIANA","70808","453000",,,"RETAIL",,"NO","BATON ROUGE","0","38879"
"POINT (-91.090041364862 30.375158649095)","42909","TOM BESSELMAN/CHRIS DANTIN","10925 PERKINS RD, STE A","BATON ROUGE","LOUISIANA","70810","524110",,,"PROFESSIONAL SERVICES","INSURANCE","NO","PARISH","0","38538"
"POINT (-91.080330912183 30.40523776476)","5144","RAYMOND MARTIN DATA SYSTEMS","4709 BLUEBONNET BLVD","BATON ROUGE","LOUISIANA","70809","453000",,,"RETAIL",,"NO","PARISH","0","27612"
"POINT (-91.107919776737 30.430657006471)","151602","LUTHERS BARBER SHOP","7636 OLD HAMMOND HWY","BATON ROUGE","LOUISIANA","70809","812111",,,"PERSONAL SERVICES","HAIR SALON","NO","BATON ROUGE","0","25461"
"POINT (-91.154274664761 30.495594755766)","15082","SASSY'S","5110 PLANK RD","BATON ROUGE","LOUISIANA","70805","448150",,,"RETAIL",,"NO","BATON ROUGE","0","32743"
"POINT (-91.051905766068 30.49629491419)","17359","REGIONS BANK","11880 GREENWELL SPRINGS RD","BATON ROUGE","LOUISIANA","70814","522110",,,"FINANCIAL INSTITUTION","BANK","NO","PARISH","0","6981"
"POINT (-91.093927223027 30.447107458689)","147568","DISTINCTIVE SMILES OF BATON ROUGE","8894 AIRLINE HWY, STE M","BATON ROUGE","LOUISIANA","70806","621210",,,"HEALTH CARE",,"NO","BATON ROUGE","0","17387"
"POINT (-91.129490962944 30.424698158451)","40448","HAROLDS STORES","2531 CITIPLACE CT","BATON ROUGE","LOUISIANA","70808","722110",,,"RESTAURANT",,"NO","BATON ROUGE","0","30783"
"POINT (-91.152486875798 30.450568994844)","30072","EVERY CALL COMMUNICATIONS","3677 FLORIDA ST","BATON ROUGE","LOUISIANA","70806","926130",,,"COMMUNICATIONS",,"NO","BATON ROUGE","0","14810"
"POINT (-90.99885443358 30.362260404443)","96799","MPAC GROUP, LLC","17431 JEFFERSON HWY","BATON ROUGE","LOUISIANA","70817","561110",,,"PROFESSIONAL SERVICES",,"NO","PARISH","0","22439"
"POINT (-91.134936762745 30.419527618105)","42728","POSEY ALLEN M JR","4920 JAMESTOWN AVE","BATON ROUGE","LOUISIANA","70808","541110",,,"COMMUNITY RESOURCE","LEGAL ASSISTANCE","NO","BATON ROUGE","0","31721"
"POINT (-91.073212021638 30.477106051302)","22685","BENNETT PLUMBING CO","10247 MAMMOTH AVE","BATON ROUGE","LOUISIANA","70814","238000",,,"CONSTRUCTION",,"NO","BATON ROUGE","0","25231"
"POINT (-91.046849756902 30.387610459694)","42667","PRIVATE SANITARY SEWER TREATMENT PLANT","12011 LAKELAND PARK BLVD","BATON ROUGE","LOUISIANA","70809","221000",,,"UTILITY",,"NO","PARISH","0","6751"
"POINT (-91.13218135705 30.495944438969)","121781","FLY HIGH LIFE APPAREL","5836 SAINT GERARD AVE","BATON ROUGE","LOUISIANA","70805","453000",,,"RETAIL",,"NO","BATON ROUGE","0","42301"
"POINT (-91.038150422886 30.394048971304)","77826","BB & PF RESTAURANT","12901 JEFFERSON HWY","BATON ROUGE","LOUISIANA","70817","722110",,,"RESTAURANT",,"NO","PARISH","0","61861"
"POINT (-91.055706969329 30.412997937731)","25417","BUSINESS FIRST BANK","11307 COURSEY BLVD","BATON ROUGE","LOUISIANA","70816","522110",,,"FINANCIAL INSTITUTION","BANK","NO","PARISH","0","444"
"POINT (-91.037412891819 30.602685168227)","167270","BAYOU TRANSPORTATION SERVICES","13812 OAKBERRY AVE","PRIDE","LOUISIANA","70770","811000",,,"REPAIR",,"NO","CENTRAL","0","47979"
"POINT (-91.110802036243 30.505890864983)","116817","MAJESTIC ELEGANCE","5932 BENSON DR","BATON ROUGE","LOUISIANA","70812","454000",,,"RETAIL",,"NO","PARISH","0","32339"
"POINT (-91.147238378105 30.586629129496)","3283","BAKER ANIMAL CLINIC","4936 GROOM RD","BAKER","LOUISIANA","70714","541940",,,"PETS","VETERINARY","NO","BAKER","0","40425"
"POINT (-91.105305392637 30.363882420854)","24774","DRAKES LAWNCARE LLC","9332 BLUEBONNET BLVD","BATON ROUGE","LOUISIANA","70810","815000",,,"PROFESSIONAL SERVICES","LANDSCAPE","NO","PARISH","0","27979"
"POINT (-91.103235489252 30.365285377496)","156464","BABIN DENTAL","10631 HILLARY CT","BATON ROUGE","LOUISIANA","70810","919088",,,"HEALTH CARE",,"NO","PARISH","0","25016"
"POINT (-91.140041573287 30.448985845706)","33229","WALTER R KROUSEL JR & ASSOC AP","4831 NORTH BLVD","BATON ROUGE","LOUISIANA","70806","541000",,,"PROFESSIONAL SERVICES",,"NO","BATON ROUGE","0","38094"
"POINT (-91.049933188915 30.424913074022)","29782","GARRETY & ASSOCIATES","11816 SUNRAY AVE","BATON ROUGE","LOUISIANA","70816","541000",,,"PROFESSIONAL SERVICES",,"NO","BATON ROUGE","0","29192"
"POINT (-91.058114852726 30.394693109903)","175621","Y TAQUERIA","6031 SIEGEN LN, STE B","BATON ROUGE","LOUISIANA","70809","722110",,,"RESTAURANT",,"NO","PARISH","0","12297"
"POINT (-91.083257234801 30.400993786873)","175293","LEBLANC JULES III ATTY","5141 BLUEBONNET BLVD","BATON ROUGE","LOUISIANA","70809","541110",,,"COMMUNITY RESOURCE","LEGAL ASSISTANCE","NO","PARISH","0","33102"
"POINT (-91.141720277829 30.493010451466)","19238","E-TAX SERVICES","4848 EVANGELINE ST","BATON ROUGE","LOUISIANA","70805","815000",,,"PROFESSIONAL SERVICES","FINANCIAL ASSISTANCE","NO","BATON ROUGE","0","33066"
"POINT (-91.021422183284 30.543901433875)","177502","DREWBERRY DESIGNS","15117 WAX RD","CENTRAL","LOUISIANA","70818","454000",,,"RETAIL",,"NO","CENTRAL","0","48324"
"POINT (-91.156335092427 30.448321151384)","32257","ST AMANT & TESSIER ATTYS","3127 NORTH BLVD","BATON ROUGE","LOUISIANA","70806","541110",,,"COMMUNITY RESOURCE","LEGAL ASSISTANCE","NO","BATON ROUGE","0","34636"
"POINT (-91.048080703299 30.388564699909)","84384","TAYLOR HOME HEALTH SUPPLY","11944 CLOVERLAND CT","BATON ROUGE","LOUISIANA","70809","453000",,,"RETAIL",,"NO","PARISH","0","36763"
"POINT (-91.111772602146 30.469885626039)","24182","CAM MOTION INC","2157 BEAUMONT DR","BATON ROUGE","LOUISIANA","70806","811000",,,"REPAIR",,"NO","BATON ROUGE","0","25971"
"POINT (-91.087075114377 30.47359672606)","24550","HENDERSON CONSTRUCTION GROUP","9110 MAMMOTH AVE","BATON ROUGE","LOUISIANA","70814","237990",,,"CONSTRUCTION",,"NO","BATON ROUGE","0","31451"
"POINT (-91.114901191072 30.46873254135)","20582","TOP NOTCH CLEANING SERVICES","2138 WOODDALE BLVD, STE 1C","BATON ROUGE","LOUISIANA","70806","561720",,,"PROFESSIONAL SERVICES",,"NO","BATON ROUGE","0","24363"
"POINT (-91.13375798983 30.501703989763)","13581","ANOINTED FLOWERS AND GIFTS","5701 HOLLYWOOD-GREENWELL XOVR","BATON ROUGE","LOUISIANA","70805","453110",,,"RETAIL",,"NO","BATON ROUGE","0","16489"
"POINT (-91.051145205651 30.41492698764)","195478","LA BELLA BARCELONA SALON & BOUTIQUE","4215 S SHERWOOD FOREST BLVD, STE 8","BATON ROUGE","LOUISIANA","70816","812112",,,"PERSONAL SERVICES","HAIR SALON","NO","BATON ROUGE","0","31996"
"POINT (-91.139854420901 30.450410601638)","33187","BUSINESS FIRST BANK","4944 FLORIDA BLVD","BATON ROUGE","LOUISIANA","70806","522110",,,"FINANCIAL INSTITUTION","BANK","NO","BATON ROUGE","0","444"
"POINT (-91.083623444984 30.43075090508)","43753","RED RIVER BANK","9400 OLD HAMMOND HWY","BATON ROUGE","LOUISIANA","70809","521000",,,"FINANCIAL INSTITUTION","BANK","NO","BATON ROUGE","0","3366"
"POINT (-91.100935048473 30.468866154825)","28504","CONSOLIDATED BUILDERS CONSTRUCTION CO.","8266 W EL CAJON DR","BATON ROUGE","LOUISIANA","70815","238210",,,"CONSTRUCTION",,"NO","BATON ROUGE","0","16938"
"POINT (-91.181188881251 30.445214674874)","104730","LEE & WALSH","257 MAXIMILIAN ST","BATON ROUGE","LOUISIANA","70802","541110",,,"COMMUNITY RESOURCE","LEGAL ASSISTANCE","NO","BATON ROUGE","0","14676"
"POINT (-90.97038528159 30.371267875027)","155704","VARNADO LAWN MAINT & LANDSCAPE","19446 BENGAL CT","BATON ROUGE","LOUISIANA","70817","815000",,,"PROFESSIONAL SERVICES","LANDSCAPE","NO","PARISH","0","37869"
"POINT (-91.101171036689 30.422124878602)","155435","JAY LITTLE & ASSOCIATES","7902 WRENWOOD BLVD, STE A","BATON ROUGE","LOUISIANA","70809","524210",,,"PROFESSIONAL SERVICES","INSURANCE","NO","BATON ROUGE","0","22969"
"POINT (-91.150253395355 30.426309736662)","17345","HIT-N-RUN FOOD STORES #3","2313 S ACADIAN THWY","BATON ROUGE","LOUISIANA","70808","447000",,,"RETAIL","CONVENIENCE STORE","YES","BATON ROUGE","0","30050"
"POINT (-91.090475400574 30.375565720978)","153236","FARM BUREAU INSURANCE","10859 PERKINS RD, STE D","BATON ROUGE","LOUISIANA","70810","524210",,,"PROFESSIONAL SERVICES","INSURANCE","NO","PARISH","0","33814"
"POINT (-91.122130250096 30.491010149752)","19208","BRENNER TANK SERVICES LLC","6735 AIRLINE HWY","BATON ROUGE","LOUISIANA","70805","811000",,,"REPAIR",,"NO","BATON ROUGE","0","60397"
"POINT (-91.031283302377 30.409160490469)","75235","STUDIO 7 HAIR SALON","13333 COURSEY BLVD, STE A","BATON ROUGE","LOUISIANA","70817","812112",,,"PERSONAL SERVICES","HAIR SALON","NO","PARISH","0","28064"
"POINT (-91.071249399329 30.455671430083)","5668","BAYOU BILLIARDS","10090 FLORIDA BLVD","BATON ROUGE","LOUISIANA","70815","722410",,,"BAR/NIGHTCLUB/LOUNGE",,"NO","BATON ROUGE","0","33078"
"POINT (-91.108732503314 30.395240398813)","179581","CIRCLE K STORE #2707656","5857 ESSEN LN","BATON ROUGE","LOUISIANA","70810","447000","225-767-6880","http://circlek.com/","RETAIL","CONVENIENCE STORE","YES","BATON ROUGE","0","26594"
"POINT (-91.01193838541 30.397968459912)","35779","WILLIAMS SALES & CONSULTANT CO","15607 WOODLAND TRAIL","BATON ROUGE","LOUISIANA","70817","454000",,,"RETAIL",,"NO","PARISH","0","38301"
"POINT (-91.107932848321 30.430253962076)","151611","OPTICAL SHOP","7641 JEFFERSON HWY","BATON ROUGE","LOUISIANA","70809","453000",,,"RETAIL",,"NO","BATON ROUGE","0","33530"
"POINT (-91.070184336549 30.471889458506)","28212","FASTENAL COMPANY","10296 S CHOCTAW DR","BATON ROUGE","LOUISIANA","70815","453000",,,"RETAIL",,"NO","BATON ROUGE","0","28709"
"POINT (-91.072310903484 30.490251224929)","23747","EXPERT TAX SERVICE","10088 GREENWELL SPRINGS RD","BATON ROUGE","LOUISIANA","70814","541213",,,"PROFESSIONAL SERVICES",,"NO","BATON ROUGE","0","28990"
"POINT (-91.184848107766 30.444115562291)","148868","BLAINE M MESSIA","330 ROYAL ST","BATON ROUGE","LOUISIANA","70802","541110",,,"COMMUNITY RESOURCE","LEGAL ASSISTANCE","NO","BATON ROUGE","0","14664"
"POINT (-91.126095081639 30.407054865445)","53560","CAMP DRESSER & MCKEE","6120 PERKINS RD","BATON ROUGE","LOUISIANA","70808","541330",,,"PROFESSIONAL SERVICES",,"NO","BATON ROUGE","0","12232"
"POINT (-91.110983587738 30.46002035008)","19120","TRI STAR REHAB","1335 WOODDALE BLVD","BATON ROUGE","LOUISIANA","70806","541000",,,"PROFESSIONAL SERVICES",,"NO","BATON ROUGE","0","60064"
"POINT (-91.186692031661 30.450196199776)","24826","PREIS BERGERON & GORDON","450 LAUREL ST","BATON ROUGE","LOUISIANA","70801","541000",,,"PROFESSIONAL SERVICES",,"NO","BATON ROUGE","0","37505"
"POINT (-91.106021468318 30.453838606109)","26908","TBT CONTRACTORS LLC","444 WOODDALE BLVD","BATON ROUGE","LOUISIANA","70806","238000",,,"CONSTRUCTION",,"NO","BATON ROUGE","0","35129"
"POINT (-91.153405012272 30.444470871308)","30355","VONNIEABS RESPITE CARE INC","3535 GOVERNMENT ST","BATON ROUGE","LOUISIANA","70806","541000",,,"PROFESSIONAL SERVICES",,"NO","BATON ROUGE","0","38010"
"POINT (-91.124745791139 30.36129769552)","173818","EASY COMMUNICATION","9327 BURBANK DR","BATON ROUGE","LOUISIANA","70820","812210",,,"COMMUNICATIONS",,"NO","PARISH","0","22402"
"POINT (-91.022950434714 30.358136917119)","179606","ALLSERVICE PLUMBING & MAINT LLC","14464 BARINGERS CT","BATON ROUGE","LOUISIANA","70809","238000",,,"CONSTRUCTION",,"NO","PARISH","0","37554"
"POINT (-91.084485503923 30.429423095131)","156587","ADOLESCENT AND FAMILY COUNSELING SERVICES","2320 DRUSILLA LN, STE E","BATON ROUGE","LOUISIANA","70809","624000",,,"HEALTH CARE",,"NO","BATON ROUGE","0","49932"
"POINT (-91.00879456011 30.429566857842)","148713","ALEX BOX AUCTIONS","2736 O'NEAL LN, STE E","BATON ROUGE","LOUISIANA","70816","452990",,,"RETAIL",,"NO","BATON ROUGE","0","20160"
"POINT (-91.145411688549 30.469574731351)","126753","AND ETC","4450 MONROE AVE","BATON ROUGE","LOUISIANA","70802","453000",,,"RETAIL",,"NO","BATON ROUGE","0","24324"
"POINT (-91.17716027353 30.417386119541)","180578","INSOMNIA COOKIES","128 W CHIMES ST","BATON ROUGE","LOUISIANA","70802","722000",,,"RESTAURANT",,"NO","BATON ROUGE","0","12473"
"POINT (-91.169945814114 30.41346433131)","10712","THE COOK HOTEL","3848 W LAKESHORE DR","BATON ROUGE","LOUISIANA","70808","721000",,,"HOTEL/MOTEL",,"YES","LSU","0","36929"
"POINT (-91.134818588006 30.494921652249)","147254","BROOKSTOWN HARDWARE & SUPPLY C","4828 MC CLELLAND DR","BATON ROUGE","LOUISIANA","70805","453000",,,"RETAIL",,"NO","BATON ROUGE","0","25700"
"POINT (-91.078878220838 30.418349124244)","26075","HERITAGE MANOR OF BATON ROUGE","9301 OXFORD PLACE DR","BATON ROUGE","LOUISIANA","70809","621000",,,"HEALTH CARE",,"NO","BATON ROUGE","0","29971"
"POINT (-91.150746278532 30.504737513558)","177430","MCDONALDS #529 PLANK RD","6006 PLANK RD","BATON ROUGE","LOUISIANA","70805","722000",,,"RESTAURANT",,"NO","BATON ROUGE","0","32578"
"POINT (-91.027073561052 30.339274581737)","41384","PORTOFINO PAPERS","636 HIGHLANDIA DR","BATON ROUGE","LOUISIANA","70810","453000",,,"RETAIL",,"NO","PARISH","0","34372"
"POINT (-91.145895951533 30.444718595753)","155891","JAY'S BAR-B-QUE","4215 GOVERNMENT ST","BATON ROUGE","LOUISIANA","70806","722110",,,"RESTAURANT",,"NO","BATON ROUGE","0","30790"
"POINT (-91.093611257563 30.378639352548)","96335","LEVI STORE, THE","10156 PERKINS ROWE, STE 130","BATON ROUGE","LOUISIANA","70810","448110",,,"RETAIL",,"NO","PARISH","0","37029"
"POINT (-91.029697887302 30.368968507471)","177193","QUINCY COMPRESSOR LLC","13918 AIRLINE HWY","BATON ROUGE","LOUISIANA","70809","339000",,,"INDUSTRIAL",,"NO","PARISH","0","35602"
"POINT (-91.165840416516 30.505340569232)","95450","JUST QUALITY POWER WASHING","2541 SHADA AVE","BATON ROUGE","LOUISIANA","70805","811000",,,"REPAIR",,"NO","BATON ROUGE","0","46389"
"POINT (-91.100484764195 30.398781599692)","27373","WATERS INVESTMENTS","8230 SUMMA AVE","BATON ROUGE","LOUISIANA","70809","523930",,,"PROFESSIONAL SERVICES","FINANCIAL ASSISTANCE","NO","PARISH","0","20763"
"POINT (-91.154938877909 30.471333880824)","20379","SPECIALTY METALS","3500 SENECA ST","BATON ROUGE","LOUISIANA","70805","423510",,,"INDUSTRIAL",,"NO","BATON ROUGE","0","7743"
"POINT (-91.102766903977 30.458058415813)","124142","T'S DAD BEST PECAN CANDY","8021 QUEENSWOOD CT","BATON ROUGE","LOUISIANA","70806","454000",,,"RETAIL",,"NO","BATON ROUGE","0","37628"
"POINT (-91.187874827649 30.447287019265)","150705","EATON GROUP-GREGORY EATON ATTY AT LAW","309 NORTH BLVD","BATON ROUGE","LOUISIANA","70801","541110",,,"COMMUNITY RESOURCE","LEGAL ASSISTANCE","NO","BATON ROUGE","0","27136"
"POINT (-91.110296552021 30.394666543614)","29819","WALGREENS #17647","2159 STARING LN","BATON ROUGE","LOUISIANA","70808","446000",,"https://walgreens.com/","RETAIL","SNAP RETAILER","YES","BATON ROUGE","0","34997"
"POINT (-91.111791573377 30.46381589614)","33462","SHOW AND SELL HOSPITALITY","1698 WOODDALE BLVD","BATON ROUGE","LOUISIANA","70806","238330",,,"CONSTRUCTION",,"NO","BATON ROUGE","0","36506"
"POINT (-91.087591903435 30.483912016523)","22366","KO MOBILE KITCHEN LLC","9186 GREENWELL SPRINGS RD","BATON ROUGE","LOUISIANA","70814","454000",,,"RETAIL",,"NO","BATON ROUGE","0","21557"
"POINT (-91.129005666053 30.452955475296)","155069","SCENTS & MOORE","5905 FLORIDA BLVD","BATON ROUGE","LOUISIANA","70806","453000",,,"RETAIL",,"NO","BATON ROUGE","0","60487"
"POINT (-91.017492937007 30.380755766547)","61776","LORIO'S LANDSCAPE & LAWN CARE","7714 BARINGER RD","BATON ROUGE","LOUISIANA","70817","815000",,,"PROFESSIONAL SERVICES","LANDSCAPE","NO","PARISH","0","32016"
"POINT (-91.051955631735 30.412656126401)","176281","LESLIES SWIMMING POOL SUPPLIES","4520 S SHERWOOD FOREST BLVD, STE 101","BATON ROUGE","LOUISIANA","70816","561000",,,"PROFESSIONAL SERVICES",,"NO","BATON ROUGE","0","31832"
"POINT (-91.112369238993 30.464881237562)","33491","PAT DAVIS HANDBAGS & ACCESSORIES LLC","1772 WOODDALE BLVD","BATON ROUGE","LOUISIANA","70806","448000",,,"RETAIL",,"NO","BATON ROUGE","0","33716"
"POINT (-91.062626487286 30.389227318575)","37504","CIRCLE K  STORE 2709716","6678 SIEGEN LN","BATON ROUGE","LOUISIANA","70809","447000",,"http://circlek.com/","RETAIL","GAS STATION","YES","PARISH","0","26577"
"POINT (-91.107531106529 30.353978225694)","36805","TACO BELL #31648","10623 BURBANK DR","BATON ROUGE","LOUISIANA","70810","722000",,,"RESTAURANT",,"NO","PARISH","0","8093"
"POINT (-91.100378292111 30.475486951928)","17381","NEXTECH CENTRAL LLC","8463 ATHENS AVE","BATON ROUGE","LOUISIANA","70814","541710",,,"PROFESSIONAL SERVICES",,"NO","BATON ROUGE","0","20589"
"POINT (-91.145030305758 30.419348110565)","27785","MIP 3 LLC","3185 BALIS DR","BATON ROUGE","LOUISIANA","70808","441310",,,"AUTO","SALES","NO","BATON ROUGE","0","61362"
"POINT (-91.099260478127 30.373326171394)","41056","TOXICOLOGICAL & ENVIRONMENTAL","10636 LINKWOOD CT","BATON ROUGE","LOUISIANA","70810","541000",,,"PROFESSIONAL SERVICES",,"NO","PARISH","0","37477"
"POINT (-91.081630684378 30.463988766094)","135127","DISCOUNT LETTERPRESS & BINDERY","9444 CUYHANGA PKWY","BATON ROUGE","LOUISIANA","70815","454000",,,"RETAIL",,"NO","BATON ROUGE","0","27746"
"POINT (-91.141056387676 30.421923902954)","28745","ALBERTSON # 3747","2950 COLLEGE DR","BATON ROUGE","LOUISIANA","70808","445110","225-768-7775","http://albertsons.com/","RETAIL","SNAP RETAILER","YES","BATON ROUGE","0","24065"
"POINT (-91.101171036689 30.422124878602)","155436","NEW BEGINNING THERAPHY, LLC","7902 WRENWOOD BLVD, STE A","BATON ROUGE","LOUISIANA","70809","621330",,,"HEALTH CARE",,"NO","BATON ROUGE","0","22969"
"POINT (-91.082332548106 30.404487030572)","174756","CAPITAL CITY DEVELOPMENT","4960 BLUEBONNET BLVD, STE B","BATON ROUGE","LOUISIANA","70809","236000",,,"CONSTRUCTION",,"NO","PARISH","0","35666"
"POINT (-91.14339469396 30.414696280951)","85999","GILGALS PAGODA LLC","4559 TUPELLO ST","BATON ROUGE","LOUISIANA","70808","453000",,,"RETAIL",,"NO","BATON ROUGE","0","42298"
"POINT (-91.04390406969 30.383501221916)","151126","SYSTEMS INTEGRATION LLC","12232 INDUSTRIPLEX BLVD, STE 31","BATON ROUGE","LOUISIANA","70809","236000",,,"CONSTRUCTION",,"NO","PARISH","0","38464"
"POINT (-91.101591374371 30.372218090662)","176490","RAINER ANDING & MCLINDON","8480 BLUEBONNET BLVD, STE G","BATON ROUGE","LOUISIANA","70810","541000",,,"PROFESSIONAL SERVICES",,"NO","PARISH","0","38092"
"POINT (-91.059680856296 30.457520422257)","174465","HERWOOD DENTAL","11246 FLORIDA BLVD","BATON ROUGE","LOUISIANA","70815","541000",,,"PROFESSIONAL SERVICES",,"NO","BATON ROUGE","0","29985"
"POINT (-91.125805219176 30.518787389197)","12879","S. E. MACKEY FITNESS CENTER","6534 FORD ST","BATON ROUGE","LOUISIANA","70811","713940",,,"FITNESS",,"NO","BATON ROUGE","0","18348"
"POINT (-90.995679178806 30.360958917978)","101468","ONLINE TECHNICAL CONSULTING INC","17605 JEFFERSON HWY","BATON ROUGE","LOUISIANA","70817","541000",,,"PROFESSIONAL SERVICES",,"NO","PARISH","0","23340"
"POINT (-91.144166245714 30.448302103176)","126574","LUNDY BEAUTY SALON","4420 NORTH BLVD, STE 102","BATON ROUGE","LOUISIANA","70806","812000",,,"PERSONAL SERVICES",,"NO","BATON ROUGE","0","32212"
"POINT (-91.08005271832 30.414350532047)","60384","JOHN R OLDS ATTORNEY AT LAW","3896 N BLUEBONNET RD","BATON ROUGE","LOUISIANA","70809","541000",,,"PROFESSIONAL SERVICES","LEGAL ASSISTANCE","NO","BATON ROUGE","0","30953"
"POINT (-90.9991046766 30.362296516461)","148228","ANAESTHESIA BUSINESS CONSULTANTS","17425 JEFFERSON HWY","BATON ROUGE","LOUISIANA","70817","621340",,,"HEALTH CARE",,"NO","PARISH","0","22299"
"POINT (-91.173162165993 30.558202798235)","152914","SCOTLAND HOP IN CIRCLE K","12390 SCOTLAND-ZACHARY HWY","BATON ROUGE","LOUISIANA","70807","447000",,,"RETAIL","GAS STATION","YES","BATON ROUGE","0","26774"
"POINT (-91.069042300753 30.4735984533)","19509","SILK SCREEN SHOP, THE","10365 S PERDUE AVE","BATON ROUGE","LOUISIANA","70814","448190",,,"RETAIL",,"NO","BATON ROUGE","0","37158"
"POINT (-91.145490257668 30.481767968966)","161835","SK&K TRUCKING CO","3611 MISSION DR","BATON ROUGE","LOUISIANA","70805","484000",,,"SHIPPING",,"NO","BATON ROUGE","0","46407"
"POINT (-91.086852534319 30.419514770545)","175455","KELLER CONSULTING","8966 INTERLINE AVE, STE A","BATON ROUGE","LOUISIANA","70809","541611",,,"PROFESSIONAL SERVICES",,"NO","BATON ROUGE","0","11272"
"POINT (-91.111402484919 30.432940685943)","148051","BUMBLE LANE SPA","7450 JEFFERSON HWY","BATON ROUGE","LOUISIANA","70806","812000",,,"PERSONAL SERVICES",,"NO","BATON ROUGE","0","35386"
"POINT (-91.065677404312 30.385833121904)","173402","RAINBOW #138","7028 SIEGEN LN","BATON ROUGE","LOUISIANA","70809","448000",,,"RETAIL",,"NO","PARISH","0","34607"
"POINT (-91.107638384388 30.430530132732)","176165","RAFFAELE LTD","7602 OLD HAMMOND HWY","BATON ROUGE","LOUISIANA","70809","453000",,,"RETAIL",,"NO","BATON ROUGE","0","34595"
"POINT (-91.081489606459 30.431049560964)","147780","APPLEBEES # 9104","9702 AIRLINE HWY","BATON ROUGE","LOUISIANA","70809","722000",,,"RESTAURANT",,"YES","BATON ROUGE","0","24461"
"POINT (-91.085774906266 30.473751348548)","21560","TRENT STONES","9236 MAMMOTH AVE","BATON ROUGE","LOUISIANA","70814","238340",,,"CONSTRUCTION",,"NO","BATON ROUGE","0","37539"
"POINT (-91.112776686679 30.464106641372)","25638","M-PRINT ADVERTISING INC","1739 WOODDALE BLVD","BATON ROUGE","LOUISIANA","70806","339950",,,"MERCHANT","OFFICE SUPPLY STORE","NO","BATON ROUGE","0","33045"
"POINT (-91.035327196002 30.342769537319)","36221","DODSON, HOOKS & FREDERICK","112 FOUNDERS DR","BATON ROUGE","LOUISIANA","70810","541110",,,"COMMUNITY RESOURCE","LEGAL ASSISTANCE","NO","PARISH","0","37354"
"POINT (-91.10047158036 30.373907564773)","25798","LAW OFFICES OF PETER J LOSAVIO JR","8414 BLUEBONNET BLVD","BATON ROUGE","LOUISIANA","70810","541110",,,"COMMUNITY RESOURCE","LEGAL ASSISTANCE","NO","PARISH","0","33902"
"POINT (-91.051082485727 30.423355991575)","43175","KALMANS MARSHALL ENGINEERING, INC","3233 S SHERWOOD FOREST BLVD","BATON ROUGE","LOUISIANA","70816","541000",,,"PROFESSIONAL SERVICES",,"NO","BATON ROUGE","0","38937"
"POINT (-91.158191871817 30.39481736579)","51817","JOSEPH G DELATTE JR","172 LEE DR, STE 1","BATON ROUGE","LOUISIANA","70808","541000",,,"PROFESSIONAL SERVICES",,"NO","BATON ROUGE","0","33148"
"POINT (-91.077724998712 30.425140426403)","40848","METREON III LLC","9643 INTERLINE AVE","BATON ROUGE","LOUISIANA","70809","561110",,,"PROFESSIONAL SERVICES",,"NO","BATON ROUGE","0","11259"
"POINT (-91.112278347878 30.449926678377)","32712","BATON ROUGE SOCCER ASSOCIATION","142 LOBDELL AVE","BATON ROUGE","LOUISIANA","70806","713990","225-924-2157","http://brsa.org","COMMUNITY RESOURCE","SPORTS","NO","BATON ROUGE","0","909"
"POINT (-91.111718932353 30.465854341384)","29563","KELLERMAN WOODWORKS","1820 WOODDALE CT","BATON ROUGE","LOUISIANA","70806","339000",,,"CONSTRUCTION","ACCESSORY STORE","NO","BATON ROUGE","0","31206"
"POINT (-91.183500110197 30.447605989965)","12379","DEE ADAMS PH.D","763 NORTH BLVD","BATON ROUGE","LOUISIANA","70802","621000",,,"HEALTH CARE",,"NO","BATON ROUGE","0","33817"
"POINT (-91.049074967615 30.423838126172)","43413","NELSON PSYCHOLOGICAL SERVICES","11914 JUSTICE AVE","BATON ROUGE","LOUISIANA","70816","621330",,,"HEALTH CARE",,"NO","BATON ROUGE","0","31952"
"POINT (-91.099273232075 30.458586739773)","29911","METAL DEPOTS","8431 AIRLINE HWY","BATON ROUGE","LOUISIANA","70815","444000",,,"RETAIL","HOME IMPROVEMENT STORE","NO","BATON ROUGE","0","23424"
"POINT (-91.027788375618 30.543818767632)","163896","EDWARD JONES","14409 WAX RD, STE L","CENTRAL","LOUISIANA","70818","551000",,,"PROFESSIONAL SERVICES",,"NO","CENTRAL","0","28240"
"POINT (-91.08043865156 30.43037842744)","43757","B R AUTOPLEX","9712 AIRLINE HWY","BATON ROUGE","LOUISIANA","70809","441000",,,"AUTO","SALES","NO","BATON ROUGE","0","24801"
"POINT (-91.145030305758 30.419348110565)","27780","US LAWNS BATON ROUGE","3185 BALIS DR","BATON ROUGE","LOUISIANA","70808","541000",,,"PROFESSIONAL SERVICES","LEGAL ASSISTANCE","NO","BATON ROUGE","0","61362"
"POINT (-91.131479244186 30.424554691974)","149943","MINT HOME LLC","5720 CORPORATE BLVD, STE A","BATON ROUGE","LOUISIANA","70808","442000",,,"RETAIL","FURNITURE STORE","NO","BATON ROUGE","0","35385"
"POINT (-91.059607781491 30.459082034292)","174472","EASY MONEY EMG","11255 FLORIDA BLVD","BATON ROUGE","LOUISIANA","70815","521000",,,"FINANCIAL INSTITUTION",,"NO","BATON ROUGE","0","60466"
"POINT (-91.046183220218 30.354626592598)","39765","THE ROYAL STANDARD","16016 PERKINS RD","BATON ROUGE","LOUISIANA","70810","453000",,,"RETAIL",,"YES","PARISH","0","48436"
"POINT (-91.157574878698 30.593638767713)","1536","AUTOWORKS","4010 BAKER BLVD","BAKER","LOUISIANA","70714","811000",,,"AUTO","REPAIR","NO","BAKER","0","46060"
"POINT (-91.045121515853 30.46035292977)","28828","O REILLY AUTO PARTS #447","12384 FLORIDA BLVD","BATON ROUGE","LOUISIANA","70815","441000",,,"AUTO","AUTO PARTS","NO","BATON ROUGE","0","33402"
"POINT (-91.167171426222 30.667349743118)","192397","RC SPECIALTIES","6476 MAPLE ST","ZACHARY","LOUISIANA","70791","454000",,,"RETAIL",,"NO","ZACHARY","0","47037"
"POINT (-91.107919776737 30.430657006471)","151603","BOCAGE BARBER SHOP","7636 OLD HAMMOND HWY","BATON ROUGE","LOUISIANA","70809","812000",,,"PERSONAL SERVICES",,"NO","BATON ROUGE","0","25461"
"POINT (-91.160703622333 30.479238777927)","113288","CB TAX SERVICE","3401 PLANK RD","BATON ROUGE","LOUISIANA","70805","541213",,,"PROFESSIONAL SERVICES",,"NO","BATON ROUGE","0","30268"
"POINT (-91.14033100765 30.498412000436)","13607","CARESOUTH","5454 N FOSTER DR","BATON ROUGE","LOUISIANA","70805",,"225-650-2000",,"HEALTH CARE","FEDERALLY QUALIFIED HEALTH CENTERS","NO","BATON ROUGE","0","62830"
"POINT (-91.101716856975 30.444929978761)","25948","RKM BEREAVEMENT SERVICES","641 E AIRPORT AVE","BATON ROUGE","LOUISIANA","70806",,"225-636-2231",,"HEALTH CARE","FEDERALLY QUALIFIED HEALTH CENTERS","NO","BATON ROUGE","0","32787"
"POINT (-91.101777735649 30.371674233282)","25777","DELATTE, EDWARDS & MARCANTEL, LLP","8680 BLUEBONNET BLVD","BATON ROUGE","LOUISIANA","70810","541110",,,"COMMUNITY RESOURCE","LEGAL ASSISTANCE","NO","PARISH","0","37774"
"POINT (-91.114781750245 30.356586933243)","37478","WESTMINSTER ACADEMY #3","10079 BURBANK DR","BATON ROUGE","LOUISIANA","70810","624000",,,"COMMUNITY RESOURCE","CHILD DAY CARE","NO","PARISH","0","38217"
"POINT (-91.038960156177 30.396985573677)","179296","BETTS FINE ARTS","5936 STUMBERG LN","BATON ROUGE","LOUISIANA","70816","561000",,,"PROFESSIONAL SERVICES",,"NO","BATON ROUGE","0","25292"
"POINT (-91.184228893053 30.4451193703)","100303","KOCH LAW FIRM","615 LOUISIANA AVE","BATON ROUGE","LOUISIANA","70802","541000",,,"PROFESSIONAL SERVICES","LEGAL ASSISTANCE","NO","BATON ROUGE","0","24911"
"POINT (-91.074081502683 30.430717970295)","152789","806 KEYS","10122 KNIGHT'S BRIDGE CT","BATON ROUGE","LOUISIANA","70816","561000",,,"PROFESSIONAL SERVICES",,"NO","BATON ROUGE","0","23541"
"POINT (-91.092395032597 30.482115446811)","149379","LA PORTES AUTOMOTIVE","3412 WOODCREST DR","BATON ROUGE","LOUISIANA","70814","811121",,,"AUTO","REPAIR","NO","BATON ROUGE","0","27103"
"POINT (-91.183803974673 30.451455241476)","149005","DIVISION OF ADMINISTRATIVE LAW","654 MAIN ST","BATON ROUGE","LOUISIANA","70801","541110","225-342-1800","http://adminlaw.state.la.us","GOVERNMENT AGENCIES",,"NO","BATON ROUGE","0","12657"
"POINT (-91.081138640027 30.429830989028)","40867","ROTARY CLUB OF BATON ROUGE","9625 FENWAY AVE","BATON ROUGE","LOUISIANA","70809","624229","225-922-9940","http://rotarybr.org","COMMUNITY RESOURCE","EDUCATION","NO","BATON ROUGE","0","11393"
"POINT (-91.056789677299 30.470825661009)","25301","LED, INC","11386 DARRYL DR","BATON ROUGE","LOUISIANA","70815","323113",,,"INDUSTRIAL",,"NO","BATON ROUGE","0","50664"
"POINT (-91.047902422992 30.385483720833)","35206","LANEHART, INC","6530 EXCHEQUER DR","BATON ROUGE","LOUISIANA","70809","238320",,,"CONSTRUCTION",,"NO","PARISH","0","31627"
"POINT (-91.09544301614 30.571060165174)","189306","PLANET RECESS INC","13645 BROWN RD","BAKER","LOUISIANA","70714","453000",,,"RETAIL",,"NO","CENTRAL","0","49055"
"POINT (-91.113302028274 30.511042604279)","102352","KLASSY STYLES","7788 OAK ARBOR AVE","BATON ROUGE","LOUISIANA","70812","454000",,,"RETAIL",,"NO","PARISH","0","31352"
"POINT (-91.063053891188 30.410153173506)","21726","LOUPE MITCHELL EUROPEAN LTD","4452 JEFFREY DR","BATON ROUGE","LOUISIANA","70816","811111",,,"AUTO","REPAIR","NO","PARISH","0","1790"
"POINT (-91.138917358952 30.378060780152)","42536","GABRIELLA ROTHSCHILDS","7384 HIGHLAND RD","BATON ROUGE","LOUISIANA","70808","453220",,,"RETAIL",,"NO","BATON ROUGE","0","38493"
"POINT (-91.058761272541 30.412334565049)","66486","SOUTHPARK HOME","4236 SOUTHPARK DR","BATON ROUGE","LOUISIANA","70816","621000",,,"HEALTH CARE",,"NO","PARISH","0","60175"
"POINT (-91.112360495056 30.430354985011)","176160","PANDA RESTAURANT","7474 CORPORATE BLVD, STE 105","BATON ROUGE","LOUISIANA","70809","722211",,,"RESTAURANT",,"NO","BATON ROUGE","0","20432"
"POINT (-91.1169839844 30.474087744061)","14676","BATON ROUGE DRC #259","2751 WOODDALE BLVD","BATON ROUGE","LOUISIANA","70805","621000",,,"HEALTH CARE",,"NO","BATON ROUGE","0","41993"
"POINT (-91.133249450484 30.356094173204)","50497","CARLOS PADIAL REALTY","1753 MAST DR","BATON ROUGE","LOUISIANA","70820","531210",,,"PROFESSIONAL SERVICES","REAL ESTATE","NO","PARISH","0","21908"
"POINT (-91.048772047143 30.384166149357)","43000","QUANTUM TECHNICAL SERVICES","11940 INDUSTRIPLEX BLVD, STE 1","BATON ROUGE","LOUISIANA","70809","541330",,,"PROFESSIONAL SERVICES",,"NO","PARISH","0","61829"
"POINT (-91.080101875627 30.408574790059)","40326","ANGEL'S WINGS","4450 BLUEBONNET BLVD","BATON ROUGE","LOUISIANA","70809","453000",,,"RETAIL",,"NO","PARISH","0","37244"
"POINT (-91.152676807422 30.485374635301)","112098","EROTIC FANTAZIES LLC","3944 N 38TH ST","BATON ROUGE","LOUISIANA","70805","454000",,,"RETAIL",,"NO","BATON ROUGE","0","49836"
"POINT (-91.146106073852 30.595467050026)","93163","GREENWOOD PROPERTY MANAGEMENT","5173 BAKER BLVD","BAKER","LOUISIANA","70714","551000",,,"PROFESSIONAL SERVICES",,"NO","PARISH","0","29566"
"POINT (-91.111816145848 30.473074314705)","21340","DUTSCH ENGINE & TRANSMISSION","7623 E INDUSTRIAL AVE","BATON ROUGE","LOUISIANA","70814","811111",,,"AUTO","REPAIR","NO","BATON ROUGE","0","2977"
"POINT (-91.074222590584 30.404659886358)","69103","CYPRESS STATE TREE& STUMP REMOVAL","4812 FLOYNELL DR","BATON ROUGE","LOUISIANA","70809","111000",,,"AGRICULTURE",,"NO","PARISH","0","27302"
"POINT (-91.101191503172 30.422838990962)","155407","A FIRST NAME BASIS","7909 WRENWOOD BLVD, STE C","BATON ROUGE","LOUISIANA","70809","623990",,,"HEALTH CARE",,"NO","BATON ROUGE","0","17623"
"POINT (-91.17334513993 30.42727576721)","46885","EGO LLC","1017 E POLK ST","BATON ROUGE","LOUISIANA","70802","454000",,,"RETAIL",,"NO","BATON ROUGE","0","528"
"POINT (-91.03747100515 30.378810644248)","35916","DIAMOND ELECTRICAL CO INC","13050 AIRLINE HWY","BATON ROUGE","LOUISIANA","70809","238000",,,"CONSTRUCTION",,"NO","PARISH","0","37414"
"POINT (-90.956523983636 30.687248749608)","8823","CREATED BY TINA","23045 CARSON RD","ZACHARY","LOUISIANA","70791","454000",,,"RETAIL",,"NO","PARISH","0","47207"
"POINT (-91.159637285716 30.481772825745)","19060","L C AUTO REPAIR","3659 PLANK RD","BATON ROUGE","LOUISIANA","70805","811000",,,"AUTO","REPAIR","NO","BATON ROUGE","0","31442"
"POINT (-91.168304019911 30.47583745943)","145548","CYPRESS REAL ESTATE","3060 SCENIC HWY","BATON ROUGE","LOUISIANA","70805","531210",,,"PROFESSIONAL SERVICES","REAL ESTATE","NO","BATON ROUGE","0","13014"
"POINT (-91.166339682606 30.591252124048)","3516","CITY OF BAKER PUBLIC WORKS DEPT - CENTRAL GARAGE AND CENTRAL STORES","1507 MISSISSIPPI AVE","BAKER","LOUISIANA","70714","811000",,,"REPAIR",,"NO","BAKER","0","40480"
"POINT (-91.058501312588 30.433919523381)","194425","FABRIC CRAZY QUILT SHOP","2116 S SHERWOOD FOREST BLVD","BATON ROUGE","LOUISIANA","70816","451130",,,"RETAIL",,"NO","BATON ROUGE","0","18455"
"POINT (-91.016380714945 30.402337430443)","38386","KWIK STOP","5605 JONES CREEK RD","BATON ROUGE","LOUISIANA","70817","447110",,,"RETAIL","SNAP RETAILER","YES","PARISH","0","2142"
"POINT (-91.054870851776 30.411059410893)","73065","HUNT'S FLOWERS","11480 COURSEY BLVD","BATON ROUGE","LOUISIANA","70816","453110",,,"RETAIL",,"NO","PARISH","0","4264"
"POINT (-91.05437720384 30.413489769803)","28366","AT&T","4455 AMERICAN WAY","BATON ROUGE","LOUISIANA","70816","517110",,,"COMMUNICATIONS",,"NO","PARISH","0","14717"
"POINT (-91.109598193633 30.466682957366)","134567","FASTENER SOLUTIONS INC","1833 BEAUMONT DR","BATON ROUGE","LOUISIANA","70806","423000",,,"DISTRIBUTOR",,"NO","BATON ROUGE","0","28710"
"POINT (-91.081326117896 30.449962096249)","129308","WIL DO REMODELING AND FLOORING","449 CORA DR","BATON ROUGE","LOUISIANA","70815","238000",,,"CONSTRUCTION",,"NO","BATON ROUGE","0","47285"
"POINT (-91.184569698952 30.453445162126)","101210","FOUNTAIN GROUP ADJUSTERS","650 N 6TH ST","BATON ROUGE","LOUISIANA","70802","524291",,,"PROFESSIONAL SERVICES","INSURANCE","NO","BATON ROUGE","0","7928"
"POINT (-91.101175508736 30.368621397485)","89485","LAURA L'HERISSON PHD","10720 N OAK HILLS PKWY","BATON ROUGE","LOUISIANA","70810","621000",,,"HEALTH CARE",,"NO","PARISH","0","37857"
"POINT (-91.177088433475 30.520741641567)","12902","GREATER BATON ROUGE BLACK PAGES","1553 HARDING BLVD","BATON ROUGE","LOUISIANA","70807","511140",,,"MEDIA",,"NO","BATON ROUGE","0","14169"
"POINT (-91.169909515251 30.389166551588)","158710","JIMMY JOHNS STORE #2339","1082 W LEE DR, STE A","BATON ROUGE","LOUISIANA","70820","722000",,,"RESTAURANT",,"NO","BATON ROUGE","0","40807"
"POINT (-91.057583518979 30.467851763639)","25383","TONYS AUTO SALES","2078 N SHERWOOD FOREST DR","BATON ROUGE","LOUISIANA","70815","441120",,,"AUTO","SALES","NO","BATON ROUGE","0","37406"
"POINT (-91.081876056034 30.534906316682)","945","AMERICAN FARMHOUSE PRODUCE AND GRILL","9550 HOOPER RD","CENTRAL","LOUISIANA","70818","722000",,,"RESTAURANT",,"NO","CENTRAL","0","46210"
"POINT (-91.167700458977 30.470096819426)","181975","V'S CAF & SEAFOOD MARKET","2500 SCENIC HWY","BATON ROUGE","LOUISIANA","70805","722110",,,"RESTAURANT",,"NO","BATON ROUGE","0","8554"
"POINT (-91.023214826167 30.367340473352)","173013","WAVE ELECTRONICS","14141 AIRLINE HWY, STE 2J-P","BATON ROUGE","LOUISIANA","70817","423000",,,"DISTRIBUTOR",,"NO","PARISH","0","38452"
"POINT (-91.1041426072 30.451532997994)","41871","JACK IN THE BOX #6329","8110 FLORIDA BLVD","BATON ROUGE","LOUISIANA","70806","722000",,,"RESTAURANT",,"NO","BATON ROUGE","0","30639"
"POINT (-91.003819610947 30.368730734359)","77991","MASTERJACK LLC","8946 SASSAFRAS DR","BATON ROUGE","LOUISIANA","70817","238000",,,"CONSTRUCTION",,"NO","PARISH","0","39400"
"POINT (-91.026681713098 30.341171741219)","41378","ALL SERVICES STORAGE & TRANSPORT LLC","457 HIGHLANDIA DR","BATON ROUGE","LOUISIANA","70810","484000",,,"WAREHOUSING",,"NO","PARISH","0","24118"
"POINT (-91.050364030861 30.420989332955)","43192","BRAZELTON&BRAZELTON INC","3535 S SHERWOOD FOREST BLVD","BATON ROUGE","LOUISIANA","70816","561110",,,"PROFESSIONAL SERVICES",,"NO","BATON ROUGE","0","39029"
"POINT (-91.096640018348 30.446075732882)","34475","ORAL & MAXILLOFACIAL SURGICAL ASSOCIATION","614 CONNELL'S PARK LN","BATON ROUGE","LOUISIANA","70806","813920",,,"CIVIC ORGANIZATION",,"NO","BATON ROUGE","0","34947"
"POINT (-91.103467839426 30.452605576067)","153495","KASEDS INTERNATIONAL MARKET","8133 FLORIDA BLVD","BATON ROUGE","LOUISIANA","70806","445000",,,"RETAIL","SNAP RETAILER","NO","BATON ROUGE","0","41313"
"POINT (-91.089256459529 30.44246312842)","25014","KWIK STOP","9110 AIRLINE HWY","BATON ROUGE","LOUISIANA","70815","447110",,,"RETAIL","CONVENIENCE STORE","YES","BATON ROUGE","0","2142"
"POINT (-91.104563972902 30.363655052999)","41611","UNITED TITLE","9311 BLUEBONNET BLVD","BATON ROUGE","LOUISIANA","70810","541191",,,"PROFESSIONAL SERVICES",,"NO","PARISH","0","62439"
"POINT (-91.005828945158 30.481111752898)","139986","ANALYTI GAL","3226 TORONTO DR","BATON ROUGE","LOUISIANA","70819","561000",,,"PROFESSIONAL SERVICES",,"NO","PARISH","0","24320"
"POINT (-91.093704308846 30.417840118475)","149924","LAW OFFICES","8708 JEFFERSON HWY","BATON ROUGE","LOUISIANA","70809","541110",,,"COMMUNITY RESOURCE","LEGAL ASSISTANCE","NO","PARISH","0","36346"
"POINT (-91.050364030861 30.420989332955)","43184","US GEOLOGICAL SURVEY","3535 S SHERWOOD FOREST BLVD","BATON ROUGE","LOUISIANA","70816","928120",,,"GOVERNMENT AGENCIES",,"NO","BATON ROUGE","0","39029"
"POINT (-91.060392437544 30.471320890677)","29697","AMCAT GLOBAL INC","11125 DARRYL DR","BATON ROUGE","LOUISIANA","70815","236220",,,"CONSTRUCTION",,"NO","BATON ROUGE","0","17258"
"POINT (-91.137421672248 30.421403838706)","41453","ON HOLD COMMUNICATIONS","4637 JAMESTOWN AVE","BATON ROUGE","LOUISIANA","70808","541000",,,"PROFESSIONAL SERVICES",,"NO","BATON ROUGE","0","33482"
"POINT (-91.087587747779 30.475615580146)","177898","GLS SERVICE, L.L.C.","2935 CRATER LAKE DR","BATON ROUGE","LOUISIANA","70814","541620",,,"PROFESSIONAL SERVICES",,"NO","BATON ROUGE","0","29122"
"POINT (-91.082574608654 30.400868890856)","43933","SUPERIOR HOME HEALTH CARE, INC.","5151 BLUEBONNET BLVD","BATON ROUGE","LOUISIANA","70809","621610",,,"HEALTH CARE","HOME HEALTH","NO","PARISH","0","27971"
"POINT (-91.143084196499 30.455533931768)","140402","SHOPPING BEES","770 N 46TH ST","BATON ROUGE","LOUISIANA","70802","454000",,,"RETAIL",,"NO","BATON ROUGE","0","38948"
"POINT (-91.09814206956 30.446732467838)","119441","BRPT-LAKE REHABILITATION CTR","503 COLONIAL DR","BATON ROUGE","LOUISIANA","70806","541000",,,"PROFESSIONAL SERVICES",,"NO","BATON ROUGE","0","25728"
"POINT (-91.023726235679 30.560511517809)","192483","SOUTHERN STYLE OFFROAD LLC","14919 HOOPER RD","CENTRAL","LOUISIANA","70818","442000",,,"RETAIL","FURNITURE STORE","NO","CENTRAL","0","47604"
"POINT (-91.101716856975 30.444929978761)","25945","B R DENTAL SPECIALISTS","641 E AIRPORT AVE","BATON ROUGE","LOUISIANA","70806","621000",,,"HEALTH CARE",,"NO","BATON ROUGE","0","32787"
"POINT (-91.169303574075 30.510403372439)","93189","THE PAINTER MILDEW BUSTER","2167 KAUFMAN ST","BATON ROUGE","LOUISIANA","70807","238000",,,"CONSTRUCTION",,"NO","BATON ROUGE","0","40762"
"POINT (-91.106906495776 30.403484085181)","148166","O L O L AUXILIARY GIFT SHOP","5000 HENNESSY BLVD","BATON ROUGE","LOUISIANA","70808","453000",,,"RETAIL",,"NO","BATON ROUGE","0","17084"
"POINT (-91.052876173203 30.425943943631)","5421","DOUBLE PLAY CARDS & COMICS","2834 S SHERWOOD FOREST BLVD","BATON ROUGE","LOUISIANA","70816","451120",,,"RETAIL",,"NO","BATON ROUGE","0","10978"
"POINT (-91.160415282183 30.499907940292)","115545","HOLDEN'S GROCERY & PACKAGE","5520 DOUGLAS AVE","BATON ROUGE","LOUISIANA","70805","445110","225-356-6945",,"RETAIL","GAS STATION","YES","BATON ROUGE","0","4163"
"POINT (-91.055424170665 30.418056078325)","153833","YWCA GREATER BATON ROUGE","11404 LAKE SHERWOOD AVE N","BATON ROUGE","LOUISIANA","70816","813000","225-383-0681","http://ywca-br.org","COMMUNITY RESOURCE","DIAPER BANKS","NO","PARISH","0","47692"
"POINT (-91.152075481801 30.667403943176)","191552","ONE STOP AUTO CORES AND RECYCLING","6760 ZACHARY-SLAUGHTER HWY","ZACHARY","LOUISIANA","70791","441000",,,"AUTO","AUTO PARTS","NO","ZACHARY","0","47066"
"POINT (-91.115133139125 30.467532010382)","20586","A HAMILTON PLATINUM FUNERAL SVC","2055 WOODDALE BLVD","BATON ROUGE","LOUISIANA","70806","812000",,,"PERSONAL SERVICES",,"NO","BATON ROUGE","0","23753"
"POINT (-91.023358672902 30.338319609403)","156640","COUNTRY CLUB OF LOUISIANA MAINTENANCE","855 HIGHLANDIA DR","BATON ROUGE","LOUISIANA","70810","561730",,,"PROFESSIONAL SERVICES",,"NO","PARISH","0","2436"
"POINT (-91.034546238119 30.448894513112)","149129","EAGLE CLEANERS","1097 S FLANNERY RD, STE C","BATON ROUGE","LOUISIANA","70815","453000",,,"RETAIL",,"NO","BATON ROUGE","0","28120"
"POINT (-91.083257234801 30.400993786873)","175295","MY OFFICE PRODUCTS INC","5141 BLUEBONNET BLVD","BATON ROUGE","LOUISIANA","70809","453000",,,"RETAIL",,"NO","PARISH","0","33102"
"POINT (-91.130131983694 30.50004276285)","179941","CASH AMERICA PAWN OF BR#4","6074 AIRLINE HWY","BATON ROUGE","LOUISIANA","70805","453000",,,"RETAIL",,"NO","BATON ROUGE","0","1852"
"POINT (-91.066751467901 30.457888627841)","164924","MATHERNE'S MARKET AT LSU 005","10655 FLORIDA BLVD, STE A","BATON ROUGE","LOUISIANA","70815","445000",,,"RETAIL","SNAP RETAILER","YES","BATON ROUGE","0","50306"
"POINT (-91.179700690005 30.531715151417)","9221","SCOTLANDVILLE CONVENIENCE STORE","1375 ROSENWALD RD","BATON ROUGE","LOUISIANA","70807","445000","225-774-1062",,"RETAIL","GAS STATION","YES","BATON ROUGE","0","6737"
"POINT (-91.052945508999 30.385639940672)","35723","KENCO ENGINEERING","11616 INDUSTRIPLEX BLVD, STE 1","BATON ROUGE","LOUISIANA","70809","541330",,,"PROFESSIONAL SERVICES",,"NO","PARISH","0","39898"
"POINT (-91.168180143744 30.465118772853)","18480","PETERS GROCERY","1915 SCENIC HWY","BATON ROUGE","LOUISIANA","70802","445110","225-346-6868",,"RETAIL","CONVENIENCE STORE","YES","BATON ROUGE","0","33910"
"POINT (-91.186456193064 30.444731937797)","24524","OFFICE OF NATHAN FISHER LLC","301 SAINT FERDINAND ST","BATON ROUGE","LOUISIANA","70802","541000",,,"PROFESSIONAL SERVICES",,"NO","BATON ROUGE","0","38281"
"POINT (-91.00003936649 30.466881901154)","42009","MAGNOLIA CARE CENTER VETERANS HOME","16950 FLORIDA BLVD","BATON ROUGE","LOUISIANA","70816","623000",,,"HEALTH CARE","ELDERLY SERVICES","NO","PARISH","0","32309"
"POINT (-91.054376351862 30.4629466848)","129809","CHESTER & SON ELECTRICAL LLC","11618 WILLOW OAK AVE","BATON ROUGE","LOUISIANA","70815","238000",,,"CONSTRUCTION",,"NO","BATON ROUGE","0","26434"
"POINT (-91.112586201134 30.433120950594)","148033","GAP KIDS #671","7455 CORPORATE BLVD","BATON ROUGE","LOUISIANA","70806","453000",,,"RETAIL",,"NO","BATON ROUGE","0","38960"
"POINT (-91.008508456634 30.436662699114)","148720","DOLLAR TREE STORES INC #2754","2170 O'NEAL LN","BATON ROUGE","LOUISIANA","70816","453000","225-751-5123","http://dollartree.com","RETAIL","SNAP RETAILER","NO","BATON ROUGE","0","27866"
"POINT (-91.00947218244 30.468088608853)","157738","RINKER MATERIALS HYDROCONDUIT","16125 FLORIDA BLVD","BATON ROUGE","LOUISIANA","70819","237120",,,"CONSTRUCTION",,"NO","BATON ROUGE","0","27190"
"POINT (-91.097122911047 30.38148527453)","163472","DXI HEALTH SOLUTIONS","7516 BLUEBONNET BLVD, STE 434","BATON ROUGE","LOUISIANA","70810","446000",,,"HEALTH CARE",,"NO","PARISH","0","46891"
"POINT (-91.150347416116 30.506569899517)","21086","TIRE ZONE","6168 PLANK RD","BATON ROUGE","LOUISIANA","70805","811000",,,"AUTO","REPAIR","NO","BATON ROUGE","0","39066"
"POINT (-91.143589848115 30.429730598471)","110814","THE MATTRESS OUTLET","4444 WOODSIDE DR","BATON ROUGE","LOUISIANA","70808","442000",,,"RETAIL","FURNITURE STORE","NO","BATON ROUGE","0","47379"
"POINT (-91.10399922829 30.396685366847)","69741","HOSPICE ASSOCIATES","8119 PICARDY AVE","BATON ROUGE","LOUISIANA","70809","621610",,,"HEALTH CARE",,"NO","PARISH","0","18782"
"POINT (-91.054458307357 30.547471903713)","192714","MCDONALD'S","11989 HOOPER RD","CENTRAL","LOUISIANA","70818","722000",,,"RESTAURANT","FAST FOOD","NO","CENTRAL","0","5558"
"POINT (-91.13806714643 30.498429735154)","121261","ALEXANDER HARVEY HOMES","5222 HOLLYWOOD ST","BATON ROUGE","LOUISIANA","70805","623311",,,"HEALTH CARE",,"NO","BATON ROUGE","0","62147"
"POINT (-91.065685155599 30.432905096674)","176312","RAINBOW DELITES LLC","10770 N HARRELL'S FERRY RD","BATON ROUGE","LOUISIANA","70816","445000",,,"RETAIL",,"NO","BATON ROUGE","0","34613"
"POINT (-91.08310713424 30.43403020917)","23979","HAMMOND AIRE AUTO SPA","9614 AIRLINE HWY","BATON ROUGE","LOUISIANA","70815","811192",,,"AUTO","CAR WASH","NO","BATON ROUGE","0","3977"
"POINT (-91.139180068205 30.649474718795)","193062","RADIATION ONCOLOGY CENTER","6180 MAIN ST","ZACHARY","LOUISIANA","70791","621000",,,"HEALTH CARE",,"NO","ZACHARY","0","47041"
"POINT (-91.115708115758 30.434328293201)","32732","BAUMANN/SCRANTZ REAL ESTATE","7125 JEFFERSON HWY","BATON ROUGE","LOUISIANA","70806","531000",,,"PROFESSIONAL SERVICES","REAL ESTATE","NO","BATON ROUGE","0","25230"
"POINT (-91.045397744572 30.387487872375)","146607","ORKIN EXTERMINATING CO INC","12030 LAKELAND PARK BLVD, STE 129","BATON ROUGE","LOUISIANA","70809","561710",,,"PROFESSIONAL SERVICES",,"NO","PARISH","0","6182"
"POINT (-91.134239098595 30.424479500968)","39130","GEOSYNTEC CONSULTANTS INC","5420 CORPORATE BLVD","BATON ROUGE","LOUISIANA","70808","541000",,,"PROFESSIONAL SERVICES",,"NO","BATON ROUGE","0","38735"
"POINT (-91.138772313031 30.454231869869)","124108","EDWARD A ROBINSON III","600 N FOSTER DR","BATON ROUGE","LOUISIANA","70806","541000",,,"PROFESSIONAL SERVICES",,"NO","BATON ROUGE","0","28234"
"POINT (-91.023855907271 30.429322346414)","39584","TIGER BAIT","14546 S HARRELL'S FERRY RD","BATON ROUGE","LOUISIANA","70816","722000",,,"RESTAURANT",,"YES","BATON ROUGE","0","46942"
"POINT (-91.175456982322 30.447707733333)","140271","PRINCE HALL MASONIC TEMPLE","1335 NORTH BLVD","BATON ROUGE","LOUISIANA","70802","813410",,,"CIVIC ORGANIZATION",,"NO","BATON ROUGE","0","14916"
"POINT (-91.128793522363 30.423708622743)","161416","HOFBRAUHAUS ROUGE","2561 CITIPLACE CT, STE 300","BATON ROUGE","LOUISIANA","70808","722000",,,"BAR/NIGHTCLUB/LOUNGE",,"NO","BATON ROUGE","0","40576"
"POINT (-91.023403977425 30.444985929511)","146974","OFFICE DEPOT #2742","1651 MILLERVILLE RD","BATON ROUGE","LOUISIANA","70816","453000",,,"RETAIL",,"NO","PARISH","0","33438"
"POINT (-91.169377222499 30.414817487976)","28225","SMOOTHIE KING 686","3810 W LAKESHORE DR","BATON ROUGE","LOUISIANA","70808","722000",,,"RESTAURANT",,"NO","LSU","0","49794"
"POINT (-91.015327469935 30.410469313293)","173744","SUTTONS DRY CLEANERS","4733 JONES CREEK RD, STE A","BATON ROUGE","LOUISIANA","70817","812320",,,"LAUNDROMAT",,"NO","PARISH","0","36593"
"POINT (-91.093984360132 30.393606201749)","26027","CVT SURGICAL CENTER AMC","8595 PICARDY AVE","BATON ROUGE","LOUISIANA","70809","541000",,,"PROFESSIONAL SERVICES",,"NO","BATON ROUGE","0","38741"
"POINT (-91.101468905594 30.369619213651)","40818","WILLIAM CALKINS & ASSOCIATES","10621 N OAK HILLS PKWY","BATON ROUGE","LOUISIANA","70810","621330",,,"HEALTH CARE",,"NO","PARISH","0","61354"
"POINT (-91.133778280271 30.501929555585)","174967","DA'BOO'S NEIGHBORHOOD THRIFT STORE","5705 HOLLYWOOD-GREENWELL XOVR","BATON ROUGE","LOUISIANA","70805","452112",,,"RETAIL",,"NO","BATON ROUGE","0","22985"
"POINT (-91.020938866458 30.464149144489)","27060","PORT CITY AUTO SALES","14856 FLORIDA BLVD","BATON ROUGE","LOUISIANA","70819","441120",,,"AUTO","SALES","NO","PARISH","0","6657"
"POINT (-91.016218296131 30.455652942439)","5640","SALON DIVAS HAIRCARE","15254 OLD HAMMOND HWY, STE A2","BATON ROUGE","LOUISIANA","70816","812112",,,"PERSONAL SERVICES","HAIR SALON","NO","PARISH","0","19997"
"POINT (-91.100344244287 30.40505853883)","163820","BAVARIAN SPECIALTIES INC","8116 ONE CALAIS AVE, STE 2B","BATON ROUGE","LOUISIANA","70809","441000",,,"AUTO","SALES","NO","PARISH","0","46879"
"POINT (-91.114192837093 30.397279673683)","85804","INVESTAR BANK","7244 PERKINS RD","BATON ROUGE","LOUISIANA","70808","521000",,,"FINANCIAL INSTITUTION","BANK","NO","BATON ROUGE","0","30489"
"POINT (-91.113043079025 30.40435555098)","27098","MEDICAL PLAZA IV","5214 O'DONOVAN DR","BATON ROUGE","LOUISIANA","70808","623210",,,"HEALTH CARE",,"NO","BATON ROUGE","0","20037"
"POINT (-91.109820194018 30.399130038771)","27101","RENAL ASSOCIATES ACCESS CENTER","7638 PICARDY AVE, STE A","BATON ROUGE","LOUISIANA","70808","621000",,,"HEALTH CARE",,"NO","BATON ROUGE","0","34856"
"POINT (-91.119256641521 30.526480512246)","175276","CARPENTERS TRAILER PARK","7158 HOOPER RD","BATON ROUGE","LOUISIANA","70811","531190",,,"MOBILE HOME PARK",,,"PARISH","0","66227"
"POINT (-91.104895604156 30.424161775707)","39892","NAQUIN & WARD, ATTY","8034 JEFFERSON HWY","BATON ROUGE","LOUISIANA","70809","541110",,,"COMMUNITY RESOURCE","LEGAL ASSISTANCE","NO","PARISH","0","38283"
"POINT (-91.187225969158 30.440225551354)","109427","SPENCER CALLAHAN INJURY LAWYERS","827 SAINT LOUIS ST","BATON ROUGE","LOUISIANA","70802","541110",,,"COMMUNITY RESOURCE","LEGAL ASSISTANCE","NO","BATON ROUGE","0","31710"
"POINT (-91.156904811565 30.423909862403)","153418","FRANK & BENNYS BEAUTY SALON","3129 PERKINS RD","BATON ROUGE","LOUISIANA","70808","812112",,,"PERSONAL SERVICES","HAIR SALON","NO","BATON ROUGE","0","12030"
"POINT (-91.063890949844 30.416045778154)","31275","JBC CONSTRUCTION LLC","10500 COURSEY BLVD","BATON ROUGE","LOUISIANA","70816","236000",,,"CONSTRUCTION",,"NO","PARISH","0","29255"
"POINT (-91.122107312553 30.472403550448)","14169","VU'S MILLWORKS","6767 GREENWELL SPRINGS RD","BATON ROUGE","LOUISIANA","70805",,,,"MANUFACTURING",,"NO","BATON ROUGE","0","8674"
"POINT (-91.187785643777 30.421427256567)","51670","DOC'S LAUNDRY & LINEN","2922 NICHOLSON DR","BATON ROUGE","LOUISIANA","70802","812320",,,"LAUNDROMAT",,"NO","BATON ROUGE","0","2844"
"POINT (-91.05805824387 30.394666229594)","173728","SUPERMARCADO","6031 SIEGEN LN, STE C","BATON ROUGE","LOUISIANA","70809","722000",,,"RESTAURANT",,"YES","PARISH","0","12296"
"POINT (-91.055838776733 30.413654434202)","24481","CAPITAL ONE BANK","11221 COURSEY BLVD","BATON ROUGE","LOUISIANA","70816","522110",,,"FINANCIAL INSTITUTION","BANK","NO","PARISH","0","4102"
"POINT (-91.150347416116 30.506569899517)","21089","CAJUN NOVELTIES LLC","6168 PLANK RD","BATON ROUGE","LOUISIANA","70805","453000",,,"RETAIL","CONVENIENCE STORE","NO","BATON ROUGE","0","39066"
"POINT (-91.110249744555 30.467489290386)","27817","MARTIN PRODUCTS INC","1947 BEAUMONT DR","BATON ROUGE","LOUISIANA","70806","326000",,,"INDUSTRIAL",,"NO","BATON ROUGE","0","32457"
"POINT (-90.978110025361 30.401332644432)","87286","PHYSICAL THERAPY SPECIALIST","19224 GREEN HERON DR","BATON ROUGE","LOUISIANA","70817","621000",,,"HEALTH CARE",,"NO","PARISH","0","33953"
"POINT (-91.074833944898 30.489060147861)","21552","DONNAS CREATIVE HAIR","9884 GREENWELL SPRINGS RD, STE A","BATON ROUGE","LOUISIANA","70814","812113",,,"PERSONAL SERVICES","NAIL SALON","NO","BATON ROUGE","0","25561"
"POINT (-91.078480096934 30.449909159116)","135062","CREATIVE GARMENT PRINTING","9816 S RIVER OAKS DR","BATON ROUGE","LOUISIANA","70815","815000",,,"MERCHANT","OFFICE SUPPLY STORE","NO","BATON ROUGE","0","27122"
"POINT (-90.998521984636 30.351702165139)","37163","CAJUN INDUSTRIES LLC","15635 AIRLINE HWY","BATON ROUGE","LOUISIANA","70817","236000",,,"CONSTRUCTION",,"NO","PARISH","0","33667"
"POINT (-91.047977357624 30.359442568844)","37286","CAJUN READY MIX","15445 OLD PERKINS RD","BATON ROUGE","LOUISIANA","70810","339000",,,"INDUSTRIAL",,"NO","PARISH","0","36505"
"POINT (-91.050953884881 30.389833347971)","94900","ROCHES LAWN AND LANDSCAPE","6133 BENEFIT DR","BATON ROUGE","LOUISIANA","70809","815000",,,"PROFESSIONAL SERVICES","LANDSCAPE","NO","PARISH","0","49172"
"POINT (-91.068852337757 30.394325343638)","69809","TERITO REAL ESTATE LLC","10535 RIDGEBROOK AVE","BATON ROUGE","LOUISIANA","70809","531000",,,"PROFESSIONAL SERVICES","REAL ESTATE","NO","PARISH","0","40844"
"POINT (-91.137189327234 30.471103798682)","14923","UNIQUE AUTO REPAIR","5349 CHOCTAW DR","BATON ROUGE","LOUISIANA","70805","811000",,,"AUTO","REPAIR","NO","BATON ROUGE","0","37728"
"POINT (-91.052842430454 30.425270118861)","87469","THE STORAGE CENTER","2914 S SHERWOOD FOREST BLVD","BATON ROUGE","LOUISIANA","70816","453000",,,"RETAIL",,"NO","BATON ROUGE","0","37178"
"POINT (-91.065714897385 30.394253519601)","82889","PERPETUAL HEALTHCARE SERVICES LLC","10536 FERNBROOK AVE","BATON ROUGE","LOUISIANA","70809","541000",,,"PROFESSIONAL SERVICES",,"NO","PARISH","0","33885"
"POINT (-91.183778574867 30.441173163842)","33712","DREW M LOUVIERE","744 NAPOLEON ST","BATON ROUGE","LOUISIANA","70802","541000",,,"PROFESSIONAL SERVICES",,"NO","BATON ROUGE","0","27993"
"POINT (-91.124985493513 30.471259802354)","14166","GLENS AUTOMOTIVE","6489 CHOCTAW DR","BATON ROUGE","LOUISIANA","70805","811121",,,"AUTO","REPAIR","NO","BATON ROUGE","0","16901"
"POINT (-91.154629734608 30.408043744609)","82448","ESQUIRE LIMO LLC","1217 ABERDEEN AVE","BATON ROUGE","LOUISIANA","70808","485000",,,"SHIPPING",,"NO","BATON ROUGE","0","48371"
"POINT (-91.083160429865 30.42890536343)","139317","LOUISIANA HOSPITAL ASSOCIATION","2334 WEYMOUTH DR","BATON ROUGE","LOUISIANA","70809","813920",,,"CIVIC ORGANIZATION",,"NO","BATON ROUGE","0","11357"
"POINT (-91.090963646188 30.36849098394)","56516","HERE'S TO YOUR HEALTH","1347 RUE DESIREE","BATON ROUGE","LOUISIANA","70810","446000",,,"HEALTH CARE",,"NO","PARISH","0","34325"
"POINT (-91.113003185863 30.39417371367)","42469","CORRECT AND RECOVERY","7324 ALBERTA DR","BATON ROUGE","LOUISIANA","70808","541611",,,"PROFESSIONAL SERVICES",,"NO","BATON ROUGE","0","34344"
"POINT (-91.005935046404 30.445515471327)","42559","HOBBY LOBBY CREATIVE CENTER #148","1683 O'NEAL LN","BATON ROUGE","LOUISIANA","70816","451000",,,"RETAIL",,"NO","PARISH","0","30055"
"POINT (-91.123339627748 30.553797768768)","109879","CHAMPION LAWNS","6620 CELIA AVE","BATON ROUGE","LOUISIANA","70811","815000",,,"PROFESSIONAL SERVICES","LANDSCAPE","NO","PARISH","0","48141"
"POINT (-91.092415777874 30.439662952168)","117024","SNEAUXBALL KING OF BATON ROUGE LLC","8823 BAYSIDE AVE","BATON ROUGE","LOUISIANA","70806","445000",,,"RESTAURANT",,"NO","BATON ROUGE","0","46057"
"POINT (-91.109216134828 30.431714816364)","33000","CALDWELL MARKETING GROUP","7575 JEFFERSON HWY","BATON ROUGE","LOUISIANA","70806","453000",,,"RETAIL",,"NO","BATON ROUGE","0","38744"
"POINT (-91.179760566123 30.451880703805)","16507","CITY CITRUS","500 N 10TH ST","BATON ROUGE","LOUISIANA","70802",,"(225) 381-0037","http://citycitrus.com/","FOOD ACCESS","PUBLIC ORCHARD","NO","BATON ROUGE","0","43482"
"POINT (-91.080898016684 30.405226359425)","161797","MATTHEWS JOHNNIE LAW OFFICES","4705 BLUEBONNET BLVD, STE A","BATON ROUGE","LOUISIANA","70809","541110",,,"COMMUNITY RESOURCE","LEGAL ASSISTANCE","NO","PARISH","0","5538"
"POINT (-91.112542216102 30.434767499798)","2242","SHERRY V SMELLEY BCSW","7341 JEFFERSON HWY, STE M","BATON ROUGE","LOUISIANA","70806","541000",,,"PROFESSIONAL SERVICES",,"NO","BATON ROUGE","0","35398"
"POINT (-91.110368007733 30.399445944766)","27113","PRESTIGIACOMO JOHN MD","7612 PICARDY AVE","BATON ROUGE","LOUISIANA","70808","621111",,,"HEALTH CARE",,"NO","BATON ROUGE","0","35967"
"POINT (-91.19501377521 30.386448968265)","98120","JOHN BALLANCE PHOTOGRAPHY","3036 VALCOUR AIME AVE","BATON ROUGE","LOUISIANA","70820","541000",,,"PROFESSIONAL SERVICES",,"NO","BATON ROUGE","0","30925"
"POINT (-91.020041968565 30.453765171088)","26234","LAKEMONT CARWASH","1025 LAKEMONT DR","BATON ROUGE","LOUISIANA","70816","811192",,,"AUTO","REPAIR","NO","PARISH","0","16797"
"POINT (-91.02245787671 30.348816339525)","97148","ABILITIES FOR SPEECH & LANGUAGE","18268 PETROLEUM DR","BATON ROUGE","LOUISIANA","70809","621000",,,"HEALTH CARE",,"NO","PARISH","0","23721"
"POINT (-91.103703529762 30.368289969979)","24727","THE MORAN GROUP OF BATON ROUGE","8900 BLUEBONNET BLVD","BATON ROUGE","LOUISIANA","70810","541000",,,"PROFESSIONAL SERVICES",,"NO","PARISH","0","37073"
