"parkid","park_name","full_address","city","state","zip","classification","website","acreage","airgun_range","airnasium","archery_range","indoor_basketball","outdoor_basketball","bike_repair_station","bird_watching_wildlife_viewing","blueway_trailhead","bmx_track","canoe_kayak_launch","cricket_pitch","croquet_court","disc_golf","dog_park","equestrian","fishing_access","fitness_center","fitness_station_outdoor","garden_aboretum","golf_course_9_hole","golf_course_18_hole","greenway_trailhead","mountain_bike_trail","multi_purpose_ball_field","nature_trail","pavilion","playgound","primitive_trail","rec_center","rugby_field","rv_park","sand_volleyball","shuffleboard","skate_park","soccer_field","spray_pad","stadium","swimming_pool","tennis_center","tennis_court","velodrome","walking_loop_outdoor","walking_track_indoor","geolocation"
"ACTWY","ACADIAN THRUWAY PARK","2751 N ACADIAN THWY W","BATON ROUGE","LOUISIANA","70805","Neighborhood","http://www.brec.org/index.cfm/park/AcadianThruway","0.64100000000000001","NO","NO","NO","NO","YES","NO","NO","NO","NO","NO","NO","NO","NO","NO","NO","NO","NO","NO","NO","NO","NO","NO","NO","NO","NO","NO","YES","NO","NO","NO","NO","NO","NO","NO","NO","NO","NO","NO","NO","NO","NO","YES","NO","POINT (-91.156551 30.472717)"
"ALAST","ALASKA STREET PARK","3014 ALASKA ST","BATON ROUGE","LOUISIANA","70802","Neighborhood","http://www.brec.org/index.cfm/park/AlaskaStreet","2.7409999999999997","NO","NO","NO","YES","YES","NO","NO","NO","NO","NO","NO","NO","NO","NO","NO","NO","NO","NO","NO","NO","NO","NO","NO","NO","NO","NO","YES","NO","YES","NO","NO","NO","NO","NO","NO","NO","NO","NO","NO","NO","NO","NO","NO","POINT (-91.184234 30.420778)"
"ALSEN","ALSEN PARK","601 OLD RAFE MAYER RD","BATON ROUGE","LOUISIANA","70807.000000000000000","Neighborhood","http://www.brec.org/index.cfm/park/Alsen","19.852000000000000","NO","NO","NO","YES","YES","NO","NO","NO","NO","NO","NO","NO","NO","NO","NO","NO","NO","NO","YES","NO","NO","NO","NO","YES","NO","NO","YES","NO","YES","NO","NO","NO","NO","NO","NO","NO","NO","NO","NO","YES","NO","YES","NO","POINT (-91.197566 30.570722)"
"ALXST","ALEXANDER STREET PARK","6000 ALEXANDER AVE","BATON ROUGE","LOUISIANA","70805","Neighborhood","http://www.brec.org/index.cfm/park/AlexanderStreet","8.8300000000000001","NO","NO","NO","NO","NO","NO","NO","NO","NO","NO","NO","NO","NO","NO","NO","NO","NO","NO","NO","NO","NO","NO","NO","NO","NO","NO","NO","NO","NO","NO","NO","NO","NO","NO","NO","NO","NO","NO","NO","NO","NO","NO","NO","POINT (-91.1615 30.504104)"
"ANATJ","ANNA T. JORDAN COMMUNITY PARK","1750 STILT ST","BATON ROUGE","LOUISIANA","70807","Community","http://www.brec.org/index.cfm/park/AnnaTJordanCommunityPark","39.619999999999997","NO","NO","NO","YES","YES","NO","NO","NO","NO","NO","NO","NO","NO","NO","NO","NO","YES","NO","YES","NO","NO","NO","NO","NO","NO","YES","YES","NO","YES","NO","NO","NO","NO","NO","NO","NO","NO","YES","NO","YES","NO","YES","NO","POINT (-91.175259 30.527419)"
"ANTOC","ANTIOCH BOULEVARD PARK","6229 ANTIOCH BLVD","BATON ROUGE","LOUISIANA","70817.000000000000000","Neighborhood","http://www.brec.org/index.cfm/park/Antioch","30.369999999999997","NO","NO","NO","YES","YES","NO","NO","NO","NO","NO","NO","NO","NO","NO","NO","NO","NO","NO","NO","NO","NO","NO","NO","NO","NO","YES","YES","NO","YES","NO","NO","NO","NO","NO","NO","NO","NO","NO","NO","YES","NO","YES","NO","POINT (-91.002156 30.39352)"
"ARHWY","AIRLINE HIGHWAY PARK","16072 AIRLINE HWY","BATON ROUGE","LOUISIANA","70817","Special Facility","http://www.brec.org/index.cfm/park/AirlineHighway","133.36000000000001","YES","NO","NO","NO","NO","NO","NO","NO","NO","NO","NO","NO","NO","NO","NO","NO","NO","NO","NO","NO","NO","NO","NO","NO","NO","NO","NO","NO","NO","NO","NO","NO","NO","NO","NO","NO","NO","NO","NO","NO","NO","NO","NO","POINT (-91.000131 30.351631)"
"AVNUF","AVENUE F PARK","4790 AVENUE F","ZACHARY","LOUISIANA","70791","Neighborhood","http://www.brec.org/index.cfm/park/AvenueF","0.29999999999999999","NO","NO","NO","NO","NO","NO","NO","NO","NO","NO","NO","NO","NO","NO","NO","NO","NO","NO","NO","NO","NO","NO","NO","NO","NO","NO","NO","NO","NO","NO","NO","NO","NO","NO","NO","NO","NO","NO","NO","NO","NO","NO","NO","POINT (-91.150894 30.658808)"
"BAKRC","BAKER RECREATION CENTER","1420 ALABAMA AVE","BAKER","LOUISIANA","70714.000000000000000","Neighborhood","http://www.brec.org/index.cfm/park/BakerRecreationCenter","0.500000000000000","NO","NO","NO","NO","NO","NO","NO","NO","NO","NO","NO","NO","NO","NO","NO","NO","NO","YES","NO","NO","NO","NO","NO","NO","NO","NO","NO","NO","YES","NO","NO","NO","NO","NO","NO","NO","NO","NO","NO","NO","NO","NO","NO",
"BAKRP","BAKER PARK","4331 JEFFERSON ST","BAKER","LOUISIANA","70714.000000000000000","Neighborhood","http://www.brec.org/index.cfm/park/BakerPark","13.010000000000000","NO","NO","NO","NO","NO","NO","NO","NO","NO","NO","NO","NO","NO","NO","NO","NO","NO","NO","NO","NO","NO","NO","NO","NO","NO","YES","YES","NO","NO","NO","NO","NO","NO","NO","NO","NO","NO","NO","NO","NO","NO","NO","NO","POINT (-91.153925 30.590626)"
"BAYWD","BAYWOOD PARK","20001 PRIDE-BAYWOOD RD","GREENWELL SPRINGS","LOUISIANA","70739.000000000000000","Neighborhood","http://www.brec.org/index.cfm/park/Baywood","30.870999999999999","NO","NO","NO","NO","YES","NO","NO","NO","NO","NO","NO","NO","NO","NO","NO","NO","NO","NO","NO","NO","NO","NO","NO","NO","NO","YES","YES","NO","NO","NO","NO","NO","NO","NO","NO","NO","NO","NO","NO","YES","NO","NO","NO","POINT (-90.914756 30.711177)"
"BBSWP","BLUEBONNET SWAMP CONSERVATION AREA","10503 N OAK HILLS PKWY","BATON ROUGE","LOUISIANA","70810","Conservation","http://www.brec.org/index.cfm/park/BluebonnetSwamp","102.751","NO","NO","NO","NO","NO","NO","YES","NO","NO","NO","NO","NO","NO","NO","NO","NO","NO","NO","NO","NO","NO","NO","NO","NO","YES","NO","NO","NO","NO","NO","NO","NO","NO","NO","NO","NO","NO","NO","NO","NO","NO","NO","NO","POINT (-91.104375 30.370023)"
"BCHNN","BUCHANAN PARK","2300 MISSOURI ST","BATON ROUGE","LOUISIANA","70802","Neighborhood","http://www.brec.org/index.cfm/park/Buchanan","0.23000000000000001","NO","NO","NO","NO","YES","NO","NO","NO","NO","NO","NO","NO","NO","NO","NO","NO","NO","NO","NO","NO","NO","NO","NO","NO","NO","NO","NO","NO","NO","NO","NO","NO","NO","NO","NO","NO","NO","NO","NO","NO","NO","NO","NO","POINT (-91.172149 30.425408)"
"BDPRV","BOULEVARD DE PROVINCE PARK","1717 BOULEVARD DE PROVINCE","BATON ROUGE","LOUISIANA","70816.000000000000000","Neighborhood","http://www.brec.org/index.cfm/park/BoulevarddeProvince","2.500000000000000","NO","NO","NO","NO","YES","NO","NO","NO","NO","NO","NO","NO","NO","NO","NO","NO","NO","YES","NO","NO","NO","NO","NO","NO","NO","YES","YES","NO","NO","NO","NO","NO","NO","NO","NO","NO","NO","NO","NO","NO","NO","NO","NO","POINT (-91.045201 30.439366)"
"BELFR","BELFAIR PARK","4390 FAIRFIELDS AVE","BATON ROUGE","LOUISIANA","70802","Neighborhood","http://www.brec.org/index.cfm/park/Belfair","0.93000000000000005","NO","NO","NO","NO","YES","NO","NO","NO","NO","NO","NO","NO","NO","NO","NO","NO","NO","NO","NO","NO","NO","NO","NO","NO","NO","YES","YES","NO","YES","NO","NO","NO","NO","NO","NO","NO","NO","NO","NO","NO","NO","NO","NO","POINT (-91.146633 30.467461)"
"BKRPG","BAKER PLAYGROUND","3439 GROOM RD","BAKER","LOUISIANA","70714.000000000000000","Neighborhood","http://www.brec.org/index.cfm/park/BakerRecreationCenter","0.500000000000000","NO","NO","NO","NO","NO","NO","NO","NO","NO","NO","NO","NO","NO","NO","NO","NO","NO","YES","NO","NO","NO","NO","NO","NO","NO","NO","YES","NO","NO","NO","NO","NO","NO","NO","NO","NO","NO","NO","NO","NO","NO","NO","NO","POINT (-91.164128 30.587918)"
"BLBRY","BLUEBERRY STREET PARK","6050 BLUEBERRY ST","BATON ROUGE","LOUISIANA","70806.000000000000000","Neighborhood","http://www.brec.org/index.cfm/park/BlueberryStreet","2.181000000000000","NO","NO","NO","NO","YES","NO","NO","NO","NO","NO","NO","NO","NO","NO","NO","NO","NO","NO","YES","NO","NO","NO","NO","NO","NO","YES","YES","NO","YES","NO","NO","NO","NO","NO","NO","NO","NO","NO","NO","NO","NO","NO","NO","POINT (-91.128354 30.466471)"
"BLWTR","BLACKWATER CONSERVATION AREA","9385 BLACKWATER RD","BAKER","LOUISIANA","70714.000000000000000","Conservation","http://www.brec.org/index.cfm/park/BlackwaterConservationArea","57.479999999999997","NO","NO","NO","NO","NO","NO","YES","NO","NO","NO","NO","NO","NO","NO","NO","YES","NO","NO","NO","NO","NO","NO","NO","NO","YES","NO","NO","YES","NO","NO","NO","NO","NO","NO","NO","NO","NO","NO","NO","NO","NO","YES","NO","POINT (-91.086841 30.534655)"
"BNBRG","BEN BURGE PARK","9350 ANTIGUA DR","BATON ROUGE","LOUISIANA","70810.000000000000000","Neighborhood","http://www.brec.org/index.cfm/park/BenBurge","18.503999999999998","NO","NO","NO","NO","NO","NO","NO","NO","NO","NO","NO","NO","NO","NO","NO","NO","NO","NO","NO","NO","NO","NO","NO","NO","NO","YES","YES","NO","YES","NO","NO","NO","NO","NO","NO","NO","NO","NO","NO","NO","NO","NO","NO","POINT (-91.125847 30.346769)"
"BRBCA","BURBANK NATURE RESERVE","8858 BURBANK DR","BATON ROUGE","LOUISIANA","70820.000000000000000","Conservation","http://www.brec.org/index.cfm/park/BurbankConservation","58.177000000000000","NO","NO","NO","NO","NO","NO","NO","NO","NO","NO","NO","NO","NO","NO","NO","NO","NO","NO","NO","NO","NO","NO","NO","NO","NO","NO","NO","NO","NO","NO","NO","NO","NO","NO","NO","NO","NO","NO","NO","NO","NO","NO","NO","POINT (-91.128799 30.362503)"
"BRBSC","BURBANK PARK","12400 BURBANK DR","BATON ROUGE","LOUISIANA","70810","Special Facility","http://www.brec.org/index.cfm/park/BurbankSoccerComplex","247.839","NO","NO","NO","NO","NO","NO","YES","NO","NO","NO","NO","NO","NO","YES","NO","YES","NO","NO","NO","NO","NO","NO","NO","YES","NO","YES","NO","NO","NO","NO","NO","NO","NO","NO","YES","NO","NO","NO","NO","NO","NO","NO","NO","POINT (-91.094308 30.348275)"
"BRDSN","BIRD STATION PARK","2623 MICHELLI DR","BATON ROUGE","LOUISIANA","70805.000000000000000","Neighborhood","http://www.brec.org/index.cfm/park/BirdStation","4.000000000000000","NO","NO","NO","NO","YES","NO","NO","NO","NO","NO","NO","NO","NO","NO","NO","NO","NO","NO","NO","NO","NO","NO","NO","NO","NO","NO","YES","NO","NO","NO","NO","NO","NO","NO","NO","NO","NO","NO","NO","NO","NO","NO","NO","POINT (-91.12723 30.472412)"
"BRKFD","BROOKFIELD AVENUE PARK","17650 BROOKFIELD AVE","BATON ROUGE","LOUISIANA","70817","Neighborhood","http://www.brec.org/index.cfm/park/BrookfieldAvenue","6.4799999999999995","NO","NO","NO","NO","NO","NO","NO","NO","NO","NO","NO","NO","NO","NO","NO","NO","NO","NO","NO","NO","NO","NO","NO","NO","NO","YES","YES","NO","NO","NO","NO","NO","NO","NO","NO","NO","NO","NO","NO","YES","NO","YES","NO","POINT (-91.000308 30.358224)"
"BRNGR","BARINGER ROAD PARK","7401 BARINGER RD","BATON ROUGE","LOUISIANA","70817","Neighborhood","http://www.brec.org/index.cfm/park/baringer","4.7000000000000002","NO","NO","NO","NO","YES","NO","NO","NO","NO","NO","NO","NO","NO","NO","NO","NO","NO","NO","NO","NO","NO","NO","NO","YES","NO","YES","YES","NO","YES","NO","NO","NO","NO","NO","NO","NO","NO","NO","NO","YES","NO","YES","NO","POINT (-91.01908 30.384181)"
"BRNHT","BROWN HEIGHTS PARK","15206 PLANK RD","BAKER","LOUISIANA","70714","Neighborhood","http://www.brec.org/index.cfm/park/BrownHeights","6.6999999999999993","NO","NO","NO","NO","YES","NO","NO","NO","NO","NO","NO","NO","NO","NO","NO","NO","NO","NO","NO","NO","NO","NO","NO","NO","NO","YES","NO","NO","NO","NO","NO","NO","NO","NO","NO","NO","NO","NO","NO","YES","NO","YES","NO","POINT (-91.125013 30.586059)"
"BVRCK","BEAVER CREEK PARK","22600 BEAVER CREEK BLVD","ZACHARY","LOUISIANA","70791","Golf Course","http://www.brec.org/index.cfm/park/BeaverCreek","199.99600000000001","NO","NO","NO","NO","YES","NO","NO","NO","NO","NO","NO","NO","NO","NO","NO","NO","NO","NO","NO","NO","YES","NO","NO","NO","NO","YES","YES","NO","NO","NO","NO","NO","NO","NO","NO","NO","NO","NO","NO","YES","NO","NO","NO",
"CAMLT","CAMELOT PARK","3166 LANCELOT DR","BATON ROUGE","LOUISIANA","70816.000000000000000","Neighborhood","http://www.brec.org/index.cfm/park/Camelot","0.750000000000000","NO","NO","NO","NO","NO","NO","NO","NO","NO","NO","NO","NO","NO","NO","NO","NO","NO","NO","NO","NO","NO","NO","NO","NO","NO","NO","YES","NO","NO","NO","NO","NO","NO","NO","NO","NO","NO","NO","NO","NO","NO","NO","NO","POINT (-91.043807 30.424185)"
"CDLST","CADILLAC STREET PARK","6117 CADILLAC ST","BATON ROUGE","LOUISIANA","70811","Neighborhood","http://www.brec.org/index.cfm/park/CadillacStreet","5.5299999999999994","NO","NO","NO","YES","YES","NO","NO","NO","NO","NO","NO","NO","NO","NO","NO","NO","NO","NO","NO","NO","NO","NO","NO","YES","NO","NO","YES","NO","YES","NO","NO","NO","NO","NO","NO","NO","NO","NO","NO","NO","NO","YES","NO","POINT (-91.129186 30.518068)"
"CDRCR","CEDARCREST PARK","2490 SILVEREST AVE","BATON ROUGE","LOUISIANA","70816.000000000000000","Neighborhood","http://www.brec.org/index.cfm/park/Cedarcrest","5.000000000000000","NO","NO","NO","NO","YES","NO","NO","NO","NO","NO","NO","NO","NO","NO","NO","NO","NO","NO","NO","NO","NO","NO","NO","YES","NO","YES","NO","NO","YES","NO","NO","NO","NO","NO","NO","NO","NO","NO","NO","YES","NO","NO","NO","POINT (-91.072308 30.428373)"
"CDRRG","CEDAR RIDGE DRIVE PARK","13300 CEDAR RIDGE AVE","BATON ROUGE","LOUISIANA","70817.000000000000000","Neighborhood","http://www.brec.org/index.cfm/park/CedarRidge","19.590000000000000","NO","NO","NO","NO","NO","NO","NO","NO","NO","NO","NO","NO","NO","NO","NO","NO","NO","NO","NO","NO","NO","NO","NO","NO","NO","NO","YES","YES","YES","NO","NO","NO","NO","NO","NO","NO","NO","NO","NO","NO","NO","NO","NO","POINT (-91.031982 30.400862)"
"CHMBR","CHAMBERLAIN STREET PARK","16900 CHAMBERLAIN AVE","BAKER","LOUISIANA","70714","Neighborhood","http://www.brec.org/index.cfm/park/ChamberlainStreet","4.7059999999999995","NO","NO","NO","NO","YES","NO","NO","NO","NO","NO","NO","NO","NO","NO","NO","NO","NO","NO","NO","NO","NO","NO","NO","YES","NO","YES","YES","NO","NO","NO","NO","NO","NO","NO","NO","NO","NO","NO","NO","YES","NO","YES","NO","POINT (-91.182748 30.60553)"
"CHNAR","COHN ARBORETUM","12206 FOSTER RD","BATON ROUGE","LOUISIANA","70811.000000000000000","Special Facility","http://www.brec.org/index.cfm/park/CohnArboretum","15.590000000000000","NO","NO","NO","NO","NO","NO","YES","NO","NO","NO","NO","NO","NO","NO","NO","YES","NO","NO","YES","NO","NO","NO","NO","NO","NO","NO","NO","NO","NO","NO","NO","NO","NO","NO","NO","NO","NO","NO","NO","NO","NO","YES","NO","POINT (-91.120515 30.557891)"
"CHNNP","COHN NATURE RESERVE","11332 FOSTER RD","BATON ROUGE","LOUISIANA","70811.000000000000000","Conservation","http://www.brec.org/index.cfm/park/CohnNaturePreserve","28.500000000000000","NO","NO","NO","NO","NO","NO","NO","NO","NO","NO","NO","NO","NO","NO","NO","NO","NO","NO","NO","NO","NO","NO","NO","NO","NO","NO","NO","NO","NO","NO","NO","NO","NO","NO","NO","NO","NO","NO","NO","NO","NO","NO","NO","POINT (-91.114933 30.550876)"
"CHRCH","CHURCH STREET PARK","3210 CHURCH ST","ZACHARY","LOUISIANA","70791.000000000000000","Neighborhood","http://www.brec.org/index.cfm/park/ChurchStreet","7.085000000000000","NO","NO","NO","YES","YES","NO","NO","NO","NO","NO","NO","NO","NO","NO","NO","NO","NO","NO","NO","NO","NO","NO","NO","NO","NO","YES","YES","NO","YES","NO","NO","NO","NO","NO","NO","NO","NO","NO","NO","NO","NO","NO","NO","POINT (-91.169715 30.651721)"
"CITBP","CITY-BROOKS COMMUNITY PARK","1515 DALRYMPLE DR","BATON ROUGE","LOUISIANA","70808","Community","http://www.brec.org/index.cfm/park/CityBrooksCommunityPark","158.126","NO","NO","NO","NO","YES","NO","YES","NO","NO","NO","NO","YES","NO","YES","NO","YES","NO","NO","NO","YES","NO","YES","NO","YES","NO","YES","YES","NO","NO","NO","NO","NO","NO","NO","NO","YES","NO","YES","YES","YES","NO","YES","NO","POINT (-91.16845 30.434252)"
"CLFTS","CLIFFORD T. SEYMOUR, SR. PARK","12000 SCOTLAND-ZACHARY HWY","BATON ROUGE","LOUISIANA","70807.000000000000000","Neighborhood","http://www.brec.org/index.cfm/park/CliffordTSeymour","18.314000000000000","NO","NO","NO","NO","YES","NO","NO","NO","NO","NO","NO","NO","NO","NO","NO","NO","NO","NO","NO","NO","NO","NO","NO","NO","NO","NO","NO","NO","NO","NO","NO","NO","NO","NO","NO","NO","NO","NO","NO","NO","NO","NO","NO",
"CLGTN","COLLEGE TOWN PARK","251 AMHERST AVE","BATON ROUGE","LOUISIANA","70808.000000000000000","Neighborhood","http://www.brec.org/index.cfm/park/CollegeTown","1.200000000000000","NO","NO","NO","NO","NO","NO","NO","NO","NO","NO","NO","NO","NO","NO","NO","NO","NO","NO","NO","NO","NO","NO","NO","NO","NO","YES","NO","NO","NO","NO","NO","NO","NO","NO","NO","NO","NO","NO","NO","NO","NO","NO","NO","POINT (-91.171364 30.404782)"
"CMTRV","COMITE RIVER CONSERVATION AREA","8900 HOOPER RD","BATON ROUGE","LOUISIANA","70811","Conservation","http://www.brec.org/index.cfm/park/Comite","100.40000000000001","NO","NO","NO","NO","NO","YES","NO","NO","NO","NO","NO","NO","NO","NO","NO","YES","NO","NO","NO","NO","NO","NO","YES","NO","NO","YES","YES","YES","NO","NO","NO","NO","NO","NO","NO","NO","NO","NO","NO","NO","NO","NO","NO","POINT (-91.095856 30.530708)"
"CNGRS","CONGRESS PARK","5100 CONGRESS BLVD","BATON ROUGE","LOUISIANA","70808","Neighborhood","http://www.brec.org/index.cfm/park/Congress","2.9199999999999999","NO","NO","NO","NO","NO","NO","NO","NO","NO","NO","NO","NO","NO","NO","NO","NO","NO","NO","NO","NO","NO","NO","NO","NO","NO","YES","NO","NO","NO","NO","NO","NO","NO","NO","NO","NO","NO","NO","NO","NO","NO","YES","NO","POINT (-91.133326 30.418656)"
"CNTSP","CENTRAL SPORTS PARK","10501 LOVETT RD","CENTRAL","LOUISIANA","70818.000000000000000","Special Facility","http://www.brec.org/index.cfm/park/CentralSportsPark","50.519999999999996","NO","NO","NO","NO","NO","NO","NO","NO","NO","NO","NO","NO","NO","NO","NO","YES","NO","NO","NO","NO","NO","NO","NO","YES","NO","NO","YES","NO","NO","NO","NO","NO","NO","NO","NO","NO","NO","NO","NO","NO","NO","YES","NO","POINT (-91.065432 30.537635)"
"CNVNT","CONVENTION STREET PARK","717 CONVENTION ST","BATON ROUGE","LOUISIANA","70801","Neighborhood","http://www.brec.org/index.cfm/park/ConventionStreet","0.7340000000000001","NO","NO","NO","NO","NO","NO","NO","NO","NO","NO","NO","NO","NO","NO","NO","NO","NO","NO","NO","NO","NO","NO","NO","NO","NO","NO","NO","NO","NO","NO","NO","NO","NO","NO","NO","NO","NO","NO","NO","NO","NO","NO","NO","POINT (-91.183613 30.448377)"
"CRPPW","CORPORATE PARKWAY","333 E GRANT ST","BATON ROUGE","LOUISIANA","70802","Neighborhood","http://www.brec.org/index.cfm/park/CorporateParkway","0.053999999999999992","NO","NO","NO","NO","NO","NO","NO","NO","NO","NO","NO","NO","NO","NO","NO","NO","NO","NO","NO","NO","NO","NO","NO","NO","NO","NO","NO","NO","NO","NO","NO","NO","NO","NO","NO","NO","NO","NO","NO","NO","NO","NO","NO","POINT (-91.177956 30.423117)"
"CRTPL","CORTANA PLACE PARK","1901 OAK VILLA BLVD","BATON ROUGE","LOUISIANA","70815.000000000000000","Neighborhood",,"12.000000000000000","NO","NO","NO","NO","NO","NO","NO","NO","NO","NO","NO","NO","NO","NO","NO","NO","NO","NO","NO","NO","NO","NO","NO","NO","NO","NO","NO","NO","NO","NO","NO","NO","NO","NO","NO","NO","NO","NO","NO","NO","NO","NO","NO","POINT (-91.089022 30.465927)"
"CUNRD","CUNARD-GORE ROAD PARK","2290 CUNARD AVE","BATON ROUGE","LOUISIANA","70807","Neighborhood","http://www.brec.org/index.cfm/park/CunardAvenue","3.7999999999999998","NO","NO","NO","NO","YES","NO","NO","NO","NO","NO","NO","NO","NO","NO","NO","NO","NO","NO","NO","NO","NO","NO","NO","NO","NO","YES","NO","NO","NO","NO","NO","NO","NO","NO","NO","NO","NO","NO","NO","NO","NO","YES","NO","POINT (-91.170598 30.552928)"
"DAYTN","DAYTON STREET PARK","2404 DAYTON ST","BATON ROUGE","LOUISIANA","70805.000000000000000","Neighborhood","http://www.brec.org/index.cfm/park/DaytonStreet","0.500000000000000","NO","NO","NO","NO","YES","NO","NO","NO","NO","NO","NO","NO","NO","NO","NO","NO","NO","NO","NO","NO","NO","NO","NO","NO","NO","NO","YES","NO","NO","NO","NO","NO","NO","NO","NO","NO","NO","NO","NO","NO","NO","NO","NO","POINT (-91.166206 30.488063)"
"DCHSS","DUCHESS DRIVE PARK","1701 DUCHESS DR","BATON ROUGE","LOUISIANA","70815.000000000000000","Neighborhood","http://www.brec.org/index.cfm/park/DuchessDrive","20.783999999999999","NO","NO","NO","NO","NO","NO","NO","NO","NO","NO","NO","NO","NO","NO","NO","NO","NO","NO","NO","NO","NO","NO","NO","NO","NO","NO","YES","NO","NO","NO","NO","NO","NO","NO","NO","NO","NO","NO","NO","NO","NO","NO","NO","POINT (-91.040649 30.468875)"
"DOVER","DOVER STREET PARK","7300 DOVER ST","BATON ROUGE","LOUISIANA","70812.000000000000000","Neighborhood","http://www.brec.org/index.cfm/park/DoverStreet","4.000000000000000","NO","NO","NO","NO","YES","NO","NO","NO","NO","NO","NO","NO","NO","NO","NO","NO","NO","YES","NO","NO","NO","NO","NO","YES","NO","YES","NO","NO","NO","NO","NO","NO","NO","NO","NO","NO","NO","NO","NO","NO","NO","YES","NO","POINT (-91.116978 30.49948)"
"DROZE","DROZE ROAD PARK","7700 DROZE RD","GREENWELL SPRINGS","LOUISIANA","70739.000000000000000","Neighborhood","http://www.brec.org/index.cfm/park/DrozeRoad","2.750000000000000","NO","NO","NO","NO","NO","NO","NO","NO","NO","NO","NO","NO","NO","NO","NO","NO","NO","NO","NO","NO","NO","NO","NO","YES","NO","NO","YES","NO","NO","NO","NO","NO","NO","NO","NO","NO","NO","NO","NO","NO","NO","NO","NO","POINT (-91.005946 30.521196)"
"DRSLA","DRUSILLA LANE PARK","2546 DRUSILLA LN","BATON ROUGE","LOUISIANA","70809","Neighborhood","http://www.brec.org/index.cfm/park/DrusillaLane","5.0299999999999994","NO","NO","NO","NO","YES","NO","NO","NO","NO","NO","NO","NO","NO","NO","NO","NO","NO","NO","NO","NO","NO","NO","NO","NO","NO","YES","NO","NO","YES","NO","NO","NO","NO","NO","NO","NO","NO","NO","NO","YES","NO","NO","NO","POINT (-91.084201 30.427214)"
"DYLBY","DOYLE BAYOU PARK","7801 PORT HUDSON-PRIDE RD","SLAUGHTER","LOUISIANA","70777.000000000000000","Neighborhood","http://www.brec.org/index.cfm/park/DoylesBayou","97.039999999999992","NO","NO","NO","NO","NO","NO","NO","NO","NO","NO","NO","NO","NO","NO","NO","YES","NO","NO","NO","NO","NO","NO","NO","YES","NO","NO","NO","NO","NO","NO","NO","NO","NO","NO","NO","NO","NO","NO","NO","NO","NO","NO","NO","POINT (-91.111948 30.681243)"
"EBRKT","EAST BROOKSTOWN PARK","4300 E BROOKSTOWN DR","BATON ROUGE","LOUISIANA","70805.000000000000000","Neighborhood","http://www.brec.org/index.cfm/park/EastBrookstown","1.000000000000000","NO","NO","NO","NO","NO","NO","NO","NO","NO","NO","NO","NO","NO","NO","NO","NO","NO","NO","NO","NO","NO","NO","NO","NO","NO","NO","YES","NO","NO","NO","NO","NO","NO","NO","NO","NO","NO","NO","NO","NO","NO","NO","NO","POINT (-91.128239 30.489563)"
"EDWRD","EDWARD AVENUE PARK","3000 EDWARD AVE","BATON ROUGE","LOUISIANA","70808","Neighborhood","http://www.brec.org/index.cfm/park/EdwardsAvenue","0.29999999999999999","NO","NO","NO","NO","NO","NO","NO","NO","NO","NO","NO","NO","NO","NO","NO","NO","NO","NO","NO","NO","NO","NO","NO","NO","NO","NO","YES","NO","NO","NO","NO","NO","NO","NO","NO","NO","NO","NO","NO","NO","NO","NO","NO","POINT (-91.157503 30.429511)"
"EPOLK","EAST POLK STREET PARK","1700 E POLK ST","BATON ROUGE","LOUISIANA","70802.000000000000000","Neighborhood","http://www.brec.org/index.cfm/park/EastPolkStreet","3.000000000000000","NO","NO","NO","NO","YES","NO","NO","NO","NO","NO","NO","NO","NO","NO","NO","NO","NO","NO","NO","NO","NO","NO","NO","YES","NO","NO","NO","NO","NO","NO","NO","NO","NO","NO","NO","NO","NO","NO","NO","NO","NO","NO","NO","POINT (-91.170884 30.427214)"
"ESTRN","ERICH AND LEA STERNBERG PARK","8715 ROUND OAK DR","BATON ROUGE","LOUISIANA","70817.000000000000000","Neighborhood","http://www.brec.org/index.cfm/park/ErichSternberg","26.090000000000000","NO","NO","NO","NO","YES","NO","NO","NO","NO","NO","NO","NO","NO","NO","NO","NO","NO","NO","NO","NO","NO","NO","NO","YES","NO","NO","NO","NO","NO","NO","NO","NO","NO","NO","NO","NO","NO","NO","NO","YES","NO","NO","NO","POINT (-90.999459 30.370427)"
"EVNGL","EVANGELINE STREET PARK","4201 EVANGELINE ST","BATON ROUGE","LOUISIANA","70805.000000000000000","Neighborhood","http://www.brec.org/index.cfm/park/EvangelineStreet","7.944000000000000","NO","NO","NO","NO","YES","NO","NO","NO","NO","NO","NO","NO","NO","NO","NO","NO","NO","NO","NO","NO","NO","NO","NO","YES","NO","YES","YES","NO","NO","NO","NO","NO","NO","NO","NO","NO","NO","NO","NO","NO","NO","YES","NO","POINT (-91.148269 30.492947)"
"FESTA","FIESTA PARK","1000 FIESTA CT","BATON ROUGE","LOUISIANA","70815.000000000000000","Neighborhood","http://www.brec.org/index.cfm/park/Fiesta","1.266000000000000","NO","NO","NO","NO","NO","NO","NO","NO","NO","NO","NO","NO","NO","NO","NO","NO","NO","YES","NO","NO","NO","NO","NO","NO","NO","YES","NO","NO","NO","NO","NO","NO","NO","NO","NO","NO","NO","NO","NO","NO","NO","YES","NO","POINT (-91.07456 30.459672)"
"FLADM","MILTON WOMACK PARK","6201 FLORIDA BLVD","BATON ROUGE","LOUISIANA","70806.000000000000000","Special Facility","http://www.brec.org/index.cfm/park/MiltonJWomack","20.564000000000000","NO","NO","NO","NO","NO","NO","NO","NO","NO","NO","NO","NO","NO","NO","NO","NO","YES","NO","NO","NO","NO","NO","NO","YES","NO","NO","NO","NO","NO","NO","NO","NO","NO","NO","NO","NO","NO","NO","NO","NO","NO","YES","NO","POINT (-91.125656 30.45133)"
"FLNCR","FLANACHER ROAD PARK","801 S FLANNERY RD","BATON ROUGE","LOUISIANA","70815.000000000000000","Neighborhood","http://www.brec.org/index.cfm/park/Flanacher","175.000000000000000","NO","NO","NO","NO","YES","NO","NO","NO","NO","NO","NO","NO","YES","NO","NO","YES","NO","NO","NO","NO","NO","NO","NO","YES","NO","YES","NO","NO","YES","NO","NO","NO","NO","NO","YES","NO","NO","NO","NO","NO","NO","YES","NO","POINT (-91.034639 30.450558)"
"FLNRY","FLANNERY ROAD PARK","864 FLONACHER RD","ZACHARY","LOUISIANA","70791.000000000000000","Neighborhood","http://www.brec.org/index.cfm/park/FlanneryRoad","16.509999999999998","NO","NO","NO","YES","YES","NO","NO","NO","NO","NO","NO","NO","NO","NO","NO","NO","NO","YES","NO","NO","NO","NO","NO","YES","NO","YES","YES","NO","YES","NO","NO","YES","NO","NO","NO","NO","NO","NO","NO","YES","NO","YES","NO","POINT (-91.229842 30.66636)"
"FREST","FOREST COMMUNITY PARK","13900 S HARRELL'S FERRY RD","BATON ROUGE","LOUISIANA","70816","Community","http://www.brec.org/index.cfm/park/forestcommunitypark","115.62","NO","NO","NO","YES","NO","NO","YES","NO","NO","NO","NO","NO","NO","YES","NO","YES","NO","NO","NO","NO","NO","NO","NO","NO","YES","YES","YES","YES","YES","NO","NO","NO","NO","NO","NO","YES","NO","NO","YES","YES","NO","YES","NO","POINT (-91.030829 30.43105)"
"FRFAX","FAIRFAX PARK","5300 S AFTON PKWY","BATON ROUGE","LOUISIANA","70806.000000000000000","Neighborhood","http://www.brec.org/index.cfm/park/Fairfax","1.000000000000000","NO","NO","NO","NO","NO","NO","NO","NO","NO","NO","NO","NO","NO","NO","NO","NO","NO","NO","NO","NO","NO","NO","NO","NO","NO","NO","YES","NO","NO","NO","NO","NO","NO","NO","NO","NO","NO","NO","NO","NO","NO","NO","NO","POINT (-91.135021 30.453079)"
"FRHAC","FARR PARK EQUESTRIAN CENTER (ALICE AND WARREN)","6400 RIVER RD","BATON ROUGE","LOUISIANA","70820","Special Facility","http://www.brec.org/index.cfm/park/FarrPark","296.87400000000002","NO","NO","NO","NO","NO","NO","NO","NO","NO","NO","NO","NO","NO","NO","YES","NO","NO","NO","NO","NO","NO","YES","NO","NO","NO","YES","NO","NO","YES","NO","YES","NO","NO","NO","NO","NO","NO","NO","NO","NO","NO","NO","NO","POINT (-91.219035 30.382316)"
"FRNTN","FRENCHTOWN CONSERVATION AREA","17819 FRENCHTOWN RD","GREENWELL SPRINGS","LOUISIANA","70739","Conservation","http://www.brec.org/index.cfm/park/FrenchtownRoadConservationArea","497.99000000000001","NO","NO","NO","NO","NO","NO","YES","NO","NO","NO","NO","NO","NO","NO","NO","YES","NO","NO","NO","NO","NO","NO","NO","NO","NO","NO","NO","YES","NO","NO","NO","NO","NO","NO","NO","NO","NO","NO","NO","NO","NO","NO","NO","POINT (-90.986074 30.478605)"
"FRTAD","FORTUNE ADDITION PARK","5900 PEERLESS ST","BATON ROUGE","LOUISIANA","70811.000000000000000","Neighborhood","http://www.brec.org/index.cfm/park/FortuneAddition","10.180000000000000","NO","NO","NO","NO","YES","NO","NO","NO","NO","NO","NO","NO","NO","NO","NO","NO","NO","NO","NO","NO","NO","NO","NO","YES","NO","YES","YES","NO","NO","NO","NO","NO","NO","NO","NO","NO","NO","NO","NO","NO","NO","YES","NO","POINT (-91.132287 30.516849)"
"FRTYE","FORTY-EIGHTH STREET PARK","628 N 48TH ST","BATON ROUGE","LOUISIANA","70806","Neighborhood","http://www.brec.org/index.cfm/park/FortyEigthStreet","2.5499999999999998","NO","NO","NO","NO","YES","NO","NO","NO","NO","NO","NO","NO","NO","NO","NO","NO","NO","NO","NO","NO","NO","NO","NO","NO","NO","NO","NO","NO","NO","NO","NO","YES","NO","NO","NO","NO","NO","NO","NO","NO","NO","NO","NO","POINT (-91.141501 30.455139)"
"GAYSA","GAYOSA STREET PARK","2129 GAYOSA ST","BATON ROUGE","LOUISIANA","70802","Neighborhood","http://www.brec.org/index.cfm/park/Gayosa","0.32700000000000001","NO","NO","NO","NO","YES","NO","NO","NO","NO","NO","NO","NO","NO","NO","NO","NO","NO","NO","NO","NO","NO","NO","NO","NO","NO","YES","NO","NO","NO","NO","NO","NO","NO","NO","NO","NO","NO","NO","NO","NO","NO","NO","NO","POINT (-91.166618 30.454205)"
"GNTCT","GENTILLY COURT PARK","13750 GENTILLY CT","BATON ROUGE","LOUISIANA","70810.000000000000000","Neighborhood","http://www.brec.org/index.cfm/park/GentillyCourt","6.000000000000000","NO","NO","NO","NO","YES","NO","NO","NO","NO","NO","NO","NO","NO","NO","NO","NO","NO","NO","NO","NO","NO","NO","NO","NO","NO","NO","YES","NO","NO","NO","NO","NO","NO","NO","NO","NO","NO","NO","NO","YES","NO","NO","NO","POINT (-91.063314 30.370122)"
"GODWD","GOODWOOD PARK","6025 SEVENOAKS AVE","BATON ROUGE","LOUISIANA","70806","Neighborhood","http://www.brec.org/index.cfm/park/Goodwood","5.5599999999999996","NO","NO","NO","NO","YES","NO","NO","NO","NO","NO","NO","NO","NO","NO","NO","NO","NO","NO","NO","NO","NO","NO","NO","NO","NO","YES","YES","NO","NO","NO","NO","NO","NO","NO","NO","NO","NO","NO","NO","YES","NO","YES","NO","POINT (-91.129288 30.443276)"
"GRNWD","GREENWOOD COMMUNITY PARK","3601 THOMAS RD","BATON ROUGE","LOUISIANA","70807","Special Facility","http://www.brec.org/index.cfm/park/GreenwoodCommunityPark","658.85400000000004","NO","NO","NO","NO","NO","NO","YES","NO","NO","YES","NO","NO","YES","YES","NO","YES","NO","YES","NO","YES","NO","YES","NO","YES","YES","YES","YES","NO","NO","NO","NO","NO","NO","NO","NO","YES","NO","NO","YES","YES","NO","YES","NO","POINT (-91.155481 30.558918)"
"GRNWD","GREENWOOD COMMUNITY PARK","3400 LAVEY LN","BAKER","LOUISIANA","70714","Golf Course","http://www.brec.org/index.cfm/park/GreenwoodCommunityPark","658.85400000000004","NO","NO","NO","NO","NO","NO","YES","NO","NO","YES","NO","NO","YES","YES","NO","YES","NO","YES","NO","YES","NO","YES","NO","YES","YES","YES","YES","NO","NO","NO","NO","NO","NO","NO","NO","YES","NO","NO","YES","YES","NO","YES","NO","POINT (-91.16583 30.575345)"
"GRNWD","GREENWOOD COMMUNITY PARK","13350 SCOTLAND-ZACHARY HWY","BAKER","LOUISIANA","70714","Community","http://www.brec.org/index.cfm/park/GreenwoodCommunityPark","658.85400000000004","NO","NO","NO","NO","NO","NO","YES","NO","NO","YES","NO","NO","YES","YES","NO","YES","NO","YES","NO","YES","NO","YES","NO","YES","YES","YES","YES","NO","NO","NO","NO","NO","NO","NO","NO","YES","NO","NO","YES","YES","NO","YES","NO",
"GRNWD","GREENWOOD COMMUNITY PARK","2301 THOMAS RD","BATON ROUGE","LOUISIANA","70807","Golf Course","http://www.brec.org/index.cfm/park/GreenwoodCommunityPark","658.85400000000004","NO","NO","NO","NO","NO","NO","YES","NO","NO","YES","NO","NO","YES","YES","NO","YES","NO","YES","NO","YES","NO","YES","NO","YES","YES","YES","YES","NO","NO","NO","NO","NO","NO","NO","NO","YES","NO","NO","YES","YES","NO","YES","NO","POINT (-91.171238 30.558653)"
"GRWSP","GREENWELL SPRINGS PARK","7550 SHADY PARK DR","GREENWELL SPRINGS","LOUISIANA","70739.000000000000000","Neighborhood","http://www.brec.org/index.cfm/park/GreenwellSprings","13.000000000000000","NO","NO","NO","NO","NO","NO","NO","NO","NO","NO","NO","NO","NO","NO","YES","NO","NO","NO","NO","NO","NO","NO","NO","NO","NO","YES","YES","NO","NO","NO","NO","NO","NO","NO","NO","NO","NO","NO","NO","YES","NO","NO","NO","POINT (-91.011185 30.520889)"
"GSYNG","GUS YOUNG PARK","4201 GUS YOUNG AVE","BATON ROUGE","LOUISIANA","70802","Neighborhood","http://www.brec.org/index.cfm/park/GusYoung","4.6499999999999995","NO","NO","NO","YES","YES","NO","NO","NO","NO","NO","NO","NO","NO","NO","NO","NO","NO","NO","NO","NO","NO","NO","NO","NO","NO","YES","YES","NO","YES","NO","NO","NO","NO","NO","NO","NO","NO","NO","NO","YES","NO","YES","NO","POINT (-91.147209 30.462018)"
"HLNRD","HIGHLAND ROAD COMMUNITY PARK","14024 HIGHLAND RD","BATON ROUGE","LOUISIANA","70810","Community","http://www.brec.org/index.cfm/park/HighlandRoadCommunityPark","144.96300000000002","NO","NO","NO","YES","NO","NO","YES","YES","NO","YES","NO","NO","YES","NO","NO","NO","NO","YES","NO","NO","NO","NO","NO","NO","NO","YES","NO","YES","YES","YES","NO","NO","NO","NO","NO","YES","NO","NO","YES","YES","NO","YES","NO","POINT (-91.075618 30.347841)"
"HMLTN","HAMILTON AVENUE PARK","16200 HAMILTON AVE","BATON ROUGE","LOUISIANA","70819.000000000000000","Neighborhood","http://www.brec.org/index.cfm/park/HamiltonAvenue","25.000000000000000","NO","NO","NO","NO","NO","NO","NO","NO","NO","NO","NO","NO","NO","NO","NO","NO","NO","NO","NO","NO","NO","NO","NO","NO","NO","YES","YES","NO","YES","NO","NO","NO","NO","NO","NO","NO","NO","NO","NO","NO","NO","NO","NO","POINT (-91.007306 30.481677)"
"HNTPT","HUNTERS POINT DRIVE PARK","4366 HUNTERS POINT DR","ZACHARY","LOUISIANA","70791","Neighborhood","http://www.brec.org/index.cfm/park/HuntersPoint","0.20000000000000001","NO","NO","NO","NO","NO","NO","NO","NO","NO","NO","NO","NO","NO","NO","NO","NO","NO","NO","NO","NO","NO","NO","NO","NO","NO","NO","YES","NO","NO","NO","NO","NO","NO","NO","NO","NO","NO","NO","NO","NO","NO","NO","NO","POINT (-91.159928 30.639156)"
"HOOPR","HOOPER ROAD PARK","6261 GUYNELL DR","BATON ROUGE","LOUISIANA","70811.000000000000000","Neighborhood","http://www.brec.org/index.cfm/park/HooperRoad","233.119000000000000","NO","NO","NO","YES","YES","YES","YES","NO","NO","NO","NO","NO","NO","NO","NO","YES","NO","NO","NO","NO","NO","NO","YES","YES","NO","YES","YES","YES","YES","NO","NO","NO","NO","NO","NO","NO","NO","NO","NO","YES","NO","YES","NO","POINT (-91.125716 30.533906)"
"HRDNG","HARDING STREET PARK","4037 HARDING ST","BAKER","LOUISIANA","70714.000000000000000","Neighborhood","http://www.brec.org/index.cfm/park/HardingStreet","10.330000000000000","NO","NO","NO","NO","NO","NO","NO","NO","NO","NO","NO","NO","NO","NO","NO","NO","NO","NO","NO","NO","NO","NO","NO","YES","NO","NO","YES","NO","NO","NO","NO","NO","NO","NO","NO","NO","NO","NO","NO","YES","NO","NO","NO","POINT (-91.156875 30.583614)"
"HVGDR","HARTLEY/VEY PARK AT GARDERE","1702 GARDERE LN","BATON ROUGE","LOUISIANA","70820.000000000000000","Neighborhood","http://www.brec.org/index.cfm/park/HartleyVeyGardere","14.865000000000000","NO","NO","NO","NO","YES","NO","NO","NO","NO","NO","NO","NO","NO","NO","NO","NO","NO","NO","YES","NO","NO","NO","NO","YES","NO","YES","NO","NO","NO","NO","NO","NO","NO","NO","NO","NO","NO","NO","NO","NO","NO","YES","NO","POINT (-91.12903 30.353264)"
"HVSPP","HARTLEY/VEY SPORTS PARK","2615 OAK VILLA BLVD","BATON ROUGE","LOUISIANA","70814.000000000000000","Special Facility","http://www.brec.org/index.cfm/park/HartleyVeyOakVilla","57.681999999999995","NO","NO","NO","NO","YES","NO","NO","NO","NO","NO","NO","NO","NO","NO","NO","YES","NO","NO","NO","NO","NO","NO","NO","NO","NO","YES","YES","NO","NO","NO","NO","NO","NO","NO","NO","NO","NO","NO","NO","NO","NO","NO","NO","POINT (-91.089107 30.471791)"
"HWLCP","HOWELL COMMUNITY PARK","5509 WINBOURNE AVE","BATON ROUGE","LOUISIANA","70805","Community","http://www.brec.org/index.cfm/park/HowellCommunityPark","113.03200000000001","NO","NO","NO","NO","YES","NO","YES","NO","NO","NO","NO","NO","NO","NO","NO","YES","NO","YES","YES","NO","NO","NO","NO","YES","NO","YES","YES","NO","NO","NO","NO","YES","NO","NO","NO","NO","NO","NO","NO","YES","NO","YES","NO","POINT (-91.132644 30.479215)"
"INDPN","INDEPENDENCE COMMUNITY PARK","7505 INDEPENDENCE BLVD","BATON ROUGE","LOUISIANA","70806","Community","http://www.brec.org/index.cfm/park/independenceCommunityPark","96.019999999999996","NO","NO","NO","NO","NO","NO","NO","NO","NO","NO","NO","NO","NO","NO","NO","NO","NO","YES","YES","NO","NO","NO","NO","NO","NO","YES","NO","NO","YES","NO","NO","NO","YES","NO","YES","YES","NO","YES","YES","YES","NO","YES","NO","POINT (-91.111038 30.44536)"
"INDST","INDUSTRIPLEX PARK","10777 INDUSTRIPLEX BLVD","BATON ROUGE","LOUISIANA","70809","Neighborhood","http://www.brec.org/index.cfm/park/Industriplex","8.8620000000000001","NO","NO","NO","NO","NO","NO","NO","NO","NO","NO","NO","NO","NO","NO","NO","NO","NO","NO","NO","NO","NO","NO","NO","NO","NO","NO","YES","NO","NO","NO","NO","YES","NO","NO","NO","NO","NO","NO","NO","NO","NO","NO","NO",
"JCKRN","JACOB KORNMEYER NATURE RESERVE","13000-13400 HOOPER RD","GREENWELL SPRINGS","LOUISIANA","70739.000000000000000","Conservation","http://www.brec.org/index.cfm/park/JacobKornmeyer","40.000000000000000","NO","NO","NO","NO","NO","NO","NO","NO","NO","NO","NO","NO","NO","NO","NO","NO","NO","NO","NO","NO","NO","NO","NO","NO","NO","NO","NO","NO","NO","NO","NO","NO","NO","NO","NO","NO","NO","NO","NO","NO","NO","NO","NO","POINT (-90.997903 30.570596)"
"JCKSN","JACKSON COMMUNITY PARK","12250 SULLIVAN RD","CENTRAL","LOUISIANA","70818","Community","http://www.brec.org/index.cfm/park/JacksonCommunityPark","9.5500000000000007","NO","NO","NO","NO","NO","NO","NO","NO","NO","NO","NO","NO","NO","NO","NO","NO","NO","YES","NO","NO","NO","NO","NO","NO","NO","NO","YES","NO","NO","NO","NO","NO","NO","NO","NO","YES","NO","NO","NO","NO","NO","YES","NO","POINT (-91.040128 30.558812)"
"JFHWY","JEFFERSON HIGHWAY PARK","8133 JEFFERSON HWY","BATON ROUGE","LOUISIANA","70809.000000000000000","Neighborhood","http://www.brec.org/index.cfm/park/JeffersonHighway","5.000000000000000","NO","NO","NO","NO","YES","NO","NO","NO","NO","NO","NO","NO","NO","NO","NO","NO","NO","NO","NO","NO","NO","NO","NO","NO","NO","YES","YES","NO","YES","NO","NO","YES","NO","NO","NO","NO","NO","NO","NO","YES","NO","YES","NO","POINT (-91.102789 30.422874)"
"JFRST","JEFFERSON STREET PARK","3503 JEFFERSON ST","BAKER","LOUISIANA","70714.000000000000000","Neighborhood","http://www.brec.org/index.cfm/park/JeffersonStreet","10.000000000000000","NO","NO","NO","NO","YES","NO","NO","NO","NO","NO","NO","NO","NO","NO","NO","NO","NO","NO","NO","NO","NO","NO","NO","YES","NO","YES","YES","NO","NO","NO","NO","NO","NO","NO","NO","NO","NO","NO","NO","YES","NO","NO","NO","POINT (-91.161549 30.5906)"
"JFRTR","JEFFERSON TERRACE PARK","10282 CAL RD","BATON ROUGE","LOUISIANA","70809.000000000000000","Neighborhood","http://www.brec.org/index.cfm/park/JeffersonTerrace","11.129999999999999","NO","NO","NO","NO","YES","NO","NO","NO","NO","NO","NO","NO","NO","NO","NO","NO","NO","YES","NO","NO","NO","NO","NO","NO","NO","YES","NO","NO","NO","NO","NO","NO","NO","NO","NO","NO","NO","NO","NO","YES","NO","YES","NO","POINT (-91.070068 30.400903)"
"JMWAT","JAMES WATSON PARK","10555 N PARK AVE","BATON ROUGE","LOUISIANA","70811.000000000000000","Neighborhood","http://www.brec.org/index.cfm/park/JamesWatson","14.760000000000000","NO","YES","NO","NO","YES","NO","NO","NO","NO","NO","NO","NO","NO","NO","NO","NO","NO","NO","NO","NO","NO","NO","NO","NO","NO","NO","NO","NO","NO","NO","NO","NO","NO","NO","NO","NO","NO","NO","NO","YES","NO","NO","NO","POINT (-91.117278 30.544963)"
"JNCRK","JONES CREEK NATURE RESERVE","12300 OLD HAMMOND HWY","BATON ROUGE","LOUISIANA","70816.000000000000000","Conservation","http://www.brec.org/index.cfm/park/JonesCreek","11.690000000000000","NO","NO","NO","NO","NO","NO","NO","NO","NO","NO","NO","NO","NO","NO","NO","NO","NO","NO","NO","NO","NO","NO","NO","NO","NO","NO","YES","NO","NO","NO","NO","NO","NO","NO","NO","NO","NO","NO","NO","NO","NO","NO","NO","POINT (-91.042472 30.44131)"
"KNDLW","KENDALWOOD CONSERVATION AREA","24700 KENDALWOOD RD","BATON ROUGE","LOUISIANA","70817.000000000000000","Conservation","http://www.brec.org/index.cfm/park/Kendalwood","85.116000000000000","NO","NO","NO","NO","NO","NO","YES","NO","NO","NO","NO","NO","NO","NO","NO","NO","NO","NO","NO","NO","NO","NO","NO","NO","NO","NO","YES","YES","NO","NO","NO","NO","NO","NO","NO","NO","NO","NO","NO","NO","NO","NO","NO","POINT (-90.912951 30.350498)"
"KNLDB","KINCHLOE LLOYD BAKER NATURE RESERVE","20821 GREENWELL SPRINGS RD","GREENWELL SPRINGS","LOUISIANA","70739.000000000000000","Conservation","http://www.brec.org/index.cfm/park/KinchloeLloydBaker","32.600000000000001","NO","NO","NO","NO","NO","NO","NO","NO","NO","NO","NO","NO","NO","NO","NO","NO","NO","NO","NO","NO","NO","NO","NO","NO","NO","NO","YES","NO","NO","NO","NO","NO","NO","NO","NO","NO","NO","NO","NO","NO","NO","NO","NO","POINT (-90.982634 30.552309)"
"KOLBY","KOLBY PARK","10620 CENTRAL PINE DR","CENTRAL","LOUISIANA","70818","Neighborhood","http://www.brec.org/index.cfm/park/Kolby","1.3999999999999999","NO","NO","NO","NO","YES","NO","NO","NO","NO","NO","NO","NO","NO","NO","NO","NO","NO","NO","NO","NO","NO","NO","NO","NO","NO","NO","NO","NO","NO","NO","NO","NO","NO","NO","NO","NO","NO","NO","NO","NO","NO","NO","NO","POINT (-91.021348 30.545177)"
"KRNAN","KERNAN AVENUE PARK","333 KERNAN AVE","BATON ROUGE","LOUISIANA","70802.000000000000000","Neighborhood","http://www.brec.org/index.cfm/park/KernanAvenue","5.210000000000000","NO","NO","NO","YES","YES","NO","NO","NO","NO","NO","NO","NO","NO","NO","NO","NO","NO","NO","NO","NO","NO","NO","NO","NO","NO","YES","NO","NO","YES","NO","NO","NO","NO","NO","NO","NO","NO","NO","NO","NO","NO","NO","NO","POINT (-91.155898 30.450691)"
"KRWRN","KERR WARREN PARK","4100 GERONIMO ST","BATON ROUGE","LOUISIANA","70805","Neighborhood","http://www.brec.org/index.cfm/park/KerrWarren","5.1429999999999998","NO","NO","NO","YES","YES","NO","NO","NO","NO","NO","NO","NO","NO","NO","NO","NO","NO","NO","NO","NO","NO","NO","NO","YES","NO","YES","YES","NO","YES","NO","NO","NO","NO","NO","NO","NO","NO","NO","NO","NO","NO","NO","NO","POINT (-91.161971 30.486832)"
"KTHYD","KATHY DRIVE PARK","1801 KATHY DR","BATON ROUGE","LOUISIANA","70816","Neighborhood","http://www.brec.org/index.cfm/park/KathyDrive","32.966999999999999","NO","NO","NO","YES","NO","NO","NO","NO","NO","NO","NO","NO","NO","NO","NO","NO","NO","NO","NO","NO","NO","NO","NO","YES","NO","YES","NO","NO","YES","NO","NO","YES","NO","NO","YES","NO","NO","NO","NO","NO","NO","YES","NO","POINT (-91.014462 30.443249)"
"LACLA","CLAYCUT BAYOU PARK","6998 ANTIOCH RD","BATON ROUGE","LOUISIANA","70817","Neighborhood","http://www.brec.org/index.cfm/park/Louisiana","7.2999999999999998","NO","NO","YES","NO","NO","NO","NO","NO","NO","NO","NO","NO","NO","NO","NO","NO","NO","NO","NO","NO","NO","NO","NO","YES","NO","YES","YES","NO","NO","NO","NO","NO","NO","NO","NO","NO","NO","NO","NO","NO","NO","NO","NO","POINT (-91.007377 30.387799)"
"LBRNT","LEBRENT AVENUE PARK","6401 LEBRENT AVE","BAKER","LOUISIANA","70714","Neighborhood","http://www.brec.org/index.cfm/park/LebrentAvenue","0.10000000000000001","NO","NO","NO","NO","NO","NO","NO","NO","NO","NO","NO","NO","NO","NO","NO","NO","NO","NO","NO","NO","NO","NO","NO","NO","NO","YES","YES","NO","NO","NO","NO","NO","NO","NO","NO","NO","NO","NO","NO","NO","NO","NO","NO","POINT (-91.127147 30.565944)"
"LEWRD","LEEWARD DRIVE PARK","5800 MENLO DR","BATON ROUGE","LOUISIANA","70808.000000000000000","Neighborhood","http://www.brec.org/index.cfm/park/LeewardDrive","0.500000000000000","NO","NO","NO","NO","NO","NO","NO","NO","NO","NO","NO","NO","NO","NO","NO","NO","NO","NO","NO","NO","NO","NO","NO","NO","NO","YES","YES","NO","NO","NO","NO","NO","NO","NO","NO","NO","NO","NO","NO","NO","NO","NO","NO","POINT (-91.152648 30.393011)"
"LFTHL","LAFITTE HILL PARK","618 JEAN LAFITTE AVE","BATON ROUGE","LOUISIANA","70810","Neighborhood","https://www.brec.org/index.cfm/park/LafitteHill","2.2639999999999998","NO","NO","NO","NO","NO","NO","NO","NO","NO","NO","NO","NO","NO","NO","NO","NO","NO","NO","NO","NO","NO","NO","NO","YES","NO","NO","YES","NO","NO","NO","NO","NO","NO","NO","NO","NO","NO","NO","NO","NO","NO","NO","NO","POINT (-91.061876 30.344789)"
"LFTST","LAFITTE DRIVE PARK","400 LAFITTE DR","BATON ROUGE","LOUISIANA","70819.000000000000000","Neighborhood","http://www.brec.org/index.cfm/park/LafitteStreet","13.449999999999999","NO","NO","NO","NO","YES","NO","NO","NO","NO","NO","NO","NO","NO","NO","NO","NO","NO","NO","NO","NO","NO","NO","NO","NO","NO","YES","YES","NO","NO","NO","NO","NO","NO","NO","NO","NO","NO","NO","NO","YES","NO","NO","NO","POINT (-91.028496 30.458806)"
"LIGON","LIGON ROAD PARK","21600 LIGON RD","ZACHARY","LOUISIANA","70791","Neighborhood","http://www.brec.org/index.cfm/park/LigonRoad","2.6799999999999997","NO","NO","NO","NO","YES","NO","NO","NO","NO","NO","NO","NO","NO","NO","NO","NO","NO","NO","NO","NO","NO","NO","NO","NO","NO","NO","NO","NO","NO","NO","NO","NO","NO","NO","NO","NO","NO","NO","NO","NO","NO","NO","NO","POINT (-91.222636 30.671966)"
"LMWLE","LEO AND MURLIN WILLIE PARK","4101 STUMBERG LN","BATON ROUGE","LOUISIANA","70817","Neighborhood","http://www.brec.org/index.cfm/park/LeoMurlinWillie","2.5389999999999997","NO","NO","NO","NO","NO","NO","NO","NO","NO","NO","NO","NO","NO","NO","NO","NO","NO","YES","NO","NO","NO","NO","NO","NO","NO","NO","NO","NO","NO","NO","NO","NO","NO","NO","NO","NO","NO","NO","NO","NO","NO","NO","NO","POINT (-91.035425 30.414269)"
"LNGFL","LONGFELLOW PARK","5201 LONGFELLOW DR","BATON ROUGE","LOUISIANA","70805.000000000000000","Neighborhood","http://www.brec.org/index.cfm/park/Longfellow","10.910000000000000","NO","NO","NO","NO","YES","NO","NO","NO","NO","NO","NO","NO","NO","NO","NO","NO","NO","NO","NO","NO","NO","NO","NO","NO","NO","NO","YES","NO","YES","NO","NO","NO","NO","NO","NO","NO","NO","NO","NO","NO","NO","NO","NO","POINT (-91.157484 30.497594)"
"LNGRG","LONGRIDGE PARK","12127 LONGRIDGE AVE","BATON ROUGE","LOUISIANA","70816.000000000000000","Neighborhood","http://www.brec.org/index.cfm/park/Longridge","11.310000000000000","NO","NO","NO","YES","YES","NO","NO","NO","NO","NO","NO","NO","NO","NO","NO","NO","NO","NO","NO","NO","NO","NO","NO","NO","NO","YES","YES","NO","NO","NO","NO","NO","NO","NO","NO","NO","NO","NO","NO","YES","NO","NO","NO","POINT (-91.046931 30.422027)"
"LNIER","LANIER DRIVE PARK","3901 LANIER DR","BATON ROUGE","LOUISIANA","70812.000000000000000","Neighborhood","http://www.brec.org/index.cfm/park/LanierDrive","3.238000000000000","NO","NO","NO","NO","YES","NO","NO","NO","NO","NO","NO","NO","NO","NO","NO","NO","NO","NO","NO","NO","NO","NO","NO","YES","NO","NO","NO","NO","NO","NO","NO","NO","NO","NO","NO","NO","NO","NO","NO","NO","NO","NO","NO","POINT (-91.107924 30.486603)"
"LTLFR","LITTLE FARMS PARK","3754 LITTLE FARMS DR","ZACHARY","LOUISIANA","70791","Neighborhood","http://www.brec.org/index.cfm/park/LittleFarms","2.2999999999999998","NO","NO","NO","NO","YES","NO","NO","NO","NO","NO","NO","NO","NO","NO","NO","NO","NO","NO","NO","NO","NO","NO","NO","YES","NO","YES","NO","NO","NO","NO","NO","NO","NO","NO","NO","NO","NO","NO","NO","YES","NO","NO","NO","POINT (-91.112145 30.640804)"
"LVETT","LOVETT ROAD PARK","13443 LOVETT RD","CENTRAL","LOUISIANA","70818","Neighborhood","http://www.brec.org/index.cfm/park/LovettRoad","62.469999999999992","NO","NO","NO","YES","NO","NO","NO","NO","NO","NO","NO","NO","NO","YES","NO","NO","NO","NO","NO","NO","NO","NO","NO","YES","NO","YES","YES","NO","YES","NO","NO","NO","NO","NO","NO","NO","NO","NO","NO","YES","NO","NO","NO","POINT (-91.038994 30.522875)"
"MAYFR","MAYFAIR PARK","650 S SABINE DR","BATON ROUGE","LOUISIANA","70810.000000000000000","Neighborhood","http://www.brec.org/index.cfm/park/Mayfair","22.959999999999997","NO","NO","NO","YES","YES","NO","NO","NO","NO","NO","NO","NO","NO","NO","NO","NO","NO","NO","NO","NO","NO","NO","NO","NO","NO","YES","YES","NO","YES","NO","NO","NO","NO","NO","NO","NO","NO","NO","NO","YES","NO","YES","NO","POINT (-91.107876 30.375838)"
"MDISN","MADISON AVENUE PARK","1820 MADISON AVE","BATON ROUGE","LOUISIANA","70802","Neighborhood","http://www.brec.org/index.cfm/park/MadisonAvenue","0.97199999999999998","NO","NO","NO","NO","YES","NO","NO","NO","NO","NO","NO","NO","NO","NO","NO","NO","NO","NO","NO","NO","NO","NO","NO","NO","NO","YES","YES","NO","NO","NO","NO","NO","NO","NO","NO","NO","NO","NO","NO","NO","NO","NO","NO","POINT (-91.170475 30.467378)"
"MDWPK","MEADOW PARK","6951 MEADOW PARK AVE","BATON ROUGE","LOUISIANA","70810","Neighborhood","http://www.brec.org/index.cfm/park/Meadow","8.1400000000000006","NO","NO","NO","NO","YES","NO","NO","NO","NO","NO","NO","NO","NO","NO","NO","NO","NO","NO","NO","NO","NO","NO","NO","NO","NO","YES","NO","NO","NO","NO","NO","YES","NO","NO","NO","NO","NO","NO","NO","YES","NO","YES","NO","POINT (-91.069272 30.372194)"
"MGCTY","MAGNOLIA CEMETERY","422 N 19TH ST","BATON ROUGE","LOUISIANA","70802.000000000000000","Special Facility","http://www.brec.org/index.cfm/park/MagnoliaCemetary","16.500000000000000","NO","NO","NO","NO","NO","NO","NO","NO","NO","NO","NO","NO","NO","NO","NO","NO","NO","NO","NO","NO","NO","NO","NO","NO","NO","NO","NO","NO","NO","NO","NO","NO","NO","NO","NO","NO","NO","NO","NO","NO","NO","NO","NO","POINT (-91.169341 30.450908)"
"MJLAN","MARY J. LANDS PARK","802 N 30TH ST","BATON ROUGE","LOUISIANA","70802.000000000000000","Neighborhood","http://www.brec.org/index.cfm/park/MaryJLands","3.500000000000000","NO","NO","NO","NO","YES","NO","NO","NO","NO","NO","NO","NO","NO","NO","NO","NO","NO","NO","NO","NO","NO","NO","NO","YES","NO","NO","YES","NO","NO","NO","NO","NO","NO","NO","NO","NO","NO","NO","NO","NO","NO","YES","NO","POINT (-91.158713 30.456659)"
"MLSAV","MILLS AVENUE PARK","401 MILLS AVE","BATON ROUGE","LOUISIANA","70807","Neighborhood","http://www.brec.org/index.cfm/park/MillsAvenue","5.4899999999999993","NO","NO","NO","YES","YES","NO","NO","NO","NO","NO","NO","NO","NO","NO","NO","NO","NO","NO","NO","NO","NO","NO","NO","NO","NO","YES","YES","NO","YES","NO","NO","NO","NO","NO","NO","NO","NO","NO","NO","NO","NO","YES","NO","POINT (-91.194955 30.53271)"
"MMPLT","MAGNOLIA MOUND PLANTATION","2161 NICHOLSON DR","BATON ROUGE","LOUISIANA","70802.000000000000000","Special Facility","http://www.brec.org/index.cfm/park/MagnoliaMoundPlantation","15.113000000000000","NO","NO","NO","NO","NO","NO","NO","NO","NO","NO","NO","NO","NO","NO","NO","NO","NO","NO","NO","NO","NO","NO","NO","NO","NO","NO","NO","NO","YES","NO","NO","NO","NO","NO","NO","NO","NO","NO","NO","NO","NO","NO","NO","POINT (-91.187958 30.426591)"
"MMSTD","MEMORIAL SPORTS COMPLEX","1702 FOSS ST","BATON ROUGE","LOUISIANA","70802","Special Facility","http://www.brec.org/index.cfm/park/MemorialStadium","36.829999999999998","NO","NO","NO","NO","NO","NO","NO","NO","NO","NO","NO","NO","NO","NO","NO","NO","NO","NO","NO","NO","NO","NO","NO","YES","NO","NO","NO","NO","NO","NO","NO","NO","NO","NO","NO","NO","YES","NO","NO","NO","NO","NO","NO","POINT (-91.172094 30.4598)"
"MNCHC","BAYOU MANCHAC PARK","19010 JEFFERSON HWY","BATON ROUGE","LOUISIANA","70817.000000000000000","Neighborhood","http://www.brec.org/index.cfm/park/Manchac","54.059999999999995","NO","NO","NO","NO","YES","NO","YES","NO","NO","NO","NO","NO","NO","NO","NO","NO","NO","NO","NO","NO","NO","NO","NO","YES","YES","NO","YES","YES","NO","NO","NO","NO","NO","NO","NO","NO","NO","NO","NO","YES","NO","YES","NO","POINT (-90.986201 30.347861)"
"MNTSO","MONTE SANO PARK","2727 GREENWELL ST","BAKER","LOUISIANA","70714.000000000000000","Neighborhood","http://www.brec.org/index.cfm/park/MonteSano","54.144999999999996","NO","NO","NO","YES","YES","NO","NO","NO","NO","NO","NO","NO","NO","NO","NO","NO","NO","NO","NO","NO","NO","NO","NO","NO","NO","NO","YES","NO","YES","NO","NO","NO","NO","NO","NO","NO","NO","NO","NO","NO","NO","NO","NO",
"MPLWD","MAPLEWOOD DRIVE PARK","7950 MAPLEWOOD DR","BATON ROUGE","LOUISIANA","70812.000000000000000","Neighborhood","http://www.brec.org/index.cfm/park/Maplewood","11.199999999999999","NO","NO","NO","NO","YES","NO","NO","NO","NO","NO","NO","NO","NO","NO","NO","NO","NO","NO","NO","NO","NO","NO","NO","YES","NO","NO","YES","NO","YES","NO","NO","NO","NO","NO","NO","NO","NO","NO","NO","YES","NO","NO","NO","POINT (-91.112059 30.507701)"
"MYRTH","MARY RUTH PARK","8808 MARY RUTH AVE","BATON ROUGE","LOUISIANA","70810.000000000000000","Neighborhood","http://www.brec.org/index.cfm/park/MaryRuth","0.500000000000000","NO","NO","NO","NO","NO","NO","NO","NO","NO","NO","NO","NO","NO","NO","NO","NO","NO","NO","NO","NO","NO","NO","NO","NO","NO","NO","NO","NO","NO","NO","NO","NO","NO","NO","NO","NO","NO","NO","NO","NO","NO","NO","NO","POINT (-91.111457 30.386113)"
"MYRTL","MYRTLE STREET PARK","5530 MYRTLE ST","BAKER","LOUISIANA","70714.000000000000000","Neighborhood","http://www.brec.org/index.cfm/park/MyrtleStreet","6.500000000000000","NO","NO","NO","NO","NO","NO","NO","NO","NO","NO","NO","NO","NO","NO","NO","NO","NO","NO","NO","NO","NO","NO","NO","NO","NO","NO","YES","NO","NO","NO","NO","NO","NO","NO","NO","NO","NO","NO","NO","NO","NO","NO","NO","POINT (-91.143271 30.57872)"
"NAIRN","NAIRN DRIVE PARK","2800 NAIRN DR","BATON ROUGE","LOUISIANA","70808","Neighborhood","http://www.brec.org/index.cfm/park/NairnDrive","7.4299999999999997","NO","NO","NO","YES","YES","NO","NO","NO","NO","NO","NO","NO","NO","NO","NO","NO","NO","NO","NO","NO","NO","NO","NO","YES","NO","YES","YES","NO","YES","NO","NO","NO","NO","NO","NO","NO","NO","NO","NO","NO","NO","YES","NO","POINT (-91.146268 30.422995)"
"NBLVD","NORTH BOULEVARD PARK","1640 NORTH BLVD","BATON ROUGE","LOUISIANA","70802.000000000000000","Neighborhood","http://www.brec.org/index.cfm/park/NorthBoulevard","0.155000000000000","NO","NO","NO","NO","YES","NO","NO","NO","NO","NO","NO","NO","NO","NO","NO","NO","NO","NO","NO","NO","NO","NO","NO","NO","NO","NO","NO","NO","NO","NO","NO","NO","NO","NO","NO","NO","NO","NO","NO","NO","NO","NO","NO","POINT (-91.172129 30.447669)"
"NEGTN","NORTH 18TH STREET PARK","1801 GAYOSA ST","BATON ROUGE","LOUISIANA","70802.000000000000000","Neighborhood","http://www.brec.org/index.cfm/park/North18thStreet","0.998000000000000","NO","NO","NO","NO","YES","NO","NO","NO","NO","NO","NO","NO","NO","NO","NO","NO","NO","NO","NO","NO","NO","NO","NO","NO","NO","NO","YES","NO","NO","NO","NO","NO","NO","NO","NO","NO","NO","NO","NO","NO","NO","NO","NO","POINT (-91.170536 30.454097)"
"NFRTN","NORTH 14TH STREET PARK","100 N 14TH ST","BATON ROUGE","LOUISIANA","70802","Neighborhood","http://www.brec.org/index.cfm/park/North14thStreet","0.56400000000000006","NO","NO","NO","NO","YES","NO","NO","NO","NO","NO","NO","NO","NO","NO","NO","NO","NO","NO","NO","NO","NO","NO","NO","NO","NO","NO","NO","NO","YES","NO","NO","NO","NO","NO","NO","NO","NO","NO","NO","NO","NO","NO","NO","POINT (-91.17504 30.447838)"
"NSFCP","NORTH SHERWOOD FOREST COMMUNITY PK","3140 N SHERWOOD FOREST DR","BATON ROUGE","LOUISIANA","70814","Community","http://www.brec.org/index.cfm/park/NorthSherwoodForestCommunityPark","138.36000000000001","NO","NO","NO","NO","YES","NO","NO","NO","NO","NO","NO","NO","NO","NO","NO","YES","YES","YES","NO","NO","NO","NO","NO","NO","NO","YES","YES","NO","YES","NO","NO","NO","NO","NO","NO","YES","NO","NO","NO","YES","NO","YES","YES",
"NSTRE","NORTH STREET PARK","4100 NORTH ST","BATON ROUGE","LOUISIANA","70806","Neighborhood","http://www.brec.org/index.cfm/park/NorthStreet","9.9819999999999993","NO","NO","NO","YES","NO","NO","NO","NO","NO","NO","NO","NO","NO","NO","NO","NO","NO","NO","NO","NO","NO","NO","NO","NO","NO","YES","YES","NO","YES","NO","NO","NO","NO","NO","NO","NO","NO","NO","NO","NO","NO","NO","NO","POINT (-91.144809 30.453764)"
"OHHWY","OLD HAMMOND HIGHWAY PARK","8900 OLD HAMMOND HWY","BATON ROUGE","LOUISIANA","70806.000000000000000","Neighborhood","http://www.brec.org/index.cfm/park/OldHammondHighway","12.900000000000000","NO","NO","NO","NO","NO","NO","NO","NO","NO","NO","NO","NO","NO","NO","NO","NO","NO","NO","NO","NO","NO","NO","NO","NO","NO","NO","YES","NO","NO","NO","NO","NO","NO","YES","NO","NO","NO","NO","NO","YES","NO","YES","NO","POINT (-91.087887 30.430937)"
"PLANK","PLANK ROAD PARK","19550 PLANK RD","ZACHARY","LOUISIANA","70791","Neighborhood","http://www.brec.org/index.cfm/park/PlankRoad","82.099999999999994","NO","NO","YES","NO","NO","NO","NO","NO","NO","NO","NO","NO","NO","NO","NO","NO","NO","NO","NO","NO","NO","NO","NO","NO","NO","YES","YES","NO","YES","NO","NO","NO","NO","NO","NO","NO","NO","NO","NO","NO","NO","NO","NO","POINT (-91.107858 30.640614)"
"PLMNO","PALOMINO DRIVE PARK","14100 PALOMINO DR","GREENWELL SPRINGS","LOUISIANA","70739","Neighborhood","http://www.brec.org/index.cfm/park/PalominoDrive","149.89000000000001","NO","NO","NO","NO","NO","NO","NO","NO","NO","NO","NO","NO","NO","NO","NO","YES","NO","NO","NO","NO","NO","NO","NO","NO","NO","YES","YES","NO","YES","NO","NO","NO","NO","NO","NO","NO","NO","NO","NO","YES","NO","NO","NO","POINT (-91.011598 30.574595)"
"PNHRS","PINEHURST PARK","13888 PINEHURST AVE","BATON ROUGE","LOUISIANA","70817.000000000000000","Neighborhood","http://www.brec.org/index.cfm/park/Pinehurst","5.000000000000000","NO","NO","NO","NO","NO","NO","NO","NO","NO","NO","NO","NO","NO","NO","NO","NO","NO","NO","NO","NO","NO","NO","NO","NO","NO","NO","YES","NO","NO","NO","NO","NO","NO","NO","NO","NO","NO","NO","NO","NO","NO","NO","NO","POINT (-91.031405 30.380922)"
"PRIDE","PRIDE PARK","16440 PORT HUDSON-PRIDE RD","PRIDE","LOUISIANA","70770.000000000000000","Neighborhood","http://www.brec.org/index.cfm/park/Pride","10.150000000000000","NO","NO","NO","NO","YES","NO","NO","NO","NO","NO","NO","NO","NO","NO","NO","NO","NO","NO","NO","NO","NO","NO","NO","NO","NO","NO","YES","NO","YES","NO","NO","NO","NO","NO","NO","NO","NO","NO","NO","YES","NO","NO","NO","POINT (-90.98622 30.694486)"
"PRKLN","PARKLAWN PARK","12228 PARKLAWN AVE","BATON ROUGE","LOUISIANA","70816","Neighborhood","http://www.brec.org/index.cfm/park/Parklawn","5.5309999999999997","NO","NO","NO","NO","YES","NO","NO","NO","NO","NO","NO","NO","NO","NO","NO","NO","NO","NO","NO","NO","NO","NO","NO","YES","NO","NO","YES","NO","YES","NO","NO","NO","NO","NO","NO","NO","NO","NO","NO","YES","NO","NO","NO","POINT (-91.045195 30.404201)"
"PRKRD","PERKINS ROAD COMMUNITY PARK","7122 PERKINS RD","BATON ROUGE","LOUISIANA","70808.000000000000000","Community","http://www.brec.org/index.cfm/park/PerkinsRoadCommunityPark","52.199999999999996","NO","NO","NO","YES","NO","YES","NO","NO","YES","NO","NO","NO","NO","NO","NO","YES","NO","YES","NO","NO","NO","YES","NO","NO","NO","YES","YES","NO","YES","NO","NO","YES","NO","YES","NO","NO","YES","NO","NO","YES","YES","YES","NO","POINT (-91.114153 30.39795)"
"PRKVW","PARKVIEW PARK","9000 N PARKVIEW DR","BATON ROUGE","LOUISIANA","70815.000000000000000","Neighborhood","http://www.brec.org/index.cfm/park/Parkview","5.000000000000000","NO","NO","NO","NO","YES","NO","NO","NO","NO","NO","NO","NO","NO","NO","NO","NO","NO","NO","NO","NO","NO","NO","NO","YES","NO","YES","YES","NO","NO","NO","NO","NO","NO","NO","NO","NO","NO","NO","NO","YES","NO","YES","NO","POINT (-91.090565 30.446082)"
"PWNEE","PAWNEE STREET PARK","2100 SCENIC HWY","BATON ROUGE","LOUISIANA","70802","Neighborhood","http://www.brec.org/index.cfm/park/PawneeStreet","0.76600000000000001","NO","NO","NO","NO","YES","NO","NO","NO","NO","NO","NO","NO","NO","NO","NO","NO","NO","NO","NO","NO","NO","NO","NO","NO","NO","NO","NO","NO","NO","NO","NO","NO","NO","NO","NO","NO","NO","NO","NO","NO","NO","NO","NO","POINT (-91.167969 30.46656)"
"QRTHS","QUARTERHORSE NATURE RESERVE","23400-23500 QUARTER HORSE DR","ZACHARY","LOUISIANA","70791.000000000000000","Conservation","http://www.brec.org/index.cfm/park/QuarterhorseDrive","21.933999999999997","NO","NO","NO","NO","NO","NO","NO","NO","NO","NO","NO","NO","NO","NO","NO","NO","NO","NO","NO","NO","NO","NO","NO","NO","NO","NO","NO","NO","NO","NO","NO","NO","NO","NO","NO","NO","NO","NO","NO","NO","NO","NO","NO","POINT (-91.172549 30.694819)"
"RDOKS","RED OAKS PARK","2100 GREEN OAK DR","BATON ROUGE","LOUISIANA","70815","Neighborhood","http://www.brec.org/index.cfm/park/RedOaks","2.7999999999999998","NO","NO","NO","NO","NO","NO","NO","NO","NO","NO","NO","NO","NO","NO","NO","NO","NO","NO","NO","NO","NO","NO","NO","NO","NO","NO","YES","NO","YES","NO","NO","YES","NO","NO","NO","NO","NO","NO","NO","YES","NO","NO","NO","POINT (-91.0633 30.468118)"
"REAMS","REAMES ROAD PARK","23223 REAMES RD","ZACHARY","LOUISIANA","70791.000000000000000","Neighborhood","http://www.brec.org/index.cfm/park/ReamesRoad","5.000000000000000","NO","NO","NO","YES","YES","NO","NO","NO","NO","NO","NO","NO","NO","NO","NO","NO","NO","NO","NO","NO","NO","NO","NO","NO","NO","NO","YES","NO","YES","NO","NO","YES","NO","NO","NO","NO","NO","NO","NO","YES","NO","NO","NO","POINT (-91.027428 30.690453)"
"RIODR","RIO DRIVE PARK","6900 RIO DR","BATON ROUGE","LOUISIANA","70812.000000000000000","Neighborhood","http://www.brec.org/index.cfm/park/RioDrive","5.923000000000000","NO","NO","NO","NO","YES","NO","NO","NO","NO","NO","NO","NO","NO","NO","NO","NO","NO","NO","NO","NO","NO","NO","NO","NO","NO","YES","YES","NO","NO","NO","NO","NO","NO","NO","NO","NO","NO","NO","NO","NO","NO","NO","NO","POINT (-91.121395 30.503751)"
"RLLNS","ROLLINS ROAD PARK","5794 ROLLINS RD","ZACHARY","LOUISIANA","70791.000000000000000","Neighborhood","http://www.brec.org/index.cfm/park/RollinsRoad","10.459999999999999","NO","YES","NO","NO","YES","NO","NO","NO","NO","NO","NO","NO","NO","NO","NO","NO","NO","NO","NO","NO","NO","NO","NO","NO","NO","NO","YES","NO","NO","NO","NO","NO","NO","NO","NO","NO","NO","NO","NO","NO","NO","NO","NO","POINT (-91.157363 30.659091)"
"RLYRS","RAILEY ROSHTO PARK","11207 NORWAY PINE DR","GREENWELL SPRINGS","LOUISIANA","70739.000000000000000","Neighborhood","http://www.brec.org/index.cfm/park/RaileyRoshto","13.445000000000000","NO","NO","NO","NO","NO","NO","NO","NO","NO","NO","NO","NO","NO","NO","NO","NO","NO","NO","NO","NO","NO","NO","NO","NO","NO","YES","YES","NO","NO","NO","NO","NO","NO","NO","NO","NO","NO","NO","NO","NO","NO","NO","NO","POINT (-91.002268 30.553132)"
"RSVLT","ROOSEVELT STREET PARK","1011 W ROOSEVELT ST","BATON ROUGE","LOUISIANA","70802","Neighborhood","http://www.brec.org/index.cfm/park/RooseveltStreet","3.2999999999999998","NO","NO","NO","NO","YES","NO","NO","NO","NO","NO","NO","NO","NO","NO","NO","NO","NO","NO","NO","NO","NO","NO","NO","YES","NO","NO","YES","NO","NO","NO","NO","NO","NO","NO","NO","NO","NO","NO","NO","NO","NO","NO","NO","POINT (-91.190765 30.421514)"
"RTAST","RITA STREET PARK","2315 RITA ST","ZACHARY","LOUISIANA","70791.000000000000000","Neighborhood","http://www.brec.org/index.cfm/park/RitaStreet","12.910000000000000","NO","NO","NO","NO","NO","NO","NO","NO","NO","NO","NO","NO","NO","NO","NO","NO","NO","NO","NO","NO","NO","NO","NO","YES","NO","NO","YES","NO","NO","NO","NO","NO","NO","NO","NO","NO","NO","NO","NO","YES","NO","NO","NO","POINT (-91.18111 30.664318)"
"RULBF","RUE LEBOUEF PARK","11550 RUE LEBOUEF","BATON ROUGE","LOUISIANA","70810","Neighborhood","http://www.brec.org/index.cfm/park/RueLeBouef","6.3999999999999995","NO","NO","NO","NO","NO","NO","NO","NO","NO","NO","NO","NO","NO","NO","NO","NO","NO","NO","NO","NO","NO","NO","NO","YES","NO","YES","YES","NO","NO","NO","NO","NO","NO","NO","NO","NO","NO","NO","NO","YES","NO","NO","NO","POINT (-91.091251 30.369828)"
"RVRBN","RIVERBEND PARK","5800 RIVERBEND LAKES DR","BATON ROUGE","LOUISIANA","70820.000000000000000","Neighborhood","http://www.brec.org/index.cfm/park/Riverbend","15.000000000000000","NO","NO","NO","NO","YES","NO","NO","NO","NO","NO","NO","NO","NO","NO","NO","NO","NO","NO","NO","NO","NO","NO","NO","NO","NO","YES","YES","NO","NO","NO","NO","NO","NO","NO","NO","NO","NO","NO","NO","YES","NO","NO","NO","POINT (-91.202346 30.385852)"
"SAIAP","TICKIE SAIA MEMORIAL PARK","855 N DONMOOR AVE","BATON ROUGE","LOUISIANA","70806","Neighborhood","http://www.brec.org/index.cfm/park/Saia","3.7399999999999998","NO","YES","NO","NO","YES","NO","NO","NO","NO","NO","NO","NO","NO","NO","NO","NO","NO","NO","NO","NO","NO","NO","NO","YES","NO","NO","YES","NO","YES","NO","NO","NO","NO","NO","NO","NO","NO","NO","NO","NO","NO","NO","NO","POINT (-91.118605 30.457925)"
"SCTVL","SCOTLANDVILLE PARKWAY","3200 HARDING BLVD","BATON ROUGE","LOUISIANA","70807","Neighborhood","http://www.brec.org/index.cfm/park/ScotlandvilleParkway","109.8","NO","NO","NO","YES","YES","NO","NO","NO","NO","NO","NO","NO","YES","NO","NO","NO","NO","NO","NO","NO","NO","YES","NO","NO","NO","YES","YES","NO","NO","NO","NO","NO","NO","NO","NO","NO","NO","NO","NO","YES","NO","NO","NO","POINT (-91.158377 30.521289)"
"SDYCK","SANDY CREEK COMMUNITY PARK","21572 CARSON RD","GREENWELL SPRINGS","LOUISIANA","70739","Community","http://www.brec.org/index.cfm/park/SandyCreek","386.33000000000004","NO","NO","NO","NO","NO","NO","YES","NO","NO","NO","NO","NO","NO","NO","YES","YES","NO","NO","NO","NO","NO","NO","YES","NO","NO","NO","NO","YES","NO","NO","NO","NO","NO","NO","NO","NO","NO","NO","NO","NO","NO","NO","NO","POINT (-90.960714 30.668811)"
"SGRLD","SUGARLAND PARK","4700 SUGAR LAND DR","BATON ROUGE","LOUISIANA","70814","Neighborhood","https://www.brec.org/index.cfm/park/Sugarland","4.7459999999999996","NO","NO","NO","NO","YES","NO","NO","NO","NO","NO","NO","NO","NO","NO","NO","NO","NO","YES","NO","NO","NO","NO","NO","NO","NO","YES","YES","NO","NO","NO","NO","NO","NO","NO","NO","NO","NO","NO","NO","YES","NO","YES","NO","POINT (-91.040305 30.492404)"
"SHARP","SHARP ROAD PARK","501 SHARP RD","BATON ROUGE","LOUISIANA","70815.000000000000000","Neighborhood","http://www.brec.org/index.cfm/park/SharpRoad","12.118000000000000","NO","NO","NO","NO","YES","NO","NO","NO","NO","NO","NO","NO","NO","NO","NO","NO","NO","NO","NO","NO","NO","NO","NO","NO","NO","NO","YES","NO","YES","NO","NO","NO","NO","NO","NO","NO","NO","NO","NO","YES","NO","NO","NO","POINT (-91.07049 30.449757)"
"SHRLF","SOUTH HARRELL'S FERRY NATURE RESERVE","15750 S HARRELL'S FERRY RD","BATON ROUGE","LOUISIANA","70816.000000000000000","Conservation","http://www.brec.org/index.cfm/park/SouthHarrellsFerry","29.288999999999998","NO","NO","NO","NO","NO","NO","NO","NO","NO","NO","NO","NO","NO","NO","NO","NO","NO","NO","NO","NO","NO","NO","NO","NO","NO","NO","NO","NO","NO","NO","NO","NO","NO","NO","NO","NO","NO","NO","NO","NO","NO","NO","NO","POINT (-91.014543 30.426892)"
"SMDAG","SAMUEL D'AGOSTINO PARK","10300 EL SCOTT AVE","BATON ROUGE","LOUISIANA","70811.000000000000000","Neighborhood","http://www.brec.org/index.cfm/park/SamuelDAgostino","10.330000000000000","NO","NO","NO","NO","YES","NO","NO","NO","NO","NO","NO","NO","NO","NO","NO","NO","NO","NO","NO","NO","NO","NO","NO","NO","NO","YES","YES","NO","NO","NO","NO","NO","NO","NO","NO","NO","NO","NO","NO","NO","NO","YES","NO","POINT (-91.073456 30.500051)"
"SPAIN","SPAIN STREET PARK","2101 SPAIN ST","BATON ROUGE","LOUISIANA","70806.000000000000000","Neighborhood","http://www.brec.org/index.cfm/park/SpainStreet","0.750000000000000","NO","NO","NO","NO","YES","NO","NO","NO","NO","NO","NO","NO","NO","NO","NO","NO","NO","NO","NO","NO","NO","NO","NO","NO","NO","YES","YES","NO","NO","NO","NO","NO","NO","NO","NO","NO","NO","NO","NO","NO","NO","NO","NO","POINT (-91.166629 30.44489)"
"SPSTN","SPANISH TOWN PARK","1300 SPANISH TOWN RD","BATON ROUGE","LOUISIANA","70802","Neighborhood","http://www.brec.org/index.cfm/park/SpanishTown","2.0500000000000003","NO","NO","NO","NO","YES","NO","NO","NO","NO","NO","NO","NO","NO","NO","NO","NO","NO","NO","NO","NO","NO","NO","NO","NO","NO","YES","YES","NO","NO","NO","NO","NO","NO","NO","NO","NO","NO","NO","NO","NO","NO","YES","NO","POINT (-91.176163 30.454976)"
"SPTAC","SPORTS ACADEMY","1002 LAUREL ST","BATON ROUGE","LOUISIANA","70802.000000000000000","Special Facility","http://www.brec.org/index.cfm/park/SportsAcademy","1.000000000000000","NO","NO","NO","YES","NO","NO","NO","NO","NO","NO","NO","NO","NO","NO","NO","NO","NO","NO","NO","NO","NO","NO","NO","NO","NO","NO","NO","NO","YES","NO","NO","NO","NO","NO","NO","NO","NO","NO","NO","NO","NO","NO","NO","POINT (-91.179311 30.450637)"
"STHMG","SOUTH MAGNOLIA PARK","2409 S MAGNOLIA DR","BAKER","LOUISIANA","70714.000000000000000","Neighborhood","http://www.brec.org/index.cfm/park/SouthMagnolia","6.750000000000000","NO","NO","NO","NO","NO","NO","NO","NO","NO","NO","NO","NO","NO","NO","NO","NO","NO","NO","NO","NO","NO","NO","NO","NO","NO","NO","YES","NO","NO","NO","NO","NO","NO","NO","NO","NO","NO","NO","NO","YES","NO","NO","NO","POINT (-91.177414 30.576488)"
"STMPG","SANTA MARIA PARK","18460 SANTA MARIA PKWY","BATON ROUGE","LOUISIANA","70809","Neighborhood","http://www.brec.org/index.cfm/park/SantaMariaPark","170.90000000000001","NO","NO","NO","NO","NO","NO","NO","NO","NO","NO","NO","NO","NO","NO","NO","NO","YES","NO","NO","NO","YES","NO","NO","NO","NO","NO","YES","NO","NO","NO","NO","NO","NO","NO","NO","NO","NO","NO","NO","YES","NO","YES","NO","POINT (-91.009044 30.341042)"
"STMPG","SANTA MARIA PARK","18460 SANTA MARIA PKWY","BATON ROUGE","LOUISIANA","70809","Golf Course","http://www.brec.org/index.cfm/park/SantaMariaPark","170.90000000000001","NO","NO","NO","NO","NO","NO","NO","NO","NO","NO","NO","NO","NO","NO","NO","NO","YES","NO","NO","NO","YES","NO","NO","NO","NO","NO","YES","NO","NO","NO","NO","NO","NO","NO","NO","NO","NO","NO","NO","YES","NO","YES","NO","POINT (-91.009044 30.341042)"
"SVNTH","SEVENTH STREET PARK","639 N 7TH ST","BATON ROUGE","LOUISIANA","70802","Neighborhood","http://www.brec.org/index.cfm/park/SeventhStreet","0.29999999999999999","NO","NO","NO","NO","NO","NO","NO","NO","NO","NO","NO","NO","NO","NO","NO","NO","NO","NO","YES","NO","NO","NO","NO","NO","NO","YES","YES","NO","NO","NO","NO","NO","NO","NO","NO","NO","NO","NO","NO","NO","NO","NO","NO","POINT (-91.183575 30.453498)"
"TAMDR","TAMS DRIVE PARK","11600 TAMS DR","BATON ROUGE","LOUISIANA","70815.000000000000000","Neighborhood","http://www.brec.org/index.cfm/park/TamsDrive","6.000000000000000","NO","NO","NO","NO","YES","NO","NO","NO","NO","NO","NO","NO","NO","NO","NO","NO","NO","NO","NO","NO","NO","NO","NO","YES","NO","YES","YES","NO","NO","NO","NO","NO","NO","NO","NO","NO","NO","NO","NO","NO","NO","NO","NO","POINT (-91.054206 30.466668)"
"TDBHM","T. D. BICKHAM, JR. PARK","6850 PETTIT RD","BAKER","LOUISIANA","70714.000000000000000","Neighborhood","http://www.brec.org/index.cfm/park/TDBickham","205.250000000000000","NO","NO","NO","YES","YES","NO","NO","NO","NO","NO","NO","NO","NO","NO","NO","NO","NO","NO","NO","NO","NO","NO","NO","NO","NO","YES","YES","NO","YES","NO","NO","NO","NO","NO","NO","NO","NO","NO","NO","NO","NO","NO","NO","POINT (-91.121058 30.579231)"
"TMSAM","THOMAS MAHER PARK","8200 OAK VIEW DR","BATON ROUGE","LOUISIANA","70814","Neighborhood","http://www.brec.org/index.cfm/park/ThomasMaher","5.4299999999999997","NO","NO","NO","NO","NO","NO","NO","NO","NO","NO","NO","NO","NO","NO","NO","NO","NO","NO","NO","NO","NO","NO","NO","YES","NO","NO","YES","NO","NO","NO","NO","NO","NO","NO","NO","NO","NO","NO","NO","YES","NO","NO","NO","POINT (-91.103941 30.484425)"
"TRRCE","TERRACE STREET PARK","701 TERRACE ST","BATON ROUGE","LOUISIANA","70802.000000000000000","Neighborhood","http://www.brec.org/index.cfm/park/TerraceStreet","0.496000000000000","NO","NO","NO","NO","YES","NO","NO","NO","NO","NO","NO","NO","NO","NO","NO","NO","NO","NO","YES","NO","NO","NO","NO","NO","NO","NO","YES","NO","NO","NO","NO","NO","NO","NO","NO","NO","NO","NO","NO","NO","NO","NO","NO","POINT (-91.183111 30.436234)"
"TRSTN","TRISTIAN NATURE RESERVE","5209 TRISTIAN AVE","BAKER","LOUISIANA","70714.000000000000000","Conservation","http://www.brec.org/index.cfm/park/TristianAvenue","10.000000000000000","NO","NO","NO","NO","NO","NO","NO","NO","NO","NO","NO","NO","NO","NO","NO","NO","NO","NO","NO","NO","NO","NO","NO","NO","NO","NO","NO","NO","NO","NO","NO","NO","NO","NO","NO","NO","NO","NO","NO","NO","NO","NO","NO","POINT (-91.143545 30.599195)"
"TRYNT","THIRTY-NINTH STREET PARK","3451 39TH ST","ZACHARY","LOUISIANA","70791.000000000000000","Neighborhood","http://www.brec.org/index.cfm/park/ThirtyNinthStreet","12.000000000000000","NO","NO","NO","NO","NO","NO","NO","NO","NO","NO","NO","NO","NO","NO","NO","NO","NO","NO","NO","NO","NO","NO","NO","YES","NO","NO","YES","NO","NO","NO","NO","NO","NO","NO","NO","NO","NO","NO","NO","YES","NO","NO","NO","POINT (-91.1657 30.638857)"
"TSCRA","TUSCARORA STREET PARK","4200 TUSCARORA ST","BATON ROUGE","LOUISIANA","70805","Neighborhood","http://www.brec.org/index.cfm/park/TuscaroraStreet","0.29999999999999999","NO","NO","NO","NO","NO","NO","NO","NO","NO","NO","NO","NO","NO","NO","NO","NO","NO","NO","NO","NO","NO","NO","NO","NO","NO","NO","NO","NO","NO","NO","NO","NO","NO","NO","NO","NO","NO","NO","NO","NO","NO","NO","NO","POINT (-91.165304 30.488105)"
"WBRKT","WEST BROOKSTOWN DRIVE PARK","4550 W BROOKSTOWN DR","BATON ROUGE","LOUISIANA","70805","Neighborhood","http://www.brec.org/index.cfm/park/WestBrookstown","4.8099999999999996","NO","NO","NO","NO","YES","NO","NO","NO","NO","NO","NO","NO","NO","NO","NO","NO","NO","NO","NO","NO","NO","NO","NO","NO","NO","NO","YES","NO","NO","NO","NO","YES","NO","NO","NO","NO","NO","NO","NO","YES","NO","NO","NO","POINT (-91.132938 30.492183)"
"WDLNA","WOODLAWN ACRES AVENUE PARK","16600 WOODLAWN ACRES AVE","BATON ROUGE","LOUISIANA","70817","Neighborhood","http://www.brec.org/index.cfm/park/WoodlawnAcres","28.699999999999999","NO","NO","NO","NO","NO","NO","NO","NO","NO","NO","YES","NO","NO","NO","NO","NO","NO","NO","NO","NO","NO","NO","NO","YES","NO","YES","YES","NO","NO","NO","NO","NO","NO","NO","NO","NO","NO","NO","NO","NO","NO","NO","NO","POINT (-90.999547 30.383674)"
"WDLWT","WOODLAWN WALKING TRAIL","14939 TIGER BEND RD","BATON ROUGE","LOUISIANA","70817.000000000000000","Neighborhood","http://www.brec.org/index.cfm/park/WoodlawnWalkingTrail",,"NO","NO","NO","NO","NO","NO","NO","NO","NO","NO","NO","NO","NO","NO","NO","NO","NO","NO","NO","NO","NO","NO","NO","NO","NO","YES","NO","NO","NO","NO","NO","NO","NO","NO","NO","NO","NO","NO","NO","NO","NO","YES","NO","POINT (-91.01603 30.391292)"
"WEBBP","WEBB MEMORIAL PARK","1351 COUNTRY CLUB DR","BATON ROUGE","LOUISIANA","70806.000000000000000","Golf Course","http://www.brec.org/index.cfm/park/WebbMemorialGolf","91.476999999999990","NO","NO","NO","NO","NO","NO","NO","NO","NO","NO","NO","NO","NO","NO","NO","NO","NO","NO","NO","NO","YES","NO","NO","NO","NO","YES","YES","NO","YES","NO","NO","NO","NO","NO","NO","NO","NO","NO","NO","NO","NO","NO","NO","POINT (-91.141961 30.436635)"
"WMPLD","MILFORD WAMPOLD MEMORIAL PARK","901 STANFORD AVE","BATON ROUGE","LOUISIANA","70808","Neighborhood","http://www.brec.org/index.cfm/park/MilfordWampoldMemorialPark","4.1499999999999995","NO","NO","NO","NO","NO","NO","NO","NO","NO","YES","NO","NO","NO","NO","NO","YES","NO","YES","NO","NO","NO","NO","NO","NO","NO","NO","NO","NO","NO","NO","NO","NO","NO","NO","NO","NO","NO","NO","NO","NO","NO","NO","NO","POINT (-91.163484 30.408352)"
"WNHST","WENONAH STREET PARK","2521 CHIPPEWA ST","BATON ROUGE","LOUISIANA","70805.000000000000000","Neighborhood","http://www.brec.org/index.cfm/park/WenonahStreet","0.110000000000000","NO","NO","NO","NO","NO","NO","NO","NO","NO","NO","NO","NO","NO","NO","NO","NO","NO","NO","NO","NO","NO","NO","NO","NO","NO","NO","NO","NO","NO","NO","NO","NO","NO","NO","NO","NO","NO","NO","NO","NO","NO","NO","NO","POINT (-91.163657 30.47327)"
"WRAYP","WRAY NATURE RESERVE","9801 RIDGEWOOD DR","BATON ROUGE","LOUISIANA","70814.000000000000000","Conservation","http://www.brec.org/index.cfm/park/Wray","47.379999999999995","NO","NO","NO","NO","NO","NO","NO","NO","NO","NO","NO","NO","NO","NO","NO","NO","NO","NO","NO","NO","NO","NO","NO","NO","NO","NO","NO","NO","NO","NO","NO","NO","NO","NO","NO","NO","NO","NO","NO","NO","NO","NO","NO","POINT (-91.078672 30.492974)"
"WRNOW","WARREN WATSON FAM MEMORIAL PK","2700 TROTTER DR","BAKER","LOUISIANA","70714.000000000000000","Neighborhood","http://www.brec.org/index.cfm/park/WarrenOWatson","14.010000000000000","NO","NO","NO","NO","YES","NO","NO","NO","NO","NO","NO","NO","NO","NO","NO","NO","NO","NO","NO","NO","NO","NO","NO","NO","NO","NO","YES","NO","NO","NO","NO","NO","NO","NO","NO","NO","NO","NO","NO","NO","NO","NO","NO","POINT (-91.153264 30.604583)"
"XPSWY","EXPRESSWAY PARK","935 S 11TH ST","BATON ROUGE","LOUISIANA","70802.000000000000000","Neighborhood","http://www.brec.org/index.cfm/park/Expressway","13.182000000000000","NO","NO","NO","NO","YES","YES","NO","NO","NO","NO","NO","NO","NO","NO","NO","NO","NO","YES","NO","NO","NO","YES","NO","NO","NO","YES","YES","NO","YES","NO","NO","NO","NO","NO","NO","NO","NO","NO","NO","NO","NO","YES","NO","POINT (-91.177737 30.438845)"
"YTASI","YATASI DRIVE PARK","16941 YATASI DR","GREENWELL SPRINGS","LOUISIANA","70739","Neighborhood","http://www.brec.org/index.cfm/park/YatasiDrive","1.5799999999999998","NO","NO","NO","NO","NO","NO","NO","NO","NO","NO","NO","NO","NO","NO","NO","NO","NO","NO","NO","NO","NO","NO","NO","YES","NO","YES","YES","NO","NO","NO","NO","NO","NO","NO","NO","NO","NO","NO","NO","NO","NO","NO","NO",
"ZCHCP","ZACHARY COMMUNITY PARK","20055 OLD SCENIC HWY","ZACHARY","LOUISIANA","70791.000000000000000","Community","https://www.brec.org/index.cfm/park/ZacharyCommunityPark","58.278999999999996","NO","NO","NO","NO","YES","NO","NO","NO","NO","NO","NO","NO","NO","YES","NO","YES","NO","YES","NO","NO","NO","NO","NO","NO","NO","YES","YES","YES","YES","NO","NO","YES","NO","YES","NO","YES","NO","NO","NO","NO","NO","YES","NO","POINT (-91.193084 30.649828)"
