"the_geom","id","business_name","full_address","city","state","zip","phone_number","website"
"POINT (-91.112155373271 30.459907052703)","39","SAINT ANTHONY'S HOME","7439 BISHOP OTT DR","BATON ROUGE","LOUISIANA","70806",,
"POINT (-91.03409804761 30.465732009832)","3","FLANNERY OAKS GUEST HOUSE","1642 N FLANNERY RD","BATON ROUGE","LOUISIANA","70815",,
"POINT (-91.055287659951 30.458510058347)","1","CAPITOL HOUSE NURSING & REHAB","11546 FLORIDA BLVD","BATON ROUGE","LOUISIANA","70815",,
"POINT (-91.079334671102 30.420255028185)","2","LANDMARK OF BATON ROUGE","9105 OXFORD PLACE DR","BATON ROUGE","LOUISIANA","70809",,
"POINT (-91.112688520671 30.458898483926)","4","ST. CLARE MANOR NURSING HOME","7435 BISHOP OTT DR","BATON ROUGE","LOUISIANA","70806",,
"POINT (-91.096887302679 30.39834936659)","11","AMBER TERRACE","8585 SUMMA AVE","BATON ROUGE","LOUISIANA","70809",,
"POINT (-91.057808488725 30.363137549228)","19","THE PEARL AT JAMESTOWN","14443 PERKINS RD","BATON ROUGE","LOUISIANA","70810",,
"POINT (-91.139010659142 30.650599003093)","18","ZACHARY MANOR NURSING AND REHAB","6161 MAIN ST","ZACHARY","LOUISIANA","70791",,
"POINT (-91.078878220838 30.418349124244)","6","HERITAGE MANOR OF BATON ROUGE","9301 OXFORD PLACE DR","BATON ROUGE","LOUISIANA","70809",,
"POINT (-91.143014222233 30.415938350748)","9","SOUTHSIDE GARDENS ASSISTED LIVING","4536 PERKINS RD","BATON ROUGE","LOUISIANA","70808",,
"POINT (-91.060385304668 30.458027634267)","13","CARE CENTER (THE)","11188 FLORIDA BLVD","BATON ROUGE","LOUISIANA","70815",,
"POINT (-91.070731936098 30.457384716986)","14","GUEST HOUSE (THE)","10145 FLORIDA BLVD","BATON ROUGE","LOUISIANA","70815",,
"POINT (-91.076554020308 30.363951253808)","32","SUNRISE AT SIEGEN","9351 SIEGEN LN","BATON ROUGE","LOUISIANA","70810",,
"POINT (-91.099122822235 30.399111579557)","26","CARRINGTON PLACE OF BATON ROUGE","8225 SUMMA AVE","BATON ROUGE","LOUISIANA","70809",,
"POINT (-91.076237929479 30.372509641425)","8","HAVEN AT WINDERMERE ASSISTED LIVING","8225 YMCA PLAZA DR","BATON ROUGE","LOUISIANA","70810",,
"POINT (-91.056089347176 30.425943797257)","37","NOTTINGHAM REGIONAL REHAB CENTER","2828 WESTFORK DR","BATON ROUGE","LOUISIANA","70816",,
"POINT (-91.1531233058 30.450052663032)","20","BATON ROUGE GENERAL MEDICAL CENTER NURSING HOME","3600 FLORIDA ST","BATON ROUGE","LOUISIANA","70806",,
"POINT (-91.019395006556 30.374119796572)","38","OLD JEFFERSON COMMUNITY CARE CENTER","8340 BARINGER FOREMAN RD","BATON ROUGE","LOUISIANA","70817",,
"POINT (-91.021779964073 30.451118528608)","27","COLONIAL CARE RETIREMENT CENTER","14686 OLD HAMMOND HWY","BATON ROUGE","LOUISIANA","70816",,
"POINT (-91.137071359663 30.557793192148)","35","BATON ROUGE HEALTH CARE CENTER","5550 THOMAS RD","BATON ROUGE","LOUISIANA","70811",,
"POINT (-91.145030305758 30.419348110565)","10","WILLIAMSBURG RETIREMENT COMMUNITY","3185 BALIS DR","BATON ROUGE","LOUISIANA","70808",,
"POINT (-91.09622770346 30.418926782514)","12","SUNRISE OF BATON ROUGE","8502 JEFFERSON HWY","BATON ROUGE","LOUISIANA","70809",,
"POINT (-91.148434992182 30.44865254653)","28","AFFINITY NURSING AND REHAB CENTER","4005 NORTH BLVD","BATON ROUGE","LOUISIANA","70806",,
"POINT (-91.00003936649 30.466881901154)","33","MAGNOLIA CARE CENTER VETERANS HOME","16950 FLORIDA BLVD","BATON ROUGE","LOUISIANA","70816",,
"POINT (-91.149853824006 30.448210605679)","30","STERLING PLACE","3888 NORTH BLVD","BATON ROUGE","LOUISIANA","70806",,
"POINT (-91.073974214689 30.411168645205)","15","JEFFERSON MANOR NURSING & REHAB CTR, LLC","9919 JEFFERSON HWY","BATON ROUGE","LOUISIANA","70809",,
"POINT (-91.14705871648 30.448006855434)","29","CAPITOL OAKS NURSING & REHAB CENTER","4100 NORTH BLVD","BATON ROUGE","LOUISIANA","70806",,
"POINT (-91.157315420551 30.398568107117)","21","ST JAMES PLACE OF BATON ROUGE","333 LEE DR","BATON ROUGE","LOUISIANA","70808",,
"POINT (-91.122304557472 30.471485425529)","24","LANDMARK SOUTH NURSING AND REHAB CENTER","2382 LOBDELL BLVD","BATON ROUGE","LOUISIANA","70805",,
"POINT (-91.077818027446 30.364623858824)","31","MAGNOLIA BROOK ON SIEGEN LANE","9394 SIEGEN LN","BATON ROUGE","LOUISIANA","70810",,
"POINT (-91.137670714488 30.645693702928)","5","OAKWOOD VILLAGE","4400 MC HUGH RD","ZACHARY","LOUISIANA","70791",,
"POINT (-91.159615284343 30.593391807708)","36","NORTHRIDGE CARE CENTER","3612 BAKER BLVD","BAKER","LOUISIANA","70714",,
"POINT (-90.99375877755 30.354930704389)","17","LANDMARK SOUTH NURSING AND REHAB CENTER","18180 JEFFERSON HWY","BATON ROUGE","LOUISIANA","70817",,
"POINT (-91.178809539718 30.448282204615)","22","MAISON DES AMIS","1050 CONVENTION ST","BATON ROUGE","LOUISIANA","70802","225-343-3827",
"POINT (-91.027568231252 30.45116490411)","16","WOODLEIGH OF BATON ROUGE, THE","14333 OLD HAMMOND HWY","BATON ROUGE","LOUISIANA","70816",,
"POINT (-91.102405621236 30.413162517689)","23","OLLIE STEELE BURDEN MANOR NURSING HOME","4250 ESSEN LN","BATON ROUGE","LOUISIANA","70809",,
"POINT (-91.103517779525 30.400232855064)","34","SAGE REHABILITATION HOSPITAL","8000 SUMMA AVE","BATON ROUGE","LOUISIANA","70809",,
"POINT (-91.133695226181 30.445935119808)","25","WILLIAMSBURG RETIREMENT COMMUNITY","5445 GOVERNMENT ST","BATON ROUGE","LOUISIANA","70806",,
"POINT (-91.137517419226 30.649400832604)","7","LANE NURSING HOME","6300 MAIN ST","ZACHARY","LOUISIANA","70791",,
