"the_geom","id","church_name","full_address","city","state","zip","phone_number","website"
"POINT (-91.099239540116 30.475642565497)","190","UNITED SURPLUS","2940 BERLIN DR","BATON ROUGE","LOUISIANA","70814",,
"POINT (-91.182108576199 30.525912539792)","551","CAMPHOR MEMORIAL UNITED METHODIST CHURCH","8660 SCENIC HWY","BATON ROUGE","LOUISIANA","70807",,
"POINT (-91.161426362643 30.497427251135)","48","DOUGLAS AVENUE BAPTIST CHURCH","5265 DOUGLAS AVE","BATON ROUGE","LOUISIANA","70805",,
"POINT (-91.183740049747 30.438663659759)","432","ST PAUL'S FREE BAPTIST CHURCH","932 NAPOLEON ST","BATON ROUGE","LOUISIANA","70802",,
"POINT (-91.258004653855 30.668020244358)","537","MOUNT ZION BAPTIST CHURCH","21380 SAMUELS RD","ZACHARY","LOUISIANA","70791",,
"POINT (-91.145530629493 30.428358522297)","212","HOUSE OF GOD MINISTRY","2151 GLENMORE AVE","BATON ROUGE","LOUISIANA","70808",,
"POINT (-91.132172552278 30.466669188704)","246","TEMPLE OF FAITH","5695 GREENWELL SPRINGS RD","BATON ROUGE","LOUISIANA","70806",,
"POINT (-91.128295276134 30.578878217354)","430","NEW COVENANT CHRISTIAN CENTER","6515 E MYRTLE AVE","BAKER","LOUISIANA","70714",,
"POINT (-91.14456915107 30.467759012709)","350","BEREAN SEVENTH DAY ADVENTIST CHURCH","4555 FAIRFIELDS AVE","BATON ROUGE","LOUISIANA","70802",,
"POINT (-91.155851019615 30.416859988505)","427","TRINITY EPISCOPAL CHURCH","3552 MORNING GLORY AVE","BATON ROUGE","LOUISIANA","70808",,
"POINT (-91.149591340163 30.415507667068)","619","ST. ALOYSIUS CATHOLIC CHURCH","2025 STUART AVE","BATON ROUGE","LOUISIANA","70808",,
"POINT (-91.047223081306 30.462301304136)","368","WORLD MISSION CENTER","12183 FLORIDA BLVD","BATON ROUGE","LOUISIANA","70815",,
"POINT (-91.127404840611 30.471871167715)","451","GLORYLAND BAPTIST CHURCH","2575 MICHELLI DR","BATON ROUGE","LOUISIANA","70805",,
"POINT (-91.184835900568 30.526621664601)","229","TRUEVINE BAPTIST CHURCH","905 GREBE ST","BATON ROUGE","LOUISIANA","70807",,
"POINT (-91.114901191072 30.46873254135)","648","STRAIGHT TO THE HEART MINISTRY","2138 WOODDALE BLVD, STE 1C","BATON ROUGE","LOUISIANA","70806",,
"POINT (-91.036310543812 30.444730535797)","587","PRESYBYTERY OF BATON ROUGE","12909 OLD HAMMOND HWY","BATON ROUGE","LOUISIANA","70816",,
"POINT (-91.04682831337 30.433366799141)","326","HOUSE OF TESTIMONIES MINISTRIES","12061 N HARRELL'S FERRY RD","BATON ROUGE","LOUISIANA","70816",,
"POINT (-90.990970113798 30.408413887025)","422","ST. ANDREWS UNITED METHODIST CHURCH","17510 MONITOR AVE","BATON ROUGE","LOUISIANA","70817",,
"POINT (-91.17964695407 30.427603153466)","433","GREATER ANTIOCH BAPTIST CHURCH","2139 NEBRASKA ST","BATON ROUGE","LOUISIANA","70802",,
"POINT (-91.189615544497 30.519759570097)","322","BAPTIST STUDENT UNION","724 HARDING BLVD","BATON ROUGE","LOUISIANA","70807",,
"POINT (-91.110101693909 30.466117336442)","39","KEEP  LOVE ALIVE CHRISTIAN CENTER","1804 DALLAS DR","BATON ROUGE","LOUISIANA","70806",,
"POINT (-91.159236885138 30.39509939003)","463","TRANSFORMING CULTURE MINISTRIES","143 LEE DR, STE 1-7","BATON ROUGE","LOUISIANA","70808",,
"POINT (-91.111748978466 30.469595697729)","182","SHEKINAH GLORY","2127 BEAUMONT DR","BATON ROUGE","LOUISIANA","70806",,
"POINT (-91.061047195532 30.380960673088)","528","SET FREE INDEED MINISTRIES","10877 RIEGER RD","BATON ROUGE","LOUISIANA","70809",,
"POINT (-91.177288582512 30.521618303065)","31","IMMACULATE CONCEPTION OF THE BLESSED VIRGIN MARY CATHOLIC CHURCH","1565 CURTIS ST","BATON ROUGE","LOUISIANA","70807","225-774-3661","http://immaculateconceptionbr.org/"
"POINT (-91.065573190663 30.409575283453)","151","BAPTIST ASSOCIATION OF GREATER BATON ROUGE","10560 AIRLINE HWY","BATON ROUGE","LOUISIANA","70809",,
"POINT (-91.144085917447 30.447691733332)","336","NORTH BATON ROUGE CHURCH OF CHRIST","4405 HATCHER AVE","BATON ROUGE","LOUISIANA","70806",,
"POINT (-91.064743370713 30.44078346618)","560","CHRISTIAN CHURCH OF BATON ROUGE","1357 SHARP RD","BATON ROUGE","LOUISIANA","70815",,
"POINT (-91.165648816921 30.530164448957)","475","GREATER NEW GALILEE BAPTIST CHURCH","9185 WILBUR RD","BATON ROUGE","LOUISIANA","70807",,
"POINT (-91.013201065097 30.419971051064)","472","LUTHERAN CHURCH OF OUR SAVIOUR","3555 JONES CREEK RD","BATON ROUGE","LOUISIANA","70816",,
"POINT (-91.050364030861 30.420989332955)","562","CALVARY ON THE BAYOU","3535 S SHERWOOD FOREST BLVD","BATON ROUGE","LOUISIANA","70816",,
"POINT (-91.071613296614 30.490592706263)","251","CHANGING A GENERATION FULL GOSPEL CHURCH","10148 GREENWELL SPRINGS RD","BATON ROUGE","LOUISIANA","70814",,
"POINT (-90.974118278024 30.664252154528)","458","CHURCH OF JESUS CHRIST OF LATTER DAY SAINTS, THE","16135 MILLDALE RD","ZACHARY","LOUISIANA","70791",,
"POINT (-91.008064501687 30.419944454439)","665","TEMPLE BAPTIST CHURCH","3650 O'NEAL LN","BATON ROUGE","LOUISIANA","70816",,
"POINT (-91.171668599018 30.465094674118)","90","NEW BEGINNINGS MINISTRIES OF BATON ROUGE","1901 N 18TH ST","BATON ROUGE","LOUISIANA","70802",,
"POINT (-91.061636037961 30.410308623792)","157","CLEAR VIEW BAPTIST CHURCH","10657 ALCO AVE","BATON ROUGE","LOUISIANA","70816",,
"POINT (-91.12433497892 30.461197529961)","532","NEW BIRTH MISSIONARY BAPTIST CHURCH","6465 RENOIR AVE","BATON ROUGE","LOUISIANA","70806",,
"POINT (-91.08006405291 30.471600158966)","71","MARIANITA SUPERMARKET","9516 S CHOCTAW DR","BATON ROUGE","LOUISIANA","70815",,
"POINT (-91.133090716762 30.486730766934)","16","SALVATION ARMY WORSHIP & COMMUNITY CENTER","4025 W BROOKSTOWN DR","BATON ROUGE","LOUISIANA","70805",,
"POINT (-91.18257532265 30.525746089597)","544","SPECIAL DELIVERANCE TEMPLE","8607 SCENIC HWY","BATON ROUGE","LOUISIANA","70807",,
"POINT (-91.135347433264 30.493934703646)","448","CHRIST GOSPEL OUTREACH","4755 MC CLELLAND DR","BATON ROUGE","LOUISIANA","70805",,
"POINT (-91.161663155199 30.496622448337)","400","CHURCH","2868 LORRAINE ST","BATON ROUGE","LOUISIANA","70805",,
"POINT (-91.143106966182 30.501858851306)","580","NEW CHRISTIAN BAPTISTCHURCH","5675 ROBERTSON AVE","BATON ROUGE","LOUISIANA","70805",,
"POINT (-91.120833001061 30.528303458932)","220","HOOPER ROAD BAPTIST CHURCH","8767 GOVERNOR CLAIBORNE DR","BATON ROUGE","LOUISIANA","70811",,
"POINT (-91.04754253451 30.499402704968)","257","SAINT ALPHONSUS LIGURI CHURCH AND SCHOOL","12250 GREENWELL SPRINGS RD","BATON ROUGE","LOUISIANA","70814",,
"POINT (-91.14194311778 30.456154236334)","118","WORLD SHAKERS CHURCH INTERNATIONAL","851 N 48TH ST","BATON ROUGE","LOUISIANA","70802",,
"POINT (-91.04722063314 30.462495316707)","376","THE EVENT CENTER","12171 FLORIDA BLVD","BATON ROUGE","LOUISIANA","70815",,
"POINT (-91.167755153133 30.465313837496)","547","NEW CREATION WORD OF FAITH","1934 SCENIC HWY","BATON ROUGE","LOUISIANA","70802",,
"POINT (-91.172452919886 30.515987054238)","125","LITTLE ZION BAPTIST CHURCH","1955 74TH AVE","BATON ROUGE","LOUISIANA","70807",,
"POINT (-91.169610098218 30.447358382893)","93","GREATER NEW BETHEL BAPTIST CHURCH","110 S 19TH ST","BATON ROUGE","LOUISIANA","70802",,
"POINT (-91.083023308663 30.429879971117)","83","CHURCH OF SCIENTOLOGY MISSION","9432 COMMON ST","BATON ROUGE","LOUISIANA","70809",,
"POINT (-91.170394945507 30.521847875466)","29","TRUE LOVE BAPTIST CHURCH","2143 CURTIS ST","BATON ROUGE","LOUISIANA","70807",,
"POINT (-90.996202547321 30.416906784032)","669","CYPRESS SPRINGS MERCEDARIAN PRAYER CENTER","17560 GEORGE O'NEAL RD","BATON ROUGE","LOUISIANA","70817",,
"POINT (-91.126372205683 30.460637300841)","531","ST. LUKE CHURCH OF GOD IN CHRIST","6222 RENOIR AVE","BATON ROUGE","LOUISIANA","70806",,
"POINT (-91.184334625453 30.429631279677)","630","ST. LUKE BAPTIST CHURCH","240 VAN BUREN ST","BATON ROUGE","LOUISIANA","70802",,
"POINT (-91.1299705138 30.442679277415)","306","GREATER HOLLYWOOD BAPTIST CHURCH","711 JEFFERSON HWY, STE 7","BATON ROUGE","LOUISIANA","70806",,
"POINT (-91.00003936649 30.466881901154)","358","LIGHTHOUSE CHRISTIAN CENTER","16950 FLORIDA BLVD","BATON ROUGE","LOUISIANA","70816",,
"POINT (-91.189735794273 30.539911518174)","476","TOWER OF STRENGTH OUTREACH CENTER","690 KELLY ST","BATON ROUGE","LOUISIANA","70807",,
"POINT (-91.007673132525 30.467551488834)","361","HOUSE OF HOPE FULL GOSPEL CHURCH","16273 FLORIDA BLVD","BATON ROUGE","LOUISIANA","70819",,
"POINT (-91.137736284938 30.473722127746)","628","NEW CITY OF ZION CHURCH OF GOD IN CHRIST","5272 UNDERWOOD AVE","BATON ROUGE","LOUISIANA","70805",,
"POINT (-91.049130607566 30.655940433099)","457","HOLLY GROVE BAPTIST CHURCH","10754 MILLDALE RD","ZACHARY","LOUISIANA","70791",,
"POINT (-91.120121951291 30.50581898286)","407","GLEN OAKS BAPTIST CHURCH","7200 MAPLEWOOD DR","BATON ROUGE","LOUISIANA","70812",,
"POINT (-91.041792450772 30.49720808052)","352","DOVE OUTREACH CENTER II","5224 N FLANNERY RD","BATON ROUGE","LOUISIANA","70814",,
"POINT (-91.125404943721 30.468237820924)","197","NEW ZION BAPTIST CHURCH","6413 BLUEBERRY ST","BATON ROUGE","LOUISIANA","70806",,
"POINT (-91.039289752719 30.664833173386)","459","MILLDALE BAPTIST CHURCH","11950 MILLDALE RD","ZACHARY","LOUISIANA","70791",,
"POINT (-91.115876215962 30.460156216325)","202","ABUNDANT CARE SERVICES, LLC","1011 N BON MARCHE DR","BATON ROUGE","LOUISIANA","70806",,
"POINT (-91.186539714238 30.530840403591)","708","RICHARDSON CHAPEL-CHURCH OF GOD IN CHRIST","731 W.K. GORDON ST","BATON ROUGE","LOUISIANA","70807",,
"POINT (-91.111748978466 30.469595697729)","180","GRACE & GLORY INC","2127 BEAUMONT DR","BATON ROUGE","LOUISIANA","70806",,
"POINT (-91.178892879721 30.428711683193)","81","HEARD CHAPEL AFRICAN METHODIST EPISCOPAL CHURCH","2019 COLORADO ST","BATON ROUGE","LOUISIANA","70802",,
"POINT (-91.038455905525 30.404511295298)","8","THE LIFE CHURCH OF BATON ROUGE","12773 BROGDON LN","BATON ROUGE","LOUISIANA","70816",,
"POINT (-91.154395227856 30.485102650325)","417","COMMUNITY BIBLE BAPTIST CHURCH","3535 MOHICAN ST","BATON ROUGE","LOUISIANA","70805",,
"POINT (-91.12640851801 30.502779628561)","235","UNITY OF FAITH & TRUTH APOSTOLIC MINISTRY","6533 GREENWELL ST","BATON ROUGE","LOUISIANA","70812",,
"POINT (-91.076998280106 30.432576442088)","583","CHINESE CHRISTIAN CHURCH","10011 OLD HAMMOND HWY","BATON ROUGE","LOUISIANA","70815",,
"POINT (-91.088482846677 30.483681804591)","238","MOUNT OLIVE BAPTIST CHURCH","9108 GREENWELL SPRINGS RD","BATON ROUGE","LOUISIANA","70814",,
"POINT (-91.168805839599 30.589046466282)","718","FIRST UNITED METHODIST CHURCH","1255 CAMELIA AVE","BAKER","LOUISIANA","70714",,
"POINT (-91.085973659433 30.453681795134)","366","TOTAL WOMAN BOUTIQUE, THE","9244 FLORIDA BLVD, STE A","BATON ROUGE","LOUISIANA","70815",,
"POINT (-91.176875443992 30.537793906237)","519","NEW DAY WORD OF FAITH FELLOWSHIP","1615 PROGRESS RD","BATON ROUGE","LOUISIANA","70807",,
"POINT (-91.121445547816 30.45929066019)","225","MINISTRY OF RECONCILIATION FELLOWSHIP, THE","6785 GOYA AVE","BATON ROUGE","LOUISIANA","70806",,
"POINT (-91.097021947647 30.442217657461)","216","UNITARIAN CHURCH OF BATON ROUGE","8470 GOODWOOD BLVD","BATON ROUGE","LOUISIANA","70806",,
"POINT (-91.19272967596 30.422892944978)","228","ROSE HILL MISSIONARY BAPTIST CHURCH","1384 W GRANT ST","BATON ROUGE","LOUISIANA","70802",,
"POINT (-91.046820506728 30.411739814928)","27","LOUISIANA CHURCH OF GOD","12005 COURSEY BLVD","BATON ROUGE","LOUISIANA","70816",,
"POINT (-91.188238552852 30.519966512008)","321","WESLEY FOUNDATION, THE","748 HARDING BLVD","BATON ROUGE","LOUISIANA","70807",,
"POINT (-91.012632639786 30.458757656037)","584","FRANCIS ASBURY UNITED METHODIST CHURCH","15447 OLD HAMMOND HWY","BATON ROUGE","LOUISIANA","70819",,
"POINT (-91.046629674489 30.389613151653)","153","BETHEL TEMPLE ASSEMBLY OF GOD CHURCH","12124 AIRLINE HWY","BATON ROUGE","LOUISIANA","70809",,
"POINT (-91.188050452628 30.424122087748)","436","NEW COVENANT CHRISTIAN CENTER","2540 NICHOLSON DR","BATON ROUGE","LOUISIANA","70802",,
"POINT (-91.124612277596 30.445619913226)","411","OUR LADY OF MERCY CATHOLIC CHURCH","445 MARQUETTE AVE","BATON ROUGE","LOUISIANA","70806",,
"POINT (-91.151138997897 30.453454993406)","442","TRUE LIGHT BAPTIST CHURCH","3836 NORTH ST","BATON ROUGE","LOUISIANA","70806",,
"POINT (-91.111274155684 30.513917132124)","453","TREASURES FROM HEAVEN REMNANT HOUSE MINISTRY","7760 MICKENS RD","BATON ROUGE","LOUISIANA","70812",,
"POINT (-91.144985751342 30.467501328243)","349","BELFAIR BAPTIST CHURCH","4444 FAIRFIELDS AVE","BATON ROUGE","LOUISIANA","70802",,
"POINT (-91.152648754222 30.490679367727)","78","BATON ROUGE GREATER APOSTOLIC CHURCH","3674 CLAYTON ST","BATON ROUGE","LOUISIANA","70805",,
"POINT (-91.125250154932 30.480333546444)","674","LIVING FAITH CHRISTIAN CENTER","6375 WINBOURNE AVE","BATON ROUGE","LOUISIANA","70805",,
"POINT (-91.182484463685 30.437002634249)","706","STAR OF BETHLEHEM BAPTIST CHURCH","1204 SAINT JOSEPH ST","BATON ROUGE","LOUISIANA","70802",,
"POINT (-91.170654375485 30.465623672815)","62","FIRST ALPINE BAPTIST CHURCH","1855 CHESTNUT ST","BATON ROUGE","LOUISIANA","70802",,
"POINT (-91.051630226201 30.458885454632)","395","JUBILEE INTERNATIONAL CHRISTIAN CENTER","230 LITTLE JOHN DR","BATON ROUGE","LOUISIANA","70815",,
"POINT (-91.132608058906 30.488283706089)","14","BETHLEHEM BAPTIST CHURCH","4156 W BROOKSTOWN DR","BATON ROUGE","LOUISIANA","70805",,
"POINT (-91.098778082761 30.430595512783)","591","FIRST CHRISTIAN CHURCH","8484 OLD HAMMOND HWY","BATON ROUGE","LOUISIANA","70809",,
"POINT (-91.069634988144 30.639617473899)","259","DEERFORD UNITED METHODIST CHURCH","10393 GREENWELL SPRINGS-PORT HUDSON RD","ZACHARY","LOUISIANA","70791",,
"POINT (-91.140738292468 30.488837571935)","386","REVELATION AND WISDOM MINISTRIES","4203 N FOSTER DR","BATON ROUGE","LOUISIANA","70805",,
"POINT (-91.177320014186 30.449454307605)","379","CENTER POINT MINISTRIES","1206 FLORIDA ST","BATON ROUGE","LOUISIANA","70802",,
"POINT (-91.170853613468 30.505439859109)","540","ALLEN CHAPEL AFRICAN METHODIST EPISCOPAL CHURCH","6175 SCENIC HWY","BATON ROUGE","LOUISIANA","70805","225-356-0719",
"POINT (-91.179848716084 30.441382089054)","49","ST. AGNES CATHOLIC CHURCH","749 EAST BLVD","BATON ROUGE","LOUISIANA","70802",,
"POINT (-91.009442755048 30.387935207326)","165","ANTIOCH FAMILY CHURCH","7140 ANTIOCH RD","BATON ROUGE","LOUISIANA","70817",,
"POINT (-91.06399182067 30.425091116375)","169","JOY OF DELIVERANCE MINISTRIES","2835 AUBIN LN","BATON ROUGE","LOUISIANA","70816",,
"POINT (-91.048835929775 30.383952580983)","298","ANTIOCH FAMILY CHURCH","11940 INDUSTRIPLEX BLVD, STE 1","BATON ROUGE","LOUISIANA","70809",,
"POINT (-91.049468941025 30.396201299864)","302","PARKVIEW BAPTIST CHURCH","11795 JEFFERSON HWY","BATON ROUGE","LOUISIANA","70816",,
"POINT (-91.120833001061 30.528303458932)","221","IN HIS HANDS BAPTIST CHURCH","8767 GOVERNOR CLAIBORNE DR","BATON ROUGE","LOUISIANA","70811",,
"POINT (-91.165774477514 30.470126431961)","66","STS. ANTHONY OF PADUA & EMMANUEL LE VAN PHUNG CATHOLIC CHURCH","2305 CHOCTAW DR","BATON ROUGE","LOUISIANA","70805",,
"POINT (-91.176014917874 30.416211434186)","278","CHRIST THE KING CHURCH & CATHOLIC STUDENT CENTER","3537 HIGHLAND RD","BATON ROUGE","LOUISIANA","70808",,"http://www.ctklsu.org"
"POINT (-91.117668452141 30.475256725615)","637","BATON ROUGE LEARNING CENTER","2843 VICTORIA DR","BATON ROUGE","LOUISIANA","70805",,
"POINT (-91.141969292733 30.455762178161)","116","BANKS CHAPEL BAPTIST","835 N 48TH ST","BATON ROUGE","LOUISIANA","70802",,
"POINT (-91.034616088754 30.34880344588)","602","CHURCH OF THE HIGHLANDS","17240 PERKINS RD","BATON ROUGE","LOUISIANA","70810",,
"POINT (-91.063249183085 30.459139071799)","360","FLORIDA BOULEVARD BAPTIST CHURCH","10915 FLORIDA BLVD","BATON ROUGE","LOUISIANA","70815",,
"POINT (-91.181071555469 30.531256836436)","667","FIRST PRESBYTERIAN CHURCH OF SCOTLANDVILLE","1246 ROSENWALD RD","BATON ROUGE","LOUISIANA","70807",,
"POINT (-91.183995202259 30.529246010152)","546","THE HOUR OF POWER FAMILY WORSHIP CENTER","9130 SCENIC HWY","BATON ROUGE","LOUISIANA","70807",,
"POINT (-91.071851893637 30.455615001372)","362","CRISTO PARA TODOS LAS NACIONES","10188 FLORIDA BLVD","BATON ROUGE","LOUISIANA","70815",,
"POINT (-91.185237954919 30.448628797598)","86","FIRST BAPTIST CHURCH","529 CONVENTION ST","BATON ROUGE","LOUISIANA","70801",,
"POINT (-91.158897450753 30.480878773818)","595","CATHEDRAL OF FAITH","3053 OSWEGO ST","BATON ROUGE","LOUISIANA","70805",,
"POINT (-91.123299632949 30.456256689783)","57","RLFM GLORY HOUSE","722 N CARROLLTON AVE","BATON ROUGE","LOUISIANA","70806","225-925-8081",
"POINT (-91.151339081186 30.461430610605)","315","ST. PAUL THE APOSTLE CATHOLIC CHURCH","3912 GUS YOUNG AVE","BATON ROUGE","LOUISIANA","70802",,
"POINT (-91.122256225148 30.449583105143)","189","ARISE GOSPEL MINISTRIES","180 BELLEWOOD DR","BATON ROUGE","LOUISIANA","70806",,
"POINT (-91.172993039509 30.43996725595)","720","NEW ST JOHN MISSIONARY BAPTIST CHURCH","1455 SOUTH ST","BATON ROUGE","LOUISIANA","70802",,
"POINT (-91.125258622021 30.445718781255)","412","OUR LADY OF MERCY PASTOR'S RESIDENCE","450 MARQUETTE AVE","BATON ROUGE","LOUISIANA","70806",,
"POINT (-91.16945537125 30.455303023469)","91","NORTH 19TH STREET BAPTIST CHURCH","800 N 19TH ST","BATON ROUGE","LOUISIANA","70802",,
"POINT (-91.148565098856 30.49067037251)","80","NEW LIFE COMMUNITY BAPTIST CHURCH","4100 CLAYTON ST","BATON ROUGE","LOUISIANA","70805",,
"POINT (-91.128165930699 30.511818732783)","210","ST. MARK UNITED METHODIST CHURCH","6217 GLEN OAKS DR","BATON ROUGE","LOUISIANA","70811",,
"POINT (-91.183177208832 30.439374057691)","700","CHRISTIAN BIBLE COLLEGE OF BR","720 SOUTH BLVD","BATON ROUGE","LOUISIANA","70802",,
"POINT (-91.071057008218 30.450655774314)","559","BROADMOOR UNITED METHODIST CHURCH","476 SHARP RD","BATON ROUGE","LOUISIANA","70815",,
"POINT (-91.0472243686 30.462447910707)","369","IGLESIA EBENEZER","12173 FLORIDA BLVD","BATON ROUGE","LOUISIANA","70815",,
"POINT (-91.130209424585 30.443714097685)","312","INDIGO SPIRITUAL CENTER LLC","609 JEFFERSON HWY","BATON ROUGE","LOUISIANA","70806",,
"POINT (-91.13257190207 30.486907946352)","15","TAM BAO TEMPLE","4040 W BROOKSTOWN DR","BATON ROUGE","LOUISIANA","70805",,
"POINT (-91.143841469192 30.461247020817)","114","GREATER ST. JOHN CHRISTIAN CENTER","1385 N 46TH ST","BATON ROUGE","LOUISIANA","70802",,
"POINT (-91.115876215962 30.460156216325)","201","LIFE CHANGERS WORSHIP CENTER","1011 N BON MARCHE DR","BATON ROUGE","LOUISIANA","70806",,
"POINT (-91.156881946182 30.600635888502)","43","REDEMPTION LIFE FELLOWSHIP","2400 DEBRA DR","BAKER","LOUISIANA","70714",,
"POINT (-91.133902816936 30.520108504947)","671","NEW BEGINNING BAPTIST CHURCH OF BATON ROUGE","7815 WHITE ST","BATON ROUGE","LOUISIANA","70811",,
"POINT (-91.189194606697 30.562777265857)","705","HARVEST TIME HIGHWAY MINISTRIES","770 SAINT JOHN LN","BATON ROUGE","LOUISIANA","70807",,
"POINT (-91.093175007032 30.482208435972)","254","RIVER OF LIFE FELLOWSHIP","8852 GREENWELL SPRINGS RD","BATON ROUGE","LOUISIANA","70814",,
"POINT (-91.162362688477 30.50554729859)","557","BIBLEWAY UNITED PENTECOSTAL CHURCH","2823 SHADA AVE","BATON ROUGE","LOUISIANA","70805",,
"POINT (-91.186011049659 30.417992299279)","64","ISLAMIC CENTER OF BATON ROUGE","820 W CHIMES ST","BATON ROUGE","LOUISIANA","70802",,
"POINT (-91.058945043427 30.469404349381)","567","ST. LOUIS KING OF FRANCE CATHOLIC CHURCH","2121 N SHERWOOD FOREST DR","BATON ROUGE","LOUISIANA","70815",,
"POINT (-91.174999453062 30.520909567084)","320","GRACE OF GOD CHURCH FELLOWSHIP","1725 HARDING BLVD","BATON ROUGE","LOUISIANA","70807",,
"POINT (-91.172021616365 30.418660133655)","42","UNIVERSITY PRESBYTERIAN CHURCH","3240 DALRYMPLE DR","BATON ROUGE","LOUISIANA","70802",,
"POINT (-91.099386460615 30.461428945146)","333","GOD'S VINEYARD BAPTIST CHURCH","8486 HARRY DR","BATON ROUGE","LOUISIANA","70815",,
"POINT (-91.156721757143 30.46313498167)","99","WORD OF HIS POWER MINISTRIES","1608 N 32ND ST","BATON ROUGE","LOUISIANA","70802",,
"POINT (-91.154961417097 30.459766001648)","129","ST. MARY BAPTIST CHURCH","1252 N ACADIAN THWY E","BATON ROUGE","LOUISIANA","70802",,
"POINT (-91.174625536938 30.439495596478)","719","BETHEL A. M. E. CHURCH","1358 SOUTH ST","BATON ROUGE","LOUISIANA","70802",,
"POINT (-91.028292335439 30.686686700771)","525","MT. PLEASANT BAPTIST CHURCH","22911 REAMES RD","ZACHARY","LOUISIANA","70791",,
"POINT (-91.187295828409 30.390230977188)","335","LIBERTY DEAF BAPTIST CHURCH","1438 HARWICH DR","BATON ROUGE","LOUISIANA","70820",,
"POINT (-91.163969413953 30.47865746471)","670","JEHOVAH MINISTRY","3352 WENONAH ST","BATON ROUGE","LOUISIANA","70805",,
"POINT (-91.11487422176 30.465950538934)","645","FIRST EMMANUEL MISSIONARY BAPTIST CHURCH","1933 WOODDALE BLVD","BATON ROUGE","LOUISIANA","70806",,
"POINT (-91.073994216113 30.485819687247)","622","CHURCH OF CHRIST","9923 SUNNY CLINE DR","BATON ROUGE","LOUISIANA","70814",,
"POINT (-91.072189660124 30.433383604579)","590","SEVENTH-DAY ADVENTIST CHURCH","10319 OLD HAMMOND HWY, STE C2","BATON ROUGE","LOUISIANA","70815",,
"POINT (-91.269528351538 30.678757594853)","511","MT. ZION ON THE HILL BAPTIST CHURCH","220 W PORT HUDSON-PLAINS RD","ZACHARY","LOUISIANA","70791",,
"POINT (-91.058810083529 30.482131822966)","565","OUR LADY OF SORROW ROMAN CATHOLIC CHURCH","3475 N SHERWOOD FOREST DR","BATON ROUGE","LOUISIANA","70814",,
"POINT (-91.141780187892 30.504096442877)","388","MINISTRY OF NEW BEGINNINGS","5925 N FOSTER DR","BATON ROUGE","LOUISIANA","70805",,
"POINT (-91.067118699153 30.433798638223)","58","CEDARCREST BAPTIST CHURCH","2020 CEDARCREST AVE, BLDG A","BATON ROUGE","LOUISIANA","70816",,
"POINT (-91.113066923779 30.362061632236)","274","HIGHLAND PRESBYTERIAN CHURCH","10024 HIGHLAND RD","BATON ROUGE","LOUISIANA","70810",,
"POINT (-91.05558850381 30.44991852121)","219","ST. THOMAS MORE CATHOLIC CHURCH AND SCHOOL","11441 GOODWOOD BLVD","BATON ROUGE","LOUISIANA","70815",,
"POINT (-91.176473659827 30.432910927062)","1","FAIRVIEW BAPTIST CHURCH","1636 BRADDOCK ST","BATON ROUGE","LOUISIANA","70802",,
"POINT (-91.172487577941 30.449903217966)","377","ROSE OF SHARON BAPTIST CHURCH","1553 FLORIDA ST","BATON ROUGE","LOUISIANA","70802",,
"POINT (-91.116602470299 30.550633488345)","391","FOSTER RD BAPTIST CHURCH","11333 FOSTER RD","BATON ROUGE","LOUISIANA","70811",,
"POINT (-91.138507838274 30.472717327868)","593","SAGACIOUS OASIS LLC","5100 OSBORNE AVE","BATON ROUGE","LOUISIANA","70805",,
"POINT (-91.093982296763 30.384546323002)","658","JIMMY SWAGGART MINISTRIES","8919 WORLD MINISTRY AVE","BATON ROUGE","LOUISIANA","70810",,
"POINT (-91.061199863553 30.487849248489)","570","COMUNIDAD MISIONERA NATANAEL ASSEMBLY OF GOD","4019 N SHERWOOD FOREST DR","BATON ROUGE","LOUISIANA","70814",,
"POINT (-91.062620549027 30.420069920715)","170","FIRST NEW TESTAMENT CHURCH","3235 AUBIN LN","BATON ROUGE","LOUISIANA","70816",,
"POINT (-90.984847138658 30.420121377619)","327","CAPITAL CITY CHURCH OF CHRIST","18282 S HARRELL'S FERRY RD","BATON ROUGE","LOUISIANA","70816",,
"POINT (-91.048638579918 30.404546453317)","682","CHURCH FUNERAL SERVICES AND CREMATORY LLC","5535 SUPERIOR DR","BATON ROUGE","LOUISIANA","70816",,
"POINT (-91.038455905525 30.404511295298)","10","RHEMI EYECARE MISSIONS","12773 BROGDON LN","BATON ROUGE","LOUISIANA","70816",,
"POINT (-91.111761709442 30.468415937525)","34","POTTERS HOUSE, THE","1986 DALLAS DR","BATON ROUGE","LOUISIANA","70806",,
"POINT (-91.184231282543 30.595339940158)","60","FREEDOM LAND MISSIONARY","2322 CHAMBERLAIN AVE","BAKER","LOUISIANA","70714",,
"POINT (-91.177425923947 30.438062448639)","428","ST. FRANCIS XAVIER CATHOLIC CHURCH","1120 MYRTLE ST","BATON ROUGE","LOUISIANA","70802",,"http://stfrancisxavierbr.org"
"POINT (-91.149894067568 30.504655977306)","44","ABUNDANT LIFE TABERNACLE","4025 DENHAM ST","BATON ROUGE","LOUISIANA","70805",,
"POINT (-91.111409434863 30.46714922748)","33","UNITED SURPLUS","1921 DALLAS DR","BATON ROUGE","LOUISIANA","70806",,
"POINT (-91.154157862337 30.487974409541)","514","CORNER STONE MINISTRIES OF RESTORATION","3601 PRESCOTT RD","BATON ROUGE","LOUISIANA","70805",,
"POINT (-91.255462735435 30.678441618498)","510","BETHLEHEM BAPTIST CHURCH","360 PORT HUDSON-PLAINS RD","ZACHARY","LOUISIANA","70791",,
"POINT (-91.147451913914 30.461106266347)","191","CLUB HOUSE OF JESUS","4253 BILLOPS ST","BATON ROUGE","LOUISIANA","70802",,
"POINT (-91.0471874357 30.472360368387)","77","HEAVENLY HOPE","12241 S CHOCTAW DR","BATON ROUGE","LOUISIANA","70815",,
"POINT (-91.14599661277 30.428194139729)","211","HOUSE OF GOD MINISTRY","2151 GLENMORE AVE","BATON ROUGE","LOUISIANA","70808",,
"POINT (-91.162562964716 30.623924353828)","32","NEW LIGHT BAPTIST CHURCH","17954 S SPUR LN","BAKER","LOUISIANA","70714",,
"POINT (-91.06123464989 30.418788722338)","606","GRACE BELIEVERS BIBLE CHURCH","11020 STANLEY AUBIN LN","BATON ROUGE","LOUISIANA","70816",,
"POINT (-91.093056402768 30.419289780236)","307","CHURCH OF CHRIST SOUTH BATON ROUGE","8725 JEFFERSON HWY","BATON ROUGE","LOUISIANA","70809",,
"POINT (-91.18057716326 30.431289166947)","639","ST. JOHN BAPTIST CHURCH","307 E WASHINGTON ST","BATON ROUGE","LOUISIANA","70802",,
"POINT (-91.153255662612 30.462772638266)","104","GREATER ST MICHAEL BAPTIST CHURCH","1619 N 37TH ST","BATON ROUGE","LOUISIANA","70802",,
"POINT (-91.118777958783 30.47797961962)","635","GREATER MT. OLIVE MISSIONARY BAPTIST CHURCH","3155 VICTORIA DR","BATON ROUGE","LOUISIANA","70805",,
"POINT (-91.173386726286 30.438333181096)","429","CHURCH OF GOD IN CHRIST","1450 MYRTLE ST","BATON ROUGE","LOUISIANA","70802",,
"POINT (-91.125600047811 30.459868983559)","345","TIMBERLAND RESTORATION","1075 EXECUTIVE PARK AVE","BATON ROUGE","LOUISIANA","70806",,
"POINT (-91.156971565815 30.483112540168)","128","ROSEHILL BAPTIST CHURCH","3765 N ACADIAN THWY","BATON ROUGE","LOUISIANA","70805",,
"POINT (-91.08006405291 30.471600158966)","75","CHURCH OF NO COMPROMISE","9516 S CHOCTAW DR","BATON ROUGE","LOUISIANA","70815",,
"POINT (-91.131689544598 30.523381542013)","286","MINISTRY OF LOVE","5956 HOOPER RD","BATON ROUGE","LOUISIANA","70811",,
"POINT (-91.111647988409 30.465118666723)","657","TRINITY BAPTIST CHURCH","1785 WOODDALE CT","BATON ROUGE","LOUISIANA","70806",,
"POINT (-91.11396888417 30.469533224085)","647","ASPIRATIONS WHOLISTIC TUTORIAL","2156 WOODDALE BLVD","BATON ROUGE","LOUISIANA","70806",,
"POINT (-91.109816136888 30.467773719592)","181","BETHEL HOUSE OF GOD","1906 BEAUMONT DR","BATON ROUGE","LOUISIANA","70806",,
"POINT (-91.147018866809 30.492805432693)","341","NEXT TO PARENTS DAYCARE &","4260 EVANGELINE ST","BATON ROUGE","LOUISIANA","70805",,
"POINT (-91.125600047811 30.459868983559)","344","BAPTIST BUILDERS INTERNATIONAL, INC","1075 EXECUTIVE PARK AVE","BATON ROUGE","LOUISIANA","70806",,
"POINT (-91.124740147003 30.522466294714)","452","ANTIOCH GOSPEL COMMUNITY CENTER","6446 MICKENS RD","BATON ROUGE","LOUISIANA","70811",,
"POINT (-91.024134653764 30.464993866451)","365","JUBILEE CHRISTIAN CENTER CHURCH","14595 FLORIDA BLVD","BATON ROUGE","LOUISIANA","70819",,
"POINT (-91.045907671019 30.345899621297)","277","NEW RISING SUN BAPTIST CHURCH","16444 HIGHLAND RD","BATON ROUGE","LOUISIANA","70810",,
"POINT (-91.136556308632 30.47152711722)","70","MIRACLES BY FAITH","5373 CHOCTAW DR","BATON ROUGE","LOUISIANA","70805",,
"POINT (-91.170053318378 30.506360735216)","545","STAR OF BETHLEHEM BAPTIST CHURCH","6274 SCENIC HWY","BATON ROUGE","LOUISIANA","70805",,
"POINT (-91.042615105378 30.375708743565)","599","TRINITY FELLOWSHIP BAPTIST CHURCH","8226 PECUE LN","BATON ROUGE","LOUISIANA","70809",,
"POINT (-91.175143606079 30.452083180478)","404","CHRISTIAN OUTREACH CENTER","1427 MAIN ST","BATON ROUGE","LOUISIANA","70802",,
"POINT (-91.154141498263 30.431456181699)","138","CATHOLIC DIOCESE OF BATON ROUGE","1800 S ACADIAN THWY","BATON ROUGE","LOUISIANA","70808",,
"POINT (-91.176091324572 30.444236283747)","702","DELIVERANCE TEMPLE CHURCH OF GOD IN CHRIST","1251 SPAIN ST","BATON ROUGE","LOUISIANA","70802",,
"POINT (-91.110024560114 30.3938682377)","608","GREATER HOLLYWOOD BAPTIST CHURCH","2118 STARING LN","BATON ROUGE","LOUISIANA","70810",,
"POINT (-91.175087644005 30.434457643005)","401","MCKOWEN BAPTIST CHURCH","1255 LOUISE ST","BATON ROUGE","LOUISIANA","70802",,
"POINT (-91.149589040604 30.451635044476)","399","SOMEONE CARES MINISTRY CENTER","400 LOFASO ST","BATON ROUGE","LOUISIANA","70806",,
"POINT (-91.206720432269 30.571288580107)","539","CANAAN MISSIONARY MINISTRY","13820 SCENIC HWY","BATON ROUGE","LOUISIANA","70807",,
"POINT (-91.11396888417 30.469533224085)","649","BIBLE WORLD CHRISTIAN CENTER","2156 WOODDALE BLVD","BATON ROUGE","LOUISIANA","70806",,
"POINT (-91.117297021484 30.380611893579)","609","KOREAN CENTRAL CHURCH OF BATON ROUGE","855 STARING LN","BATON ROUGE","LOUISIANA","70808",,
"POINT (-91.194573343654 30.5668005562)","523","ST. JOHN BAPTIST CHURCH","820 RAFE MAYER RD","BATON ROUGE","LOUISIANA","70807",,
"POINT (-91.13279936216 30.493207965924)","342","GREATER MOUNT CANAAN BAPTIST CHURCH","5820 EVANGELINE ST","BATON ROUGE","LOUISIANA","70805",,
"POINT (-91.058271881857 30.387078085866)","283","HARVEST TIME HIGHWAY MINISTRIES","10959 HONORE LN","BATON ROUGE","LOUISIANA","70809",,
"POINT (-91.151851874307 30.453353173583)","444","TRUE LIGHT BAPTIST CHURCH","3762 NORTH ST","BATON ROUGE","LOUISIANA","70806",,
"POINT (-91.121625681417 30.366138703986)","275","ST. JUDE CATHOLIC CHURCH","9150 HIGHLAND RD","BATON ROUGE","LOUISIANA","70808",,
"POINT (-91.18510555017 30.59281167395)","61","SHILOH FELLOWSHIP B.C.","2005 CHAMBERLAIN AVE","BAKER","LOUISIANA","70714",,
"POINT (-91.199149849337 30.621654227114)","712","MAGNOLIA GROVE BAPTIST CHURCH","17762 OLD SCENIC HWY","ZACHARY","LOUISIANA","70791",,
"POINT (-91.180753322367 30.446946273957)","439","FIRST UNITED METHODIST CHURCH","930 NORTH BLVD","BATON ROUGE","LOUISIANA","70802",,
"POINT (-91.145265769906 30.517908339331)","615","JORDAN UNITED METHODIST CHURCH","4619 STEARNS ST","BATON ROUGE","LOUISIANA","70811",,
"POINT (-91.163782588954 30.490413153368)","22","CHRIST COMMUNITY MINISTIRES","2651 CABLE ST","BATON ROUGE","LOUISIANA","70805",,
"POINT (-91.131038172626 30.526487098428)","287","GREATER DIVINE MISSIONARY BAPTIST CHURCH","6045 HOOPER RD","BATON ROUGE","LOUISIANA","70811",,
"POINT (-91.028990049621 30.531733167635)","621","CENTRAL BIBLE CHURCH","8889 SULLIVAN RD, STE B","CENTRAL","LOUISIANA","70818",,
"POINT (-91.11799407019 30.500660193858)","233","WAY OF HOLINESS MINISTRIEST","7220 GREENWELL ST","BATON ROUGE","LOUISIANA","70812",,
"POINT (-91.169241921524 30.445896215063)","94","EL SHADDAI MINISTRIES","254 S 19TH ST","BATON ROUGE","LOUISIANA","70802",,
"POINT (-91.145180023239 30.703192275446)","661","KINGDOM HALL OF JEHOVAH'S WITNESSES","24120 ZACHARY-SLAUGHTER HWY","SLAUGHTER","LOUISIANA","70777",,
"POINT (-91.190614382267 30.534799589274)","171","GREATER NEW HOPE BAPTIST CHURCH","9915 AVENUE A","BATON ROUGE","LOUISIANA","70807",,
"POINT (-91.186977167791 30.451731096686)","445","ST. JOSEPH'S CATHEDRAL","412 NORTH ST","BATON ROUGE","LOUISIANA","70802","225-387-5928","http://cathedralofstjoseph.org/"
"POINT (-91.11902648231 30.458846684738)","46","ASPIRATIONS WHOLISTIC TUTORIAL","967 N DONMOOR AVE","BATON ROUGE","LOUISIANA","70806",,
"POINT (-91.058970413846 30.486225588471)","564","CHAPELWOOD CHURCH OF GOD","3730 N SHERWOOD FOREST DR","BATON ROUGE","LOUISIANA","70814",,
"POINT (-91.160320123375 30.450620364064)","167","GRACE & COMPASSSION CHURCH","329 ATKINSON ST","BATON ROUGE","LOUISIANA","70802",,
"POINT (-91.131238031012 30.466599864214)","239","NEW HOPE BAPTIST CHURCH","5856 GREENWELL SPRINGS RD","BATON ROUGE","LOUISIANA","70806",,
"POINT (-91.074446259221 30.485292834227)","159","ST. LUKE'S UNITED METHODIST CHURCH OF BATON ROUGE","3791 ALETHA DR","BATON ROUGE","LOUISIANA","70814",,
"POINT (-91.093281827444 30.447421809477)","150","WORD OF FAITH CHRISTIAN CENTER","8894 AIRLINE HWY, STE C","BATON ROUGE","LOUISIANA","70806",,
"POINT (-91.064475998178 30.459998792959)","230","JEHOVAH'S WITNESS","1165 GREEN OAK DR","BATON ROUGE","LOUISIANA","70815",,
"POINT (-91.120888180173 30.359355988009)","20","CHURCH OF EPHESUS","9531 BURBANK DR","BATON ROUGE","LOUISIANA","70810",,
"POINT (-91.190055722251 30.540404683803)","196","NEW LIGHT BAPTIST CHURCH","650 BLOUNT RD","BATON ROUGE","LOUISIANA","70807",,
"POINT (-91.146219549691 30.461169912162)","111","HOLY GHOST TEMPLE","1428 N 43RD ST","BATON ROUGE","LOUISIANA","70802",,
"POINT (-91.139743127061 30.519673771284)","382","HOUSE OF PRAYER MINISTRIES, THE","5211 FORD ST","BATON ROUGE","LOUISIANA","70811",,
"POINT (-91.17605888303 30.522532348108)","348","WHITE STONE BAPTIST CHURCH","1651 FAIRCHILD ST","BATON ROUGE","LOUISIANA","70807",,
"POINT (-91.154613954631 30.437785868871)","393","B'NAI ISRAEL SYNAGOGUE","3354 KLEINERT AVE","BATON ROUGE","LOUISIANA","70806","225-343-0111","http://bnaibr.org/"
"POINT (-91.027603072129 30.429643747135)","329","PARKSIDE BAPTIST CHURCH","14140 S HARRELL'S FERRY RD","BATON ROUGE","LOUISIANA","70816",,
"POINT (-91.144812575499 30.508751094642)","185","COUNSEL OF GOD MINISTRIES","6465 BEECHWOOD DR","BATON ROUGE","LOUISIANA","70805",,
"POINT (-91.171533077303 30.436949428479)","88","LITTLE RISING SUN BAPTIST CHURCH","1275 S 16TH ST","BATON ROUGE","LOUISIANA","70802",,
"POINT (-91.154862981232 30.392261772234)","269","UNIVERSITY BAPTIST CHURCH","5775 HIGHLAND RD","BATON ROUGE","LOUISIANA","70808",,
"POINT (-91.084966760336 30.416304490947)","303","BETH SHALOM SYNAGOGUE","9111 JEFFERSON HWY","BATON ROUGE","LOUISIANA","70809",,
"POINT (-91.175346986944 30.516999713547)","127","ST. MICHAELS SCHOOL","1620 77TH AVE","BATON ROUGE","LOUISIANA","70807",,
"POINT (-91.014378489637 30.41312031575)","471","BATON ROUGE SEVENTH DAY ADVENTIST CHURCH","4455 JONES CREEK RD","BATON ROUGE","LOUISIANA","70817",,
"POINT (-91.185038315508 30.447383003138)","438","UNITED METHODIST CHURCH OFFICES","527 NORTH BLVD","BATON ROUGE","LOUISIANA","70802",,
"POINT (-91.168032891594 30.511895815518)","121","SIXTY-EIGHTH AVENUE BAPTIST CHURCH","2331 68TH AVE","BATON ROUGE","LOUISIANA","70807",,
"POINT (-91.165384204812 30.525789807099)","672","NEW BETHEL BAPTIST CENTER","8620 WILBUR ST","BATON ROUGE","LOUISIANA","70807",,
"POINT (-91.158273533134 30.457106691242)","226","MOUNT CALVARY BAPTIST CHURCH","3059 GRACIE ST","BATON ROUGE","LOUISIANA","70802",,
"POINT (-91.150503681787 30.454316396657)","110","GREATER COMMUNITY BAPTIST CHURCH","649 N 40TH ST","BATON ROUGE","LOUISIANA","70802",,
"POINT (-91.11396888417 30.469533224085)","644","HIGHER GROUND OUTREACH MINISTRIES","2156 WOODDALE BLVD","BATON ROUGE","LOUISIANA","70806",,
"POINT (-91.145822545097 30.442194909542)","24","INGLESIDE UNITED METHODIST CHURCH","4264 CAPITAL HEIGHTS AVE","BATON ROUGE","LOUISIANA","70806",,
"POINT (-91.035855672262 30.447161351765)","354","SHERWOOD BAPTIST CHURCH","1180 S FLANNERY RD","BATON ROUGE","LOUISIANA","70815",,
"POINT (-91.15110477961 30.458022591242)","108","MT. MARIAH BAPTIST CHURCH","1076 N 39TH ST","BATON ROUGE","LOUISIANA","70802",,
"POINT (-91.076761322658 30.453419113586)","410","GRACE & TRUTH","279 MARILYN DR, BLDG 1","BATON ROUGE","LOUISIANA","70815",,
"POINT (-91.121356510729 30.372598853036)","611","NEW LIFE CHURCH OF BATON ROUGE","365 STARING LN","BATON ROUGE","LOUISIANA","70808",,
"POINT (-91.14886501287 30.443180037901)","533","GRACE BAPTIST CHURCH","630 RICHLAND AVE","BATON ROUGE","LOUISIANA","70806",,
"POINT (-91.00762763743 30.382051284429)","164","COMMUNITY OF CHRIST CHURCH","7660 ANTIOCH RD","BATON ROUGE","LOUISIANA","70817",,
"POINT (-91.111409434863 30.46714922748)","37","EMMANUEL INTERNATIONAL MINISTRY","1921 DALLAS DR","BATON ROUGE","LOUISIANA","70806",,
"POINT (-91.083369604971 30.485793706367)","255","GREATER FAITH KINGDOM AND POWER LIVING","9405 GREENWELL SPRINGS RD","BATON ROUGE","LOUISIANA","70814",,
"POINT (-91.111388441873 30.484702579256)","409","WISDOM ROCK MINISTRIES","3770 MARIBEL DR","BATON ROUGE","LOUISIANA","70814",,
"POINT (-91.065233620206 30.491216032005)","462","PARK FOREST BAPTIST CHURCH","4517 LASSEN DR","BATON ROUGE","LOUISIANA","70814",,
"POINT (-91.16580142866 30.514315584332)","123","CHURCH OF GOD IN CHRIST NEW MACEDONIA","2580 72ND AVE","BATON ROUGE","LOUISIANA","70807",,
"POINT (-91.11528861235 30.442393960969)","213","GOODWOOD BAPTIST CHURCH","7125 GOODWOOD AVE","BATON ROUGE","LOUISIANA","70806",,
"POINT (-91.161250617657 30.481725779296)","659","MACEDONIA MISSIONARY BAPTIST CHURCH","2800 WYANDOTTE ST","BATON ROUGE","LOUISIANA","70805",,
"POINT (-91.086171490636 30.457922060818)","426","TAM BAO TEMPLE","975 MONTERREY BLVD","BATON ROUGE","LOUISIANA","70815",,
"POINT (-91.079811645948 30.485615153574)","243","WORD OF LIFE FAITH MINISTRIES","9666 GREENWELL SPRINGS RD","BAKER","LOUISIANA","70714",,
"POINT (-91.153911351749 30.467280783974)","351","GREATER NEW GUIDE BAPTIST CHURCH","3445 FAIRFIELDS AVE","BATON ROUGE","LOUISIANA","70802",,
"POINT (-91.181485824272 30.433118228927)","294","PLEASANT GREEN BAPTIST CHURCH","364 HOWARD ST","BATON ROUGE","LOUISIANA","70802",,
"POINT (-91.035248797818 30.472937861249)","72","DEFRANCES DANCE ACADEMY","13541 S CHOCTAW DR","BATON ROUGE","LOUISIANA","70815",,
"POINT (-91.155426169341 30.457118792065)","131","SECOND BAPTIST CHURCH ANNEX","910 N ACADIAN THWY W","BATON ROUGE","LOUISIANA","70802",,
"POINT (-91.047193052919 30.46165638379)","375","THE EVENT CENTER","12191 FLORIDA BLVD, STE A","BATON ROUGE","LOUISIANA","70815",,
"POINT (-91.048071136256 30.459219960681)","373","HEARTS EASE FAMILY LIFE CENTER","12112 FLORIDA BLVD","BATON ROUGE","LOUISIANA","70815",,
"POINT (-91.151588030184 30.497163997188)","704","ST. GERARD MAJELLA CHURCH PARISH OFFICE","3808 SAINT GERARD AVE","BATON ROUGE","LOUISIANA","70805",,
"POINT (-91.097796265774 30.381547033117)","199","M&M NAILS","7564 BLUEBONNET BLVD","BATON ROUGE","LOUISIANA","70810",,
"POINT (-91.146097261813 30.485864057029)","419","CHURCH","4350 MOHICAN-PRESCOTT XOVR","BATON ROUGE","LOUISIANA","70805",,
"POINT (-91.147390022697 30.422022009348)","629","CONCORD BAPTIST CHURCH","2912 VALLEY ST","BATON ROUGE","LOUISIANA","70808",,
"POINT (-91.176746922266 30.44324029823)","222","CHARTWELLS","1120 GOVERNMENT ST","BATON ROUGE","LOUISIANA","70802",,
"POINT (-91.192787084245 30.519897141033)","319","MARTIN LUTHER KING CATHOLIC STUDENT CENTER","586 HARDING BLVD","BATON ROUGE","LOUISIANA","70807",,
"POINT (-91.150950445415 30.45747069994)","107","2ND COMMANDMENT FULL GOSPEL CHURCH","1000 N 39TH ST","BATON ROUGE","LOUISIANA","70802",,
"POINT (-91.165526013305 30.475376933766)","687","NEW HOME MINISTRIES FAMILY WORSHIP CENTER","3000 TECUMSEH ST","BATON ROUGE","LOUISIANA","70805",,
"POINT (-91.003165736988 30.463350656118)","585","STEVENDALE BAPTIST CHURCH","16545 OLD HAMMOND HWY","BATON ROUGE","LOUISIANA","70816",,
"POINT (-91.160893335371 30.47589471839)","339","ARK OF SAFETY CHURCH","2830 ERIE ST","BATON ROUGE","LOUISIANA","70805",,
"POINT (-91.176700316324 30.430477923586)","692","ISRAELITE BAPTIST CHURCH","1841 THOMAS H DELPIT DR","BATON ROUGE","LOUISIANA","70802",,
"POINT (-91.145993104701 30.510134132372)","148","HERITAGE SEARCH MINISTRY","4315 AIRLINE HWY","BATON ROUGE","LOUISIANA","70811",,
"POINT (-91.04754253451 30.499402704968)","256","COMITE BAPTIST CHURCH","12250 GREENWELL SPRINGS RD","BATON ROUGE","LOUISIANA","70814",,
"POINT (-91.176470917996 30.43156650424)","694","NEELY UNITED METHODIST CHURCH","1755 THOMAS H DELPIT DR","BATON ROUGE","LOUISIANA","70802",,
"POINT (-91.058970413846 30.486225588471)","569","SHEKINAH GLORY","3730 N SHERWOOD FOREST DR","BATON ROUGE","LOUISIANA","70814",,
"POINT (-91.143816390092 30.479171276694)","678","HOPE MINISTRIES","4643 WINBOURNE AVE","BATON ROUGE","LOUISIANA","70805",,
"POINT (-91.114901191072 30.46873254135)","646","BENLEYS HOUSE OF FAME","2138 WOODDALE BLVD, STE 1C","BATON ROUGE","LOUISIANA","70806",,
"POINT (-91.164908546659 30.595823525951)","716","MIRACLE PLACE CHURCH/ATWH","2080 MAIN ST","BAKER","LOUISIANA","70714",,
"POINT (-91.046228399833 30.347280711432)","272","NEW RISING SUN BAPTIST CHURCH EDUCATION FACILITY","16313 HIGHLAND RD","BATON ROUGE","LOUISIANA","70810",,
"POINT (-91.175133855493 30.429918367217)","206","CALVARY THIRD BAPTIST CHURCH","1911 GEORGIA ST","BATON ROUGE","LOUISIANA","70802",,
"POINT (-91.120473463247 30.526495448965)","290","ABOUNDING LOVE MINISTRIES","7076 HOOPER RD","BATON ROUGE","LOUISIANA","70811",,
"POINT (-91.16393991984 30.522250872416)","30","TRUE LOVE BAPTIST CHURCH","2749 CURTIS ST","BATON ROUGE","LOUISIANA","70807",,
"POINT (-91.009538550957 30.360238452818)","144","CROSSPOINT BAPTIST CHURCH","14965 AIRLINE HWY","BATON ROUGE","LOUISIANA","70817",,
"POINT (-91.119623366065 30.355889991388)","414","GREATER MORNING STAR BAPTIST CHURCH ASSEMBLY","1002 MAVIS DR","BATON ROUGE","LOUISIANA","70810",,
"POINT (-91.140932649516 30.502417136807)","232","INTERDENOMINATIONAL FAITH ASSEMBLY","5045 GREENWELL ST","BATON ROUGE","LOUISIANA","70805",,
"POINT (-91.178460800546 30.426186624502)","324","NEW CANAAN BAPTIST CHURCH","353 E HARDING ST","BATON ROUGE","LOUISIANA","70802",,
"POINT (-91.110000040119 30.393579514575)","610","NATANAEL COMUNIDAD MISIONER IGLESIA HISPANA","2098 STARING LN","BATON ROUGE","LOUISIANA","70810",,
"POINT (-91.150950825458 30.457040541483)","109","EVERGREEN BAPTIST CHURCH","956 N 39TH ST","BATON ROUGE","LOUISIANA","70802",,
"POINT (-91.173892415779 30.403723630092)","597","LSU CHRISTIAN LIFE CENTER","151 W PARKER BLVD","BATON ROUGE","LOUISIANA","70808",,
"POINT (-91.092634498182 30.374983345811)","604","FIRST BAPTIST CHURCH","10748 PERKINS RD","BATON ROUGE","LOUISIANA","70810",,
"POINT (-91.117400249267 30.366865251744)","530","SAINT JOHN'S UNITED METHODIST CHURCH","230 RENEE DR","BATON ROUGE","LOUISIANA","70810","225-926-6999",
"POINT (-91.183411463127 30.531577147444)","666","PURITAN BAPTIST CHURCH","1047 ROSENWALD RD","BATON ROUGE","LOUISIANA","70807",,
"POINT (-91.266460385016 30.669496055715)","356","NEW LIFE MISSIONARY BAPTIST CHURCH","280 W FLONACHER RD","ZACHARY","LOUISIANA","70791",,
"POINT (-91.128479991073 30.487725789218)","11","JESUS CHRIST IS LORD MINISTRIES","4055 E BROOKSTOWN DR","BATON ROUGE","LOUISIANA","70805",,
"POINT (-91.026049725274 30.651084455182)","526","WINDING CHAPEL BAPTIST CHURCH","20220 REAMES RD","ZACHARY","LOUISIANA","70791",,
"POINT (-91.179069793592 30.437092891293)","473","PROGRESSIVE BAPTIST CHURCH","998 JULIA ST","BATON ROUGE","LOUISIANA","70802",,
"POINT (-91.014877496239 30.425548001755)","468","FIRST PENTECOSTAL CHURCH","2828 JONES CREEK RD","BATON ROUGE","LOUISIANA","70816",,
"POINT (-91.188113997051 30.433220829314)","435","LIVING WORD CHURCH","1564 NICHOLSON DR","BATON ROUGE","LOUISIANA","70802",,
"POINT (-91.187654333966 30.38859663553)","7","CATHOLIC DEAF CENTER","2585 BRIGHTSIDE DR","BATON ROUGE","LOUISIANA","70820",,
"POINT (-91.146628087774 30.506085705886)","23","TRUE GOSPEL FELLOWSHIP FAITH CHURCH","4449 CANNON ST","BATON ROUGE","LOUISIANA","70805",,
"POINT (-91.107681886776 30.51251633688)","456","GREATER EMMANUEL MISSIONARY CHURCH","8064 MICKENS RD","BATON ROUGE","LOUISIANA","70812",,
"POINT (-91.114228486457 30.467355382675)","652","FAITH HOPE & LOVE WORSHIP CENTER","2026 WOODDALE BLVD","BATON ROUGE","LOUISIANA","70806",,
"POINT (-91.138507838274 30.472717327868)","594","SEVENTH-DAY ADVENTIST CHURCH","5100 OSBORNE AVE","BATON ROUGE","LOUISIANA","70805",,
"POINT (-91.184874433363 30.447948110714)","87","LOUISIANA CONFERENCE - DISASTER RECOVERY MINISTRY, THE","141 N 6TH ST","BATON ROUGE","LOUISIANA","70802",,
"POINT (-91.115698979938 30.469753400397)","655","HOPE FOR LIFE SPIRITUAL & HYP. CTR.","2274 WOODDALE BLVD, STE A","BATON ROUGE","LOUISIANA","70806",,
"POINT (-91.09303102937 30.443084838295)","215","ST. LUKES EPISCOPAL CHURCH","8833 GOODWOOD BLVD","BATON ROUGE","LOUISIANA","70806",,
"POINT (-91.109816136888 30.467773719592)","183","BETHEL CHRISTIAN CHURCH","1906 BEAUMONT DR","BATON ROUGE","LOUISIANA","70806",,
"POINT (-91.147712367001 30.450975847945)","627","UNION GROVE BAPTIST CHURCH","327 TUSCALOOSA AVE","BATON ROUGE","LOUISIANA","70806",,
"POINT (-91.154141498263 30.431456181699)","140","CATHOLIC LIFE CENTER ARTS & CR","1800 S ACADIAN THWY","BATON ROUGE","LOUISIANA","70808",,
"POINT (-91.134130513553 30.501029948796)","281","ANGEL'S OF PRAISE MINISTRY","5627 HOLLYWOOD-GREENWELL XOVR, STE C","BATON ROUGE","LOUISIANA","70805",,
"POINT (-91.145802954795 30.417262640831)","600","BAHA'I FAITH OF BATON ROUGE","4270 PERKINS RD","BATON ROUGE","LOUISIANA","70808","225-387-5726","http://bci.org/brbahai"
"POINT (-91.179836791157 30.526182514016)","554","LOVE AND FAITH FELLOWSHIP","8714 SCOTLAND AVE","BATON ROUGE","LOUISIANA","70807",,
"POINT (-91.013398405912 30.419257286229)","470","WESTMINSTER PRESBYTERIAN CHURCH","3701 JONES CREEK RD","BATON ROUGE","LOUISIANA","70816",,
"POINT (-91.193144190028 30.538642668379)","174","HEAVENLY HOPE MINISTRIES","10362 AVENUE D","BATON ROUGE","LOUISIANA","70807",,
"POINT (-91.166886248085 30.523259645567)","175","ANNOINTED LIFE MINISTRIES","2506 BADLEY RD","BATON ROUGE","LOUISIANA","70807",,
"POINT (-91.125040146431 30.356934448181)","555","HOLY TRINITY COMMUNITY BAPTIST CHURCH","1404 SEABORD DR","BATON ROUGE","LOUISIANA","70820",,
"POINT (-91.141937076195 30.463632655029)","119","LIVING WORD CHRISTIAN CENTER","1640 N 48TH ST","BATON ROUGE","LOUISIANA","70802",,
"POINT (-91.171700090473 30.445290851637)","89","FIRST LITTLE ROCK BAPTIST CHURCH","312 S 17TH ST","BATON ROUGE","LOUISIANA","70802",,
"POINT (-91.120584857183 30.458284942284)","529","WORD GOSPEL REACH OUT MINISTRIES","6851 REMBRANDT AVE","BATON ROUGE","LOUISIANA","70806",,
"POINT (-91.172944564588 30.537132628919)","518","MT. ZION BAPTIST CHURCH","1920 PROGRESS RD","BATON ROUGE","LOUISIANA","70807",,
"POINT (-91.00779786251 30.385154940083)","163","COLONIAL BAPTIST CHURCH","7340 ANTIOCH RD","BATON ROUGE","LOUISIANA","70817",,
"POINT (-91.125561919801 30.46893292183)","194","GREATER RISEN SUN BAPTIST CHURCH","6444 BLACKBERRY ST","BATON ROUGE","LOUISIANA","70806",,
"POINT (-91.152417700737 30.444481703367)","223","SHEKINAH GLORY","3613 GOVERNMENT ST","BATON ROUGE","LOUISIANA","70806",,
"POINT (-91.115876215962 30.460156216325)","200","BETHLEHEM BAPTIST CHURCH","1011 N BON MARCHE DR","BATON ROUGE","LOUISIANA","70806",,
"POINT (-91.15629774383 30.459467689736)","134","GREEN'S CHAPEL AME CHURCH","1251 N ACADIAN THWY W","BATON ROUGE","LOUISIANA","70802",,
"POINT (-91.145136447324 30.470729576961)","67","OPEN DOOR FELLOWSHIP LIFE CENTER","4439 CHOCTAW DR","BATON ROUGE","LOUISIANA","70805",,
"POINT (-91.167647093181 30.463422106306)","549","ON EAGLES WINGS MINISTRY OF RECONCILIATION","1746 SCENIC HWY","BATON ROUGE","LOUISIANA","70802",,
"POINT (-91.181174756586 30.427529772249)","268","NEW CANAAN BAPTIST CHURCH","2160 HIGHLAND RD","BATON ROUGE","LOUISIANA","70802",,
"POINT (-91.14520819396 30.458446628368)","112","ST. JAMES BAPTIST CHURCH","1105 N 44TH ST","BATON ROUGE","LOUISIANA","70802",,
"POINT (-91.013852246473 30.375031496142)","314","MOST BLESSED SACRAMENT CATHOLIC CHURCH","15615 JEFFERSON HWY","BATON ROUGE","LOUISIANA","70817",,"http://www.mbsparish.org"
"POINT (-91.04873662548 30.404864449793)","684","CHURCH FUNERAL SERVICES AND CREMATORY LLC","5535 SUPERIOR DR","BATON ROUGE","LOUISIANA","70816",,
"POINT (-91.109102388831 30.361737454238)","273","LATTER DAY SAINTS","10335 HIGHLAND RD","BATON ROUGE","LOUISIANA","70810",,
"POINT (-91.048452245313 30.472627566553)","74","FIVE FOLD MINISTRIES","12121 S CHOCTAW DR","BATON ROUGE","LOUISIANA","70815",,
"POINT (-91.051815853651 30.42668590094)","3","MOODY ADAMS EVANGELISTIC ASSN","11715 BRICKSOME AVE","BATON ROUGE","LOUISIANA","70816",,
"POINT (-91.069124537636 30.408924835215)","305","JEFFERSON UNITED METHODIST CHURCH","10328 JEFFERSON HWY","BATON ROUGE","LOUISIANA","70809",,
"POINT (-91.154752009266 30.583875922424)","323","HARDING STREET BAPTIST CHURCH","4345 HARDING ST","BAKER","LOUISIANA","70714",,
"POINT (-90.999909022851 30.468285079769)","357","CENTRAL BAPTIST CHURCH","17017 FLORIDA BLVD","BATON ROUGE","LOUISIANA","70819",,
"POINT (-91.051802076849 30.426820587386)","4","MOODY ADAMS EVANGELISTIC ASSN","11715 BRICKSOME AVE, STE B3","BATON ROUGE","LOUISIANA","70816",,
"POINT (-91.183426808297 30.528423974437)","548","GREATER CENTRAL BAPTIST CHURCH, THE","9012 SCENIC HWY","BATON ROUGE","LOUISIANA","70807",,
"POINT (-91.176679294285 30.436152799865)","690","NEW PROSPECT MISSIONARY BAPTIST CHURCH","1174 TERRACE ST","BATON ROUGE","LOUISIANA","70802",,
"POINT (-91.141958175145 30.457199520202)","117","HOUSE OF REFUGE FULL GOSPEL CHURCH","977 N 48TH ST","BATON ROUGE","LOUISIANA","70802",,
"POINT (-91.06399182067 30.425091116375)","168","ANTIOCH MISSIONARY BAPTIST CHURCH","2835 AUBIN LN","BATON ROUGE","LOUISIANA","70816",,
"POINT (-91.177927622794 30.433127713878)","695","NEW JERUSALEM BAPTIST CHURCH","1627 THOMAS H DELPIT DR","BATON ROUGE","LOUISIANA","70802",,
"POINT (-91.123984190474 30.472197810414)","252","GLORYLAND BAPTIST CHURCH","6745 GREENWELL SPRINGS RD","BATON ROUGE","LOUISIANA","70805",,
"POINT (-91.067664317005 30.446188989752)","214","GOODWOOD CHURCH OF CHRIST","10715 GOODWOOD BLVD","BATON ROUGE","LOUISIANA","70815","225-272-8936","http://goodwoodchurch.org"
"POINT (-91.090824690015 30.431590597533)","686","ST. PAUL LUTHERAN CHURCH","2021 TARA BLVD","BATON ROUGE","LOUISIANA","70806",,
"POINT (-91.161655082239 30.484487875304)","208","RESURRECTION LIFE ASSEMBLY OF GOD","3884 GERONIMO ST","BATON ROUGE","LOUISIANA","70805",,
"POINT (-91.108805324909 30.464798037547)","623","METROPOLITAN COMMUNITY CHURCH OF BR","7747 TOM DR","BATON ROUGE","LOUISIANA","70806","225-248-0404","http://mccbr.org"
"POINT (-91.184456544974 30.44325022755)","224","WESLEY UNITED METHODIST CHURCH","544 GOVERNMENT ST","BATON ROUGE","LOUISIANA","70802",,
"POINT (-91.144931666196 30.474579561708)","415","GOOD SHEPHERD BAPTIST CHURCH","2873 MISSION DR","BATON ROUGE","LOUISIANA","70805",,
"POINT (-91.077525229799 30.432125903381)","586","FIRST CHURCH OF THE NAZARENE","9955 OLD HAMMOND HWY","BATON ROUGE","LOUISIANA","70816",,
"POINT (-91.072083948987 30.420677393468)","535","ISTROUMA BAPTIST CHURCH ADMIN OFFICES","10200 SAM RUSHING DR","BATON ROUGE","LOUISIANA","70816",,
"POINT (-91.167823510627 30.576547797432)","715","HARDING STREET BAPTIST CHURCH","250 MAIN ST","BAKER","LOUISIANA","70714",,
"POINT (-91.114999369391 30.46741203654)","653","EMMANUEL INTERNATIONAL MINISTRY","2035 WOODDALE BLVD, STE A","BATON ROUGE","LOUISIANA","70806",,
"POINT (-91.157715263007 30.394066912066)","21","KOREAN BAPTIST MISSIONARY CHURCH","264 BURGIN AVE","BATON ROUGE","LOUISIANA","70808",,
"POINT (-91.134536924917 30.324818465307)","578","EBENEZER BAPTIST CHURCH","16891 RIVER RD","BATON ROUGE","LOUISIANA","70810",,
"POINT (-91.12843456141 30.502128845354)","234","EVER INCREASING LIFE MINISTRIES","6363 GREENWELL ST","BATON ROUGE","LOUISIANA","70812",,
"POINT (-91.167334230095 30.469283266578)","424","PROFESSIONAL SERVICE IND INC","2166 MONROE AVE","BATON ROUGE","LOUISIANA","70802",,
"POINT (-91.158535277714 30.479232515561)","596","CHURCH OF GOD, THE","3135 OZARK ST","BATON ROUGE","LOUISIANA","70805",,
"POINT (-91.12831033144 30.486870893472)","13","BELIEVERS FAITH FELLOWSHIP CHURCH","3965 E BROOKSTOWN DR","BATON ROUGE","LOUISIANA","70805",,
"POINT (-91.199767287275 30.539205461337)","195","GREATER KING DAVID BAPTIST CHURCH","222 BLOUNT AVE","BATON ROUGE","LOUISIANA","70807","225-927-0577","http://greaterkingdavid.org/"
"POINT (-91.056644544575 30.395553165064)","446","CATHEDRAL OF DELIVERANCE WORLD OUTREACH CENTER","5810 MC CANN DR","BATON ROUGE","LOUISIANA","70809",,
"POINT (-91.026509764068 30.428815971833)","331","EPISCOPAL CHURCH OF THE HOLY SPIRIT, THE","14344 S HARRELL'S FERRY RD","BATON ROUGE","LOUISIANA","70816",,
"POINT (-91.183177208832 30.439374057691)","701","LIBERTY CHAPEL","720 SOUTH BLVD","BATON ROUGE","LOUISIANA","70802",,
"POINT (-91.156231556002 30.472493824364)","136","CHRISTLAND CHRISTIAN COMMUNITY CHURCH","2708 N ACADIAN THWY W","BATON ROUGE","LOUISIANA","70805",,
"POINT (-91.122317381928 30.361304037162)","204","GREATER SIXTY AID BAPTIST CHURCH","655 GARDERE LN","BATON ROUGE","LOUISIANA","70810",,
"POINT (-91.025271001006 30.463451370482)","359","AL AZAR GROTTO","14332 FLORIDA BLVD","BATON ROUGE","LOUISIANA","70819",,
"POINT (-91.143139085013 30.457179596252)","113","NEW JERUSALEM FAITH FELLOWSHIP","960 N 46TH ST","BATON ROUGE","LOUISIANA","70802",,
"POINT (-91.143262950003 30.489261439646)","186","GOD FIRST EVANGELISTIC MINISTRIES","4224 BEECHWOOD DR","BATON ROUGE","LOUISIANA","70805",,
"POINT (-91.140175291423 30.475153127445)","387","NEW GALILEE BAPTIST CHURCH","2870 N FOSTER DR","BATON ROUGE","LOUISIANA","70805",,
"POINT (-91.122498542935 30.458354746651)","582","WORLD LINK OF CHURCHES AND MINISTRIES","928 RODIN DR","BATON ROUGE","LOUISIANA","70806",,
"POINT (-91.059607781491 30.459082034292)","363","THE KINGDOM OF GOD CHRISTIAN MINI","11255 FLORIDA BLVD","BATON ROUGE","LOUISIANA","70815",,
"POINT (-91.176875443992 30.537793906237)","520","GREATER FAITH M. B. C.","1615 PROGRESS RD","BATON ROUGE","LOUISIANA","70807",,
"POINT (-91.124702603414 30.471387982274)","561","CHURCH OF GOD, NTJ, THE","2552 SHELDON DR","BATON ROUGE","LOUISIANA","70805",,
"POINT (-91.05701113659 30.382522547691)","527","BETHANY WORLD PRAYER CENTER, SOUTH CAMPUS","10897 RIEGER RD","BATON ROUGE","LOUISIANA","70809",,
"POINT (-91.165420593521 30.514329198214)","124","KING SOLOMON BAPTIST CHURCH","2612 72ND AVE","BATON ROUGE","LOUISIANA","70807",,
"POINT (-91.160007586669 30.483443967626)","680","NEW FREEDOM BAPTIST CHURCH","2909 WINNEBAGO ST","BATON ROUGE","LOUISIANA","70805",,
"POINT (-91.180592551532 30.444566150775)","721","MT. ZION FIRST BAPTIST CHURCH","356 S T.J. JEMISON BLVD","BATON ROUGE","LOUISIANA","70802",,
"POINT (-91.120811976611 30.450723848418)","158","FAITH FULL GOSPEL MINISTRIES","135 ALELLO DR","BATON ROUGE","LOUISIANA","70806",,
"POINT (-90.983409363792 30.357209660387)","284","NEW LIGHT BAPTIST CHURCH","18515 HOO SHOO TOO RD","BATON ROUGE","LOUISIANA","70817",,
"POINT (-91.206169809844 30.569140400233)","541","GREATER MT. BETHEL BAPTIST CHURCH","13530 SCENIC HWY","BATON ROUGE","LOUISIANA","70807",,
"POINT (-91.143170988918 30.501819360712)","581","CHOSEN LIFE MINISTRIES","5685 ROBERTSON AVE","BATON ROUGE","LOUISIANA","70805",,
"POINT (-91.184230793686 30.598151558501)","59","FREEDOM LAND MISSIONARY","2635 CHAMBERLAIN AVE","BAKER","LOUISIANA","70714",,
"POINT (-91.057826889556 30.394596305271)","574","CRISTO PARA TODOS LAS NACIONES","6031 SIEGEN LN, STE F","BATON ROUGE","LOUISIANA","70809",,
"POINT (-91.166690335659 30.45328094115)","441","FRIENDSHIP CHAPEL BAPTIST CHURCH","2111 NORTH ST","BATON ROUGE","LOUISIANA","70802",,
"POINT (-91.181947924654 30.431864756048)","160","GREATER MT. GIDEON BAPTIST CHURCH","205 ALICE ST","BATON ROUGE","LOUISIANA","70802",,
"POINT (-91.163779123288 30.447702130662)","437","NORTH BOULEVARD MACEDONIA FULL GOSPEL MINISTRY","2342 NORTH BLVD","BATON ROUGE","LOUISIANA","70806",,
"POINT (-91.175742943752 30.446418681939)","50","SHILOH BAPTIST CHURCH","185 EDDIE ROBINSON SR DR","BATON ROUGE","LOUISIANA","70802","225-388-9998",
"POINT (-91.100826083765 30.419743337386)","304","COMMUNITY BIBLE CHURCH","8354 JEFFERSON HWY","BATON ROUGE","LOUISIANA","70809",,
"POINT (-91.170228081026 30.531256738484)","54","BEECH GROVE BAPTIST CHURCH","9455 ELM GROVE GARDEN DR","BATON ROUGE","LOUISIANA","70807",,
"POINT (-91.022040929769 30.368247029817)","149","ALL SAINTS ANGLICAN CHURCH","14141 AIRLINE HWY, STE 4Y","BATON ROUGE","LOUISIANA","70817",,
"POINT (-91.077494793193 30.348997293483)","271","WORD TABERNACLE CHURCH","13653 HIGHLAND RD","BATON ROUGE","LOUISIANA","70810",,
"POINT (-91.119544906994 30.45534060857)","633","ABOUNDING LOVE MINISTRIES","6947 VAN GOGH AVE","BATON ROUGE","LOUISIANA","70806",,
"POINT (-91.064058355344 30.493172641373)","250","ONE WAY DELIVERANCE MINISTRIES","10770 GREENWELL SPRINGS RD","BATON ROUGE","LOUISIANA","70814",,
"POINT (-91.070559416187 30.378730399345)","713","ST. GEORGE CATHOLIC CHURCH","7808 SAINT GEORGE DR","BATON ROUGE","LOUISIANA","70809",,
"POINT (-90.976969814607 30.6862890207)","467","SANDY CREEK BAPTIST CHURCH","22834 LIBERTY RD","ZACHARY","LOUISIANA","70791",,
"POINT (-91.018252064387 30.426394517592)","332","SOUTHERN DISTRICT LUTHERAN CHURCH","15160 S HARRELL'S FERRY RD","BATON ROUGE","LOUISIANA","70816",,
"POINT (-91.156804566757 30.461794731662)","98","N 32ND ST CHURCH OF CHRIST","1414 N 32ND ST","BATON ROUGE","LOUISIANA","70802",,
"POINT (-91.165128836952 30.526112087629)","301","NEW BETHEL BAPTIST CHURCH","2746 JAY ST","BATON ROUGE","LOUISIANA","70807",,
"POINT (-91.051630226201 30.458885454632)","396","JUBILEE CHRISTIAN CENTER CHURCH","230 LITTLE JOHN DR","BATON ROUGE","LOUISIANA","70815",,
"POINT (-91.045415753125 30.461824812218)","371","NEW SAINTS IN CHRIST","12333 FLORIDA BLVD, STE B","BATON ROUGE","LOUISIANA","70815",,
"POINT (-91.164130694045 30.592743403413)","156","ROCK ZION BAPTIST CHURCH","1768 ALABAMA AVE","BAKER","LOUISIANA","70714",,
"POINT (-91.174098014781 30.436277991105)","689","NEW ARK BAPTIST CHURCH","1344 TERRACE ST","BATON ROUGE","LOUISIANA","70802",,
"POINT (-91.027998017457 30.663906865199)","524","MOUNT WADE BAPTIST CHURCH","21255 REAMES RD","ZACHARY","LOUISIANA","70791",,
"POINT (-91.063889560652 30.359403620293)","394","PRAYER CARE","1133 KNOLLHAVEN DR","BATON ROUGE","LOUISIANA","70810",,
"POINT (-91.150361183114 30.460633462772)","192","ROCK ZION BAPTIST CHURCH","3996 BILLOPS ST","BATON ROUGE","LOUISIANA","70802",,
"POINT (-91.016496203855 30.400656008402)","469","WOODLAWN BAPTIST CHURCH","5805 JONES CREEK RD","BATON ROUGE","LOUISIANA","70817",,
"POINT (-91.17519840054 30.515939201824)","126","FEED MY SHEEP CHURCH","1689 75TH AVE","BATON ROUGE","LOUISIANA","70807",,
"POINT (-91.118723060877 30.456384460047)","47","THE LIFE CENTER","753 N DONMOOR AVE","BATON ROUGE","LOUISIANA","70806",,
"POINT (-91.175431920482 30.439120853927)","51","SHILOH BAPTIST CHURCH BARGAIN CENTER","945 EDDIE ROBINSON SR DR","BATON ROUGE","LOUISIANA","70802",,
"POINT (-91.200748353725 30.538224708823)","55","GREATER KING DAVID BAPTIST CHURCH ANNEX BUILDING","131 ELMER AVE","BATON ROUGE","LOUISIANA","70807",,
"POINT (-91.11500341694 30.469076315627)","656","TEMPLO CRISTANO ASAMBLEAS DE DIOS","2156 WOODDALE BLVD, STE 140 B","BATON ROUGE","LOUISIANA","70806",,
"POINT (-91.13087194884 30.467555522409)","240","NEW HOPE BAPTIST CHURCH EDUCATION CENTER","5925 GREENWELL SPRINGS RD","BATON ROUGE","LOUISIANA","70806",,
"POINT (-91.177973337985 30.446385934945)","710","GETHESAMINE BAPTIST CHURCH","1101 CHARLES T. SMITH DR","BATON ROUGE","LOUISIANA","70802",,
"POINT (-91.139243307904 30.487325585794)","515","MEMORIAL CHAPEL CHURCH OF GOD","5064 PRESCOTT RD","BATON ROUGE","LOUISIANA","70805",,
"POINT (-91.05078263057 30.496979937953)","247","GREENWELL SPRINGS ROAD CHURCH","11932 GREENWELL SPRINGS RD","BATON ROUGE","LOUISIANA","70814",,
"POINT (-91.054622973055 30.546131065258)","291","ZOAR BAPTIST CHURCH","11848 HOOPER RD","CENTRAL","LOUISIANA","70818",,
"POINT (-91.134637543252 30.526539146314)","285","CAPITAL MISSIONARY BAPTIST CHURCH","5565 HOOPER RD","BATON ROUGE","LOUISIANA","70811",,
"POINT (-91.010056305995 30.368137043094)","311","ST. LUKE BAPTIST CHURCH","16262 JEFFERSON HWY","BATON ROUGE","LOUISIANA","70817",,
"POINT (-90.945351246926 30.623237064132)","237","JESUS CHRIST CHURCH ASSEMBLY","30231 GREENWELL SPRINGS RD","GREENWELL SPRINGS","LOUISIANA","70739",,
"POINT (-90.915220133789 30.710563548756)","517","CEDAR GROVE CHURCH OF GOD","19984 PRIDE-BAYWOOD RD","GREENWELL SPRINGS","LOUISIANA","70739",,
"POINT (-91.156209435907 30.458881816363)","133","MOUNT NEBO BAPTIST CHURCH","1215 N ACADIAN THWY W","BATON ROUGE","LOUISIANA","70802",,
"POINT (-91.180335912588 30.527380479508)","25","FAITH BIBLE CHURCH","1292 CARDINAL ST","BATON ROUGE","LOUISIANA","70807",,
"POINT (-91.145487167663 30.518288550181)","616","JORDAN UNITED METHODIST CHURCH","4619 STEARNS ST","BATON ROUGE","LOUISIANA","70811",,
"POINT (-91.153189790287 30.438856522614)","141","THE MED CENTER OF WEST AFRICA","1012 S ACADIAN THWY, STE 21","BATON ROUGE","LOUISIANA","70806",,
"POINT (-91.110034570071 30.465027504489)","38","HIJRAH SERVICES","1717 DALLAS DR","BATON ROUGE","LOUISIANA","70806",,
"POINT (-91.167334230095 30.469283266578)","423","CHILDREN IN GOD BAPTIST CHURCH","2166 MONROE AVE","BATON ROUGE","LOUISIANA","70802",,
"POINT (-91.10653750715 30.59490106876)","538","EVENING STAR BAPTIST CHURCH","16301 AL SANFORD RD","BAKER","LOUISIANA","70714",,
"POINT (-91.101023727663 30.449208770476)","154","ISLAMIC CENTER OF BATON ROUGE","285 E AIRPORT AVE","BATON ROUGE","LOUISIANA","70806",,
"POINT (-91.138247330004 30.502640718662)","231","CALVARY LUTHERAN CHURCH","5219 GREENWELL ST","BATON ROUGE","LOUISIANA","70805",,
"POINT (-91.004825806339 30.360555980878)","266","GOSPEL LIGHT BAPTIST CHURCH","20440 HIGHLAND RD","BATON ROUGE","LOUISIANA","70817",,
"POINT (-90.988394152884 30.349889298724)","308","MILFORD MASONIC LODGE 117","18768 JEFFERSON HWY","BATON ROUGE","LOUISIANA","70817",,
"POINT (-91.113304745453 30.393441506706)","534","STRAIGHT WAY MINISTRIES (CHURCHES)","1915 RYDER DR","BATON ROUGE","LOUISIANA","70808",,
"POINT (-91.168101931083 30.470952287509)","542","NEW FAITH CHURCH OF GOD IN FELLOWSHIP","2580 SCENIC HWY","BATON ROUGE","LOUISIANA","70805",,
"POINT (-91.181141309598 30.424887711067)","19","SWEETHOME BAPTIST CHURCH","343 W BUCHANAN ST","BATON ROUGE","LOUISIANA","70802",,
"POINT (-91.110034570071 30.465027504489)","35","IN HIS PRESENCE FAITH MINISTRY","1717 DALLAS DR","BATON ROUGE","LOUISIANA","70806",,
"POINT (-91.135431692667 30.493053055223)","343","IN JESUS NAME REFUGE MINISTRY","5474 EVANGELINE ST","BATON ROUGE","LOUISIANA","70805",,
"POINT (-91.163241974658 30.484542373939)","507","STRAIGHT LIFE BAPTIST CHURCH","3891 POCASSET ST","BATON ROUGE","LOUISIANA","70805",,
"POINT (-91.153577680455 30.455352347748)","101","NEW PILGRIM BAPTIST CHURCH","736 N 35TH ST","BATON ROUGE","LOUISIANA","70802",,
"POINT (-91.144898293572 30.453416009186)","443","MINISTRY OF RECONCILIATION CHURCH","4360 NORTH ST","BATON ROUGE","LOUISIANA","70806",,
"POINT (-91.110034570071 30.465027504489)","36","ONE TOUCH MINISTRY","1717 DALLAS DR","BATON ROUGE","LOUISIANA","70806",,
"POINT (-91.128111121804 30.49665035886)","143","JEHOVAH MINISTRY","6356 AIRLINE HWY","BATON ROUGE","LOUISIANA","70805",,
"POINT (-91.152140488143 30.485141954606)","418","TIMES OF REFRESHING EVANGELISTIC MINISTRIES","3745 MOHICAN ST","BATON ROUGE","LOUISIANA","70805",,
"POINT (-91.114999369391 30.46741203654)","654","GODS ANGELS IN THE FIELD","2035 WOODDALE BLVD, STE A","BATON ROUGE","LOUISIANA","70806",,
"POINT (-91.140491334669 30.458888462671)","384","PLAINVIEW CHURCH OF CHRIST HOLINESS","1111 N FOSTER DR","BATON ROUGE","LOUISIANA","70806",,
"POINT (-91.125113017845 30.356815821113)","556","HOLY TRINITY COMMUNITY BAPTIST CHURCH","1412 SEABORD DR","BATON ROUGE","LOUISIANA","70820",,
"POINT (-91.096282960419 30.462484406893)","155","FELLOWSHIP TABERNACLE","1450 AIRWAY DR","BATON ROUGE","LOUISIANA","70815",,
"POINT (-91.121625681417 30.366138703986)","276","ST JUDE APOSTLE SCHOOL","9150 HIGHLAND RD","BATON ROUGE","LOUISIANA","70808",,
"POINT (-91.122407447709 30.455219708295)","634","GOD'S BLESSING LODGING HOUSE","6673 VAN GOGH AVE","BATON ROUGE","LOUISIANA","70806",,
"POINT (-91.132012851267 30.350346610968)","205","COMMUNITY BAPTIST CHURCH PASTOR'S RESIDENCE","2261 GENERAL JACKSON AVE","BATON ROUGE","LOUISIANA","70810",,
"POINT (-91.065239117544 30.456651390108)","449","CALVARY PRESBYTERIAN CHURCH","130 MC GEHEE DR","BATON ROUGE","LOUISIANA","70815",,
"POINT (-91.136628343894 30.487310550949)","512","MOUNT CARMEL BAPTIST CHURCH","5262 PRESCOTT RD","BATON ROUGE","LOUISIANA","70805",,
"POINT (-91.148793358146 30.490257134364)","572","NEW LIFE COMMUNITY BAPTIST CHURCH","4143 SHERWOOD ST","BATON ROUGE","LOUISIANA","70805",,
"POINT (-91.171553556928 30.447492559245)","440","JEHOVAH JIREH MINISTIRES","1700 NORTH BLVD","BATON ROUGE","LOUISIANA","70802",,
"POINT (-91.129483793069 30.493298235404)","340","CHURCH OF LIFE BAPTIST FELLOWSHIP","6066 EVANGELINE ST","BATON ROUGE","LOUISIANA","70805",,
"POINT (-91.18257532265 30.525746089597)","543","CHURCH OF THE FAITH","8607 SCENIC HWY","BATON ROUGE","LOUISIANA","70807",,
"POINT (-91.008775752538 30.439837219181)","664","CALVARY CHAPEL","1962 O'NEAL LN, STE B","BATON ROUGE","LOUISIANA","70816",,
"POINT (-91.17401802089 30.525546189527)","691","JORDAN STONE BAPTIST CHURCH","8523 THELMA ST","BATON ROUGE","LOUISIANA","70807",,
"POINT (-91.084331647476 30.414799223199)","310","JEFFERSON BAPTIST CHURCH","9135 JEFFERSON HWY","BATON ROUGE","LOUISIANA","70809","225-295-2129","http://jack-and-jill.org"
"POINT (-91.122441416803 30.526329587614)","288","APOSTOLIC CHRISTIAN TEMPLE OF SANTIFICATION OUTREACH CENTER","6892 HOOPER RD","BAKER","LOUISIANA","70714",,
"POINT (-91.132478308853 30.499160707727)","337","SERENITY OF HOPE LLC","5420 ENTERPRISE ST","BATON ROUGE","LOUISIANA","70805",,
"POINT (-91.04872577872 30.499511501545)","244","FAITH A-G WORSHIP CENTER","12219 GREENWELL SPRINGS RD","BATON ROUGE","LOUISIANA","70814",,
"POINT (-91.092148162462 30.442498943909)","217","HOSANNA FIRST ASSEMBLY OF GOD CHURCH","8850 GOODWOOD BLVD","BATON ROUGE","LOUISIANA","70806",,
"POINT (-91.157058963091 30.458544016759)","434","FIRST BAPTIST CHURCH OF RICHMOND PARK","3109 NEWTON ST","BATON ROUGE","LOUISIANA","70802",,
"POINT (-91.113807910262 30.458741339161)","398","GREATER KING DAVID BAPTIST CHURCH","911 LOBDELL BLVD","BATON ROUGE","LOUISIANA","70806","225-927-0577","http://greaterkingdavid.org/"
"POINT (-90.989454780665 30.538327107607)","258","GREENWELL SPRINGS BAPTIST CHURCH","19421 GREENWELL SPRINGS RD","GREENWELL SPRINGS","LOUISIANA","70739",,
"POINT (-91.120666492124 30.454584823685)","631","MELROSE EAST BAPTIST MISSION","6844 VAN GOGH AVE","BATON ROUGE","LOUISIANA","70806",,
"POINT (-91.14160811012 30.456783751973)","120","NEW GALILEE BAPTIST CHURCH","946 N 48TH ST","BATON ROUGE","LOUISIANA","70802",,
"POINT (-91.171663035676 30.455269790767)","703","NAZARENE BAPTIST CHURCH","1707 SPANISH TOWN RD","BATON ROUGE","LOUISIANA","70802",,
"POINT (-91.110174760685 30.574651105601)","605","HIGHTIME EVANGELISTIC CENTER","8160 PETTIT RD","BAKER","LOUISIANA","70714",,
"POINT (-91.127233381268 30.467206121967)","198","PLEASANT VALLEY CHURCH","6159 BLUEBERRY ST","BATON ROUGE","LOUISIANA","70806",,
"POINT (-91.042091049997 30.403918414266)","9","ST. PATRICK CATHOLIC CHURCH","12424 BROGDON LN","BATON ROUGE","LOUISIANA","70816",,
"POINT (-91.118825584691 30.474256272448)","242","VIETNAMESE HOPE BAPTIST CHURCH","7133 GREENWELL SPRINGS RD","BATON ROUGE","LOUISIANA","70805",,
"POINT (-91.133693994486 30.478521358926)","676","CHURCH OF JESUS CHRIST OF LATTER DAY SAINTS","5686 WINBOURNE AVE","BATON ROUGE","LOUISIANA","70805",,
"POINT (-91.193144190028 30.538642668379)","173","RCA 1","10362 AVENUE D","BATON ROUGE","LOUISIANA","70807",,
"POINT (-91.024933592729 30.367298312661)","147","ALL SAINTS ANGLICAN CHURCH","14141 AIRLINE HWY","BATON ROUGE","LOUISIANA","70817",,
"POINT (-91.109578597796 30.536118929214)","390","CHURCH OF CHRIST","9724 FOSTER RD","BATON ROUGE","LOUISIANA","70811",,
"POINT (-91.165320644448 30.444613740875)","96","JEHOVAH'S WITNESS MID-CITY CONGREGATION","401 S 22ND ST","BATON ROUGE","LOUISIANA","70806",,
"POINT (-91.154985309363 30.430535530066)","139","CATHOLIC DIOCESE OF BATON ROUGE","1900 S ACADIAN THWY","BATON ROUGE","LOUISIANA","70808",,
"POINT (-91.071385108837 30.451757393885)","420","BROADMOOR UNITED METHODIST CHURCH","10230 MOLLYLEA DR","BATON ROUGE","LOUISIANA","70815",,
"POINT (-91.186353051665 30.530872514429)","709","RICHARDSON CHAPEL OUTREACH MINISTRY","757 W.K. GORDON ST","BATON ROUGE","LOUISIANA","70807",,
"POINT (-91.139015421831 30.519819579215)","383","ANTIOCH FULL GOSPEL BAPTIST CHURCH","5247 FORD ST","BATON ROUGE","LOUISIANA","70811",,
"POINT (-91.167013291444 30.444998673515)","95","LIVING WORD CHURCH","360 S 21ST ST","BATON ROUGE","LOUISIANA","70806",,
"POINT (-91.156783577926 30.437519416142)","392","SISTERS OF ST. JOSEPH OF MEDAILLE CONVENT","3080 KLEINERT AVE","BATON ROUGE","LOUISIANA","70806",,
"POINT (-91.147214762182 30.513828601628)","28","NEW BEACHGROVE BAPTIST CHURCH","4420 CROWN AVE","BATON ROUGE","LOUISIANA","70811",,
"POINT (-91.050022123452 30.497578989752)","241","NEW LIFE CHRISTIAN CENTER","12116 GREENWELL SPRINGS RD","BATON ROUGE","LOUISIANA","70814",,
"POINT (-91.147411233606 30.481733451271)","641","OPEN FAITH TABERNACLE","3580 WAYNE DR","BATON ROUGE","LOUISIANA","70805",,
"POINT (-91.006645249511 30.379578942271)","162","COVENANT PRESBYTERIAN CHURCH","8025 ANTIOCH RD","BATON ROUGE","LOUISIANA","70817",,
"POINT (-91.152785079767 30.454898161007)","103","FAITH BAPTIST CHURCH","721 N 37TH ST","BATON ROUGE","LOUISIANA","70802",,
"POINT (-91.071094298916 30.455298701321)","372","VICTORY INTERNATIONAL MINISTRIES","10128 FLORIDA BLVD, STE B","BATON ROUGE","LOUISIANA","70815",,
"POINT (-91.183700980653 30.530992842442)","668","CHURCH OF THE LIVING GOD-PILLAR 7 GROUND OF THE TRUTH, THE","1042 ROSENWALD RD","BATON ROUGE","LOUISIANA","70807",,
"POINT (-91.155961815833 30.460413987545)","130","KING OF KINGS REVIVAL MINISTRY","1402 N ACADIAN THWY W","BATON ROUGE","LOUISIANA","70802",,
"POINT (-91.1556533079 30.455931100707)","137","SECOND BAPTIST CHURCH EDUC BLDG","902 N ACADIAN THWY W","BATON ROUGE","LOUISIANA","70802",,
"POINT (-91.164631827399 30.489573247227)","571","LITTLE ROCK MISSIONARY BAPTIST CHURCH","2585 SHERWOOD ST","BATON ROUGE","LOUISIANA","70805",,
"POINT (-91.050879984799 30.425536104594)","2","CHRISTIAN FAITH CHURCH OF BATON ROUGE","2924 BRAKLEY DR, STE B6","BATON ROUGE","LOUISIANA","70816",,
"POINT (-91.035601834878 30.487775088373)","353","VICTORY HARVEST CHURCH","3953 N FLANNERY RD","BATON ROUGE","LOUISIANA","70814",,
"POINT (-91.061008391285 30.495162247358)","253","WHITE DOVE FELLOWSHIP","10957 GREENWELL SPRINGS RD","BATON ROUGE","LOUISIANA","70814",,
"POINT (-91.113176797968 30.391461230882)","626","JOY OF DELIVERANCE MINISTRIES","7435 TOWN SOUTH AVE","BATON ROUGE","LOUISIANA","70808",,
"POINT (-91.136958043382 30.516149503148)","421","GREATER ST. MICHAELS SPIRITUAL CHURCH, THE","5355 MONARCH AVE","BATON ROUGE","LOUISIANA","70811",,
"POINT (-91.165334420411 30.45106397558)","405","SACRED HEART OF JESUS CATHOLIC CHURCH","2250 MAIN ST","BATON ROUGE","LOUISIANA","70802","225-665-3600","http://sacredheartbr.com"
"POINT (-91.135137311829 30.508072378543)","447","FIRST UNITY MISSIONARY BAPTIST","6262 MC CLELLAND DR","BATON ROUGE","LOUISIANA","70812",,
"POINT (-91.1490429372 30.47104693437)","68","FAITH HOPE & LOVE WORSHIP CENTER","4055 CHOCTAW DR","BATON ROUGE","LOUISIANA","70805",,
"POINT (-91.160897136538 30.485361866272)","643","NEW REVELATION BAPTIST CHURCH","2864 WELLER AVE","BATON ROUGE","LOUISIANA","70805",,
"POINT (-91.126053556842 30.450846196059)","364","ST. GARABED ARMENIAN CHURCH","6208 FLORIDA BLVD","BATON ROUGE","LOUISIANA","70806",,
"POINT (-91.020953480194 30.378877808283)","45","ABIDING HOPE FELLOWSHIP","7935 DIRECTOR DR","BATON ROUGE","LOUISIANA","70817",,
"POINT (-91.121857574805 30.449503832259)","187","ARISE MINISTRIES","185 BELLEWOOD DR","BATON ROUGE","LOUISIANA","70806",,
"POINT (-91.14218236082 30.478958858745)","675","HEALING PLACE CHURCH - BATON ROUGE DREAMCENTER","4829 WINBOURNE AVE","BATON ROUGE","LOUISIANA","70805",,
"POINT (-91.112067766075 30.39330573352)","614","BELIEVERS ASSEMBLY OF BATON ROUGE","1981 STARING LN","BATON ROUGE","LOUISIANA","70808",,
"POINT (-91.16285760869 30.456791818299)","227","DONALDSON CHAPEL BAPTIST CHURCH","2501 GRACIE ST","BATON ROUGE","LOUISIANA","70802",,
"POINT (-91.070904039412 30.455578434708)","367","BIBLE TEACHERS INTERNATIONAL","10132 FLORIDA BLVD","BATON ROUGE","LOUISIANA","70815",,
"POINT (-91.180140735291 30.433058067378)","53","FIRST EMMANUEL MISSIONARY BAPTIST CHURCH","575 EDUCATION ST","BATON ROUGE","LOUISIANA","70802",,
"POINT (-91.147894145354 30.585786329136)","207","NEW BEGINNINGS- BAKER CHURCH OF GOD","1124 GEORGIA ST","BAKER","LOUISIANA","70714",,
"POINT (-91.123797099947 30.455030213819)","56","TRUE WORSHIPERS CHRISTIAN CENTER","633 N CARROLLTON AVE","BATON ROUGE","LOUISIANA","70806",,
"POINT (-91.166840309931 30.521353143847)","318","MT. ZION BAPTIST CHURCH","2521 HARDING BLVD","BATON ROUGE","LOUISIANA","70807",,
"POINT (-91.070064952639 30.421501168588)","300","ISTROUMA BAPTIST CHURCH","10265 JANICE ST","BATON ROUGE","LOUISIANA","70816",,
"POINT (-91.117668452141 30.475256725615)","636","MIRACLE DELIVERANCE REVIVALS","2843 VICTORIA DR","BATON ROUGE","LOUISIANA","70805",,
"POINT (-91.112345840431 30.473169027947)","297","RESURRECTION & NEW LIFE FELLOWSHIP","7569 E INDUSTRIAL AVE","BATON ROUGE","LOUISIANA","70814",,
"POINT (-91.180592605871 30.429686314979)","166","GREATER ST JAMES BAPTIST CHURCH","1919 ARIZONA ST","BATON ROUGE","LOUISIANA","70802",,
"POINT (-91.135281365963 30.559521952072)","696","ST. ISIDORE THE FARMER CATHOLIC CHURCH","5657 THOMAS RD","BATON ROUGE","LOUISIANA","70811",,"http://stisidorecommunity.org"
"POINT (-91.119914000329 30.497874170256)","460","ELM PARK BAPTIST CHURCH","5150 LANDIS DR","BATON ROUGE","LOUISIANA","70812",,
"POINT (-91.204953105233 30.571436633272)","592","ROSE OF SHARON BAPTIST CHURCH","312 OLD RAFE MAYER RD","BATON ROUGE","LOUISIANA","70807",,
"POINT (-91.001570635344 30.47390989375)","618","HOLY TRINITY GREEK ORTHODOX CHURCH","2510 N STEVENDALE RD","BATON ROUGE","LOUISIANA","70819",,
"POINT (-91.070904039412 30.455578434708)","370","THE KINGDOM OF GOD CHRISTIAN MINI","10132 FLORIDA BLVD","BATON ROUGE","LOUISIANA","70815",,
"POINT (-91.048022697863 30.424442389788)","474","CHURCH OF JESUS CHRIST OF LATTER DAY SAINTS","12025 JUSTICE AVE","BATON ROUGE","LOUISIANA","70816",,
"POINT (-91.172279534791 30.435588436533)","413","NEW BETHEL BAPTIST CHURCH","1540 MATILDA ST","BATON ROUGE","LOUISIANA","70802",,
"POINT (-91.162060570887 30.512381762707)","122","HIGH TOWER BAPTIST CHURCH","2908 69TH AVE","BATON ROUGE","LOUISIANA","70807",,
"POINT (-91.144102275337 30.560356849251)","681","SWEET HOME BAPTIST CHURCH","12575 SUNSHINE RD","BATON ROUGE","LOUISIANA","70811",,
"POINT (-91.097527227213 30.644871996877)","660","CYPRESS GROVE BAPTIST CHURCH","8539 ZACHARY-DEERFORD RD","ZACHARY","LOUISIANA","70791",,
"POINT (-91.149303318427 30.593554013142)","450","JESUS THE WAY FULL GOSPEL CHURCH","1700 MC HUGH RD","BAKER","LOUISIANA","70714",,
"POINT (-91.172867941758 30.522847731373)","347","EBENEZER BAPTIST CHURCH","1915 FAIRCHILD ST","BATON ROUGE","LOUISIANA","70807",,
"POINT (-91.108386397726 30.465052957757)","624","SPIRIT OF TRUTH FAMILY CENTER","7767 TOM DR","BATON ROUGE","LOUISIANA","70806",,
"POINT (-91.153123730345 30.64791192996)","711","ST. JOHN THE BAPTIST CATHOLIC CHURCH","4826 MAIN ST","ZACHARY","LOUISIANA","70791",,"http://www.sjb-ola.org"
"POINT (-91.034367414481 30.39386216738)","522","SAMAJ HINDU TEMPLE","6406 QUIN DR","BATON ROUGE","LOUISIANA","70817",,
"POINT (-91.151693375887 30.455979768032)","105","HUGHES UNITED METHODIST CHURCH","802 N 38TH ST","BATON ROUGE","LOUISIANA","70802",,
"POINT (-91.060843846719 30.42718143819)","625","KINGDOM HALL OF JEHOVAH'S WITNESSES","2562 TOULON DR","BATON ROUGE","LOUISIANA","70816",,
"POINT (-91.035248797818 30.472937861249)","76","FAITH HEALING AND DELIVERANCE","13541 S CHOCTAW DR","BATON ROUGE","LOUISIANA","70815",,
"POINT (-91.184990655852 30.439490415154)","699","NEW ST LUKE BAPTIST CHURCH","538 SOUTH BLVD","BATON ROUGE","LOUISIANA","70802",,
"POINT (-91.174004081088 30.432230242253)","598","RAYMOND SPIRITUAL CHURCH","1225 PEAR ST","BATON ROUGE","LOUISIANA","70802",,
"POINT (-91.185155052185 30.596321641107)","293","MT VERNON BAPT CHURCH","2404 HOVEY AVE","BAKER","LOUISIANA","70714",,
"POINT (-91.048733016673 30.404890092107)","683","CHURCH FUNERAL SERVICES AND CREMATORY LLC","5525 SUPERIOR DR","BATON ROUGE","LOUISIANA","70816",,
"POINT (-91.165396610825 30.451263819808)","380","CATHOLIC YOUTH ORGANIZATION","2245 FLORIDA ST","BATON ROUGE","LOUISIANA","70802",,
"POINT (-91.158671182705 30.457336374222)","203","CENTER FOR CHRISTIAN UNITY","3006 FUQUA ST","BATON ROUGE","LOUISIANA","70802",,
"POINT (-91.112957563661 30.481587042063)","408","FIRST APOSTOLIC LIGHT ASSEMBLY","3513 MARIBEL DR","BATON ROUGE","LOUISIANA","70812",,
"POINT (-91.095024398409 30.378970964543)","707","NEW CREATION CHRISTIAN CENTER","10000 PERKINS ROWE","BATON ROUGE","LOUISIANA","70810",,
"POINT (-91.006389525564 30.423379876251)","330","ST. JEAN VIANNEY CATHOLIC CHURCH","16166 S HARRELL'S FERRY RD","BATON ROUGE","LOUISIANA","70816",,"https://www.stjeanvianney.org"
"POINT (-91.1822176017 30.526381733431)","552","CAMPHOR MEMORIAL UNITED METHODIST CHURCH","8742 SCENIC HWY","BATON ROUGE","LOUISIANA","70807",,
"POINT (-91.116615480081 30.496163442152)","316","ELM PARK BAPTIST CHURCH","7317 HANKS DR","BATON ROUGE","LOUISIANA","70812",,
"POINT (-91.041637729279 30.471116689244)","317","JESUS THE LIGHT WORLD","2012 N HARCO DR","BATON ROUGE","LOUISIANA","70815",,
"POINT (-91.203715119813 30.665249203396)","355","GREATER NEW HOPE BAPTIST CHURCH","1896 FLONACHER RD","ZACHARY","LOUISIANA","70791",,
"POINT (-91.051608893566 30.425315985358)","563","RYAN CHURCH","3029 S SHERWOOD FOREST BLVD","BATON ROUGE","LOUISIANA","70816",,
"POINT (-91.172058107311 30.417683138844)","41","UNIVERSITY UNITED METHODIST CHURCH","3350 DALRYMPLE DR","BATON ROUGE","LOUISIANA","70802",,
"POINT (-91.083715653149 30.371684898631)","603","SECOND MOUNT OLIVE BAPTIST CHURCH","11741 PERKINS RD","BATON ROUGE","LOUISIANA","70810",,
"POINT (-91.137591014974 30.519334335089)","381","GREATER BEACH GROVE BAPTIST CHURCH, THE","5352 FORD ST","BATON ROUGE","LOUISIANA","70811",,
"POINT (-91.007421353807 30.456135548135)","662","CHARITY CHRISTIAN CENTER CHURCH","871 O'NEAL LN","BATON ROUGE","LOUISIANA","70816",,
"POINT (-91.115288178952 30.460294727368)","397","CHRISTIAN LIFE BIBLE CHURCH","1111 LOBDELL BLVD","BATON ROUGE","LOUISIANA","70806",,
"POINT (-91.173477832615 30.426902584703)","509","GREATER BEULAH BAPTIST CHURCH","1002 E POLK ST","BATON ROUGE","LOUISIANA","70802",,
"POINT (-91.119936012944 30.456741903337)","334","VICTORY & POWER MINISTRY","6940 HARRY DR","BATON ROUGE","LOUISIANA","70806",,
"POINT (-91.135692192625 30.420373308363)","299","BROTHERS OF SACRED HEARTH","4815 JAMESTOWN AVE","BATON ROUGE","LOUISIANA","70808",,
"POINT (-91.207972494971 30.392196104547)","579","CHURCH","5715 RIVER RD","BATON ROUGE","LOUISIANA","70820",,
"POINT (-91.053768450056 30.391094230519)","338","DATTA TEMPLE","6221 EQUITY DR","BATON ROUGE","LOUISIANA","70809",,
"POINT (-91.148513734752 30.470728493071)","65","INSTITUTE OF DIVINE METAPHYSICAL RESEARCH","4109 CHOCTAW DR","BATON ROUGE","LOUISIANA","70805",,
"POINT (-91.100259478965 30.379834968281)","296","ST. PHILLIP DIVINE-SPIRITUAL CHURCH OF CHRIST","10188 HYACINTH AVE","BATON ROUGE","LOUISIANA","70810",,
"POINT (-91.156491574756 30.449062373575)","84","THE INTERFAITH FEDERATION OF GREATER BATON ROUGE","3112 CONVENTION ST","BATON ROUGE","LOUISIANA","70806","225-267-5600",
"POINT (-91.072735787595 30.462057477608)","558","MARANATHA FELLOWSHIP","1433 SHARP LN","BATON ROUGE","LOUISIANA","70815",,
"POINT (-91.179007621049 30.524472220305)","698","GREATER MOUNT CARMEL CHURCH","1414 SORA ST","BATON ROUGE","LOUISIANA","70807",,
"POINT (-91.020224836793 30.455279080315)","589","RIVER OAKS BAPTIST CHURCH","14969 OLD HAMMOND HWY","BATON ROUGE","LOUISIANA","70819",,
"POINT (-91.028993520361 30.408053632981)","26","THE PENTECOSTALS OF BATON ROUGE","13460 COURSEY BLVD","BATON ROUGE","LOUISIANA","70817",,
"POINT (-91.093594772799 30.416121216502)","521","FRONTLINE MINISTRIES","8762 QUARTERS LAKE RD, STE 1","BATON ROUGE","LOUISIANA","70809",,
"POINT (-91.176087305699 30.444774725078)","52","NEW SALEM BAPTIST CHURCH","318 EDDIE ROBINSON SR DR","BATON ROUGE","LOUISIANA","70802",,
"POINT (-91.173561098914 30.417184692409)","63","UNITED CAMPUS MINISTRIES","333 E CHIMES ST","BATON ROUGE","LOUISIANA","70802",,
"POINT (-91.079663078276 30.357446170752)","573","ACACIA CHURCH","10051 SIEGEN LN","BATON ROUGE","LOUISIANA","70810",,
"POINT (-91.006749381709 30.428138749882)","663","RIVERDALE BAPTIST CHURCH","2791 O'NEAL LN","BATON ROUGE","LOUISIANA","70816",,
"POINT (-91.164134763409 30.448446997175)","97","GREATER ST LUKE BAPTIST CHURCH","132 N 23RD ST","BATON ROUGE","LOUISIANA","70806",,
"POINT (-91.085198299123 30.484512905219)","249","JOE NORTHERN MINISTRIES","9366 GREENWELL SPRINGS RD","BATON ROUGE","LOUISIANA","70814",,
"POINT (-91.169823587195 30.456482496576)","92","MOUNT NEBO BAPTIST CHURCH","917 N 19TH ST","BATON ROUGE","LOUISIANA","70802",,
"POINT (-91.127251419762 30.407589835348)","601","GOOD SHEPHERD LUTHERAN CHURCH","5990 PERKINS RD","BATON ROUGE","LOUISIANA","70808",,
"POINT (-91.096476329907 30.704525720856)","465","STRANGERS HOME BAPTIST CHURCH","8525 LEMON RD","SLAUGHTER","LOUISIANA","70777",,
"POINT (-91.110000040119 30.393579514575)","613","LAEL FULL GOSPEL CHURCH","2098 STARING LN","BATON ROUGE","LOUISIANA","70810",,
"POINT (-91.14646752314 30.411133438814)","464","KOREAN CENTRAL CHURCH OF BATON ROUGE","1700 LEE DR","BATON ROUGE","LOUISIANA","70808",,
"POINT (-91.173792741849 30.424909097009)","18","MAGNOLIA BAPTIST CHURCH","960 E BUCHANAN ST","BATON ROUGE","LOUISIANA","70802",,
"POINT (-91.079243805081 30.443920824457)","218","BROADMOOR BAPTIST CHURCH","9755 GOODWOOD BLVD","BATON ROUGE","LOUISIANA","70815","225-927-5454","http://broadmoorbaptist.com"
"POINT (-91.048718197499 30.462708164019)","685","CELEBRATION OF LIFE","1149 S TAMARI DR","BATON ROUGE","LOUISIANA","70815",,
"POINT (-91.14503433355 30.510184116183)","152","RIZ UP LOUISIANA","4331 AIRLINE HWY","BATON ROUGE","LOUISIANA","70811",,
"POINT (-91.009213259754 30.360663002555)","145","CROSSPOINT BAPTIST CHURCH","14965 AIRLINE HWY","BATON ROUGE","LOUISIANA","70817",,
"POINT (-91.109102388831 30.361737454238)","267","CHURCH OF JESUS CHRIST OF LATTER DAY SAINTS - BATON ROUGE TEMPLE","10335 HIGHLAND RD","BATON ROUGE","LOUISIANA","70810",,
"POINT (-91.187139885517 30.389163655056)","6","FIRST BAPTIST DEAF CHURCH","2538 BRIGHTSIDE DR","BATON ROUGE","LOUISIANA","70820",,
"POINT (-91.061021710359 30.491807343689)","568","CHRIST THE KING CHRISTIAN CENTER","4407 N SHERWOOD FOREST DR","BATON ROUGE","LOUISIANA","70814",,
"POINT (-91.14401746551 30.457388349435)","82","ARK OF SAFETY CHURCH","1002 COLUMBUS DUNN DR","BATON ROUGE","LOUISIANA","70802",,
"POINT (-91.183323456793 30.433841525232)","270","HOUSE OF REFUGE MINISTRIES","1509 HIGHLAND RD","BATON ROUGE","LOUISIANA","70802",,
"POINT (-91.085528016868 30.53501803237)","292","LIFE TABERNACLE CHURCH","9323 HOOPER RD","BAKER","LOUISIANA","70714",,
"POINT (-91.156601468887 30.459907600052)","100","GREEN'S CHAPEL AME CHURCH","1232 N 32ND ST","BATON ROUGE","LOUISIANA","70802",,
"POINT (-91.176154420672 30.424227306971)","688","ST. JOSEPH BAPTIST CHURCH","2510 TENNESSEE ST","BATON ROUGE","LOUISIANA","70802",,
"POINT (-91.093945641963 30.483094833656)","245","OAKCREST BAPTIST CHURCH","8837 GREENWELL SPRINGS RD","BATON ROUGE","LOUISIANA","70814",,
"POINT (-91.143816390092 30.479171276694)","677","UNITED METHODIST HOPE MINISTRIES","4643 WINBOURNE AVE","BATON ROUGE","LOUISIANA","70805","225-355-0702","http://hopeministriesbr.org"
"POINT (-91.144217090097 30.451608563909)","184","NEW FREEDOM MISSIONARY BAPTIST CHURCH","388 N BECK ST","BATON ROUGE","LOUISIANA","70806",,
"POINT (-91.112921739804 30.465359991345)","651","UMAR IBN AL-KHARAB BUILDING","1844 WOODDALE BLVD","BAKER","LOUISIANA","70714",,
"POINT (-91.049700179672 30.426485191176)","5","CLOSER WALK MINISTRIES","11853 BRICKSOME AVE, STE A","BATON ROUGE","LOUISIANA","70816",,
"POINT (-91.085728920987 30.495228001669)","577","UNITED CHRISTIAN CHURCH","9229 N RIDGEWOOD DR","BATON ROUGE","LOUISIANA","70814",,
"POINT (-91.122407868344 30.454625763733)","632","TRUE BELIEVERS CHRISTIAN CENTER","6676 VAN GOGH AVE","BATON ROUGE","LOUISIANA","70806",,
"POINT (-91.156050003392 30.431707111299)","295","CONGREGATION OF ST. JOSEPH CONVENT","3134 HUNDRED OAKS AVE","BATON ROUGE","LOUISIANA","70808",,
"POINT (-90.996234275794 30.605821372365)","466","BETHEL UNITED METHODIST CHURCH AND CEMETERY","17022 LIBERTY RD","PRIDE","LOUISIANA","70770",,
"POINT (-91.091578070097 30.418496480432)","313","ST. MATTHEW THE APOSTOLE ORTHODOX CHURCH","8775 JEFFERSON HWY, STE E","BATON ROUGE","LOUISIANA","70809",,
"POINT (-91.1416603424 30.425551093111)","177","NEW GIDEON BAPTIST CHURCH","2552 BALIS DR","BATON ROUGE","LOUISIANA","70808",,
"POINT (-91.072987035806 30.477403963898)","406","PRAISE NATION","10267 MAMMOTH AVE","BATON ROUGE","LOUISIANA","70814",,
"POINT (-91.125600047811 30.459868983559)","346","HIJRAH SERVICES","1075 EXECUTIVE PARK AVE","BATON ROUGE","LOUISIANA","70806",,
"POINT (-91.059281949715 30.483222192452)","566","HIGHER GROUND OUTREACH MINISTRIES","3515 N SHERWOOD FOREST DR","BATON ROUGE","LOUISIANA","70814",,
"POINT (-91.038524030402 30.400383869428)","620","CROSS OF GLORY EVANGELICAL LUTHERAN CHURCH & LEARNING CENTER","5500 STUMBERG LN","BATON ROUGE","LOUISIANA","70816",,
"POINT (-91.127285236305 30.491585936603)","12","OASIS CHRISTIAN CHURCH","4524 E BROOKSTOWN DR","BATON ROUGE","LOUISIANA","70805",,
"POINT (-91.1299705138 30.442679277415)","309","WATERS & PETTIT","711 JEFFERSON HWY, STE 7","BATON ROUGE","LOUISIANA","70806",,
"POINT (-91.152585489926 30.444804912679)","402","NEW FAITH ADULT DAY PROGRAM","445 LOVERS LN","BATON ROUGE","LOUISIANA","70806",,
"POINT (-91.108792806866 30.495312997357)","461","LANIER BAPTIST CHURCH","4851 LANIER DR","BATON ROUGE","LOUISIANA","70812",,
"POINT (-91.029055177751 30.358707273917)","179","ACACIA CHURCH","10210 BARINGER FOREMAN RD","BATON ROUGE","LOUISIANA","70809",,
"POINT (-91.16749692235 30.463405335275)","550","BREAD OF LIFE MINISTRIES","1742 SCENIC HWY","BATON ROUGE","LOUISIANA","70802",,
"POINT (-91.036801657036 30.444372479291)","588","FAITH PRESBYTERIAN CHURCH","12855 OLD HAMMOND HWY","BATON ROUGE","LOUISIANA","70816",,
"POINT (-91.167507305998 30.558242301416)","697","BEECH GROVE BAPTIST CHURCH","2376 THOMAS RD","BATON ROUGE","LOUISIANA","70807",,
"POINT (-91.155613603545 30.456608255594)","135","SECOND BAPTIST CHURCH","914 N ACADIAN THWY W","BATON ROUGE","LOUISIANA","70802",,
"POINT (-91.04682831337 30.433366799141)","325","SPORTS CLUB OF BATON ROUGE","12061 N HARRELL'S FERRY RD","BATON ROUGE","LOUISIANA","70816",,
"POINT (-91.152585489926 30.444804912679)","403","SHEKINAH GLORY","445 LOVERS LN","BATON ROUGE","LOUISIANA","70806",,
"POINT (-91.115650271081 30.470689534998)","650","COUNSEL OF GOD MINISTRIES","2370 WOODDALE BLVD","BATON ROUGE","LOUISIANA","70806",,
"POINT (-91.112159906713 30.468115401209)","40","LAEL FULL GOSPEL CHURCH","1987 DALLAS DR","BATON ROUGE","LOUISIANA","70806",,
"POINT (-91.173477832615 30.426902584703)","508","DR. R A CLARK FELLOWSHIP CENTER","1002 E POLK ST","BATON ROUGE","LOUISIANA","70802",,
"POINT (-91.170656892288 30.446797736917)","161","NEW SUNLIGHT BAPTIST CHURCH","1777 AMERICA ST","BATON ROUGE","LOUISIANA","70802",,
"POINT (-91.15386229176 30.460162484727)","102","MOUNT HERMAN BAPTIST CHURCH","1293 N 36TH ST","BATON ROUGE","LOUISIANA","70802",,
"POINT (-91.13393025853 30.505821465228)","146","NEW LIFE MINISTRIES","5521 AIRLINE HWY","BATON ROUGE","LOUISIANA","70812",,
"POINT (-91.122089173387 30.526499972308)","289","APOSTOLIC CHRISTIAN TEMPLE OF SANTIFICATION OUTREACH CENTER","6892 HOOPER RD","BATON ROUGE","LOUISIANA","70811",,
"POINT (-91.113860095178 30.489135814816)","516","BEACON LIGHT BAPTIST CHURCH","7513 PRESCOTT RD","BATON ROUGE","LOUISIANA","70812",,
"POINT (-91.153579582297 30.487379750928)","513","CORNER STONE MINISTRIES OF RESTORATION","3609 PRESCOTT RD","BATON ROUGE","LOUISIANA","70805",,
"POINT (-91.165385462429 30.525251934903)","673","NEW PHILEMON BAPTIST CHURCH","8544 WILBUR ST","BATON ROUGE","LOUISIANA","70807",,
"POINT (-91.124385536082 30.521916476723)","455","OMNI HOUSE","6538 MICKENS RD","BATON ROUGE","LOUISIANA","70811",,
"POINT (-91.16448910759 30.48521239303)","642","JESUS' NAME APOSTOLIC TEMPLE","2548 WELLER AVE","BATON ROUGE","LOUISIANA","70805",,
"POINT (-91.139628129783 30.446698839988)","389","CHURCH OF THE WAY PRESBYTERIAN","250 S FOSTER DR","BATON ROUGE","LOUISIANA","70806",,
"POINT (-91.176919359518 30.425560116392)","693","FAITH A.M.E. ZION CHURCH","2364 THOMAS H DELPIT DR","BATON ROUGE","LOUISIANA","70802",,
"POINT (-91.183565376521 30.430548333017)","640","FIRST DAMASCUS BAPTIST CHURCH","155 W WASHINGTON ST","BATON ROUGE","LOUISIANA","70802",,
"POINT (-91.152222473869 30.457876639535)","106","ELM GROVE BAPTIST CHURCH","1069 N 38TH ST","BATON ROUGE","LOUISIANA","70802","225-343-7865",
"POINT (-91.193144190028 30.538642668379)","172","CAPITAL MISSIONARY BAPTIST CHURCH","10362 AVENUE D","BATON ROUGE","LOUISIANA","70807",,
"POINT (-91.09505972381 30.484141926101)","236","THE LIFE CHURCH OF BATON ROUGE","8731 GREENWELL SPRINGS RD","BATON ROUGE","LOUISIANA","70814",,
"POINT (-91.178267530723 30.424733424391)","17","MOUNT GILLION BAPTIST CHURCH","346 E BUCHANAN ST","BATON ROUGE","LOUISIANA","70802",,
"POINT (-91.14287269509 30.45974237545)","115","FAITH FAMILY BAPTIST CHURCH","1201 N 47TH ST","BATON ROUGE","LOUISIANA","70802",,
"POINT (-91.183309791745 30.435726342321)","431","ST. PAUL MISSIONARY BAPTIST CHURCH","1357 NAPOLEON ST","BATON ROUGE","LOUISIANA","70802",,
"POINT (-91.138492708219 30.461749448131)","385","STAR HILL BAPTIST CHURCH","1400 N FOSTER DR","BATON ROUGE","LOUISIANA","70806",,
"POINT (-91.116438436949 30.381991093856)","612","SOUTH BATON ROUGE PRESBYTERIAN CHURCH","933 STARING LN","BATON ROUGE","LOUISIANA","70808",,
"POINT (-91.070667409411 30.424198128506)","536","ISTROUMA BAPTIST CHURCH","10500 SAM RUSHING DR","BATON ROUGE","LOUISIANA","70816",,
"POINT (-91.185897600423 30.53315235327)","553","MT. PILGRIM BAPTIST CHURCH","9700 SCENIC HWY","BATON ROUGE","LOUISIANA","70807","225-775-2740","http://mtpilgrim.org/"
"POINT (-91.079728228793 30.471633668126)","73","IGLESIAS APOSTLES Y PROFETAS","9526 S CHOCTAW DR","BATON ROUGE","LOUISIANA","70815",,
"POINT (-91.148332488648 30.46081039042)","193","MIRACLE TEMPLE CHURCH OF GOD IN CHRIST","4184 BILLOPS ST","BATON ROUGE","LOUISIANA","70802",,
"POINT (-91.144182064956 30.475416294387)","142","MY FATHER'S HOUSE MINISTRIES INC","2961 ADDISON ST","BATON ROUGE","LOUISIANA","70805",,
"POINT (-91.056026997439 30.386766115793)","282","BETHANY WORLD PRAYER CENTER, SOUTH CAMPUS","11107 HONORE LN","BATON ROUGE","LOUISIANA","70809",,
"POINT (-91.126109184436 30.471269101463)","69","GLORYLAND BAPTIST CHURCH COMMUNITY CENTER","6387 CHOCTAW DR","BATON ROUGE","LOUISIANA","70805","225-356-0577",
"POINT (-91.077064003079 30.36153024785)","575","THE CHAPEL IN THE OAKS","9611 SIEGEN LN","BATON ROUGE","LOUISIANA","70810",,
"POINT (-91.08553012306 30.484428763159)","248","AGAPE WORLD CHURCH HEADQUARTERS","9362 GREENWELL SPRINGS RD","BATON ROUGE","LOUISIANA","70814",,
"POINT (-91.04722063314 30.462495316707)","374","IGLESIA","12171 FLORIDA BLVD","BATON ROUGE","LOUISIANA","70815",,
"POINT (-91.077190276871 30.366692263428)","576","WORD OF FAITH CHRISTIAN CENTER","9160 SIEGEN LN","BATON ROUGE","LOUISIANA","70810",,
"POINT (-91.187258690679 30.449252062015)","378","ST. JAMES MINISTRIES CENTER","352 FLORIDA ST","BATON ROUGE","LOUISIANA","70801",,
"POINT (-91.119545509733 30.373227356925)","607","GENERAL ASSEMBLY CHURCH OF BATON ROUGE","420 STARING LN","BATON ROUGE","LOUISIANA","70810",,
"POINT (-91.173937664934 30.509456815243)","425","COMMUNITY BIBLE BAPTIST CHURCH","1729 MONTE SANO AVE","BATON ROUGE","LOUISIANA","70807",,
"POINT (-91.051639924409 30.430453865765)","328","GREATER FELLOWSHIP OUTREACH CENTER","11752 S HARRELL'S FERRY RD, STE E","BATON ROUGE","LOUISIANA","70816",,
"POINT (-91.177195217387 30.431003099303)","638","ISLAMIC COMPLEX","740 E WASHINGTON ST","BATON ROUGE","LOUISIANA","70802",,
"POINT (-91.139447822288 30.428003670058)","178","NEW MORNING STAR BAPTIST CHIURCH","2261 BALIS DR","BATON ROUGE","LOUISIANA","70808",,
"POINT (-91.122359487308 30.520433895386)","454","FULL GOSPEL UNITED PENTECOSTAL CHURCH","6729 MICKENS RD","BATON ROUGE","LOUISIANA","70811",,
"POINT (-91.151420296373 30.483690552929)","679","BETHEL AMB CHURCH-ISTROUMA","3809 WINNEBAGO ST","BATON ROUGE","LOUISIANA","70805",,
"POINT (-91.165010461073 30.595212785676)","717","MIRACLE PLACE CHURCH/ATWH","2034 MAIN ST","BAKER","LOUISIANA","70714",,
"POINT (-91.156495975291 30.463879367443)","132","NEW REVELATION PRAYER MINISTRY","1737 N ACADIAN THWY W","BATON ROUGE","LOUISIANA","70802",,
"POINT (-91.134859004569 30.518611297299)","617","LITTLE ZION BAPTIST CHURCH","5607 STEARNS ST","BAKER","LOUISIANA","70714",,
"POINT (-91.170903636398 30.448908116047)","85","MOUNT PLEASANT BAPTIST CHURCH","1743 CONVENTION ST","BATON ROUGE","LOUISIANA","70802",,
"POINT (-91.164425882152 30.603994114826)","714","THE GREATER UNITED BAPTIST CHURCH","2602 MAIN ST","BAKER","LOUISIANA","70714",,
"POINT (-91.155655992576 30.545604525513)","209","MT. PELIOUR CHURCH OF GOD IN CHRIST CHRISTIAN CENTER","11022 GIBBENS RD","BATON ROUGE","LOUISIANA","70807",,
"POINT (-91.172060929102 30.430172052068)","416","EBENEZER BAPTIST CHURCH","1901 MISSOURI ST","BATON ROUGE","LOUISIANA","70802",,
"POINT (-91.156191962851 30.593479099439)","176","FIRST PENTECOSTAL CHURCH OF BAKER","4110 BAKER BLVD","BAKER","LOUISIANA","70714",,
"POINT (-91.122256225148 30.449583105143)","188","SEWING ROOM","180 BELLEWOOD DR","BATON ROUGE","LOUISIANA","70806",,
"POINT (-91.126068351766 30.577274062291)","505","REDEMPTION LIFE FELLOWSHIP","14504 PLANK RD","BAKER","LOUISIANA","70714",,
"POINT (-91.166403687641 30.588362743544)","265","BAKER BAPTIST CHURCH","3241 GROOM RD","BAKER","LOUISIANA","70714",,
"POINT (-91.139483844305 30.500050485804)","279","HOLLYWOOD ST CHURCH OF CHRIST","5111 HOLLYWOOD ST","BATON ROUGE","LOUISIANA","70805",,
"POINT (-91.147034145869 30.515817668766)","504","PROMISED LAND BAPTIST CHURCH","7234 PLANK RD","BATON ROUGE","LOUISIANA","70811",,
"POINT (-91.142000758759 30.52849095429)","502","CHURCH OF GOD IN CHRIST","8930 PLANK RD","BATON ROUGE","LOUISIANA","70811",,
"POINT (-91.136326697119 30.54747574641)","479","NEW HAVEN CHAPEL","11120 PLANK RD","BATON ROUGE","LOUISIANA","70811",,
"POINT (-91.181652350082 30.588813001415)","264","ST PAUL'S FREE BAPTIST CHURCH","2064 GROOM RD","BAKER","LOUISIANA","70714",,
"POINT (-91.145195660488 30.519816217934)","500","RHEMA CHRISTIAN CENTER","7850 PLANK RD","BATON ROUGE","LOUISIANA","70811",,
"POINT (-91.159113051395 30.481992196488)","485","FAITH CITY INTERNATIONAL MINISTRIES","3680 PLANK RD","BATON ROUGE","LOUISIANA","70805",,
"POINT (-91.159855590887 30.481157199292)","487","JOURNEY OUTREACH MINISTRY","3601 PLANK RD","BATON ROUGE","LOUISIANA","70805",,
"POINT (-91.131834166151 30.57365511156)","499","BETHANY CHURCH BAKER CAMPUS","13855 PLANK RD","BAKER","LOUISIANA","70714",,
"POINT (-91.139969924946 30.585479936961)","261","FLAMING FIRE OUTREACH MINISTRY","5512 GROOM RD","BAKER","LOUISIANA","70714",,
"POINT (-91.135633086422 30.552925154304)","483","HEAVENLY HOPE","11741 PLANK RD","BATON ROUGE","LOUISIANA","70811",,
"POINT (-91.087451014859 30.696928739411)","481","GREATER OAK GROVE BAPTIST CHURCH","23595 PLANK RD","ZACHARY","LOUISIANA","70791",,
"POINT (-91.142055979981 30.499237499487)","280","KINGDOM HALL OF JEHOVAH'S WITNESSES","4848 HOLLYWOOD ST","BATON ROUGE","LOUISIANA","70805",,
"POINT (-91.122589915465 30.591486941316)","493","FAITH BAPTIST CHURCH","15880 PLANK RD","BAKER","LOUISIANA","70714",,
"POINT (-91.121980347124 30.597384473145)","492","SHADY GROVE FIRST MISSIONARY BAPTIST CHURCH","16443 PLANK RD","BAKER","LOUISIANA","70714",,
"POINT (-91.146799794872 30.516751964902)","498","OMNI HOUSE","7340 PLANK RD","BATON ROUGE","LOUISIANA","70811",,
"POINT (-91.145974229074 30.518808912992)","501","BURNING SANDS INTERNATIONAL","7724 PLANK RD","BATON ROUGE","LOUISIANA","70811",,
"POINT (-91.16008897856 30.478729588013)","490","FRUIT OF THE SPIRIT MINISTRIES","3338 PLANK RD","BATON ROUGE","LOUISIANA","70805",,
"POINT (-91.126731868601 30.577340287949)","489","CHURCH OF JESUS CHRIST OF LATTER DAY SAINTS, THE","14412 PLANK RD","BAKER","LOUISIANA","70714",,
"POINT (-91.169118008501 30.58865459364)","260","BAKER PRESBYTERIAN CHURCH","3015 GROOM RD","BAKER","LOUISIANA","70714",,
"POINT (-91.157433254796 30.488105643498)","495","RESURRECTION LIFE CENTER","4261 PLANK RD","BATON ROUGE","LOUISIANA","70805",,
"POINT (-91.143552291902 30.374251187535)","478","HINDU VEDIC CENTER","710 S KENILWORTH PKWY","BATON ROUGE","LOUISIANA","70820",,
"POINT (-91.160955617178 30.476594431057)","497","ST. ROCK MISSIONARY BAPTIST CHURCH","3138 PLANK RD","BATON ROUGE","LOUISIANA","70805",,
"POINT (-91.151057006754 30.506854307151)","494","PRAISE TEMPLE RESURRECTION RESTORATION MINISTRIES","6263 PLANK RD","BATON ROUGE","LOUISIANA","70805",,
"POINT (-91.105402421939 30.644542186444)","488","EASTSIDE BAPTIST CHURCH","19820 PLANK RD","ZACHARY","LOUISIANA","70791",,
"POINT (-91.159468583504 30.480960675872)","484","UNITED BIBLE SCHOLARS CHURCH OF GOD","3568 PLANK RD","BATON ROUGE","LOUISIANA","70805",,
"POINT (-91.153316083585 30.497662815945)","506","ST. GERARD MAJELLA CATHOLIC CHURCH","5354 PLANK RD","BATON ROUGE","LOUISIANA","70805",,
"POINT (-91.155473668553 30.493825517409)","486","HARVEST TIME FELLOWSHIP","4817 PLANK RD","BATON ROUGE","LOUISIANA","70805",,
"POINT (-91.135676703202 30.552173830104)","482","PRAYER TIME MINISTRY","11659 PLANK RD","BATON ROUGE","LOUISIANA","70811",,
"POINT (-91.153614027254 30.587921840566)","263","BLACKWATER CONGREGATION, KINGDOM HALL","4353 GROOM RD","BAKER","LOUISIANA","70714",,
"POINT (-91.143552291902 30.374251187535)","477","BALAVIHAR AND HVS COMMUNITY CENTER","710 S KENILWORTH PKWY","BATON ROUGE","LOUISIANA","70820",,
"POINT (-91.160785434519 30.478700653167)","480","MIRACLE TEMPLE CHURCH OF GOD IN CHRIST","3345 PLANK RD","BATON ROUGE","LOUISIANA","70805",,
"POINT (-91.15350039703 30.586938413777)","262","CHURCH OF NAZARENE","4366 GROOM RD","BAKER","LOUISIANA","70714",,
"POINT (-91.134246181729 30.553462888433)","491","ST. PAULS UNITED METHODIST CHURCH","11828 PLANK RD","BATON ROUGE","LOUISIANA","70811",,
"POINT (-91.162873617087 30.471502453037)","496","MUHAMMED MOSQUE","2600 PLANK RD","BATON ROUGE","LOUISIANA","70805",,
"POINT (-91.157433254796 30.488105643498)","503","MARIAS NAILS","4261 PLANK RD","BATON ROUGE","LOUISIANA","70805",,
"POINT (-91.15251873063 30.490780695299)","79","HARVEST LIFE CENTER CHURCH","3688 CLAYTON ST","BATON ROUGE","LOUISIANA","70805",,
