"the_geom","business_name","full_address","city","state","country","zip","address_authority","abc","business_naics_code","phone_number","website","latitude","longitude","business_id","address_id","jurisdiction"
"POINT (-91.054338825939 30.409747321728)","WALMART NEIGHBORHOOD MARKET","11550 COURSEY BLVD","BATON ROUGE","LOUISIANA","UNITED STATES","70816","PARISH","YES","445110",,,"30","-91","45899","12025","EBRP"
"POINT (-91.179700690005 30.531715151417)","SCOTLANDVILLE CONVENIENCE STORE","1375 ROSENWALD RD","BATON ROUGE","LOUISIANA","UNITED STATES","70807","BATON ROUGE","YES","445000","225-774-1062",,"31","-91","6737","25012","EBRP"
"POINT (-91.103441851432 30.451451429127)","MURPHY EXPRESS #8857","8144 FLORIDA BLVD","BATON ROUGE","LOUISIANA","UNITED STATES","70806","BATON ROUGE","YES","447000",,,"30","-91","64467","136951","EBRP"
"POINT (-91.139417711079 30.448312128343)","CIRCLE K STORES #2706823","110 S FOSTER DR","BATON ROUGE","LOUISIANA","UNITED STATES","70806","BATON ROUGE","YES","447000",,,"30","-91","59774","8216","EBRP"
"POINT (-91.168821196183 30.582291399389)","BAKER TEXACO","790 MAIN ST","BAKER","LOUISIANA","UNITED STATES","70714","BAKER","YES","447000",,,"31","-91","40429","187595","EBRP"
"POINT (-91.053248060623 30.458476686624)","XBIO BAR","11690 STE D FLORIDA BLVD","BATON ROUGE","LOUISIANA","UNITED STATES","70815","BATON ROUGE","YES","722000",,,"30","-91","63296","232296","EBRP"
"POINT (-91.145467661993 30.418405806561)","PHILS OYSTER BAR & SEAFOOD RESTAURANT","4335 PERKINS RD","BATON ROUGE","LOUISIANA","UNITED STATES","70808","BATON ROUGE","YES","722000",,,"30","-91","49044","227727","EBRP"
"POINT (-91.035347479121 30.410380053615)","SAVE MORE MARKET #7","12929 STE B COURSEY BLVD","BATON ROUGE","LOUISIANA","UNITED STATES","70817","PARISH","YES","445000",,,"30","-91","66601","244051","EBRP"
"POINT (-91.006779386586 30.439282280509)","WALGREENS #07440","2001 O'NEAL LN","BATON ROUGE","LOUISIANA","UNITED STATES","70816","PARISH","YES","446110","225-756-8536","http://walgreens.com/","30","-91","38066","51076","EBRP"
"POINT (-91.140066989456 30.469221650225)","CAPITOL CITY WHOLESALERS","2255 N FOSTER DR","BATON ROUGE","LOUISIANA","UNITED STATES","70802","BATON ROUGE","YES","423000",,,"30","-91","26056","56715","EBRP"
"POINT (-91.113925222282 30.430218933877)","SEROPS CAFE","7474 STE 307 CORPORATE BLVD","BATON ROUGE","LOUISIANA","UNITED STATES","70809","BATON ROUGE","YES","722000",,,"30","-91","35613","135058","EBRP"
"POINT (-91.057625116136 30.4721752017)","SHERWOOD DISCOUNT MART","2564 N SHERWOOD FOREST DR","BATON ROUGE","LOUISIANA","UNITED STATES","70815","BATON ROUGE","YES","445000",,,"30","-91","35719","61570","EBRP"
"POINT (-91.026592720776 30.348064994541)","CIRCLE K STORE #2707660","18051 PERKINS RD E","BATON ROUGE","LOUISIANA","UNITED STATES","70810","PARISH","YES","447000",,"http://circlek.com/","30","-91","26597","45039","EBRP"
"POINT (-91.027283981122 30.543657333512)","CALIENTE MEXICAN CRAVINGS","14455 STE F WAX RD","CENTRAL","LOUISIANA","UNITED STATES","70818","CENTRAL","YES","722000",,,"31","-91","50459","230676","EBRP"
"POINT (-91.025571157262 30.347741570078)","CITY PORK OF PERKINS","18143 STE E PERKINS RD E","BATON ROUGE","LOUISIANA","UNITED STATES","70810","PARISH","YES","722000",,,"30","-91","67344","247682","EBRP"
"POINT (-91.069377392109 30.413021566164)","ICEHOUSE TAP ROOM","10466 STE F AIRLINE HWY","BATON ROUGE","LOUISIANA","UNITED STATES","70809","PARISH","YES","722000",,,"30","-91","65080","237867","EBRP"
"POINT (-91.092275838267 30.419026019715)","JEFFS FOOD MART","8731 JEFFERSON HWY","BATON ROUGE","LOUISIANA","UNITED STATES","70809","BATON ROUGE","YES","445110",,,"30","-91","10914","119806","EBRP"
"POINT (-91.139919195457 30.444406982981)","PHIL BRADYS BAR & GRILL INC","4848 GOVERNMENT ST","BATON ROUGE","LOUISIANA","UNITED STATES","70806","BATON ROUGE","YES","722000",,,"30","-91","33930","133958","EBRP"
"POINT (-91.156788152099 30.479765566624)","CITY TOWN MEAT MARKET #4","3475 N ACADIAN THWY","BATON ROUGE","LOUISIANA","UNITED STATES","70805","BATON ROUGE","YES","445000",,,"30","-91","48177","136534","EBRP"
"POINT (-91.156192489163 30.469632046836)","LA PAMELA SALON","2414 N ACADIAN THWY W","BATON ROUGE","LOUISIANA","UNITED STATES","70802","BATON ROUGE","YES","812112",,,"30","-91","23029","143436","EBRP"
"POINT (-91.039470153235 30.520730313475)","STABS STEAK & SEAFOOD","13300-13400 MAGNOLIA SQUARE DR","CENTRAL","LOUISIANA","UNITED STATES","70818","CENTRAL","YES",,,,"31","-91","62986","208615","EBRP"
"POINT (-91.026098244106 30.350939316819)","RACETRAC #2526","18313 HIGHLAND RD","BATON ROUGE","LOUISIANA","UNITED STATES","70810","PARISH","YES","447000",,,"30","-91","65438","171829","EBRP"
"POINT (-91.152774503666 30.472180348091)","NORTH 38TH FOOD MART","2645 N 38TH ST","BATON ROUGE","LOUISIANA","UNITED STATES","70805","BATON ROUGE","YES","445000",,,"30","-91","41557","62555","EBRP"
"POINT (-91.179925992559 30.396356144235)","JD'S GENERATOR POWER SYSTEMS LLC","1176 BOB PETTIT BLVD","BATON ROUGE","LOUISIANA","UNITED STATES","70820","BATON ROUGE","YES","454000",,,"30","-91","38997","13091","EBRP"
"POINT (-91.110507071119 30.468114077941)","NAT. ASSOC OF LETTER CARRIERS","1953 BEAUMONT DR","BATON ROUGE","LOUISIANA","UNITED STATES","70806","BATON ROUGE","YES","815000",,,"30","-91","33160","50151","EBRP"
"POINT (-91.159122531727 30.392362216182)","LISA ANNE LLC","145 BEN HUR RD","BATON ROUGE","LOUISIANA","UNITED STATES","70808","BATON ROUGE","YES","445000",,,"30","-91","38804","28466","EBRP"
"POINT (-91.110855554816 30.467338997524)","DUGEES LOUNGE LLC","1916 DALLAS DR","BATON ROUGE","LOUISIANA","UNITED STATES","70806","BATON ROUGE","YES","722000",,,"30","-91","28036","48814","EBRP"
"POINT (-91.156632110656 30.468159594363)","ACADIAN FOOD MART","2223 N ACADIAN THWY W","BATON ROUGE","LOUISIANA","UNITED STATES","70802","BATON ROUGE","YES","445000",,,"30","-91","23765","55841","EBRP"
"POINT (-91.141022297549 30.509149329572)","CVS PHARMACY #5319","4919 AIRLINE HWY","BATON ROUGE","LOUISIANA","UNITED STATES","70811","BATON ROUGE","YES",,,,"31","-91","41952","87804","EBRP"
"POINT (-91.066094248328 30.364948169488)","CIRCLE K STORE 2704901","13796 PERKINS RD","BATON ROUGE","LOUISIANA","UNITED STATES","70810","PARISH","YES","447000","225-752-4885","http://circlek.com/","30","-91","26568","140097","EBRP"
"POINT (-91.071613296614 30.490592706263)","VINA CLEANERS","10148 GREENWELL SPRINGS RD","BATON ROUGE","LOUISIANA","UNITED STATES","70814","BATON ROUGE","YES","812000",,,"30","-91","46000","142995","EBRP"
"POINT (-91.171968582879 30.440846992165)","TONY'S GROCERY","739 S 16TH ST","BATON ROUGE","LOUISIANA","UNITED STATES","70802","BATON ROUGE","YES","445110","225-383-9032",,"30","-91","8303","110764","EBRP"
"POINT (-91.124061286971 30.360935614819)","S & P FOOD STORE","9385 BURBANK DR","BATON ROUGE","LOUISIANA","UNITED STATES","70820","PARISH","YES","445110","225-767-2662",,"30","-91","35295","139180","EBRP"
"POINT (-91.151082860889 30.450843832538)","JAMAICAN ME CRAZY","3829 FLORIDA BLVD","BATON ROUGE","LOUISIANA","UNITED STATES","70806","BATON ROUGE","YES","722000",,,"30","-91","65517","238855","EBRP"
"POINT (-91.134516338357 30.421799549243)","RUTH CHRIS STEAK HOUSE","4836 CONSTITUTION AVE","BATON ROUGE","LOUISIANA","UNITED STATES","70808","BATON ROUGE","YES","722000",,,"30","-91","35278","87200","EBRP"
"POINT (-91.109533166309 30.354575928519)","WALGREENS #07083","9983 BLUEBONNET BLVD","BATON ROUGE","LOUISIANA","UNITED STATES","70810","PARISH","YES","446110","225-769-4208","http://walgreens.com/","30","-91","38065","129761","EBRP"
"POINT (-91.160688553105 30.449810749122)","EASY STOP FOOD MART INC","2712 FLORIDA ST","BATON ROUGE","LOUISIANA","UNITED STATES","70806","BATON ROUGE","YES","445000",,,"30","-91","28171","55530","EBRP"
"POINT (-91.091176979093 30.474654215715)","HARLEY VEY SPORTS PARK","2615 OAK VILLA BLVD","BATON ROUGE","LOUISIANA","UNITED STATES","70814","BATON ROUGE","YES",,,,"30","-91","60408","137992","EBRP"
"POINT (-91.093833233811 30.37927762905)","TEXAS DE BRAZIL","10155 STE 100 PERKINS ROWE","BATON ROUGE","LOUISIANA","UNITED STATES","70810","PARISH","YES","722000",,,"30","-91","36853","220003","EBRP"
"POINT (-91.108290116618 30.477702060961)","VN FOOD MART LLC","7808 GREENWELL SPRINGS RD","BATON ROUGE","LOUISIANA","UNITED STATES","70814","BATON ROUGE","YES","445000",,,"30","-91","37998","113645","EBRP"
"POINT (-91.126646148537 30.422481262721)","MOVIE TAVERN AT CITIPLACE","2610 CITIPLACE CT","BATON ROUGE","LOUISIANA","UNITED STATES","70808","BATON ROUGE","YES","512000",,,"30","-91","64916","155875","EBRP"
"POINT (-91.044767747766 30.461931468117)","VINH PHAT ORIENTAL MARKET","12351 FLORIDA BLVD","BATON ROUGE","LOUISIANA","UNITED STATES","70815","BATON ROUGE","YES","445110","225-273-1175",,"30","-91","37959","136893","EBRP"
"POINT (-91.157779962886 30.424014488324)","PINETTA'S EUROPEAN RESTAURANT","3056 PERKINS RD","BATON ROUGE","LOUISIANA","UNITED STATES","70808","BATON ROUGE","YES","722110",,,"30","-91","6568","68015","EBRP"
"POINT (-91.112532630107 30.431093062071)","DISTRICT DONUTS SLIDERS BREW","7415 STE 900 CORPORATE BLVD","BATON ROUGE","LOUISIANA","UNITED STATES","70806","PARISH","YES","445000",,,"30","-91","50206","186941","EBRP"
"POINT (-91.104538927415 30.649366997433)","SIDELINES","20116 PLANK RD","ZACHARY","LOUISIANA","UNITED STATES","70791","ZACHARY","YES","722000",,,"31","-91","47020","198914","EBRP"
"POINT (-91.135629006538 30.493568442416)","ONE STOP MARKET & DELI","5433 EVANGELINE ST","BATON ROUGE","LOUISIANA","UNITED STATES","70805","BATON ROUGE","YES","445000",,,"30","-91","33502","93702","EBRP"
"POINT (-91.129174044094 30.422840473162)","THE PELICAN HOUSE","2572 CITIPLACE CT","BATON ROUGE","LOUISIANA","UNITED STATES","70808","BATON ROUGE","YES","722000",,,"30","-91","37102","61645","EBRP"
"POINT (-91.125649901234 30.582168307341)","ALDENS SCHOOL OF COSMETOLOGY","14860 PLANK RD","BAKER","LOUISIANA","UNITED STATES","70714","BAKER","YES","611511",,,"31","-91","13748","191566","EBRP"
"POINT (-91.150134633199 30.425609368361)","MESTIZO INC","2323 S ACADIAN THWY","BATON ROUGE","LOUISIANA","UNITED STATES","70808","BATON ROUGE","YES","722000",,,"30","-91","32720","57885","EBRP"
"POINT (-91.062626487286 30.389227318575)","CIRCLE K  STORE 2709716","6678 SIEGEN LN","BATON ROUGE","LOUISIANA","UNITED STATES","70809","PARISH","YES","447000",,"http://circlek.com/","30","-91","26577","105667","EBRP"
"POINT (-91.139166426775 30.422162751284)","CHILIS HAMBURGER GRILL & BAR","4550 CONSTITUTION AVE","BATON ROUGE","LOUISIANA","UNITED STATES","70808","BATON ROUGE","YES","722000",,,"30","-91","26463","84675","EBRP"
"POINT (-91.071707633489 30.418480021268)","AIRLINE SUPER EXPRESS","10174 AIRLINE HWY","BATON ROUGE","LOUISIANA","UNITED STATES","70809","BATON ROUGE","YES","453000",,,"30","-91","24036","1576","EBRP"
"POINT (-91.008791299432 30.456566496063)","TIGER SPORTS BAR","824 O'NEAL LN","BATON ROUGE","LOUISIANA","UNITED STATES","70816","PARISH","YES","722000",,,"30","-91","37309","136403","EBRP"
"POINT (-91.078813302991 30.453824544833)","HI NABOR SUPERMARKET","9620 STE 100 FLORIDA BLVD","BATON ROUGE","LOUISIANA","UNITED STATES","70815","BATON ROUGE","YES","445110",,"http://hinabor.com/","30","-91","29990","137187","EBRP"
"POINT (-91.162277559143 30.393275075691)","WINN DIXIE #1454","5555 BURBANK DR","BATON ROUGE","LOUISIANA","UNITED STATES","70808","BATON ROUGE","YES","445000","225-757-0501","https://winndixie.com","30","-91","38361","95061","EBRP"
"POINT (-91.156518745557 30.532729121221)","SSP AMERICA INC","9430 JACKIE COCHRAN DR","BATON ROUGE","LOUISIANA","UNITED STATES","70807","BATON ROUGE","YES","815000",,,"31","-91","36216","138274","EBRP"
"POINT (-91.016605576198 30.408247213088)","WALGREENS #3085","14444 COURSEY BLVD","BATON ROUGE","LOUISIANA","UNITED STATES","70817","PARISH","YES","446110","225-753-1499","http://walgreens.com/","30","-91","38073","28271","EBRP"
"POINT (-91.176153120456 30.418582859353)","CIRCLE K #1818","3289 HIGHLAND RD","BATON ROUGE","LOUISIANA","UNITED STATES","70802","BATON ROUGE","YES","447000","225-383-1325","http://circlek.com/","30","-91","26559","71110","EBRP"
"POINT (-91.048106952831 30.576579045763)","THE HAIR ZONE","13921 JOOR RD","ZACHARY","LOUISIANA","UNITED STATES","70791","CENTRAL","YES","812000",,,"31","-91","46198","201953","EBRP"
"POINT (-91.111029251525 30.445849253806)","INDEPENDENCE TENNIS CENTER","7505 INDEPENDENCE BLVD","BATON ROUGE","LOUISIANA","UNITED STATES","70806","BATON ROUGE","YES",,,,"30","-91","62309","111587","EBRP"
"POINT (-91.145004615271 30.417482335227)","RED ZEPPELIN PIZZA","4395 PERKINS RD","BATON ROUGE","LOUISIANA","UNITED STATES","70808","BATON ROUGE","YES","722110",,,"30","-91","20147","83153","EBRP"
"POINT (-91.093435848204 30.378974370989)","TEXAS DE BRAZIL","10155 PERKINS ROWE","BATON ROUGE","LOUISIANA","UNITED STATES","70810","PARISH","YES","722000",,,"30","-91","36853","143280","EBRP"
"POINT (-91.056206893405 30.436470636095)","IDEAL MARKET #8","1807 S SHERWOOD FOREST BLVD","BATON ROUGE","LOUISIANA","UNITED STATES","70816","BATON ROUGE","YES","445000",,,"30","-91","41546","136258","EBRP"
"POINT (-91.159262326495 30.42618073893)","KALURAH STREET GRILL","2857 PERKINS RD","BATON ROUGE","LOUISIANA","UNITED STATES","70808","BATON ROUGE","YES","722000",,,"30","-91","47591","65304","EBRP"
"POINT (-91.1245159651 30.505408117074)","THE VINEYARD ASSOCIATION","6644 VINEYARD DR","BATON ROUGE","LOUISIANA","UNITED STATES","70812","PARISH","YES","453000",,,"31","-91","39050","105398","EBRP"
"POINT (-91.157930047528 30.487140467998)","ROMEO'S OLD SCHOOL BAR & LOUNGE","4115 PLANK RD","BATON ROUGE","LOUISIANA","UNITED STATES","70805","BATON ROUGE","YES","722140",,,"30","-91","21208","80244","EBRP"
"POINT (-91.147884446891 30.512727144675)","CLUB INFINITI","6894 PLANK RD","BATON ROUGE","LOUISIANA","UNITED STATES","70811","BATON ROUGE","YES","722410",,,"31","-91","18133","142858","EBRP"
"POINT (-91.172474665488 30.458768838995)","MEMORIAL FOOTBALL STADIUM","1702 FOSS ST","BATON ROUGE","LOUISIANA","UNITED STATES","70802","BATON ROUGE","YES",,,,"30","-91","60492","40007","EBRP"
"POINT (-91.156441446802 30.463717408136)","ACADIAN HARDWARE & GROCERY","1733 N ACADIAN THWY W","BATON ROUGE","LOUISIANA","UNITED STATES","70802","BATON ROUGE","YES","444000",,,"30","-91","23767","41392","EBRP"
"POINT (-91.054201506102 30.410922813915)","WAL MART #7262 - GAS STATION","11510 COURSEY BLVD","BATON ROUGE","LOUISIANA","UNITED STATES","70816","PARISH","YES","447000",,,"30","-91","49549","217239","EBRP"
"POINT (-91.151395540115 30.460689763726)","NEW LOOK NEIGHBORHOOD GROCERY","1376 N 39TH ST","BATON ROUGE","LOUISIANA","UNITED STATES","70802","BATON ROUGE","YES","445120",,,"30","-91","13544","25053","EBRP"
"POINT (-91.090708834838 30.41911060094)","DIRTY DOG LOUNGE","3488 DRUSILLA LN","BATON ROUGE","LOUISIANA","UNITED STATES","70809","BATON ROUGE","YES","722410",,,"30","-91","21785","165678","EBRP"
"POINT (-91.147684042316 30.419181387927)","B-QUIK","4105 PERKINS RD","BATON ROUGE","LOUISIANA","UNITED STATES","70808","BATON ROUGE","YES","447000",,,"30","-91","25577","80117","EBRP"
"POINT (-91.051794842236 30.409997892309)","DUANG TAWAN THAI SUSHI BAR","4850 S SHERWOOD FOREST BLVD","BATON ROUGE","LOUISIANA","UNITED STATES","70816","PARISH","YES","722000",,,"30","-91","28026","87373","EBRP"
"POINT (-91.144926335596 30.417853921514)","THE BULLDOG","4385 PERKINS RD","BATON ROUGE","LOUISIANA","UNITED STATES","70808","BATON ROUGE","YES","722000",,,"30","-91","36904","135879","EBRP"
"POINT (-91.152575344974 30.498954001932)","WALGREENS #2982","5450 PLANK RD","BATON ROUGE","LOUISIANA","UNITED STATES","70805","BATON ROUGE","YES","446110","225-355-9782","http://walgreens.com/","30","-91","38069","93966","EBRP"
"POINT (-91.144027925972 30.508778434654)","IN A FLASH","4650 AIRLINE HWY","BATON ROUGE","LOUISIANA","UNITED STATES","70805","BATON ROUGE","YES","447000",,,"31","-91","30330","181513","EBRP"
"POINT (-91.162945530054 30.470406899389)","CVS PHARMACY #5615","2520 PLANK RD","BATON ROUGE","LOUISIANA","UNITED STATES","70805","BATON ROUGE","YES","446110","225-357-1484","http://cvs.com/","30","-91","27279","60659","EBRP"
"POINT (-91.099329960513 30.526126927714)","LAVISH BOUTIQUE LLC","8639 CODY DR","BATON ROUGE","LOUISIANA","UNITED STATES","70811","PARISH","YES","454100",,,"31","-91","65620","119277","EBRP"
"POINT (-91.154691550779 30.494305175286)","DELMONT LOUNGE","4888 PLANK RD","BATON ROUGE","LOUISIANA","UNITED STATES","70805","BATON ROUGE","YES","722410",,,"30","-91","2710","87629","EBRP"
"POINT (-91.127290761041 30.580956226056)","WALGREENS #13875","6485 GROOM RD","BATON ROUGE","LOUISIANA","UNITED STATES","70814","BAKER","YES","446110",,"http://walgreens.com/","31","-91","41483","216965","EBRP"
"POINT (-91.059675588135 30.45738872597)","LA PATRONA LLC","11250 FLORIDA BLVD","BATON ROUGE","LOUISIANA","UNITED STATES","70815","BATON ROUGE","YES","424410",,,"30","-91","19937","137240","EBRP"
"POINT (-91.160167859512 30.425854929375)","BET-R-STORE 0","2812 KALURAH ST","BATON ROUGE","LOUISIANA","UNITED STATES","70808","BATON ROUGE","YES","445110","225-343-2361",,"30","-91","1069","64528","EBRP"
"POINT (-91.127173218328 30.354244412044)","MAJOR DISCOUNT","1707 STE D GARDERE LN","BATON ROUGE","LOUISIANA","UNITED STATES","70810","PARISH","YES","445000",,,"30","-91","47686","229349","EBRP"
"POINT (-91.133992648606 30.349544436468)","GARDERE MEAT MARKET","2509 GARDERE LN","BATON ROUGE","LOUISIANA","UNITED STATES","70810","PARISH","YES","445210",,,"30","-91","16098","60617","EBRP"
"POINT (-91.13492879021 30.497698338884)","FRIEND S FOOD MART","5522 SAINT GERARD AVE","BATON ROUGE","LOUISIANA","UNITED STATES","70805","BATON ROUGE","YES","445000",,,"30","-91","64041","94537","EBRP"
"POINT (-91.189001813071 30.439404679033)","BRICKYARD SOUTH","174 SOUTH BLVD","BATON ROUGE","LOUISIANA","UNITED STATES","70802","BATON ROUGE","YES","722000",,,"30","-91","41277","138878","EBRP"
"POINT (-91.062915142179 30.53905729266)","CENTRAL SPORTS PARK","10501 LOVETT RD","CENTRAL","LOUISIANA","UNITED STATES","70818","CENTRAL","YES","713000",,,"31","-91","59911","9851","EBRP"
"POINT (-91.106015841311 30.453051552756)","LA MORENITA MEAT MARKET","7981 FLORIDA BLVD","BATON ROUGE","LOUISIANA","UNITED STATES","70806","BATON ROUGE","YES","445110","225-231-3234",,"30","-91","31505","162750","EBRP"
"POINT (-91.180883974017 30.426978206953)","HIGHLAND ROAD MEAT MARKET","2226 HIGHLAND RD","BATON ROUGE","LOUISIANA","UNITED STATES","70802","BATON ROUGE","YES","445110",,,"30","-91","23046","145085","EBRP"
"POINT (-91.179807994232 30.424702729797)","AM MART 2018","2400 HIGHLAND RD","BATON ROUGE","LOUISIANA","UNITED STATES","70802","BATON ROUGE","YES","445000",,,"30","-91","24218","59191","EBRP"
"POINT (-91.08016378307 30.453782501844)","HI NABOR SUPERMARKET","9584 FLORIDA BLVD","BATON ROUGE","LOUISIANA","UNITED STATES","70815","BATON ROUGE","YES","445110",,"http://hinabor.com/","30","-91","29990","216925","EBRP"
"POINT (-91.131500957271 30.444828821191)","FLEUR DE LIS COCKTAIL LOUNGE, INC.","5655 GOVERNMENT ST","BATON ROUGE","LOUISIANA","UNITED STATES","70806","BATON ROUGE","YES","722000",,,"30","-91","28871","96097","EBRP"
"POINT (-91.089865109022 30.392226780092)","PLUCKERS WING BAR","6353 BLUEBONNET BLVD","BATON ROUGE","LOUISIANA","UNITED STATES","70836","BATON ROUGE","YES","722000",,,"30","-91","34085","103157","EBRP"
"POINT (-91.189311336515 30.449412159782)","POOR BOY LLOYD'S","201 FLORIDA ST","BATON ROUGE","LOUISIANA","UNITED STATES","70801","BATON ROUGE","YES","722110",,,"30","-91","14733","52415","EBRP"
"POINT (-91.024587451055 30.408562311214)","LOUISIANA CAJUN SEAFOOD LLC","13785 COURSEY BLVD","BATON ROUGE","LOUISIANA","UNITED STATES","70817","PARISH","YES","445000",,,"30","-91","32046","25113","EBRP"
"POINT (-91.139944766552 30.467216520709)","BIG BROTHERS MEAT MARKET #2","2023 N FOSTER DR","BATON ROUGE","LOUISIANA","UNITED STATES","70802","BATON ROUGE","YES","445000",,,"30","-91","41275","139028","EBRP"
"POINT (-91.013442802963 30.44373752608)","ONE STOP DELI AND GROCERIES LLC","15518 RHONDA AVE","BATON ROUGE","LOUISIANA","UNITED STATES","70816","PARISH","YES","445000",,,"30","-91","63183","33260","EBRP"
"POINT (-91.122304557472 30.471485425529)","SUPER LINE URBAN WEAR INC","2382 LOBDELL BLVD","BATON ROUGE","LOUISIANA","UNITED STATES","70805","BATON ROUGE","YES","453000",,,"30","-91","36537","59050","EBRP"
"POINT (-91.04805861126 30.576420610161)","SHELL","13925 JOOR RD","ZACHARY","LOUISIANA","UNITED STATES","70791","CENTRAL","YES","447000",,,"31","-91","41432","201950","EBRP"
"POINT (-91.122287786667 30.488805490315)","BENS FOOD MARKET","6894 AIRLINE HWY","BATON ROUGE","LOUISIANA","UNITED STATES","70805","BATON ROUGE","YES","445000",,,"30","-91","23381","107119","EBRP"
"POINT (-91.169841836419 30.430129709282)","KNOCK KNOCK CHILDRENS MUSEUM","1900 DALRYMPLE DR","BATON ROUGE","LOUISIANA","UNITED STATES","70802","BATON ROUGE","YES",,,,"30","-91","63023","219243","EBRP"
"POINT (-91.177062882151 30.418950493411)","CVS PHARMACY # 4761","3200 HIGHLAND RD","BATON ROUGE","LOUISIANA","UNITED STATES","70802","BATON ROUGE","YES","446110","225-388-9939","http://cvs.com/","30","-91","27272","180914","EBRP"
"POINT (-91.077997489001 30.384322260544)","THE BLAKE AT THE GROVE","9511 CREEKVIEW DR","BATON ROUGE","LOUISIANA","UNITED STATES","70836","PARISH","YES",,,,"30","-91","63102","228782","EBRP"
"POINT (-91.179199914698 30.418053928354)","LOUIE'S CAFÃ‰","3322 LAKE ST","BATON ROUGE","LOUISIANA","UNITED STATES","70802","BATON ROUGE","YES","722110",,,"30","-91","5217","71433","EBRP"
"POINT (-91.027989535967 30.538537960691)","LIT PIZZA- CENTRAL","9850 STE A SULLIVAN RD","CENTRAL","LOUISIANA","UNITED STATES","70818","CENTRAL","YES","445000",,,"31","-91","67271","210937","EBRP"
"POINT (-91.007040020029 30.437024099981)","MURPHY USA #7535","2211 O'NEAL LN","BATON ROUGE","LOUISIANA","UNITED STATES","70816","PARISH","YES","447000",,,"30","-91","46019","220283","EBRP"
"POINT (-91.15906917305 30.425409126093)","ZEE ZEE GARDENS","2904 PERKINS RD","BATON ROUGE","LOUISIANA","UNITED STATES","70808","BATON ROUGE","YES","722000",,,"30","-91","38542","65657","EBRP"
"POINT (-91.051016332224 30.412210299267)","SPANKYS DAIQUIRIS & DELITES","4621 S SHERWOOD FOREST BLVD","BATON ROUGE","LOUISIANA","UNITED STATES","70816","BATON ROUGE","YES","722000",,,"30","-91","36134","135599","EBRP"
"POINT (-91.160170089092 30.395442056083)","9 DRAGON NOODLE HOUSE","5271 HIGHLAND RD","BATON ROUGE","LOUISIANA","UNITED STATES","70808","BATON ROUGE","YES","722000",,,"30","-91","26479","136050","EBRP"
"POINT (-91.084243905853 30.475124692216)","VILLA DELMAR RESTAURANT","2885 MONTERREY DR","BATON ROUGE","LOUISIANA","UNITED STATES","70814","BATON ROUGE","YES","722000",,,"30","-91","47609","65579","EBRP"
"POINT (-91.097767031065 30.381276909452)","NINOS ITALIAN RESTAURANT","7512 BLUEBONNET BLVD","BATON ROUGE","LOUISIANA","UNITED STATES","70810","PARISH","YES","722110",,,"30","-91","15778","140364","EBRP"
"POINT (-91.188094872891 30.44907953755)","COURTYARD BY MARRIOTT DOWNTOWN BATON ROUGE","260 3RD ST","BATON ROUGE","LOUISIANA","UNITED STATES","70801","BATON ROUGE","YES","721000",,,"30","-91","64483","159001","EBRP"
"POINT (-91.177342602985 30.421633421358)","HIGHLAND ROAD HOP IN","2915 HIGHLAND RD","BATON ROUGE","LOUISIANA","UNITED STATES","70802","BATON ROUGE","YES","447000",,,"30","-91","30022","65813","EBRP"
"POINT (-91.126043735107 30.356312865856)","RAINBOW EXPRESS FOOD MART","1443 GARDERE LN","BATON ROUGE","LOUISIANA","UNITED STATES","70820","PARISH","YES","445110","225-769-3494",,"30","-91","6908","28156","EBRP"
"POINT (-91.05878154061 30.459245475185)","WALGREENS #2996","11297 FLORIDA BLVD","BATON ROUGE","LOUISIANA","UNITED STATES","70815","BATON ROUGE","YES","446110","225-272-9769","http://walgreens.com/","30","-91","38071","10274","EBRP"
"POINT (-91.133447995762 30.500505042408)","SHOPPERS VALUE FOODS","5908 AIRLINE HWY","BATON ROUGE","LOUISIANA","UNITED STATES","70805","BATON ROUGE","YES","445110","225-355-0025","http://shoppersvaluefoodla.com/","31","-91","14236","142242","EBRP"
"POINT (-91.034338467445 30.389795939002)","MASONS GRILL","13556 JEFFERSON HWY","BATON ROUGE","LOUISIANA","UNITED STATES","70817","PARISH","YES","722110",,,"30","-91","12679","23988","EBRP"
"POINT (-91.092153126153 30.419274116289)","PATIO LOUNGE","8743 JEFFERSON HWY","BATON ROUGE","LOUISIANA","UNITED STATES","70809","BATON ROUGE","YES","722000",,,"30","-91","33728","167133","EBRP"
"POINT (-91.127058037075 30.457100079635)","TIMS FOOD MART","824 N ARDENWOOD DR","BATON ROUGE","LOUISIANA","UNITED STATES","70806","BATON ROUGE","YES","445110","225-356-3445",,"30","-91","37333","116510","EBRP"
"POINT (-91.160703622333 30.479238777927)","ICANDI COUTURE","3401 PLANK RD","BATON ROUGE","LOUISIANA","UNITED STATES","70805","BATON ROUGE","YES","448000",,,"30","-91","30268","72341","EBRP"
"POINT (-91.099729714212 30.482130676419)","BELLA NOCHE","8509 GREENWELL SPRINGS RD","BATON ROUGE","LOUISIANA","UNITED STATES","70814","PARISH","YES","722410",,,"30","-91","17728","141287","EBRP"
"POINT (-91.105168024768 30.369400751585)","BLUEBONNET SWAMP NATURE CENTER","10503 N OAK HILLS PKWY","BATON ROUGE","LOUISIANA","UNITED STATES","70810","PARISH","YES","713000",,,"30","-91","50318","4436","EBRP"
"POINT (-91.087076146047 30.393231737221)","RED LOBSTER #6368","6051 BLUEBONNET BLVD","BATON ROUGE","LOUISIANA","UNITED STATES","70836","BATON ROUGE","YES","722000",,,"30","-91","34747","135996","EBRP"
"POINT (-91.157382194279 30.44788817036)","CULINARY PRODUCTIONS","3004 NORTH BLVD","BATON ROUGE","LOUISIANA","UNITED STATES","70806","BATON ROUGE","YES","722000",,,"30","-91","27198","66893","EBRP"
"POINT (-91.143404416186 30.417215651618)","WALGREENS # 06448","4485 PERKINS RD","BATON ROUGE","LOUISIANA","UNITED STATES","70808","BATON ROUGE","YES","446110","225-926-0734","http://walgreens.com/","30","-91","38064","84062","EBRP"
"POINT (-91.132983604733 30.558427600599)","CIRCLE K # 1813","12392 PLANK RD","BATON ROUGE","LOUISIANA","UNITED STATES","70811","PARISH","YES","447000","225-774-5123","http://circlek.com/","31","-91","26557","17590","EBRP"
"POINT (-91.187495316351 30.43986727237)","GEORGES PLACE","860 SAINT LOUIS ST","BATON ROUGE","LOUISIANA","UNITED STATES","70802","BATON ROUGE","YES","722000",,,"30","-91","29297","118978","EBRP"
"POINT (-91.015701090681 30.408079319748)","SHELL","5055 JONES CREEK RD","BATON ROUGE","LOUISIANA","UNITED STATES","70817","PARISH","YES","447000",,,"30","-91","41432","89068","EBRP"
"POINT (-91.05633962221 30.4949482749)","RAMA","11353 STE B GREENWELL SPRINGS RD","BATON ROUGE","LOUISIANA","UNITED STATES","70814","PARISH","YES","445000",,,"30","-91","66025","10650","EBRP"
"POINT (-91.133721736594 30.444915691892)","SUPERIOR BAR AND GRILL","5435 GOVERNMENT ST","BATON ROUGE","LOUISIANA","UNITED STATES","70806","BATON ROUGE","YES","722000",,,"30","-91","36549","93736","EBRP"
"POINT (-91.101178050941 30.424906545436)","JEFFERSON  HWY RECREATIONAL CENTER","8133 JEFFERSON HWY","BATON ROUGE","LOUISIANA","UNITED STATES","70809","BATON ROUGE","YES",,,,"30","-91","60432","115658","EBRP"
"POINT (-91.135894153776 30.424547143033)","KRAB QUEENZ SEAFOOD & DAIQUIRIS","5260 CORPORATE BLVD","BATON ROUGE","LOUISIANA","UNITED STATES","70808","BATON ROUGE","YES","722000",,,"30","-91","66966","135845","EBRP"
"POINT (-91.016380714945 30.402337430443)","KWIK STOP","5605 JONES CREEK RD","BATON ROUGE","LOUISIANA","UNITED STATES","70817","PARISH","YES","447110",,,"30","-91","2142","95367","EBRP"
"POINT (-91.18817087838 30.450946487555)","MATHERNES MARKET @ 440 ON 3RD","440 STE 100 3RD ST","BATON ROUGE","LOUISIANA","UNITED STATES","70802","BATON ROUGE","YES","445110",,"http://mathernes.com/","30","-91","41551","217381","EBRP"
"POINT (-91.180524106461 30.40234879123)","LIT PIZZA","3930 STE K BURBANK DR","BATON ROUGE","LOUISIANA","UNITED STATES","70808","BATON ROUGE","YES","722000",,,"30","-91","46910","216739","EBRP"
"POINT (-91.108368500549 30.39485221074)","BURGERIM","7673 STE B1 PERKINS RD","BATON ROUGE","LOUISIANA","UNITED STATES","70810","BATON ROUGE","YES","722000",,,"30","-91","64964","236387","EBRP"
"POINT (-91.074310907863 30.419529783722)","COSTCO WHOLESALE","10000 DAWNADELE AVE","BATON ROUGE","LOUISIANA","UNITED STATES","70809","BATON ROUGE","YES","453000",,,"30","-91","38896","27","EBRP"
"POINT (-91.056795993795 30.413376204791)","WILLIE'S RESTAURANT","11260 COURSEY BLVD","BATON ROUGE","LOUISIANA","UNITED STATES","70816","PARISH","YES","722000",,,"30","-91","45898","151577","EBRP"
"POINT (-91.039464124776 30.380934622446)","CVS/PHARMACY #8961","12880 AIRLINE HWY","BATON ROUGE","LOUISIANA","UNITED STATES","70809","PARISH","YES","446110","225-751-3611","http://cvs.com/","30","-91","27282","159328","EBRP"
"POINT (-91.151256909979 30.472489683464)","JOES GRILL LLC","3896 IROQUOIS ST","BATON ROUGE","LOUISIANA","UNITED STATES","70805","BATON ROUGE","YES","722000",,,"30","-91","67466","140051","EBRP"
"POINT (-91.062876904379 30.38636400867)","THE OLIVE GARDEN ITALIAN RESTAURANT","6911 SIEGEN LN","BATON ROUGE","LOUISIANA","UNITED STATES","70809","PARISH","YES","722000",,,"30","-91","37088","107182","EBRP"
"POINT (-91.014716439651 30.397435010085)","SOUTHERN OAKS ATHLETIC CLUB LLC","15253 SHENANDOAH AVE","BATON ROUGE","LOUISIANA","UNITED STATES","70817","PARISH","YES","815000",,,"30","-91","36091","133736","EBRP"
"POINT (-91.053258439614 30.458511196852)","XBIO BAR","11690 STE D FLORIDA BLVD","BATON ROUGE","LOUISIANA","UNITED STATES","70815","BATON ROUGE","YES","722000",,,"30","-91","63296","232294","EBRP"
"POINT (-91.04706820424 30.394699396496)","JAYLA FOOD MART","12256 JEFFERSON HWY","BATON ROUGE","LOUISIANA","UNITED STATES","70816","PARISH","YES","445110",,,"30","-91","20690","16493","EBRP"
"POINT (-91.16288669197 30.391634719492)","MURPHY EXPRESS #8808","510 W LEE DR","BATON ROUGE","LOUISIANA","UNITED STATES","70820","BATON ROUGE","YES","447000",,,"30","-91","50231","158806","EBRP"
"POINT (-91.135978895676 30.551278252918)","TJ'S LOUNGE","11585 PLANK RD","BATON ROUGE","LOUISIANA","UNITED STATES","70811","PARISH","YES","722000",,,"31","-91","37358","12042","EBRP"
"POINT (-91.11311076619 30.462203136829)","DJ'S CLUB ELITE","7380 TOM DR","BATON ROUGE","LOUISIANA","UNITED STATES","70806","BATON ROUGE","YES","722000",,,"30","-91","27803","110746","EBRP"
"POINT (-91.126267429861 30.583370695858)","ALDENS SCHOOL OF COSMETOLOGY","14979 PLANK RD","BAKER","LOUISIANA","UNITED STATES","70714","BAKER","YES","611511",,,"31","-91","13748","191572","EBRP"
"POINT (-91.105607004277 30.388310130413)","ASIAN MARKET","8342 STE E PERKINS RD","BATON ROUGE","LOUISIANA","UNITED STATES","70810","BATON ROUGE","YES","445000",,,"30","-91","50102","230281","EBRP"
"POINT (-91.187252263415 30.418121100738)","VOODOO BBQ","3347 NICHOLSON DR","BATON ROUGE","LOUISIANA","UNITED STATES","70802","BATON ROUGE","YES","722000",,,"30","-91","38012","71836","EBRP"
"POINT (-91.133999336881 30.421389911916)","SPORT ZONE","4848 CONSTITUTION AVE","BATON ROUGE","LOUISIANA","UNITED STATES","70808","BATON ROUGE","YES","722000",,,"30","-91","36188","135832","EBRP"
"POINT (-91.074852133145 30.368712350789)","WALGREENS #3610","12881 PERKINS RD","BATON ROUGE","LOUISIANA","UNITED STATES","70810","PARISH","YES","446110","225-763-6281","http://walgreens.com/","30","-91","38075","20758","EBRP"
"POINT (-91.147309915371 30.444016917201)","CALANDROS SUPERMARKET INC","4142 GOVERNMENT ST","BATON ROUGE","LOUISIANA","UNITED STATES","70806","BATON ROUGE","YES","445110",,"http://calandros.com/","30","-91","25955","80620","EBRP"
"POINT (-91.186711011902 30.443117915031)","CHEVRON FOOD MART #2","510 SAINT FERDINAND ST","BATON ROUGE","LOUISIANA","UNITED STATES","70802","BATON ROUGE","YES","447000",,,"30","-91","26437","89340","EBRP"
"POINT (-91.132903109715 30.444301084177)","BREW BACHERS GRILL #3","5580 GOVERNMENT ST","BATON ROUGE","LOUISIANA","UNITED STATES","70806","BATON ROUGE","YES","722000",,,"30","-91","25631","95272","EBRP"
"POINT (-91.16609341301 30.472860610011)","CHIPPEWA SUPER STORE","2332 CHIPPEWA ST","BATON ROUGE","LOUISIANA","UNITED STATES","70805","BATON ROUGE","YES","445110","225-356-9288",,"30","-91","26486","58125","EBRP"
"POINT (-91.07291038754 30.457179492959)","SIDE STOP STORE","10097 STE B2 FLORIDA BLVD","BATON ROUGE","LOUISIANA","UNITED STATES","70815","BATON ROUGE","YES","453000",,,"30","-91","35761","136837","EBRP"
"POINT (-91.063595971481 30.378377280055)","SAMS CLUB #6527","10444 N MALL DR","BATON ROUGE","LOUISIANA","UNITED STATES","70809","BATON ROUGE","YES","445110","225-295-1353","http://samsclub.com/","30","-91","35420","4010","EBRP"
"POINT (-91.161565301445 30.431722972961)","COUNTRY CORNER GROCERY","1923 PERKINS RD","BATON ROUGE","LOUISIANA","UNITED STATES","70808","BATON ROUGE","YES","445120",,,"30","-91","2445","49052","EBRP"
"POINT (-91.051781745604 30.546745175763)","WINN-DIXIE #1581","10974 JOOR RD","CENTRAL","LOUISIANA","UNITED STATES","70818","CENTRAL","YES","445000",,"https://winndixie.com","31","-91","8883","202352","EBRP"
"POINT (-91.181678130363 30.434000700045)","CHATTERBOX LOUNGE","406 LOUISE ST","BATON ROUGE","LOUISIANA","UNITED STATES","70802","BATON ROUGE","YES","722000",,,"30","-91","26399","79821","EBRP"
"POINT (-91.156100781299 30.490327248961)","PLANK MARLET & DELI","4432 PLANK RD","BATON ROUGE","LOUISIANA","UNITED STATES","70805","BATON ROUGE","YES","445000",,,"30","-91","39408","83561","EBRP"
"POINT (-91.084308308338 30.385753716658)","AMC THEATERS MALL OF LOUISIANA 15","9168 MALL OF LOUISIANA BLVD","BATON ROUGE","LOUISIANA","UNITED STATES","70836","BATON ROUGE","YES","512000",,,"30","-91","34676","134703","EBRP"
"POINT (-91.231577581023 30.682745823246)","BEAVER CREEK GOLF COURSE","1100 PORT HUDSON-PLAINS RD","ZACHARY","LOUISIANA","UNITED STATES","70791","PARISH","YES","713000",,,"31","-91","59949","8230","EBRP"
"POINT (-91.155620408783 30.423608389259)","PARRAIN'S SEAFOOD RESTAURANT","3225 PERKINS RD","BATON ROUGE","LOUISIANA","UNITED STATES","70808","BATON ROUGE","YES","722110",,,"30","-91","6393","70319","EBRP"
"POINT (-91.192283569729 30.436937126733)","COLONNADE HOSPITALITY LLC","1110 S RIVER RD","BATON ROUGE","LOUISIANA","UNITED STATES","70802","BATON ROUGE","YES","722000",,,"30","-91","63238","155643","EBRP"
"POINT (-91.1342367214 30.444404579027)","BISTRO BYRONZ","5412 GOVERNMENT ST","BATON ROUGE","LOUISIANA","UNITED STATES","70806","BATON ROUGE","YES","722110",,,"30","-91","17324","93384","EBRP"
"POINT (-91.152005030716 30.502017199913)","PLANK ROAD MARKET","5686 PLANK RD","BATON ROUGE","LOUISIANA","UNITED STATES","70805","BATON ROUGE","YES","445110","225-355-0220",,"31","-91","34060","96360","EBRP"
"POINT (-91.118959863733 30.459964471821)","DONMOOR FOODMART","1079 N DONMOOR AVE","BATON ROUGE","LOUISIANA","UNITED STATES","70806","BATON ROUGE","YES","445120",,,"30","-91","21547","6949","EBRP"
"POINT (-91.153407040096 30.443843689204)","WALGREENS #2995","3550 GOVERNMENT ST","BATON ROUGE","LOUISIANA","UNITED STATES","70806","BATON ROUGE","YES","446110","225-343-8878","http://walgreens.com/","30","-91","38070","74377","EBRP"
"POINT (-91.128212431916 30.497409682491)","LARRYS QUICK STOP","6288 AIRLINE HWY","BATON ROUGE","LOUISIANA","UNITED STATES","70805","BATON ROUGE","YES","445110","225-354-0104",,"30","-91","17569","102360","EBRP"
"POINT (-91.159694992837 30.393301104867)","CVS PHARMACY","5360 HIGHLAND RD","BATON ROUGE","LOUISIANA","UNITED STATES","70808","BATON ROUGE","YES","446110",,"http://cvs.com/","30","-91","2569","92692","EBRP"
"POINT (-91.008138318013 30.425698089373)","SAVE MORE MARKET #3","2980 O'NEAL LN","BATON ROUGE","LOUISIANA","UNITED STATES","70816","BATON ROUGE","YES","445110","225-752-8181",,"30","-91","35472","66766","EBRP"
"POINT (-91.156753536569 30.469691205292)","TOP TEN SOCIAL CLUB","2453 N ACADIAN THWY W","BATON ROUGE","LOUISIANA","UNITED STATES","70802","BATON ROUGE","YES","722000",,,"30","-91","37430","60089","EBRP"
"POINT (-91.122347769256 30.621892945097)","BATON ROUGE RACEWAY","17700 PLANK RD","ZACHARY","LOUISIANA","UNITED STATES","70791","PARISH","YES","711310",,,"31","-91","911","130130","EBRP"
"POINT (-91.089849598371 30.460061823783)","MURPHY USA #6988","9340 CORTANA PL","BATON ROUGE","LOUISIANA","UNITED STATES","70815","BATON ROUGE","YES","447000",,,"30","-91","33087","148257","EBRP"
"POINT (-91.162315963794 30.5937542937)","BAKER BLVD GROCERY","3308 BAKER BLVD","BAKER","LOUISIANA","UNITED STATES","70714","BAKER","YES","445000",,,"31","-91","41826","189285","EBRP"
"POINT (-91.135348235381 30.446189306698)","SHOPPERS VALUE FOODS","5355 STE B GOVERNMENT ST","BATON ROUGE","LOUISIANA","UNITED STATES","70806","BATON ROUGE","YES","453000",,,"30","-91","41525","134194","EBRP"
"POINT (-91.119423062332 30.451033474305)","DISCOUNT CIGARETTE & BEVERAGE","6908 FLORIDA BLVD","BATON ROUGE","LOUISIANA","UNITED STATES","70806","BATON ROUGE","YES","453000",,,"30","-91","27744","136916","EBRP"
"POINT (-91.135153463177 30.554378777082)","TOBACCO ZONE","11901 PLANK RD","BATON ROUGE","LOUISIANA","UNITED STATES","70811","PARISH","YES","453000",,,"31","-91","37382","13775","EBRP"
"POINT (-91.053450335625 30.396241391092)","ELITE PERFORMANCE TRANSPORTATION","11620 STE 250 AIRLINE HWY","BATON ROUGE","LOUISIANA","UNITED STATES","70816","PARISH","YES","488000",,,"30","-91","42126","220043","EBRP"
"POINT (-91.122950150928 30.369357986661)","EXXON/ON THE RUN INC #2707651","8885 HIGHLAND RD","BATON ROUGE","LOUISIANA","UNITED STATES","70808","BATON ROUGE","YES","447000",,,"30","-91","26590","120682","EBRP"
"POINT (-91.152175145227 30.423590666927)","SALTGRASS STEAKHOUSE","2450 S ACADIAN THWY","BATON ROUGE","LOUISIANA","UNITED STATES","70808","BATON ROUGE","YES","445000",,,"30","-91","50249","67090","EBRP"
"POINT (-91.126288088223 30.450650232243)","F C ZIEGLER CO","6184 FLORIDA BLVD","BATON ROUGE","LOUISIANA","UNITED STATES","70806","BATON ROUGE","YES","453000",,,"30","-91","28598","101236","EBRP"
"POINT (-91.129221308054 30.468537463701)","TRI AMBIENT LOUNGE","6105 GREENWELL SPRINGS RD","BATON ROUGE","LOUISIANA","UNITED STATES","70806","BATON ROUGE","YES","722000",,,"30","-91","37549","100239","EBRP"
"POINT (-91.188311035128 30.435072851335)","CULTURE INC","450 OKLAHOMA ST","BATON ROUGE","LOUISIANA","UNITED STATES","70802","BATON ROUGE","YES","722000",,,"30","-91","27202","84108","EBRP"
"POINT (-91.163133544524 30.450253466762)","CORNER DELI LLC","2427 STE A FLORIDA ST","BATON ROUGE","LOUISIANA","UNITED STATES","70802","BATON ROUGE","YES","445000",,,"30","-91","41387","217009","EBRP"
"POINT (-91.180044250663 30.395647535557)","STRIPES FOOD MART","4405 ALVIN DARK AVE","BATON ROUGE","LOUISIANA","UNITED STATES","70820","BATON ROUGE","YES","445000",,,"30","-91","50268","83213","EBRP"
"POINT (-91.17230156867 30.444029360823)","CITYROOTS LLC","1509 STE 106 GOVERNMENT ST","BATON ROUGE","LOUISIANA","UNITED STATES","70802","BATON ROUGE","YES","722000",,,"30","-91","65679","239724","EBRP"
"POINT (-91.179339476126 30.395846279032)","J L'S","1115 BOB PETTIT BLVD","BATON ROUGE","LOUISIANA","UNITED STATES","70820","BATON ROUGE","YES","722000",,,"30","-91","30602","9396","EBRP"
"POINT (-91.118013370425 30.454153851828)","TEXAS CLUB","456 N DONMOOR AVE","BATON ROUGE","LOUISIANA","UNITED STATES","70806","BATON ROUGE","YES","722000",,,"30","-91","36852","84760","EBRP"
"POINT (-91.131836833038 30.423663945103)","BEST WESTERN PLUS RICHMOND INN AND SUITES","2683 ENERGY DR","BATON ROUGE","LOUISIANA","UNITED STATES","70808","BATON ROUGE","YES","721000",,,"30","-91","25282","96243","EBRP"
"POINT (-91.082900480598 30.534468704506)","CIRCLE K STORES #2706807","9530 HOOPER RD","CENTRAL","LOUISIANA","UNITED STATES","70818","CENTRAL","YES","447000",,,"31","-91","59781","202675","EBRP"
"POINT (-91.078106462676 30.410698637279)","CVS PHARMACY","9608 JEFFERSON HWY","BATON ROUGE","LOUISIANA","UNITED STATES","70809","PARISH","YES","446110",,"http://cvs.com/","30","-91","2569","127084","EBRP"
"POINT (-91.156573847714 30.469221349406)","LATE-NITE DRIVE THRU","2333 N ACADIAN THWY W","BATON ROUGE","LOUISIANA","UNITED STATES","70802","BATON ROUGE","YES","722110",,,"30","-91","20251","138423","EBRP"
"POINT (-91.1164573028 30.430230850017)","NEWK'S EATERY","7211 STE B CORPORATE BLVD","BATON ROUGE","LOUISIANA","UNITED STATES","70809","PARISH","YES","722000",,,"30","-91","42049","219871","EBRP"
"POINT (-91.1402618727 30.479172886427)","EXPRESS MART","3322 N FOSTER DR","BATON ROUGE","LOUISIANA","UNITED STATES","70805","BATON ROUGE","YES","447000",,,"30","-91","3231","71429","EBRP"
"POINT (-91.112726428761 30.452341938517)","CVS PHARMACY 6124","7411 FLORIDA BLVD","BATON ROUGE","LOUISIANA","UNITED STATES","70806","BATON ROUGE","YES","446110","225-928-8982","http://cvs.com/","30","-91","27281","153494","EBRP"
"POINT (-91.095175057595 30.379365942541)","VOODOO BBQ","10000 STE 160 PERKINS ROWE","BATON ROUGE","LOUISIANA","UNITED STATES","70810","PARISH","YES","722000",,,"30","-91","38012","220011","EBRP"
"POINT (-91.154405469734 30.497025018203)","TONYS SEAFOOD","5215 PLANK RD","BATON ROUGE","LOUISIANA","UNITED STATES","70805","BATON ROUGE","YES","445000",,,"30","-91","37408","90919","EBRP"
"POINT (-91.177312955863 30.518146641038)","SCENIC CHEVRON","7776 SCENIC HWY","BATON ROUGE","LOUISIANA","UNITED STATES","70807","BATON ROUGE","YES","447000",,,"31","-91","35484","113540","EBRP"
"POINT (-91.027811972213 30.541937844456)","MURPHY USA 7716","10250 SULLIVAN RD","CENTRAL","LOUISIANA","UNITED STATES","70818","CENTRAL","YES","447000",,,"31","-91","33086","203041","EBRP"
"POINT (-91.007213574991 30.359408225783)","WALGREENS #09518","15929 AIRLINE HWY","BATON ROUGE","LOUISIANA","UNITED STATES","70817","PARISH","YES","446110","225-752-2159","http://walgreens.com/","30","-91","38067","35100","EBRP"
"POINT (-91.187087459081 30.413077319054)","FAT BOY'S PIZZA","3624 NICHOLSON DR","BATON ROUGE","LOUISIANA","UNITED STATES","70802","LSU","YES","722000",,,"30","-91","66411","233132","EBRP"
"POINT (-91.139076948025 30.462917558223)","FAST STOP","1526 N FOSTER DR","BATON ROUGE","LOUISIANA","UNITED STATES","70806","BATON ROUGE","YES","447000",,,"30","-91","67888","136354","EBRP"
"POINT (-91.187589044531 30.412591203727)","MATHERNE'S MARKET AT LSU 005","85 GATEWAY CENTER LN","BATON ROUGE","LOUISIANA","UNITED STATES","70802","LSU","YES","445000",,,"30","-91","64204","233142","EBRP"
"POINT (-91.089256459529 30.44246312842)","KWIK STOP","9110 AIRLINE HWY","BATON ROUGE","LOUISIANA","UNITED STATES","70815","BATON ROUGE","YES","447110",,,"30","-91","2142","122297","EBRP"
"POINT (-91.107738846874 30.394888843325)","BLUE CORN TEQUILA & TACOS","7673 STE A5 PERKINS RD","BATON ROUGE","LOUISIANA","UNITED STATES","70810","BATON ROUGE","YES","722000",,,"30","-91","64420","234933","EBRP"
"POINT (-91.023855907271 30.429322346414)","TIGER BAIT","14546 S HARRELL'S FERRY RD","BATON ROUGE","LOUISIANA","UNITED STATES","70816","BATON ROUGE","YES","722000",,,"30","-91","46942","28782","EBRP"
"POINT (-91.188379480424 30.447361567276)","STROUBE'S CHOP HOUSE","107 3RD ST","BATON ROUGE","LOUISIANA","UNITED STATES","70801","BATON ROUGE","YES","722000",,,"30","-91","19245","154476","EBRP"
"POINT (-91.121411572013 30.455286410021)","CLUB EXCALIBUR","6763 VAN GOGH AVE","BATON ROUGE","LOUISIANA","UNITED STATES","70806","BATON ROUGE","YES","722410",,,"30","-91","2231","106266","EBRP"
"POINT (-91.125610640149 30.424069905797)","IZZOS ILLEGAL BURRITO","6220 CORPORATE BLVD","BATON ROUGE","LOUISIANA","UNITED STATES","70809","BATON ROUGE","YES","722000",,,"30","-91","30550","101578","EBRP"
"POINT (-91.187221057731 30.447364835421)","CITY CLUB OF BATON ROUGE","355 NORTH BLVD","BATON ROUGE","LOUISIANA","UNITED STATES","70801","BATON ROUGE","YES","713000",,,"30","-91","26614","74361","EBRP"
"POINT (-91.189685112029 30.45121833037)","AZTECAS MEXICAN CUISINE","453 LAFAYETTE ST","BATON ROUGE","LOUISIANA","UNITED STATES","70801","BATON ROUGE","YES","722000",,,"30","-91","24752","142535","EBRP"
"POINT (-91.124832629768 30.457251263229)","JOHNS GROCERY & MARKET","6409 HARRY DR","BATON ROUGE","LOUISIANA","UNITED STATES","70806","BATON ROUGE","YES","445110","225-927-8893",,"30","-91","30970","103484","EBRP"
"POINT (-91.09027910261 30.3917625403)","J ALEXANDERS RESTAURANTS LLC","6457 BLUEBONNET BLVD","BATON ROUGE","LOUISIANA","UNITED STATES","70836","BATON ROUGE","YES","722000",,,"30","-91","30577","135999","EBRP"
"POINT (-91.132807879635 30.504602042146)","THE REAL ENTERTAINERS","5755 AIRLINE HWY","BATON ROUGE","LOUISIANA","UNITED STATES","70812","BATON ROUGE","YES","722000",,,"31","-91","23239","142293","EBRP"
"POINT (-91.153053838116 30.641357688811)","GATE CITY FOOD MART","3840 HIGHWAY 19","ZACHARY","LOUISIANA","UNITED STATES","70791","ZACHARY","YES","445000",,,"31","-91","47134","196211","EBRP"
"POINT (-91.059518471549 30.41944599592)","WALKER ENTEPRISES","3557 TOULON DR","BATON ROUGE","LOUISIANA","UNITED STATES","70816","PARISH","YES","238000",,,"30","-91","47557","74458","EBRP"
"POINT (-91.123912697859 30.359642577724)","CVS PHARMACY","9326 BURBANK DR","BATON ROUGE","LOUISIANA","UNITED STATES","70820","PARISH","YES","446110",,"http://cvs.com/","30","-91","2569","169011","EBRP"
"POINT (-91.083225763995 30.476530757451)","RENDE QUIK STOP","3036 MONTERREY DR","BATON ROUGE","LOUISIANA","UNITED STATES","70814","BATON ROUGE","YES","445000",,,"30","-91","14489","67628","EBRP"
"POINT (-91.18764506705 30.439366503676)","PASTIME RESTAURANT & LOUNGE","252 SOUTH BLVD","BATON ROUGE","LOUISIANA","UNITED STATES","70802","BATON ROUGE","YES","722110",,,"30","-91","6407","60825","EBRP"
"POINT (-91.005305200039 30.437612642794)","WAL MART SUPERCENTER #1266","2171 O'NEAL LN","BATON ROUGE","LOUISIANA","UNITED STATES","70816","PARISH","YES","445110","225-751-3505","http://walmart.com/","30","-91","38059","54916","EBRP"
"POINT (-91.138549559302 30.487899726352)","PRESCOTT GROCERY","5153 PRESCOTT RD","BATON ROUGE","LOUISIANA","UNITED STATES","70805","BATON ROUGE","YES","445000",,,"30","-91","6716","90317","EBRP"
"POINT (-91.109206309329 30.393952094345)","RACETRAC #2476","7648 PERKINS RD","BATON ROUGE","LOUISIANA","UNITED STATES","70810","BATON ROUGE","YES","447000",,,"30","-91","64120","112779","EBRP"
"POINT (-91.126905877483 30.35754864692)","TRACTION SPORTS PERFORMANCE","1430 GARDERE LN","BATON ROUGE","LOUISIANA","UNITED STATES","70820","PARISH","YES","722000",,,"30","-91","50278","144516","EBRP"
"POINT (-91.027212229653 30.544398348389)","CALIENTE MEXICAN CRAVING","14455 STE E-F WAX RD","CENTRAL","LOUISIANA","UNITED STATES","70818","CENTRAL","YES","722110",,,"31","-91","22177","221093","EBRP"
"POINT (-91.169607862637 30.38926302528)","CALIENTE MEXICAN CRAVING","1072 W LEE DR","BATON ROUGE","LOUISIANA","UNITED STATES","70820","BATON ROUGE","YES","722110",,,"30","-91","22177","6277","EBRP"
"POINT (-91.190613510558 30.541013254149)","GRAND PRIX CARWASH","10634 SCENIC HWY","BATON ROUGE","LOUISIANA","UNITED STATES","70807","BATON ROUGE","YES","811192",,,"31","-91","7605","5583","EBRP"
"POINT (-91.081489606459 30.431049560964)","APPLEBEES # 9104","9702 AIRLINE HWY","BATON ROUGE","LOUISIANA","UNITED STATES","70809","BATON ROUGE","YES","722000",,,"30","-91","24461","135446","EBRP"
"POINT (-91.189686480691 30.451269062922)","QUORUM CALL","140 MAIN ST","BATON ROUGE","LOUISIANA","UNITED STATES","70801","BATON ROUGE","YES","722410",,,"30","-91","22189","136171","EBRP"
"POINT (-91.052607479742 30.412649838041)","ORIENTAL PEARL","4520 STE 107A S SHERWOOD FOREST BLVD","BATON ROUGE","LOUISIANA","UNITED STATES","70816","BATON ROUGE","YES","722000",,,"30","-91","33546","144686","EBRP"
"POINT (-91.119565111384 30.558326412909)","COHN ARBORETUM","12206 FOSTER RD","BATON ROUGE","LOUISIANA","UNITED STATES","70811","PARISH","YES","713000",,,"31","-91","60031","15851","EBRP"
"POINT (-91.149971295778 30.647394220282)","CIRCLE K STORE #2707679","4444 HIGHWAY 19","ZACHARY","LOUISIANA","UNITED STATES","70791","ZACHARY","YES","447000",,,"31","-91","47186","196569","EBRP"
"POINT (-91.019431479155 30.409260413143)","MURPHY USA 7716","14241 STE A13 COURSEY BLVD","BATON ROUGE","LOUISIANA","UNITED STATES","70817","PARISH","YES","447000",,,"30","-91","33086","141308","EBRP"
"POINT (-91.06127107958 30.391412400057)","HOOTERS RESTAURANT","6454 SIEGEN LN","BATON ROUGE","LOUISIANA","UNITED STATES","70809","PARISH","YES","722000",,,"30","-91","30144","104072","EBRP"
"POINT (-91.167784270652 30.468691001313)","PALACE I INC","2310 SCENIC HWY","BATON ROUGE","LOUISIANA","UNITED STATES","70802","BATON ROUGE","YES","722000",,,"30","-91","33630","57584","EBRP"
"POINT (-91.065200473992 30.384942086424)","RACETRAC #436","7102 SIEGEN LN","BATON ROUGE","LOUISIANA","UNITED STATES","70809","PARISH","YES","447000",,,"30","-91","34565","108466","EBRP"
"POINT (-91.071249399329 30.455671430083)","MUGSYS INC","10090 FLORIDA BLVD","BATON ROUGE","LOUISIANA","UNITED STATES","70815","BATON ROUGE","YES","722000",,,"30","-91","33078","137197","EBRP"
"POINT (-91.138652120418 30.41379165508)","PIZZA ARTISTA","4831 STE A ROUZAN SQUARE AVE","BATON ROUGE","LOUISIANA","UNITED STATES","70808","BATON ROUGE","YES","722000",,,"30","-91","66978","245853","EBRP"
"POINT (-91.027808294806 30.540122983341)","BLACKIES PLACE LLC","10010 SULLIVAN RD","CENTRAL","LOUISIANA","UNITED STATES","70818","CENTRAL","YES","722000",,,"31","-91","66925","243273","EBRP"
"POINT (-91.13942560759 30.464845798402)","MOMS SEAFOOD & DELI","1792 N FOSTER DR","BATON ROUGE","LOUISIANA","UNITED STATES","70806","BATON ROUGE","YES","453000",,,"30","-91","32964","44564","EBRP"
"POINT (-91.050970535695 30.414846224112)","HUNAN CHINESE RESTAURANT","4215 STE 5 S SHERWOOD FOREST BLVD","BATON ROUGE","LOUISIANA","UNITED STATES","70816","BATON ROUGE","YES","722110",,,"30","-91","11529","81247","EBRP"
"POINT (-91.155040314208 30.495139038129)","MARECOS LOUNGE","5035 PLANK RD","BATON ROUGE","LOUISIANA","UNITED STATES","70805","BATON ROUGE","YES","722000",,,"30","-91","32392","88823","EBRP"
"POINT (-91.128495922741 30.450681305244)","THAI PEPPER LLC","5958 FLORIDA BLVD","BATON ROUGE","LOUISIANA","UNITED STATES","70806","BATON ROUGE","YES","445000",,,"30","-91","36861","99051","EBRP"
"POINT (-91.013599193435 30.406755158002)","PORTOBELLO'S ITALIAN GRILL AND CAFÃ‰","15440 GEORGE O'NEAL RD","BATON ROUGE","LOUISIANA","UNITED STATES","70817","PARISH","YES","722110",,,"30","-91","6664","142617","EBRP"
"POINT (-91.124728716866 30.359946089692)","COU-YON'S TEXAS BBQ","9320 BURBANK DR","BATON ROUGE","LOUISIANA","UNITED STATES","70820","PARISH","YES","722000",,,"30","-91","27047","124227","EBRP"
"POINT (-91.133128774473 30.488008880511)","TAKS FOOD MART","5765 PRESCOTT RD","BATON ROUGE","LOUISIANA","UNITED STATES","70805","BATON ROUGE","YES","445000",,,"30","-91","36706","97207","EBRP"
"POINT (-91.073827638932 30.40936007366)","THE JEFFERSON","4336 FLOYNELL DR","BATON ROUGE","LOUISIANA","UNITED STATES","70809","PARISH","YES","722000",,,"30","-91","37011","82603","EBRP"
"POINT (-91.071597989567 30.455653167678)","MR G'S TAVERN","10070 FLORIDA BLVD","BATON ROUGE","LOUISIANA","UNITED STATES","70815","BATON ROUGE","YES","722000",,,"30","-91","33054","137192","EBRP"
"POINT (-91.164270361661 30.389761638255)","CRAVE HOT DOG & BARBEQUE","630 STE B ARLINGTON CREEK CENTRE BLVD","BATON ROUGE","LOUISIANA","UNITED STATES","70820","BATON ROUGE","YES","722000",,,"30","-91","66753","239752","EBRP"
"POINT (-91.044777905534 30.44023610508)","FRENCH CONNECTION","12114 OLD HAMMOND HWY","BATON ROUGE","LOUISIANA","UNITED STATES","70816","BATON ROUGE","YES","722410",,,"30","-91","3542","161570","EBRP"
"POINT (-91.143276433293 30.523145506934)","SHA LA BOUTIQUE & ENTERTAINMENT LLC","8190 PLANK RD","BATON ROUGE","LOUISIANA","UNITED STATES","70811","BATON ROUGE","YES","722000",,,"31","-91","35645","137662","EBRP"
"POINT (-91.05095059188 30.411684402683)","CVS PHARMACY #5510","11705 COURSEY BLVD","BATON ROUGE","LOUISIANA","UNITED STATES","70816","BATON ROUGE","YES","446110","225-291-0596","http://cvs.com/","30","-91","27278","135596","EBRP"
"POINT (-91.192493054486 30.542382183505)","S & Y GROCERY","10833 SCENIC HWY","BATON ROUGE","LOUISIANA","UNITED STATES","70807","BATON ROUGE","YES","445120",,,"31","-91","4430","7300","EBRP"
"POINT (-91.106991074025 30.429106661637)","BEAUSOLEIL RESTAURANT & BAR LLC","7731 JEFFERSON HWY","BATON ROUGE","LOUISIANA","UNITED STATES","70809","BATON ROUGE","YES","722000",,,"30","-91","25152","144303","EBRP"
"POINT (-91.126847410146 30.451902473966)","FLORIDA HOP IN - CIRCLE K","6103 STE C FLORIDA BLVD","BATON ROUGE","LOUISIANA","UNITED STATES","70806","BATON ROUGE","YES","447000",,,"30","-91","46101","224765","EBRP"
"POINT (-91.104832837537 30.648194094731)","CROSSROAD GROCERY","20190 PLANK RD","ZACHARY","LOUISIANA","UNITED STATES","70791","ZACHARY","YES","445000",,,"31","-91","47173","198184","EBRP"
"POINT (-91.155245516182 30.494563327705)","CITY FOOD MART","4865 PLANK RD","BATON ROUGE","LOUISIANA","UNITED STATES","70805","BATON ROUGE","YES","453000",,,"30","-91","26616","87501","EBRP"
"POINT (-91.145082695391 30.461865905024)","GUS YOUNG GROCERY","4412 GUS YOUNG AVE","BATON ROUGE","LOUISIANA","UNITED STATES","70802","BATON ROUGE","YES","445120",,,"30","-91","21599","139181","EBRP"
"POINT (-91.085219512337 30.70105225272)","B & B EZ FOOD MART","24021 PLANK RD","ZACHARY","LOUISIANA","UNITED STATES","70791","PARISH","YES","445120",,,"31","-91","20867","59214","EBRP"
"POINT (-91.077714280858 30.457375456191)","KAY B LOUNGE","845 MADELINE CT","BATON ROUGE","LOUISIANA","UNITED STATES","70815","BATON ROUGE","YES","722410",,,"30","-91","16618","118023","EBRP"
"POINT (-91.152586261411 30.422437692823)","THE RUBY SUPPER CAFE","3535 STE 375 PERKINS RD","BATON ROUGE","LOUISIANA","UNITED STATES","70808","BATON ROUGE","YES","722000",,,"30","-91","50659","186569","EBRP"
"POINT (-91.002380135576 30.363704726439)","BURBANK DAIQUIRIS LLC","9422 ROUND OAK DR","BATON ROUGE","LOUISIANA","UNITED STATES","70817","PARISH","YES","722000",,,"30","-91","64077","125323","EBRP"
"POINT (-91.071991284272 30.370497419843)","WINN DIXIE #1461","8601 SIEGEN LN","BATON ROUGE","LOUISIANA","UNITED STATES","70810","PARISH","YES","445000","225-766-8400","https://winndixie.com","30","-91","38362","118988","EBRP"
"POINT (-91.091106583936 30.390612990222)","LONGHORN STEAKHOUSE #5591","6571 BLUEBONNET BLVD","BATON ROUGE","LOUISIANA","UNITED STATES","70836","BATON ROUGE","YES","722000",,,"30","-91","63365","136001","EBRP"
"POINT (-91.157125783569 30.387102805232)","ROTOLOS CRAFT & CRUST","411 BEN HUR RD","BATON ROUGE","LOUISIANA","UNITED STATES","70820","PARISH","YES","722000",,,"30","-91","59991","149900","EBRP"
"POINT (-91.059235578653 30.428462927256)","CLUB COOZAN","10920 MEAD RD","BATON ROUGE","LOUISIANA","UNITED STATES","70816","BATON ROUGE","YES","722000",,,"30","-91","26716","7797","EBRP"
"POINT (-91.050905574173 30.421741068459)","RACETRAC #360","3425 S SHERWOOD FOREST BLVD","BATON ROUGE","LOUISIANA","UNITED STATES","70816","BATON ROUGE","YES","447000",,,"30","-91","34569","72738","EBRP"
"POINT (-91.156488173136 30.423673709949)","ZIPPYS","3155 PERKINS RD","BATON ROUGE","LOUISIANA","UNITED STATES","70808","BATON ROUGE","YES","722000",,,"30","-91","38557","69534","EBRP"
"POINT (-91.108364220868 30.444510040489)","INDEPENDENCE PARK THEATRE CULTURAL","7800 INDEPENDENCE BLVD","BATON ROUGE","LOUISIANA","UNITED STATES","70806","BATON ROUGE","YES",,,,"30","-91","60425","133300","EBRP"
"POINT (-91.088733396556 30.39275777791)","COPELANDS CHEESECAKE BISTRO","6171 BLUEBONNET BLVD","BATON ROUGE","LOUISIANA","UNITED STATES","70836","BATON ROUGE","YES","722110",,,"30","-91","12368","135997","EBRP"
"POINT (-91.168998316316 30.460735031635)","BATON ROUGE RIVER BATS","1502 FOSS ST","BATON ROUGE","LOUISIANA","UNITED STATES","70802","BATON ROUGE","YES","453000",,,"30","-91","25050","30497","EBRP"
"POINT (-91.015376392046 30.409744928019)","CVS PHARMACY","15255 STE A-B GEORGE O'NEAL RD","BATON ROUGE","LOUISIANA","UNITED STATES","70817","PARISH","YES","446110",,"http://cvs.com/","30","-91","2569","135462","EBRP"
"POINT (-91.007215225393 30.445823294581)","RACETRAC #2405","1649 O'NEAL LN","BATON ROUGE","LOUISIANA","UNITED STATES","70816","PARISH","YES","447000",,,"30","-91","46402","37860","EBRP"
"POINT (-91.140187378266 30.445040604638)","ALBERTSONS #3750","4857 GOVERNMENT ST","BATON ROUGE","LOUISIANA","UNITED STATES","70806","BATON ROUGE","YES","445110","225-216-7226","http://albertsons.com/","30","-91","24068","87437","EBRP"
"POINT (-91.090064424227 30.484107103147)","WALGREENS #07836","3671 JOOR RD","BATON ROUGE","LOUISIANA","UNITED STATES","70814","PARISH","YES","446110","225-924-3880","http://walgreens.com/","30","-91","8703","75578","EBRP"
"POINT (-91.008166913388 30.407905010724)","CIRCLE K STORE 2709723","4851 O'NEAL LN","BATON ROUGE","LOUISIANA","UNITED STATES","70817","PARISH","YES","447000","225-753-2169","http://circlek.com/","30","-91","26584","87386","EBRP"
"POINT (-91.115903134665 30.431477868869)","ZEA ROTISSERIE & GRILL","2380 TOWNE CENTER BLVD","BATON ROUGE","LOUISIANA","UNITED STATES","70809","PARISH","YES","445000",,,"30","-91","38540","133129","EBRP"
"POINT (-91.087086416107 30.474244426791)","CHILI'S BAR AND GRILL #1059","9115 STE B MAMMOTH AVE","BATON ROUGE","LOUISIANA","UNITED STATES","70814","BATON ROUGE","YES","722000",,,"30","-91","47190","228353","EBRP"
"POINT (-91.116122729436 30.398613364273)","OLYMPIA FOOTBALL STADIUM","7122 PERKINS RD","BATON ROUGE","LOUISIANA","UNITED STATES","70808","BATON ROUGE","YES",,,,"30","-91","60518","108627","EBRP"
"POINT (-91.027359553072 30.448570477007)","ASHLEY MANOR","14214 OLD HAMMOND HWY","BATON ROUGE","LOUISIANA","UNITED STATES","70816","PARISH","YES","722000",,,"30","-91","24579","26899","EBRP"
"POINT (-91.190171783979 30.442472352298)","BELLE OF BATON ROUGE CASINO BOAT","620 S RIVER RD","BATON ROUGE","LOUISIANA","UNITED STATES","70802","BATON ROUGE","YES","713000",,,"30","-91","25204","181074","EBRP"
"POINT (-91.078967260023 30.385578944641)","THE WOODHOUSE DAY SPA","10222 THE GROVE BLVD","BATON ROUGE","LOUISIANA","UNITED STATES","70836","PARISH","YES","815000",,,"30","-91","49458","166219","EBRP"
"POINT (-91.134874469489 30.444423342846)","ROMANS CAFE","5350 GOVERNMENT ST","BATON ROUGE","LOUISIANA","UNITED STATES","70806","BATON ROUGE","YES","722000",,,"30","-91","35138","92883","EBRP"
"POINT (-91.056226364621 30.428026686801)","SHERWOOD SHELL","2510 S SHERWOOD FOREST BLVD","BATON ROUGE","LOUISIANA","UNITED STATES","70816","BATON ROUGE","YES","447000",,,"30","-91","35728","60661","EBRP"
"POINT (-91.138258763785 30.443323842667)","ALL STAR CATERING LLC","633 S FOSTER DR","BATON ROUGE","LOUISIANA","UNITED STATES","70806","BATON ROUGE","YES","722320",,,"30","-91","24121","102817","EBRP"
"POINT (-91.188431498964 30.450857122111)","ON THE RIVER EVENTS BY LITTLE VILLAGE","431 3RD ST","BATON ROUGE","LOUISIANA","UNITED STATES","70802","BATON ROUGE","YES","722000",,,"30","-91","22262","82221","EBRP"
"POINT (-91.093321554252 30.377741977445)","FRESH MARKET THE, INC","10555 PERKINS RD","BATON ROUGE","LOUISIANA","UNITED STATES","70810","PARISH","YES","445110","225-765-2915",,"30","-91","29041","143282","EBRP"
"POINT (-91.150253395355 30.426309736662)","HIT-N-RUN FOOD STORES #3","2313 S ACADIAN THWY","BATON ROUGE","LOUISIANA","UNITED STATES","70808","BATON ROUGE","YES","447000",,,"30","-91","30050","57638","EBRP"
"POINT (-91.161442339219 30.393236125032)","FUZZYS TACO SHOP","220 W LEE DR","BATON ROUGE","LOUISIANA","UNITED STATES","70808","BATON ROUGE","YES","722000",,,"30","-91","29100","180814","EBRP"
"POINT (-91.030939657212 30.344592597582)","COUNTRY CLUB TEXACO","17752 HIGHLAND RD","BATON ROUGE","LOUISIANA","UNITED STATES","70810","PARISH","YES","447000",,,"30","-91","27023","43942","EBRP"
"POINT (-91.112134085065 30.390883882633)","TOWN SOUTH FOOD MART","1801 STARING LN","BATON ROUGE","LOUISIANA","UNITED STATES","70808","BATON ROUGE","YES","447000",,,"30","-91","37472","44790","EBRP"
"POINT (-91.154855382159 30.493039475121)","CIRCLE K STORE #2707654","4718 PLANK RD","BATON ROUGE","LOUISIANA","UNITED STATES","70805","BATON ROUGE","YES","447000",,"http://circlek.com/","30","-91","26593","86093","EBRP"
"POINT (-91.196886275621 30.552574695674)","MADE TO GO TRUCKSTOP LLC","111 THOMAS RD","BATON ROUGE","LOUISIANA","UNITED STATES","70807","PARISH","YES","447000",,,"31","-91","32296","145937","EBRP"
"POINT (-91.167519540013 30.588783500745)","CVS PHARMACY #5321","1214 MAIN ST","BAKER","LOUISIANA","UNITED STATES","70714","BAKER","YES","446110","225-778-1843","http://cvs.com/","31","-91","41829","189273","EBRP"
"POINT (-91.014552696281 30.4094969549)","CELEBRITY THEATRES OF BATON ROUGE","15365 GEORGE O'NEAL RD","BATON ROUGE","LOUISIANA","UNITED STATES","70817","PARISH","YES","512000",,,"30","-91","48121","135460","EBRP"
"POINT (-91.204959547272 30.387128841694)","FARR PARK EQUESTRIAN CENTER & RV CAMPGROUND","6402 RIVER RD","BATON ROUGE","LOUISIANA","UNITED STATES","70820","PARISH","YES",,,,"30","-91","60382","220101","EBRP"
"POINT (-91.16334273395 30.471389055407)","CLUB RAGGS","2605 PLANK RD","BATON ROUGE","LOUISIANA","UNITED STATES","70805","BATON ROUGE","YES","722410",,,"30","-91","2239","61903","EBRP"
"POINT (-91.145535176759 30.38895195153)","BABYLONIA","417 W WOODRUFF DR","BATON ROUGE","LOUISIANA","UNITED STATES","70808","BATON ROUGE","YES","722000",,,"30","-91","67434","80920","EBRP"
"POINT (-91.089508075723 30.418924773889)","CIRCLE K STORE 2709726","3536 DRUSILLA LN","BATON ROUGE","LOUISIANA","UNITED STATES","70809","BATON ROUGE","YES","447000","225-927-5131","http://circlek.com/","30","-91","26587","74139","EBRP"
"POINT (-91.105772746787 30.465848630879)","RACETRAC #2417","8008 AIRLINE HWY","BATON ROUGE","LOUISIANA","UNITED STATES","70806","BATON ROUGE","YES","447000",,,"30","-91","47599","114760","EBRP"
"POINT (-91.065240000105 30.432901478742)","RIC SEELING DANCE STUDIO","10776 N HARRELL'S FERRY RD","BATON ROUGE","LOUISIANA","UNITED STATES","70816","BATON ROUGE","YES","611000",,,"30","-91","34926","181253","EBRP"
"POINT (-91.0613227888 30.493126149881)","TEXACO","10982 GREENWELL SPRINGS RD","BATON ROUGE","LOUISIANA","UNITED STATES","70814","BATON ROUGE","YES","447110",,,"30","-91","8180","8175","EBRP"
"POINT (-91.164661027783 30.466057443176)","ANN'S GROCERY","2004 PLANK RD","BATON ROUGE","LOUISIANA","UNITED STATES","70802","BATON ROUGE","YES","445110","225-344-4670",,"30","-91","24397","51129","EBRP"
"POINT (-91.138219685575 30.444858435967)","CIRCLE K STORE 2729721","5035 GOVERNMENT ST","BATON ROUGE","LOUISIANA","UNITED STATES","70806","BATON ROUGE","YES","447000",,"http://circlek.com/","30","-91","26582","88817","EBRP"
"POINT (-91.109514522553 30.430356974942)","WALGREENS #3399","7620 JEFFERSON HWY","BATON ROUGE","LOUISIANA","UNITED STATES","70809","BATON ROUGE","YES","446000","225-292-6566","http://walgreens.com/","30","-91","38074","112510","EBRP"
"POINT (-91.05351684347 30.385112296388)","BATON ROUGE DISTILLING LLC","11616 STE 21 INDUSTRIPLEX BLVD","BATON ROUGE","LOUISIANA","UNITED STATES","70809","PARISH","YES","919024",,,"30","-91","45920","224215","EBRP"
"POINT (-91.133162312932 30.500899348988)","SHOPPERS VALUE FOODS","5932 AIRLINE HWY","BATON ROUGE","LOUISIANA","UNITED STATES","70805","BATON ROUGE","YES","445110","225-355-0025","http://shoppersvaluefoodla.com/","31","-91","14236","142246","EBRP"
"POINT (-91.124053828321 30.406291093003)","MAXWELLS MARKET","6241 PERKINS RD","BATON ROUGE","LOUISIANA","UNITED STATES","70808","BATON ROUGE","YES","445110","225-766-9150","http://maxwells-market.com/","30","-91","32534","144053","EBRP"
"POINT (-91.033079654284 30.447428082748)","SHOPPERS VALUE FOODS 5535","13555 OLD HAMMOND HWY","BATON ROUGE","LOUISIANA","UNITED STATES","70816","PARISH","YES","445000",,,"30","-91","50253","23984","EBRP"
"POINT (-91.149016815159 30.419661945805)","CUBAN FINE WINE AND SPIRITS","3911 PERKINS RD","BATON ROUGE","LOUISIANA","UNITED STATES","70808","BATON ROUGE","YES","424820",,,"30","-91","5472","77958","EBRP"
"POINT (-91.054364250721 30.376237293791)","HOMEWOOD SUITES HOTEL","11303 RIEGER RD","BATON ROUGE","LOUISIANA","UNITED STATES","70809","PARISH","YES","721110",,,"30","-91","4214","155881","EBRP"
"POINT (-91.151018734966 30.65047515252)","WINN-DIXIE #1581","5005 CHURCH ST","ZACHARY","LOUISIANA","UNITED STATES","70791","ZACHARY","YES","445000",,"https://winndixie.com","31","-91","8883","197768","EBRP"
"POINT (-91.151314488847 30.444483959399)","DOE'S EAT PLACE","3723 GOVERNMENT ST","BATON ROUGE","LOUISIANA","UNITED STATES","70806","BATON ROUGE","YES","445000",,,"30","-91","27831","75935","EBRP"
"POINT (-91.146961049625 30.586482620698)","BROTHERS FOOD MART #138","4940 GROOM RD","BAKER","LOUISIANA","UNITED STATES","70714","BAKER","YES","445000",,,"31","-91","41827","191059","EBRP"
"POINT (-91.076798650697 30.421310564693)","CRESENT CROWN DISTRIBUTING LLC","9550 DAWNADELE AVE","BATON ROUGE","LOUISIANA","UNITED STATES","70809","BATON ROUGE","YES","423000",,,"30","-91","27147","135404","EBRP"
"POINT (-91.025646024375 30.587957418918)","ROMEROS FOOD MART #3","14447 DENHAM RD","PRIDE","LOUISIANA","UNITED STATES","70770","CENTRAL","YES","445000",,,"31","-91","49178","202018","EBRP"
"POINT (-91.168876890118 30.469386545869)","LTK SEAFOOD","2401 SCENIC HWY","BATON ROUGE","LOUISIANA","UNITED STATES","70802","BATON ROUGE","YES","445220",,,"30","-91","5360","59203","EBRP"
"POINT (-91.188171859906 30.449657131862)","DRAKE'S CATERING","320 3RD ST","BATON ROUGE","LOUISIANA","UNITED STATES","70801","BATON ROUGE","YES","722330",,,"30","-91","21669","69951","EBRP"
"POINT (-91.173345416525 30.436644341086)","TERRACE GROCERY","1457 TERRACE ST","BATON ROUGE","LOUISIANA","UNITED STATES","70802","BATON ROUGE","YES","445000",,,"30","-91","36836","28901","EBRP"
"POINT (-91.142493146485 30.454020775048)","KIMS MARKET","4695 NORTH ST","BATON ROUGE","LOUISIANA","UNITED STATES","70802","BATON ROUGE","YES","453000",,,"30","-91","31303","85932","EBRP"
"POINT (-91.172081906405 30.389301190644)","WASABI JAPANESE RESTAURANT","5201 STE J NICHOLSON DR","BATON ROUGE","LOUISIANA","UNITED STATES","70820","BATON ROUGE","YES","722000",,,"30","-91","38112","136043","EBRP"
"POINT (-91.150080869037 30.423087820726)","COURTYARD BY MARRIOTT ESSEN LANE","2421 S ACADIAN THWY","BATON ROUGE","LOUISIANA","UNITED STATES","70808","BATON ROUGE","YES","721000",,,"30","-91","27042","59525","EBRP"
"POINT (-91.096712065859 30.34814551021)","BURBANK SOCCER COMPLEX","12400 BURBANK DR","BATON ROUGE","LOUISIANA","UNITED STATES","70810","PARISH","YES","713000",,,"30","-91","59909","17626","EBRP"
"POINT (-91.140145129078 30.488496674223)","SUPER STOP","4162 N FOSTER DR","BATON ROUGE","LOUISIANA","UNITED STATES","70805","BATON ROUGE","YES","445110","225-355-7340",,"30","-91","36540","80853","EBRP"
"POINT (-91.133075142138 30.466304495378)","FRESH GROCERY","5635 GREENWELL SPRINGS RD","BATON ROUGE","LOUISIANA","UNITED STATES","70806","BATON ROUGE","YES","445000",,,"30","-91","29039","95796","EBRP"
"POINT (-91.056444884816 30.414575968879)","BULL CHICKS","11135 COURSEY BLVD","BATON ROUGE","LOUISIANA","UNITED STATES","70816","PARISH","YES","722000",,,"30","-91","40163","135802","EBRP"
"POINT (-91.013381440213 30.362595789202)","ROUSES MARKET #58","14630 VILLAGE MARKET ST","BATON ROUGE","LOUISIANA","UNITED STATES","70817","PARISH","YES","445000",,,"30","-91","49185","33384","EBRP"
"POINT (-91.030629069807 30.543819729464)","CAFE PHONECIA","14319 WAX RD","CENTRAL","LOUISIANA","UNITED STATES","70818","CENTRAL","YES","722000",,,"31","-91","46236","208678","EBRP"
"POINT (-91.119506966983 30.451987632329)","TIGER ONE STOP","6945 FLORIDA BLVD","BATON ROUGE","LOUISIANA","UNITED STATES","70806","BATON ROUGE","YES","447000",,,"30","-91","50275","107476","EBRP"
"POINT (-91.165830266765 30.574958486677)","DUMAS GOLF COURSE","3400 LAVEY LN","BAKER","LOUISIANA","UNITED STATES","70714","PARISH","YES","713000",,,"31","-91","59950","161247","EBRP"
"POINT (-91.17665732787 30.42693294588)","THOMAS GROCERY","600 E POLK ST","BATON ROUGE","LOUISIANA","UNITED STATES","70802","BATON ROUGE","YES","445000",,,"30","-91","37248","99295","EBRP"
"POINT (-91.178715756814 30.42338668778)","BEANS BURGERS & PLANTAIN FRIES","2679 HIGHLAND RD","BATON ROUGE","LOUISIANA","UNITED STATES","70802","BATON ROUGE","YES","722000",,,"30","-91","25141","62924","EBRP"
"POINT (-91.140074436668 30.415467103384)","R. GALE CREED APPRAISOR AND REALTOR","4765 PERKINS RD","BATON ROUGE","LOUISIANA","UNITED STATES","70808","BATON ROUGE","YES","531210",,,"30","-91","6874","86690","EBRP"
"POINT (-91.109237698107 30.433646155863)","CAFE AMERICAN","7521 JEFFERSON HWY","BATON ROUGE","LOUISIANA","UNITED STATES","70806","BATON ROUGE","YES","722000",,,"30","-91","25918","143317","EBRP"
"POINT (-91.15440855575 30.453760148247)","HERSON'S PRIVATE CLUB","3457 NORTH ST","BATON ROUGE","LOUISIANA","UNITED STATES","70802","BATON ROUGE","YES","722410",,,"30","-91","20390","73322","EBRP"
"POINT (-91.02332941455 30.368852907824)","AGILE BREWING LLC","14141 STE H AIRLINE HWY","BATON ROUGE","LOUISIANA","UNITED STATES","70817","PARISH","YES","722000",,,,,"67697","238945","EBRP"
"POINT (-91.048671848233 30.383175288348)","I HEART ABSINTHE","6630 STE C EXCHEQUER DR","BATON ROUGE","LOUISIANA","UNITED STATES","70809","PARISH","YES","453000",,,"30","-91","46129","224779","EBRP"
"POINT (-91.166849908894 30.433515075304)","CITY PARK GOLF COURSE","1515 DALRYMPLE DR","BATON ROUGE","LOUISIANA","UNITED STATES","70808","BATON ROUGE","YES","713000",,,"30","-91","50552","28075","EBRP"
"POINT (-91.176435946785 30.543154604354)","SCOTLAND MONEY MART","10888 SCOTLAND AVE","BATON ROUGE","LOUISIANA","UNITED STATES","70807","BATON ROUGE","YES","453000",,,"31","-91","35511","143048","EBRP"
"POINT (-91.008770680206 30.453703053396)","NO DELAY","1024 O'NEAL LN","BATON ROUGE","LOUISIANA","UNITED STATES","70816","PARISH","YES","453000",,,"30","-91","33339","2224","EBRP"
"POINT (-91.192700760701 30.654129127618)","JETT'S FOOD MART #2","1080 CHURCH ST","ZACHARY","LOUISIANA","UNITED STATES","70791","ZACHARY","YES","447000",,,"31","-91","47112","195665","EBRP"
"POINT (-91.062031106923 30.410489298399)","BIG MIKES BAR","10627 ALCO AVE","BATON ROUGE","LOUISIANA","UNITED STATES","70816","PARISH","YES","722410",,,"30","-91","11795","5483","EBRP"
"POINT (-91.02992515132 30.334510286213)","COUNTRY CLUB OF LOUISIANA","18400 BOULEVARD LOUISIANE","BATON ROUGE","LOUISIANA","UNITED STATES","70810","PARISH","YES","722000",,,"30","-91","27022","46528","EBRP"
"POINT (-91.108561975358 30.430533842935)","LA MADELEINE #502","7615 JEFFERSON HWY","BATON ROUGE","LOUISIANA","UNITED STATES","70809","BATON ROUGE","YES","722000",,,"30","-91","59834","112440","EBRP"
"POINT (-90.999785712054 30.415804052391)","WHITE OAK PLANTATION","16515 SPILLER'S WAY","BATON ROUGE","LOUISIANA","UNITED STATES","70817","PARISH","YES","722000",,,"30","-91","38242","134722","EBRP"
"POINT (-91.189066722416 30.450256076217)","THE RIVER ROOM","222 LAUREL ST","BATON ROUGE","LOUISIANA","UNITED STATES","70801","BATON ROUGE","YES","445000",,,"30","-91","45386","55724","EBRP"
"POINT (-91.126463956957 30.526151289563)","HOOPER HOP IN - CIRCLE K","6404 HOOPER RD","BATON ROUGE","LOUISIANA","UNITED STATES","70811","PARISH","YES","447000",,,"31","-91","46119","103458","EBRP"
"POINT (-91.060511508737 30.410745527623)","MELCHOR RENOVATIONS","4444 KOLIN DR","BATON ROUGE","LOUISIANA","UNITED STATES","70816","PARISH","YES","815000",,,"30","-91","65629","83719","EBRP"
"POINT (-91.141056387676 30.421923902954)","ALBERTSONS #2709","2950 COLLEGE DR","BATON ROUGE","LOUISIANA","UNITED STATES","70808","BATON ROUGE","YES","445110","225-924-6084","http://albertsons.com/","30","-91","24065","66440","EBRP"
"POINT (-91.052609324126 30.412679267229)","ORIENTAL PEARL","4520 STE 107B S SHERWOOD FOREST BLVD","BATON ROUGE","LOUISIANA","UNITED STATES","70816","BATON ROUGE","YES","722000",,,"30","-91","33546","144687","EBRP"
"POINT (-90.992820067268 30.356185429754)","JUST WINGIN IT","18181 STE 103 JEFFERSON HWY","BATON ROUGE","LOUISIANA","UNITED STATES","70817","PARISH","YES","722000",,,"30","-91","64193","233743","EBRP"
"POINT (-91.168439259758 30.471279197506)","GENERAL GROCERY","2665 SCENIC HWY","BATON ROUGE","LOUISIANA","UNITED STATES","70805","BATON ROUGE","YES","445110","225-385-0710",,"30","-91","29242","62817","EBRP"
"POINT (-91.126378142602 30.355463171063)","SAVE MORE MARKET 4","1557 GARDERE LN","BATON ROUGE","LOUISIANA","UNITED STATES","70820","PARISH","YES","445110","225-769-0404",,"30","-91","7305","33602","EBRP"
"POINT (-91.156166765611 30.423452247972)","FRANKIES DAWG HOUSE","2318 CEDARDALE AVE","BATON ROUGE","LOUISIANA","UNITED STATES","70808","BATON ROUGE","YES","722000",,,"30","-91","28999","135892","EBRP"
"POINT (-91.142492359975 30.41663951645)","CIRCLE K STORES #270765","4527 PERKINS RD","BATON ROUGE","LOUISIANA","UNITED STATES","70808","BATON ROUGE","YES","447000","225-216-7666","http://circlek.com/","30","-91","26598","84394","EBRP"
"POINT (-91.112903484355 30.469057749542)","DREAMS","2083 DALLAS DR","BATON ROUGE","LOUISIANA","UNITED STATES","70806","BATON ROUGE","YES","722000",,,"30","-91","27987","52892","EBRP"
"POINT (-91.107026001874 30.460660333379)","U EAT FOOD MART","8171 GLADEWOOD DR","BATON ROUGE","LOUISIANA","UNITED STATES","70806","BATON ROUGE","YES","453000",,,"30","-91","67510","116013","EBRP"
"POINT (-91.14143468769 30.436866883832)","WEBB MEMORIAL GOLF COURSE","1351 COUNTRY CLUB DR","BATON ROUGE","LOUISIANA","UNITED STATES","70806","BATON ROUGE","YES","713000",,,"30","-91","59951","23583","EBRP"
"POINT (-91.190663720004 30.422346261113)","HEBERT'S SPECIALTY MEAT STORE","1150 W GARFIELD ST","BATON ROUGE","LOUISIANA","UNITED STATES","70802","BATON ROUGE","YES","445000",,,"30","-91","65329","11450","EBRP"
"POINT (-91.137061332961 30.424918035774)","HAYRIDE SCANDAL","5110 STE B CORPORATE BLVD","BATON ROUGE","LOUISIANA","UNITED STATES","70808","BATON ROUGE","YES","722000",,,"30","-91","50012","229900","EBRP"
"POINT (-91.16078251861 30.476811097694)","UNITED FOOD MART","3164 PLANK RD","BATON ROUGE","LOUISIANA","UNITED STATES","70805","BATON ROUGE","YES","445000",,,"30","-91","37759","69667","EBRP"
"POINT (-91.059995614966 30.435614155632)","MI CUEVITA PLUS LLC","1853 W MURIEL DR","BATON ROUGE","LOUISIANA","UNITED STATES","70816","BATON ROUGE","YES","453000",,,"30","-91","32753","133696","EBRP"
"POINT (-91.105703536565 30.649559444848)","JETT'S CHEVRON","9645 MAIN ST","ZACHARY","LOUISIANA","UNITED STATES","70791","ZACHARY","YES","447000",,,"31","-91","47113","198912","EBRP"
"POINT (-91.079393656164 30.430496063768)","COREY A ROBERTSON DDS","9745 AIRLINE HWY","BATON ROUGE","LOUISIANA","UNITED STATES","70816","BATON ROUGE","YES","621000",,,"30","-91","26980","128127","EBRP"
"POINT (-91.141506695916 30.461896007005)","GUS YOUNG MEAT MARKET","4896 GUS YOUNG AVE","BATON ROUGE","LOUISIANA","UNITED STATES","70802","BATON ROUGE","YES","445210",,,"30","-91","17401","87642","EBRP"
"POINT (-91.034064352208 30.446372409279)","TEXACO","13315 OLD HAMMOND HWY","BATON ROUGE","LOUISIANA","UNITED STATES","70816","PARISH","YES","447110",,,"30","-91","8180","22420","EBRP"
"POINT (-91.145924127533 30.700204600226)","DANNYS 2 GO","23896 ZACHARY-SLAUGHTER HWY","SLAUGHTER","LOUISIANA","UNITED STATES","70777","PARISH","YES","445000",,,"31","-91","23161","59109","EBRP"
"POINT (-91.090437774267 30.482726805293)","RACETRAC #191","8940 GREENWELL SPRINGS RD","BATON ROUGE","LOUISIANA","UNITED STATES","70814","BATON ROUGE","YES","447000",,,"30","-91","34567","143086","EBRP"
"POINT (-91.126841713914 30.451662573489)","FLORIDA HOP IN - CIRCLE K","6103 STE F FLORIDA BLVD","BATON ROUGE","LOUISIANA","UNITED STATES","70806","BATON ROUGE","YES","447000",,,"30","-91","46101","246481","EBRP"
"POINT (-91.135623571328 30.422135788804)","TIO JAVI'S FRESH MEX BAR AND GRILL","4738 CONSTITUTION AVE","BATON ROUGE","LOUISIANA","UNITED STATES","70808","BATON ROUGE","YES","722000",,,"30","-91","33327","86361","EBRP"
"POINT (-91.057753599519 30.463654540463)","BATON ROUGE SEAFOOD AND DELI","1644 N SHERWOOD FOREST DR","BATON ROUGE","LOUISIANA","UNITED STATES","70815","BATON ROUGE","YES","722000",,,"30","-91","39865","37611","EBRP"
"POINT (-91.030313533541 30.511566301989)","WALGREENS #07795","6515 SULLIVAN RD","GREENWELL SPRINGS","LOUISIANA","UNITED STATES","70739","CENTRAL","YES","446000",,,"31","-91","46172","220895","EBRP"
"POINT (-91.142257068897 30.650443225724)","WALMART SUPERCENTER #428","5801 MAIN ST","ZACHARY","LOUISIANA","UNITED STATES","70791","ZACHARY","YES","453000",,,"31","-91","46964","198715","EBRP"
"POINT (-91.023705041652 30.347642258724)","BURGERSMITH","18303 PERKINS RD E","BATON ROUGE","LOUISIANA","UNITED STATES","70810","PARISH","YES",,,,"30","-91","61689","46195","EBRP"
"POINT (-91.179253472908 30.388428208212)","CIRCLE K #4765","1910 BRIGHTSIDE DR","BATON ROUGE","LOUISIANA","UNITED STATES","70820","BATON ROUGE","YES","447000","225-766-7183","http://circlek.com/","30","-91","26566","48552","EBRP"
"POINT (-91.14019167545 30.421280603498)","CIRCLE K STORES INC. 2709725","2959 COLLEGE DR","BATON ROUGE","LOUISIANA","UNITED STATES","70808","BATON ROUGE","YES","447000","225-923-1075","http://circlek.com/","30","-91","26586","66553","EBRP"
"POINT (-91.017230298588 30.406394358962)","NAGOYA CAFE INC","15130 MARKET ST","BATON ROUGE","LOUISIANA","UNITED STATES","70817","PARISH","YES","722000",,,"30","-91","33135","31097","EBRP"
"POINT (-91.018204245118 30.407430125394)","JONES CREEK CAFE & OYSTER BAR","15005 MARKET ST","BATON ROUGE","LOUISIANA","UNITED STATES","70817","PARISH","YES","722211",,,"30","-91","10518","30405","EBRP"
"POINT (-91.13493445752 30.506444098765)","KWIK STOP","5505 AIRLINE HWY","BATON ROUGE","LOUISIANA","UNITED STATES","70812","BATON ROUGE","YES","447110",,,"31","-91","2142","94326","EBRP"
"POINT (-91.156355165605 30.461180917209)","ADAMS GROCERY","1455 N ACADIAN THWY W","BATON ROUGE","LOUISIANA","UNITED STATES","70802","BATON ROUGE","YES","722410",,,"30","-91","20075","28800","EBRP"
"POINT (-91.187844732356 30.447288741608)","JOLIE PEARL OYSTER BAR","311 NORTH BLVD","BATON ROUGE","LOUISIANA","UNITED STATES","70801","BATON ROUGE","YES","722000",,,"30","-91","41311","215871","EBRP"
"POINT (-91.097233560826 30.381281974523)","BUFFALO WILD WINGS GRILL & BAR","7524 BLUEBONNET BLVD","BATON ROUGE","LOUISIANA","UNITED STATES","70810","PARISH","YES","722000",,,"30","-91","25772","140366","EBRP"
"POINT (-91.163282195868 30.485767507914)","WELLER FOOD MART","2605 WELLER AVE","BATON ROUGE","LOUISIANA","UNITED STATES","70805","BATON ROUGE","YES","445110","225-358-0681",,"30","-91","38176","61909","EBRP"
"POINT (-91.155574447672 30.46306129596)","P2K LLC","1643 N ACADIAN THWY E","BATON ROUGE","LOUISIANA","UNITED STATES","70802","BATON ROUGE","YES","722000",,,"30","-91","59984","37514","EBRP"
"POINT (-91.188569649763 30.449807486085)","CITY BAR","331 3RD ST","BATON ROUGE","LOUISIANA","UNITED STATES","70801","BATON ROUGE","YES","445000",,,"30","-91","67343","157390","EBRP"
"POINT (-91.177983856442 30.520123866596)","COLEMANS MINI-MART","1472 HARDING BLVD","BATON ROUGE","LOUISIANA","UNITED STATES","70807","BATON ROUGE","YES","445120",,,"31","-91","14172","29677","EBRP"
"POINT (-91.061084912375 30.384713213326)","TARGET STORE T-1369","6885 SIEGEN LN","BATON ROUGE","LOUISIANA","UNITED STATES","70809","PARISH","YES","453000",,,"30","-91","36741","106982","EBRP"
"POINT (-91.073389169778 30.426302465685)","CRACKER BARREL OLD COUNTRY STORE","10250 PLAZA AMERICANA DR","BATON ROUGE","LOUISIANA","UNITED STATES","70816","BATON ROUGE","YES","722110",,,"30","-91","2476","2384","EBRP"
"POINT (-91.098368800138 30.377492745946)","CASA MARIA MEXICAN RESTAURANT","7955 BLUEBONNET BLVD","BATON ROUGE","LOUISIANA","UNITED STATES","70810","PARISH","YES","722000",,,"30","-91","26171","114557","EBRP"
"POINT (-91.181014776212 30.402511289085)","WALK-ONS BURBANK","3838 BURBANK DR","BATON ROUGE","LOUISIANA","UNITED STATES","70808","BATON ROUGE","YES","722000",,,"30","-91","38083","77290","EBRP"
"POINT (-91.123283853312 30.588452651485)","KEEP MOVING FOOD MART","6890 KENT DR","BAKER","LOUISIANA","UNITED STATES","70714","PARISH","YES","445120",,,"31","-91","17207","139466","EBRP"
"POINT (-91.110319159764 30.429292106531)","BOCAGE RACQUET CLUB","7600 JEFFERSON HWY","BATON ROUGE","LOUISIANA","UNITED STATES","70809","BATON ROUGE","YES","713000",,,"30","-91","25466","143273","EBRP"
"POINT (-91.057620966654 30.467518623082)","K & D GROCERY","2068 N SHERWOOD FOREST DR","BATON ROUGE","LOUISIANA","UNITED STATES","70815","BATON ROUGE","YES","445120",,,"30","-91","17498","139379","EBRP"
"POINT (-91.111833188622 30.456854979609)","CHATEAU LOUISIANNE HOTEL AND LOUNGE","710 LOBDELL BLVD","BATON ROUGE","LOUISIANA","UNITED STATES","70806","BATON ROUGE","YES","721000",,,"30","-91","26393","108450","EBRP"
"POINT (-91.168297740922 30.46899420652)","21ST CENTURY BAR AND LOUNGE","2347 SCENIC HWY","BATON ROUGE","LOUISIANA","UNITED STATES","70802","BATON ROUGE","YES","722000",,,"30","-91","23506","58535","EBRP"
"POINT (-91.154787784413 30.422868231169)","ACME OYSTER HOUSE","3535 STE 100 PERKINS RD","BATON ROUGE","LOUISIANA","UNITED STATES","70808","BATON ROUGE","YES","722000",,,"30","-91","23844","151740","EBRP"
"POINT (-91.072590951327 30.456025328341)","LA FOOD MART","9988 FLORIDA BLVD","BATON ROUGE","LOUISIANA","UNITED STATES","70815","BATON ROUGE","YES","445000",,,"30","-91","31486","129775","EBRP"
"POINT (-91.035310117267 30.410459112534)","SAVE MORE MARKET #7","12929 COURSEY BLVD","BATON ROUGE","LOUISIANA","UNITED STATES","70817","PARISH","YES","445000",,,"30","-91","66601","135706","EBRP"
"POINT (-91.168180143744 30.465118772853)","PETERS GROCERY","1915 SCENIC HWY","BATON ROUGE","LOUISIANA","UNITED STATES","70802","BATON ROUGE","YES","445110","225-346-6868",,"30","-91","33910","48787","EBRP"
"POINT (-91.157293368532 30.520455974602)","HILTON GARDENS INN","3330 HARDING BLVD","BATON ROUGE","LOUISIANA","UNITED STATES","70807","BATON ROUGE","YES","722000",,,"31","-91","47657","71579","EBRP"
"POINT (-91.168835891207 30.385299995787)","TIGER PAW DAIQUIRIS","5635 NICHOLSON DR","BATON ROUGE","LOUISIANA","UNITED STATES","70820","BATON ROUGE","YES","445000",,,"30","-91","67913","238706","EBRP"
"POINT (-91.009001527536 30.460556772882)","FOOD N GEAUX","15913 STE C OLD HAMMOND HWY","BATON ROUGE","LOUISIANA","UNITED STATES","70808","PARISH","YES","447000",,,"30","-91","41034","230739","EBRP"
"POINT (-91.108490771562 30.394680402191)","PIZZA ART WINE LLC","7673 STE C1 PERKINS RD","BATON ROUGE","LOUISIANA","UNITED STATES","70810","BATON ROUGE","YES","722000",,,"30","-91","67177","237386","EBRP"
"POINT (-91.061776535438 30.433298527438)","MAISON LACOUR FRENCH RESTAURANT","11025 N HARRELL'S FERRY RD","BATON ROUGE","LOUISIANA","UNITED STATES","70816","BATON ROUGE","YES","722110",,,"30","-91","5445","140382","EBRP"
"POINT (-91.147536010246 30.444720210892)","LA CARRETA","4065 GOVERNMENT ST","BATON ROUGE","LOUISIANA","UNITED STATES","70806","BATON ROUGE","YES","722000",,,"30","-91","31471","79871","EBRP"
"POINT (-91.160415282183 30.499907940292)","HOLDEN'S GROCERY & PACKAGE","5520 DOUGLAS AVE","BATON ROUGE","LOUISIANA","UNITED STATES","70805","BATON ROUGE","YES","445110","225-356-6945",,"30","-91","4163","94506","EBRP"
"POINT (-91.157213221933 30.38711969983)","BURBANK DAIQUIRIS LLC","411 STE C BEN HUR RD","BATON ROUGE","LOUISIANA","UNITED STATES","70820","PARISH","YES","722000",,,"30","-91","64077","234302","EBRP"
"POINT (-91.083349828105 30.370751419952)","BIG EZ DISCOUNT","11930 STE B PERKINS RD","BATON ROUGE","LOUISIANA","UNITED STATES","70816","PARISH","YES","445000",,,"30","-91","47228","227722","EBRP"
"POINT (-91.054922866867 30.376654952758)","HAMPTON INN & SUITES","11271 RIEGER RD","BATON ROUGE","LOUISIANA","UNITED STATES","70809","PARISH","YES","721000",,,"30","-91","29779","142607","EBRP"
"POINT (-91.060857509783 30.414732325998)","THE CHIMES EAST","10870 COURSEY BLVD","BATON ROUGE","LOUISIANA","UNITED STATES","70816","PARISH","YES","722000",,,"30","-91","36920","7589","EBRP"
"POINT (-91.025287335169 30.451750207125)","STOP N SAVE","14445 OLD HAMMOND HWY","BATON ROUGE","LOUISIANA","UNITED STATES","70819","PARISH","YES","453000",,,"30","-91","47546","28282","EBRP"
"POINT (-91.148503624213 30.514923976954)","SWIFTYS VN","7175 PLANK RD","BATON ROUGE","LOUISIANA","UNITED STATES","70811","BATON ROUGE","YES","447000",,,"31","-91","36614","141346","EBRP"
"POINT (-91.14082662498 30.417791942999)","THAI KITCHEN FUSION","4550 CONCORD AVE","BATON ROUGE","LOUISIANA","UNITED STATES","70808","BATON ROUGE","YES","722000",,,"30","-91","46069","135851","EBRP"
"POINT (-91.111107000848 30.443915939573)","OLD NEW ORLEANS BAR AND GRILL","648 LOBDELL AVE","BATON ROUGE","LOUISIANA","UNITED STATES","70806","BATON ROUGE","YES","722110",,,"30","-91","10568","133960","EBRP"
"POINT (-91.194042482089 30.538347562452)","SEWELL'S COMMUNITY GROCERY STORE","469 ELMER AVE","BATON ROUGE","LOUISIANA","UNITED STATES","70807","BATON ROUGE","YES","445110","225-774-7336",,"31","-91","7424","85918","EBRP"
"POINT (-91.04576525668 30.39518870146)","LA CONTEA ITALIAN RESTAURANT","12333 STE F JEFFERSON HWY","BATON ROUGE","LOUISIANA","UNITED STATES","70816","BATON ROUGE","YES","722000",,,"30","-91","47350","227205","EBRP"
"POINT (-91.052326308334 30.424881738185)","NEW ORLEANS ORIGINAL DAIQUIRIS","3034 STE B2 S SHERWOOD FOREST BLVD","BATON ROUGE","LOUISIANA","UNITED STATES","70816","BATON ROUGE","YES","722000",,,"30","-91","67387","247246","EBRP"
"POINT (-91.139424359119 30.420376907708)","GINOS RESTAURANT","4542 BENNINGTON AVE","BATON ROUGE","LOUISIANA","UNITED STATES","70808","BATON ROUGE","YES","722000",,,"30","-91","29346","84550","EBRP"
"POINT (-91.032291145878 30.343458621559)","MJB LLC","17624 N GREENS AVE","BATON ROUGE","LOUISIANA","UNITED STATES","70810","PARISH","YES","531000",,,"30","-91","46396","101893","EBRP"
"POINT (-91.112883794173 30.434202377707)","CITY PORK BRASSERIE & BAR","7327 JEFFERSON HWY","BATON ROUGE","LOUISIANA","UNITED STATES","70806","BATON ROUGE","YES",,,,"30","-91","60335","110275","EBRP"
"POINT (-91.130801659719 30.581517902281)","CVS PHARMACY","6404 STE A GROOM RD","BAKER","LOUISIANA","UNITED STATES","70714","BAKER","YES","446110",,"http://cvs.com/","31","-91","2569","191455","EBRP"
"POINT (-91.094894757563 30.379211043167)","CINEMARK PERKINS ROWE","10000 STE 125 PERKINS ROWE","BATON ROUGE","LOUISIANA","UNITED STATES","70810","PARISH","YES","512131",,,"30","-91","2132","220013","EBRP"
"POINT (-90.988205787334 30.533915723382)","CIRCLE K STORE #2706799","18696 MAGNOLIA BRIDGE RD","GREENWELL SPRINGS","LOUISIANA","UNITED STATES","70739","CENTRAL","YES","447000",,,"31","-91","59897","202682","EBRP"
"POINT (-91.127063000707 30.354409335676)","CEDAR","1707 STE A GARDERE LN","BATON ROUGE","LOUISIANA","UNITED STATES","70810","PARISH","YES","722000",,,"30","-91","66933","212609","EBRP"
"POINT (-91.141712343508 30.37525502286)","SPRINT PCS","7490 BURBANK DR","BATON ROUGE","LOUISIANA","UNITED STATES","70820","PARISH","YES","453998",,,"30","-91","16137","111554","EBRP"
"POINT (-91.107226674337 30.394003296829)","ROMANS CAFE","7731 STE 110 PERKINS RD","BATON ROUGE","LOUISIANA","UNITED STATES","70810","BATON ROUGE","YES","722000",,,"30","-91","35138","163746","EBRP"
"POINT (-91.05845302834 30.433203678488)","RITE AID #7324","2152 S SHERWOOD FOREST BLVD","BATON ROUGE","LOUISIANA","UNITED STATES","70816","BATON ROUGE","YES","446000","225-272-5370","https://riteaid.com/","30","-91","35001","136253","EBRP"
"POINT (-91.111038150986 30.433832817477)","CIRCLE K #8036","7475 JEFFERSON HWY","BATON ROUGE","LOUISIANA","UNITED STATES","70806","BATON ROUGE","YES","447000",,"http://circlek.com/","30","-91","26569","111483","EBRP"
"POINT (-91.129532702084 30.502755051569)","GREENWELL CONVENIENCE STORE","6055 GREENWELL ST","BATON ROUGE","LOUISIANA","UNITED STATES","70812","BATON ROUGE","YES","453000",,,"31","-91","29563","100072","EBRP"
"POINT (-91.060929640425 30.392131749945)","T J RIBS","6330 SIEGEN LN","BATON ROUGE","LOUISIANA","UNITED STATES","70809","PARISH","YES","722000",,,"30","-91","36658","139336","EBRP"
"POINT (-91.162474266425 30.390048735771)","FINBOMBSUSHI BURITO AND POKE LLC","660 STE F ARLINGTON CREEK CENTRE BLVD","BATON ROUGE","LOUISIANA","UNITED STATES","70820","BATON ROUGE","YES","722000",,,"30","-91","64169","234571","EBRP"
"POINT (-91.110296552021 30.394666543614)","WALGREENS #17647","2159 STARING LN","BATON ROUGE","LOUISIANA","UNITED STATES","70808","BATON ROUGE","YES","446000",,"https://walgreens.com/","30","-91","34997","54681","EBRP"
"POINT (-91.187993413776 30.43188106131)","CHINESE INN NICHOLSON","1710 NICHOLSON DR","BATON ROUGE","LOUISIANA","UNITED STATES","70802","BATON ROUGE","YES","722000",,,"30","-91","26482","134268","EBRP"
"POINT (-91.154526643416 30.443676204725)","CVS PHARMACY INC #5324","3384 GOVERNMENT ST","BATON ROUGE","LOUISIANA","UNITED STATES","70806","BATON ROUGE","YES","446110","225-387-5600","http://cvs.com/","30","-91","27273","133198","EBRP"
"POINT (-91.127332216543 30.580078725736)","CIRCLE K STORE #2707647","14689 PLANK RD","BAKER","LOUISIANA","UNITED STATES","70714","BAKER","YES","447000",,,"31","-91","41828","191550","EBRP"
"POINT (-91.135901051297 30.373963781346)","YOUR MOMS RESTAURANT AND BAR","7907 VALENCIA CT","BATON ROUGE","LOUISIANA","UNITED STATES","70820","PARISH","YES","722000",,,"30","-91","45380","176955","EBRP"
"POINT (-91.023952060964 30.433235289208)","ROTOLOS PIZZERIA","2985 MILLERVILLE RD","BATON ROUGE","LOUISIANA","UNITED STATES","70816","BATON ROUGE","YES","722000",,,"30","-91","35194","151251","EBRP"
"POINT (-91.130890419814 30.443069745462)","REGINELLIS GOODWOOD LLC","684 JEFFERSON HWY","BATON ROUGE","LOUISIANA","UNITED STATES","70806","BATON ROUGE","YES","722000",,,"30","-91","34811","106753","EBRP"
"POINT (-91.161684476186 30.393283577661)","DEANGELOS PIZZERIA CO.","250 W LEE DR","BATON ROUGE","LOUISIANA","UNITED STATES","70808","BATON ROUGE","YES","722110",,,"30","-91","15458","55264","EBRP"
"POINT (-91.111458539361 30.432219053371)","WHOLE FOODS MARKET","7529 CORPORATE BLVD","BATON ROUGE","LOUISIANA","UNITED STATES","70806","BATON ROUGE","YES","445110","225-218-0452","http://wholefoodsmarket.com/","30","-91","17314","139739","EBRP"
"POINT (-91.190193180012 30.533049684538)","TRIPLET FOOD MART","605 MILLS AVE","BATON ROUGE","LOUISIANA","UNITED STATES","70807","BATON ROUGE","YES","445000",,,"31","-91","37601","99915","EBRP"
"POINT (-91.123101990641 30.405494969167)","SEROPS CAFE","6301 PERKINS RD","BATON ROUGE","LOUISIANA","UNITED STATES","70808","BATON ROUGE","YES","722000",,,"30","-91","35613","102432","EBRP"
"POINT (-91.065375005441 30.434302483758)","RACETRAC #248","10738 OLD HAMMOND HWY","BATON ROUGE","LOUISIANA","UNITED STATES","70816","BATON ROUGE","YES","453000",,,"30","-91","34568","148224","EBRP"
"POINT (-91.117654774904 30.474285631072)","CITY TOWN MARKET","7144 STE A GREENWELL SPRINGS RD","BATON ROUGE","LOUISIANA","UNITED STATES","70805","BATON ROUGE","YES","447000",,,"30","-91","50553","136653","EBRP"
"POINT (-91.137081217655 30.425932052504)","JUBILEE 2","2385 COLLEGE DR","BATON ROUGE","LOUISIANA","UNITED STATES","70808","BATON ROUGE","YES","445000",,,"30","-91","31053","59075","EBRP"
"POINT (-91.189545908202 30.448569860027)","HILTON BATON ROUGE CAPITOL CENTER","201 LAFAYETTE ST","BATON ROUGE","LOUISIANA","UNITED STATES","70801","BATON ROUGE","YES","722000",,,"30","-91","30041","139613","EBRP"
"POINT (-91.155274228142 30.450714740502)","CIRCLE K STORE #2707653","3373 FLORIDA ST","BATON ROUGE","LOUISIANA","UNITED STATES","70806","BATON ROUGE","YES","445110","225-383-0422","http://circlek.com/","30","-91","26592","72169","EBRP"
"POINT (-91.09879588211 30.453204723741)","REVOLUTION NIGHT CLUB","8419 FLORIDA BLVD","BATON ROUGE","LOUISIANA","UNITED STATES","70806","BATON ROUGE","YES","722000",,,"30","-91","47601","136723","EBRP"
"POINT (-91.180060495207 30.525018690059)","VINCES LIQUOR","8556 SCOTLAND AVE","BATON ROUGE","LOUISIANA","UNITED STATES","70807","BATON ROUGE","YES","445000",,,"31","-91","46750","118770","EBRP"
"POINT (-91.015164490832 30.409798752988)","CAFE AMERICAIN","15255 STE L GEORGE O'NEAL RD","BATON ROUGE","LOUISIANA","UNITED STATES","70817","PARISH","YES","722110",,,"30","-91","11411","135465","EBRP"
"POINT (-91.102087824873 30.422002641307)","PATS CAJUN SEAFOOD & STEAK","8200 JEFFERSON HWY","BATON ROUGE","LOUISIANA","UNITED STATES","70809","BATON ROUGE","YES","722000",,,"30","-91","41242","116182","EBRP"
"POINT (-91.156978929662 30.478792693974)","QUICK MART","3333 N ACADIAN THWY","BATON ROUGE","LOUISIANA","UNITED STATES","70805","BATON ROUGE","YES","447000",,,"30","-91","17900","71614","EBRP"
"POINT (-91.014519192054 30.408558549054)","GEORGES O NEAL","15321 GEORGE O'NEAL RD","BATON ROUGE","LOUISIANA","UNITED STATES","70817","PARISH","YES","722000",,,"30","-91","29296","144703","EBRP"
"POINT (-91.143659833857 30.494615205432)","BEECHWOOD MEAT MARKET","4850 BEECHWOOD DR","BATON ROUGE","LOUISIANA","UNITED STATES","70805","BATON ROUGE","YES","445000",,,"30","-91","25177","87362","EBRP"
"POINT (-91.087849033175 30.388536771475)","HANA'S","6401 STE 400 BLUEBONNET BLVD","BATON ROUGE","LOUISIANA","UNITED STATES","70836","BATON ROUGE","YES","448000",,,"30","-91","63179","230265","EBRP"
"POINT (-91.048177596807 30.389646588687)","MIKE WILLIES RESTAURANT AND BAR","11950 CLOVERLAND AVE","BATON ROUGE","LOUISIANA","UNITED STATES","70809","PARISH","YES","722000",,,"30","-91","32833","14159","EBRP"
"POINT (-91.126407353546 30.502682619575)","RAGUSA MEAT MARKET","6525 GREENWELL ST","BATON ROUGE","LOUISIANA","UNITED STATES","70812","PARISH","YES","445000",,,"31","-91","34601","104515","EBRP"
"POINT (-91.114256291935 30.43111655694)","P F CHANGS CHINA BISTRO","7341 CORPORATE BLVD","BATON ROUGE","LOUISIANA","UNITED STATES","70809","PARISH","YES","722110",,,"30","-91","17351","110444","EBRP"
"POINT (-90.992086243326 30.355346079963)","ON THE RUN #14","18211 JEFFERSON HWY","BATON ROUGE","LOUISIANA","UNITED STATES","70817","PARISH","YES","447110",,,"30","-91","3246","45617","EBRP"
"POINT (-91.151121223901 30.459329951916)","KTC GROCERY","1222 N 39TH ST","BATON ROUGE","LOUISIANA","UNITED STATES","70802","BATON ROUGE","YES","453000","'",,"30","-91","47675","16001","EBRP"
"POINT (-91.059168985978 30.457737574083)","ASIAN SUPERMARKET","11244 FLORIDA BLVD","BATON ROUGE","LOUISIANA","UNITED STATES","70815","BATON ROUGE","YES",,,,"30","-91","60273","137242","EBRP"
"POINT (-91.157315420551 30.398568107117)","ST JAMES PLACE OF BATON ROUGE","333 LEE DR","BATON ROUGE","LOUISIANA","UNITED STATES","70808","BATON ROUGE","YES","813000",,,"30","-91","36222","71557","EBRP"
"POINT (-91.07178552618 30.455661258639)","LAN MENG RESTAURANT","175 SHARP RD","BATON ROUGE","LOUISIANA","UNITED STATES","70815","BATON ROUGE","YES","722110",,,"30","-91","17070","139257","EBRP"
"POINT (-91.156911386146 30.48157775809)","ACADIAN SUPERETTE","3609 N ACADIAN THWY","BATON ROUGE","LOUISIANA","UNITED STATES","70805","BATON ROUGE","YES","445110","225-357-0276",,"30","-91","23775","74784","EBRP"
"POINT (-91.083387521405 30.437382073544)","DIM SUM SEAFOOD RESTAURANT","9431 DELCOURT AVE","BATON ROUGE","LOUISIANA","UNITED STATES","70815","BATON ROUGE","YES","722110",,,"30","-91","2809","125434","EBRP"
"POINT (-91.050993321785 30.412306016011)","TIGER SUSHI","4611 S SHERWOOD FOREST BLVD","BATON ROUGE","LOUISIANA","UNITED STATES","70816","BATON ROUGE","YES","722000",,,"30","-91","37311","135601","EBRP"
"POINT (-91.180377776597 30.427142051608)","SPLASH","2183 HIGHLAND RD","BATON ROUGE","LOUISIANA","UNITED STATES","70802","BATON ROUGE","YES","423910",,,"30","-91","7767","55097","EBRP"
"POINT (-91.180241283925 30.396325017735)","AKASHA MARKET","1190 BOB PETTIT BLVD","BATON ROUGE","LOUISIANA","UNITED STATES","70820","BATON ROUGE","YES","445110","225-766-6478",,"30","-91","24042","13770","EBRP"
"POINT (-91.154606530649 30.422226446294)","CIRCLE K  STORES INC 2709717","3375 PERKINS RD","BATON ROUGE","LOUISIANA","UNITED STATES","70808","BATON ROUGE","YES","447000","225-387-5887","http://circlek.com/","30","-91","26578","72193","EBRP"
"POINT (-91.167799794342 30.586143267979)","WAL MART SUPERCENTER #1102","3115 TRUMAN ST","BAKER","LOUISIANA","UNITED STATES","70714","BAKER","YES","453000",,,"31","-91","40455","189122","EBRP"
"POINT (-91.08294020452 30.432298428295)","ALBERTSONS #2712","9650 AIRLINE HWY","BATON ROUGE","LOUISIANA","UNITED STATES","70815","BATON ROUGE","YES","445110","225-926-9304","http://albertsons.com/","30","-91","24067","127485","EBRP"
"POINT (-91.041486786516 30.442440857825)","LAKE HOUSE RECEPTION CENTER","12323 OLD HAMMOND HWY","BATON ROUGE","LOUISIANA","UNITED STATES","70816","BATON ROUGE","YES","531120",,,"30","-91","12845","136269","EBRP"
"POINT (-91.106096428937 30.401424244941)","WALGREENS #3047","5112 ESSEN LN","BATON ROUGE","LOUISIANA","UNITED STATES","70809","BATON ROUGE","YES","446110","225-769-7224","http://walgreens.com/","30","-91","38072","89507","EBRP"
"POINT (-91.137218245201 30.424652756873)","HOOTERS","5120 CORPORATE BLVD","BATON ROUGE","LOUISIANA","UNITED STATES","70808","BATON ROUGE","YES","722000",,,"30","-91","30143","139532","EBRP"
"POINT (-91.179664712798 30.527176408905)","RAGUSA'S MEAT MARKET","8818 SCOTLAND AVE","BATON ROUGE","LOUISIANA","UNITED STATES","70807","BATON ROUGE","YES","445000",,,"31","-91","34603","120263","EBRP"
"POINT (-91.203261428984 30.613276273172)","TEDDYS BAR & LOUNGE","17001 OLD SCENIC HWY","ZACHARY","LOUISIANA","UNITED STATES","70791","PARISH","YES","722000",,,"31","-91","38674","39942","EBRP"
"POINT (-91.171436178277 30.443925168545)","JIM & LU GROCERY FOODMART","1701 GOVERNMENT ST","BATON ROUGE","LOUISIANA","UNITED STATES","70802","BATON ROUGE","YES","445110","225-381-3938",,"30","-91","30875","136070","EBRP"
"POINT (-91.052120898214 30.423800303564)","NAGOYA","3202 S SHERWOOD FOREST BLVD","BATON ROUGE","LOUISIANA","UNITED STATES","70816","BATON ROUGE","YES","722000",,,"30","-91","33134","69967","EBRP"
"POINT (-91.063688381008 30.457413523191)","EL RANCHO MEXICAN GRILL","10820 FLORIDA BLVD","BATON ROUGE","LOUISIANA","UNITED STATES","70815","BATON ROUGE","YES","722110",,,"30","-91","13431","7139","EBRP"
"POINT (-90.996676500916 30.603947206487)","INDIAN MOUND GROCERY AND DELI","16935 LIBERTY RD","GREENWELL SPRINGS","LOUISIANA","UNITED STATES","70739","CENTRAL","YES","445000",,,"31","-91","48583","202042","EBRP"
"POINT (-91.143159357738 30.418858133525)","WAL MART SUPERCENTER #1206","3132 STE E COLLEGE DR","BATON ROUGE","LOUISIANA","UNITED STATES","70808","BATON ROUGE","YES","445110","225-952-9022","http://walmart.com/","30","-91","38058","139200","EBRP"
"POINT (-91.192702619312 30.655998604341)","JETTS FOOD MART #8","20670 OLD SCENIC HWY","ZACHARY","LOUISIANA","UNITED STATES","70791","ZACHARY","YES","447000",,,"31","-91","64294","192186","EBRP"
"POINT (-91.193944047549 30.654320067963)","CVS PHARMACY #1924","20501 OLD SCENIC HWY","ZACHARY","LOUISIANA","UNITED STATES","70791","ZACHARY","YES","446000",,,"31","-91","47172","192127","EBRP"
"POINT (-91.028010267416 30.538303202255)","LIT PIZZA- CENTRAL","9850 STE E SULLIVAN RD","CENTRAL","LOUISIANA","UNITED STATES","70818","CENTRAL","YES","445000",,,"31","-91","67271","247526","EBRP"
"POINT (-91.224600432651 30.666212184005)","STEVENSON QUICK PACK","1213 FLONACHER RD","ZACHARY","LOUISIANA","UNITED STATES","70791","PARISH","YES","445000",,,"31","-91","38669","181430","EBRP"
"POINT (-91.124745791139 30.36129769552)","L'AUBERGE BATON ROUGE","9327 BURBANK DR","BATON ROUGE","LOUISIANA","UNITED STATES","70820","PARISH","YES","611513",,,"30","-91","22402","143072","EBRP"
"POINT (-91.124822479104 30.503136251937)","SILVERLEAF GROCERY","5742 SILVERLEAF AVE","BATON ROUGE","LOUISIANA","UNITED STATES","70812","PARISH","YES","445110","2255-355-2219",,"31","-91","7558","96961","EBRP"
"POINT (-91.139464446181 30.468022250423)","CORTEZ BUSINESS OF ART","2112 N FOSTER DR","BATON ROUGE","LOUISIANA","UNITED STATES","70806","BATON ROUGE","YES","448000",,,"30","-91","38736","53275","EBRP"
"POINT (-91.026084021326 30.541676287722)","WAL-MART SUPERCENTER","10200 SULLIVAN RD","CENTRAL","LOUISIANA","UNITED STATES","70818","CENTRAL","YES","453000",,,"31","-91","41958","203036","EBRP"
"POINT (-91.057117022213 30.432445181198)","CIRCLE K STORES, INC 2709720","2205 S SHERWOOD FOREST BLVD","BATON ROUGE","LOUISIANA","UNITED STATES","70816","BATON ROUGE","YES","447000","225-273-3521","http://circlek.com/","30","-91","26581","55326","EBRP"
"POINT (-91.110492816167 30.35494881821)","VALERO CORNER STORE #1726","9990 BLUEBONNET BLVD","BATON ROUGE","LOUISIANA","UNITED STATES","70810","PARISH","YES","447000",,,"30","-91","37848","154028","EBRP"
"POINT (-91.159932644112 30.482324671235)","SMILES MARKET & DELI","2905 WYANDOTTE ST","BATON ROUGE","LOUISIANA","UNITED STATES","70805","BATON ROUGE","YES","445000",,,"30","-91","35893","65674","EBRP"
"POINT (-91.189309418061 30.448400599151)","HOTEL INDIGO BATON ROUGE DOWNTOWN","200 CONVENTION ST","BATON ROUGE","LOUISIANA","UNITED STATES","70801","BATON ROUGE","YES","721000",,,"30","-91","30168","51040","EBRP"
"POINT (-91.153323352093 30.504167254704)","SIMPLY FASHIONS #138","5963 PLANK RD","BATON ROUGE","LOUISIANA","UNITED STATES","70805","BATON ROUGE","YES","453000",,,"31","-91","35822","137660","EBRP"
"POINT (-91.06870878159 30.416493538801)","CIRCLE K STORE #2707659","10391 AIRLINE HWY","BATON ROUGE","LOUISIANA","UNITED STATES","70816","BATON ROUGE","YES","447000","225-239-8214","http://circlek.com/","30","-91","26596","3511","EBRP"
"POINT (-91.188987546991 30.447453820417)","TSUNAMI SUSHI","100 LAFAYETTE ST","BATON ROUGE","LOUISIANA","UNITED STATES","70801","BATON ROUGE","YES","722000",,,"30","-91","37633","136159","EBRP"
"POINT (-91.187892804534 30.421308722244)","SAVE MORE MARKET 4","2956 STE B NICHOLSON DR","BATON ROUGE","LOUISIANA","UNITED STATES","70802","BATON ROUGE","YES","445110","225-769-0404",,"30","-91","7305","136064","EBRP"
"POINT (-91.079603557802 30.431412056619)","WALGREENS # 06028","9820 OLD HAMMOND HWY","BATON ROUGE","LOUISIANA","UNITED STATES","70816","BATON ROUGE","YES","446110","225-248-1104","http://walgreens.com/","30","-91","38063","128581","EBRP"
"POINT (-91.140476636816 30.381600753876)","FAST STOP","266 SEYBURN DR","BATON ROUGE","LOUISIANA","UNITED STATES","70808","BATON ROUGE","YES","447000",,,"30","-91","66410","62766","EBRP"
"POINT (-91.032378207922 30.447467147944)","FAMILY DOLLAR STORES OF LA #8158","13559 OLD HAMMOND HWY","BATON ROUGE","LOUISIANA","UNITED STATES","70816","PARISH","YES","453000",,,"30","-91","48392","23993","EBRP"
"POINT (-91.179194761938 30.423575440991)","CARUSO GROCERY","2608 HIGHLAND RD","BATON ROUGE","LOUISIANA","UNITED STATES","70802","BATON ROUGE","YES","445110","225-343-5736",,"30","-91","1843","61930","EBRP"
"POINT (-91.178202521566 30.422169458324)","UNIVERSITY SEAFOOD INC","2819 HIGHLAND RD","BATON ROUGE","LOUISIANA","UNITED STATES","70802","BATON ROUGE","YES","445000",,,"30","-91","37788","64624","EBRP"
"POINT (-91.130062124391 30.501761321109)","WALGREENS #07836","5955 AIRLINE HWY","BATON ROUGE","LOUISIANA","UNITED STATES","70805","BATON ROUGE","YES","446110","225-924-3880","http://walgreens.com/","31","-91","8703","98881","EBRP"
"POINT (-91.097154661348 30.379299455245)","CVS PHARMACY #1116","7777 STE 100 BLUEBONNET BLVD","BATON ROUGE","LOUISIANA","UNITED STATES","70810","PARISH","YES","446110","225-766-9091","http://cvs.com/","30","-91","27275","219965","EBRP"
"POINT (-91.065091498549 30.457239426296)","CIRCLE K #8080","10770 FLORIDA BLVD","BATON ROUGE","LOUISIANA","UNITED STATES","70815","BATON ROUGE","YES","447000",,"http://circlek.com/","30","-91","26576","6872","EBRP"
"POINT (-91.090138222991 30.419012616973)","BREW BACHERS #1","3554 DRUSILLA LN","BATON ROUGE","LOUISIANA","UNITED STATES","70809","BATON ROUGE","YES","722000",,,"30","-91","25629","74230","EBRP"
"POINT (-91.086499235922 30.485215763926)","B-QUICK CONVENIENCE STORE #1","9227 GREENWELL SPRINGS RD","BATON ROUGE","LOUISIANA","UNITED STATES","70814","PARISH","YES","447000",,,"30","-91","727","136364","EBRP"
"POINT (-91.038645291164 30.472174241168)","ZACHARY TAYLOR POST 3784 VFW","13214 S CHOCTAW DR","BATON ROUGE","LOUISIANA","UNITED STATES","70815","BATON ROUGE","YES","722000",,,"30","-91","38533","21883","EBRP"
"POINT (-91.169283321078 30.493485526548)","FARMER'S MEAT MARKET & DELI","4850 SCENIC HWY","BATON ROUGE","LOUISIANA","UNITED STATES","70805","BATON ROUGE","YES","445210",,,"30","-91","3334","87372","EBRP"
"POINT (-91.175776630403 30.399690265934)","DEAD POETS SALOON","623 STE A E BOYD DR","BATON ROUGE","LOUISIANA","UNITED STATES","70808","BATON ROUGE","YES","722000",,,"30","-91","64376","235001","EBRP"
"POINT (-91.084022624872 30.431978628701)","ROMANS CAFE","9634 STE F1 AIRLINE HWY","BATON ROUGE","LOUISIANA","UNITED STATES","70815","BATON ROUGE","YES","722000",,,"30","-91","35137","127326","EBRP"
"POINT (-90.978809307925 30.693591807743)","PRIDE ONE STOP","23393 LIBERTY RD","PRIDE","LOUISIANA","UNITED STATES","70770","PARISH","YES","452000",,,"31","-91","6727","58311","EBRP"
"POINT (-91.096224503023 30.379665880646)","LA MADELINE #504","7707 STE 190 BLUEBONNET BLVD","BATON ROUGE","LOUISIANA","UNITED STATES","70810","PARISH","YES","722000",,,"30","-91","42100","219963","EBRP"
"POINT (-91.11911473601 30.479997619518)","KIMS FOOD MART","7079 WINBOURNE AVE","BATON ROUGE","LOUISIANA","UNITED STATES","70805","BATON ROUGE","YES","445110","225-924-1813",,"30","-91","14267","138889","EBRP"
"POINT (-91.159113728073 30.394030798999)","CIRCLE K  STORES, INC 2709724","5377 HIGHLAND RD","BATON ROUGE","LOUISIANA","UNITED STATES","70808","BATON ROUGE","YES","447000","225-766-6365","http://circlek.com/","30","-91","26585","93161","EBRP"
"POINT (-91.090161080595 30.418591313685)","VOO DOO BBQ & GRILL","3510 DRUSILLA LN","BATON ROUGE","LOUISIANA","UNITED STATES","70809","BATON ROUGE","YES","445000",,,"30","-91","38011","73734","EBRP"
"POINT (-91.042975920281 30.49813591197)","STORE #144","5310 N FLANNERY RD","BATON ROUGE","LOUISIANA","UNITED STATES","70814","PARISH","YES","445000",,,"30","-91","36390","92167","EBRP"
"POINT (-91.177048108046 30.418663465392)","THE PITA PIT","3260 HIGHLAND RD","BATON ROUGE","LOUISIANA","UNITED STATES","70802","BATON ROUGE","YES","722000",,,"30","-91","37110","139173","EBRP"
"POINT (-91.149250857115 30.654126390613)","BAYOU BLUE GROCERY","5252 ZACHARY-SLAUGHTER HWY","ZACHARY","LOUISIANA","UNITED STATES","70791","ZACHARY","YES","445000",,,"31","-91","47220","197536","EBRP"
"POINT (-91.081397159804 30.433818633321)","B-QUICK CONVENIENCE STORE #1","9611 AIRLINE HWY","BATON ROUGE","LOUISIANA","UNITED STATES","70815","BATON ROUGE","YES","447000",,,"30","-91","727","127101","EBRP"
"POINT (-91.145704224305 30.522055757154)","CIRCLE K #9727","8133 PLANK RD","BATON ROUGE","LOUISIANA","UNITED STATES","70811","BATON ROUGE","YES","447000","225-357-5006","http://circlek.com/","31","-91","26588","115661","EBRP"
"POINT (-91.088138117677 30.490892151512)","KWIK STOP","4346 JOOR RD","BATON ROUGE","LOUISIANA","UNITED STATES","70814","PARISH","YES","447110",,,"30","-91","2142","82719","EBRP"
"POINT (-91.114963465763 30.430941210427)","FLEMINGS PRIME STEAKHOUSE & WINE BAR","7321 CORPORATE BLVD","BATON ROUGE","LOUISIANA","UNITED STATES","70809","PARISH","YES","722000",,,"30","-91","28864","110200","EBRP"
"POINT (-91.165994711219 30.56884602207)","GREENWOOD PARK TENNIS CENTER","13350 SCOTLAND-ZACHARY HWY","BAKER","LOUISIANA","UNITED STATES","70714","PARISH","YES",,,,"31","-91","62875","179550","EBRP"
"POINT (-91.158667210178 30.425739065548)","DIGIULIO BROTHERS RESTAURANT","2903 PERKINS RD","BATON ROUGE","LOUISIANA","UNITED STATES","70808","BATON ROUGE","YES","722000",,,"30","-91","27721","65648","EBRP"
"POINT (-91.050989558563 30.410636816212)","WALGREENS #2980","4747 S SHERWOOD FOREST BLVD","BATON ROUGE","LOUISIANA","UNITED STATES","70816","BATON ROUGE","YES","446110","225-292-8975","http://walgreens.com/","30","-91","38068","86479","EBRP"
"POINT (-91.192553104855 30.655259458667)","JETT'S FOOD MART #7","4760 OLD SCENIC HWY","ZACHARY","LOUISIANA","UNITED STATES","70791","ZACHARY","YES","453000",,,"31","-91","47111","195308","EBRP"
"POINT (-91.155037058336 30.492478394224)","DAVE BROTHERS INC","4670 PLANK RD","BATON ROUGE","LOUISIANA","UNITED STATES","70805","BATON ROUGE","YES","453000",,,"30","-91","27436","85858","EBRP"
"POINT (-91.165104097083 30.594907469222)","ALDENS SCHOOL OF COSMETOLOGY","2024 MAIN ST","BAKER","LOUISIANA","UNITED STATES","70714","BAKER","YES","611511",,,"31","-91","13748","190256","EBRP"
"POINT (-91.188065353544 30.447671884203)","DOWNTOWN SEAFOOD","130 3RD ST","BATON ROUGE","LOUISIANA","UNITED STATES","70801","BATON ROUGE","YES","722000",,,"30","-91","12615","136157","EBRP"
"POINT (-91.13880316809 30.42018429099)","THE STATION","4608 BENNINGTON AVE","BATON ROUGE","LOUISIANA","UNITED STATES","70808","BATON ROUGE","YES","722000",,,"30","-91","37165","85026","EBRP"
"POINT (-91.139628532202 30.446866661699)","THE EXECUTIVE CENTER","250 STE B S FOSTER DR","BATON ROUGE","LOUISIANA","UNITED STATES","70806","BATON ROUGE","YES","815000",,,"31","-91","67772","251144","EBRP"
"POINT (-91.088890650165 30.419917728939)","NEW ORLEANS ORIGINAL DAIQUIRIS","3404 DRUSILLA LN","BATON ROUGE","LOUISIANA","UNITED STATES","70809","BATON ROUGE","YES","722000",,,"30","-91","67385","135370","EBRP"
"POINT (-91.139605746115 30.4536196676)","Q MART","585 N FOSTER DR","BATON ROUGE","LOUISIANA","UNITED STATES","70806","BATON ROUGE","YES","453000",,,"30","-91","38480","98023","EBRP"
"POINT (-91.147802526714 30.5132694676)","BORDELONS SUPER SAVE INC","6920 PLANK RD","BATON ROUGE","LOUISIANA","UNITED STATES","70811","BATON ROUGE","YES","446110","(225) 356-0253","http://bordelonssupersave.com","31","-91","25532","107249","EBRP"
"POINT (-91.151734652679 30.443849212661)","CIRCLE K STORES #2706819","3676 GOVERNMENT ST","BATON ROUGE","LOUISIANA","UNITED STATES","70806","BATON ROUGE","YES","447000",,,"30","-91","59779","75609","EBRP"
"POINT (-91.028208260945 30.514395445538)","OAK POINT FRESH MARKET CENTRAL","14485 GREENWELL SPRINGS RD","GREENWELL SPRINGS","LOUISIANA","UNITED STATES","70739","CENTRAL","YES","445000",,,"31","-91","46174","202257","EBRP"
"POINT (-91.023506813264 30.542611210138)","LAS PALMAS MEXICAN RESTAURANT","14790 STE 102 WAX RD","CENTRAL","LOUISIANA","UNITED STATES","70818","CENTRAL","YES","722000",,,"31","-91","31657","221267","EBRP"
"POINT (-91.159927187871 30.395250974844)","WAL MART NEIGHBORHOOD MARKET #4659","5255 HIGHLAND RD","BATON ROUGE","LOUISIANA","UNITED STATES","70808","BATON ROUGE","YES","445110","225-766-7776","http://walmart.com/","30","-91","38055","143010","EBRP"
"POINT (-91.106789991502 30.400558520507)","INDIA'S RESTAURANT","5230 ESSEN LN","BATON ROUGE","LOUISIANA","UNITED STATES","70809","BATON ROUGE","YES","722211",,,"30","-91","4321","140815","EBRP"
"POINT (-91.161627306772 30.450368073826)","ONE STOP GROCERY & DISCOUNT LIQUOR","2601 FLORIDA ST","BATON ROUGE","LOUISIANA","UNITED STATES","70802","BATON ROUGE","YES","445110","225-338-1380",,"30","-91","33506","61840","EBRP"
"POINT (-91.088012463669 30.373937932147)","REVE STICK","8211 STE A VILLAGE PLAZA CT","BATON ROUGE","LOUISIANA","UNITED STATES","70810","PARISH","YES","722000",,,"30","-91","66985","239822","EBRP"
"POINT (-91.107639647404 30.430743889205)","PORTOBELLOS GRILL","7622 OLD HAMMOND HWY","BATON ROUGE","LOUISIANA","UNITED STATES","70809","BATON ROUGE","YES","722000",,,"30","-91","34147","144290","EBRP"
"POINT (-91.044006234775 30.431544906229)","BAYOU BELLE","12532 S HARRELL'S FERRY RD","BATON ROUGE","LOUISIANA","UNITED STATES","70816","BATON ROUGE","YES","447000",,,"30","-91","25097","18877","EBRP"
"POINT (-91.131676739307 30.421525720832)","DOUBLE TREE by HILTON BATON ROUGE","4964 CONSTITUTION AVE","BATON ROUGE","LOUISIANA","UNITED STATES","70808","BATON ROUGE","YES","721000",,,"30","-91","27928","143313","EBRP"
"POINT (-91.146124716071 30.646894549866)","CHILI'S BAR AND GRILL #1059","5520 MAIN ST","ZACHARY","LOUISIANA","UNITED STATES","70791","ZACHARY","YES","722000",,,"31","-91","47190","196543","EBRP"
"POINT (-91.17799235104 30.397074279569)","TIGERLAND MARKET INC","4383 NICHOLSON DR","BATON ROUGE","LOUISIANA","UNITED STATES","70808","BATON ROUGE","YES","445000",,,"30","-91","37316","83094","EBRP"
"POINT (-91.155385446102 30.4923063338)","SAVE MORE MARKET #6","4670 STE A PLANK RD","BATON ROUGE","LOUISIANA","UNITED STATES","70805","BATON ROUGE","YES","445000",,,"30","-91","46404","229403","EBRP"
"POINT (-91.128151903819 30.469044689185)","TRANZSIR FOOD MART","6223 GREENWELL SPRINGS RD","BATON ROUGE","LOUISIANA","UNITED STATES","70806","BATON ROUGE","YES","445000",,,"30","-91","37516","101633","EBRP"
"POINT (-91.098996736474 30.463721774219)","CATERING CAJUN OF LOUISIANA","1625 N AIRWAY DR","BATON ROUGE","LOUISIANA","UNITED STATES","70815","BATON ROUGE","YES","722000",,,"30","-91","48110","36492","EBRP"
"POINT (-91.10821734095 30.396506526741)","ZORBAS GREEK BISTRO & RESTAURANT","5713 ESSEN LN","BATON ROUGE","LOUISIANA","UNITED STATES","70810","BATON ROUGE","YES","722000",,,"30","-91","15768","135982","EBRP"
"POINT (-91.120729309741 30.450395506717)","DIVINE ALLURE SALON & EXTENSIONS","145 ALELLO DR","BATON ROUGE","LOUISIANA","UNITED STATES","70806","BATON ROUGE","YES","812000",,,"30","-91","50207","28465","EBRP"
"POINT (-91.172958189895 30.509650523405)","CAPITOL MEAT SUPPLY","6569 SCENIC HWY","BATON ROUGE","LOUISIANA","UNITED STATES","70807","BATON ROUGE","YES","445000",,,"31","-91","26064","104921","EBRP"
"POINT (-91.151193534008 30.425551519135)","T J RIBS INC","2324 S ACADIAN THWY","BATON ROUGE","LOUISIANA","UNITED STATES","70808","BATON ROUGE","YES","722000",,,"30","-91","36659","57914","EBRP"
"POINT (-91.034784317753 30.445809073506)","BROTHERS FOOD MART","13289 OLD HAMMOND HWY","BATON ROUGE","LOUISIANA","UNITED STATES","70816","BATON ROUGE","YES","447000",,,"30","-91","33457","22294","EBRP"
"POINT (-91.073097709261 30.409356587492)","KWIK STOP","4425 FLOYNELL DR","BATON ROUGE","LOUISIANA","UNITED STATES","70809","PARISH","YES","447110",,,"30","-91","2142","83468","EBRP"
"POINT (-91.155091025108 30.648478951856)","ASIAN PEARL RESTAURANT","4641 MAIN ST","ZACHARY","LOUISIANA","UNITED STATES","70791","ZACHARY","YES","722000",,,"31","-91","46860","198561","EBRP"
"POINT (-91.107558393139 30.429775865217)","BOCAGE SUPERMARKET LLC","7675 JEFFERSON HWY","BATON ROUGE","LOUISIANA","UNITED STATES","70809","BATON ROUGE","YES","445000",,,"30","-91","25467","135017","EBRP"
"POINT (-91.16039144099 30.393819090411)","WALGREENS #13925","5298 HIGHLAND RD","BATON ROUGE","LOUISIANA","UNITED STATES","70808","BATON ROUGE","YES","446110","225-767-7003","http://walgreens.com/","30","-91","38062","165296","EBRP"
"POINT (-91.15679880521 30.444482213338)","RADIO BAR","3079 STE B GOVERNMENT ST","BATON ROUGE","LOUISIANA","UNITED STATES","70806","BATON ROUGE","YES","722000",,,"30","-91","34581","68275","EBRP"
"POINT (-91.014977215773 30.456340650933)","VALDEZ MARKET","15356 STE A OLD HAMMOND HWY","BATON ROUGE","LOUISIANA","UNITED STATES","70816","PARISH","YES","453000",,,"30","-91","47555","228786","EBRP"
"POINT (-91.137243597818 30.444322736109)","ANDREW FOOD MART","5102 GOVERNMENT ST","BATON ROUGE","LOUISIANA","UNITED STATES","70806","BATON ROUGE","YES","445110","225-928-9191",,"30","-91","24342","89358","EBRP"
"POINT (-91.044898506353 30.461928601451)","THE LAFETE RECEPTION HALL","12341 FLORIDA BLVD","BATON ROUGE","LOUISIANA","UNITED STATES","70815","BATON ROUGE","YES","713000",,,"30","-91","37021","136892","EBRP"
"POINT (-91.091082630102 30.419766011563)","DRUSILLA SEAFOOD RESTAURANT","3482 STE D DRUSILLA LN","BATON ROUGE","LOUISIANA","UNITED STATES","70809","BATON ROUGE","YES","722000",,,"30","-91","28013","160332","EBRP"
"POINT (-91.07615166632 30.367235023867)","CALANDROS SUPER MARKET #2","12732 PERKINS RD","BATON ROUGE","LOUISIANA","UNITED STATES","70810","PARISH","YES","445110","225-767-6659","http://calandros.com/","30","-91","25954","133840","EBRP"
"POINT (-91.059670594872 30.393928718985)","BURGERSMITH","6212 SIEGEN LN","BATON ROUGE","LOUISIANA","UNITED STATES","70809","PARISH","YES","722000",,,"30","-91","42103","212661","EBRP"
"POINT (-91.157212709853 30.396162456896)","STORE 161","300 LEE DR","BATON ROUGE","LOUISIANA","UNITED STATES","70808","BATON ROUGE","YES","447000",,,"30","-91","50267","69933","EBRP"
"POINT (-91.136012007311 30.423955792536)","SULLIVANS STEAKHOUSE","5252 CORPORATE BLVD","BATON ROUGE","LOUISIANA","UNITED STATES","70808","BATON ROUGE","YES","722000",,,"30","-91","36492","139535","EBRP"
"POINT (-91.076353029259 30.34741529402)","HIGHLAND PARK TENNIS CENTER","14024 HIGHLAND RD","BATON ROUGE","LOUISIANA","UNITED STATES","70810","PARISH","YES",,,,"30","-91","60413","25999","EBRP"
"POINT (-90.997910123947 30.354473143595)","TRACTION C S E & W","17475 OPPORTUNITY AVE","BATON ROUGE","LOUISIANA","UNITED STATES","70817","PARISH","YES","453000",,,"30","-91","37491","42220","EBRP"
"POINT (-91.160710869077 30.444207063271)","BOUDREAUXS II INC","2647 GOVERNMENT ST","BATON ROUGE","LOUISIANA","UNITED STATES","70806","BATON ROUGE","YES","722000",,,"30","-91","25545","62595","EBRP"
"POINT (-91.165464852182 30.464184524683)","B'S SEAFOOD & DELI","1760 PLANK RD","BATON ROUGE","LOUISIANA","UNITED STATES","70802","BATON ROUGE","YES","445000",,,"30","-91","25747","42950","EBRP"
"POINT (-91.130984539053 30.580075222315)","WAL MART SUPERCENTER #1102","14507 PLANK RD","BAKER","LOUISIANA","UNITED STATES","70714","BAKER","YES","453000",,,"31","-91","40455","191397","EBRP"
"POINT (-91.110870118598 30.431455492498)","DON JUAN SPIRITS LLC","7539 CORPORATE BLVD","BATON ROUGE","LOUISIANA","UNITED STATES","70806","BATON ROUGE","YES",,,,"30","-91","62671","139740","EBRP"
"POINT (-91.064605461985 30.379067892675)","TEXAS ROADHOUSE","10360 N MALL DR","BATON ROUGE","LOUISIANA","UNITED STATES","70809","BATON ROUGE","YES","722000",,,"30","-91","36854","144903","EBRP"
"POINT (-91.175479906394 30.443422768548)","WAGS ONE STOP","1300 GOVERNMENT ST","BATON ROUGE","LOUISIANA","UNITED STATES","70802","BATON ROUGE","YES","445000",,,"30","-91","41579","138817","EBRP"
"POINT (-91.030785168393 30.54312079599)","GIRASOLE GARDEN","14350 STE 112 WAX RD","CENTRAL","LOUISIANA","UNITED STATES","70818","CENTRAL","YES","722000",,,"31","-91","64177","234577","EBRP"
"POINT (-91.174863894014 30.51612576462)","NEIGHBORHOOD MINI PAK","1710 75TH AVE","BATON ROUGE","LOUISIANA","UNITED STATES","70807","BATON ROUGE","YES","445000",,,"31","-91","23192","168179","EBRP"
"POINT (-91.088547130466 30.373835125377)","BISTRO BYRONZ","8200 VILLAGE PLAZA CT","BATON ROUGE","LOUISIANA","UNITED STATES","70810","PARISH","YES","722000",,,"30","-91","41380","182411","EBRP"
"POINT (-91.058185602902 30.396529910818)","MANAM INDIAN FOOD & GROCERY","5880 STE D SIEGEN LN","BATON ROUGE","LOUISIANA","UNITED STATES","70809","PARISH","YES","445000",,,"30","-91","67068","246251","EBRP"
"POINT (-91.188442165901 30.451063416515)","THE LITTLE VILLAGE","447 3RD ST","BATON ROUGE","LOUISIANA","UNITED STATES","70802","BATON ROUGE","YES","722000",,,"30","-91","23153","155956","EBRP"
"POINT (-91.134782837077 30.494700893478)","BI RITE GROCERY","4808 MC CLELLAND DR","BATON ROUGE","LOUISIANA","UNITED STATES","70805","BATON ROUGE","YES","445000",,,"30","-91","25304","157430","EBRP"
"POINT (-91.057668063866 30.464094060542)","JASMIN FOOD MART","1710 N SHERWOOD FOREST DR","BATON ROUGE","LOUISIANA","UNITED STATES","70815","BATON ROUGE","YES","453000",,,"30","-91","43448","40276","EBRP"
"POINT (-91.069379702551 30.366180514656)","VILLAGE GROCERY & DELI","13510 PERKINS RD","BATON ROUGE","LOUISIANA","UNITED STATES","70810","PARISH","YES","445000",,,"30","-91","37946","23600","EBRP"
"POINT (-91.14108344947 30.376890386283)","THE OASIS BAR & GRILL","7477 BURBANK DR","BATON ROUGE","LOUISIANA","UNITED STATES","70820","PARISH","YES","722000",,,"30","-91","66614","149876","EBRP"
"POINT (-91.064996743485 30.416918946861)","SUSHI VILLAGE LLC","10404 STE A COURSEY BLVD","BATON ROUGE","LOUISIANA","UNITED STATES","70816","PARISH","YES","722000",,,"30","-91","38864","3568","EBRP"
"POINT (-91.03155383405 30.46364954882)","TORTILLERIA GLORIA LLC","13869 FLORIDA BLVD","BATON ROUGE","LOUISIANA","UNITED STATES","70819","BATON ROUGE","YES","339000",,,"30","-91","37438","25467","EBRP"
"POINT (-91.075351864042 30.368059149387)","EXXON/ON THE RUN INC #2707651","12860 PERKINS RD","BATON ROUGE","LOUISIANA","UNITED STATES","70810","PARISH","YES","447000",,,"30","-91","26590","20718","EBRP"
"POINT (-91.142720028747 30.454012546007)","NETTES PLACE","4675 NORTH ST","BATON ROUGE","LOUISIANA","UNITED STATES","70802","BATON ROUGE","YES","722000",,,"30","-91","41771","137506","EBRP"
"POINT (-91.077884386866 30.431012596169)","WAL MART NEIGHBORHOOD MARKET #5327","9830 OLD HAMMOND HWY","BATON ROUGE","LOUISIANA","UNITED STATES","70816","BATON ROUGE","YES","445110","225-248-1616","http://walmart.com/","30","-91","38056","139987","EBRP"
"POINT (-91.088958064933 30.393998447437)","TETRA TECH EM INC","6110 BLUEBONNET BLVD","BATON ROUGE","LOUISIANA","UNITED STATES","70809","PARISH","YES","815000",,,"30","-91","36850","100279","EBRP"
"POINT (-91.051995348692 30.410396543426)","EL PASO MEXICAN GRILL","4808 S SHERWOOD FOREST BLVD","BATON ROUGE","LOUISIANA","UNITED STATES","70816","PARISH","YES","722000",,,"30","-91","40934","86884","EBRP"
"POINT (-91.056146884804 30.547941928689)","WAL MART #7233 FUEL","11825 HOOPER RD","CENTRAL","LOUISIANA","UNITED STATES","70818","CENTRAL","YES","447000",,,"31","-91","46488","203718","EBRP"
"POINT (-91.107879783262 30.395898209527)","ICHIBAN'S JAPANESE GRILL & SUSHI BAR","5741 ESSEN LN","BATON ROUGE","LOUISIANA","UNITED STATES","70810","BATON ROUGE","YES","722110",,,"30","-91","12348","139779","EBRP"
"POINT (-91.050253072195 30.411430540419)","THE BOIL & ROUX KITCHEN","11777 COURSEY BLVD","BATON ROUGE","LOUISIANA","UNITED STATES","70816","BATON ROUGE","YES","722000",,,"30","-91","41571","13154","EBRP"
"POINT (-91.135299956041 30.44620706132)","SHOPPERS VALUE","5355 STE E GOVERNMENT ST","BATON ROUGE","LOUISIANA","UNITED STATES","70806","BATON ROUGE","YES","445110","225-925-1522","http://shoppersvaluefoodla.com/","30","-91","33983","134191","EBRP"
"POINT (-91.089170583559 30.483072222059)","CVS PHARMACY #05318","9006 GREENWELL SPRINGS RD","BATON ROUGE","LOUISIANA","UNITED STATES","70814","BATON ROUGE","YES","446110","225-927-5088","http://cvs.com/","30","-91","27274","121432","EBRP"
"POINT (-90.999313212148 30.433238564777)","GREENWELL SPEEDY","2247 CULLY DR","BATON ROUGE","LOUISIANA","UNITED STATES","70816","PARISH","YES","445000",,,"30","-91","67459","56512","EBRP"
"POINT (-91.176287159552 30.417315274622)","THE CHIMES","3357 HIGHLAND RD","BATON ROUGE","LOUISIANA","UNITED STATES","70802","BATON ROUGE","YES","722000",,,"30","-91","36919","71986","EBRP"
"POINT (-91.016676264044 30.409049736148)","ON THE RUN #14","14441 COURSEY BLVD","BATON ROUGE","LOUISIANA","UNITED STATES","70817","PARISH","YES","447110",,,"30","-91","3246","28251","EBRP"
"POINT (-91.073080130182 30.409582776403)","CIRCLE K STORES 2708046","4415 FLOYNELL DR","BATON ROUGE","LOUISIANA","UNITED STATES","70809","PARISH","YES","447000","225-292-5237","http://circlek.com/","30","-91","26570","83320","EBRP"
"POINT (-91.093658379191 30.349373278626)","SUPERMARCADO","11848 VILLA AVE","BATON ROUGE","LOUISIANA","UNITED STATES","70810","PARISH","YES","722000",,,"30","-91","42206","13569","EBRP"
"POINT (-91.177857978866 30.418007691221)","LOUIE'S CAFÃ‰","209 W STATE ST","BATON ROUGE","LOUISIANA","UNITED STATES","70802","BATON ROUGE","YES","722110",,,"30","-91","5217","52942","EBRP"
"POINT (-91.143183271056 30.649180904675)","LAGNIAPPE ZACHARY","5755 MAIN ST","ZACHARY","LOUISIANA","UNITED STATES","70791","ZACHARY","YES","722000",,,"31","-91","47103","197668","EBRP"
"POINT (-91.169492213488 30.577996460828)","C AND H MART, LLC","310 MAIN ST","BAKER","LOUISIANA","UNITED STATES","70714","BAKER","YES","447000",,,"31","-91","40415","187569","EBRP"
"POINT (-91.153114613627 30.436451282866)","BURFI","1398 S ACADIAN THWY","BATON ROUGE","LOUISIANA","UNITED STATES","70806","BATON ROUGE","YES","453000",,,"30","-91","66832","234185","EBRP"
"POINT (-91.089620870811 30.393557566625)","KING BUFFET","6230 BLUEBONNET BLVD","BATON ROUGE","LOUISIANA","UNITED STATES","70809","PARISH","YES","722110",,,"30","-91","4811","101751","EBRP"
"POINT (-91.020451576883 30.453365775887)","MI CUEVITA PLUS # 2","14890 OLD HAMMOND HWY","BATON ROUGE","LOUISIANA","UNITED STATES","70816","PARISH","YES","445000",,,"30","-91","32752","30020","EBRP"
"POINT (-91.179100194289 30.418807227577)","LOS ALVAREZ EXXPRESS LATIN FOOD","262 W STATE ST","BATON ROUGE","LOUISIANA","UNITED STATES","70802","BATON ROUGE","YES","722000",,,"30","-91","50626","62115","EBRP"
"POINT (-91.127348415494 30.461139707016)","B C FOOD MART","1200 N ARDENWOOD DR","BATON ROUGE","LOUISIANA","UNITED STATES","70806","BATON ROUGE","YES","445110","225-201-9299",,"30","-91","24779","14329","EBRP"
"POINT (-91.178081979695 30.397472063059)","ROTOLO'S PIZZERIA","4343 NICHOLSON DR","BATON ROUGE","LOUISIANA","UNITED STATES","70808","BATON ROUGE","YES","722110",,,"30","-91","7162","82691","EBRP"
"POINT (-91.100598920772 30.380651106438)","SOUTHERN PEARL OYSTER HOUSE","9460 PERKINS RD","BATON ROUGE","LOUISIANA","UNITED STATES","70810","BATON ROUGE","YES","722000",,,"30","-91","65552","234281","EBRP"
"POINT (-91.022806967463 30.365767462389)","THE LITTLE VILLAGE 2","14241 AIRLINE HWY","BATON ROUGE","LOUISIANA","UNITED STATES","70817","PARISH","YES","722000",,,"30","-91","37033","144352","EBRP"
"POINT (-91.176275186842 30.41747771813)","VARSITY THEATRE THE","3353 HIGHLAND RD","BATON ROUGE","LOUISIANA","UNITED STATES","70802","BATON ROUGE","YES","722000",,,"30","-91","37872","142653","EBRP"
"POINT (-91.077720817207 30.426061663939)","HOLIDAY INN","9990 AIRLINE HWY","BATON ROUGE","LOUISIANA","UNITED STATES","70809","BATON ROUGE","YES","721110",,,"30","-91","4167","129497","EBRP"
"POINT (-91.111568806682 30.434449099885)","MARTIN WINE CELLAR","1670 LOBDELL AVE","BATON ROUGE","LOUISIANA","UNITED STATES","70806","BATON ROUGE","YES","453000",,,"30","-91","65344","217261","EBRP"
"POINT (-91.108732503314 30.395240398813)","CIRCLE K STORE #2707656","5857 ESSEN LN","BATON ROUGE","LOUISIANA","UNITED STATES","70810","BATON ROUGE","YES","447000","225-767-6880","http://circlek.com/","30","-91","26594","98095","EBRP"
"POINT (-91.153295391286 30.500120159902)","UNCLE MO FOOD MART & DELI","5557 PLANK RD","BATON ROUGE","LOUISIANA","UNITED STATES","70805","BATON ROUGE","YES","445000",,,"31","-91","37709","95099","EBRP"
"POINT (-91.015027862389 30.406403117221)","ALBERTSONS FOOD CENTER #2713","15232 GEORGE O'NEAL RD","BATON ROUGE","LOUISIANA","UNITED STATES","70817","PARISH","YES","445110","225-753-0700","http://albertsons.com/","30","-91","24070","31640","EBRP"
"POINT (-91.027091210827 30.444181780774)","MAGNOLIA & COMPANY LLC","1960 S FLANNERY RD","BATON ROUGE","LOUISIANA","UNITED STATES","70816","PARISH","YES","448000",,,"30","-91","63181","50363","EBRP"
"POINT (-91.124984215179 30.50269815905)","ROSEMARY'S FOOD MART","5732 SILVERLEAF AVE","BATON ROUGE","LOUISIANA","UNITED STATES","70812","PARISH","YES","445110","225-355-5560",,"31","-91","35172","96816","EBRP"
"POINT (-91.161658067738 30.474912402231)","CARLINS FOOD MART","2944 PLANK RD","BATON ROUGE","LOUISIANA","UNITED STATES","70805","BATON ROUGE","YES","445110","225-355-9235",,"30","-91","26113","66348","EBRP"
"POINT (-91.142766459406 30.586334603002)","RAGUSA'S MEAT MARKET","5240 GROOM RD","BAKER","LOUISIANA","UNITED STATES","70714","BAKER","YES","445000",,,"31","-91","34603","191222","EBRP"
"POINT (-91.045016330639 30.440180792472)","BIG BOY SHOP & GEAUX INC","12110 OLD HAMMOND HWY","BATON ROUGE","LOUISIANA","UNITED STATES","70816","BATON ROUGE","YES","453000",,,"30","-91","47491","15031","EBRP"
"POINT (-91.083699709151 30.391135369009)","COST PLUS WORLD MARKET","5919 BLUEBONNET BLVD","BATON ROUGE","LOUISIANA","UNITED STATES","70809","PARISH","YES","453000",,,"30","-91","27011","139831","EBRP"
"POINT (-91.168496177301 30.472954140603)","TRIANGLE FOOD MART","2799 SCENIC HWY","BATON ROUGE","LOUISIANA","UNITED STATES","70805","BATON ROUGE","YES","445110","225-357-1340",,"30","-91","37566","64388","EBRP"
"POINT (-91.146757542456 30.444024175715)","CURBSIDE BURGERS","4158 GOVERNMENT ST","BATON ROUGE","LOUISIANA","UNITED STATES","70806","BATON ROUGE","YES","722000",,,"30","-91","47411","169165","EBRP"
"POINT (-91.101469848868 30.460024931851)","EL RIO GRANDE MEXICAN FOODS","8334 AIRLINE HWY","BATON ROUGE","LOUISIANA","UNITED STATES","70806","BATON ROUGE","YES","722110",,,"30","-91","15150","117212","EBRP"
"POINT (-91.15740081235 30.424295564925)","ROCK N SAKE BAR & SUSHI","3043 PERKINS RD","BATON ROUGE","LOUISIANA","UNITED STATES","70808","BATON ROUGE","YES","445000",,,"30","-91","35105","67747","EBRP"
"POINT (-91.08337233506 30.484796633251)","KWIK STOP","9410 GREENWELL SPRINGS RD","BATON ROUGE","LOUISIANA","UNITED STATES","70814","BATON ROUGE","YES","447110",,,"30","-91","2142","125165","EBRP"
"POINT (-91.162428820674 30.390093569718)","WINGSTOP #1750","660 STE E ARLINGTON CREEK CENTRE BLVD","BATON ROUGE","LOUISIANA","UNITED STATES","70820","BATON ROUGE","YES","722000",,,"30","-91","66504","234570","EBRP"
"POINT (-91.066588467931 30.379780382377)","CHILI'S GRILL AND BAR","10305 N MALL DR","BATON ROUGE","LOUISIANA","UNITED STATES","70809","BATON ROUGE","YES","722000",,,"30","-91","26462","2665","EBRP"
"POINT (-91.038766787723 30.392884706968)","MURPHY EXPRESSS #8861","12912 JEFFERSON HWY","BATON ROUGE","LOUISIANA","UNITED STATES","70816","PARISH","YES","447000",,,"30","-91","64209","170414","EBRP"
"POINT (-91.159692274206 30.442966467127)","BONANNO'S FINE CATERING","631 S EUGENE ST","BATON ROUGE","LOUISIANA","UNITED STATES","70806","BATON ROUGE","YES","812990",,,"30","-91","21664","102491","EBRP"
"POINT (-91.180287381267 30.425726411258)","BIG EZ DISCOUNT","2336 HIGHLAND RD","BATON ROUGE","LOUISIANA","UNITED STATES","70802","BATON ROUGE","YES","445000",,,"30","-91","47228","58249","EBRP"
"POINT (-91.085708865204 30.387094510693)","BJS RESTAURANT & BREWHOUSE","9100 MALL OF LOUISIANA BLVD","BATON ROUGE","LOUISIANA","UNITED STATES","70836","BATON ROUGE","YES","722000",,,"30","-91","25382","224249","EBRP"
"POINT (-91.010328745716 30.440217374426)","AMC THEATERS BATON ROUGE 16","16040 HATTERAS AVE","BATON ROUGE","LOUISIANA","UNITED STATES","70816","BATON ROUGE","YES","512000",,,"30","-91","34675","136774","EBRP"
"POINT (-91.042859960214 30.462418362592)","LE'S PRODUCE & MARKET, INC.","1134 MARQUE ANN DR","BATON ROUGE","LOUISIANA","UNITED STATES","70815","BATON ROUGE","YES","722410",,,"30","-91","5076","10548","EBRP"
"POINT (-91.17950149405 30.395774460875)","MIKES DAIQUIRIS","1125 BOB PETTIT BLVD","BATON ROUGE","LOUISIANA","UNITED STATES","70820","BATON ROUGE","YES","722410",,,"30","-91","19146","10085","EBRP"
"POINT (-91.173081683698 30.510972979933)","BIG BROTHERS MEAT MARKET","6708 SCENIC HWY","BATON ROUGE","LOUISIANA","UNITED STATES","70807","BATON ROUGE","YES","445000",,,"31","-91","25317","167726","EBRP"
"POINT (-91.144390194033 30.522908447358)","PLANK FOOD MART","8085 PLANK RD","BATON ROUGE","LOUISIANA","UNITED STATES","70811","BATON ROUGE","YES","445000",,,"31","-91","37332","137664","EBRP"
"POINT (-91.109746157947 30.352314948783)","WALMART SUPER CENTER","10550 BURBANK DR","BATON ROUGE","LOUISIANA","UNITED STATES","70810","PARISH","YES","445110",,"http://walmart.com/","30","-91","8696","149859","EBRP"
"POINT (-91.022125826767 30.405632107023)","JENKA PHOTOGRAPHY LLC","5278 HUNTERS PARK AVE","BATON ROUGE","LOUISIANA","UNITED STATES","70817","PARISH","YES","541000",,,"30","-91","38998","91952","EBRP"
"POINT (-91.187249245566 30.426282720137)","MAGNOLIA MOUND PLANTATION","2161 NICHOLSON DR","BATON ROUGE","LOUISIANA","UNITED STATES","70802","BATON ROUGE","YES",,,,"30","-91","60481","54732","EBRP"
"POINT (-91.166694918693 30.460377509571)","CIRCLE K #9719","1330 PLANK RD","BATON ROUGE","LOUISIANA","UNITED STATES","70802","BATON ROUGE","YES","447000","225-344-0717","http://circlek.com/","30","-91","26580","22335","EBRP"
"POINT (-91.127239941789 30.469564487205)","LOUIS LOUNGE","6347 GREENWELL SPRINGS RD","BATON ROUGE","LOUISIANA","UNITED STATES","70806","BATON ROUGE","YES","722000",,,"30","-91","32031","103066","EBRP"
"POINT (-91.187860541706 30.421035417894)","SAVE MORE MARKET 4","2956 NICHOLSON DR","BATON ROUGE","LOUISIANA","UNITED STATES","70802","BATON ROUGE","YES","445110","225-769-0404",,"30","-91","7305","66529","EBRP"
"POINT (-91.135449433419 30.500117666314)","HOLLYWOOD FOOD MART","5521 MC CLELLAND DR","BATON ROUGE","LOUISIANA","UNITED STATES","70805","BATON ROUGE","YES","445000",,,"31","-91","41046","94522","EBRP"
"POINT (-91.150433345071 30.421073788334)","JUBANS RESTAURANT","3739 PERKINS RD","BATON ROUGE","LOUISIANA","UNITED STATES","70808","BATON ROUGE","YES","722000",,,"30","-91","31052","139198","EBRP"
"POINT (-91.003613680527 30.467919833253)","PETES TAVERN OF BATON ROUGE","16705 FLORIDA BLVD","BATON ROUGE","LOUISIANA","UNITED STATES","70819","BATON ROUGE","YES","722000",,,"30","-91","33912","38831","EBRP"
"POINT (-91.051145205651 30.41492698764)","LONDONER PUB & GRILL","4215 STE 8 S SHERWOOD FOREST BLVD","BATON ROUGE","LOUISIANA","UNITED STATES","70816","BATON ROUGE","YES","722000",,,"30","-91","31996","135588","EBRP"
"POINT (-91.145475876606 30.510136251504)","ALDENS SCHOOL OF COSMETOLOGY","4321 AIRLINE HWY","BATON ROUGE","LOUISIANA","UNITED STATES","70811","BATON ROUGE","YES","611511",,,"31","-91","13748","137626","EBRP"
"POINT (-91.13305004722 30.421405929126)","EMBASSY SUITES BATON ROUGE","4914 CONSTITUTION AVE","BATON ROUGE","LOUISIANA","UNITED STATES","70808","BATON ROUGE","YES","721000",,,"30","-91","39851","87761","EBRP"
"POINT (-91.188099281988 30.449646997616)","RUFFINOS CATERING AND EVENTS","320 STE 201 3RD ST","BATON ROUGE","LOUISIANA","UNITED STATES","70801","BATON ROUGE","YES","445000",,,"30","-91","40861","214161","EBRP"
"POINT (-91.188111133708 30.449867030272)","SQUEAKY PETE'S","326 STE B 3RD ST","BATON ROUGE","LOUISIANA","UNITED STATES","70801","BATON ROUGE","YES","722000",,,"30","-91","65455","238743","EBRP"
"POINT (-91.106150223986 30.443814694363)","INDEPENDENCE PARK CAFE & TEACHING BUILDING","7751 GOODWOOD BLVD","BATON ROUGE","LOUISIANA","UNITED STATES","70806","BATON ROUGE","YES","713000",,,"30","-91","63657","231121","EBRP"
"POINT (-91.132086072398 30.44531261721)","CYPRESS COAST BREWING COMPANY INC","5643 GOVERNMENT ST","BATON ROUGE","LOUISIANA","UNITED STATES","70806","BATON ROUGE","YES","424000",,,"30","-91","65489","166951","EBRP"
"POINT (-91.028512034994 30.506451698185)","ELEGANT MEMORIES LLC","14328 FRENCHTOWN RD","GREENWELL SPRINGS","LOUISIANA","UNITED STATES","70739","CENTRAL","YES","815000",,,"31","-91","48352","209547","EBRP"
"POINT (-91.159686928791 30.425573276643)","DUVIC'S","2854 KALURAH ST","BATON ROUGE","LOUISIANA","UNITED STATES","70808","BATON ROUGE","YES","722410",,,"30","-91","2978","65259","EBRP"
"POINT (-91.136939347699 30.424488911176)","CLICKS BILLARDS","5124 CORPORATE BLVD","BATON ROUGE","LOUISIANA","UNITED STATES","70808","BATON ROUGE","YES","722000",,,"30","-91","26691","139533","EBRP"
"POINT (-91.177780511602 30.531278099725)","AMERICAN LEGION POST #502","1566 ROSENWALD RD","BATON ROUGE","LOUISIANA","UNITED STATES","70807","BATON ROUGE","YES","722000",,,"31","-91","24266","34124","EBRP"
"POINT (-91.188701422046 30.441045936972)","CANE LAND TRULY HOMEMADE","760 SAINT PHILIP ST","BATON ROUGE","LOUISIANA","UNITED STATES","70802","BATON ROUGE","YES","311000",,,"30","-91","60217","138874","EBRP"
"POINT (-91.096446552341 30.378254590106)","LOUISIANA LAGNIAPPE RESTAURANT","9990 PERKINS RD","BATON ROUGE","LOUISIANA","UNITED STATES","70810","PARISH","YES","722110",,,"30","-91","4920","129799","EBRP"
"POINT (-91.015329291165 30.409939191978)","CVS PHARMACY #5343","15255 STE D GEORGE O'NEAL RD","BATON ROUGE","LOUISIANA","UNITED STATES","70817","PARISH","YES","446110","225-752-3710","http://cvs.com/","30","-91","27277","135463","EBRP"
"POINT (-91.025063687733 30.366407764605)","ICEHOUSE TAP ROOM","14111 STE 126 AIRLINE HWY","BATON ROUGE","LOUISIANA","UNITED STATES","70817","PARISH","YES","722000",,,"30","-91","65080","237856","EBRP"
"POINT (-91.169945814114 30.41346433131)","THE COOK HOTEL","3848 W LAKESHORE DR","BATON ROUGE","LOUISIANA","UNITED STATES","70808","LSU","YES","721000",,,"30","-91","36929","180971","EBRP"
"POINT (-91.192447699925 30.542329115276)","S & Y GROCERY","10823 SCENIC HWY","BATON ROUGE","LOUISIANA","UNITED STATES","70807","BATON ROUGE","YES","445120",,,"31","-91","4430","7183","EBRP"
"POINT (-91.126440496648 30.355873311318)","COMMUNITY MARKET","1535 GARDERE LN","BATON ROUGE","LOUISIANA","UNITED STATES","70820","PARISH","YES","445120",,,"30","-91","2338","32336","EBRP"
"POINT (-91.08598338533 30.371634880597)","SHELL","11440 STE A PERKINS RD","BATON ROUGE","LOUISIANA","UNITED STATES","70810","PARISH","YES","447000",,,"30","-91","41432","133848","EBRP"
"POINT (-91.099786495216 30.373719286751)","BREWBACHER'S GRILL #5","8415 BLUEBONNET BLVD","BATON ROUGE","LOUISIANA","UNITED STATES","70810","PARISH","YES","722000",,,"30","-91","25633","117722","EBRP"
"POINT (-91.033491873522 30.432749734312)","STAGE ONE GATEHOUSE","13469 S HARRELL'S FERRY RD","BATON ROUGE","LOUISIANA","UNITED STATES","70816","BATON ROUGE","YES","722000",,,"30","-91","36250","23425","EBRP"
"POINT (-91.003843066413 30.364561974566)","PELICAN BRANDS LLC","16851 STE D JEFFERSON HWY","BATON ROUGE","LOUISIANA","UNITED STATES","70817","PARISH","YES","424000",,,"30","-91","65010","237388","EBRP"
"POINT (-91.024036186755 30.445480484087)","CHILIS GRILL & BAR","1615 MILLERVILLE RD","BATON ROUGE","LOUISIANA","UNITED STATES","70816","PARISH","YES","722000",,,"30","-91","26461","35993","EBRP"
"POINT (-91.105177891363 30.444777598507)","BATON ROUGE GARDEN CENTER","7950 INDEPENDENCE BLVD","BATON ROUGE","LOUISIANA","UNITED STATES","70806","BATON ROUGE","YES","713000",,,"30","-91","59907","142260","EBRP"
"POINT (-91.15371332257 30.422822500632)","TRADER JOE'S  #754","3535 STE 315 PERKINS RD","BATON ROUGE","LOUISIANA","UNITED STATES","70808","BATON ROUGE","YES","445110",,,"30","-91","40017","186545","EBRP"
"POINT (-91.1509109309 30.648717493651)","WALGREENS #11498","5061 MAIN ST","ZACHARY","LOUISIANA","UNITED STATES","70791","ZACHARY","YES","453000",,,"31","-91","46965","196356","EBRP"
"POINT (-91.179893489159 30.438543631911)","LEO SERVICE MARKET & GROCERY","945 EAST BLVD","BATON ROUGE","LOUISIANA","UNITED STATES","70802","BATON ROUGE","YES","445000",,,"30","-91","31803","125710","EBRP"
"POINT (-91.025562714509 30.514654256774)","MURPHY EXPRESS #8760","14744 GREENWELL SPRINGS RD","GREENWELL SPRINGS","LOUISIANA","UNITED STATES","70739","CENTRAL","YES","447000",,,"31","-91","48961","207952","EBRP"
"POINT (-91.04577001538 30.395251987421)","LYNNS DAIQURI","12333 JEFFERSON HWY","BATON ROUGE","LOUISIANA","UNITED STATES","70816","BATON ROUGE","YES","453000",,,"30","-91","23289","17074","EBRP"
"POINT (-91.159800893922 30.450284951327)","FLORIDA DISCOUNT","2801 FLORIDA ST","BATON ROUGE","LOUISIANA","UNITED STATES","70802","BATON ROUGE","YES","445110","225-274-0121","http://fhl.org","30","-91","21108","64405","EBRP"
"POINT (-91.066846634413 30.413892849331)","SMOKEYS #28","10465 AIRLINE HWY","BATON ROUGE","LOUISIANA","UNITED STATES","70816","PARISH","YES","453000",,,"30","-91","35908","168187","EBRP"
"POINT (-91.108188052671 30.428975698124)","STAB'S PRIME STEAK AND SEAFOOD","7666 JEFFERSON HWY","BATON ROUGE","LOUISIANA","UNITED STATES","70809","BATON ROUGE","YES","722000",,,"30","-91","59999","112917","EBRP"
"POINT (-91.012863459381 30.407470530776)","THE ORIGINAL ITALIAN PIE","15540 GEORGE O'NEAL RD","BATON ROUGE","LOUISIANA","UNITED STATES","70817","PARISH","YES","722000",,,"30","-91","37090","33439","EBRP"
"POINT (-91.150327149744 30.444027738164)","MID CITY BEER GARDEN","3808 GOVERNMENT ST","BATON ROUGE","LOUISIANA","UNITED STATES","70806","BATON ROUGE","YES","722000",,,"30","-91","65533","76797","EBRP"
"POINT (-91.034701296516 30.408518430472)","WINN DIXIE #1577","13002 COURSEY BLVD","BATON ROUGE","LOUISIANA","UNITED STATES","70817","PARISH","YES","445110","225-756-7102","https://winndixie.com","30","-91","38363","21051","EBRP"
"POINT (-91.100241447815 30.374830403679)","ROUX 61","8322 BLUEBONNET BLVD","BATON ROUGE","LOUISIANA","UNITED STATES","70810","PARISH","YES","722000",,,"30","-91","46036","117114","EBRP"
"POINT (-91.151828819188 30.421249818493)","ROCK N ROLL SUSHI","3627 BLDG 2 PERKINS RD","BATON ROUGE","LOUISIANA","UNITED STATES","70808","BATON ROUGE","YES","722000",,,"30","-91","49788","231664","EBRP"
"POINT (-91.155515607447 30.461991036047)","PEYTON PLACE LOUNGE & RESTAURANT","1533 N ACADIAN THWY E","BATON ROUGE","LOUISIANA","UNITED STATES","70802","BATON ROUGE","YES","722000",,,"30","-91","67175","32164","EBRP"
"POINT (-91.188097076328 30.448633803042)","BOUDREAUX & THIBODEAUXS","214 STE 2 A 3RD ST","BATON ROUGE","LOUISIANA","UNITED STATES","70801","BATON ROUGE","YES","722000",,,"30","-91","50341","217989","EBRP"
"POINT (-91.009809200119 30.358812252784)","CIRCLE K #2709728","14940 AIRLINE HWY","BATON ROUGE","LOUISIANA","UNITED STATES","70809","PARISH","YES","447000","225-755-6011","http://circlek.com/","30","-91","26589","30254","EBRP"
"POINT (-91.158158766066 30.425421430021)","GEORGE'S","2943 PERKINS RD","BATON ROUGE","LOUISIANA","UNITED STATES","70808","BATON ROUGE","YES","722410",,,"30","-91","3689","66324","EBRP"
"POINT (-91.191424350599 30.459698612474)","HOLLYWOOD CASINO","1717 N RIVER RD","BATON ROUGE","LOUISIANA","UNITED STATES","70802","BATON ROUGE","YES","713210",,,"30","-91","1854","40670","EBRP"
"POINT (-91.064994121905 30.416974686107)","SUSHI VILLAGE LLC","10404 STE B COURSEY BLVD","BATON ROUGE","LOUISIANA","UNITED STATES","70816","PARISH","YES","722000",,,"30","-91","38864","225831","EBRP"
"POINT (-91.043545945315 30.462087166659)","MIEN TAY RESTAURANT LLC","1125 MARQUE ANN DR","BATON ROUGE","LOUISIANA","UNITED STATES","70815","BATON ROUGE","YES","722000",,,"30","-91","32823","10106","EBRP"
"POINT (-91.110628371512 30.394155046863)","FUEL ZONE","2147 STARING LN","BATON ROUGE","LOUISIANA","UNITED STATES","70808","BATON ROUGE","YES",,,,"30","-91","10566","54394","EBRP"
"POINT (-91.084329291885 30.471439242586)","COUNTRY CORNER FOOD STORE #2","9232 S CHOCTAW DR","BATON ROUGE","LOUISIANA","UNITED STATES","70815","BATON ROUGE","YES","445000",,,"30","-91","2444","123514","EBRP"
"POINT (-91.146349570358 30.64781329243)","MURPHY EXPRESS #8582","5523 MAIN ST","ZACHARY","LOUISIANA","UNITED STATES","70791","ZACHARY","YES","447000",,,"31","-91","47074","197266","EBRP"
"POINT (-91.188079511511 30.432095586468)","CIRCLE K STORES #2707750","1644 NICHOLSON DR","BATON ROUGE","LOUISIANA","UNITED STATES","70802","BATON ROUGE","YES","447000",,"http://circlek.com/","30","-91","26600","37607","EBRP"
"POINT (-91.020027581296 30.409320519051)","WALMART NEIGHBORHOOD MARKET","14241 STE A3 COURSEY BLVD","BATON ROUGE","LOUISIANA","UNITED STATES","70817","PARISH","YES","445110",,"http://walmart.com/","30","-91","17457","27133","EBRP"
"POINT (-91.028645779253 30.383104478349)","EXTRAORDINARY SOLUTIONS LLC","7439 OAKMOUNT DR","BATON ROUGE","LOUISIANA","UNITED STATES","70817","PARISH","YES","541000",,,"30","-91","42127","165122","EBRP"
"POINT (-91.190242957105 30.451194848684)","HILTON BATON ROUGE CAPITOL CENTER","100 MAIN ST","BATON ROUGE","LOUISIANA","UNITED STATES","70801","BATON ROUGE","YES","722000",,,"30","-91","30041","5169","EBRP"
"POINT (-91.098099631446 30.380393901455)","MI PADRES MEXICAN","7750 BLUEBONNET BLVD","BATON ROUGE","LOUISIANA","UNITED STATES","70810","PARISH","YES","722000",,,"30","-91","32754","143307","EBRP"
"POINT (-91.078562666734 30.410011331658)","IZZOS ILLEGAL BURRITO","4245 BLUEBONNET BLVD","BATON ROUGE","LOUISIANA","UNITED STATES","70809","PARISH","YES","722000",,,"30","-91","48609","81653","EBRP"
"POINT (-91.16512755894 30.594800092469)","ALDENS SCHOOL OF COSMETOLOGY","2020 MAIN ST","BAKER","LOUISIANA","UNITED STATES","70714","BAKER","YES","611511",,,"31","-91","13748","190255","EBRP"
"POINT (-91.105183670531 30.466861083179)","MAX FOOD MART SNO CONES","7979 AIRLINE HWY","BATON ROUGE","LOUISIANA","UNITED STATES","70815","BATON ROUGE","YES","722000",,,"30","-91","23404","114668","EBRP"
"POINT (-91.035718651206 30.409547253018)","JIFFY MART #15","12924 COURSEY BLVD","BATON ROUGE","LOUISIANA","UNITED STATES","70817","PARISH","YES","447000",,,"30","-91","30869","20857","EBRP"
"POINT (-91.180916160582 30.651385010165)","ROUSES MARKET #60","2300 CHURCH ST","ZACHARY","LOUISIANA","UNITED STATES","70791","ZACHARY","YES","445000",,,"31","-91","47478","194753","EBRP"
"POINT (-91.168896957527 30.523517188865)","TRANSPORTATION & WAREHOUSE","8344 ELM GROVE GARDEN DR","BATON ROUGE","LOUISIANA","UNITED STATES","70807","BATON ROUGE","YES","484000",,,"31","-91","50279","117295","EBRP"
"POINT (-91.101617249247 30.405448413782)","DRURY INN & SUITES-BATON ROUGE","7939 ESSEN PARK AVE","BATON ROUGE","LOUISIANA","UNITED STATES","70809","PARISH","YES","721000",,,"30","-91","28007","145761","EBRP"
"POINT (-91.044644431496 30.39508264016)","TRAMONTES MEAT & SEAFOOD MARKET","12451 JEFFERSON HWY","BATON ROUGE","LOUISIANA","UNITED STATES","70816","BATON ROUGE","YES","424420",,,"30","-91","12700","18196","EBRP"
"POINT (-91.09852258525 30.381615621945)","ROUSES MARKET #69","7580 BLUEBONNET BLVD","BATON ROUGE","LOUISIANA","UNITED STATES","70810","PARISH","YES","445000",,,"30","-91","59858","140376","EBRP"
"POINT (-91.116404206773 30.45549005413)","THEATRE BATON ROUGE","7155 FLORIDA BLVD","BATON ROUGE","LOUISIANA","UNITED STATES","70806","BATON ROUGE","YES","711110","225-924-6496","http://theatrebr.org/","30","-91","15095","139259","EBRP"
"POINT (-91.025697891059 30.34777925032)","CITY PORK OF PERKINS","18143 STE D PERKINS RD E","BATON ROUGE","LOUISIANA","UNITED STATES","70810","PARISH","YES","722000",,,"30","-91","67344","247681","EBRP"
"POINT (-91.11821997393 30.319864061114)","LA GOLF UNIVERSITY CLUB LLC","15333 MEMORIAL TOWER DR","BATON ROUGE","LOUISIANA","UNITED STATES","70810","PARISH","YES","713000",,,"30","-91","48757","137816","EBRP"
"POINT (-91.17241556931 30.444116078527)","RED STICK SOCIAL","1509 GOVERNMENT ST","BATON ROUGE","LOUISIANA","UNITED STATES","70802","BATON ROUGE","YES","713000",,,"30","-91","64925","30866","EBRP"
"POINT (-91.027567771466 30.544402105314)","NAGOYA","14455 STE A WAX RD","CENTRAL","LOUISIANA","UNITED STATES","70818","CENTRAL","YES","722000",,,"31","-91","33134","221089","EBRP"
"POINT (-91.048853869119 30.406648163688)","SUPERMARCADO","11848 PARKMEADOW AVE","BATON ROUGE","LOUISIANA","UNITED STATES","70816","BATON ROUGE","YES","722000",,,"30","-91","42206","13567","EBRP"
"POINT (-91.14620460088 30.521258058154)","CIRCLE K STORES #2707657","7997 PLANK RD","BATON ROUGE","LOUISIANA","UNITED STATES","70807","BATON ROUGE","YES","447000","225-357-5661","http://circlek.com/","31","-91","26599","114718","EBRP"
"POINT (-91.158578564467 30.483511996424)","E Z PACK N SERV","3800 PLANK RD","BATON ROUGE","LOUISIANA","UNITED STATES","70805","BATON ROUGE","YES","445110","225-356-4847",,"30","-91","28112","76747","EBRP"
"POINT (-91.115781199746 30.430469404274)","CARRABBAS ITALIAN GRILL","7275 CORPORATE BLVD","BATON ROUGE","LOUISIANA","UNITED STATES","70809","PARISH","YES","722000",,,"30","-91","26148","134542","EBRP"
"POINT (-91.061134245214 30.37368691749)","COST PLUS WORLD MARKET","10565 S MALL DR","BATON ROUGE","LOUISIANA","UNITED STATES","70809","BATON ROUGE","YES","453000",,,"30","-91","27011","185281","EBRP"
"POINT (-91.176493051034 30.530691757497)","ELEMENT BATON ROUGE","1642 CARVER ST","BATON ROUGE","LOUISIANA","UNITED STATES","70807","BATON ROUGE","YES","721000",,,"31","-91","67452","37412","EBRP"
"POINT (-91.103084215385 30.450913811906)","AMERICAN LEGION NICHOLSON POST #38","151 S WOODDALE DR","BATON ROUGE","LOUISIANA","UNITED STATES","70806","BATON ROUGE","YES","813319","225-927-8826","http://legion.org","30","-91","452","30890","EBRP"
"POINT (-91.140376879165 30.417949658729)","GOOD TIMES","3145 STE F COLLEGE DR","BATON ROUGE","LOUISIANA","UNITED STATES","70808","BATON ROUGE","YES","453000",,,"30","-91","67719","249085","EBRP"
"POINT (-91.136309051869 30.550053496513)","DANNY D DAIQUIRIS","11463 PLANK RD","BATON ROUGE","LOUISIANA","UNITED STATES","70811","PARISH","YES","722000",,,"31","-91","27406","11302","EBRP"
"POINT (-91.178594084343 30.396048220537)","THE HOUSE IN TIGERLAND","1003 BOB PETTIT BLVD","BATON ROUGE","LOUISIANA","UNITED STATES","70820","BATON ROUGE","YES","445000",,,"30","-91","50044","311","EBRP"
"POINT (-91.08824156229 30.374121375933)","FLAMBEE CAFE","8210 VILLAGE PLAZA CT","BATON ROUGE","LOUISIANA","UNITED STATES","70810","PARISH","YES","722000",,,"30","-91","47580","154216","EBRP"
"POINT (-91.135724902227 30.475094998553)","HAPPY FOOD MART","2879 DOUGHERTY DR","BATON ROUGE","LOUISIANA","UNITED STATES","70805","BATON ROUGE","YES","445000",,,"30","-91","50011","65858","EBRP"
"POINT (-91.085015754672 30.397137536865)","CIRCLE K STORES #2706826","5550 BLUEBONNET BLVD","BATON ROUGE","LOUISIANA","UNITED STATES","70809","PARISH","YES","447000",,,"30","-91","59773","95012","EBRP"
"POINT (-91.054230963351 30.411780233499)","BOTTLE & TAP","11445 STE A COURSEY BLVD","BATON ROUGE","LOUISIANA","UNITED STATES","70816","PARISH","YES","722000",,,"30","-91","43424","216505","EBRP"
"POINT (-91.137683853358 30.421994084899)","HAMPTON INN HOTEL","4646 CONSTITUTION AVE","BATON ROUGE","LOUISIANA","UNITED STATES","70808","BATON ROUGE","YES","721000",,,"30","-91","29780","85615","EBRP"
"POINT (-91.102200446858 30.405668785329)","RACETRAC #492","4665 ESSEN LN","BATON ROUGE","LOUISIANA","UNITED STATES","70809","PARISH","YES","447000",,,"30","-91","34570","85814","EBRP"
"POINT (-91.168062256458 30.577605377651)","SHOPPERS VALUE FOODS","280 MAIN ST","BAKER","LOUISIANA","UNITED STATES","70714","BAKER","YES","453000",,,"31","-91","41525","187580","EBRP"
"POINT (-91.149834280989 30.649045947802)","JARREAU'S CAJUN SPECIALTIES","4696 ZACHARY-SLAUGHTER HWY","ZACHARY","LOUISIANA","UNITED STATES","70791","ZACHARY","YES","722000",,,"31","-91","64260","197890","EBRP"
"POINT (-91.15049301505 30.423146950192)","OUTBACK STEAKHOUSE","2415 S ACADIAN THWY","BATON ROUGE","LOUISIANA","UNITED STATES","70808","BATON ROUGE","YES","722000",,,"30","-91","33576","59404","EBRP"
"POINT (-91.167921640092 30.462352076325)","HOT SPOT LOUNGE","1555 SCENIC HWY","BATON ROUGE","LOUISIANA","UNITED STATES","70802","BATON ROUGE","YES","722000",,,"30","-91","30165","33506","EBRP"
"POINT (-91.087145331055 30.475410740248)","SMILEY FAMILY","2944 CRATER LAKE DR","BATON ROUGE","LOUISIANA","UNITED STATES","70814","BATON ROUGE","YES","453000",,,"30","-91","67498","66334","EBRP"
"POINT (-91.178059109157 30.41784179117)","KOI SUSHI BAR","217 W STATE ST","BATON ROUGE","LOUISIANA","UNITED STATES","70802","BATON ROUGE","YES","722000",,,"30","-91","31376","136059","EBRP"
"POINT (-91.130971739816 30.502813980012)","CVS PHARMACY","5889 AIRLINE HWY","BATON ROUGE","LOUISIANA","UNITED STATES","70812","BATON ROUGE","YES","446110",,"http://cvs.com/","31","-91","2569","98313","EBRP"
"POINT (-91.17998212649 30.396498214901)","JENKA PHOTOGRAPHY LLC","1184 BOB PETTIT BLVD","BATON ROUGE","LOUISIANA","UNITED STATES","70820","BATON ROUGE","YES","541000",,,"30","-91","38998","139943","EBRP"
"POINT (-91.156259689063 30.461754652122)","PEYTON PLACE LOUNGE & RESTAURANT","1533 N ACADIAN THWY W","BATON ROUGE","LOUISIANA","UNITED STATES","70802","BATON ROUGE","YES","722000",,,"30","-91","33922","32165","EBRP"
"POINT (-91.0946470279 30.387423054698)","RENAISSANCE BATON ROUGE HOTEL","7000 BLUEBONNET BLVD","BATON ROUGE","LOUISIANA","UNITED STATES","70810","PARISH","YES","722000",,,"30","-91","34851","144322","EBRP"
"POINT (-91.118037009563 30.484807207293)","RIGHT WAY 1","7111 AIRLINE HWY","BATON ROUGE","LOUISIANA","UNITED STATES","70805","BATON ROUGE","YES","447000",,,"30","-91","49786","108532","EBRP"
"POINT (-91.152344614676 30.520854268824)","RACETRAC #117","3730 HARDING BLVD","BATON ROUGE","LOUISIANA","UNITED STATES","70807","BATON ROUGE","YES","447000",,,"31","-91","34566","134851","EBRP"
"POINT (-91.016837037277 30.40680146592)","OUTBACK STEAKHOUSE","5280 JONES CREEK RD","BATON ROUGE","LOUISIANA","UNITED STATES","70817","PARISH","YES","722000",,,"30","-91","33576","91989","EBRP"
"POINT (-91.188133024477 30.450522872478)","THE VINTAGE","333 STE 110 LAUREL ST","BATON ROUGE","LOUISIANA","UNITED STATES","70801","BATON ROUGE","YES","722000",,,"30","-91","66119","242402","EBRP"
"POINT (-91.031652110406 30.408289954739)","TACO CHOPS","13214 STE A COURSEY BLVD","BATON ROUGE","LOUISIANA","UNITED STATES","70817","PARISH","YES","722000",,,"30","-91","41495","186499","EBRP"
"POINT (-91.125986881404 30.361704980039)","CITY MART LLC","9301 BURBANK DR","BATON ROUGE","LOUISIANA","UNITED STATES","70820","PARISH","YES","453000",,,"30","-91","66835","124044","EBRP"
"POINT (-91.119409324992 30.451025598587)","DISCOUNT CIGARETTE & BEVERAGE","6918 FLORIDA BLVD","BATON ROUGE","LOUISIANA","UNITED STATES","70806","BATON ROUGE","YES","453000",,,"30","-91","27744","136917","EBRP"
"POINT (-91.141105192935 30.493479360513)","CIRCLE K STORE 2703772","4959 EVANGELINE ST","BATON ROUGE","LOUISIANA","UNITED STATES","70805","BATON ROUGE","YES","447000","225-356-8972","http://circlek.com/","30","-91","26561","88228","EBRP"
"POINT (-91.064194268307 30.38606189386)","TWIN PEAKS RESTAURANT","6990 SIEGEN LN","BATON ROUGE","LOUISIANA","UNITED STATES","70809","PARISH","YES","722000",,,"30","-91","37665","107688","EBRP"
"POINT (-91.108273032354 30.431344334313)","THE VELVET CACTUS","7655 OLD HAMMOND HWY","BATON ROUGE","LOUISIANA","UNITED STATES","70806","BATON ROUGE","YES","722000",,,"30","-91","41420","112846","EBRP"
"POINT (-91.025122248541 30.366439570391)","THE TACOS PLACE BR","14111 STE 125 AIRLINE HWY","BATON ROUGE","LOUISIANA","UNITED STATES","70817","PARISH","YES","445000",,,"30","-91","66492","216765","EBRP"
"POINT (-91.158504764245 30.42470683392)","IVARS SPORTS BAR AND GRILL","2954 PERKINS RD","BATON ROUGE","LOUISIANA","UNITED STATES","70808","BATON ROUGE","YES","722000",,,"30","-91","30543","167595","EBRP"
"POINT (-91.118792330172 30.455338240755)","JOHNSON GROCERY & MARKET","6979 VAN GOGH AVE","BATON ROUGE","LOUISIANA","UNITED STATES","70806","BATON ROUGE","YES","445110","225-929-9923",,"30","-91","4656","107649","EBRP"
"POINT (-91.002064582651 30.407266936826)","TOWN LIQUOR & BEER","16565 GEORGE O'NEAL RD","BATON ROUGE","LOUISIANA","UNITED STATES","70817","PARISH","YES","445000",,,"30","-91","66619","38316","EBRP"
"POINT (-91.047281305599 30.372050091361)","MOCKLER BEVERAGE COMPANY","11811 RIEGER RD","BATON ROUGE","LOUISIANA","UNITED STATES","70809","PARISH","YES","424000",,,"30","-91","32944","13253","EBRP"
"POINT (-91.120437241452 30.468726034877)","SAVE MORE MARKET #2","2180 LOBDELL BLVD","BATON ROUGE","LOUISIANA","UNITED STATES","70806","BATON ROUGE","YES","445110","225-924-3927",,"30","-91","35471","55062","EBRP"
"POINT (-91.025425826166 30.439074074734)","GOLDEN CORRAL  #996","13606 MILLERVILLE GREENS BLVD","BATON ROUGE","LOUISIANA","UNITED STATES","70816","BATON ROUGE","YES","722000",,,"30","-91","47653","225583","EBRP"
"POINT (-91.180530381741 30.522243613879)","SCENIC HWY HOP IN CIRCLE K","8235 STE 100 SCENIC HWY","BATON ROUGE","LOUISIANA","UNITED STATES","70807","BATON ROUGE","YES","447000",,,"31","-91","35486","216959","EBRP"
"POINT (-91.057700891838 30.458266035498)","CVS PHARMACY #5317","11430 FLORIDA BLVD","BATON ROUGE","LOUISIANA","UNITED STATES","70815","BATON ROUGE","YES","446110",,"http://cvs.com/","30","-91","27276","11044","EBRP"
"POINT (-91.098931894186 30.458002778114)","ON THE RUN #14","8455 AIRLINE HWY","BATON ROUGE","LOUISIANA","UNITED STATES","70815","BATON ROUGE","YES","447110",,,"30","-91","3246","118076","EBRP"
"POINT (-91.052047051984 30.41265200083)","ALBASHA GREEK & LEBANESE RESTAURANT","4520 STE 102 S SHERWOOD FOREST BLVD","BATON ROUGE","LOUISIANA","UNITED STATES","70816","BATON ROUGE","YES","722110",,,"30","-91","11812","144683","EBRP"
"POINT (-91.162394481068 30.448383658825)","CLUB BELLA","116 N 25TH ST","BATON ROUGE","LOUISIANA","UNITED STATES","70806","BATON ROUGE","YES","445000",,,"30","-91","38731","12072","EBRP"
