"the_geom","id","name","type","gradelevels","public_private","schoolsystem","name_former","full_address","city","state","zip","phone_number","website"
"POINT (-90.992227886276 30.515283504121)","111","Bellingrath Hills Elementary School","Elementary","Pre-K to K","Public","Central Community",,"6612 AUDUSSON DR","GREENWELL SPRINGS","LOUISIANA","70739","225-261-4093","http://bellingrathhills.centralcss.org/"
"POINT (-91.033691567894 30.421988078249)","13","Episcopal High School","High","Pre-K to 12","Private","Private",,"3200 WOODLAND RIDGE BLVD","BATON ROUGE","LOUISIANA","70816","225-753-3180","http://www.ehsbr.org/"
"POINT (-91.190137730609 30.642755910421)","38","Copper Mill Elementary School","Elementary",,"Public","Zachary Community",,"1300 INDEPENDENCE BLVD","ZACHARY","LOUISIANA","70791","225-658-1288","http://www.coppermillelementary.org/"
"POINT (-91.115240548798 30.474294475303)","124","Camelot College","College",,"Private","Private",,"2618 WOODDALE BLVD","BATON ROUGE","LOUISIANA","70805","225-928-3005","http://www.camelotcollege.com/"
"POINT (-91.102783911264 30.402227476302)","122","Southeastern Louisiana University School of Nursing","University",,"Public","University of Louisiana System",,"7900 MARGARET ANN AVE","BATON ROUGE","LOUISIANA","70809","225-765-2324","http://southeastern.edu/acad_research/depts/nurs/"
"POINT (-91.06026543629 30.402408457206)","125","Baton Rouge International School","All Grades","K to 12","Private","Private",,"5015 AUTOPLEX DR","BATON ROUGE","LOUISIANA","70809","225-293-4338","http://www.brintl.com/"
"POINT (-91.060923870464 30.566740652915)","35","Central Private School","All Grades","Pre-K to 12","Private","Private",,"12801 CENTERRA CT","BAKER","LOUISIANA","70714","225-261-3341","http://www.centralprivate.org/"
"POINT (-91.160283925296 30.368616467165)","121","LSU Carrol L. Herring Fire and Emergency Training Institute","University",,"Public","Louisiana State University System","Louisiana State University Fireman Training Center","6868 NICHOLSON DR","BATON ROUGE","LOUISIANA","70820","225-334-6300","http://feti.lsu.edu/"
"POINT (-91.143845020118 30.448957290779)","46","Country Day School of Baton Rouge","Elementary","Pre-K","Private","Private",,"4455 NORTH BLVD","BATON ROUGE","LOUISIANA","70806","225-928-4042","http://www.countrydayschoolbr.com/"
"POINT (-91.000835723171 30.395942329336)","45","Shenandoah Elementary School","Elementary","Pre-K to 5","Public","East Baton Rouge Parish",,"16555 APPOMATTOX AVE","BATON ROUGE","LOUISIANA","70817","225-753-3560","https://www.ebrschools.org/schools/"
"POINT (-91.113134124891 30.465748801209)","127","Brighter Horizon School of Baton Rouge","All Grades","PK to 12","Private","Private",,"1896 WOODDALE BLVD","BATON ROUGE","LOUISIANA","70806","225-927-2521","http://www.brighterhorizonschool.org/"
"POINT (-91.191805299157 30.523444375115)","123","Southern University","University",,"Public","Southern University System",,"803 HARDING BLVD","BATON ROUGE","LOUISIANA","70813","225-771-4500","http://www.subr.edu/"
"POINT (-91.055611255338 30.449944060875)","119","Saint Thomas More Catholic School","Elementary","Pre-K to 8","Private","Catholic",,"11400 SHERBROOK DR","BATON ROUGE","LOUISIANA","70815","225-275-2820","http://www.stmbr.org/"
"POINT (-91.048338899094 30.467505492133)","6","Belaire Magnet High School","High","9 to 12","Public","East Baton Rouge Parish",,"12121 TAMS DR","BATON ROUGE","LOUISIANA","70815","225-272-1860","https://www.ebrschools.org/schools/"
"POINT (-91.036119029738 30.487618649511)","1","Victory Academy","Elementary","Pre-K to 8","Private","Private",,"3953 N FLANNERY RD","BATON ROUGE","LOUISIANA","70814","225-272-8339","https://www.vcawarriors.org"
"POINT (-91.082505906727 30.418061480188)","10","Brighton School, The","High","7 to 12","Private","Private","Depaul School","12108 PARKMEADOW AVE","BATON ROUGE","LOUISIANA","70816","225-923-2068","http://www.thebrightonschool.org/"
"POINT (-91.136149516727 30.412704051826)","130","La Printaniere Montessori School","Elementary","K to 5","Private","Private",,"5064 PERKINS RD","BATON ROUGE","LOUISIANA","70808","225-769-2255","http://www.laprintaniere.com/"
"POINT (-91.091642984341 30.442243935003)","114","Hosanna Christian Academy","All Grades","K to 8","Private","Private",,"8850 GOODWOOD BLVD","BATON ROUGE","LOUISIANA","70806","225-926-4885","http://hcablazers.org/"
"POINT (-91.158412194396 30.663050152722)","36","Zachary Early Learning Center","Elementary","Pre-K","Public","Zachary Community",,"4400 ROLLINS PL","ZACHARY","LOUISIANA","70791","225-654-6011","http://www.zacharyelc.org/"
"POINT (-91.038536355189 30.562476661683)","39","Central Intermediate School","Elementary","3 to 5","Public","Central Community",,"12636 SULLIVAN RD","CENTRAL","LOUISIANA","70818","225-261-1390","http://centralintermediate.centralcss.org/"
"POINT (-91.173115402921 30.414524235847)","40","Louisiana State University Laboratory School","All Grades","K to 12","Public","Louisiana State University System",,"45 LAB SCHOOL SERVICE LOT","BATON ROUGE","LOUISIANA","70803","225-578-3221","http://www.uhigh.lsu.edu/"
"POINT (-91.09106611624 30.383811747938)","112","Family Christian Academy","All Grades","K to 12","Private","Private",,"8919 WORLD MINISTRY AVE","BATON ROUGE","LOUISIANA","70810","225-768-3026","http://fcacademy.net/"
"POINT (-91.069172901186 30.378616472462)","25","Saint George Catholic School","Elementary","K to 8","Private","Catholic",,"7880 SAINT GEORGE DR","BATON ROUGE","LOUISIANA","70809","225-293-1298","http://st-georgeschool.com/"
"POINT (-91.187403484395 30.524444092143)","41","Southern University Laboratory School","All Grades","K to 12","Public","Southern University System",,"807 SWAN AVE","BATON ROUGE","LOUISIANA","70813","225-771-3490","http://www.sulabschool.com/"
"POINT (-91.089083957064 30.374995604121)","133","Montessori School of Baton Rouge","Elementary","PK to K","Private","Private",,"8227 WIMBLEDON AVE","BATON ROUGE","LOUISIANA","70810","225-766-9942","http://montessorischoolofbatonrouge.org/"
"POINT (-91.019773720961 30.429278225407)","15","Southeast Middle Magnet School","Middle","6 to 8","Public","East Baton Rouge Parish",,"15000 S HARRELL'S FERRY RD","BATON ROUGE","LOUISIANA","70816","225-753-5930","https://www.ebrschools.org/schools/"
"POINT (-91.148511011039 30.488310600858)","44","Democracy Prep Louisiana Charter School","All Grades","K to 8","Public","Charter",,"4055 PRESCOTT RD","BATON ROUGE","LOUISIANA","70805","225-372-2037","http://dpbrms.democracyprep.org/"
"POINT (-91.005005886097 30.423894484478)","14","Saint Jean Vianney Catholic School","Elementary","K to 8","Private","Catholic",,"16266 S HARRELL'S FERRY RD","BATON ROUGE","LOUISIANA","70816","225-751-1831","http://www.stjeanvianneyschool.org/"
"POINT (-91.063116935003 30.447054783778)","12","Sherwood Middle Academic Magnet School","Middle","6 to 8","Public","East Baton Rouge Parish",,"1020 MARLBROOK DR","BATON ROUGE","LOUISIANA","70815","225-272-3090","https://www.ebrschools.org/schools/"
"POINT (-91.137259800455 30.3768129609)","129","Elan Vital Montessori School","Elementary","K to 6","Private","Private",,"7518 HIGHLAND RD","BATON ROUGE","LOUISIANA","70808","225-767-6620","http://www.elanvitalmontessori.org/"
"POINT (-91.150378146894 30.415822081197)","23","Saint Aloysius Catholic School","Elementary","Pre-K to 8","Private","Catholic",,"4001 MIMOSA ST","BATON ROUGE","LOUISIANA","70808","225-383-3871","http://school.aloysius.org/"
"POINT (-91.168568272402 30.445289658937)","115","The Dufrocq School","Elementary","Pre-K to 5","Public","East Baton Rouge Parish",,"330 S 19TH ST","BATON ROUGE","LOUISIANA","70806","225-334-7653","https://www.ebrschools.org/schools/"
"POINT (-91.155379734189 30.663288064229)","37","Rollins Place Elementary School","Elementary","K to 2","Public","Zachary Community",,"4400 ROLLINS PL","ZACHARY","LOUISIANA","70791","225-658-1940","http://www.rollinsplaceelementary.org/"
"POINT (-91.160005937974 30.658616528807)","118","Northwestern Elementary School","Elementary","K to 1","Public","Zachary Community",,"4200 ROLLINS RD","ZACHARY","LOUISIANA","70791","225-654-2786","http://www.northwesternelementary.org/"
"POINT (-90.989449881258 30.410005481682)","120","Saint Michael the Archangel Diocesan Regional High School","High","9 to 12","Private","Catholic","Bishop Sullivan High School","17521 MONITOR AVE","BATON ROUGE","LOUISIANA","70817","225-753-9782","http://www.smhsbr.org/"
"POINT (-91.018042348752 30.427072168885)","34","Trinity Lutheran School","Elementary","Pre-K to 8","Private","Private",,"15160 S HARRELL'S FERRY RD","BATON ROUGE","LOUISIANA","70816","225-272-3110","http://tlcbr.org/"
"POINT (-91.065667743692 30.483427086608)","5","Park Forest Elementary School","Elementary","Pre-K to 5","Public","East Baton Rouge Parish",,"10717 ELAIN DR","BATON ROUGE","LOUISIANA","70814","225-272-0814","https://www.ebrschools.org/schools/"
"POINT (-91.168742653041 30.447571568975)","131","Louisiana New School Academy","All Grades","4 to 12","Private","Private",,"1900 NORTH BLVD","BATON ROUGE","LOUISIANA","70806","225-344-8900","http://www.lanewschoolacademy.com"
"POINT (-91.165311093552 30.452620877819)","22","Sacred Heart of Jesus School","Elementary","Pre-K to 8","Private","Catholic",,"2251 MAIN ST","BATON ROUGE","LOUISIANA","70802","225-383-7481","http://sacredheartbr.com/"
"POINT (-91.068069547186 30.425247119769)","11","Cedarcrest-Southmoor Elementary School","Elementary","Pre-K to 5","Public","East Baton Rouge Parish",,"10187 TWIN CEDARS ST","BATON ROUGE","LOUISIANA","70816","225-293-9950","https://www.ebrschools.org/schools/"
"POINT (-91.107043820072 30.503207661679)","59","Glen Oaks Park Elementary School","Elementary","Pre-K to 5","Public","East Baton Rouge Parish",,"5656 LANIER DR","BATON ROUGE","LOUISIANA","70812","225-356-4521","https://www.ebrschools.org/schools/"
"POINT (-91.148314059752 30.46282435607)","155","Capitol Elementary School","Elementary","Pre-K to 5","Public","East Baton Rouge Parish",,"4141 GUS YOUNG AVE","BATON ROUGE","LOUISIANA","70802","225-343-9364","https://www.ebrschools.org/schools/"
"POINT (-91.155895015708 30.440736286535)","48","Catholic High School","High","8 to 12","Private","Catholic",,"855 HEARTHSTONE DR","BATON ROUGE","LOUISIANA","70806","225-383-0397","http://www.catholichigh.org/"
"POINT (-91.134449922559 30.46167248848)","86","Melrose Elementary School","Elementary","Pre-K to 5","Public","East Baton Rouge Parish",,"1348 VALCOUR DR","BATON ROUGE","LOUISIANA","70806","225-926-2353","https://www.ebrschools.org/schools/"
"POINT (-91.118218589883 30.464121794936)","95","Jehovah-Jireh Christian Academy","All Grades","K to 12","Private","Private",,"1771 LOBDELL BLVD","BATON ROUGE","LOUISIANA","70806","225-932-2357","http://jjcacademy.org/"
"POINT (-91.085534197004 30.383009303319)","109","The Dunham School","All Grades","Pre-K to 12","Private","Private","Chapel Trafton School","11111 ROY EMERSON DR","BATON ROUGE","LOUISIANA","70810","225-767-7097","http://www.dunhamschool.org/"
"POINT (-91.138894924601 30.48944949394)","63","Martin Luther King Junior Christian Academy","Elementary","Pre-K to 8","Private","Private",,"4295 PRESCOTT CT","BATON ROUGE","LOUISIANA","70805","225-356-7407",
"POINT (-91.124428436404 30.44710063284)","136","Our Lady of Mercy Catholic School","Elementary","Pre-K to 8","Private","Catholic",,"400 MARQUETTE AVE","BATON ROUGE","LOUISIANA","70806","225-924-1054","http://www.olomschool.org/"
"POINT (-91.031146430759 30.508245559539)","91","Saint Alphonsus Catholic School","Elementary","Pre-K to 8","Private","Catholic",,"13940 GREENWELL SPRINGS RD","GREENWELL SPRINGS","LOUISIANA","70739","225-261-5299","http://www.stalphonsusbr.org/"
"POINT (-91.060088222668 30.470370954405)","170","Geo Prep Academy of Baton Rouge","Elementary","K to 7","Public","Charter",,"2311 N SHERWOOD FOREST DR","BATON ROUGE","LOUISIANA","70815","225-927-1500","http://geoprep.org/"
"POINT (-91.131459659301 30.518551575074)","88","Glen Oaks Middle A Redesign School","Middle","6 to 8","Public","Charter","Zion City School","5959 CADILLAC ST","BATON ROUGE","LOUISIANA","70811","225-771-8128","https://www.redesignschoolslouisiana.org"
"POINT (-91.177192437756 30.437853067935)","66","Saint Francis Xavier Catholic School","Elementary","Pre-K to 8","Private","Catholic",,"1150 S 12TH ST","BATON ROUGE","LOUISIANA","70802","225-387-6639","https://www.sfxbr.org"
"POINT (-91.155283928699 30.477227490381)","150","Baton Rouge Community College - Acadian Campus","College",,"Public","Louisiana Community and Technical College System","Baton Rouge Vocational Technical Institute","3250 N ACADIAN THWY","BATON ROUGE","LOUISIANA","70805","1-866-217-9823","http://www.mybrcc.edu/"
"POINT (-91.014473512861 30.706061204962)","161","Northeast Elementary School","Elementary","Pre-K to 6","Public","East Baton Rouge Parish",,"13801 PORT HUDSON-PRIDE RD","PRIDE","LOUISIANA","70770","225-654-5113","https://www.ebrschools.org/schools/"
"POINT (-91.161116938284 30.65222752781)","72","Zachary High School","High",,"Public","Zachary Community",,"4100 BRONCO LN","ZACHARY","LOUISIANA","70791","225-654-2776","http://www.zacharyhigh.org/"
"POINT (-91.167505939648 30.641116524744)","71","Zachary Elementary School","Elementary",,"Public","Zachary Community",,"3775 HEMLOCK ST","ZACHARY","LOUISIANA","70791","225-654-4036","http://zacharyelementary.org/"
"POINT (-91.126433917931 30.354534060126)","158","Gardere Community Christian School","Elementary","PK to 8","Private","Private",,"8538 GSRI AVE","BATON ROUGE","LOUISIANA","70810","225-387-5082","http://gardereschool.com/"
"POINT (-91.012873717521 30.702861613825)","75","Northeast High School","High","7 to 12","Public","East Baton Rouge Parish",,"13700 PORT HUDSON-PRIDE RD","PRIDE","LOUISIANA","70770","225-654-5808","https://www.ebrschools.org/schools/"
"POINT (-91.194980948507 30.541228513686)","67","Crestworth Elementary School","Elementary","Pre-K to 5","Public","East Baton Rouge Parish","Crestworth Learning Academy","10650 AVENUE F","BATON ROUGE","LOUISIANA","70807","225-778-1317","https://www.ebrschools.org/schools/"
"POINT (-91.176949937177 30.53333850227)","68","Scotlandville Magnet High School","High","9 to 12","Public","East Baton Rouge Parish",,"9870 SCOTLAND AVE","BATON ROUGE","LOUISIANA","70807","225-775-3715","https://www.ebrschools.org/schools/"
"POINT (-91.092663956959 30.443360577571)","163","Saint Luke's Episcopal Day School","Elementary","Pre-K to 8","Private","Private",,"8833 GOODWOOD BLVD","BATON ROUGE","LOUISIANA","70806","225-927-8601","https://www.slesbr.org/"
"POINT (-91.142068444075 30.426644272391)","147","Baton Rouge Foreign Language Academic Immersion Magnet Elementary School","Elementary","Pre-K to 5","Public","East Baton Rouge Parish","Valley Park Alternative School","4510 BAWELL ST","BATON ROUGE","LOUISIANA","70808","225-343-6630","http://www.brflaim.org"
"POINT (-91.108338916913 30.4936164955)","81","Lanier Elementary A Redesign School","Elementary","Pre-K to 5","Public","Charter","Lanier Elementary School","4705 LANIER DR","BATON ROUGE","LOUISIANA","70812","225-308-3273","https://www.redesignschoolslouisiana.org"
"POINT (-91.121394914169 30.365838467848)","51","Saint Jude the Apostle School","Elementary","Pre-K to 8","Private","Catholic",,"9150 HIGHLAND RD","BATON ROUGE","LOUISIANA","70808","225-769-2344","http://www.stjudebr.org/"
"POINT (-91.122631024579 30.38298397491)","83","Magnolia Woods Elementary School","Elementary","Pre-K to 5","Public","East Baton Rouge Parish",,"760 MAXINE DR","BATON ROUGE","LOUISIANA","70808","225-769-6845","https://www.ebrschools.org/schools/"
"POINT (-91.178894342175 30.414437348828)","152","Louisiana State University And A&M College","University",,"Public","Louisiana State University System",,"3810 W LAKESHORE DR","BATON ROUGE","LOUISIANA","70808",,"http://www.lsu.edu/"
"POINT (-91.126672922944 30.533616503293)","70","Sharon Hills Elementary School","Elementary","Pre-K to 5","Public","East Baton Rouge Parish",,"6450 GUYNELL DR","BATON ROUGE","LOUISIANA","70811","225-355-6522","https://www.ebrschools.org/schools/"
"POINT (-91.170283934943 30.529727501065)","69","Scotlandville Pre-Engineering Magnet Academy","Middle","6 to 8","Public","East Baton Rouge Parish","Scotlandville Elementary School","9147 ELM GROVE GARDEN DR","BATON ROUGE","LOUISIANA","70807","225-775-0776","https://www.ebrschools.org/schools/"
"POINT (-91.103380505087 30.434157359332)","58","LaSalle Elementary School","Elementary","Pre-K to 5","Public","East Baton Rouge Parish",,"8000 LASALLE AVE","BATON ROUGE","LOUISIANA","70806","225-927-6130","https://www.ebrschools.org/schools/"
"POINT (-91.163640138801 30.459216035828)","56","Capitol High School","High",,"Public","Charter",,"1000 N 23RD ST","BATON ROUGE","LOUISIANA","70802","225-239-7506","https://capitolhighbr.org"
"POINT (-91.174090420391 30.422871051648)","134","McKinley Senior High School","High","9 to 12","Public","East Baton Rouge Parish",,"800 E MC KINLEY ST","BATON ROUGE","LOUISIANA","70802","225-344-7696","https://www.ebrschools.org/schools/"
"POINT (-91.15333892605 30.429449480564)","167","Baton Rouge Center for the Visual and Performing Arts","Elementary","Pre-K to 5","Public","East Baton Rouge Parish","Walnut Hills Elementary School","2040 S ACADIAN THWY","BATON ROUGE","LOUISIANA","70808","225-344-0084","http://www.brcvpa.com/"
"POINT (-91.156603305863 30.43691152024)","140","Saint Joseph's Academy","High","9 to 12","Private","Catholic",,"3015 BROUSSARD ST","BATON ROUGE","LOUISIANA","70806","225-383-7207","https://sjabr.org/"
"POINT (-91.185107370154 30.437654537961)","159","Baton Rouge Community College - Frazier Campus","College",,"Public","Louisiana Community and Technical College System",,"555 JULIA ST","BATON ROUGE","LOUISIANA","70802","1-866-217-9823","http://www.mybrcc.edu/"
"POINT (-91.13167292097 30.440838484049)","103","Westdale Middle School","Middle","6 to 8","Public","East Baton Rouge Parish",,"5650 CLAYCUT RD","BATON ROUGE","LOUISIANA","70806","225-924-1308","https://www.ebrschools.org/schools/"
"POINT (-91.074449909195 30.53361650506)","145","Tanglewood Elementary School","Elementary","1 to 2","Public","Central Community",,"9352 RUSTLING OAKS DR","CENTRAL","LOUISIANA","70818","225-261-3454","http://tanglewood.centralcss.org/"
"POINT (-91.045526224234 30.405295051898)","102","Brighton School, The","Elementary","K to 6","Private","Private","Brighton Academy","9150 BEREFORD DR","BATON ROUGE","LOUISIANA","70809","225-291-2524","http://www.thebrightonschool.org/"
"POINT (-91.152089823538 30.405688588337)","162","Liberty Magnet High School","High","9 to 12","Public","East Baton Rouge Parish","Robert E. Lee High School","1105 LEE DR","BATON ROUGE","LOUISIANA","70808","225-924-9406","https://www.ebrschools.org/schools/"
"POINT (-91.088882111234 30.434003356005)","53","Tara High School","High","9 to 12","Public","East Baton Rouge Parish",,"9002 WHITEHALL AVE","BATON ROUGE","LOUISIANA","70806","225-927-6100","https://www.ebrschools.org/schools/"
"POINT (-91.017340878117 30.376526479094)","99","Greater Baton Rouge Hope Academy","All Grades","1 to 12","Private","Private","Gables Academy","15333 JEFFERSON HWY","BATON ROUGE","LOUISIANA","70817","225-293-0141","http://hopeacademybr.org"
"POINT (-91.095700284932 30.384978687233)","100","Jimmy Swaggart Bible College and Seminary","College",,"Private","Private","World Evangelism Bible College","7320 BLUEBONNET BLVD","BATON ROUGE","LOUISIANA","70810","225-768-3890","http://www.jsbc.edu"
"POINT (-91.050235493425 30.397682797269)","96","Parkview Baptist School","All Grades","K to 12","Private","Private",,"5750 PARKVIEW CHURCH RD","BATON ROUGE","LOUISIANA","70816","225-291-2500","http://www.parkviewbaptist.com/"
"POINT (-91.056419033269 30.386547087836)","94","Bethany Christian School","Elementary","K to 6","Private","Private",,"11107 HONORE LN","BATON ROUGE","LOUISIANA","70809","225-774-0133","http://www.bethanychristianschool.com/"
"POINT (-91.128894922244 30.490561494767)","235","EBR Readiness High School","High","9 to 12","Public","East Baton Rouge Parish","Brookstown Middle Magnet Academy","4375 E BROOKSTOWN DR","BATON ROUGE","LOUISIANA","70805","225-355-6556","https://www.ebrschools.org/schools/"
"POINT (-91.065115675272 30.445871505335)","250","Eva Legard Center for Coastal and Environmental Studies","High","6 to 12","Public","East Baton Rouge Parish",,"10730 GOODWOOD BLVD","BATON ROUGE","LOUISIANA","70815","225-922-5472","https://ebrschools.org/eva-legard-center-for-coastal-and-environmental-studies/"
"POINT (-91.120217713785 30.512101429081)","244","Glen Oaks Magnet High School","High","6 to 12","Public","East Baton Rouge Parish",,"6650 CEDAR GROVE DR","BATON ROUGE","LOUISIANA","70812","225-356-4306","https://www.ebrschools.org/schools/"
"POINT (-91.079993871257 30.442550587845)","234","Broadmoor Elementary School","Elementary","Pre-K to 5","Public","East Baton Rouge Parish",,"9650 GOODWOOD BLVD","BATON ROUGE","LOUISIANA","70815","225-925-0343","https://www.ebrschools.org/schools/"
"POINT (-91.039288862687 30.664673575547)","198","Zachary Christian Academy","All Grades","K to 12","Private","Private",,"11950 MILLDALE RD","ZACHARY","LOUISIANA","70791","225-570-2539","https://www.milldale.org/zachary-christian-academy"
"POINT (-91.156778386746 30.443119672186)","212","Louisiana Key Academy","Elementary","K to 4","Public","Charter",,"3172 GOVERNMENT ST","BATON ROUGE","LOUISIANA","70806","225-298-1223","http://www.lakeyacademy.com/"
"POINT (-91.014372033463 30.378327698392)","218","Most Blessed Sacrament School","Elementary","Pre-K to 8","Private","Catholic",,"8033 BARINGER RD","BATON ROUGE","LOUISIANA","70817","225-751-0273","http://www.mbsbr.org/"
"POINT (-91.151429661389 30.476988393064)","80","Istrouma Middle Magnet School","Middle","6 to 8","Public","East Baton Rouge Parish",,"3730 WINBOURNE AVE","BATON ROUGE","LOUISIANA","70805","225-636-2686","https://www.ebrschools.org/schools/"
"POINT (-91.134172920486 30.431394481565)","104","Westdale Heights Academic Magnet School","Elementary","Pre-K to 5","Public","East Baton Rouge Parish",,"2000 COLLEGE DR","BATON ROUGE","LOUISIANA","70808","225-926-5421","https://www.ebrschools.org/schools/"
"POINT (-91.140005923603 30.464172488279)","165","EBR Readiness Elementary Campus","Elementary","K to 5","Public","East Baton Rouge Parish","Greenville Elementary School","1645 N FOSTER DR","BATON ROUGE","LOUISIANA","70802","225-930-5637","https://www.ebrschools.org/schools/"
"POINT (-91.141540525375 30.360725966873)","187","Idea Innovation Charter School","Elementary","K to 9","Public","Charter - EBRPSS",,"7800 INNOVATION PARK DR","BATON ROUGE","LOUISIANA","70820","225-953-7963","https://www.ideapublicschools.org/our-schools/idea-innovation"
"POINT (-91.181878633064 30.440251522283)","229","EBR Virtual Academy","All Grades","Pre-K to 12","Public","East Baton Rouge Parish","South Boulevard Elementary","802 MAYFLOWER ST","BATON ROUGE","LOUISIANA","70802","225-922-5595","http://schools.ebrschools.org/virtualacademy/"
"POINT (-91.065626513185 30.446052556071)","260","Audubon Elementary School","Elementary","Pre-K to 5","Public","East Baton Rouge Parish",,"10730 GOODWOOD BLVD","BATON ROUGE","LOUISIANA","70815","225-272-2620","https://www.ebrschools.org/schools/"
"POINT (-91.142937575446 30.408372661371)","243","Glasgow Middle School","Middle","6 to 8","Public","East Baton Rouge Parish",,"1676 GLASGOW AVE","BATON ROUGE","LOUISIANA","70808","225-925-2942","https://www.ebrschools.org/schools/"
"POINT (-91.106918347925 30.45264106553)","171","Basis Baton Rouge Primary Mid City","Elementary","K to 5","Public","Charter - EBRPSS",,"7921 FLORIDA BLVD","BATON ROUGE","LOUISIANA","70806","225-347-0209","https://enrollbasis.com/baton-rouge-mid-city/"
"POINT (-91.140403316998 30.498966698697)","156","Inspire Charter Academy","Elementary","K to 8","Public","Charter - EBRPSS",,"5454 N FOSTER DR","BATON ROUGE","LOUISIANA","70805","225-356-3936","https://www.nhaschools.com/schools/Inspire-Charter-Academy/en"
"POINT (-91.175713808926 30.446477160602)","175","Shiloh Baptist Early Learning Academy","Elementary","K to 1","Private","Private",,"185 EDDIE ROBINSON SR DR","BATON ROUGE","LOUISIANA","70802","225-343-4734",
"POINT (-91.186418896362 30.448683302158)","226","Saint James Episcopal Day School","Elementary","Pre-K to 5","Private","Private",,"445 CONVENTION ST","BATON ROUGE","LOUISIANA","70801","225-344-0805","http://www.stjameseds.org/"
"POINT (-91.156434111066 30.416551260198)","261","Trinity Episcopal School","Elementary","Pre-K to 5","Private","Private",,"3550 MORNING GLORY AVE","BATON ROUGE","LOUISIANA","70808","225-387-0398","http://www.trinityschoolbr.org/"
"POINT (-91.137819828888 30.447980286827)","180","Baton Rouge Community College","College",,"Public","Louisiana Community and Technical College System",,"201 COMMUNITY COLLEGE DR","BATON ROUGE","LOUISIANA","70806","1-866-217-9823","http://www.mybrcc.edu/"
"POINT (-91.037672430224 30.451679401118)","116","Twin Oaks Elementary School","Elementary","Pre-K to 5","Public","East Baton Rouge Parish",,"819 TRAMMELL DR","BATON ROUGE","LOUISIANA","70815","225-275-6620","https://www.ebrschools.org/schools/"
"POINT (-91.139906953094 30.5928911787)","105","White Hills Elementary School","Elementary","Pre-K to 5","Public","East Baton Rouge Parish",,"5300 BENTLEY DR","BAKER","LOUISIANA","70714","225-775-5891","https://www.ebrschools.org/schools/"
"POINT (-91.151397379257 30.416518611047)","29","Southdowns Pre-K Center","Elementary","Pre-K to K","Public","East Baton Rouge Parish",,"2050 HOOD AVE","BATON ROUGE","LOUISIANA","70808","225-346-1127","https://www.ebrschools.org/schools/"
"POINT (-91.144680742792 30.54126139503)","210","Helix Aviation Academy","All Grades","K to 12","Charter","East Baton Rouge Parish",,"4400 AIRPARK BLVD","BATON ROUGE","LOUISIANA","70807","225-427-8004","https://helixaviationacademy.org"
"POINT (-91.111358677215 30.453495338174)","196","Collegiate Baton Rouge","High","9 to 12","Public","Charter",,"282 LOBDELL BLVD","BATON ROUGE","LOUISIANA","70806","225-892-6962","https://cbr.collegiateacademies.org"
"POINT (-91.14444992537 30.479449491097)","164","Winbourne Elementary School","Elementary","Pre-K to 5","Public","East Baton Rouge Parish",,"4503 WINBOURNE AVE","BATON ROUGE","LOUISIANA","70805","225-355-4446","https://www.ebrschools.org/schools/"
"POINT (-91.058839277957 30.470358210489)","195","Geo Next Generation High School","High","9 to 12","Public","Charter",,"2355 N SHERWOOD FOREST DR","BATON ROUGE","LOUISIANA","70815","225-314-2044","http://geonextgenerationhighschool.org/"
"POINT (-91.133338927307 30.584172514501)","64","Park Ridge Academic Magnet School","Elementary","Pre-K to 5","Public","City of Baker",,"5905 GROOM RD","BAKER","LOUISIANA","70714","225-775-5924","https://www.bakerschools.org/apps/pages/PRAMSchool"
"POINT (-91.137156925582 30.514579118119)","202","Baton Rouge College Preparatory","Middle","5 to 7","Public","Charter",,"5300 MONARCH AVE","BATON ROUGE","LOUISIANA","70811","225-771-8128","http://brcollegeprep.org/"
"POINT (-91.144471806169 30.500494742236)","209","AMIKids Baton Rouge","All Grades","4 to 12","Private","Private",,"5555 BEECHWOOD DR","BATON ROUGE","LOUISIANA","70805","225-356-3461","http://www.amikidsbatonrouge.org"
"POINT (-91.076062928138 30.465367247985)","148","Villa Del Rey Elementary School","Elementary","Pre-K to 5","Public","East Baton Rouge Parish",,"9765 CUYHANGA PKWY","BATON ROUGE","LOUISIANA","70815","225-924-1606","https://www.ebrschools.org/schools/"
"POINT (-91.148459724668 30.392334226568)","54","Highland Elementary School","Elementary","Pre-K to 5","Public","East Baton Rouge Parish",,"280 SUNSET BLVD","BATON ROUGE","LOUISIANA","70808","225-766-1272","https://www.ebrschools.org/schools/"
"POINT (-91.142102015205 30.361646394208)","181","Emerge School for Autism","Elementary","K to 5","Public","Charter - EBRPSS",,"7784 INNOVATION PARK DR","BATON ROUGE","LOUISIANA","70820","225-343-4232","https://www.emergeschool.org"
"POINT (-91.15090121022 30.476693117342)","79","Istrouma Magnet High School","High","9 to 12","Public","East Baton Rouge Parish",,"3730 WINBOURNE AVE","BATON ROUGE","LOUISIANA","70805","225-636-2686","https://www.ebrschools.org/schools/"
"POINT (-91.189727933902 30.393894471815)","222","Louisiana School for the Deaf","All Grades","Pre-K to 12","Public","Louisiana Board of Elementary and Secondary Education",,"2888 BRIGHTSIDE DR","BATON ROUGE","LOUISIANA","70820","225-769-8160","http://lalsd.org/"
"POINT (-91.153458168294 30.47624842877)","239","Dalton Elementary A Redesign School","Elementary","Pre-K to 5","Public","Charter","Celerity Dalton Charter School","3605 ONTARIO ST","BATON ROUGE","LOUISIANA","70805","225-357-0244","https://www.redesignschoolslouisiana.org"
"POINT (-91.173572854417 30.467607010144)","206","CSAL Elementary School","Elementary","K to 5","Public","Charter - EBRPSS",,"1555 MADISON AVE","BATON ROUGE","LOUISIANA","70802","225-448-5399","https://ces.csalcharterschools.org"
"POINT (-91.135810976118 30.413908150237)","194","Country Day School of Baton Rouge","Elementary","Pre-K","Private","Private",,"3131 CONGRESS BLVD","BATON ROUGE","LOUISIANA","70808","225-761-4800","http://www.countrydayschoolbr.com/"
"POINT (-91.097075663264 30.463721525085)","186","Idea Bridge Charter School","Elementary","K to 8","Public","Charter - EBRPSS",,"1500 N AIRWAY DR","BATON ROUGE","LOUISIANA","70815","225-963-5910","https://ideapublicschools.org/our-schools/idea-bridge"
"POINT (-91.165283936493 30.587227513819)","247","Baker High School","High","9 to 12","Public","City of Baker",,"3200 GROOM RD","BAKER","LOUISIANA","70714","225-775-1259","https://www.bakerschools.org/apps/pages/BakerHighSchool"
"POINT (-91.185586906668 30.538282453614)","20","Progress Elementary School","Elementary","Pre-K to 5","Public","East Baton Rouge Parish",,"855 PROGRESS RD","BATON ROUGE","LOUISIANA","70807","225-775-4986","https://www.ebrschools.org/schools/"
"POINT (-91.039632346488 30.564374503693)","253","Central Middle School","Middle","6 to 8","Public","Central Community",,"12656 SULLIVAN RD","CENTRAL","LOUISIANA","70818","225-261-2237","http://centralmiddle.centralcss.org/"
"POINT (-91.035672089825 30.349006352887)","208","Agape School of Baton Rouge","Elementary","K to 8","Private","Private",,"17170 PERKINS RD","BATON ROUGE","LOUISIANA","70810","225-605-3055","https://agapeschoolofbr.com"
"POINT (-91.172938192561 30.468720966243)","205","CSAL Madison Preparatory Academy","High","9 to 12","Public","Charter",,"2269 N 17TH ST","BATON ROUGE","LOUISIANA","70802","225-448-5399","https://mpa.csalcharterschools.org"
"POINT (-91.116957428062 30.465032349664)","200","Geo Prep Mid City","Elementary","K to 8","Public","Charter",,"1900 LOBDELL BLVD","BATON ROUGE","LOUISIANA","70806","225-236-9333","https://geoprepmc.org/"
"POINT (-91.116558859434 30.370553639353)","220","Wildwood Elementary School","Elementary","Pre-K to 5","Public","East Baton Rouge Parish",,"444 HALFWAY TREE RD","BATON ROUGE","LOUISIANA","70810","225-766-6002","https://www.ebrschools.org/schools/"
"POINT (-91.110519642997 30.400309714604)","217","Franciscan Missionaries of Our Lady University","University",,"Private","Private","Our Lady of the Lake College","5414 BRITTANY DR","BATON ROUGE","LOUISIANA","70808","225-768-1700","https://franu.edu"
"POINT (-91.187379539639 30.449680044069)","157","Helix Mentorship STEAM Academy","High","9 to 12","Public","Charter - EBRPSS",,"339 FLORIDA ST","BATON ROUGE","LOUISIANA","70801","225-346-5180","https://www.helixmentorshipacademy.org/index.jsp"
"POINT (-91.145838924733 30.446949484958)","231","Bernard Terrace Elementary School","Elementary","Pre-K to 5","Public","East Baton Rouge Parish",,"241 EDISON ST","BATON ROUGE","LOUISIANA","70806","225-343-5769","https://www.ebrschools.org/schools/"
"POINT (-91.170050606532 30.538532591345)","65","Ryan Elementary School","Elementary","Pre-K to 5","Public","East Baton Rouge Parish",,"10337 ELM GROVE GARDEN DR","BATON ROUGE","LOUISIANA","70807","225-775-2407","https://www.ebrschools.org/schools/"
"POINT (-91.049817983282 30.495870306521)","245","Greenbrier Elementary School","Elementary","Pre-K to 5","Public","East Baton Rouge Parish",,"12203 CANTERBURY DR","BATON ROUGE","LOUISIANA","70814","225-275-4260","https://www.ebrschools.org/schools/"
"POINT (-91.15944993413 30.582783513377)","246","Baker Heights Elementary School","Elementary","Pre-K to 1","Public","City of Baker",,"3750 HARDING ST","BAKER","LOUISIANA","70714","225-775-1493","https://www.bakerschools.org/apps/pages/BHESchool"
"POINT (-91.04583889893 30.467227492231)","7","LaBelle Aire Elementary School","Elementary","Pre-K to 5","Public","East Baton Rouge Parish",,"12255 TAMS DR","BATON ROUGE","LOUISIANA","70815","225-275-7480","https://www.ebrschools.org/schools/"
"POINT (-91.139423459085 30.450343284313)","189","Louisiana Virtual Charter Academy","All Grades","Pre-K to 12","Public","Charter - Virtual",,"4962 FLORIDA BLVD","BATON ROUGE","LOUISIANA","70806","877-490-3596","https://lavca.k12.com"
"POINT (-91.164449934463 30.555005507218)","154","EBR Readiness Middle Campus","Middle","6 to 8","Public","East Baton Rouge Parish","Beechwood Elementary School","2555 DESOTO DR","BATON ROUGE","LOUISIANA","70807","225-775-4285","https://www.ebrschools.org/schools/"
"POINT (-91.067201345646 30.540701482046)","191","Baton Rouge Community College - Central Campus","College",,"Public","Louisiana Community and Technical College System",,"10700 HOOPER RD","CENTRAL","LOUISIANA","70818","1-866-217-9823","http://www.mybrcc.edu/"
"POINT (-91.145648328435 30.46832741795)","230","Belfair Montessori Magnet School","Elementary","Pre-K to 5","Public","East Baton Rouge Parish",,"4451 FAIRFIELDS AVE","BATON ROUGE","LOUISIANA","70802","225-356-6191","https://www.ebrschools.org/schools/"
"POINT (-91.115445156042 30.354818134915)","179","South Baton Rouge Charter Academy","Elementary","PK to 8","Public","Charter - EBRPSS",,"9211 PARKWAY DR","BATON ROUGE","LOUISIANA","70810","225-349-7489","http://www.sbrcharter.org/"
"POINT (-91.131585061803 30.550678143018)","236","Brownfields Elementary School","Elementary","Pre-K to 5","Public","East Baton Rouge Parish",,"11615 ELLEN DR","BATON ROUGE","LOUISIANA","70811","225-775-3527","https://www.ebrschools.org/schools/"
"POINT (-91.138108434517 30.417904771314)","207","University View Academy","All Grades","K to 12","Public","Charter - Virtual",,"3113 VALLEY CREEK DR","BATON ROUGE","LOUISIANA","70808","225-421-2900","https://www.universityview.academy"
"POINT (-91.018338895054 30.541672508645)","252","Central High School","High","9 to 12","Public","Central Community",,"10200 E BROOKSIDE DR","CENTRAL","LOUISIANA","70818","225-261-3438","http://centralhigh.centralcss.org/"
"POINT (-91.075390246237 30.442325081877)","233","Broadmoor Senior High School","High","9 to 12","Public","East Baton Rouge Parish",,"10100 GOODWOOD BLVD","BATON ROUGE","LOUISIANA","70815","225-926-1420","https://www.ebrschools.org/schools/"
"POINT (-91.091949908103 30.410283478868)","144","Westminster Elementary School","Elementary","Pre-K to 5","Public","East Baton Rouge Parish",,"8935 WESTMINSTER DR","BATON ROUGE","LOUISIANA","70809","225-927-2930","https://www.ebrschools.org/schools/"
"POINT (-91.174794440301 30.433189331547)","135","McKinley Middle Academic Magnet School of Visual and Performing Arts","Middle","6 to 8","Public","East Baton Rouge Parish",,"1550 EDDIE ROBINSON SR DR","BATON ROUGE","LOUISIANA","70802","225-388-0089","https://www.ebrschools.org/schools/"
"POINT (-91.122783921354 30.503061497617)","263","Merrydale Elementary School","Elementary","Pre-K to 5","Public","East Baton Rouge Parish",,"6700 RIO DR","BATON ROUGE","LOUISIANA","70812","225-355-0346","https://www.ebrschools.org/schools/"
"POINT (-91.013687049379 30.436143102421)","16","Wedgewood Elementary School","Elementary","Pre-K to 5","Public","East Baton Rouge Parish",,"2330 ASPENWOOD DR","BATON ROUGE","LOUISIANA","70816","225-753-7301","https://www.ebrschools.org/schools/"
"POINT (-91.073108536284 30.484363994385)","143","Park Forest Middle Creative Sciences and Art Magnet School","Middle","6 to 8","Public","East Baton Rouge Parish",,"3760 ALETHA DR","BATON ROUGE","LOUISIANA","70814","225-275-6650","https://www.ebrschools.org/schools/"
"POINT (-91.011556804453 30.373532374779)","106","Woodlawn Magnet High School","High","9 to 12","Public","East Baton Rouge Parish",,"15755 JEFFERSON HWY","BATON ROUGE","LOUISIANA","70817","225-753-1200","https://www.ebrschools.org/schools/"
"POINT (-91.143061926425 30.505005497095)","262","Claiborne Elementary School","Elementary","Pre-K to 5","Public","East Baton Rouge Parish",,"4707 DENHAM ST","BATON ROUGE","LOUISIANA","70805","225-357-9712","https://www.ebrschools.org/schools/"
"POINT (-91.18788129111 30.387974184423)","177","Thrive Academy","High","6 to 12","Public","Charter",,"2585 BRIGHTSIDE DR","BATON ROUGE","LOUISIANA","70820","225-239-7820","http://thrivebr.org/"
"POINT (-91.0447929155 30.400122441286)","47","Parkview Elementary School","Elementary","Pre-K to 5","Public","East Baton Rouge Parish",,"5660 PARKFOREST DR","BATON ROUGE","LOUISIANA","70816","225-753-5615","https://www.ebrschools.org/schools/"
"POINT (-91.15254786948 30.497826756487)","26","Redemptorist St. Gerard School","Elementary","Pre-K to 8","Private","Catholic",,"3655 SAINT GERARD AVE","BATON ROUGE","LOUISIANA","70805","225-355-1437","http://rsgbr.org"
"POINT (-91.187375886269 30.449592116251)","173","Helix Legal Academy","Middle","6 to 7","Public","Charter - EBRPSS",,"339 FLORIDA ST","BATON ROUGE","LOUISIANA","70801","225-346-5180","https://helixlegalacademy.org"
"POINT (-91.161116928983 30.458061486133)","137","Park Elementary School","Elementary","Pre-K to 5","Public","East Baton Rouge Parish",,"2700 FUQUA ST","BATON ROUGE","LOUISIANA","70802","225-344-2145","https://www.ebrschools.org/schools/"
"POINT (-91.022997713615 30.453875050358)","8","Riveroaks Elementary School","Elementary","Pre-K to 5","Public","East Baton Rouge Parish",,"950 FONTAINEBLEAU DR","BATON ROUGE","LOUISIANA","70819","225-275-4600","https://www.ebrschools.org/schools/"
"POINT (-91.17219836993 30.424477095479)","237","Buchanan Elementary School","Elementary","Pre-K to 5","Public","East Baton Rouge Parish",,"1222 E BUCHANAN ST","BATON ROUGE","LOUISIANA","70802","225-343-4585","https://www.ebrschools.org/schools/"
"POINT (-91.138637221814 30.377291399392)","193","Country Day School of Baton Rouge","Elementary","Pre-K","Private","Private",,"7424 HIGHLAND RD","BATON ROUGE","LOUISIANA","70808","225-766-1159","http://www.countrydayschoolbr.com/"
"POINT (-91.015195254277 30.392433407186)","73","Woodlawn Middle Magnet School","Middle","6 to 8","Public","East Baton Rouge Parish",,"14939 TIGER BEND RD","BATON ROUGE","LOUISIANA","70817","225-751-0436","https://www.ebrschools.org/schools/"
"POINT (-91.168061934379 30.526116500488)","76","J.K. Haynes Elementary Charter School","Elementary","Pre-K to 8","Public","Charter - EBRPSS","Harding Elementary School","8600 ELM GROVE GARDEN DR","BATON ROUGE","LOUISIANA","70807","225-774-1311","https://sites.google.com/view/jkhaynescharterschools/"
"POINT (-91.102480491823 30.380355759969)","84","Mayfair Laboratory School","Elementary","K to 8","Public","East Baton Rouge Parish",,"9880 HYACINTH AVE","BATON ROUGE","LOUISIANA","70810","225-761-7849","https://www.ebrschools.org/schools/"
"POINT (-91.175283939087 30.580283511804)","251","Baker Middle School","Middle","6 to 8","Public","City of Baker","Bakerfield Elementary School","2550 SOUTH ST","BAKER","LOUISIANA","70714","225-775-0550","https://www.bakerschools.org/apps/pages/BakerMiddleSchool"
"POINT (-91.148859785688 30.497811723754)","182","Franciscan High School","High","9 to 12","Private","Catholic","Redemptorist High School","4000 SAINT GERARD AVE","BATON ROUGE","LOUISIANA","70805","225-615-7479","https://www.franciscanhigh.org"
"POINT (-91.113376747497 30.394767354894)","192","Country Day School of Baton Rouge","Elementary","Pre-K","Private","Private",,"3743 SILVERSIDE DR","BATON ROUGE","LOUISIANA","70808","225-767-5259","http://www.countrydayschoolbr.com/"
"POINT (-91.189060176627 30.393784323531)","225","Louisiana School for the Visually Impaired","All Grades","Pre-K to 12","Public","Louisiana Board of Elementary and Secondary Education","Louisiana State School for the Blind","2888 BRIGHTSIDE DR","BATON ROUGE","LOUISIANA","70820","225-757-3481","http://lsvi.org/"
"POINT (-91.060968987018 30.381023840093)","216","Bethany College","College",,"Private","Private",,"10877 RIEGER RD","BATON ROUGE","LOUISIANA","70809","225-412-5308","http://www.bethanycollege.net"
"POINT (-91.161545939549 30.498260502132)","240","Delmont Pre-K/K Center","Elementary","Pre-K to K","Public","East Baton Rouge Parish",,"5300 DOUGLAS AVE","BATON ROUGE","LOUISIANA","70805","225-355-2106","https://www.ebrschools.org/schools/"
"POINT (-91.150194432396 30.576307284164)","183","Impact Charter Elementary School","Elementary","K to 8","Public","Charter",,"4815 LAVEY LN","BAKER","LOUISIANA","70714","225-308-9565","http://www.impactcharter.org/"
"POINT (-91.009648776461 30.377754675024)","146","Woodlawn Elementary School","Elementary","Pre-K to 5","Public","East Baton Rouge Parish",,"8160 ANTIOCH RD","BATON ROUGE","LOUISIANA","70817","225-756-3681","https://www.ebrschools.org/schools/"
"POINT (-91.031407207182 30.368493423534)","215","ITI Technical College","College",,"Private","Private",,"13944 AIRLINE HWY","BATON ROUGE","LOUISIANA","70809","225-752-4233","https://www.iticollege.edu"
"POINT (-91.128894921808 30.479727491925)","78","Arlington Preparatory Academy","High","9 to 12","Public","East Baton Rouge Parish","Howell Park Elementary School","6125 WINBOURNE AVE","BATON ROUGE","LOUISIANA","70805","225-766-8188","https://www.ebrschools.org/schools/"
"POINT (-91.147913848317 30.518458252475)","172","Idea University Prep","Elementary","K to 5","Public","Charter - EBRPSS",,"7701 PLANK RD","BATON ROUGE","LOUISIANA","70807","225-364-9805","https://ideapublicschools.org/our-schools/idea-university-prep/"
"POINT (-91.120805288126 30.467127026713)","190","Baton Rouge Community College - Ardendale Campus","College",,"Public","Louisiana Community and Technical College System",,"2115 LOBDELL BLVD","BATON ROUGE","LOUISIANA","70806","1-866-217-9823","http://www.mybrcc.edu/"
"POINT (-91.128330021791 30.58190359594)","211","Advantage Charter Academy","Elementary","K to 8","Public","Charter",,"14740 PLANK RD","BAKER","LOUISIANA","70714","225-774-3111","https://www.nhaschools.com/schools/Advantage-Charter-Academy/en"
"POINT (-91.17729643741 30.426476505336)","31","University Terrace Elementary School","Elementary","Pre-K to 5","Public","East Baton Rouge Parish",,"575 W ROOSEVELT ST","BATON ROUGE","LOUISIANA","70802","225-387-2328","https://www.ebrschools.org/schools/"
"POINT (-91.136587802227 30.462963364499)","238","Capitol Middle Magnet School","Middle","6 to 8","Public","East Baton Rouge Parish",,"5100 GREENWELL SPRINGS RD","BATON ROUGE","LOUISIANA","70806","225-231-9292","https://www.ebrschools.org/schools/"
"POINT (-91.159482025987 30.446037679066)","227","Baton Rouge Magnet High School","High","9 to 12","Public","East Baton Rouge Parish",,"2825 GOVERNMENT ST","BATON ROUGE","LOUISIANA","70806","225-383-0520","https://www.ebrschools.org/schools/"
"POINT (-91.1325059185 30.381116470964)","223","Kenilworth Science and Technology School","Middle","6 to 8","Public","Charter",,"7600 BOONE DR","BATON ROUGE","LOUISIANA","70808","225-766-8111","https://www.kenilworthschool.org"
"POINT (-91.077043731315 30.397014083055)","197","Jefferson Terrace Elementary School","Elementary","K to 8","Public","East Baton Rouge Parish",,"5601 UPTON DR","BATON ROUGE","LOUISIANA","70809","225-293-3210","https://www.ebrschools.org/schools/"
"POINT (-91.033100145161 30.380600350033)","185","Basis Baton Rouge Materra Campus","Elementary","K to 8","Public","Charter - EBRPSS",,"7550 MC CALL DR","BATON ROUGE","LOUISIANA","70817",,"https://www.basised.com/baton-rouge/"
"POINT (-91.115882001864 30.514797352203)","258","Forest Heights Academy of Excellence","Elementary","Pre-K to 5","Public","East Baton Rouge Parish","Forest Heights Elementary School","7447 SUMRALL DR","BATON ROUGE","LOUISIANA","70812","225-355-5681","https://www.ebrschools.org/schools/"
"POINT (-91.123093230621 30.466801233378)","188","EBR Career and Technical Education Center","High","9 to 12","Public","East Baton Rouge Parish",,"2101 LOBDELL BLVD","BATON ROUGE","LOUISIANA","70806","225-412-1663","https://www.ebrschools.org/schools/"
"POINT (-91.173735138072 30.46760470188)","248","CSAL Charter Middle School","Middle","6 to 8","Public","Charter - EBRPSS",,"1555 MADISON AVE","BATON ROUGE","LOUISIANA","70802","225-448-5399","https://mcs.csalcharterschools.org"
"POINT (-91.153894935898 30.654449528754)","249","Northwestern Middle School","Middle","6 to 8","Public","Zachary Community",,"5200 E CENTRAL AVE","ZACHARY","LOUISIANA","70791","225-654-9201","http://northwesternmiddle.org/"
"POINT (-91.064576078049 30.469466934454)","21","Northdale Academy","High","6 to 12","Public","East Baton Rouge Parish","Red Oaks Elementary School","10755 CLETUS DR","BATON ROUGE","LOUISIANA","70815","225-272-2036","https://www.ebrschools.org/schools/"
