"the_geom","id","business_name","full_address","city","state","zip","phone_number","website"
"POINT (-91.136192285144 30.552497321907)","2","DONNA'S GUARDIAN ANGEL DAYCARE CENTER","5557 HALSEY ST","BATON ROUGE","LOUISIANA","70811",,
"POINT (-91.048727934583 30.400537944895)","94","KIDS ARE SPECIAL LEARNING CENTER","5455 PARKVIEW CHURCH RD","BATON ROUGE","LOUISIANA","70816",,
"POINT (-91.127912407962 30.449402635853)","41","NEW LIFE CHRISTIAN DAY CARE & LEARNING ACADEMY","170 S ARDENWOOD DR","BATON ROUGE","LOUISIANA","70806",,
"POINT (-91.127912407962 30.449402635853)","42","ROBSON'S QUALITY CHILDCARE & LEARNING CENTER","170 S ARDENWOOD DR","BATON ROUGE","LOUISIANA","70806",,
"POINT (-91.063767946186 30.36534830479)","63","LADS & LASSIES DAY CARE CENTER","13833 PERKINS RD","BATON ROUGE","LOUISIANA","70810",,
"POINT (-91.112243923418 30.44869542932)","28","BATON ROUGE CHILD DEVELOPMENT CENTER","248 LOBDELL AVE","BATON ROUGE","LOUISIANA","70806",,
"POINT (-91.200122331885 30.573561165174)","8","BONNIE'S DAYCARE & LEARNING CENTER","14065 GLYNN RD","BATON ROUGE","LOUISIANA","70807",,
"POINT (-91.023324636699 30.436426782688)","90","AMAZING KIDS CABBY LLC","14532 CHIMNEYWOOD AVE","BATON ROUGE","LOUISIANA","70816",,
"POINT (-91.127925146441 30.574762220839)","48","CREATIVE TEACHING TOOLS","14010 PLANK RD","BAKER","LOUISIANA","70714",,
"POINT (-91.140122719772 30.474768433191)","27","CINDYS LITTLE ANGELS DAYCARE & PRESCHOOL","2862 N FOSTER DR","BATON ROUGE","LOUISIANA","70805",,
"POINT (-91.078716352149 30.488043491391)","68","ROSE OF SHARON DAYCARE & LEARNING CENTER","9725 GREENWELL SPRINGS RD","BATON ROUGE","LOUISIANA","70814",,
"POINT (-90.99175230787 30.355567779069)","102","CORBAN EARLY CHILDHOOD CENTER","17450 HOO SHOO TOO RD","BATON ROUGE","LOUISIANA","70817",,
"POINT (-91.145682104347 30.448258107739)","95","LITTLE STARS DAYCARE LEARNING CENTER","4244 NORTH BLVD","BATON ROUGE","LOUISIANA","70806",,
"POINT (-91.159564397906 30.492407336573)","81","COURTNEYS CHRISTIAN CHILDCARE","3054 EVANGELINE ST","BATON ROUGE","LOUISIANA","70805",,
"POINT (-91.075329625341 30.487286231727)","50","TOTS N TODDLERS INC","4006 PLATT DR","BATON ROUGE","LOUISIANA","70814",,
"POINT (-91.066668454677 30.367093194383)","129","LATONYAS FAMILY IN HOME","9050 METAIRIE DR","BATON ROUGE","LOUISIANA","70810",,
"POINT (-91.122254520725 30.460179905545)","30","FOOTPRINTS OF LOVE DAYCARE CENTER","6729 CEZANNE AVE","BATON ROUGE","LOUISIANA","70806",,
"POINT (-91.140122719772 30.474768433191)","26","CINDY'S LITTLE ANGELS DAYCARE","2862 N FOSTER DR","BATON ROUGE","LOUISIANA","70805",,
"POINT (-91.180941286646 30.404586126673)","97","LSU CHILD CARE CENTER","4001 GOURRIER AVE","BATON ROUGE","LOUISIANA","70808",,
"POINT (-91.002589151296 30.362626704334)","9","LINDA'S GUARDIAN ANGEL DAYCARE","17077 JEFFERSON HWY","BATON ROUGE","LOUISIANA","70817",,
"POINT (-91.141358828385 30.50192468076)","1","DAYCARE CENTER","5685 N FOSTER DR","BATON ROUGE","LOUISIANA","70805",,
"POINT (-91.144886024372 30.474389347956)","16","GOOD SHEPHERD DAY CARE CENTER","2863 MISSION DR","BATON ROUGE","LOUISIANA","70805",,
"POINT (-91.125500706893 30.449572758269)","76","LIGHTHOUSE LEARNING CENTER, THE","162 MARQUETTE AVE","BATON ROUGE","LOUISIANA","70806",,
"POINT (-91.119091538503 30.456871057074)","23","VICTORY & POWER DAY CARE","6966 HARRY DR","BATON ROUGE","LOUISIANA","70806",,
"POINT (-91.146504396212 30.448720644835)","110","BUSY TOTS AND TODDLERS","4183 NORTH BLVD","BATON ROUGE","LOUISIANA","70806",,
"POINT (-91.145509256624 30.522850524943)","18","NIKI'S DAYCARE","8157 PLANK RD","BATON ROUGE","LOUISIANA","70811",,
"POINT (-91.137085134091 30.518204071989)","59","LA CARTA CHILDCARE & LEARNING CENTER","5360 STEARNS ST","BATON ROUGE","LOUISIANA","70811",,
"POINT (-91.013775163342 30.456952781882)","55","MOTHER'S CHOICE DAYCARE","621 SHADYGLEN DR","BATON ROUGE","LOUISIANA","70816",,
"POINT (-91.034329200034 30.374710479073)","121","TIGER TOTS,LLC","8216 BRIARWOOD PL","BATON ROUGE","LOUISIANA","70809",,
"POINT (-91.020410973168 30.454185611953)","31","RICHARDSON'S DAY CARE","14885 OLD HAMMOND HWY","BATON ROUGE","LOUISIANA","70819",,
"POINT (-91.122447830555 30.435614287708)","11","RUNNELS SCHOOL PRESCHOOL","6455 JEFFERSON HWY","BATON ROUGE","LOUISIANA","70806",,
"POINT (-91.171105050284 30.586070532731)","136","MS. KIM'S EARLY ACHIEVES CHILDCARE","2918 RAY WEILAND DR","BAKER","LOUISIANA","70714",,
"POINT (-91.156507435105 30.465705037014)","115","JENKINS INFANT & TODDLER","3173 WASHINGTON AVE","BATON ROUGE","LOUISIANA","70802",,
"POINT (-91.164652737588 30.469341971447)","108","BATON ROUGE CHRISTIAN ACADEMY","2432 MONROE AVE","BATON ROUGE","LOUISIANA","70802",,
"POINT (-91.141106354725 30.51040950174)","60","PAT'S DAYCARE CENTER","6637 N FOSTER DR","BATON ROUGE","LOUISIANA","70811",,
"POINT (-91.11421289763 30.458084107807)","78","GREATER KING DAVID BAPTIST CHURCH INNER CITY MINISTRY","7305 HARRY DR","BATON ROUGE","LOUISIANA","70806",,
"POINT (-91.037868516157 30.406339468836)","56","A LIL' ONE'S LEARNING CENTER","4952 STUMBERG LN","BATON ROUGE","LOUISIANA","70816",,
"POINT (-91.146872673869 30.52043753137)","29","BRILLIANT BEGINNINGS CHILD DEVELOPMENT AND LEARNING CENTER","4338 HARDING BLVD","BATON ROUGE","LOUISIANA","70807",,
"POINT (-91.15803812302 30.486434143327)","84","S & S CHILDCARE","4029 PLANK RD","BATON ROUGE","LOUISIANA","70805",,
"POINT (-91.141434523339 30.478656070261)","113","CATERPILLAR'S COLLEGE","4904 WINBOURNE AVE","BATON ROUGE","LOUISIANA","70805",,
"POINT (-91.102653561092 30.368961925091)","32","PLAYDATES DROP IN HOURLY CHILD CARE","8821 BLUEBONNET BLVD","BATON ROUGE","LOUISIANA","70810",,
"POINT (-91.16896424395 30.521127842737)","44","COMMUNITY DAYCARE CENTER OF SCOTLANDVILLE","2315 HARDING BLVD","BATON ROUGE","LOUISIANA","70807",,
"POINT (-91.007421353807 30.456135548135)","99","CHARITY CHRISTIAN PRE-SCHOOL","871 O'NEAL LN","BATON ROUGE","LOUISIANA","70816",,
"POINT (-91.072735787595 30.462057477608)","10","MARANATHA DAYCARE","1433 SHARP LN","BATON ROUGE","LOUISIANA","70815",,
"POINT (-91.063638650583 30.493403335865)","14","LIL' RUGRATS DAYCARE CENTER INC.","10808 GREENWELL SPRINGS RD","BATON ROUGE","LOUISIANA","70814",,
"POINT (-91.083643641924 30.466547384201)","133","BAP'S CHILDCARE & LEARNING CENTER 2","1787 N REDONDO DR","BATON ROUGE","LOUISIANA","70815",,
"POINT (-91.170485103324 30.450706348865)","120","A STEP AHEAD CHILD DEVELOPMENT AND LEARNING CENTER","1736 LAUREL ST","BATON ROUGE","LOUISIANA","70802",,
"POINT (-91.063638650583 30.493403335865)","15","LITTLE ROYAL JEEWELS LEARNING ACADEMY","10808 GREENWELL SPRINGS RD","BATON ROUGE","LOUISIANA","70814",,
"POINT (-91.022819578878 30.430376830847)","46","KIDZ KORNER DAYCARE #2","14635 S HARRELL'S FERRY RD, STE 3","BATON ROUGE","LOUISIANA","70816",,
"POINT (-91.116256539393 30.44953413359)","43","KIDS WORLD CHILDCARE","112 SHIP DR","BATON ROUGE","LOUISIANA","70806",,
"POINT (-91.179389080734 30.523597235817)","24","EMMANUEL CHILD DEVELOPMENT AND LEARNING CENTER","1384 SWAN AVE","BATON ROUGE","LOUISIANA","70807",,
"POINT (-91.056770799807 30.470165160205)","54","CREATIVE CHILDRENS LEARNING","11375 STAN AVE","BATON ROUGE","LOUISIANA","70815",,
"POINT (-91.057758145917 30.468693975925)","19","FAITH CHILD CARE & LEARNING CTR.","2208 N SHERWOOD FOREST DR","BATON ROUGE","LOUISIANA","70815",,
"POINT (-91.056770799807 30.470165160205)","53","CHILDREN'S UNIVERSE","11375 STAN AVE","BATON ROUGE","LOUISIANA","70815",,
"POINT (-91.151948919614 30.501878675906)","112","BUMBLEBEEZ DAYCARE","5676 PLANK RD","BATON ROUGE","LOUISIANA","70805",,
"POINT (-91.127175460735 30.478809072454)","124","FOSTER'S CHILD CARE AND LEARNING","3233 MICHELLI DR","BATON ROUGE","LOUISIANA","70805",,
"POINT (-91.008818560326 30.452159785986)","33","KINDER CARE LEARNING CENTERS LLC","1188 O'NEAL LN","BATON ROUGE","LOUISIANA","70816",,
"POINT (-91.154427738645 30.45188801228)","93","EMERALD FOREST LEARNING CENTER","420 N ACADIAN THWY","BATON ROUGE","LOUISIANA","70806",,
"POINT (-91.021086215034 30.378471803948)","107","ANIMAL CRACKER LEARNING CENTER","15025 JEFFERSON HWY","BATON ROUGE","LOUISIANA","70817",,
"POINT (-91.037868516157 30.406339468836)","57","A LIL ONE'S LEARNING CENTR INC","4952 STUMBERG LN","BATON ROUGE","LOUISIANA","70816",,
"POINT (-91.092012590086 30.376892947813)","36","THE LEARNING CENTER LLC","10689 PERKINS RD","BATON ROUGE","LOUISIANA","70810",,
"POINT (-91.146504396212 30.448720644835)","111","KIDDOSCOPE","4183 NORTH BLVD","BATON ROUGE","LOUISIANA","70806",,
"POINT (-91.041792450772 30.49720808052)","49","DOT'S LEARNING CENTER","5224 N FLANNERY RD","BATON ROUGE","LOUISIANA","70814",,
"POINT (-91.073183679576 30.4899543661)","109","MCKANSTRY PREPARATORY SCHOOL OF MUSIC AND PERFORMING ARTS","10022 GREENWELL SPRINGS RD","BATON ROUGE","LOUISIANA","70814",,
"POINT (-91.00662588919 30.42715651127)","52","ABUNDANT BLESSINGS DAYCARE","2863 O'NEAL LN","BATON ROUGE","LOUISIANA","70816",,
"POINT (-91.024142048126 30.429472544718)","104","KUMON LEARNING CENTER","14506 S HARRELL'S FERRY RD, STE A-C","BATON ROUGE","LOUISIANA","70816",,
"POINT (-91.151493817996 30.457873368383)","72","S & M KIDZ DAYCARE","1055 N 39TH ST","BATON ROUGE","LOUISIANA","70802",,
"POINT (-91.105432058831 30.479551415889)","70","TNT CHRISTIAN DAYCARE","3250 LONE OAK DR","BATON ROUGE","LOUISIANA","70814",,
"POINT (-91.117884576259 30.480698018779)","45","WESTMINSTER ACADEMY #1","3393 VICTORIA DR","BATON ROUGE","LOUISIANA","70805",,
"POINT (-91.008486481885 30.434513900236)","118","FUNDAMENTALS LEARNING CENTER","16013 N FIREWOOD AVE","BATON ROUGE","LOUISIANA","70816",,
"POINT (-91.131224884958 30.444053309447)","40","KIDS COUNT","525 RAPIDES ST","BATON ROUGE","LOUISIANA","70806",,
"POINT (-91.159122716811 30.481537087704)","74","4 KIDS DAYCARE & LEARNING CTR","3634 PLANK RD","BATON ROUGE","LOUISIANA","70805",,
"POINT (-91.060993005798 30.489302805331)","128","LIL PEOPLE LEARNING ACADEMY LLC","4157 N SHERWOOD FOREST DR","BATON ROUGE","LOUISIANA","70814",,
"POINT (-91.063767946186 30.36534830479)","62","LAD'S & LASSIE'S ACADEMY","13833 PERKINS RD","BATON ROUGE","LOUISIANA","70810",,
"POINT (-91.124297853633 30.359242905218)","17","KIDS WORLD CHILD CARE","1183 GARDERE LN","BATON ROUGE","LOUISIANA","70820",,
"POINT (-91.140061250027 30.473109439985)","75","JACKSON'S PRE-SCHOOL & CHILD DEVELOPMENT CENTER","2710 N FOSTER DR","BATON ROUGE","LOUISIANA","70805",,
"POINT (-91.008784999901 30.454873652111)","91","STEPPING STONES INC, THE","940 O'NEAL LN","BATON ROUGE","LOUISIANA","70816",,
"POINT (-91.154427738645 30.45188801228)","92","MARY LEES DAY CARE","420 N ACADIAN THWY","BATON ROUGE","LOUISIANA","70806",,
"POINT (-91.140820727752 30.505015863341)","66","MAISON ACADEMY DAYCARE","6012 N FOSTER DR","BATON ROUGE","LOUISIANA","70805",,
"POINT (-91.081540953158 30.453395945938)","5","BROADMOOR DAY CARE CENTER","220 CORA DR","BATON ROUGE","LOUISIANA","70815",,
"POINT (-91.119828138888 30.526479120632)","135","TRINITYS CHILDREN ACADEMY","7136 HOOPER RD","BATON ROUGE","LOUISIANA","70811",,
"POINT (-91.170640139988 30.586017781227)","137","CREATIVE TEACHING TOOLS","2944 RAY WEILAND DR","BAKER","LOUISIANA","70714",,
"POINT (-91.140094370863 30.501782348224)","103","IFA DAYCARE","5675 LANCASTER AVE","BATON ROUGE","LOUISIANA","70805",,
"POINT (-91.138121322063 30.479185429593)","86","NEIGHBORHOOD DAY CARE LEARNING CENTER #2","5245 WINBOURNE AVE","BATON ROUGE","LOUISIANA","70805",,
"POINT (-91.180052404528 30.43595352714)","116","KIDZ KORNER DAYCARE #2","1306 THOMAS H DELPIT DR","BATON ROUGE","LOUISIANA","70802",,
"POINT (-91.138712093317 30.511059393396)","105","MINI MIRACLES CHILDCARE","5212 GLEN OAKS DR","BATON ROUGE","LOUISIANA","70811",,
"POINT (-91.032226630514 30.372465558339)","125","BEST OF CARE","13636 AIRLINE HWY","BATON ROUGE","LOUISIANA","70809",,
"POINT (-91.175475877976 30.516449578888)","73","EVAN DAYCARE","1637 75TH AVE","BATON ROUGE","LOUISIANA","70807",,
"POINT (-91.159564397906 30.492407336573)","80","COURTNEY'S CHRISTIAN CHILD CARE CENTER","3054 EVANGELINE ST","BATON ROUGE","LOUISIANA","70805",,
"POINT (-91.005241481815 30.361037563322)","123","A TOTAL LEARNING CENTER","20440 HIGHLAND RD","BATON ROUGE","LOUISIANA","70817",,
"POINT (-91.172623948608 30.558320766364)","131","LITTLE JEWELS AND GEMS LEARNING ACADEMY","2024 THOMAS RD","BATON ROUGE","LOUISIANA","70807",,
"POINT (-91.119798041694 30.510342867833)","96","YWCA GLEN OAKS EARLY HEAD START CENTER","7055 GLEN OAKS DR","BATON ROUGE","LOUISIANA","70812",,
"POINT (-91.056959278009 30.494575512646)","106","KINDERCARE LEARNING CENTER #952","11349 GREENWELL SPRINGS RD","BATON ROUGE","LOUISIANA","70814",,
"POINT (-91.16185240586 30.396418758922)","130","HEAVENLY HANDS LLC","5151 HIGHLAND RD","BATON ROUGE","LOUISIANA","70808",,
"POINT (-91.11723989414 30.450559313415)","25","KIDZ KORNER DAYCARE & LEARNING CENTER","148 CROYDON AVE","BATON ROUGE","LOUISIANA","70806",,
"POINT (-91.046312026854 30.4112734192)","51","KIDS COVE DAYCARE AND LEARNING CENTER","12006 COURSEY BLVD","BATON ROUGE","LOUISIANA","70816",,
"POINT (-91.157898141956 30.485331524633)","85","TRAINING FOR TOMORROW  ACADEMY #2","3936 PLANK RD","BATON ROUGE","LOUISIANA","70805",,
"POINT (-91.111274155684 30.513917132124)","61","TREASURES FROM HEAVEN CHILDCARE AND LEARNING CENTER","7760 MICKENS RD","BATON ROUGE","LOUISIANA","70812",,
"POINT (-91.125600047811 30.459868983559)","122","OCCUPANCY-CHILD CARE CENTER","1075 EXECUTIVE PARK AVE","BATON ROUGE","LOUISIANA","70806",,
"POINT (-91.114742766972 30.46441492916)","100","SUNSET, THE","7295 EXCHANGE PL","BATON ROUGE","LOUISIANA","70806",,
"POINT (-91.017001547349 30.455250568128)","6","BEST CHILD CARE INC THE","15134 OLD HAMMOND HWY","BATON ROUGE","LOUISIANA","70816",,
"POINT (-91.073310140333 30.479315539726)","132","ALWAYS LEARNING DAYCARE & LEARNING CENTER","3321 JO ANNE DR","BATON ROUGE","LOUISIANA","70814",,
"POINT (-91.114454980304 30.464282016864)","22","EDEN OF EDEN CHRISTIAN ACADEMY","7315 EXCHANGE PL","BATON ROUGE","LOUISIANA","70806",,
"POINT (-91.124071541838 30.522754207755)","119","NEVAEH'S DAYCARE & LEARNING CENTER","6437 MICKENS RD","BATON ROUGE","LOUISIANA","70811",,
"POINT (-91.175112086004 30.428930202129)","21","CLAY'S DAY CARE","2009 GEORGIA ST","BATON ROUGE","LOUISIANA","70802",,
"POINT (-91.179687092336 30.521805604524)","71","ABLE COMMUNITY SERVICES LLC","8152 SCENIC HWY","BATON ROUGE","LOUISIANA","70807",,
"POINT (-91.087195620914 30.483840132662)","64","LITTLE LAND LEARNING CENTER","9212 GREENWELL SPRINGS RD","BATON ROUGE","LOUISIANA","70814",,
"POINT (-91.113822409976 30.401655546661)","3","KINDERCARE LEARNING CENTER #301464","7315 PICARDY AVE","BATON ROUGE","LOUISIANA","70808",,
"POINT (-91.135588006086 30.554877958331)","4","CHILDREN'S UNIVERSE","5646 BROWNFIELDS DR","BATON ROUGE","LOUISIANA","70811",,
"POINT (-91.111313898082 30.468053427742)","77","YES WE CAN CHILD DEVELOPMENT CENTER","1956 DALLAS DR, STE 1","BATON ROUGE","LOUISIANA","70806",,
"POINT (-91.141298149396 30.492898435069)","114","NEXT TO PARENTS DAYCARE INC","4946 EVANGELINE ST","BATON ROUGE","LOUISIANA","70805",,
"POINT (-91.073261617306 30.40907616867)","127","KINDERCARE LEARNING CENTER #306","4435 FLOYNELL DR","BATON ROUGE","LOUISIANA","70809",,
"POINT (-91.143816390092 30.479171276694)","82","YWCA ISTROUMA EARLY HEAD START CENTER","4643 WINBOURNE AVE","BATON ROUGE","LOUISIANA","70805",,
"POINT (-91.114781750245 30.356586933243)","34","WESTMINSTER ACADEMY #3","10079 BURBANK DR","BATON ROUGE","LOUISIANA","70810",,
"POINT (-91.017001547349 30.455250568128)","7","BEST CHILD CARE","15134 OLD HAMMOND HWY","BATON ROUGE","LOUISIANA","70816",,
"POINT (-91.150264690047 30.406013469943)","98","LITTLE BO-PEEP DAY CARE & LEARNING CENTER","1227 LEE DR","BATON ROUGE","LOUISIANA","70808",,
"POINT (-91.014487608247 30.419933891498)","89","NURSERY RHYME, THE","3590 JONES CREEK RD","BATON ROUGE","LOUISIANA","70816",,
"POINT (-91.052985579953 30.407864547561)","126","COLOR WHEEL LEARNING CENTER","11637 SHERWOOD FOREST CT","BATON ROUGE","LOUISIANA","70816",,
"POINT (-91.135589369393 30.502050830934)","117","LUCY'S DAYCARE","5488 GREENWELL ST","BATON ROUGE","LOUISIANA","70805",,
"POINT (-91.050926644998 30.495086148689)","13","LONDON BRIDGE EARLY LEARNING CENTER","4844 MONTICELLO BLVD","BATON ROUGE","LOUISIANA","70814",,
"POINT (-91.020796945239 30.453979840896)","39","KUDDLES AND KISSES DAY CARE CENTER","14861 OLD HAMMOND HWY","BATON ROUGE","LOUISIANA","70819",,
"POINT (-91.148739580881 30.586620326394)","47","FIRST STEPS ACADEMY #1","4742 GROOM RD","BAKER","LOUISIANA","70714",,
"POINT (-91.007878557012 30.383988542298)","12","ZOES WINDOW LEARNING ACADEMY","7450 ANTIOCH RD","BATON ROUGE","LOUISIANA","70817",,
"POINT (-91.077325008323 30.488896162581)","69","BLESSED ONES EARLY LEARNING ACADEMY","9783 GREENWELL SPRINGS RD","BATON ROUGE","LOUISIANA","70814",,
"POINT (-91.142400912002 30.462413117603)","67","COMMUNITY ASSOCIATION FOR WELFARE OF THE CHILD","4771 GUS YOUNG AVE","BATON ROUGE","LOUISIANA","70802",,
"POINT (-91.162702827057 30.473146261368)","83","RENAISSANCE COMMUNITY CENTER & PRESCHOOL","2783 PLANK RD","BATON ROUGE","LOUISIANA","70805",,
"POINT (-91.166372765412 30.514294323095)","87","LADY T ENTERPRISE DAYCARE","2560 72ND AVE","BATON ROUGE","LOUISIANA","70807",,
"POINT (-91.136628343894 30.487310550949)","88","YWCA PRESCOTT EARLY HEAD START CENTER","5262 PRESCOTT RD","BATON ROUGE","LOUISIANA","70805",,
"POINT (-91.155810794453 30.468100726806)","79","GREATER NEW GUIDE LEARNING ACADEMY","3328 ADAMS AVE","BATON ROUGE","LOUISIANA","70802",,
"POINT (-91.125592661125 30.503849869798)","65","LUCY'S DAYCARE","5811 SILVERLEAF AVE","BATON ROUGE","LOUISIANA","70812",,
"POINT (-90.99850041274 30.44102428178)","38","COUNTRY MANOR DAY SCHOOL","17080 MEDICAL CENTER DR","BATON ROUGE","LOUISIANA","70816",,
"POINT (-91.057758145917 30.468693975925)","20","KID'S COLLEGE, LLC","2208 N SHERWOOD FOREST DR","BATON ROUGE","LOUISIANA","70815",,
"POINT (-91.162086089178 30.587998691457)","37","BUSY TOTS AND TODDLERS","3615 GROOM RD","BAKER","LOUISIANA","70714",,
"POINT (-91.034387766743 30.447476521755)","101","RICHARDSON'S DAY CARE","1215 S FLANNERY RD","BATON ROUGE","LOUISIANA","70815",,
"POINT (-91.062128544945 30.364423286811)","58","A LIL' ONE'S LEARNING CENTER","13943 PERKINS RD","BATON ROUGE","LOUISIANA","70810",,
"POINT (-91.152662660714 30.492553167089)","134","TRACYS CHILD CARE MS","4635 MAPLE DR","BATON ROUGE","LOUISIANA","70805",,
"POINT (-91.137842009953 30.478786040955)","35","YOLANDAS WORLD OF LEARNING CTR","5270 WINBOURNE AVE","BATON ROUGE","LOUISIANA","70805",,
