"precinct","polling_place_id","polling_place_location_name","accessible","address","city","zip","location"
"7000001","1","COMMUNITY CHURCH OF BARRINGTON","YES","301 E LINCOLN AVE ","BARRINGTON","60010","301 E LINCOLN AVE
BARRINGTON, IL 60010
(42.15143158100045, -88.13263087399969)"
"7000002","3366","BARRINGTON VILLAGE HALL","YES","200 S HOUGH ST ","BARRINGTON","60010","200 S HOUGH ST
BARRINGTON, IL 60010
(42.155739963000485, -88.13615800899964)"
"7000003","3","GROVE AVENUE ELEMENTARY SCHOOL","YES","900 S GROVE AVE ","BARRINGTON","60010","900 S GROVE AVE
BARRINGTON, IL 60010
(42.14281436900046, -88.13295609899967)"
"7000004","10","WILLOW CREEK COMMUNITY CHURCH","YES","67 E ALGONQUIN RD ","SOUTH BARRINGTON","60010","67 E ALGONQUIN RD
SOUTH BARRINGTON, IL 60010
(42.09575565500046, -88.13508716099966)"
"7000005","3636","THE PRESBYTERIAN CHURCH","YES","6  BRINKER RD ","BARRINGTON","60010","6 BRINKER RD
BARRINGTON, IL 60010
(42.153074097000456, -88.17524954599969)"
"7000006","3691","ST MICHAELS EPISCOPAL CHURCH","YES","647  DUNDEE AVE ","BARRINGTON","60010","647 DUNDEE AVE
BARRINGTON, IL 60010
(42.14722306400046, -88.14087513499965)"
"7000007","7","BARRINGTON HILLS VILLAGE HALL","YES","112  ALGONQUIN RD ","BARRINGTON","60010","112 ALGONQUIN RD
BARRINGTON, IL 60010
(42.114282655000466, -88.18251307799966)"
"7000008","10","WILLOW CREEK COMMUNITY CHURCH","YES","67 E ALGONQUIN RD ","SOUTH BARRINGTON","60010","67 E ALGONQUIN RD
SOUTH BARRINGTON, IL 60010
(42.09575565500046, -88.13508716099966)"
"7000009","3691","ST MICHAELS EPISCOPAL CHURCH","YES","647  DUNDEE AVE ","BARRINGTON","60010","647 DUNDEE AVE
BARRINGTON, IL 60010
(42.14722306400046, -88.14087513499965)"
"7000010","10","WILLOW CREEK COMMUNITY CHURCH","YES","67 E ALGONQUIN RD ","SOUTH BARRINGTON","60010","67 E ALGONQUIN RD
SOUTH BARRINGTON, IL 60010
(42.09575565500046, -88.13508716099966)"
"7000011","10","WILLOW CREEK COMMUNITY CHURCH","YES","67 E ALGONQUIN RD ","SOUTH BARRINGTON","60010","67 E ALGONQUIN RD
SOUTH BARRINGTON, IL 60010
(42.09575565500046, -88.13508716099966)"
"7000012","10","WILLOW CREEK COMMUNITY CHURCH","YES","67 E ALGONQUIN RD ","SOUTH BARRINGTON","60010","67 E ALGONQUIN RD
SOUTH BARRINGTON, IL 60010
(42.09575565500046, -88.13508716099966)"
"7100001","129","FLOSSMOOR COMMUNITY CHURCH","YES","847  HUTCHISON RD ","FLOSSMOOR","60422","847 HUTCHISON RD
FLOSSMOOR, IL 60422
(41.54684076100045, -87.67047029699967)"
"7100002","2616","FAITH EVANGELICAL LUTHERAN CHURCH","YES","18645  DIXIE HWY ","HOMEWOOD","60430","18645 DIXIE HWY
HOMEWOOD, IL 60430
(41.551031615000454, -87.66513839999965)"
"7100003","132","BLOOM TOWNSHIP HALL","YES","425 S HALSTED ST ","CHICAGO HEIGHTS","60411","425 S HALSTED ST
CHICAGO HEIGHTS, IL 60411
(41.523224833000484, -87.63569001999969)"
"7100004","146","KENNEDY SCHOOL","YES","10TH  AND DIVISION ST ","CHICAGO HEIGHTS","60411","10TH AND DIVISION ST
CHICAGO HEIGHTS, IL 60411
(41.51328063300048, -87.66454804299968)"
"7100005","174","BETHEL CHRISTIAN REFORMED","YES","3500  GLENWOOD/LANSING RD ","LANSING","60438","3500 GLENWOOD/LANSING RD
LANSING, IL 60438
(41.5655367870005, -87.54667844099964)"
"7100006","4300","LINCOLN SCHOOL","YES","1520  CENTER AVE ","CHICAGO HEIGHTS","60411","1520 CENTER AVE
CHICAGO HEIGHTS, IL 60411
(41.50365106600049, -87.62905388699966)"
"7100007","4114","FIRST APOSTOLIC CHURCH","YES","22709  STATE ST ","STEGER","60475","22709 STATE ST
STEGER, IL 60475
(41.47696432000049, -87.61600095999967)"
"7100008","4055","SOUTH CHICAGO HEIGHTS SENIOR CENTER","YES","3140  ENTERPRISE PARK AVE ","SOUTH CHICAGO HEIGHTS","60411","3140 ENTERPRISE PARK AVE
SOUTH CHICAGO HEIGHTS, IL 60411
(41.48161343400045, -87.64265365299968)"
"7100009","4055","SOUTH CHICAGO HEIGHTS SENIOR CENTER","YES","3140  ENTERPRISE PARK AVE ","SOUTH CHICAGO HEIGHTS","60411","3140 ENTERPRISE PARK AVE
SOUTH CHICAGO HEIGHTS, IL 60411
(41.48161343400045, -87.64265365299968)"
"7100010","152","PHILLIPS SCHOOL","YES","1401  13TH PL ","FORD HEIGHTS","60411","1401 13TH PL
FORD HEIGHTS, IL 60411
(41.50735981100047, -87.58718730599969)"
"7100011","4114","FIRST APOSTOLIC CHURCH","YES","22709  STATE ST ","STEGER","60475","22709 STATE ST
STEGER, IL 60475
(41.47696432000049, -87.61600095999967)"
"7100012","147","OLYMPIC VILLAGE APARTMENTS","YES","31  OLYMPIC VILLAGE  ","CHICAGO HEIGHTS","60411","31 OLYMPIC VILLAGE
CHICAGO HEIGHTS, IL 60411
(41.508293825000464, -87.66503238999968)"
"7100013","4110","SOUTH SUBURBAN SDA CHRISTIAN SCHOOL","YES","119  CHESTNUT ST ","PARK FOREST","60466","119 CHESTNUT ST
PARK FOREST, IL 60466
(41.47746346200046, -87.67164410299966)"
"7100014","174","BETHEL CHRISTIAN REFORMED","YES","3500  GLENWOOD/LANSING RD ","LANSING","60438","3500 GLENWOOD/LANSING RD
LANSING, IL 60438
(41.5655367870005, -87.54667844099964)"
"7100015","155","GRANT SCHOOL","YES","2712  MILLER AVE ","SOUTH CHICAGO HEIGHTS","60411","2712 MILLER AVE
SOUTH CHICAGO HEIGHTS, IL 60411
(41.4895255130005, -87.64029418599966)"
"7100016","170","LYNWOOD SENIOR YOUTH CENTER","YES","21490  LINCOLN HWY ","LYNWOOD","60411","21490 LINCOLN HWY
LYNWOOD, IL 60411
(41.504443736000496, -87.53215719899964)"
"7100017","164","ALGONQUIN SCHOOL","YES","170  ALGONQUIN ST ","PARK FOREST","60466","170 ALGONQUIN ST
PARK FOREST, IL 60466
(41.493284625000456, -87.66627980699968)"
"7100018","174","BETHEL CHRISTIAN REFORMED","YES","3500  GLENWOOD/LANSING RD ","LANSING","60438","3500 GLENWOOD/LANSING RD
LANSING, IL 60438
(41.5655367870005, -87.54667844099964)"
"7100019","2627","WINSTON CHURCHILL SCHOOL","YES","1300  190TH ST ","HOMEWOOD","60430","1300 190TH ST
HOMEWOOD, IL 60430
(41.54424820100047, -87.64594045199965)"
"7100020","2616","FAITH EVANGELICAL LUTHERAN CHURCH","YES","18645  DIXIE HWY ","HOMEWOOD","60430","18645 DIXIE HWY
HOMEWOOD, IL 60430
(41.551031615000454, -87.66513839999965)"
"7100021","100","MEDGAR EVERS SCHOOL","YES","1101 E 10TH ST ","FORD HEIGHTS","60411","1101 E 10TH ST
FORD HEIGHTS, IL 60411
(41.51356817700048, -87.59039778899967)"
"7100022","170","LYNWOOD SENIOR YOUTH CENTER","YES","21490  LINCOLN HWY ","LYNWOOD","60411","21490 LINCOLN HWY
LYNWOOD, IL 60411
(41.504443736000496, -87.53215719899964)"
"7100023","172","EDWARD W PAESEL COMMUNITY CENTER","YES","2700  KALVELAGE DR ","SAUK VILLAGE","60411","2700 KALVELAGE DR
SAUK VILLAGE, IL 60411
(41.49495329300049, -87.55795640499969)"
"7100024","165","BROOKWOOD JUNIOR HIGH SCHOOL","YES","201 E GLENWOOD LANSING RD ","GLENWOOD","60425","201 E GLENWOOD LANSING RD
GLENWOOD, IL 60425
(41.542668027000445, -87.60599770899967)"
"7100025","149","ROOSEVELT SCHOOL","YES","249 W LINCOLN HWY ","CHICAGO HEIGHTS","60411","249 W LINCOLN HWY
CHICAGO HEIGHTS, IL 60411
(41.50605425600048, -87.65183643499967)"
"7100026","158","RICKOVER JUNIOR HIGH SCHOOL","YES","22151  TORRENCE AVE ","SAUK VILLAGE","60411","22151 TORRENCE AVE
SAUK VILLAGE, IL 60411
(41.48763024300047, -87.55797355199968)"
"7100027","4061","NANCY L MCCONATHY PUBLIC LIBRARY","YES","21737  JEFFERY AVE ","SAUK VILLAGE","60411","21737 JEFFERY AVE
SAUK VILLAGE, IL 60411
(41.49208281200049, -87.57400716099966)"
"7100028","165","BROOKWOOD JUNIOR HIGH SCHOOL","YES","201 E GLENWOOD LANSING RD ","GLENWOOD","60425","201 E GLENWOOD LANSING RD
GLENWOOD, IL 60425
(41.542668027000445, -87.60599770899967)"
"7100029","108","FORD HEIGHTS VILLAGE HALL","YES","1343  ELLIS AVE ","FORD HEIGHTS","60411","1343 ELLIS AVE
FORD HEIGHTS, IL 60411
(41.50752152300049, -87.59206436399967)"
"7100030","2627","WINSTON CHURCHILL SCHOOL","YES","1300  190TH ST ","HOMEWOOD","60430","1300 190TH ST
HOMEWOOD, IL 60430
(41.54424820100047, -87.64594045199965)"
"7100031","174","BETHEL CHRISTIAN REFORMED","YES","3500  GLENWOOD/LANSING RD ","LANSING","60438","3500 GLENWOOD/LANSING RD
LANSING, IL 60438
(41.5655367870005, -87.54667844099964)"
"7100032","4125","SAINT JAMES CHURCH","YES","22400  TORRENCE AVE ","SAUK VILLAGE","60411","22400 TORRENCE AVE
SAUK VILLAGE, IL 60411
(41.48325897500047, -87.55799413599965)"
"7100033","3860","LIVING SPRINGS COMMUNITY CHURCH","YES","19051 S HALSTED ST ","GLENWOOD","60425","19051 S HALSTED ST
GLENWOOD, IL 60425
(41.5435483440005, -87.63597087999966)"
"7100034","2627","WINSTON CHURCHILL SCHOOL","YES","1300  190TH ST ","HOMEWOOD","60430","1300 190TH ST
HOMEWOOD, IL 60430
(41.54424820100047, -87.64594045199965)"
"7100035","122","GARFIELD SCHOOL","YES","140 E 23RD ST ","CHICAGO HEIGHTS","60411","140 E 23RD ST
CHICAGO HEIGHTS, IL 60411
(41.49430410600047, -87.63189097099968)"
"7100036","3667","LIVING GRACE CHURCH","YES","20100  LAKEWOOD AVE ","LYNWOOD","60411","20100 LAKEWOOD AVE
LYNWOOD, IL 60411
(41.53039047700048, -87.55233162499968)"
"7100037","171","BROOKWOOD MIDDLE SCHOOL","YES","200  GLENWOOD/LANSING RD ","GLENWOOD","60425","200 GLENWOOD/LANSING RD
GLENWOOD, IL 60425
(41.54607985300049, -87.61241837399967)"
"7100038","3667","LIVING GRACE CHURCH","YES","20100  LAKEWOOD AVE ","LYNWOOD","60411","20100 LAKEWOOD AVE
LYNWOOD, IL 60411
(41.53039047700048, -87.55233162499968)"
"7100039","118","CHICAGO HEIGHTS WATER DEPARTMENT","YES","137 E 14TH ST ","CHICAGO HEIGHTS","60411","137 E 14TH ST
CHICAGO HEIGHTS, IL 60411
(41.50619864900045, -87.63200907199968)"
"7100040","2635","SALEM LUTHERAN CHURCH","YES","18324  ASHLAND AVE ","HOMEWOOD","60430","18324 ASHLAND AVE
HOMEWOOD, IL 60430
(41.55680235700049, -87.65552343699966)"
"7100041","3667","LIVING GRACE CHURCH","YES","20100  LAKEWOOD AVE ","LYNWOOD","60411","20100 LAKEWOOD AVE
LYNWOOD, IL 60411
(41.53039047700048, -87.55233162499968)"
"7100042","2641","MARIAN CATHOLIC HIGH SCHOOL","YES","700  ASHLAND AVE ","CHICAGO HEIGHTS","60411","700 ASHLAND AVE
CHICAGO HEIGHTS, IL 60411
(41.5198818070005, -87.65505306199964)"
"7100043","124","LAKE MARINA CLUBHOUSE","YES","2800  198TH ST ","LYNWOOD","60411","2800 198TH ST
LYNWOOD, IL 60411
(41.535657840000454, -87.54875531799968)"
"7100044","174","BETHEL CHRISTIAN REFORMED","YES","3500  GLENWOOD/LANSING RD ","LANSING","60438","3500 GLENWOOD/LANSING RD
LANSING, IL 60438
(41.5655367870005, -87.54667844099964)"
"7100045","153","LONGWOOD SCHOOL","YES","441 N LONGWOOD DR ","GLENWOOD","60425","441 N LONGWOOD DR
GLENWOOD, IL 60425
(41.55427046000045, -87.63121875299964)"
"7100046","126","GOLDEN TOWERS SENIOR COMMUNITY","YES","1704  EAST END AVE ","CHICAGO HEIGHTS","60411","1704 EAST END AVE
CHICAGO HEIGHTS, IL 60411
(41.50059013200047, -87.63428097199966)"
"7100047","2635","SALEM LUTHERAN CHURCH","YES","18324  ASHLAND AVE ","HOMEWOOD","60430","18324 ASHLAND AVE
HOMEWOOD, IL 60430
(41.55680235700049, -87.65552343699966)"
"7100048","2627","WINSTON CHURCHILL SCHOOL","YES","1300  190TH ST ","HOMEWOOD","60430","1300 190TH ST
HOMEWOOD, IL 60430
(41.54424820100047, -87.64594045199965)"
"7100049","157","HICKORY GLEN FIELDHOUSE","YES","1016 E 192ND ST ","GLENWOOD","60425","1016 E 192ND ST
GLENWOOD, IL 60425
(41.539430853000454, -87.58676454499965)"
"7100050","129","FLOSSMOOR COMMUNITY CHURCH","YES","847  HUTCHISON RD ","FLOSSMOOR","60422","847 HUTCHISON RD
FLOSSMOOR, IL 60422
(41.54684076100045, -87.67047029699967)"
"7100051","169","WILSON SCHOOL","YES","422 W 16TH ST ","CHICAGO HEIGHTS","60411","422 W 16TH ST
CHICAGO HEIGHTS, IL 60411
(41.50236275700047, -87.66075073099967)"
"7100052","150","BEACON HILL ELEMENTARY SCHOOL","YES","401  CONCORD DR ","CHICAGO HEIGHTS","60411","401 CONCORD DR
CHICAGO HEIGHTS, IL 60411
(41.4975376700005, -87.66157721699966)"
"7100053","172","EDWARD W PAESEL COMMUNITY CENTER","YES","2700  KALVELAGE DR ","SAUK VILLAGE","60411","2700 KALVELAGE DR
SAUK VILLAGE, IL 60411
(41.49495329300049, -87.55795640499969)"
"7100054","2816","CHICAGO HEIGHTS FIRE DEPARTMENT 3","YES","83 E JOE ORR RD ","CHICAGO HEIGHTS","60411","83 E JOE ORR RD
CHICAGO HEIGHTS, IL 60411
(41.5206627070005, -87.63997122899968)"
"7100055","158","RICKOVER JUNIOR HIGH SCHOOL","YES","22151  TORRENCE AVE ","SAUK VILLAGE","60411","22151 TORRENCE AVE
SAUK VILLAGE, IL 60411
(41.48763024300047, -87.55797355199968)"
"7100056","134","GREENBRIAR SCHOOL (ALC)","YES","101 W GREENBRIAR AVE ","CHICAGO HEIGHTS","60411","101 W GREENBRIAR AVE
CHICAGO HEIGHTS, IL 60411
(41.52441335800046, -87.64514292699965)"
"7100057","136","COMMISSIONERS PARK","YES","311  CHICAGO RD ","CHICAGO HEIGHTS","60411","311 CHICAGO RD
CHICAGO HEIGHTS, IL 60411
(41.528089605000446, -87.64579885699965)"
"7100058","127","ST MARK UNITED CHURCH OF CHRIST","YES","312  CHICAGO RD ","CHICAGO HEIGHTS","60411","312 CHICAGO RD
CHICAGO HEIGHTS, IL 60411
(41.528103857000474, -87.64587506899966)"
"7100059","138","SERENA HILLS SCHOOL","YES","255  PLEASANT DR ","CHICAGO HEIGHTS","60411","255 PLEASANT DR
CHICAGO HEIGHTS, IL 60411
(41.532580090000465, -87.65264666899964)"
"7100060","157","HICKORY GLEN FIELDHOUSE","YES","1016 E 192ND ST ","GLENWOOD","60425","1016 E 192ND ST
GLENWOOD, IL 60425
(41.539430853000454, -87.58676454499965)"
"7100061","144","HIGHLAND SCHOOL","YES","828  WILLOW DR ","CHICAGO HEIGHTS","60411","828 WILLOW DR
CHICAGO HEIGHTS, IL 60411
(41.516355485000474, -87.64922660999969)"
"7100062","2641","MARIAN CATHOLIC HIGH SCHOOL","YES","700  ASHLAND AVE ","CHICAGO HEIGHTS","60411","700 ASHLAND AVE
CHICAGO HEIGHTS, IL 60411
(41.5198818070005, -87.65505306199964)"
"7100063","142","ST PAULS LUTHERAN CHURCH","YES","330 W HIGHLAND DR ","CHICAGO HEIGHTS","60411","330 W HIGHLAND DR
CHICAGO HEIGHTS, IL 60411
(41.51419810100049, -87.65643926499968)"
"7200001","4305","JOHN GORDON SCHOOL","YES","14100  HARRISON AVE ","POSEN","60469","14100 HARRISON AVE
POSEN, IL 60469
(41.6370221250005, -87.68781360699967)"
"7200002","265","MORTON-GINGERWOOD ELEMENTARY SCHOOL","YES","16936  FOREST AVE ","OAK FOREST","60452","16936 FOREST AVE
OAK FOREST, IL 60452
(41.583784411000465, -87.73815123499969)"
"7200003","265","MORTON-GINGERWOOD ELEMENTARY SCHOOL","YES","16936  FOREST AVE ","OAK FOREST","60452","16936 FOREST AVE
OAK FOREST, IL 60452
(41.583784411000465, -87.73815123499969)"
"7200004","242","OAK FOREST SENIOR CENTER","YES","15501 S KILPATRICK AVE ","OAK FOREST","60452","15501 S KILPATRICK AVE
OAK FOREST, IL 60452
(41.610515157000464, -87.73422837199968)"
"7200005","238","ST STEPHENS LUTHERAN CHURCH","YES","14700  KILDARE AVE ","MIDLOTHIAN","60445","14700 KILDARE AVE
MIDLOTHIAN, IL 60445
(41.62535277900048, -87.72506759899966)"
"7200006","3778","RADAY LODGE","YES","3220 W 145TH ST ","MIDLOTHIAN","60445","3220 W 145TH ST
MIDLOTHIAN, IL 60445
(41.6295686250005, -87.69905703499967)"
"7200007","3831","MARKHAM COMMUNITY CENTER","YES","15652  HOMAN AVE ","MARKHAM","60428","15652 HOMAN AVE
MARKHAM, IL 60428
(41.60529646100048, -87.69955686899965)"
"7200008","271","COUNTRY CLUB HILLS POLICE","YES","3700 W 175TH PL ","COUNTRY CLUB HILLS","60478","3700 W 175TH PL
COUNTRY CLUB HILLS, IL 60478
(41.571128341000474, -87.70756678399965)"
"7200009","186","ZION LUTHERAN CHURCH","YES","17100  69TH AVE ","TINLEY PARK","60477","17100 69TH AVE
TINLEY PARK, IL 60477
(41.57980992300048, -87.78777712499965)"
"7200010","187","CENTRAL PARK COMMUNITY CENTER","YES","15601 S CENTRAL AVE ","OAK FOREST","60452","15601 S CENTRAL AVE
OAK FOREST, IL 60452
(41.607884027000466, -87.75612953599966)"
"7200011","227","CRESTWOOD CIVIC CENTER","YES","14025  KOSTNER AVE ","MIDLOTHIAN","60445","14025 KOSTNER AVE
MIDLOTHIAN, IL 60445
(41.6375759660005, -87.72791890399964)"
"7200012","221","MARKHAM VFW 9801","YES","3220 W 159TH ST ","MARKHAM","60428","3220 W 159TH ST
MARKHAM, IL 60428
(41.600797584000475, -87.69561071199968)"
"7200013","227","CRESTWOOD CIVIC CENTER","YES","14025  KOSTNER AVE ","MIDLOTHIAN","60445","14025 KOSTNER AVE
MIDLOTHIAN, IL 60445
(41.6375759660005, -87.72791890399964)"
"7200014","191","POSEN VILLAGE HALL","YES","2440 W WALTER ZIMNY DR ","POSEN","60469","2440 W WALTER ZIMNY DR
POSEN, IL 60469
(41.626341149000496, -87.68036962299965)"
"7200015","3778","RADAY LODGE","YES","3220 W 145TH ST ","MIDLOTHIAN","60445","3220 W 145TH ST
MIDLOTHIAN, IL 60445
(41.6295686250005, -87.69905703499967)"
"7200016","279","SANDPIPER SOUTH CONDOMINIUMS","YES","5204  MIDLOTHIAN TURNPIKE  ","CRESTWOOD","60445","5204 MIDLOTHIAN TURNPIKE
CRESTWOOD, IL 60445
(41.63676471500048, -87.74763647699967)"
"7200017","196","ROBBINS COMMUNITY CENTER","YES","13800 S TRUMBULL AVE ","ROBBINS","60472","13800 S TRUMBULL AVE
ROBBINS, IL 60472
(41.64243896700049, -87.70502587099969)"
"7200018","242","OAK FOREST SENIOR CENTER","YES","15501 S KILPATRICK AVE ","OAK FOREST","60452","15501 S KILPATRICK AVE
OAK FOREST, IL 60452
(41.610515157000464, -87.73422837199968)"
"7200019","196","ROBBINS COMMUNITY CENTER","YES","13800 S TRUMBULL AVE ","ROBBINS","60472","13800 S TRUMBULL AVE
ROBBINS, IL 60472
(41.64243896700049, -87.70502587099969)"
"7200020","270","LEE FOSTER SCHOOL","YES","5931  SCHOOL ST ","OAK FOREST","60452","5931 SCHOOL ST
OAK FOREST, IL 60452
(41.61455692400045, -87.76399225799969)"
"7200021","3831","MARKHAM COMMUNITY CENTER","YES","15652  HOMAN AVE ","MARKHAM","60428","15652 HOMAN AVE
MARKHAM, IL 60428
(41.60529646100048, -87.69955686899965)"
"7200022","2562","AMERICAN LEGION POST 615","YES","17423  67TH CT ","TINLEY PARK","60477","17423 67TH CT
TINLEY PARK, IL 60477
(41.57433363100046, -87.78309906199968)"
"7200023","2408","TURNER SCHOOL","YES","3847 W 135TH ST ","ROBBINS","60472","3847 W 135TH ST
ROBBINS, IL 60472
(41.647526264000476, -87.71477783199964)"
"7200024","3831","MARKHAM COMMUNITY CENTER","YES","15652  HOMAN AVE ","MARKHAM","60428","15652 HOMAN AVE
MARKHAM, IL 60428
(41.60529646100048, -87.69955686899965)"
"7200025","268","MIDLOTHIAN PARK DISTRICT OFFICE","YES","14500  KOSTNER AVE ","MIDLOTHIAN","60445","14500 KOSTNER AVE
MIDLOTHIAN, IL 60445
(41.62893986600045, -87.72765857199965)"
"7200026","3779","HOMEWOOD CHURCH","YES","18301  GOVERNORS HWY ","HOMEWOOD","60430","18301 GOVERNORS HWY
HOMEWOOD, IL 60430
(41.557100268000454, -87.68108485599964)"
"7200027","276","SCARLET OAK SCHOOL","YES","5731  ALBERT DR ","OAK FOREST","60452","5731 ALBERT DR
OAK FOREST, IL 60452
(41.60791589600046, -87.75880334599964)"
"7200028","205","SPRINGFIELD SCHOOL","YES","14620  SPRINGFIELD AVE ","MIDLOTHIAN","60445","14620 SPRINGFIELD AVE
MIDLOTHIAN, IL 60445
(41.626917757000456, -87.71536991999966)"
"7200029","277","ST EMERIC CATHOLIC CHURCH","YES","4340 W 180TH ST ","COUNTRY CLUB HILLS","60478","4340 W 180TH ST
COUNTRY CLUB HILLS, IL 60478
(41.56337633600049, -87.72058960699968)"
"7200030","268","MIDLOTHIAN PARK DISTRICT OFFICE","YES","14500  KOSTNER AVE ","MIDLOTHIAN","60445","14500 KOSTNER AVE
MIDLOTHIAN, IL 60445
(41.62893986600045, -87.72765857199965)"
"7200031","4500","HAZEL CREST PARK DISTRICT OFFICE","YES","2600 W 171ST ST ","HAZEL CREST","60429","2600 W 171ST ST
HAZEL CREST, IL 60429
(41.578641141000446, -87.68005657999964)"
"7200032","209","HAZEL CREST UNITED METHODIST CHURCH","YES","17050  CALIFORNIA AVE ","HAZEL CREST","60429","17050 CALIFORNIA AVE
HAZEL CREST, IL 60429
(41.580390673000466, -87.68480691699966)"
"7200033","210","SANDIDGE SCHOOL","YES","16600  66TH AVE ","TINLEY PARK","60477","16600 66TH AVE
TINLEY PARK, IL 60477
(41.58955171200046, -87.77997934199965)"
"7200034","211","SCHOOL DISTRICT 146","YES","6611  171ST ST ","TINLEY PARK","60477","6611 171ST ST
TINLEY PARK, IL 60477
(41.58058135500045, -87.78100642599969)"
"7200035","4445","CITY OF MARKHAM","YES","16313  KEDZIE PKWY ","MARKHAM","60428","16313 KEDZIE PKWY
MARKHAM, IL 60428
(41.59013091200046, -87.69416344599966)"
"7200036","270","LEE FOSTER SCHOOL","YES","5931  SCHOOL ST ","OAK FOREST","60452","5931 SCHOOL ST
OAK FOREST, IL 60452
(41.61455692400045, -87.76399225799969)"
"7200037","261","KELLAR MIDDLE  SCHOOL","YES","14123 S LYDIA AVE ","ROBBINS","60472","14123 S LYDIA AVE
ROBBINS, IL 60472
(41.6373083200005, -87.70392550399964)"
"7200038","4445","CITY OF MARKHAM","YES","16313  KEDZIE PKWY ","MARKHAM","60428","16313 KEDZIE PKWY
MARKHAM, IL 60428
(41.59013091200046, -87.69416344599966)"
"7200039","4410","MARKHAM PUBLIC LIBRARY","YES","16640  KEDZIE AVE ","MARKHAM","60428","16640 KEDZIE AVE
MARKHAM, IL 60428
(41.5873107810005, -87.69453350899965)"
"7200040","247","COUNTRY CLUB HILLS CITY HALL","YES","4200 W 183RD ST ","COUNTRY CLUB HILLS","60478","4200 W 183RD ST
COUNTRY CLUB HILLS, IL 60478
(41.55715781200047, -87.71865950299969)"
"7200041","218","CENTRAL PARK SCHOOL","YES","3621  151ST ST ","MIDLOTHIAN","60445","3621 151ST ST
MIDLOTHIAN, IL 60445
(41.61836018800045, -87.70815813199965)"
"7200042","230","RIDGE SCHOOL","YES","5151  149TH ST ","OAK FOREST","60452","5151 149TH ST
OAK FOREST, IL 60452
(41.6213640790005, -87.74567277099965)"
"7200043","220","POSEN ELEMENTARY SCHOOL","YES","14545  CALIFORNIA AVE ","POSEN","60469","14545 CALIFORNIA AVE
POSEN, IL 60469
(41.6289577980005, -87.6886541189997)"
"7200044","221","MARKHAM VFW 9801","YES","3220 W 159TH ST ","MARKHAM","60428","3220 W 159TH ST
MARKHAM, IL 60428
(41.600797584000475, -87.69561071199968)"
"7200045","222","ZIEBELL SCHOOL","YES","  149TH & ROCKWELL ST ","POSEN","60469","149TH & ROCKWELL ST
POSEN, IL 60469
(41.62883917200048, -87.68742620299969)"
"7200046","276","SCARLET OAK SCHOOL","YES","5731  ALBERT DR ","OAK FOREST","60452","5731 ALBERT DR
OAK FOREST, IL 60452
(41.60791589600046, -87.75880334599964)"
"7200047","273","HILLCREST BAPTIST CHURCH","YES","17300  PULASKI RD ","COUNTRY CLUB HILLS","60478","17300 PULASKI RD
COUNTRY CLUB HILLS, IL 60478
(41.57472990000048, -87.71382044899968)"
"7200048","271","COUNTRY CLUB HILLS POLICE","YES","3700 W 175TH PL ","COUNTRY CLUB HILLS","60478","3700 W 175TH PL
COUNTRY CLUB HILLS, IL 60478
(41.571128341000474, -87.70756678399965)"
"7200049","3800","HAZELCREST FIRE AND RESCUE BUILDING","YES","2903 W 175TH ST ","HAZEL CREST","60429","2903 W 175TH ST
HAZEL CREST, IL 60429
(41.571713204000446, -87.68725885399965)"
"7200050","227","CRESTWOOD CIVIC CENTER","YES","14025  KOSTNER AVE ","MIDLOTHIAN","60445","14025 KOSTNER AVE
MIDLOTHIAN, IL 60445
(41.6375759660005, -87.72791890399964)"
"7200051","209","HAZEL CREST UNITED METHODIST CHURCH","YES","17050  CALIFORNIA AVE ","HAZEL CREST","60429","17050 CALIFORNIA AVE
HAZEL CREST, IL 60429
(41.580390673000466, -87.68480691699966)"
"7200052","218","CENTRAL PARK SCHOOL","YES","3621  151ST ST ","MIDLOTHIAN","60445","3621 151ST ST
MIDLOTHIAN, IL 60445
(41.61836018800045, -87.70815813199965)"
"7200053","230","RIDGE SCHOOL","YES","5151  149TH ST ","OAK FOREST","60452","5151 149TH ST
OAK FOREST, IL 60452
(41.6213640790005, -87.74567277099965)"
"7200054","230","RIDGE SCHOOL","YES","5151  149TH ST ","OAK FOREST","60452","5151 149TH ST
OAK FOREST, IL 60452
(41.6213640790005, -87.74567277099965)"
"7200055","2170","POSEN COMMUNITY CENTER","YES","14401  CAMPBELL AVE ","POSEN","60469","14401 CAMPBELL AVE
POSEN, IL 60469
(41.63166472900048, -87.68144827699967)"
"7200056","233","NOB HILL SCHOOL","YES","3701 W 168TH ST ","COUNTRY CLUB HILLS","60478","3701 W 168TH ST
COUNTRY CLUB HILLS, IL 60478
(41.584294341000486, -87.70673825099965)"
"7200057","2991","VFW POST 2791","YES","17147  OAK PARK AVE ","TINLEY PARK","60477","17147 OAK PARK AVE
TINLEY PARK, IL 60477
(41.57911048800048, -87.78448390399967)"
"7200058","270","LEE FOSTER SCHOOL","YES","5931  SCHOOL ST ","OAK FOREST","60452","5931 SCHOOL ST
OAK FOREST, IL 60452
(41.61455692400045, -87.76399225799969)"
"7200059","236","TINLEY COURT CATERED SENIOR LIVING","YES","16301 S BREMENTOWNE RD ","TINLEY PARK","60477","16301 S BREMENTOWNE RD
TINLEY PARK, IL 60477
(41.594915185000445, -87.79199908599969)"
"7200060","279","SANDPIPER SOUTH CONDOMINIUMS","YES","5204  MIDLOTHIAN TURNPIKE  ","CRESTWOOD","60445","5204 MIDLOTHIAN TURNPIKE
CRESTWOOD, IL 60445
(41.63676471500048, -87.74763647699967)"
"7200061","238","ST STEPHENS LUTHERAN CHURCH","YES","14700  KILDARE AVE ","MIDLOTHIAN","60445","14700 KILDARE AVE
MIDLOTHIAN, IL 60445
(41.62535277900048, -87.72506759899966)"
"7200062","187","CENTRAL PARK COMMUNITY CENTER","YES","15601 S CENTRAL AVE ","OAK FOREST","60452","15601 S CENTRAL AVE
OAK FOREST, IL 60452
(41.607884027000466, -87.75612953599966)"
"7200063","275","CHATEAUX SCHOOL","YES","3600  CHAMBORD LN ","HAZEL CREST","60429","3600 CHAMBORD LN
HAZEL CREST, IL 60429
(41.56341201900045, -87.70168897099967)"
"7200064","282","BREMEN TOWNSHIP","YES","15350  OAK PARK AVE ","OAK FOREST","60452","15350 OAK PARK AVE
OAK FOREST, IL 60452
(41.6127664280005, -87.78568364099965)"
"7200065","242","OAK FOREST SENIOR CENTER","YES","15501 S KILPATRICK AVE ","OAK FOREST","60452","15501 S KILPATRICK AVE
OAK FOREST, IL 60452
(41.610515157000464, -87.73422837199968)"
"7200066","187","CENTRAL PARK COMMUNITY CENTER","YES","15601 S CENTRAL AVE ","OAK FOREST","60452","15601 S CENTRAL AVE
OAK FOREST, IL 60452
(41.607884027000466, -87.75612953599966)"
"7200067","2562","AMERICAN LEGION POST 615","YES","17423  67TH CT ","TINLEY PARK","60477","17423 67TH CT
TINLEY PARK, IL 60477
(41.57433363100046, -87.78309906199968)"
"7200068","284","ESDA BUILDING","YES","13755 S LAMON AVE ","CRESTWOOD","60445","13755 S LAMON AVE
CRESTWOOD, IL 60445
(41.64221605000046, -87.74026958799965)"
"7200069","246","KIMBERLY HEIGHTS SCHOOL","YES","6141  KIMBERLY DR ","TINLEY PARK","60477","6141 KIMBERLY DR
TINLEY PARK, IL 60477
(41.59088544000048, -87.76949382899966)"
"7200070","247","COUNTRY CLUB HILLS CITY HALL","YES","4200 W 183RD ST ","COUNTRY CLUB HILLS","60478","4200 W 183RD ST
COUNTRY CLUB HILLS, IL 60478
(41.55715781200047, -87.71865950299969)"
"7200071","2565","HIGHLAND SCHOOL","YES","3420  LAUREL LN ","HAZEL CREST","60429","3420 LAUREL LN
HAZEL CREST, IL 60429
(41.57955104700045, -87.70019333599964)"
"7200072","249","FIERKE SCHOOL","YES","6535 W VICTORIA DR ","OAK FOREST","60452","6535 W VICTORIA DR
OAK FOREST, IL 60452
(41.609829136000485, -87.77910287699967)"
"7200073","186","ZION LUTHERAN CHURCH","YES","17100  69TH AVE ","TINLEY PARK","60477","17100 69TH AVE
TINLEY PARK, IL 60477
(41.57980992300048, -87.78777712499965)"
"7200074","3281","DON GORMAN FIELDHOUSE","YES","4412  HENRY ST ","OAK FOREST","60452","4412 HENRY ST
OAK FOREST, IL 60452
(41.59520813600045, -87.72840484799968)"
"7200075","268","MIDLOTHIAN PARK DISTRICT OFFICE","YES","14500  KOSTNER AVE ","MIDLOTHIAN","60445","14500 KOSTNER AVE
MIDLOTHIAN, IL 60445
(41.62893986600045, -87.72765857199965)"
"7200076","282","BREMEN TOWNSHIP","YES","15350  OAK PARK AVE ","OAK FOREST","60452","15350 OAK PARK AVE
OAK FOREST, IL 60452
(41.6127664280005, -87.78568364099965)"
"7200077","230","RIDGE SCHOOL","YES","5151  149TH ST ","OAK FOREST","60452","5151 149TH ST
OAK FOREST, IL 60452
(41.6213640790005, -87.74567277099965)"
"7200078","2565","HIGHLAND SCHOOL","YES","3420  LAUREL LN ","HAZEL CREST","60429","3420 LAUREL LN
HAZEL CREST, IL 60429
(41.57955104700045, -87.70019333599964)"
"7200079","282","BREMEN TOWNSHIP","YES","15350  OAK PARK AVE ","OAK FOREST","60452","15350 OAK PARK AVE
OAK FOREST, IL 60452
(41.6127664280005, -87.78568364099965)"
"7200080","277","ST EMERIC CATHOLIC CHURCH","YES","4340 W 180TH ST ","COUNTRY CLUB HILLS","60478","4340 W 180TH ST
COUNTRY CLUB HILLS, IL 60478
(41.56337633600049, -87.72058960699968)"
"7200081","2562","AMERICAN LEGION POST 615","YES","17423  67TH CT ","TINLEY PARK","60477","17423 67TH CT
TINLEY PARK, IL 60477
(41.57433363100046, -87.78309906199968)"
"7200082","3779","HOMEWOOD CHURCH","YES","18301  GOVERNORS HWY ","HOMEWOOD","60430","18301 GOVERNORS HWY
HOMEWOOD, IL 60430
(41.557100268000454, -87.68108485599964)"
"7200083","260","VOGT WOODS BUILDING","YES","6527 W 171ST ST ","TINLEY PARK","60477","6527 W 171ST ST
TINLEY PARK, IL 60477
(41.58065275600046, -87.77781790599965)"
"7200084","261","KELLAR MIDDLE  SCHOOL","YES","14123 S LYDIA AVE ","ROBBINS","60472","14123 S LYDIA AVE
ROBBINS, IL 60472
(41.6373083200005, -87.70392550399964)"
"7200085","262","JACK HILLE SCHOOL","YES","5800  151ST ST ","OAK FOREST","60452","5800 151ST ST
OAK FOREST, IL 60452
(41.6175375680005, -87.76117394399967)"
"7200086","209","HAZEL CREST UNITED METHODIST CHURCH","YES","17050  CALIFORNIA AVE ","HAZEL CREST","60429","17050 CALIFORNIA AVE
HAZEL CREST, IL 60429
(41.580390673000466, -87.68480691699966)"
"7300001","308","ST DONATUS PARISH","YES","12905  DIVISION ST ","BLUE ISLAND","60406","12905 DIVISION ST
BLUE ISLAND, IL 60406
(41.659005712000464, -87.67036436699965)"
"7300002","297","PAUL REVERE PRIMARY SCHOOL","YES","2300 W 123RD PL ","BLUE ISLAND","60406","2300 W 123RD PL
BLUE ISLAND, IL 60406
(41.66871085300045, -87.67718440499965)"
"7300003","305","SENIOR CITIZEN CENTER","YES","12633 S ASHLAND AVE ","CALUMET PARK","60827","12633 S ASHLAND AVE
CALUMET PARK, IL 60827
(41.6640355450005, -87.66089810099965)"
"7300004","3739","GENERAL GEORGE S PATTON SCHOOL","YES","13700 S STEWART AVE ","RIVERDALE","60827","13700 S STEWART AVE
RIVERDALE, IL 60827
(41.64625116800045, -87.63178185499964)"
"7300005","299","CALUMET PARK RECREATIONAL CENTER","YES","12426 S LOOMIS ST ","CALUMET PARK","60827","12426 S LOOMIS ST
CALUMET PARK, IL 60827
(41.6690591250005, -87.65627188599967)"
"7300006","297","PAUL REVERE PRIMARY SCHOOL","YES","2300 W 123RD PL ","BLUE ISLAND","60406","2300 W 123RD PL
BLUE ISLAND, IL 60406
(41.66871085300045, -87.67718440499965)"
"7300007","294","LINCOLN SCHOOL","YES","2140  BROADWAY ST ","BLUE ISLAND","60406","2140 BROADWAY ST
BLUE ISLAND, IL 60406
(41.6506222000005, -87.67430741799967)"
"7300008","308","ST DONATUS PARISH","YES","12905  DIVISION ST ","BLUE ISLAND","60406","12905 DIVISION ST
BLUE ISLAND, IL 60406
(41.659005712000464, -87.67036436699965)"
"7300009","4140","WISDOM VILLAGE APARTMENTS","YES","12445 S MORGAN ST ","CALUMET PARK","60827","12445 S MORGAN ST
CALUMET PARK, IL 60827
(41.66811219300047, -87.64643069299967)"
"7300010","304","MOUNT CALVARY LUTHERAN CHURCH","YES","1301  VERMONT ST ","CALUMET PARK","60827","1301 VERMONT ST
CALUMET PARK, IL 60827
(41.65820904500049, -87.66197315999966)"
"7300011","305","SENIOR CITIZEN CENTER","YES","12633 S ASHLAND AVE ","CALUMET PARK","60827","12633 S ASHLAND AVE
CALUMET PARK, IL 60827
(41.6640355450005, -87.66089810099965)"
"7300012","299","CALUMET PARK RECREATIONAL CENTER","YES","12426 S LOOMIS ST ","CALUMET PARK","60827","12426 S LOOMIS ST
CALUMET PARK, IL 60827
(41.6690591250005, -87.65627188599967)"
"7300013","297","PAUL REVERE PRIMARY SCHOOL","YES","2300 W 123RD PL ","BLUE ISLAND","60406","2300 W 123RD PL
BLUE ISLAND, IL 60406
(41.66871085300045, -87.67718440499965)"
"7400001","386","ST PAUL LUTHERAN CHURCH","YES","100 S SCHOOL ST ","MOUNT PROSPECT","60056","100 S SCHOOL ST
MOUNT PROSPECT, IL 60056
(42.06823107200046, -87.93123736399968)"
"7400002","454","ELK GROVE VILLAGE PUBLIC LIBRARY","YES","1001  WELLINGTON AVE ","ELK GROVE VILLAGE","60007","1001 WELLINGTON AVE
ELK GROVE VILLAGE, IL 60007
(42.00211591200048, -88.00866009699968)"
"7400003","4331","RAINBOW FALLS PARK","YES","200  REV MORRISON BLVD ","ELK GROVE VILLAGE","60007","200 REV MORRISON BLVD
ELK GROVE VILLAGE, IL 60007
(42.00604911100049, -87.99459091999967)"
"7400004","413","RUPLEY SCHOOL","YES","305  OAKTON ST ","ELK GROVE VILLAGE","60007","305 OAKTON ST
ELK GROVE VILLAGE, IL 60007
(42.02207449600047, -87.98596765599967)"
"7400005","419","LIONS RECREATION CENTER","YES","411 S MAPLE ST ","MOUNT PROSPECT","60056","411 S MAPLE ST
MOUNT PROSPECT, IL 60056
(42.07434047100048, -87.93399362099967)"
"7400006","385","DANA POINT CONDOMINIUM ASSOCIATION","YES","1519 E CENTRAL  ","ARLINGTON HEIGHTS","60005","1519 E CENTRAL
ARLINGTON HEIGHTS, IL 60005
(42.0635934390005, -87.96592971299964)"
"7400007","386","ST PAUL LUTHERAN CHURCH","YES","100 S SCHOOL ST ","MOUNT PROSPECT","60056","100 S SCHOOL ST
MOUNT PROSPECT, IL 60056
(42.06823107200046, -87.93123736399968)"
"7400008","441","WESTBROOK SCHOOL","YES","103 S BUSSE RD ","MOUNT PROSPECT","60056","103 S BUSSE RD
MOUNT PROSPECT, IL 60056
(42.06356917800048, -87.96042304699967)"
"7400009","455","ELK GROVE TOWNSHIP AGENCY","YES","711  CHELMSFORD LN ","ELK GROVE VILLAGE","60007","711 CHELMSFORD LN
ELK GROVE VILLAGE, IL 60007
(42.00831454700045, -88.00901538999966)"
"7400010","389","LINCOLN SCHOOL","YES","700 W LINCOLN ST ","MOUNT PROSPECT","60056","700 W LINCOLN ST
MOUNT PROSPECT, IL 60056
(42.05928384700047, -87.94663230199967)"
"7400011","448","ST CECILIA CHURCH","YES","700 S MEIER RD ","MOUNT PROSPECT","60056","700 S MEIER RD
MOUNT PROSPECT, IL 60056
(42.05284194000046, -87.97008209299969)"
"7400012","454","ELK GROVE VILLAGE PUBLIC LIBRARY","YES","1001  WELLINGTON AVE ","ELK GROVE VILLAGE","60007","1001 WELLINGTON AVE
ELK GROVE VILLAGE, IL 60007
(42.00211591200048, -88.00866009699968)"
"7400013","4331","RAINBOW FALLS PARK","YES","200  REV MORRISON BLVD ","ELK GROVE VILLAGE","60007","200 REV MORRISON BLVD
ELK GROVE VILLAGE, IL 60007
(42.00604911100049, -87.99459091999967)"
"7400014","452","CLEARBROOK","YES","1835 W CENTRAL RD ","ARLINGTON HEIGHTS","60005","1835 W CENTRAL RD
ARLINGTON HEIGHTS, IL 60005
(42.0666114980005, -88.00599297499969)"
"7400015","3401","FRIENDSHIP PARK CONSERVATORY","YES","395 W ALGONQUIN RD ","DES PLAINES","60018","395 W ALGONQUIN RD
DES PLAINES, IL 60018
(42.0302360710005, -87.93010418699964)"
"7400016","401","LIONS PARK ELEMENTARY SCHOOL","YES","300 E COUNCIL TRAIL  ","MOUNT PROSPECT","60056","300 E COUNCIL TRAIL
MOUNT PROSPECT, IL 60056
(42.05554087200045, -87.93236837499967)"
"7400017","3865","LANDMEIER STATION","YES","900  LANDMEIER RD ","ELK GROVE VILLAGE","60007","900 LANDMEIER RD
ELK GROVE VILLAGE, IL 60007
(42.01447242800049, -87.97543540499964)"
"7400018","413","RUPLEY SCHOOL","YES","305  OAKTON ST ","ELK GROVE VILLAGE","60007","305 OAKTON ST
ELK GROVE VILLAGE, IL 60007
(42.02207449600047, -87.98596765599967)"
"7400019","437","CHURCH OF THE INCARNATION","YES","330  GOLF RD ","ARLINGTON HEIGHTS","60005","330 GOLF RD
ARLINGTON HEIGHTS, IL 60005
(42.05144901300048, -87.98526126199965)"
"7400020","399","CLEARMONT SCHOOL","YES","280  CLEARMONT DR ","ELK GROVE VILLAGE","60005","280 CLEARMONT DR
ELK GROVE VILLAGE, IL 60005
(41.99921139100047, -87.98947478599968)"
"7400021","440","FOREST VIEW EDUCATION CENTER","YES","2121 S GOEBBERT RD ","ARLINGTON HEIGHTS","60005","2121 S GOEBBERT RD
ARLINGTON HEIGHTS, IL 60005
(42.0468283620005, -87.97481687099969)"
"7400022","446","JOHN JAY ELEMENTARY SCHOOL","YES","1835  PHEASANT TRL ","MOUNT PROSPECT","60056","1835 PHEASANT TRL
MOUNT PROSPECT, IL 60056
(42.04175792100045, -87.96856905499965)"
"7400023","3677","CHICAGO ASSEMBLY OF GOD","YES","618 E GOLF RD ","MOUNT PROSPECT","60056","618 E GOLF RD
MOUNT PROSPECT, IL 60056
(42.04789459800048, -87.92810596199968)"
"7400024","444","THE SALVATION ARMY","YES","10 W ALGONQUIN RD ","DES PLAINES","60016","10 W ALGONQUIN RD
DES PLAINES, IL 60016
(42.0304477520005, -87.92188083499968)"
"7400025","441","WESTBROOK SCHOOL","YES","103 S BUSSE RD ","MOUNT PROSPECT","60056","103 S BUSSE RD
MOUNT PROSPECT, IL 60056
(42.06356917800048, -87.96042304699967)"
"7400026","453","ST JOHN LUTHERAN SCHOOL","YES","1100  LINNEMAN RD ","MOUNT PROSPECT","60056","1100 LINNEMAN RD
MOUNT PROSPECT, IL 60056
(42.043386376000456, -87.94867800599968)"
"7400027","448","ST CECILIA CHURCH","YES","700 S MEIER RD ","MOUNT PROSPECT","60056","700 S MEIER RD
MOUNT PROSPECT, IL 60056
(42.05284194000046, -87.97008209299969)"
"7400028","3236","HOLIDAY INN","YES","3405  ALGONQUIN RD ","ROLLING MEADOWS","60008","3405 ALGONQUIN RD
ROLLING MEADOWS, IL 60008
(42.06148331100047, -88.02265594599965)"
"7400029","435","SALT CREEK SCHOOL","YES","65  KENNEDY BLVD ","ELK GROVE VILLAGE","60007","65 KENNEDY BLVD
ELK GROVE VILLAGE, IL 60007
(42.00850575400045, -87.99388813199965)"
"7400030","409","BRENTWOOD ELEMENTARY SCHOOL","YES","260  DULLES RD ","DES PLAINES","60016","260 DULLES RD
DES PLAINES, IL 60016
(42.045024861000456, -87.92803312599966)"
"7400031","444","THE SALVATION ARMY","YES","10 W ALGONQUIN RD ","DES PLAINES","60016","10 W ALGONQUIN RD
DES PLAINES, IL 60016
(42.0304477520005, -87.92188083499968)"
"7400032","428","RECPLEX","YES","420  DEMPSTER ST ","MOUNT PROSPECT","60056","420 DEMPSTER ST
MOUNT PROSPECT, IL 60056
(42.03734885200049, -87.94385337099965)"
"7400033","399","CLEARMONT SCHOOL","YES","280  CLEARMONT DR ","ELK GROVE VILLAGE","60005","280 CLEARMONT DR
ELK GROVE VILLAGE, IL 60005
(41.99921139100047, -87.98947478599968)"
"7400034","387","ST MARK LUTHERAN CENTER","YES","200 S WILLE ST ","MOUNT PROSPECT","60056","200 S WILLE ST
MOUNT PROSPECT, IL 60056
(42.070060896000484, -87.93811763799965)"
"7400035","447","CRYSTAL TOWERS HOME ASSOCIATION","YES","1725 W CRYSTAL LN ","MOUNT PROSPECT","60056","1725 W CRYSTAL LN
MOUNT PROSPECT, IL 60056
(42.035392397000464, -87.96192479899969)"
"7400036","417","ASBURY COURT","YES","1750  ELMHURST RD ","DES PLAINES","60016","1750 ELMHURST RD
DES PLAINES, IL 60016
(42.0206719520005, -87.94048589199969)"
"7400037","3799","BRENTWOOD BAPTIST CHRISTIAN ACADEMY","YES","588  DARA JAMES RD ","DES PLAINES","60016","588 DARA JAMES RD
DES PLAINES, IL 60016
(42.04156634500049, -87.92782188999968)"
"7400038","417","ASBURY COURT","YES","1750  ELMHURST RD ","DES PLAINES","60016","1750 ELMHURST RD
DES PLAINES, IL 60016
(42.0206719520005, -87.94048589199969)"
"7400039","1963","ROBERT FROST ELEMENTARY SCHOOL","YES","1308 S CYPRESS DR ","MOUNT PROSPECT","60056","1308 S CYPRESS DR
MOUNT PROSPECT, IL 60056
(42.0424833400005, -87.95302102199969)"
"7400040","3236","HOLIDAY INN","YES","3405  ALGONQUIN RD ","ROLLING MEADOWS","60008","3405 ALGONQUIN RD
ROLLING MEADOWS, IL 60008
(42.06148331100047, -88.02265594599965)"
"7400041","457","DUNTON ADMINISTRATION BLDG","YES","1200 S DUNTON AVE ","ARLINGTON HEIGHTS","60005","1200 S DUNTON AVE
ARLINGTON HEIGHTS, IL 60005
(42.062323534000484, -87.98234597799967)"
"7400042","440","FOREST VIEW EDUCATION CENTER","YES","2121 S GOEBBERT RD ","ARLINGTON HEIGHTS","60005","2121 S GOEBBERT RD
ARLINGTON HEIGHTS, IL 60005
(42.0468283620005, -87.97481687099969)"
"7400043","454","ELK GROVE VILLAGE PUBLIC LIBRARY","YES","1001  WELLINGTON AVE ","ELK GROVE VILLAGE","60007","1001 WELLINGTON AVE
ELK GROVE VILLAGE, IL 60007
(42.00211591200048, -88.00866009699968)"
"7400044","457","DUNTON ADMINISTRATION BLDG","YES","1200 S DUNTON AVE ","ARLINGTON HEIGHTS","60005","1200 S DUNTON AVE
ARLINGTON HEIGHTS, IL 60005
(42.062323534000484, -87.98234597799967)"
"7400045","432","RICHARD E BYRD SCHOOL 59","YES","265  WELLINGTON AVE ","ELK GROVE VILLAGE","60007","265 WELLINGTON AVE
ELK GROVE VILLAGE, IL 60007
(41.99723588000046, -88.00910852399966)"
"7400046","425","HERITAGE PARK","YES","506 W VICTORIA LN ","ARLINGTON HEIGHTS","60004","506 W VICTORIA LN
ARLINGTON HEIGHTS, IL 60004
(42.054495691000454, -87.98896553599968)"
"7400047","426","CHRISTUS VICTOR LUTHERAN CHURCH","YES","1045 S ARLINGTON HTS RD ","ELK GROVE VILLAGE","60007","1045 S ARLINGTON HTS RD
ELK GROVE VILLAGE, IL 60007
(42.00122242800046, -88.00358337699964)"
"7400048","427","THE MOORINGS","YES","811 E CENTRAL RD ","ARLINGTON HEIGHTS","60005","811 E CENTRAL RD
ARLINGTON HEIGHTS, IL 60005
(42.066447248000486, -87.97312340999969)"
"7400049","3401","FRIENDSHIP PARK CONSERVATORY","YES","395 W ALGONQUIN RD ","DES PLAINES","60018","395 W ALGONQUIN RD
DES PLAINES, IL 60018
(42.0302360710005, -87.93010418699964)"
"7400050","440","FOREST VIEW EDUCATION CENTER","YES","2121 S GOEBBERT RD ","ARLINGTON HEIGHTS","60005","2121 S GOEBBERT RD
ARLINGTON HEIGHTS, IL 60005
(42.0468283620005, -87.97481687099969)"
"7400051","3677","CHICAGO ASSEMBLY OF GOD","YES","618 E GOLF RD ","MOUNT PROSPECT","60056","618 E GOLF RD
MOUNT PROSPECT, IL 60056
(42.04789459800048, -87.92810596199968)"
"7400052","443","ROLLING MEADOWS HIGH SCHOOL","YES","2901  CENTRAL RD ","ROLLING MEADOWS","60008","2901 CENTRAL RD
ROLLING MEADOWS, IL 60008
(42.06667309800048, -88.01616863999965)"
"7400053","455","ELK GROVE TOWNSHIP AGENCY","YES","711  CHELMSFORD LN ","ELK GROVE VILLAGE","60007","711 CHELMSFORD LN
ELK GROVE VILLAGE, IL 60007
(42.00831454700045, -88.00901538999966)"
"7501001","3675","THE ALICE MILLAR CHAPEL","YES","1870  SHERIDAN RD ","EVANSTON","60208","1870 SHERIDAN RD
EVANSTON, IL 60208
(42.05087455800049, -87.67677213399969)"
"7501002","460","JANE R PERLMAN APARTMENTS","YES","1900  SHERMAN AVE ","EVANSTON","60201","1900 SHERMAN AVE
EVANSTON, IL 60201
(42.052172045000475, -87.68177438299966)"
"7501003","491","NOYES CULTURAL ARTS CENTER","YES","927  NOYES ST ","EVANSTON","60201","927 NOYES ST
EVANSTON, IL 60201
(42.058475246000455, -87.68394365099965)"
"7501004","461","THE MERION","YES","1611  CHICAGO AVE ","EVANSTON","60201","1611 CHICAGO AVE
EVANSTON, IL 60201
(42.046805545000495, -87.67933012199967)"
"7502001","3971","MCGAW YMCA","YES","1000  GROVE ST ","EVANSTON","60201","1000 GROVE ST
EVANSTON, IL 60201
(42.045572603000494, -87.68605138199968)"
"7502002","4008","UNITARIAN CHURCH","YES","1330  RIDGE AVE ","EVANSTON","60201","1330 RIDGE AVE
EVANSTON, IL 60201
(42.04228860000046, -87.68848730499968)"
"7502003","3900","EVANSTON SKOKIE SCHOOL DISTRICT 65","YES","1500  MC DANIEL AVE ","EVANSTON","60201","1500 MC DANIEL AVE
EVANSTON, IL 60201
(42.044701397000495, -87.70838430699968)"
"7502004","468","WASHINGTON SCHOOL","YES","914  ASHLAND AVE ","EVANSTON","60201","914 ASHLAND AVE
EVANSTON, IL 60201
(42.03426724400049, -87.69307555399968)"
"7502005","472","CROWN RECREATION CENTER","YES","1701  MAIN ST ","EVANSTON","60201","1701 MAIN ST
EVANSTON, IL 60201
(42.03393420100048, -87.69673828499964)"
"7503001","3973","HEMENWAY METHODIST CHURCH","YES","933  CHICAGO AVE ","EVANSTON","60202","933 CHICAGO AVE
EVANSTON, IL 60202
(42.03473957200049, -87.67950194099967)"
"7503002","3973","HEMENWAY METHODIST CHURCH","YES","933  CHICAGO AVE ","EVANSTON","60202","933 CHICAGO AVE
EVANSTON, IL 60202
(42.03473957200049, -87.67950194099967)"
"7503003","475","LINCOLN SCHOOL","YES","910  FOREST AVE ","EVANSTON","60201","910 FOREST AVE
EVANSTON, IL 60201
(42.03413890100046, -87.67483162099967)"
"7503004","485","LAKE STREET CHURCH","YES","607  LAKE ST ","EVANSTON","60201","607 LAKE ST
EVANSTON, IL 60201
(42.044093192000446, -87.68069112199964)"
"7503005","3456","REBA PLACE CHURCH","YES","620  MADISON ST ","EVANSTON","60202","620 MADISON ST
EVANSTON, IL 60202
(42.031644309000455, -87.67913580299967)"
"7503006","475","LINCOLN SCHOOL","YES","910  FOREST AVE ","EVANSTON","60201","910 FOREST AVE
EVANSTON, IL 60201
(42.03413890100046, -87.67483162099967)"
"7503007","480","BAKER PARK FIELDHOUSE","YES","605  FOREST AVE ","EVANSTON","60204","605 FOREST AVE
EVANSTON, IL 60204
(42.02898931800047, -87.67359397199965)"
"7504001","483","BETHANY BAPTIST CHURCH","YES","1225  ELMWOOD AVE ","EVANSTON","60202","1225 ELMWOOD AVE
EVANSTON, IL 60202
(42.039889581000466, -87.68358934199966)"
"7504002","484","NICHOLS SCHOOL","YES","800  GREENLEAF ST ","EVANSTON","60201","800 GREENLEAF ST
EVANSTON, IL 60201
(42.03753658500045, -87.68225090399966)"
"7504003","485","LAKE STREET CHURCH","YES","607  LAKE ST ","EVANSTON","60201","607 LAKE ST
EVANSTON, IL 60201
(42.044093192000446, -87.68069112199964)"
"7504004","4008","UNITARIAN CHURCH","YES","1330  RIDGE AVE ","EVANSTON","60201","1330 RIDGE AVE
EVANSTON, IL 60201
(42.04228860000046, -87.68848730499968)"
"7504005","468","WASHINGTON SCHOOL","YES","914  ASHLAND AVE ","EVANSTON","60201","914 ASHLAND AVE
EVANSTON, IL 60201
(42.03426724400049, -87.69307555399968)"
"7504006","4008","UNITARIAN CHURCH","YES","1330  RIDGE AVE ","EVANSTON","60201","1330 RIDGE AVE
EVANSTON, IL 60201
(42.04228860000046, -87.68848730499968)"
"7504007","489","JAMES C KING HOME","YES","1555  OAK AVE ","EVANSTON","60201","1555 OAK AVE
EVANSTON, IL 60201
(42.0458114860005, -87.68679919199968)"
"7505001","3461","FLEETWOOD JOURDAIN COMMUNITY CENTER","YES","1655  FOSTER ST ","EVANSTON","60201","1655 FOSTER ST
EVANSTON, IL 60201
(42.05389536400048, -87.69512319399968)"
"7505002","492","EBENEZER-PRIMM TOWERS","YES","1001  EMERSON ST ","EVANSTON","60201","1001 EMERSON ST
EVANSTON, IL 60201
(42.052147523000485, -87.68525976499967)"
"7505003","3461","FLEETWOOD JOURDAIN COMMUNITY CENTER","YES","1655  FOSTER ST ","EVANSTON","60201","1655 FOSTER ST
EVANSTON, IL 60201
(42.05389536400048, -87.69512319399968)"
"7505004","3461","FLEETWOOD JOURDAIN COMMUNITY CENTER","YES","1655  FOSTER ST ","EVANSTON","60201","1655 FOSTER ST
EVANSTON, IL 60201
(42.05389536400048, -87.69512319399968)"
"7506001","504","NORTHMINSTER PRESBYTERIAN CHURCH","NO","2515  CENTRAL PARK AVE ","EVANSTON","60201","2515 CENTRAL PARK AVE
EVANSTON, IL 60201
(42.06310218800047, -87.71772493199967)"
"7506002","499","SECOND CHURCH OF CHRIST SCIENTIST","YES","2715  HURD AVE ","EVANSTON","60201","2715 HURD AVE
EVANSTON, IL 60201
(42.067169831000456, -87.71647033199969)"
"7506003","500","HILLSIDE FREE METHODIST CHURCH","YES","2727  CRAWFORD AVE ","EVANSTON","60201","2727 CRAWFORD AVE
EVANSTON, IL 60201
(42.06732449100048, -87.72968209599969)"
"7506004","503","WESTMINSTER PLACE","YES","1  CALVIN CIR ","EVANSTON","60201","1 CALVIN CIR
EVANSTON, IL 60201
(42.058686175000446, -87.72175378099968)"
"7506005","4295","HAVEN MIDDLE SCHOOL","YES","2417  PRAIRIE AVE ","EVANSTON","60201","2417 PRAIRIE AVE
EVANSTON, IL 60201
(42.06132832200046, -87.69835063799968)"
"7506006","503","WESTMINSTER PLACE","YES","1  CALVIN CIR ","EVANSTON","60201","1 CALVIN CIR
EVANSTON, IL 60201
(42.058686175000446, -87.72175378099968)"
"7506007","504","NORTHMINSTER PRESBYTERIAN CHURCH","NO","2515  CENTRAL PARK AVE ","EVANSTON","60201","2515 CENTRAL PARK AVE
EVANSTON, IL 60201
(42.06310218800047, -87.71772493199967)"
"7506008","505","THREE CROWNS PARK","YES","2323  MCDANIEL AVE ","EVANSTON","60201","2323 MCDANIEL AVE
EVANSTON, IL 60201
(42.05951173300048, -87.70805191399967)"
"7507001","4295","HAVEN MIDDLE SCHOOL","YES","2417  PRAIRIE AVE ","EVANSTON","60201","2417 PRAIRIE AVE
EVANSTON, IL 60201
(42.06132832200046, -87.69835063799968)"
"7507002","509","BAHAI NATIONAL CENTER","YES","1233  CENTRAL ST ","EVANSTON","60201","1233 CENTRAL ST
EVANSTON, IL 60201
(42.0642636120005, -87.68851520699968)"
"7507003","3491","PATTEN GYMNASIUM","YES","2407  SHERIDAN RD ","EVANSTON","60201","2407 SHERIDAN RD
EVANSTON, IL 60201
(42.06140838900046, -87.67706698499967)"
"7507004","511","EVANSTON ECOLOGY CENTER","NO","2024  MCCORMICK BLVD ","EVANSTON","60201","2024 MCCORMICK BLVD
EVANSTON, IL 60201
(42.05639232100049, -87.70198131299969)"
"7507005","3753","CHANDLER-NEWBERGER COMMUNITY CENTER","YES","1028  CENTRAL ST ","EVANSTON","60201","1028 CENTRAL ST
EVANSTON, IL 60201
(42.06417993100047, -87.68596125599964)"
"7507006","3675","THE ALICE MILLAR CHAPEL","YES","1870  SHERIDAN RD ","EVANSTON","60208","1870 SHERIDAN RD
EVANSTON, IL 60208
(42.05087455800049, -87.67677213399969)"
"7507007","509","BAHAI NATIONAL CENTER","YES","1233  CENTRAL ST ","EVANSTON","60201","1233 CENTRAL ST
EVANSTON, IL 60201
(42.0642636120005, -87.68851520699968)"
"7508001","3721","LEVY SENIOR CENTER","YES","300  DODGE AVE ","EVANSTON","60202","300 DODGE AVE
EVANSTON, IL 60202
(42.0227715310005, -87.69956443799964)"
"7508002","2741","OAKTON SCHOOL","YES","436  RIDGE AVE ","EVANSTON","60202","436 RIDGE AVE
EVANSTON, IL 60202
(42.02580987500045, -87.68537679299965)"
"7508003","3656","HOWARD STREET OUTPOST","YES","633  HOWARD ST ","EVANSTON","60201","633 HOWARD ST
EVANSTON, IL 60201
(42.01946305200045, -87.67948827199967)"
"7508004","2741","OAKTON SCHOOL","YES","436  RIDGE AVE ","EVANSTON","60202","436 RIDGE AVE
EVANSTON, IL 60202
(42.02580987500045, -87.68537679299965)"
"7508005","3721","LEVY SENIOR CENTER","YES","300  DODGE AVE ","EVANSTON","60202","300 DODGE AVE
EVANSTON, IL 60202
(42.0227715310005, -87.69956443799964)"
"7509001","3456","REBA PLACE CHURCH","YES","620  MADISON ST ","EVANSTON","60202","620 MADISON ST
EVANSTON, IL 60202
(42.031644309000455, -87.67913580299967)"
"7509002","2560","GRACE LUTHERAN CHURCH","NO","1430  SOUTH BLVD ","EVANSTON","60202","1430 SOUTH BLVD
EVANSTON, IL 60202
(42.02771405100049, -87.69263796799964)"
"7509003","532","RIDGEVILLE COMMUNITY HOUSE","YES","908  SEWARD ST ","EVANSTON","60202","908 SEWARD ST
EVANSTON, IL 60202
(42.02879235600045, -87.68433439299969)"
"7509004","472","CROWN RECREATION CENTER","YES","1701  MAIN ST ","EVANSTON","60201","1701 MAIN ST
EVANSTON, IL 60201
(42.03393420100048, -87.69673828499964)"
"7509005","2560","GRACE LUTHERAN CHURCH","NO","1430  SOUTH BLVD ","EVANSTON","60202","1430 SOUTH BLVD
EVANSTON, IL 60202
(42.02771405100049, -87.69263796799964)"
"7509006","532","RIDGEVILLE COMMUNITY HOUSE","YES","908  SEWARD ST ","EVANSTON","60202","908 SEWARD ST
EVANSTON, IL 60202
(42.02879235600045, -87.68433439299969)"
"7600001","3725","STREAMWOOD FIRE STATION 2","YES","900 W IRVING PARK RD ","STREAMWOOD","60107","900 W IRVING PARK RD
STREAMWOOD, IL 60107
(42.009367908000456, -88.16112680399965)"
"7600002","586","STREAMWOOD OAKS GOLF COURSE","YES","565  MADISON DR ","STREAMWOOD","60107","565 MADISON DR
STREAMWOOD, IL 60107
(42.0218637050005, -88.19825127899969)"
"7600003","536","HUFF SCHOOL","YES","801  HASTINGS ST ","ELGIN","60120","801 HASTINGS ST
ELGIN, IL 60120
(42.021941332000495, -88.26186656499965)"
"7600004","3905","HILLTOP SCHOOL","YES","1855  ROHRSSEN RD ","ELGIN","60120","1855 ROHRSSEN RD
ELGIN, IL 60120
(42.03837707300045, -88.22784271499967)"
"7600005","538","HANOVER COUNTRYSIDE SCHOOL","YES","6 S BARTLETT RD ","STREAMWOOD","60107","6 S BARTLETT RD
STREAMWOOD, IL 60107
(42.030960311000456, -88.18004773599966)"
"7600006","3826","PARK PLACE FAMILY RECREATION CENTER","YES","550 S PARK BLVD ","STREAMWOOD","60107","550 S PARK BLVD
STREAMWOOD, IL 60107
(42.02032051500049, -88.16717090799966)"
"7600007","538","HANOVER COUNTRYSIDE SCHOOL","YES","6 S BARTLETT RD ","STREAMWOOD","60107","6 S BARTLETT RD
STREAMWOOD, IL 60107
(42.030960311000456, -88.18004773599966)"
"7600008","571","STREAMWOOD PARK DISTRICT","YES","777 S BARTLETT RD ","STREAMWOOD","60107","777 S BARTLETT RD
STREAMWOOD, IL 60107
(42.01887388500046, -88.18281987999967)"
"7600009","582","HANOVER TOWNSHIP SENIOR CENTER","YES","240 S ILLINOIS ROUTE 59  ","BARTLETT","60103","240 S ILLINOIS ROUTE 59
BARTLETT, IL 60103
(41.95294890000048, -88.20544060499964)"
"7600010","3732","NEW COVENANT FELLOWSHIP","YES","865  PARKWAY AVE ","ELGIN","60120","865 PARKWAY AVE
ELGIN, IL 60120
(42.06204164000047, -88.25767157399969)"
"7600011","550","TEFFT MIDDLE SCHOOL","YES","1100  SHIRLEY AVE ","STREAMWOOD","60107","1100 SHIRLEY AVE
STREAMWOOD, IL 60107
(42.00956436400048, -88.16337373099964)"
"7600012","545","HANOVER PARK MUNICIPAL BUILDING","YES","2121 W LAKE ST ","HANOVER PARK","60133","2121 W LAKE ST
HANOVER PARK, IL 60133
(41.990910286000485, -88.15809651499967)"
"7600013","574","FIRST CHRISTIAN CHURCH","YES","1125  SUMMIT ST ","ELGIN","60120","1125 SUMMIT ST
ELGIN, IL 60120
(42.04649388900049, -88.24875927199969)"
"7600014","3732","NEW COVENANT FELLOWSHIP","YES","865  PARKWAY AVE ","ELGIN","60120","865 PARKWAY AVE
ELGIN, IL 60120
(42.06204164000047, -88.25767157399969)"
"7600015","548","LAUREL HILL ELEMENTARY SCHOOL","YES","1750  LAUREL AVE ","HANOVER PARK","60133","1750 LAUREL AVE
HANOVER PARK, IL 60133
(42.0027381000005, -88.14893969699966)"
"7600016","584","VILLA OLIVIA","YES","  ROUTE 20 & NAPERVILLE RD  ","BARTLETT","60103","ROUTE 20 & NAPERVILLE RD
BARTLETT, IL 60103
(41.98286587600046, -88.19171623199969)"
"7600017","550","TEFFT MIDDLE SCHOOL","YES","1100  SHIRLEY AVE ","STREAMWOOD","60107","1100 SHIRLEY AVE
STREAMWOOD, IL 60107
(42.00956436400048, -88.16337373099964)"
"7600018","551","VILLAGE OF STREAMWOOD","YES","301 E IRVING PARK RD ","STREAMWOOD","60107","301 E IRVING PARK RD
STREAMWOOD, IL 60107
(42.01214013100048, -88.17587958699966)"
"7600019","3844","TIMBER TRAILS ELEMENTARY SCHOOL","YES","1675  MCDONOUGH RD ","HOFFMAN ESTATES","60192","1675 MCDONOUGH RD
HOFFMAN ESTATES, IL 60192
(42.055665417000455, -88.21619295499966)"
"7600020","3101","NATURE RIDGE ELEMENTARY SCHOOL","YES","1899  WESTRIDGE BLVD ","BARTLETT","60103","1899 WESTRIDGE BLVD
BARTLETT, IL 60103
(41.99296103000046, -88.24747895199965)"
"7600021","554","STREAMWOOD HIGH SCHOOL","YES","701 W SCHAUMBURG RD ","STREAMWOOD","60107","701 W SCHAUMBURG RD
STREAMWOOD, IL 60107
(42.0314890890005, -88.19797895899967)"
"7600022","565","GLENBROOK ELEMENTARY SCHOOL","YES","315  GARDEN CIR ","STREAMWOOD","60107","315 GARDEN CIR
STREAMWOOD, IL 60107
(42.03772078700047, -88.16062816799968)"
"7600023","534","BARTLETT LOG CABIN","YES","102 N EASTERN AVE ","BARTLETT","60103","102 N EASTERN AVE
BARTLETT, IL 60103
(41.99497298500046, -88.18399353599966)"
"7600024","2566","COMMUNITY CENTER","YES","1919  WALNUT AVE ","HANOVER PARK","60133","1919 WALNUT AVE
HANOVER PARK, IL 60133
(41.9954190090005, -88.15126595999965)"
"7600025","554","STREAMWOOD HIGH SCHOOL","YES","701 W SCHAUMBURG RD ","STREAMWOOD","60107","701 W SCHAUMBURG RD
STREAMWOOD, IL 60107
(42.0314890890005, -88.19797895899967)"
"7600026","582","HANOVER TOWNSHIP SENIOR CENTER","YES","240 S ILLINOIS ROUTE 59  ","BARTLETT","60103","240 S ILLINOIS ROUTE 59
BARTLETT, IL 60103
(41.95294890000048, -88.20544060499964)"
"7600027","3844","TIMBER TRAILS ELEMENTARY SCHOOL","YES","1675  MCDONOUGH RD ","HOFFMAN ESTATES","60192","1675 MCDONOUGH RD
HOFFMAN ESTATES, IL 60192
(42.055665417000455, -88.21619295499966)"
"7600028","585","TOWNE PLACE WEST CLUBHOUSE","YES","2841  MEADOW LN ","SCHAUMBURG","60195","2841 MEADOW LN
SCHAUMBURG, IL 60195
(42.026905901000475, -88.15226011699968)"
"7600029","562","LORDS PARK SCHOOL","YES","323  WAVERLY DR ","ELGIN","60120","323 WAVERLY DR
ELGIN, IL 60120
(42.04317977800048, -88.25268314599964)"
"7600030","3536","CORNERSTONE CHURCH","YES","1001  SUMMIT ST ","ELGIN","60120","1001 SUMMIT ST
ELGIN, IL 60120
(42.04641536200046, -88.25477408599966)"
"7600031","4245","VILLAGE OF BARTLETT","YES","228 S MAIN ST ","BARTLETT","60103","228 S MAIN ST
BARTLETT, IL 60103
(41.99057231900048, -88.18452802699966)"
"7600032","572","ELGIN HIGH SCHOOL","YES","1200  MAROON DR ","ELGIN","60120","1200 MAROON DR
ELGIN, IL 60120
(42.02527854600049, -88.24400570899968)"
"7600033","566","RIDGE CIRCLE ELEMENTARY SCHOOL","YES","420  RIDGE CIR ","STREAMWOOD","60107","420 RIDGE CIR
STREAMWOOD, IL 60107
(42.02363824200046, -88.16035422299967)"
"7600034","551","VILLAGE OF STREAMWOOD","YES","301 E IRVING PARK RD ","STREAMWOOD","60107","301 E IRVING PARK RD
STREAMWOOD, IL 60107
(42.01214013100048, -88.17587958699966)"
"7600035","568","LORDS PARK PAVILION","YES","100  OAKWOOD BLVD ","ELGIN","60120","100 OAKWOOD BLVD
ELGIN, IL 60120
(42.0393735720005, -88.26121276699968)"
"7600036","569","CANTON MIDDLE SCHOOL","YES","1100  SUNSET CIR ","STREAMWOOD","60107","1100 SUNSET CIR
STREAMWOOD, IL 60107
(42.02517077900046, -88.15846576199965)"
"7600037","3276","BROOKSIDE CLUBHOUSE","YES","821 E BODE RD ","STREAMWOOD","60107","821 E BODE RD
STREAMWOOD, IL 60107
(42.039133173000494, -88.15952362099966)"
"7600038","571","STREAMWOOD PARK DISTRICT","YES","777 S BARTLETT RD ","STREAMWOOD","60107","777 S BARTLETT RD
STREAMWOOD, IL 60107
(42.01887388500046, -88.18281987999967)"
"7600039","572","ELGIN HIGH SCHOOL","YES","1200  MAROON DR ","ELGIN","60120","1200 MAROON DR
ELGIN, IL 60120
(42.02527854600049, -88.24400570899968)"
"7600040","586","STREAMWOOD OAKS GOLF COURSE","YES","565  MADISON DR ","STREAMWOOD","60107","565 MADISON DR
STREAMWOOD, IL 60107
(42.0218637050005, -88.19825127899969)"
"7600041","574","FIRST CHRISTIAN CHURCH","YES","1125  SUMMIT ST ","ELGIN","60120","1125 SUMMIT ST
ELGIN, IL 60120
(42.04649388900049, -88.24875927199969)"
"7600042","584","VILLA OLIVIA","YES","  ROUTE 20 & NAPERVILLE RD  ","BARTLETT","60103","ROUTE 20 & NAPERVILLE RD
BARTLETT, IL 60103
(41.98286587600046, -88.19171623199969)"
"7600043","566","RIDGE CIRCLE ELEMENTARY SCHOOL","YES","420  RIDGE CIR ","STREAMWOOD","60107","420 RIDGE CIR
STREAMWOOD, IL 60107
(42.02363824200046, -88.16035422299967)"
"7600044","4245","VILLAGE OF BARTLETT","YES","228 S MAIN ST ","BARTLETT","60103","228 S MAIN ST
BARTLETT, IL 60103
(41.99057231900048, -88.18452802699966)"
"7700001","2956","SLOVENIAN CULTURAL CENTER","YES","14252  MAIN ST ","LEMONT","60439","14252 MAIN ST
LEMONT, IL 60439
(41.68184925200046, -87.96840133099965)"
"7700002","589","OUR LADY OF VICTORY CONVENT","YES","11400  THERESA DR ","LEMONT","60439","11400 THERESA DR
LEMONT, IL 60439
(41.6784915450005, -87.97245577799964)"
"7700003","590","LITHUANIAN WORLD CENTER","YES","14911  127TH ST ","LEMONT","60439","14911 127TH ST
LEMONT, IL 60439
(41.65693790600045, -87.98409137799968)"
"7700004","591","LEMONT TOWNSHIP HIGH SCHOOL","YES","800  PORTER ST ","LEMONT","60439","800 PORTER ST
LEMONT, IL 60439
(41.675173919000486, -87.99225183799967)"
"7700005","591","LEMONT TOWNSHIP HIGH SCHOOL","YES","800  PORTER ST ","LEMONT","60439","800 PORTER ST
LEMONT, IL 60439
(41.675173919000486, -87.99225183799967)"
"7700006","590","LITHUANIAN WORLD CENTER","YES","14911  127TH ST ","LEMONT","60439","14911 127TH ST
LEMONT, IL 60439
(41.65693790600045, -87.98409137799968)"
"7700007","593","LEMONT TOWNSHIP","YES","1115  WARNER AVE ","LEMONT","60439","1115 WARNER AVE
LEMONT, IL 60439
(41.660081956000454, -88.00227803899969)"
"7700008","3715","VFW POST 5819","YES","15780  NEW AVE ","LEMONT","60439","15780 NEW AVE
LEMONT, IL 60439
(41.67340053400045, -88.00331544399967)"
"7700009","600","CENTENNIAL COMMUNITY CENTER","YES","16058 W 127TH ST ","LEMONT","60439","16058 W 127TH ST
LEMONT, IL 60439
(41.656364073000475, -88.01113573099968)"
"7700010","3715","VFW POST 5819","YES","15780  NEW AVE ","LEMONT","60439","15780 NEW AVE
LEMONT, IL 60439
(41.67340053400045, -88.00331544399967)"
"7700011","600","CENTENNIAL COMMUNITY CENTER","YES","16058 W 127TH ST ","LEMONT","60439","16058 W 127TH ST
LEMONT, IL 60439
(41.656364073000475, -88.01113573099968)"
"7700012","2956","SLOVENIAN CULTURAL CENTER","YES","14252  MAIN ST ","LEMONT","60439","14252 MAIN ST
LEMONT, IL 60439
(41.68184925200046, -87.96840133099965)"
"7700013","600","CENTENNIAL COMMUNITY CENTER","YES","16058 W 127TH ST ","LEMONT","60439","16058 W 127TH ST
LEMONT, IL 60439
(41.656364073000475, -88.01113573099968)"
"7700014","590","LITHUANIAN WORLD CENTER","YES","14911  127TH ST ","LEMONT","60439","14911 127TH ST
LEMONT, IL 60439
(41.65693790600045, -87.98409137799968)"
"7800001","601","WASHINGTON SCHOOL","YES","4835 N MICHIGAN AVE ","SCHILLER PARK","60176","4835 N MICHIGAN AVE
SCHILLER PARK, IL 60176
(41.96702764800045, -87.86850088699964)"
"7800002","4390","GRACE PARK CONDOMINIUMS","YES","9353  IRVING PARK RD ","SCHILLER PARK","60176","9353 IRVING PARK RD
SCHILLER PARK, IL 60176
(41.95411199400047, -87.86086934799965)"
"7800003","674","ELMWOOD SCHOOL","YES","2319 N 76TH AVE ","ELMWOOD PARK","60707","2319 N 76TH AVE
ELMWOOD PARK, IL 60707
(41.92190538400047, -87.81590522399966)"
"7800004","642","FRANKLIN PARK PUBLIC LIBRARY","YES","10311  GRAND AVE ","FRANKLIN PARK","60131","10311 GRAND AVE
FRANKLIN PARK, IL 60131
(41.930223053000475, -87.88368002899966)"
"7800005","633","EAST LEYDEN HIGH SCHOOL","YES","3400  ROSE ST ","FRANKLIN PARK","60131","3400 ROSE ST
FRANKLIN PARK, IL 60131
(41.94048197000046, -87.86572416199965)"
"7800006","4380","ST GERTRUDE CHURCH","YES","9613  SCHILLER BLVD ","FRANKLIN PARK","60131","9613 SCHILLER BLVD
FRANKLIN PARK, IL 60131
(41.9331128770005, -87.86582642699966)"
"7800007","607","FRANKLIN TOWERS","YES","9535  FRANKLIN AVE ","FRANKLIN PARK","60131","9535 FRANKLIN AVE
FRANKLIN PARK, IL 60131
(41.93482497100047, -87.86399328399966)"
"7800008","693","DISTRICT 84 ADMINISTRATION OFFICE","YES","2915  MAPLE ST ","FRANKLIN PARK","60131","2915 MAPLE ST
FRANKLIN PARK, IL 60131
(41.93185978000048, -87.85305410299969)"
"7800009","697","ELM SCHOOL","YES","7607 W CORTLAND ST ","ELMWOOD PARK","60707","7607 W CORTLAND ST
ELMWOOD PARK, IL 60707
(41.91415394000046, -87.81618908799965)"
"7800010","697","ELM SCHOOL","YES","7607 W CORTLAND ST ","ELMWOOD PARK","60707","7607 W CORTLAND ST
ELMWOOD PARK, IL 60707
(41.91415394000046, -87.81618908799965)"
"7800011","610","VILLAGE OF RIVER GROVE","YES","2621  THATCHER AVE ","RIVER GROVE","60171","2621 THATCHER AVE
RIVER GROVE, IL 60171
(41.92724104100046, -87.83564808999967)"
"7800012","638","MARGRET J LANGE PARK","YES","6140 N SCOTT ST ","ROSEMONT","60018","6140 N SCOTT ST
ROSEMONT, IL 60018
(41.99030157100049, -87.87588189599967)"
"7800013","674","ELMWOOD SCHOOL","YES","2319 N 76TH AVE ","ELMWOOD PARK","60707","2319 N 76TH AVE
ELMWOOD PARK, IL 60707
(41.92190538400047, -87.81590522399966)"
"7800014","656","ELMWOOD PARK PUBLIC WORKS","YES","7330 W FULLERTON AVE ","ELMWOOD PARK","60707","7330 W FULLERTON AVE
ELMWOOD PARK, IL 60707
(41.923483596000494, -87.81011435099964)"
"7800015","3772","NORTHLAKE COMMUNITY CENTER","YES","316 N LA PORTE AVE ","NORTHLAKE","60164","316 N LA PORTE AVE
NORTHLAKE, IL 60164
(41.91281000200047, -87.90221322799965)"
"7800016","648","PIETRINI ELEMENTARY SCHOOL","YES","9750  FULLERTON AVE ","FRANKLIN PARK","60131","9750 FULLERTON AVE
FRANKLIN PARK, IL 60131
(41.92227419900047, -87.86893108199968)"
"7800017","669","SCHILLER PARK COMMUNITY CENTER","YES","4501  25TH AVE ","SCHILLER PARK","60176","4501 25TH AVE
SCHILLER PARK, IL 60176
(41.96090984900047, -87.87168398299968)"
"7800018","633","EAST LEYDEN HIGH SCHOOL","YES","3400  ROSE ST ","FRANKLIN PARK","60131","3400 ROSE ST
FRANKLIN PARK, IL 60131
(41.94048197000046, -87.86572416199965)"
"7800019","4385","AMERICAN LEGION RECREATION CENTER","YES","8664  GRAND AVE ","RIVER GROVE","60171","8664 GRAND AVE
RIVER GROVE, IL 60171
(41.92974754000045, -87.84252549099966)"
"7800020","620","TRUMBULL PARK","YES","2311  LEYDEN AVE ","RIVER GROVE","60171","2311 LEYDEN AVE
RIVER GROVE, IL 60171
(41.92116811700049, -87.84522058899967)"
"7800021","621","CALVARY DEAF ASSEMBLY-LIGHTHOUSE OF HOPE","NO","1719 W NORTH AVE ","MELROSE PARK","60160","1719 W NORTH AVE
MELROSE PARK, IL 60160
(41.90806451900045, -87.85498226199968)"
"7800022","697","ELM SCHOOL","YES","7607 W CORTLAND ST ","ELMWOOD PARK","60707","7607 W CORTLAND ST
ELMWOOD PARK, IL 60707
(41.91415394000046, -87.81618908799965)"
"7800023","3246","MARY SEAT OF WISDOM","YES","1352 S CUMBERLAND AVE ","PARK RIDGE","60068","1352 S CUMBERLAND AVE
PARK RIDGE, IL 60068
(41.99388646500046, -87.83655728799965)"
"7800024","639","WEST LEYDEN HIGH SCHOOL","YES","1000 N WOLF RD ","NORTHLAKE","60164","1000 N WOLF RD
NORTHLAKE, IL 60164
(41.9265703210005, -87.90402458499966)"
"7800025","698","JOHN F KENNEDY SCHOOL","YES","3945  WEHRMAN AVE ","SCHILLER PARK","60176","3945 WEHRMAN AVE
SCHILLER PARK, IL 60176
(41.949884942000494, -87.87823521299964)"
"7800026","697","ELM SCHOOL","YES","7607 W CORTLAND ST ","ELMWOOD PARK","60707","7607 W CORTLAND ST
ELMWOOD PARK, IL 60707
(41.91415394000046, -87.81618908799965)"
"7800027","627","LINCOLN MIDDLE SCHOOL","YES","9750  SORENG AVE ","SCHILLER PARK","60176","9750 SORENG AVE
SCHILLER PARK, IL 60176
(41.95121600100049, -87.86989078399967)"
"7800028","693","DISTRICT 84 ADMINISTRATION OFFICE","YES","2915  MAPLE ST ","FRANKLIN PARK","60131","2915 MAPLE ST
FRANKLIN PARK, IL 60131
(41.93185978000048, -87.85305410299969)"
"7800029","3835","LEYDEN TOWNSHIP COMMUNITY CENTER","YES","2620  MANNHEIM RD ","FRANKLIN PARK","60131","2620 MANNHEIM RD
FRANKLIN PARK, IL 60131
(41.92623036900045, -87.88454342399967)"
"7800030","637","RHODES ELEMENTARY SCHOOL","YES","8931  FULLERTON AVE ","RIVER GROVE","60171","8931 FULLERTON AVE
RIVER GROVE, IL 60171
(41.92263335100046, -87.84922024799965)"
"7800031","4365","NORTHLAKE PUBLIC LIBRARY","YES","231 N WOLF RD ","NORTHLAKE","60164","231 N WOLF RD
NORTHLAKE, IL 60164
(41.91173161400047, -87.90334407699964)"
"7800032","677","CENTRE AT NORTH PARK","YES","10040 W ADDISON ST ","FRANKLIN PARK","60131","10040 W ADDISON ST
FRANKLIN PARK, IL 60131
(41.93516640500047, -87.87385735399965)"
"7800033","4375","KAHL PARK","YES","255 E PALMER AVE ","NORTHLAKE","60164","255 E PALMER AVE
NORTHLAKE, IL 60164
(41.917654074000495, -87.89551675499968)"
"7800034","4380","ST GERTRUDE CHURCH","YES","9613  SCHILLER BLVD ","FRANKLIN PARK","60131","9613 SCHILLER BLVD
FRANKLIN PARK, IL 60131
(41.9331128770005, -87.86582642699966)"
"7800035","635","GRANT PARK RECREATION CENTER","YES","44 W GOLFVIEW DR ","NORTHLAKE","60164","44 W GOLFVIEW DR
NORTHLAKE, IL 60164
(41.91072535300049, -87.90684187499966)"
"7800036","660","JOHN MILLS GRADE SCHOOL","YES","2824 N 76TH AVE ","ELMWOOD PARK","60707","2824 N 76TH AVE
ELMWOOD PARK, IL 60707
(41.93159925700047, -87.81753710799967)"
"7800037","3081","HANGING GARDENS BANQUET ROOMS","YES","8301  BELMONT AVE ","RIVER GROVE","60171","8301 BELMONT AVE
RIVER GROVE, IL 60171
(41.937603828000476, -87.83304972299965)"
"7800038","2574","ROSEMONT VILLAGE HALL","YES","9501 W DEVON AVE ","ROSEMONT","60018","9501 W DEVON AVE
ROSEMONT, IL 60018
(41.9957133690005, -87.86328960899965)"
"7800039","677","CENTRE AT NORTH PARK","YES","10040 W ADDISON ST ","FRANKLIN PARK","60131","10040 W ADDISON ST
FRANKLIN PARK, IL 60131
(41.93516640500047, -87.87385735399965)"
"7800040","640","WESTDALE PARK","YES","3045  SANDRA AVE ","MELROSE PARK","60164","3045 SANDRA AVE
MELROSE PARK, IL 60164
(41.93388445700049, -87.90729506399964)"
"7800041","680","MANNHEIM MIDDLE SCHOOL","YES","2600  HYDE PARK  ","MELROSE PARK","60164","2600 HYDE PARK
MELROSE PARK, IL 60164
(41.92560200300045, -87.88694893599967)"
"7800042","2881","PENNOYER SCHOOL","YES","5200 N CUMBERLAND AVE ","NORRIDGE","60706","5200 N CUMBERLAND AVE
NORRIDGE, IL 60706
(41.973984009000446, -87.83666214499965)"
"7800043","689","GOUIN PARK","YES","2400  SCOTT ST ","FRANKLIN PARK","60131","2400 SCOTT ST
FRANKLIN PARK, IL 60131
(41.934047517000465, -87.87512026899964)"
"7800044","698","JOHN F KENNEDY SCHOOL","YES","3945  WEHRMAN AVE ","SCHILLER PARK","60176","3945 WEHRMAN AVE
SCHILLER PARK, IL 60176
(41.949884942000494, -87.87823521299964)"
"7800045","683","SCHILLER PARK FIRE STATION","YES","9526  IRVING PARK RD ","SCHILLER PARK","60176","9526 IRVING PARK RD
SCHILLER PARK, IL 60176
(41.954716299000495, -87.86500266199965)"
"7800046","4435","CALVARY CHAPEL","YES","10040  GRAND  ","FRANKLIN PARK","60131","10040 GRAND
FRANKLIN PARK, IL 60131
(41.930067874000486, -87.87677015399964)"
"7800047","3835","LEYDEN TOWNSHIP COMMUNITY CENTER","YES","2620  MANNHEIM RD ","FRANKLIN PARK","60131","2620 MANNHEIM RD
FRANKLIN PARK, IL 60131
(41.92623036900045, -87.88454342399967)"
"7800048","613","SCOTT SCHOOL","YES","2250  SCOTT ST ","MELROSE PARK","60164","2250 SCOTT ST
MELROSE PARK, IL 60164
(41.91969302300049, -87.87456874899965)"
"7800049","652","ST CELESTINE SCHOOL","YES","3017 N 77TH AVE ","ELMWOOD PARK","60707","3017 N 77TH AVE
ELMWOOD PARK, IL 60707
(41.934882108000465, -87.82000414299966)"
"7800050","660","JOHN MILLS GRADE SCHOOL","YES","2824 N 76TH AVE ","ELMWOOD PARK","60707","2824 N 76TH AVE
ELMWOOD PARK, IL 60707
(41.93159925700047, -87.81753710799967)"
"7800051","650","ELMWOOD PARK RECREATION CENTER","YES","2  CONTI PKWY ","ELMWOOD PARK","60707","2 CONTI PKWY
ELMWOOD PARK, IL 60707
(41.927677908000476, -87.81813800799966)"
"7800052","674","ELMWOOD SCHOOL","YES","2319 N 76TH AVE ","ELMWOOD PARK","60707","2319 N 76TH AVE
ELMWOOD PARK, IL 60707
(41.92190538400047, -87.81590522399966)"
"7800053","653","HUNTERS RESTAURANT","YES","7232 W DIVERSEY AVE ","ELMWOOD PARK","60707","7232 W DIVERSEY AVE
ELMWOOD PARK, IL 60707
(41.9308787060005, -87.80789238899968)"
"7800054","650","ELMWOOD PARK RECREATION CENTER","YES","2  CONTI PKWY ","ELMWOOD PARK","60707","2 CONTI PKWY
ELMWOOD PARK, IL 60707
(41.927677908000476, -87.81813800799966)"
"7800055","656","ELMWOOD PARK PUBLIC WORKS","YES","7330 W FULLERTON AVE ","ELMWOOD PARK","60707","7330 W FULLERTON AVE
ELMWOOD PARK, IL 60707
(41.923483596000494, -87.81011435099964)"
"7900001","1855","RIVERSIDE TOWN HALL","YES","27  RIVERSIDE RD ","RIVERSIDE","60546","27 RIVERSIDE RD
RIVERSIDE, IL 60546
(41.8265768760005, -87.81885243399967)"
"7900002","2831","ST BARBARA PARISH CENTER","NO","4015  PRAIRIE AVE ","BROOKFIELD","60513","4015 PRAIRIE AVE
BROOKFIELD, IL 60513
(41.81798841700049, -87.84377510499968)"
"7900003","702","LINCOLN SCHOOL","YES","4300  GROVE AVE ","BROOKFIELD","60513","4300 GROVE AVE
BROOKFIELD, IL 60513
(41.812820581000494, -87.84144864699965)"
"7900004","801","CONGRESS PARK SCHOOL","YES","9311  SHIELDS AVE ","BROOKFIELD","60513","9311 SHIELDS AVE
BROOKFIELD, IL 60513
(41.81262760600049, -87.85384937999964)"
"7900005","2567","HOPE LUTHERAN CHURCH","YES","6455  JOLIET RD ","COUNTRYSIDE","60525","6455 JOLIET RD
COUNTRYSIDE, IL 60525
(41.772106169000494, -87.88266177099968)"
"7900006","801","CONGRESS PARK SCHOOL","YES","9311  SHIELDS AVE ","BROOKFIELD","60513","9311 SHIELDS AVE
BROOKFIELD, IL 60513
(41.81262760600049, -87.85384937999964)"
"7900007","706","LA GRANGE COMMUNITY CENTER","YES","200  WASHINGTON AVE ","LA GRANGE","60525","200 WASHINGTON AVE
LA GRANGE, IL 60525
(41.81430019300046, -87.86105157999964)"
"7900008","785","BRIDGEVIEW COMMUNITY CENTER","YES","7900 S OKETO AVE ","BRIDGEVIEW","60455","7900 S OKETO AVE
BRIDGEVIEW, IL 60455
(41.7476612910005, -87.80457118399966)"
"7900009","2570","FIRST CONGREGATION CHURCH LAGRANGE","YES","100 S 6TH AVE ","LA GRANGE","60525","100 S 6TH AVE
LA GRANGE, IL 60525
(41.8119693590005, -87.86815684799967)"
"7900010","749","SEVENTH AVENUE SCHOOL","YES","701 S 7TH AVE ","LA GRANGE","60525","701 S 7TH AVE
LA GRANGE, IL 60525
(41.80139274700048, -87.86661794799966)"
"7900011","713","EMMANUEL EPISCOPAL CHURCH","YES","203 S KENSINGTON AVE ","LA GRANGE","60525","203 S KENSINGTON AVE
LA GRANGE, IL 60525
(41.81043152100045, -87.87439705799966)"
"7900012","2691","KING BRUWAERT HOUSE","YES","6101 S COUNTY LINE RD ","BURR RIDGE","60527","6101 S COUNTY LINE RD
BURR RIDGE, IL 60527
(41.78018136000048, -87.91662412499966)"
"7900013","3867","VILLAGE OF JUSTICE PUBLIC WORKS BUILDING","YES","8748 W 82ND PL ","JUSTICE","60458","8748 W 82ND PL
JUSTICE, IL 60458
(41.74131801800047, -87.83751160099968)"
"7900014","716","LYONS TOWNSHIP NORTH HIGH SCHOOL","YES","100 S BRAINARD AVE ","LA GRANGE","60525","100 S BRAINARD AVE
LA GRANGE, IL 60525
(41.81209953600046, -87.87949283199964)"
"7900015","716","LYONS TOWNSHIP NORTH HIGH SCHOOL","YES","100 S BRAINARD AVE ","LA GRANGE","60525","100 S BRAINARD AVE
LA GRANGE, IL 60525
(41.81209953600046, -87.87949283199964)"
"7900016","1619","PARK JUNIOR HIGH SCHOOL","YES","325 N PARK RD ","LA GRANGE PARK","60526","325 N PARK RD
LA GRANGE PARK, IL 60526
(41.81998245900047, -87.88103481399969)"
"7900017","4166","CHICAGO MARRIOTT SOUTHWEST","YES","1200  BURR RIDGE PKWY ","BURR RIDGE","60527","1200 BURR RIDGE PKWY
BURR RIDGE, IL 60527
(41.75541775500045, -87.91101354799969)"
"7900018","1619","PARK JUNIOR HIGH SCHOOL","YES","325 N PARK RD ","LA GRANGE PARK","60526","325 N PARK RD
LA GRANGE PARK, IL 60526
(41.81998245900047, -87.88103481399969)"
"7900019","804","MARY ANN DAVIDOWSKI RECREATION HALL","YES","4142  GAGE AVE ","LYONS","60534","4142 GAGE AVE
LYONS, IL 60534
(41.8160372530005, -87.81531487299969)"
"7900020","719","WESTERN SPRINGS BAPTIST CHURCH","YES","4475  WOLF RD ","WESTERN SPRINGS","60558","4475 WOLF RD
WESTERN SPRINGS, IL 60558
(41.808436592000476, -87.89856617899966)"
"7900021","773","FIELD PARK PUBLIC SCHOOL","YES","4335  HOWARD AVE ","WESTERN SPRINGS","60558","4335 HOWARD AVE
WESTERN SPRINGS, IL 60558
(41.81138073000045, -87.89507264199966)"
"7900022","4315","VILLAGE OF LYONS","YES","4200  LAWNDALE AVE ","LYONS","60534","4200 LAWNDALE AVE
LYONS, IL 60534
(41.81513886400046, -87.82574988099964)"
"7900023","748","WILLOW SPRINGS COMMUNITY CENTER","YES","8156  ARCHER AVE ","WILLOW SPRINGS","60480","8156 ARCHER AVE
WILLOW SPRINGS, IL 60480
(41.741858627000454, -87.85882853899966)"
"7900024","723","LAIDLAW SCHOOL","YES","4072  FOREST AVE ","WESTERN SPRINGS","60558","4072 FOREST AVE
WESTERN SPRINGS, IL 60558
(41.81509777100047, -87.90722663699967)"
"7900025","789","IDEAL SCHOOL","YES","9901 W 58TH ST ","COUNTRYSIDE","60525","9901 W 58TH ST
COUNTRYSIDE, IL 60525
(41.784994044000484, -87.86686399099966)"
"7900026","725","HINSDALE ADVENTIST ACADEMY","YES","631 E HICKORY ST ","HINSDALE","60521","631 E HICKORY ST
HINSDALE, IL 60521
(41.80815576500049, -87.91499550899965)"
"7900027","799","KATHERINE LEGGE MEMORIAL PARK","YES","5901 S COUNTY LINE RD ","HINSDALE","60521","5901 S COUNTY LINE RD
HINSDALE, IL 60521
(41.782359905000476, -87.91669601099966)"
"7900028","727","PLEASANTVIEW FIRE DEPARTMENT","YES","1970 W PLAINFIELD RD ","LA GRANGE HIGHLANDS","60525","1970 W PLAINFIELD RD
LA GRANGE HIGHLANDS, IL 60525
(41.78037896400048, -87.89451943799969)"
"7900029","819","VILLAGE OF JUSTICE","YES","7800  ARCHER RD ","JUSTICE","60458","7800 ARCHER RD
JUSTICE, IL 60458
(41.74907551300049, -87.83947540099967)"
"7900030","729","VILLAGE OF MC COOK","YES","5000  GLENCOE AVE ","MC COOK","60525","5000 GLENCOE AVE
MC COOK, IL 60525
(41.8006703370005, -87.83257185699966)"
"7900031","774","VILLAGE OF INDIAN HEAD PARK","YES","201  ACACIA DR ","INDIAN HEAD PARK","60525","201 ACACIA DR
INDIAN HEAD PARK, IL 60525
(41.771548580000456, -87.89472222699965)"
"7900032","731","BEDFORD COMMUNITY BUILDING","YES","6700 S 78TH AVE ","BEDFORD PARK","60501","6700 S 78TH AVE
BEDFORD PARK, IL 60501
(41.770950564000486, -87.81526250499968)"
"7900033","732","E S D A","NO","6839  GARDEN LN ","BRIDGEVIEW","60455","6839 GARDEN LN
BRIDGEVIEW, IL 60455
(41.766615713000476, -87.81906690199969)"
"7900034","4355","STEEPLE HILL CHRISTIAN CHURCH","YES","9000 W 87TH ST ","HICKORY HILLS","60457","9000 W 87TH ST
HICKORY HILLS, IL 60457
(41.73268466000047, -87.84356870799968)"
"7900035","819","VILLAGE OF JUSTICE","YES","7800  ARCHER RD ","JUSTICE","60458","7800 ARCHER RD
JUSTICE, IL 60458
(41.74907551300049, -87.83947540099967)"
"7900036","4166","CHICAGO MARRIOTT SOUTHWEST","YES","1200  BURR RIDGE PKWY ","BURR RIDGE","60527","1200 BURR RIDGE PKWY
BURR RIDGE, IL 60527
(41.75541775500045, -87.91101354799969)"
"7900037","4285","ST JOHNS CHURCH","YES","4500  PRESCOTT AVE ","LYONS","60534","4500 PRESCOTT AVE
LYONS, IL 60534
(41.80959334300047, -87.81928100899967)"
"7900038","817","ST FABIAN CHURCH","YES","7450 W 83RD ST ","BRIDGEVIEW","60455","7450 W 83RD ST
BRIDGEVIEW, IL 60455
(41.74067730000047, -87.80559084099968)"
"7900039","738","FIRST CONGREGATION CHURCH OF WESTERN SPRINGS","YES","1106  CHESTNUT ST ","WESTERN SPRINGS","60558","1106 CHESTNUT ST
WESTERN SPRINGS, IL 60558
(41.8123559550005, -87.90277343399964)"
"7900040","739","WESTERN SPRINGS RECREATION CENTER","YES","1500  WALKER ST ","WESTERN SPRINGS","60558","1500 WALKER ST
WESTERN SPRINGS, IL 60558
(41.808350987000495, -87.90886831299969)"
"7900041","795","TRINITY LUTHERAN CHURCH","YES","11500  GERMAN CHURCH RD ","BURR RIDGE","60527","11500 GERMAN CHURCH RD
BURR RIDGE, IL 60527
(41.73873731500049, -87.90376013499969)"
"7900042","727","PLEASANTVIEW FIRE DEPARTMENT","YES","1970 W PLAINFIELD RD ","LA GRANGE HIGHLANDS","60525","1970 W PLAINFIELD RD
LA GRANGE HIGHLANDS, IL 60525
(41.78037896400048, -87.89451943799969)"
"7900043","742","ST JOHNS LUTHERAN CHURCH","YES","505 S PARK RD ","LA GRANGE","60525","505 S PARK RD
LA GRANGE, IL 60525
(41.80467195800048, -87.88047358799969)"
"7900044","743","FOREST HILLS SCHOOL","YES","5020  CENTRAL AVE ","WESTERN SPRINGS","60558","5020 CENTRAL AVE
WESTERN SPRINGS, IL 60558
(41.79834397500048, -87.90464449299964)"
"7900045","2831","ST BARBARA PARISH CENTER","NO","4015  PRAIRIE AVE ","BROOKFIELD","60513","4015 PRAIRIE AVE
BROOKFIELD, IL 60513
(41.81798841700049, -87.84377510499968)"
"7900046","752","PLEASANT DALE PARK DISTRICT","YES","7425  WOLF RD ","BURR RIDGE","60527","7425 WOLF RD
BURR RIDGE, IL 60527
(41.75473561600046, -87.89636662699968)"
"7900047","766","CORRAL AT LTS HIGH SCHOOL","YES","4900  WILLOW SPRINGS RD ","WESTERN SPRINGS","60558","4900 WILLOW SPRINGS RD
WESTERN SPRINGS, IL 60558
(41.80090486100045, -87.88869211199966)"
"7900048","3777","LYLE SCHOOL","YES","7801 W 75TH ST ","BRIDGEVIEW","60455","7801 W 75TH ST
BRIDGEVIEW, IL 60455
(41.75504529700049, -87.81465026999967)"
"7900049","748","WILLOW SPRINGS COMMUNITY CENTER","YES","8156  ARCHER AVE ","WILLOW SPRINGS","60480","8156 ARCHER AVE
WILLOW SPRINGS, IL 60480
(41.741858627000454, -87.85882853899966)"
"7900050","749","SEVENTH AVENUE SCHOOL","YES","701 S 7TH AVE ","LA GRANGE","60525","701 S 7TH AVE
LA GRANGE, IL 60525
(41.80139274700048, -87.86661794799966)"
"7900051","819","VILLAGE OF JUSTICE","YES","7800  ARCHER RD ","JUSTICE","60458","7800 ARCHER RD
JUSTICE, IL 60458
(41.74907551300049, -87.83947540099967)"
"7900052","800","BRAINARD AVENUE BAPTIST CHURCH","YES","6251 S BRAINARD AVE ","COUNTRYSIDE","60525","6251 S BRAINARD AVE
COUNTRYSIDE, IL 60525
(41.77640751700045, -87.87779152899964)"
"7900053","752","PLEASANT DALE PARK DISTRICT","YES","7425  WOLF RD ","BURR RIDGE","60527","7425 WOLF RD
BURR RIDGE, IL 60527
(41.75473561600046, -87.89636662699968)"
"7900054","777","LAGRANGE HIGHLANDS SCHOOL DISTRICT 106 OFFICE","YES","1750 W PLAINFIELD RD ","LA GRANGE","60525","1750 W PLAINFIELD RD
LA GRANGE, IL 60525
(41.78188601700049, -87.89148735299966)"
"7900055","2686","CHRISTIAN REFORMED CHURCH","YES","5140  WOLF RD ","WESTERN SPRINGS","60558","5140 WOLF RD
WESTERN SPRINGS, IL 60558
(41.7957993870005, -87.89805740799966)"
"7900056","755","WALSH SCHOOL","YES","5640 S 75TH AVE ","SUMMIT","60501","5640 S 75TH AVE
SUMMIT, IL 60501
(41.78875675000046, -87.80865868799964)"
"7900057","756","SUMMIT MUNICIPAL CENTER","YES","7321 W 59TH ST ","SUMMIT","60501","7321 W 59TH ST
SUMMIT, IL 60501
(41.78451083500045, -87.80415698499968)"
"7900058","778","GEORGE T WILKINS JUNIOR HIGH SCHOOL","YES","8001 S 82ND AVE ","JUSTICE","60458","8001 S 82ND AVE
JUSTICE, IL 60458
(41.74567463800048, -87.82386942899967)"
"7900059","4315","VILLAGE OF LYONS","YES","4200  LAWNDALE AVE ","LYONS","60534","4200 LAWNDALE AVE
LYONS, IL 60534
(41.81513886400046, -87.82574988099964)"
"7900060","763","ARGO COMMUNITY HIGH SCHOOL","YES","7329 W 63RD ST ","SUMMIT","60501","7329 W 63RD ST
SUMMIT, IL 60501
(41.77719985300047, -87.80409377099966)"
"7900061","791","THE ACACIA ASSOCIATION","YES","111  CASCADE DR ","INDIAN HEAD PARK","60525","111 CASCADE DR
INDIAN HEAD PARK, IL 60525
(41.7726914480005, -87.89173972599968)"
"7900062","4166","CHICAGO MARRIOTT SOUTHWEST","YES","1200  BURR RIDGE PKWY ","BURR RIDGE","60527","1200 BURR RIDGE PKWY
BURR RIDGE, IL 60527
(41.75541775500045, -87.91101354799969)"
"7900063","795","TRINITY LUTHERAN CHURCH","YES","11500  GERMAN CHURCH RD ","BURR RIDGE","60527","11500 GERMAN CHURCH RD
BURR RIDGE, IL 60527
(41.73873731500049, -87.90376013499969)"
"7900064","4285","ST JOHNS CHURCH","YES","4500  PRESCOTT AVE ","LYONS","60534","4500 PRESCOTT AVE
LYONS, IL 60534
(41.80959334300047, -87.81928100899967)"
"7900065","784","VILLAGE OF BRIDGEVIEW","YES","7500 S OKETO AVE ","BRIDGEVIEW","60455","7500 S OKETO AVE
BRIDGEVIEW, IL 60455
(41.7550127450005, -87.80484271399968)"
"7900066","702","LINCOLN SCHOOL","YES","4300  GROVE AVE ","BROOKFIELD","60513","4300 GROVE AVE
BROOKFIELD, IL 60513
(41.812820581000494, -87.84144864699965)"
"7900067","790","BROOKFIELD FIRE DEPARTMENT","YES","9001  SHIELDS AVE ","BROOKFIELD","60513","9001 SHIELDS AVE
BROOKFIELD, IL 60513
(41.81279322500046, -87.84642739299966)"
"7900068","789","IDEAL SCHOOL","YES","9901 W 58TH ST ","COUNTRYSIDE","60525","9901 W 58TH ST
COUNTRYSIDE, IL 60525
(41.784994044000484, -87.86686399099966)"
"7900069","779","ST JAMES LUTHERAN CHURCH","YES","5129  WOLF RD ","WESTERN SPRINGS","60558","5129 WOLF RD
WESTERN SPRINGS, IL 60558
(41.79661183100046, -87.89801303599967)"
"7900070","4210","WILLOW HILL APARTMENTS","YES","8712 S 87TH TER ","JUSTICE","60458","8712 S 87TH TER
JUSTICE, IL 60458
(41.73540205500046, -87.83642058199968)"
"7900071","770","STERLING ESTATES CLUBHOUSE","YES","9300 W 79TH ST ","JUSTICE","60458","9300 W 79TH ST
JUSTICE, IL 60458
(41.74726561300048, -87.85017472799967)"
"7900072","771","SPRING AVENUE SCHOOL","YES","1001 S SPRING AVE ","LA GRANGE","60525","1001 S SPRING AVE
LA GRANGE, IL 60525
(41.79573460200049, -87.87496464299966)"
"7900073","796","WILSHIRE GREEN ASSOCIATION","YES","115  ACACIA DR ","INDIAN HEAD PARK","60525","115 ACACIA DR
INDIAN HEAD PARK, IL 60525
(41.771409039000446, -87.89296201899964)"
"7900074","776","ROBERTS PARK FIRE DEPARTMENT","YES","8611 S ROBERTS RD ","JUSTICE","60458","8611 S ROBERTS RD
JUSTICE, IL 60458
(41.734695168000485, -87.81856349699967)"
"7900075","785","BRIDGEVIEW COMMUNITY CENTER","YES","7900 S OKETO AVE ","BRIDGEVIEW","60455","7900 S OKETO AVE
BRIDGEVIEW, IL 60455
(41.7476612910005, -87.80457118399966)"
"7900076","792","VILLAGE OF HODGKINS","YES","8990  LYONS ST ","HODGKINS","60525","8990 LYONS ST
HODGKINS, IL 60525
(41.77191258500045, -87.85609015299968)"
"7900077","776","ROBERTS PARK FIRE DEPARTMENT","YES","8611 S ROBERTS RD ","JUSTICE","60458","8611 S ROBERTS RD
JUSTICE, IL 60458
(41.734695168000485, -87.81856349699967)"
"7900078","2567","HOPE LUTHERAN CHURCH","YES","6455  JOLIET RD ","COUNTRYSIDE","60525","6455 JOLIET RD
COUNTRYSIDE, IL 60525
(41.772106169000494, -87.88266177099968)"
"8000001","3668","GEMINI JUNIOR HIGH SCHOOL","YES","8955 N GREENWOOD AVE ","NILES","60714","8955 N GREENWOOD AVE
NILES, IL 60714
(42.04278280200049, -87.84047346999967)"
"8000002","821","COURTLAND SQUARE CONDOMINIUMS","YES","8909  DAVID PL ","DES PLAINES","60016","8909 DAVID PL
DES PLAINES, IL 60016
(42.0561004970005, -87.84717732199965)"
"8000003","3181","RIVER RAND BOWL","YES","191 S DES PLAINES RIVER RD ","DES PLAINES","60016","191 S DES PLAINES RIVER RD
DES PLAINES, IL 60016
(42.04969874700049, -87.88644280999966)"
"8000004","933","CHIPPEWA SCHOOL","YES","123  8TH AVE ","DES PLAINES","60016","123 8TH AVE
DES PLAINES, IL 60016
(42.05429825700048, -87.90896799399968)"
"8000005","961","TERRACE SQUARE CONDOMINIUMS","YES","9743 N DEE RD ","NILES","60714","9743 N DEE RD
NILES, IL 60714
(42.05626293300048, -87.85492041099968)"
"8000006","825","WEST PARK FIELDHOUSE","YES","651 S WOLF RD ","DES PLAINES","60018","651 S WOLF RD
DES PLAINES, IL 60018
(42.04086349000045, -87.91004058499965)"
"8000007","3341","LEE MANOR HEALTH CARE","YES","1301  LEE ST ","DES PLAINES","60018","1301 LEE ST
DES PLAINES, IL 60018
(42.02930007900045, -87.8943735639997)"
"8000008","3722","OAKTON ARMS","YES","1665  OAKTON PL ","DES PLAINES","60018","1665 OAKTON PL
DES PLAINES, IL 60018
(42.02203033300049, -87.89786382599965)"
"8000009","2580","CIVIC CENTER","YES","1420  MINER ST ","DES PLAINES","60016","1420 MINER ST
DES PLAINES, IL 60016
(42.04211108800047, -87.88864604499969)"
"8000010","830","FIRST CONGREGATIONAL CHURCH","YES","766  GRACELAND AVE ","DES PLAINES","60016","766 GRACELAND AVE
DES PLAINES, IL 60016
(42.03895813800045, -87.89185631499964)"
"8000011","3342","THE HERITAGE","YES","800 S DES PLAINES RIVER RD ","DES PLAINES","60016","800 S DES PLAINES RIVER RD
DES PLAINES, IL 60016
(42.03891362100046, -87.88328278499966)"
"8000012","831","CENTRAL SCHOOL","YES","1526  THACKER ST ","DES PLAINES","60016","1526 THACKER ST
DES PLAINES, IL 60016
(42.037346726000465, -87.88628088899969)"
"8000013","832","ST JOHN THE BAPTIST GREEK ORTHODOX CHURCH","YES","2350 E DEMPSTER ST ","DES PLAINES","60016","2350 E DEMPSTER ST
DES PLAINES, IL 60016
(42.039164737000476, -87.86514293899967)"
"8000014","3486","CHRIST CHURCH","YES","1492  HENRY AVE ","DES PLAINES","60016","1492 HENRY AVE
DES PLAINES, IL 60016
(42.03333856400047, -87.88689316099965)"
"8000015","926","ST MARY'S KNANAYA CATHOLIC CHURCH","YES","7800  LYONS ST ","MORTON GROVE","60053","7800 LYONS ST
MORTON GROVE, IL 60053
(42.04953760500047, -87.82112070399967)"
"8000016","3486","CHRIST CHURCH","YES","1492  HENRY AVE ","DES PLAINES","60016","1492 HENRY AVE
DES PLAINES, IL 60016
(42.03333856400047, -87.88689316099965)"
"8000017","854","SOUTH SCHOOL","YES","1535  EVERETT AVE ","DES PLAINES","60016","1535 EVERETT AVE
DES PLAINES, IL 60016
(42.020508374000485, -87.88608159499967)"
"8000018","854","SOUTH SCHOOL","YES","1535  EVERETT AVE ","DES PLAINES","60016","1535 EVERETT AVE
DES PLAINES, IL 60016
(42.020508374000485, -87.88608159499967)"
"8000019","933","CHIPPEWA SCHOOL","YES","123  8TH AVE ","DES PLAINES","60016","123 8TH AVE
DES PLAINES, IL 60016
(42.05429825700048, -87.90896799399968)"
"8000020","3186","PARK RIDGE PRESBYTERIAN CHURCH","YES","1300 W CRESCENT AVE ","PARK RIDGE","60068","1300 W CRESCENT AVE
PARK RIDGE, IL 60068
(41.995040437000455, -87.82995755299964)"
"8000021","870","GEORGE WASHINGTON SCHOOL","YES","1500  STEWART AVE ","PARK RIDGE","60068","1500 STEWART AVE
PARK RIDGE, IL 60068
(42.00531606800047, -87.84569034299966)"
"8000022","841","LINCOLN MIDDLE SCHOOL","YES","200 S LINCOLN AVE ","PARK RIDGE","60068","200 S LINCOLN AVE
PARK RIDGE, IL 60068
(42.00848104500045, -87.84316930399967)"
"8000023","961","TERRACE SQUARE CONDOMINIUMS","YES","9743 N DEE RD ","NILES","60714","9743 N DEE RD
NILES, IL 60714
(42.05626293300048, -87.85492041099968)"
"8000024","873","ROOSEVELT SCHOOL","YES","1001 S FAIRVIEW AVE ","PARK RIDGE","60068","1001 S FAIRVIEW AVE
PARK RIDGE, IL 60068
(41.998714803000496, -87.83429142399967)"
"8000025","845","PARK RIDGE CITY HALL","YES","505  BUTLER PL ","PARK RIDGE","60068","505 BUTLER PL
PARK RIDGE, IL 60068
(42.00858825600045, -87.83037587899969)"
"8000026","833","HENRICH HOUSE","YES","1301  ASHLAND AVE ","DES PLAINES","60016","1301 ASHLAND AVE
DES PLAINES, IL 60016
(42.03619897800047, -87.89183422899964)"
"8000027","845","PARK RIDGE CITY HALL","YES","505  BUTLER PL ","PARK RIDGE","60068","505 BUTLER PL
PARK RIDGE, IL 60068
(42.00858825600045, -87.83037587899969)"
"8000028","964","FELDMAN RECREATION CENTER","YES","8800 W KATHY LN ","NILES","60714","8800 W KATHY LN
NILES, IL 60714
(42.05168607100046, -87.84542028599964)"
"8000029","968","ST ANDREWS LUTHERAN CHURCH AND SCHOOL","YES","260 N NORTHWEST HWY ","PARK RIDGE","60068","260 N NORTHWEST HWY
PARK RIDGE, IL 60068
(42.01423495000046, -87.83428286799966)"
"8000030","2581","FIELD SCHOOL","YES","707  WISNER ST ","PARK RIDGE","60068","707 WISNER ST
PARK RIDGE, IL 60068
(42.02017506100049, -87.82460347899968)"
"8000031","2585","WASHINGTON SCHOOL","YES","2710  GOLF RD ","GLENVIEW","60025","2710 GOLF RD
GLENVIEW, IL 60025
(42.054950128000485, -87.82370812799968)"
"8000032","841","LINCOLN MIDDLE SCHOOL","YES","200 S LINCOLN AVE ","PARK RIDGE","60068","200 S LINCOLN AVE
PARK RIDGE, IL 60068
(42.00848104500045, -87.84316930399967)"
"8000033","964","FELDMAN RECREATION CENTER","YES","8800 W KATHY LN ","NILES","60714","8800 W KATHY LN
NILES, IL 60714
(42.05168607100046, -87.84542028599964)"
"8000034","2580","CIVIC CENTER","YES","1420  MINER ST ","DES PLAINES","60016","1420 MINER ST
DES PLAINES, IL 60016
(42.04211108800047, -87.88864604499969)"
"8000035","4530","PRAIRIE LAKES COMMUNITY CENTER","YES","515 E THACKER ST ","DES PLAINES","60016","515 E THACKER ST
DES PLAINES, IL 60016
(42.03785241300045, -87.91184794899965)"
"8000036","951","GEORGE B CARPENTER ELEMENTARY SCHOOL","YES","300 N HAMLIN AVE ","PARK RIDGE","60068","300 N HAMLIN AVE
PARK RIDGE, IL 60068
(42.01433086700047, -87.85041451599966)"
"8000037","856","MAINE SOUTH HIGH SCHOOL","YES","1111 S DEE RD ","PARK RIDGE","60068","1111 S DEE RD
PARK RIDGE, IL 60068
(42.028339076000464, -87.85513375899967)"
"8000038","857","TERRACE SCHOOL","YES","735 S WESTGATE RD ","DES PLAINES","60016","735 S WESTGATE RD
DES PLAINES, IL 60016
(42.0388727830005, -87.91855878599966)"
"8000039","858","OAKTON MANOR FIELDHOUSE","YES","8100 N OZARK AVE ","NILES","60714","8100 N OZARK AVE
NILES, IL 60714
(42.02795925100048, -87.81992557999968)"
"8000040","926","ST MARY'S KNANAYA CATHOLIC CHURCH","YES","7800  LYONS ST ","MORTON GROVE","60053","7800 LYONS ST
MORTON GROVE, IL 60053
(42.04953760500047, -87.82112070399967)"
"8000041","947","ORCHARD PLACE SCHOOL","YES","2727  MAPLE ST ","DES PLAINES","60016","2727 MAPLE ST
DES PLAINES, IL 60016
(42.00411078600047, -87.87958254099965)"
"8000042","963","REDEEMER LUTHERAN CHURCH","YES","1006  GILLICK ST ","PARK RIDGE","60068","1006 GILLICK ST
PARK RIDGE, IL 60068
(42.0010249820005, -87.83774829399965)"
"8000043","2581","FIELD SCHOOL","YES","707  WISNER ST ","PARK RIDGE","60068","707 WISNER ST
PARK RIDGE, IL 60068
(42.02017506100049, -87.82460347899968)"
"8000044","4480","JOHNS PARK","YES","2101  CENTRAL RD ","GLENVIEW","60025","2101 CENTRAL RD
GLENVIEW, IL 60025
(42.065591837000454, -87.81119976599967)"
"8000045","832","ST JOHN THE BAPTIST GREEK ORTHODOX CHURCH","YES","2350 E DEMPSTER ST ","DES PLAINES","60016","2350 E DEMPSTER ST
DES PLAINES, IL 60016
(42.039164737000476, -87.86514293899967)"
"8000046","3251","EMERSON SCHOOL","YES","8101 N CUMBERLAND AVE ","NILES","60714","8101 N CUMBERLAND AVE
NILES, IL 60714
(42.02769737000045, -87.83573209099967)"
"8000047","866","LEISURE CENTER","YES","2222  BIRCH ST ","DES PLAINES","60018","2222 BIRCH ST
DES PLAINES, IL 60018
(42.01183919300047, -87.87767497299967)"
"8000048","4425","BRIDGE COMMUNITY CHURCH","YES","946 E THACKER ST ","DES PLAINES","60016","946 E THACKER ST
DES PLAINES, IL 60016
(42.03832820700046, -87.90075144299965)"
"8000049","947","ORCHARD PLACE SCHOOL","YES","2727  MAPLE ST ","DES PLAINES","60016","2727 MAPLE ST
DES PLAINES, IL 60016
(42.00411078600047, -87.87958254099965)"
"8000050","839","PUBLIC WORKS SERVICE CENTER","YES","400  BUSSE HWY ","PARK RIDGE","60068","400 BUSSE HWY
PARK RIDGE, IL 60068
(42.01539345000049, -87.83979291899965)"
"8000051","870","GEORGE WASHINGTON SCHOOL","YES","1500  STEWART AVE ","PARK RIDGE","60068","1500 STEWART AVE
PARK RIDGE, IL 60068
(42.00531606800047, -87.84569034299966)"
"8000052","871","MANOR PARK FIELDHOUSE","YES","200  LINCOLN ST ","GLENVIEW","60026","200 LINCOLN ST
GLENVIEW, IL 60026
(42.05888385700047, -87.80843471699967)"
"8000053","917","ARNDT PARK FIELDHOUSE","YES","1990  WHITE ST ","DES PLAINES","60018","1990 WHITE ST
DES PLAINES, IL 60018
(42.01716895600049, -87.88445732699967)"
"8000054","873","ROOSEVELT SCHOOL","YES","1001 S FAIRVIEW AVE ","PARK RIDGE","60068","1001 S FAIRVIEW AVE
PARK RIDGE, IL 60068
(41.998714803000496, -87.83429142399967)"
"8000055","943","GRENNAN HEIGHTS PARK","YES","8255 N OKETO AVE ","NILES","60714","8255 N OKETO AVE
NILES, IL 60714
(42.03072488200047, -87.81124528999965)"
"8000056","954","LAKE PARK FIELDHOUSE","YES","1175  HOWARD AVE ","DES PLAINES","60018","1175 HOWARD AVE
DES PLAINES, IL 60018
(42.01656947700047, -87.89592960399966)"
"8000057","964","FELDMAN RECREATION CENTER","YES","8800 W KATHY LN ","NILES","60714","8800 W KATHY LN
NILES, IL 60714
(42.05168607100046, -87.84542028599964)"
"8000058","970","JEFFERSON SCHOOL","YES","8200  GREENDALE AVE ","NILES","60714","8200 GREENDALE AVE
NILES, IL 60714
(42.02692782200046, -87.83127332899966)"
"8000059","4342","OASIS FUN CENTER","YES","7877 N MILWAUKEE AVE ","NILES","60714","7877 N MILWAUKEE AVE
NILES, IL 60714
(42.02403454200049, -87.81212526999968)"
"8000060","941","BENJAMIN FRANKLIN SCHOOL","YES","2401  MANOR LN ","PARK RIDGE","60068","2401 MANOR LN
PARK RIDGE, IL 60068
(42.03215843400045, -87.85730011099969)"
"8000061","880","TRINITY LUTHERAN CHURCH","YES","675 E ALGONQUIN RD ","DES PLAINES","60016","675 E ALGONQUIN RD
DES PLAINES, IL 60016
(42.030730666000466, -87.90722710799969)"
"8000062","926","ST MARY'S KNANAYA CATHOLIC CHURCH","YES","7800  LYONS ST ","MORTON GROVE","60053","7800 LYONS ST
MORTON GROVE, IL 60053
(42.04953760500047, -87.82112070399967)"
"8000063","903","EMMA MELZER SCHOOL","YES","9400  ORIOLE AVE ","MORTON GROVE","60053","9400 ORIOLE AVE
MORTON GROVE, IL 60053
(42.05213274100049, -87.81585979199969)"
"8000064","936","UNITY NORTHWEST CHURCH","YES","259 E CENTRAL RD ","DES PLAINES","60016","259 E CENTRAL RD
DES PLAINES, IL 60016
(42.066143138000484, -87.91744109299964)"
"8000065","847","OAKTON RINK","YES","2800  OAKTON ST ","PARK RIDGE","60068","2800 OAKTON ST
PARK RIDGE, IL 60068
(42.0247803420005, -87.86181082699966)"
"8000066","885","ROSEMONT SENIOR RECREATION BUILDING","YES","6336  KIRSCHOFF ST ","ROSEMONT","60018","6336 KIRSCHOFF ST
ROSEMONT, IL 60018
(41.9940268360005, -87.87825553099964)"
"8000067","892","MAINE PARK LEISURE CENTER","YES","2701 W SIBLEY ST ","PARK RIDGE","60068","2701 W SIBLEY ST
PARK RIDGE, IL 60068
(42.01754019100048, -87.86020856999966)"
"8000068","945","MAINE WEST HIGH SCHOOL","YES","1755 S WOLF RD ","DES PLAINES","60018","1755 S WOLF RD
DES PLAINES, IL 60018
(42.020775321000485, -87.90895309799964)"
"8000069","922","RUGEN PARK FIELDHOUSE","YES","2941  HARRISON ST ","GLENVIEW","60025","2941 HARRISON ST
GLENVIEW, IL 60025
(42.06200575300045, -87.83102845799965)"
"8000070","3668","GEMINI JUNIOR HIGH SCHOOL","YES","8955 N GREENWOOD AVE ","NILES","60714","8955 N GREENWOOD AVE
NILES, IL 60714
(42.04278280200049, -87.84047346999967)"
"8000071","956","OKETO PARK FIELDHOUSE","YES","8950  OKETO AVE ","MORTON GROVE","60053","8950 OKETO AVE
MORTON GROVE, IL 60053
(42.0431853770005, -87.81062193299965)"
"8000072","970","JEFFERSON SCHOOL","YES","8200  GREENDALE AVE ","NILES","60714","8200 GREENDALE AVE
NILES, IL 60714
(42.02692782200046, -87.83127332899966)"
"8000073","3668","GEMINI JUNIOR HIGH SCHOOL","YES","8955 N GREENWOOD AVE ","NILES","60714","8955 N GREENWOOD AVE
NILES, IL 60714
(42.04278280200049, -87.84047346999967)"
"8000074","2585","WASHINGTON SCHOOL","YES","2710  GOLF RD ","GLENVIEW","60025","2710 GOLF RD
GLENVIEW, IL 60025
(42.054950128000485, -87.82370812799968)"
"8000075","943","GRENNAN HEIGHTS PARK","YES","8255 N OKETO AVE ","NILES","60714","8255 N OKETO AVE
NILES, IL 60714
(42.03072488200047, -87.81124528999965)"
"8000076","895","SPRINGMAN JUNIOR HIGH SCHOOL","YES","2701  CENTRAL RD ","GLENVIEW","60025","2701 CENTRAL RD
GLENVIEW, IL 60025
(42.06567670400045, -87.82532462699965)"
"8000077","936","UNITY NORTHWEST CHURCH","YES","259 E CENTRAL RD ","DES PLAINES","60016","259 E CENTRAL RD
DES PLAINES, IL 60016
(42.066143138000484, -87.91744109299964)"
"8000078","925","THE PARK AT GOLF MILL","YES","8975 W GOLF RD ","NILES","60714","8975 W GOLF RD
NILES, IL 60714
(42.0542631130005, -87.85000840899966)"
"8000079","3722","OAKTON ARMS","YES","1665  OAKTON PL ","DES PLAINES","60018","1665 OAKTON PL
DES PLAINES, IL 60018
(42.02203033300049, -87.89786382599965)"
"8000080","938","BRISTOL COURT CONDOMINIUMS","YES","400  THAMES PKY ","PARK RIDGE","60068","400 THAMES PKY
PARK RIDGE, IL 60068
(42.006210947000454, -87.85884577999968)"
"8000081","964","FELDMAN RECREATION CENTER","YES","8800 W KATHY LN ","NILES","60714","8800 W KATHY LN
NILES, IL 60714
(42.05168607100046, -87.84542028599964)"
"8000082","941","BENJAMIN FRANKLIN SCHOOL","YES","2401  MANOR LN ","PARK RIDGE","60068","2401 MANOR LN
PARK RIDGE, IL 60068
(42.03215843400045, -87.85730011099969)"
"8000083","922","RUGEN PARK FIELDHOUSE","YES","2941  HARRISON ST ","GLENVIEW","60025","2941 HARRISON ST
GLENVIEW, IL 60025
(42.06200575300045, -87.83102845799965)"
"8000084","2585","WASHINGTON SCHOOL","YES","2710  GOLF RD ","GLENVIEW","60025","2710 GOLF RD
GLENVIEW, IL 60025
(42.054950128000485, -87.82370812799968)"
"8000085","957","MESSIAH LUTHERAN CHURCH","YES","1605  VERNON AVE ","PARK RIDGE","60068","1605 VERNON AVE
PARK RIDGE, IL 60068
(42.0367587070005, -87.85139982999965)"
"8000086","959","APOLLO SCHOOL","YES","10100  DEE RD ","DES PLAINES","60016","10100 DEE RD
DES PLAINES, IL 60016
(42.063620168000455, -87.85670009399968)"
"8000087","856","MAINE SOUTH HIGH SCHOOL","YES","1111 S DEE RD ","PARK RIDGE","60068","1111 S DEE RD
PARK RIDGE, IL 60068
(42.028339076000464, -87.85513375899967)"
"8000088","970","JEFFERSON SCHOOL","YES","8200  GREENDALE AVE ","NILES","60714","8200 GREENDALE AVE
NILES, IL 60714
(42.02692782200046, -87.83127332899966)"
"8000089","958","BALLARD POINT CONDOMINIUMS","YES","8888 E POINT DR ","DES PLAINES","60016","8888 E POINT DR
DES PLAINES, IL 60016
(42.04192231200045, -87.84343594699965)"
"8000090","3346","NELSON SCHOOL","YES","8901 N OZANAM AVE ","NILES","60714","8901 N OZANAM AVE
NILES, IL 60714
(42.04203046000049, -87.82092543599964)"
"8000091","967","RESURRECTION NURSING PAVILION","YES","1001 N GREENWOOD AVE ","PARK RIDGE","60068","1001 N GREENWOOD AVE
PARK RIDGE, IL 60068
(41.99877037300047, -87.84076365199968)"
"8000092","935","BAY COLONY CONDOMINIUMS","YES","9501  BAY COLONY DR ","DES PLAINES","60016","9501 BAY COLONY DR
DES PLAINES, IL 60016
(42.0501679030005, -87.86728111299965)"
"8000093","967","RESURRECTION NURSING PAVILION","YES","1001 N GREENWOOD AVE ","PARK RIDGE","60068","1001 N GREENWOOD AVE
PARK RIDGE, IL 60068
(41.99877037300047, -87.84076365199968)"
"8000094","919","LADENDORF PARK","YES","2541  HARRISON ST ","GLENVIEW","60026","2541 HARRISON ST
GLENVIEW, IL 60026
(42.06173851300048, -87.82094653799965)"
"8000095","956","OKETO PARK FIELDHOUSE","YES","8950  OKETO AVE ","MORTON GROVE","60053","8950 OKETO AVE
MORTON GROVE, IL 60053
(42.0431853770005, -87.81062193299965)"
"8000096","3668","GEMINI JUNIOR HIGH SCHOOL","YES","8955 N GREENWOOD AVE ","NILES","60714","8955 N GREENWOOD AVE
NILES, IL 60714
(42.04278280200049, -87.84047346999967)"
"8000097","959","APOLLO SCHOOL","YES","10100  DEE RD ","DES PLAINES","60016","10100 DEE RD
DES PLAINES, IL 60016
(42.063620168000455, -87.85670009399968)"
"8000098","944","HUNTINGTON APARTMENTS","YES","9201 N MARYLAND ST ","NILES","60714","9201 N MARYLAND ST
NILES, IL 60714
(42.048161603000494, -87.83260205499965)"
"8100001","971","AM SHALOM SYNAGOGUE","YES","840  VERNON AVE ","GLENCOE","60022","840 VERNON AVE
GLENCOE, IL 60022
(42.13819877600048, -87.76317590899964)"
"8100002","971","AM SHALOM SYNAGOGUE","YES","840  VERNON AVE ","GLENCOE","60022","840 VERNON AVE
GLENCOE, IL 60022
(42.13819877600048, -87.76317590899964)"
"8100003","1035","HIGHCREST SCHOOL","YES","569  HUNTER RD ","WILMETTE","60091","569 HUNTER RD
WILMETTE, IL 60091
(42.07374128400045, -87.73235697899969)"
"8100004","971","AM SHALOM SYNAGOGUE","YES","840  VERNON AVE ","GLENCOE","60022","840 VERNON AVE
GLENCOE, IL 60022
(42.13819877600048, -87.76317590899964)"
"8100005","1016","CENTRAL SCHOOL","YES","  GROVE AND SOUTH STS  ","GLENCOE","60022","GROVE AND SOUTH STS
GLENCOE, IL 60022
(42.13035416300045, -87.76075985999967)"
"8100006","3596","WATTS CENTER","YES","305  RANDOLPH ST ","GLENCOE","60022","305 RANDOLPH ST
GLENCOE, IL 60022
(42.12396169600049, -87.75363931899966)"
"8100007","3596","WATTS CENTER","YES","305  RANDOLPH ST ","GLENCOE","60022","305 RANDOLPH ST
GLENCOE, IL 60022
(42.12396169600049, -87.75363931899966)"
"8100008","978","SACRED HEART CENTER","YES","1090  GAGE ST ","WINNETKA","60093","1090 GAGE ST
WINNETKA, IL 60093
(42.11685511200045, -87.74461187699967)"
"8100009","1043","WINNETKA COMMUNITY HOUSE","YES","620  LINCOLN AVE ","WINNETKA","60093","620 LINCOLN AVE
WINNETKA, IL 60093
(42.10837029200047, -87.73260563499969)"
"8100010","978","SACRED HEART CENTER","YES","1090  GAGE ST ","WINNETKA","60093","1090 GAGE ST
WINNETKA, IL 60093
(42.11685511200045, -87.74461187699967)"
"8100011","981","AC NIELSEN TENNIS SHACK","YES","530  HIBBARD RD ","WINNETKA","60093","530 HIBBARD RD
WINNETKA, IL 60093
(42.10607022200048, -87.75148261999965)"
"8100012","1041","WINNETKA PRESBYTERIAN CHURCH","YES","1255  WILLOW RD ","WINNETKA","60093","1255 WILLOW RD
WINNETKA, IL 60093
(42.10123359200048, -87.75091503099969)"
"8100013","1038","BETH HILLEL CONGREGATION","YES","3220  BIG TREE LN ","WILMETTE","60091","3220 BIG TREE LN
WILMETTE, IL 60091
(42.068917832000466, -87.75450037799965)"
"8100014","2696","WINNETKA POLICE DEPARTMENT","YES","410  GREENBAY RD ","WINNETKA","60093","410 GREENBAY RD
WINNETKA, IL 60093
(42.10235036200049, -87.73080218699965)"
"8100015","1021","MARIE MURPHY SCHOOL","YES","2921  ILLINOIS RD ","WILMETTE","60091","2921 ILLINOIS RD
WILMETTE, IL 60091
(42.08514251100047, -87.74843163599968)"
"8100016","987","NEW TRIER HIGH SCHOOL","YES","385  WINNETKA AVE ","WINNETKA","60093","385 WINNETKA AVE
WINNETKA, IL 60093
(42.09358407400049, -87.71905491399968)"
"8100017","1039","WILMETTE JUNIOR HIGH","YES","620  LOCUST RD ","WILMETTE","60091","620 LOCUST RD
WILMETTE, IL 60091
(42.07449519700049, -87.74202715399969)"
"8100018","1045","CENTRAL SCHOOL","YES","  9TH & CENTRAL  ","WILMETTE","60091","9TH & CENTRAL
WILMETTE, IL 60091
(42.0768570350005, -87.72260771299966)"
"8100019","1041","WINNETKA PRESBYTERIAN CHURCH","YES","1255  WILLOW RD ","WINNETKA","60093","1255 WILLOW RD
WINNETKA, IL 60093
(42.10123359200048, -87.75091503099969)"
"8100020","2576","NORTHFIELD FIRE STATION","YES","1800  WINNETKA RD ","NORTHFIELD","60093","1800 WINNETKA RD
NORTHFIELD, IL 60093
(42.09411116700045, -87.77000692199965)"
"8100021","1047","MATHER PLACE OF WILMETTE","YES","2801  OLD GLENVIEW RD ","WILMETTE","60091","2801 OLD GLENVIEW RD
WILMETTE, IL 60091
(42.066215927000485, -87.74534870999969)"
"8100022","4515","THE KENILWORTH CLUB/ASSEMBLY HALL","YES","410  KENILWORTH AVE ","KENILWORTH","60043","410 KENILWORTH AVE
KENILWORTH, IL 60043
(42.08680149300045, -87.71576977799964)"
"8100023","4515","THE KENILWORTH CLUB/ASSEMBLY HALL","YES","410  KENILWORTH AVE ","KENILWORTH","60043","410 KENILWORTH AVE
KENILWORTH, IL 60043
(42.08680149300045, -87.71576977799964)"
"8100024","1038","BETH HILLEL CONGREGATION","YES","3220  BIG TREE LN ","WILMETTE","60091","3220 BIG TREE LN
WILMETTE, IL 60091
(42.068917832000466, -87.75450037799965)"
"8100025","4091","MALLINCKRODT COMMUNITY CENTER","YES","1041A  RIDGE RD ","WILMETTE","60091","1041A RIDGE RD
WILMETTE, IL 60091
(42.0808240070005, -87.72254353399967)"
"8100026","1035","HIGHCREST SCHOOL","YES","569  HUNTER RD ","WILMETTE","60091","569 HUNTER RD
WILMETTE, IL 60091
(42.07374128400045, -87.73235697899969)"
"8100027","1046","ST JOSEPH CHURCH","YES","1747  LAKE AVE ","WILMETTE","60091","1747 LAKE AVE
WILMETTE, IL 60091
(42.079032258000495, -87.72072711299967)"
"8100028","1035","HIGHCREST SCHOOL","YES","569  HUNTER RD ","WILMETTE","60091","569 HUNTER RD
WILMETTE, IL 60091
(42.07374128400045, -87.73235697899969)"
"8100029","971","AM SHALOM SYNAGOGUE","YES","840  VERNON AVE ","GLENCOE","60022","840 VERNON AVE
GLENCOE, IL 60022
(42.13819877600048, -87.76317590899964)"
"8100030","1000","COMMUNITY CHURCH OF WILMETTE","YES","1020  FOREST AVE ","WILMETTE","60091","1020 FOREST AVE
WILMETTE, IL 60091
(42.08022044800049, -87.70406437399964)"
"8100031","1037","ST AUGUSTINE CHURCH","YES","1140  WILMETTE AVE ","WILMETTE","60091","1140 WILMETTE AVE
WILMETTE, IL 60091
(42.07783190600048, -87.70591826699967)"
"8100032","4091","MALLINCKRODT COMMUNITY CENTER","YES","1041A  RIDGE RD ","WILMETTE","60091","1041A RIDGE RD
WILMETTE, IL 60091
(42.0808240070005, -87.72254353399967)"
"8100033","1003","VILLAGE OF WILMETTE","YES","1200  WILMETTE AVE ","WILMETTE","60091","1200 WILMETTE AVE
WILMETTE, IL 60091
(42.0756367350005, -87.70774369899965)"
"8100034","1038","BETH HILLEL CONGREGATION","YES","3220  BIG TREE LN ","WILMETTE","60091","3220 BIG TREE LN
WILMETTE, IL 60091
(42.068917832000466, -87.75450037799965)"
"8100035","1037","ST AUGUSTINE CHURCH","YES","1140  WILMETTE AVE ","WILMETTE","60091","1140 WILMETTE AVE
WILMETTE, IL 60091
(42.07783190600048, -87.70591826699967)"
"8100036","2577","FIRST PRESBYTERIAN CHURCH","YES","600  9TH ST ","WILMETTE","60091","600 9TH ST
WILMETTE, IL 60091
(42.07530995900049, -87.70096056799969)"
"8100037","4001","LAKEVIEW CENTER IN GILSON PARK","YES","798  MICHIGAN AVE ","WILMETTE","60091","798 MICHIGAN AVE
WILMETTE, IL 60091
(42.078422988000455, -87.68825341599967)"
"8100038","2577","FIRST PRESBYTERIAN CHURCH","YES","600  9TH ST ","WILMETTE","60091","600 9TH ST
WILMETTE, IL 60091
(42.07530995900049, -87.70096056799969)"
"8100039","1048","AVOCA WEST SCHOOL","YES","235  BEECH DR ","GLENVIEW","60025","235 BEECH DR
GLENVIEW, IL 60025
(42.07691641300045, -87.76653718199964)"
"8100040","1021","MARIE MURPHY SCHOOL","YES","2921  ILLINOIS RD ","WILMETTE","60091","2921 ILLINOIS RD
WILMETTE, IL 60091
(42.08514251100047, -87.74843163599968)"
"8100041","1038","BETH HILLEL CONGREGATION","YES","3220  BIG TREE LN ","WILMETTE","60091","3220 BIG TREE LN
WILMETTE, IL 60091
(42.068917832000466, -87.75450037799965)"
"8100042","1027","SACRED HEART CONVENT","YES","2221  ELMWOOD AVE ","WILMETTE","60091","2221 ELMWOOD AVE
WILMETTE, IL 60091
(42.08232347900048, -87.73114132199964)"
"8100043","1041","WINNETKA PRESBYTERIAN CHURCH","YES","1255  WILLOW RD ","WINNETKA","60093","1255 WILLOW RD
WINNETKA, IL 60093
(42.10123359200048, -87.75091503099969)"
"8100044","2576","NORTHFIELD FIRE STATION","YES","1800  WINNETKA RD ","NORTHFIELD","60093","1800 WINNETKA RD
NORTHFIELD, IL 60093
(42.09411116700045, -87.77000692199965)"
"8100045","1027","SACRED HEART CONVENT","YES","2221  ELMWOOD AVE ","WILMETTE","60091","2221 ELMWOOD AVE
WILMETTE, IL 60091
(42.08232347900048, -87.73114132199964)"
"8100046","1016","CENTRAL SCHOOL","YES","  GROVE AND SOUTH STS  ","GLENCOE","60022","GROVE AND SOUTH STS
GLENCOE, IL 60022
(42.13035416300045, -87.76075985999967)"
"8200001","4121","WHITE EAGLE BANQUETS AND RESTAURANT","YES","6839 N MILWAUKEE AVE ","NILES","60714","6839 N MILWAUKEE AVE
NILES, IL 60714
(42.00537401200046, -87.79514112599969)"
"8200002","1050","PRESENCE SAINT BENEDICT NURSING AND REHABILATATION","YES","6930 W TOUHY AVE ","NILES","60714","6930 W TOUHY AVE
NILES, IL 60714
(42.01230825100049, -87.79999925399966)"
"8200003","1107","GOLF MIDDLE SCHOOL","YES","9401  WAUKEGAN RD ","MORTON GROVE","60053","9401 WAUKEGAN RD
MORTON GROVE, IL 60053
(42.052052596000465, -87.79942514299967)"
"8200004","4520","LINCOLNWOOD FIRE DEPARTMENT","YES","6900 N LINCOLN AVE ","LINCOLNWOOD","60712","6900 N LINCOLN AVE
LINCOLNWOOD, IL 60712
(42.00658745300046, -87.7328201959997)"
"8200005","4475","LINCOLNWOOD PUBLIC LIBRARY","YES","4000 W PRATT AVE ","LINCOLNWOOD","60712","4000 W PRATT AVE
LINCOLNWOOD, IL 60712
(42.00449229800046, -87.72892004799968)"
"8200006","1174","FAIRVIEW SOUTH SCHOOL","YES","7040  LARAMIE AVE ","SKOKIE","60077","7040 LARAMIE AVE
SKOKIE, IL 60077
(42.0092212240005, -87.75775078099969)"
"8200007","1127","NILES NORTH HIGH SCHOOL","YES","9800  LAWLER AVE ","SKOKIE","60077","9800 LAWLER AVE
SKOKIE, IL 60077
(42.05896407000046, -87.75281885899966)"
"8200008","1170","DR BESSIE RHODES MAGNET SCHOOL","YES","3705  DAVIS ST ","SKOKIE","60076","3705 DAVIS ST
SKOKIE, IL 60076
(42.046240370000476, -87.72243074099964)"
"8200009","3566","PIONEER PARK FIELDHOUSE","YES","7135 N HARLEM AVE ","NILES","60714","7135 N HARLEM AVE
NILES, IL 60714
(42.01124036600049, -87.80662384699968)"
"8200010","1161","AUSTIN PARK FIELDHOUSE","YES","8336  MARMORA AVE ","MORTON GROVE","60053","8336 MARMORA AVE
MORTON GROVE, IL 60053
(42.03943346700049, -87.77393463399966)"
"8200011","1098","NATIONAL PARK FIELDHOUSE","YES","9325  MARION AVE ","MORTON GROVE","60053","9325 MARION AVE
MORTON GROVE, IL 60053
(42.050502287000484, -87.80464015299964)"
"8200012","1129","OLIVER MCCRACKEN MIDDLE SCHOOL","YES","8000 E PRAIRIE RD ","SKOKIE","60076","8000 E PRAIRIE RD
SKOKIE, IL 60076
(42.0263663660005, -87.72577157299969)"
"8200013","2896","NILES PUBLIC LIBRARY","YES","6960 W OAKTON ST ","NILES","60714","6960 W OAKTON ST
NILES, IL 60714
(42.02639745100049, -87.80172865799966)"
"8200014","3001","CULVER SCHOOL","YES","6901 W OAKTON  ","NILES","60714","6901 W OAKTON
NILES, IL 60714
(42.02732613000046, -87.79885885299967)"
"8200015","1068","LINCOLN JUNIOR HIGH SCHOOL","YES","7839  LINCOLN AVE ","SKOKIE","60077","7839 LINCOLN AVE
SKOKIE, IL 60077
(42.023579043000495, -87.75422744599967)"
"8200016","1167","SKOKIE VILLAGE HALL","YES","5127  OAKTON ST ","SKOKIE","60077","5127 OAKTON ST
SKOKIE, IL 60077
(42.02631472900049, -87.75527690499968)"
"8200017","1065","CENTRAL METHODIST CHURCH","YES","8237  KENTON AVE ","SKOKIE","60076","8237 KENTON AVE
SKOKIE, IL 60076
(42.03091499600049, -87.74248848499968)"
"8200018","1157","HIGHLAND SCHOOL","YES","9700  CRAWFORD AVE ","SKOKIE","60076","9700 CRAWFORD AVE
SKOKIE, IL 60076
(42.05715396400046, -87.72754232699964)"
"8200019","1170","DR BESSIE RHODES MAGNET SCHOOL","YES","3705  DAVIS ST ","SKOKIE","60076","3705 DAVIS ST
SKOKIE, IL 60076
(42.046240370000476, -87.72243074099964)"
"8200020","1068","LINCOLN JUNIOR HIGH SCHOOL","YES","7839  LINCOLN AVE ","SKOKIE","60077","7839 LINCOLN AVE
SKOKIE, IL 60077
(42.023579043000495, -87.75422744599967)"
"8200021","1140","WALKER SCHOOL","YES","3601  CHURCH ST ","SKOKIE","60076","3601 CHURCH ST
SKOKIE, IL 60076
(42.048095883000485, -87.71808916099968)"
"8200022","3166","SKOKIE PUBLIC WORKS BUILDING","YES","9050  GROSS POINT RD ","SKOKIE","60077","9050 GROSS POINT RD
SKOKIE, IL 60077
(42.04547311300047, -87.75191011399966)"
"8200023","1156","DEVONSHIRE SCHOOL","YES","9040  KOSTNER AVE ","SKOKIE","60076","9040 KOSTNER AVE
SKOKIE, IL 60076
(42.045052532000454, -87.73735761299969)"
"8200024","1089","OAKTON COMMUNITY CENTER","YES","4701  OAKTON ST ","SKOKIE","60076","4701 OAKTON ST
SKOKIE, IL 60076
(42.026223924000476, -87.74516004099968)"
"8200025","3741","EMILY OAKS NATURE CENTER","YES","4650  BRUMMEL ST ","SKOKIE","60076","4650 BRUMMEL ST
SKOKIE, IL 60076
(42.02083226700046, -87.74412765399967)"
"8200026","4015","HOLIDAY INN CHICAGO NORTH SHORE SKOKIE HOTEL","YES","5300  TOUHY AVE ","SKOKIE","60077","5300 TOUHY AVE
SKOKIE, IL 60077
(42.01190753700047, -87.75999100099966)"
"8200027","1112","DEVONSHIRE CULTURAL CENTER","YES","4400  GREENWOOD AVE ","SKOKIE","60076","4400 GREENWOOD AVE
SKOKIE, IL 60076
(42.042609891000495, -87.73789715699968)"
"8200028","2600","TRINITY LUTHERAN CHURCH","YES","3637  GOLF RD ","EVANSTON","60203","3637 GOLF RD
EVANSTON, IL 60203
(42.05532784400049, -87.71948817699968)"
"8200029","1151","LINCOLNWOOD PLACE","YES","7000  MC CORMICK BLVD ","LINCOLNWOOD","60712","7000 MC CORMICK BLVD
LINCOLNWOOD, IL 60712
(42.00788363000049, -87.71160325799968)"
"8200030","1155","NILES TOWNSHIP OFFICES","YES","5255  MAIN ST ","SKOKIE","60077","5255 MAIN ST
SKOKIE, IL 60077
(42.03352099500046, -87.75770717299969)"
"8200031","1157","HIGHLAND SCHOOL","YES","9700  CRAWFORD AVE ","SKOKIE","60076","9700 CRAWFORD AVE
SKOKIE, IL 60076
(42.05715396400046, -87.72754232699964)"
"8200032","1150","ARMOND KING APARTMENTS","YES","9238  GROSS POINT RD ","SKOKIE","60077","9238 GROSS POINT RD
SKOKIE, IL 60077
(42.04900480200047, -87.74791061299965)"
"8200033","1138","JOHN MIDDLETON ELEMENTARY SCHOOL","YES","8300  ST LOUIS AVE ","SKOKIE","60076","8300 ST LOUIS AVE
SKOKIE, IL 60076
(42.03189476600045, -87.71598175199966)"
"8200034","1082","OAKTON RAY HARSTEIN CAMPUS","YES","7701  LINCOLN AVE ","SKOKIE","60077","7701 LINCOLN AVE
SKOKIE, IL 60077
(42.02093697300046, -87.75092239499969)"
"8200035","1100","MUSLIM EDUCATION CENTER","YES","8601  MENARD AVE ","MORTON GROVE","60053","8601 MENARD AVE
MORTON GROVE, IL 60053
(42.037411575000476, -87.77153195099964)"
"8200036","1138","JOHN MIDDLETON ELEMENTARY SCHOOL","YES","8300  ST LOUIS AVE ","SKOKIE","60076","8300 ST LOUIS AVE
SKOKIE, IL 60076
(42.03189476600045, -87.71598175199966)"
"8200037","1085","WEBER LEISURE CENTER","YES","9300  WEBER PARK PL ","SKOKIE","60077","9300 WEBER PARK PL
SKOKIE, IL 60077
(42.04823050800047, -87.75048059699964)"
"8200038","1146","PRAIRIE VIEW COMMUNITY CENTER","YES","6834  DEMPSTER ST ","MORTON GROVE","60053","6834 DEMPSTER ST
MORTON GROVE, IL 60053
(42.040885382000454, -87.79687143099966)"
"8200039","1167","SKOKIE VILLAGE HALL","YES","5127  OAKTON ST ","SKOKIE","60077","5127 OAKTON ST
SKOKIE, IL 60077
(42.02631472900049, -87.75527690499968)"
"8200040","1174","FAIRVIEW SOUTH SCHOOL","YES","7040  LARAMIE AVE ","SKOKIE","60077","7040 LARAMIE AVE
SKOKIE, IL 60077
(42.0092212240005, -87.75775078099969)"
"8200041","1155","NILES TOWNSHIP OFFICES","YES","5255  MAIN ST ","SKOKIE","60077","5255 MAIN ST
SKOKIE, IL 60077
(42.03352099500046, -87.75770717299969)"
"8200042","1144","LAKESIDE CHURCH","YES","3939  HOWARD ST ","SKOKIE","60076","3939 HOWARD ST
SKOKIE, IL 60076
(42.018962959000476, -87.72803015999966)"
"8200043","1134","ST JOHN BREBEUF PMC","YES","8305 N HARLEM AVE ","NILES","60714","8305 N HARLEM AVE
NILES, IL 60714
(42.03188466800049, -87.80637783699967)"
"8200044","1129","OLIVER MCCRACKEN MIDDLE SCHOOL","YES","8000 E PRAIRIE RD ","SKOKIE","60076","8000 E PRAIRIE RD
SKOKIE, IL 60076
(42.0263663660005, -87.72577157299969)"
"8200045","1089","OAKTON COMMUNITY CENTER","YES","4701  OAKTON ST ","SKOKIE","60076","4701 OAKTON ST
SKOKIE, IL 60076
(42.026223924000476, -87.74516004099968)"
"8200046","4015","HOLIDAY INN CHICAGO NORTH SHORE SKOKIE HOTEL","YES","5300  TOUHY AVE ","SKOKIE","60077","5300 TOUHY AVE
SKOKIE, IL 60077
(42.01190753700047, -87.75999100099966)"
"8200047","1112","DEVONSHIRE CULTURAL CENTER","YES","4400  GREENWOOD AVE ","SKOKIE","60076","4400 GREENWOOD AVE
SKOKIE, IL 60076
(42.042609891000495, -87.73789715699968)"
"8200048","1112","DEVONSHIRE CULTURAL CENTER","YES","4400  GREENWOOD AVE ","SKOKIE","60076","4400 GREENWOOD AVE
SKOKIE, IL 60076
(42.042609891000495, -87.73789715699968)"
"8200049","1140","WALKER SCHOOL","YES","3601  CHURCH ST ","SKOKIE","60076","3601 CHURCH ST
SKOKIE, IL 60076
(42.048095883000485, -87.71808916099968)"
"8200050","1098","NATIONAL PARK FIELDHOUSE","YES","9325  MARION AVE ","MORTON GROVE","60053","9325 MARION AVE
MORTON GROVE, IL 60053
(42.050502287000484, -87.80464015299964)"
"8200051","2811","NORTH SHORE CENTER FOR PERFORMING ARTS","YES","9501  SKOKIE BLVD ","SKOKIE","60076","9501 SKOKIE BLVD
SKOKIE, IL 60076
(42.05353132500045, -87.74680943499965)"
"8200052","1141","LINCOLNWOOD COMMUNITY CENTER","YES","4170 W MORSE AVE ","LINCOLNWOOD","60712","4170 W MORSE AVE
LINCOLNWOOD, IL 60712
(42.006327859000464, -87.73302232899965)"
"8200053","3869","MORTON GROVE CIVIC CENTER","YES","6140  DEMPSTER ST ","MORTON GROVE","60053","6140 DEMPSTER ST
MORTON GROVE, IL 60053
(42.04093812600047, -87.78081042999969)"
"8200054","3869","MORTON GROVE CIVIC CENTER","YES","6140  DEMPSTER ST ","MORTON GROVE","60053","6140 DEMPSTER ST
MORTON GROVE, IL 60053
(42.04093812600047, -87.78081042999969)"
"8200055","1089","OAKTON COMMUNITY CENTER","YES","4701  OAKTON ST ","SKOKIE","60076","4701 OAKTON ST
SKOKIE, IL 60076
(42.026223924000476, -87.74516004099968)"
"8200056","1141","LINCOLNWOOD COMMUNITY CENTER","YES","4170 W MORSE AVE ","LINCOLNWOOD","60712","4170 W MORSE AVE
LINCOLNWOOD, IL 60712
(42.006327859000464, -87.73302232899965)"
"8200057","3869","MORTON GROVE CIVIC CENTER","YES","6140  DEMPSTER ST ","MORTON GROVE","60053","6140 DEMPSTER ST
MORTON GROVE, IL 60053
(42.04093812600047, -87.78081042999969)"
"8200058","1147","EDISON SCHOOL","YES","8200  GROSS POINT RD ","MORTON GROVE","60053","8200 GROSS POINT RD
MORTON GROVE, IL 60053
(42.03011573300046, -87.76451087299967)"
"8200059","1107","GOLF MIDDLE SCHOOL","YES","9401  WAUKEGAN RD ","MORTON GROVE","60053","9401 WAUKEGAN RD
MORTON GROVE, IL 60053
(42.052052596000465, -87.79942514299967)"
"8200060","2811","NORTH SHORE CENTER FOR PERFORMING ARTS","YES","9501  SKOKIE BLVD ","SKOKIE","60076","9501 SKOKIE BLVD
SKOKIE, IL 60076
(42.05353132500045, -87.74680943499965)"
"8200061","1144","LAKESIDE CHURCH","YES","3939  HOWARD ST ","SKOKIE","60076","3939 HOWARD ST
SKOKIE, IL 60076
(42.018962959000476, -87.72803015999966)"
"8200062","1154","JANE STENSON SCHOOL","YES","9201  LOCKWOOD AVE ","SKOKIE","60077","9201 LOCKWOOD AVE
SKOKIE, IL 60077
(42.04819065300046, -87.75904072999964)"
"8200063","1089","OAKTON COMMUNITY CENTER","YES","4701  OAKTON ST ","SKOKIE","60076","4701 OAKTON ST
SKOKIE, IL 60076
(42.026223924000476, -87.74516004099968)"
"8200064","1156","DEVONSHIRE SCHOOL","YES","9040  KOSTNER AVE ","SKOKIE","60076","9040 KOSTNER AVE
SKOKIE, IL 60076
(42.045052532000454, -87.73735761299969)"
"8200065","1152","CONGREGATION YEHUDA MOSHE","YES","4723 W TOUHY AVE ","LINCOLNWOOD","60712","4723 W TOUHY AVE
LINCOLNWOOD, IL 60712
(42.01175052500048, -87.74627470499968)"
"8200066","1141","LINCOLNWOOD COMMUNITY CENTER","YES","4170 W MORSE AVE ","LINCOLNWOOD","60712","4170 W MORSE AVE
LINCOLNWOOD, IL 60712
(42.006327859000464, -87.73302232899965)"
"8200067","1141","LINCOLNWOOD COMMUNITY CENTER","YES","4170 W MORSE AVE ","LINCOLNWOOD","60712","4170 W MORSE AVE
LINCOLNWOOD, IL 60712
(42.006327859000464, -87.73302232899965)"
"8200068","1156","DEVONSHIRE SCHOOL","YES","9040  KOSTNER AVE ","SKOKIE","60076","9040 KOSTNER AVE
SKOKIE, IL 60076
(42.045052532000454, -87.73735761299969)"
"8200069","1160","OLD ORCHARD JUNIOR HIGH SCHOOL","YES","9310  KENTON AVE ","SKOKIE","60076","9310 KENTON AVE
SKOKIE, IL 60076
(42.05004818200047, -87.74210296499967)"
"8200070","1171","SKOKIE VALLEY AGUDATH JACOB SYNAGOGUE","YES","8825 E PRAIRIE RD ","SKOKIE","60076","8825 E PRAIRIE RD
SKOKIE, IL 60076
(42.04127548500048, -87.71971581699967)"
"8200071","1152","CONGREGATION YEHUDA MOSHE","YES","4723 W TOUHY AVE ","LINCOLNWOOD","60712","4723 W TOUHY AVE
LINCOLNWOOD, IL 60712
(42.01175052500048, -87.74627470499968)"
"8200072","1120","MANSFIELD PARK FIELDHOUSE","YES","5830  CHURCH ST ","MORTON GROVE","60053","5830 CHURCH ST
MORTON GROVE, IL 60053
(42.0481896980005, -87.77288981199968)"
"8200073","1107","GOLF MIDDLE SCHOOL","YES","9401  WAUKEGAN RD ","MORTON GROVE","60053","9401 WAUKEGAN RD
MORTON GROVE, IL 60053
(42.052052596000465, -87.79942514299967)"
"8300001","1245","DEVON BANK","YES","950  MILWAUKEE AVE ","GLENVIEW","60025","950 MILWAUKEE AVE
GLENVIEW, IL 60025
(42.07216841900049, -87.85522248399968)"
"8300002","1203","VILLAGE OF NORTHBROOK","YES","1225  CEDAR LN ","NORTHBROOK","60062","1225 CEDAR LN
NORTHBROOK, IL 60062
(42.13057240000046, -87.83150105999965)"
"8300003","3623","GIDWITZ PLACE FOR ASSISTED LIVING","YES","1551  LAKE COOK RD ","DEERFIELD","60015","1551 LAKE COOK RD
DEERFIELD, IL 60015
(42.15252027700046, -87.86436418199969)"
"8300004","1232","GLEN GROVE SCHOOL","YES","3900  GLENVIEW RD ","GLENVIEW","60025","3900 GLENVIEW RD
GLENVIEW, IL 60025
(42.0731394070005, -87.85176987399967)"
"8300005","1232","GLEN GROVE SCHOOL","YES","3900  GLENVIEW RD ","GLENVIEW","60025","3900 GLENVIEW RD
GLENVIEW, IL 60025
(42.0731394070005, -87.85176987399967)"
"8300006","4025","FIRST CHURCH OF CHRIST SCIENTIST","YES","1333  GLENVIEW RD ","GLENVIEW","60025","1333 GLENVIEW RD
GLENVIEW, IL 60025
(42.07115344900046, -87.79216851099966)"
"8300007","3819","VI AT THE GLEN","YES","2500  INDIGO LN ","GLENVIEW","60026","2500 INDIGO LN
GLENVIEW, IL 60026
(42.08046354300046, -87.81778728999967)"
"8300008","1182","TECHNY TOWERS","YES","2001  WAUKEGAN RD ","TECHNY","60082","2001 WAUKEGAN RD
TECHNY, IL 60082
(42.11613588400047, -87.82228648399968)"
"8300009","2846","LUTHERAN CHURCH OF THE ASCENSION","YES","460  SUNSET RIDGE RD ","NORTHFIELD","60093","460 SUNSET RIDGE RD
NORTHFIELD, IL 60093
(42.104668081000455, -87.79028753899968)"
"8300010","1184","WESTBROOK ELEMENTARY SCHOOL","YES","1333  GREENWOOD RD ","GLENVIEW","60025","1333 GREENWOOD RD
GLENVIEW, IL 60025
(42.07929288200046, -87.83945227599969)"
"8300011","1242","FIELD SCHOOL","YES","2055  LANDWEHR RD ","NORTHBROOK","60062","2055 LANDWEHR RD
NORTHBROOK, IL 60062
(42.115521954000485, -87.85857956199965)"
"8300012","4190","GLENVIEW VILLAGE HALL","YES","1225  WAUKEGAN RD ","GLENVIEW","60025","1225 WAUKEGAN RD
GLENVIEW, IL 60025
(42.077227646000495, -87.79855032999967)"
"8300013","1222","WILLOW PARK FIELDHOUSE","YES","2600  GREENWOOD RD ","GLENVIEW","60025","2600 GREENWOOD RD
GLENVIEW, IL 60025
(42.10281449000047, -87.83930985699965)"
"8300014","1219","WESCOTT SCHOOL","YES","1820  WESTERN AVE ","NORTHBROOK","60062","1820 WESTERN AVE
NORTHBROOK, IL 60062
(42.11938237700048, -87.83906191199969)"
"8300015","3647","VILLAGE GREEN CENTER","YES","1810  WALTERS AVE ","NORTHBROOK","60062","1810 WALTERS AVE
NORTHBROOK, IL 60062
(42.12735394200047, -87.82537670999966)"
"8300016","1252","ANCIENT TREE COMMUNITY ASSOCIATION","YES","12  HARBORSIDE DR ","NORTHBROOK","60062","12 HARBORSIDE DR
NORTHBROOK, IL 60062
(42.131489402000454, -87.86036702199965)"
"8300017","1223","NORTHBROOK SPORTS CENTER","YES","1730  PFINGSTEN RD ","NORTHBROOK","60062","1730 PFINGSTEN RD
NORTHBROOK, IL 60062
(42.12129876200049, -87.84881847699967)"
"8300018","3647","VILLAGE GREEN CENTER","YES","1810  WALTERS AVE ","NORTHBROOK","60062","1810 WALTERS AVE
NORTHBROOK, IL 60062
(42.12735394200047, -87.82537670999966)"
"8300019","4190","GLENVIEW VILLAGE HALL","YES","1225  WAUKEGAN RD ","GLENVIEW","60025","1225 WAUKEGAN RD
GLENVIEW, IL 60025
(42.077227646000495, -87.79855032999967)"
"8300020","1194","MAPLE JUNIOR HIGH SCHOOL","YES","2370  SHERMER RD ","NORTHBROOK","60062","2370 SHERMER RD
NORTHBROOK, IL 60062
(42.109087805000456, -87.82937471499969)"
"8300021","3506","HOLY TRINITY LUTHERAN CHURCH","YES","2328  CENTRAL RD ","GLENVIEW","60025","2328 CENTRAL RD
GLENVIEW, IL 60025
(42.065698358000475, -87.81614054199969)"
"8300022","1196","SLEEPY HOLLOW PARK FIELDHOUSE","YES","1821  MAPLEWOOD LN ","GLENVIEW","60025","1821 MAPLEWOOD LN
GLENVIEW, IL 60025
(42.077965564000465, -87.80068050899968)"
"8300023","2846","LUTHERAN CHURCH OF THE ASCENSION","YES","460  SUNSET RIDGE RD ","NORTHFIELD","60093","460 SUNSET RIDGE RD
NORTHFIELD, IL 60093
(42.104668081000455, -87.79028753899968)"
"8300024","1198","GLENVIEW UNITED METHODIST CHURCH","YES","727  HARLEM AVE ","GLENVIEW","60025","727 HARLEM AVE
GLENVIEW, IL 60025
(42.06795303100046, -87.80562541999967)"
"8300025","1199","ST CATHERINE LA BOURE SCHOOL","YES","3425  THORNWOOD AVE ","GLENVIEW","60025","3425 THORNWOOD AVE
GLENVIEW, IL 60025
(42.083926216000464, -87.84298137399969)"
"8300026","1214","CRESTWOOD PLACE","YES","1000  WAUKEGAN RD ","NORTHBROOK","60062","1000 WAUKEGAN RD
NORTHBROOK, IL 60062
(42.13434306200048, -87.82221749699966)"
"8300027","3356","THE SEASON AT GLENVIEW PLACE","YES","4501  CONCORD LN ","NORTHBROOK","60062","4501 CONCORD LN
NORTHBROOK, IL 60062
(42.09316061600049, -87.87027265499967)"
"8300028","1202","LAKEVIEW COVENANT CHURCH","YES","950  NORTHBROOK AVE ","NORTHBROOK","60062","950 NORTHBROOK AVE
NORTHBROOK, IL 60062
(42.13574556900045, -87.79770287999969)"
"8300029","1203","VILLAGE OF NORTHBROOK","YES","1225  CEDAR LN ","NORTHBROOK","60062","1225 CEDAR LN
NORTHBROOK, IL 60062
(42.13057240000046, -87.83150105999965)"
"8300030","1204","ROOSEVELT PARK FIELDHOUSE","YES","2200  GROVE ST ","GLENVIEW","60025","2200 GROVE ST
GLENVIEW, IL 60025
(42.074777922000465, -87.81289722099967)"
"8300031","1254","PLEASANTRIDGE SCHOOL","YES","1730  SUNSET RIDGE RD ","GLENVIEW","60025","1730 SUNSET RIDGE RD
GLENVIEW, IL 60025
(42.086011922000466, -87.79065452699967)"
"8300032","1236","GLORIA DEI LUTHERAN CHURCH","YES","1133  PFINGSTEN RD ","NORTHBROOK","60062","1133 PFINGSTEN RD
NORTHBROOK, IL 60062
(42.13171834400049, -87.84852311799966)"
"8300033","1232","GLEN GROVE SCHOOL","YES","3900  GLENVIEW RD ","GLENVIEW","60025","3900 GLENVIEW RD
GLENVIEW, IL 60025
(42.0731394070005, -87.85176987399967)"
"8300034","1241","COVENANT VILLAGE OF NORTHBROOK","YES","2625  TECHNY RD ","NORTHBROOK","60062","2625 TECHNY RD
NORTHBROOK, IL 60062
(42.116545945000496, -87.84404453199966)"
"8300035","3782","COLE PARK FIELDHOUSE","YES","1031  KENILWORTH LN ","GLENVIEW","60025","1031 KENILWORTH LN
GLENVIEW, IL 60025
(42.08713681900048, -87.78490896399967)"
"8300036","1223","NORTHBROOK SPORTS CENTER","YES","1730  PFINGSTEN RD ","NORTHBROOK","60062","1730 PFINGSTEN RD
NORTHBROOK, IL 60062
(42.12129876200049, -87.84881847699967)"
"8300037","1235","NORTHFIELD COMMUNITY CHURCH","YES","400  WAGNER RD ","NORTHFIELD","60093","400 WAGNER RD
NORTHFIELD, IL 60093
(42.101704174000474, -87.7805932879997)"
"8300038","1212","CATHERINE W CROWLEY PARK FIELDHOUSE","YES","749  HUBER LN ","GLENVIEW","60025","749 HUBER LN
GLENVIEW, IL 60025
(42.06906434300049, -87.83343744499967)"
"8300039","1247","INDIAN TRAIL PARK FIELDHOUSE","YES","1519  FOREST DR ","GLENVIEW","60025","1519 FOREST DR
GLENVIEW, IL 60025
(42.082494161000454, -87.87730162299965)"
"8300040","1214","CRESTWOOD PLACE","YES","1000  WAUKEGAN RD ","NORTHBROOK","60062","1000 WAUKEGAN RD
NORTHBROOK, IL 60062
(42.13434306200048, -87.82221749699966)"
"8300041","1253","TRIUMVERA CONDOMINIUMS","YES","3901  TRIUMVERA DR ","GLENVIEW","60025","3901 TRIUMVERA DR
GLENVIEW, IL 60025
(42.06774339000049, -87.85320272699965)"
"8300042","2846","LUTHERAN CHURCH OF THE ASCENSION","YES","460  SUNSET RIDGE RD ","NORTHFIELD","60093","460 SUNSET RIDGE RD
NORTHFIELD, IL 60093
(42.104668081000455, -87.79028753899968)"
"8300043","1222","WILLOW PARK FIELDHOUSE","YES","2600  GREENWOOD RD ","GLENVIEW","60025","2600 GREENWOOD RD
GLENVIEW, IL 60025
(42.10281449000047, -87.83930985699965)"
"8300044","1218","GLENVIEW NEW CHURCH","YES","74  PARK DR ","GLENVIEW","60025","74 PARK DR
GLENVIEW, IL 60025
(42.07507353800048, -87.82366103799967)"
"8300045","1189","NORTHBROOK JUNIOR HIGH SCHOOL","YES","1475  MAPLE AVE ","NORTHBROOK","60062","1475 MAPLE AVE
NORTHBROOK, IL 60062
(42.12543378100048, -87.81563850899965)"
"8300046","3647","VILLAGE GREEN CENTER","YES","1810  WALTERS AVE ","NORTHBROOK","60062","1810 WALTERS AVE
NORTHBROOK, IL 60062
(42.12735394200047, -87.82537670999966)"
"8300047","1221","OUR LADY OF THE BROOK","YES","3700  DUNDEE RD ","NORTHBROOK","60062","3700 DUNDEE RD
NORTHBROOK, IL 60062
(42.138410260000455, -87.87010791899968)"
"8300048","1187","WILLOWBROOK SCHOOL","YES","2500  HAPPY HOLLOW RD ","GLENVIEW","60026","2500 HAPPY HOLLOW RD
GLENVIEW, IL 60026
(42.101151823000464, -87.84224792399965)"
"8300049","1223","NORTHBROOK SPORTS CENTER","YES","1730  PFINGSTEN RD ","NORTHBROOK","60062","1730 PFINGSTEN RD
NORTHBROOK, IL 60062
(42.12129876200049, -87.84881847699967)"
"8300050","1242","FIELD SCHOOL","YES","2055  LANDWEHR RD ","NORTHBROOK","60062","2055 LANDWEHR RD
NORTHBROOK, IL 60062
(42.115521954000485, -87.85857956199965)"
"8300051","4490","GLENVIEW PARK DISTRICT CENTER","YES","2400  CHESTNUT AVE ","GLENVIEW","60025","2400 CHESTNUT AVE
GLENVIEW, IL 60025
(42.087392270000464, -87.81501651799965)"
"8300052","4490","GLENVIEW PARK DISTRICT CENTER","YES","2400  CHESTNUT AVE ","GLENVIEW","60025","2400 CHESTNUT AVE
GLENVIEW, IL 60025
(42.087392270000464, -87.81501651799965)"
"8300053","1194","MAPLE JUNIOR HIGH SCHOOL","YES","2370  SHERMER RD ","NORTHBROOK","60062","2370 SHERMER RD
NORTHBROOK, IL 60062
(42.109087805000456, -87.82937471499969)"
"8300054","3623","GIDWITZ PLACE FOR ASSISTED LIVING","YES","1551  LAKE COOK RD ","DEERFIELD","60015","1551 LAKE COOK RD
DEERFIELD, IL 60015
(42.15252027700046, -87.86436418199969)"
"8300055","3111","BERNARD WEINGER JCC","YES","300  REVERE DR ","NORTHBROOK","60062","300 REVERE DR
NORTHBROOK, IL 60062
(42.14872784400046, -87.80342619599969)"
"8300056","1254","PLEASANTRIDGE SCHOOL","YES","1730  SUNSET RIDGE RD ","GLENVIEW","60025","1730 SUNSET RIDGE RD
GLENVIEW, IL 60025
(42.086011922000466, -87.79065452699967)"
"8300057","3701","ST PHILIP LUTHERAN CHURCH","YES","1609  PFINGSTEN RD ","GLENVIEW","60025","1609 PFINGSTEN RD
GLENVIEW, IL 60025
(42.083892266000476, -87.84916115999965)"
"8300058","1177","UNDERWRITERS LABORATORIES","YES","333  PFINGSTEN RD BLDG 6  ","NORTHBROOK","60062","333 PFINGSTEN RD BLDG 6
NORTHBROOK, IL 60062
(42.14607807900046, -87.84822352499964)"
"8300059","1187","WILLOWBROOK SCHOOL","YES","2500  HAPPY HOLLOW RD ","GLENVIEW","60026","2500 HAPPY HOLLOW RD
GLENVIEW, IL 60026
(42.101151823000464, -87.84224792399965)"
"8300060","1189","NORTHBROOK JUNIOR HIGH SCHOOL","YES","1475  MAPLE AVE ","NORTHBROOK","60062","1475 MAPLE AVE
NORTHBROOK, IL 60062
(42.12543378100048, -87.81563850899965)"
"8300061","3701","ST PHILIP LUTHERAN CHURCH","YES","1609  PFINGSTEN RD ","GLENVIEW","60025","1609 PFINGSTEN RD
GLENVIEW, IL 60025
(42.083892266000476, -87.84916115999965)"
"8300062","1236","GLORIA DEI LUTHERAN CHURCH","YES","1133  PFINGSTEN RD ","NORTHBROOK","60062","1133 PFINGSTEN RD
NORTHBROOK, IL 60062
(42.13171834400049, -87.84852311799966)"
"8300063","1242","FIELD SCHOOL","YES","2055  LANDWEHR RD ","NORTHBROOK","60062","2055 LANDWEHR RD
NORTHBROOK, IL 60062
(42.115521954000485, -87.85857956199965)"
"8300064","1252","ANCIENT TREE COMMUNITY ASSOCIATION","YES","12  HARBORSIDE DR ","NORTHBROOK","60062","12 HARBORSIDE DR
NORTHBROOK, IL 60062
(42.131489402000454, -87.86036702199965)"
"8300065","1187","WILLOWBROOK SCHOOL","YES","2500  HAPPY HOLLOW RD ","GLENVIEW","60026","2500 HAPPY HOLLOW RD
GLENVIEW, IL 60026
(42.101151823000464, -87.84224792399965)"
"8400001","1293","UNION RIDGE SCHOOL","YES","4600 N OAK PARK AVE ","HARWOOD HEIGHTS","60706","4600 N OAK PARK AVE
HARWOOD HEIGHTS, IL 60706
(41.964780937000455, -87.79771785199966)"
"8400002","1263","ESTELLE SIEB COMMUNITY CENTER","YES","7774 W IRVING PARK RD ","NORRIDGE","60706","7774 W IRVING PARK RD
NORRIDGE, IL 60706
(41.95246265500049, -87.82110986199967)"
"8400003","3974","SOUTH PARK RECREATION CENTER","YES","833 W TALCOTT RD ","PARK RIDGE","60068","833 W TALCOTT RD
PARK RIDGE, IL 60068
(41.997957046000465, -87.83491692499967)"
"8400004","1284","VILLAGE OF NORRIDGE","YES","4000 N OLCOTT AVE ","NORRIDGE","60706","4000 N OLCOTT AVE
NORRIDGE, IL 60706
(41.95268257300046, -87.81460751199967)"
"8400005","1278","EISENHOWER PUBLIC LIBRARY","YES","4613 N OKETO AVE ","HARWOOD HEIGHTS","60706","4613 N OKETO AVE
HARWOOD HEIGHTS, IL 60706
(41.963812265000456, -87.81205758199968)"
"8400006","1296","NORWOOD PARK HALL","YES","7833 W LAWRENCE AVE ","NORRIDGE","60706","7833 W LAWRENCE AVE
NORRIDGE, IL 60706
(41.96684066400047, -87.82322741199965)"
"8400007","2571","THE SALVATION ARMY","YES","8354 W FOSTER AVE ","NORRIDGE","60706","8354 W FOSTER AVE
NORRIDGE, IL 60706
(41.973926649000475, -87.83616194799964)"
"8400008","1285","RIDGEWOOD HIGH SCHOOL","YES","7500 W MONTROSE AVE ","NORRIDGE","60706","7500 W MONTROSE AVE
NORRIDGE, IL 60706
(41.95987336200045, -87.81467012699966)"
"8400009","1294","JOHN V LEIGH ELEMENTARY SCHOOL","YES","8151 W LAWRENCE AVE ","NORRIDGE","60706","8151 W LAWRENCE AVE
NORRIDGE, IL 60706
(41.966664213000456, -87.83130957699967)"
"8400010","1296","NORWOOD PARK HALL","YES","7833 W LAWRENCE AVE ","NORRIDGE","60706","7833 W LAWRENCE AVE
NORRIDGE, IL 60706
(41.96684066400047, -87.82322741199965)"
"8400011","3974","SOUTH PARK RECREATION CENTER","YES","833 W TALCOTT RD ","PARK RIDGE","60068","833 W TALCOTT RD
PARK RIDGE, IL 60068
(41.997957046000465, -87.83491692499967)"
"8400012","1283","THE MONTCLARE BUILDING","YES","7171 W GUNNISON ST ","HARWOOD HEIGHTS","60706","7171 W GUNNISON ST
HARWOOD HEIGHTS, IL 60706
(41.96824297100045, -87.80696031299965)"
"8400013","1294","JOHN V LEIGH ELEMENTARY SCHOOL","YES","8151 W LAWRENCE AVE ","NORRIDGE","60706","8151 W LAWRENCE AVE
NORRIDGE, IL 60706
(41.966664213000456, -87.83130957699967)"
"8400014","3974","SOUTH PARK RECREATION CENTER","YES","833 W TALCOTT RD ","PARK RIDGE","60068","833 W TALCOTT RD
PARK RIDGE, IL 60068
(41.997957046000465, -87.83491692499967)"
"8400015","1293","UNION RIDGE SCHOOL","YES","4600 N OAK PARK AVE ","HARWOOD HEIGHTS","60706","4600 N OAK PARK AVE
HARWOOD HEIGHTS, IL 60706
(41.964780937000455, -87.79771785199966)"
"8400016","1289","NORRIDGE NURSING CENTRE","YES","7001 W CULLOM AVE ","NORRIDGE","60706","7001 W CULLOM AVE
NORRIDGE, IL 60706
(41.95776277400046, -87.80269740999967)"
"8400017","1278","EISENHOWER PUBLIC LIBRARY","YES","4613 N OKETO AVE ","HARWOOD HEIGHTS","60706","4613 N OKETO AVE
HARWOOD HEIGHTS, IL 60706
(41.963812265000456, -87.81205758199968)"
"8400018","2571","THE SALVATION ARMY","YES","8354 W FOSTER AVE ","NORRIDGE","60706","8354 W FOSTER AVE
NORRIDGE, IL 60706
(41.973926649000475, -87.83616194799964)"
"8500001","1372","HATCH SCHOOL","YES","1000 N RIDGELAND AVE ","OAK PARK","60301","1000 N RIDGELAND AVE
OAK PARK, IL 60301
(41.90480998200047, -87.78378807199965)"
"8500002","1299","ST GILES GLEESON BUILDING","YES","1101  COLUMBIAN AVE ","OAK PARK","60302","1101 COLUMBIAN AVE
OAK PARK, IL 60302
(41.90569237700049, -87.79133719099968)"
"8500003","4525","ADELE H. MAZE LIBRARY","YES","845  GUNDERSON AVE ","OAK PARK","60304","845 GUNDERSON AVE
OAK PARK, IL 60304
(41.87357916700046, -87.78672812599967)"
"8500004","1313","HORACE MANN SCHOOL","YES","921 N KENILWORTH AVE ","OAK PARK","60302","921 N KENILWORTH AVE
OAK PARK, IL 60302
(41.902056863000496, -87.79805244399967)"
"8500005","1313","HORACE MANN SCHOOL","YES","921 N KENILWORTH AVE ","OAK PARK","60302","921 N KENILWORTH AVE
OAK PARK, IL 60302
(41.902056863000496, -87.79805244399967)"
"8500006","1340","OAK PARK ARMS","YES","408 S OAK PARK AVE ","OAK PARK","60302","408 S OAK PARK AVE
OAK PARK, IL 60302
(41.88085161300046, -87.79426331999969)"
"8500007","1372","HATCH SCHOOL","YES","1000 N RIDGELAND AVE ","OAK PARK","60301","1000 N RIDGELAND AVE
OAK PARK, IL 60301
(41.90480998200047, -87.78378807199965)"
"8500008","1310","WHITTIER SCHOOL","YES","715 N HARVEY AVE ","OAK PARK","60302","715 N HARVEY AVE
OAK PARK, IL 60302
(41.89880587100049, -87.78179494799969)"
"8500009","1340","OAK PARK ARMS","YES","408 S OAK PARK AVE ","OAK PARK","60302","408 S OAK PARK AVE
OAK PARK, IL 60302
(41.88085161300046, -87.79426331999969)"
"8500010","1310","WHITTIER SCHOOL","YES","715 N HARVEY AVE ","OAK PARK","60302","715 N HARVEY AVE
OAK PARK, IL 60302
(41.89880587100049, -87.78179494799969)"
"8500011","1308","DOLE LEARNING CENTER","YES","255  AUGUSTA ST ","OAK PARK","60301","255 AUGUSTA ST
OAK PARK, IL 60301
(41.89822792300049, -87.78219658399968)"
"8500012","1340","OAK PARK ARMS","YES","408 S OAK PARK AVE ","OAK PARK","60302","408 S OAK PARK AVE
OAK PARK, IL 60302
(41.88085161300046, -87.79426331999969)"
"8500013","2578","LONGFELLOW SCHOOL","YES","715  HIGHLAND AVE ","OAK PARK","60304","715 HIGHLAND AVE
OAK PARK, IL 60304
(41.87599481800049, -87.78189309299967)"
"8500014","1299","ST GILES GLEESON BUILDING","YES","1101  COLUMBIAN AVE ","OAK PARK","60302","1101 COLUMBIAN AVE
OAK PARK, IL 60302
(41.90569237700049, -87.79133719099968)"
"8500015","1352","OAK PARK VILLAGE HALL","YES","123  MADISON ST ","OAK PARK","60302","123 MADISON ST
OAK PARK, IL 60302
(41.87998807100047, -87.77852437599967)"
"8500016","1358","FOX RECREATION CENTER","YES","640 S OAK PARK AVE ","OAK PARK","60304","640 S OAK PARK AVE
OAK PARK, IL 60304
(41.87715517300046, -87.79410207199965)"
"8500017","1366","LINCOLN SCHOOL","YES","1111 S GROVE AVE ","OAK PARK","60304","1111 S GROVE AVE
OAK PARK, IL 60304
(41.86837835300048, -87.79517639199969)"
"8500018","2575","HOLMES SCHOOL","YES","508 N KENILWORTH AVE ","OAK PARK","60302","508 N KENILWORTH AVE
OAK PARK, IL 60302
(41.89531022500046, -87.79765081999966)"
"8500019","1335","MILLS PARK TOWER","YES","1025  PLEASANT PL ","OAK PARK","60302","1025 PLEASANT PL
OAK PARK, IL 60302
(41.88575800400048, -87.80071921999968)"
"8500020","3664","19TH CENTURY CLUB","YES","178  FOREST AVE ","OAK PARK","60301","178 FOREST AVE
OAK PARK, IL 60301
(41.89005398100045, -87.80016116299964)"
"8500021","1331","PERCY JULIAN JUNIOR HIGH SCHOOL","YES","416 S RIDGELAND AVE ","OAK PARK","60302","416 S RIDGELAND AVE
OAK PARK, IL 60302
(41.89379058600048, -87.78480423799965)"
"8500022","1317","OAK PARK PUBLIC LIBRARY","YES","834  LAKE ST ","OAK PARK","60301","834 LAKE ST
OAK PARK, IL 60301
(41.888674385000456, -87.79539029299968)"
"8500023","1317","OAK PARK PUBLIC LIBRARY","YES","834  LAKE ST ","OAK PARK","60301","834 LAKE ST
OAK PARK, IL 60301
(41.888674385000456, -87.79539029299968)"
"8500024","1321","OAK PARK RIVER FOREST HIGH SCHOOL","YES","201 N SCOVILLE AVE ","OAK PARK","60301","201 N SCOVILLE AVE
OAK PARK, IL 60301
(41.89038336600049, -87.78804673899964)"
"8500025","1373","WASHINGTON IRVING ELEMENTARY SCHOOL","YES","1125 S CUYLER AVE ","OAK PARK","60302","1125 S CUYLER AVE
OAK PARK, IL 60302
(41.86801586000047, -87.78281721199966)"
"8500026","1323","BEYE ELEMENTARY SCHOOL","YES","230 N CUYLER AVE ","OAK PARK","60302","230 N CUYLER AVE
OAK PARK, IL 60302
(41.88403191100048, -87.78289375499969)"
"8500027","1361","OAK PARK SENIOR CENTER","YES","500 S MAPLE AVE ","OAK PARK","60302","500 S MAPLE AVE
OAK PARK, IL 60302
(41.879514849000486, -87.80379926599966)"
"8500028","1337","GWENDOLYN BROOKS MIDDLE SCHOOL","YES","325 S KENILWORTH AVE ","OAK PARK","60302","325 S KENILWORTH AVE
OAK PARK, IL 60302
(41.882956256000455, -87.79703065899969)"
"8500029","1365","WEST CENTRAL CHURCH","YES","1154  WISCONSIN AVE ","OAK PARK","60304","1154 WISCONSIN AVE
OAK PARK, IL 60304
(41.866546332000496, -87.80174453699965)"
"8500030","1330","HERITAGE HOUSE","YES","201  LAKE ST ","OAK PARK","60302","201 LAKE ST
OAK PARK, IL 60302
(41.88814853400049, -87.77991946199967)"
"8500031","3850","OAK PARK CONSERVATORY","YES","615  GARFIELD ST ","OAK PARK","60304","615 GARFIELD ST
OAK PARK, IL 60304
(41.87162759500046, -87.78995408699967)"
"8500032","1329","THE OAKS","YES","114 S HUMPHREY AVE ","OAK PARK","60302","114 S HUMPHREY AVE
OAK PARK, IL 60302
(41.88675217100047, -87.77645344799964)"
"8500033","1373","WASHINGTON IRVING ELEMENTARY SCHOOL","YES","1125 S CUYLER AVE ","OAK PARK","60302","1125 S CUYLER AVE
OAK PARK, IL 60302
(41.86801586000047, -87.78281721199966)"
"8500034","1331","PERCY JULIAN JUNIOR HIGH SCHOOL","YES","416 S RIDGELAND AVE ","OAK PARK","60302","416 S RIDGELAND AVE
OAK PARK, IL 60302
(41.89379058600048, -87.78480423799965)"
"8500035","1334","OAK PARK TOWNSHIP","YES","105 S OAK PARK AVE ","OAK PARK","60302","105 S OAK PARK AVE
OAK PARK, IL 60302
(41.886710447000496, -87.79447948599966)"
"8500036","1366","LINCOLN SCHOOL","YES","1111 S GROVE AVE ","OAK PARK","60304","1111 S GROVE AVE
OAK PARK, IL 60304
(41.86837835300048, -87.79517639199969)"
"8500037","1317","OAK PARK PUBLIC LIBRARY","YES","834  LAKE ST ","OAK PARK","60301","834 LAKE ST
OAK PARK, IL 60301
(41.888674385000456, -87.79539029299968)"
"8500038","1361","OAK PARK SENIOR CENTER","YES","500 S MAPLE AVE ","OAK PARK","60302","500 S MAPLE AVE
OAK PARK, IL 60302
(41.879514849000486, -87.80379926599966)"
"8600001","1428","ORLAND PARK CIVIC CENTER","YES","14750  RAVINIA AVE ","ORLAND PARK","60462","14750 RAVINIA AVE
ORLAND PARK, IL 60462
(41.622151947000475, -87.85613245699966)"
"8600002","3875","ORLAND FIRE PROTECTION DISTRICT 3","YES","15101  WOLF RD ","ORLAND PARK","60467","15101 WOLF RD
ORLAND PARK, IL 60467
(41.615173479000475, -87.89183726999966)"
"8600003","1442","VILLAGE OF ORLAND HILLS","YES","16033  94TH AVE ","ORLAND HILLS","60487","16033 94TH AVE
ORLAND HILLS, IL 60487
(41.59829724600047, -87.84779101799967)"
"8600004","1429","ROBERT DAVIDSON CENTER","YES","14700  PARK LN ","ORLAND PARK","60462","14700 PARK LN
ORLAND PARK, IL 60462
(41.62268445400048, -87.86689232999964)"
"8600005","1378","JOHN A BANNES SCHOOL","YES","16835  ODELL AVE ","TINLEY PARK","60477","16835 ODELL AVE
TINLEY PARK, IL 60477
(41.58510841700047, -87.79695687099968)"
"8600006","1423","HELEN KELLER ELEMENTARY SCHOOL","YES","7846  163RD ST ","TINLEY PARK","60477","7846 163RD ST
TINLEY PARK, IL 60477
(41.59481394700049, -87.80885452099966)"
"8600007","1391","SILVER LAKE COUNTRY CLUB","YES","14700 S 82ND AVE ","ORLAND PARK","60462","14700 S 82ND AVE
ORLAND PARK, IL 60462
(41.619871770000486, -87.81927983799966)"
"8600008","3611","ORLAND HILL COMMUNITY SENIOR CENTER","YES","16553  HAVEN AVE ","ORLAND HILLS","60487","16553 HAVEN AVE
ORLAND HILLS, IL 60487
(41.589803503000496, -87.84388908599965)"
"8600009","3611","ORLAND HILL COMMUNITY SENIOR CENTER","YES","16553  HAVEN AVE ","ORLAND HILLS","60487","16553 HAVEN AVE
ORLAND HILLS, IL 60487
(41.589803503000496, -87.84388908599965)"
"8600010","2706","RIVIERA COUNTRY CLUB","YES","8801 W 143RD ST ","ORLAND PARK","60462","8801 W 143RD ST
ORLAND PARK, IL 60462
(41.63078341400046, -87.83610036799968)"
"8600011","1378","JOHN A BANNES SCHOOL","YES","16835  ODELL AVE ","TINLEY PARK","60477","16835 ODELL AVE
TINLEY PARK, IL 60477
(41.58510841700047, -87.79695687099968)"
"8600012","1419","FERNWAY SCHOOL","YES","16600  88TH AVE ","ORLAND PARK","60462","16600 88TH AVE
ORLAND PARK, IL 60462
(41.58907106300046, -87.83275057799966)"
"8600013","3006","FAITH UNITED METHODIST CHURCH","YES","15101 S 80TH AVE ","ORLAND PARK","60462","15101 S 80TH AVE
ORLAND PARK, IL 60462
(41.61653332700047, -87.81417923399965)"
"8600014","1378","JOHN A BANNES SCHOOL","YES","16835  ODELL AVE ","TINLEY PARK","60477","16835 ODELL AVE
TINLEY PARK, IL 60477
(41.58510841700047, -87.79695687099968)"
"8600015","3201","CENTURY JUNIOR HIGH SCHOOL","YES","10801 W 159TH ST ","ORLAND PARK","60467","10801 W 159TH ST
ORLAND PARK, IL 60467
(41.60081496400045, -87.88194790399967)"
"8600016","3692","ORLAND PARK SPORTSPLEX","YES","11351 W 159TH ST ","ORLAND PARK","60467","11351 W 159TH ST
ORLAND PARK, IL 60467
(41.600583403000485, -87.89517502299964)"
"8600017","1423","HELEN KELLER ELEMENTARY SCHOOL","YES","7846  163RD ST ","TINLEY PARK","60477","7846 163RD ST
TINLEY PARK, IL 60477
(41.59481394700049, -87.80885452099966)"
"8600018","3692","ORLAND PARK SPORTSPLEX","YES","11351 W 159TH ST ","ORLAND PARK","60467","11351 W 159TH ST
ORLAND PARK, IL 60467
(41.600583403000485, -87.89517502299964)"
"8600019","3006","FAITH UNITED METHODIST CHURCH","YES","15101 S 80TH AVE ","ORLAND PARK","60462","15101 S 80TH AVE
ORLAND PARK, IL 60462
(41.61653332700047, -87.81417923399965)"
"8600020","3692","ORLAND PARK SPORTSPLEX","YES","11351 W 159TH ST ","ORLAND PARK","60467","11351 W 159TH ST
ORLAND PARK, IL 60467
(41.600583403000485, -87.89517502299964)"
"8600021","1391","SILVER LAKE COUNTRY CLUB","YES","14700 S 82ND AVE ","ORLAND PARK","60462","14700 S 82ND AVE
ORLAND PARK, IL 60462
(41.619871770000486, -87.81927983799966)"
"8600022","1442","VILLAGE OF ORLAND HILLS","YES","16033  94TH AVE ","ORLAND HILLS","60487","16033 94TH AVE
ORLAND HILLS, IL 60487
(41.59829724600047, -87.84779101799967)"
"8600023","1431","FAITH CHRISTIAN REFORM CHURCH","YES","8383  171ST ST ","TINLEY PARK","60477","8383 171ST ST
TINLEY PARK, IL 60477
(41.579976633000456, -87.82246050799966)"
"8600024","1407","CHRISTIAN REFORM CHURCH","YES","7500  SYCAMORE DR ","ORLAND PARK","60462","7500 SYCAMORE DR
ORLAND PARK, IL 60462
(41.61468718900045, -87.80303218399968)"
"8600025","1420","ORLAN BROOK CONDOMINIUM ASSOCIATION","YES","15633  ORLAN BROOK DR ","ORLAND PARK","60462","15633 ORLAN BROOK DR
ORLAND PARK, IL 60462
(41.6066500230005, -87.83005664899969)"
"8600026","3611","ORLAND HILL COMMUNITY SENIOR CENTER","YES","16553  HAVEN AVE ","ORLAND HILLS","60487","16553 HAVEN AVE
ORLAND HILLS, IL 60487
(41.589803503000496, -87.84388908599965)"
"8600027","1407","CHRISTIAN REFORM CHURCH","YES","7500  SYCAMORE DR ","ORLAND PARK","60462","7500 SYCAMORE DR
ORLAND PARK, IL 60462
(41.61468718900045, -87.80303218399968)"
"8600028","1391","SILVER LAKE COUNTRY CLUB","YES","14700 S 82ND AVE ","ORLAND PARK","60462","14700 S 82ND AVE
ORLAND PARK, IL 60462
(41.619871770000486, -87.81927983799966)"
"8600029","3692","ORLAND PARK SPORTSPLEX","YES","11351 W 159TH ST ","ORLAND PARK","60467","11351 W 159TH ST
ORLAND PARK, IL 60467
(41.600583403000485, -87.89517502299964)"
"8600030","3006","FAITH UNITED METHODIST CHURCH","YES","15101 S 80TH AVE ","ORLAND PARK","60462","15101 S 80TH AVE
ORLAND PARK, IL 60462
(41.61653332700047, -87.81417923399965)"
"8600031","1413","ORLAND TOWNSHIP","YES","14807  RAVINIA AVE ","ORLAND PARK","60462","14807 RAVINIA AVE
ORLAND PARK, IL 60462
(41.620593786000484, -87.85711222699967)"
"8600032","1425","LIBERTY ELEMENTARY SCHOOL","YES","8801 W 151ST ST ","ORLAND PARK","60462","8801 W 151ST ST
ORLAND PARK, IL 60462
(41.61441489600048, -87.83440913299967)"
"8600033","1427","PRAIRIE ELEMENTARY SCHOOL","YES","14200 S 82ND AVE ","ORLAND PARK","60462","14200 S 82ND AVE
ORLAND PARK, IL 60462
(41.633642816000474, -87.81976952799965)"
"8600034","1407","CHRISTIAN REFORM CHURCH","YES","7500  SYCAMORE DR ","ORLAND PARK","60462","7500 SYCAMORE DR
ORLAND PARK, IL 60462
(41.61468718900045, -87.80303218399968)"
"8600035","1427","PRAIRIE ELEMENTARY SCHOOL","YES","14200 S 82ND AVE ","ORLAND PARK","60462","14200 S 82ND AVE
ORLAND PARK, IL 60462
(41.633642816000474, -87.81976952799965)"
"8600036","3611","ORLAND HILL COMMUNITY SENIOR CENTER","YES","16553  HAVEN AVE ","ORLAND HILLS","60487","16553 HAVEN AVE
ORLAND HILLS, IL 60487
(41.589803503000496, -87.84388908599965)"
"8600037","2706","RIVIERA COUNTRY CLUB","YES","8801 W 143RD ST ","ORLAND PARK","60462","8801 W 143RD ST
ORLAND PARK, IL 60462
(41.63078341400046, -87.83610036799968)"
"8600038","1428","ORLAND PARK CIVIC CENTER","YES","14750  RAVINIA AVE ","ORLAND PARK","60462","14750 RAVINIA AVE
ORLAND PARK, IL 60462
(41.622151947000475, -87.85613245699966)"
"8600039","3692","ORLAND PARK SPORTSPLEX","YES","11351 W 159TH ST ","ORLAND PARK","60467","11351 W 159TH ST
ORLAND PARK, IL 60467
(41.600583403000485, -87.89517502299964)"
"8600040","1425","LIBERTY ELEMENTARY SCHOOL","YES","8801 W 151ST ST ","ORLAND PARK","60462","8801 W 151ST ST
ORLAND PARK, IL 60462
(41.61441489600048, -87.83440913299967)"
"8600041","1423","HELEN KELLER ELEMENTARY SCHOOL","YES","7846  163RD ST ","TINLEY PARK","60477","7846 163RD ST
TINLEY PARK, IL 60477
(41.59481394700049, -87.80885452099966)"
"8600042","1415","CHRISTA MC AULIFFE SCHOOL","YES","8944  174TH ST ","TINLEY PARK","60477","8944 174TH ST
TINLEY PARK, IL 60477
(41.57480636100047, -87.83633426499966)"
"8600043","1415","CHRISTA MC AULIFFE SCHOOL","YES","8944  174TH ST ","TINLEY PARK","60477","8944 174TH ST
TINLEY PARK, IL 60477
(41.57480636100047, -87.83633426499966)"
"8600044","1431","FAITH CHRISTIAN REFORM CHURCH","YES","8383  171ST ST ","TINLEY PARK","60477","8383 171ST ST
TINLEY PARK, IL 60477
(41.579976633000456, -87.82246050799966)"
"8600045","1415","CHRISTA MC AULIFFE SCHOOL","YES","8944  174TH ST ","TINLEY PARK","60477","8944 174TH ST
TINLEY PARK, IL 60477
(41.57480636100047, -87.83633426499966)"
"8600046","1419","FERNWAY SCHOOL","YES","16600  88TH AVE ","ORLAND PARK","60462","16600 88TH AVE
ORLAND PARK, IL 60462
(41.58907106300046, -87.83275057799966)"
"8600047","3745","PARKVIEW CHRISTIAN CHURCH","YES","11100  ORLAND PWY  ","ORLAND PARK","60467","11100 ORLAND PWY
ORLAND PARK, IL 60467
(41.55711104000045, -87.88781648499969)"
"8600048","1425","LIBERTY ELEMENTARY SCHOOL","YES","8801 W 151ST ST ","ORLAND PARK","60462","8801 W 151ST ST
ORLAND PARK, IL 60462
(41.61441489600048, -87.83440913299967)"
"8600049","4485","MC CARTHY PARK","YES","16801  80TH AVE ","TINLEY PARK","60477","16801 80TH AVE
TINLEY PARK, IL 60477
(41.5851222820005, -87.81306880799968)"
"8600050","1423","HELEN KELLER ELEMENTARY SCHOOL","YES","7846  163RD ST ","TINLEY PARK","60477","7846 163RD ST
TINLEY PARK, IL 60477
(41.59481394700049, -87.80885452099966)"
"8600051","1431","FAITH CHRISTIAN REFORM CHURCH","YES","8383  171ST ST ","TINLEY PARK","60477","8383 171ST ST
TINLEY PARK, IL 60477
(41.579976633000456, -87.82246050799966)"
"8600052","1425","LIBERTY ELEMENTARY SCHOOL","YES","8801 W 151ST ST ","ORLAND PARK","60462","8801 W 151ST ST
ORLAND PARK, IL 60462
(41.61441489600048, -87.83440913299967)"
"8600053","1429","ROBERT DAVIDSON CENTER","YES","14700  PARK LN ","ORLAND PARK","60462","14700 PARK LN
ORLAND PARK, IL 60462
(41.62268445400048, -87.86689232999964)"
"8600054","1427","PRAIRIE ELEMENTARY SCHOOL","YES","14200 S 82ND AVE ","ORLAND PARK","60462","14200 S 82ND AVE
ORLAND PARK, IL 60462
(41.633642816000474, -87.81976952799965)"
"8600055","2706","RIVIERA COUNTRY CLUB","YES","8801 W 143RD ST ","ORLAND PARK","60462","8801 W 143RD ST
ORLAND PARK, IL 60462
(41.63078341400046, -87.83610036799968)"
"8600056","1429","ROBERT DAVIDSON CENTER","YES","14700  PARK LN ","ORLAND PARK","60462","14700 PARK LN
ORLAND PARK, IL 60462
(41.62268445400048, -87.86689232999964)"
"8600057","1430","ORLAND TOWNSHIP HIGHWAY DEPARTMENT","YES","16125  WOLF RD ","ORLAND PARK","60462","16125 WOLF RD
ORLAND PARK, IL 60462
(41.59628562100045, -87.89126426099966)"
"8600058","1431","FAITH CHRISTIAN REFORM CHURCH","YES","8383  171ST ST ","TINLEY PARK","60477","8383 171ST ST
TINLEY PARK, IL 60477
(41.579976633000456, -87.82246050799966)"
"8600059","1439","LIVING WORD LUTHERAN CHURCH","YES","16301  WOLF RD ","ORLAND PARK","60462","16301 WOLF RD
ORLAND PARK, IL 60462
(41.5932541090005, -87.89119126899965)"
"8600060","3745","PARKVIEW CHRISTIAN CHURCH","YES","11100  ORLAND PWY  ","ORLAND PARK","60467","11100 ORLAND PWY
ORLAND PARK, IL 60467
(41.55711104000045, -87.88781648499969)"
"8600061","1431","FAITH CHRISTIAN REFORM CHURCH","YES","8383  171ST ST ","TINLEY PARK","60477","8383 171ST ST
TINLEY PARK, IL 60477
(41.579976633000456, -87.82246050799966)"
"8600062","3006","FAITH UNITED METHODIST CHURCH","YES","15101 S 80TH AVE ","ORLAND PARK","60462","15101 S 80TH AVE
ORLAND PARK, IL 60462
(41.61653332700047, -87.81417923399965)"
"8600063","2736","TINLEY PARK POLICE DEPARTMENT","YES","7850 W 183RD ST ","TINLEY PARK","60477","7850 W 183RD ST
TINLEY PARK, IL 60477
(41.55837983800046, -87.80862301399969)"
"8600064","3875","ORLAND FIRE PROTECTION DISTRICT 3","YES","15101  WOLF RD ","ORLAND PARK","60467","15101 WOLF RD
ORLAND PARK, IL 60467
(41.615173479000475, -87.89183726999966)"
"8600065","1430","ORLAND TOWNSHIP HIGHWAY DEPARTMENT","YES","16125  WOLF RD ","ORLAND PARK","60462","16125 WOLF RD
ORLAND PARK, IL 60462
(41.59628562100045, -87.89126426099966)"
"8600066","1439","LIVING WORD LUTHERAN CHURCH","YES","16301  WOLF RD ","ORLAND PARK","60462","16301 WOLF RD
ORLAND PARK, IL 60462
(41.5932541090005, -87.89119126899965)"
"8600067","4485","MC CARTHY PARK","YES","16801  80TH AVE ","TINLEY PARK","60477","16801 80TH AVE
TINLEY PARK, IL 60477
(41.5851222820005, -87.81306880799968)"
"8600068","3201","CENTURY JUNIOR HIGH SCHOOL","YES","10801 W 159TH ST ","ORLAND PARK","60467","10801 W 159TH ST
ORLAND PARK, IL 60467
(41.60081496400045, -87.88194790399967)"
"8600069","1442","VILLAGE OF ORLAND HILLS","YES","16033  94TH AVE ","ORLAND HILLS","60487","16033 94TH AVE
ORLAND HILLS, IL 60487
(41.59829724600047, -87.84779101799967)"
"8600070","1431","FAITH CHRISTIAN REFORM CHURCH","YES","8383  171ST ST ","TINLEY PARK","60477","8383 171ST ST
TINLEY PARK, IL 60477
(41.579976633000456, -87.82246050799966)"
"8600071","3745","PARKVIEW CHRISTIAN CHURCH","YES","11100  ORLAND PWY  ","ORLAND PARK","60467","11100 ORLAND PWY
ORLAND PARK, IL 60467
(41.55711104000045, -87.88781648499969)"
"8600072","4485","MC CARTHY PARK","YES","16801  80TH AVE ","TINLEY PARK","60477","16801 80TH AVE
TINLEY PARK, IL 60477
(41.5851222820005, -87.81306880799968)"
"8600073","2736","TINLEY PARK POLICE DEPARTMENT","YES","7850 W 183RD ST ","TINLEY PARK","60477","7850 W 183RD ST
TINLEY PARK, IL 60477
(41.55837983800046, -87.80862301399969)"
"8600074","3006","FAITH UNITED METHODIST CHURCH","YES","15101 S 80TH AVE ","ORLAND PARK","60462","15101 S 80TH AVE
ORLAND PARK, IL 60462
(41.61653332700047, -87.81417923399965)"
"8600075","3692","ORLAND PARK SPORTSPLEX","YES","11351 W 159TH ST ","ORLAND PARK","60467","11351 W 159TH ST
ORLAND PARK, IL 60467
(41.600583403000485, -87.89517502299964)"
"8700001","3809","TAMARACK","YES","55 S GREELEY ST ","PALATINE","60067","55 S GREELEY ST
PALATINE, IL 60067
(42.108958474000474, -88.04736317299967)"
"8700002","3830","CHRIST THE KING LUTHERAN CHURCH","YES","100 W MICHIGAN AVE ","PALATINE","60067","100 W MICHIGAN AVE
PALATINE, IL 60067
(42.09769100300048, -88.04631901599964)"
"8700003","1525","INVERNESS PARK DISTRICT","YES","300  HIGHLAND RD ","INVERNESS","60067","300 HIGHLAND RD
INVERNESS, IL 60067
(42.114528840000446, -88.09128852399965)"
"8700004","3061","ARBOR LAKES APARTMENTS","YES","4248 N BLOOMINGTON AVE ","ARLINGTON HEIGHTS","60004","4248 N BLOOMINGTON AVE
ARLINGTON HEIGHTS, IL 60004
(42.15249513700047, -88.00752302899969)"
"8700005","1462","ROLLING MEADOWS LIBRARY","YES","3110  MARTIN LN ","ROLLING MEADOWS","60008","3110 MARTIN LN
ROLLING MEADOWS, IL 60008
(42.076000509000494, -88.01951597999965)"
"8700006","3071","GRAY M SANBORN SCHOOL","YES","101 N OAK ST ","PALATINE","60067","101 N OAK ST
PALATINE, IL 60067
(42.11202221500048, -88.03883259399964)"
"8700007","3396","PALATINE PARK DISTRICT","YES","250 E WOOD ST ","PALATINE","60067","250 E WOOD ST
PALATINE, IL 60067
(42.11308816900049, -88.03761521199965)"
"8700008","3396","PALATINE PARK DISTRICT","YES","250 E WOOD ST ","PALATINE","60067","250 E WOOD ST
PALATINE, IL 60067
(42.11308816900049, -88.03761521199965)"
"8700009","1451","WILLIAM FREMD HIGH SCHOOL","YES","1000 S QUENTIN RD ","PALATINE","60067","1000 S QUENTIN RD
PALATINE, IL 60067
(42.09342358600048, -88.06314934299968)"
"8700010","4495","SAINT PAUL UNITED CHURCH OF CHRIST","YES","401  EAST MAIN ST ","BARRINGTON","60010","401 EAST MAIN ST
BARRINGTON, IL 60010
(42.15418307400046, -88.13114660299965)"
"8700011","1494","PLUM GROVE PARK","YES","4001  PARK DR ","PALATINE","60067","4001 PARK DR
PALATINE, IL 60067
(42.06881302800048, -88.03408621899968)"
"8700012","1533","TOWNSHIP HIGH SCHOOL","YES","1750 S ROSELLE RD ","PALATINE","60067","1750 S ROSELLE RD
PALATINE, IL 60067
(42.08097991800048, -88.07794703599967)"
"8700013","1455","KIMBALL HILL SCHOOL","YES","2905  MEADOW DR ","ROLLING MEADOWS","60008","2905 MEADOW DR
ROLLING MEADOWS, IL 60008
(42.08027427900049, -88.01513439399969)"
"8700014","1531","ST JOSEPH HOME FOR THE ELDERLY","YES","80 W NORTHWEST HWY ","PALATINE","60067","80 W NORTHWEST HWY
PALATINE, IL 60067
(42.12173474800045, -88.04574475499965)"
"8700015","4450","COUNTRYSIDE CHURCH","YES","1025 N SMITH ST ","PALATINE","60067","1025 N SMITH ST
PALATINE, IL 60067
(42.1292029490005, -88.04850203599966)"
"8700016","1535","PALATINE HIGH SCHOOL","YES","1111 N ROHLWING RD ","PALATINE","60074","1111 N ROHLWING RD
PALATINE, IL 60074
(42.131813526000485, -88.02397387699966)"
"8700017","1482","STUART R PADDOCK SCHOOL","YES","225 W WASHINGTON CT ","PALATINE","60067","225 W WASHINGTON CT
PALATINE, IL 60067
(42.10931137300048, -88.05075348599968)"
"8700018","1460","CHRIST LUTHERAN CHURCH","YES","41 S ROHLWING RD ","PALATINE","60074","41 S ROHLWING RD
PALATINE, IL 60074
(42.10945620700045, -88.02409908099969)"
"8700019","1494","PLUM GROVE PARK","YES","4001  PARK DR ","PALATINE","60067","4001 PARK DR
PALATINE, IL 60067
(42.06881302800048, -88.03408621899968)"
"8700020","4230","FALCON PARK RECREATION CENTER","YES","2195 N HICKS RD ","PALATINE","60074","2195 N HICKS RD
PALATINE, IL 60074
(42.15014073500049, -88.03108783799968)"
"8700021","1463","CARL SANDBURG SCHOOL","YES","2600  MARTIN LN ","ROLLING MEADOWS","60008","2600 MARTIN LN
ROLLING MEADOWS, IL 60008
(42.07514991800048, -88.01522589999968)"
"8700022","1501","ST THOMAS VILLANOVA PARISH CENTER","YES","1201 E ANDERSON DR ","PALATINE","60074","1201 E ANDERSON DR
PALATINE, IL 60074
(42.11685364600049, -88.01443307099964)"
"8700023","1500","MARION JORDAN ELEMENTARY SCHOOL","YES","100 N HARRISON AVE ","PALATINE","60067","100 N HARRISON AVE
PALATINE, IL 60067
(42.11214854700046, -88.07294085799964)"
"8700024","1514","COMMUNITY CENTER","YES","3705  PHEASANT DR ","ROLLING MEADOWS","60008","3705 PHEASANT DR
ROLLING MEADOWS, IL 60008
(42.07145348000046, -88.02021869999965)"
"8700025","1467","WINSTON CAMPUS ELEMENTARY SCHOOL","YES","900 E PALATINE RD ","PALATINE","60074","900 E PALATINE RD
PALATINE, IL 60074
(42.11023842900045, -88.02154688499968)"
"8700026","2590","JANE ADDAMS SCHOOL","YES","1020 E SAYLES DR ","PALATINE","60074","1020 E SAYLES DR
PALATINE, IL 60074
(42.12325648400048, -88.01808330599965)"
"8700027","1535","PALATINE HIGH SCHOOL","YES","1111 N ROHLWING RD ","PALATINE","60074","1111 N ROHLWING RD
PALATINE, IL 60074
(42.131813526000485, -88.02397387699966)"
"8700028","1513","ROLLING MEADOWS CITY HALL","YES","3600  KIRCHOFF RD ","ROLLING MEADOWS","60008","3600 KIRCHOFF RD
ROLLING MEADOWS, IL 60008
(42.08015085700049, -88.02528552699965)"
"8700029","1530","HOLY FAMILY CATHOLIC CHURCH","YES","2515  PALATINE RD ","INVERNESS","60067","2515 PALATINE RD
INVERNESS, IL 60067
(42.110556113000484, -88.10598377099967)"
"8700030","4510","ONE RENAISSANCE PLACE","YES","ONE  RENAISSANCE PL ","PALATINE","60067","ONE RENAISSANCE PL
PALATINE, IL 60067
(42.12225857600049, -88.03802982199966)"
"8700031","1473","VIRGINIA LAKE SCHOOL","YES","925 N GLENN DR ","PALATINE","60074","925 N GLENN DR
PALATINE, IL 60074
(42.12706974600047, -88.02298558899969)"
"8700032","3663","PALATINE TOWNSHIP CENTER","YES","721 S QUENTIN RD ","PALATINE","60067","721 S QUENTIN RD
PALATINE, IL 60067
(42.0967444260005, -88.0630670709997)"
"8700033","4230","FALCON PARK RECREATION CENTER","YES","2195 N HICKS RD ","PALATINE","60074","2195 N HICKS RD
PALATINE, IL 60074
(42.15014073500049, -88.03108783799968)"
"8700034","1523","KOREAN CHURCH OF CHICAGO","YES","1500 W ALGONQUIN RD ","HOFFMAN ESTATES","60195","1500 W ALGONQUIN RD
HOFFMAN ESTATES, IL 60195
(42.08967959400047, -88.11486435299969)"
"8700035","3663","PALATINE TOWNSHIP CENTER","YES","721 S QUENTIN RD ","PALATINE","60067","721 S QUENTIN RD
PALATINE, IL 60067
(42.0967444260005, -88.0630670709997)"
"8700036","1476","RECREATION CENTER","YES","3600  LEXINGTON DR ","HOFFMAN ESTATES","60195","3600 LEXINGTON DR
HOFFMAN ESTATES, IL 60195
(42.08912647900047, -88.10491117699968)"
"8700037","1530","HOLY FAMILY CATHOLIC CHURCH","YES","2515  PALATINE RD ","INVERNESS","60067","2515 PALATINE RD
INVERNESS, IL 60067
(42.110556113000484, -88.10598377099967)"
"8700038","3663","PALATINE TOWNSHIP CENTER","YES","721 S QUENTIN RD ","PALATINE","60067","721 S QUENTIN RD
PALATINE, IL 60067
(42.0967444260005, -88.0630670709997)"
"8700039","1481","SALT CREEK RURAL PARK DISTRICT","YES","530 S WILLIAMS AVE ","PALATINE","60074","530 S WILLIAMS AVE
PALATINE, IL 60074
(42.10064397400049, -88.00954491199968)"
"8700040","1482","STUART R PADDOCK SCHOOL","YES","225 W WASHINGTON CT ","PALATINE","60067","225 W WASHINGTON CT
PALATINE, IL 60067
(42.10931137300048, -88.05075348599968)"
"8700041","1483","PLUM GROVE JUNIOR HIGH SCHOOL","YES","2600  PLUM GROVE RD ","ROLLING MEADOWS","60008","2600 PLUM GROVE RD
ROLLING MEADOWS, IL 60008
(42.08302108100048, -88.04387913299968)"
"8700042","1487","PALATINE PUBLIC LIBRARY","YES","700 N NORTH CT ","PALATINE","60067","700 N NORTH CT
PALATINE, IL 60067
(42.12182174600048, -88.03668978899964)"
"8700043","1526","THOMAS JEFFERSON SCHOOL","YES","3805  WINSTON DR ","HOFFMAN ESTATES","60195","3805 WINSTON DR
HOFFMAN ESTATES, IL 60195
(42.09242714700048, -88.09912715099966)"
"8700044","1525","INVERNESS PARK DISTRICT","YES","300  HIGHLAND RD ","INVERNESS","60067","300 HIGHLAND RD
INVERNESS, IL 60067
(42.114528840000446, -88.09128852399965)"
"8700045","1487","PALATINE PUBLIC LIBRARY","YES","700 N NORTH CT ","PALATINE","60067","700 N NORTH CT
PALATINE, IL 60067
(42.12182174600048, -88.03668978899964)"
"8700046","1488","PRINCE OF PEACE LUTHERAN CHURCH","YES","1190 N HICKS RD ","PALATINE","60067","1190 N HICKS RD
PALATINE, IL 60067
(42.133208151000474, -88.03392718999964)"
"8700047","1489","WILLOW CREEK CLUBHOUSE","YES","242 S CLUB HOUSE DR ","PALATINE","60074","242 S CLUB HOUSE DR
PALATINE, IL 60074
(42.10420070100048, -88.02113262899968)"
"8700048","1490","HUNTING RIDGE SCHOOL","YES","1105 W ILLINOIS AVE ","PALATINE","60067","1105 W ILLINOIS AVE
PALATINE, IL 60067
(42.09566320400046, -88.07071991399965)"
"8700049","4495","SAINT PAUL UNITED CHURCH OF CHRIST","YES","401  EAST MAIN ST ","BARRINGTON","60010","401 EAST MAIN ST
BARRINGTON, IL 60010
(42.15418307400046, -88.13114660299965)"
"8700050","1526","THOMAS JEFFERSON SCHOOL","YES","3805  WINSTON DR ","HOFFMAN ESTATES","60195","3805 WINSTON DR
HOFFMAN ESTATES, IL 60195
(42.09242714700048, -88.09912715099966)"
"8700051","1493","CHURCH OF CHRIST","YES","2300  CARDINAL DR ","ROLLING MEADOWS","60008","2300 CARDINAL DR
ROLLING MEADOWS, IL 60008
(42.085936794000474, -88.02219453399965)"
"8700052","1494","PLUM GROVE PARK","YES","4001  PARK DR ","PALATINE","60067","4001 PARK DR
PALATINE, IL 60067
(42.06881302800048, -88.03408621899968)"
"8700053","1495","LAKE LOUISE SCHOOL","YES","500 N JONATHAN DR ","PALATINE","60074","500 N JONATHAN DR
PALATINE, IL 60074
(42.11964045600047, -88.00768309599965)"
"8700054","1488","PRINCE OF PEACE LUTHERAN CHURCH","YES","1190 N HICKS RD ","PALATINE","60067","1190 N HICKS RD
PALATINE, IL 60067
(42.133208151000474, -88.03392718999964)"
"8700055","1530","HOLY FAMILY CATHOLIC CHURCH","YES","2515  PALATINE RD ","INVERNESS","60067","2515 PALATINE RD
INVERNESS, IL 60067
(42.110556113000484, -88.10598377099967)"
"8700056","3926","BUEHLER YMCA","YES","1400 W NORTHWEST HWY ","PALATINE","60067","1400 W NORTHWEST HWY
PALATINE, IL 60067
(42.12548926000045, -88.07568505299969)"
"8700057","1496","WALTER R SUNDLING JUNIOR HIGH SCHOOL","YES","1100 N SMITH ST ","PALATINE","60067","1100 N SMITH ST
PALATINE, IL 60067
(42.13038362600048, -88.04858508099966)"
"8700058","4230","FALCON PARK RECREATION CENTER","YES","2195 N HICKS RD ","PALATINE","60074","2195 N HICKS RD
PALATINE, IL 60074
(42.15014073500049, -88.03108783799968)"
"8700059","1535","PALATINE HIGH SCHOOL","YES","1111 N ROHLWING RD ","PALATINE","60074","1111 N ROHLWING RD
PALATINE, IL 60074
(42.131813526000485, -88.02397387699966)"
"8700060","4230","FALCON PARK RECREATION CENTER","YES","2195 N HICKS RD ","PALATINE","60074","2195 N HICKS RD
PALATINE, IL 60074
(42.15014073500049, -88.03108783799968)"
"8700061","1535","PALATINE HIGH SCHOOL","YES","1111 N ROHLWING RD ","PALATINE","60074","1111 N ROHLWING RD
PALATINE, IL 60074
(42.131813526000485, -88.02397387699966)"
"8700062","4070","TREE HOUSE APARTMENTS CLUBHOUSE","YES","1130  TALL TIMBERS RD ","SCHAUMBURG","60173","1130 TALL TIMBERS RD
SCHAUMBURG, IL 60173
(42.07230641900048, -88.05245938699966)"
"8700063","1513","ROLLING MEADOWS CITY HALL","YES","3600  KIRCHOFF RD ","ROLLING MEADOWS","60008","3600 KIRCHOFF RD
ROLLING MEADOWS, IL 60008
(42.08015085700049, -88.02528552699965)"
"8700064","4450","COUNTRYSIDE CHURCH","YES","1025 N SMITH ST ","PALATINE","60067","1025 N SMITH ST
PALATINE, IL 60067
(42.1292029490005, -88.04850203599966)"
"8700065","1530","HOLY FAMILY CATHOLIC CHURCH","YES","2515  PALATINE RD ","INVERNESS","60067","2515 PALATINE RD
INVERNESS, IL 60067
(42.110556113000484, -88.10598377099967)"
"8700066","1529","GROVES OF HIDDEN CREEK","YES","1700 N HIDDEN CREEK CIR ","PALATINE","60067","1700 N HIDDEN CREEK CIR
PALATINE, IL 60067
(42.11128685800048, -88.05730783199965)"
"8700067","1509","VILLAGE OF INVERNESS","YES","1400  BALDWIN RD ","INVERNESS","60067","1400 BALDWIN RD
INVERNESS, IL 60067
(42.12457362200047, -88.07792311399965)"
"8700068","3830","CHRIST THE KING LUTHERAN CHURCH","YES","100 W MICHIGAN AVE ","PALATINE","60067","100 W MICHIGAN AVE
PALATINE, IL 60067
(42.09769100300048, -88.04631901599964)"
"8700069","3926","BUEHLER YMCA","YES","1400 W NORTHWEST HWY ","PALATINE","60067","1400 W NORTHWEST HWY
PALATINE, IL 60067
(42.12548926000045, -88.07568505299969)"
"8800001","3724","NATIVITY BVM UKRANIAN CATHOLIC CHURCH","YES","8530 W 131ST ST ","PALOS PARK","60464","8530 W 131ST ST
PALOS PARK, IL 60464
(41.652878417000466, -87.82856098799965)"
"8800002","1549","PALOS PARK RECREATION CENTER","YES","8901 W 123RD ST ","PALOS PARK","60464","8901 W 123RD ST
PALOS PARK, IL 60464
(41.66715292600048, -87.83781894699968)"
"8800003","1592","PALOS HEIGHTS ADMINISTRATION BUILDING","YES","7607 W COLLEGE DR ","PALOS HEIGHTS","60463","7607 W COLLEGE DR
PALOS HEIGHTS, IL 60463
(41.67509463200048, -87.80661834699964)"
"8800004","4460","KRUEGER PARK RECREATION CENTER","YES","9100 S 88TH AVE ","HICKORY HILLS","60457","9100 S 88TH AVE
HICKORY HILLS, IL 60457
(41.725512584000455, -87.83756264199968)"
"8800005","3501","GREEN HILLS LIBRARY","YES","8611 W 103RD ST ","PALOS HILLS","60465","8611 W 103RD ST
PALOS HILLS, IL 60465
(41.70369759400046, -87.83219734899967)"
"8800006","2851","ROSEBUD MHC","YES","8800 S HARLEM AVE ","BRIDGEVIEW","60455","8800 S HARLEM AVE
BRIDGEVIEW, IL 60455
(41.7312094130005, -87.79906186099964)"
"8800007","3521","PALOS HILLS COMMUNITY CENTER","YES","8455 W 103RD ST ","PALOS HILLS","60465","8455 W 103RD ST
PALOS HILLS, IL 60465
(41.70375754100047, -87.82904336299964)"
"8800008","1551","WORTHWOOD SCHOOL","YES","11000 S OKETO AVE ","WORTH","60482","11000 S OKETO AVE
WORTH, IL 60482
(41.69152263500047, -87.80232350999967)"
"8800009","2606","LUTHERAN CHURCH OF GOOD SHEPHERD","YES","7800 W MC CARTHY RD ","PALOS HEIGHTS","60463","7800 W MC CARTHY RD
PALOS HEIGHTS, IL 60463
(41.66515013600048, -87.81177235799964)"
"8800010","1549","PALOS PARK RECREATION CENTER","YES","8901 W 123RD ST ","PALOS PARK","60464","8901 W 123RD ST
PALOS PARK, IL 60464
(41.66715292600048, -87.83781894699968)"
"8800011","1595","ALL SAINTS LUTHERAN CHURCH","YES","13350  LA GRANGE RD ","ORLAND PARK","60462","13350 LA GRANGE RD
ORLAND PARK, IL 60462
(41.64845607400048, -87.85396119499967)"
"8800012","1551","WORTHWOOD SCHOOL","YES","11000 S OKETO AVE ","WORTH","60482","11000 S OKETO AVE
WORTH, IL 60482
(41.69152263500047, -87.80232350999967)"
"8800013","1589","PEACE MEMORIAL CHURCH","YES","10300  131ST ST ","PALOS PARK","60464","10300 131ST ST
PALOS PARK, IL 60464
(41.65199807400046, -87.87075063399965)"
"8800014","3136","PALOS HILLS GOLF COURSE","YES","7301 W 105TH ST ","PALOS HILLS","60465","7301 W 105TH ST
PALOS HILLS, IL 60465
(41.7010807420005, -87.79976438499966)"
"8800015","2606","LUTHERAN CHURCH OF GOOD SHEPHERD","YES","7800 W MC CARTHY RD ","PALOS HEIGHTS","60463","7800 W MC CARTHY RD
PALOS HEIGHTS, IL 60463
(41.66515013600048, -87.81177235799964)"
"8800016","3724","NATIVITY BVM UKRANIAN CATHOLIC CHURCH","YES","8530 W 131ST ST ","PALOS PARK","60464","8530 W 131ST ST
PALOS PARK, IL 60464
(41.652878417000466, -87.82856098799965)"
"8800017","3146","HICKORY HILLS COMMUNITY CENTER","YES","7800 W 89TH PL ","HICKORY HILLS","60457","7800 W 89TH PL
HICKORY HILLS, IL 60457
(41.72871470000047, -87.81300827599966)"
"8800018","1590","HICKORY HILLS PRESBYTERIAN CHURCH","YES","8426 W 95TH ST ","HICKORY HILLS","60457","8426 W 95TH ST
HICKORY HILLS, IL 60457
(41.71837757300045, -87.82822106499964)"
"8800019","1550","ST PATRICIA PARISH","YES","9000 S 86TH AVE ","HICKORY HILLS","60457","9000 S 86TH AVE
HICKORY HILLS, IL 60457
(41.727354077000484, -87.83282345099968)"
"8800020","1543","CITY OF HICKORY HILLS","YES","8652 W 95TH ST ","HICKORY HILLS","60457","8652 W 95TH ST
HICKORY HILLS, IL 60457
(41.71828832500046, -87.83429097699968)"
"8800021","3730","SACRED HEART PARISH","YES","8245 W 111TH ST ","PALOS HILLS","60465","8245 W 111TH ST
PALOS HILLS, IL 60465
(41.68932986700048, -87.82350204099964)"
"8800022","1594","WILLOWBROOK BALLROOM","YES","8900 S ARCHER AVE ","WILLOW SPRINGS","60480","8900 S ARCHER AVE
WILLOW SPRINGS, IL 60480
(41.727780192000466, -87.88166619999964)"
"8800023","3146","HICKORY HILLS COMMUNITY CENTER","YES","7800 W 89TH PL ","HICKORY HILLS","60457","7800 W 89TH PL
HICKORY HILLS, IL 60457
(41.72871470000047, -87.81300827599966)"
"8800024","3724","NATIVITY BVM UKRANIAN CATHOLIC CHURCH","YES","8530 W 131ST ST ","PALOS PARK","60464","8530 W 131ST ST
PALOS PARK, IL 60464
(41.652878417000466, -87.82856098799965)"
"8800025","3516","UNIVERSAL SCHOOL","YES","7350 W 93RD ST ","BRIDGEVIEW","60455","7350 W 93RD ST
BRIDGEVIEW, IL 60455
(41.72252053300048, -87.80213203499966)"
"8800026","3226","CITY OF PALOS HILLS","YES","10335 S ROBERTS RD ","PALOS HILLS","60465","10335 S ROBERTS RD
PALOS HILLS, IL 60465
(41.7030303730005, -87.81723346299964)"
"8800027","1590","HICKORY HILLS PRESBYTERIAN CHURCH","YES","8426 W 95TH ST ","HICKORY HILLS","60457","8426 W 95TH ST
HICKORY HILLS, IL 60457
(41.71837757300045, -87.82822106499964)"
"8800028","3501","GREEN HILLS LIBRARY","YES","8611 W 103RD ST ","PALOS HILLS","60465","8611 W 103RD ST
PALOS HILLS, IL 60465
(41.70369759400046, -87.83219734899967)"
"8800029","1549","PALOS PARK RECREATION CENTER","YES","8901 W 123RD ST ","PALOS PARK","60464","8901 W 123RD ST
PALOS PARK, IL 60464
(41.66715292600048, -87.83781894699968)"
"8800030","1592","PALOS HEIGHTS ADMINISTRATION BUILDING","YES","7607 W COLLEGE DR ","PALOS HEIGHTS","60463","7607 W COLLEGE DR
PALOS HEIGHTS, IL 60463
(41.67509463200048, -87.80661834699964)"
"8800031","3131","SAVIOR DIVINE LUTHERAN CHURCH","YES","10040 S 88TH AVE ","PALOS HILLS","60465","10040 S 88TH AVE
PALOS HILLS, IL 60465
(41.70798921700049, -87.83686598799966)"
"8800032","3141","PALOS TOWNSHIP HALL","YES","10802 S ROBERTS RD ","PALOS HILLS","60465","10802 S ROBERTS RD
PALOS HILLS, IL 60465
(41.6950644100005, -87.81700842099968)"
"8800033","1586","OAK HILLS CONDOMINIUMS","YES","13250 S 76TH AVE ","PALOS HEIGHTS","60463","13250 S 76TH AVE
PALOS HEIGHTS, IL 60463
(41.65023077300049, -87.80557811699964)"
"8800034","3730","SACRED HEART PARISH","YES","8245 W 111TH ST ","PALOS HILLS","60465","8245 W 111TH ST
PALOS HILLS, IL 60465
(41.68932986700048, -87.82350204099964)"
"8800035","3521","PALOS HILLS COMMUNITY CENTER","YES","8455 W 103RD ST ","PALOS HILLS","60465","8455 W 103RD ST
PALOS HILLS, IL 60465
(41.70375754100047, -87.82904336299964)"
"8800036","3730","SACRED HEART PARISH","YES","8245 W 111TH ST ","PALOS HILLS","60465","8245 W 111TH ST
PALOS HILLS, IL 60465
(41.68932986700048, -87.82350204099964)"
"8800037","1589","PEACE MEMORIAL CHURCH","YES","10300  131ST ST ","PALOS PARK","60464","10300 131ST ST
PALOS PARK, IL 60464
(41.65199807400046, -87.87075063399965)"
"8800038","3226","CITY OF PALOS HILLS","YES","10335 S ROBERTS RD ","PALOS HILLS","60465","10335 S ROBERTS RD
PALOS HILLS, IL 60465
(41.7030303730005, -87.81723346299964)"
"8800039","1589","PEACE MEMORIAL CHURCH","YES","10300  131ST ST ","PALOS PARK","60464","10300 131ST ST
PALOS PARK, IL 60464
(41.65199807400046, -87.87075063399965)"
"8900001","1601","LINCOLN SCHOOL","NO","811 W CHICAGO AVE ","MAYWOOD","60153","811 W CHICAGO AVE
MAYWOOD, IL 60153
(41.89350792200048, -87.84329758499968)"
"8900002","1601","LINCOLN SCHOOL","NO","811 W CHICAGO AVE ","MAYWOOD","60153","811 W CHICAGO AVE
MAYWOOD, IL 60153
(41.89350792200048, -87.84329758499968)"
"8900003","3845","HILLSIDE COMMUNITY CENTER","YES","1 N LIND AVE ","HILLSIDE","60162","1 N LIND AVE
HILLSIDE, IL 60162
(41.86999166300046, -87.90607581199964)"
"8900004","1630","LEXINGTON SCHOOL","YES","415 W LEXINGTON ST ","MAYWOOD","60153","415 W LEXINGTON ST
MAYWOOD, IL 60153
(41.86991043100045, -87.83753097799968)"
"8900005","1751","ROOSEVELT SCHOOL","YES","1927 S 15TH AVE ","MAYWOOD","60153","1927 S 15TH AVE
MAYWOOD, IL 60153
(41.880922040000485, -87.85142282499964)"
"8900006","2821","HOLY APOSTLES GREEK ORTHODOX CHURCH","YES","2501 S WOLF RD ","WESTCHESTER","60154","2501 S WOLF RD
WESTCHESTER, IL 60154
(41.8439723890005, -87.90112696299968)"
"8900007","1755","CONCORD PLAZA","YES","401 W LAKE ST ","NORTHLAKE","60164","401 W LAKE ST
NORTHLAKE, IL 60164
(41.906144199000494, -87.91754825599969)"
"8900008","1668","FIELD STEVENSON SCHOOL","YES","925  BELOIT AVE ","FOREST PARK","60130","925 BELOIT AVE
FOREST PARK, IL 60130
(41.86986067000049, -87.81169082699967)"
