"ret_type","return_type_desc","business_name","address_1","address_2","state","zip"
"1","Liquor Home Rule Tax","A.B. COMPANY OF WISCONSIN, INC.","6525 PROESEL AVE.",,"IL","60712"
"1","Liquor Home Rule Tax","ABRUZZI WINE CO.","15 W. 23RD STREET",,"IL","60411"
"1","Liquor Home Rule Tax","AGAVES AGRICOLA CURIEL","523 S. RIVER STREET",,"IL","60505"
"1","Liquor Home Rule Tax","AL CAPONE DIST., INC.","220 N. 4TH STREET",,"IL","60174"
"1","Liquor Home Rule Tax","AMBERLAND LIQUOR DIST., INC.","3415 CHURCH ST",,"IL","60076"
"1","Liquor Home Rule Tax","AMERICAN WHOLSALER WINE & SPRT","4300 REGENCY DR",,"IL","60025"
"1","Liquor Home Rule Tax","AMPED IGUANA LLC","4036 N. LINCOLN AVE",,"IL","60618"
"1","Liquor Home Rule Tax","ARTISAN BEVERAGE CO.","2220 ARTHUR AVE.",,"IL","60007"
"1","Liquor Home Rule Tax","ATOMIC BRANDS, INC.","500  W. SUPERIOR ST., STE.  1312",,"IL","60654"
"1","Liquor Home Rule Tax","BALTIC FOOD DISTRIBUTING","1349 ENTERPRISE DR.",,"IL","60446"
"1","Liquor Home Rule Tax","BATTAGLIA DIST. CO., INC.","2545 S ASHLAND AVE",,"IL","60608"
"1","Liquor Home Rule Tax","BAUM WINE IMPORTS, INC.","480 N. YORK RD",,"IL","60106-1606"
"1","Liquor Home Rule Tax","BEIVUMA, INC.","2885 DIEHL ROAD",,"IL","60540"
"1","Liquor Home Rule Tax","BELARMIN, INC.","140 SHEPARD AVE UNIT G",,"IL","60090"
"1","Liquor Home Rule Tax","BEST WINE & SPIRIT, INC.","4425 W MONTROSE AVE",,"IL","60641"
"1","Liquor Home Rule Tax","BEV ART/WILD BLOSSOM","10033 S. WESTERN AVE.",,"IL","60643"
"1","Liquor Home Rule Tax","BINNY BEVERAGE DEPOT","1132 S. JEFFERSON",,"IL","60607"
"1","Liquor Home Rule Tax","BINNY'S BEVERAGE DEPOT","767 W GOLF RD",,"IL","60016"
"1","Liquor Home Rule Tax","BINNY'S BEVERAGE DEPOT","323 W GOLF RD",,"IL","60173"
"1","Liquor Home Rule Tax","BINNY'S BEVERAGE DEPOT","7300 W NORTH AVE",,"IL","60707"
"1","Liquor Home Rule Tax","BINNY'S BEVERAGE DEPOT","8935 N MILWAUKEE AVE",,"IL","60714"
"1","Liquor Home Rule Tax","BINNY'S BEVERAGE DEPOT","103A ORLAND PARK PL",,"IL","60462"
"1","Liquor Home Rule Tax","BLINK BEVERAGE LLC","2220 ARTHUR AVE",,"IL","60007"
"1","Liquor Home Rule Tax","BLUE RIBBON PRODUCTS CO.","2410 W MC DONOUGH ST",,"IL","60436"
"1","Liquor Home Rule Tax","BLUE STAR INTERNATIONAL IMPORT","49 E OAK ST PENTHSE",,"IL","60611"
"1","Liquor Home Rule Tax","BON VIVANT DISTRIBUTING LLC","1100 W. MONTROSE AVE., UNIT 504",,"IL","60613"
"1","Liquor Home Rule Tax","BOZIC'S IMPORTS & WHOLESALE LQ","6906 FOREST PRESERVE DR",,"IL","60706"
"1","Liquor Home Rule Tax","BURKE BEVERAGES, INC.","536 EAST AVE",,"IL","60525"
"1","Liquor Home Rule Tax","CAMARYN WINE & SPIRITS, INC.","2220 ARTHUR AVE",,"IL","60007"
"1","Liquor Home Rule Tax","CENTRAL BEVERAGE CO.","2601 S 25TH AVE",,"IL","60153"
"1","Liquor Home Rule Tax","CHEESE CHALET III","GOLD STANDARD ENTERPRISES","LOCATION: CHICAGO-53RD ST","IL","60714"
"1","Liquor Home Rule Tax","CHELSEA VENTURES, LLC","1601 S. CANAL STREET",,"IL","60616"
"1","Liquor Home Rule Tax","CHICAGO BEER DIST., CO.","2064 W 167TH ST",,"IL","60426"
"1","Liquor Home Rule Tax","CHICAGO DISTRIBUTING LLC","4841 S CALIFORNIA AVE",,"IL","60632"
"1","Liquor Home Rule Tax","CHICAGO WINE SOURCE LTD","2220 ARTHUR AVE",,"IL","60007"
"1","Liquor Home Rule Tax","CHICAGOLAND WINE SCENE","3942 N LOWELL AVE",,"IL","60641"
"1","Liquor Home Rule Tax","CITY BEVERAGE-ARLINGTON HGHTS","1401 E ALGONQUIN ROAD",,"IL","60005"
"1","Liquor Home Rule Tax","CLD IMPORTS LLC","1300 S GROVE AVE STE.204",,"IL","60010"
"1","Liquor Home Rule Tax","CONNOISSEUR WINE","7510 CALDWELL AVE.",,"IL","60714"
"1","Liquor Home Rule Tax","CRACOVIA, INC.","5632 N. NORTHWEST HWY.",,"IL","60646"
"1","Liquor Home Rule Tax","CREAM WINE CO., LLC","118 N PEORIA, 3RD FLOOR",,"IL","60607"
"1","Liquor Home Rule Tax","CROWN IMPORTS LLC","1 S. DEARBORN, STE. 1700",,"IL","60603"
"1","Liquor Home Rule Tax","D. M. EMPORIUM IMPORTS, INC.","2803 N 76TH CT",,"IL","60635"
"1","Liquor Home Rule Tax","D.W.S. DIRECT WAREHOUSE SALES","250 N. ARTESIAN AVE.",,"IL","60612"
"1","Liquor Home Rule Tax","DALMATA IMPORT CO.","5768 W. 77TH STREET",,"IL","60459"
"1","Liquor Home Rule Tax","DE VINE DISTRIBUTORS LLC","3034 W. DEVON AVE., STE. 104",,"IL","60659"
"1","Liquor Home Rule Tax","DI TOMMASO IMPORTS","2220 ARTHUR AVE",,"IL","60007"
"1","Liquor Home Rule Tax","DIME GROUP INTERNATIONAL, INC.","1340 ENSELL ROAD",,"IL","60047"
"1","Liquor Home Rule Tax","DISTINCTIVE IMPORTS LLC","2220 ARTHUR AVE",,"IL","60007"
"1","Liquor Home Rule Tax","DOWNUNDER BEVERAGE LLC","520 W HURON, STE.611",,"IL","60610"
"1","Liquor Home Rule Tax","EAGLE EYE IMPORTS-ILLINOIS LLC","1600 S ASHLAND AVE",,"IL","60613"
"1","Liquor Home Rule Tax","ELGIN BEVERAGE CO.","1685 FLEETWOOD DR",,"IL","60123"
"1","Liquor Home Rule Tax","ENOTRENDS LLC","675 E. IRVING PARK ROAD, SUITE 301-C",,"IL","60172"
"1","Liquor Home Rule Tax","ENYE DISTRIBUTION GROUP, INC.","2220 ARTHUR AVE.",,"IL","60007"
"1","Liquor Home Rule Tax","EUCLID BEVERAGE, LTD.","200 OVERLAND DR",,"IL","60542"
"1","Liquor Home Rule Tax","EUROPEAN HERITAGE WINES & SPRT","507 WEST GOLF ROAD",,"IL","60005"
"1","Liquor Home Rule Tax","EXPEDITION WINES & SPIRITS LLC","1040 SUNSET ROAD",,"IL","60093"
"1","Liquor Home Rule Tax","EXPRESSIONS OF CULTURE","992 PINE STREET",,"IL","60093"
"1","Liquor Home Rule Tax","FANTIS IMPORTS, INC.","3612 N ACORN LN",,"IL","60131"
"1","Liquor Home Rule Tax","FOOD DEPOT INTERNATIONAL","1178 FLEX COURT",,"IL","60047"
"1","Liquor Home Rule Tax","FOTIS & SONS IMPORTS CHICAGO","540 WINDY POINT",,"IL","60139"
"1","Liquor Home Rule Tax","FRESH ISLAND JUICE CO., INC.","153 S WHEELING RD",,"IL","60090"
"1","Liquor Home Rule Tax","FUJIYAMA SAKE INC.","383 CROSSEN AVE.",,"IL","60007"
"1","Liquor Home Rule Tax","FULTON STREET BREWERY LLC","1800 W FULTON ST",,"IL","60612"
"1","Liquor Home Rule Tax","GARCIA'S WHOLESALE WINE & SPRT","2445 W. 24TH PLACE, SUITE D & E",,"IL","60608"
"1","Liquor Home Rule Tax","GARNACHA LTD","215 PARK STREET",,"IL","60106"
"1","Liquor Home Rule Tax","GENEVA BOTTLING WORKS, INC.","302-324 N. RIVER ROAD",,"IL","60134"
"1","Liquor Home Rule Tax","GLAZER'S DIST OF ILLINOIS, INC","2600 W 35TH ST",,"IL","60632"
"1","Liquor Home Rule Tax","GLOBAL WHOLESALER WINE & SPIRITS, INC.","724 ANTHONY TRAIL",,"IL","60062"
"1","Liquor Home Rule Tax","GNG DISTRIBUTING OF IL LTD.","405 SOUTH 12TH AVE.",,"IL","60174"
"1","Liquor Home Rule Tax","GOLD STANDARD ENTERPRISES","3000 N CLARK ST",,"IL","60657"
"1","Liquor Home Rule Tax","GOLD STANDARD ENTERPRISES","71 LINDEN AVE",,"IL","60022"
"1","Liquor Home Rule Tax","GOLD STANDARD ENTERPRISES","3121 THATCHER",,"IL","60171"
"1","Liquor Home Rule Tax","GOLD STANDARD ENTERPRISES","5100 W DEMPSTER ST",,"IL","60077"
"1","Liquor Home Rule Tax","GOLD STANDARD ENTERPRISES","213 W GRAND AVE",,"IL","60610"
"1","Liquor Home Rule Tax","GOOSE ISLAND BREWING CO","1800 N CLYBOURN",,"IL","60614"
"1","Liquor Home Rule Tax","GOOSE ISLAND WRIGLEYVILLE","3535 N CLARK",,"IL","60657"
"1","Liquor Home Rule Tax","GRANT IMPORTING & DIST. CO","2701 W 23RD ST",,"IL","60155"
"1","Liquor Home Rule Tax","GRAPE NEWS IMPORTING LTD.","1537 W WOLFRAM",,"IL","60657"
"1","Liquor Home Rule Tax","GRECIAN WINES & SPIRITS DIST.","755 THOMAS DR",,"IL","60106"
"1","Liquor Home Rule Tax","H2 VINO","520 W ROSCOE STE. B",,"IL","60657"
"1","Liquor Home Rule Tax","HAUS WINE & SPIRITS, INC .","4250 N MARINE DR UNIT 1116",,"IL","60613"
"1","Liquor Home Rule Tax","HAYES BEER DIST., CO.","12160 S CENTRAL AVE",,"IL","60803"
"1","Liquor Home Rule Tax","HEINEKEN USA INCORPORATED","50 MAIN ST",,"NY","10606"
"1","Liquor Home Rule Tax","HERITAGE WINE CELLARS","6600 W. HOWARD ST",,"IL","60714"
"1","Liquor Home Rule Tax","HIRAM WALKER DIST., INC.","1 TOWER LANE ST.2670",,"IL","60181"
"1","Liquor Home Rule Tax","IA DISTRIBUTING","1300 THIRD STREET",,"IL","62046"
"1","Liquor Home Rule Tax","IMPERIAL DISTRIBUTORS, INC.","2961 OLD HIGGINS ROAD",,"IL","60007"
"1","Liquor Home Rule Tax","IMPORTS INC./CHICAGO","1850 N LEAVITT ST",,"IL","60647"
"1","Liquor Home Rule Tax","INTERTRADE USA CO.","540 W. COLFAX STREET, SUITE 1",,"IL","60067"
"1","Liquor Home Rule Tax","ISLAND SPIRITS DISTRIBUTION","1187 ROSE AVE.",,"IL","60554"
"1","Liquor Home Rule Tax","J & B BRANDS CO.","3250 N. KILPATRICK AVE.",,"IL","60641"
"1","Liquor Home Rule Tax","J & B BRANDS CORP.","6238 W. ADDISON STREET",,"IL","60634-4101"
"1","Liquor Home Rule Tax","J & B IMPORT, INC.","3238 N KILPATRICK AVE",,"IL","60641"
"1","Liquor Home Rule Tax","JAY MIDWEST, INC.","6356 OAKTON ST",,"IL","60053"
"1","Liquor Home Rule Tax","JDI IMPORTS","2259 N MONTICELLO",,"IL","60647"
"1","Liquor Home Rule Tax","JFC INTERNATIONAL, INC.","815 TURNBERRY CT",,"IL","60103"
"1","Liquor Home Rule Tax","JIN TRADING CORP.","2121 S. FOSTER AVE.",,"IL","60090"
"1","Liquor Home Rule Tax","JM SELECT, INC.","1427 W. JEFFREY DRIVE",,"IL","60101"
"1","Liquor Home Rule Tax","JOHNSON BROTHERS LIQUOR CO. OF CA",,,,
"1","Liquor Home Rule Tax","JOM WINE & SPIRIT, INC.","1724 N RAND ROAD",,"IL","60074"
"1","Liquor Home Rule Tax","JOMADA IMPORTS","500 CAPITAL DRIVE",,"IL","60047"
"1","Liquor Home Rule Tax","JOSEPH MULLARKEY DIST.","2200 RIDGE DR",,"IL","60025"
"1","Liquor Home Rule Tax","JULIENNE IMPORTING CO","2725 W COYLE",,"IL","60645"
"1","Liquor Home Rule Tax","K GLOBAL FOOD, INC.","880 N. ENTERPRISES STREET, STE. J",,"IL","60084"
"1","Liquor Home Rule Tax","KERN IMPORTERS & MKGT, INC.","266 GOLFVIEW TER",,"IL","60067-2464"
"1","Liquor Home Rule Tax","KOREN FOODS CORP.","3426 W. TOUHY AVE.",,"IL","60712"
"1","Liquor Home Rule Tax","KOVAL DISTILLERY","5121 N. RAVENWOOD AVE",,"IL","60640"
"14","Parking Home Rule Tax","CARMEN'S LOT","1119 W ADDISON",,"IL","60613"
"1","Liquor Home Rule Tax","KOVEX IMPORTS, INC.","5080 N. KIMBERLY AVE., UNIT 102",,"IL","60630"
"1","Liquor Home Rule Tax","KOZOL BROTHERS INC.","2010 S BRIGGS ST",,"IL","60433"
"1","Liquor Home Rule Tax","L & V DISTRIBUTORS","8108 PYOTT RD",,"IL","60039"
"1","Liquor Home Rule Tax","LA PREFERDA, INC.","3400 W 35TH ST",,"IL","60632"
"1","Liquor Home Rule Tax","LAGNIAPPE LLC","728 W. JACKSON, STE. 307",,"IL","60661"
"1","Liquor Home Rule Tax","LEONEL & NOEL INC","4476 N ELSTON AVE",,"IL","60630"
"1","Liquor Home Rule Tax","LION DISTRIBUTORS","3687 COMMERCIAL AVE",,"IL","60062"
"1","Liquor Home Rule Tax","LITUSCO DISTRIBUTING CO.","844 EAGLE DRIVE",,"IL","60106"
"1","Liquor Home Rule Tax","LOCAL WINE CO., LLC","118 N PEORIA ST., STE. 3",,"IL","60607"
"1","Liquor Home Rule Tax","LOUIS GLUNZ WINE, INC","630 MARGATE DR.",,"IL","60069"
"1","Liquor Home Rule Tax","LOUIS GLUNZ, INC.","7100 N CAPITOL DR",,"IL","60712"
"1","Liquor Home Rule Tax","MARCOS WHOLESALE","14300 CALIFORNIA AVE",,"IL","60406-3329"
"1","Liquor Home Rule Tax","MATRICS IMPORTING","6161 W. 95TH STREET",,"IL","60453"
"1","Liquor Home Rule Tax","MAVERICK WINE CO. LLC","1101 ELLIS",,"IL","60106"
"1","Liquor Home Rule Tax","MAXWELL STREET TRADING, INC.","1040 NATIONAL AVE., UNIT B",,"IL","60101"
"1","Liquor Home Rule Tax","MERRITT DISTRIBUTORS LLC","4331 PROSPECT AVE",,"IL","60515"
"1","Liquor Home Rule Tax","METRO PREMIUM WINES, INC.","1481 ELMHURST RD",,"IL","60007"
"1","Liquor Home Rule Tax","MIDWAY LIQUOR DISTRIBUTIONS, INC.","8212 LEIGH AVE",,"IL","60053"
"1","Liquor Home Rule Tax","MIDWAY WHOLESALER CO.","1030 W DIVISION ST",,"IL","60610"
"1","Liquor Home Rule Tax","MIDWAY WHOLESALERS CO.","41 W 84TH ST",,"IL","60620"
"1","Liquor Home Rule Tax","MIDWAY WHOLESALERS, INC.","12665 PULASKI ROAD",,"IL","60803"
"1","Liquor Home Rule Tax","MIDWAY WHOLESALERS, INC.","2166 N MANNHEIM RD",,"IL","60018"
"1","Liquor Home Rule Tax","MIDWAY WHOLESALERS, INC.","12665 PULASKI ROAD",,"IL","60638"
"1","Liquor Home Rule Tax","MIDWEST WINE & SPIRITS, INC.","706 N. INDUSTRIAL DRIVE",,"IL","60126"
"1","Liquor Home Rule Tax","MIDWEST WINE SELECTIONS LLC","801 PATE DRIVE",,"IL","60172"
"1","Liquor Home Rule Tax","MISTER LEASING CORP.","2772 SKOKIE VALLEY RD",,"IL","60035"
"1","Liquor Home Rule Tax","MONSIEUR TOUTON SELECTION LTD","10 E. ONTARIO ST., STE. 3504",,"IL","60611"
"1","Liquor Home Rule Tax","MONTROSE WHOLESALE","4419 W MONTROSE",,"IL","60641"
"1","Liquor Home Rule Tax","MOUNSEF INTERNATIONAL, INC.","4738 N KEDZIE AVE",,"IL","60625"
"1","Liquor Home Rule Tax","NDC SYSTEMS LP","670 W NORTH FRONTAGE ROAD",,"IL","60440"
"1","Liquor Home Rule Tax","NEXT IMPORTS LTD.","700 E. PARK AVE., UNIT 1087",,"IL","60048"
"1","Liquor Home Rule Tax","NINE 4 NINE LLC","222 N. MAPLEWOOD AVE.",,"IL","60612"
"1","Liquor Home Rule Tax","NISHIMOTO TRADING CO., LTD.","545 FULLERTON AVE",,"IL","60188"
"1","Liquor Home Rule Tax","NOVOVINO WINE CO. LLC","630 N FRANKLIN ST., SUITE 1001",,"IL","60610"
"1","Liquor Home Rule Tax","OLD LEMONT IMPORTS, LTD","341 WHEELER DR.",,"IL","60439"
"1","Liquor Home Rule Tax","ORANGE DISTRIBUTING CO.","901 HASTINGS LANE",,"IL","60089"
"1","Liquor Home Rule Tax","PEERLESS LIQUORS, INC.","4900 W FLOURNOY",,"IL","60644"
"1","Liquor Home Rule Tax","PLATINUM DISTRIBUTING","480 YORK ROAD",,"IL","60106"
"1","Liquor Home Rule Tax","PURE WINE CO.","2220 ARTHUR AVE.",,"IL","60007"
"1","Liquor Home Rule Tax","R & M BRANDS, INC.","1057 ZYGMUNT CIRCLE",,"IL","60559"
"1","Liquor Home Rule Tax","RACCONTO","2000 N HAWTHORN ST",,"IL","60160"
"1","Liquor Home Rule Tax","RESONANCE WINE CO. LLC","9227 GULFSTREAM ROAD, UNIT D",,"IL","60423"
"1","Liquor Home Rule Tax","REVOLUTION BREWING LLC","2323 N. MILWAUKEE AVE",,"IL","60647"
"1","Liquor Home Rule Tax","RICHARD STURM DISTILLERS, INC.","2201 S. HALSTED STREET",,"IL","60608"
"1","Liquor Home Rule Tax","RIVER NORTH SALES & SERVICE,IN","4300 S. HALSTED STREET",,"IL","60607"
"1","Liquor Home Rule Tax","ROBERT HOUDE WINES LLC","1305 GRANVILLE AVE",,"IL","60068"
"1","Liquor Home Rule Tax","RODINIA LLC","2220 ARTHUR AVE",,"IL","60007"
"1","Liquor Home Rule Tax","ROSE IMPORTING & DISTRIBUTING","13959 S KOSTNER AVE",,"IL","60445"
"1","Liquor Home Rule Tax","S. L. J. GROUP, INC.","910 SHERWOOD DR., STE. 14",,"IL","60044"
"1","Liquor Home Rule Tax","SABACA BEVERAGE GROUP, INC.","100 LEXINGTON DR. STE.202",,"IL","60089"
"1","Liquor Home Rule Tax","SAMS AUTO SALES","6815 S WESTERN",,"IL","60636"
"1","Liquor Home Rule Tax","SCHAMBERGER BROS., INC.","101 E HILL ST",,"IL","60181"
"1","Liquor Home Rule Tax","SCHUMACHER & SONS DIST., INC.","4521 N KEDZIE AVE",,"IL","60625"
"1","Liquor Home Rule Tax","SELECT BEVERAGE CO., INC.","1914 NORWICH LNE",,"IL","60490"
"1","Liquor Home Rule Tax","SICILIAN IMPORTS, INC.","1200 W. 35TH STREET",,"IL","60609"
"1","Liquor Home Rule Tax","SIW DISTRIBUTION LLC","2017 W. DIVISION STREET",,"IL","60622"
"1","Liquor Home Rule Tax","SJ CINCO BLANCO'S, INC.","137 TOWER DRIVE",,"IL","60527"
"1","Liquor Home Rule Tax","SKOKIE VALLEY BEVERAGE CO","199 SHEPHERD AVE",,"IL","60090"
"1","Liquor Home Rule Tax","SKY DISTRIBUTORS, INC.","1360 CAROL LANE",,"IL","60018"
"1","Liquor Home Rule Tax","SOUTHERN WINE & SPIRITS OF IL","300 E CROSSROADS PKWY",,"IL","60440"
"1","Liquor Home Rule Tax","SPECIALTY WINE DISTRIBUTING LLC","1740 OGDEN AVE",,"IN","60515"
"1","Liquor Home Rule Tax","STANLEY STAWSKI DIST.CO., INC.","2017 N MENDELL ST",,"IL","60614"
"1","Liquor Home Rule Tax","STEFANO MIRETTI IMPORTS","165 N. ARCHER AVE",,"IL","60060"
"1","Liquor Home Rule Tax","STOLLER WHS. WINES & SPIRITS","3325 MT. PROSPECT RD",,"IL","60131"
"1","Liquor Home Rule Tax","SULIK AUTO INC.","5301 W DIVERSEY AVE",,"IL","60639"
"1","Liquor Home Rule Tax","SULPHUR SPRINGS WINERY LLC","2252 SULPHUR SPRINGS AVE",,"CA","94574"
"1","Liquor Home Rule Tax","SUPERIOR FRESH, INC.","1800 S CANAL",,"IL","60616"
"1","Liquor Home Rule Tax","SWEISS GROUP LLC","1640 INTERNATIONALE PKWY, SUITE 2",,"IL","60517"
"1","Liquor Home Rule Tax","TANTIKA IMPORTS, INC.","2220 ARTHUR AVE.",,"IL","60007"
"1","Liquor Home Rule Tax","TASTES OF THE WORLD, INC.","2849 OLD HIGGINS ROAD",,"IL","60007"
"1","Liquor Home Rule Tax","TEC-MEX IMPORTS, INC.","2445 W. 24TH PLACE, SUITE D & E",,"IL","60608"
"1","Liquor Home Rule Tax","TENZING WINE & SPIRITS LLC","1501 MICHAEL DRIVE",,"IL","60191"
"1","Liquor Home Rule Tax","THE FRUGAL WINE CO., INC.","3131 WILLOW RD",,"IL","60062"
"1","Liquor Home Rule Tax","TOP SELF IMPORTS, LLC","8111 ST. LOUIS AVE., UNIT 4G",,"IL","60076"
"1","Liquor Home Rule Tax","TOTAL WINE DISTRIBUTUNG LLC","414 N. ORLEANS, SUITE 602",,"IL","60654"
"1","Liquor Home Rule Tax","TOWN & COUNTRY DIST., INC.","1050 W ARDMORE AVE",,"IL","60143"
"1","Liquor Home Rule Tax","UPPER LEFT CORNER WINE CO LLC","2220 ARTHUR AVE",,"IL","60007"
"1","Liquor Home Rule Tax","VANGUARD BEVERAGE","2220 ARTHUR AVE",,"IL","60007"
"1","Liquor Home Rule Tax","VILLA DEL VINO, INC.","120 EASY STREET, UNIT 2",,"IL","60188"
"1","Liquor Home Rule Tax","VIN DIVINO LTD.","1811 W BRYAN MAWR",,"IL","60660"
"1","Liquor Home Rule Tax","VINEJOY LLC","2438 N. CLARK STREET, STE. 2F",,"IL","60614"
"1","Liquor Home Rule Tax","VINI NAPOLI LTD","1931 N 15TH AVE",,"IL","60160"
"1","Liquor Home Rule Tax","VINIFERA MIDWEST","174 EASY ST",,"IL","60188"
"1","Liquor Home Rule Tax","VINITAL DISTRIBUTORS, INC.","9811 W. FOSTER AVE.",,"IL","60176"
"1","Liquor Home Rule Tax","VINO ET SPIRITUS LLC","2885 DIEHL ROAD",,"IL","60540"
"1","Liquor Home Rule Tax","VINTAGE WINES LLC","242-252 BEINORIS DR., UNIT D",,"IL","60191"
"1","Liquor Home Rule Tax","VON BEAUMONT DISTRIBUTING","5439 ASHBROOK PL.",,"IL","60515"
"1","Liquor Home Rule Tax","WEIN-BAUER DISTRIBUTING, INC.","10600 SEYMOUR AVE",,"IL","60131"
"1","Liquor Home Rule Tax","WEIN-BAUER, INC.","10600 SEYMOUR AVE",,"IL","60131"
"1","Liquor Home Rule Tax","WINDY CITY DISTRIBUTION, INC.","30W112 BUTTERFIELD RD",,"IL","60555"
"1","Liquor Home Rule Tax","WINE CELLARS DISTRIBUTION LLC","2220 ARTHUR AVE.",,"IL","60007"
"1","Liquor Home Rule Tax","WINE D O. C. WINE CO, LLC","5625  N. VIRGINA AVE.",,"IL","60659"
"1","Liquor Home Rule Tax","WINEBOW IMPORTS, INC.","3300 N. KEDZIE AVE",,"IL","60613"
"1","Liquor Home Rule Tax","WINE-O-RAMA LLC","3310 S EMERALD AVE",,"IL","60616"
"1","Liquor Home Rule Tax","WINES PLUS","1561 W ALGONQUIN ROAD, STE. #159",,"IL","60058"
"1","Liquor Home Rule Tax","WIRTZ BEVERAGE ILLINOIS","1501 MICHAEL DRIVE",,"IL","60191"
"1","Liquor Home Rule Tax","WOORISOOL CORP.","10350 DEARLOVE ROAD, SUITE G",,"IL","60025"
"1","Liquor Home Rule Tax","WORLD WIDE WINE LLC","989 ABC DRIVE",,"IL","60191"
"1","Liquor Home Rule Tax","WORLD WINES, INC.","5483 N. NORTHWEST HWY., STE. 11",,"IL","60631"
"1","Liquor Home Rule Tax","YAOHAN U.S.A. CORP.","100 E ALGONQUIN RD",,"IL","60005"
"1","Liquor Home Rule Tax","ZEMA SYSTEMS CORP./CHGO BEV.SY","441 N KILBOURN AVE",,"IL","60624"
"2","Gasoline Home Rule Tax","AL WARREN OIL COMPANY, INC.","7439 W ARCHER AVE",,"IL","60501"
"2","Gasoline Home Rule Tax","ANCHO, INC.","8915 W CERMAK RD",,"IL","60546"
"2","Gasoline Home Rule Tax","ARNESON OIL COMPANY","110 ROBINSON ST",,"IL","60551"
"2","Gasoline Home Rule Tax","ARROW ENERGY, INC.","1404 INDUSTRIAL DR, SUITE  3",,"MI","48176"
"2","Gasoline Home Rule Tax","ATLAS OIL CO.","24501 ENCORSE ROAD",,"MI","48180"
"2","Gasoline Home Rule Tax","AV FUEL CORPORATION","47 W ELLSWORTH",,"MI","48108"
"2","Gasoline Home Rule Tax","AVALON PETROLEUM COMPANY","200 E. COURT ST., STE. 720",,"IL","60901"
"2","Gasoline Home Rule Tax","B & R OIL CO., INC.","24501 ECORSE ROAD",,"MI","48180"
"2","Gasoline Home Rule Tax","B. P. MARKETS, INC.","525 E. NORTH STREET, SUITE A",,"IL","60914"
"2","Gasoline Home Rule Tax","BARON-HUOT OIL CO.","1 E BRADFORD DR",,"IL","60915"
"2","Gasoline Home Rule Tax","BELL FINER FUELS","5041 W 39TH ST",,"IL","60804"
"2","Gasoline Home Rule Tax","BENCHMART RESOURCES, INC.","1301 SE 10TH ST MS0555",,"AR","72716"
"2","Gasoline Home Rule Tax","BLAKE OIL CO.","401 W MAIN",,"IL","60146"
"2","Gasoline Home Rule Tax","BOEZEMAN OIL CO., INC.","4541 E STATE ROAD 10",,"IN","46310"
"2","Gasoline Home Rule Tax","BP PRODUCTS NORTH AMERICA, INC","15 E 5TH ST",,"OK","74103"
"2","Gasoline Home Rule Tax","BRENNER OIL CO.","12948 QUINCY STREET",,"MI","49424"
"2","Gasoline Home Rule Tax","BROADUS OIL CORP. OF IL","201 DANNY'S DR STE. 5",,"IL","61364"
"2","Gasoline Home Rule Tax","BUCHANAN ENERGY LLC","2312 TERMINAL DR.",,"IL","60005"
"2","Gasoline Home Rule Tax","BUCKEYE ENERGY SERVICES LLC","TEK #5, 999 HAMILTON BLVD.",,"PA","18031"
"2","Gasoline Home Rule Tax","BULK PETROLEUM CORP","9653 N GRANVILLE RD",,"WI","53092"
"2","Gasoline Home Rule Tax","CASEY'S MARKETING CO.","1 CONVENIENCE BLVD",,"IA","50021"
"2","Gasoline Home Rule Tax","CENTER OIL CO.","600 MASON RIDGE CENTER DR",,"MO","63141"
"2","Gasoline Home Rule Tax","CITGO PETROLEUM CORP.","2316 TERMINAL DR",,"IL","60005"
"2","Gasoline Home Rule Tax","CLARK OIL TRADING CO.","8235 FORYSTH BLVD.",,"MO","63105-1623"
"2","Gasoline Home Rule Tax","COMBINED OIL CO.","100 TRI STATE INT'L DR STE.140",,"IL","60069"
"2","Gasoline Home Rule Tax","CONDON OIL CO.","126 E. JACKSON STREET",,"WI","54971"
"2","Gasoline Home Rule Tax","CONOCOPHILLIPS CO.","600 PLAZA OFFICE BUILDING",,"OK","74004"
"2","Gasoline Home Rule Tax","CONSERV FS, INC.","27310 W CASE RD",,"IL","60084"
"2","Gasoline Home Rule Tax","COOPER OIL CO.","10295 VANS DRIVE",,"IL","60423"
"2","Gasoline Home Rule Tax","COSTCO WHOLESALE CORP.","999 LAKE DRIVE","ATTN:  LICENSING","WA","98027"
"2","Gasoline Home Rule Tax","DEGROATE PETROLEUM SERVICE INC","441 DEGROATE ROAD",,"IL","60451"
"2","Gasoline Home Rule Tax","DORMAC OIL CO.","2214 N WASHINGTON BLVD",,"IA","52730"
"2","Gasoline Home Rule Tax","EDWARD H. WOLF & SONS, INC.","414 KETTLE MORAINE DR S",,"WI","53086"
"2","Gasoline Home Rule Tax","ELBURN COOP CO.","108 N. MAIN STREET",,"IL","60178"
"2","Gasoline Home Rule Tax","ELMER CARLS OIL CO., INC.","9673 SOMONAUK RD",,"IL","60520"
"2","Gasoline Home Rule Tax","EPIC AVIATION, LLC","1790 16 TH STREET SE",,"OR","97302-1434"
"2","Gasoline Home Rule Tax","EQUILON ENTERPRISES LLC","1100 LOUISIANA ST",,"TX","77001"
"2","Gasoline Home Rule Tax","ESQUIRE PETROLEUM LLC","980 N MICHIGAN AVE, SUITE 1400",,"IL","60611"
"2","Gasoline Home Rule Tax","EXXONMOBIL OIL CORP.","5959 LAS COLINAS BLVD",,"TX","75039"
"2","Gasoline Home Rule Tax","FAMILY EXPRESS STORES CORP.","213 SOUTH STATE ROUTE 49",,"IN","46383"
"2","Gasoline Home Rule Tax","FAUSER OIL CO., INC.","106 CENTER ST",,"IA","52141"
"2","Gasoline Home Rule Tax","FEECE OIL CO.","1700 HUBBARD DR",,"IL","60510"
"2","Gasoline Home Rule Tax","FLINT HILLS RESOURCES, LP","4111 E 37TH ST NORTH",,"KS","67220"
"2","Gasoline Home Rule Tax","FORD MOTOR COMPANY","ONE AMERICAN ROAD, RM WHQ 612",,"MI","48126"
"2","Gasoline Home Rule Tax","GARROW OIL CORP.","504 W EDGEWOOD DR",,"WI","54915"
"2","Gasoline Home Rule Tax","GAS DEPOT, INC.","8700 N. WAUKEGAN RD., SUITE 200",,"IL","60053"
"2","Gasoline Home Rule Tax","GAS MART USA, INC.","10777 BARKLEY STE.200",,"KS","66211"
"2","Gasoline Home Rule Tax","GEORGE E. WARREN CORP","3001 OCEAN DR",,"FL","32963-1953"
"2","Gasoline Home Rule Tax","GRAHAM C-STORES CO.","33978 N HWY 45",,"IL","60030-1714"
"2","Gasoline Home Rule Tax","GRAHAM ENTERPRISES, INC.","33978 N HWY 45",,"IL","60030"
"2","Gasoline Home Rule Tax","GRAHAM OIL CO.","33978 N HWY 45",,"IL","60030-1714"
"2","Gasoline Home Rule Tax","GREUNE COAL CO.","7435 S UNION AVE",,"IL","60621"
"2","Gasoline Home Rule Tax","GROMANN SERVICE CO.-RETAIL","4165 E 2ND ROAD",,"IL","61342"
"2","Gasoline Home Rule Tax","GROWMARK, INC.","1701 TOWANDA AVE",,"IL","61702 2500"
"2","Gasoline Home Rule Tax","H.O. COMBS OIL SERVICE CO.","3968 S ASHLAND AVE",,"IL","60609"
"2","Gasoline Home Rule Tax","HARTLAND FUEL PRODUCTS LLC","920 10TH AVE. N",,"WI","54650"
"2","Gasoline Home Rule Tax","HARTNETT U-SAVE GAS & PANTRY","1458 BLOOMINGDALE RD",,"IL","60139"
"2","Gasoline Home Rule Tax","HARTNEY FUEL OIL CO.","139 MARK INDUSTRIAL PARK",,"IL","61340"
"2","Gasoline Home Rule Tax","HERITAGE FS, INC.","RT. 45 SOUTH",,"IL","60938"
"2","Gasoline Home Rule Tax","HERR PETROLEUM CORP.","1693 STATE HWY 164",,"IL","61401"
"2","Gasoline Home Rule Tax","HINTZSCHE FERTILIZER, INC.","2S181 COUNTY LINE RD",,"IL","60151-0367"
"2","Gasoline Home Rule Tax","HO-MAR, INC.","53 W. JACKSON BLVD., STE. 1530",,"IL","60604"
"2","Gasoline Home Rule Tax","HUSKY MARKETING & SUPPLY CO.","707 8 AVE. S.W. BOX 6525","STATION D","AB","T2P367"
"2","Gasoline Home Rule Tax","HWRT OIL CO., LLC","1 PIASA LANE",,"IL","62048"
"2","Gasoline Home Rule Tax","ILLICO INCORPORATED","2201 WOODLAWN ROAD, STE. 600",,"IL","62656"
"2","Gasoline Home Rule Tax","INDIGO ENERGY PARTNERS LLC","6230 SHILOH ROAD",,"GA","30005"
"2","Gasoline Home Rule Tax","J & D OIL, INC.","8094 FAIRGROUNDS RD",,"IL","61008"
"2","Gasoline Home Rule Tax","JACOBUS ENERGY, INC.","11815 W BRADLEY ROAD",,"WI","53224"
"2","Gasoline Home Rule Tax","JERRY WILLKOMM, INC.","991 120TH AVE",,"WI","53171"
"2","Gasoline Home Rule Tax","JEWEL FOOD STORES, INC.","250 PARKCENTER BLVD",,"ID","83706"
"2","Gasoline Home Rule Tax","JOHNSON OIL CO.","1305 12TH AVE",,"IL","61071"
"2","Gasoline Home Rule Tax","K. B. OIL CO. CORP.","1 S LUTHER AVE",,"IL","60148"
"2","Gasoline Home Rule Tax","KEAN BROTHERS LLC","3619 W. 95TH STREET",,"IL","60805"
"2","Gasoline Home Rule Tax","KELLY WILLIAMSON CO.","1132 HARRISON AVE",,"IL","61104"
"2","Gasoline Home Rule Tax","KWIK TRIP, INC.","1626 OAK ST",,"WI","54602"
"2","Gasoline Home Rule Tax","LAKE SHORE PETROLEUM LLC","135 E. ALGONQUIN ROAD, SUITE 2A",,"IL","60005"
"2","Gasoline Home Rule Tax","LUKE OIL CO., INC.","3592 RANDOLPH ST",,"IN","46342"
"2","Gasoline Home Rule Tax","M.J. PETROLEUM, INC.","28452 W LINDBERG DR",,"IL","60010"
"2","Gasoline Home Rule Tax","M.K.M., INC.","603 N EAST ST",,"IL","60424"
"2","Gasoline Home Rule Tax","MAC'S CONVENIENCE STORES LLC","4080 W. JONATHAN MOORE PIKE",,"IN","47201"
"2","Gasoline Home Rule Tax","MANSFIELD OIL CO.-GAINESVILLE","1025 AIRPORT PKWY S.W.",,"GA","30501"
"2","Gasoline Home Rule Tax","MARATHON PETROLEUM CO. LP","539 S MAIN ST",,"OH","45840-3229"
"2","Gasoline Home Rule Tax","MC KIRGAN BROTHERS OIL CO.","3031 ELDAMIAN ROAD",,"IL","60545"
"2","Gasoline Home Rule Tax","MC LUCKIE OIL CO., INC.","120 S FIRST AVE",,"IL","60416"
"2","Gasoline Home Rule Tax","MEIJER DISTRIBUTION, INC.","2929 WALKER AVE NW",,"MI",
"2","Gasoline Home Rule Tax","MICKEY OIL CO., INC.","1415 PLAINFIELD RD",,"IL","60435"
"2","Gasoline Home Rule Tax","MIDWEST OIL CO., INC.","301 S 3RD ST",,"IN","47807"
"2","Gasoline Home Rule Tax","MIDWEST PERFORMANCE CARS, INC.","1385 W LAKE ST",,"IL","60607"
"2","Gasoline Home Rule Tax","MIECO, INC.","301 E. OCEAN BLVD., STE. 1100",,"CA","90802"
"2","Gasoline Home Rule Tax","MOHR OIL CO.","7340 W HARRISON ST",,"IL","60130"
"2","Gasoline Home Rule Tax","MOLO OIL CO.","123 SOUTHERN AVE",,"IA","52003"
"2","Gasoline Home Rule Tax","MURPHY OIL USA, INC.","200 PEACH ST",,"AR","71730"
"2","Gasoline Home Rule Tax","MUSKET CORPORATION","10601 N PENNSYLVANIA AVE",,"OK","73120"
"2","Gasoline Home Rule Tax","NATIONAL PETROLEUM CORP.","4900 N BROADWAY",,"IL","60640"
"2","Gasoline Home Rule Tax","OLSON OIL CO., INC.","115 OLD SKOKIE ROAD",,"IL","60085"
"2","Gasoline Home Rule Tax","OLSON SERVICE CO.","220 WAUBANSEE ROAD",,"IL","60546"
"2","Gasoline Home Rule Tax","OSCO, INC."," MAIN ST 1/4 M PARKER RD",,"IL","60439"
"2","Gasoline Home Rule Tax","PAGE AVJET FUEL CO. LLC","9800 NW 41ST STREET, STE. 400",,"FL","33178"
"2","Gasoline Home Rule Tax","PALATINE OIL CO., INC.","515 W COLFAX",,"IL","60067"
"2","Gasoline Home Rule Tax","PARENT PETROLEUM","37 W 370, ROUTE 38",,"IL","60175"
"2","Gasoline Home Rule Tax","PETERSEN FUELS, INC.","148 S STATE ST",,"IL","60140"
"2","Gasoline Home Rule Tax","PETROLEUM TRADERS CORP.","7110 POINTE INVERNESS WAY",,"IN","46804"
"2","Gasoline Home Rule Tax","PETROLIANCE LLC","739 N. STATE STREET",,"IL","60123"
"2","Gasoline Home Rule Tax","PETROMEX, INC.","14702 S HAMLIN AVE",,"IL","60445"
"2","Gasoline Home Rule Tax","PILOT TRAVEL CENTER LLC","5508 LONAS RD",,"TN","37909"
"2","Gasoline Home Rule Tax","PINKERTON OIL CO., INC.","75 E U.S. HWY 20",,"IN","46304"
"2","Gasoline Home Rule Tax","PLAINS MARKETING, L.P.","333 CLAY STREET, STE. 1600",,"TX","77002"
"2","Gasoline Home Rule Tax","PRAIRIE STATE ENERGY LLC","14 RT. 25",,"IL","60177"
"2","Gasoline Home Rule Tax","R M PETROLEUM, INC.","200 W. HIGGINS ROAD, SUITE 326",,"IL","60195"
"2","Gasoline Home Rule Tax","RALPH'S GROCER CO., INC.","1100 W ARTESIA BLVD",,"CA","90220"
"2","Gasoline Home Rule Tax","RDK VENTURES LLC","4080 W. JONATHAN MOORE PIKE",,"IN","47201"
"2","Gasoline Home Rule Tax","RIDGEWAY PETROLEUM INC.","2701 BERNICE RD",,"IL","60438"
"2","Gasoline Home Rule Tax","RKA PETROLEUM CORP.","28340 WICK ROAD",,"MI","48174"
"2","Gasoline Home Rule Tax","RMK DISTRIBUTION, INC.","5961 N RIDGE",,"IL","60660"
"2","Gasoline Home Rule Tax","ROAD RANGER L.L.C.","4930 E STATE ST",,"IL","61108"
"2","Gasoline Home Rule Tax","ROTE OIL LTD.","N 1887-S HWY H",,"WI","53147"
"2","Gasoline Home Rule Tax","RYDER ENERGY DIST., CORP.","11690 NW 105TH STREET, 1-WEST",,"FL","33178"
"2","Gasoline Home Rule Tax","SANDHU PETROLEUM, INC.","301 N HOUGH ST",,"IL","60010"
"2","Gasoline Home Rule Tax","SAPP BROS. TRUCK STOPS, INC.","3130 MAY RD",,"IL","61354"
"2","Gasoline Home Rule Tax","SASAFRASNET LLC","13555 BISHOPS CRT., SUITE 100",,"WI","53005"
"2","Gasoline Home Rule Tax","SEI FUEL SERVICES, INC.","1722 ROUTH ST LOC.125",,"TX","75201-2506"
"2","Gasoline Home Rule Tax","SHELL TRADING (US), CO.","910 LOUISIANA ST ST.2887",,"TX","77002"
"2","Gasoline Home Rule Tax","SIERRA PETROLEUM CO.","8195 PYOTT RD",,"IL","60156"
"2","Gasoline Home Rule Tax","SIGNATURE FLIGHT SUPPORT CORP.","201 S ORANGE AVE STE1100",,"FL","32801"
"2","Gasoline Home Rule Tax","SIMONS PETROLEUM, INC.","210 PARK AVE., STE. 1800",,"OK","73102"
"2","Gasoline Home Rule Tax","SMITH OIL CORP.","2120 16TH ST",,"IL","61104"
"2","Gasoline Home Rule Tax","SPEEDWAY LLC","500 SPEEDWAY DR",,"OH","45323-1056"
"2","Gasoline Home Rule Tax","STATE OIL CO.","31366 N US HIGHWAY 45",,"IL","60048"
"2","Gasoline Home Rule Tax","SUPERIOR PETROLEUM PRO., INC.","865 N SUPERIOR DR",,"IN","46307"
"2","Gasoline Home Rule Tax","T A OPERATING CORP.","24601 CENTER RIDGE RD",,"OH","44145-5600"
"2","Gasoline Home Rule Tax","THE HILLER GROUP","5321 MEMORIAL HWY",,"FL","33634"
"2","Gasoline Home Rule Tax","THORTON OIL CORP.","10101 LINN STATION RD",,"KY","40223"
"2","Gasoline Home Rule Tax","TOWER ENERGY GROUP CORPORATION","1983 W 190TH ST STE.100",,"CA","90504"
"2","Gasoline Home Rule Tax","TRI-STAR MARKETING, INC.","2211 W. BRADLEY STREET",,"IL","61821"
"2","Gasoline Home Rule Tax","TRUE NORTH ENERGY LLC","5565 AIRPORT HIGHWAY",,"OH","43615"
"2","Gasoline Home Rule Tax","TRUMAN ARNOLD COMPANIES","701 S ROBINSON RD",,"TX","75504"
"2","Gasoline Home Rule Tax","U.S. VENTURE, INC,","425 BETTER WAY",,"WI","54915"
"2","Gasoline Home Rule Tax","UNION OIL CO. OF UNION ILLINOIS","16007 HIGHBRIDGE ROAD",,"IL","60180"
"2","Gasoline Home Rule Tax","UPS FUEL SERVICE, INC.","1335 NORTHMEADOW PKWY, STE.119",,"GA","30076"
"2","Gasoline Home Rule Tax","URANICH COAL & OIL, INC.","2405 SAINT VINCENTS AVE.",,"IL","61301-1055"
"2","Gasoline Home Rule Tax","VALERO MARKETING & SUPPLY CO.","1 VALERO WAY",,"TX","78249-1616"
"2","Gasoline Home Rule Tax","VENTURE FUELS LLC","3819 CREEKSIDE LANE",,"WI","54636"
"2","Gasoline Home Rule Tax","VISTA MARKETING GROUP, LTD","39 AIRPORT DR",,"IL","61125"
"2","Gasoline Home Rule Tax","WALZER-SLOAN OIL CO.","300 VILLAGE GREEN DR., STE.235",,"IL","60069"
"2","Gasoline Home Rule Tax","WARNER PETROLEUM CORP.","2480 S CLARE AVE",,"MI","48617"
"2","Gasoline Home Rule Tax","WEST FUELS, INC.","72 S LAGRANGE ROAD, STE. 7",,"IL","60525"
"2","Gasoline Home Rule Tax","WESTERN PETROLEUM CO.","9531 W 78TH ST",,"WI","55344"
"2","Gasoline Home Rule Tax","WESTMORE SUPPLY CO.","250 S. WESTMORE AVE.",,"IL","60148"
"2","Gasoline Home Rule Tax","WHOLESALE OIL CO.","4055 W PETERSON AVE, STE.203",,"IL","60646"
"2","Gasoline Home Rule Tax","WITHAM SALES & SERVICE, INC.","6435 HOWARD",,"IN","46320"
"2","Gasoline Home Rule Tax","WORLD FUEL SERVICES, INC.","9800 NW 41ST STREET, STE. 400",,"FL","33178"
"3","New Motor Vehicle Home Rule","A.C. IMPORTS, INC.","1410 W NORTHWEST HWY",,"IL","60067"
"3","New Motor Vehicle Home Rule","AAPEX TRAILERS, INC.","1900 W 43RD ST",,"IL","60609"
"3","New Motor Vehicle Home Rule","ABEL RECREATIONAL SERVICE, INC","1180 W LAKE ST",,"IL","60103"
"3","New Motor Vehicle Home Rule","ACE MOTORCYCLE & SCOOTER CO., INC.","1042 W. JACKSON BLVD.",,"IL","60607"
"3","New Motor Vehicle Home Rule","AIRPORT CYCLE SALES, INC.","4520 W 63RD ST",,"IL","60629"
"3","New Motor Vehicle Home Rule","AIRWAY TRAILER SALES","9001 S CICERO AVE",,"IL","60453"
"3","New Motor Vehicle Home Rule","AL PIEMONTE ARLINGTON HTS FORD","801 W DUNDEE RD",,"IL","60004"
"3","New Motor Vehicle Home Rule","AL PIEMONTE FORD SALES, INC.","2500 W NORTH AVE",,"IL","60160"
"3","New Motor Vehicle Home Rule","AL PIEMONTE NISSAN, INC.","401-11 E NORTH AVE",,"IL","60164"
"3","New Motor Vehicle Home Rule","AMERICAN CHEVROLET, INC.","9510 W JOLIET RD",,"IL","60525"
"3","New Motor Vehicle Home Rule","APPLE CHEVROLET, INC.","8585 W 159TH ST",,"IL","60487"
"3","New Motor Vehicle Home Rule","ARLINGTON ACURA IN PALATINE","1275 E DUNDEE RD",,"IL","60067"
"3","New Motor Vehicle Home Rule","ARLINGTON KIA IN PALATINE","1400 E. DUNDEE RD.",,"IL","60005"
"3","New Motor Vehicle Home Rule","ARLINGTON LEXUS IN PALATINE","1285 E DUNDEE RD",,"IL","60067"
"3","New Motor Vehicle Home Rule","ARLINGTON NISSAN IN ARLINGTON HGHTS.","1400 W. DUNDEE ROAD",,"IL","60004"
"3","New Motor Vehicle Home Rule","ARLINGTON TOYOTA, INC.","2095 N. RAND ROAD",,"IL","60074"
"3","New Motor Vehicle Home Rule","ARNIE BAUER CADILLAC GMAC","5525 MILLER CIRCLE DR",,"IL","60443"
"3","New Motor Vehicle Home Rule","ARROW MOBILE HOME PARK, INC.","11725 S RIDGELAND AVE",,"IL","60482"
"3","New Motor Vehicle Home Rule","ATLAS BOBCAT LLC","5050 N. RIVER ROAD",,"IL","60176"
"3","New Motor Vehicle Home Rule","ATLAS BOBCAT, INC.","5050 N RIVER RD",,"IL","60176"
"3","New Motor Vehicle Home Rule","AUTOBARN NISSAN","1015 CHICAGO AVE",,"IL","60202"
"3","New Motor Vehicle Home Rule","AUTOBARN VOLKSWAGON-OLDS","1012 CHICAGO AVE",,"IL","60202"
"3","New Motor Vehicle Home Rule","AUTOHAUS ON EDENS, INC.","1550 FRONTAGE RD",,"IL","60062"
"3","New Motor Vehicle Home Rule","BAINES PROFESSIONAL VEHICLES","2110 FOSTER AVE",,"IL","60090"
"3","New Motor Vehicle Home Rule","BALZEKAS MOTOR SALES","4030 S ARCHER AVE",,"IL","60632"
"3","New Motor Vehicle Home Rule","BARRINGTON MOTOR SALES","1201 W LAKE ST",,"IL","60103"
"3","New Motor Vehicle Home Rule","BARTLETT MOBILE HOME, INC.","100 FIRST ST",,"IL","60103"
"3","New Motor Vehicle Home Rule","BERMAN'S INFINITI OF CHICAGO, INC.","640 N. LASALLE STREET",,"IL","60610"
"3","New Motor Vehicle Home Rule","BERWYN KIA","7050 OGDEN AVE.",,"IL","60402"
"3","New Motor Vehicle Home Rule","BERWYN MARINE CENTER, INC.","5817 W OGDEN AVE",,"IL","60804"
"3","New Motor Vehicle Home Rule","BETTENHAUSEN MOTOR SALES","17514 S OAK PARK AVE",,"IL","60487"
"3","New Motor Vehicle Home Rule","BIGGERS CHEVROLET, INC.","1385 E CHICAGO ST",,"IL","60120"
"3","New Motor Vehicle Home Rule","BIGGERS IMPORTS OF SCHAUMBURG","660 E GOLF RD",,"IL","60173"
"3","New Motor Vehicle Home Rule","BIGGERS IMPORTS, INC.","1325 E CHICAGO ST",,"IL","60120"
"3","New Motor Vehicle Home Rule","BIGGERS MOTORS, INC.","1320 E CHICAGO ST",,"IL","60120"
"3","New Motor Vehicle Home Rule","BILL KAY FORD, INC.","14633 S CICERO AVE",,"IL","60445"
"3","New Motor Vehicle Home Rule","BILL STASEK CHEVROLET","700 W DUNDEE RD",,"IL","60090"
"3","New Motor Vehicle Home Rule","BILL SULLIVAN PONTIAC, INC.","777 W DUNDEE RD",,"IL","60004"
"3","New Motor Vehicle Home Rule","BOB ROHRMAN SCHAUMBURG FORD","815 E. GOLF ROAD",,"IL","60173"
"3","New Motor Vehicle Home Rule","BREDEMANN CHEV-SUBURU-KIA","1401 W DEMPSTER",,"IL","60068"
"3","New Motor Vehicle Home Rule","BREDEMANN FORD IN GLENVIEW","2038 WAUKEGAN RD",,"IL","60025"
"3","New Motor Vehicle Home Rule","BREDEMANN LEXUS IN GLENVIEW","2000 WAUKEGAN RD",,"IL","60025"
"3","New Motor Vehicle Home Rule","BREDEMANN TOYOTA, INC.","1301 W DEMPSTER",,"IL","60068"
"3","New Motor Vehicle Home Rule","CABELA'S RETAIL IL, INC.","5225 PRAIRE STONE PARKWAY",,"IL","60192"
"3","New Motor Vehicle Home Rule","CALUMET DOCKSIDE SERVICE","426 BURNHAM AVE",,"IL","60409"
"3","New Motor Vehicle Home Rule","CAMBONI'S, INC.","6801 S LA GRANGE RD",,"IL","60525"
"3","New Motor Vehicle Home Rule","CANDLELIGHT VILLAGE","4 CANDLELIGHT DR",,"IL","60411"
"3","New Motor Vehicle Home Rule","CAPITAL MANAGEMENT CORP","9300 W 79TH ST",,"IL","60458"
"3","New Motor Vehicle Home Rule","CARR'S HONDA CENTER","6600 N WESTERN AVE",,"IL","60645"
"3","New Motor Vehicle Home Rule","CASEY EQUIPMENT","1603 E ALGONQUIN RD",,"IL","60005"
"3","New Motor Vehicle Home Rule","CASTLE BUICK-PONTIAC, INC.","7400 W CERMAK",,"IL","60546"
"3","New Motor Vehicle Home Rule","CASTLE MOTOR SALES","8833 WAUKEGAN RD",,"IL","60053"
"3","New Motor Vehicle Home Rule","CHAMPION CYCLE CENTER, INC.","3625 N WESTERN AVE",,"IL","60618"
"3","New Motor Vehicle Home Rule","CHEVROLET OF HOMEWOOD, INC.","18033-35 S HALSTED",,"IL","60430"
"3","New Motor Vehicle Home Rule","CHICAGO BUS SALES, INC.","4845 W. 167TH STREET, SUITE 300",,"IL","60452"
"3","New Motor Vehicle Home Rule","CHICAGO CYCLE CENTER, INC.","6800-20 N WESTERN AVE",,"IL","60645"
"3","New Motor Vehicle Home Rule","CHICAGO CYCLE, INC.","3448 W TOUHY AVE",,"IL","60712"
"3","New Motor Vehicle Home Rule","CHICAGO HARLEY DAVIDSON, INC.","6868 N WESTERN AVE",,"IL","60645"
"3","New Motor Vehicle Home Rule","CHICAGO INT'L TRUCKS LLC","4655 S CENTRAL AVE",,"IL","60638"
"3","New Motor Vehicle Home Rule","CHICAGO MACK SALES & SRVE.,INC","7900 BULLDOG DR",,"IL","60501"
"3","New Motor Vehicle Home Rule","CHICAGO MARMON TRUCKS","15220 S HALSTED",,"IL","60426"
"3","New Motor Vehicle Home Rule","CHICAGO NORTHSIDE TOYOTA","5625 N BROADWAY",,"IL","60660"
"3","New Motor Vehicle Home Rule","CHICAGO TRUCK SALES & SERVICE","5300 W PLATTNER DR",,"IL","60803"
"3","New Motor Vehicle Home Rule","CHI-TOWN HARLEY DAVIDSON","17801 S LAGRANGE RD",,"IL","60487"
"3","New Motor Vehicle Home Rule","CHI-TOWN HONDA YAMAHA","19528 BURNHAM AVE",,"IL","60438"
"3","New Motor Vehicle Home Rule","CITY LIMITS HARLEY-DAVIDSON, INC.","2200 N RAND RD",,"IL","60074"
"3","New Motor Vehicle Home Rule","COMMERCIAL SERVICE CENTER","2801 TOUHY AVE., SUITE #E",,"IL","60007"
"3","New Motor Vehicle Home Rule","COMMUNITY HONDA, INC.","8340 W 159TH ST",,"IL","60462"
"3","New Motor Vehicle Home Rule","COMMUNITY MOTORS, INC.","8325 W. 159TH STREET",,"IL","60477"
"3","New Motor Vehicle Home Rule","CONTINENTAL AUTO CENTER","5800 S LA GRANGE RD",,"IL","60525"
"3","New Motor Vehicle Home Rule","CONTINENTAL HONDA","5901 S LA GRANGE RD",,"IL","60525"
"3","New Motor Vehicle Home Rule","CONTINENTAL MITSUBISHI","5800 S. LAGRANGE ROAD",,"IL","60525"
"3","New Motor Vehicle Home Rule","CONTINENTAL NISSAN","5750 S LA GRANGE RD",,"IL","60525"
"3","New Motor Vehicle Home Rule","CONTINENTAL TOYOTA, INC.","6701 S. LAGRANGE ROAD",,"IL","60525"
"3","New Motor Vehicle Home Rule","CONWAY RV","615 E LAKE ST",,"IL","60107"
"3","New Motor Vehicle Home Rule","COUNTRY ACRES VILLAGE SLS, INC","2993 CURTIS ST",,"IL","60018"
"3","New Motor Vehicle Home Rule","CRANE & MACHINERY, INC.","9725 INDUSTRIAL DR..",,"IL","60455"
"3","New Motor Vehicle Home Rule","CROSSROADS AUTO MART, INC.","2730 CHICAGO ROAD",,"IL","60411"
"3","New Motor Vehicle Home Rule","CUMBERLAND SERVICENTER, INC.","2375 E OAKTON ST",,"IL","60005 4817"
"3","New Motor Vehicle Home Rule","CURRIE MOTORS CHEVROLET, INC.","7901 W. ROOSEVELT ROAD",,"IL","60130"
"3","New Motor Vehicle Home Rule","CURRIE MOTORS FOREST PARK","8401 W ROOSEVELT RD",,"IL","60130"
"3","New Motor Vehicle Home Rule","D & S TRUCK CENTER, INC.","6042 LENZI AVE",,"IL","60525"
"3","New Motor Vehicle Home Rule","DAEWOO OF WINDY CITY","2233 N CICERO AVE",,"IL","60639"
"3","New Motor Vehicle Home Rule","DES PLAINES CHRYSLER J/P DODGE","77 RAND ROAD",,"IL","60016"
"3","New Motor Vehicle Home Rule","DES PLAINES HONDA","550 E NORTHWEST HWY",,"IL","60016"
"3","New Motor Vehicle Home Rule","DES PLAINES YAMAHA, INC.","1529 RAND RD",,"IL","60016"
"3","New Motor Vehicle Home Rule","EASYGO MOTOR SCOOTERS, INC.","12832 S. WESTERN",,"IL","60406"
"3","New Motor Vehicle Home Rule","ED MURPHY BUICK SUZUKI VOLKS","1000 E GOLF RD",,"IL","60173"
"3","New Motor Vehicle Home Rule","ED NAPLETON HONDA","5800 W. 95TH ST",,"IL","60453"
"3","New Motor Vehicle Home Rule","EHRHARDT'S TRAILER SALES","776 W OAKTON ST",,"IL","60018"
"3","New Motor Vehicle Home Rule","ELGIN HYUNDAI","881 E CHICAGO ST",,"IL","60120"
"3","New Motor Vehicle Home Rule","ELGIN TOYOTA","1200 E CHICAGO ST",,"IL","60120"
"3","New Motor Vehicle Home Rule","ELY'S TRAVEL TOWN","155 W 162ND ST",,"IL","60473"
"3","New Motor Vehicle Home Rule","EMKAY, INC","650 E GOLF RD",,"IL","60173"
"3","New Motor Vehicle Home Rule","ETTLESON CAD-BUICK-OLDS, INC.","6201 S LA GRANGE RD",,"IL","60525"
"3","New Motor Vehicle Home Rule","ETTLESON HYUNDAI LLC","6420 JOLIET ROAD",,"IL","60525"
"3","New Motor Vehicle Home Rule","EVANSTON SUBARU IN SKOKIE","3340 OAKTON STREET",,"IL","60076"
"3","New Motor Vehicle Home Rule","EVERGREEN KIA","9205 S WESTERN AVE",,"IL","60620"
"3","New Motor Vehicle Home Rule","EVERGREEN MOTOR, CARS INC.","8470 W 159TH ST",,"IL","60462"
"3","New Motor Vehicle Home Rule","EXOTICA MOTORCARS, LTD.","280 SKOKIE BLVD",,"IL","60062"
"3","New Motor Vehicle Home Rule","FAMILY HYUNDAI & SUZUKI, INC.","8101 W. 159TH STREET",,"IL","60477"
"3","New Motor Vehicle Home Rule","FEENY CHRYSLER-PLYMOUTH","1010 E CHICAGO ST",,"IL","60120"
"3","New Motor Vehicle Home Rule","FIELDS IMPORTS, INC.","700 FRONTAGE RD",,"IL","60093"
"3","New Motor Vehicle Home Rule","FIELDS INFINITI","2100 FRONTAGE RD",,"IL","60022"
"3","New Motor Vehicle Home Rule","FIELDS JEEP/EAGLE, INC.","670 FRONTAGE RD",,"IL","60093"
"3","New Motor Vehicle Home Rule","FIELDS VOLVO","770 FRONTAGE ROAD",,"IL","60093"
"3","New Motor Vehicle Home Rule","FLETCHER JONES AUTOMOTIVE ENTP","1111 N CLARK ST",,"IL","60610"
"3","New Motor Vehicle Home Rule","FLIKKEMA MOTORS, INC.","2424 E 176TH ST",,"IL","60438"
"3","New Motor Vehicle Home Rule","FOX VALLEY VOLKSWAGEN SCHAUMBURG LLC","1000 E. GOLF ROAD",,"IL","60173"
"3","New Motor Vehicle Home Rule","FRAN NAPLETON LIN/MER, INC.","2950 W 127 TH ST",,"IL","60406"
"3","New Motor Vehicle Home Rule","FRANK S. SHIREY CADILLAC, INC.","10125 S CICERO AVE",,"IL","60453"
"3","New Motor Vehicle Home Rule","FREEWAY FORD-STERLING TRUCK SL","8445 W 45TH ST",,"IL","60534"
"3","New Motor Vehicle Home Rule","GALLO EQUIPMENT CO.","11835 S AVE O",,"IL","60617"
"3","New Motor Vehicle Home Rule","GATEWAY IMPORTS, INC.","2410 N. NORTH AVE.",,"IL","60160"
"3","New Motor Vehicle Home Rule","GIUFFRE MIDWEST LLC","3401 S CICERO AVE",,"IL","60804"
"3","New Motor Vehicle Home Rule","GOLD COAST EXOTIC IMPORTS, LLC","834 N. RUSH",,"IL","60611"
"3","New Motor Vehicle Home Rule","GOLF MILL MOTOR SALES, INC.","9401 N MILWAUKEE AVE",,"IL","60714"
"3","New Motor Vehicle Home Rule","GROSSINGER AUTOPLEX","6900 N MC CORMICK BLVD",,"IL","60712"
"3","New Motor Vehicle Home Rule","GROSSINGER CHEVROLET, INC.","151 E LAKE COOK RD",,"IL","60074"
"3","New Motor Vehicle Home Rule","GROSSINGER CITY AUTOPLEX, INC","1561 N. FREMONT STREET",,"IL","60642"
"3","New Motor Vehicle Home Rule","GROSSINGER CITY TOYOTA","1561 N. FREMONT STREET",,"IL","60642"
"3","New Motor Vehicle Home Rule","GROSSINGER IMPORTS","7225 N CICERO AVE",,"IL","60712"
"3","New Motor Vehicle Home Rule","HAPPY HYUNDAI","8900 S. CICERO AVE.",,"IL","60453"
"3","New Motor Vehicle Home Rule","HARBOR POINT ESTATES INC.","4000 E 134 TH ST",,"IL","60633"
"3","New Motor Vehicle Home Rule","HAWK CHEVROLET","8200 S. HARLEM AVE.",,"IL","60455"
"3","New Motor Vehicle Home Rule","HAWK FORD OF OAK LAWN","6100 W 95TH ST",,"IL","60453"
"3","New Motor Vehicle Home Rule","HAWKINSON KIA","5501 MILLER CIRCLE DR.",,"IL","60443"
"3","New Motor Vehicle Home Rule","HAWKINSON NISSAN LLC","5513 MILLER CIRCLE DR",,"IL","60443"
"3","New Motor Vehicle Home Rule","HCI TRANSPORTATION TECH., INC.","7801 W 47TH ST",,"IL","60525"
"3","New Motor Vehicle Home Rule","HEDLUND MARINE LLC","515 GREEN BAY ROAD",,"IL","60091"
"3","New Motor Vehicle Home Rule","HIGHLANDS YAMAHA INC.","5320 E AVE",,"IL","60525"
"3","New Motor Vehicle Home Rule","HINO OF CHICAGO","5330 W PERSHING RD",,"IL","60804"
"3","New Motor Vehicle Home Rule","HOLIDAY BOAT SALES, INC.","21740 LINCOLN HWY",,"IL","60411"
"3","New Motor Vehicle Home Rule","HONDA CITY","4950 S PULASKI AVE",,"IL","60632"
"3","New Motor Vehicle Home Rule","HOSKINS CHEVROLET, INC.","175 N ARLINGTON HEIGHTS RD",,"IL","60007"
"3","New Motor Vehicle Home Rule","HOUSE OF CAMPING","8424 S HARLEM",,"IL","60455"
"3","New Motor Vehicle Home Rule","HOWARD ORLOFF JAGUAR VOLVO","1924 N PAULINA",,"IL","60622"
"3","New Motor Vehicle Home Rule","ILLINOIS HARLEY DAVIDSON SALES","1301 S HARLEM AVE",,"IL","60402"
"3","New Motor Vehicle Home Rule","ILLINOIS TRUCK CENTRE, INC.","700 DEVON AVE",,"IL","60007"
"3","New Motor Vehicle Home Rule","IMPERIAL MOTORS, INC.","721 GREEN BAY RD",,"IL","60091"
"3","New Motor Vehicle Home Rule","INFINITI OF HOFFMAN ESTATES","1075 W GOLF ROAD",,"IL","60194"
"3","New Motor Vehicle Home Rule","INFINITI OF ORLAND PARK","8500 W 159 TH ST",,"IL","60462"
"3","New Motor Vehicle Home Rule","JACK PHELAN CHEVROLET, INC.","4000 S HARLEM AVE","4000 S HARLEM AVE","IL","60534"
"3","New Motor Vehicle Home Rule","JACK PHELAN DODGE LLC","5859 S. LAGRANGE ROAD",,"IL","60525"
"3","New Motor Vehicle Home Rule","JACOB PRESS' SONS, INC.","7674 W 79TH ST",,"IL","60455"
"3","New Motor Vehicle Home Rule","JAMES MILLER CHEVROLET, INC.","5343 MILLER CIRCLE DR",,"IL","60443"
"3","New Motor Vehicle Home Rule","JAMES PROFESSIONAL CAR SALES","1507 E 72ND ST",,"IL","60619"
"3","New Motor Vehicle Home Rule","JENNINGS CHEVROLET, INC.","241 WAUKEGAN RD",,"IL","60025"
"3","New Motor Vehicle Home Rule","JENNINGS VOLKSWAGON, INC.","201 WAUKEGAN RD",,"IL","60025"
"3","New Motor Vehicle Home Rule","JERRY GLEASON CHEV., INC.","7901 W ROOSEVELT RD",,"IL","60130"
"3","New Motor Vehicle Home Rule","JOE RIZZA FORD, INC.","2100 S HARLEM AVE",,"IL","60546"
"3","New Motor Vehicle Home Rule","JOE RIZZA IMPORTS, INC.","8150 W 159 TH ST",,"IL","60462"
"3","New Motor Vehicle Home Rule","JOYCE FORD, INC.","2401 S MICHIGAN AVE",,"IL","60616"
"3","New Motor Vehicle Home Rule","JUNIORS CAREFREE HOMES, INC.","420 W TOUHY AVE LOT 145",,"IL","60018"
"3","New Motor Vehicle Home Rule","KELLY NISSAN, INC.","4300 W 95 TH ST",,"IL","60453"
"3","New Motor Vehicle Home Rule","KINGDOM  CHEVROLET","6603 S. WESTERN AVE",,"IL","60636"
"3","New Motor Vehicle Home Rule","KOWALIS MOTOR CAR, INC.","8300 W 159 TH ST",,"IL","60462"
"3","New Motor Vehicle Home Rule","LAGRANGE ESTATES","6 COURT DR",,"IL","60525"
"3","New Motor Vehicle Home Rule","LAND ROVER HOFFMAN ESTATES LLC","1051 HIGGINS RD",,"IL","60195"
"3","New Motor Vehicle Home Rule","LANDROVER VOLVO AUDI JAGUAR","8021-8031 W. 159TH STREET",,"IL","60477"
"3","New Motor Vehicle Home Rule","LANDROVER WINNETKA","80 GREEN BAY RD",,"IL","60093"
"3","New Motor Vehicle Home Rule","LOEBER MOTORS, INC. (LINCOLWD)","4255 W TOUHY AVE",,"IL","60712"
"3","New Motor Vehicle Home Rule","LOREN HYUNDAI, INC.","1610 WAUKEGAN",,"IL","60025"
"3","New Motor Vehicle Home Rule","LOU SOBH SATURN, INC.","125 W HIGGINS ROAD",,"IL","60195"
"3","New Motor Vehicle Home Rule","LYNCH CHICAGO INC","7335 W 100TH PL",,"IL","60455"
"3","New Motor Vehicle Home Rule","LYNCH FORD, INC.","5301 W IRVING PARK RD",,"IL","60641"
"3","New Motor Vehicle Home Rule","MAGIC AUTO, INC.","1001 NORTHWEST HWY",,"IL","60016"
"3","New Motor Vehicle Home Rule","MANCARI'S CHRYSLER PLYMOUTH","4630 W 95TH ST",,"IL","60453"
"3","New Motor Vehicle Home Rule","MANOR MOBILE HOME SALES, INC.","8035 W 79TH ST",,"IL","60458"
"3","New Motor Vehicle Home Rule","MARINO CHRYSLER JEEP DODGE","5133 W. IRVING PARK ROAD",,"IL","60641"
"3","New Motor Vehicle Home Rule","MARQUARDT BUICK, INC.","1421 S BARRINGTON RD",,"IL","60010"
"3","New Motor Vehicle Home Rule","MARTIN IMPLEMENT SALES, INC.","18405 W. 115TH AVE.",,"IL","60467"
"3","New Motor Vehicle Home Rule","MARTIN NISSAN, INC.","5240 GOLF RD",,"IL","60077"
"3","New Motor Vehicle Home Rule","MATTESON IMPORTS","5355 MILLER CIRCLE DR",,"IL","60443"
"3","New Motor Vehicle Home Rule","MCCARTHY FORD, INC.","11401 S PULASKI RD",,"IL","60655"
"3","New Motor Vehicle Home Rule","MCGRATH ACURA","9105 WAUKEGAN ROAD",,"IL","60053"
"3","New Motor Vehicle Home Rule","MCGRATH CITY HONDA","6720 W GRAND AVE",,"IL","60707"
"3","New Motor Vehicle Home Rule","MCGRATH CITY HYUNDAI","6750 W GRAND AVE",,"IL","60707"
"3","New Motor Vehicle Home Rule","MCGRATH HONDA, INC.","2020 N. RANDALL",,"IL","60123"
"3","New Motor Vehicle Home Rule","MCGRATH IMPORTS, INC.","301 WAUKEGAN RD",,"IL","60025"
"3","New Motor Vehicle Home Rule","MCGRATH LEXUS OF CHICAGO","1250 W DIVISION ST",,"IL","60622"
"3","New Motor Vehicle Home Rule","MCGRATH NISSAN, INC.","945 E CHICAGO ST",,"IL","60120"
"3","New Motor Vehicle Home Rule","MCI SALES & SERVICE, INC.","10 E GOLF RD",,"IL","60016"
"3","New Motor Vehicle Home Rule","MEDOWCREEK MOBILE HOME PARK","4503 W LAKE ST",,"IL","60160"
"3","New Motor Vehicle Home Rule","MERCEDESBENZ OF HOFFMAN ESTATE","1000 W GOLF RD",,"IL","60194"
"3","New Motor Vehicle Home Rule","METRO FORD SALES & SERVICE,INC","6455 S WESTERN AVE",,"IL","60636"
"3","New Motor Vehicle Home Rule","MID CITY NISSAN, INC.","4444 W IRVING PARK RD",,"IL","60641"
"3","New Motor Vehicle Home Rule","MIDLOTHIAN SPORTS & CYCLE LLC","14723 S PULASKI",,"IL","60445"
"3","New Motor Vehicle Home Rule","MID-TOWN TOYOTA, LTD.","2700 N CICERO AVE",,"IL","60639"
"3","New Motor Vehicle Home Rule","MIDWAY DODGE, INC.","4747 S PULASKI RD",,"IL","60632"
"3","New Motor Vehicle Home Rule","MI-JACK PRODUCTS, INC.","3111 W 167TH ST",,"IL","60429"
"3","New Motor Vehicle Home Rule","MIKE ANDERSON CHEVROLET OF CHICAGO","5333 W. IRVING PARK ROAD",,"IL","60641"
"3","New Motor Vehicle Home Rule","MIKE HAGGERTY PONTIAC-BK-GMC","9301 S CICERO AVE",,"IL","60453"
"3","New Motor Vehicle Home Rule","MIKE HAGGERTY VOLKSWAGEN, INC.","8920 S CICERO AVE",,"IL","60453"
"3","New Motor Vehicle Home Rule","MINI OF CHICAGO","1111 W. DIVERSEY PKWY.",,"IL","60614"
"3","New Motor Vehicle Home Rule","MIZE IMPORT GROUP, INC.","1509 RIVER RD",,"IL","60018"
"3","New Motor Vehicle Home Rule","MOBILE FACILITIES OF ILLINOIS","3230 E. LINCOLN HWY.",,"IL","60411"
"3","New Motor Vehicle Home Rule","MOBILE OFFICE, INC.","4845 W 111TH ST",,"IL","60803"
"3","New Motor Vehicle Home Rule","MOBILE SPACE, INC.","15751 S SPRINGFIELD AVE",,"IL","60426"
"3","New Motor Vehicle Home Rule","MODERN MANUFACTURED HOMES INC","14001 S WESTERN AVE",,"IL","60406"
"3","New Motor Vehicle Home Rule","MOTOR WERKS OF BARRINGTON, INC","1475 S BARRINGTON RD",,"IL","60010"
"3","New Motor Vehicle Home Rule","MR. MOTO, INC.","1901 S WESTERN",,"IL","60608"
"3","New Motor Vehicle Home Rule","NAPLETON DES PLAINES CHRYS DODGE JEEP","77 RAND ROAD",,"IL","60016"
"3","New Motor Vehicle Home Rule","NAPLETON'S CALUMET CITY IMPORT","1985 RIVER OAKS DR",,"IL","60409"
"3","New Motor Vehicle Home Rule","NAPLETON'S NORTHWESTERN HYUNDA","5950 N WESTERN AVE",,"IL","60659"
"3","New Motor Vehicle Home Rule","NAPLETON'S PARK RIDGE L M","826 TOUHY AVE",,"IL","60068"
"3","New Motor Vehicle Home Rule","NAPLETON'S RIVER OAKS CHR/JEEP/DODGE","17225 TORRENCE AVE",,"IL","60438"
"3","New Motor Vehicle Home Rule","NAPLETON'S RIVER OAKS HONDA","17220 TORRENCE AVE",,"IL","60438"
"3","New Motor Vehicle Home Rule","NAPLETON'S RIVER OAKS LIN/MERC","1777 RIVER OAKS DR",,"IL","60409"
"3","New Motor Vehicle Home Rule","NAPLETON'S SCHAUMBURG PON-GMC","100 W GOLF RD",,"IL","60195"
"3","New Motor Vehicle Home Rule","NAPLETON'S SCHAUMBURG SUBARU","911 W. HIGGINS ROAD",,"IL","60195"
"3","New Motor Vehicle Home Rule","NAVISTAR, INC.","2050 N MANNHEIM RD",,"IL","60160"
"3","New Motor Vehicle Home Rule","NEW ROGERS PONTIAC, INC.","2720 S MICHIGAN AVE",,"IL","60616"
"3","New Motor Vehicle Home Rule","NISSAN OF SOUTH HOLLAND","16269 VAN DAM ROAD",,"IL","60473"
"3","New Motor Vehicle Home Rule","NIVES RIZZA FORD, INC.","8100 W 159TH ST",,"IL","60462"
"3","New Motor Vehicle Home Rule","NORTHWEST FORD TRUCK CENTER","4000 N MANNHEIM RD",,"IL","60131"
"3","New Motor Vehicle Home Rule","NORTHWEST MACK TRUCK","2090 N. MANNHEIM ROAD",,"IL","60160"
"3","New Motor Vehicle Home Rule","NORTHWEST TRUCKS  INC","2120 N RAND ROAD",,"IL","60074"
"3","New Motor Vehicle Home Rule","NORTHWESTERN CHRY/PLY/JP/DODGE","6116 N WESTERN AVE",,"IL","60659"
"3","New Motor Vehicle Home Rule","NPD, INC.","6333 N NORTHWEST HWY",,"IL","60631"
"3","New Motor Vehicle Home Rule","OAK LANE TRAILER COURT","11750 S HOMAN",,"IL","60655"
"3","New Motor Vehicle Home Rule","OAK LAWN MAZDA","6750 W 95TH ST",,"IL","60453"
"3","New Motor Vehicle Home Rule","OAK LAWN TOYOTA","4320 W 95 TH ST",,"IL","60453"
"3","New Motor Vehicle Home Rule","ORLAND PARK M B, INC","8430 W 159 TH ST",,"IL","60462"
"3","New Motor Vehicle Home Rule","ORLAND PARK NISSAN, INC.","8550 W 159 TH ST",,"IL","60462"
"3","New Motor Vehicle Home Rule","ORLAND TOYOTA, INC.","8505 W 159TH ST",,"IL","60487"
"3","New Motor Vehicle Home Rule","OTTO BROTHERS HONDA","7837 W OGDEN AVE",,"IL","60534"
"3","New Motor Vehicle Home Rule","PARK PLAZA DODGE","7911 W ROOSEVELT ROAD",,"IL","60130"
"3","New Motor Vehicle Home Rule","PARKVIEW MOBILE HOME PARK","8783 CANARY LN",,"IL","60525"
"3","New Motor Vehicle Home Rule","PATRICK BMW","700 E GOLF RD",,"IL","60173"
"3","New Motor Vehicle Home Rule","PATRICK CADILLAC","526 MALL DR",,"IL","60173"
"3","New Motor Vehicle Home Rule","PATRICK HYUNDAI LLC","690 E GOLF ROAD",,"IL","60173"
"3","New Motor Vehicle Home Rule","PATRICK SAAB","526 MALL DR",,"IL","60173"
"3","New Motor Vehicle Home Rule","PATRICK VOLVO","526 MALL DR",,"IL","60173"
"3","New Motor Vehicle Home Rule","PERILLO BMW","1035 N CLARK ST",,"IL","60610"
"3","New Motor Vehicle Home Rule","PERILLO LINCOLN-MERCURY","530 W. CHICAGO AVE",,"IL","60654-3202"
"3","New Motor Vehicle Home Rule","PINES TRAILER, LTD PARTNERSHIP","2555 S BLUE ISLAND",,"IL","60608"
"3","New Motor Vehicle Home Rule","PLANET HONDA","561 W LINCOLN HWY",,"IL","60411"
"3","New Motor Vehicle Home Rule","PLANET TOYOTA","5540 AUTO CRT",,"IL","60443"
"3","New Motor Vehicle Home Rule","POWER SPORTS OF HOFFMAN ESTATE","85 E GOLF ROAD",,"IL","60169"
"3","New Motor Vehicle Home Rule","POWERSPORTS","5620 DEMPSTER ST.",,"IL","60053"
"3","New Motor Vehicle Home Rule","POZZO ILLINOIS, INC.","94 E SALK TRAIL",,"IL","60411"
"3","New Motor Vehicle Home Rule","PRESTA LINCOLN MERCURY, INC.","845 E CHICAGO ST",,"IL","60120"
"3","New Motor Vehicle Home Rule","PRESTIGE LEASING","88 E. DUNDEE ROAD",,"IL","60089"
"3","New Motor Vehicle Home Rule","PRO AUTO INC","6540 N LINCOLN AVE",,"IL","60712"
"3","New Motor Vehicle Home Rule","R. G. SMITH EQUIPMENT CO.","622 E NORTHWEST HWY",,"IL","60016"
"3","New Motor Vehicle Home Rule","RAND ROAD MOBILE HOME PARK","90 S. RIVER ROAD",,"IL","60016"
"3","New Motor Vehicle Home Rule","RAY BUICK","5011 W 63RD ST",,"IL","60638"
"3","New Motor Vehicle Home Rule","RECREATION PLANTATION, INC.","19660 STONY ISLAND AVE",,"IL","60411"
"3","New Motor Vehicle Home Rule","RIDGEWAY CHEVROLET, INC.","17730 TORRENCE AVE",,"IL","60438"
"3","New Motor Vehicle Home Rule","RIVER OAKS FORD, INC.","281 RIVER OAKS DR",,"IL","60409"
"3","New Motor Vehicle Home Rule","RIVER OAKS TOYOTA","1970 RIVER OAKS DR",,"IL","60409"
"3","New Motor Vehicle Home Rule","RIZZA CHEVROLET, INC.","8200 S HARLEM AVE",,"IL","60455"
"3","New Motor Vehicle Home Rule","RON HOPKINS FORD, INC.","1045 E CHICAGO ST",,"IL","60120"
"3","New Motor Vehicle Home Rule","ROSELAND AUTO SALES CO.","10954 S MICHIGAN AVE",,"IL","60628"
"3","New Motor Vehicle Home Rule","ROTO LINCOLN MERCURY & SUBARU","1555 E RAND RD",,"IL","60004"
"3","New Motor Vehicle Home Rule","ROUTE 12 RENTAL CO.","1306 E RAND RD",,"IL","60004"
"3","New Motor Vehicle Home Rule","RUNNION EQUIPMENT CO.","7950 W 47TH ST",,"IL","60534"
"3","New Motor Vehicle Home Rule","SATURN ARLINGTON HEIGHTS","915 W. DUNDEE RD.",,"IL","60089"
"3","New Motor Vehicle Home Rule","SATURN OF GLENVIEW","630 WAUKEGAN ROAD",,"IL","60025"
"3","New Motor Vehicle Home Rule","SCHAUMBURG AUDI","320 W GOLF RD",,"IL","60195"
"3","New Motor Vehicle Home Rule","SCHAUMBURG CHRYSLER-PLYMOUTH","110 W. GOLF RD",,"IL","60173"
"3","New Motor Vehicle Home Rule","SCHAUMBURG HONDA","855 W GOLF RD",,"IL","60194"
"3","New Motor Vehicle Home Rule","SCHAUMBURG HONDA AUTOMOBILES","750 E GOLF RD",,"IL","60173"
"3","New Motor Vehicle Home Rule","SCHAUMBURG KIA","1100 E. GOLF ROAD",,"IL","60173"
"3","New Motor Vehicle Home Rule","SCHAUMBURG LINCOLN MERCURY","1200 E GOLF RD",,"IL","60173"
"3","New Motor Vehicle Home Rule","SCHAUMBURG TOYOTA, INC.","875 W GOLF RD",,"IL","60194"
"3","New Motor Vehicle Home Rule","SCHOLL'S 4 SEASONS MOTOR SPTS","9175 ROUTE 59",,"IL","60103"
"3","New Motor Vehicle Home Rule","SCOOTERWORKS USA INC.","5410 N DAMEN",,"IL","60625"
"3","New Motor Vehicle Home Rule","SHEPHERD MOTORCARS","1140 GARFIELD ST",,"IL","60304"
"3","New Motor Vehicle Home Rule","SKOKIE MOTOR SALES, INC.","7601 N SKOKIE BLVD",,"IL","60077"
"3","New Motor Vehicle Home Rule","SMITH MOBILE HOMES, INC.","14115 S WESTERN AVE",,"IL","60406"
"3","New Motor Vehicle Home Rule","SOUTH CHICAGO DODGE C/JP, INC.","7340 S WESTERN AVE",,"IL","60636"
"3","New Motor Vehicle Home Rule","SOUTH HOLLAND DODGE, INC.","113 W 162ND ST",,"IL","60473"
"3","New Motor Vehicle Home Rule","SOUTH HOLLAND MITSUBISHI","150 W 162ND ST",,"IL","60473"
"3","New Motor Vehicle Home Rule","SOUTH OAK DODGE, INC.","4550 W LINCOLN HWY",,"IL","60443"
"3","New Motor Vehicle Home Rule","SOUTH WESTERN MOTOR SALES, INC","6941 S WESTERN AVE",,"IL","60636"
"3","New Motor Vehicle Home Rule","STANDARD EQUIPMENT CO.","2033 W WALNUT",,"IL","60612"
"3","New Motor Vehicle Home Rule","STAR NISSAN","5757 W TOUHY AVE",,"IL","60714"
"3","New Motor Vehicle Home Rule","STEPP EQUIPMENT CO.","5400 STEPP DR",,"IL","60501"
"3","New Motor Vehicle Home Rule","STEVE FOLEY CADILLAC","100 SKOKIE BLVD",,"IL","60062"
"3","New Motor Vehicle Home Rule","SUNSET VILLAGE","2450 N WAUKEGAN RD",,"IL","60093-2723"
"3","New Motor Vehicle Home Rule","SUTTON FORD, INC.","21315 CENTRAL AVE",,"IL","60443"
"3","New Motor Vehicle Home Rule","TERRY'S LINCOLN MERCURY, INC.","9401 W 143RD ST",,"IL","60462"
"3","New Motor Vehicle Home Rule","TESLA MOTORS, INC.","1053 W. GRAND AVE",,"IL","60642"
"3","New Motor Vehicle Home Rule","THE AUTOBARN CITY VOLKSWAGEN","5330 W. IRVING PARK ROAD",,"IL","60641"
"3","New Motor Vehicle Home Rule","THE AUTOBARN LTD.","6060 S. LAGRANGE RD",,"IL","60525"
"3","New Motor Vehicle Home Rule","THE CHICAGO SCOOTER SHOP","1254 N. WELLS STREET",,"IL","60610"
"3","New Motor Vehicle Home Rule","THE PEP BOYS","10100 S RIDGELAND AVE",,"IL","60415"
"3","New Motor Vehicle Home Rule","THE TOOL STORE","4529 S. HARLEM AVE,",,"IL","60402"
"3","New Motor Vehicle Home Rule","THOESEN TRACTOR & EQUIPMENT","3142 LINCOLN HWY",,"IL","60411"
"3","New Motor Vehicle Home Rule","TIMBER RIDGE MOBILE HOME PARK","21700 TIMBER RIDGE ROAD",,"IL","60443-2851"
"3","New Motor Vehicle Home Rule","TONY RIZZA OLDS. & CADILLAC","8425 W 159TH ST",,"IL","60487"
"3","New Motor Vehicle Home Rule","TRI-ANGLE FAB. & BODY CO.","1344 W. 43RD STREET",,"IL","60609"
"3","New Motor Vehicle Home Rule","UNIQUE VANS, INC.","12100 S CICERO AVE",,"IL","60803"
"3","New Motor Vehicle Home Rule","VILLA GARDEN ESTATES","452 LUCILLE",,"IL","60120"
"3","New Motor Vehicle Home Rule","VOLKSWAGEN OF ORLAND PARK","8920 W 159TH ST",,"IL","60462"
"3","New Motor Vehicle Home Rule","VOSS EQUIPMENT INC.","15241 S COMMERCIAL AVE",,"IL","60426"
"3","New Motor Vehicle Home Rule","W T OKI MOTORS, INC.","6320 N. MILWAUKEE AVE.",,"IL","60646"
"3","New Motor Vehicle Home Rule","WALTON ON DEMPSTER, INC.","5050 W DEMPSTER ST",,"IL","60077"
"3","New Motor Vehicle Home Rule","WATER WERKS BOAT SALES, INC.","18660 S CICERO AVE",,"IL","60478"
"3","New Motor Vehicle Home Rule","WEBB CHEVROLET, INC.","9440 S CICERO AVE",,"IL","60453"
"3","New Motor Vehicle Home Rule","WEST SIDE TRACTOR SALES CO.","310 W 162ND ST",,"IL","60473"
"3","New Motor Vehicle Home Rule","WESTERN AVENUE NISSAN","7410 S WESTERN AVE",,"IL","60636"
"3","New Motor Vehicle Home Rule","WESTFIELD FORD, INC.","6200 S LaGrange Rd",,"IL","60525"
"3","New Motor Vehicle Home Rule","WHIPPLETREE VILLAGE","525 N OLD MCHENRY RD",,"IL","60090"
"3","New Motor Vehicle Home Rule","WOODFIELD ACURA","1099 W HIGGINS RD",,"IL","60195"
"3","New Motor Vehicle Home Rule","WOODFIELD CHEVROLET GEO INC.","1100 E GOLF",,"IL","60173"
"3","New Motor Vehicle Home Rule","WOODFIELD HUMMER, INC.","1230 E GOLF ROAD",,"IL","60173"
"3","New Motor Vehicle Home Rule","WOODFIELD LEXUS, INC.","350 E GOLF RD",,"IL","60193"
"3","New Motor Vehicle Home Rule","WOODFIELD NISSAN, INC.","700 W HIGGINS RD",,"IL","60195"
"3","New Motor Vehicle Home Rule","WOODY BUICK-PONTIAC-GMC, INC.","909 E CHICAGO ST",,"IL","60120"
"3","New Motor Vehicle Home Rule","WORLD HYUNDAI MATTESON","5337 MILLER CIRCLE DR",,"IL","60443"
"3","New Motor Vehicle Home Rule","ZEIGLER CHEVROLET-SCHAUMBURG LLC","1230 E. GOLF ROAD",,"IL","60173"
"3","New Motor Vehicle Home Rule","ZEIGLER CHRYSLER DODGE JEEP","208 W. GOLF ROAD",,"IL","60195"
"3","New Motor Vehicle Home Rule","ZEIGLER MOTORS LLC","208B W. GOLF ROAD",,"IL","60195"
"3","New Motor Vehicle Home Rule","ZEMAN HOMES INC (SV)","21191 TORRENCE AVE",,"IL","60411"
"3","New Motor Vehicle Home Rule","ZEMAN HOMES INC. (AH)","2300 OAKTON ST",,"IL","60005"
"3","New Motor Vehicle Home Rule","ZEMAN HOMES INC. (BL)","14139 S WESTERN AVE",,"IL","60406"
"3","New Motor Vehicle Home Rule","ZEMAN HOMES INC. (BR)","8800 S HARLEM AVE",,"IL","60455"
"3","New Motor Vehicle Home Rule","ZEMAN HOMES INC. (DP)","815 OAKTON",,"IL","60018"
"3","New Motor Vehicle Home Rule","ZEMAN HOMES INC. (EL)","850 VILLA 1",,"IL","60120"
"3","New Motor Vehicle Home Rule","ZEMAN HOMES INC. (HG)","6208 LAWN DR",,"IL","60525"
"3","New Motor Vehicle Home Rule","ZEMAN HOMES INC. (LW)","21425 LINCOLN HWY",,"IL","60411"
"3","New Motor Vehicle Home Rule","Z-FRANK, INC.","6060 N WESTERN AVE",,"IL","60659"
"7","Dealer Use Tax Home Rule"," ZBAK AUTO BODY & SALES","1301 W. ARMITAGE, UNIT G",,"IL","60160"
"7","Dealer Use Tax Home Rule","10TH WARD AUTO SALES","13428 S HOUSTON ST",,"IL","60633"
"7","Dealer Use Tax Home Rule","18 WHEELER DIESEL SERVICE, INC","5144 W 26TH ST",,"IL","60804"
"7","Dealer Use Tax Home Rule","2001 BOUTIQUE & SALES","2301 OAKTON ROAD UNIT 1",,"IL","60005"
"7","Dealer Use Tax Home Rule","3 G'S AUTO SALES","7304 W. ROOSEVELT ROAD",,"IL","60130"
"7","Dealer Use Tax Home Rule","3 STARS AUTO SALES, INC.","5828 N BROADWAY",,"IL","60660"
"7","Dealer Use Tax Home Rule","42ND ST. AUTO SALES","4255 S KEDZIE AVE",,"IL","60632"
"7","Dealer Use Tax Home Rule","47TH CENTRAL AUTO REPAIR & SLS","4731 S CENTRAL AVE",,"IL","60638"
"7","Dealer Use Tax Home Rule","83 RV, INC.","25514 N HWY. 83",,"IL","60060"
"7","Dealer Use Tax Home Rule","A & D IMPORT MOTORS INC.","7535 W IRVING PARK RD",,"IL","60634-2105"
"7","Dealer Use Tax Home Rule","A & K AUTO SALES","1255 LEE STREET",,"IL","60018"
"7","Dealer Use Tax Home Rule","A & S AUTO SALES","3300 W NORTH AVE",,"IL","60165"
"7","Dealer Use Tax Home Rule","A & Z ENTERPRISES INC.","8278 S 86TH CT",,"IL","60458"
"7","Dealer Use Tax Home Rule","A 1 M AUTO SALES","2446-48 N CICERO AVE",,"IL","60639"
"7","Dealer Use Tax Home Rule","A KELLEY'S GARAGE. INC.","4825 W LAKE ST",,"IL","60160"
"7","Dealer Use Tax Home Rule","A M S AUTO SALES","5626 W 63RD PL",,"IL","60638"
"7","Dealer Use Tax Home Rule","A PLUS AUTO SALES","6901 S CHICAGO AVE",,"IL","60637"
"7","Dealer Use Tax Home Rule","A.C. IMPORTS, INC.","1410 W NORTHWEST HWY",,"IL","60067"
"7","Dealer Use Tax Home Rule","A-1 AUTO CORP.","594 W LAKE ST",,"IL","60126"
"7","Dealer Use Tax Home Rule","A1 AUTO SALES","14255 S. WESTERN AVE., UNIT B",,"IL","60406"
"7","Dealer Use Tax Home Rule","AA TEMPO AUTO, INC.","3429-31 N. PULASKI ROAD",,"IL","60641"
"7","Dealer Use Tax Home Rule","AAA AUTO SALES","577 N MILWAUKEE AVE",,"IL","60090"
"7","Dealer Use Tax Home Rule","A-ACTION AUTO BODY, INC.","6645 W IRVING PARK RD",,"IL","60634"
"7","Dealer Use Tax Home Rule","AAPEX TRAILERS, INC.","1900 W 43RD ST",,"IL","60609"
"7","Dealer Use Tax Home Rule","AARON AUTO BROKERS, INC.","3403 W LAKE ST",,"IL","60160"
"7","Dealer Use Tax Home Rule","ABC AUTO PARTS SALES","13741 S ASHLAND AVE",,"IL","60406"
"7","Dealer Use Tax Home Rule","ABCO TRUCK & EQUIPMENT","4427 MIDLOTHIAN TURNPIKE",,"IL","60445"
"7","Dealer Use Tax Home Rule","ABEL RECREATIONAL SERVICE, INC","1180 W LAKE ST",,"IL","60103"
"7","Dealer Use Tax Home Rule","ABERDEEN AUTO","1043 W FULTON MARKET",,"IL","60607"
"7","Dealer Use Tax Home Rule","ACE AUTO SERVICES","875 E RAND RD",,"IL","60016"
"7","Dealer Use Tax Home Rule","ACE MOTORCYCLE & SCOOTER CO., INC.","1042 W. JACKSON BLVD.",,"IL","60607"
"7","Dealer Use Tax Home Rule","ACURA OF LIBERTYVILLE","1620 S MILWAUKEE AVE",,"IL","60048"
"7","Dealer Use Tax Home Rule","ADDISON MOTORS","3555 N OAK PARK AVE",,"IL","60634"
"7","Dealer Use Tax Home Rule","ADELMANS TRUCK & EQUIPMENT, CORP.","3033 E. 106TH STREET",,"IL","60617"
"7","Dealer Use Tax Home Rule","ADMIRAL MOTORS, INC.","400 W NORTHWEST HWY ST.400F",,"IL","60004"
"7","Dealer Use Tax Home Rule","ADVANCE CREDIT CAR SLS, INC.","1615 N. MANNHEIM ROAD",,"IL","60165"
"7","Dealer Use Tax Home Rule","ADVANTAGE AUTO SALES","12730 CAL SAG RD",,"IL","60445"
"7","Dealer Use Tax Home Rule","ADVANTAGE CHEV. OF BOLINGBROOK","115 W SOUTH FRONTAGE ROAD",,"IL","60440"
"7","Dealer Use Tax Home Rule","AERO AUTO SALES","6341 S WENTWORTH AVE",,"IL","60621"
"7","Dealer Use Tax Home Rule","AFFORDABLE AUTOS INC.","888 E CHICAGO ST",,"IL","60120"
"7","Dealer Use Tax Home Rule","AGF ENTERPRISES, INC.","13449 S PULASKI",,"IL","60472"
"7","Dealer Use Tax Home Rule","AIRPORT CYCLE SALES, INC.","4520 W 63RD ST",,"IL","60629"
"7","Dealer Use Tax Home Rule","AIRWAY TRAILER SALES","9001 S CICERO AVE",,"IL","60453"
"7","Dealer Use Tax Home Rule","AL MEDINA AUTO REPAIR & BODY","4876 N. CLARK",,"IL","60640"
"7","Dealer Use Tax Home Rule","AL PIEMONTE ARLINGTON HTS FORD","801 W DUNDEE RD",,"IL","60004"
"7","Dealer Use Tax Home Rule","AL PIEMONTE CADILLAC, INC.","1611 E MAIN ST",,"IL","60174"
"7","Dealer Use Tax Home Rule","AL PIEMONTE FORD SALES, INC.","2500 W NORTH AVE",,"IL","60160"
"7","Dealer Use Tax Home Rule","AL PIEMONTE NISSAN, INC.","401-11 E NORTH AVE",,"IL","60164"
"7","Dealer Use Tax Home Rule","ALBANY AUTO INC.","4030 N ROCKWELL",,"IL","60618"
"7","Dealer Use Tax Home Rule","ALBO AUTO BODY WORKS, INC.","505 W. COLFAX STREET",,"IL","60067"
"7","Dealer Use Tax Home Rule","ALBRECHTS FAST TRACK INC.","1664 OAKTON ST",,"IL","60018"
"7","Dealer Use Tax Home Rule","ALL POINTS EQUIPTMENT CO.,INC.","8500 W 53RD. ST",,"IL","60525"
"7","Dealer Use Tax Home Rule","ALL SEASONS MARINE & SERVICE, INC.","15337 S. CICERO AVE.",,"IL","60452"
"7","Dealer Use Tax Home Rule","ALL STAR AUTO BODY, INC.","9696 W FOSTER AVE",,"IL","60656"
"7","Dealer Use Tax Home Rule","ALL STAR OF CHICAGO","9139 S ASHLAND AVE",,"IL","60620"
"7","Dealer Use Tax Home Rule","ALSIP AUTO & COLLISION INC.","11830 S CICERO AVE",,"IL","60803"
"7","Dealer Use Tax Home Rule","ALWAYS WHOLESALE, INC.","4381 W. OGDEN AVE.",,"IL","60623"
"7","Dealer Use Tax Home Rule","AMER LEASING SALES, INC.","3434 W NORTH AVE",,"IL","60647"
"7","Dealer Use Tax Home Rule","AMERICAN CAR EXCHANGE","1133 N ASHLAND AVE",,"IL","60622"
"7","Dealer Use Tax Home Rule","AMERICAN CHEVROLET, INC.","9510 W JOLIET RD",,"IL","60525"
"7","Dealer Use Tax Home Rule","AMERICAN CREDIT ENTERPRISES","3600 W NORTH AVE",,"IL","60647"
"7","Dealer Use Tax Home Rule","AMERICAN HOMELAND, INC.","14218 S WESTERN AVE",,"IL","60469"
"7","Dealer Use Tax Home Rule","ANDERSON MT. CO OF CRYSTAL LK","360 N ROUTE 31",,"IL","60014"
"7","Dealer Use Tax Home Rule","ANGELOS AUTO SALES","16426 S HALSTED ST",,"IL","60426"
"7","Dealer Use Tax Home Rule","ANTHONY PONTIAC BUICK, INC.","7225 GRAND AVE",,"IL","60031"
"7","Dealer Use Tax Home Rule","ANTHONY'S AUTO SALES, INC.","16259 HALSTED STREET",,"IL","60426"
"7","Dealer Use Tax Home Rule","ANYTHING WITH WHEELS LLC","2296 RAND RD",,"IL","60067"
"7","Dealer Use Tax Home Rule","A-OK AUTOMOTIVE","5809 S ARCHER AVE",,"IL","60638"
"7","Dealer Use Tax Home Rule","APACHE FORD-MERCURY, INC.","2600 E ROUTE 34",,"IL","60548"
"7","Dealer Use Tax Home Rule","APOLLO MOTORS","2457 N CICERO AVE",,"IL","60639"
"7","Dealer Use Tax Home Rule","APPLE CHEVROLET, INC.","8585 W 159TH ST",,"IL","60487"
"7","Dealer Use Tax Home Rule","ARCHER AUTO SALES","4411-15 S ARCHER AVE",,"IL","60632"
"7","Dealer Use Tax Home Rule","ARI FLEET LT","9000 MIDLANTIC DR",,"NJ","08054"
"7","Dealer Use Tax Home Rule","ARLINGTON ACURA IN PALATINE","1275 E DUNDEE RD",,"IL","60067"
"7","Dealer Use Tax Home Rule","ARLINGTON KIA IN PALATINE","1400 E. DUNDEE RD.",,"IL","60005"
"7","Dealer Use Tax Home Rule","ARLINGTON LEXUS IN PALATINE","1285 E DUNDEE RD",,"IL","60067"
"7","Dealer Use Tax Home Rule","ARLINGTON MOTORSPORTS","1020 W NORTHWEST HWY",,"IL","60004-5247"
"7","Dealer Use Tax Home Rule","ARLINGTON NISSAN IN ARLINGTON HGHTS.","1400 W. DUNDEE ROAD",,"IL","60004"
"7","Dealer Use Tax Home Rule","ARLINGTON TOYOTA, INC.","2095 N. RAND ROAD",,"IL","60074"
"7","Dealer Use Tax Home Rule","ARNIE BAUER CADILLAC GMAC","5525 MILLER CIRCLE DR",,"IL","60443"
"7","Dealer Use Tax Home Rule","ARROW MOBILE HOME PARK, INC.","11725 S RIDGELAND AVE",,"IL","60482"
"7","Dealer Use Tax Home Rule","ASHLAND AUTO REPAIR & SALES","5323 S ASHLAND AVE",,"IL","60609"
"7","Dealer Use Tax Home Rule","ASIA MOTORS, INC.","1659 W GRAND AVE",,"IL","60622"
"7","Dealer Use Tax Home Rule","ASTRO AUTO SALES INC.","4956 W BELMONT AVE",,"IL","60641"
"7","Dealer Use Tax Home Rule","ATHANS MOTORS","9040 N. WAUKEGAN ROAD",,"IL","60053"
"7","Dealer Use Tax Home Rule","ATHENIAN BODY SHOP","10101 S RIDGELAND AVE",,"IL","60415"
"7","Dealer Use Tax Home Rule","ATLAS AUTO SALES","609 N CICERO AVE",,"IL","60644"
"7","Dealer Use Tax Home Rule","ATLAS AUTOMOTIVE LTD","1811 N HUMBOLDT BLVD",,"IL","60647"
"7","Dealer Use Tax Home Rule","ATLAS BOBCAT LLC","5050 N. RIVER ROAD",,"IL","60176"
"7","Dealer Use Tax Home Rule","ATLAS BOBCAT, INC.","5050 N RIVER RD",,"IL","60176"
"7","Dealer Use Tax Home Rule","AUDI EXCHANGE","2490 SKOKIE VALLEY ROAD",,"IL","60035"
"7","Dealer Use Tax Home Rule","AUSTIN CAR CREDIT, INC.","5941 W NORTH AVE",,"IL","60639"
"7","Dealer Use Tax Home Rule","AUTO CARS DE ELEGANCE","1911 PICKWICK AVE.",,"IL","60026"
"7","Dealer Use Tax Home Rule","AUTO CREDIT CORP.","14559 TORRENCE AVE., UNIT 1A",,"IL","60633"
"7","Dealer Use Tax Home Rule","AUTO EXCHANGE INC.","15859 DIXIE HWY",,"IL","60426"
"7","Dealer Use Tax Home Rule","AUTO EXPRESS INC","9348 W GRAND AVE",,"IL","60131"
"7","Dealer Use Tax Home Rule","AUTO FIN AUTO, INC.","1411 RAND ROAD",,"IL","60016"
"7","Dealer Use Tax Home Rule","AUTO LAND SALES, INC.","3509 W FULLERTON AVE",,"IL","60647"
"7","Dealer Use Tax Home Rule","AUTO LAND, INC.","2240 RAND ROAD",,"IL","60074"
"7","Dealer Use Tax Home Rule","AUTO MANIA, INC.","1330 S. CICERO AVE.",,"IL","60804"
"7","Dealer Use Tax Home Rule","AUTO MART CREDIT, INC.","2536 N.CICERO",,"IL","60639"
"7","Dealer Use Tax Home Rule","AUTO PARK LIMITED","1824 N. 32ND AVE",,"IL","60165"
"7","Dealer Use Tax Home Rule","AUTO PROGRESS INC","4325 W ADDISON",,"IL","60641"
"7","Dealer Use Tax Home Rule","AUTO STAR CHICAGO, INC.","6501 N WESTERN AVE",,"IL","60615"
"7","Dealer Use Tax Home Rule","AUTO UNO LTD.","2256 N. CICERO AVE",,"IL","60639"
"7","Dealer Use Tax Home Rule","AUTO WERKS OF NORTHBROOK, INC.","1827 JANKE DRIVE",,"IL","60062"
"7","Dealer Use Tax Home Rule","AUTOBARN NISSAN","1015 CHICAGO AVE",,"IL","60202"
"7","Dealer Use Tax Home Rule","AUTOBARN VOLKSWAGON-OLDS","1012 CHICAGO AVE",,"IL","60202"
"7","Dealer Use Tax Home Rule","AUTOHAUS ENTERPRISES","4333 W ADDISON ST",,"IL","60641"
"7","Dealer Use Tax Home Rule","AUTOHAUS ON EDENS, INC.","1550 FRONTAGE RD",,"IL","60062"
"7","Dealer Use Tax Home Rule","AUTOLAND VAN & TRUCK CENTER LL","9159 S HARLEM AVE",,"IL","60455"
"7","Dealer Use Tax Home Rule","AUTO-MANIA INC","3900-14 N MILWAUKEE AVE",,"IL","60641"
"7","Dealer Use Tax Home Rule","AUTOMAX CHICAGO, INC.","3125 N. CICERO AVE.",,"IL","60641"
"7","Dealer Use Tax Home Rule","AUTOMOTIVE DESIGN CENTER","14135 HARRISON ST",,"IL","60469"
"7","Dealer Use Tax Home Rule","AUTOMOTIVE RENTALS INC.","9000 MIDLANTIC DR",,"NJ","08054"
"7","Dealer Use Tax Home Rule","AUTOMOTO, INC.","731 LUNT",,"IL","60193"
"7","Dealer Use Tax Home Rule","AUTOMOTRIZ MONTERREY AUTO","2000 S WESTERN AVE",,"IL","60608"
"7","Dealer Use Tax Home Rule","AUTOPOINT AUTO SALES, INC.","2316 RAND ROAD",,"IL","60074"
"7","Dealer Use Tax Home Rule","AUTOSPRINT IMPORT SALES","5259 W ADDISON",,"IL","60641"
"7","Dealer Use Tax Home Rule","AUTOWORTH INC","6417 W 111TH ST",,"IL","60482"
"7","Dealer Use Tax Home Rule","AVENUE AUTO SALES INC","5266 N ELSTON AVE",,"IL","60630"
"7","Dealer Use Tax Home Rule","AXESS AUTO SALES","6240 W OGDEN",,"IL","60402"
"7","Dealer Use Tax Home Rule","AZTECA AUTO SALES, INC.","4252 S WESTERN AVE",,"IL","60609"
"7","Dealer Use Tax Home Rule","B & M AUTO SALES","6100 W 159TH ST",,"IL","60452"
"7","Dealer Use Tax Home Rule","B & R MOTOR SALES","3601-21 N CICERO AVE",,"IL","60641"
"7","Dealer Use Tax Home Rule","B S AUTO REBUILDERS","3513 N CICERO AVE",,"IL","60641"
"7","Dealer Use Tax Home Rule","BAHA AUTO SALES, INC.","4257 W NORTH AVE",,"IL","60639"
"7","Dealer Use Tax Home Rule","BAHENA AUTO SALES","1600 S 55TH AVE",,"IL","60804"
"7","Dealer Use Tax Home Rule","BAINES PROFESSIONAL VEHICLES","2110 FOSTER AVE",,"IL","60090"
"7","Dealer Use Tax Home Rule","BALZEKAS MOTOR SALES","4030 S ARCHER AVE",,"IL","60632"
"7","Dealer Use Tax Home Rule","BAM AUTO HOUSE","151 N. CICERO AVE.",,"IL","60644"
"7","Dealer Use Tax Home Rule","BARAKA AUTO SALES, INC.","4031 N. ELSTON AVE.",,"IL","60618"
"7","Dealer Use Tax Home Rule","BARBARA MOTORWORKS LTD.","6201 W CANAL BANK RD",,"IL","60402"
"7","Dealer Use Tax Home Rule","BARNES USED CARS INC","2125 N CICERO AVE",,"IL","60639"
"7","Dealer Use Tax Home Rule","BARRINGTON AUTO SALES","20077 N RAND RD",,"IL","60074"
"7","Dealer Use Tax Home Rule","BARRINGTON MOTOR SALES","1201 W LAKE ST",,"IL","60103"
"7","Dealer Use Tax Home Rule","BARTLETT MOBILE HOME, INC.","100 FIRST ST",,"IL","60103"
"7","Dealer Use Tax Home Rule","BAY AUTO SALES, INC.","473 BURNHAM AVE",,"IL","60409"
"7","Dealer Use Tax Home Rule","BEN FRANKLIN MOTORS, LTD.","6100-16 N CLARK ST",,"IL","60660"
"7","Dealer Use Tax Home Rule","BEN MCKENNA AUTO GROUP","2251 N. CICERO AVE",,"IL","60639"
"7","Dealer Use Tax Home Rule","BENEFIT AUTO SALES","4231 N KEDZIE AVE",,"IL","60618"
"7","Dealer Use Tax Home Rule","BEN'S AUTO SALES","5558 W HARRISON ST",,"IL","60644"
"7","Dealer Use Tax Home Rule","BERMAN'S INFINITI OF CHICAGO, INC.","640 N. LASALLE STREET",,"IL","60610"
"7","Dealer Use Tax Home Rule","BERN'S AUTO SALES","1700 N WESTERN AVE",,"IL","60647"
"7","Dealer Use Tax Home Rule","BERWYN AUTO SALES, CO.","6301 W. OGDEN AVE.",,"IL","60402"
"7","Dealer Use Tax Home Rule","BERWYN KIA","7050 OGDEN AVE.",,"IL","60402"
"7","Dealer Use Tax Home Rule","BERWYN MARINE CENTER, INC.","5817 W OGDEN AVE",,"IL","60804"
"7","Dealer Use Tax Home Rule","BEST BUY AUTO SALES CENTER, INC.","3128 W. 147TH STREET",,"IL","60469"
"7","Dealer Use Tax Home Rule","BEST CAR OF IL, INC.","211 INDUSTRIAL LANE STE.-1",,"IL","60090"
"7","Dealer Use Tax Home Rule","BEST STOP AUTO SALES, INC.","5007-5009 W. NORTH AVE.",,"IL","60639"
"7","Dealer Use Tax Home Rule","BEST VALUE AUTO SALES","2935 W 127TH ST",,"IL","60406"
"7","Dealer Use Tax Home Rule","BESTWAY AUTO SALES","12231 S CICERO AVE",,"IL","60803"
"7","Dealer Use Tax Home Rule","BETTENHAUSEN MOTOR SALES","17514 S OAK PARK AVE",,"IL","60487"
"7","Dealer Use Tax Home Rule","BIDUX CARGO LLC","1901 E. END AVE.",,"IL","60411"
"7","Dealer Use Tax Home Rule","BIEWALD MOTOR SALES","7216-18 N WESTERN AVE",,"IL","60645"
"7","Dealer Use Tax Home Rule","BIG CITY MOTOR SALES, INC.","3800 W 79TH ST",,"IL","60652"
"7","Dealer Use Tax Home Rule","BIG DISCOUNT MOTORS, INC.","14201 S. CICERO AVE.",,"IL","60445"
"7","Dealer Use Tax Home Rule","BIG TOP AUTO PARTS INC.","20877 COTTAGE GROVE AVE",,"IL","60411-2284"
"7","Dealer Use Tax Home Rule","BIGGERS CHEVROLET, INC.","1385 E CHICAGO ST",,"IL","60120"
"7","Dealer Use Tax Home Rule","BIGGERS IMPORTS OF SCHAUMBURG","660 E GOLF RD",,"IL","60173"
"7","Dealer Use Tax Home Rule","BIGGERS IMPORTS, INC.","1325 E CHICAGO ST",,"IL","60120"
"7","Dealer Use Tax Home Rule","BIGGERS MOTORS, INC.","1320 E CHICAGO ST",,"IL","60120"
"7","Dealer Use Tax Home Rule","BILL JACOBS CHEV., INC.","2001 W JEFFERSON ST",,"IL","60435"
"7","Dealer Use Tax Home Rule","BILL JACOBS ENTERPRISES, INC.","16140 S. LINCOLN HWY.",,"IL","60586"
"7","Dealer Use Tax Home Rule","BILL KAY CHEVROLET","601 OGDEN AVE",,"IL","60532"
"7","Dealer Use Tax Home Rule","BILL KAY CHRY/PLY OF NAPERVILE","2100 OGDEN AVE.",,"IL","60515"
"7","Dealer Use Tax Home Rule","BILL KAY CHRYSLER PLYMOUTH,INC","2100 OGDEN AVE",,"IL","60515"
"7","Dealer Use Tax Home Rule","BILL KAY FORD, INC.","14633 S CICERO AVE",,"IL","60445"
"7","Dealer Use Tax Home Rule","BILL STASEK CHEVROLET","700 W DUNDEE RD",,"IL","60090"
"7","Dealer Use Tax Home Rule","BILL SULLIVAN PONTIAC, INC.","777 W DUNDEE RD",,"IL","60004"
"7","Dealer Use Tax Home Rule","BIONIC AUTO PARTS SALES","4655 W NORTH AVE",,"IL","60639"
"7","Dealer Use Tax Home Rule","BJS AUTO SALES","4816 W 16TH ST",,"IL","60804"
"7","Dealer Use Tax Home Rule","B-LOW AUTO SALES REBUILDERS","3201 HOLEMAN AVE",,"IL","60411"
"7","Dealer Use Tax Home Rule","BLUE ISLAND AUTO SALES, INC.","3445 W 127TH ST",,"IL","60406"
"7","Dealer Use Tax Home Rule","BLUE ISLAND BROADWAY AUTO","2940 MINNESOTA AVE",,"IL","60406"
"7","Dealer Use Tax Home Rule","BLUE STAR AUTO LINK","960 RAND RD 113A",,"IL","60016"
"7","Dealer Use Tax Home Rule","BMW OF SCHERERVILLE","1400 US. 41",,"IN","48375"
"7","Dealer Use Tax Home Rule","BOB JASS CHEVROLET INC.","300 S MAIN ST",,"IL","60119"
"7","Dealer Use Tax Home Rule","BOB ROHRMAN SCHAUMBURG FORD","815 E. GOLF ROAD",,"IL","60173"
"7","Dealer Use Tax Home Rule","BOB'S AUTO SALES","2901 N CICERO AVE",,"IL","60641"
"7","Dealer Use Tax Home Rule","BODY WERKS OF SKOKIE, INC.","8444 NILES CENTER ROAD",,"IL","60077"
"7","Dealer Use Tax Home Rule","BODY WERKS OF STREAMWOOD","1541 BRANDY PARKWAY",,"IL","60107"
"7","Dealer Use Tax Home Rule","BOSE MOTORS","5643 S WESTERN AVE",,"IL","60636"
"7","Dealer Use Tax Home Rule","BRAGG'S AUTOMOTIVE, INC.",,"2910 BERNICE RD","IL","60438"
"7","Dealer Use Tax Home Rule","BRAVO AUTO MART, INC.","4637 S. KEDZIE",,"IL","60632"
"7","Dealer Use Tax Home Rule","BREDEMANN CHEV-SUBURU-KIA","1401 W DEMPSTER",,"IL","60068"
"7","Dealer Use Tax Home Rule","BREDEMANN FORD IN GLENVIEW","2038 WAUKEGAN RD",,"IL","60025"
"7","Dealer Use Tax Home Rule","BREDEMANN FORD-NAPLETON FLEET","1 E. OAK HILL DR., SUITE 100",,"IL","60559"
"7","Dealer Use Tax Home Rule","BREDEMANN LEXUS IN GLENVIEW","2000 WAUKEGAN RD",,"IL","60025"
"7","Dealer Use Tax Home Rule","BREDEMANN TOYOTA, INC.","1301 W DEMPSTER",,"IL","60068"
"7","Dealer Use Tax Home Rule","BRIDGEVIEW AUTO SALES","7126 S WESTERN AVE",,"IL","60636"
"7","Dealer Use Tax Home Rule","BRILLANCE MOTOR SALES, INC.","210 N ROUTE 31",,"IL","60014"
"7","Dealer Use Tax Home Rule","BRITE WAY AUTO SALES, INC.","13547 S WESTERN AVE",,"IL","60406"
"7","Dealer Use Tax Home Rule","BROADWAY AUTO SALES","3019 EAST END AVE",,"IL","60411"
"7","Dealer Use Tax Home Rule","BROWN'S AUTO INC","6440 N WESTERN AVE",,"IL","60645"
"7","Dealer Use Tax Home Rule","BRUMMEL AUTO SALES","9932 S VINCENNES AVE",,"IL","60643"
"7","Dealer Use Tax Home Rule","BUMP CITY AUTOMOBILE BODY, INC","28 LAKE ST",,"IL","60302"
"7","Dealer Use Tax Home Rule","BURDIS MOTOR WORKS, INC.","9415 SEYMOUR AVE",,"IL","60176"
"7","Dealer Use Tax Home Rule","BURKE AUTOMOTIVE GROUP, INC.","3300 OGDEN AVE",,"IL","60532"
"7","Dealer Use Tax Home Rule","BUSS FORD SALES","111 S ROUTE 31",,"IL","60050"
"7","Dealer Use Tax Home Rule","BYRD'S AUTO, INC.","6820 S WESTERN AVE",,"IL","60636"
"7","Dealer Use Tax Home Rule","C & M IMPERIAL MOTORS, INC.","7221 S WESTERN AVE",,"IL","60636"
"7","Dealer Use Tax Home Rule","C JAMES AUTO SALES","3452 N ELSTON",,"IL","60618"
"7","Dealer Use Tax Home Rule","C&J AUTO PARTS INC.","3200 S ARCHER AVE",,"IL","60608"
"7","Dealer Use Tax Home Rule","C. JAMES AUTO SALES, INC.","1680 SAUK TRAIL",,"IL","60411"
"7","Dealer Use Tax Home Rule","CAB WEST LLC","1 AMERICAN ROAD MAIL DP CA17",,"MI","48126"
"7","Dealer Use Tax Home Rule","CABELA'S RETAIL IL, INC.","5225 PRAIRE STONE PARKWAY",,"IL","60192"
"7","Dealer Use Tax Home Rule","CADDY CORNER","300 W 162ND ST",,"IL","60473"
"7","Dealer Use Tax Home Rule","CAIRO AUTO WHOLESALE","625 N CICERO AVE",,"IL","60644"
"7","Dealer Use Tax Home Rule","CAL'S AUTO BODY, INC.","9323 SEYMOUR AVE.",,"IL","60176"
"7","Dealer Use Tax Home Rule","CALUMET DOCKSIDE SERVICE","426 BURNHAM AVE",,"IL","60409"
"7","Dealer Use Tax Home Rule","CAMBONI'S, INC.","6801 S LA GRANGE RD",,"IL","60525"
"7","Dealer Use Tax Home Rule","CAMBRAY'S AUTO","3231 S ARCHER AVE",,"IL","60608"
"7","Dealer Use Tax Home Rule","CANDLELIGHT VILLAGE","4 CANDLELIGHT DR",,"IL","60411"
"7","Dealer Use Tax Home Rule","CANELO AUTO SALES & REPAIR","2235-2245 W. 59TH STREET, STE. A",,"IL","60636"
"7","Dealer Use Tax Home Rule","CAPITAL AUTO SALES","2050 N CICERO AVE",,"IL","60639"
"7","Dealer Use Tax Home Rule","CAPITAL MANAGEMENT CORP","9300 W 79TH ST",,"IL","60458"
"7","Dealer Use Tax Home Rule","CAPITAL MOTORS CREDIT, INC.","4220 S WESTERN AVE",,"IL","60609"
"7","Dealer Use Tax Home Rule","CAR CENTER INC.","655 N WESTERN AVE",,"IL","60612"
"7","Dealer Use Tax Home Rule","CAR CHOICE AUTO SALES, INC.","264 N. WESTERN AVE.",,"IL","60612"
"7","Dealer Use Tax Home Rule","CAR CITY AUTO SALES","475 N. WESTERN AVE",,"IL","60612"
"7","Dealer Use Tax Home Rule","CAR CITY, INC.","2232 N. RAND ROAD, UNIT A",,"IL","60074"
"7","Dealer Use Tax Home Rule","CAR CORNER AUTO SALES, INC.","33 E. 162ND STREET",,"IL","60473"
"7","Dealer Use Tax Home Rule","CAR CREDIT CENTER CORP","7600 S WESTERN AVE",,"IL","60620"
"7","Dealer Use Tax Home Rule","CAR CREDIT DEPOT, INC.","7258 S HARLEM AVE",,"IL","60415"
"7","Dealer Use Tax Home Rule","CAR CREDT STOP INC.","1235 BURNHAM AVE",,"IL","60409-5707"
"7","Dealer Use Tax Home Rule","CAR DYNAMICS, INC.","1881 ALGONQUIN ROAD",,"IL","60056"
"7","Dealer Use Tax Home Rule","CAR FINANCE CENTER, INC.","272 TORRENCE AVE",,"IL","60409"
"7","Dealer Use Tax Home Rule","CAR GALLERY, INC.","3641 N WESTERN AVE",,"IL","60618"
"7","Dealer Use Tax Home Rule","CAR LEASING, INC.",,"7100 N RIDGEWAY","IL","60645"
"7","Dealer Use Tax Home Rule","CAR MARKET, INC.","3217 LAKE STREET",,"IL","60160"
"7","Dealer Use Tax Home Rule","CAR NETWORK, INC.","4201 S. KEDZIE AVE.",,"IL","60632"
"7","Dealer Use Tax Home Rule","CAR OUTLET, INC.","4156 N WESTERN AVE",,"IL","60618"
"7","Dealer Use Tax Home Rule","CAR SOURCE USA, INC.","7055 W 79TH ST",,"IL","60459"
"7","Dealer Use Tax Home Rule","CAR STAR AUTO SALES","5954 S ASHLAND AVE",,"IL","60636"
"7","Dealer Use Tax Home Rule","CAR TOWN INC.","850 N WESTERN AVE",,"IL","60622"
"7","Dealer Use Tax Home Rule","CARBANC AUTO SALES, INC.","1881 W ALGONQUIN ROAD",,"IL","60056"
"7","Dealer Use Tax Home Rule","CAREYS CAR & CREDIT CENTER INC","17651 OAK PARK AVE",,"IL","60477-3906"
"7","Dealer Use Tax Home Rule","CARLAND CREDIT, INC.","804 S CICERO AVE",,"IL","60644"
"7","Dealer Use Tax Home Rule","CARLAND SALES & LEASING, INC.","12201 S CICERO AVE",,"IL","60803"
"7","Dealer Use Tax Home Rule","CARLINK MOTORS, INC.","519 E SIBLEY BLVD",,"IL","60419"
"7","Dealer Use Tax Home Rule","CARMASTER, INC.","9215 PARKLANE AVE",,"IL","60131"
"7","Dealer Use Tax Home Rule","CARMAX AUTO SUPERSTORES, INC.","8800 S OAK PARK AVE",,"IL","60487"
"7","Dealer Use Tax Home Rule","CARMAX AUTO SUPERSTORES, INC.","250 E GOLF RD",,"IL","60173"
"7","Dealer Use Tax Home Rule","CARMAX AUTO SUPERSTORES, INC.","6540 W 95TH ST",,"IL","60453"
"7","Dealer Use Tax Home Rule","CARMAX AUTO SUPERSTORES, INC.","1910 W FRONTAGE ROAD",,"IL","60022"
"7","Dealer Use Tax Home Rule","CARMAX AUTO SUPERSTORES, INC.","3320 ODYSSEY AVE",,"IL","60566"
"7","Dealer Use Tax Home Rule","CARMAX SUPER STORES, INC.","101 N WOLF RD STE  8",,"IL","60162"
"7","Dealer Use Tax Home Rule","CAROLOGY LLC","2336-38 N. SEELEY AVE.",,"IL","60647"
"7","Dealer Use Tax Home Rule","CARR'S HONDA CENTER","6600 N WESTERN AVE",,"IL","60645"
"7","Dealer Use Tax Home Rule","CARS R US INC.","3115 N CICERO AVE",,"IL","60641"
"7","Dealer Use Tax Home Rule","CARS USA, INC.","3719 W. ARMITAGE AVE",,"IL","60647"
"7","Dealer Use Tax Home Rule","CASEY EQUIPMENT","1603 E ALGONQUIN RD",,"IL","60005"
"7","Dealer Use Tax Home Rule","CASEY'S AUTO REBUILDERS & SLS","9010 S BELOIT #E",,"IL","60455"
"7","Dealer Use Tax Home Rule","CASTLE BUICK-PONTIAC, INC.","7400 W CERMAK",,"IL","60546"
"7","Dealer Use Tax Home Rule","CASTLE CHEVROLET","400 E ROOSEVELT RD",,"IL","60181"
"7","Dealer Use Tax Home Rule","CASTLE MOTOR SALES","8833 WAUKEGAN RD",,"IL","60053"
"7","Dealer Use Tax Home Rule","CEE AUTO PARTS & SALES","4822 W NORTH AVE",,"IL","60639"
"7","Dealer Use Tax Home Rule","CELEBRITY AUTO SALES","2435 N. CICERO AVE",,"IL","60639"
"7","Dealer Use Tax Home Rule","CENTRAL AUTO SALES","4751 S CENTRAL AVE",,"IL","60638"
"7","Dealer Use Tax Home Rule","CENTRAL COLLISION CENTER, INC.","216 S HARLEM",,"IL","60468"
"7","Dealer Use Tax Home Rule","CERMAK AUTO AUCTION LLC","2135 S. KILBOURN AVE.",,"IL","60623"
"7","Dealer Use Tax Home Rule","CERTIFIED AUTO SALES","9159 S HARLEM AVE UNIT 2",,"IL","60455"
"7","Dealer Use Tax Home Rule","CHAMPION CYCLE CENTER, INC.","3625 N WESTERN AVE",,"IL","60618"
"7","Dealer Use Tax Home Rule","CHAMPION MOTORSPORTS, INC.","12717 CAL SAG ROAD",,"IL","60445"
"7","Dealer Use Tax Home Rule","CHAPIN AUTO SALES, INC.","618 N CICERO AVE",,"IL","60644"
"7","Dealer Use Tax Home Rule","CHARLIE'S AUTOBODY REPAIR SHOP","16050 SUNTONE DR",,"IL","60473"
"7","Dealer Use Tax Home Rule","CHECKPOINT TIRE CENTER, INC.","723 W DUNDEE RD",,"IL","60090"
"7","Dealer Use Tax Home Rule","CHEVROLET OF HOMEWOOD, INC.","18033-35 S HALSTED",,"IL","60430"
"7","Dealer Use Tax Home Rule","CHEVROLET OF NAPERVILLE","1515 W. OGDEN AVE.",,"IL","60546"
"7","Dealer Use Tax Home Rule","CHICAGO AFFORDABLE CARS, INC.","2333 N. SEELEY AVE",,"IL","60647"
"7","Dealer Use Tax Home Rule","CHICAGO AUTO MART, INC.","7145 W 63RD ST",,"IL","60638"
"7","Dealer Use Tax Home Rule","CHICAGO AUTO SALES & SERVICE","1725 N PULASKI RD",,"IL","60639"
"7","Dealer Use Tax Home Rule","CHICAGO AUTO SALES, INC.","5622 N WESTERN AVE",,"IL","60659"
"7","Dealer Use Tax Home Rule","CHICAGO AUTO SOURCE, INC.","6520 S. WESTERN AVE.",,"IL","60636"
"7","Dealer Use Tax Home Rule","CHICAGO AUTOHAUS LTD.","6025 N. CLARK",,"IL","60660"
"7","Dealer Use Tax Home Rule","CHICAGO AUTOMAN INC.","737 N WESTERN AVE",,"IL","60612"
"7","Dealer Use Tax Home Rule","CHICAGO BUS SALES, INC.","4845 W. 167TH STREET, SUITE 300",,"IL","60452"
"7","Dealer Use Tax Home Rule","CHICAGO CAR CENTER, INC.","1655 N WESTERN AVE",,"IL","60647"
"7","Dealer Use Tax Home Rule","CHICAGO CREDIT","1108 S WESTERN AVE",,"IL","60612"
"7","Dealer Use Tax Home Rule","CHICAGO CYCLE CENTER, INC.","6800-20 N WESTERN AVE",,"IL","60645"
"7","Dealer Use Tax Home Rule","CHICAGO CYCLE, INC.","3448 W TOUHY AVE",,"IL","60712"
"7","Dealer Use Tax Home Rule","CHICAGO HARLEY DAVIDSON, INC.","6868 N WESTERN AVE",,"IL","60645"
"7","Dealer Use Tax Home Rule","CHICAGO INT'L TRUCKS LLC","4655 S CENTRAL AVE",,"IL","60638"
"7","Dealer Use Tax Home Rule","CHICAGO INT'L TRUCKS LLC","11816  ROUTE 47",,"IL","60142"
"7","Dealer Use Tax Home Rule","CHICAGO MACK SALES & SRVE.,INC","7900 BULLDOG DR",,"IL","60501"
"7","Dealer Use Tax Home Rule","CHICAGO MARMON TRUCKS","15220 S HALSTED",,"IL","60426"
"7","Dealer Use Tax Home Rule","CHICAGO MOTORS INC.","2552 W CHICAGO AVE",,"IL","60622"
"7","Dealer Use Tax Home Rule","CHICAGO NORTHSIDE TOYOTA","5625 N BROADWAY",,"IL","60660"
"7","Dealer Use Tax Home Rule","CHICAGO PERFORMANCE, INC.","332 E NORTH AVE",,"IL","60164"
"7","Dealer Use Tax Home Rule","CHICAGO TRAILER RECYCLERS","16152 S. CLINTON AVE",,"IL","60426"
"7","Dealer Use Tax Home Rule","CHICAGO TRUCK SALES & SERVICE","5300 W PLATTNER DR",,"IL","60803"
"7","Dealer Use Tax Home Rule","CHICAGO VINTAGE MOTOR CARRIAGE","700 S DES PLAINES",,"IL","60607"
"7","Dealer Use Tax Home Rule","CHICAGOLAND CANOE BASE, INC.","4019 N NARRAGANSETT",,"IL","60634"
"7","Dealer Use Tax Home Rule","CHI-TOWN HARLEY DAVIDSON","17801 S LAGRANGE RD",,"IL","60487"
"7","Dealer Use Tax Home Rule","CHI-TOWN HONDA YAMAHA","19528 BURNHAM AVE",,"IL","60438"
"7","Dealer Use Tax Home Rule","CHRISTIANO MOTORS SALES","3403 S. LAWNDALE AVE.",,"IL","60623"
"7","Dealer Use Tax Home Rule","CICERO AUTO SALES","1040 N CICERO AVE",,"IL","60651"
"7","Dealer Use Tax Home Rule","CICERO AVENUE RESALE CO.","4800 S CICERO AVE",,"IL","60638-2115"
"7","Dealer Use Tax Home Rule","CITY AUTO PARTS & GLASS, INC.","1901 E DOLTON RD",,"IL","60409"
"7","Dealer Use Tax Home Rule","CITY LIMITS HARLEY-DAVIDSON, INC.","2200 N RAND RD",,"IL","60074"
"7","Dealer Use Tax Home Rule","CLASSIC AUTO INC","4939 WILSHIRE BLVD",,"IL","60478"
"7","Dealer Use Tax Home Rule","CLASSIC CARS OF CHICAGO, INC.","5911 LINCOLN AVE",,"IL","60053"
"7","Dealer Use Tax Home Rule","COFFMAN TRUCK SALES, INC.","1149 W LAKE ST",,"IL","60506"
"7","Dealer Use Tax Home Rule","COM-KAY LTD","1885 SIBLEY BLVD",,"IL","60409"
"7","Dealer Use Tax Home Rule","COMMERCIAL SERVICE CENTER","2801 TOUHY AVE., SUITE #E",,"IL","60007"
"7","Dealer Use Tax Home Rule","COMMUNITY HONDA, INC.","8340 W 159TH ST",,"IL","60462"
"7","Dealer Use Tax Home Rule","COMMUNITY MOTORS, INC.","8325 W. 159TH STREET",,"IL","60477"
"7","Dealer Use Tax Home Rule","COMPACT CARS","5915 W GRAND",,"IL","60639"
"7","Dealer Use Tax Home Rule","CONTINENTAL ACURA OF NAPERVLLE","2275 AURORA AVE",,"IL","60540-1003"
"7","Dealer Use Tax Home Rule","CONTINENTAL AUDI, INC.","1527 AURORA AVE",,"IL","60546"
"7","Dealer Use Tax Home Rule","CONTINENTAL AUTO CENTER","5800 S LA GRANGE RD",,"IL","60525"
"7","Dealer Use Tax Home Rule","CONTINENTAL FLEET REMARKETING","16740 OAK PARK AVE",,"IL","60487"
"7","Dealer Use Tax Home Rule","CONTINENTAL HONDA","5901 S LA GRANGE RD",,"IL","60525"
