"company","doing_business_as","address_line_1","address_line_2","city","state","zip_code","registration_account","tax_type","location"
"103RD FOOD AND GAS INC","CITGO GAS STATION","1053 W 103RD STREET",,"CHICAGO","IL","60643","1123671","Sweetened Beverage Home Rule","1053 W 103RD STREET
CHICAGO, IL 60643
(41.706853, -87.649749)"
"10TH GFM INC","COVENIENT FOOD MART ","4301 W IRVING PARK",,"CHICAGO","IL","60641","1122100","Sweetened Beverage Home Rule","4301 W IRVING PARK
CHICAGO, IL 60641
(41.953577, -87.73542)"
"111ST FOOD AND CELLULAR INC",,"423-25 E 111TH ST",,"CHICAGO","IL","60628","1122094","Sweetened Beverage Home Rule","423-25 E 111TH ST
CHICAGO, IL 60628
(41.692744, -87.612353)"
"111TH FOOD MARKET INC","EXPRESS FOOD MART AND CELLULAR","110585 S WENTWORTH AVENUE",,"CHICAGO","IL","60628","1121877","Sweetened Beverage Home Rule","110585 S WENTWORTH AVENUE
CHICAGO, IL 60628"
" 111TH FOOD MART INC",,"1101 W 111TH ST",,"CHICAGO","IL","60643","1122379","Sweetened Beverage Home Rule","1101 W 111TH ST
CHICAGO, IL 60643
(41.692259, -87.650019)"
"111TH STREET INC",,"7 E 111TH ST",,"CHICAGO","IL","60628","1121844","Sweetened Beverage Home Rule","7 E 111TH ST
CHICAGO, IL 60628
(41.692587, -87.62257)"
"11900 MARSHFIELD STATION INC","CALUMET PARK CITGO","11900 S MARSHFIELD AVE",,"CALUMET PARK","IL","60827","1123800","Sweetened Beverage Home Rule","11900 S MARSHFIELD AVE
CALUMET PARK, IL 60827
(41.676774, -87.662444)"
"119TH STEVENS RESTAURANTS INC","McDONALDS ","11920 S WESTERN AVE",,"BLUE ISLAND","IL","60406","1121261","Sweetened Beverage Home Rule","11920 S WESTERN AVE
BLUE ISLAND, IL 60406"
"1500 EAST AVE",,"1500 EAST AVE",,"BERWYN","IL","60402","1122380","Sweetened Beverage Home Rule","1500 EAST AVE
BERWYN, IL 60402
(41.859555, -87.788643)"
"159 SERVICE INC",,"1524 CHICAGO RD",,"CHICAGO HEIGHTS","IL","60411","1123051","Sweetened Beverage Home Rule","1524 CHICAGO RD
CHICAGO HEIGHTS, IL 60411
(41.503206, -87.640747)"
"159TH FOOD & FUEL INC",,"36 W 159TH ST",,"HARVEY","IL","60426","1123751","Sweetened Beverage Home Rule","36 W 159TH ST
HARVEY, IL 60426
(41.600831, -87.658185)"
"161 NORTH CLARK FRESHII LLC",,"161 NORTH CLARK STREET",,"CHICAGO","IL","60601","1122531","Sweetened Beverage Home Rule","161 NORTH CLARK STREET
CHICAGO, IL 60601
(41.884708, -87.630937)"
"175TH & KEDZIE CORP","TEDDY'S FRUIT & MEAT MARKET","17503 S KEDZIE AVE",,"HAZELCREST","IL","60429","1123959","Sweetened Beverage Home Rule","17503 S KEDZIE AVE
HAZELCREST, IL 60429
(41.571641, -87.694277)"
"1 DELI INC",,"6901 S NORMAL AVE",,"CHICAGO","IL","60621","1122165","Sweetened Beverage Home Rule","6901 S NORMAL AVE
CHICAGO, IL 60621"
"1 STOP AND SHOP INC",,"12201-12209 S HALSTED",,"CHICAGO","IL","60628","1123410","Sweetened Beverage Home Rule","12201-12209 S HALSTED
CHICAGO, IL 60628
(41.672205, -87.641664)"
"22ND FOOD MART INC",,"3150 W CERMAK RD",,"CHICAGO","IL","60623","1122058","Sweetened Beverage Home Rule","3150 W CERMAK RD
CHICAGO, IL 60623
(41.851789, -87.704819)"
"2310 E 79TH INC","ALL STAR FUEL AND FOOD","2310 E 79TH STREET",,"CHICAGO","IL","60649","1123440","Sweetened Beverage Home Rule","2310 E 79TH STREET
CHICAGO, IL 60649
(41.751706, -87.567844)"
"24/7 EXPRESS MART INC",,"5101 S ASHLAND AVE",,"CHICAGO","IL","60609","1122337","Sweetened Beverage Home Rule","5101 S ASHLAND AVE
CHICAGO, IL 60609
(41.801034, -87.664665)"
"2624 SOUTH CENTRAL PARK CORPOR","LOS CANDILES RESTAURANT ","2624 S CENTRAL PARK AVE",,"CHICAGO","IL","60623","1123161","Sweetened Beverage Home Rule","2624 S CENTRAL PARK AVE
CHICAGO, IL 60623
(41.843557, -87.714761)"
"26 AND AUSTIN CITGO INC",,"5946 W 26TH ST",,"CICERO","IL","60804","1122145","Sweetened Beverage Home Rule","5946 W 26TH ST
CICERO, IL 60804
(41.843545, -87.773355)"
"31 FOOD AND DOLLAR INC",,"3055 S TRIPP AVENUE",,"CHICAGO","IL","60623","1123692","Sweetened Beverage Home Rule","3055 S TRIPP AVENUE
CHICAGO, IL 60623
(41.837252, -87.730437)"
"31ST FOOD MART INC","31ST FOOD MART ","1314 W 31ST ST",,"CHICAGO","IL","60608","1122946","Sweetened Beverage Home Rule","1314 W 31ST ST
CHICAGO, IL 60608
(41.837891, -87.659232)"
"3400 FOOD AND LIQUOR INC","3400 FOOD AND LIQUOR","3459 W HARRISON",,"CHICAGO","IL","60624","1123669","Sweetened Beverage Home Rule","3459 W HARRISON
CHICAGO, IL 60624
(41.873609, -87.712953)"
"36TH AND KING DRIVE INC",,"342 E 35TH ST",,"CHICAGO","IL","60616","1124213","Sweetened Beverage Home Rule","342 E 35TH ST
CHICAGO, IL 60616
(41.831163, -87.617604)"
"3743 W CHICAGO CORP","WHOLESALE PRICES OPEN TO THE PUBLIC","3743 W CHICAGO",,"CHICAGO","IL","60651","1122871","Sweetened Beverage Home Rule","3743 W CHICAGO
CHICAGO, IL 60651"
"3850 INC","NORTH PULASKI FRESH MARKET ","3850 W FULLERTON",,"CHICAGO","IL","60647","1121692","Sweetened Beverage Home Rule","3850 W FULLERTON
CHICAGO, IL 60647
(41.924575, -87.723901)"
"4300 CITGO INC",,"4300 S WENTWORTH",,"CHICAGO","IL","60609","1122825","Sweetened Beverage Home Rule","4300 S WENTWORTH
CHICAGO, IL 60609
(41.816123, -87.631158)"
"43RD STREET FOOD MART INC",,"246 W 43RD ST",,"CHICAGO","IL","60609","1122883","Sweetened Beverage Home Rule","246 W 43RD ST
CHICAGO, IL 60609
(41.816442, -87.632985)"
"43RD STRET FOOD MART INC.",,"246 w. 43RD ST.",,"CHICAGO","IL","60609","1122124","Sweetened Beverage Home Rule","246 w. 43RD ST.
CHICAGO, IL 60609
(41.816442, -87.632985)"
"47TH DOLLAR FOOD MART INC",,"1714 W 47TH ST",,"CHICAGO","IL","60609","1122877","Sweetened Beverage Home Rule","1714 W 47TH ST
CHICAGO, IL 60609
(41.808608, -87.667991)"
"47TH GROCERY INC",,"1535 W 47TH ST",,"CHICAGO","IL","60609","1122997","Sweetened Beverage Home Rule","1535 W 47TH ST
CHICAGO, IL 60609
(41.808664, -87.663908)"
"4801 S. WILCOTT AVE CORP./LA CANICA",,"4801 S. WLCOTT AVE",,"CHICAGO","IL","60609","1124475","Sweetened Beverage Home Rule","4801 S. WLCOTT AVE
CHICAGO, IL 60609
(41.806484, -87.672195)"
"4 MIL OIL","BP GAS","11201 W CERMAK RD",,"WESTCHESTER","IL","60154","1122966","Sweetened Beverage Home Rule","11201 W CERMAK RD
WESTCHESTER, IL 60154
(41.848089, -87.901993)"
"4 SISTERS MEDITERRANEAN CUISIN",,"10317 S CENTRAL AVE",,"OAK LAWN","IL","60453","1122418","Sweetened Beverage Home Rule","10317 S CENTRAL AVE
OAK LAWN, IL 60453"
"5025 ALSIP CORP","CITGO ","5025 W 111TH STREET",,"ALSIP","IL","60803","1122140","Sweetened Beverage Home Rule","5025 W 111TH STREET
ALSIP, IL 60803
(41.690785, -87.743576)"
"50/50 GROCERY AND BEAUTY INC",,"4017 WEST MADISON ST",,"CHICAGO","IL","60624","1124043","Sweetened Beverage Home Rule","4017 WEST MADISON ST
CHICAGO, IL 60624
(41.880682, -87.726385)"
"509 PETROLEUM INC","CITGO ","5901 S ASHLAND",,"CHICAGO","IL","60636","1122988","Sweetened Beverage Home Rule","5901 S ASHLAND
CHICAGO, IL 60636
(41.786457, -87.66431)"
"54TH IN AND OUT INC","IN AND OUT FOOD MART","5431 S HALSTED STREET",,"CHICAGO","IL","60609","1121883","Sweetened Beverage Home Rule","5431 S HALSTED STREET
CHICAGO, IL 60609
(41.794954, -87.645173)"
"55TH CALIFORNIA ENTERPRISES IN","CALIFORNIA FOOD MART","2800 W 55TH ST",,"CHICAGO","IL","60632","1123994","Sweetened Beverage Home Rule","2800 W 55TH ST
CHICAGO, IL 60632
(41.793723, -87.694058)"
"55TH FUEL MART","AMSTAR","5501 S ASHLAND AVE",,"CHICAGO","IL","60636","1122887","Sweetened Beverage Home Rule","5501 S ASHLAND AVE
CHICAGO, IL 60636
(41.793291, -87.664466)"
"5616 FUEL INC","CITGO FUEL AND MINI MART ","5616 S WESTERN AVE",,"CHICAGO","IL","60636","1121799","Sweetened Beverage Home Rule","5616 S WESTERN AVE
CHICAGO, IL 60636
(41.791778, -87.684073)"
"5827 INC","QUICK PICK FOOD MART","3580 N MILWAUKEE",,"CHICAGO","IL","60641","1122435","Sweetened Beverage Home Rule","3580 N MILWAUKEE
CHICAGO, IL 60641
(41.945764, -87.734765)"
"5 BROTHERFOOD","SHOP4LESS ","1532-34 N PULASKI",,"CHICAGO","IL","60651","1122723","Sweetened Beverage Home Rule","1532-34 N PULASKI
CHICAGO, IL 60651
(41.909147, -87.726484)"
"5 RABANITOS INC",,"1758 W 18TH ST",,"CHICAGO","IL","60608","1123162","Sweetened Beverage Home Rule","1758 W 18TH ST
CHICAGO, IL 60608
(41.85775, -87.670195)"
"5 STARS MINI MART INC",,"2748 W MADISON ST",,"CHICAGO","IL","60612","1123392","Sweetened Beverage Home Rule","2748 W MADISON ST
CHICAGO, IL 60612
(41.881106, -87.694989)"
"63RD AND ASHLAND LLC","EXTRA VALUE FOOD AND LIQUOR ","6257 S ASHLAND AVE",,"CHICAGO","IL","60636","1122845","Sweetened Beverage Home Rule","6257 S ASHLAND AVE
CHICAGO, IL 60636
(41.779675, -87.664181)"
"63RD QUICK STORP INC","63RD QUICK STOP","2423 W 63RD STREET",,"CHICAGO","IL","60629","1123251","Sweetened Beverage Home Rule","2423 W 63RD STREET
CHICAGO, IL 60629
(41.779254, -87.684444)"
"67 STORE INC",,"6655 S CALIFORNIA AVE",,"CHICAGO","IL","60629","1123260","Sweetened Beverage Home Rule","6655 S CALIFORNIA AVE
CHICAGO, IL 60629
(41.77204, -87.693218)"
"7 & 12 FOOD MART INC",,"6756 W DIVERSEY AVE",,"CHICAGO","IL","60707","1123957","Sweetened Beverage Home Rule","6756 W DIVERSEY AVE
CHICAGO, IL 60707
(41.930922, -87.795117)"
"71ST FOOD & VEGETABLE INC",,"3900 W 71ST ST",,"CHICAGO","IL","60629","1123625","Sweetened Beverage Home Rule","3900 W 71ST ST
CHICAGO, IL 60629
(41.764128, -87.720023)"
"72ND PETROLEUM INC","MOBILE GAS","7200 S WESTERN AVE",,"CHICAGO","IL","60636","1122852","Sweetened Beverage Home Rule","7200 S WESTERN AVE
CHICAGO, IL 60636
(41.762534, -87.683281)"
"7336 STONY ISLAND INC","ZEE'S SUPERMARKET PLUS","7336 S STONY ISLAND AVENUE",,"CHICAGO","IL","60649","1123668","Sweetened Beverage Home Rule","7336 S STONY ISLAND AVENUE
CHICAGO, IL 60649
(41.761276, -87.586243)"
"75TH AND YATES GAS INC","AMSTER FUEL AND MINI MART ","2352 E 75TH ST",,"CHICAGO","IL","60649","1123152","Sweetened Beverage Home Rule","2352 E 75TH ST
CHICAGO, IL 60649
(41.758992, -87.566694)"
"75TH FOOD & MEAT MART INC",,"656 E 75TH STREET",,"CHICAGO","IL","60619","1123465","Sweetened Beverage Home Rule","656 E 75TH STREET
CHICAGO, IL 60619
(41.758509, -87.60834)"
"7600 FOOD MART INC",,"7600 S SOUTH CHICAGO AVE",,"CHICAGO","IL","60619","1123157","Sweetened Beverage Home Rule","7600 S SOUTH CHICAGO AVE
CHICAGO, IL 60619
(41.756653, -87.592882)"
"76 ENTERPRISES INC",,"7602 S VINCENNES AVE",,"CHICAGO","IL","60620","1123987","Sweetened Beverage Home Rule","7602 S VINCENNES AVE
CHICAGO, IL 60620
(41.756106, -87.63245)"
"7736 STONY ISLAND INC","ZEES SUPERMARKET PLUS ","7336 S STONY ISLAND AVE",,"CHICAGO","IL","60649","1122841","Sweetened Beverage Home Rule","7336 S STONY ISLAND AVE
CHICAGO, IL 60649
(41.761276, -87.586243)"
"77 FOOD INC",,"3359 S LEAVITT ST",,"CHICAGO","IL","60608","1123781","Sweetened Beverage Home Rule","3359 S LEAVITT ST
CHICAGO, IL 60608
(41.832277, -87.680197)"
"7901 LIQUORS & GROCERY INC/HAPPY LIQUORS",,"7901 S. COTTAGE GROVE AVE",,"CHICAGO","IL","60619","1124564","Sweetened Beverage Home Rule","7901 S. COTTAGE GROVE AVE
CHICAGO, IL 60619
(41.751266, -87.605166)"
"79 FOOD BASKET INC","79 FOOD BASKET","1351 W 79TH ST",,"CHICAGO","IL","60620","1122331","Sweetened Beverage Home Rule","1351 W 79TH ST
CHICAGO, IL 60620
(41.750428, -87.658066)"
"79TH AND ASHLAND ENTERPRISES I","79TH AND ASHLAND","7902 S ASHLAND AVE",,"CHICAGO","IL","60620","1124096","Sweetened Beverage Home Rule","7902 S ASHLAND AVE
CHICAGO, IL 60620
(41.7502, -87.663538)"
"79TH AND OAK PARK MARKET INC",,"6759 W 79TH",,"BURBANK","IL","60459","1122362","Sweetened Beverage Home Rule","6759 W 79TH
BURBANK, IL 60459
(41.748292, -87.789631)"
"79TH FRESH FOOD & MEAT MARKET INC.",,"2900 E. 79TH STREET",,"CHICAGO","IL","60649","1124955","Sweetened Beverage Home Rule","2900 E. 79TH STREET
CHICAGO, IL 60649
(41.751891, -87.553724)"
"7 AND 12 FOOD MART INCORPORATE",,"6756 W DIVERSEY AVENUE",,"CHICAGO","IL","60707","1123456","Sweetened Beverage Home Rule","6756 W DIVERSEY AVENUE
CHICAGO, IL 60707
(41.930922, -87.795117)"
"7 KIDS TREAT LLC","CREAMERY","9320 W 171 ST",,"ORLAND HILLS","IL","60487","1123895","Sweetened Beverage Home Rule","9320 W 171 ST
ORLAND HILLS, IL 60487"
"7 SEAS FOOD MART #2",,"6501 S COTTAGE AVE",,"CHICAGO","IL","60637","1122378","Sweetened Beverage Home Rule","6501 S COTTAGE AVE
CHICAGO, IL 60637"
"83RD STREET GROCERY","83RD STREET GROCERY ","8357 S BUFFALO AVE",,"CHICAGO","IL","60617","1122157","Sweetened Beverage Home Rule","8357 S BUFFALO AVE
CHICAGO, IL 60617
(41.743068, -87.544223)"
"86 FOOD SERVICE LLC","DEARBORN MARKETPLACE","2455 S. DAMEN AVE",,"CHICAGO","IL","60608","1122727","Sweetened Beverage Home Rule","2455 S. DAMEN AVE
CHICAGO, IL 60608
(41.846849, -87.675685)"
"8745 LYONS INC","POSEN SHELL ","3033 W 147TH ST",,"POSEN","IL","60469","1124303","Sweetened Beverage Home Rule","3033 W 147TH ST
POSEN, IL 60469
(41.625968, -87.695254)"
"87TH MOBIL PETROL INC",,"4000 SOUTHWEST HWY",,"HOMETOWN","IL","60456","1122150","Sweetened Beverage Home Rule","4000 SOUTHWEST HWY
HOMETOWN, IL 60456
(41.734228, -87.723288)"
"87TH STREET GAS INC","CLARK GAS STATION ","1400 E 87TH ST",,"CHICAGO","IL","60619","1122837","Sweetened Beverage Home Rule","1400 E 87TH ST
CHICAGO, IL 60619
(41.736848, -87.590098)"
"94 FUEL INC",,"7900-7910 S LAFAYETTE",,"CHICAGO","IL","60620","1122357","Sweetened Beverage Home Rule","7900-7910 S LAFAYETTE
CHICAGO, IL 60620
(41.750757, -87.625834)"
"95TH AND KING ENTERPRISES INC",,"400 E 95TH ST",,"CHICAGO","IL","60619","1123993","Sweetened Beverage Home Rule","400 E 95TH ST
CHICAGO, IL 60619
(41.721946, -87.613801)"
"95TH FUEL MART INC","95TH CAR WASH ","1839 E 9TH ST",,"CHICAGO","IL","60617","1121834","Sweetened Beverage Home Rule","1839 E 9TH ST
CHICAGO, IL 60617"
"95TH MINI MART INC","95TH CITGO","2836 E 95TH ST.",,"CHICAGO","IL","60617","1122178","Sweetened Beverage Home Rule","2836 E 95TH ST.
CHICAGO, IL 60617
(41.722706, -87.554874)"
"95TH MINI MART INC",,"2863 E 95TH ST",,"CHICAGO","IL","60617","1123929","Sweetened Beverage Home Rule","2863 E 95TH ST
CHICAGO, IL 60617
(41.722713, -87.554353)"
"A2Z PETROLEUM INC","LAKE/1ST AVE CITGO ","15 N 1ST AVE",,"MAYWOOD","IL","60153","1123928","Sweetened Beverage Home Rule","15 N 1ST AVE
MAYWOOD, IL 60153
(41.888438, -87.834379)"
"AA1 RABKA INC","BABYLON DISCOUNT FOOD","1608 EMERSON ST",,"EVANSTON","IL","60210","1123263","Sweetened Beverage Home Rule","1608 EMERSON ST
EVANSTON, IL 60210
(42.052148, -87.694941)"
"AAA FOOD MART INC",,"2700 W 25TH ST",,"CHICAGO","IL","60608","1122862","Sweetened Beverage Home Rule","2700 W 25TH ST
CHICAGO, IL 60608
(41.846508, -87.692998)"
"AA AND S INC",,"3159 W CHICAGO SVE",,"CHICAGO","IL","60608","1122370","Sweetened Beverage Home Rule","3159 W CHICAGO SVE
CHICAGO, IL 60608
(41.895566, -87.706335)"
"A & A DOLLAR PLUS INC","HAPPY DOLLAR","3821 W 26TH ST",,"CHICAGO","IL","60623","1123192","Sweetened Beverage Home Rule","3821 W 26TH ST
CHICAGO, IL 60623
(41.844317, -87.720379)"
"AAI KHODIYAR INC",,"211 E JOILET STREET",,"OTTAWA","IL","61350","1123887","Sweetened Beverage Home Rule","211 E JOILET STREET
OTTAWA, IL 61350"
"A AND A FRUIT MARKET INC","ANDYS FRUIT RANCH ","4733 N KEDZIE",,"CHICAGO","IL","60625","1121700","Sweetened Beverage Home Rule","4733 N KEDZIE
CHICAGO, IL 60625
(41.967651, -87.708464)"
"A AND A GAS FUEL MINI FOOD MAR","CLARK","6700 S ASHLAND AVENUE",,"CHICAGO","IL","60636","1122107","Sweetened Beverage Home Rule","6700 S ASHLAND AVENUE
CHICAGO, IL 60636
(41.771831, -87.664102)"
"A AND A MINI MART INC",,"1556 W 63RD ST",,"CHICAGO","IL","60636","1122963","Sweetened Beverage Home Rule","1556 W 63RD ST
CHICAGO, IL 60636
(41.779496, -87.663454)"
"A AND D WHOLESALE",,"4545 W ARMITAGE",,"CHICAGO","IL","60639","1123699","Sweetened Beverage Home Rule","4545 W ARMITAGE
CHICAGO, IL 60639
(41.917012, -87.740534)"
"A AND D WHOLESALE","A AND D WHOLESALE ","4545 W ARMITAGE",,"CHICAGO","IL","60639","1123377","Sweetened Beverage Home Rule","4545 W ARMITAGE
CHICAGO, IL 60639
(41.917012, -87.740534)"
"A AND I FOOD MARKET INC",,"342 WEST 75TH STREET",,"CHICAGO","IL","60620","1122324","Sweetened Beverage Home Rule","342 WEST 75TH STREET
CHICAGO, IL 60620
(41.758094, -87.633702)"
"A AND J MEAT MARKET INC",,"9204 S COTTAGE GROVE",,"CHICAGO","IL","60619","1123359","Sweetened Beverage Home Rule","9204 S COTTAGE GROVE
CHICAGO, IL 60619
(41.727394, -87.604693)"
"A AND J PANTRY INC","COUNTRY PANTRY","4035 W 115TH STREET",,"ALSIP","IL","60803","1121884","Sweetened Beverage Home Rule","4035 W 115TH STREET
ALSIP, IL 60803
(41.683918, -87.721588)"
"A AND M EXPRESS MART INC","BIG SAMS FOOD MART AND CELLULAR ","133 E 75TH ST",,"CHICAGO","IL","60619","1122359","Sweetened Beverage Home Rule","133 E 75TH ST
CHICAGO, IL 60619
(41.758297, -87.620498)"
"A AND N FOOD INC","KIMBALL KWIK MART ","1700 N KIMBALL",,"CHICAGO","IL","60647","1122330","Sweetened Beverage Home Rule","1700 N KIMBALL
CHICAGO, IL 60647
(41.911952, -87.711736)"
"A AND P FOOD AND LIQUORS INC","A AND P FOOD AND LIQUORS INC ","1968 W PETERSON AVE",,"CHICAGO","IL","60660","1123357","Sweetened Beverage Home Rule","1968 W PETERSON AVE
CHICAGO, IL 60660
(41.990719, -87.679377)"
"A AND S SUPERMERCADO INC","MI MEXICO ","2601 W 59TH",,"CHICAGO","IL","60601","1123000","Sweetened Beverage Home Rule","2601 W 59TH
CHICAGO, IL 60601
(41.786514, -87.688886)"
"A.ANTIQUE COFFEE SERVICE INC","BREWSMART BEVERAGE ","975 CRISS CIRCLE",,"ELK GROVE VILLAGE","IL","60007","1121822","Sweetened Beverage Home Rule","975 CRISS CIRCLE
ELK GROVE VILLAGE, IL 60007
(42.031489, -87.972442)"
"ABADA INC",,"2818 W DEVON AVE",,"CHICAGO","IL","60659","1123287","Sweetened Beverage Home Rule","2818 W DEVON AVE
CHICAGO, IL 60659
(41.997537, -87.700672)"
"A BARR DISTRIBUTION INC",,"16300 103RD ST",,"LEMONT","IL","60439","1121711","Sweetened Beverage Home Rule","16300 103RD ST
LEMONT, IL 60439
(41.70016, -88.014199)"
"ABARROTES LA ROSITA INC",,"1902 S WOLF RD",,"WHEELING","IL","60090","1124238","Sweetened Beverage Home Rule","1902 S WOLF RD
WHEELING, IL 60090
(42.09614, -87.907737)"
"ABBASCO FOOD AND LIQUOR INC","BANNER LIQUOR AND TAP","10558 S WEING AVENUE",,"CHICAGO","IL","60617","1123723","Sweetened Beverage Home Rule","10558 S WEING AVENUE
CHICAGO, IL 60617
(41.702689, -87.540103)"
"AB COMPANY INC",,"6525 PROSEL STREET",,"LINCOLNWOOD","IL","60712","1123446","Sweetened Beverage Home Rule","6525 PROSEL STREET
LINCOLNWOOD, IL 60712"
"A & BDISTRIBUTION","A & BDISTRIBUTION","900 N. HAROLD AVE",,"NORTHLAKE","IL","60164","1124624","Sweetened Beverage Home Rule","900 N. HAROLD AVE
NORTHLAKE, IL 60164
(41.929104, -87.898034)"
"ABH FOOD AND LIQUOR",,"5345 W NORTH AVENUE",,"CHICAGO","IL","60639","1122112","Sweetened Beverage Home Rule","5345 W NORTH AVENUE
CHICAGO, IL 60639
(41.909422, -87.759873)"
"ABIA CORPORATION",,"4403 N ELSTON AVE",,"CHICAGO","IL","60630","1123143","Sweetened Beverage Home Rule","4403 N ELSTON AVE
CHICAGO, IL 60630
(41.960978, -87.729736)"
"ABILITY VENDING CO INC","ABILITY VENDING CO INC ","7364 N MILWAUKEE AVENUE",,"NILES","IL","60174","1121381","Sweetened Beverage Home Rule","7364 N MILWAUKEE AVENUE
NILES, IL 60174
(42.015443, -87.804438)"
"ABSOLUTE VENDING SERVICE INC.",,"70 N. GARDEN AVE.",,"ROSELLE","IL","60172","1120967","Sweetened Beverage Home Rule","70 N. GARDEN AVE.
ROSELLE, IL 60172
(41.984826, -88.102538)"
"ABU HASAN GAS AND MININ MART I",,"8721 S COTTAGE GROVE AVE",,"CHICAGO","IL","60619","1122381","Sweetened Beverage Home Rule","8721 S COTTAGE GROVE AVE
CHICAGO, IL 60619
(41.736045, -87.604299)"
"ABU WALID INC.","FOOD BASKET","7205 S HALSTED ST.",,"CHICAGO","IL","60621","1121853","Sweetened Beverage Home Rule","7205 S HALSTED ST.
CHICAGO, IL 60621
(41.763083, -87.644374)"
"ABY AND SUMMUR INC",,"308 E 75TH STREET",,"CHICAGO","IL","60619","1121891","Sweetened Beverage Home Rule","308 E 75TH STREET
CHICAGO, IL 60619
(41.758348, -87.617731)"
"ACE HARDWARE CORPORATION",,"2200 KENSINGTON COURT",,"OAK BROOK","IL","60523","1120971","Sweetened Beverage Home Rule","2200 KENSINGTON COURT
OAK BROOK, IL 60523
(41.842965, -87.952505)"
"A CERTIFIED FOOD MART INC","A CERTIFIED FOOD MART ","115 E 154TH ST",,"HARVEY","IL","60426","1121835","Sweetened Beverage Home Rule","115 E 154TH ST
HARVEY, IL 60426
(41.609922, -87.649464)"
"ACK OPERATING COMPANY LLC","McDONALDS ","22 W 421 ARMY TRAIL RD",,"ADDISON","IL","60101","1121396","Sweetened Beverage Home Rule","22 W 421 ARMY TRAIL RD
ADDISON, IL 60101"
"ADAM AND CICERO INC","ONE STOP SHOP ","206 S CICERO AVE",,"CHICAGO","IL","60644","1122964","Sweetened Beverage Home Rule","206 S CICERO AVE
CHICAGO, IL 60644
(41.878271, -87.745222)"
"ADAMBA IMPORTS INTL INC",,"110-120 RAWLS RD",,"DES PLAINES","IL","60018","1122920","Sweetened Beverage Home Rule","110-120 RAWLS RD
DES PLAINES, IL 60018
(42.02608, -87.916664)"
"ADAM FOOD MART FMX INC",,"559 N LARAMIE AVE",,"CHICAGO","IL","60644","1122053","Sweetened Beverage Home Rule","559 N LARAMIE AVE
CHICAGO, IL 60644
(41.891119, -87.755448)"
"ADAMS FOOD AND CELLULAR INC","ADAMS FOOD MART","6810 S STONY ISLAND AVENUE",,"CHICAGO","IL","60649","1121886","Sweetened Beverage Home Rule","6810 S STONY ISLAND AVENUE
CHICAGO, IL 60649
(41.771306, -87.58628)"
"ADEEB FOOD MART INC",,"5255 W MADISON",,"CHICAGO","IL","60644","1122965","Sweetened Beverage Home Rule","5255 W MADISON
CHICAGO, IL 60644
(41.880314, -87.75718)"
"ADEN GAS INC",,"8649 S ASHLAND AVE",,"CHICAGO","IL","60620","1122382","Sweetened Beverage Home Rule","8649 S ASHLAND AVE
CHICAGO, IL 60620
(41.736292, -87.66301)"
"ADEN MINI MART INC","BP ","1812 SIBLEY BLVD",,"CALUMET CITY","IL","60409","1122328","Sweetened Beverage Home Rule","1812 SIBLEY BLVD
CALUMET CITY, IL 60409"
"ADEN SUPERMARKET INC",,"9060 S HARLEM AVE",,"BRIDGEVIEW","IL","60455","1123129","Sweetened Beverage Home Rule","9060 S HARLEM AVE
BRIDGEVIEW, IL 60455
(41.726552, -87.79892)"
"ADHARSH PARTNERS LLC","HARVEY FUELS","2 EAST 159TH ST",,"HARVEY","IL","60426","1123225","Sweetened Beverage Home Rule","2 EAST 159TH ST
HARVEY, IL 60426
(41.600841, -87.655775)"
"ADOCA INC",,"1055 N SALEM DR",,"SCHAUMBURG","IL","60194","1123054","Sweetened Beverage Home Rule","1055 N SALEM DR
SCHAUMBURG, IL 60194
(42.045776, -88.099454)"
"ADRIANS FOOD MARKET",,"3700 W. DIVERSEY AVE",,"CHICAGO","IL","60647","1124479","Sweetened Beverage Home Rule","3700 W. DIVERSEY AVE
CHICAGO, IL 60647
(41.931904, -87.71972)"
"ADRIANS FOOD MARKET #2 INC",,"3258 W. MONTROSE AVE",,"CHICAGO","IL","60618","1124480","Sweetened Beverage Home Rule","3258 W. MONTROSE AVE
CHICAGO, IL 60618
(41.961178, -87.71045)"
"AF AND AR FOOD INC.","ADAM FOODS MART PLUS","1339 S. HOMAN AVE.",,"CHICAGO","IL","60623","1122127","Sweetened Beverage Home Rule","1339 S. HOMAN AVE.
CHICAGO, IL 60623
(41.863396, -87.710468)"
"AFRA CORP","EDDYS FOOD MART ","7575 N ROGERS AVE",,"CHICAGO","IL","60626","1123144","Sweetened Beverage Home Rule","7575 N ROGERS AVE
CHICAGO, IL 60626
(42.019252, -87.668611)"
"AFRICAN SUPER MARKET AND LIWUO",,"4156 W. MADISON ST.",,"CHICAGO","IL","60624","1121867","Sweetened Beverage Home Rule","4156 W. MADISON ST.
CHICAGO, IL 60624
(41.880763, -87.727847)"
"A G FOODS INC","A G FOODS INC ","6945 S STATE ST",,"CHICAGO","IL","60637","1121371","Sweetened Beverage Home Rule","6945 S STATE ST
CHICAGO, IL 60637
(41.767563, -87.624923)"
"AGH FOOD AND LIQUOR INC","PARKSIDE FOOD AND LIQUOR INC","3215 W 71TH ST",,"CHICAGO","IL","60629","1121803","Sweetened Beverage Home Rule","3215 W 71TH ST
CHICAGO, IL 60629
(41.764381, -87.703311)"
"AG NEVERIAS LLC","CHELITAS HOMEMADE ICE CREAM ","4442 A N MILWAUKEE AVENUE",,"CHICAGO","IL","60630","1121645","Sweetened Beverage Home Rule","4442 A N MILWAUKEE AVENUE
CHICAGO, IL 60630
(41.961644, -87.755294)"
"A.H. MANAGEMENT GROUP INC.",,"1151 ROHLWING ROAD",,"ROLLING MEADOWS","IL","60008","1120896","Sweetened Beverage Home Rule","1151 ROHLWING ROAD
ROLLING MEADOWS, IL 60008
(42.096837, -88.026493)"
"AIDA FOOD AND LIQUOR",,"7923 S HALSTED",,"CHICAGO","IL","60620","1123920","Sweetened Beverage Home Rule","7923 S HALSTED
CHICAGO, IL 60620
(41.749861, -87.644038)"
"AISHA WASH & FUEL ISLAND","SHELL ","5549 W DIVERSEY AVE",,"CHICAGO","IL","60639","1122784","Sweetened Beverage Home Rule","5549 W DIVERSEY AVE
CHICAGO, IL 60639
(41.931291, -87.765782)"
"AJAJA INC",,"1901 S PULASKI ROAD",,"CHICAGO","IL","60623","1123696","Sweetened Beverage Home Rule","1901 S PULASKI ROAD
CHICAGO, IL 60623
(41.854738, -87.724837)"
"AJ FOOD & GROCERY INC",,"616 S PULASKI RD",,"CHICAGO","IL","60624","1123186","Sweetened Beverage Home Rule","616 S PULASKI RD
CHICAGO, IL 60624
(41.872979, -87.725381)"
"AJ GAS AND MINI MART",,"8301 S HARLEM AVE",,"BRIDGEVIEW","IL","60455","1122373","Sweetened Beverage Home Rule","8301 S HARLEM AVE
BRIDGEVIEW, IL 60455
(41.74053, -87.799355)"
"AJS MART INC","CITGO","2700 W 51ST STREET",,"CHICAGO","IL","60632","1124235","Sweetened Beverage Home Rule","2700 W 51ST STREET
CHICAGO, IL 60632
(41.801053, -87.692106)"
"AK 22ND","BP GAS ","5201 W CERMAK",,"CICERO","IL","60804","1122961","Sweetened Beverage Home Rule","5201 W CERMAK
CICERO, IL 60804
(41.851075, -87.75448)"
"AKI INCORPORATED","BUDGET FOOD AND LIQUOR ","2504 E 79TH STREET",,"CHICAGO","IL","60649","1121892","Sweetened Beverage Home Rule","2504 E 79TH STREET
CHICAGO, IL 60649
(41.751763, -87.563653)"
"ALADDINS FOOD","ALADDINS FOOD ","7465 S VINCENNES",,"CHICAGO","IL","60621","1122137","Sweetened Beverage Home Rule","7465 S VINCENNES
CHICAGO, IL 60621
(41.758304, -87.631217)"
"AL-AKHWAL FOOD & LIQUOR INC",,"19090 SOUTH CRAWFORD",,"COUNTRY CLUB HILLS","IL","60453","1123624","Sweetened Beverage Home Rule","19090 SOUTH CRAWFORD
COUNTRY CLUB HILLS, IL 60453"
"AL AMAL FOOD AND BAKERY INC",,"7287 89 W 78TH STREET",,"BRIDGEVIEW","IL","60455","1123665","Sweetened Beverage Home Rule","7287 89 W 78TH STREET
BRIDGEVIEW, IL 60455
(41.74986, -87.801868)"
"ALBAKRI INC","RICHMOND FOOD AND LIQUORS","2941 W 59TH STREET",,"CHICAGO","IL","60629","1121888","Sweetened Beverage Home Rule","2941 W 59TH STREET
CHICAGO, IL 60629
(41.786365, -87.697559)"
"ALBANY FOOD MARKET INC",,"1901 N ALBANY STREET",,"CHICAGO","IL","60647","1123024","Sweetened Beverage Home Rule","1901 N ALBANY STREET
CHICAGO, IL 60647
(41.91574, -87.705205)"
"ALBANY PARK FRESH MARKET INC",,"3632 W LAWRENCE AVENUE",,"CHICAGO","IL","60625","1122104","Sweetened Beverage Home Rule","3632 W LAWRENCE AVENUE
CHICAGO, IL 60625
(41.968352, -87.71968)"
"AL BAYAN GROCERY INC",,"3134 N NARRAGANSETT",,"CHICAGO","IL","60634","1123025","Sweetened Beverage Home Rule","3134 N NARRAGANSETT
CHICAGO, IL 60634
(41.937624, -87.785883)"
"ALDI INC. (ILLINOIS)","ALDI","1200 N. KIRK ROAD",,"BATAVIA","IL","60510","1120911","Sweetened Beverage Home Rule","1200 N. KIRK ROAD
BATAVIA, IL 60510
(41.861922, -88.278898)"
"ALEIN CORP",,"908 WEST 31ST ST",,"CHICAGO","IL","60608","1123623","Sweetened Beverage Home Rule","908 WEST 31ST ST
CHICAGO, IL 60608
(41.83804, -87.649202)"
"ALFREDO LINARES INC","SUPERMERCADO LA CHIQUITA","3555 WEST 26TH STREET",,"CHICAGO","IL","60623","1121401","Sweetened Beverage Home Rule","3555 WEST 26TH STREET
CHICAGO, IL 60623
(41.844396, -87.714614)"
"ALI GABER INC",,"3645 W 79TH STREET",,"CHICAGO","IL","60652","1122383","Sweetened Beverage Home Rule","3645 W 79TH STREET
CHICAGO, IL 60652
(41.749556, -87.714112)"
"ALIZE FOOD & LIQUORINC","E & J FOOD & LIQUOR","5439 S DAMEN AVE",,"CHICAGO","IL","60609","1122886","Sweetened Beverage Home Rule","5439 S DAMEN AVE
CHICAGO, IL 60609
(41.79447, -87.674315)"
"ALJANOOBI INC","ONE STOP FOOD AND GROCERY","7357 S RACINE AVENUE",,"CHICAGO","IL","60636","1123026","Sweetened Beverage Home Rule","7357 S RACINE AVENUE
CHICAGO, IL 60636
(41.760141, -87.653997)"
"ALKABBSH INC","SUN FOOD MART ","3601 W CERMAK RD",,"CHICAGO","IL","60623","1122783","Sweetened Beverage Home Rule","3601 W CERMAK RD
CHICAGO, IL 60623
(41.851699, -87.715008)"
"ALL UNITED IMPORTS INC",,"2526 S. BLUE ISLAND AVE",,"CHICAGO","IL","60608","1124488","Sweetened Beverage Home Rule","2526 S. BLUE ISLAND AVE
CHICAGO, IL 60608
(41.846303, -87.681615)"
"ALMAHJAR FOOD MART INC",,"10840 S CICERO AVE",,"OAK LAWN","IL","60453","1123004","Sweetened Beverage Home Rule","10840 S CICERO AVE
OAK LAWN, IL 60453
(41.695662, -87.73991)"
"ALMAHJAR FOOD MART INC",,"10840 S CICERO AVENUE",,"OAK LAWN","IL","60453","1123014","Sweetened Beverage Home Rule","10840 S CICERO AVENUE
OAK LAWN, IL 60453
(41.695662, -87.73991)"
"ALMANAR FOOD INC",,"844 S HALSTED ST",,"CHICAGO HEIGHTS","IL","60411","1123422","Sweetened Beverage Home Rule","844 S HALSTED ST
CHICAGO HEIGHTS, IL 60411
(41.515527, -87.635678)"
"AL-MUDEER INC",,"20 W 138TH STREET",,"RIVERDALE","IL","60827","1123027","Sweetened Beverage Home Rule","20 W 138TH STREET
RIVERDALE, IL 60827
(41.644588, -87.622891)"
"ALMUFLIHI FOOD AND LIQUOR INC",,"5404 S HALSTED ST",,"CHICAGO","IL","60609","1122844","Sweetened Beverage Home Rule","5404 S HALSTED ST
CHICAGO, IL 60609
(41.795759, -87.645193)"
"ALNISSER INC",,"8301-11 S COTTAGE GROVE",,"CHICAGO","IL","60619","1122323","Sweetened Beverage Home Rule","8301-11 S COTTAGE GROVE
CHICAGO, IL 60619
(41.74362, -87.604946)"
"ALPHA SFD CO",,"2478 E OAKTON ST",,"ARLINGTON HEIGHTS","IL","60005","1122821","Sweetened Beverage Home Rule","2478 E OAKTON ST
ARLINGTON HEIGHTS, IL 60005
(42.022682, -87.94631)"
"ALPRINCE DOLLAR INC",,"5849 S PULASKI RD",,"CHICAGO","IL","60629","1124004","Sweetened Beverage Home Rule","5849 S PULASKI RD
CHICAGO, IL 60629
(41.786717, -87.722907)"
"ALQUITY INC",,"601 S 5TH",,"MAYWOOD","IL","60153","1122384","Sweetened Beverage Home Rule","601 S 5TH
MAYWOOD, IL 60153
(41.882362, -87.838982)"
"AL RAFEDAIN MEAT MARKET INC",,"3102 W DEVON AVE",,"CHICAGO","IL","60659","1124318","Sweetened Beverage Home Rule","3102 W DEVON AVE
CHICAGO, IL 60659
(41.997428, -87.707047)"
"AL-RAHMMAN INC.",,"5751 W. AUGUSTA BLVD.",,"CHICAGO","IL","60651","1122126","Sweetened Beverage Home Rule","5751 W. AUGUSTA BLVD.
CHICAGO, IL 60651
(41.898452, -87.770093)"
"ALSIP GAS MART INC","ALSIP GAS ","12249 S CICERO AVE",,"ALSIP","IL","60803","1122371","Sweetened Beverage Home Rule","12249 S CICERO AVE
ALSIP, IL 60803
(41.669446, -87.738837)"
"ALSIP MARATHON INC",,"5201 W 111TH STREET",,"CHICAGO","IL","60803","1122972","Sweetened Beverage Home Rule","5201 W 111TH STREET
CHICAGO, IL 60803
(41.69067, -87.749851)"
"ALSTON ENTERPRISE LLC",,"16 S KOSTNER",,"CHICAGO","IL","60624","1122926","Sweetened Beverage Home Rule","16 S KOSTNER
CHICAGO, IL 60624
(41.879935, -87.735451)"
"AL SUMMMOD INC",,"7050 S DAMEN",,"CHICAGO","IL","60636","1123228","Sweetened Beverage Home Rule","7050 S DAMEN
CHICAGO, IL 60636
(41.764903, -87.67356)"
"ALWAYS FOODS LLC","ALWAYS FRESH MARKET I","149 W 159 TH STREET",,"HARVEY","IL","60426","1123710","Sweetened Beverage Home Rule","149 W 159 TH STREET
HARVEY, IL 60426
(41.600824, -87.664787)"
"AMAL ARYA CORP","BP GAS STATION","5201 W JACKSON BLVD",,"CHICAGO","IL","60644","1123703","Sweetened Beverage Home Rule","5201 W JACKSON BLVD
CHICAGO, IL 60644
(41.876661, -87.755104)"
"AMAL FOOD MART INC","JJ FOOD MART ","1005 W 71ST STREET",,"CHICAGO","IL","60621","1123653","Sweetened Beverage Home Rule","1005 W 71ST STREET
CHICAGO, IL 60621
(41.765129, -87.649713)"
"AMANA FOOD CORP",,"1000 W MARQUETTE RD",,"CHICAGO","IL","60621","1123006","Sweetened Beverage Home Rule","1000 W MARQUETTE RD
CHICAGO, IL 60621
(41.772424, -87.649507)"
"AMAPOLAS LTD","McDONALDS ","9449 W IRVING PARK",,"SCHILLER PARK","IL","60176","1121265","Sweetened Beverage Home Rule","9449 W IRVING PARK
SCHILLER PARK, IL 60176"
"AMAZON.COM LLC",,"2201 WESTLAKE AVE. SUITE 500",,"SEATTLE","WA","98121","1120870","Sweetened Beverage Home Rule","2201 WESTLAKE AVE. SUITE 500
SEATTLE, WA 98121
(47.617854, -122.338387)"
"AMAZON FRESH LLC",,"1250 MITTEL BLVD.",,"WOOD DALE","IL","60191","1120872","Sweetened Beverage Home Rule","1250 MITTEL BLVD.
WOOD DALE, IL 60191
(41.987742, -87.986671)"
"AMAZON PICKUP POINTS LLC",," 750 S. HALSTED ST #214",,"CHICAGO","IL","60607","1120873","Sweetened Beverage Home Rule","750 S. HALSTED ST #214
CHICAGO, IL 60607
(41.871796, -87.647119)"
"AMEER FOOD INC",,"5424 W FULLERTON AVE",,"CHICAGO","IL","60639","1122934","Sweetened Beverage Home Rule","5424 W FULLERTON AVE
CHICAGO, IL 60639
(41.924079, -87.762048)"
"AMEER GROUP INC",,"30 W SAUK TRAIL",,"SOUTH CHICAGO HEIGHTS","IL","60411","1123272","Sweetened Beverage Home Rule","30 W SAUK TRAIL
SOUTH CHICAGO HEIGHTS, IL 60411
(41.480971, -87.635742)"
"AMER CITGO","AMER CITGO","6661 S STATE ST",,"CHICAGO","IL","60637","1123207","Sweetened Beverage Home Rule","6661 S STATE ST
CHICAGO, IL 60637
(41.773095, -87.625074)"
"AMER FOOD MART INC",,"3458 W LAKE ST",,"CHICAGO","IL","60624","1122935","Sweetened Beverage Home Rule","3458 W LAKE ST
CHICAGO, IL 60624
(41.884832, -87.713279)"
"AMERICA GAS AND FOOD MART INC","BP PULASKI ","4359 N PULASKI RD",,"CHICAGO","IL","60641","1122431","Sweetened Beverage Home Rule","4359 N PULASKI RD
CHICAGO, IL 60641
(41.960838, -87.7278)"
"AMERICAN BEVERAGE CORPORATION",,"ONE DAILY WAY",,"VERONA","PA","15147","1122116","Sweetened Beverage Home Rule","ONE DAILY WAY
VERONA, PA 15147"
"AMERICAN SUPERMARKET INC",,"3600 W DIVERSEY AVE",,"CHICAGO","IL","60647","1123266","Sweetened Beverage Home Rule","3600 W DIVERSEY AVE
CHICAGO, IL 60647
(41.931932, -87.717234)"
"AMERICAS SUPPLIES",,"4604 S KEATING AVE",,"CHICAGO","IL","60632","1124198","Sweetened Beverage Home Rule","4604 S KEATING AVE
CHICAGO, IL 60632
(41.809121, -87.741967)"
"A M GREAT OIL INC","MOBIL","11501 S HALSTED STREET",,"CHICAGO","IL","60628","1123938","Sweetened Beverage Home Rule","11501 S HALSTED STREET
CHICAGO, IL 60628
(41.684763, -87.642086)"
"AMIN ARK INC",,"6650 N KOSTNER AVE",,"LINCOLNWOOD","IL","60712","1123953","Sweetened Beverage Home Rule","6650 N KOSTNER AVE
LINCOLNWOOD, IL 60712
(42.003048, -87.739043)"
"AMIN ARK INC",,"216 W JACKSON BLVD",,"CHICAGO","IL","60606","1123485","Sweetened Beverage Home Rule","216 W JACKSON BLVD
CHICAGO, IL 60606
(41.878096, -87.634496)"
"AMIR AND FAMILY","ADDISON AND AUSTIN BP ","6000 W ADDISON",,"CHICAGO","IL","60634","1122091","Sweetened Beverage Home Rule","6000 W ADDISON
CHICAGO, IL 60634
(41.945787, -87.776798)"
"AMIR FOOD MART #1",,"1877 E 71ST ST",,"CHICAGO","IL","60649","1122888","Sweetened Beverage Home Rule","1877 E 71ST ST
CHICAGO, IL 60649
(41.766026, -87.57844)"
"AMIT SHAH","EL FARO FOODS","4807 W ARMITAGE AVENUE",,"CHICAGO","IL","60639","1123252","Sweetened Beverage Home Rule","4807 W ARMITAGE AVENUE
CHICAGO, IL 60639
(41.916945, -87.746516)"
"AMK MARKET INC","SUNFRESH MARKET AND DELI ","3640 N CENTRAL",,"CHICAGO","IL","60634","1123425","Sweetened Beverage Home Rule","3640 N CENTRAL
CHICAGO, IL 60634
(41.947043, -87.76676)"
"AMMARA TRADING INC","LATINO MART & DOLLAR","4300 N KIMBALL AVE",,"CHICAGO","IL","60618","1123188","Sweetened Beverage Home Rule","4300 N KIMBALL AVE
CHICAGO, IL 60618
(41.959452, -87.713085)"
"AMM CITGO INC",,"9452 S COTTAGE GROVE AVE",,"CHICAGO","IL","60619","1122386","Sweetened Beverage Home Rule","9452 S COTTAGE GROVE AVE
CHICAGO, IL 60619
(41.722479, -87.604567)"
"AMM MARATHON INC",,"8158 S HALSTED ST",,"CHICAGO","IL","60620","1122387","Sweetened Beverage Home Rule","8158 S HALSTED ST
CHICAGO, IL 60620
(41.745341, -87.643897)"
"A MM MART INC","COUNTRY CLUB MART ","18280 CRAWFORD AVE",,"COUNTRY CLUB HILLS","IL","60478","1122063","Sweetened Beverage Home Rule","18280 CRAWFORD AVE
COUNTRY CLUB HILLS, IL 60478
(41.556828, -87.713647)"
"AMN FOOD INC",,"9307 S HALSTED",,"CHICAGO","IL","60620","1123368","Sweetened Beverage Home Rule","9307 S HALSTED
CHICAGO, IL 60620
(41.724803, -87.643247)"
"AMORE MIO INC",,"1457 PALATINE ROAD",,"HOFFMAN ESTATES","IL","60195","1122682","Sweetened Beverage Home Rule","1457 PALATINE ROAD
HOFFMAN ESTATES, IL 60195
(42.110624, -88.114919)"
"AMPEX BRANDS OF BARTLETT","KFC ","5230 WEST MADISON ST",,"CHICAGO","IL","60644","1122020","Sweetened Beverage Home Rule","5230 WEST MADISON ST
CHICAGO, IL 60644
(41.880413, -87.756731)"
"AMRITAGE PRODUCE INC.","ARMITAGE PRODUCE","3334 W. ARMITAGE AVE.",,"CHICAGO","IL","60647","1121861","Sweetened Beverage Home Rule","3334 W. ARMITAGE AVE.
CHICAGO, IL 60647
(41.917361, -87.710835)"
"AMYS BRITISH LLC","JAYS FRESH MART","1550 N MANNHEIM RD",,"STONE PARK","IL","60165","1123484","Sweetened Beverage Home Rule","1550 N MANNHEIM RD
STONE PARK, IL 60165
(41.89999, -87.883817)"
"AMZ ENTERPRISES INC","BP","749 S CICERO AVE",,"CHICAGO","IL","60644","1123764","Sweetened Beverage Home Rule","749 S CICERO AVE
CHICAGO, IL 60644
(41.870644, -87.744825)"
"A.N.A. GROCERY INC",,"7159 S RACINE AVE",,"CHICAGO","IL","60636","1122936","Sweetened Beverage Home Rule","7159 S RACINE AVE
CHICAGO, IL 60636
(41.763249, -87.654084)"
"ANAR INC","FOOD TOWN","935 E 79TH STREET",,"CHICAGO","IL","60619","1121893","Sweetened Beverage Home Rule","935 E 79TH STREET
CHICAGO, IL 60619
(41.751322, -87.601174)"
"ANDREAS GROCERY INC",,"2800 S DRAKE AVENUE",,"CHICAGO","IL","60623","1123689","Sweetened Beverage Home Rule","2800 S DRAKE AVENUE
CHICAGO, IL 60623
(41.84052, -87.713449)"
"ANDYS DELI & MIKOLAJCZYK SAUSA",,"4021 W KINZIE ST",,"CHICAGO","IL","60624","1123471","Sweetened Beverage Home Rule","4021 W KINZIE ST
CHICAGO, IL 60624
(41.88777, -87.726157)"
"A N FOOD & GROCERY INC","A & R FOOD MARKET","3452 W CHICAGO AVE",,"CHICAGO","IL","60651","1123763","Sweetened Beverage Home Rule","3452 W CHICAGO AVE
CHICAGO, IL 60651
(41.895523, -87.713512)"
"ANGIES II LTD","McDONALDS ","1775 ALGONQUIN ROAD",,"ROLLING MEADOWS","IL","60008","1121269","Sweetened Beverage Home Rule","1775 ALGONQUIN ROAD
ROLLING MEADOWS, IL 60008
(42.056513, -88.002007)"
"A & N GROCERY","A & N GROCERY ","4759 W LAKE ST",,"CHICAGO","IL","60644","1124358","Sweetened Beverage Home Rule","4759 W LAKE ST
CHICAGO, IL 60644
(41.886647, -87.745224)"
"ANISHA MANAGEMENT INC","ANISHA MANAGEMENT","711 S HALSTED ST",,"CHICAGO HEIGHTS","IL","60411","1124094","Sweetened Beverage Home Rule","711 S HALSTED ST
CHICAGO HEIGHTS, IL 60411
(41.518187, -87.635582)"
"ANO FOOD MART INC",,"3954 W 16TH ST",,"CHICAGO","IL","60623","1121688","Sweetened Beverage Home Rule","3954 W 16TH ST
CHICAGO, IL 60623
(41.858871, -87.724558)"
"ANONA FOOD SERVICE",,"2880 SHELLY LN",,"AURORA","IL","60504","1124747","Sweetened Beverage Home Rule","2880 SHELLY LN
AURORA, IL 60504
(41.743276, -88.244762)"
"ANSEMOSS HADDAD AND SONS INC","TONYS MOBIL ","2401 WEST OGDEN AVE",,"CHICAGO","IL","60608","1121818","Sweetened Beverage Home Rule","2401 WEST OGDEN AVE
CHICAGO, IL 60608
(41.864555, -87.686316)"
"ANTHONY SUPERMARKET CORPORATIO",,"3557 S CALIFORNIA AVENUE",,"CHICAGO","IL","60632","1124221","Sweetened Beverage Home Rule","3557 S CALIFORNIA AVENUE
CHICAGO, IL 60632
(41.828416, -87.694754)"
"ANZ AMERICA INC",,"3831 W. 95TH STREET",,"EVERGREEN PARK","IL","60805","1124508","Sweetened Beverage Home Rule","3831 W. 95TH STREET
EVERGREEN PARK, IL 60805
(41.720529, -87.717353)"
"A ONE FOOD AND BEAUTY SUPPLIES",,"1329 W 18TH ST",,"CHICAGO","IL","60608","1123005","Sweetened Beverage Home Rule","1329 W 18TH ST
CHICAGO, IL 60608
(41.857915, -87.660075)"
"APPLE MART INC","MARATHON GN & FOOD","9304 S CICERO AVENUE",,"OAK LAWN","IL","60453","1124093","Sweetened Beverage Home Rule","9304 S CICERO AVENUE
OAK LAWN, IL 60453
(41.72347, -87.740925)"
"ARAMARK REFRESHMENT SERVICES L","ARAMARK REFRESHMENT SERVICES","1101 MARKET STREET",,"PHILADELPHIA","PA","19107","1120951","Sweetened Beverage Home Rule","1101 MARKET STREET
PHILADELPHIA, PA 19107
(39.951744, -75.158495)"
"ARAX FOODS CORP",,"9017 N. MILWAUKEE",,"NILES","IL","60714","1121847","Sweetened Beverage Home Rule","9017 N. MILWAUKEE
NILES, IL 60714
(42.044754, -87.830182)"
"ARC 5233 LIMITED","McDONALDS 101","530 S WAUKEGAN RD",,"GLENVIEW","IL","60025","1121255","Sweetened Beverage Home Rule","530 S WAUKEGAN RD
GLENVIEW, IL 60025
(42.064886, -87.79981)"
"ARCADIA FOOD & LIQUOR INC","ARCADIA FOOD & LIQUOR","3201 W BRYN MAWR AVE",,"CHICAGO","IL","60659","1123902","Sweetened Beverage Home Rule","3201 W BRYN MAWR AVE
CHICAGO, IL 60659
(41.983061, -87.709073)"
"ARCHER ADVISORS LLC","SHOP & SAVE MARKET #1900","5829 S. ARCHER AVE",,"CHICAGO","IL","60638","1121343","Sweetened Beverage Home Rule","5829 S. ARCHER AVE
CHICAGO, IL 60638
(41.796111, -87.759575)"
"ARCHER BP PETROLEUM INC","ARCHER BP ","6751 W ARCHER AVE",,"CHICAGO","IL","60638","1122344","Sweetened Beverage Home Rule","6751 W ARCHER AVE
CHICAGO, IL 60638
(41.792136, -87.790722)"
"AREBA FASHIONS INC","GREEN ARCH ","1219 N MILWAUKEE AVE",,"CHICAGO","IL","60622","1123406","Sweetened Beverage Home Rule","1219 N MILWAUKEE AVE
CHICAGO, IL 60622
(41.903721, -87.666966)"
"ARGO TEA INC.",,"16 W. RANDOLPH ST.",,"CHICAGO","IL","60601","1122123","Sweetened Beverage Home Rule","16 W. RANDOLPH ST.
CHICAGO, IL 60601
(41.884524, -87.628472)"
"ARGYLE GROCERY INC",,"1131 W ARGYLE ST",,"CHICAGO","IL","60640","1123194","Sweetened Beverage Home Rule","1131 W ARGYLE ST
CHICAGO, IL 60640
(41.973224, -87.659065)"
"ARIGATO JAPANESE RESTAURANT CO","MOGA SUSSHI ","1098 S ROSELLE RD",,"SCHAUMBURG","IL","60193","1123879","Sweetened Beverage Home Rule","1098 S ROSELLE RD
SCHAUMBURG, IL 60193
(42.006746, -88.08013)"
"ARISTO FOOD AND LIQUOR",,"315 E 47TH STREET",,"CHICAGO","IL","60653","1121895","Sweetened Beverage Home Rule","315 E 47TH STREET
CHICAGO, IL 60653
(41.809385, -87.619191)"
"ARIZONA DOLLAR PLUS INC","ARIZONA QUICK STOP","6551 N CLARK STREET",,"CHICAGO","IL","60626","1123599","Sweetened Beverage Home Rule","6551 N CLARK STREET
CHICAGO, IL 60626
(42.001157, -87.671621)"
"ARLINGTON PRODUCE INC","HARVEST FRESH MARKET","100 E RAND RD",,"ARLINGTON HEIGHTS","IL","60006","1122442","Sweetened Beverage Home Rule","100 E RAND RD
ARLINGTON HEIGHTS, IL 60006
(42.112509, -87.980137)"
"ARMINDA ORGANISTA AND FELIPE O","FELIPES DOLLAR PLUS ","5941 W 35TH ST",,"CICERO","IL","60804","1122425","Sweetened Beverage Home Rule","5941 W 35TH ST
CICERO, IL 60804
(41.828951, -87.772616)"
"ARMITAGE KOSTNER LIMITED","CERMAK PRODUCE 2","4401 W ARMITAGE AVE",,"CHICAGO","IL","60639","1121811","Sweetened Beverage Home Rule","4401 W ARMITAGE AVE
CHICAGO, IL 60639
(41.91706, -87.737017)"
"ARMITAGE PANTRY INC",,"3959 W ARMITAGE",,"CHICAGO","IL","60647","1122832","Sweetened Beverage Home Rule","3959 W ARMITAGE
CHICAGO, IL 60647
(41.917191, -87.726185)"
"ARMITAGE TOBACCO CITY INC","TOBACCO CITY ON ARMITAGE ","3252 W ARMITAGE AVE",,"CHICAGO","IL","60647","1122064","Sweetened Beverage Home Rule","3252 W ARMITAGE AVE
CHICAGO, IL 60647
(41.917381, -87.709122)"
"ARTISAN BAKE AND BREW LLC",,"14701 CENTRAL AVE",,"OAK FOREST","IL","60452","1123171","Sweetened Beverage Home Rule","14701 CENTRAL AVE
OAK FOREST, IL 60452
(41.624423, -87.756675)"
"A S A CONSOLIDATED INC","TOM'S FOOD AND LIQUOR ","5201 W LAKE ST",,"CHICAGO","IL","60644","1122956","Sweetened Beverage Home Rule","5201 W LAKE ST
CHICAGO, IL 60644
(41.887198, -87.755381)"
"ASAD SALES INC",,"2844 W 47TH ST",,"CHICAGO","IL","60632","1123788","Sweetened Beverage Home Rule","2844 W 47TH ST
CHICAGO, IL 60632
(41.808291, -87.695798)"
"AS GAS STATION INC",,"14941 DIXIE HWY",,"HARVEY","IL","60428","1122962","Sweetened Beverage Home Rule","14941 DIXIE HWY
HARVEY, IL 60428
(41.617384, -87.673163)"
"ASHA FOOD MART",,"4826 N. SHERIDAN RD",,"CHICAGO","IL","60640","1124536","Sweetened Beverage Home Rule","4826 N. SHERIDAN RD
CHICAGO, IL 60640
(41.969677, -87.654849)"
"ASHER PETROLEUM","CITGO ","3050 N PULASKI",,"CHICAGO","IL","60641","1122790","Sweetened Beverage Home Rule","3050 N PULASKI
CHICAGO, IL 60641
(41.936908, -87.727122)"
"ASHKAR GROUP INC","BUSY BEE SUPERMARKET ","5659 S ASHLAND AVE",,"CHICAGO","IL","60636","1122717","Sweetened Beverage Home Rule","5659 S ASHLAND AVE
CHICAGO, IL 60636
(41.790572, -87.664416)"
"ASHLAND 71ST ENTERPRISES INC","71ST SHELL","7101 S ASHLAND ST",,"CHICAGO","IL","60636","1123992","Sweetened Beverage Home Rule","7101 S ASHLAND ST
CHICAGO, IL 60636
(41.764625, -87.663732)"
"ASHLAND FUEL INC","SHELL ","6124 S ASHLAND",,"CHICAGO","IL","60636","1123428","Sweetened Beverage Home Rule","6124 S ASHLAND
CHICAGO, IL 60636
(41.782356, -87.664383)"
"ASHLAND LIQUOR AND FOOD INC",,"1554 W 95TH ST",,"CHICAGO","IL","60643","1122993","Sweetened Beverage Home Rule","1554 W 95TH ST
CHICAGO, IL 60643
(41.721264, -87.66171)"
"ASHLAND MARKET INC",,"1053 N ASHLAND AVENUE",,"CHICAGO","IL","60622","1123743","Sweetened Beverage Home Rule","1053 N ASHLAND AVENUE
CHICAGO, IL 60622
(41.901268, -87.667386)"
"A S M GAS INC",,"1952 W GARFIELD",,"CHICAGO","IL","60609","1122703","Sweetened Beverage Home Rule","1952 W GARFIELD
CHICAGO, IL 60609
(41.793955, -87.673898)"
"ASSOCIATED WHOLESALE GROCERS, INC",,"8100 60TH ST",,"KENOSHA","WI","53144","845308","Sweetened Beverage Home Rule","8100 60TH ST
KENOSHA, WI 53144
(42.58185, -87.909049)"
"A+ STORE INC","A+ STORE","4443 N SHERIDAN RD",,"CHICAGO","IL","60640","1123984","Sweetened Beverage Home Rule","4443 N SHERIDAN RD
CHICAGO, IL 60640
(41.962835, -87.654741)"
"ASZ PETROLEUM INC","99TH CICERO CITGO","9856 S CICERO AVE",,"OAK LAWN","IL","60453","1123927","Sweetened Beverage Home Rule","9856 S CICERO AVE
OAK LAWN, IL 60453
(41.713101, -87.740549)"
"ATIZAPAN CORP","ATIZAPAN CORP","5906 W 35TH ST",,"CICERO","IL","60804","1123998","Sweetened Beverage Home Rule","5906 W 35TH ST
CICERO, IL 60804
(41.828976, -87.771098)"
"A TO Z FRESH FOOD INC",,"3601 W AUGUSTA BLVD",,"CHICAGO","IL","60651","1123421","Sweetened Beverage Home Rule","3601 W AUGUSTA BLVD
CHICAGO, IL 60651
(41.899126, -87.716429)"
"A TO Z WHOLESALE INC",,"5211 W. 65TH ST",,"BEDFORD PARK","IL","60638","1120930","Sweetened Beverage Home Rule","5211 W. 65TH ST
BEDFORD PARK, IL 60638
(41.774509, -87.752498)"
"A T S FOOD INC",,"313 ILLINOIS STREET",,"PARK FOREST","IL","60466","1124598","Sweetened Beverage Home Rule","313 ILLINOIS STREET
PARK FOREST, IL 60466
(41.502938, -87.683978)"
"AT THE CORNER INC",,"4002 W CHICAGO AVE",,"CHICAGO","IL","60651","1122979","Sweetened Beverage Home Rule","4002 W CHICAGO AVE
CHICAGO, IL 60651
(41.895395, -87.726292)"
"AUGIE SERVICES",,"504 W. BRITTANY DR",,"ARLINGTON HEIGHTS","IL","60004","1124440","Sweetened Beverage Home Rule","504 W. BRITTANY DR
ARLINGTON HEIGHTS, IL 60004
(42.12778, -87.988778)"
"AUGUSTA FOOD MARKET INC",,"1000 N HAMLIN AVE",,"CHICAGO","IL","60651","1123771","Sweetened Beverage Home Rule","1000 N HAMLIN AVE
CHICAGO, IL 60651
(41.899192, -87.72131)"
"AUSTIN FOOD AND CIGARETTE MART",,"6009 W ROOSEVELT RD",,"CICERO","IL","60804","1122713","Sweetened Beverage Home Rule","6009 W ROOSEVELT RD
CICERO, IL 60804
(41.865457, -87.774985)"
"AUSTIN FOOD STORE INC",,"5954 W NORTH AVENUE",,"CHICAGO","IL","60639","1124224","Sweetened Beverage Home Rule","5954 W NORTH AVENUE
CHICAGO, IL 60639
(41.909332, -87.774821)"
"AUSTIN PANTRY INC",,"1 W CHICAGO AVE",,"OAK PARK","IL","60302","1123818","Sweetened Beverage Home Rule","1 W CHICAGO AVE
OAK PARK, IL 60302
(41.894732, -87.775156)"
"AUSTIN PANTRY INCORPORATED",,"1 WEST CHICAGO AVENUE",,"OAK PARK","IL","60302","1123455","Sweetened Beverage Home Rule","1 WEST CHICAGO AVENUE
OAK PARK, IL 60302
(41.894732, -87.775156)"
"AUTLAN GROCERY",,"2621 W 36TH STREET",,"CHICAGO","IL","60632","1122539","Sweetened Beverage Home Rule","2621 W 36TH STREET
CHICAGO, IL 60632
(41.828341, -87.690694)"
"AVALON FOOD MART",,"7901 S AVALON",,"CHICAGO","IL","60619","1122971","Sweetened Beverage Home Rule","7901 S AVALON
CHICAGO, IL 60619
(41.751191, -87.59429)"
"AVALON FOODSERVICE INC",,"2240 LOCUST STREET S",,"CANAL FULTON","OH","44614","1121243","Sweetened Beverage Home Rule","2240 LOCUST STREET S
CANAL FULTON, OH 44614
(40.88232, -81.570659)"
"AVENUE FOOD MART INC",,"6850 W. BELMONT AVE",,"CHICAGO","IL","60634","1124448","Sweetened Beverage Home Rule","6850 W. BELMONT AVE
CHICAGO, IL 60634
(41.938134, -87.797692)"
"AVERS FOOD MARKET INC",,"3839 W AUGUSTA BLVD",,"CHICAGO","IL","60651","1122389","Sweetened Beverage Home Rule","3839 W AUGUSTA BLVD
CHICAGO, IL 60651
(41.899082, -87.72265)"
"AVERS PLACE INC","AVERS PLACE ","3825 W CHICAGO AVE",,"CHICAGO","IL","60651","1121830","Sweetened Beverage Home Rule","3825 W CHICAGO AVE
CHICAGO, IL 60651
(41.895435, -87.722404)"
"AVOCA INC","AVOCA INC ","2350 W FULTON",,"CHICAGO","IL","60612","1122820","Sweetened Beverage Home Rule","2350 W FULTON
CHICAGO, IL 60612
(41.886645, -87.685846)"
"AWAKENINGS INC","AWAKE CAFÉ ","1969 W OGDEN AVE",,"CHICAGO","IL","60612","1122680","Sweetened Beverage Home Rule","1969 W OGDEN AVE
CHICAGO, IL 60612
(41.873267, -87.675885)"
"AWESOME VENDING INC.",,"434 STARWOOD PASS",,"LAKE IN THE HILLS","IL","60156","1120929","Sweetened Beverage Home Rule","434 STARWOOD PASS
LAKE IN THE HILLS, IL 60156
(42.18819, -88.348366)"
"AYHAM FOOD INC","OSAMA FOOD ","1308 S CENTRAL PARK AVE",,"CHICAGO","IL","60623","1122341","Sweetened Beverage Home Rule","1308 S CENTRAL PARK AVE
CHICAGO, IL 60623
(41.864035, -87.715351)"
"AYUSHI INC","J D FOOD AND LIQUOR ","10147 W ROOSEVELT RD",,"WESTCHESTER","IL","60154","1122098","Sweetened Beverage Home Rule","10147 W ROOSEVELT RD
WESTCHESTER, IL 60154
(41.86343, -87.87626)"
"AZ METRO DISTRIBUTORS LLC",,"2600 25TH AVE. SUITE Q1",,"BROADVIEW","IL","60155","1120836","Sweetened Beverage Home Rule","2600 25TH AVE. SUITE Q1
BROADVIEW, IL 60155
(41.855167, -87.862459)"
"AZTECA MINI MARKET, INC.",,"3649 E. 106TH STREET",,"CHICAGO","IL","60617","1124729","Sweetened Beverage Home Rule","3649 E. 106TH STREET
CHICAGO, IL 60617
(41.702724, -87.534644)"
"BABAS FOOD MART INC","BABAS FOOD MART INC","6858 S. HALSTED STREET",,"CHICAGO","IL","60621","1124623","Sweetened Beverage Home Rule","6858 S. HALSTED STREET
CHICAGO, IL 60621
(41.769582, -87.644524)"
"BABA SHAH MURAD INC","NAYAB MART","2449 WEST DEVON AVENUE",,"CHICAGO","IL","60659","1124228","Sweetened Beverage Home Rule","2449 WEST DEVON AVENUE
CHICAGO, IL 60659
(41.997699, -87.691473)"
"BABY MITHC ENTERPRISES INC","LICORES EL POTRILLO ","2126 SOUTH CICERO",,"CICERO","IL","60804","1122816","Sweetened Beverage Home Rule","2126 SOUTH CICERO
CICERO, IL 60804"
"BAFKAP CORPORATION","COUNTY FAIR FOODS","10800 S WESTERN AVE",,"CHICAGO","IL","60643","1122189","Sweetened Beverage Home Rule","10800 S WESTERN AVE
CHICAGO, IL 60643
(41.697149, -87.6814)"
"BAGHDAD BAKERY & KABOB INC",,"2732 W DEVON AVE",,"CHICAGO","IL","60659","1123807","Sweetened Beverage Home Rule","2732 W DEVON AVE
CHICAGO, IL 60659
(41.997576, -87.698437)"
"BAJRANGBALI INC","DEBBIES CAFÉ ","3318 147TH ST",,"MIDLOTHIAN","IL","60445","1122162","Sweetened Beverage Home Rule","3318 147TH ST
MIDLOTHIAN, IL 60445
(41.625837, -87.701495)"
"BALCONES INC","CARNICENA GUANAJUATO","5250 W FULLETRON",,"CHICAGO","IL","60639","1122924","Sweetened Beverage Home Rule","5250 W FULLETRON
CHICAGO, IL 60639"
"BAL KUBER INC","EL TOREO SUPERMARKET ","229 W GRAND AVE STE Z",,"BENSENVILLE","IL","60106","1124205","Sweetened Beverage Home Rule","229 W GRAND AVE STE Z
BENSENVILLE, IL 60106
(41.930995, -87.949131)"
"BALON INTERNATIONAL CORP","RT BEVERAGE","5410 W ROOSEVELT",,"CHICAGO","IL","60644","1122181","Sweetened Beverage Home Rule","5410 W ROOSEVELT
CHICAGO, IL 60644
(41.865733, -87.757574)"
"BALON INTERNATIONAL CORP","RT BEVERAGE ","5410 W ROOSEVELT RD",,"CHICAGO","IL","60644","1122069","Sweetened Beverage Home Rule","5410 W ROOSEVELT RD
CHICAGO, IL 60644
(41.865733, -87.757574)"
"BALTIC FOOD DISTRUBUTING",,"5808 EAST AVE",,"COUNTRYSIDE","IL","60525","1120916","Sweetened Beverage Home Rule","5808 EAST AVE
COUNTRYSIDE, IL 60525
(41.784406, -87.858702)"
"B AND S INC",,"21102 GOVERNORS HIGHWAY",,"MATTESON","IL","60443","1122354","Sweetened Beverage Home Rule","21102 GOVERNORS HIGHWAY
MATTESON, IL 60443
(41.505602, -87.713208)"
"B AND Y GROCERY INC",,"7041 S WENTWORTH AVE",,"CHICAGO","IL","60621","1122417","Sweetened Beverage Home Rule","7041 S WENTWORTH AVE
CHICAGO, IL 60621
(41.766499, -87.629798)"
"BANNER WHOLESALE GROCERS INC","BANNER WHOLESALE GROCERS INC ","3000 S ASHLAND AVE",,"CHICAGO","IL","60608","1121627","Sweetened Beverage Home Rule","3000 S ASHLAND AVE
CHICAGO, IL 60608
(41.840734, -87.665884)"
"BARADA INC",,"6801 W 87TH ST",,"OAK LAWN","IL","60453","1123662","Sweetened Beverage Home Rule","6801 W 87TH ST
OAK LAWN, IL 60453
(41.733593, -87.790603)"
"BARANOWSKI BAKERY & DELI INC",,"9560 W GRAND AVE",,"FRANKLIN PARK","IL","60131","1124311","Sweetened Beverage Home Rule","9560 W GRAND AVE
FRANKLIN PARK, IL 60131"
"BARGAIN FOOD INC",,"5473 W CHICAGO AVE",,"CHICAGO","IL","60651","1122129","Sweetened Beverage Home Rule","5473 W CHICAGO AVE
CHICAGO, IL 60651
(41.894882, -87.763359)"
"BARKHO INC",,"2909 W DEVON AVE",,"CHICAGO","IL","60659","1123808","Sweetened Beverage Home Rule","2909 W DEVON AVE
CHICAGO, IL 60659
(41.997505, -87.702509)"
"BATTAGLIA DISTRIBUTING CORP. I",,"2500 S. ASHLAND AVE",,"CHICAGO","IL","60608","1121432","Sweetened Beverage Home Rule","2500 S. ASHLAND AVE
CHICAGO, IL 60608
(41.846328, -87.665986)"
"B & B FOOD SERVICE INC",,"1529 S. STATE STREET",,"LOCKPORT","IL","60441","1124793","Sweetened Beverage Home Rule","1529 S. STATE STREET
LOCKPORT, IL 60441
(41.582745, -88.060584)"
"BCBP",,"5114 S PULASKI RD",,"CHICAGO","IL","60632","1122071","Sweetened Beverage Home Rule","5114 S PULASKI RD
CHICAGO, IL 60632
(41.799668, -87.723429)"
"BEAHAN OIL INC/JUSTICE GOLO",,"8755 W. 79TH STREET",,"JUSTICE","IL","60458","1124871","Sweetened Beverage Home Rule","8755 W. 79TH STREET
JUSTICE, IL 60458
(41.747268, -87.83808)"
"BEAR ESTATES #1 LLC","McDONALDS ","888 N. LA FOX STREET SUITE ONE",,"SOUTH ELGIN","IL","60177","1120973","Sweetened Beverage Home Rule","888 N. LA FOX STREET SUITE ONE
SOUTH ELGIN, IL 60177
(42.0018, -88.29715)"
"BEAR MAR INC","McDONALDS 13027","91 W IRVING PARK ROAD",,"STREAMWOOD","IL","60107","1122039","Sweetened Beverage Home Rule","91 W IRVING PARK ROAD
STREAMWOOD, IL 60107
(42.013741, -88.185033)"
"BEESAN MARKET INC",,"7211 W 84TH ST",,"BRIDGEVIEW","IL","60455","1123658","Sweetened Beverage Home Rule","7211 W 84TH ST
BRIDGEVIEW, IL 60455
(41.73896, -87.799664)"
"BELLWOOD BP INCORPORATED",,"500 MANNHEIM ROAD",,"BELLWOOD","IL","60104","1123664","Sweetened Beverage Home Rule","500 MANNHEIM ROAD
BELLWOOD, IL 60104
(41.88374, -87.883294)"
"BELLWOOD SWEETE SHOP LLC",,"706 BELLWOOD AVENUE",,"BELLWOOD","IL","60104","1124309","Sweetened Beverage Home Rule","706 BELLWOOD AVENUE
BELLWOOD, IL 60104
(41.880029, -87.878267)"
"BELMONT GROCERIES LLC","RICHS FRESH MARKET ","3141 NORTH THATCHER AVE",,"RIVER GROVE","IL","60171","1122086","Sweetened Beverage Home Rule","3141 NORTH THATCHER AVE
RIVER GROVE, IL 60171"
"BELMONT MARKET INC","BELMONT HARBOR MARKET ","401 W BELMONT AVE",,"CHICAGO","IL","60657","1122024","Sweetened Beverage Home Rule","401 W BELMONT AVE
CHICAGO, IL 60657
(41.940118, -87.640224)"
"BEN GAMOOM INC",,"9906 S VINCENNES",,"CHICAGO","IL","60643","1122991","Sweetened Beverage Home Rule","9906 S VINCENNES
CHICAGO, IL 60643
(41.713725, -87.65346)"
"BENICIO AND COMPANY INC","SUPER ESPIGA ","4920 W 14TH ST",,"CICERO","IL","60804","1121696","Sweetened Beverage Home Rule","4920 W 14TH ST
CICERO, IL 60804
(41.862195, -87.747899)"
"BERKELEY FINER FOODS INC",,"5447 SAINT CHARLES ROAD",,"BERKELEY","IL","60163","1122452","Sweetened Beverage Home Rule","5447 SAINT CHARLES ROAD
BERKELEY, IL 60163
(41.8894, -87.90663)"
"BEST CHOICE ORIENTAL GROCERY INC",,"2403 S. WENTWORTH AVE",,"CHICAGO","IL","60616","1124539","Sweetened Beverage Home Rule","2403 S. WENTWORTH AVE
CHICAGO, IL 60616
(41.849001, -87.631914)"
"BEST FOOD SERVICES INC.",,"7131 W. 61ST STREET",,"CHICAGO","IL","60638","1124587","Sweetened Beverage Home Rule","7131 W. 61ST STREET
CHICAGO, IL 60638
(41.780994, -87.800721)"
"BEST IN HOME CARE","YAAZ MINI MART","1701 N PULASKI ROAD",,"CHICAGO","IL","60639","1123598","Sweetened Beverage Home Rule","1701 N PULASKI ROAD
CHICAGO, IL 60639
(41.911807, -87.726419)"
"BEST OF CHICAGO CORP","DIRECT PAY ","7323 S HALSTED ST",,"CHICAGO","IL","60621","1122685","Sweetened Beverage Home Rule","7323 S HALSTED ST
CHICAGO, IL 60621
(41.761161, -87.644323)"
"BEST QUALITY DISTRIBUTORS INC",,"7811 CRAWFORD AVENUE",,"SKOKIE","IL","60076","1123919","Sweetened Beverage Home Rule","7811 CRAWFORD AVENUE
SKOKIE, IL 60076
(42.022893, -87.72823)"
"BEST SHOP MARKET CORP","BEST SHOP MARKET ","7340 S RACINE AVE",,"CHICAGO","IL","60636","1124092","Sweetened Beverage Home Rule","7340 S RACINE AVE
CHICAGO, IL 60636
(41.760073, -87.653995)"
"BEST VALUE DISTRIBUTORS INC",,"101 W. 84TH STREET",,"CHICAGO","IL","60620","1120955","Sweetened Beverage Home Rule","101 W. 84TH STREET
CHICAGO, IL 60620
(41.741766, -87.6268)"
"BEVERAGE DEPOT","BEVERAGE DEPOT","15226 BROADWAY AVENUE",,"HARVEY","IL","60426","1120868","Sweetened Beverage Home Rule","15226 BROADWAY AVENUE
HARVEY, IL 60426
(41.612548, -87.644595)"
"BEVERAGE ONE INCORPORATED",,"2500 83RD STREET",,"NORTH BERGEN","NJ","7047","1123445","Sweetened Beverage Home Rule","2500 83RD STREET
NORTH BERGEN, NJ 7047
(40.811046, -74.020411)"
"BGFMCD ENT INC","McDONALDS ","11111 W 179TH ST",,"ORLAND PARK","IL","60467","1121258","Sweetened Beverage Home Rule","11111 W 179TH ST
ORLAND PARK, IL 60467
(41.564317, -87.888796)"
"BH OIL CORP",,"16502 HALSTED ST",,"HARVEY","IL","60426","1123187","Sweetened Beverage Home Rule","16502 HALSTED ST
HARVEY, IL 60426
(41.589865, -87.636477)"
"BIENVENIDO FOOD MART INC",,"1701 N KEYSTONE",,"CHICAGO","IL","60639","1122980","Sweetened Beverage Home Rule","1701 N KEYSTONE
CHICAGO, IL 60639
(41.911701, -87.72761)"
"BIG APPLE FINER FOODS",,"2345 N CLARK ST",,"CHICAGO","IL","60614","1121685","Sweetened Beverage Home Rule","2345 N CLARK ST
CHICAGO, IL 60614
(41.924618, -87.639856)"
"BIG DADDY FOOD MART INC","BIG DADDY FOOD MART INC ","3845 W ROOSEVELT RD",,"CHICAGO","IL","60624","1123096","Sweetened Beverage Home Rule","3845 W ROOSEVELT RD
CHICAGO, IL 60624
(41.866225, -87.721817)"
"BIG LOTS STORES INC",,"300 PHILLIPI  ROAD",,"COLUMBUS","OH","43228","1122976","Sweetened Beverage Home Rule","300 PHILLIPI ROAD
COLUMBUS, OH 43228
(39.957254, -83.110573)"
"BIG SALEM INC","BIG SALEM","1724 E 71ST ST",,"CHICAGO","IL","60649","1123457","Sweetened Beverage Home Rule","1724 E 71ST ST
CHICAGO, IL 60649
(41.766157, -87.582799)"
"BIG SAMS MINI MART #2 INC",,"10658 S STATE ST",,"CHICAGO","IL","60628","1122355","Sweetened Beverage Home Rule","10658 S STATE ST
CHICAGO, IL 60628
(41.699967, -87.623329)"
"BILLY FOOD MARKET INC",,"3906 W ROOSEVELT RD",,"CHICAGO","IL","60624","1121682","Sweetened Beverage Home Rule","3906 W ROOSEVELT RD
CHICAGO, IL 60624
(41.866203, -87.723119)"
"BJC GAS STATION INC","BJC GAS STATION INC ","3959 W FULLERTON AVE",,"CHICAGO","IL","60647","1122815","Sweetened Beverage Home Rule","3959 W FULLERTON AVE
CHICAGO, IL 60647
(41.92446, -87.726542)"
"B & K FOODMARKET INC",,"4058 W BELMONT AVE",,"CHICAGO","IL","60641","1121838","Sweetened Beverage Home Rule","4058 W BELMONT AVE
CHICAGO, IL 60641
(41.939086, -87.729441)"
"BK SCHAUMBRUG INC",,"34 E GOLF ROAD",,"LYNDHURST","NJ","07071","1123367","Sweetened Beverage Home Rule","34 E GOLF ROAD
LYNDHURST, NJ 07071
(40.839576, -74.187339)"
"BLACK AND BLUE ENTERPRISES INC",,"7716 GUILFORD COMMONS",,"HANOVER PARK","IL","60133","1122055","Sweetened Beverage Home Rule","7716 GUILFORD COMMONS
HANOVER PARK, IL 60133
(42.010501, -88.129468)"
"BLUE DIAMOND COFFEE SERVICE IN",,"1020FULLERTON AVE",,"ADDISON","IL","60101","1121641","Sweetened Beverage Home Rule","1020FULLERTON AVE
ADDISON, IL 60101
(41.911571, -88.1841)"
"BLUE ISLAND ASHLAND CITGO INC",,"12932 S ASHLAND AVE",,"BLUE ISLAND","IL","60406","1121829","Sweetened Beverage Home Rule","12932 S ASHLAND AVE
BLUE ISLAND, IL 60406
(41.658096, -87.660801)"
"BLUE ISLAND CITGO INC",,"3196 W 127TH ST",,"BLUE ISLAND","IL","60406","1123279","Sweetened Beverage Home Rule","3196 W 127TH ST
BLUE ISLAND, IL 60406"
"BLUE ISLAND ENTERPRISES INC","ISLAND FOOD MART","2584 S BLUE ISLAND AVE",,"CHICAGO","IL","60608","1123991","Sweetened Beverage Home Rule","2584 S BLUE ISLAND AVE
CHICAGO, IL 60608
(41.845121, -87.684696)"
"BLUE STORE FOOD MART INC",,"1306 W 95TH ST",,"CHICAGO","IL","60620","1123165","Sweetened Beverage Home Rule","1306 W 95TH ST
CHICAGO, IL 60620
(41.721354, -87.655798)"
"BOBA DIRECT INC",,"724 W. ALGONQUIN RD",,"ARLINGTON HEIGHTS","IL","60005","1124470","Sweetened Beverage Home Rule","724 W. ALGONQUIN RD
ARLINGTON HEIGHTS, IL 60005
(42.049239, -87.990768)"
"BOMBAY FOOD INC","EX PANTRY ","1105 NERGE RD",,"ELK GROVE","IL","60007","1122025","Sweetened Beverage Home Rule","1105 NERGE RD
ELK GROVE, IL 60007
(41.993785, -88.027981)"
"BONO INC",,"2807 W 71ST ST",,"CHICAGO","IL","60629","1122042","Sweetened Beverage Home Rule","2807 W 71ST ST
CHICAGO, IL 60629
(41.764536, -87.69334)"
"BONYS FOOD INC","BONYS FOOD MART ","1942 S CARPENTERS ST",,"CHICAGO","IL","60608","1123123","Sweetened Beverage Home Rule","1942 S CARPENTERS ST
CHICAGO, IL 60608
(41.85578, -87.653136)"
"BONYS INC","SUPERMERCADO MARTIN ","5155-5159 W ADDISON ST",,"CHICAGO","IL","60641","1123588","Sweetened Beverage Home Rule","5155-5159 W ADDISON ST
CHICAGO, IL 60641
(41.946033, -87.755857)"
"BONYS INC","SUPERMERCADO MARTIN","5155-5159 W ADDISON STREET",,"CHICAGO","IL","60641","1123883","Sweetened Beverage Home Rule","5155-5159 W ADDISON STREET
CHICAGO, IL 60641
(41.946033, -87.755857)"
"BORIKEN INC","BORIKEN ","2500 W DIVISION",,"CHICAGO","IL","60622","1122046","Sweetened Beverage Home Rule","2500 W DIVISION
CHICAGO, IL 60622
(41.903015, -87.689582)"
"BOTTOMS JP VENDING LLC","BOTTOMS JP VENDING LLC ","14812 S CAMPBELL",,"POSEN","IL","60469","1121806","Sweetened Beverage Home Rule","14812 S CAMPBELL
POSEN, IL 60469
(41.626461, -87.681254)"
"BRAD JONES","BJS VARIETY SHOP","2433 W 69 ST",,"CHICAGO","IL","60629","1123795","Sweetened Beverage Home Rule","2433 W 69 ST
CHICAGO, IL 60629
(41.768319, -87.684669)"
"BR BEVERAGE INC.","PREMIUM BEVERAGE INC.","5239 DIANE CT.",,"OAK FOREST","IL","60452","1122122","Sweetened Beverage Home Rule","5239 DIANE CT.
OAK FOREST, IL 60452
(41.614494, -87.748672)"
"BREAK THRU BEVERAGE ILLINOIS L","BREAK THRU BEVERAGE ILLINOIS LLC","3333 LARAMIE AVE.",,"CICERO","IL","60804","1121423","Sweetened Beverage Home Rule","3333 LARAMIE AVE.
CICERO, IL 60804
(41.830331, -87.753503)"
"BRIDGEVIEW ADVISORS LLC","SHOP & SAVE MARKET #1800","8847 S. HARLEM AVE",,"BRIDGEVIEW","IL","60455","1121345","Sweetened Beverage Home Rule","8847 S. HARLEM AVE
BRIDGEVIEW, IL 60455
(41.730981, -87.798948)"
"BRIGHTON MINI MART INC","QUICK STOP FOOD","2532 W 47TH STREET",,"CHICAGO","IL","60632","1123678","Sweetened Beverage Home Rule","2532 W 47TH STREET
CHICAGO, IL 60632
(41.808404, -87.688356)"
"BRITE J INC","FIVE STAR COMMUNITY ","3320 147TH ST",,"MIDLOTHIAN","IL","60445","1122167","Sweetened Beverage Home Rule","3320 147TH ST
MIDLOTHIAN, IL 60445
(41.625835, -87.701598)"
"BRITTLAN II LLC","McDONALDS ","9560 S HALSTED AVE",,"CHICAGO","IL","60628","1121320","Sweetened Beverage Home Rule","9560 S HALSTED AVE
CHICAGO, IL 60628
(41.719855, -87.643251)"
"BRITTLAN IV LLC","McDONALDS ","29 E 87TH STREET",,"CHICAGO","IL","60619","1121319","Sweetened Beverage Home Rule","29 E 87TH STREET
CHICAGO, IL 60619
(41.736316, -87.622987)"
"BRITTLAN LLC","MCDONALDS 3420","2707 SAUK TRAIL",,"SAUK VILLAGE","IL","60411","1124054","Sweetened Beverage Home Rule","2707 SAUK TRAIL
SAUK VILLAGE, IL 60411
(41.49176, -87.556728)"
"BRITTLAN VI LLC","McDONALDS 21446","1651 W 95TH STREET",,"CHICAGO","IL","60643","1121317","Sweetened Beverage Home Rule","1651 W 95TH STREET
CHICAGO, IL 60643
(41.721121, -87.664388)"
"BRITTLAN V LLC","McDONALDS ","1443 E 87TH STREET",,"CHICAGO","IL","60619","1121318","Sweetened Beverage Home Rule","1443 E 87TH STREET
CHICAGO, IL 60619
(41.736867, -87.588807)"
"BROADVIEW CUT RATE LIQUORS INC","HANA FOOD","1837 S 17TH AVENUE",,"BROADVIEW","IL","60155","1124222","Sweetened Beverage Home Rule","1837 S 17TH AVENUE
BROADVIEW, IL 60155
(41.869595, -87.853241)"
"BROADVIEW DISTRIBUTION INC",,"4311 S KEDVALE AVE",,"CHICAGO","IL","60632","1123914","Sweetened Beverage Home Rule","4311 S KEDVALE AVE
CHICAGO, IL 60632
(41.814683, -87.727497)"
"BRONZEVILLE CONVENIENCE MART I",,"450 E 43RD STREET",,"CHICAGO","IL","60653","1123677","Sweetened Beverage Home Rule","450 E 43RD STREET
CHICAGO, IL 60653
(41.816935, -87.597028)"
"BROOKLYN FOOD & DELI INC",,"5431 W. CHICAGO AVE",,"CHICAGO","IL","60651","1124447","Sweetened Beverage Home Rule","5431 W. CHICAGO AVE
CHICAGO, IL 60651
(41.894906, -87.761625)"
"BROTHERS FOOD INC",,"1327 N HOMAN AVE",,"CHICAGO","IL","60630","1122992","Sweetened Beverage Home Rule","1327 N HOMAN AVE
CHICAGO, IL 60630
(41.905483, -87.711733)"
"BROTHERS FOOD MARKET INC",,"4527 OAKTON ST",,"SKOKIE","IL","60076","1123460","Sweetened Beverage Home Rule","4527 OAKTON ST
SKOKIE, IL 60076
(42.026229, -87.741388)"
"BROTHERS SUBMARINE INC",,"1158 W 63RD ST",,"CHICAGO","IL","60621","1122416","Sweetened Beverage Home Rule","1158 W 63RD ST
CHICAGO, IL 60621
(41.779623, -87.654285)"
"BUCHINGER'S INC",,"605 EDGEMONT LANE",,"HOFFMAN ESTATES","IL","60169","1124909","Sweetened Beverage Home Rule","605 EDGEMONT LANE
HOFFMAN ESTATES, IL 60169
(42.056509, -88.094509)"
"BUDHA INC","S & D PANTRY","1105 W BERWYN AVE",,"CHICAGO","IL","60640","1123787","Sweetened Beverage Home Rule","1105 W BERWYN AVE
CHICAGO, IL 60640
(41.978136, -87.658565)"
"BUOY HOLDINGS LLC","BUOY","423 W ARMITAGE AVE #1",,"CHICAGO","IL","60614","1123374","Sweetened Beverage Home Rule","423 W ARMITAGE AVE #1
CHICAGO, IL 60614
(41.918307, -87.639748)"
"BURKE BEVERAGE INC","BURKE BEVERAGE INC ","4900 S VERNON AVE",,"McCOOK","IL","60525","1122810","Sweetened Beverage Home Rule","4900 S VERNON AVE
McCOOK, IL 60525"
"BURNHAM QUICK MART INC","M & M FOOD","1201 N AUSTIN BLVD",,"CHICAGO","IL","60651","1123768","Sweetened Beverage Home Rule","1201 N AUSTIN BLVD
CHICAGO, IL 60651
(41.902313, -87.775348)"
"BUSSE CVS LLC","CVS PHARMACY ","1002 S BUSSE RD",,"MOUNT PROSPECT","IL","60056","1121767","Sweetened Beverage Home Rule","1002 S BUSSE RD
MOUNT PROSPECT, IL 60056
(42.047769, -87.960335)"
"BUSSE MART INC",,"2107 S BUSSE ROAD",,"MOUNT PROSPECT","IL","60056","1123181","Sweetened Beverage Home Rule","2107 S BUSSE ROAD
MOUNT PROSPECT, IL 60056
(42.029082, -87.959937)"
"BUTERA FINER FOODS INC","BUTERA FRUIT MARKET ","1 CLOCK TOWER PLAZA",,"ELGIN","IL","60120","1121400","Sweetened Beverage Home Rule","1 CLOCK TOWER PLAZA
ELGIN, IL 60120
(42.027536, -88.276757)"
"BWK ENTERPRISES INC","KOSTNER KORNER","4356 W HOWARD",,"SKOKIE","IL","60076","1123949","Sweetened Beverage Home Rule","4356 W HOWARD
SKOKIE, IL 60076"
"BWOOD CORPORATION","BELLWOOD GAS","2418 ST. CHARLES RD",,"BELLWOOD","IL","60104","1123976","Sweetened Beverage Home Rule","2418 ST. CHARLES RD
BELLWOOD, IL 60104
(41.888085, -87.863311)"
"BW OUTFITTERS LLC","TRADECRAFT OUTFITTERS & WORKWELL","2155 S. CARPENTER ST",,"CHICAGO","IL","60608","1120937","Sweetened Beverage Home Rule","2155 S. CARPENTER ST
CHICAGO, IL 60608
(41.853182, -87.653085)"
"CADILLAC COFFEE COMPANY",,"7221 INNOVATION BLVD",,"FORT WAYNE","IN","46818","1120963","Sweetened Beverage Home Rule","7221 INNOVATION BLVD
FORT WAYNE, IN 46818
(41.143302, -85.178925)"
"CAESTRELLA MINI MART INC",,"7000 W DIVERSEY AVE",,"CHICAGO","IL","60707","1122867","Sweetened Beverage Home Rule","7000 W DIVERSEY AVE
CHICAGO, IL 60707
(41.930853, -87.801083)"
"CAFÉ 53 INC",,"1369 E 53RD ST",,"CHICAGO","IL","60615","1123660","Sweetened Beverage Home Rule","1369 E 53RD ST
CHICAGO, IL 60615
(41.799536, -87.592096)"
"CAFÉ M, LLC",,"888 N. LA FOX STREET SUITE ONE",,"SOUTH ELGIN","IL","60177","1120735","Sweetened Beverage Home Rule","888 N. LA FOX STREET SUITE ONE
SOUTH ELGIN, IL 60177
(42.0018, -88.29715)"
"CAGUAX LTD","McDONALDS ","10000 E OHARE AVE",,"CHICAGO","IL","60666","1121272","Sweetened Beverage Home Rule","10000 E OHARE AVE
CHICAGO, IL 60666
(41.980739, -87.895169)"
"CALABAZAS LTD","MCDONALDS ","1570 E NORTHWEST HIGHWAY",,"PALATINE","IL","60074","1121266","Sweetened Beverage Home Rule","1570 E NORTHWEST HIGHWAY
PALATINE, IL 60074
(42.094592, -88.006325)"
"CAL DISCOUNT PLUS INC",,"1413 W 127TH STREET",,"CALUMET PARK","IL","60827","1122388","Sweetened Beverage Home Rule","1413 W 127TH STREET
CALUMET PARK, IL 60827
(41.663002, -87.656716)"
"CAL GAS STATION INC","CITGO FUEL AND MINI MART","12304 S HALSTED STREET",,"CALUMET PARK","IL","60827","1123676","Sweetened Beverage Home Rule","12304 S HALSTED STREET
CALUMET PARK, IL 60827
(41.670207, -87.641742)"
"CALIFORNIA PETROL INC",,"2800 W 63RD ST",,"CHICAGO","IL","60629","1122149","Sweetened Beverage Home Rule","2800 W 63RD ST
CHICAGO, IL 60629
(41.779123, -87.693672)"
"CALUMET GULF INC",,"1336 W 127TH STREET",,"CALUMET PARK","IL","60827","1123674","Sweetened Beverage Home Rule","1336 W 127TH STREET
CALUMET PARK, IL 60827
(41.663027, -87.655214)"
"CALUMET PARK CITGO INC",,"12658 S WOOD STREET",,"CALUMET PARK","IL","60827","1123675","Sweetened Beverage Home Rule","12658 S WOOD STREET
CALUMET PARK, IL 60827
(41.663121, -87.665784)"
"CAMPBELL SALES COMPANY",,"1 CAMPBELL PLACE",,"CAMDEN","NJ","08103","1121821","Sweetened Beverage Home Rule","1 CAMPBELL PLACE
CAMDEN, NJ 08103
(39.939801, -75.108333)"
"CANADA ENTERPRISES LLC",,"411 PLUSH MILLS RD",,"WALLINGFORD","PA","19086","1120841","Sweetened Beverage Home Rule","411 PLUSH MILLS RD
WALLINGFORD, PA 19086
(39.909194, -75.364052)"
"CANADY ENTERPRISES CORP V","McDONALDS","600 E GRAND AVE",,"CHCAGO","IL","60611","1121283","Sweetened Beverage Home Rule","600 E GRAND AVE
CHCAGO, IL 60611
(41.892155, -87.608035)"
"CANADY ENTERPRISES CORP VII","McDONALDS","2301 S LAKE SHORE DRIVE",,"CHICAGO","IL","60616","1121282","Sweetened Beverage Home Rule","2301 S LAKE SHORE DRIVE
CHICAGO, IL 60616
(41.851239, -87.617965)"
"CANADY ENTERPRISES CORP X","McDONALDS ","500 W MADISON STREET",,"CHICAGO","IL","60661","1121281","Sweetened Beverage Home Rule","500 W MADISON STREET
CHICAGO, IL 60661
(41.881877, -87.640418)"
"CANARYVILLE INC","SAVE A LOT","4640 S HALSTED",,"CHICAGO","IL","60609","1121412","Sweetened Beverage Home Rule","4640 S HALSTED
CHICAGO, IL 60609
(41.809106, -87.645593)"
"CANDY GROCERY","SAI KNIPA CHICAGO INC ","1366 W OHIO ST",,"CHICAGO","IL","60642","1124072","Sweetened Beverage Home Rule","1366 W OHIO ST
CHICAGO, IL 60642
(41.892511, -87.662131)"
"CANPAX DISTRIBUTORS INC",,"263 BUCKINGHAM CT B-2",,"SCHAUMBURG","IL","60193","1122436","Sweetened Beverage Home Rule","263 BUCKINGHAM CT B-2
SCHAUMBURG, IL 60193
(42.023655, -88.046342)"
"CAPUTOS NEW FARM PRODUCE INC","ANGELO CAPUTOS FRESH MARKETS ","2400 N HARLEM AVE",,"ELMWOOD PARK","IL","60707","1121321","Sweetened Beverage Home Rule","2400 N HARLEM AVE
ELMWOOD PARK, IL 60707
(41.924791, -87.806253)"
"CARLOS FOOD INC",,"5261 W NORTH AVE",,"CHICAGO","IL","60639","1123122","Sweetened Beverage Home Rule","5261 W NORTH AVE
CHICAGO, IL 60639
(41.909446, -87.758029)"
"CARMELA FOODS DISTRIBUTING INC",,"18350 15 MILE ROAD",,"FRASER","MI","48026","1123734","Sweetened Beverage Home Rule","18350 15 MILE ROAD
FRASER, MI 48026
(42.553913, -82.933626)"
"CARNICENA LA GLORIA INC",,"2551 W 51ST STREET",,"CHICAGO","IL","60632","1123348","Sweetened Beverage Home Rule","2551 W 51ST STREET
CHICAGO, IL 60632
(41.801113, -87.688722)"
"CARNICENA Y FRUTENA LOS ALTOS","CARNICENA Y FRUTENA LOS ALTOS INC ","2959 W 40TH ST",,"CHICAGO","IL","60632","1124076","Sweetened Beverage Home Rule","2959 W 40TH ST
CHICAGO, IL 60632
(41.820916, -87.698428)"
"CARNICERIA EL NOVILLO",,"3505 S CENTRAL AVE",,"CICERO","IL","60804","1124065","Sweetened Beverage Home Rule","3505 S CENTRAL AVE
CICERO, IL 60804
(41.828754, -87.763295)"
"CARNICERIA EL PORVENIR INC",,"150 E KENSINGTON",,"CHICAGO","IL","60628","1123587","Sweetened Beverage Home Rule","150 E KENSINGTON
CHICAGO, IL 60628
(41.683952, -87.618615)"
"CARNICERIA EL TORITO INC",,"5830 W 16TH STREET",,"CICERO","IL","60804","1123575","Sweetened Beverage Home Rule","5830 W 16TH STREET
CICERO, IL 60804
(41.858233, -87.770462)"
"CARNICERIA JIMENEZ INC","CARNICERIAS JIMENEZ","4204-06 W NORTH AVE",,"CHICAGO","IL","60639","1121617","Sweetened Beverage Home Rule","4204-06 W NORTH AVE
CHICAGO, IL 60639
(41.909879, -87.73185)"
"CARNICERIA LA HACIENDA INC",,"3459 W 59TH STREET",,"CHICAGO","IL","60629","1122349","Sweetened Beverage Home Rule","3459 W 59TH STREET
CHICAGO, IL 60629
(41.786138, -87.710412)"
"CARNICERIA LA HACIENDA NO 2 IN",,"3629 W 63RD STREET",,"CHICAGO","IL","60629","1122350","Sweetened Beverage Home Rule","3629 W 63RD STREET
CHICAGO, IL 60629
(41.7788, -87.714114)"
"CARNICERIA LA HACIENDA NO 3 IN",,"2744 W 55TH STREET",,"CHICAGO","IL","60632","1122372","Sweetened Beverage Home Rule","2744 W 55TH STREET
CHICAGO, IL 60632
(41.793733, -87.693138)"
"CARNICERIA LA HACIENDA NO 4 IN",,"5153-59 S KEDZIE AVE",,"CHICAGO","IL","60632","1122351","Sweetened Beverage Home Rule","5153-59 S KEDZIE AVE
CHICAGO, IL 60632
(41.799112, -87.703718)"
"CARNICERIA LA MEJOR PRODUCE IN",,"2915 N MILWAUKEE AVE",,"CHICAGO","IL","60647","1124357","Sweetened Beverage Home Rule","2915 N MILWAUKEE AVE
CHICAGO, IL 60647
(41.934126, -87.715677)"
"CARNICERIA LA PROVIDENCIA","CARNICERIA LA PROVIDENCIA","1658 W 21ST ST",,"CHICAGO","IL","60608","1122438","Sweetened Beverage Home Rule","1658 W 21ST ST
CHICAGO, IL 60608
(41.854136, -87.667683)"
"CARNICERIA MARIBEL INC",,"1801 CERMAK",,"CHICAGO","IL","60608","1123577","Sweetened Beverage Home Rule","1801 CERMAK
CHICAGO, IL 60608"
"CARNICERIA RUIZ INC",,"3001 N KEDZIE AVE",,"CHICAGO","IL","60618","1123486","Sweetened Beverage Home Rule","3001 N KEDZIE AVE
CHICAGO, IL 60618
(41.935726, -87.707504)"
"CARNITAS Y SUPERMERCADO EL GIG","CARNITAS Y SUPERMERCADO EL GIGANTE","2500 N LARAMIE AVE",,"CHICAGO","IL","60639","1124048","Sweetened Beverage Home Rule","2500 N LARAMIE AVE
CHICAGO, IL 60639
(41.926156, -87.756235)"
"CARO INC","SUPERMARKET & TAQUERIA CARO","4937 W 47TH ST",,"CHICAGO","IL","60638","1123283","Sweetened Beverage Home Rule","4937 W 47TH ST
CHICAGO, IL 60638
(41.807583, -87.747043)"
"CARO INC","SUPERMARKET AND TAQUERIA CARO ","4937 WEST 47TH STREET",,"CHICAGO","IL","60638","1122800","Sweetened Beverage Home Rule","4937 WEST 47TH STREET
CHICAGO, IL 60638
(41.807583, -87.747043)"
"CASACCIO BRO INC","LEAMINGTON FOODS ","5467 W MADISON ST",,"CHICAGO","IL","60644","1121679","Sweetened Beverage Home Rule","5467 W MADISON ST
CHICAGO, IL 60644
(41.880217, -87.763806)"
"CASA DOMEX LLC","McDONALDS 29307","3241 W NORTH AVE",,"CHICAGO","IL","60647","1121236","Sweetened Beverage Home Rule","3241 W NORTH AVE
CHICAGO, IL 60647
(41.910058, -87.708737)"
"CATERING BY MICHAELS INC.",,"6203 PARK AVE.",,"MORTON GROVE","IL","60053","1120965","Sweetened Beverage Home Rule","6203 PARK AVE.
MORTON GROVE, IL 60053
(42.02828, -87.781969)"
"CCTT PETROLEUM INC","SOUTH  HOLLAND BP","951 E 162ND ST",,"SOUTH  HOLLAND","IL","60473","1122704","Sweetened Beverage Home Rule","951 E 162ND ST
SOUTH HOLLAND, IL 60473
(41.600809, -87.593922)"
"CENTER FOOD & LIQUOR INC",,"223 E 14 STREET",,"CHICAGO HEIGHTS","IL","60411","1123177","Sweetened Beverage Home Rule","223 E 14 STREET
CHICAGO HEIGHTS, IL 60411
(41.506159, -87.626992)"
"CENTRAL BOEKI CALIF LTD","CENTRAL BOEKI CALIF LTD","19801 RANCHO WAY  STE A",,"RANCHO DOMINGUEZ","CA","90220","1124233","Sweetened Beverage Home Rule","19801 RANCHO WAY STE A
RANCHO DOMINGUEZ, CA 90220
(33.850518, -118.22167)"
"CENTRAL GAS AND MINI MART LLC",,"1754 N CENTRAL AVE",,"CHICAGO","IL","60639","1122164","Sweetened Beverage Home Rule","1754 N CENTRAL AVE
CHICAGO, IL 60639
(41.913055, -87.765633)"
"CENTRAL PARK FOODS INC","CENTRAL PARK FOODS ","3604 W GRAND AVE",,"CHICAGO","IL","60506","1121665","Sweetened Beverage Home Rule","3604 W GRAND AVE
CHICAGO, IL 60506
(41.902337, -87.716726)"
"CENTRAL ROOSEVELT LLC","POP N PLACE/ SHALL","5559 W ROOSEVELT",,"CICERO","IL","60804","1123821","Sweetened Beverage Home Rule","5559 W ROOSEVELT
CICERO, IL 60804
(41.865622, -87.764228)"
"CERMAK AND RIVERSIDE INC",,"6701-09 CERMAK RD",,"BERWYN","IL","60402","1124214","Sweetened Beverage Home Rule","6701-09 CERMAK RD
BERWYN, IL 60402"
"CERMAK FIELDS LLC","CERMAK FRESH MARKET ","4000 W DIVERSY AVE",,"CHICAGO","IL","60639","1121666","Sweetened Beverage Home Rule","4000 W DIVERSY AVE
CHICAGO, IL 60639
(41.931774, -87.729452)"
"CERMAK FOOD","CERMAK FOODS ","4156 W CERMAK",,"CHICAGO","IL","60623","1121377","Sweetened Beverage Home Rule","4156 W CERMAK
CHICAGO, IL 60623
(41.851581, -87.729452)"
"CERMAK FOOD MARKET INC",,"2900 W CERMAK",,"CHICAGO","IL","60623","1122878","Sweetened Beverage Home Rule","2900 W CERMAK
CHICAGO, IL 60623
(41.851864, -87.699685)"
"CERMAK PRODUCE INC","CERMAK PRODUCE ","4605 W CERMAK ROAD",,"CICERO","IL","60804","1121656","Sweetened Beverage Home Rule","4605 W CERMAK ROAD
CICERO, IL 60804
(41.851301, -87.739999)"
"CERMAK PRODUCE NO 11 INC","CERMAK PRODUCE ","7220 S CICERO",,"BEDFORD PARK","IL","60629","1121662","Sweetened Beverage Home Rule","7220 S CICERO
BEDFORD PARK, IL 60629"
"CERMAK PRODUCE NO 12 INC","CERMAK PRODUCE ","3303 S HALSTED STREET",,"CHICAGO","IL","60608","1121663","Sweetened Beverage Home Rule","3303 S HALSTED STREET
CHICAGO, IL 60608
(41.834163, -87.645966)"
"CERMAK PRODUCE NO 15 INC","CERMAK PRODUCE ","6623 N DAMEN AVE",,"CHICAGO","IL","60645","1121664","Sweetened Beverage Home Rule","6623 N DAMEN AVE
CHICAGO, IL 60645
(42.002813, -87.680303)"
"CERMAK PRODUCE NO 5 LTD","CERMAK PRODUCE ","3435 S ARCHER AVE",,"CHICAGO","IL","60608","1121657","Sweetened Beverage Home Rule","3435 S ARCHER AVE
CHICAGO, IL 60608
(41.831333, -87.676229)"
"CERMAK PRODUCENO 6 INC","CERMAK PRODUCE ","4234 N KEDZIE AVE",,"CHICAGO","IL","60618","1121658","Sweetened Beverage Home Rule","4234 N KEDZIE AVE
CHICAGO, IL 60618
(41.958242, -87.708144)"
"CERMAK PRODUCE NO 7 INC","CERMAK PRODUCE ","1711 W CERMAK ROAD",,"CHICAGO","IL","60608","1121659","Sweetened Beverage Home Rule","1711 W CERMAK ROAD
CHICAGO, IL 60608
(41.852306, -87.668751)"
"CERMAK PRODUCE NO 8 INC","CERMAK PRODUCE ","5220 S PULASKI RD",,"CHICAGO","IL","60632","1121660","Sweetened Beverage Home Rule","5220 S PULASKI RD
CHICAGO, IL 60632
(41.797996, -87.72337)"
"CERMAK PRODUCE NO 9 INC","CERMAK PRODUCE ","3311 W 26TH STREET",,"CHICAGO","IL","60623","1121661","Sweetened Beverage Home Rule","3311 W 26TH STREET
CHICAGO, IL 60623
(41.844499, -87.708268)"
"CERTCO INC",,"5321 VERONA RD",,"MADISON","WI","53711","1120847","Sweetened Beverage Home Rule","5321 VERONA RD
MADISON, WI 53711
(43.019384, -89.471104)"
"CERTIFIED FOOD PLAZA INC","GROCERY BASKET ","351 E 103RD ST",,"CHICAGO","IL","60628","1123958","Sweetened Beverage Home Rule","351 E 103RD ST
CHICAGO, IL 60628
(41.707306, -87.614178)"
"CHAMBERS AND OWENS INC.",,"1733 MORSE ST",,"JANESVILLE","WI","53545","1123592","Sweetened Beverage Home Rule","1733 MORSE ST
JANESVILLE, WI 53545
(42.723616, -89.001743)"
"CHAPALA INC","SUPERMERCADO & CARNICENA CHAPALA","7117 N CLARK",,"CHICAGO","IL","60626","1123103","Sweetened Beverage Home Rule","7117 N CLARK
CHICAGO, IL 60626
(42.012, -87.674552)"
"CHARLIES SUPERMARKET INC",,"2941 W MONTROSE AVE",,"CHICAGO","IL","60618","1123219","Sweetened Beverage Home Rule","2941 W MONTROSE AVE
CHICAGO, IL 60618
(41.961251, -87.702351)"
"CHATHAM FOOD MARKET CORP","CHATHAM FOOD MARKET CORP ","327-EAST 79TH STREET",,"CHICAGO","IL","60619","1121671","Sweetened Beverage Home Rule","327-EAST 79TH STREET
CHICAGO, IL 60619
(41.751085, -87.616871)"
"CHATHAM MEAT MART INC",,"8329 S COTTAGE GROVE AVENUE",,"CHICAGO","IL","60619","1124230","Sweetened Beverage Home Rule","8329 S COTTAGE GROVE AVENUE
CHICAGO, IL 60619
(41.743003, -87.604928)"
"CHAVA GROCERY INC",,"2349 S CALIFORNIA AVE",,"CHICAGO","IL","60608","1123158","Sweetened Beverage Home Rule","2349 S CALIFORNIA AVE
CHICAGO, IL 60608
(41.848668, -87.695351)"
"CHETAK CHICAGO LLC",,"1111 E LAKE ST",,"STREAMWOOD","IL","60107","1122186","Sweetened Beverage Home Rule","1111 E LAKE ST
STREAMWOOD, IL 60107
(41.979348, -88.135145)"
"CHICAGO 08 INC",,"6859 S LOOMIS",,"CHICAGO","IL","60636","1123118","Sweetened Beverage Home Rule","6859 S LOOMIS
CHICAGO, IL 60636
(41.768772, -87.659079)"
"CHICAGO 15 FOOD MART INC",,"10404 MAYFIELD AVE",,"OAK LAWN","IL","60453","1123134","Sweetened Beverage Home Rule","10404 MAYFIELD AVE
OAK LAWN, IL 60453
(41.702836, -87.767056)"
"CHICAGO AVE FOOD MART AVE",,"5142 W CHICAGO AVE",,"CHICAGO","IL","60651","1122981","Sweetened Beverage Home Rule","5142 W CHICAGO AVE
CHICAGO, IL 60651
(41.894966, -87.754749)"
"CHICAGO AVENUE MARATHON INC",,"801 N CICERO",,"CHICAGO","IL","60651","1121871","Sweetened Beverage Home Rule","801 N CICERO
CHICAGO, IL 60651
(41.895233, -87.7458)"
"CHICAGO BEVERAGE SYSTEMS LLC","CHICAGO BEVERAGE SYSTEMS","441 N KILBOURN AVE",,"CHICAGO","IL","60624","1124102","Sweetened Beverage Home Rule","441 N KILBOURN AVE
CHICAGO, IL 60624
(41.888235, -87.738166)"
"CHICAGO CENTRAL PARK FOOD MART",,"3608 W CHICAGO AVE",,"CHICAGO","IL","60651","1122860","Sweetened Beverage Home Rule","3608 W CHICAGO AVE
CHICAGO, IL 60651
(41.895489, -87.716615)"
"CHICAGO CITY DISTRIBUTORS INC.",,"7728 W. 99TH ST.",,"HICKORY HILLS","IL","60457","1120959","Sweetened Beverage Home Rule","7728 W. 99TH ST.
HICKORY HILLS, IL 60457
(41.711392, -87.811834)"
"CHICAGO EXPRESS QUICK MART INC",,"5604 W CHICGO AVE NUM 06",,"CHICAGO","IL","60651","1123035","Sweetened Beverage Home Rule","5604 W CHICGO AVE NUM 06
CHICAGO, IL 60651"
"CHICAGO FIESTA MARKET INC",,"939 E IRVING PARK ROAD",,"STREAMWOOD","IL","60107","1121628","Sweetened Beverage Home Rule","939 E IRVING PARK ROAD
STREAMWOOD, IL 60107
(42.009233, -88.16079)"
"CHICAGO FRANCHISE GROUP LLC","NESTLE TOLL HOUSE CAFÉ BY CHIP ","804 ORLAND SQUARE DR",,"ORLAND PARK","IL","60462","1123916","Sweetened Beverage Home Rule","804 ORLAND SQUARE DR
ORLAND PARK, IL 60462
(41.622193, -87.850328)"
"CHICAGO IMPORT AND EXPORT INTE",,"1706-1708 E 79TH ST",,"CHICAGO","IL","60649","1124369","Sweetened Beverage Home Rule","1706-1708 E 79TH ST
CHICAGO, IL 60649
(41.751528, -87.582852)"
"CHICAGO IMPORT INC","CHICAGO IMPORT INC","3801-11 W LAWRENCE AVENUE",,"CHICAGO","IL","60625","1123453","Sweetened Beverage Home Rule","3801-11 W LAWRENCE AVENUE
CHICAGO, IL 60625
(41.968315, -87.723382)"
"CHICAGOLAND BEVERAGE COMPANY","CBC SPECIALTY BEVERAGE","2056 W WALNUT STREET",,"CHICAGO","IL","60612","1122455","Sweetened Beverage Home Rule","2056 W WALNUT STREET
CHICAGO, IL 60612
(41.885826, -87.678964)"
"CHICAGOLAND DELI LLC","PULASKI POLISH DELI AND BAKERY ","7141 W ADDISON ST",,"CHICAGO","IL","60634","1122778","Sweetened Beverage Home Rule","7141 W ADDISON ST
CHICAGO, IL 60634
(41.945315, -87.804794)"
"CHICAGOLAND REFRESHMENTS INC",,"10100 W FRANKLIN AVE",,"FRANKLIN PARK","IL","60131","1121633","Sweetened Beverage Home Rule","10100 W FRANKLIN AVE
FRANKLIN PARK, IL 60131
(41.939493, -87.879746)"
"CHICAGO MINI MART INC",,"5511 N LINCOLN AVE",,"CHICAGO","IL","60625","1123635","Sweetened Beverage Home Rule","5511 N LINCOLN AVE
CHICAGO, IL 60625
(41.981966, -87.693118)"
"CHICAGO ORIENTAL WHOLESALE MARKET INC","CHICAGO ORIENTAL WHOLESALE MARKET INC","1902 S. LUMBER STREET",,"CHICAGO","IL","60616","1124477","Sweetened Beverage Home Rule","1902 S. LUMBER STREET
CHICAGO, IL 60616
(41.8565, -87.637328)"
"CHICAGO PALM INCORPORATED","THE PALM","323 E WACKER DRIVE",,"CHICAGO","IL","60601","1123106","Sweetened Beverage Home Rule","323 E WACKER DRIVE
CHICAGO, IL 60601
(41.887769, -87.619653)"
"CHICAGO PHILLY STOP",,"1600 W LAKE STREET",,"CHICAGO","IL","60612","1124091","Sweetened Beverage Home Rule","1600 W LAKE STREET
CHICAGO, IL 60612
(41.885328, -87.667136)"
"CHICAGO PRODUCE INC","CHICAGO PRODUCE ","3500 W LAWERENCE",,"CHICAGO","IL","60625","1121642","Sweetened Beverage Home Rule","3500 W LAWERENCE
CHICAGO, IL 60625"
"CHICAGO SILVERSMITN","HHC TRS CHICAGO","10 S. WABASH AVE",,"CHICAGO","IL","60603","1124905","Sweetened Beverage Home Rule","10 S. WABASH AVE
CHICAGO, IL 60603
(41.881845, -87.626213)"
"CHICAGO VENDING INC","CHICAGO VENDING","2101 WEST 21ST STREET",,"BROADVIEW","IL","60155","1120921","Sweetened Beverage Home Rule","2101 WEST 21ST STREET
BROADVIEW, IL 60155
(41.851123, -87.858232)"
"CHINATOWN MARKET INC./GROCERY RETAIL",,"2121 S. ARCHER AVE",,"CHICAGO","IL","60616","1124582","Sweetened Beverage Home Rule","2121 S. ARCHER AVE
CHICAGO, IL 60616
(41.854181, -87.63216)"
"CHIN LAND ASIAN FOOD MARKET LL",,"2515 W PETERSON AVE",,"CHICAGO","IL","60659","1123462","Sweetened Beverage Home Rule","2515 W PETERSON AVE
CHICAGO, IL 60659
(41.990442, -87.692697)"
"CHI TOWN GROUP LLC","CHIC TOWN FOOD AND LIQUOR ","5002 N PULASKI ROAD",,"CHICAGO","IL","60630","1122154","Sweetened Beverage Home Rule","5002 N PULASKI ROAD
CHICAGO, IL 60630
(41.971953, -87.72811)"
"CHOWDHURY CORPORATION","SUNDARBAN FISH BAZAR","2200 W DEVON AVE",,"CHICAGO","IL","60659","1123214","Sweetened Beverage Home Rule","2200 W DEVON AVE
CHICAGO, IL 60659
(41.997796, -87.685505)"
"CHRISTIANAS HEAVEN INC",,"3335 W CHICAGO AVE",,"CHICAGO","IL","60651","1123772","Sweetened Beverage Home Rule","3335 W CHICAGO AVE
CHICAGO, IL 60651
(41.895536, -87.710302)"
"CHRIST PANOS FOODS CORP",,"1465 INDUSTRIAL DRIVE",,"ITASCA","IL","60143","1121370","Sweetened Beverage Home Rule","1465 INDUSTRIAL DRIVE
ITASCA, IL 60143
(41.969724, -87.991322)"
"CHRIS VENDING INC",,"10413 WASHINGTON AVE",,"OAK LAWN","IL","60453","1120906","Sweetened Beverage Home Rule","10413 WASHINGTON AVE
OAK LAWN, IL 60453
(41.702955, -87.758496)"
"CICERO 26 CORPORATION","McDONALDS ","4320 N CICERO",,"CHICAGO","IL","60646","1121275","Sweetened Beverage Home Rule","4320 N CICERO
CHICAGO, IL 60646"
"CICERO CITGO INC",,"5737 W ROOSEVELT RD",,"CICERO","IL","60804","1121704","Sweetened Beverage Home Rule","5737 W ROOSEVELT RD
CICERO, IL 60804
(41.86555, -87.76836)"
"CICERO GAS AND FOOD INC","MOBIL ","4804 W MADISON STREET",,"CHICAGO","IL","60644","1122943","Sweetened Beverage Home Rule","4804 W MADISON STREET
CHICAGO, IL 60644
(41.880554, -87.745669)"
"CICERO QUCIK STOP INC",,"10 S CICERO AVE",,"CHICAGO","IL","60644","1122148","Sweetened Beverage Home Rule","10 S CICERO AVE
CHICAGO, IL 60644
(41.87992, -87.745281)"
"CIGARETTES ETC INC",,"6820 W WINDSOR AVE",,"BERWYN","IL","60402","1122414","Sweetened Beverage Home Rule","6820 W WINDSOR AVE
BERWYN, IL 60402
(41.833005, -87.793852)"
"CINCO HERMANAS FOOD AND LIQUOR",,"3900 W 31ST ST",,"CHICAGO","IL","60623","1123918","Sweetened Beverage Home Rule","3900 W 31ST ST
CHICAGO, IL 60623
(41.836927, -87.72188)"
"CIRCLE S MART",,"4757 W NORTH AVE",,"CHICAGO","IL","60639","1122065","Sweetened Beverage Home Rule","4757 W NORTH AVE
CHICAGO, IL 60639
(41.909604, -87.745536)"
"CITGO AT HOMAN INC",,"3357 W HARRISON ST",,"CHICAGO","IL","60624","1122954","Sweetened Beverage Home Rule","3357 W HARRISON ST
CHICAGO, IL 60624
(41.873635, -87.71061)"
"CITGO OF CHICAGO INC",,"721 W 103RD ST",,"CHICAGO","IL","60628","1123416","Sweetened Beverage Home Rule","721 W 103RD ST
CHICAGO, IL 60628
(41.706937, -87.641222)"
"CITGO WESTERN INC",,"225 N WESTERN AVE",,"CHICAGO","IL","60612","1123986","Sweetened Beverage Home Rule","225 N WESTERN AVE
CHICAGO, IL 60612
(41.885452, -87.686514)"
"CITY BEVERAGE MARKHAM LLC","LAKESHORE BEVERAGE ","1401 E. ALGOQUIN ROAD",,"ARLINGTON HEIGHTS","IL","60005","1121430","Sweetened Beverage Home Rule","1401 E. ALGOQUIN ROAD
ARLINGTON HEIGHTS, IL 60005"
"CITY BEVERAGES-MARKHAM LLC","LAKESHORE BEVERAGE","2064 W 167TH STREET",,"MARKHAM","IL","60426","1124317","Sweetened Beverage Home Rule","2064 W 167TH STREET
MARKHAM, IL 60426
(41.586335, -87.667207)"
"CITY FOOD GROCERY INC",,"4832 N CUMBLERLAND AVENUE",,"NORRIDGE","IL","60706","1123939","Sweetened Beverage Home Rule","4832 N CUMBLERLAND AVENUE
NORRIDGE, IL 60706
(41.967624, -87.836767)"
"CITY FOOD MARKET INC","CITY FOOD MARKET ","1682 DOLTON ST",,"CALUMET CITY","IL","60409","1121823","Sweetened Beverage Home Rule","1682 DOLTON ST
CALUMET CITY, IL 60409
(41.630753, -87.56665)"
"CITY FRESH MARKET INC",,"3201 W DEVON AVE",,"CHICAGO","IL","60654","1123475","Sweetened Beverage Home Rule","3201 W DEVON AVE
CHICAGO, IL 60654
(41.997344, -87.709969)"
"CITY FRESH METRA MARKET INC",,"1515 W EVERETT RD",,"LAKE FOREST","IL","60045","1123476","Sweetened Beverage Home Rule","1515 W EVERETT RD
LAKE FOREST, IL 60045
(42.221933, -87.884212)"
"CKM INC","BP GAS ","12701 S PAULINA",,"CALUMET PARK","IL","60827","1122959","Sweetened Beverage Home Rule","12701 S PAULINA
CALUMET PARK, IL 60827
(41.662573, -87.663301)"
"CLARK DOLLAR MARKET INC",,"7354 N CLARK ST",,"CHICAGO","IL","60626","1122970","Sweetened Beverage Home Rule","7354 N CLARK ST
CHICAGO, IL 60626
(42.015428, -87.675122)"
"CLARK MINI MART INC",,"6761 N CLARK ST",,"CHICAGO","IL","60626","1123461","Sweetened Beverage Home Rule","6761 N CLARK ST
CHICAGO, IL 60626
(42.004858, -87.672958)"
"CLOVER CLUB BOTTLING COMPANY I",,"356 N. KILBOURN",,"CHICAGO","IL","60624","1120952","Sweetened Beverage Home Rule","356 N. KILBOURN
CHICAGO, IL 60624
(41.887072, -87.738118)"
"CLYBOURN MARKET INC",,"2807 N CLYBOURN",,"CHICAGO","IL","60618","1123595","Sweetened Beverage Home Rule","2807 N CLYBOURN
CHICAGO, IL 60618
(41.932409, -87.67826)"
"CM 159TH","BP GAS ","5548 W 159TH ST",,"OAK FOREST","IL","60452","1122960","Sweetened Beverage Home Rule","5548 W 159TH ST
OAK FOREST, IL 60452"
"COACHVEND LLC",,"8417 BELOIT AVE",,"BRIDGEVIEW","IL","60455","1121382","Sweetened Beverage Home Rule","8417 BELOIT AVE
BRIDGEVIEW, IL 60455
(41.738199, -87.806594)"
"COFFEE TIME LLC",,"2525 S 11TH STREET",,"NILES","MI","49120","1122540","Sweetened Beverage Home Rule","2525 S 11TH STREET
NILES, MI 49120
(41.780197, -86.250583)"
"COG OPERATING CO INC","McDONALDS ","22 W 421 ARMY TRAIL RD",,"ADDISON","IL","60101","1121392","Sweetened Beverage Home Rule","22 W 421 ARMY TRAIL RD
ADDISON, IL 60101"
"COLD AND HOT MINI MART INC",,"26 MADISON STREET",,"OAK PARK","IL","60302","1124223","Sweetened Beverage Home Rule","26 MADISON STREET
OAK PARK, IL 60302
(41.880124, -87.775871)"
"COLLIN MANAGEMENT LLC","McDONALDS ","633 MEACHAM RD",,"ELK GROVE VILLAGE","IL","60007","1121297","Sweetened Beverage Home Rule","633 MEACHAM RD
ELK GROVE VILLAGE, IL 60007
(42.007204, -88.045794)"
"COLONY FOOD AND LIQUOR INC",,"7555 S RACINE",,"CHICAGO","IL","60620","1122338","Sweetened Beverage Home Rule","7555 S RACINE
CHICAGO, IL 60620
(41.756173, -87.653893)"
"COMANJA INC","TERESITA FOOD","2400 S HOMAN AVE",,"CHICAGO","IL","60623","1123216","Sweetened Beverage Home Rule","2400 S HOMAN AVE
CHICAGO, IL 60623
(41.847915, -87.710031)"
"COMMERCIAL FOOD SYSTEMS INC.",,"8460 S. THOMAS AVE.",,"BRIDGEVIEW","IL","60455","1120957","Sweetened Beverage Home Rule","8460 S. THOMAS AVE.
BRIDGEVIEW, IL 60455
(41.737322, -87.805369)"
"COMMUNITY FOOD MART & RESTAURANT INC",,"16174 QUAIL CT",,"ORLAND HILLS","IL","60487","1124503","Sweetened Beverage Home Rule","16174 QUAIL CT
ORLAND HILLS, IL 60487
(41.597504, -87.843853)"
"COMMUNITY GROCERY LLC",,"3336 W BRYN MAWR AVENUE",,"CHICAGO","IL","60659","1124227","Sweetened Beverage Home Rule","3336 W BRYN MAWR AVENUE
CHICAGO, IL 60659
(41.983022, -87.712761)"
"COMPASS GROUP USA INC","CANTEEN VENDING CHGO CENTRAL VENDING","2400 YORKMONT ROAD",,"CHARLOTTE","NC","28217","1124451","Sweetened Beverage Home Rule","2400 YORKMONT ROAD
CHARLOTTE, NC 28217
(35.189785, -80.91932)"
"CONN GROUP INC","MCDONALDS","9128 S CICERO AVENUE",,"OAK LAWN","IL","60453","1123606","Sweetened Beverage Home Rule","9128 S CICERO AVENUE
OAK LAWN, IL 60453
(41.726719, -87.741095)"
"CONNZ CORP","MCDONALDS","4707 S CICERO AVENUE",,"CHICAGO","IL","60636","1123600","Sweetened Beverage Home Rule","4707 S CICERO AVENUE
CHICAGO, IL 60636
(41.807345, -87.743028)"
"CONTINENTAL SALES AND SALVAGE","CONTINENTAL SALES AND LOTS 4 LESS ","6333 S CICERO AVE",,"CHICAGO","IL","60638","1121667","Sweetened Beverage Home Rule","6333 S CICERO AVE
CHICAGO, IL 60638
(41.777284, -87.742183)"
"CONTINENTAL WHOLESALE INC",,"8928 CENTRAL AVE",,"OAK LAWN","IL","60453","1122728","Sweetened Beverage Home Rule","8928 CENTRAL AVE
OAK LAWN, IL 60453
(41.72954, -87.76064)"
"CONTRERAS PRODUCTS INC","JABON MARAVILLOSO","3831 N NORDICA AVE",,"CHICAGO","IL","60634","1123616","Sweetened Beverage Home Rule","3831 N NORDICA AVE
CHICAGO, IL 60634
(41.949835, -87.803479)"
"CONVENIENCE FOR YOU INC",,"5337 W. MADISON STREET",,"CHICAGO","IL","60644","1125018","Sweetened Beverage Home Rule","5337 W. MADISON STREET
CHICAGO, IL 60644
(41.880287, -87.758885)"
"COOK BROTHERS INC",,"1740 KOSTNER AVE",,"CHICAGO","IL","60639","1120903","Sweetened Beverage Home Rule","1740 KOSTNER AVE
CHICAGO, IL 60639
(41.912672, -87.736187)"
"COOL MOUNTAIN BEVERAGES INC.","MAINTENANCE MADE EASY ","1065 E. PRAIRIE AVE.",,"DES PLAINES","IL","60016","1120958","Sweetened Beverage Home Rule","1065 E. PRAIRIE AVE.
DES PLAINES, IL 60016
(42.040326, -87.89747)"
"CORE-MARK MIDCONTINENT, INC.",,"30300 EMERALD VALLEY PKWY",,"GLENWILLOW","OH","44139","1103478","Sweetened Beverage Home Rule","30300 EMERALD VALLEY PKWY
GLENWILLOW, OH 44139
(41.359854, -81.464801)"
"CORNELL AMOCO INC.",,"5048 S. CORNELL AVE.",,"CHICAGO","IL","60615","1121846","Sweetened Beverage Home Rule","5048 S. CORNELL AVE.
CHICAGO, IL 60615
(41.803025, -87.58648)"
"CORNER FOOD INC",,"1133 N CALIFORNIA AVE",,"CHICAGO","IL","60622","1122424","Sweetened Beverage Home Rule","1133 N CALIFORNIA AVE
CHICAGO, IL 60622
(41.902077, -87.696839)"
"CORRAL LLC",,"6713 W 26T HST",,"BERWYN","IL","60402","1123139","Sweetened Beverage Home Rule","6713 W 26T HST
BERWYN, IL 60402
(41.843292, -87.791324)"
"COSTCO WHOLESALE CORPORATION","COSTCO WHOLESALE 779","999 N ELMHURST RD",,"MT PROSPECT","IL","60056","1121778","Sweetened Beverage Home Rule","999 N ELMHURST RD
MT PROSPECT, IL 60056
(42.083263, -87.936734)"
"COSTCO WHOLESALE CORPORATION","COSTCO WHOLESALE 1107","1430 S ASHLAND AVE",,"CHICAGO","IL","60606","1121780","Sweetened Beverage Home Rule","1430 S ASHLAND AVE
CHICAGO, IL 60606
(41.862387, -87.666318)"
"COSTCO WHOLESALE CORPORATION","COSTCO WHOLESALE 383","7311 N MELVINA AVE",,"NILES","IL","60714","1121774","Sweetened Beverage Home Rule","7311 N MELVINA AVE
NILES, IL 60714
(42.014821, -87.781749)"
"COSTCO WHOLESALE CORPORATION","COSTCO WHOLESALE 1085","8400 W NORTH AVE",,"MELROSE PARK","IL","60160","1121779","Sweetened Beverage Home Rule","8400 W NORTH AVE
MELROSE PARK, IL 60160
(41.908454, -87.835032)"
"COSTCO WHOLESALE CORPORATION","COSTCO WHOLESALE 580","7300 S CICERO AVE",,"CHICAGO","IL","60629","1121776","Sweetened Beverage Home Rule","7300 S CICERO AVE
CHICAGO, IL 60629
(41.760134, -87.741835)"
"COSTCO WHOLESALE CORPORATION","COSTCO WHOLESALE 340","2746 N CLYBOURN AVE",,"CHICAGO","IL","60614","1121773","Sweetened Beverage Home Rule","2746 N CLYBOURN AVE
CHICAGO, IL 60614
(41.930664, -87.676224)"
"COSTCO WHOLESALE CORPORATION","COSTCO WHOLESALE 387","1375 N MEACHAM RD",,"SCHAUMBURG","IL","60173","1121775","Sweetened Beverage Home Rule","1375 N MEACHAM RD
SCHAUMBURG, IL 60173
(42.055141, -88.045)"
"COSTCO WHOLESALE CORPORATION","COSTCO WHOLESALE 348","2900  PATRIOT BLVD",,"GLENVIEW","IL","60026","1121772","Sweetened Beverage Home Rule","2900 PATRIOT BLVD
GLENVIEW, IL 60026
(42.106719, -87.821689)"
"COSTCO WHOLESALE CORPORATION","COSTCO WHOLESALE 1153","2500 HARLEM AVE",,"NORTH RIVERSIDE","IL","60546","1121781","Sweetened Beverage Home Rule","2500 HARLEM AVE
NORTH RIVERSIDE, IL 60546
(41.844289, -87.80351)"
"COSTCO WHOLESALE CORPORATION","COSTCO WHOLESALE 647","9916 W 159TH ST",,"ORLAND PARK","IL","60467","1121777","Sweetened Beverage Home Rule","9916 W 159TH ST
ORLAND PARK, IL 60467
(41.601291, -87.860279)"
"COST PLUS INC","COST PLUS WORLD MARKET ","1201 MARINA VILLAGE PARKWAY",,"ALAMEDA","CA","94501","1121644","Sweetened Beverage Home Rule","1201 MARINA VILLAGE PARKWAY
ALAMEDA, CA 94501
(37.786202, -122.273732)"
"COTTAGE GROVE FOOD MART","COTTAGE GROVE FOOD MART","6307 S COTTAGE GROVE AVENUE",,"CHICAGO","IL","60637","1121889","Sweetened Beverage Home Rule","6307 S COTTAGE GROVE AVENUE
CHICAGO, IL 60637
(41.780311, -87.605928)"
"COTTAGE GROVE GROCERY INC",,"8443 S COTTAGE GROVE AVE",,"CHICAGO","IL","60619","1122421","Sweetened Beverage Home Rule","8443 S COTTAGE GROVE AVE
CHICAGO, IL 60619
(41.740824, -87.604864)"
"COTTAGE GROVE MEAT AND GROCERY",,"7458 S COTTAGE GROVE",,"CHICAGO","IL","60619","1122969","Sweetened Beverage Home Rule","7458 S COTTAGE GROVE
CHICAGO, IL 60619
(41.758723, -87.605408)"
"COTTAGE GROVE MOBIL INCORPORAT","AMSTAR FUEL AND MINI MART","8058 S COTTAGE GROVE AVENUE",,"CHICAGO","IL","60619","1123240","Sweetened Beverage Home Rule","8058 S COTTAGE GROVE AVENUE
CHICAGO, IL 60619
(41.747706, -87.605231)"
"COUNTRY FRESH FINER FOODS INC","COUNTRY FRESH FINER FOODS INC","2583 N CLARK STREET",,"CHICAGO","IL","60614","1123596","Sweetened Beverage Home Rule","2583 N CLARK STREET
CHICAGO, IL 60614
(41.92938, -87.642704)"
"COUNTRYSIDE COMPANY","McDONALDS ","5701 S LAGRANGE RD",,"COUNTRYSIDE","IL","60525","1121262","Sweetened Beverage Home Rule","5701 S LAGRANGE RD
COUNTRYSIDE, IL 60525
(41.786318, -87.868539)"
"COVEMEX CORP",,"2315 S KEELER AVE",,"CHICAGO","IL","60623","1123972","Sweetened Beverage Home Rule","2315 S KEELER AVE
CHICAGO, IL 60623
(41.848166, -87.729519)"
"CRAGIN FRESH MARKET INC",,"5958 W. ADDISON STREET",,"CHICAGO","IL","60634","1124907","Sweetened Beverage Home Rule","5958 W. ADDISON STREET
CHICAGO, IL 60634
(41.945797, -87.775566)"
"CREATIVE BUSINESS INC","CREATIVE MOBIL ","5066 N ELSTON AVE",,"CHICAGO","IL","60630","1122432","Sweetened Beverage Home Rule","5066 N ELSTON AVE
CHICAGO, IL 60630
(41.973601, -87.749055)"
"CREMERIA SANTA MARIA",,"3424 W 26TH ST",,"CHICAGO","IL","60623","1122705","Sweetened Beverage Home Rule","3424 W 26TH ST
CHICAGO, IL 60623
(41.844463, -87.710931)"
"CRESTCO","McDONALDS ","13630 SOUTH CICERO AVENUE",,"CRESTWOOD","IL","60445","1121263","Sweetened Beverage Home Rule","13630 SOUTH CICERO AVENUE
CRESTWOOD, IL 60445"
"CRISTINA FOODS INC",,"4555 S RACINE AVENUE",,"CHICAGO","IL","60609","1123720","Sweetened Beverage Home Rule","4555 S RACINE AVENUE
CHICAGO, IL 60609
(41.810131, -87.655224)"
"CROWN HOLDING INC/SAV-A-LOT",,"3939 W. OGDEN AVE",,"CHICAGO","IL","60623","1124765","Sweetened Beverage Home Rule","3939 W. OGDEN AVE
CHICAGO, IL 60623
(41.851231, -87.724343)"
"C. SANDHEZ CORP/ LARAZA SUPERMERDADO",,"1645 W. 47TH STREET",,"CHICAGO","IL","60609","1124868","Sweetened Beverage Home Rule","1645 W. 47TH STREET
CHICAGO, IL 60609
(41.808637, -87.666596)"
"C & S WHOLESALE GROCERS INC",,"7 CORPORATE DRIVE",,"KEENE","NH","06431","1120933","Sweetened Beverage Home Rule","7 CORPORATE DRIVE
KEENE, NH 06431
(42.955979, -72.330003)"
"C.T.A. FOODS","MUNCIPIAL FOODS ","2559 W DIVISION",,"CHICAGO","IL","60622","1122716","Sweetened Beverage Home Rule","2559 W DIVISION
CHICAGO, IL 60622
(41.902998, -87.69125)"
"CYTOSPORT INC",,"1 HORMEL PLACE",,"AUSTIN","MI","55912","1122056","Sweetened Beverage Home Rule","1 HORMEL PLACE
AUSTIN, MI 55912
(43.681593, -92.967772)"
"CYTO TWO INC","GRAND BP ","6359 W GRAND AV",,"CHICAGO","IL","60639","1122799","Sweetened Beverage Home Rule","6359 W GRAND AV
CHICAGO, IL 60639
(41.922469, -87.784766)"
"DACY LLC","McDONALDS 20104","111 W JACKSON",,"CHICAGO","IL","60604","1121234","Sweetened Beverage Home Rule","111 W JACKSON
CHICAGO, IL 60604
(41.878151, -87.631213)"
"DADY MART FOOD AND LIQUOR INC","DADY MART FOOD AND LIQUOR ","833 E 79TH ST",,"CHICAGO","IL","60619","1122709","Sweetened Beverage Home Rule","833 E 79TH ST
CHICAGO, IL 60619
(41.751285, -87.603694)"
"DAIEI TRADING CHICAGO CO INC",,"360 RANDY RD",,"CAROL STREAM","IL","60188","1122437","Sweetened Beverage Home Rule","360 RANDY RD
CAROL STREAM, IL 60188
(41.906714, -88.109749)"
"DAIOHS USA INC","FIRST CHOICE SERVICES","3535 COMMERCIAL AVE",,"NORTHBROOK","IL","60062","1122315","Sweetened Beverage Home Rule","3535 COMMERCIAL AVE
NORTHBROOK, IL 60062
(42.146573, -87.866543)"
"DAKA4 LLC","McDONDALDS ","300 PARK BLVD SUITE 300",,"ITASCA","IL","60143","1121407","Sweetened Beverage Home Rule","300 PARK BLVD SUITE 300
ITASCA, IL 60143
(41.991102, -88.020518)"
"DALIA FOOD MARKET INC",,"4661 N BROADWAY ST",,"CHICAGO","IL","60640","1122857","Sweetened Beverage Home Rule","4661 N BROADWAY ST
CHICAGO, IL 60640
(41.966677, -87.65826)"
"DAMEN CITGO INC",,"7901 SOUTH DAMEN AVENUE",,"CHICAGO","IL","60620","1121885","Sweetened Beverage Home Rule","7901 SOUTH DAMEN AVENUE
CHICAGO, IL 60620
(41.749863, -87.673143)"
"DAMEN INC",,"1956 W SCHOOL STREET",,"CHICAGO","IL","60657","1123783","Sweetened Beverage Home Rule","1956 W SCHOOL STREET
CHICAGO, IL 60657
(41.941412, -87.677974)"
"D AND D FINER FOODS INC","D AND D FINER FOODS INC ","825 NOYES ST",,"EVANSTON","IL","60201","1122818","Sweetened Beverage Home Rule","825 NOYES ST
EVANSTON, IL 60201
(42.058446, -87.683107)"
"D AND D MANAGEMENT","GRAND FOOD CENTER ","606 GREEN BAY ROAD",,"WINNETKA","IL","60093","1122101","Sweetened Beverage Home Rule","606 GREEN BAY ROAD
WINNETKA, IL 60093
(42.107975, -87.73542)"
"D AND D MANAGEMENT","GRAND FOOD CENTER GLENCOE DEE JAY ","341 HAZEL AVE",,"GLENCOE","IL","60022","1122032","Sweetened Beverage Home Rule","341 HAZEL AVE
GLENCOE, IL 60022
(42.133131, -87.758078)"
"D AND L OF BERWYN INC","TORRES FRESH MARKET ","6227 W 26TH STREET",,"BERWYN","IL","60402","1122367","Sweetened Beverage Home Rule","6227 W 26TH STREET
BERWYN, IL 60402
(41.843453, -87.779856)"
"D AND O FOOD AND LIQUOR INC","D AND O FOOD AND LIQUOR","8700 S COMMERCIAL AVENUE",,"CHICAGO","IL","60617","1123458","Sweetened Beverage Home Rule","8700 S COMMERCIAL AVENUE
CHICAGO, IL 60617
(41.737266, -87.551436)"
"DAN'S VENDING SERVICE INC",,"64 SAYTON RD",,"FOX LAKE","IL","60020","1124472","Sweetened Beverage Home Rule","64 SAYTON RD
FOX LAKE, IL 60020
(42.392512, -88.178415)"
"DARREN A FREIHAGE LLC","McDONALDS ","21011 S LAGRANGE ROAD",,"FRANKFORT","IL","60423","1121373","Sweetened Beverage Home Rule","21011 S LAGRANGE ROAD
FRANKFORT, IL 60423
(41.508132, -87.849365)"
"DAVELL FOOD AND PAPER SUPPLY I","RESTAURANT SUPPL Y ","5741 W 22 PLACE",,"CICERO","IL","60804","1123130","Sweetened Beverage Home Rule","5741 W 22 PLACE
CICERO, IL 60804
(41.850023, -87.768371)"
"DAVELL FOOD AND PAPER SUPPLY I","RESALLER","5741 W 22ND PLACE",,"CICERO","IL","60804","1123717","Sweetened Beverage Home Rule","5741 W 22ND PLACE
CICERO, IL 60804
(41.850023, -87.768371)"
"DAVIS PANTRY",,"927 DAVIS ST",,"EVANSTON","IL","60201","1123805","Sweetened Beverage Home Rule","927 DAVIS ST
EVANSTON, IL 60201
(42.047046, -87.684553)"
"DAY & NIGHT FOOD & CIGARETTES",,"5609 N KIMBALL AVE",,"CHICAGO","IL","60659","1123262","Sweetened Beverage Home Rule","5609 N KIMBALL AVE
CHICAGO, IL 60659
(41.98331, -87.713768)"
"DEAN HOLDING COMPANY",,"14760 TRINITY BLVD",,"FT. WORTH","TX","76155","1120902","Sweetened Beverage Home Rule","14760 TRINITY BLVD
FT. WORTH, TX 76155
(32.822039, -97.047868)"
"DEARBORN WHOLESALE LLC","DEARBORN WHOLESALE GROCERS ","1849 W 79TH ST",,"CHICAGO","IL","60620","1121616","Sweetened Beverage Home Rule","1849 W 79TH ST
CHICAGO, IL 60620
(41.750265, -87.669743)"
"DE ARCOS PIZZA INC",,"2819 W 63RD ST",,"CHICAGO","IL","60629","1124098","Sweetened Beverage Home Rule","2819 W 63RD ST
CHICAGO, IL 60629
(41.779119, -87.694133)"
"DEBBRIDGE INC","McDONALDS","7701 S HARLEM AVE",,"BRIDGEVIEW","IL","60455","1121286","Sweetened Beverage Home Rule","7701 S HARLEM AVE
BRIDGEVIEW, IL 60455
(41.751689, -87.799788)"
"DEBT FREE FAST FOOD INC.","MCDONALDS #12044","7501 W CERMAK RD",,"NORTH RIVERSIDE","IL","60546","1121359","Sweetened Beverage Home Rule","7501 W CERMAK RD
NORTH RIVERSIDE, IL 60546
(41.850212, -87.810039)"
"DEENA LLC","COUNTRY SQUIRE FOODS","113 W. JOE ORR RD.",,"CHICAGO HEIGHTS","IL","60411","1121859","Sweetened Beverage Home Rule","113 W. JOE ORR RD.
CHICAGO HEIGHTS, IL 60411
(41.520647, -87.645352)"
"DEEN LTD INC",,"505 N LAKE SHORE DR STE 222",,"CHICAGO","IL","60611","1124366","Sweetened Beverage Home Rule","505 N LAKE SHORE DR STE 222
CHICAGO, IL 60611
(41.891598, -87.613776)"
"DEEP INC","DELTA DISCOUNT","800 MAINSTREET",,"EVANSTON","IL","60202","1123716","Sweetened Beverage Home Rule","800 MAINSTREET
EVANSTON, IL 60202
(42.033975, -87.682253)"
"DEES PHASE 1 INC","PUTTENS PANTRY ","5449 W DIVISION",,"CHICAGO","IL","60651","1122808","Sweetened Beverage Home Rule","5449 W DIVISION
CHICAGO, IL 60651
(41.902195, -87.762719)"
"DEKA 10 ENTERPRISES","McDONALDS ","8460 DEMPSTER ST",,"NILES","IL","60714","1121311","Sweetened Beverage Home Rule","8460 DEMPSTER ST
NILES, IL 60714
(42.04011, -87.837663)"
"DELI MANAGEMENT INC.","JASONS DELI DISTRIBUTION","350 PINE STREET SUITE 1775",,"BEAUMONT","TX","77701","1120862","Sweetened Beverage Home Rule","350 PINE STREET SUITE 1775
BEAUMONT, TX 77701
(30.085311, -94.097821)"
"DEL RANCHO MARKET INC.","DEL RANCHO MARKET INC.","6816 W. GRAND AVE.",,"CHICAGO","IL","60707","1121858","Sweetened Beverage Home Rule","6816 W. GRAND AVE.
CHICAGO, IL 60707
(41.923629, -87.796289)"
"DEMETER AND DIONYSOS INC","FOODSMART ","2901 W ARMITAGE",,"CHICAGO","IL","60647","1122041","Sweetened Beverage Home Rule","2901 W ARMITAGE
CHICAGO, IL 60647
(41.917474, -87.699617)"
"DENOVA FRESH MARKET INC",,"4459 W. DIVERSEY AVE",,"CHICAGO","IL","60639","1124621","Sweetened Beverage Home Rule","4459 W. DIVERSEY AVE
CHICAGO, IL 60639
(41.931667, -87.73854)"
"DE SOL LLC","MCDONALDS 22100","1737 W FULLERTON AVE",,"CHICAGO","IL","60614","1121233","Sweetened Beverage Home Rule","1737 W FULLERTON AVE
CHICAGO, IL 60614
(41.925122, -87.671829)"
"DES PLAINES ENTERPRISES INC","McDONALDS ","444 S RIVER RD",,"DES PLAINES","IL","60018","1121305","Sweetened Beverage Home Rule","444 S RIVER RD
DES PLAINES, IL 60018
(42.045419, -87.88517)"
"DESPLAINES MARKET INC",,"2216 DESPLAINES STREET",,"BLUE ISLAND","IL","60406","1123940","Sweetened Beverage Home Rule","2216 DESPLAINES STREET
BLUE ISLAND, IL 60406
(41.648694, -87.675333)"
"DETROIT CITY DAIRY INC","DAIRY FRESH FOODS INC ","21405 TROLLEY INDUSTRIAL DRIVE",,"TAYLOR","MI","48180","1121384","Sweetened Beverage Home Rule","21405 TROLLEY INDUSTRIAL DRIVE
TAYLOR, MI 48180
(42.262495, -83.245888)"
"DEVON MARKET LLC",,"1440 W DEVON AVENUE",,"CHICAGO","IL","60660","1122102","Sweetened Beverage Home Rule","1440 W DEVON AVENUE
CHICAGO, IL 60660
(41.998125, -87.667512)"
"DEVON MARKET LLC",,"1440 W DEVON AVE",,"CHICAGO","IL","60660","1122138","Sweetened Beverage Home Rule","1440 W DEVON AVE
CHICAGO, IL 60660
(41.998125, -87.667512)"
"DG RETAIL LLC","DOLLAR GENERAL STORES ","100 MISSION RIDGE",,"GOODLETTSVILLE","TN","37072","1120922","Sweetened Beverage Home Rule","100 MISSION RIDGE
GOODLETTSVILLE, TN 37072
(36.309645, -86.699247)"
"DHYANI GROCERIES INC","CALCITY PANTRY ","645 BURNHAM AVENUE",,"CALUMET CITY","IL","60409","1122994","Sweetened Beverage Home Rule","645 BURNHAM AVENUE
CALUMET CITY, IL 60409
(41.616959, -87.539591)"
"DIA FOOD AND LIQUORS INC",,"1478 W 115TH ST",,"CHICAGO","IL","60643","1123647","Sweetened Beverage Home Rule","1478 W 115TH ST
CHICAGO, IL 60643
(41.684844, -87.659423)"
"DIAMOND VENDING INC",,"2629 CONDIT STREET SUITE 4",,"HIGHLAND","IN","46322","1124232","Sweetened Beverage Home Rule","2629 CONDIT STREET SUITE 4
HIGHLAND, IN 46322
(41.556618, -87.465257)"
"DIEGO CORP/MANGOS FRESH MARKET & DELI","DIEGO CORP/MANGOS FRESH MARKET & DELI","648 N. MILWAUKEE AVE",,"PROSPECT HEIGHTS","IL","60070","1124726","Sweetened Beverage Home Rule","648 N. MILWAUKEE AVE
PROSPECT HEIGHTS, IL 60070
(42.107882, -87.889563)"
"DIL FOODS INC",,"2494 OAKTON ST",,"EVANSTON","IL","60202","1123964","Sweetened Beverage Home Rule","2494 OAKTON ST
EVANSTON, IL 60202
(42.026413, -87.708347)"
"DINOS INC","DINOS FRESH MARKET ","6768 BARRINGTON RD",,"HANOVER PARK","IL","60133","1121840","Sweetened Beverage Home Rule","6768 BARRINGTON RD
HANOVER PARK, IL 60133
(41.996395, -88.144854)"
"DIOCELINA SALGADO","DIOCELINAS GROCERY ","3132 W 25TH ST",,"CHICAGO","IL","60623","1123166","Sweetened Beverage Home Rule","3132 W 25TH ST
CHICAGO, IL 60623
(41.846355, -87.704219)"
"DISCOUNT MEAT COMPANY",,"341 W 79TH ST",,"CHICAGO","IL","60620","1123960","Sweetened Beverage Home Rule","341 W 79TH ST
CHICAGO, IL 60620
(41.750787, -87.633399)"
"DIVERSEY AND AUSTIN LIQUOR STO",,"5952 W DIVERSEY",,"CHICAGO","IL","60639","1123688","Sweetened Beverage Home Rule","5952 W DIVERSEY
CHICAGO, IL 60639
(41.931151, -87.775599)"
"DIVISION GROCERY PLUS INC",,"3805 W DIVISION ST",,"CHICAGO","IL","60651","1122066","Sweetened Beverage Home Rule","3805 W DIVISION ST
CHICAGO, IL 60651
(41.902739, -87.721625)"
"DIXMOOR INC","DIXMOOR MARKET ","14635 S. WESTERN AVE",,"DIXMOOR","IL","60426","1121785","Sweetened Beverage Home Rule","14635 S. WESTERN AVE
DIXMOOR, IL 60426
(41.623415, -87.674858)"
"DOLLAR 26 INC",,"3240 W. 26TH STREET",,"CHICAGO","IL","60623","1124783","Sweetened Beverage Home Rule","3240 W. 26TH STREET
CHICAGO, IL 60623
(41.844523, -87.706727)"
"DOLLAR BUSTER #15 INC",,"4832 W CERMAK",,"CICERO","IL","60804","1122990","Sweetened Beverage Home Rule","4832 W CERMAK
CICERO, IL 60804
(41.851311, -87.745885)"
"DOLLAR FUNCTIONS INC","SAMS ","319 W 103RD ST",,"CHICAGO","IL","60628","1121693","Sweetened Beverage Home Rule","319 W 103RD ST
CHICAGO, IL 60628
(41.707055, -87.631755)"
"DOLLAR GOODYS INC",,"6958 S WENTWORTH AVE",,"CHICAGO","IL","60621","1122415","Sweetened Beverage Home Rule","6958 S WENTWORTH AVE
CHICAGO, IL 60621
(41.767765, -87.629838)"
"DOLLAR INN PLUS INC",,"2758 W DEVON AVE",,"CHICAGO","IL","60659","1122347","Sweetened Beverage Home Rule","2758 W DEVON AVE
CHICAGO, IL 60659
(41.997557, -87.699394)"
"DOLLAR MIX",,"3822 W 63RD ST",,"CHICAGO","IL","60629","1124066","Sweetened Beverage Home Rule","3822 W 63RD ST
CHICAGO, IL 60629
(41.778703, -87.718755)"
"DOLLAR MIX",,"3822 W 63RD ST",,"CHICAGO","IL","60629","1123481","Sweetened Beverage Home Rule","3822 W 63RD ST
CHICAGO, IL 60629
(41.778703, -87.718755)"
"DOLLAR TREE STORE INC.",,"500 VOLVO PARKWAY",,"CHESAPEAKE","VA","23320","1122171","Sweetened Beverage Home Rule","500 VOLVO PARKWAY
CHESAPEAKE, VA 23320
(36.767525, -76.24092)"
"DOLLAR TRUE INC",,"2626 E 75TH ST",,"CHICAGO","IL","60649","1122989","Sweetened Beverage Home Rule","2626 E 75TH ST
CHICAGO, IL 60649
(41.759168, -87.56)"
"DOLTON GAS AND MINI MART INC",,"14433 LINCOLN AVE",,"DOLTON","IL","60419","1124060","Sweetened Beverage Home Rule","14433 LINCOLN AVE
DOLTON, IL 60419
(41.632775, -87.598336)"
"DOLTON MINI MART INC",,"15401 S COTTAGE GROVE",,"DOLTON","IL","60455","1123773","Sweetened Beverage Home Rule","15401 S COTTAGE GROVE
DOLTON, IL 60455"
"DOMA FOOD MART INC",,"1533 W 79TH STREET",,"CHICAGO","IL","60620","1123434","Sweetened Beverage Home Rule","1533 W 79TH STREET
CHICAGO, IL 60620
(41.750359, -87.662571)"
"DONA MARIS CORPORATION",,"3757-59 W  FULLERTON AVE",,"CHICAGO","IL","60647","1124046","Sweetened Beverage Home Rule","3757-59 W FULLERTON AVE
CHICAGO, IL 60647
(41.924525, -87.721574)"
"DON GOLLO SUPERMECADO",,"6115 S KEDZIE AVE",,"CHICAGO","IL","60629","1123477","Sweetened Beverage Home Rule","6115 S KEDZIE AVE
CHICAGO, IL 60629
(41.782123, -87.703236)"
"DOT FOODS INC",,"ONE DOT WAY",,"MT STERLING","IL","62353","1122143","Sweetened Beverage Home Rule","ONE DOT WAY
MT STERLING, IL 62353"
"DOUBLE R FOOD AND LIQUOR",,"10034 S MICHIGAN AVENUE",,"CHICAGO","IL","60628","1121897","Sweetened Beverage Home Rule","10034 S MICHIGAN AVENUE
CHICAGO, IL 60628
(41.71159, -87.620019)"
"DOUGLAS PARK DOLLAR AND FOOD I","DOUGLAS PARK DOOLAR AND FOOD ","1514 S KEDZIE AVE",,"CHICAGO","IL","60623","1122848","Sweetened Beverage Home Rule","1514 S KEDZIE AVE
CHICAGO, IL 60623
(41.860809, -87.705509)"
"DPI SPECIALTY FOODS MID ATLANTIC INC",,"1000 PRINCE GEORGES BLVD",,"UPPER MARLBORO","MD","20774","1124427","Sweetened Beverage Home Rule","1000 PRINCE GEORGES BLVD
UPPER MARLBORO, MD 20774
(38.875159, -76.725788)"
"DRAKE FOOD INC","DRAKE FOOD ","957 N DRAKE AVE 1ST FLOOR",,"CHICAGO","IL","60651","1124220","Sweetened Beverage Home Rule","957 N DRAKE AVE 1ST FLOOR
CHICAGO, IL 60651
(41.898888, -87.715213)"
"D TAYLOR INC","McDONALDS ","37 EAST 79TH STREET",,"CHICAGO","IL","60619","1121248","Sweetened Beverage Home Rule","37 EAST 79TH STREET
CHICAGO, IL 60619
(41.750972, -87.62326)"
"EAGLE DISTRIBUTORS INC","EAGLE DISTRIBUTORS INC ","5632 N NORTHWEST HWY",,"CHICAGO","IL","60646","1121796","Sweetened Beverage Home Rule","5632 N NORTHWEST HWY
CHICAGO, IL 60646
(41.983876, -87.784025)"
"E AND A OIL CO","LAWNDALE MOBIL MART ","3642 W 59TH ST",,"CHICAGO","IL","60629","1123127","Sweetened Beverage Home Rule","3642 W 59TH ST
CHICAGO, IL 60629
(41.786074, -87.714973)"
"E AND B TOBACCO AND LIQUOR INC",,"558 3RD STREET",,"LASALLE","IL","61301","1123888","Sweetened Beverage Home Rule","558 3RD STREET
LASALLE, IL 61301
(41.330105, -89.098266)"
"E AND M DOLLAR",,"1443 E 53RD ST",,"CHICAGO","IL","60615","1122694","Sweetened Beverage Home Rule","1443 E 53RD ST
CHICAGO, IL 60615
(41.79956, -87.590011)"
"EASTLAND FOOD CORPORATION","EASTLAND FOOD CORPORATION","606 TERRITORIAL DRIVE",,"BOLINGBROOK","IL","60440","1123608","Sweetened Beverage Home Rule","606 TERRITORIAL DRIVE
BOLINGBROOK, IL 60440
(41.679008, -88.099452)"
"EASTSIDE MARATHON INC",,"834 W 79TH STREET",,"CHICAGO","IL","60619","1122321","Sweetened Beverage Home Rule","834 W 79TH STREET
CHICAGO, IL 60619
(41.750629, -87.645375)"
"EASTSIDE MART LLC",,"368 E GARFIELD BLVD",,"CHICAGO","IL","60615","1122050","Sweetened Beverage Home Rule","368 E GARFIELD BLVD
CHICAGO, IL 60615
(41.794818, -87.616375)"
"EASY EXPRESS FOOD MART INC",,"14620 HALSTED ST",,"HARVEY","IL","60426","1123774","Sweetened Beverage Home Rule","14620 HALSTED ST
HARVEY, IL 60426
(41.623771, -87.641473)"
"EASY MART INC",,"14100 S INDIANA AVE",,"RIVERDALE","IL","60827","1123775","Sweetened Beverage Home Rule","14100 S INDIANA AVE
RIVERDALE, IL 60827
(41.638888, -87.617222)"
"EBY-BROWN COMPANY LLC",,"1415 DIEHL RD",,"NAPERVILLE","IL","60563","1122045","Sweetened Beverage Home Rule","1415 DIEHL RD
NAPERVILLE, IL 60563
(41.800997, -88.190585)"
"ECO FOOD DISTRIBUTION LLC",,"3900 N RIVER RD",,"SCHILLER PARK","IL","60176","1122363","Sweetened Beverage Home Rule","3900 N RIVER RD
SCHILLER PARK, IL 60176"
"ECONOMY FINER FOODS","FAIRWAY FINER FOODS ","15440 COTTAGE GROVE",,"DOLTON","IL","60415","1121635","Sweetened Beverage Home Rule","15440 COTTAGE GROVE
DOLTON, IL 60415
(41.614373, -87.597787)"
"EDDIES LIQUOR","EDDIE LIQUOR","9809 COTTAGE GROVE",,"CHICAGO","IL","60628","1124237","Sweetened Beverage Home Rule","9809 COTTAGE GROVE
CHICAGO, IL 60628"
"EDDIES SUNSHINE FOOD & LIQUOR",,"10800 S MICHIGAN AVE",,"CHICAGO","IL","60628","1123226","Sweetened Beverage Home Rule","10800 S MICHIGAN AVE
CHICAGO, IL 60628
(41.697885, -87.620891)"
"ED'S FOOD MART, INC.",,"11809 S. MICHIGAN AVE",,"CHICAGO","IL","60628","1124734","Sweetened Beverage Home Rule","11809 S. MICHIGAN AVE
CHICAGO, IL 60628
(41.679481, -87.620573)"
"ELANO FUEL INC",,"6700 S COTTAGE GROVE AVE",,"CHICAGO","IL","60637","1122322","Sweetened Beverage Home Rule","6700 S COTTAGE GROVE AVE
CHICAGO, IL 60637
(41.772724, -87.605773)"
"EL BARAKAH SUPER MARKET INC",,"7300 S SOUTH SHORE DR",,"CHICAGO","IL","60643","1123119","Sweetened Beverage Home Rule","7300 S SOUTH SHORE DR
CHICAGO, IL 60643
(41.764019, -87.560561)"
"ELBO FOOD MART INC",,"1822 W 63RD STREET",,"CHICAGO","IL","60636","1123704","Sweetened Beverage Home Rule","1822 W 63RD STREET
CHICAGO, IL 60636
(41.779419, -87.669988)"
"EL CERRITO SUPERMERCADO INCORP","FOOD OASIS","7500 ELMHURST RD",,"DES PLAINES","IL","60018","1124002","Sweetened Beverage Home Rule","7500 ELMHURST RD
DES PLAINES, IL 60018"
"ELCHARRO FOD INC",,"158 N 19TH AVE",,"MELROSE PARK","IL","60160","1123120","Sweetened Beverage Home Rule","158 N 19TH AVE
MELROSE PARK, IL 60160
(41.893251, -87.856611)"
"EL ENCANTO PRODUCTS INC",,"4041 W OGDEN AVE",,"CHICAGO","IL","60623","1123473","Sweetened Beverage Home Rule","4041 W OGDEN AVE
CHICAGO, IL 60623
(41.850757, -87.72571)"
"ELEVENCONE INC","KWIK MART ","481 BURNHAM AVE",,"CALUMET CITY","IL","60409","1122690","Sweetened Beverage Home Rule","481 BURNHAM AVE
CALUMET CITY, IL 60409
(41.622289, -87.53959)"
"ELGIN BEVERAGE","ELGIN BEVERAGE CO.","300 MILES PKWY",,"BARTLETT","IL","60103","1121429","Sweetened Beverage Home Rule","300 MILES PKWY
BARTLETT, IL 60103
(41.996295, -88.26611)"
"ELGIN FRUIT MARKET LTD","ELGIN FRESH MARKET ","822 SUMMIT",,"ELGIN","IL","60120","1121708","Sweetened Beverage Home Rule","822 SUMMIT
ELGIN, IL 60120
(42.046366, -88.259352)"
"ELITE COFFEE SERVICE INC","ELITE COFFEE SERVICE INC","830 SETON COURT UNIT II",,"WHEEELING","IL","60090","1120919","Sweetened Beverage Home Rule","830 SETON COURT UNIT II
WHEEELING, IL 60090
(42.127138, -87.930636)"
"ELMERCADO BARATO 2 IN",,"6111 W CERMAK RD",,"CICERO","IL","60804","1123121","Sweetened Beverage Home Rule","6111 W CERMAK RD
CICERO, IL 60804
(41.850759, -87.776709)"
"EL MILENIO INC","LA LUNA BAKERY ","6209 W DIVERSEY AVE",,"CHICAGO","IL","60639","1123584","Sweetened Beverage Home Rule","6209 W DIVERSEY AVE
CHICAGO, IL 60639
(41.931068, -87.781154)"
"EL PORVENIR INC","CARNICERIA DOS HERMANOS ","2336 S LARAMIE",,"CICERO","IL","60804","1123580","Sweetened Beverage Home Rule","2336 S LARAMIE
CICERO, IL 60804
(41.848225, -87.753994)"
"EL PUBLANO CORPORATION",,"2610 W 51ST ST",,"CHICAGO","IL","60632","1123204","Sweetened Beverage Home Rule","2610 W 51ST ST
CHICAGO, IL 60632
(41.801099, -87.689608)"
"EL RANCHITO FOOD INC",,"8327-29 S PULASKI",,"CHICAGO","IL","60652","1123626","Sweetened Beverage Home Rule","8327-29 S PULASKI
CHICAGO, IL 60652
(41.741632, -87.72157)"
"EL RANCHITO MARKET INC",,"12742 WESTERN AVE",,"BLUE ISLAND","IL","60406","1123627","Sweetened Beverage Home Rule","12742 WESTERN AVE
BLUE ISLAND, IL 60406
(41.661537, -87.680081)"
"EL RODEO INC",,"4300 S MOZART",,"CHICAGO","IL","60632","1123281","Sweetened Beverage Home Rule","4300 S MOZART
CHICAGO, IL 60632
(41.815263, -87.695646)"
"ELSTON ARCHES CORPORATION","McDONALDS 866","6125 N MILWAUKEE AVENUE",,"CHICAGO","IL","60646","1121324","Sweetened Beverage Home Rule","6125 N MILWAUKEE AVENUE
CHICAGO, IL 60646
(41.992985, -87.783633)"
"ELSTON SELF SERVICE WHOLESALE","ELSTON SELF SERVICE WHOLESALE GROCERS","3761 N ELSTON AVE",,"CHICAGO","IL","60618","1121819","Sweetened Beverage Home Rule","3761 N ELSTON AVE
CHICAGO, IL 60618
(41.949788, -87.713416)"
"EL SUR FOODS INC",,"4500 S WOOD STREET",,"CHICAGO","IL","60609","1123889","Sweetened Beverage Home Rule","4500 S WOOD STREET
CHICAGO, IL 60609
(41.811951, -87.669895)"
"EL TAPATIO GROCERS WHOLESALE I",,"2021 WEST 18TH STREET",,"CHICAGO","IL","60608","1123882","Sweetened Beverage Home Rule","2021 WEST 18TH STREET
CHICAGO, IL 60608
(41.857713, -87.67673)"
"EL VALLE GROCERY STORE COMPANY",,"1703 E OAKTON ST",,"DES PLAINES","IL","60018","1123973","Sweetened Beverage Home Rule","1703 E OAKTON ST
DES PLAINES, IL 60018
(42.02434, -87.881487)"
"EMMANGELA INC","KFC ","1135 S. DELANO CRT, EAST 721",,"CHICAGO","IL","60605","1124463","Sweetened Beverage Home Rule","1135 S. DELANO CRT, EAST 721
CHICAGO, IL 60605
(41.868153, -87.632388)"
"EMMETTS PT LLC",,"110 N. BROCKWAY ST",,"PALATINE ","IL","60067","1113703","Sweetened Beverage Home Rule","110 N. BROCKWAY ST
PALATINE, IL 60067
(42.112795, -88.046206)"
"ENDYS DELICATESSEN INC.",,"3055 N MILWAUKEE AVE",,"CHICAGO","IL","60618","1122174","Sweetened Beverage Home Rule","3055 N MILWAUKEE AVE
CHICAGO, IL 60618
(41.936555, -87.719656)"
"ENFESAL INC","DOLTON CITGO AND MINI MART ","14209 LINCOLN AVE",,"DOLTON","IL","60419","1122391","Sweetened Beverage Home Rule","14209 LINCOLN AVE
DOLTON, IL 60419
(41.636732, -87.604434)"
"ENGLEWOOD CITGO INC",,"1356 W 87TH ST",,"CHICAGO","IL","60620","1123114","Sweetened Beverage Home Rule","1356 W 87TH ST
CHICAGO, IL 60620
(41.735907, -87.657699)"
"ENGLEWOOD GROCERY FOOD INC",,"7200 S WENTWORTH AVE",,"CHICAGO","IL","60621","1124105","Sweetened Beverage Home Rule","7200 S WENTWORTH AVE
CHICAGO, IL 60621
(41.76326, -87.629725)"
"ENGLEWOOD MARKET INC","ENGLEWOOD MARKET INC","6055-57 S RACINE",,"CHICAGO","IL","60636","1123109","Sweetened Beverage Home Rule","6055-57 S RACINE
CHICAGO, IL 60636
(41.784071, -87.654642)"
"ENGLEWOOD PETROLEUM INC",,"1151 W 63RD ST",,"CHICAGO","IL","60621","1123115","Sweetened Beverage Home Rule","1151 W 63RD ST
CHICAGO, IL 60621
(41.779624, -87.654135)"
"E PARTNERS CW5 INC","COCO5","1932 W KINZIE",,"CHICAGO","IL","60622","1124199","Sweetened Beverage Home Rule","1932 W KINZIE
CHICAGO, IL 60622
(41.888736, -87.675461)"
"EPICURE FOODS CORP.",,"1 ATALANTA PLAZA",,"ELIZABETH","NJ","07206","1120843","Sweetened Beverage Home Rule","1 ATALANTA PLAZA
ELIZABETH, NJ 07206
(40.650675, -74.17542)"
"E R AND J FOOD AND LIQUOR INC",,"654-58 EAST 67TH STREET",,"CHICAGO","IL","60637","1121896","Sweetened Beverage Home Rule","654-58 EAST 67TH STREET
CHICAGO, IL 60637
(41.773077, -87.608279)"
"ERIC RESTOFF","TRIPLE E VENDING ","225 WOODRUFF STREET",,"MARSEILLES","IL","61341","1121836","Sweetened Beverage Home Rule","225 WOODRUFF STREET
MARSEILLES, IL 61341
(41.330628, -88.705303)"
"ERIE FRESH INC",,"633 N CICERO AVE",,"CHICAGO","IL","60644","1123659","Sweetened Beverage Home Rule","633 N CICERO AVE
CHICAGO, IL 60644
(41.892436, -87.745716)"
"ESA GAS INC","MARATHON/UNION 76","3000 W 63RD ST",,"CHICAGO","IL","60629","1123663","Sweetened Beverage Home Rule","3000 W 63RD ST
CHICAGO, IL 60629
(41.779042, -87.698598)"
"ESA GAS INC",,"3000 WEST 63RD ST",,"CHICAGO","IL","60629","1123786","Sweetened Beverage Home Rule","3000 WEST 63RD ST
CHICAGO, IL 60629
(41.779042, -87.698598)"
"ESHIKA INC","FOSTER GROCERY PLUS","3358 W FOSTER AVE",,"CHICAGO","IL","60625","1123261","Sweetened Beverage Home Rule","3358 W FOSTER AVE
CHICAGO, IL 60625
(41.975696, -87.713364)"
"ESKANDALOS DISCOTECA INC","CARNICERIA Y TAQUERIA LOS LAURELES ","2212 ALGONQUIN RD",,"ROLLING MEADOWS","IL","60008","1124206","Sweetened Beverage Home Rule","2212 ALGONQUIN RD
ROLLING MEADOWS, IL 60008
(42.058039, -88.007392)"
"ESM GROCERY FOOD","ESM GROCERY FOOD ","5358 S CARPENTER STREET",,"CHICAGO","IL","60609","1124086","Sweetened Beverage Home Rule","5358 S CARPENTER STREET
CHICAGO, IL 60609
(41.796032, -87.651293)"
"ESQUIR PETROLEUM LLC",,"7201 N CLARK STREET",,"CHICAGO","IL","60626","1123682","Sweetened Beverage Home Rule","7201 N CLARK STREET
CHICAGO, IL 60626
(42.012898, -87.674702)"
"EUROFRESH MARKET INC",,"130 WEST NORTHWEST HIGHWAY",,"PALATINE","IL","60067","1121387","Sweetened Beverage Home Rule","130 WEST NORTHWEST HIGHWAY
PALATINE, IL 60067
(42.122137, -88.047339)"
"EUROPEAN IMPORTS INC.",,"600 E. BROOKS DRIVE",,"ARLINGTON HEIGHTS","IL","60005","1120940","Sweetened Beverage Home Rule","600 E. BROOKS DRIVE
ARLINGTON HEIGHTS, IL 60005
(42.038879, -87.975602)"
"EUROSTYLE DELI INC",,"4861 OAKTON STREET",,"SKOKIE","IL","60077","1124600","Sweetened Beverage Home Rule","4861 OAKTON STREET
SKOKIE, IL 60077
(42.026252, -87.749853)"
"EVERFRESH FOOD CORP",,"5649 W HOWARD ST",,"NILES","IL","60174","1121369","Sweetened Beverage Home Rule","5649 W HOWARD ST
NILES, IL 60174
(42.019182, -87.769065)"
"EVERGREENBP INC",,"2620 W 95TH ST",,"EVERGREEN PARK","IL","60805","1123277","Sweetened Beverage Home Rule","2620 W 95TH ST
EVERGREEN PARK, IL 60805
(41.720949, -87.687446)"
"EVERGREEN CONVENIENT FOOD INC",,"3301 W EVERGREEN AVE",,"CHICAGO","IL","60651","1121807","Sweetened Beverage Home Rule","3301 W EVERGREEN AVE
CHICAGO, IL 60651
(41.905553, -87.709383)"
"EWING LIQUORS IN",,"10459 S EWING AVE",,"CHICAGO","IL","60617","1123274","Sweetened Beverage Home Rule","10459 S EWING AVE
CHICAGO, IL 60617
(41.70476, -87.535294)"
"EXCELLENT TRADERS INC","LAKE N AUSTIN FOOD MART ","422 N AUSTIN BLVD",,"OAK PARK","IL","60302","1122811","Sweetened Beverage Home Rule","422 N AUSTIN BLVD
OAK PARK, IL 60302
(41.888523, -87.774883)"
"EXPAND INTERNATIONAL INC.",,"2046 W. LAKE ST.",,"CHICAGO","IL","60612","1121855","Sweetened Beverage Home Rule","2046 W. LAKE ST.
CHICAGO, IL 60612
(41.884939, -87.677913)"
"EXPRESS FOOD AND CIGARETTES IN",,"6747 W CERMAK RD",,"BERWYN","IL","60402","1123116","Sweetened Beverage Home Rule","6747 W CERMAK RD
BERWYN, IL 60402
(41.850565, -87.79308)"
"EXPRESS FOOD AND MARKET ON 87T",,"1800 E 87TH ST",,"CHICAGO","IL","60617","1122390","Sweetened Beverage Home Rule","1800 E 87TH ST
CHICAGO, IL 60617
(41.736989, -87.580217)"
"EXPRESS FOOD MARKET INC",,"6914 S WESTERN",,"CHICAGO","IL","60636","1123117","Sweetened Beverage Home Rule","6914 S WESTERN
CHICAGO, IL 60636
(41.767862, -87.683431)"
"EXPRESS FOOD MART INC","EXPRESS FOOD MART  ","7026 W 16TH ST",,"BERWYN","IL","60402","1122998","Sweetened Beverage Home Rule","7026 W 16TH ST
BERWYN, IL 60402
(41.857788, -87.799997)"
"EXPRESS FUEL INC","CITGO FUEL AND MINI MART ","300 W GARFIELD BLVD",,"CHICAGO","IL","60609","1121798","Sweetened Beverage Home Rule","300 W GARFIELD BLVD
CHICAGO, IL 60609
(41.794522, -87.633546)"
"EXPRESS GAS INC",,"2138 183RD ST",,"HOMEWOOD","IL","60430","1122695","Sweetened Beverage Home Rule","2138 183RD ST
HOMEWOOD, IL 60430
(41.557295, -87.66903)"
"EXPRESS VENDING SERVICE INC.",,"505 HORIZON DRIVE",,"BARTLETT","IL","60103","1120966","Sweetened Beverage Home Rule","505 HORIZON DRIVE
BARTLETT, IL 60103
(42.007639, -88.211471)"
"EXPRESS WHOLESALE GROVERS INC",,"7729 S STATE",,"CHICAGO","IL","60619","1121639","Sweetened Beverage Home Rule","7729 S STATE
CHICAGO, IL 60619
(41.753534, -87.62465)"
"EXTRA GAS INC",,"101 MADISON ST",,"MAYWOOD","IL","60153","1122317","Sweetened Beverage Home Rule","101 MADISON ST
MAYWOOD, IL 60153
(41.879046, -87.834318)"
"F2B","SAVE GAS","1301 W 127TH ST",,"CALUMET PARK","IL","60827","1123757","Sweetened Beverage Home Rule","1301 W 127TH ST
CALUMET PARK, IL 60827
(41.663049, -87.653848)"
"FAATIMA LLC",,"1530 W 111TH AVE",,"CHICAGO","IL","60643","1123417","Sweetened Beverage Home Rule","1530 W 111TH AVE
CHICAGO, IL 60643
(41.69212, -87.661461)"
"FACCI LLC","McDONALDS ","8611 S HARLEM AVE",,"BRIDGEVIEW","IL","60455","1121264","Sweetened Beverage Home Rule","8611 S HARLEM AVE
BRIDGEVIEW, IL 60455
(41.735065, -87.799186)"
"FAIRPLAY INC","FAIRPLAY FOODS ","4640 S HALSTED",,"CHICAGO","IL","60609","1121413","Sweetened Beverage Home Rule","4640 S HALSTED
CHICAGO, IL 60609
(41.809106, -87.645593)"
"FAIR SHARE FINE FOODS INCORPOR",,"6226 WEST ROOSEVELT RD",,"OAK PARK","IL","60304","1121706","Sweetened Beverage Home Rule","6226 WEST ROOSEVELT RD
OAK PARK, IL 60304"
"FAIRWAY FINER FOODS",,"200E 144TH ST",,"DOLTON","IL","60415","1121636","Sweetened Beverage Home Rule","200E 144TH ST
DOLTON, IL 60415"
"FAJAR ENTERPRISES","BURNHAM GASMART ","14559 S TORRENCE AVE",,"BURNHAM","IL","60633","1121651","Sweetened Beverage Home Rule","14559 S TORRENCE AVE
BURNHAM, IL 60633
(41.63027, -87.559157)"
"FAKKAR FOOD INC","EDDYS FOODS MART ","3661 W OGDEN AVE",,"CHICAGO","IL","60623","1122782","Sweetened Beverage Home Rule","3661 W OGDEN AVE
CHICAGO, IL 60623
(41.85361, -87.717153)"
"FALCON ON ROOSEVELT INC",,"201 W ROOSEVELT RD",,"MAYWOOD","IL","60153","1123389","Sweetened Beverage Home Rule","201 W ROOSEVELT RD
MAYWOOD, IL 60153
(41.864479, -87.835512)"
"FAMILIA FOODS 1 INC",,"2158 N HAMLIN",,"CHICAGO","IL","60647","1124211","Sweetened Beverage Home Rule","2158 N HAMLIN
CHICAGO, IL 60647
(41.920759, -87.721779)"
"FAMILIA FRESH MARKET NO. 1 INC",,"3308 S. OAK PARK AVE.",,"BERWYN","IL","60402","1122726","Sweetened Beverage Home Rule","3308 S. OAK PARK AVE.
BERWYN, IL 60402
(41.831948, -87.79278)"
"FAMILY DOLLAR INC.",,"500 VOLVO PARKWAY",,"CHESAPEAKE","VA","23320","1122170","Sweetened Beverage Home Rule","500 VOLVO PARKWAY
CHESAPEAKE, VA 23320
(36.767525, -76.24092)"
"FAMILY FOODS INC",,"2301 S HOMAN AVE",,"CHICAGO","IL","60623","1122948","Sweetened Beverage Home Rule","2301 S HOMAN AVE
CHICAGO, IL 60623
(41.84978, -87.710064)"
"FAMILY FUEL AND MART INC",,"5901 S MORGAN ST",,"CHICAGO","IL","60621","1122952","Sweetened Beverage Home Rule","5901 S MORGAN ST
CHICAGO, IL 60621
(41.786708, -87.64984)"
"FAMILY PRODUCE AND FOOD SERVIC",,"10929 FRANKLIN AVE",,"FRANKLIN PARK","IL","60131","1123656","Sweetened Beverage Home Rule","10929 FRANKLIN AVE
FRANKLIN PARK, IL 60131
(41.942161, -87.896864)"
"FARE FOODS CORP",,"208 CHERRY LAKE RD",,"DU QUOIN","IL","62832","1124607","Sweetened Beverage Home Rule","208 CHERRY LAKE RD
DU QUOIN, IL 62832
(38.031134, -89.238204)"
"FARES CORPORATION","F AND S DELI GROCERY ","1618 N CALIFORNIA",,"CHICAGO","IL","60647","1122427","Sweetened Beverage Home Rule","1618 N CALIFORNIA
CHICAGO, IL 60647
(41.910981, -87.696984)"
"FARID KHATER","VINCENNES FOOD","400 W 79TH ST",,"CHICAGO","IL","60620","1122861","Sweetened Beverage Home Rule","400 W 79TH ST
CHICAGO, IL 60620
(41.750775, -87.634411)"
"FARIS INC","GEORGES LIQUOR ","1438 W 95TH ST",,"CHICAGO","IL","60643","1122698","Sweetened Beverage Home Rule","1438 W 95TH ST
CHICAGO, IL 60643
(41.721301, -87.659346)"
"FARMER BEST MARKET","FARMERS BEST MARKET","23 W. NORTH AVE.",,"NORTHLAKE","IL","60646","1121857","Sweetened Beverage Home Rule","23 W. NORTH AVE.
NORTHLAKE, IL 60646
(41.907032, -87.904482)"
"FARMERS BEST MARKET",,"23 WEST NORTH AVENUE",,"NORTHLAKE","IL","60646","1121890","Sweetened Beverage Home Rule","23 WEST NORTH AVENUE
NORTHLAKE, IL 60646
(41.907032, -87.904482)"
"FARMERS PRIDE PRODUCE AND MARK",,"2110 N MILWAUKEE AVE",,"CHICAGO","IL","60647","1122950","Sweetened Beverage Home Rule","2110 N MILWAUKEE AVE
CHICAGO, IL 60647
(41.919669, -87.69201)"
"FARMERS PRIDE PRODUCE INC",,"756 N WESTERN AVE",,"CHICAGO","IL","60612","1124315","Sweetened Beverage Home Rule","756 N WESTERN AVE
CHICAGO, IL 60612
(41.895339, -87.686932)"
"FASTBREAK INC","FASTBREAK BEVERAGES ","651 ACADEMY DR",,"NORTHBROOK","IL","60062","1121372","Sweetened Beverage Home Rule","651 ACADEMY DR
NORTHBROOK, IL 60062
(42.14092, -87.856758)"
"FAT BOYS MART INC","FAT BOYS MART","2501 W 63RD ST",,"CHICAGO","IL","60629","1123055","Sweetened Beverage Home Rule","2501 W 63RD ST
CHICAGO, IL 60629
(41.779225, -87.686254)"
"FATHER AND SON FOOD MART INC",,"5700 S DAMEN AVE",,"CHICAGO","IL","60636","1123396","Sweetened Beverage Home Rule","5700 S DAMEN AVE
CHICAGO, IL 60636
(41.790073, -87.674205)"
"FCL INC","RAND AND RIVER BP ","1530 RAND RD",,"DES PLAINES","IL","60016","1122797","Sweetened Beverage Home Rule","1530 RAND RD
DES PLAINES, IL 60016
(42.047912, -87.88628)"
"FCM 3019","FIRST CHOICE MARKET","3019 E 91ST ST",,"CHICAGO","IL","60617","1122866","Sweetened Beverage Home Rule","3019 E 91ST ST
CHICAGO, IL 60617
(41.73008, -87.550363)"
"FEDS FOOD AND LIQUOR INC",,"10329 S CENTRAL AVENUE",,"OAK LAWN","IL","60453","1123431","Sweetened Beverage Home Rule","10329 S CENTRAL AVENUE
OAK LAWN, IL 60453"
"FELCO VENDING INC",,"172 EASY ST",,"CAROL STREAM","IL","60188","1123211","Sweetened Beverage Home Rule","172 EASY ST
CAROL STREAM, IL 60188
(41.896559, -88.116375)"
"FERAS FOOD AND LIQUOR INC",,"4265 W CERMAK ROAD",,"CHICAGO","IL","60623","1123249","Sweetened Beverage Home Rule","4265 W CERMAK ROAD
CHICAGO, IL 60623
(41.851369, -87.732058)"
"FERDINAND FOOD MART INC",,"4956 W FERDINAND ST",,"CHICAGO","IL","60644","1122393","Sweetened Beverage Home Rule","4956 W FERDINAND ST
CHICAGO, IL 60644
(41.889519, -87.750215)"
"FESS TRADING INC","DOLLAR PLUS VARIETY ","5156 W FULLERTON",,"CHICAGO","IL","60639","1124326","Sweetened Beverage Home Rule","5156 W FULLERTON
CHICAGO, IL 60639
(41.92417, -87.755898)"
"FEYROUS PASTRIES",,"4510 N KEDZIE",,"CHICAGO","IL","60625","1122933","Sweetened Beverage Home Rule","4510 N KEDZIE
CHICAGO, IL 60625
(41.963205, -87.708317)"
"FIESTA SUPERMERCADO INC","RIO VALLEY MARKET 2","3307 W 63RD STREET",,"CHICAGO","IL","60629","1123690","Sweetened Beverage Home Rule","3307 W 63RD STREET
CHICAGO, IL 60629
(41.778911, -87.707291)"
"FIFY CORPORATION","AMOCO GAS STATION ","3101 S MICHIGAN AVE",,"CHICAGO","IL","60616","1124367","Sweetened Beverage Home Rule","3101 S MICHIGAN AVE
CHICAGO, IL 60616
(41.838198, -87.623446)"
"FILBERTS DISTRIBUTING AND BOTT","BOTTLER OF SODA/DISTRIBUTOR/SODA","3430 ASHLAND",,"CHICAGO","IL","60608","1120970","Sweetened Beverage Home Rule","3430 ASHLAND
CHICAGO, IL 60608"
"FINANCIAL AID 4 SUCCESS LLC",,"4850 S. LAKE PARK",,"CHICAGO","IL","60615","1124872","Sweetened Beverage Home Rule","4850 S. LAKE PARK
CHICAGO, IL 60615
(41.807482, -87.590275)"
"FINE FAIR FOODS AND LIQUOR INC",,"3357-59 W 16TH ST",,"CHICAGO","IL","60623","1122047","Sweetened Beverage Home Rule","3357-59 W 16TH ST
CHICAGO, IL 60623
(41.859035, -87.709563)"
"FINEST FOOD BASKET INC",,"6100 MARTIN LUTHER KING DR",,"CHICAGO","IL","60637","1123767","Sweetened Beverage Home Rule","6100 MARTIN LUTHER KING DR
CHICAGO, IL 60637"
"FIRST CHOICE LLC/ CANDY, NUT & BEVERAGE DIST",,"3612 LAGRANGE PKWY",,"TOANO","VA","23168","1124483","Sweetened Beverage Home Rule","3612 LAGRANGE PKWY
TOANO, VA 23168
(37.410474, -76.803724)"
"FIRST STOP FOOD MART INC",,"4425 N SHERIDAN AVENUE",,"CHICAGO","IL","60640","1122110","Sweetened Beverage Home Rule","4425 N SHERIDAN AVENUE
CHICAGO, IL 60640
(41.962501, -87.654738)"
"FIVE APPLES INC","K FOOD AND LIQUOR ","1156 W 63RD ST",,"CHICAGO","IL","60621","1122352","Sweetened Beverage Home Rule","1156 W 63RD ST
CHICAGO, IL 60621
(41.779624, -87.654122)"
"FIVE ONE FOOD MART INC","FIVE ONE FOOD MART ","51 E 51ST STREET",,"CHICAGO","IL","60615","1123146","Sweetened Beverage Home Rule","51 E 51ST STREET
CHICAGO, IL 60615
(41.80202, -87.623473)"
"FLASH FOOD MART INC",,"3424 W OHIO ST",,"CHICAGO","IL","60624","1122038","Sweetened Beverage Home Rule","3424 W OHIO ST
CHICAGO, IL 60624
(41.89184, -87.712183)"
"FLEX FOOD AND LIQUOR INC",,"5756 W CHICAGO AVE",,"CHICAGO","IL","60651","1122710","Sweetened Beverage Home Rule","5756 W CHICAGO AVE
CHICAGO, IL 60651
(41.894805, -87.769745)"
"FLORIDA FOOD AND LIQUOR","FLORIDA FOOD AND LIQUOR ","4201 W AUGUSTA BLVD",,"CHICAGO","IL","60651","1124088","Sweetened Beverage Home Rule","4201 W AUGUSTA BLVD
CHICAGO, IL 60651
(41.89896, -87.731153)"
"FLORIDA FRUIT JUICES INC.",,"7001 W. 62ND STREET",,"CHICAGO","IL","60638","1120954","Sweetened Beverage Home Rule","7001 W. 62ND STREET
CHICAGO, IL 60638
(41.777945, -87.797043)"
"FLOSSMOR BP INC",," 3950 VOLLMER RD",,"CHICAGO","IL","60422","1123147","Sweetened Beverage Home Rule","3950 VOLLMER RD
CHICAGO, IL 60422
(41.528003, -87.712613)"
"F. M. A. GAS STATION INC",,"15857 HALSTED ST",,"HARVEY","IL","60426","1122392","Sweetened Beverage Home Rule","15857 HALSTED ST
HARVEY, IL 60426
(41.601236, -87.636372)"
"FMH JJ INC","JJ PEPPERS FOOD AND LIQUOR INC ","7101 S KEDZIE",,"CHICAGO","IL","60627","1121808","Sweetened Beverage Home Rule","7101 S KEDZIE
CHICAGO, IL 60627
(41.763986, -87.702815)"
"FONZIES INC.","SILVANA","7030 N. CLARK ST",,"CHICAGO","IL","60626","1120938","Sweetened Beverage Home Rule","7030 N. CLARK ST
CHICAGO, IL 60626
(42.010025, -87.674207)"
"FOOD AND PAPER SUPPLY CO",,"7247 S SOUTH CHICAGO AVE",,"CHICAGO","IL","60619","1122190","Sweetened Beverage Home Rule","7247 S SOUTH CHICAGO AVE
CHICAGO, IL 60619
(41.76327, -87.601903)"
"FOOD MARKET SANTA FE INC","FOOD MARKET SANTA FE","5001 W ADDISON",,"CHICAGO","IL","60641","1123816","Sweetened Beverage Home Rule","5001 W ADDISON
CHICAGO, IL 60641
(41.946081, -87.752241)"
"FOOD STATION INC",,"1421 E SIBLEY BLVD",,"DOLTON","IL","60419","1123911","Sweetened Beverage Home Rule","1421 E SIBLEY BLVD
DOLTON, IL 60419
(41.622651, -87.582356)"
"FOREST PARK FINER FOODS","EDS WAY FOOD MART ","946 BELOIT",,"FOREST PARK","IL","60130","1121648","Sweetened Beverage Home Rule","946 BELOIT
FOREST PARK, IL 60130
(41.868672, -87.811643)"
"FORTE PACKAGING AND SUPPLIES L",,"4532 S KOLIN AVE",,"CHICAGO","IL","60632","1122062","Sweetened Beverage Home Rule","4532 S KOLIN AVE
CHICAGO, IL 60632
(41.808993, -87.732374)"
"FOSTER 3164 CORPORATION","McDONALDS ","3164 W FOSTER AVE",,"CHICAGO","IL","60625","1121277","Sweetened Beverage Home Rule","3164 W FOSTER AVE
CHICAGO, IL 60625
(41.975744, -87.708366)"
"FOSTER PANTRY INC",,"5139 N DAMEN AVE",,"CHICAGO","IL","60625","1123267","Sweetened Beverage Home Rule","5139 N DAMEN AVE
CHICAGO, IL 60625
(41.975825, -87.679406)"
"FOUR A S FOOD INC.",,"603 S. SACRAMENTO",,"CHICAGO","IL","60612","1122128","Sweetened Beverage Home Rule","603 S. SACRAMENTO
CHICAGO, IL 60612
(41.873554, -87.701017)"
"FOUR BROTHER FOOD AND LIQUOR",,"1709-11 W 79TH",,"CHICAGO","IL","60620","1122192","Sweetened Beverage Home Rule","1709-11 W 79TH
CHICAGO, IL 60620
(41.750311, -87.66619)"
"FOUR PARTNERS PETROLEUM INC","GO LO FUEL MARKET ","8605 S HALSTED",,"CHICAGO","IL","60620","1123155","Sweetened Beverage Home Rule","8605 S HALSTED
CHICAGO, IL 60620
(41.737833, -87.643666)"
"FOUR SEASON CITGO INC",,"11500 S HALSTED ST",,"CHICAGO","IL","60628","1122985","Sweetened Beverage Home Rule","11500 S HALSTED ST
CHICAGO, IL 60628
(41.684937, -87.642221)"
"FOX RIVER FOODS INC.",,"5030 BASELINE RD.",,"MONTGOMERY","IL","60538","1120864","Sweetened Beverage Home Rule","5030 BASELINE RD.
MONTGOMERY, IL 60538
(41.722929, -88.359522)"
"FOX VENDING INC.",,"9717 S. 76TH AVE",,"BRIDGEVIEW","IL","60455","1120953","Sweetened Beverage Home Rule","9717 S. 76TH AVE
BRIDGEVIEW, IL 60455
(41.715106, -87.808527)"
"FRANCESCAS CAF INC","FRANCESCA'S CAFÉ ","852 N DAMEN AVE",,"CHICAGO","IL","60622","1121804","Sweetened Beverage Home Rule","852 N DAMEN AVE
CHICAGO, IL 60622
(41.897176, -87.677137)"
"FRANKLIN PARK MANAGEMENT INC","FRANKLIN PARK MANAGEMENT ","9500 GRAND AVE",,"FRANKLIN PARK","IL","60131","1124305","Sweetened Beverage Home Rule","9500 GRAND AVE
FRANKLIN PARK, IL 60131
(41.929562, -87.8631)"
"FRANKLIN SUPER FOOD AND LIQUOR",,"501 N KEDZIE AVE",,"CHICAGO","IL","60612","1122995","Sweetened Beverage Home Rule","501 N KEDZIE AVE
CHICAGO, IL 60612
(41.890376, -87.70642)"
"FRANKS DELI AND GROCERY INC",,"1841 W 87TH ST",,"CHICAGO","IL","60620","1124081","Sweetened Beverage Home Rule","1841 W 87TH ST
CHICAGO, IL 60620
(41.735651, -87.669409)"
"FREEDOM FUEL AND FOOD INC",,"8950-58 S ASHLAND",,"CHICAGO","IL","60620","1121887","Sweetened Beverage Home Rule","8950-58 S ASHLAND
CHICAGO, IL 60620
(41.730626, -87.662992)"
"FRESCA MANAGEMENT CORP",,"939 E IRVING PARK ROAD",,"STREAMWOOD","IL","60107","1121629","Sweetened Beverage Home Rule","939 E IRVING PARK ROAD
STREAMWOOD, IL 60107
(42.009233, -88.16079)"
"FRESH BUY FOOD INC",,"6319 S VERNON",,"CHICAGO","IL","60637","1121898","Sweetened Beverage Home Rule","6319 S VERNON
CHICAGO, IL 60637
(41.779709, -87.614421)"
"FRESH CATCH FISH AND SEAFOOD I",,"1347 W 87TH STREET",,"CHICAGO","IL","60620","1122083","Sweetened Beverage Home Rule","1347 W 87TH STREET
CHICAGO, IL 60620
(41.735819, -87.65731)"
"FRESHCO MARKET LLC","CERMAK PRODUCE #3","4800 W DIVERSEY AVE",,"CHICAGO","IL","60639","1122942","Sweetened Beverage Home Rule","4800 W DIVERSEY AVE
CHICAGO, IL 60639
(41.931566, -87.746668)"
"FRESH FOOD 200 WEST LLC",,"1332 N HALSTED ST",,"CHICAGO","IL","60642","1122532","Sweetened Beverage Home Rule","1332 N HALSTED ST
CHICAGO, IL 60642
(41.90579, -87.648129)"
"FRESH FOOD 350 NORTH LLC",,"350 N LASALLE DRIVE",,"CHICAGO","IL","60654","1122533","Sweetened Beverage Home Rule","350 N LASALLE DRIVE
CHICAGO, IL 60654
(41.888747, -87.632614)"
"FRESH K MART INC",,"4115 W. ROOSEVELT RD",,"CHICAGO","IL","60624","1124481","Sweetened Beverage Home Rule","4115 W. ROOSEVELT RD
CHICAGO, IL 60624
(41.866137, -87.728313)"
"FRESHLINE DAIRY DIST. INC","FRESHLINE DAIRY DIST. INC","401 SAN CARLOS RD",,"MINOOKA","IL","60447","1120856","Sweetened Beverage Home Rule","401 SAN CARLOS RD
MINOOKA, IL 60447
(41.44046, -88.239622)"
"FRESHLINE FOODS INC","FRESHLINE FOODS","5355 W 95TH ST",,"OAK LAWN","IL","60453","1123982","Sweetened Beverage Home Rule","5355 W 95TH ST
OAK LAWN, IL 60453
(41.719776, -87.755171)"
"FRESH MARKET IDEAS INC","MORSE FRESH MARKET ","1430 W MORSE AVE",,"CHICAGO","IL","60626","1122166","Sweetened Beverage Home Rule","1430 W MORSE AVE
CHICAGO, IL 60626
(42.007928, -87.667272)"
"FRESH MARKET PLACE 3 INC","FRESH MARKET PLACE ","5020 W FULLERTON AVE",,"CHICAGO","IL","60639","1122077","Sweetened Beverage Home Rule","5020 W FULLERTON AVE
CHICAGO, IL 60639
(41.924229, -87.75198)"
"FRESH MART FOOD INC",,"400 E 83RD STREET",,"CHICAGO","IL","60619","1122365","Sweetened Beverage Home Rule","400 E 83RD STREET
CHICAGO, IL 60619
(41.743814, -87.614681)"
"FRESH & PURE DISTRIBUTORR INC",,"435 E. NORTH AVE",,"STREAMWOOD","IL","60107","1124933","Sweetened Beverage Home Rule","435 E. NORTH AVE
STREAMWOOD, IL 60107
(41.995072, -88.168627)"
"FRESHWAY FOODS","FRESHWAY FOODS ","2600 EAST 87TH ST",,"CHICAGO","IL","60617","1121837","Sweetened Beverage Home Rule","2600 EAST 87TH ST
CHICAGO, IL 60617
(41.737246, -87.561068)"
"FRIENDLY FOOD MARKET INC",,"7122 S VINCENNES UNIT G",,"CHICAGO","IL","60621","1123750","Sweetened Beverage Home Rule","7122 S VINCENNES UNIT G
CHICAGO, IL 60621
(41.76452, -87.628427)"
"FRIENDS FUEL INC","CITGO FUEL AND MINI MART ","8200 S KEDZIE AVE",,"CHICAGO","IL","60652","1121800","Sweetened Beverage Home Rule","8200 S KEDZIE AVE
CHICAGO, IL 60652
(41.744094, -87.702248)"
"FRIENDS MINI MART INC","FRIENDS MINI MART ","6343 W 26TH ST",,"BERWYN","IL","60402","1122413","Sweetened Beverage Home Rule","6343 W 26TH ST
BERWYN, IL 60402
(41.843403, -87.783029)"
"FRIENDS PETROLEUM INC","HALSTED BP","3047 S HALSTED",,"CHICAGO","IL","60608","1121813","Sweetened Beverage Home Rule","3047 S HALSTED
CHICAGO, IL 60608
(41.838574, -87.646289)"
"FRONTLINE BUSINESS ENTERPRISES",,"401 E 87TH ST",,"CHICAGO","IL","60619","1123985","Sweetened Beverage Home Rule","401 E 87TH ST
CHICAGO, IL 60619
(41.736506, -87.614341)"
"FRUTERIA EL EDEN INC",,"2000 VERMONT ST",,"BLUE ISLAND","IL","60406","1123576","Sweetened Beverage Home Rule","2000 VERMONT ST
BLUE ISLAND, IL 60406
(41.655612, -87.670444)"
"FRUTERIA EL MERCADO OF CHICAGO",,"2759 S SPAULDING AVE",,"CHICAGO","IL","60623","1123282","Sweetened Beverage Home Rule","2759 S SPAULDING AVE
CHICAGO, IL 60623
(41.84097, -87.707351)"
"FRUTERIA SAN JOSE INC","FRUTERIA SAN JOSE","1748 W CHICAGO",,"CHICAGO","IL","60622","1123617","Sweetened Beverage Home Rule","1748 W CHICAGO
CHICAGO, IL 60622"
"FRUTERIA Y CARNICERIA VIGILS I",,"1905 S CENTRAL AVE",,"CICERO","IL","60804","1123221","Sweetened Beverage Home Rule","1905 S CENTRAL AVE
CICERO, IL 60804
(41.85387, -87.763963)"
"FULLERTON KILDOURN REAL ESTATE","KP OIL MART INC","4444 W FULLERTON AVE",,"CHICAGO","IL","60639","1122880","Sweetened Beverage Home Rule","4444 W FULLERTON AVE
CHICAGO, IL 60639
(41.924396, -87.738679)"
"FULLER TRIANGLE INC","FULLER CITGO ","13501 S KEDZIE AVE",,"ROBBINS","IL","60472","1121638","Sweetened Beverage Home Rule","13501 S KEDZIE AVE
ROBBINS, IL 60472
(41.647336, -87.699062)"
"GABA INC","GAS STATION","1000 W LAKE ST",,"MELROSE PARK","IL","60160","1123820","Sweetened Beverage Home Rule","1000 W LAKE ST
MELROSE PARK, IL 60160
(41.891141, -87.845867)"
"GALAXY FOOD AND CELLULAR INC",,"2706 E 75TH ST",,"CHICAGO","IL","60649","1122394","Sweetened Beverage Home Rule","2706 E 75TH ST
CHICAGO, IL 60649
(41.759925, -87.558503)"
"GALLERY FOOD EXPRESS INC",,"10701 S WENTWORTH AVE",,"CHICAGO","IL","60628","1122846","Sweetened Beverage Home Rule","10701 S WENTWORTH AVE
CHICAGO, IL 60628
(41.699672, -87.628093)"
"GAMBINOS FRESH MARKET I INC","GAMBINOS FRESH MARKET","7411 W GRANBD AVE",,"ELMWOOD PARK","IL","60707","1121672","Sweetened Beverage Home Rule","7411 W GRANBD AVE
ELMWOOD PARK, IL 60707
(41.924826, -87.811259)"
"GAMBINOS FRESH MARKET LLC","GAMBINOS FRESH MARKET II","3720 ROSE ST",,"SCHILLER PARK","IL","60176","1121673","Sweetened Beverage Home Rule","3720 ROSE ST
SCHILLER PARK, IL 60176
(41.947343, -87.866107)"
"G AND N FOOD AND LIQUOR",,"5575 W VAN BUREN",,"CHICAGO","IL","60644","1122111","Sweetened Beverage Home Rule","5575 W VAN BUREN
CHICAGO, IL 60644
(41.874728, -87.763903)"
"G AND S FOOD MART INC",,"6600 S HALSTED",,"CHICAGO","IL","60621","1124229","Sweetened Beverage Home Rule","6600 S HALSTED
CHICAGO, IL 60621
(41.774299, -87.644656)"
"GARDEN FRESH FRUIT MARKET INC","GARDEN FRESH MARKET ","770 S BUFFALO GROVE RD",,"BUFFALO GROVE","IL","60089","1121312","Sweetened Beverage Home Rule","770 S BUFFALO GROVE RD
BUFFALO GROVE, IL 60089
(42.14053, -87.958629)"
"GARFIELD GAS INC","FALCON FUEL ","43 N HOMAN AVE",,"CHICAGO","IL","60624","1122048","Sweetened Beverage Home Rule","43 N HOMAN AVE
CHICAGO, IL 60624
(41.8822, -87.71107)"
"GARFIELD MOBIL INC","SUPER SAVE","48 E GARFIELD BLVD",,"CHICAGO","IL","60615","1121878","Sweetened Beverage Home Rule","48 E GARFIELD BLVD
CHICAGO, IL 60615
(41.794693, -87.624345)"
"GARVEYS OFFICE PRODUCTS",,"7500 N CALDWELL AVE",,"NILES","IL","60714","1120944","Sweetened Beverage Home Rule","7500 N CALDWELL AVE
NILES, IL 60714
(42.016789, -87.791123)"
"GAS BARREL INC./FUEL STOP",,"6347 ROOSEVELT RD",,"BERWYN","IL","60402","1124441","Sweetened Beverage Home Rule","6347 ROOSEVELT RD
BERWYN, IL 60402
(41.865337, -87.7837)"
"GATES PA INC","GIBSON CITGO ","15221 SOUTH HALSTED ST",,"CHICAGO","IL","60426","1123008","Sweetened Beverage Home Rule","15221 SOUTH HALSTED ST
CHICAGO, IL 60426"
"GENERAL NUTRITION CORPORATION","GNC ","300 SIXTH AVENUE",,"PITTSBURGH","PA","15222","1121703","Sweetened Beverage Home Rule","300 SIXTH AVENUE
PITTSBURGH, PA 15222
(40.441973, -79.999399)"
"GEO GASMART INC","MOBILE MART ","1950 S MANNHEIM RD",,"WESTCHESTER","IL","60154","1121649","Sweetened Beverage Home Rule","1950 S MANNHEIM RD
WESTCHESTER, IL 60154
(41.850793, -87.881858)"
"GET FRESH PRODUCE",,"1441 BREWSTER CREEK BLVD",,"BARTLETT","IL","60103","1122320","Sweetened Beverage Home Rule","1441 BREWSTER CREEK BLVD
BARTLETT, IL 60103"
"GFUNK KEDZIE CORPORATION","McDONALDS 56","3241 W PETERSON",,"CHICAGO","IL","60659","1121323","Sweetened Beverage Home Rule","3241 W PETERSON
CHICAGO, IL 60659
(41.990308, -87.710741)"
"GHAGVINI ENTERPRISE INC","DISCOUNT LIQUORS","3 E CAMP MCDONALD RD",,"PROSPECT HEIGHTS","IL","60070","1122458","Sweetened Beverage Home Rule","3 E CAMP MCDONALD RD
PROSPECT HEIGHTS, IL 60070
(42.095283, -87.936113)"
"GHOTRA GAGAN INC","GOLO ","10655 S HALSTED STREET",,"CHICAGO","IL","60628","1122134","Sweetened Beverage Home Rule","10655 S HALSTED STREET
CHICAGO, IL 60628
(41.700013, -87.642569)"
"GHOTRA GAGAN INC",,"10655 S HALSTED",,"CHICAGO","IL","60628","1123256","Sweetened Beverage Home Rule","10655 S HALSTED
CHICAGO, IL 60628
(41.700013, -87.642569)"
"GIANNY CORPORATION","McDONALDS 14173","1563 N WELLS STREET",,"CHICAGO","IL","60610","1121327","Sweetened Beverage Home Rule","1563 N WELLS STREET
CHICAGO, IL 60610
(41.910319, -87.634683)"
"GIANT EAGLE CORPORATION","FOOD STOP","3734 W LAWRENCE AVE",,"CHICAGO","IL","60625","1123264","Sweetened Beverage Home Rule","3734 W LAWRENCE AVE
CHICAGO, IL 60625
(41.968325, -87.722123)"
"GIGGS BAJWA CORPORATION",,"15945 HAVEN AVENUE",,"ORLAND HILLS","IL","60487","1124226","Sweetened Beverage Home Rule","15945 HAVEN AVENUE
ORLAND HILLS, IL 60487
(41.600358, -87.837583)"
"GINOOB INC","AMSTAR","5035-51 W DIVISION",,"CHICAGO","IL","60651","1123344","Sweetened Beverage Home Rule","5035-51 W DIVISION
CHICAGO, IL 60651
(41.902306, -87.752522)"
"GITA GAS AND FOOD MART INC","MINUTE MAN ","1546 S LOMBARD AVE",,"BERWYN","IL","60402","1122927","Sweetened Beverage Home Rule","1546 S LOMBARD AVE
BERWYN, IL 60402
(41.858162, -87.778807)"
"GJFUNK WABASH CORPORATION","McDONALDS ","119 N WABASH AVENUE",,"CHICAGO","IL","60602","1121322","Sweetened Beverage Home Rule","119 N WABASH AVENUE
CHICAGO, IL 60602
(41.883687, -87.626262)"
"GLENMILL PETROLEUM INC","GLENVIEW BP","825 MILWAUKEE RD",,"GLENVIEW","IL","60025","1122195","Sweetened Beverage Home Rule","825 MILWAUKEE RD
GLENVIEW, IL 60025
(42.070871, -87.853781)"
"GLOBAL IMPORTS AND INVESTMENTS","HAPPY DOLLAR","3625 W 26TH ST",,"CHICAGO","IL","60623","1123427","Sweetened Beverage Home Rule","3625 W 26TH ST
CHICAGO, IL 60623
(41.844382, -87.715698)"
"GMB PARTNERS LLC","HALF ACRE BEER COMPANY","4257 N. LINCOLN AVE",,"CHICAGO","IL","60618","1121427","Sweetened Beverage Home Rule","4257 N. LINCOLN AVE
CHICAGO, IL 60618
(41.959013, -87.682129)"
"GM WAREHOUSE INC",,"3925 W 43RD ST",,"CHICAGO","IL","60632","1123044","Sweetened Beverage Home Rule","3925 W 43RD ST
CHICAGO, IL 60632
(41.815243, -87.720997)"
"GNS FOODD INC","GNS  FOOD & LIQUORS ","4092 N BROADWAY",,"CHICAGO","IL","60613","1124327","Sweetened Beverage Home Rule","4092 N BROADWAY
CHICAGO, IL 60613
(41.956673, -87.651853)"
"GOGO FOOD MARKET INC","GOGO FOOD MARKET","1800 S PULASKI ROAD",,"CHICAGO","IL","60623","1123110","Sweetened Beverage Home Rule","1800 S PULASKI ROAD
CHICAGO, IL 60623
(41.856873, -87.724879)"
"GOLDEN COUNTRY ORIENTAL FOOD L",,"2355 S BLUE ISLAND AVENUE",,"CHICAGO","IL","60609","1121614","Sweetened Beverage Home Rule","2355 S BLUE ISLAND AVENUE
CHICAGO, IL 60609
(41.849452, -87.673391)"
"GOLDEN EAGLE DISTRIBUTORS LLC","GOLDEN EAGLE DISTRIBUTORS ","2101 WEST 21ST STREET",,"BROADVIEW","IL","60155","1120935","Sweetened Beverage Home Rule","2101 WEST 21ST STREET
BROADVIEW, IL 60155
(41.851123, -87.858232)"
"GOLDEN FORTUNE IMPORT AND EXPO",,"55 HOOK RD FRNT BLDG",,"BAYONNE","NJ","07002","1124097","Sweetened Beverage Home Rule","55 HOOK RD FRNT BLDG
BAYONNE, NJ 07002
(40.652134, -74.096311)"
"GOLDEN STATE FOODS CORP.",,"18301 VON KARMAN AVE. STE.1100",,"IRVINE","CA","92612","1120960","Sweetened Beverage Home Rule","18301 VON KARMAN AVE. STE.1100
IRVINE, CA 92612
(33.676576, -117.853223)"
"GOLD STANDARD ENTERPRISES INC","BINNYS BEVERAGE DEPOT ","8935 N MILWAUKEE AVE",,"NILES","IL","60714","1121364","Sweetened Beverage Home Rule","8935 N MILWAUKEE AVE
NILES, IL 60714
(42.043607, -87.82929)"
"GOLDY FAST FOOD INC",,"3701 W 16TH ST",,"CHICAGO","IL","60623","1123033","Sweetened Beverage Home Rule","3701 W 16TH ST
CHICAGO, IL 60623
(41.858967, -87.71766)"
"GOOD GAS MART INC",,"14144 S PULASKI RD",,"CRESTWOOD","IL","60445","1123784","Sweetened Beverage Home Rule","14144 S PULASKI RD
CRESTWOOD, IL 60445
(41.634887, -87.718174)"
"GORDON FOOD SERVICE INC","GORDON FOOD SERVICE ","10901 38TH STREET",,"KENOSHA","WI","53144","1120950","Sweetened Beverage Home Rule","10901 38TH STREET
KENOSHA, WI 53144
(42.604197, -87.942924)"
"GORMAN AND GORMAN ENT INC","7-ELEVEN ","398 S SCHMIDT RD",,"BOLINGBROOK","IL","60440","1124074","Sweetened Beverage Home Rule","398 S SCHMIDT RD
BOLINGBROOK, IL 60440
(41.691184, -88.087329)"
"GOURMET INTERNATIONAL INC",,"5253 PATTERSON AVE SE",,"GRAND RAPIDS","MI","49512","1121841","Sweetened Beverage Home Rule","5253 PATTERSON AVE SE
GRAND RAPIDS, MI 49512
(42.866987, -85.546348)"
"GOYA FOODS INC",,"530 COUNTY RD",,"JERSEY CITY","NJ","07307","1120931","Sweetened Beverage Home Rule","530 COUNTY RD
JERSEY CITY, NJ 07307"
"GRACE FUEL INC","LIL CORNER STROE","301 N DIVISION ST",,"HARVARD","IL","60033","1123174","Sweetened Beverage Home Rule","301 N DIVISION ST
HARVARD, IL 60033
(42.419809, -88.613438)"
"GRANADA DISTRIBUTOR",,"3117 S 49TH AVE",,"CICERO","IL","60804","1124100","Sweetened Beverage Home Rule","3117 S 49TH AVE
CICERO, IL 60804
(41.835866, -87.74703)"
"GRAND 73 CORPORATION","McDONALDS ","7217 WEST GRAND AVENUE",,"ELMWOOD PARK","IL","60707","1121279","Sweetened Beverage Home Rule","7217 WEST GRAND AVENUE
ELMWOOD PARK, IL 60707
(41.924181, -87.807147)"
"GRAND AVENUE STATION LLC","MOBIL MART ","3601 W GRAND AVE",,"CHICAGO","IL","60651","1121817","Sweetened Beverage Home Rule","3601 W GRAND AVE
CHICAGO, IL 60651
(41.902441, -87.716977)"
"GRAND FOOD AND LIQUOR INC",,"5128 W GRAND AVE",,"CHICAGO","IL","60639","1122061","Sweetened Beverage Home Rule","5128 W GRAND AVE
CHICAGO, IL 60639
(41.916868, -87.754419)"
"GRAND FOOD MARKET INC","GRAND FOOD MARKET","5202 W GRAND AVENUE",,"CHICAGO","IL","60639","1123594","Sweetened Beverage Home Rule","5202 W GRAND AVENUE
CHICAGO, IL 60639
(41.917063, -87.756577)"
"GRAND GOLF LLC","FRESH FARMS INTERANTIONAL MARKET ","8203 W GOLF ROAD",,"NILES","IL","60714","1122158","Sweetened Beverage Home Rule","8203 W GOLF ROAD
NILES, IL 60714
(42.054668, -87.83128)"
"GRAND LIQUOR MART INC","PK PANTRY","22 W CONTI PARKWAY",,"ELMWOOD PARK","IL","60707","1123785","Sweetened Beverage Home Rule","22 W CONTI PARKWAY
ELMWOOD PARK, IL 60707
(41.927502, -87.818336)"
"GRAND PALACE SUPERMARKET INC",,"7131 S STATE STREET",,"CHICAGO","IL","60619","1122146","Sweetened Beverage Home Rule","7131 S STATE STREET
CHICAGO, IL 60619
(41.764547, -87.624953)"
"GRAND PRIX TRADING CORP.",,"6153 W. MULFORD ST, UNIT B",,"NILES ","IL","60714","1124512","Sweetened Beverage Home Rule","6153 W. MULFORD ST, UNIT B
NILES, IL 60714
(42.022838, -87.78124)"
"GRANTE FOODS INTERNATIONAL LLC",,"780 ARTHUR AVE",,"ELK GROVE VILLAGE","IL","60007","1124811","Sweetened Beverage Home Rule","780 ARTHUR AVE
ELK GROVE VILLAGE, IL 60007
(41.994916, -87.975462)"
"GRANT IMPORTING AND DISTRIBUTI","GRANT IMPORTING AND DISTRIBUTING ","2701 W 23RD STREET",,"BROADVIEW","IL","60155","1121363","Sweetened Beverage Home Rule","2701 W 23RD STREET
BROADVIEW, IL 60155"
"GRANVILLE FOOD MART","GRANVILLE FOOD MART ","1108 W GRANVILLE AVE",,"CHICAGO","IL","60660","1124242","Sweetened Beverage Home Rule","1108 W GRANVILLE AVE
CHICAGO, IL 60660
(41.99459, -87.657787)"
"GREAT LAKE COCA-COLA DISTRIBUTIONS LLC",,"6520 N RIVER RD",,"ROSEMONT","IL","60018","1120832","Sweetened Beverage Home Rule","6520 N RIVER RD
ROSEMONT, IL 60018"
"GREEN APPLE MINI MART INC",,"1435 N SEDGWICK ST",,"CHICAGO","IL","60610","1123407","Sweetened Beverage Home Rule","1435 N SEDGWICK ST
CHICAGO, IL 60610
(41.908581, -87.638516)"
"GREEN FOOD AND LIQUOR INC",,"1026 E 67TH ST",,"CHICAGO","IL","60637","1122996","Sweetened Beverage Home Rule","1026 E 67TH ST
CHICAGO, IL 60637
(41.773185, -87.600041)"
"GREEN LINE FOOD MART INC",,"7701 S RACINE AVE",,"CHICAGO","IL","60620","1123776","Sweetened Beverage Home Rule","7701 S RACINE AVE
CHICAGO, IL 60620
(41.753906, -87.653836)"
"GREG RAN CORPORATION","McDONALDS ","14445 S LAGRANGE RD",,"ORLAND PARK","IL","60462","1121417","Sweetened Beverage Home Rule","14445 S LAGRANGE RD
ORLAND PARK, IL 60462
(41.626821, -87.853728)"
"GREG SMITH DISTRIBUTORS INC",,"237 N. WARWICK AVE",,"WESTMONT","IL","60559","1124487","Sweetened Beverage Home Rule","237 N. WARWICK AVE
WESTMONT, IL 60559
(41.801336, -87.972741)"
"GROCERIES FLORES","GROCERIES FLORES ","5200 S CALIFORNIA AVE",,"CHICAGO","IL","60632","1123661","Sweetened Beverage Home Rule","5200 S CALIFORNIA AVE
CHICAGO, IL 60632
(41.798926, -87.69394)"
"GROVE FOOD MART INC",,"9101 S COTTAGE GROVE",,"CHICAGO","IL","60619","1123205","Sweetened Beverage Home Rule","9101 S COTTAGE GROVE
CHICAGO, IL 60619
(41.72935, -87.604571)"
"GROVE LIQUOR INC",,"6656 S. COTTAGE GROVE",,"CHICAGO","IL","60637","1124730","Sweetened Beverage Home Rule","6656 S. COTTAGE GROVE
CHICAGO, IL 60637
(41.773306, -87.605788)"
"GSI HOLDCO LLC","GRECO and SONS","1550 HECHT DR",,"BARTLETT","IL","60103","1120969","Sweetened Beverage Home Rule","1550 HECHT DR
BARTLETT, IL 60103
(41.984472, -88.23266)"
"GTS GAS INC",,"1620 E LINCOLN HWY",,"FORD HEIGHTS","IL","60411","1123269","Sweetened Beverage Home Rule","1620 E LINCOLN HWY
FORD HEIGHTS, IL 60411
(41.506181, -87.583696)"
"GULF OIL OF 63RD INC",,"2800 W 63RD ST",,"CHICAGO","IL","60629","1122147","Sweetened Beverage Home Rule","2800 W 63RD ST
CHICAGO, IL 60629
(41.779123, -87.693672)"
"GUPTA FOOD INC","MARKET IN THE PARK ","5050 S LAKE SHORE DRIVE",,"CHICAGO","IL","60615","1122023","Sweetened Beverage Home Rule","5050 S LAKE SHORE DRIVE
CHICAGO, IL 60615
(41.803302, -87.58369)"
"GURNAM MARATHON INC","MOBIL  ","2500 W PETERSON AVE",,"CHICAGO","IL","60659","1122085","Sweetened Beverage Home Rule","2500 W PETERSON AVE
CHICAGO, IL 60659
(41.99052, -87.6924)"
"GURPEET CORP/BJ FOOD & LIQUORS",,"1311 E. LINCOLN HWY",,"FORD HEIGHTS","IL","60411","1124802","Sweetened Beverage Home Rule","1311 E. LINCOLN HWY
FORD HEIGHTS, IL 60411
(41.506267, -87.588297)"
"GURPEET LLC/CHICAGO HEIGHTS FOOD & LIQUOR",,"1300 EMERALD AVE",,"CHICAGO HEIGHTS","IL","60411","1124801","Sweetened Beverage Home Rule","1300 EMERALD AVE
CHICAGO HEIGHTS, IL 60411
(41.506685, -87.634308)"
"GURU ANGAD MART",,"8506-8514 S ASHLAND AVE",,"CHICAGO","IL","60620","1122353","Sweetened Beverage Home Rule","8506-8514 S ASHLAND AVE
CHICAGO, IL 60620
(41.739068, -87.663245)"
"GUZMAN BROTHERS CORPORATION",,"1745 N ALGONQUIN RD",,"MT PROSPECT","IL","60056","1122894","Sweetened Beverage Home Rule","1745 N ALGONQUIN RD
MT PROSPECT, IL 60056
(42.036464, -87.962704)"
"GUZMAN GROCERY INC",,"1900 S LEAVITT",,"CHICAGO","IL","60608","1123646","Sweetened Beverage Home Rule","1900 S LEAVITT
CHICAGO, IL 60608
(41.85571, -87.680817)"
"GWP MICHIGAN LLC",,"410 N MICHIGAN",,"CHICAGO","IL","60611","1122536","Sweetened Beverage Home Rule","410 N MICHIGAN
CHICAGO, IL 60611
(41.889435, -87.624283)"
"GWP PALMER LLC",,"17 E MONROE",,"CHICAGO","IL","60603","1122537","Sweetened Beverage Home Rule","17 E MONROE
CHICAGO, IL 60603
(41.880766, -87.627105)"
"GWP RANDOLPH LLC",,"200 W RANDOPLH LLC",,"CHICAGO","IL","60606","1122534","Sweetened Beverage Home Rule","200 W RANDOPLH LLC
CHICAGO, IL 60606"
"GWP STATE LLC",,"151 N STATE STREET",,"CHICAGO","IL","60601","1122535","Sweetened Beverage Home Rule","151 N STATE STREET
CHICAGO, IL 60601
(41.884793, -87.627831)"
"HAITAI INC.",,"6131 MONROE CT",,"MORTON GROVE","IL","60053","1124609","Sweetened Beverage Home Rule","6131 MONROE CT
MORTON GROVE, IL 60053
(42.030843, -87.778403)"
"HAJER MINI MART INC",,"5133 W NORTH AVE",,"CHICAGO","IL","60639","1121701","Sweetened Beverage Home Rule","5133 W NORTH AVE
CHICAGO, IL 60639
(41.909474, -87.755467)"
"HALA GAS AND MINI MART INC",,"11600 S MICHIGAN AVE",,"CHICAGO","IL","60628","1123655","Sweetened Beverage Home Rule","11600 S MICHIGAN AVE
CHICAGO, IL 60628
(41.68188, -87.62065)"
"HALA INC","M & R FOODS","11334 S MICHIGAN AVE",,"CHICAGO","IL","60628","1123758","Sweetened Beverage Home Rule","11334 S MICHIGAN AVE
CHICAGO, IL 60628
(41.687884, -87.621006)"
"HALEEM BROTHERS INC","CITGO FUEL AND MINI MART INC","8256 S PULASKI ROAD",,"CHICAGO","IL","60652","1122109","Sweetened Beverage Home Rule","8256 S PULASKI ROAD
CHICAGO, IL 60652
(41.742516, -87.721773)"
"HALSTED C STORE INC",,"8255 S HALSTED ST",,"CHICAGO","IL","60620","1122720","Sweetened Beverage Home Rule","8255 S HALSTED ST
CHICAGO, IL 60620
(41.743686, -87.643858)"
"HALSTED FUEL MART INC","SUPER SAVE","9811 S HALSTED STREET",,"CHICAGO","IL","60628","1122108","Sweetened Beverage Home Rule","9811 S HALSTED STREET
CHICAGO, IL 60628
(41.715326, -87.642969)"
"HALSTED GROCERIES INC",,"7059 S HALSTED",,"CHICAGO","IL","60621","1121904","Sweetened Beverage Home Rule","7059 S HALSTED
CHICAGO, IL 60621
(41.765355, -87.644425)"
"HALSTED SULU CITGO INC","CITGO","810 W 59TH ST",,"CHICAGO","IL","60621","1123930","Sweetened Beverage Home Rule","810 W 59TH ST
CHICAGO, IL 60621
(41.787057, -87.645287)"
"HAMDAS FOOD & MEAT MARKET INC","HARLEM FOODS","9250 S HARLEM AVE",,"BRIDGEVIEW","IL","60455","1123184","Sweetened Beverage Home Rule","9250 S HARLEM AVE
BRIDGEVIEW, IL 60455
(41.722683, -87.799014)"
"HAMED S MATARIEH","OAKLEY FOOD ","3300 S OAKLEY AVE",,"CHICAGO","IL","60608","1124207","Sweetened Beverage Home Rule","3300 S OAKLEY AVE
CHICAGO, IL 60608
(41.83384, -87.682674)"
"HAMENA INC",,"1534 W HOWARD AVE",,"CHICAGO","IL","60626","1122067","Sweetened Beverage Home Rule","1534 W HOWARD AVE
CHICAGO, IL 60626
(42.019388, -87.669646)"
"HAMLIN CITGO INC",,"3759 W CHICAGO AVENUE",,"CHICAGO","IL","60651","1121872","Sweetened Beverage Home Rule","3759 W CHICAGO AVENUE
CHICAGO, IL 60651
(41.895454, -87.720692)"
"H AND B MARKET INC",,"4005 W 135TH STREET",,"ROBBINS","IL","60472","1122822","Sweetened Beverage Home Rule","4005 W 135TH STREET
ROBBINS, IL 60472
(41.647422, -87.719992)"
"H AND H GAS INC",,"1209 S 1ST AVE",,"MAYWOOD","IL","60153","1122318","Sweetened Beverage Home Rule","1209 S 1ST AVE
MAYWOOD, IL 60153
(41.87696, -87.8339)"
"HANMI INCORPORATION",,"5447 N WOLCOTT AVE",,"CHICAGO","IL","60640","1124244","Sweetened Beverage Home Rule","5447 N WOLCOTT AVE
CHICAGO, IL 60640
(41.981157, -87.676559)"
"HANOVER GAS MART INC",,"2370 W LAKE ST",,"HANOVER PARK","IL","60133","1124319","Sweetened Beverage Home Rule","2370 W LAKE ST
HANOVER PARK, IL 60133
(41.993217, -88.16225)"
"HAPPY FOODS INC.","HAPPY FOODS","6415 N. CENTRAL AVE.",,"CHICAGO","IL","60646","1121854","Sweetened Beverage Home Rule","6415 N. CENTRAL AVE.
CHICAGO, IL 60646
(41.998178, -87.763494)"
"HARGOBIND INC",,"100 CHICAGO AVE",,"OAK PARK","IL","60302","1123412","Sweetened Beverage Home Rule","100 CHICAGO AVE
OAK PARK, IL 60302
(41.894678, -87.778579)"
"HARRISON STREET INC",,"4751 W HARRISON ST",,"CHICAGO","IL","60644","1122396","Sweetened Beverage Home Rule","4751 W HARRISON ST
CHICAGO, IL 60644
(41.873164, -87.744717)"
"HARVEL CORPORATION","COFFEE UNLIMITED ","1408 S CLINTON",,"CHICAGO","IL","60607","1121416","Sweetened Beverage Home Rule","1408 S CLINTON
CHICAGO, IL 60607
(41.863724, -87.640589)"
"HARVEST FOODS INC",,"8534 BLUE RIDGE AVE",,"HICKORY HILLS","IL","60457","1124460","Sweetened Beverage Home Rule","8534 BLUE RIDGE AVE
HICKORY HILLS, IL 60457
(41.735235, -87.843583)"
"HARVEST TIME FOODS","HARVEST TIME FOODS ","2632 W LAWERENCE AVE",,"CHICAGO","IL","60625","1122802","Sweetened Beverage Home Rule","2632 W LAWERENCE AVE
CHICAGO, IL 60625
(41.968593, -87.695248)"
"HARVEY BP INC",,"288 W 147TH ST",,"HARVEY","IL","60426","1123414","Sweetened Beverage Home Rule","288 W 147TH ST
HARVEY, IL 60426
(41.622636, -87.673276)"
"HARVEY GAS AND MINI MART INC",,"14700 WOOD ST",,"HARVEY","IL","60426","1122397","Sweetened Beverage Home Rule","14700 WOOD ST
HARVEY, IL 60426
(41.62229, -87.660839)"
"HASSAN GROCERY","GROCERY TOBACCO/ BEVERAGE SALES","3234 S RACINE",,"CHICAGO","IL","60608","1123817","Sweetened Beverage Home Rule","3234 S RACINE
CHICAGO, IL 60608
(41.835066, -87.655927)"
"HATEEB INC","MOBILE GAS ","5701 W FULLERTON",,"CHICAGO","IL","60639","1122987","Sweetened Beverage Home Rule","5701 W FULLERTON
CHICAGO, IL 60639
(41.923907, -87.768506)"
"HAZEL CREST GAS AND FOOD INC",,"17500 S KEDZIE",,"HAZEL CREST","IL","60429","1122805","Sweetened Beverage Home Rule","17500 S KEDZIE
HAZEL CREST, IL 60429"
"HEALTHY NATIONAL CONCESSION SE",,"12331 S LATROBE ST",,"ALSIP","IL","60803","1123811","Sweetened Beverage Home Rule","12331 S LATROBE ST
ALSIP, IL 60803
(41.667518, -87.75135)"
"HEBAS FINER FOODS",,"1924 E 87TH STREET",,"CHICAGO","IL","60617","1122130","Sweetened Beverage Home Rule","1924 E 87TH STREET
CHICAGO, IL 60617
(41.73703, -87.577118)"
"HECTOR PRODUCE CORP",,"3733 S. 52ND CT",,"CICERO","IL","60804","1124748","Sweetened Beverage Home Rule","3733 S. 52ND CT
CICERO, IL 60804
(41.824312, -87.754534)"
"HEGEWISCH FRUIT MARKET","ERICS FOOD CENTER","13209 S BALTIMORE AVENUE",,"CHICAGO","IL","60633","1123709","Sweetened Beverage Home Rule","13209 S BALTIMORE AVENUE
CHICAGO, IL 60633
(41.655367, -87.54715)"
"HEINENS INC","HEINENS GROCERY STORE","1020 WAUKEGAN ROAD",,"GLENVIEW","IL","60025","1123630","Sweetened Beverage Home Rule","1020 WAUKEGAN ROAD
GLENVIEW, IL 60025
(42.073543, -87.79891)"
"HERBALIFE INTERNATIONAL OF AME","HERBALIFE INTERNATIONAL OF AMERICA INC.","950 W 190TH STREET",,"TORRANCE","CA","90502","1122040","Sweetened Beverage Home Rule","950 W 190TH STREET
TORRANCE, CA 90502
(33.858355, -118.291976)"
"HERITAGE WINE CELLARS LTD","HERITAGE WINE CELLARS LTD ","6600 W HOWARD ST",,"NILES","IL","60714","1123399","Sweetened Beverage Home Rule","6600 W HOWARD ST
NILES, IL 60714
(42.019202, -87.791894)"
"HERNANDEZ DISTRIBUTORS INC",,"5632 W. 120TH ST",,"ALSIP ","IL","60803","833368","Sweetened Beverage Home Rule","5632 W. 120TH ST
ALSIP, IL 60803
(41.675189, -87.759708)"
"HIDALGO MEAT MARKET INC",,"2801 W BROADWAY",,"BLUE ISLAND","IL","60647","1123642","Sweetened Beverage Home Rule","2801 W BROADWAY
BLUE ISLAND, IL 60647
(41.932853, -87.644892)"
"HIGHLAND PARK CVS LLC","CVS PHARMACY ","3200 FLOSSMOOR RD",,"FLOSSMOOR","IL","60422","1121770","Sweetened Beverage Home Rule","3200 FLOSSMOOR RD
FLOSSMOOR, IL 60422
(41.54259, -87.694023)"
"HIGH SPLASH INC","DAMEN CITGO","6300 S DAMENAVE",,"CHICAGO","IL","60636","1123047","Sweetened Beverage Home Rule","6300 S DAMENAVE
CHICAGO, IL 60636
(41.778958, -87.673906)"
"HILLSIDE FOOD & GAS INC.",,"4804 BUTTERFIELD RD",,"HILLSIDE","IL","60162","1124458","Sweetened Beverage Home Rule","4804 BUTTERFIELD RD
HILLSIDE, IL 60162
(41.877546, -87.903018)"
"HJMP","HOME JUICE","1930 NORTH GEORGE STREET",,"MELROSE PARK","IL","60160","1123901","Sweetened Beverage Home Rule","1930 NORTH GEORGE STREET
MELROSE PARK, IL 60160
(41.908652, -87.849697)"
"H MART GLENVIEW LLC",,"3385 NORTH MILWAUKEE AVENUE",,"GLENVIEW","IL","60025","1123365","Sweetened Beverage Home Rule","3385 NORTH MILWAUKEE AVENUE
GLENVIEW, IL 60025"
"H MART MIDWEST CORP",,"801 CIVIC CENTER DRIVE",,"NILES","IL","60714","1123366","Sweetened Beverage Home Rule","801 CIVIC CENTER DRIVE
NILES, IL 60714
(42.024685, -87.801496)"
"H & M GROUP #1 INC",,"12659 S ASHALAND AVE",,"CALUMET PARK","IL","60827","1122395","Sweetened Beverage Home Rule","12659 S ASHALAND AVE
CALUMET PARK, IL 60827
(41.663293, -87.660862)"
"HOA NAM CO INC",,"1101-1103 W ARGYLE ST",,"CHICAGO","IL","60640","1123979","Sweetened Beverage Home Rule","1101-1103 W ARGYLE ST
CHICAGO, IL 60640
(41.973258, -87.657834)"
"HOLLYWOOD FOOD MARKET INC",,"606 E 79TH ST",,"CHICAGO","IL","60619","1122872","Sweetened Beverage Home Rule","606 E 79TH ST
CHICAGO, IL 60619
(41.751209, -87.609793)"
"HOMAN FOOD AND DELI INC",,"3359 W CHICAGO AVENUE",,"CHICAGO","IL","60651","1123245","Sweetened Beverage Home Rule","3359 W CHICAGO AVENUE
CHICAGO, IL 60651
(41.895535, -87.711228)"
"HOME JUICE DISTRIBUTOR",,"1241 BRANDYWINE RD",,"CROWN POINT","IN","46307","1122464","Sweetened Beverage Home Rule","1241 BRANDYWINE RD
CROWN POINT, IN 46307
(41.416931, -87.208659)"
"H ONE MIDWEST INCORPORATED",,"550 BARCLAY BOULEVARD",,"LINCONSHIRE","IL","60069","1123364","Sweetened Beverage Home Rule","550 BARCLAY BOULEVARD
LINCONSHIRE, IL 60069
(42.18667, -87.935874)"
" HORIZON ENTERPRISES INC",,"4  95TH ST",,"CHICAGO","IL","60619","1123356","Sweetened Beverage Home Rule","4 95TH ST
CHICAGO, IL 60619
(41.72177, -87.623496)"
"HORIZON ENTERPRISES INC",,"4 E 95TH STREET",,"CHICAGO","IL","60619","1123886","Sweetened Beverage Home Rule","4 E 95TH STREET
CHICAGO, IL 60619
(41.72177, -87.623496)"
"HOSODA BROS INC",,"1444 TENNESSEE STREET",,"SAN FRANSISCO","CA","94107","1124601","Sweetened Beverage Home Rule","1444 TENNESSEE STREET
SAN FRANSISCO, CA 94107
(37.753565, -122.388842)"
"HOUSE OF SLOTS",,"6823 STANLEY AVE",,"BERWYN","IL","60402","1124075","Sweetened Beverage Home Rule","6823 STANLEY AVE
BERWYN, IL 60402
(41.833391, -87.794078)"
"HSR INC","PHILLIP 66","2000 N HARLEM AVE",,"ELMWOOD PARK","IL","60707","1124069","Sweetened Beverage Home Rule","2000 N HARLEM AVE
ELMWOOD PARK, IL 60707
(41.916334, -87.805988)"
"HUCKSTER INC",,"20929 W. LAKEVIEW PKWY",,"MUNDELEIN","IL","60060","1114574","Sweetened Beverage Home Rule","20929 W. LAKEVIEW PKWY
MUNDELEIN, IL 60060
(42.257001, -88.04158)"
"HUERTA TAQUERIA RESTURANTS CO","HUERTA TAQUERIA ","6509 S KEDIZE",,"CHICAGO","IL","60629","1124217","Sweetened Beverage Home Rule","6509 S KEDIZE
CHICAGO, IL 60629"
"HUNGARIAN KOSHER FOODS INC",,"4020 OAKTON ST",,"SKOKIE","IL","60076","1124058","Sweetened Beverage Home Rule","4020 OAKTON ST
SKOKIE, IL 60076
(42.026235, -87.730146)"
"HYDE PARK CORP",,"123 E 51ST ST",,"CHICAGO","IL","60615","1122796","Sweetened Beverage Home Rule","123 E 51ST ST
CHICAGO, IL 60615
(41.802052, -87.621691)"
"I 57 FUEL MART INC","I 57 GULF ","9901 S HALSTED ST",,"CHICAGO","IL","60628","1122325","Sweetened Beverage Home Rule","9901 S HALSTED ST
CHICAGO, IL 60628
(41.714071, -87.64294)"
"I AND I BISHARAT INC.","MANNY'S FOOD AND LIQUOR","947 MANNHEIM RD",,"BELLWOOD","IL","60104","1124368","Sweetened Beverage Home Rule","947 MANNHEIM RD
BELLWOOD, IL 60104
(41.874484, -87.88297)"
"IBERIA FOODS COMPANY OF THE MI","IBERIA FOODS","9900 FRANKLIN AVE",,"FRANKLIN PARK","IL","60131","1120840","Sweetened Beverage Home Rule","9900 FRANKLIN AVE
FRANKLIN PARK, IL 60131
(41.938283, -87.875532)"
"IBNN INC","ARMITAGE FOOD ","3635 W ARMITAGE AVE",,"CHICAGO","IL","60647","1124208","Sweetened Beverage Home Rule","3635 W ARMITAGE AVE
CHICAGO, IL 60647
(41.917285, -87.718146)"
"IGVALA GROCERY",,"2700 W FRANCIS PL",,"CHICAGO","IL","60647","1124056","Sweetened Beverage Home Rule","2700 W FRANCIS PL
CHICAGO, IL 60647
(41.919263, -87.694332)"
"IKEA US WEST INC",,"1800 EAST McCONNER PARKWAY",,"SCHAUMBURG","IL","60173","1121782","Sweetened Beverage Home Rule","1800 EAST McCONNER PARKWAY
SCHAUMBURG, IL 60173"
"IKES LIQUORS INC","IKES LIQUORS ","10535 SOUTHWEST HWY",,"WORTH","IL","60482","1122718","Sweetened Beverage Home Rule","10535 SOUTHWEST HWY
WORTH, IL 60482
(41.700336, -87.793857)"
"IKES LIQUORS ST FOOD AND LIQUO","IKES STATE ST FOOD AND LIQUORS ","5701 S STATE ST",,"CHICAGO","IL","60621","1122719","Sweetened Beverage Home Rule","5701 S STATE ST
CHICAGO, IL 60621
(41.790774, -87.625525)"
"IL PESCATORE INC ITALIAN FISHE","PESCATORE PALACE ","3400 N RIVER ROAD",,"FRANKLIN PARK","IL","60131","1122683","Sweetened Beverage Home Rule","3400 N RIVER ROAD
FRANKLIN PARK, IL 60131
(41.940306, -87.852738)"
"IMPERIAL LUBES & SUPPLY LLC",,"812 GREENLEAF AVE",,"ELK GROVE VILLAGE","IL","60007","1120947","Sweetened Beverage Home Rule","812 GREENLEAF AVE
ELK GROVE VILLAGE, IL 60007
(42.003806, -87.975498)"
"IMPERIAL VENDING INC",,"600 WAUKEGAN ROAD",,"NORTHBROOK","IL","60062","1124565","Sweetened Beverage Home Rule","600 WAUKEGAN ROAD
NORTHBROOK, IL 60062
(42.14562, -87.834465)"
"IMPERIO AZTECA RESTAURANT SUPP",,"4433 S SPRINGFIELD AVE",,"CHICAGO","IL","60632","1123198","Sweetened Beverage Home Rule","4433 S SPRINGFIELD AVE
CHICAGO, IL 60632
(41.812124, -87.721283)"
"INDEPENDENCE FUEL AND MINI MAR","BP FUEL AND MINI MART ","3801-3815 W ROOSEVELT RD",,"CHICAGO","IL","60624","1122356","Sweetened Beverage Home Rule","3801-3815 W ROOSEVELT RD
CHICAGO, IL 60624
(41.86625, -87.720106)"
"INFANT JESUS OIL CORPORATION","HAZEL CREST BP","17460 KEDZIE AVE",,"HAZEL CREST","IL","60429","1122459","Sweetened Beverage Home Rule","17460 KEDZIE AVE
HAZEL CREST, IL 60429
(41.572101, -87.694454)"
"INFINITE BUENA VIDA LLC","HALE FAMILY MCDONALDS","600 E 115TH ST",,"CHICAGO","IL","60628","1123621","Sweetened Beverage Home Rule","600 E 115TH ST
CHICAGO, IL 60628
(41.685466, -87.608231)"
"INFINITE BUENA VIDA LLC","HALE FAMILY MCDONALDS","5800 HINSDALE OASIS TRISTATE",,"HINSDALE","IL","60521","1123622","Sweetened Beverage Home Rule","5800 HINSDALE OASIS TRISTATE
HINSDALE, IL 60521"
"INFINITE BUENA VIDA LLC","HALE FAMILY MCDONALDS","2425 E 79TH ST",,"CHICAGO","IL","60649","1123620","Sweetened Beverage Home Rule","2425 E 79TH ST
CHICAGO, IL 60649
(41.751743, -87.565356)"
"INGLESIDE FOOD MARKET",,"5117 S INGLESIDE",,"CHICAGO","IL","60615","1123387","Sweetened Beverage Home Rule","5117 S INGLESIDE
CHICAGO, IL 60615
(41.802095, -87.602905)"
"INKA STATION LLC","PEYS CONVENIENCE STORE ","50 W 71 ST STREET",,"CHICAGO","IL","60621","1121771","Sweetened Beverage Home Rule","50 W 71 ST STREET
CHICAGO, IL 60621
(41.765508, -87.627651)"
"INOCENCIO ENRIQUEZ","FRUTERIA GUAYABITOS ","2901 W 38TH PL",,"CHICAGO","IL","60632","1123133","Sweetened Beverage Home Rule","2901 W 38TH PL
CHICAGO, IL 60632
(41.823665, -87.697242)"
"INTEGRITY DISTRIBUTION SYSTEMS",,"8017 NEWBOLD RD",,"CARY","IL","60013","1120895","Sweetened Beverage Home Rule","8017 NEWBOLD RD
CARY, IL 60013
(42.212648, -88.209135)"
"INTERNATIONAL EXPORTS CHICAGO","SAFEHOUSE CHICAGO","60 E. ONTARIO STREET",,"CHICAGO","IL","60611","1120854","Sweetened Beverage Home Rule","60 E. ONTARIO STREET
CHICAGO, IL 60611
(41.893327, -87.626189)"
"INTERNATIONAL EXPORTS CHICAGO","SAFEHOUSE CHICAGO","60 E ONTARIO STREET",,"CHICAGO","IL","60611","1121788","Sweetened Beverage Home Rule","60 E ONTARIO STREET
CHICAGO, IL 60611
(41.893327, -87.626189)"
"INTERNATIONAL FOOD AND LIQUOR","INTERNATIONAL FOOD AND LIQUOR","14033 S TORRENCE AVENUE",,"BURNHAM","IL","60633","1123732","Sweetened Beverage Home Rule","14033 S TORRENCE AVENUE
BURNHAM, IL 60633
(41.639693, -87.559294)"
"INTERNATIONAL FOODS N W INC","INTERNATIONAL FOODS","4404 WEST FULLERTON AVENUE",,"CHICAGO","IL","60639","1121902","Sweetened Beverage Home Rule","4404 WEST FULLERTON AVENUE
CHICAGO, IL 60639
(41.924425, -87.737127)"
"IOS PRIMOS GROCERY",,"3249 W. MONTROSE",,"CHICAGO","IL","60618","1124471","Sweetened Beverage Home Rule","3249 W. MONTROSE
CHICAGO, IL 60618
(41.961182, -87.710102)"
"I.S. FOOD AND LIQUOR INC",,"1025 W 63RD ST",,"CHICAGO","IL","60621","1122794","Sweetened Beverage Home Rule","1025 W 63RD ST
CHICAGO, IL 60621
(41.779674, -87.650602)"
"ISHI KRUPA INC.","STREAMWOOD CASH N CARRY","302 GLASGOW LN.",,"SCHAUMBURG","IL","60194","1121791","Sweetened Beverage Home Rule","302 GLASGOW LN.
SCHAUMBURG, IL 60194
(42.030671, -88.143472)"
"I SUPPLY CO",,"1255 SPANGER ROAD",,"FAIRBORN","OH","45324","1124803","Sweetened Beverage Home Rule","1255 SPANGER ROAD
FAIRBORN, OH 45324
(39.83181, -83.998449)"
"JACK AND PATS INC","JACK AND PATS BUTCHER SHOP ","10717 S RIDGELAND",,"CHICAGO RIDGE","IL","60415","1122090","Sweetened Beverage Home Rule","10717 S RIDGELAND
CHICAGO RIDGE, IL 60415
(41.697206, -87.779014)"
"JACKY SHOP 4 LESS INC",,"3655 W DIVERSEY AVE",,"CHICAGO","IL","60647","1124044","Sweetened Beverage Home Rule","3655 W DIVERSEY AVE
CHICAGO, IL 60647
(41.93191, -87.719221)"
"JACMAR CORP","MCDONALDS","100 SAUK TRAIL ROAD",,"S CHICAGO HEIGHTS","IL","60411","1123607","Sweetened Beverage Home Rule","100 SAUK TRAIL ROAD
S CHICAGO HEIGHTS, IL 60411
(41.481429, -87.629702)"
"J & A GAS MART","WENTWORTH MOBILE","210 W 103RD ST",,"CHICAGO","IL","60628","1123809","Sweetened Beverage Home Rule","210 W 103RD ST
CHICAGO, IL 60628
(41.707095, -87.628767)"
"JAMAL FREIHAT","JIMMY FOOD MARKET ","4910 W ARMITAGE",,"CHICAGO","IL","60639","1124322","Sweetened Beverage Home Rule","4910 W ARMITAGE
CHICAGO, IL 60639
(41.9169, -87.75005)"
"J  AND A CONVENIENT STORE","J AND A CONVENIENT STORE ","1108 W ARGYLE AVE",,"CHICAGO","IL","60640","1124241","Sweetened Beverage Home Rule","1108 W ARGYLE AVE
CHICAGO, IL 60640
(41.973253, -87.658048)"
"J AND A GAS MART",,"210 W 103RD STREET",,"CHICAGO","IL","60628","1123702","Sweetened Beverage Home Rule","210 W 103RD STREET
CHICAGO, IL 60628
(41.707095, -87.628767)"
"J AND J FOOD AND LIQUOR","J & J FOOD ","2422 W MARQUETTE",,"CHICAGO","IL","60629","1124087","Sweetened Beverage Home Rule","2422 W MARQUETTE
CHICAGO, IL 60629
(41.771972, -87.684237)"
"J AND P FINER FOODS INC",,"3501 W MONTROSE AVE",,"CHICAGO","IL","60618","1123418","Sweetened Beverage Home Rule","3501 W MONTROSE AVE
CHICAGO, IL 60618
(41.961108, -87.715977)"
"JATAN LLC",,"300 PARK BLVD SUITE 300",,"ITASCA","IL","60143","1121405","Sweetened Beverage Home Rule","300 PARK BLVD SUITE 300
ITASCA, IL 60143
(41.991102, -88.020518)"
"JAVIN CORPORATIONS",,"3403 W. 48TH PLACE",,"CHICAGO","IL","60632","1120924","Sweetened Beverage Home Rule","3403 W. 48TH PLACE
CHICAGO, IL 60632
(41.805633, -87.708977)"
"JAWS WHOLESALE DISTRIBUTORS LL",,"2150 W 43RD STREET",,"CHICAGO","IL","60609","1123629","Sweetened Beverage Home Rule","2150 W 43RD STREET
CHICAGO, IL 60609
(41.815812, -87.678901)"
"JAY JALA RAM CORP/R & S DISCOUNT FOOD & LIQUOR",,"2425 W. DIVERSEY AVE",,"CHICAGO","IL","60647","1124815","Sweetened Beverage Home Rule","2425 W. DIVERSEY AVE
CHICAGO, IL 60647
(41.932178, -87.688776)"
"JAY MAHA INC","JAY WHOLESALE ","1428 DAVIS RD",,"ELGIN","IL","60123","1122687","Sweetened Beverage Home Rule","1428 DAVIS RD
ELGIN, IL 60123
(42.068277, -88.312829)"
"JB ENGLISH LLC",,"5671 W 120 TH STREET",,"ALSIP","IL","60803","1123394","Sweetened Beverage Home Rule","5671 W 120 TH STREET
ALSIP, IL 60803
(41.675181, -87.760231)"
"JDD INVESTMENT COMPANY","McDONDALDS 4655","300 PARK BLVD SUITE 300",,"ITASCA","IL","60143","1121406","Sweetened Beverage Home Rule","300 PARK BLVD SUITE 300
ITASCA, IL 60143
(41.991102, -88.020518)"
"JEFFERY BIG MARKET INC",,"2016 E 71ST ST",,"CHICAGO","IL","60649","1122707","Sweetened Beverage Home Rule","2016 E 71ST ST
CHICAGO, IL 60649
(41.766239, -87.575034)"
"JEM2 LLC","McDONALDS 25509","4601 W DIVERSEY",,"CHICAGO","IL","60639","1121235","Sweetened Beverage Home Rule","4601 W DIVERSEY
CHICAGO, IL 60639
(41.931612, -87.742286)"
"JEREZ INC/SUPERMERCADO EL GALLO",,"12255 S. WESTERN AVE",,"BLUE ISLAND","IL","60406","1124792","Sweetened Beverage Home Rule","12255 S. WESTERN AVE
BLUE ISLAND, IL 60406"
"JERRYS FRUIT AND GARDEN CENTER",,"7901 N MILWAUKEE AVE",,"NILES","IL","60714","1122986","Sweetened Beverage Home Rule","7901 N MILWAUKEE AVE
NILES, IL 60714
(42.02436, -87.812416)"
"JERUSALEM SUPERMARKET INC",,"1935 E 79TH ST",,"CHICAGO","IL","60649","1124325","Sweetened Beverage Home Rule","1935 E 79TH ST
CHICAGO, IL 60649
(41.751593, -87.576998)"
"JESUS VALLE",,"6323 CERMAK RD",,"BERWYN","IL","60402","1123200","Sweetened Beverage Home Rule","6323 CERMAK RD
BERWYN, IL 60402"
"JESUS VALLE",,"6603 W 26TH STREET",,"BERWYN","IL","60402","1123199","Sweetened Beverage Home Rule","6603 W 26TH STREET
BERWYN, IL 60402
(41.843331, -87.788554)"
"JET STAR FOOD MART INC",,"4858 S COTTAGE GROVE AVENUE",,"CHICAGO","IL","60615","1123694","Sweetened Beverage Home Rule","4858 S COTTAGE GROVE AVENUE
CHICAGO, IL 60615
(41.806589, -87.606492)"
"JFC INTERNATIONAL INC.",,"815 TURNBERRY COURT",,"HANOVER PARK","IL","60133","1121434","Sweetened Beverage Home Rule","815 TURNBERRY COURT
HANOVER PARK, IL 60133
(41.975642, -88.120844)"
"J FLYNN COMPANY LLC","LEAMINGTON FOODS ","550 N MANNHEIM RD",,"HILLSIDE","IL","60162","1121678","Sweetened Beverage Home Rule","550 N MANNHEIM RD
HILLSIDE, IL 60162
(41.88067, -87.883213)"
"JFUNK ADDISON CORPORATION","McDONALDS 4417","2608 W ADDISON",,"CHICAGO","IL","60618","1121326","Sweetened Beverage Home Rule","2608 W ADDISON
CHICAGO, IL 60618
(41.946727, -87.693363)"
"JGJ ENTERPRISES INC",,"5150 W CHICAGO AVENUE",,"CHICAGO","IL","60651","1121882","Sweetened Beverage Home Rule","5150 W CHICAGO AVENUE
CHICAGO, IL 60651
(41.894962, -87.754989)"
"J G ON DEVON CORPORATION","McDONALDS 16743","1831 W DEVON AVE",,"CHICAGO","IL","60660","1121325","Sweetened Beverage Home Rule","1831 W DEVON AVE
CHICAGO, IL 60660
(41.997915, -87.676555)"
"J & H FOOD & LIQUOR INC",,"5652 N. CLARK STREET",,"CHICAGO","IL","60660","1124873","Sweetened Beverage Home Rule","5652 N. CLARK STREET
CHICAGO, IL 60660
(41.984999, -87.669102)"
"J IBARRAS PRODUCE INC",,"5547 S TRUMBULL AVE",,"CHICAGO","IL","60629","1123168","Sweetened Beverage Home Rule","5547 S TRUMBULL AVE
CHICAGO, IL 60629
(41.7919, -87.709622)"
"JIMENEZ ENTERPRISES INC","CARNICERIAS JIMENEZ-WHEELING STORE ","550 W DUNDEE AVE",,"WHEELING","IL","60090","1121620","Sweetened Beverage Home Rule","550 W DUNDEE AVE
WHEELING, IL 60090
(42.139343, -87.930177)"
"JIMENEZ FRESH MARKET INC","CARNICERIAS JIMENEZ","5330 W BELMONT AVE",,"CHICAGO","IL","60647","1121618","Sweetened Beverage Home Rule","5330 W BELMONT AVE
CHICAGO, IL 60647
(41.938673, -87.760298)"
"JIMENEZ FRESH MARKET INC","CARNICERIAS JIMENEZ-MELROSE PK STORE ","717 BROADWAY",,"MELROSE PARK","IL","60160","1121619","Sweetened Beverage Home Rule","717 BROADWAY
MELROSE PARK, IL 60160
(41.893775, -87.85661)"
"JIMMYS FOOD & DELI INC",,"5601 W MADISON ST",,"CHICAGO","IL","60644","1123224","Sweetened Beverage Home Rule","5601 W MADISON ST
CHICAGO, IL 60644
(41.880196, -87.765058)"
"JIMMYS FOODS INC","JIMMYS FOODS INC","4456 S HERMITAGE AVE",,"CHICAGO","IL","60609","1123969","Sweetened Beverage Home Rule","4456 S HERMITAGE AVE
CHICAGO, IL 60609
(41.812339, -87.6687)"
"JIMS FOOD & LIQUOR INC","QUICK STOP FOOD & LIQUOR","2424 W 71ST STREET",,"CHICAGO","IL","60629","1121879","Sweetened Beverage Home Rule","2424 W 71ST STREET
CHICAGO, IL 60629
(41.764686, -87.684222)"
"JITGO INC","WORLD FRESH MARKET ","2434 W DEVON",,"CHICAGO","IL","60659","1121643","Sweetened Beverage Home Rule","2434 W DEVON
CHICAGO, IL 60659
(41.997702, -87.691231)"
"JJ FOOD MART INC",,"285 N PULASKI ROAD",,"CHICAGO","IL","60624","1123437","Sweetened Beverage Home Rule","285 N PULASKI ROAD
CHICAGO, IL 60624
(41.885321, -87.725772)"
"JJ MINI STORE",,"3343 N. PULASKI RD",,"CHICAGO","IL","60641","1124579","Sweetened Beverage Home Rule","3343 N. PULASKI RD
CHICAGO, IL 60641
(41.942203, -87.727273)"
"JMOE VENDING INC.","JMOE VENDING INC","11600 W. IRVIING PARK ROAD",,"CHICAGO","IL","60666","1120861","Sweetened Beverage Home Rule","11600 W. IRVIING PARK ROAD
CHICAGO, IL 60666
(41.952835, -87.911686)"
"JOCA GROUP LLC","McDONALDS 256364","233 W JACKSON",,"CHICAGO","IL","60606","1121242","Sweetened Beverage Home Rule","233 W JACKSON
CHICAGO, IL 60606
(41.878102, -87.634224)"
"JOE FINER FOODS INC","JOE FINER FOODS","2501 E 106TH STREET",,"CHICAGO","IL","60617","1123634","Sweetened Beverage Home Rule","2501 E 106TH STREET
CHICAGO, IL 60617
(41.702785, -87.563098)"
"JOHNNYS FOOD AND LIQUOR","JOHNNYS FOOD AND LIQUOR ","7158 S ASHLAND",,"CHICAGO","IL","60636","1122542","Sweetened Beverage Home Rule","7158 S ASHLAND
CHICAGO, IL 60636
(41.763146, -87.663836)"
"JOKAT CO. INC.","MCDONALDS #3002","5500 W CERMAK RD",,"CHICAGO","IL","60804","1121358","Sweetened Beverage Home Rule","5500 W CERMAK RD
CHICAGO, IL 60804
(41.851082, -87.761446)"
"JONATHAN PETROLEUM INC","LEE STREET BP ","1215 LEE ST",,"DES PLAINES","IL","60016","1122807","Sweetened Beverage Home Rule","1215 LEE ST
DES PLAINES, IL 60016
(42.03096, -87.894393)"
"JONKIA ENTERPRISES LLC","PART TO SHOP SUPERMARKET","2425 S WALLACE STREET",,"CHICAGO","IL","60616","1123711","Sweetened Beverage Home Rule","2425 S WALLACE STREET
CHICAGO, IL 60616
(41.848631, -87.641933)"
"JOONG BOO MARKET","CHICAGO FOOD","3333 N. KIMBALL AVE",,"CHICAGO","IL","60618","1124567","Sweetened Beverage Home Rule","3333 N. KIMBALL AVE
CHICAGO, IL 60618
(41.941755, -87.712528)"
"JORAN LTD","McDONALDS ","45 E GOLF ROAD",,"ARLINGTON HEIGHTS","IL","60656","1121270","Sweetened Beverage Home Rule","45 E GOLF ROAD
ARLINGTON HEIGHTS, IL 60656
(42.05129, -87.978798)"
"JORDAN FOOD BEER AND WINE INC","JORDAN FOOD BEER AND WINE","1258 W 127TH STREET",,"CALUMET PARK","IL","60827","1123724","Sweetened Beverage Home Rule","1258 W 127TH STREET
CALUMET PARK, IL 60827
(41.663054, -87.653413)"
"JORDAN FOOD MART INC/ONE STOP FOOD",,"1701 W. 79TH STREET",,"CHICAGO","IL","60620","1124510","Sweetened Beverage Home Rule","1701 W. 79TH STREET
CHICAGO, IL 60620
(41.750313, -87.666091)"
"JOSE LUIS LOPEZ INC","MINI MERCADO LA BETANIA ","2800 S TRIPP AVE",,"CHICAGO","IL","60623","1122819","Sweetened Beverage Home Rule","2800 S TRIPP AVE
CHICAGO, IL 60623
(41.840352, -87.730534)"
"JOSE LUIS LPOPEZ INC","MINI MERCADO LA BETANIA","2800 S TRIPP AVE",,"CHICAGO","IL","60623","1123048","Sweetened Beverage Home Rule","2800 S TRIPP AVE
CHICAGO, IL 60623
(41.840352, -87.730534)"
