"registration_account","company","tax_type","address_line_1","address_line_2","city","state","zip_code","location"
"11118701","1492 INC PREMIER CAPITOL CIGAR","TOBACCO TAX / CIGARETTE FLOOR TAX","668 N. COAST HWY, STE. 230",,"LAGUNA BEACH","CA","92651","POINT (-117.794843 33.546466)"
"11118701","1492 INC PREMIER CAPITOL CIGAR","TOBACCO TAX / WHOLESALER QUARTERLY","668 N. COAST HWY, STE. 230",,"LAGUNA BEACH","CA","92651","POINT (-117.794843 33.546466)"
"21003667","4 M OIL INC.","TOBACCO TAX / OTP FLOOR TAX","11201 W CERMAK RD",,"WESTCHESTER","IL","60154 - 5706","POINT (-87.901992 41.848089)"
"21003667","4 M OIL INC.","TOBACCO TAX / CIGARETTE FLOOR TAX","11201 W CERMAK RD",,"WESTCHESTER","IL","60154 - 5706","POINT (-87.901992 41.848089)"
"21004245","92 SMOKE & VAPE INC","TOBACCO TAX / CIGARETTE FLOOR TAX","1703 W ALGONQUIN RD",,"MOUNT PROSPECT","IL","60056 - 5401","POINT (-87.960934 42.035804)"
"21004245","92 SMOKE & VAPE INC","TOBACCO TAX / OTP FLOOR TAX","1703 W ALGONQUIN RD",,"MOUNT PROSPECT","IL","60056 - 5401","POINT (-87.960934 42.035804)"
"10852157","ALI BABA CAFE & RESTAURANT","TOBACCO TAX / WHOLESALER","4046 W. LAWRENCE AVE",,"CHICAGO","IL","60630","POINT (-87.729902 41.968248)"
"10852157","ALI BABA CAFE & RESTAURANT","TOBACCO TAX / WHOLESALER QUARTERLY","4046 W. LAWRENCE AVE",,"CHICAGO","IL","60630","POINT (-87.729902 41.968248)"
"10852157","ALI BABA CAFE & RESTAURANT","TOBACCO TAX / CIGARETTE FLOOR TAX","4046 W. LAWRENCE AVE",,"CHICAGO","IL","60630","POINT (-87.729902 41.968248)"
"11127908","AMERICAN GREEN SMOKE WHOLESALE INC.","TOBACCO TAX / WHOLESALER","75 EISENHOWER LN","S","LOMBARD","IL","60148","POINT (-88.017468 41.84042)"
"11127908","AMERICAN GREEN SMOKE WHOLESALE INC.","TOBACCO TAX / WHOLESALER QUARTERLY","75 EISENHOWER LN","S","LOMBARD","IL","60148","POINT (-88.017468 41.84042)"
"11127908","AMERICAN GREEN SMOKE WHOLESALE INC.","TOBACCO TAX / CIGARETTE FLOOR TAX","75 EISENHOWER LN","S","LOMBARD","IL","60148","POINT (-88.017468 41.84042)"
"10839153","AMERICAN SNUFF CO.","TOBACCO TAX / WHOLESALER","5106 TRADEPORT DR.",,"MEMPHIS","TN","38141","POINT (-89.857713 35.009559)"
"10839153","AMERICAN SNUFF CO.","TOBACCO TAX / CIGARETTE FLOOR TAX","5106 TRADEPORT DR.",,"MEMPHIS","TN","38141","POINT (-89.857713 35.009559)"
"10839153","AMERICAN SNUFF CO.","TOBACCO TAX / WHOLESALER QUARTERLY","5106 TRADEPORT DR.",,"MEMPHIS","TN","38141","POINT (-89.857713 35.009559)"
"10810433","ARANGO CIGAR CO.","TOBACCO TAX / CIGARETTE FLOOR TAX","3170 COMMERICAL AVE.",,"NORTHBROOK","IL","60062","POINT (-87.85875 42.146493)"
"10810433","ARANGO CIGAR CO.","TOBACCO TAX / CIGARETTE STAMPS","3170 COMMERICAL AVE.",,"NORTHBROOK","IL","60062","POINT (-87.85875 42.146493)"
"10810433","ARANGO CIGAR CO.","TOBACCO TAX / WHOLESALER","3170 COMMERICAL AVE.",,"NORTHBROOK","IL","60062","POINT (-87.85875 42.146493)"
"10810433","ARANGO CIGAR CO.","TOBACCO TAX / WHOLESALER QUARTERLY","3170 COMMERICAL AVE.",,"NORTHBROOK","IL","60062","POINT (-87.85875 42.146493)"
"11114561","Arlington Pipe and Cigar Shop","TOBACCO TAX / WHOLESALER","546 W Northwest Highway",,"Arlington Heights","IL","60004","POINT (-87.989772 42.087165)"
"11114561","Arlington Pipe and Cigar Shop","TOBACCO TAX / WHOLESALER QUARTERLY","546 W Northwest Highway",,"Arlington Heights","IL","60004","POINT (-87.989772 42.087165)"
"11114561","Arlington Pipe and Cigar Shop","TOBACCO TAX / CIGARETTE FLOOR TAX","546 W Northwest Highway",,"Arlington Heights","IL","60004","POINT (-87.989772 42.087165)"
"10804302","AROUND THE WORLD CIGARS & GIFTS","TOBACCO TAX / WHOLESALER QUARTERLY","31 1/2 S. PROSPECT AVE.",,"PARK RIDGE","IL","60068","POINT (-87.830282 42.010166)"
"10804302","AROUND THE WORLD CIGARS & GIFTS","TOBACCO TAX / CIGARETTE FLOOR TAX","31 1/2 S. PROSPECT AVE.",,"PARK RIDGE","IL","60068","POINT (-87.830282 42.010166)"
"10804302","AROUND THE WORLD CIGARS & GIFTS","TOBACCO TAX / WHOLESALER","31 1/2 S. PROSPECT AVE.",,"PARK RIDGE","IL","60068","POINT (-87.830282 42.010166)"
"10836137","AROUND THE WORLD TABACCO","TOBACCO TAX / WHOLESALER","1044 W. BELMONT AVE",,"CHICAGO","IL","60657","POINT (-87.65584 41.939912)"
"10836137","AROUND THE WORLD TABACCO","TOBACCO TAX / WHOLESALER QUARTERLY","1044 W. BELMONT AVE",,"CHICAGO","IL","60657","POINT (-87.65584 41.939912)"
"10836137","AROUND THE WORLD TABACCO","TOBACCO TAX / CIGARETTE FLOOR TAX","1044 W. BELMONT AVE",,"CHICAGO","IL","60657","POINT (-87.65584 41.939912)"
"10845308","ASSOCIATED WHOLESALE GROCERS","TOBACCO TAX / WHOLESALER","8100 60TH ST.",,"KENOSHA","WI","53144","POINT (-87.907609 42.581827)"
"10845308","ASSOCIATED WHOLESALE GROCERS","TOBACCO TAX / WHOLESALER QUARTERLY","8100 60TH ST.",,"KENOSHA","WI","53144","POINT (-87.907609 42.581827)"
"10845308","ASSOCIATED WHOLESALE GROCERS","TOBACCO TAX / CIGARETTE FLOOR TAX","8100 60TH ST.",,"KENOSHA","WI","53144","POINT (-87.907609 42.581827)"
"10845308","ASSOCIATED WHOLESALE GROCERS","TOBACCO TAX / CIGARETTE STAMPS","8100 60TH ST.",,"KENOSHA","WI","53144","POINT (-87.907609 42.581827)"
"11127999","AV WHOLESALE","TOBACCO TAX / CIGARETTE FLOOR TAX","8200 MCCORMICK BLVD",,"SKOKIE","IL","60076 - 2921","POINT (-87.711043 42.030116)"
"11127999","AV WHOLESALE","TOBACCO TAX / WHOLESALER","8200 MCCORMICK BLVD",,"SKOKIE","IL","60076 - 2921","POINT (-87.711043 42.030116)"
"11127999","AV WHOLESALE","TOBACCO TAX / WHOLESALER QUARTERLY","8200 MCCORMICK BLVD",,"SKOKIE","IL","60076 - 2921","POINT (-87.711043 42.030116)"
"21003930","BELMONT 1 LIQUORS INC","TOBACCO TAX / OTP FLOOR TAX","8801 GRAND AVE",,"RIVER GROVE","IL","60171 - 9800","POINT (-87.846449 41.929499)"
"21003930","BELMONT 1 LIQUORS INC","TOBACCO TAX / CIGARETTE FLOOR TAX","8801 GRAND AVE",,"RIVER GROVE","IL","60171 - 9800","POINT (-87.846449 41.929499)"
"11108436","BEVERLY CIGAR CO.","TOBACCO TAX / WHOLESALER","10513 S. WESTERN AVE",,"CHICAGO","IL","60643","POINT (-87.681425 41.702509)"
"11108436","BEVERLY CIGAR CO.","TOBACCO TAX / CIGARETTE FLOOR TAX","10513 S. WESTERN AVE",,"CHICAGO","IL","60643","POINT (-87.681425 41.702509)"
"11108436","BEVERLY CIGAR CO.","TOBACCO TAX / WHOLESALER QUARTERLY","10513 S. WESTERN AVE",,"CHICAGO","IL","60643","POINT (-87.681425 41.702509)"
"11114921","BIG DOG VAPES","TOBACCO TAX / CIGARETTE FLOOR TAX","1281 ELMHURST RD",,"DES PLAINES","IL","60018","POINT (-87.940489 42.028275)"
"11114921","BIG DOG VAPES","TOBACCO TAX / OTP FLOOR TAX","1281 ELMHURST RD",,"DES PLAINES","IL","60018","POINT (-87.940489 42.028275)"
"11128132","BLACK STAR LINE CIGARS","TOBACCO TAX / WHOLESALER","10207 SOUTH ARTESIAN AVE",,"CHICAGO","IL","60655","POINT (-87.682943 41.707904)"
"11128132","BLACK STAR LINE CIGARS","TOBACCO TAX / CIGARETTE FLOOR TAX","10207 SOUTH ARTESIAN AVE",,"CHICAGO","IL","60655","POINT (-87.682943 41.707904)"
"11128132","BLACK STAR LINE CIGARS","TOBACCO TAX / WHOLESALER QUARTERLY","10207 SOUTH ARTESIAN AVE",,"CHICAGO","IL","60655","POINT (-87.682943 41.707904)"
"21004143","BLUE HAVANA, INC.","TOBACCO TAX / CIGARETTE FLOOR TAX","1815 W WILSON AVE",,"CHICAGO","IL","60640 - 5203","POINT (-87.675362 41.965169)"
"21004143","BLUE HAVANA, INC.","TOBACCO TAX / WHOLESALER QUARTERLY","1815 W WILSON AVE",,"CHICAGO","IL","60640 - 5203","POINT (-87.675362 41.965169)"
"21004143","BLUE HAVANA, INC.","TOBACCO TAX / WHOLESALER","1815 W WILSON AVE",,"CHICAGO","IL","60640 - 5203","POINT (-87.675362 41.965169)"
"11127744","BUDDY'S VAPE & SMOKE","TOBACCO TAX / OTP FLOOR TAX","1122 S. SPRINGINSGUTH ROAD",,"SCHAUMBURG","IL","60193","POINT (-88.119235 42.004591)"
"11127744","BUDDY'S VAPE & SMOKE","TOBACCO TAX / CIGARETTE FLOOR TAX","1122 S. SPRINGINSGUTH ROAD",,"SCHAUMBURG","IL","60193","POINT (-88.119235 42.004591)"
"10836149","BURAD DISTRIBUTORS","TOBACCO TAX / WHOLESALER QUARTERLY","914 ESTES CT.",,"SCHAUMBURG","IL","60193","POINT (-88.102557 42.002616)"
"10836149","BURAD DISTRIBUTORS","TOBACCO TAX / CIGARETTE FLOOR TAX","914 ESTES CT.",,"SCHAUMBURG","IL","60193","POINT (-88.102557 42.002616)"
"10836149","BURAD DISTRIBUTORS","TOBACCO TAX / WHOLESALER","914 ESTES CT.",,"SCHAUMBURG","IL","60193","POINT (-88.102557 42.002616)"
"11115050","B. WINES DISTRIBUTORS INC","TOBACCO TAX / WHOLESALER QUARTERLY","28022 W. IL RTE 120",,"LAKEMOOR","IL","60051","POINT (-88.17952 42.325214)"
"11115050","B. WINES DISTRIBUTORS INC","TOBACCO TAX / CIGARETTE FLOOR TAX","28022 W. IL RTE 120",,"LAKEMOOR","IL","60051","POINT (-88.17952 42.325214)"
"11115050","B. WINES DISTRIBUTORS INC","TOBACCO TAX / WHOLESALER","28022 W. IL RTE 120",,"LAKEMOOR","IL","60051","POINT (-88.17952 42.325214)"
"11127654","CAPTAIN JACK'S BEVERAGES INC","TOBACCO TAX / OTP FLOOR TAX","7030-7054 W. 111TH STREET",,"WORTH","IL","60482 - 1827","POINT (-87.794635 41.690058)"
"11127654","CAPTAIN JACK'S BEVERAGES INC","TOBACCO TAX / WHOLESALER","7030-7054 W. 111TH STREET",,"WORTH","IL","60482 - 1827","POINT (-87.794635 41.690058)"
"11127654","CAPTAIN JACK'S BEVERAGES INC","TOBACCO TAX / CIGARETTE FLOOR TAX","7030-7054 W. 111TH STREET",,"WORTH","IL","60482 - 1827","POINT (-87.794635 41.690058)"
"11127654","CAPTAIN JACK'S BEVERAGES INC","TOBACCO TAX / WHOLESALER QUARTERLY","7030-7054 W. 111TH STREET",,"WORTH","IL","60482 - 1827","POINT (-87.794635 41.690058)"
"10839355","CASA DE MONTE CRISTO","TOBACCO TAX / WHOLESALER QUARTERLY","1332 W. 55TH STREET",,"COUNTRYSIDE","IL","60525","POINT (-87.886594 41.790096)"
"10839355","CASA DE MONTE CRISTO","TOBACCO TAX / CIGARETTE FLOOR TAX","1332 W. 55TH STREET",,"COUNTRYSIDE","IL","60525","POINT (-87.886594 41.790096)"
"10839355","CASA DE MONTE CRISTO","TOBACCO TAX / WHOLESALER","1332 W. 55TH STREET",,"COUNTRYSIDE","IL","60525","POINT (-87.886594 41.790096)"
"10836270","CASA DE PUROS LLC","TOBACCO TAX / WHOLESALER","7410 MADISON STREET",,"FOREST PARK","IL","60130","POINT (-87.810111 41.879512)"
"10836270","CASA DE PUROS LLC","TOBACCO TAX / WHOLESALER QUARTERLY","7410 MADISON STREET",,"FOREST PARK","IL","60130","POINT (-87.810111 41.879512)"
"10836270","CASA DE PUROS LLC","TOBACCO TAX / CIGARETTE FLOOR TAX","7410 MADISON STREET",,"FOREST PARK","IL","60130","POINT (-87.810111 41.879512)"
"10793149","CASEY'S MARKETING CO.","TOBACCO TAX / CIGARETTE FLOOR TAX","1 SE CONVENIENCE BLVD",,"ANKENY","IA","50021 - 9672","POINT (-93.572358 41.692984)"
"10793149","CASEY'S MARKETING CO.","TOBACCO TAX / WHOLESALER","1 SE CONVENIENCE BLVD",,"ANKENY","IA","50021 - 9672","POINT (-93.572358 41.692984)"
"10793149","CASEY'S MARKETING CO.","TOBACCO TAX / CIGARETTE STAMPS","1 SE CONVENIENCE BLVD",,"ANKENY","IA","50021","POINT (-93.572358 41.692984)"
"10793149","CASEY'S MARKETING CO.","TOBACCO TAX / WHOLESALER QUARTERLY","1 SE CONVENIENCE BLVD",,"ANKENY","IA","50021 - 9672","POINT (-93.572358 41.692984)"
"10852699","CAT SPECIALTIES INC","TOBACCO TAX / WHOLESALER QUARTERLY","115 W. BURVILLE RD",,"CRETE","IL","60417","POINT (-87.6156 41.435298)"
"10852699","CAT SPECIALTIES INC","TOBACCO TAX / CIGARETTE FLOOR TAX","115 W. BURVILLE RD",,"CRETE","IL","60417","POINT (-87.6156 41.435298)"
"10852699","CAT SPECIALTIES INC","TOBACCO TAX / WHOLESALER","115 W. BURVILLE RD",,"CRETE","IL","60417","POINT (-87.6156 41.435298)"
"11114184","CB DISTRIBUTORS INC.","TOBACCO TAX / CIGARETTE FLOOR TAX","2500 KENNEDY DR",,"BELOIT","WI","53511","POINT (-88.994423 42.514646)"
"11114184","CB DISTRIBUTORS INC.","TOBACCO TAX / WHOLESALER QUARTERLY","2500 KENNEDY DR",,"BELOIT","WI","53511","POINT (-88.994423 42.514646)"
"11114184","CB DISTRIBUTORS INC.","TOBACCO TAX / WHOLESALER","2500 KENNEDY DR",,"BELOIT","WI","53511","POINT (-88.994423 42.514646)"
"10793621","CHAMBERS & OWEN, INC.","TOBACCO TAX / CIGARETTE FLOOR TAX","1733 MORSE ST",,"JANESVILLE","WI","53545","POINT (-89.001743 42.723616)"
"10793621","CHAMBERS & OWEN, INC.","TOBACCO TAX / CIGARETTE STAMPS","1733 MORSE ST",,"JANESVILLE","WI","53545","POINT (-89.001743 42.723616)"
"10793621","CHAMBERS & OWEN, INC.","TOBACCO TAX / WHOLESALER QUARTERLY","1733 MORSE ST",,"JANESVILLE","WI","53545","POINT (-89.001743 42.723616)"
"10793621","CHAMBERS & OWEN, INC.","TOBACCO TAX / WHOLESALER","1733 MORSE ST",,"JANESVILLE","WI","53545","POINT (-89.001743 42.723616)"
"11113961","CHASE CASH & CARRY INC.","TOBACCO TAX / CIGARETTE FLOOR TAX","6661 CHASE ROAD",,"DEARBORN","MI","48126","POINT (-83.186386 42.339993)"
"11113961","CHASE CASH & CARRY INC.","TOBACCO TAX / WHOLESALER QUARTERLY","6661 CHASE ROAD",,"DEARBORN","MI","48126","POINT (-83.186386 42.339993)"
"11113961","CHASE CASH & CARRY INC.","TOBACCO TAX / WHOLESALER","6661 CHASE ROAD",,"DEARBORN","MI","48126","POINT (-83.186386 42.339993)"
"10836141","CIGARETTE CITY","TOBACCO TAX / WHOLESALER","6250 S. HARLEM AVE",,"SUMMIT","IL","60501","POINT (-87.801049 41.778313)"
"10836141","CIGARETTE CITY","TOBACCO TAX / WHOLESALER QUARTERLY","6250 S Harlem",,"Summit","IL","60501","POINT (-87.801049 41.778313)"
"10836141","CIGARETTE CITY","TOBACCO TAX / WHOLESALER QUARTERLY","6250 S. HARLEM AVE",,"SUMMIT","IL","60501","POINT (-87.801049 41.778313)"
"10836141","CIGARETTE CITY","TOBACCO TAX / CIGARETTE FLOOR TAX","6250 S. HARLEM AVE",,"SUMMIT","IL","60501","POINT (-87.801049 41.778313)"
"10836141","CIGARETTE CITY","TOBACCO TAX / WHOLESALER","6250 S Harlem",,"Summit","IL","60501","POINT (-87.801049 41.778313)"
"10836141","CIGARETTE CITY","TOBACCO TAX / CIGARETTE FLOOR TAX","6250 S Harlem",,"Summit","IL","60501","POINT (-87.801049 41.778313)"
"11127986","CIGAR OASIS","TOBACCO TAX / CIGARETTE FLOOR TAX","6557 NORTH AVE",,"OAK PARK","IL","60302","POINT (-87.789965 41.909064)"
"11127986","CIGAR OASIS","TOBACCO TAX / OTP FLOOR TAX","6557 NORTH AVE",,"OAK PARK","IL","60302","POINT (-87.789965 41.909064)"
"10845793","CIGAR WERKS, INC.","TOBACCO TAX / WHOLESALER QUARTERLY","2015 DEAN STREET",,"ST.CHARLES","IL","60174","POINT (-88.338679 41.918188)"
"10845793","CIGAR WERKS, INC.","TOBACCO TAX / CIGARETTE FLOOR TAX","2015 DEAN STREET",,"ST.CHARLES","IL","60174","POINT (-88.338679 41.918188)"
"10845793","CIGAR WERKS, INC.","TOBACCO TAX / WHOLESALER","2015 DEAN STREET",,"ST.CHARLES","IL","60174","POINT (-88.338679 41.918188)"
"11107244","CIGARY INT'L LTD.","TOBACCO TAX / WHOLESALER QUARTERLY","139 SKOKIE BLVD",,"WILMETTE","IL","60091","POINT (-87.746664 42.066233)"
"11107244","CIGARY INT'L LTD.","TOBACCO TAX / WHOLESALER","139 SKOKIE BLVD",,"WILMETTE","IL","60091","POINT (-87.746664 42.066233)"
"11107244","CIGARY INT'L LTD.","TOBACCO TAX / CIGARETTE FLOOR TAX","139 SKOKIE BLVD",,"WILMETTE","IL","60091","POINT (-87.746664 42.066233)"
"11114845","CIGETTE VAPOR INC","TOBACCO TAX / CIGARETTE FLOOR TAX","6 N. ELMHURST RD, UNIT A",,"PROSPECT HEIGHTS","IL","60090","POINT (-87.936652 42.139339)"
"11114845","CIGETTE VAPOR INC","TOBACCO TAX / OTP FLOOR TAX","6 N. ELMHURST RD, UNIT A",,"PROSPECT HEIGHTS","IL","60090","POINT (-87.936652 42.139339)"
"21003637","CIGNOT INC","TOBACCO TAX / OTP FLOOR TAX","101 N MARION ST",,"OAK PARK","IL","60301 - 1167","POINT (-87.802414 41.887277)"
"21003637","CIGNOT INC","TOBACCO TAX / CIGARETTE FLOOR TAX","101 N MARION ST",,"OAK PARK","IL","60301 - 1167","POINT (-87.802414 41.887277)"
"11106283","CLOUD TOBACCO INC","TOBACCO TAX / WHOLESALER QUARTERLY","7555 W 99TH ST.",,"BRIDGEVIEW","IL","60455","POINT (-87.808025 41.711236)"
"11106283","CLOUD TOBACCO INC","TOBACCO TAX / CIGARETTE FLOOR TAX","7555 W 99TH ST.",,"BRIDGEVIEW","IL","60455","POINT (-87.808025 41.711236)"
"11114614","CLOUD VAPOR LOUNGE LLC","TOBACCO TAX / CIGARETTE FLOOR TAX","1845 N. WESTERN AVE",,"CHICAGO","IL","60647","POINT (-87.687272 41.915286)"
"11114614","CLOUD VAPOR LOUNGE LLC","TOBACCO TAX / OTP FLOOR TAX","1845 N. WESTERN AVE",,"CHICAGO","IL","60647","POINT (-87.687272 41.915286)"
"11105275","COLLEGE DRIVE TOBACCO","TOBACCO TAX / CIGARETTE FLOOR TAX","6420 W. 87TH STREET",,"BURBANK","IL","60459","POINT (-87.781079 41.733878)"
"11105275","COLLEGE DRIVE TOBACCO","TOBACCO TAX / WHOLESALER","6420 W. 87TH STREET",,"BURBANK","IL","60459","POINT (-87.781079 41.733878)"
"11105275","COLLEGE DRIVE TOBACCO","TOBACCO TAX / WHOLESALER QUARTERLY","6420 W. 87TH STREET",,"BURBANK","IL","60459","POINT (-87.781079 41.733878)"
"11114835","COOL CLOUDS VAPOR SHOP","TOBACCO TAX / OTP FLOOR TAX","3837 W. 95TH STREET",,"EVERGREEN PARK","IL","60805","POINT (-87.718075 41.720518)"
"11114835","COOL CLOUDS VAPOR SHOP","TOBACCO TAX / CIGARETTE FLOOR TAX","3837 W. 95TH STREET",,"EVERGREEN PARK","IL","60805","POINT (-87.718075 41.720518)"
"11120347","COPPER CANE LLC","TOBACCO TAX / WHOLESALER","1275 INGLEWOOD AVE.",,"SAINT HELENA","CA","94574","POINT (-122.449477 38.487648)"
"11120347","COPPER CANE LLC","TOBACCO TAX / CIGARETTE FLOOR TAX","1275 INGLEWOOD AVE.",,"SAINT HELENA","CA","94574","POINT (-122.449477 38.487648)"
"11120347","COPPER CANE LLC","TOBACCO TAX / WHOLESALER QUARTERLY","1275 INGLEWOOD AVE.",,"SAINT HELENA","CA","94574","POINT (-122.449477 38.487648)"
"10849918","CORE-MARK","TOBACCO TAX / WHOLESALER QUARTERLY","1035 NATHAN LANE N",,"MINNEAPOLIS","MN","55441 - 5002","POINT (-93.40558 44.990359)"
"10849918","CORE-MARK","TOBACCO TAX / CIGARETTE STAMPS","1035 NATHAN LANE N",,"MINNEAPOLIS","MN","55441 - 5002","POINT (-93.40558 44.990359)"
"10849918","CORE-MARK","TOBACCO TAX / CIGARETTE FLOOR TAX","1035 NATHAN LANE N",,"MINNEAPOLIS","MN","55441 - 5002","POINT (-93.40558 44.990359)"
"10849918","CORE-MARK","TOBACCO TAX / WHOLESALER","1035 NATHAN LANE N",,"MINNEAPOLIS","MN","55441 - 5002","POINT (-93.40558 44.990359)"
"11103478","CORE-MARK MIDCONTINENT, INC","TOBACCO TAX / CIGARETTE STAMPS","30300 EMERALD VALLEY PKWY",,"GLENWILLOW","OH","44139","POINT (-81.461092 41.361016)"
"11103478","CORE-MARK MIDCONTINENT, INC","TOBACCO TAX / CIGARETTE FLOOR TAX","30300 EMERALD VALLEY PKWY",,"GLENWILLOW","OH","44139","POINT (-81.461092 41.361016)"
"11103478","CORE-MARK MIDCONTINENT, INC","TOBACCO TAX / WHOLESALER QUARTERLY","30300 EMERALD VALLEY PKWY",,"GLENWILLOW","OH","44139","POINT (-81.461092 41.361016)"
"11103478","CORE-MARK MIDCONTINENT, INC","TOBACCO TAX / WHOLESALER","30300 EMERALD VALLEY PKWY",,"GLENWILLOW","OH","44139","POINT (-81.461092 41.361016)"
"10793635","COSTCO WHOLESALE - BEDFORD PK","TOBACCO TAX / CIGARETTE STAMPS","7300 S. CICERO AVE",,"BEDFORD PARK","IL","60629",
"10793635","COSTCO WHOLESALE - BEDFORD PK","TOBACCO TAX / WHOLESALER","7300 S. CICERO AVE",,"BEDFORD PARK","IL","60629",
"10793635","COSTCO WHOLESALE - BEDFORD PK","TOBACCO TAX / CIGARETTE FLOOR TAX","7300 S. CICERO AVE",,"BEDFORD PARK","IL","60629",
"10793635","COSTCO WHOLESALE - BEDFORD PK","TOBACCO TAX / WHOLESALER QUARTERLY","7300 S. CICERO AVE",,"BEDFORD PARK","IL","60629",
"10793639","COSTCO WHOLESALE - CHICAGO","TOBACCO TAX / WHOLESALER QUARTERLY","2746 N. CLYBOURN AVE",,"CHICAGO","IL","60614","POINT (-87.677062 41.931394)"
"10793639","COSTCO WHOLESALE - CHICAGO","TOBACCO TAX / CIGARETTE STAMPS","2746 N. CLYBOURN AVE",,"CHICAGO","IL","60614","POINT (-87.677062 41.931394)"
"10793639","COSTCO WHOLESALE - CHICAGO","TOBACCO TAX / WHOLESALER","2746 N. CLYBOURN AVE",,"CHICAGO","IL","60614","POINT (-87.677062 41.931394)"
"10793639","COSTCO WHOLESALE - CHICAGO","TOBACCO TAX / CIGARETTE FLOOR TAX","2746 N. CLYBOURN AVE",,"CHICAGO","IL","60614","POINT (-87.677062 41.931394)"
"21003542","COSTCO WHOLESALE CORPORATION","TOBACCO TAX / WHOLESALER","505 W ARMY TRAIL RD",,"BLOOMINGDALE","IL","60108 - 1391","POINT (-88.123211 41.939519)"
"21003542","COSTCO WHOLESALE CORPORATION","TOBACCO TAX / WHOLESALER QUARTERLY","505 W ARMY TRAIL RD",,"BLOOMINGDALE","IL","60108 - 1391","POINT (-88.123211 41.939519)"
"21003537","COSTCO WHOLESALE CORPORATION","TOBACCO TAX / WHOLESALER","1901 W 22ND ST FL 1",,"OAK BROOK","IL","60523 - 1785","POINT (-87.964912 41.846331)"
"21003542","COSTCO WHOLESALE CORPORATION","TOBACCO TAX / CIGARETTE STAMPS","505 W ARMY TRAIL RD",,"BLOOMINGDALE","IL","60108 - 1391","POINT (-88.123211 41.939519)"
"21003537","COSTCO WHOLESALE CORPORATION","TOBACCO TAX / CIGARETTE FLOOR TAX","1901 W 22ND ST FL 1",,"OAK BROOK","IL","60523 - 1785","POINT (-87.964912 41.846331)"
"21003542","COSTCO WHOLESALE CORPORATION","TOBACCO TAX / CIGARETTE FLOOR TAX","505 W ARMY TRAIL RD",,"BLOOMINGDALE","IL","60108 - 1391","POINT (-88.123211 41.939519)"
"21003537","COSTCO WHOLESALE CORPORATION","TOBACCO TAX / WHOLESALER QUARTERLY","1901 W 22ND ST FL 1",,"OAK BROOK","IL","60523 - 1785","POINT (-87.964912 41.846331)"
"21003537","COSTCO WHOLESALE CORPORATION","TOBACCO TAX / CIGARETTE STAMPS","1901 W 22ND ST FL 1",,"OAK BROOK","IL","60523 - 1785","POINT (-87.964912 41.846331)"
"10823571","C T JEWELL CO., INC.","TOBACCO TAX / WHOLESALER","4955 S. 72ND STREET",,"OMAHA","NE","68127","POINT (-96.023715 41.209146)"
"10823571","C T JEWELL CO., INC.","TOBACCO TAX / WHOLESALER QUARTERLY","4955 S. 72ND STREET",,"OMAHA","NE","68127","POINT (-96.023715 41.209146)"
"10823571","C T JEWELL CO., INC.","TOBACCO TAX / CIGARETTE FLOOR TAX","4955 S. 72ND STREET",,"OMAHA","NE","68127","POINT (-96.023715 41.209146)"
"10823571","C T JEWELL CO., INC.","TOBACCO TAX / CIGARETTE STAMPS","4955 S. 72ND STREET",,"OMAHA","NE","68127","POINT (-96.023715 41.209146)"
"11108530","DEARBORN WHOLESALE SOUTH LLC","TOBACCO TAX / CIGARETTE FLOOR TAX","1849 W. 79TH STREET",,"CHICAGO","IL","60620","POINT (-87.669744 41.750265)"
"11108530","DEARBORN WHOLESALE SOUTH LLC","TOBACCO TAX / WHOLESALER QUARTERLY","1849 W. 79TH STREET",,"CHICAGO","IL","60620","POINT (-87.669744 41.750265)"
"11108530","DEARBORN WHOLESALE SOUTH LLC","TOBACCO TAX / WHOLESALER","1849 W. 79TH STREET",,"CHICAGO","IL","60620","POINT (-87.669744 41.750265)"
"11108531","DEARBORN WHOLESALE WEST LLC","TOBACCO TAX / WHOLESALER","4525 W. MADISON ST",,"CHICAGO","IL","60624","POINT (-87.739581 41.880523)"
"11108531","DEARBORN WHOLESALE WEST LLC","TOBACCO TAX / CIGARETTE FLOOR TAX","4525 W. MADISON ST",,"CHICAGO","IL","60624","POINT (-87.739581 41.880523)"
"11108531","DEARBORN WHOLESALE WEST LLC","TOBACCO TAX / WHOLESALER QUARTERLY","4525 W. MADISON ST",,"CHICAGO","IL","60624","POINT (-87.739581 41.880523)"
"11105845","DIAMOND WHOLESALE GROUP INC.","TOBACCO TAX / WHOLESALER","7252 W. 87TH STREET",,"BRIDGEVIEW","IL","60455","POINT (-87.800638 41.733518)"
"11105845","DIAMOND WHOLESALE GROUP INC.","TOBACCO TAX / CIGARETTE FLOOR TAX","7252 W. 87TH STREET",,"BRIDGEVIEW","IL","60455","POINT (-87.800638 41.733518)"
"11105845","DIAMOND WHOLESALE GROUP INC.","TOBACCO TAX / WHOLESALER QUARTERLY","7252 W. 87TH STREET",,"BRIDGEVIEW","IL","60455","POINT (-87.800638 41.733518)"
"11112410","DON RAFA CIGARS DISTRIBUTORS LLC","TOBACCO TAX / CIGARETTE FLOOR TAX","1305 PRAIRIE AVE",,"GLENDALE HEIGHTS","IL","60139","POINT (-88.069954 41.906426)"
"11112410","DON RAFA CIGARS DISTRIBUTORS LLC","TOBACCO TAX / WHOLESALER","1305 PRAIRIE AVE",,"GLENDALE HEIGHTS","IL","60139","POINT (-88.069954 41.906426)"
"11112410","DON RAFA CIGARS DISTRIBUTORS LLC","TOBACCO TAX / WHOLESALER QUARTERLY","1305 PRAIRIE AVE",,"GLENDALE HEIGHTS","IL","60139","POINT (-88.069954 41.906426)"
"11114151","DREW ESTATE","TOBACCO TAX / WHOLESALER","12415 SW 136TH AVE, STE. #7",,"MIAMI","FL","33186","POINT (-80.414403 25.652157)"
"11114151","DREW ESTATE","TOBACCO TAX / CIGARETTE FLOOR TAX","12415 SW 136TH AVE, STE. #7",,"MIAMI","FL","33186","POINT (-80.414403 25.652157)"
"11114151","DREW ESTATE","TOBACCO TAX / WHOLESALER QUARTERLY","12415 SW 136TH AVE, STE. #7",,"MIAMI","FL","33186","POINT (-80.414403 25.652157)"
"10836172","DRL MANAGEMENT SERVICES","TOBACCO TAX / CIGARETTE FLOOR TAX","2301 RAVINE WAY",,"GLENVIEW","IL","60025","POINT (-87.813782 42.098177)"
"10836172","DRL MANAGEMENT SERVICES","TOBACCO TAX / WHOLESALER QUARTERLY","2301 RAVINE WAY",,"GLENVIEW","IL","60025","POINT (-87.813782 42.098177)"
"10836172","DRL MANAGEMENT SERVICES","TOBACCO TAX / WHOLESALER","2301 RAVINE WAY",,"GLENVIEW","IL","60025","POINT (-87.813782 42.098177)"
"10793640","EBY-BROWN CO. LLC- MONTGOMERY","TOBACCO TAX / WHOLESALER","1415 W. DIEHL RD, STE. 300N",,"NAPERVILLE","IL","60563 - 1197","POINT (-88.191177 41.800678)"
"10793640","EBY-BROWN CO. LLC- MONTGOMERY","TOBACCO TAX / CIGARETTE STAMPS","1415 W. DIEHL RD, STE. 300N",,"NAPERVILLE","IL","60563 - 1197","POINT (-88.191177 41.800678)"
"10793640","EBY-BROWN CO. LLC- MONTGOMERY","TOBACCO TAX / WHOLESALER QUARTERLY","1415 W. DIEHL RD, STE. 300N",,"NAPERVILLE","IL","60563 - 1197","POINT (-88.191177 41.800678)"
"10793640","EBY-BROWN CO. LLC- MONTGOMERY","TOBACCO TAX / CIGARETTE FLOOR TAX","1415 W. DIEHL RD, STE. 300N",,"NAPERVILLE","IL","60563 - 1197","POINT (-88.191177 41.800678)"
"11115973","ECON CONTROL INC","TOBACCO TAX / CIGARETTE FLOOR TAX","7395 BUSH LAKE ROAD",,"EDINA","MN","55439 - 2027","POINT (-93.359653 44.868397)"
"11115973","ECON CONTROL INC","TOBACCO TAX / WHOLESALER QUARTERLY","7395 BUSH LAKE ROAD",,"EDINA","MN","55439 - 2027","POINT (-93.359653 44.868397)"
"11115973","ECON CONTROL INC","TOBACCO TAX / WHOLESALER","7395 BUSH LAKE ROAD",,"EDINA","MN","55439 - 2027","POINT (-93.359653 44.868397)"
"21003512","ECTO WORLD, LLC","TOBACCO TAX / WHOLESALER","2225 KENMORE AVE STE 110",,"BUFFALO","NY","14207 - 1359","POINT (-78.894122 42.965222)"
"10836292","ELSTON SELF SERVICE WHOLESALE","TOBACCO TAX / CIGARETTE STAMPS","3761 N ELSTON AVE",,"CHICAGO","IL","60618 - 4243","POINT (-87.713473 41.949828)"
"10836292","ELSTON SELF SERVICE WHOLESALE","TOBACCO TAX / CIGARETTE FLOOR TAX","3761 N ELSTON AVE",,"CHICAGO","IL","60618 - 4243","POINT (-87.713473 41.949828)"
"10836292","ELSTON SELF SERVICE WHOLESALE","TOBACCO TAX / WHOLESALER","3761 N ELSTON AVE",,"CHICAGO","IL","60618 - 4243","POINT (-87.713473 41.949828)"
"10836292","ELSTON SELF SERVICE WHOLESALE","TOBACCO TAX / WHOLESALER QUARTERLY","3761 N ELSTON AVE",,"CHICAGO","IL","60618 - 4243","POINT (-87.713473 41.949828)"
"11127745","ELSTON WHOLESALE DISTRIBUTOR LLC","TOBACCO TAX / WHOLESALER QUARTERLY","3761 N. ELSTON AVE",,"CHICAGO","IL","60618","POINT (-87.713473 41.949828)"
"11127745","ELSTON WHOLESALE DISTRIBUTOR LLC","TOBACCO TAX / CIGARETTE FLOOR TAX","3761 N. ELSTON AVE",,"CHICAGO","IL","60618","POINT (-87.713473 41.949828)"
"11127745","ELSTON WHOLESALE DISTRIBUTOR LLC","TOBACCO TAX / WHOLESALER","3761 N. ELSTON AVE",,"CHICAGO","IL","60618","POINT (-87.713473 41.949828)"
"11127747","ERIC EXTRA SALES INC.","TOBACCO TAX / CIGARETTE FLOOR TAX","1714 CHESTNUT HILL ROAD",,"PLAINFIELD","IL","60586","POINT (-88.206596 41.553896)"
"11127747","ERIC EXTRA SALES INC.","TOBACCO TAX / OTP FLOOR TAX","1714 CHESTNUT HILL ROAD",,"PLAINFIELD","IL","60586","POINT (-88.206596 41.553896)"
"21003633","EVERGREEN BP INC","TOBACCO TAX / OTP FLOOR TAX","2620 W 95TH ST",,"EVERGREEN PARK","IL","60805 - 2700","POINT (-87.687446 41.72095)"
"21003633","EVERGREEN BP INC","TOBACCO TAX / CIGARETTE FLOOR TAX","2620 W 95TH ST",,"EVERGREEN PARK","IL","60805 - 2700","POINT (-87.687446 41.72095)"
"21003838","EVERYDAY WHOLESALE, INC.","TOBACCO TAX / WHOLESALER","5825 W 117TH PL",,"ALSIP","IL","60803 - 6018","POINT (-87.764589 41.678673)"
"21003838","EVERYDAY WHOLESALE, INC.","TOBACCO TAX / CIGARETTE FLOOR TAX","5825 W 117TH PL",,"ALSIP","IL","60803 - 6018","POINT (-87.764589 41.678673)"
"21003838","EVERYDAY WHOLESALE, INC.","TOBACCO TAX / WHOLESALER QUARTERLY","5825 W 117TH PL",,"ALSIP","IL","60803 - 6018","POINT (-87.764589 41.678673)"
"11128110","FAMOUS WHOLESALE, INC","TOBACCO TAX / WHOLESALER QUARTERLY","1471 ELMHURST RD",,"ELK GROVE VLG","IL","60007 - 6400","POINT (-87.940143 42.005732)"
"11128110","FAMOUS WHOLESALE, INC","TOBACCO TAX / CIGARETTE FLOOR TAX","1471 ELMHURST RD",,"ELK GROVE VLG","IL","60007 - 6400","POINT (-87.940143 42.005732)"
"11128110","FAMOUS WHOLESALE, INC","TOBACCO TAX / WHOLESALER","1471 ELMHURST RD",,"ELK GROVE VLG","IL","60007 - 6400","POINT (-87.940143 42.005732)"
"21003503","FLAVORS15 LLC","TOBACCO TAX / WHOLESALER","4251 LYONS RD",,"MIAMISBURG","OH","45342 - 3799","POINT (-84.237094 39.632137)"
"21004109","FMMF LLC","TOBACCO TAX / OTP FLOOR TAX","1522 N ELMHURST RD",,"MOUNT PROSPECT","IL","60056 - 1011",
"21004109","FMMF LLC","TOBACCO TAX / CIGARETTE FLOOR TAX","1522 N ELMHURST RD",,"MOUNT PROSPECT","IL","60056 - 1011",
"21003733","FUMAR LIFE LLC","TOBACCO TAX / CIGARETTE FLOOR TAX","2441 SOUTH LAKE ST",,"CHICAGO","IL","60616","POINT (-87.62692 41.848002)"
"21003733","FUMAR LIFE LLC","TOBACCO TAX / OTP FLOOR TAX","2441 SOUTH LAKE ST",,"CHICAGO","IL","60616","POINT (-87.62692 41.848002)"
"11115713","GLOBAL HOOKAH DISTRIBUTORS INC","TOBACCO TAX / WHOLESALER QUARTERLY","4026 SHUTTERFLY ROAD",,"CHARLOTTE","NC","28217","POINT (-80.952684 35.168444)"
"11115713","GLOBAL HOOKAH DISTRIBUTORS INC","TOBACCO TAX / WHOLESALER","4026 SHUTTERFLY ROAD",,"CHARLOTTE","NC","28217","POINT (-80.952684 35.168444)"
"11115713","GLOBAL HOOKAH DISTRIBUTORS INC","TOBACCO TAX / CIGARETTE FLOOR TAX","4026 SHUTTERFLY ROAD",,"CHARLOTTE","NC","28217","POINT (-80.952684 35.168444)"
"10836171","GOKUL WHOLESALE, INC.","TOBACCO TAX / WHOLESALER","2732 MAYNARD COURT",,"GLENVIEW","IL","60025","POINT (-87.827338 42.0574)"
"10836171","GOKUL WHOLESALE, INC.","TOBACCO TAX / CIGARETTE FLOOR TAX","2732 MAYNARD COURT",,"GLENVIEW","IL","60025","POINT (-87.827338 42.0574)"
"10836171","GOKUL WHOLESALE, INC.","TOBACCO TAX / WHOLESALER QUARTERLY","2732 MAYNARD COURT",,"GLENVIEW","IL","60025","POINT (-87.827338 42.0574)"
"10793061","GOLD STANDARD ENTERPRISES","TOBACCO TAX / CIGARETTE FLOOR TAX","8935 N MILWAUKEE AVE",,"NILES","IL","60714","POINT (-87.828379 42.042543)"
"10793061","GOLD STANDARD ENTERPRISES","TOBACCO TAX / WHOLESALER","8935 N MILWAUKEE AVE",,"NILES","IL","60714","POINT (-87.828379 42.042543)"
"10793061","GOLD STANDARD ENTERPRISES","TOBACCO TAX / WHOLESALER QUARTERLY","8935 N MILWAUKEE AVE",,"NILES","IL","60714","POINT (-87.828379 42.042543)"
"10838514","GREEN STREET 34, INC.","TOBACCO TAX / WHOLESALER","7231 W. 90TH PLACE",,"BRIDGEVIEW","IL","60455","POINT (-87.80013 41.727137)"
"10838514","GREEN STREET 34, INC.","TOBACCO TAX / CIGARETTE FLOOR TAX","7231 W. 90TH PLACE",,"BRIDGEVIEW","IL","60455","POINT (-87.80013 41.727137)"
"10838514","GREEN STREET 34, INC.","TOBACCO TAX / WHOLESALER QUARTERLY","7231 W. 90TH PLACE",,"BRIDGEVIEW","IL","60455","POINT (-87.80013 41.727137)"
"11126516","HABANO CIGARS INC.","TOBACCO TAX / CIGARETTE FLOOR TAX","13033 W 143RD ST",,"HOMER GLEN","IL","60491","POINT (-87.937051 41.629003)"
"11126516","HABANO CIGARS INC.","TOBACCO TAX / OTP FLOOR TAX","13033 W 143RD ST",,"HOMER GLEN","IL","60491","POINT (-87.937051 41.629003)"
"10836135","HABASH TRADING, INC.","TOBACCO TAX / WHOLESALER","6135 S. NOTTINHAM AVE",,"CHICAGO","IL","60638","POINT (-87.798523 41.779589)"
"10836135","HABASH TRADING, INC.","TOBACCO TAX / WHOLESALER QUARTERLY","6135 S. NOTTINHAM AVE",,"CHICAGO","IL","60638","POINT (-87.798523 41.779589)"
"10836135","HABASH TRADING, INC.","TOBACCO TAX / CIGARETTE FLOOR TAX","6135 S. NOTTINHAM AVE",,"CHICAGO","IL","60638","POINT (-87.798523 41.779589)"
"11114844","HARWOOD CONVENIENCE STORE INC","TOBACCO TAX / OTP FLOOR TAX","7356-58 W. LAWRENCE AVE",,"HARWOOD HEIGHTS","IL","60706","POINT (-87.811643 41.967167)"
"11114844","HARWOOD CONVENIENCE STORE INC","TOBACCO TAX / CIGARETTE FLOOR TAX","7356-58 W. LAWRENCE AVE",,"HARWOOD HEIGHTS","IL","60706","POINT (-87.811643 41.967167)"
"11115709","HAVANA ROOM CIGARS LLC","TOBACCO TAX / CIGARETTE FLOOR TAX","212 N. CANAL STREET",,"CHICAGO","IL","60606","POINT (-87.640072 41.889236)"
"11115709","HAVANA ROOM CIGARS LLC","TOBACCO TAX / WHOLESALER","212 N. CANAL STREET",,"CHICAGO","IL","60606","POINT (-87.640072 41.889236)"
"11115709","HAVANA ROOM CIGARS LLC","TOBACCO TAX / WHOLESALER QUARTERLY","212 N. CANAL STREET",,"CHICAGO","IL","60606","POINT (-87.640072 41.889236)"
"10836129","HBI INTERNATIONAL","TOBACCO TAX / WHOLESALER","3401 W. PAPAGO ST",,"PHOENIX","AZ","85009","POINT (-112.132593 33.43449)"
"10836129","HBI INTERNATIONAL","TOBACCO TAX / WHOLESALER QUARTERLY","3401 W. PAPAGO ST",,"PHOENIX","AZ","85009","POINT (-112.132593 33.43449)"
"10836129","HBI INTERNATIONAL","TOBACCO TAX / CIGARETTE FLOOR TAX","3401 W. PAPAGO ST",,"PHOENIX","AZ","85009","POINT (-112.132593 33.43449)"
"21004224","HOLY SMOKES TOBACCO INC.","TOBACCO TAX / CIGARETTE FLOOR TAX","5708 111TH ST",,"CHICAGO RIDGE","IL","60415 - 2407","POINT (-87.76243 41.690589)"
"21004224","HOLY SMOKES TOBACCO INC.","TOBACCO TAX / OTP FLOOR TAX","5708 111TH ST",,"CHICAGO RIDGE","IL","60415 - 2407","POINT (-87.76243 41.690589)"
"10836138","HOUSE OF HOOKAH","TOBACCO TAX / WHOLESALER QUARTERLY","607 W. BELMONT",,"CHICAGO","IL","60657","POINT (-87.644637 41.940071)"
"10836138","HOUSE OF HOOKAH","TOBACCO TAX / CIGARETTE FLOOR TAX","607 W. BELMONT",,"CHICAGO","IL","60657","POINT (-87.644637 41.940071)"
"10836138","HOUSE OF HOOKAH","TOBACCO TAX / WHOLESALER","607 W. BELMONT",,"CHICAGO","IL","60657","POINT (-87.644637 41.940071)"
"11114776","HOUSE OF SMOKE LLC","TOBACCO TAX / OTP FLOOR TAX","2736 E. TOUHY",,"ELK GROVE VILLAGE","IL","60007",
"11114776","HOUSE OF SMOKE LLC","TOBACCO TAX / CIGARETTE FLOOR TAX","2736 E. TOUHY",,"ELK GROVE VILLAGE","IL","60007",
"11114786","HOUSE OF VBI LLC","TOBACCO TAX / OTP FLOOR TAX","7439 W. MADISON ST",,"FOREST PARK","IL","60130","POINT (-87.811442 41.879545)"
"11114786","HOUSE OF VBI LLC","TOBACCO TAX / CIGARETTE FLOOR TAX","7439 W. MADISON ST",,"FOREST PARK","IL","60130","POINT (-87.811442 41.879545)"
"11114780","HOW'S IT VAPE EMPORIUM","TOBACCO TAX / CIGARETTE FLOOR TAX","4710 W. 147TH STREET",,"MIDLOTHIAN","IL","60445",
"11114780","HOW'S IT VAPE EMPORIUM","TOBACCO TAX / OTP FLOOR TAX","4710 W. 147TH STREET",,"MIDLOTHIAN","IL","60445",
"21004146","HP TRADING INC","TOBACCO TAX / CIGARETTE FLOOR TAX","305 N BARRINGTON RD",,"STREAMWOOD","IL","60107 - 1973","POINT (-88.144505 42.038396)"
"21004146","HP TRADING INC","TOBACCO TAX / WHOLESALER QUARTERLY","305 N BARRINGTON RD",,"STREAMWOOD","IL","60107 - 1973","POINT (-88.144505 42.038396)"
"21004146","HP TRADING INC","TOBACCO TAX / WHOLESALER","305 N BARRINGTON RD",,"STREAMWOOD","IL","60107 - 1973","POINT (-88.144505 42.038396)"
"10836275","HR DISTRIBUTORS","TOBACCO TAX / WHOLESALER","718 VANDUSTRIAL DR.",,"WESTMONT","IL","60559","POINT (-87.982809 41.775234)"
"10836275","HR DISTRIBUTORS","TOBACCO TAX / WHOLESALER QUARTERLY","718 VANDUSTRIAL DR.",,"WESTMONT","IL","60559","POINT (-87.982809 41.775234)"
"10836275","HR DISTRIBUTORS","TOBACCO TAX / CIGARETTE FLOOR TAX","718 VANDUSTRIAL DR.",,"WESTMONT","IL","60559","POINT (-87.982809 41.775234)"
"10836071","HUBBARD STATE CIGAR SHOP","TOBACCO TAX / WHOLESALER QUARTERLY","6 W. HUBBARD STREET",,"CHICAGO","IL","60610","POINT (-87.629378 41.890049)"
"10836071","HUBBARD STATE CIGAR SHOP","TOBACCO TAX / WHOLESALER","6 W. HUBBARD STREET",,"CHICAGO","IL","60610","POINT (-87.629378 41.890049)"
"10836071","HUBBARD STATE CIGAR SHOP","TOBACCO TAX / CIGARETTE FLOOR TAX","6 W. HUBBARD STREET",,"CHICAGO","IL","60610","POINT (-87.629378 41.890049)"
"11114574","HUCKSTER INC","TOBACCO TAX / WHOLESALER","1178 FLEX CT",,"LAKE ZURICH","IL","60047 - 1578","POINT (-88.06666 42.211043)"
"11114574","HUCKSTER INC","TOBACCO TAX / CIGARETTE FLOOR TAX","1178 FLEX CT",,"LAKE ZURICH","IL","60047 - 1578","POINT (-88.06666 42.211043)"
"11114574","HUCKSTER INC","TOBACCO TAX / WHOLESALER QUARTERLY","1178 FLEX CT",,"LAKE ZURICH","IL","60047 - 1578","POINT (-88.06666 42.211043)"
"11114574","HUCKSTER INC","TOBACCO TAX / CIGARETTE STAMPS","1178 FLEX CT",,"LAKE ZURICH","IL","60047 - 1578","POINT (-88.06666 42.211043)"
"11115568","HYPERLIFE INC","TOBACCO TAX / OTP FLOOR TAX","2308 N. JAMES CT",,"ARLINGTON HEIGHTS","IL","60004","POINT (-87.990926 42.117896)"
"11115568","HYPERLIFE INC","TOBACCO TAX / CIGARETTE FLOOR TAX","2308 N. JAMES CT",,"ARLINGTON HEIGHTS","IL","60004","POINT (-87.990926 42.117896)"
"11127917","ICLOUD SMOKE & VAPE INC.","TOBACCO TAX / CIGARETTE FLOOR TAX","1703 ALGONQUIN ROAD",,"MT. PROSPECT","IL","60056","POINT (-87.960934 42.035804)"
"11127917","ICLOUD SMOKE & VAPE INC.","TOBACCO TAX / OTP FLOOR TAX","1703 ALGONQUIN ROAD",,"MT. PROSPECT","IL","60056","POINT (-87.960934 42.035804)"
"10839373","IN CAHOOTS, INC.","TOBACCO TAX / WHOLESALER QUARTERLY","3102 WENONAH AVE",,"BERWYN","IL","60402","POINT (-87.799117 41.835636)"
"10839373","IN CAHOOTS, INC.","TOBACCO TAX / CIGARETTE FLOOR TAX","3102 WENONAH AVE",,"BERWYN","IL","60402","POINT (-87.799117 41.835636)"
"10839373","IN CAHOOTS, INC.","TOBACCO TAX / WHOLESALER","3102 WENONAH AVE",,"BERWYN","IL","60402","POINT (-87.799117 41.835636)"
"10836289","INTER-CONTINENTAL CIGAR CORP.","TOBACCO TAX / WHOLESALER QUARTERLY","3251 COMMERCE PKWY",,"MIRAMAR","FL","33025","POINT (-80.281548 25.978255)"
"10836289","INTER-CONTINENTAL CIGAR CORP.","TOBACCO TAX / WHOLESALER","3251 COMMERCE PKWY",,"MIRAMAR","FL","33025","POINT (-80.281548 25.978255)"
"10836289","INTER-CONTINENTAL CIGAR CORP.","TOBACCO TAX / CIGARETTE FLOOR TAX","3251 COMMERCE PKWY",,"MIRAMAR","FL","33025","POINT (-80.281548 25.978255)"
"10837479","INTERCONTINENTAL TRADING USA","TOBACCO TAX / WHOLESALER QUARTERLY","1615 W. ALGONQUIN ROAD",,"MT. PROSPECT","IL","60056","POINT (-87.961378 42.03597)"
"10837479","INTERCONTINENTAL TRADING USA","TOBACCO TAX / CIGARETTE FLOOR TAX","1615 W. ALGONQUIN ROAD",,"MT. PROSPECT","IL","60056","POINT (-87.961378 42.03597)"
"10837479","INTERCONTINENTAL TRADING USA","TOBACCO TAX / WHOLESALER","1615 W. ALGONQUIN ROAD",,"MT. PROSPECT","IL","60056","POINT (-87.961378 42.03597)"
"21001397","IWAN RIES & CO.","TOBACCO TAX / WHOLESALER QUARTERLY","19 S. WABASH AVE, 2FL.",,"CHICAGO","IL","60603","POINT (-87.626214 41.881876)"
"21001397","IWAN RIES & CO.","TOBACCO TAX / CIGARETTE FLOOR TAX","19 S. WABASH AVE, 2FL.",,"CHICAGO","IL","60603","POINT (-87.626214 41.881876)"
"21001397","IWAN RIES & CO.","TOBACCO TAX / WHOLESALER","19 S. WABASH AVE, 2FL.",,"CHICAGO","IL","60603","POINT (-87.626214 41.881876)"
"11105668","JACK SCHWARTZ IMPORTER INC","TOBACCO TAX / WHOLESALER","141 W. JACKSON BLVD., LOBBY 103",,"CHICAGO","IL","60604 - 2910","POINT (-87.632231 41.878137)"
"11105668","JACK SCHWARTZ IMPORTER INC","TOBACCO TAX / WHOLESALER QUARTERLY","141 W. JACKSON BLVD., LOBBY 103",,"CHICAGO","IL","60604 - 2910","POINT (-87.632231 41.878137)"
"11105668","JACK SCHWARTZ IMPORTER INC","TOBACCO TAX / CIGARETTE FLOOR TAX","141 W. JACKSON BLVD., LOBBY 103",,"CHICAGO","IL","60604 - 2910","POINT (-87.632231 41.878137)"
"11108921","JAY WHOLESALE","TOBACCO TAX / CIGARETTE FLOOR TAX","1425 HOLMES ROAD",,"ELGIN","IL","60123","POINT (-88.313 42.069768)"
"11108921","JAY WHOLESALE","TOBACCO TAX / WHOLESALER QUARTERLY","1425 HOLMES ROAD",,"ELGIN","IL","60123","POINT (-88.313 42.069768)"
"11108921","JAY WHOLESALE","TOBACCO TAX / WHOLESALER","1425 HOLMES ROAD",,"ELGIN","IL","60123","POINT (-88.313 42.069768)"
"21004062","JENISHA 2ND INC","TOBACCO TAX / OTP FLOOR TAX","7321 N HARLEM AVE",,"NILES","IL","60714 - 4252","POINT (-87.806608 42.014338)"
"21004062","JENISHA 2ND INC","TOBACCO TAX / CIGARETTE FLOOR TAX","7321 N HARLEM AVE",,"NILES","IL","60714 - 4252","POINT (-87.806608 42.014338)"
"21004075","JENISHA INC","TOBACCO TAX / OTP FLOOR TAX","2316 S ELMHURST RD",,"MT PROSPECT","IL","60056 - 5805","POINT (-87.940584 42.024097)"
"21004075","JENISHA INC","TOBACCO TAX / CIGARETTE FLOOR TAX","2316 S ELMHURST RD",,"MT PROSPECT","IL","60056 - 5805","POINT (-87.940584 42.024097)"
"21004141","J & J LIQUOR, INC.","TOBACCO TAX / CIGARETTE FLOOR TAX","741 W PALATINE RD",,"PALATINE","IL","60067 - 4867","POINT (-88.062113 42.110372)"
"21004141","J & J LIQUOR, INC.","TOBACCO TAX / OTP FLOOR TAX","741 W PALATINE RD",,"PALATINE","IL","60067 - 4867","POINT (-88.062113 42.110372)"
"21004083","JK CASH & CARRY INC.","TOBACCO TAX / CIGARETTE FLOOR TAX","760 BIRGINAL DR",,"BENSENVILLE","IL","60106 - 1213","POINT (-87.955663 41.97887)"
"21004083","JK CASH & CARRY INC.","TOBACCO TAX / WHOLESALER QUARTERLY","760 BIRGINAL DR",,"BENSENVILLE","IL","60106 - 1213","POINT (-87.955663 41.97887)"
"21004083","JK CASH & CARRY INC.","TOBACCO TAX / WHOLESALER","760 BIRGINAL DR",,"BENSENVILLE","IL","60106 - 1213","POINT (-87.955663 41.97887)"
"11126850","JMK 312 INC","TOBACCO TAX / OTP FLOOR TAX","728 W. GRAND AVE",,"CHICAGO","IL","60654","POINT (-87.647043 41.891194)"
"11126850","JMK 312 INC","TOBACCO TAX / CIGARETTE FLOOR TAX","728 W. GRAND AVE",,"CHICAGO","IL","60654","POINT (-87.647043 41.891194)"
"21004052","JOHN MIDDLETON CO LLC","TOBACCO TAX / WHOLESALER","6601 W BROAD ST",,"RICHMOND","VA","23230 - 1723","POINT (-77.515298 37.600318)"
"21004052","JOHN MIDDLETON CO LLC","TOBACCO TAX / CIGARETTE FLOOR TAX","6601 W BROAD ST",,"RICHMOND","VA","23230 - 1723","POINT (-77.515298 37.600318)"
"21004052","JOHN MIDDLETON CO LLC","TOBACCO TAX / WHOLESALER QUARTERLY","6601 W BROAD ST",,"RICHMOND","VA","23230 - 1723","POINT (-77.515298 37.600318)"
"21003862","J&S IMPORTS INC.","TOBACCO TAX / WHOLESALER","1252 E DUNDEE RD",,"PALATINE","IL","60074 - 8313","POINT (-88.013591 42.139177)"
"21003862","J&S IMPORTS INC.","TOBACCO TAX / WHOLESALER QUARTERLY","1252 E DUNDEE RD",,"PALATINE","IL","60074 - 8313","POINT (-88.013591 42.139177)"
"21003862","J&S IMPORTS INC.","TOBACCO TAX / CIGARETTE FLOOR TAX","1252 E DUNDEE RD",,"PALATINE","IL","60074 - 8313","POINT (-88.013591 42.139177)"
"11128054","JUUL LABS, INC.","TOBACCO TAX / WHOLESALER QUARTERLY","560 20TH STREET",,"SAN FRANCISCO","CA","94107","POINT (-122.386066 37.760635)"
"11128054","JUUL LABS, INC.","TOBACCO TAX / CIGARETTE FLOOR TAX","560 20TH STREET",,"SAN FRANCISCO","CA","94107","POINT (-122.386066 37.760635)"
"11128054","JUUL LABS, INC.","TOBACCO TAX / WHOLESALER","560 20TH STREET",,"SAN FRANCISCO","CA","94107","POINT (-122.386066 37.760635)"
"11120549","KIEL'S EXTRA SALES, INC.","TOBACCO TAX / WHOLESALER","540 NORTH COLFAX ST.",,"GRIFFITH","IN","46319","POINT (-87.413136 41.531534)"
"11120549","KIEL'S EXTRA SALES, INC.","TOBACCO TAX / CIGARETTE FLOOR TAX","540 NORTH COLFAX ST.",,"GRIFFITH","IN","46319","POINT (-87.413136 41.531534)"
"11120549","KIEL'S EXTRA SALES, INC.","TOBACCO TAX / WHOLESALER QUARTERLY","540 NORTH COLFAX ST.",,"GRIFFITH","IN","46319","POINT (-87.413136 41.531534)"
"10793624","KRETEK INTERNATIONAL","TOBACCO TAX / CIGARETTE FLOOR TAX","5449 ENDEAVOUR CRT",,"MOORPARK","CA","93021 - 1792","POINT (-118.895234 34.283471)"
"10793624","KRETEK INTERNATIONAL","TOBACCO TAX / WHOLESALER QUARTERLY","5449 ENDEAVOUR CRT",,"MOORPARK","CA","93021 - 1792","POINT (-118.895234 34.283471)"
"10793624","KRETEK INTERNATIONAL","TOBACCO TAX / WHOLESALER","5449 ENDEAVOUR CRT",,"MOORPARK","CA","93021 - 1792","POINT (-118.895234 34.283471)"
"11108517","KRISTOFF CIGARS","TOBACCO TAX / CIGARETTE FLOOR TAX","4200 CANTERA DR, STE. 217",,"WARRENVILLE","IL","60555","POINT (-88.159245 41.810787)"
"11108517","KRISTOFF CIGARS","TOBACCO TAX / WHOLESALER QUARTERLY","4200 CANTERA DR, STE. 217",,"WARRENVILLE","IL","60555","POINT (-88.159245 41.810787)"
"11108517","KRISTOFF CIGARS","TOBACCO TAX / WHOLESALER","4200 CANTERA DR, STE. 217",,"WARRENVILLE","IL","60555","POINT (-88.159245 41.810787)"
"11114618","LAKEVIEW SMOKE SHOP INC","TOBACCO TAX / OTP FLOOR TAX","4006 N. SHERIDAN RD",,"CHICAGO","IL","60613","POINT (-87.654536 41.95477)"
"11114618","LAKEVIEW SMOKE SHOP INC","TOBACCO TAX / CIGARETTE FLOOR TAX","4006 N. SHERIDAN RD",,"CHICAGO","IL","60613","POINT (-87.654536 41.95477)"
"11118653","LAWRENCE CHO","TOBACCO TAX / WHOLESALER QUARTERLY","118 N. CLARK ST",,"CHICAGO","IL","60602","POINT (-87.630918 41.883822)"
"11118653","LAWRENCE CHO","TOBACCO TAX / CIGARETTE FLOOR TAX","118 N. CLARK ST",,"CHICAGO","IL","60602","POINT (-87.630918 41.883822)"
"11118653","LAWRENCE CHO","TOBACCO TAX / WHOLESALER","118 N. CLARK ST",,"CHICAGO","IL","60602","POINT (-87.630918 41.883822)"
"11114843","LEVEL VAPE LLC","TOBACCO TAX / CIGARETTE FLOOR TAX","1747 W. NORTH AVE",,"CHICAGO","IL","60622","POINT (-87.672004 41.910585)"
"11114843","LEVEL VAPE LLC","TOBACCO TAX / OTP FLOOR TAX","1747 W. NORTH AVE",,"CHICAGO","IL","60622","POINT (-87.672004 41.910585)"
"11110748","LIT DISTRIBUTION INC.","TOBACCO TAX / CIGARETTE FLOOR TAX","10069 S 76TH AVE",,"BRIDGEVIEW","IL","60455","POINT (-87.808403 41.708031)"
"11110748","LIT DISTRIBUTION INC.","TOBACCO TAX / WHOLESALER","10069 S 76TH AVE",,"BRIDGEVIEW","IL","60455","POINT (-87.808403 41.708031)"
"11110748","LIT DISTRIBUTION INC.","TOBACCO TAX / WHOLESALER QUARTERLY","10069 S 76TH AVE",,"BRIDGEVIEW","IL","60455","POINT (-87.808403 41.708031)"
"11128065","LOVES PARK DISTRIBUTOR INC","TOBACCO TAX / CIGARETTE FLOOR TAX","5055 28TH AVE, UNIT 1",,"ROCKFORD","IL","61109","POINT (-89.017316 42.232418)"
"11128065","LOVES PARK DISTRIBUTOR INC","TOBACCO TAX / WHOLESALER QUARTERLY","5055 28TH AVE, UNIT 1",,"ROCKFORD","IL","61109","POINT (-89.017316 42.232418)"
"11128065","LOVES PARK DISTRIBUTOR INC","TOBACCO TAX / WHOLESALER","5055 28TH AVE, UNIT 1",,"ROCKFORD","IL","61109","POINT (-89.017316 42.232418)"
"11114586","MAIN STAGE VAPES INC.","TOBACCO TAX / CIGARETTE FLOOR TAX","6263 N. MCCORMIC",,"CHICAGO","IL","60659",
"11114586","MAIN STAGE VAPES INC.","TOBACCO TAX / OTP FLOOR TAX","6263 N. MCCORMIC",,"CHICAGO","IL","60659",
"11127852","MANSOUR WHOLESALE INC","TOBACCO TAX / WHOLESALER","8831 W. 87TH STREET",,"HICKORY HILLS","IL","60457","POINT (-87.839246 41.732686)"
"11127852","MANSOUR WHOLESALE INC","TOBACCO TAX / CIGARETTE FLOOR TAX","8831 W. 87TH STREET",,"HICKORY HILLS","IL","60457","POINT (-87.839246 41.732686)"
"11127852","MANSOUR WHOLESALE INC","TOBACCO TAX / WHOLESALER QUARTERLY","8831 W. 87TH STREET",,"HICKORY HILLS","IL","60457","POINT (-87.839246 41.732686)"
"21003692","MARUTI WHOLESALE INC","TOBACCO TAX / WHOLESALER","335 N WOOD DALE RD",,"WOOD DALE","IL","60191 - 1531","POINT (-87.978817 41.964843)"
"21003692","MARUTI WHOLESALE INC","TOBACCO TAX / WHOLESALER QUARTERLY","335 N WOOD DALE RD",,"WOOD DALE","IL","60191 - 1531","POINT (-87.978817 41.964843)"
"21003692","MARUTI WHOLESALE INC","TOBACCO TAX / CIGARETTE FLOOR TAX","335 N WOOD DALE RD",,"WOOD DALE","IL","60191 - 1531","POINT (-87.978817 41.964843)"
"11125642","MB CIGARS INC.","TOBACCO TAX / WHOLESALER QUARTERLY","8016 LINCOLN AVE",,"SKOKIE","IL","60077","POINT (-87.754613 42.026692)"
"11125642","MB CIGARS INC.","TOBACCO TAX / CIGARETTE FLOOR TAX","8016 LINCOLN AVE",,"SKOKIE","IL","60077","POINT (-87.754613 42.026692)"
"11125642","MB CIGARS INC.","TOBACCO TAX / WHOLESALER","8016 LINCOLN AVE",,"SKOKIE","IL","60077","POINT (-87.754613 42.026692)"
"11114365","MCKEE DISTRIBUTING, INC","TOBACCO TAX / WHOLESALER QUARTERLY","1017 BENTLEY LANE",,"BARTLETT","IL","60103","POINT (-88.185691 41.969116)"
"11114365","MCKEE DISTRIBUTING, INC","TOBACCO TAX / WHOLESALER","1017 BENTLEY LANE",,"BARTLETT","IL","60103","POINT (-88.185691 41.969116)"
"11114365","MCKEE DISTRIBUTING, INC","TOBACCO TAX / CIGARETTE FLOOR TAX","1017 BENTLEY LANE",,"BARTLETT","IL","60103","POINT (-88.185691 41.969116)"
"10793626","MCLANE MIDWEST, INC.","TOBACCO TAX / CIGARETTE STAMPS","3400 E. MAIN",,"DANVILLE","IL","61834","POINT (-87.546837 40.133158)"
"10793626","MCLANE MIDWEST, INC.","TOBACCO TAX / WHOLESALER","3400 E. MAIN",,"DANVILLE","IL","61834","POINT (-87.546837 40.133158)"
"10793626","MCLANE MIDWEST, INC.","TOBACCO TAX / WHOLESALER QUARTERLY","3400 E. MAIN",,"DANVILLE","IL","61834","POINT (-87.546837 40.133158)"
"10793626","MCLANE MIDWEST, INC.","TOBACCO TAX / CIGARETTE FLOOR TAX","3400 E. MAIN",,"DANVILLE","IL","61834","POINT (-87.546837 40.133158)"
"10839375","MCLANE MINNESOTA, INC.","TOBACCO TAX / WHOLESALER QUARTERLY","1111 W. 5TH STREET",,"NORTHFIELD","MN","55057","POINT (-93.177247 44.454785)"
"10839375","MCLANE MINNESOTA, INC.","TOBACCO TAX / WHOLESALER","1111 W. 5TH STREET",,"NORTHFIELD","MN","55057","POINT (-93.177247 44.454785)"
"10839375","MCLANE MINNESOTA, INC.","TOBACCO TAX / CIGARETTE FLOOR TAX","1111 W. 5TH STREET",,"NORTHFIELD","MN","55057","POINT (-93.177247 44.454785)"
"10793172","MEIJER DISTRIBUTION, INC.","TOBACCO TAX / CIGARETTE STAMPS","2929 WALKER AVE NW",,"GRAND RAPIDS","MI","49544","POINT (-85.724318 43.01623)"
"10793172","MEIJER DISTRIBUTION, INC.","TOBACCO TAX / CIGARETTE FLOOR TAX","2929 WALKER AVE NW",,"GRAND RAPIDS","MI","49544 - 6402","POINT (-85.724318 43.01623)"
"10793172","MEIJER DISTRIBUTION, INC.","TOBACCO TAX / WHOLESALER QUARTERLY","2929 WALKER AVE NW",,"GRAND RAPIDS","MI","49544 - 6402","POINT (-85.724318 43.01623)"
"10793172","MEIJER DISTRIBUTION, INC.","TOBACCO TAX / WHOLESALER","2929 WALKER AVE NW",,"GRAND RAPIDS","MI","49544 - 6402","POINT (-85.724318 43.01623)"
"21003965","MIDWEST CIGAR & TOBACCO INC.","TOBACCO TAX / CIGARETTE FLOOR TAX","5620 W 79TH ST STE 1",,"BURBANK","IL","60459 - 1388","POINT (-87.761802 41.748785)"
"21003965","MIDWEST CIGAR & TOBACCO INC.","TOBACCO TAX / WHOLESALER","5620 W 79TH ST STE 1",,"BURBANK","IL","60459 - 1388","POINT (-87.761802 41.748785)"
"21003965","MIDWEST CIGAR & TOBACCO INC.","TOBACCO TAX / WHOLESALER QUARTERLY","5620 W 79TH ST STE 1",,"BURBANK","IL","60459 - 1388","POINT (-87.761802 41.748785)"
"10813973","MIDWEST WHOLESALE LLC","TOBACCO TAX / CIGARETTE FLOOR TAX","635 COOPER CT., STE. A",,"SCHAUMBURG","IL","60173","POINT (-88.062747 42.054437)"
"10813973","MIDWEST WHOLESALE LLC","TOBACCO TAX / WHOLESALER","635 COOPER CT., STE. A",,"SCHAUMBURG","IL","60173","POINT (-88.062747 42.054437)"
"10813973","MIDWEST WHOLESALE LLC","TOBACCO TAX / CIGARETTE STAMPS","635 COOPER CT., STE. A",,"SCHAUMBURG","IL","60173","POINT (-88.062747 42.054437)"
"10813973","MIDWEST WHOLESALE LLC","TOBACCO TAX / WHOLESALER QUARTERLY","635 COOPER CT., STE. A",,"SCHAUMBURG","IL","60173","POINT (-88.062747 42.054437)"
"11128276","MOBILE LUX CIGARS","TOBACCO TAX / WHOLESALER","18511 TORRENCE",,"LANSING","IL","60438","POINT (-87.558628 41.558767)"
"11128276","MOBILE LUX CIGARS","TOBACCO TAX / WHOLESALER QUARTERLY","18511 TORRENCE",,"LANSING","IL","60438","POINT (-87.558628 41.558767)"
"11128276","MOBILE LUX CIGARS","TOBACCO TAX / CIGARETTE FLOOR TAX","18511 TORRENCE",,"LANSING","IL","60438","POINT (-87.558628 41.558767)"
"11108727","NATIONAL TOBACCO CO LP","TOBACCO TAX / WHOLESALER QUARTERLY","5201 INTERCHANGE WAY",,"LOUISVILLE","KY","40229","POINT (-85.678528 38.095599)"
"11108727","NATIONAL TOBACCO CO LP","TOBACCO TAX / CIGARETTE FLOOR TAX","5201 INTERCHANGE WAY",,"LOUISVILLE","KY","40229","POINT (-85.678528 38.095599)"
"11108727","NATIONAL TOBACCO CO LP","TOBACCO TAX / WHOLESALER","5201 INTERCHANGE WAY",,"LOUISVILLE","KY","40229","POINT (-85.678528 38.095599)"
"11114333","NORTHERNER SCANDINAVIA INC","TOBACCO TAX / WHOLESALER","631 HIGHWAY 90 A STE 100",,"MISSOURI CITY","TX","77489 - 1302","POINT (-95.523631 29.62423)"
"11114333","NORTHERNER SCANDINAVIA INC","TOBACCO TAX / CIGARETTE FLOOR TAX","631 HIGHWAY 90 A STE 100",,"MISSOURI CITY","TX","77489 - 1302","POINT (-95.523631 29.62423)"
"11114333","NORTHERNER SCANDINAVIA INC","TOBACCO TAX / WHOLESALER QUARTERLY","631 HIGHWAY 90 A STE 100",,"MISSOURI CITY","TX","77489 - 1302","POINT (-95.523631 29.62423)"
"21003558","OG TOBACCO, INC.","TOBACCO TAX / CIGARETTE FLOOR TAX","11300 S HARLEM AVE",,"WORTH","IL","60482 - 2002","POINT (-87.797389 41.686113)"
"21003558","OG TOBACCO, INC.","TOBACCO TAX / OTP FLOOR TAX","11300 S HARLEM AVE",,"WORTH","IL","60482 - 2002","POINT (-87.797389 41.686113)"
"11105611","OLD CHICAGO TOBACCO OUTLET","TOBACCO TAX / CIGARETTE FLOOR TAX","4300 N. HARLEM AVE",,"HARWOOD HEIGHTS","IL","60706","POINT (-87.807246 41.958333)"
"11105611","OLD CHICAGO TOBACCO OUTLET","TOBACCO TAX / WHOLESALER QUARTERLY","4300 N. HARLEM AVE",,"HARWOOD HEIGHTS","IL","60706","POINT (-87.807246 41.958333)"
"11105611","OLD CHICAGO TOBACCO OUTLET","TOBACCO TAX / WHOLESALER","4300 N. HARLEM AVE",,"HARWOOD HEIGHTS","IL","60706","POINT (-87.807246 41.958333)"
"21003951","OSHO BUSINESS GROUP INC.","TOBACCO TAX / OTP FLOOR TAX","3164 175TH ST",,"HAZEL CREST","IL","60429 - 1648","POINT (-87.693853 41.571803)"
"21003951","OSHO BUSINESS GROUP INC.","TOBACCO TAX / CIGARETTE FLOOR TAX","3164 175TH ST",,"HAZEL CREST","IL","60429 - 1648","POINT (-87.693853 41.571803)"
"10836121","PAK DISCOUNT, INC.","TOBACCO TAX / CIGARETTE FLOOR TAX","9414 MARION AVE",,"MORTON GROVE","IL","60053 - 1258","POINT (-87.804673 42.052179)"
"10836121","PAK DISCOUNT, INC.","TOBACCO TAX / WHOLESALER QUARTERLY","9414 MARION AVE",,"MORTON GROVE","IL","60053 - 1258","POINT (-87.804673 42.052179)"
"10836121","PAK DISCOUNT, INC.","TOBACCO TAX / WHOLESALER","9414 MARION AVE",,"MORTON GROVE","IL","60053 - 1258","POINT (-87.804673 42.052179)"
"11128256","PALMS MARKET","TOBACCO TAX / OTP FLOOR TAX","9161 N. MILWAUKEE AVE",,"NILES","IL","60714","POINT (-87.831961 42.047166)"
"11128256","PALMS MARKET","TOBACCO TAX / CIGARETTE FLOOR TAX","9161 N. MILWAUKEE AVE",,"NILES","IL","60714","POINT (-87.831961 42.047166)"
"10836174","PENROD PREMIUM CONSIGNMENT CIGARS LTD.","TOBACCO TAX / WHOLESALER","600 S. DEARBORN ST., SUITE 807",,"CHICAGO","IL","60605","POINT (-87.629187 41.874392)"
"10836174","PENROD PREMIUM CONSIGNMENT CIGARS LTD.","TOBACCO TAX / CIGARETTE FLOOR TAX","600 S. DEARBORN ST., SUITE 807",,"CHICAGO","IL","60605","POINT (-87.629187 41.874392)"
"10836174","PENROD PREMIUM CONSIGNMENT CIGARS LTD.","TOBACCO TAX / WHOLESALER QUARTERLY","600 S. DEARBORN ST., SUITE 807",,"CHICAGO","IL","60605","POINT (-87.629187 41.874392)"
"10793655","PEYTON'S NORTHERN","TOBACCO TAX / WHOLESALER","1111 S. ADAMS STREET",,"BLUFFTON","IN","46714","POINT (-85.203169 40.727745)"
"10793655","PEYTON'S NORTHERN","TOBACCO TAX / CIGARETTE STAMPS","1111 S. ADAMS STREET",,"BLUFFTON","IN","46714","POINT (-85.203169 40.727745)"
"10793655","PEYTON'S NORTHERN","TOBACCO TAX / CIGARETTE FLOOR TAX","1111 S. ADAMS STREET",,"BLUFFTON","IN","46714","POINT (-85.203169 40.727745)"
"10793655","PEYTON'S NORTHERN","TOBACCO TAX / WHOLESALER QUARTERLY","1111 S. ADAMS STREET",,"BLUFFTON","IN","46714","POINT (-85.203169 40.727745)"
"21003939","PINEAPPLE & CO","TOBACCO TAX / CIGARETTE FLOOR TAX","7929 W CERMAK RD STE A",,"RIVERSIDE","IL","60546 - 1379","POINT (-87.822377 41.850007)"
"21003939","PINEAPPLE & CO","TOBACCO TAX / OTP FLOOR TAX","7929 W CERMAK RD STE A",,"RIVERSIDE","IL","60546 - 1379","POINT (-87.822377 41.850007)"
"11128254","PIPER SMOKE SHOP LLC","TOBACCO TAX / CIGARETTE FLOOR TAX","2416 MANNHEIM RD",,"FRANKLIN PARK","IL","60131","POINT (-87.88445 41.922674)"
"11128254","PIPER SMOKE SHOP LLC","TOBACCO TAX / WHOLESALER","2416 MANNHEIM RD",,"FRANKLIN PARK","IL","60131","POINT (-87.88445 41.922674)"
"11128254","PIPER SMOKE SHOP LLC","TOBACCO TAX / WHOLESALER QUARTERLY","2416 MANNHEIM RD",,"FRANKLIN PARK","IL","60131","POINT (-87.88445 41.922674)"
"11128151","PLATINUM CASH & CARRY INC","TOBACCO TAX / WHOLESALER","10137 S. HARLEM AVE STE A",,"CHICAGO RIDGE","IL","60415","POINT (-87.79809 41.707197)"
"11128151","PLATINUM CASH & CARRY INC","TOBACCO TAX / WHOLESALER QUARTERLY","10137 S. HARLEM AVE STE A",,"CHICAGO RIDGE","IL","60415","POINT (-87.79809 41.707197)"
"11128151","PLATINUM CASH & CARRY INC","TOBACCO TAX / CIGARETTE FLOOR TAX","10137 S. HARLEM AVE STE A",,"CHICAGO RIDGE","IL","60415","POINT (-87.79809 41.707197)"
"10838020","PREMIUM MOLASSES INC.","TOBACCO TAX / CIGARETTE FLOOR TAX","1236 W. CAPITOL DR",,"ADDISON","IL","60101","POINT (-88.023184 41.923316)"
"10838020","PREMIUM MOLASSES INC.","TOBACCO TAX / WHOLESALER","1236 W. CAPITOL DR",,"ADDISON","IL","60101","POINT (-88.023184 41.923316)"
"10838020","PREMIUM MOLASSES INC.","TOBACCO TAX / WHOLESALER QUARTERLY","1236 W. CAPITOL DR",,"ADDISON","IL","60101","POINT (-88.023184 41.923316)"
"21003831","PREVISION GOLF VENTURES, LLC","TOBACCO TAX / CIGARETTE FLOOR TAX","2136 W 175TH ST.",,"HOMEWOOD","IL","60430",
"21003831","PREVISION GOLF VENTURES, LLC","TOBACCO TAX / OTP FLOOR TAX","2136 W 175TH ST.",,"HOMEWOOD","IL","60430",
"11116354","PRIME SHISHA WHOLESALE INC","TOBACCO TAX / CIGARETTE FLOOR TAX","6135 S. NOTTINGHAM AVE",,"CHICAGO","IL","60638","POINT (-87.798523 41.779589)"
"11116354","PRIME SHISHA WHOLESALE INC","TOBACCO TAX / WHOLESALER QUARTERLY","6135 S. NOTTINGHAM AVE",,"CHICAGO","IL","60638","POINT (-87.798523 41.779589)"
"11116354","PRIME SHISHA WHOLESALE INC","TOBACCO TAX / WHOLESALER","6135 S. NOTTINGHAM AVE",,"CHICAGO","IL","60638","POINT (-87.798523 41.779589)"
"21003548","PRIVILEGE MOBILE CIGARS LLC","TOBACCO TAX / WHOLESALER QUARTERLY","18422 SCHOOL ST",,"LANSING","IL","60438 - 2916","POINT (-87.548997 41.560467)"
"21003548","PRIVILEGE MOBILE CIGARS LLC","TOBACCO TAX / CIGARETTE FLOOR TAX","18422 SCHOOL ST",,"LANSING","IL","60438 - 2916","POINT (-87.548997 41.560467)"
"21003548","PRIVILEGE MOBILE CIGARS LLC","TOBACCO TAX / WHOLESALER","18422 SCHOOL ST",,"LANSING","IL","60438 - 2916","POINT (-87.548997 41.560467)"
"21004228","PUFF BROS INC.","TOBACCO TAX / CIGARETTE FLOOR TAX","710 E NORTHWEST HWY",,"MOUNT PROSPECT","IL","60056 - 3442","POINT (-87.927078 42.059172)"
"21004228","PUFF BROS INC.","TOBACCO TAX / OTP FLOOR TAX","710 E NORTHWEST HWY",,"MOUNT PROSPECT","IL","60056 - 3442","POINT (-87.927078 42.059172)"
"11106229","RALPH'S CIGARS","TOBACCO TAX / WHOLESALER","1154 W. TAYLOR ST",,"CHICAGO","IL","60607","POINT (-87.655798 41.869456)"
"11106229","RALPH'S CIGARS","TOBACCO TAX / WHOLESALER QUARTERLY","1154 W. TAYLOR ST",,"CHICAGO","IL","60607","POINT (-87.655798 41.869456)"
"11106229","RALPH'S CIGARS","TOBACCO TAX / CIGARETTE FLOOR TAX","1154 W. TAYLOR ST",,"CHICAGO","IL","60607","POINT (-87.655798 41.869456)"
"10836073","RAND WHOLESALE, INC.","TOBACCO TAX / WHOLESALER","908 CENTRAL AVE",,"WOOD DALE","IL","60191",
"10836073","RAND WHOLESALE, INC.","TOBACCO TAX / CIGARETTE FLOOR TAX","908 CENTRAL AVE",,"WOOD DALE","IL","60191",
"10836073","RAND WHOLESALE, INC.","TOBACCO TAX / WHOLESALER QUARTERLY","908 CENTRAL AVE",,"WOOD DALE","IL","60191",
"10836168","REPUBLIC BRANDS L.P.","TOBACCO TAX / WHOLESALER QUARTERLY","2301 RAVINE WAY",,"GLENVIEW","IL","60025","POINT (-87.813782 42.098177)"
"10836168","REPUBLIC BRANDS L.P.","TOBACCO TAX / WHOLESALER","2301 RAVINE WAY",,"GLENVIEW","IL","60025","POINT (-87.813782 42.098177)"
"10836168","REPUBLIC BRANDS L.P.","TOBACCO TAX / CIGARETTE FLOOR TAX","2301 RAVINE WAY",,"GLENVIEW","IL","60025","POINT (-87.813782 42.098177)"
"11104952","RIDGE WAY TRADING","TOBACCO TAX / WHOLESALER","3737 W. LAWRENCE AVE, STE. B",,"CHICAGO","IL","60625","POINT (-87.722078 41.968325)"
"11104952","RIDGE WAY TRADING","TOBACCO TAX / CIGARETTE FLOOR TAX","3737 W. LAWRENCE AVE, STE. B",,"CHICAGO","IL","60625","POINT (-87.722078 41.968325)"
"11104952","RIDGE WAY TRADING","TOBACCO TAX / WHOLESALER QUARTERLY","3737 W. LAWRENCE AVE, STE. B",,"CHICAGO","IL","60625","POINT (-87.722078 41.968325)"
"10839456","R.J. REYNOLDS TOBACCO CO.","TOBACCO TAX / WHOLESALER QUARTERLY","401 N. MAIN STREET",,"WINSTON-SALEM","NC","27101","POINT (-80.244226 36.099281)"
"10839456","R.J. REYNOLDS TOBACCO CO.","TOBACCO TAX / CIGARETTE FLOOR TAX","401 N. MAIN STREET",,"WINSTON-SALEM","NC","27101","POINT (-80.244226 36.099281)"
"10839456","R.J. REYNOLDS TOBACCO CO.","TOBACCO TAX / WHOLESALER","401 N. MAIN STREET",,"WINSTON-SALEM","NC","27101","POINT (-80.244226 36.099281)"
"11125828","RJR VAPOR CO LLC","TOBACCO TAX / CIGARETTE FLOOR TAX","401 N. MAIN STREET",,"WINSTON SALEM","NC","27101","POINT (-80.244226 36.099281)"
"11125828","RJR VAPOR CO LLC","TOBACCO TAX / OTP FLOOR TAX","401 N. MAIN STREET",,"WINSTON SALEM","NC","27101","POINT (-80.244226 36.099281)"
"11128042","RK WHOLESALE INC.","TOBACCO TAX / WHOLESALER QUARTERLY","5002 CHASE AVENUE",,"DOWNERS GROVE","IL","60515","POINT (-88.040509 41.794422)"
"11128042","RK WHOLESALE INC.","TOBACCO TAX / CIGARETTE FLOOR TAX","5002 CHASE AVENUE",,"DOWNERS GROVE","IL","60515","POINT (-88.040509 41.794422)"
"11114774","ROOTS SMOKE & VAPER LLC","TOBACCO TAX / OTP FLOOR TAX","2626 N. MILWAUKEE AVE",,"CHICAGO","IL","60647","POINT (-87.708115 41.929514)"
"11114774","ROOTS SMOKE & VAPER LLC","TOBACCO TAX / CIGARETTE FLOOR TAX","2626 N. MILWAUKEE AVE",,"CHICAGO","IL","60647","POINT (-87.708115 41.929514)"
"10793636","S. ABRAHAM & SONS, INC.","TOBACCO TAX / WHOLESALER","4001 3 MILE NW RD",,"GRAN RAPIDS","MI","49534","POINT (-85.770533 43.015965)"
"10793636","S. ABRAHAM & SONS, INC.","TOBACCO TAX / CIGARETTE FLOOR TAX","4001 3 MILE NW RD",,"GRAN RAPIDS","MI","49534","POINT (-85.770533 43.015965)"
"10793636","S. ABRAHAM & SONS, INC.","TOBACCO TAX / CIGARETTE STAMPS","4001 3 MILE NW RD",,"GRAN RAPIDS","MI","49534","POINT (-85.770533 43.015965)"
"10793636","S. ABRAHAM & SONS, INC.","TOBACCO TAX / WHOLESALER QUARTERLY","4001 3 MILE NW RD",,"GRAN RAPIDS","MI","49534","POINT (-85.770533 43.015965)"
"21003610","SALEH WIRELESS, INC.","TOBACCO TAX / CIGARETTE FLOOR TAX","9001 MEADE AVE",,"OAK LAWN","IL","60453 - 1568","POINT (-87.772889 41.72848)"
"21003610","SALEH WIRELESS, INC.","TOBACCO TAX / WHOLESALER QUARTERLY","9001 MEADE AVE",,"OAK LAWN","IL","60453 - 1568","POINT (-87.772889 41.72848)"
"21003610","SALEH WIRELESS, INC.","TOBACCO TAX / WHOLESALER","9001 MEADE AVE",,"OAK LAWN","IL","60453 - 1568","POINT (-87.772889 41.72848)"
"10836181","SAM'S WEST, INC.","TOBACCO TAX / WHOLESALER QUARTERLY","2450 MAIN STREET","MS-0555","EVANSTON","IL","60202","POINT (-87.707509 42.033663)"
"10836177","SAM'S WEST, INC.","TOBACCO TAX / WHOLESALER","2601 S. CICERO AVE","MS-0555","CICERO","IL","60804","POINT (-87.743854 41.842864)"
"10836181","SAM'S WEST, INC.","TOBACCO TAX / WHOLESALER","2450 MAIN STREET","MS-0555","EVANSTON","IL","60202","POINT (-87.707509 42.033663)"
"10836182","SAM'S WEST, INC.","TOBACCO TAX / CIGARETTE FLOOR TAX","101 W. OAKTON STREET","MS-0555","DES PLAINES","IL","60018","POINT (-87.922641 42.022855)"
"10836180","SAM'S WEST, INC.","TOBACCO TAX / WHOLESALER","9500 JOLIET ROAD","MS-0555","HODGKINS","IL","60525","POINT (-87.867842 41.778716)"
"10836182","SAM'S WEST, INC.","TOBACCO TAX / WHOLESALER QUARTERLY","101 W. OAKTON STREET","MS-0555","DES PLAINES","IL","60018","POINT (-87.922641 42.022855)"
"10836181","SAM'S WEST, INC.","TOBACCO TAX / CIGARETTE FLOOR TAX","2450 MAIN STREET","MS-0555","EVANSTON","IL","60202","POINT (-87.707509 42.033663)"
"10836177","SAM'S WEST, INC.","TOBACCO TAX / CIGARETTE FLOOR TAX","2601 S. CICERO AVE","MS-0555","CICERO","IL","60804","POINT (-87.743854 41.842864)"
"10836178","SAM'S WEST, INC.","TOBACCO TAX / WHOLESALER QUARTERLY","9400 S. WESTERN AVE","MS-0555","EVERGREEN PARK","IL","60805","POINT (-87.682203 41.722824)"
"10836193","SAM'S WEST, INC.","TOBACCO TAX / WHOLESALER","603 RIVER OAKS W","MS-0555","CALUMET CITY","IL","60409","POINT (-87.552938 41.598568)"
"10836180","SAM'S WEST, INC.","TOBACCO TAX / WHOLESALER QUARTERLY","9500 JOLIET ROAD","MS-0555","HODGKINS","IL","60525","POINT (-87.867842 41.778716)"
"10836183","SAM'S WEST, INC.","TOBACCO TAX / WHOLESALER QUARTERLY","16100 HARLEM AVE","MS-0555","TINLEY PARK","IL","60477","POINT (-87.794154 41.598547)"
"10836182","SAM'S WEST, INC.","TOBACCO TAX / WHOLESALER","101 W. OAKTON STREET","MS-0555","DES PLAINES","IL","60018","POINT (-87.922641 42.022855)"
"10836183","SAM'S WEST, INC.","TOBACCO TAX / WHOLESALER","16100 HARLEM AVE","MS-0555","TINLEY PARK","IL","60477","POINT (-87.794154 41.598547)"
"10836193","SAM'S WEST, INC.","TOBACCO TAX / CIGARETTE FLOOR TAX","603 RIVER OAKS W","MS-0555","CALUMET CITY","IL","60409","POINT (-87.552938 41.598568)"
"10836183","SAM'S WEST, INC.","TOBACCO TAX / CIGARETTE FLOOR TAX","16100 HARLEM AVE","MS-0555","TINLEY PARK","IL","60477","POINT (-87.794154 41.598547)"
"10836179","SAM'S WEST, INC.","TOBACCO TAX / CIGARETTE FLOOR TAX","141 W. NORTH AVE","MS-0555","NORTHLAKE","IL","60164","POINT (-87.907059 41.906987)"
"10836193","SAM'S WEST, INC.","TOBACCO TAX / WHOLESALER QUARTERLY","603 RIVER OAKS W","MS-0555","CALUMET CITY","IL","60409","POINT (-87.552938 41.598568)"
"10836180","SAM'S WEST, INC.","TOBACCO TAX / CIGARETTE FLOOR TAX","9500 JOLIET ROAD","MS-0555","HODGKINS","IL","60525","POINT (-87.867842 41.778716)"
"10836178","SAM'S WEST, INC.","TOBACCO TAX / WHOLESALER","9400 S. WESTERN AVE","MS-0555","EVERGREEN PARK","IL","60805","POINT (-87.682203 41.722824)"
"10836178","SAM'S WEST, INC.","TOBACCO TAX / CIGARETTE FLOOR TAX","9400 S. WESTERN AVE","MS-0555","EVERGREEN PARK","IL","60805","POINT (-87.682203 41.722824)"
"10836177","SAM'S WEST, INC.","TOBACCO TAX / WHOLESALER QUARTERLY","2601 S. CICERO AVE","MS-0555","CICERO","IL","60804","POINT (-87.743854 41.842864)"
"10836179","SAM'S WEST, INC.","TOBACCO TAX / WHOLESALER QUARTERLY","141 W. NORTH AVE","MS-0555","NORTHLAKE","IL","60164","POINT (-87.907059 41.906987)"
"10836179","SAM'S WEST, INC.","TOBACCO TAX / WHOLESALER","141 W. NORTH AVE","MS-0555","NORTHLAKE","IL","60164","POINT (-87.907059 41.906987)"
"11119378","S A M WHOLESALE","TOBACCO TAX / WHOLESALER","PO BOX 496",,"SALAMANCA","NY","14779",
"11119378","S A M WHOLESALE","TOBACCO TAX / WHOLESALER QUARTERLY","PO BOX 496",,"SALAMANCA","NY","14779",
"11119378","S A M WHOLESALE","TOBACCO TAX / CIGARETTE FLOOR TAX","PO BOX 496",,"SALAMANCA","NY","14779",
"10839452","SANTA FE NATURAL TOBACCO CO","TOBACCO TAX / CIGARETTE FLOOR TAX","3220 KNOTTS GROVE ROAD",,"OXFORD","NC","27565","POINT (-78.596597 36.276562)"
"10839452","SANTA FE NATURAL TOBACCO CO","TOBACCO TAX / WHOLESALER QUARTERLY","3220 KNOTTS GROVE ROAD",,"OXFORD","NC","27565","POINT (-78.596597 36.276562)"
"10839452","SANTA FE NATURAL TOBACCO CO","TOBACCO TAX / WHOLESALER","3220 KNOTTS GROVE ROAD",,"OXFORD","NC","27565","POINT (-78.596597 36.276562)"
"10850316","SHISHA WORLD INC.","TOBACCO TAX / WHOLESALER QUARTERLY","1236 W. CAPITOL DR.",,"ADDISON","IL","60101","POINT (-88.023184 41.923316)"
"10850316","SHISHA WORLD INC.","TOBACCO TAX / CIGARETTE FLOOR TAX","1236 W. CAPITOL DR.",,"ADDISON","IL","60101","POINT (-88.023184 41.923316)"
"10850316","SHISHA WORLD INC.","TOBACCO TAX / WHOLESALER","1236 W. CAPITOL DR.",,"ADDISON","IL","60101","POINT (-88.023184 41.923316)"
"21003676","SHIVAM1991 LLC","TOBACCO TAX / CIGARETTE FLOOR TAX","7182 DEMPSTER ST",,"MORTON GROVE","IL","60053 - 2053","POINT (-87.805749 42.04086)"
"21003676","SHIVAM1991 LLC","TOBACCO TAX / OTP FLOOR TAX","7182 DEMPSTER ST",,"MORTON GROVE","IL","60053 - 2053","POINT (-87.805749 42.04086)"
"11128215","SINFUL LEM'S CIGAR LOUNGE","TOBACCO TAX / CIGARETTE FLOOR TAX","47 WEST 95TH STREET",,"CHICAGO","IL","60628","POINT (-87.625629 41.721621)"
"11128215","SINFUL LEM'S CIGAR LOUNGE","TOBACCO TAX / OTP FLOOR TAX","47 WEST 95TH STREET",,"CHICAGO","IL","60628","POINT (-87.625629 41.721621)"
"11100381","SKOKIE CASH & CARRY","TOBACCO TAX / WHOLESALER QUARTERLY","3464 TOUHY AVE",,"SKOKIE","IL","60076","POINT (-87.716015 42.011782)"
"11100381","SKOKIE CASH & CARRY","TOBACCO TAX / WHOLESALER","3464 TOUHY AVE",,"SKOKIE","IL","60076","POINT (-87.716015 42.011782)"
"11100381","SKOKIE CASH & CARRY","TOBACCO TAX / CIGARETTE FLOOR TAX","3464 TOUHY AVE",,"SKOKIE","IL","60076","POINT (-87.716015 42.011782)"
"11128081","SMOKEBUNNYWHOLESALE, INC.","TOBACCO TAX / CIGARETTE FLOOR TAX","8365 W. MAYNARD ROAD",,"NILES","IL","60714","POINT (-87.836634 42.058439)"
"11128081","SMOKEBUNNYWHOLESALE, INC.","TOBACCO TAX / WHOLESALER QUARTERLY","8365 W. MAYNARD ROAD",,"NILES","IL","60714","POINT (-87.836634 42.058439)"
"11128081","SMOKEBUNNYWHOLESALE, INC.","TOBACCO TAX / WHOLESALER","8365 W. MAYNARD ROAD",,"NILES","IL","60714","POINT (-87.836634 42.058439)"
"11127843","SMOKE DEPOT CHHICAGO INC.","TOBACCO TAX / OTP FLOOR TAX","1646 N. MILWAUKEE AVE",,"CHICAGO","IL","60647","POINT (-87.678909 41.911324)"
"11127843","SMOKE DEPOT CHHICAGO INC.","TOBACCO TAX / CIGARETTE FLOOR TAX","1646 N. MILWAUKEE AVE",,"CHICAGO","IL","60647","POINT (-87.678909 41.911324)"
"11126981","SMOKE DEPOT HARWOOD HEIGHTS INC.","TOBACCO TAX / OTP FLOOR TAX","5124 N. HARLEM AVE",,"HARWOOD HEIGHT","IL","60706","POINT (-87.807085 41.973538)"
"11126981","SMOKE DEPOT HARWOOD HEIGHTS INC.","TOBACCO TAX / CIGARETTE FLOOR TAX","5124 N. HARLEM AVE",,"HARWOOD HEIGHT","IL","60706","POINT (-87.807085 41.973538)"
"11126982","SMOKE DEPOT MT. PROSPECT INC.","TOBACCO TAX / CIGARETTE FLOOR TAX","1 W. RAND ROAD",,"MT. PROSPECT","IL","60056","POINT (-87.93693 42.081341)"
"11126982","SMOKE DEPOT MT. PROSPECT INC.","TOBACCO TAX / OTP FLOOR TAX","1 W. RAND ROAD",,"MT. PROSPECT","IL","60056","POINT (-87.93693 42.081341)"
"21004149","SMOKE DR. LLC","TOBACCO TAX / OTP FLOOR TAX","10354 W ROOSEVELT RD",,"WESTCHESTER","IL","60154 - 2521","POINT (-87.880455 41.863383)"
"21004149","SMOKE DR. LLC","TOBACCO TAX / CIGARETTE FLOOR TAX","10354 W ROOSEVELT RD",,"WESTCHESTER","IL","60154 - 2521","POINT (-87.880455 41.863383)"
"21003720","SMOKE & GO LLC","TOBACCO TAX / OTP FLOOR TAX","4828 N CUMBERLAND AVE STE B",,"NORRIDGE","IL","60706 - 2914","POINT (-87.836765 41.968008)"
"21003720","SMOKE & GO LLC","TOBACCO TAX / CIGARETTE FLOOR TAX","4828 N CUMBERLAND AVE STE B",,"NORRIDGE","IL","60706 - 2914","POINT (-87.836765 41.968008)"
"11128071","SMOKE PLUS VAPE INC.","TOBACCO TAX / CIGARETTE FLOOR TAX","5647 W. DIVERSEY",,"CHICAGO","IL","60639","POINT (-87.767979 41.931255)"
"11128071","SMOKE PLUS VAPE INC.","TOBACCO TAX / OTP FLOOR TAX","5647 W. DIVERSEY",,"CHICAGO","IL","60639","POINT (-87.767979 41.931255)"
"11128035","SMOKE SHOWIN' CIGARS, LLC","TOBACCO TAX / CIGARETTE FLOOR TAX","2802 KAMA AVE, BLDG 1",,"MCHENRY","IL","60050","POINT (-88.251274 42.362322)"
"11128035","SMOKE SHOWIN' CIGARS, LLC","TOBACCO TAX / WHOLESALER","2802 KAMA AVE, BLDG 1",,"MCHENRY","IL","60050","POINT (-88.251274 42.362322)"
"11128035","SMOKE SHOWIN' CIGARS, LLC","TOBACCO TAX / WHOLESALER QUARTERLY","2802 KAMA AVE, BLDG 1",,"MCHENRY","IL","60050","POINT (-88.251274 42.362322)"
"11127110","SMOKES & SUCH LLC","TOBACCO TAX / OTP FLOOR TAX","3439 DEMPSTER",,"SKOKIE","IL","60076","POINT (-87.714772 42.040893)"
"11127110","SMOKES & SUCH LLC","TOBACCO TAX / CIGARETTE FLOOR TAX","3439 DEMPSTER",,"SKOKIE","IL","60076","POINT (-87.714772 42.040893)"
"11127770","SMOKE STATION INC.","TOBACCO TAX / CIGARETTE FLOOR TAX","2627 N. KEDZIE AVE",,"CHICAGO","IL","60647","POINT (-87.707298 41.92932)"
"11127770","SMOKE STATION INC.","TOBACCO TAX / OTP FLOOR TAX","2627 N. KEDZIE AVE",,"CHICAGO","IL","60647","POINT (-87.707298 41.92932)"
"11114585","SMOKE & VAPE INC.","TOBACCO TAX / OTP FLOOR TAX","8526 W. GOLF RD, UNIT P",,"NILES","IL","60714","POINT (-87.837696 42.054669)"
"11114585","SMOKE & VAPE INC.","TOBACCO TAX / CIGARETTE FLOOR TAX","8526 W. GOLF RD, UNIT P",,"NILES","IL","60714","POINT (-87.837696 42.054669)"
"11128240","SMOKEY BEAR OF EVERGREEN INC","TOBACCO TAX / WHOLESALER","8701 S. KEDZIE AVE",,"EVERGREEN PARK","IL","60805","POINT (-87.702135 41.734841)"
"11128240","SMOKEY BEAR OF EVERGREEN INC","TOBACCO TAX / OTP FLOOR TAX","8701 S. KEDZIE AVE",,"EVERGREEN PARK","IL","60805","POINT (-87.702135 41.734841)"
"11128240","SMOKEY BEAR OF EVERGREEN INC","TOBACCO TAX / CIGARETTE FLOOR TAX","8701 S. KEDZIE AVE",,"EVERGREEN PARK","IL","60805","POINT (-87.702135 41.734841)"
"11128240","SMOKEY BEAR OF EVERGREEN INC","TOBACCO TAX / WHOLESALER QUARTERLY","8701 S. KEDZIE AVE",,"EVERGREEN PARK","IL","60805","POINT (-87.702135 41.734841)"
"21003646","SMOKIN ACES CIGARS, LLC","TOBACCO TAX / CIGARETTE FLOOR TAX","2015 FAIRVIEW LN",,"SOUTH HOLLAND","IL","60473 - 3778","POINT (-87.567891 41.580399)"
"21003646","SMOKIN ACES CIGARS, LLC","TOBACCO TAX / OTP FLOOR TAX","2015 FAIRVIEW LN",,"SOUTH HOLLAND","IL","60473 - 3778","POINT (-87.567891 41.580399)"
"11114830","SMOQUE VAPOURS","TOBACCO TAX / CIGARETTE FLOOR TAX","537 S. DEARBORN",,"CHICAGO","IL","60605","POINT (-87.629212 41.875161)"
"11114830","SMOQUE VAPOURS","TOBACCO TAX / OTP FLOOR TAX","537 S. DEARBORN",,"CHICAGO","IL","60605","POINT (-87.629212 41.875161)"
"11113841","SOLID GOLD UNLIMITED INC.","TOBACCO TAX / WHOLESALER","7230 W. 90TH PLACE",,"BRIDGEVIEW","IL","60455","POINT (-87.800658 41.727128)"
"11113841","SOLID GOLD UNLIMITED INC.","TOBACCO TAX / CIGARETTE FLOOR TAX","7230 W. 90TH PLACE",,"BRIDGEVIEW","IL","60455","POINT (-87.800658 41.727128)"
"11113841","SOLID GOLD UNLIMITED INC.","TOBACCO TAX / WHOLESALER QUARTERLY","7230 W. 90TH PLACE",,"BRIDGEVIEW","IL","60455","POINT (-87.800658 41.727128)"
"10836775","SOUTHLAND TRADE CORP.","TOBACCO TAX / CIGARETTE FLOOR TAX","4904 N. MOODY AVE",,"CHICAGO","IL","60630","POINT (-87.781942 41.97042)"
"10836775","SOUTHLAND TRADE CORP.","TOBACCO TAX / WHOLESALER","4904 N. MOODY AVE",,"CHICAGO","IL","60630","POINT (-87.781942 41.97042)"
"10836775","SOUTHLAND TRADE CORP.","TOBACCO TAX / WHOLESALER QUARTERLY","4904 N. MOODY AVE",,"CHICAGO","IL","60630","POINT (-87.781942 41.97042)"
"21003699","ST. GEORGE PETRO LLC","TOBACCO TAX / OTP FLOOR TAX","2 E LAKE ST",,"NORTHLAKE","IL","60164 - 2418","POINT (-87.902824 41.90178)"
"21003699","ST. GEORGE PETRO LLC","TOBACCO TAX / CIGARETTE FLOOR TAX","2 E LAKE ST",,"NORTHLAKE","IL","60164 - 2418","POINT (-87.902824 41.90178)"
"11128265","STRICTLY E-CIG","TOBACCO TAX / CIGARETTE FLOOR TAX","202 BOURNE BLVD. #180",,"SAVANNAH","GA","31408","POINT (-81.221957 32.117799)"
"11128265","STRICTLY E-CIG","TOBACCO TAX / WHOLESALER QUARTERLY","202 BOURNE BLVD. #180",,"SAVANNAH","GA","31408","POINT (-81.221957 32.117799)"
"11128265","STRICTLY E-CIG","TOBACCO TAX / WHOLESALER","202 BOURNE BLVD. #180",,"SAVANNAH","GA","31408","POINT (-81.221957 32.117799)"
"11105540","SUBURBAN CASH AND CARRY INC","TOBACCO TAX / CIGARETTE FLOOR TAX","470 MISSION ST., UNIT 7",,"CAROL STREAM","IL","60188","POINT (-88.103951 41.925555)"
"11105540","SUBURBAN CASH AND CARRY INC","TOBACCO TAX / WHOLESALER","470 MISSION ST., UNIT 7",,"CAROL STREAM","IL","60188","POINT (-88.103951 41.925555)"
"11105540","SUBURBAN CASH AND CARRY INC","TOBACCO TAX / WHOLESALER QUARTERLY","470 MISSION ST., UNIT 7",,"CAROL STREAM","IL","60188","POINT (-88.103951 41.925555)"
"11127963","SUPER FOOD SERVICES #067","TOBACCO TAX / CIGARETTE FLOOR TAX","4228 S. 72ND STREET",,"OMAHA","NE","68127","POINT (-96.023948 41.216853)"
"11127963","SUPER FOOD SERVICES #067","TOBACCO TAX / WHOLESALER QUARTERLY","4228 S. 72ND STREET",,"OMAHA","NE","68127","POINT (-96.023948 41.216853)"
"11127963","SUPER FOOD SERVICES #067","TOBACCO TAX / CIGARETTE STAMPS","4228 S. 72ND STREET",,"OMAHA","NE","68127","POINT (-96.023948 41.216853)"
"11127963","SUPER FOOD SERVICES #067","TOBACCO TAX / WHOLESALER","4228 S. 72ND STREET",,"OMAHA","NE","68127","POINT (-96.023948 41.216853)"
"10842594","SUPER FOOD SERVICES, INC. #071","TOBACCO TAX / CIGARETTE FLOOR TAX","4067 CO RD 130","5TH FLOOR","BELLETONTAINE","OH","43311","POINT (-83.799773 40.408363)"
"10842594","SUPER FOOD SERVICES, INC. #071","TOBACCO TAX / WHOLESALER QUARTERLY","4067 CO RD 130","5TH FLOOR","BELLETONTAINE","OH","43311","POINT (-83.799773 40.408363)"
"10842594","SUPER FOOD SERVICES, INC. #071","TOBACCO TAX / WHOLESALER","4067 CO RD 130","5TH FLOOR","BELLETONTAINE","OH","43311","POINT (-83.799773 40.408363)"
"10793646","SUPERVALU, INC.","TOBACCO TAX / CIGARETTE FLOOR TAX","2611 N. LINCOLN AVE",,"URBANA","IL","61802","POINT (-88.219992 40.140484)"
"10793646","SUPERVALU, INC.","TOBACCO TAX / CIGARETTE STAMPS","2611 N. LINCOLN AVE",,"URBANA","IL","61802","POINT (-88.219992 40.140484)"
"10793646","SUPERVALU, INC.","TOBACCO TAX / WHOLESALER","2611 N. LINCOLN AVE",,"URBANA","IL","61802","POINT (-88.219992 40.140484)"
"10793646","SUPERVALU, INC.","TOBACCO TAX / WHOLESALER QUARTERLY","2611 N. LINCOLN AVE",,"URBANA","IL","61802","POINT (-88.219992 40.140484)"
"11110243","SW CHICAGO WHOLESALE INC","TOBACCO TAX / WHOLESALER","22829 S MUSTANG RD STE E",,"FRANKFORT","IL","60423 - 2562","POINT (-87.839767 41.473866)"
"11110243","SW CHICAGO WHOLESALE INC","TOBACCO TAX / CIGARETTE FLOOR TAX","22829 S MUSTANG RD STE E",,"FRANKFORT","IL","60423 - 2562","POINT (-87.839767 41.473866)"
"11110243","SW CHICAGO WHOLESALE INC","TOBACCO TAX / WHOLESALER QUARTERLY","22829 S MUSTANG RD STE E",,"FRANKFORT","IL","60423 - 2562","POINT (-87.839767 41.473866)"
"10836259","SWEDISH MATCH NORTH AMERICA, INC.","TOBACCO TAX / WHOLESALER QUARTERLY","1021 E. CARY ST., STE. 1600",,"RICHMOND","VA","23219","POINT (-77.435468 37.53638)"
"10836259","SWEDISH MATCH NORTH AMERICA, INC.","TOBACCO TAX / CIGARETTE FLOOR TAX","1021 E. CARY ST., STE. 1600",,"RICHMOND","VA","23219","POINT (-77.435468 37.53638)"
"10836259","SWEDISH MATCH NORTH AMERICA, INC.","TOBACCO TAX / WHOLESALER","1021 E. CARY ST., STE. 1600",,"RICHMOND","VA","23219","POINT (-77.435468 37.53638)"
"11114781","SWEET TOOTH CHICAGO LLC","TOBACCO TAX / OTP FLOOR TAX","2030 W. CHICAGO AVE",,"CHICAGO","IL","60622","POINT (-87.678269 41.895912)"
"11114781","SWEET TOOTH CHICAGO LLC","TOBACCO TAX / CIGARETTE FLOOR TAX","2030 W. CHICAGO AVE",,"CHICAGO","IL","60622","POINT (-87.678269 41.895912)"
"11106567","SWISHER INTERNATIONAL INC","TOBACCO TAX / CIGARETTE FLOOR TAX","P. O. BOX 2230",,"JACKSONVILLE","FL","32206",
"11106567","SWISHER INTERNATIONAL INC","TOBACCO TAX / WHOLESALER QUARTERLY","P. O. BOX 2230",,"JACKSONVILLE","FL","32206",
"11106567","SWISHER INTERNATIONAL INC","TOBACCO TAX / WHOLESALER","P. O. BOX 2230",,"JACKSONVILLE","FL","32206",
"10836140","THE CIGAR LOUNGE","TOBACCO TAX / WHOLESALER QUARTERLY","1710 E. WOODFIELD ROAD",,"SCHAUMBURG","IL","60173","POINT (-88.037536 42.043333)"
"10836140","THE CIGAR LOUNGE","TOBACCO TAX / WHOLESALER","1710 E. WOODFIELD ROAD",,"SCHAUMBURG","IL","60173","POINT (-88.037536 42.043333)"
"10836140","THE CIGAR LOUNGE","TOBACCO TAX / CIGARETTE FLOOR TAX","1710 E. WOODFIELD ROAD",,"SCHAUMBURG","IL","60173","POINT (-88.037536 42.043333)"
"11128241","THE ELECTRIC TOBACCONIST LLC","TOBACCO TAX / WHOLESALER QUARTERLY","2555 55TH STREET, STE 100",,"BOULDER","CO","80301","POINT (-105.225466 40.024192)"
"11128241","THE ELECTRIC TOBACCONIST LLC","TOBACCO TAX / OTP FLOOR TAX","2555 55TH STREET, STE 100",,"BOULDER","CO","80301","POINT (-105.225466 40.024192)"
"11128241","THE ELECTRIC TOBACCONIST LLC","TOBACCO TAX / CIGARETTE FLOOR TAX","2555 55TH STREET, STE 100",,"BOULDER","CO","80301","POINT (-105.225466 40.024192)"
"11128241","THE ELECTRIC TOBACCONIST LLC","TOBACCO TAX / WHOLESALER","2555 55TH STREET, STE 100",,"BOULDER","CO","80301","POINT (-105.225466 40.024192)"
"10793642","THE H. T. HACKNEY CO.","TOBACCO TAX / WHOLESALER","1180 58TH ST, SW",,"WYOMING","MI","49509","POINT (-85.692378 42.858864)"
"10793642","THE H. T. HACKNEY CO.","TOBACCO TAX / CIGARETTE STAMPS","1180 58TH ST, SW",,"WYOMING","MI","49509","POINT (-85.692378 42.858864)"
"10793642","THE H. T. HACKNEY CO.","TOBACCO TAX / CIGARETTE FLOOR TAX","1180 58TH ST, SW",,"WYOMING","MI","49509","POINT (-85.692378 42.858864)"
"10793642","THE H. T. HACKNEY CO.","TOBACCO TAX / WHOLESALER QUARTERLY","1180 58TH ST, SW",,"WYOMING","MI","49509","POINT (-85.692378 42.858864)"
"21003619","THE LEAF SOCIETY","TOBACCO TAX / WHOLESALER","111 W JACKSON BLVD STE 1700",,"CHICAGO","IL","60604 - 3597","POINT (-87.631213 41.878151)"
"21003619","THE LEAF SOCIETY","TOBACCO TAX / CIGARETTE FLOOR TAX","111 W JACKSON BLVD STE 1700",,"CHICAGO","IL","60604 - 3597","POINT (-87.631213 41.878151)"
"21003619","THE LEAF SOCIETY","TOBACCO TAX / WHOLESALER QUARTERLY","111 W JACKSON BLVD STE 1700",,"CHICAGO","IL","60604 - 3597","POINT (-87.631213 41.878151)"
"11128068","THE ROASTED LEAF COFFEE AND CIGAR CAFE","TOBACCO TAX / OTP FLOOR TAX","5925 W. CHICAGO AVE",,"CHICAGO","IL","60651","POINT (-87.773217 41.89476)"
"11128068","THE ROASTED LEAF COFFEE AND CIGAR CAFE","TOBACCO TAX / CIGARETTE FLOOR TAX","5925 W. CHICAGO AVE",,"CHICAGO","IL","60651","POINT (-87.773217 41.89476)"
"11114934","THE VAPE HOUSE","TOBACCO TAX / CIGARETTE FLOOR TAX","371 GREYSTONE CT APT B1",,"SCHAUMBURG","IL","60193 - 2234","POINT (-88.047477 42.021681)"
"11114934","THE VAPE HOUSE","TOBACCO TAX / OTP FLOOR TAX","371 GREYSTONE CT APT B1",,"SCHAUMBURG","IL","60193 - 2234","POINT (-88.047477 42.021681)"
"11113950","T & J DISTRIBUTING LLC","TOBACCO TAX / WHOLESALER","5821 80TH STREET",,"KENOSHA","WI","53142","POINT (-87.877571 42.559219)"
"11113950","T & J DISTRIBUTING LLC","TOBACCO TAX / CIGARETTE FLOOR TAX","5821 80TH STREET",,"KENOSHA","WI","53142","POINT (-87.877571 42.559219)"
"11113950","T & J DISTRIBUTING LLC","TOBACCO TAX / WHOLESALER QUARTERLY","5821 80TH STREET",,"KENOSHA","WI","53142","POINT (-87.877571 42.559219)"
"10836155","TOBACCO CITY","TOBACCO TAX / WHOLESALER","3281 W. 115TH STREET",,"MERRIONETTE PARK","IL","60803","POINT (-87.701178 41.684255)"
"10836155","TOBACCO CITY","TOBACCO TAX / WHOLESALER QUARTERLY","3281 W. 115TH STREET",,"MERRIONETTE PARK","IL","60803","POINT (-87.701178 41.684255)"
"10836155","TOBACCO CITY","TOBACCO TAX / CIGARETTE FLOOR TAX","3281 W. 115TH STREET",,"MERRIONETTE PARK","IL","60803","POINT (-87.701178 41.684255)"
"11101203","TOBACCO DISCOUNT WHOLESALE INC","TOBACCO TAX / WHOLESALER QUARTERLY","7210 W. COLLEGE DR.",,"PALOS HEIGHTS","IL","60463","POINT (-87.797953 41.675372)"
"11101203","TOBACCO DISCOUNT WHOLESALE INC","TOBACCO TAX / CIGARETTE FLOOR TAX","7210 W. COLLEGE DR.",,"PALOS HEIGHTS","IL","60463","POINT (-87.797953 41.675372)"
"11101203","TOBACCO DISCOUNT WHOLESALE INC","TOBACCO TAX / WHOLESALER","7210 W. COLLEGE DR.",,"PALOS HEIGHTS","IL","60463","POINT (-87.797953 41.675372)"
"10836134","TOBACCO IMPORTING USA","TOBACCO TAX / WHOLESALER QUARTERLY","21060 COOLIDGE HWY.",,"OAK PARK","MI","48237","POINT (-83.181274 42.448481)"
"10836134","TOBACCO IMPORTING USA","TOBACCO TAX / CIGARETTE FLOOR TAX","21060 COOLIDGE HWY.",,"OAK PARK","MI","48237","POINT (-83.181274 42.448481)"
"10836072","TOBACCO PLUS, INC.","TOBACCO TAX / WHOLESALER QUARTERLY","4718 W. LINCOLN HWY",,"MATTESON","IL","60443","POINT (-87.730564 41.506233)"
"10836072","TOBACCO PLUS, INC.","TOBACCO TAX / CIGARETTE FLOOR TAX","4718 W. LINCOLN HWY",,"MATTESON","IL","60443","POINT (-87.730564 41.506233)"
"10836072","TOBACCO PLUS, INC.","TOBACCO TAX / WHOLESALER","4718 W. LINCOLN HWY",,"MATTESON","IL","60443","POINT (-87.730564 41.506233)"
"11114182","TOP TOBACCCO LP","TOBACCO TAX / WHOLESALER QUARTERLY","204 TOP TOBACCO RD",,"LAKE WACCAMAW","NC","28450 - 2200","POINT (-78.525247 34.326319)"
"11114182","TOP TOBACCCO LP","TOBACCO TAX / CIGARETTE FLOOR TAX","204 TOP TOBACCO RD",,"LAKE WACCAMAW","NC","28450 - 2200","POINT (-78.525247 34.326319)"
"11114182","TOP TOBACCCO LP","TOBACCO TAX / WHOLESALER","204 TOP TOBACCO RD",,"LAKE WACCAMAW","NC","28450 - 2200","POINT (-78.525247 34.326319)"
"11127920","TOWN & COUNTRY DISTRIBUTORS, INC.","TOBACCO TAX / CIGARETTE FLOOR TAX","1050 ARDMORE AVE",,"ITASCA","IL","60143","POINT (-88.028761 41.980881)"
"11128117","TRADING POST TOBACCO & CIGARS INC.","TOBACCO TAX / WHOLESALER QUARTERLY","5510 W. DEVON AVE.",,"CHICAGO","IL","60646","POINT (-87.766203 41.997345)"
"11128117","TRADING POST TOBACCO & CIGARS INC.","TOBACCO TAX / WHOLESALER","5510 W. DEVON AVE.",,"CHICAGO","IL","60646","POINT (-87.766203 41.997345)"
"11128117","TRADING POST TOBACCO & CIGARS INC.","TOBACCO TAX / CIGARETTE FLOOR TAX","5510 W. DEVON AVE.",,"CHICAGO","IL","60646","POINT (-87.766203 41.997345)"
"21003999","TROVE IL INC","TOBACCO TAX / CIGARETTE FLOOR TAX","42 E CHICAGO AVE",,"CHICAGO","IL","60611 - 2097","POINT (-87.626364 41.896703)"
"21003999","TROVE IL INC","TOBACCO TAX / OTP FLOOR TAX","42 E CHICAGO AVE",,"CHICAGO","IL","60611 - 2097","POINT (-87.626364 41.896703)"
"11127650","UNFI DISTRIBUTION COMPANY, LLC","TOBACCO TAX / WHOLESALER","501 N. MALLICK RD",,"OGLESBY","IL","61348","POINT (-89.0876 41.295281)"
"11127650","UNFI DISTRIBUTION COMPANY, LLC","TOBACCO TAX / WHOLESALER QUARTERLY","501 N. MALLICK RD",,"OGLESBY","IL","61348","POINT (-89.0876 41.295281)"
"11127650","UNFI DISTRIBUTION COMPANY, LLC","TOBACCO TAX / CIGARETTE FLOOR TAX","501 N. MALLICK RD",,"OGLESBY","IL","61348","POINT (-89.0876 41.295281)"
"10836773","UP DOWN TOBACCO SHOP","TOBACCO TAX / WHOLESALER QUARTERLY","1550 N. WELLS STREET",,"CHICAGO","IL","60610","POINT (-87.634685 41.910383)"
"10836773","UP DOWN TOBACCO SHOP","TOBACCO TAX / WHOLESALER","1550 N. WELLS STREET",,"CHICAGO","IL","60610","POINT (-87.634685 41.910383)"
"10836773","UP DOWN TOBACCO SHOP","TOBACCO TAX / CIGARETTE FLOOR TAX","1550 N. WELLS STREET",,"CHICAGO","IL","60610","POINT (-87.634685 41.910383)"
"11128213","UPSCALE SMOKES, INC","TOBACCO TAX / WHOLESALER","837 RIVERVIEW DRIVE",,"SOUTH HOLLAND","IL","60473","POINT (-87.596191 41.606555)"
"11128213","UPSCALE SMOKES, INC","TOBACCO TAX / CIGARETTE FLOOR TAX","837 RIVERVIEW DRIVE",,"SOUTH HOLLAND","IL","60473","POINT (-87.596191 41.606555)"
"11128213","UPSCALE SMOKES, INC","TOBACCO TAX / WHOLESALER QUARTERLY","837 RIVERVIEW DRIVE",,"SOUTH HOLLAND","IL","60473","POINT (-87.596191 41.606555)"
"11128037","USAPUFF LLC","TOBACCO TAX / WHOLESALER","5317 LINCOLN AVE",,"SKOKIE","IL","60077","POINT (-87.760264 42.034068)"
"11128037","USAPUFF LLC","TOBACCO TAX / CIGARETTE FLOOR TAX","5317 LINCOLN AVE",,"SKOKIE","IL","60077","POINT (-87.760264 42.034068)"
"11128037","USAPUFF LLC","TOBACCO TAX / WHOLESALER QUARTERLY","5317 LINCOLN AVE",,"SKOKIE","IL","60077","POINT (-87.760264 42.034068)"
"21004047","US SMOKELESS TOBACCO LLC","TOBACCO TAX / WHOLESALER QUARTERLY","6601 W BROAD ST",,"RICHMOND","VA","23230 - 1723","POINT (-77.515298 37.600318)"
"21004047","US SMOKELESS TOBACCO LLC","TOBACCO TAX / CIGARETTE FLOOR TAX","6601 W BROAD ST",,"RICHMOND","VA","23230 - 1723","POINT (-77.515298 37.600318)"
"21004047","US SMOKELESS TOBACCO LLC","TOBACCO TAX / WHOLESALER","6601 W BROAD ST",,"RICHMOND","VA","23230 - 1723","POINT (-77.515298 37.600318)"
"11128141","US WHOLESALE INC","TOBACCO TAX / WHOLESALER","8226 LEHIGH AVE",,"MORTON GROVE","IL","60053","POINT (-87.783652 42.031737)"
"11128141","US WHOLESALE INC","TOBACCO TAX / CIGARETTE FLOOR TAX","8226 LEHIGH AVE",,"MORTON GROVE","IL","60053","POINT (-87.783652 42.031737)"
"11128141","US WHOLESALE INC","TOBACCO TAX / WHOLESALER QUARTERLY","8226 LEHIGH AVE",,"MORTON GROVE","IL","60053","POINT (-87.783652 42.031737)"
"11127627","VAPE 101 INC.","TOBACCO TAX / OTP FLOOR TAX","3316 1/2 W. LAWRENCE AVE",,"CHICAGO","IL","60625","POINT (-87.711707 41.968436)"
"11127627","VAPE 101 INC.","TOBACCO TAX / CIGARETTE FLOOR TAX","3316 1/2 W. LAWRENCE AVE",,"CHICAGO","IL","60625","POINT (-87.711707 41.968436)"
"11126851","VAPE 312 INC.","TOBACCO TAX / CIGARETTE FLOOR TAX","9241 PARKSIDE AVE",,"MORTON GROVE","IL","60053 - 1569","POINT (-87.767596 42.049559)"
"11126851","VAPE 312 INC.","TOBACCO TAX / OTP FLOOR TAX","9241 PARKSIDE AVE",,"MORTON GROVE","IL","60053 - 1569","POINT (-87.767596 42.049559)"
"11114838","VAPE CHICAGO","TOBACCO TAX / OTP FLOOR TAX","1722 N. WESTERN AVE., UNIT B1-N",,"CHICAGO","IL","60647","POINT (-87.687338 41.912919)"
"11114838","VAPE CHICAGO","TOBACCO TAX / CIGARETTE FLOOR TAX","1722 N. WESTERN AVE., UNIT B1-N",,"CHICAGO","IL","60647","POINT (-87.687338 41.912919)"
"11114839","VAPECITY CHICAGO 2","TOBACCO TAX / CIGARETTE FLOOR TAX","1213 W. DIVERSEY PKWY",,"CHICAGO","IL","60614","POINT (-87.659314 41.932581)"
"11114839","VAPECITY CHICAGO 2","TOBACCO TAX / OTP FLOOR TAX","1213 W. DIVERSEY PKWY",,"CHICAGO","IL","60614","POINT (-87.659314 41.932581)"
"11127631","VAPE-N-JUICE INC.","TOBACCO TAX / OTP FLOOR TAX","107 E. LAKE STREET",,"BARTLETT","IL","60107","POINT (-88.183158 42.003373)"
"11127631","VAPE-N-JUICE INC.","TOBACCO TAX / CIGARETTE FLOOR TAX","107 E. LAKE STREET",,"BARTLETT","IL","60107","POINT (-88.183158 42.003373)"
"11114977","VAPERZ ENTERPRISES LLC","TOBACCO TAX / OTP FLOOR TAX","11951 S. PULASKI RD",,"ALSIP","IL","60803","POINT (-87.719641 41.675664)"
"11114977","VAPERZ ENTERPRISES LLC","TOBACCO TAX / CIGARETTE FLOOR TAX","11951 S. PULASKI RD",,"ALSIP","IL","60803","POINT (-87.719641 41.675664)"
"11114978","VAPERZ LLC","TOBACCO TAX / OTP FLOOR TAX","4537 S. HARLEM AVE",,"FOREST VIEW","IL","60402",
"11114978","VAPERZ LLC","TOBACCO TAX / CIGARETTE FLOOR TAX","4537 S. HARLEM AVE",,"FOREST VIEW","IL","60402",
"11127401","VAPERZ LLC","TOBACCO TAX / OTP FLOOR TAX","7841 W. BELMONT AVE",,"ELMWOOD PARK","IL","60707","POINT (-87.823322 41.937813)"
"11127401","VAPERZ LLC","TOBACCO TAX / CIGARETTE FLOOR TAX","7841 W. BELMONT AVE",,"ELMWOOD PARK","IL","60707","POINT (-87.823322 41.937813)"
"11128275","VAPOR AUTHORITY, INC","TOBACCO TAX / WHOLESALER QUARTERLY","9187 CLAIREMONT MESA BLVD STE 596",,"SAN DIEGO","CA","92123","POINT (-117.131478 32.831331)"
"11128275","VAPOR AUTHORITY, INC","TOBACCO TAX / WHOLESALER","9187 CLAIREMONT MESA BLVD STE 596",,"SAN DIEGO","CA","92123","POINT (-117.131478 32.831331)"
"11128275","VAPOR AUTHORITY, INC","TOBACCO TAX / CIGARETTE FLOOR TAX","9187 CLAIREMONT MESA BLVD STE 596",,"SAN DIEGO","CA","92123","POINT (-117.131478 32.831331)"
"11113836","VAPOR CABIN INC","TOBACCO TAX / CIGARETTE FLOOR TAX","11901 S. 80TH AVE",,"PALOS PARK","IL","60464","POINT (-87.816186 41.674653)"
"11113836","VAPOR CABIN INC","TOBACCO TAX / OTP FLOOR TAX","11901 S. 80TH AVE",,"PALOS PARK","IL","60464","POINT (-87.816186 41.674653)"
"11114953","VAPORTEK INC","TOBACCO TAX / CIGARETTE FLOOR TAX","2855 DUNDEE ROAD",,"NORTHBROOK","IL","60062","POINT (-87.850103 42.13828)"
"11114953","VAPORTEK INC","TOBACCO TAX / OTP FLOOR TAX","2855 DUNDEE ROAD",,"NORTHBROOK","IL","60062","POINT (-87.850103 42.13828)"
"11112835","VIMAL ENTERPRISE INC.","TOBACCO TAX / CIGARETTE FLOOR TAX","6046 N. NORTHWEST HWY",,"CHICAGO","IL","60631","POINT (-87.797219 41.991243)"
"11112835","VIMAL ENTERPRISE INC.","TOBACCO TAX / WHOLESALER","6046 N. NORTHWEST HWY",,"CHICAGO","IL","60631","POINT (-87.797219 41.991243)"
"11112835","VIMAL ENTERPRISE INC.","TOBACCO TAX / WHOLESALER QUARTERLY","6046 N. NORTHWEST HWY",,"CHICAGO","IL","60631","POINT (-87.797219 41.991243)"
"11114784","VIVA LAVAPOR COR","TOBACCO TAX / CIGARETTE FLOOR TAX","1722 KENSINGTON RD",,"MT. PROSPECT","IL","60056","POINT (-87.906403 42.080655)"
"11114784","VIVA LAVAPOR COR","TOBACCO TAX / OTP FLOOR TAX","1722 KENSINGTON RD",,"MT. PROSPECT","IL","60056","POINT (-87.906403 42.080655)"
"11127913","WAREHOUSE GOOD LLC","TOBACCO TAX / WHOLESALER","1095 BROKEN SOUND PKWY NW STE 300",,"BOCA RATON","FL","33487 - 3503","POINT (-80.110163 26.400467)"
"11127913","WAREHOUSE GOOD LLC","TOBACCO TAX / CIGARETTE FLOOR TAX","5591 COMMONWEALTH AVE",,"JACKSONVILLE","FL","32254","POINT (-81.742388 30.335999)"
"11127913","WAREHOUSE GOOD LLC","TOBACCO TAX / WHOLESALER QUARTERLY","5591 COMMONWEALTH AVE",,"JACKSONVILLE","FL","32254","POINT (-81.742388 30.335999)"
"10852953","WHATAHOOKAH.COM","TOBACCO TAX / WHOLESALER","5129 N. OZARK AVE",,"NORRIDGE","IL","60706","POINT (-87.820345 41.973111)"
"10852953","WHATAHOOKAH.COM","TOBACCO TAX / CIGARETTE FLOOR TAX","5129 N. OZARK AVE",,"NORRIDGE","IL","60706","POINT (-87.820345 41.973111)"
"10852953","WHATAHOOKAH.COM","TOBACCO TAX / WHOLESALER QUARTERLY","5129 N. OZARK AVE",,"NORRIDGE","IL","60706","POINT (-87.820345 41.973111)"
"11128134","WINDY CITY CIGAR LOUNGE","TOBACCO TAX / WHOLESALER QUARTERLY","4310 S. PRAIRIE",,"CHICAGO","IL","60653","POINT (-87.619767 41.815967)"
"11128134","WINDY CITY CIGAR LOUNGE","TOBACCO TAX / CIGARETTE FLOOR TAX","4310 S. PRAIRIE",,"CHICAGO","IL","60653","POINT (-87.619767 41.815967)"
"11113837","WISE GUYS VAPES","TOBACCO TAX / OTP FLOOR TAX","1492 HARMONY DR",,"BARTLETT","IL","60103","POINT (-88.173958 41.952107)"
"11113837","WISE GUYS VAPES","TOBACCO TAX / CIGARETTE FLOOR TAX","1492 HARMONY DR",,"BARTLETT","IL","60103","POINT (-88.173958 41.952107)"
"11114591","WISE GUYS VAPES #2","TOBACCO TAX / CIGARETTE FLOOR TAX","580 E. OAKTON AVE",,"DES PLAINES","IL","60018","POINT (-87.909793 42.023473)"
"11114591","WISE GUYS VAPES #2","TOBACCO TAX / OTP FLOOR TAX","580 E. OAKTON AVE",,"DES PLAINES","IL","60018","POINT (-87.909793 42.023473)"
"11114593","WISE GUYS VAPES #5","TOBACCO TAX / CIGARETTE FLOOR TAX","1500 W. ALGONQUIN RD",,"PALATINE","IL","60067","POINT (-88.080344 42.080241)"
"11114593","WISE GUYS VAPES #5","TOBACCO TAX / OTP FLOOR TAX","1500 W. ALGONQUIN RD",,"PALATINE","IL","60067","POINT (-88.080344 42.080241)"
"11128164","WORLD VAPE & TOBACCO, INC.","TOBACCO TAX / CIGARETTE FLOOR TAX","7401 W 87TH ST",,"BRIDGEVIEW","IL","60455 - 1825","POINT (-87.804313 41.733378)"
"11128164","WORLD VAPE & TOBACCO, INC.","TOBACCO TAX / WHOLESALER QUARTERLY","7401 W 87TH ST",,"BRIDGEVIEW","IL","60455 - 1825","POINT (-87.804313 41.733378)"
"11128164","WORLD VAPE & TOBACCO, INC.","TOBACCO TAX / WHOLESALER","7401 W 87TH ST",,"BRIDGEVIEW","IL","60455 - 1825","POINT (-87.804313 41.733378)"
"21003607","ZERO DEGREE HOOKAH TOBACCO, INC.","TOBACCO TAX / WHOLESALER QUARTERLY","17140 RACCOON CURV",,"ORLAND PARK","IL","60467 - 8811","POINT (-87.88024 41.578053)"
"21003607","ZERO DEGREE HOOKAH TOBACCO, INC.","TOBACCO TAX / WHOLESALER","17140 RACCOON CURV",,"ORLAND PARK","IL","60467 - 8811","POINT (-87.88024 41.578053)"
"21003607","ZERO DEGREE HOOKAH TOBACCO, INC.","TOBACCO TAX / CIGARETTE FLOOR TAX","17140 RACCOON CURV",,"ORLAND PARK","IL","60467 - 8811","POINT (-87.88024 41.578053)"
"21003590","ZIZ INC","TOBACCO TAX / CIGARETTE FLOOR TAX","17145 KROPP CT",,"ORLAND PARK","IL","60467 - 6001","POINT (-87.894148 41.577969)"
"21003590","ZIZ INC","TOBACCO TAX / WHOLESALER","17145 KROPP CT",,"ORLAND PARK","IL","60467 - 6001","POINT (-87.894148 41.577969)"
"21003590","ZIZ INC","TOBACCO TAX / WHOLESALER QUARTERLY","17145 KROPP CT",,"ORLAND PARK","IL","60467 - 6001","POINT (-87.894148 41.577969)"
"11127991","Z Z WHOLESALE INC","TOBACCO TAX / WHOLESALER","6500 NORTH LINCOLN AVENUE","UNIT C","LINCOLNWOOD","IL","60712","POINT (-87.721544 41.998981)"
"11127991","Z Z WHOLESALE INC","TOBACCO TAX / CIGARETTE FLOOR TAX","6500 NORTH LINCOLN AVENUE","UNIT C","LINCOLNWOOD","IL","60712","POINT (-87.721544 41.998981)"
"11127991","Z Z WHOLESALE INC","TOBACCO TAX / WHOLESALER QUARTERLY","6500 NORTH LINCOLN AVENUE","UNIT C","LINCOLNWOOD","IL","60712","POINT (-87.721544 41.998981)"
"21003737",,"TOBACCO TAX / WHOLESALER QUARTERLY","8322 S ASHLAND AVE",,"CHICAGO","IL","60620 - 4606","POINT (-87.663335 41.742339)"
"21003737",,"TOBACCO TAX / WHOLESALER","8322 S ASHLAND AVE",,"CHICAGO","IL","60620 - 4606","POINT (-87.663335 41.742339)"
"21003737",,"TOBACCO TAX / CIGARETTE FLOOR TAX","8322 S ASHLAND AVE",,"CHICAGO","IL","60620 - 4606","POINT (-87.663335 41.742339)"
