"registration_account","company","tax_type","address_line_1","address_line_2","city","state","zip_code","location"
"10793706","10TH WARD AUTO SALES","DEALER USE TAX","13428 S HOUSTON ST",,"CHICAGO","IL","60633","POINT (-87.548399 41.650912)"
"11126979","1808 HOLSTE MOTORSPORTS LLC","DEALER USE TAX","1850 HOLSTE ROAD",,"NORTHBROOK","IL","60062","POINT (-87.826681 42.100914)"
"10793710","18 WHEELER DIESEL SERVICE, INC","DEALER USE TAX","5144 W 26TH ST",,"CICERO","IL","60804","POINT (-87.753313 41.843842)"
"11101264","1ST MICHOACON MOTORS INC.","DEALER USE TAX","4137 S. KEDZIE",,"CHICAGO","IL","60632","POINT (-87.704365 41.817927)"
"10793711","2001 BOUTIQUE & SALES","DEALER USE TAX","2301 OAKTON ROAD UNIT 1",,"ARLINGTON HEIGHTS","IL","60005",
"11128045","3 J AUTO SALES, INC.","DEALER USE TAX","2301 E. OAKTON ST, UNIT 6",,"ARLINGTON HEIGHTS","IL","60005","POINT (-87.953529 42.022491)"
"10838743","5 STAR AUTO SERVICE & SALES, INC.","DEALER USE TAX","7446 N. CLARK STREET",,"CHICAGO","IL","60626","POINT (-87.675494 42.017169)"
"11118438","6 STARS AUTO SALES INC.","DEALER USE TAX","6100 N CLARK ST",,"CHICAGO","IL","60660 - 2410","POINT (-87.670259 41.992941)"
"10794628","83 RV, INC.","DEALER USE TAX","25514 N HWY. 83",,"MUNDELEIN","IL","60060","POINT (-87.99421 42.234148)"
"11128258","A-1 AUTO BODY REPAIRS INC","DEALER USE TAX","1212 S MITCHELL BLVD",,"SCHAUMBURG","IL","60193","POINT (-88.091629 42.003984)"
"10793787","A 1 M AUTO SALES","DEALER USE TAX","2446-48 N CICERO AVE",,"CHICAGO","IL","60639","POINT (-87.746415 41.925414)"
"10835655","A 1 MOTORS, INC.","DEALER USE TAX","5758 S. WESTERN AVE",,"CHICAGO","IL","60636","POINT (-87.683967 41.788415)"
"10793765","A-ACTION AUTO BODY, INC.","DEALER USE TAX","6645 W IRVING PARK RD",,"CHICAGO","IL","60634","POINT (-87.793312 41.952804)"
"10815356","AA TEMPO AUTO, INC.","DEALER USE TAX","3429-31 N. PULASKI ROAD",,"CHICAGO","IL","60641","POINT (-87.727315 41.943721)"
"10793712","ABC AUTO PARTS SALES","DEALER USE TAX","13741 S ASHLAND AVE",,"RIVERDALE","IL","60827 - 3298","POINT (-87.660149 41.644682)"
"10793719","ABCO TRUCK & EQUIPMENT","DEALER USE TAX","4427 MIDLOTHIAN TURNPIKE",,"CRESTWOOD","IL","60445","POINT (-87.729783 41.639668)"
"21003483","ABUZIR AUTO SALES AND REPAIR INC","DEALER USE TAX","381 BLACKHAWK DR",,"PARK FOREST","IL","60466 - 1958","POINT (-87.701524 41.483679)"
"11128041","ACE AUTO MOTORS INC","DEALER USE TAX","875 RAND RD",,"DES PLAINES","IL","60016 - 2336","POINT (-87.901897 42.056159)"
"11127158","ACIA CH AUTO LLC","DEALER USE TAX","6600 N. WESTERN AVE",,"CHICAGO","IL","60645","POINT (-87.690058 42.002032)"
"11127426","ACIA HN AUTO LLC","DEALER USE TAX","6747 N. LINCOLN AVE",,"LINCOLNWOOD","IL","60712","POINT (-87.728594 42.003502)"
"11127426","ACIA HN AUTO LLC","DEALER USE TAX","6747 N. LINCOLN AVE",,"LINCOLNWOOD","IL","60712","POINT (-87.728594 42.003502)"
"11127425","ACIA KL AUTO LLC","DEALER USE TAX","6750 N. LINCOLN AVE",,"LINOLNWOOD","IL","60712","POINT (-87.729183 42.003715)"
"11127160","ACIA PG AUTO LLC","DEALER USE TAX","151 E. LAKE COOK ROAD",,"PALATINE","IL","60074","POINT (-88.039645 42.153709)"
"11127159","ACIA PH AUTO LLC","DEALER USE TAX","221 E. LAKE COOK ROAD",,"PALATINE","IL","60067","POINT (-88.037115 42.153704)"
"11127165","ACIA TC AUTO LLC","DEALER USE TAX","1561 N. FREMONT STREET",,"CHICAGO","IL","60642","POINT (-87.651076 41.910104)"
"11127424","ACIA TN AUTO LLC","DEALER USE TAX","7226 N. CICERO AVE",,"LINOLNWOOD","IL","60712","POINT (-87.748007 42.012588)"
"11120346","ACOMPETE AUTO SERVICE INC.","DEALER USE TAX","DBA CAR FIX AUTO CENTER","3555 W FOSTER AVE.","CHICAGO","IL","60625",
"11127948","ACTION AUTO SERVICES INC","DEALER USE TAX","648 E. NORTHWEST HWY",,"PALATINE","IL","60074","POINT (-88.027278 42.103836)"
"11128263","ACTION MOTORS INC.","DEALER USE TAX","7449 W. MADISON ST REAR",,"FOREST PARK","IL","60130","POINT (-87.811897 41.879535)"
"11113576","ADAM AUTO GROUP INC","DEALER USE TAX","13901 CICERO AVE",,"CRESTWOOD","IL","60445","POINT (-87.737759 41.640399)"
"11114487","ADAM REPAIR INC","DEALER USE TAX","3911 W. 159TH PL",,"MARKHAM","IL","60428","POINT (-87.714633 41.60103)"
"21003921","ADAMS AUTO BODY AND SALES INC","DEALER USE TAX","14851 GREENWOOD RD",,"DOLTON","IL","60419 - 2224","POINT (-87.597027 41.625253)"
"11128125","ADAMS AUTOMART INC.","DEALER USE TAX","4930 WILSHIRE BLVD",,"COUNTRY CLUB HILLS","IL","60478","POINT (-87.735079 41.570161)"
"11100540","A DELGADOZ AUTO SALES & ALARMS","DEALER USE TAX","626 S CICERO AVE",,"CHICAGO","IL","60644 - 5112","POINT (-87.745006 41.872415)"
"10805626","ADELMANS TRUCK & EQUIPMENT, CORP.","DEALER USE TAX","3051 E. 106TH STREET",,"CHICAGO","IL","60617","POINT (-87.549635 41.702762)"
"10793714","A & D IMPORT MOTORS INC.","DEALER USE TAX","7535 W IRVING PARK RD",,"CHICAGO","IL","60634 - 2105","POINT (-87.816014 41.952566)"
"10793805","ADMIRAL MOTORS, INC.","DEALER USE TAX","400 W NORTHWEST HWY ST.400F",,"ARLINGTON HEIGHTS","IL","60004","POINT (-87.98842 42.08657)"
"11128210","ADVANTAGE ACURA OF NAPERVILLE","DEALER USE TAX","2275 AURORA AVE.",,"NAPERVILLE","IL","60540","POINT (-88.191566 41.763978)"
"10793781","ADVANTAGE AUTO SALES","DEALER USE TAX","12730 CAL SAG RD",,"CRESTWOOD","IL","60445","POINT (-87.751619 41.660689)"
"10794719","ADVANTAGE CHEV. OF BOLINGBROOK","DEALER USE TAX","115 W SOUTH FRONTAGE ROAD",,"BOLINGBROOK","IL","60440","POINT (-88.070658 41.683332)"
"11128267","ADVANTAGE CHEVROLET OF BRIDGEVIEW","DEALER USE TAX","8200 S HARLEM AVE",,"BRIDGEVIEW","IL","60455","POINT (-87.79952 41.743117)"
"11124249","ADVANTAGE TOYOTA OF RIVER OAKS","DEALER USE TAX","1970 RIVER OAKE",,"CALUMET CITY","IL","60409",
"10793722","AERO AUTO SALES","DEALER USE TAX","6341 S WENTWORTH AVE",,"CHICAGO","IL","60621","POINT (-87.630104 41.778783)"
"10793723","AFFORDABLE AUTOS INC.","DEALER USE TAX","840 E. CHICAGO ST",,"ELGIN","IL","60120","POINT (-88.258406 42.03507)"
"10793767","AGF ENTERPRISES, INC.","DEALER USE TAX","14255 S/ WESTERN AVE",,"DIXMOOR","IL","60406","POINT (-87.676653 41.629913)"
"11118708","A & H AUTO SALES INC","DEALER USE TAX","4737 W. 138TH STREET, STE. 102",,"CRESTWOOD","IL","60445",
"10793281","AIRWAY TRAILER SALES","DEALER USE TAX","9001 S CICERO AVE TRLR 209",,"OAK LAWN","IL","60453 - 1831","POINT (-87.741014 41.728922)"
"11127984","A J AUTO","DEALER USE TAX","4918 N RIVER RD",,"SCHILLER PARK","IL","60176","POINT (-87.861712 41.968424)"
"10793750","A KELLEY'S GARAGE. INC.","DEALER USE TAX","4825 W LAKE ST",,"MELROSE PARK","IL","60160","POINT (-87.893929 41.899583)"
"10855294","ALBA AUTO SERVICE","DEALER USE TAX","4884 N. CLARK STREET",,"CHICAGO","IL","60640","POINT (-87.667806 41.971451)"
"10793725","ALBANY AUTO INC.","DEALER USE TAX","4030 N ROCKWELL",,"CHICAGO","IL","60618","POINT (-87.693233 41.954963)"
"10807610","ALBO AUTO BODY WORKS, INC.","DEALER USE TAX","505 W. COLFAX STREET",,"PALATINE","IL","60067","POINT (-88.054803 42.116424)"
"10793749","ALBRECHTS FAST TRACK INC.","DEALER USE TAX","1664 OAKTON ST",,"DES PLAINES","IL","60018","POINT (-87.882469 42.024319)"
"11116741","ALL STATE AUTO BROKERS INC","DEALER USE TAX","20340 S. TORRENCE AVE",,"LYNWOOD","IL","60411","POINT (-87.558427 41.525345)"
"10793762","AL MEDINA AUTO REPAIR & BODY","DEALER USE TAX","4876 N. CLARK",,"CHICAGO","IL","60640","POINT (-87.66776 41.971061)"
"11128268","ALONZO'S AUTO SALES LLC","DEALER USE TAX","1356 N. CICERO AVE.",,"CHICAGO","IL","60651","POINT (-87.746069 41.905288)"
"21004009","ALPHA MOTORS","DEALER USE TAX","2622 N CICERO AVE",,"CHICAGO","IL","60639 - 1767","POINT (-87.74654 41.928561)"
"11128089","AL PIEMONTE BUICK GMC","DEALER USE TAX","364 W. GRAND AVE",,"ELMHURST","IL","60126","POINT (-87.952142 41.930808)"
"10794691","AL PIEMONTE CADILLAC, INC.","DEALER USE TAX","PO BOX 3250",,"ST. CHARLES","IL","60174 - 9095",
"10793233","AL PIEMONTE FORD SALES, INC.","DEALER USE TAX","2500 W NORTH AVE",,"MELROSE PARK","IL","60160 - 1192","POINT (-87.865748 41.907748)"
"10793306","AL PIEMONTE NISSAN, INC.","DEALER USE TAX","1600 W NORTH AVE",,"MELROSE PARK","IL","60160 - 1318","POINT (-87.854061 41.907958)"
"11127327","ALPINE VILLAGE","DEALER USE TAX","450 CHILLON DRIVE",,"LYNWOOD","IL","60411","POINT (-87.527041 41.502687)"
"10793783","ALSIP AUTO & COLLISION INC.","DEALER USE TAX","11830 S CICERO AVE",,"ALSIP","IL","60803","POINT (-87.739234 41.677299)"
"11101418","ALVAREZ AUTO SALES","DEALER USE TAX","5515 W. 16TH STREET",,"CICERO","IL","60804","POINT (-87.762524 41.858467)"
"11127974","ALVIZO AUTO SALES INC.","DEALER USE TAX","501 W. 95TH STREET",,"CHICAGO","IL","60628","POINT (-87.636118 41.721485)"
"10794493","AMERICAN AUTO AUCTION","DEALER USE TAX","14001 S KARLOV",,"CRESTWOOD","IL","60445",
"10793615","AMERICAN CHEVROLET, INC.","DEALER USE TAX","9510 W JOLIET RD",,"COUNTRYSIDE","IL","60525","POINT (-87.864757 41.780064)"
"11128112","AMK AUTO TRUCK REPAIR BODY SHOP & SALES","DEALER USE TAX","1301 ARMITAGE, UNIT G",,"MELROSE PARK","IL","60160","POINT (-87.850658 41.915385)"
"10793729","ANGELOS AUTO SALES","DEALER USE TAX","16426 S HALSTED ST",,"HARVEY","IL","60426","POINT (-87.636483 41.590841)"
"10794681","ANTHONY PONTIAC BUICK, INC.","DEALER USE TAX","7225 GRAND AVE",,"GURNEE","IL","60031","POINT (-87.982182 42.385893)"
"10794647","APACHE FORD-MERCURY, INC.","DEALER USE TAX","2600 E ROUTE 34",,"SANDWICH","IL","60548","POINT (-88.586909 41.649105)"
"11127667","APEX AUTO MALL INC.","DEALER USE TAX","5941 W. NORTH AVE",,"CHICAGO","IL","60639","POINT (-87.774837 41.909235)"
"10793391","APPLE CHEVROLET, INC.","DEALER USE TAX","8585 W 159TH ST",,"TINLEY PARK","IL","60487","POINT (-87.827411 41.601734)"
"10793764","ARCHER AUTO SALES","DEALER USE TAX","4411-15 S ARCHER AVE",,"CHICAGO","IL","60632","POINT (-87.705962 41.813076)"
"10794778","ARI FLEET LT","DEALER USE TAX","9000 MIDLANTIC DR",,"MT. LAUREL","NJ","8054","POINT (-74.919644 39.963191)"
"10793366","ARLINGTON ACURA IN PALATINE","DEALER USE TAX","1275 E DUNDEE RD",,"PALATINE","IL","60067","POINT (-88.00984 42.139167)"
"10855686","ARLINGTON AUTO GROUP INC","DEALER USE TAX","1469 RAND ROAD",,"DES PLAINES","IL","60016","POINT (-87.887382 42.048322)"
"10853573","ARLINGTON AUTO SALES & LEASING","DEALER USE TAX","670 E. NORTHWEST HWY",,"ARLINGTON HEIGHTS","IL","60004","POINT (-87.974681 42.08042)"
"11128168","ARLINGTON HEIGHTS FORD LLC","DEALER USE TAX","801 W. DUNDEE RD",,"ARLINGTON HEIGHTS","IL","60004","POINT (-87.991822 42.139038)"
"10793394","ARLINGTON LEXUS IN PALATINE","DEALER USE TAX","1510 W. DUNDEE RD",,"ARLINGTON HEIGHTS","IL","60004","POINT (-87.998959 42.139156)"
"10793746","ARLINGTON MOTORSPORTS","DEALER USE TAX","1020 W NORTHWEST HWY",,"ARLINGTON HEIGHTS","IL","60004 - 5247","POINT (-87.996346 42.090061)"
"10793416","ARLINGTON NISSAN IN ARLINGTON HGHTS.","DEALER USE TAX","1100 W. DUNDEE ROAD",,"ARLINGTON HEIGHTS","IL","60004","POINT (-87.996604 42.139152)"
"10793334","ARLINGTON TOYOTA, INC.","DEALER USE TAX","2095 N. RAND ROAD",,"PALATINE","IL","60074","POINT (-88.029845 42.146612)"
"11102253","ARMITAGE AUTO DEALERSHIP INC","DEALER USE TAX","3651 W ARMITAGE AVE",,"CHICAGO","IL","60647","POINT (-87.718964 41.917272)"
"10793259","ARNIE BAUER CADILLAC GMAC","DEALER USE TAX","5525 MILLER CIRCLE DR",,"MATTESON","IL","60443","POINT (-87.749113 41.505813)"
"11128083","ARNIE BAUER CHEVROLET BUICK","DEALER USE TAX","901 E. BALTIMORE ST.",,"WILMINGTON","IL","60481","POINT (-88.137939 41.310553)"
"10793570","ARROW MOBILE HOME PARK, INC.","DEALER USE TAX","11725 S RIDGELAND AVE",,"WORTH","IL","60482","POINT (-87.778204 41.677542)"
"11128274","ASAD'S IMPORT AUTO SALES INC","DEALER USE TAX","8101 S KEDZIE AVE",,"CHICAGO","IL","60652","POINT (-87.702299 41.74592)"
"10793748","ASIA MOTORS, INC.","DEALER USE TAX","2300 N. MANNHIEM ROAD",,"MELROSE PARK","IL","60164","POINT (-87.884348 41.919849)"
"10793732","ASTRO AUTO SALES INC.","DEALER USE TAX","4956 W BELMONT AVE",,"CHICAGO","IL","60641","POINT (-87.750858 41.938802)"
"10793733","ATHENIAN BODY SHOP","DEALER USE TAX","10101 S RIDGELAND AVE",,"CHICAGO RIDGE","IL","60415",
"11102291","ATLANTIC TOWING & MOTORS INC","DEALER USE TAX","14917 S MORGAN ST",,"HARVEY","IL","60426","POINT (-87.641362 41.618259)"
"10831547","ATLAS BOBCAT LLC","DEALER USE TAX","1815 LANDMEIER RD",,"ELK GROVE VILLAGE","IL","60007","POINT (-87.955767 42.011047)"
"11128266","AT LIBERTY SALES CORPORATION","DEALER USE TAX","16328 S. CRAWFORD AVE",,"COUNTRY CLUB HILLS","IL","60478","POINT (-87.713995 41.592713)"
"10794701","AUDI EXCHANGE","DEALER USE TAX","2490 SKOKIE VALLEY ROAD",,"HIGHLAND PARK","IL","60035","POINT (-87.829097 42.194246)"
"10793396","AUDI HOFFMAN ESTATES","DEALER USE TAX","1200 W. GOLF RD",,"HOFFMAN ESTATES","IL","60169","POINT (-88.110696 42.048015)"
"10793380","AUTOBARN MAZDA OF EVANSTON","DEALER USE TAX","1015 CHICAGO AVE",,"EVANSTON","IL","60202 - 1323","POINT (-87.679832 42.036248)"
"10793513","AUTOBARN NISSAN","DEALER USE TAX","1015 CHICAGO AVE",,"EVANSTON","IL","60202","POINT (-87.679832 42.036248)"
"11100303","AUTO BODY ARTISTS SAALES INC","DEALER USE TAX","1533 BRANDY PKWY",,"STREAMWOOD","IL","60107","POINT (-88.147719 42.01792)"
"11127968","AUTO CHOICE, INC.","DEALER USE TAX","2285 S. MOUNT PROSPECT RD",,"DES PLAINES","IL","60018","POINT (-87.920646 42.011727)"
"10793755","AUTO EXCHANGE INC.","DEALER USE TAX","2920 W. 159TH STREET",,"MARKHAM","IL","60428","POINT (-87.687986 41.600887)"
"10794039","AUTO EXPO CHICAGO, INC.","DEALER USE TAX","5107 W GRAND AVE",,"CHICAGO","IL","60639","POINT (-87.752991 41.9167)"
"10793744","AUTO EXPRESS INC","DEALER USE TAX","9348 W GRAND AVE",,"FRANKLIN PARK","IL","60131",
"10793277","AUTOHAUS ON EDENS, INC.","DEALER USE TAX","1550 FRONTAGE RD",,"NORTHBROOK","IL","60062 - 4105",
"11126258","AUTO LAND GROUP INC","DEALER USE TAX","2240 N. RAND RD",,"PALATINE","IL","60074","POINT (-88.036196 42.151741)"
"11113201","AUTO LAND INC.","DEALER USE TAX","1601 N. BROADWAY STREET",,"CREST HILL","IL","60403","POINT (-88.088201 41.553057)"
"10804699","AUTOMAX CHICAGO, INC.","DEALER USE TAX","3125 N. CICERO AVE.",,"CHICAGO","IL","60641","POINT (-87.746772 41.937808)"
"11128192","AUTO MODE USA LLC","DEALER USE TAX","5860 W. 87TH ST",,"BURBANK","IL","60459","POINT (-87.767982 41.734115)"
"10794777","AUTOMOTIVE RENTALS INC.","DEALER USE TAX","9000 MIDLANTIC DR",,"MT. LAUREL","NJ","8054","POINT (-74.919644 39.963191)"
"11128008","AUTOMOTIVE TORQUE SHOP LLC","DEALER USE TAX","7266 SAINT LOUIS AVE",,"SKOKIE","IL","60076","POINT (-87.717255 42.013534)"
"10793802","AUTOMOTO, INC.","DEALER USE TAX","731 LUNT",,"SCHAUMBURG","IL","60193","POINT (-88.097096 42.001537)"
"10851702","AUTONATION HONDA O'HARE","DEALER USE TAX","1533 S. RIVER ROAD",,"DES PLAINES","IL","60018","POINT (-87.877498 42.025676)"
"10851712","AUTONATION HYUNDAI OHARE","DEALER USE TAX","1509 S. RIVER ROAD",,"DES PLAINES","IL","60018","POINT (-87.877073 42.024839)"
"10810336","AUTO PARK LIMITED","DEALER USE TAX","1824 N. 32ND AVE",,"STONE PARK","IL","60165","POINT (-87.872752 41.906557)"
"11107568","AUTO RESOURCES SH INC","DEALER USE TAX","300 W. 162ND STREET",,"SOUTH HOLLAND","IL","60473","POINT (-87.62397 41.600971)"
"11127735","AUTOROBOT COLLISION CENTER INC","DEALER USE TAX","415 W. COLFAX STREET",,"PALATINE","IL","60067","POINT (-88.053972 42.116058)"
"11101968","AUTOSPORT CHICAGO INC","DEALER USE TAX","454 N. HALSTED ST",,"CHICAGO","IL","60642","POINT (-87.647609 41.890568)"
"10793751","AUTOSPRINT IMPORT SALES","DEALER USE TAX","5259 W ADDISON",,"CHICAGO","IL","60641","POINT (-87.758339 41.945999)"
"11115028","AUTO SUPERSTORE INC CONTINENTAL IMPORTS","DEALER USE TAX","1255 LEE STREET",,"DES PLAINES","IL","60018","POINT (-87.894397 42.030299)"
"11127931","AUTOTRADE CORP.","DEALER USE TAX","8805 S. 78TH AVE",,"BRIDGEVIEW","IL","60455","POINT (-87.813521 41.731008)"
"10793741","AVENUE AUTO SALES INC","DEALER USE TAX","1453 RAND RD",,"DES PLAINES","IL","60016","POINT (-87.88802 42.048656)"
"11127639","AVERS AUTO SALES INC","DEALER USE TAX","2316 N. RAND RD",,"PALATINE","IL","60074","POINT (-88.037878 42.152969)"
"10793754","A & Z ENTERPRISES INC.","DEALER USE TAX","8278 S 86TH CT",,"JUSTICE","IL","60458","POINT (-87.834679 41.740476)"
"10793785","AZTECA AUTO SALES, INC.","DEALER USE TAX","4252 S WESTERN AVE",,"CHICAGO","IL","60609","POINT (-87.684667 41.816634)"
"10850815","BAHA AUTO GROUP INC.","DEALER USE TAX","8059 S. HARLEM AVE",,"BURBANK","IL","60459","POINT (-87.799615 41.745222)"
"10793842","BAHA AUTO SALES, INC.","DEALER USE TAX","4257 W NORTH AVE",,"CHICAGO","IL","60639","POINT (-87.733419 41.909766)"
"10793556","BAINES PROFESSIONAL VEHICLES","DEALER USE TAX","1050 ENSELL RD","STE 190","LAKE ZURICH","IL","60047","POINT (-88.06923 42.204698)"
"10836774","BALTIC AUTO SHIPPING, INC.","DEALER USE TAX","5811 W. 66TH STREET",,"BEDFORD PARK","IL","60638","POINT (-87.767335 41.772243)"
"11128067","BAM AUTO HAUS LLC","DEALER USE TAX","151 N CICERO AVE",,"CHICAGO","IL","60644","POINT (-87.74535 41.883496)"
"10815261","BARAKA AUTO SALES, INC.","DEALER USE TAX","4031 N. ELSTON AVE.",,"CHICAGO","IL","60618","POINT (-87.720255 41.954467)"
"10793808","BARNES USED CARS INC","DEALER USE TAX","2125 N CICERO AVE",,"CHICAGO","IL","60639","POINT (-87.746112 41.919449)"
"10794758","BARRINGTON AUTO SALES","DEALER USE TAX","20077 N RAND RD",,"PALATINE","IL","60074","POINT (-88.040135 42.15503)"
"10793569","BARRINGTON MOTOR SALES","DEALER USE TAX","3825 COMMERCE DR",,"ST. CHARLES","IL","60174 - 5325","POINT (-88.266576 41.905716)"
"10793323","BARTLETT MOBILE HOME, INC.","DEALER USE TAX","100 FIRST ST",,"BARTLETT","IL","60103",
"11101972","BAYSHORE HOME SALES","DEALER USE TAX","525 N. MCHENRY ROAD",,"WHEELING","IL","60090","POINT (-87.939595 42.145263)"
"10855739","BELLA AUTO REPAIR INC","DEALER USE TAX","2456 W. IRVING PARK ROAD",,"CHICAGO","IL","60618","POINT (-87.689878 41.954081)"
"10833540","BENTLEY OAK BROOK","DEALER USE TAX","330 W. OGDEN AVE",,"DOWNERS GROVE","IL","60515","POINT (-87.986042 41.809798)"
"21003600","BENZ AUTO GROUP LLC","DEALER USE TAX","1648 N CICERO AVE",,"CHICAGO","IL","60639 - 4561","POINT (-87.746052 41.910507)"
"21004025","BERMAN OAK LAWN INC.","DEALER USE TAX","4630 W 95TH ST",,"OAK LAWN","IL","60453 - 2514","POINT (-87.736568 41.720165)"
"10816788","BERMAN'S INFINITI OF CHICAGO, INC.","DEALER USE TAX","3456 N. KEDZIE AVE.",,"CHICAGO","IL","60618","POINT (-87.707726 41.944362)"
"11104796","BERMAN'S INFINITI OF MERRILLVILLE LLC","DEALER USE TAX","1794 W. 81ST STREET",,"MERRILLVILLE","IN","46410","POINT (-87.357748 41.471376)"
"11126510","BERMAN SUBARU OF CHICAGO INC.","DEALER USE TAX","4330 W. IRVING PARK ROAD",,"CHICAGO","IL","60641","POINT (-87.737246 41.953563)"
"10793809","BERN'S AUTO SALES","DEALER USE TAX","2310 N. CICERO AVE",,"CHICAGO","IL","60639","POINT (-87.746324 41.922796)"
"11127769","BERWYN AUTO INC.","DEALER USE TAX","6317 OGDEN AVE",,"BERWYN","IL","60402","POINT (-87.781294 41.831192)"
"10831247","BERWYN KIA","DEALER USE TAX","7050 OGDEN AVE.",,"BERWYN","IL","60402","POINT (-87.79975 41.824759)"
"10854127","BEST BUY AUTO TRADE INC.","DEALER USE TAX","12960 ASHLAND AVE",,"BLUE ISLAND","IL","60406","POINT (-87.66077 41.657261)"
"21003521","BEST CHOICE AUTO GROUP","DEALER USE TAX","2014 N CICERO AVE",,"CHICAGO","IL","60639 - 3306","POINT (-87.74617 41.917348)"
"10793826","BESTWAY AUTO SALES","DEALER USE TAX","12231 S CICERO AVE",,"ALSIP","IL","60803","POINT (-87.738883 41.670404)"
"10793280","BETTENHAUSEN MOTOR SALES","DEALER USE TAX","17514 S OAK PARK AVE",,"TINLEY PARK","IL","60487",
"10793298","BIGGERS CHEVROLET, INC.","DEALER USE TAX","1385 E CHICAGO ST",,"ELGIN","IL","60120 - 4799","POINT (-88.238082 42.030324)"
"10793411","BIGGERS IMPORTS, INC.","DEALER USE TAX","1325 E CHICAGO ST",,"ELGIN","IL","60120","POINT (-88.239653 42.030285)"
"10793461","BIGGERS MOTORS, INC.","DEALER USE TAX","1320 E CHICAGO ST",,"ELGIN","IL","60120","POINT (-88.239551 42.030279)"
"10836733","BIKEMAX LLC","DEALER USE TAX","11238 SOUTHWEST HWY",,"PALOS HILLS","IL","60165","POINT (-87.809426 41.686147)"
"21003944","BILL JACOBS AURORA INC.","DEALER USE TAX","2211 AURORA AVE",,"NAPERVILLE","IL","60540 - 1003","POINT (-88.190526 41.764151)"
"21003945","BILL JACOBS NAPERVILLE LLC","DEALER USE TAX","2495 AURORA AVE",,"NAPERVILLE","IL","60540 - 1023","POINT (-88.194768 41.763457)"
"10794613","BILL KAY CHEVROLET","DEALER USE TAX","601 OGDEN AVE",,"LISLE","IL","60532","POINT (-88.062651 41.802522)"
"10794631","BILL KAY CHRYSLER PLYMOUTH,INC","DEALER USE TAX","601 OGDEN AVE",,"LISLE","IL","60532","POINT (-88.062651 41.802522)"
"10793479","BILL KAY FORD, INC.","DEALER USE TAX","14633 CICERO AVE",,"MIDLOTHIAN","IL","60445 - 2556","POINT (-87.73726 41.626242)"
"10793811","BIONIC AUTO PARTS SALES","DEALER USE TAX","4655 W NORTH AVE",,"CHICAGO","IL","60639","POINT (-87.742902 41.909645)"
"11127846","BLUE SKY AUTOMOTIVE","DEALER USE TAX","4019 S. KEDZIE AVE",,"CHICAGO","IL","60632","POINT (-87.704445 41.820154)"
"10793807","B & M AUTO SALES","DEALER USE TAX","6100 W 159TH ST",,"OAK FOREST","IL","60452","POINT (-87.768602 41.602749)"
"10817620","BMW OF SCHERERVILLE","DEALER USE TAX","1400 US HIGHWAY 41",,"SCHERERVILLE","IN","46375 - 1314","POINT (-87.471098 41.495783)"
"11127884","BMW OF SCHERERVILLE","DEALER USE TAX","5781 W US HIGHWAY 30",,"CROWN POINT","IN","46307 - 9604",
"10794611","BOB JASS CHEVROLET INC.","DEALER USE TAX","300 S MAIN ST",,"ELBURN","IL","60119","POINT (-88.47243 41.889042)"
"10811648","BOB ROHRMAN SCHAUMBURG FORD","DEALER USE TAX","815 E. GOLF ROAD",,"SCHAUMBURG","IL","60173","POINT (-88.055106 42.050188)"
"10848030","BOB ROHRMAN SCHAUMBURG LINCOLN","DEALER USE TAX","1200 E. GOLF RD",,"SCHAUMBURG","IL","60173","POINT (-88.049296 42.050349)"
"10793827","BOSE MOTORS","DEALER USE TAX","14030 S. CICERO AVE",,"CRESTWOOD","IL","60445",
"10794359","BRAGG'S AUTOMOTIVE, INC.","DEALER USE TAX","2910 BERNICE RD",,"LANSING","IL","60438","POINT (-87.546351 41.579271)"
"10793402","BREDEMANN FORD IN GLENVIEW","DEALER USE TAX","2038 WAUKEGAN RD",,"GLENVIEW","IL","60025","POINT (-87.797836 42.091685)"
"10793305","BREDEMANN TOYOTA, INC.","DEALER USE TAX","1301 W DEMPSTER",,"PARK RIDGE","IL","60068",
"10794712","BRILLANCE MOTOR SALES, INC.","DEALER USE TAX","680 W. TERRA COTTA",,"CRYSTAL LAKE","IL","60014","POINT (-88.344883 42.248023)"
"11103182","BRILLIANCE SUBARU OF ELGIN INC,","DEALER USE TAX","1500 N. RANDALL RD",,"ELGIN","IL","60123","POINT (-88.335637 42.070724)"
"10793812","B & R MOTOR SALES","DEALER USE TAX","3601-21 N CICERO AVE",,"CHICAGO","IL","60641","POINT (-87.747009 41.946298)"
"21003519","BROADWAY AUTO BODY & PAINT INC.","DEALER USE TAX","1532 BURGUNDY PKWY",,"STREAMWOOD","IL","60107 - 1812","POINT (-88.147733 42.019145)"
"11128229","BUFFALO TRAILER MANUFACTURING INC","DEALER USE TAX","3120 LEWIS ST.",,"STEGER","IL","60475","POINT (-87.624522 41.474893)"
"10793847","BUMP CITY AUTOMOBILE BODY, INC","DEALER USE TAX","28 LAKE ST",,"OAK PARK","IL","60302","POINT (-87.776019 41.888104)"
"10794722","BURKE AUTOMOTIVE GROUP, INC.","DEALER USE TAX","1565 W. OGDEN AVE",,"NAPERVILLE","IL","60540","POINT (-88.186371 41.76815)"
"11128250","BURR OAK AUTO INC.","DEALER USE TAX","3215 BURR OAK AVE STE 1",,"BLUE ISLAND","IL","60406 - 5092","POINT (-87.700183 41.66231)"
"10794584","BUSS FORD SALES","DEALER USE TAX","111 S ROUTE 31",,"MC HENRY","IL","60050","POINT (-88.274358 42.327129)"
"11127900","BUY A CAR INC","DEALER USE TAX","4654 W. LAWRENCE AVE",,"CHICAGO","IL","60630","POINT (-87.744974 41.968086)"
"11128146","BYLINE AUTO INC","DEALER USE TAX","3228 W 147TH ST",,"MIDLOTHIAN","IL","60445",
"10793836","BYRD'S AUTO, INC.","DEALER USE TAX","6820 S WESTERN AVE",,"CHICAGO","IL","60636","POINT (-87.683471 41.76934)"
"11128015","BYRIDER BRIDGEVIEW AUTO SALES","DEALER USE TAX","9150 S. HARLEM AVE",,"BRIDGEVIEW","IL","60455","POINT (-87.798857 41.724831)"
"11126875","CABELA'S","DEALER USE TAX","5225 PRAIRIE STONE PKWY",,"HOFFMAN ESTATES","IL","60192","POINT (-88.207949 42.072802)"
"10794781","CAB WEST LLC","DEALER USE TAX","1 AMERICAN ROAD whq room 612",,"DEARBORM","MI","48126","POINT (-83.208853 42.313413)"
"10793521","CALUMET DOCKSIDE SERVICE","DEALER USE TAX","426 BURNHAM AVE",,"CALUMET CITY","IL","60409","POINT (-87.539703 41.623658)"
"10793916","CAMBRAY'S AUTO","DEALER USE TAX","3231 S ARCHER AVE",,"CHICAGO","IL","60608","POINT (-87.669464 41.835429)"
"11128079","CAMBRIDGE COURTS MH SALES LLC","DEALER USE TAX","55 E JACKSON BLVD STE 500",,"CHICAGO","IL","60604","POINT (-87.625585 41.878258)"
"11127915","CAMPING WORLD RV SALES OF ROCKFORD","DEALER USE TAX","6135 ALL WORLD WAY",,"ROSCOE","IL","61073",
"10793587","CANDLELIGHT VILLAGE","DEALER USE TAX","4 CANDLELIGHT DR",,"CHICAGO HEIGHTS","IL","60411","POINT (-87.558251 41.501871)"
"11127815","CANELO AUTO SALES INC","DEALER USE TAX","2235 W. 59TH STREET",,"CHICAGO","IL","60636","POINT (-87.680714 41.786586)"
"11128114","CAPITAL AUTO FINANCE INC","DEALER USE TAX","7305 S. HARLEM AVE",,"BRIDEVIEW","IL","60455","POINT (-87.800059 41.758606)"
"10793926","CAPITAL MOTORS CREDIT, INC.","DEALER USE TAX","4220 S WESTERN AVE",,"CHICAGO","IL","60609","POINT (-87.684674 41.81707)"
"10793884","CAR CENTER INC.","DEALER USE TAX","655 N WESTERN AVE",,"CHICAGO","IL","60612","POINT (-87.686752 41.893386)"
"21004071","CAR CITY AUTO GROUP INC","DEALER USE TAX","2536 N CICERO AVE",,"CHICAGO","IL","60639 - 2541","POINT (-87.746499 41.927396)"
"10818651","CAR CITY, INC.","DEALER USE TAX","2232 N. RAND ROAD, UNIT A",,"PALATINE","IL","60074","POINT (-88.035131 42.150889)"
"10820345","CAR CORNER AUTO SALES, INC.","DEALER USE TAX","33 E. 162ND STREET",,"SOUTH HOLLAND","IL","60473","POINT (-87.615416 41.600821)"
"11128119","CARCRAFT ADVANCED INC.","DEALER USE TAX","7043 W. 153RD ST",,"ORLAND PARK","IL","60462","POINT (-87.792523 41.613543)"
"10793859","CAR CREDIT CENTER CORP","DEALER USE TAX","7600 S WESTERN AVE",,"CHICAGO","IL","60620","POINT (-87.683047 41.754936)"
"10793904","CARLAND SALES & LEASING, INC.","DEALER USE TAX","12201 S CICERO AVE",,"ALSIP","IL","60803","POINT (-87.738922 41.671254)"
"11126548","CARLEASE INC.","DEALER USE TAX","2029 W THOMAS ST",,"CHICAGO","IL","60622 - 3627","POINT (-87.678428 41.901359)"
"11112848","CAR MAX AUTO SUPERSTORES INC.","DEALER USE TAX","1213 HOLIDAY DR",,"BLOOMINGTON","IL","61704","POINT (-88.952435 40.489805)"
"11113706","CARMAX AUTO SUPERSTORES INC","DEALER USE TAX","2531 CHUCKWAGON DRIVE",,"SPRINGFIELD","IL","62711","POINT (-89.700822 39.740553)"
"11112847","CARMAX AUTO SUPERSTORES INC.","DEALER USE TAX","1254 CENTRAL PARK DR",,"O'FALLON","IL","62269","POINT (-89.937706 38.580829)"
"10793915","CARMAX AUTO SUPERSTORES, INC.","DEALER USE TAX","6540 W 95TH ST",,"OAK LAWN","IL","60453","POINT (-87.783081 41.719614)"
"10793890","CARMAX AUTO SUPERSTORES, INC.","DEALER USE TAX","18800 S OAK PARK AVE",,"TINLEY PARK","IL","60487",
"10793923","CARMAX AUTO SUPERSTORES, INC.","DEALER USE TAX","1910 W FRONTAGE ROAD",,"GLENCOE","IL","60022",
"10793894","CARMAX AUTO SUPERSTORES, INC.","DEALER USE TAX","250 E GOLF RD",,"SCHAUMBURG","IL","60173","POINT (-88.072327 42.049767)"
"10794761","CARMAX AUTO SUPERSTORES, INC.","DEALER USE TAX","3320 ODYSSEY AVE",,"NAPERVILLE","IL","60566","POINT (-88.21024 41.807114)"
"10793893","CARMAX SUPER STORES, INC.","DEALER USE TAX","101 N WOLF RD STE  8",,"HILLSIDE","IL","60162","POINT (-87.902323 41.870596)"
"10855212","CARSMETIC MANAGEMENT INC.","DEALER USE TAX","1200 E. HIGGINS, UNIT B",,"ELK GROVE VILLAGE","IL","60007","POINT (-87.967598 42.026071)"
"10842928","CARS R US CHICAGO INC.","DEALER USE TAX","2326 N. PULASKI ROAD",,"CHICAGO","IL","60639","POINT (-87.726757 41.924006)"
"11127669","CARVANA LLC","DEALER USE TAX","1930 W. RIO SALADO PKWY",,"TMPE","AZ","85281","POINT (-111.965589 33.431327)"
"11127952","CARZINC CO","DEALER USE TAX","14440 S. CICERO AVE",,"MIDLOTHIAN","IL","60445","POINT (-87.737508 41.629366)"
"10793422","CASEY EQUIPMENT","DEALER USE TAX","1603 E ALGONQUIN RD",,"ARLINGTON HEIGHTS","IL","60005","POINT (-87.946747 42.030469)"
"21003461","CASS STREET AUTO SALES, INC.","DEALER USE TAX","5956 S WESTERN AVE",,"CHICAGO","IL","60636 - 2018","POINT (-87.683885 41.784899)"
"10793332","CASTLE BUICK-PONTIAC, INC.","DEALER USE TAX","7400 W CERMAK",,"NORTH RIVERSIDE","IL","60546","POINT (-87.807288 41.850375)"
"21004221","CASTLE CARS OF NAPERVILLE","DEALER USE TAX","1565 W OGDEN AVE",,"NAPERVILLE","IL","60540 - 3906","POINT (-88.186371 41.76815)"
"21003806","CASTLE CARS OF SCHAUMBURG","DEALER USE TAX","1000 E GOLF RD",,"SCHAUMBURG","IL","60173 - 4506","POINT (-88.054447 42.05021)"
"10794682","CASTLE CHEVROLET","DEALER USE TAX","400 E ROOSEVELT RD",,"VILLA PARK","IL","60181 - 3509","POINT (-87.96673 41.86082)"
"11106570","CASTLE CHEVROLET NORTH LLC","DEALER USE TAX","175 N. ARLINGTON HEIGHTS RD",,"ELK GROVE VILLAGE","IL","60007","POINT (-87.986479 42.029889)"
"10793324","CASTLE MOTOR SALES","DEALER USE TAX","8833 WAUKEGAN RD",,"MORTON GROVE","IL","60053","POINT (-87.79909 42.042049)"
"21003991","CASTLE MOTORS INC.","DEALER USE TAX","9000 OGDEN AVE",,"BROOKFIELD","IL","60513 - 2942","POINT (-87.84674 41.816741)"
"10855201","C AUTO INC","DEALER USE TAX","1008 LUNT AVE",,"SCHAUMBURG","IL","60193","POINT (-88.105109 42.001248)"
"10793888","CENTRAL AUTO SALES","DEALER USE TAX","11818 S. CICERO AVE",,"ALSIP","IL","60803","POINT (-87.739244 41.677627)"
"11101969","CF MH SUB LLC","DEALER USE TAX","25 IRONWOOD",,"JUSTICE","IL","60458","POINT (-87.852229 41.747108)"
"10793943","CHAMPION MOTORSPORTS, INC.","DEALER USE TAX","12717 CAL SAG RD",,"CRESTWOOD","IL","60418 - 1101","POINT (-87.750899 41.660431)"
"11127928","CHEAP CARS IN CHICAGO","DEALER USE TAX","3210 S. LARAMIE AVE",,"CICER0","IL","60804","POINT (-87.753584 41.834246)"
"10793464","CHEVROLET OF HOMEWOOD, INC.","DEALER USE TAX","18033-35 S HALSTED",,"HOMEWOOD","IL","60430","POINT (-87.636098 41.561901)"
"10799292","CHEVROLET OF NAPERVILLE","DEALER USE TAX","1515 W. OGDEN AVE.",,"NAPERVILLE","IL","60540","POINT (-88.18629 41.774079)"
"11101237","CHICAGO AUTO EXCHANGE LLC","DEALER USE TAX","18 E. SAUK TRAIL",,"SOUTH CHICAGO HEIGHTS","IL","60411","POINT (-87.63307 41.481171)"
"21003958","CHICAGO AUTOMAX INC","DEALER USE TAX","1600 S ROSELLE RD",,"ROSELLE","IL","60172 - 5020","POINT (-88.080255 41.996268)"
"11117525","CHICAGO AUTO WAREHOUSE LLC","DEALER USE TAX","3325 W. MONTROSE AVE",,"CHICAGO","IL","60618","POINT (-87.711844 41.961165)"
"11114611","CHICAGO BEST AUTO SALES & SERVICE INC","DEALER USE TAX","5528-32 N. WESTERN AVE",,"CHICAGO","IL","60625","POINT (-87.689461 41.982106)"
"10793908","CHICAGO CAR CENTER, INC.","DEALER USE TAX","4024 W. MONTROSE AVE",,"CHICAGO","IL","60641","POINT (-87.728831 41.96095)"
"10855364","CHICAGO CAR LOFT","DEALER USE TAX","3670 COMMERCIAL AVE",,"NORTHBROOK","IL","60062","POINT (-87.871142 42.146598)"
"21004138","CHICAGO CARS US INC","DEALER USE TAX","6007 S ARCHER RD",,"SUMMIT","IL","60501 - 1597","POINT (-87.812223 41.782375)"
"11114995","CHICAGO CYCLES & MOTORSPORTS INC.","DEALER USE TAX","1511 N. MANNHEIM RD",,"STONE PARK","IL","60165","POINT (-87.88355 41.898027)"
"21003648","CHICAGO EXPRESS AUTO SALES","DEALER USE TAX","10031 W ROOSEVELT RD STE 101",,"WESTCHESTER","IL","60154 - 2669","POINT (-87.873661 41.863515)"
"11105280","CHICAGO FINE MOTORS","DEALER USE TAX","8401 47TH ST., UNIT C",,"MCCOOK","IL","60525 - 3664",
"10852681","CHICAGO HARLEY-DAVIDSON","DEALER USE TAX","1027 W ADDISON ST",,"CHICAGO","IL","60613","POINT (-87.655497 41.947241)"
"10840752","CHICAGO MACK","DEALER USE TAX","4350 CLYDE PARK AVE SW",,"WYOMING","MI","49509","POINT (-85.684493 42.885621)"
"10840752","CHICAGO MACK","DEALER USE TAX","4350 CLYDE PARK AVE SW",,"WYOMING","MI","49509","POINT (-85.684493 42.885621)"
"10793572","CHICAGO MARMON TRUCKS","DEALER USE TAX","15220 S HALSTED",,"HARVEY","IL","60426",
"10793858","CHICAGO MOTORS INC.","DEALER USE TAX","2553 W. CHICAGO AVE",,"CHICAGO","IL","60622","POINT (-87.691317 41.895713)"
"10793503","CHICAGO NORTHSIDE TOYOTA","DEALER USE TAX","6042 N. WESTERN AVE",,"CHICAGO","IL","60659","POINT (-87.689768 41.991278)"
"10793891","CHICAGO TRAILER RECYCLERS","DEALER USE TAX","16152 S. CLINTON AVE",,"HARVEY","IL","60426","POINT (-87.629447 41.596151)"
"10793582","CHI-TOWN HARLEY DAVIDSON","DEALER USE TAX","17801 S LAGRANGE RD",,"TINLEY PARK","IL","60487","POINT (-87.85149 41.566559)"
"10793865","CHRISTIANO MOTORS, INC","DEALER USE TAX","5038 S. CHRISTIANA AVE",,"CHICAGO","IL","60632","POINT (-87.707451 41.801333)"
"10793867","CICERO AVENUE RESALE CO.","DEALER USE TAX","4800 S CICERO AVE",,"CHICAGO","IL","60638 - 2115","POINT (-87.743165 41.805587)"
"10793905","CITY AUTO PARTS & GLASS, INC.","DEALER USE TAX","1901 E DOLTON RD",,"CALUMET CITY","IL","60409","POINT (-87.57002 41.632248)"
"10793307","CITY LIMITS HARLEY-DAVIDSON, INC.","DEALER USE TAX","2015 N RAND RD",,"PALATINE","IL","60074","POINT (-88.02895 42.145842)"
"11128050","CITY MOTORS CHICAGO CORP","DEALER USE TAX","2150 WEST ST",,"RIVER GROVE","IL","60171","POINT (-87.850073 41.918655)"
"11127996","CITY VOLKSWAGEN OF CHICAGO","DEALER USE TAX","5330 W. IRVING PARK DR",,"CHICAGO","IL","60641","POINT (-87.762365 41.953256)"
"11128142","CITY VOLKSWAGEN OF EVANSTON","DEALER USE TAX","1033 CHICAGO AVE",,"EVANSTON","IL","60202","POINT (-87.679962 42.036907)"
"21003725","C & J CAR SALES LLC","DEALER USE TAX","2020 E EUCLID AVE",,"MOUNT PROSPECT","IL","60056 - 1864","POINT (-87.892529 42.087704)"
"10854699","CJ WILSON MAZDA OF ORLAND PARK","DEALER USE TAX","8910 W. 159TH STREET",,"ORLAND PARK","IL","60462","POINT (-87.83451 41.601733)"
"10793909","C & M IMPERIAL MOTORS, INC.","DEALER USE TAX","7221 S WESTERN AVE",,"CHICAGO","IL","60636","POINT (-87.683088 41.762075)"
"11128255","CODA MOTORS LLC","DEALER USE TAX","60 SHORE DRIVE",,"BURR RIDGE","IL","60527","POINT (-87.937795 41.742825)"
"10794605","COFFMAN TRUCK SALES, INC.","DEALER USE TAX","1149 W LAKE ST",,"AURORA","IL","60506","POINT (-88.341943 41.738463)"
"10793921","COM-KAY LTD","DEALER USE TAX","1885 SIBLEY BLVD",,"CALUMET CITY","IL","60409","POINT (-87.571354 41.622726)"
"10793339","COMMUNITY HONDA, INC.","DEALER USE TAX","8340 W 159TH ST",,"ORLAND PARK","IL","60462 - 4941","POINT (-87.823171 41.601902)"
"10793882","COMPACT CARS","DEALER USE TAX","5915 W GRAND",,"CHICAGO","IL","60639","POINT (-87.77359 41.92021)"
"10793286","CONTINENTAL TOYOTA, INC.","DEALER USE TAX","6701 S. LAGRANGE ROAD",,"HODGKINS","IL","60525","POINT (-87.867642 41.767447)"
"21003597","CONVEY AUTOMOTIVE CORP.","DEALER USE TAX","318 W COLFAX ST",,"PALATINE","IL","60067 - 2516","POINT (-88.052284 42.115313)"
"10849562","CONWAY IMPORTS AUTO SALES","DEALER USE TAX","615 E. LAKE STREET",,"STREAMWOOD","IL","60107","POINT (-88.167211 41.995944)"
"11101413","COPART","DEALER USE TAX","110 E. PALATINE RD",,"WHEELING","IL","60090","POINT (-87.914164 42.109795)"
"11105170","CO PART","DEALER USE TAX","89 E. SAUK TRAIL",,"CHICAGO HEIGHTS","IL","60411","POINT (-87.63028 41.481482)"
"11101411","COPART SALVAGE AUTO AUCTIONS","DEALER USE TAX","1475 BLUFF CITY BLVD",,"ELGIN","IL","60120","POINT (-88.236792 42.017604)"
"11127861","CORA CARS INC.","DEALER USE TAX","2301 OAKTON ST","UNIT 1","ARLINGTON HEIGHTS","IL","60005",
"11128156","COUNTRYSIDE MITSUBISHI","DEALER USE TAX","5800 S. LAGRANGE RD","ADAM@JIDDMOTORS.COM","COUNTRYSIDE","IL","60525","POINT (-87.868474 41.784741)"
"11128175","COUNTRYSIDE NISSAN","DEALER USE TAX","5750 S. LA GRANGE RD",,"COUNTRYSIDE","IL","60525","POINT (-87.8685 41.78586)"
"10793421","CRANE & MACHINERY, INC.","DEALER USE TAX","9725 INDUSTRIAL DR..",,"BRIDGEVIEW","IL","60455","POINT (-87.806132 41.715035)"
"11106151","CRESTWOOD AUTO AUCTION INC","DEALER USE TAX","14106 S. CICERO AVE",,"CRESTWOOD","IL","60445",
"10855339","CRESTWOOD AUTOMOTIVE SERVICE SALES INC","DEALER USE TAX","12549 S HOLIDAY DR STE D",,"ALSIP","IL","60803 - 3207","POINT (-87.746101 41.663448)"
"10834098","CRIS AUTO SALES, INC.","DEALER USE TAX","1336 S.HALSTED",,"CHICAGO HEIGHTS","IL","60411","POINT (-87.635608 41.506739)"
"21003711","CROWLEY'S YACHT YARD LAKESIDE, LLC","DEALER USE TAX","3434 E 95TH ST",,"CHICAGO","IL","60617 - 5101","POINT (-87.540343 41.722884)"
"11128217","CROWN POINT TRUCK & TRAILER SALES, INC","DEALER USE TAX","7860 LEHIGH",,"MORTON GROVE","IL","60053","POINT (-87.780055 42.024803)"
"10793879","CROWN TRAILER CO.","DEALER USE TAX","4601 W 49TH ST",,"CHICAGO","IL","60632","POINT (-87.738764 41.804019)"
"10794617","CRYSTAL VALLEY RV","DEALER USE TAX","4220 NORTHWEST HWY",,"CRYSTAL LAKE","IL","60014","POINT (-88.281574 42.225307)"
"10793284","CUMBERLAND SERVICENTER, INC.","DEALER USE TAX","2375 E OAKTON ST",,"ARLINGTON HEIGHTS","IL","60005 - 4817","POINT (-87.950885 42.02253)"
"10800661","CURRIE MOTORS CHEVROLET, INC.","DEALER USE TAX","7901 W. ROOSEVELT ROAD",,"FOREST PARK","IL","60130","POINT (-87.818921 41.864783)"
"10794748","CUSTOM CLASSICS","DEALER USE TAX","518 E BURNETT RD",,"ISLAND LAKE","IL","60042","POINT (-88.189755 42.28496)"
"11128128","C.Y. MOTORS LLC.","DEALER USE TAX","710 E. CHICAGO ST.",,"ELGIN","IL","60120","POINT (-88.262598 42.036288)"
"10793945","D & A AUTO SALES, INC.","DEALER USE TAX","1300 W 127TH ST",,"CALUMET PARK","IL","60827","POINT (-87.653928 41.663048)"
"10819092","D & A MOTOR SALES LLC","DEALER USE TAX","3655 N. CICERO AVE.",,"CHICAGO","IL","60641","POINT (-87.747062 41.947668)"
"10793957","D & D MOTORS","DEALER USE TAX","407 N SALEM AVE",,"ARLINGTON HEIGHTS","IL","60005","POINT (-88.000648 42.086612)"
"10793948","DEALS ON WHEELS","DEALER USE TAX","5622 W 65TH ST",,"CHICAGO","IL","60638","POINT (-87.762409 41.774443)"
"10836817","DEAN'S CAR CORNER LLC","DEALER USE TAX","7258 S. HARLEM AVE",,"BRIDGEVIEW","IL","60455","POINT (-87.800228 41.759222)"
"10850990","DEECE AUTOMOTIVE INC.","DEALER USE TAX","6545 STANLEY AVE",,"BERWYN","IL","60402","POINT (-87.787635 41.834849)"
"10794588","DELFS GARAGE & SERVICE, INC.","DEALER USE TAX","1521 BELVIDERE",,"WAUKEGAN","IL","60085","POINT (-87.850638 42.351251)"
"10802981","DEL SOL AUTO MART, INC.","DEALER USE TAX","1250A RAND ROAD",,"DES PLAINES","IL","60016","POINT (-87.89304 42.051383)"
"21003636","DELUXE AUTO SALE INC.","DEALER USE TAX","2256 N CICERO AVE",,"CHICAGO","IL","60639 - 3328","POINT (-87.746308 41.922174)"
"10793953","DEPENDABLE LEASING CO INC","DEALER USE TAX","7001 SANTA FE DR C",,"HODGKINS","IL","60525","POINT (-87.860289 41.761701)"
"21003893","DES PLAINES AUTO REPAIRS AND SALES CORP","DEALER USE TAX","1685 E OAKTON ST",,"DES PLAINES","IL","60018 - 2130","POINT (-87.882231 42.024325)"
"10793610","DES PLAINES HONDA","DEALER USE TAX","1201 S. NORTHWEST HWY",,"BARRINGTON","IL","60016","POINT (-88.100251 42.136768)"
"11128219","DETAIL AUTO INC","DEALER USE TAX","9118 47TH STREET",,"BROOKFIELD","IL","60513","POINT (-87.848938 41.805478)"
"10855342","DEVON AUTO REPAIR & BODY SHOP INC","DEALER USE TAX","6417 N. RAVENSWOOD AVE",,"CHICAGO","IL","60626","POINT (-87.675018 41.998543)"
"10794599","DICK WICKSTROM CHEVROLET","DEALER USE TAX","555 E IRVING PARK RD",,"ROSELLE","IL","60172","POINT (-88.067631 41.981062)"
"10854450","DISCOUNT AUTO MART INC.","DEALER USE TAX","3934 W. 147TH STREET",,"MIDLOTHIAN","IL","60445",
"10793952","D & L AUTO SALES","DEALER USE TAX","4557 W 137 TH ST",,"CRESTWOOD","IL","60445",
"10794736","D&M CORVETTE SPECIALISTS, LTD.","DEALER USE TAX","1804 OGDEN AVE",,"DOWNERS GROVE","IL","60515","POINT (-88.02953 41.808121)"
"10794685","DODGE OF ANTIOCH, INC.","DEALER USE TAX","1055 E ROUTE 173",,"ANTIOCH","IL","60002","POINT (-88.056223 42.466264)"
"11127924","DON BETO TRANSMISSIONS & AUTO SALES INC.","DEALER USE TAX","10266 S.INDIANAPOLIS BLVD",,"CHICAGO","IL","60617","POINT (-87.530776 41.708524)"
"10793950","DONE RITE AUTO SALES & REPAIR","DEALER USE TAX","3001 N ELSTON AVE",,"CHICAGO","IL","60618","POINT (-87.693074 41.935837)"
"10794783","DONLEN CORPORATION","DEALER USE TAX","3000 LAKESIDE DRIVE",,"BANNOCKBURN","IL","60015","POINT (-87.884568 42.201622)"
"10793961","DONLEN TRUST","DEALER USE TAX","2315 SANDERS RD",,"NORTHBROOK","IL","60062","POINT (-87.876813 42.111332)"
"10794643","DON MCCUE CHEV.-GEO, INC.","DEALER USE TAX","2015 E MAIN ST",,"ST. CHARLES","IL","60174","POINT (-88.288553 41.91964)"
"10838687","D'ORAZIO FORD","DEALER USE TAX","1135 S. WATER STREET",,"WILMINGTON","IL","60481","POINT (-88.139114 41.294923)"
"10794645","DRALLE CHEV & BUICK, INC.","DEALER USE TAX","103 N HARLEM",,"PEOTONE","IL","60468","POINT (-87.785364 41.333712)"
"11118817","DREAM MOTOR CARS","DEALER USE TAX","2454 E. OAKTON STREET",,"ARLINGTON HEIGHTS","IL","60005","POINT (-87.94646 42.02268)"
"11127626","DRIVE MOTORS INC.","DEALER USE TAX","14201 S. CICERO AVE",,"CRESTWOOD","IL","60418",
"11126509","DRIVEN AUTO GROUP INC","DEALER USE TAX","9504 W. 159TH STREET",,"OAK FOREST","IL","60452",
"10798231","DRIVEN AUTO SALES","DEALER USE TAX","6800 W. 79TH STREET",,"BURBANK","IL","60459","POINT (-87.791735 41.748256)"
"11127970","DRIVE NOW AUTOHAUS","DEALER USE TAX","5401 W CERMAK RD",,"CICERO","IL","60804","POINT (-87.759029 41.851015)"
"11102718","DRIVE TIME CAR SALES LLC","DEALER USE TAX","320 W. GOLF ROAD","STE. 160","SCHAUMBURG","IL","60195","POINT (-88.088123 42.049037)"
"11127845","DRIVE TODAY","DEALER USE TAX","2038 N. CICERO AVE",,"CHICAGO","IL","60639","POINT (-87.746199 41.91799)"
"10793362","D & S TRUCK CENTER, INC.","DEALER USE TAX","6035 EAST AVE",,"HODGKINS","IL","60525","POINT (-87.858463 41.78066)"
"11127665","DUNDEE FORD","DEALER USE TAX","800 DUNDEE AVE",,"EAST DUNEE","IL","60118","POINT (-88.257811 42.086242)"
"10793951","DUNMORE AUTO SALES","DEALER USE TAX","7320 S STONY ISLAND",,"CHICAGO","IL","60619",
"10794764","DUNNE DEALS, INC.","DEALER USE TAX","1703 ROUTE 176",,"CRYSTAL LAKE","IL","60014","POINT (-88.229501 42.277876)"
"11102749","DUPAGE CHRYSLER DODGE JEEP RAM","DEALER USE TAX","433 E NORTH AVE",,"GLENDALE HEIGHTS","IL","60139","POINT (-88.066647 41.903204)"
"10794732","DUPAGE HONDA YAMAHA","DEALER USE TAX","27 W 215 NORTH AVE",,"WEST CHICAGO","IL","60185",
"10793966","DUPES AUTO ENTERPRISES","DEALER USE TAX","154-216 W. 127TH STREET",,"CHICAGO","IL","60628","POINT (-87.625921 41.663401)"
"11103532","EASY FINANCE AUTO INC","DEALER USE TAX","573 BURNHAM AVE",,"CALUMET CITY","IL","60409","POINT (-87.539616 41.619341)"
"10793972","ECONOMY AUTO MART","DEALER USE TAX","3333 N WESTERN AVE",,"CHICAGO","IL","60618","POINT (-87.688089 41.941871)"
"10793974","EDCA, INC","DEALER USE TAX","14700 HAMLIN AVE",,"MIDLOTHIAN","IL","60445 - 3427","POINT (-87.712805 41.624905)"
"10794635","ED NAPLETON ACURA","DEALER USE TAX","745 W LAKE ST",,"ELMHURST","IL","60126","POINT (-87.96495 41.923579)"
"10793358","ED NAPLETON HONDA","DEALER USE TAX","5800 W. 95TH ST",,"OAK LAWN","IL","60453","POINT (-87.765966 41.719764)"
"10794679","ED NAPLETON'S WESTMONT PORSCHE","DEALER USE TAX","201 E OGDEN AVE",,"WESTMONT","IL","60559 - 1341","POINT (-87.97057 41.810169)"
"10793254","EHRHARDT'S TRAILER SALES","DEALER USE TAX","776 W OAKTON ST",,"DES PLAINES","IL","60018","POINT (-87.938509 42.022752)"
"11128002","ELGIN AUTOPLEX","DEALER USE TAX","881 VILLA ST",,"ELGIN","IL","60120","POINT (-88.256873 42.026414)"
"11117162","ELGIN CHRYSLER JEEP DODGE RAM","DEALER USE TAX","1010 E. CHICAGO ST",,"ELGIN","IL","60120","POINT (-88.251787 42.033097)"
"10793504","ELGIN HYUNDAI","DEALER USE TAX","881 E CHICAGO ST",,"ELGIN","IL","60120","POINT (-88.256529 42.034513)"
"10793979","ELGIN SUPER AUTO SALES","DEALER USE TAX","225 WILLARD AVE",,"ELGIN","IL","60120","POINT (-88.260373 42.033009)"
"10793580","ELGIN TOYOTA","DEALER USE TAX","1200 E CHICAGO ST",,"ELGIN","IL","60120","POINT (-88.243837 42.031066)"
"10835747","ELITE AUTO REPAIR & SALES LLC","DEALER USE TAX","1757 S. MT. PROSPECT ROAD",,"DES PLAINES","IL","60018","POINT (-87.920733 42.019808)"
"10835964","ELMHURST AUTO GROUP LTD","DEALER USE TAX","440 W. LAKE STREET",,"ELMHURST","IL","60126","POINT (-87.952801 41.918468)"
"10835965","ELMHURST BMW","DEALER USE TAX","500 W. LAKE STREET",,"ELMHURST","IL","60126","POINT (-87.955971 41.919377)"
"11128243","ELMWOOD PARK AUTO HAUS","DEALER USE TAX","7800 W GRAND AVE",,"ELMWOOD PARK","IL","60707","POINT (-87.821167 41.926377)"
"11128207","EL PRIMO AUTO SALES LLC","DEALER USE TAX","1216-20 N. CICERO AVE.",,"CHICAGO","IL","60651","POINT (-87.745983 41.90286)"
"11126511","EL SOL AUTO MART INC","DEALER USE TAX","2401 MANNHEIM ROAD",,"FRANKLIN PARK","IL","60131","POINT (-87.884254 41.922238)"
"11127142","E & M AUTO SALES INC.","DEALER USE TAX","888 E. CHICAGO STREET",,"ELGIN","IL","60120","POINT (-88.257681 42.034849)"
"11127950","EMH MOTORS LLC","DEALER USE TAX","5420 NEWPORT DRIVE, SUITE 46",,"ROLLING MEADOWS","IL","60008","POINT (-88.017278 42.056928)"
"10793986","EMJAY SALES & LEASING, INC.","DEALER USE TAX","6600 W 51 ST ST",,"FOREST VIEW","IL","60638","POINT (-87.787167 41.799606)"
"10793349","EMKAY, INC","DEALER USE TAX","650 E GOLF RD",,"SCHAUMBURG","IL","60173","POINT (-88.063326 42.049994)"
"10822637","ENTERPRISE FM TRUST","DEALER USE TAX","600 CORPORATE PARK DRIVE",,"ST. LOUIS","MO","63105","POINT (-90.345555 38.643185)"
"10794787","ENTERPRISE LEASING CO. OF CHGO","DEALER USE TAX","9201 159TH ST",,"ORLAND HILLS","IL","60487 - 5907","POINT (-87.842597 41.601488)"
"10794784","ENTERPRISE LEASING CO. OF CHGO","DEALER USE TAX","3840 N WESTERN AVE",,"CHICAGO","IL","60618","POINT (-87.688448 41.95153)"
"10794788","ENTERPRISE LEASING CO. OF CHGO","DEALER USE TAX","395 ROOSEVELT RD",,"GLEN ELLYN","IL","60137","POINT (-88.072769 41.859318)"
"11113482","ENTERPRISE LEASING CO OF CHICAGO","DEALER USE TAX","2234 N. RAND ROAD",,"PALATINE","IL","60174","POINT (-88.035716 42.151356)"
"10793982","ENZENBERGER & MITCHELL","DEALER USE TAX","7420 W 87TH PL",,"BRIDGEVIEW","IL","60455","POINT (-87.805288 41.732503)"
"11100313","EPIC MOTORSPORTS INC.","DEALER USE TAX","9739 FARRAGUT ST",,"ROSEMONT","IL","60018","POINT (-87.870239 41.97403)"
"11128150","ESTABLISHED AUTO SERVICE AND SALES","DEALER USE TAX","5200 W. BELMONT AVE",,"CHICAGO","IL","60641","POINT (-87.756775 41.938726)"
"10793970","E & T AUTO REPAIR","DEALER USE TAX","5023 W BELMONT",,"CHICAGO","IL","60641","POINT (-87.752653 41.938779)"
"11100383","E & T AUTO SALES","DEALER USE TAX","548 STATE STREET",,"CALUMET CITY","IL","60409","POINT (-87.534701 41.625087)"
"10793353","ETTLESON CAD-BUICK-OLDS, INC.","DEALER USE TAX","6201 S LA GRANGE RD",,"HODGKINS","IL","60525","POINT (-87.868007 41.777615)"
"10793487","ETTLESON HYUNDAI LLC","DEALER USE TAX","5631 S. LAGRANGE RD",,"COUNTRYSIDE","IL","60525","POINT (-87.868569 41.787358)"
"10794207","EUROPEAN AUTO BODY & SALES, IN","DEALER USE TAX","8229 S ROBERTS RD",,"BRIDGEVIEW","IL","60455","POINT (-87.818893 41.741645)"
"10793480","EVERGREEN KIA","DEALER USE TAX","9205 S WESTERN AVE",,"CHICAGO","IL","60620","POINT (-87.682161 41.725946)"
"11101758","EXCLUSIVE AUTO EXCHANGE INC","DEALER USE TAX","13437 S. KOLMAR",,"CRESTWOOD","IL","60445",
"10793998","EXOTIC MOTORS, INC.","DEALER USE TAX","1600 HICKS RD",,"ROLLING MEADOWS","IL","60068","POINT (-88.034139 42.092937)"
"11127904","EXPERS AUTO SALES INC.","DEALER USE TAX","16950 HALSTED STREET","STE. B","HARVEY","IL","60426","POINT (-87.636465 41.582527)"
"10830418","E Z AUTO SOLUTIONS, INC.","DEALER USE TAX","7908 W. GRAND AVE",,"CHICAGO","IL","60707","POINT (-87.823865 41.926794)"
"10853963","EZ MOTOR CREDIT INC.","DEALER USE TAX","9012 MILFORD CT",,"HICKORY HILLS","IL","60457 - 1400","POINT (-87.812168 41.726844)"
"11127402","FAIR OAKS FORD-LINCOLN","DEALER USE TAX","2055 W. OGDEN AVE",,"NAPERVILLE","IL","60540","POINT (-88.187402 41.759998)"
"11128260","FAIR OAKS LINCOLN","DEALER USE TAX","1564 W. OGDEN AVE",,"NAPERVILLE","IL","60540","POINT (-88.186346 41.77002)"
"11127922","FAIRWAY AUTO GROUP","DEALER USE TAX","7218 S. WESTERN AVE",,"CHICAGO","IL","60636","POINT (-87.683274 41.762173)"
"10794000","FAIRWAY AUTO SALES","DEALER USE TAX","3017 W LAKE ST",,"MELROSE PARK","IL","60160","POINT (-87.87045 41.896133)"
"11127976","FAMILY FIRST AUTO SALES INC.","DEALER USE TAX","2100 CHICAGO RD",,"CHICAGO HEIGHTS","IL","60411","POINT (-87.639668 41.495343)"
"10793477","FAMILY HYUNDAI & SUZUKI, INC.","DEALER USE TAX","8101 W. 159TH STREET",,"TINLEY PARK","IL","60477","POINT (-87.817643 41.601875)"
"21003577","FANATIC MOTORS LLC","DEALER USE TAX","171 WHEELING RD",,"WHEELING","IL","60090 - 4807","POINT (-87.928777 42.135244)"
"11127838","FANTASTIC AUTO GROUP","DEALER USE TAX","2444 RIDGE ROAD",,"LANSING","IL","60438","POINT (-87.557384 41.564729)"
"10794013","FENG AUTO SALES, INC.","DEALER USE TAX","3290 S ARCHER AVE",,"CHICAGO","IL","60608","POINT (-87.671421 41.834232)"
"10793304","FIELDS IMPORTS, INC.","DEALER USE TAX","700 FRONTAGE RD",,"NORTHFIELD","IL","60093",
"10793553","FIELDS INFINITI","DEALER USE TAX","2100 FRONTAGE RD",,"GLENCOE","IL","60022","POINT (-87.779196 42.116876)"
"10793312","FIELDS JEEP EAGLE, INC.","DEALER USE TAX","2800 PATRIOT BLVD",,"GLENVIEW","IL","60026 - 8041","POINT (-87.823501 42.106147)"
"11128014","FIELDS LEXUS GLENVIEW","DEALER USE TAX","2000 N. WAUKEGAN RD",,"GLENVIEW","IL","60025","POINT (-87.797864 42.091185)"
"10794704","FIELDS VOLVO","DEALER USE TAX","770 FRONTAGE ROAD",,"NORTHFIELD","IL","60093",
"10855716","FINAL TOUCH COLLISION INC","DEALER USE TAX","19850 BURNHAM",,"LYNWOOD","IL","60411","POINT (-87.539218 41.534676)"
"11128273","FINSHLINE MOTORSPORT INC","DEALER USE TAX","6551 W. 63RD ST",,"CHICAGO","IL","60638","POINT (-87.785657 41.777648)"
"10794003","FIRMA AUTO CONSTRUCTION & SALE","DEALER USE TAX","3709 W ARMITAGE",,"CHICAGO","IL","60647","POINT (-87.720147 41.917259)"
"11101718","FIRST MARSHALL AUTO AUCTION, LLC","DEALER USE TAX","398 E. 147ST ST.",,"HARVEY","IL","60426","POINT (-87.634518 41.622634)"
"10794750","FISCHER CRANE CO.","DEALER USE TAX","585 E SOUTH FRONTIAGE RD",,"BOLINGBROOK","IL","60440","POINT (-88.043802 41.696229)"
"10794622","FISH LAKE BEACH, INC.","DEALER USE TAX","32223 N HWY 12",,"VOLVO","IL","60073",
"11104147","FIVE STARS TRUCK TRAILER SALES INC.","DEALER USE TAX","485 PODLIN DR",,"FRANKLIN PARK","IL","60131","POINT (-87.917442 41.94619)"
"10793460","FLETCHER JONES AUTOMOTIVE ENTP","DEALER USE TAX","1520 W. NORTH AVE",,"CHICAGO","IL","60642","POINT (-87.66629 41.910635)"
"10793292","FLIKKEMA MOTORS, INC.","DEALER USE TAX","2424 E 176TH ST",,"LANSING","IL","60438","POINT (-87.558486 41.574804)"
"21003626","FORAN MOTORS INC.","DEALER USE TAX","7948 W 79TH ST",,"BRIDGEVIEW","IL","60455 - 1461","POINT (-87.8181 41.747732)"
"10794006","FORD MOTORS CREDIT CORP","DEALER USE TAX","20401 COX AVE",,"MATTESON","IL","60443","POINT (-87.786606 41.519078)"
"21003493","FORD OF HOMEWOOD","DEALER USE TAX","3233 183RD ST",,"HOMEWOOD","IL","60430 - 2601","POINT (-87.695687 41.557125)"
"10843450","FOX FORD LINCOLN CHICAGO","DEALER USE TAX","2501 N. ELSTON VE",,"CHICAGO","IL","60647","POINT (-87.680484 41.92716)"
"10833112","FOX RIVER HARLEY DAVIDSON","DEALER USE TAX","131 S. RANDALL ROAD",,"ST. CHARLES","IL","60174","POINT (-88.340156 41.910587)"
"10832998","FOX VALLEY BUICK-GMC, INC.","DEALER USE TAX","1421 E. MAIN STREET",,"ST. CHARLES","IL","60174","POINT (-88.298805 41.91733)"
"10794715","FOX VALLEY VOLKSWAGEN LLC","DEALER USE TAX","4050 E..MAIN STREET",,"ST. CHARLES","IL","60174","POINT (-88.256205 41.92146)"
"10794749","FRANKFORT AUTO HAUS, INC.","DEALER USE TAX","19915 S LAGRANGE RD",,"FRANKFORT","IL","60423","POINT (-87.85005 41.528057)"
"11120287","FRANK H GILL COMPANY","DEALER USE TAX","2859 BERNICE ROAD",,"LANSING","IL","60438","POINT (-87.547148 41.579261)"
"10793267","FREEWAY FORD-STERLING TRUCK SL","DEALER USE TAX","8445 W 45TH ST",,"LYONS","IL","60534","POINT (-87.832395 41.809761)"
"10855880","FRENCHY AUTO BODY REPAIR & SALES INC","DEALER USE TAX","15526 WENTWORTH AVE",,"SOUTH HOLLAND","IL","60473","POINT (-87.623051 41.6132)"
"11128070","FRONTLINE 1 LLC","DEALER USE TAX","3041 N. CICERO",,"CHICAGO","IL","60641","POINT (-87.746715 41.936354)"
"10803735","FURLAN AUTO MART, INC.","DEALER USE TAX","2300 CHICAGO ROAD",,"CHICAGO HEIGHTS","IL","60411","POINT (-87.639505 41.494128)"
"11127972","FUTURE MOTORS, INC.","DEALER USE TAX","80 S FAIRBANK ST. STE 3",,"ADDISON","IL","60101 - 5304","POINT (-88.018104 41.926282)"
"11105841","GALAXY AUTO SALES INC","DEALER USE TAX","6655 W. 111TH ST",,"WORTH","IL","60482","POINT (-87.785299 41.690265)"
"10793573","GALLO EQUIPMENT CO.","DEALER USE TAX","11835 S AVE O",,"CHICAGO","IL","60617","POINT (-87.540019 41.679881)"
"10794585","GARY LANG CHEVROLET INC.","DEALER USE TAX","1107 S ROUTE 31",,"MC HENRY","IL","60050","POINT (-88.278247 42.312605)"
"10803133","GARY LANG IMPORTS, INC.","DEALER USE TAX","1121 S. RT. 31",,"MCHENRY","IL","60050","POINT (-88.278214 42.31266)"
"10794586","GARY LANG PONTIAC-CAD-SUB-INC","DEALER USE TAX","1111 S ROUTE 31",,"MC HENRY","IL","60050","POINT (-88.278072 42.312893)"
"11101587","GDL AUTO BODY INC","DEALER USE TAX","16510 S, CRAWFORD AVE",,"COUNTRY CLUB HILLS","IL","60478","POINT (-87.713953 41.588674)"
"10794791","GELCO CORPORATION","DEALER USE TAX","3 CAPITAL DR",,"EDEN PRAIRIE","MN","55344","POINT (-93.40759 44.857594)"
"10850275","GELCO FLEET TRUST","DEALER USE TAX","3 CAPITAL DR",,"EDEN PRAIRIE","MN","55344","POINT (-93.40759 44.857594)"
"11128184","GENUINE MOTORS INC.","DEALER USE TAX","1108 LUNT AVE.",,"SCHAUMBURG","IL","60193","POINT (-88.10786 42.001143)"
"11128018","GERALD HONDA OF MATTESON","DEALER USE TAX","5505 AUTO CT",,"MATTESON","IL","60443","POINT (-87.746711 41.504036)"
"10813686","GERALD HYUNDAI, INC.","DEALER USE TAX","209 HANSEN BLVD.",,"NORTH AURORA","IL","60542","POINT (-88.37225 41.799887)"
"21003757","GERALD IMPORTS COUNTRYSIDE, INC.","DEALER USE TAX","5901 S LA GRANGE RD",,"COUNTRYSIDE","IL","60525 - 4067","POINT (-87.868509 41.785525)"
"11128017","GERALD IMPORTS, INC","DEALER USE TAX","213 HANSEN BLVD",,"NORTH AURORA","IL","60542 - 8923","POINT (-88.372519 41.798758)"
"11100857","GERALD KIA OF NAPERVILLE","DEALER USE TAX","1661 AURORA AVE",,"NAPERVILLE","IL","60540","POINT (-88.187715 41.764582)"
"10841973","GERALD KIA OF NORTH AURORA","DEALER USE TAX","204 HANSEN BLVD",,"NORTH AURORA","IL","60542","POINT (-88.372195 41.800645)"
"10794606","GERALD NISSAN","DEALER USE TAX","1575 W OGDEN AVE",,"NAPERVILLE","IL","60540","POINT (-88.186385 41.767412)"
"10794668","GERALD NISSAN OF NORTH AURORA","DEALER USE TAX","213 HANSEN BLVD",,"NORTH AURORA","IL","60542","POINT (-88.372519 41.798758)"
"10794623","GERALD SUBARU KIA","DEALER USE TAX","1210 E OGDEN AVE",,"NAPERVILLE","IL","60563","POINT (-88.12351 41.795644)"
"11115711","GERALD SUBARU OF NORTH AURORA","DEALER USE TAX","205 HANSEN BLVD",,"NORTH AURORA","IL","60542","POINT (-88.372064 41.800611)"
"11127759","GERLAD FORD INC.","DEALER USE TAX","205 HANSEN BLVD",,"NORTH AURORA","IL","60542","POINT (-88.372064 41.800611)"
"11105545","GILLESPIE FORD","DEALER USE TAX","18834 W. GRAND AVE","P. O. BOX 297","GURNEE","IL","60031",
"10818929","GISS. CORP.","DEALER USE TAX","2500 E. HIGGINS ROAD",,"ELK GROVE VILLAGE","IL","60007","POINT (-87.946582 42.012454)"
"10793492","GIUFFRE MIDWEST LLC","DEALER USE TAX","3401 S CICERO AVE",,"CICERO","IL","60804","POINT (-87.743558 41.831334)"
"10855295","G & L AUTO 2 INC.","DEALER USE TAX","12735 S. PULASKI RD",,"ALSIP","IL","60803","POINT (-87.719059 41.660712)"
"11128082","GLEN AUTO SALES INC.","DEALER USE TAX","3036 N LAKE TERRACE",,"GLENVIEW","IL","60026","POINT (-87.836488 42.089712)"
"10794644","GLENDALE NISSAN INC.","DEALER USE TAX","484 E NORTH AVE",,"GLENDALE HEIGHTS","IL","60139","POINT (-88.067994 41.903388)"
"11127466","GLENVIEW LUXURY IMPORTS LLC","DEALER USE TAX","301 WAUKEGAN ROAD",,"GLENVIEW","IL","60025","POINT (-87.799635 42.060832)"
"11127826","GLOBAL AUTO FINANCE & LEASING, INC.","DEALER USE TAX","701 LAKE STREET",,"MAYWOOD","IL","60133","POINT (-87.842132 41.89034)"
"10794792","G M A C","DEALER USE TAX","12850 GRAN ABAY PKWY",,"JACKSONVILLE","FL","32258",
"11102744","GMOTORCARS INC.","DEALER USE TAX","2411 E. OAKTON ST., UNIT A",,"ARLINGTON HEIGHTS","IL","60005","POINT (-87.949003 42.022559)"
"10794029","GOLD COAST AUTO BODY, INC","DEALER USE TAX","900 W DIVISION",,"CHICAGO","IL","60642","POINT (-87.651681 41.90361)"
"10818674","GOLD COAST EXOTIC IMPORTS, LLC","DEALER USE TAX","834 N. RUSH",,"CHICAGO","IL","60611","POINT (-87.626176 41.897997)"
"11128158","GOLDEN MOTORS SALE LLC","DEALER USE TAX","7257 S. WESTERN AVE",,"CHICAGO","IL","60636","POINT (-87.683066 41.761177)"
"21003530","GOLFGREEN MOTOR SALES, LLC","DEALER USE TAX","9430 N GREENWOOD AVE",,"NILES","IL","60714",
"10793500","GOLF MILL MOTOR SALES, INC.","DEALER USE TAX","9401 N MILWAUKEE AVE",,"NILES","IL","60714","POINT (-87.834876 42.051204)"
"11128218","GRAND & CENTRAL AUTO SALES CORPORATION","DEALER USE TAX","5762 W. GRAND AVE",,"CHICAGO","IL","60639","POINT (-87.770426 41.919633)"
"10794031","GRAND EXPRESS AUTO SERVICE","DEALER USE TAX","5334 W GRAND AVE",,"CHICAGO","IL","60639","POINT (-87.759821 41.917654)"
"11115861","GRAND LUX AUTO LLC","DEALER USE TAX","2046-2052 N. CICERO AVE",,"CHICAGO","IL","60639","POINT (-87.746199 41.91798)"
"10851805","GRAND PRIX AUTO SALES & SERVICE","DEALER USE TAX","2442 E. OAKTON STREET",,"ARLINGTON HEIGHTS","IL","60005","POINT (-87.946451 42.02268)"
"10794038","GRAND RIVER AUTO SALES","DEALER USE TAX","8122 W GRAND AVE",,"RIVER GROVE","IL","60171",
"10794035","GRAND SLAM AUTO SALES","DEALER USE TAX","16600 S CRAWFORD AVE",,"COUNTRY CLUB HILLS","IL","60478",
"10794601","GRAND SUBARU LLC","DEALER USE TAX","125 W GRAND AVE",,"BENSENVILLE","IL","60106","POINT (-87.943076 41.931274)"
"10822339","GREATER CHICAGO MOTORS","DEALER USE TAX","500 MITCHELL RD",,"GLENDALE HEIGHTS","IL","60139 - 2581","POINT (-88.066516 41.924276)"
"10794033","GRIMALDO AUTO SALES","DEALER USE TAX","3985-89 S ARCHER AVE",,"CHICAGO","IL","60632","POINT (-87.69271 41.821194)"
"21003495","GT AUTO MALL LLC","DEALER USE TAX","2445 E OAKTON ST BLDG B",,"ARLINGTON HEIGHTS","IL","60005 - 4819","POINT (-87.947652 42.022581)"
"10822312","GUARANTEED MOTOR CARS","DEALER USE TAX","4637 S. KEDZIE",,"CHICAGO","IL","60632","POINT (-87.703998 41.808902)"
"11127766","GUARANTEE MOTORS INC","DEALER USE TAX","351 W NORTH AVE",,"VILLA PARK","IL","60181 - 1161","POINT (-87.987588 41.905264)"
"11119793","GUATEMEX CORPORATION","DEALER USE TAX","700 N CICERO AVE.",,"CHICAGO","IL","60644","POINT (-87.745745 41.89326)"
"21003582","GUERRERO AUTO SALES & REPAIR INC.","DEALER USE TAX","3821 W GRAND AVE",,"CHICAGO","IL","60651 - 2004","POINT (-87.722218 41.904526)"
"11101415","GULLIVER USA INC","DEALER USE TAX","708 E. NORTHWEST HWY",,"ARLINGTON HEIGHTS","IL","60004","POINT (-87.974297 42.08025)"
"10794602","GURNEE DODGE","DEALER USE TAX","7255 GRAND AVE",,"GURNEE","IL","60031","POINT (-87.983622 42.385888)"
"10794672","GURNEE HYUNDAI","DEALER USE TAX","PO BOX 7740",,"GURNEE","IL","60031 - 7003",
"10794063","H & A AUTO SALES","DEALER USE TAX","7200 W ADDISON",,"CHICAGO","IL","60634","POINT (-87.806983 41.945281)"
"10794705","HAGGERTY FORD, INC.","DEALER USE TAX","330 E.  ROOSEVELT ROAD",,"WEST CHICAGO","IL","60185","POINT (-88.199852 41.863871)"
"10794642","HAGGERTY PONTIAC, INC.","DEALER USE TAX","300 W ROOSEVELT RD",,"VILLA PARK","IL","60181","POINT (-87.985798 41.860458)"
"11113662","HARBOR HOME SALES LLC","DEALER USE TAX","4000 E. 134TH AVE",,"CHICAGO","IL","60633","POINT (-87.531673 41.651863)"
"11128133","HARVARD AUTO GROUP LLC","DEALER USE TAX","14017 S CICERO AVE",,"CRESTWOOD","IL","60445",
"10847182","HARVEY AUTO CENTER INC.","DEALER USE TAX","15105 MORGAN STREET",,"HARVEY","IL","60426","POINT (-87.641352 41.615033)"
"11101419","HARVEY AUTO SALES CORP.","DEALER USE TAX","14937 DIXIE HWY",,"HARVEY","IL","60426","POINT (-87.673172 41.617646)"
"10793473","HAWK CHRYSLER DODGE JEEP","DEALER USE TAX","7911 W ROOSEVELT ROAD",,"FOREST PARK","IL","60130","POINT (-87.820973 41.86474)"
"10793529","HAWK FORD OF OAK LAWN","DEALER USE TAX","6100 W 95TH ST",,"OAK LAWN","IL","60453","POINT (-87.774262 41.71972)"
"10815972","HAWKINSON KIA","DEALER USE TAX","5501 MILLER CIRCLE DR.",,"MATTESON","IL","60443","POINT (-87.747222 41.505725)"
"10793448","HAWKINSON NISSAN LLC","DEALER USE TAX","5513 MILLER CIRCLE DR",,"MATTESON","IL","60443","POINT (-87.748349 41.505784)"
"11128074","HAWK NISSAN OF ST CHARLES","DEALER USE TAX","2535 E MAIN ST",,"ST CHARLES","IL","60174","POINT (-88.284344 41.921093)"
"11104135","HAWK VOLKSWAGEN OF JOLIET","DEALER USE TAX","2861 W. JEFFERSON ST",,"JOLIET","IL","60435","POINT (-88.152837 41.522075)"
"10794616","HERITAGE CADILLAC, INC.","DEALER USE TAX","303 W ROOSEVELT RD",,"LOMMBARD","IL","60148","POINT (-88.02327 41.859883)"
"10794069","HERR DISPLAY VANS, INC.","DEALER USE TAX","22401 JOSHUA DR",,"SAUK VILLAGE","IL","60411","POINT (-87.579606 41.481541)"
"11101692","HERTZ CAR SALES","DEALER USE TAX","2170 S. MANNHEIM RD.",,"DES PLAINES","IL","60018","POINT (-87.887042 42.013065)"
"11127947","HH BODY SHOP","DEALER USE TAX","5807 W GRAND AVE",,"CHICAGO","IL","60639 - 2812","POINT (-87.770871 41.919715)"
"21003857","HH MOTORS LLC","DEALER USE TAX","1119 S MILWAUKEE AVE",,"LIBERTYVILLE","IL","60048 - 3716","POINT (-87.950231 42.268033)"
"10833486","HIGHLAND AUTO SALES, INC.","DEALER USE TAX","5136 N. WESTERN AVE",,"CHICAGO","IL","60625","POINT (-87.689204 41.975206)"
"10793296","HIGHLANDS YAMAHA INC.","DEALER USE TAX","5320 E AVE",,"COUNTRYSIDE","IL","60525","POINT (-87.859044 41.793114)"
"11127630","HIGHLINE AUTO SALES INC.","DEALER USE TAX","555 EXECUTIVE DR",,"WILLOWBROOK","IL","60527","POINT (-87.936436 41.74992)"
"11101438","HIGH POINT AUTO SERVICES, INC.","DEALER USE TAX","4922 N. CLARK ST.",,"CHICAGO","IL","60640","POINT (-87.667882 41.972053)"
"10854754","HIGH QUALITY AUTO SALES, INC.","DEALER USE TAX","4201 S. KEDZIE AVE",,"CHICAGO","IL","60632","POINT (-87.70434 41.817069)"
"11128259","HILLSIDE AUTO BODY & SERVICE INC","DEALER USE TAX","120 W. UNIVERSITY DR.",,"ARLINGTON HEIGHTS","IL","60004","POINT (-87.984596 42.132699)"
"10824092","HILUX AUTO","DEALER USE TAX","11050 S. ASHLAND AVE",,"CHICAGO","IL","60643","POINT (-87.661855 41.692326)"
"10793420","HINO OF CHICAGO","DEALER USE TAX","5330 W PERSHING RD",,"CICERO","IL","60804","POINT (-87.760708 41.821834)"
"10806965","HI TECH AUTO GROUP, INC.","DEALER USE TAX","4919 W. DIVERSEY",,"CHICAGO","IL","60439","POINT (-87.749503 41.931508)"
"10793276","HOLIDAY BOAT SALES, INC.","DEALER USE TAX","21740 LINCOLN HWY",,"LYNWOOD","IL","60411",
"10794059","HOLLYWOOD MOTORS, INC.","DEALER USE TAX","3637 WOODSIDE AVE",,"BROOKFIELD","IL","60513","POINT (-87.832476 41.825024)"
"10793539","HONDA CITY","DEALER USE TAX","4950 S PULASKI AVE",,"CHICAGO","IL","60632","POINT (-87.723505 41.802637)"
"10794723","HONDA ON GRAND","DEALER USE TAX","300 W GRAND AVE",,"ELMHURST","IL","60126","POINT (-87.94873 41.931013)"
"10793262","HOUSE OF CAMPING","DEALER USE TAX","8424 S HARLEM",,"BRIDGEVIEW","IL","60455","POINT (-87.79938 41.738281)"
"10794064","HOWARD AUTO SERVICE, INC.","DEALER USE TAX","2857 W HOWARD",,"CHICAGO","IL","60645","POINT (-87.70147 42.019305)"
"10793251","HOWARD ORLOFF JAGUAR VOLVO","DEALER USE TAX","1924 N PAULINA",,"CHICAGO","IL","60622","POINT (-87.670354 41.917203)"
"10794720","HUMMER OF NAPERVILLE","DEALER USE TAX","3200 OGDEN AVE",,"LISLE","IL","60532","POINT (-88.115092 41.796212)"
"11128005","HW USED CAR SALES LTD","DEALER USE TAX","1300 N. CICERO AVE",,"CHICAGO","IL","60651","POINT (-87.746051 41.904231)"
"10794284","H & Z AUTOMOTIVE INC.","DEALER USE TAX","410 E NORTHWEST HWY",,"DES PLAINES","IL","60016","POINT (-87.913546 42.053134)"
"10855473","I-294 USED TRUCK SALE INC","DEALER USE TAX","5250 W. PLATTNER DR",,"ALSIP","IL","60803","POINT (-87.751067 41.66548)"
"11126847","I57 GROUP AUTO SALES INC","DEALER USE TAX","16300 S. CRAWFORD AVE",,"COUNTRY CLUB HILLS","IL","60478","POINT (-87.713998 41.593119)"
"11112275","I-80 AUTO SALES INC.","DEALER USE TAX","3201 W. 167TH STREET",,"HAZEL CREST","IL","60429","POINT (-87.695044 41.586188)"
"11100562","IAA","DEALER USE TAX","605 HEALY RD,",,"EAST DUNDEE","IL","60118",
"21004111","IBARRA MOTORS INC.","DEALER USE TAX","6245 OGDEN AVE",,"BERWYN","IL","60402 - 3828","POINT (-87.780103 41.831604)"
"10794075","IBARRA MOTORS, INC.","DEALER USE TAX","5011 W 26TH ST",,"CICERO","IL","60804","POINT (-87.750072 41.844202)"
"11100314","ICARSCHICAGO LTD","DEALER USE TAX","5125 CHURCH ST",,"SKOKIE","IL","60077","POINT (-87.755016 42.04804)"
"11113857","ICONIC MOTORS INC.","DEALER USE TAX","2630 AUTO MALL DR.",,"ELGIN","IL","60124","POINT (-88.337279 42.085667)"
"11110463","IDEAL AUTO REPAIR","DEALER USE TAX","831 W. WISE ROAD",,"SCHAUMBURG","IL","60193","POINT (-88.100702 42.004496)"
"10793252","ILLINOIS HARLEY DAVIDSON SALES","DEALER USE TAX","9950 JOLIET  ROAD",,"COUNTRYSIDE","IL","60525","POINT (-87.866325 41.779377)"
"10793386","ILLINOIS TRUCK CENTRE, INC.","DEALER USE TAX","700 DEVON AVE",,"ELK GROVE VILLAGE","IL","60007",
"21003747","ILLINOIS VEHICLE AUTO SALE INC.","DEALER USE TAX","7126 S WESTERN AVE",,"CHICAGO","IL","60636 - 3615","POINT (-87.683317 41.763809)"
"10855881","IMPACT BODY WORKS INC","DEALER USE TAX","9671 CARY AVE",,"SCHILLER PARK","IL","60176","POINT (-87.869247 41.948916)"
"10855603","IMPERIAL AUTO SALES LLC","DEALER USE TAX","3111-23 N. KNOX AVE",,"CHICAGO","IL","60641","POINT (-87.743175 41.937269)"
"11124922","IMPERIAL MOTORS INC.","DEALER USE TAX","150 SKOKIE HWY",,"LAKE BLUFF","IL","60044 - 2211","POINT (-87.865924 42.272472)"
"11107935","INDIANA VICTORY MOTORCYLE OF MONEE","DEALER USE TAX","26120 S. GOVERNORS HWY",,"MONEE","IL","60449","POINT (-87.74845 41.415821)"
"10834600","INFINITI OF CLARENDON HILLS, INC.","DEALER USE TAX","415 E. OGDEN AVE",,"CLARENDON HILLS","IL","60514","POINT (-87.96277 41.81033)"
"11128076","INFINITI OF HOFFMAN ESTATES","DEALER USE TAX","1075 W GOLF RD",,"HOFFMAN ESTATES","IL","60169 - 1339","POINT (-88.106853 42.04805)"
"10794677","INFINITI OF LISLE","DEALER USE TAX","4325 LINCOLN AVE",,"LISLE","IL","60532","POINT (-88.076218 41.807388)"
"21003458","INFINITY AUTO HAUS OF ADDISON INC.","DEALER USE TAX","353 W COLFAX ST",,"PALATINE","IL","60067 - 2525","POINT (-88.053167 42.115703)"
"21003742","INFINITY GROUP FINANCIAL LLC","DEALER USE TAX","15813 HALSTED ST",,"HARVEY","IL","60426 - 5132","POINT (-87.63639 41.602027)"
"11105006","INSURANCE AUTO AUCTIONS INC.","DEALER USE TAX","16425 S.  CRAWFORD AVE",,"MARKHAM","IL","60428","POINT (-87.713817 41.590626)"
"11119076","INTEGRITY CHICAGO AUTO REPAIR EXPRESS, I","DEALER USE TAX","1708 S ASHLAND AVENUE",,"CHICAGO","IL","60608","POINT (-87.666252 41.858583)"
"10794072","INTERNATIONAL AUTO BROKERS","DEALER USE TAX","2215 RAND RD",,"PALATINE","IL","60074","POINT (-88.035513 42.151192)"
"10794084","INTERTRADE, INC.","DEALER USE TAX","7751 W 88TH ST",,"BRIDGEVIEW","IL","60455","POINT (-87.812689 41.730775)"
"11128061","ISSAQ AUTO GROUP","DEALER USE TAX","2225 MAIN ST.",,"EVANSTON","IL","60202","POINT (-87.705301 42.03377)"
"10794076","IVAN AUTO SALES, INC.","DEALER USE TAX","1844 N CICERO AVE",,"CHICAGO","IL","60639","POINT (-87.746068 41.914593)"
"21003811","IVETTE'S AUTO SALES CORP.","DEALER USE TAX","1034 N CICERO AVE",,"CHICAGO","IL","60651 - 3203","POINT (-87.745911 41.89984)"
"10793244","JACK PHELAN CHEVROLET, INC.","DEALER USE TAX","4000 S HARLEM AVE","4000 S HARLEM AVE","LYONS","IL","60534","POINT (-87.802598 41.81896)"
"10793502","JACK PHELAN DODGE LLC","DEALER USE TAX","5859 S. LAGRANGE ROAD",,"COUNTRYSIDE","IL","60525","POINT (-87.868413 41.783744)"
"10793428","JACOB PRESS' SONS, INC.","DEALER USE TAX","7674 W 79TH ST",,"BRIDGEVIEW","IL","60455","POINT (-87.809819 41.747943)"
"11128077","JAGUAR SCHAUMBURG & LAND ROVER SCHAUMBUR","DEALER USE TAX","920 GOLF RD",,"SCHAUMBURG","IL","60194",
"11100951","JAIMES TRUCK REPAIR LLC","DEALER USE TAX","10326 S, INDIANAPOLIS BLVD",,"CHICAGO","IL","60617","POINT (-87.529548 41.707392)"
"11101023","JAIROS AUTO SALES INC","DEALER USE TAX","2647-2659 W. 79TH ST",,"CHICAGO","IL","60652","POINT (-87.689691 41.749942)"
"10855579","JAPAN AUTO SERVICE INC","DEALER USE TAX","934 S. ARLINGTON HEIGHTS RD",,"ARLINGTON HEIGHTS","IL","60005","POINT (-87.980223 42.066931)"
"21003842","JBA AUTO SALES INC.","DEALER USE TAX","1615 N MANNHEIM RD",,"STONE PARK","IL","60165 - 1221","POINT (-87.883755 41.900676)"
"21004170","JDC AUTO, LLC","DEALER USE TAX","5950 N WESTERN AVE",,"CHICAGO","IL","60659 - 5004","POINT (-87.689719 41.989648)"
"11124869","JEDROS USED CAR SALES LLC","DEALER USE TAX","3935 W. ARMITAGE AVE",,"CHICAGO","IL","60647","POINT (-87.725429 41.917202)"
"10794105","JEFF AUTO SALES INC.","DEALER USE TAX","2456 N CICERO AVE",,"CHICAGO","IL","60639","POINT (-87.746436 41.925867)"
"10793236","JENNINGS CHEVROLET, INC.","DEALER USE TAX","241 WAUKEGAN RD",,"GLENVIEW","IL","60025 - 5190","POINT (-87.79965 42.059994)"
"10793384","JENNINGS VOLKSWAGON, INC.","DEALER USE TAX","201 WAUKEGAN RD",,"GLENVIEW","IL","60025 - 5100","POINT (-87.799572 42.059235)"
"10794641","JERRY HAGGERTY CHEV., INC.","DEALER USE TAX","300 W ROOSEVELT RD",,"GLEN ELLYN","IL","60137","POINT (-88.077597 41.85924)"
"11128235","JF AUTO GROUP","DEALER USE TAX","625 N. CICERO",,"CHICAGO","IL","60644","POINT (-87.745693 41.891943)"
"11120449","JIDD ENTERPRISES LLC","DEALER USE TAX","855 RAND RD",,"DES PLAINES","IL","60016 - 2336","POINT (-87.902926 42.05673)"
"10833545","JIDD MOTORS, INC.","DEALER USE TAX","855 E. RAND ROAD",,"DES PLAINES","IL","60016","POINT (-87.902926 42.05673)"
"21003528","JIREH AUTO SALES","DEALER USE TAX","733 N CICERO AVE",,"CHICAGO","IL","60644 - 1305","POINT (-87.745779 41.894415)"
"10794102","J & J AUTO BODY & SALES, INC.","DEALER USE TAX","9011 S OKETO AVE",,"BRIDGEVIEW","IL","60455","POINT (-87.803708 41.727248)"
"10794113","J & J MARKETING SOLUTIONS, INC","DEALER USE TAX","7801 S ROBERTS ROAD",,"BRIDGEVIEW","IL","60445","POINT (-87.819143 41.74922)"
"10794633","JK PONTIAC GMC","DEALER USE TAX","2300 OGDEN AVE",,"DOWNERS GROVE","IL","60515","POINT (-88.04126 41.806122)"
"10839132","JM MOTORSPORTS LLC","DEALER USE TAX","3245 GLENWOOD DYER ROAD",,"LYNWOOD","IL","60411","POINT (-87.537785 41.513009)"
"11128006","JOE RIZZA ALFA ROMEO MASERATI","DEALER USE TAX","8130 W. 159TH ST",,"ORLAND PARK","IL","60462","POINT (-87.815989 41.602006)"
"10793377","JOE RIZZAFORD OF ORLAND PARK, INC.","DEALER USE TAX","8100 W 159TH ST",,"ORLAND PARK","IL","60462","POINT (-87.815812 41.602008)"
"10793600","JOE RIZZA IMPORTS, INC.","DEALER USE TAX","8150 W 159 TH ST",,"ORLAND PARK","IL","60462","POINT (-87.817691 41.601984)"
"10824847","JOE'S AUTO SERVICE, INC.","DEALER USE TAX","8257 S. RACINE",,"CHICAGO","IL","60620","POINT (-87.653576 41.743416)"
"10794094","JOHN'S AUTO SALES & BODY SHOP","DEALER USE TAX","5808-10 N WESTERN AVE",,"CHICAGO","IL","60659","POINT (-87.689613 41.986962)"
"21003660","JONES AUTO INC","DEALER USE TAX","267 E 150TH ST",,"HARVEY","IL","60426 - 2322","POINT (-87.640835 41.617212)"
"10793720","JORDAN AUTO BODY CORP.","DEALER USE TAX","3689 W GRAND AVE",,"CHICAGO","IL","60651","POINT (-87.719506 41.903445)"
"10794110","J & T AUTO BODY, INC.","DEALER USE TAX","7455 S HARLEM",,"BRIDGEVIEW","IL","60455","POINT (-87.79994 41.755661)"
"10794092","JUSTICE SUZUKI AUTO","DEALER USE TAX","7500 ARCHER RD",,"JUSTICE","IL","60458","POINT (-87.833781 41.754001)"
"10794096","JUST IMPORT AUTO SALES, INC.","DEALER USE TAX","525 GREEN BAY RD",,"WILMETTE","IL","60091","POINT (-87.707329 42.074347)"
"11109490","JW AUTO SALES & STORAGE","DEALER USE TAX","7118-24 S HALSTED",,"CHICAGO","IL","60621","POINT (-87.644405 41.764525)"
"10852608","JZ AUTO SALES INC","DEALER USE TAX","6158 S. HARLEM AVE",,"SUMMIT","IL","60501","POINT (-87.8011 41.779474)"
"11112298","KALOU MOTORSPORTS INC.","DEALER USE TAX","2088 N RAND RD",,"PALATINE","IL","60074 - 2526","POINT (-88.031701 42.148137)"
"10794115","KAMS AUTO SALES INC","DEALER USE TAX","3001 N CICERO AVE",,"CHICAGO","IL","60641","POINT (-87.74667 41.935275)"
"10794117","KAR KARE SALES & SERVICE","DEALER USE TAX","7455 S EXCHANGE",,"CHICAGO","IL","60649","POINT (-87.560384 41.759452)"
"10794597","KARL KNAUZ MOTORS","DEALER USE TAX","407 N SKOKIE VALLEY HWY",,"LAKE BLUFF","IL","60044",
"21003454","KASSEM AUTO SALES, INC","DEALER USE TAX","4737 S CENTRAL AVE",,"CHICAGO","IL","60638 - 1530","POINT (-87.762636 41.806012)"
"11103171","KATTS KARRS","DEALER USE TAX","2939 W 127TH ST",,"BLUE ISLAND","IL","60406",
"21004226","KEDZIE51 AUTO REPAIR INC","DEALER USE TAX","5101 S KEDZIE AVE",,"CHICAGO","IL","60632 - 3126","POINT (-87.703749 41.80061)"
"10793591","KELLY NISSAN, INC.","DEALER USE TAX","4300 W 95 TH ST",,"OAK LAWN","IL","60453","POINT (-87.728578 41.720329)"
"10794119","KICK'S AUTO SALES INC","DEALER USE TAX","13709 S. KENTON AVE., UNIT 4",,"CRESTWOOD","IL","60445",
"10818099","KINGDOM CHEVROLET","DEALER USE TAX","6603 S. WESTERN AVE",,"CHICAGO","IL","60636","POINT (-87.683424 41.772711)"
"11116174","K & M CAR SALES INC.","DEALER USE TAX","1235 BURNHAM AVE",,"CALUMET CITY","IL","60409","POINT (-87.539441 41.599589)"
"21003833","KNAPHEIDE EQUIPMENT CO. CHICAGO","DEALER USE TAX","2600 W IL ROUTE 120",,"MCHENRY","IL","60051 - 4563","POINT (-88.252399 42.342919)"
"10794595","KNAUZ CONTINENTAL AUTOS INC.","DEALER USE TAX","409 SKOKIE HWY",,"LAKE BLUFF","IL","60044","POINT (-87.870336 42.277558)"
"10818211","KNIGHT'S BODY SHOP, INC.","DEALER USE TAX","8604 PLAINFIELD ROAD",,"LYONS","IL","60534","POINT (-87.835288 41.813933)"
"11128182","KNZ AUTO SALE","DEALER USE TAX","4000 W. 87TH ST",,"CHICAGO","IL","60652","POINT (-87.721536 41.734917)"
"10793393","KOWALIS MOTOR CAR, INC.","DEALER USE TAX","8300 W 159 TH ST",,"ORLAND PARK","IL","60462","POINT (-87.820341 41.601942)"
"10803473","LAKE FOREST SPORTSCARS, LTD.","DEALER USE TAX","990 N. SHORE DRIVE",,"LAKE BLUFF","IL","60044","POINT (-87.873688 42.272728)"
"10832673","LAKE'S AUTO, INC.","DEALER USE TAX","2240 N, MANNHEIM RD",,"MELROSE PARK","IL","60164","POINT (-87.884299 41.918661)"
"11110612","LAKEWOOD AUTO GROUP LLC","DEALER USE TAX","4341 W. 136TH CT",,"CRESTWOOD","IL","60445","POINT (-87.727149 41.64431)"
"21003896","LAND ROVER HINSDALE LLC","DEALER USE TAX","336 E OGDEN AVE",,"HINSDALE","IL","60521 - 3609","POINT (-87.921493 41.817316)"
"10793583","LANDROVER NORTHFIELD","DEALER USE TAX","670 W FRONTAGE RD",,"NORTHFIELD","IL","60093 - 1254","POINT (-87.774237 42.110067)"
"10813522","LANDROVER VOLVO AUDI JAGUAR","DEALER USE TAX","8021-8031 W. 159TH STREET",,"TINLEY PARK","IL","60477","POINT (-87.814926 41.601911)"
"10794128","LANSING AUTO, INC.","DEALER USE TAX","2345 GLENWOOD-LANSING RD",,"LYNWOOD","IL","60411","POINT (-87.559946 41.542839)"
"11128224","LANSING AUTO SALES INC.","DEALER USE TAX","2444 RIDGE RD",,"LANSING","IL","60438","POINT (-87.557384 41.564729)"
"10794683","LARRY ROESCH VW-VILLA PARK","DEALER USE TAX","313 W GRAND AVE",,"BENSENVILLE","IL","60106","POINT (-87.950721 41.93092)"
"21003785","LAS DOS FRIDAS AUTO SALES INC","DEALER USE TAX","1659 W CERMAK RD",,"CHICAGO","IL","60608 - 4413","POINT (-87.667584 41.852327)"
"11100385","LAS DOS FRIDAS AUTO SALES INC.","DEALER USE TAX","1900-04 S. CICERO AVE",,"CICERO","IL","60804","POINT (-87.744382 41.854806)"
"10794140","LB'S DISCOUNT AUTO SALES","DEALER USE TAX","3420 CHICAGO ROAD",,"STEGER","IL","60475","POINT (-87.635917 41.469108)"
"11118170","LEGACY MOTORS INC.","DEALER USE TAX","1648 N. CICERO AVE",,"CHICAGO","IL","60639","POINT (-87.746052 41.910507)"
"21004178","LEGACY SHIPPING TRANSPORT & LOGISTICS CO.","DEALER USE TAX","1910 W 127TH ST",,"CALUMET PARK","IL","60827 - 5604","POINT (-87.668756 41.662841)"
"11118915","LEGEND AUTO GROUP INC","DEALER USE TAX","6800 S WESTERN AVE.",,"CHICAGO","IL","60639","POINT (-87.683485 41.769808)"
"11100311","LEHMANN-PETERSON CORP.","DEALER USE TAX","3737 INDUSTRIAL AVE",,"ROLLING MEADOWS","IL","60008","POINT (-88.034119 42.095654)"
"10794141","LEON'S AUTO SALES","DEALER USE TAX","3632 N CICERO AVE",,"CHICAGO","IL","60641","POINT (-87.747144 41.947059)"
"21004104","LEON'S AUTO SALES INC","DEALER USE TAX","2629 N CICERO AVE",,"CHICAGO","IL","60639 - 1717","POINT (-87.746391 41.928682)"
"21004107","LEON'S AUTO SALES INC","DEALER USE TAX","2010 W NORTH AVE",,"MELROSE PARK","IL","60160 - 1113","POINT (-87.859345 41.907868)"
"21004105","LEON'S AUTO SALES INC","DEALER USE TAX","4517 S ARCHER AVE",,"CHICAGO","IL","60632 - 2916","POINT (-87.708699 41.811386)"
"21004106","LEON'S AUTO SALES INC","DEALER USE TAX","5110 W CERMAK RD",,"CICERO","IL","60804 - 2901","POINT (-87.751862 41.851224)"
"21004101","LEON'S AUTO SALES INC","DEALER USE TAX","2435 N CICERO AVE",,"CHICAGO","IL","60639 - 2538","POINT (-87.746249 41.925372)"
"21004108","LEON'S AUTO SALES INC","DEALER USE TAX","845 E CHICAGO ST",,"ELGIN","IL","60120 - 6818","POINT (-88.258498 42.035099)"
"10794592","LEXUS OF HIGHLAND PARK","DEALER USE TAX","2930 SKOKIE VALLEY RD",,"HIGHLAND PARK","IL","60035","POINT (-87.83707 42.206491)"
"10794626","LEXUS OF NAPERVILLE","DEALER USE TAX","2480 AURORA AVE",,"NAPERVILLE","IL","60540","POINT (-88.194427 41.763409)"
"10794755","LIBERTY AUTO SALES, INC.","DEALER USE TAX","900 N LIBERTY ST",,"ELGIN","IL","60120","POINT (-88.267696 42.053497)"
"10794673","LIBERTY IMPORT CENTER","DEALER USE TAX","920 S MILWAUKEE AVE",,"LIBERTYVILLE","IL","60048","POINT (-87.950778 42.271211)"
"10833032","LIBERTYVILLE CHEVROLET, INC.","DEALER USE TAX","1001 S. MILWAUKEE AVE",,"LIBERTYVILLE","IL","60048","POINT (-87.951082 42.271915)"
"10794664","LIBERTYVILLE MITSUBISHI","DEALER USE TAX","1119 S MILWAUKEE AVE",,"LIBERTYVILLE","IL","60048","POINT (-87.950231 42.268033)"
"21003793","LKQ MIDWEST INC","DEALER USE TAX","500 W MADISON ST",,"CHICAGO","IL","60661 - 4544","POINT (-87.640418 41.881877)"
"10794156","L & L AUTO SERVICE, INC.","DEALER USE TAX","4142 N WESTERN AVE",,"CHICAGO","IL","60618","POINT (-87.688592 41.956994)"
"10800860","L & L CARS AUTOMOTIVE, INC.","DEALER USE TAX","990 E. NORTHWEST HWY.",,"MT. PROSPECT","IL","60056","POINT (-87.923307 42.057477)"
"10793359","LOEBER MOTORS, INC. (LINCOLWD)","DEALER USE TAX","4255 W TOUHY AVE",,"LINCOLNWOOD","IL","60712","POINT (-87.735201 42.01173)"
"21003460","LOQUERCIO AUTOMOTIVE UC, LLC","DEALER USE TAX","1010 E CHICAGO ST",,"ELGIN","IL","60120 - 6823","POINT (-88.251787 42.033097)"
"10793363","LOREN HYUNDAI, INC.","DEALER USE TAX","1610 WAUKEGAN",,"GLENVIEW","IL","60025","POINT (-87.798385 42.083982)"
"10794136","LUCHAS AUTO SALES","DEALER USE TAX","3535 E 100 TH ST",,"CHICAGO","IL","60617","POINT (-87.537288 41.713871)"
"10852596","LUX CARS CHICAGO INC","DEALER USE TAX","88 E. DUNDEE ROAD",,"BUFFALO GROVE","IL","60089","POINT (-87.95657 42.138914)"
"11105008","LUXURY AUTO MALL CORP","DEALER USE TAX","1037 W. 95TH STREET",,"CHICAGO","IL","60643","POINT (-87.649798 41.721306)"
"10853001","LUXURY AUTOMAX","DEALER USE TAX","17651 OAK PARK AVE",,"TINLEY PARK","IL","60477","POINT (-87.784187 41.57014)"
"11127640","LUXURY IMPORTS AUTO INC","DEALER USE TAX","3975 ALGONQUIN ROAD",,"ROLLING MEADOWS","IL","60008","POINT (-88.029142 42.062713)"
"10853960","LUXURY MOTOR CREDITS INC.","DEALER USE TAX","7158 S. HARLEM AVE",,"BRIDGEVIEW","IL","60455","POINT (-87.800303 41.761361)"
"10793497","LYNCH CHICAGO INC","DEALER USE TAX","4300 W. 123RD ST",,"ALSIP","IL","60803","POINT (-87.726493 41.669253)"
"11128208","M & A AUTO REPAIR 1 INC.","DEALER USE TAX","1331 S. LARAMIE",,"CICERO","IL","60804","POINT (-87.754396 41.862708)"
"10794164","MACK'S MOTOR SALES INC","DEALER USE TAX","2901 N CICERO AVE",,"CHICAGO","IL","60641 - 5131","POINT (-87.746593 41.933381)"
"11128270","MAF LEASING","DEALER USE TAX","14131 MIDWAY ROAD","STE #900","ADDISON","TX","75001 - 0","POINT (-96.839018 32.942533)"
"10794165","MAGIC AUTO GLASS INC","DEALER USE TAX","5658 S WESTERN",,"CHICAGO","IL","60636","POINT (-87.684045 41.790638)"
"10793542","MAGIC AUTO, INC.","DEALER USE TAX","1001 NORTHWEST HWY",,"DES PLAINES","IL","60016","POINT (-87.899923 42.047501)"
"10794718","MAGNIFICENT MOTOR CARS, INC.","DEALER USE TAX","225 N RANDALL ROAD",,"ST. CHARLES","IL","60174","POINT (-88.340211 41.914891)"
"10793328","MANCARI'S CHRYSLER PLYMOUTH","DEALER USE TAX","4630 W 95TH ST",,"OAK LAWN","IL","60453","POINT (-87.736568 41.720165)"
"21004038","MANNHEIM LUXURY MOTORS, INC","DEALER USE TAX","1748 N MANNHEIM RD",,"STONE PARK","IL","60165 - 1121","POINT (-87.883891 41.905092)"
"10847549","MANNY AUTO INC.","DEALER USE TAX","1600 S CICERO",,"CICERO","IL","60804",
"10793285","MANOR MOBILE HOME SALES, INC.","DEALER USE TAX","8035 W 79TH ST",,"JUSTICE","IL","60458","POINT (-87.820579 41.747571)"
"11126314","MAR CHI-H LLC","DEALER USE TAX","1111 N. CLARK STREET",,"CHICAGO","IL","60610","POINT (-87.63139 41.902276)"
"11126312","MAR CHI-V LLC","DEALER USE TAX","1111 N. CLARK STREET",,"CHICAGO","IL","60610","POINT (-87.63139 41.902276)"
"10803829","MARINO CHRYSLER JEEP DODGE","DEALER USE TAX","5133 W. IRVING PARK ROAD",,"CHICAGO","IL","60641","POINT (-87.756035 41.953333)"
"10818027","MAROS AUTO SALES, INC.","DEALER USE TAX","4212 W. 26TH STREET",,"CHICAGO","IL","60623","POINT (-87.730043 41.844175)"
"10793289","MARQUARDT BUICK, INC.","DEALER USE TAX","1421 S BARRINGTON RD",,"BARRINGTON","IL","60010","POINT (-88.136187 42.132345)"
"10838690","MARTIN CHEVROLET OF CRYSTAL LAKE, INC.","DEALER USE TAX","5220 E. NORTHWEST HWY",,"CRYSTAL LAKE","IL","60014","POINT (-88.300634 42.226193)"
"10793248","MARTIN NISSAN, INC.","DEALER USE TAX","5240 GOLF RD",,"SKOKIE","IL","60077","POINT (-87.757834 42.05533)"
"11100555","MASTERS AUTO SALES INC","DEALER USE TAX","12900 S THROOP ST",,"CALUMET PARK","IL","60827 - 6424","POINT (-87.653289 41.657828)"
"11128193","MAVERICKS MOTOR CARS INC","DEALER USE TAX","14305 S. WESTERN AVE",,"DIXMOOR","IL","60406","POINT (-87.676494 41.629289)"
"10794062","MAXIMUM MANUF. HOMES, INC.","DEALER USE TAX","15000 DIXIE HWY",,"HARVEY","IL","60426","POINT (-87.673157 41.617078)"
"10794185","MAX MOTOR, INC.","DEALER USE TAX","5759 S WESTERN AVE",,"CHICAGO","IL","60636","POINT (-87.683838 41.788397)"
"11128046","MAYA AUTO REPAIR INC","DEALER USE TAX","1800 N. CICERO AVE",,"CHICAGO","IL","60639","POINT (-87.746041 41.913354)"
"10793446","MCCARTHY FORD, INC.","DEALER USE TAX","11401 S PULASKI RD",,"CHICAGO","IL","60655","POINT (-87.720081 41.685752)"
"10794167","MCCORMICK AUTO CARE INC","DEALER USE TAX","8250 N MCCORMICK BLVD",,"SKOKIE","IL","60076","POINT (-87.710994 42.031431)"
"10793466","MCGRATH ACURA","DEALER USE TAX","9105 WAUKEGAN ROAD",,"MORTON GROVE","IL","60053","POINT (-87.799276 42.046831)"
"10838505","MCGRATH ACURA OF DOWNTOWN","DEALER USE TAX","1201-1301 N. ELSTON AVE, 1ST FLOOR",,"CHICAGO","IL","60642","POINT (-87.658776 41.903873)"
"11127763","MCGRATH ACURA OF LIBERTYVILLE","DEALER USE TAX","1620 S. MILWAUKEE AVE",,"LIBERTYVILLE","IL","60048","POINT (-87.946774 42.253079)"
"10794684","MCGRATH ACURA OF WESTMONT","DEALER USE TAX","400 E OGDEN AVE",,"WESTMONT","IL","60559","POINT (-87.965791 41.810284)"
"10793538","MCGRATH CITY HONDA","DEALER USE TAX","6720 W GRAND AVE",,"CHICAGO","IL","60707","POINT (-87.793046 41.92364)"
"10793537","MCGRATH CITY HYUNDAI","DEALER USE TAX","6750 W GRAND AVE",,"CHICAGO","IL","60707","POINT (-87.794652 41.923632)"
"11128221","MCGRATH CITY MAZDA","DEALER USE TAX","3255 N. CICERO AVE",,"CHICAGO","IL","60641","POINT (-87.746851 41.940763)"
"10794634","MC GRATH COLOSIMO LTD.","DEALER USE TAX","470 E OGDEN AVE",,"WESTMONT","IL","60559","POINT (-87.962192 41.810365)"
"21003560","MCGRATH EVANSTON SUBARU, INC","DEALER USE TAX","3340 OAKTON ST",,"SKOKIE","IL","60076 - 2953","POINT (-87.712861 42.026398)"
"10793354","MCGRATH HONDA, INC.","DEALER USE TAX","2020 N. RANDALL",,"ELGIN","IL","60123","POINT (-88.335517 42.083778)"
"10793352","MCGRATH IMPORTS, INC.","DEALER USE TAX","7000 GOLF RD",,"MORTON GROVE","IL","60053",
"10793609","MCGRATH LEXUS OF CHICAGO","DEALER USE TAX","1250 W DIVISION ST",,"CHICAGO","IL","60642 - 4133","POINT (-87.65974 41.903502)"
"10794639","MCGRATH MOTORS, INC.","DEALER USE TAX","1411 E MAIN ST",,"ST. CHARLES","IL","60174","POINT (-88.299239 41.917253)"
"10793404","MCGRATH NISSAN, INC.","DEALER USE TAX","945 E CHICAGO ST",,"ELGIN","IL","60120 - 6820","POINT (-88.255031 42.034073)"
"11127767","MCGRATH VOLVO CARS OF BARRINGTON","DEALER USE TAX","1415 S. BARRINGTON RD",,"BARRINGTON","IL","60010","POINT (-88.136188 42.133464)"
"21001969","MCI SALES & SERVICE, INC.","DEALER USE TAX","200 E. OAKTON ST",,"DES PLAINES","IL","60018","POINT (-87.914612 42.023237)"
"11125593","MCLAREN CHICAGO","DEALER USE TAX","645-647 W. RANDOLPH STREET",,"CHICAGO","IL","60661","POINT (-87.644375 41.884332)"
"11128272","MC MOTORS INC","DEALER USE TAX","15N272 RT25 UNIT F",,"EAST DUNDEE","IL","60118",
"10834404","MEDINA CAR SALES","DEALER USE TAX","801S. CICERO AVE",,"CHICAGO","IL","60644",
"10793264","MEDOWCREEK MOBILE HOME PARK","DEALER USE TAX","4503 W LAKE ST",,"MELROSE PARK","IL","60160","POINT (-87.887783 41.898039)"
"21003721","MEGA AUTO SALES","DEALER USE TAX","12747 S HALSTED ST",,"CHICAGO","IL","60628 - 7059","POINT (-87.641306 41.661764)"
"21004117","MELROSE AUTO MARKET","DEALER USE TAX","3217 W LAKE ST",,"MELROSE PARK","IL","60160 - 2821","POINT (-87.873527 41.896874)"
"11128078","MERCEDES BENZ OF HOFFMAN ESTATES","DEALER USE TAX","1000 GOLF RD",,"HOFFMAN ESTATES","IL","60169",
"10849935","MERCEDES BENZ OF ORLAND PARK","DEALER USE TAX","8430 W. 159TH STREET",,"ORLAND PARK","IL","60462","POINT (-87.82492 41.601872)"
"10793320","MER, INC.","DEALER USE TAX","2950 W 127 TH ST",,"BLUE ISLAND","IL","60406","POINT (-87.694038 41.662469)"
"10793345","METRO FORD SALES & SERVICE,INC","DEALER USE TAX","6455 S WESTERN AVE",,"CHICAGO","IL","60636","POINT (-87.683497 41.776065)"
"10793736","MGM AUTO","DEALER USE TAX","521 N ASHLAND AVE",,"CHICAGO","IL","60622","POINT (-87.667135 41.891542)"
"21003759","MH FINANCE INC","DEALER USE TAX","14115 WESTERN AVE",,"BLUE ISLAND","IL","60406 - 3444",
"21003753","MICASA MOTORS INC.","DEALER USE TAX","13449 S CRAWFORD AVE",,"ROBBINS","IL","60472 - 1001","POINT (-87.718587 41.648202)"
"10794216","MICHAEL MOTORS LTD","DEALER USE TAX","103 E 147TH ST",,"HARVEY","IL","60426 - 1726","POINT (-87.650155 41.622635)"
"21004034","MICHAEL MOTORS LTD","DEALER USE TAX","2662 N CICERO AVE",,"CHICAGO","IL","60639 - 1768","POINT (-87.746571 41.929548)"
"10794213","MICH AUTO SALES, INC.","DEALER USE TAX","4478 S. ARCHER",,"CHICAGO","IL","60632","POINT (-87.707896 41.811875)"
"10794217","MID AMERICA AUTO SALES","DEALER USE TAX","5912 S ASHLAND AVE",,"CHICAGO","IL","60636","POINT (-87.66447 41.786247)"
"10793383","MID CITY NISSAN, INC.","DEALER USE TAX","3456 N KEDZIE AVE",,"CHICAGO","IL","60618","POINT (-87.707726 41.944362)"
"11127638","MIDLAND COMMERCIAL TRUCK LEASE & SLS LLC","DEALER USE TAX","9159 S. HARLEM AVE","STE. 2","BRIDGEVIEW","IL","60455","POINT (-87.798739 41.724997)"
"11127987","MIDNIGHT AUTO SALES, INC.","DEALER USE TAX","1234 E. SIBLEY BLVD",,"DOLTON","IL","60419","POINT (-87.586219 41.622669)"
"11114227","MIDWAY AUTOHAUS CORP INC.","DEALER USE TAX","7405 S. HARLEM AVE",,"BRIDGEVIEW","IL","60455","POINT (-87.799988 41.7568)"
"10794241","MIDWAY AUTO MALL, INC.","DEALER USE TAX","5235 W 47TH ST",,"FOREST VIEW","IL","60638","POINT (-87.754328 41.807487)"
"10793415","MIDWAY DODGE, INC.","DEALER USE TAX","4747 S PULASKI RD",,"CHICAGO","IL","60632","POINT (-87.723462 41.806467)"
"10794171","MIDWAY MOTOR SALES INC.","DEALER USE TAX","2346 S CICERO",,"CICERO","IL","60804",
"10794183","MIDWEST AUTO SALES","DEALER USE TAX","7232 S WESTERN AVE",,"CHICAGO","IL","60636","POINT (-87.683265 41.761754)"
"10794173","MIDWEST CAR EXCHANGE INC.","DEALER USE TAX","12533 S LARAMIE",,"ALSIP","IL","60803","POINT (-87.748494 41.663521)"
"10794174","MIDWEST MOTOR WORKS, INC.","DEALER USE TAX","10711 W 165TH ST.",,"ORLAND PARK","IL","60462",
"10794189","MIDWEST TRAILER REPAIR INC.","DEALER USE TAX","1900 W 43RD ST",,"CHICAGO","IL","60609","POINT (-87.673017 41.815829)"
"10810293","MIKE ANDERSON CHEVROLET OF CHICAGO","DEALER USE TAX","5333 W. IRVING PARK ROAD",,"CHICAGO","IL","60641","POINT (-87.760277 41.95328)"
"10793373","MIKE HAGGERTY BUICK-GMC, INC.","DEALER USE TAX","9301 S CICERO AVE",,"OAK LAWN","IL","60453","POINT (-87.740821 41.723148)"
"10794221","MILLENNIUM AUTO SALES, INC.","DEALER USE TAX","4541 W BELMONT AVE",,"CHICAGO","IL","60641","POINT (-87.741269 41.938925)"
"10794198","MITCH AUTO SALES, INC.","DEALER USE TAX","4013 S ARCHER AVE",,"CHICAGO","IL","60632","POINT (-87.693242 41.820869)"
"10823576","MJ AUTO SALES, INC.","DEALER USE TAX","3278 S. ARCHER AVE.",,"CHICAGO","IL","60608","POINT (-87.671073 41.834445)"
"11119121","M&K AUTOMOTIVE INC","DEALER USE TAX","1400 EAST DUNDEE ROAD",,"PALATINE","IL","60074","POINT (-88.011556 42.139171)"
"10840753","M&K QUALITY TRUCK SALES OF ALSIP LLC","DEALER USE TAX","5300 W. PLATTNER DR",,"ALSIP","IL","60803","POINT (-87.752145 41.665832)"
"10840752","M&K QUALITY TRUCK SALES OF SUMMIT LLC","DEALER USE TAX","4350 CLYDE PARK AVE SW",,"WYOMING","MI","49509","POINT (-85.684493 42.885621)"
"10840752","M&K QUALITY TRUCK SALES OF SUMMIT LLC","DEALER USE TAX","4350 CLYDE PARK AVE SW",,"WYOMING","MI","49509","POINT (-85.684493 42.885621)"
"11110485","M & K QUALITY TRUCK SLS OF NORTHERN IL","DEALER USE TAX","901 W. OAKTON STREET",,"DES PLAINES","IL","60018","POINT (-87.940166 42.022679)"
"11127890","M & K TRUCK CENTER OF SOUTH CHICAGO LLC","DEALER USE TAX","94 E. SAUK TRAIL",,"SOUTH CHICAGO HEIGHTS","IL","60411","POINT (-87.630321 41.481375)"
"10793325","MOBILE FACILITIES OF ILLINOIS","DEALER USE TAX","3230 E. LINCOLN HWY.",,"LYNWOOD","IL","60411","POINT (-87.538196 41.506531)"
"10793326","MOBILE OFFICE, INC.","DEALER USE TAX","4845 W 111TH ST",,"ALSIP","IL","60803","POINT (-87.742366 41.690807)"
"10820059","MOBILITY WORKS","DEALER USE TAX","9207 N. MILWAUKEE AVE",,"NILES","IL","60714","POINT (-87.832478 42.04788)"
"10794199","MODERN CARRIAGE WERKS, INC.","DEALER USE TAX","7500 W 85TH ST",,"BRIDGEVIEW","IL","60455","POINT (-87.80767 41.736959)"
"21003472","MONGOL MOTORS","DEALER USE TAX","1055 COURTESY DR UNIT D",,"WHEELING","IL","60090 - 6385","POINT (-87.902136 42.11979)"
"10803717","MORELIA AUTO SALES, INC.","DEALER USE TAX","125 SOUTH 1ST AVE.",,"MAYWOOD","IL","60153","POINT (-87.834301 41.886807)"
"10794193","MOTOR CARS EXPRESS","DEALER USE TAX","12400 S. KEELER AVE.",,"ALSIP","IL","60803","POINT (-87.72506 41.667168)"
"10848509","MOTOR CYCLE CENTER INC","DEALER USE TAX","443 E. ST. CHARLES RD",,"VILLA PARK","IL","60181","POINT (-87.967727 41.890111)"
"10794251","MOTOR TREND IMPORTS LLC","DEALER USE TAX","1881 TECHNY RD STE B",,"NORTHBROOK","IL","60062 - 5450","POINT (-87.822563 42.116429)"
"10793372","MOTOR WERKS OF BARRINGTON, INC","DEALER USE TAX","1475 S BARRINGTON RD",,"BARRINGTON","IL","60010","POINT (-88.136234 42.129102)"
"10793541","MOTOWORK CHICAGO LTD.","DEALER USE TAX","1901 S WESTERN",,"CHICAGO","IL","60608","POINT (-87.685662 41.855667)"
"11101027","MOTO ZONE INC","DEALER USE TAX","2690 DIVISION ST",,"MELROSE PARK","IL","60160 - 3034","POINT (-87.86602 41.90027)"
"11128230","M & R COMPLETE INC","DEALER USE TAX","4892 W. GRAND AVE",,"CHICAGO","IL","60639","POINT (-87.749263 41.915223)"
"10794223","MR. CORNER AUTO SALES","DEALER USE TAX","1324 N CICERO AVE",,"CHICAGO","IL","60651","POINT (-87.746059 41.904907)"
"10794177","MR C'S AUTO MART, INC.","DEALER USE TAX","4558 W 147TH ST",,"MIDLOTHIAN","IL","60445",
"21003523","M & S AUTO SALES OF CHICAGO INC.","DEALER USE TAX","7148 S WESTERN AVE",,"CHICAGO","IL","60636 - 3615","POINT (-87.683298 41.763181)"
"10849461","MULLER ACURA OF MERRILLVILLE","DEALER USE TAX","3301 W. LINCOLN HWY",,"MERRILLVILLE","IN","46410","POINT (-87.377218 41.471018)"
"10794709","MULLER HONDA","DEALER USE TAX","550 SKOKIE VALLEY ROAD",,"HIGHLAND PARK","IL","60035","POINT (-87.80891 42.162297)"
"11105397","MULLER HONDA OF GURNEE","DEALER USE TAX","7000 GRAND AVE",,"GURNEE","IL","60031","POINT (-87.975492 42.385942)"
"10834979","MULLER NISSAN SUBARU VW","DEALER USE TAX","1340-50 PARK AVE W",,"HIGHLAND PARK","IL","60035","POINT (-87.823902 42.18896)"
"11128257","MUNDO AUTO SALES INC","DEALER USE TAX","750 E. CHICAGO ST",,"ELGIN","IL","60120","POINT (-88.260836 42.035762)"
"10794203","M & V AUTO BODY & SALES, INC.","DEALER USE TAX","4428 SOO LINE",,"SCHILLER PARK","IL","60167","POINT (-87.865244 41.9589)"
"11106441","MY CHOICE MOTORS LLC","DEALER USE TAX","530 W. GRAND AVE",,"ELMHURST","IL","60126","POINT (-87.958315 41.928652)"
"10794273","N. A. B., INC.","DEALER USE TAX","2705 S WABASH AVE",,"CHICAGO","IL","60616","POINT (-87.625312 41.844462)"
"10794689","NAPERVILLE IMPORTS, INC.","DEALER USE TAX","1569 W OGDEN AVE",,"NAPERVILLE","IL","60540","POINT (-88.18638 41.767727)"
"11115129","NAPLETON 1050, INC","DEALER USE TAX","1050 S. MILWAUKEE AVE",,"LIBERTYVILLE","IL","60048","POINT (-87.950507 42.26995)"
"11127985","NAPLETON 1301, INCORPORATED","DEALER USE TAX","1301 INDIANAPOLIS BLVD",,"SCHERERVILLE","IN","46375","POINT (-87.510056 41.689561)"
"11128200","NAPLETON AUTOWERKS CRYSTAL LAKE","DEALER USE TAX","6305 NORTHWEST HWY",,"CRYSTAL LAKE","IL","60014","POINT (-88.320486 42.226207)"
"21003545","NAPLETON CHICAGO IMPORTS LLC","DEALER USE TAX","570 W MONROE ST",,"CHICAGO","IL","60661 - 3617","POINT (-87.64242 41.880546)"
"10830532","NAPLETON DES PLAINES CHRYS DODGE JEEP","DEALER USE TAX","1155 W. DUNDEE ROAD",,"ARLINGTON HEIGHTS","IL","60004","POINT (-87.997559 42.139045)"
"11128032","NAPLETON FLEET INC.","DEALER USE TAX","ONE OAKBROOK TERRACE, SUITE 515",,"OAKBROOK TERRACE","IL","60181",
"10844737","NAPLETON RIVEROAKS CADILLAC","DEALER USE TAX","1777 1/2 RIVER OAKS DR.",,"CALUMET CITY","IL","60409","POINT (-87.567243 41.60094)"
"10842390","NAPLETON'S ASTON MARTIN OF CHICAGO","DEALER USE TAX","217 OGDEN AVE",,"DOWNERS GROVE","IL","60515","POINT (-87.991239 41.809662)"
"10794694","NAPLETON'S AUTO WERKS","DEALER USE TAX","1349 INDIANAPOLIS BLVD",,"SCHERERVILLE","IN","46375","POINT (-87.50933 41.688885)"
"10793526","NAPLETON'S CALUMET CITY IMPORT","DEALER USE TAX","1985 RIVER OAKS DR",,"CALUMET CITY","IL","60409","POINT (-87.57375 41.60092)"
"11127746","NAPLETON'S COUNTRYSIDE MAZDA","DEALER USE TAX","110 W GOLF RD",,"SCHAUMBURG","IL","60195 - 3604","POINT (-88.082885 42.049269)"
"10854230","NAPLETON'S ELGIN KIA","DEALER USE TAX","845 E CHICAGO ST",,"ELGIN","IL","60120","POINT (-88.258498 42.035099)"
"11128033","NAPLETON'S PALATINE MAZDA","DEALER USE TAX","110 W GOLF RD",,"SCHAUMBURG","IL","60195 - 3604","POINT (-88.082885 42.049269)"
"10793427","NAPLETON'S PARK RIDGE L M","DEALER USE TAX","1610 WAUKEGAN ROAD",,"GLENVIEW","IL","60025","POINT (-87.798385 42.083982)"
"10815907","NAPLETON'S RIVER OAKS CHRYSLER DODGE JEEP RAM","DEALER USE TAX","17225 TORRENCE AVE",,"LANSING","IL","60438","POINT (-87.558786 41.582009)"
"10793357","NAPLETON'S RIVER OAKS HONDA","DEALER USE TAX","17220 TORRENCE AVE",,"LANSING","IL","60438","POINT (-87.558971 41.582309)"
"10793512","NAPLETON'S RIVER OAKS LINCOLN","DEALER USE TAX","1777 RIVER OAKS DR",,"CALUMET CITY","IL","60409","POINT (-87.567243 41.60094)"
"10793450","NAPLETON'S SCHAUMBURG PON-GMC","DEALER USE TAX","100 W GOLF RD",,"SCHAUMBURG","IL","60195","POINT (-88.082128 42.049311)"
"10819670","NAPLETON'S SCHAUMBURG SUBARU","DEALER USE TAX","911 W. HIGGINS ROAD",,"SCHAUMBURG","IL","60195","POINT (-88.102847 42.050363)"
"10840582","NAPLETON'S VALLEY HYUNDAI","DEALER USE TAX","4333 OGDEN AVE",,"AURORA","IL","60504","POINT (-88.21075 41.751817)"
"11127892","NAPLETON'S VOLKSWAGEN OF MT. PROSPECT","DEALER USE TAX","333 W RAND RD",,"MT. PROSPECT","IL","60056","POINT (-87.941304 42.084744)"
"10836694","NATIONAL AUTO GROUP, INC.","DEALER USE TAX","6251  N. CALIFORNIA AVE",,"CHICAGO","IL","60659","POINT (-87.699578 41.995545)"
"10815260","NATIONAL MOTORS, INC.","DEALER USE TAX","1618 N. CICERO AVE.",,"CHICAGO","IL","60639","POINT (-87.74615 41.910233)"
"11127641","NATIONWIDE AUTO","DEALER USE TAX","3217 W. LAKE STREET",,"MELROSE PARK","IL","60160","POINT (-87.873527 41.896874)"
"10793371","NAVISTAR, INC.","DEALER USE TAX","2050 N MANNHEIM RD",,"MELROSE PARK","IL","60160","POINT (-87.884076 41.913163)"
"10794266","NEHRA AUTO SALES","DEALER USE TAX","3368 N MILWAUKEE AVE",,"CHICAGO","IL","60641","POINT (-87.729082 41.942307)"
"10813319","NELSON AUTOMOTIVE, INC.","DEALER USE TAX","1801 S BUSSE RD",,"MT PROSPECT","IL","60056 - 5505","POINT (-87.96003 42.033707)"
"10794283","NETCORP TRAILER, INC.","DEALER USE TAX","2600 S. 25TH AVE.",,"BROADVIEW","IL","60155","POINT (-87.862459 41.85515)"
"10794270","NEW RIDE, INC.","DEALER USE TAX","2216 GREENBAY RD",,"EVANSTON","IL","60201","POINT (-87.693628 42.058137)"
"10793413","NEW ROGERS PONTIAC, INC.","DEALER USE TAX","2720 S MICHIGAN AVE",,"CHICAGO","IL","60616","POINT (-87.623594 41.843704)"
"10794277","NEW STAR MOTORS","DEALER USE TAX","2149 N CICERO AVE",,"CHICAGO","IL","60639 - 3349","POINT (-87.746117 41.920168)"
"10794272","NINO'S USED CARS, INC.","DEALER USE TAX","3056-58 S MILLARD",,"CHICAGO","IL","60623","POINT (-87.715807 41.837188)"
"11127737","NISSAN INFINITI LT","DEALER USE TAX","1 NISSAN WAY",,"FRANKLIN","TN","37068","POINT (-86.813736 35.939869)"
"10793506","NISSAN OF SOUTH HOLLAND","DEALER USE TAX","16269 VAN DAM RD",,"SOUTH HOLLAND","IL","60473 - 2646","POINT (-87.583173 41.598068)"
"11127789","NJRP INC.","DEALER USE TAX","8760 W 159TH ST",,"ORLAND PARK","IL","60462 - 5395","POINT (-87.832935 41.601756)"
"10794254","NORMAN INTERNATIONAL INC.","DEALER USE TAX","3100 W MONTROSE",,"CHICAGO","IL","60618 - 1314","POINT (-87.705895 41.961221)"
"10794268","NORTH SHORE RECYCLING, INC.","DEALER USE TAX","2527 OAKTON ST",,"EVANSTON","IL","60202","POINT (-87.708203 42.026412)"
"10794267","NORTH SUBURBAN AUTOMOTIVE SRVE","DEALER USE TAX","3032 N LAKE TER",,"GLENVIEW","IL","60026 - 1335","POINT (-87.835707 42.089711)"
"10794257","NORTHWEST AUTO SALES","DEALER USE TAX","5726 N NORTHWEST HWY",,"CHICAGO","IL","60646","POINT (-87.786811 41.985427)"
"10793368","NORTHWEST TRUCKS INC","DEALER USE TAX","2120 N RAND ROAD",,"PALATINE","IL","60074","POINT (-88.032662 42.148916)"
"10794261","NTS TRAILER SERVICES, INC.","DEALER USE TAX","13333 MAIN STREET",,"LEMONT","IL","60439","POINT (-87.946624 41.688089)"
"10794262","NWC CHICAGOLAND TRUCK CTR, INC","DEALER USE TAX","2415 E HIGGINS RD",,"ELK GROVE","IL","60007","POINT (-87.948058 42.013527)"
"10794666","OAK BROOK TOYOTA IN WESTMONT","DEALER USE TAX","550 E OGDEN AVE",,"WESTMONT","IL","60559","POINT (-87.959489 41.810408)"
"10837524","OAK LAWN HYUNDAI INC.","DEALER USE TAX","9121 S. CICERO AVE",,"OAK LAWN","IL","60453","POINT (-87.741006 41.72631)"
"10793486","OAK LAWN MAZDA","DEALER USE TAX","6750 W 95TH ST",,"OAK LAWN","IL","60453","POINT (-87.788442 41.719524)"
"21004042","OAK LAWN MOTOR HOLDINGS LLC","DEALER USE TAX","6750 W 95TH ST",,"OAK LAWN","IL","60453 - 2176","POINT (-87.788442 41.719524)"
"10793388","OAK LAWN TOYOTA","DEALER USE TAX","4320 W 95 TH ST",,"OAKLAWN","IL","60453","POINT (-87.729604 41.720378)"
"11126507","OASIS AUTO BODT INC","DEALER USE TAX","8340 SKOKIE BLVD.",,"SKOKIE","IL","60077","POINT (-87.747324 42.032792)"
"11105624","ODISHO'S AUTO CLINIC","DEALER USE TAX","173 S WOLF RD",,"DES PLAINES","IL","60016","POINT (-87.911966 42.051066)"
"11109350","OGDEN LINCOLN OF WESTMONT","DEALER USE TAX","100 W. OGDEN AVE",,"WESTMONT","IL","60559","POINT (-87.979441 41.81)"
"10794302","OGRA AUTO, INC.","DEALER USE TAX","6111 W DICKENS AVE",,"CHICAGO","IL","60639","POINT (-87.780501 41.918291)"
"11128269","OHARE AUTO SALES, INC.","DEALER USE TAX","655 LUNT AVE.",,"SCHAUMBURG","IL","60193","POINT (-88.095522 42.001594)"
"10823540","O'HARE KARS INC.","DEALER USE TAX","31W450 SPAULDING ROAD",,"ELGIN","IL","60120","POINT (-88.236036 42.00299)"
"10794291","O'HARE TRUCK SALES","DEALER USE TAX","2139 N MANNHEIM RD",,"NORTHLAKE","IL","60164","POINT (-87.884008 41.916033)"
"11127836","OLE AUTO SALES","DEALER USE TAX","200 W. GRAND AVE",,"ELMHURST","IL","60126","POINT (-87.945299 41.931176)"
"21004058","OLMOS AUTO SALES INC.","DEALER USE TAX","2505 S WESTERN AVE",,"CHICAGO","IL","60608 - 4807","POINT (-87.685438 41.846501)"
"10794303","OLMOS AUTO SALES, INC.","DEALER USE TAX","2658 W CERMAK ROAD",,"CHICAGO","IL","60608","POINT (-87.692766 41.851954)"
"10794304","OLYMPIA AUTO SALES I, INC.","DEALER USE TAX","3509 W BELMONT",,"CHICAGO","IL","60618","POINT (-87.715511 41.939248)"
"11127844","ONE STOP AUTO INC.","DEALER USE TAX","2045 N. CICERO AVE",,"CHICAGO","IL","60639","POINT (-87.746077 41.918201)"
"10794299","ONE STOP AUTO SALES","DEALER USE TAX","7439 S WESTERN AVE",,"CHICAGO","IL","60636","POINT (-87.682995 41.758034)"
"21004157","ONE TIME AUTO FINANCE INC.","DEALER USE TAX","7304 ROOSEVELT RD",,"FOREST PARK","IL","60130 - 2443","POINT (-87.807163 41.864895)"
"11127853","ONYX MOTORS LTD","DEALER USE TAX","10350 DEARLOVE RD","UNIT G","GLENVIEW","IL","60025","POINT (-87.859984 42.068387)"
"10793290","ORLAND TOYOTA, INC.","DEALER USE TAX","8505 W 159TH ST",,"TINLEY PARK","IL","60487","POINT (-87.826339 41.60175)"
"10811902","OT AUTO SALES, INC.","DEALER USE TAX","535 W. LINCOLN HWY.",,"CHICAGO HEIGHTS","IL","60411","POINT (-87.666669 41.50605)"
"10794296","OUTBACK AUTO SALES, INC.","DEALER USE TAX","2414 N CICERO AVE",,"CHICAGO","IL","60639","POINT (-87.746389 41.924765)"
"10794340","PACLEASE TRUCK SALES","DEALER USE TAX","9620 S 76TH AVE",,"HICKORY HILLS","IL","60457","POINT (-87.808686 41.716069)"
"10847927","PALATINE MOTORS INC.","DEALER USE TAX","2228 N. RAND ROAD",,"PALATINE","IL","60074","POINT (-88.035053 42.150827)"
"21003960","PAPS AUTO SALES INC","DEALER USE TAX","4381 W OGDEN AVE",,"CHICAGO","IL","60623 - 2934","POINT (-87.734165 41.847758)"
"10794327","PAPS AUTO SALES, INC.","DEALER USE TAX","4130 W. OGDEN AVE",,"CHICAGO","IL","60623","POINT (-87.727564 41.850099)"
"11127330","PARADISE PARK","DEALER USE TAX","699 MICHELLE DRIVE",,"LYNWOOD","IL","60411","POINT (-87.53212 41.506751)"
"21003525","PARAGON AUTO LEASING CO","DEALER USE TAX","2550 N CICERO AVE",,"CHICAGO","IL","60639 - 2586","POINT (-87.746502 41.927463)"
"10846555","PARKLANE AUTO","DEALER USE TAX","9213 PARKLANE AVE",,"FRANKLIN PARK","IL","60131","POINT (-87.855897 41.932802)"
"10855634","PARKVIEW AUTOMOTIVE","DEALER USE TAX","4139 S. WESTERN BLVD",,"CHICAGO","IL","60609","POINT (-87.68414 41.818182)"
"10793392","PATRICK BMW","DEALER USE TAX","700 E GOLF RD",,"SCHAUMBURG","IL","60173","POINT (-88.061835 42.050015)"
"10793322","PATRICK CADILLAC","DEALER USE TAX","526 MALL DR",,"SCHAUMBURG","IL","60173","POINT (-88.038973 42.039486)"
"10835276","PATRICK CADILLAC","DEALER USE TAX","1600 E. HIGGINS ROAD",,"SCHAUMBURG","IL","60173","POINT (-88.040465 42.038532)"
"10793505","PATRICK HYUNDAI LLC","DEALER USE TAX","690 E GOLF ROAD",,"SCHAUMBURG","IL","60173","POINT (-88.062496 42.050006)"
"10794690","PATRICK JAGUAR LLC","DEALER USE TAX","1559 W OGDEN AVE",,"NAPERVILLE","IL","60540","POINT (-88.18634 41.770278)"
"10793567","PATRICK SAAB","DEALER USE TAX","526 MALL DR",,"SCHAUMBURG","IL","60173","POINT (-88.038973 42.039486)"
"10793369","PATRICK VOLVO","DEALER USE TAX","526 MALL DR",,"SCHAUMBURG","IL","60173","POINT (-88.038973 42.039486)"
"10794308","PATS MOTOR SALES","DEALER USE TAX","1228 S CICERO AVE",,"CICERO","IL","60804","POINT (-87.744687 41.864839)"
"10794309","PATTERSON CIRCLE R AUTO SALES","DEALER USE TAX","10106 S MICHIGAN AVE",,"CHICAGO","IL","60628","POINT (-87.619893 41.710559)"
"11127962","PB AUTOMOTIVE ENTERPRISES, INC.","DEALER USE TAX","5149 W. 47TH STREET",,"CHICAGO","IL","60638","POINT (-87.752417 41.807511)"
"10794707","PEARL CHRYSLER DODGE & JEEP","DEALER USE TAX","701 S. GOVERNORS HIGHWAY",,"PEOTONE","IL","60468","POINT (-87.79177 41.324539)"
"10845975","PENSKE LEASING & RENTAL CO.","DEALER USE TAX","2675 MORGANTOWN ROAD",,"READING","PA","18607","POINT (-75.920753 40.26482)"
"10794795","PENSKE TRUCK LEASING CO, L.P.","DEALER USE TAX","RT 10 GREEN HILL",,"READING","PA","19607",
"10855574","PERALTA CAR SALES & REPAIR INC","DEALER USE TAX","607-609 N. CICERO AVE",,"CHICAGO","IL","60644","POINT (-87.745674 41.891548)"
"11104485","PERFORMANCE CAR SALES INC","DEALER USE TAX","324 PLEASANT ST.",,"JOLIET","IL","60436","POINT (-88.092077 41.516867)"
"10793333","PERILLO BMW","DEALER USE TAX","1035 N CLARK ST",,"CHICAGO","IL","60610","POINT (-87.631371 41.901621)"
"11128160","PERRY'S AUTOMOTIVE GROUP, LLC","DEALER USE TAX","19900 ROSE ST UNIT A",,"LYNWOOD","IL","60411","POINT (-87.562457 41.533602)"
"10848468","PETE AUTO REPAIR & SALES INC.","DEALER USE TAX","5534 N. WESTERN AVE",,"CHICAGO","IL","60625","POINT (-87.689475 41.982463)"
"10855684","PETERBILT ILLINOIS CHICAGO INC","DEALER USE TAX","2203 BERNICE ROAD",,"LANSING","IL","60438","POINT (-87.564362 41.579228)"
"11128063","PETE'S PERFECTION PLUS, INC.","DEALER USE TAX","435 S. WHEELING RD.",,"WHEELING","IL","60090","POINT (-87.92692 42.131728)"
"11128167","P.F. AUTO, INC.","DEALER USE TAX","8230 S. 86TH CT.",,"JUSTICE","IL","60458","POINT (-87.833552 41.739027)"
"10794324","P & H AUTO BODY & SALES","DEALER USE TAX","4919 W FULLERTON AVE",,"CHICAGO","IL","60639","POINT (-87.749515 41.924178)"
"11120712","PHILLIPS AUTO GROUP OF BRADLEY, INC.","DEALER USE TAX","1400 LOCK DR",,"BOURBONNAIS","IL","60914","POINT (-87.849564 41.164712)"
"10794609","PHILLIPS CHEVROLET, INC.","DEALER USE TAX","9700 W LINCOLN HWY",,"FRANKFORT","IL","60423","POINT (-87.850649 41.50648)"
"10850930","PHILLIPS CHEVROLET OF LANSING INC","DEALER USE TAX","17730 S. TORRENCE AVE",,"LANSING","IL","60438","POINT (-87.558912 41.572919)"
"10794321","PICK-N-PULL AUTO","DEALER USE TAX","7800 W 61 ST PL",,"SUMMIT","IL","60501","POINT (-87.815723 41.779742)"
"10794654","PIEMONTE CHEVROLET","DEALER USE TAX","PO BOX 127",,"DUNDEE","IL","60118 - 0127",
"10794311","PINKY BODY & PAINT SHOP","DEALER USE TAX","3410 N CICERO AVE",,"CHICAGO","IL","60641","POINT (-87.747008 41.942762)"
"10794306","P&J AUTO SALES","DEALER USE TAX","4971 N ELSTON",,"CHICAGO","IL","60630","POINT (-87.744745 41.970919)"
"10810694","PLATINUM AUTO EXCHANGE, INC.","DEALER USE TAX","1886 S. ELMHURST RD",,"MT. PROSPECT","IL","60056","POINT (-87.94063 42.027889)"
"11106657","PLATINUM MOTOR CARS LLC","DEALER USE TAX","1500 PADDOCK DR",,"NORTHBROOK","IL","60062","POINT (-87.817116 42.104276)"
"21004166","PLATINUM MOTORSPORTS INC","DEALER USE TAX","7725 W 98TH ST",,"HICKORY HILLS","IL","60457 - 2338","POINT (-87.810955 41.713551)"
"10794314","POLSTAR AUTO CARE CENTER INC","DEALER USE TAX","2930 N CICERO AVE",,"CHICAGO","IL","60641","POINT (-87.746757 41.934169)"
"10794661","PONTIAC RV, INC.","DEALER USE TAX","15481 E 2000 NORTH ROAD",,"PONTIAC","IL","61764","POINT (-88.633708 40.917467)"
"10794700","PORSCHE EXCHANGE","DEALER USE TAX","2300 VALLEY HWY",,"HIGHLAND PARK","IL","60035","POINT (-88.025791 42.412414)"
"21004232","PORSCHE FINANCIAL SERVICES, INC","DEALER USE TAX","1 PORSCHE DR",,"ATLANTA","GA","30354 - 1654","POINT (-84.399678 33.653065)"
"11113406","POSEN MOTORS LLC","DEALER USE TAX","2705 W. 147TH STREET",,"POSEN","IL","60469","POINT (-87.687001 41.626104)"
"11128051","POWERNET MOTORS CORP","DEALER USE TAX","3320 RIVER ROAD",,"FRANKLIN PARK","IL","60131","POINT (-87.852304 41.93929)"
"10794338","PRECISION AUTO SRV-BODY & MECH","DEALER USE TAX","1000 MORSE AVE",,"SCHAUMBURG","IL","60193","POINT (-88.10459 41.999979)"
"10794320","PRECISION MOTORS, INC.","DEALER USE TAX","5516 W 110 TH ST 16",,"OAK LAWN","IL","60453","POINT (-87.756296 41.692355)"
"10794326","PRECISION TRUCK EQUIPMENT","DEALER USE TAX","1945 177TH ST",,"LANSING","IL","60438","POINT (-87.569604 41.573924)"
"11109926","PREMIER AUTO EXCHANGE","DEALER USE TAX","135 N. HALSTED STREET",,"CHICAGO HEIGHTS","IL","60411","POINT (-87.635753 41.532212)"
"11126973","PREMIER AUTO WORKS INC.","DEALER USE TAX","11625 S. MAYFIELD AVE",,"ALSIP","IL","60803","POINT (-87.766189 41.680743)"
"21003568","PREMIUM AUTO SALES, INC","DEALER USE TAX","2314 N RAND RD",,"PALATINE","IL","60074 - 1161","POINT (-88.037936 42.153015)"
"11128204","PRESTIGE MOTORS INC","DEALER USE TAX","707 REMINGTON RD STE 2",,"SCHAUMBURG","IL","60173","POINT (-88.061852 42.053007)"
"11128052","PRIME AUTO GALLERY, INC.","DEALER USE TAX","14205 S. HOXIE AVE.",,"BURNHAM","IL","60633","POINT (-87.560431 41.636966)"
"10794330","PRIME AUTO INC.","DEALER USE TAX","3114 N RIVER RD",,"RIVER GROVE","IL","60171","POINT (-87.850114 41.93586)"
"11110189","PRO AUTO SALES INC","DEALER USE TAX","13815 S. KOSTNER AVE",,"CRESTWOOD","IL","60445",
"11127990","PRO CARS USA INC.","DEALER USE TAX","5630 W 120TH ST",,"ALSIP","IL","60803","POINT (-87.759996 41.675184)"
"10794329","P & S AUTO SERVICE","DEALER USE TAX","2753 S ARCHER AVE",,"CHICAGO","IL","60608","POINT (-87.653708 41.843727)"
"10794746","PTR TRUCK CENTER","DEALER USE TAX","1270 NORTH AVE",,"WEST CHICAGO","IL","60185","POINT (-88.181187 41.911226)"
"10794660","PUGI OF CHICAGOLAND","DEALER USE TAX","2020 W OGDEN AVE",,"DOWNERS GROVE","IL","60515","POINT (-88.034642 41.807581)"
"10794334","PULDIN, INC.","DEALER USE TAX","2562 BALLARD RD",,"DES PLAINES","IL","60016","POINT (-87.860654 42.043218)"
"11101412","QUAD CITY SALVAGE AUCTION INC","DEALER USE TAX","31W120 WEST BARTLETT RD",,"BARTLETT","IL","60103",
"11128206","QUADRANT MOTORS, INC.","DEALER USE TAX","2520 W. MADISON ST",,"CHICAGO","IL","60612","POINT (-87.689318 41.88116)"
"10794355","QUALITY AUTO MART","DEALER USE TAX","4675 S ARCHER AVE",,"CHICAGO","IL","60632","POINT (-87.713387 41.8085)"
"10794354","QUALITY AUTO SALES, INC.","DEALER USE TAX","4600 S WESTERN AVE",,"CHICAGO","IL","60609","POINT (-87.684484 41.809991)"
"11127925","QUALITY AUTO SALES & SERVICE INC.","DEALER USE TAX","PO BOX 7506",,"WESTCHESTER","IL","60154 - 7506",
"10794352","QUALITY CAR CORNER INC","DEALER USE TAX","2205 N CICERO AVE",,"CHICAGO","IL","60639","POINT (-87.746118 41.920711)"
"10794353","QUALITY CRAFT AUTO BODY","DEALER USE TAX","6345 W OGDEN AVE",,"BERWYN","IL","60402","POINT (-87.782445 41.830791)"
"11120208","QUICK SALES CORPORATION","DEALER USE TAX","5800 W. FULLERTON",,"CHICAGO","IL","60639","POINT (-87.770961 41.923953)"
"10794739","R. A. ADAMS ENTERPRISES, INC.","DEALER USE TAX","2600 W RTE. 120",,"MC HENRY","IL","60051","POINT (-88.252399 42.342919)"
"11127943","RAINBOW AUTO MART","DEALER USE TAX","5639 S. WESTERN AVE",,"CHICAGO","IL","60636","POINT (-87.683898 41.791602)"
"10850878","RAVINIA MH SALES LLC","DEALER USE TAX","2450 WAUKEGAN ROAD",,"NORTHFIELD","IL","60093 - 2723","POINT (-87.798483 42.098298)"
"10793231","RAY BUICK","DEALER USE TAX","5011 W. 63RD STREET",,"CHICAGO","IL","60638","POINT (-87.747577 41.778309)"
"10794621","RAY CHEV-GEO, INC.","DEALER USE TAX","39 N ROUTE 12",,"FOX LAKE","IL","60020","POINT (-88.18378 42.399611)"
"10794663","RAYMOND CHEV. OLD., INC.","DEALER USE TAX","120 ROUTE 173",,"ANTIOCH","IL","60002","POINT (-88.087115 42.469616)"
"11128047","RAYMOND'S MOTORS INC","DEALER USE TAX","4150 W. OGDEN AVE",,"CHICAGO","IL","60623","POINT (-87.728329 41.849826)"
"10794366","RBM AUTO BROKERS","DEALER USE TAX","4360 W 127TH ST",,"ALSIP","IL","60803","POINT (-87.728517 41.661967)"
"10803764","RC3 SALES, INC.","DEALER USE TAX","10750 S. CENTRAL AVE",,"CHICAGO RIDGE","IL","60415",
"21004063","R & D AUTO SALES, INC","DEALER USE TAX","2457 N CICERO AVE",,"CHICAGO","IL","60639 - 2538","POINT (-87.746282 41.926036)"
"10793382","RECREATION PLANTATION, INC.","DEALER USE TAX","19660 STONY ISLAND AVE",,"LYNWOOD","IL","60411","POINT (-87.577996 41.538097)"
"10823249","REFIX TRUCK & TRAILER REPAIR, INC.","DEALER USE TAX","1400 W. 171ST STREET",,"EAST HAZEL CREST","IL","60429",
"10850278","REGIONAL AUTO GROUP INC","DEALER USE TAX","2417-2429 N. CICERO AVE",,"CHICAGO","IL","60639","POINT (-87.746228 41.924748)"
"10794383","RELIABLE MOTORS","DEALER USE TAX","5727 W GRAND AVE",,"CHICAGO","IL","60639","POINT (-87.769141 41.919391)"
"10794587","RENDEL'S INC.","DEALER USE TAX","40 MILLS ROAD",,"JOLIET","IL","60433","POINT (-88.079443 41.502501)"
"21003643","RICHARD FISHER EUROPEAN CARS, LLC","DEALER USE TAX","1910 GREENWOOD ST",,"EVANSTON","IL","60201 - 3909","POINT (-87.699926 42.042717)"
"11107611","RIDGEWAY AUTO SALES & REPAIR","DEALER USE TAX","7349 N. RIDGEWAY AVE",,"SKOKIE","IL","60076","POINT (-87.722432 42.01523)"
"11127940","RIGHTWAY AUTOMOTIVE CREDIT","DEALER USE TAX","14409 PULASKI",,"MIDLOTHIAN","IL","60445","POINT (-87.717842 41.630531)"
"10855283","RINGA ENTERPRISES INC.","DEALER USE TAX","1410 E. RAND RD",,"PROSPECT HEIGHTS","IL","60004","POINT (-87.967041 42.103649)"
"11117386","RITE CHOICE AUTO SALES INC","DEALER USE TAX","3201 CHICAGO ROAD",,"SOUTH CHICAGO HEIGHTS","IL","60411","POINT (-87.637692 41.4805)"
"10794373","RITE PRICE AUTO SALES INC","DEALER USE TAX","110 E 159TH ST",,"HARVEY","IL","60426","POINT (-87.649473 41.600826)"
"11128137","RIVER AUTO SALES CORP","DEALER USE TAX","300 LAKE",,"MAYWOOD","IL","60153","POINT (-87.837053 41.889302)"
"11127765","RIVERVIEW AUTO BROKERS","DEALER USE TAX","24 S. RIVER ROAD","STE. 300","DES PLAINES","IL","60016","POINT (-87.887605 42.05295)"
"11118202","R & M SALES INC.","DEALER USE TAX","23 N RT 12",,"FOX LAKE","IL","60020",
"10843024","ROAD MASTER AUTO GROUP INC.","DEALER USE TAX","7138 S. WESTER ANE",,"CHICAGO","IL","60636",
"11128147","ROBIN HOOD AUTO SALES INC","DEALER USE TAX","6131 W. OGDEN AVE",,"CICERO","IL","60804","POINT (-87.777197 41.832613)"
"10794377","ROCKET AUTO SALES","DEALER USE TAX","5552 S ARCHER AVE",,"CHICAGO","IL","60638","POINT (-87.748593 41.797885)"
"10794589","ROD BAKER FORD SALES, INC.","DEALER USE TAX","23210 W LINCOLN HWY",,"PLAINFIELD","IL","60544",
"10833664","ROESCH FORD","DEALER USE TAX","333 W. GRAND AVE",,"BENSENVILLE","IL","60106","POINT (-87.951036 41.930904)"
"10794401","ROGERS PARK AUTO SHOP, INC.","DEALER USE TAX","6828 N CLARK ST",,"CHICAGO","IL","60626","POINT (-87.673364 42.006352)"
"11103426","ROJAS AUTO REBUILDERS CORP","DEALER USE TAX","3347 W. CHICAGO AVE",,"CHICAGO","IL","60651","POINT (-87.710739 41.895535)"
"10793342","RON HOPKINS FORD, INC.","DEALER USE TAX","1045 E CHICAGO ST",,"ELGIN","IL","60120","POINT (-88.250287 42.032648)"
"10794458","RON'S AUTO SALES II, INC.","DEALER USE TAX","1119 W ROOSEVELT RD",,"MAYWOOD","IL","60153","POINT (-87.846325 41.864236)"
"10794378","RONS AUTO SALES I, INC.","DEALER USE TAX","5727-59 W ROOSEVELT RD",,"CICERO","IL","60804","POINT (-87.768154 41.865554)"
"11107008","ROSEN HYUNDAI","DEALER USE TAX","771 S. RANDALL ROAD",,"ALGONQUIN","IL","60102","POINT (-88.335452 42.163062)"
"10793234","ROTO LINCOLN MERCURY & SUBARU","DEALER USE TAX","110 W GOLF RD",,"SCHAUMBURG","IL","60195 - 3604","POINT (-88.082885 42.049269)"
"10793419","ROUTE 12 RENTAL CO.","DEALER USE TAX","1306 E RAND RD",,"ARLINGTON HEIGHTS","IL","60004","POINT (-87.96882 42.104833)"
"10794379","ROYAL AUTO BODY INC","DEALER USE TAX","501 W 31ST ST",,"CHICAGO","IL","60616","POINT (-87.639159 41.838162)"
"10835748","ROYAL AUTO CHICAGO, INC.","DEALER USE TAX","3433-37 N. PULASKI ROAD",,"CHICAGO","IL","60641","POINT (-87.72732 41.943904)"
"11127595","ROYAL CAR CENTER CHICAGO I INC","DEALER USE TAX","7301 S. WESTERN AVE",,"CHICAGO","IL","60636","POINT (-87.68306 41.760895)"
"11113473","ROYAL CAR CENTER CHICAGO INC","DEALER USE TAX","7301 S. WESTERN AVE",,"CHICAGO","IL","60636","POINT (-87.68306 41.760895)"
"10855852","ROYAL COACH AUTO SALES & SERVICE INC","DEALER USE TAX","1028 DEVON AVE",,"BARTLETT","IL","60103",
"10793300","RUNNION EQUIPMENT CO.","DEALER USE TAX","6201 EAST AVE",,"HODGKINS","IL","60525","POINT (-87.858324 41.776595)"
"10853302","RUSH TRUCK CENTERS-CHICAGO","DEALER USE TAX","4655 S. CENTRAL AVE",,"CHICAGO","IL","60638","POINT (-87.76265 41.807736)"
"10853306","RUSH TRUCK CENTERS-HUNTLEY","DEALER USE TAX","11816 S. ROUTE 47",,"HUNTLEY","IL","60142","POINT (-88.430477 42.157008)"
"10853308","RUSH TRUCK CENTERS-JOLIET","DEALER USE TAX","103 S. LARKIN AVE",,"JOLIET","IL","60436","POINT (-88.124545 41.520332)"
"11103443","RUSH TRUCK CENTERS-WILLOWBROOK","DEALER USE TAX","7910 JOLIET ROAD",,"WILLOWBROOK","IL","60527","POINT (-87.941507 41.743475)"
"10855197","RUSSO POWER EQUIPMENT","DEALER USE TAX","9525 W. IRVING PARK RD",,"SCHILLER PARK","IL","60176","POINT (-87.864865 41.954685)"
"11127850","RV WORLD LLC","DEALER USE TAX","41517 N. US HWY 45",,"ANTIOCH","IL","60002","POINT (-88.017369 42.466983)"
"10794699","SAAB EXCHANGE","DEALER USE TAX","1 SHERWOOD TERR",,"LAKE BLUFF","IL","60044","POINT (-87.867987 42.272611)"
"10794444","SABRI MOTORS, INC.","DEALER USE TAX","4651-5 N 25TH AVE",,"SCHILLER PARK","IL","60176","POINT (-87.873238 41.962976)"
"10794416","SALCE INC.","DEALER USE TAX","2643 N HAYMOND",,"RIVER GROVE","IL","60171",
"11127820","SAM JIDD LUXURY LLC","DEALER USE TAX","1505 S MT. PROSPECT RD",,"DES PLAINES","IL","60018","POINT (-87.92079 42.024538)"
"10794437","SAM'S AUTO MART, INC.","DEALER USE TAX","621 N WESTERN AVE",,"CHICAGO","IL","60612","POINT (-87.686732 41.892735)"
"11127668","SAMS AUTO SALES","DEALER USE TAX","6815 S. WESTERN AVE",,"CHICAGO","IL","60636","POINT (-87.68334 41.76958)"
"10794431","SAMS AUTO SALES","DEALER USE TAX","3377 N MILWAUKEE AVE",,"CHICAGO","IL","60641","POINT (-87.729419 41.94251)"
"10803134","SARABIA AUTO REPAIR & SALES","DEALER USE TAX","62 E. 159TH STREET",,"HARVEY","IL","60426","POINT (-87.652026 41.600852)"
"11127932","SARVOPARI CORP","DEALER USE TAX","1855 E OAKTON ST",,"DES PLAINES","IL","60018 - 2132","POINT (-87.877936 42.024393)"
"10794463","SBA INTERNATIONAL GROUP, INC.","DEALER USE TAX","353 WILLARD AVE",,"ELGIN","IL","60120","POINT (-88.260378 42.029393)"
"11113877","SCHAUMBURG AUTO GROUP INC","DEALER USE TAX","617 W. WISE ROAD",,"SCHAUMBURG","IL","60193","POINT (-88.095017 42.004689)"
"10793378","SCHAUMBURG CHRYSLER-PLYMOUTH","DEALER USE TAX","110 W GOLF RD",,"SCHAUMBURG","IL","60195 - 3604","POINT (-88.082885 42.049269)"
"10793351","SCHAUMBURG HONDA AUTOMOBILES","DEALER USE TAX","750 E GOLF RD",,"SCHAUMBURG","IL","60173","POINT (-88.060639 42.050052)"
"10821761","SCHAUMBURG KIA","DEALER USE TAX","1100 E GOLF RD",,"SCHAUMBURG","IL","60173 - 4508","POINT (-88.051252 42.050291)"
"10841860","SCHAUMBURG MOTOR CARS, INC.","DEALER USE TAX","975 LUNT AVE",,"SCHAUMBURG","IL","60193","POINT (-88.104236 42.001281)"
"10813619","SCHAUMBURG PRE DRIVEN","DEALER USE TAX","650 W. GOLF ROAD",,"SCHAUMBURG","IL","60195","POINT (-88.094218 42.048774)"
"10793311","SCHAUMBURG TOYOTA, INC.","DEALER USE TAX","875 W GOLF RD",,"SCHAUMBURG","IL","60194","POINT (-88.102028 42.048138)"
"11108635","SCHERERVILLE MOTOR GROUP","DEALER USE TAX","1223 W. VERMONT AVE",,"CALUMET PARK","IL","60827","POINT (-87.652131 41.659757)"
"10794418","SCHIMKA AUTO WRECKERS","DEALER USE TAX","1132 THACKER ST",,"DESPLAINES","IL","60016","POINT (-87.896106 42.038423)"
"10794419","SCHMITTS TRUCK REPAIR INC.","DEALER USE TAX","2000 ELMHURST RD",,"ELK GROVE","IL","60007","POINT (-87.940093 41.997823)"
"10852153","SCOOTERWORKS CHICAGO LLC","DEALER USE TAX","5410 N. DAMEN AVE",,"CHICAGO","IL","60625","POINT (-87.679552 41.980015)"
"11105377","SECOND CITY SCOOTERS INC","DEALER USE TAX","5578 N LINCOLN AVE",,"CHICAGO","IL","60625","POINT (-87.694719 41.982829)"
"21003974","SEMERSKY ENTERPRISES, INC","DEALER USE TAX","235 N RANDALL RD",,"ST. CHARLES","IL","60174 - 1525","POINT (-88.340187 41.915385)"
"10794429","SIGLER AUTO SALES","DEALER USE TAX","7501 N LINCOLN AVE",,"SKOKIE","IL","60076","POINT (-87.746784 42.0176)"
"11105050","SIGNATURE AUTO ENTERPRISES INC","DEALER USE TAX","931 ALBION AVE",,"SCHAUMBURG","IL","60193","POINT (-88.104181 41.994426)"
"10794449","SINALOA USED CAR SALES","DEALER USE TAX","1735 N CICERO AVE",,"CHICAGO","IL","60639","POINT (-87.745893 41.912382)"
"11127921","SIX DAYS AUTO SALES INC","DEALER USE TAX","7349 S. WESTERN AVE",,"CHICAGO","IL","60637","POINT (-87.683037 41.759612)"
"11128178","SKA MOTORS HIGHLAND LLC","DEALER USE TAX","9601 INDIANAPOLIS BLVD",,"HIGHLAND","IN","46322","POINT (-87.471141 41.539753)"
"10793559","SKOKIE MOTOR SALES, INC.","DEALER USE TAX","7601 N SKOKIE BLVD",,"SKOKIE","IL","60077","POINT (-87.747688 42.020413)"
"11127971","SKY LINE #1 AUTO SALES LLC","DEALER USE TAX","538 N. CICERO AVE",,"CHICAGO","IL","60644","POINT (-87.745625 41.890703)"
"11128118","SKYLINE AUTO GROUP MT. PROSPECT","DEALER USE TAX","726 N. MAIN ST.",,"MT. PROSPECT","IL","60056","POINT (-87.936859 42.080151)"
"10793734","S & M AUTO BROKERS INC.","DEALER USE TAX","5729 S WESTERN AVE",,"CHICAGO","IL","60636","POINT (-87.683848 41.789235)"
"10794473","S & M AUTO BROKERS, INC.","DEALER USE TAX","4301 S KEDZIE AVE",,"CHICAGO","IL","60632","POINT (-87.70425 41.815194)"
"11128062","S&M AUTO BROKERS INC.","DEALER USE TAX","7825 W 95TH ST",,"HICKORY HILLS","IL","60457","POINT (-87.813611 41.718595)"
"11128055","SOURCE ONE AUTO SALES INC.","DEALER USE TAX","2959 W 47TH ST UNIT 1",,"CHICAGO","IL","60632 - 1949","POINT (-87.698934 41.808233)"
"10793426","SOUTH CHICAGO DODGE C JP, INC.","DEALER USE TAX","7340 S WESTERN AVE",,"CHICAGO","IL","60636 - 3692","POINT (-87.683224 41.760144)"
"10793375","SOUTH OAK DODGE, INC.","DEALER USE TAX","4550 W LINCOLN HWY",,"MATTESON","IL","60443","POINT (-87.727071 41.506223)"
"10794751","SOUTH SUBURBAN MITSIBUSHI","DEALER USE TAX","5343 MILLER CIRCLE DR",,"MATTESON","IL","60443","POINT (-87.743503 41.501116)"
"10793273","SOUTH WESTERN MOTOR SALES, INC","DEALER USE TAX","6941 S WESTERN AVE",,"CHICAGO","IL","60636","POINT (-87.683242 41.767009)"
"10855823","SPEED COMPLETE TRUCK & TRAILER REPAIR","DEALER USE TAX","16340 CRAWFORD AVE",,"COUNTRY CLUB HILLS","IL","60478","POINT (-87.713982 41.591889)"
"10794462","S & S AUTO SALES, INC.","DEALER USE TAX","6500 W 111TH ST",,"WORTH","IL","60482","POINT (-87.781615 41.690347)"
"10794438","S & S MOTORS .","DEALER USE TAX","6559 S WESTERN AVE",,"CHICAGO","IL","60636","POINT (-87.683452 41.773861)"
"10855605","SSS MOTORSPORTS LTD","DEALER USE TAX","837B OAKTON ST",,"ELK GROVE VILLAGE","IL","60007","POINT (-87.975317 42.022198)"
"10794435","STAG AUTO SALES","DEALER USE TAX","412 N CICERO AVE",,"CHICAGO","IL","60644","POINT (-87.745539 41.888273)"
"10802475","STAN AUTO, INC.","DEALER USE TAX","804 MORSE AVE.",,"SCHAUMBURG","IL","60193","POINT (-88.100126 42.000146)"
"10793565","STANDARD EQUIPMENT CO.","DEALER USE TAX","625 S. IL ROUTE 83",,"ELMHURST","IL","60126 - 4200","POINT (-87.96133 41.878529)"
"10793566","STAR NISSAN","DEALER USE TAX","5757 W TOUHY AVE",,"NILES","IL","60714","POINT (-87.770883 42.011886)"
"10840779","STATE AUTO, INC.","DEALER USE TAX","3000 E. LINCOLN HWY",,"LYNWOOD","IL","60411","POINT (-87.543308 41.50654)"
"10794624","ST. CHARLES TOYOTA","DEALER USE TAX","2651 E MAIN ST",,"ST. CHARLES","IL","60174","POINT (-88.2809 41.921253)"
"10794757","STEGER AUTO CENTER","DEALER USE TAX","450 W 34 TH ST",,"STEGER","IL","60475","POINT (-87.652806 41.469759)"
"10793309","STEPP EQUIPMENT CO.","DEALER USE TAX","560 TERRITORIAL DR.",,"BOLINGBROOK","IL","60440","POINT (-88.104369 41.682722)"
"10793266","STEVE FOLEY CADILLAC","DEALER USE TAX","100 SKOKIE BLVD",,"NORTHBROOK","IL","60062","POINT (-87.800261 42.150035)"
"10794123","S. TODD LEASING","DEALER USE TAX","211 WAUKEGAN RD #102",,"NORTHFIELD","IL","60093","POINT (-87.798277 42.097604)"
"21003497","STRADA MOTORSPORTS LLC","DEALER USE TAX","641 ESTES AVE",,"SCHAUMBURG","IL","60193 - 4402","POINT (-88.095388 42.002862)"
"10794461","SUMMIT AUTO CENTER INC","DEALER USE TAX","6400 S HARLEM",,"SUMMIT","IL","60501","POINT (-87.802367 41.774859)"
"10855280","SUN AUTO SALES INC.","DEALER USE TAX","1108 S. WESTERN AVE",,"CHICAGO","IL","60612","POINT (-87.686158 41.868107)"
"11106059","SUN HOME SERVICES INC.","DEALER USE TAX","21635 RIDGELAND AVE",,"MATTESON","IL","60445","POINT (-87.770968 41.501109)"
"10794717","SUNNYSIDE CO.","DEALER USE TAX","4810 W ELM ST",,"MCHENRY","IL","60050","POINT (-88.291547 42.348673)"
"10793340","SUTTON FORD, INC.","DEALER USE TAX","21315 CENTRAL AVE",,"MATTESON","IL","60443","POINT (-87.751633 41.502862)"
"10794430","SYSTEMS TRANSPORTATION EQUIP.","DEALER USE TAX","2700 MADISON",,"BELLWOOD","IL","60104","POINT (-87.866135 41.878138)"
"10794518","TAB AUTO BROKERS","DEALER USE TAX","4916 N ELSTON AVE",,"CHICAGO","IL","60630","POINT (-87.743185 41.969973)"
"10794484","T & C MOTORS, INC.","DEALER USE TAX","3747 CHICAGO ROAD",,"STEGAR","IL","60475","POINT (-87.634674 41.462156)"
"10794495","TECHNICRAFT AUTO BROKERS","DEALER USE TAX","8349 S ROBERTS RD",,"JUSTICE","IL","60458","POINT (-87.818816 41.739464)"
"10794505","TED'S AUTO REPAIR, INC.","DEALER USE TAX","6234 W ARCHER AVE",,"CHICAGO","IL","60638",
"10794651","TEMCO MACHINERY, INC","DEALER USE TAX","1401 N FARMSWORTH",,"AURORA","IL","60505 - 1611",
"10794517","TEMPLETON MOTORS LTD","DEALER USE TAX","2035 N CICERO AVE",,"CHICAGO","IL","60639","POINT (-87.746068 41.917891)"
"10839405","TEMPO AUTO GROUP LTD","DEALER USE TAX","4421 N. ELSTON AVE",,"CHICAGO","IL","60630","POINT (-87.729988 41.961152)"
"11106055","TEN 28 AUTO DEALER INC","DEALER USE TAX","5249 W. 47TH STREET",,"FOREST VIEW","IL","60638","POINT (-87.75465 41.807484)"
"10794655","TERRY'S FORD LINCOLN MERCURY","DEALER USE TAX","363 N HARLEM",,"PEOTONE","IL","60468","POINT (-87.785451 41.338682)"
"10794676","TERRY'S RV & TRUCK CENTER","DEALER USE TAX","20450 S LAGRANGE RD",,"FRANKFORT","IL","60423","POINT (-87.849861 41.518831)"
"10854780","TESLA LEASE TRUST","DEALER USE TAX","3500 DEER CREEK RD",,"PALO ALTO","CA","94304","POINT (-122.149157 37.394802)"
"10825179","TESLA MOTORS, INC.","DEALER USE TAX","1053 W. GRAND AVE",,"CHICAGO","IL","60642","POINT (-87.654126 41.891138)"
"11128212","TG ARLINGTON HEIGHTS II LLC","DEALER USE TAX","777 W. DUNDEE RD",,"ARLINGTON HEIGHTS","IL","60004","POINT (-87.990569 42.139035)"
"21003498","TG WHEELING LLC","DEALER USE TAX","700 W DUNDEE RD",,"WHEELING","IL","60090 - 2606","POINT (-87.932518 42.139297)"
"10793435","THE AUTOBARN LTD.","DEALER USE TAX","6161 JOLIET ROAD",,"COUNTRYSIDE","IL","60525","POINT (-87.870573 41.77749)"
"11105750","THE AUTOBARN VOLVO OF OAK PARK","DEALER USE TAX","1140 GARFIELD",,"OAK PARK","IL","60304","POINT (-87.803435 41.872326)"
"10794497","THE CAR MINISTRY-COMMUNITY CH.","DEALER USE TAX","67 ALGONQUIN RD",,"SOUTH BARRINGTON","IL","60010 - 6143","POINT (-88.139273 42.096481)"
"10794479","THE GREAT AUTO RACE","DEALER USE TAX","2200 N CICERO AVE",,"CHICAGO","IL","60639","POINT (-87.746282 41.920641)"
"10803725","THE TOOL STORE","DEALER USE TAX","4529 S. HARLEM AVE,",,"FOREST VIEW","IL","60402",
"10794480","THE WHOLESALE OUTLET INC.","DEALER USE TAX","16701 S KEDZIE",,"HAZELCREST","IL","60429",
"10793318","THOESEN TRACTOR & EQUIPMENT","DEALER USE TAX","3142 LINCOLN HWY",,"LYNWOOD","IL","60411",
"10793308","TIMBER RIDGE MOBILE HOME PARK","DEALER USE TAX","21700 TIMBER RIDGE ROAD",,"MATTESON","IL","60443 - 2851","POINT (-87.770992 41.495677)"
"10794513","TITAN AUTO SALES","DEALER USE TAX","11201 S. HARLEM AVE.",,"WORTH","IL","60482","POINT (-87.797294 41.687311)"
"10794475","TJ MOTOR INC.","DEALER USE TAX","5435 W. 63RD STREET",,"CHICAGO","IL","60638","POINT (-87.758243 41.778111)"
"10794482","TMRS ENTERPRISES","DEALER USE TAX","9800 LELAND AVE",,"SCHILLER PARK","IL","60176","POINT (-87.871231 41.963889)"
"10793401","TONY RIZZA OLDS. & CADILLAC","DEALER USE TAX","8425 W 159TH ST",,"TINLEY PARK","IL","60487","POINT (-87.825172 41.601768)"
"10794519","TOP STORE, INC.","DEALER USE TAX","5500 MCDERMOTT DR",,"BERKELEY","IL","60163","POINT (-87.905894 41.89271)"
"21003466","TOP YIN MOTORS INC","DEALER USE TAX","1881 W ALGONQUIN RD",,"MOUNT PROSPECT","IL","60056 - 4805","POINT (-87.966415 42.037863)"
"10841582","TOYOTA LEASE TRUST","DEALER USE TAX","6565 HEADQUARTERS DR., W2-4A",,"PLANO","TX","75024","POINT (-96.840857 33.080384)"
"11128131","TOYOTA OF FOX LAKE","DEALER USE TAX","75 S US HWY 12",,"FOX LAKE","IL","60020","POINT (-88.182232 42.391494)"
"10794625","TOYOTA OF NAPERVILLE","DEALER USE TAX","1488 W OGDEN AVE",,"NAPERVILLE","IL","60540","POINT (-88.186257 41.776222)"
"11128231","TOYOTA ON EDENS","DEALER USE TAX","1530 FRONTAGE RD",,"NORHBROOK","IL","60062",
"11127923","TRANQUILO HOMES LLC","DEALER USE TAX","90 S RIVER RD",,"DES PLAINES","IL","60016 - 3435","POINT (-87.887261 42.05198)"
"10855340","TRANSIT MOTORS INC.","DEALER USE TAX","749 TORRENCE AVE",,"CALUMET CITY","IL","60409","POINT (-87.559007 41.612811)"
"10835348","T & R AUTO SALES, INC.","DEALER USE TAX","633 E. SIBLEY BLVD.",,"DOLTON","IL","60419","POINT (-87.605568 41.622594)"
"10794520","TRIANGLE AUTO SALES LLC","DEALER USE TAX","933 VILLA ST",,"ELGIN","IL","60120","POINT (-88.254753 42.025317)"
"10793577","TRI-ANGLE FAB. & BODY CO.","DEALER USE TAX","1344 W. 43RD STREET",,"CHICAGO","IL","60609","POINT (-87.659292 41.815963)"
"10794485","TRI R SERVICE, INC.","DEALER USE TAX","419 E GOLF RD",,"DES PLAINES","IL","60016","POINT (-87.913357 42.050036)"
"10794486","TRISON MANAGEMENT CORP","DEALER USE TAX","4603 W 138TH ST",,"CRESTWOOD","IL","60445",
"11101588","TRI STATE AUTO GROUP","DEALER USE TAX","2407 E OAKTON ST",,"ARLINGTON HEIGHTS","IL","60005","POINT (-87.949489 42.022553)"
"11127942","TROFEO MOTORS LLC","DEALER USE TAX","12533 S IROQUOIS RD",,"PALOS PARK","IL","60464 - 1944","POINT (-87.82922 41.661387)"
"21003980","TRYON VEHICLE TITLING TRUST","DEALER USE TAX","100 N TRYON ST",,"CHARLOTTE","NC","28202 - 4000","POINT (-80.842476 35.227611)"
