"registration_account","company","tax_type","address_line_1","address_line_2","city","state","zip_code","location"
"21001174","1050 WILSON PARTNERS LLC","PARKING TAX","1050 W WILSON AVE",,"CHICAGO","IL","60640 - 5622","POINT (-87.65685 41.96544)"
"21002007","1101 WABASH DEVELOPMENT LLC","PARKING TAX","55 E 11TH ST",,"CHICAGO","IL","60605 - 2313","POINT (-87.62547 41.869283)"
"21002380","1126 HOLLYWOOD, LLC","PARKING TAX","1122 W HOLLYWOOD AVE",,"CHICAGO","IL","60660 - 4427","POINT (-87.659084 41.98547)"
"10795811","1150 CONDO ASSOC.","PARKING TAX","1150 N LAKE SHORE DR",,"CHICAGO","IL","60611 - 5215","POINT (-87.624932 41.903786)"
"21001508","12161 SOUTH CENTRAL NZT LLC","PARKING TAX",,,,,,
"21002276","1406 W FULTON LLC","PARKING TAX","1406 W FULTON ST STE A2",,"CHICAGO","IL","60607 - 1145","POINT (-87.663501 41.886574)"
"21002388","1450 WESTERN LLC","PARKING TAX","3630 S HERMITAGE AVE",,"CHICAGO","IL","60609 - 1219","POINT (-87.669107 41.827797)"
"20000070","1515 CHICAGO AVE LLC","PARKING TAX","1515 CHICAGO AVE",,"EVANSTON","IL","60201 - 4405","POINT (-87.679946 42.045697)"
"21002550","151 FRANKLIN SERVICES LLC","PARKING TAX","151 N FRANKLIN ST",,"CHICAGO","IL","60606 - 1915","POINT (-87.635367 41.884568)"
"10795676","1550 CONDO ASSOC.","PARKING TAX","1550 N LAKE SHORE DR",,"CHICAGO","IL","60610 - 1675","POINT (-87.626237 41.910902)"
"10795685","155 HARBOR DR. CONDO ASS.","PARKING TAX","155 N HARBOR DR",,"CHICAGO","IL","60601 - 7364","POINT (-87.615743 41.884941)"
"21000001","1600 N MILWAUKEE VENTURES","PARKING TAX","2018 W NORTH AVE",,"CHICAGO","IL","60647 - 5414","POINT (-87.67826 41.910479)"
"10801795","161 CLARK STREET","PARKING TAX","161 N CLARK ST STE 1270",,"CHICAGO","IL","60601 - 3308","POINT (-87.630937 41.884708)"
"10795677","1660 CONDO ASSOC.","PARKING TAX","1660 N LA SALLE DR",,"CHICAGO","IL","60614 - 6000","POINT (-87.633226 41.912302)"
"21001504","1901 ROSELLE (SCHAUMBURG) DY LLC","PARKING TAX",,,,,,
"10852550","200 EAST DELAWARE CONDO. ASSN.","PARKING TAX","200 E DELAWARE PL",,"CHICAGO","IL","60611 - 1911","POINT (-87.62127 41.899264)"
"21001922","200 GREEN DEVELOPER LLC","PARKING TAX","200 N GREEN ST",,"CHICAGO","IL","60607 - 1702","POINT (-87.648659 41.885666)"
"21001656","2121 VALET PARKING SERVICE LLC","PARKING TAX","2121 N CLARK ST",,"CHICAGO","IL","60614 - 4613","POINT (-87.637512 41.920722)"
"21004119","2211 N. MILWAUKEE (CHICAGO) MANAGER, LLC","PARKING TAX","2211 N MILWAUKEE AVE",,"CHICAGO","IL","60647 - 2063","POINT (-87.694722 41.921322)"
"21001913","233 E ONTARIO HOTEL PROPCO LLC","PARKING TAX","233 E ONTARIO ST",,"CHICAGO","IL","60611 - 3214","POINT (-87.621606 41.893387)"
"10809135","2500 LAKEVIEW ASSOCIATION","PARKING TAX","2500 N LAKEVIEW AVE",,"CHICAGO","IL","60614 - 1846","POINT (-87.639187 41.928306)"
"10795678","2626 LAKEVIEW CONDO ASSOC.","PARKING TAX","2626 N LAKEVIEW AVE",,"CHICAGO","IL","60614 - 6173","POINT (-87.639308 41.93049)"
"10795681","2909 N SHERIDAN CONDO ASSN","PARKING TAX","2909 N SHERIDAN RD",,"CHICAGO","IL","60657 - 5978","POINT (-87.639367 41.934681)"
"21000077","29-33 E PALATINE LLC","PARKING TAX","29-33 E PALATINE RD.",,"PROSPECT HEIGHTS","IL","60070","POINT (-87.935746 42.10963)"
"10795675","30 E ELM CONDO ASSOC.","PARKING TAX","30 E ELM ST",,"CHICAGO","IL","60611 - 1042","POINT (-87.62749 41.903215)"
"21002231","3101 S CALIFORNIA LLC","PARKING TAX","2753 W 31ST ST",,"CHICAGO","IL","60608 - 5126","POINT (-87.693622 41.837439)"
"10795679","3150 CONDO ASSOC.","PARKING TAX","3150 N LAKE SHORE DR",,"CHICAGO","IL","60657 - 4810","POINT (-87.638208 41.939335)"
"21001217","31ST STREET PARTNERS LLC","PARKING TAX","1325 N 31ST AVE",,"MELROSE PARK","IL","60160","POINT (-87.871401 41.899005)"
"21002270","3510 WILMETTE STORAGE LLC","PARKING TAX","3510 WILMETTE AVE",,"WILMETTE","IL","60091 - 2069","POINT (-87.762218 42.072355)"
"21003815","3615 S IRON ST, LLC","PARKING TAX","3615 S IRON ST",,"CHICAGO","IL","60609 - 1322","POINT (-87.659322 41.828578)"
"21001717","3720 SOUTH  CICERO LLC","PARKING TAX","3720 S CICERO AVE",,"CICERO","IL","60804 - 4536","POINT (-87.743604 41.824562)"
"21002328","3800 LAKE SHORE DRIVE CONDOMINIUM ASSOCIATION","PARKING TAX","3800 N LAKE SHORE DR",,"CHICAGO","IL","60613 - 3301","POINT (-87.644998 41.952512)"
"10824986","3900 N. LAKE SHORE CONDOMINIUM ASSOC.","PARKING TAX","3900 N LAKE SHORE DR",,"CHICAGO","IL","60613 - 3452","POINT (-87.64512 41.953414)"
"10795695","400 CONDOMINIUM ASSOCIATION","PARKING TAX","400 E RANDOLPH ST STE 740",,"CHICAGO","IL","60601 - 7329","POINT (-87.616571 41.884594)"
"21002234","42ND TH, LLC","PARKING TAX","4626 W. 42ND STREET",,"CHICAGO","IL","60632","POINT (-87.723817 41.816942)"
"21002123","4500 S. KOLIN (CHICAGO), LLC","PARKING TAX","9450 BRYN MAWR AVE STE 550",,"ROSEMONT","IL","60018","POINT (-87.864017 41.980534)"
"21002126","4532 S. KOLIN (CHICAGO), LLC","PARKING TAX","9450 BRYN MAWR AVE STE 550",,"ROSEMONT","IL","60018","POINT (-87.864017 41.980534)"
"11106046","4858-70 N CLARK ST LLC","PARKING TAX","4872 N CLARK ST",,"CHICAGO","IL","60640 - 4711","POINT (-87.667757 41.971037)"
"21001862","5050 NORTH BROADWAY PROPERTY LLC","PARKING TAX","5051 N BROADWAY ST",,"CHICAGO","IL","60640 - 3005","POINT (-87.65982 41.974151)"
"21002296","5440 SHERIDAN PROPERTY OWNER LLC","PARKING TAX","5540 N SHERIDAN RD",,"CHICAGO","IL","60640 - 1610","POINT (-87.655165 41.983319)"
"21001558","5550 NORTH RIVER ROAD, ROSEMONT, LLC","PARKING TAX","5550 N RIVER RD",,"ROSEMONT","IL","60018 - 5231","POINT (-87.862117 41.979707)"
"10795683","555 CORNELIA CONDO ASSOC.","PARKING TAX","555 W CORNELIA AVE",,"CHICAGO","IL","60657 - 2755","POINT (-87.644246 41.946159)"
"11117165","55 WACKER UPPER 2 LLC","PARKING TAX","110 S 19TH ST",,"PHILADELPHIA","PA","19103 - 4629","POINT (-75.171996 39.951457)"
"21003451","590 HEALY RD., LLC","PARKING TAX","1900 WRIGHT BLVD",,"SCHAUMBURG","IL","60193 - 4587","POINT (-88.101825 41.993259)"
"10795689","7139 S. EXCHANGE GARAGE","PARKING TAX","7139 S EXCHANGE AVE",,"CHICAGO","IL","60649 - 2503","POINT (-87.565792 41.765485)"
"10834157","71 SOUTH WACKER DRIVE LLC","PARKING TAX","71 S WACKER DR",,"CHICAGO","IL","60606 - 4637","POINT (-87.636838 41.880934)"
"21002548","730 RANDOLPH LLC","PARKING TAX","732 W RANDOLPH ST",,"CHICAGO","IL","60661","POINT (-87.647046 41.88454)"
"10795688","77 WEST WACKER DR., L.L.C.","PARKING TAX","77 W WACKER DR STE 730",,"CHICAGO","IL","60601 - 1718","POINT (-87.630441 41.88685)"
"21000029","800 W DIVISION LIMITED PARTNERSHIP","PARKING TAX",,,,,,
"21002387","811 W. FULTON MARKET STREET CHICAGO, LLC","PARKING TAX","811 W FULTON MARKET",,"CHICAGO","IL","60607 - 1326","POINT (-87.647933 41.886818)"
"21000055","860-1422 R2 LLC","PARKING TAX","860 W EVERGREEN AVE",,"CHICAGO","IL","60642","POINT (-87.650207 41.905948)"
"21001016","88TH STREET LLC","PARKING TAX","1550 W 88TH ST",,"CHICAGO","IL","60620","POINT (-87.6626 41.733966)"
"21001823","915 ORLEANS LLC","PARKING TAX","912 W LAKE ST",,"CHICAGO","IL","60607 - 1707","POINT (-87.650304 41.885625)"
"21004154","941 W. CARMEN LLC","PARKING TAX","931-941 W CARMEN AVENUE",,"CHICAGO","IL","60640","POINT (-87.653753 41.974267)"
"10795699","A & A PARKING, INC.","PARKING TAX","615 N OGDEN AVE",,"CHICAGO","IL","60642 - 5856","POINT (-87.657308 41.892968)"
"21001877","ACQUA ANCIENT BATHS CHICAGO LLC","PARKING TAX",,,,,,
"10794801","ADMIRAL THEATRE, INC.","PARKING TAX","3940 W LAWRENCE AVE",,"CHICAGO","IL","60625 - 6234","POINT (-87.727067 41.968297)"
"21002689","ADVANCE VALET PARKING INC","PARKING TAX","6944 W DIVERSEY AVE",,"CHICAGO","IL","60707 - 1726","POINT (-87.799802 41.930864)"
"10853673","ADVANTAGE VALET PARKING, INC.","PARKING TAX","181 S NORTHWEST HWY",,"BARRINGTON","IL","60010 - 4607","POINT (-88.128275 42.152191)"
"21001497","AF TRUCK CENTER LLC","PARKING TAX","300 W NORTH AVE",,"NORTHLAKE","IL","60164 - 2404","POINT (-87.916446 41.906979)"
"21001385","AG 300 SOUTH WACKER OWNER LLC","PARKING TAX","300 S WACKER DR",,"CHICAGO","IL","60606 - 6680","POINT (-87.636882 41.877723)"
"21002250","AGG PRESIDENTS OWNER LLC","PARKING TAX","8600 W BRYN MAWR AVE STE 120N",,"CHICAGO","IL","60631 - 3562","POINT (-87.842124 41.980992)"
"10795713","AIRPORT PARKING EXPRESS, INC.","PARKING TAX","4832 W 47TH ST",,"CHICAGO","IL","60638 - 2024","POINT (-87.744583 41.80763)"
"10795702","AIRWAYS PARKING","PARKING TAX","4532 W 55TH ST",,"CHICAGO","IL","60632 - 4722","POINT (-87.736786 41.793094)"
"10795716","AKA PARKING, INC.","PARKING TAX","1030 N STATE ST APT 24GH",,"CHICAGO","IL","60610 - 5476","POINT (-87.628337 41.901317)"
"21001864","ALLIANCE HSP PTPMAC MILLS MEMBER LLC","PARKING TAX","8700 W BRYN MAWR AVE LOWR LEVEL",,"CHICAGO","IL","60631 - 3512","POINT (-87.843348 41.980988)"
"21001560","ALL POINTS EQUIPMENT & LEASING CORP.","PARKING TAX","8500 W 53RD ST",,"MC COOK","IL","60525 - 3110","POINT (-87.830977 41.794709)"
"10852667","ALPHA PARKING LLC","PARKING TAX","320 W ERIE ST FL 1","OUTDOOR","CHICAGO","IL","60654 - 3902","POINT (-87.636575 41.893978)"
"21000022","ALSIP DEVELOPMENT, LLC","PARKING TAX","3924 W 131ST STREET",,"ALSIP","IL","60803","POINT (-87.715957 41.654827)"
"20000011","ALSIP HOTEL INVESTORS LLC","PARKING TAX","5000 W 127TH ST",,"ALSIP","IL","60803","POINT (-87.744219 41.661667)"
"10795708","AMERICANA TOWNER CONDO. ASS.","PARKING TAX","1636 N WELLS ST",,"CHICAGO","IL","60614 - 6037","POINT (-87.634742 41.912321)"
"10795698","AMERICAN COLLEGE OF SUREGEONS","PARKING TAX","633 N SAINT CLAIR ST","CLAIR","CHICAGO","IL","60611 - 3234","POINT (-87.622722 41.893812)"
"10795724","AMERICAN DENTAL ASSOCIATION","PARKING TAX","211 E CHICAGO AVE STE 1312",,"CHICAGO","IL","60611 - 2662","POINT (-87.622367 41.896764)"
"10795700","AMERICAN ISLAMIC COLLEGE","PARKING TAX","640 W IRVING PARK RD",,"CHICAGO","IL","60613 - 0030","POINT (-87.646768 41.954635)"
"10839200","AMERICAN SELF-STORAGE LLC","PARKING TAX","2220 W 56TH ST",,"CHICAGO","IL","60636 - 1047","POINT (-87.68048 41.792049)"
"10795705","AMPCO SYSTEM PARKING","PARKING TAX","8101 W SAM HOUSTON PKWY S STE 150",,"HOUSTON","TX","77072 - 5037","POINT (-95.556684 29.691002)"
"10829966","ANDY FRAIN SERVICE, INC.","PARKING TAX","761 SHORELINE DR",,"AURORA","IL","60504 - 6194","POINT (-88.226429 41.74411)"
"21000047","APA HOLDINGS, LLC","PARKING TAX",,,,,,
"11114751","A+ PARKING SERVICES LLC","PARKING TAX","128 CAPTAINS CIRLE",,"HENDERSONVILLE","TN","37075 - 6732","POINT (-86.556741 36.35686)"
"20000048","APPLE TEN HOSPITALITY MANAGEMENT INC","PARKING TAX","2425 BARRINGTON RD",,"HOFFMAN ESTATES","IL","60192","POINT (-88.144328 42.068769)"
"20000139","APPLE TEN ILLINOIS SERVICES INC","PARKING TAX","9480 W HIGGINS RD",,"ROSEMONT","IL","60018","POINT (-87.86244 41.992253)"
"10833376","APPLE TEN SERVICES OHARE INC","PARKING TAX","2930 S RIVER RD",,"DES PLAINES","IL","60018","POINT (-87.863906 42.000961)"
"10795707","AUTO EXPERT","PARKING TAX","1150 W ADDISON ST",,"CHICAGO","IL","60613 - 3806","POINT (-87.658017 41.947191)"
"10819629","AUTOPARK LLC","PARKING TAX","11 E WALTON ST",,"CHICAGO","IL","60611 - 5442","POINT (-87.627507 41.899957)"
"21000052","AUTOTRUCK PARKING AND STORAGE INC.","PARKING TAX","6629 S WENTWORTH AVE",,"CHICAGO","IL","60621","POINT (-87.629998 41.773733)"
"21002302","AVANATH RENAISSANCE NORTH, LLC","PARKING TAX","551 W NORTH AVE",,"CHICAGO","IL","60610 - 6549","POINT (-87.642984 41.911047)"
"21002133","AVANATH SCOTLAND YARD, LLC","PARKING TAX","4215 N BROADWAY ST # 4261",,"CHICAGO","IL","60613 - 1495","POINT (-87.653284 41.958892)"
"21001854","AVR WHEELING HOTEL TENANT LLC","PARKING TAX","601 N MILWAUKEE AVE",,"WHEELING","IL","60090 - 3023","POINT (-87.912906 42.150258)"
"21001931","BANANA GLADES LLC","PARKING TAX","24 S MORGAN ST",,"CHICAGO","IL","60607 - 3668","POINT (-87.652012 41.881038)"
"21002317","BARRINGTON MOTOR SALES AND SERVICE, INC.","PARKING TAX","3825 COMMERCE DR",,"SAINT CHARLES","IL","60174 - 5325","POINT (-88.266576 41.905716)"
"21002317","BARRINGTON MOTOR SALES AND SERVICE, INC.","PARKING TAX","3825 COMMERCE DR",,"SAINT CHARLES","IL","60174 - 5325","POINT (-88.266576 41.905716)"
"21002530","BARTLETT TRUCK PARKING LLC","PARKING TAX","2000 W 33RD ST",,"CHICAGO","IL","60608","POINT (-87.67558 41.834052)"
"21002297","BCSP 190 SOUTH LASALLE HOLDINGS LLC","PARKING TAX","190 S LA SALLE ST",,"CHICAGO","IL","60603 - 3410","POINT (-87.632324 41.87954)"
"21002484","BCSP 330 NORTH WABASH PROPERTY LLC","PARKING TAX","200 STATE ST STE 5",,"BOSTON","MA","2109","POINT (-71.052891 42.359458)"
"21002052","BEDFORD PARKING INC.","PARKING TAX","6201 W 65TH ST",,"BEDFORD PARK","IL","60638","POINT (-87.77694 41.77409)"
"21000095","BELLROSE PARTNERS, LLC","PARKING TAX","110 25TH AVE",,"BELLWOOD","IL","60104","POINT (-87.863928 41.890791)"
"21000096","BEM PARKING LLC","PARKING TAX","1933 GEORGE ST.",,"MELROSE PARK","IL","60160","POINT (-87.84977 41.910581)"
"21003875","BEST CAR PARK LLC","PARKING TAX","150 E HURON ST",,"CHICAGO","IL","60611 - 2999","POINT (-87.623051 41.894969)"
"21000496","BIG TOP AUTO PARTS","PARKING TAX","20877 COTTAGE GROVE AVE",,"FORD HEIGHTS","IL","60411 - 2284","POINT (-87.597023 41.514853)"
"10835024","BLACK WHITE VALET LLC","PARKING TAX","2150 S CANALPORT AVE STE 3B9",,"CHICAGO","IL","60608 - 4461","POINT (-87.649281 41.853487)"
"10854449","BLUE CROSS & BLUE SHIELD OF IL","PARKING TAX","300 E RANDOLPH ST STE CL407",,"CHICAGO","IL","60601 - 5075","POINT (-87.619877 41.884484)"
"21001070","BLUFF CITY MATERIALS, INC.","PARKING TAX","2250 SOUTHWIND BLVD",,"BARTLETT","IL","60103 - 1304","POINT (-88.266675 41.990341)"
"21001786","BOF IL O'HARE INTERNATIONAL CENTER","PARKING TAX","10255 W HIGGINS RD # 75",,"ROSEMONT","IL","60018 - 5606","POINT (-87.881701 41.997539)"
"21001832","BOF IL WINDY POINTE II, LLC, A DELAWARE LIMITED LIABILITY COMPANY","PARKING TAX","5 CONCOURSE PKWY STE 500",,"ATLANTA","GA","30328 - 6101","POINT (-84.354346 33.917464)"
"21001831","BOF IL WINDY POINT I, LLC, A DELAWARE LIMITED LIABILITY COMPANY","PARKING TAX","5 CONCOURSE PKWY STE 500",,"ATLANTA","GA","30328 - 6101","POINT (-84.354346 33.917464)"
"21002538","BOW TRUSS CAPITAL, LLC","PARKING TAX","630 W LAKE ST",,"CHICAGO","IL","60661 - 1508","POINT (-87.643707 41.885709)"
"21002083","BRAVO 4200 LLC","PARKING TAX","4200 RIVER RD",,"SCHILLER PARK","IL","60176 - 1625","POINT (-87.859262 41.955901)"
"11108206","BRE 312 OWNER LLC","PARKING TAX","233 S WACKER DR STE 3755",,"CHICAGO","IL","60606 - 7147","POINT (-87.636741 41.87889)"
"21002032","BRITE LOGISTICS INC","PARKING TAX","5000 S HOMAN AVE",,"CHICAGO","IL","60632 - 3059","POINT (-87.708703 41.802619)"
"21003779","BRIXTON CAPITAL VENTURES LLC SERIES 3","PARKING TAX","3514 N HALSTED ST",,"CHICAGO","IL","60657 - 1833","POINT (-87.649422 41.946069)"
"21001983","BROADWAY CLIFTON PROPERTY LLC","PARKING TAX","4717-4759 N. CLIFTON AVE",,"CHICAGO","IL","60640","POINT (-87.658913 41.967889)"
"10795723","BROOKFIELD ZOO","PARKING TAX","3300 GOLF RD",,"BROOKFIELD","IL","60513 - 1060","POINT (-87.832128 41.830221)"
"11112299","BW RIVER NORTH HOTEL LLC","PARKING TAX","125 W OHIO ST",,"CHICAGO","IL","60654 - 4410","POINT (-87.632318 41.892435)"
"10837909","BYRON'S HOT DOGS","PARKING TAX","1017 W IRVING PARK RD",,"CHICAGO","IL","60613 - 2913","POINT (-87.655298 41.954502)"
"21000050","BYT ENTERPRISES, LLC","PARKING TAX","3625 N HALSTED ST",,"CHICAGO","IL","60613 - 4569","POINT (-87.649478 41.947737)"
"21001697","CACTUS INC","PARKING TAX","5130 W LAWNDALE AVE",,"SUMMIT","IL","60501",
"10850634","CAFE LA CAVE INC.","PARKING TAX","2777 MANNHEIM RD",,"DES PLAINES","IL","60018 - 3602","POINT (-87.884483 42.002805)"
"11109665","CAL COURT PARKING LLC","PARKING TAX","PO BOX 17712",,"CHICAGO","IL","60617 - 0712",
"10795731","CARL SANDBURG VILLAGE","PARKING TAX","1355 N SANDBURG TER",,"CHICAGO","IL","60610 - 2074","POINT (-87.632075 41.907234)"
"21003615","CATALYST TALBOTT OPERATING LLC","PARKING TAX","20 E DELAWARE PL",,"CHICAGO","IL","60611 - 1431","POINT (-87.627336 41.899148)"
"21001242","CBS TRUCK INN","PARKING TAX","333 S. MANNHEIM CENTER STREET",,"HILLSIDE","IL","60162",
"11114860","CCG CHICAGO LLC","PARKING TAX","2500 W, BRADLEY PLACEO",,"CHICAGO","IL","60629",
"21002367","CC TRAFFIC AND PROPERTY MANAGEMENT LLC","PARKING TAX","5250 OLD ORCHARD RD STE 300",,"SKOKIE","IL","60077 - 4462","POINT (-87.758415 42.062557)"
"11105371","CENTRO HISPANO","PARKING TAX","5401 S LONG AVE",,"CHICAGO","IL","60638 - 2919","POINT (-87.757404 41.794423)"
"21004060","CG PARKING, LLC","PARKING TAX","412 S DEARBORN ST",,"CHICAGO","IL","60605 - 1107","POINT (-87.629267 41.87651)"
"21001536","CHAMPAGNE CARRIERS","PARKING TAX","11 S. 435 MADISON ST",,"BURR RIDGE","IL","60527","POINT (-87.936902 41.803296)"
"10819033","CHICAGO CUBS BASEBALL CLUB LLC","PARKING TAX","1060 W ADDISON ST",,"CHICAGO","IL","60613 - 4566","POINT (-87.65438 41.947259)"
"10795737","CHICAGO HORTICULTURAL SOCIETY","PARKING TAX","1000 LAKE COOK RD",,"GLENCOE","IL","60022 - 1168","POINT (-87.786292 42.152368)"
"21002015","CHICAGOLAND TRUCKIN INC.","PARKING TAX","5494 W ROOSEVELT RD",,"CHICAGO","IL","60644 - 1467","POINT (-87.761362 41.865673)"
"10795736","CHICAGO PARK DISTRICT","PARKING TAX","541 N FAIRBANKS CT",,"CHICAGO","IL","60611 - 3319","POINT (-87.620172 41.892399)"
"21002430","CHICAGO VALET PARKING, INC.","PARKING TAX","2843 W NELSON ST",,"CHICAGO","IL","60618 - 7011","POINT (-87.699445 41.936651)"
"10794839","CHICAGO WHITE SOX LTD.","PARKING TAX","333 W 35TH ST",,"CHICAGO","IL","60616 - 3621","POINT (-87.634681 41.830922)"
"21001933","CIOLKOSZ PROPERTIES LLC","PARKING TAX","3535 W 47TH ST",,"CHICAGO","IL","60632 - 2929","POINT (-87.712632 41.808043)"
"10838139","CISSILY, INC.","PARKING TAX","3600 N ASHLAND AVE",,"CHICAGO","IL","60613 - 3618","POINT (-87.668907 41.94731)"
"10810373","CITIPARK, INC.","PARKING TAX","11038 2ND ST",,"MOKENA","IL","60448 - 1510","POINT (-87.886245 41.533198)"
"10810373","CITIPARK, INC.","PARKING TAX","11038 2ND ST",,"MOKENA","IL","60448 - 1510","POINT (-87.886245 41.533198)"
"10795773","CITY OF CHICAGO","PARKING TAX","121 N LASALLE STREET, ROOM 700",,"CHICAGO","IL","60602",
"10795766","CITY OF CHICAGO","PARKING TAX","121 N LASALLE STREET,  ROOM 700",,"CHICAGO","IL","60602",
"21001997","CITY OF CHICAGO DEPT OF AVIATION","PARKING TAX","10000 W OHARE AVE",,"CHICAGO","IL","60666 - 6000","POINT (-87.895169 41.980739)"
"11102980","CITY OF CHICAGO DEPT OF FINANCE","PARKING TAX","121 N LA SALLE ST RM 700",,"CHICAGO","IL","60602 - 1246","POINT (-87.632367 41.883617)"
"10795738","CITY OF EVANSTON","PARKING TAX","2100 RIDGE AVE",,"EVANSTON","IL","60201 - 2716","POINT (-87.686932 42.055737)"
"10838399","CLUB CONTINENTAL, INC.","PARKING TAX","5515 N LINCOLN AVE",,"CHICAGO","IL","60625 - 2212","POINT (-87.693084 41.98194)"
"10850606","COBBLER SQUARE INVESTORS LTD.","PARKING TAX","1352-64 N. NORTH PARK AVE, FL 1",,"CHICAGO","IL","60610","POINT (-87.636533 41.907207)"
"21002487","COMMONWEALTH EDISON COMPANY","PARKING TAX","400 S LA SALLE ST",,"CHICAGO","IL","60605","POINT (-87.631751 41.876461)"
"10793339","COMMUNITY HONDA, INC.","PARKING TAX","8340 W 159TH ST",,"ORLAND PARK","IL","60462 - 4941","POINT (-87.823171 41.601902)"
"21002552","CONNECT GROUP LLC","PARKING TAX","2200 W 159TH ST",,"MARKHAM","IL","60428 - 4805","POINT (-87.669101 41.600807)"
"21002481","CONSOLIDATED TRUCK PARKING, LLC","PARKING TAX","12300 NEW AVE",,"LEMONT","IL","60439 - 2609","POINT (-88.029852 41.664921)"
"21000408","CONSUMERS PACKING COMPANY","PARKING TAX","1301 CARSON DR",,"MELROSE PARK","IL","60160 - 2970","POINT (-87.868849 41.898208)"
"10805868","CONTINENTAL 191 FUND LLC","PARKING TAX","9700 BALMORAL AVE",,"ROSEMONT","IL","60018 - 5214","POINT (-87.867103 41.976789)"
"21002112","CONTINENTAL TOWERS INVESTORS, LLC.","PARKING TAX","1701 GOLF RD STE 3-107",,"ROLLING MEADOWS","IL","60008 - 4260","POINT (-87.999508 42.051235)"
"21001563","CONTRAST PARKING LLC","PARKING TAX","2235 SHERMAN AVE",,"EVANSTON","IL","60201 - 2448","POINT (-87.681675 42.058707)"
"10850666","COPERNICUS CENTER","PARKING TAX","5216 W LAWRENCE AVE",,"CHICAGO","IL","60630 - 3616","POINT (-87.75844 41.967909)"
"21002023","COWBOY 2175 LLC","PARKING TAX","2175 E LINCOLN HWY",,"LYNWOOD","IL","60411 - 7709","POINT (-87.56387 41.506453)"
"11107266","CP CHICAGO OHARE LLC","PARKING TAX","8535 W HIGGINS RD",,"CHICAGO","IL","60631 - 2806","POINT (-87.840495 41.986609)"
"10839096","CP IPERS ROSEMONT HOTEL LLC","PARKING TAX","6100 N RIVER RD",,"ROSEMONT","IL","60018 - 5128","POINT (-87.860133 41.989598)"
"10802904","CPO HOSPITALITY LLC","PARKING TAX","5440 N RIVER RD",,"ROSEMONT","IL","60018 - 5232","POINT (-87.862765 41.977312)"
"10795783","CPS PARKING","PARKING TAX","200 E RANDOLPH ST STE 7700",,"CHICAGO","IL","60601 - 7702","POINT (-87.621611 41.884472)"
"21003774","CROSS POINTE PARK LLC","PARKING TAX","2801 167TH ST",,"HAZEL CREST","IL","60429 - 1073","POINT (-87.684951 41.586243)"
"10795041","CTYD III CORPORATION","PARKING TAX","2950 S RIVER RD",,"DES PLAINES","IL","60018 - 4203","POINT (-87.863591 42.000203)"
"11111965","CUBE SMART LP","PARKING TAX","5 OLD LANCASTER RD",,"MALVERN","PA","19355 - 2132","POINT (-75.519843 40.042108)"
"21002416","CUIC LLC","PARKING TAX","625 S ASHLAND AVE",,"CHICAGO","IL","60607 - 3101","POINT (-87.666488 41.873816)"
"20000108","DANA HOTEL LLC","PARKING TAX","2 W ERIE ST",,"CHICAGO","IL","60654 - 5397","POINT (-87.628359 41.894089)"
"21002492","DDRTC VILLAGE CROSSING LLC","PARKING TAX","700 3RD AVE",,"NEW YORK","NY","10017","POINT (-73.973599 40.751947)"
"10821476","DIAMOND GROUP 35 LLC","PARKING TAX","510-518 W. 35TH STREET",,"CHICAGO","IL","60616","POINT (-87.639205 41.83087)"
"10850411","DIAMOND PARKING SERVICES INC","PARKING TAX","6024 S MOZART ST",,"CHICAGO","IL","60629 - 2217","POINT (-87.694739 41.783665)"
"10838148","DIGITAL LAKESIDE LLC","PARKING TAX","350 E CERMAK RD",,"CHICAGO","IL","60616 - 5507","POINT (-87.618532 41.853044)"
"10808540","DRAKE TOWER GARAGE","PARKING TAX","174 E WALTON PL",,"CHICAGO","IL","60611 - 1504","POINT (-87.622643 41.900053)"
"11116797","DUGOUT PROPERTIES LLC","PARKING TAX","600 W 35TH ST",,"CHICAGO","IL","60616 - 3411","POINT (-87.641296 41.830849)"
"11116797","DUGOUT PROPERTIES LLC","PARKING TAX","600 W 35TH ST",,"CHICAGO","IL","60616 - 3411","POINT (-87.641296 41.830849)"
"10795822","DUS MANAGEMENT, INC.","PARKING TAX","35 E WACKER DR",,"CHICAGO","IL","60601 - 2314","POINT (-87.627664 41.886834)"
"10795755","EASY PARKING CORP.","PARKING TAX","65 E HARRISON ST",,"CHICAGO","IL","60605 - 1614","POINT (-87.625526 41.874416)"
"21001936","ECI CHICAGO CENTER LLC","PARKING TAX","200 E ILLINOIS ST",,"CHICAGO","IL","60611 - 6300","POINT (-87.622615 41.890948)"
"21003647","EDENS CORPORATE PLAZA, LLC","PARKING TAX","630 DUNDEE RD",,"NORTHBROOK","IL","60062 - 2762","POINT (-87.795969 42.137982)"
"21002001","ED'S MOBILE MAINTENANCE SERVICE","PARKING TAX","6733 KITTY AVE",,"CHICAGO RIDGE","IL","60415 - 1240","POINT (-87.786073 41.708602)"
"21000220","EDWARD HOTEL CHICAGO LLC","PARKING TAX","6600 MANNHEIM RD",,"ROSEMONT","IL","60018 - 3625","POINT (-87.884603 41.999623)"
"10839080","EGJR LLC","PARKING TAX","426 W PERSHING RD",,"CHICAGO","IL","60609 - 2726","POINT (-87.63748 41.823607)"
"10795756","ELIOT HOUSE CONDO ASSOC.","PARKING TAX","1255 N SANDBURG TER",,"CHICAGO","IL","60610 - 2258","POINT (-87.632082 41.905273)"
"10838008","EL VALET","PARKING TAX","2551 N CLARK ST",,"CHICAGO","IL","60614 - 1798","POINT (-87.642508 41.929042)"
"21000087","EMM MELROSE, LLC","PARKING TAX","2525 ARMITAGE AVE",,"MELROSE PARK","IL","60160 - 1125","POINT (-87.865029 41.915073)"
"21003485","EPIC PARKING LLC","PARKING TAX","405 W SUPERIOR ST STE 700",,"CHICAGO","IL","60654 - 8784","POINT (-87.638869 41.895553)"
"11110516","EVANSTON NORTHSHORE PARTNERS LLC","PARKING TAX","1501 SHERMAN AVE",,"EVANSTON","IL","60201 - 4416","POINT (-87.681923 42.044633)"
"11113136","EVANSTON ORRINGTON HOTEL LLC","PARKING TAX","1710 ORRINGTON AVE",,"EVANSTON","IL","60201 - 3828","POINT (-87.680575 42.048744)"
"21002436","EVENTBRITE, INC","PARKING TAX","535 MISSION ST FL 8",,"SAN FRANCISCO","CA","94105 - 3223","POINT (-122.398466 37.789064)"
"21002026","EXPRESS PROPERTIES INC","PARKING TAX","1200 SPAULDING RD",,"ELGIN","IL","60120 - 7300","POINT (-88.242254 42.002987)"
"11111914","EXTRA SPACE MANAGEMENT INC.","PARKING TAX","2795 E COTTONWOOD PKWY STE 400",,"SALT LAKE CITY","UT","84121 - 7033","POINT (-111.813254 40.632561)"
"10795753","EZ OUT PARKING","PARKING TAX","932 W ADDISON ST",,"CHICAGO","IL","60613 - 4311","POINT (-87.6533 41.947275)"
"21001981","EZ PARKING LLC","PARKING TAX",,,,,,
"21003471","FAIR PARKING INC","PARKING TAX","8728 SPROAT AVE",,"OAK LAWN","IL","60453 - 1353","POINT (-87.747286 41.733177)"
"10795760","FAULKNER HOUSE CONDO ASSOC.","PARKING TAX","70 W BURTON PL",,"CHICAGO","IL","60610 - 1444","POINT (-87.631172 41.909451)"
"21002131","FIRST CLASS VALET, INC","PARKING TAX","5401 PATTON DR STE 103",,"LISLE","IL","60532 - 4358","POINT (-88.081136 41.786893)"
"21001325","FIRST COS LLC","PARKING TAX","6501 MANNHEIM RD",,"ROSEMONT","IL","60018 - 3627","POINT (-87.884441 41.997182)"
"21004181","FLATIRON LLC","PARKING TAX","504 N GREEN ST",,"CHICAGO","IL","60642 - 6523","POINT (-87.648804 41.891369)"
"10795761","FOREIGN CAR HOSPITAL, INC.","PARKING TAX","5424 S KIMBARK AVE",,"CHICAGO","IL","60615 - 5208","POINT (-87.594965 41.79723)"
"11107162","FORTY EAST CEDAR CONDO ASSOCIATION","PARKING TAX","40 E CEDAR ST",,"CHICAGO","IL","60611 - 1141","POINT (-87.62688 41.9024)"
"10794889","FOUR POINT SHERIDAN","PARKING TAX","630 N RUSH ST",,"CHICAGO","IL","60611 - 2748","POINT (-87.625427 41.893569)"
"21000085","FRIES AUTOMOTIVE SERVICES INC.","PARKING TAX","81 E PALATINE RD",,"WHEELING","IL","60090 - 6519","POINT (-87.892161 42.109483)"
"21002701","FSP 909 DAVIS STREET LLC","PARKING TAX","909 DAVIS ST",,"EVANSTON","IL","60201","POINT (-87.684458 42.047045)"
"10795725","FULTON DES PLAINES GARAGE, INC","PARKING TAX","225 N DESPLAINES ST",,"CHICAGO","IL","60661 - 1119","POINT (-87.644265 41.886559)"
"21002375","GATEWAY CATALYST THC, LLC","PARKING TAX",,,,,,
"11107024","GOLD COAST PARKING & VALET SERVICES INC","PARKING TAX","2549 WAUKEGAN RD STE 7",,"BANNOCKBURN","IL","60015 - 1569","POINT (-87.861759 42.197716)"
"21002037","GOLDEN MILE HOTELS LLC","PARKING TAX","660 N STATE ST",,"CHICAGO","IL","60654 - 3830","POINT (-87.628129 41.89422)"
"11100585","GOLD STAR VALET INC","PARKING TAX","70 E WALTON ST",,"CHICAGO","IL","60611 - 1670","POINT (-87.625834 41.899973)"
"11101251","GRACE STREET TOWERS LLC","PARKING TAX","333 N MICHIGAN AVE STE 1700",,"CHICAGO","IL","60601 - 3981","POINT (-87.624457 41.887619)"
"21004132","GRAND AVENUE OPERATING VII, LLC","PARKING TAX","10 E GRAND AVE",,"CHICAGO","IL","60611 - 3506","POINT (-87.627613 41.891698)"
"21001065","GROSSINGER IMPORTS","PARKING TAX","7225 N CICERO AVE",,"LINCOLNWOOD","IL","60712 - 1611","POINT (-87.747882 42.012981)"
"21001412","HAMPTON INN AND SUITES CHICAGO MT PROSPECT","PARKING TAX","1 RANDHURST VILLAGE DR",,"MT PROSPECT","IL","60056 - 1146","POINT (-87.933227 42.084062)"
"10800521","HARBOR HOUSE CONDO ASSN.","PARKING TAX","3200 N LAKE SHORE DR",,"CHICAGO","IL","60657 - 3952","POINT (-87.639571 41.940682)"
"21003665","HASTINGS CENTER OFFICE, LLC","PARKING TAX","1340 S DAMEN AVE",,"CHICAGO","IL","60608 - 1169","POINT (-87.676237 41.863579)"
"10795586","HCD CHICAGO CORP","PARKING TAX","676 N MICHIGAN AVE",,"CHICAGO","IL","60611 - 2883","POINT (-87.624328 41.894758)"
"21002180","HCI REAL ESTATE CORPORATION","PARKING TAX","7801 W 47TH ST",,"MC COOK","IL","60525 - 3204","POINT (-87.815974 41.806097)"
"21002272","HEARTLAND STORAGE LYNWOOD LLC","PARKING TAX","21686 E LINCOLN HWY",,"LYNWOOD","IL","60411 - 4773","POINT (-87.530083 41.501359)"
"10804859","HINES ONE NORTH WACKER LP","PARKING TAX","1 N WACKER DR STE 3555",,"CHICAGO","IL","60606 - 2807","POINT (-87.636852 41.882222)"
"10840688","HOSPITALITY PARKING SERVICE INC.","PARKING TAX","17471 PANDION RDG",,"FAIRHOPE","AL","36532 - 5201","POINT (-87.902481 30.479293)"
"11108603","HPT TRS IHG-2 INC.","PARKING TAX","10233 W HIGGINS RD",,"ROSEMONT","IL","60018 - 3873","POINT (-87.880888 41.997353)"
"21003937","HPT TRS MRP, INC.","PARKING TAX","201 E WALTON PL",,"CHICAGO","IL","60611 - 1685","POINT (-87.621449 41.900075)"
"20000067","HRH LLC","PARKING TAX","8101 W HIGGINS RD",,"CHICAGO","IL","60631","POINT (-87.829368 41.985376)"
"21001590","HSC HOTEL HOLDINGS LLC","PARKING TAX","3630 N CLARK ST",,"CHICAGO","IL","60613 - 3808","POINT (-87.657169 41.948041)"
"21002321","HUB CAP CITY, LLC","PARKING TAX","13801 S ASHLAND AVE",,"RIVERDALE","IL","60827 - 3200","POINT (-87.660123 41.64396)"
"10795780","HUNTER PARKING CORP.","PARKING TAX","527 S WELLS ST # 700",,"CHICAGO","IL","60607 - 3928","POINT (-87.633658 41.875415)"
"10795784","HYATT EQUIIES LLC","PARKING TAX","9300 BRYN MAWR AVE",,"ROSEMONT","IL","60018 - 5202","POINT (-87.858942 41.980655)"
"20000694","HYATT PLACE O'HARE LLC.","PARKING TAX","6810 MANNHEIM RD",,"ROSEMONT","IL","60018 - 3623","POINT (-87.884591 42.002163)"
"21003630","IHP - 1400 E TOUHY LLC","PARKING TAX","1400 E TOUHY AVE",,"DES PLAINES","IL","60018 - 3305","POINT (-87.888776 42.009617)"
"10854150","ILLINOIS INSTITUTE OF TECHNOLOGY","PARKING TAX","3424 S STATE ST",,"CHICAGO","IL","60616 - 5374","POINT (-87.626646 41.832536)"
"21002502","ILLINOIS SELF STORAGE CENTERS III LP","PARKING TAX","1820 1ST AVE",,"RIVER GROVE","IL","60171","POINT (-87.835147 41.91173)"
"11100978","ILLINOIS SPORTS FACILITIES AUTHORITY","PARKING TAX","333 W 35TH ST",,"CHICAGO","IL","60616 - 3621","POINT (-87.634681 41.830922)"
"10795794","IMPERIAL PARKING (U.S.), LLC","PARKING TAX","205 W RANDOLPH ST STE 935",,"CHICAGO","IL","60606 - 1813","POINT (-87.634238 41.88447)"
"21002665","INDIANA HARBOR BELT RAILROAD","PARKING TAX","2721 161ST ST",,"HAMMOND","IN","46323 - 1099","POINT (-87.462889 41.602908)"
"21001897","INFINITE SELF STORAGE OF SOUTH CHICAGO HEIGHTS LLC","PARKING TAX","434 E SAUK TRL",,"SOUTH CHICAGO HEIGHTS","IL","60411",
"10795792","INTERPARK INCORP","PARKING TAX","200 N LA SALLE ST STE 1400",,"CHICAGO","IL","60601 - 1035","POINT (-87.632533 41.885821)"
"10795789","IRVING & CLARK CITGO","PARKING TAX","4000 N CLARK ST",,"CHICAGO","IL","60613 - 1904","POINT (-87.662441 41.954715)"
"21000622","IZABELLA HMC-CI, LLC","PARKING TAX",,,,,,
"21001507","J & A CARTAGE, INC.","PARKING TAX","5125 S. LAWNDALE AVE.",,"SUMMIT","IL","60501","POINT (-87.82518 41.798933)"
"21004163","JACKSON CENTER LICENSING LLC","PARKING TAX","1016 W JACKSON BLVD",,"CHICAGO","IL","60607 - 2914","POINT (-87.652718 41.877892)"
"21004036","JACKSON CENTER LLC","PARKING TAX","1016 W JACKSON BLVD",,"CHICAGO","IL","60607 - 2914","POINT (-87.652718 41.877892)"
"21000434","JBM HOLDINGS LLC","PARKING TAX","2023 N MANNHEIM RD",,"NORTHLAKE","IL","60164 - 1823","POINT (-87.883989 41.915529)"
"21002238","JERVAL LLC","PARKING TAX","150 ABBOTT DR",,"WHEELING","IL","60090 - 5802","POINT (-87.922919 42.111494)"
"21000914","JEWEL FOOD STORES INC.","PARKING TAX","3630 N SOUTHPORT AVE",,"CHICAGO","IL","60613 - 3710","POINT (-87.664031 41.948215)"
"10837908","JOHN G. SHEDD AQUARIUM","PARKING TAX","1200 S LAKE SHORE DR",,"CHICAGO","IL","60605 - 2402","POINT (-87.617499 41.868793)"
"10855677","JOHN HANCOCK","PARKING TAX","200 S WACKER DR STE 300",,"CHICAGO","IL","60606 - 5845","POINT (-87.636961 41.879224)"
"10795800","JOSEPH FELDMAN","PARKING TAX","3506 S HALSTED ST",,"CHICAGO","IL","60609 - 1605","POINT (-87.646107 41.830586)"
"21000116","KALLEMEYN COLLISION CENTER","PARKING TAX","16039 NEW AVE",,"LEMONT","IL","60439 - 3681","POINT (-88.010639 41.672347)"
"10795787","KATO KAGAKU CO LTD","PARKING TAX","151 E WACKER DR",,"CHICAGO","IL","60601 - 3764","POINT (-87.622225 41.888111)"
"21001651","KBM EQUIPMENT REPAIR INC","PARKING TAX","8800 S 77TH AVE",,"BRIDGEVIEW","IL","60455 - 1902","POINT (-87.81114 41.730454)"
"10853912","KBSIII 500 W. MADISON LLC","PARKING TAX","500 W MADISON ST",,"CHICAGO","IL","60661 - 4544","POINT (-87.640418 41.881877)"
"21002480","KORE-HARMSWOOD, LLC","PARKING TAX","5750 OLD ORCHARD RD",,"SKOKIE","IL","60045","POINT (-87.769386 42.062604)"
"21001064","KUTROVATZ PROPERTIES LLC","PARKING TAX","1200 GASKET DR",,"ELGIN","IL","60120 - 7305","POINT (-88.244673 41.997297)"
"21002683","LAB REAL ESTATE, LLC","PARKING TAX","210 E 159TH ST",,"HARVEY","IL","60426 - 5102","POINT (-87.643691 41.600848)"
"21001408","LAKE STREET 2900 LLC","PARKING TAX","3800 W LAKE ST",,"MELROSE PARK","IL","60160 - 2710","POINT (-87.880179 41.897015)"
"10838320","LAKEVIEW EMPLOYMENT GROUP","PARKING TAX","835 W ADDISON ST",,"CHICAGO","IL","60613 - 4309","POINT (-87.650763 41.947324)"
"11118242","LANIER PARKING SOLUTIONS OF IL LLC","PARKING TAX","401 N STATE ST",,"CHICAGO","IL","60654 - 4607","POINT (-87.627993 41.889466)"
"21000255","LAWRENCE 1101 LLC","PARKING TAX","4750 N WINTHROP AVE",,"CHICAGO","IL","60640","POINT (-87.65762 41.968562)"
"10795819","LAZ PARKING","PARKING TAX","15 LEWIS ST",,"HARTFORD","CT","06103 - 2502","POINT (-72.675458 41.764934)"
"21001340","L.B. AT KINZIE STATION LLC","PARKING TAX","300 N CANAL ST",,"CHICAGO","IL","60606 - 1236","POINT (-87.640076 41.889296)"
"10844735","LEGACY PARKING CO LLC","PARKING TAX","455 N CITYFRONT PLAZA DR STE 910",,"CHICAGO","IL","60611 - 5597","POINT (-87.621595 41.890097)"
"11112219","LIFE STORAGE LP","PARKING TAX","2051 N AUSTIN AVE",,"CHICAGO","IL","60639 - 5009","POINT (-87.7755 41.918269)"
"11113135","LINCOLN ASSET MANAGER LLC","PARKING TAX","1816 N CLARK ST",,"CHICAGO","IL","60614 - 6043","POINT (-87.63422 41.915283)"
"10795818","LINCOLN PARK PLAZA LLC","PARKING TAX","600 W DIVERSEY PKWY",,"CHICAGO","IL","60614 - 1508","POINT (-87.643919 41.932851)"
"10795812","LINCOLN PARK ZOOLOGICAL SCTY","PARKING TAX","2200 N CANNON DR",,"CHICAGO","IL","60614 - 3862","POINT (-87.632375 41.922886)"
"10795813","LOOP AUTO PARKING, INC.","PARKING TAX","524 S WABASH AVE",,"CHICAGO","IL","60605 - 1604","POINT (-87.626009 41.87502)"
"21001191","LOUIE TIRE SERVICE INC","PARKING TAX",,,,,,
"10795810","LOWELL HOUSE CONDO ASSOC.","PARKING TAX","88 W SCHILLER ST",,"CHICAGO","IL","60610 - 4966","POINT (-87.63114 41.907855)"
"21001260","LOYOLA UNIVERSITY MEDICAL CENTER","PARKING TAX","MULCHAY BLDG 106, ROOM 2663",,"MAYWOOD","IL","60153",
"10850470","LOYOLA UNIVERSITY OF CHICAGO","PARKING TAX","820 N MICHIGAN AVE",,"CHICAGO","IL","60611 - 2147","POINT (-87.624219 41.897392)"
"21002644","LXG CHICAGO LLC","PARKING TAX","506 W HARRISON ST",,"CHICAGO","IL","60607 - 4303","POINT (-87.639942 41.874409)"
"21002290","LXG MIDWAY LLC","PARKING TAX","7353 S CICERO AVE",,"CHICAGO","IL","60629 - 5816","POINT (-87.741609 41.759109)"
"21001783","LYNWOOD PROPERTIES PARTNERSHIP","PARKING TAX","21686 E LINCOLN HWY",,"LYNWOOD","IL","60411 - 4773","POINT (-87.530083 41.501359)"
"10795821","MAC PARKING INC.","PARKING TAX","640 N LA SALLE DR STE 285",,"CHICAGO","IL","60654 - 3783","POINT (-87.632715 41.89361)"
"21002353","MARKO & LUKA PROPERTIES INC","PARKING TAX","8750 W 82ND PL",,"JUSTICE","IL","60458 - 1748","POINT (-87.838028 41.741283)"
"10848945","MASTER VALET PARKING LLC","PARKING TAX","7905 W CRESSETT DR",,"ELMWOOD PARK","IL","60707 - 1346","POINT (-87.823847 41.931336)"
"21002216","MATERIAL HANDLING WHOLESALE CORP","PARKING TAX","1375 SPAULDING RD",,"ELGIN","IL","60120 - 7555","POINT (-88.236943 42.002943)"
"21001494","M&A TRUCK CENTER INC.","PARKING TAX","11635 W GRAND AVE",,"NORTHLAKE","IL","60164 - 1302","POINT (-87.915871 41.931208)"
"21002247","MAYBACH INTERNATIONAL GROUP LLC","PARKING TAX","5125 W 123RD ST",,"ALSIP","IL","60803 - 3105","POINT (-87.748151 41.668862)"
"21002268","MAYSA USA LLC","PARKING TAX","2700 PATRIOT BLVD",,"GLENVIEW","IL","60026 - 8021","POINT (-87.823597 42.103841)"
"21000075","MCA TRUCKING CORP.","PARKING TAX","3701 S KEDZIE AVE",,"CHICAGO","IL","60632 - 2709","POINT (-87.704488 41.82602)"
"11104019","MCDONALDS #6676","PARKING TAX","600 N CLARK ST",,"CHICAGO","IL","60654 - 3615","POINT (-87.631141 41.892662)"
"21001969","MCI SALES & SERVICE INC.","PARKING TAX","200 E OAKTON ST",,"DES PLAINES","IL","60018 - 1948","POINT (-87.914612 42.023237)"
"21001423","MCM PARKING","PARKING TAX","1555 N DEARBORN PKWY",,"CHICAGO","IL","60610 - 1448","POINT (-87.630196 41.911066)"
"10850464","MEDPARK MANAGEMENT INC","PARKING TAX","2108 W TAYLOR ST",,"CHICAGO","IL","60612 - 4281","POINT (-87.67868 41.869093)"
"11116051","MEGA EVENTS INC","PARKING TAX","7672 W 63RD ST",,"SUMMIT","IL","60501 - 1812","POINT (-87.813813 41.777052)"
"10795828","MEGA PROPERTIES INC.","PARKING TAX","4849 N MILWAUKEE AVE STE 302",,"CHICAGO","IL","60630 - 2171","POINT (-87.761338 41.968586)"
"11113380","METRA DE STORAGE LLC","PARKING TAX","1800 BUSSE HWY",,"DES PLAINES","IL","60016 - 6727","POINT (-87.878311 42.037325)"
"11114105","METRO HOSPITALITY SERVICES LLC","PARKING TAX","2545 S DEARBORN ST APT 305",,"CHICAGO","IL","60616 - 4984","POINT (-87.628206 41.846009)"
"11104024","METROPOLITAN 1, LLC","PARKING TAX","1024 W FRY ST UNIT 101",,"CHICAGO","IL","60642 - 5871","POINT (-87.652915 41.897387)"
"11113378","METRO WS STORAGE LLC","PARKING TAX","2740 W 79TH ST",,"CHICAGO","IL","60652 - 1725","POINT (-87.69142 41.750035)"
"10838395","MG KNOX LLC","PARKING TAX","4321 N KNOX AVE",,"CHICAGO","IL","60641 - 1906","POINT (-87.745053 41.96022)"
"21001843","MHC 37 (LYNWOOD IL) LLC","PARKING TAX","19600 STONEY ISLAND AVE",,"LYNWOOD","IL","60411 - 8667","POINT (-87.57801 41.538787)"
"21000010","MHF EVANSTON OPERATING V LLC","PARKING TAX","1818 MAPLE AVE",,"EVANSTON","IL","60201 - 3136","POINT (-87.684749 42.050812)"
"21002072","MHH MANAGEMENT, LLC","PARKING TAX","402 WASHINGTON ST SE STE 200",,"GAINESVILLE","GA","30501 - 3619","POINT (-83.823573 34.301445)"
"21001918","MID AMERICA PARKING INC","PARKING TAX","1255 S STATE ST",,"CHICAGO","IL","60605 - 1928","POINT (-87.627301 41.86608)"
"10795820","MID-CITY PARKING","PARKING TAX","325 W HURON ST STE 713",,"CHICAGO","IL","60654 - 7184","POINT (-87.636673 41.894768)"
"21002127","MIDWAY AUTO TRUCK SERVICE, INC.","PARKING TAX","1850 W 33RD ST",,"CHICAGO","IL","60608 - 6130","POINT (-87.672343 41.834106)"
"10822985","MIDWAY EASY PARK, INC.","PARKING TAX","5720 W 55TH ST",,"CHICAGO","IL","60638 - 2830","POINT (-87.765448 41.792683)"
"21001994","MIDWAY PARKING DEVELOPMENT LLC","PARKING TAX","4901 W 47TH ST",,"CHICAGO","IL","60638","POINT (-87.745588 41.807601)"
"10795825","MIDWAY PARK SAVER","PARKING TAX","4607 W 59TH ST",,"CHICAGO","IL","60629 - 5403","POINT (-87.738304 41.78566)"
"21000372","MIDWEST CARGO SYSTEMS, INC.","PARKING TAX","3615 S IRON ST",,"CHICAGO","IL","60609","POINT (-87.659322 41.828578)"
"10795836","MILLENNIUM PARK LIVING, INC.","PARKING TAX","155 N MICHIGAN AVE",,"CHICAGO","IL","60601 - 7511","POINT (-87.624362 41.884786)"
"21002585","MILLION DOLLAR HIGHWAY LLC","PARKING TAX","150 N MICHIGAN AVE STE 2700",,"CHICAGO","IL","60601 - 7576","POINT (-87.62455 41.884822)"
"11101773","MILWAUKEE AVE. PARKING LLC","PARKING TAX","1719 S CLINTON ST STE 201",,"CHICAGO","IL","60616 - 5308","POINT (-87.640903 41.85842)"
"21001654","MODERN PARKING SERVICES LLC","PARKING TAX","340 W ARMITAGE AVE",,"CHICAGO","IL","60614 - 4739","POINT (-87.637817 41.918369)"
"21001800","MPAL HURON LLC","PARKING TAX","160 E HURON ST",,"CHICAGO","IL","60611 - 3065","POINT (-87.623202 41.894968)"
"21002532","MP TRUCK PARKING LLC","PARKING TAX","110 N 25TH AVE",,"MELROSE PARK","IL","60160 - 3023","POINT (-87.863979 41.892309)"
"10822883","MULTI-PARK CHICAGO, INC.","PARKING TAX","635 S WABASH AVE",,"CHICAGO","IL","60605 - 1809","POINT (-87.62597 41.873459)"
"10804308","MURPHY'S PARKING LLC","PARKING TAX","3650 N WILTON AVE",,"CHICAGO","IL","60613 - 4313","POINT (-87.653127 41.948322)"
"10795829","MUSEUM OF SCIENCE & INDUSTRY","PARKING TAX","1701 E. 57TH",,"CHICAGO","IL","60637","POINT (-87.581935 41.792698)"
"21001444","MVIP PARKING INC","PARKING TAX","5055 W 63RD ST",,"CHICAGO","IL","60638 - 5708","POINT (-87.74926 41.778278)"
"21004242","MY PARKING INC","PARKING TAX","57 E SOUTH WATER PL",,"CHICAGO","IL","60601","POINT (-87.625774 41.886781)"
"21004001","NBINV AP10, LLC","PARKING TAX","29 N WACKER DR",,"CHICAGO","IL","60606 - 3221","POINT (-87.636883 41.882819)"
"21001459","NCR PARKING MANAGEMENT LLC","PARKING TAX","110 E DELAWARE PL",,"CHICAGO","IL","60611 - 1481","POINT (-87.625592 41.899186)"
"10795840","NEJA GROUP LLC","PARKING TAX","19100 RIDGELAND AVE",,"TINLEY PARK","IL","60477 - 4218","POINT (-87.771108 41.544473)"
"21003650","NETWORK PROPERTY DEVELOPMENT LLC","PARKING TAX","8037 W CHARMAINE RD",,"NORRIDGE","IL","60706 - 3132","POINT (-87.828351 41.971797)"
"11115656","New TKG Storagemart Partners, LP","PARKING TAX","6714 S COTTAGE GROVE AVE",,"CHICAGO","IL","60637 - 4128","POINT (-87.605764 41.772414)"
"10853200","NOFFS SELF STORAGE INC","PARKING TAX","627 S ARTHUR AVE",,"ARLINGTON HEIGHTS","IL","60005 - 2825","POINT (-87.966077 42.073053)"
"21000310","NORGAARD FAMILY PARTNERSHIP","PARKING TAX","412 E NORTH AVE",,"STREAMWOOD","IL","60107","POINT (-88.169812 41.995059)"
"10795842","NORTHFIELD SELF STORAGE CTRS","PARKING TAX","2600 OLD WILLOW RD",,"NORTHBROOK","IL","60062 - 6807","POINT (-87.814786 42.105029)"
"11113510","NORTHLAKE STORAGE LLC","PARKING TAX","60 E LAKE ST",,"NORTHLAKE","IL","60164 - 2420","POINT (-87.899309 41.901034)"
"21001815","NORTH RIVERSIDE PARK ASSOCIATES LLC","PARKING TAX","7501 W CERMAK RD",,"NORTH RIVERSIDE","IL","60546 - 1434","POINT (-87.810039 41.850212)"
"10847992","NORTHWESTERN MEMORIAL HOSPITAL","PARKING TAX","251 E HURON ST",,"CHICAGO","IL","60611 - 2908","POINT (-87.621638 41.894989)"
"10795922","NORTHWESTERN UNIVERSITY","PARKING TAX","633 CLARK ST",,"EVANSTON","IL","60208 - 0001","POINT (-87.679408 42.049805)"
"10795921","NORTHWESTERN UNIVERSITY","PARKING TAX","633 CLARK ST",,"EVANSTON","IL","60208 - 0001","POINT (-87.679408 42.049805)"
"21003606","NSA PROPERTY HOLDINGS, LLC","PARKING TAX","8400 E PRENTICE AVE FL 9",,"GREENWOOD VILLAGE","CO","80111 - 2912","POINT (-104.890956 39.619913)"
"10795847","OAK PARK ARMS RETIREMENT COMM.","PARKING TAX","408 S OAK PARK AVE",,"OAK PARK","IL","60302 - 3876","POINT (-87.794275 41.880797)"
"21001730","OCTOPUS INC","PARKING TAX","1658 N MILWAUKEE AVE UNIT 448",,"CHICAGO","IL","60647 - 6905","POINT (-87.679311 41.911585)"
"10837178","O'HARE BLUE SKY PARKING LTD.","PARKING TAX","10415 UNITED PKWY",,"SCHILLER PARK","IL","60176 - 1713","POINT (-87.887314 41.954028)"
"10822533","OHIO PARKING, INC.","PARKING TAX","216 W OHIO ST",,"CHICAGO","IL","60654 - 5679","POINT (-87.63488 41.892397)"
"10795845","OLD TOWN VALET SERVICE","PARKING TAX","1541 N WELLS ST",,"CHICAGO","IL","60610 - 1307","POINT (-87.634684 41.910341)"
"21001350","O'NEILL TRANSPORT LLC","PARKING TAX","531 W 42ND ST",,"CHICAGO","IL","60609 - 2714","POINT (-87.639715 41.818102)"
"10803680","ONE NORTH FRANKLIN LPB","PARKING TAX","1 N FRANKLIN ST STE 370",,"CHICAGO","IL","60606 - 3423","POINT (-87.635322 41.882208)"
"11105001","ONE PARKING 222 LASALLE","PARKING TAX","167 W. LOWER WACKER",,"CHICAGO","IL","60601",
"21002017","ONE PARKING 706, LLC","PARKING TAX","115 N WELLS ST",,"CHICAGO","IL","60606 - 1801","POINT (-87.633874 41.883572)"
"21002018","ONE PARKING 707, INC","PARKING TAX","1415 N DEARBORN ST",,"CHICAGO","IL","60610 - 1559","POINT (-87.630116 41.908317)"
"21002379","ONE PARKING 722 INC","PARKING TAX","10 S WACKER DR",,"CHICAGO","IL","60606 - 7453","POINT (-87.637025 41.881659)"
"21003872","ONE PARKING 738, LLC","PARKING TAX","320 N SANGAMON ST",,"CHICAGO","IL","60607 - 1313","POINT (-87.651012 41.88735)"
"11108592","ONE PARKING FRANKLIN INC","PARKING TAX","227 W MONROE ST",,"CHICAGO","IL","60606 - 5055","POINT (-87.63472 41.880635)"
"11105002","ONE PARKING MONROE INC","PARKING TAX","115 S CLINTON ST",,"CHICAGO","IL","60661 - 3615","POINT (-87.641117 41.88012)"
"21004078","ONNI 311 N MORGAN LLC","PARKING TAX","311 N MORGAN ST",,"CHICAGO","IL","60607 - 1310","POINT (-87.652161 41.887111)"
"10794959","PACIFIC TAI LLC","PARKING TAX","806 N YORK RD",,"HINSDALE","IL","60521 - 3537","POINT (-87.92546 41.815938)"
"10837234","PARADISE 4 PAWS","PARKING TAX","10516 UNITED PKWY",,"SCHILLER PARK","IL","60176 - 1716","POINT (-87.888273 41.953993)"
"10808082","PARKING AT 777, INC.","PARKING TAX","777 N MICHIGAN AVE",,"CHICAGO","IL","60611 - 2617","POINT (-87.624178 41.896507)"
"21003972","PARKING CHI, LLC","PARKING TAX",,,,,,
"10795805","PARKING, INC.","PARKING TAX","705 S JEFFERSON ST",,"CHICAGO","IL","60607 - 3608","POINT (-87.642391 41.873366)"
"21002198","PARKING & SHUTTLE, INC.","PARKING TAX","5001 S CICERO AVE",,"CHICAGO","IL","60632 - 4913","POINT (-87.742879 41.801907)"
"21000881","PARKING SPACES, INC.","PARKING TAX","1525 E 53RD ST",,"CHICAGO","IL","60615 - 4557","POINT (-87.587491 41.79959)"
"10795862","PARK N JET","PARKING TAX","4005 MANNHEIM RD",,"SCHILLER PARK","IL","60176 - 1839","POINT (-87.885559 41.95225)"
"10795861","PARK ONE, INC.","PARKING TAX","65 E HARRISON ST",,"CHICAGO","IL","60605 - 1614","POINT (-87.625526 41.874416)"
"21001327","PARKPLUS LLC","PARKING TAX","3920 N CALIFORNIA AVE UNIT 1",,"CHICAGO","IL","60618 - 3607","POINT (-87.698188 41.952804)"
"10799890","PARK TOWER CONDOMINIUM","PARKING TAX","5415 N SHERIDAN RD",,"CHICAGO","IL","60640 - 1954","POINT (-87.655117 41.980276)"
"10795859","PARK TOWER LIMITED PARTNERSHIP","PARKING TAX","5140 S HYDE PARK BLVD",,"CHICAGO","IL","60615 - 4262","POINT (-87.584735 41.801456)"
"11103007","PAYLESS CAR RENTAL INC.","PARKING TAX","4000 MANNHEIM RD",,"FRANKLIN PARK","IL","60131 - 1208","POINT (-87.885736 41.952229)"
"21004222","PAZZI PARKING LLC","PARKING TAX","1005 N STATE 2 EAST OAK",,"CHICAGO","IL","60610",
"10795849","PEOPLES AUTO PARKING CO.","PARKING TAX","328 S JEFFERSON ST STE 212",,"CHICAGO","IL","60661 - 5665","POINT (-87.642508 41.877571)"
"10795860","PEOPLE STADIUM PARKING MGT,LLC","PARKING TAX","77 W WASHINGTON ST","1620","CHICAGO","IL","60602 - 2801","POINT (-87.6306 41.883227)"
"21002363","PEROSE LLC","PARKING TAX","17201 STATE ST",,"SOUTH HOLLAND","IL","60473 - 2823","POINT (-87.614976 41.582327)"
"21003617","PHOENIX 226 CENTRAL LOOP OPERATOR LLC","PARKING TAX","245 S FRANKLIN ST",,"CHICAGO","IL","60606 - 4629","POINT (-87.635216 41.878538)"
"21001977","PHOENIX US HOLDINGS INC.","PARKING TAX","8501 W HIGGINS RD STE 300",,"CHICAGO","IL","60631 - 2812","POINT (-87.838529 41.986618)"
"10793144","PILOT TRAVEL CENTER LLC","PARKING TAX",,,,,,
"11100625","PINNACLE PARKING GROUP INC,","PARKING TAX","5001 W PARKER AVE",,"CHICAGO","IL","60639 - 1603","POINT (-87.751568 41.930562)"
"21000027","PINNACLE VALET LLC","PARKING TAX","464 N HALSTED ST",,"CHICAGO","IL","60642","POINT (-87.647609 41.890676)"
"10795855","PIONEER PARKING","PARKING TAX","500 N MICHIGAN AVE STE 600",,"CHICAGO","IL","60611 - 3754","POINT (-87.62426 41.890943)"
"21002667","PIPER SMOKE SHOP LLC","PARKING TAX","2416 MANNHEIM RD",,"FRANKLIN PARK","IL","60131 - 3133","POINT (-87.88445 41.922674)"
"21004182","PIZZUTI BP LLC","PARKING TAX","1061 W VAN BUREN ST",,"CHICAGO","IL","60607 - 2915","POINT (-87.654225 41.876591)"
"21003705","PLANNED PROPERTY MANAGEMENT, INC.","PARKING TAX","1111 N DEARBORN ST",,"CHICAGO","IL","60610 - 2759","POINT (-87.629915 41.902259)"
"10795863","PLAZA AZTECA, INC.","PARKING TAX","2600 S CALIFORNIA AVE",,"CHICAGO","IL","60608 - 5146","POINT (-87.695266 41.844586)"
"10795856","PLYMOUTH PARTNERS LP","PARKING TAX","815 W VAN BUREN ST",,"CHICAGO","IL","60607 - 3566","POINT (-87.648066 41.876678)"
"21001630","PNF-MDW LLC","PARKING TAX","5200 W 47TH ST",,"CHICAGO","IL","60638 - 1804","POINT (-87.754082 41.807492)"
"11105751","PONG'S AUTO CAR INC","PARKING TAX","3848 N CLARK ST",,"CHICAGO","IL","60613 - 2812","POINT (-87.660635 41.952369)"
"21001606","PREBLE PARTNERS LLC","PARKING TAX","2000 W 32ND ST",,"CHICAGO","IL","60608 - 6105","POINT (-87.677115 41.835797)"
"11102288","PREFLIGHT AIRPORT PARKING","PARKING TAX","4155 MANNHEIM RD",,"SCHILLER PARK","IL","60176 - 1840","POINT (-87.885565 41.953824)"
"10839367","PRESTIGE PARKING LLC","PARKING TAX","21 E HUBBARD ST",,"CHICAGO","IL","60611 - 3512","POINT (-87.626724 41.890083)"
"10839368","PRESTIGE PARKING LLC","PARKING TAX","100 E ONTARIO ST",,"CHICAGO","IL","60611 - 2806","POINT (-87.625252 41.893345)"
"10795866","PRIDE AIRPORT PARKING","PARKING TAX","3950 MANNHEIM RD",,"FRANKLIN PARK","IL","60131 - 1207","POINT (-87.885716 41.950515)"
"21002459","PROFIT LOGISTIC INC","PARKING TAX","13511 MAIN ST",,"LEMONT","IL","60527","POINT (-87.949846 41.687751)"
"10795853","PROGRESSIVE PARKING LOT LLC","PARKING TAX","3658 S WENTWORTH AVE",,"CHICAGO","IL","60609 - 1836","POINT (-87.631418 41.82781)"
"10795857","PRO PARK","PARKING TAX","6640 N DOWAGIAC AVE",,"LINCOLNWOOD","IL","60712 - 3022","POINT (-87.761061 42.002222)"
"21001999","PROPERTIES BY KELJEVIC, LLC","PARKING TAX","11805 S CENTRAL PARK AVE",,"MERRIONETTE PARK","IL","60803 - 4261","POINT (-87.70999 41.678396)"
"10795854","PS ILLINOIS TRUST","PARKING TAX","701 WESTERN AVE STE 200",,"GLENDALE","CA","91201 - 2349","POINT (-118.295076 34.166219)"
"11102728","PTT SERVICES LLC","PARKING TAX","1771 MALLETTE RD",,"AURORA","IL","60505 - 1319","POINT (-88.271164 41.796494)"
"21002039","QUALITY PARKING INC.","PARKING TAX",,,,,,
"21004172","RCP HOTEL OWNER LLC","PARKING TAX","208 S. LASALLE ST.",,"CHICAGO","IL","60604","POINT (-87.632319 41.879264)"
"21002067","RDHN INVESTMENTS LLC","PARKING TAX","5640 N RIVER RD",,"ROSEMONT","IL","60018 - 5119","POINT (-87.862043 41.980684)"
"10817801","RDK VENTURES LLC","PARKING TAX",,,,,,
"21001406","RECREATIONAL STORAGE INC","PARKING TAX","2001 S PARK AVE",,"STREAMWOOD","IL","60107 - 2938","POINT (-88.174579 42.003689)"
"10795875","RED TOP PARKING INC","PARKING TAX","PO BOX 22",,"PARK RIDGE","IL","60068 - 0022",
"21002069","REHN INVESTMENTS LLC","PARKING TAX","5500 N RIVER RD",,"ROSEMONT","IL","60018 - 5230","POINT (-87.862385 41.978962)"
"10795874","RENAISSANCE HOTEL OPERATING CO","PARKING TAX","1 W WACKER DR",,"CHICAGO","IL","60601 - 1631","POINT (-87.628391 41.88684)"
"21002338","RENAISSANCE SAINT LUKE, LP","PARKING TAX","1501 W BELMONT AVE",,"CHICAGO","IL","60657 - 3697","POINT (-87.666416 41.939755)"
"10795871","RESIDENCE INN BY MARRIOTT LLC","PARKING TAX","201 E WALTON PL",,"CHICAGO","IL","60611 - 1685","POINT (-87.621449 41.900075)"
"21000063","RGC 12131, LLC","PARKING TAX","9750 W 75TH ST",,"HODGKINS","IL","60525 - 5103","POINT (-87.871973 41.752938)"
"21000120","RITE STORAGE LLC","PARKING TAX","2501 E OAKTON ST",,"ARLINGTON HEIGHTS","IL","60005","POINT (-87.944567 42.022629)"
"10795423","RITZ CARLTON WATER TOWER","PARKING TAX","160 E PEARSON ST",,"CHICAGO","IL","60611 - 2308","POINT (-87.623392 41.897608)"
"10846171","RIVERS CASINO","PARKING TAX","3000 S RIVER RD",,"DES PLAINES","IL","60018 - 4201","POINT (-87.863054 41.998699)"
"21001462","RIVER STREET HOLDINGS","PARKING TAX",,,,,,
"10797885","RLJ II - C MIDWAY LESSEE LLC","PARKING TAX","6610 S CICERO AVE",,"BEDFORD PARK","IL","60638 - 5838","POINT (-87.742213 41.772962)"
"10797904","RLJ II - F MIDWAY LESSEE LLC","PARKING TAX","6630 S CICERO AVE",,"BEDFORD PARK","IL","60638 - 5838","POINT (-87.742188 41.7723)"
"10797900","RLJ II - HA MIDWAY LESSEE LLC","PARKING TAX","6540 S CICERO AVE",,"BEDFORD PARK","IL","60638 - 5804","POINT (-87.742242 41.773943)"
"10797901","RLJ II - HG MIDWAY LESSEE LLC","PARKING TAX","6530 S CICERO AVE",,"BEDFORD PARK","IL","60638 - 5804","POINT (-87.742249 41.774312)"
"10797898","RLJ II - HOLX MIDWAY LESSEE LLC","PARKING TAX","6500 S CICERO AVE",,"BEDFORD PARK","IL","60638 - 5804","POINT (-87.742252 41.774399)"
"10797891","RLJ II - MH MIDWAY LESSEE LLC","PARKING TAX","6520 S CICERO AVE",,"BEDFORD PARK","IL","60638 - 5804","POINT (-87.742257 41.774511)"
"10797902","RLJ II - SLE MIDWAY LESSEE LLC","PARKING TAX","6650 S CICERO AVE",,"BEDFORD PARK","IL","60638 - 5838","POINT (-87.74217 41.771634)"
"21001480","RN 120 COMPANY LLC","PARKING TAX","520 N MICHIGAN AVE",,"CHICAGO","IL","60611 - 6982","POINT (-87.624241 41.891624)"
"21001480","RN 120 COMPANY LLC","PARKING TAX","520 N MICHIGAN AVE",,"CHICAGO","IL","60611 - 6982","POINT (-87.624241 41.891624)"
"21002685","ROIL ASSOCIATES, LLC","PARKING TAX","8500 W BRYN MAWR AVE",,"CHICAGO","IL","60631 - 3203","POINT (-87.840688 41.981027)"
"21000200","ROMAR TRANSPORTATION SYSTEMS INC.","PARKING TAX","3500 S KEDZIE AVE",,"CHICAGO","IL","60632 - 2726","POINT (-87.704648 41.829687)"
"21001968","ROSEMONT BALMORAL HOTEL LLC","PARKING TAX","5200 PEARL STREET",,"ROSEMONT","IL","60018","POINT (-87.871014 41.973106)"
"10795879","ROTARY CENTER","PARKING TAX","1560 SHERMAN AVE STE 312",,"EVANSTON","IL","60201 - 4803","POINT (-87.681889 42.045718)"
"21000091","ROUTE 83 TRUCK PARKING, LLC","PARKING TAX","13011 GRANT RD",,"LEMONT","IL","60439 - 9367","POINT (-87.937467 41.702116)"
"21000043","ROUTES CAR RENTAL USA INC.","PARKING TAX","3901 MANNHEIM RD",,"SCHILLER PARK","IL","60176 - 2013","POINT (-87.88532 41.94867)"
"10795878","ROWLAND L.L.C.","PARKING TAX","50 E OHIO ST",,"CHICAGO","IL","60611 - 2702","POINT (-87.626091 41.892519)"
"10850138","ROYAL TOUCH CAR WASH","PARKING TAX","2711 MANNHEIM RD",,"DES PLAINES","IL","60018 - 3602","POINT (-87.884485 42.003777)"
"21001646","RP CHICAGO GARAGE LLC","PARKING TAX","222 N COLUMBUS DR",,"CHICAGO","IL","60601 - 7810","POINT (-87.62073 41.886579)"
"11115186","SAFEGUARD PROPERTIES LLC","PARKING TAX","9800 S HARLEM AVE",,"BRIDGEVIEW","IL","60455 - 2336","POINT (-87.798426 41.712959)"
"10795150","SAGA CHICAGO CO LTD","PARKING TAX","3939 MANNHEIM RD",,"SCHILLER PARK","IL","60176 - 2013","POINT (-87.885506 41.949899)"
"10795907","SALSTAR MANAGMENT, INC.","PARKING TAX","8931 N MERRILL ST",,"NILES","IL","60714 - 1707","POINT (-87.822089 42.043012)"
"10795885","SALVATORE'S","PARKING TAX","525 W ARLINGTON PL",,"CHICAGO","IL","60614 - 6436","POINT (-87.642248 41.926764)"
"10795894","SAM'S VALET PARKING","PARKING TAX","1141 W WAVELAND AVE",,"CHICAGO","IL","60613 - 3827","POINT (-87.658465 41.949)"
"21000376","SCGIF II - FRANKLIN, LLC","PARKING TAX","900 N FRANKLIN ST",,"CHICAGO","IL","60610 - 8100","POINT (-87.635764 41.899267)"
"21001891","SCHAUMBURG CC HOLDINGS LLC","PARKING TAX","1501 E WOODFIELD RD",,"SCHAUMBURG","IL","60173 - 6052","POINT (-88.041513 42.043129)"
"20000731","SCHILLER PARK HOSPITALITY LLC","PARKING TAX","10249 IRVING PARK RD",,"SCHILLER PARK","IL","60176 - 1453","POINT (-87.883115 41.957102)"
"21002406","SCHROEDER MATERIAL INC","PARKING TAX","10800 SOUTHWEST HWY",,"WORTH","IL","60482 - 1031","POINT (-87.804234 41.695199)"
"10795903","SDRALIS PARKING FACILITY","PARKING TAX","3743-45 N CLARK ST",,"CHICAGO","IL","60613","POINT (-87.658583 41.949787)"
"21001909","SECURE PARKING USA, LLC","PARKING TAX","183 W MONROE ST",,"CHICAGO","IL","60603 - 3409","POINT (-87.633405 41.880662)"
"10849175","SHAY'S VALET INC.","PARKING TAX","4800 N BROADWAY ST STE 207",,"CHICAGO","IL","60640 - 3604","POINT (-87.65967 41.969048)"
"10795883","SHORELINE TOWER CONDO ASSCO.","PARKING TAX","6301 N SHERIDAN RD",,"CHICAGO","IL","60660 - 1728","POINT (-87.655593 41.996881)"
"11110244","SIRIUS VALET PARKING INC.","PARKING TAX","5636 N CENTRAL AVE APT B",,"CHICAGO","IL","60646 - 6431","POINT (-87.768331 41.983995)"
"10837925","SIXTEEN MICHIGAN INVESTMENTS LLC","PARKING TAX","1556 S MICHIGAN AVE",,"CHICAGO","IL","60605 - 1937","POINT (-87.623994 41.860368)"
"21001478","SKYLINE CM ARLINGTON LLC","PARKING TAX","100 W ALGONQUIN RD",,"ARLINGTON HEIGHTS","IL","60005 - 4404","POINT (-87.985304 42.045138)"
"21002256","SKYLINE PROPERTIES SCHILLER PARK LLC","PARKING TAX","9500 RIVER ST",,"SCHILLER PARK","IL","60176 - 1020","POINT (-87.865261 41.969591)"
"10850621","SMART HOTELS OLYMPIA CHICAGO LLC","PARKING TAX","5225 S HARPER AVE",,"CHICAGO","IL","60615 - 4113","POINT (-87.589083 41.800169)"
"21001749","SMART OLYMPIA ILLINOIS, LLC","PARKING TAX","1411 E 53RD ST",,"CHICAGO","IL","60615 - 4542","POINT (-87.591145 41.799544)"
"21001641","SMART VALET PARKING LLC","PARKING TAX",,,,,,
"10795888","SMG SOLDIER FIELD","PARKING TAX","1410 S MUSEUM CAMPUS DR # DR14","GATE 14","CHICAGO","IL","60605 - 2902","POINT (-87.614765 41.863437)"
"10855900","SOHO HOUSE CHICAGO LLC","PARKING TAX","113-125 N. GREEN STREET",,"CHICAGO","IL","60607","POINT (-87.648596 41.883901)"
"10795744","SOUTHERN EXPOSURE LP","PARKING TAX","1450 E TOUHY AVE",,"DES PLAINES","IL","60018 - 3332","POINT (-87.886969 42.009685)"
"21001678","SOUTH LAWNDALE LLC","PARKING TAX","3258 S LAWNDALE AVE",,"CHICAGO","IL","60623","POINT (-87.716906 41.833516)"
"10795791","SPECKS PARKING","PARKING TAX","1013 W ROSCOE ST",,"CHICAGO","IL","60657 - 2206","POINT (-87.654607 41.943578)"
"10795884","SP PLUS CORPORATION","PARKING TAX","200 E RANDOLPH ST STE 7700",,"CHICAGO","IL","60601 - 7702","POINT (-87.621611 41.884472)"
"10851037","SPUS6 181 WEST MADISON LLC","PARKING TAX","181 W MADISON ST STE 3125",,"CHICAGO","IL","60602 - 4547","POINT (-87.633249 41.881945)"
"21002419","S & R VALET LLC","PARKING TAX","9045 BRONX AVE # B",,"SKOKIE","IL","60077 - 1713","POINT (-87.750583 42.045712)"
"11115293","SSG Dolton LLC","PARKING TAX","14900 WOODLAWN AVE",,"DOLTON","IL","60419 - 2301","POINT (-87.5881 41.623842)"
"21000557","SS HOFFMAN ESTATES, LLC","PARKING TAX","2775 BODE RD",,"HOFFMAN ESTATES","IL","60169","POINT (-88.147186 42.039145)"
"21000561","SS PALATINE, LLC","PARKING TAX","2025 N HICKS RD",,"PALATINE","IL","60074","POINT (-88.033194 42.146787)"
"10836299","SS WHEELING LLC","PARKING TAX","211 N ELMHURST RD",,"WHEELING","IL","60090 - 3973","POINT (-87.936603 42.142066)"
"21004133","STATE STREET OPERATING VII, LLC","PARKING TAX","600 N STATE ST",,"CHICAGO","IL","60654 - 3853","POINT (-87.628083 41.892507)"
"10795886","STEPPENWOLF","PARKING TAX","1700 N HALSTED ST",,"CHICAGO","IL","60614 - 5502","POINT (-87.648317 41.912522)"
"10795900","ST. FRANCIS HOSPITAL","PARKING TAX","355 RIDGE AVE",,"EVANSTON","IL","60202 - 3328","POINT (-87.685223 42.024553)"
"10795889","ST. JOSEPH HOSPITAL&HEALTH CAR","PARKING TAX","2900 N LAKE SHORE DR",,"CHICAGO","IL","60657 - 5640","POINT (-87.636429 41.93395)"
"10850002","STOP PARKING CO","PARKING TAX","5451 W AGATITE AVE",,"CHICAGO","IL","60630 - 3501","POINT (-87.76435 41.961438)"
"11115663","STORAGEMART #801","PARKING TAX","5979 BUTTERFIELD RD",,"HILLSIDE","IL","60162 - 1457","POINT (-87.915835 41.874242)"
"11115665","STORAGEMART #802","PARKING TAX","1015 N HALSTED ST",,"CHICAGO","IL","60642 - 4223","POINT (-87.647942 41.900915)"
"11115666","STORAGEMART #805","PARKING TAX","3100 MANNHEIM RD",,"FRANKLIN PARK","IL","60131 - 2304","POINT (-87.884859 41.934981)"
"11115667","STORAGEMART #822","PARKING TAX","2727 SHERMER RD",,"NORTHBROOK","IL","60062 - 7708","POINT (-87.829306 42.104639)"
"11115655","STORAGEMART #850","PARKING TAX","10700 W 159TH ST",,"ORLAND PARK","IL","60467 - 4532","POINT (-87.878555 41.600978)"
"21003574","STUDY CHICAGO OPERATING LLC","PARKING TAX","1227 E 60TH ST",,"CHICAGO","IL","60637 - 2801","POINT (-87.595783 41.78604)"
"21001995","S-VALET PARKING INC.","PARKING TAX","5920 W DIVERSEY AVE APT 3W",,"CHICAGO","IL","60639","POINT (-87.774269 41.931169)"
"21001366","SVF MADISON CHICAGO LLC","PARKING TAX","1164 W MADISON ST",,"CHICAGO","IL","60607 - 3802","POINT (-87.656787 41.881686)"
"21004067","SVIGOS ASSET MANAGEMENT, INC","PARKING TAX","1 W DUNDEE RD STE 200",,"BUFFALO GROVE","IL","60089 - 3770","POINT (-87.959267 42.138826)"
"10838397","SWEDISH COVENANT HOSPITAL","PARKING TAX","5145 N CALIFORNIA AVE",,"CHICAGO","IL","60625 - 3661","POINT (-87.698918 41.975219)"
"21001466","TCA - 2020 WEST, LLC","PARKING TAX","2444 N ELSTON AVE",,"CHICAGO","IL","60647 - 2002","POINT (-87.679354 41.926371)"
"10795911","THE LOCK UP KEDZIE","PARKING TAX","3366 N KEDZIE AVE",,"CHICAGO","IL","60618 - 5722","POINT (-87.707691 41.942811)"
"21004200","THE SPOT COMPANIES INC","PARKING TAX","1760 OVERLAND TRL",,"DEERFIELD","IL","60015 - 1812","POINT (-87.854523 42.184683)"
"11118295","THE STANDARD CLUB","PARKING TAX","320 S PLYMOUTH CT",,"CHICAGO","IL","60604 - 3802","POINT (-87.62874 41.877674)"
"21001562","THE WELLINGTON CONDOMINIUM ASSOCIATION","PARKING TAX","360 W WELLINGTON AVE",,"CHICAGO","IL","60657","POINT (-87.639093 41.936585)"
"10795514","THE WHITEHALL HOTEL LLC","PARKING TAX","105 E DELAWARE PL",,"CHICAGO","IL","60611 - 1403","POINT (-87.625806 41.899181)"
"21001492","TOCHITOS TRUCKING 1 INC.","PARKING TAX","4610 W MCLEAN AVE",,"CHICAGO","IL","60639 - 3428","POINT (-87.74193 41.917886)"
"10841829","TOM BOYLE","PARKING TAX","1143 W ADDISON ST",,"CHICAGO","IL","60613 - 3805","POINT (-87.658709 41.947182)"
"11118467","TOP TIER VALET INC.","PARKING TAX","204 INDEPENDENCE LN",,"BLOOMINGDALE","IL","60108 - 1406","POINT (-88.08248 41.950712)"
"10832996","TOWNE PARK LLC","PARKING TAX","1 PARK PL STE 200",,"ANNAPOLIS","MD","21401 - 3581","POINT (-76.504135 38.977871)"
"21001331","TRAILER PARTS INC.","PARKING TAX","7710 W 88TH ST",,"BRIDGEVIEW","IL","60455 - 1925","POINT (-87.811865 41.730792)"
"21002262","TRAINED TECHNOLOGY LLC","PARKING TAX","9420 RIVER ST",,"SCHILLER PARK","IL","60176","POINT (-87.863366 41.969633)"
"21001959","TREX HOLDINGS LLC","PARKING TAX",,,,,,
"10821480","TRIPLE CROWN ENTERTAINMENT LLC","PARKING TAX","500 W 35TH ST",,"CHICAGO","IL","60616 - 3508","POINT (-87.638979 41.830872)"
"21002143","TRUCKQUEST, INC","PARKING TAX","3738 S CICERO AVE",,"CICERO","IL","60804 - 4527","POINT (-87.743607 41.82475)"
"10795826","TST MADISON PLAZA PARKING LLC","PARKING TAX","200 W MADISON ST STE 1130",,"CHICAGO","IL","60606 - 3597","POINT (-87.634138 41.881932)"
"21001336","TULSA POWER SERVICE INC","PARKING TAX","3968 S ASHLAND AVE",,"CHICAGO","IL","60609 - 2326","POINT (-87.665404 41.821892)"
"11118757","U-HAUL CO. OF ILLINOIS, INC.","PARKING TAX","11855 S CICERO AVE",,"ALSIP","IL","60803 - 2846","POINT (-87.738746 41.677036)"
"21003983","UNION PARKING, LLC","PARKING TAX","1371 W RANDOLPH ST",,"CHICAGO","IL","60607 - 1523","POINT (-87.660927 41.884081)"
"10795920","UNIVERSITY OF CHICAGO","PARKING TAX","200 N LA SALLE ST STE 1400",,"CHICAGO","IL","60601 - 1035","POINT (-87.632533 41.885821)"
"10795923","UNIVERSITY OF CHICAGO","PARKING TAX","5525 S ELLIS AVE STE 171",,"CHICAGO","IL","60637 - 1401","POINT (-87.601376 41.794041)"
"21003981","USCOFW 1357 W 103RD STREET LLC","PARKING TAX","1357 W 103RD ST",,"CHICAGO","IL","60643 - 2392","POINT (-87.657261 41.70676)"
"21001594","VALET DESCARTES CHICAGO INC","PARKING TAX","125 N HALSTED ST STE 201",,"CHICAGO","IL","60661 - 2161","POINT (-87.647425 41.884102)"
"10839563","VALET PARKING AUTHORITY LTD","PARKING TAX","2342 N DAMEN AVE",,"CHICAGO","IL","60647 - 3322","POINT (-87.677839 41.92409)"
"21000435","VAN DRUNEN ROAD PROPERTIES LLC","PARKING TAX","16000 VAN DRUNEN RD",,"SOUTH HOLLAND","IL","60473 - 1242","POINT (-87.624333 41.604075)"
"21000083","VEGA PROPERTIES LTD","PARKING TAX","3231 S CLAREMONT AVE",,"CHICAGO","IL","60608 - 6012","POINT (-87.68397 41.83434)"
"21002265","VGREENLOT, LLC","PARKING TAX","308 E 9TH ST",,"HINSDALE","IL","60521","POINT (-87.921464 41.791153)"
"21002177","VH-M ROSEMONT LLC","PARKING TAX","6155 N RIVER RD",,"ROSEMONT","IL","60018 - 5160","POINT (-87.860077 41.988898)"
"21002155","VILLAGE OF BARRINGTON","PARKING TAX","200 S HOUGH ST",,"BARRINGTON","IL","60010 - 4322","POINT (-88.136054 42.152793)"
"10795918","VILLAGE OF BRIDGEVIEW","PARKING TAX","7000 S HARLEM AVE",,"BRIDGEVIEW","IL","60455 - 1160","POINT (-87.800813 41.765204)"
"10795927","VILLAGE OF GLENCOE","PARKING TAX","675 VILLAGE CT",,"GLENCOE","IL","60022 - 1609","POINT (-87.758111 42.133631)"
"10795904","VILLAGE OF HOFFMAN ESTATES","PARKING TAX","5333 PRAIRIE STONE PKWY",,"HOFFMAN ESTATES","IL","60192 - 3720","POINT (-88.212642 42.070358)"
"10795933","VILLAGE OF OAK PARK","PARKING TAX","123 MADISON ST",,"OAK PARK","IL","60302 - 4205","POINT (-87.778912 41.879972)"
"10795898","VILLAGE OF ROSEMONT","PARKING TAX","5555 N RIVER RD",,"ROSEMONT","IL","60018 - 5117","POINT (-87.862102 41.979764)"
"21002046","VINAYAKA HOLDINGS CORPORATION","PARKING TAX","860 REMINGTON RD",,"SCHAUMBURG","IL","60173 - 4523","POINT (-88.058472 42.052989)"
"21002282","VINCIT CAPITAL MANAGEMENT","PARKING TAX","555 POND DR",,"WOOD DALE","IL","60191 - 1131","POINT (-87.983858 41.973002)"
"21001672","VIP VALET PARKING CORPORATION","PARKING TAX","6210 W BARRY AVE",,"CHICAGO","IL","60634 - 4031","POINT (-87.781505 41.936544)"
"10795928","V.I.P. VALET SERVICES, INC.","PARKING TAX","PO BOX 6014",,"ELGIN","IL","60121 - 6014",
"21004040","VP PARKING INC","PARKING TAX","320 W OHIO ST STE 3W",,"CHICAGO","IL","60654 - 7887","POINT (-87.636437 41.892386)"
"21002008","WABASH 11TH LLC","PARKING TAX","59 E 11TH ST",,"CHICAGO","IL","60605 - 2313","POINT (-87.625271 41.869285)"
"11101836","WALLY PARK","PARKING TAX","9950 LAWRENCE AVE",,"SCHILLER PARK","IL","60176 - 1310","POINT (-87.876028 41.965602)"
"10808088","WEGLARZ HOTEL III LLC","PARKING TAX","6624 S CICERO AVE",,"BEDFORD PARK","IL","60638 - 5838","POINT (-87.742183 41.772146)"
"10808083","WEGLARZ HOTEL IV LLC","PARKING TAX","6638 S CICERO AVE",,"BEDFORD PARK","IL","60638 - 5838","POINT (-87.742175 41.77178)"
"20000051","WEGLARZ HOTEL V LLC","PARKING TAX","6550 S CICERO AVE",,"BEDFORD PARK","IL","60638 - 5804","POINT (-87.742189 41.772317)"
"21002629","WELLS PUBLIC PARKING LLC.","PARKING TAX","425 S WELLS ST",,"CHICAGO","IL","60607 - 3913","POINT (-87.633686 41.876569)"
"21004056","WESTERN A MIDWEST IL II LLC","PARKING TAX","7349 MASSASOIT ST.",,"CHICAGO","IL","60638","POINT (-87.764462 41.757012)"
"21000655","WEST LOOP VALET INC.","PARKING TAX","3701 S HALSTED ST",,"CHICAGO","IL","60609 - 1618","POINT (-87.646017 41.827046)"
"10800742","WINDERMERE HOUSE LLC","PARKING TAX","5534 S CORNELL AVE",,"CHICAGO","IL","60637 - 1915","POINT (-87.585378 41.794387)"
"11113048","WPS SCHAUMBURG LLC","PARKING TAX","800 NATIONAL PKWY",,"SCHAUMBURG","IL","60173 - 5140","POINT (-88.050221 42.044286)"
"21002113","WPT BELMONT AVENUE, LP","PARKING TAX","3033 EXCELSIOR BLVD STE 330",,"MINNEAPOLIS","MN","55416 - 5274","POINT (-93.318846 44.948015)"
"10795931","WRIGLEYVILLE PARK, INC.","PARKING TAX","3464 N CLARK ST",,"CHICAGO","IL","60657 - 1624","POINT (-87.654708 41.944987)"
"11107531","XPERT VALET PARKING INC","PARKING TAX","354 ZINNIA DR",,"ROMEOVILLE","IL","60446 - 5104","POINT (-88.143481 41.61131)"
"21003612","XTREME PARKING SERVICES, LLC","PARKING TAX","4455 W LELAND AVE",,"CHICAGO","IL","60630 - 4044","POINT (-87.740604 41.966298)"
"10795934","YOSHI'S CAFE","PARKING TAX","3257 N HALSTED ST",,"CHICAGO","IL","60657 - 3419","POINT (-87.649295 41.941385)"
"21001320",,"PARKING TAX","JOE ORR ROAD",,"CHICAGO HEIGHTS","IL","60411",
"21000127",,"PARKING TAX","977 W CERMAK RD",,"CHICAGO","IL","60608 - 4518","POINT (-87.650911 41.852564)"
"21002408",,"PARKING TAX","1120 N. KINGSBURY ST.",,"CHICAGO","IL","60610","POINT (-87.646079 41.901212)"
"21002038",,"PARKING TAX","20343 STONEY ISLAND AVE",,"LYNWOOD","IL","60411 - 8658","POINT (-87.577833 41.526268)"
"21000127",,"PARKING TAX","977 W CERMAK RD",,"CHICAGO","IL","60608 - 4518","POINT (-87.650911 41.852564)"
"21001557",,"PARKING TAX","75 W LAKE ST",,"NORTHLAKE","IL","60164","POINT (-87.906966 41.90269)"
"21000296",,"PARKING TAX","79 OLD PALATINE RD",,"PROSPECT HEIGHTS","IL","60090","POINT (-87.897198 42.109553)"
"10795771",,"PARKING TAX","2038 W MADISON ST",,"CHICAGO","IL","60612 - 2411","POINT (-87.678163 41.881334)"
"21001991",,"PARKING TAX","31 W 120 WEST BARTLET ROAD",,"BARTLET","IL","60103",
"21000127",,"PARKING TAX","977 W CERMAK RD",,"CHICAGO","IL","60608 - 4518","POINT (-87.650911 41.852564)"
"21001419",,"PARKING TAX","2000 N 15TH AVE",,"MELROSE PARK","IL","60160 - 1405","POINT (-87.852311 41.912665)"
"21003948",,"PARKING TAX","4011 W OGDEN AVE",,"CHICAGO","IL","60623 - 2820","POINT (-87.725465 41.850844)"
