"registration_account","company","tax_type","address_line_1","address_line_2","city","state","zip_code","location"
"11127158","ACIA CH AUTO LLC","NEW MOTOR VEHICLE AND TRAILERS TAX","6600 N. WESTERN AVE",,"CHICAGO","IL","60645","POINT (-87.690058 42.002032)"
"11127426","ACIA HN AUTO LLC","NEW MOTOR VEHICLE AND TRAILERS TAX","6747 N. LINCOLN AVE",,"LINCOLNWOOD","IL","60712","POINT (-87.728594 42.003502)"
"11127426","ACIA HN AUTO LLC","NEW MOTOR VEHICLE AND TRAILERS TAX","6747 N. LINCOLN AVE",,"LINCOLNWOOD","IL","60712","POINT (-87.728594 42.003502)"
"11127425","ACIA KL AUTO LLC","NEW MOTOR VEHICLE AND TRAILERS TAX","6750 N. LINCOLN AVE",,"LINOLNWOOD","IL","60712","POINT (-87.729183 42.003715)"
"11127160","ACIA PG AUTO LLC","NEW MOTOR VEHICLE AND TRAILERS TAX","151 E. LAKE COOK ROAD",,"PALATINE","IL","60074","POINT (-88.039645 42.153709)"
"11127159","ACIA PH AUTO LLC","NEW MOTOR VEHICLE AND TRAILERS TAX","221 E. LAKE COOK ROAD",,"PALATINE","IL","60067","POINT (-88.037115 42.153704)"
"11127165","ACIA TC AUTO LLC","NEW MOTOR VEHICLE AND TRAILERS TAX","1561 N. FREMONT STREET",,"CHICAGO","IL","60642","POINT (-87.651076 41.910104)"
"11127424","ACIA TN AUTO LLC","NEW MOTOR VEHICLE AND TRAILERS TAX","7226 N. CICERO AVE",,"LINOLNWOOD","IL","60712","POINT (-87.748007 42.012588)"
"11128267","ADVANTAGE CHEVROLET OF BRIDGEVIEW","NEW MOTOR VEHICLE AND TRAILERS TAX","8200 S HARLEM AVE",,"BRIDGEVIEW","IL","60455","POINT (-87.79952 41.743117)"
"11124249","ADVANTAGE TOYOTA OF RIVER OAKS","NEW MOTOR VEHICLE AND TRAILERS TAX","1970 RIVER OAKE",,"CALUMET CITY","IL","60409",
"10793281","AIRWAY TRAILER SALES","NEW MOTOR VEHICLE AND TRAILERS TAX","9001 S CICERO AVE TRLR 209",,"OAK LAWN","IL","60453 - 1831","POINT (-87.741014 41.728922)"
"10793233","AL PIEMONTE FORD SALES, INC.","NEW MOTOR VEHICLE AND TRAILERS TAX","2500 W NORTH AVE",,"MELROSE PARK","IL","60160 - 1192","POINT (-87.865748 41.907748)"
"10793306","AL PIEMONTE NISSAN, INC.","NEW MOTOR VEHICLE AND TRAILERS TAX","1600 W NORTH AVE",,"MELROSE PARK","IL","60160 - 1318","POINT (-87.854061 41.907958)"
"11127327","ALPINE VILLAGE","NEW MOTOR VEHICLE AND TRAILERS TAX","450 CHILLON DRIVE",,"LYNWOOD","IL","60411","POINT (-87.527041 41.502687)"
"10793615","AMERICAN CHEVROLET, INC.","NEW MOTOR VEHICLE AND TRAILERS TAX","9510 W JOLIET RD",,"COUNTRYSIDE","IL","60525","POINT (-87.864757 41.780064)"
"10793391","APPLE CHEVROLET, INC.","NEW MOTOR VEHICLE AND TRAILERS TAX","8585 W 159TH ST",,"TINLEY PARK","IL","60487","POINT (-87.827411 41.601734)"
"10793366","ARLINGTON ACURA IN PALATINE","NEW MOTOR VEHICLE AND TRAILERS TAX","1275 E DUNDEE RD",,"PALATINE","IL","60067","POINT (-88.00984 42.139167)"
"11128168","ARLINGTON HEIGHTS FORD LLC","NEW MOTOR VEHICLE AND TRAILERS TAX","801 W. DUNDEE RD",,"ARLINGTON HEIGHTS","IL","60004","POINT (-87.991822 42.139038)"
"10793394","ARLINGTON LEXUS IN PALATINE","NEW MOTOR VEHICLE AND TRAILERS TAX","1510 W. DUNDEE RD",,"ARLINGTON HEIGHTS","IL","60004","POINT (-87.998959 42.139156)"
"10793416","ARLINGTON NISSAN IN ARLINGTON HGHTS.","NEW MOTOR VEHICLE AND TRAILERS TAX","1100 W. DUNDEE ROAD",,"ARLINGTON HEIGHTS","IL","60004","POINT (-87.996604 42.139152)"
"10793334","ARLINGTON TOYOTA, INC.","NEW MOTOR VEHICLE AND TRAILERS TAX","2095 N. RAND ROAD",,"PALATINE","IL","60074","POINT (-88.029845 42.146612)"
"10793259","ARNIE BAUER CADILLAC GMAC","NEW MOTOR VEHICLE AND TRAILERS TAX","5525 MILLER CIRCLE DR",,"MATTESON","IL","60443","POINT (-87.749113 41.505813)"
"10793570","ARROW MOBILE HOME PARK, INC.","NEW MOTOR VEHICLE AND TRAILERS TAX","11725 S RIDGELAND AVE",,"WORTH","IL","60482","POINT (-87.778204 41.677542)"
"10831547","ATLAS BOBCAT LLC","NEW MOTOR VEHICLE AND TRAILERS TAX","1815 LANDMEIER RD",,"ELK GROVE VILLAGE","IL","60007","POINT (-87.955767 42.011047)"
"10793396","AUDI HOFFMAN ESTATES","NEW MOTOR VEHICLE AND TRAILERS TAX","1200 W. GOLF RD",,"HOFFMAN ESTATES","IL","60169","POINT (-88.110696 42.048015)"
"10793380","AUTOBARN MAZDA OF EVANSTON","NEW MOTOR VEHICLE AND TRAILERS TAX","1015 CHICAGO AVE",,"EVANSTON","IL","60202 - 1323","POINT (-87.679832 42.036248)"
"10793513","AUTOBARN NISSAN","NEW MOTOR VEHICLE AND TRAILERS TAX","1015 CHICAGO AVE",,"EVANSTON","IL","60202","POINT (-87.679832 42.036248)"
"10793277","AUTOHAUS ON EDENS, INC.","NEW MOTOR VEHICLE AND TRAILERS TAX","1550 FRONTAGE RD",,"NORTHBROOK","IL","60062 - 4105",
"10851702","AUTONATION HONDA O'HARE","NEW MOTOR VEHICLE AND TRAILERS TAX","1533 S. RIVER ROAD",,"DES PLAINES","IL","60018","POINT (-87.877498 42.025676)"
"10851712","AUTONATION HYUNDAI OHARE","NEW MOTOR VEHICLE AND TRAILERS TAX","1509 S. RIVER ROAD",,"DES PLAINES","IL","60018","POINT (-87.877073 42.024839)"
"10793569","BARRINGTON MOTOR SALES","NEW MOTOR VEHICLE AND TRAILERS TAX","3825 COMMERCE DR",,"ST. CHARLES","IL","60174 - 5325","POINT (-88.266576 41.905716)"
"10793323","BARTLETT MOBILE HOME, INC.","NEW MOTOR VEHICLE AND TRAILERS TAX","100 FIRST ST",,"BARTLETT","IL","60103",
"21004025","BERMAN OAK LAWN INC.","NEW MOTOR VEHICLE AND TRAILERS TAX","4630 W 95TH ST",,"OAK LAWN","IL","60453 - 2514","POINT (-87.736568 41.720165)"
"10816788","BERMAN'S INFINITI OF CHICAGO, INC.","NEW MOTOR VEHICLE AND TRAILERS TAX","3456 N. KEDZIE AVE.",,"CHICAGO","IL","60618","POINT (-87.707726 41.944362)"
"11126510","BERMAN SUBARU OF CHICAGO INC.","NEW MOTOR VEHICLE AND TRAILERS TAX","4330 W. IRVING PARK ROAD",,"CHICAGO","IL","60641","POINT (-87.737246 41.953563)"
"10831247","BERWYN KIA","NEW MOTOR VEHICLE AND TRAILERS TAX","7050 OGDEN AVE.",,"BERWYN","IL","60402","POINT (-87.79975 41.824759)"
"10793280","BETTENHAUSEN MOTOR SALES","NEW MOTOR VEHICLE AND TRAILERS TAX","17514 S OAK PARK AVE",,"TINLEY PARK","IL","60487",
"10793298","BIGGERS CHEVROLET, INC.","NEW MOTOR VEHICLE AND TRAILERS TAX","1385 E CHICAGO ST",,"ELGIN","IL","60120 - 4799","POINT (-88.238082 42.030324)"
"10793411","BIGGERS IMPORTS, INC.","NEW MOTOR VEHICLE AND TRAILERS TAX","1325 E CHICAGO ST",,"ELGIN","IL","60120","POINT (-88.239653 42.030285)"
"10793461","BIGGERS MOTORS, INC.","NEW MOTOR VEHICLE AND TRAILERS TAX","1320 E CHICAGO ST",,"ELGIN","IL","60120","POINT (-88.239551 42.030279)"
"21003944","BILL JACOBS AURORA INC.","NEW MOTOR VEHICLE AND TRAILERS TAX","2211 AURORA AVE",,"NAPERVILLE","IL","60540 - 1003","POINT (-88.190526 41.764151)"
"21003945","BILL JACOBS NAPERVILLE LLC","NEW MOTOR VEHICLE AND TRAILERS TAX","2495 AURORA AVE",,"NAPERVILLE","IL","60540 - 1023","POINT (-88.194768 41.763457)"
"10793479","BILL KAY FORD, INC.","NEW MOTOR VEHICLE AND TRAILERS TAX","14633 CICERO AVE",,"MIDLOTHIAN","IL","60445 - 2556","POINT (-87.73726 41.626242)"
"10811648","BOB ROHRMAN SCHAUMBURG FORD","NEW MOTOR VEHICLE AND TRAILERS TAX","815 E. GOLF ROAD",,"SCHAUMBURG","IL","60173","POINT (-88.055106 42.050188)"
"10848030","BOB ROHRMAN SCHAUMBURG LINCOLN","NEW MOTOR VEHICLE AND TRAILERS TAX","1200 E. GOLF RD",,"SCHAUMBURG","IL","60173","POINT (-88.049296 42.050349)"
"10793402","BREDEMANN FORD IN GLENVIEW","NEW MOTOR VEHICLE AND TRAILERS TAX","2038 WAUKEGAN RD",,"GLENVIEW","IL","60025","POINT (-87.797836 42.091685)"
"10793305","BREDEMANN TOYOTA, INC.","NEW MOTOR VEHICLE AND TRAILERS TAX","1301 W DEMPSTER",,"PARK RIDGE","IL","60068",
"11128229","BUFFALO TRAILER MANUFACTURING INC","NEW MOTOR VEHICLE AND TRAILERS TAX","3120 LEWIS ST.",,"STEGER","IL","60475","POINT (-87.624522 41.474893)"
"11126875","CABELA'S","NEW MOTOR VEHICLE AND TRAILERS TAX","5225 PRAIRIE STONE PKWY",,"HOFFMAN ESTATES","IL","60192","POINT (-88.207949 42.072802)"
"10793521","CALUMET DOCKSIDE SERVICE","NEW MOTOR VEHICLE AND TRAILERS TAX","426 BURNHAM AVE",,"CALUMET CITY","IL","60409","POINT (-87.539703 41.623658)"
"11128079","CAMBRIDGE COURTS MH SALES LLC","NEW MOTOR VEHICLE AND TRAILERS TAX","55 E JACKSON BLVD STE 500",,"CHICAGO","IL","60604","POINT (-87.625585 41.878258)"
"10793587","CANDLELIGHT VILLAGE","NEW MOTOR VEHICLE AND TRAILERS TAX","4 CANDLELIGHT DR",,"CHICAGO HEIGHTS","IL","60411","POINT (-87.558251 41.501871)"
"10793422","CASEY EQUIPMENT","NEW MOTOR VEHICLE AND TRAILERS TAX","1603 E ALGONQUIN RD",,"ARLINGTON HEIGHTS","IL","60005","POINT (-87.946747 42.030469)"
"10793332","CASTLE BUICK-PONTIAC, INC.","NEW MOTOR VEHICLE AND TRAILERS TAX","7400 W CERMAK",,"NORTH RIVERSIDE","IL","60546","POINT (-87.807288 41.850375)"
"21004221","CASTLE CARS OF NAPERVILLE","NEW MOTOR VEHICLE AND TRAILERS TAX","1565 W OGDEN AVE",,"NAPERVILLE","IL","60540 - 3906","POINT (-88.186371 41.76815)"
"21003806","CASTLE CARS OF SCHAUMBURG","NEW MOTOR VEHICLE AND TRAILERS TAX","1000 E GOLF RD",,"SCHAUMBURG","IL","60173 - 4506","POINT (-88.054447 42.05021)"
"11106570","CASTLE CHEVROLET NORTH LLC","NEW MOTOR VEHICLE AND TRAILERS TAX","175 N. ARLINGTON HEIGHTS RD",,"ELK GROVE VILLAGE","IL","60007","POINT (-87.986479 42.029889)"
"10793324","CASTLE MOTOR SALES","NEW MOTOR VEHICLE AND TRAILERS TAX","8833 WAUKEGAN RD",,"MORTON GROVE","IL","60053","POINT (-87.79909 42.042049)"
"11101969","CF MH SUB LLC","NEW MOTOR VEHICLE AND TRAILERS TAX","25 IRONWOOD",,"JUSTICE","IL","60458","POINT (-87.852229 41.747108)"
"10793464","CHEVROLET OF HOMEWOOD, INC.","NEW MOTOR VEHICLE AND TRAILERS TAX","18033-35 S HALSTED",,"HOMEWOOD","IL","60430","POINT (-87.636098 41.561901)"
"10852681","CHICAGO HARLEY-DAVIDSON","NEW MOTOR VEHICLE AND TRAILERS TAX","1027 W ADDISON ST",,"CHICAGO","IL","60613","POINT (-87.655497 41.947241)"
"10840752","CHICAGO MACK","NEW MOTOR VEHICLE AND TRAILERS TAX","4350 CLYDE PARK AVE SW",,"WYOMING","MI","49509","POINT (-85.684493 42.885621)"
"10840752","CHICAGO MACK","NEW MOTOR VEHICLE AND TRAILERS TAX","4350 CLYDE PARK AVE SW",,"WYOMING","MI","49509","POINT (-85.684493 42.885621)"
"10793572","CHICAGO MARMON TRUCKS","NEW MOTOR VEHICLE AND TRAILERS TAX","15220 S HALSTED",,"HARVEY","IL","60426",
"10793503","CHICAGO NORTHSIDE TOYOTA","NEW MOTOR VEHICLE AND TRAILERS TAX","6042 N. WESTERN AVE",,"CHICAGO","IL","60659","POINT (-87.689768 41.991278)"
"10793582","CHI-TOWN HARLEY DAVIDSON","NEW MOTOR VEHICLE AND TRAILERS TAX","17801 S LAGRANGE RD",,"TINLEY PARK","IL","60487","POINT (-87.85149 41.566559)"
"10793307","CITY LIMITS HARLEY-DAVIDSON, INC.","NEW MOTOR VEHICLE AND TRAILERS TAX","2015 N RAND RD",,"PALATINE","IL","60074","POINT (-88.02895 42.145842)"
"11127996","CITY VOLKSWAGEN OF CHICAGO","NEW MOTOR VEHICLE AND TRAILERS TAX","5330 W. IRVING PARK DR",,"CHICAGO","IL","60641","POINT (-87.762365 41.953256)"
"11128142","CITY VOLKSWAGEN OF EVANSTON","NEW MOTOR VEHICLE AND TRAILERS TAX","1033 CHICAGO AVE",,"EVANSTON","IL","60202","POINT (-87.679962 42.036907)"
"10854699","CJ WILSON MAZDA OF ORLAND PARK","NEW MOTOR VEHICLE AND TRAILERS TAX","8910 W. 159TH STREET",,"ORLAND PARK","IL","60462","POINT (-87.83451 41.601733)"
"10793339","COMMUNITY HONDA, INC.","NEW MOTOR VEHICLE AND TRAILERS TAX","8340 W 159TH ST",,"ORLAND PARK","IL","60462 - 4941","POINT (-87.823171 41.601902)"
"10793286","CONTINENTAL TOYOTA, INC.","NEW MOTOR VEHICLE AND TRAILERS TAX","6701 S. LAGRANGE ROAD",,"HODGKINS","IL","60525","POINT (-87.867642 41.767447)"
"11128156","COUNTRYSIDE MITSUBISHI","NEW MOTOR VEHICLE AND TRAILERS TAX","5800 S. LAGRANGE RD","ADAM@JIDDMOTORS.COM","COUNTRYSIDE","IL","60525","POINT (-87.868474 41.784741)"
"11128175","COUNTRYSIDE NISSAN","NEW MOTOR VEHICLE AND TRAILERS TAX","5750 S. LA GRANGE RD",,"COUNTRYSIDE","IL","60525","POINT (-87.8685 41.78586)"
"10793421","CRANE & MACHINERY, INC.","NEW MOTOR VEHICLE AND TRAILERS TAX","9725 INDUSTRIAL DR..",,"BRIDGEVIEW","IL","60455","POINT (-87.806132 41.715035)"
"21003711","CROWLEY'S YACHT YARD LAKESIDE, LLC","NEW MOTOR VEHICLE AND TRAILERS TAX","3434 E 95TH ST",,"CHICAGO","IL","60617 - 5101","POINT (-87.540343 41.722884)"
"10793284","CUMBERLAND SERVICENTER, INC.","NEW MOTOR VEHICLE AND TRAILERS TAX","2375 E OAKTON ST",,"ARLINGTON HEIGHTS","IL","60005 - 4817","POINT (-87.950885 42.02253)"
"10800661","CURRIE MOTORS CHEVROLET, INC.","NEW MOTOR VEHICLE AND TRAILERS TAX","7901 W. ROOSEVELT ROAD",,"FOREST PARK","IL","60130","POINT (-87.818921 41.864783)"
"10793610","DES PLAINES HONDA","NEW MOTOR VEHICLE AND TRAILERS TAX","1201 S. NORTHWEST HWY",,"BARRINGTON","IL","60016","POINT (-88.100251 42.136768)"
"10793362","D & S TRUCK CENTER, INC.","NEW MOTOR VEHICLE AND TRAILERS TAX","6035 EAST AVE",,"HODGKINS","IL","60525","POINT (-87.858463 41.78066)"
"10793358","ED NAPLETON HONDA","NEW MOTOR VEHICLE AND TRAILERS TAX","5800 W. 95TH ST",,"OAK LAWN","IL","60453","POINT (-87.765966 41.719764)"
"10793254","EHRHARDT'S TRAILER SALES","NEW MOTOR VEHICLE AND TRAILERS TAX","776 W OAKTON ST",,"DES PLAINES","IL","60018","POINT (-87.938509 42.022752)"
"11117162","ELGIN CHRYSLER JEEP DODGE RAM","NEW MOTOR VEHICLE AND TRAILERS TAX","1010 E. CHICAGO ST",,"ELGIN","IL","60120","POINT (-88.251787 42.033097)"
"10793504","ELGIN HYUNDAI","NEW MOTOR VEHICLE AND TRAILERS TAX","881 E CHICAGO ST",,"ELGIN","IL","60120","POINT (-88.256529 42.034513)"
"10793580","ELGIN TOYOTA","NEW MOTOR VEHICLE AND TRAILERS TAX","1200 E CHICAGO ST",,"ELGIN","IL","60120","POINT (-88.243837 42.031066)"
"10793349","EMKAY, INC","NEW MOTOR VEHICLE AND TRAILERS TAX","650 E GOLF RD",,"SCHAUMBURG","IL","60173","POINT (-88.063326 42.049994)"
"10793353","ETTLESON CAD-BUICK-OLDS, INC.","NEW MOTOR VEHICLE AND TRAILERS TAX","6201 S LA GRANGE RD",,"HODGKINS","IL","60525","POINT (-87.868007 41.777615)"
"10793487","ETTLESON HYUNDAI LLC","NEW MOTOR VEHICLE AND TRAILERS TAX","5631 S. LAGRANGE RD",,"COUNTRYSIDE","IL","60525","POINT (-87.868569 41.787358)"
"10793480","EVERGREEN KIA","NEW MOTOR VEHICLE AND TRAILERS TAX","9205 S WESTERN AVE",,"CHICAGO","IL","60620","POINT (-87.682161 41.725946)"
"10793477","FAMILY HYUNDAI & SUZUKI, INC.","NEW MOTOR VEHICLE AND TRAILERS TAX","8101 W. 159TH STREET",,"TINLEY PARK","IL","60477","POINT (-87.817643 41.601875)"
"10793304","FIELDS IMPORTS, INC.","NEW MOTOR VEHICLE AND TRAILERS TAX","700 FRONTAGE RD",,"NORTHFIELD","IL","60093",
"10793553","FIELDS INFINITI","NEW MOTOR VEHICLE AND TRAILERS TAX","2100 FRONTAGE RD",,"GLENCOE","IL","60022","POINT (-87.779196 42.116876)"
"10793312","FIELDS JEEP EAGLE, INC.","NEW MOTOR VEHICLE AND TRAILERS TAX","2800 PATRIOT BLVD",,"GLENVIEW","IL","60026 - 8041","POINT (-87.823501 42.106147)"
"11128014","FIELDS LEXUS GLENVIEW","NEW MOTOR VEHICLE AND TRAILERS TAX","2000 N. WAUKEGAN RD",,"GLENVIEW","IL","60025","POINT (-87.797864 42.091185)"
"10794704","FIELDS VOLVO","NEW MOTOR VEHICLE AND TRAILERS TAX","770 FRONTAGE ROAD",,"NORTHFIELD","IL","60093",
"10793460","FLETCHER JONES AUTOMOTIVE ENTP","NEW MOTOR VEHICLE AND TRAILERS TAX","1520 W. NORTH AVE",,"CHICAGO","IL","60642","POINT (-87.66629 41.910635)"
"10793292","FLIKKEMA MOTORS, INC.","NEW MOTOR VEHICLE AND TRAILERS TAX","2424 E 176TH ST",,"LANSING","IL","60438","POINT (-87.558486 41.574804)"
"21003493","FORD OF HOMEWOOD","NEW MOTOR VEHICLE AND TRAILERS TAX","3233 183RD ST",,"HOMEWOOD","IL","60430 - 2601","POINT (-87.695687 41.557125)"
"10843450","FOX FORD LINCOLN CHICAGO","NEW MOTOR VEHICLE AND TRAILERS TAX","2501 N. ELSTON VE",,"CHICAGO","IL","60647","POINT (-87.680484 41.92716)"
"11120287","FRANK H GILL COMPANY","NEW MOTOR VEHICLE AND TRAILERS TAX","2859 BERNICE ROAD",,"LANSING","IL","60438","POINT (-87.547148 41.579261)"
"10793267","FREEWAY FORD-STERLING TRUCK SL","NEW MOTOR VEHICLE AND TRAILERS TAX","8445 W 45TH ST",,"LYONS","IL","60534","POINT (-87.832395 41.809761)"
"10793573","GALLO EQUIPMENT CO.","NEW MOTOR VEHICLE AND TRAILERS TAX","11835 S AVE O",,"CHICAGO","IL","60617","POINT (-87.540019 41.679881)"
"11128018","GERALD HONDA OF MATTESON","NEW MOTOR VEHICLE AND TRAILERS TAX","5505 AUTO CT",,"MATTESON","IL","60443","POINT (-87.746711 41.504036)"
"21003757","GERALD IMPORTS COUNTRYSIDE, INC.","NEW MOTOR VEHICLE AND TRAILERS TAX","5901 S LA GRANGE RD",,"COUNTRYSIDE","IL","60525 - 4067","POINT (-87.868509 41.785525)"
"11128017","GERALD TOYOTA OF MATTESON","NEW MOTOR VEHICLE AND TRAILERS TAX","5540 AUTO CT",,"MATTESON","IL","60443 - 1486","POINT (-87.75038 41.504032)"
"10793492","GIUFFRE MIDWEST LLC","NEW MOTOR VEHICLE AND TRAILERS TAX","3401 S CICERO AVE",,"CICERO","IL","60804","POINT (-87.743558 41.831334)"
"11127466","GLENVIEW LUXURY IMPORTS LLC","NEW MOTOR VEHICLE AND TRAILERS TAX","301 WAUKEGAN ROAD",,"GLENVIEW","IL","60025","POINT (-87.799635 42.060832)"
"10818674","GOLD COAST EXOTIC IMPORTS, LLC","NEW MOTOR VEHICLE AND TRAILERS TAX","834 N. RUSH",,"CHICAGO","IL","60611","POINT (-87.626176 41.897997)"
"21003530","GOLFGREEN MOTOR SALES, LLC","NEW MOTOR VEHICLE AND TRAILERS TAX","9430 N GREENWOOD AVE",,"NILES","IL","60714",
"10793500","GOLF MILL MOTOR SALES, INC.","NEW MOTOR VEHICLE AND TRAILERS TAX","9401 N MILWAUKEE AVE",,"NILES","IL","60714","POINT (-87.834876 42.051204)"
"11113662","HARBOR HOME SALES LLC","NEW MOTOR VEHICLE AND TRAILERS TAX","4000 E. 134TH AVE",,"CHICAGO","IL","60633","POINT (-87.531673 41.651863)"
"10793473","HAWK CHRYSLER DODGE JEEP","NEW MOTOR VEHICLE AND TRAILERS TAX","7911 W ROOSEVELT ROAD",,"FOREST PARK","IL","60130","POINT (-87.820973 41.86474)"
"10793529","HAWK FORD OF OAK LAWN","NEW MOTOR VEHICLE AND TRAILERS TAX","6100 W 95TH ST",,"OAK LAWN","IL","60453","POINT (-87.774262 41.71972)"
"10815972","HAWKINSON KIA","NEW MOTOR VEHICLE AND TRAILERS TAX","5501 MILLER CIRCLE DR.",,"MATTESON","IL","60443","POINT (-87.747222 41.505725)"
"10793448","HAWKINSON NISSAN LLC","NEW MOTOR VEHICLE AND TRAILERS TAX","5513 MILLER CIRCLE DR",,"MATTESON","IL","60443","POINT (-87.748349 41.505784)"
"10793296","HIGHLANDS YAMAHA INC.","NEW MOTOR VEHICLE AND TRAILERS TAX","5320 E AVE",,"COUNTRYSIDE","IL","60525","POINT (-87.859044 41.793114)"
"10793420","HINO OF CHICAGO","NEW MOTOR VEHICLE AND TRAILERS TAX","5330 W PERSHING RD",,"CICERO","IL","60804","POINT (-87.760708 41.821834)"
"10793276","HOLIDAY BOAT SALES, INC.","NEW MOTOR VEHICLE AND TRAILERS TAX","21740 LINCOLN HWY",,"LYNWOOD","IL","60411",
"10793539","HONDA CITY","NEW MOTOR VEHICLE AND TRAILERS TAX","4950 S PULASKI AVE",,"CHICAGO","IL","60632","POINT (-87.723505 41.802637)"
"10793262","HOUSE OF CAMPING","NEW MOTOR VEHICLE AND TRAILERS TAX","8424 S HARLEM",,"BRIDGEVIEW","IL","60455","POINT (-87.79938 41.738281)"
"10793251","HOWARD ORLOFF JAGUAR VOLVO","NEW MOTOR VEHICLE AND TRAILERS TAX","1924 N PAULINA",,"CHICAGO","IL","60622","POINT (-87.670354 41.917203)"
"10793252","ILLINOIS HARLEY DAVIDSON SALES","NEW MOTOR VEHICLE AND TRAILERS TAX","9950 JOLIET  ROAD",,"COUNTRYSIDE","IL","60525","POINT (-87.866325 41.779377)"
"10793386","ILLINOIS TRUCK CENTRE, INC.","NEW MOTOR VEHICLE AND TRAILERS TAX","700 DEVON AVE",,"ELK GROVE VILLAGE","IL","60007",
"11128076","INFINITI OF HOFFMAN ESTATES","NEW MOTOR VEHICLE AND TRAILERS TAX","1075 W GOLF RD",,"HOFFMAN ESTATES","IL","60169 - 1339","POINT (-88.106853 42.04805)"
"10793244","JACK PHELAN CHEVROLET, INC.","NEW MOTOR VEHICLE AND TRAILERS TAX","4000 S HARLEM AVE","4000 S HARLEM AVE","LYONS","IL","60534","POINT (-87.802598 41.81896)"
"10793502","JACK PHELAN DODGE LLC","NEW MOTOR VEHICLE AND TRAILERS TAX","5859 S. LAGRANGE ROAD",,"COUNTRYSIDE","IL","60525","POINT (-87.868413 41.783744)"
"10793428","JACOB PRESS' SONS, INC.","NEW MOTOR VEHICLE AND TRAILERS TAX","7674 W 79TH ST",,"BRIDGEVIEW","IL","60455","POINT (-87.809819 41.747943)"
"11128077","JAGUAR SCHAUMBURG & LAND ROVER SCHAUMBUR","NEW MOTOR VEHICLE AND TRAILERS TAX","920 GOLF RD",,"SCHAUMBURG","IL","60194",
"21004170","JDC AUTO, LLC","NEW MOTOR VEHICLE AND TRAILERS TAX","5950 N WESTERN AVE",,"CHICAGO","IL","60659 - 5004","POINT (-87.689719 41.989648)"
"10793236","JENNINGS CHEVROLET, INC.","NEW MOTOR VEHICLE AND TRAILERS TAX","241 WAUKEGAN RD",,"GLENVIEW","IL","60025 - 5190","POINT (-87.79965 42.059994)"
"10793384","JENNINGS VOLKSWAGON, INC.","NEW MOTOR VEHICLE AND TRAILERS TAX","201 WAUKEGAN RD",,"GLENVIEW","IL","60025 - 5100","POINT (-87.799572 42.059235)"
"11128006","JOE RIZZA ALFA ROMEO MASERATI","NEW MOTOR VEHICLE AND TRAILERS TAX","8130 W. 159TH ST",,"ORLAND PARK","IL","60462","POINT (-87.815989 41.602006)"
"10793377","JOE RIZZAFORD OF ORLAND PARK, INC.","NEW MOTOR VEHICLE AND TRAILERS TAX","8100 W 159TH ST",,"ORLAND PARK","IL","60462","POINT (-87.815812 41.602008)"
"10793600","JOE RIZZA IMPORTS, INC.","NEW MOTOR VEHICLE AND TRAILERS TAX","8150 W 159 TH ST",,"ORLAND PARK","IL","60462","POINT (-87.817691 41.601984)"
"10793591","KELLY NISSAN, INC.","NEW MOTOR VEHICLE AND TRAILERS TAX","4300 W 95 TH ST",,"OAK LAWN","IL","60453","POINT (-87.728578 41.720329)"
"10818099","KINGDOM CHEVROLET","NEW MOTOR VEHICLE AND TRAILERS TAX","6603 S. WESTERN AVE",,"CHICAGO","IL","60636","POINT (-87.683424 41.772711)"
"10793393","KOWALIS MOTOR CAR, INC.","NEW MOTOR VEHICLE AND TRAILERS TAX","8300 W 159 TH ST",,"ORLAND PARK","IL","60462","POINT (-87.820341 41.601942)"
"21003896","LAND ROVER HINSDALE LLC","NEW MOTOR VEHICLE AND TRAILERS TAX","336 E OGDEN AVE",,"HINSDALE","IL","60521 - 3609","POINT (-87.921493 41.817316)"
"10793583","LANDROVER NORTHFIELD","NEW MOTOR VEHICLE AND TRAILERS TAX","670 W FRONTAGE RD",,"NORTHFIELD","IL","60093 - 1254","POINT (-87.774237 42.110067)"
"10813522","LANDROVER VOLVO AUDI JAGUAR","NEW MOTOR VEHICLE AND TRAILERS TAX","8021-8031 W. 159TH STREET",,"TINLEY PARK","IL","60477","POINT (-87.814926 41.601911)"
"11100311","LEHMANN-PETERSON CORP.","NEW MOTOR VEHICLE AND TRAILERS TAX","3737 INDUSTRIAL AVE",,"ROLLING MEADOWS","IL","60008","POINT (-88.034119 42.095654)"
"10793359","LOEBER MOTORS, INC. (LINCOLWD)","NEW MOTOR VEHICLE AND TRAILERS TAX","4255 W TOUHY AVE",,"LINCOLNWOOD","IL","60712","POINT (-87.735201 42.01173)"
"10793363","LOREN HYUNDAI, INC.","NEW MOTOR VEHICLE AND TRAILERS TAX","1610 WAUKEGAN",,"GLENVIEW","IL","60025","POINT (-87.798385 42.083982)"
"10793497","LYNCH CHICAGO INC","NEW MOTOR VEHICLE AND TRAILERS TAX","4300 W. 123RD ST",,"ALSIP","IL","60803","POINT (-87.726493 41.669253)"
"10793328","MANCARI'S CHRYSLER PLYMOUTH","NEW MOTOR VEHICLE AND TRAILERS TAX","4630 W 95TH ST",,"OAK LAWN","IL","60453","POINT (-87.736568 41.720165)"
"10793285","MANOR MOBILE HOME SALES, INC.","NEW MOTOR VEHICLE AND TRAILERS TAX","8035 W 79TH ST",,"JUSTICE","IL","60458","POINT (-87.820579 41.747571)"
"11126314","MAR CHI-H LLC","NEW MOTOR VEHICLE AND TRAILERS TAX","1111 N. CLARK STREET",,"CHICAGO","IL","60610","POINT (-87.63139 41.902276)"
"11126312","MAR CHI-V LLC","NEW MOTOR VEHICLE AND TRAILERS TAX","1111 N. CLARK STREET",,"CHICAGO","IL","60610","POINT (-87.63139 41.902276)"
"10803829","MARINO CHRYSLER JEEP DODGE","NEW MOTOR VEHICLE AND TRAILERS TAX","5133 W. IRVING PARK ROAD",,"CHICAGO","IL","60641","POINT (-87.756035 41.953333)"
"10793289","MARQUARDT BUICK, INC.","NEW MOTOR VEHICLE AND TRAILERS TAX","1421 S BARRINGTON RD",,"BARRINGTON","IL","60010","POINT (-88.136187 42.132345)"
"10793248","MARTIN NISSAN, INC.","NEW MOTOR VEHICLE AND TRAILERS TAX","5240 GOLF RD",,"SKOKIE","IL","60077","POINT (-87.757834 42.05533)"
"10793446","MCCARTHY FORD, INC.","NEW MOTOR VEHICLE AND TRAILERS TAX","11401 S PULASKI RD",,"CHICAGO","IL","60655","POINT (-87.720081 41.685752)"
"10793466","MCGRATH ACURA","NEW MOTOR VEHICLE AND TRAILERS TAX","9105 WAUKEGAN ROAD",,"MORTON GROVE","IL","60053","POINT (-87.799276 42.046831)"
"10838505","MCGRATH ACURA OF DOWNTOWN","NEW MOTOR VEHICLE AND TRAILERS TAX","1201-1301 N. ELSTON AVE, 1ST FLOOR",,"CHICAGO","IL","60642","POINT (-87.658776 41.903873)"
"10793538","MCGRATH CITY HONDA","NEW MOTOR VEHICLE AND TRAILERS TAX","6720 W GRAND AVE",,"CHICAGO","IL","60707","POINT (-87.793046 41.92364)"
"10793537","MCGRATH CITY HYUNDAI","NEW MOTOR VEHICLE AND TRAILERS TAX","6750 W GRAND AVE",,"CHICAGO","IL","60707","POINT (-87.794652 41.923632)"
"11128221","MCGRATH CITY MAZDA","NEW MOTOR VEHICLE AND TRAILERS TAX","3255 N. CICERO AVE",,"CHICAGO","IL","60641","POINT (-87.746851 41.940763)"
"21003560","MCGRATH EVANSTON SUBARU, INC","NEW MOTOR VEHICLE AND TRAILERS TAX","3340 OAKTON ST",,"SKOKIE","IL","60076 - 2953","POINT (-87.712861 42.026398)"
"10793352","MCGRATH IMPORTS, INC.","NEW MOTOR VEHICLE AND TRAILERS TAX","7000 GOLF RD",,"MORTON GROVE","IL","60053",
"10793609","MCGRATH LEXUS OF CHICAGO","NEW MOTOR VEHICLE AND TRAILERS TAX","1250 W DIVISION ST",,"CHICAGO","IL","60642 - 4133","POINT (-87.65974 41.903502)"
"10793404","MCGRATH NISSAN, INC.","NEW MOTOR VEHICLE AND TRAILERS TAX","945 E CHICAGO ST",,"ELGIN","IL","60120 - 6820","POINT (-88.255031 42.034073)"
"11127767","MCGRATH VOLVO CARS OF BARRINGTON","NEW MOTOR VEHICLE AND TRAILERS TAX","1415 S. BARRINGTON RD",,"BARRINGTON","IL","60010","POINT (-88.136188 42.133464)"
"21001969","MCI SALES & SERVICE, INC.","NEW MOTOR VEHICLE AND TRAILERS TAX","200 E. OAKTON ST",,"DES PLAINES","IL","60018","POINT (-87.914612 42.023237)"
"11125593","MCLAREN CHICAGO","NEW MOTOR VEHICLE AND TRAILERS TAX","645-647 W. RANDOLPH STREET",,"CHICAGO","IL","60661","POINT (-87.644375 41.884332)"
"10793264","MEDOWCREEK MOBILE HOME PARK","NEW MOTOR VEHICLE AND TRAILERS TAX","4503 W LAKE ST",,"MELROSE PARK","IL","60160","POINT (-87.887783 41.898039)"
"11128078","MERCEDES BENZ OF HOFFMAN ESTATES","NEW MOTOR VEHICLE AND TRAILERS TAX","1000 GOLF RD",,"HOFFMAN ESTATES","IL","60169",
"10849935","MERCEDES BENZ OF ORLAND PARK","NEW MOTOR VEHICLE AND TRAILERS TAX","8430 W. 159TH STREET",,"ORLAND PARK","IL","60462","POINT (-87.82492 41.601872)"
"10793320","MER, INC.","NEW MOTOR VEHICLE AND TRAILERS TAX","2950 W 127 TH ST",,"BLUE ISLAND","IL","60406","POINT (-87.694038 41.662469)"
"10793345","METRO FORD SALES & SERVICE,INC","NEW MOTOR VEHICLE AND TRAILERS TAX","6455 S WESTERN AVE",,"CHICAGO","IL","60636","POINT (-87.683497 41.776065)"
"21003759","MH FINANCE INC","NEW MOTOR VEHICLE AND TRAILERS TAX","14115 WESTERN AVE",,"BLUE ISLAND","IL","60406 - 3444",
"10793383","MID CITY NISSAN, INC.","NEW MOTOR VEHICLE AND TRAILERS TAX","3456 N KEDZIE AVE",,"CHICAGO","IL","60618","POINT (-87.707726 41.944362)"
"10793415","MIDWAY DODGE, INC.","NEW MOTOR VEHICLE AND TRAILERS TAX","4747 S PULASKI RD",,"CHICAGO","IL","60632","POINT (-87.723462 41.806467)"
"10810293","MIKE ANDERSON CHEVROLET OF CHICAGO","NEW MOTOR VEHICLE AND TRAILERS TAX","5333 W. IRVING PARK ROAD",,"CHICAGO","IL","60641","POINT (-87.760277 41.95328)"
"10793373","MIKE HAGGERTY BUICK-GMC, INC.","NEW MOTOR VEHICLE AND TRAILERS TAX","9301 S CICERO AVE",,"OAK LAWN","IL","60453","POINT (-87.740821 41.723148)"
"11119121","M&K AUTOMOTIVE INC","NEW MOTOR VEHICLE AND TRAILERS TAX","1400 EAST DUNDEE ROAD",,"PALATINE","IL","60074","POINT (-88.011556 42.139171)"
"10840753","M&K QUALITY TRUCK SALES OF ALSIP LLC","NEW MOTOR VEHICLE AND TRAILERS TAX","5300 W. PLATTNER DR",,"ALSIP","IL","60803","POINT (-87.752145 41.665832)"
"10840752","M&K QUALITY TRUCK SALES OF SUMMIT LLC","NEW MOTOR VEHICLE AND TRAILERS TAX","4350 CLYDE PARK AVE SW",,"WYOMING","MI","49509","POINT (-85.684493 42.885621)"
"10840752","M&K QUALITY TRUCK SALES OF SUMMIT LLC","NEW MOTOR VEHICLE AND TRAILERS TAX","4350 CLYDE PARK AVE SW",,"WYOMING","MI","49509","POINT (-85.684493 42.885621)"
"11110485","M & K QUALITY TRUCK SLS OF NORTHERN IL","NEW MOTOR VEHICLE AND TRAILERS TAX","901 W. OAKTON STREET",,"DES PLAINES","IL","60018","POINT (-87.940166 42.022679)"
"11127890","M & K TRUCK CENTER OF SOUTH CHICAGO LLC","NEW MOTOR VEHICLE AND TRAILERS TAX","94 E. SAUK TRAIL",,"SOUTH CHICAGO HEIGHTS","IL","60411","POINT (-87.630321 41.481375)"
"10793325","MOBILE FACILITIES OF ILLINOIS","NEW MOTOR VEHICLE AND TRAILERS TAX","3230 E. LINCOLN HWY.",,"LYNWOOD","IL","60411","POINT (-87.538196 41.506531)"
"10793326","MOBILE OFFICE, INC.","NEW MOTOR VEHICLE AND TRAILERS TAX","4845 W 111TH ST",,"ALSIP","IL","60803","POINT (-87.742366 41.690807)"
"10793372","MOTOR WERKS OF BARRINGTON, INC","NEW MOTOR VEHICLE AND TRAILERS TAX","1475 S BARRINGTON RD",,"BARRINGTON","IL","60010","POINT (-88.136234 42.129102)"
"10793541","MOTOWORK CHICAGO LTD.","NEW MOTOR VEHICLE AND TRAILERS TAX","1901 S WESTERN",,"CHICAGO","IL","60608","POINT (-87.685662 41.855667)"
"21003545","NAPLETON CHICAGO IMPORTS LLC","NEW MOTOR VEHICLE AND TRAILERS TAX","570 W MONROE ST",,"CHICAGO","IL","60661 - 3617","POINT (-87.64242 41.880546)"
"10830532","NAPLETON DES PLAINES CHRYS DODGE JEEP","NEW MOTOR VEHICLE AND TRAILERS TAX","1155 W. DUNDEE ROAD",,"ARLINGTON HEIGHTS","IL","60004","POINT (-87.997559 42.139045)"
"10844737","NAPLETON RIVEROAKS CADILLAC","NEW MOTOR VEHICLE AND TRAILERS TAX","1777 1/2 RIVER OAKS DR.",,"CALUMET CITY","IL","60409","POINT (-87.567243 41.60094)"
"10793526","NAPLETON'S CALUMET CITY IMPORT","NEW MOTOR VEHICLE AND TRAILERS TAX","1985 RIVER OAKS DR",,"CALUMET CITY","IL","60409","POINT (-87.57375 41.60092)"
"11127746","NAPLETON'S COUNTRYSIDE MAZDA","NEW MOTOR VEHICLE AND TRAILERS TAX","110 W GOLF RD",,"SCHAUMBURG","IL","60195 - 3604","POINT (-88.082885 42.049269)"
"10854230","NAPLETON'S ELGIN KIA","NEW MOTOR VEHICLE AND TRAILERS TAX","845 E CHICAGO ST",,"ELGIN","IL","60120","POINT (-88.258498 42.035099)"
"11128033","NAPLETON'S PALATINE MAZDA","NEW MOTOR VEHICLE AND TRAILERS TAX","110 W GOLF RD",,"SCHAUMBURG","IL","60195 - 3604","POINT (-88.082885 42.049269)"
"10793427","NAPLETON'S PARK RIDGE L M","NEW MOTOR VEHICLE AND TRAILERS TAX","1610 WAUKEGAN ROAD",,"GLENVIEW","IL","60025","POINT (-87.798385 42.083982)"
"10815907","NAPLETON'S RIVER OAKS CHRYSLER DODGE JEEP RAM","NEW MOTOR VEHICLE AND TRAILERS TAX","17225 TORRENCE AVE",,"LANSING","IL","60438","POINT (-87.558786 41.582009)"
"10793357","NAPLETON'S RIVER OAKS HONDA","NEW MOTOR VEHICLE AND TRAILERS TAX","17220 TORRENCE AVE",,"LANSING","IL","60438","POINT (-87.558971 41.582309)"
"10793512","NAPLETON'S RIVER OAKS LINCOLN","NEW MOTOR VEHICLE AND TRAILERS TAX","1777 RIVER OAKS DR",,"CALUMET CITY","IL","60409","POINT (-87.567243 41.60094)"
"10793450","NAPLETON'S SCHAUMBURG PON-GMC","NEW MOTOR VEHICLE AND TRAILERS TAX","100 W GOLF RD",,"SCHAUMBURG","IL","60195","POINT (-88.082128 42.049311)"
"10819670","NAPLETON'S SCHAUMBURG SUBARU","NEW MOTOR VEHICLE AND TRAILERS TAX","911 W. HIGGINS ROAD",,"SCHAUMBURG","IL","60195","POINT (-88.102847 42.050363)"
"11127892","NAPLETON'S VOLKSWAGEN OF MT. PROSPECT","NEW MOTOR VEHICLE AND TRAILERS TAX","333 W RAND RD",,"MT. PROSPECT","IL","60056","POINT (-87.941304 42.084744)"
"10793371","NAVISTAR, INC.","NEW MOTOR VEHICLE AND TRAILERS TAX","2050 N MANNHEIM RD",,"MELROSE PARK","IL","60160","POINT (-87.884076 41.913163)"
"10793413","NEW ROGERS PONTIAC, INC.","NEW MOTOR VEHICLE AND TRAILERS TAX","2720 S MICHIGAN AVE",,"CHICAGO","IL","60616","POINT (-87.623594 41.843704)"
"10793506","NISSAN OF SOUTH HOLLAND","NEW MOTOR VEHICLE AND TRAILERS TAX","16269 VAN DAM RD",,"SOUTH HOLLAND","IL","60473 - 2646","POINT (-87.583173 41.598068)"
"11127789","NJRP INC.","NEW MOTOR VEHICLE AND TRAILERS TAX","8760 W 159TH ST",,"ORLAND PARK","IL","60462 - 5395","POINT (-87.832935 41.601756)"
"10793368","NORTHWEST TRUCKS INC","NEW MOTOR VEHICLE AND TRAILERS TAX","2120 N RAND ROAD",,"PALATINE","IL","60074","POINT (-88.032662 42.148916)"
"10837524","OAK LAWN HYUNDAI INC.","NEW MOTOR VEHICLE AND TRAILERS TAX","9121 S. CICERO AVE",,"OAK LAWN","IL","60453","POINT (-87.741006 41.72631)"
"10793486","OAK LAWN MAZDA","NEW MOTOR VEHICLE AND TRAILERS TAX","6750 W 95TH ST",,"OAK LAWN","IL","60453","POINT (-87.788442 41.719524)"
"21004042","OAK LAWN MOTOR HOLDINGS LLC","NEW MOTOR VEHICLE AND TRAILERS TAX","6750 W 95TH ST",,"OAK LAWN","IL","60453 - 2176","POINT (-87.788442 41.719524)"
"10793388","OAK LAWN TOYOTA","NEW MOTOR VEHICLE AND TRAILERS TAX","4320 W 95 TH ST",,"OAKLAWN","IL","60453","POINT (-87.729604 41.720378)"
"10793290","ORLAND TOYOTA, INC.","NEW MOTOR VEHICLE AND TRAILERS TAX","8505 W 159TH ST",,"TINLEY PARK","IL","60487","POINT (-87.826339 41.60175)"
"11127330","PARADISE PARK","NEW MOTOR VEHICLE AND TRAILERS TAX","699 MICHELLE DRIVE",,"LYNWOOD","IL","60411","POINT (-87.53212 41.506751)"
"10793392","PATRICK BMW","NEW MOTOR VEHICLE AND TRAILERS TAX","700 E GOLF RD",,"SCHAUMBURG","IL","60173","POINT (-88.061835 42.050015)"
"10835276","PATRICK CADILLAC","NEW MOTOR VEHICLE AND TRAILERS TAX","1600 E. HIGGINS ROAD",,"SCHAUMBURG","IL","60173","POINT (-88.040465 42.038532)"
"10793322","PATRICK CADILLAC","NEW MOTOR VEHICLE AND TRAILERS TAX","526 MALL DR",,"SCHAUMBURG","IL","60173","POINT (-88.038973 42.039486)"
"10793505","PATRICK HYUNDAI LLC","NEW MOTOR VEHICLE AND TRAILERS TAX","690 E GOLF ROAD",,"SCHAUMBURG","IL","60173","POINT (-88.062496 42.050006)"
"10793567","PATRICK SAAB","NEW MOTOR VEHICLE AND TRAILERS TAX","526 MALL DR",,"SCHAUMBURG","IL","60173","POINT (-88.038973 42.039486)"
"10793369","PATRICK VOLVO","NEW MOTOR VEHICLE AND TRAILERS TAX","526 MALL DR",,"SCHAUMBURG","IL","60173","POINT (-88.038973 42.039486)"
"10793333","PERILLO BMW","NEW MOTOR VEHICLE AND TRAILERS TAX","1035 N CLARK ST",,"CHICAGO","IL","60610","POINT (-87.631371 41.901621)"
"10850930","PHILLIPS CHEVROLET OF LANSING INC","NEW MOTOR VEHICLE AND TRAILERS TAX","17730 S. TORRENCE AVE",,"LANSING","IL","60438","POINT (-87.558912 41.572919)"
"21004166","PLATINUM MOTORSPORTS INC","NEW MOTOR VEHICLE AND TRAILERS TAX","7725 W 98TH ST",,"HICKORY HILLS","IL","60457 - 2338","POINT (-87.810955 41.713551)"
"10850878","RAVINIA MH SALES LLC","NEW MOTOR VEHICLE AND TRAILERS TAX","2450 WAUKEGAN ROAD",,"NORTHFIELD","IL","60093 - 2723","POINT (-87.798483 42.098298)"
"10793231","RAY BUICK","NEW MOTOR VEHICLE AND TRAILERS TAX","5011 W. 63RD STREET",,"CHICAGO","IL","60638","POINT (-87.747577 41.778309)"
"10793382","RECREATION PLANTATION, INC.","NEW MOTOR VEHICLE AND TRAILERS TAX","19660 STONY ISLAND AVE",,"LYNWOOD","IL","60411","POINT (-87.577996 41.538097)"
"10793342","RON HOPKINS FORD, INC.","NEW MOTOR VEHICLE AND TRAILERS TAX","1045 E CHICAGO ST",,"ELGIN","IL","60120","POINT (-88.250287 42.032648)"
"10793234","ROTO LINCOLN MERCURY & SUBARU","NEW MOTOR VEHICLE AND TRAILERS TAX","110 W GOLF RD",,"SCHAUMBURG","IL","60195 - 3604","POINT (-88.082885 42.049269)"
"10793419","ROUTE 12 RENTAL CO.","NEW MOTOR VEHICLE AND TRAILERS TAX","1306 E RAND RD",,"ARLINGTON HEIGHTS","IL","60004","POINT (-87.96882 42.104833)"
"10793300","RUNNION EQUIPMENT CO.","NEW MOTOR VEHICLE AND TRAILERS TAX","6201 EAST AVE",,"HODGKINS","IL","60525","POINT (-87.858324 41.776595)"
"10853302","RUSH TRUCK CENTERS-CHICAGO","NEW MOTOR VEHICLE AND TRAILERS TAX","4655 S. CENTRAL AVE",,"CHICAGO","IL","60638","POINT (-87.76265 41.807736)"
"10855197","RUSSO POWER EQUIPMENT","NEW MOTOR VEHICLE AND TRAILERS TAX","9525 W. IRVING PARK RD",,"SCHILLER PARK","IL","60176","POINT (-87.864865 41.954685)"
"10793378","SCHAUMBURG CHRYSLER-PLYMOUTH","NEW MOTOR VEHICLE AND TRAILERS TAX","110 W GOLF RD",,"SCHAUMBURG","IL","60195 - 3604","POINT (-88.082885 42.049269)"
"10793351","SCHAUMBURG HONDA AUTOMOBILES","NEW MOTOR VEHICLE AND TRAILERS TAX","750 E GOLF RD",,"SCHAUMBURG","IL","60173","POINT (-88.060639 42.050052)"
"10821761","SCHAUMBURG KIA","NEW MOTOR VEHICLE AND TRAILERS TAX","1100 E GOLF RD",,"SCHAUMBURG","IL","60173 - 4508","POINT (-88.051252 42.050291)"
"10793311","SCHAUMBURG TOYOTA, INC.","NEW MOTOR VEHICLE AND TRAILERS TAX","875 W GOLF RD",,"SCHAUMBURG","IL","60194","POINT (-88.102028 42.048138)"
"10852153","SCOOTERWORKS CHICAGO LLC","NEW MOTOR VEHICLE AND TRAILERS TAX","5410 N. DAMEN AVE",,"CHICAGO","IL","60625","POINT (-87.679552 41.980015)"
"11105377","SECOND CITY SCOOTERS INC","NEW MOTOR VEHICLE AND TRAILERS TAX","5578 N LINCOLN AVE",,"CHICAGO","IL","60625","POINT (-87.694719 41.982829)"
"21003974","SEMERSKY ENTERPRISES, INC","NEW MOTOR VEHICLE AND TRAILERS TAX","235 N RANDALL RD",,"ST. CHARLES","IL","60174 - 1525","POINT (-88.340187 41.915385)"
"10793559","SKOKIE MOTOR SALES, INC.","NEW MOTOR VEHICLE AND TRAILERS TAX","7601 N SKOKIE BLVD",,"SKOKIE","IL","60077","POINT (-87.747688 42.020413)"
"10793426","SOUTH CHICAGO DODGE C JP, INC.","NEW MOTOR VEHICLE AND TRAILERS TAX","7340 S WESTERN AVE",,"CHICAGO","IL","60636 - 3692","POINT (-87.683224 41.760144)"
"10793375","SOUTH OAK DODGE, INC.","NEW MOTOR VEHICLE AND TRAILERS TAX","4550 W LINCOLN HWY",,"MATTESON","IL","60443","POINT (-87.727071 41.506223)"
"10794751","SOUTH SUBURBAN MITSIBUSHI","NEW MOTOR VEHICLE AND TRAILERS TAX","5343 MILLER CIRCLE DR",,"MATTESON","IL","60443","POINT (-87.743503 41.501116)"
"10793273","SOUTH WESTERN MOTOR SALES, INC","NEW MOTOR VEHICLE AND TRAILERS TAX","6941 S WESTERN AVE",,"CHICAGO","IL","60636","POINT (-87.683242 41.767009)"
"10793565","STANDARD EQUIPMENT CO.","NEW MOTOR VEHICLE AND TRAILERS TAX","625 S. IL ROUTE 83",,"ELMHURST","IL","60126 - 4200","POINT (-87.96133 41.878529)"
"10793566","STAR NISSAN","NEW MOTOR VEHICLE AND TRAILERS TAX","5757 W TOUHY AVE",,"NILES","IL","60714","POINT (-87.770883 42.011886)"
"10793309","STEPP EQUIPMENT CO.","NEW MOTOR VEHICLE AND TRAILERS TAX","560 TERRITORIAL DR.",,"BOLINGBROOK","IL","60440","POINT (-88.104369 41.682722)"
"10793266","STEVE FOLEY CADILLAC","NEW MOTOR VEHICLE AND TRAILERS TAX","100 SKOKIE BLVD",,"NORTHBROOK","IL","60062","POINT (-87.800261 42.150035)"
"11106059","SUN HOME SERVICES INC.","NEW MOTOR VEHICLE AND TRAILERS TAX","21635 RIDGELAND AVE",,"MATTESON","IL","60445","POINT (-87.770968 41.501109)"
"10793340","SUTTON FORD, INC.","NEW MOTOR VEHICLE AND TRAILERS TAX","21315 CENTRAL AVE",,"MATTESON","IL","60443","POINT (-87.751633 41.502862)"
"10825179","TESLA MOTORS, INC.","NEW MOTOR VEHICLE AND TRAILERS TAX","1053 W. GRAND AVE",,"CHICAGO","IL","60642","POINT (-87.654126 41.891138)"
"11128212","TG ARLINGTON HEIGHTS II LLC","NEW MOTOR VEHICLE AND TRAILERS TAX","777 W. DUNDEE RD",,"ARLINGTON HEIGHTS","IL","60004","POINT (-87.990569 42.139035)"
"21003498","TG WHEELING LLC","NEW MOTOR VEHICLE AND TRAILERS TAX","700 W DUNDEE RD",,"WHEELING","IL","60090 - 2606","POINT (-87.932518 42.139297)"
"10793435","THE AUTOBARN LTD.","NEW MOTOR VEHICLE AND TRAILERS TAX","6161 JOLIET ROAD",,"COUNTRYSIDE","IL","60525","POINT (-87.870573 41.77749)"
"11105750","THE AUTOBARN VOLVO OF OAK PARK","NEW MOTOR VEHICLE AND TRAILERS TAX","1140 GARFIELD",,"OAK PARK","IL","60304","POINT (-87.803435 41.872326)"
"10803725","THE TOOL STORE","NEW MOTOR VEHICLE AND TRAILERS TAX","4529 S. HARLEM AVE,",,"FOREST VIEW","IL","60402",
"10793318","THOESEN TRACTOR & EQUIPMENT","NEW MOTOR VEHICLE AND TRAILERS TAX","3142 LINCOLN HWY",,"LYNWOOD","IL","60411",
"10793308","TIMBER RIDGE MOBILE HOME PARK","NEW MOTOR VEHICLE AND TRAILERS TAX","21700 TIMBER RIDGE ROAD",,"MATTESON","IL","60443 - 2851","POINT (-87.770992 41.495677)"
"10793401","TONY RIZZA OLDS. & CADILLAC","NEW MOTOR VEHICLE AND TRAILERS TAX","8425 W 159TH ST",,"TINLEY PARK","IL","60487","POINT (-87.825172 41.601768)"
"11128231","TOYOTA ON EDENS","NEW MOTOR VEHICLE AND TRAILERS TAX","1530 FRONTAGE RD",,"NORHBROOK","IL","60062",
"11127923","TRANQUILO HOMES LLC","NEW MOTOR VEHICLE AND TRAILERS TAX","90 S RIVER RD",,"DES PLAINES","IL","60016 - 3435","POINT (-87.887261 42.05198)"
"10793577","TRI-ANGLE FAB. & BODY CO.","NEW MOTOR VEHICLE AND TRAILERS TAX","1344 W. 43RD STREET",,"CHICAGO","IL","60609","POINT (-87.659292 41.815963)"
"21004191","VC AUTO III LLC","NEW MOTOR VEHICLE AND TRAILERS TAX","1540 W OGDEN AVE",,"NAPERVILLE","IL","60540 - 3919","POINT (-88.186308 41.772777)"
"21003932","VC AUTO II, LLC","NEW MOTOR VEHICLE AND TRAILERS TAX","1313 RAND RD",,"DES PLAINES","IL","60016 - 3404","POINT (-87.891607 42.050625)"
"11128198","VICTORY TOYOTA OF MIDTOWN","NEW MOTOR VEHICLE AND TRAILERS TAX","2700 N. CICERO AVE.",,"CHICAGO","IL","60639","POINT (-87.746593 41.930014)"
"10793578","VILLA GARDEN ESTATES","NEW MOTOR VEHICLE AND TRAILERS TAX","452 LUCILLE AVE",,"ELGIN","IL","60120 - 8020","POINT (-88.257038 42.027916)"
"11128093","VOLKSWAGEN OF OAK LAWN","NEW MOTOR VEHICLE AND TRAILERS TAX","8920 S. CICERO",,"OAK LAWN","IL","60453","POINT (-87.741246 41.730647)"
"11127989","VOLKSWAGEN OF ORLAND PARK","NEW MOTOR VEHICLE AND TRAILERS TAX","8920 W. 159TH ST",,"ORLAND PARK","IL","60462","POINT (-87.835089 41.601726)"
"10793540","VOSS EQUIPMENT INC.","NEW MOTOR VEHICLE AND TRAILERS TAX","15241 S COMMERCIAL AVE",,"HARVEY","IL","60426","POINT (-87.640667 41.612807)"
"10846610","WALTER PAYTON POWER EQUIPMENT LLC","NEW MOTOR VEHICLE AND TRAILERS TAX","930 W 138TH STREET",,"RIVERDALE","IL","60827","POINT (-87.644235 41.64452)"
"10793585","WATER WERKS BOAT SALES, INC.","NEW MOTOR VEHICLE AND TRAILERS TAX","18660 S CICERO AVE",,"COUNTRY CLUB HILLS","IL","60478","POINT (-87.732873 41.549449)"
"11127329","WEATHERSTONE LAKES","NEW MOTOR VEHICLE AND TRAILERS TAX","21191 TORRENCE AVE",,"SAUK VILLAGE","IL","60411","POINT (-87.558206 41.509768)"
"10793433","WEBB CHEVROLET, INC.","NEW MOTOR VEHICLE AND TRAILERS TAX","9440 S CICERO AVE",,"OAK LAWN","IL","60453","POINT (-87.740906 41.720776)"
"10793605","WESTERN AVENUE NISSAN","NEW MOTOR VEHICLE AND TRAILERS TAX","7410 S WESTERN AVE",,"CHICAGO","IL","60636","POINT (-87.683182 41.758807)"
"10793348","WESTFIELD FORD, INC.","NEW MOTOR VEHICLE AND TRAILERS TAX","6200 S LAGRANGE RD",,"COUNTRYSIDE","IL","60525","POINT (-87.86815 41.776753)"
"10793365","WEST SIDE TRACTOR SALES CO.","NEW MOTOR VEHICLE AND TRAILERS TAX","150 W 162ND ST",,"SOUTH HOLLAND","IL","60473","POINT (-87.621246 41.600947)"
"10793337","WHIPPLETREE VILLAGE","NEW MOTOR VEHICLE AND TRAILERS TAX","525 N OLD MCHENRY RD",,"WHEELING","IL","60090","POINT (-87.939595 42.145263)"
"10794727","WILD FIRE HARLEY-DAVIDSON","NEW MOTOR VEHICLE AND TRAILERS TAX","5460 PARK PLACE",,"ROSEMONT","IL","60018","POINT (-87.867976 41.977785)"
"10793360","WOODFIELD ACURA","NEW MOTOR VEHICLE AND TRAILERS TAX","1099 W HIGGINS RD",,"HOFFMAN ESTATES","IL","60195","POINT (-88.106726 42.051311)"
"10793387","WOODFIELD LEXUS, INC.","NEW MOTOR VEHICLE AND TRAILERS TAX","350 E GOLF RD",,"SCHAUMBURG","IL","60193","POINT (-88.070491 42.049824)"
"10793554","WOODFIELD NISSAN, INC.","NEW MOTOR VEHICLE AND TRAILERS TAX","700 W HIGGINS RD",,"HOFFMAN ESTATES","IL","60195","POINT (-88.09805 42.049482)"
"10793536","WORLD HYUNDAI MATTESON","NEW MOTOR VEHICLE AND TRAILERS TAX","5337 MILLER CIRCLE DR",,"MATTESON","IL","60443","POINT (-87.743526 41.500903)"
"10810393","W T OKI MOTORS, INC.","NEW MOTOR VEHICLE AND TRAILERS TAX","6320 N. MILWAUKEE AVE.",,"CHICAGO","IL","60646","POINT (-87.786262 41.995552)"
"10849703","ZEIGLER BMW OF ORLAND PARK","NEW MOTOR VEHICLE AND TRAILERS TAX","11030 W. 159TH STREET",,"ORLAND PARK","IL","60467","POINT (-87.888567 41.600797)"
"11128242","ZEIGLER CADILLAC OF LINCOLNWOOD","NEW MOTOR VEHICLE AND TRAILERS TAX","7373 N. CICERO AVE",,"LINCOLNWOOD","IL","60712","POINT (-87.747854 42.01496)"
"10824133","ZEIGLER CHEVROLET-SCHAUMBURG LLC","NEW MOTOR VEHICLE AND TRAILERS TAX","1230 E. GOLF ROAD",,"SCHAUMBURG","IL","60173","POINT (-88.048135 42.050385)"
"10800373","ZEIGLER CHRYSLER DODGE JEEP","NEW MOTOR VEHICLE AND TRAILERS TAX","208 W. GOLF ROAD",,"SCHAUMBURG","IL","60195","POINT (-88.085057 42.049169)"
"11112922","ZEIGLER INFINITI ORLAND PARK LLC","NEW MOTOR VEHICLE AND TRAILERS TAX","8751 W. 159TH ST",,"ORLAND PARK","IL","60462","POINT (-87.832811 41.601648)"
"11127137","ZEIGLER LINCOLNWOOD LLC","NEW MOTOR VEHICLE AND TRAILERS TAX","6900 N. MCCORMICK BLVD",,"LINCOLNWOOD","IL","60712","POINT (-87.711595 42.007324)"
"10832897","ZEIGLER MOTORS LLC","NEW MOTOR VEHICLE AND TRAILERS TAX","208B W. GOLF ROAD",,"SCHAUMBURG","IL","60195","POINT (-88.085057 42.049169)"
"11112923","ZEIGLER NISSAN ORLAND PARK LLC","NEW MOTOR VEHICLE AND TRAILERS TAX","8550 W. 159TH STREET",,"ORLAND PARK","IL","60462","POINT (-87.827288 41.601842)"
"11127648","ZEIGLER NORTH RIVERSIDE LLC","NEW MOTOR VEHICLE AND TRAILERS TAX","2100 S. HARLEM AVE",,"NORTH RIVERSIDE","IL","60546","POINT (-87.803804 41.851598)"
"11119385","ZEMAN HOMES INC.","NEW MOTOR VEHICLE AND TRAILERS TAX","400 W. TOUHY AVE.",,"CHICAGO","IL","60018",
"10793530","ZEMAN HOMES INC. (AH)","NEW MOTOR VEHICLE AND TRAILERS TAX","2300 OAKTON ST",,"ARLINGTON HEIGHTS","IL","60005",
"10793598","ZEMAN HOMES INC. (BR)","NEW MOTOR VEHICLE AND TRAILERS TAX","8800 S HARLEM AVE",,"BRIDGEVIEW","IL","60455","POINT (-87.799099 41.730993)"
"10793562","ZEMAN HOMES INC. (DP)","NEW MOTOR VEHICLE AND TRAILERS TAX","815 OAKTON",,"DES PLAINES","IL","60018",
"10793561","ZEMAN HOMES INC. (EL)","NEW MOTOR VEHICLE AND TRAILERS TAX","850 VILLA 1",,"ELGIN","IL","60120","POINT (-88.257623 42.026805)"
"10793829","ZIMMERMAN ENTERPRISES,INC.","NEW MOTOR VEHICLE AND TRAILERS TAX","1216 RAND RD",,"DES PLAINES","IL","60016","POINT (-87.894453 42.052128)"
