"registration_account","company","tax_type","address_line_1","address_line_2","city","state","zip_code","location"
"21001965","1000 EAST GRAND LLC","HOTEL TAX","1000 EAST GRAND STREET",,"CHICAGO","IL","60611","POINT (-87.601052 41.89226)"
"21002007","1101 WABASH DEVELOPMENT LLC","HOTEL TAX","55 E 11TH ST",,"CHICAGO","IL","60605 - 2313","POINT (-87.62547 41.869283)"
"21002577","11 E WALTON HOTEL OWNER LLC","HOTEL TAX","11 E WALTON ST",,"CHICAGO","IL","60611 - 5442","POINT (-87.627507 41.899957)"
"21004174","1200 AMERICAN HOTEL LLC","HOTEL TAX","1200 AMERICAN LN",,"SCHAUMBURG","IL","60173 - 4944","POINT (-88.049082 42.047465)"
"21002476","140 E WALTON BUILDING LLC","HOTEL TAX","755 CROSSOVER LN",,"MEMPHIS","TN","38117 - 4906","POINT (-89.904858 35.110689)"
"20000070","1515 CHICAGO AVE LLC","HOTEL TAX","1515 CHICAGO AVE",,"EVANSTON","IL","60201","POINT (-87.679946 42.045697)"
"21002384","1535 GLENVIEW INC","HOTEL TAX","1535 MILWAUKEE AVE",,"GLENVIEW","IL","60025 - 1437","POINT (-87.867374 42.084138)"
"21000001","1600 N MILWAUKEE VENTURES","HOTEL TAX","2018 W NORTH AVE",,"CHICAGO","IL","60647 - 5414","POINT (-87.67826 41.910479)"
"20000175","1631 WINONA LLC","HOTEL TAX","1631 W WINONA ST",,"CHICAGO","IL","60640","POINT (-87.670999 41.975224)"
"20000607","1659 W. DIVISION LLC","HOTEL TAX",,,,,,
"21003746","166 SUPERIOR HOTEL LLC","HOTEL TAX","166 E SUPERIOR ST",,"CHICAGO","IL","60611 - 2924","POINT (-87.623402 41.895754)"
"21004219","1710 ORR HOTEL LLC","HOTEL TAX","1710 ORRINGTON AVE",,"EVANSTON","IL","60201 - 3828","POINT (-87.680575 42.048744)"
"21001922","200 GREEN DEVELOPER LLC","HOTEL TAX","200 N GREEN ST",,"CHICAGO","IL","60607 - 1702","POINT (-87.648659 41.885666)"
"20000312","2033 W JARVIS DEVELOPMENT","HOTEL TAX","1913 S WRIGHT BLVD",,"SCHAUMBURG","IL","60193","POINT (-88.101829 41.992517)"
"21001721","21C MANAGEMENT LLC","HOTEL TAX","55 E ONTARIO ST",,"CHICAGO","IL","60611 - 2727","POINT (-87.62631 41.893324)"
"21001913","233 E ONTARIO HOTEL PROPCO LLC","HOTEL TAX","233 E ONTARIO ST",,"CHICAGO","IL","60611 - 3214","POINT (-87.621606 41.893387)"
"20000130","2600 WEST BRYN MAWR INC","HOTEL TAX","2600 W BRYN MAWR AVE",,"CHICAGO","IL","60659","POINT (-87.694491 41.983142)"
"21000072","3322 MORGAN LLC","HOTEL TAX","3322 S MORGAN ST",,"CHICAGO","IL","60608 - 6727","POINT (-87.651041 41.833591)"
"20000698","3617-3619 SHEFFIELD HOLDINGS, LLC","HOTEL TAX","1101 W WAVELAND AVE",,"CHICAGO","IL","60613 - 3827","POINT (-87.657058 41.949018)"
"20000617","3LA HOSPITALITY INC","HOTEL TAX","2075 BARRINGTON RD",,"HOFFMAN ESTATES","IL","60169 - 2086","POINT (-88.14445 42.062112)"
"10799965","401 N WABASH AVE HOTEL CONDO ASSOCIATION","HOTEL TAX","401 N WABASH AVE",,"CHICAGO","IL","60611","POINT (-87.626749 41.889108)"
"20000145","401 N WABASH VENTURE LLC","HOTEL TAX","401 N WABASH AVE",,"CHICAGO","IL","60611","POINT (-87.626749 41.889108)"
"21001080","440 S. LASALLE ST. HOTEL TRS, LLC","HOTEL TAX","440 S. LASALLE ST","FL 3","CHICAGO","IL","60605",
"21002377","441 ARLINGTON INC","HOTEL TAX","441 W ALGONQUIN RD",,"ARLINGTON HEIGHTS","IL","60005 - 4409","POINT (-87.98771 42.046505)"
"11106046","4858-70 N CLARK ST LLC","HOTEL TAX","4872 N CLARK ST",,"CHICAGO","IL","60640","POINT (-87.667757 41.971037)"
"21003482","510 CALUMET CITY INC","HOTEL TAX","510 E END AVE",,"CALUMET CITY","IL","60409 - 2804","POINT (-87.575947 41.621692)"
"21001558","5550 NORTH RIVER ROAD, ROSEMONT, LLC","HOTEL TAX","5550 N RIVER RD",,"ROSEMONT","IL","60018 - 5231","POINT (-87.862117 41.979707)"
"21000011","600 N LASALLE LLC","HOTEL TAX","600 N LASALLE",,"CHICAGO","IL","60654",
"21001690","613 NORTH WELLS STREET LLC","HOTEL TAX","613 N WELLS ST",,"CHICAGO","IL","60654 - 3714","POINT (-87.634105 41.892803)"
"11113937","616 ARLINGTON PROPERTY LLC","HOTEL TAX","616 W ARLINGTON PL",,"CHICAGO","IL","60661","POINT (-87.644633 41.92673)"
"21003897","633 ST. CLAIR HOTEL LLC","HOTEL TAX","633 N SAINT CLAIR ST",,"CHICAGO","IL","60611 - 3234","POINT (-87.622722 41.893812)"
"20000770","636 CHICAGO HOTEL LLC","HOTEL TAX","636 S MICHIGAN AVE",,"CHICAGO","IL","60605 - 1901","POINT (-87.62428 41.873697)"
"20000135","6S LLC","HOTEL TAX","2014 W WABANSIA","UNIT 2S","CHICAGO","IL","60647","POINT (-87.678033 41.912477)"
"10795123","900 HOTEL VENTURE LLC","HOTEL TAX","120 E DELAWARE PL",,"CHICAGO","IL","60611","POINT (-87.624928 41.89921)"
"21001239","918 N. NOBLE LLC","HOTEL TAX","918 N NOBLE ST",,"CHICAGO","IL","60642 - 5303","POINT (-87.66247 41.89856)"
"21002535","A4 LLC","HOTEL TAX","17301 HALSTED ST BLDG B",,"SOUTH HOLLAND","IL","60473 - 2744","POINT (-87.636312 41.573957)"
"20000024","AAA HOSPITALITY LLC","HOTEL TAX","2281 WESTVIEW DR",,"DES PLAINES","IL","60018","POINT (-87.903216 42.010822)"
"20000060","AAKET LLC","HOTEL TAX","2505 BERNICE RD",,"LANSING","IL","60438","POINT (-87.554969 41.579248)"
"21002220","AAREANA HOSPTALITY, LLC","HOTEL TAX","340 S WAUKEGAN RD",,"DEERFIELD","IL","60015 - 1331","POINT (-87.831472 42.146791)"
"20000590","ABODE MOTEL CORP","HOTEL TAX","3760 RIVER RD",,"SCHILLER PARK","IL","60176","POINT (-87.855745 41.946742)"
"20000092","A C MOTEL LLC","HOTEL TAX","5230 N LINCOLN AVE",,"CHICAGO","IL","60625","POINT (-87.692474 41.977128)"
"21002678","ADMIRAL HOSPITALITY LLC","HOTEL TAX","9118 S COTTAGE GROVE AVE",,"CHICAGO","IL","60619 - 7606","POINT (-87.60473 41.728768)"
"21000040","AFP 110 CORP.","HOTEL TAX","66 E WACKER PL",,"CHICAGO","IL","60601 - 7202","POINT (-87.625436 41.886784)"
"21000040","AFP 110 CORP.","HOTEL TAX","66 E WACKER PL",,"CHICAGO","IL","60601 - 7202","POINT (-87.625436 41.886784)"
"21001335","AGODA INTERNATIONAL USA LLC","HOTEL TAX","350 5TH AVE STE 4700",,"NEW YORK","NY","10118 - 4700",
"21001622","AGRANI INC","HOTEL TAX","14455 S LA GRANGE RD",,"ORLAND PARK","IL","60462 - 2505","POINT (-87.853723 41.626533)"
"21001992","AHG HOSPITALITY INC","HOTEL TAX","5335 S PULASKI RD",,"CHICAGO","IL","60632 - 4223","POINT (-87.723127 41.795644)"
"20000007","AH LODGING LLC","HOTEL TAX","1415 W DUNDEE RD",,"ARLINGTON HEIGHTS","IL","60004","POINT (-87.999071 42.138794)"
"21002196","AH RRI HOTEL LLC","HOTEL TAX","22 W ALGONQUIN RD",,"ARLINGTON HEIGHTS","IL","60005 - 4402","POINT (-87.98424 42.044728)"
"20000064","AIRBNB INC","HOTEL TAX","888 BRANNAN ST",,"SAN FRANCISCO","CA","94103","POINT (-122.404924 37.771698)"
"21001628","AJJK, INC.","HOTEL TAX","1 E DELAWARE PL APT 14G",,"CHICAGO","IL","60611 - 4973","POINT (-87.628206 41.899145)"
"21003540","AKSHAR HOSPITALITY HE LLC","HOTEL TAX","2825 GREENSPOINT PKWY",,"HOFFMAN ESTATES","IL","60169 - 7202","POINT (-88.149417 42.065835)"
"20000804","ALBION HOTEL LLC","HOTEL TAX","1209 W ALBION AVE",,"CHICAGO","IL","60626 - 4713","POINT (-87.661203 42.002529)"
"20000822","ALF CORPORATION","HOTEL TAX",,,,,,
"21002507","ALFD, INC","HOTEL TAX","2955 MANNHEIM RD",,"FRANKLIN PARK","IL","60131 - 2223","POINT (-87.884672 41.932274)"
"21003473","ALL SET LTD","HOTEL TAX","1235 N DAMEN AVE",,"CHICAGO","IL","60622 - 3142","POINT (-87.677308 41.904309)"
"20000224","ALSIP HOSPITALITY INC","HOTEL TAX","5150 W 127TH ST",,"ALSIP","IL","60803","POINT (-87.745564 41.661638)"
"20000011","ALSIP HOTEL INVESTORS LLC","HOTEL TAX","5000 W 127TH ST",,"ALSIP","IL","60803","POINT (-87.744219 41.661667)"
"21000712","ALSIP HOTELS","HOTEL TAX","12340 S CICERO AVE",,"ALSIP","IL","60803 - 2915","POINT (-87.738909 41.66712)"
"21001042","AMBER MOTEL, INC.","HOTEL TAX","3901 S MICHIGAN AVE",,"CHICAGO","IL","60653","POINT (-87.623171 41.823607)"
"20000107","AMERICAN MOTELS INC","HOTEL TAX","17301 OAK AVE",,"LANSING","IL","60438","POINT (-87.555188 41.580707)"
"20000609","AMERICAN YOUTH HOSTELS-CHICAGO INC.","HOTEL TAX","24 E CONGRESS PKWY",,"CHICAGO","IL","60605 - 1226",
"21003761","AMRUT LILA LLC","HOTEL TAX","8515 S CICERO AVE",,"CHICAGO","IL","60652 - 3504","POINT (-87.740873 41.737567)"
"20000379","AMS HOSPITALITY CORP","HOTEL TAX","1900 OAKTON ST",,"ELK GROVE VILLAGE","IL","60007 - 2132","POINT (-87.958304 42.022514)"
"21002011","ANITEJ HOTEL CORP.","HOTEL TAX","2280 BARRINGTON RD",,"HOFFMAN ESTATES","IL","60169 - 2062","POINT (-88.144685 42.062217)"
"20000674","A & P HOSPITALITY OF ILLINOIS LLC","HOTEL TAX","12800 S ASHLAND AVE",,"CALUMET PARK","IL","60827 - 6308","POINT (-87.660882 41.661047)"
"20000048","APPLE TEN HOSPITALITY MANAGEMENT INC","HOTEL TAX","2425 BARRINGTON RD",,"HOFFMAN ESTATES","IL","60192","POINT (-88.144328 42.068769)"
"20000139","APPLE TEN ILLINOIS SERVICES INC","HOTEL TAX","9480 W HIGGINS RD",,"ROSEMONT","IL","60018","POINT (-87.86244 41.992253)"
"10833376","APPLE TEN SERVICES OHARE INC","HOTEL TAX","2930 S RIVER RD",,"DES PLAINES","IL","60018","POINT (-87.863906 42.000961)"
"20000138","APPLE TEN SERVICES SKOKIE INC","HOTEL TAX","5201 OLD ORCHARD RD",,"SKOKIE","IL","60077","POINT (-87.756175 42.062439)"
"21002543","ARCHER HOSPITALITY LLC","HOTEL TAX","4944 S ARCHER AVE",,"CHICAGO","IL","60632 - 3623","POINT (-87.721763 41.80337)"
"11114367","ARC HOSPITALITY PORTFOLIO I TRS LLC","HOTEL TAX","40 E GRAND AVE","STE 301","CHICAGO","IL","60611","POINT (-87.626438 41.891709)"
"21001570","ARIHANTANAM 2 LLC","HOTEL TAX","2860 W 159TH ST",,"MARKHAM","IL","60428 - 4024","POINT (-87.6871 41.600892)"
"10795387","ARLINGTON HEIGHTS LLC","HOTEL TAX","75 W ALGONQUIN",,"ARLINGTON HEIGHTS","IL","60005","POINT (-87.984996 42.04486)"
"21004022","ARLINGTON HOTELS LLC","HOTEL TAX","3700 N WILKE RD",,"ARLINGTON HEIGHTS","IL","60004 - 1200","POINT (-88.004533 42.143287)"
"21004212","ASHAPURI INC","HOTEL TAX","397 N MILWAUKEE AVE",,"WHEELING","IL","60090 - 3017","POINT (-87.911052 42.145924)"
"10854411","ASHFORD TRS CHICAGO II LLC","HOTEL TAX","20 E CHESTNUT ST",,"CHICAGO","IL","60611","POINT (-87.627402 41.898308)"
"21001854","AVR WHEELING HOTEL TENANT LLC","HOTEL TAX","601 N MILWAUKEE AVE",,"WHEELING","IL","60090 - 3023","POINT (-87.912906 42.150258)"
"20000156","BALDWIN COMMODITIES CORP","HOTEL TAX","1000 COUNTY RD KE",,"MARQUETTE","MI","49855","POINT (-87.570368 46.684283)"
"20000146","BAR INVESTORS INC","HOTEL TAX","6250 N LINCOLN AVE",,"CHICAGO","IL","60659","POINT (-87.715419 41.995216)"
"20000380","BBC PH KINZIE LLC","HOTEL TAX","20 W KINZIE","STE 420","CHICAGO","IL","60654","POINT (-87.628906 41.889241)"
"21002619","BEAUTIFUL DAY LLC","HOTEL TAX","2616 N CLARK ST",,"CHICAGO","IL","60614 - 2290","POINT (-87.643492 41.930098)"
"20000661","BELMONT HOTEL INVESTMENT LLC","HOTEL TAX","933 W BELMONT AVE",,"CHICAGO","IL","60657 - 4408","POINT (-87.652822 41.939954)"
"20000637","BEVERLY MOTEL & SUITES INC","HOTEL TAX","1146 W 95TH ST",,"CHICAGO","IL","60643 - 1454","POINT (-87.652552 41.721398)"
"21002575","BH CHICAGO OWNER, LLC","HOTEL TAX","110 W HURON ST",,"CHICAGO","IL","60654 - 3601","POINT (-87.631786 41.894827)"
"20000787","BLUEGREEN RESORT MANAGEMENT","HOTEL TAX","500 S DEARBORN ST",,"CHICAGO","IL","60605 - 1502","POINT (-87.629222 41.875416)"
"20000790","BLUEGREEN VACATIONS UNLIMITED INC","HOTEL TAX","4960 CONFERENCE WAY N STE 100",,"BOCA RATON","FL","33431 - 3311","POINT (-80.109275 26.391586)"
"20000165","BPG HOSPITALITY INC","HOTEL TAX","7050 W ARCHER AVE",,"CHICAGO","IL","60638","POINT (-87.79837 41.792065)"
"21002083","BRAVO 4200 LLC","HOTEL TAX","4200 RIVER RD",,"SCHILLER PARK","IL","60176 - 1625","POINT (-87.859262 41.955901)"
"20000131","BRE QUAD IL OWNER LLC","HOTEL TAX","111 W ADAMS ST","5TH FL","CHICAGO","IL","60603","POINT (-87.630947 41.879433)"
"10795476","BRE SWISS LP","HOTEL TAX","323 E WACKER DR",,"CHICAGO","IL","60601","POINT (-87.61962 41.887709)"
"20000114","BRIDGESTREET CORPORATE HOUSING LLC","HOTEL TAX","505 N STATE ST",,"CHICAGO","IL","60654 - 4803","POINT (-87.628033 41.891101)"
"21002554","BRIDGEVIEW HOSPITALITY LLC","HOTEL TAX","10030 S HARLEM AVE",,"BRIDGEVIEW","IL","60455 - 2419","POINT (-87.79832 41.709628)"
"20000374","BRIDGEVIEW HOTEL LLC","HOTEL TAX","9625 S 76TH AVE","STE D","BRIDGEVIEW","IL","60455","POINT (-87.808693 41.716293)"
"21001503","BRIDGE VIEW MOTEL LLC","HOTEL TAX","8440 S HARLEM AVE",,"BRIDGEVIEW","IL","60455 - 1721","POINT (-87.799357 41.737968)"
"20000046","BROADVIEW HOSPITALITY LLC","HOTEL TAX","1150 W ROOSEVELT RD",,"BROADVIEW","IL","60155","POINT (-87.84649 41.864232)"
"20000663","BROMPTON HOTEL INVESTMENT LLC","HOTEL TAX","528 W BROMPTON AVE",,"CHICAGO","IL","60657 - 1828","POINT (-87.644203 41.947287)"
"21000005","BROTHERS OF THE HOLY CROSS JERUSALEM","HOTEL TAX","3111 S ABERDEEN ST",,"CHICAGO","IL","60608 - 6503","POINT (-87.653567 41.837619)"
"20000076","BUCKTOWN HOUSE INC","HOTEL TAX","2216 W PALMER ST",,"CHICAGO","IL","60647","POINT (-87.683456 41.921908)"
"20000743","BUDGET HOSPITALITY INC","HOTEL TAX",,,,,,
"20000086","BUDGET INN INC","HOTEL TAX","8450 S CICERO",,"BURBANK","IL","60459","POINT (-87.741084 41.738774)"
"20000230","B W GLENVIEW LLC","HOTEL TAX","4514 W LAKE AVE",,"GLENVIEW","IL","60026","POINT (-87.868138 42.087274)"
"11112299","BW RIVER NORTH HOTEL LLC","HOTEL TAX","125 W OHIO ST",,"CHICAGO","IL","60654 - 4110","POINT (-87.632318 41.892435)"
"11113548","CAA HOTEL OWNER LLC","HOTEL TAX","12 S MICHIGAN AVE",,"CHICAGO","IL","60614","POINT (-87.624454 41.88166)"
"21003615","CATALYST TALBOTT OPERATING LLC","HOTEL TAX","20 E DELAWARE PL",,"CHICAGO","IL","60611 - 1431","POINT (-87.627336 41.899148)"
"20000182","CATHERINE OAKES","HOTEL TAX","5705 N MAGNOLIA AVE",,"CHICAGO","IL","60660","POINT (-87.661437 41.985866)"
"10795092","CCES CHICAGO LLC","HOTEL TAX","511 N COLUMBUS DR",,"CHICAGO","IL","60611","POINT (-87.620164 41.891416)"
"20000027","CEDAR APLHIE LLC","HOTEL TAX","1401 N ROSELLE RD",,"SCHAUMBURG","IL","60195","POINT (-88.079538 42.053569)"
"20000038","CEDAR LINCOLN LLC","HOTEL TAX","600 N MARTINGALE RD",,"SCHAUMBURG","IL","60173","POINT (-88.035661 42.039753)"
"21001159","CEDAR PROPERTY LLC","HOTEL TAX","1118 N STATE ST",,"CHICAGO","IL","60610","POINT (-87.628439 41.902658)"
"21001940","CHARDI KALA HOSPITALITY LLC","HOTEL TAX",,,,,,
"21002432","CHDG PHASE 1A1 SUB LESSEE LLC","HOTEL TAX","1835 W HARRISON ST",,"CHICAGO","IL","60612 - 3771","POINT (-87.67297 41.874058)"
"21000081","CHESTNUT MARC VENTURE OPERATING LLC","HOTEL TAX","312 W CHESTNUT ST",,"CHICAGO","IL","60610 - 3004","POINT (-87.636077 41.89818)"
"21003593","CHICAGO 2875 LLC","HOTEL TAX","2875 MILWAUKEE AVE",,"NORTHBROOK","IL","60062 - 6103","POINT (-87.8825 42.099799)"
"10795324","CHICAGO HOTEL HOLDINGS INC","HOTEL TAX","163 E WALTON PL",,"CHICAGO","IL","60611","POINT (-87.6231 41.900042)"
"20000586","CHICAGO HOTEL LLC","HOTEL TAX","1622 W JACKSON",,"CHICAAGO","IL","60610","POINT (-87.667288 41.87764)"
"20000141","CHICAGOLAND INC","HOTEL TAX","7225 OGDEN AVE",,"LYONS","IL","60534 - 1211","POINT (-87.803823 41.823293)"
"11119094","CHICAGO LESSEE LLC","HOTEL TAX","720 S MICHIGAN AVE",,"CHICAGO","IL","60605 - 2116","POINT (-87.624255 41.87253)"
"20000155","CHICAGO RIDGE MOTEL INC","HOTEL TAX","7150 103RD ST",,"CHICAGO RIDGE","IL","60415","POINT (-87.796651 41.704687)"
"20000069","CHICAGO SOUTH LOOP HOTEL LLC","HOTEL TAX","11 W 26TH ST","STE 300","CHICAGO","IL","60616","POINT (-87.627532 41.845604)"
"10795306","CHICAGO UMA LLC","HOTEL TAX","121 NW POINT BLVD",,"ELK GROVE VILLAGE","IL","60007 - 1019","POINT (-87.980577 42.036127)"
"20000764","CHICAGO WEST MANAGEMENT, INC.","HOTEL TAX","200 S MANNHEIM RD",,"HILLSIDE","IL","60162 - 1825","POINT (-87.882744 41.866284)"
"21002169","CHINATOWN HOTEL CORP","HOTEL TAX","214 W 22ND PL",,"CHICAGO","IL","60616 - 1856","POINT (-87.632581 41.852171)"
"20000726","CHITOWN MANAGEMENT LLC SERIES ROSCOE VILLAGE GUESTHOUSE","HOTEL TAX",,,,,,
"21002064","CHIYS TRIVEDI HOSPITALITY LLC","HOTEL TAX","1100 E HIGGINS RD",,"SCHAUMBURG","IL","60173 - 4709","POINT (-88.052238 42.040016)"
"21001469","CHOWDHURY HOSPITALITY LLC","HOTEL TAX","16900 HALSTED ST",,"HARVEY","IL","60426 - 6164","POINT (-87.636461 41.583516)"
"21001617","CHOXY HOTEL LLC","HOTEL TAX","530 N LASALLE DR",,"CHICAGO","IL","60654","POINT (-87.632678 41.891753)"
"10794934","CHROMCOR CORP","HOTEL TAX","6455 N SAINT LOUIS AVE",,"LINCOLNWOOD","IL","60712 - 3836","POINT (-87.716727 41.998829)"
"20000151","CHSP TRS CHICAGO LLC","HOTEL TAX","172 W ADAMS ST",,"CHICAGO","IL","60603 - 7602","POINT (-87.633126 41.879384)"
"20000117","CHSP TRS LAKESHORE LLC","HOTEL TAX","644 N LAKE SHORE DR",,"CHICAGO","IL","60611 - 3017","POINT (-87.615201 41.894039)"
"21001767","CICERO HOTEL LLC","HOTEL TAX","4501 S CICERO AVE",,"CHICAGO","IL","60632 - 4818","POINT (-87.743115 41.81033)"
"20000643","CINDY LYN MOTEL","HOTEL TAX","5029 W OGDEN AVE",,"CICERO","IL","60804 - 3536","POINT (-87.750357 41.84205)"
"21001997","CITY OF CHICAGO DEPT OF AVIATION","HOTEL TAX","10000 W OHARE AVE",,"CHICAGO","IL","60666 - 6000","POINT (-87.895169 41.980739)"
"20000050","CLARGRAN LLC","HOTEL TAX","60 W ILLINOIS ST",,"CHICAGO","IL","60654","POINT (-87.630279 41.890838)"
"10795028","CONGRESS PLAZA HOTEL LLC","HOTEL TAX","520 S MICHIGAN",,"CHICAGO","IL","60605","POINT (-87.624321 41.875068)"
"20000075","CONRAD HOTEL MANAGEMENT LLC","HOTEL TAX","101 E ERIE ST",,"CHICAGO","IL","60611","POINT (-87.625272 41.894124)"
"10805868","CONTINENTAL 191 FUND LLC","HOTEL TAX","5851 LEGACY CIR",,"PLANO","TX","75024 - 5966","POINT (-96.822248 33.080693)"
"20000039","CORPORATE SUITES NETWORK LLC","HOTEL TAX","555 W MADISON OFFICE","STE 310","CHICAGO","IL","60661","POINT (-87.641652 41.881863)"
"20000173","COUNTYSIDE LODGING","HOTEL TAX","6251 JOLIET RD",,"COUNTRYSIDE","IL","60525","POINT (-87.872923 41.776431)"
"10799904","COURTYARD MANAGEMENT CORP.","HOTEL TAX","30 E HUBBARD ST",,"CHICAGO","IL","60611 - 3530","POINT (-87.627119 41.890081)"
"11107266","CP CHICAGO OHARE LLC","HOTEL TAX","8535 W HIGGINS RD",,"CHICAGO","IL","60631","POINT (-87.840495 41.986609)"
"10839096","CP IPERS ROSEMONT HOTEL LLC","HOTEL TAX","6100 N RIVER RD",,"ROSEMONT","IL","60018 - 5128","POINT (-87.860133 41.989598)"
"10802904","CPO HOSPITALITY LLC","HOTEL TAX","5440 N RIVER RD",,"ROSEMONT","IL","60018","POINT (-87.862765 41.977312)"
"20000768","CREST MOTEL","HOTEL TAX","345 E LAKE ST",,"BARTLETT","IL","60103 - 4152","POINT (-88.178463 42.002265)"
"20000226","CROSS ROADS HOSPITALITY INC","HOTEL TAX","5300 S PULASKI",,"CHICAGO","IL","60632","POINT (-87.723332 41.796956)"
"21002120","CROSS & ROSEN, LLC","HOTEL TAX","1343 W WINONA ST APT 1W",,"CHICAGO","IL","60640 - 2921","POINT (-87.664015 41.97532)"
"10795041","CTYD III CORPORATION","HOTEL TAX","2950 S RIVER RD",,"DES PLAINES","IL","60018","POINT (-87.863591 42.000203)"
"21002416","CUIC LLC","HOTEL TAX","625 S ASHLAND AVE",,"CHICAGO","IL","60607 - 3101","POINT (-87.666488 41.873816)"
"10795527","CUMBERLAND KENNEDY HOSPITALITY INC","HOTEL TAX","5615 N CUMBERLAND AVE",,"CHICAGO","IL","60631","POINT (-87.836426 41.981523)"
"20000108","DANA HOTEL LLC","HOTEL TAX","2 W ERIE ST","2ND FLR","CHICAGO","IL","60654","POINT (-87.628359 41.894089)"
"10803778","DEARKIN RES (DE) LLC","HOTEL TAX","410 N DEARBORN ST",,"CHICAGO","IL","60654","POINT (-87.6296 41.889621)"
"20000705","DESTINATION CHICAGO INC","HOTEL TAX","2848 N RACINE AVE",,"CHICAGO","IL","60657 - 4204","POINT (-87.658745 41.933977)"
"20000658","DHARMI CORPORATION USA","HOTEL TAX","536 E NORTHWEST HWY",,"PALATINE","IL","60074 - 6355","POINT (-88.030212 42.105152)"
"10832767","DH DEERFIELD MANAGEMENT LLC","HOTEL TAX","1445 LAKE COOK RD",,"DEERFIELD","IL","60015","POINT (-87.863169 42.152844)"
"10795029","DIAMONDROCK CHICAGO CONRAD TENANT LLC","HOTEL TAX","521 N RUSH ST",,"CHICAGO","IL","60611 - 3646","POINT (-87.62536 41.8915)"
"21002615","DIYA ALLIANCE LLC","HOTEL TAX","441 W ALGONQUIN RD",,"ARLINGTON HEIGHTS","IL","60005 - 4409","POINT (-87.98771 42.046505)"
"20000080","DIYANAV HOSPITALITY GROUP INC","HOTEL TAX","374 N MILWAUKEE AVE",,"WHEELING","IL","60090","POINT (-87.910956 42.145749)"
"20000129","D-LUX BUDGET INN INC","HOTEL TAX","14130 SHEFFIED DR#303",,"HOMER GLEN","IL","60491","POINT (-87.924484 41.633194)"
"21002355","DOMIO 201 E DELAWARE PLACE LLC","HOTEL TAX","201 E DELAWARE PL",,"CHICAGO","IL","60611 - 1713","POINT (-87.621587 41.899258)"
"10794886","DTRS COLUMBUS DRIVE LLC","HOTEL TAX","200 N COLUMBUS DR",,"CHICAGO","IL","60601","POINT (-87.62073 41.886167)"
"21001860","EAST OF THE RYAN INC.","HOTEL TAX","914 E 79TH ST",,"CHICAGO","IL","60619","POINT (-87.60186 41.751314)"
"10816161","ECD GREAT STREET LLC","HOTEL TAX","201 N STATE ST","STE 120","CHICAGO","IL","60601","POINT (-87.627865 41.886048)"
"20000009","ECD STREETERVILLE HOTEL LLC","HOTEL TAX","216 E ONTARIO","STE 120","CHICAGO","IL","60611","POINT (-87.621991 41.893377)"
"21000220","EDWARD HOTEL CHICAGO LLC","HOTEL TAX","6600 MANNHEIM RD",,"ROSEMONT","IL","60018 - 3625","POINT (-87.884603 41.999623)"
"20000605","ELINOR BUILDING CORPORATION","HOTEL TAX","3216 N CICERO AVE",,"CHICAGO","IL","60641 - 4423","POINT (-87.746936 41.939325)"
"20000229","ELK GROVE HOTEL INC","HOTEL TAX","1600 OAKTON ST",,"ELK GROVE VILLAGE","IL","60007 - 2102","POINT (-87.962006 42.022438)"
"20000377","ELK GROVE VILLAGE HOTEL LLC","HOTEL TAX","1000 W DEVON AVE","STE D","ELK GROVE VILLAGE","IL","60007","POINT (-88.025202 41.992547)"
"21002613","EL MAR HOTEL MANAGMENT LLC","HOTEL TAX","162 E OHIO ST",,"CHICAGO","IL","60611 - 3105","POINT (-87.623481 41.892566)"
"20000714","ESA P PORTFOLIO OPERATING LESSEE INC","HOTEL TAX","PO BOX 49550",,"CHARLOTTE","NC","28277 - 9550",
"20000103","ESSEX HOTEL MANAGER LLC","HOTEL TAX","800 S MICHIGAN AVE",,"CHICAGO","IL","60605","POINT (-87.624241 41.871791)"
"11110516","EVANSTON NORTHSHORE PARTNERS LLC","HOTEL TAX","1501 SHERMAN AVE",,"EVANSTON","IL","60201","POINT (-87.681923 42.044633)"
"10838686","FH CHI LLC","HOTEL TAX","166 E SUPERIOR ST",,"CHICAGO","IL","60611 - 2924","POINT (-87.623402 41.895754)"
"20000010","FIRESIDE LAND DEVELOPMENT LLC","HOTEL TAX","2855 N MILWAUKEE AVE",,"NORTHBROOK","IL","60062","POINT (-87.883432 42.100834)"
"21002062","FIRST CBV LLC","HOTEL TAX","7010 S HARLEM AVE",,"BRIDGEVIEW","IL","60455 - 1160","POINT (-87.800626 41.764809)"
"21001325","FIRST COS LLC","HOTEL TAX","6501 MANNHEIM RD",,"ROSEMONT","IL","60018 - 3627","POINT (-87.884441 41.997182)"
"20000068","FIRST FM JOINT VENTURE","HOTEL TAX","33 W ILLINOIS","STE 300","CHICAGO","IL","60654","POINT (-87.62923 41.890853)"
"20000166","F & P HOSPITALITY LLC","HOTEL TAX","2550 LANDMEIER RD",,"ELK GROCE VILLAGE","IL","60007","POINT (-87.941513 42.012393)"
"21003480","FP SCHAUMBURG LLC","HOTEL TAX","1191 E WOODFIELD RD",,"SCHAUMBURG","IL","60173 - 4773","POINT (-88.051754 42.043096)"
"21002622","FREESTAND HOME SOLUTION, LLC","HOTEL TAX","625 S. HARLEM AVE UNIT 1",,"FOREST PARK","IL","60130 - 1919","POINT (-87.804593 41.874791)"
"21002251","GARFIELD BY THE PARK LLC","HOTEL TAX","39 GARFIELD ST APT 1N",,"OAK PARK","IL","60304 - 2365","POINT (-87.776133 41.870529)"
"20000240","GATEWAY LANSING INC","HOTEL TAX","2255 173RD ST",,"LANSING","IL","60438","POINT (-87.562454 41.581057)"
"21002601","GCMS LODGING PARTNERS, LLC","HOTEL TAX","8000 CAPITOL DR",,"WHEELING","IL","60090 - 6478","POINT (-87.911311 42.110948)"
"21002163","GEIL LESSEE LLC","HOTEL TAX","1625 HINMAN AVE",,"EVANSTON","IL","60201 - 6021","POINT (-87.677565 42.046613)"
"21004165","GH OF ARLINGTON HEIGHTS LLC","HOTEL TAX","2112 S ARLINGTON HEIGHTS RD",,"ARLINGTON HEIGHTS","IL","60005 - 4106","POINT (-87.982667 42.046735)"
"21002467","GH OF HOFFMAN ESTATES, LLC","HOTEL TAX","5235 PRAIRIE STONE PKWY",,"HOFFMAN ESTATES","IL","60192 - 3709","POINT (-88.208147 42.072634)"
"11108358","GIC 11 E WALTON LLC","HOTEL TAX","11 E WALTON",,"CHICAGO","IL","60611","POINT (-87.627575 41.899956)"
"21001889","GINOSI CHICAGO CORP","HOTEL TAX","747 N MAY ST",,"CHICAGO","IL","60642 - 7801","POINT (-87.655905 41.895808)"
"20000311","GLENVIEW GOLF COURSE LLC","HOTEL TAX","2901 W LAKE AVE",,"GLENVIEW","IL","60026","POINT (-87.829408 42.091421)"
"20000665","GLENVIEW HOTELS INC","HOTEL TAX","1100 HICKS RD",,"ROLLING MEADOWS","IL","60008 - 1016","POINT (-88.034076 42.098524)"
"20000184","GLENVIEW INVESTORS-HOTEL LLC","HOTEL TAX","1400 MILWAUKEE AVE",,"GLENVIEW","IL","60025","POINT (-87.864079 42.080726)"
"21003762","GLENWOOD ESTATES VACATION RENTALS","HOTEL TAX","514 N ARIZONA AVE",,"GLENWOOD","IL","60425 - 1006","POINT (-87.638925 41.555599)"
"21001975","GLOBAL HOTEL LLC","HOTEL TAX","1925 E HIGGINS RD",,"ELK GROVE VILLAGE","IL","60007","POINT (-87.956555 42.020768)"
"20000696","GLOBAL SERVICED APARTMENTS LLC","HOTEL TAX","PO BOX 3089",,"GREENWOOD VILLAGE","CO","80155 - 3089",
"21002037","GOLDEN MILE HOTELS LLC","HOTEL TAX","660 N STATE ST",,"CHICAGO","IL","60654 - 3830","POINT (-87.628129 41.89422)"
"21004132","GRAND AVENUE OPERATING VII, LLC","HOTEL TAX","10 E GRAND AVE",,"CHICAGO","IL","60611 - 3506","POINT (-87.627613 41.891698)"
"20000620","GRAND MOTEL INC","HOTEL TAX","10022 S HALSTED ST",,"CHICAGO","IL","60628 - 1813","POINT (-87.643044 41.711636)"
"21003998","GRAND PRIX FIXED LESSEE LLC","HOTEL TAX","7101 S CHESTNUT STREET",,"ROSEMONT","IL","60018",
"20000043","GRECEK ENTERPRISES INC","HOTEL TAX","638 E 162ND ST",,"SOUTH HOLLAND","IL","60473","POINT (-87.600128 41.600827)"
"20000233","GREG CLAEYS","HOTEL TAX","2014 W WABANSIA","UNIT 3N","CHICAGO","IL","60647","POINT (-87.678033 41.912477)"
"20000825","HAGGARD MANAGEMENT COMPANY, LLC","HOTEL TAX","PO BOX 3089",,"GREENWOOD VILLAGE","CO","80155 - 3089",
"21004115","HALL DES PLAINES, LLC","HOTEL TAX","2350 MANNHEIM RD",,"DES PLAINES","IL","60018 - 2955","POINT (-87.886388 42.010966)"
"21001412","HAMPTON INN AND SUITES CHICAGO MT PROSPECT","HOTEL TAX","1 RANDHURST VILLAGE DR",,"MT PROSPECT","IL","60056 - 1146","POINT (-87.933227 42.084062)"
"21000571","HARVEY HOUSE BED & BREAKFAST","HOTEL TAX","107 S SCOVILLE AVE",,"OAK PARK","IL","60302","POINT (-87.787867 41.88662)"
"21001899","HAVEN MOTEL MANAGEMENT INC","HOTEL TAX","600 E NORTHWEST HWY",,"PALATINE","IL","60074","POINT (-88.028717 42.104485)"
"10795586","HCD CHICAGO CORP","HOTEL TAX",,,,,,
"10799925","HCP OXFORD OBG CASS PROPERTY CO LLC","HOTEL TAX","640 N WABASH AVE",,"CHICAGO","IL","60611","POINT (-87.626756 41.893431)"
"20000779","HD HOSPITALITY INC","HOTEL TAX","4375 FRONTAGE RD",,"OAK FOREST","IL","60452 - 4628","POINT (-87.723305 41.590119)"
"21003614","HFIL ASSOCIATES LLC","HOTEL TAX","111 W HURON ST",,"CHICAGO","IL","60654 - 8706","POINT (-87.631694 41.894828)"
"20000363","HHC TRS CHICAGO LLC","HOTEL TAX","10 S WABASH AVE","STE 11450","CHICAGO","IL","60603","POINT (-87.626213 41.881845)"
"20000118","HICKORY WEST INN INC","HOTEL TAX","8600 W 95TH STREET",,"HICKORY HILLS","IL","60457","POINT (-87.83201 41.718293)"
"20000829","HIGHGATE HOTELS, LP","HOTEL TAX","545 E JOHN CARPENTER FWY STE 1400",,"IRVING","TX","75062 - 3933","POINT (-96.932865 32.858606)"
"20000228","HILLSIDE HOSPITALITY INC","HOTEL TAX","4400 FRONTAGE RD",,"HILLSIDE","IL","60162","POINT (-87.895141 41.87208)"
"21002030","HILTON GRAND VACATIONS CLUB LLC","HOTEL TAX","300 E OHIO ST",,"CHICAGO","IL","60611 - 3308","POINT (-87.619624 41.892623)"
"21003800","HIMALAYA INVESTMENT LLC","HOTEL TAX","1851 MCCONNOR PKWY",,"SCHAUMBURG","IL","60173 - 4369","POINT (-88.032194 42.054679)"
"21002589","HMIL ASSOCIATES LLC","HOTEL TAX","500 HOLIDAY PLAZA DR",,"MATTESON","IL","60443","POINT (-87.73972 41.504736)"
"20000635","HOLLAND INN & SUITES INC","HOTEL TAX","1122 E 162ND ST",,"SOUTH HOLLAND","IL","60473 - 2561","POINT (-87.589912 41.600882)"
"21001946","HOMEAWAY.COM, INC.","HOTEL TAX","11800 DOMAIN DR STE 300",,"AUSTIN","TX","78758 - 3418","POINT (-97.722881 30.404977)"
"20000015","HOSPITALITY BY PERSIRA LLC","HOTEL TAX","3514 N SHEFFIELD AVE",,"CHICAGO","IL","60657","POINT (-87.654289 41.946029)"
"20000305","HOTELS.COM LP","HOTEL TAX","5400 LBJ FREEWAY","STE 500","DALLAS","TX","75240",
"21001481","HOTEL TONIGHT, INC.","HOTEL TAX","901 MARKET ST STE 310",,"SAN FRANCISCO","CA","94103 - 1752","POINT (-122.408387 37.783748)"
"20000306","HOTWIRE INC","HOTEL TAX","655 MONTGOMERY ST","STE 600","SAN FRANCISCO","CA","94111","POINT (-122.403266 37.79528)"
"21002640","HOUSE 5863, INC.","HOTEL TAX","5863 N GLENWOOD AVE",,"CHICAGO","IL","60660 - 3449","POINT (-87.665084 41.988446)"
"21003837","HP ARLINGTON HOTEL, LLC","HOTEL TAX","2120 S. ARLINGTON RD",,"ARLINGTON HEIGHTS","IL","60005","POINT (-87.982754 42.046249)"
"21002582","HPT STATE STREET TRS LLC","HOTEL TAX","505 N STATE ST",,"CHICAGO","IL","60654 - 4803","POINT (-87.628033 41.891101)"
"11108603","HPT TRS IHG-2 INC","HOTEL TAX","4021 MANNHEIM RD",,"SCHILLER PARK","IL","60176","POINT (-87.885563 41.952875)"
"21003937","HPT TRS MRP, INC.","HOTEL TAX","201 E WALTON PL",,"CHICAGO","IL","60611 - 1685","POINT (-87.621449 41.900075)"
"21002204","HPT WACKER DRIVE TRS LLC","HOTEL TAX","71 E WACKER DR",,"CHICAGO","IL","60601 - 3755","POINT (-87.626106 41.887404)"
"21002428","HP WS VII BURBANK LLC","HOTEL TAX","5001 W 79TH ST",,"BURBANK","IL","60459 - 1839","POINT (-87.747481 41.749003)"
"20000067","HRH LLC","HOTEL TAX","8101 W HIGGINS RD","STE 300","CHICAGO","IL","60631","POINT (-87.829368 41.985376)"
"21001590","HSC HOTEL HOLDINGS LLC","HOTEL TAX","3630 N CLARK ST",,"CHICAGO","IL","60613 - 3808","POINT (-87.657169 41.948041)"
"10795511","HST WRN LLC","HOTEL TAX","320 N DEARBORN ST",,"CHICAGO","IL","60654 - 5010","POINT (-87.62956 41.888236)"
"10795784","HYATT EQUIIES LLC","HOTEL TAX","9300 BRYN MAWR AVE",,"ROSEMONT","IL","60018 - 5202","POINT (-87.858942 41.980655)"
"20000694","HYATT PLACE O'HARE LLC.","HOTEL TAX","916 W 21ST ST",,"CHICAGO","IL","60608 - 4542","POINT (-87.648675 41.85394)"
"21004197","HYATT ROSE LLC","HOTEL TAX","6350 N RIVER RD",,"ROSEMONT","IL","60018 - 4207","POINT (-87.861725 41.995495)"
"20000177","IHG MANAGEMENT (MARYLAND) LLC","HOTEL TAX","505 N MICHIGAN AVE",,"CHICAGO","IL","60611","POINT (-87.624058 41.891004)"
"20000672","ILLINOIS A & P HOSPITALITY INC","HOTEL TAX","12808 S ASHLAND AVE",,"CALUMET PARK","IL","60827 - 6308","POINT (-87.660868 41.660492)"
"21001018","INTEGRATED 32 WEST RANDOLPH, LLC","HOTEL TAX","32 W RANDOLPH ST",,"CHICAGO","IL","60601 - 3423","POINT (-87.628853 41.884523)"
"11105636","INTEGRATED CLARK MONROE LLC","HOTEL TAX","100 W MONROE ST",,"CHICAGO","IL","60603","POINT (-87.631049 41.880693)"
"20000026","Integrated Motor Club LLC","HOTEL TAX","68 E WACKER PL",,"CHICAGO","IL","60601","POINT (-87.625414 41.886784)"
"20000771","INTERWEST CHICAGO HOTEL LLC","HOTEL TAX","44 HERSHA DR",,"HARRISBURG","PA","17102 - 2241","POINT (-76.897388 40.274906)"
"20000059","INTOWN SUITES OHARE","HOTEL TAX","2411 LANDMEIER RD",,"ELK GROVE VILLAGE","IL","60007 - 2626","POINT (-87.943632 42.010815)"
"20000053","IRVING HOTEL SRO LP","HOTEL TAX","4849 W IRVING PARK RD",,"CHICAGO","IL","60641 - 2702","POINT (-87.749071 41.953415)"
"21000622","IZABELLA HMC-CI, LLC","HOTEL TAX","2111 S ARLINGTON HEIGHTS RD",,"ARLINGTON HEIGHTS","IL","60005 - 4105","POINT (-87.982471 42.046831)"
"20000162","JAI JALARAM BAPA INC","HOTEL TAX","7336 S HARLEM AVE",,"BRIDGEVIEW","IL","60455","POINT (-87.800167 41.757683)"
"20000750","JAIME INC.","HOTEL TAX","788 VILLA ST",,"ELGIN","IL","60120 - 8035","POINT (-88.26223 42.028715)"
"20000161","JAI SHREE SAINATH INC","HOTEL TAX","7240 S HARLEM AVE",,"BRIDGEVIEW","IL","60455","POINT (-87.800236 41.759486)"
"20000158","J AND A CHICAGO REALTY LLC","HOTEL TAX","2630 N ASHLAND AVE",,"CHICAGO","IL","60614","POINT (-87.668345 41.929757)"
"20000795","JAYDEVA INC.","HOTEL TAX","2325 E LINCOLN HWY",,"LYNWOOD","IL","60411 - 7713","POINT (-87.560006 41.50651)"
"20000074","JAY SHREE MAHALAXMI MAA INC","HOTEL TAX","9232 W OGDEN AVE",,"BROOKFIELD","IL","60513","POINT (-87.853619 41.817073)"
"21002402","JJS HOSPITALITY INC","HOTEL TAX","1160 W DEVON AVE",,"ELK GROVE VILLAGE","IL","60007 - 3214","POINT (-88.029772 41.992588)"
"20000241","JJS INCORPORATED","HOTEL TAX","2235  173RD ST",,"LANSING","IL","60438","POINT (-87.562454 41.581057)"
"20000669","JR PLAZA HOTEL, INC","HOTEL TAX","4507 W WASHINGTON BLVD",,"CHICAGO","IL","60624 - 2243","POINT (-87.738028 41.881911)"
"21002357","JR'S PLAZA HOTEL INC #2","HOTEL TAX","3001 W JACKSON BLVD",,"CHICAGO","IL","60612 - 2727","POINT (-87.701514 41.877392)"
"21002309","KABJ ALLIANCE LLC","HOTEL TAX","16940 HALSTED ST",,"HARVEY","IL","60426 - 6164","POINT (-87.636463 41.582923)"
"20000102","KARMA K J ENTERPRISE INC","HOTEL TAX","2623 N MANNHEIM RD",,"FRANKLIN PARK","IL","60131","POINT (-87.884441 41.92654)"
"21001947","KASA CHICAGO LLC","HOTEL TAX","900 S CLARK ST",,"CHICAGO","IL","60605 - 3679","POINT (-87.630545 41.870337)"
"10795787","KATO KAGAKU CO LTD","HOTEL TAX","151 E WACKER DR",,"CHICAGO","IL","60601 - 3764","POINT (-87.622225 41.888111)"
"20000183","KEYES MOTEL","HOTEL TAX","2323 E RAND RD",,"ARLINGTON HEIGHTS","IL","60004","POINT (-87.955446 42.095773)"
"20000154","KEY MOTEL INC","HOTEL TAX","11910 S CICERO AVE",,"ALSIP","IL","60803","POINT (-87.739163 41.675663)"
"20000582","KHRG ALLEGRO LLC","HOTEL TAX","171 W RANDOLPH ST",,"CHICAGO","IL","60601","POINT (-87.632683 41.884484)"
"20000748","KIKI ENTERPRISES INC.","HOTEL TAX",,,,,,
"10819212","KIMPTON HOTEL & RESTAURANT GROUP LLC","HOTEL TAX","505 N STATE ST",,"CHICAGO","IL","60654 - 4803","POINT (-87.628033 41.891101)"
"20000121","KOZY BUDGET MOTEL LLC","HOTEL TAX","15555 CRAWFORD AVE",,"MARKHAM","IL","60428","POINT (-87.716859 41.605768)"
"21004192","KRISH NIYA LLC","HOTEL TAX","4535 W ADDISON ST",,"CHICAGO","IL","60641 - 3816","POINT (-87.740869 41.946216)"
"20000632","KTKY INC","HOTEL TAX","9201 S STONY ISLAND AVE",,"CHICAGO","IL","60617 - 3639","POINT (-87.585006 41.727302)"
"20000016","LA BANQUE LLC","HOTEL TAX","2034 RIDGE RD",,"HOMEWOOD","IL","60430","POINT (-87.666773 41.561817)"
"20000120","LAKE HOTEL MANAGEMENT CO","HOTEL TAX","3434 N BROADWAY AVE",,"CHICAGO","IL","60657","POINT (-87.645356 41.944237)"
"20000225","LAKE SHORE HOSPITALITY INC","HOTEL TAX","4900 S LAKE SHORE DR",,"CHICAGO","IL","60615","POINT (-87.585452 41.806146)"
"10795190","LAKHANI HOSPITALITY INC","HOTEL TAX","5300 W TOUHY AVE",,"SKOKIE","IL","60077","POINT (-87.760131 42.011908)"
"20000021","LANSING EXPRESS INVESTMENTS INC","HOTEL TAX","2323 172ND ST",,"LANSING","IL","60438","POINT (-87.560909 41.582865)"
"21001676","LANSING FRIENDSHIP LLC","HOTEL TAX","2151 BERNICE RD",,"LANSING","IL","60438 - 1005","POINT (-87.565814 41.579229)"
"10799927","LASALLE HOTEL LESSEE INC & SUB","HOTEL TAX","333 N DEARBORN ST",,"CHICAGO","IL","60654 - 4956","POINT (-87.629572 41.888525)"
"20000111","LC HOTEL LLC","HOTEL TAX","455 N PARK DR",,"CHICAGO","IL","60611","POINT (-87.61957 41.890168)"
"11101017","LCO HOTEL LLC","HOTEL TAX","5300 N RIVER RD",,"ROSEMONT","IL","60018","POINT (-87.862646 41.974382)"
"21001846","LETHAN SCHAUMBURG HH, LLC","HOTEL TAX","1251 AMERICAN LN",,"SCHAUMBURG","IL","60173 - 6015","POINT (-88.049122 42.047466)"
"21003796","LF3 NORTHBROOK TRS, LLC","HOTEL TAX","1110 WILLOW RD",,"NORTHBROOK","IL","60062 - 6819","POINT (-87.807154 42.105561)"
"10795512","LHO MICHIGAN AVE FREEZEOUT","HOTEL TAX","909 N MICHIGAN AVE",,"CHICAGO","IL","60611 - 1935","POINT (-87.624045 41.899489)"
"21000922","LIDO HOSPITALITY INC","HOTEL TAX","2415 MANNHEIM RD",,"FRANKLIN PARK","IL","60131","POINT (-87.884278 41.922653)"
"11113135","LINCOLN ASSET MANAGER LLC","HOTEL TAX","1816 N CLARK ST",,"CHICAGO","IL","60614","POINT (-87.63422 41.915283)"
"20000037","LINCOLN INN LP","HOTEL TAX","5952 N LINCOLN AVE",,"CHICAGO","IL","60659","POINT (-87.705656 41.989297)"
"21002076","LIVLY SHORT STAY, LLC","HOTEL TAX","1325 W RANDOLPH ST",,"CHICAGO","IL","60607 - 1513","POINT (-87.659613 41.884105)"
"11114966","LONDONHOUSE CHICAGO LEASECO LLC","HOTEL TAX","85 E WACKER DR",,"CHICAGO","IL","60601","POINT (-87.625289 41.88822)"
"10850470","LOYOLA UNIVERSITY OF CHICAGO","HOTEL TAX","820 N MICHIGAN AVE",,"CHICAGO","IL","60611","POINT (-87.624219 41.897392)"
"10850470","LOYOLA UNIVERSITY OF CHICAGO","HOTEL TAX","820 N MICHIGAN AVE",,"CHICAGO","IL","60611","POINT (-87.624219 41.897392)"
"10812524","LQ MANAGEMENT LLC","HOTEL TAX","2280 BARRINGTON RD","STE 600","HOFFMAN ESTATES","IL","60195","POINT (-88.144685 42.062217)"
"20000649","LVM CORPORATION","HOTEL TAX","601 W DIVERSEY PKWY",,"CHICAGO","IL","60614 - 1510","POINT (-87.643681 41.932856)"
"21002644","LXG CHICAGO LLC","HOTEL TAX","506 W HARRISON ST",,"CHICAGO","IL","60607 - 4303","POINT (-87.639942 41.874409)"
"21002290","LXG MIDWAY LLC","HOTEL TAX","7353 S CICERO AVE",,"CHICAGO","IL","60629 - 5816","POINT (-87.741609 41.759109)"
"21002498","MAA SHIV SHAKTI INC","HOTEL TAX","460 W 14TH ST",,"CHICAGO HEIGHTS","IL","60411 - 2463","POINT (-87.66369 41.505964)"
"20000594","MADHUSUDAN A PARIKH","HOTEL TAX","8809 W OGDEN AVE",,"BROOKFIELD","IL","60513","POINT (-87.840906 41.816458)"
"20000013","MAHARISHI HOSPITALITY INC","HOTEL TAX","3219 TALL GRASS DR",,"NAPERVILLE","IL","60564","POINT (-88.217136 41.7053)"
"21001532","MAHAVIR MATTESON HOSPITALITY LLC","HOTEL TAX","21609 GOVERNORS HWY",,"MATTESON","IL","60443 - 2629","POINT (-87.713007 41.497163)"
"21002490","MAHAVIR PIONEER INN MOTEL LLC","HOTEL TAX","17600 TORRENCE AVE",,"LANSING","IL","60438 - 1863","POINT (-87.558924 41.574383)"
"20000140","MANILOW SUITES","HOTEL TAX","175 N HARBOR DR","SUITE 3007","CHICAGO","IL","60185","POINT (-87.615742 41.885424)"
"20000142","MARRIOTT HOTEL SERVICES INC.","HOTEL TAX","540 N MICHIGAN AVE",,"CHICAGO","IL","60611 - 3890","POINT (-87.624254 41.891953)"
"21001390","MARRIOTT INTERNATIONAL INC.","HOTEL TAX","2121 S PRAIRIE AVE",,"CHICAGO","IL","60616 - 1305","POINT (-87.62067 41.853286)"
"20000171","MARY AGNES NEWMAN","HOTEL TAX","2101 N CLIFTON AVE",,"CHICAGO","IL","60614","POINT (-87.657046 41.919983)"
"20000725","MATTESON HOTEL PARTNERS LLC","HOTEL TAX","308 N PETERS RD STE 100",,"KNOXVILLE","TN","37922 - 2327","POINT (-84.091478 35.914902)"
"20000047","MEADOWS HOTELS LLC","HOTEL TAX","3477 ALGONQUIN RD",,"ROLLING MEADOWS","IL","60008","POINT (-88.022292 42.061338)"
"20000313","METROPOLITAN PIER & EXPOSITION AUTHORITY","HOTEL TAX","2233 S KING DR",,"CHICAGO","IL","60616 - 1415","POINT (-87.618929 41.851805)"
"21002669","ME WENTWORTH LLC","HOTEL TAX","2357 S WENTWORTH AVE.",,"CHICAGO","IL","60616","POINT (-87.631932 41.84967)"
"21003622","MHF CHICAGO OPERATING TENANT VII LLC","HOTEL TAX","162 E ONTARIO ST",,"CHICAGO","IL","60611 - 2809","POINT (-87.6232 41.893352)"
"21002698","MHF DTS OPERATING VI LLC","HOTEL TAX","9599 SKOKIE BLVD",,"SKOKIE","IL","60077 - 1314","POINT (-87.746595 42.055038)"
"21000010","MHF EVANSTON OPERATING V LLC","HOTEL TAX","1818 MAPLE AVE",,"EVANSTON","IL","60201 - 3136","POINT (-87.684749 42.050812)"
"21002072","MHH MANAGEMENT, LLC","HOTEL TAX","105 N MAY ST",,"CHICAGO","IL","60607 - 2015","POINT (-87.655593 41.883615)"
"20000159","MICHAEL COHEN","HOTEL TAX","2014 W WABANSIA","UNIT 2N","CHICAGO","IL","60647","POINT (-87.678033 41.912477)"
"21001716","MICHIGAN CERMAK INDIANA LLC","HOTEL TAX","123 E CERMAK RD",,"CHICAGO","IL","60616 - 2124","POINT (-87.622727 41.852835)"
"20000112","MICHIGAN WACKER ASSOCIATES","HOTEL TAX","75 E WACKER DR LBBY 2",,"CHICAGO","IL","60601","POINT (-87.625499 41.888084)"
"10837906","MID CITY PLAZA LLC","HOTEL TAX","733 W MADISON",,"CHICAGO","IL","60661","POINT (-87.646708 41.881799)"
"21002508","MIDLOTHIAN HOSPITALITY, INC","HOTEL TAX","14400 CICERO AVE",,"MIDLOTHIAN","IL","60445","POINT (-87.737539 41.630185)"
"20000017","MID TERRACE HOSPITALITY INC","HOTEL TAX","15353 S CICERO AVE",,"OAK FOREST","IL","60452","POINT (-87.736767 41.612292)"
"20000227","MIDWAY AIRPORT INN INC","HOTEL TAX","8220 S CICERO",,"BURBANK","IL","60459","POINT (-87.741221 41.7427)"
"20000077","MI SUN INC","HOTEL TAX","5611 N LINCOLN AVE",,"CHICAGO","IL","60659","POINT (-87.695382 41.983335)"
"20000088","M K K HOSPITALITY INC","HOTEL TAX","3160 RIVER RD",,"RIVER GROVE","IL","60171","POINT (-87.850419 41.937004)"
"21002004","MMRP LLC","HOTEL TAX","1322 RAND RD",,"DES PLAINES","IL","60016 - 3405","POINT (-87.890991 42.050297)"
"20000091","MORTON GROVE HOSPITALITY INC","HOTEL TAX","9424 WAUKEGAN RD",,"MORTON GROVE","IL","60053","POINT (-87.799498 42.052854)"
"21001800","MPAL HURON LLC","HOTEL TAX","152 E HURON ST",,"CHICAGO","IL","60611 - 2925","POINT (-87.623263 41.894968)"
"21001578","MPAL SCHAUMBURG LLC","HOTEL TAX","50 N MARTINGALE RD",,"SCHAUMBURG","IL","60173 - 2065","POINT (-88.031849 42.03024)"
"21003578","MPF OXFORD THOMPSON PROPERTY LLC","HOTEL TAX","350 W HUBBARD ST STE 440",,"CHICAGO","IL","60654 - 6900","POINT (-87.637622 41.889957)"
"20000178","MP PROPERTIES MANAGEMENT INC","HOTEL TAX","200 E RAND RD",,"MOUNT PROSPECT","IL","60056","POINT (-87.93447 42.079657)"
"20000136","MRCB LLC","HOTEL TAX","2014 W WABANSIA","UNIT 3S","CHICAGO","IL","60647","POINT (-87.678033 41.912477)"
"21001817","MR CLARK 3473 OPERATING LLC","HOTEL TAX","3473 N CLARK ST",,"CHICAGO","IL","60657 - 1609","POINT (-87.655008 41.945359)"
"20000087","MUKTI ENTERPRISES INC","HOTEL TAX","5535 N LINCOLN AVE",,"CHICAGO","IL","60625","POINT (-87.693561 41.98224)"
"21004081","MYAT THIDA MYINT & ASSOCIATES LLC","HOTEL TAX","1801 MILWAUKEE AVE",,"GLENVIEW","IL","60025 - 4984","POINT (-87.870187 42.086977)"
"20000773","MZS GROUP LLC","HOTEL TAX","8 WOODHAVEN DR",,"SOUTH BARRINGTON","IL","60010 - 9556","POINT (-88.172891 42.079747)"
"21004156","NAP GATEWAY CORP","HOTEL TAX","4657 W 95TH ST",,"OAK LAWN","IL","60453 - 2529","POINT (-87.737765 41.720143)"
"21002405","NAP LODGING CORP","HOTEL TAX","9320 S CICERO AVE",,"OAK LAWN","IL","60453 - 2518","POINT (-87.740987 41.722651)"
"20000793","NAP MIDWAY HOSPITALITY LLC","HOTEL TAX","7701 S CICERO AVE",,"CHICAGO","IL","60652 - 1012","POINT (-87.741366 41.752192)"
"21003475","NAP MOTEL CORP","HOTEL TAX","7307 OGDEN AVE",,"LYONS","IL","60534 - 1212","POINT (-87.805708 41.8226)"
"21004160","NAP WORTH GROUP CORP","HOTEL TAX","7240 SOUTHWEST HWY",,"WORTH","IL","60482 - 1249","POINT (-87.79963 41.697471)"
"21001648","NARAYANI INC.","HOTEL TAX","610 TOLLVIEW DR",,"SOUTH HOLLAND","IL","60473 - 2700","POINT (-87.631419 41.579182)"
"21002193","NATIONAL CORPORATE HOUSING","HOTEL TAX","8400 E CRESCENT PKWY STE 300",,"GREENWOOD VILLAGE","CO","80111 - 2830","POINT (-104.88897 39.622827)"
"21002455","NEDIYA INC.","HOTEL TAX","1551 W NORTH AVE",,"CHICAGO","IL","60642 - 2358","POINT (-87.667213 41.910616)"
"20000808","NEW HARRISON HOTEL CORPORATION","HOTEL TAX","65 E HARRISON ST",,"CHICAGO","IL","60605 - 1614","POINT (-87.625526 41.874416)"
"20000675","NEW PARIE INVESTMENTS, LLC","HOTEL TAX","27 IRIS AVE",,"SAN FRANCISCO","CA","94118 - 2726","POINT (-122.452055 37.785307)"
"11116180","NEW SUBURBAN REAL ESTATE MANAGEMENT","HOTEL TAX","2200 S ELMHURST RD",,"MT PROSPECT","IL","60056","POINT (-87.940599 42.02543)"
"21002509","NHC LLC","HOTEL TAX",,,,,,
"20000805","N. JEFFERSON OPERATOR, LLC","HOTEL TAX","401 N MICHIGAN AVE STE 1300",,"CHICAGO","IL","60611 - 4271","POINT (-87.617122 41.88952)"
"20000065","NORFORD HOTEL INC","HOTEL TAX","1508 N PULASKI",,"CHICAGO","IL","60651","POINT (-87.726457 41.908367)"
"21000980","NORTHBROOK ND INVESTMENTS LLC","HOTEL TAX","933 SKOKIE BLVD",,"NORTHBROOK","IL","60062 - 4004","POINT (-87.79001 42.135469)"
"10795159","NORTHERN MAJESTIC HOTEL LLC","HOTEL TAX","22 W MONROE ST","STE 300","CHICAGO","IL","60603","POINT (-87.628487 41.880732)"
"20000798","NORTH STATE PARKWAY F & B, LLC","HOTEL TAX","1301 N STATE PKWY",,"CHICAGO","IL","60610 - 2334","POINT (-87.628735 41.905814)"
"20000622","NOVAK HOSPITALITY INC","HOTEL TAX","2450 173RD ST",,"LANSING","IL","60438 - 1031","POINT (-87.556729 41.581087)"
"21002074","OCEAN BREEZE, LLC","HOTEL TAX","6535 S KING DR",,"CHICAGO","IL","60637 - 3207","POINT (-87.615537 41.775586)"
"20000376","OHARE AIRPORT HOTEL LLC","HOTEL TAX","2881 TOUHY AVE","STE D","ELK GROVE VILLAGE","IL","60007","POINT (-87.936969 42.008079)"
"21000106","OHARE INN 4101 LLC","HOTEL TAX","4101 MANNHEIM RD",,"SCHILLER PARK","IL","60176 - 1840","POINT (-87.885568 41.953606)"
"20000101","OHIO EAST HOTEL LLC","HOTEL TAX","15 E OHIO ST",,"CHICAGO","IL","60611","POINT (-87.627492 41.892503)"
"21003844","OLD CHICAGO INN & TRANSIT COMPANY, LTD","HOTEL TAX","3222 N SHEFFIELD AVE",,"CHICAGO","IL","60657 - 2211","POINT (-87.654113 41.94066)"
"21002597","OM AND REYAN LLC","HOTEL TAX","45 W 103RD ST",,"CHICAGO","IL","60628 - 2605","POINT (-87.625167 41.707143)"
"21001748","OMPREM DOLTON LLC","HOTEL TAX","1335 E SIBLEY BLVD",,"DOLTON","IL","60419 - 2930","POINT (-87.584151 41.622665)"
"21002299","ONE SUPERIOR PLACE STR LLC","HOTEL TAX","400 PLAZA DR",,"SECAUCUS","NJ","07094 - 3605","POINT (-74.042965 40.787199)"
"21004078","ONNI 311 N MORGAN LLC","HOTEL TAX","311 N MORGAN ST",,"CHICAGO","IL","60607 - 1310","POINT (-87.652161 41.887111)"
"21002516","ONNI ATRIUM DEVELOPMENT NO 1 LIMITED PARTNERSHIP","HOTEL TAX","1140 N WELLS ST",,"CHICAGO","IL","60610 - 2529","POINT (-87.634442 41.903201)"
"21001911","ONTARIO STREET OWNER LLC","HOTEL TAX","243 E ONTARIO ST",,"CHICAGO","IL","60611 - 3204","POINT (-87.621338 41.893394)"
"11104243","OXFORD HOTELS & RESORTS LLC","HOTEL TAX","127 W HURON ST",,"CHICAGO","IL","60654","POINT (-87.631961 41.894826)"
"10849252","PACIFIC LANGHAM CHICAGO CORPORATION","HOTEL TAX","330 N WABASH AVE",,"CHICAGO","IL","60611","POINT (-87.627182 41.888681)"
"10794959","PACIFIC TAI LLC","HOTEL TAX","1100 S MICHIGAN AVE",,"CHICAGO","IL","60605","POINT (-87.624221 41.869284)"
"21002060","PALWAUKEE HOSPITALITY LLC","HOTEL TAX","600 N MILWAUKEE AVE",,"PROSPECT HEIGHTS","IL","60070 - 2376","POINT (-87.88942 42.107646)"
"20000314","PARK HYATT WATER TOWER ASSC LLC","HOTEL TAX","830 CITY AVE",,"MOORE","OK","73160 - 3806","POINT (-97.49903 35.347452)"
"20000684","PARK VIEW MOTEL INC","HOTEL TAX","5 WHIPPOORWILL CT",,"ROSELLE","IL","60172 - 4728","POINT (-88.109384 41.983316)"
"20000239","PARTHENON GUEST HOUSE","HOTEL TAX","310 S HALSTED ST",,"CHICAGO","IL","60661","POINT (-87.64724 41.877741)"
"21003776","PASSAGE HOSPITALITY, LLC","HOTEL TAX","1212 S CICERO AVE",,"CICERO","IL","60804 - 1456","POINT (-87.744699 41.865299)"
"21001985","PATIDAR HOTELS MANAGEMENT INC","HOTEL TAX","950 LAKE SUPERIOR DR",,"MATTESON","IL","60443 - 1778","POINT (-87.739252 41.508013)"
"11100384","PEARLSHIRE COUNTRYSIDE HOTEL","HOTEL TAX","6201 JOLIET RD",,"COUNTRYSIDE","IL","60525","POINT (-87.871885 41.776899)"
"21001604","PEARLSHIRE SCHAUMBURG LLC","HOTEL TAX","1939 N MEACHAM RD",,"SCHAUMBURG","IL","60173 - 4333","POINT (-88.043927 42.065931)"
"20000137","PETERSON-RIDGE CORPORATION","HOTEL TAX","5990 N RIDGE AVE",,"CHICAGO","IL","60660","POINT (-87.671943 41.990574)"
"21002269","PH LODGING ORD LLC","HOTEL TAX","2112 S ARLINGTON HEIGHTS RD",,"ARLINGTON HEIGHTS","IL","60005 - 4106","POINT (-87.982667 42.046735)"
"21003617","PHOENIX 226 CENTRAL LOOP OPERATOR LLC","HOTEL TAX","245 S FRANKLIN ST",,"CHICAGO","IL","60606 - 4629","POINT (-87.635216 41.878538)"
"10799920","PIL II LP","HOTEL TAX","198 E DELAWARE",,"CHICAGO","IL","60611","POINT (-87.622155 41.899251)"
"20000800","PINEAPPLE HOSPITALITY COMPANY","HOTEL TAX","1 W WASHINGTON ST",,"CHICAGO","IL","60602 - 1603","POINT (-87.628148 41.883204)"
"21003718","PITTSFIELD MARC HOTEL LLC","HOTEL TAX","55 E WASHINGTON ST",,"CHICAGO","IL","60602 - 2103","POINT (-87.625717 41.883239)"
"11118815","PLUMM PROPERTIES INC.","HOTEL TAX","6871 N MILWAUKEE AVE",,"NILES","IL","60714 - 4419","POINT (-87.795632 42.005856)"
"21002223","P M M HOSPITALITY LLC","HOTEL TAX","6401 W TOUHY AVE",,"CHICAGO","IL","60646 - 1036","POINT (-87.787213 42.011975)"
"20000238","POONAM HOSPITALITY IL INC","HOTEL TAX","6401 JOLIET RD",,"LAGRANGE HLDS","IL","60525","POINT (-87.880276 41.773168)"
"20000062","PRAMUKH HOSPITALITY INC","HOTEL TAX","12710 S ASHLAND AVE",,"CALUMET PARK","IL","60827","POINT (-87.660888 41.661263)"
"20000144","PREMIER LUXURY SUITES","HOTEL TAX","400 SKOKIE BLVD","SUITE 235","NORTHBROOK","IL","60062","POINT (-87.795811 42.144253)"
"20000242","PRICELINE.COM LLC","HOTEL TAX","800 CONNECTICUT AVE",,"NORWALK","CT","6854","POINT (-73.452912 41.092375)"
"20000061","PRINA MOTEL MANAGEMENT","HOTEL TAX","4740 ROOSEVELT RD",,"HILLSIDE","IL","60162","POINT (-87.901205 41.862735)"
"20000083","PRINTERS ROW LLC","HOTEL TAX","500 S DEARBORN ST","STE 100","CHICAGO","IL","60605","POINT (-87.629222 41.875416)"
"21002103","PROMINENCE OHARE LLC","HOTEL TAX","3001 MANNHEIM RD",,"DES PLAINES","IL","60018 - 3605","POINT (-87.884467 42.000706)"
"20000375","PROSPECT HEIGHTS HOTEL LLC","HOTEL TAX","540 N MILWAUKEE AVE","STE D","PROSPECT HEIGHTS","IL","60070","POINT (-87.888993 42.106924)"
"21003675","PROSPECT INN","HOTEL TAX","1246 S RIVER RD",,"PROSPECT HEIGHTS","IL","60070 - 1208","POINT (-87.88805 42.10278)"
"20000686","RADHA RAMAN INC","HOTEL TAX","5 WHIPPOORWILL CT",,"ROSELLE","IL","60172 - 4728","POINT (-88.109384 41.983316)"
"21001772","RADHE ENTERPRISES, INC.","HOTEL TAX","9041 S CICERO AVE",,"OAK LAWN","IL","60453 - 1825","POINT (-87.740965 41.727579)"
"11114399","RAFFAELLO HOTEL OPERATIONS LLC","HOTEL TAX","201 E DELAWARE PL",,"CHICAGO","IL","60611 - 1713","POINT (-87.621587 41.899258)"
"20000167","RAMA HOSPITALITY CORP","HOTEL TAX","21050 MATTESON AVE",,"MATTESON","IL","60443",
"20000170","RAYS BUCKTOWN BED AND BREAKFAST OF CHICAGO","HOTEL TAX","2144 N LEAVITT ST",,"CHICAGO","IL","60647","POINT (-87.682611 41.921276)"
"21001802","RBC CAPITAL HSOP LLC","HOTEL TAX","16245 S LA GRANGE RD",,"ORLAND PARK","IL","60467 - 5511","POINT (-87.852545 41.594998)"
"21004172","RCP HOTEL OWNER LLC","HOTEL TAX","208 S. LASALLE ST.",,"CHICAGO","IL","60604","POINT (-87.632319 41.879264)"
"21002067","RDHN INVESTMENTS LLC","HOTEL TAX","5640 N RIVER RD",,"ROSEMONT","IL","60018 - 5119","POINT (-87.862043 41.980684)"
"21002069","REHN INVESTMENTS LLC","HOTEL TAX","5500 N RIVER RD",,"ROSEMONT","IL","60018 - 5230","POINT (-87.862385 41.978962)"
"10795615","RENAISSANCE HOTEL MANAGEMENT CO LLC","HOTEL TAX","1551 THOREAU DR",,"SCHAUMBURG","IL","60173","POINT (-88.041941 42.062503)"
"10795874","RENAISSANCE HOTEL OPERATING CO","HOTEL TAX","1 W WACKER",,"CHICAGO","IL","60601","POINT (-87.628391 41.88684)"
"10795871","RESIDENCE INN BY MARRIOTT LLC","HOTEL TAX","201 E WALTON",,"CHICAGO","IL","60611","POINT (-87.621449 41.900075)"
"21001853","RESORT RENTAL, LLC","HOTEL TAX","9998 N MICHIGAN RD",,"CARMEL","IN","46032 - 9640","POINT (-86.234327 39.935477)"
"10795185","RICH OAK LAWN HOTEL LLC","HOTEL TAX","9333 S CICERO AVE",,"OAK LAWN","IL","60453","POINT (-87.740807 41.722895)"
"21002254","RIMA RV CORPORATION","HOTEL TAX","2448 MANNHEIM RD",,"FRANKLIN PARK","IL","60131 - 3166","POINT (-87.884459 41.923001)"
"20000052","RIO MOTEL LP","HOTEL TAX","6080 N LINCOLN AVE",,"CHICAGO","IL","60659 - 2411","POINT (-87.710934 41.992464)"
"10795423","RITZ CARLTON WATER TOWER","HOTEL TAX","160 E PEARSON ST",,"CHICAGO","IL","60611 - 2308","POINT (-87.623392 41.897608)"
"21002659","RIVER NORTH ASSETS LLC","HOTEL TAX","220 W ILLINOIS ST",,"CHICAGO","IL","60654 - 4631","POINT (-87.635173 41.890769)"
"20000639","RIVER PARK MOTEL & SUITES INC","HOTEL TAX","6060 N LINCOLN AVE",,"CHICAGO","IL","60659 - 2411","POINT (-87.710904 41.992445)"
"10795044","RLJ II - C CHICAGO MAG MILE LESSEE LLC","HOTEL TAX","165 E ONTARIO ST",,"CHICAGO","IL","60611","POINT (-87.623116 41.893353)"
"10797885","RLJ II - C MIDWAY LESSEE LLC","HOTEL TAX","6610 S CICERO AVE",,"BEDFORD PARK","IL","60638","POINT (-87.742213 41.772962)"
"10797904","RLJ II - F MIDWAY LESSEE LLC","HOTEL TAX","6630 S CICERO AVE",,"BEDFORD PARK","IL","60638","POINT (-87.742188 41.7723)"
"10797900","RLJ II - HA MIDWAY LESSEE LLC","HOTEL TAX","6540 S CICERO AVE",,"BEDFORD PARK","IL","60638","POINT (-87.742242 41.773943)"
"10797901","RLJ II - HG MIDWAY LESSEE LLC","HOTEL TAX","6530 S CICERO AVE",,"BEDFORD PARK","IL","60638","POINT (-87.742249 41.774312)"
"10797898","RLJ II - HOLX MIDWAY LESSEE LLC","HOTEL TAX","6500 S CICERO AVE",,"BEDFORD PARK","IL","60638","POINT (-87.742252 41.774399)"
"10797891","RLJ II - MH MIDWAY LESSEE LLC","HOTEL TAX","6520 S CICERO AVE",,"BEDFORD PARK","IL","60638","POINT (-87.742257 41.774511)"
"10797902","RLJ II - SLE MIDWAY LESSEE LLC","HOTEL TAX","6650 S CICERO AVE",,"BEDFORD PARK","IL","60638","POINT (-87.74217 41.771634)"
"20000232","ROBERT BAUM","HOTEL TAX","2014 W WABANSIA","UNIT 4","CHICAGO","IL","60647","POINT (-87.678033 41.912477)"
"20000234","ROBERT GROBLE","HOTEL TAX","512 W 37TH ST",,"CHICAGO","IL","60609","POINT (-87.639273 41.827203)"
"20000752","ROCKET TRAVEL INC.","HOTEL TAX","560 W WASHINGTON BLVD STE 310",,"CHICAGO","IL","60661 - 2689","POINT (-87.641836 41.88319)"
"21002685","ROIL ASSOCIATES, LLC","HOTEL TAX","8500 W BRYN MAWR AVE",,"CHICAGO","IL","60631 - 3203","POINT (-87.840688 41.981027)"
"20000653","ROOSEVELT UNIVERISTY","HOTEL TAX","430 S MICHIGAN AVE",,"CHICAGO","IL","60605 - 1315","POINT (-87.624348 41.876083)"
"20000082","ROSCOE VILLAGE INN LLC","HOTEL TAX","3515 N SEELEY AVE",,"CHICAGO","IL","60618","POINT (-87.679708 41.945538)"
"21001968","ROSEMONT BALMORAL HOTEL LLC","HOTEL TAX","5200 PEARL STREET",,"ROSEMONT","IL","60018","POINT (-87.871014 41.973106)"
"20000000","R P FOX ASSOCIATES INC","HOTEL TAX","1110 PLEASANT ST",,"OAK PARK","IL","60302 - 3010","POINT (-87.802782 41.885462)"
"21001609","RREF II DTMM, LLC","HOTEL TAX","300 E OHIO ST",,"CHICAGO","IL","60611 - 3308","POINT (-87.619624 41.892623)"
"21001737","RUBY ROOM, INC.","HOTEL TAX","1745 W DIVISION ST",,"CHICAGO","IL","60622","POINT (-87.671679 41.903296)"
"20000373","RUSH ONTARIO LLC","HOTEL TAX","630 N RUSH ST","STE 1050","CHICAGO","IL","60611","POINT (-87.625427 41.893569)"
"21002624","S3 REAL ESTATE CORPORATION","HOTEL TAX","15941 WOOD ST",,"HARVEY","IL","60426 - 4930","POINT (-87.660722 41.599516)"
"10795150","SAGA CHICAGO CO LTD","HOTEL TAX","3939  N MANNHEIM RD","STE 450","SCHILLER PARK","IL","60176","POINT (-87.885506 41.949899)"
"20000174","SAJNI HOSPITALITY","HOTEL TAX","13330 CICERO AVE",,"CRESTWOOD","IL","60445","POINT (-87.738247 41.649751)"
"20000679","SARATOGA DEWITT IV, LLC","HOTEL TAX","222 S MORGAN ST",,"CHICAGO","IL","60607 - 3072","POINT (-87.651937 41.878486)"
"20000100","SAROOR LLC","HOTEL TAX","12801 S CICERO AVE",,"ALSIP","IL","60803","POINT (-87.738421 41.658303)"
"21000013","SBS GLENVIEW LLC","HOTEL TAX","2600 LEHIGH AVE",,"GLENVIEW","IL","60026 - 8028","POINT (-87.820467 42.103771)"
"21001074","SCHAUMBURG HOTEL PARTNERS, LLC","HOTEL TAX","891 N PLAZA DR",,"SCHAUMBURG","IL","60173 - 4919","POINT (-88.042825 42.046021)"
"21002646","SCHAUMBURG INVESTMENT LLC","HOTEL TAX","1300 E HIGGINS RD",,"SCHAUMBURG","IL","60173 - 4938","POINT (-88.047797 42.039495)"
"20000757","SCHAUMBURG LODGING, LLC","HOTEL TAX","1998 N ROSELLE RD",,"SCHAUMBURG","IL","60195 - 3102","POINT (-88.079602 42.062737)"
"21001046","SCHAUMBURG MEACHAM POINT, LLC","HOTEL TAX","1300 AMERICAN LN",,"SCHAUMBURG","IL","60173 - 4976","POINT (-88.048102 42.047451)"
"20000018","SCHAUMBURG SUITES LLC","HOTEL TAX","901 E WOODFIELD OFFICE CT","STE 230","SCHAUMBURG","IL","60173","POINT (-88.059105 42.045717)"
"20000731","SCHILLER PARK HOSPITALITY LLC","HOTEL TAX","10249 IRVING PARK RD",,"SCHILLER PARK","IL","60176 - 1453","POINT (-87.883115 41.957102)"
"21002165","SCHILLER PARK HOTEL LLC","HOTEL TAX","520 E FOOTHILL BLVD STE D",,"POMONA","CA","91767 - 1200","POINT (-117.739993 34.107128)"
"10795439","SCH&T CORP OF II","HOTEL TAX","301 E NORTH WATER ST STE 1",,"CHICAGO","IL","60611 - 4300","POINT (-87.619511 41.889554)"
"21000006","SELDER CM CHICAGO LLC","HOTEL TAX","221 N COLUMBUS DR",,"CHICAGO","IL","60601 - 7801","POINT (-87.620649 41.886518)"
"10794923","SELECT HOTELS GROUP LLC","HOTEL TAX","2750 GREEN POINT PKWY",,"HOFFMAN ESTATES","IL","60169","POINT (-88.147559 42.063325)"
"10795474","SEMEO INC","HOTEL TAX","2951 TOUHY AVE",,"ELK GROCE VILLAGE","IL","60007","POINT (-87.936113 42.008102)"
"20000041","SEY INC","HOTEL TAX","8640 OGDEN AVE",,"LYONS","IL","60534 - 1039","POINT (-87.836931 41.816268)"
"21001979","SF084, INC","HOTEL TAX","584 CASTRO ST # 124",,"SAN FRANCISCO","CA","94114 - 2512","POINT (-122.434872 37.759614)"
"21001565","SHASHTRI HOSPITALITY, INC","HOTEL TAX","1200 N FRONTAGE RD",,"PALATINE","IL","60074 - 3374","POINT (-88.005312 42.131722)"
"20000681","SHERIDAN CHASE HOTEL, INC.","HOTEL TAX","7300 N SHERIDAN RD",,"CHICAGO","IL","60626 - 2216","POINT (-87.664222 42.014164)"
"21002617","SHIL ASSOCIATES LLC","HOTEL TAX","50 N MARTINGALE RD",,"SCHAUMBURG","IL","60173 - 2065","POINT (-88.031849 42.03024)"
"20000169","SHIVA HOSPITALITY CORP","HOTEL TAX","1900 N MANNHEIM RD",,"MELROSE PARK","IL","60160","POINT (-87.88388 41.90796)"
"21002373","SHIVESH LLC","HOTEL TAX","4230 OLD RIVER RD",,"SCHILLER PARK","IL","60176 - 1630","POINT (-87.860693 41.95595)"
"10795458","SHIV HEIGHTS, LLC","HOTEL TAX","2745 S RTE 45 52",,"KANKAKEE","IL","60901 - 7205","POINT (-87.868827 41.082179)"
"20000025","SHRIN HOSPITALITY INC","HOTEL TAX","2175 E TOUHY AVE",,"DES PLAINES","IL","60018","POINT (-87.870979 42.010005)"
"20000014","SIDDHI VINAYAK INC","HOTEL TAX","3219 TALL GRASS DR",,"NAPERVILLE","IL","60564","POINT (-88.217136 41.7053)"
"11113050","SIDRA BURR RIDGE LLC","HOTEL TAX","1200 BURR RIDGE PARKWAY","STE 500","BURR RIDGE","IL","60527","POINT (-87.910315 41.756398)"
"20000160","SIXGOLD HOSPITALITY LLC","HOTEL TAX","1450 E DUNDEE RD",,"PALATINE","IL","60074","POINT (-88.010417 42.139168)"
"21002107","SKVN HOTELS LLC","HOTEL TAX","1800 WINNETKA CIR",,"ROLLING MEADOWS","IL","60008 - 1376","POINT (-88.031625 42.091624)"
"21001478","SKYLINE CM ARLINGTON LLC","HOTEL TAX","100 W ALGONQUIN RD",,"ARLINGTON HEIGHTS","IL","60005 - 4404","POINT (-87.985304 42.045138)"
"20000148","SKYLINE MOTEL","HOTEL TAX","8136 JOLIET RD",,"MCCOOK","IL","60525","POINT (-87.824034 41.80289)"
"20000631","SKYWAY MOTEL & SUITES INC","HOTEL TAX","9132 S STONY ISLAND AVE",,"CHICAGO","IL","60617 - 3511","POINT (-87.585473 41.728334)"
"10850621","SMART HOTELS OLYMPIA CHICAGO LLC","HOTEL TAX","5225 S HARPER AVE","5TH FL","CHICAGO","IL","60615 - 4113","POINT (-87.589083 41.800169)"
"21001749","SMART OLYMPIA ILLINOIS, LLC","HOTEL TAX","1411 E 53RD ST",,"CHICAGO","IL","60615 - 4542","POINT (-87.591145 41.799544)"
"21000135","SMASHOTELS CHICAGO, LLC","HOTEL TAX","228 E ONTARIO ST",,"CHICAGO","IL","60611 - 3258","POINT (-87.62148 41.89339)"
"21002374","SMG BLM CHICAGO LLC","HOTEL TAX","55 E ONTARIO ST",,"CHICAGO","IL","60611 - 2727","POINT (-87.62631 41.893324)"
"21001101","SMP HOSPITALITY LLC","HOTEL TAX","3922 HARLEM AVE",,"LYONS","IL","60534 - 1208","POINT (-87.802707 41.820401)"
"21001343","SNP3 INC","HOTEL TAX","100 BUSSE RD",,"ELK GROVE VILLAGE","IL","60007 - 1624","POINT (-87.959993 42.023947)"
"10855900","SOHO HOUSE CHICAGO LLC","HOTEL TAX","113-125 N. GREEN ST",,"CHICAGO","IL","60607","POINT (-87.648596 41.883901)"
"21002461","SONDER HOSPITALITY USA INC.","HOTEL TAX",,,,,,
"21001938","SONO HOSPITALITY GROUP LLC","HOTEL TAX","1428 N CLEVELAND AVE",,"CHICAGO","IL","60610 - 1108","POINT (-87.640918 41.908215)"
"10795744","SOUTHERN EXPOSURE LP","HOTEL TAX","1450 E TOUHY AVE",,"DES PLAINES","IL","60018 - 3332","POINT (-87.886969 42.009685)"
"21001826","SOUTH HOLLAND MOTEL LLC","HOTEL TAX","17225 HALSTED ST",,"SOUTH HOLLAND","IL","60473 - 2731","POINT (-87.636326 41.581725)"
"20000633","SOUTH SHORE MOTEL & SUITES INC","HOTEL TAX",,,,,,
"20000063","SPIRIT AIRLINES INC","HOTEL TAX","10000 W OHARE AVE",,"CHICAGO","IL","60666","POINT (-87.895169 41.980739)"
"21001872","SRE ESA OPCO HOLDCO, LLC","HOTEL TAX","51 E STATE PKWY",,"SCHAUMBURG","IL","60173 - 5336","POINT (-88.078011 42.055544)"
"11104408","SSH TRS M LLC","HOTEL TAX","1311 AMERICAN LN",,"SCHAUMBURG","IL","60173","POINT (-88.047671 42.047448)"
"20000095","STAR-LITE MOTEL","HOTEL TAX","466 W 162ND ST",,"SOUTH HOLLAND","IL","60473","POINT (-87.628757 41.60097)"
"21003731","STARMAX HOTELS INC","HOTEL TAX","3360 HIGHLAND RD",,"NORTHBROOK","IL","60062 - 6906","POINT (-87.864005 42.107292)"
"21004133","STATE STREET OPERATING VII, LLC","HOTEL TAX","600 N STATE ST",,"CHICAGO","IL","60654 - 3853","POINT (-87.628083 41.892507)"
"21001026","STAY ALFRED, INC","HOTEL TAX","2818 N SULLIVAN RD STE 100",,"SPOKANE VALLEY","WA","99216 - 5074","POINT (-117.196746 47.683164)"
"21003690","STAYWELL HOSPITALITY LLC","HOTEL TAX","953 W FULTON MARKET # 955",,"CHICAGO","IL","60607 - 2258","POINT (-87.65143 41.88674)"
"21002649","STJ CHICAGO LLC","HOTEL TAX","230 N MICHIGAN AVE",,"CHICAGO","IL","60601 - 5906","POINT (-87.624604 41.886687)"
"21003574","STUDY CHICAGO OPERATING LLC","HOTEL TAX","1227 E 60TH ST",,"CHICAGO","IL","60637 - 2801","POINT (-87.595783 41.78604)"
"20000791","SUMMIT HOTEL TRS 132, LLC","HOTEL TAX","28 N FRANKLIN ST",,"CHICAGO","IL","60606 - 3618","POINT (-87.635327 41.882876)"
"20000692","SUMMIT MOTEL, INC","HOTEL TAX","545 N HAMLIN AVE",,"PARK RIDGE","IL","60068 - 2927","POINT (-87.850407 42.017652)"
"20000133","SUNSTAR HOFFMAN INC","HOTEL TAX","2500 HASSELL RD",,"HOFFMAN ESTATES","IL","60169","POINT (-88.142137 42.062421)"
"20000133","SUNSTAR HOFFMAN INC","HOTEL TAX","2500 HASSELL RD",,"HOFFMAN ESTATES","IL","60169","POINT (-88.142137 42.062421)"
"21004203","SUPER SIX PROPERTIES LLC","HOTEL TAX","9110 WAUKEGAN RD",,"MORTON GROVE","IL","60053 - 2119","POINT (-87.799254 42.046294)"
"20000664","SURF HOTEL INVESTMENT LLC","HOTEL TAX","555 W SURF ST",,"CHICAGO","IL","60657 - 6020","POINT (-87.643619 41.934261)"
"21002573","SVC RANDOLPH STREET TRS LLC","HOTEL TAX","171 W RANDOLPH ST",,"CHICAGO","IL","60601 - 3121","POINT (-87.632683 41.884484)"
"21001875","SW PALOS HOSPITALITY LLC","HOTEL TAX","10600 S HARLEM AVE",,"WORTH","IL","60482 - 1247","POINT (-87.797901 41.699014)"
"21000033","SYBARIS CLUBS INTERNATIONAL INC.","HOTEL TAX","2430 E RAND RD",,"ARLINGTON HEIGHTS","IL","60004 - 5877","POINT (-87.952529 42.093935)"
"20000364","SYDELL HOSTEL MANAGER LLC","HOTEL TAX","19 E OHIO",,"CHICAGO","IL","60611","POINT (-87.627381 41.892505)"
"21004091","TALANK LLC","HOTEL TAX","15941 WOOD ST",,"HARVEY","IL","60426 - 4930","POINT (-87.660722 41.599516)"
"20000157","TBFS INVESTMENTS LLC - 1147","HOTEL TAX","1147 W DIVERSEY PKWY",,"CHICAGO","IL","60614","POINT (-87.657691 41.932602)"
"21001466","TCA - 2020 WEST, LLC","HOTEL TAX","2444 N ELSTON AVE",,"CHICAGO","IL","60647 - 2002","POINT (-87.679354 41.926371)"
"10795484","THE PENINSULA CHICAGO LLC","HOTEL TAX","108 E SUPERIOR ST",,"CHICAGO","IL","60611","POINT (-87.624949 41.89574)"
"21000710","THE PUBLISHING HOUSE BED AND BREAKFAST, LLC","HOTEL TAX",,,,,,
"21002533","THEUR LLC","HOTEL TAX","17301 HALSTED ST BLDG A",,"SOUTH HOLLAND","IL","60473 - 2744","POINT (-87.636312 41.573957)"
"10795514","THE WHITEHALL HOTEL LLC","HOTEL TAX","105 E DELAWARE PL",,"CHICAGO","IL","60611","POINT (-87.625806 41.899181)"
"20000023","THE WRITE PEOPLE LTD","HOTEL TAX","211 N OAK PARK AVE",,"OAK PARK","IL","60302","POINT (-87.794539 41.890724)"
"20000036","THINK IT INC","HOTEL TAX","2540 N MANNHEIM RD",,"FRANKLIN PARK","IL","60131","POINT (-87.88445 41.92493)"
"10795644","THOR PALMER HOUSE HOTEL LLC","HOTEL TAX","17 E MONROE ST",,"CHICAGO","IL","60603","POINT (-87.626934 41.88077)"
"21004087","TINLEY PARK CHICAGO HOTELS LLC","HOTEL TAX","7255 183RD ST",,"TINLEY PARK","IL","60477 - 6201","POINT (-87.794033 41.558452)"
"21001833","TINLEY PARK CONVENTION CENTER HOTEL OPERATIONS, LLC.","HOTEL TAX","18501 CONVENTION CENTER DR",,"TINLEY PARK","IL","60477 - 5402",
"21002391","TOK HOTEL LLC","HOTEL TAX","950 LAKE SUPERIOR DR",,"MATTESON","IL","60443 - 1778","POINT (-87.739252 41.508013)"
"20000005","TOWER 303 LLC","HOTEL TAX","303 W ALGONQUIN RD",,"MT PROSPECT","IL","60056","POINT (-87.941703 42.029969)"
"21004015","TRADEAM LLC","HOTEL TAX","50 REMINGTON RD",,"SCHAUMBURG","IL","60173 - 3705","POINT (-88.07809 42.053567)"
"20000304","TRAVELSCAPE LLC","HOTEL TAX","10190 COVINGTON CROSS DR","STE 300","LAS VEGAS","NV","89144","POINT (-115.316314 36.188457)"
"20000033","TRIVEDI HOSPITALITY LLC","HOTEL TAX","2281 WESTVIEW DR",,"DES PLAINES","IL","60018","POINT (-87.903216 42.010822)"
"20000115","UNITED AIRLINES INC","HOTEL TAX","1200 E ALGONQUIN RD",,"ELK GROCE VILLAGE","IL","60007","POINT (-87.954736 42.033592)"
"21004123","UNITED CORPORATE HOUSING LLC","HOTEL TAX","9510 W 140TH ST",,"ORLAND PARK","IL","60462 - 1210",
"20000777","UNITED FAMILY CORPORATION","HOTEL TAX","355 E OHIO ST UNIT 1810",,"CHICAGO","IL","60611 - 5593","POINT (-87.61836 41.892651)"
"20000106","UNITED MOTELS INC","HOTEL TAX","17356 TORRENCE AVE",,"LANSING","IL","60438","POINT (-87.558966 41.580126)"
"21001705","UNIVERSITY CENTER PROPERTY, LLC","HOTEL TAX","353 N CLARK ST STE 730",,"CHICAGO","IL","60654 - 3453","POINT (-87.63104 41.888866)"
"21001808","US HOSPITALITY LLC","HOTEL TAX","16920 HALSTED ST",,"HARVEY","IL","60426 - 6164","POINT (-87.636462 41.583253)"
"21001455","VACASA LLC","HOTEL TAX","999 W MAIN ST",,"BOISE","ID","83702 - 9000","POINT (-116.205415 43.616588)"
"20000615","VALEX LLC","HOTEL TAX","8800 W 159TH ST",,"ORLAND PARK","IL","60462 - 5618","POINT (-87.832496 41.601762)"
"21001869","VEGABOND PROPERTIES, LLC","HOTEL TAX","1128 W FRY ST # 2-3",,"CHICAGO","IL","60642 - 4116","POINT (-87.656355 41.897342)"
"21002177","VH-M ROSEMONT LLC","HOTEL TAX","6155 N RIVER RD",,"ROSEMONT","IL","60018 - 5160","POINT (-87.860077 41.988898)"
"20000030","VINAYAKA HOSPITALITY SCHAUMBURG LLC","HOTEL TAX","1725 E ALGONQUIN RD",,"SCHAUMBURG","IL","60173","POINT (-88.0364 42.065156)"
"20000031","VINAYAKA HOSPITALITY WESTCHESTER LLC","HOTEL TAX","2222 ENTERPRISE DR",,"WESTCHESTER","IL","60194","POINT (-87.908922 41.846871)"
"20000735","VIRGIN HOTELS CHICAGO LLC","HOTEL TAX",,,,,,
"21004069","VISION HOTELS LLC","HOTEL TAX","17345 HALSTED ST",,"SOUTH HOLLAND","IL","60473 - 2744","POINT (-87.636314 41.573918)"
"20000110","VMM INC","HOTEL TAX","5435 S ARCHER AVE",,"CHICAGO","IL","60638","POINT (-87.744071 41.798442)"
"21000073","V-T II LLC","HOTEL TAX","4605 N HARLEM AVE",,"HARWOOD HEIGHTS","IL","60706 - 4713","POINT (-87.807212 41.96403)"
"21002008","WABASH 11TH LLC","HOTEL TAX","59 E 11TH ST",,"CHICAGO","IL","60605 - 2313","POINT (-87.625271 41.869285)"
"10853234","WARWICK CHICAGO CORPORATION","HOTEL TAX","701 N MICHIGAN AVE",,"CHICAGO","IL","60611 - 2501","POINT (-87.624157 41.895078)"
"20000592","WATERTON SKOKIE HOTEL PROPERTY COMPANY LLC","HOTEL TAX","9599 SKOKIE BLVD",,"SKOKIE","IL","60077 - 1314","POINT (-87.746595 42.055038)"
"21003506","WAVELAND ROOM LLC","HOTEL TAX","2 ETHEL RD STE 205A",,"EDISON","NJ","08817 - 2839","POINT (-74.394373 40.541732)"
"10808088","WEGLARZ HOTEL III LLC","HOTEL TAX","6624 S CICERO AVE",,"BEDFORD PARK","IL","60638","POINT (-87.742183 41.772146)"
"10808085","WEGLARZ HOTEL IV LLC","HOTEL TAX","6638 S CICERO AVE",,"BEDFORD PARK","IL","60638","POINT (-87.742175 41.77178)"
"20000051","WEGLARZ HOTEL V LLC","HOTEL TAX","6550 S CICERO AVE",,"BEDFORD PARK","IL","60638","POINT (-87.742189 41.772317)"
"11113616","WHI CHICAGO NORTHWEST MANAGEMENT LLC","HOTEL TAX","4800 HOFFMAN BLVD",,"HOFFMAN ESTATES","IL","60192","POINT (-88.195786 42.069544)"
"20000741","WICKER PARK INN, INC.","HOTEL TAX",,,,,,
"20000049","WILRI LLC","HOTEL TAX","3205 OLD GLENVIEW RD",,"WILMETTE","IL","60091","POINT (-87.755667 42.065043)"
"11110096","WOODFIELD HOSPITALITY LLC","HOTEL TAX","1800 E GOLF RD",,"SCHAUMBURG","IL","60173 - 5004","POINT (-88.033487 42.050727)"
"11113048","WPS SCHAUMBURG LLC","HOTEL TAX","800 NATIONAL PARKWAY",,"SCHAUMBURG","IL","60173","POINT (-88.050221 42.044286)"
"21002171","ZENCITY ILLINOIS, LLC","HOTEL TAX","1825 W NORTH AVE",,"CHICAGO","IL","60622 - 1309","POINT (-87.673539 41.910555)"
"21004125","ZENITH ASSET COMPANY III, LLC","HOTEL TAX","3205 OLD GLENVIEW RD",,"WILMETTE","IL","60091 - 2942","POINT (-87.755667 42.065043)"
"11119134","Z P CORPORATION, INC","HOTEL TAX","3524 W 159TH ST",,"MARKHAM","IL","60428 - 4012","POINT (-87.702799 41.600758)"
"21001612",,"HOTEL TAX","3310 N LAKEWOOD AVE",,"CHICAGO","IL","60657 - 1408","POINT (-87.661437 41.942017)"
"21003868",,"HOTEL TAX","1854 N LINCOLN AVE # 1",,"CHICAGO","IL","60614 - 5812","POINT (-87.63544 41.915918)"
"21004189",,"HOTEL TAX","1136 N WINCHESTER AVE",,"CHICAGO","IL","60622 - 5983","POINT (-87.676028 41.902473)"
"21004076",,"HOTEL TAX","408 OWEN CT",,"PROSPECT HEIGHTS","IL","60070 - 1327","POINT (-87.929125 42.103711)"
"21001091",,"HOTEL TAX","1058 W FOSTER AVE",,"CHICAGO","IL","60640 - 2409","POINT (-87.657245 41.976368)"
"21002159",,"HOTEL TAX","1045 NOTTINGHAM LN",,"HOFFMAN ESTATES","IL","60169 - 2613","POINT (-88.105185 42.064704)"
"21000039",,"HOTEL TAX","2319 N HALSTED ST",,"CHICAGO","IL","60614 - 3222","POINT (-87.64871 41.924225)"
"21002693",,"HOTEL TAX","1538 FOWLER AVE",,"EVANSTON","IL","60201 - 3955","POINT (-87.706828 42.045902)"
"20000641",,"HOTEL TAX","540 N STATE ST",,"CHICAGO","IL","60654 - 7231","POINT (-87.628063 41.89195)"
"21003866",,"HOTEL TAX","1040 N AUSTIN BLVD",,"OAK PARK","IL","60302 - 1714","POINT (-87.775276 41.899701)"
"21001355",,"HOTEL TAX","2331 W HARRISON ST APT 3",,"CHICAGO","IL","60612 - 3558","POINT (-87.685112 41.873943)"
"21001949",,"HOTEL TAX","329 W SCHILLER ST",,"CHICAGO","IL","60610 - 1827","POINT (-87.637732 41.907613)"
"20000641",,"HOTEL TAX","540 N STATE ST",,"CHICAGO","IL","60654 - 7231","POINT (-87.628063 41.89195)"
"20000766",,"HOTEL TAX","1400 N HALSTED ST",,"CHICAGO","IL","60642 - 2618","POINT (-87.648141 41.906509)"
"21001713",,"HOTEL TAX","1844 N HUMBOLDT BLVD APT 1",,"CHICAGO","IL","60647 - 7460","POINT (-87.702356 41.915172)"
"21002470",,"HOTEL TAX","837 PAHL RD",,"ELK GROVE VLG","IL","60007 - 3328","POINT (-88.018166 42.009322)"
"21004077",,"HOTEL TAX","5808 N SAINT LOUIS AVE",,"CHICAGO","IL","60659 - 4483","POINT (-87.716322 41.986939)"
"21001789",,"HOTEL TAX","2115 N CALIFORNIA AVE UNIT 2",,"CHICAGO","IL","60647 - 3901","POINT (-87.697249 41.920014)"
"21001822",,"HOTEL TAX","215 E CHESTNUT ST APT 1503",,"CHICAGO","IL","60611 - 2327","POINT (-87.621217 41.898452)"
