"registration_account","company","tax_type","address_line_1","address_line_2","city","state","zip_code","location"
"11114252","235 ASHLAND HOLDINGS LTD","ALCOHOLIC BEVERAGE TAX / WHOLESALER","235 N ASHLAND AVE",,"CHICAGO","IL","60607 - 1401","POINT (-87.666929 41.886374)"
"11114251","350 BREWING CO LLC","ALCOHOLIC BEVERAGE TAX / WHOLESALER","7144 183RD ST",,"TINLEY PARK","IL","60477 - 3933","POINT (-87.791589 41.558631)"
"11106285","ACORVINA & CO.","ALCOHOLIC BEVERAGE TAX / WHOLESALER","4724 W SCHUBERT AVE",,"CHICAGO","IL","60639 - 1843","POINT (-87.745062 41.929552)"
"10837520","AGGRESSIVE DISTRIBUTION INC","ALCOHOLIC BEVERAGE TAX / WHOLESALER","2649 GREENLEAF AVE",,"ELK GROVE VILLAGE","IL","60007 - 5512","POINT (-87.938237 42.004377)"
"21000694","AJ MAKA DISTRIBUTING LLC","ALCOHOLIC BEVERAGE TAX / WHOLESALER","6713 CHARLESTON DR",,"DARIEN","IL","60561 - 3805","POINT (-87.967659 41.765752)"
"10833738","AJM IMPORTS, INC.","ALCOHOLIC BEVERAGE TAX / WHOLESALER","2060 JANICE AVE",,"MELROSE PARK","IL","60160 - 1011","POINT (-87.887487 41.914326)"
"11101083","ALBUS IMPORTS LLC","ALCOHOLIC BEVERAGE TAX / WHOLESALER","1733 W ESTES AVE",,"CHICAGO","IL","60626 - 2409","POINT (-87.673622 42.011456)"
"21003447","ALIGNED DISTRIBUTERS, LLC","ALCOHOLIC BEVERAGE TAX / WHOLESALER","120 W KINZIE ST",,"CHICAGO","IL","60654 - 4508","POINT (-87.631751 41.889196)"
"21003827","ALTITUDE WINE IMPORTS, LLC.","ALCOHOLIC BEVERAGE TAX / WHOLESALER","1000 N NORTH BRANCH ST",,"CHICAGO","IL","60642 - 4280","POINT (-87.650693 41.900512)"
"21001903","ALULU BREW PUB","ALCOHOLIC BEVERAGE TAX / WHOLESALER","2011 S LAFLIN ST",,"CHICAGO","IL","60608 - 3007","POINT (-87.66373 41.854665)"
"11117023","ANDERSON GANNE WINES","ALCOHOLIC BEVERAGE TAX / WHOLESALER","470 W CROSSROADS PKWY STE B",,"BOLINGBROOK","IL","60440 - 3553","POINT (-88.084498 41.671345)"
"21001568","APOLOGUE LLC","ALCOHOLIC BEVERAGE TAX / WHOLESALER","3853 N AVERS AVE",,"CHICAGO","IL","60618 - 4001","POINT (-87.723884 41.951535)"
"21001795","ARCLIGHT BREWING COMPANY","ALCOHOLIC BEVERAGE TAX / WHOLESALER","544 N MAIN ST",,"WATERVLIET","MI","49098 - 9797","POINT (-86.25938 42.191357)"
"21002570","AUTHENTIC VINE CORPORATION","ALCOHOLIC BEVERAGE TAX / WHOLESALER","470 W CROSSROADS PKWY STE B",,"BOLINGBROOK","IL","60440 - 3553","POINT (-88.084498 41.671345)"
"21000131","AVE IMPORTS USA, LLC","ALCOHOLIC BEVERAGE TAX / WHOLESALER","7149 S FERDINAND AVE",,"BRIDGEVIEW","IL","60455 - 1181","POINT (-87.808745 41.761475)"
"21001707","AWE LLC","ALCOHOLIC BEVERAGE TAX / WHOLESALER","6400 W TOUHY AVE",,"NILES","IL","60714 - 4510","POINT (-87.786988 42.012064)"
"21002671","BAILEY'S PLACE #04, LLC","ALCOHOLIC BEVERAGE TAX / WHOLESALER","1517 N RAND RD",,"PALATINE","IL","60074","POINT (-88.006162 42.130695)"
"10793004","BALTIC FOOD DISTRIBUTING","ALCOHOLIC BEVERAGE TAX / WHOLESALER","5808 EAST AVE",,"COUNTRYSIDE","IL","60525 - 7228","POINT (-87.858699 41.784321)"
"11106795","BARKULIS GROUP INC","ALCOHOLIC BEVERAGE TAX / WHOLESALER","8424 47TH ST",,"LYONS","IL","60534 - 1760",
"10792910","BATTAGLIA DIST CO INC","ALCOHOLIC BEVERAGE TAX / WHOLESALER","2545 S ASHLAND AVE",,"CHICAGO","IL","60608 - 5320","POINT (-87.665848 41.845666)"
"10792949","BAUM WINE IMPORTS, INC.","ALCOHOLIC BEVERAGE TAX / WHOLESALER","55 W MONROE ST STE 2900",,"CHICAGO","IL","60603 - 5058","POINT (-87.629666 41.880707)"
"10833543","B C MERCHANTS","ALCOHOLIC BEVERAGE TAX / WHOLESALER","562 W 5TH AVE",,"NAPERVILLE","IL","60563 - 2901","POINT (-88.158806 41.780854)"
"11100855","BEGYLE BREWING LLC","ALCOHOLIC BEVERAGE TAX / WHOLESALER","1800 W CUYLER AVE STE 1E",,"CHICAGO","IL","60613 - 3892","POINT (-87.674385 41.955155)"
"10814579","BEIVUMA, INC.","ALCOHOLIC BEVERAGE TAX / WHOLESALER","2885 W DIEHL RD",,"NAPERVILLE","IL","60563 - 8742","POINT (-88.228396 41.799049)"
"21000897","BERGHOFF RESTAURANT CO OF DE","ALCOHOLIC BEVERAGE TAX / WHOLESALER","17 W ADAMS ST",,"CHICAGO","IL","60603 - 5502","POINT (-87.628416 41.879452)"
"10804115","BEV ART","ALCOHOLIC BEVERAGE TAX / WHOLESALER","10033 S WESTERN AVE",,"CHICAGO","IL","60643 - 1925","POINT (-87.681768 41.710839)"
"21002148","BIO SPIRITS USA LLC.","ALCOHOLIC BEVERAGE TAX / WHOLESALER","1300 W NATIONAL AVE STE C",,"ADDISON","IL","60101 - 3184","POINT (-88.020404 41.925162)"
"21002634","BIXI BREWERY","ALCOHOLIC BEVERAGE TAX / WHOLESALER","2515 N MILWAUKEE AVE",,"CHICAGO","IL","60647 - 2629","POINT (-87.703789 41.926875)"
"21001485","BLACKSTONE SPIRITS LLC","ALCOHOLIC BEVERAGE TAX / WHOLESALER","400 E MARGARET ST",,"THORNTON","IL","60476 - 1355","POINT (-87.608478 41.568296)"
"10841250","BLUE CRANE IMPORTS","ALCOHOLIC BEVERAGE TAX / WHOLESALER","1348 W CONCORD PL",,"CHICAGO","IL","60642 - 1508","POINT (-87.662078 41.912054)"
"11109532","BLUE NOSE BREWERY LLC","ALCOHOLIC BEVERAGE TAX / WHOLESALER","6119 EAST AVE",,"HODGKINS","IL","60525 - 4126","POINT (-87.858425 41.779341)"
"10792911","BLUE RIBBON PRODUCTS CO.","ALCOHOLIC BEVERAGE TAX / WHOLESALER","1511 OLYMPIC BLVD",,"JOLIET","IL","60431 - 7954","POINT (-88.173509 41.49518)"
"11118694","BODIN STREET WINES & SPIRITS LLC","ALCOHOLIC BEVERAGE TAX / WHOLESALER","5215 N RAVENSWOOD AVE STE 311",,"CHICAGO","IL","60640 - 1670","POINT (-87.674419 41.976568)"
"10793066","BOZIC'S IMPORTS & WHOLESALE LQ","ALCOHOLIC BEVERAGE TAX / WHOLESALER","710 HASTINGS DR",,"BUFFALO GROVE","IL","60089 - 6904","POINT (-87.941246 42.159985)"
"11112308","BREAKTHRU BEVERAGE IL LLC","ALCOHOLIC BEVERAGE TAX / WHOLESALER","3333 S LARAMIE AVE",,"CICERO","IL","60804 - 4520","POINT (-87.753503 41.830353)"
"11118692","BROKEN LANTERN ORGANIC BEER CO LLC","ALCOHOLIC BEVERAGE TAX / WHOLESALER","1461 W CORTEZ ST",,"CHICAGO","IL","60642 - 3902","POINT (-87.664922 41.900689)"
"21002521","BSD RETAIL, LLC","ALCOHOLIC BEVERAGE TAX / WHOLESALER","8401 CRAWFORD AVE STE 103",,"SKOKIE","IL","60076 - 2154","POINT (-87.727928 42.033771)"
"11101794","BUCKLEDOWN BREWING LLC","ALCOHOLIC BEVERAGE TAX / WHOLESALER","8700 47TH ST UNIT B",,"LYONS","IL","60534 - 1626",
"11105333","BUON GUSTO LLC","ALCOHOLIC BEVERAGE TAX / WHOLESALER","921 N HERMITAGE AVE APT 3",,"CHICAGO","IL","60622 - 5086","POINT (-87.671054 41.899169)"
"10792908","BURKE BEVERAGES, INC.","ALCOHOLIC BEVERAGE TAX / WHOLESALER","4900 S VERNON AVE",,"MC COOK","IL","60525 - 6000",
"21002523","BURNING BUSH BREWERY LLC","ALCOHOLIC BEVERAGE TAX / WHOLESALER","4014 N ROCKWELL ST",,"CHICAGO","IL","60618 - 3721","POINT (-87.693223 41.954802)"
"10834204","CAMARENA IMPORTS LLC","ALCOHOLIC BEVERAGE TAX / WHOLESALER","2224 S CALIFORNIA AVE",,"CHICAGO","IL","60608 - 3532","POINT (-87.695436 41.85115)"
"10837877","CANDID WINES LLC","ALCOHOLIC BEVERAGE TAX / WHOLESALER","2021 W CARROLL AVE STE C-102",,"CHICAGO","IL","60612 - 1601","POINT (-87.678115 41.887679)"
"21000337","CARTURK LLC","ALCOHOLIC BEVERAGE TAX / WHOLESALER","470 W CROSSROADS PKWY # D",,"BOLINGBROOK","IL","60440 - 3552","POINT (-88.084498 41.671345)"
"11102723","CAULFIELD'S RESTAURANT LTD","ALCOHOLIC BEVERAGE TAX / WHOLESALER","1324 DARTMOUTH RD",,"FLOSSMOOR","IL","60422 - 1905","POINT (-87.666416 41.537251)"
"10853674","CELLO VIA INC.","ALCOHOLIC BEVERAGE TAX / WHOLESALER","45 GORDON ST",,"ELK GROVE VILLAGE","IL","60007 - 1117","POINT (-87.981599 42.028447)"
"10844042","CH DISTILLERY","ALCOHOLIC BEVERAGE TAX / WHOLESALER","1629 S CLINTON ST",,"CHICAGO","IL","60616 - 1109","POINT (-87.640937 41.859316)"
"10803782","CHELSEA VENTURES, LLC","ALCOHOLIC BEVERAGE TAX / WHOLESALER","1601 S CANAL ST",,"CHICAGO","IL","60616 - 1105","POINT (-87.638999 41.859899)"
"10852631","CHICAGO DISTILLING CO LLC","ALCOHOLIC BEVERAGE TAX / WHOLESALER","2359 N MILWAUKEE AVE",,"CHICAGO","IL","60647 - 2924","POINT (-87.69919 41.924092)"
"21004233","CHURCHILL BEVERAGE COMPANY","ALCOHOLIC BEVERAGE TAX / WHOLESALER","2612 N ORCHARD ST APT 2",,"CHICAGO","IL","60614 - 4809","POINT (-87.646461 41.929696)"
"10850127","CHURCH STREET BREWING CO LLC","ALCOHOLIC BEVERAGE TAX / WHOLESALER","1480 INDUSTRIAL DR STE C",,"ITASCA","IL","60143 - 1857","POINT (-87.988545 41.968468)"
"10793024","CITY BEVERAGE-ARLINGTON HGHTS","ALCOHOLIC BEVERAGE TAX / WHOLESALER","1401 E ALGONQUIN RD",,"ARLINGTON HEIGHTS","IL","60005 - 4715","POINT (-87.951037 42.032078)"
"21002706","CITY BEVERAGE-ILLINOIS LLC","ALCOHOLIC BEVERAGE TAX / WHOLESALER","1401 E ALGONQUIN RD",,"ARLINGTON HEIGHTS","IL","60005 - 4715","POINT (-87.951037 42.032078)"
"10854393","CITY WINERY CHICAGO LLC","ALCOHOLIC BEVERAGE TAX / WHOLESALER","1200 W RANDOLPH ST",,"CHICAGO","IL","60607 - 1604","POINT (-87.656888 41.884369)"
"21001214","CLASSIC WINE SELECTIONS LLC","ALCOHOLIC BEVERAGE TAX / WHOLESALER","6400 W TOUHY AVE",,"NILES","IL","60714 - 4510","POINT (-87.786988 42.012064)"
"11106291","COMMON CULTURE BREWING CO.","ALCOHOLIC BEVERAGE TAX / WHOLESALER","4901 MAIN ST",,"SKOKIE","IL","60077 - 2515","POINT (-87.748975 42.033455)"
"11109076","COMPASS WINES & SPIRITS LLC","ALCOHOLIC BEVERAGE TAX / WHOLESALER","6400 W TOUHY AVE",,"NILES","IL","60714 - 4510","POINT (-87.786988 42.012064)"
"10792966","CONNOISSEUR WINE","ALCOHOLIC BEVERAGE TAX / WHOLESALER","7510 N CALDWELL AVE",,"NILES","IL","60714 - 3808","POINT (-87.791169 42.017318)"
"21001544","CORA IMPORTS, LTD","ALCOHOLIC BEVERAGE TAX / WHOLESALER","9620 JOLIET RD",,"COUNTRYSIDE","IL","60525 - 4138","POINT (-87.859429 41.782527)"
"21000079","CORKSCROO, INC.","ALCOHOLIC BEVERAGE TAX / WHOLESALER","2010 TOUHY AVE STE B",,"ELK GROVE VILLAGE","IL","60007 - 5336","POINT (-87.95306 42.007867)"
"11110581","CRACOVIA BRANDS INC.","ALCOHOLIC BEVERAGE TAX / WHOLESALER","10103 PACIFIC AVE",,"FRANKLIN PARK","IL","60131 - 1623","POINT (-87.8781 41.940538)"
"10793000","CREAM WINE CO., LLC","ALCOHOLIC BEVERAGE TAX / WHOLESALER","2455 S DAMEN AVE STE 900",,"CHICAGO","IL","60608 - 5231","POINT (-87.675685 41.84684)"
"10800357","CROWN IMPORTS LLC","ALCOHOLIC BEVERAGE TAX / WHOLESALER","131 S DEARBORN ST STE 1200",,"CHICAGO","IL","60603 - 5564","POINT (-87.629358 41.879773)"
"21000674","CRUSH IT WINE BROKERAGE INC.","ALCOHOLIC BEVERAGE TAX / WHOLESALER","3450 N LAKE SHORE DR APT 1101",,"CHICAGO","IL","60657 - 2857","POINT (-87.641491 41.945192)"
"21004195","CRUST LLC","ALCOHOLIC BEVERAGE TAX / WHOLESALER","5500 PARK PL",,"ROSEMONT","IL","60018 - 3730","POINT (-87.868239 41.978524)"
"21004070","DECARO IMPORT LLC","ALCOHOLIC BEVERAGE TAX / WHOLESALER","845 ERIE ST APT 2",,"OAK PARK","IL","60302 - 2091","POINT (-87.796782 41.891286)"
"21001790","DECLARATION WHOLESALE WINE & SPIRTS","ALCOHOLIC BEVERAGE TAX / WHOLESALER","5999 BUTTERFIELD RD",,"HILLSIDE","IL","60162 - 1457","POINT (-87.916176 41.874155)"
"21000113","DELUXE WINE & SPIRITS CO.","ALCOHOLIC BEVERAGE TAX / WHOLESALER","409 W ALGONQUIN RD",,"MT PROSPECT","IL","60056 - 5700","POINT (-87.942698 42.029949)"
"10835285","DEPARTMENT 28, INC.","ALCOHOLIC BEVERAGE TAX / WHOLESALER","1169 TOWER RD",,"SCHAUMBURG","IL","60173 - 4305","POINT (-88.050946 42.05645)"
"10801154","DE VINE DISTRIBUTORS LLC","ALCOHOLIC BEVERAGE TAX / WHOLESALER","3034 W DEVON AVE STE 104",,"CHICAGO","IL","60659 - 1400","POINT (-87.705911 41.997445)"
"11105755","D.G.L. DISTRIBUTING INC","ALCOHOLIC BEVERAGE TAX / WHOLESALER","650 ANTHONY TRL STE F",,"NORTHBROOK","IL","60062 - 2512","POINT (-87.853323 42.142668)"
"10830981","DISTINCTIVE IMPORTS LLC","ALCOHOLIC BEVERAGE TAX / WHOLESALER","2220 ARTHUR AVE",,"ELK GROVE VILLAGE","IL","60007 - 6011","POINT (-87.94865 41.995823)"
"21002700","DSW LIQUOR & WINE DISTRIBUTORS LLC","ALCOHOLIC BEVERAGE TAX / WHOLESALER","3262 S MORGAN ST",,"CHICAGO","IL","60608 - 6655","POINT (-87.651062 41.834362)"
"21001692","DYNAMITE BREWING LLC","ALCOHOLIC BEVERAGE TAX / WHOLESALER","5000 RIVER RD",,"SCHILLER PARK","IL","60176 - 1021","POINT (-87.861813 41.96993)"
"10793030","EAGLE EYE IMPORTS-ILLINOIS LLC","ALCOHOLIC BEVERAGE TAX / WHOLESALER","1600 S ASHLAND AVE",,"CHICAGO","IL","60608 - 2013","POINT (-87.666268 41.85948)"
"11100851","EATALY CHICAGO LLC","ALCOHOLIC BEVERAGE TAX / WHOLESALER","43 E OHIO ST",,"CHICAGO","IL","60611 - 2701","POINT (-87.62608 41.892519)"
"10847935","ELEVAGE WINES LLC","ALCOHOLIC BEVERAGE TAX / WHOLESALER","5999 BUTTERFIELD RD",,"HILLSIDE","IL","60162 - 1457","POINT (-87.916176 41.874155)"
"10792917","ELGIN BEVERAGE CO.","ALCOHOLIC BEVERAGE TAX / WHOLESALER","300 MILES PKWY",,"BARTLETT","IL","60103 - 2501","POINT (-88.265895 41.998592)"
"21002117","EL RANCHO, LLC","ALCOHOLIC BEVERAGE TAX / WHOLESALER","3411 W MCLEAN AVE # 3",,"CHICAGO","IL","60647 - 3729","POINT (-87.712427 41.918266)"
"21001261","EMMETT'S INC.","ALCOHOLIC BEVERAGE TAX / WHOLESALER","10934 S WESTERN AVE",,"CHICAGO","IL","60643 - 3228","POINT (-87.681302 41.694167)"
"11113703","EMMETTS PT LLC","ALCOHOLIC BEVERAGE TAX / WHOLESALER","110 N BROCKWAY ST",,"PALATINE","IL","60067 - 5063","POINT (-88.046206 42.112795)"
"21001639","ERIS BREWERY AND CIDER HOUSE LLC","ALCOHOLIC BEVERAGE TAX / WHOLESALER","4240 W IRVING PARK RD",,"CHICAGO","IL","60641 - 2937","POINT (-87.734151 41.953587)"
"10792918","EUCLID BEVERAGE, LTD.","ALCOHOLIC BEVERAGE TAX / WHOLESALER","200 OVERLAND DR",,"NORTH AURORA","IL","60542 - 1671","POINT (-88.334324 41.797826)"
"21001840","EURO LIQUOR LLC.","ALCOHOLIC BEVERAGE TAX / WHOLESALER","1128 TOWER RD",,"SCHAUMBURG","IL","60173 - 4306","POINT (-88.050416 42.0566)"
"11101975","EUROPEAN BEER IMPORTERS INC","ALCOHOLIC BEVERAGE TAX / WHOLESALER","2690 W LAKE ST",,"MELROSE PARK","IL","60160 - 3040","POINT (-87.866421 41.895208)"
"11106610","EXIT STRATEGY BREWING CO. LLC","ALCOHOLIC BEVERAGE TAX / WHOLESALER","7700 MADISON ST",,"FOREST PARK","IL","60130 - 1404","POINT (-87.817166 41.879369)"
"10792920","FANTIS IMPORTS, INC.","ALCOHOLIC BEVERAGE TAX / WHOLESALER","4100 W 40TH ST",,"CHICAGO","IL","60632 - 3904","POINT (-87.72678 41.819323)"
"10838101","FINE VINES LLC","ALCOHOLIC BEVERAGE TAX / WHOLESALER","2725 THOMAS ST",,"MELROSE PARK","IL","60160 - 2934","POINT (-87.867153 41.898697)"
"21001263","FLAPJACK ENTERPRISES LLC","ALCOHOLIC BEVERAGE TAX / WHOLESALER","6833 STANLEY AVE",,"BERWYN","IL","60402 - 5289","POINT (-87.794538 41.83329)"
"11113600","FORBIDDEN ROOT A BENEFIT LLC","ALCOHOLIC BEVERAGE TAX / WHOLESALER","1746 W CHICAGO AVE",,"CHICAGO","IL","60622 - 5012","POINT (-87.671328 41.896015)"
"10793033","FOTIS & SONS IMPORTS CHICAGO","ALCOHOLIC BEVERAGE TAX / WHOLESALER","540 WINDY POINT DR",,"GLENDALE HTS","IL","60139 - 2178","POINT (-88.065159 41.92227)"
"21001685","FOX DELUXE BREWING LLC","ALCOHOLIC BEVERAGE TAX / WHOLESALER","2299 CORNELL AVE",,"MONTGOMERY","IL","60538 - 3201","POINT (-88.375435 41.742504)"
"10835417","FRESH COAST DISTRIBUTORS","ALCOHOLIC BEVERAGE TAX / WHOLESALER","5999 BUTTERFIELD RD",,"HILLSIDE","IL","60162 - 1457","POINT (-87.916176 41.874155)"
"10792922","FRESH ISLAND JUICE CO., INC.","ALCOHOLIC BEVERAGE TAX / WHOLESALER","155 WHEELING RD",,"WHEELING","IL","60090 - 4807","POINT (-87.92905 42.135502)"
"21002404","FRESH START SPIRITS, LLC","ALCOHOLIC BEVERAGE TAX / WHOLESALER","972 S NORTHPOINT BLVD STE B",,"WAUKEGAN","IL","60085 - 8212","POINT (-87.890163 42.34187)"
"11115714","FRONTERA 900 LLC","ALCOHOLIC BEVERAGE TAX / WHOLESALER","900 W RANDOLPH ST",,"CHICAGO","IL","60607 - 2208","POINT (-87.650083 41.884497)"
"11115714","FRONTERA 900 LLC","ALCOHOLIC BEVERAGE TAX / WHOLESALER","900 W RANDOLPH ST",,"CHICAGO","IL","60607 - 2208","POINT (-87.650083 41.884497)"
"10793043","FULTON STREET BREWERY LLC","ALCOHOLIC BEVERAGE TAX / WHOLESALER","1800 W FULTON ST",,"CHICAGO","IL","60612 - 2512","POINT (-87.672259 41.886841)"
"11108125","GEMUTLICHKEIT LLC","ALCOHOLIC BEVERAGE TAX / WHOLESALER","13357 OLDE WESTERN AVE",,"BLUE ISLAND","IL","60406 - 2969","POINT (-87.680973 41.649945)"
"11108847","GINOS BREWING CO","ALCOHOLIC BEVERAGE TAX / WHOLESALER","500 N LA SALLE DR",,"CHICAGO","IL","60654 - 7109","POINT (-87.632665 41.890884)"
"10808668","GLOBAL WHOLESALER WINE & SPIRITS, INC.","ALCOHOLIC BEVERAGE TAX / WHOLESALER","860 CHADDICK DR STE C",,"WHEELING","IL","60090 - 6462","POINT (-87.91409 42.122037)"
"11104470","GOOD EARTH WINES LTD","ALCOHOLIC BEVERAGE TAX / WHOLESALER","6740 N SHERIDAN RD",,"CHICAGO","IL","60626 - 5589","POINT (-87.660831 42.004597)"
"11105567","GRAND PRIX BEVERAGE LLC","ALCOHOLIC BEVERAGE TAX / WHOLESALER","1731 WALL ST STE 300",,"MOUNT PROSPECT","IL","60056 - 5774","POINT (-87.94357 42.032359)"
"21002579","GRANITE CITY, INC.","ALCOHOLIC BEVERAGE TAX / WHOLESALER","801 N PLAZA DR",,"SCHAUMBURG","IL","60173 - 4919","POINT (-88.04284 42.044987)"
"11100853","GRANITE CITY RESTAURANT & OPERATIONS INC","ALCOHOLIC BEVERAGE TAX / WHOLESALER","14035 S LA GRANGE RD",,"ORLAND PARK","IL","60462 - 1321","POINT (-87.853828 41.635181)"
"11117249","GRANITE CITY RESTAURANT OPERATIONS INC","ALCOHOLIC BEVERAGE TAX / WHOLESALER","992 WILLOW RD STE 200",,"NORTHBROOK","IL","60062 - 6806","POINT (-87.802945 42.105527)"
"10792923","GRANT IMPORTING & DIST. CO","ALCOHOLIC BEVERAGE TAX / WHOLESALER","2701 23RD ST",,"BROADVIEW","IL","60155 - 4537","POINT (-87.863932 41.847336)"
"11105464","GREENSTAR BREWING","ALCOHOLIC BEVERAGE TAX / WHOLESALER","3800 N CLARK ST",,"CHICAGO","IL","60613 - 2812","POINT (-87.659751 41.95128)"
"11109078","GRUPO HACIENDA LLC","ALCOHOLIC BEVERAGE TAX / WHOLESALER","3414 W 31ST ST",,"CHICAGO","IL","60623 - 5031","POINT (-87.710567 41.837164)"
"10793041","H2 VINO","ALCOHOLIC BEVERAGE TAX / WHOLESALER","560 W ROSCOE ST",,"CHICAGO","IL","60657 - 3529","POINT (-87.644025 41.943355)"
"11104028","HAILSTORM BREWING COMPANY LLC","ALCOHOLIC BEVERAGE TAX / WHOLESALER","15625 CHAPEL HILL RD",,"ORLAND PARK","IL","60462 - 5934","POINT (-87.825498 41.606316)"
"10847820","HALF ACRE BEER CO.","ALCOHOLIC BEVERAGE TAX / WHOLESALER","2050 W BALMORAL AVE",,"CHICAGO","IL","60625 - 1011","POINT (-87.681189 41.979647)"
"10842617","HARRY AND DAVID LLC","ALCOHOLIC BEVERAGE TAX / WHOLESALER","2500 S PACIFIC HWY",,"MEDFORD","OR","97501 - 8724","POINT (-122.849254 42.301492)"
"10793072","HAUS WINE & SPIRITS, INC .","ALCOHOLIC BEVERAGE TAX / WHOLESALER","270 EISENHOWER LN N STE 4B","UNIT 4-B","LOMBARD","IL","60148 - 5420","POINT (-88.020784 41.841758)"
"10792927","HAYES BEER DIST., CO.","ALCOHOLIC BEVERAGE TAX / WHOLESALER","12160 S CENTRAL AVE",,"ALSIP","IL","60803 - 3406","POINT (-87.758591 41.673556)"
"10853603","HAYMARKET BREWING CO LLC","ALCOHOLIC BEVERAGE TAX / WHOLESALER","737-741 W. RANDOLPH STREET",,"CHICAGO","IA","60661","POINT (-87.646909 41.884336)"
"10852211","HEARTLAND BEVERAGE LLC","ALCOHOLIC BEVERAGE TAX / WHOLESALER","750 N 17TH ST",,"ST. CHARLES","IL","60174 - 1621","POINT (-88.334425 41.919159)"
"10792915","HERITAGE WINE CELLARS","ALCOHOLIC BEVERAGE TAX / WHOLESALER","6600 W HOWARD ST",,"NILES","IL","60714 - 3306","POINT (-87.791894 42.019202)"
"10833368","HERNANDEZ DISTRIBUTORS INC.","ALCOHOLIC BEVERAGE TAX / WHOLESALER","5632 W 120TH ST",,"ALSIP","IL","60803 - 3410","POINT (-87.759693 41.675189)"
"10841877","HIGH QUALITY ENTERPRISES CORP.","ALCOHOLIC BEVERAGE TAX / WHOLESALER","1099 PRATT BLVD",,"ELK GROVE VILLAGE","IL","60007 - 5120","POINT (-87.971188 41.998049)"
"21000128","HM-OPBC, LLC","ALCOHOLIC BEVERAGE TAX / WHOLESALER","155 S OAK PARK AVE",,"OAK PARK","IL","60302 - 2901","POINT (-87.794401 41.885798)"
"11105329","HOP BUTCHER FOR THE WORLD LLC","ALCOHOLIC BEVERAGE TAX / WHOLESALER","5435 N WOLCOTT AVE",,"CHICAGO","IL","60640 - 1017","POINT (-87.676549 41.980869)"
"21001626","HOPE BEVERAGE LLC","ALCOHOLIC BEVERAGE TAX / WHOLESALER","5999 BUTTERFIELD RD",,"HILLSIDE","IL","60162 - 1457","POINT (-87.916176 41.874155)"
"11101641","HORSE THIEF HOLLOW","ALCOHOLIC BEVERAGE TAX / WHOLESALER","10426 S WESTERN AVE",,"CHICAGO","IL","60643 - 2508","POINT (-87.681608 41.703998)"
"21002021","HOUBOLT HOLDING LLC","ALCOHOLIC BEVERAGE TAX / WHOLESALER","5521 W 110TH ST STE 4",,"OAK LAWN","IL","60453 - 2376","POINT (-87.75728 41.692342)"
"11106690","HUB WINE CORP.","ALCOHOLIC BEVERAGE TAX / WHOLESALER","5999 BUTTERFIELD RD",,"HILLSIDE","IL","60162 - 1457","POINT (-87.916176 41.874155)"
"11104406","ILLUMINATED BREW WORKS LLC","ALCOHOLIC BEVERAGE TAX / WHOLESALER","6186 N NORTHWEST HWY",,"CHICAGO","IL","60631 - 2126","POINT (-87.802179 41.994188)"
"11105334","IMPERIAL OAK BREWING","ALCOHOLIC BEVERAGE TAX / WHOLESALER","501 WILLOW BLVD STE 108",,"WILLOW SPRINGS","IL","60480 - 1710","POINT (-87.876771 41.734139)"
"10792970","IMPORTS INC. CHICAGO","ALCOHOLIC BEVERAGE TAX / WHOLESALER","1850 N LEAVITT ST",,"CHICAGO","IL","60647 - 4425","POINT (-87.682453 41.915215)"
"10816766","INTERTRADE USA CO.","ALCOHOLIC BEVERAGE TAX / WHOLESALER","152 MESSNER DR",,"WHEELING","IL","60090 - 6434","POINT (-87.91221 42.114079)"
"10793009","JAY MIDWEST, INC.","ALCOHOLIC BEVERAGE TAX / WHOLESALER","6356 OAKTON ST",,"MORTON GROVE","IL","60053 - 2723","POINT (-87.784119 42.026481)"
"10815738","J & B BRANDS CO.","ALCOHOLIC BEVERAGE TAX / WHOLESALER","3250 N KILPATRICK AVE",,"CHICAGO","IL","60641 - 4421","POINT (-87.743922 41.940205)"
"11117970","JBR BREWING LLC","ALCOHOLIC BEVERAGE TAX / WHOLESALER","2515 S WABASH AVE",,"CHICAGO","IL","60616 - 2308","POINT (-87.625384 41.846814)"
"10793025","JDI IMPORTS","ALCOHOLIC BEVERAGE TAX / WHOLESALER","2259 N MONTICELLO AVE",,"CHICAGO","IL","60647 - 2311","POINT (-87.718131 41.922594)"
"10792929","JFC INTERNATIONAL, INC.","ALCOHOLIC BEVERAGE TAX / WHOLESALER","815 TURNBERRY CT",,"HANOVER PARK","IL","60133 - 5477","POINT (-88.121005 41.975627)"
"10792995","JIN TRADING CORP.","ALCOHOLIC BEVERAGE TAX / WHOLESALER","2121 FOSTER AVE",,"WHEELING","IL","60090 - 6506","POINT (-87.914176 42.100172)"
"10793017","JOM WINE & SPIRIT, INC.","ALCOHOLIC BEVERAGE TAX / WHOLESALER","1720 N RAND RD",,"PALATINE","IL","60074 - 1128","POINT (-88.024232 42.141168)"
"10792940","JOSEPH MULLARKEY DIST.","ALCOHOLIC BEVERAGE TAX / WHOLESALER","2200 RIDGE DR",,"GLENVIEW","IL","60025 - 7607","POINT (-87.813058 42.0999)"
"21004096","JUDSON & MOORE DISTILLERY LLC","ALCOHOLIC BEVERAGE TAX / WHOLESALER","3057 N ROCKWELL ST BLDG 5",,"CHICAGO","IL","60618 - 7917","POINT (-87.69285 41.936798)"
"21002464","JUICY LUZY LLC","ALCOHOLIC BEVERAGE TAX / WHOLESALER","5435 W 110TH ST STE 2",,"OAK LAWN","IL","60453 - 2390","POINT (-87.755662 41.692407)"
"11104001","JVS WINES IMPORT IL CORP","ALCOHOLIC BEVERAGE TAX / WHOLESALER","510 E. ROUTE 22 ROAD",,"LAKE ZURICH","IL","60047",
"10793068","KERN IMPORTERS & MKGT, INC.","ALCOHOLIC BEVERAGE TAX / WHOLESALER","5320 N SHERIDAN RD APT 409",,"CHICAGO","IL","60640 - 7332","POINT (-87.655075 41.979083)"
"21002382","KESTRAL WINE AND SPIRITS LLC","ALCOHOLIC BEVERAGE TAX / WHOLESALER","77 E WALTON ST UNIT 27C",,"CHICAGO","IL","60611 - 2299","POINT (-87.625143 41.89998)"
"10848470","K-GROCERY & BEVERAGE INC","ALCOHOLIC BEVERAGE TAX / WHOLESALER","6220 MADISON CT",,"MORTON GROVE","IL","60053 - 3218","POINT (-87.778362 42.031902)"
"11114571","KINSLAHER BREWING CO.","ALCOHOLIC BEVERAGE TAX / WHOLESALER","6806 ROOSEVELT RD",,"OAK PARK","IL","60304 - 1905","POINT (-87.794044 41.865159)"
"10830721","KOVAL DISTILLERY","ALCOHOLIC BEVERAGE TAX / WHOLESALER","4241 N RAVENSWOOD AVE",,"CHICAGO","IL","60613 - 1199","POINT (-87.673897 41.958676)"
"10809803","KOVEX IMPORTS, INC.","ALCOHOLIC BEVERAGE TAX / WHOLESALER","5080 N KIMBERLY AVE UNIT 102",,"CHICAGO","IL","60630 - 1770","POINT (-87.743634 41.97298)"
"10792934","KOZOL BROTHERS INC.","ALCOHOLIC BEVERAGE TAX / WHOLESALER","2010 S BRIGGS ST",,"JOLIET","IL","60433 - 9576","POINT (-88.03671 41.490212)"
"21002088","LA CATRINA IMPORTS LLC","ALCOHOLIC BEVERAGE TAX / WHOLESALER","3509 W SHAKESPEARE AVE FL 1A",,"CHICAGO","IL","60647 - 3523","POINT (-87.713991 41.920062)"
"10814662","LAGNIAPPE LLC","ALCOHOLIC BEVERAGE TAX / WHOLESALER","PO BOX 187",,"GARDINER","NY","12525 - 0187",
"10855619","LAGUNITAS BREWING COMPANY","ALCOHOLIC BEVERAGE TAX / WHOLESALER","1843 S WASHTENAW AVE",,"CHICAGO","IL","60608 - 2423","POINT (-87.693138 41.856607)"
"21002013","LA HACIENDA BRANDS INC.","ALCOHOLIC BEVERAGE TAX / WHOLESALER","2420 S WOOD ST",,"CHICAGO","IL","60608 - 5306","POINT (-87.670854 41.849057)"
"10855718","LAKE EFFECT BREWING CO.","ALCOHOLIC BEVERAGE TAX / WHOLESALER","4727 W MONTROSE AVE STE C",,"CHICAGO","IL","60641 - 1504","POINT (-87.745945 41.960714)"
"10792951","LA PREFERDA, INC.","ALCOHOLIC BEVERAGE TAX / WHOLESALER","3400 W 35TH ST",,"CHICAGO","IL","60632 - 3323","POINT (-87.709248 41.828203)"
"21001811","LA SHIKIS MEXICAN SPIRITS, INC.","ALCOHOLIC BEVERAGE TAX / WHOLESALER","5520 N NORTHWEST HWY UNIT 103",,"CHICAGO","IL","60630 - 1116","POINT (-87.778907 41.981007)"
"10847991","LAST BAY BEER CO LLC","ALCOHOLIC BEVERAGE TAX / WHOLESALER","3155 N BROADWAY ST",,"CHICAGO","IL","60657 - 4508","POINT (-87.644355 41.939273)"
"11112512","LAVA IMPORTS LLC","ALCOHOLIC BEVERAGE TAX / WHOLESALER","1200 N ELLIS ST",,"BENSENVILLE","IL","60106 - 1119","POINT (-87.950728 41.990114)"
"11105635","LAV IMPORTS","ALCOHOLIC BEVERAGE TAX / WHOLESALER","5301 N CENTRAL AVE APT 1",,"CHICAGO","IL","60630 - 1347","POINT (-87.768448 41.977386)"
"10847260","LILIUM IMPORTS LLC","ALCOHOLIC BEVERAGE TAX / WHOLESALER","1480 OLD DEERFIELD RD UNIT 25-26",,"HIGHLAND PARK","IL","60035 - 3051","POINT (-87.819579 42.177097)"
"21001391","LO REZ BREWING LLC","ALCOHOLIC BEVERAGE TAX / WHOLESALER","2101 S CARPENTER ST",,"CHICAGO","IL","60608","POINT (-87.653099 41.853693)"
"10792936","LOUIS GLUNZ, INC.","ALCOHOLIC BEVERAGE TAX / WHOLESALER","7100 N CAPITOL DR",,"LINCOLNWOOD","IL","60712 - 2740","POINT (-87.717076 42.010198)"
"10792937","LOUIS GLUNZ WINE, INC","ALCOHOLIC BEVERAGE TAX / WHOLESALER","630 MARGATE DR",,"LINCOLNSHIRE","IL","60069 - 4247","POINT (-87.944341 42.185073)"
"11113534","LUCKY STRIKE CORP","ALCOHOLIC BEVERAGE TAX / WHOLESALER","417 N ASHLAND AVE",,"CHICAGO","IL","60622 - 6711","POINT (-87.667025 41.889303)"
"21002279","LUXE SPIRITS - ILLINOIS","ALCOHOLIC BEVERAGE TAX / WHOLESALER","12903 ROCKFISH LN",,"PLAINFIELD","IL","60585 - 2631","POINT (-88.24159 41.647136)"
"11113202","MALINKA IMPORTS LLC","ALCOHOLIC BEVERAGE TAX / WHOLESALER","516 LUNT AVE",,"SCHAUMBURG","IL","60193 - 4408","POINT (-88.093381 42.00167)"
"10839601","MARKET BROS., INC.","ALCOHOLIC BEVERAGE TAX / WHOLESALER","2275 E DEVON AVE",,"ELK GROVE VILLAGE","IL","60007 - 6805","POINT (-87.946567 41.993335)"
"21000070","MARZ COMMUNITY BREWING CO.","ALCOHOLIC BEVERAGE TAX / WHOLESALER","3630 S IRON ST",,"CHICAGO","IL","60608","POINT (-87.659326 41.827809)"
"21003829","MASSANOIS LLC","ALCOHOLIC BEVERAGE TAX / WHOLESALER","470 W CROSSROADS PKWY STE B",,"BOLINGBROOK","IL","60440 - 3553","POINT (-88.084498 41.671345)"
"21001427","MASTERSON ALES LLC","ALCOHOLIC BEVERAGE TAX / WHOLESALER","1516 E LAKE AVE",,"GLENVIEW","IL","60025 - 2113","POINT (-87.795106 42.080037)"
"21001427","MASTERSON ALES LLC","ALCOHOLIC BEVERAGE TAX / WHOLESALER","1516 E LAKE AVE",,"GLENVIEW","IL","60025 - 2113","POINT (-87.795106 42.080037)"
"21002434","MAVERICK ALES & LAGERS, LLC.","ALCOHOLIC BEVERAGE TAX / WHOLESALER","2137 W WALNUT ST",,"CHICAGO","IL","60612 - 2323","POINT (-87.680221 41.885813)"
"10792982","MAVERICK WINE CO. LLC","ALCOHOLIC BEVERAGE TAX / WHOLESALER","1101 N ELLIS ST",,"BENSENVILLE","IL","60106 - 1115","POINT (-87.95073 41.986953)"
"10818491","MAXWELL STREET TRADING, INC.","ALCOHOLIC BEVERAGE TAX / WHOLESALER","1040 W NATIONAL AVE STE B",,"ADDISON","IL","60101 - 3181","POINT (-88.015263 41.925627)"
"21001500","METROPOLITAN BREWING LLC","ALCOHOLIC BEVERAGE TAX / WHOLESALER","3057 N ROCKWELL ST",,"CHICAGO","IL","60618","POINT (-87.69285 41.936798)"
"21002009","MIDDLE BROW BREWPUB LLC","ALCOHOLIC BEVERAGE TAX / WHOLESALER","2002 N. MOZART STREET",,"CHICAGO","IL","60647","POINT (-87.698583 41.917574)"
"10838415","MID-OAK DISTILLERY, INC.","ALCOHOLIC BEVERAGE TAX / WHOLESALER","14800 S MCKINLEY AVE # A",,"POSEN","IL","60469 - 1547","POINT (-87.68284 41.624078)"
"10840596","MIDWAY WHOLESALE, INC.","ALCOHOLIC BEVERAGE TAX / WHOLESALER","1000 N ROHLWING RD",,"LOMBARD","IL","60148 - 1141","POINT (-88.032573 41.906556)"
"10792965","MIDWAY WHOLESALER CO.","ALCOHOLIC BEVERAGE TAX / WHOLESALER","1030 W DIVISION ST",,"CHICAGO","IL","60642 - 4205","POINT (-87.65457 41.90357)"
"10792975","MIDWAY WHOLESALER CO.","ALCOHOLIC BEVERAGE TAX / WHOLESALER","12665 S PULASKI RD",,"ALSIP","IL","60803 - 1912","POINT (-87.719128 41.662411)"
"10792976","MIDWAY WHOLESALER CO.","ALCOHOLIC BEVERAGE TAX / WHOLESALER","2166 MANNHEIM RD",,"DES PLAINES","IL","60018 - 2956","POINT (-87.887351 42.013933)"
"10792977","MIDWAY WHOLESALER CO.","ALCOHOLIC BEVERAGE TAX / WHOLESALER","5559 S ARCHER AVE",,"CHICAGO","IL","60638 - 3003","POINT (-87.747763 41.797925)"
"10792941","MIDWAY WHOLESALERS CO.","ALCOHOLIC BEVERAGE TAX / WHOLESALER","41 W 84TH ST",,"CHICAGO","IL","60620 - 1251","POINT (-87.62608 41.741782)"
"21000057","MIKERPHONE BREWING, LLC","ALCOHOLIC BEVERAGE TAX / WHOLESALER","121 GARLISCH DR",,"ELK GROVE VILLAGE","IL","60007 - 1322","POINT (-87.967806 42.029535)"
"21002340","MINUM SELECTIONS LLC","ALCOHOLIC BEVERAGE TAX / WHOLESALER","2210 N WASHTENAW AVE UNIT 501",,"CHICAGO","IL","60647 - 2469","POINT (-87.695504 41.922083)"
"11107350","MORE THAN GRAPES LLC","ALCOHOLIC BEVERAGE TAX / WHOLESALER","400 ANTHONY TRL STE B",,"NORTHBROOK","IL","60062 - 2505","POINT (-87.853211 42.145559)"
"10793028","NDC SYSTEMS LP","ALCOHOLIC BEVERAGE TAX / WHOLESALER","670 W NORTH FRONTAGE ROAD",,"BOLINGBROOK","IL","60440",
"10792946","NISHIMOTO TRADING CO., LTD.","ALCOHOLIC BEVERAGE TAX / WHOLESALER","545 FULLERTON AVE",,"CAROL STREAM","IL","60188 - 1803","POINT (-88.103227 41.91691)"
"10793035","NOVOVINO WINE CO. LLC","ALCOHOLIC BEVERAGE TAX / WHOLESALER","235 N PAULINA ST",,"CHICAGO","IL","60612 - 2514","POINT (-87.66945 41.886354)"
"21003970","OATH CHICAGO LLC","ALCOHOLIC BEVERAGE TAX / WHOLESALER","852 EAGLE DR",,"BENSENVILLE","IL","60106 - 1947","POINT (-87.952109 41.96616)"
"21000222","OLD TOWN COMMERCE, INC.","ALCOHOLIC BEVERAGE TAX / WHOLESALER","1546 N ORLEANS ST APT 808",,"CHICAGO","IL","60610 - 2490","POINT (-87.637605 41.91089)"
"21001758","OLIMAAR INC","ALCOHOLIC BEVERAGE TAX / WHOLESALER","39 W FACTORY RD",,"ADDISON","IL","60101 - 5101","POINT (-87.989921 41.913795)"
"21004206","ONE ALLEGIANCE BREWING","ALCOHOLIC BEVERAGE TAX / WHOLESALER","10215 S HARLEM AVE",,"CHICAGO RIDGE","IL","60415 - 1347","POINT (-87.798055 41.70626)"
"11101640","ONE TRICK PONY BREWERY","ALCOHOLIC BEVERAGE TAX / WHOLESALER","17845 CHAPPEL AVE",,"LANSING","IL","60438 - 4525","POINT (-87.572154 41.571242)"
"21000093","ON TOUR BREWING COMPANY, LLC","ALCOHOLIC BEVERAGE TAX / WHOLESALER","1725 W HUBBARD ST",,"CHICAGO","IL","60622 - 6213","POINT (-87.670505 41.889819)"
"21002493","ORKENOY, LLC","ALCOHOLIC BEVERAGE TAX / WHOLESALER","1757 N KIMBALL AVE FL 1",,"CHICAGO","IL","60647 - 4805","POINT (-87.711821 41.913417)"
"21002697","OSTRY CORP 1 LLC","ALCOHOLIC BEVERAGE TAX / WHOLESALER","12701 S RIDGELAND AVE",,"PALOS HEIGHTS","IL","60463 - 2242","POINT (-87.777554 41.660597)"
"21002680","OSTRY ENTERPRISES LLC","ALCOHOLIC BEVERAGE TAX / WHOLESALER","4837 S CENTRAL AVE",,"CHICAGO","IL","60638","POINT (-87.762595 41.804309)"
"21001927","OSWEGO BREWING CO LLC","ALCOHOLIC BEVERAGE TAX / WHOLESALER","61 MAIN ST",,"OSWEGO","IL","60543 - 8592","POINT (-88.352215 41.684019)"
"21000111","PANIC BREWING LLC","ALCOHOLIC BEVERAGE TAX / WHOLESALER","4055 W PETERSON AVE STE REAR",,"CHICAGO","IL","60646 - 6072","POINT (-87.731274 41.990091)"
"21000054","PARIS SPIRITS LLC.","ALCOHOLIC BEVERAGE TAX / WHOLESALER","1601 S CANAL ST",,"CHICAGO","IL","60616 - 1105","POINT (-87.638999 41.859899)"
"11105553","PECKISH PIG","ALCOHOLIC BEVERAGE TAX / WHOLESALER","623 HOWARD ST",,"EVANSTON","IL","60202 - 3941","POINT (-87.679363 42.019467)"
"10792948","PEERLESS LIQUORS, INC.","ALCOHOLIC BEVERAGE TAX / WHOLESALER","4900 W FLOURNOY ST",,"CHICAGO","IL","60644 - 5177","POINT (-87.746283 41.87206)"
"21002452","PHASE THREE BREWING COMPANY","ALCOHOLIC BEVERAGE TAX / WHOLESALER","932 DONATA CT",,"LAKE ZURICH","IL","60047 - 5025","POINT (-88.074509 42.204607)"
"21002443","PILOT PROJECT BREWING LLC","ALCOHOLIC BEVERAGE TAX / WHOLESALER","2140 N MILWAUKEE AVE",,"CHICAGO","IL","60647 - 4015","POINT (-87.692868 41.920193)"
"11112487","PIPEWORKS PRODUCTION LLC","ALCOHOLIC BEVERAGE TAX / WHOLESALER","3912 W MCLEAN AVE UNIT A",,"CHICAGO","IL","60647 - 5972","POINT (-87.725585 41.918103)"
"21001643","POLISH FOLKLORE IMPORT CO., INC.","ALCOHOLIC BEVERAGE TAX / WHOLESALER","1128 TOWER RD",,"SCHAUMBURG","IL","60173 - 4306","POINT (-88.050416 42.0566)"
"11118820","POLLYANNA BREWING CO","ALCOHOLIC BEVERAGE TAX / WHOLESALER","431 TALCOTT AVE",,"LEMONT","IL","60439 - 3744","POINT (-87.997725 41.675537)"
"21002343","PRAIRIE KRAFTS INC.","ALCOHOLIC BEVERAGE TAX / WHOLESALER","1310 BUSCH PKWY",,"BUFFALO GROVE","IL","60089 - 4505","POINT (-87.935269 42.171605)"
"21001797","PRAIRIE STATE BEVERAGE LTD","ALCOHOLIC BEVERAGE TAX / WHOLESALER","1511 OLYMPIC BLVD",,"JOLIET","IL","60431 - 7954","POINT (-88.173509 41.49518)"
"11118822","PREMIUM WINES & SPIRITS INC.","ALCOHOLIC BEVERAGE TAX / WHOLESALER","5999 BUTTERFIELD RD",,"HILLSIDE","IL","60162 - 1457","POINT (-87.916176 41.874155)"
"21002473","PRINTER'S ROW BREWING","ALCOHOLIC BEVERAGE TAX / WHOLESALER","4206 N HAMLIN AVE",,"CHICAGO","IL","60618 - 2016","POINT (-87.722808 41.957511)"
"21001434","PROMARK INTERNATIONAL DISTRIBUTING INC","ALCOHOLIC BEVERAGE TAX / WHOLESALER",,,,,,
"10792974","PURE WINE CO.","ALCOHOLIC BEVERAGE TAX / WHOLESALER","5999 BUTTERFIELD RD",,"HILLSIDE","IL","60162 - 1457","POINT (-87.916176 41.874155)"
"10839603","QUINCY STREET DISTILLERY","ALCOHOLIC BEVERAGE TAX / WHOLESALER","39 E QUINCY ST",,"RIVERSIDE","IL","60546 - 2128","POINT (-87.817449 41.827394)"
"21001925","REDUVA LLC","ALCOHOLIC BEVERAGE TAX / WHOLESALER","5999 BUTTERFIELD RD",,"HILLSIDE","IL","60162 - 1457","POINT (-87.916176 41.874155)"
"11102868","RESCO 8 HOLDINGS LLC","ALCOHOLIC BEVERAGE TAX / WHOLESALER","1927 W NORTH AVE",,"CHICAGO","IL","60622 - 1316","POINT (-87.676115 41.910514)"
"10839751","REVOLUTION BEER LLC","ALCOHOLIC BEVERAGE TAX / WHOLESALER","3340 N KEDZIE AVE",,"CHICAGO","IL","60618 - 5722","POINT (-87.707675 41.942204)"
"10818361","REVOLUTION BREWING LLC","ALCOHOLIC BEVERAGE TAX / WHOLESALER","2323 N MILWAUKEE AVE",,"CHICAGO","IL","60647 - 2924","POINT (-87.698423 41.923628)"
"21001529","R. F. BEVERAGE LLC","ALCOHOLIC BEVERAGE TAX / WHOLESALER","185 W INDUSTRIAL DR",,"ELMHURST","IL","60126 - 1601","POINT (-87.944796 41.919299)"
"21002285","RIGHT BEE, LLC","ALCOHOLIC BEVERAGE TAX / WHOLESALER","1830 N KOSTNER AVE",,"CHICAGO","IL","60639 - 5102","POINT (-87.736243 41.914444)"
"10852146","RIVER NORTH DISTRIBUTING","ALCOHOLIC BEVERAGE TAX / WHOLESALER","4300 S HALSTED ST",,"CHICAGO","IL","60609 - 3452","POINT (-87.645737 41.814899)"
"10793044","R & M BRANDS, INC.","ALCOHOLIC BEVERAGE TAX / WHOLESALER","1057 ZYGMUNT CIR",,"WESTMONT","IL","60559 - 2678","POINT (-87.981842 41.776299)"
"10811110","ROBERT HOUDE WINES LLC","ALCOHOLIC BEVERAGE TAX / WHOLESALER","224 VALLEY VIEW DR",,"ST CHARLES","IL","60175 - 4647","POINT (-88.355731 41.912698)"
"11100622","ROCK BOTTOM OF MINNEAPOLIS INC.","ALCOHOLIC BEVERAGE TAX / WHOLESALER","1 W GRAND AVE FL 1",,"CHICAGO","IL","60654 - 4806","POINT (-87.628289 41.89169)"
"10830551","RODINIA LLC","ALCOHOLIC BEVERAGE TAX / WHOLESALER","5999 BUTTERFIELD RD",,"HILLSIDE","IL","60162 - 1457","POINT (-87.916176 41.874155)"
"11103427","ROOTSTOCK WINE CO LLC","ALCOHOLIC BEVERAGE TAX / WHOLESALER","470 W CROSSROADS PKWY STE B",,"BOLINGBROOK","IL","60440 - 3553","POINT (-88.084498 41.671345)"
"10793070","ROSE IMPORTING & DISTRIBUTING","ALCOHOLIC BEVERAGE TAX / WHOLESALER","13959 KOSTNER AVE",,"CRESTWOOD","IL","60445 - 2205","POINT (-87.72801 41.638792)"
"11100288","SABACA BEVERAGE GROUP INC.","ALCOHOLIC BEVERAGE TAX / WHOLESALER","470 W CROSSROADS PKWY STE B",,"BOLINGBROOK","IL","60440 - 3553","POINT (-88.084498 41.671345)"
"10793045","SABACA BEVERAGE GROUP, INC.","ALCOHOLIC BEVERAGE TAX / WHOLESALER","100 LEXINGTON DR STE 202",,"BUFFALO GROVE","IL","60089 - 6937","POINT (-87.94276 42.155012)"
"21002545","SAINT ERRANT BREWING LLC","ALCOHOLIC BEVERAGE TAX / WHOLESALER","4020 N DAMEN AVE UNIT 502",,"CHICAGO","IL","60618 - 3082","POINT (-87.678753 41.955078)"
"10838854","SANCHEZ IMPORTS LLC","ALCOHOLIC BEVERAGE TAX / WHOLESALER","3201 TOLLVIEW DR",,"ROLLING MEADOWS","IL","60008 - 3705","POINT (-88.020108 42.057541)"
"10792960","SCHAMBERGER BROS., INC.","ALCOHOLIC BEVERAGE TAX / WHOLESALER","101 E HILL ST",,"VILLA PARK","IL","60181 - 1841","POINT (-87.975204 41.903132)"
"10792956","SCHUMACHER & SONS DIST., INC.","ALCOHOLIC BEVERAGE TAX / WHOLESALER","4521 N KEDZIE AVE",,"CHICAGO","IL","60625 - 4510","POINT (-87.708328 41.963684)"
"10812664","SELECT BEVERAGE CO., INC.","ALCOHOLIC BEVERAGE TAX / WHOLESALER","2102 COACH DR",,"NAPERVILLE","IL","60565 - 2473","POINT (-88.122619 41.728655)"
"21003956","SIERRA VINTAGE LTD","ALCOHOLIC BEVERAGE TAX / WHOLESALER","2532 W FULLERTON AVE",,"CHICAGO","IL","60647 - 6307","POINT (-87.691391 41.924908)"
"21001152","SIMPLE FARMER WINES","ALCOHOLIC BEVERAGE TAX / WHOLESALER","471 W CROSSROADS PKWY STE B",,"BOLINGBROOK","IL","60440 - 4937","POINT (-88.085181 41.671229)"
"10813255","SJ CINCO BLANCO'S, INC.","ALCOHOLIC BEVERAGE TAX / WHOLESALER","137 TOWER DR",,"BURR RIDGE","IL","60527 - 5779","POINT (-87.911918 41.761753)"
"21001867","SKEPTIC DISTILLERY CO","ALCOHOLIC BEVERAGE TAX / WHOLESALER","2525 W LE MOYNE ST",,"MELROSE PARK","IL","60160 - 1830","POINT (-87.86553 41.905698)"
"21002609","SKYLINE BEVERAGES LLC","ALCOHOLIC BEVERAGE TAX / WHOLESALER","1765 W CORTLAND CT STE B",,"ADDISON","IL","60101 - 4237","POINT (-88.03046 41.909887)"
"10792959","S. L. J. GROUP, INC.","ALCOHOLIC BEVERAGE TAX / WHOLESALER","28188 N BALLARD DR",,"LAKE FOREST","IL","60045 - 4503","POINT (-87.900727 42.271746)"
"11108468","SMYLIE BROTHERS BREWING CO LLC","ALCOHOLIC BEVERAGE TAX / WHOLESALER","1615 OAK AVE",,"EVANSTON","IL","60201 - 3611","POINT (-87.686833 42.047551)"
"10851237","SOLBERG DISTILLING LLC","ALCOHOLIC BEVERAGE TAX / WHOLESALER","2010 W FULTON ST",,"CHICAGO","IL","60612 - 2359","POINT (-87.677358 41.886782)"
"21002674","SOLEMN OATH BREWERY LLC","ALCOHOLIC BEVERAGE TAX / WHOLESALER","1661 QUINCY AVE. SUITE 179",,"NAPERVILLE","IL","60540","POINT (-88.19458 41.774789)"
"10792991","SOUTHERN GLAZER'S WINE & SPIRITS OF IL L","ALCOHOLIC BEVERAGE TAX / WHOLESALER","250 N ARTESIAN AVE",,"CHICAGO","IL","60612 - 2149","POINT (-87.687811 41.886114)"
"11115638","SOUTHERN HOSPITALIUTY CONCESSIONS LLC","ALCOHOLIC BEVERAGE TAX / WHOLESALER","10350 SANTA MONICA BLVD STE 350",,"LOS ANGELES","CA","90025 - 5075","POINT (-118.422907 34.057991)"
"11110926","SOUTHPORT BREWPUB LLC","ALCOHOLIC BEVERAGE TAX / WHOLESALER","3446 N SOUTHPORT AVE FL 1",,"CHICAGO","IL","60657 - 1420","POINT (-87.663953 41.944634)"
"10792953","STANLEY STAWSKI DIST.CO., INC.","ALCOHOLIC BEVERAGE TAX / WHOLESALER","1811 W FULLERTON AVE",,"ADDISON","IL","60101 - 1475","POINT (-88.034244 41.918878)"
"21002695","STAR DISTRIBUTING CO., LLC","ALCOHOLIC BEVERAGE TAX / WHOLESALER","2600 S 25TH AVE",,"BROADVIEW","IL","60155","POINT (-87.862459 41.85515)"
"11118739","STELLAR CELLARS LLC","ALCOHOLIC BEVERAGE TAX / WHOLESALER","470 W CROSSROADS PKWY STE B",,"BOLINGBROOK","IL","60440 - 3553","POINT (-88.084498 41.671345)"
"21003712","STEWARD FAMILY SPIRITS LLC","ALCOHOLIC BEVERAGE TAX / WHOLESALER","10516 S THROOP ST",,"CHICAGO","IL","60643 - 3053","POINT (-87.654839 41.702704)"
"21001732","STUBING & GANNON LLC","ALCOHOLIC BEVERAGE TAX / WHOLESALER","3065 N ROCKWELL ST UNIT 23",,"CHICAGO","IL","60618 - 7934","POINT (-87.692869 41.938063)"
"10792961","SUPERIOR FRESH, INC.","ALCOHOLIC BEVERAGE TAX / WHOLESALER","1800 S CANAL ST",,"CHICAGO","IL","60616 - 1502","POINT (-87.638922 41.857283)"
"10830710","SWEISS GROUP LLC","ALCOHOLIC BEVERAGE TAX / WHOLESALER","2605 S CLEARBROOK DR",,"ARLINGTON HEIGHTS","IL","60005 - 4625","POINT (-87.973565 42.038364)"
"10792963","TANTIKA IMPORTS, INC.","ALCOHOLIC BEVERAGE TAX / WHOLESALER","2301 ARTHUR AVE",,"ELK GROVE VILLAGE","IL","60007 - 6036","POINT (-87.945188 41.995906)"
"10793001","TEC-MEX IMPORTS, INC.","ALCOHOLIC BEVERAGE TAX / WHOLESALER","2445 W 24TH PL STE D&E","SUITE D & E","CHICAGO","IL","60608 - 4701","POINT (-87.686382 41.847501)"
"11101642","T ELENTENY HOLDING LLC","ALCOHOLIC BEVERAGE TAX / WHOLESALER","470 W CROSSROADS PKWY STE B",,"BOLINGBROOK","IL","60440 - 3553","POINT (-88.084498 41.671345)"
"10852634","TEMPERANCE BEER CO. LLC","ALCOHOLIC BEVERAGE TAX / WHOLESALER","2000 DEMPSTER ST",,"EVANSTON","IL","60202 - 1017","POINT (-87.701614 42.041098)"
"21002044","TEN NINETY BEER CO","ALCOHOLIC BEVERAGE TAX / WHOLESALER","1025 WAUKEGAN RD",,"GLENVIEW","IL","60025 - 3034","POINT (-87.798759 42.073581)"
"10833484","TEQUILA SPECIALIST","ALCOHOLIC BEVERAGE TAX / WHOLESALER","272 HOWARD AVE",,"DES PLAINES","IL","60018 - 1906","POINT (-87.915002 42.015916)"
"11112483","TERRANEO MERCHANTS INC","ALCOHOLIC BEVERAGE TAX / WHOLESALER","6525 W PROESEL AVE",,"LINCOLNWOOD","IL","60712 - 3918","POINT (-87.725538 41.999654)"
"21001682","TERRELL WINES","ALCOHOLIC BEVERAGE TAX / WHOLESALER","1608 S ASHLAND AVE STE 54059",,"CHICAGO","IL","60608 - 2013","POINT (-87.666268 41.859517)"
"11113809","THE HOPEWELL BREWING CO LLC","ALCOHOLIC BEVERAGE TAX / WHOLESALER","2760 N MILWAUKEE AVE",,"CHICAGO","IL","60647 - 1337","POINT (-87.711288 41.931391)"
"11102724","THE LUCKY MONK LLC","ALCOHOLIC BEVERAGE TAX / WHOLESALER","105 HOLLYWOOD BLVD",,"SOUTH BARRINGTON","IL","60010 - 7121","POINT (-88.144801 42.07133)"
"10837242","THE ORIGINAL WINE CO LLC","ALCOHOLIC BEVERAGE TAX / WHOLESALER","2220 ARTHUR AVE",,"ELK GROVE VILLAGE","IL","60007 - 6011","POINT (-87.94865 41.995823)"
"10792962","TOWN & COUNTRY DIST., INC.","ALCOHOLIC BEVERAGE TAX / WHOLESALER","1050 ARDMORE AVE",,"ITASCA","IL","60143 - 1304","POINT (-88.028761 41.980881)"
"11118821","TRIPP BREWERY LLC","ALCOHOLIC BEVERAGE TAX / WHOLESALER","4419 W MONTROSE AVE",,"CHICAGO","IL","60641 - 2021","POINT (-87.73929 41.960835)"
"21003914","TRIVIAL FEW LLC","ALCOHOLIC BEVERAGE TAX / WHOLESALER","2039 W 22ND PL UNIT 2",,"CHICAGO","IL","60608 - 4113","POINT (-87.677362 41.851252)"
"21002210","TWO EAGLES DISTILLERY LLC","ALCOHOLIC BEVERAGE TAX / WHOLESALER","1852 S ELMHURST RD",,"MOUNT PROSPECT","IL","60056 - 5711","POINT (-87.94064 42.02861)"
"11113412","TWO WINE GUYZ CORP","ALCOHOLIC BEVERAGE TAX / WHOLESALER","1376 INDUSTRIAL DR",,"ITASCA","IL","60143 - 1804","POINT (-87.996111 41.97088)"
"11113055","UMLAUT BREWING LLC","ALCOHOLIC BEVERAGE TAX / WHOLESALER","3921-3929 W. DICKENS AVE",,"CHICAGO","IL","60647","POINT (-87.725052 41.919017)"
"11117251","UNE ANNEE BREWERY LLC","ALCOHOLIC BEVERAGE TAX / WHOLESALER","9082 W GOLF RD",,"NILES","IL","60714 - 5805","POINT (-87.852832 42.054216)"
"11117251","UNE ANNEE BREWERY LLC","ALCOHOLIC BEVERAGE TAX / WHOLESALER","9082 W GOLF RD",,"NILES","IL","60714 - 5805","POINT (-87.852832 42.054216)"
"21001735","UVA DISTRIBUTORS LLC","ALCOHOLIC BEVERAGE TAX / WHOLESALER","470 W CROSSROADS PKWY STE B",,"BOLINGBROOK","IL","60440 - 3553","POINT (-88.084498 41.671345)"
"10822476","VINEJOY LLC","ALCOHOLIC BEVERAGE TAX / WHOLESALER","6743 N LORON AVE",,"CHICAGO","IL","60646 - 1409","POINT (-87.772531 42.003778)"
"11115018","VINE-O INC","ALCOHOLIC BEVERAGE TAX / WHOLESALER","47 W POLK ST STE 100-508",,"CHICAGO","IL","60605 - 2000","POINT (-87.629295 41.872281)"
"10793063","VINIFERA MIDWEST","ALCOHOLIC BEVERAGE TAX / WHOLESALER","289 CARLTON DR",,"CAROL STREAM","IL","60188 - 2405","POINT (-88.10928 41.896466)"
"10823479","VINO ET SPIRITUS LLC","ALCOHOLIC BEVERAGE TAX / WHOLESALER","2885 W DIEHL RD",,"NAPERVILLE","IL","60563 - 8742","POINT (-88.228396 41.799049)"
"21003658","VINS & VIGNOBLES, LLC","ALCOHOLIC BEVERAGE TAX / WHOLESALER","470 W CROSSROADS PKWY STE B",,"BOLINGBROOK","IL","60440 - 3553","POINT (-88.084498 41.671345)"
"21001003","VINTRENDI WINE COMPANY","ALCOHOLIC BEVERAGE TAX / WHOLESALER","339 MAIN ST",,"PARK FOREST","IL","60466 - 2099","POINT (-87.680156 41.483051)"
"21004230","VRBAS TRADING COMPANY","ALCOHOLIC BEVERAGE TAX / WHOLESALER","7649 W GUNNISON ST",,"NORRIDGE","IL","60706 - 3301","POINT (-87.818862 41.968051)"
"11100623","WALNUT BREWERY, INC.","ALCOHOLIC BEVERAGE TAX / WHOLESALER","16156 S LA GRANGE RD",,"ORLAND PARK","IL","60467 - 5614","POINT (-87.852782 41.596003)"
"21001756","WEIN-BAUER INC","ALCOHOLIC BEVERAGE TAX / WHOLESALER","4031 TUGWELL ST",,"FRANKLIN PARK","IL","60131 - 1215","POINT (-87.887841 41.952362)"
"21000919","WHINER BREWERY LLC","ALCOHOLIC BEVERAGE TAX / WHOLESALER","1400 W 46TH ST",,"CHICAGO","IL","60609 - 3225","POINT (-87.66045 41.810481)"
"21001813","WICKED RIVER BREWERY LLC","ALCOHOLIC BEVERAGE TAX / WHOLESALER","5121 N RAVENSWOOD AVE",,"CHICAGO","IL","60640 - 5386","POINT (-87.674367 41.975073)"
"11116273","WILMETTE DEPOT RESTAURANT INC","ALCOHOLIC BEVERAGE TAX / WHOLESALER","DBA DEPOT NUEVO, D. LITCH'S","1139 WILMETTE AVE","WILMETTE","IL","60091",
"10838738","WINE ADVENTURES, INC.","ALCOHOLIC BEVERAGE TAX / WHOLESALER","2220 ARTHUR AVE",,"ELK GROVE VILLAGE","IL","60007 - 6011","POINT (-87.94865 41.995823)"
"10819701","WINEBOW","ALCOHOLIC BEVERAGE TAX / WHOLESALER","4300 UNITED PKWY",,"SCHILLER PARK","IL","60176 - 1712","POINT (-87.888027 41.954002)"
"10792983","WINE-O-RAMA LLC","ALCOHOLIC BEVERAGE TAX / WHOLESALER","1601 S. CANAL STL",,"CHICAGO","IL","60616","POINT (-87.638999 41.859899)"
"21002559","WOLF POINT DISTILLING LLC","ALCOHOLIC BEVERAGE TAX / WHOLESALER","215 N LAFLIN ST UNIT 1",,"CHICAGO","IL","60607 - 1407","POINT (-87.664307 41.885902)"
"21002627","WOOD STREET PROPERTY GROUP LLC","ALCOHOLIC BEVERAGE TAX / WHOLESALER","1008 W CULLERTON ST # 2W",,"CHICAGO","IL","60608 - 3319","POINT (-87.651919 41.855264)"
"10793038","WOORISOOL CORP.","ALCOHOLIC BEVERAGE TAX / WHOLESALER","1635 TONNE RD",,"ELK GROVE VILLAGE","IL","60007 - 5123","POINT (-87.978925 42.002005)"
"21003881","WORLD ROYAL SPIRITS, LTD","ALCOHOLIC BEVERAGE TAX / WHOLESALER","28915 N HERKY DR STE 106",,"LAKE BLUFF","IL","60044 - 1466","POINT (-87.904157 42.282193)"
"10820898","WORLD WIDE WINE LLC","ALCOHOLIC BEVERAGE TAX / WHOLESALER","478 CHIPPEWA DR",,"NAPERVILLE","IL","60563 - 1376","POINT (-88.141117 41.80098)"
"10835877","WORLD WINES & SPIRITS LLC","ALCOHOLIC BEVERAGE TAX / WHOLESALER","120 EASY ST STE 1",,"CAROL STREAM","IL","60188 - 3539","POINT (-88.119319 41.89687)"
"10793057","YAOHAN U.S.A. CORP.","ALCOHOLIC BEVERAGE TAX / WHOLESALER","100 E ALGONQUIN RD",,"ARLINGTON HEIGHTS","IL","60005 - 4618","POINT (-87.98147 42.043703)"
"21004237","YOOVIN LLC","ALCOHOLIC BEVERAGE TAX / WHOLESALER","2318 W AUGUSTA BLVD APT 2F",,"CHICAGO","IL","60622 - 5062","POINT (-87.685132 41.899431)"
"10793046","ZEMA SYSTEMS CORP","ALCOHOLIC BEVERAGE TAX / WHOLESALER","441 N KILBOURN AVE",,"CHICAGO","IL","60624 - 1038","POINT (-87.738168 41.888273)"
