LICENSEE,DBANAME,STREET NUMBER,STREET,CITY,STATE,ZIPCODE,PHONE NUMBER,PRIMARY LICENSE,SECONDARY LICENSE,PRIMARY TYPE,SECONDARY TYPE,COUNTY,DISTRICT,SUBDIST,LATLNG,Missouri Counties,School Districts,Counties
EL KADIR SHRINE ASSN. INC.,,2401,S BALTIMORE,KIRKSVILLE,MO,635014632,6606653312,7,269585,RBD,SBD ,ADAIR,2,00,,,,
LOYAL ORDER OF MOOSE 1751,LODGE 1751,2405,E ILLINOIS,KIRKSVILLE,MO,63501,6606658300,16,270477,RBD,SBD ,ADAIR,2,00,"(40.197216, -92.55663899999999)",12,32,509
KNIGHTS OF COLUMBUS,JOHN J. DILLON KC CLUB,,HWY 15 NORTH,MEXICO,MO,652650425,5735811550,135,0,COL,    ,AUDRAIN,2,00,,,,
LOYAL ORDER OF MOOSE 1706,LODGE 1706,205,S ELMWOOD DRIVE,MEXICO,MO,65265,5735812288,150,0,RBD,    ,AUDRAIN,2,00,,,,
COUNTRY CLUB OF MISSOURI,,1300,WOODRAIL AVE,COLUMBIA,MO,652030999,5734497201,463,519,RBD,SBD ,BOONE,2,00,,,,
BENEVOLENT PROTECTIVE ORDER OF ELKS 594,LODGE 594,4747,E. ELK PARK DRIVE,COLUMBIA,MO,652017502,5734426416,464,28639,RBDE,SBD ,BOONE,2,00,,,,
FRATERNAL ORDER OF EAGLES 2730,AERIE 2730,2513,STADIUM BLVD,COLUMBIA,MO,65202,5734455444,467,68777,RBD,SBD ,BOONE,2,00,"(38.980871, -92.37320299999999)",40,464,2691
DILLON STORES DIVISION INC.,GERBES SUPER MARKET #125,2900,N PARIS ROAD,COLUMBIA,MO,65201,4178953000,546,136053,OPL,OPT ,BOONE,2,00,,,,
DILLON STORES DIVISION INC.,GERBES SUPER MARKET #125,2900,N PARIS ROAD,COLUMBIA,MO,65201,4178953000,546,71641,OPL,SOP ,BOONE,2,00,,,,
AMERICAN LEGION 359,PONY EXPRESS POST 359,2414,S. 4TH ST.,ST. JOSEPH,MO,645013718,8162322335,681,0,RBD,    ,BUCHANAN,1,00,"(39.743921, -94.855772)",25,77,2692
FRATERNAL ORDER OF EAGLES 49,AERIE 49,2004,N BELT HWY,ST JOSEPH,MO,645062202,8162793014,704,27131,RBD,SBD ,BUCHANAN,1,00,"(39.7846661, -94.80411389999999)",25,77,2692
VETERANS OF FOREIGN WARS,CORPORAL FRED SEIFERT POST 1668,821,N. 4TH STREET,ST. JOSEPH,MO,645011139,8163649178,779,25986,RBD,SBD ,BUCHANAN,1,00,"(39.772832, -94.8551279)",25,77,2692
VETERANS OF FOREIGN WARS,POST 2657,,HWY 54 SOUTH,FULTON,MO,652511053,5736424090,1076,27751,RBD,SBD ,CALLAWAY,2,00,,,,
SAULTS DRUG INC.,SAULTS DRUG,505,COURT STREET,FULTON,MO,652511901,5736424186,1091,0,OPL,    ,CALLAWAY,2,00,,,,
SHOW ME OIL COMPANY INC.,SHOW ME OIL CO. #2,,HWY 54,AUXVASSE,MO,65231,5733862888,1117,70819,OPL,SOP ,CALLAWAY,2,00,,,,
SHOW ME OIL COMPANY INC.,SHOW ME OIL CO. #2,,HWY 54,AUXVASSE,MO,65231,5733862888,1117,244618,OPL,OPT ,CALLAWAY,2,00,,,,
BENEVOLENT PROTECTIVE ORDER OF ELKS 2517,LODGE 2517 LAKE OF THE OZARKS,5161,OSAGE BEACH PARKWAY,OSAGE BEACH,MO,650653285,5733483798,1185,32184,RBDE,SBD ,CAMDEN,2,00,,,,
CAMDENTON SAVE-A-LOT INC.,CAMDENTON SAVE-A-LOT,709,N. STATE HWY 5,CAMDENTON,MO,65020,5733464525,1344,0,5OP,    ,CAMDEN,2,00,,,,
CAPE GIRARDEAU COUNTRY CLUB,,250,COUNTRY CLUB DRIVE,CAPE GIRARDEAU,MO,637013338,5733358251,1428,1465,RBD,SBD ,CAPE GIRARDEAU,4,00,,,,
AYERS OIL COMPANY INC.,AYERCO CONVENIENCE CENTER #021,442,S JOHNSON STREET,KAHOKA,MO,63445,6607273613,1857,72065,OPL,SOP ,CLARK,2,00,,,,
AYERS OIL COMPANY INC.,AYERCO #26,36430,US HIGHWAY 61,ALEXANDRIA,MO,634301149,6607546332,1858,72067,OPL,SOP ,CLARK,2,00,"(40.3737984, -91.44757729999999)",1,7,2700
AMERICAN LEGION 61,JARCHOW-SCHROEDER POST 61,5125,N BELLAIRE,KANSAS CITY,MO,641193828,8164547570,1895,77871,RBD,SBD ,CLAY,1,00,,,,
CASCONE'S INC.,CASCONE'S RESTAURANT NO. 2,3737,N OAK,KANSAS CITY,MO,64116,8164547977,1905,20200,RBD,SBD ,CLAY,1,00,"(39.1623224, -94.5766628)",36,133,2701
FRATERNAL ORDER OF EAGLES 3917,AERIE 3917,14305,HWY Y,EXCELSIOR SPRINGS,MO,640245237,8166373917,1914,35455,RBDE,SBD ,RAY,1,00,,,,
BENEVOLENT PROTECTIVE ORDER OF ELKS 1001,LODGE 1001,421,S TITUS,EXCELSIOR SPRINGS,MO,640242656,8166302001,1915,25154,RBDE,SBD ,CLAY,1,00,,,,
BENEVOLENT PROTECTIVE ORDER OF ELKS 2376,"LODGE 2376 K.C.""NORTHLAND ELKS""",7010,N CHERRY,GLADSTONE,MO,641182641,8164366550,1929,82641,RBD,SBD ,CLAY,1,00,,,,
VETERANS OF FOREIGN WARS,NATHAN F. LAMAR POST #5606,5406,NE OAK RIDGE DR,KANSAS CITY,MO,641192905,8164529861,1970,0,RBD,    ,CLAY,1,00,,,,
MCKEEVER ENTERPRISES INC.,PRICE CHOPPER,1645,KEARNEY ROAD,EXCELSIOR SPRINGS,MO,640241753,8166301900,2024,72634,OPL,SOP ,CLAY,1,00,"(39.3366721, -94.2484112)",36,123,2701
MCKEEVER ENTERPRISES INC.,PRICE CHOPPER,1645,KEARNEY ROAD,EXCELSIOR SPRINGS,MO,640241753,8166301900,2024,148078,OPL,OPT ,CLAY,1,00,"(39.3366721, -94.2484112)",36,123,2701
QUIK-TRIP CORPORATION,QUIK-TRIP #173,528,NW ENGLEWOOD ROAD,KANSAS CITY,MO,641183960,8164533388,2038,73086,OPL,SOP ,CLAY,1,00,"(39.1964868, -94.5875446)",36,133,2701
QUIK-TRIP CORPORATION,QUIK-TRIP #181,2590,NE 72ND STREET,GLADSTONE,MO,641182309,8164684366,2040,73084,OPL,SOP ,CLAY,1,00,"(39.2247813, -94.5491521)",36,133,2701
QUIK-TRIP CORPORATION,QUIK-TRIP #169,5108,NE VIVION ROAD,KANSAS CITY,MO,641192939,8164540783,2041,73083,OPL,SOP ,CLAY,1,00,"(39.188515, -94.520017)",36,133,2701
POUR-BOY OIL COMPANY INC.,POUR-BOY OIL COMPANY,,HWY 69,MOSBY,MO,64073,8166355159,2084,74259,OPL,SOP ,CLAY,1,00,,,,
"FREEMAN, LARRY G.",LARRY'S ONE STOP,1201,W CLAY,PLATTSBURG,MO,64477,8165393076,2185,71427,OPL,SOP ,CLINTON,1,00,,,,
LIONS CLUB OF WARDSVILLE,LIONS CLUB OF WARDSVILLE,3505,ROUTE M,JEFFERSON CITY,MO,65101,5736357510,2216,0,COL,    ,COLE,2,00,,,,
AMERICAN LEGION 5,POST 5 HOME ASSOCIATION,1423,TANNER BRIDGE ROAD,JEFFERSON CITY,MO,651012839,5736367442,2221,16764,RBD,SBD ,COLE,2,00,"(38.5612982, -92.1854919)",58,465,2702
FRATERNAL ORDER OF EAGLES 2693,AERIE 2693,1411,MISSOURI BLVD,JEFFERSON CITY,MO,651091727,5736362440,2232,43650,RBD,SBD ,COLE,2,00,"(38.577864, -92.193957)",58,465,2702
BENEVOLENT PROTECTIVE ORDER OF ELKS 513,LODGE 513,901,ELLIS BLVD,JEFFERSON CITY,MO,651012374,5736369533,2233,29550,RBD,SBD ,COLE,2,00,,,,
KNIGHTS OF COLUMBUS HOME ASSN. OF J.C.,HELIAS COUNCIL #1054,1822,TANNER BRIDGE ROAD,JEFFERSON CITY,MO,651012848,5736363424,2244,66848,RBD,SBD ,COLE,2,00,,,,
CAPITOL FOODS INC.,SCHULTE'S FRESH FOODS,1904,SOUTHWEST BLVD,JEFFERSON CITY,MO,65109,5736368413,2268,71922,OPL,SOP ,COLE,2,00,"(38.55398599999999, -92.20020099999999)",58,465,2702
CONVENIENT FOOD MART CFM NO. 14-001 INC.,CONVENIENT FOOD MART #14-001,426,BROOKS,JEFFERSON CITY,MO,651091347,5736350335,2272,70737,OPL,SOP ,COLE,2,00,"(38.583303, -92.186945)",58,465,2702
DILLON STORES DIVISION INC.,GERBES SUPER MARKET #122,2805,W TRUMAN BLVD,JEFFERSON CITY,MO,65101,4178911900,2273,71520,OPL,SOP ,COLE,2,00,"(38.594175, -92.224824)",58,465,2702
DILLON STORES DIVISION INC.,GERBES SUPER MARKET #122,2805,W TRUMAN BLVD,JEFFERSON CITY,MO,65101,4178911900,2273,136184,OPL,OPT ,COLE,2,00,"(38.594175, -92.224824)",58,465,2702
JEFFERSON CITY JAYCEES,JEFF CITY JAYCEES,1445,FAIRGROUNDS RD,JEFFERSON CITY,MO,651015469,5738933950,2322,0,5BDW,    ,COLE,2,00,"(38.561279, -92.2750478)",58,465,2702
FRATERNAL ORDER OF EAGLES 1022,AERIE 1022,708,11TH STREET,BOONVILLE,MO,652330434,6608829970,2400,30600,RBDE,SBD ,COOPER,2,00,,,,
"CRUMP, JERRY W.",BOURBON FAMILY CENTER,,BOURBON SHOPPING CENTER,BOURBON,MO,65441,5737325517,2476,189429,OPL,OPT ,CRAWFORD,4,00,,,,
"CRUMP, JERRY W.",BOURBON FAMILY CENTER,,BOURBON SHOPPING CENTER,BOURBON,MO,65441,5737325517,2476,70882,OPL,SOP ,CRAWFORD,4,00,,,,
WALLIS OIL COMPANY INC.,WALLIS OIL COMPANY #100,,HWY 19,STEELVILLE,MO,65565,5738852277,2483,224692,OPL,OPT ,CRAWFORD,4,00,,,,
WALLIS OIL COMPANY INC.,WALLIS OIL COMPANY #100,,HWY 19,STEELVILLE,MO,65565,5738852277,2483,70869,OPL,SOP ,CRAWFORD,4,00,,,,
"ALLWOOD, LARRY E.",EAST SIDE TAVERN,109,S POLK STREET,MAYSVILLE,MO,644690483,0,2592,286227,5BDW,5BWC,DEKALB,1,00,,,,
AMERICAN LEGION 218,POST 218,1007,E 3RD STREET,WASHINGTON,MO,630903203,6362394363,2753,0,RBD,    ,FRANKLIN,2,00,"(38.5525151, -90.999326)",59,220,1958
AMERICAN LEGION,ST. CLAIR HOME ASSOCIATION,215,W GRAVOIS,ST CLAIR,MO,630771423,6366299934,2755,25213,RBDE,SBD ,FRANKLIN,2,00,,,,
AMERICAN LEGION 366,POST 366,9494,HWY 100,NEW HAVEN,MO,630681423,5732372221,2756,0,RBD,    ,FRANKLIN,2,00,,,,
HUMMINGBIRD CLUB BENEVOLENT CORPORATION,,,MISSOURI AVE,WASHINGTON,MO,63090,6362397401,2782,252130,RBD,SBD ,FRANKLIN,2,00,,,,
LOYAL ORDER OF MOOSE 1745,LODGE 1745,905,HIGHWAY 50,UNION,MO,63084,6365836444,2795,27057,RBD,SBD ,FRANKLIN,2,00,,,,
FRATERNAL ORDER OF EAGLES 3842,AERIE 3842,707,W CONGRESS,PACIFIC,MO,630691928,6363433369,2797,284413,RBD,RDC5,FRANKLIN,2,00,,,,
FRATERNAL ORDER OF EAGLES 3842,AERIE 3842,707,W CONGRESS,PACIFIC,MO,630691928,6363433369,2797,31587,RBD,SBD ,FRANKLIN,2,00,,,,
VETERANS OF FOREIGN WARS,POST 2661 MAX W. MUELLER,813,S JEFFERSON & BUSCH ST,WASHINGTON,MO,630904408,6362396311,2814,0,RBDE,    ,FRANKLIN,2,00,,,,
WASHINGTON COLUMBIAN CLUB,WASHINGTON COLUMBIAN CLUB,1121,COLUMBUS LANE,WASHINGTON,MO,630904170,6362393756,2816,24781,RBD,SBD ,FRANKLIN,2,00,,,,
HOLY FAMILY CHURCH,PORT HUDSON,,HWY C,NEW HAVEN,MO,63068,5734596441,2907,0,5BDW,    ,FRANKLIN,2,00,,,,
FRATERNAL ORDER OF EAGLES 1328,AERIE 1328,410,MARKET STREET,HERMANN,MO,650411034,0,3030,39354,RBD,SBD ,GASCONADE,2,00,,,,
LOYAL ORDER OF MOOSE 878,LODGE 878,107,S FIRST ST,OWENSVILLE,MO,650661358,5734373105,3038,26786,RBD,SBD ,GASCONADE,2,00,,,,
VETERANS OF FOREIGN WARS,BLEDSOE BULAS POST #6133,,MEMORIAL PARK,OWENSVILLE,MO,65066,5734373333,3081,0,5BDW,    ,GASCONADE,2,00,,,,
HICKORY HILLS COUNTRY CLUB INC.,HICKORY HILLS COUNTRY CLUB,3909,E. CHERRY,SPRINGFIELD,MO,65808,4178664384,3170,3249,RBDE,SBD ,GREENE,5,00,"(37.2039389, -93.2184308)",93,493,1960
SHRINE UNIFORMED UNITS,ABOU BEN ADHEM TEMPLE,601,ST LOUIS,SPRINGFIELD,MO,658062413,4178699164,3220,63778,RBD,SBD ,GREENE,5,00,"(37.209553, -93.286255)",93,493,1960
TWIN OAKS COUNTRY CLUB,TWIN OAKS COUNTRY CLUB,1020,E. REPUBLIC RD.,SPRINGFIELD,MO,65807,4178814744,3231,3265,RBDR,SBD ,GREENE,5,00,,,,
VETERANS OF FOREIGN WARS 3404,POST 3404 WILBUR ADAMS,1136,E ATLANTIC STREET,SPRINGFIELD,MO,658033225,4178656929,3232,276361,RBD,SBD ,GREENE,5,00,"(37.2329959, -93.27557790000002)",93,493,1960
WAHCO MANAGEMENT INC.,UNCLE BENTLY'S,4123,S NATIONAL AVE,SPRINGFIELD,MO,658075356,4178812389,3235,211020,RBD,SBD ,GREENE,5,00,"(37.13922600000001, -93.281114)",93,493,1960
G. & S. RESTAURANT INC.,GEORGE'S STEAK HOUSE,339,S GLENSTONE,SPRINGFIELD,MO,658023172,4178316777,3409,0,5BD,    ,GREENE,5,00,"(37.2069052, -93.26232759999999)",93,493,1960
ARCADIA SPORTING GOODS INC.,ARCADIA SPORTING GOODS,HWY,21 & 72,ARCADIA,MO,63621,5735467616,3763,103906,OPL,OPT ,IRON,4,00,,,,
ARCADIA SPORTING GOODS INC.,ARCADIA SPORTING GOODS,HWY,21 & 72,ARCADIA,MO,63621,5735467616,3763,73210,OPL,SOP ,IRON,4,00,,,,
BLUE HILLS COUNTRY CLUB,,777,W. BURNING TREE DR.,KANSAS CITY,MO,64145,8169423292,3848,4442,RBD,SBD ,JACKSON,1,00,,,,
CARRIAGE CLUB,"CARRIAGE CLUB, THE",5301,STATE LINE,KANSAS CITY,MO,641122364,8163631310,3894,4456,RBD,SBD ,JACKSON,1,00,"(39.0308359, -94.6073668)",43,151,525
FRATERNAL ORDER OF EAGLES 3717,AERIE 3717,11424,HWY 24 EAST,SUGAR CREEK,MO,640540650,8164611755,3959,37926,RBD,SBD ,JACKSON,1,00,,,,
BENEVOLENT PROTECTIVE ORDER OF ELKS 2509,LODGE 2509,100,N.E. BRIZENDINE RD.,BLUE SPRINGS,MO,640146506,8162296081,3967,25783,RBD,SBD ,JACKSON,1,00,,,,
BENEVOLENT PROTECTIVE ORDER OF ELKS 26,LODGE 26,515,E 99TH STREET,KANSAS CITY,MO,641314244,8169422443,3969,4481,RBD,SBD ,JACKSON,1,00,"(38.9480632, -94.5852232)",43,167,525
KELLY'S WESTPORT INN INC.,KELLY'S WESTPORT INN,500,WESTPORT ROAD,KANSAS CITY,MO,641113012,8165615800,4111,91315,RBD,SBD ,JACKSON,1,00,"(39.0529277, -94.5917188)",43,151,525
KELLY'S WESTPORT INN INC.,KELLY'S WESTPORT INN,500,WESTPORT ROAD,KANSAS CITY,MO,641113012,8165615800,4111,15186,RBD,EXTH,JACKSON,1,00,"(39.0529277, -94.5917188)",43,151,525
MANLO INC.,MANNY'S,207,SOUTHWEST BLVD,KANSAS CITY,MO,64108,8164747696,4163,0,RBD,    ,JACKSON,1,00,"(39.0890979, -94.5867615)",43,151,525
LOYAL ORDER OF MOOSE 10,LODGE 10 KANSAS CITY,510,N STERLING,SUGAR CREEK,MO,640540627,8162544309,4183,25856,RBD,SBD ,JACKSON,1,00,,,,
RIVER CLUB INC.,"RIVER CLUB, THE",611,W 8TH STREET,KANSAS CITY,MO,641051393,8162215353,4269,0,RBD,    ,JACKSON,1,00,"(39.1046163, -94.5916663)",43,151,525
SEVENTEEN HUNDRED WEST INC.,FRIC AND FRAC RESTAURANT,1700,W 39TH STREET,KANSAS CITY,MO,641114404,8167536102,4298,24200,RBD,SBD ,JACKSON,1,00,"(39.057457, -94.60518599999999)",43,151,525
STERLING BOWL INC.,VERONA ROOM,11216,HWY 24,SUGAR CREEK,MO,640541598,8162522111,4327,31001,RBD,SBD ,JACKSON,1,00,,,,
VETERANS OF FOREIGN WARS,BLUE RIDGE MEMORIAL POST #9997,6801,WILSON ROAD,KANSAS CITY,MO,641251452,8162319932,4372,206349,RBD,SBD ,JACKSON,1,00,"(39.108014, -94.502408)",43,151,525
VETERANS OF FOREIGN WARS,POST 1829 CLAUDE B. CHAMPION,5904,CRYSTAL STREET,KANSAS CITY,MO,641292580,8169212222,4373,162400,RBD,SBD ,JACKSON,1,00,"(39.017032, -94.5036329)",43,163,525
"WALSH, PATRICK T.",WALSH'S CORNER COCKTAILS,304,W 85TH STREET,KANSAS CITY,MO,64114,8163617099,4401,186266,RBD,SBD ,JACKSON,1,00,"(38.9742921, -94.5941363)",43,151,525
GENERAL STORE #2 INC.,MARSH'S SUNFRESH,4001,MILL STREET,KANSAS CITY,MO,641113008,8169311639,4753,93627,OPL,OPT ,JACKSON,1,00,"(39.05456239999999, -94.5947473)",43,151,525
GENERAL STORE #2 INC.,MARSH'S SUNFRESH,4001,MILL STREET,KANSAS CITY,MO,641113008,8169311639,4753,72912,OPL,SOP ,JACKSON,1,00,"(39.05456239999999, -94.5947473)",43,151,525
HOUSE OF HOOCH INC.,"LITTLE GENERAL STORE, THE",1017,N WOODS CHAPEL ROAD,BLUE SPRINGS,MO,640152653,8162285466,4784,71423,OPL,SOP ,JACKSON,1,00,,,,
KING ENTERPRISES INC.,HUB LIQUORS,2650,HUB DRIVE #F,INDEPENDENCE,MO,64055,8163735702,4808,0,OPL,    ,JACKSON,1,00,"(39.0717441, -94.3812832)",43,463,525
"PLEASURE, OLIVER",OLIVER'S LIQUOR AND GROCERIES,2301,E 12TH STREET,KANSAS CITY,MO,64127,0,4891,0,OPL,    ,JACKSON,1,00,"(39.0986959, -94.554137)",43,151,525
QUIK-TRIP CORPORATION,QUIK-TRIP #190,344,W 72ND ST,KANSAS CITY,MO,641145744,8163612633,4900,73352,OPL,SOP ,JACKSON,1,00,"(38.9981558, -94.5931493)",43,151,525
QUIK-TRIP CORPORATION,QUIK-TRIP #176,1201,WESTPORT ROAD,KANSAS CITY,MO,64111,8169316886,4905,73343,OPL,SOP ,JACKSON,1,00,,,,
QUIK-TRIP CORPORATION,QUIK-TRIP #209,9323,HWY 350 E,RAYTOWN,MO,641336507,8163587026,4906,73341,OPL,SOP ,JACKSON,1,00,"(38.9931036, -94.47228179999999)",43,163,525
QUIK-TRIP CORPORATION,QUIK-TRIP #184,4327,MAIN STREET,KANSAS CITY,MO,641111809,8165616055,4908,73339,OPL,SOP ,JACKSON,1,00,"(39.04831799999999, -94.58606999999999)",43,151,525
QUIK-TRIP CORPORATION,QUIK-TRIP #162,801,SE M-291 HWY,LEE'S SUMMIT,MO,640634348,8165242946,4909,73357,OPL,SOP ,JACKSON,1,00,,,,
QUIK-TRIP CORPORATION,QUIK-TRIP #200,120,SW M-150 HWY,LEE'S SUMMIT,MO,640824401,8165376061,4910,73073,OPL,SOP ,JACKSON,1,00,,,,
QUIK-TRIP CORPORATION,QUIK-TRIP #208,800,NE WOODS CHAPEL ROAD,LEE'S SUMMIT,MO,64064,8163730176,4911,73072,OPL,SOP ,JACKSON,1,00,,,,
QUIK-TRIP CORPORATION,QUIK-TRIP #197,13100,HOLMES RD.,KANSAS CITY,MO,641451489,8169429048,4913,73349,OPL,SOP ,JACKSON,1,00,"(38.889249, -94.5868326)",43,178,525
"ZAJIC, KEITH ARNOLD",MR. Z'S IN & OUT,1600,W 39TH STREET,KANSAS CITY,MO,641114430,0,5068,71699,OPL,SOP ,JACKSON,1,00,"(39.0574161, -94.60394490000002)",43,151,525
QUIK-TRIP CORPORATION,QUIK-TRIP #201,19010,US HIGHWAY 24,INDEPENDENCE,MO,64056,8167966671,5082,73350,OPL,SOP ,JACKSON,1,00,,,,
BENEVOLENT PROTECTIVE ORDER OF ELKS 501,LODGE 501,1802,W. 26TH STREET,JOPLIN,MO,648041514,4176240048,5395,64891,RBDE,SBD ,JASPER,5,00,"(37.060795, -94.537435)",94,490,1966
C & N BOWL CORPORATION,C & N BOWL,1419,W 4TH STREET,JOPLIN,MO,648013033,4176245681,5397,19683,RBD,SBD ,JASPER,5,00,"(37.088517, -94.5302681)",94,490,1966
TWIN HILLS GOLF & COUNTRY CLUB INC.,TWIN HILLS GOLF & COUNTRY CLUB,2019,S COUNTRY CLUB DRIVE,JOPLIN,MO,648049022,4176234112,5432,5441,RBDR,SBD ,JASPER,5,00,,,,
QUONSET CORPORATION,QUONSET,2004,TRUMAN BLVD,CRYSTAL CITY,MO,630191021,6369370101,5626,5673,RBD,SBD ,JEFFERSON,3,00,"(38.2346537, -90.3911897)",62,284,1967
RADEACKAR AG MARKET INC.,RADEACKAR AG MARKET,6771,MALL DRIVE,CEDAR HILL,MO,63016,6362854621,5755,72214,OPL,SOP ,JEFFERSON,3,00,"(38.351443, -90.65118799999999)",62,256,1967
FRATERNAL ORDER OF EAGLES 2463,AERIE 2463,105,SHELBY STREET,BROOKFIELD,MO,646281741,6602585620,6261,47210,RBD,SBD ,LINN,2,00,,,,
FRATERNAL ORDER OF EAGLES 726,AERIE 726,301,N CHESTNUT STREET,MARCELINE,MO,646581168,6603769879,6263,26258,RBD,SBD ,LINN,2,00,,,,
BENEVOLENT PROTECTIVE ORDER OF ELKS 874,LODGE 874,,WOOD & LINN STREET,BROOKFIELD,MO,646280222,6602587462,6265,25420,RBD,SBD ,LINN,2,00,,,,
MARCELINE FOODS INC.,PRENGER FOODS,205,N CHESTNUT,MARCELINE,MO,646581170,6603762322,6279,247736,OPL,OPT ,LINN,2,00,,,,
MARCELINE FOODS INC.,PRENGER FOODS,205,N CHESTNUT,MARCELINE,MO,646581170,6603762322,6279,76411,OPL,SOP ,LINN,2,00,,,,
BENEVOLENT PROTECTIVE ORDER OF ELKS 999,LODGE 999,212,N ROLLINS STREET,MACON,MO,635521533,6603852333,6396,160939,RBD,SBD ,MACON,2,00,"(39.739237, -92.472619)",20,72,2120
MACON CONSUMERS INC.,C & R MARKET,703,E. BRIGGS DR.,MACON,MO,635521906,6603853133,6409,171032,OPL,OPT ,MACON,2,00,,,,
MACON CONSUMERS INC.,C & R MARKET,703,E. BRIGGS DR.,MACON,MO,635521906,6603853133,6409,72097,OPL,SOP ,MACON,2,00,,,,
ST. JOSEPH CHURCH,MONSIGNOR FARISCHON HALL,,CHURCH & LANE STREET,PALMYRA,MO,63461,5737693270,6499,0,COL,    ,MARION,2,00,,,,
AMERICAN LEGION,EMMETTE J. SHIELDS POST #55,3819,HIGHWAY MM,HANNIBAL,MO,63401,5732218073,6501,88501,RBD,SBD ,MARION,2,00,,,,
BENEVOLENT PROTECTIVE ORDER OF ELKS 1198,LODGE 1198,411A,BROADWAY,HANNIBAL,MO,634014407,5732211198,6513,0,RBD,    ,MARION,2,00,,,,
KNIGHTS OF COLUMBUS,COUNCIL 907,#1,COLUMBUS ROAD,HANNIBAL,MO,634012386,5732210907,6515,69235,RBD,SBD ,MARION,2,00,"(39.7199667, -91.404067)",24,477,2122
VETERANS OF FOREIGN WARS,POST 2446,209,BIRD STREET,HANNIBAL,MO,634013519,5732480553,6528,24854,RBD,SBD ,MARION,2,00,,,,
AYERS OIL COMPANY INC.,AYERCO CONVENIENCE CENTER #24,,HWY 61 & MM,HANNIBAL,MO,63401,5732214210,6538,71798,OPL,SOP ,MARION,2,00,,,,
AYERS OIL COMPANY INC.,AYERCO CONVENIENCE CENTER 22,1208,MARK TWAIN AVE,HANNIBAL,MO,63401,5732215292,6539,71797,OPL,SOP ,MARION,2,00,,,,
AYERS OIL COMPANY INC.,AYERCO #025,8800,HWY 24,TAYLOR,MO,63471,5733932330,6556,71795,OPL,SOP ,MARION,2,00,,,,
CASSANO PIZZA KING OF HANNIBAL INC.,,2860,JAMES ROAD,HANNIBAL,MO,634013762,5732215442,6563,6570,5BDW,5SBD,MARION,2,00,,,,
BENTLEY'S RESTAURANT OF THE OZARKS INC.,BENTLEY'S RESTAURANT OF THE OZARKS,3100,BAGNELL DAM BLVD.,LAKE OZARK,MO,650499730,5733655301,6611,0,RBD,    ,MILLER,2,00,,,,
DILLON STORES DIVISION INC.,GERBES SUPER MARKET #116,410,E NORTH STREET,ELDON,MO,65026,4178953000,6646,71982,OPL,SOP ,MILLER,2,00,"(38.3503633, -92.5779247)",64,261,2124
DILLON STORES DIVISION INC.,GERBES SUPER MARKET #116,410,E NORTH STREET,ELDON,MO,65026,4178953000,6646,136055,OPL,OPT ,MILLER,2,00,"(38.3503633, -92.5779247)",64,261,2124
"GERHART, NORRIS G.",MR. G'S PACKAGE LIQUOR,306,W BUCHANAN,CALIFORNIA,MO,65018,5737963808,6771,71527,OPL,SOP ,MONITEAU,2,00,,,,
"GERHART, NORRIS G.",MR. G'S PACKAGE LIQUOR,306,W BUCHANAN,CALIFORNIA,MO,65018,5737963808,6771,89339,OPL,OPT ,MONITEAU,2,00,,,,
AYERS OIL COMPANY INC.,AYERCO CONVENIENCE CENTER #036,301,N CENTER STREET,SHELBINA,MO,65275,5735882094,6810,72064,OPL,SOP ,SHELBY,2,00,,,,
MONTGOMERY COUNTY FAIR SOCIETY INC.,MONTGOMERY COUNTY FAIR SOCIETY,700,S STURGEON,MONTGOMERY CITY,MO,63361,5735643032,6826,0,COL,    ,MONTGOMERY,2,00,,,,
MONTGOMERY COUNTY FAIR SOCIETY INC.,MONTGOMERY COUNTY FAIR,700,S STURGEON,MONTGOMERY CITY,MO,63361,5735643032,6827,0,COL,    ,MONTGOMERY,2,00,,,,
"GOWAN, KAREN S.",BUDDY'S PACKAGE STORE,403,HWY 61 NORTH,PORTAGEVILLE,MO,638731427,5733793687,7031,72495,OPL,SOP ,NEW MADRID,4,00,,,,
BENEVOLENT PROTECTIVE ORDER OF ELKS 760,LODGE 760,115,N MAIN STREET,MARYVILLE,MO,644681622,6605823241,7160,24887,RBD,SBD ,NODAWAY,1,00,"(40.3466113, -94.87259259999999)",5,1,2130
RAY-NOBLE COMPANY,RAY-NOBLE TOBACCO STORE 1,101,HOLMES ROAD,THAYER,MO,65791,4172643218,7217,72975,OPL,SOP ,OREGON,4,00,,,,
CITIZEN CIVIC LEAGUE,,301,N. OLIVE ST.,META,MO,65058,9999999999,7234,0,COL,    ,OSAGE,2,00,,,,
"NAEGER, LOIS M.",AL'S PLACE,233,MAIN ST.,MCBRIDE,MO,637769999,5735475656,7495,0,5BDW,    ,PERRY,4,00,,,,
LOYAL ORDER OF MOOSE 1494,LODGE 1494,119,WINCHESTER DR,SEDALIA,MO,65301,6608266631,7574,26767,RBDE,SBD ,PETTIS,2,00,,,,
SEDALIA COUNTRY CLUB,,5074,HIGHWAY Y,SEDALIA,MO,653019040,6608262044,7579,7592,RBDR,SBD ,PETTIS,2,00,"(38.698095, -93.2994025)",50,201,535
VETERANS OF FOREIGN WARS,POST 2591 PETTIS COUNTY,121,S OHIO STREET,SEDALIA,MO,653013832,6608264543,7581,0,RBDE,    ,PETTIS,2,00,,,,
"WANSING, CHARLES J.",CHEZ-WHEN LOUNGE,121,E 3RD STREET,SEDALIA,MO,653014321,6602812916,7583,0,RBD,    ,PETTIS,2,00,,,,
COLUMBUS CLUB OF ST. CLEMENT INC.,,,HWY 161-ST CLEMENT RFD,BOWLING GREEN,MO,63334,5733243789,7786,0,COL,    ,PIKE,2,00,,,,
AMERICAN LEGION 370,HANEY-PENNOCK POST 370,420,KELLY LANE,LOUISIANA,MO,633532402,5737544370,7787,0,RBD,    ,PIKE,2,00,,,,
BENEVOLENT PROTECTIVE ORDER OF ELKS 791,LODGE 791,120,N 5TH STREET,LOUISIANA,MO,633531620,5737545890,7791,24631,RBD,SBD ,PIKE,2,00,"(39.4492488, -91.04960520000002)",32,105,2169
PLATTE CO. AGRI. MECHANICAL & STOCK ASSN,DIRTY SHAME,,PLATTE COUNTY FAIRGROUNDS,PLATTE CITY,MO,64079,8164312121,7936,0,5BDW,    ,PLATTE,1,00,,,,
AYERS OIL COMPANY INC.,AYERCO #023,4121,MARKET STREET,HANNIBAL,MO,63401,5732216044,8090,71799,OPL,SOP ,RALLS,2,00,,,,
FRATERNAL ORDER OF EAGLES 2669,AERIE 2669,1408,N. MORLEY ST.,MOBERLY,MO,652703695,6602639609,8114,28660,RBD,SBD ,RANDOLPH,2,00,,,,
LOYAL ORDER OF MOOSE 776,LODGE 776,2050,N MORLEY,MOBERLY,MO,65270,6602631128,8119,0,RBDE,    ,RANDOLPH,2,00,,,,
AMERICAN LEGION 312,POST 312,2500,RAYMOND DRIVE,ST CHARLES,MO,633014842,6367249712,8277,20464,RBD,SBD ,ST. CHARLES,3,00,"(38.787259, -90.513261)",48,195,2177
BOGEY HILLS GOLF & COUNTRY CLUB INC.,BOGEY HILLS COUNTRY CLUB,1120,COUNTRY CLUB ROAD,ST CHARLES,MO,633013305,6369466250,8282,14851,RBD,SBD ,ST. CHARLES,3,00,"(38.7847608, -90.5382976)",48,195,2177
WESTBURY CENTER INC.,WESTBURY CENTER,20,WESTBURY DRIVE,ST CHARLES,MO,633012549,6369490222,8316,61006,RBD,SBD ,ST. CHARLES,3,00,"(38.7825851, -90.51961519999999)",48,195,2177
LOYAL ORDER OF MOOSE 1513,LODGE 1513,2705,VETERANS MEM PKWY,ST CHARLES,MO,633033680,6367237794,8330,20284,RBD,SBD ,ST. CHARLES,3,00,"(38.779594, -90.51886999999999)",48,195,2177
O'FALLON BOWLING LANES INC.,O'FALLON LANES,420,SONDEREN STREET,O'FALLON,MO,633662631,6362724393,8334,19664,RBD,SBD ,ST. CHARLES,3,00,"(38.8055665, -90.6947139)",48,173,2177
PIO'S INC.,PIO'S,401,1ST CAPITOL DRIVE,ST CHARLES,MO,633012845,6367245919,8338,8383,RBD,SBD ,ST. CHARLES,3,00,,,,
PIKERS HUNTING FISHING CLUB,,17,E PIKE STREET,ST CHARLES,MO,633013456,0,8514,0,5BDW,    ,ST. CHARLES,3,00,"(38.776817, -90.48293699999999)",48,195,2177
HICKORY LOG INC.,,1314,HWY 60 WEST (BUSINESS),DEXTER,MO,638411653,5736244950,9170,0,RBDR,    ,STODDARD,4,00,,,,
"ELLEDGE, CARROLL",PUXICO BAR & PACKAGE STORE,180,S HWY 51,PUXICO,MO,639600322,5732223684,9182,120842,OPL,SOP ,STODDARD,4,00,,,,
"ELLEDGE, CARROLL",PUXICO BAR,190,E. OWEN STREET,PUXICO,MO,639600322,5732223684,9201,0,5BDW,    ,STODDARD,4,00,,,,
BENEVOLENT PROTECTIVE ORDER OF ELKS 2505,LODGE 2505 KIMBERLING CITY,37,BEACH BLVD,KIMBERLING CITY,MO,65686,4177392414,9229,193949,RBD,SBD ,STONE,5,00,,,,
HA-BOB'S INC.,BOB'S MARKET,6563,STATE HIGHWAY 13,LAMPE,MO,65681,4177794334,9259,71151,OPL,SOP ,STONE,5,00,,,,
FRATERNAL ORDER OF EAGLES 3770,AERIE 3770,RR 2,HWY K,NEVADA,MO,64772,4176679283,9507,26617,RBDE,SBD ,VERNON,5,00,,,,
BENEVOLENT PROTECTIVE ORDER OF ELKS 564,LODGE 564,510,CENTENNIAL BLVD,NEVADA,MO,64772,4176677571,9508,43842,RBDE,SBD ,VERNON,5,00,,,,
NEVADA COUNTRY CLUB,NEVADA COUNTRY CLUB,,COUNTRY CLUB DRIVE,NEVADA,MO,64772,4176677182,9510,9514,RBDR,SBD ,VERNON,5,00,,,,
AMERICAN LEGION 180,DANIEL BOONE POST 180,,HWY 47,MARTHASVILLE,MO,633572864,6364568840,9556,0,COL,    ,WARREN,2,00,,,,
THREE GATES INC.,CHARCOAL HOUSE,9855,MANCHESTER ROAD,ST LOUIS,MO,631191243,3149684842,9826,0,RBD,    ,ST. LOUIS CO.,3,00,"(38.6057891, -90.3771967)",51,228,2210
KARAGIANNIS INVESTMENT CORPORATION,SPIRO'S,1054,WOODSMILL ROAD NORTH,CHESTERFIELD,MO,630173164,3148784449,9829,42323,RBD,SBD ,ST. LOUIS CO.,3,00,"(38.6781527, -90.4992027)",51,208,2210
ATHLETIC BOYS CLUB OF ST. LOUIS COUNTY,ATHLETIC BOYS CLUB OF ST. LOUIS COUNTY,10050,LIVINGSTON,ST ANN,MO,630742009,3144233774,9833,60060,RBD,SBD ,ST. LOUIS CO.,3,00,"(38.72758200000001, -90.374901)",51,207,2210
BANQUET ENTERPRISES INC.,ANDRE'S BANQUET HALLS,4254,TELEGRAPH ROAD,ST LOUIS,MO,63129,3148942622,9843,10639,RBD,SBD ,ST. LOUIS CO.,3,00,,,,
BARTOLINO'S SOUTH INC.,BARTOLINO'S,5914,S LINDBERGH BLVD,ST LOUIS,MO,631239998,3144874545,9848,10641,RBD,SBD ,ST. LOUIS CO.,3,00,"(38.52173519999999, -90.34596479999999)",51,239,2210
BELLERIVE COUNTRY CLUB,BELLERIVE COUNTRY CLUB,12925,LADUE ROAD,CREVE COEUR,MO,631418019,3144344400,9856,10642,RBD,SBD ,ST. LOUIS CO.,3,00,"(38.6556641, -90.4821001)",51,208,2210
BLUTH'S CRESTWOOD BAR INC.,CRESTWOOD BOWL,9822,WATSON RD.,ST. LOUIS,MO,631251825,3149662905,9864,38983,RBD,SBD ,ST. LOUIS CO.,3,00,"(38.5560521, -90.3898768)",51,239,2210
BOGEY INC.,"BOGEY CLUB, THE",9266,CLAYTON ROAD,ST LOUIS,MO,631241534,3149930161,9869,10648,RBD,SBD ,ST. LOUIS CO.,3,00,"(38.63990099999999, -90.372478)",51,217,2210
AMERICAN LEGION 162,CARONDELET TOWNSHIP MEMORIAL POST 162,9305,S BROADWAY,LEMAY,MO,631251603,3146318582,9901,193646,RBD,SBD ,ST. LOUIS CO.,3,00,"(38.5352715, -90.27444559999999)",51,244,2210
CITY OF BALLWIN,BALLWIN RECREATIONAL COMPLEX,333,HOLLOWAY ROAD,BALLWIN,MO,630113890,6362278950,9928,10675,RBD,SBD ,ST. LOUIS CO.,3,00,"(38.605297, -90.5410689)",51,208,2210
BENEVOLENT PROTECTIVE ORDER OF ELKS 9,LODGE 9 ST. LOUIS,12481,LADUE ROAD,ST LOUIS,MO,631418100,0,9935,49864,RBD,SBD ,ST. LOUIS CO.,3,00,"(38.656569, -90.466302)",51,208,2210
AMERICAN LEGION,CREVE COEUR MEMORIAL BUILDING ASSN.,934,RUE DE LA BANQUE  E,CREVE COEUR,MO,631415102,3148723186,9956,114049,RBD,SBD ,ST. LOUIS CO.,3,00,"(38.6719809, -90.44429099999999)",51,208,2210
DEER CREEK CLUB INC.,DEER CREEK CLUB,9861,DEER CREEK HILL,ST LOUIS,MO,631241121,3149930790,9977,10695,RBD,SBD ,ST. LOUIS CO.,3,00,"(38.629393, -90.38610899999999)",51,217,2210
VETERANS OF FOREIGN WARS,POST 4105 FLORISSANT VALLEY,410,RUE ST FRANCOIS,FLORISSANT,MO,630315018,3148316121,10038,26621,RBD,SBD ,ST. LOUIS CO.,3,00,"(38.7939082, -90.3286988)",51,191,2210
FOREST HILLS COUNTRY CLUB,FOREST HILLS COUNTRY CLUB,36,FOREST CLUB DRIVE,CHESTERFIELD,MO,63005,6362275030,10041,10725,RBD,SBD ,ST. LOUIS CO.,3,00,"(38.618759, -90.589597)",51,219,2210
GLEN ECHO COUNTRY CLUB INC.,GLEN ECHO COUNTRY CLUB,3401,LUCAS-HUNT ROAD,NORMANDY,MO,63121,3143831500,10071,10740,RBD,SBD ,ST. LOUIS CO.,3,00,,,,
GREENBRIAR HILLS COUNTRY CLUB,GREENBRIAR HILLS COUNTRY CLUB,12665,BIG BEND BLVD,KIRKWOOD,MO,63122,3148223011,10090,10750,RBD,SBD ,ST. LOUIS CO.,3,00,,,,
JOHN'S RESTAURANT INC.,JOHN MINEO'S AND ANNA'S,13488,CLAYTON ROAD,ST LOUIS,MO,631411006,3144345244,10155,0,RBD,    ,ST. LOUIS CO.,3,00,,,,
KING DOH RESTAURANT INC.,KING DOH RESTAURANT,10045,MANCHESTER ROAD,WARSON WOODS,MO,631221825,3148216988,10196,10801,RBD,SBD ,ST. LOUIS CO.,3,00,"(38.6033541, -90.3873545)",51,228,2210
LOG CABIN CLUB INC.,LOG CABIN CLUB,1140,LOG CABIN LANE,ST LOUIS,MO,631241518,3149930154,10250,10822,RBD,SBD ,ST. LOUIS CO.,3,00,"(38.6387463, -90.3792107)",51,217,2210
MASSA LTD.,MASSA'S,4120,N LINDBERGH ROAD,BRIDGETON,MO,63044,3147393894,10301,0,RBD,    ,ST. LOUIS CO.,3,00,"(38.738954, -90.39721899999999)",51,204,2210
MEADOWBROOK COUNTRY CLUB INC.,MEADOWBROOK COUNTRY CLUB,200,MEADOWBROOK COUNTRY CL ESTATES,BALLWIN,MO,63011,6362275361,10312,10848,RBD,SBD ,ST. LOUIS CO.,3,00,,,,
NORWOOD HILLS CORPORATION,NORWOOD HILLS COUNTRY CLUB,5565,LUCAS & HUNT ROAD,JENNINGS,MO,63121,3145210682,10356,10863,RBD,SBD ,ST. LOUIS CO.,3,00,,,,
OLD WARSON COUNTRY CLUB INC.,OLD WARSON COUNTRY CLUB,9841,OLD WARSON ROAD,ST LOUIS,MO,63124,3149680840,10364,10866,RBD,SBD ,ST. LOUIS CO.,3,00,"(38.618377, -90.38444799999999)",51,217,2210
ORLANDO BANQUETS INC.,ORLANDO GARDENS BANQUET CENTER,4300,HOFFMEISTER AVE,ST LOUIS,MO,631252233,3146386660,10367,206608,RBD,RDC5,ST. LOUIS CO.,3,00,,,,
ORLANDO BANQUETS INC.,ORLANDO GARDENS BANQUET CENTER,4300,HOFFMEISTER AVE,ST LOUIS,MO,631252233,3146386660,10367,10869,RBD,SBD ,ST. LOUIS CO.,3,00,,,,
LOYAL ORDER OF MOOSE 1948,LODGE 1948,2625,WOODSON ROAD,OVERLAND,MO,631144815,3144279721,10371,211903,RBD,SBD ,ST. LOUIS CO.,3,00,"(38.706541, -90.361643)",51,207,2210
PEGASUS INC.,BLUEBERRY HILL,6504,DELMAR BLVD,ST LOUIS,MO,631304702,3147274444,10388,10881,RBD,SBD ,ST. LOUIS CO.,3,00,"(38.6557666, -90.30495909999999)",51,216,2210
RACQUET CLUB LADUE,RACQUET CLUB LADUE,1600,LOG CABIN LANE,ST LOUIS,MO,631241105,3149932880,10421,10895,RBD,SBD ,ST. LOUIS CO.,3,00,"(38.630805, -90.38288)",51,217,2210
RONZIO-LEMAY CORPORATION,RICH & CHARLIE'S,4487,LEMAY FERRY ROAD,MEHLVILLE,MO,631291757,3148941600,10442,10902,RBD,SBD ,ST. LOUIS CO.,3,00,"(38.5002278, -90.335636)",51,248,2210
RONZIO-LEMAY CORPORATION,RICH & CHARLIE'S,9942,WATSON ROAD,CRESTWOOD,MO,631261827,3148224909,10443,10903,RBD,SBD ,ST. LOUIS CO.,3,00,"(38.55584160000001, -90.3956311)",51,239,2210
ROYALE ORLEANS INC.,"ROYALE ORLEANS, THE",2801,TELEGRAPH ROAD,ST LOUIS,MO,63125,3144877006,10449,10905,RBD,SBD ,ST. LOUIS CO.,3,00,"(38.508119, -90.29527499999999)",51,248,2210
ST. ANN'S MENS CLUB,ST. ANNS MENS CLUB,7530,NATURAL BRIDGE ROAD,ST. LOUIS,MO,631214903,3143855090,10457,0,RBD,    ,ST. LOUIS CO.,3,00,"(38.70458199999999, -90.3006248)",51,501,2210
ST. LOUIS COUNTRY CLUB INC.,ST. LOUIS COUNTRY CLUB,400,BARNES ROAD,ST LOUIS,MO,631241634,3149940011,10459,10909,RBD,SBD ,ST. LOUIS CO.,3,00,,,,
ST. LOUIS CLUB INC.,ST. LOUIS CLUB,7701,FORSYTH BLVD,CLAYTON,MO,631051870,3147261964,10460,10908,RBD,SBD ,ST. LOUIS CO.,3,00,"(38.6504549, -90.334633)",51,223,2210
SUNSET COUNTRY CLUB,SUNSET COUNTRY CLUB,9555,GEYER DRIVE,ST LOUIS,MO,631271605,3148431100,10535,10946,RBD,SBD ,ST. LOUIS CO.,3,00,"(38.5322682, -90.3910823)",51,239,2210
VETERANS OF FOREIGN WARS,BALLWIN MEMORIAL POST #6274 HOME ASSOC.,115,MIMOSA,BALLWIN,MO,630113076,6365279555,10586,10971,RBD,SBD ,ST. LOUIS CO.,3,00,"(38.5950051, -90.5668366)",51,219,2210
WASHINGTON U. FACULTY CONFERENCE CENTER,WASHINGTON U. FACULTY CONFERENCE CENTER,6440,FORSYTH BLVD,CLAYTON,MO,631052231,3149355045,10599,10978,RBD,SBD ,ST. LOUIS CO.,3,00,"(38.6462399, -90.3091598)",51,223,2210
WESTBOROUGH COUNTRY CLUB INC.,WESTBOROUGH COUNTRY CLUB,631,S BERRY ROAD,ST LOUIS,MO,631224858,3149685333,10604,10979,RBD,SBD ,ST. LOUIS CO.,3,00,,,,
SCHNUCK MARKETS INC.,SCHNUCK MARKETS #102,10650,OLIVE STREET ROAD,CREVE COEUR,MO,63141,3145673838,11180,83861,OPL,OPT ,ST. LOUIS CO.,3,00,,,,
SCHNUCK MARKETS INC.,SCHNUCK MARKETS #102,10650,OLIVE STREET ROAD,CREVE COEUR,MO,63141,3145673838,11180,71092,OPL,SOP ,ST. LOUIS CO.,3,00,,,,
SCHNUCK MARKETS INC.,SCHNUCK MARKETS #101,8200,N LINDBERGH,FLORISSANT,MO,63031,3149217060,11181,71090,OPL,SOP ,ST. LOUIS CO.,3,00,"(38.788607, -90.3437749)",51,181,2210
SCHNUCK MARKETS INC.,SCHNUCK MARKETS #101,8200,N LINDBERGH,FLORISSANT,MO,63031,3149217060,11181,83348,OPL,OPT ,ST. LOUIS CO.,3,00,"(38.788607, -90.3437749)",51,181,2210
SCHNUCK MARKETS INC.,SCHNUCK MARKETS #184,#74,GRANDVIEW PLAZA,FLORISSANT,MO,63033,3148384560,11188,83346,OPL,OPT ,ST. LOUIS CO.,3,00,,,,
SCHNUCK MARKETS INC.,SCHNUCK MARKETS #184,#74,GRANDVIEW PLAZA,FLORISSANT,MO,63033,3148384560,11188,71122,OPL,SOP ,ST. LOUIS CO.,3,00,,,,
SCHNUCK MARKETS INC.,SCHNUCK MARKETS #136,8650,BIG BEND BLVD,WEBSTER GROVES,MO,63119,3149610555,11194,83654,OPL,OPT ,ST. LOUIS CO.,3,00,"(38.582771, -90.35670999999999)",51,228,2210
SCHNUCK MARKETS INC.,SCHNUCK MARKETS #136,8650,BIG BEND BLVD,WEBSTER GROVES,MO,63119,3149610555,11194,71102,OPL,SOP ,ST. LOUIS CO.,3,00,"(38.582771, -90.35670999999999)",51,228,2210
STELMACKI THRIF-TEE SUPER MARKET INC.,STELMACKI THRIF-TEE SUPER MARKET,9965,LEWIS & CLARK BLVD HWY 36,MOLINE ACRES,MO,631365322,3148671733,11223,72407,OPL,SOP ,ST. LOUIS CO.,3,00,,,,
WILLIAM A. STRAUB INC.,STRAUB MARKET,211,LOCKWOOD AVE,WEBSTER GROVES,MO,63119,3149620169,11224,87096,OPL,SOP ,ST. LOUIS CO.,3,00,"(38.593724, -90.36198999999999)",51,228,2210
WILLIAM A. STRAUB INC.,STRAUB MARKET,211,LOCKWOOD AVE,WEBSTER GROVES,MO,63119,3149620169,11224,87097,OPL,OPT ,ST. LOUIS CO.,3,00,"(38.593724, -90.36198999999999)",51,228,2210
KRUSE FLORIST INC.,KRUSE FLORIST,3310,LEMAY FERRY ROAD,ST LOUIS,MO,631254420,3148922666,11326,0,OPL,    ,ST. LOUIS CO.,3,00,"(38.512026, -90.317206)",51,248,2210
SCHNUCK MARKETS INC.,SCHNUCK MARKETS #137,10070,GRAVOIS ROAD,ST LOUIS,MO,63123,3146318220,11367,82857,OPL,OPT ,ST. LOUIS CO.,3,00,,,,
SCHNUCK MARKETS INC.,SCHNUCK MARKETS #137,10070,GRAVOIS ROAD,ST LOUIS,MO,63123,3146318220,11367,70979,OPL,SOP ,ST. LOUIS CO.,3,00,,,,
SCHNUCK MARKETS INC.,SCHNUCK MARKETS #118,5519,OAKVILLE SHOPPING CENTER,ST LOUIS,MO,63129,3148926401,11371,70965,OPL,SOP ,ST. LOUIS CO.,3,00,,,,
SCHNUCK MARKETS INC.,SCHNUCK MARKETS #118,5519,OAKVILLE SHOPPING CENTER,ST LOUIS,MO,63129,3148926401,11371,82855,OPL,OPT ,ST. LOUIS CO.,3,00,,,,
SCHNUCK MARKETS INC.,SCHNUCK MARKETS #193,5434,SOUTHFIELD CENTER,ST LOUIS,MO,63123,3148491815,11374,70978,OPL,SOP ,ST. LOUIS CO.,3,00,,,,
SCHNUCK MARKETS INC.,SCHNUCK MARKETS #193,5434,SOUTHFIELD CENTER,ST LOUIS,MO,63123,3148491815,11374,82856,OPL,OPT ,ST. LOUIS CO.,3,00,,,,
IMMACULATE CONCEPTION CHURCH,IMMACULATE CONCEPTION CHURCH,7240,ANNA AVE,MAPLEWOOD,MO,631433299,3146453307,11485,0,5BDW,    ,ST. LOUIS CO.,3,00,"(38.611539, -90.31582399999999)",51,226,2210
OUR LADY OF GUADALUPE CHURCH,OUR LADY OF GUADALUPE,1115,S FLORISSANT ROAD,ST LOUIS,MO,631211102,3145229264,11507,0,5BDW,    ,ST. LOUIS CO.,3,00,"(38.730069, -90.303122)",51,191,2210
ST. JOHN BOSCO CHURCH,ST. JOHN BOSCO,12934,MARINE AVE,ST LOUIS,MO,631462234,3144341312,11528,0,5BDW,    ,ST. LOUIS CO.,3,00,"(38.7063598, -90.4746285)",51,208,2210
ST. LUKE'S EVANGELIST CATHOLIC CHURCH,"MEN'S GUILD, THE",1414,BELLEVUE,RICHMOND HEIGHTS,MO,631172321,3146451450,11530,0,5BDW,    ,ST. LOUIS CO.,3,00,"(38.6265956, -90.3121731)",51,226,2210
ST. MICHAELS CHURCH & SCHOOL,ST. MICHAELS CHURCH & SCHOOL,7622,SUTHERLAND AVE,SHREWSBURY,MO,631192855,3146475611,11533,0,5BDW,    ,ST. LOUIS CO.,3,00,"(38.5937083, -90.32887679999999)",51,228,2210
ST. RITA'S PARISH,ST. RITA'S,8240,WASHINGTON STREET,ST LOUIS,MO,631146236,3144284845,11535,0,5BDW,    ,ST. LOUIS CO.,3,00,"(38.6842069, -90.3354268)",51,501,2210
AFFTON ATHLETIC ASSOCIATION INC.,AFFTON ATHLETIC FIELD HOUSE,10300,GRAVOIS,ST LOUIS,MO,631232635,3148434207,11702,0,5BD,    ,ST. LOUIS CO.,3,00,"(38.5428827, -90.3470158)",51,239,2210
ASCENSION CATHOLIC CHURCH,,230,SANTA MARIA DRIVE,CHESTERFIELD,MO,630051631,6365323304,11710,0,5BD,    ,ST. LOUIS CO.,3,00,"(38.661378, -90.577753)",51,219,2210
MANCHESTER ATHLETIC ASSOCIATION,MANCHESTER ATHLETIC ASSOCIATION,700,RUSSELL WIRTH LANE,MANCHESTER,MO,630111091,3143911043,11784,0,5BD,    ,ST. LOUIS CO.,3,00,,,,
MOST WORSHIPFUL PRINCE HALL,GRAND LODGE F & A M JURISDICATION,4525,OLIVE STREET,ST LOUIS,MO,63108,3143615298,12039,0,COL,    ,ST. LOUIS CITY,3,00,,,,
ALANTOM INC.,TUCKER'S PLACE,2117,S 12TH STREET,ST LOUIS,MO,631044128,3147725977,12049,12936,RBD,SBD ,ST. LOUIS CITY,3,00,"(38.6072301, -90.2101759)",54,200,2223
AMERICAN LEGION 422,BARLOG-KUSZAJ-ZERO MEMORIAL POST 422,2601,S 11TH STREET,ST LOUIS,MO,631181811,3146473111,12090,0,RBD,    ,ST. LOUIS CITY,3,00,"(38.6017948, -90.2114237)",54,200,2223
CHAS & P INC.,CHARLIE GITTO'S ON THE HILL,5226,SHAW AVE,ST LOUIS,MO,631103042,3147728898,12191,15718,RBD,SBD ,ST. LOUIS CITY,3,00,,,,
CONCORDIA GYMNASTIC SOCIETY,CONCORDIA GYMNASTIC SOCIETY,6432,GRAVOIS AVE,ST LOUIS,MO,631161124,3143529388,12218,12968,RBDE,SBD ,ST. LOUIS CITY,3,00,"(38.5729036, -90.2813796)",54,200,2223
DOMINIC'S RESTAURANT INC.,DOMINIC'S RESTAURANT,5101,WILSON AVE,ST LOUIS,MO,631103109,3147711632,12262,0,RBD,    ,ST. LOUIS CITY,3,00,"(38.6156528, -90.27115979999999)",54,200,2223
FAVAZZA'S INC.,FAVAZZA'S,5201,SOUTHWEST AVE,ST LOUIS,MO,631391444,3147724454,12300,54721,RBD,SBD ,ST. LOUIS CITY,3,00,"(38.6114474, -90.2739125)",54,200,2223
MISSOURI ATHLETIC CLUB INC.,MISSOURI ATHLETIC CLUB,405,WASHINGTON AVE,ST LOUIS,MO,631022183,3142317220,12591,125063,RBD,EXTH,ST. LOUIS CITY,3,00,,,,
MISSOURI ATHLETIC CLUB INC.,MISSOURI ATHLETIC CLUB,405,WASHINGTON AVE,ST LOUIS,MO,631022183,3142317220,12591,13047,RBD,SBD ,ST. LOUIS CITY,3,00,,,,
MUNICIPAL THEATRE ASSN. INC.,MUNY,1,THEATRE DR (FOREST PARK),ST. LOUIS,MO,63112,3143611900,12612,13049,RBD,SBD ,ST. LOUIS CITY,3,00,"(38.6407896, -90.2806884)",54,200,2223
PIETRO'S RESTAURANT INC.,PIETRO'S,3801,WATSON ROAD,ST LOUIS,MO,63109,3146459263,12666,0,RBD,    ,ST. LOUIS CITY,3,00,"(38.5957716, -90.3013337)",54,200,2223
RACQUET CLUB INC.,RACQUET CLUB,476,N KINGSHIGHWAY BLVD,ST LOUIS,MO,631081296,3143612100,12698,13069,RBD,SBD ,ST. LOUIS CITY,3,00,"(38.6488576, -90.2634571)",54,200,2223
ST. ANTHONY PARISH,ST. ANTHONY OF PADUA CHURCH,3133-,35 MERAMEC,ST. LOUIS,MO,63118,3143537470,12740,0,RBD,    ,ST. LOUIS CITY,3,00,"(38.5803714, -90.2388965)",54,200,2223
ST. JAMES CHURCH,ST. JAMES CHURCH,1360,TAMM AVE,ST LOUIS,MO,63139,3146450167,12741,0,RBD,    ,ST. LOUIS CITY,3,00,"(38.626006, -90.2934279)",54,200,2223
ST. LOUIS BOCCE CLUB INC.,ST. LOUIS BOCCE CLUB,2210,MARCONI,ST LOUIS,MO,631103114,3147735574,12742,71773,RBDE,SBD ,ST. LOUIS CITY,3,00,"(38.61415, -90.2729501)",54,200,2223
ST. LOUIS SPAGHETTI RESTAURANT INC.,"OLD SPAGHETTI FACTORY, THE",727,N 1ST STREET,ST LOUIS,MO,63102,3146210276,12749,13080,RBD,SBD ,ST. LOUIS CITY,3,00,,,,
ST. LOUIS SYMPHONY ORCHESTRA,ST. LOUIS SYMPHONY ORCHESTRA,718,N GRAND BLVD,ST. LOUIS,MO,631031011,3145332500,12751,28049,RBD,SBD ,ST. LOUIS CITY,3,00,,,,
SOUTH BROADWAY ATHLETIC CLUB INC.,SOUTH BROADWAY ATHLETIC CLUB,2301,S 7TH STREET,ST LOUIS,MO,63104,3147764833,12808,59815,RBD,SBD ,ST. LOUIS CITY,3,00,"(38.6042023, -90.2049334)",54,200,2223
GLOBE CUT RATE DRUGS INC.,GLOBE CUT RATE DRUGS,1900,S BROADWAY STREET,ST LOUIS,MO,631044053,3142410967,13187,119964,OPL,SOP ,ST. LOUIS CITY,3,00,"(38.6069764, -90.20090499999999)",54,200,2223
MCNEAL'S SUPERETTE PACKAGE LIQUORS INC.,MCNEAL'S SUPERETTE PACKAGE LIQUOR,5900,LILLIAN AVE,ST LOUIS,MO,631364735,3143826742,13249,195259,OPL,OPT ,ST. LOUIS CITY,3,00,"(38.6996619, -90.259924)",54,200,2223
MCNEAL'S SUPERETTE PACKAGE LIQUORS INC.,MCNEAL'S SUPERETTE PACKAGE LIQUOR,5900,LILLIAN AVE,ST LOUIS,MO,631364735,3143826742,13249,80974,OPL,SOP ,ST. LOUIS CITY,3,00,"(38.6996619, -90.259924)",54,200,2223
"MITCHELL, BERNICE D.",MITCHELL'S PACKAGE STORE-LIQUOR,2840,CASS AVENUE,ST LOUIS,MO,631062125,3145319063,13261,0,OPL,    ,ST. LOUIS CITY,3,00,"(38.6458394, -90.21752339999999)",54,200,2223
MOM'S DELI INC.,MOM'S DELI,4412,JAMIESON AVE,ST LOUIS,MO,631091910,3146441198,13263,72232,OPL,SOP ,ST. LOUIS CITY,3,00,"(38.5917903, -90.3093536)",54,200,2223
SCHNUCK MARKETS INC.,SCHNUCK MARKETS #107,7450,HAMPTON AVE,ST LOUIS,MO,63109,3148323440,13340,71144,OPL,SOP ,ST. LOUIS CITY,3,00,"(38.565573, -90.29378799999999)",54,200,2210
SCHNUCK MARKETS INC.,SCHNUCK MARKETS #107,7450,HAMPTON AVE,ST LOUIS,MO,63109,3148323440,13340,83640,OPL,OPT ,ST. LOUIS CITY,3,00,"(38.565573, -90.29378799999999)",54,200,2210
WILLIAM A. STRAUB INC.,STRAUB MARKET,302,N KINGSHIGHWAY,ST LOUIS,MO,63108,3143616646,13367,87099,OPL,OPT ,ST. LOUIS CITY,3,00,,,,
WILLIAM A. STRAUB INC.,STRAUB MARKET,302,N KINGSHIGHWAY,ST LOUIS,MO,63108,3143616646,13367,87098,OPL,SOP ,ST. LOUIS CITY,3,00,,,,
ST. PIUS THE FIFTH CHURCH,ST. PIUS THE FIFTH CHURCH,3310,S GRAND AVENUE,ST LOUIS,MO,631181002,3147721525,13431,0,5BDW,    ,ST. LOUIS CITY,3,00,"(38.5970427, -90.24271039999999)",54,200,2223
ST. STEPHEN'S PROTOMARTYR CHURCH,,3949,WILMINGTON AVE,ST LOUIS,MO,631163222,3144811133,13432,0,5BDW,    ,ST. LOUIS CITY,3,00,,,,
NATIONAL RAILROAD PASSENGER CORPORATION,AMTRAK,60,MASSACHUSETTS AVE NE 4W,WASHINGTON,DC,200024285,2029063252,13728,13729,RR,SBD ,OUT OF STATE,7,00,"(38.8969676, -77.0054298)",,,1049
BROWN-FORMAN CORPORATION,BROWN-FORMAN BEVERAGE WORLDWIDE,850,DIXIE HIGHWAY,LOUISVILLE,KY,402101038,5025851100,13849,0,LS,    ,OUT OF STATE,7,00,"(38.244955, -85.7837243)",,,1327
E. & J. GALLO WINERY,E & J GALLO,600,YOSEMITE BLVD,MODESTO,CA,953542760,2093413111,13867,0,LS,    ,OUT OF STATE,7,00,"(37.634545, -120.982279)",,,1340
WILLIAM GRANT & SONS INC.,WILLIAM GRANT & SONS,130,FIELDCREST AVE,EDISON,NJ,088373620,7322259000,13884,0,LS,    ,OUT OF STATE,7,00,,,,
KOBRAND CORPORATION,,1,MANHATTANVILLE RD. 4 FL,PURCHASE,NY,105772100,9142537700,13897,0,LS,    ,OUT OF STATE,7,00,,,,
SAZERAC COMPANY INC.,SAZERAC COMPANY,101,MAGAZINE STREET,NEW ORLEANS,LA,701302420,5048305743,13924,0,LS,    ,OUT OF STATE,7,00,,,,
WINE GROUP INC.,WINE GROUP,4596,S. TRACY BLVD.,TRACY,CA,953778106,2095994111,13960,0,LS,    ,OUT OF STATE,7,00,"(37.69898, -121.434143)",,,1181
WINESELLERS LTD.,,7520,N. CALDWELL AVENUE,NILES,IL,607143808,8476471100,14098,0,22S,    ,OUT OF STATE,7,00,,,,
TERMINAL RAILROAD ASSN. OF ST. LOUIS,,1017,OLIVE STREET 5TH FLOOR,ST. LOUIS,MO,631012022,6184518440,14569,0,TRNS,    ,ST. LOUIS CITY,3,00,,,,
VETERANS OF FOREIGN WARS,POST 3838,,HWY 61,CAPE GIRARDEAU,MO,637019650,5733344438,14602,15773,RBDE,SBD ,CAPE GIRARDEAU,4,00,,,,
AMERICAN LEGION 323,POST 323,504,LEWTKENHAUS BLVD,WENTZVILLE,MO,633851214,6363276060,14604,164448,RBD,SBD ,ST. CHARLES,3,00,,,,
BENEVOLENT PROTECTIVE ORDER OF ELKS 639,LODGE 639,639,LIMBAUGH DRIVE,CAPE GIRARDEAU,MO,637018407,5733359294,14648,15513,RBDE,SBD ,CAPE GIRARDEAU,4,00,,,,
COLUMBUS CLUB ASSOCIATION INC.,COLUMBUS CLUB ASSOCIATION,318,S SPANISH STREET,CAPE GIRARDEAU,MO,637017443,5733340710,14652,64580,RBDE,SBD ,CAPE GIRARDEAU,4,00,"(37.29837, -89.51978299999999)",86,382,2695
COLUMBUS CLUB ASSOCIATION INC.,COLUMBUS CLUB ASSOCIATION,318,S SPANISH STREET,CAPE GIRARDEAU,MO,637017443,5733340710,14652,286205,RBDE,RBDC,CAPE GIRARDEAU,4,00,"(37.29837, -89.51978299999999)",86,382,2695
FRATERNAL ORDER OF EAGLES 3775,AERIE 3775,321,SPRING AVE,CAPE GIRARDEAU,MO,63701,5733350931,14691,15535,RBDE,SBD ,CAPE GIRARDEAU,4,00,"(37.310923, -89.55015399999999)",86,382,2695
CHEN-CHU INC.,HUNAN RESTAURANT,409,N 36TH STREET,ST JOSEPH,MO,64506,8162322535,15211,0,RBD,    ,BUCHANAN,1,00,"(39.770673, -94.805702)",25,77,2692
REMY COINTREAU USA,,1290,AVENUE OF THE AMERICAS 14TH FL,NEW YORK,NY,101040051,2123994200,15355,0,LS,    ,OUT OF STATE,7,00,"(40.7604895, -73.978872)",,,2095
MITY FINE PASTA INC.,PASTA HOUSE COMPANY,9012,GRAVOIS,ST LOUIS,MO,631234626,3146381240,15425,16417,RBD,SBD ,ST. LOUIS CO.,3,00,"(38.5551048, -90.3129828)",51,235,2210
KREIS' RESTAURANT INC.,KREIS' RESTAURANT,535,S LINDBERGH,FRONTENAC,MO,631312748,3149930735,15427,17391,RBD,SBD ,ST. LOUIS CO.,3,00,"(38.6467869, -90.4057785)",51,217,2210
KAHOKA C & R MARKET INC.,,263,N JOHNSON STREET,KAHOKA,MO,634451422,6607273477,15573,182411,OPL,OPT ,CLARK,2,00,"(40.4220687, -91.71860799999999)",1,7,2700
KAHOKA C & R MARKET INC.,,263,N JOHNSON STREET,KAHOKA,MO,634451422,6607273477,15573,72378,OPL,SOP ,CLARK,2,00,"(40.4220687, -91.71860799999999)",1,7,2700
SCHNUCK MARKETS INC.,SCHNUCK MARKETS #138,48,PLAZA NINETY FOUR DRIVE,ST PETERS,MO,63376,6369281623,15729,71146,OPL,SOP ,ST. CHARLES,3,00,,,,
SCHNUCK MARKETS INC.,SCHNUCK MARKETS #138,48,PLAZA NINETY FOUR DRIVE,ST PETERS,MO,63376,6369281623,15729,138646,OPL,OPT ,ST. CHARLES,3,00,,,,
ERNESTINE SCHUMANN HEINK CHAPTER INC.,DISABLED VETERANS TRUST,14605,E. US 40 HWY,KANSAS CITY,MO,641381119,8167658787,15894,24493,RBD,SBD ,JACKSON,1,00,"(39.03446479999999, -94.40832309999999)",43,463,525
KNIGHTS OF COLUMBUS,ST. PAUL HOME ASSOCIATION,1270,CHURCH RD - MAIN BLDG,ST PAUL,MO,63366,6362811799,16074,0,RBD,    ,ST. CHARLES,3,00,,,,
GERMAN CULTURAL SOCIETY,GERMAN CULTURAL SOCIETY,3652,S JEFFERSON AVE,ST LOUIS,MO,631183926,3147718368,16186,134705,RBD,SBD ,ST. LOUIS CITY,3,00,"(38.5880936, -90.225988)",54,200,2223
AYERS OIL COMPANY INC.,AYERCO 30,1704,S BALTIMORE,KIRKSVILLE,MO,63501,6606653940,16339,71545,OPL,SOP ,ADAIR,2,00,"(40.1807794, -92.57212369999999)",12,32,509
QUIK-TRIP CORPORATION,QUIK-TRIP #218,7133,NW BARRY ROAD,KANSAS CITY,MO,641531719,8167416640,16668,73081,OPL,SOP ,PLATTE,1,00,"(39.2464767, -94.6631178)",35,132,2170
BENEVOLENT PROTECTIVE ORDER OF ELKS 690,LODGE 690,560,ST PETERS ROAD,ST CHARLES,MO,633037118,6364475515,16885,42219,RBD,SBD ,ST. CHARLES,3,00,"(38.74932, -90.6144872)",48,202,2177
QUICK'S SUPER MARKETS INC.,QUICK'S SUPER MARKETS,,HWY 100 WEST,NEW HAVEN,MO,63068,5732372521,17773,73851,OPL,SOP ,FRANKLIN,2,00,,,,
WEBSTER PIZZA INC.,IMO'S PIZZA,8115,BIG BEND,WEBSTER GROVES,MO,63119,3149623666,17973,19625,5BDW,5SBD,ST. LOUIS CO.,3,00,"(38.5920269, -90.3379832)",51,228,2210
VETERANS OF FOREIGN WARS,RALPH RUSSO POST 2482,1087,N SERVICE ROAD,ST CLAIR,MO,630770001,6366294880,17992,77771,RBDE,SBD ,FRANKLIN,2,00,,,,
GATES & SONS BARBEQUE OF MISSOURI INC.,GATES & SONS BAR-B-Q,10440,HWY 40 EAST,INDEPENDENCE,MO,640556034,8163535880,18094,5231,5BDW,5SBD,JACKSON,1,00,,,,
WALLIS OIL COMPANY INC.,WALLIS OIL COMPANY #60,,HWY I-44 & C,BOURBON,MO,65441,5738852277,18106,225159,OPL,OPT ,CRAWFORD,4,00,,,,
WALLIS OIL COMPANY INC.,WALLIS OIL COMPANY #60,,HWY I-44 & C,BOURBON,MO,65441,5738852277,18106,70870,OPL,SOP ,CRAWFORD,4,00,,,,
SYBERG'S AN EATING & DRINKING CO. INC.,SYBERG'S,7802,GRAVOIS,ST LOUIS,MO,63123,3148323560,18205,18208,RBD,SBD ,ST. LOUIS CO.,3,00,"(38.5615204, -90.2980771)",51,238,2210
STROUD'S NORTH INC.,STROUD'S OAK RIDGE MANOR,5410,NE OAK RIDGE DRIVE,KANSAS CITY,MO,641192905,8164549600,18330,20181,RBD,SBD ,CLAY,1,00,"(39.1946956, -94.5128192)",36,133,2701
VETERANS OF FOREIGN WARS,BECKER-MEYER-BECKER POST 2593,2301,CHURCH RD.,ARNOLD,MO,630102109,6362962611,18412,19858,RBD,SBD ,JEFFERSON,3,00,"(38.4335198, -90.3805222)",62,255,1967
FRATERNAL ORDER OF EAGLES 3319,AERIE 3319,219,W TROTTER,SIKESTON,MO,638012857,5734716133,19266,19421,RBDE,SBD ,SCOTT,4,00,"(36.8747372, -89.59123249999999)",96,497,2213
AMERICAN LEGION 253,PEEBLES-VAUGHN-WIDEMAN POST 253,849,AMERICAN LEGION DR,FESTUS,MO,630282629,6369376867,19505,20564,RBD,SBD ,JEFFERSON,3,00,"(38.206095, -90.40014599999999)",62,285,1967
BENEVOLENT PROTECTIVE ORDER OF ELKS 1721,LODGE 1721,#4,ELKS DR,CRYSTAL CITY,MO,630199998,6369374711,19596,20557,RBD,SBD ,JEFFERSON,3,00,,,,
VETERANS OF FOREIGN WARS,POST 3777,900,VFW DR,FESTUS,MO,630283744,6369317977,19723,20885,RBD,SBD ,JEFFERSON,3,00,"(38.2023269, -90.38780919999999)",62,289,1967
AMERICAN LEGION 114,HENRY MELDRUM POST 114,333,S KINGSHIGHWAY,SIKESTON,MO,63801,5734719956,19727,19728,RBDE,SBD ,SCOTT,4,00,,,,
FRATERNAL ORDER OF EAGLES 1800,AERIE 1800 BIG TREE,31348,170TH ST,CANTON,MO,634353336,5732883240,19809,25002,RBDE,SBD ,LEWIS,2,00,,,,
FRATERNAL ORDER OF EAGLES 3669,AERIE 3669,,HWY 71 SOUTH,MARYVILLE,MO,64468,6607257032,19879,20858,RBDE,SBD ,NODAWAY,1,00,,,,
BENEVOLENT PROTECTIVE ORDER OF ELKS 2319,LODGE 2319,349,DONA STREET,SIKESTON,MO,638013408,5734713333,19906,19908,RBDE,SBD ,SCOTT,4,00,,,,
AMVETS 48,POST 48,1075,AMVET DRIVE,DESOTO,MO,63020,6365861750,19918,20795,RBD,SBD ,JEFFERSON,3,00,,,,
BENEVOLENT PROTECTIVE ORDER OF ELKS 2455,LODGE 2455,2808,HUNNING ROAD (OLD),HIGH RIDGE,MO,63049,6366773557,19922,20815,RBD,SBD ,JEFFERSON,3,00,,,,
GIANINO'S PIZZA DEN INC.,BILL GIANINO'S,4569,CHESTNUT PARK PLAZA,ST LOUIS,MO,63129,3148926326,19932,19934,RBD,SBD ,ST. LOUIS CO.,3,00,,,,
VETERANS OF FOREIGN WARS,BIG RIVER POST #5331,#1,LYNN LANE,CEDAR HILL,MO,630162349,6362745001,19935,20884,RBD,SBD ,JEFFERSON,3,00,"(38.35705069999999, -90.64659929999999)",62,256,1967
AMVETS 42,POST 42 MCDOWELL MEMORIAL,690,JOACHIM AVENUE,HERCULANEUM,MO,63048,6364794040,19950,53736,RBD,SBD ,JEFFERSON,3,00,"(38.263571, -90.383698)",62,273,1967
BENEVOLENT PROTECTIVE ORDER OF ELKS 689,LODGE 689,1520,CLARKE STREET,DESOTO,MO,63020,6365869750,19960,20876,RBD,SBD ,JEFFERSON,3,00,,,,
FRATERNAL ORDER OF EAGLES 3678,AERIE 3678 MERAMEC,1725,JEFFCO BLVD,ARNOLD,MO,630107124,6362820208,19975,20985,RBD,SBD ,JEFFERSON,3,00,"(38.428507, -90.379774)",62,255,1967
BENEVOLENT PROTECTIVE ORDER OF ELKS 2503,LODGE 2503 CRESTWOOD,10261,BAUER ROAD,ST LOUIS,MO,631283214,3148423660,20069,20922,RBD,SBD ,ST. LOUIS CO.,3,00,"(38.4973057, -90.39605189999999)",51,248,2210
BENEVOLENT PROTECTIVE ORDER OF ELKS 2615,LODGE 2615,9018,HWY 69 NE,CAMERON,MO,644299789,8166327987,20084,24776,RBDE,SBD ,CLINTON,1,00,,,,
FRATERNAL ORDER OF EAGLES 4010,AERIE 4010,2815,US HWY 65,LOUISBURG,MO,65685,4179935780,20085,25182,RBDE,SBD ,DALLAS,5,00,,,,
VETERANS OF FOREIGN WARS,POST 5366 JOHN BUTYENEK MEMORIAL,,HWY HH,ISABELLA,MO,65676,4172735008,20107,37997,RBDE,SBD ,OZARK,5,00,,,,
AMVETS 106,POST 106,360,BROWN STREET,ST PETERS,MO,633761040,6363971660,20214,21116,RBD,SBD ,ST. CHARLES,3,00,,,,
AYERS OIL COMPANY INC.,AYERCO #065,303,MANSION,LOUISIANA,MO,63353,5737546669,20269,72057,OPL,SOP ,PIKE,2,00,,,,
QUAD PAC INC.,HIDE-A-WAY BAR,113,SHOTWELL,RICHMOND,MO,640851553,8167765252,20286,0,RBD,    ,RAY,1,00,,,,
VETERANS OF FOREIGN WARS 1831,POST 1831 DESOTO,1651,VETERANS DRIVE,DESOTO,MO,63020,6365869271,20293,21128,RBD,SBD ,JEFFERSON,3,00,,,,
VETERANS OF FOREIGN WARS,POST 2210,,MEMORIAL DRIVE,STE GENEVIEVE,MO,636701039,5738832207,20361,21297,RBDE,SBD ,STE. GENEVIEVE,4,00,,,,
VETERANS OF FOREIGN WARS,POST 5077 HINKEL-KLEESCHULTE-WESTHOFF,8500,VETERANS MEMORIAL PARKWAY,O'FALLON,MO,633660126,6362721945,20458,21521,RBD,SBD ,ST. CHARLES,3,00,"(38.7999459, -90.69345539999999)",48,173,2177
WEST PARK BOWLING LANES INC.,WEST PARK BOWLING LANES,354,SILVER SPRINGS ROAD,CAPE GIRARDEAU,MO,63701,5733341047,20585,21831,RBD,SBD ,CAPE GIRARDEAU,4,00,,,,
BENEVOLENT PROTECTIVE ORDER OF ELKS 2635,LODGE 2635 AFFTON,6330,HEEGE,ST LOUIS,MO,631232652,3143536292,20598,21540,RBD,SBD ,ST. LOUIS CO.,3,00,"(38.565208, -90.322428)",51,235,2210
VETERANS OF FOREIGN WARS,POST 2866,#66,VFW LANE,ST CHARLES,MO,633035168,6367249612,20730,20731,RBD,SBD ,ST. CHARLES,3,00,"(38.762878, -90.53772900000001)",48,202,2177
FRATERNAL ORDER OF EAGLES 3758,AERIE 3758,411,EAST BURRIS,JUNCTION CITY,MO,636457294,5737838861,20878,28344,RBDE,SBD ,MADISON,4,00,,,,
FRATERNAL ORDER OF EAGLES 3911,AERIE 3911 PINEY RIVER,,HWY 63,HOUSTON,MO,65483,4179672169,20888,31075,RBDE,SBD ,TEXAS,5,00,,,,
AMERICAN LEGION 150,BUCHHOLTZ-KIEFER POST 150,2,PARK DR,STE GENEVIEVE,MO,636701556,5738835635,21000,22063,RBDE,SBD ,STE. GENEVIEVE,4,00,,,,
KNIGHTS OF COLUMBUS,STE. GENEVIEVE COUNCIL 1037,600,MARKET,STE GENEVIEVE,MO,636700221,5738837549,21022,22036,RBDE,SBD ,STE. GENEVIEVE,4,00,,,,
VETERANS OF FOREIGN WARS,POST 2508,21464,PARALLEL ROAD,KIRKSVILLE,MO,635017194,6606656009,21086,0,RBDE,    ,ADAIR,2,00,,,,
KING & I RESTAURANT INC.,KING & I RESTAURANT,3157,S GRAND,ST LOUIS,MO,631181020,3147711777,21122,24827,RBD,SBD ,ST. LOUIS CITY,3,00,"(38.6011529, -90.242783)",54,200,2223
DELEX CORPORATION,"PASTA HOUSE CO., THE",4517,GRAVOIS VILLAGE CENTER,HIGH RIDGE,MO,630491838,6366772711,21208,21209,RBD,SBD ,JEFFERSON,3,00,,,,
JEFFERSON CITY COUNTRY CLUB INC.,JEFFERSON CITY COUNTRY CLUB,516,S COUNTRY CLUB DR,JEFFERSON CITY,MO,651090345,5738934611,21333,22940,RBD,SBD ,COLE,2,00,"(38.5827843, -92.2593814)",58,465,2702
BENEVOLENT PROTECTIVE ORDER OF ELKS 2587,LODGE 2587,1163,TOM GINNEVER ROAD,O'FALLON,MO,633664472,6362407736,21396,22756,RBD,SBD ,ST. CHARLES,3,00,"(38.822739, -90.66793)",48,173,2177
CFM OF MID MISSOURI INC.,CONVENIENT FOOD MART NO. 14-002,3714,W TRUMAN BLVD,JEFFERSON CITY,MO,651090537,5738933278,21427,70736,OPL,SOP ,COLE,2,00,"(38.588182, -92.25587999999999)",58,465,2702
BENEVOLENT PROTECTIVE ORDER OF ELKS 2644,LODGE 2644 EUREKA-PACIFIC,19,W 1ST STREET,EUREKA,MO,63025,6369386720,21541,30071,RBD,SBD ,ST. LOUIS CO.,3,00,"(38.503531, -90.628629)",51,219,2210
SWANS INVESTMENTS LTD.,HEARTLAND DISCOUNT PHARMACY,707,HWY 50 WEST,UNION,MO,630841941,6365832646,21563,0,OPL,    ,FRANKLIN,2,00,,,,
NIEMANN FOODS INC.,COUNTY MARKET #409,1805,ELM STREET,CANTON,MO,63435,5732885151,21688,140379,OPL,OPT ,LEWIS,2,00,,,,
NIEMANN FOODS INC.,COUNTY MARKET #409,1805,ELM STREET,CANTON,MO,63435,5732885151,21688,74067,OPL,SOP ,LEWIS,2,00,,,,
SALISBURY FOODS INC.,R & R APPLE MARKET,413,N. WEBER AVE,SALISBURY,MO,65281,6603886600,21689,74053,OPL,SOP ,CHARITON,2,00,,,,
VETERANS OF FOREIGN WARS POST 4219,LAKEVIEW CLUB OF ORCHARD FARM POST 4219,6030,HWY 94 NORTH,PORTAGE DES SIOUX,MO,633731602,6362198311,21791,21795,RBD,SBD ,ST. CHARLES,3,00,"(38.9093779, -90.4270669)",48,168,2177
SCHNUCK MARKETS INC.,SCHNUCK MARKETS #129,8660,VETERANS MEMORIAL PARKWAY,O'FALLON,MO,63146,3149944730,21827,82951,OPL,OPT ,ST. CHARLES,3,00,"(38.7992188, -90.6984488)",48,173,2177
SCHNUCK MARKETS INC.,SCHNUCK MARKETS #129,8660,VETERANS MEMORIAL PARKWAY,O'FALLON,MO,63146,3149944730,21827,70933,OPL,SOP ,ST. CHARLES,3,00,"(38.7992188, -90.6984488)",48,173,2177
BENEVOLENT PROTECTIVE ORDER OF ELKS 2597,LODGE 2597 LAKE TANEYCOMO,12951,HWY 160 WEST,FORSYTH,MO,65653,4175462597,22286,273692,RBDE,SBD ,TANEY,5,00,,,,
VETERANS OF FOREIGN WARS 5789,POST 5789,329,SE DOUGLAS STREET,LEE'S SUMMIT,MO,640632709,8165248498,22305,26218,RBD,SBD ,JACKSON,1,00,"(38.9116772, -94.37522729999999)",43,165,525
AYERS OIL COMPANY INC.,AYERCO 028,401,N 4TH STREET,CANTON,MO,63435,5732883062,22344,72062,OPL,SOP ,LEWIS,2,00,,,,
BENEVOLENT PROTECTIVE ORDER OF ELKS 2678,ELKS LODGE 2678,8430,S INDUSTRIAL DRIVE,CEDAR HILL,MO,630162261,6362853074,22371,163299,RBD,SBD ,JEFFERSON,3,00,,,,
AMERICAN LEGION 21,TIREY J. FORD POST 21,16701,HWY 40 EAST,INDEPENDENCE,MO,640555328,8163730221,22649,101040,RBD,SBD ,JACKSON,1,00,"(39.0336441, -94.3836134)",43,463,525
SCRIVENER OIL COMPANY INC.,SIGNAL FOOD STORE,,HWY 5 & 60 BUSINESS,MANSFIELD,MO,65704,4179244061,22746,72992,OPL,SOP ,WRIGHT,5,00,,,,
SCRIVENER OIL COMPANY INC.,SIGNAL FOOD STORE,,HWY 5 & 60 BUSINESS,MANSFIELD,MO,65704,4179244061,22746,213273,OPL,OPT ,WRIGHT,5,00,,,,
AGM DEVELOPMENT INC.,GAS N STUFF,2599,HWY 141 SOUTH,FENTON,MO,630266166,6363431649,22893,71327,OPL,SOP ,JEFFERSON,3,00,,,,
"HOSTETLER, JILL B. & ORA W.",BATES GROCERY,,HWY 54 & 73 JUNCTION,MACKS CREEK,MO,65786,5733635707,22904,70835,OPL,SOP ,CAMDEN,2,00,,,,
"HOSTETLER, JILL B. & ORA W.",BATES GROCERY,,HWY 54 & 73 JUNCTION,MACKS CREEK,MO,65786,5733635707,22904,70835,OPL,SOP ,CAMDEN,2,00,,,,
BENEVOLENT PROTECTIVE ORDER OF ELKS 1765,LODGE 1765,1009,KREI BLVD,FARMINGTON,MO,63640,5737601955,22925,22927,RBDE,SBD ,ST. FRANCOIS,4,00,,,,
VISTA GRANDE INC.,VISTA GRANDE,4579,OSAGE BEACH PARKWAY,OSAGE BEACH,MO,650652173,5733481231,22942,24999,RBD,SBD ,CAMDEN,2,00,"(38.1462009, -92.6285676)",68,292,2694
TRAIN WRECK SALOON INC.,HANSFORD'S TRAIN WRECK SALOON,9243,MANCHESTER ROAD,ROCK HILL,MO,631442365,3149628148,22986,35357,RBD,SBD ,ST. LOUIS CO.,3,00,"(38.611675, -90.358237)",51,228,2210
W.H. KOCH CO. INC.,PIGGLY WIGGLY,401,S LOCUST,SWEET SPRINGS,MO,65351,6603354131,23265,71612,OPL,SOP ,SALINE,2,00,,,,
"HARGIS, MARJORIE L.",HARGIS PACKAGE STORE,907,E 12TH STREET,LAMAR,MO,647592139,9999999999,23279,0,OPL,    ,BARTON,5,00,,,,
AMVETS 98,POST 98,,HWY 160 SOUTH (OLD),WEST PLAINS,MO,65775,4172566986,23685,23687,RBDE,SBD ,HOWELL,5,00,,,,
BENEVOLENT PROTECTIVE ORDER OF ELKS 2088,LODGE 2088,13600,ARRINGTON ROAD,GRANDVIEW,MO,640302802,8167618990,23743,25494,RBD,SBD ,JACKSON,1,00,"(38.878837, -94.553669)",43,178,525
SCRIVENER OIL COMPANY INC.,SIGNAL FOOD STORE,402A,W MOUNT VERNON,NIXA,MO,65714,4177250640,24135,281615,OPL,OPT ,CHRISTIAN,5,00,,,,
SCRIVENER OIL COMPANY INC.,SIGNAL FOOD STORE,402A,W MOUNT VERNON,NIXA,MO,65714,4177250640,24135,72991,OPL,SOP ,CHRISTIAN,5,00,,,,
HENDRIS PARTY HOUSE OF ST. LOUIS INC.,HENDRIS PARTY HOUSE,4501,RIDGEWOOD AVENUE,ST LOUIS,MO,631161531,3147524084,24238,26196,RBD,SBD ,ST. LOUIS CITY,3,00,"(38.5879181, -90.2715053)",54,200,2223
WEST PLAINS COUNTRY CLUB INC.,WEST PLAINS COUNTRY CLUB,,HWY 63,WEST PLAINS,MO,65775,4172567197,24367,50614,RBDR,SBD ,HOWELL,5,00,,,,
VETERANS OF FOREIGN WARS,THIEMAN TIDD MEMORIAL POST 5651,555,FORISTELL,WENTZVILLE,MO,633850036,6368285951,24550,24727,RBD,SBD ,ST. CHARLES,3,00,"(38.730026, -90.89437300000002)",48,202,2177
BENEVOLENT PROTECTIVE ORDER OF ELKS 2652,LODGE 2652,542,W INDEPENDENCE,JACKSON,MO,637551200,5732431259,24626,24627,RBDE,SBD ,CAPE GIRARDEAU,4,00,"(37.394838, -89.67178299999999)",86,352,2695
"BARTLE, CHRISTINA L.",DO-DROP-IN CONVENIENCE STORE,1358,S. BISHOP,ROLLA,MO,65401,5733647421,24680,71975,OPL,SOP ,PHELPS,5,00,,,,
"BARTLE, CHRISTINA L.",DO-DROP-IN CONVENIENCE STORE,1358,S. BISHOP,ROLLA,MO,65401,5733647421,24680,275674,OPL,OPT ,PHELPS,5,00,,,,
BENEVOLENT PROTECTIVE ORDER OF ELKS 2218,LODGE 2218,,N MISSOURI STREET,POTOSI,MO,636641799,5734389020,24938,24939,RBDE,SBD ,WASHINGTON,4,00,,,,
BENEVOLENT PROTECTIVE ORDER OF ELKS 1034,LODGE 1034,115,W. FRANKLIN ST.,CLINTON,MO,647352007,6608853481,25217,25218,RBDE,SBD ,HENRY,5,00,,,,
BENEVOLENT PROTECTIVE ORDER OF ELKS 1034,LODGE 1034,115,W. FRANKLIN ST.,CLINTON,MO,647352007,6608853481,25217,285967,RBDE,RBDC,HENRY,5,00,,,,
FRATERNAL ORDER OF EAGLES 3715,AERIE 3715,,S BY-PASS & JONES STREET,KENNETT,MO,638573866,5738889418,25244,25245,RBDE,SBD ,DUNKLIN,4,00,,,,
NASH GAS & APPLIANCE COMPANY INC.,NASH GAS & APPLIANCE CO.,1,FRANK ST.,EDGERTON,MO,64444,8162273710,25448,73593,OPL,SOP ,PLATTE,1,00,,,,
GANNON PARKER & WOOTEN COMPANY INC.,"DRY DOCK, THE",780,LEMAY FERRY ROAD,ST LOUIS,MO,631251430,3146315811,25500,138544,RBD,SBD ,ST. LOUIS CO.,3,00,"(38.5375995, -90.28264709999999)",51,244,2210
VETERANS OF FOREIGN WARS,M. WALDO HATLER POST #4142,1412,WALDO HATLER MEMORIAL DRIVE,NEOSHO,MO,648502034,4174519700,25694,0,RBDE,    ,NEWTON,5,00,,,,
BENEVOLENT PROTECTIVE ORDER OF ELKS 2545,LODGE 2545 ALTON-THAYER,,POLK STREET,THAYER,MO,65791,4172647070,25739,280553,RBDE,SBD ,OREGON,4,00,,,,
F & E PACKAGE LIQUOR INC.,F & E PACKAGE LIQUOR,4332,NATURAL BRIDGE,ST LOUIS,MO,63115,3145310300,25852,74617,OPL,SOP ,ST. LOUIS CITY,3,00,,,,
VETERANS OF FOREIGN WARS 2590,POST 2590 CHARLES S. EDWARDS,16759,INCA ROAD,CARTHAGE,MO,64836,4173581657,26043,53098,RBDE,SBD ,JASPER,5,00,,,,
BENEVOLENT PROTECTIVE ORDER OF ELKS 2330,LODGE 2330 ARCADIA VALLEY,204,S MCCURE STREET,PILOT KNOB,MO,63663,5735469913,26064,26065,RBDE,SBD ,IRON,4,00,,,,
BENEVOLENT PROTECTIVE ORDER OF ELKS 2674,LODGE 2674,19603,MOLASSES HOLLOW RD.,STE. GENEVIEVE,MO,636708082,5738837257,26070,26071,RBDE,SBD ,STE. GENEVIEVE,4,00,,,,
LAKE FOREST GOLF & COUNTRY CLUB INC.,LAKE FOREST GOLF & COUNTRY CLUB,300,YARD DRIVE,LAKE ST LOUIS,MO,633672434,6365616682,26085,28492,RBD,SBD ,ST. CHARLES,3,00,"(38.7842317, -90.7525571)",48,184,2177
BENEVOLENT PROTECTIVE ORDER OF ELKS 2418,LODGE 2418,,HWY 63,WEST PLAINS,MO,65775,4172567955,26174,26175,RBDE,SBD ,HOWELL,5,00,,,,
AMERICAN LEGION 153,POST 153,2320,KANELL BLVD,POPLAR BLUFF,MO,639014036,5737855051,26219,26220,RBDE,SBD ,BUTLER,4,00,,,,
BENEVOLENT PROTECTIVE ORDER OF ELKS 801,LODGE 801,1012,TINSMAN,TRENTON,MO,646831841,6603593913,26413,46743,RBDE,SBD ,GRUNDY,1,00,,,,
FRATERNAL ORDER OF EAGLES 3730,AERIE 3730,1400,S BROADWAY,POPLAR BLUFF,MO,639016338,5737859675,26414,26415,RBDE,SBD ,BUTLER,4,00,,,,
ST. CHARLES BORROMEO CATHOLIC CHURCH,,534,N 5TH STREET,ST CHARLES,MO,63301,6369466370,26432,0,5BDW,    ,ST. CHARLES,3,00,,,,
RIVERSIDE COUNTRY CLUB,,9 1/2,TOWN & COUNTRY LANE,TRENTON,MO,646830004,6603596004,26461,270249,RBDE,SBD ,GRUNDY,1,00,,,,
ENGINEERS CLUB OF ST. LOUIS,ENGINEERS CLUB OF ST. LOUIS,4359,LINDELL BLVD,ST LOUIS,MO,631082701,3145339333,26479,0,RBD,    ,ST. LOUIS CITY,3,00,"(38.641774, -90.25245699999999)",54,200,2223
KNIGHTS OF COLUMBUS,BISHOP TIMON COUNCIL 6405,,HWY 61 NORTH,JACKSON,MO,63755,5732435464,26892,26893,RBDE,SBD ,CAPE GIRARDEAU,4,00,,,,
AMERICAN LEGION 43,AMERICAN LEGION KAFFENBERGER WILLIAMS,2538,EVERGREEN PARKWAY,LEBANON,MO,65536,4175882298,26919,213065,RBDE,SBD ,LACLEDE,5,00,,,,
MFA PETROLEUM COMPANY,BREAK TIME #3042,163,W. SIMON BLVD.,HOLTS SUMMIT,MO,650431038,5734420171,26972,71517,OPL,SOP ,CALLAWAY,2,00,,,,
BENEVOLENT PROTECTIVE ORDER OF ELKS 2058,LODGE 2058 MANCHESTER,2242,MASON LANE,ST LOUIS,MO,630217801,3148219453,27029,27075,RBD,SBD ,ST. LOUIS CO.,3,00,,,,
"XUFURIS, OLGA","PALACE, THE",225,MAIN STREET,BOONVILLE,MO,65233,6608825866,27058,27059,RBD,SBD ,COOPER,2,00,,,,
AMERICAN LEGION 69,GOAD BALLINGER POST 69,149,MEMORIAL PLAZA,SPRINGFIELD,MO,658062405,4178626641,27189,27190,RBDE,SBD ,GREENE,5,00,,,,
R.C.'S LOUNGE INC.,R.C.'S LOUNGE,330,E 135TH STREET,KANSAS CITY,MO,64145,8169424999,27250,27251,RBD,SBD ,JACKSON,1,00,"(38.883303, -94.591477)",43,178,525
DIGREGORIO FOOD PRODUCTS INC.,DIGREGORIO'S,5200,DAGGETT,ST LOUIS,MO,631103026,3147761062,27533,155350,OPL,OPT ,ST. LOUIS CITY,3,00,"(38.61662640000001, -90.27289569999999)",54,200,2223
AMERICAN LEGION 283,ROCK MEMORIAL POST 283,910,AMERICAN LEGION COURT,IMPERIAL,MO,630520126,6364642599,27548,27549,RBD,SBD ,JEFFERSON,3,00,,,,
BOARD OF PARKS & REC. COMMISSIONERS,HODGE PARK,7000,NE BARRY ROAD,KANSAS CITY,MO,64156,8167814152,27793,30304,5BDW,5SBD,CLAY,1,00,,,,
BOARD OF PARKS & REC. COMMISSIONERS,HEART OF AMERICA GOLF COURSE,7501,BLUE RIVER RD.,KANSAS CITY,MO,64132,8165138940,27799,30306,5BDW,5SBD,JACKSON,1,00,,,,
ORRIS ENTERTAINMENT COMPANY INC.,ORRIS,265,MERCHANT STREET,STE GENEVIEVE,MO,636701609,2738837211,28146,50839,RBD,SBD ,STE. GENEVIEVE,4,00,,,,
ORAN COLUMBUS CLUB INC.,,,HWY 77,ORAN,MO,63771,5732628887,28237,28238,RBDE,SBD ,SCOTT,4,00,,,,
QULIN MEMORIAL AMERICAN LEGION POST #494,QULIN MEMORIAL AMERICAN LEGION POST #494,282,HIGHWAY N,QULIN,MO,63961,5733284455,28628,28629,RBDE,SBD ,BUTLER,4,00,,,,
STEFANINA'S PIZZERIA & RESTAURANT INC.,STEFANINA'S PIZZERIA & RESTAURANT,8645,VETERANS MEMORIAL PARKWAY,O'FALLON,MO,633667539,6362723499,28701,28706,RBD,SBD ,ST. CHARLES,3,00,"(38.8007668, -90.69889789999999)",48,173,2177
RORI ENTERPRISES INC.,RORI ENTERPRISES,113,E. BOONESLICK,WARRENTON,MO,633832003,3142204657,28814,0,RBD,    ,WARREN,2,00,,,,
CHIODINI FAMILY ENTERPRISES INC.,ZIAS,5256,WILSON,ST LOUIS,MO,63110,3147760020,28926,32706,RBD,SBD ,ST. LOUIS CITY,3,00,"(38.6158541, -90.2749632)",54,200,2223
HOME SERVICE OIL COMPANY,EXPRESS MART FESTUS,999,GANNON DRIVE,FESTUS,MO,630282607,6364675044,28943,70699,OPL,SOP ,JEFFERSON,3,00,,,,
HOME SERVICE OIL COMPANY,EXPRESS MART FESTUS,999,GANNON DRIVE,FESTUS,MO,630282607,6364675044,28943,208617,OPL,OPT ,JEFFERSON,3,00,,,,
QUIK-TRIP CORPORATION,QUIK-TRIP #228,2525,BURLINGTON ST.,NORTH KANSAS CITY,MO,641163194,8164721714,28962,73088,OPL,SOP ,CLAY,1,00,"(39.1472445, -94.57978899999999)",36,133,2701
BENEVOLENT PROTECTIVE ORDER OF ELKS 2651,LODGE 2651,35,E NORTH STREET,ST CLAIR,MO,630771458,6366299953,29126,270259,RBD,SBD ,FRANKLIN,2,00,,,,
FRATERNAL ORDER OF EAGLES 3781,AERIE 3781,1000,ACID MINE ROAD,SULLIVAN,MO,630802665,5734686900,29140,34423,RBDE,SBD ,FRANKLIN,2,00,,,,
BENEVOLENT PROTECTIVE ORDER OF ELKS 2316,LODGE 2316 FLORISSANT,16400,NEW HALLS FERRY ROAD,ST LOUIS,MO,630311132,3149212316,29269,33418,RBD,SBD ,ST. LOUIS CO.,3,00,"(38.8373, -90.31530699999999)",51,181,2210
BENEVOLENT PROTECTIVE ORDER OF ELKS 2372,LODGE 2372 MERAMEC ARNOLD CLUBHOUSE & HA,1515,MILLER ROAD,IMPERIAL,MO,630522428,6364648960,29351,29352,RBD,SBD ,JEFFERSON,3,00,"(38.3942236, -90.3833648)",62,265,1967
SCHNUCK MARKETS INC.,SCHNUCK MARKETS #149,5055,ARSENAL,ST LOUIS,MO,63139,5737745008,29522,83642,OPL,OPT ,ST. LOUIS CITY,3,00,,,,
SCHNUCK MARKETS INC.,SCHNUCK MARKETS #149,5055,ARSENAL,ST LOUIS,MO,63139,5737745008,29522,71169,OPL,SOP ,ST. LOUIS CITY,3,00,,,,
REPERTORY THEATRE OF ST LOUIS,REPERTORY THEATRE,130,EDGAR ROAD,WEBSTER GROVES,MO,63119,3149687340,29568,52160,RBD,SBD ,ST. LOUIS CO.,3,00,,,,
VETERANS OF FOREIGN WARS,POST 4107,1617,LYNN ST,LEBANON,MO,655364419,4175322627,29634,30736,RBDE,SBD ,LACLEDE,5,00,,,,
MCKEEVER ENTERPRISES INC.,PRICE CHOPPER,16611,E 23RD STREET,INDEPENDENCE,MO,640552081,8168330784,29880,74252,OPL,SOP ,JACKSON,1,00,"(39.076262, -94.38278009999999)",43,463,525
MCKEEVER ENTERPRISES INC.,PRICE CHOPPER,16611,E 23RD STREET,INDEPENDENCE,MO,640552081,8168330784,29880,148079,OPL,OPT ,JACKSON,1,00,"(39.076262, -94.38278009999999)",43,463,525
LOHR DISTRIBUTING COMPANY INC.,,1100,S 9TH STREET,ST LOUIS,MO,631043511,3142316400,30097,0,LWS,    ,ST. LOUIS CITY,3,00,"(38.616101, -90.19827699999999)",54,200,2223
ST. FRANCIS XAVIER COUNCIL #6430,ST. FRANCIS XAVIER COUNCIL #6430,7128,RT M,JEFFERSON CITY,MO,651019541,5733954798,30388,0,5BDW,    ,COLE,2,00,"(38.504437, -92.07280999999999)",58,470,2702
MATTINGLY INN INC.,MATTINGLY'S INN,8108,N LINDBERGH,FLORISSANT,MO,630317105,3148319181,30534,28792,RBD,SBD ,ST. LOUIS CO.,3,00,"(38.7889316, -90.3467695)",51,181,2210
AMERICAN LEGION 642,POST 642,2016,W MAIN STREET,SEDALIA,MO,653012349,6608272750,30638,32242,RBDE,SBD ,PETTIS,2,00,,,,
BONES INC.,BONES,208,COMMERCIAL AVENUE,JEFFERSON CITY,MO,65101,5736368955,30838,285332,RBD,RBDC,COLE,2,00,,,,
DILLON STORES DIVISION INC.,GERBES SUPER MARKET #119,1159,E. HIGHWAY 54,CAMDENTON,MO,65020,5733463433,30989,71945,OPL,SOP ,CAMDEN,2,00,"(38.0210482, -92.7297024)",68,292,2694
DILLON STORES DIVISION INC.,GERBES SUPER MARKET #119,1159,E. HIGHWAY 54,CAMDENTON,MO,65020,5733463433,30989,136052,OPL,OPT ,CAMDEN,2,00,"(38.0210482, -92.7297024)",68,292,2694
KNIGHTS OF COLUMBUS ASSOCIATION,COUNCIL 2269,202,W 3RD STREET,O'FALLON,MO,633661612,6362819223,31609,115146,RBD,SBD ,ST. CHARLES,3,00,"(38.812618, -90.70204199999999)",48,173,2177
FRATERNAL ORDER OF EAGLES 3684,AERIE 3684,,HWY Y,VIBURNUM,MO,65566,5732449598,31757,31758,RBDE,SBD ,IRON,4,00,,,,
TROPICAL LIQUEURS CORPORATION,TROPICAL LIQUEURS,515,E BROADWAY,COLUMBIA,MO,652014439,5734428098,31789,220870,RBD,SBD ,BOONE,2,00,"(38.9518867, -92.3310774)",40,464,2691
SCRIVENER OIL COMPANY INC.,SIGNAL FOOD STORES,,HWY 32 & 65 JUNCTION,BUFFALO,MO,65622,4173454632,31837,213274,OPL,OPT ,DALLAS,5,00,,,,
SCRIVENER OIL COMPANY INC.,SIGNAL FOOD STORES,,HWY 32 & 65 JUNCTION,BUFFALO,MO,65622,4173454632,31837,72994,OPL,SOP ,DALLAS,5,00,,,,
PONAK INC.,PONAK'S TAVERN,2856,SOUTHWEST BLVD,KANSAS CITY,MO,641083613,8167530775,32398,36362,RBD,SBD ,JACKSON,1,00,"(39.075698, -94.603252)",43,151,525
FRATERNAL ORDER OF EAGLES 4027,AERIE 4027,314,N HIGH STREET,CALIFORNIA,MO,650181736,5737964027,32962,230386,RBDE,SBD ,MONITEAU,2,00,,,,
AMERICAN LEGION 444,FLORISSANT VALLEY MEMORIAL POST 444,17090,OLD JAMESTOWN ROAD,FLORISSANT,MO,630341415,3147417786,33040,33041,RBD,SBD ,ST. LOUIS CO.,3,00,"(38.849587, -90.260637)",51,181,2210
ROYAL WINE CORPORATION,,63,LEFANTE WAY,BAYONNE,NJ,07002,7183842400,33057,0,LS,    ,OUT OF STATE,7,00,,,,
LINCOLN COUNTY FAIR INC.,LINCOLN COUNTY FAIR,#1,FAIRGROUNDS CIRCLE,TROY,MO,63379,6365288575,33404,0,COL,    ,LINCOLN,3,00,,,,
HOWE OIL COMPANY INC.,HOWE OIL,312,E OSAGE STREET,PACIFIC,MO,63069,6362572202,33425,72188,OPL,SOP ,FRANKLIN,2,00,"(38.4839711, -90.73725189999999)",59,249,1958
BUEHLER VINEYARDS INC.,,820,GREENFIELD ROAD,ST HELENA,CA,945749529,7079632155,33454,0,22S,    ,OUT OF STATE,7,00,"(38.512572, -122.379747)",,,1172
"FREEMAN, LARRY G.",LARRY'S TWO STOP,101,W CLAY AVENUE,PLATTSBURG,MO,644771417,8165392018,33714,71425,OPL,SOP ,CLINTON,1,00,"(39.5635004, -94.44751079999999)",27,84,516
MIDWAY ENTERPRISES INC.,BACK DOOR LOUNGE,6401,WEST HWY 40,COLUMBIA,MO,652029164,5734451211,34138,34139,RBDR,SBD ,BOONE,2,00,,,,
PASTA HOUSE COMPANY,"PASTA HOUSE COMPANY, THE",8831,LADUE RD,LADUE,MO,63124,3149912022,34159,34160,RBD,SBD ,ST. LOUIS CO.,3,00,,,,
PASTA HOUSE COMPANY,"PASTA HOUSE COMPANY, THE",15601,MANCHESTER ROAD,ELLISVILLE,MO,630112203,6362271970,34161,34162,RBD,SBD ,ST. LOUIS CO.,3,00,"(38.593196, -90.572313)",51,219,2210
QUAFF INC.,QUAFF BUFFET,1010,BROADWAY,KANSAS CITY,MO,641051511,8164711918,34167,37939,RBD,EXTH,JACKSON,1,00,"(39.102008, -94.58865999999999)",43,151,525
QUAFF INC.,QUAFF BUFFET,1010,BROADWAY,KANSAS CITY,MO,641051511,8164711918,34167,200037,RBD,SBD ,JACKSON,1,00,"(39.102008, -94.58865999999999)",43,151,525
SCHNUCK MARKETS INC.,SCHNUCK MARKETS #117,2030,DORSETT VILLAGE CENTER,ST LOUIS,MO,63043,3144343147,34176,71100,OPL,SOP ,ST. LOUIS CO.,3,00,,,,
SCHNUCK MARKETS INC.,SCHNUCK MARKETS #117,2030,DORSETT VILLAGE CENTER,ST LOUIS,MO,63043,3144343147,34176,88143,OPL,OPT ,ST. LOUIS CO.,3,00,,,,
AYERS OIL COMPANY INC.,AYERCO CONVENIENCE CENTER #44,7233,HWY 36,PALMYRA,MO,63461,5732480006,34214,71794,OPL,SOP ,MARION,2,00,,,,
G & D PIZZERIA INC.,G & D PIZZERIA,,CROSSROADS W SHOP CENTER,COLUMBIA,MO,652017632,5734458336,34624,0,5BDW,    ,BOONE,2,00,,,,
BENEVOLENT PROTECTIVE ORDER OF ELKS 2662,LODGE 2662,1101,E VETERANS MEMORIAL PARKWAY,WARRENTON,MO,633831311,6364562662,35081,0,RBD,    ,WARREN,2,00,,,,
COLUMBIAN ASSN.,,700,CLEAR VIEW DR,UNION,MO,630842048,6365832606,35088,0,RBDE,    ,FRANKLIN,2,00,,,,
MILO'S INC.,MILO'S,5201,WILSON AVE,ST LOUIS,MO,631103137,3147760468,35241,179830,RBD,SBD ,ST. LOUIS CITY,3,00,"(38.6158523, -90.2730366)",54,200,2223
"GLAUS, MIKE & DREW, BRIAN",D & G SERVICE CENTER,,HWY 25 SOUTH,DELTA,MO,63744,5737942056,35246,0,OPL,    ,CAPE GIRARDEAU,4,00,,,,
"GLAUS, MIKE & DREW, BRIAN",D & G SERVICE CENTER,,HWY 25 SOUTH,DELTA,MO,63744,5737942056,35246,0,OPL,    ,CAPE GIRARDEAU,4,00,,,,
CENTRAL MARKETS INC.,CENTRAL MARKET,45,N CLARK,SULLIVAN,MO,630801606,5734684191,35363,165094,OPL,OPT ,FRANKLIN,2,00,,,,
CENTRAL MARKETS INC.,CENTRAL MARKET,45,N CLARK,SULLIVAN,MO,630801606,5734684191,35363,71951,OPL,SOP ,FRANKLIN,2,00,,,,
MFA PETROLEUM COMPANY,BREAK TIME #3032,1405,N BLUFF ST.,FULTON,MO,652512349,5734420171,35680,71515,OPL,SOP ,CALLAWAY,2,00,,,,
VETERANS OF FOREIGN WARS,POST 6516 HIGH RIDGE MEMORIAL,2220B,GRAVOIS ROAD,HIGH RIDGE,MO,630492503,6366771772,35698,54095,RBD,SBD ,JEFFERSON,3,00,"(38.479833, -90.515669)",62,256,1967
QUIK-TRIP CORPORATION,QUIK-TRIP #230,11201,EAST TRUMAN ROAD,INDEPENDENCE,MO,640502510,8162547490,35920,73356,OPL,SOP ,JACKSON,1,00,"(39.0943856, -94.4450282)",43,463,525
MFA PETROLEUM COMPANY,BREAK TIME #3049,1200,MISSOURI BLVD,JEFFERSON CITY,MO,65101,5734420171,36070,71505,OPL,SOP ,COLE,2,00,"(38.578265, -92.190271)",58,465,2702
MFA PETROLEUM COMPANY,BREAK TIME #3050,1907,E MCCARTY STREET,JEFFERSON CITY,MO,65101,5734420171,36071,71507,OPL,SOP ,COLE,2,00,"(38.56164700000001, -92.13947000000002)",58,465,2702
MFA PETROLEUM COMPANY,BREAK TIME #3024,#4,BUS LOOP 70 EAST,COLUMBIA,MO,65201,5734420171,36092,71631,OPL,SOP ,BOONE,2,00,,,,
MFA PETROLEUM COMPANY,BREAK TIME #3072,702,HWY 28 WEST,OWENSVILLE,MO,65066,5734420171,36093,71649,OPL,SOP ,GASCONADE,2,00,,,,
MFA PETROLEUM COMPANY,BREAK TIME #3076,1300,HWY 72 E,ROLLA,MO,65401,5734420171,36119,71644,OPL,SOP ,PHELPS,5,00,,,,
MFA PETROLEUM COMPANY,BREAK TIME #3091,600,S HWY 5,TIPTON,MO,650818436,5734420171,36243,71629,OPL,SOP ,MONITEAU,2,00,,,,
MFA PETROLEUM COMPANY,BREAK TIME #3008,200,W. BUCHANAN ST.,CALIFORNIA,MO,650181219,5734420171,36244,71608,OPL,SOP ,MONITEAU,2,00,,,,
ROUND HILL CELLARS,RUTHERFORD WINE COMPANY,1680,SILVERADO TRAIL,ST HELENA,CA,945749542,7079635251,36276,0,22S,    ,OUT OF STATE,7,00,"(38.4886433, -122.4070267)",,,1172
FOLEY TAVERN INC.,FOLEY'S,3522,GREENWOOD BLVD,MAPLEWOOD,MO,631434211,3146456424,36322,274772,RBD,SBD ,ST. LOUIS CO.,3,00,"(38.6050194, -90.32087630000001)",51,226,2210
BENEVOLENT PROTECTIVE ORDER OF ELKS 2701,LODGE 2701,921,N PERRYVILLE BLVD,PERRYVILLE,MO,637751261,5735475552,36427,36428,RBDE,SBD ,PERRY,4,00,"(37.7376117, -89.8780405)",76,322,2168
HAPPY FOOD CENTER INC.,HAPPY FOOD CENTER,4019,E 31ST STREET,KANSAS CITY,MO,641281709,8169236588,36541,0,5OP,    ,JACKSON,1,00,,,,
"HEUER, LINDA M.",CARROWS MARKET & MALT SHOP,5051,FOUR RIDGE ROAD,HOUSE SPRINGS,MO,630512516,6369483111,36543,71487,OPL,SOP ,JEFFERSON,3,00,,,,
KNIGHTS OF COLUMBUS,COUNCIL 1848 (BLOOMSDALE),,HWY I-55,BLOOMSDALE,MO,63627,5734832213,36696,36697,RBDE,SBD ,STE. GENEVIEVE,4,00,,,,
AMERICAN LEGION 97,JOHN CALLAHAN POST 97,110,LOCUST STREET,PLATTSBURG,MO,644771230,9999999999,36751,36752,RBDE,SBD ,CLINTON,1,00,,,,
KNIGHTS OF COLUMBUS,DUCHESNE COUNCIL 2951,25,WASHINGTON STREET,FLORISSANT,MO,630315127,3148376645,36815,36816,RBD,SBD ,ST. LOUIS CO.,3,00,"(38.796653, -90.333726)",51,191,2210
QUIK TRIP CORPORATION,QUIK TRIP #601,9099,NATURAL BRIDGE ROAD,BEL RIDGE,MO,631213918,3144277827,36898,71888,OPL,SOP ,ST. LOUIS CO.,3,00,"(38.7187843, -90.33002979999999)",51,501,2210
QUIK TRIP CORPORATION,QUIK TRIP #604,3847,MCCLAY RD,ST. PETERS,MO,633767328,6369289884,36911,71720,OPL,SOP ,ST. CHARLES,3,00,"(38.757515, -90.5861819)",48,202,2177
QUIK TRIP CORPORATION,QUIK TRIP #603,225,N KINGSHIGHWAY,ST CHARLES,MO,633011611,6369478389,36912,71718,OPL,SOP ,ST. CHARLES,3,00,,,,
FRATELLIS RISTORANTE INC.,FRATELLI'S RISTORANTE,2061,ZUMBEHL ROAD,ST CHARLES,MO,633032723,6369499005,36957,37925,RBD,SBD ,ST. CHARLES,3,00,,,,
BENEVOLENT PROTECTIVE ORDER OF ELKS 2439,LODGE 2439,325,N TWO MILE ROAD,DEXTER,MO,63841,5736245626,36983,118290,RBDE,SBD ,STODDARD,4,00,,,,
DREYFUS ASHBY INC.,DREYFUS ASHBY INC.,630,3RD AVENUE-15TH FLOOR,NEW YORK,NY,100176705,2128180770,37286,0,LS,    ,OUT OF STATE,7,00,"(40.750009, -73.975398)",,,2095
ST. PETER PARISH CENTER,ST. PETER PARISH CENTER,301,1ST CAPITOL DRIVE,ST CHARLES,MO,633013413,6369466641,37396,0,RBD,    ,ST. CHARLES,3,00,"(38.780095, -90.48492200000001)",48,195,2177
DIFANI ENTERPRISES LTD.,BLACK THORN,3733,WYOMING,ST LOUIS,MO,63116,3147760534,37421,138266,RBD,SBD ,ST. LOUIS CITY,3,00,"(38.599753, -90.246408)",54,200,2223
ST. FRANCIS OF ASSISI CHURCH,BUSSEN FIELD,,MAGOFFIN & BLUFF ROADS,ST LOUIS,MO,63129,3144875736,37475,0,5BD,    ,ST. LOUIS CO.,3,00,,,,
GENOVA'S CHESTNUT INN INC.,SHADY LADY LOUNGE,2800,E 12TH STREET,KANSAS CITY,MO,641271324,8162319696,37627,38567,RBD,SBD ,JACKSON,1,00,"(39.0989568, -94.5490329)",43,151,525
GENOVA'S CHESTNUT INN INC.,SHADY LADY LOUNGE,2800,E 12TH STREET,KANSAS CITY,MO,641271324,8162319696,37627,38376,RBD,EXTH,JACKSON,1,00,"(39.0989568, -94.5490329)",43,151,525
AMVETS 108,POST 108,,HWY Y,ROCKY MOUNT,MO,65072,5733920659,37827,37828,RBDE,SBD ,MORGAN,2,00,,,,
SCHNUCK MARKETS INC.,SCHNUCK MARKETS #105,4333,BUTLER HILL ROAD,ST LOUIS,MO,63128,3148941227,38056,70971,OPL,SOP ,ST. LOUIS CO.,3,00,"(38.4858037, -90.3585883)",51,248,2210
SCHNUCK MARKETS INC.,SCHNUCK MARKETS #105,4333,BUTLER HILL ROAD,ST LOUIS,MO,63128,3148941227,38056,82853,OPL,OPT ,ST. LOUIS CO.,3,00,"(38.4858037, -90.3585883)",51,248,2210
FKG OIL COMPANY INC.,ST. CHARLES MOTO MART,1020,S 5TH STREET,ST CHARLES,MO,633012419,6369409169,38206,74099,OPL,SOP ,ST. CHARLES,3,00,,,,
FKG OIL COMPANY INC.,ST. CHARLES MOTO MART,1020,S 5TH STREET,ST CHARLES,MO,633012419,6369409169,38206,242292,OPL,OPT ,ST. CHARLES,3,00,,,,
WESTWOOD COUNTRY CLUB INC.,WESTWOOD COUNTRY CLUB,11801,CONWAY ROAD,ST LOUIS,MO,631312414,3144322311,38348,39410,RBD,SBD ,ST. LOUIS CO.,3,00,,,,
"PLEASURE, OLIVER",OLIVER'S RESTAURANT & LOUNGE,2301,E 12TH STREET,KANSAS CITY,MO,64127,8162318360,38379,0,RBD,    ,JACKSON,1,00,"(39.0986959, -94.554137)",43,151,525
FISH'S QUICK STOP INC.,EXPRESS MART,518,S MAIN,DESOTO,MO,630202204,6365862266,38550,72206,OPL,SOP ,JEFFERSON,3,00,,,,
MFA PETROLEUM COMPANY,BREAK TIME #3019,301,NEBRASKA AVE,COLUMBIA,MO,65201,5734420171,38573,71635,OPL,SOP ,BOONE,2,00,"(38.966565, -92.3336166)",40,464,2691
P.R. FOODS INC.,POOR RICHARD'S BURGERS & BOOZE,960,BROOKWOOD CENTER,ST LOUIS,MO,63026,6363493438,38596,46433,RBD,SBD ,ST. LOUIS CO.,3,00,,,,
AMVETS POST 178 INC.,AMVETS POST 178,,RICHLAND ROAD & FARM ROAD 34,BRIGHTON,MO,656179473,4177429893,38604,38605,RBDE,SBD ,GREENE,5,00,,,,
KNIGHTS OF COLUMBUS,COUNCIL 6420 COLUMBUS CLUB,28745,HWY 61,SCOTT CITY,MO,637809144,5735453549,38616,38617,RBDE,SBD ,SCOTT,4,00,"(37.206956, -89.5474636)",96,396,2213
VETERANS OF FOREIGN WARS,"POST 6760 CHARLES E. ""TYE"" EVANS",306,CHEROKEE STREET,ST JOSEPH,MO,645041425,8162388387,38738,46800,RBD,SBD ,BUCHANAN,1,00,,,,
QUIK TRIP CORPORATION,QUIK TRIP #606,3000,MID RIVERS MALL DRIVE,ST PETERS,MO,633762164,6363972506,38868,71717,OPL,SOP ,ST. CHARLES,3,00,"(38.775021, -90.62460999999999)",48,202,2177
RAPID ROBERTS INC.,RAPID ROBERTS 104,235,LAUREL RD,RIDGEDALE,MO,657394120,4173344741,39006,71394,OPL,SOP ,TANEY,5,00,,,,
RAPID ROBERTS INC.,RAPID ROBERTS 110,945,S CAMPBELL,SPRINGFIELD,MO,658063016,4178646690,39039,0,5OP,    ,GREENE,5,00,"(37.19714159999999, -93.2947591)",93,493,1960
RAPID ROBERTS INC.,RAPID ROBERTS 112,320,W SUNSHINE,SPRINGFIELD,MO,658072657,4178869500,39066,71597,OPL,SOP ,GREENE,5,00,,,,
FRATERNAL ORDER OF EAGLES 4155,AERIE 4155,,HWY 39,SHELL KNOB,MO,65747,4178586704,39119,39120,RBDE,SBD ,BARRY,5,00,,,,
MCKEEVER ENTERPRISES INC.,PRICE CHOPPER FOODS,4201,S NOLAND ROAD,INDEPENDENCE,MO,640557332,8164783090,39123,148080,OPL,OPT ,JACKSON,1,00,"(39.043517, -94.4127685)",43,463,525
MCKEEVER ENTERPRISES INC.,PRICE CHOPPER FOODS,4201,S NOLAND ROAD,INDEPENDENCE,MO,640557332,8164783090,39123,74250,OPL,SOP ,JACKSON,1,00,"(39.043517, -94.4127685)",43,463,525
AMVETS 117,POST 117 HALF A HILL,1005,S. ASH STREET,BUFFALO,MO,65622,4173455528,39141,39142,RBDE,SBD ,DALLAS,5,00,,,,
ALGONQUIN GOLF CLUB INC.,ALGONQUIN GOLF CLUB,340,N BERRY ROAD,ST LOUIS,MO,631224735,3149623700,39237,39238,RBD,SBD ,ST. LOUIS CO.,3,00,"(38.5875277, -90.3767403)",51,228,2210
SCRIVENER OIL COMPANY INC.,SIGNAL FOOD STORES,,HWY 54 & ILLINOIS,CAMDENTON,MO,65020,5733465220,39311,71954,OPL,SOP ,CAMDEN,2,00,,,,
"HALTERMAN, SHARON",WHISKERS,944,W HWY 54,CAMDENTON,MO,65020,5733466100,39411,0,RBD,    ,CAMDEN,2,00,,,,
FRATERNAL ORDER OF EAGLES 4154,AERIE 4154,,HWY C,ADVANCE,MO,63730,5737229905,39568,39569,RBDE,SBD ,STODDARD,4,00,,,,
FRATERNAL ORDER OF EAGLES 3948,AERIE 3948,,HWY K & ZZ,AURORA,MO,65605,4176781000,39626,39627,RBDE,SBD ,LAWRENCE,5,00,,,,
IOWA BUFFET INC.,IOWA BUFFET,2727,WINNEBAGO STREET,ST LOUIS,MO,631189998,3147768000,39665,0,RBD,    ,ST. LOUIS CITY,3,00,"(38.5884791, -90.2297961)",54,200,2223
WILLIAM A. STRAUB INC.,STRAUB MARKET,13414,CLAYTON ROAD,TOWN & COUNTRY,MO,63131,3144344707,39815,87095,OPL,SOP ,ST. LOUIS CO.,3,00,,,,
WILLIAM A. STRAUB INC.,STRAUB MARKET,13414,CLAYTON ROAD,TOWN & COUNTRY,MO,63131,3144344707,39815,98318,OPL,OPT ,ST. LOUIS CO.,3,00,,,,
CANNON DAM OPERATIONS INC.,CANNON DAM GENERAL STORE,42526,CABIN ROAD,"PERRY,",MO,63462,5735653432,40067,75133,OPL,SOP ,RALLS,2,00,,,,
VETERANS OF FOREIGN WARS,TOM WOLFE MEMORIAL POST 4207,5400,HIGHWAY 60,MONETT,MO,657088357,4172358394,40157,40158,RBDE,SBD ,BARRY,5,00,,,,
VETERANS OF FOREIGN WARS,TOM WOLFE MEMORIAL POST 4207,5400,HIGHWAY 60,MONETT,MO,657088357,4172358394,40157,286350,RBDE,RBDC,BARRY,5,00,,,,
SANFRED LIMITED,GIANFABIO RISTORANTE,127,HILL TOWN CENTER,CHESTERFIELD,MO,630171731,6365326686,40196,89653,RBD,SBD ,ST. LOUIS CO.,3,00,,,,
AMERICAN LEGION 133,POST 133,98,W GRAND,PERRYVILLE,MO,637751821,5735474588,40328,40329,RBDE,SBD ,PERRY,4,00,,,,
"STOROZ, WILLIAM P. & COLLINS, JANETTE G.",NEIGHBORHOOD TAVERN,2112,S 10TH STREET,ST JOSEPH,MO,645032713,8162328060,40363,223154,RBD,SBD ,BUCHANAN,1,00,"(39.747506, -94.84833499999999)",25,77,2692
"STOROZ, WILLIAM P. & COLLINS, JANETTE G.",NEIGHBORHOOD TAVERN,2112,S 10TH STREET,ST JOSEPH,MO,645032713,8162328060,40363,223154,RBD,SBD ,BUCHANAN,1,00,"(39.747506, -94.84833499999999)",25,77,2692
VETERANS OF FOREIGN WARS,"POST 4282, FISCHER-WALTER MEMORIAL",,HWY 61 & THOMAS,PERRYVILLE,MO,63775,5735476509,40366,40367,RBDE,SBD ,PERRY,4,00,,,,
DKI INC.,DU KUM INN,111,S ELSON,KIRKSVILLE,MO,63501,6606659764,40371,137263,RBD,SBD ,ADAIR,2,00,,,,
BENEVOLENT PROTECTIVE ORDER OF ELKS 2557,LODGE 2557,24200,ROUTE 66,LEBANON,MO,65536,4175322557,40440,276703,RBDE,SBD ,LACLEDE,5,00,"(37.7351465, -92.5956533)",79,495,2008
"WELLS, STEVEN W.",WELLS PACKAGE STORE,,HWY 32-72 WEST,SALEM,MO,65560,5737296063,40555,270562,OPL,SOP ,DENT,4,00,,,,
RIVERSIDE ONE STOP INC.,RIVERSIDE ONE STOP,,HWY B,REVERE,MO,63465,6607546278,40641,72069,OPL,SOP ,CLARK,2,00,,,,
ARROWHEAD YACHT CLUB INC.,ARROWHEAD YACHT CLUB,396,WINNEBAGO DRIVE,LAKE WINNEBAGO,MO,640349320,8165376944,40777,40782,RBDE,SBD ,CASS,1,00,"(38.8302242, -94.3607246)",52,165,2697
VETERANS OF FOREIGN WARS,POST 3416 LAKE WAPPAPELLO,20,INDIAN HILL SUBDIVISION,WAPPAPELLO,MO,639668310,5732229867,40791,40793,RBDE,SBD ,WAYNE,4,00,,,,
FRATERNAL ORDER OF EAGLES 4034,AERIE 4034,,HWY T,PERRYVILLE,MO,63775,5735472883,40951,40954,RBDE,SBD ,PERRY,4,00,,,,
J. LOHR WINERY CORPORATION,J. LOHR WINERY,1000,LENZEN AVE,SAN JOSE,CA,951262739,4082885057,40974,0,22S,    ,OUT OF STATE,7,00,"(37.3337899, -121.9126426)",,,1334
AMVETS 113,POST 113,3756,PIMVILLE ROAD,PARK HILLS,MO,636018150,5737569685,41392,41393,RBDE,SBD ,ST. FRANCOIS,4,00,,,,
KNIGHTS OF COLUMBUS,ST. ROSE OF LIMA COUNCIL 1185,13225,HWY E,DESOTO,MO,630203624,6365862150,41422,41423,RBD,SBD ,JEFFERSON,3,00,,,,
BENEVOLENT PROTECTIVE ORDER OF ELKS 2705,LODGE 2705 OSAGE COMMUNITY,174,ELK LANE,LAURIE,MO,65037,5733744781,41542,48079,RBDE,SBD ,MORGAN,2,00,,,,
AMVETS 94,POST 94,1203,W ST JOSEPH STREET,PERRYVILLE,MO,63775,5735471521,41654,41655,RBDE,SBD ,PERRY,4,00,,,,
CFM NO. 14 003 INC.,CONVENIENT FOOD MART NO. 14 003,701,EASTLAND DRIVE,JEFFERSON CITY,MO,651013891,5736358834,41848,70739,OPL,SOP ,COLE,2,00,"(38.5498953, -92.14898939999999)",58,465,2702
MFA PETROLEUM COMPANY,BREAK TIME #3016,2205,N STADIUM BLVD,COLUMBIA,MO,65201,5734420171,41972,71634,OPL,SOP ,BOONE,2,00,,,,
STEELVILLE COUNTRY CLUB INC.,,269,W. HWY 8,STEELVILLE,MO,65565,5737755992,42332,44312,RBDE,SBD ,CRAWFORD,4,00,"(37.9613938, -91.40669559999999)",67,485,1953
MINIT FOOD MART INC.,MINIT FOOD MART,,HWY 67 NORTH,POPLAR BLUFF,MO,63901,5736865567,42357,74810,OPL,SOP ,BUTLER,4,00,,,,
CHRIS PANCAKES INC.,CHRIS' PANCAKE,5980,SOUTHWEST AVE,ST LOUIS,MO,63139,3146452088,42485,43370,RBD,SBD ,ST. LOUIS CITY,3,00,,,,
RIZZO'S SOUTH COUNTY RESTAURANT INC.,RIZZO'S RESTAURANT,4458,LEMAY FERRY ROAD,ST LOUIS,MO,63129,3144874242,42557,42558,RBD,SBD ,ST. LOUIS CO.,3,00,"(38.4912914, -90.3465713)",51,248,2210
SCHNUCK MARKETS INC.,SCHNUCK MARKETS #170,12921,ENTERPRISE WAY,BRIDGETON,MO,63044,3143449600,42573,0,OPL,    ,ST. LOUIS CO.,3,00,,,,
AMVETS 6,POST 6 ALAN BLEST,2718,CLIFTON AVENUE,ST LOUIS,MO,631392713,3147814071,42632,42633,RBD,SBD ,ST. LOUIS CITY,3,00,"(38.6120823, -90.292346)",54,200,2223
VETERANS OF FOREIGN WARS,RALPH V BOBBETT POST 2175,16884,SOUTH 1200 RD.,NEVADA,MO,647727144,4173819276,42654,159988,RBDE,SBD ,VERNON,5,00,,,,
H.C.B. INC.,KNIGHTS OF COLUMBUS #6401,9330,HWY 21,HILLSBORO,MO,63050,6367892744,42701,42702,RBD,SBD ,JEFFERSON,3,00,"(38.281414, -90.53656699999999)",62,268,1967
MIJOY INC.,IMOS PIZZA,215,S KIRKWOOD ROAD,KIRKWOOD,MO,631224359,3149663666,42874,43677,5BDW,5SBD,ST. LOUIS CO.,3,00,"(38.5792736, -90.40660919999999)",51,229,2210
DON HEIL OIL COMPANY INC.,DJ'S II,18571,HWY 32,STE GENEVIEVE,MO,636700127,5738837160,42883,74798,OPL,SOP ,STE. GENEVIEVE,4,00,,,,
SMOKEHOUSE BBQ INC.,SMOKEHOUSE BBQ,6304,N OAK TRAFFICWAY,GLADSTONE,MO,641184704,8164544500,42904,43665,RBD,SBD ,CLAY,1,00,"(39.2090578, -94.5771055)",36,133,2701
RIDGELL ENTERPRISES INC.,OLD FOLKS' LOUNGE,4805,E. 24TH ST.,KANSAS CITY,MO,641274608,8162314334,43178,0,RBD,    ,JACKSON,1,00,"(39.081864, -94.527321)",43,151,525
HIDDEN VALLEY GOLF LINKS OF STONE COUNTY,HIDDEN VALLEY GOLF LINKS OF STONE COUNTY,4455,HIDDEN VALLEY ROAD,CLEVER,MO,656316624,4177432860,43232,84524,OPL,SOP ,STONE,5,00,"(36.9835, -93.3705355)",105,424,2216
MFA PETROLEUM COMPANY,BREAK TIME #3044,3000,W TRUMAN BLVD,JEFFERSON CITY,MO,65101,5734420171,43313,71509,OPL,SOP ,COLE,2,00,"(38.595621, -92.231066)",58,465,2702
HEARTLAND BEVERAGE LTD.,,14220,WYANDOTTE ST.,KANSAS CITY,MO,641451526,8164833700,43371,0,LS,    ,JACKSON,1,00,,,,
SARATOGA LANES INC.,SARATOGA LANES,2725A,SUTTON AVE,MAPLEWOOD,MO,631433037,3146455308,43512,64399,RBD,SBD ,ST. LOUIS CO.,3,00,"(38.611769, -90.320317)",51,226,2210
PASTA HOUSE COMPANY,PASTA HOUSE,6214,S LINDBERGH,ST LOUIS,MO,631237802,3148949161,43575,44588,RBD,SBD ,ST. LOUIS CO.,3,00,"(38.5162062, -90.3420855)",51,248,2210
AMVETS 116,POST 116,,HWY 32 WEST,STOCKTON,MO,65785,4172763414,43699,43700,RBDE,SBD ,CEDAR,5,00,,,,
"KRAFT, JOHN W. JR.",JOHNNIE'S 66 SERVICE,,HWY 6,EWING,MO,634400271,5732093467,43827,73146,OPL,SOP ,LEWIS,2,00,,,,
MFA PETROLEUM COMPANY,BREAK TIME #3036,2600,HWY BLVD   HWY 13,HIGGINSVILLE,MO,64037,5734420171,43870,73492,OPL,SOP ,LAFAYETTE,1,00,,,,
DESTAS MARKET INC.,DESTAS MARKET,2503,N TAYLOR AVE,ST LOUIS,MO,631132503,3145344587,44123,123731,OPL,SOP ,ST. LOUIS CITY,3,00,"(38.662096, -90.245413)",54,200,2223
MANDARIN GARDEN INC.,MANDARIN GARDEN,36,PLAZA 94,ST PETERS,MO,633767405,6369289568,44295,0,5BDW,    ,ST. CHARLES,3,00,,,,
BENEVOLENT PROTECTIVE ORDER OF ELKS,LODGE 919,1705,CHRISTOPHER DRIVE,MEXICO,MO,652653615,5735810727,44372,0,RBD,    ,AUDRAIN,2,00,,,,
STATE LINE SPIRITS & BEVERAGE INC.,STATE LINE SUPERCENTER,21526,HWY 67 S,NEELYVILLE,MO,639548203,5739893358,44442,73415,OPL,SOP ,BUTLER,4,00,"(36.5022297, -90.53836679999999)",106,513,2693
QUIK TRIP CORPORATION,QUIK TRIP #609,702,LEMAY FERRY RD.,ST. LOUIS,MO,631251426,3146318384,44524,71478,OPL,SOP ,ST. LOUIS CO.,3,00,,,,
DU-BOWL LANES INC.,"COVE, THE",2711,LEMAY FERRY ROAD,ST LOUIS,MO,63125,3148923900,44907,44908,RBD,SBD ,ST. LOUIS CO.,3,00,"(38.5186278, -90.3077163)",51,248,2210
VETERANS OF FOREIGN WARS,VIRGIL A FAULKNER POST 2025,15035,HWY 63 SOUTH,ROLLA,MO,65401,5733642025,44917,0,RBDE,    ,PHELPS,5,00,,,,
HANNIBAL SANDYS INC.,HARDEES OF MEXICO,1707,N MISSOURI,MACON,MO,63552,6603855811,44924,73047,OPL,SOP ,MACON,2,00,,,,
ROLLA LIONS CLUB INC.,ROLLA LIONS CLUB INC.,1061,S BISHOP AVENUE,ROLLA,MO,654014437,5733644386,45055,0,RBDE,    ,PHELPS,5,00,,,,
SPI INC.,SOCCER DOME,220,EAST AVE,WEBSTER GROVES,MO,63119,3149629281,45106,45107,RBD,SBD ,ST. LOUIS CO.,3,00,"(38.6016679, -90.3515649)",51,228,2210
KIDD'S INC.,,1325,BROADWAY,CAPE GIRARDEAU,MO,63701,5733351462,45127,73659,OPL,SOP ,CAPE GIRARDEAU,4,00,"(37.309765, -89.53527)",86,382,2695
KITCHEN PASS RESTAURANT & BAR INC.,KITCHEN PASS RESTAURANT & BAR,1214,MAIN STREET,JOPLIN,MO,648014532,4176237230,45259,0,RBD,    ,JASPER,5,00,,,,
DOMENICO'S AT THE LAKE INC.,DOMENICO'S AT THE LAKE,,HWY 54 & LAKE ROAD 30-A,OSAGE BEACH,MO,65065,5733485335,45316,47035,RBD,SBD ,CAMDEN,2,00,,,,
FILLING STATION INC.,"FILLING STATION, THE",,HWY 43 & O,SOUTHWEST CITY,MO,648637175,4177623670,45450,72598,OPL,SOP ,MCDONALD,5,00,,,,
KANDLBINDER INC.,BLUFF ROAD STATION,6791,HWY 100,WASHINGTON,MO,630901125,6362394525,45536,70858,OPL,SOP ,FRANKLIN,2,00,,,,
VETERANS OF FOREIGN WARS,POST 5896 - NORMAN L. RIGDON,814,KARSH BLVD,FARMINGTON,MO,636403024,5737568852,45591,45594,RBDE,SBD ,ST. FRANCOIS,4,00,"(37.7820152, -90.4075348)",74,324,540
BENEVOLENT PROTECTIVE ORDER OF ELKS,LODGE 2583 - MINERAL AREA COMMUNITY,1438,E CHESTNUT,DESLOGE,MO,636013168,5734314216,45659,45660,RBDE,SBD ,ST. FRANCOIS,4,00,,,,
VETERANS OF FOREIGN WARS,POST 2426,399,W OAK STREET,DESLOGE,MO,636013408,5734313915,45717,45718,RBDE,SBD ,ST. FRANCOIS,4,00,,,,
BIG BOOK CLUB,BIG BOOK CLUB,,HWY 105,EAST PRAIRIE,MO,638450317,5736493251,45766,45767,RBDE,SBD ,MISSISSIPPI,4,00,,,,
FRATERNAL ORDER OF EAGLES 2410,AERIE 2410,1321,MAIN STREET,JOPLIN,MO,648014533,4176230533,45814,50610,RBD,SBD ,JASPER,5,00,"(37.076406, -94.513525)",94,490,1966
EIGHTY HUNDRED CLAYTON CORPORATION,TROPICANA LANES,7960,CLAYTON ROAD,RICHMOND HEIGHTS,MO,631171327,3147810282,45899,45900,RBD,SBD ,ST. LOUIS CO.,3,00,"(38.6360566, -90.34212079999999)",51,223,2210
CHARLES JACQUIN ET CIE. INC.,,2633,TRENTON AVE,PHILADELPHIA,PA,191251837,2154259300,46029,0,LS,    ,OUT OF STATE,7,00,"(39.984006, -75.121158)",,,2602
SUNSET LANES INC.,SUNSET LANES,7777,WATSON ROAD,ST LOUIS,MO,631195406,3149612777,46272,46571,RBD,SBD ,ST. LOUIS CO.,3,00,"(38.5710524, -90.336615)",51,235,2210
MERELLOS CONVENIENT FOOD MART INC.,MC FOOD MART,10701,PAGE,ST LOUIS,MO,631321015,3144232290,46323,72574,OPL,SOP ,ST. LOUIS CO.,3,00,"(38.692569, -90.396728)",51,204,2210
QUIK TRIP CORPORATION,QUIK TRIP #610,2633,BIG BEND BLVD.,MAPLEWOOD,MO,631432103,3146477114,46367,71862,OPL,SOP ,ST. LOUIS CO.,3,00,"(38.613605, -90.323171)",51,226,2210
PASTA HOUSE COMPANY,PASTA HOUSE,11202,W FLORISSANT,FLORISSANT,MO,630336741,3148387300,46434,47581,RBD,SBD ,ST. LOUIS CO.,3,00,"(38.7720565, -90.2790454)",51,181,2210
HOLY TRINITY SERBIAN EASTERN ORTH.CHURCH,HOLY TRINITY SERBIAN EASTERN ORTH.CHURCH,1910,SERBIAN DRIVE,ST LOUIS,MO,63104,3147763262,46525,47924,RBD,SBD ,ST. LOUIS CITY,3,00,,,,
KNIGHTS OF COLUMBUS 5898,ST. ISIDORE HOME ASSOCIATION,,HWY N,LEOPOLD,MO,63760,5733345445,46604,46605,RBDE,SBD ,BOLLINGER,4,00,,,,
LOYAL ORDER OF MOOSE 587,LODGE 587,,MARTIN SPRING DRIVE,ROLLA,MO,654018049,5733640587,46620,49597,RBDE,SBD ,PHELPS,5,00,,,,
FISCHER'S AMOCO FOOD SHOP,,307,W 5TH STREET,WASHINGTON,MO,630902305,6362395050,46861,71788,OPL,SOP ,FRANKLIN,2,00,,,,
COURTYARD MANAGEMENT CORPORATION,COURTYARD BY MARRIOTT,828,N NEW BALLAS ROAD,CREVE COEUR,MO,63146,3149930515,47046,154930,RBD,SBD ,ST. LOUIS CO.,3,00,"(38.67201, -90.442312)",51,208,2210
TRAFFIC JAM INC.,TRAFFIC JAM,6-C,WESTBURY DRIVE,ST CHARLES,MO,633012537,6367236138,47116,247333,RBD,SBD ,ST. CHARLES,3,00,"(38.78382999999999, -90.520404)",48,195,2177
FREDDIE'S MARKET INC.,FREDDIE'S MARKET,9052,W BIG BEND ROAD,WEBSTER GROVES,MO,631194066,3149681914,47140,72565,OPL,SOP ,ST. LOUIS CO.,3,00,"(38.5763144, -90.3675487)",51,228,2210
QUIK TRIP CORPORATION,QUIK TRIP #608,391,N MAIN STREET,ST. PETERS,MO,633763911,6369703029,47385,71716,OPL,SOP ,ST. CHARLES,3,00,,,,
MOOLAH TEMPLE ASSOCIATION INC.,MOOLAH TEMPLE,12545,FEE FEE ROAD,ST LOUIS,MO,631463807,3148786301,47431,47461,RBD,SBD ,ST. LOUIS CO.,3,00,"(38.6949206, -90.457005)",51,208,2210
SCRIVENER OIL COMPANY INC.,SIGNAL FOODS,2415,S CAMPBELL,SPRINGFIELD,MO,65807,4178810832,47432,173393,OPL,OPT ,GREENE,5,00,"(37.17084, -93.296111)",93,493,1960
SCRIVENER OIL COMPANY INC.,SIGNAL FOODS,2415,S CAMPBELL,SPRINGFIELD,MO,65807,4178810832,47432,74788,OPL,SOP ,GREENE,5,00,"(37.17084, -93.296111)",93,493,1960
ST. FRANCIS OF ASSISI CHURCH,ST. FRANCIS OF ASSISI PARISH CENTER,4550,TELEGRAPH ROAD,ST LOUIS,MO,631293318,3144875736,47457,47528,RBD,SBD ,ST. LOUIS CO.,3,00,"(38.4794109, -90.30372609999999)",51,248,2210
HANNIBAL SANDYS INC.,MONROE CITY AMOCO,1007,HWY 24 & 36,MONROE CITY,MO,634561472,5737354296,47502,73060,OPL,SOP ,MONROE,2,00,,,,
AMERICAN LEGION 2,LEON OGIER POST 2,402,E. CHERRY STREET,NEVADA,MO,64772,4176679836,47522,0,RBDE,    ,VERNON,5,00,,,,
AMERICAN LEGION 643,NAYLOR MEMORIAL POST 643,,HWY 142,NAYLOR,MO,639539785,5733992400,47730,47731,RBDE,SBD ,RIPLEY,4,00,,,,
FRATERNAL ORDER OF EAGLES 3422,AERIE 3422,,HWY 32,SALEM,MO,65560,5737296219,47791,47792,RBDE,SBD ,DENT,4,00,,,,
AMVETS 114,POST 114,,HWY O,FLEMINGTON,MO,65650,4177542556,47867,47868,RBDE,SBD ,POLK,5,00,,,,
VETERANS OF FOREIGN WARS,POST 4956,,HWY 17 NORTH,CROCKER,MO,65452,5737362455,47885,47886,RBDE,SBD ,PULASKI,5,00,,,,
"BLACKWELL, LINDA S.",EIGHT INNING LOUNGE,6412,MICHIGAN AVE,ST LOUIS,MO,631112801,3143783630,47917,0,RBD,    ,ST. LOUIS CITY,3,00,"(38.5576353, -90.251081)",54,200,2223
AMERICAN LEGION 331,POST 331,484,ST ROBERT OUTER ROAD,ST ROBERT,MO,655843724,5733364653,47942,47943,RBDE,SBD ,PULASKI,5,00,,,,
FRANCIS J. LYNCH MEMORIAL VFW POST INC.,POST 3168,26050,SWINDELL DR.,RICHLAND,MO,655567581,5737653168,48050,48051,RBDE,SBD ,PULASKI,5,00,,,,
QUIK TRIP CORPORATION,QUIK TRIP #607R,8583,ST. CHARLES ROCK ROAD,ST. JOHN,MO,631144505,3144295338,48059,71887,OPL,SOP ,ST. LOUIS CO.,3,00,"(38.706516, -90.341724)",51,207,2210
VANCE ARNOLDY INC.,BUZZARD BEACH,4110,PENNSYLVANIA,KANSAS CITY,MO,641113003,8167534455,48094,48095,RBD,EXTH,JACKSON,1,00,"(39.052214, -94.591371)",43,151,525
VANCE ARNOLDY INC.,BUZZARD BEACH,4110,PENNSYLVANIA,KANSAS CITY,MO,641113003,8167534455,48094,151015,RBD,SBD ,JACKSON,1,00,"(39.052214, -94.591371)",43,151,525
MEADOW LAKE ACRES COUNTRY CLUB,MEADOW LAKE ACRES COUNTRY CLUB,2600,MEADOW LAKE ROAD,NEW BLOOMFIELD,MO,65063,5734913356,48186,48187,RBDR,SBD ,CALLAWAY,2,00,,,,
"STRATMAN, FELIX F.",PLAZA SERVICE CENTER,,HWY 63 & 42 JUNCTION,VIENNA,MO,65582,5734223300,48188,71524,OPL,SOP ,MARIES,2,00,,,,
AMERICAN LEGION 99,WALKER-RONEY POST 99,,HWY 32 WEST,SALEM,MO,65560,5737293710,48190,48191,RBDE,SBD ,DENT,4,00,,,,
MR. T'S LIQUORS INC.,MR. T'S LIQUORS,416,NW ENGLEWOOD ROAD,KANSAS CITY,MO,641183961,8164543364,48223,72141,OPL,SOP ,CLAY,1,00,,,,
MARY MOTHER OF THE CHURCH,MARY MOTHER OF THE CHURCH,5901,KERTH ROAD,ST LOUIS,MO,631283705,3148941373,48299,0,RBD,    ,ST. LOUIS CO.,3,00,"(38.4709771, -90.37467319999999)",51,248,2210
RAPID ROBERTS INC.,RAPID ROBERTS 116,2019,S. ELLIOT,AURORA,MO,656059617,4176786660,48303,71599,OPL,SOP ,LAWRENCE,5,00,,,,
AYERS OIL COMPANY INC.,AYERCO #34,301,N. PEARL ST.,MILAN,MO,635562459,6602654681,48548,71807,OPL,SOP ,SULLIVAN,2,00,,,,
BIG RIVER HILLS AERIE 4210,AERIE 4210,,HWY 67 OLD,BONNE TERRE,MO,636281123,3147819860,48573,0,RBDE,    ,ST. FRANCOIS,4,00,,,,
CITY OF FLORISSANT,JAMES J. EAGAN CENTER,#1,JAMES J. EAGAN DRIVE,FLORISSANT,MO,630333633,3149214466,48652,0,RBD,    ,ST. LOUIS CO.,3,00,"(38.7944099, -90.2988148)",51,191,2210
CITY OF FLORISSANT,JOHN F. KENNEDY COMMUNITY CENTER,315,HOWDERSHELL,FLORISSANT,MO,630316315,3149214466,48653,0,RBD,    ,ST. LOUIS CO.,3,00,"(38.8077535, -90.36168599999999)",51,181,2210
"LUCKETT, STANLEY E.",LUCKETT'S,4616,DELMAR BLVD,ST LOUIS,MO,631081704,3143196933,48655,0,RBD,    ,ST. LOUIS CITY,3,00,"(38.650647, -90.25615599999999)",54,200,2223
K.C. TWINS INC.,MIKE DUFFY'S PUB & GRILL,1024,SCHNUCKS WOODSMILL PLAZA,TOWN & COUNTRY,MO,630170606,6363948855,48718,50020,RBD,SBD ,ST. LOUIS CO.,3,00,,,,
QUIK TRIP CORPORATION,QUIK TRIP #602,1640,S 5TH STREET,ST CHARLES,MO,633034105,6369468141,48770,71848,OPL,SOP ,ST. CHARLES,3,00,"(38.7654319, -90.495761)",48,195,2177
WEIN-BAUER INC.,,4031,TUGWELL,FRANKLIN PARK,IL,601311215,8476780685,48799,0,LS,    ,OUT OF STATE,7,00,,,,
"STEEBY, JUANITA F.",GRANDPA'S,120,E MAIN STREET,FILLMORE,MO,644498122,8164872013,48988,0,5BDW,    ,ANDREW,1,00,,,,
WALLIS OIL COMPANY INC.,PUMP HANDLE SNACK SHOP #401,1815,W OSAGE STREET,PACIFIC,MO,63069,5738852277,49003,226109,OPL,OPT ,FRANKLIN,2,00,,,,
WALLIS OIL COMPANY INC.,PUMP HANDLE SNACK SHOP #401,1815,W OSAGE STREET,PACIFIC,MO,63069,5738852277,49003,70771,OPL,SOP ,FRANKLIN,2,00,,,,
ARNOLD DISCOUNT FOODS INC.,MERAMEC HEIGHTS SAVE A LOT,#2,MERAMEC HEIGHTS PLAZA,ARNOLD,MO,63010,3148459797,49067,72352,OPL,SOP ,JEFFERSON,3,00,,,,
NAEGLER BROTHERS INC.,FAST N FRIENDLY,3535A,W SUNSHINE,SPRINGFIELD,MO,65807,4178313908,49108,73154,OPL,SOP ,GREENE,5,00,"(37.18339599999999, -93.35186)",93,492,1960
GRGICH HILLS CELLAR,GRGICH HILLS,1829,ST HELENA HIGHWAY,RUTHERFORD,CA,945730450,7079632784,49258,0,22S,    ,OUT OF STATE,7,00,,,,
ALNIS INC.,"PASTA HOUSE COMPANY, THE",921,ARNOLD COMMONS DR,ARNOLD,MO,630102168,6362963330,49344,49345,RBD,SBD ,JEFFERSON,3,00,,,,
SEL BOWLING INC.,B & J BOWL,,4TH & PINE,BOONVILLE,MO,65233,6608825563,49449,0,RBD,    ,COOPER,2,00,,,,
RAPID ROBERTS INC.,RAPID ROBERTS 115,5350,N. 22ND ST,OZARK,MO,657216645,4175819881,49522,71569,OPL,SOP ,CHRISTIAN,5,00,,,,
MARGARITA'S MEXICAN RESTAURANTS INC.,MARGARITA'S,2829,SOUTHWEST BLVD,KANSAS CITY,MO,641083612,8167535678,49612,49613,RBD,SBD ,JACKSON,1,00,"(39.0763144, -94.60200929999999)",43,151,525
BLUMENHOF VINEYARDS COMPANY,BLUMENHOF VINEYARDS,13699,MO-94,DUTZOW,MO,633420030,6364332245,49777,0,DOMW,    ,WARREN,2,00,"(38.5997991, -90.9915797)",46,220,2219
"SHIELDS, RANDY",RANDY'S SHORT STOP,,HWY 65 WESTSIDE,MERCER,MO,64661,6608755566,49849,71714,OPL,SOP ,MERCER,1,00,,,,
ARO SYSTEMS INC.,ARO MART,3755,HWY 94 SOUTH,ST CHARLES,MO,63304,6369476404,49861,72308,OPL,SOP ,ST. CHARLES,3,00,,,,
ASSUMPTION CHURCH,ASSUMPTION CHURCH,4725,MATTIS ROAD,ST LOUIS,MO,631282821,3144877970,49863,0,RBD,    ,ST. LOUIS CO.,3,00,"(38.5011721, -90.36061149999999)",51,248,2210
QUEEN OF ALL SAINTS CHURCH,QUEEN OF ALL SAINTS CHURCH,6603,CHRISTOPHER DRIVE,ST LOUIS,MO,631294919,3148468207,49866,51763,RBD,SBD ,ST. LOUIS CO.,3,00,"(38.4438881, -90.3073477)",51,248,2210
QUEEN OF ALL SAINTS CHURCH,QUEEN OF ALL SAINTS CHURCH,6603,CHRISTOPHER DRIVE,ST LOUIS,MO,631294919,3148468207,49866,286158,RBD,RBDC,ST. LOUIS CO.,3,00,"(38.4438881, -90.3073477)",51,248,2210
SEVEN HOLY FOUNDERS CHURCH,SEVEN HOLY FOUNDERS,6737,ROCK HILL ROAD,ST LOUIS,MO,631233199,3146383938,49898,50449,RBD,SBD ,ST. LOUIS CO.,3,00,"(38.5524243, -90.3338311)",51,235,2210
KLEIN FOODS INC.,RODNEY STRONG VINEYARDS,11455,OLD REDWOOD HIGHWAY,HEALDSBURG,CA,954489523,7074336511,49912,0,22S,    ,OUT OF STATE,7,00,"(38.573314, -122.845541)",,,1339
QUIK TRIP CORPORATION,QUIK TRIP #619,4646,SOUTH ST. PETERS PARKWAY,ST. PETERS,MO,633045745,6364414099,50027,71721,OPL,SOP ,ST. CHARLES,3,00,"(38.7395744, -90.61721399999999)",48,202,2177
HY VEE INC.,HY VEE FOOD STORE,9400,E. 350 HWY,RAYTOWN,MO,641336509,8163589940,50120,73616,RBD,SBD ,JACKSON,1,00,,,,
HY VEE INC.,HY VEE FOOD STORE,9400,E. 350 HWY,RAYTOWN,MO,641336509,8163589940,50120,151240,RBD,RDC5,JACKSON,1,00,,,,
WAYSIDE INC.,WAYSIDE LIQUOR,3302,HWY 100,VILLA RIDGE,MO,630891466,6367424431,50153,71063,OPL,SOP ,FRANKLIN,2,00,"(38.4771148, -90.8510706)",59,249,1958
JOE BOCCARDI RESTAURANT INC.,JOE BOCCARDI RISTORANTE,128,S CENTRAL AVE,EUREKA,MO,630252001,6369386100,50179,50180,RBD,SBD ,ST. LOUIS CO.,3,00,"(38.5014083, -90.6277947)",51,219,2210
ST. MARGARET MARY CHURCH,ST. MARGARET MARY ALACOQUE,4900,RINGER ROAD,ST LOUIS,MO,631291751,3144872522,50287,50288,RBD,SBD ,ST. LOUIS CO.,3,00,,,,
AMERICAN LEGION 208,WALTER LEPERE POST 208,225,OLD SULPHUR SPRINGS ROAD,MANCHESTER,MO,630215356,6363919424,50316,70196,RBD,SBD ,ST. LOUIS CO.,3,00,"(38.5913759, -90.51397999999999)",51,208,2210
EBERLE WINERY LTD.,EBERLE WINERY,,HWY 46 EAST,PASO ROBLES,CA,934467302,8052389607,50406,0,22S,    ,OUT OF STATE,7,00,,,,
AMERICAN LEGION 138,HOWARD S. KEELING POST 138,1424,W BROADWAY,BOLIVAR,MO,65613,4173263353,50739,50740,RBDE,SBD ,POLK,5,00,,,,
PAUL & SONS INC.,PAUL'S LIQUOR & GROCERY,5506,PASEO,KANSAS CITY,MO,641102956,8163618414,50789,71743,OPL,SOP ,JACKSON,1,00,"(39.0267967, -94.56824379999999)",43,151,525
VENICE INC.,VENICE CAFE,1903,PESTALOZZI,ST LOUIS,MO,631181722,3147725994,50873,0,RBD,    ,ST. LOUIS CITY,3,00,"(38.5993454, -90.2174507)",54,200,2223
RAPID ROBERTS INC.,RAPID ROBERTS 117,1847,STATE HWY KK,OSAGE BEACH,MO,65065,5733480212,51002,71404,OPL,SOP ,CAMDEN,2,00,,,,
CAFE MANHATTAN INC.,CAFE MANHATTAN,505,S. HANLEY ROAD,CLAYTON,MO,631052037,3148635695,51203,51685,5BDW,5SBD,ST. LOUIS CO.,3,00,"(38.64374, -90.335183)",51,223,2210
DOT CORPORATION,VAN BRUNT MARKET,2701,VAN BRUNT BLVD,KANSAS CITY,MO,641281450,8169231566,51264,71766,OPL,SOP ,JACKSON,1,00,"(39.07584, -94.519903)",43,151,525
QUIK TRIP CORPORATION,QUIK TRIP #615,5909,HOWDERSHELL ROAD,HAZELWOOD,MO,630421204,3147315222,51271,71732,OPL,SOP ,ST. LOUIS CO.,3,00,"(38.78216700000001, -90.38922)",51,181,2210
CHRISTOPHER CLUB,CHRISTOPHER CLUB,2391,COUNTY ROAD 166,CAMPBELL,MO,63933,5733284476,51482,51483,RBDE,SBD ,DUNKLIN,4,00,,,,
CROWLEYS RIDGE RECREATIONAL CENTER INC.,CROWLEYS RIDGE RECREATIONAL CENTER,18699,CROWLEY RIDGE DRIVE,BLOOMFIELD,MO,63825,5735684698,51485,51486,RBDE,SBD ,STODDARD,4,00,,,,
POND ATHLETIC ASSOCIATION,POND ATHLETIC ASSOC.,RR 1,POND ROAD,GLENCOE,MO,63038,0,51491,0,5BD,    ,ST. LOUIS CO.,3,00,,,,
ST. ANDREWS GOLF CLUB INC.,EAGLE SPRINGS GOLF CLUB,2575,REDMAN ROAD,ST LOUIS,MO,631365860,3143557277,51725,91565,RBD,SBD ,ST. LOUIS CO.,3,00,,,,
BADRA ENTERPRISES INC.,SHORT STOP MARKET,3072,MCKELVEY ROAD,ST LOUIS,MO,63044,3147397727,51917,72226,OPL,SOP ,ST. LOUIS CO.,3,00,,,,
GIAN TONYS INC.,GIAN TONYS,5356,DAGGETT AVE,ST LOUIS,MO,631103028,3147724893,51919,53013,RBD,SBD ,ST. LOUIS CITY,3,00,"(38.6170216, -90.2769337)",54,200,2223
PIETOSO INC.,CAFE NAPOLI,7754,FORSYTH,CLAYTON,MO,631051810,3148635731,51923,111115,RBD,SBD ,ST. LOUIS CO.,3,00,,,,
WALLIS OIL COMPANY INC.,WALLIS OIL #402,,DOMESTIC UTL (I-44),SULLIVAN,MO,63080,5738852277,52090,70774,OPL,SOP ,FRANKLIN,2,00,,,,
WALLIS OIL COMPANY INC.,WALLIS OIL #402,,DOMESTIC UTL (I-44),SULLIVAN,MO,63080,5738852277,52090,224612,OPL,OPT ,FRANKLIN,2,00,,,,
CATERING ST. LOUIS INC.,CATERING ST. LOUIS,5595,GRAND DRIVE,ST LOUIS,MO,63112,3149617588,52188,52189,RBD,SBD ,ST. LOUIS CITY,3,00,"(38.6440166, -90.2834043)",54,200,2223
R & R GROUP INC.,MCLAINS CORNER BAR GRILL & BAR-B-QUE,3516,BIG BEND BLVD,MAPLEWOOD,MO,631434003,3146476531,52215,0,RBD,    ,ST. LOUIS CO.,3,00,,,,
ALL SAINTS PARISH,ALL SAINTS PARISH CENTER,#7,MCMENAMY ROAD,ST PETERS,MO,633761590,6363971440,52651,0,RBD,    ,ST. CHARLES,3,00,"(38.7972959, -90.6287433)",48,173,2177
HEGEL'S LTD.,HODAKS RESTAURANT,2100,GRAVOIS AVE,ST LOUIS,MO,631042846,3147767292,52654,52655,RBD,SBD ,ST. LOUIS CITY,3,00,"(38.6064191, -90.21839899999999)",54,200,2223
SCHNUCK MARKETS INC.,SCHNUCK MARKETS #116,12756,OLIVE STREET ROAD,ST LOUIS,MO,63141,3142983800,52915,82859,OPL,OPT ,ST. LOUIS CO.,3,00,,,,
SCHNUCK MARKETS INC.,SCHNUCK MARKETS #116,12756,OLIVE STREET ROAD,ST LOUIS,MO,63141,3142983800,52915,71194,OPL,SOP ,ST. LOUIS CO.,3,00,,,,
HERKY ENTERPRISES INC.,CONCORD GRILL,11427,CONCORD VILLAGE,ST LOUIS,MO,631236907,3148495239,52923,53687,RBD,SBD ,ST. LOUIS CO.,3,00,,,,
"STINSON, ROY L.",VARIETY SHOP #2,,HWY 34 & B JUNCTION,MARBLE HILL,MO,637649502,5732384360,52990,71301,OPL,SOP ,BOLLINGER,4,00,,,,
MASSA LTD.,MASSAS,15310,MANCHESTER ROAD,ELLISVILLE,MO,63011,6363913700,53018,0,RBD,    ,ST. LOUIS CO.,3,00,,,,
SCHAPPE INC.,TUNERS ON MAIN STREET,130,S MAIN STREET,ST CHARLES,MO,63301,6367249212,53186,284668,RBD,SBD ,ST. CHARLES,3,00,"(38.7805246, -90.4816299)",48,195,2177
"FINK, WILLIAM ROBERT",FINKS DISCOUNT FOODS,1000,HWY 50 WEST,UNION,MO,630841900,6365831000,53252,74030,OPL,SOP ,FRANKLIN,2,00,,,,
RUIZ MEXICAN CUISINE INC.,RUIZ MEXICAN RESTAURANT AND CANTINA,901,HWY 67 NORTH,FLORISSANT,MO,630312917,3148383500,53262,53263,RBD,SBD ,ST. LOUIS CO.,3,00,,,,
BOONE COUNTRY MEATS INC.,BAVARIAN SMOKE HAUS,,HWY Z & D,NEW MELLE,MO,633650115,6368284189,53265,0,OPL,    ,ST. CHARLES,3,00,,,,
HANNIBAL SANDYS INC.,MARK TWAIN AMOCO,624,MARK TWAIN AVENUE,HANNIBAL,MO,634013251,5732480062,53291,73050,OPL,SOP ,MARION,2,00,"(39.713607, -91.36478199999999)",24,477,2122
FRATERNAL ORDER OF EAGLES 4227,AERIE 4227,,HWY 34 EAST,PIEDMONT,MO,639570411,5732232233,53310,53311,RBDE,SBD ,WAYNE,4,00,,,,
BENEVOLENT PROTECTIVE ORDER OF ELKS 2726,LODGE 2726 OAKVILLE,4261,BURGHILL DRIVE,ST LOUIS,MO,631293854,3148949550,53327,53328,RBD,SBD ,ST. LOUIS CO.,3,00,,,,
STE. GENEVIEVE JAYCEES,,19009,HWY 61,STE GENEVIEVE,MO,63670,5738833008,53419,53420,RBDE,SBD ,STE. GENEVIEVE,4,00,,,,
"WENGLER, PAUL J. JR.",CHEROKEE PASS PACKAGE LIQUOR,,HWY 67 & A JUNCTION,FREDERICKTOWN,MO,63645,5737837356,53445,73581,OPL,SOP ,MADISON,4,00,,,,
REGATTA LANES INC.,BEAR CREEK VALLEY,,HWY 42,OSAGE BEACH,MO,650655763,5733021000,53456,54912,RBD,SBD ,MILLER,2,00,,,,
QUIK-TRIP CORPORATION,QUIK-TRIP #245,17815,E 39TH STREET,INDEPENDENCE,MO,640556726,8164780245,53517,73353,OPL,SOP ,JACKSON,1,00,"(39.04802129999999, -94.3692892)",43,157,525
MARTIN & BAYLEY INC.,HUCKS CONVENIENT FOOD STORES #252,3443,WATSON ROAD,ST LOUIS,MO,631392054,3146456723,53688,0,5OP,    ,ST. LOUIS CITY,3,00,,,,
SCHNUCK MARKETS INC.,SCHNUCK MARKETS #141,9074,OVERLAND PLAZA,OVERLAND,MO,63114,3142983800,53709,71129,OPL,SOP ,ST. LOUIS CO.,3,00,,,,
SCHNUCK MARKETS INC.,SCHNUCK MARKETS #141,9074,OVERLAND PLAZA,OVERLAND,MO,63114,3142983800,53709,84080,OPL,OPT ,ST. LOUIS CO.,3,00,,,,
NORTH DRAGON CHINESE RESTAURANT INC.,NORTH DRAGON CHINESE RESTAURANT,6245,N OAK TRAFFICWAY,OAKVIEW,MO,64118,8164522029,53729,53730,RBDR,SBD ,CLAY,1,00,,,,
SCHNUCK MARKETS INC.,SCHNUCK MARKETS #143,3430,S GRAND BLVD,ST LOUIS,MO,63118,3142983800,53740,83639,OPL,OPT ,ST. LOUIS CITY,3,00,"(38.594674, -90.24253)",54,200,2223
SCHNUCK MARKETS INC.,SCHNUCK MARKETS #143,3430,S GRAND BLVD,ST LOUIS,MO,63118,3142983800,53740,71152,OPL,SOP ,ST. LOUIS CITY,3,00,"(38.594674, -90.24253)",54,200,2223
J D'S QUICK STOP INC.,J D'S QUICK STOP,1529,N MAIN,POPLAR BLUFF,MO,639013411,5737850360,53741,74805,OPL,SOP ,BUTLER,4,00,,,,
FRATERNAL ORDER OF EAGLES 4235,AERIE 4235,102,HWY J NORTH,HAYTI,MO,63851,5733590340,53744,53745,RBDE,SBD ,PEMISCOT,4,00,,,,
ASV WINES INC.,ASV WINES,31502,PETERSON RD,MCFARLAND,CA,93250,6617923159,53763,0,22S,    ,OUT OF STATE,7,00,,,,
PRINCESS GARDEN INC.,PRINCESS GARDEN RESTAURANT,8906,WORNALL ROAD,KANSAS CITY,MO,641143605,8164443709,53811,53812,RBD,SBD ,JACKSON,1,00,"(38.9662866, -94.5960499)",43,167,525
VETERANS OF FOREIGN WARS,VFW POST 2654,1347,S MORLEY STREET,MOBERLY,MO,65270,6602636030,53885,53886,RBD,SBD ,RANDOLPH,2,00,,,,
VETERANS OF FOREIGN WARS,POST 3485 J.A. ASHBY,,BALLPARK ROAD,DONIPHAN,MO,639350000,5739963016,53919,0,RBDE,    ,RIPLEY,4,00,,,,
"WHITE, TERRI A.",TERRI'S,520,STATE STREET,MOUND CITY,MO,644701441,6604425516,53927,0,5BDW,    ,HOLT,1,00,,,,
ST. COLUMBKILL ASSOCIATION,KNIGHTS OF COLUMBUS,6800,K C LANE,HOUSE SPRINGS,MO,63051,6366713366,54136,54137,RBD,SBD ,JEFFERSON,3,00,,,,
AMERICAN LEGION 111,ST. LOUIS COUNTY MEMORIAL POST BLDG ASSN,7300,LANSDOWNE,SHREWSBURY,MO,631192834,3146459921,54402,54403,RBD,SBD ,ST. LOUIS CO.,3,00,"(38.5918034, -90.32167299999999)",51,228,2210
BOSIKO INC.,7-ELEVEN STORE 27379A,8250,WATSON ROAD,MARLBOROUGH,MO,63119,3148434075,54479,71859,OPL,SOP ,ST. LOUIS CO.,3,00,"(38.566234, -90.348176)",51,235,2210
ST. ROBERTS PARISH,,1424,FIRST CAPITAL DRIVE,ST CHARLES,MO,633033799,6369466799,54506,0,RBD,    ,ST. CHARLES,3,00,,,,
TDL COUNTRY CLUB INC.,TDL COUNTRY CLUB,1424,RUE RIVIERA,BONNE TERRE,MO,636288919,5735627528,54572,54573,RBDR,SBD ,ST. FRANCOIS,4,00,"(37.89703350000001, -90.6087289)",74,323,540
MARTIN & BAYLEY INC.,HUCK'S CONVENIENCE FOOD STORE #222,2875,ST PETER & HOWELL ROAD,ST PETERS,MO,633762842,6364474256,54639,73114,OPL,SOP ,ST. CHARLES,3,00,,,,
QUIK TRIP CORPORATION,QUIK TRIP #624,9101,GRAVOIS ROAD,ST. LOUIS COUNTY,MO,631234523,3148326000,54707,71476,OPL,SOP ,ST. LOUIS CO.,3,00,"(38.555284, -90.315259)",51,235,2210
"MITCHELL, DARYL E.",MITCHELL'S PACKAGE LIQUOR,4674,DR MARTIN LUTHER KING DR,ST LOUIS,MO,631132312,3145353865,55196,72562,OPL,SOP ,ST. LOUIS CITY,3,00,,,,
"MITCHELL, DARYL E.",MITCHELL'S PACKAGE LIQUOR,4674,DR MARTIN LUTHER KING DR,ST LOUIS,MO,631132312,3145353865,55196,97271,OPL,OPT ,ST. LOUIS CITY,3,00,,,,
SMOKEHOUSE BBQ INC.,SMOKEHOUSE BBQ,19000,E 39TH STREET,INDEPENDENCE,MO,640572315,8167955555,55205,57280,RBD,SBD ,JACKSON,1,00,"(39.0484186, -94.3564368)",43,157,525
ST. CHARLES PUBLIC PARK BOARD,MEMORIAL HALL,1900,W RANDOLPH,ST CHARLES,MO,633010842,6369493372,55544,0,RBD,    ,ST. CHARLES,3,00,,,,
FAROTTOS PIZZERIA INC.,FAROTTOS ITALIAN RESTAURANT & PIZZERIA,9525,MANCHESTER ROAD,ROCK HILL,MO,63119,3149620048,55631,231258,RBD,RDC5,ST. LOUIS CO.,3,00,"(38.6093368, -90.36508119999999)",51,228,2210
FAROTTOS PIZZERIA INC.,FAROTTOS ITALIAN RESTAURANT & PIZZERIA,9525,MANCHESTER ROAD,ROCK HILL,MO,63119,3149620048,55631,55632,RBD,SBD ,ST. LOUIS CO.,3,00,"(38.6093368, -90.36508119999999)",51,228,2210
OELLERMANN'S MARKET INC.,OELLERMANN'S MARKET,9526,LACKLAND ROAD,OVERLAND,MO,631143628,3144275596,55639,0,OPL,    ,ST. LOUIS CO.,3,00,"(38.70044499999999, -90.36748)",51,207,2210
WEST PLAINS DISTRIBUTING COMPANY INC.,PREMIUM BEVERAGE DISTRIBUTING COMPANY,134,N HOWELL AVE,WEST PLAINS,MO,657753341,4172564275,55654,0,LWS,    ,HOWELL,5,00,,,,
HUB CITY SPORTS INC.,JACK'S SPORTING GOODS,1289,E. US HWY 54,CAMDENTON,MO,65020,5733462279,55716,71960,OPL,SOP ,CAMDEN,2,00,,,,
E & J PACKAGE LIQUOR INC.,E & J PACKAGE,939,N. KINGSHIGHWAY,ST. LOUIS,MO,63108,3143670246,56065,71830,OPL,SOP ,ST. LOUIS CITY,3,00,,,,
AMERICAN CZECH EDUCATIONAL CENTER CORP.,AMERICAN CZECH EDUCATIONAL CENTER,4690,LANSDOWNE AVE,ST LOUIS,MO,631161523,3147528168,56111,56112,RBD,SBD ,ST. LOUIS CITY,3,00,"(38.5872327, -90.27529589999999)",54,200,2223
CODY'S ALL INC.,KITTY'S KORNER,4105,HWY 67 NORTH,FLORISSANT,MO,630342825,3147419770,56118,211754,RBD,SBD ,ST. LOUIS CO.,3,00,"(38.816311, -90.280606)",51,181,2210
SMOKE HOUSE MARKET INC.,ANNIE GUNN'S,16806,CHESTERFIELD AIRPORT ROAD,CHESTERFIELD,MO,63017,6365323314,56328,57614,RBD,SBD ,ST. LOUIS CO.,3,00,"(38.66777, -90.579994)",51,219,2210
SMOKE HOUSE MARKET INC.,SMOKE HOUSE MARKET,16806,CHESTERFIELD AIRPORT ROAD,CHESTERFIELD,MO,63017,6365323314,56330,75370,OPL,SOP ,ST. LOUIS CO.,3,00,"(38.66777, -90.579994)",51,219,2210
SMOKE HOUSE MARKET INC.,SMOKE HOUSE MARKET,16806,CHESTERFIELD AIRPORT ROAD,CHESTERFIELD,MO,63017,6365323314,56330,163846,OPL,OPT ,ST. LOUIS CO.,3,00,"(38.66777, -90.579994)",51,219,2210
ST. LOUIS POLICE OFFICERS ASSOCIATION,ST. LOUIS POLICE OFFICERS,3710,HAMPTON,ST LOUIS,MO,631091407,3143533200,56422,0,5BDW,    ,ST. LOUIS CITY,3,00,"(38.5954117, -90.29296870000002)",54,200,2223
COURTYARD MANAGEMENT CORPORATION,COURTYARD BY MARRIOTT IGA,2340,MARKET STREET,ST LOUIS,MO,63103,3142419111,56463,57831,RBD,SBD ,ST. LOUIS CITY,3,00,"(38.629919, -90.21499299999999)",54,200,2223
BANFI PRODUCTS CORPORATION,VILLA BANFI U.S.A.,1111,CEDAR SWAMP ROAD,OLD BROOKVILLE,NY,115452109,5162933500,56478,0,LS,    ,OUT OF STATE,7,00,,,,
BILL'S IMPERIAL INC.,FAS-TRIP #103,,HWY 100 & MILLER STREET,NEW HAVEN,MO,63068,6362393444,56728,74354,OPL,SOP ,FRANKLIN,2,00,,,,
FRATERNAL ORDER OF EAGLES 3934,AERIE 3934,603,W PLAINVIEW,SPRINGFIELD,MO,658102419,4178862701,56761,56762,RBDE,SBD ,GREENE,5,00,"(37.11681, -93.299877)",93,493,1960
ADAM PUCHTA & SON WINE COMPANY,ADAM PUCHTA & SON WINE,1947,FRENE CREEK ROAD,HERMANN,MO,650414103,5734865596,57174,0,DOMW,    ,GASCONADE,2,00,,,,
CITY OF ST. JOSEPH,CITY OF ST. JOSEPH CIVIC ARENA,100,N 4TH STREET,ST JOSEPH,MO,645011765,8162714717,57251,57252,RBD,SBD ,BUCHANAN,1,00,,,,
DEGEARE STORES OF FESTUS INC.,7-ELEVEN STORE 29027,1301,VETERANS DRIVE,FESTUS,MO,63028,6369377330,57334,74420,OPL,SOP ,JEFFERSON,3,00,"(38.2132818, -90.4070866)",62,285,1967
BENEVOLENT PROTECTIVE ORDER OF ELKS 125,LODGE 125,320,S. KENTUCKY,SEDALIA,MO,653014251,6608265391,57528,64590,RBDE,SBD ,PETTIS,2,00,,,,
FKG OIL COMPANY,PACIFIC MOTOMART,279,N PAYNE STREET,PACIFIC,MO,630691284,6362576665,57529,71208,OPL,SOP ,FRANKLIN,2,00,"(38.4839333, -90.755946)",59,249,1958
FRATERNAL ORDER OF EAGLES 4238,AERIE 4238,605,W MULBERRY,PILOT KNOB,MO,636630544,5735467795,57565,57566,RBDE,SBD ,IRON,4,00,,,,
BRANNON INVESTMENT COMPANY INC.,ST. LOUIS CASA LOMA BALLROOM,3354,IOWA AVE,ST LOUIS,MO,631183020,3146648000,57570,57571,RBD,SBD ,ST. LOUIS CITY,3,00,"(38.5939397, -90.2285534)",54,200,2223
BRANNON INVESTMENT COMPANY INC.,ST. LOUIS CASA LOMA BALLROOM,3354,IOWA AVE,ST LOUIS,MO,631183020,3146648000,57570,108437,RBD,EXTH,ST. LOUIS CITY,3,00,"(38.5939397, -90.2285534)",54,200,2223
SCHNUCK MARKETS INC.,SCHNUCK MARKETS #110,577,MID RIVERS MALL DRIVE,ST PETERS,MO,63376,3149944730,57787,138645,OPL,OPT ,ST. CHARLES,3,00,"(38.78706440000001, -90.62644069999999)",48,173,2177
SCHNUCK MARKETS INC.,SCHNUCK MARKETS #110,577,MID RIVERS MALL DRIVE,ST PETERS,MO,63376,3149944730,57787,71120,OPL,SOP ,ST. CHARLES,3,00,"(38.78706440000001, -90.62644069999999)",48,173,2177
SCHNUCK MARKETS INC.,SCHNUCK MARKETS #111,1950,ZUMBEHL ROAD,ST CHARLES,MO,63303,3149944200,57788,71141,OPL,SOP ,ST. CHARLES,3,00,"(38.780775, -90.530534)",48,195,2177
SCHNUCK MARKETS INC.,SCHNUCK MARKETS #111,1950,ZUMBEHL ROAD,ST CHARLES,MO,63303,3149944200,57788,84022,OPL,OPT ,ST. CHARLES,3,00,"(38.780775, -90.530534)",48,195,2177
VETERANS OF FOREIGN WARS POST 4294,POST 4294,,5TH & HELENA STREET,CHARLESTON,MO,63834,5736836301,57801,57802,RBDE,SBD ,MISSISSIPPI,4,00,,,,
FRATERNAL ORDER OF EAGLES 4246,AERIE 4246,2911,HIGH RIDGE BLVD,HIGH RIDGE,MO,630492212,6366771550,57860,57861,RBD,SBD ,JEFFERSON,3,00,,,,
SCRIVENER OIL COMPANY INC.,SIGNAL FOOD STORES,,HWY 60 & PINE STREET,MOUNTAIN VIEW,MO,65548,4179345941,57889,72990,OPL,SOP ,HOWELL,5,00,,,,
LAIRD & COMPANY,,1,LAIRD ROAD,SCOBEYVILLE,NJ,077249724,7325420312,57959,0,LS,    ,OUT OF STATE,7,00,"(40.304332, -74.143728)",,,2491
QUIK TRIP CORPORATION,QUIK TRIP #630,2621,WOODSON ROAD,OVERLAND,MO,631144815,3144261811,58054,71851,OPL,SOP ,ST. LOUIS CO.,3,00,"(38.7059632, -90.3617329)",51,207,2210
VETERANS OF FOREIGN WARS 4593,JOHN C. COX POST 4593,129,N MAIN,REPUBLIC,MO,657381470,4177329231,58124,0,RBDE,    ,GREENE,5,00,"(37.119482, -93.480807)",93,492,1960
R WIEMERS INC.,ENTERPRISE PARK LANES,1625,S ENTERPRISE,SPRINGFIELD,MO,65804,4178830511,58173,58904,RBD,SBD ,GREENE,5,00,"(37.184442, -93.251063)",93,493,1960
FAST N FRIENDLY SPRINGFIELD INC.,FAST N FRIENDLY SPRINGFIELD,1451,N KANSAS EXPRESSWAY,SPRINGFIELD,MO,65802,4178644766,58189,73152,OPL,SOP ,GREENE,5,00,,,,
WALLIS OIL COMPANY INC.,WALLIS OIL #40,,HWY I-44 & 19,CUBA,MO,65453,5738852277,58355,70868,OPL,SOP ,CRAWFORD,4,00,,,,
WALLIS OIL COMPANY INC.,WALLIS OIL #40,,HWY I-44 & 19,CUBA,MO,65453,5738852277,58355,224791,OPL,OPT ,CRAWFORD,4,00,,,,
PERRY COUNTY SPORTSMAN CLUB,,17,N SHELBY STREET,PERRYVILLE,MO,637751842,5735471557,58406,58407,RBDE,SBD ,PERRY,4,00,,,,
ONE MCKNIGHT PLACE DEVELOPMENT COMPANY,ONE MCKNIGHT PLACE DEVELOPMENT COMPANY,ONE,MCKNIGHT PLACE,UNIVERSITY CITY,MO,631242229,3149930111,58433,58434,RBD,SBD ,ST. LOUIS CO.,3,00,,,,
"DILLARD, RUTHENE E.",TRIPLETT'S GENERAL MERCHANDISE,,HWY 32 & 137 JUNCTION,LICKING,MO,655420502,5736743398,58495,73680,OPL,SOP ,TEXAS,5,00,,,,
ANGELO'S PIZZA & STEAK HOUSE INC.,ANGELO'S,4107,S PROVIDENCE ROAD,COLUMBIA,MO,652037155,5734436100,58764,148036,5BDW,5SBD,BOONE,2,00,"(38.9048277, -92.33606879999999)",40,464,2691
AMERICAN LEGION 554,BLOOMSDALE MEMORIAL POST 554,RR 2,BODINE ROAD,BLOOMSDALE,MO,636709518,5734832517,58787,58788,RBDE,SBD ,STE. GENEVIEVE,4,00,,,,
TWISTERS INC.,TWISTERS LOUNGE,3602,ADIE ROAD,ST ANN,MO,630742444,3147313000,58802,210638,RBD,SBD ,ST. LOUIS CO.,3,00,"(38.727851, -90.39692099999999)",51,204,2210
"DESHAZO, PEGGY",KOUNTRY KORNER STORE,,HWY 142 & E JUNCTION,MOODY,MO,65777,4172847421,58916,72980,OPL,SOP ,HOWELL,5,00,,,,
LOMB INC.,LOMBARDO'S TRATTORIA,201,S 20TH STREET,ST LOUIS,MO,63103,3146210666,58979,0,RBD,    ,ST. LOUIS CITY,3,00,"(38.628022, -90.210472)",54,200,2223
SCHUETZEN CO. NO. 1 OF WARREN COMPANY,SCHUETZEN CO. NO. 1 OF WARREN CO.,,SCHUETZEN GROUND ROAD,WARRENTON,MO,63383,6364563035,58989,0,COL,    ,WARREN,2,00,,,,
TRAINWRECK WEST INC.,TRAINWRECK SALOON WESTPORT,314,WEST PORT PLAZA,MARYLAND HEIGHTS,MO,631463004,3144347222,59027,97438,RBD,SBD ,ST. LOUIS CO.,3,00,"(38.701737, -90.4468134)",51,208,2210
ADVANCED CONCEPTS INC.,STADIUM LIQUOR,5110-,5112 BRISTOL AVENUE,KANSAS CITY,MO,64129,8167535678,59094,73374,OPL,SOP ,JACKSON,1,00,"(39.031898, -94.503187)",43,163,525
ADVANCED CONCEPTS INC.,STADIUM LIQUOR,5110-,5112 BRISTOL AVENUE,KANSAS CITY,MO,64129,8167535678,59094,222469,OPL,OPT ,JACKSON,1,00,"(39.031898, -94.503187)",43,163,525
FAST N FRIENDLY SPRINGFIELD INC.,FAST N FRIENDLY SPRINGFIELD,427,S GLENSTONE,SPRINGFIELD,MO,65802,4178698414,59111,0,5OP,    ,GREENE,5,00,"(37.2049123, -93.26213469999999)",93,493,1960
BENEVOLENT PROTECTIVE ORDER OF ELKS 861,LODGE 861,1010,N MADISON,WEBB CITY,MO,64870,4176733671,59148,59149,RBDE,SBD ,JASPER,5,00,,,,
BENEVOLENT PROTECTIVE ORDER OF ELKS 861,LODGE 861,1010,N MADISON,WEBB CITY,MO,64870,4176733671,59148,286195,RBDE,RBDC,JASPER,5,00,,,,
KIRKSVILLE COUNTRY CLUB INC.,KIRKSVILLE COUNTRY CLUB,1115,COUNTRY CLUB DR.,KIRKSVILLE,MO,63501,6606655335,59159,59248,RBD,SBD ,ADAIR,2,00,,,,
CALIFORNIA COUNTRY CLUB,CALIFORNIA COUNTRY CLUB,29713,COUNTRY CLUB RD.,CALIFORNIA,MO,650183307,5737962089,59360,59361,RBDE,SBD ,MONITEAU,2,00,,,,
CAMERON MEMORIAL GOLF CLUB,CAMERON MEMORIAL GOLF CLUB,1000,S PARK STREET,CAMERON,MO,644292368,8166322626,59373,59374,RBDE,SBD ,CLINTON,1,00,,,,
MARGARITAS NORTH INC.,MARGARITAS NORTH,7013,N OAK,GLADSTONE,MO,64118,8167535678,59376,62140,RBD,SBD ,CLAY,1,00,,,,
AMI'S OF ROCK HILL INC.,AMI'S OF ROCK HILL,9824,MANCHESTER ROAD,ROCK HILL,MO,631191246,3149631822,59383,59384,RBD,SBD ,ST. LOUIS CO.,3,00,"(38.6060828, -90.3746529)",51,228,2210
HY VEE INC.,HY VEE FOOD & DRUGSTORE,500,N BALTIMORE,KIRKSVILLE,MO,635013214,6606658335,59531,71544,OPL,SOP ,ADAIR,2,00,"(40.1976177, -92.5695131)",12,32,509
HY VEE INC.,HY VEE FOOD & DRUGSTORE,500,N BALTIMORE,KIRKSVILLE,MO,635013214,6606658335,59531,82989,OPL,OPT ,ADAIR,2,00,"(40.1976177, -92.5695131)",12,32,509
"HOLLAND, DONALD W. & LINDA L.",T STOP,10101,STATE ROUTE T,SAVANNAH,MO,644852406,8163244512,59640,73556,OPL,SOP ,ANDREW,1,00,"(39.9231728, -94.8562539)",17,54,2647
"HOLLAND, DONALD W. & LINDA L.",T STOP,10101,STATE ROUTE T,SAVANNAH,MO,644852406,8163244512,59640,73556,OPL,SOP ,ANDREW,1,00,"(39.9231728, -94.8562539)",17,54,2647
HANNIBAL COUNTRY CLUB INC.,,1200,COUNTRY CLUB DRIVE,HANNIBAL,MO,634012619,5732481123,59810,59811,RBD,SBD ,MARION,2,00,,,,
OAK MEADOWS REALTY COMPANY INC.,OAK MEADOWS COUNTRY CLUB,10700,COUNTY ROAD 3110,ROLLA,MO,654017791,5733412363,59924,61842,RBDR,SBD ,PHELPS,5,00,,,,
WALLIS OIL COMPANY INC.,ROLLA MOBIL #120,1710,N BISHOP,ROLLA,MO,65401,5738852277,60297,223793,OPL,OPT ,PHELPS,5,00,,,,
WALLIS OIL COMPANY INC.,ROLLA MOBIL #120,1710,N BISHOP,ROLLA,MO,65401,5738852277,60297,70890,OPL,SOP ,PHELPS,5,00,,,,
ST. ELIZABETH ANN SETON,PARISH HALL,2,SETON COURT,ST CHARLES,MO,633013301,6369466717,60321,0,RBD,    ,ST. CHARLES,3,00,"(38.777902, -90.540877)",48,195,2177
FIRST RESTAURANT COMPANY,HARPOS,4109,PENNSYLVANIA,KANSAS CITY,MO,641113002,8167533434,60353,62428,RBD,EXTH,JACKSON,1,00,"(39.05256929999999, -94.5910352)",43,151,525
FIRST RESTAURANT COMPANY,HARPOS,4109,PENNSYLVANIA,KANSAS CITY,MO,641113002,8167533434,60353,214151,RBD,SBD ,JACKSON,1,00,"(39.05256929999999, -94.5910352)",43,151,525
QUIK TRIP CORPORATION,QUIK TRIP #626,9951,BIG BEND BLVD,OAKLAND,MO,631226503,3149656110,60520,71860,OPL,SOP ,ST. LOUIS CO.,3,00,"(38.568524, -90.3910071)",51,229,2210
FRANKIE GS INC.,FRANKIE GS,4565,CHESTNUT PARK PLAZA,ST LOUIS,MO,63129,3148949292,60730,62549,RBD,SBD ,ST. LOUIS CO.,3,00,"(38.478341, -90.305168)",51,248,2210
AMERICAN LEGION 158,ALTENTHAL-JOERNS POST 158,319,N. HIGH ST.,JACKSON,MO,63755,5732439158,60934,60936,RBDE,SBD ,CAPE GIRARDEAU,4,00,,,,
CITY OF HAZELWOOD,HAZELWOOD COMMUNITY CENTER,1186,TESON ROAD,HAZELWOOD,MO,630421917,3148393700,61002,0,RBD,    ,ST. LOUIS CO.,3,00,"(38.7918031, -90.3827874)",51,181,2210
HAZELWOOD CIVIC CENTER EAST,CIVIC CENTER,8969,DUNN ROAD,HAZELWOOD,MO,630421917,3148393700,61004,0,RBD,    ,ST. LOUIS CO.,3,00,"(38.77789930000001, -90.3484814)",51,191,2210
"CONLEY, NATHAN F.",MITCHELL'S EXPRESS,5250,W FLORISSANT,ST LOUIS,MO,631151448,3143811300,61197,95495,OPL,OPT ,ST. LOUIS CITY,3,00,,,,
"CONLEY, NATHAN F.",MITCHELL'S EXPRESS,5250,W FLORISSANT,ST LOUIS,MO,631151448,3143811300,61197,191099,OPL,SOP ,ST. LOUIS CITY,3,00,,,,
BARGETTO'S SANTA CRUZ WINERY,,3535,N MAIN STREET,SOQUEL,CA,950732530,8314752258,61594,0,22S,    ,OUT OF STATE,7,00,"(36.9949852, -121.9544736)",,,1335
COTTAGE HOUSE INC.,AVALON CAFE,608,MAIN STREET,WESTON,MO,640981208,8166402835,61801,82768,RBD,SBD ,PLATTE,1,00,,,,
SCRIVENER OIL COMPANY INC.,SIGNAL FOOD STORES,1012,NE 12TH AVENUE,AVA,MO,65608,4176836641,61886,213275,OPL,OPT ,DOUGLAS,5,00,,,,
SCRIVENER OIL COMPANY INC.,SIGNAL FOOD STORES,1012,NE 12TH AVENUE,AVA,MO,65608,4176836641,61886,72944,OPL,SOP ,DOUGLAS,5,00,,,,
D.A. AND G. CORPORATION,JIMMY'S FAMILY STEAK HOUSE,3101,S PROVIDENCE ROAD,COLUMBIA,MO,652033696,5734431796,62114,0,5BDW,    ,BOONE,2,00,,,,
HOME SERVICE OIL COMPANY,EXPRESS MART CEDAR HILL,8200,INDUSTRIAL PARK DRIVE,CEDAR HILL,MO,63016,6362857000,62380,204475,OPL,OPT ,JEFFERSON,3,00,,,,
HOME SERVICE OIL COMPANY,EXPRESS MART CEDAR HILL,8200,INDUSTRIAL PARK DRIVE,CEDAR HILL,MO,63016,6362857000,62380,70693,OPL,SOP ,JEFFERSON,3,00,,,,
OTH INC.,KIRKWOOD ICE & FUEL COMPANY,213-,215 N KIRKWOOD ROAD,KIRKWOOD,MO,631224029,3148220494,62504,0,RBD,    ,ST. LOUIS CO.,3,00,"(38.5827224, -90.4065973)",51,229,2210
SHAFER VINEYARDS INC.,SHAFER VINEYARDS,6154,SILVERADO TRAIL,NAPA,CA,945589748,7079442877,62567,0,22S,    ,OUT OF STATE,7,00,"(38.421021, -122.326365)",,,1172
S L J GROUP INC.,LIONSTONE INTERNATIONAL,28188,N. BALLARD DRIVE,LAKE FOREST,IL,60045,8472478755,62619,0,22S,    ,OUT OF STATE,7,00,,,,
RIDGE VINEYARDS INC.,RIDGE VINEYARDS,17100,MONTE BELLO ROAD,CUPERTINO,CA,950145435,4088673233,62647,0,22S,    ,OUT OF STATE,7,00,,,,
VETERANS OF FOREIGN WARS 7560,POST 7560,,HWY A,HAWK POINT,MO,63349,3143884647,62797,135215,RBD,SBD ,LINCOLN,3,00,,,,
AMVETS 143,POST 143,1105,NE HWY 50 EAST,KNOB NOSTER,MO,653362001,6605636077,62927,0,RBDE,    ,JOHNSON,1,00,,,,
LAKE VALLEY GOLF AND COUNTRY CLUB INC.,LAKE VALLEY GOLF AND COUNTRY CLUB,367,CC BLAIR,CAMDENTON,MO,65020,5733467218,62966,62967,RBDR,SBD ,CAMDEN,2,00,,,,
ARCADIA VALLEY COUNTRY CLUB INC.,ARCADIA VALLEY COUNTRY CLUB,,HWY 72,IRONTON,MO,63650,5735469508,63151,63152,RBDE,SBD ,IRON,4,00,,,,
OLIVERS GOURMET COMPANY,STARRS,1135,S BIG BEND,RICHMOND HEIGHTS,MO,631171635,3147812345,63254,0,RBD,    ,ST. LOUIS CO.,3,00,"(38.631822, -90.319648)",51,226,2210
"BOMMARITO WINES & SPIRITS, INC.",BOMMARITO WINES & SPIRITS,2465,CENTERLINE INDUSTRIAL DR.,ST LOUIS,MO,630433307,3149618996,63265,0,LWS,    ,ST. LOUIS CO.,3,00,,,,
MB ARCO INC.,DOMENICO'S ITALIAN RESTAURANT AND LOUNGE,3702,W TRUMAN BLVD  #225,JEFFERSON CITY,MO,65109,5738935454,63341,0,RBD,    ,COLE,2,00,"(38.589149, -92.255524)",58,465,2702
QUIK TRIP CORPORATION,QUIK TRIP #611,850,MCNUTT STREET,HERCULANEUM,MO,630481512,6369317569,63357,72266,OPL,SOP ,JEFFERSON,3,00,"(38.2542231, -90.4004982)",62,285,1967
TREFETHEN VINEYARDS WINERY INC.,TREFETHEN VINEYARDS,1160,OAK KNOLL AVE,NAPA,CA,945581303,7072557700,63400,0,22S,    ,OUT OF STATE,7,00,"(38.3606693, -122.3319371)",,,1172
BENEVOLENT PROTECTIVE ORDER OF ELKS,LODGE 656,401,HARVESTER ROAD,CHILLICOTHE,MO,646013202,6606465350,63403,63404,RBDE,SBD ,LIVINGSTON,1,00,,,,
CATERING ST. LOUIS INC.,CATERING ST. LOUIS,2141,59TH STREET,ST. LOUIS,MO,63110,3149617588,63425,207972,RBD,RDC1,ST. LOUIS CITY,3,00,"(38.6161046, -90.2849942)",54,200,2223
DESMET JESUIT HIGH SCHOOL,DESMET JESUIT HIGH SCHOOL,233,N NEW BALLAS RD,ST LOUIS,MO,631417530,3145673500,63501,63503,RBD,SBD ,ST. LOUIS CO.,3,00,"(38.660579, -90.44564)",51,208,2210
COYOTES ADOBE CAFE AND BAR INC.,COYOTES ADOBE CAFE AND BAR,1742,S GLENSTONE,SPRINGFIELD,MO,65804,4178897120,63584,64345,RBD,SBD ,GREENE,5,00,,,,
"NAUSS, JERRY L. & KATHLEEN M.",PIER II,25,LONE OAK PT.,SUNRISE BEACH,MO,650795153,5733744649,63807,0,OPL,    ,CAMDEN,2,00,,,,
"NAUSS, JERRY L. & KATHLEEN M.",PIER II,25,LONE OAK PT.,SUNRISE BEACH,MO,650795153,5733744649,63807,0,OPL,    ,CAMDEN,2,00,,,,
HOME SERVICE OIL COMPANY,EXPRESS MART WEST,1621,MARRIOTT,BARNHART,MO,630121400,6364675044,63849,204477,OPL,OPT ,JEFFERSON,3,00,"(38.3466669, -90.39821099999999)",62,265,1967
HOME SERVICE OIL COMPANY,EXPRESS MART WEST,1621,MARRIOTT,BARNHART,MO,630121400,6364675044,63849,70701,OPL,SOP ,JEFFERSON,3,00,"(38.3466669, -90.39821099999999)",62,265,1967
MFA PETROLEUM COMPANY,BREAK TIME #3095,701,S MAGUIRE,WARRENSBURG,MO,64093,5734420171,63888,73495,OPL,SOP ,JOHNSON,1,00,"(38.7546603, -93.73605669999999)",49,185,526
FAST N FRIENDLY EVANS ROAD INC.,FAST N FRIENDLY,3249,E. EVANS ROAD,SPRINGFIELD,MO,65810,4178829522,63891,73151,OPL,SOP ,GREENE,5,00,,,,
"MAGOC, CAROLYN J.",C.T. MAGOCS,8100,HILDESHEIM AVE,ST LOUIS,MO,631235807,3143539829,64030,211780,RBD,SBD ,ST. LOUIS CO.,3,00,"(38.556236, -90.29484099999999)",51,238,2210
ELLIOTT OIL COMPANY,LANCASTER AMOCO FOOD SHOP,,HWY 63 SOUTH,LANCASTER,MO,63548,6604573293,64090,71412,OPL,SOP ,SCHUYLER,2,00,,,,
P & A ENTERPRISES INC.,TP'S OFFICE,110,S ELSON STREET,KIRKSVILLE,MO,63501,6606659678,64161,0,RBD,    ,ADAIR,2,00,,,,
MFA PETROLEUM COMPANY,BREAK TIME #3089,100,E. HWY 40,SWEET SPRINGS,MO,653519778,5734420171,64183,71624,OPL,SOP ,SALINE,2,00,,,,
QUIK TRIP CORPORATION,QUIK TRIP #628,2791,DUNN ROAD,ST LOUIS,MO,631364628,3143555644,64230,71737,OPL,SOP ,ST. LOUIS CO.,3,00,"(38.7719427, -90.2674179)",51,181,2210
QUIK TRIP CORPORATION,QUIK TRIP #618,1069,JEFFCO BLVD,ARNOLD,MO,630101428,6362961277,64314,72268,OPL,SOP ,JEFFERSON,3,00,"(38.4434709, -90.3745843)",62,255,1967
PIKE COUNTY FAIR ASSOCIATION INC.,PIKE COUNTY FAIR ASSOCIATION,5924,HWY 54,BOWLING GREEN,MO,63334,5733243992,64370,0,COL,    ,PIKE,2,00,,,,
FARACI INC.,FARACI'S PIZZA,15430,MANCHESTER ROAD,ELLISVILLE,MO,630113029,3145242675,64446,0,RBD,    ,ST. LOUIS CO.,3,00,,,,
CUNETTO HOUSE OF PASTA INC.,CUNETTO HOUSE OF PASTA,5453,MAGNOLIA AVE,ST LOUIS,MO,63139,3147811135,64692,182540,RBD,SBD ,ST. LOUIS CITY,3,00,"(38.6102611, -90.280344)",54,200,2223
QUIK TRIP CORPORATION,QUIK TRIP #622,11829,LACKLAND ROAD,MARYLAND HEIGHTS,MO,631464205,3149914408,64789,71864,OPL,SOP ,ST. LOUIS CO.,3,00,"(38.698436, -90.435588)",51,208,2210
M & S LIQUORS INC.,M & S LIQUORS,402,SONDEREN STREET,O'FALLON,MO,633662631,6362727585,64819,72665,OPL,SOP ,ST. CHARLES,3,00,"(38.8058819, -90.69475790000001)",48,173,2177
JESS & JIM'S STEAKHOUSE INC.,JESS & JIM STEAKHOUSE,517,E 135TH STREET,KANSAS CITY,MO,641451415,8169419499,64918,64919,RBD,SBD ,JACKSON,1,00,"(38.8822989, -94.5891967)",43,178,525
MADISONS CAFE INC.,MADISONS CAFE,216,MADISON,JEFFERSON CITY,MO,651013230,5736342988,65080,0,RBD,    ,COLE,2,00,,,,
HIREN INC.,GOOD TIME PACKAGE LIQUOR,9916,HALLS FERRY ROAD,ST LOUIS,MO,63136,3148671166,65156,72568,OPL,SOP ,ST. LOUIS CO.,3,00,"(38.7472668, -90.2533433)",51,203,2210
"FRANKLIN, JOANN",FRANKLIN FLOATS,,HWY 21,LESTERVILLE,MO,636548841,5736372205,65217,0,5OP,    ,REYNOLDS,4,00,,,,
ZORBA'S STEAK HOUSE INC.,PLAYERS RESTAURANT LOUNGE,627,E RUSSELL ROAD,WARRENSBURG,MO,640939605,6607472115,65381,65382,RBDR,SBD ,JOHNSON,1,00,"(38.7735678, -93.7207648)",49,185,526
S. BECKER INC.,S. BECKER,,HWY 5 SOUTH,CAMDENTON,MO,650208827,5733466307,65689,74367,OPL,SOP ,CAMDEN,2,00,,,,
FOREST LAKE TENNIS CLUB INC.,FOREST LAKE TENNIS CLUB,1012,WOODSMILL ROAD NORTH,CHESTERFIELD,MO,63017,3148782722,65757,65758,5BDW,5SBD,ST. LOUIS CO.,3,00,,,,
FRATERNAL ORDER OF EAGLES #4286,AERIE 4286 COUNTRYSIDE,29354,HWY H,LINCOLN,MO,653382771,6606684647,65916,66112,RBDE,SBD ,BENTON,5,00,,,,
C & G PACKAGE STORE INC.,CARL'S #2,740,S ASH,BUFFALO,MO,65622,4173452151,65926,72607,OPL,SOP ,DALLAS,5,00,,,,
CODY QUICK STOP INC.,CODY'S QUICK STOP,405,E MILL STREET,LIBERTY,MO,640681826,8167924412,65941,74256,OPL,SOP ,CLAY,1,00,"(39.244553, -94.41636799999999)",36,3,2701
SALEEMS INC.,SALINAS MEXICAN RESTAURANT,20,CLARKSON CENTRE,CHESTERFIELD,MO,630177274,6365309010,65953,232256,RBD,SBD ,ST. LOUIS CO.,3,00,"(38.6280477, -90.57871159999999)",51,219,2210
GLADSTONE BOWL INC.,GLADSTONE BOWL,300,NW 72ND STREET,GLADSTONE,MO,641181822,8164362695,65983,65984,RBD,SBD ,CLAY,1,00,,,,
MALDEN COUNTRY CLUB,MALDEN COUNTRY CLUB,,INDUSTRIAL & ARNOLD DRIVE,MALDEN,MO,63863,5732769991,66091,66094,RBDE,SBD ,DUNKLIN,4,00,,,,
OLD TOWN PROPERTIES INC.,ELMER'S OLD TOWN TAVERN,#8,MAIN STREET,ST PETERS,MO,633763918,6363979592,66140,0,RBD,    ,ST. CHARLES,3,00,"(38.80213699999999, -90.62760399999999)",48,173,2177
COLUMBIAN ASSOCIATION OF ST. CLAIR INC.,KNIGHTS OF COLUMBUS,204,S COMMERCIAL,ST CLAIR,MO,630771308,6366294110,66148,0,RBD,    ,FRANKLIN,2,00,,,,
QUIK TRIP CORPORATION,QUIK TRIP #612,6805,N HANLEY ROAD,BERKELEY,MO,631341015,3145228082,66159,71861,OPL,SOP ,ST. LOUIS CO.,3,00,"(38.7636342, -90.3376595)",51,191,2210
M & M PETROLEUM INC.,ST. ROBERT CENEX,,HWY I-44 & Y,ST ROBERT,MO,65584,4174914171,66191,72815,OPL,SOP ,PULASKI,5,00,,,,
PINE RIDGE WINERY LLC,PINE RIDGE WINERY,5901,SILVERADO TRAIL,NAPA,CA,945589417,7072600922,66330,0,22S,    ,OUT OF STATE,7,00,"(38.4053712, -122.3322907)",,,1172
ROCK PORT GOLF & COUNTRY CLUB,ROCK PORT COUNTRY CLUB,101,COUNTRY CLUB DRIVE,ROCK PORT,MO,64482,6607442590,66347,66348,RBDE,SBD ,ATCHISON,1,00,,,,
"HYDE, JOYCE A.",HYDE AWAY CATFISH IN,,HWY VV,BROSELEY,MO,639329178,5737859200,66377,105487,5BDW,5SBD,BUTLER,4,00,,,,
VETERANS OF FOREIGN WARS,OVERLAND-ST. ANN MEMORIAL POST #3944,10815,MIDLAND AVE BLDG A &B,ST LOUIS,MO,631141841,3144270391,66435,66436,RBD,SBD ,ST. LOUIS CO.,3,00,,,,
CALIFORNIA C & R INC.,CALIFORNIA C & R,1021,"BUCHANAN, STE. 14",CALIFORNIA,MO,65018,5737962333,66456,71350,OPL,SOP ,MONITEAU,2,00,,,,
CALIFORNIA C & R INC.,CALIFORNIA C & R,1021,"BUCHANAN, STE. 14",CALIFORNIA,MO,65018,5737962333,66456,190608,OPL,OPT ,MONITEAU,2,00,,,,
GIER OIL COMPANY INC.,I-44 EAGLE STOP,1439,S JEFFERSON,LEBANON,MO,65536,5733926150,66861,70892,OPL,SOP ,LACLEDE,5,00,"(37.66510239999999, -92.64952369999999)",79,495,2008
KERMIT LYNCH WINE MERCHANT,KERMIT LYNCH WINE,1605,SAN PABLO AVE,BERKELEY,CA,947021317,5105241686,66956,0,22S,    ,OUT OF STATE,7,00,"(37.87493389999999, -122.2937537)",,,1141
VIAS IMPORTS LTD.,VIAS IMPORTS,875,6TH AVENUE SUITE 1500,NEW YORK,NY,100013565,2126290200,67068,0,LS,    ,OUT OF STATE,7,00,,,,
HESS COLLECTION WINERY,HESS COLLECTION,4411,REDWOOD ROAD,NAPA,CA,945589708,7072551144,67069,0,22S,    ,OUT OF STATE,7,00,"(38.34064499999999, -122.395228)",,,1172
VETERANS OF FOREIGN WARS 5327,POST 5327,1414,HWY Z,WENTZVILLE,MO,633854505,6366391648,67106,67107,RBD,SBD ,ST. CHARLES,3,00,"(38.795435, -90.852189)",48,184,2177
B & B SERVICE CENTER INC.,B & B QUICK STOP,116,S. SERVICE ROAD,SULLIVAN,MO,630801569,5734688052,67128,188242,OPL,OPT ,FRANKLIN,2,00,,,,
B & B SERVICE CENTER INC.,B & B QUICK STOP,116,S. SERVICE ROAD,SULLIVAN,MO,630801569,5734688052,67128,71660,OPL,SOP ,FRANKLIN,2,00,,,,
BILL'S IMPERIAL INC.,FAS-TRIP #104,5860,HWY 100,WASHINGTON,MO,63090,6362393444,67276,74356,OPL,SOP ,FRANKLIN,2,00,,,,
VETERANS OF FOREIGN WARS 5717,POST 5717,301,W WASHINGTON,KEARNEY,MO,64060,8166356003,67372,67373,RBDE,SBD ,CLAY,1,00,,,,
EPSILON RESTAURANT GROUP INC.,WEBERS FRONT ROW NEIGHBORHOOD PUB & GRIL,8165,BIG BEND,WEBSTER GROVES,MO,631193204,3149614500,67760,68812,RBD,SBD ,ST. LOUIS CO.,3,00,,,,
TABLE ROCK AMERICAN LEGION POST 637,TABLE ROCK AMERICAN LEGION POST 637,6,WOODLAND AVE,KIMBERLING CITY,MO,656860081,4177394108,67833,181822,RBD,SBD ,STONE,5,00,"(36.6390453, -93.41961599999999)",105,516,2216
COUNTRY CLUB OF ST. ALBANS INC.,COUNTRY CLUB OF ST. ALBANS,101,ST ALBANS ROAD,ST ALBANS,MO,630731204,6364583060,67891,67892,RBDE,SBD ,FRANKLIN,2,00,,,,
BENEVOLENT PROTECTIVE ORDER OF ELKS 2777,LODGE 2777 CHRISTIAN COUNTY ELKS,2400,"N. 18TH STREET, PO BOX 1399",OZARK,MO,657211399,4175814190,68061,68062,RBDE,SBD ,CHRISTIAN,5,00,,,,
12154 ROCK ROAD INC.,HOTSHOTS SPORTS BAR & CAFE,12154,ST CHARLES ROCK ROAD,BRIDGETON,MO,630442601,3142911606,68092,68093,RBD,SBD ,ST. LOUIS CO.,3,00,"(38.7493808, -90.42609859999999)",51,204,2210
QUIK TRIP CORPORATION,QUIK TRIP #629,4450,MERAMEC BOTTOM ROAD,ST. LOUIS,MO,63129,3148452598,68094,71475,OPL,SOP ,ST. LOUIS CO.,3,00,"(38.46103, -90.372832)",51,248,2210
FRATERNAL ORDER OF EAGLES 4279,TRI-LAKES LODGE 4279,3310,E 380 ROAD,EL DORADO SPRINGS,MO,647444540,4178763245,68111,68112,RBDE,SBD ,CEDAR,5,00,,,,
AYDT OIL COMPANY,FASTRAK #1,11142,BIG BEND BLVD,KIRKWOOD,MO,63122,3148219399,68125,72552,OPL,SOP ,ST. LOUIS CO.,3,00,,,,
"HINES, PATRICIA A.",GATEWAY LOUNGE,4201,N PRAIRIE AVE,ST LOUIS,MO,631071723,3143718855,68128,0,RBD,    ,ST. LOUIS CITY,3,00,"(38.6685977, -90.21709440000001)",54,200,2223
CHRISMAN LP GAS INC.,4 WAY QUICK SHOP,,HWY 61 & 162,PORTAGEVILLE,MO,63873,5733792202,68147,73216,OPL,SOP ,NEW MADRID,4,00,,,,
OLIVE CAFE CHINESE RESTAURANT INC.,TOKYO SUSHI RESTAURANT,3729,SOUTH LINDBERGH SUITE 102,SUNSET HILLS,MO,63127,3149845050,68200,0,RBD,    ,ST. LOUIS CO.,3,00,,,,
DILLON STORES DIVISION INC.,GERBES SUPER MARKET #118,2101,SCHOTTHILLS WOODS DRIVE,JEFFERSON CITY,MO,65101,4178911900,68213,136183,OPL,OPT ,COLE,2,00,"(38.548378, -92.147482)",58,465,2702
DILLON STORES DIVISION INC.,GERBES SUPER MARKET #118,2101,SCHOTTHILLS WOODS DRIVE,JEFFERSON CITY,MO,65101,4178911900,68213,71516,OPL,SOP ,COLE,2,00,"(38.548378, -92.147482)",58,465,2702
MARTIN & BAYLEY INC.,HUCKS CONVENIENCE FOOD #139,823,E MALONE,SIKESTON,MO,638013205,5734716299,68220,224115,OPL,OPT ,SCOTT,4,00,"(36.8789851, -89.5788773)",96,497,2213
MARTIN & BAYLEY INC.,HUCKS CONVENIENCE FOOD #139,823,E MALONE,SIKESTON,MO,638013205,5734716299,68220,73565,OPL,SOP ,SCOTT,4,00,"(36.8789851, -89.5788773)",96,497,2213
SHELRIK INC.,TUCKER'S PLACE WEST,14282,MANCHESTER ROAD,MANCHESTER,MO,630114508,6362270966,68269,68949,RBD,SBD ,ST. LOUIS CO.,3,00,,,,
FREY VINEYARDS LTD.,FREY VINEYARDS,14000,TOMKI ROAD,REDWOOD VALLEY,CA,954706135,7074855177,68293,0,22S,    ,OUT OF STATE,7,00,"(39.336425, -123.229244)",,,1168
MARTIN & BAYLEY INC.,HUCKS CONVENIENCE FOOD 267,328,S MAIN STREET,O'FALLON,MO,633662868,6362723957,68441,223549,OPL,OPT ,ST. CHARLES,3,00,"(38.8072919, -90.699567)",48,173,2177
MARTIN & BAYLEY INC.,HUCKS CONVENIENCE FOOD 267,328,S MAIN STREET,O'FALLON,MO,633662868,6362723957,68441,73111,OPL,SOP ,ST. CHARLES,3,00,"(38.8072919, -90.699567)",48,173,2177
KNIGHTS OF COLUMBUS COUNCIL 6365,COUNCIL 6365,547,W. HWY 54,CAMDENTON,MO,650200206,5733460010,68444,68851,RBDE,SBD ,CAMDEN,2,00,,,,
STEFFES RESTAURANT MANAGEMENT INC.,LAS CHILI'S,6210,RAYTOWN TRAFFICWAY,RAYTOWN,MO,641333847,8163566330,68490,0,RBD,    ,JACKSON,1,00,"(39.0100736, -94.4642071)",43,163,525
"HALE, LEONA M.",LEONA'S MINI MART,,HWY Y & J JUNCTION,AMSTERDAM,MO,64723,6602673636,68517,77729,OPL,SOP ,BATES,5,00,,,,
KNIGHTS OF COLUMBUS 5936,COUNCIL 5936,16283,NORTH STATE HIGHWAY 21,CADET,MO,63630,5734384010,68532,68533,RBDE,SBD ,WASHINGTON,4,00,,,,
HOME SERVICE OIL COMPANY,EXPRESS MART HILLSBORO,900,PEACH TREE PLAZA,HILLSBORO,MO,630505014,6364675044,68540,70696,OPL,SOP ,JEFFERSON,3,00,,,,
HOME SERVICE OIL COMPANY,EXPRESS MART HILLSBORO,900,PEACH TREE PLAZA,HILLSBORO,MO,630505014,6364675044,68540,204994,OPL,OPT ,JEFFERSON,3,00,,,,
J.D.C. RESTAURANTS INC.,C.J. MUGGS BAR & GRILL,200,S CENTRAL,CLAYTON,MO,631053506,3147271908,68658,84079,RBD,SBD ,ST. LOUIS CO.,3,00,"(38.6474367, -90.3384689)",51,223,2210
RAPID ROBERTS INC.,RAPID ROBERTS 113,5308,STATE HWY 54,OSAGE BEACH,MO,650653025,5733482490,68708,71405,OPL,SOP ,CAMDEN,2,00,,,,
VETERANS OF FOREIGN WARS,"POST 4223, LEMAY VETERANS",215,MILITARY ROAD,LEMAY,MO,631251227,3146310576,68752,70164,RBD,SBD ,ST. LOUIS CO.,3,00,"(38.542497, -90.27353099999999)",51,244,2210
NTO OKURE INC.,JENNINGS CONVENIENCE STORE,9311,LEWIS & CLARK BLVD,JENNINGS,MO,631365101,3148696966,68770,72682,OPL,SOP ,ST. LOUIS CO.,3,00,,,,
MARTIN & BAYLEY INC.,HUCK'S CONVENIENCE FOOD #270,10170,MANCHESTER ROAD,KIRKWOOD,MO,631221526,3148211114,68771,73452,OPL,SOP ,ST. LOUIS CO.,3,00,"(38.600826, -90.3934529)",51,229,2210
MARTIN & BAYLEY INC.,HUCK'S CONVENIENCE FOOD #270,10170,MANCHESTER ROAD,KIRKWOOD,MO,631221526,3148211114,68771,224117,OPL,OPT ,ST. LOUIS CO.,3,00,"(38.600826, -90.3934529)",51,229,2210
J.D.C. RESTAURANTS INC.,C.J. MUGGS BAR & GRILL,101,W LOCKWOOD,WEBSTER GROVES,MO,631192915,3149631976,68797,75215,RBD,SBD ,ST. LOUIS CO.,3,00,"(38.5931994, -90.3596709)",51,228,2210
VETERANS OF FOREIGN WARS,GENERAL GEORGE C. MARSHALL MEM POST 2184,6327,LEMAY FERRY ROAD,ST LOUIS,MO,631292807,3144168877,68883,80000,RBD,SBD ,ST. LOUIS CO.,3,00,"(38.4605651, -90.36370699999999)",51,248,2210
VETERANS OF FOREIGN WARS,CLARENCE E. DOOLEY MEMORIAL POST 6947,1008,VETERANS DRIVE,"BISMARCK,",MO,636249998,5737341146,68886,0,COL,    ,ST. FRANCOIS,4,00,,,,
FRATERNAL ORDER OF EAGLES #4262,AERIE #4262,6293,N 23RD ROAD,OZARK,MO,657215854,4175813306,68921,68922,RBDE,SBD ,CHRISTIAN,5,00,"(37.0782944, -93.2334716)",101,421,515
HAPPY VALLEY ENTERPRISES INC.,DAS STEIN HAUS,1436,SOUTHRIDGE DRIVE,JEFFERSON CITY,MO,65109,5736343869,69087,69088,RBD,SBD ,COLE,2,00,"(38.562239, -92.189227)",58,465,2702
QUIK TRIP CORPORATION,QUIK TRIP #623,3889,MEXICO ROAD,ST. CHARLES,MO,633033042,6369392665,69167,71719,OPL,SOP ,ST. CHARLES,3,00,"(38.790565, -90.56526099999999)",48,195,2177
QUIK-TRIP CORPORATION,QUIK-TRIP #233,501,E NORTH AVENUE,BELTON,MO,640122188,8163222300,69176,72638,OPL,SOP ,CASS,1,00,"(38.813731, -94.525199)",52,188,2697
BILLIE & BOB INC.,Y LIQUOR,1742,W JESSE JAMES ROAD,EXCELSIOR SPRINGS,MO,640241652,8166376900,69211,93227,OPL,OPT ,CLAY,1,00,"(39.337601, -94.25138799999999)",36,123,2701
BILLIE & BOB INC.,Y LIQUOR,1742,W JESSE JAMES ROAD,EXCELSIOR SPRINGS,MO,640241652,8166376900,69211,73584,OPL,SOP ,CLAY,1,00,"(39.337601, -94.25138799999999)",36,123,2701
CODDINGTON ENTERPRISES INC.,RHONDA'S,10526,PAGE AVENUE,ST LOUIS,MO,631321202,3144230633,69287,212609,RBD,SBD ,ST. LOUIS CO.,3,00,,,,
GAROZZO'S INC.,GAROZZO'S RISTORANTE,526,HARRISON STREET,KANSAS CITY,MO,64106,8162212455,69299,69300,RBD,SBD ,JACKSON,1,00,"(39.1093081, -94.5720132)",43,151,525
HUZZAH VALLEY STABLES INC.,,,HWY 8,STEELVILLE,MO,65565,5737868412,69503,71658,OPL,SOP ,CRAWFORD,4,00,,,,
RAPID ROBERTS INC.,RAPID ROBERTS 102,1278,US HWY 60 EAST,REPUBLIC,MO,657381248,4177329226,69597,79392,OPL,SOP ,GREENE,5,00,,,,
BENTON CTY POST 217 AMERICAN LEGION INC.,POST 217,32739,HIGHWAY MM,WARSAW,MO,653554925,6604386928,69598,69599,RBDE,SBD ,BENTON,5,00,,,,
SIERRA NEVADA BREWING COMPANY INC.,,1075,E 20TH STREET,CHICO,CA,959286722,5308933520,69613,0,22S,    ,OUT OF STATE,7,00,"(39.7241924, -121.815356)",,,1183
IMPERIAL CATERING COMPANY INC.,HEART OF ST. CHARLES,1115,S. MAIN ST.,ST. CHARLES,MO,633013522,6369478270,69654,75059,RBD,SBD ,ST. CHARLES,3,00,,,,
CHECK RECOVERY SPECIALISTS INC.,SMOKES FOR LESS,1240,CLEARVIEW ROAD,UNION,MO,630843107,5734863508,69905,0,5OP,    ,FRANKLIN,2,00,,,,
SEDALIA SHRINE CLUB,,1375,ELM HILLS ROAD,SEDALIA,MO,653018530,6608261551,69914,69915,RBDE,SBD ,PETTIS,2,00,,,,
WHITMAN & SONS INC.,CONVENIENCE STORE PLUS,7043,W. STATE HIGHWAY EE,SPRINGFIELD,MO,65802,4178658880,69981,72860,OPL,SOP ,GREENE,5,00,"(37.242597, -93.429462)",93,494,1960
B B D GROCERY INC.,"STORE, THE",6624,RAYTOWN ROAD,RAYTOWN,MO,641335240,8163568900,69986,0,5OP,    ,JACKSON,1,00,"(39.002403, -94.46423899999999)",43,163,525
J & B PUB INC.,CADDYSHACK PUB,700,E 3RD STREET,KANSAS CITY,MO,641061031,8164214742,70113,202533,RBD,SBD ,JACKSON,1,00,"(39.1114564, -94.5761417)",43,151,525
J & B PUB INC.,CADDYSHACK PUB,700,E 3RD STREET,KANSAS CITY,MO,641061031,8164214742,70113,79544,RBD,EXTH,JACKSON,1,00,"(39.1114564, -94.5761417)",43,151,525
FISH'S QUICK STOP INC.,FISH'S QUICK STOP,12973,HWY 21,DESOTO,MO,630201078,6365862266,70204,72204,OPL,SOP ,JEFFERSON,3,00,"(38.1431929, -90.5803224)",62,295,1967
MFA PETROLEUM COMPANY,BREAK TIME #3083,808,E BROADWAY,SEDALIA,MO,65301,5734420171,70498,71665,OPL,SOP ,PETTIS,2,00,"(38.7035572, -93.2177289)",50,201,535
MFA PETROLEUM COMPANY,BREAK TIME #3084,318,W BROADWAY,SEDALIA,MO,65301,5734420171,70499,71666,OPL,SOP ,PETTIS,2,00,,,,
THEODOSIA MARINA RESORT INC.,THEODOSIA MARINA RESORT,,HWY 160,THEODOSIA,MO,65761,4172734444,70518,70519,5BDW,5SBD,OZARK,5,00,,,,
CLUB 609 INC.,CLUB 609,609,MAIN STREET,JOPLIN,MO,64801,4176236090,71246,0,RBD,    ,JASPER,5,00,,,,
WALLIS OIL COMPANY INC.,ST. JAMES MOBIL #140,,HWY I-44 & 68 JUNCTION,ST JAMES,MO,65559,5738852277,71257,70893,OPL,SOP ,PHELPS,5,00,,,,
WALLIS OIL COMPANY INC.,ST. JAMES MOBIL #140,,HWY I-44 & 68 JUNCTION,ST JAMES,MO,65559,5738852277,71257,224691,OPL,OPT ,PHELPS,5,00,,,,
POGOLINOS OF FESTUS INC.,POGOLINOS PIZZA PLACE,29,E MAIN STREET,FESTUS,MO,630281901,6369376600,71473,0,5BDW,    ,JEFFERSON,3,00,"(38.2198442, -90.3895536)",62,285,1967
MARTIN & BAYLEY INC.,HUCKS CONVENIENCE FOOD #271,353,S KINGSHIGHWAY,CAPE GIRARDEAU,MO,637035709,5733345209,72547,76712,OPL,SOP ,CAPE GIRARDEAU,4,00,,,,
"HUDDLESTON, ROGER D.",ONE NITE STAND,2800-,04 OHIO AVE.,ST. LOUIS,MO,631181516,3147760996,72553,0,RBD,    ,ST. LOUIS CITY,3,00,"(38.6035853, -90.2254868)",54,200,2223
ST. LOUIS ZOOLOGICAL PARK,ST. LOUIS ZOO,ONE,GOVERNMENT DR (FOREST PARK),ST. LOUIS,MO,631101332,3147810900,72726,74526,RBD,SBD ,ST. LOUIS CITY,3,00,"(38.6365465, -90.2915689)",54,200,2223
AMERICAN LEGION 499,STANLEY PACK POST 499,499,HWY 7 SOUTH,BLUE SPRINGS,MO,640143054,8162294990,74837,90370,RBD,SBD ,JACKSON,1,00,"(39.01418, -94.27286269999999)",43,157,525
SCHNUCK MARKETS INC.,SCHNUCK FOOD & DRUGS #702,19,S KINGSHIGHWAY,CAPE GIRARDEAU,MO,63701,5733349191,74881,83493,OPL,OPT ,CAPE GIRARDEAU,4,00,,,,
SCHNUCK MARKETS INC.,SCHNUCK FOOD & DRUGS #702,19,S KINGSHIGHWAY,CAPE GIRARDEAU,MO,63701,5733349191,74881,74965,OPL,SOP ,CAPE GIRARDEAU,4,00,,,,
MFA PETROLEUM COMPANY,BREAK TIME #3028,110A,E. NIFONG BLVD,COLUMBIA,MO,652033709,5734420171,74991,74992,OPL,SOP ,BOONE,2,00,,,,
SERRA'S PIZZERIA INC.,SERRA'S PIZZERIA & DONUT SHOP,12218,MCKELVEY ROAD,MARYLAND HEIGHTS,MO,630431211,3147390881,75062,75063,RBD,SBD ,ST. LOUIS CO.,3,00,,,,
FRATERNAL ORDER OF EAGLES 3667,AERIE 3667 GOLDEN VALLEY,723,N 3RD STREET,CLINTON,MO,647351521,6608855811,75180,75181,RBDE,SBD ,HENRY,5,00,,,,
MR. BIG SHOTS INC.,MR. BIG SHOTS,1811,FREDERICK AVE,ST JOSEPH,MO,645011532,8162326633,75407,212474,RBD,SBD ,BUCHANAN,1,00,"(39.773648, -94.838393)",25,77,2692
LELAND VENTURES INC.,TEN PIN ALLEYS,306,S 6TH STREET,HANNIBAL,MO,634014335,5732218381,75560,75561,RBD,SBD ,MARION,2,00,,,,
CHURCH OF EPIPHANY,CHURCH OF EPIPHANY,6596,SMILEY AVE,ST LOUIS,MO,631392425,3147818684,75564,75565,5BDW,5SBD,ST. LOUIS CITY,3,00,,,,
ST. JOHN THE BAPTIST CHURCH,ST. JOHN THE BAPTIST CHURCH,4200,DELOR,ST LOUIS,MO,631162304,3143531255,75566,0,5BDW,    ,ST. LOUIS CITY,3,00,"(38.5800078, -90.264617)",54,200,2223
MAISONS MARQUES & DOMAINES USA INC.,,383,4TH STREET #400,OAKLAND,CA,946074104,0,75623,0,22S,    ,OUT OF STATE,7,00,,,,
AMERICAN LEGION POST 624,POST 624,,LR-33,SUNRISE BEACH,MO,65079,5733746091,75936,155252,RBD,SBD ,CAMDEN,2,00,,,,
ALISTANET ENTERTAINMENT GROUP INC.,PINK GALLEON BILLIARDS & GAMES,4010,BUTLER HILL ROAD,ST LOUIS,MO,63129,3148497797,76328,77483,RBD,SBD ,ST. LOUIS CO.,3,00,,,,
MIDWEST ENERGY INC.,AMERIMART #5,865,NORTH KINGSHIGHWAY,CAPE GIRARDEAU,MO,63701,5733340062,76388,187113,OPL,OPT ,CAPE GIRARDEAU,4,00,"(37.317286, -89.555167)",86,382,2695
MIDWEST ENERGY INC.,AMERIMART #5,865,NORTH KINGSHIGHWAY,CAPE GIRARDEAU,MO,63701,5733340062,76388,76389,OPL,SOP ,CAPE GIRARDEAU,4,00,"(37.317286, -89.555167)",86,382,2695
MIDWEST ENERGY INC.,AMERIMART #11,5410,HWY 61,FRUITLAND,MO,63755,5732431125,76390,76391,OPL,SOP ,CAPE GIRARDEAU,4,00,,,,
MIDWEST ENERGY INC.,AMERIMART #9,221,WINCHESTER,BENTON,MO,63736,5735453076,76408,76409,OPL,SOP ,SCOTT,4,00,,,,
QUIK TRIP CORPORATION,QUIK TRIP #605,10845,LILAC AVENUE,BELLEFONTAINE,MO,631373511,3148672777,76421,76422,OPL,SOP ,ST. LOUIS CO.,3,00,"(38.7647507, -90.20391599999999)",51,181,2210
R. WIEMERS INC.,SUNSHINE LANES,1500,W SUNSHINE,SPRINGFIELD,MO,65807,4178830511,76514,76515,RBD,SBD ,GREENE,5,00,"(37.181962, -93.311961)",93,493,1960
LOMB INC.,LOMBARDO'S RESTAURANT,10488,NATURAL BRIDGE ROAD,EDMUNDSON,MO,63134,3144215151,76586,0,RBD,    ,ST. LOUIS CO.,3,00,"(38.737982, -90.36321)",51,207,2210
MARTIN & BAYLEY INC.,HUCKS CONVENIENT FOOD STORES #264,604,GREENWAY CHASE DRIVE,ST LOUIS,MO,630311311,3148301404,76706,76707,OPL,SOP ,ST. LOUIS CO.,3,00,,,,
FOX RUN GOLF CLUB INC.,FOX RUN GOLF CLUB,1,PUTT LANE,EUREKA,MO,630252828,6369384653,76815,76816,RBD,SBD ,JEFFERSON,3,00,"(38.4426345, -90.603865)",62,256,1967
QUIK TRIP CORPORATION,QUIK TRIP #644,12200,DORSETT ROAD,MARYLAND HEIGHTS,MO,63043,3143178925,76842,76843,OPL,SOP ,ST. LOUIS CO.,3,00,,,,
CONSTELLATION BRANDS INC.,CONSTELLATION BRANDS,235,NORTH BLOOMFIELD ROAD,CANANDAIGUA,NY,144241059,5856787100,76847,0,LS,    ,OUT OF STATE,7,00,,,,
"GONZALEZ, ROBIN C.",SOULARD CORNER KITCHEN,730,CARROLL,ST LOUIS,MO,63104,3146515950,76896,0,RBD,    ,ST. LOUIS CITY,3,00,"(38.6104303, -90.1999273)",54,200,2223
R.F.O. INC.,MULLIGAN GRILL,11,CLARKSON ROAD,ELLISVILLE,MO,63011,6363916880,76978,77873,RBD,SBD ,ST. LOUIS CO.,3,00,"(38.5934896, -90.5856514)",51,219,2210
SODEXO MANAGEMENT INC.,EMERSON ELECTRIC,8000,W FLORISSANT,FERGUSON,MO,63136,3145532080,77048,0,RBD,    ,ST. LOUIS CO.,3,00,"(38.7288028, -90.2777267)",51,209,2210
SODEXO MANAGEMENT INC.,EMERSON ELECTRIC,8000,W FLORISSANT,FERGUSON,MO,63136,3145532080,77049,0,RBD,    ,ST. LOUIS CO.,3,00,"(38.7288028, -90.2777267)",51,209,2210
EAGLEVILLE FIREWORKS LP,FIREWORKS MANAGEMENT,,HWY I-35 & N,EAGLEVILLE,MO,644427114,6608675416,77069,77135,OPL,SOP ,HARRISON,1,00,,,,
EAGLEVILLE FIREWORKS LP,FIREWORKS MANAGEMENT,,HWY I-35 & N,EAGLEVILLE,MO,644427114,6608675416,77069,77135,OPL,SOP ,HARRISON,1,00,,,,
EAGLEVILLE FIREWORKS LP,FIREWORKS MANAGEMENT,,HWY I-35 & N,EAGLEVILLE,MO,644427114,6608675416,77069,77135,OPL,SOP ,HARRISON,1,00,,,,
"WITTU, DAVID L. & DEBRA J.",WITTU'S STORE,,HWY DD,BLOOMSDALE,MO,63627,5734833202,77165,77166,OPL,SOP ,STE. GENEVIEVE,4,00,,,,
"WITTU, DAVID L. & DEBRA J.",WITTU'S STORE,,HWY DD,BLOOMSDALE,MO,63627,5734833202,77165,77166,OPL,SOP ,STE. GENEVIEVE,4,00,,,,
CRAVINGS GOURMET DESSERTS INC.,CRAVINGS GOURMET DESSERTS LTD.,8149,BIG BEND BLVD,WEBSTER GROVES,MO,631193204,3149613534,77227,0,RBD,    ,ST. LOUIS CO.,3,00,"(38.591884, -90.338517)",51,228,2210
EL NOPAL INC.,EL NOPAL,3 & 4,STONEGATE SHOPPING CENTER,VALLEY PARK,MO,630881215,6368613855,77228,78063,RBD,SBD ,ST. LOUIS CO.,3,00,,,,
CITIZEN KANE INC.,CITIZEN KANE,133,W CLINTON PLACE,KIRKWOOD,MO,631225809,3149659005,77322,78312,RBD,SBD ,ST. LOUIS CO.,3,00,"(38.5767047, -90.40805960000002)",51,229,2210
SLBS MANAGEMENT INC.,SUMMIT DISTRIBUTING,3201,RIDER TRAIL SOUTH,BRIDGETON,MO,630451520,3148740400,77954,0,LWS,    ,ST. LOUIS CO.,3,00,,,,
QUIK TRIP CORPORATION,QUIK TRIP #625,8815,PAGE AVENUE,OVERLAND,MO,631146105,3144293738,77959,77960,OPL,SOP ,ST. LOUIS CO.,3,00,"(38.686936, -90.35107099999999)",51,207,2210
TOONS INC.,TOONS,301,W MCPHERSON,KIRKSVILLE,MO,63501,6606276666,78131,0,RBD,    ,ADAIR,2,00,,,,
FLORA SPRINGS WINE COMPANY,FLORA SPRINGS,1978,W ZINFANDEL LANE,ST HELENA,CA,945741611,7079635711,78217,0,22S,    ,OUT OF STATE,7,00,,,,
FLATBRANCH BREWING INC.,FLATBRANCH PUB & BREWING,115,S 5TH ST,COLUMBIA,MO,652014230,5734990400,78269,80328,RBD,SBD ,BOONE,2,00,,,,
FLATBRANCH BREWING INC.,FLATBRANCH PUB & BREWING,115,S 5TH STREET,COLUMBIA,MO,652014230,5734990400,78271,0,MICB,    ,BOONE,2,00,"(38.95000599999999, -92.332281)",40,464,2691
ZELL AREA JAYCEES INC.,ZELL AREA JAYCEES,,HWY A,STE GENEVIEVE,MO,636708030,5738835276,78415,78416,RBDE,SBD ,STE. GENEVIEVE,4,00,,,,
"NEIL, REX HARRIS",NEIL'S CORNER STORE,14643,HWY 169,HELENA,MO,644599114,8163699935,78476,0,OPL,    ,ANDREW,1,00,,,,
MFA PETROLEUM COMPANY,BREAK TIME #3073,410,E MAIN CROSS,PALMYRA,MO,63461,5734420171,78538,78539,OPL,SOP ,MARION,2,00,,,,
ARCH ENERGY LC/LLC,ARCH ENERGY MOBIL SNACK SHOP #616,203,MID RIVERS DRIVE,ST PETERS,MO,63376,5738852277,78568,247469,OPL,OPT ,ST. CHARLES,3,00,"(38.7956706, -90.62212559999999)",48,173,2177
ARCH ENERGY LC/LLC,ARCH ENERGY MOBIL SNACK SHOP #616,203,MID RIVERS DRIVE,ST PETERS,MO,63376,5738852277,78568,78569,OPL,SOP ,ST. CHARLES,3,00,"(38.7956706, -90.62212559999999)",48,173,2177
ARCH ENERGY LC/LLC,ARCH ENERGY MOBIL SNACK SHOP #608,1266,DOUGHERTY FERRY ROAD,VALLEY PARK,MO,63088,5738852277,78572,224960,OPL,OPT ,ST. LOUIS CO.,3,00,"(38.566645, -90.475706)",51,242,2210
ARCH ENERGY LC/LLC,ARCH ENERGY MOBIL SNACK SHOP #608,1266,DOUGHERTY FERRY ROAD,VALLEY PARK,MO,63088,5738852277,78572,78573,OPL,SOP ,ST. LOUIS CO.,3,00,"(38.566645, -90.475706)",51,242,2210
ARCH ENERGY LC/LLC,ARCH ENERGY MOBIL SNACK SHOP #609,16509,MANCHESTER ROAD,WILDWOOD,MO,63040,5738852277,78574,242218,OPL,OPT ,ST. LOUIS CO.,3,00,"(38.5825419, -90.61563199999999)",51,219,2210
ARCH ENERGY LC/LLC,ARCH ENERGY MOBIL SNACK SHOP #609,16509,MANCHESTER ROAD,WILDWOOD,MO,63040,5738852277,78574,78714,OPL,SOP ,ST. LOUIS CO.,3,00,"(38.5825419, -90.61563199999999)",51,219,2210
ARCH ENERGY LC/LLC,ARCH ENERGY MOBIL SNACK SHOP #613,5840,S LINDBERGH,ST LOUIS,MO,63123,5738852277,78576,78752,OPL,SOP ,ST. LOUIS CO.,3,00,"(38.52197839999999, -90.3469762)",51,239,2210
ARCH ENERGY LC/LLC,ARCH ENERGY MOBIL SNACK SHOP #611,4132,HWY 67 NORTH,ST LOUIS,MO,63034,5738852277,78577,214926,OPL,OPT ,ST. LOUIS CO.,3,00,,,,
ARCH ENERGY LC/LLC,ARCH ENERGY MOBIL SNACK SHOP #611,4132,HWY 67 NORTH,ST LOUIS,MO,63034,5738852277,78577,78713,OPL,SOP ,ST. LOUIS CO.,3,00,,,,
ARCH ENERGY LC/LLC,ARCH ENERGY MOBIL SNACK SHOP #602,1789,CLARKSON ROAD,CHESTERFIELD,MO,63017,5738852277,78602,78603,OPL,SOP ,ST. LOUIS CO.,3,00,"(38.64227400000001, -90.5677709)",51,208,2210
ARCH ENERGY LC/LLC,ARCH ENERGY MOBIL SNACK SHOP #602,1789,CLARKSON ROAD,CHESTERFIELD,MO,63017,5738852277,78602,226004,OPL,OPT ,ST. LOUIS CO.,3,00,"(38.64227400000001, -90.5677709)",51,208,2210
SHOW ME OIL COMPANY INC.,MOSER'S DISCOUNT FOODS,4420,FAUROT DRIVE,COLUMBIA,MO,65203,5734424102,78696,244622,OPL,OPT ,BOONE,2,00,,,,
SHOW ME OIL COMPANY INC.,MOSER'S DISCOUNT FOODS,4420,FAUROT DRIVE,COLUMBIA,MO,65203,5734424102,78696,78697,OPL,SOP ,BOONE,2,00,,,,
WOODS SUPER MARKET INC.,WOODS SUPER MARKET,701,E. BROADWAY,SEDALIA,MO,65301,4173267603,78698,78699,OPL,SOP ,PETTIS,2,00,,,,
WOODS SUPER MARKET INC.,WOODS SUPER MARKET,701,E. BROADWAY,SEDALIA,MO,65301,4173267603,78698,179953,OPL,OPT ,PETTIS,2,00,,,,
WEYGANDT-METZLER IMPORTING LTD.,,2226,HILLTOP VIEW ROAD,UNIONVILLE,PA,193750000,6104860800,78717,0,22S,    ,OUT OF STATE,7,00,"(39.916329, -75.77091899999999)",,,2496
LINEAR NOTIONS INC.,JAZZ A LOUISIANA KITCHEN/PAPA VICS,1823,W 39TH STREET,KANSAS CITY,MO,64111,8165615556,78736,82077,RBD,SBD ,JACKSON,1,00,"(39.0572802, -94.6071806)",43,151,525
FD CORPORATION,FRANK PAPA'S RISTORANTE,2241,S BRENTWOOD BLVD,BRENTWOOD,MO,631441832,3149613344,78859,0,RBD,    ,ST. LOUIS CO.,3,00,"(38.6201856, -90.34865099999999)",51,227,2210
QUIK TRIP CORPORATION,QUIK TRIP #635,11150,ST. CHARLES ROCK ROAD,ST. ANN,MO,63074,3147392200,78912,78913,OPL,SOP ,ST. LOUIS CO.,3,00,,,,
MFA PETROLEUM COMPANY,BREAK TIME #3079,2801,W BROADWAY,SEDALIA,MO,65301,5734420171,79007,71667,OPL,SOP ,PETTIS,2,00,,,,
JACKSON COUNTRY CLUB INC.,KIMBELAND COUNTRY CLUB,2175,E JACKSON BLVD,JACKSON,MO,637550354,5732435926,79153,79154,RBD,SBD ,CAPE GIRARDEAU,4,00,"(37.363608, -89.64388)",86,352,2695
NARDI'S INC.,"GRANFALLOON, THE",608,WARD PARKWAY,KANSAS CITY,MO,641122104,8167537850,79493,79495,RBD,EXTH,JACKSON,1,00,"(39.0401788, -94.594729)",43,151,525
NARDI'S INC.,"GRANFALLOON, THE",608,WARD PARKWAY,KANSAS CITY,MO,641122104,8167537850,79493,79494,RBD,SBD ,JACKSON,1,00,"(39.0401788, -94.594729)",43,151,525
PATTON JUNCTION SERVICES INC.,PATTON JUNCTION SERVICES,,HWY 51 & 72,PATTON,MO,636620024,5738662974,79860,79861,OPL,SOP ,BOLLINGER,4,00,,,,
"MAXSON, CHARLES V.",BONNE TERRE CONVENIENCE,919,BENHAM,BONNE TERRE,MO,63628,5733582996,80147,80148,OPL,SOP ,ST. FRANCOIS,4,00,,,,
BASS CANOE & RECREATION INC.,ROBERT BASS CANOE SERVICE,,BUTTS ROAD,STEELVILLE,MO,65565,5737868517,80280,80281,OPL,SOP ,CRAWFORD,4,00,,,,
MFA PETROLEUM COMPANY,BREAK TIME #3012,117,HWY 22 WEST,CENTRALIA,MO,65240,5734420171,80293,80294,OPL,SOP ,BOONE,2,00,"(39.219371, -92.13641)",40,126,2691
MFA PETROLEUM COMPANY,BREAK TIME #3025,1410,FORUM BLVD,COLUMBIA,MO,65201,5734420171,80297,80298,OPL,SOP ,BOONE,2,00,"(38.935986, -92.36013)",40,464,2691
QUIK-TRIP CORPORATION,QUIK-TRIP #661,3211,CLARK LANE,COLUMBIA,MO,652022415,5738860171,80306,80307,OPL,SOP ,BOONE,2,00,"(38.9640972, -92.2900566)",40,464,2691
SHOW ME OIL COMPANY INC.,MOSER'S DISCOUNT FOODS,252,W SIMON,HOLTS SUMMIT,MO,65043,5738968711,80348,80349,OPL,SOP ,CALLAWAY,2,00,,,,
SHOW ME OIL COMPANY INC.,MOSER'S DISCOUNT FOODS,252,W SIMON,HOLTS SUMMIT,MO,65043,5738968711,80348,244620,OPL,OPT ,CALLAWAY,2,00,,,,
WAGNER'S STORE INC.,WAGNER'S STORE,,HWY 30 & FF,LONEDELL,MO,63060,6366290457,80489,80490,OPL,SOP ,FRANKLIN,2,00,,,,
SUPRATIK INC.,INDIA PALACE RESTAURANT,12322,DORSETT RD.,MARYLAND HEIGHTS,MO,630433906,3147313333,80504,82942,RBD,SBD ,ST. LOUIS CO.,3,00,"(38.7130955, -90.4488946)",51,208,2210
"DICK, MARGARET A.",VINEY CREEK STORE,26015,STATE HWY J,GOLDEN,MO,65658,4172713819,80605,80606,OPL,SOP ,BARRY,5,00,,,,
ALTAVISTA INC.,EL MAGUEY,7014,CHIPPEWA,ST LOUIS,MO,631195602,3148323632,80733,80734,RBD,SBD ,ST. LOUIS CITY,3,00,"(38.5852491, -90.3146984)",54,200,2210
VIKINGS USA BOOTHEEL MO #44,VIKINGS USA BOOTHEEL MO #44,2926,N WESTWOOD BLVD,POPLAR BLUFF,MO,63901,5736863008,80857,0,RBDE,    ,BUTLER,4,00,,,,
PRESTIGE WINE IMPORTS CORPORATION,,5,"WEST 19TH STREET, FOURTH FLOOR",NEW YORK,NY,100118945,2122290080,80909,0,22S,    ,OUT OF STATE,7,00,,,,
"BUYS, JOYCE A.",BOJANGLES,114,N RUBEY STREET,MACON,MO,635521635,6603959296,81454,0,RBD,    ,MACON,2,00,,,,
PREMIUM PORT WINES INC.,PREMIUM PORT WINES,280,UTAH STREET,SAN FRANCISCO,CA,941034842,4155549920,81506,0,22S,    ,OUT OF STATE,7,00,,,,
