FACILITY,ADDRESS,CITY,ZIPCODE,COUNTY,PHONE,HOURS OF OPERATION,Location,School Districts,Missouri Counties,Counties
Sarcoxie Public Library,506 Center Street,Sarcoxie,64862,Jasper,417-548-2736,"Mon - Fri 9:00am to 6:00pm
Sat 9:00am to 1:00pm","(37.068798, -94.116238)",410,94,1966
Friendship Hall,205 East Main Street,Iberia,65486,Miller,573-793-2747,Mon-Fri - 8:00am to 4:00pm,"(38.091028, -92.291629)",296,64,2124
"YMCA - Salt Fork - Marshall, MO",740 E Yerby,Marshall,65340,Saline,660-886-9622,"M-Th 5am-10pm, F 5am-7pm, Sa 6am-6pm, Su 1pm-6pm","(39.113616, -93.182654)",148,38,2211
Ozark Senior Center,727 North 9th Street,Ozark,65721,Christian,417-581-2538,Mon-Fri - 8:00am to 3:30pm,"(37.027513, -93.211991)",421,101,515
Maries County Library - Belle Library,206-B South Alvarado,Belle,65013,Maries,573-859-6285,"Tue, Wed, Fri 1:00pm to 5:00pm
Thu 1:00pm to 7:00pm
Sat 9:00am to 1:00pm","(38.287382, -91.721055)",263,65,531
Monett Senior Center,405 North Dairy,Monett,65708,Barry,417-235-3285,Mon-Fri - 8:00am to 3:30pm,"(36.915542, -93.918592)",429,107,2649
Clarkton Branch Library,113 South Main Street,Clarkton,63837,Dunklin,573-448-3803,Mon - Fri 1:00pm to 5:00pm,"(36.450445, -89.967483)",541,114,1957
Maplewood Public Library,7550 Lohmeyer Avenue,Saint Louis,63143,St Louis,314-781-2174,"Mon-Thu - 9:00am to 8:00pm
  Fri-Sat - 9:00am to 5:00pm
  Sunday-Closed","(38.614748, -90.325262)",226,51,2210
Salvation Army Adair County,1004 West Gardner,Kirksville,63501,Adair,660-665-7885,Mon-Fri - 8:00am to 4:00pm,"(40.201176, -92.593781)",32,12,509
Seymour Senior Center,205 Commercial,Seymour,65746,Webster,417-935-2211,Mon-Fri - 8:00am to 3:30pm,"(37.146984, -92.769738)",397,91,2221
St. Louis County Library Bridgeton Trails Branch,3455 McKelvey Road,Saint Louis,63044,St. Louis,314-994-3300,"Mon-Thu - 9:00am to 9:00pm
Fri and Sat - 9:00am to 5:00pm","(38.748973, -90.42155)",204,51,2210
California Nutrition Center,107 W. Versailles Ave,California,65018,Moniteau,573-796-4240,Mon-Fri - 8:00am to 4:00pm,"(38.628476, -92.567195)",210,53,532
St. Patrick Center,800 North Tucker Blvd,St. Louis,63101,St Louis City,314-802-1982,Mon - Fri 9:00am to 4:00pm; Sat and Sun 8:00am to 4:30pm,"(38.633339, -90.195634)",200,54,2223
Cole Camp Senior Center,206 Junge Street,Cole Camp,65325,Benton,660-668-2352,Mon-Fri - 8:00am to 2:00pm,"(38.461093, -93.202261)",234,61,511
KCMO Parks and Recreation - Gregg/Klice Community Center,"1600 John ""Buck"" O'Neil Way",Kansas City,64108,Jackson,816-513-0652,M-F 6am-9pm; Sa-Su 9am-6pm,"(39.092638, -94.563442)",151,43,525
Salvation Army Jefferson City,927 Jefferson Street,Jefferson City,65101,Cole,573-635-1975,Mon-Fri - 9:00am to 12:30pm and 1:30pm to 3:00pm,"(38.570121, -92.17987)",465,58,2702
Nixa Senior Center,404 South Main,Nixa,65714,Christian,417-725-2322,Mon-Fri - 8:00am to 3:30pm,"(37.039479, -93.29471)",489,101,515
East Alton Public Library,250 Washington Avenue,East Alton,62024,Madison,618-259-0787,"Mon-Thu - 9:30am to 6:00pm
Fri and Sat - 9:30am to 5:00pm","(38.877933, -90.103307)",,,1749
Winona Senior Center,212 Snapper Street,Winona,65588,Shannon,573-325-4636,Mon-Fri - 8:00am to 3:30pm,"(37.009699, -91.325172)",411,92,542
Holden Senior Center,204 W. Second St,Holden,64040,Johnson,816-732-5757,Tues-Friday-9:00am to 3:00pm; Closed Mondays.,"(38.718163, -93.991306)",183,49,526
Ralls County Library,102 North Public Street,Center,63436,Ralls,573-267-3200,"Mon, Wed, Thu and Fri - 8:30am to 5:30pm
Tue - 8:30am to 7:00pm
Sat - 8:30am to 12:30pm","(39.509541, -91.529572)",94,29,2173
Salvation Army Chillicothe Service Center,621 West Mohawk Road,Chillicothe,64601,Livingston,660-646-3538,Mon-Fri - 9:00am to 4:00pm,"(39.819079, -93.551231)",63,22,2119
Camdenton Senior Center,594 South State Highway 5,Camdenton,65020,Camden,573-346-2776,Mon-Fri - 8:00am to 4:00pm,"(37.986747, -92.701292)",292,68,2694
St. Louis Public Library Walnut Park Branch,5760 West Florissant Ave,Saint Louis,63120,St Louis City,314-383-1210,"Mon – 12:00pm(Noon) to 8:00pm
Tue-Thu – 10:00am to 6:00pm
Fri and Sat – 10:00am to 5:00pm

In addition to in-building service, Curbside Pickup, will continue to be offered","(38.703826, -90.247055)",200,54,2223
KCMO Parks and Recreation - Line Creek Community Center,5940 N.W. Waukomis Drive,Kansas City,64151,Platte,816-513-0760,M-F 6am-9pm; Sa-Su 9am-6pm,"(39.202741, -94.609786)",132,35,2170
Sever Memorial Library,207 West Chestnut Street,Kahoka,63445,Clark,660-727-3262,"Mon - 9:00am to 6:00pm
Tue-Fri - 8:00am to 5:00pm
Sat - 9:00am to 1:00pm","(40.422512, -91.720987)",7,1,2700
Sullivan County Multi Purpose Senior Center,111 North Market,Milan,63556,Sullivan,660-265-3534,"Mon-Fri - 6:30am to 2:00pm
- Due to COVID-19 restrictions, guests can stay in the center for up to an hour and a max of 18 people are allowed in the building","(40.202338, -93.125643)",28,11,543
Hughes Senior Center,460 W 5th St,Lebanon,65536,Laclede,417-532-3040,Mon-Fri - 8:00am to 4:00pm,"(37.68093, -92.673037)",495,79,2008
Bethalto Public Library,31 South Prairie Street,Bethalto,62010,Madison,618-377-8141,"Mon-Thu - 9:00am to 8:00pm
Fri - 9:00am to 7:00pm
Sat - 10:00am to 5:00pm
Sun - 1:00pm to 5:00pm","(38.907511, -90.04045)",,,1749
Monroe County Health Department,1315 Jamie Lane,Waterloo,62298,Monroe,618-939-3871,Mon-Fri - 8:00am to 4:30pm,"(38.367068, -90.15829)",,,1754
Holts Summit Public Library,188 West Simon Boulevard,Holts Summit,65043,Callaway,573-606-8770,"Mon, Tue, Thu - 3:00pm to 6:00pm 
- Wed - 10:00pm to 6:00pm 
- Sat - 10:00am to 1:00pm","(38.65504, -92.117544)",465,45,513
St. Charles City County Library District,77 Boone Hills Drive,Saint Peters,63376,St Charles,636-441-2300,Mon-Fri - 8:30am to 5:00pm,"(38.784208, -90.600024)",173,48,2177
Cedar County Library District,717 East Street,Stockton,65785,Cedar,417-276-3413,"Mon - Fri 9:30am to 7:00pm
Sat 9:00am to 3:00pm","(37.699299, -93.787573)",332,77,2698
Joachim Plattin Ambulance District,1235 North Truman,Crystal City,63019,Jefferson,636-937-2224,Mon - Fri 8:00am to 5:00pm,"(38.232466, -90.390505)",284,62,1967
St. Louis County Library Weber Road Branch,4444 Weber Rd,Saint Louis,63123,St Louis,314-994-3300,"Mon-Thu - 9:00am to 9:00pm
Fri and Sat - 9:00am to 5:00pm","(38.551236, -90.29762)",238,51,2210
Tarkio Branch Library,405 1/2 South 11th Street,Tarkio,64491,Atchison,660-736-5832,"Mon and Fri -  9:00am to 12:00pm (Noon) and 1:00pm to 5:00pm
- Tue - 12:00pm (Noon) to 5:00pm
- Thu - 12:00pm to 5:00pm and 6:00pm to 8:00pm","(40.437729, -95.388695)",11,2,2648
"Harrison County Council On Aging, Inc",1316 South 25th Street,Bethany,64424,Harrison,660-425-3220,Mon-Fri - 8:00am to 3:00pm,"(40.255366, -94.027685)",22,9,1961
Oak Street Health - Truman,16659 East 23rd St. South,Independence,64055,Jackson,816-708-2206,Mon-Fri - 8:00am to 5:00pm,"(39.07542761, -94.38271094)",463,43,525
Hornersville Branch Library,502 School Street,Hornersville,63855,Dunklin,573-737-2728,"Mon, Wed, Fri 1:00pm to 5:00pm","(36.043016, -90.114796)",548,114,1957
"City Seniors, Inc. SLAAA",4705 Ridgewood Avenue,Saint Louis,63116,Saint Louis City,314-352-0141,Mon-Fri - 8:00am to 4:30pm,"(38.584684, -90.272171)",200,54,2223
Glen Carbon Senior Community Center,157 North Main Street,Glen Carbon,62034,Madison,618-288-2664,Mon-Thu - 8:00am to 3:30pm,"(38.763487, -89.969781)",,,1749
Belleville Public Library,121 East Washington Street,Belleville,62220,St Clair,618-234-0441,"Mon-Thu - 9:00am to 8:00pm
Fri and Sat - 9:00am to 5:00pm","(38.5129, -89.981841)",,,1797
Piedmont Public Library,118 West Greent Street,Piedmont,63957,Wayne,573-223-7036,Mon - Fri 9:00am to 5:00pm,"(37.156049, -90.695832)",383,95,2220
Miller County Library Service -Eldon,308 East First Street,Eldon,65026,Miller,573-392-6657,Call for information,"(38.349434, -92.578813)",261,64,2124
Clinton County Senior Action Council And Oats Committee,113 North Main St.,Plattsburg,64477,Clinton,816-539-2211,Mon-Fri - 8:00am to 3:00pm,"(39.565041, -94.447085)",84,27,516
Waynesville Library,306 Historic 66 West,Waynesville,65583,Pulaski,573-774-2965,"Mon - Fri.  9:00 am to 7:00 pm
Sat 9:00am to 1:00pm","(37.826342, -92.209587)",5,75,2171
Oregon County Health Department Thayer,201 Market St,Thayer,65791,Oregon,417-264-3114,Tues and Wed - 8:00am to 4:00pm [Closed 12:00pm (Noon) to 1:00pm for Lunch],"(36.525373, -91.540076)",534,109,534
Midtown Carnegie Branch Library,397 East Central,Springfield,65802,Greene,417-862-0135,Mon-Sat - 8:30am to 6:00pm,"(37.217657, -93.289925)",493,93,1960
Salvation Army Springfield,1707 W Chestnut Expy,Springfield,65802,Greene,417-862-5509,Mon-Fri - 8:30am to 4:30pm. Building hours for other programs may vary,"(37.214536, -93.313583)",493,93,1960
Young Mens Christian Association of Edwardsville,1200 Esic Drive,Edwardsville,62025,Madison,618-656-0436,"Mon-Fri - 5:00am to 8:00pm
Sat - 7:00am to 6:00pm
Sun - 10:00am to 5:00pm","(38.798994, -89.96825)",,,1749
St. Louis Public Library Barr Branch,1701 S Jefferson Ave,Saint Louis,63104,St Louis City,314-771-7040,"Mon – 12:00pm(Noon) to 8:00pm
Tue-Thu – 10:00am to 6:00pm
Fri and Sat – 10:00am to 5:00pm

In addition to in-building service, Curbside Pickup, will continue to be offered","(38.614515, -90.221352)",200,54,2223
St. Louis County Library Indian Trails Branch,8400 Delport Dr,Saint Louis,63114,St Louis City,314-994-3300,"Mon-Thu - 9:00am to 9:00pm
Fri and Sat - 9:00am to 5:00pm","(38.695551, -90.339377)",207,51,2210
Glen Carbon Centennial Library,198 South Main Street,Glen Carbon,62034,Madison,618-288-1212,"Mon-Thu - 9:00am to 8:00pm 
Fri and Sat - 9:00am to 5:00pm
Sun - 1:00pm to 5:00pm","(38.748509, -89.984001)",,,1749
"Gentry County Senior Center, Inc",219 N. High St.,Stanberry,64489,Gentry,660-783-2498,Mon-Fri - 7:30am to 3:00pm,"(40.214429, -94.545142)",474,10,521
"Linn County Council On Aging, Inc",143 Clawson Drive,Brookfield,64628,Linn,660-258-2577,Mon-Fri - 7:00am to 1:00pm,"(39.783574, -93.094905)",64,21,529
"Kansas City, MO Public Library - Ruiz Biblioteca De Las Americas",2017 West Pennway St,Kansas City,64108,Jackson,816-701-3487,Call for information,"(39.08896, -94.594383)",151,43,525
Rock Community Fire Protection District House 3,3540 Lonedell Rd,Arnold,63010,Jefferson,636-282-1725,Mon - Sun 7:00am to 7:00pm,"(38.432922, -90.41974)",255,62,1967
Brookfield Public Library,102 East Boston,Brookfield,64628,Linn,660-258-7439,"Mon - Fri - 10:00am to 6:00pm
- Sat - 9:00am to 1:00pm","(39.785685, -93.073377)",64,21,529
Stoutland Library,132 Starling Avenue,Stoutland,65567,Camden,417-286-3611,Tue-Thu - 9:00am to 5:00pm,"(37.813275, -92.514368)",466,68,2008
Willow Springs Senior Center,501 Senior Center Lane,Willow Springs,65793,Howell,417-469-3892,Mon-Fri - 8:00am to 3:30pm,"(36.993263, -91.960519)",413,104,1965
Ed French Memorial Library,406 East Second Street,Laddonia,63352,Audrain,573-373-2393,"- Mon and Thurs - 9:00 am to 1:00pm
- Tue and Wed - 1:00 pm to 5:00pm
- Fri - Closed
- Sat. 9:00 am to 12:00pm (noon)","(39.241638, -91.644383)",130,37,510
St Charles City County Library District Deer Run Branch,1300 North Main Street,O Fallon,63366,St Charles,636-978-3251,"Mon-Thu - 9:00am to 7:00pm
Fri and Sat - 9:00am to 5:00pm","(38.828121, -90.699365)",173,48,2177
Oates Library,8483 Highway J,Black,63625,Reynolds,573-269-1117,Mon and Wed - 9:00am to 12:00pm (noon) and 12:30pm to 5:00pm,"(37.563641, -91.054196)",359,87,2175
Schweitzer Brentwood Branch Library,2214 Brentwood Boulevard,Springfield,65804,Greene,417-883-1974,Mon-Sat - 8:30am to 6:00pm,"(37.173661, -93.260253)",493,93,1960
"Kansas City, MO Public Library - Plaza Branch",4801 Main St,Kansas City,64112,Jackson,816-701-3481,"M 10am-6pm, T&W 10am-9pm, Th-Sa 10am-6pm","(39.039189, -94.586607)",151,43,525
Macks Creek Library,90 State Road N,Macks Creek,65786,Camden,573-363-5530,Tue-Thu - 9:00am to 5:00pm,"(37.968046, -92.966648)",310,68,2694
Ash Grove Sunshine Center,310 North Perryman,Ash Grove,65604,Greene,417-751-3826,Mon-Fri - 8:30am to 3:00pm,"(37.318899, -93.586016)",385,93,1960
Rolling Hills Library - Savannah Branch,514 W Main St,Savannah,64485,Andrew,816-324-4569,"M-F 9am-7pm, Sa 9am-5pm, Su 12pm-5pm","(39.941383, -94.831391)",54,17,2647
Marionville Branch Library,303 West Washington,Marionville,65705,Lawrence,417-463-2675,"Mon - Fri 9:00am to 5:00pm
Sat 9:00am to 1:00pm","(37.005089, -93.640576)",414,97,528
Stoddard County Public Health Center,1001 State Highway 25,Bloomfield,63825,Stoddard,573-568-4593,Mon-Fri - 8:00am to 4:30pm,"(36.898796, -89.923586)",498,98,2215
St. Louis Public Library Cabanne Branch,1106 North Union Blvd,Saint Louis,63113,St Louis City,314-367-0717,"Mon – 12:00pm(Noon) to 8:00pm
Tue-Thu – 10:00am to 6:00pm
Fri and Sat – 10:00am to 5:00pm

In addition to in-building service, Curbside Pickup, will continue to be offered","(38.657395, -90.272421)",200,54,2223
Festus Public Library,400 W Main St,Festus,63028,Jefferson,636-937-2017,"Mon-Thu - 9:00am to 7:00pm
Fri - 9:00am to 5:00pm
Sat - 9:00am to 2:00pm","(38.219674, -90.394426)",285,62,1967
Jefferson County Library District - Arnold Branch Library,1701 Missouri State Road,Arnold,63010,Jefferson,636-296-2204,"Mon-Thu - 9:00am to 9:00pm
Fri - 9:00am to 6:00pm
Sat - 9:00am to 5:00pm","(38.442249, -90.401765)",255,62,1967
True Light Family Resource Center,712 E 31st St,Kansas City,64109,Jackson,816-561-1700,M-F 9am-4pm,"(39.070814, -94.576079)",151,43,525
Doling Family Center,301 E Talmage St,Springfield,65803,Greene,417-837-5900,Mon-Fri - 5:00am to 9:00 pm; Saturday - 7:00am to 8:00pm; Sunday 10:00am to 6:00pm,"(37.244509, -93.289319)",493,93,1960
St. Louis Public Library Marketplace Branch,6548 Manchester Ave,Saint Louis,63139,St Louis City,314-647-0939,"Mon, Tue, Fri and Say – 11:00am to 5:00pm
Wed and Thu – 1:00pm to 7:00pm","(38.619599, -90.298197)",200,54,2223
Naylor Library,105 Kelsey Street,Naylor,63953,Ripley,573-399-2225,Mon-Thurs 10:00am to 6:00pm,"(36.573724, -90.607586)",529,110,2176
Polk County Library,1690 West Broadway Street,Bolivar,65613,Polk,417-326-4531,"Mon, Tue, Thu - 9:00am to 8:00pm; Wed, Fri, Sat - 9:00am to 5:00pm","(37.611695, -93.429312)",335,80,537
Young Mens Christian Association Meyer Center,7348 Goshen Road,Edwardsville,62025,Madison,618-655-1460,"- Mon-Fri - 5:00am to 8:00pm
- Sat - 7:00am to 6:00pm
- Sun - 10:00am to 5:00pm","(38.780326, -89.923626)",,,1749
Clarence Public Library,100 West Maple Street,Clarence,63437,Shelby,660-699-3310,Mon-Fri - 8:00am to 4:30pm,"(39.743106, -92.261282)",71,23,2214
Crawford County Nursing Service/Health Department,202 W Main St,Steelville,65565,Crawford,573-775-2555,Mon-Thur - 7:00am to 12:00pm(noon) 1:00pm to 6:30pm,"(37.967699, -91.355532)",485,67,1953
St. Louis County Library Rock Road Branch,10267 St Charles Rock Rd,Saint Ann,63074,St Louis,314-994-3300,"Mon-Thu - 9:00am to 9:00pm
Fri and Sat - 9:00am to 5:00pm","(38.726888, -90.379285)",207,51,2210
"Daviess County Multi Purpose Center, Inc",109 Main Street,Gallatin,64640,Daviess,660-663-2828,Mon-Fri - 7:00am to 3:00pm,"(39.914125, -93.961135)",60,18,1955
Macks Creek Senior Center,558 Carnahan,Macks Creek,65786,Camden,573-363-0153,Mon-Fri - 8:00am to 2:00pm,"(37.952106, -92.980791)",310,68,2694
Iron County Health Department,606 W Russell St,Ironton,63650,Iron,888-476-7121,Mon-Fri - 8:00am  to 4:30pm [closed Lunch 12:00 (Noon) to 12:30pm],"(37.596621, -90.634758)",346,82,524
Ozarks Regional YMCA - Pat Jones YMCA,1901 East Republic Road,Springfield,65804,Greene,417-881-1599,"Mon-Fri - 6:00am to 1:00pm and 3:00pm to 8:00pm
Sat - 7:00am to 12:00pm","(37.13926, -93.261505)",493,93,1960
"Lessie Bates Davis Neighborhood House, Inc.",1200 North 13th Street,East Saint Louis,62205,St Clair,618-874-0777,Mon-Fri - 8:30am to 5:00pm,"(38.632507, -90.135371)",,,1797
Webster County Library District Fordland,1230 School Street,Fordland,65652,Webster,417-767-4555,"Tue, Thu - 3:00pm to 8:00pm","(37.161309, -92.953441)",403,91,2221
Rich Hill Memorial Library,514 East Walnut Street,Rich Hill,64779,Bates,417-395-2291,Call for information,"(38.097683, -94.363219)",298,63,2651
Bourbon Library,575 Elm Street,Bourbon,65441,Crawford,573-732-5313,"Mon-Fri 10:00am to 5:00pm
Sat 9:00am t0 2:00pm","(38.154624, -91.245113)",293,67,1953
Rock Hill Public Library,9811 Manchester Road,Saint Louis,63119,St Louis,314-962-4723,"- Mon-Thu - 12:00pm(Noon) to 7:00pm
- Fri - 12:00pm(Noon) to 5:00pm
- Sat - 10:00am to 2:00pm","(38.606891, -90.373987)",228,51,2210
St. Louis County Library Florissant Valley Branch,195 New Florissant Road South,Florissant,63031,St Louis,314-994-3300,"Mon-Thu - 9:00am to 9:00pm
Fri and Sat - 9:00am to 5:00pm
Sun - 1:00pm to 5:00pm","(38.785646, -90.325111)",191,51,2210
Crystal City Public Library,736 Mississippi Avenue,Crystal City,63019,Jefferson,636-937-7166,"- Mon-Thu - 10:00am to 7:00pm
- Fri - 10:00am to 5:00pm
- Sat - 10:00am to 1:00pm","(38.227568, -90.377707)",284,62,1967
Eagle Rock Branch Library,27824 State Hwy 86,Eagle Rock,65641,Barry,417-271-3186,"Mon, Wed, Fri - 8:30am to 12:30pm and 1:30pm to 5:30pm","(36.559819, -93.761194)",509,107,2649
Salem Senior Center,604 Mc Grath,Salem,65560,Dent,573-729-2373,Mon-Fri - 8:00am to 4:00pm,"(37.64742, -91.541055)",347,81,1956
Winfield Foley Fire Protection District,2663 State Hwy 47,Winfield,63389,Lincoln,636-566-8406,Mon - Thu 7:30am to 3:30pm,"(38.98919, -90.817179)",155,41,2118
Bowling Green Public Library,201 West Locust Street,Bowling Green,63334,Pike,573-324-5030,"Mon-Fri - 9:00am to 5:00pm
Sat - 9:00am to 12:00pm (noon)","(39.344527, -91.1955)",104,32,2169
Aurora - Heritage Harmony House,700 Hudson,Aurora,65605,Lawrence,417-678-5383,Mon-Fri - 8:00am to 3:30pm,"(36.968387, -93.708999)",488,97,528
Putnam County Public Library,115 South Sixteenth Street,Unionville,63565,Putnam,660-947-3192,"Mon - 9:00am to 7:00pm
- Tue - Fri 9:00am to 5:00pm
- Sat - 9:00am to 12:00pm (noon)","(40.47647, -93.001732)",15,6,2172
Mexico Audrain County Library,305 West Jackson Street,Mexico,65265,Audrain,573-581-4939,"Mon, Tue, Thu, Fri - 9:00am to 5:30pm
Wed - 9:00am to 8:00pm
Sat - 9:00am to 1:00pm","(39.172326, -91.884966)",127,37,510
Daniel Boone Regional Library,100 W Broadway,Columbia,65203,Boone,573-443-3161,"Mon-Thu - 9:00am to 9:00pm
- Fri - 9:00am to 6:00pm
- Sat - 9:00am to 5:00pm
- Sun - 1:00pm to 5:00pm","(38.951181, -92.3399)",464,40,2691
Worth County Senior Center,22 West 4th Street,Grant City,64456,Worth,660-564-2202,Mon-Fri - 9:00am to 4:00pm,"(40.485329, -94.415442)",16,7,2222
Breese Public Library,530 North Third Street,Breese,62230,Clinton,618-526-7361,"- Mon-Thu - 10:00am to 8:00pm
- Fri - 10:00am to 6:00pm
- Sat - 8:00am to 1:00pm","(38.609656, -89.528304)",,,1826
Knox County Council on Aging,109 North Main,Edina,63537,Knox,660-397-2296,Mon-Fri - 7:00am to 3:30pm,"(40.167739, -92.172869)",34,13,527
Parma Branch Library,205 North Broad Street,Parma,63870,New Madrid,573-379-3583,Tues and Fri 1:00pm - 5:00pm,"(36.61164, -89.817161)",448,108,2128
Licking Bridge Builders,116 Green Street,Licking,65542,Texas,573-674-3558,Mon-Fri - 8:00am to 3:30pm,"(37.49812, -91.855425)",482,88,544
"Salvation Army - Excelsior Springs, MO - Emergency Assistance",108 W Broadway,Excelsior Springs,64024,Clay,816-630-4155,M-W 10am-5pm,"(39.342496, -94.22346)",123,36,2701
Salvation Army - Westport - Emergency Assistance,500 W 39th St,Kansas City,64111,Jackson,816-753-6040,"M-Th 8am-12pm & 1pm-4pm; F 8am-4pm (not open to the public F, calls only)","(39.056914, -94.591781)",151,43,525
Webb City Senior Center,210 North Pennsylvania,Webb City,64870,Jasper,417-673-1876,"7:30 am to 2:30 pm, M-F
Lunch served at 11:30","(37.147759, -94.466576)",395,94,1966
Scotland County Memorial Library,306 West Madison Street,Memphis,63555,Scotland,660-465-7042,"Mon, Wed and Fri - 9:00am to 5:30pm
Tue and Thu - 9:00am to 7:00pm
Sat - 9:00am to 1:00pm","(40.459019, -92.173629)",10,3,2212
Advance Community Library,19805 State Highway C,Advance,63730,Stoddard,573-722-5533,Mon-Fri 1:00pm-5:00pm,"(37.104799, -89.908184)",405,98,2215
Forsyth Senior Friendship Center,13879 Highway 160 North,Forsyth,65653,Taney,417-546-6100,Mon-Fri - 8:00am to 3:30pm,"(36.717677, -93.125138)",517,111,2217
Union City Hall,500 East Locust St,Union,63084,Franklin,636-583-3600,Mon-Fri - 8:00am to 4:30pm,"(38.444636, -91.005152)",254,59,1958
Chaffee Library,202 Wright Avenue,Chaffee,63740,Scott,573-887-3298,"Mon-Fri - 10:00am to 6:00pm (closed for lunch 12:30pm to 1:30pm)
Sat - 10:00am to 1:00pm","(37.181629, -89.657146)",496,96,2213
Republic Branch Library,921 North Lindsey,Republic,65738,Greene,417-732-7284,Mon-Sat - 8:30am to 6:00pm,"(37.130336, -93.467753)",492,93,1960
Shelbina Carnegie Public Library,102 North Center Street,Shelbina,63468,Shelby,573-588-2271,"Mon, Wed, Fri - 9:00am to 4:00pm
- Tue - 9:00am to 5:30pm","(39.693198, -92.040598)",71,23,2214
Brunswick Senior Center,801 East Broadway,Brunswick,65236,Chariton,660-548-3010,Mon-Fri - 8:00am to 3:00pm,"(39.422604, -93.121836)",107,28,2699
Collinsville Public Library,408 West Main,Collinsville,62234,Madison,618-344-1112,"- Mon-Thu - 9:00am to 8:00pm 
- Fri and Sat - 9:00am to 5:00pm 
- Sun - 1:00pm to 5:00pm","(38.66839, -89.990369)",,,1749
Watered Gardens Gospel Rescue Mission,531 South Kentucky Avenue,Joplin,64801,Jasper,417-623-6030,"Mon, Tue, Thu, Fri - 9:00am to 2:00pm","(37.085623, -94.510014)",490,94,1966
Rolla Nutrition Site,1440 Forum Drive,Rolla,65401,Phelps,573-341-2929,Mon-Fri - 8:00am to 4:00pm,"(37.954666, -91.751924)",307,70,536
St. Charles City County Library District Cliff View Branch,10 Cliff View Drive,Wentzville,63385,Saint Charles,636-244-3962,"Mon-Thu - 9:00am to 7:00pm
Fri and Sat - 9:00am to 5:00pm","(38.804409, -90.856856)",184,48,2177
Odessa Senior Center,217 S. Second,Odessa,64076,Lafayettte,816-633-4161,Mon-Fri 7:00am to 2:00pm,"(38.998466, -93.953995)",161,42,2116
Chouteau Township Hall,906 Thorngate Drive,Granite City,62040,Madison,618-931-0360,Mon-Fri - 9:00am to 12:00pm (noon) and 1:00pm to 4:00pm,"(38.762885, -90.097295)",,,1749
Tarkio Nutrition Center,412 Main Street,Tarkio,64491,Atchison,660-736-5725,Mon-Fri - 6:00am to 3:00pm,"(40.440748, -95.380148)",11,2,2648
Camden County Library District,89 Rodeo Road,Camdenton,65020,Camden,573-346-5954,"Mon - 9:00am to 8:00pm
Tue-Fri - 9:00am to 6:00pm
Sat - 9:00am to 5:00pm","(38.002721, -92.739356)",292,68,2694
St. Louis County Library Jamestown Bluffs Branch,4153 N Hwy 67,Florissant,63034,St Louis,314-994-3300,"Mon-Thu - 9:00am to 9:00pm
Fri and Sat - 9:00am to 5:00pm","(38.817329, -90.278588)",181,51,2210
"St. Charles, Lincoln and Warren Counties - Homeless Services Coordinated Entry",427 Spencer Road,Saint Peters,63376,Saint Charles,636-856-5151,Mon-Fri - 9:00am to 4:30pm,"(38.784359, -90.601237)",173,48,2177
Butler Senior Center,611 West Mill Road,Butler,64730,Bates,660-679-5830,Mon-Fri - 9:00am to 3:00pm,"(38.263765, -94.34213)",272,63,2651
Schuyler County Library,108 East Jackson Street,Lancaster,63548,Schuyler,660-457-3731,"Mon, Tue, Thu and Fri - 8:30am to 4:30pm
Wed and Sat - 8:30am to 12:00pm (noon)","(40.523067, -92.52564)",13,4,541
City of Warrensburg - Warrensburg Community Center,445 E Gay St,Warrensburg,64093,Johnson,660-747-7178,"M-F 5:30am-8:30pm, Sa 8am-8pm, Su 12pm-6pm","(38.765329, -93.727078)",185,49,526
Eldon Senior Center,926 E. North Street,Eldon,65026,Miller,573-392-6102,Mon-Fri - 8:00am to 4:00pm,"(38.34972, -92.567146)",261,64,2124
KCMO Parks and Recreation - Tony Aguirre Community Center,2050 W Pennway,Kansas City,64108,Jackson,816-513-8530,M-F 6:30am-9pm; Sa 8am-5pm; Su 9am-6pm,"(39.088217, -94.595352)",151,43,525
Belleville Public Library West Branch,3414 West Main Street,Belleville,62226,St Clair,618-233-4366,Mon-Sat - 9:00am to 5:00pm (By Appointment Only),"(38.531821, -90.014809)",,,1797
Adair County Public Library,One Library Lane,Kirksville,63501,Adair,660-665-6038,"Cooling Center Beginning June 1, 2022
- Mon - 9:00am to 6:00pm
- Tues, Wed - 9:00am to 7:00pm
- Thu, Fri - 9:00am to 6:00pm
- Sat - 10:00am to 4:00pm","(40.200989, -92.572979)",32,12,509
ARC Columbia,1701 West Ash Street,Columbia,65203,Boone,573-874-7700,"Mon–Fri - 5:30am to 9:30pm
- Sat - 7:00am to 7:00pm
- Sun - 9:00am to 6:00pm
- Holiday hours vary","(38.957023, -92.364266)",464,40,2691
Tri Township Public Library,209 South Main Street,Troy,62294,Madison,618-667-2133,"Mon-Thu - 9:00am to 8:00pm
Fri - 9:00am to 5:00pm
Sat - 9:00am to 4:00pm","(38.727412, -89.883901)",,,1749
Scotland County Senior Center,301 West Monroe,Memphis,63555,Scotland,660-465-7011,Mon-Fri - 6:30am to 2:00pm,"(40.457585, -92.173731)",10,3,2212
Oak Street Health-Tower Grove,3863 A Gravois Ave,Saint Louis,63116,St Louis City,314-930-2399,Mon-Fri - 8:00am to 5:00pm,"(38.59316652, -90.25086649)",200,54,2223
Salvation Army of Jasper-Newton Counties,320 East 8th Street,Joplin,64801,Jasper,417-624-4528,"Mon-Thur - 9:00am to 4:00pm
Fri - 9:00am to 2:00pm

Showers and laundry by appointment
Women - Wednesday -9:00am to 1:30pm 
Men - Monday, Tuesday, and Thursday - 9 am to 1:30 pm","(37.082003, -94.510521)",490,94,1966
Cassville Branch Library,301 West 17th Street,Cassville,65625,Barry,417-847-2121,"Mon - Thu 8:30am to 6:00pm
Fri - Sat 8:30am to 5:30pm","(36.688417, -93.867658)",509,107,2649
Albany Carnegie Public Library,101 West Clay Street,Albany,64402,Gentry,660-726-5615,"- Mon and Thu - 9:00am to 7:00pm
- Tue, Wed, Fri and Sat - 9:00am to 5:00pm","(40.247874, -94.331737)",27,10,521
McDonald County Senior Center,624 Johnson Drive,Noel,64854,Mcdonald,417-475-3511,"7:30 am to 1:30 pm, M-F
Lunch served at 11:30 am","(36.537408, -94.485246)",519,113,530
Mount Vernon Senior Center,425 N Main St,Mount Vernon,65712,Lawrence,417-466-2072,Mon-Fri - 8:00am to 3:30pm,"(37.105976, -93.817126)",408,97,528
Sermon Center,201 N Dodgion Ave,Independence,64050,Jackson,816-325-7617,M-Thurs 8 AM until 8 PM ; Varied on weekends due to staffing.,"(39.09275629, -94.41148465)",463,43,525
St Charles City County Library District Kathryn Linnemann Branch,2323 West Elm Street,Saint Charles,63301,St Charles,636-723-0232,"Mon-Thu - 9:00am to 9:00pm
Fri and Sat - 9:00am to 5:00pm
Sun - 1:00pm to 5:00pm","(38.795498, -90.500299)",195,48,2177
Ferguson Municipal Public Library,35 North Florissant Road,Saint Louis,63135,St Louis,314-521-4820,"Mon-Thu - 9:00am to 6:00pm
- Sat - 9:00am to 1:00pm","(38.745879, -90.305677)",191,51,2210
St. Louis Public Library Charing Cross Branch,356 N Skinker Blvd,Saint Louis,63130,St Louis,314-726-2653,"Mon, Tue, Fri and Say – 11:00am to 5:00pm
Wed and Thu – 1:00pm to 7:00pm","(38.651341, -90.300191)",200,54,2223
Cuba Senior Center,206 N. Smith Street,Cuba,65453,Crawford,573-885-2909,Mon-Fri - 8:00am to 4:00pm,"(38.062947, -91.408089)",484,67,1953
Desoto Rural Fire and Rescue,201 East Miller,DeSoto,63020,Jefferson,636-586-2557,Mon - Fri 9:00am to 5pm;  Call to ensure not responding to emergency before arriving,"(38.133849, -90.554162)",295,62,1967
Madison County Health Department,806 West College Avenue,Fredericktown,63645,Madison,573-783-2747,Mon-Fri - 7:00am to 5:30pm,"(37.558275, -90.304506)",348,83,2121
Grundy County - Jewett Norris Library,1331 Main Street,Trenton,64683,Grundy,660-359-3577,"Mon - 8:30am to 7:00pm
- Tue-Fri  8:30am to 5:00pm
- Sat - 8:30am to 12:00pm (Noon)","(40.078523, -93.617813)",41,15,522
St. Joseph Public Library - East Hills Library,502 N Woodbine Rd,Saint Joseph,64506,Buchanan,816-236-2136,Th 9 a.m. to 6 p.m. and F & S from 9 a.m. to 5 p.m.,"(39.771128, -94.796887)",77,25,2692
Humansville Senior Center,102 West Tilden Street,Humansville,65674,Polk,417-754-8303,Mon-Fri - 8:00am to 3:30pm,"(37.794127, -93.578234)",330,80,537
St. Louis Public Library Baden Branch,8448 Church Road,Saint Louis,63147,St Louis City,314-388-2400,"Mon – 12:00pm(Noon) to 8:00pm
Tue-Thu – 10:00am to 6:00pm
Fri and Sat – 10:00am to 5:00pm

In addition to in-building service, Curbside Pickup, will continue to be offered","(38.714977, -90.232877)",200,54,2223
Macon Public Library,210 N Rutherford,Macon,63552,Macon,660-385-3314,"Mon, Tue, Thu, Fri - 10:00am to 6:00pm
- Wed - 10:00am to 5:00pm
- Sat - 10:00am to 3:00pm","(39.739673, -92.469608)",72,20,2120
Fairmont City Library,4444 Collinsville Road,East Saint Louis,62201,St Clair,618-482-3966,"Mon-Thu - 10:00am to 6:00pm
Fri and Sat - 9:00am to 5:00pm","(38.650499, -90.103907)",,,1797
Mountain Grove Library,206 North Greene Avenue,Mountain Grove,65711,Wright,417-926-4453,"Mon - Fri 8:00am to 11:00am and 12:00pm (noon) to 5:00pm
Sat 8:00am to 12:00pm (noon)","(37.130157, -92.262019)",386,90,546
Rock Port Senior Center Center,505 South County Club Drive,Rock Port,64482,Atchison,660-744-5812,Mon-Fri - 7:00am to 2:00pm,"(40.410048, -95.510428)",8,2,2648
City Of Bethany Public Library,101 North 15th Street,Bethany,64424,Harrison,660-425-8008,"Tue, Wed - 9:00am to 4:30pm
- Thu - 12:30pm to 4:30pm
- Fri - 9:00am to 12:00pm (Noon)
- Sat - 9:00am to 12:00pm (Noon)","(40.2689, -94.035772)",22,9,1961
Senior Center of Macon,1404 South Missouri Street,Macon,63552,Macon,660-385-6411,"Mon, Wed, Thu, Fri - 8:00am to 4:00pm","(39.720376, -92.466908)",72,20,2120
St. Joseph Public Library - Downtown Library,927 Felix St,Saint Joseph,64501,Buchanan,816-232-4038,"M, W, F & S 9 a.m. to 5 p.m. and Tu and Th 9 a.m. to 6 p.m.","(39.766785, -94.848575)",77,25,2692
Clara Drinkwater Newnam Library,105 East Marshall Street,Charleston,63834,Mississippi,573-683-6748,"Mon - Fri   8:00am-5:30pm
Sat  10:00 am -2:00pm","(36.92079, -89.349051)",415,99,2125
Salvation Army of Carthage Service Center,125 East Fairview,Carthage,64836,Jasper,417-358-2262,Mon-Fri - 9:00am to 4:00pm,"(37.15487, -94.310253)",398,94,1966
"Albany Senior Center, Inc",209 West Clay,Albany,64402,Gentry,660-726-5645,Mon-Fri - 9:00am to 4:00pm,"(40.248009, -94.333004)",27,10,521
Jefferson County Health Department Arnold Office,1818 Lonedell Road,Arnold,63010,Jefferson,636-282-1010,Mon-Thu - 8:00am to 5:30pm,"(38.445892, -90.403437)",255,62,1967
Shell Knob - Central Crossing Senior Center,20801 YY 15,Shell Knob,65747,Barry,417-858-6952,Mon-Fri - 8:00am to 3:30pm,"(36.624807, -93.60803)",526,107,2649
Humansville Library Branch,101 South Ohio Street,Humansville,65674,Polk,417-754-2455,"Tue and Fri 9:00am to 12:30pm and 1:00pm to 5:00pm
Thu 9:00am to 12:00pm (noon) and 1:00pm to 7:00pm
Sat 9:00am to 12:30pm","(37.795391, -93.577736)",330,80,537
Canton Senior Citizens Center,600 Montgomery Street,Canton,63435,Lewis,573-288-3633,"Mon, Wed, Fri - 9:00am to 1:00pm","(40.127506, -91.521691)",478,16,2117
Senior Americans Multipurpose Center,205 Farror,Moberly,65270,Randolph,660-263-5468,Mon-Fri - 8:00am to 3:00pm,"(39.422501, -92.434361)",112,33,538
Douglas County Public Library,301 South West Third Ave.,Ava,65608,Douglas,417-683-5633,"Mon-Fri - 9:00am to 5:00pm
Sat - 9:00am to 12:00pm (Noon)","(36.950508, -92.662174)",422,102,520
Carlinville Senior Citizens Center,213 N East St,Carlinville,62626,Macoupin,217-854-3622,Mon-Fri - 8:00am to 1:00pm,"(39.281499, -89.88004)",,,1748
KCMO Parks and Recreation - Marlborough Community Center,8200 Paseo Blvd,Kansas City,64131,Jackson,816-784-3100,Mon 12pm-9pm; T-F 9am-9pm; Sa 8am-5pm,"(38.979075, -94.567261)",167,43,525
Hayner Public Library District Downtown,326 Belle Street,Alton,62002,Madison,618-462-0677,"Mon-Thu - 8:30am to 7:00pm
Fri and Sat - 8:30am to 5:00pm
Sun - 1:00pm to 6:00pm","(38.8919165, -90.1877269)",,,1749
Jefferson County Library District,5678 State Road PP,High Ridge,63049,Jefferson,636-677-8689,"Mon-Thu - 9:00am to 9:00pm
Fri - 9:00am to 6:00pm
Sat - 9:00am to 5:00pm","(38.454989, -90.536175)",256,62,1967
St. Louis County Library Headquarters,1640 South Lindbergh Boulevard,Saint Louis,63131,St Louis,314-994-3300,"Mon-Thu - 9:00am to 9:00pm
Fri and Sat - 9:00am to 5:00pm
Sun - 1:00pm to 5:00pm Sept-May only - call for more details","(38.630501, -90.405566)",217,51,2210
Windsor Senior Center,201 S. Main,Windsor,65360,Henry,660-647-3224,Mon-Thurs - 9:00am to 2:00pm; Closed Fridays,"(38.531213, -93.522899)",224,60,1962
Ava Senior Center,108 North East 2nd Street,Ava,65608,Douglas,417-683-5712,Mon-Fri - 8:00am to 3:30pm,"(36.952635, -92.659312)",422,102,520
Stone County Recovery Center,150 Keystone Road,Reeds Spring,65737,Stone,417-230-7628,Mon - Fri 10:00am to 6:00pm,"(36.762838, -93.347016)",516,105,2216
Dunklin County Library,208 North Main Street,Kennett,63857,Dunklin,573-888-3561,Mon - Sat 8:30am to 5:30pm,"(36.237471, -90.057259)",549,114,1957
St. Louis Public Library Kingshighway Branch,2260 S Vandeventner,Saint Louis,63111,St Louis City,314-771-5450,"Mon – 12:00pm(Noon) to 8:00pm
Tue-Thu – 10:00am to 6:00pm
Fri and Sat – 10:00am to 5:00pm

In addition to in-building service, Curbside Pickup, will continue to be offered","(38.612801, -90.26689)",200,54,2223
Hillsboro Fire Protection District Station Two,5750 State Road B,Hillsboro,63050,Jefferson,636-797-3619,Mon - Sun 8:00am to 4:00pm,"(38.244669, -90.60918)",268,62,1967
Andrew County Senior Center,12737 State Route E,Savannah,64485,Andrew,816-324-4916,"M-F, 7am-3pm","(39.94512, -94.806781)",54,17,2647
Bi-Lingual International Assistant Services (Macklind International Senior Center),1329 Macklind Ave Suite 200,St. Louis,63110,St. Louis City,314-645-7800,Mon – Fri 9am-5pm,"(38.624322, -90.275976)",200,54,2223
St. Louis County Library Prairie Commons Branch,915 Utz Lane,Hazelwood,63042,St Louis,314-994-3300,"Mon-Thu - 9:00am to 9:00pm
Fri and Sat - 9:00am to 5:00pm","(38.782868, -90.377667)",181,51,2210
Mid-Continent Public Library - Midwest Genealogy Center,3440 S Lee's Summit Rd,Independence,64055,Jackson,816-252-7228,"M-Sat 10am-8pm, Sun 1pm-8pm","(39.055456, -94.390231)",463,43,525
Callaway County Public Library,710 Court Street,Fulton,65251,Callaway,573-642-7261,"Mon, Tue, Thu - 3:00pm to 6:00pm 
- Wed - 10:00am to 6:00pm 
- Sat - 10:00am to 1:00pm","(38.85016, -91.947324)",171,45,513
Washington County Health Department,520 Purcell Dr,Potosi,63664,Washington,573-438-2164,"Mon-Thurs - 8:00am to 5:00pm
Fri - 10:00am to 5:00pm","(37.933991, -90.778058)",301,66,545
Mansfield Public Library,120 North Business 60,Mansfield,65704,Wright,417-924-8068,"Mon - Fri 8:00am to 12:00pm (noon) and 12:30pm to 4:30pm
Sat 8:00am to 12:00pm (noon)","(37.107306, -92.580664)",399,90,546
"Leu Civic Center, Inc.",213 North Market,Mascoutah,62258,St Clair,618-566-2175,"- Mon-Thu - 9:00am to 8:00pm
- Fri - 9:00am to 6:00pm
- Sat - Open for events","(38.492308, -89.796684)",,,1797
"Community Care Center, Inc.",1818 Cleveland Blvd,Granite City,62040,Madison,618-876-8770,"Mon-Thu - 9:00am to 3:00pm
Closed for lunch - 11:30am to 12:00pm (Noon)","(38.700548, -90.153046)",,,1749
"Kansas City, MO Public Library - Waldo Branch",201 E 75th St,Kansas City,64114,Jackson,816-701-3486,"M-F 10am-7pm, Sa 10am-5pm","(38.991887, -94.586891)",151,43,525
McDonald County Health Department,500 Olin Street,Pineville,64856,McDonald,417-223-4351,Mon-Thur - 8:00am to 4:30pm & Fri 8:00-2:00 pm,"(36.593957, -94.384369)",519,113,530
Holcomb Branch Library,212 West Main,Holcomb,63852,Dunklin,573-792-3268,"Mon, Wed, Fri 1:00pm to 5:00pm","(36.405369, -90.024105)",544,114,1957
Mountain Grove Senior Center,700 E State St,Mountain Grove,65711,Wright,417-926-5867,Mon-Fri - 8:00am to 3:30pm,"(37.131004, -92.254918)",386,90,546
Northside Youth and Senior Service Center,4120 Maffitt Avenue,Saint Louis,63113,Saint Louis City,314-531-4161,"- Mon-Thu - 8:30am to 4:30pm
- Fri - 9:00am to 3:00pm","(38.65945, -90.232631)",200,54,2223
St Charles City County Library District Middendorf Kredell Branch,2750 Highway K,O Fallon,63366,St Charles,636-978-7997,"Mon-Thu - 9:00am to 9:00pm
Fri and Sat - 9:00am to 5:00pm
Sun - 1:00pm to 5:00pm","(38.767854, -90.699915)",173,48,2177
St. Louis County Library Grants View Branch,9700 Musick Road,Saint Louis,63123,St Louis,314-994-3300,"Mon-Thu - 9:00am to 9:00pm
Fri and Sat - 9:00am to 5:00pm
Sun - 1:00pm to 5:00pm","(38.545438, -90.351527)",239,51,2210
Bunker Hill Police Department,801 South Franklin Street,Bunker Hill,62014,Macoupin,618-585-4422 x1,Mon-Fri - 8:00am to 6:00pm,"(39.034794, -89.949494)",,,1748
Fayette Senior Citizens Center,600 South Cleveland,Fayette,65248,Howard,660-248-3733,Mon-Fri - 8:00am to 4:00pm,"(39.138773, -92.688819)",137,39,1964
Greene County Health Department,310 5th Street,Carrollton,62016,Greene,217-942-6961,Mon-Fri - 8:00am to 4:00pm,"(39.301928, -90.407386)",,,1873
Annapolis Branch Library,204 North Allen Street,Annapolis,63620,Iron,573-598-3706,"Mon, Wed, and Fri 2:00pm to 6:00pm
Tue 2:00pm to 7:00pm
Sat 9:00am- 12:00pm (noon)","(37.360751, -90.698022)",363,82,524
Saint Clair County Library - Main Branch,115 Chestnut Street,Osceola,64776,St Clair,417-646-2214,"Mon - Thu 8:00am to 9:00pm
Fri 8:00am to 5:00pm
Sat 9:00am to 2:00pm","(38.047864, -93.704122)",304,69,539
KCMO Parks and Recreation - Garrison Community Center,1124 E 5th St,Kansas City,64106,Jackson,816-784-1140,M-F 12pm-9pm; Sa 8am-5pm,"(39.111332, -94.568549)",151,43,525
Centralia Public Library,210 South Jefferson Street,Centralia,65240,Boone,573-682-2036,"Mon, Tue, Thu - 9:00am to 8:00pm
- Wed, Fri, Sat - 9:00am to 5:00pm
- Sun - 1:00pm to 4:00pm","(39.208797, -92.133483)",126,40,2691
Mount Vernon Branch Library,206 West Water Street,Mount Vernon,65712,Lawrence,417-466-2921,"Mon - Thu 8:30am to 7:00pm
Fri and Sat 8:30am to 5:30pm","(37.103866, -93.820233)",408,97,528
Jordan Valley Ice Park,735 E. Trafficway,Springfield,65806,Greene,417-866-7444,"Hours vary, approximately 12-5 p.m. daily","(37.21039731, -93.28471724)",493,93,1960
Feed My People High Ridge,3295 Ottomeyer Road,High Ridge,63049,Jefferson,636-677-9885,Tue - Fri 10:00am to 4:00pm,"(38.448983, -90.539132)",256,62,1967
Higginsville Senior Center,21st and Walnut,Higginsville,64037,Lafayette,660-584-7040,Mon-Fr 7:30am to 2:30pm,"(39.07384, -93.718088)",149,42,2116
Macoupin County Public Health Department Gillespie,109 East Maple,Gillespie,62033,Macoupin,217-839-1526,Mon-Fri - 8:30am to 4:30pm,"(39.12926, -89.818638)",,,1748
Osage Beach Library,1064 Gutridge Lane,Osage Beach,65065,Camden,573-348-3282,"Mon, Wed, Thu, Fri - 10:00am to 6:00pm
Tue - 10:00am to 8:00pm
Sat - 9:00am to 5:00pm","(38.148923, -92.623535)",292,68,2694
Saline Valley Fire Protection District Station 2,2198 Saline Road,Fenton,63026,Jefferson,636-343-9199,Mon - Sun 7:00am to 7:00pm,"(38.476699, -90.465339)",256,62,1967
Ash Grove Branch Library,101 East Main,Ash Grove,65604,Greene,417-751-2933,Mon-Fri - 8:30am to 6:00pm,"(37.315115, -93.584718)",385,93,1960
Blue Eye Library Branch,138 State Highway EE,Blue Eye,65611,Stone,417-779-3500,"Mon, Wed, Fri 9:00am to 5:00pm; Tue - Thu 10:00am to 6:00pm; Sat 9:00am to 1:00pm","(36.505052, -93.393406)",553,105,2216
Mosaic Medical Center - Albany,705 North College Street,Albany,64402,Gentry,660-726-3941,Administration Hours: Mon-Fri - 8:00am to 5:00pm,"(40.252257, -94.32529)",27,10,521
Moniteau County Library,501 South Oaks,California,65018,Moniteau,573-796-2642,"Mon, Wed, Fri - 9:00am to 5:00pm
- Tue, Thu - 9:00am to 8:00pm 
- Sat - 9:00am to 12:00pm (noon)","(38.628606, -92.566671)",210,53,532
Ste. Genevieve County Health Department,115 Basler Dr,Sainte Genevieve,63670,Ste Genevieve,573-883-7411,Mon-Fri - 8:00am to 4:00pm,"(37.964074, -90.055111)",303,71,2209
Farmington Public Library,108 West Harrison Street,Farmington,63640,St Francois,573-756-5779,"Mon - Thurs 10:00am to 9:00pm
Fri - 10:00am to 6:00pm
Sat - 10:00am to 4:00pm","(37.779719, -90.422476)",324,74,540
Rock Community Fire Protection District House 2,1299 Main St,Imperial,63052,Jefferson,636-464-9779,Mon - Sun 7:00am to 7:00pm,"(38.369578, -90.389891)",265,62,1967
Glasgow Senior Center,603 2nd Street,Glasgow,65254,Howard,660-338-2975,Mon-Fri - 9:00am to 1:00pm,"(39.226462, -92.846233)",129,39,1964
Farber Branch Library,113 West Front Street,Farber,63345,Audrain,573-249-2012,"Mon, Tue - 1:30 pm to 5:00pm
- Wed 9:00am to 12:00pm (noon) and 1:30pm to 5:00pm
- Sat 9:00am to 12:00pm (noon)","(39.272977, -91.575111)",120,37,510
Bloomfield Public Library,200 Seneca Street,Bloomfield,63825,Stoddard,573-568-3626,"Mon, Tues, Wed, Fri 10:00am -5:00pm
Thurs 10:00am-6:00pm
Sat 9:00am to 12:00pm(noon)","(36.885391, -89.930071)",498,98,2215
Mississippi County Health Department,1200 East Marshall,Charleston,63834,Mississippi,573-683-2191,Mon-Fri - 8:00am to 4:30pm,"(36.92153, -89.334437)",415,99,2125
Ellington Library,130 South Main Street,Ellington,63638,Reynolds,573-663-7289,Mon-Fri - 8:30am to 12:00pm (noon) and 12:30pm to 5:00pm,"(37.241052, -90.969637)",380,87,2175
City of Liberty - Liberty Community Center,1600 S Withers Road,Liberty,64068,Clay,816-439-4360,"M-Th 5am-10pm, F 5am-9pm, Sa 8am-8pm, Su 9am-6pm","(39.224287, -94.439304)",3,36,2701
Bourbon Senior Center,575 E Elm St,Bourbon,65441,Crawford,573-732-4268,Mon-Fri - 8:00am to 4:00pm,"(38.154859, -91.244856)",293,67,1953
St Charles City County Library District Augusta Branch,198 Jackson Street,Augusta,63332,St Charles,636-228-4855,"- Mon, Tue, and Thu - 9:00am to 7:00pm
- Sat - 9:00am to 12:00pm(Noon)","(38.5743, -90.883883)",220,48,2177
Paris Senior Citizen Community Center,112 East Marion,Paris,65275,Monroe,660-327-5824,Mon-Fri - 7:30am to 3:00pm,"(39.483536, -91.999541)",101,30,2126
Bollinger County Health Department,107 Highway 51 North,Marble Hill,63764,Bollinger,573-238-2817,Mon-Fri - 8:00am to 4:30pm,"(37.29548, -89.977768)",370,85,2652
Dixon Senior Center,301 Old Y Road,Dixon,65459,Pulaski,573-759-6313,Mon-Fri - 7:00am to 2:00pm,"(37.999215, -92.086686)",306,75,2171
Ofallon Public Library,120 Civic Plaza,O Fallon,62269,St Clair,618-632-3783,"Mon-Thu - 9:00am to 8:00pm
Fri - 9:00am to 5:00pm
Sat - 9:00am to 4:00pm
Sun - 1:00pm to 5:00pm","(38.581822, -89.913341)",,,1797
Shell Knob Branch Library,24931 State Hwy 39,Shell Knob,65747,Barry,417-858-3618,"Tue - Fri 8:30am to 5:30pm
Sat 8:30am to 12:30pm","(36.624467, -93.621879)",526,107,2649
Malden Community Center,607 North Douglas Street,Malden,63863,Dunklin,573-276-6602,Mon - Fri 8:00am to 5:00pm,"(36.564445, -89.970902)",530,114,1957
St. Louis Public Library Divoll Branch,4234 N Grand Ave,Saint Louis,63107,St Louis City,314-534-0313,"Mon – 12:00pm(Noon) to 8:00pm
Tue-Thu – 10:00am to 6:00pm
Fri and Sat – 10:00am to 5:00pm

In addition to in-building service, Curbside Pickup, will continue to be offered","(38.667424, -90.211767)",200,54,2223
"West Plains Senior Citizens, Inc",416 East Main Street,West Plains,65775,Howell,417-256-4055,Mon-Fri - 8:00am to 3:30pm,"(36.727712, -91.848513)",508,104,1965
Oak Street Health-North City,3451 Union Blvd,Saint Louis,63115,St Louis City,314-934-2520,Mon-Fri - 8:00am to 5:00pm,"(38.67983421, -90.26067761)",200,54,2223
St. Louis County Library Samuel C Sachs Branch,16400 Burkhardt Pl,Chesterfield,63017,St Louis,314-994-3300,"Mon-Thu - 9:00am to 9:00pm
Fri and Sat - 9:00am to 5:00pm","(38.6536, -90.569066)",208,51,2210
Bolivar - Polk County Senior Center,1850 West Broadway,Bolivar,65613,Polk,417-326-5570,Mon-Fri - 8:00am to 3:30pm,"(37.610776, -93.426969)",335,80,537
Caseyville Township Office of General Assistance,10001 Bunkum Road,Fairview Heights,62208,St Clair,618-398-6248,Mon-Fri - 8:00am to 5:00pm,"(38.599846, -90.012024)",,,1797
Martinsburg Branch Library,201 East Washington Street,Martinsburg,65264,Audrain,573-492-6254,"Tue-Thu 1:00 to 5:00pm
- Fri-Sat 9:00 am to 12:00pm (noon)","(39.100649, -91.645742)",130,37,510
YMCA - North Kansas City,1999 Iron Street,Kansas City,64116,Clay,816-300-0531,M-Th 5am-9pm; F 5am-8pm; Sa 7am-6pm; Su 8am-5pm,"(39.142621, -94.570447)",133,36,2701
Neosho Newton County Library,201 West Spring Street,Neosho,64850,Newton,417-451-4231,"Mon - Thu 9:00am to 8:00pm
Fri and Sat 9:00am to 5:00pm","(36.869623, -94.369902)",487,103,2129
Rock Community Fire Protection District House 5,3749 Telegraph Rd,Arnold,63010,Jefferson,636-296-2211,Mon - Sun 7:00am to 7:00pm,"(38.4065, -90.374934)",255,62,1967
Carthage Senior Center,404 E 3rd,Carthage,64836,Jasper,417-358-4741,"7 am to 3 pm, Lunch served at 11:30 am.","(37.176569, -94.307703)",398,94,1966
New Madrid County Library,309 East Main Street,Portageville,63873,New Madrid,573-379-3583,Mon-Sat- 8:00am to 5:00pm,"(36.425222, -89.698851)",542,108,2128
Vienna Senior Center,210 Ballpark Road,Vienna,65582,Maries,573-422-3834,Mon-Fri - 8:00am to 3:00pm,"(38.1904, -91.952814)",282,65,531
KCMO Parks and Recreation - Westport Roanoke Community Center,3601 Roanoke Rd,Kansas City,64111,Jackson,816-784-5200,M-F 7:30am-9pm; Sa-Su 9am-6pm,"(39.060191, -94.60019)",151,43,525
Grand River Multipurpose Center,607 Bus Hwy 36,Chillicothe,64601,Livingston,660-646-2237,Mon-Fri - 8:30am to 4:30pm,"(39.77677, -93.550536)",63,22,2119
Ozark Community Library Branch,1005 N. 4th Avenue,Ozark,65721,Christian,417-581-2432,"Mon-Thurs - 9:00am to 7:00pm
Fri-Sat - 9:00am to 6:00pm","(37.02913, -93.202338)",421,101,515
Hillcrest Community Center,10401 Hillcrest Road,Kansas City,64134,Jackson,816-784-7000,"M-Th 7am-9pm, F 7am-6pm, Sa 9am-6pm, Su 12pm-6pm","(38.93628, -94.520222)",170,43,525
Pulaski County Health Department,101 12th Street,Crocker,65452,Pulaski,573-736-2217,"Mon - 7:00am to 5:00pm
Tues-Fri - 8:00am to 4:00pm","(37.946304, -92.264516)",486,75,2171
St. Louis Public Library Julia Davis Branch,4415 Natural Bridge Ave,Saint Louis,63115,St Louis City,314-383-3021,"Mon-Thu – 9:00am to 8:00pm
Fri and Sat - 9:00am to 5:00pm
Sun - 1:00pm to 5:00pm

In addition to in-building service, Curbside Pickup, will continue to be offered","(38.670168, -90.236984)",200,54,2223
Ozarks Regional YMCA - Ward Downtown YMCA,417 S. Jefferson Ave,Springfield,65806,Greene,417-862-7456,"Mon-Thu - 5:00am to 11:00pm
Fri - 5:00am to 8:00pm
Sat - 8:00am to 5:00pm
Sun - 12:00pm(noon) to 5:00pm","(37.206453, -93.290199)",493,93,1960
Webster Groves Municipal Library,301 East Lockwood Avenue,Saint Louis,63119,St Louis,314-961-3784,"Mon-Thu - 9:00am to 9:00pm
Fri and Sat - 9:00am to 4:30pm
Sun - 2:00pm to 5:00pm","(38.592175, -90.35036)",228,51,2210
Campbell Branch Library,404 West Grand Avenue,Campbell,63933,Dunklin,573-246-2112,Mon - Fri 1:00pm to 5:00pm,"(36.492605, -90.076329)",531,114,1957
High Ridge Fire Department Station 1,2839 High Ridge Blvd,High Ridge,63052,Jefferson,636-677-3371,Mon - Fri 8:00am to 4:30pm,"(38.462126, -90.533459)",256,62,1967
Morgan County Library,600 North Hunter,Versailles,65084,Morgan,573-378-5319,"Mon - Closed
Tue - Fri 9:00am to 5:30pm
Sat 9:00am to 1:00pm","(38.438652, -92.843986)",245,57,2127
Salvation Army Alton,525 Alby Street,Alton,62002,Madison,618-465-7764,Mon-Fri - 9:00am to 12:00pm(Noon) and 1:00pm to 4:00pm,"(38.893045, -90.183765)",,,1749
Monett Branch Library,213 Sixth Street,Monett,65708,Barry,417-235-6646,"Mon - Thu 8:30am to 7:00pm
Fri and Sat 8:30am to 5:30pm","(36.922258, -93.920924)",429,107,2649
Wood River Public Library,326 East Ferguson Avenue,Wood River,62095,Madison,618-254-4832,"- Mon and Thu - 9:00am to 8:00pm
- Tue and Wed - 9:00am to 6:00pm
- Fri and Sat - 9:00am to 5:00pm
- Sun - 12:30pm to 4:00pm","(38.860784, -90.090795)",,,1749
KCMO Parks and Recreation - Kansas City North Community Center,3930 NE Antioch Rd,Kansas City,64117,Jackson,816-784-6100,M-F 6:30am-9pm; Sa 8am-5pm; Su 9am-6pm,"(39.166052, -94.549757)",133,36,2701
Andrew County Council On Aging,12737 State Route E,Savannah,64485,Andrew,816-324-4916,Mon-Fri - 7:00am to 3:30pm,"(39.94532, -94.806831)",54,17,2647
Livingston County Library,450 Locust Street,Chillicothe,64601,Livingston,660-646-0547,"Mon-Thu - 9:00am to 7:00pm
- Fri - 9:00am to 5:00pm 
- Sat - 9:00am to 4:00pm","(39.792322, -93.552707)",63,22,2119
Ripley County Health Center,1003 East Locust Street,Doniphan,63935,Ripley,573-996-2181,Mon-Thu - 7:00 am to 5:30 pm,"(36.618142, -90.813176)",507,110,2176
Tri-City Senior Council Of Holt County Nutrition Site 11a,208 S. 2nd St.,Maitland,64466,Holt,660-935-2241,Mon-Fri - 8:00am to 1:00pm,"(40.201455, -95.074)",30,14,1963
Knox County Library,120 South Main Street,Edina,63537,Knox,660-397-2460,"Mon-Fri - 8:00am to 5:00pm
Sat - 8:00am to 12:00pm (Noon)","(40.166927, -92.172887)",34,13,527
Salvation Army - Northland,5306 N Oak Tfwy,Kansas City,64118,Clay,816-452-5663,M-F 8:30am-12pm & 1pm-4pm,"(39.189039, -94.577556)",133,36,2701
Climax Springs Library,14157 North State Highway 7,Climax Springs,65324,Camden,573-347-2722,Tue-Thu - 9:00am to 5:00pm,"(38.096717, -93.048463)",286,68,2694
Sayers Senior Center,109 Lawrence Street,Potosi,63664,Washington,573-438-3237,Mon-Fri - 8:00am to 4:00pm,"(37.933632, -90.781094)",301,66,545
Reynolds County Health Center,2323 Green Street,Centerville,63633,Reynolds,573-648-2498,Mon-Thurs - 7:30am to 5:30pm,"(37.433609, -90.958899)",368,87,2175
Willard Branch Library,304 E. Jackson Street,Willard,65781,Greene,417-742-4258,Mon-Sat - 8:30am to 6:00pm,"(37.302424, -93.424684)",494,93,1960
Ozarks Family YMCA,One YMCA Drive,Mountain Grove,65711,Wright,417-926-6737,"Mon-Thu - 5:00am to 9:00pm
Fri - 5:00am to 8:00pm
Sat - 9:00am to 4:00pm","(37.135599, -92.257851)",386,90,546
"Kansas City, MO Public Library - Trails West Branch",11401 E 23rd Street,Independence,64052,Jackson,816-701-3483,"M-F 10am-7pm, Sa 10am-5pm
Some locations are experiencing closures or changes in hours during the COVID-19 pandemic. Check the locations page online for details.","(39.07977, -94.441981)",463,43,525
New Madrid County Health Department,406 US Highway 61,New Madrid,63869,New Madrid,573-748-5541,Mon-Fri - 8:00am to 4:30pm,"(36.586023, -89.547791)",448,108,2128
Louisiana Public Library,121 North 3rd Street,Louisiana,63353,Pike,573-754-4491,"Mon, Wed, Thu and Fri -10:30am to 5:30pm
Tue - 12:00pm (noon) to 8:00pm
Sat - 9:30am to 1:30pm","(39.450665, -91.047725)",105,32,2169
Thayer - Fun & Friends Senior Center,100 Chestnut,Thayer,65791,Oregon,417-264-7354,Mon-Fri - 8:00am to 3:30pm,"(36.52482, -91.53853)",534,109,534
Daviess County Library,306 West Grand,Gallatin,64640,Daviess,660-663-3222,"Tue-Thu - 9:00am to 6:00pm
- Fri - 9:00am to 5:00pm
- Sat - 9:00am to 12:00pm (Noon)","(39.914204, -93.963998)",60,18,1955
Aurora Branch Library,202 Jefferson,Aurora,65605,Lawrence,417-678-2036,Mon - Thu 8:30am to 7:00pm; Fri - Sat 8:30am to 5:30pm,"(36.973767, -93.719292)",488,97,528
Weinheimer Community Center,1100 Main Street,Highland,62249,Madison,618-654-1026,"Mon-Fri - 8:00am to 10:00pm (as needed)
Closed for lunch 12:00pm (noon) to 1:00pm","(38.740342, -89.677548)",,,1749
Malden Branch Library,113 North Madison Street,Malden,63863,Dunklin,573-276-3674,Mon - Sat 8:30am to 5:30pm,"(36.559085, -89.966489)",530,114,1957
St. Louis Public Library Schlafly Branch,225 North Euclid Avenue,Saint Louis,63108,Saint Louis City,314-367-4120,"Mon-Thu – 9:00am to 8:00pm
Fri and Sat - 9:00am to 5:00pm
Sun - 1:00pm to 5:00pm

In addition to in-building service, Curbside Pickup, will continue to be offered","(38.644507, -90.26174)",200,54,2223
Osage County Library,22 Library Lane,Linn,65051,Osage,573-897-2951,"Mon – Thurs : 9:00 AM to 8:00 PM
Fri-9:00 AM to 6:00 PM
Sat- 9:00 AM to 5:00 PM
Sun- 1:00 PM to 5:00 PM","(38.462825, -91.814397)",233,55,2165
Summersville Senior Citizens,129 Rogers Avenue,Summersville,65571,Texas,417-932-4044,Mon-Fri - 8:00am to 3:30pm,"(37.178892, -91.657695)",378,88,544
Red Bridge Family YMCA,11300 Holmes Rd,Kansas City,64131,Jackson,816-942-2020,M-Th 5am-9pm; F 5am-8pm; Sa 7am-6pm; Su 8am-5pm,"(38.920434, -94.584397)",167,43,525
Callaway Senior Center,531 Commons Drive,Fulton,65251,Callaway,573-642-2458,Mon-Fri - 8:00am to 4:00pm,"(38.831332, -91.960541)",171,45,513
Miller County Library Service Center - Iberia,304 North Saint Louis Street,Iberia,65486,Miller,573-793-6746,Call for information,"(38.090809, -92.292533)",296,64,2124
Illinois Valley Senior Citizens Center,806 E Franklin Ave,Jerseyville,62052,Jersey,618-498-3483,Mon-Fri -  8:00am to 4:30pm,"(39.118146, -90.31511)",,,1713
Mercer County Library,601 Grant Street,Princeton,64673,Mercer,660-748-3725,"As a cooling center: There is a 30 minute time limit for individuals entering the library. Seating capacity is limited.
- Mon-Fri - 9:00am to 5:00pm
- Sat - 9:00am to 12:00pm (noon)","(40.400803, -93.586932)",20,8,2123
St. Joseph Public Library - Washington Park,1821 N Third St,Saint Joseph,64505,Buchanan,816-232-2052,"MWF 9am-M, W and F 9 a.m. to 5 p.m. and Tu and Th 12 p.m. to 8 p.m.","(39.780358, -94.856617)",77,25,2692
Cabool Library,418 Walnut Street,Cabool,65689,Texas,417-962-3722,"Mon - Fri - 10:00am to 5:00pm
Sat - 9:00am to 1:00pm","(37.122439, -92.097365)",480,88,544
Maryville Public Library,509 North Main,Maryville,64468,Nodaway,660-582-5281,"Mon-Fri - 9:00am to 6:00pm
- Sat - 9:00am to 3:00pm","(40.349996, -94.872679)",1,5,2130
Webb City Public Library,101 South Liberty Street,Webb City,64870,Jasper,417-673-4326,"Mon - Closed
Tue and Thu 9:00am to 8:00pm
Wed and Fri 9:00am to 6:00pm
Sat 9:00am to 5:00pm","(37.144732, -94.465104)",395,94,1966
St Charles City County Library District Corporate Parkway Branch,1200 Corporate Parkway,Wentzville,63385,St Charles,636-327-4010,"Mon-Thu - 9:00am to 9:00pm
Fri and Sat - 9:00am to 5:00pm
Sun - 1:00pm to 5:00pm","(38.799968, -90.81872)",184,48,2177
The Center for Seniors in Neosho,1017 East Carl Sweeney Pkwy,Neosho,64850,Newton,417-451-0981,"7 am to 3 pm M-F
Lunch served at 11:30 M-F","(36.857229, -94.353378)",487,103,2129
McCarty Senior Center,"Highway 54 East, Route 1",Wheatland,65779,Hickory,417-282-6100,Mon-Fri - 8:00am to 4:00pm,"(37.94525, -93.391997)",308,72,523
Marshfield Senior Center,228 North Crittenden,Marshfield,65706,Webster,417-859-3555,Mon-Fri - 8:00am to 3:30pm,"(37.340029, -92.90602)",371,91,2221
Mound City Public Library,207 East Sixth Street,Mound City,64470,Holt,660-442-5700,"Mon, Wed, Thu, Fri - 12:00pm (Noon) to 5:00pm
- Tue - 10:00am to 5:00pm
- Sat - 9:00am to 12:00pm (Noon)","(40.13237, -95.230602)",39,14,1963
Columbia Police Department,1020 N Main St,Columbia,62236,Monroe,618-281-5151,Mon-Fri - 8:00am to 4:00pm,"(38.451429, -90.209174)",,,1754
Montgomery County Council on Aging,138 South Allen Street,Montgomery City,63361,Montgomery,573-564-3224,Mon-Fri - 6:00am to 2:00pm,"(38.975634, -91.504562)",154,44,533
Lebanon Public Library,314 West Saint Louis Street,Lebanon,62254,St Clair,618-537-4504,"- Mon and Wed - 12:00pm (noon) to 7:00pm
- Tue, Thur and Fri - 12:00pm to 5:00pm
- Sat - 12:00pm (noon) to 3:00pm","(38.603808, -89.811024)",,,1797
Marion County Library,212 South Main Street,Palmyra,63461,Marion,573-769-2830,"Mon, Wed and Fri - 10:00am to 5:30pm
Tue and Thu - 10:00am to 6:00pm
Sat - 10:00am to 2:00pm","(39.798543, -91.523227)",460,24,2122
The Center,303 N. Main,Carl Junction,64834,Jasper,417-649-6437,8 am to 2 pm. Lunch served at 11:30 am.,"(37.17967, -94.564894)",384,94,1966
Crocker Senior Center,205 N. Commercial Street,Crocker,65452,Pulaski,573-736-5405,Mon-Fri - 8:00am to 4:00pm,"(37.950599, -92.263549)",486,75,2171
Owensville Senior Center,214 North 1st Street,Owensville,65066,Gasconade,573-437-3096,Mon-Fri - 8:00am to 4:00pm,"(38.348401, -91.500295)",257,56,1959
St. Louis County Library Cliff Cave Branch,5430 Telegraph Rd,Saint Louis,63129,St Louis,314-994-3300,"Mon-Thu - 9:00am to 9:00pm
Fri and Sat - 9:00am to 5:00pm
Sun - 1:00pm to 5:00pm","(38.47532, -90.303836)",248,51,2210
Maryville Community Center,1407 Country Club Road,Maryville,64468,Nodaway,660-562-2923,"Mon-Thu - 4:30am to 10:30pm 
- Fri - 4:30am to 8:00pm 
- Sat - 6:00am to 6:00pm 
- Sun - 12:0pm (Noon) to 6:00pm","(40.358797, -94.892149)",1,5,2130
Myrtle Public Library,1 State Highway V,Myrtle,65778,Oregon,417-938-4350,"Mon and Wed 9:00am to 5:00pm
Sat 8:00am to 12:00pm (noon)","(36.50834, -91.265585)",536,109,534
Jefferson County Health Department High Ridge,5684 MO Route PP,High Ridge,63052,Jefferson,636-495-1600,Mon-Fri - 8:00am to 5:30pm,"(38.455225, -90.535811)",256,62,1967
Saline Valley Fire District Station 3,4535 Old Highway 21,Imperial,63052,Jefferson,636-296-2445,Mon - Sun 7:00am to 7:00pm,"(38.41691, -90.488918)",255,62,1967
St. Louis County Library Eureka Hills Branch,156 Eureka Towne Center,Eureka,63025,St Louis,314-994-3300,"Mon-Thu - 9:00am to 9:00pm
Fri and Sat - 9:00am to 5:00pm","(38.504952, -90.657867)",219,51,2210
Vernon County Senior Center,301 North Main,Nevada,64772,Vernon,417-667-5847,Mon-Fri - 8:00am to 2:00pm,"(37.840474, -94.358007)",313,73,2218
Dallas County Library,219 West Main Street,Buffalo,65622,Dallas,417-345-2647,"Mon - Fri 8:00am to 5:30pm
Sat 8:00am t0 12:00pm (noon)","(37.644221, -93.093975)",327,78,1954
Webster Groves Older Adult Activity Center,33 East Glendale Road,Saint Louis,63119,St Louis,314-963-5600,"Mon - 9:30am to 2:00pm
Tue and Thu - 8:00am to 11:00am
Wed - 10:30am to 2:00pm
Fri - 10:30am to 2:00pm","(38.577881, -90.356442)",228,51,2210
St. Paul United Church of Christ,123 East Dee Street,Lebanon,62254,St Clair,618-537-4991,Mon-Fri - 8:30am to 3:00pm,"(38.602297, -89.807114)",,,1797
Sparta Community Library Branch,147 Library Lane,Sparta,65753,Christian,417-441-1400,"Mon-Thurs - 9:00am to 7:00pm
Fri-Sat - 9:00am to 6:00pm","(37.00148, -93.091993)",427,101,515
Branson Senior Center,201 Compton Dr,Branson,65616,Taney,417-335-4801,Mon-Fri - 8:00am to 8:00pm,"(36.657279, -93.218457)",510,111,2217
Kimberling Area Senior Center,63 Kimberling Blvd.,Kimberling City,65686,Stone,417-739-5242,Mon-Fri - 8:00am to 4:00pm,"(36.642105, -93.418212)",516,105,2216
Dan Kinney Family Center,2701 S. Blackman Road,Springfield,65809,Greene,417-891-1500,Mon-Fri - 5:00am to 9:00 pm; Saturday - 7:00am to 8:00pm; Sunday 10:00am to 6:00pm,"(37.16260481, -93.21854002)",493,93,1960
St. Charles City County Library District McClay Branch,2760 McClay Road,Saint Charles,63303,St Charles,636-441-6454,"Mon-Thu - 9:00am to 7:00pm
Fri and Sat - 9:00am to 5:00pm","(38.758203, -90.55145)",202,48,2177
Washington Park City Hall,5218 North Park Drive,East Saint Louis,62204,St Clair,618-874-2040,Mon-Fri - 9:00am to 5:00pm,"(38.634543, -90.094078)",,,1797
Rhodes Memorial Library,303 North Main Street,Gideon,63848,New Madrid,573-448-3554,"Mon, Wed, Fri 1:00pm to 5:00pm
Tue and Thu 8:00am to 5:00pm","(36.452977, -89.91956)",554,108,2128
Wood River Fire Station,501 East Edwardsville Road,Wood River,62095,Madison,618-259-0984,Call for hours of operation,"(38.8688, -90.088015)",,,1749
Salvation Army Columbia,1108 W Ash St,Columbia,65203,Boone,573-442-3229,Mon-Fri: 9:00am to 12:00pm and 1:00pm to 4:00pm,"(38.955706, -92.354969)",464,40,2691
"Scotland County Senior Center, Inc.",301 West Monroe Street,Memphis,63555,Scotland,660-465-7011,Mon-Fri - 8:30am to 2:00pm,"(40.457585, -92.173731)",10,3,2212
St. Louis Empowerment Center,907 Dock Street,St. Louis,63147,St. Louis City,314-652-6100,Sun – Sat 9:00am to 3:00pm,"(38.656784, -90.194535)",200,54,2223
Kimberling Area Library,45 Kimberling Blvd.,Kimberling City,65686,Stone,417-739-2525,"Mon, Wed, Fri - 10:00am to 4:00pm
Tue, Thu - 10:00am to 7:00pm
Sat - 9:00am to 4:00pm","(36.639023, -93.419525)",516,105,2216
Versailles Senior Center,308 Fairgrounds Road,Versailles,65084,Morgan,573-378-6232,Mon-Fri - 8:00am to 4:00pm,"(38.428024, -92.857437)",245,57,2127
El Dorado Springs Senior Center,604 S. Forrest,El Dorado Springs,64744,Cedar,417-876-5574,Mon-Fri - 9:00am to 3:00pm,"(37.870928, -94.017116)",318,77,2698
City of Sugar Creek - Police and Fire Departments,1001 Heroes Way,Sugar Creek,64054,Jackson,816-252-5560,M-F 9am-5pm,"(39.119031, -94.445519)",463,43,525
Hickory County Library,99 New Hermitage Drive,Hermitage,65668,Hickory,417-745-6939,"Mon - Fri 9:30am to 7:00pm
Sat 9:30am to 1:00pm","(37.946473, -93.343801)",319,72,523
St. Charles City County Library District Boones Trail Branch,10 Fiddlecreek Plaza,New Melle,63365,St Charles,636-398-6200,"- Mon, Tue, and Thu - 9:00am to 7:00pm
- Sat - 9:00am to 12:00pm(Noon)","(38.723471, -90.88184)",202,48,2177
St. Louis County Library Thornhill Branch,12863 Willowyck Drive,Saint Louis,63146,St Louis,314-994-3300,"Mon-Thu - 9:00am to 9:00pm
Fri and Sat - 9:00am to 5:00pm","(38.691331, -90.471185)",208,51,2210
Cassville Senior Center,1111 Fair Street,Cassville,65625,Barry,417-847-4510,Mon-Fri - 8:00am to 3:30pm,"(36.681458, -93.862159)",509,107,2649
Clinton Senior Center,970 E. Sedalia,Clinton,64735,Henry,660-885-3482,Mon-Frii - 8:00am to 4:00pm,"(38.380508, -93.758141)",250,60,1962
Ozark Regional Library,402 North Main Street,Ironton,63650,Iron,573-546-2615,"Mon, Wed-Fri 9:00am to 5:00pm
Tue 9:00am to 8:00pm
Sat 9:00am to 1:00pm","(37.603766, -90.628413)",346,82,524
Van Buren Youth and Community Center,1204 Highway D,Van Buren,63965,Carter,573-323-8958,Mon-Fri 3:00pm to 8:00pm,"(37.002267, -91.013341)",416,100,514
Nixa Community Library Branch,208 N. McCroskey Street,Nixa,65714,Christian,417-724-6100,"Mon-Thurs - 9:00am to 7:00pm
Fri-Sat - 9:00am to 6:00pm","(37.044514, -93.300165)",489,101,515
Perryville Branch Library,800 City Park Drive,Perryville,63775,Perry,573-547-6508,"Mon - Fri 9:00am to 6:00pm
Sat 9:00am to 1:00pm","(37.725582, -89.854048)",322,76,2168
Montgomery County Health Department Missouri,400 Salisbury Street,Montgomery City,63361,Montgomery,573-564-2495,Mon-Fri - 8:30am to 4:30pm,"(38.980613, -91.504514)",154,44,533
Fair Grove Branch Library,81 South Orchard Boulevard,Fair Grove,65648,Greene,417-759-2637,Mon-Sat - 8:30am to 6:00pm,"(37.383107, -93.157267)",491,93,1960
St. Louis Public Library Buder Branch,4401 Hampton Ave,Saint Louis,63109,St Louis City,314-352-2900,"Mon-Thu – 9:00am to 8:00pm
Fri and Sat - 9:00am to 5:00pm
Sun - 1:00pm to 5:00pm

In addition to in-building service, Curbside Pickup, will continue to be offered","(38.590388, -90.294644)",200,54,2223
Cardwell Branch Library,110 North Main,Cardwell,63829,Dunklin,573-654-3366,"Mon, Wed and Thu 12:00pm (noon) to 5:00pm
Tue 9:00am to 2:00pm
Fri 1:00pm to 5:00pm","(36.048083, -90.292969)",557,114,1957
St. Louis County Library Oak Bend Branch,842 S Holmes Ave,Saint Louis,63122,St Louis,314-994-3300,"Mon-Thu - 9:00am to 9:00pm
Fri and Sat - 9:00am to 5:00pm","(38.56917, -90.391318)",229,51,2210
Soul's Harbor Of America - Shelter,915 South Main,Joplin,64801,Jasper,417-623-2550,Mon-Sun - 4:00pm to 9:00pm,"(37.08098, -94.513376)",490,94,1966
Rolling Hills Library - Belt Branch,1904 Belt Hwy,Saint Joseph,64506,Buchanan,816-232-5479,"M-Sa 9am-8pm, Su 12pm-6pm","(39.783719, -94.80383)",77,25,2692
Warren Senior Center,202A East Washington,Richland,65556,Pulaski,573-765-5414,Mon-Fri - 8:00am to 4:00pm,"(37.857349, -92.401244)",468,75,2171
Pike County Council on Aging,521 Georgia Street,Louisiana,63353,Pike,573-754-6511,"Mon, Tue, Wed, Fri - 8:00am to 2:00pm","(39.449081, -91.049692)",105,32,2169
Columbia Public Library,106 North Metter Avenue,Columbia,62236,Monroe,618-281-4237,"Mon-Thu - 9:00am to 8:00pm
Fri - 9:00am to 5:00pm
Sat - 9:00am to 4:00pm","(38.444008, -90.199092)",,,1754
"Kansas City, MO Public Library - Central Library",14 W 10th St,Kansas City,64105,Jackson,816-701-3490,"M 10am-5pm, T&W 10am-9pm, Th-Sa 10am-5pm","(39.102423, -94.583796)",151,43,525
Salisbury Senior Center,"501 Hwy 24 East, Suite B",Salisbury,65281,Chariton,660-388-5431,Mon-Fri - 9:00am to 2:00pm,"(39.43083, -92.792383)",89,28,2699
"Grundy County Council On Aging, Inc.",2901 Hoover Drive,Trenton,64683,Grundy,660-359-3058,Mon-Fri - 7:00am to 3:00pm,"(40.091542, -93.601056)",41,15,522
Noel Community Library,626 Johnson Drive,Noel,64854,McDonald,417-475-3223,"Mon - Fri 9:00am to 6:00pm
Sat 9:00am to 3:00pm","(36.537032, -94.485362)",519,113,530
El Dorado Springs Branch Library,808 South Main,El Dorado Springs,64744,Cedar,417-876-4827,Call for information,"(37.869509, -94.022299)",318,77,2698
Godfrey General Assistance Office,6810 Godfrey Road,Godfrey,62035,Madison,618-466-3378,Mon-Fri - 7:30am to 12:00pm (noon) and 1:00pm to 4:30pm,"(38.9695, -90.194332)",,,1749
Macoupin County Public Health Department,805 North Broad Street,Carlinville,62626,Macoupin,217-854-3223,Mon-Fri - 8:30am to 4:30pm,"(39.2881, -89.881732)",,,1748
Fairview Heights Public Library,10017 Bunkum Road,Fairview Heights,62208,St Clair,618-489-2070,"- Mon-Thu - 10:00am to 6:00pm
- Fri - 10:00am to 5:00pm (Lobby Pickup Only)
- Sat - 10:00am to 2:00pm","(38.598166, -90.010653)",,,1797
Lowry City Library,406B West 4th Street,Lowry City,64763,St Clair,417-644-2255,"Tues-Thu - 1:00pm to 7:00pm
Fri - 9:00am to 5:00pm
Sat - 9:00am to 2:00pm","(38.140011, -93.731921)",281,69,539
Oak Street Health - Jennings,8033 A West Florissant Ave,"Jennings,",63136,St Louis,314-472-3918,Mon-Fri - 8:00am to 5:00pm,"(38.73031765, -90.27593306)",209,51,2210
Mountain View - R. Claude Trieman Senior Center,903 East 5th Street,Mountain View,65548,Howell,417-934-6504,Mon-Fri - 8:00am to 3:30pm,"(36.999396, -91.689995)",423,104,1965
Boonslick Senior Center,520 Ryan Street,Boonville,65233,Cooper,660-882-2344,Mon-Fri - 8:00am to 3:00pm,"(38.955642, -92.740633)",169,47,517
Lessie Bates Davis Seasoned Circle Cafe,1274 North 37th Street,East Saint Louis,62204,St Clair,618271-2522,Mon-Fri - 8:00am to 4:00pm,"(38.624331, -90.110857)",,,1797
Benld Senior Citizens Center,311 East Central,Benld,62009,Macoupin,217-498-3483,Mon-Fri - 8:00am to 1:00pm,"(39.092832, -89.803312)",,,1748
St. Charles City County Library District Spencer Road,427 Spencer Rd (PO Box 529),Saint Peters,63376,St Charles,636-441-0794,"Mon-Thu - 9:00am to 9:00pm 
Fri and Sat - 9:00am to 5:00pm 
Sun - 1:00pm to 5:00pm","(38.784322, -90.601407)",173,48,2177
Robert Fulton Development,5521 Wells,Saint Louis,63112,Saint Louis City,314-361-6878,Mon - Fri 9:00am to 3:00pm,"(38.667479, -90.273673)",200,54,2223
"Kansas City, MO Public Library - North-East Branch",6000 Wilson Road,Kansas City,64123,Jackson,816-701-3485,T&F 10am-2pm,"(39.106514, -94.511325)",151,43,525
St. Francois County Health Center,1025 West Main,Park Hills,63601,St Francois,573-431-1947,Mon-Fri - 8:00am to 4:00pm,"(37.860621, -90.534924)",321,74,540
"Kansas City, MO Public Library - Westport Branch",118 Westport Rd,Kansas City,64111,Jackson,816-701-3488,Call for information,"(39.054625, -94.58829)",151,43,525
Pierce City Branch Library,101 North Walnut Street,Pierce City,65723,Lawrence,417-476-5110,"Tue - Fri 9:00am to 6:00pm
Sat 9:00am to 1:00pm","(36.945362, -94.003193)",420,97,528
Matthews Branch Library,105 West Maint Street,Matthews,63867,New Madrid,573-379-3583,Mon-Sat 8:00am to 5:00pm,"(36.759344, -89.585726)",448,108,2128
Salvation Army Columbia Harbor House Shelter,602 N Ann,Columbia,65201,Boone,573-442-1984,"24 Hours 
- For Hot Cots Summer 2022: Daytime Hours - is 8:00am to 4:00pm if there is a heat advisory
- Overnight is 4:00pm check-in and 8:00am check-out. For overnight, the low has to be over 90 degrees for overnight cots","(38.95777, -92.314201)",464,40,2691
Margaret Gray Center,811 C S. Business Highway 13,Lexington,64067,Lafayette,660-259-2025,Mon-Fri 9:00am to 3:30pm,"(39.168591, -93.879078)",145,42,2116
Perry County Health Department,406 N Spring St,Perryville,63775,Perry,573-547-6564,Mon-Fri 8:00am to 4:30pm,"(37.72874, -89.86139)",322,76,2168
Southwestern Illinois College Program and Services for Older Persons Belleville,201 North Church Street,Belleville,62220,St Clair,618-234-4410,Mon-Fri - 8:00am to 4:30pm,"(38.515571, -89.980372)",,,1797
Texas County Health Department,950 North Highway 63,Houston,65483,Texas,417-967-4131,"Mon-Thurs - 8:00am to 4:30pm
Fri - 10:00am to 4:30pm","(37.334546, -91.944431)",377,88,544
"Salvation Army - Independence, MO",14700 E Truman Rd,Independence,64051,Jackson,816-252-3200,M-F 9am-4pm,"(39.095302, -94.405516)",463,43,525
Doniphan Ripley County Library,207 Locust Street,Doniphan,63935,Ripley,573-996-2616,"Mon - Fri 9:00am to 8:00pm
Sat 9:00am to 12:00pm (noon)","(36.618504, -90.824689)",507,110,2176
Lewis Library of Glasgow,315 Market Street,Glasgow,65254,Howard,660-338-2395,"Mon, Wed - 2:00pm to 7:00pm
Tue, Thu, Fri - 3:00pm to 7:00pm
Sat - 1:00pm to 5:00pm","(39.226306, -92.844183)",129,39,1964
De Soto Public Library,712 South Main Street,De Soto,63020,Jefferson,636-586-3858,"- Mon-Thu 9:00am to 6:00pm
- Fri - 9:00am to 5:00pm
- Sat - 9:00am to 2:00pm","(38.13293, -90.556282)",295,62,1967
St. Louis Public Library Central,1301 Olive Street,Saint Louis,63103,St Louis City,314-241-2288,"Mon-Thu – 9:00am to 8:00pm
Fri and Sat - 9:00am to 5:00pm
Sun - 1:00pm to 5:00pm

In addition to in-building service, Curbside Pickup, will continue to be offered","(38.63022, -90.199305)",200,54,2223
"Kansas City, MO Public Library - Bluford Branch",3050 Prospect,Kansas City,64128,Jackson,816-701-3482,"M-F 10am-3pm, Sa 10am-3pm","(39.070783, -94.553194)",151,43,525
Clarke Senior Center,1310 Linden Drive,Jefferson City,65109,Cole,573-634-8020,Mon-Fri - 8:00am to 4:00pm,"(38.571204, -92.193091)",465,58,2702
St. Louis County Library Lewis and Clark Branch,9909 Lewis And Clark Blvd,Saint Louis,63136,St Louis,314-994-3300,"Mon-Thu - 9:00am to 9:00pm
Fri and Sat - 9:00am to 5:00pm","(38.747325, -90.240739)",203,51,2210
Hillsboro Fire Protection District Station One,120 Fifth Street,Hillsboro,63050,Jefferson,636-797-3619,Mon - Sun 8:00am to 4:00pm,"(38.234238, -90.561559)",268,62,1967
Butler County Health Department,1619 North Main,Poplar Bluff,63901,Butler,573-785-8478,Mon-Fri - 8:00am to 5:00pm,"(36.773518, -90.402148)",441,106,2693
Church of the Nazarene Monett,2142 State Highway 37,Monett,65708,Barry,417235-7625,Mon-Fri - 6:30am to 6:00pm,"(36.899163, -93.92346)",429,107,2649
Warsaw Branch Library,102 East Jackson,Warsaw,65355,Benton,660-438-5211,Mon - Sat 9:00am to 5:30pm,"(38.242985, -93.377093)",278,61,511
Licking Branch Library,126 South Main Street,Licking,65542,Texas,573-674-2038,"Mon, Wed, and  Fri - 9:00am to 5:00pm
Tue and Thu - 9:00am to 5:00pm (Winter Hours)
Sat - 9:00am to 1:00pm","(37.498124, -91.856702)",482,88,544
Salvation Army Branson,1114 Stanley Boulevard,Branson,65615,Taney,417-339-4434,Mon-Fri - 9:30am to 3:00pm,"(36.640884, -93.236431)",510,111,2217
Jefferson County Library District - Northwest Branch Library,5680 State Road PP,High Ridge,63049,Jefferson,636-677-8186,"Mon-Thu - 9:00am to 9:00pm
Fri - 9:00am to 6:00pm
Sat - 9:00am to 5:00pm","(38.454989, -90.536175)",256,62,1967
Ozarks Regional YMCA -Dallas County Area YMCA,932 W Main,Buffalo,65622,Dallas,417-345-1116,"Mon, Tues and Thu - 6:00am to 1:00pm and 3:00pm to 8:00pm
Wed - 6:00am to 1:00pm and 3:00pm to 6:00pm
Fri - 5:30am to 6:30pm
Sat - 7:00am to 11:00am
Sun - Closed","(37.643625, -93.101805)",327,78,1954
Library Station,2535 North Kansas Expressway,Springfield,65803,Greene,417-865-1340,"Mon-Sat - 8:30am to 9:00pm
Sun - 1:00pm to 5:00pm","(37.243594, -93.312021)",493,93,1960
"Metropolitan Senior Citizens Corporation, Inc. St. Louis Activity Center SLAAA",5602 Arsenal Street,Saint Louis,63139,Saint Louis City,314-645-3477,Mon-Fri - 8:30am to 2:30pm,"(38.6062, -90.282287)",200,54,2223
Greenfield - Dade County Senior Center,58 North Allison Street,Greenfield,65661,Dade,417-637-2626,Mon-Fri - 8:00am to 3:30pm,"(37.416919, -93.84101)",362,89,518
Centerville Library,2306 Pine Street,Centerville,63633,Reynolds,573-648-2471,"Mon, Wed, and Fri - 8:00am to 12:00pm (noon) and 12:30pm to 4:30pm","(37.434798, -90.958834)",368,87,2175
Cleaver Family YMCA,7000 Troost Avenue,Kansas City,64131,Jackson,816-285-9622,M-Th 5am-9pm; F 5am-8pm; Sa 7am-6pm; Su 8am-5pm,"(39.000247, -94.576996)",151,43,525
YWCA Southwestern Illinois,304 East Third Street,Alton,62002,Madison,618-465-7774,"Mon-Fri - 9am to 5:00pm
Sat - 8:00am to 5:00pm","(38.891009, -90.181625)",,,1749
Edwardsville Public Library,112 South Kansas,Edwardsville,62025,Madison,618-692-7556,"Mon-Thu - 9:00am to 8:00pm
Fri - 9:00am to 6:00pm
Sat - 9:00am to 5:00pm
Sun - 1:00pm to 5:00pm","(38.811159, -89.953892)",,,1749
Rock Community Fire Protection District House 1,1533 Jeffco Blvd,Arnold,63010,Jefferson,636-296-2226,Mon - Sun 7:00am to 7:00pm,"(38.432946, -90.377961)",255,62,1967
YMCA - Platte County Community Center North,3101 Running Horse Rd,Platte City,64079,Platte,816-858-0114,M-Th 5am-9pm; F 5am-8pm; Sa 7am-6pm; Su 10am-5pm,"(39.346856, -94.759591)",119,35,2170
Carter County Library,403 Ash Street,Van Buren,63965,Carter,573-323-4315,Mon-Fri 9:00am to 4:00pm,"(36.997022, -91.015401)",416,100,514
Scott County Health Department,102 Grove Estates Court,Sikeston,63801,Scott,573-471-4044,"Mon - 8:00am to 5:00pm
Tue-Fri - 8:00am to 4:00pm","(36.900359, -89.601732)",497,96,2213
Monroe City Senior Nutrition Center,314 South Main Street,Monroe City,63456,Monroe,573-735-2131,Mon-Fri - 8:00am to 5:00pm,"(39.650881, -91.734378)",462,30,2126
Sunrise Beach Library,14156 North State Highway 5,Sunrise Beach,65079,Camden,573-347-6982,"Tue-Fri - 9:00am to 5:00pm
Sat - 9:00am to 1:00pm","(38.153637, -92.7724)",292,68,2694
Collinsville Township Senior Citizens Center,420 E Main St,Collinsville,62234,Madison,618-344-7787,Mon-Fri - 8:00am to 4:00pm,"(38.671029, -89.982465)",,,1749
St. Louis County Library Natural Bridge Branch,7606 Natural Bridge Rd,Saint Louis,63121,St Louis,314-994-3300,"Mon-Thu - 9:00am to 9:00pm
Fri and Sat - 9:00am to 5:00pm
Sun - 1:00pm to 5:00pm","(38.705548, -90.301848)",501,51,2210
Warren County Council on Aging,501 Ashland Avenue,Warrenton,63383,Warren,636-456-3379,"Mon-Fri - 8:00am to 4:00pm
- Lunch served - 11:30am to 12:30pm","(38.814104, -91.14361)",166,46,2219
Dunklin County Health Department,410 Teaco Road,Kennett,63857,Dunklin,573-888-9008,Mon-Fri - 8:00am to 4:30pm,"(36.233718, -90.041988)",549,114,1957
Southside Senior Citizens Center SLAAA,3017 Park Avenue,Saint Louis,63104,Saint Louis City,314-664-5024,Mon-Fri - 8:00am to 5:00pm,"(38.619517, -90.228191)",200,54,2223
Pemiscot County Health Center,810 E Reed St,Hayti,63851,Pemiscot,573-359-1656,Mon-Fri - 8:00am to 4:30pm,"(36.236986, -89.742124)",547,115,2167
Ewing Senior Center,101 W Bryan,Ewing,63440,Lewis,573-209-3631,"Mon, Wed, Fri - 5:30am to 2:00pm","(40.006559, -91.71847)",459,16,2117
Buffalo - Engles Memorial Senior Center,103 South Maple Street,Buffalo,65622,Dallas,417-345-8277,Mon-Fri - 8:00am to 3:30pm,"(37.643742, -93.092619)",327,78,1954
Shelbina Senior Citizens Center,112 East Chestnut,Shelbina,63468,Shelby,573-588-7669,Mon-Fri - 8:00am to 3:30pm,"(39.692982, -92.039056)",71,23,2214
Monroe City Public Library,109 Second Street,Monroe City,63456,Monroe,573-735-4585,"Mon-Fri - 11:00am to 6:00pm 
- Sat - 9:00am to 12:00pm (noon)","(39.654162, -91.73425)",462,30,2126
Richmond Heights Memorial Library,8001 Dale Avenue,Saint Louis,63117,St Louis,314-645-6202,"Mon-Thu - 9:00am to 8:00pm 
- Fri and Sat - 9:00am to 5:00pm","(38.6278, -90.331764)",226,51,2210
"Kansas City, MO Public Library - Southeast Branch",6242 Swope Pkwy,Kansas City,64130,Jackson,816-701-3484,"M-F 10am-7pm, Sa 10am-5pm","(39.012921, -94.542816)",151,43,525
Palmyra Senior Center,219 West Ross Street,Palmyra,63461,Marion,573-769-3358,Mon-Fri - 8:00am to 1:00pm,"(39.794014, -91.525177)",460,24,2122
Schuyler County Nutrition Center,200 Marion Street (PO Box 102),Lancaster,63548,Schuyler,660-457-3066,Mon-Fri - 7:00am to 4:00pm,"(40.523036, -92.528493)",13,4,541
Clever Community Library Branch,7450 W Veterans Blvd,Clever,65631,Christian,417-743-2277,"Mon-Thurs - 9:00am to 7:00pm
Fri-Sat - 9:00am to 6:00pm","(37.037374, -93.476241)",424,101,515
Concordia Senior Center,710 S. Main St,Concordia,64020,Lafayette,660-463-7393,Mon-Fri 8:30am to 2:00pm,"(38.98206, -93.568487)",473,42,2116
"The Kitchen, Inc: Rare Breed Youth Services",301 N Main Ave,Springfield,65806,Greene,417-865-6400,Mon-Fri 11:00am - 5:00pm,"(37.209979, -93.296699)",493,93,1960
Grand River YMCA,1725 Locust,Chillicothe,64601,Livingston,660-646-6677,"Begins the First Saturday of October (Winter Hours)
- Mon-Thu - 5:00am to 8:30pm
- Fri - 5:00am to 7:30pm
- Sat - 7:00am to  6:00pm
- Sun - 1:00pm to 5:00pm

Begins the First Saturday of May (Summer Hours)
- Mon-Thu - 5:00am to 8:30pm
- Fri - 5:00am*","(39.804939, -93.551282)",63,22,2119
St. Charles City County Library District Kisker Road Branch,1000 Kisker Road,Saint Charles,63304,St Charles,636-926-7323,"Mon-Thu - 9:00am to 7:00pm
Fri and Sat - 9:00am to 5:00pm","(38.726061, -90.618357)",202,48,2177
Greene County Senior Citizens Center,320 S 5th St,Carrollton,62016,Greene,217-942-6414,Mon-Fri - 8:00am to 1:00pm,"(39.301899, -90.407547)",,,1873
Dent County Health Center,1010 E Scenic Rivers Blvd,Salem,65560,Dent,573-729-3106,Mon - Fri 10:00am to 4:30pm,"(37.635986, -91.524371)",347,81,1956
St. Louis County Library Meramec Valley Branch,1501 San Simeon Way,Fenton,63026,St Louis,314-994-3300,"Mon-Thu - 9:00am to 9:00pm
Fri and Sat - 9:00am to 5:00pm","(38.52190829, -90.46475331)",219,51,2210
"Senior Citizens Of Holt County, Inc",613 State Street,Mound City,64470,Holt,660-442-3324,Mon-Fri - 7:00am to 3:00pm,"(40.131619, -95.232859)",39,14,1963
Bonne Terre Memorial Library,5 Southwest Main Street,Bonne Terre,63628,St Francois,573-358-2260,Mon - Wed and Fri  - 10:00am to 6:00pm,"(37.921607, -90.551151)",311,74,540
St. Louis County Library Daniel Boone Branch,300 Clarkson Rd,Ballwin,63011,St Louis,314-994-3300,"Mon-Thu - 9:00am to 9:00pm
Fri and Sat - 9:00am to 5:00pm
Sun - 1:00pm to 5:00pm, Sept-May only","(38.601923, -90.586543)",219,51,2210
Dixon Area Caring Center,206 S Elm St,Dixon,65459,Pulaski,573-759-3023,"Mon-Fri - 9:00am to 5:00pm
Sat - 9:00am to 1:00pm","(37.99378, -92.097243)",306,75,2171
Osage County Health Department,205 E Main St,Linn,65051,Osage,573-897-2139 x312,Mon-Fri - 8:00am to 4:30pm,"(38.486226, -91.852539)",233,55,2165
St. Joseph Public Library - Carnegie Library,316 Massachusetts St,Saint Joseph,64504,Buchanan,816-238-0526,M-F 10am-6pm,"(39.716341, -94.866258)",77,25,2692
Brighton Memorial Library District,110 North Main Street,Brighton,62012,Macoupin,618-372-8450,"- Mon, Wed, and Fri - 10:00am to 4:00pm
- Tue and Thu - 12:0ppm(Noon) to 6:00pm","(39.039558, -90.141441)",,,1748
"Kansas City, MO Public Library - Sugar Creek Branch",102 South Sterling,Independence,64054,Jackson,816-701-3489,Call for information,"(39.109388, -94.445247)",463,43,525
Wright County Library,125 Court Square,Hartville,65667,Wright,417-741-7595,"Mon - Fri 8:00am to 12:00pm (noon) and 12:30pm to 4:30pm
Sat 8:00am to 12:00pm (noon)","(37.250206, -92.510711)",372,90,546
Barton County Senior Center,306 West 11th Street,Lamar,64759,Barton,417-682-3881,Mon-Fri - 8:00am to 2:00pm,"(37.494831, -94.279875)",351,84,2650
Canton Public Library,403 Lewis Street,Canton,63435,Lewis,573-288-5279,"Tue-Fri - 9:00am to 6:00pm
Sat - 10:00am to 2:00pm","(40.130199, -91.51886)",478,16,2117
Granite City Township,2060 A Delmar Ave,Granite City,62040,Madison,618-877-0513,"- Mon-Thu - 8:00am to 4:00pm
- Fri - 8:00am to 3:15pm","(38.702808, -90.14852)",,,1749
Seneca Branch Library,1216 Cherokee Avenue,Seneca,64865,Newton,417-776-2705,"Mon Closed
Tue - Fri 11:00am to 6:00pm
Sat 9:00am to 12:00pm (noon)","(36.840263, -94.611495)",431,103,2129
Dexter Library,402 West Grant,Dexter,63841,Stoddard,573-624-3764,"Mon - Wed and Fri 10:00am to 5:00pm
Thu 10:00am to 6:00pm
Sat 10:00am to 2:00pm","(36.789389, -89.964542)",452,98,2215
Rogersville Area Senior Center,197 S Marshall,Rogersville,65742,Webster,417-753-7800,Mon-Fri - 8:00am to 3:30pm,"(37.11592, -93.074682)",475,93,1960
Caldwell County Senior Center,410 Main Street,Polo,64671,Caldwell,660-354-2213,Mon-Fri - 7:00am to 2:00pm,"(39.553758, -94.039365)",96,26,512
Howell County Health Department,180 S Kentucky Ave,West Plains,65775,Howell,417-256-7078,Mon-Fri - 8:00am to 5:00pm,"(36.727624, -91.875051)",508,104,1965
Carrollton Public Library,1 N Folger St,Carrollton,64633,Carroll,660-542-0183,"Mon, Tue, Thu, Fri - 9:00am to 5:30pm
- Wed - 9:00am to 8:00pm
- Sat - 9:00am to 1:00pm
- Sun - 1:00pm to 5:00pm","(39.358596, -93.497181)",109,31,2696
Moberly Public Library,111 North Fourth Street,Moberly,65270,Randolph,660-263-4426,"Mon, Tue, Thu - 9:00am to 8:00pm
- Wed, Fri, 9:00am to 6:00pm
- Sat - 9:00am to 4:00pm","(39.419174, -92.440659)",112,33,538
La Plata Public Library,103 East Moore Street,La Plata,63549,Macon,660-332-4945,"Tue and Thu 9:00am to 1:00pm 
- Wed and Fri 2:00pm to 6:00pm","(40.02354, -92.491263)",48,20,2120
Crocker Library,602 North Commercial,Crocker,65452,Pulaski,573-736-5592,"Mon - 1:00pm to 5:00pm
Tue - 9:00am to 7:00pm
Wed-Thu - 9:00am to 6:00pm 
Fri 9:00am to 5:00pm
Sat 9:00am to 1:00pm","(37.956258, -92.263591)",486,75,2171
Hayner Public Library District Alton Square,132 Alton Square Drive,Alton,62002,Madison,618-462-0677,"Mon-Sat - 8:30am to 9:00pm
Sun - 12:00pm (noon) to 6:00pm","(38.923986, -90.174965)",,,1749
Warsaw Senior Center,17571 N. Dam Access Road,Warsaw,65355,Benton,660-438-3300,Mon-Fri - 8:00am to 4:00pm,"(38.265543, -93.378861)",278,61,511
Conway Senior Center,105  W. Jefferson Street,Conway,65632,Laclede,417-589-2079,Mon-Fri - 8:00am to 3:00pm,"(37.50217, -92.820878)",350,79,2008
Cabool Senior Center,910 Cherry Street,Cabool,65689,Texas,417-962-3860,Mon-Fri - 8:00am to 3:30pm,"(37.122656, -92.107302)",480,88,544
InterServ,5400 King Hill Avenue,Saint Joseph,64504,Buchanan,816-238-4511,M-F 8am-5pm,"(39.719142, -94.862414)",77,25,2692
Cole Camp Branch,701 West Main Street,Cole Camp,65325,Benton,660-668-3887,"Tue, Thu - 10:00am to 6:00pm
Wed - 1:00pm to 6:00pm
Sat - 9:00am to 2:00pm","(38.460377, -93.21427)",234,61,511
Feed My People South County,171 Kingston Drive,Saint Louis,63125,St Louis,314-631-4900,Tue - Fri 10:00am to 4:00pm,"(38.520361, -90.28076)",244,51,2210
Rivers Crossing Life Center,5215 Business Hwy 13 NE,Osceola,64776,St Clair,417-646-8292,Mon-Fri - 8:00am to 2:00pm,"(38.042252, -93.686285)",304,69,539
Jamesport Branch Library,101 E. Main,Jamesport,64648,Daviess,660-684-6120,"Thu - 12:00pm (noon) to 6:00pm
- Fri - 12:00pn (noon) - 5:00pm
- Sat - 9:00am to 1:00pm","(39.975828, -93.800891)",52,18,1955
Strafford Senior Center,201 West Bumgarner,Strafford,65757,Greene,417-736-9898,Mon-Fri - 8:00am to 3:30pm,"(37.26584, -93.118238)",387,93,1960
Chesterfield Family Center,2511 W. Republic Road,Springfield,65807,Greene,417-891-1616,Mon-Fri - 5:00am to 9:00 pm; Saturday - 7:00am to 8:00pm; Sunday 10:00am to 6:00pm,"(37.13944983, -93.32925526)",493,93,1960
Ozarks Regional YMCA - Lebanon Family YMCA,500 E. Elm St.,Lebanon,65536,Laclede,417-588-1177,"Mon-Fri -6:00am to 1:00pm
Sat - 8:00am to 12:00pm","(37.680087, -92.654345)",495,79,2008
North East Community Action Corporation Montgomery County Service Center,137 Farnen Road,Montgomery City,63361,Montgomery,573-564-3606,Mon-Fri - 8:00am to 5:00pm,"(38.989315, -91.515929)",154,44,533
"Main Street Community Center, Inc.",1003 North Main Street,Edwardsville,62025,Madison,618-656-0300,Mon-Fri - 8:00am to 3:00pm,"(38.817848, -89.963423)",,,1749
Wayne County Health Center,115 Hickory Street,Greenville,63944,Wayne,573-224-3218,"Mon-Fri - 8:00am to 4:30pm
Closed for Lunch - 11:30am to 12:00pm (Noon)","(37.129878, -90.456386)",389,95,2220
St. Louis Public Library Carondelet Branch,6800 Michigan Ave,Saint Louis,63111,St Louis City,314-752-9224,"Mon – 12:00pm(Noon) to 8:00pm
Tue-Thu – 10:00am to 6:00pm
Fri and Sat – 10:00am to 5:00pm

In addition to in-building service, Curbside Pickup, will continue to be offered","(38.554943, -90.254199)",200,54,2223
Hannibal Free Public Library,200 South Fifth Street,Hannibal,63401,Marion,573-221-0222,"Mon and Tue - 10:00am to 8:00pm
Wed-Sat - 10:00am to 6:00pm","(39.707374, -91.358323)",477,24,2122
St. Louis Public Library Machacek Branch,6424 Scanlan Ave,Saint Louis,63139,St Louis City,314-781-2948,"Mon – 12:00pm(Noon) to 8:00pm
Tue-Thu – 10:00am to 6:00pm
Fri and Sat – 10:00am to 5:00pm

In addition to in-building service, Curbside Pickup, will continue to be offered","(38.605078, -90.297787)",200,54,2223
Gainesville - Ozark County Senior Center,516 County Road 800,Gainesville,65655,Ozark,417-679-4746,Mon-Fri - 8:00am to 3:30pm,"(36.611094, -92.438127)",512,112,2166
Republic Senior Friendship Center,210 East Hines,Republic,65738,Greene,417-732-7672,Mon-Fri - 8:00am to 3:30pm,"(37.125424, -93.477698)",492,93,1960
Galena Area Library,322 West State Highway 248,Galena,65656,Stone,417-357-6410,"Mon - 8:00am to 8:00pm
Tue, Thu and Fri 8:00am to 7:00pm
Wed - 8:00am to 4:30pm
Sat 8:00am to 12:00pm (noon)","(36.805958, -93.467235)",444,105,2216
Pineville Library,808 Bailey Road,Pineville,64856,McDonald,417-223-4489,"Mon - Thu 9:00am to 6:00pm
Fri 1:00pm to 6:00pm
Sat 9:00am to 3:00pm","(36.597216, -94.384001)",519,113,530
Stoutland Senior Center,306 South Highway T,Stoutland,65567,Laclede,417-286-3880,Mon-Fri - 8:00am to 2:00pm,"(37.811368, -92.513258)",466,79,2008
Morehouse Branch Library,204 West Beech Street,Morehouse,63868,New Madrid,573-379-3583,Tues and Fri 1:00pm to 5:00pm,"(36.844871, -89.692401)",497,108,2128
North Jefferson County Ambulance District,3131 Rock Creek Road,High Ridge,63052,Jefferson,636-677-3399,Mon - Fri 8:00am to 10:00pm,"(38.454298, -90.532904)",256,62,1967
Saline Valley Fire Protection District Station 1,1771 Springdale Boulevard,Fenton,63026,Jefferson,636-343-9300,Mon - Sun 7:00am to 7:00pm,"(38.478452, -90.441508)",255,62,1967
Maries County Library - Vienna,315 Third Street,Vienna,65582,Maries,573-422-9866,"Tue, Wed, Fri 1:00pm to 5:00pm
Thu 1:00pm to 7:00pm
Sat 9:00am to 1:00pm","(38.184855, -91.947074)",282,65,531
Miller Branch Library,112 East Main Street,Miller,65707,Lawrence,417-452-3466,"Tue, Wed and Fri 9:00am to 12:30pm and 1:00pm to 5:00pm","(37.214803, -93.84101)",394,97,528
Richland Library,111 West Camden Avenue,Richland,65556,Pulaski,573-765-3642,"Tue 9:00am to 7:00pm
Wed and Thu 9:00am to 6:00pm
Fri 9:00am to 5:00pm
Sat 9:00am to 1:00pm","(37.857378, -92.403818)",468,75,2171
Shannon County Health Center,18018 Grey Jones Drive,Eminence,65466,Shannon,573-226-3914,"Mon-Fri - 7:30am to 4:00pm
First Tuesday of the month - 7:30am to 6:00pm","(37.147828, -91.356922)",379,92,542
State of Illinois: Department of Human Services St. Clair County East St. Louis Family Center,225 North 9th Street,East Saint Louis,62201,St Clair,618-583-2300,Mon-Fri - 8:30am to 5:00pm,"(38.623309, -90.154299)",,,1797
Sedalia Senior Center,1800 W. 3rd St.,Sedalia,65301,Pettis,660-826-0713,Mon-Fri - 8:00am to 4:00pm,"(38.709571, -93.247736)",201,50,535
Houston Senior Center,301 S. Grand,Houston,65483,Texas,417-967-4119,Mon-Fri - 8:00am to 3:30pm,"(37.324914, -91.956678)",377,88,544
St. Louis County Library Grand Glaize Branch,1010 Meramec Station Rd,Ballwin,63021,St Louis,314-994-3300,"Mon-Thu - 9:00am to 9:00pm
Fri and Sat - 9:00am to 5:00pm
Sun - 1:00pm to 5:00pm","(38.570639, -90.497736)",208,51,2210
Carthage Public Library,612 South Garrison,Carthage,64836,Jasper,417-237-7040,"Mon - Tue 9:00am to 5:00pm
Wed - Fri 9:00am to 5:00pm
Sat 9:00am to 4:00pm","(37.174302, -94.313651)",398,94,1966
Salvation Army of St. Clair County,20 Glory Place,Belleville,62226,St Clair,618-235-7378,Mon-Thu - 9:00am to 12:00pm (noon) and 1:00pm to 4:00pm,"(38.528868, -90.012249)",,,1797
Montgomery City Library,224 North Allen Street,Montgomery City,63361,Montgomery,573-564-8022,"Mon-Thu - 8:30am to 6:00pm
Fri - 8:30am to 5:00pm
Sat - 9:00am to 1:00pm","(38.977779, -91.506307)",154,44,533
Cooling/Warming Center - Ray County Fellowship Center,1015 W Royle,Richmond,64085,Ray,816-470-5808,M-F 8am-4pm  Hours may be extended during extreme weather,"(39.27316, -93.989794)",116,34,2174
Westside Senior Center,1501 Highway O,Laurie,65038,Morgan,573-372-3588,Mon-Fri - 8:00am to 4:00pm,"(38.220871, -92.801721)",245,57,2127
City of Southwest City,302 South Main,Southwest City,64863,McDonald,417-762-3767,Mon-Fri - 8:00am to 5:00pm,"(36.513599, -94.611278)",519,113,530
Webster County Library District Rogersville Branch,104 North Beatie Street,Rogersville,65742,Webster,417-753-3220,"Mon, Wed - 10:00am to 6:00pm
Tue, Thu - 10:00am to 7:00pm
Fri - 10:00am to 5:00pm
Sat 10:00am - 2:00pm","(37.118993, -93.056764)",475,91,2221
Caruthersville Public Library,707 West 13th Street,Caruthersville,63830,Pemiscot,573-333-2480,"Mon, Wed, Thur, Fri 9:30am-5:30pm
Tue 9:30am to 7:30pm
Sat 9:30am to 1:30pm
Sun 1:00pm to 4:00pm","(36.184663, -89.664888)",555,115,2167
YMCA - Platte County Community Center South,8875 Clark Ave,Parkville,64152,Platte,816-505-2622,M-Th 5am-9pm; F 5am-8pm; Sa 7am-6pm; Su 10am-5pm,"(39.206186, -94.68444)",132,35,2170
Vandalia Branch Library,312 South Main,Vandalia,63382,Audrain,573-594-6600,"Mon-Fri - 9:00am to 5:30pm
- Sat - 9:00am to 1:00pm","(39.307721, -91.485962)",120,37,510
Waynesville/St. Roberts Senior Center,1401A Ousley Rd,Waynesville,65583,Pulaski,573-774-2668,Mon-Fri - 8:00am to 2:00pm,"(37.82727, -92.187891)",5,75,2171
Eminence Senior Center,108 Grey Jones,Eminence,65466,Shannon,573-226-3839,Mon-Fri - 8:00am to 3:30pm,"(37.148596, -91.357285)",379,92,542
Dulany Memorial Library,101 North Main,Paris,65275,Monroe,660-327-4707,"Mon, Tue, Fri - 12:00pm (noon) to 5:00pm
- Tue - 9:30pm to 5:00pm
- Thu - 12:00pm (noon) to 7:00pm
- Sat - 9:00am to 12:00pm (noon)","(39.480863, -92.000553)",101,30,2126
Seymour Community Library,320 East Clinton Avenue,Seymour,65746,Webster,417-935-4193,"Mon - Fri 9:00am to 6:00pm
Sat 9:00am to 1:00pm","(37.149289, -92.76371)",397,91,2221
Six Mile Regional Library,2001 Delmar Avenue,Granite City,62040,Madison,618-452-6238,"- Mon - 9:00am to 6:00pm 
- Tue, Wed and Thurs - 11:00am to 8:00pm 
- Fri and Sat - 9:00am to 6:00pm","(38.702342, -90.149748)",,,1749
Fairmont City Hall,2601 North 41st Street,East Saint Louis,62201,St Clair,618-274-4504,Mon-Fri - 8:00am to 4:00pm,"(38.645515, -90.107979)",,,1797
Covenant House Missouri,2727 North Kingshighway Boulevard,Saint Louis,63113,St Louis City,314-533-2241,Mon - Fri 3:00pm to 6:00pm,"(38.669726, -90.257015)",200,54,2223
Oak Street Health - State Street,2420 State St.,East St Louis,62205,St Clair,618-732-2428,Mon-Fri - 8:00am to 5:00pm,"(38.61447977, -90.12597796)",,,1797
Jefferson County Library District - Windsor Branch Library,7479 Metropolitan Boulevard,Barnhart,63012,Jefferson,636-461-1914,"Mon-Thu - 9:00am to 9:00pm
Fri - 9:00am to 6:00pm
Sat - 9:00am to 5:00pm","(38.331668, -90.401121)",265,62,1967
Hope Faith - Cooling Site,705 Virginia Ave,Kansas City,64106,Jackson,816-471-4673,Mon - Sat 7:30am to 2:00pm,"(39.105206, -94.565858)",151,43,525
Park Central Branch Library,128 Park Central Square,Springfield,65806,Greene,417-831-1342,Mon-Sat - 8:30am to 6:00pm,"(37.208528, -93.292748)",493,93,1960
Strafford Branch Library,101 South State Highway 125,Strafford,65757,Greene,417-736-9233,Mon-Sat - 8:30am to 6:00pm,"(37.27092, -93.114218)",387,93,1960
South Side Senior Center,2215 South Fremont,Springfield,65804,Greene,417-890-1313,Mon-Fri - 8:00am to 3:30pm,"(37.173355, -93.272042)",493,93,1960
St. Louis County Library Mid County Branch,7821 Maryland Avenue,Saint Louis,63105,St. Louis,314-994-3300,"Mon-Thu - 9:00am to 9:00pm
Fri and Sat - 9:00am to 5:00pm","(38.65204, -90.337615)",223,51,2210
Silver Strands Senior Center,133 West State Street,Palmyra,62674,Macoupin,217-436-2497,Mon-Fri - 8:00am to 1:00pm,"(39.434465, -89.996226)",,,1748
Marshall Senior Center,14 E. Morgan,Marshall,65340,Saline,660-886-9888,Mon-Fri 8:00am to 2:00pm,"(39.119255, -93.19679)",148,38,2211
Alton Multi-Purpose Senior Center,204 South Main Street,Alton,65606,Oregon,417-778-7342,Mon-Fri - 8:00am to 3:30pm,"(36.692842, -91.397645)",454,109,534
Lesterville Library,33285 Highway 21,Lesterville,63654,Reynolds,573-637-2532,"Tue and Thu - 8:00am to 12:00pm (noon) and 12:30pm to 4:30pm
Wed - 8:00am to 12:00pm (noon)","(37.453912, -90.846764)",359,87,2175
Joplin Senior Center,2616 S. Picher Ave.,Joplin,64804,Jasper,417-781-9353,"7:30 am to 3:30 pm, lunch served at 11:30 M-F","(37.066833, -94.522554)",490,94,1966
City of Sugar Creek - Mike Onka Memorial Building,11520 Putnam,Sugar Creek,64054,Jackson,816-252-4400,M-F 9am-5pm,"(39.118672, -94.438571)",463,43,525
Nevada Public Library,212 West Walnut Street,Nevada,64772,Vernon,417-448-2770,"Mon, Wed and Fri 9:00am to 5:00pm
Tue and Thu 9:00am to 8:00pm
Sat 9:00am to 1:00pm","(37.839433, -94.358203)",313,73,2218
Lockwood Public Library,721 South Main,Lockwood,65682,Dade,417-232-4204,Mon - Fri 9:00am to 5:00pm,"(37.386371, -93.953472)",361,89,518
Lebanon Laclede County Library,915 S. Jefferson Ave.,Lebanon,65536,Laclede,417-532-2148,"Mon - Thu 10:00am to 6:00pm
Fri and Sat 10:00am to 5:00pm","(37.67209, -92.65558)",495,79,2008
Oregon County Health Department Alton,4 Court Square,Alton,65606,Oregon,417-778-7450,Mon-Fri - 8:00am to 4:00pm [Closed 12:00pm (Noon) to 1:00pm for Lunch],"(36.693871, -91.398097)",454,109,534
Phelps Maries County Health Department,200 North Main,Rolla,65401,Phelps,573-458-6010,Mon-Fri - 8:00am to 5:00pm,"(37.945824, -91.774011)",307,70,536
Carter County Health Center,1611 Health Center Drive,Van Buren,63965,Carter,573-323-4413,Mon-Thurs 7:30am to 5:30pm,"(37.008976, -90.999432)",416,100,514
Valley Park Library,55 2nd Street,Valley Park,63088,St Louis,636-225-5608,"Mon-Wed - 10:00am to 6:00pm
Thu - 10:00am to 7:00pm
Fri - 10:00am to 5:00pm
Sat - 10:00am to 2:00pm","(38.5505, -90.489474)",242,51,2210
Five Star Senior Center SLAAA,2832 Arsenal Street,Saint Louis,63118,Saint Louis City,314-664-1008,Mon-Fri - 8:00am to 3:00pm,"(38.600411, -90.230065)",200,54,2223
Marceline Carnegie Library,119 East California Avenue,Marceline,64658,Livingston,660-376-3223,Mon-Fri - 9:00am to 5:00pm,"(39.715841, -92.948523)",80,21,529
Jefferson County Health Department Hillsboro,405 Main Street,Hillsboro,63050,Jefferson,636-797-3737,Mon-Fri - 8:00am to 5:30pm,"(38.232245, -90.564742)",268,62,1967
St. Charles City County Library District Library Express at Winghaven,7435 Village Center Drive,O Fallon,63368,St Charles,636-561-3385,"Mon-Thu - 9:00am to 7:00pm
Fri and Sat - 9:00am to 5:00pm","(38.74315, -90.73484)",173,48,2177
Korth Senior Center,309 West Englewood,Stockton,65785,Cedar,417-276-5306,Mon-Fri - 9:00am to 3:00pm,"(37.68724, -93.800808)",332,77,2698
Joplin Public Library,1901 E 20th St,Joplin,64804,Jasper,417-623-7953,Sun 1:00pm to 5:00pm; Mon and Wed 9:00am to 6:00pm; Tue and Thurs 9:00am to 8:00pm; Fri and Sat 9:00am to 5:00pm,"(37.069639, -94.49367)",490,94,1966
Wood River Roundhouse Wood River Parks and Recreation,633 N Wood River Ave,Wood River,62095,Madison,618-251-3130,"Mon-Fri - 8:00am to 5:00pm
Closed 12:00pm (Noon) to 1:00pm for lunch","(38.868717, -90.097979)",,,1749
Warrensburg Senior Center,"445 E. Gay, Suite 128",Warrensburg,64093,Johnson,660-747-2624,Mon-Fri - 8:00am to 3:00pm,"(38.765343, -93.726699)",185,49,526
Southern Boone County Public Library,109 North Main,Ashland,65010,Boone,573-657-7378,"Mon-Thu - 9:00am to 7:00pm
- Fri - 9:00am to 6:00pm
- Sat - 9:00am to 3:00pm","(38.775447, -92.262593)",194,40,2691
Park Hills Public Library,16 South Coffman Street,Park Hills,63601,St Francois,573-431-4842,"Mon and Tue 10:00am to 7:00pm
Wed - Fri 11:00am to 5:00pm
Sat 9:00am to 12:00pm (noon) (Only through the school year)","(37.850586, -90.521138)",321,74,540
Dade County Library,209 South Main Street,Greenfield,65661,Dade,417-637-5334,Call for information,"(37.413205, -93.840486)",362,89,518
"Community Services, Inc. Nodaway County",1212 B South Main Street,Maryville,64468,Nodaway,660-582-3113,Mon-Fri - 8:00am to 4:30pm,"(40.333529, -94.874276)",1,5,2130
Worth County Library,510 East Avenue,Grant City,64456,Worth,660-564-2655,Mon-Fri - 1:30pm to 5:30pm,"(40.484109, -94.406653)",16,7,2222
St. Louis Public Library Carpenter Branch,3309 S Grand Blvd,Saint Louis,63118,St Louis City,314-772-6586,"Mon-Thu – 9:00am to 8:00pm
Fri and Sat - 9:00am to 5:00pm
Sun - 1:00pm to 5:00pm

In addition to in-building service, Curbside Pickup, will continue to be offered","(38.596571, -90.243452)",200,54,2223
Ozarks Regional YMCA - Monett Area YMCA,115 South Lincoln Avenue,Monett,65708,Barry,417-235-8213,Mon-Fri - 6:00am to 1:00pm and 3:00pm to 8:00pm,"(36.909655, -93.926848)",429,107,2649
Crane Library Branch,201 Main Street,Crane,65633,Stone,417-723-8261,"Mon, Tue, Thu Fri - 9:00am to 6:00pm; Wed 9:00am to 5:00pm; Sat 9:00am to 1:00pm","(36.905027, -93.572647)",442,105,2216
Webster County Library District,219 West Jackson Street,Marshfield,65706,Webster,417-859-5679,"Mon, Wed - 9:00am to 6:00pm
Tue, Thu - 9:00am to 8:00pm
Fri, Sat - 9:00am to 5:00pm","(37.337871, -92.908231)",371,91,2221
Aging Ahead Washington Senior Center,1459 West Fifth Street,Washington,63090,Franklin,800-243-6060,Mon-Fri - 9:00am to 3:00pm,"(38.555372, -91.033134)",220,59,1958
Cape Girardeau Public Library,711 North Clark,Cape Girardeau,63701,Cape Girardeau,573-334-5279,"Mon-Thu - 9:00am to 9:00pm 
Fri-Sat - 9:00am to 5:00pm
Sun - 1:00pm to 5:00pm","(37.314643, -89.54763)",382,86,2695
"Linwood YMCA/James B. Nutter, Sr. Community Center",3800 E Linwood Blvd,Kansas City,64128,Jackson,816-923-5675,M-Th 6am-8pm; F 6am-7pm; Sa-Su 9am-3pm,"(39.067618, -94.538783)",151,43,525
Mexico Senior Center,606 East Park Street,Mexico,65265,Audrain,573-581-7743,Mon-Fri - 8:00am to 4:00pm,"(39.165406, -91.878216)",127,37,510
Kirkwood Public Library,140 East Jefferson Avenue,Saint Louis,63122,St Louis,314-821-5770,"Mon-Thu - 9:00am to 9:00pm
 Fri and Sat - 9:00am to 5:00pm
 Sun - 1:00pm to 5:00pm","(38.582037, -90.404552)",229,51,2210
