"company_name","ban","cgdc","rd","substance_abuse","lcsw","lpc","mft","lmsw","plpc","psychiatric_nurse_practitioner","psychiatrist","psychologist","alcohol_and_substance_abuse","anger_management","child_adolescent","compulsive_gambling","domestic_violence","eating_disorder","faith_based","family_marriage","general_mental_health","post_traumatic_stress","sexual_assault","suicide_prevention","traumatic_brain_injury","telehealth","website","phone_number","zip_code","country","tricare","military_culture","admin_notes","location_1","suite_no"
"New Leaf Counseling Center","No","No","No","No","No","No","No","No","No","No","No","Yes","Yes","Yes","No","No","No","No","Yes","Yes","Yes","Yes","No","No","Yes","Yes","https://www.newleafcounseling.org","8162906409","64112","United States","No","Not yet, but I would like to work with the military community",,"435 Nichols Rd
Kansas City, Missouri 64112
(39.041259, -94.593226)","Suite 2nd floor"
"Rediscover","No","No","No","No","No","Yes","No","No","No","No","No","No","Yes","Yes","No","No","No","No","No","No","Yes","No","No","Yes","No","Yes","http://www.rediscovermh.org","8169651126","64127","United States","Yes","Not yet, but I would like to work with the military community",,"2659 Peery Ave
Kansas City, Missouri 64127
(39.0993231, -94.5505965)",
"Lindsey Therapy Group","No","No","No","No","Yes","No","No","No","No","No","No","No","No","No","Yes","No","Yes","No","No","Yes","Yes","No","No","No","No","No",,"6369222000","63303","United States","Yes","Not yet, but I would like to work with the military community",,"2536 Old Highway 94 S.
St. Charles, Missouri 63303
(38.744917, -90.581045)","Suite 220"
"Eileen Long LCSW LLC","No","No","No","No","Yes","No","No","No","No","No","No","No","No","No","No","No","No","No","Yes","No","Yes","Yes","No","No","Yes","Yes",,"5734241108","65109","United States","No","Yes, I have training in military culture",,"1001 Southwest Blvd
Jefferson City, Missouri 65109
(38.573328, -92.199361)",
"Washington Avenue VA Clinic","No","No","No","No","No","No","No","No","No","No","No","No","No","No","No","No","No","No","No","No","Yes","No","No","No","No","Yes","https://www.va.gov/st-louis-health-care/locations/washington-avenue-va-clinic/","3146524100","63103","United States","Yes","Yes, I have training in military culture",,"2727 Washington Avenue
St. Louis, Missouri 63103
(38.635761, -90.216991)",
"Compass Health Network","No","No","No","No","No","No","No","No","No","No","No","No","Yes","No","No","No","No","No","No","No","Yes","No","No","No","No","No","https://compasshealthnetwork.org/","8448538937","65251","United States","Yes","Not yet, but I would like to work with the military community",,"2625 Fairway Drive
Fulton, Missouri 65251
(38.87998, -91.965483)",
"New Beginnings Counseling Services LLC","No","No","No","No","No","Yes","No","No","No","No","No","No","No","No","No","No","No","No","No","Yes","Yes","Yes","No","No","No","Yes",,"5735579795","65049","United States","No","Yes, I have served in the military",,"2935 Bagnell Dam Blvd
Lake Ozark, Missouri 65049
(38.180564, -92.62769)","Suite 124"
"Arthur Center Community Health-Mexico","No","No","No","No","No","No","No","No","No","No","No","No","No","No","No","No","No","No","No","No","Yes","No","No","No","No","No","https://arthurcenter.com/","5735821234","65265","United States","No","Not yet, but I would like to work with the military community",,"340 Kelley Pkwy
Mexico, Missouri 65265
(39.146307, -91.887599)",
"Gilley Counseling, LLC","No","No","No","No","No","Yes","No","No","No","No","No","No","Yes","Yes","Yes","No","No","No","No","Yes","Yes","Yes","No","No","No","Yes","https://www.compassionatecounselingalliance.com/marty-gilley","8165144455","64064","United States","No","Not yet, but I would like to work with the military community",,"3720 NE Troon Dr
Lees Summit, Missouri 64064
(38.980817, -94.365301)",
"Traci Smith, LPC","No","No","No","No","No","Yes","No","No","No","No","No","No","No","Yes","Yes","No","No","No","No","Yes","Yes","No","No","No","No","No","http://www.tracismithlpc.webs.com","8169220202","64068","United States","No","Not yet, but I would like to work with the military community",,"9 Victory Drive
Liberty, Missouri 64068
(39.243177, -94.448606)","Suite 1A"
"Preferred Family Healthcare (Adolescent)","No","No","No","No","No","No","No","No","No","No","No","No","Yes","No","No","No","No","No","No","No","No","No","No","No","No","No","http://pfh.org/","6363325835","63376","United States","Yes","Not yet, but I would like to work with the military community",,"2120 Parkway Dr
St. Peters, Missouri 63376
(38.79813, -90.572699)",
"COMTREA","No","No","No","No","No","No","No","No","No","No","No","No","Yes","No","No","No","No","No","No","No","Yes","No","No","No","No","No","https://www.comtrea.org/","6362966206","63010","United States","Yes","Not yet, but I would like to work with the military community",,"21 Municipal Drive
Arnold, Missouri 63010
(38.444966, -90.403393)",
"St. Louis County VA Clinic","No","No","No","No","No","No","No","No","No","No","No","No","No","No","No","No","No","No","No","No","Yes","No","No","No","No","Yes","https://www.va.gov/st-louis-health-care/locations/st-louis-county-va-clinic/","3146524100","63033","United States","Yes","Yes, I have training in military culture",,"6854 Parker Road
Florissant, Missouri 63033
(38.796198, -90.234157)",
"Southeast Missouri Behavioral Health","No","Yes","No","No","No","No","No","No","No","No","No","No","Yes","No","No","Yes","No","No","No","No","No","No","No","No","No","No","https://semobh.org/","5736865090","63901","United States","No","Not yet, but I would like to work with the military community",,"308 Vine St.
Poplar Bluff, Missouri 63901
(36.756228, -90.393069)",
"White Oak Psychiatric Services","No","No","No","No","No","No","No","No","No","No","Yes","No","Yes","Yes","No","No","No","Yes","No","No","Yes","Yes","No","Yes","Yes","Yes",,"8168862184","64064","United States","Yes","Not yet, but I would like to work with the military community",,"4045 NE Lakewood Way
Lee's Summit, Missouri 64064
(38.985697, -94.355187)","Suite 130"
"Towina M. Jones, LLC","No","No","No","No","No","Yes","No","No","No","No","No","No","No","No","No","No","No","No","Yes","No","No","No","No","No","No","Yes","www.towinamjones.com","3142391007","63873","United States","No","Not yet, but I would like to work with the military community",,"
Portageville, Missouri 63873
(36.42961, -89.70062)",
"Sandhill Counseling & Consultation","No","No","No","No","Yes","No","No","No","No","No","No","No","No","Yes","No","No","No","No","No","Yes","Yes","Yes","No","No","No","Yes","http://www.sandhillcounseling.com/geoffschaefer.html","6363791779","63366","United States","No","Not yet, but I would like to work with the military community",,"801 S Woodlawn Ave
O'Fallon, Missouri 63366
(38.800374, -90.705753)","Suite 15"
"Brave Counseling & Wellness","No","No","No","No","No","Yes","No","No","No","No","No","No","Yes","Yes","Yes","No","Yes","Yes","No","Yes","Yes","Yes","Yes","Yes","No","No","https://brave-mo.com/","5738256441","65201","United States","No","Not yet, but I would like to work with the military community",,"3610 Buttonwood Dr
Columbia, Missouri 65201
(38.910633, -92.329625)","Suite 200"
"Joyce Coleman, LCSW","No","No","No","No","Yes","No","No","No","No","No","No","No","No","No","No","No","No","No","No","Yes","Yes","No","No","No","No","Yes",,"3145093310","63168","United States","No","Not yet, but I would like to work with the military community",,"1810 Criag Rd
St. Louis, Missouri 63168
(38.692167, -90.443613)","Suite 203"
"Solution-Focused Counseling","No","No","No","No","No","Yes","No","No","No","No","No","No","Yes","Yes","Yes","No","Yes","Yes","Yes","Yes","Yes","Yes","Yes","Yes","Yes","Yes","www.solution-focusedcounseling.com","5736834472","63823","United States","Yes","Not yet, but I would like to work with the military community",,"3251 West 404th Road
Bertrand, Missouri 63823
(36.90269, -89.439041)",
"Enlitens, LLC","No","No","No","No","No","No","No","No","Yes","No","No","No","Yes","Yes","Yes","Yes","Yes","Yes","Yes","Yes","Yes","Yes","Yes","Yes","Yes","Yes","https://www.enlitens.com","4053610659","63128","United States","No","Yes, I have training in military culture",,"13023 Tesson Ferry Rd
St. Louis, Missouri 63128
(38.494378, -90.383657)",
"Integrative NeuroCounseling","No","No","No","No","No","Yes","No","No","No","No","No","No","No","Yes","No","No","No","No","No","Yes","Yes","Yes","No","No","No","No","http://nicholeoliverlpc.com","3145666160","63005","United States","No","Not yet, but I would like to work with the military community",,"17295 Chesterfield Airport Rd
Chesterfield, Missouri 63005
(38.66904, -90.59857)","Suite 260"
"Southeast Missouri Behavioral Health","No","Yes","No","No","No","No","No","No","No","No","No","No","Yes","No","No","Yes","No","No","No","No","No","No","No","No","No","No","https://semobh.org/","5734338455","65584","United States","No","Not yet, but I would like to work with the military community",,"881 Old Rt. 66
St. Robert, Missouri 65584
(37.82628, -92.171528)",
"Open Arms Wellness","No","No","No","No","No","Yes","No","No","No","No","No","No","Yes","Yes","Yes","No","No","No","No","No","Yes","Yes","Yes","Yes","No","Yes","https://www.psychologytoday.com/us/therapists/brittni-nicole-collins-clayton-mo/812765","3145289098","63144","United States","No","Not yet, but I would like to work with the military community",,"8949 Manchester Rd
Brentwood, Missouri 63144
(38.612791, -90.352591)",
"Ozarks Healthcare Mountain Grove","No","No","No","No","No","No","No","No","No","No","No","No","No","No","No","No","No","No","No","No","Yes","No","No","No","No","No","www.ozarkshealthcare.com","4179266563","65711","United States",,"Not yet, but I would like to work with the military community",,"500 E 19th Street
Mountain Grove, Missouri 65711
(37.145913, -92.258843)",
"Missouri Ozarks Community Health","No","No","No","No","No","No","No","Yes","No","No","No","No","Yes","Yes","Yes","No","No","No","No","No","Yes","Yes","Yes","Yes","No","No","https://mo-ozarks.org/cpt-clinic/ava-clinic/","4176835793","65608","United States","No","Not yet, but I would like to work with the military community",,"504 W Broadway Ave
Ava, Missouri 65608
(36.959288, -92.66604)",
"Mefford, Vuagniaux & Associates, P. C.","No","No","No","No","No","Yes","No","No","No","No","No","No","No","Yes","Yes","No","Yes","Yes","Yes","Yes","Yes","Yes","Yes","Yes","No","Yes","http://meffordvuagniaux.com","6608262380","65301","United States","Yes","Not yet, but I would like to work with the military community",,"121 East Broadway Blvd
Sedalia, Missouri 65301
(38.70458, -93.227532)",
"Southeast Missouri Behavioral Health","No","Yes","No","No","No","No","No","No","No","No","No","No","Yes","No","No","Yes","No","No","No","No","No","No","No","No","No","No","https://semobh.org/","5739965017","63935","United States","No","Not yet, but I would like to work with the military community",,"104A Washington St
Doniphan, Missouri 63935
(36.617564, -90.825842)",
"Kathryn Stinson, LPC","No","No","No","No","No","Yes","No","No","No","No","No","No","No","No","No","No","No","No","No","No","Yes","Yes","Yes","No","No","No","https://www.kathrynstinson.com/","3148276803","63143","United States","No","Yes, I have training in military culture",,"2104 Bellevue Ave
St. Louis, Missouri 63143
(38.620395, -90.313597)",
"Allcare Counseling, LLC","No","No","No","No","Yes","No","No","No","No","No","No","No","No","Yes","Yes","No","No","No","Yes","Yes","Yes","Yes","No","No","No","Yes",,"5736360025","65109","United States","Yes","Not yet, but I would like to work with the military community",,"1001 Southwest Blvd
Jefferson City, Missouri 65109
(38.573356, -92.199344)","Suite F"
"Associates In Caring","No","No","No","No","No","Yes","No","No","No","No","No","No","Yes","Yes","Yes","No","No","No","No","Yes","Yes","Yes","No","No","No","Yes","http://www.associatesincaring.org","4172349023","65804","United States","No","Yes, I have served in the military",,"2200 E Sunshine
Springfield, Missouri 65804
(37.180826, -93.251532)","Suite 310"
"Preferred Family Healthcare","No","No","No","No","No","No","No","No","No","No","No","No","Yes","No","No","No","No","No","No","No","No","No","No","No","No","No","http://pfh.org/","6362241500","63383","United States","Yes","Not yet, but I would like to work with the military community",,"1206 E Veterans Pkwy
Warrenton, Missouri 63383
(38.818313, -91.13048)","Suite A"
"Happy Brain Counseling LLC","No","No","No","No","No","Yes","No","No","Yes","No","No","No","Yes","Yes","Yes","No","Yes","No","Yes","Yes","Yes","Yes","Yes","Yes","No","Yes","http://www.happy-brain.com","3145029072","63122","United States","No","Not yet, but I would like to work with the military community",,"12203 Big Bend Rd
Kirkwood, Missouri 63122
(38.56762, -90.435113)","Suite 101"
"Calm Day Counseling, LLC","No","No","Yes","No","No","Yes","No","No","No","No","No","No","Yes","Yes","Yes","No","Yes","Yes","No","Yes","Yes","Yes","Yes","Yes","No","No","http://www.compassionatecounselingalliance.com","8168460086","64093","United States","No","Not yet, but I would like to work with the military community",,"598 SE DD Hwy
Warrensburg, Missouri 64093
(38.742221, -93.633194)","Suite 1"
"Kirksville VA Clinic","No","No","No","No","No","No","No","No","No","No","No","No","No","No","No","No","No","No","No","No","Yes","No","No","No","No","Yes","https://www.va.gov/columbia-missouri-health-care/locations/kirksville-va-clinic/","6606278387","63501","United States","Yes","Yes, I have training in military culture",,"506 Rosewood Drive
Kirksville, Missouri 63501
(40.208939, -92.580685)",
"Salicia Mazero, MA, LPC, ATR, CEDS","No","No","No","No","No","Yes","No","No","No","No","No","No","No","No","No","No","No","Yes","No","No","No","No","No","No","No","Yes","www.Creatingyourjourneyllc.com","3143295374","63122","United States","No","Not yet, but I would like to work with the military community",,"140 Prospect Ave
Kirkwood, Missouri 63122
(38.567432, -90.408691)","Suite S"
"Clear Path Counseling, LLC","No","No","No","No","No","Yes","No","No","No","No","No","No","Yes","Yes","Yes","No","Yes","Yes","No","Yes","Yes","Yes","Yes","Yes","No","No",,"4172680045","65802","United States","Yes","Not yet, but I would like to work with the military community",,"1330 E Cherry Street
Springfield, Missouri 65802
(37.203478, -93.272454)","Suite 206"
"North Central Missouri Mental Health Center","No","No","No","No","No","No","No","No","No","No","No","No","No","No","No","No","No","No","No","No","Yes","No","No","No","No","No","http://www.ncmmh.org/index.html","6603594487","64628","United States","No","Not yet, but I would like to work with the military community",,"1102 W Helm St
Brookfield, Missouri 64628
(39.781233, -93.095943)",
"Felix Vincenz","No","No","No","No","No","No","No","No","No","No","No","Yes","Yes","Yes","No","No","Yes","No","No","Yes","No","Yes","No","No","No","Yes","http://www.creativechangestl.com/","3149627788","63139","United States","No","Yes, I have training in military culture",,"8772 Big Bend Blvd.
Webster Groves, Missouri 63139
(38.58203, -90.359898)",
"Community Counseling Center of Ste. Genevieve County","No","No","No","No","No","No","No","No","No","No","No","No","No","No","No","No","No","No","No","Yes","Yes","No","No","No","No","No","http://www.cccntr.com","5738837407","63670","United States","Yes","Not yet, but I would like to work with the military community",,"820 Park Drive
Ste. Genevieve, Missouri 63670
(37.970531, -90.052123)",
"Bonnie Rudden, LPC","No","No","No","No","No","Yes","No","No","No","No","No","No","No","Yes","Yes","No","Yes","No","No","Yes","Yes","No","No","No","No","Yes",,"3144124281","63131","United States","No","Not yet, but I would like to work with the military community",,"13422 Clayton Rd
St. Louis, Missouri 63131
(38.626711, -90.481269)","Suite 202"
"Preferred Family Healthcare","No","No","No","No","No","No","No","No","No","No","No","No","Yes","No","No","No","No","No","No","No","No","No","No","No","No","No","http://pfh.org/","6607271111","63445","United States","Yes","Not yet, but I would like to work with the military community",,"137 West Cedar St
Kahoka, Missouri 63445
(40.417672, -91.720221)",
"Preferred Family Healthcare","No","No","No","No","No","No","No","No","No","No","No","No","Yes","No","No","No","No","No","No","No","Yes","No","No","No","No","No","http://pfh.org/","6606651962","63501","United States","Yes","Not yet, but I would like to work with the military community",,"1101 S. Jamison St
Kirksville, Missouri 63501
(40.187523, -92.556777)",
"Ozarks Healthcare Thayer","No","No","No","No","No","No","No","No","No","No","No","No","No","No","No","No","No","No","No","No","Yes","No","No","No","No","No","www.ozarkshealthcare.com","4172647136","65791","United States",,"Not yet, but I would like to work with the military community",,"1375 Nettleton Ave
Thayer, Missouri 65791
(36.512498, -91.54458)",
"St. Charles County VA Clinic","No","No","No","No","No","No","No","No","No","No","No","No","No","No","No","No","No","No","No","No","Yes","No","No","No","No","Yes","https://www.va.gov/st-louis-health-care/locations/st-charles-county-va-clinic/","3146524100","63368","United States","Yes","Yes, I have training in military culture",,"844 Waterbury Falls Drive
O'Fallon, Missouri 63368
(38.720875, -90.696998)",
"BJC Behavioral Health","No","No","No","No","No","No","No","No","No","No","No","No","Yes","No","No","No","No","No","No","No","Yes","No","No","No","No","No","www.bjcbehavioralhealth.org","5737565353","63640","United States",,"Not yet, but I would like to work with the military community",,"1085 Maple Street
Farmington, Missouri 63640
(37.787908, -90.437997)",
"Columbia Psychology Healing Center LLC","No","No","No","No","No","No","No","No","No","No","Yes","No","No","No","Yes","No","No","No","Yes","No","Yes","Yes","Yes","Yes","No","Yes","http://columbiapsychology.com","5738187010","65202","United States","No","Yes, I have training in military culture",,"1900 N. Providence Rd
Columbia, Missouri 65202
(38.972392, -92.333447)","Suite 327"
"Focused Concentration LLC","No","No","No","No","No","Yes","No","No","No","No","No","No","Yes","Yes","No","No","Yes","No","No","Yes","Yes","Yes","Yes","Yes","No","Yes","http://www.focusedconcentration.com","8162244400","64111","United States","No","Not yet, but I would like to work with the military community",,"4049 Pennsylvania Street
Kansas City, Missouri 64111
(39.053549, -94.591505)","Suite 200"
"Lafayette House","No","No","No","No","No","No","No","No","No","No","No","No","No","No","No","No","Yes","No","No","No","Yes","Yes","No","No","No","Yes",,"4177821772","64804","United States","No","Not yet, but I would like to work with the military community",,"1809 S. Connor Ave
Joplin, Missouri 64804
(37.072017, -94.523117)",
"Southeast Missouri Behavioral Health","No","Yes","No","No","No","Yes","No","No","No","No","No","No","Yes","Yes","Yes","Yes","No","No","No","Yes","Yes","Yes","No","No","No","No","http://semobh.org/","5737565749","63640","United States","No","Not yet, but I would like to work with the military community",,"5536 Highway 32 East
Farmington, Missouri 63640
(37.77916, -90.385667)",
"Jay Musgrave, PhD, LPC","No","No","No","No","No","Yes","No","No","No","No","No","No","Yes","Yes","Yes","No","Yes","No","Yes","Yes","Yes","Yes","No","Yes","No","Yes",,"5736514206","63845","United States","No","Yes, I have training in military culture",,"202 E Chestnut
East Prairie, Missouri 63845
(36.779836, -89.384227)",
"Compass Health Network","No","No","No","No","No","No","No","No","No","No","No","No","Yes","No","No","No","No","No","No","No","Yes","No","No","No","No","No","https://compasshealthnetwork.org/","8448538937","64772","United States","Yes","Not yet, but I would like to work with the military community",,"320 N Mac Boulevard
Nevada, Missouri 64772
(37.838415, -94.328703)",
"A New Direction Counseling/Jama Anthony-Petter, LCSW","No","No","No","No","Yes","No","No","No","No","No","No","No","No","No","Yes","No","No","No","Yes","Yes","Yes","No","No","No","No","No",,"3149713051","63122","United States","No","Not yet, but I would like to work with the military community",,"11042 Manchester Rd
Kirkwood, Missouri 63122
(38.598959, -90.413185)",
"Ozark Center","No","No","No","No","No","No","No","No","No","No","No","No","Yes","No","No","No","No","No","No","No","Yes","No","No","No","No","No","https://www.freemanhealth.com/ozark-center","4173471111","64759","United States","Yes","Not yet, but I would like to work with the military community",,"307 W. 11th
Lamar, Missouri 64759
(37.494272, -94.280211)",
"Melissa M Williams ME.d, LPC","No","No","No","No","No","Yes","No","No","No","No","No","No","No","Yes","Yes","No","No","No","Yes","Yes","Yes","Yes","No","No","No","No",,"5738748818","65202","United States","No","Yes, I have served in the military",,"1804 Heriford Rd
Columbia, Missouri 65202
(38.968195, -92.311148)",
"Rohrbach Services for Families","No","No","No","Yes","No","Yes","No","No","No","No","No","No","Yes","Yes","Yes","No","Yes","No","No","Yes","Yes","Yes","No","Yes","No","No","http://rohrbachservices.com/","4176191595","65613","United States","No","Not yet, but I would like to work with the military community",,"302 W. Jackson
Bolivar, Missouri 65613
(37.612632, -93.413168)",
"Carol Dyer","No","No","No","No","Yes","No","No","No","No","No","No","Yes","Yes","No","No","No","No","Yes","No","No","Yes","Yes","No","No","No","Yes","https://www.psychologytoday.com/us/therapists/carol-dyer-clayton-mo/159064?utm_source=PT_Psych_Today&amp;utm_medium=House_Link&amp;utm_campaign=PT_HomeTopB_Therapist","3146452055","63105","United States","No","Not yet, but I would like to work with the military community",,"225 S Meramec Ave
Clayton, Missouri 63105
(38.64662, -90.340176)","Suite 512"
"Mission Missouri","No","No","No","Yes","No","No","No","No","No","No","No","No","Yes","Yes","No","No","No","No","Yes","No","No","No","No","No","No","Yes","http://www.missionmissouri.org","5734810505","63801","United States","No","Yes, I have training in military culture",,"509 Ruth Street
Sikeston, Missouri 63801
(36.871395, -89.595376)",
"Vet Center-Columbia MO","No","No","No","No","No","No","No","No","No","No","No","No","No","No","No","No","No","No","No","Yes","Yes","No","No","No","No","Yes","https://www.va.gov/find-locations/facility/vc_0443V","5738146206","65202","United States","Yes","Yes, I have training in military culture",,"4040 Rangeline Street
Columbia, Missouri 65202
(38.991281, -92.325198)","Suite 105"
"Compass Health Network","No","No","No","No","No","No","No","No","No","No","No","No","Yes","No","No","No","No","No","No","No","Yes","No","No","No","No","No","https://compasshealthnetwork.org/","8448538937","64744","United States","Yes","Not yet, but I would like to work with the military community",,"107 W. Broadway Street
El Dorado, Missouri 64744
(37.878155, -94.022192)",
"Jefferson City VA Clinic","No","No","No","No","No","No","No","No","No","No","No","No","No","No","No","No","No","No","No","No","Yes","No","No","No","No","Yes","https://www.va.gov/columbia-missouri-health-care/locations/jefferson-city-va-clinic/","5736350233","65109","United States","Yes","Yes, I have training in military culture",,"3430 West Edgewood Drive
Jefferson City, Missouri 65109
(38.569302, -92.250262)",
"MO DHSS Brain Injury Service Coordinator","No","No","No","No","No","No","No","No","No","No","No","No","No","No","No","No","No","No","No","No","No","No","No","No","Yes","No","https://health.mo.gov/living/families/shcn/ahi.php","8165392144","64477","United States","No","Not yet, but I would like to work with the military community",,"106 Bush St
Plattsburg, Missouri 64477
(39.563809, -94.473778)",
"Gilley Counseling, LLC","No","No","No","No","No","Yes","No","No","No","No","No","No","Yes","Yes","Yes","No","No","No","No","Yes","Yes","Yes","No","No","No","Yes","https://www.compassionatecounselingalliance.com/marty-gilley","8165144455","64093","United States","No","Not yet, but I would like to work with the military community",,"598 SE DD Hwy
Warrensburg, Missouri 64093
(38.742187, -93.634078)","Suite 1"
"Franklin County VA Clinic","No","No","No","No","No","No","No","No","No","No","No","No","No","No","No","No","No","No","No","No","Yes","No","No","No","No","Yes","https://www.va.gov/st-louis-health-care/locations/franklin-county-va-clinic/","3146524100","63090","United States","Yes","Yes, I have training in military culture",,"1627 A Roy Drive
Washingtn, Missouri 63090
(38.540903, -90.99195)",
"Raymond T. Fezzi, LCSW","No","No","No","No","Yes","No","No","No","No","No","No","No","Yes","Yes","No","No","No","No","No","No","Yes","Yes","Yes","No","No","No","https://therapists.psychologytoday.com/rms/prof_detail.php?profid=53848&sid=1481239150.055_1233&zipcode=63123&ref=6&tr=ResultsName","3148949696","63123","United States","Yes","Yes, I have training in military culture",,"6220 S. Lindbergh Blvd
St. Louis, Missouri 63123
(38.515877, -90.340992)","Suite 201"
"Ryan Liberati, PhD LPC","No","No","No","No","No","Yes","No","No","No","No","No","No","No","Yes","Yes","No","No","No","No","Yes","Yes","No","No","No","No","No",,"3142520683","63118","United States","No","Not yet, but I would like to work with the military community",,"3115 South Grand Blvd
St. Louis, Missouri 63118
(38.602473, -90.242316)","Suite 450"
"Janice Hager-Klein","No","No","No","No","No","Yes","No","No","No","No","No","No","Yes","Yes","No","No","No","No","No","No","Yes","No","No","No","No","Yes","www.jhagerklein.com","3143132367","63366","United States","Yes","Yes, I have served in the military",,"801 S Woodlawn Ave
O'Fallon, Missouri 63366
(38.800264, -90.705921)","Suite 25"
"ThinkWell Counseling","No","No","No","No","No","Yes","No","No","No","No","No","No","No","No","Yes","No","No","No","No","Yes","Yes","No","No","No","No","Yes","thinkwellcounseling.com","3143285701","63146","United States","No","Not yet, but I would like to work with the military community",,"2055 Craigshire Road
St. Louis, Missouri 63146
(38.69572, -90.448701)","Suite 407"
"Compass Health Network","No","No","No","No","No","No","No","No","No","No","No","No","Yes","No","No","No","No","No","No","No","Yes","No","No","No","No","No","https://compasshealthnetwork.org/","8448538937","65203","United States","Yes","Not yet, but I would like to work with the military community",,"1000 W. Nifong
Columbia, Missouri 65203
(38.907725, -92.355443)","Suite 220B"
"COMTREA","No","No","No","No","No","No","No","No","No","No","No","No","Yes","No","No","No","No","No","No","No","Yes","No","No","No","No","No","https://www.comtrea.org/","6363760079","63049","United States","Yes","Not yet, but I would like to work with the military community",,"1817 Gravois Road
High Ridge, Missouri 63049
(38.482053, -90.505128)",
"Preferred Family Healthcare","No","No","No","No","No","No","No","No","No","No","No","No","Yes","No","No","No","No","No","No","No","No","No","No","No","No","No","http://pfh.org/","6602584188","64628","United States","Yes","Not yet, but I would like to work with the military community",,"1 Center Drive
Brookfield, Missouri 64628
(39.775597, -93.074725)","Suite 3"
"Compass Health Network","No","No","No","No","No","No","No","No","No","No","No","No","Yes","No","No","No","No","No","No","No","Yes","No","No","No","No","No","https://compasshealthnetwork.org/","8448538937","65536","United States","Yes","Not yet, but I would like to work with the military community",,"860 Lynn St
Lebanon, Missouri 65536
(37.695801, -92.667123)",
"Community Counseling Center","No","Yes","No","Yes","Yes","Yes","No","No","No","No","No","No","Yes","Yes","Yes","Yes","Yes","No","Yes","Yes","Yes","Yes","Yes","Yes","No","Yes","http://www.cccntr.com/","573334110","63703","United States","Yes","Yes, I have served in the military",,"402 South Silver Springs Road
Cape Girardeau, Missouri 63703
(37.292892, -89.566254)",
"T.A.V.E.R.N. Health and Wellness, LLC","No","No","No","No","No","Yes","No","No","No","No","No","No","No","Yes","Yes","No","No","No","No","No","Yes","Yes","Yes","No","No","Yes","http://TAVERNHW.com","3143859550","63122","United States","Yes","Yes, I have served in the military",,"11042 Manchester Rd
Kirkwood, Missouri 63122
(38.598766, -90.413245)",
"Burrell Behavioral Health-Murney Clinic","No","No","No","No","No","No","No","No","No","No","No","No","Yes","No","No","No","No","No","No","No","No","No","No","No","No","No","https://www.burrellcenter.com/","4177615000","65807","United States","Yes","Not yet, but I would like to work with the military community",,"1322 S. Campbell Ave
Springfield, Missouri 65807
(37.190839, -93.294271)",
"ReDiscover","No","No","No","No","No","Yes","No","No","No","No","No","No","No","Yes","Yes","No","No","No","Yes","Yes","Yes","Yes","No","Yes","No","No","https://www.rediscovermh.org/","8449944325","64138","United States","Yes","Yes, I have training in military culture",,"8800 Blue Ridge Blvd
Kansas City, Missouri 64138
(38.962863, -94.498603)",
"Finding Freedom Nutrition and Counseling, LLC","No","No","Yes","No","No","Yes","No","No","No","No","No","No","No","No","No","No","No","Yes","No","Yes","Yes","Yes","No","No","No","Yes","http://www.findingfreedomstl.com","3142469395","63017","United States","No","Not yet, but I would like to work with the military community",,"14323 S Outer Forty Rd
Chesterfield, Missouri 63017
(38.641014, -90.513954)","Suite 512s"
"Tri-County Mental Health Services","No","No","No","No","No","No","No","No","No","No","No","No","Yes","No","No","No","No","No","No","No","Yes","No","No","No","No","No","https://www.tri-countymhs.org/","8164680400","64085","United States","Yes","Not yet, but I would like to work with the military community",,"108 West North Main
Richmond, Missouri 64085
(39.279149, -93.977189)",
"Ozark Center-Carl Junction Clinic (Children's Services)","No","No","No","No","No","No","No","No","No","No","No","No","Yes","No","No","No","No","No","No","No","Yes","No","No","No","No","No","https://www.freemanhealth.com/ozark-center","4173471111","64834","United States","Yes","Not yet, but I would like to work with the military community",,"106 South Main Street
Carl Junction, Missouri 64834
(37.090391, -94.513519)",
"Psychological Services of St. Louis","No","No","No","No","No","Yes","No","No","No","No","No","No","No","No","No","No","No","No","No","No","Yes","No","No","No","No","Yes","http://www.drbrittanymurphy.com","3142669854","63117","United States","No","Not yet, but I would like to work with the military community",,"7110 Oakland Avenue
Richmond Heights, Missouri 63117
(38.632854, -90.308604)","Suite 105"
"Mexico VA Clinic","No","No","No","No","No","No","No","No","No","No","No","No","No","No","No","No","No","No","No","No","Yes","No","No","No","No","Yes","https://www.va.gov/columbia-missouri-health-care/locations/mexico-va-clinic/","5735819630","65265","United States","Yes","Yes, I have training in military culture",,"3460 South Clark Street
Mexico, Missouri 65265
(39.139159, -91.893915)",
"New Horizons","No","No","No","No","No","No","No","No","No","No","No","No","No","No","No","No","No","No","No","No","Yes","No","No","No","No","No","www.mo-newhorizons.com","5736368108","65109","United States","No","Not yet, but I would like to work with the military community",,"2013 William Street
Jefferson City, Missouri 65109
(38.582564, -92.203412)",
"Daniel Robb, LPC","No","No","No","No","No","Yes","No","No","No","No","No","No","Yes","Yes","No","No","No","No","No","No","Yes","No","No","No","No","Yes","www.breakthroughbehavioralcare.com","6362197524","63301","United States","No","Not yet, but I would like to work with the military community",,"3115 Elm Street
St. Charles, Missouri 63301
(38.804836, -90.508584)",
"Dr. Lena Pearlman & Associates","No","No","No","No","Yes","No","No","No","No","No","No","No","Yes","Yes","Yes","No","Yes","No","Yes","Yes","Yes","Yes","Yes","Yes","Yes","No","http://www.STLmentalhealth.com","3149421147","63141","United States","No","Not yet, but I would like to work with the military community",,"655 Craig Rd
Creve Coeur, Missouri 63141
(38.667708, -90.437046)","Suite 300"
"Valley Hope","No","No","No","No","No","Yes","No","No","No","No","No","No","Yes","No","No","No","No","No","No","No","No","No","No","No","No","Yes","http://valleyhope.org","6608826547","65233","United States","Yes","Not yet, but I would like to work with the military community",,"1415 W Ashley Rd
Boonville, Missouri 65233
(38.952769, -92.765047)",
"North Central Missouri Mental Health Center","No","No","No","No","No","No","No","No","No","No","No","No","No","No","No","No","No","No","No","No","Yes","No","No","No","No","No","http://www.ncmmh.org/index.html","6603594487","63556","United States","No","Not yet, but I would like to work with the military community",,"220 E 3rd Street
Milan, Missouri 63556
(40.201953, -93.124259)",
"Price Counseling, LLC","No","No","No","No","No","Yes","No","No","No","No","No","No","Yes","Yes","Yes","Yes","Yes","Yes","Yes","Yes","Yes","Yes","Yes","Yes","No","Yes",,"4172071026","65714","United States","No","Not yet, but I would like to work with the military community",,"202 S. West St
Nixa, Missouri 65714
(37.041641, -93.303441)","Suite 4"
"FCC Behavioral Health","No","No","No","No","No","No","No","No","No","No","No","No","No","No","No","No","No","No","No","No","Yes","No","No","No","No","No","https://fccinc.org/","5733335875","63830","United States","Yes","Not yet, but I would like to work with the military community",,"915 MO-84
Caruthersville, Missouri 63830
(36.198492, -89.664502)",
"Compass Health Network","No","No","No","No","No","No","No","No","No","No","No","No","Yes","No","No","No","No","No","No","No","Yes","No","No","No","No","No","https://compasshealthnetwork.org/","8448538937","65301","United States","Yes","Not yet, but I would like to work with the military community",,"1700 West Main Street
Sedalia, Missouri 65301
(38.714181, -93.24756)",
"Insightful Life Therapist Services","No","No","No","No","Yes","No","No","No","No","No","No","No","No","Yes","No","No","No","No","No","Yes","Yes","Yes","No","No","No","No",,"3147306787","63129","United States","No","Not yet, but I would like to work with the military community",,"4121 Union Road
St. Louis, Missouri 63129
(38.507958, -90.334484)","Suite 225"
"John J. Pershing Veterans' Administration Medical Center","No","No","No","No","No","No","No","No","No","No","No","No","Yes","No","No","No","No","No","No","No","Yes","Yes","No","Yes","No","Yes","https://www.va.gov/poplar-bluff-health-care/locations/john-j-pershing-veterans-administration-medical-center/","8885578262","63901","United States","Yes","Yes, I have training in military culture",,"1500 North Westwood Boulevard
Poplar Bluff, Missouri 63901
(36.772052, -90.418392)",
"MO DHSS Brain Injury Service Coordinator","No","No","No","No","No","No","No","No","No","No","No","No","No","No","No","No","No","No","No","No","No","No","No","No","Yes","No","https://health.mo.gov/living/families/shcn/ahi.php","6362821010","63050","United States","No","Not yet, but I would like to work with the military community",,"405 Main St
Hillsboro, Missouri 63050
(38.232334, -90.565069)",
"Shara McGlothan, LLC","No","No","No","No","No","No","No","No","No","No","No","No","No","Yes","Yes","No","Yes","No","Yes","Yes","Yes","Yes","No","No","No","Yes","http://sharamcglothan.com","8169747025","64105","United States","No","Yes, I have served in the military",,"107 West 9th st
Kansas City, Missouri 64105
(39.10358, -94.58451)","Suite 322"
"Preferred Family Healthcare (Adolescent)","No","No","No","No","No","No","No","No","No","No","No","No","Yes","No","No","No","No","No","No","No","No","No","No","No","No","No","http://pfh.org/","3147297050","63128","United States","Yes","Not yet, but I would like to work with the military community",,"10024 Office Center Ave
St. Louis, Missouri 63128
(38.522284, -90.363754)","Suite 100"
"HI - TECH CHARITIES","No","No","No","No","No","Yes","No","No","No","No","No","No","Yes","Yes","Yes","No","No","Yes","No","Yes","Yes","Yes","Yes","Yes","No","Yes",,"3143895737","63112","United States","No","Not yet, but I would like to work with the military community",,"5920 Dr. Martin Luther King Drive
St. Louis, Missouri 63112
(38.674024, -90.28326)",
"College Skyline Center","No","No","No","No","No","No","No","No","No","No","No","No","No","Yes","Yes","No","Yes","No","Yes","Yes","Yes","Yes","Yes","Yes","Yes","Yes","http://collegeskyline.com","4177821443","64801","United States","Yes","Not yet, but I would like to work with the military community",,"1230 North Duquesne Road
Joplin, Missouri 64801
(37.102326, -94.459339)",
"GGA Associates","No","No","No","No","Yes","No","No","No","No","No","No","No","No","Yes","Yes","No","No","No","Yes","Yes","Yes","Yes","No","No","Yes","Yes",,"3148453502","63132","United States","Yes","Yes, I have training in military culture",,"9378 Olive Blvd
St. Louis, Missouri 63132
(38.67359, -90.374705)","Suite 204"
"Arthur Center Behavioral Health","No","No","No","No","No","No","No","No","No","No","No","No","Yes","No","No","No","No","No","No","No","Yes","No","No","No","No","No","www.aurthercenter.com","5736423215","65251","United States",,"Not yet, but I would like to work with the military community",,"581 Commons Drive
Fulton, Missouri 65251
(38.831252, -91.961945)",
"Associated Counseling Services Inc","No","No","No","No","Yes","No","No","No","No","No","No","No","No","Yes","Yes","No","No","No","Yes","Yes","Yes","Yes","Yes","No","No","Yes","http://associatedcounselingservices.org","5733357929","63701","United States","Yes","Yes, I have training in military culture",,"1021 Kingsway Dr.
Cape Girardeau, Missouri 63701
(37.321204, -89.557621)","Suite 3"
"University Health Behavioral Health Lakewood Counseling","No","No","No","No","No","No","No","No","No","No","No","No","No","No","Yes","Yes","No","No","No","No","Yes","No","No","No","No","No","www.universityhealthkc.org/services/behavioral-health/","8164046170","64063","United States","Yes","Not yet, but I would like to work with the military community",,"300 SE 2nd Street
Lee's Summit, Missouri 64063
(37.970399, -90.052446)","Suite 100"
"Linda G. Smith, MA","No","No","No","No","Yes","Yes","No","No","No","No","No","No","No","No","No","No","No","No","Yes","Yes","Yes","No","No","Yes","No","No","http://lindagsmith.com/","6607479242","64093","United States","No","Not yet, but I would like to work with the military community",,"123 E Gay
Warrensburg, Missouri 64093
(38.766312, -93.739289)","Suite S4"
"Vet Center-Kansas City","No","No","No","No","No","No","No","No","No","No","No","No","No","No","No","No","No","No","No","Yes","Yes","No","No","No","No","Yes","https://www.va.gov/find-locations/facility/vc_0408V","8167531866","64112","United States","Yes","Yes, I have training in military culture",,"4800 Main Street
Kansas City, Missouri 64112
(39.039001, -94.587132)","Suite 107"
"Family Guidance Center","No","No","No","No","No","No","No","No","No","No","No","No","No","No","No","No","No","No","No","No","Yes","No","No","No","No","No","http://fgcnow.org/","8166326161","64429","United States","Yes","Not yet, but I would like to work with the military community",,"101 W 3rd St.
Cameron, Missouri 64429
(39.740961, -94.238665)",
"Kansas City VA Medical Center","No","No","No","No","No","No","No","No","No","No","No","No","Yes","No","No","No","No","No","No","No","Yes","Yes","No","Yes","No","Yes","https://www.va.gov/kansas-city-health-care/locations/kansas-city-va-medical-center/","8168614700","64128","United States","Yes","Yes, I have training in military culture",,"4801 Linwood Boulevard
Kansas City, Missouri 64128
(39.067261, -94.527771)",
"Warrensburg VA Clinic","No","No","No","No","No","No","No","No","No","No","No","No","No","No","No","No","No","No","No","No","Yes","No","No","No","No","Yes","https://www.va.gov/kansas-city-health-care/locations/warrensburg-va-clinic/","8168614700","64093","United States","Yes","Yes, I have training in military culture",,"702 East Young Street
Warrensburg, Missouri 64093
(38.772186, -93.719497)",
"Life Counseling Centers","No","No","No","No","No","Yes","No","No","No","No","No","No","No","Yes","Yes","No","Yes","No","Yes","No","Yes","Yes","No","Yes","No","Yes","http://Lifecounselingcenters.com","3147208730","63141","United States","No","Yes, I have served in the military",,"655 Craig Rd
Creve Coeur, Missouri 63141
(38.667709, -90.437047)","Suite 336"
"Burrell Behavioral Health (Building A)","No","No","No","No","No","No","No","No","No","No","No","No","Yes","No","No","No","No","No","No","No","Yes","No","No","No","No","No","https://www.burrellcenter.com/","4177615000","65804","United States","Yes","Not yet, but I would like to work with the military community",,"1300 E. Bradford Parkway
Springfield, Missouri 65804
(37.146085, -93.275022)",
"Health and Healing, LLC","No","No","No","No","Yes","No","No","No","No","No","No","No","No","Yes","Yes","No","Yes","No","No","Yes","No","Yes","Yes","Yes","No","No",,"6603950180","63552","United States","Yes","Not yet, but I would like to work with the military community",,"303 Weller St
Macon, Missouri 63552
(39.750842, -92.468596)",
"MO DHSS Brain Injury Service Coordinator","No","No","No","No","No","No","No","No","No","No","No","No","No","No","No","No","No","No","No","No","No","No","No","No","Yes","No","https://health.mo.gov/living/families/shcn/ahi.php","5737832747","63645","United States","No","Not yet, but I would like to work with the military community",,"806 W College Ave
Fredericktown, Missouri 63645
(37.558159, -90.304426)",
"Southeast Missouri Behavioral Health","No","Yes","No","No","No","Yes","No","No","No","No","No","No","Yes","Yes","No","Yes","No","No","No","No","Yes","Yes","Yes","No","Yes","No","http://www.semobh.org","5733648511","65401","United States","No","Not yet, but I would like to work with the military community",,"1051 Kingshighway
Rolla, Missouri 65401
(37.944251, -91.785634)","Suite 505"
"MO DHSS Brain Injury Service Coordinator","No","No","No","No","No","No","No","No","No","No","No","No","No","No","No","No","No","No","No","No","No","No","No","No","Yes","No","https://health.mo.gov/living/families/shcn/ahi.php","5736362181","65109","United States","No","Not yet, but I would like to work with the military community",,"3400 W. Truman Blvd
Jefferson City, Missouri 65109
(38.591516, -92.246108)",
"CarePoint Christian Counseling","No","No","No","No","No","Yes","No","No","No","No","No","No","No","Yes","Yes","No","No","No","Yes","Yes","Yes","No","No","No","No","Yes","http://www.CarePointCounseling.com","3148228888","63122","United States","No","Not yet, but I would like to work with the military community",,"12166 Old Big Bend Road
Kirkwood, Missouri 63122
(38.56938, -90.433648)","Suite 204"
"Right Road Counseling, LLC","No","No","No","No","No","Yes","No","No","No","No","No","No","Yes","Yes","Yes","Yes","Yes","No","No","Yes","Yes","Yes","No","Yes","No","Yes","http://www.rightroadcounseling.com","5736163007","65109","United States","No","Not yet, but I would like to work with the military community",,"1803 Sun Valley Drive
Jefferson City, Missouri 65109
(38.556564, -92.200642)","Suite A"
"Epic Counseling Group","No","No","No","No","No","Yes","No","No","Yes","No","No","No","Yes","Yes","Yes","No","Yes","Yes","Yes","Yes","Yes","Yes","Yes","Yes","Yes","No","http://epiccounselinggroup.com","8166223171","64057","United States","Yes","Yes, I have training in military culture",,"4200 Little Blue Parkway
Independence, Missouri 64057
(39.037549, -94.342082)","Suite 360"
"Nevada VA Clinic","No","No","No","No","No","No","No","No","No","No","No","No","No","No","No","No","No","No","No","No","Yes","No","No","No","No","Yes","https://www.va.gov/kansas-city-health-care/locations/nevada-va-clinic/","8168614700","64772","United States","Yes","Yes, I have training in military culture",,"322 South Prewitt Street
Nevada, Missouri 64772
(37.836604, -94.376131)",
"Compassion Counseling","No","No","No","No","No","No","No","No","Yes","No","No","No","Yes","Yes","Yes","No","Yes","No","No","Yes","Yes","Yes","Yes","Yes","No","Yes",,"4174134048","65706","United States","No","Not yet, but I would like to work with the military community",,"777 West Jackson St
Marshfield, Missouri 65706
(37.337469, -92.91743)","Suite A"
"Jean E. Moretto, Inc","No","No","No","No","No","Yes","No","No","No","No","No","No","No","Yes","No","No","Yes","No","Yes","Yes","Yes","Yes","Yes","Yes","No","Yes","http://walterswalk.com","3147312433","63042","United States","No","Yes, I have training in military culture",,"737 Dunn Road
Hazelwood, Missouri 63042
(38.782166, -90.374177)",
"BASIC","No","No","No","No","No","No","No","No","No","No","No","No","Yes","No","No","No","No","No","No","No","No","No","No","No","No","No","http://www.basicinc.org/","3146219009","63118","United States","No","Not yet, but I would like to work with the military community",,"3654 S. Grand Blvd
St. Louis, Missouri 63118
(38.590315, -90.243708)",
"Clayton Lessor, PhD, LPC","No","No","No","No","No","Yes","No","No","No","No","No","No","No","Yes","Yes","No","Yes","No","No","Yes","Yes","Yes","No","Yes","No","Yes","http://Claytonlessor.com","3146401553","63123","United States","Yes","Yes, I have served in the military",,"8820 Pardee Rd
St. Louis, Missouri 63123
(38.562609, -90.358468)",
"North Central Missouri Mental Health Center","No","No","No","No","No","No","No","No","No","No","No","No","No","No","No","No","No","No","No","No","Yes","No","No","No","No","No","http://www.ncmmh.org/index.html","6603594487","64424","United States","No","Not yet, but I would like to work with the military community",,"4114 Miller
Bethany, Missouri 64424
(40.264859, -94.010467)",
"Casondra M. Foster, MS LPC","No","No","No","No","No","Yes","No","No","No","No","No","No","No","Yes","Yes","No","No","No","No","Yes","Yes","Yes","No","No","No","Yes",,"8165477119","64134","United States","No","Not yet, but I would like to work with the military community",,"9725 Harvard Avenue
Kansas City, Missouri 64134
(38.945404, -94.453498)",
"Preferred Family Healthcare","No","No","No","No","No","No","No","No","No","No","No","No","Yes","No","No","No","No","No","No","No","No","No","No","No","No","No","http://pfh.org/","3148990846","63108","United States","Yes","Not yet, but I would like to work with the military community",,"4928 Delmar Blvd
St. Louis, Missouri 63108
(38.650875, -90.258241)",
"Westridge Counseling LLC","No","No","No","No","Yes","No","No","No","No","No","No","No","No","Yes","Yes","No","No","No","Yes","Yes","Yes","No","No","No","No","Yes","http://westridgecounseling.com","6364587595","63040","United States","No","Not yet, but I would like to work with the military community",,"2646 Hwy 109
Wildwood, Missouri 63040
(38.574089, -90.644225)","Suite 212"
"Behavioral Health Services","No","No","No","No","No","No","No","No","No","No","No","Yes","No","No","No","No","No","No","No","Yes","No","Yes","No","Yes","Yes","Yes","http://drannarosshertel.godaddysites.com","4173502970","65809","United States","No","Yes, I have training in military culture",,"3814 East Fox Grape Rd
Springfield, Missouri 65809
(37.1535, -93.21679)",
"Ozarks Healthcare Mountain View","No","No","No","No","No","No","No","No","No","No","No","No","No","No","No","No","No","No","No","No","Yes","No","No","No","No","No","www.ozarkshealthcare.com","4179342273","65548","United States",,"Not yet, but I would like to work with the military community",,"220 N Elm Street
Mountin View, Missouri 65548
(36.996732, -91.703187)",
"Excelsior Springs VA Clinic","No","No","No","No","No","No","No","No","No","No","No","No","No","No","No","No","No","No","No","No","Yes","No","No","No","No","Yes","https://www.va.gov/kansas-city-health-care/locations/excelsior-springs-va-clinic/","8168614700","64024","United States","Yes","Yes, I have training in military culture",,"197 South McCleary Road
Excelsior Springs, Missouri 64024
(39.331546, -94.263226)",
"Jerry Marks, PhD, LCSW","No","No","No","No","Yes","No","No","No","No","No","No","No","Yes","Yes","Yes","No","Yes","No","No","Yes","Yes","Yes","No","No","No","Yes","http://www.adventmedicalgroup-mo.com/","6368870914","63385","United States","Yes","Yes, I have served in the military",,"207 Creekside Drive
Wentzville, Missouri 63385
(38.825712, -90.887633)",
"HI - TECH CHARITIES","No","No","No","No","No","Yes","No","No","No","No","No","No","Yes","Yes","Yes","No","No","Yes","No","Yes","Yes","Yes","Yes","Yes","No","Yes",,"3143895737","63112","United States","No","Not yet, but I would like to work with the military community",,"104 South Hickory Street
Ironsdale, Missouri 63112
(37.833694, -90.67692)",
"James Morgan, LPC","No","No","No","No","No","Yes","No","No","No","No","No","No","No","No","No","No","No","No","Yes","Yes","Yes","Yes","No","No","No","Yes","http://www.myfamilycounseling.com","6364003311","63366","United States","Yes","Not yet, but I would like to work with the military community",,"1137 N Main Street
O'Fallon, Missouri 63366
(38.825534, -90.699882)","Suite 2"
"West Plains VA Clinic","No","No","No","No","No","No","No","No","No","No","No","No","No","No","No","No","No","No","No","No","Yes","No","No","No","No","Yes","https://www.va.gov/poplar-bluff-health-care/locations/west-plains-va-clinic/","8885578262","65775","United States","Yes","Yes, I have training in military culture",,"1801 East State Route K
West Plains, Missouri 65775
(36.725755, -91.877585)",
"Christine M. Lakey, LCSW, CEAP LLC","No","No","No","No","Yes","No","No","No","No","No","No","No","Yes","Yes","No","No","Yes","Yes","No","Yes","Yes","Yes","Yes","Yes","No","Yes","http://www.christinelakey.com","3142392204","63141","United States","Yes","Yes, I have training in military culture",,"501 North Lindbergh Blvd
St. Louis, Missouri 63141
(38.664722, -90.405897)","Suite 105"
"Farmington VA Clinic","No","No","No","No","No","No","No","No","No","No","No","No","No","No","No","No","No","No","No","No","Yes","No","No","No","No","Yes","https://www.va.gov/poplar-bluff-health-care/locations/farmington-va-clinic/","8885578262","63640","United States","Yes","Yes, I have training in military culture",,"1580 West Columbia Street
Farmington, Missouri 63640
(37.773062, -90.441653)",
"Amorri LLC","No","No","No","No","No","Yes","No","No","No","No","No","No","Yes","Yes","Yes","No","Yes","Yes","Yes","Yes","Yes","Yes","Yes","Yes","No","Yes","http://amorri.com/","4174553399","64850","United States","No","Not yet, but I would like to work with the military community",,"3370 Lusk Drive
Neosho, Missouri 64850
(36.835159, -94.396036)",
"Comprehensive Counseling Solutions","No","No","No","No","Yes","No","No","No","No","No","No","No","No","Yes","Yes","No","Yes","No","No","Yes","Yes","Yes","Yes","Yes","No","No","http://mychoicetherapist.com","8168958020","64506","United States","Yes","Not yet, but I would like to work with the military community",,"3500 North Village Drive
St. Joseph, Missouri 64506
(39.817077, -94.812158)","GL 30"
"BHG West Plains Treatment Center","No","No","No","No","No","Yes","No","No","No","No","No","No","Yes","No","No","No","No","No","No","No","No","No","No","No","No","Yes","http://www.bhgrecovery.com","4172571833","65775","United States","No","Not yet, but I would like to work with the military community",,"1639 Bruce Smith Pkwy
West Plains, Missouri 65775
(36.712543, -91.875799)",
"Ability KC","No","No","No","No","No","No","No","No","No","No","No","Yes","No","No","No","No","No","No","No","No","No","No","No","No","Yes","Yes","https://www.abilitykc.org/","8167517700","64108","United States","Yes","Yes, I have training in military culture",,"3011 Baltimore
Kansas City, Missouri 64108
(39.071894, -94.586556)",
"Cape Girardeau VA Clinic","No","No","No","No","No","No","No","No","No","No","No","No","No","No","No","No","No","No","No","No","Yes","No","No","No","No","Yes","https://www.va.gov/poplar-bluff-health-care/locations/cape-girardeau-va-clinic/","8885578262","63703","United States","Yes","Yes, I have training in military culture",,"711 South Mount Auburn Road
Cape Girardeau, Missouri 63703
(37.284527, -89.568929)",
"Mark Twain Behavioral Health","No","No","No","No","No","No","No","No","No","No","No","No","Yes","No","No","No","No","No","No","No","Yes","No","No","No","No","No","https://mtbh.org/","5732212120","63401","United States","No","Not yet, but I would like to work with the military community",,"154 Forrest Drive
Hannibal, Missouri 63401
(39.705936, -91.445978)",
"Comer Counseling","No","No","No","Yes","No","Yes","No","No","No","No","No","No","Yes","Yes","No","No","Yes","No","No","Yes","Yes","Yes","Yes","No","No","Yes","http://comercounseling.com","6609091748","64093","United States","No","Not yet, but I would like to work with the military community",,"598 SE DD Hwy
Warrensburg, Missouri 64093
(38.742085, -93.633013)","Suite 1"
"ASK Wellness","No","No","No","No","No","Yes","No","No","No","No","No","No","No","No","Yes","No","No","No","Yes","No","Yes","Yes","Yes","Yes","No","Yes",,"5732398546","65240","United States","No","Not yet, but I would like to work with the military community",,"115 N. Allen St
Centralia, Missouri 65240
(39.212195, -92.139089)",
"Rodney Clossum, LPC","No","No","No","No","No","Yes","No","No","No","No","No","No","No","Yes","No","No","Yes","No","No","No","Yes","No","No","No","No","Yes",,"3149714714","63301","United States","No","Not yet, but I would like to work with the military community",,"1360 South Fifth Street
St. Charles, Missouri 63301
(38.770854, -90.492966)",
"Dr. Lori Becker LLC","No","No","No","No","No","No","No","No","No","No","Yes","No","No","No","No","No","No","No","No","No","Yes","Yes","No","No","No","Yes","http://www.DrLoriBecker.com","3149544364","63105","United States","No","Not yet, but I would like to work with the military community",,"225 S Meramec Ave
Clayton, Missouri 63105
(38.646636, -90.34078)","Suite 204"
"Carthage Counseling Center","No","No","No","No","No","Yes","No","No","No","No","No","No","No","Yes","Yes","No","Yes","No","No","Yes","Yes","Yes","Yes","Yes","No","Yes","http://carthagecounselingcenter.weebly.com","4173598093","64836","United States","Yes","Not yet, but I would like to work with the military community",,"2411 Fairlawn Drive
Carthage, Missouri 64836
(37.14799, -94.310936)",
"Southeast Missouri Behavioral Health","No","Yes","No","No","No","No","No","No","No","No","No","No","Yes","No","No","Yes","No","No","No","No","No","No","No","No","No","No","https://semobh.org/","5732232734","63957","United States","No","Not yet, but I would like to work with the military community",,"125 E Green St
Piedmont, Missouri 63957
(37.155349, -90.694851)",
"Revision Christian Counseling","No","No","No","No","No","No","No","No","Yes","No","No","No","No","Yes","Yes","No","No","No","Yes","Yes","Yes","No","No","Yes","No","Yes","http://www.RevisionChristianCounseling.com","3148026232","63129","United States","No","Not yet, but I would like to work with the military community",,"4171 Crescent Drive
St. Louis, Missouri 63129
(38.50804, -90.33607)","Suite 202"
"MO DHSS Brain Injury Service Coordinator","No","No","No","No","No","No","No","No","No","No","No","No","No","No","No","No","No","No","No","No","No","No","No","No","Yes","No","https://health.mo.gov/living/families/shcn/ahi.php","5739857121","63459","United States","No","Not yet, but I would like to work with the military community",,"405 1st Street
New London, Missouri 63459
(39.589095, -91.397169)",
"Vitality Psychological Services, LLC","No","No","No","No","No","No","No","No","No","No","No","Yes","Yes","Yes","Yes","No","Yes","No","No","Yes","Yes","Yes","Yes","Yes","Yes","Yes","https://www.vitalitypsychological.net","5733634356","65201","United States","No","Not yet, but I would like to work with the military community",,"401 Locust St
Columbia, Missouri 65201
(38.949621, -92.332592)","Suite 304"
"Preferred Family Healthcare","No","No","No","No","No","No","No","No","No","No","No","No","Yes","No","No","No","No","No","No","No","No","No","No","No","No","No","http://pfh.org/","6603950111","63552","United States","Yes","Not yet, but I would like to work with the military community",,"1119 S. Missouri
Macon, Missouri 63552
(39.725107, -92.465978)","Suite E"
"LifeQuest Christian Counseling Services, Inc","No","No","No","No","No","Yes","No","No","No","No","No","No","Yes","Yes","Yes","No","Yes","No","Yes","Yes","Yes","No","No","No","No","No",,"3148309970","63031","United States","No","Not yet, but I would like to work with the military community",,"203 Dunn Rd
Florissant, Missouri 63031
(38.775859, -90.334021)",
"MO DHSS Brain Injury Service Coordinator","No","No","No","No","No","No","No","No","No","No","No","No","No","No","No","No","No","No","No","No","No","No","No","No","Yes","No","https://health.mo.gov/living/families/shcn/ahi.php","8164048426","64050","United States","No","Not yet, but I would like to work with the military community",,"313 S. Liberty Street
Independence, Missouri 64050
(39.089286, -94.416913)",
"Liss and Associates","No","No","No","No","Yes","No","No","No","No","No","No","No","No","No","No","No","No","No","No","No","Yes","No","No","No","No","No","https://www.lissandassociates.com/template/index.php?site=lissAssoc&page=home","3149619871","63119","United States","No","Not yet, but I would like to work with the military community",,"8711 Waston Road
St Louis, Missouri 63119
(38.564528, -90.361914)","Suite 100"
"Center for Behavioral Growth","No","No","No","No","No","Yes","No","No","No","No","No","No","Yes","Yes","Yes","No","No","No","Yes","Yes","Yes","Yes","No","No","No","Yes","http://daveglpc.com","3142391094","63011","United States","No","Not yet, but I would like to work with the military community",,"300 Ozark Trail
Ellisville, Missouri 63011
(38.602542, -90.589267)","Suite 220"
"FCC Behavioral Health-Stapleton Center","No","No","No","No","No","No","No","No","No","No","No","No","Yes","No","No","No","No","No","No","No","No","No","No","No","No","No","https://fccinc.org/","5733592600","63851","United States","Yes","Not yet, but I would like to work with the military community",,"501 HWY J North
Hayti, Missouri 63851
(36.244846, -89.734134)",
"Tri-County Mental Health Services","No","No","No","No","No","No","No","No","No","No","No","No","Yes","No","No","No","No","No","No","No","Yes","No","No","No","No","No","https://www.tri-countymhs.org/","8164680400","64116","United States","Yes","Not yet, but I would like to work with the military community",,"1505 D NE Parvin Road
Kansas City, Missouri 64116
(39.166988, -94.562443)",
"Lake of the Ozarks VA Clinic","No","No","No","No","No","No","No","No","No","No","No","No","No","No","No","No","No","No","No","No","Yes","No","No","No","No","Yes","https://www.va.gov/columbia-missouri-health-care/locations/lake-of-the-ozarks-va-clinic/","5733027890","65065","United States","Yes","Yes, I have training in military culture",,"940 Executive Drive
Osage Beach, Missouri 65065
(38.09487, -92.68555)",
"Compass Health Network","No","No","No","No","No","No","No","No","No","No","No","No","Yes","No","No","No","No","No","No","No","Yes","No","No","No","No","No","https://compasshealthnetwork.org/","8448538937","65026","United States","Yes","Not yet, but I would like to work with the military community",,"206 S. Mill Street
Eldon, Missouri 65026
(38.348382, -92.578171)",
"Sedelia VA Clinic","No","No","No","No","No","No","No","No","No","No","No","No","No","No","No","No","No","No","No","No","Yes","No","No","No","No","Yes","https://www.va.gov/columbia-missouri-health-care/locations/sedalia-va-clinic/","6608263800","65301","United States","Yes","Yes, I have training in military culture",,"981 Winchester Drive
Sedalia, Missouri 65301
(38.704288, -93.273025)",
"Tri-County Mental Health Services","No","No","No","No","No","No","No","No","No","No","No","No","Yes","No","No","No","No","No","No","No","Yes","No","No","No","No","No","https://www.tri-countymhs.org/","8164680400","64079","United States","Yes","Not yet, but I would like to work with the military community",,"212 Marshall Rd
Platte City, Missouri 64079
(39.369343, -94.77794)",
"Jay Musgrave, PhD, LPC","No","No","No","No","No","Yes","No","No","No","No","No","No","Yes","Yes","Yes","No","Yes","No","Yes","Yes","Yes","Yes","No","Yes","No","Yes",,"5736514206","63701","United States","No","Yes, I have training in military culture",,"1221 Kingsway Drive
Cape Girardeau, Missouri 63701
(37.322964, -89.55821)","Suite 5"
"Tri-County Mental Health Services","No","No","No","No","No","No","No","No","No","No","No","No","Yes","No","No","No","No","No","No","No","Yes","No","No","No","No","No","https://www.tri-countymhs.org/","8164680400","64119","United States","Yes","Not yet, but I would like to work with the military community",,"3100 NE 83rd Street
Kansas City, Missouri 64119
(39.244557, -94.542462)","Suite 1001"
"Healing Heart Counseling, LLC","No","No","No","Yes","No","Yes","No","No","No","No","No","No","Yes","Yes","Yes","No","No","No","No","Yes","Yes","Yes","No","No","No","Yes",,"5735786479","65401","United States","No","Not yet, but I would like to work with the military community",,"901 N Pine Street
Rolla, Missouri 65401
(37.951071, -91.771891)","Suite 105"
"St. James VA Clinic","No","No","No","No","No","No","No","No","No","No","No","No","No","No","No","No","No","No","No","No","Yes","No","No","No","No","Yes","https://www.va.gov/columbia-missouri-health-care/locations/st-james-va-clinic/","5732650448","65559","United States","Yes","Yes, I have training in military culture",,"207 Matlock Drive
St. James, Missouri 65559
(38.00984, -91.627155)",
"Preferred Family Healthcare","No","No","No","No","No","No","No","No","No","No","No","No","Yes","No","No","No","No","No","No","No","Yes","No","No","No","No","No","http://pfh.org/","6603594600","64683","United States","Yes","Not yet, but I would like to work with the military community",,"1628 Oklahoma Ave
Trenton, Missouri 64683
(40.081264, -93.600618)",
"HATS Counseling LLC","No","No","No","No","No","Yes","No","No","No","No","No","No","Yes","Yes","Yes","No","Yes","No","Yes","Yes","Yes","Yes","Yes","Yes","No","Yes","http://www.hatscounseling.com","5732460500","65203","United States","No","Yes, I have training in military culture",,"1517 Chapel Hill RD
Columbia, Missouri 65203
(38.930057, -92.361668)","Suite 500"
"Sounds of Mind Counseling, LLC","No","No","No","No","No","Yes","No","No","No","No","No","No","Yes","No","Yes","No","Yes","No","No","Yes","Yes","Yes","Yes","Yes","Yes","Yes","http://www.soundsofmindcounseling.com","5732138033","63755","United States","Yes","Not yet, but I would like to work with the military community",,"810 E Jackson Blvd
Jackson, Missouri 63755
(37.375231, -89.660581)","Suite B1"
"Preferred Family Healthcare-Clarity Healthcare FQHC","No","No","No","No","No","No","No","No","No","No","No","No","No","No","No","No","No","No","No","No","Yes","No","No","No","No","No","http://pfh.org/","5736031460","63401","United States","Yes","Not yet, but I would like to work with the military community",,"141 Communications Dr
Hannibal, Missouri 63401
(39.701457, -91.391938)",
"Southeast Missouri Behavioral Health","No","Yes","No","No","No","No","No","No","No","No","No","No","Yes","No","No","Yes","No","No","No","No","No","No","No","No","No","No","https://semobh.org/","4179672887","65483","United States","No","Not yet, but I would like to work with the military community",,"1597 North Highway 63
Houston, Missouri 65483
(37.342068, -91.935333)",
"Compass Health Network","No","No","No","No","No","No","No","No","No","No","No","No","No","No","No","No","No","No","No","No","Yes","No","No","No","No","No","https://compasshealthnetwork.org/","8448538937","64076","United States","Yes","Not yet, but I would like to work with the military community",,"1278 W. US 40 Hwy
Odessa, Missouri 64076
(39.008681, -93.977016)",
"Sikeston VA Clinic","No","No","No","No","No","No","No","No","No","No","No","No","No","No","No","No","No","No","No","No","Yes","No","No","No","No","Yes","https://www.va.gov/poplar-bluff-health-care/locations/sikeston-va-clinic/","8885578262","63801","United States","Yes","Yes, I have training in military culture",,"903 South Kings Highway
Sikeston, Missouri 63801",
"Healing Rock Counseling LLC","No","No","No","No","No","Yes","No","No","No","No","No","No","No","No","No","No","Yes","No","No","No","Yes","Yes","No","No","No","No",,"3142825448","63010","United States","No","Not yet, but I would like to work with the military community",,"161 Arnold Crossroads Center
Arnold, Missouri 63010
(38.446825, -90.374663)",
"COMTREA","No","No","No","No","No","No","No","No","No","No","No","No","No","No","No","No","No","No","No","No","Yes","No","No","No","No","No","https://www.comtrea.org/","6363210150","63051","United States","Yes","Not yet, but I would like to work with the military community",,"4300 Gravois Road
House Springs, Missouri 63051
(38.418251, -90.561629)",
"Lace Counseling Center, LLC","No","No","No","No","No","Yes","No","No","No","No","No","No","No","Yes","Yes","No","Yes","No","Yes","Yes","Yes","Yes","No","Yes","Yes","Yes",,"4178403970","65706","United States","No","Not yet, but I would like to work with the military community",,"104 East Madison Street
Marshfield, Missouri 65706
(37.338017, -92.906757)","Suite 108"
"The AutPlay Clinic","No","No","No","No","No","No","No","No","Yes","No","No","No","No","Yes","Yes","Yes","Yes","No","Yes","No","Yes","Yes","Yes","Yes","Yes","Yes",,"4177559042","65807","United States","No","Not yet, but I would like to work with the military community",,"3322 S. Campbell Ave
Springfield, Missouri 65807
(37.15426, -93.29391)","Suite R"
"Community Counseling Center","No","No","No","No","No","No","No","No","No","No","No","No","No","No","No","No","No","No","No","No","Yes","No","No","No","No","No","http://www.cccntr.com/","5737834104","63645","United States","No","Not yet, but I would like to work with the military community",,"309 Garrett Street
Fredericktown, Missouri 63645
(37.564565, -90.281899)",
"Katherine Malone, LCSW","No","No","No","No","Yes","No","No","No","No","No","No","No","No","No","Yes","No","No","No","No","Yes","Yes","Yes","Yes","Yes","No","Yes",,"8162818094","64050","United States","Yes","Not yet, but I would like to work with the military community",,"136 E Walnut St
Independence, Missouri 64050
(39.090377, -94.41407)","Suite 102"
"Perspectives Psychotherapy LLC","No","No","No","No","No","No","No","No","No","No","No","Yes","Yes","Yes","No","No","No","No","No","No","Yes","Yes","Yes","Yes","No","Yes","http://www.drkarenloaiza.com","3143374220","63117","United States","No","Not yet, but I would like to work with the military community",,"1600 S Big Bend Blvd
Richmond Heights, Missouri 63117
(38.624836, -90.320505)",
"Jessica Hughes","No","No","No","No","No","No","No","No","Yes","No","No","No","Yes","Yes","No","No","Yes","No","No","Yes","Yes","Yes","Yes","Yes","No","Yes",,"3143916804","63044","United States","No","Yes, I have served in the military",,"11520 St Charles Rock Rd
Bridgeton, Missouri 63044
(38.74208, -90.407452)","Suite 101"
"Amy Marty, Ph.D. Clinical Psychologist","No","No","No","No","No","No","No","No","No","No","No","Yes","No","Yes","Yes","No","Yes","No","Yes","Yes","Yes","Yes","Yes","No","Yes","No",,"6268403119","63303","United States","No","Not yet, but I would like to work with the military community",,"2480 Executive Dr
St Charles, Missouri 63303
(38.756614, -90.546237)","Suite 101"
"Lees Summit Counseling Services LLC","No","No","No","No","No","Yes","No","No","No","No","No","No","Yes","No","Yes","No","Yes","No","Yes","Yes","Yes","No","No","No","No","Yes",,"8169440066","64086","United States","No","Not yet, but I would like to work with the military community",,"508 NE Spring Creek Place
Lee's Summit, Missouri 64086
(38.920678, -94.321099)",
"Ozark Center-Hope Spring","No","No","No","No","No","No","No","No","No","No","No","No","Yes","No","No","No","No","No","No","No","Yes","No","No","No","No","No","https://www.freemanhealth.com/ozark-center","4173471111","64804","United States","Yes","Not yet, but I would like to work with the military community",,"3901 East 32nd Street
Joplin, Missouri 64804
(37.05605, -94.462006)",
"Waynesville VA Clinic","No","No","No","No","No","No","No","No","No","No","No","No","No","No","No","No","No","No","No","No","Yes","No","No","No","No","Yes","https://www.va.gov/columbia-missouri-health-care/locations/waynesville-va-clinic/","5737742285","65583","United States","Yes","Yes, I have training in military culture",,"700 GW Lane Street
Waynesville, Missouri 65583
(37.809243, -92.218936)",
"Burrell Behavioral Health-Nixa Office","No","No","No","No","No","No","No","No","No","No","No","No","No","No","No","No","No","No","No","No","Yes","No","No","No","No","No","https://www.burrellcenter.com/","4177615000","65714","United States","Yes","Not yet, but I would like to work with the military community",,"560 W. Mt. Vernon
Nixa, Missouri 65714
(37.043064, -93.305464)",
"Mark Twain Behavioral Health","No","No","No","No","No","No","No","No","No","No","No","No","Yes","No","No","No","No","No","No","No","Yes","No","No","No","No","No","https://mtbh.org/","6603959114","63552","United States","No","Not yet, but I would like to work with the military community",,"309 N Missouri Street
Macon, Missouri 63552
(39.74103, -92.465508)",
"FCC Behavioral Health","No","No","No","No","No","No","No","No","No","No","No","No","No","No","No","No","No","No","No","No","Yes","No","No","No","No","No","https://fccinc.org/","5736861328","63901","United States","Yes","Not yet, but I would like to work with the military community",,"3001 Warrior Lane
Poplar Bluff, Missouri 63901
(36.730865, -90.4435)",
"Family Guidance Center","No","No","No","No","No","No","No","No","No","No","No","No","Yes","No","No","No","No","No","No","No","No","No","No","No","No","No","http://fgcnow.org/","8163641862","64501","United States","Yes","Not yet, but I would like to work with the military community",,"901 Felix St.
St. Joseph, Missouri 64501
(39.766759, -94.849227)",
"Preferred Family Healthcare","No","No","No","No","No","No","No","No","No","No","No","No","Yes","No","No","No","No","No","No","No","No","No","No","No","No","No","http://pfh.org/","6362241200","63303","United States","Yes","Not yet, but I would like to work with the military community",,"1570 S Main Street
St. Charles, Missouri 63303
(38.763854, -90.493464)",
"BJC Behavioral Health","No","No","No","No","No","No","No","No","No","No","No","No","Yes","No","No","No","No","No","No","No","Yes","No","No","No","No","No","www.bjcbehavioralhealth.org","5734385050","63664","United States",,"Not yet, but I would like to work with the military community",,"326 East High Street
Potosi, Missouri 63664
(37.93383, -90.7835)",
"Lake Area Citizens Board","No","No","No","No","No","Yes","No","No","No","No","No","No","Yes","Yes","Yes","No","Yes","Yes","No","No","Yes","Yes","Yes","Yes","No","Yes","http://lacab.org","4175335332","65536","United States","No","Not yet, but I would like to work with the military community",,"1253 Butler Rd
Lebanon, Missouri 65536
(37.667171, -92.634651)",
"Southeast Missouri Behavioral Health","No","Yes","No","No","No","No","No","No","No","No","No","No","Yes","No","No","Yes","No","No","No","No","No","No","No","No","No","No","https://semobh.org/","5736246937","63841","United States","No","Not yet, but I would like to work with the military community",,"916 Smith Ave
Dexter, Missouri 63841
(36.805014, -89.980362)",
"North Central Missouri Mental Health Center","No","No","No","No","No","No","No","No","No","No","No","No","No","No","No","No","No","No","No","No","Yes","No","No","No","No","No","http://www.ncmmh.org/index.html","6603594487","64601","United States","No","Not yet, but I would like to work with the military community",,"401 Youssef Driv
Chillicothe, Missouri 64601
(39.808761, -93.551655)",
"Harry S. Truman Memorial Veterans' Hospital","No","No","No","No","No","No","No","No","No","No","No","No","Yes","No","No","No","No","No","No","No","Yes","Yes","No","Yes","No","Yes","https://www.va.gov/columbia-missouri-health-care/locations/harry-s-truman-memorial-veterans-hospital/","5738146486","65201","United States","Yes","Yes, I have training in military culture",,"800 Hospital Drive
Columbia, Missouri 65201
(38.936408, -92.329971)",
"Eaglecrest Counseling Center","No","No","No","No","No","Yes","No","No","No","No","No","No","No","No","No","No","Yes","No","Yes","No","Yes","Yes","Yes","No","No","Yes","http://www.eaglecrestcounseling.com","4178628282","65807","United States","Yes","Yes, I have served in the military",,"636 W Republic Rd
Springfield, Missouri 65807
(37.137966, -93.299854)","Suite G-100"
"Fuelling and Assocaites","No","No","No","No","Yes","No","No","No","No","No","No","No","Yes","Yes","Yes","No","Yes","No","Yes","Yes","Yes","Yes","Yes","Yes","No","No","http://www.fuellingandassoiciates.com","6604296678","64093","United States","Yes","Yes, I have served in the military",,"407 E Russell Avenue
Warrensburg, Missouri 64093
(38.773001, -93.732346)","Suite A4"
"Preferred Family Healthcare (Adolescent)","No","No","No","No","No","No","No","No","No","No","No","No","Yes","No","No","No","No","No","No","No","No","No","No","No","No","No","http://pfh.org/","3147733670","63110","United States","Yes","Not yet, but I would like to work with the military community",,"5025 Northrup Ave
St. Louis, Missouri 63110
(38.620139, -90.268553)",
"MO DHSS Brain Injury Service Coordinator","No","No","No","No","No","No","No","No","No","No","No","No","No","No","No","No","No","No","No","No","No","No","No","No","Yes","No","https://health.mo.gov/living/families/shcn/ahi.php","6362821010","63010","United States","No","Not yet, but I would like to work with the military community",,"1818 Lonedell Rd
Arnold, Missouri 63010
(38.445888, -90.403616)",
"Bootheel Counseling Services","No","No","No","No","No","No","No","No","No","No","No","No","No","No","No","No","No","No","No","No","Yes","No","No","No","No","No","https://www.bootheelcounseling.com/","5734710800","63801","United States","No","Not yet, but I would like to work with the military community",,"760 Plantation Blvd
Sikeston, Missouri 63801
(36.866064, -89.57819)",
"Preferred Family Healthcare","No","No","No","No","No","No","No","No","No","No","No","No","Yes","No","No","No","No","No","No","No","Yes","No","No","No","No","No","http://pfh.org/","8164071754","64068","United States","Yes","Not yet, but I would like to work with the military community",,"7 Westowne Drive
Liberty, Missouri 64068
(39.246193, -94.439167)",
"Mark Twain Behavioral Health","No","No","No","No","No","No","No","No","No","No","No","No","Yes","No","No","No","No","No","No","No","Yes","No","No","No","No","No","https://mtbh.org/","6606654635","63501","United States","No","Not yet, but I would like to work with the military community",,"105 Pfeiffer Ave
Kirksville, Missouri 63501
(40.194762, -92.558773)",
"Grant Construction Company (telehealth only)","No","No","No","No","Yes","No","No","No","No","No","No","No","Yes","No","No","No","No","No","No","Yes","Yes","Yes","No","No","Yes","Yes","https://www.grantconstructionco.org/","8033254451","63128","United States","No","Not yet, but I would like to work with the military community",,"
O'Fallon, Missouri 63128
(38.766073, -90.764123)",
"Manchester Avenue VA Clinic","No","No","No","No","No","No","No","No","No","No","No","No","No","No","No","No","No","No","No","No","Yes","No","No","No","No","Yes","https://www.va.gov/st-louis-health-care/locations/manchester-avenue-va-clinic/","3146524100","63110","United States","Yes","Yes, I have training in military culture",,"4974 Manchester Avenue
St. Louis, Missouri 63110
(38.62548, -90.267841)",
"Marshfield VA Clinic","No","No","No","No","No","No","No","No","No","No","No","No","No","No","No","No","No","No","No","No","Yes","No","No","No","No","Yes","https://www.va.gov/columbia-missouri-health-care/locations/marshfield-va-clinic/","4174681963","65706","United States","Yes","Yes, I have training in military culture",,"1240 Banning Street
Marshfield, Missouri 65706
(37.344197, -92.928641)",
"New Horizons","No","No","No","No","No","No","No","No","No","No","No","No","No","No","No","No","No","No","No","No","Yes","No","No","No","No","No","www.mo-newhorizons.com","5734430405","65201","United States","No","Not yet, but I would like to work with the military community",,"1408 Hathman Place
Columbia, Missouri 65201
(38.966484, -92.308096)",
"Clark Community Mental Health Center","No","No","No","No","No","No","No","No","No","No","No","No","Yes","No","No","No","No","No","No","No","Yes","No","No","No","No","No","http://clarkmentalhealth.com/","4174761000","65723","United States","Yes","Not yet, but I would like to work with the military community",,"104 W Main St
Pierce City, Missouri 65723
(36.945475, -94.004098)",
"Preferred Family Healthcare","No","No","No","No","No","No","No","No","No","No","No","No","Yes","No","No","No","No","No","No","No","Yes","No","No","No","No","No","http://pfh.org/","6606651962","63501","United States",,"Not yet, but I would like to work with the military community",,"900 E Laharpe St
Kirksville, Missouri 63501
(40.178345, -92.575491)",
"Community Counseling Center of Perry County","No","No","No","No","No","No","No","No","No","No","No","No","No","No","No","No","No","No","No","Yes","Yes","No","No","No","No","No","http://www.cccntr.com","5735478305","63775","United States","Yes","Not yet, but I would like to work with the military community",,"406 North Sprng Street
Perryville, Missouri 63775
(37.728457, -89.861577)","Suite 220B"
"Burrell Behavioral Health-MAPS Belcrest Office","No","No","No","No","No","Yes","No","No","No","No","No","No","No","No","Yes","No","No","No","Yes","Yes","Yes","Yes","Yes","No","No","Yes","https://www.burrellcenter.com/","4174134676","65802","United States","Yes","Not yet, but I would like to work with the military community",,"230 N. Belcrest Ave
Springfield, Missouri 65802
(37.208991, -93.234141)","Suite A"
"Ozarks Healthcare Alton","No","No","No","No","No","No","No","No","No","No","No","No","No","No","No","No","No","No","No","No","Yes","No","No","No","No","No","www.ozarkshealthcare.com","4177787227","65606","United States",,"Not yet, but I would like to work with the military community",,"100 Medical Drive
Alton, Missouri 65606
(36.69198, -91.394955)",
"Nancy Ellis-Ordway, LCSW","No","No","No","No","Yes","No","No","No","No","No","No","No","No","Yes","Yes","No","Yes","No","No","Yes","Yes","Yes","Yes","No","No","Yes","http://www.neomsw.com","5736358668","65101","United States","Yes","Not yet, but I would like to work with the military community",,"312 Jackson St
Jefferson City, Missouri 65101
(38.572869, -92.16821)",
"New Leaf Counseling","No","No","No","No","No","Yes","No","No","No","No","No","No","Yes","Yes","Yes","No","Yes","No","No","No","Yes","Yes","Yes","Yes","No","Yes","http://www.newleafcou.com","4177663210","65802","United States","Yes","Not yet, but I would like to work with the military community",,"1330 E Cherry Street
Springfield, Missouri 65802
(37.20341, -93.272276)",
"Ozark Center New Directions","No","No","No","Yes","No","Yes","No","No","No","No","No","No","Yes","Yes","No","No","Yes","No","No","No","Yes","Yes","No","Yes","Yes","Yes",,"4173477732","64803","United States","Yes","Not yet, but I would like to work with the military community",,"305 S Virginia
Joplin, Missouri 64803
(37.088586, -94.512211)",
"Compass Health Network","No","No","No","No","No","No","No","No","No","No","No","No","Yes","No","No","No","No","No","No","No","Yes","No","No","No","No","No","https://compasshealthnetwork.org/","8448538937","65066","United States","Yes","Not yet, but I would like to work with the military community",,"704 E Hwy 28
Owensville, Missouri 65066
(38.347203, -91.489963)",
"Ozark Center","No","No","No","No","No","No","No","No","No","No","No","No","Yes","No","No","No","No","No","No","No","Yes","No","No","No","No","No","https://www.freemanhealth.com/ozark-center","4173471111","64850","United States","Yes","Not yet, but I would like to work with the military community",,"214 N. Washington
Neosho, Missouri 64850
(36.871013, -94.36718)",
"Safe Harbor Counseling Service, LLC","No","No","No","No","No","Yes","No","No","No","No","No","No","No","Yes","No","No","Yes","Yes","Yes","No","Yes","Yes","Yes","No","No","Yes","http://www.carpentercounselingservice.com","8166945955","64086","United States",,"Not yet, but I would like to work with the military community",,"200 NE Missouri Rd
Lees Summit, Missouri 64086
(38.943154, -94.376325)","Suite 200"
"FCC Behavioral Health-Turning Leaf Center","No","No","No","No","No","No","No","No","No","No","No","No","Yes","No","No","No","No","No","No","No","No","No","No","No","No","No","https://fccinc.org/","4172562570","65775","United States","Yes","Not yet, but I would like to work with the military community",,"1015 Lanton Rd
West Plains, Missouri 65775
(36.71316, -91.842868)",
"Embark Counseling Services, LLC","No","No","No","No","No","Yes","No","No","No","No","No","No","No","No","Yes","No","No","No","No","Yes","Yes","Yes","No","No","No","Yes","http://www.embark-counseling.com","9132573161","64506","United States","No","Not yet, but I would like to work with the military community",,"3805 Oakland Avenue
St. Joseph, Missouri 64506
(39.782941, -94.80031)","Suite 101A"
"Ken Thom Counseling, Inc","No","No","No","No","No","Yes","No","No","No","No","No","No","Yes","Yes","Yes","No","Yes","No","Yes","Yes","Yes","Yes","Yes","No","No","Yes","http://kenthomcounseling.com","6605622531","64468","United States","Yes","Yes, I have training in military culture",,"515 West Cooper
Maryville, Missouri 64468
(40.34314, -94.87877)",
"Southeast Missouri Behavioral Health","No","Yes","No","No","No","No","No","No","No","No","No","No","Yes","No","No","Yes","No","No","No","No","No","No","No","No","No","No","https://semobh.org/","8557526417","63663","United States","No","Not yet, but I would like to work with the military community",,"200 St Mary
Pilot Knob, Missouri 63663
(37.626444, -90.650388)",
"Preferred Family Healthcare","No","No","No","Yes","No","No","No","No","No","No","No","No","Yes","No","No","No","No","No","No","No","No","No","No","No","No","No","http://pfh.org/","6362241500","63361","United States","Yes","Not yet, but I would like to work with the military community",,"108 N Sturgeon Street
Montgomery City, Missouri 63361
(38.977154, -91.504824)",
"Southeast Missouri Behavioral Health","No","Yes","No","No","No","No","No","No","No","No","No","No","Yes","No","No","Yes","No","No","No","No","No","No","No","No","No","No","https://semobh.org/","5733234008","63965","United States","No","Not yet, but I would like to work with the military community",,"401 Main St
Van Buren, Missouri 63965
(36.989201, -91.016901)",
"The Whole You Wellness & Counseling","No","No","No","No","Yes","No","No","No","No","No","No","No","No","No","Yes","No","No","No","No","No","Yes","Yes","Yes","No","No","Yes","https://www.thewholeyouwellnessandcounseling.com/","3146263308","63141","United States","No","Not yet, but I would like to work with the military community",,"11628 Old Ballas Rd
Creve Coeur, Missouri 63141
(38.665994, -90.440188)",
"Swan Therapeutic Services, LLC","No","No","No","No","Yes","No","No","No","No","No","No","No","No","Yes","Yes","No","No","No","No","Yes","Yes","Yes","Yes","No","Yes","Yes","http://swantherapy.com","8165813737","64063","United States","No","Not yet, but I would like to work with the military community",,"529 SE 2nd St
Lee's Summit, Missouri 64063
(38.915854, -94.367965)","Suite D"
"Truman Lake Women and Childrens Treatment Center (CHN)","No","No","No","No","No","No","No","No","No","No","No","No","Yes","No","No","No","No","No","No","No","Yes","No","No","No","No","No","https://compasshealthnetwork.org/","8448538937","64735","United States","Yes","Not yet, but I would like to work with the military community",,"1800 Community Drive
Clinton, Missouri 64735
(38.392428, -93.768813)",
"Midtown Psychological Services","No","No","No","No","No","Yes","No","No","No","No","No","No","No","Yes","Yes","No","Yes","No","No","Yes","Yes","Yes","Yes","Yes","No","No","http://midtownpsych.net","8166798701","64114","United States","No","Yes, I have training in military culture",,"9233 Ward Parkway
Kansas City, Missouri 64114
(38.960237, -94.597204)","Suite 125"
"University Health Behavioral Health Crossroads","No","No","No","No","No","No","No","No","No","No","No","No","Yes","No","No","No","No","No","No","No","Yes","No","No","No","No","Yes","www.universityhealthkc.org/services/behavioral-health/","8164045709","64108","United States","Yes","Yes, I have training in military culture",,"300 West 19th Terrace
Kansas City, Missouri 64108
(39.090119, -94.587462)",
"COMTREA","No","No","No","No","No","No","No","No","No","No","No","No","Yes","No","No","No","No","No","No","No","Yes","No","No","No","No","No","https://www.comtrea.org/","6369312700","63028","United States","Yes","Not yet, but I would like to work with the military community",,"110 North Mill Street
Festus, Missouri 63028
(38.220706, -90.392694)",
"Clark Community Mental Health Center","No","No","No","No","No","No","No","No","No","No","No","No","Yes","No","No","No","No","No","No","No","Yes","No","No","No","No","No","http://clarkmentalhealth.com/","4174761000","65708","United States","Yes","Not yet, but I would like to work with the military community",,"411 3rd St
Monett, Missouri 65708
(36.923287, -93.925346)",
"Compass Health Network","No","No","No","No","No","No","No","No","No","No","No","No","Yes","No","No","No","No","No","No","No","Yes","No","No","No","No","No","https://compasshealthnetwork.org/","8448538937","65560","United States","Yes","Not yet, but I would like to work with the military community",,"913 S Pershing Avenue
Salem, Missouri 65560
(37.636911, -91.530972)",
"Embark Counseling Services, LLC","No","No","No","No","No","Yes","No","Yes","Yes","No","No","No","No","No","Yes","No","No","No","Yes","Yes","Yes","Yes","No","No","No","Yes","http://www.embark-counseling.com","9132573161","64151","United States","No","Not yet, but I would like to work with the military community",,"8350 N St Clair Avenue
Kansas City, Missouri 64151
(39.245491, -94.649361)","Suite 275"
"Thomas Murphy, LPC","No","No","No","No","No","Yes","No","No","No","No","No","No","Yes","Yes","Yes","No","Yes","No","Yes","Yes","Yes","Yes","Yes","No","No","No",,"5737744198","65536","United States","Yes","Not yet, but I would like to work with the military community",,"690 Lynn Street
Lebanon, Missouri 65536
(37.690953, -92.66894)",
"Caregivers on the Homefront, Inc.","No","No","No","No","No","No","No","Yes","No","No","No","No","No","Yes","No","No","No","No","No","No","Yes","No","No","Yes","No","Yes","https://caregivers-homefront.org","8164622022","64153","United States","No","Yes, I have training in military culture",,"8506 N Wayland Ave
Kansas City, Missouri 64153
(39.249443, -94.692827)",
"Fuelling and Assocaites","No","No","No","No","Yes","No","No","No","No","No","No","No","Yes","Yes","Yes","No","Yes","No","Yes","Yes","Yes","Yes","Yes","Yes","No","No","http://www.fuellingandassoiciates.com","6604296678","64735","United States","Yes","Yes, I have served in the military",,"115 E Grandriver
Clinton, Missouri 64735
(38.368163, -93.775935)",
"Carolyn Catchings, LPC, CRC","No","No","No","No","No","Yes","No","No","No","No","No","No","No","Yes","Yes","No","Yes","Yes","Yes","Yes","Yes","Yes","Yes","No","No","No",,"3144139671","63132","United States","No","Not yet, but I would like to work with the military community",,"9378 Olive Blvd
St. Louis, Missouri 63132
(38.674115, -90.374278)","Suite 200"
"Ozarks Healthcare Behavioral Health Center","No","No","No","No","No","No","No","No","No","No","No","No","No","No","No","No","No","No","No","No","Yes","No","No","No","No","No","www.ozarkshealthcare.com","4172576762","65775","United States",,"Not yet, but I would like to work with the military community",,"1211 Porter Wagoner Blvd
West Plains, Missouri 65775
(36.739731, -91.875213)","Suite 23 Pkwy"
"Counseling Associates","No","No","No","No","No","Yes","No","No","No","No","No","No","Yes","Yes","Yes","No","Yes","No","Yes","Yes","Yes","Yes","No","No","Yes","Yes",,"4176671931","64759","United States","No","Yes, I have training in military culture",,"203 W llth Street
Lamar, Missouri 64759
(37.494418, -94.27774)",
"The Lighthouse Counseling Center","No","No","No","No","No","No","No","No","No","No","No","No","Yes","Yes","Yes","No","Yes","No","Yes","Yes","Yes","Yes","Yes","Yes","Yes","No","http://thelighthouse123.com","6602699577","65270","United States","No","Yes, I have training in military culture",,"510 South Morley
Moberly, Missouri 65270
(39.413441, -92.433834)",
"Good-Nous Family Counseling Center","No","No","No","No","No","No","No","No","No","No","No","Yes","Yes","Yes","Yes","No","Yes","No","Yes","Yes","Yes","Yes","Yes","Yes","Yes","No","http://goodnous4u.com","4173262418","65613","United States","Yes","Not yet, but I would like to work with the military community",,"2085 S. Boston Pl
Bolivar, Missouri 65613
(37.606535, -93.405614)",
"Olive Tree Counseling","No","No","No","No","No","Yes","No","No","No","No","No","No","Yes","Yes","No","No","Yes","No","Yes","Yes","Yes","Yes","Yes","Yes","No","Yes","http://olivetreecounseling.net","6603721663","65270","United States","No","Not yet, but I would like to work with the military community",,"222 North Williams
Moberly, Missouri 65270
(39.420496, -92.439164)",
"Swope Health","No","No","No","No","No","No","No","No","No","No","No","No","Yes","No","No","No","No","No","No","No","Yes","No","No","No","No","Yes","https://swopehealth.org/","8169221070","64130","United States","No","Not yet, but I would like to work with the military community",,"3801 Dr Martin Luther King Jr Blvd
Kansas City, Missouri 64130
(39.035025, -94.539992)",
"Mosaic Counseling Care Center","No","No","No","No","No","Yes","No","No","No","No","No","No","Yes","Yes","Yes","No","No","Yes","No","No","Yes","Yes","No","Yes","Yes","Yes","www.mymlc.com/Main/Location/st-joseph-mo/Counseling-Care/","8162716573","64506","United States","Yes","Not yet, but I would like to work with the military community",,"3620 Frederick Ave
St. Joseph, Missouri 64506
(39.7766, -94.80437)",
"A New Song Counseling Services","No","No","No","No","No","Yes","No","No","No","No","No","No","Yes","Yes","Yes","No","Yes","No","Yes","Yes","Yes","Yes","Yes","Yes","No","No",,"5737744198","65583","United States","Yes","Not yet, but I would like to work with the military community",,"413 Historic 66 West
Waynesville, Missouri 65583
(37.824404, -92.210195)",
"Christopher Cornine, LPC","No","No","No","No","No","Yes","No","No","No","No","No","No","Yes","Yes","Yes","No","No","No","Yes","Yes","Yes","Yes","Yes","No","Yes","Yes","http://www.diakonocounseling.com","8163739240","64057","United States","No","Yes, I have training in military culture",,"4200 Little Blue Parkway
Independence, Missouri 64057
(39.037283, -94.341969)","Suite 360"
"UMSL-Center for Behavioral Health","No","No","No","No","No","No","No","No","No","No","No","Yes","No","Yes","Yes","No","No","No","No","No","Yes","Yes","Yes","Yes","No","Yes","http://www.umsl.edu/cbh/","3145164357","63131","United States","No","Not yet, but I would like to work with the military community",,"12837 Flushing Meadows Drive
Town and Country, Missouri 63131
(38.608209, -90.455275)","Suite 220"
"St. Louis VA Medical Center-Jefferson Barracks","No","No","No","No","No","No","No","No","No","No","No","No","Yes","No","No","No","No","No","No","No","Yes","Yes","No","Yes","No","Yes","https://www.va.gov/st-louis-health-care/locations/st-louis-va-medical-center-jefferson-barracks/","3146524100","63125","United States","Yes","Yes, I have training in military culture",,"1 Jefferson Barracks Drive
St. Louis, Missouri 63125
(38.49362, -90.283298)",
"Fordland Clinic","No","No","No","No","Yes","No","No","No","No","No","No","No","No","Yes","Yes","No","No","No","No","Yes","Yes","Yes","No","Yes","No","Yes","http://www.fordlandclinic.org","4177672273","65652","United States","Yes","Not yet, but I would like to work with the military community",,"1059 Barton Drive
Fordland, Missouri 65652
(37.161881, -92.924979)",
"Family Guidance Center","No","No","No","No","No","No","No","No","No","No","No","No","No","No","No","No","No","No","No","No","Yes","No","No","No","No","No","http://fgcnow.org/","8163641862","64506","United States","Yes","Not yet, but I would like to work with the military community",,"724 N. 22nd St.
St. Joseph, Missouri 64506
(39.773775, -94.834805)",
"Southeast Missouri Behavioral Health","No","Yes","No","No","No","No","No","No","No","No","No","No","Yes","No","No","Yes","No","No","No","No","No","No","No","No","No","No","https://semobh.org/","5734376264","65066","United States","No","Not yet, but I would like to work with the military community",,"1014B West Hwy 28
Owensville, Missouri 65066
(38.340588, -91.513333)",
"Mineral Area CPRC, Inc","No","No","No","No","No","No","No","No","No","No","No","No","Yes","No","No","No","No","No","No","No","Yes","No","No","No","No","No","http://www.comtrea.org","5737562899","63640","United States","No","Not yet, but I would like to work with the military community",,"203 S. Washington
Farmington, Missouri 63640
(37.778718, -90.421429)",
"Midwest Innovative Health Inc","No","No","No","No","Yes","Yes","No","No","No","No","No","No","Yes","Yes","No","No","Yes","No","No","Yes","Yes","Yes","No","Yes","No","No",,"8165784548","64063","United States","No","Not yet, but I would like to work with the military community",,"409 SE Douglas Street
Lee's Summit, Missouri 64063
(38.910602, -94.374833)",
"Wendy Jamison, LPC","No","No","No","No","No","Yes","No","No","No","No","No","No","No","Yes","No","No","Yes","No","Yes","Yes","Yes","Yes","No","No","No","Yes",,"3142291019","63021","United States","No","Yes, I have training in military culture",,"1103 Ridgeway Meadow Drive
Ellisville, Missouri 63021
(38.583052, -90.586573)",
"Feel Good Counseling LLC","No","No","No","No","No","Yes","No","No","No","No","No","No","Yes","Yes","Yes","No","Yes","No","No","Yes","Yes","No","No","Yes","No","Yes","https://feelgood.clientsecure.me/","3144670155","63122","United States","No","Not yet, but I would like to work with the military community",,"439 Kirkwood Rd
Kirkwood, Missouri 63122
(38.576002, -90.407006)","Suite 208"
"Compass Health Network","No","No","No","No","No","No","No","No","No","No","No","No","Yes","No","No","No","No","No","No","No","Yes","No","No","No","No","No","https://compasshealthnetwork.org/","8448538937","65402","United States","Yes","Not yet, but I would like to work with the military community",,"1450 E 10th Street
Rolla, Missouri 65402
(37.951112, -91.746902)",
"COMTREA","No","No","No","No","No","No","No","No","No","No","No","No","Yes","No","No","No","No","No","No","No","Yes","No","No","No","No","No","https://www.comtrea.org/","6364816040","63050","United States","Yes","Not yet, but I would like to work with the military community",,"4 Hickory Ridge Rd
Hillsboro, Missouri 63050
(38.220854, -90.573563)","Suite 600"
"Keri R. Burns, LPC","No","No","No","No","No","Yes","No","No","No","No","No","No","No","Yes","Yes","No","No","No","No","Yes","Yes","Yes","No","No","No","Yes","http://kburnstherapy.com","3146095377","63105","United States","No","Not yet, but I would like to work with the military community",,"230 S. Bemiston
Clayton, Missouri 63105
(38.646558, -90.337378)","Suite 430"
"Compass Health Network","No","No","No","No","No","No","No","No","No","No","No","No","Yes","No","No","No","No","No","No","No","Yes","No","No","No","No","No","https://compasshealthnetwork.org/","8448538937","65355","United States","Yes","Not yet, but I would like to work with the military community",,"17571 N. Dam Access Rd
Warsaw, Missouri 65355
(38.264873, -93.38662)",
"BJC Behavioral Health","No","No","No","No","No","No","No","No","No","No","No","No","Yes","No","No","No","No","No","No","No","Yes","No","No","No","No","No","www.bjcbehavioralhealth.org","3142063900","63031","United States",,"Not yet, but I would like to work with the military community",,"1150 Graham Road
Florissant, Missouri 63031
(38.779529, -90.334605)","Suite 102"
"BJC Behavioral Health","No","No","No","No","No","No","No","No","No","No","No","No","Yes","No","No","No","No","No","No","No","Yes","No","No","No","No","No","www.bjcbehavioralhealth.org","3142063783","63103","United States",,"Not yet, but I would like to work with the military community",,"1430 Olive
St. Louis, Missouri 63103
(38.630281, -90.201451)","Suite 400"
"Preferred Family Healthcare","No","No","No","No","No","No","No","No","No","No","No","No","Yes","No","No","No","No","No","No","No","No","No","No","No","No","No","http://pfh.org/","6362241500","63379","United States","Yes","Not yet, but I would like to work with the military community",,"1011 E Cherry St
Troy, Missouri 63379
(38.984962, -90.963905)",
"Cynthia Butler, LCSW","No","No","No","No","Yes","No","No","No","No","No","No","No","No","Yes","Yes","No","Yes","No","No","No","Yes","Yes","No","Yes","No","Yes",,"6604256151","64424","United States","Yes","Not yet, but I would like to work with the military community",,"4118 Miller Street
Bethany, Missouri 64424
(40.265193, -94.0107)",
"Pinner Counseling","No","Yes","No","Yes","No","No","No","No","No","No","No","No","Yes","Yes","No","Yes","No","No","No","No","No","No","No","No","No","No","https://www.pinnercounseling.org/","3144401132","63019","United States","No","Not yet, but I would like to work with the military community",,"805 N Truman Blvd
Crystal City, Missouri 63019
(38.227609, -90.38602)",
"Jerrell L. Driver, Ph.D., M.S.C.P.","No","No","No","No","No","No","No","No","No","No","No","Yes","Yes","Yes","Yes","No","No","No","No","Yes","Yes","Yes","No","Yes","Yes","No",,"5732047771","63755","United States","Yes","Yes, I have training in military culture",,"2387 West Jackson Blvd.
Jackson, Missouri 63755
(37.384255, -89.69955)","Suite B"
"Keith Allen, Ph.D.","No","No","No","No","No","No","No","No","No","No","No","Yes","No","Yes","No","Yes","No","No","No","Yes","No","Yes","No","No","No","No",,"8169319912","64112","United States","No","Not yet, but I would like to work with the military community",,"800 West 47th Street
Kansas City, Missouri 64112
(39.042594, -94.598986)",
"Compass Health Network","No","No","No","No","No","No","No","No","No","No","No","No","Yes","No","No","No","No","No","No","No","Yes","No","No","No","No","No","https://compasshealthnetwork.org/","8448538937","64701","United States","Yes","Not yet, but I would like to work with the military community",,"300 Galaxie Avenue
Harrisonville, Missouri 64701
(38.655541, -94.331167)",
"ReDiscover","No","No","No","No","No","No","No","No","No","No","No","No","No","Yes","Yes","No","No","No","No","No","Yes","Yes","No","Yes","No","No","www.rediscovermh.org","8449944325","64086","United States","Yes","Not yet, but I would like to work with the military community",,"901 NE Independence Ave
Lee's Summit, Missouri 64086
(38.928995, -94.364585)",
"Compass Health Network","No","No","No","No","No","No","No","No","No","No","No","No","Yes","No","No","No","No","No","No","No","Yes","No","No","No","No","No","https://compasshealthnetwork.org/","8448538937","65109","United States","Yes","Not yet, but I would like to work with the military community",,"227 Metro Drive
Jefferson City, Missouri 65109
(38.592269, -92.222602)",
"Clark Community Mental Health Center","No","No","No","No","No","No","No","No","No","No","No","No","Yes","No","No","No","No","No","No","No","Yes","No","No","No","No","No","http://clarkmentalhealth.com/","4174761000","65708","United States","Yes","Not yet, but I would like to work with the military community",,"1701 N Central Ave
Monett, Missouri 65708
(36.943669, -93.926586)",
"First Choice Counseling PC","No","No","No","No","No","Yes","No","No","No","No","No","Yes","Yes","Yes","No","Yes","Yes","Yes","Yes","Yes","Yes","Yes","Yes","Yes","Yes","Yes","http://www.1st-choice-counseling.com/","3147626363","63130","United States","No","Not yet, but I would like to work with the military community",,"569 Melville Ave
St. Louis, Missouri 63130
(38.65568, -90.30553)","Suite 202"
"Compass Counseling Services","No","No","No","No","No","Yes","No","No","No","No","No","No","No","Yes","Yes","No","No","No","Yes","Yes","Yes","Yes","Yes","Yes","No","Yes","http://ozarkscompass.com","4175974572","65804","United States","No","Yes, I have training in military culture",,"3022 S National Ave
Springfield, Missouri 65804
(37.158497, -93.277329)","Suite 104"
"Destined by Design Counseling, LLC","No","No","No","No","No","Yes","No","No","No","No","No","No","No","Yes","No","No","Yes","No","Yes","Yes","Yes","Yes","No","No","No","Yes",,"9136623739","64063","United States","No","Yes, I have served in the military",,"201 SW Market Street
Lees Summit, Missouri 64063
(38.912631, -94.382003)",
"Linda G. Smith, MA","No","No","No","No","Yes","Yes","No","No","No","No","No","No","No","No","No","No","No","No","Yes","Yes","Yes","No","No","Yes","No","No","http://lindagsmith.com/","8164566654","64037","United States","No","Not yet, but I would like to work with the military community",,"2301 Highway 13
Higginsville, Missouri 64037
(39.071949, -93.734612)","Suite 101"
"Clear Perspective, LLC","No","No","No","No","No","Yes","No","No","No","No","No","No","No","No","Yes","No","No","No","Yes","No","Yes","No","No","No","No","Yes",,"6364003906","63367","United States","No","Not yet, but I would like to work with the military community",,"112 Centre on the Lake
Lake Saint Louis, Missouri 63367
(38.802622, -90.771552)",
"Soileau Partners Psychotherapy","No","No","No","No","No","No","No","No","Yes","No","No","No","No","Yes","Yes","No","No","No","Yes","Yes","Yes","Yes","Yes","No","No","No","https://reality-reverie.com","8168952515","64105","United States","No","Not yet, but I would like to work with the military community",,"107 W. 9th Street
Kansas City, Missouri 64105
(39.103501, -94.58417)",
"Mental Wellness","No","No","No","No","No","Yes","No","No","No","No","No","No","Yes","Yes","Yes","No","Yes","Yes","No","Yes","Yes","Yes","Yes","Yes","Yes","Yes",,"5733027241","65065","United States","No","Not yet, but I would like to work with the military community",,"1191 Hwy KK
Osage Beach, Missouri 65065
(38.119153, -92.692115)",
"Preferred Family Healthcare","No","No","No","No","No","No","No","No","No","No","No","No","Yes","No","No","No","No","No","No","No","No","No","No","No","No","No","http://pfh.org/","6362241700","63116","United States","Yes","Not yet, but I would like to work with the military community",,"4066 Dunnica Ave
St. Louis, Missouri 63116
(38.588442, -90.256454)",
"William Holtmeyer Counseling and Consulting LLC","No","No","No","No","No","Yes","No","No","No","No","No","No","No","Yes","No","No","Yes","No","No","Yes","Yes","Yes","Yes","Yes","Yes","No",,"4178603858","65804","United States","No","Not yet, but I would like to work with the military community",,"1736 E Sunshine
Springfield, Missouri 65804
(37.18055, -93.263199)","Suite 718"
"Olive Street VA Clinic","No","No","No","No","No","No","No","No","No","No","No","No","No","No","No","No","No","No","No","No","Yes","No","No","No","No","Yes","https://www.va.gov/st-louis-health-care/locations/olive-street-va-clinic/","3146524100","63108","United States","Yes","Yes, I have training in military culture",,"3615 Olive Street
St. Louis, Missouri 63108
(38.638391, -90.232769)",
