"departamento_prestacion","municipio_prestacion","servicio","estado","nombre","departamento_domicilio","municipio_domicilio","direccion","telefono","email","tipo_inscripcion","representante_legal","tipo_prestador","clasificacion"
"ANTIOQUIA","MEDELLIN","ACUEDUCTO","OPERATIVA","CORPORACION DE ACUEDUCTO DE ALTAVISTA","ANTIOQUIA","MEDELLIN","CALLE 18 Nº 105 - 21","4083052","administrativo@acueductoaltavista.com","Registro por la ESP","GUSTAVO DE JESUS CANO MUNOZ","ORGANIZACION AUTORIZADA","DESDE 2501 HASTA 5000 USUARIOS"
"ANTIOQUIA","MEDELLIN","ACUEDUCTO","OPERATIVA","EMPRESAS PÚBLICAS DE MEDELLIN E.S.P.","ANTIOQUIA","MEDELLIN","CRA 58 No 42-125 Edificio Inteligente","3808080","DONEY.MARTINEZ@EPM.COM.CO","Registro por la ESP","JORGE ANDRES CARRILLO CARDOSO","EMPRESA INDUSTRIAL Y COMERCIAL DEL ESTADO","MAYOR O IGUAL A 5001 USUARIOS"
"ANTIOQUIA","MEDELLIN","ACUEDUCTO","OPERATIVA","CORPORACION DE ACUEDUCTO  SAN PEDRO","ANTIOQUIA","MEDELLIN","Corregimiento Santa Elena","5400550","llanoplan@gmail.com","Registro por la ESP","LUZ MARINA CEPEDA TORO","ORGANIZACION AUTORIZADA","MENOR O IGUAL A 2500 USUARIOS"
"ANTIOQUIA","MEDELLIN","ACUEDUCTO","OPERATIVA","CORPORACION DE ACUEDUCTO MULTIVEREDAL SANTA ELENA","ANTIOQUIA","MEDELLIN","Corregimiento Santa Elena","4790455","acuesanta@hotmail.com","Registro por la ESP","LUIS ALBERTO  ATEHORTUA  GRISALES","ORGANIZACION AUTORIZADA","MENOR O IGUAL A 2500 USUARIOS"
"ANTIOQUIA","MEDELLIN","ACUEDUCTO","OPERATIVA","CORPORACIÓN DE ACUEDUCTO SAN JOSÉ","ANTIOQUIA","MEDELLIN","VEREDA SAN JOSE","3222260","c.acueductosanjose@gmail.com","Registro por la ESP","OLGA LUCIA MARIN  BENJUMEA","ORGANIZACION AUTORIZADA","MENOR O IGUAL A 2500 USUARIOS"
"ANTIOQUIA","MEDELLIN","ACUEDUCTO","OPERATIVA","CORPORACION  DE ACUEDUCTO MULTIVEREDAL LA ACUARELA","ANTIOQUIA","MEDELLIN","Carrera 131 No 60D - 27","4276009","aux_admin@acueductolaacuarela.com","Registro por la ESP","MARTHA NELLY SANCHEZ  VELASQUEZ","ORGANIZACION AUTORIZADA","DESDE 2501 HASTA 5000 USUARIOS"
"ANTIOQUIA","MEDELLIN","ACUEDUCTO","OPERATIVA","CORPORACIÓN DE ACUEDUCTO MULTIVEREDAL ""ARCOIRIS""","ANTIOQUIA","MEDELLIN","carrera 150C No 80-14 vereda El Llano","4796109","gerencia@acueductoarcoiris.com","Registro por la ESP","SANDRA MILENA GOMEZ SANCHEZ","ORGANIZACION AUTORIZADA","MENOR O IGUAL A 2500 USUARIOS"
"ANTIOQUIA","MEDELLIN","ACUEDUCTO","OPERATIVA","CORPORACION DE ASOCIADOS DEL ACUEDUCTO LAS FLORES","ANTIOQUIA","MEDELLIN","CORREGIMIENTO SANTA ELENA","4087235","corpolasflores@outlook.com","Registro por la ESP","JUAN GUILLERMO RAMIREZ GALLEGO","ORGANIZACION AUTORIZADA","MENOR O IGUAL A 2500 USUARIOS"
"ANTIOQUIA","MEDELLIN","ACUEDUCTO","OPERATIVA","CORPORACION DE ASOCIADOS DEL ACUEDUCTO MONTAÑITA","ANTIOQUIA","MEDELLIN","Vereda Montañita","2863280","acueducto646@gmail.com","Registro por la ESP","DIANA MARIA GARCIA LOPERA","ORGANIZACION AUTORIZADA","MENOR O IGUAL A 2500 USUARIOS"
"ANTIOQUIA","MEDELLIN","ACUEDUCTO","OPERATIVA","CORPORACION DE ASOCIADOS DEL ACUEDUCTO ISAAC GAVIRIA","ANTIOQUIA","MEDELLIN","CALLE 56H 18-27","2849356","acueductoisaacgaviria@yayoo.com","Registro por la ESP","DEYANIRA GIRALDO CASTRILLON","ORGANIZACION AUTORIZADA","MENOR O IGUAL A 2500 USUARIOS"
"ANTIOQUIA","MEDELLIN","ACUEDUCTO","OPERATIVA","JUNTA ADMINISTRADORA DEL ACUEDUCTO DE SAN JOSE DE MANZANILLO - AGUA PURA-","ANTIOQUIA","MEDELLIN","VEREDA EL MANZANILLO","3436335","aguapura-manzanillo@hotmail.com","Registro por la ESP","LUIS HERNANDO ISAZA ROJAS","ORGANIZACION AUTORIZADA","DESDE 2501 HASTA 5000 USUARIOS"
"ANTIOQUIA","MEDELLIN","ACUEDUCTO","OPERATIVA","CORPORACION DE ACUEDUCTO EL MANANTIAL","ANTIOQUIA","MEDELLIN","CRA 78 N° 43 SUR 02","3028009","acueducto.elmanantial@gmail.com","Registro por la ESP","ANDREA MONTOYA ORTIZ","ORGANIZACION AUTORIZADA","MENOR O IGUAL A 2500 USUARIOS"
"ANTIOQUIA","MEDELLIN","ACUEDUCTO","OPERATIVA","JUNTA ADMINISTRADORA DE SERVICIOS DE EL VERGEL","ANTIOQUIA","MEDELLIN","CL 48 SUR 72 225 IN 201","2862523","juntavergel@hotmail.com","Registro por la ESP","SANDRA MILENA GOMEZ DIEZ","ORGANIZACION AUTORIZADA","MENOR O IGUAL A 2500 USUARIOS"
"ANTIOQUIA","MEDELLIN","ACUEDUCTO","OPERATIVA","JUNTA ADMINISTRADORA ACUEDUCTO MULTIVEREDAL LA IGUANA","ANTIOQUIA","MEDELLIN","Calle 64  128-109","4271429","acueductoiguana@hotmail.com","Registro por la ESP","SIGIFREDO TORRES SANCHEZ","ORGANIZACION AUTORIZADA","MENOR O IGUAL A 2500 USUARIOS"
"ANTIOQUIA","MEDELLIN","ACUEDUCTO","OPERATIVA","JUNTA ADMINISTRADORA ACUEDUCTO LA SORBETANA","ANTIOQUIA","MEDELLIN","CERRERA78 43SUR 02 SAN ANTONIO DE PRADO","2792095","j.acueductolasorbetana@gmail.com","Registro por la ESP","EUGENIA  MARIA  HERNANDEZ","ORGANIZACION AUTORIZADA","MENOR O IGUAL A 2500 USUARIOS"
"ANTIOQUIA","MEDELLIN","ACUEDUCTO","OPERATIVA","JUNTA ADMINISTRADORA ACUEDUCTO MULTIVEREDAL EL HATO","ANTIOQUIA","MEDELLIN","CL 64 128 44 Apto 301","4275336","acueductoelhato@une.net.co","Registro por la ESP","MARTHA ELENA CORREA VELASQUEZ","ORGANIZACION AUTORIZADA","MENOR O IGUAL A 2500 USUARIOS"
"ANTIOQUIA","MEDELLIN","ACUEDUCTO","OPERATIVA","CORPORACIÓN DE   ACUEDUCTO MAZO","ANTIOQUIA","MEDELLIN","SANTA ELENA VEREDA MAZO","4084292","acuemazo@gmail.com","Registro por la ESP","LUZ ARLEY ROJAS GRAJALES","ORGANIZACION AUTORIZADA","MENOR O IGUAL A 2500 USUARIOS"
"ANTIOQUIA","MEDELLIN","ACUEDUCTO","OPERATIVA","JUNTA ADMINISTRADORA ACUEDUCTO MANZANILLO","ANTIOQUIA","MEDELLIN","VEREDA MANZANILLO CORR. ALTAVISTA","3884438","acueductom@hotmail.com","Registro por la ESP","MARIA TERESA LOAIZA CANO","ORGANIZACION AUTORIZADA","MENOR O IGUAL A 2500 USUARIOS"
"ANTIOQUIA","MEDELLIN","ACUEDUCTO","OPERATIVA","CORPORACIÓN JUNTA ADMINISTRADORA ACUEDUCTO AGUAS FRIAS","ANTIOQUIA","MEDELLIN","CORREGIMIENTO ALTAVISTA VEREDA AGUAS FRIAS","3685207","acueductoaguasfrias@gmail.com","Registro por la ESP","LUZ MIRYAM  ORTIZ SERNA","ORGANIZACION AUTORIZADA","MENOR O IGUAL A 2500 USUARIOS"
"ANTIOQUIA","MEDELLIN","ACUEDUCTO","OPERATIVA","ASOCIACIÓN DE USUARIOS DEL ACUEDUCTO Y ALCANTARILLADO SAN IGNACIO","ANTIOQUIA","GUARNE","VEREDA SAN IGNACIO","5380007","asuasi538@gmail.com","Registro por la ESP","MARTHA LUCIA ESCOBAR PELAEZ","ORGANIZACION AUTORIZADA","MENOR O IGUAL A 2500 USUARIOS"
"ANTIOQUIA","MEDELLIN","ACUEDUCTO","OPERATIVA","CORPORACION DE ACUEDUCTO MEDIA LUNA","ANTIOQUIA","MEDELLIN","CARRERA 20 ESTE No 52-551 VDA. MEDIA LUNA KM3. VIA SANTA ELENA","3379881","acueductomedialuna@hotmail.com","Registro por la ESP","LUZ EMERITA GOMEZ CELADA","ORGANIZACION AUTORIZADA","MENOR O IGUAL A 2500 USUARIOS"
"ANTIOQUIA","MEDELLIN","ACUEDUCTO","OPERATIVA","CORPORACION DE ACUEDUCTO PIEDRAS BLANCAS","ANTIOQUIA","MEDELLIN","CR 46 ESTE 69-10 VIA EL ROSARIO KM 3 792","4084330","acueductopiedrasblancas@gmail.com","Registro por la ESP","HECTOR HEVELIO ATEHORTUA GRAJALES","ORGANIZACION AUTORIZADA","MENOR O IGUAL A 2500 USUARIOS"
"ANTIOQUIA","MEDELLIN","ACUEDUCTO","OPERATIVA","CORPORACION DE ACUEDUCTO EL MANANTIAL DE ANA DIAZ","ANTIOQUIA","MEDELLIN","CARRERA  125 NUMERO 34 AA 167 INT. 201","4934719","acueductomanantialdeanadiaz@gmail.com","Registro por la ESP","YUDY FRANCENLY BOLIVAR CARTAGENA","ORGANIZACION AUTORIZADA","MENOR O IGUAL A 2500 USUARIOS"
"ANTIOQUIA","MEDELLIN","ACUEDUCTO","OPERATIVA","Corporación de Acueducto Multiveredal Palmitas La China","ANTIOQUIA","MEDELLIN","KILOMETRO 2 # 255 CALLE 116 # 215-51","1111111","acueductolachina@yahoo.es","Registro por la ESP","MARTHA CECILIA PULGARIN CANO","ORGANIZACION AUTORIZADA","MENOR O IGUAL A 2500 USUARIOS"
