"departamento_prestacion","municipio_prestacion","servicio","estado","nombre","departamento_domicilio","municipio_domicilio","direccion","telefono","email","tipo_inscripcion","representante_legal","tipo_prestador","clasificacion"
"BOGOTA, D.C.","BOGOTA, D.C.","ACUEDUCTO","OPERATIVA","EMPRESA DE ACUEDUCTO Y ALCANTARILLADO DE BOGOTÁ E.S.P","BOGOTA, D.C.","BOGOTA, D.C.","Av Calle 24 No 37 - 15","3447000","lortega@acueducto.com.co","Registro por la ESP","CRISTINA ARANGO OLAYA","EMPRESA INDUSTRIAL Y COMERCIAL DEL ESTADO","MAYOR O IGUAL A 5001 USUARIOS"
"BOGOTA, D.C.","BOGOTA, D.C.","ALCANTARILLADO","OPERATIVA","EMPRESA DE ACUEDUCTO Y ALCANTARILLADO DE BOGOTÁ E.S.P","BOGOTA, D.C.","BOGOTA, D.C.","Av Calle 24 No 37 - 15","3447000","lortega@acueducto.com.co","Registro por la ESP","CRISTINA ARANGO OLAYA","EMPRESA INDUSTRIAL Y COMERCIAL DEL ESTADO","MAYOR O IGUAL A 5001 USUARIOS"
"BOGOTA, D.C.","BOGOTA, D.C.","ACUEDUCTO","OPERATIVA","ASOCIACION DE SERVICIOS PÚBLICOS COMUNITARIOS SAN ISIDRO I Y II SECTOR SAN LUIS Y LA SUREÑA  ESP","BOGOTA, D.C.","BOGOTA, D.C.","CALLE 95 A No 8-31 ESTE","5200713","acualcossec@hotmail.com","Registro por la ESP","MARISOL HERNANDEZ BUITRAGO","ORGANIZACION AUTORIZADA","MENOR O IGUAL A 2500 USUARIOS"
"BOGOTA, D.C.","BOGOTA, D.C.","ALCANTARILLADO","OPERATIVA","ASOCIACION DE SERVICIOS PÚBLICOS COMUNITARIOS SAN ISIDRO I Y II SECTOR SAN LUIS Y LA SUREÑA  ESP","BOGOTA, D.C.","BOGOTA, D.C.","CALLE 95 A No 8-31 ESTE","5200713","acualcossec@hotmail.com","Registro por la ESP","MARISOL HERNANDEZ BUITRAGO","ORGANIZACION AUTORIZADA","MENOR O IGUAL A 2500 USUARIOS"
"BOGOTA, D.C.","BOGOTA, D.C.","ACUEDUCTO","OPERATIVA","COOPERATIVA DE SERVICIOS PUBLICOS DE ACUEDUCTO Y ALCANTARILLADO DE LA PARCELACION EL JARDIN LIMITADA","BOGOTA, D.C.","BOGOTA, D.C.","Calle 223 No. 54 - 21 Int 1","6762456","coopjardin@yahoo.com","Registro por la ESP","LUIS FELIPE DEL SANTO ANGEL DE VALDENEBRO BUENO","PRESTADORES FUERA DEL ART. 15 LSPD","HASTA 2500 SUSCRIPTORES"
"BOGOTA, D.C.","BOGOTA, D.C.","ASEO","OPERATIVA","CIUDAD LIMPIA BOGOTÁ S.A. E.S.P.","BOGOTA, D.C.","BOGOTA, D.C.","Calle 59C Sur N.51-50","7300150","brodriguez@ciudadlimpia.com.co","Registro por la ESP","MAURICIO VELASCO VALLECILLA","SOCIEDADES (EMPRESA DE SERVICIOS PUBLICOS)","MAYOR O IGUAL A 5001 USUARIOS"
"BOGOTA, D.C.","BOGOTA, D.C.","ASEO","OPERATIVA","ASOCIACION COOPERATIVA DE RECICLADORES DE BOGOTA","BOGOTA, D.C.","BOGOTA, D.C.","CARRERA 34 No 9-46","9054997","arbesp@gmail.com","Registro por la ESP","NOHRA PADILLA HERRERA","ORGANIZACION AUTORIZADA","MAYOR O IGUAL A 5001 USUARIOS"
"BOGOTA, D.C.","BOGOTA, D.C.","ASEO","OPERATIVA","CONSASA SAS ESP","BOGOTA, D.C.","BOGOTA, D.C.","CARRERA 7 N 73 47 OFICINA 202 EDIF ION 73","2777983","JARPIGA@YAHOO.COM","Registro por la ESP","JAIME ARIEL PINILLA  GALINDO","SOCIEDADES (EMPRESA DE SERVICIOS PUBLICOS)","MENOR O IGUAL A 2500 USUARIOS"
"BOGOTA, D.C.","BOGOTA, D.C.","ASEO","OPERATIVA","AQUAPOLIS SOCIEDAD ANONIMA E.S.P.","BOGOTA, D.C.","BOGOTA, D.C.","Av Cra 45  169 25  of 202 Centro Comercial Punto 169","2320402","aquapolis@yahoo.com","Registro por la ESP","PATRICIA PENA PADILLA","SOCIEDADES (EMPRESA DE SERVICIOS PUBLICOS)","MENOR O IGUAL A 2500 USUARIOS"
"BOGOTA, D.C.","BOGOTA, D.C.","ACUEDUCTO","OPERATIVA","ASOCIACION DE USUARIOS DE AGUAS CALIENTES","BOGOTA, D.C.","BOGOTA, D.C.","Calle 92 Sur  Nº 18 F-20","2009420","aguaskalientes@hotmail.com","Registro por la ESP","FELIX OCTAVIO RODRIGUEZ  DE LA ROSA","ORGANIZACION AUTORIZADA","HASTA 2500 SUSCRIPTORES"
"BOGOTA, D.C.","BOGOTA, D.C.","ACUEDUCTO","OPERATIVA","AGUAS KPITAL S.A. E.S.P.","BOGOTA, D.C.","BOGOTA, D.C.","KR. 11  93A-85 PISO 6","6511500","martha.paez@aguaskpital.com","Registro por la ESP","ALVARO ENRIQUE ARAUJO ACUÑA","SOCIEDADES (EMPRESA DE SERVICIOS PUBLICOS)","MAS DE 2500 SUSCRIPTORES"
"BOGOTA, D.C.","BOGOTA, D.C.","ACUEDUCTO","OPERATIVA","AGUAZUL BOGOTA S.A.  E.S.P.","BOGOTA, D.C.","BOGOTA, D.C.","CALLE 82 No. 19A 34","7470001","actualizar.cons@etb.net.co","Registro por la ESP","CARLOS ALBERTO GIRALDO LOPEZ","SOCIEDADES (EMPRESA DE SERVICIOS PUBLICOS)","MAS DE 2500 SUSCRIPTORES"
"BOGOTA, D.C.","BOGOTA, D.C.","ASEO","OPERATIVA","ASOCIACION DE RECICLAJE RECICLATODO'S","BOGOTA, D.C.","BOGOTA, D.C.","Carrera 88d #75a sur 48","4184346","carlosgarayfederincol@yahoo.com","Registro por la ESP","CARLOS EDUARDO GARAY CAICEDO","ORGANIZACION AUTORIZADA","MAYOR O IGUAL A 5001 USUARIOS"
"BOGOTA, D.C.","BOGOTA, D.C.","ASEO","OPERATIVA","LIMPIEZA METROPOLITANA S.A E.S.P.","BOGOTA, D.C.","BOGOTA, D.C.","CRA 62 19 - 04 INT. 4","4172300","juan.castilla@lime.cim.co","Registro por la ESP","OSCAR SEBASTIAN ALESSO","SOCIEDADES (EMPRESA DE SERVICIOS PUBLICOS)","MAYOR O IGUAL A 5001 USUARIOS"
"BOGOTA, D.C.","BOGOTA, D.C.","ASEO","CANCELACION","STL S.A.  E.S.P.","BOGOTA, D.C.","BOGOTA, D.C.","CLL 113 N.7- 45 TOB OF  911","6373090","lab2stl@gmail.com","Registro por la ESP","JAIME EDUARDO VELEZ RAMIREZ",,
"BOGOTA, D.C.","BOGOTA, D.C.","ASEO","OPERATIVA","ECOCAPITAL INTERNACIONAL S.A  ESP","BOGOTA, D.C.","BOGOTA, D.C.","CALLE 14 C No. 123 52","4155637","CONTABILIDAD@ECOCAPITALINTERNACIONAL.COM","Registro por la ESP","CARLOS ALBERTO RUEDA BUENO","SOCIEDADES (EMPRESA DE SERVICIOS PUBLICOS)","MAS DE 2500 SUSCRIPTORES"
"BOGOTA, D.C.","BOGOTA, D.C.","ASEO","OPERATIVA","SESPA SANTANDER S.A.  E.S.P.","SANTANDER","SOCORRO","CARRERA 14 No. 11 - 30","7273772","contadorasespa@outlook.com","Registro por la ESP","INGRITH YOHANA ORTIZ ARMIROLA","SOCIEDADES (EMPRESA DE SERVICIOS PUBLICOS)","MAYOR O IGUAL A 5001 USUARIOS"
"BOGOTA, D.C.","BOGOTA, D.C.","ACUEDUCTO","OPERATIVA","LA ASOCIACION DE USUARIOS DE ACUEDUCTO DE LAS VEREDAS LA UNIÓN Y LOS ANDES PICOS DE BOCA GRANDE ASOPICOS DE  BOCAGRANDE ESP","BOGOTA, D.C.","BOGOTA, D.C.","CALLE 42  13 D 15 SUR","2397410","asopicos@gmail.com","Registro por la ESP","NELSON EDUARDO HERNANDEZ CRUZ","ORGANIZACION AUTORIZADA","MENOR O IGUAL A 2500 USUARIOS"
"BOGOTA, D.C.","BOGOTA, D.C.","ASEO","OPERATIVA","COOPERATIVA DE TRABAJO ASOCIADO DE RECICLADORES Y RECUPERADORES AMBIENTALES NUEVO AMBIENTE","BOGOTA, D.C.","BOGOTA, D.C.","calle 20 # 16-87","2844324","rosaura468@yahoo.es","Registro por la ESP","JOSELIN MURCIA","PRODUCTOR MARGINAL, INDEPENDIENTE O USO PARTICULAR","HASTA 2500 SUSCRIPTORES"
"BOGOTA, D.C.","BOGOTA, D.C.","ACUEDUCTO","OPERATIVA","PROACTIVA DE SERVICIOS INTEGRALES S.A.  E.S.P.","BOGOTA, D.C.","BOGOTA, D.C.","CRA 46 N 20C 34","3351800","beatrizaldanagarzon@hotmail.co","Registro por la ESP","MARIA FERNANDA MONTAÑA  GAITAN","SOCIEDADES (EMPRESA DE SERVICIOS PUBLICOS)","MAS DE 2500 SUSCRIPTORES"
"BOGOTA, D.C.","BOGOTA, D.C.","ASEO","OPERATIVA","AGUAS DE BOGOTA S.A. ESP","BOGOTA, D.C.","BOGOTA, D.C.","Carrera 21 N° 44 - 07","5553636","wilson.castellanos@aguasdebogota.com.co","Registro por la ESP","NESTOR ENRIQUE RODRIGUEZ BLANCO","SOCIEDADES (EMPRESA DE SERVICIOS PUBLICOS)","MAYOR O IGUAL A 5001 USUARIOS"
"BOGOTA, D.C.","BOGOTA, D.C.","ACUEDUCTO","OPERATIVA","ASOCIACIÓN DE USUARIOS ACUEDUCTO AGUAS CLARAS VEREDA OLARTE","BOGOTA, D.C.","BOGOTA, D.C.","VEREDA OLARTE KM 3.5 USME","7660997","lopezpinzonlibardo@hotmail.com","Registro por la ESP","LIBARDO LOPEZ PINZON","ORGANIZACION AUTORIZADA","MENOR O IGUAL A 2500 USUARIOS"
"BOGOTA, D.C.","BOGOTA, D.C.","ACUEDUCTO","OPERATIVA","COJARDIN SA ESP","BOGOTA, D.C.","BOGOTA, D.C.","Carrera 54 # 221-89","7441106","info@cojardinsa.com","Registro por la ESP","JUAN MANUEL DE VALDENEBRO CAMPO","SOCIEDADES (EMPRESA DE SERVICIOS PUBLICOS)","MENOR O IGUAL A 2500 USUARIOS"
"BOGOTA, D.C.","BOGOTA, D.C.","ALCANTARILLADO","OPERATIVA","COJARDIN SA ESP","BOGOTA, D.C.","BOGOTA, D.C.","Carrera 54 # 221-89","7441106","info@cojardinsa.com","Registro por la ESP","JUAN MANUEL DE VALDENEBRO CAMPO","SOCIEDADES (EMPRESA DE SERVICIOS PUBLICOS)","MENOR O IGUAL A 2500 USUARIOS"
"BOGOTA, D.C.","BOGOTA, D.C.","ACUEDUCTO","OPERATIVA","ASOCIACION DE USUARIOS DEL ACUEDUCTO DE LAS VEREDAS HATO, SANTA BARBARA Y LAS MERCEDES","BOGOTA, D.C.","BOGOTA, D.C.","Carrera 28 Nº 40 -40 sur","6392052","acuavidaesp@gmail.com","Registro por la ESP","MARCO ANTONIO VANEGAS FORERO","ORGANIZACION AUTORIZADA","HASTA 2500 SUSCRIPTORES"
"BOGOTA, D.C.","BOGOTA, D.C.","ACUEDUCTO","OPERATIVA","ASOCIACION DE USUARIOS DEL ACUEDUCTO DE LAS VEREDAS DE PASQUILLITA Y SANTA ROSA","BOGOTA, D.C.","BOGOTA, D.C.","VEREDA PASQUILLITA (CIUDAD BOLIVAR)","3009094","aacupasa@hotmail.com","Registro por la ESP","FLOR ALBA DIAZ CEPEDA","ORGANIZACION AUTORIZADA","MENOR O IGUAL A 2500 USUARIOS"
"BOGOTA, D.C.","BOGOTA, D.C.","ACUEDUCTO","OPERATIVA","ASOCIACION DE USUARIOS DE ACUEDUCTO DE LA VEREDA MOCHUELO ALTO ASOPORQUERA ESP","BOGOTA, D.C.","BOGOTA, D.C.","Kilómetro 24 Vía Pasquilla Ciudad Bolivar Localidad 19","7391224","mariomoya76@yahoo.com","Registro por la ESP","MYRIAM YOLANDA PAEZ PEDRAZA","ORGANIZACION AUTORIZADA","MENOR O IGUAL A 2500 USUARIOS"
"BOGOTA, D.C.","BOGOTA, D.C.","ASEO","OPERATIVA","ASOCIACIÓN SALITRE AMBIENTAL","BOGOTA, D.C.","BOGOTA, D.C.","CRA 24 No 1h-30","4835082","asambiental1@gmail.com","Registro por la ESP","CLAUDIA ELISA DEL PILAR PRADA TORRES","ORGANIZACION AUTORIZADA","MAYOR O IGUAL A 5001 USUARIOS"
"BOGOTA, D.C.","BOGOTA, D.C.","ACUEDUCTO","OPERATIVA","AGUAS KAPITAL BOGOTA S.A. E.S.P.","BOGOTA, D.C.","BOGOTA, D.C.","CR 11 93A 85","6511500","martha.paez@aguaskpital.com","Registro por la ESP","ALVARO ENRIQUE  ARAUJO  ACUÑA","SOCIEDADES (EMPRESA DE SERVICIOS PUBLICOS)","MAS DE 2500 SUSCRIPTORES"
"BOGOTA, D.C.","BOGOTA, D.C.","ACUEDUCTO","OPERATIVA","ASOCIACION DE USUARIOS DEL ACUEDUCTO DE LA ZONA MEDIA DE LA PARCELACION FLORESTA DE LA SABANA","BOGOTA, D.C.","BOGOTA, D.C.","CARRERA 7 No. 237-04","6768107","vertiaguas@hotmail.com","Registro por la ESP","IVAN JAVIER ANTOLINEZ URIBE","ORGANIZACION AUTORIZADA","MENOR O IGUAL A 2500 USUARIOS"
"BOGOTA, D.C.","BOGOTA, D.C.","ACUEDUCTO","OPERATIVA","ASOCIACIÓN DE USUARIOS DE LA VEREDA LOS SOCHES AGUAS CRISTALINAS LOS SOCHES ESP","BOGOTA, D.C.","BOGOTA, D.C.","VEREDA LOS SOCHES FINCA EL SUSPIRO","2006758","asocristalinas@gmail.com","Registro por la ESP","EDWIN GENALDO  LIBERATO  MURCIA","ORGANIZACION AUTORIZADA","MENOR O IGUAL A 2500 USUARIOS"
"BOGOTA, D.C.","BOGOTA, D.C.","ASEO","OPERATIVA","COOPERATIVA DE TRABAJO ASOCIADO ECOAMBIENTAL EL PORVENIR","BOGOTA, D.C.","BOGOTA, D.C.","CARRERA 24 NO. 1 F - 27","2467834","l.granados@estrategia5.com","Registro por la ESP","BRAHIAN  STICK LADINO VALDERRAMA","ORGANIZACION AUTORIZADA","MAYOR O IGUAL A 5001 USUARIOS"
"BOGOTA, D.C.","BOGOTA, D.C.","ACUEDUCTO","OPERATIVA","ASOCIACION DE USUARIOS DEL ACUEDUCTO COMUNITARIO AGUAS CALIENTES","BOGOTA, D.C.","BOGOTA, D.C.","Diagonal 91 B bis sur N° 18 h - 53","7391096","AUACACT@GMAIL.COM","Registro por la ESP","VALENTIN GARCIA","ORGANIZACION AUTORIZADA","MENOR O IGUAL A 2500 USUARIOS"
"BOGOTA, D.C.","BOGOTA, D.C.","ACUEDUCTO","OPERATIVA","ASOCIACIÓN DE USUARIOS DE ACUEDUCTO DE LA VEREDA AGUALINDA CHIGUAZA","BOGOTA, D.C.","BOGOTA, D.C.","CARRERA 3 No. 138 F SUR 10","7660115","Lizrodriguez2201@gmail.com","Registro por la ESP","DANIEL MAURICIO GARCIA CUARTAS","ORGANIZACION AUTORIZADA","MENOR O IGUAL A 2500 USUARIOS"
"BOGOTA, D.C.","BOGOTA, D.C.","ACUEDUCTO","OPERATIVA","ASOCIACIÓN  DE USUARIOS DE ACUEDUCTO DE LAS VEREDAS PEÑALIZA, RAIZAL, BETANIA, EL CARMEN E ISTMO TABACO DE LA LOCALIDAD DE SUMAPAZ BOGOTA","BOGOTA, D.C.","BOGOTA, D.C.","BOGOTA LOCALIDAD SUMAPAZ VEREDA RAIZAL","2006222","asoperabeca2018@gmail.com","Registro por la ESP","HERACLIDES GONZALEZ GONZALEZ","ORGANIZACION AUTORIZADA","MENOR O IGUAL A 2500 USUARIOS"
"BOGOTA, D.C.","BOGOTA, D.C.","ACUEDUCTO","OPERATIVA","JUNTA ADMINISTRADORA ACUEDUCTO VEREDAL EL DESTINO USME","BOGOTA, D.C.","BOGOTA, D.C.","VEREDA EL DESTINO USME","6392007","Lizrodriguez2201@gmail.com","Registro por la ESP","WILSON NORBERTO RIVEROS BELTRAN","ORGANIZACION AUTORIZADA","MENOR O IGUAL A 2500 USUARIOS"
"BOGOTA, D.C.","BOGOTA, D.C.","ACUEDUCTO","OPERATIVA","ASOCIACIÓN DE USUARIOS DEL ACUEDUCTO DE PIEDRA PARADA","BOGOTA, D.C.","BOGOTA, D.C.","KILÓMETRO 5 VIA OLARTE VEREDA PASQUILLA","0000000","acueductopiedraparada@hotmail.com","Registro por la ESP","POLIDORO CASTIBLANCO  VASQUEZ","ORGANIZACION AUTORIZADA","MENOR O IGUAL A 2500 USUARIOS"
"BOGOTA, D.C.","BOGOTA, D.C.","ACUEDUCTO","OPERATIVA","ASOCIACION DE USUARIOS DE ACUEDUCTO Y ALCANTARILLADO DE LA VEREDA PASQUILLA CENTRO","BOGOTA, D.C.","BOGOTA, D.C.","VEREDA PASQUILLA FINCA EL TANQUE","6392051","acuepasqui@gmail.com","Registro por la ESP","LILIA ISABEL SOSA OSORIO","ORGANIZACION AUTORIZADA","MENOR O IGUAL A 2500 USUARIOS"
"BOGOTA, D.C.","BOGOTA, D.C.","ASEO","OPERATIVA","CENTRO DE GERENCIAMIENTO DE RESIDUOS DOÑA JUANA S.A. E.S.P.","BOGOTA, D.C.","BOGOTA, D.C.","Av Boyaca Kilometro 5 vía al llano","3848830","analista.costos@cgr-bogota.com","Registro por la ESP","MAURICIO BERNAL MARCUCCI","SOCIEDADES (EMPRESA DE SERVICIOS PUBLICOS)","MAYOR O IGUAL A 5001 USUARIOS"
"BOGOTA, D.C.","BOGOTA, D.C.","ASEO","OPERATIVA","ASOCIACIÓN DE RECICLADORES DE ENGATIVA ZONA 10","BOGOTA, D.C.","BOGOTA, D.C.","calle 66 # 113 70","4416818","AREZ-10@HOTMAIL.ES","Registro por la ESP","DARIO LUIS  CASTRO  CASTRO","ORGANIZACION AUTORIZADA","DESDE 2501 HASTA 5000 USUARIOS"
"BOGOTA, D.C.","BOGOTA, D.C.","ACUEDUCTO","OPERATIVA","ASOCIACION DE USUARIOS DE ACUEDUCTO Y ALCANTARILLADO DEL BARRIO BOSQUES DE BELLAVISTA ACUABOSQUES","BOGOTA, D.C.","BOGOTA, D.C.","CL 79 no 10-65 int 4","0000000","Lizrodriguez2201@gmail.com","Registro por la ESP","DAVID CHIPO GARZON","ORGANIZACION AUTORIZADA","MENOR O IGUAL A 2500 USUARIOS"
"BOGOTA, D.C.","BOGOTA, D.C.","ACUEDUCTO","OPERATIVA","ASOCIACION DE USUARIOS DEL ACUEDUCTO LAS ANIMAS LAS AURAS Y NAZARETH","BOGOTA, D.C.","BOGOTA, D.C.","CORREGIDURIA NAZARETH LOCALIDAD 20 SUMAPAZ","2005833","asouan@outlook.com","Registro por la ESP","RAMIRO MARTINEZ ROMERO","ORGANIZACION AUTORIZADA","MENOR O IGUAL A 2500 USUARIOS"
"BOGOTA, D.C.","BOGOTA, D.C.","ACUEDUCTO","OPERATIVA","ASOCIACIÓN DE USUARIOS DEL ACUEDUCTO DE LA VEREDA LAGUNA VERDE ESP","BOGOTA, D.C.","BOGOTA, D.C.","Cl 75 No. 1A 78 SUR","2003195","acueductolagunaverde@gmail.com","Registro por la ESP","MARLEN MORALES PABON","ORGANIZACION AUTORIZADA","HASTA 2500 SUSCRIPTORES"
"BOGOTA, D.C.","BOGOTA, D.C.","ACUEDUCTO","OPERATIVA","ASOCIACIÓN DE USUARIOS DE ACUEDUCTO ARRAYANES ARGENTINA","BOGOTA, D.C.","BOGOTA, D.C.","KM 12 VÍA SAN JUAN SUMAPAZ VRD ARRAYANES","2579589","tattis_921114@hotmail.com","Registro por la ESP","HECTOR JULIO GUZMAN CARDENAS","ORGANIZACION AUTORIZADA","MENOR O IGUAL A 2500 USUARIOS"
"BOGOTA, D.C.","BOGOTA, D.C.","ACUEDUCTO","OPERATIVA","ASOCIACION DE USUARIOS DE ACUEDUCTO MANANTIAL DE AGUAS CERRO REDONDO Y CORINTO ESP","BOGOTA, D.C.","BOGOTA, D.C.","CRA 4 No. 6 39","7708301","corintocerrorredondo@gmail.com","Registro por la ESP","ALCIRA LIZARAZO CARRENO","ORGANIZACION AUTORIZADA","MENOR O IGUAL A 2500 USUARIOS"
"BOGOTA, D.C.","BOGOTA, D.C.","ACUEDUCTO","OPERATIVA","ASOCIACIÓN ASOQUIBA","BOGOTA, D.C.","BOGOTA, D.C.","Calle 73A No. 27M 09 Sur","7390863","lizrodriguez2201@gmail.com","Registro por la ESP","CARLOS ALBERTO MARTINEZ BELTRAN","ORGANIZACION AUTORIZADA","MENOR O IGUAL A 2500 USUARIOS"
"BOGOTA, D.C.","BOGOTA, D.C.","ACUEDUCTO","OPERATIVA","ASOCIACIÓN DE USUARIOS DEL SERVICIO DE AGUA POTABLE  DE LA FLORESTA DE LA SABANA","BOGOTA, D.C.","BOGOTA, D.C.","CARRERA 7 NUMERO 237 - 04","6768107","vertiaguas@hotmail.com","Registro por la ESP","FAUSTINO BOTERO ARBELAEZ","ORGANIZACION AUTORIZADA","MENOR O IGUAL A 2500 USUARIOS"
"BOGOTA, D.C.","BOGOTA, D.C.","ACUEDUCTO","OPERATIVA","ASOCIACIÓN DE PROPIETARIOS DE LA PARCELACIÓN LA FLORESTA","BOGOTA, D.C.","BOGOTA, D.C.","CARRERA 7 No. 237 - 04","6761275","parcelacionlafloresta@gmail.com","Registro por la ESP","LARA BETINA VENCE GARRIDO","ORGANIZACION AUTORIZADA","MENOR O IGUAL A 2500 USUARIOS"
"BOGOTA, D.C.","BOGOTA, D.C.","ASEO","OPERATIVA","CORPORACION AL SERVICIO DEL MEDIO AMBIENTE","BOGOTA, D.C.","BOGOTA, D.C.","AV CRA 50 N! 4-56","2616893","fernando_afanador@yahoo.es","Registro por la ESP","CARLOS ANDRES SALAMANCA BAUTISTA","ORGANIZACION AUTORIZADA","HASTA 2500 SUSCRIPTORES"
"BOGOTA, D.C.","BOGOTA, D.C.","ASEO","OPERATIVA","ASOCIACION ECO ALIANZA ESTRATEGICA DE RECICLADORES","BOGOTA, D.C.","BOGOTA, D.C.","Calle 16 # 33 -26","2015131","infosui@estrategia5.com","Registro por la ESP","MAGDA QUISQUELLA BARINAS VILLAMIZAR","ORGANIZACION AUTORIZADA","MAYOR O IGUAL A 5001 USUARIOS"
"BOGOTA, D.C.","BOGOTA, D.C.","ASEO","OPERATIVA","ASOCIACION DE RECICLADORES UNIDOS POR BOGOTA ARUB","BOGOTA, D.C.","BOGOTA, D.C.","Calle 23 sur # 8 47","3734213","reci.jimenez@hotmail.com","Registro por la ESP","CAMPO ELIAS JIMENEZ BARINAS","ORGANIZACION AUTORIZADA","DESDE 2501 HASTA 5000 USUARIOS"
"BOGOTA, D.C.","BOGOTA, D.C.","ASEO","OPERATIVA","ASOCIACION DE RECICLADORES PEDRO LEON TRABUCHI LOCALIDAD 16 PUENTE ARANDA ARPLT ESP","BOGOTA, D.C.","BOGOTA, D.C.","CALLE 6 #32A 75","2015131","FINANCIEROSUI@ESTRATEGIA5.COM","Registro por la ESP","OLGA LILIANA VASQUEZ GONZALEZ","ORGANIZACION AUTORIZADA","MAYOR O IGUAL A 5001 USUARIOS"
"BOGOTA, D.C.","BOGOTA, D.C.","ASEO","OPERATIVA","fesnopma cooperativa empresa de servicios publicos","BOGOTA, D.C.","BOGOTA, D.C.","calle 80 c No. 92 44","2254866","robertomorafajardo@hotmail.com","Registro por la ESP","ROBERTO MORA FAJARDO","ORGANIZACION AUTORIZADA","MENOR O IGUAL A 2500 USUARIOS"
"BOGOTA, D.C.","BOGOTA, D.C.","ASEO","OPERATIVA","INGENIERÍA INVESTIGACIÓN Y AMBIENTE S.A.S E.S.P","BOGOTA, D.C.","BOGOTA, D.C.","carrera 27a # 71b 24","8109354","juanmoncada@iiaingenieria.com","Registro por la ESP","JUAN ESTEBAN MONCADA FUENTES","SOCIEDADES (EMPRESA DE SERVICIOS PUBLICOS)","MENOR O IGUAL A 2500 USUARIOS"
"BOGOTA, D.C.","BOGOTA, D.C.","ASEO","OPERATIVA","ASOCIACIÓN DE RECUPERADORES AMBIENTALES ASEO ECOACTIVA","BOGOTA, D.C.","BOGOTA, D.C.","carrera 81 C No 16 C 24","4736975","aseoecoactiva@gmail.com","Registro por la ESP","CAMILO REYES CALDERON","ORGANIZACION AUTORIZADA","MAYOR O IGUAL A 5001 USUARIOS"
"BOGOTA, D.C.","BOGOTA, D.C.","ASEO","OPERATIVA","Asociación de Recuperadores Ambientales Nuevo Ambiente","BOGOTA, D.C.","BOGOTA, D.C.","Calle 59 B Sur 13F 10","7603825","reciclajenuevoambiente@gmail.com","Registro por la ESP","JOSELIN MURCIA","ORGANIZACION AUTORIZADA","MENOR O IGUAL A 2500 USUARIOS"
"BOGOTA, D.C.","BOGOTA, D.C.","ASEO","OPERATIVA","ASOCIACIÓN DE RECUPERADORES MYM UNIVERSAL","BOGOTA, D.C.","BOGOTA, D.C.","Carrera 18 # 164 - 32","6212020","info@mymuniversal.com","Registro por la ESP","JOSE EPAMINONDAS MALAGON PEREZ","ORGANIZACION AUTORIZADA","MAYOR O IGUAL A 5001 USUARIOS"
"BOGOTA, D.C.","BOGOTA, D.C.","ASEO","OPERATIVA","ASOCIACIÓN DE ASEO DE RECICLADORES Y CARRETEROS RECICLEMOSTODOS","BOGOTA, D.C.","BOGOTA, D.C.","Carrera 95 a No. 38 sur 55","4072018","proyectos@estrategia5.com","Registro por la ESP","HELBER ARTURO AREVALO","ORGANIZACION AUTORIZADA","MAYOR O IGUAL A 5001 USUARIOS"
"BOGOTA, D.C.","BOGOTA, D.C.","ACUEDUCTO","OPERATIVA","ASOCIACION DE USUARIOS DE ACUEDUCTO DE LAS VEREDAS REQUILINA Y EL UVAL AGUAS DORADAS ESP","BOGOTA, D.C.","BOGOTA, D.C.","CRA 2 Nº 137-44 SUR USME PUEBLO","7660192","aguasdoradasesp@hotmail.com","Registro por la ESP","ANA OTILIA CUERVO AREVALO","ORGANIZACION AUTORIZADA","MENOR O IGUAL A 2500 USUARIOS"
"BOGOTA, D.C.","BOGOTA, D.C.","ACUEDUCTO","OPERATIVA","ASOCIACION DE USUARIOS DE ACUEDUCTO DE LA VEREDA CURUBITAL AGUAS CRISTALINAS DE BOCAGRANDE","BOGOTA, D.C.","BOGOTA, D.C.","KM 11 VIA SUMAPAZ VEREDA CURUBITAL","6392005","asocristalinaesp@gmail.com","Registro por la ESP","RENAN ALBERTO GARCIA RICO","ORGANIZACION AUTORIZADA","HASTA 2500 SUSCRIPTORES"
"BOGOTA, D.C.","BOGOTA, D.C.","ACUEDUCTO","OPERATIVA","ASOCIACIÓN DE USUARIOS DE ACUEDUCTO DE LA VEREDA LAS MARGARITAS DE LA LOCALIDAD DE USME SANTA DE DE BOGOTA D.C","BOGOTA, D.C.","BOGOTA, D.C.","KM 19 VIA A SAN JUAN DEL SUMAPAZ","6392070","acueductolasmargaritas@hotmail.com","Registro por la ESP","CARLOS ALBEIRO LASSO ZAMBRANO","ORGANIZACION AUTORIZADA","MENOR O IGUAL A 2500 USUARIOS"
"BOGOTA, D.C.","BOGOTA, D.C.","ACUEDUCTO","OPERATIVA","ASOCIACIÓN DE USUARIOS DEL SERVICIO DE ACUEDUCTO Y ALCANTARILLADO DEL CORREGIMIENTO DE SAN JUAN LOCALIDAD DE SUMAPAZ ESP","BOGOTA, D.C.","BOGOTA, D.C.","CORREGIMIENTO SAN JUAN LOCALIDAD DE SUMAPAZ","3407071","asoaguasclarassumapaz.20@gmail.com","Registro por la ESP","GERARDO RIVEROS ROMERO","ORGANIZACION AUTORIZADA","MENOR O IGUAL A 2500 USUARIOS"
"BOGOTA, D.C.","BOGOTA, D.C.","ASEO","OPERATIVA","ESQUISAN S.A  ESP","BOGOTA, D.C.","BOGOTA, D.C.","CALLE 20 N. 82-52 OFICINA 424-413","8053213","auxiliar.oficina@esquisan.com.co","Registro por la ESP","HERSSON ANTONIO ESQUIVEL MORENO","SOCIEDADES (EMPRESA DE SERVICIOS PUBLICOS)","MENOR O IGUAL A 2500 USUARIOS"
"BOGOTA, D.C.","BOGOTA, D.C.","ASEO","OPERATIVA","ASOCIACIÓN DE RECICLADORES RECUPERADORES AMBIENTALES UN PASO AL FUTURO","BOGOTA, D.C.","BOGOTA, D.C.","Carrera  88B # 52-50 sur piso 2","6089373","IVANCEPEDA21CT@GMAIL.COM","Registro por la ESP","MARY LUZ RODRIGUEZ ESPITIA","ORGANIZACION AUTORIZADA","MAYOR O IGUAL A 5001 USUARIOS"
"BOGOTA, D.C.","BOGOTA, D.C.","ASEO","OPERATIVA","ASOCIACION NACIONAL DE RECICLADORES TRANSFORMADORES","BOGOTA, D.C.","BOGOTA, D.C.","CLL 52 N° 87K-16 SUR","4616001","ASOCIACIONANRT@GMAIL.COM","Registro por la ESP","MILLY YANETH ESPINEL MESA","ORGANIZACION AUTORIZADA","MAYOR O IGUAL A 5001 USUARIOS"
"BOGOTA, D.C.","BOGOTA, D.C.","ASEO","OPERATIVA","ASOCIACION INTEGRAL DE TRABAJADORES INFORMALES DE BOGOTA","BOGOTA, D.C.","BOGOTA, D.C.","Carrera 87C # 73 - 05 SUR","4943794","asociacion@asitrib.com.co","Registro por la ESP","HERIBERTO SANGUINO LOPEZ","ORGANIZACION AUTORIZADA","MAYOR O IGUAL A 5001 USUARIOS"
"BOGOTA, D.C.","BOGOTA, D.C.","ACUEDUCTO","OPERATIVA","ASOCIACIÓN DE USUARIOS DE ACUEDUCTO DE LA VEREDA LAS ANIMAS CON LA SIGLA ASOAGUA Y CAÑIZO ESP","BOGOTA, D.C.","BOGOTA, D.C.","LOCALIDAD SUMAPAZ, VEREDA LAS ANIMAS","7610149","acueductolasanimas2015@gmail.com","Registro por la ESP","LIBARDO DIAZ DIAZ","ORGANIZACION AUTORIZADA","HASTA 2500 SUSCRIPTORES"
"BOGOTA, D.C.","BOGOTA, D.C.","ASEO","OPERATIVA","ASOCIACION ECOLOGICA DE RECICLADORES ECOORA ESP","BOGOTA, D.C.","BOGOTA, D.C.","Carrera 123 A Calle 128 Bis No 34","5357008","alirioeco@gmail.com","Registro por la ESP","ALIRIO MORALES RINCON","ORGANIZACION AUTORIZADA","DESDE 2501 HASTA 5000 USUARIOS"
"BOGOTA, D.C.","BOGOTA, D.C.","ASEO","OPERATIVA","ASOCIACIÓN ENTIDAD MEDIOAMBIENTAL DE RECICLADORES","BOGOTA, D.C.","BOGOTA, D.C.","Diagonal 38 sur No. 81 G-66 Bodega 5 y 6","7452730","atencionalusuario@emrsesp.com","Registro por la ESP","ANNY PAOLA ROMERO OCAMPO","ORGANIZACION AUTORIZADA","MAYOR O IGUAL A 5001 USUARIOS"
"BOGOTA, D.C.","BOGOTA, D.C.","ASEO","OPERATIVA","ASOCIACION DE RECICLADORES","BOGOTA, D.C.","BOGOTA, D.C.","Cra 4 P Nº 55a17 Sur","5890473","recikolping@gmail.com","Registro por la ESP","YURY JOHANNA RAMIREZ PABON","ORGANIZACION AUTORIZADA","MAYOR O IGUAL A 5001 USUARIOS"
"BOGOTA, D.C.","BOGOTA, D.C.","ASEO","OPERATIVA","ASOCIACION DE RECICLADORES AMBIENTALES","BOGOTA, D.C.","BOGOTA, D.C.","cll 130 No. 158 A - 49","3099114","arambal@live.com","Registro por la ESP","ALBERTO ANTONIO AVILA SIERRA","ORGANIZACION AUTORIZADA","MAYOR O IGUAL A 5001 USUARIOS"
"BOGOTA, D.C.","BOGOTA, D.C.","ASEO","OPERATIVA","COOPERATIVA DE RECUPERADORES ASOCIADOS DE TEUSAQUILLO","BOGOTA, D.C.","BOGOTA, D.C.","CALLE 19  No 16 a -   51","4978290","coprat2014@gmail.com","Registro por la ESP","MARITZA MUNOZ ORTIZ","ORGANIZACION AUTORIZADA","MENOR O IGUAL A 2500 USUARIOS"
"BOGOTA, D.C.","BOGOTA, D.C.","ASEO","OPERATIVA","ASOCIACIÓN DE CARRETEROS RECICLADORES DE BOGOTÁ ACB","BOGOTA, D.C.","BOGOTA, D.C.","CARRERA 13F # 58 - 25 sur Piso 2","9277491","acbesp@gmail.com","Registro por la ESP","GUILLERMO ZAMBRANO","ORGANIZACION AUTORIZADA","MAYOR O IGUAL A 5001 USUARIOS"
"BOGOTA, D.C.","BOGOTA, D.C.","ASEO","OPERATIVA","Precooperativa Multiactiva Conciencia Ecológica PRMCEG No Al Calentamiento Global","BOGOTA, D.C.","BOGOTA, D.C.","KR 104 16H-38 INT 4","4156472","coomceg20@gmail.com","Registro por la ESP","AURORA LILIA HERNANDEZ MUNOZ","ORGANIZACION AUTORIZADA","DESDE 2501 HASTA 5000 USUARIOS"
"BOGOTA, D.C.","BOGOTA, D.C.","ASEO","OPERATIVA","RED DE ORGANIZACIONES DE RECICLADORES AMBIENTALES","BOGOTA, D.C.","BOGOTA, D.C.","Cra 136 #130A- 42","6872570","redsubarecicladores@hotmail.com","Registro por la ESP","JOSE RICARDO  CABIATIVA YOPASA","ORGANIZACION AUTORIZADA","MAYOR O IGUAL A 5001 USUARIOS"
"BOGOTA, D.C.","BOGOTA, D.C.","ASEO","OPERATIVA","ASOCIACIÓN DE RECICLADORES Y RECUPERADORES AMBIENTALES ASOREMA","BOGOTA, D.C.","BOGOTA, D.C.","CLL 17A 69F 26","4660909","ASOREMA99@GMAIL.COM","Registro por la ESP","LUZMILA RODRIGUEZ DE MORELES","ORGANIZACION AUTORIZADA","MAYOR O IGUAL A 5001 USUARIOS"
"BOGOTA, D.C.","BOGOTA, D.C.","ASEO","OPERATIVA","ASOCIACIÓN RECICLEMOS DIFERENTE E.S.A.","BOGOTA, D.C.","BOGOTA, D.C.","CALLE 17A 69F-26","2490154","fundredbogota@gmail.com","Registro por la ESP","CESAR AUGUSTO SURDIS","ORGANIZACION AUTORIZADA","MAYOR O IGUAL A 5001 USUARIOS"
"BOGOTA, D.C.","BOGOTA, D.C.","ASEO","OPERATIVA","ASOCIACIÓN DE RECICLADORES CRECER SIN FRONTERAS ARCRECIFRONT","BOGOTA, D.C.","BOGOTA, D.C.","Cr 1 A No 40 A - 66 Sur","2333882","crecifront@yahoo.es","Registro por la ESP","HUBER MUNOZ","ORGANIZACION AUTORIZADA","MAYOR O IGUAL A 5001 USUARIOS"
"BOGOTA, D.C.","BOGOTA, D.C.","ASEO","OPERATIVA","ASOCIACIÓN DE RECICLADORES PUERTA DE ORO BOGOTA","BOGOTA, D.C.","BOGOTA, D.C.","CALLE 42 F BIS SUR # 84-10 VILLA LA LOMA","5793487","infosui@estrategia5.com","Registro por la ESP","ELFA  NELLY VARGAS QUINTERO","ORGANIZACION AUTORIZADA","MAYOR O IGUAL A 5001 USUARIOS"
"BOGOTA, D.C.","BOGOTA, D.C.","ASEO","OPERATIVA","ASOCIACIÓN DE RECICLADORES AMBIENTALES","BOGOTA, D.C.","BOGOTA, D.C.","Calle 131A # 58 B-07","4792861","asociacionasoremec@gmail.com","Registro por la ESP","MARIA TERESEA DE JESUS BOTINA BOTINA","ORGANIZACION AUTORIZADA","MENOR O IGUAL A 2500 USUARIOS"
"BOGOTA, D.C.","BOGOTA, D.C.","ALCANTARILLADO","OPERATIVA","INTERASEO SOLUCIONES AMBIENTALES S.A.S. E.S.P.","BOGOTA, D.C.","BOGOTA, D.C.","CALLE 17 No. 124 - 81","7470499","jcorrea@interaseo.com.co","Registro por la ESP","JUAN MANUEL GOMEZ MEJIA","SOCIEDADES (EMPRESA DE SERVICIOS PUBLICOS)","MENOR O IGUAL A 2500 USUARIOS"
"BOGOTA, D.C.","BOGOTA, D.C.","ASEO","OPERATIVA","ASOCIACION DE RECICLADORES POR UNA BOGOTA MEJOR Y MAS LIMPIA ESP","BOGOTA, D.C.","BOGOTA, D.C.","CARRERA 20 # 11 - 59","8825883","arbosostenible@gmail.com","Registro por la ESP","SANDRA MILENA GOMEZ MORALES","ORGANIZACION AUTORIZADA","DESDE 2501 HASTA 5000 USUARIOS"
"BOGOTA, D.C.","BOGOTA, D.C.","ASEO","OPERATIVA","ASOCIACION RECUPERADORES AMBIENTALISTAS COLOMBIANOS","BOGOTA, D.C.","BOGOTA, D.C.","calle 136 N° 130A  - 42","4007893","arrecol@hotmail.com","Registro por la ESP","HUMBERTO ROA","ORGANIZACION AUTORIZADA","DESDE 2501 HASTA 5000 USUARIOS"
"BOGOTA, D.C.","BOGOTA, D.C.","ASEO","OPERATIVA","ASOCIACION DE RECICLADORES ACTIVOS DE USAQUEN ESP","BOGOTA, D.C.","BOGOTA, D.C.","CALLE 164 A # 4-59","4044449","usaquenjavier@hotmail.com","Registro por la ESP","JAVIER RODRIGO QUITIAN  ARANDA","ORGANIZACION AUTORIZADA","MENOR O IGUAL A 2500 USUARIOS"
"BOGOTA, D.C.","BOGOTA, D.C.","ASEO","OPERATIVA","recuperadora ambiental engativa","BOGOTA, D.C.","BOGOTA, D.C.","Carrera 125 # 63 L 50","3003238","recuperadoraengativa@gmail.com","Registro por la ESP","MARIA ALEJANDRA ESPEJO XXX","ORGANIZACION AUTORIZADA","DESDE 2501 HASTA 5000 USUARIOS"
"BOGOTA, D.C.","BOGOTA, D.C.","ASEO","OPERATIVA","Fundación  Social  Amigos  del  Medio  Ambiente","CUNDINAMARCA","GIRARDOT","calle 11 No. 16-28 casa  A Barrio  Santa  Helena","8312931","funsoama@gmail.com","Registro por la ESP","WILSON  ENRIQUE RODRIGUEZ ACOSTA","ORGANIZACION AUTORIZADA","MAYOR O IGUAL A 5001 USUARIOS"
"BOGOTA, D.C.","BOGOTA, D.C.","ASEO","OPERATIVA","asociacion de recicladores promotores del porvenir ecologicos de engativa","BOGOTA, D.C.","BOGOTA, D.C.","CALLE 80 C 92 - 44","4755289","ASOCIACIONARPE@GMAIL.COM","Registro por la ESP","PAULINO LEON CARDENAS","ORGANIZACION AUTORIZADA","MAYOR O IGUAL A 5001 USUARIOS"
"BOGOTA, D.C.","BOGOTA, D.C.","ASEO","OPERATIVA","ASOCIACION DE RECICLADORES DE OFICIO ARO AMBIENTALES","BOGOTA, D.C.","BOGOTA, D.C.","av. calle 22 # 107-07","9260837","asociadosdeoficio@hotmail.com","Registro por la ESP","ANGIE JASBLEYDY REYES GARCIA","ORGANIZACION AUTORIZADA","DESDE 2501 HASTA 5000 USUARIOS"
"BOGOTA, D.C.","BOGOTA, D.C.","ASEO","CANCELACION","PROMAPLAST S.A.S","BOGOTA, D.C.","BOGOTA, D.C.","CARRERA 44 No 20B-58","3687562","gestion@promaplast.net","Registro por la ESP","IVAN HERRERA PEREZ",,
"BOGOTA, D.C.","BOGOTA, D.C.","ASEO","OPERATIVA","ASOCIACION RECUPERANDO MATERIALES RECICLABLES DE KENNEDY","BOGOTA, D.C.","BOGOTA, D.C.","CR 81 D # 40F 16 Sur","7063744","remareek@gmail.com","Registro por la ESP","ANA  RODRIGUEZ  LEGUIZAMON","ORGANIZACION AUTORIZADA","DESDE 2501 HASTA 5000 USUARIOS"
"BOGOTA, D.C.","BOGOTA, D.C.","ASEO","CANCELACION","ASOCIACION ORA AMBIENTAL ACTIVA DE RECICLADORES DE BOGOTA","BOGOTA, D.C.","BOGOTA, D.C.","CR 87 K 53-32","2998347","comercialaprovechamiento@pravne.com.co","Registro por la ESP","HECTOR WILLIAM GUZMAN",,
"BOGOTA, D.C.","BOGOTA, D.C.","ASEO","OPERATIVA","CORPORACION CENTRO HISTORICO","BOGOTA, D.C.","BOGOTA, D.C.","Carrera 4 b este # 6 d - 48","9247139","informacion@corporacioncentrohistorico.org","Registro por la ESP","ARTURO DE JESUS ALVAREZ VASQUEZ","ORGANIZACION AUTORIZADA","MENOR O IGUAL A 2500 USUARIOS"
"BOGOTA, D.C.","BOGOTA, D.C.","ASEO","OPERATIVA","ASOCIACIÓN DE RECICLADORES DE OFICIO RC ASOCIACIÓN RECICLOSOCIAL","BOGOTA, D.C.","BOGOTA, D.C.","CALLE 76C SUR No. 2C - 16 ESTE","3022348","RECICLOSOCIAL@HOTMAIL.COM","Registro por la ESP","RAUL JULIAN  PULIDO MORA","ORGANIZACION AUTORIZADA","MAYOR O IGUAL A 5001 USUARIOS"
"BOGOTA, D.C.","BOGOTA, D.C.","ASEO","OPERATIVA","ASOCIACION DE RECICLADORES Y RECUPERADORES AMBIENTALES MILENIUM 3000","BOGOTA, D.C.","BOGOTA, D.C.","calle 64 c # 111 46","4816052","horaciomilenium3000@hotmail.com","Registro por la ESP","HORACIO MANUEL  CARDENAS  MERCADO","ORGANIZACION AUTORIZADA","MAYOR O IGUAL A 5001 USUARIOS"
"BOGOTA, D.C.","BOGOTA, D.C.","ASEO","OPERATIVA","ASOCIACION BASICA DE RECICLAJE SINEAMBORE","BOGOTA, D.C.","BOGOTA, D.C.","Calle 90 N. 15-00 SUR VEREDA VÍA AQUIBA","7171276","jmmora@superservicios.gov.co","Registro por la ESP","MARIA DEL CARMEN AGUILLON  PULIDO","ORGANIZACION AUTORIZADA","MENOR O IGUAL A 2500 USUARIOS"
"BOGOTA, D.C.","BOGOTA, D.C.","ASEO","OPERATIVA","ECO-ACCION INGENIERIA","BOYACA","SOGAMOSO","Carrera 11 # 14 - 129 Ofic 402","0000000","eccisasgerencia@gmail.com","Registro por la ESP","LAURA LISETH SANABRIA SUAREZ","SOCIEDADES (EMPRESA DE SERVICIOS PUBLICOS)","MENOR O IGUAL A 2500 USUARIOS"
"BOGOTA, D.C.","BOGOTA, D.C.","ASEO","OPERATIVA","ASOCIACION GRUPO EMPRESARIAL DE LA ZONA OCTAVA","BOGOTA, D.C.","BOGOTA, D.C.","Diagonal 2 B # 81 G -23","3333333","fabiogrupoempresarial@gmail.com","Registro por la ESP","PAULA ANDREA RENGIFO QUICENO","ORGANIZACION AUTORIZADA","MAYOR O IGUAL A 5001 USUARIOS"
"BOGOTA, D.C.","BOGOTA, D.C.","ASEO","OPERATIVA","Asociación de Recicladores Ecoplaneta El Amparo ESP","BOGOTA, D.C.","BOGOTA, D.C.","Carrera 81H bis # 41F-24","5489789","asorecoplaneta@gmail.com","Registro por la ESP","ANA LUCIA LOPEZ ROBERTO","ORGANIZACION AUTORIZADA","MAYOR O IGUAL A 5001 USUARIOS"
"BOGOTA, D.C.","BOGOTA, D.C.","ASEO","OPERATIVA","Asociacion O.R.A Bogota Recicla ESP","BOGOTA, D.C.","BOGOTA, D.C.","calle 94b No 56-42","9320774","bogotarecicla@hotmail.com","Registro por la ESP","HENRY ALBERTO NAVARRO RUIZ","ORGANIZACION AUTORIZADA","DESDE 2501 HASTA 5000 USUARIOS"
"BOGOTA, D.C.","BOGOTA, D.C.","ASEO","OPERATIVA","ASOCIACION DE RECICLADORES BUENOS AIRES GLADYS","BOGOTA, D.C.","BOGOTA, D.C.","Cra 17  A No. 77 16","5284637","nataladino@gmail.com","Registro por la ESP","GLADYS  MORENO SERRANO","ORGANIZACION AUTORIZADA","MENOR O IGUAL A 2500 USUARIOS"
"BOGOTA, D.C.","BOGOTA, D.C.","ASEO","OPERATIVA","ASOCIACION DE RECUPERADORES AMBIENTALES DE COLOMBIA 7","BOGOTA, D.C.","BOGOTA, D.C.","Cra. 65 b Nro: 17-80","7025716","asoambiental07@gmail.com","Registro por la ESP","YIMIS  MEJIA  SANCHEZ","ORGANIZACION AUTORIZADA","MENOR O IGUAL A 2500 USUARIOS"
"BOGOTA, D.C.","BOGOTA, D.C.","ASEO","OPERATIVA","Corporación Asociativa de Recicladores y Coroteros","BOGOTA, D.C.","BOGOTA, D.C.","Carrera 81 I Bis # 41F-28","5759621","corpoambientalr@gmail.com","Registro por la ESP","MIGUEL ANTONIO  AGUILAR SOTO","ORGANIZACION AUTORIZADA","DESDE 2501 HASTA 5000 USUARIOS"
"BOGOTA, D.C.","BOGOTA, D.C.","ASEO","OPERATIVA","ASOCIACION DE RECICLADORES RECICLAR ES VIDA","BOGOTA, D.C.","BOGOTA, D.C.","cra 80 j No 41a 44 sur","5236725","reciclar-esvida@hotmail.com","Registro por la ESP","DORIS AGUADA REAL","ORGANIZACION AUTORIZADA","MAYOR O IGUAL A 5001 USUARIOS"
"BOGOTA, D.C.","BOGOTA, D.C.","ASEO","OPERATIVA","ASOCIACION ECOFUTURO ROA","BOGOTA, D.C.","BOGOTA, D.C.","CARRERA 93 #40a 34 SUR","5793915","ecofuturoroa@gmail.com","Registro por la ESP","ANDREA YOHANNA SARRIA RODRIGUEZ","ORGANIZACION AUTORIZADA","MAYOR O IGUAL A 5001 USUARIOS"
"BOGOTA, D.C.","BOGOTA, D.C.","ASEO","CANCELACION","CORPORACIÓN DE RECICLADORES DE ANTIOQUIA","ANTIOQUIA","MARINILLA","CARRERA 30A 20-80","5485698","logistica@ciclototal.co","Registro por la ESP","SANTIAGO ALONSO ZULUAGA JARAMILLO",,
"BOGOTA, D.C.","BOGOTA, D.C.","ASEO","OPERATIVA","ASOCIACION DE RECICLADORES RECICLANDO POR SIEMPRE","BOGOTA, D.C.","BOGOTA, D.C.","Cl 42G Sur # 96A - 17","8052571","asorexsi@gmail.com","Registro por la ESP","SAMUEL ARIAS BOHORQUEZ","ORGANIZACION AUTORIZADA","MAYOR O IGUAL A 5001 USUARIOS"
"BOGOTA, D.C.","BOGOTA, D.C.","ASEO","OPERATIVA","ASOCIACION DE RECICLADORES EN CRECIMIENTO","BOGOTA, D.C.","BOGOTA, D.C.","Carrera 99 # 127D - 66","7974871","proyectos@estrategia5.com","Registro por la ESP","JOSE ALVARO RODRIGUEZ CASTANEDA","ORGANIZACION AUTORIZADA","MAYOR O IGUAL A 5001 USUARIOS"
"BOGOTA, D.C.","BOGOTA, D.C.","ASEO","OPERATIVA","ASOCIACION DE RECICLADORES AMBIENTALES","BOGOTA, D.C.","BOGOTA, D.C.","CARRERA 5 M NO. 49G - 15 SUR","9384612","asoreamb01@gmail.com","Registro por la ESP","EDGAR BARRERA RUIZ","ORGANIZACION AUTORIZADA","MENOR O IGUAL A 2500 USUARIOS"
"BOGOTA, D.C.","BOGOTA, D.C.","ASEO","OPERATIVA","ASOCIACION DE RECICLADORES DE PUENTE ARANDA LA COLOMBIANITA","BOGOTA, D.C.","BOGOTA, D.C.","carrera 36 # 19-53","9370848","asocolombianita2006@hotmail.com","Registro por la ESP","DANYELY BERNAL GOMEZ","ORGANIZACION AUTORIZADA","MAYOR O IGUAL A 5001 USUARIOS"
"BOGOTA, D.C.","BOGOTA, D.C.","ASEO","OPERATIVA","ASOCIACION DE RECICLADORES ECORESIDUOS","BOGOTA, D.C.","BOGOTA, D.C.","Carrera 36 # 19 - 53","6956625","ecoresiduosesp@gmail.com","Registro por la ESP","TRANSITO AYALA CELY","ORGANIZACION AUTORIZADA","MAYOR O IGUAL A 5001 USUARIOS"
"BOGOTA, D.C.","BOGOTA, D.C.","ASEO","OPERATIVA","ASOCIACION DE LIDERES DEL RECICLAJE, SEPARACION, TRANSPORTE CON ESTACION DE CLASIFICACION Y APROVECHAMIENTO","BOGOTA, D.C.","BOGOTA, D.C.","CARRERA 151D # 138D - 16 PISO 3","5353243","super.eca@yahoo.com","Registro por la ESP","MARIA CESILIA SUARES MORENO","ORGANIZACION AUTORIZADA","MAYOR O IGUAL A 5001 USUARIOS"
"BOGOTA, D.C.","BOGOTA, D.C.","ASEO","OPERATIVA","ASOCIACION DE RECICLADORES DE MARIA PAZ","BOGOTA, D.C.","BOGOTA, D.C.","TRANSVERSAL 81G BIS No. 34A - 11 SUR","4018042","reciclajeasomariapaz@gmail.com","Registro por la ESP","MIGUEL SEVERO RIVERA SIERRA","ORGANIZACION AUTORIZADA","MENOR O IGUAL A 2500 USUARIOS"
"BOGOTA, D.C.","BOGOTA, D.C.","ASEO","OPERATIVA","ASOCIACION DE RECUPERADORES AMBIENTALES COLOMBIA VIVA 7 ESP","BOGOTA, D.C.","BOGOTA, D.C.","CALLE 68A  70 13","4919156","asorecicla7@yahoo.com","Registro por la ESP","ESNEIDER PINZON CASAS","ORGANIZACION AUTORIZADA","MAYOR O IGUAL A 5001 USUARIOS"
"BOGOTA, D.C.","BOGOTA, D.C.","ASEO","OPERATIVA","ASOCIACION DE RECICLADORES Y PROCESADORES ESP","BOGOTA, D.C.","BOGOTA, D.C.","calle 40 sur No. 99D-17","0000000","recicladoresyprocesadores@gmail.com","Registro por la ESP","RAUL CUBIDES","ORGANIZACION AUTORIZADA","MAYOR O IGUAL A 5001 USUARIOS"
"BOGOTA, D.C.","BOGOTA, D.C.","ASEO","OPERATIVA","ASOCIACION COLOMBIANA DE RECICLADORES DE BOGOTA","BOGOTA, D.C.","BOGOTA, D.C.","CRA 54 B No. 52 B - 15 sur","6157640","GERENCIA@RECICLAODRES-ACORB.COM","Registro por la ESP","JOSE ALEXANDER  ARIAS ORTIZ","ORGANIZACION AUTORIZADA","MAYOR O IGUAL A 5001 USUARIOS"
"BOGOTA, D.C.","BOGOTA, D.C.","ASEO","OPERATIVA","VR3 EMPRESA DE SERVICIOS PUBLICOS ESP","BOGOTA, D.C.","BOGOTA, D.C.","calle 49A Sur # 29-60","4651731","vr3comercial@gmail.com","Registro por la ESP","LINDAY XIOMARA FRANCO CHACON","SOCIEDADES (EMPRESA DE SERVICIOS PUBLICOS)","MENOR O IGUAL A 2500 USUARIOS"
"BOGOTA, D.C.","BOGOTA, D.C.","ASEO","OPERATIVA","ASOCIACION DE RECICLADORES Y BODEGUEROS UNIDOS POR LA IGUALDAD EN COLOMBIA","BOGOTA, D.C.","BOGOTA, D.C.","Transversal 68 BIS 2A 56","2600430","funsocial40@hotmail.com","Registro por la ESP","MARIA ROSALBA RODRIGUEZ GUTIERREZ","ORGANIZACION AUTORIZADA","MAYOR O IGUAL A 5001 USUARIOS"
"BOGOTA, D.C.","BOGOTA, D.C.","ASEO","OPERATIVA","ASOCIACION DE RECICLADORES DE OFICIO NEW WORLD","BOGOTA, D.C.","BOGOTA, D.C.","CR 68 A # 39 F - 50 SUR","4584309","asociacion.new.world@gmail.com","Registro por la ESP","OLGA MARLEN ROJAS ARIAS","ORGANIZACION AUTORIZADA","MAYOR O IGUAL A 5001 USUARIOS"
"BOGOTA, D.C.","BOGOTA, D.C.","ASEO","OPERATIVA","ASOCIACION DE RECICLADORES Y PRESTADORES DE SERVICIOS AMBIENTALES ALQUERIA","BOGOTA, D.C.","BOGOTA, D.C.","cra 65b #17-80 sur","7131879","apream1@hotmail.com","Registro por la ESP","BLANCA EMA  CASTELLANOS  VARGAS","ORGANIZACION AUTORIZADA","MAYOR O IGUAL A 5001 USUARIOS"
"BOGOTA, D.C.","BOGOTA, D.C.","ASEO","OPERATIVA","ASOCIACION DE RECICLADORES MANEJO DE APROVECHAMIENTO NACIONAL","BOGOTA, D.C.","BOGOTA, D.C.","CR 107B BIS 72 54","9999999","mapronal.2016-09@hotmail.com","Registro por la ESP","YOFRE OSVALDO RIVERA ARIAS","ORGANIZACION AUTORIZADA","MENOR O IGUAL A 2500 USUARIOS"
"BOGOTA, D.C.","BOGOTA, D.C.","ASEO","OPERATIVA","Asociacion de Recuperadores Ambientales Mundo Verde","BOGOTA, D.C.","BOGOTA, D.C.","AV CALLE 54 SUR # 88D 52 BOSA BRASIL","3107952","recuperadoresmundoverde@gmail.com","Registro por la ESP","LUZ MERY MONTANA ALFONSO","ORGANIZACION AUTORIZADA","DESDE 2501 HASTA 5000 USUARIOS"
"BOGOTA, D.C.","BOGOTA, D.C.","ASEO","OPERATIVA","ASOCIACIÓN DE RECUPERADORES AMBIENTALES SIN DIFERENCIA","META","VILLAVICENCIO","CLL 33 # 25-47","2392473","asociacionarasid_2014@hotmail.com","Registro por la ESP","HEIDY GUEVARA HERNADEZ","ORGANIZACION AUTORIZADA","MAYOR O IGUAL A 5001 USUARIOS"
"BOGOTA, D.C.","BOGOTA, D.C.","ASEO","OPERATIVA","CORPORACION COLOMBIANA DE RECICLAJE","BOGOTA, D.C.","BOGOTA, D.C.","CARRERA 97A # 38C-75 SUR","4881171","corporeciclaje@gmail.com","Registro por la ESP","AYDEE AGUADA REAL","ORGANIZACION AUTORIZADA","DESDE 2501 HASTA 5000 USUARIOS"
"BOGOTA, D.C.","BOGOTA, D.C.","ASEO","OPERATIVA","CORPORACION DE RECICLADORES PUENTE ARANDA","BOGOTA, D.C.","BOGOTA, D.C.","CALLE 17A # 55-27","4204915","CORPOARANDA2016@GMAIL.COM","Registro por la ESP","JOSE JIMY DURAN CARDOZO","ORGANIZACION AUTORIZADA","MENOR O IGUAL A 2500 USUARIOS"
"BOGOTA, D.C.","BOGOTA, D.C.","ASEO","OPERATIVA","CORPORACION DE RECICLADORES DE ENGATIVA","BOGOTA, D.C.","BOGOTA, D.C.","carrera 123b 73 12","7276568","corporacionsacre@gmail.com","Registro por la ESP","JOSE FIDEL CARO LOPEZ","ORGANIZACION AUTORIZADA","DESDE 2501 HASTA 5000 USUARIOS"
"BOGOTA, D.C.","BOGOTA, D.C.","ASEO","CANCELACION","ASOCIACION ECO VIVE DE COLOMBIA","BOGOTA, D.C.","BOGOTA, D.C.","Cra 19 N. 6 A - 08","6562125","asociacionecovive@gmail.com","Registro por la ESP","FERNANDO COBOS ALVAREZ",,
"BOGOTA, D.C.","BOGOTA, D.C.","ASEO","OPERATIVA","ASOCIACION DE RECICLADORES NUEVA GENERACION DE BOSA","BOGOTA, D.C.","BOGOTA, D.C.","Carrera 98 No 58 - 10 sur Bosa Santa fe","7005450","arnugebo@hotmail.com","Registro por la ESP","MARIA DEL CARMEN ALBARRACIN DE TORRES","ORGANIZACION AUTORIZADA","MAYOR O IGUAL A 5001 USUARIOS"
"BOGOTA, D.C.","BOGOTA, D.C.","ASEO","OPERATIVA","ASOCIACION NACIONAL DE RECUPERADORES AMBIENTALES ESP","BOGOTA, D.C.","BOGOTA, D.C.","AV. CENTENARIO # 100-14","9370066","asondra444@gmail.com","Registro por la ESP","HEIDA PATRICIA MORALES ACOSTA","ORGANIZACION AUTORIZADA","MAYOR O IGUAL A 5001 USUARIOS"
"BOGOTA, D.C.","BOGOTA, D.C.","ASEO","OPERATIVA","ASOCIACIÓN RECICLANDO ANDO","BOGOTA, D.C.","BOGOTA, D.C.","calle 55 sur # 0 este -35","7472329","andoreciclando737@gmail.com","Registro por la ESP","ANGEL ARMANDO CORREDOR  SANTANA","ORGANIZACION AUTORIZADA","MAYOR O IGUAL A 5001 USUARIOS"
"BOGOTA, D.C.","BOGOTA, D.C.","ASEO","OPERATIVA","MUJERES POR UN AMBIENTE MEJOR","BOGOTA, D.C.","BOGOTA, D.C.","Carrera 84 # 11a-34 Avenida Cali","4504290","mujeresambientemejor@outlook.com","Registro por la ESP","VIRGINIA ANZOLA LOPEZ","ORGANIZACION AUTORIZADA","MAYOR O IGUAL A 5001 USUARIOS"
"BOGOTA, D.C.","BOGOTA, D.C.","ASEO","OPERATIVA","asociación defensora de recicladores y el medio ambiente","BOGOTA, D.C.","BOGOTA, D.C.","calle 25 sur #11-25","5612345","asociacionadryma@gmail.com","Registro por la ESP","YURI BECERRA RODRIGUEZ","SOCIEDADES (EMPRESA DE SERVICIOS PUBLICOS)","DESDE 2501 HASTA 5000 USUARIOS"
"BOGOTA, D.C.","BOGOTA, D.C.","ASEO","OPERATIVA","ASOCIACION DE RECICLADORES Y PROTECCIÓN AMBIENTAL","BOGOTA, D.C.","BOGOTA, D.C.","CALLE 11a # 32 - 16","4583551","asociacionderecicladoresARYPA@hotmail.com","Registro por la ESP","ANGIE PAOLA BAUTISTA  LOPEZ","ORGANIZACION AUTORIZADA","MENOR O IGUAL A 2500 USUARIOS"
"BOGOTA, D.C.","BOGOTA, D.C.","ASEO","OPERATIVA","ASOCIACION COLOMBIANA DE RECUPERADORES UNIDOS POR BOGOTA","BOGOTA, D.C.","BOGOTA, D.C.","CALLE 70 BIS SUR N. 78 - 21 BARRIO NUEVA GRANADA BOSA","5513347","ACRUB2017@GMAIL.COM","Registro por la ESP","LUZ DARY RAMIREZ BUITRAGO","ORGANIZACION AUTORIZADA","MAYOR O IGUAL A 5001 USUARIOS"
"BOGOTA, D.C.","BOGOTA, D.C.","ASEO","OPERATIVA","Asociacion de Recicladores por un Manana Mejor","BOGOTA, D.C.","BOGOTA, D.C.","Calle 73b Bis a Sur # 9 - 12 Este","7614192","recicladoreapm@hotmail.es","Registro por la ESP","HERNAN VIVAS MAMANCHE","ORGANIZACION AUTORIZADA","DESDE 2501 HASTA 5000 USUARIOS"
"BOGOTA, D.C.","BOGOTA, D.C.","ASEO","OPERATIVA","ASOCIACION DE RECICLADORES MODELO DE VIDA ZONA DECIMA","BOGOTA, D.C.","BOGOTA, D.C.","AV CR  96 No. 65 - 85","6591098","asociacionmodelodevida@hotmail.com","Registro por la ESP","OLGA YOLANDA MARTINEZ BARRERA","ORGANIZACION AUTORIZADA","MENOR O IGUAL A 2500 USUARIOS"
"BOGOTA, D.C.","BOGOTA, D.C.","ASEO","OPERATIVA","ASOCIACION DE MUJERES EL RECICLAJE UNA OPCION DIGNA","BOGOTA, D.C.","BOGOTA, D.C.","CALLE 50 A NRO. 89 A 15 SUR","3418365","asodigmujer@yahoo.es","Registro por la ESP","ANA ISABEL MARTINEZ MARQUEZ","ORGANIZACION AUTORIZADA","MAYOR O IGUAL A 5001 USUARIOS"
"BOGOTA, D.C.","BOGOTA, D.C.","ASEO","OPERATIVA","Asociación Recicladores Camilo Torres","BOGOTA, D.C.","BOGOTA, D.C.","Calle 21 bis No 39-26","3068848","jhan.carlotapias@gmail.com","Registro por la ESP","DAYSI CORDERO HERNANDEZ","ORGANIZACION AUTORIZADA","MAYOR O IGUAL A 5001 USUARIOS"
"BOGOTA, D.C.","BOGOTA, D.C.","ASEO","OPERATIVA","ASOCIACION DE RECICLADORES EL TRIUNFO","BOGOTA, D.C.","BOGOTA, D.C.","Carrera 34A 10 - 20","7069527","correo@estrategia5.com","Registro por la ESP","DAIRO ALFONSO MARTINEZ GUERRA","ORGANIZACION AUTORIZADA","MAYOR O IGUAL A 5001 USUARIOS"
"BOGOTA, D.C.","BOGOTA, D.C.","ASEO","OPERATIVA","asociación de recicladores julio flores y doce de octubre","BOGOTA, D.C.","BOGOTA, D.C.","calle 78 #69 Q 17","4815112","ARLAUNION@hotmail.com","Registro por la ESP","PAULA ANDREA NARANJO SUPELANO","ORGANIZACION AUTORIZADA","MAYOR O IGUAL A 5001 USUARIOS"
"BOGOTA, D.C.","BOGOTA, D.C.","ASEO","OPERATIVA","ASOCIACION DE RECUPERADORES AMBIENTALES BOGOTA MAS LIMPIA","BOGOTA, D.C.","BOGOTA, D.C.","CRARRERA 16A # 22A - 02","7029805","bogota.limpia@yahoo.com","Registro por la ESP","SANTOS  MENDEZ  CORDERO","ORGANIZACION AUTORIZADA","MAYOR O IGUAL A 5001 USUARIOS"
"BOGOTA, D.C.","BOGOTA, D.C.","ASEO","OPERATIVA","ASOCIACIÓN DE RECICLADORES JUNTOS POR LA SOSTENIBILIDAD AMBIENTAL","BOGOTA, D.C.","BOGOTA, D.C.","CL 21 # 39  A 60","2467834","l.granados@estrategia5.com","Registro por la ESP","JANCY TERESA BARINAS VILLAMIZAR","ORGANIZACION AUTORIZADA","MAYOR O IGUAL A 5001 USUARIOS"
"BOGOTA, D.C.","BOGOTA, D.C.","ASEO","OPERATIVA","GESTION DE SERVICIOS AMBIENTALES EN RESIDUOS LOCATIVOS E INSTITUCIONALES SAS","BOGOTA, D.C.","BOGOTA, D.C.","Calle 6 G SUR N. 4 23 ESTE","3044740","gareloinsas@yahoo.com.co","Registro por la ESP","VANESSA LILIANA MEDINA PADILLA","SOCIEDADES (EMPRESA DE SERVICIOS PUBLICOS)","MENOR O IGUAL A 2500 USUARIOS"
"BOGOTA, D.C.","BOGOTA, D.C.","ASEO","OPERATIVA","ASOCIACION COLOMBIANA DE RECICLADORES GAIAREC","BOGOTA, D.C.","BOGOTA, D.C.","CALLE 10 # 33-62","8088070","acrgaiarec@yahoo.com","Registro por la ESP","SILVIO RUIZ GRISALES","ORGANIZACION AUTORIZADA","MAYOR O IGUAL A 5001 USUARIOS"
"BOGOTA, D.C.","BOGOTA, D.C.","ASEO","OPERATIVA","COOPERATIVA MULTIACTIVA DE RECICLADORES FONTIBON POR COLOMBIA","CUNDINAMARCA","MOSQUERA","CALLE 13 a 2 - 41 PORVENIR RIO","8931761","cooprafcol@gmail.com","Registro por la ESP","EDGAR ALFONSO JUDEX  GUTIERREZ","ORGANIZACION AUTORIZADA","MENOR O IGUAL A 2500 USUARIOS"
"BOGOTA, D.C.","BOGOTA, D.C.","ASEO","OPERATIVA","Asociación de recicladores Semilleros del futuro para un ambiente mejor","BOGOTA, D.C.","BOGOTA, D.C.","Calle 23 Sur # 8 - 47","3734213","reci-asosemilleros@hotmail.com","Registro por la ESP","FLOR MARIA RAMIREZ PABON","ORGANIZACION AUTORIZADA","MAYOR O IGUAL A 5001 USUARIOS"
"BOGOTA, D.C.","BOGOTA, D.C.","ASEO","OPERATIVA","ASOCIACIÓN  DE PUENTE ARANDA RECICLADORES INDEPENDIENTES","BOGOTA, D.C.","BOGOTA, D.C.","CARRERA 57 # 17 - 97","4919551","asoparein974@gmail.com","Registro por la ESP","YURY ADRIANA HUERFANO BUENAVENTURA","ORGANIZACION AUTORIZADA","MAYOR O IGUAL A 5001 USUARIOS"
"BOGOTA, D.C.","BOGOTA, D.C.","ASEO","OPERATIVA","ASOCIACIÓN EMPRESARIAL DE FAMILIAS RECUPERADORAS AMBIENTALES COLOMBIANAS E.S.P.","BOGOTA, D.C.","BOGOTA, D.C.","CARRERA 93B No. 130A - 42","5368718","asofrain@gmail.com","Registro por la ESP","JOSE GREGORIO PALACIOS PINILLA","ORGANIZACION AUTORIZADA","MAYOR O IGUAL A 5001 USUARIOS"
"BOGOTA, D.C.","BOGOTA, D.C.","ASEO","OPERATIVA","ASOCIACIÓN DE RECICLADORES SOMOS LA ESPERANZA","BOGOTA, D.C.","BOGOTA, D.C.","Calle 76 sur N 78 F 41","0000000","sarmientomilton@gmail.com","Registro por la ESP","MILTON SARMIENTO PULIDO","ORGANIZACION AUTORIZADA","DESDE 2501 HASTA 5000 USUARIOS"
"BOGOTA, D.C.","BOGOTA, D.C.","ASEO","OPERATIVA","ASOCIACION MUNDIAL DEL RECICLADOR POR EL PLANETA","BOGOTA, D.C.","BOGOTA, D.C.","Cra 93 A N° 130A -07","5355887","AMURE.PLANET_2017@HOTMAIL.COM","Registro por la ESP","YOLANDA CRUZ ROMERO","ORGANIZACION AUTORIZADA","MAYOR O IGUAL A 5001 USUARIOS"
"BOGOTA, D.C.","BOGOTA, D.C.","ASEO","OPERATIVA","ASOCIACION DE RECUPERADORES DEL MEDIO AMBIENTE","BOGOTA, D.C.","BOGOTA, D.C.","CARRERA 81 NO. 57G 52 SUR","7765752","saguilera@superservicios.gov.co","Registro por la ESP","PEDRO ANTORIO CONTRERAS RAMIREZ","ORGANIZACION AUTORIZADA","MENOR O IGUAL A 2500 USUARIOS"
"BOGOTA, D.C.","BOGOTA, D.C.","ASEO","CANCELACION","ASOCIACION RECICLADORES AMBIENTALES JAG","BOGOTA, D.C.","BOGOTA, D.C.","CL 10  N°  32  55","5606388","FINANCIEROSUI@ESTRATEGIA5.COM","Registro por la ESP","HEIMY PAOLA BARINAS VILLAMIZAR",,
"BOGOTA, D.C.","BOGOTA, D.C.","ASEO","OPERATIVA","ASOCIACION DE RECICLADORES PLANETARIA UNIDOS SOSTENIBLE","BOGOTA, D.C.","BOGOTA, D.C.","DIAGONAL 62 N° 18-23 SUR","7900161","ARPUESRECICLAL19@GMAIL.COM","Registro por la ESP","JOSE MARIA  QUEVEDO VARGAS","ORGANIZACION AUTORIZADA","MAYOR O IGUAL A 5001 USUARIOS"
"BOGOTA, D.C.","BOGOTA, D.C.","ASEO","CANCELACION","ASOCIACIÓN AL SERVICIO DEL RECICLAJE MUNDO UNIDO","BOGOTA, D.C.","BOGOTA, D.C.","CL 42C SUR # 72D 15","7102116","ambiental@estrategia5.com","Registro por la ESP","EDELMIRA OTALVARO PATINO",,
"BOGOTA, D.C.","BOGOTA, D.C.","ASEO","OPERATIVA","ASOCIACION SOLUCIONES AMBIENTALES POSITIVAS","BOGOTA, D.C.","BOGOTA, D.C.","Calle 60A N° 71H39 SUR","7805818","unmejorambientepositivo@gmail.com","Registro por la ESP","VICTOR MANUEL  GOMEZ  DIAZ","ORGANIZACION AUTORIZADA","MAYOR O IGUAL A 5001 USUARIOS"
"BOGOTA, D.C.","BOGOTA, D.C.","ASEO","OPERATIVA","CORPORACION JAVIER DE NICOLO DISCIPULOS","BOGOTA, D.C.","BOGOTA, D.C.","Cra 2 E N. 46 B 65 SUR","3669184","jmmora@superservicios.gov.co","Registro por la ESP","NELSON  BARRERA PINZON","ORGANIZACION AUTORIZADA","MENOR O IGUAL A 2500 USUARIOS"
"BOGOTA, D.C.","BOGOTA, D.C.","ASEO","OPERATIVA","ASOCIACION DE RECUPERADORES AMBIENTALES UNIDOS DE KENNEDY","BOGOTA, D.C.","BOGOTA, D.C.","CALLE 55 N 82 B 81 SUR","3048494","jmmora@superservicios.gov.co","Registro por la ESP","GUSTAVO MARTINEZ CEBALLOS","ORGANIZACION AUTORIZADA","MENOR O IGUAL A 2500 USUARIOS"
"BOGOTA, D.C.","BOGOTA, D.C.","ASEO","CANCELACION","INTERASEO AEROPUERTO S.A.S. E.S.P.","BOGOTA, D.C.","BOGOTA, D.C.","CALLE 17 No 124-81","7470499","dsoto@interaseo.com.co","Registro por la ESP","JUAN MANUEL GOMEZ MEJIA",,
"BOGOTA, D.C.","BOGOTA, D.C.","ASEO","OPERATIVA","ASOCIACION DE RECUPERADORES DE MATATIGRES","BOGOTA, D.C.","BOGOTA, D.C.","CALLE 35 B SUR # 25 A 32","6751777","asociacionaremat1@gmail.com","Registro por la ESP","BRAYAN STITH GONZALEZ  REYES","ORGANIZACION AUTORIZADA","MENOR O IGUAL A 2500 USUARIOS"
"BOGOTA, D.C.","BOGOTA, D.C.","ASEO","OPERATIVA","BIOFIBRAS SAS ESP","BOGOTA, D.C.","BOGOTA, D.C.","carrera 68B 17 56","2627799","tatiana.ardila@empacor.com","Registro por la ESP","SALOMON FINVARB MISSHAAN","SOCIEDADES (EMPRESA DE SERVICIOS PUBLICOS)","MENOR O IGUAL A 2500 USUARIOS"
"BOGOTA, D.C.","BOGOTA, D.C.","ASEO","OPERATIVA","Eco Mundo Concept SAS","BOGOTA, D.C.","BOGOTA, D.C.","Cra. 81 B No. 41 F - 43 Sur","5756760","admon.ecomundosas@gmail.com","Registro por la ESP","JENIFER GERALDIN SANCHEZ MARTINEZ","SOCIEDADES (EMPRESA DE SERVICIOS PUBLICOS)","MENOR O IGUAL A 2500 USUARIOS"
"BOGOTA, D.C.","BOGOTA, D.C.","ASEO","OPERATIVA","ASOCIACION MUNDIAL AMIGOS DEL RECICLAJE ESP","BOGOTA, D.C.","BOGOTA, D.C.","CRA 93 D  No  40 A 27 sur","4329690","rcpolania@yahoo.com","Registro por la ESP","DANIEL GONZALO MOYA SANDOVAL","ORGANIZACION AUTORIZADA","MAYOR O IGUAL A 5001 USUARIOS"
"BOGOTA, D.C.","BOGOTA, D.C.","ASEO","OPERATIVA","ASOCIACION COLOMBIANA DE RECICLADORES","BOGOTA, D.C.","BOGOTA, D.C.","calle 6 # 87 f - 87","3114168","acorec2017@gmail.com","Registro por la ESP","PEDRO REYES CRUZ MONDRAGON","ORGANIZACION AUTORIZADA","MAYOR O IGUAL A 5001 USUARIOS"
"BOGOTA, D.C.","BOGOTA, D.C.","ASEO","OPERATIVA","ASOCIACION ORA DE RECICLADORES NUEVA GENERACION","BOGOTA, D.C.","BOGOTA, D.C.","CR 87 K #  53- 33 SUR","6083448","victorpo01@gmail.com","Registro por la ESP","JHON JAIR RODRIGUEZ","ORGANIZACION AUTORIZADA","MAYOR O IGUAL A 5001 USUARIOS"
"BOGOTA, D.C.","BOGOTA, D.C.","ASEO","OPERATIVA","ASOCIACION DE RECUPERADORES SOLIDARIOS CON EL MEDIO AMBIENTE","BOGOTA, D.C.","BOGOTA, D.C.","CLL81 SUR 81C 48 BIS 1","3145744","adersaasociados@gmail.com","Registro por la ESP","ANDERSON PINZON MENDEZ","ORGANIZACION AUTORIZADA","MENOR O IGUAL A 2500 USUARIOS"
"BOGOTA, D.C.","BOGOTA, D.C.","ASEO","OPERATIVA","ASOCIACION DE RECICLADORES PUNTO CALIDAD DE VIDA E.S.P","CUNDINAMARCA","CHIA","CARRERA 12 # 1R - 49","8851095","asoreciklar.esp@gmail.com","Registro por la ESP","DANIEL VANEGAS PRADA","ORGANIZACION AUTORIZADA","MAYOR O IGUAL A 5001 USUARIOS"
"BOGOTA, D.C.","BOGOTA, D.C.","ASEO","OPERATIVA","ASOCIACIÓN DE RECICLADORES","BOGOTA, D.C.","BOGOTA, D.C.","CARRERA 21#68-57|","4803799","asorellebogota@gmail.com","Registro por la ESP","DIANA MILENA PINEDA RODRIGUEZ","ORGANIZACION AUTORIZADA","MAYOR O IGUAL A 5001 USUARIOS"
"BOGOTA, D.C.","BOGOTA, D.C.","ASEO","OPERATIVA","ECOCIUDAD S.A.S","BOGOTA, D.C.","BOGOTA, D.C.","CLL 52 B SUR # 24D-40 BL 7 APTO 313","7144991","ecociudad.ambiente@gmail.com","Registro por la ESP","SEBASTIAN ENRIQUE VALENCIA PINEROS","SOCIEDADES (EMPRESA DE SERVICIOS PUBLICOS)","MENOR O IGUAL A 2500 USUARIOS"
"BOGOTA, D.C.","BOGOTA, D.C.","ASEO","OPERATIVA","asociacion recuperadores del reciclaje roca verde","BOGOTA, D.C.","BOGOTA, D.C.","TRANSVERSAL 81 G BIS 34 A 40 SUR","5717709","ASOROCAVERDE17@GMAIL.COM","Registro por la ESP","RUTH MARY LOPEZ MATEUS","ORGANIZACION AUTORIZADA","DESDE 2501 HASTA 5000 USUARIOS"
"BOGOTA, D.C.","BOGOTA, D.C.","ASEO","OPERATIVA","EKOPLANET S.A.S. E.S.P.","BOGOTA, D.C.","BOGOTA, D.C.","CLL 20 C # 43 A 21","2694993","aprovechamiento@ekoplanet.com.co","Registro por la ESP","DIEGO AICARDO ESTRADA LIZCANO","SOCIEDADES (EMPRESA DE SERVICIOS PUBLICOS)","MAYOR O IGUAL A 5001 USUARIOS"
"BOGOTA, D.C.","BOGOTA, D.C.","ASEO","OPERATIVA","ASOCIACIÓN GREMIAL DE RECICLADORES LA UNION E.S.P.","BOGOTA, D.C.","BOGOTA, D.C.","CALLE 55SUR#86B25","8634233","arlaunion2019@gmail.com","Registro por la ESP","NATALIA ANDREA PEREZ DELGADO","ORGANIZACION AUTORIZADA","MAYOR O IGUAL A 5001 USUARIOS"
"BOGOTA, D.C.","BOGOTA, D.C.","ASEO","OPERATIVA","FUNDACIÓN DE RECICLADORES AMBIENTALISTAS DE COLOMBIA","ATLANTICO","BARRANQUILLA","calle 47 no 38-23","3012069","FUNDAREVIVIR.BOGOTA@GMAIL.COM","Registro por la ESP","IGNACIO YEFRY AVILA DE LEON","ORGANIZACION AUTORIZADA","DESDE 2501 HASTA 5000 USUARIOS"
"BOGOTA, D.C.","BOGOTA, D.C.","ASEO","OPERATIVA","ASOCIACION DE RECICLADORES PORVENIR - ASOPORVENIR","BOGOTA, D.C.","BOGOTA, D.C.","CARRERA 91 #97-19","5600540","infosui@estrategia5.com","Registro por la ESP","BRAHIAN STICK LADINO VALDERRAMA","ORGANIZACION AUTORIZADA","MAYOR O IGUAL A 5001 USUARIOS"
"BOGOTA, D.C.","BOGOTA, D.C.","ASEO","OPERATIVA","Fundación Recicla - Vida Integral","VALLE DEL CAUCA","CALI","Carrera 11B # 20 - 33","8829663","gerencia@furvin.com.co","Registro por la ESP","MARY LENIS ORDONEZ","ORGANIZACION AUTORIZADA","MAYOR O IGUAL A 5001 USUARIOS"
"BOGOTA, D.C.","BOGOTA, D.C.","ASEO","OPERATIVA","ASOCIACIÓN GREMIAL DE RECICLAJE ASOAMBIENTAL CHIA E.S.P","CUNDINAMARCA","CHIA","Carrera 10 No.4 - 82","8630930","asoambientalesp@gmail.com","Registro por la ESP","NELSON MARTIN DIAZ RODRIGUEZ","ORGANIZACION AUTORIZADA","MAYOR O IGUAL A 5001 USUARIOS"
"BOGOTA, D.C.","BOGOTA, D.C.","ASEO","OPERATIVA","ASOCIACION GREMIAL DE RECICLADORES NACIONALES ECOCLEAN ESP","BOGOTA, D.C.","BOGOTA, D.C.","AV CALI  # 34A-15 sur","4822806","rcpolania@yahoo.com","Registro por la ESP","JHONNY ANDERSON FLOREZ MORENO","ORGANIZACION AUTORIZADA","DESDE 2501 HASTA 5000 USUARIOS"
"BOGOTA, D.C.","BOGOTA, D.C.","ASEO","OPERATIVA","ASOCIACION DE RECICLADORES FUERTES EN LA RTA","BOGOTA, D.C.","BOGOTA, D.C.","CALLE 5 B No. 22   - 57","2467834","infosui@estrategia5.com","Registro por la ESP","EDGARDO LIBERATO  PARRA","ORGANIZACION AUTORIZADA","MAYOR O IGUAL A 5001 USUARIOS"
"BOGOTA, D.C.","BOGOTA, D.C.","ASEO","OPERATIVA","ASOCIACION DE RECICLADORES DE OFICIO NUEVA VISION","BOGOTA, D.C.","BOGOTA, D.C.","CALLE 60D SUR N° 18D15","7912822","RECICLADORES.ARNU@GMAIL.COM","Registro por la ESP","JAIME  JIMENEZ GODOY","ORGANIZACION AUTORIZADA","MAYOR O IGUAL A 5001 USUARIOS"
"BOGOTA, D.C.","BOGOTA, D.C.","ASEO","OPERATIVA","asociacion de recuperadores activos de usaquen esp","BOGOTA, D.C.","BOGOTA, D.C.","cl 234 68 50","5623164","asoecousaquen@gmail.com","Registro por la ESP","MARIA ESTEFANY CARO CARDOZO","ORGANIZACION AUTORIZADA","MENOR O IGUAL A 2500 USUARIOS"
"BOGOTA, D.C.","BOGOTA, D.C.","ASEO","OPERATIVA","CORPORACIÓN DE RECICLADORES DE BOSA","BOGOTA, D.C.","BOGOTA, D.C.","calle 71a sur # 87a 25 sur","9332542","CORPOCARRECOL@GMAIL.COM","Registro por la ESP","MARTHA LILIANA AREVALO GARCIA","ORGANIZACION AUTORIZADA","MAYOR O IGUAL A 5001 USUARIOS"
"BOGOTA, D.C.","BOGOTA, D.C.","ASEO","OPERATIVA","CORPORACION CORPOARCO (CORPORACION AMBIENTALISTA DE RECUPERADORES DE COLOMBIA)","BOGOTA, D.C.","BOGOTA, D.C.","CRA 52 BIS NO 37 A 58 SUR","2041587","corpoarcobogota@gmail.com","Registro por la ESP","CHRISTIAN DAVID DUARTE RODRIGUEZ","ORGANIZACION AUTORIZADA","DESDE 2501 HASTA 5000 USUARIOS"
"BOGOTA, D.C.","BOGOTA, D.C.","ASEO","OPERATIVA","Asociacion Colombiana de Reciclaje y Recuperacion Reutiliza Esp","BOGOTA, D.C.","BOGOTA, D.C.","CRA  82B · 40G 12 SUR","3212194","recure.esp@gmail.com","Registro por la ESP","ANDRES CAMILO ROBAYO VELEZ","ORGANIZACION AUTORIZADA","MAYOR O IGUAL A 5001 USUARIOS"
"BOGOTA, D.C.","BOGOTA, D.C.","ASEO","OPERATIVA","ASOCIACIÓN DE RECICLADORES BOGOTA V","BOGOTA, D.C.","BOGOTA, D.C.","CALLE 132 D 160 47 SUBA SANTACECILIA","4455329","arbolvl11@gmail.com","Registro por la ESP","MARCO ANTONIO QUEVEDO  JIMENEZ","ORGANIZACION AUTORIZADA","MAYOR O IGUAL A 5001 USUARIOS"
"BOGOTA, D.C.","BOGOTA, D.C.","ASEO","OPERATIVA","FUNDACIÓN PROGRESANDO JUNTOS POR COLOMBIA","BOGOTA, D.C.","BOGOTA, D.C.","calle 45 a sur No. 80 i 64","6023934","funjuncol@gmail.com","Registro por la ESP","TRANSITO DIAZ BERMUDEZ","ORGANIZACION AUTORIZADA","DESDE 2501 HASTA 5000 USUARIOS"
"BOGOTA, D.C.","BOGOTA, D.C.","ASEO","OPERATIVA","Fundación Geo Verde","BOGOTA, D.C.","BOGOTA, D.C.","Transversal 87A Bis # 97A -20 Sur","4609852","fundaciongeoverde@gmail.com","Registro por la ESP","BERNARDA RINCON CUEVAS","ORGANIZACION AUTORIZADA","DESDE 2501 HASTA 5000 USUARIOS"
"BOGOTA, D.C.","BOGOTA, D.C.","ASEO","OPERATIVA","ASOCIACIÓN GREMIAL DE RECUPERADORES UNIDOS ESP","BOYACA","SOGAMOSO","CL 13 15 63 BRR SANTA HELENA","7752327","agreunidosesp@gmail.com","Registro por la ESP","JULIO NEL BARRERA BELTRAN","ORGANIZACION AUTORIZADA","MAYOR O IGUAL A 5001 USUARIOS"
"BOGOTA, D.C.","BOGOTA, D.C.","ASEO","OPERATIVA","ARCANAS TRADING CO E.S.P SAS CI","BOGOTA, D.C.","BOGOTA, D.C.","CR 87 N # 74 C SUR 83","0000000","gerencia@arcanastrading.com","Registro por la ESP","ALFONSO OJEDA MOLINA","SOCIEDADES (EMPRESA DE SERVICIOS PUBLICOS)","MAYOR O IGUAL A 5001 USUARIOS"
"BOGOTA, D.C.","BOGOTA, D.C.","ASEO","OPERATIVA","LOGIREC SAS","BOGOTA, D.C.","BOGOTA, D.C.","calle 69B #17-17 SUR","0000000","logirecsas@gmail.com","Registro por la ESP","MARLON ALEXANDER ROZO","SOCIEDADES (EMPRESA DE SERVICIOS PUBLICOS)","MAYOR O IGUAL A 5001 USUARIOS"
"BOGOTA, D.C.","BOGOTA, D.C.","ASEO","OPERATIVA","ASOCIACION ASOECOVIDA","BOGOTA, D.C.","BOGOTA, D.C.","CALLE 73 B NRO. 87 I 97 SUR","0000000","asociacionasoecovida@gmail.com","Registro por la ESP","MORONI ESTEBAN PEREZ DIAZ","ORGANIZACION AUTORIZADA","MAYOR O IGUAL A 5001 USUARIOS"
"BOGOTA, D.C.","BOGOTA, D.C.","ASEO","OPERATIVA","PROMOAMBIENTAL DISTRITO S A S ESP","BOGOTA, D.C.","BOGOTA, D.C.","Transversal 4 No. 51 A - 25","6164821","diana.espinosa@aseoregional.com","Registro por la ESP","TOMAS SALVADOR MENDOZA PARDO","SOCIEDADES (EMPRESA DE SERVICIOS PUBLICOS)","MAYOR O IGUAL A 5001 USUARIOS"
"BOGOTA, D.C.","BOGOTA, D.C.","ASEO","OPERATIVA","BOGOTA LIMPIA S.A.S. E.S.P.","BOGOTA, D.C.","BOGOTA, D.C.","Av. Calle 13 No. 68-71","7450912","adrian.toloza@bogotalimpia.com","Registro por la ESP","JULIAN ANTONIO NAVARRO HOYOS","SOCIEDADES (EMPRESA DE SERVICIOS PUBLICOS)","MAYOR O IGUAL A 5001 USUARIOS"
"BOGOTA, D.C.","BOGOTA, D.C.","ASEO","OPERATIVA","ASOCIACION RECOPLANET E.S.P. SAS","BOGOTA, D.C.","BOGOTA, D.C.","Kr 87 88s-38","6756764","asociacionrecoplanetesp@gmail.com","Registro por la ESP","JUAN PABLO BARRETO  TORRES","SOCIEDADES (EMPRESA DE SERVICIOS PUBLICOS)","MENOR O IGUAL A 2500 USUARIOS"
"BOGOTA, D.C.","BOGOTA, D.C.","ASEO","OPERATIVA","ASOCIACION DE RECICLADORES CANO JESUS","ARAUCA","ARAUCA","AV 5 CON CALLE 16 LOTE 4 AMERICAS","8851198","asorecicla2018@gmail.com","Registro por la ESP","EDITH LORENZA  DIAZ CARVAJAL","ORGANIZACION AUTORIZADA","DESDE 2501 HASTA 5000 USUARIOS"
"BOGOTA, D.C.","BOGOTA, D.C.","ASEO","OPERATIVA","Area Limpia Distrito Capital S.A.S E.S.P","BOGOTA, D.C.","BOGOTA, D.C.","Av Calle 17 124-81","6241243","crojas@arealimpia.com.co","Registro por la ESP","GUILLERMO CEREZO  OMEDES","SOCIEDADES (EMPRESA DE SERVICIOS PUBLICOS)","MAYOR O IGUAL A 5001 USUARIOS"
"BOGOTA, D.C.","BOGOTA, D.C.","ASEO","CANCELACION","Asociacion de reciclaje y recuperacion eco colombia esp","BOGOTA, D.C.","BOGOTA, D.C.","cl 63 f 72 55","3123950","ecocolombiaesp2017@gmail.com","Registro por la ESP","JOSE ANGEL TORRES TOQUICA",,
"BOGOTA, D.C.","BOGOTA, D.C.","ASEO","OPERATIVA","asociacion de reciclaje y recuperacion eco ambiental esp","BOGOTA, D.C.","BOGOTA, D.C.","cl 48g 55a 25 sur","3142638","ecoambientalesp2017@gmail.com","Registro por la ESP","CHRISTIAN SALAZAR","ORGANIZACION AUTORIZADA","MAYOR O IGUAL A 5001 USUARIOS"
"BOGOTA, D.C.","BOGOTA, D.C.","ASEO","OPERATIVA","asociacion de recicladores de soacha soluciones ambientales","CUNDINAMARCA","SOACHA","calle 24 A # 12 -12","5221696","ASOSOAMSOACHA@GMAIL.COM","Registro por la ESP","PEDRO RAFAEL CANON CORTES","ORGANIZACION AUTORIZADA","MAYOR O IGUAL A 5001 USUARIOS"
"BOGOTA, D.C.","BOGOTA, D.C.","ASEO","OPERATIVA","ASOCIACION GREMIAL DE RECICLADORES ORA MARIANIS ESP","BOGOTA, D.C.","BOGOTA, D.C.","Carrera 78 c # 76 b -09 sur","0000000","ASOMARIANIS@GMAIL.COM","Registro por la ESP","LILIA MARIA  MENDEZ COLORADO","ORGANIZACION AUTORIZADA","MAYOR O IGUAL A 5001 USUARIOS"
"BOGOTA, D.C.","BOGOTA, D.C.","ASEO","OPERATIVA","asociacion de reciclaje nuestro futuro","BOGOTA, D.C.","BOGOTA, D.C.","cl 40 85 s 25","0000000","asociacionfuturo2018@gmail.com","Registro por la ESP","MANUEL GARCIA BARRERA","ORGANIZACION AUTORIZADA","MAYOR O IGUAL A 5001 USUARIOS"
"BOGOTA, D.C.","BOGOTA, D.C.","ASEO","OPERATIVA","ASOCIACION DE RECICLADORES LEON VERDE ESP","BOGOTA, D.C.","BOGOTA, D.C.","CALLE 73 A # 120 C -10","4755289","asociacionleonverde@gmail.com","Registro por la ESP","ERICA PATRICIA LEON CARDENAS","ORGANIZACION AUTORIZADA","DESDE 2501 HASTA 5000 USUARIOS"
"BOGOTA, D.C.","BOGOTA, D.C.","ASEO","OPERATIVA","PRECOOPERATIVA DE RECICLADORES NATURALEZA VIVA UPZ 89","BOGOTA, D.C.","BOGOTA, D.C.","Calle 99 A # 3A - 41Este","6320781","prerenavi@gmail.com","Registro por la ESP","LUZ MYRIAN DAZA NOVOA","ORGANIZACION AUTORIZADA","DESDE 2501 HASTA 5000 USUARIOS"
"BOGOTA, D.C.","BOGOTA, D.C.","ASEO","OPERATIVA","ASOCIACION DE RECICLADORES CENTRO DE BOGOTA - ASORECENBOG","BOGOTA, D.C.","BOGOTA, D.C.","DG 1 A # 8 - 21","1234567","inforsui@estrategia5.com","Registro por la ESP","NESTOR ALEXANDER VELASCO DOZA","ORGANIZACION AUTORIZADA","MAYOR O IGUAL A 5001 USUARIOS"
"BOGOTA, D.C.","BOGOTA, D.C.","ASEO","OPERATIVA","Asociación de recicladores 5rs","BOGOTA, D.C.","BOGOTA, D.C.","cra 99b #42g - 58 sur","4532542","ar5rscolombia@gmail.com","Registro por la ESP","EDGAR OSWALDO ROMERO TAMAYO","ORGANIZACION AUTORIZADA","MENOR O IGUAL A 2500 USUARIOS"
"BOGOTA, D.C.","BOGOTA, D.C.","ASEO","OPERATIVA","Asociación de recicladores de Kennedy unidos por el medio ambiente","BOGOTA, D.C.","BOGOTA, D.C.","Carrera 81 A # 42 sur-47","0000000","asounionambiental@gmail.com","Registro por la ESP","JOHANA ALEXANDRA VALDERRAMA PALOMO","ORGANIZACION AUTORIZADA","DESDE 2501 HASTA 5000 USUARIOS"
"BOGOTA, D.C.","BOGOTA, D.C.","ASEO","OPERATIVA","ASOCIACION GRUPAL DE RECICLADORES UNIDOS POR COLOMBIA ESP","BOGOTA, D.C.","BOGOTA, D.C.","CALLE 56 SUR N. 5 A 82","5726696","agrucolesp2018@gmail.com","Registro por la ESP","LUIS  FERNANDO  ECHEVERRY TORRES","ORGANIZACION AUTORIZADA","MAYOR O IGUAL A 5001 USUARIOS"
"BOGOTA, D.C.","BOGOTA, D.C.","ASEO","OPERATIVA","ASOCIACION DE RECICLADORES IMPACTO AMBIENTAL","BOGOTA, D.C.","BOGOTA, D.C.","Carrera 96 No. 41 - 19 SUR.","0000000","asoreimp@gmail.com","Registro por la ESP","YENIFER ALEJANDRA LOPEZ  AGUADA","ORGANIZACION AUTORIZADA","MAYOR O IGUAL A 5001 USUARIOS"
"BOGOTA, D.C.","BOGOTA, D.C.","ASEO","OPERATIVA","Asociación ambiental de recuperadores en ecología industrial","BOGOTA, D.C.","BOGOTA, D.C.","CLL 19 B 35-40","0000000","info.aardeco@gmail.com","Registro por la ESP","JAIME JAVIER SANCHEZ SANCHEZ","ORGANIZACION AUTORIZADA","MAYOR O IGUAL A 5001 USUARIOS"
"BOGOTA, D.C.","BOGOTA, D.C.","ASEO","OPERATIVA","Asociación de recicladores por una Ciudad Limpia","BOGOTA, D.C.","BOGOTA, D.C.","Transversal 68 Bis # 2 A -40","4200687","asociacionrecil@gmail.com","Registro por la ESP","JOSE DANILO RODRIGUEZ GUTIERREZ","ORGANIZACION AUTORIZADA","MAYOR O IGUAL A 5001 USUARIOS"
"BOGOTA, D.C.","BOGOTA, D.C.","ASEO","OPERATIVA","ASOCIACION GREMIAL DE RECICLADORES ESTRELLA E.S.P.","BOGOTA, D.C.","BOGOTA, D.C.","AV. CALLE 22 N° 107 - 44","2935526","AGR.ESTRELLAESP@GMAIL.COM","Registro por la ESP","LILIANA MILENA BONILLA MOYA","ORGANIZACION AUTORIZADA","DESDE 2501 HASTA 5000 USUARIOS"
"BOGOTA, D.C.","BOGOTA, D.C.","ASEO","OPERATIVA","ASOCIACIÓN DE RECICLADORES COLOMBIA LIMPIA","BOGOTA, D.C.","BOGOTA, D.C.","Calle 42 Sur 24 B 02","9277764","rcolombialimpia@gmail.com","Registro por la ESP","DIANA MARIA CORDOBA VEGA","ORGANIZACION AUTORIZADA","MAYOR O IGUAL A 5001 USUARIOS"
"BOGOTA, D.C.","BOGOTA, D.C.","ASEO","OPERATIVA","ASOCIACION SOLIDARIA DE RECICLADORES DEL SERVICIO DE APROVECHAMIENTO","BOGOTA, D.C.","BOGOTA, D.C.","Transversal 18R #  69H -19 Sur","3134982","echeverryantonio@outlook.es","Registro por la ESP","HERNANDO ANTONIO ECHEVERRI VILLA","ORGANIZACION AUTORIZADA","MAYOR O IGUAL A 5001 USUARIOS"
"BOGOTA, D.C.","BOGOTA, D.C.","ASEO","OPERATIVA","ASOCIACION DE RECUPERADORES AMBIENTALES DE CUNDINAMARCA","BOGOTA, D.C.","BOGOTA, D.C.","CALLE 65 SUR # 72 C 23","3050271","info@arac.com.co","Registro por la ESP","MARIA DE LA PAZ BELTRAN PARRAGA","ORGANIZACION AUTORIZADA","MAYOR O IGUAL A 5001 USUARIOS"
"BOGOTA, D.C.","BOGOTA, D.C.","ASEO","OPERATIVA","ASOCIACIÓN DE RECICLADORES AMBIENTALISTAS DEL SUR BOGOTA I","BOGOTA, D.C.","BOGOTA, D.C.","CALLE 80a n87F11 SUR","4611213","ASORAS03@GMAIL.COM","Registro por la ESP","MARIA DEL ROSARIO  RIVERA MOSQUERA","ORGANIZACION AUTORIZADA","MAYOR O IGUAL A 5001 USUARIOS"
"BOGOTA, D.C.","BOGOTA, D.C.","ASEO","OPERATIVA","ASOCIACION DE RECICLADORES GLOBO AMBIENTAL","BOGOTA, D.C.","BOGOTA, D.C.","CRA 81 A NO 84 B SUR 16","4499079","asociaciongloboambiental@gmail.com","Registro por la ESP","NYNY JOHANNA BECERRA RODRIGUEZ","ORGANIZACION AUTORIZADA","DESDE 2501 HASTA 5000 USUARIOS"
"BOGOTA, D.C.","BOGOTA, D.C.","ASEO","OPERATIVA","ASOCIACION INTEGRAL DE RECICLADORES ECOLOGICOS ESP","BOGOTA, D.C.","BOGOTA, D.C.","CALLE142 BIS A 138 A 50","9209334","AIREURBANOESP@GMAIL.COM","Registro por la ESP","HECTOR ALEJANDRO RAMIREZ CASTANEDA","ORGANIZACION AUTORIZADA","MAYOR O IGUAL A 5001 USUARIOS"
"BOGOTA, D.C.","BOGOTA, D.C.","ASEO","OPERATIVA","CICLORECICLO SAS","META","ACACIAS","Diagonal 15 # 23-02","6563987","cicloreciclo1@gmail.com","Registro por la ESP","LEIDY LORENA MORON CRUZ","SOCIEDADES (EMPRESA DE SERVICIOS PUBLICOS)","DESDE 2501 HASTA 5000 USUARIOS"
"BOGOTA, D.C.","BOGOTA, D.C.","ASEO","OPERATIVA","ASOCIACION ORA TODOS RECICLAMOS POR UN MEJOR AMBIENTE ESP","BOGOTA, D.C.","BOGOTA, D.C.","CARRERA 58A No 130 24","7501830","colombiareciclamejor@hotmail.com","Registro por la ESP","JEIMY KATERINE AVENDANO VANEGAS","ORGANIZACION AUTORIZADA","MAYOR O IGUAL A 5001 USUARIOS"
"BOGOTA, D.C.","BOGOTA, D.C.","ASEO","OPERATIVA","asociacion de recicladores jovenes de ayer y hoy medio ambiental","BOGOTA, D.C.","BOGOTA, D.C.","CALLE 3 # 10 55","9320882","arjahma@gmail.com","Registro por la ESP","YULY PATRICIA RODRIGUEZ GONZALEZ","ORGANIZACION AUTORIZADA","DESDE 2501 HASTA 5000 USUARIOS"
"BOGOTA, D.C.","BOGOTA, D.C.","ASEO","OPERATIVA","ASOCIACION DE RECICLADORES PROTECTORES Y PROMOTORES AMBIENTALES","BOGOTA, D.C.","BOGOTA, D.C.","CALLE 139 N 96 A 04","9209334","asociacionarpaesp@gmail.com","Registro por la ESP","CARLOS ALEJANDRO YOGOY PABON ALVARADO","ORGANIZACION AUTORIZADA","MAYOR O IGUAL A 5001 USUARIOS"
"BOGOTA, D.C.","BOGOTA, D.C.","ASEO","OPERATIVA","ASOCIACIÓN DE RECICLADORES  TRANSFORMANDO VIDA AMBIENTAL","BOGOTA, D.C.","BOGOTA, D.C.","calle 51d sur # 81i  - 42","4519395","reciclajetva@gmail.com","Registro por la ESP","JOHN JAIRO ALBARRACIN  CAMPOS","ORGANIZACION AUTORIZADA","MAYOR O IGUAL A 5001 USUARIOS"
"BOGOTA, D.C.","BOGOTA, D.C.","ASEO","OPERATIVA","ASOIMPACTO AMBIENTAL","BOGOTA, D.C.","BOGOTA, D.C.","CL 50 BIS # 89 A 15 SUR","4639086","asoimpactoambiental@gmail.com","Registro por la ESP","LUZ MARIBELCY SANTANA  RIANO","ORGANIZACION AUTORIZADA","MENOR O IGUAL A 2500 USUARIOS"
"BOGOTA, D.C.","BOGOTA, D.C.","ASEO","CANCELACION","RUTA DE APROVECHAMIENTO S.A.S. E.S.P","BOGOTA, D.C.","BOGOTA, D.C.","Transversal 39 A # 20 A 16","2015131","rutadeaprovechamientosas@gmail.com","Registro por la ESP","ANTONIO ENRIQUE VARELA DELGADO",,
"BOGOTA, D.C.","BOGOTA, D.C.","ASEO","OPERATIVA","Asociación de Recicladores Eco Atlántico","ATLANTICO","SOLEDAD","CALLE 18 # 17-38","3006204","asorecicladoresecoatlantico@gmail.com","Registro por la ESP","SHIRLEY VANESSA GUTIERREZ BARROSO","ORGANIZACION AUTORIZADA","MAYOR O IGUAL A 5001 USUARIOS"
"BOGOTA, D.C.","BOGOTA, D.C.","ASEO","OPERATIVA","ASOCIACIION DE PROFESIONALES PARA EL DESARROLLO DE PROYECTOS DE INVERSION PUBLICA Y PRIVADA","BOGOTA, D.C.","BOGOTA, D.C.","CALLE 53 No 74a-94","3044538","ASOPLAMA2018@GMAIL.COM","Registro por la ESP","LAURA SOFIA SANDOVAL HERNANDEZ","ORGANIZACION AUTORIZADA","MAYOR O IGUAL A 5001 USUARIOS"
"BOGOTA, D.C.","BOGOTA, D.C.","ASEO","OPERATIVA","CORPORACIÓN PARA EL DESARROLLO INTEGRAL DE SERVICIOS AMBIENTALES Y DE RECICLAJE E.S.P","BOGOTA, D.C.","BOGOTA, D.C.","CL 18A 55 10","6365067","corporeciclam@gmail.com","Registro por la ESP","EDGAR ARTURO RODRIGUEZ PENA","ORGANIZACION AUTORIZADA","MAYOR O IGUAL A 5001 USUARIOS"
"BOGOTA, D.C.","BOGOTA, D.C.","ASEO","OPERATIVA","ASOCIACION DE RECICLADORES GUARDIANES DEL PLANETA","BOYACA","VENTAQUEMADA","vereda capellania","0000000","guardianesdelplaneta1@gmail.com","Registro por la ESP","MAURICIO GARAY RUIZ","ORGANIZACION AUTORIZADA","MAYOR O IGUAL A 5001 USUARIOS"
"BOGOTA, D.C.","BOGOTA, D.C.","ASEO","OPERATIVA","Asociación de Recicladores Mundo Ecológico de Bogotá","BOGOTA, D.C.","BOGOTA, D.C.","TRV 68 # 2B-56","9062411","asociacionarmen2019@gmail.com","Registro por la ESP","SANDRA MILENA RODRIGUEZ MEJIA","ORGANIZACION AUTORIZADA","MAYOR O IGUAL A 5001 USUARIOS"
"BOGOTA, D.C.","BOGOTA, D.C.","ASEO","OPERATIVA","ASOCIACION DE RECICLAJE GEOAMBIENTAL","BOGOTA, D.C.","BOGOTA, D.C.","Diag. 34 b sur # 82 - 62","0000000","asogeoambiental@gmail.com","Registro por la ESP","JOHN EDWARD  CASTRO  BERNETH","ORGANIZACION AUTORIZADA","MENOR O IGUAL A 2500 USUARIOS"
"BOGOTA, D.C.","BOGOTA, D.C.","ASEO","OPERATIVA","ASOCIACION DE RECICLADORES RECUPERANDO ANDO","BOGOTA, D.C.","BOGOTA, D.C.","CALLE 70 B # 78 A SUR - 68","0000000","asorecup@gmail.com","Registro por la ESP","JULIO CESAR VILLALOBOS","ORGANIZACION AUTORIZADA","MAYOR O IGUAL A 5001 USUARIOS"
"BOGOTA, D.C.","BOGOTA, D.C.","ASEO","OPERATIVA","ASOCIACIÓN DE RECICLADORES UNIDOS FE Y ESPERANZA","BOGOTA, D.C.","BOGOTA, D.C.","Calle 42C  Sur No. 80 G - 02","5715658","infosui@estrategia5.com","Registro por la ESP","AMPARO PINEDA MEDINA","ORGANIZACION AUTORIZADA","MAYOR O IGUAL A 5001 USUARIOS"
"BOGOTA, D.C.","BOGOTA, D.C.","ASEO","OPERATIVA","ASOCIACIÓN NACIONAL DE RECUPERADORES  RECICLANDO PARA EL FUTURO E.S.P.","BOGOTA, D.C.","BOGOTA, D.C.","transversal 81 B No 34 A - 74 sur","9015841","recfuturoesp@gmail.com","Registro por la ESP","BLANCA LUZ MELO FORERO","ORGANIZACION AUTORIZADA","MAYOR O IGUAL A 5001 USUARIOS"
"BOGOTA, D.C.","BOGOTA, D.C.","ASEO","OPERATIVA","RECICLAMAS GESTORES AMBIENTALES S.A.S","BOGOTA, D.C.","BOGOTA, D.C.","Tv 124 # 17F-88 Fontibón Jericó","2674586","reciclamas@gestoresambientales.com.co","Registro por la ESP","EDGAR MORA MARTINEZ","SOCIEDADES (EMPRESA DE SERVICIOS PUBLICOS)","DESDE 2501 HASTA 5000 USUARIOS"
"BOGOTA, D.C.","BOGOTA, D.C.","ASEO","OPERATIVA","APROVECHAMIENTO COLOMBIANO DE RECICLAJE SAS ESP","BOGOTA, D.C.","BOGOTA, D.C.","CARRERA 54 B SUR  52 B 15","9240406","aprocolombia@gmail.com","Registro por la ESP","JOSE ALEXANDER  ARIAS ORTIZ","SOCIEDADES (EMPRESA DE SERVICIOS PUBLICOS)","MAYOR O IGUAL A 5001 USUARIOS"
"BOGOTA, D.C.","BOGOTA, D.C.","ASEO","OPERATIVA","ASOCIACION ECO RECICLAJE CAPITAL ERC","BOGOTA, D.C.","BOGOTA, D.C.","CARRERA 58 B 132 A 40","5474299","asoerc@hotmail.com","Registro por la ESP","PEDRO WILSON TORRES BECERRA","ORGANIZACION AUTORIZADA","DESDE 2501 HASTA 5000 USUARIOS"
"BOGOTA, D.C.","BOGOTA, D.C.","ASEO","OPERATIVA","SOLUCIONES AMBIENTALES MARIN","BOGOTA, D.C.","BOGOTA, D.C.","TV 138 137 39","9303634","ecosaim.esp@gmail.com","Registro por la ESP","JUAN CARLOS PINTO  MARTINEZ","ORGANIZACION AUTORIZADA","MAYOR O IGUAL A 5001 USUARIOS"
"BOGOTA, D.C.","BOGOTA, D.C.","ASEO","OPERATIVA","ASOCIACION DE RECUPERACION AMBIENTAL SOSTENIBLE DE BOGOTA","BOGOTA, D.C.","BOGOTA, D.C.","CALLE 6  # 45 - 48","0000000","stevencmoreno@hotmail.com","Registro por la ESP","MANUEL ECCEHOMO CASTILLO RUBIO","ORGANIZACION AUTORIZADA","MENOR O IGUAL A 2500 USUARIOS"
"BOGOTA, D.C.","BOGOTA, D.C.","ASEO","OPERATIVA","asociacion de recicladores reciclando por colombia esp","BOGOTA, D.C.","BOGOTA, D.C.","cra 97 42g sur 57","3204488","reciclandoporcolombiaesp@gmail.com","Registro por la ESP","ALVARO PARRA CASTIBLANCO","ORGANIZACION AUTORIZADA","MAYOR O IGUAL A 5001 USUARIOS"
"BOGOTA, D.C.","BOGOTA, D.C.","ASEO","OPERATIVA","Asociación de Recicladores y Recuperadores Ambientales por Bogotá Limpia","BOGOTA, D.C.","BOGOTA, D.C.","Calle 73 A bis sur # 73-93","2837974","asociacionderecicladoresaral1@gmail.com","Registro por la ESP","CARLOS ARTURO CONTRERAS CHIVATA","ORGANIZACION AUTORIZADA","MAYOR O IGUAL A 5001 USUARIOS"
"BOGOTA, D.C.","BOGOTA, D.C.","ASEO","OPERATIVA","ASOCIACION DE RECICLADORES DE OFICIO  ECOHABITAT","BOGOTA, D.C.","BOGOTA, D.C.","Carrera 12a Este N° 46-21 Sur","4332606","asociacion.ecohabitat@gmail.com","Registro por la ESP","DANIA VANESSA CARMONA PADILLA","ORGANIZACION AUTORIZADA","MAYOR O IGUAL A 5001 USUARIOS"
"BOGOTA, D.C.","BOGOTA, D.C.","ASEO","OPERATIVA","ASOCIACION DE RECICLADORES HUELLA AMBIENTAL DE COLOMBIA ESP","BOGOTA, D.C.","BOGOTA, D.C.","diagonal 50sur 53b - 12","4612860","huellaambientalesp@gmail.com","Registro por la ESP","CARLOS JULIO ROMERO PARRAGA","ORGANIZACION AUTORIZADA","MAYOR O IGUAL A 5001 USUARIOS"
"BOGOTA, D.C.","BOGOTA, D.C.","ASEO","OPERATIVA","AMBIENTE Y CRECIMIENTO S.A.S","BOGOTA, D.C.","BOGOTA, D.C.","CR 53 NO. 14 41","3102291","ACRE.ESP@GMAIL.COM","Registro por la ESP","CARLOS EDUARDO ZAMORA ESPEJO","SOCIEDADES (EMPRESA DE SERVICIOS PUBLICOS)","MAYOR O IGUAL A 5001 USUARIOS"
"BOGOTA, D.C.","BOGOTA, D.C.","ASEO","OPERATIVA","ASOCIACION DE RECICLADORES DE OFICIO AMIGOS DE LA TIERRA","BOGOTA, D.C.","BOGOTA, D.C.","CARRERA 45 C BIS A N° 68B03 SUR","4621265","arodat819@gmail.com","Registro por la ESP","CARLOS ANDRES RODRIGUEZ RODRIGUEZ","ORGANIZACION AUTORIZADA","MAYOR O IGUAL A 5001 USUARIOS"
"BOGOTA, D.C.","BOGOTA, D.C.","ASEO","OPERATIVA","LATIN GREEN S.A E.S.P","BOGOTA, D.C.","BOGOTA, D.C.","CALLE 8 SUR 39-29 OF 302","9999999","latingreenesp@gmail.com","Registro por la ESP","ORLANDO BARRIOS  GIRALDO","SOCIEDADES (EMPRESA DE SERVICIOS PUBLICOS)","MAYOR O IGUAL A 5001 USUARIOS"
"BOGOTA, D.C.","BOGOTA, D.C.","ASEO","OPERATIVA","ASOCIACIÓN DE RECICLADORES COLOMBIA SOSTENIBLE INDUSTRIAL","BOGOTA, D.C.","BOGOTA, D.C.","DG 62 SUR # 18 - 23","8174509","ariel14011@yahoo.com","Registro por la ESP","ARIEL YAGUARA CAPERA","ORGANIZACION AUTORIZADA","MAYOR O IGUAL A 5001 USUARIOS"
"BOGOTA, D.C.","BOGOTA, D.C.","ASEO","OPERATIVA","BLUEBOX S.A.S.","VALLE DEL CAUCA","CALI","AVENIDA 6A BIS 35N 100 OF. 315","0000000","aprovechamientobluebox@gmail.com","Registro por la ESP","SEBASTIAN TAFUR HADAD","SOCIEDADES (EMPRESA DE SERVICIOS PUBLICOS)","DESDE 2501 HASTA 5000 USUARIOS"
"BOGOTA, D.C.","BOGOTA, D.C.","ASEO","OPERATIVA","Aprovechamiento Circular","CUNDINAMARCA","MOSQUERA","PARQUE INDUSTRIAL SAN JORGE BODEGA NO. 60","3108509","gcia.aprovechamientocircular@gmail.com","Registro por la ESP","JOSE WINSER  SUAREZ AGUILAR","SOCIEDADES (EMPRESA DE SERVICIOS PUBLICOS)","MAYOR O IGUAL A 5001 USUARIOS"
"BOGOTA, D.C.","BOGOTA, D.C.","ASEO","OPERATIVA","AGAVCA SAS","BOGOTA, D.C.","BOGOTA, D.C.","Carrera 77 # 76-17","0000000","aprovechamientoagavca@gmail.com","Registro por la ESP","JUAN JOSE RODRIGUEZ VILLA","SOCIEDADES (EMPRESA DE SERVICIOS PUBLICOS)","DESDE 2501 HASTA 5000 USUARIOS"
"BOGOTA, D.C.","BOGOTA, D.C.","ASEO","OPERATIVA","ASOCIACION DE RECICLADORES AMBIENTALES DE OFICIO","BOGOTA, D.C.","BOGOTA, D.C.","CARRERA 68 k 39-46 sur","9330551","AREAVERDEO710@GMAIL.COM","Registro por la ESP","MARIA OLIVA CANGREJO VIASUS","ORGANIZACION AUTORIZADA","MAYOR O IGUAL A 5001 USUARIOS"
"BOGOTA, D.C.","BOGOTA, D.C.","ASEO","OPERATIVA","ASOCIACION DE RECUPERADORES DE RESIDUOS RECICLABLES","BOGOTA, D.C.","BOGOTA, D.C.","CRA 90 A 66 A 04","0000000","asorecuperadoresbogota@gmail.com","Registro por la ESP","LEIDY NAYIBE CABRERA GOMEZ","ORGANIZACION AUTORIZADA","MENOR O IGUAL A 2500 USUARIOS"
"BOGOTA, D.C.","BOGOTA, D.C.","ASEO","OPERATIVA","ASOCIACION DE RECICLAJE ECOGREEN","BOGOTA, D.C.","BOGOTA, D.C.","calle 50 sur # 88 c 14","0000000","administrador@reciclajecogreen.com","Registro por la ESP","NATALIA CAROLINA MOLINA  GAITAN","ORGANIZACION AUTORIZADA","MENOR O IGUAL A 2500 USUARIOS"
"BOGOTA, D.C.","BOGOTA, D.C.","ASEO","OPERATIVA","ASOCIACION DE RECICLADORES EL TREBOL","BOGOTA, D.C.","BOGOTA, D.C.","CRA 77 A 57 R 95 SUR","4837189","gerencia@asorecicladorestrebol.com","Registro por la ESP","LADY MARIANA RODRIGUEZ RUIZ","ORGANIZACION AUTORIZADA","MENOR O IGUAL A 2500 USUARIOS"
"BOGOTA, D.C.","BOGOTA, D.C.","ASEO","OPERATIVA","CORPORACION CORPROAMBIENTE COLOMBIA","BOGOTA, D.C.","BOGOTA, D.C.","CR 13 B BIS # 41 - 26 SUR","0000000","proambientecorporacion@gmail.com","Registro por la ESP","JORGE ANDERSON QUECAN GARCIA","ORGANIZACION AUTORIZADA","DESDE 2501 HASTA 5000 USUARIOS"
"BOGOTA, D.C.","BOGOTA, D.C.","ASEO","OPERATIVA","ASOCIACION DE RECICLADORES RECICLAJE VR","BOGOTA, D.C.","BOGOTA, D.C.","Carrera 160 # 131 a 24","6885309","reciclajevr@gmail.com","Registro por la ESP","FLOR ALBA CARDENAS CARDENAS","ORGANIZACION AUTORIZADA","MAYOR O IGUAL A 5001 USUARIOS"
"BOGOTA, D.C.","BOGOTA, D.C.","ASEO","OPERATIVA","Asociación colombiana de recicladores guardianes del planeta","BOGOTA, D.C.","BOGOTA, D.C.","Av cra 86 # 26 - 48 Sur","4026604","acregupesp@gmail.com","Registro por la ESP","ALEXANDER VANEGAS ORTIZ","ORGANIZACION AUTORIZADA","MAYOR O IGUAL A 5001 USUARIOS"
"BOGOTA, D.C.","BOGOTA, D.C.","ASEO","OPERATIVA","asociacion de recicladores los pitufos","BOGOTA, D.C.","BOGOTA, D.C.","calle 137B # 157-70","7172022","TODOSLOSPITUFOSRECICLAN@GMAIL.COM","Registro por la ESP","IRMA ROCIO ESPINOSA AVELLA","ORGANIZACION AUTORIZADA","MAYOR O IGUAL A 5001 USUARIOS"
"BOGOTA, D.C.","BOGOTA, D.C.","ASEO","OPERATIVA","ASOCIACION COLOMBIANA Y EMPRESARIAL DE RECICLAJE S.A.S.  E.S.P.","BOGOTA, D.C.","BOGOTA, D.C.","CR 95 B SUR No. 42B SUR 65 P 1","8634233","asocer2019@gmail.com","Registro por la ESP","VICTOR HUGO HURTADO  RAMOS","SOCIEDADES (EMPRESA DE SERVICIOS PUBLICOS)","MAYOR O IGUAL A 5001 USUARIOS"
"BOGOTA, D.C.","BOGOTA, D.C.","ASEO","OPERATIVA","ASOCIACION COLOMBIANA DE RESIDUOS APROVECHABLES","BOGOTA, D.C.","BOGOTA, D.C.","calle 16 C # 78 G 09","9331400","asociacioncolombianaderesiduos@gmail.com","Registro por la ESP","JHINA PAOLA VARGAS SALAZAR","ORGANIZACION AUTORIZADA","MAYOR O IGUAL A 5001 USUARIOS"
"BOGOTA, D.C.","BOGOTA, D.C.","ASEO","OPERATIVA","SERVIAPROVECHABLES","CUNDINAMARCA","MOSQUERA","CALLE 2 # 18 - 93","0000000","gcia.aprovechamientocircular@gmail.com","Registro por la ESP","JOSE WINSER SUAREZ AGUILAR","SOCIEDADES (EMPRESA DE SERVICIOS PUBLICOS)","MAYOR O IGUAL A 5001 USUARIOS"
"BOGOTA, D.C.","BOGOTA, D.C.","ASEO","OPERATIVA","Asociación para el desarrollo social y recuperación ambiental colmena","CUNDINAMARCA","FUNZA","KRA 12#18-54","9440145","ASODESACOLMENA@GMAIL.COM","Registro por la ESP","JOSE ILDEGAR VANEGAS ORTIZ","ORGANIZACION AUTORIZADA","MAYOR O IGUAL A 5001 USUARIOS"
"BOGOTA, D.C.","BOGOTA, D.C.","ASEO","OPERATIVA","RESPIRAMOS S.A.S E.S.P","BOGOTA, D.C.","BOGOTA, D.C.","CRA 86 # 23-29","3947619","respiramossasesp@gmail.com","Registro por la ESP","JENNY ESNEIDA MORENO FERNANDEZ","SOCIEDADES (EMPRESA DE SERVICIOS PUBLICOS)","MENOR O IGUAL A 2500 USUARIOS"
"BOGOTA, D.C.","BOGOTA, D.C.","ASEO","OPERATIVA","ASOCIACIÓN DE RECICLAJE PRIVADA  ECOCLEAN S.A.S.  E.S.P.","CUNDINAMARCA","CHIA","CARRERA 10   4 84 PISO 1","8634233","ecoclean1920@gmail.com","Registro por la ESP","JULIAN HERNANDEZ ANGEL","SOCIEDADES (EMPRESA DE SERVICIOS PUBLICOS)","MAYOR O IGUAL A 5001 USUARIOS"
"BOGOTA, D.C.","BOGOTA, D.C.","ASEO","OPERATIVA","ASOCIACION DE RECUPERADORES NATURA","CUNDINAMARCA","SOACHA","CRA 13 # 55 - 88","9150035","gerencia@recuperadoresnatura.com","Registro por la ESP","DIEGO ROMERO MAHECHA","ORGANIZACION AUTORIZADA","MENOR O IGUAL A 2500 USUARIOS"
"BOGOTA, D.C.","BOGOTA, D.C.","ASEO","OPERATIVA","ASOCIACION ECOLOGICA VITAL PARA EL AMBIENTE","BOGOTA, D.C.","BOGOTA, D.C.","DIAG 54 SUR # 87 H 04","0000000","asoevabogota@gmail.com","Registro por la ESP","JOHN EDWIN RIVERA QUIJANO","ORGANIZACION AUTORIZADA","MENOR O IGUAL A 2500 USUARIOS"
"BOGOTA, D.C.","BOGOTA, D.C.","ASEO","OPERATIVA","ASICIACION MEGAREC","BOGOTA, D.C.","BOGOTA, D.C.","DG 50 sur #5H 36 bodega 02","3520127","asomegarec@gmail.com","Registro por la ESP","YUDY PAOLA GARCIA RODRIGUEZ","ORGANIZACION AUTORIZADA","MAYOR O IGUAL A 5001 USUARIOS"
"BOGOTA, D.C.","BOGOTA, D.C.","ASEO","OPERATIVA","Asociacion de recicladores punto ambiental","BOGOTA, D.C.","BOGOTA, D.C.","Calle 41 sur # 82d - 04","0000000","arpa.puntoambiental@gmail.com","Registro por la ESP","CLARA PAOLA JIMENEZ","ORGANIZACION AUTORIZADA","MENOR O IGUAL A 2500 USUARIOS"
"BOGOTA, D.C.","BOGOTA, D.C.","ASEO","OPERATIVA","LIGA COLOMBIANA DE RECICLADORES URBANOS","BOGOTA, D.C.","BOGOTA, D.C.","Calle 22#107-49","0000000","reciclajeurbano@hotmail.com","Registro por la ESP","JOSE JOAQUIN BUITRAGO CANON","ORGANIZACION AUTORIZADA","MAYOR O IGUAL A 5001 USUARIOS"
"BOGOTA, D.C.","BOGOTA, D.C.","ASEO","OPERATIVA","ASOCIACION DE RECICLADORES CONSTRUYENDO CAMINOS","BOGOTA, D.C.","BOGOTA, D.C.","TV 72 # 44 09","5197182","arecca111@gmail.com","Registro por la ESP","YUDY MILENA ROBAYO GOMEZ","ORGANIZACION AUTORIZADA","MENOR O IGUAL A 2500 USUARIOS"
"BOGOTA, D.C.","BOGOTA, D.C.","ASEO","OPERATIVA","ASOCIACION AMBIENTAL DE RECICLADORES BOSA","BOGOTA, D.C.","BOGOTA, D.C.","CALLE 73 C BIS N° 87-40 SUR","7313536","jairoegc945@gmail.com","Registro por la ESP","JAIRO ENRIQUE GONZALEZ CRUZ","ORGANIZACION AUTORIZADA","MAYOR O IGUAL A 5001 USUARIOS"
"BOGOTA, D.C.","BOGOTA, D.C.","ASEO","OPERATIVA","ASOCIACIÓN DE RECICLADORES UN MEJOR VIVIR","BOGOTA, D.C.","BOGOTA, D.C.","CARRERA 88 B # 52-50 SUR","7831667","GERENCIAUNMEJORVIVIR@GMAIL.COM","Registro por la ESP","LEIDY ALEJANDRA NINO RODRIGUEZ","ORGANIZACION AUTORIZADA","MENOR O IGUAL A 2500 USUARIOS"
"BOGOTA, D.C.","BOGOTA, D.C.","ASEO","OPERATIVA","ASOCIACION DE RECUPERACION AMBIENTAL GO PLANET","BOGOTA, D.C.","BOGOTA, D.C.","CRA 32 19A 20","2610080","operaciones.goplanet@gmail.com","Registro por la ESP","HUGO ANDRES VARGAS CAMARGO","ORGANIZACION AUTORIZADA","MAYOR O IGUAL A 5001 USUARIOS"
"BOGOTA, D.C.","BOGOTA, D.C.","ASEO","OPERATIVA","ASOCIACION DE RECICLADORES SOSTENIBILIDAD AMBIENTAL","BOGOTA, D.C.","BOGOTA, D.C.","CALLE 42 SUR # 80F - 06","0000000","asoream1@gmail.com","Registro por la ESP","JULIO CESAR VILLALOBOS","ORGANIZACION AUTORIZADA","MAYOR O IGUAL A 5001 USUARIOS"
"BOGOTA, D.C.","BOGOTA, D.C.","ASEO","OPERATIVA","ASOCIACIÓN COLOMBIANA DE RECICLADORES VENDEDORES","BOGOTA, D.C.","BOGOTA, D.C.","CR 66 NO 64 - 18 sur","6215664","SANDRABELTRAN0805@GMAIL.COM","Registro por la ESP","SANDRA SUGEY BELTRAN","ORGANIZACION AUTORIZADA","MENOR O IGUAL A 2500 USUARIOS"
"BOGOTA, D.C.","BOGOTA, D.C.","ASEO","OPERATIVA","ASOCIACION DE RECICLADORES UNA COLOMBIA LIMPIA","BOGOTA, D.C.","BOGOTA, D.C.","cra 91 b No 49 - d sur 69","0000000","asociacionarucol@gmail.com","Registro por la ESP","WENDY VIVIANA GRANADOS MURILLO","ORGANIZACION AUTORIZADA","MAYOR O IGUAL A 5001 USUARIOS"
"BOGOTA, D.C.","BOGOTA, D.C.","ASEO","OPERATIVA","ASOCIACION YO RECICLO M&M","BOGOTA, D.C.","BOGOTA, D.C.","CALLE 73 SUR 18B 10","5164976","asocyoreciclo@gmail.com","Registro por la ESP","AIXA MILDRED VILLAGRAN JIMENEZ","ORGANIZACION AUTORIZADA","MENOR O IGUAL A 2500 USUARIOS"
"BOGOTA, D.C.","BOGOTA, D.C.","ASEO","OPERATIVA","ASOCIACION DE RECICLADORES LA IGUALDAD Y EL DERECHO","BOGOTA, D.C.","BOGOTA, D.C.","CARRERA 68D # 2A 27","3134959","ASOIGUALDAD.20@GMAIL.COM","Registro por la ESP","SANDRA PAOLA CONTRERAS MENDOZA","ORGANIZACION AUTORIZADA","MENOR O IGUAL A 2500 USUARIOS"
"BOGOTA, D.C.","BOGOTA, D.C.","ASEO","OPERATIVA","ASOCIACION DE RECICLADORES DE OFICIO GREENCOL","BOGOTA, D.C.","BOGOTA, D.C.","CR 68 BIS # 4-25","2610080","OPERACIONES.GREENCOL@GMAIL.COM","Registro por la ESP","SALOMON RODRIGUEZ MONROY","ORGANIZACION AUTORIZADA","MAYOR O IGUAL A 5001 USUARIOS"
"BOGOTA, D.C.","BOGOTA, D.C.","ASEO","OPERATIVA","ASOCIACION PLANETA RECICLABLE ASOPLANET","CUNDINAMARCA","CHIA","Calle 11 N 9-50","3195489","asoplanetareciclable@gmail.com","Registro por la ESP","MONICA JIMENEZ JIMENEZ","ORGANIZACION AUTORIZADA","MAYOR O IGUAL A 5001 USUARIOS"
"BOGOTA, D.C.","BOGOTA, D.C.","ASEO","OPERATIVA","ASOCIACIÓN DE RECICLADORES DE BOGOTÁ BIOVIDA","BOGOTA, D.C.","BOGOTA, D.C.","CARRERA 68 A # 39 F - 68","0000000","recicladoresdebogota@gmail.com","Registro por la ESP","MARIA SILDANA GOMEZ","ORGANIZACION AUTORIZADA","MAYOR O IGUAL A 5001 USUARIOS"
"BOGOTA, D.C.","BOGOTA, D.C.","ASEO","OPERATIVA","ASOCIACION DE RECICLADORES POR UN FUTURO MEJOR","BOGOTA, D.C.","BOGOTA, D.C.","Calle 69C # 113B  28","1111111","asonasoref@gmail.com","Registro por la ESP","ROBINSON VEGA BRAVO","ORGANIZACION AUTORIZADA","MAYOR O IGUAL A 5001 USUARIOS"
"BOGOTA, D.C.","BOGOTA, D.C.","ASEO","OPERATIVA","ASOCIACION DE RECICLADORES MUNDO AMBIENTAL ESP","BOGOTA, D.C.","BOGOTA, D.C.","CALLE 41C BIS # 41B - 21 F SUR","0000000","asociarman@gmail.com","Registro por la ESP","YAMILE AREVALO GALAN","ORGANIZACION AUTORIZADA","MAYOR O IGUAL A 5001 USUARIOS"
"BOGOTA, D.C.","BOGOTA, D.C.","ASEO","OPERATIVA","asociación de recicladores ambiente y progreso","BOGOTA, D.C.","BOGOTA, D.C.","calle 33 sur #84 18","4887494","asoarap@gmail.com","Registro por la ESP","VICTOR JULIO REYES HERRERA","ORGANIZACION AUTORIZADA","MAYOR O IGUAL A 5001 USUARIOS"
"BOGOTA, D.C.","BOGOTA, D.C.","ASEO","OPERATIVA","ASOCIACION DE RECICLADORES POR UNA VIDA MEJOR","CUNDINAMARCA","MOSQUERA","CR 6 B 11 45","8932171","ASOCIACIONREVIMER@GMAIL.COM","Registro por la ESP","JENNY NATALY   RAMIREZ  MENDEZ","ORGANIZACION AUTORIZADA","MAYOR O IGUAL A 5001 USUARIOS"
"BOGOTA, D.C.","BOGOTA, D.C.","ASEO","OPERATIVA","ASOECOLOGIA VERDE","BOGOTA, D.C.","BOGOTA, D.C.","Ak 86 # 34 Sur -42","7962369","infosui@estrategia5.com","Registro por la ESP","LIDA YESENIA RODRIGUEZ GUEVARA","ORGANIZACION AUTORIZADA","MAYOR O IGUAL A 5001 USUARIOS"
"BOGOTA, D.C.","BOGOTA, D.C.","ASEO","OPERATIVA","asociación de recicladores orbe","BOGOTA, D.C.","BOGOTA, D.C.","calle 23 no.86 05","6238530","asociacionderecicladoresorbe@gmail.com","Registro por la ESP","MARIA DEL TRANSITO CUBIDES  GONZALEZ","ORGANIZACION AUTORIZADA","MENOR O IGUAL A 2500 USUARIOS"
"BOGOTA, D.C.","BOGOTA, D.C.","ASEO","OPERATIVA","ASOCIACION DE RECICLADORES CAMINANDO AL FUTURO","BOGOTA, D.C.","BOGOTA, D.C.","Cra 80F # 41 B   25","3118205","asoreca1@gmail.com","Registro por la ESP","DIANA KATHERINE LOPEZ AGUADA","ORGANIZACION AUTORIZADA","DESDE 2501 HASTA 5000 USUARIOS"
"BOGOTA, D.C.","BOGOTA, D.C.","ASEO","OPERATIVA","ASOCIACION DE RECUPERADORES LAS FERIAS","BOGOTA, D.C.","BOGOTA, D.C.","CARRERA 69 # 75-68","6306080","asorefer6@gmail.com","Registro por la ESP","ALFONSO PATERNINA HERRERA","ORGANIZACION AUTORIZADA","DESDE 2501 HASTA 5000 USUARIOS"
"BOGOTA, D.C.","BOGOTA, D.C.","ASEO","OPERATIVA","ASOCIACION DE RECICLADORES NUEVO MAÑANA ESP","BOGOTA, D.C.","BOGOTA, D.C.","CL 30 SUR 34 37","3196077","asonuevomananaesp@gmail.com","Registro por la ESP","JHON NARANJO GOMEZ","ORGANIZACION AUTORIZADA","MENOR O IGUAL A 2500 USUARIOS"
"BOGOTA, D.C.","BOGOTA, D.C.","ASEO","OPERATIVA","ASOCIACIÓN DE RECICLADORES YO RECICLO","BOGOTA, D.C.","BOGOTA, D.C.","CALLE 85 D SUR # 80 I - 33","4940683","yoreciclo2020@gmail.com","Registro por la ESP","YENIS DEL TORO CARBAS","ORGANIZACION AUTORIZADA","MAYOR O IGUAL A 5001 USUARIOS"
"BOGOTA, D.C.","BOGOTA, D.C.","ASEO","OPERATIVA","ASOCIACION DE RECICLADORES LA PROPERIDAD","BOGOTA, D.C.","BOGOTA, D.C.","TV 124 # 18 A 27","3145388","asoredalaprosperidad@gmail.com","Registro por la ESP","KAREN STEFANNY PULIDO MORA","ORGANIZACION AUTORIZADA","MAYOR O IGUAL A 5001 USUARIOS"
"BOGOTA, D.C.","BOGOTA, D.C.","ASEO","OPERATIVA","ASOCIACION DE RECICLADORES TIERRA NUEVA ESP","BOGOTA, D.C.","BOGOTA, D.C.","calle 73#69h-17","7632719","asoterraesp@gmail.com","Registro por la ESP","BORIS ANDRES AREVALO DELGADO","ORGANIZACION AUTORIZADA","DESDE 2501 HASTA 5000 USUARIOS"
"BOGOTA, D.C.","BOGOTA, D.C.","ASEO","OPERATIVA","asociación de recicladores en recuperación de material","BOGOTA, D.C.","BOGOTA, D.C.","carrera 36#19 a 65","4789403","aenrecuperaciondematerial@gmail.com","Registro por la ESP","YENNYFER YOBANA  CASTRILLON MORA","ORGANIZACION AUTORIZADA","MENOR O IGUAL A 2500 USUARIOS"
"BOGOTA, D.C.","BOGOTA, D.C.","ASEO","OPERATIVA","ASOCIACION AMBIENTAL DE RECUPERACION ECOLOGICA","BOGOTA, D.C.","BOGOTA, D.C.","CL 9 32A 81","0000000","aso.aarei@gmail.com","Registro por la ESP","MIGUEL ANGEL ZAMBRANO USECHE","ORGANIZACION AUTORIZADA","MAYOR O IGUAL A 5001 USUARIOS"
"BOGOTA, D.C.","BOGOTA, D.C.","ASEO","OPERATIVA","ASOCIACION DE RECICLADORES POR UNA NUEVA VIDA","BOGOTA, D.C.","BOGOTA, D.C.","asorevid2020@gmail.com","0000000","ASOREVID2020@GMAIL.COM","Registro por la ESP","DARGUY MANUEL RODRIGUEZ ALMANZA","ORGANIZACION AUTORIZADA","MAYOR O IGUAL A 5001 USUARIOS"
"BOGOTA, D.C.","BOGOTA, D.C.","ASEO","OPERATIVA","COMPAÑIA DE ASEO AMBENTAL S.A.S E.S.P","CUNDINAMARCA","CHIA","CARRERA 10 # 4-82 PISO 2 OFICINA 203","8630930","coaseo2020@gmail.com","Registro por la ESP","JESUS ALBERTO DELGADO ESPINOSA","SOCIEDADES (EMPRESA DE SERVICIOS PUBLICOS)","MAYOR O IGUAL A 5001 USUARIOS"
"BOGOTA, D.C.","BOGOTA, D.C.","ASEO","OPERATIVA","ASOCIACION DE RECICLADORES RECIFUTURO","BOGOTA, D.C.","BOGOTA, D.C.","CL 55 SUR 0 37 ESTE M J","3117107","recifuturo089@gmail.com","Registro por la ESP","OSCAR ESNEYDER CASTILLO RAMIREZ","ORGANIZACION AUTORIZADA","MAYOR O IGUAL A 5001 USUARIOS"
"BOGOTA, D.C.","BOGOTA, D.C.","ASEO","OPERATIVA","ASOCIACION DE RECICLADORES ECOPRAS","BOGOTA, D.C.","BOGOTA, D.C.","Calle 41 81K  23 Sur","5720211","Asociacionecopras.20@outlook.es","Registro por la ESP","LEIDY YIRLEY TOVAR ALARCON","ORGANIZACION AUTORIZADA","MAYOR O IGUAL A 5001 USUARIOS"
"BOGOTA, D.C.","BOGOTA, D.C.","ASEO","OPERATIVA","ASOCIACIÓN DE RECICLADORES ECOPROSPERAR","BOGOTA, D.C.","BOGOTA, D.C.","Cr 85A No 47A-16 Sur","0000000","infoecoprosperar@gmail.com","Registro por la ESP","LUZ ANDREA MARTINEZ MONGUI","ORGANIZACION AUTORIZADA","MAYOR O IGUAL A 5001 USUARIOS"
"BOGOTA, D.C.","BOGOTA, D.C.","ASEO","OPERATIVA","EMPRESA COLOMBIANA DE RECICLAJE SOACHA SAS E.S.P.","CUNDINAMARCA","SOACHA","TV 12 # 42-16","8849571","empocores@gmail.com","Registro por la ESP","DIEGO MAURICIO URBANO","SOCIEDADES (EMPRESA DE SERVICIOS PUBLICOS)","MAYOR O IGUAL A 5001 USUARIOS"
"BOGOTA, D.C.","BOGOTA, D.C.","ASEO","OPERATIVA","SOCIEDAD AMBIENTAL DE ASEO S.A.S E.S.P","CUNDINAMARCA","CHIA","CRA 10 #4-82 PISO 2 OF 202","8630930","soaseo2020@gmail.com","Registro por la ESP","MARIA NANCY PINEDA ROJAS","SOCIEDADES (EMPRESA DE SERVICIOS PUBLICOS)","MAYOR O IGUAL A 5001 USUARIOS"
"BOGOTA, D.C.","BOGOTA, D.C.","ASEO","OPERATIVA","ASOCIACION DE RECUPERADORES PLANETA AZUL+","BOGOTA, D.C.","BOGOTA, D.C.","CRA 16 24-30","9313283","asociaiconplaneta.a@gmail.com","Registro por la ESP","NINI JOHANNA CARRENO HERNANDEZ","ORGANIZACION AUTORIZADA","MAYOR O IGUAL A 5001 USUARIOS"
"BOGOTA, D.C.","BOGOTA, D.C.","ASEO","OPERATIVA","COMPAÑIA COLOMBIANA DE RECICLAJE SAS ESP","BOGOTA, D.C.","BOGOTA, D.C.","CR 121 23 B 19","4731728","ccrsasesp@gmail.com","Registro por la ESP","CARLOS DIRCEU TRUJILLO LOZADA","SOCIEDADES (EMPRESA DE SERVICIOS PUBLICOS)","MAYOR O IGUAL A 5001 USUARIOS"
"BOGOTA, D.C.","BOGOTA, D.C.","ASEO","OPERATIVA","ASOCIACION DE RECICLADORES AMBIENTALES DE BOGOTA","BOGOTA, D.C.","BOGOTA, D.C.","Calle 31 # 69 82","0000000","asociacionambientalesbogota@gmail.com","Registro por la ESP","CARLOS JULIO RODRIGUEZ MEJIA","ORGANIZACION AUTORIZADA","MAYOR O IGUAL A 5001 USUARIOS"
"BOGOTA, D.C.","BOGOTA, D.C.","ASEO","OPERATIVA","ASOCIACION INTREGAL Y POPULAR DE RECICLADORES DE OFICIO DE COLOMBIA","BOGOTA, D.C.","BOGOTA, D.C.","calle 71 sur # 86 C 12","3219030","asiprocol@gmail.com","Registro por la ESP","FREDY ALEXANDER SANGUINO SUAREZ","ORGANIZACION AUTORIZADA","MAYOR O IGUAL A 5001 USUARIOS"
"BOGOTA, D.C.","BOGOTA, D.C.","ASEO","OPERATIVA","ASOCIACIÓN NACIONAL DE RECICLADORES MUNDO NUEVO","BOGOTA, D.C.","BOGOTA, D.C.","CALLE 62 SUR # 82-09","4936195","recicladoramundonuevo.e.s.p.d@gmail.com","Registro por la ESP","HAROLD SNEIDER MORALES CABEZAS","ORGANIZACION AUTORIZADA","MENOR O IGUAL A 2500 USUARIOS"
"BOGOTA, D.C.","BOGOTA, D.C.","ASEO","OPERATIVA","ASOCIACIÓN DE RECICLADORES CON HONOR","BOGOTA, D.C.","BOGOTA, D.C.","Carrera 77 H # 49-25 Sur","0000000","aprovechamiento2@estrategia5.com","Registro por la ESP","MARIA CRISTINA GARIBELLO PULGA","ORGANIZACION AUTORIZADA","MAYOR O IGUAL A 5001 USUARIOS"
"BOGOTA, D.C.","BOGOTA, D.C.","ASEO","OPERATIVA","ASO MUNDO ECOLOGICO","BOGOTA, D.C.","BOGOTA, D.C.","CR 82 B #54 B SUR 11  MZ 261","4454400","asomundoeco03@gmail.com","Registro por la ESP","MARIA  LILIANA GUEVARA  RUIZ","ORGANIZACION AUTORIZADA","MAYOR O IGUAL A 5001 USUARIOS"
"BOGOTA, D.C.","BOGOTA, D.C.","ASEO","OPERATIVA","ASOCIACION DE RECICLADORES ECOPLANET AMBIENTALES","BOGOTA, D.C.","BOGOTA, D.C.","CL 78 # 79D 12","0000000","ecoplanetambientales@gmail.com","Registro por la ESP","DIEGO ALBERTO CARDENAS LOPEZ","ORGANIZACION AUTORIZADA","MAYOR O IGUAL A 5001 USUARIOS"
"BOGOTA, D.C.","BOGOTA, D.C.","ASEO","OPERATIVA","ASOCIACION DE RECICLADORES AQUA UNIDOS POR EL AMBIENTE","BOGOTA, D.C.","BOGOTA, D.C.","CALLE 136 C # 159 42","3044869","araquabogota@gmail.com","Registro por la ESP","ANYUL MARITZA MESA  VILLALBA","ORGANIZACION AUTORIZADA","MAYOR O IGUAL A 5001 USUARIOS"
"BOGOTA, D.C.","BOGOTA, D.C.","ASEO","OPERATIVA","ASO POLLITOS","BOGOTA, D.C.","BOGOTA, D.C.","CR 93 B # 42 F SUR 26","3514229","asopollitos2015@gmail.com","Registro por la ESP","DEISY JANNETH MORALES  ACOSTA","ORGANIZACION AUTORIZADA","MAYOR O IGUAL A 5001 USUARIOS"
"BOGOTA, D.C.","BOGOTA, D.C.","ASEO","OPERATIVA","ASOCIACION DE RECICLADORES HERENCIA VERDE","BOGOTA, D.C.","BOGOTA, D.C.","CR 87 B # 83 SUR 85 IN 15","4013230","asociacionrecicladoresh.v@gmail.com","Registro por la ESP","JHON EDILSON BARRAGAN HERNANDEZ","ORGANIZACION AUTORIZADA","MAYOR O IGUAL A 5001 USUARIOS"
"BOGOTA, D.C.","BOGOTA, D.C.","ASEO","OPERATIVA","Asociación de recolectores","BOGOTA, D.C.","BOGOTA, D.C.","Carrera 88 G N 74 c 33","4009274","ecodezasociacion@gmail.com","Registro por la ESP","BLANCA ISABEL HUERTAS  ARIAS","ORGANIZACION AUTORIZADA","MAYOR O IGUAL A 5001 USUARIOS"
"BOGOTA, D.C.","BOGOTA, D.C.","ASEO","OPERATIVA","ASOCIACION DE RECICLADORES CREANDO CULTURA AMBIENTAL - ASOARCCA","BOGOTA, D.C.","BOGOTA, D.C.","Calle 52 sur # 13B - 15","0000000","aprovechamiento2@estrategia5.com","Registro por la ESP","DIANA MARSELA BERNAL BARRAGAN","ORGANIZACION AUTORIZADA","MAYOR O IGUAL A 5001 USUARIOS"
"BOGOTA, D.C.","BOGOTA, D.C.","ASEO","OPERATIVA","ASOCIACION DE RECICLADORES NUEVA FUERZA AMBIENTAL ASOFUERZA","BOGOTA, D.C.","BOGOTA, D.C.","Calle 22 A No. 22 - 23","7459057","aprovechamiento2@estrategia5.com","Registro por la ESP","BLANCA INES DIAZ ARROYAVE","ORGANIZACION AUTORIZADA","MAYOR O IGUAL A 5001 USUARIOS"
"BOGOTA, D.C.","BOGOTA, D.C.","ASEO","OPERATIVA","ASOCIACION COLOMBIANA DE RECICLADORES HUELLA VERDE ESP","BOGOTA, D.C.","BOGOTA, D.C.","DIAG 34 A SUR # 82 A 18","0000000","huellaverdeesp@gmail.com","Registro por la ESP","DIANA MARCELA HERRERA GOMEZ","ORGANIZACION AUTORIZADA","MENOR O IGUAL A 2500 USUARIOS"
"BOGOTA, D.C.","BOGOTA, D.C.","ASEO","OPERATIVA","asociación colombiana de recuperadores ambientales","BOGOTA, D.C.","BOGOTA, D.C.","carrera 87 bis # 68 A 32 SUR","7014559","lilyanamoramartinez@gmail.com","Registro por la ESP","LILYANA ISABEL MORA MARTINEZ","SOCIEDADES (EMPRESA DE SERVICIOS PUBLICOS)","MENOR O IGUAL A 2500 USUARIOS"
"BOGOTA, D.C.","BOGOTA, D.C.","ASEO","OPERATIVA","ASOCIACIÓN AMBIENTAL CICLO ALTERNATIVO","BOGOTA, D.C.","BOGOTA, D.C.","CL 22 A SUR No 7 46","0000000","aprovechamiento2@estrategia5.com","Registro por la ESP","JONATHAN STEVE PEREZ CASALLAS","ORGANIZACION AUTORIZADA","MAYOR O IGUAL A 5001 USUARIOS"
"BOGOTA, D.C.","BOGOTA, D.C.","ASEO","OPERATIVA","RECYCLEAN SAS ESP","BOGOTA, D.C.","BOGOTA, D.C.","CR 17 67 90 SUR","5616117","recycleanesp@gmail.com","Registro por la ESP","MARIA MARLEN MARTINEZ PENUELA","SOCIEDADES (EMPRESA DE SERVICIOS PUBLICOS)","MAYOR O IGUAL A 5001 USUARIOS"
"BOGOTA, D.C.","BOGOTA, D.C.","ASEO","OPERATIVA","ASOCIACION NACIONAL HUELLA VERDE AMBIENTAL","BOGOTA, D.C.","BOGOTA, D.C.","DG 34 A SUR # 81-12","4454400","huellaverdeasociacion@gmail.com","Registro por la ESP","ALEXANDER USCATEGUI ALVAREZ","ORGANIZACION AUTORIZADA","MAYOR O IGUAL A 5001 USUARIOS"
"BOGOTA, D.C.","BOGOTA, D.C.","ASEO","OPERATIVA","ASOACIACION DE RECICLADORES EMPRENDEDORES DEL SUR","BOGOTA, D.C.","BOGOTA, D.C.","CARRERA 80 F #41 B-31 SUR","4830827","aprovechamiento@pravne.com.co","Registro por la ESP","WILLIAN ALEXIS GUZMAN GARAY","ORGANIZACION AUTORIZADA","MAYOR O IGUAL A 5001 USUARIOS"
"BOGOTA, D.C.","BOGOTA, D.C.","ASEO","OPERATIVA","ASO SALVANDO LA TIERRA BC","BOGOTA, D.C.","BOGOTA, D.C.","CL 75 BIS SUR #78 C 81","3514229","asosalvandolatierra@gmail.com","Registro por la ESP","BLANCA AGRIPINA RUIZ","ORGANIZACION AUTORIZADA","MAYOR O IGUAL A 5001 USUARIOS"
"BOGOTA, D.C.","BOGOTA, D.C.","ASEO","OPERATIVA","ASOCIACIÓN DE RECICLADORES NUEVA ERA ESP","BOGOTA, D.C.","BOGOTA, D.C.","CALLE 135 # 152 30","0000000","arnuevaeraesp@gmail.com","Registro por la ESP","DERLING ESTER VARGAS HERRERA","ORGANIZACION AUTORIZADA","DESDE 2501 HASTA 5000 USUARIOS"
"BOGOTA, D.C.","BOGOTA, D.C.","ASEO","OPERATIVA","ASOCIACIÓN DE RECICLADORES TEJIDO VERDE","BOGOTA, D.C.","BOGOTA, D.C.","CALLE 65 # 95 - 88","0000000","tejidoverdeasociacion@gmail.com","Registro por la ESP","DIANA PAOLA PENA ARDILA","ORGANIZACION AUTORIZADA","DESDE 2501 HASTA 5000 USUARIOS"
"BOGOTA, D.C.","BOGOTA, D.C.","ASEO","OPERATIVA","ASOCIACION DE RECICLADORES SION DE COLOMBIA","BOGOTA, D.C.","BOGOTA, D.C.","CR97A 38C 75 SUR","3057145","asore.sionreciclaje@gmail.com","Registro por la ESP","FLOR ALBA RUSINQUE FORERO","ORGANIZACION AUTORIZADA","MAYOR O IGUAL A 5001 USUARIOS"
"BOGOTA, D.C.","BOGOTA, D.C.","ASEO","OPERATIVA","Asociación de recicladores la huella del ambiente","BOGOTA, D.C.","BOGOTA, D.C.","Cra 150 B # 135 A 08","6870076","lahuelladelambiente@gmail.com","Registro por la ESP","LIGIA LETICIA VALLEJO PEREZ","ORGANIZACION AUTORIZADA","MAYOR O IGUAL A 5001 USUARIOS"
"BOGOTA, D.C.","BOGOTA, D.C.","ASEO","OPERATIVA","ASOCIACION DE RECICLADORES DE OFICIO COLOMBIA VERDE","BOGOTA, D.C.","BOGOTA, D.C.","CALLE 41 SUR N° 99D17","4545523","asociacionarocolv@gmail.com","Registro por la ESP","INGRI YULIETH CACERES SANTAMARIA","ORGANIZACION AUTORIZADA","DESDE 2501 HASTA 5000 USUARIOS"
"BOGOTA, D.C.","BOGOTA, D.C.","ASEO","OPERATIVA","ASOCIACION DE RECICLADORES SHALOM ESP","BOGOTA, D.C.","BOGOTA, D.C.","CL 88 No. 87 A 19 Sur","0000000","rcpolania@yahoo.com","Registro por la ESP","MIGUEL ANTONIO GAONA ARIAS","ORGANIZACION AUTORIZADA","MAYOR O IGUAL A 5001 USUARIOS"
"BOGOTA, D.C.","BOGOTA, D.C.","ASEO","OPERATIVA","ASOCIACION DE RECICLADORES MADEREROS DE COLOMBIA","BOGOTA, D.C.","BOGOTA, D.C.","Calle 58 A No. 17 A  -11 Sur","7032786","asociacionrhemacol@gmail.com","Registro por la ESP","LAUDY YISELA CASTANEDA TACUMA","ORGANIZACION AUTORIZADA","MAYOR O IGUAL A 5001 USUARIOS"
"BOGOTA, D.C.","BOGOTA, D.C.","ASEO","OPERATIVA","ASOCIACION DE RECICLADORES EL TRIUNFO BOSA","BOGOTA, D.C.","BOGOTA, D.C.","CR 87B 86 SUR 10 MZ B CA 41","0000000","asorefor@gmail.com","Registro por la ESP","WILSON ALBERTO BELTRAN  PEDRAZA","ORGANIZACION AUTORIZADA","MAYOR O IGUAL A 5001 USUARIOS"
"BOGOTA, D.C.","BOGOTA, D.C.","ASEO","OPERATIVA","ASOCIACION DE RECICLADORES LA FORTALEZA","BOGOTA, D.C.","BOGOTA, D.C.","Cr 88 A Bis No. 93 01","0000000","asorefor@gmail.com","Registro por la ESP","YURI CATALINA MEJIA  MOLINA","ORGANIZACION AUTORIZADA","MAYOR O IGUAL A 5001 USUARIOS"
"BOGOTA, D.C.","BOGOTA, D.C.","ASEO","OPERATIVA","ASOCIACION DE RECICLADORES RECICONDOR","BOGOTA, D.C.","BOGOTA, D.C.","CL  2  BIS N° 14 42","0000000","FINANCIEROSUI@ESTRATEGIA5.COM","Registro por la ESP","ONORIA LUCIA BARINAS VILLAMIZAR","ORGANIZACION AUTORIZADA","MAYOR O IGUAL A 5001 USUARIOS"
"BOGOTA, D.C.","BOGOTA, D.C.","ASEO","OPERATIVA","PARQUE AMBIENTAL DE ASEO Y RECICLAJE SAS E.S.P.","CUNDINAMARCA","CHIA","CARRERA 10 # 4-82 PISO 2 OFICINA 201","8630930","ambiaseo@gmail.com","Registro por la ESP","YURI VANNESSA CANTOR GIL","SOCIEDADES (EMPRESA DE SERVICIOS PUBLICOS)","MAYOR O IGUAL A 5001 USUARIOS"
"BOGOTA, D.C.","BOGOTA, D.C.","ASEO","OPERATIVA","ARECICLAR SAS ESP","BOGOTA, D.C.","BOGOTA, D.C.","CALLE 1 # 4 - 21 IN 1 OF 507","3203871","areciclaresp@gmail.com","Registro por la ESP","DIEGO ALBERTO PEREZ PINEROS","SOCIEDADES (EMPRESA DE SERVICIOS PUBLICOS)","MAYOR O IGUAL A 5001 USUARIOS"
"BOGOTA, D.C.","BOGOTA, D.C.","ASEO","OPERATIVA","ASOCIACION DE RECICLADORES WAY OF HOPE","BOGOTA, D.C.","BOGOTA, D.C.","calle 41b sur # 81d - 22","3134727","asoreway@gmail.com","Registro por la ESP","YERLI INYUD  BURITICA AGUADA","ORGANIZACION AUTORIZADA","MAYOR O IGUAL A 5001 USUARIOS"
"BOGOTA, D.C.","BOGOTA, D.C.","ASEO","OPERATIVA","ASOCIACION GESTION Y RECUPERACION ECOLOGICA","BOGOTA, D.C.","BOGOTA, D.C.","CRA 26 N 22C  - 36","4651337","ecorecsol@gmail.com","Registro por la ESP","KAREN JOHANNA SANMIGUEL RATIVA","ORGANIZACION AUTORIZADA","MAYOR O IGUAL A 5001 USUARIOS"
"BOGOTA, D.C.","BOGOTA, D.C.","ASEO","OPERATIVA","ASOCIACION DE RECICLADORES ECOAMIGOS DEL PLANETA","BOGOTA, D.C.","BOGOTA, D.C.","carrera16  22 A 10","3022075","ecoamigosdelplaneta0207@gmail.com","Registro por la ESP","JENNIFER CATHERINE GACHA ROMERO","ORGANIZACION AUTORIZADA","MENOR O IGUAL A 2500 USUARIOS"
"BOGOTA, D.C.","BOGOTA, D.C.","ASEO","OPERATIVA","ASOCIACIÓN DE RECICLADORES ECOLÓGICOS - AREC","BOGOTA, D.C.","BOGOTA, D.C.","Cl 1 No. 7 - 03","0000000","infosui@estrategia5.com","Registro por la ESP","JONATHAN ALBERTO RODRIGUEZ  GONZALEZ","ORGANIZACION AUTORIZADA","MAYOR O IGUAL A 5001 USUARIOS"
"BOGOTA, D.C.","BOGOTA, D.C.","ASEO","OPERATIVA","Asociacion de Recicladores Equilibrio Huella Ambiental","BOGOTA, D.C.","BOGOTA, D.C.","Calle 5B # 86A - 81","2935586","asorehambiental@gmail.com","Registro por la ESP","WILMER ANDRES  BONILLA MOYA","ORGANIZACION AUTORIZADA","DESDE 2501 HASTA 5000 USUARIOS"
"BOGOTA, D.C.","BOGOTA, D.C.","ASEO","OPERATIVA","ASOCIACION MUNDO AMBIENTAL DE RECICLADORES","BOGOTA, D.C.","BOGOTA, D.C.","CALLE 73D # 80J 52 SUR","4206751","asociacionamar2020@gmail.com","Registro por la ESP","ANA VIVIANA BECERRA RODRIGUEZ","ORGANIZACION AUTORIZADA","MENOR O IGUAL A 2500 USUARIOS"
"BOGOTA, D.C.","BOGOTA, D.C.","ASEO","OPERATIVA","ASOCIACION GREMIAL PARA EL ASEO APROVECHAMIENTO Y RECICLAJE EN COLOMBIA E.S.P","BOYACA","SOGAMOSO","CALLE 11 BIS #19-26","7700000","aprorecicolesp@gmail.com","Registro por la ESP","YURI VANNESSA VILLEGAS PLAZAS","ORGANIZACION AUTORIZADA","MAYOR O IGUAL A 5001 USUARIOS"
"BOGOTA, D.C.","BOGOTA, D.C.","ASEO","OPERATIVA","Asociacion de recicladores Eco Millenium","BOGOTA, D.C.","BOGOTA, D.C.","Cra 154 A Bis # 133 - 30","3043523","asoarem1@gmail.com","Registro por la ESP","YINETH MARLADY VELASCO RODRIGUEZ","ORGANIZACION AUTORIZADA","MAYOR O IGUAL A 5001 USUARIOS"
"BOGOTA, D.C.","BOGOTA, D.C.","ASEO","OPERATIVA","ASOCIACION DE RECUPERADORES RENOVANDO EL FUTURO","BOGOTA, D.C.","BOGOTA, D.C.","CARRERA 82B # 13A-37","4223110","asoarref@hotmail.com","Registro por la ESP","JHORMAN ANDRES ESPITIA CASTIBLANCO","ORGANIZACION AUTORIZADA","MAYOR O IGUAL A 5001 USUARIOS"
"BOGOTA, D.C.","BOGOTA, D.C.","ASEO","OPERATIVA","Asociacion de recicladores green world","BOGOTA, D.C.","BOGOTA, D.C.","CL 41 A BIS 81 09 SUR","3107784","ASORGREEN@GMAIL.COM","Registro por la ESP","JOSE OCTAVIO TORRES PEDREROS","ORGANIZACION AUTORIZADA","MAYOR O IGUAL A 5001 USUARIOS"
"BOGOTA, D.C.","BOGOTA, D.C.","ASEO","OPERATIVA","ASOCIACION NUEVA GENERACION DE RECICLADORES UNIDOS POR BTA","BOGOTA, D.C.","BOGOTA, D.C.","Carrera 89a # 50 sur 06","2778890","NUEVAGENERACIONDERECICLAJE@GMAIL.COM","Registro por la ESP","ADRIANA ESPINOSA ESPITIA","ORGANIZACION AUTORIZADA","MAYOR O IGUAL A 5001 USUARIOS"
"BOGOTA, D.C.","BOGOTA, D.C.","ASEO","OPERATIVA","ASOCIACION DE RECICLADORES COMPROMETIDOS Y ORGANIZADOS","BOGOTA, D.C.","BOGOTA, D.C.","CR 136 15 09","3219975","arocom2020@gmail.com","Registro por la ESP","ROSA CECILIA GARZON SUAREZ","ORGANIZACION AUTORIZADA","MENOR O IGUAL A 2500 USUARIOS"
"BOGOTA, D.C.","BOGOTA, D.C.","ASEO","OPERATIVA","ASOCIACION DE RECUPERADORES AMBIENTALES UNIDOS POR UN MEJOR MAÑANA","BOGOTA, D.C.","BOGOTA, D.C.","CL 23 H BIS 103 29","3219267","recuperadoresambientales20@gmail.com","Registro por la ESP","LADY JOHANNA  VALLEJO CASTRO","ORGANIZACION AUTORIZADA","MENOR O IGUAL A 2500 USUARIOS"
"BOGOTA, D.C.","BOGOTA, D.C.","ASEO","OPERATIVA","ASOCIACIÓN DE RECICLADORES LA ESTRELLA DEL SUR","BOGOTA, D.C.","BOGOTA, D.C.","CALLE 70 B SUR # 18 G - 34","3143568","asoreesur2020@gmail.com","Registro por la ESP","MARIA ELVIA CASTRO BALAGUERA","ORGANIZACION AUTORIZADA","MENOR O IGUAL A 2500 USUARIOS"
"BOGOTA, D.C.","BOGOTA, D.C.","ASEO","OPERATIVA","ASOCIACION DE RECICLADORES ECOFAMILIA ESP","BOGOTA, D.C.","BOGOTA, D.C.","TV 81B 57G 76 SUR","2982872","asociacionecofamiliaesp@gmail.com","Registro por la ESP","KATHERIN JANETH RODRIGUEZ FONTECHA","ORGANIZACION AUTORIZADA","MAYOR O IGUAL A 5001 USUARIOS"
"BOGOTA, D.C.","BOGOTA, D.C.","ASEO","OPERATIVA","ASOCIACION DE RECICLADORES BOGOTA RECICLA DISTRITO CAPITAL ESP","BOGOTA, D.C.","BOGOTA, D.C.","calle 94b No 56-42","4699803","bogotareciclad.c@hotmail.com","Registro por la ESP","HENRY ALBERTO NAVARRO RUIZ","ORGANIZACION AUTORIZADA","DESDE 2501 HASTA 5000 USUARIOS"
"BOGOTA, D.C.","BOGOTA, D.C.","ASEO","OPERATIVA","ASOCIACION DE RECICLADORES PRESERVANDO EL MEDIO AMBIENTE","BOGOTA, D.C.","BOGOTA, D.C.","CRA 81 D 40 D SUR 26","3133161","estefania091800@gmail.com","Registro por la ESP","GLORIA ESTEFANIA LOPEZ GUERRERO","ORGANIZACION AUTORIZADA","MENOR O IGUAL A 2500 USUARIOS"
"BOGOTA, D.C.","BOGOTA, D.C.","ASEO","OPERATIVA","ASOCIACION DE RECUPERADORES AMBIENTALES","BOGOTA, D.C.","BOGOTA, D.C.","Calle 142b 138a 60","0000000","REDAMBIENTE1@GMAIL.COM","Registro por la ESP","JEISON ALEXANDER  PALACIOS  MARIN","ORGANIZACION AUTORIZADA","MAYOR O IGUAL A 5001 USUARIOS"
"BOGOTA, D.C.","BOGOTA, D.C.","ASEO","OPERATIVA","CORPORACION DE RECICLADORES GECKO-E.S.P.","BOGOTA, D.C.","BOGOTA, D.C.","cra 86 a N° 73 F 62 SUR","5268434","gerencia@corpogecko-esp.com.co","Registro por la ESP","YURY TATIANA SALAZAR RIANO","ORGANIZACION AUTORIZADA","DESDE 2501 HASTA 5000 USUARIOS"
"BOGOTA, D.C.","BOGOTA, D.C.","ASEO","OPERATIVA","ASOCIACION DE BIOSOLUCIONES Y APROVECHAMIENTO","BOGOTA, D.C.","BOGOTA, D.C.","CL 63B 118B 24","3002973","asociacionasoaprovec@gmail.com","Registro por la ESP","SEGUNDO QUEMBA PINEDA","ORGANIZACION AUTORIZADA","MENOR O IGUAL A 2500 USUARIOS"
"BOGOTA, D.C.","BOGOTA, D.C.","ASEO","OPERATIVA","ASOCIACION DE RECUPERADORES PROAMBIENTE SOSTENIBLE","BOGOTA, D.C.","BOGOTA, D.C.","CL 64 124 24","3208277","asoproamb@gmail.com","Registro por la ESP","SANDRA MILENA CEBALLOS GUALY","ORGANIZACION AUTORIZADA","MENOR O IGUAL A 2500 USUARIOS"
"BOGOTA, D.C.","BOGOTA, D.C.","ASEO","OPERATIVA","ASOCIACION DE RECICLADORES RECUPERADORES ECOLOGICOS","BOGOTA, D.C.","BOGOTA, D.C.","CALLE 71F BIS # 27A-06 SUR","0000000","asoecologi@gmail.com","Registro por la ESP","MARTHA CECILIA ROJAS CASTELLANOS","ORGANIZACION AUTORIZADA","MAYOR O IGUAL A 5001 USUARIOS"
"BOGOTA, D.C.","BOGOTA, D.C.","ASEO","OPERATIVA","ASOCIACION GENERACION NUEVA DE RECICLAJE","BOGOTA, D.C.","BOGOTA, D.C.","CALLE 62 SUR # 93 - 02","4459665","asogeneracion@gmail.com","Registro por la ESP","MARIA FERNANDA ANDRADE MARTINEZ","ORGANIZACION AUTORIZADA","MAYOR O IGUAL A 5001 USUARIOS"
"BOGOTA, D.C.","BOGOTA, D.C.","ASEO","OPERATIVA","ASOCIACION DE RECUPERACION ECOLOGICA AMBIENTE VERDE","BOGOTA, D.C.","BOGOTA, D.C.","CL 40J SUR 74-43","3222353","asociacionarver@gmail.com","Registro por la ESP","RAUL EDUARDO PRIETO ESCOBAR","ORGANIZACION AUTORIZADA","MAYOR O IGUAL A 5001 USUARIOS"
"BOGOTA, D.C.","BOGOTA, D.C.","ASEO","OPERATIVA","ASOCIACION DE RECUPERACION ECOLOGICA VIDA VERDE","BOGOTA, D.C.","BOGOTA, D.C.","CR 73C No 35c 60 sur","3112801","asociacion.asovivercm@gmail.com","Registro por la ESP","GERARDO SANTAMARIA  CONTRERAS","ORGANIZACION AUTORIZADA","MAYOR O IGUAL A 5001 USUARIOS"
"BOGOTA, D.C.","BOGOTA, D.C.","ASEO","OPERATIVA","ASOCIACION DE RECICLADORES MUNDO MEJOR ESP","BOGOTA, D.C.","BOGOTA, D.C.","AV VILLAVICENCIO 78 I 10 SUR","4699803","mundomejoresp@hotmail.com","Registro por la ESP","OSCAR EDUARDO RINCON","ORGANIZACION AUTORIZADA","MENOR O IGUAL A 2500 USUARIOS"
"BOGOTA, D.C.","BOGOTA, D.C.","ASEO","OPERATIVA","ASOCIACION DE RECICLADORES ECOLIMPIEZA AMBIENTAL KYP","BOGOTA, D.C.","BOGOTA, D.C.","CR 99 D # 42 G 57  SUR","4923152","ecolimpieza.ambiental@gmail.com","Registro por la ESP","ALBERTO HAROLDO MORALES  ACOSTA","ORGANIZACION AUTORIZADA","MAYOR O IGUAL A 5001 USUARIOS"
"BOGOTA, D.C.","BOGOTA, D.C.","ASEO","OPERATIVA","ASOCIACION DE RECICLADORES  ACTIVOS SOSTENIENDO EL AMBIENTE","BOGOTA, D.C.","BOGOTA, D.C.","CRA 82 SUR 61 27","0000000","margaritajim5@hotmail.com","Registro por la ESP","YENNY CAROLINA SUESCA ZAMBRANO","ORGANIZACION AUTORIZADA","MAYOR O IGUAL A 5001 USUARIOS"
"BOGOTA, D.C.","BOGOTA, D.C.","ASEO","OPERATIVA","COMERCIALIZADORA DISEÑO AMBIENTAL S.A.S.","BOGOTA, D.C.","BOGOTA, D.C.","CALLE 45 A SUR # 80 I 64","0000000","recibosa2020@gmail.com","Registro por la ESP","GLORIA ESTHER DUARTE ORJUELA","SOCIEDADES (EMPRESA DE SERVICIOS PUBLICOS)","MAYOR O IGUAL A 5001 USUARIOS"
"BOGOTA, D.C.","BOGOTA, D.C.","ASEO","OPERATIVA","ASOCIACION DE RECICLADORES DC","BOGOTA, D.C.","BOGOTA, D.C.","CRA 9 2 30","0000000","asociacionderecicladoresdc@gmail.com","Registro por la ESP","GLORIA PINO VILLEGAS","ORGANIZACION AUTORIZADA","MAYOR O IGUAL A 5001 USUARIOS"
"BOGOTA, D.C.","BOGOTA, D.C.","ASEO","OPERATIVA","ASOCIACION DE RECICLADORES RECICLAJE ESPECIAL","BOGOTA, D.C.","BOGOTA, D.C.","CRA 95 B 42 G 46","3143234","rdayanna313@gmail.com","Registro por la ESP","DAYANNA ELIZABETH RAMIREZ MORALES","ORGANIZACION AUTORIZADA","MENOR O IGUAL A 2500 USUARIOS"
"BOGOTA, D.C.","BOGOTA, D.C.","ASEO","OPERATIVA","ASOCIACION COLOMBIANA DE RECUPERADORES DE OFICIO DEL HABITAD","BOGOTA, D.C.","BOGOTA, D.C.","carrera 75 c # 60 b 79 sur","0000000","ACROHCOLOMBIANA@GMAIL.COM","Registro por la ESP","OSCAR ALFONSO AVILA BUITRAGO","ORGANIZACION AUTORIZADA","MAYOR O IGUAL A 5001 USUARIOS"
"BOGOTA, D.C.","BOGOTA, D.C.","ASEO","OPERATIVA","ASOCIACION DE RECICLADORES P&L","BOGOTA, D.C.","BOGOTA, D.C.","Cra 110 19 A 41","3208825","maife1224@hotmail.com","Registro por la ESP","DALIA DEL PILAR NOY GORDILLO","ORGANIZACION AUTORIZADA","MENOR O IGUAL A 2500 USUARIOS"
"BOGOTA, D.C.","BOGOTA, D.C.","ASEO","OPERATIVA","Asociacion de Recicladores GREEN PLANET","BOGOTA, D.C.","BOGOTA, D.C.","cll49 sur 77k - 10","4538990","a.b.ariza@hotmail.com","Registro por la ESP","GISSETH VASQUEZ RAMIREZ","ORGANIZACION AUTORIZADA","DESDE 2501 HASTA 5000 USUARIOS"
"BOGOTA, D.C.","BOGOTA, D.C.","ASEO","OPERATIVA","ASOCIACION VIDA PARA EL PLANETA RECICLANDO","BOGOTA, D.C.","BOGOTA, D.C.","carrera 54 b sur N° 52 b 15","0000000","jhonjamavali81@hotmail.com","Registro por la ESP","JHON JAIRO RODRIGUEZ MUNOZ","ORGANIZACION AUTORIZADA","MAYOR O IGUAL A 5001 USUARIOS"
"BOGOTA, D.C.","BOGOTA, D.C.","ASEO","OPERATIVA","ASOCIACION DE RECICLADORES LAS 3R","BOGOTA, D.C.","BOGOTA, D.C.","CRA 31 B # 1 A 14 P1","3124010","asociacion3rrr@gmail.com","Registro por la ESP","JONNATHAN ALBEIRO GONZALEZ HERRERA","ORGANIZACION AUTORIZADA","MENOR O IGUAL A 2500 USUARIOS"
"BOGOTA, D.C.","BOGOTA, D.C.","ASEO","OPERATIVA","ASOCIACION DE RECICLADORES NATURALEZA VIVA","BOGOTA, D.C.","BOGOTA, D.C.","calle 100b # 4 este -32","5201417","andrea1992daza@hotmail.com","Registro por la ESP","LUZ MYRIAN DAZA NOVOA","ORGANIZACION AUTORIZADA","DESDE 2501 HASTA 5000 USUARIOS"
"BOGOTA, D.C.","BOGOTA, D.C.","ASEO","OPERATIVA","ASOCIACION DE GESTORES AMBIENTALES","BOGOTA, D.C.","BOGOTA, D.C.","CARRERA 24 #35 17 SUR","0000000","gestoresambientalesaga@gmail.com","Registro por la ESP","YERRY EFRID HUERTAS CARVAJAL","ORGANIZACION AUTORIZADA","MAYOR O IGUAL A 5001 USUARIOS"
"BOGOTA, D.C.","BOGOTA, D.C.","ASEO","OPERATIVA","ASOCIACION GREMIAL DE RECICLADORES TATUCO ESP","BOGOTA, D.C.","BOGOTA, D.C.","TRANSVERSAL 81B No. 57G SUR 86","3112600","tatucoesp@gmail.com","Registro por la ESP","OSKAR ANDRES VALBUENA  MENDEZ","ORGANIZACION AUTORIZADA","MAYOR O IGUAL A 5001 USUARIOS"
"BOGOTA, D.C.","BOGOTA, D.C.","ASEO","OPERATIVA","ASOCIACIÓN NACIONAL DE RECUPERADORES ORGANIZADOS POR EL MEDIO AMBIENTE","BOGOTA, D.C.","BOGOTA, D.C.","CALLE 47 # 26 - 16","8013154","asociacionandromedaesp@gmail.com","Registro por la ESP","LEIDY JOHANA RIOS ANZOLA","ORGANIZACION AUTORIZADA","MAYOR O IGUAL A 5001 USUARIOS"
"BOGOTA, D.C.","BOGOTA, D.C.","ASEO","OPERATIVA","ASOCIACION DE RECUPERADORES UNIDOS POR UNA COLOMBIA","BOGOTA, D.C.","BOGOTA, D.C.","CRA 79 No. 6 - 56","3208700","unidosporcolombia50@gmail.com","Registro por la ESP","LUIS ALFONSO BLANCO GOMEZ","ORGANIZACION AUTORIZADA","MAYOR O IGUAL A 5001 USUARIOS"
"BOGOTA, D.C.","BOGOTA, D.C.","ASEO","OPERATIVA","AMBIENTAL DE RECUPERADORES VERDE OLIVO ASOCIACION","BOGOTA, D.C.","BOGOTA, D.C.","CALLE 16 i bis N 105 A - 09","3203197","asoverde.o@gmail.com","Registro por la ESP","ERIKA LILIAN ALFONSO VILLARRAGA","ORGANIZACION AUTORIZADA","MAYOR O IGUAL A 5001 USUARIOS"
"BOGOTA, D.C.","BOGOTA, D.C.","ASEO","OPERATIVA","ASOACIÓN CIUDAD VERDE","BOGOTA, D.C.","BOGOTA, D.C.","Carrera 49 No 134 A 95","1111111","asociacionciudadverde@gmail.com","Registro por la ESP","PABLO ANDRES CAMPOS SAAVEDRA","ORGANIZACION AUTORIZADA","MAYOR O IGUAL A 5001 USUARIOS"
"BOGOTA, D.C.","BOGOTA, D.C.","ASEO","OPERATIVA","ASOCIACION DE APROVECHAMIENTO ECOLOGICO DE BOGOTA","BOGOTA, D.C.","BOGOTA, D.C.","Dg 40 # 29 11","3162489","aso.aprobecol@gmail.com","Registro por la ESP","DIANA PAOLA PENA GONZALEZ","ORGANIZACION AUTORIZADA","MAYOR O IGUAL A 5001 USUARIOS"
"BOGOTA, D.C.","BOGOTA, D.C.","ASEO","OPERATIVA","ASOCIACION DE RECICLADORES UNA MIRADA AL MEDIO AMBIENTE ESP","BOGOTA, D.C.","BOGOTA, D.C.","CALLE 62 SUR 82 51","0000000","asoarumam@gmail.com","Registro por la ESP","YASMIN LORENA PINEDA CELIS","ORGANIZACION AUTORIZADA","MAYOR O IGUAL A 5001 USUARIOS"
"BOGOTA, D.C.","BOGOTA, D.C.","ASEO","OPERATIVA","ASOCIACION COLOMBIANA DE RECICLADORES MUNDO ECOLOGICO MP","BOGOTA, D.C.","BOGOTA, D.C.","CL 54C SUR No 97-20","4640537","asocomundomp@gmail.com","Registro por la ESP","MARCELA RAMIREZ OSPINA","ORGANIZACION AUTORIZADA","MAYOR O IGUAL A 5001 USUARIOS"
"BOGOTA, D.C.","BOGOTA, D.C.","ASEO","OPERATIVA","ASOCIACION DE RECUPERACION Y RECICLAJE TERRA VERDE","BOGOTA, D.C.","BOGOTA, D.C.","Carrera 111 No 23D - 37","3214316","a.rrterraverde@gmail.com","Registro por la ESP","RAPH ALEXANDER GALVIS MARTINEZ","ORGANIZACION AUTORIZADA","MAYOR O IGUAL A 5001 USUARIOS"
"BOGOTA, D.C.","BOGOTA, D.C.","ASEO","OPERATIVA","ASOCIACION DE RECICLADORES  VIDA NUEVA","BOGOTA, D.C.","BOGOTA, D.C.","CRA  97 17A 34","8422931","yarlennyvera@hotmail.com","Registro por la ESP","SONIA YARLENNY ESCAMILLA","ORGANIZACION AUTORIZADA","MENOR O IGUAL A 2500 USUARIOS"
"BOGOTA, D.C.","BOGOTA, D.C.","ASEO","OPERATIVA","ASOCIACION ECOLOGICA DE RECICLAJE","BOGOTA, D.C.","BOGOTA, D.C.","TV 74C No 40I SUR 70 LC 1","2171010","ASOECORE@GMAIL.COM","Registro por la ESP","FRANCISCO JAVIER PRIETO ESCOBAR","ORGANIZACION AUTORIZADA","MAYOR O IGUAL A 5001 USUARIOS"
"BOGOTA, D.C.","BOGOTA, D.C.","ASEO","OPERATIVA","ASOCIACION DE RECICLADORES EMPRENDIMIETO SIEMPRE","BOGOTA, D.C.","BOGOTA, D.C.","CARRERA 86 # 130 A 60","0000000","asociacionaresesp@gmail.com","Registro por la ESP","VICTOR ALFONSO CAMELO GOMEZ","ORGANIZACION AUTORIZADA","MAYOR O IGUAL A 5001 USUARIOS"
"BOGOTA, D.C.","BOGOTA, D.C.","ASEO","OPERATIVA","ASOCIACION DE RECICLADORES GLOBAL RECYCLING","BOGOTA, D.C.","BOGOTA, D.C.","CRA 97A#38C-50 SUR","3102758","asoreglob@gmail.com","Registro por la ESP","NELLY AGUADA REAL","ORGANIZACION AUTORIZADA","MAYOR O IGUAL A 5001 USUARIOS"
"BOGOTA, D.C.","BOGOTA, D.C.","ASEO","OPERATIVA","ASOCREAR FUTURO R.R","BOGOTA, D.C.","BOGOTA, D.C.","CR 86A #55SUR 29","4454400","crearfuturo.r@gmail.com","Registro por la ESP","MARISOL AURORA  RAMIREZ  SANCHEZ","ORGANIZACION AUTORIZADA","MAYOR O IGUAL A 5001 USUARIOS"
"BOGOTA, D.C.","BOGOTA, D.C.","ASEO","OPERATIVA","RECICLAR PARA UNA MEJOR VIDA DO.MI","BOGOTA, D.C.","BOGOTA, D.C.","DG 34 A SUR  #82 C-17","4208640","vidamejordo.mi@gmail.com","Registro por la ESP","ALEXANDER RODRIGUEZ RAMIREZ","ORGANIZACION AUTORIZADA","MAYOR O IGUAL A 5001 USUARIOS"
