"act_admin","ano_vigencia","cant_vehiculos","codigo_com","costado","direccion","estado","latitud","longitud","nombre_com","numero_acopio","objectid","observaciones","ubicacion","x_magnamed","y_magnamed","point"
"Resolución 59581 (08/10/2020)","2020","2","5","N","CALLE 111A CON CARRERA 65","V","6.30630727","-75.56389747","Castilla","89","2123",,,"835488.1585","1189345.0127","POINT (-75.56389747102772 6.306307270461288)"
"Resolución 59581 (08/10/2020)","2020","5","15","N","CALLE 14 ENTRE CARRERAS 51 Y 52","V","6.21748637","-75.58019957","Guayabal","15","2122",,,"833683.6127","1179520.2279","POINT (-75.58019956455844 6.217486365817858)"
"Resolución 59581 (08/10/2020)","2020","4","14","S","CALLE 9 # 42-15 (Interior) acopio det taxis al Aeropuerto Jose Maria Cordoba","V","6.20963205","-75.57014959","El Poblado","203","2121",,,"834796.0883","1178651.4109","POINT (-75.57014959182075 6.209632046760421)"
"Resolución 59581 (08/10/2020)","2020","10","10","N","CALLE 44 ENTRE CARRERAS 53 Y 54","V","6.24564673","-75.57272508","La Candelaria","42","2120",,,"834511.0493","1182635.1321","POINT (-75.5727250762571 6.245646731295531)"
"Resolución 59581 (08/10/2020)","2020","5","16","W","CARRERA 77 CON CL 30 Y 30A","V","6.23177338","-75.59710091","Belén","180","2119",,,"831812.8101","1181100.6513","POINT (-75.59710091265647 6.231773376807895)"
"Resolución 59581 (08/10/2020)","2020","3","5","N","CALLE 97 ENTRE CARRERA 65 Y 66 (EPS SURA)","V","6.2917839","-75.56996042","Castilla","87","2118",,,"834817.1169","1187738.5319","POINT (-75.56996041767172 6.291783903700036)"
"Resolución 59581 (08/10/2020)","2020","4","10","S","CARRERA 46 CON CALLE 48 (ÉXITO SAN ANTONIO)","V","6.24690175","-75.56681202","La Candelaria","116","2117",,,"835165.5619","1182773.9483","POINT (-75.5668120222528 6.2469017498447)"
"Resolución 59581 (08/10/2020)","2020","4","10","N","CALLE 29 ENTRE CARRERAS 43A Y 43G","V","6.22844172","-75.57025754","La Candelaria","24","2116",,,"834784.1599","1180732.0187","POINT (-75.57025753999248 6.228441720423434)"
"Resolución 59581 (08/10/2020)","2020","7","10","E","CARRERA 51 ENTRE CALLES 45 Y 46","V","6.24660421","-75.56979655","La Candelaria","136","2115",,,"834835.2065","1182741.0385","POINT (-75.56979655406033 6.24660421042018)"
"Resolución 59581 (08/10/2020)","2020","5","9","N","CALLE 40 ENTRE CARRERAS 35 Y 35A (EL SALVADOR)","V","6.2370743","-75.56060674","Buenos Aires","37","2114",,,"835852.4283","1181686.8995","POINT (-75.56060673494454 6.23707430270153)"
"Resolución 59581 (08/10/2020)","2020","6","14","E","CARRERA 46 ENTRE CALLES 10 Y 9 -ÉXITO POBLADO","V","6.21204054","-75.57552751","El Poblado","115","2113",,,"834200.7747","1178917.8321","POINT (-75.57552751120369 6.212040538879898)"
"Resolución 59581 (08/10/2020)","2020","3","14","N","CALLE 14 ENTRE CARRERAS 43D Y 43E","V","6.21483389","-75.57158825","El Poblado","13","2112",,,"834636.8407000001","1179226.8073","POINT (-75.57158824905666 6.214833884992594)"
"Resolución 59581 (08/10/2020)","2020","3","10","E","CARRERA 42 ENTRE CALLES 52 Y 53","V","6.24876425","-75.56109577","La Candelaria","101","2111",,,"835798.2875","1182979.9675","POINT (-75.56109576678828 6.248764250367929)"
"Resolución 59581 (08/10/2020)","2020","3","10","W","CARRERA 50 ENTRE CALLES 63 Y 64","V","6.26037627","-75.56129195","La Candelaria","130","2110",,,"835776.5631","1184264.4161","POINT (-75.5612919532208 6.260376272231497)"
"Resolución 59581 (08/10/2020)","2020","3","10","W","CARRERA 50 ENTRE CALLES 65 Y 64","V","6.26135611","-75.56090191","La Candelaria","129","2109",,,"835819.7343","1184372.7993","POINT (-75.56090191361068 6.261356104621318)"
"Resolución 59581 (08/10/2020)","2020","6","16","W","CARRERA 66B FRENTE A UNIDAD DEPORTIVA BELEN","V","6.23489765","-75.58742216","Belén","161","2108",,,"832884.1877","1181446.1827","POINT (-75.58742216135809 6.234897645578)"
"Resolución 59581 (08/10/2020)","2020","5","16","W","CARRERA 65B ENTRE CALLES 30 Y 30A","V","6.23259453","-75.58398256","Belén","160","2107",,,"833264.9133","1181191.4113","POINT (-75.58398256154469 6.232594527771563)"
"Resolución 59581 (08/10/2020)","2020","2","4","W","CARRERA 53 AL COSTADO NORTE DEL ACCESO AL PARQUEDERO DEL PARQUE NORTE","V","6.27109493","-75.56614288","Aranjuez","145","2106",,,"835239.6351","1185450.0455","POINT (-75.56614287944568 6.271094931348131)"
"Resolución 59581 (08/10/2020)","2020","6","10","S","CALLE 56 ENTRE CARRERAS 48 Y 47","V","6.25327778","-75.5637273","La Candelaria","63","2105",,,"835507.0051","1183479.2245","POINT (-75.56372730296094 6.253277781208536)"
"Resolución 59581 (08/10/2020)","2020","4","10","S","CALLE 62 ENTRE CARRERAS 52 Y 53","V","6.26099873","-75.56749853","La Candelaria","67","2104",,,"835089.5803","1184333.2681","POINT (-75.56749853387225 6.260998732532874)"
"Resolución 59581 (08/10/2020)","2020","4","7","S","CALLE 65 ENTRE CARRERAS 80 Y 80A","V","6.2734339","-75.59344879","Robledo","71","2103",,,"832217.3221","1185708.8533","POINT (-75.59344878907189 6.273433904407255)"
"Resolución 59581 (08/10/2020)","2020","2","9","W","CARRERA 36 ENTRE CALLES 49 Y 49A","V","6.24336318","-75.55685337","Buenos Aires","98","2102",,,"836267.8825","1182382.5399","POINT (-75.55685336521003 6.243363175863433)"
"Resolución 59581 (08/10/2020)","2020","3","10","S","CALLE 57 ENTRE CARRERAS 46 Y 47 - CLOFAN","V","6.25360833","-75.56275767","La Candelaria","64","2101",,,"835614.3319","1183515.7875","POINT (-75.56275766581915 6.253608324932975)"
"Resolución 59581 (08/10/2020)","2020","2","10","N","CALLE 59 ENTRE CARRERAS 50C Y 50A","V","6.25751535","-75.56463756","La Candelaria","65","2100",,,"835406.2503","1183947.9577","POINT (-75.56463756252349 6.257515351387434)"
"Resolución 59581 (08/10/2020)","2020","10","10","E","CARRERA 62 AV. REGIONAL  CON CL 55 Y 57 (MINORISTA)","V","6.2582568","-75.57410281","La Candelaria","154","2099",,,"834358.5729","1184029.9805","POINT (-75.57410281345923 6.258256795731361)"
"Resolución 59581 (08/10/2020)","2020","10","14","E","CARRERA 43B ENTRE CL9 Y 10","V","6.21051841","-75.57131117","El Poblado","109","2098",,,"834667.5065","1178749.4559","POINT (-75.57131116906702 6.21051840688797)"
"Resolución 59581 (08/10/2020)","2020","5","11","S","CALLE 39D ENTRE CIRCULAR 74 y CALLE 39C","V","6.24611039","-75.59306189","Laureles Estadio","35","2097",,,"832259.9831","1182686.4959","POINT (-75.59306189261929 6.246110390296664)"
"Resolución 59581 (08/10/2020)","2020","5","5","S","TRANSVERSAL 78 Nº 65-417 (CAB CORDOBA)","V","6.27381509","-75.57808893","Castilla","202","2096",,,"833917.4057","1185750.9509","POINT (-75.57808893367923 6.273815094298491)"
"Resolución 59581 (08/10/2020)","2020","7","7","N","TRANSVERSAL 73 Nº76A-354 ITM.","V","6.27325216","-75.58839","Robledo","201","2095",,,"832777.2453","1185688.7227","POINT (-75.58839000337775 6.273252163833539)"
"Resolución 59581 (08/10/2020)","2020","3","11","N","TRANSVERSAL 51A Nº 67B-134 COORPORACIÓN LUIS AMIGÓ","V","6.25943785","-75.58447836","Laureles Estadio","200","2094",,,"833210.1429","1184160.6523","POINT (-75.5844783590533 6.259437847178627)"
"Resolución 59581 (08/10/2020)","2020","28","5","E","TERMINAL NORTE (NIVEL 2) PRIMER PISO","V","6.27933396","-75.57140211","Castilla","199","2093",,,"834657.5343","1186361.3993","POINT (-75.57140210542038 6.279333960350604)"
"Resolución 59581 (08/10/2020)","2020","10","5","S","SECTOR SOLLA, DEL LAZO QUE UNE EL PUENTE ACEVEDO CON AUTOPISTA NORTE","V","6.31138038","-75.55816578","Castilla","198","2092",,,"836122.5155","1189906.1723","POINT (-75.55816577576577 6.311380375763619)"
"Resolución 59581 (08/10/2020)","2020","7","7","S","CALLE 78B Nº 72A-109 DE LA U.P.B.","V","6.27804711","-75.58235529","Robledo","81","2091",,,"833445.2065","1186219.0839","POINT (-75.58235528909144 6.278047113207359)"
"Resolución 59581 (08/10/2020)","2020","15","16","S","DIAGONAL 75CC No2A-120 IGLESIA LA MOTA","V","6.21354835","-75.59774352","Belén","197","2090",,,"831741.5527","1179084.7175","POINT (-75.59774352392704 6.213548345795403)"
"Resolución 59581 (08/10/2020)","2020","5","16","W","DIAGONAL 75B CON N° 6-110 ( VIA DE SERVICIO ORIENTAL)","V","6.21770675","-75.59831993","Belén","196","2089",,,"831677.7761","1179544.6977","POINT (-75.59831992793795 6.217706747321878)"
"Resolución 59581 (08/10/2020)","2020","3","16","E","COSTADO DERECHO VÍA AL CERRO NUTIBARA ADYACENTE A LA TERRAZA","V","6.23601846","-75.58007284","Belén","195","2088",,,"833697.6993","1181570.1315","POINT (-75.58007284123127 6.23601846381202)"
"Resolución 59581 (08/10/2020)","2020","5","11","S","CIRCULAR 1º 20 METROS ANTES DE LA PORTERIA DE LA UPB","V","6.24442812","-75.58974526","Laureles Estadio","194","2087",,,"832627.0903","1182500.3951","POINT (-75.58974525635614 6.244428118042782)"
"Resolución 59581 (08/10/2020)","2020","10","5","W","CC FLORIDA","V","6.27043005","-75.57653914","Castilla","193","2086",,,"834088.9343","1185376.5145","POINT (-75.57653913587315 6.270430049324326)"
"Resolución 59581 (08/10/2020)","2020","10","60","S","CARRETERA AL MAR A LA ALTURA DE LA CALLE 68B 20.00 AL OCCIDENTE","V","6.28844874","-75.6140383","Corregimiento de San Cristóbal","192","2085",,,"829938.5593","1187369.8679","POINT (-75.61403829605173 6.288448743149596)"
"Resolución 59581 (08/10/2020)","2020","6","13","W","CARRERA 86 CON CL 49DD CENTRO DE SALUD SANTA ROSA DE LIMA","V","6.26199076","-75.60422443","San Javier","187","2084",,,"831024.5421","1184443.1617","POINT (-75.6042244253221 6.26199076278544)"
"Resolución 59581 (08/10/2020)","2020","5","12","E","CARRERA 88A No 33C -137 (ANTES URBANIZACIÓN LAURELES CAMPESTRE S-N)","V","6.24247221","-75.61374336","La América","189","2083",,,"829970.7293","1182284.2297","POINT (-75.61374336315579 6.242472204793741)"
"Resolución 59581 (08/10/2020)","2020","10","11","E","CARRERA 77B No 53A -26","V","6.26598697","-75.59115874","Laureles Estadio","181","2082",,,"832470.7513","1184885.1067","POINT (-75.59115874176386 6.265986965997888)"
"Resolución 59581 (08/10/2020)","2020","8","11","W","CARRERA 76 ENTRE CL 53 Y 54","V","6.26436945","-75.58922522","Laureles Estadio","177","2081",,,"832684.7545","1184706.1769","POINT (-75.5892252244794 6.264369449014836)"
"Resolución 59581 (08/10/2020)","2020","4","11","W","CARRERA 69 CON CIRCULAR 2 Y3","V","6.24537658","-75.58860312","Laureles Estadio","170","2080",,,"832753.5181","1182605.3019","POINT (-75.58860311588677 6.245376577508939)"
"Resolución 59581 (08/10/2020)","2020","4","11","W","CARRERA 66B CON CIRCULAR 5 Y 6","V","6.24537352","-75.5844093","Laureles Estadio","167","2079",,,"833217.7293","1182604.9447","POINT (-75.58440929793676 6.245373520069863)"
"Resolución 59581 (08/10/2020)","2020","3","10","W","CARRERA 53 ENTRE CL53 Y 54","V","6.25363327","-75.56940113","La Candelaria","147","2078",,,"834878.9823","1183518.5489","POINT (-75.56940113018969 6.253633274277958)"
"Resolución 59581 (08/10/2020)","2020","6","15","W","CARRERA 50( DIAGONAL) ENTRE CL 7 Y 10","V","6.21319849","-75.57963331","Guayabal","131","2077",,,"833746.2817","1179045.9281","POINT (-75.57963330524268 6.213198488295319)"
"Resolución 59581 (08/10/2020)","2020","4","14","W","CARRERA 43B No14-51 SOBRE EL SEPARADOR","V","6.21530574","-75.57102858","El Poblado","110","2076",,,"834698.7941","1179279.0001","POINT (-75.57102858200307 6.215305739305551)"
"Resolución 59581 (08/10/2020)","2020","3","14","W","CARRERA43A  CC SAO PABLO BAHIA ANTES DEL INGRESO","V","6.18508615","-75.57892603","El Poblado","104","2075",,,"833824.4919","1175936.3165","POINT (-75.5789260314945 6.185086153678155)"
"Resolución 59581 (08/10/2020)","2020","4","7","S","CALLE 78A, ENTRE CARRERAS  94A Y 95 (AURES)","V","6.28957611","-75.59513035","Robledo","78","2074",,,"832031.3037","1187494.4129","POINT (-75.59513035428844 6.289576110799569)"
"Resolución 59581 (08/10/2020)","2020","10","13","W","CARRERA 92  No 34D-93","V","6.24542939","-75.61718163","San Javier","191","2073",,,"829590.1803","1182611.3719","POINT (-75.61718162696573 6.245429394903535)"
"Resolución 59581 (08/10/2020)","2020","5","7","E","CARRERA 90 CON N° 76D-78","V","6.28366887","-75.5936727","Robledo","190","2072",,,"832192.6015","1186840.9823","POINT (-75.59367269601516 6.283668871818083)"
"Resolución 59581 (08/10/2020)","2020","8","16","W","CARRERA 87  ENTRE CL30A y 30B UNIVERSIDAD DE MEDELLÍN","V","6.23193072","-75.60982873","Belén","188","2071",,,"830403.9407","1181118.1587","POINT (-75.60982873029873 6.231930721422227)"
"Resolución 59581 (08/10/2020)","2020","5","7","S","CALLE 79 ENTRE CR 85 Y 85A","V","6.28382436","-75.586527","Robledo","82","2070",,,"832983.4979","1186858.1437","POINT (-75.58652699554668 6.283824360325918)"
"Resolución 59581 (08/10/2020)","2020","4","16","E","CARRERA 82A No 32B 147","V","6.23613814","-75.60519126","Belén","186","2069",,,"830917.3083","1181583.5157","POINT (-75.60519125872528 6.236138142567851)"
"Resolución 59581 (08/10/2020)","2020","5","11","W","CARRERA 80AA CON CL 38 Y 37","V","6.24587143","-75.60121709","Laureles Estadio","185","2068",,,"831357.2883","1182660.1187","POINT (-75.60121709261747 6.245871429539493)"
"Resolución 59581 (08/10/2020)","2020","5","16","S","CARRERA 79C CON N° 6SUR-110 ADYACENTE A URB. EL RODEO SAN SIMON.","V","6.20355792","-75.60156795","Belén","184","2067",,,"831318.1273","1177979.6673","POINT (-75.60156794948456 6.203557919304139)"
"Resolución 59581 (08/10/2020)","2020","5","16","E","CARRERA 79 CON CL 2 SUR BAHÍA COSTADO ORIENTAL","V","6.20908614","-75.60126517","Belén","183","2066",,,"831351.6863","1178591.1619","POINT (-75.60126517094574 6.209086139570197)"
"Resolución 59581 (08/10/2020)","2020","4","16","E","CARRERA 78A ENTRE CL 27 y 28","V","6.22909357","-75.59863633","Belén","182","2065",,,"831642.8323","1180804.2387","POINT (-75.59863633033427 6.229093571273261)"
"Resolución 59581 (08/10/2020)","2020","10","16","E","CARRERA 77 CON CL 28 Y 29","V","6.23041694","-75.59698497","Belén","179","2064",,,"831825.6347","1180950.6097","POINT (-75.59698497208923 6.230416937115018)"
"Resolución 59581 (08/10/2020)","2020","5","6","W","CARRERA 76A CON N° 90-11","V","6.28766347","-75.58242965","Doce de Octubre","178","2063",,,"833437.0115","1187282.7855","POINT (-75.58242965170291 6.287663474362809)"
"Resolución 59581 (08/10/2020)","2020","7","11","S","CALLE48A ENTRE CARRERAS 74 Y 75","V","6.25756748","-75.59197834","Laureles Estadio","52","2062",,,"832379.9865","1183953.8011","POINT (-75.59197833532555 6.257567483144938)"
"Resolución 59581 (08/10/2020)","2020","7","11","E","CARRERA 74 CON CL48 Y 48A","V","6.2569595","-75.59170148","Laureles Estadio","176","2061",,,"832410.6277","1183886.5487","POINT (-75.591701476488 6.256959503902902)"
"Resolución 59581 (08/10/2020)","2020","7","7","E","CARRERA 72B No 78B-84","V","6.27894143","-75.58160056","Robledo","175","2060",,,"833528.7447","1186318.0047","POINT (-75.58160056250843 6.278941428286296)"
"Resolución 59581 (08/10/2020)","2020","8","7","E","CARRERA 72A CON CL78 Y 78B CLINICA UNIVERSITARIA BOLIVARIANA","V","6.27646235","-75.58174682","Robledo","174","2059",,,"833512.5479","1186043.7847","POINT (-75.58174681869535 6.276462345637145)"
"Resolución 59581 (08/10/2020)","2020","3","7","W","CARRERA 72A CON CL78 Y 78B C. UNIVERSITARIA BOLIVARIANA","V","6.27693517","-75.58161183","Robledo","173","2058",,,"833527.4911","1186096.0845","POINT (-75.58161182461494 6.276935164765152)"
"Resolución 59581 (08/10/2020)","2020","3","11","W","CARRERA 70 CON CL48 Y 47D","V","6.25363371","-75.58795448","Laureles Estadio","171","2057",,,"832825.3557","1183518.6513","POINT (-75.58795447593022 6.253633715162437)"
"Resolución 59581 (08/10/2020)","2020","6","5","W","CARRERA 67 ENTRE CL 105 Y 105A","V","6.30299194","-75.56703257","Castilla","169","2056",,,"835141.1751","1188978.2919","POINT (-75.56703256969885 6.302991938219871)"
"Resolución 59581 (08/10/2020)","2020","16","15","W","CARRERA 67  ENTRE CL 9 y 10(TERMINAL DEL SUR)","V","6.21694387","-75.58904028","Guayabal","168","2055",,,"832704.9847","1179460.2571","POINT (-75.58904028055292 6.216943870900765)"
"Resolución 59581 (08/10/2020)","2020","4","15","W","CARRERA 66 ENTRE CALLES 17 Y 16A","V","6.2214943","-75.58737895","Guayabal","166","2054",,,"832888.9081","1179963.5883","POINT (-75.58737894632834 6.221494295525635)"
"Resolución 59581 (08/10/2020)","2020","4","15","W","CARRERA 66 ENTRE CALLES 18 Y 17A","V","6.22207821","-75.58760967","Guayabal","165","2053",,,"832863.3713","1180028.1779","POINT (-75.58760966778799 6.222078206055445)"
"Resolución 59581 (08/10/2020)","2020","12","11","W","CARRERA 66 No 48D -53","V","6.25524608","-75.58271936","Laureles Estadio","164","2052",,,"833404.8243","1183696.9781","POINT (-75.58271936206788 6.255246076323626)"
"Resolución 59581 (08/10/2020)","2020","11","15","E","CARRERA 65G CON CL 14 (AEROPUERTO OLAYA HERRERA)","V","6.21958472","-75.58669276","Guayabal","163","2051",,,"832964.8565","1179752.3595","POINT (-75.58669275892356 6.2195847164579785)"
"Resolución 59581 (08/10/2020)","2020","10","15","E","CARRERA 65E ENTRE CL 4 Y 5","V","6.21273371","-75.58817587","Guayabal","162","2050",,,"832800.6503","1178994.5509","POINT (-75.58817587133171 6.212733706297922)"
"Resolución 59581 (08/10/2020)","2020","10","5","W","CARRERA 64C CON CL 81 Y 82","V","6.27901642","-75.57218363","Castilla","159","2049",,,"834571.0329","1186326.2765","POINT (-75.5721836300811 6.279016423464526)"
"Resolución 59581 (08/10/2020)","2020","5","5","E","CARRERA 64C Nº 72-58 (TRANSITO MUNICIPAL)","V","6.27105754","-75.57358899","Castilla","158","2048",,,"834415.4695","1185445.9173","POINT (-75.57358899260346 6.271057540225435)"
"Resolución 59581 (08/10/2020)","2020","6","5","W","CARRERA 64C AL NORTE DE CALLE 67 COCA COLA","V","6.26702584","-75.57488357","Castilla","157","2047",,,"834272.1721","1184999.9587","POINT (-75.57488356908499 6.267025841439539)"
"Resolución 59581 (08/10/2020)","2020","12","5","W","CARRERA 63-63A CON CL 78 (TERMINAL NORTE)","V","6.279187","-75.57009328","Castilla","156","2046",,,"834802.3979","1186345.1419","POINT (-75.57009327987045 6.279187000329483)"
"Resolución 59581 (08/10/2020)","2020","7","5","W","CARRERA 63 (REGIONAL) CON CL 103 ESTACION ACEVEDO","V","6.30003778","-75.55928053","Castilla","155","2045",,,"835999.1535","1188651.5245","POINT (-75.55928052580404 6.300037781556835)"
"Resolución 59581 (08/10/2020)","2020","10","10","W","CARRERA 58 ENTRE CL 54 Y 55 MINORISTA","V","6.25644476","-75.57399275","La Candelaria","153","2044",,,"834370.7515","1183829.5439","POINT (-75.57399275441583 6.256444756345031)"
"Resolución 59581 (08/10/2020)","2020","5","10","W","CARRERA 57A CON CL42 y 43","V","6.24452862","-75.57643052","La Candelaria","152","2043",,,"834100.8931","1182511.4615","POINT (-75.57643052304806 6.244528622757315)"
"Resolución 59581 (08/10/2020)","2020","12","10","W","CARRERA 57 CON CL41 y 44 (VÍA DE SERVICIO CIC)","V","6.24325909","-75.57563879","La Candelaria","151","2042",,,"834188.5273","1182371.0321","POINT (-75.57563878579676 6.243259091545702)"
"Resolución 59581 (08/10/2020)","2020","8","10","W","CARRERA 57 CON CL41 y 42 (VÍA DE SERVICIO CIC)","V","6.24384097","-75.57562491","La Candelaria","150","2041",,,"834190.0641","1182435.3957","POINT (-75.57562491380989 6.243840969096147)"
"Resolución 59581 (08/10/2020)","2020","6","10","N-W","CARRERA 57 CON CL 51 SENA","V","6.25463296","-75.57487452","La Candelaria","149","2040",,,"834273.1479","1183629.1357","POINT (-75.5748745176265 6.254632955845917)"
"Resolución 59581 (08/10/2020)","2020","6","10","W","CARRERA 53 ENTRE CL 52 y 53","V","6.2525049","-75.56944207","La Candelaria","148","2039",,,"834874.4501","1183393.7351","POINT (-75.56944206626876 6.252504898370227)"
"Resolución 59581 (08/10/2020)","2020","12","4","E","CARRERA 53 CON CL 73 Y 72","V","6.26865093","-75.56647297","Aranjuez","146","2038",,,"835203.0987","1185179.7055","POINT (-75.56647296857574 6.268650929492919)"
"Resolución 59581 (08/10/2020)","2020","7","4","W","CARRERA 52 CON ESTACION TRICENTENARIO","V","6.29069563","-75.56295939","Aranjuez","144","2037",,,"835591.9881","1187618.1521","POINT (-75.56295939308501 6.290695634457804)"
"Resolución 59581 (08/10/2020)","2020","10","4","W","CARRERA 52 con CL73 Y 71","V","6.26862461","-75.56565237","Aranjuez","143","2036",,,"835293.9265","1185176.7935","POINT (-75.5656523676965 6.268624605469147)"
"Resolución 59581 (08/10/2020)","2020","6","10","W","CARRERA 52 con CL44 Y 43","V","6.24429862","-75.57169207","La Candelaria","142","2035",,,"834625.3905","1182486.0107","POINT (-75.57169206695069 6.244298617916106)"
"Resolución 59581 (08/10/2020)","2020","12","2","W","CARRERA 52 CON CL 107 (ESTACION ACEVEDO)","V","6.29992172","-75.55745619","Santa Cruz","141","2034",,,"836201.0679","1188638.6887","POINT (-75.55745618450933 6.299921717346135)"
"Resolución 59581 (08/10/2020)","2020","7","4","W","CARRERA 51D  FRENTE A  N° 70-17.","V","6.26729312","-75.56494437","Aranjuez","140","2033",,,"835372.2911","1185029.5131","POINT (-75.56494436786986 6.267293121816287)"
"Resolución 59581 (08/10/2020)","2020","7","4","W","CARRERA 51B CON CL 71 CLINICA LEON XIII","V","6.26720011","-75.5634983","Aranjuez","139","2032",,,"835532.3493","1185019.2247","POINT (-75.56349829594521 6.26720010800921)"
"Resolución 59581 (08/10/2020)","2020","2","10","S","CALLE 64 ENTRE CARRERAS 51D Y 51A","V","6.26160299","-75.56564889","La Candelaria","70","2031",,,"835294.3105","1184400.1067","POINT (-75.5656488881929 6.261602990878766)"
"Resolución 59581 (08/10/2020)","2020","10","4","W","CARRERA 51 CON CL68 Y 70A","V","6.26593456","-75.56243599","Aranjuez","138","2030",,,"835649.9307","1184879.2377","POINT (-75.56243599351406 6.265934555712136)"
"Resolución 59581 (08/10/2020)","2020","20","10","W","CARRERA 51 CON CL57 Y 58","V","6.25683007","-75.56612458","La Candelaria","137","2029",,,"835241.6569","1183872.1559","POINT (-75.5661245794296 6.25683006601033)"
"Resolución 59581 (08/10/2020)","2020","4","10","E","CARRERA 51 CON CL54 Y 55","V","6.25409172","-75.56713642","La Candelaria","135","2028",,,"835129.6579","1183569.2577","POINT (-75.56713642099338 6.2540917202338795)"
"Resolución 59581 (08/10/2020)","2020","4","10","W","CARRERA 51CON CL 62 CRULLA","V","6.2601004","-75.56496451","La Candelaria","134","2027",,,"835370.0613","1184233.8999","POINT (-75.56496451230349 6.260100403645542)"
"Resolución 59581 (08/10/2020)","2020","10","10","W","CARRERA 50D CON CL 66 Y 67","V","6.26327446","-75.56325265","La Candelaria","133","2026",,,"835559.5405","1184584.9941","POINT (-75.56325264482585 6.263274458100904)"
"Resolución 59581 (08/10/2020)","2020","5","10","W","CARRERA 50A CON LOS N° 64-45 Y N° 64-65","V","6.26147932","-75.56169704","La Candelaria","132","2025",,,"835731.7247","1184386.4279","POINT (-75.56169704110556 6.261479318991443)"
"Resolución 59581 (08/10/2020)","2020","5","14","E","CARRERA 49, VIA DE SERVICIO REGIONAL CON CL7 Y 10","V","6.21183508","-75.5776619","El Poblado","128","2024",,,"833964.5047","1178895.1103","POINT (-75.57766190291474 6.211835075742068)"
"Resolución 59581 (08/10/2020)","2020","24","14","E","CARRERA 49, VIA DE SERVICIO REGIONAL CON CL10","V","6.21240311","-75.57758342","El Poblado","127","2023",,,"833973.1945","1178957.9421","POINT (-75.57758341534881 6.212403106710811)"
"Resolución 59581 (08/10/2020)","2020","3","10","E","CARRERA 49 CON CL58 y 59. SALUDCOOP.","V","6.25587996","-75.56311092","La Candelaria","126","2022",,,"835575.2303","1183767.0615","POINT (-75.56311091880316 6.255879961583568)"
"Resolución 59581 (08/10/2020)","2020","4","10","W","CARRERA 49 CON CL57 Y 57A","V","6.25491772","-75.56381425","La Candelaria","125","2021",,,"835497.3811","1183660.6241","POINT (-75.56381424691384 6.254917719239754)"
"Resolución 59581 (08/10/2020)","2020","3","10","E","CARRERA 49 CON CL50 Y 52","V","6.24951382","-75.56660145","La Candelaria","124","2020",,,"835188.8707","1183062.8785","POINT (-75.56660145172414 6.249513815703272)"
"Resolución 59581 (08/10/2020)","2020","18","14","E","CARRERA 48C CON CL16 SUR y 12 SUR AGUACATALA (VIA DE SERVICIO)","V","6.19291193","-75.58169063","El Poblado","122","2019",,,"833518.4729","1176801.9641","POINT (-75.5816906279145 6.192911935009546)"
"Resolución 59581 (08/10/2020)","2020","18","14","E","CARRERA 48C, VIA DE SERVICIO REGIONAL con CL12 SUR Y 15 SUR","V","6.19388373","-75.58134178","El Poblado","123","2018",,,"833557.0941","1176909.4563","POINT (-75.58134177752727 6.19388372613655)"
"Resolución 59581 (08/10/2020)","2020","10","14","E","CARRERA 48C CON CL 7 SUR EAFFIT","V","6.20843332","-75.57815377","El Poblado","121","2017",,,"833910.0477","1178518.8307","POINT (-75.57815376678793 6.208433318741307)"
"Resolución 59581 (08/10/2020)","2020","7","10","E","CARRERA 48 CON CL32 y 34 (HOSP. GENERAL)","V","6.23459963","-75.57299127","La Candelaria","120","2016",,,"834481.5661","1181413.1719","POINT (-75.57299126639477 6.234599631359691)"
"Resolución 59581 (08/10/2020)","2020","2","14","E","CARRERA 48 VIA D EL SERVICIO No 10SUR-72 SALUD-SURA","V","6.19597488","-75.57864387","El Poblado","119","2015",,,"833855.7589","1177140.7579","POINT (-75.5786438702557 6.195974878820238)"
"Resolución 59581 (08/10/2020)","2020","3","14","W","CARRERA 48 ENTRE CL 10 y 14( MOMTERREY)","V","6.2143952","-75.57629854","El Poblado","118","2014",,,"834115.4307","1179178.2911","POINT (-75.57629853559202 6.214395194838533)"
"Resolución 59581 (08/10/2020)","2020","8","10","W","CARRERA 47  CL52 Y 50","V","6.24904065","-75.56589827","La Candelaria","117","2013",,,"835266.7045","1183010.5393","POINT (-75.56589827230118 6.249040646492696)"
"Resolución 59581 (08/10/2020)","2020","6","10","N","CALLE 41 CON CR 46 Y 45","V","6.24096682","-75.5691767","La Candelaria","39","2012",,,"834903.8127","1182117.4649","POINT (-75.56917669855 6.240966816693269)"
"Resolución 59581 (08/10/2020)","2020","7","10","W","CARRERA 45D ENTRE CL 57 Y 58","V","6.2533773","-75.56147327","La Candelaria","113","2011",,,"835756.4993","1183490.2341","POINT (-75.5614732659577 6.253377303412419)"
"Resolución 59581 (08/10/2020)","2020","6","10","W","CARRERA 45 ENTRE CL 48 Y 49","V","6.24662746","-75.56503925","La Candelaria","112","2010",,,"835361.7885","1182743.6079","POINT (-75.56503924935613 6.246627461823778)"
"Resolución 59581 (08/10/2020)","2020","6","10","W","CARRERA 45 ENTRE CL 47 Y 48","V","6.24584892","-75.56556996","La Candelaria","111","2009",,,"835303.0449","1182657.4909","POINT (-75.56556995622796 6.245848923151248)"
"Resolución 59581 (08/10/2020)","2020","3","14","E","CALLE 19A ENTRE CARRERAS 44 Y 48 (VÍA DE SERVICIO","V","6.22289236","-75.574829","El Poblado","17","2008",,,"834278.1203","1180118.1903","POINT (-75.57482899661122 6.222892356160775)"
"Resolución 59581 (08/10/2020)","2020","3","14","W","CARRERA 43A CON CL 23 CENTRO AUTOMOTRIZ","V","6.22354652","-75.56932956","El Poblado","108","2007",,,"834886.8767","1180190.5409","POINT (-75.56932955544463 6.223546514633437)"
"Resolución 59581 (08/10/2020)","2020","4","10","W","CARRERA 43A No 34-95","V","6.23529971","-75.57038984","La Candelaria","107","2006",,,"834769.5233","1181490.6061","POINT (-75.5703898384628 6.235299706551144)"
"Resolución 59581 (08/10/2020)","2020","4","14","E","CARRERA 43A CON CL 16ASUR","V","6.19011201","-75.57694839","El Poblado","106","2005",,,"834043.4335","1176492.2395","POINT (-75.57694838904831 6.190112008430887)"
"Resolución 59581 (08/10/2020)","2020","4","14","W","CARRERA 43A  CARULLA DE OVIEDO AL SUR DE LA SALIDA","V","6.19722958","-75.57474825","El Poblado","105","2004",,,"834287.0053","1177279.5355","POINT (-75.57474825293436 6.197229580901605)"
"Resolución 59581 (08/10/2020)","2020","8","10","E","CARRERA 43 CON CL 36 (SAN DIEGO)","V","6.23623658","-75.56933167","La Candelaria","103","2003",,,"834886.6549","1181594.2355","POINT (-75.56933166591784 6.236236575124477)"
"Resolución 59581 (08/10/2020)","2020","2","10","E","CARRERA 43 N° 30 – 28 (EPS SURA SAN DIEGO)","V","6.23016993","-75.56867174","La Candelaria","102","2002",,,"834959.6987","1180923.1809","POINT (-75.56867173512141 6.230169930531465)"
"Resolución 59581 (08/10/2020)","2020","8","3","W","CARRERA 42 CONCL 66E y 66F UNIDAD INTERMEDIA HOSPITALARIA MEDELLÍN.","V","6.26245118","-75.55364161","Manrique","100","2001",,,"836623.3459","1184493.9411","POINT (-75.55364161085883 6.262451178800688)"
"Resolución 59581 (08/10/2020)","2020","10","8","W","CARRERA 41 con CL 62 HOSPITAL DEL ROSARIO","V","6.25503553","-75.55629847","Villa Hermosa","99","2000",,,"836329.2823","1183673.6631","POINT (-75.55629847350716 6.255035529145204)"
"Resolución 59581 (08/10/2020)","2020","6","14","W","CARRERA 22 ENTRE CL10 Y 10A","V","6.20845796","-75.55358663","El Poblado","97","1999",,,"836629.5599","1178521.5511","POINT (-75.5535866258465 6.208457958221144)"
"Resolución 59581 (08/10/2020)","2020","6","7","W","AV 80-81 VÍA DE SERVICIO EXITO DE ROBLEDO","V","6.27314208","-75.59341118","Robledo","96","1998",,,"832221.4829","1185676.5735","POINT (-75.59341118133419 6.273142081840255)"
"Resolución 59581 (08/10/2020)","2020","2","16","E","AV 80-81 EXITO LA MOTA VÍA INTERNA","V","6.21826783","-75.59888716","Belén","95","1997",,,"831614.9907","1179606.7655","POINT (-75.59888715567023 6.218267833231963)"
"Resolución 59581 (08/10/2020)","2020","8","12","N","CALLE 37D ENTRE CARRERAS 80 Y 81","V","6.24612549","-75.60282497","La América","31","1996",,,"831179.3159","1182688.2333","POINT (-75.60282496639695 6.246125485624271)"
"Resolución 59581 (08/10/2020)","2020","5","11","E","AV 80 CON CL 37D (ÉXITO LAURELES), VÍA DE SERVICIO.","V","6.24569388","-75.60241451","Laureles Estadio","94","1995",,,"831224.7459","1182640.4885","POINT (-75.60241450735906 6.245693879485673)"
"Resolución 59581 (08/10/2020)","2020","4","16","E","AV. 80-81 CON CL19 y 20 FRENTE A CLINICA SALUDCOOP.","V","6.22530115","-75.59974963","Belén","93","1994",,,"831519.5707","1180384.7525","POINT (-75.59974962668699 6.225301145994958)"
"Resolución 59581 (08/10/2020)","2020","4","16","E","AV. 80-81 CON CL 2A-80, SALIDA CLÍNICA LAS AMÉRICAS.","V","6.21445297","-75.59669556","Belén","92","1993",,,"831857.5647","1179184.7739","POINT (-75.59669555551687 6.214452967012284)"
"Resolución 59581 (08/10/2020)","2020","2","14","S","AV PALMAS CR 37 EN LA ISLA","V","6.21796309","-75.56550315","El Poblado","91","1992",,,"835310.4361","1179572.9357","POINT (-75.56550314940259 6.217963090995637)"
"Resolución 59581 (08/10/2020)","2020","11","15","W","AEROPUERTO OLAYA HERRERA (BAHIA DE LLEGADAS)","V","6.21873946","-75.58636147","Guayabal","90","1991",,,"833001.5249","1179658.8611","POINT (-75.58636146790734 6.218739460457844)"
"Resolución 59581 (08/10/2020)","2020","6","5","S","CALLE 104 CON CR 64C","V","6.30153796","-75.56435705","Castilla","88","1990",,,"835437.2943","1188817.4611","POINT (-75.56435705110698 6.30153795610969)"
"Resolución 59581 (08/10/2020)","2020","6","4","N","CALLE 93 No 49A-16","V","6.28461447","-75.55694946","Aranjuez","86","1989",,,"836257.1773","1186945.4983","POINT (-75.55694945559814 6.284614471026391)"
"Resolución 59581 (08/10/2020)","2020","5","5","S","CALLE 92EE ENTRE CARRERAS 68 y 68A  HOSPITAL LA MARIA","V","6.28659485","-75.57389911","Castilla","85","1988",,,"834381.1743","1187164.5573","POINT (-75.57389910756969 6.286594850336694)"
"Resolución 59581 (08/10/2020)","2020","6","5","S","CALLE 84 CON CR 65 y 66","V","6.28050263","-75.57298829","Castilla","84","1987",,,"834481.9743","1186490.6725","POINT (-75.57298828562112 6.280502629019264)"
"Resolución 59581 (08/10/2020)","2020","5","7","S","CALLE 80  N° 92-158","V","6.29010721","-75.59197","Robledo","83","1986",,,"832381.0947","1187553.1409","POINT (-75.59197000304437 6.290107211223982)"
"Resolución 59581 (08/10/2020)","2020","5","7","S","CALLE 78B  CON CR 72","V","6.27681023","-75.58106166","Robledo","80","1985",,,"833588.3849","1186082.2625","POINT (-75.5810616555869 6.276810224521299)"
"Resolución 59581 (08/10/2020)","2020","4","7","S","CALLE 76 No. 80-129 ESUMER","V","6.27699354","-75.59091045","Robledo","77","1984",,,"832498.2935","1186102.5835","POINT (-75.59091045359311 6.276993542193751)"
"Resolución 59581 (08/10/2020)","2020","6","7","S","CALLE 78B  CON CLINICA CRDIOVASCULAR","V","6.27979795","-75.58404607","Robledo","79","1983",,,"833258.0735","1186412.7573","POINT (-75.58404607164339 6.27979795332052)"
"Resolución 59581 (08/10/2020)","2020","4","7","N","CALLE 75 CON CR 69 y 70 LOMAR DEL PILAR.","V","6.27485343","-75.57910926","Robledo","76","1982",,,"833804.4755","1185865.8077","POINT (-75.57910926099923 6.274853427373969)"
"Resolución 59581 (08/10/2020)","2020","4","4","N","CALLE 72A CON CR 48A y 49","V","6.26781897","-75.55842113","Aranjuez","75","1981",,,"836094.3135","1185087.6833","POINT (-75.55842113110081 6.267818968224222)"
"Resolución 59581 (08/10/2020)","2020","4","4","N","CALLE 67 CON CR 56 U. DE ANTIOQUIA","V","6.26492676","-75.5692841","Aranjuez","74","1980",,,"834891.9463","1184767.7629","POINT (-75.56928410227258 6.2649267583731785)"
"Resolución 59581 (08/10/2020)","2020","6","8","S","CALLE 66 CON CR 39A Y 40, PARQUE VILLA HERMOSA.","V","6.2585384","-75.55208977","Villa Hermosa","73","1979",,,"836795.1231","1184061.1383","POINT (-75.55208977099416 6.258538402228903)"
"Resolución 59581 (08/10/2020)","2020","3","7","N","CALLE 65 CON CR 69 Y 70","V","6.26203912","-75.5839968","Robledo","72","1978",,,"833263.4557","1184448.3863","POINT (-75.58399679753286 6.262039115761093)"
"Resolución 59581 (08/10/2020)","2020","10","10","S","CALLE 64 CON CR 51D Y 52","V","6.2617577","-75.56637369","La Candelaria","69","1977",,,"835214.0847","1184417.2203","POINT (-75.56637369398491 6.261757704341333)"
"Resolución 59581 (08/10/2020)","2020","3","8","S","CALLE 63 CON CR 41","V","6.25568436","-75.55622185","Villa Hermosa","68","1976",,,"836337.7627","1183745.4329","POINT (-75.55622184703837 6.255684360697852)"
"Resolución 59581 (08/10/2020)","2020","5","7","E","UNIVERSIDAD NACIONAL, LAZO NOR-ORIENTAL (ADELANTE PORTERIA CARRERA 65)","V","6.26081274","-75.5796564","Robledo","66","1975",,,"833743.8727","1184312.7173","POINT (-75.57965639996574 6.260812743404911)"
"Resolución 59581 (08/10/2020)","2020","4","10","N","CALLE 56 CON CR 50 y 51","V","6.25480879","-75.56604372","La Candelaria","62","1974",,,"835250.6065","1183648.5745","POINT (-75.56604371995995 6.254808785001186)"
"Resolución 59581 (08/10/2020)","2020","12","10","N","CALLE 55 CON CR 57 y 57A PLAZA MINORISTA.","V","6.25661321","-75.57337158","La Candelaria","61","1973",,,"834439.5079","1183848.1757","POINT (-75.5733715789323 6.256613206947961)"
"Resolución 59581 (08/10/2020)","2020","7","10","N","CALLE 54  FRENTE No 38-43 3, PARQUE DE BOSTON.","V","6.24779698","-75.55783203","La Candelaria","60","1972",,,"836159.5483","1182872.9783","POINT (-75.55783202452065 6.247796984053141)"
"Resolución 59581 (08/10/2020)","2020","7","10","S","CALLE 53 CONCR 50 Y 51","V","6.25266933","-75.56720584","La Candelaria","59","1971",,,"835121.9737","1183411.9213","POINT (-75.56720583715429 6.252669324751047)"
"Resolución 59581 (08/10/2020)","2020","6","10","S","CALLE 50 CON CR 47 Y 49","V","6.24876788","-75.56642602","La Candelaria","58","1970",,,"835208.2889","1182980.3675","POINT (-75.56642601854885 6.2487678779304705)"
"Resolución 59581 (08/10/2020)","2020","4","10","S","CALLE 50 CON CR 45 Y 46","V","6.24795653","-75.56469821","La Candelaria","57","1969",,,"835399.5375","1182890.6205","POINT (-75.56469821271958 6.247956524978397)"
"Resolución 59581 (08/10/2020)","2020","4","9","S","CALLE 50 CON CR 31 Y 32","V","6.24203923","-75.55361032","Buenos Aires","56","1968",,,"836626.8575","1182236.1005","POINT (-75.55361032225122 6.242039235357078)"
"Resolución 59581 (08/10/2020)","2020","4","12","N","CALLE 49E CON CR 83A  JUNTO A CRA 86","V","6.26415921","-75.60338469","La América","55","1967",,,"831117.5065","1184683.0143","POINT (-75.60338469046079 6.264159205230248)"
"Resolución 59581 (08/10/2020)","2020","8","11","S","CALLE 49B CON CR 66 Y 67 ÉXITO DE COLOMBIA","V","6.25626894","-75.58281221","Laureles Estadio","54","1966",,,"833394.5509","1183810.1209","POINT (-75.58281221151218 6.256268937396408)"
"Resolución 59581 (08/10/2020)","2020","5","9","N","CALLE 49 CON CR 20","V","6.23839019","-75.54787","Buenos Aires","53","1965",,,"837262.2671","1181832.4827","POINT (-75.5478700027652 6.238390186392337)"
"Resolución 59581 (08/10/2020)","2020","5","10","S","CALLE 48 CON CR 54 y 55.","V","6.24933664","-75.57266315","La Candelaria","51","1964",,,"834517.9101","1183043.2859","POINT (-75.57266314824071 6.249336634859001)"
"Resolución 59581 (08/10/2020)","2020","18","10","S","CALLE 48 CON CR 47 Y 49","V","6.24730681","-75.56728035","La Candelaria","50","1963",,,"835113.7233","1182818.7537","POINT (-75.56728035030834 6.247306809853673)"
"Resolución 59581 (08/10/2020)","2020","5","10","N","CALLE 48 CON CR 43 Y 44","V","6.24562408","-75.56417002","La Candelaria","49","1962",,,"835458.0025","1182632.6201","POINT (-75.56417002363848 6.245624079356829)"
"Resolución 59581 (08/10/2020)","2020","4","10","N","CALLE 48  FRENTE A No 42-14","V","6.24500765","-75.56295095","La Candelaria","48","1961",,,"835592.9415","1182564.4349","POINT (-75.56295094749447 6.245007649960211)"
"Resolución 59581 (08/10/2020)","2020","6","12","S","CALLE 47DD CON CR 86","V","6.25845291","-75.60359837","La América","47","1960",,,"831093.8083","1184051.8213","POINT (-75.60359837426425 6.258452907471944)"
"Resolución 59581 (08/10/2020)","2020","8","11","N","CALLE 47D CON CR 65 Y 67, CARREFOUR.","V","6.25300307","-75.58360577","Laureles Estadio","46","1959",,,"833306.7015","1183448.8747","POINT (-75.58360576857358 6.25300307399748)"
"Resolución 59581 (08/10/2020)","2020","5","10","S","CALLE 46 CON CR 51 Y 52","V","6.24739872","-75.57018899","La Candelaria","45","1958",,,"834791.7685","1182828.9229","POINT (-75.57018899438683 6.247398723004324)"
"Resolución 59581 (08/10/2020)","2020","8","13","N","CALLE 45 CON CR 99 Y 100","V","6.25729655","-75.61516458","San Javier","44","1957",,,"829813.5715","1183924.0199","POINT (-75.61516457940797 6.257296547397316)"
"Resolución 59581 (08/10/2020)","2020","3","10","N","CALLE 45 CON CR 51 Y 52","V","6.24604949","-75.57071228","La Candelaria","43","1956",,,"834733.8445","1182679.6793","POINT (-75.57071228359716 6.246049485029488)"
"Resolución 59581 (08/10/2020)","2020","8","11","N","CALLE 44 CON CR 65 Y 67, MAKRO.","V","6.24904159","-75.58477632","Laureles Estadio","41","1955",,,"833177.1195","1183010.6853","POINT (-75.58477631704312 6.2490415925509195)"
"Resolución 59581 (08/10/2020)","2020","15","10","N","CALLE 42 CON CR 57A Y 58","V","6.24395193","-75.57727056","La Candelaria","40","1954",,,"834007.9085","1182447.6733","POINT (-75.57727055783744 6.24395192833152)"
"Resolución 59581 (08/10/2020)","2020","8","10","N","CALLE 41 CON CR 57A y 62.CIC.","V","6.24232859","-75.57726125","La Candelaria","38","1953",,,"834008.9347","1182268.1101","POINT (-75.57726124877549 6.242328592623037)"
"Resolución 59581 (08/10/2020)","2020","5","13","S","CALLE 40 CON 108 UNIDAD INTERMEDIA SAN JAVIER","V","6.25451868","-75.62034469","San Javier","36","1952",,,"829240.1687","1183616.8071","POINT (-75.62034469012218 6.254518679965948)"
"Resolución 59581 (08/10/2020)","2020","4","11","S","CALLE 38A No 80-72","V","6.24640999","-75.60020255","Laureles Estadio","34","1951",,,"831469.5913","1182719.6829","POINT (-75.6002025500718 6.246409986845062)"
"Resolución 59581 (08/10/2020)","2020","4","10","N","CALLE 38 CON CR 45 Y 44 (ACOPIO TAXIS AL AEROPUERTO JOSE MARIA CORDOBA)","V","6.23803464","-75.56973107","La Candelaria","33","1950",,,"834842.4465","1181793.1261","POINT (-75.56973106693415 6.238034636336878)"
"Resolución 59581 (08/10/2020)","2020","4","12","N","CALLE 38 No94-40 POBLADO SANTA MONICA","V","6.25145019","-75.61411961","La América","32","1949",,,"829929.1759","1183277.3213","POINT (-75.61411960535546 6.251450185844861)"
"Resolución 59581 (08/10/2020)","2020","4","10","E","CARRERA 46 ENTRE CALLES 38 Y 37","V","6.23810908","-75.57027291","La Candelaria","114","1948",,,"834782.4691","1181801.3609","POINT (-75.57027291327641 6.238109077556206)"
"Resolución 59581 (08/10/2020)","2020","10","11","N","CALLE 34B CON CL 34 Y DIAGONAL 74B (UNICENTRO)","V","6.24098243","-75.5862238","Laureles Estadio","28","1947",,,"833016.8631","1182119.2377","POINT (-75.5862238033895 6.240982429702476)"
"Resolución 59581 (08/10/2020)","2020","5","11","S","CALLE 34A CON DIAGONAL 74B Y CARRERA 66A (UNICENTRO) SALIDA CEBRA DE ÉXITO","V","6.23999521","-75.58709071","Laureles Estadio","29","1946",,,"832920.8999","1182010.0411","POINT (-75.58709071382572 6.239995205225402)"
"Resolución 59581 (08/10/2020)","2020","10","11","S","CALLE 34A CON DIAGONAL 74B Y CARRERA 66A (UNICENTRO) LLEGANDO A AV BOLIVARIANA","V","6.24055723","-75.58788938000001","Laureles Estadio","30","1945",,,"832832.4983","1182072.2125","POINT (-75.58788937572889 6.240557229763157)"
"Resolución 59581 (08/10/2020)","2020","4","16","S","CALLE 32  No 81 -04 VILLA DEL ABURRA","V","6.23543257","-75.60249909","Belén","26","1944",,,"831215.3029","1181505.4477","POINT (-75.6024990864617 6.23543256982604)"
"Resolución 59581 (08/10/2020)","2020","5","16","S","CALLE 31A  ENTRE 82B Y 82C","V","6.23381725","-75.60383288","Belén","25","1943",,,"831067.6503","1181326.7821","POINT (-75.60383287832056 6.233817251861447)"
"Resolución 59581 (08/10/2020)","2020","8","16","S","CALLE 28 CON CR 85","V","6.22950918","-75.60846859","Belén","21","1942",,,"830554.4751","1180850.2905","POINT (-75.60846859401298 6.229509180767112)"
"Resolución 59581 (08/10/2020)","2020","3","16","N","CALLE 9 CON CR 71 y 71A","V","6.21688521","-75.59494651","Belén","10","1941",,,"832051.1927","1179453.8023","POINT (-75.59494650476731 6.21688521304661)"
"Resolución 59581 (08/10/2020)","2020","3","16","N","CALLE 7 No 80-100 LOMA DE LOS BERNAL","V","6.21836605","-75.60099625","Belén","9","1940",,,"831381.5251","1179617.6451","POINT (-75.60099624967265 6.21836604982097)"
"Resolución 59581 (08/10/2020)","2020","5","16","N","CALLE 1C ENTRE CARRERAS  77A Y 78","V","6.21252038","-75.60111198","Belén","2","1939",,,"831368.6697","1178971.0343","POINT (-75.6011119832734 6.212520375590997)"
"Resolución 59581 (08/10/2020)","2020","6","16","S","CALLE 1 SUR CON CR 79","V","6.2107448","-75.6016945","Belén","1","1938",,,"831304.1733","1178774.6359","POINT (-75.60169450279378 6.2107448012022575)"
"Resolución 59581 (08/10/2020)","2020","7","10","N","CALLE 34 CON CR 43 Y 43A","V","6.23472996","-75.56980165","La Candelaria","27","1937",,,"834834.6299","1181427.5839","POINT (-75.56980165259758 6.234729961977467)"
"Resolución 59581 (08/10/2020)","2020","6","14","S","CALLE 29 CON CR 46 (CENTRO COMERCIAL)","V","6.23035592","-75.57354342","El Poblado","23","1936",,,"834420.4393","1180943.7599","POINT (-75.57354342269296 6.230355916954731)"
"Resolución 59581 (08/10/2020)","2020","10","15","S","CALLE 28 CON CR 65E Y 66B","V","6.22910328","-75.58467571","Guayabal","22","1935",,,"833188.1731","1180805.2347","POINT (-75.58467570706468 6.229103283823714)"
"Resolución 59581 (08/10/2020)","2020","5","16","S","CALLE 25 CON CR 72 y 73","V","6.22646448","-75.59357983","Belén","20","1934",,,"832202.5345","1180513.3921","POINT (-75.59357983255707 6.226464480160924)"
"Resolución 59581 (08/10/2020)","2020","6","16","S","CALLE 24 CON N° 70A-23 y 70A-39","V","6.22490946","-75.59244553","Belén","19","1933",,,"832328.0851","1180341.3791","POINT (-75.59244553181993 6.224909462057689)"
"Resolución 59581 (08/10/2020)","2020","5","16","S","CALLE 20A No 78-18","V","6.22539263","-75.5990881","Belén","18","1932",,,"831592.7983","1180394.8669","POINT (-75.59908809850866 6.225392628229606)"
"Resolución 59581 (08/10/2020)","2020","5","16","N","CALLE 18 CON  CR 84C Y 84F","V","6.22209819","-75.60822811","Belén","16","1931",,,"830581.0275","1180030.5309","POINT (-75.60822811166662 6.222098187526884)"
"Resolución 59581 (08/10/2020)","2020","6","15","S","CALLE 14 con CR 51 Y 52","V","6.21730305","-75.57969685","Guayabal","14","1930",,,"833739.2599","1179499.9489","POINT (-75.57969685312297 6.2173030484533465)"
"Resolución 59581 (08/10/2020)","2020","6","14","N","CALLE 14 CON CR 48 y 49 MONTERREY","V","6.21506284","-75.57660969","El Poblado","12","1929",,,"834080.9889","1179252.1423","POINT (-75.57660968927651 6.215062837659021)"
"Resolución 59581 (08/10/2020)","2020","29","15","S","CALLE 10 CON CR 65 y 67 (TERMINAL DEL SUR)","V","6.21740253","-75.58799574","Guayabal","11","1928",,,"832820.6123","1179510.9859","POINT (-75.58799574371582 6.21740252993456)"
"Resolución 59581 (08/10/2020)","2020","5","16","W","CARRERA 70 CON CALLE 3 URGENCIA COOMEVA","V","6.21383286","-75.59389843","Belén","172","1927",,,"832167.1911","1179116.1639","POINT (-75.5938984310875 6.213832861497695)"
"Resolución 59581 (08/10/2020)","2020","3","14","S","CALLE 2 SUR ENTRE CR 46 y 48 UNIDAD MEDICA LAS VEGAS","V","6.20358862","-75.57635073","El Poblado","3","1926",,,"834109.6273","1177982.9357","POINT (-75.57635072842872 6.203588617719205)"
"Resolución 59581 (08/10/2020)","2020","6","15","S","CALLE 6 SUR No 50EE-86","V","6.20243321","-75.58355121","Guayabal","4","1925",,,"833312.5425","1177855.1547","POINT (-75.58355121270428 6.202433211693265)"
"Resolución 59581 (08/10/2020)","2020","5","16","S","CALLE 9 SUR CON CR 83AA Y 84","V","6.20392929","-75.60676169","Belén","5","1924",,,"830743.1927","1178020.7885","POINT (-75.60676169302569 6.203929287681945)"
"Resolución 59581 (08/10/2020)","2020","4","15","N","CALLE 9C SUR N° 50 FF - 116EPS NUEVA","V","6.20055846","-75.58560825","Guayabal","8","1923",,,"833084.8239","1177647.7897","POINT (-75.58560824797392 6.200558457617009)"
"Resolución 59581 (08/10/2020)","2020","3","15","S","CALLE 11  SUR CON CR 50C","V","6.19597371","-75.58293042","Guayabal","6","1922",,,"833381.2387","1177140.6425","POINT (-75.58293042231864 6.195973706366074)"
"Resolución 59581 (08/10/2020)","2020","4","14","N","CARRERA 43A ENTRE CALLES 18SUR Y Y 21","V","6.18407143","-75.57966191","El Poblado","7","1921",,,"833743.0251","1175824.0765","POINT (-75.57966191411028 6.184071431102579)"
