"departamento_prestacion","municipio_prestacion","servicio","estado","nombre","departamento_domicilio","municipio_domicilio","direccion","telefono","email","tipo_inscripcion","representante_legal","tipo_prestador","clasificacion"
"SANTANDER","BUCARAMANGA","ACUEDUCTO","OPERATIVA","ACUEDUCTO METROPOLITANO DE BUCARAMANGA S. A. E.S.P.","SANTANDER","BUCARAMANGA","DIAGONAL 32 No. 30A - 51 PARQUE DEL AGUA","6320220","contabilidad.jefe@amb.com.co","Registro por la ESP","HERNAN CLAVIJO GRANADOS","SOCIEDADES (EMPRESA DE SERVICIOS PUBLICOS)","MAYOR O IGUAL A 5001 USUARIOS"
"SANTANDER","FLORIDABLANCA","ACUEDUCTO","OPERATIVA","ACUEDUCTO METROPOLITANO DE BUCARAMANGA S. A. E.S.P.","SANTANDER","BUCARAMANGA","DIAGONAL 32 No. 30A - 51 PARQUE DEL AGUA","6320220","contabilidad.jefe@amb.com.co","Registro por la ESP","HERNAN CLAVIJO GRANADOS","SOCIEDADES (EMPRESA DE SERVICIOS PUBLICOS)","MAYOR O IGUAL A 5001 USUARIOS"
"SANTANDER","GIRON","ACUEDUCTO","OPERATIVA","ACUEDUCTO METROPOLITANO DE BUCARAMANGA S. A. E.S.P.","SANTANDER","BUCARAMANGA","DIAGONAL 32 No. 30A - 51 PARQUE DEL AGUA","6320220","contabilidad.jefe@amb.com.co","Registro por la ESP","HERNAN CLAVIJO GRANADOS","SOCIEDADES (EMPRESA DE SERVICIOS PUBLICOS)","MAYOR O IGUAL A 5001 USUARIOS"
"SANTANDER","BETULIA","ACUEDUCTO","OPERATIVA","UNIDAD ADMINISTRADORA DE SERVICIOS PUBLICOS DE ACUEDUCTO ALCANTARILLADO Y ASEO DE BETULIA","SANTANDER","BETULIA","Carrera 5  No 5 -35","6259220","leydy8407@hotmail.com","Registro por la ESP","ANGEL MIRO  MELO OROSTEGUI","MUNICIPIO (PRESTACIÓN DIRECTA)","MENOR O IGUAL A 2500 USUARIOS"
"SANTANDER","BETULIA","ALCANTARILLADO","OPERATIVA","UNIDAD ADMINISTRADORA DE SERVICIOS PUBLICOS DE ACUEDUCTO ALCANTARILLADO Y ASEO DE BETULIA","SANTANDER","BETULIA","Carrera 5  No 5 -35","6259220","leydy8407@hotmail.com","Registro por la ESP","ANGEL MIRO  MELO OROSTEGUI","MUNICIPIO (PRESTACIÓN DIRECTA)","MENOR O IGUAL A 2500 USUARIOS"
"SANTANDER","BETULIA","ASEO","OPERATIVA","UNIDAD ADMINISTRADORA DE SERVICIOS PUBLICOS DE ACUEDUCTO ALCANTARILLADO Y ASEO DE BETULIA","SANTANDER","BETULIA","Carrera 5  No 5 -35","6259220","leydy8407@hotmail.com","Registro por la ESP","ANGEL MIRO  MELO OROSTEGUI","MUNICIPIO (PRESTACIÓN DIRECTA)","MENOR O IGUAL A 2500 USUARIOS"
"SANTANDER","CAPITANEJO","ACUEDUCTO","OPERATIVA","UNIDAD ADMINISTRADORA DE LOS  SERVICIOS PUBLICOS DE ACUEDUCTO, ALACANTARILLADO Y ASEO DEL MUNICIPIO DE CAPITANEJO","SANTANDER","CAPITANEJO","Calle 5 No. 5-48","6600032","serviciospublcos@capitanejo-santander.gov.co","Registro por la ESP","EDUARDO MARTINEZ SILVA","MUNICIPIO (PRESTACIÓN DIRECTA)","MENOR O IGUAL A 2500 USUARIOS"
"SANTANDER","CAPITANEJO","ALCANTARILLADO","OPERATIVA","UNIDAD ADMINISTRADORA DE LOS  SERVICIOS PUBLICOS DE ACUEDUCTO, ALACANTARILLADO Y ASEO DEL MUNICIPIO DE CAPITANEJO","SANTANDER","CAPITANEJO","Calle 5 No. 5-48","6600032","serviciospublcos@capitanejo-santander.gov.co","Registro por la ESP","EDUARDO MARTINEZ SILVA","MUNICIPIO (PRESTACIÓN DIRECTA)","MENOR O IGUAL A 2500 USUARIOS"
"SANTANDER","CAPITANEJO","ASEO","OPERATIVA","UNIDAD ADMINISTRADORA DE LOS  SERVICIOS PUBLICOS DE ACUEDUCTO, ALACANTARILLADO Y ASEO DEL MUNICIPIO DE CAPITANEJO","SANTANDER","CAPITANEJO","Calle 5 No. 5-48","6600032","serviciospublcos@capitanejo-santander.gov.co","Registro por la ESP","EDUARDO MARTINEZ SILVA","MUNICIPIO (PRESTACIÓN DIRECTA)","MENOR O IGUAL A 2500 USUARIOS"
"SANTANDER","EL GUACAMAYO","ACUEDUCTO","OPERATIVA","EMPRESA MUNICIPAL DE SERVICIOS PUBLICOS DOMICILIARIOS DE ACUEDUCTO, ALCANTARILLADO Y ASEO EN LA CABECERA MUNICIPAL DEL MUNICIPIO DE EL GUACAMAYO","SANTANDER","EL GUACAMAYO","CALLE 5 No. 5 - 62","7274281","asesorasui@yahoo.com","Registro por la ESP","JORGE EDUARDO CRUZ ORTIZ","MUNICIPIO (PRESTACIÓN DIRECTA)","MENOR O IGUAL A 2500 USUARIOS"
"SANTANDER","EL GUACAMAYO","ALCANTARILLADO","OPERATIVA","EMPRESA MUNICIPAL DE SERVICIOS PUBLICOS DOMICILIARIOS DE ACUEDUCTO, ALCANTARILLADO Y ASEO EN LA CABECERA MUNICIPAL DEL MUNICIPIO DE EL GUACAMAYO","SANTANDER","EL GUACAMAYO","CALLE 5 No. 5 - 62","7274281","asesorasui@yahoo.com","Registro por la ESP","JORGE EDUARDO CRUZ ORTIZ","MUNICIPIO (PRESTACIÓN DIRECTA)","MENOR O IGUAL A 2500 USUARIOS"
"SANTANDER","EL GUACAMAYO","ASEO","OPERATIVA","EMPRESA MUNICIPAL DE SERVICIOS PUBLICOS DOMICILIARIOS DE ACUEDUCTO, ALCANTARILLADO Y ASEO EN LA CABECERA MUNICIPAL DEL MUNICIPIO DE EL GUACAMAYO","SANTANDER","EL GUACAMAYO","CALLE 5 No. 5 - 62","7274281","asesorasui@yahoo.com","Registro por la ESP","JORGE EDUARDO CRUZ ORTIZ","MUNICIPIO (PRESTACIÓN DIRECTA)","MENOR O IGUAL A 2500 USUARIOS"
"SANTANDER","GUEPSA","ACUEDUCTO","OPERATIVA","CORPORACION DE SERVICIOS DE ACUEDUCTO Y ALCANTARILLADO DEL MUNICIPIO DE GUEPSA","SANTANDER","GUEPSA","PLANTA DE TRATAMIENTO VIA A VEREDA EL PLATANAL","7583327","corpoguepsa@gmail.com","Registro por la ESP","MILTON FORERO MORA","ORGANIZACION AUTORIZADA","MENOR O IGUAL A 2500 USUARIOS"
"SANTANDER","GUEPSA","ALCANTARILLADO","OPERATIVA","CORPORACION DE SERVICIOS DE ACUEDUCTO Y ALCANTARILLADO DEL MUNICIPIO DE GUEPSA","SANTANDER","GUEPSA","PLANTA DE TRATAMIENTO VIA A VEREDA EL PLATANAL","7583327","corpoguepsa@gmail.com","Registro por la ESP","MILTON FORERO MORA","ORGANIZACION AUTORIZADA","MENOR O IGUAL A 2500 USUARIOS"
"SANTANDER","MATANZA","ACUEDUCTO","OPERATIVA","UNIDAD DE SERVICIOS PUBLICOS DE MATANZA","SANTANDER","MATANZA","Carrera 5   No 5-85","6298300","usp@matanza-santander.gov.co","Registro por la ESP","CESAR ARMANDO LOZADA DURAN","MUNICIPIO (PRESTACIÓN DIRECTA)","MENOR O IGUAL A 2500 USUARIOS"
"SANTANDER","MATANZA","ALCANTARILLADO","OPERATIVA","UNIDAD DE SERVICIOS PUBLICOS DE MATANZA","SANTANDER","MATANZA","Carrera 5   No 5-85","6298300","usp@matanza-santander.gov.co","Registro por la ESP","CESAR ARMANDO LOZADA DURAN","MUNICIPIO (PRESTACIÓN DIRECTA)","MENOR O IGUAL A 2500 USUARIOS"
"SANTANDER","MATANZA","ASEO","OPERATIVA","UNIDAD DE SERVICIOS PUBLICOS DE MATANZA","SANTANDER","MATANZA","Carrera 5   No 5-85","6298300","usp@matanza-santander.gov.co","Registro por la ESP","CESAR ARMANDO LOZADA DURAN","MUNICIPIO (PRESTACIÓN DIRECTA)","MENOR O IGUAL A 2500 USUARIOS"
"SANTANDER","RIONEGRO","ACUEDUCTO","OPERATIVA","EMPRESA DE SERVICIOS VARIOS DEL MUNICIPIO DE RIONEGRO -SANTANDER-","SANTANDER","RIONEGRO","calle 11 numero 9-11","6188386","emserviresp@hotmail.com","Registro por la ESP","DIEGO FERNANDO FRANCO HURTADO","EMPRESA INDUSTRIAL Y COMERCIAL DEL ESTADO","MENOR O IGUAL A 2500 USUARIOS"
"SANTANDER","RIONEGRO","ALCANTARILLADO","OPERATIVA","EMPRESA DE SERVICIOS VARIOS DEL MUNICIPIO DE RIONEGRO -SANTANDER-","SANTANDER","RIONEGRO","calle 11 numero 9-11","6188386","emserviresp@hotmail.com","Registro por la ESP","DIEGO FERNANDO FRANCO HURTADO","EMPRESA INDUSTRIAL Y COMERCIAL DEL ESTADO","MENOR O IGUAL A 2500 USUARIOS"
"SANTANDER","RIONEGRO","ASEO","OPERATIVA","EMPRESA DE SERVICIOS VARIOS DEL MUNICIPIO DE RIONEGRO -SANTANDER-","SANTANDER","RIONEGRO","calle 11 numero 9-11","6188386","emserviresp@hotmail.com","Registro por la ESP","DIEGO FERNANDO FRANCO HURTADO","EMPRESA INDUSTRIAL Y COMERCIAL DEL ESTADO","MENOR O IGUAL A 2500 USUARIOS"
"SANTANDER","LEBRIJA","ACUEDUCTO","OPERATIVA","EMPRESA DE SERVICIOS PUBLICOS DOMICILIARIOS DE LEBRIJA E.S.P.","SANTANDER","LEBRIJA","calle 10 nro 9-73 centro de lebrija","6567828","secretariagral@empulebrija.gov.co","Registro por la ESP","LUIS FERNANDO  MANOSALVA VARGAS","EMPRESA INDUSTRIAL Y COMERCIAL DEL ESTADO","MAYOR O IGUAL A 5001 USUARIOS"
"SANTANDER","LEBRIJA","ALCANTARILLADO","OPERATIVA","EMPRESA DE SERVICIOS PUBLICOS DOMICILIARIOS DE LEBRIJA E.S.P.","SANTANDER","LEBRIJA","calle 10 nro 9-73 centro de lebrija","6567828","secretariagral@empulebrija.gov.co","Registro por la ESP","LUIS FERNANDO  MANOSALVA VARGAS","EMPRESA INDUSTRIAL Y COMERCIAL DEL ESTADO","MAYOR O IGUAL A 5001 USUARIOS"
"SANTANDER","LEBRIJA","ASEO","OPERATIVA","EMPRESA DE SERVICIOS PUBLICOS DOMICILIARIOS DE LEBRIJA E.S.P.","SANTANDER","LEBRIJA","calle 10 nro 9-73 centro de lebrija","6567828","secretariagral@empulebrija.gov.co","Registro por la ESP","LUIS FERNANDO  MANOSALVA VARGAS","EMPRESA INDUSTRIAL Y COMERCIAL DEL ESTADO","MAYOR O IGUAL A 5001 USUARIOS"
"SANTANDER","SAN GIL","ACUEDUCTO","OPERATIVA","ACUASAN E.I.C.E  E.S.P","SANTANDER","SAN GIL","KM 1 VIA AL AEROPUERTO","7242590","celsodiaz09@hotmail.com","Registro por la ESP","LUIS FRANCISCO RUIZ CEDIEL","EMPRESA INDUSTRIAL Y COMERCIAL DEL ESTADO","MAYOR O IGUAL A 5001 USUARIOS"
"SANTANDER","SAN GIL","ALCANTARILLADO","OPERATIVA","ACUASAN E.I.C.E  E.S.P","SANTANDER","SAN GIL","KM 1 VIA AL AEROPUERTO","7242590","celsodiaz09@hotmail.com","Registro por la ESP","LUIS FRANCISCO RUIZ CEDIEL","EMPRESA INDUSTRIAL Y COMERCIAL DEL ESTADO","MAYOR O IGUAL A 5001 USUARIOS"
"SANTANDER","ARATOCA","ASEO","OPERATIVA","ACUASAN E.I.C.E  E.S.P","SANTANDER","SAN GIL","KM 1 VIA AL AEROPUERTO","7242590","celsodiaz09@hotmail.com","Registro por la ESP","LUIS FRANCISCO RUIZ CEDIEL","EMPRESA INDUSTRIAL Y COMERCIAL DEL ESTADO","MAYOR O IGUAL A 5001 USUARIOS"
"SANTANDER","CABRERA","ASEO","OPERATIVA","ACUASAN E.I.C.E  E.S.P","SANTANDER","SAN GIL","KM 1 VIA AL AEROPUERTO","7242590","celsodiaz09@hotmail.com","Registro por la ESP","LUIS FRANCISCO RUIZ CEDIEL","EMPRESA INDUSTRIAL Y COMERCIAL DEL ESTADO","MAYOR O IGUAL A 5001 USUARIOS"
"SANTANDER","CHARALA","ASEO","OPERATIVA","ACUASAN E.I.C.E  E.S.P","SANTANDER","SAN GIL","KM 1 VIA AL AEROPUERTO","7242590","celsodiaz09@hotmail.com","Registro por la ESP","LUIS FRANCISCO RUIZ CEDIEL","EMPRESA INDUSTRIAL Y COMERCIAL DEL ESTADO","MAYOR O IGUAL A 5001 USUARIOS"
"SANTANDER","CHIMA","ASEO","OPERATIVA","ACUASAN E.I.C.E  E.S.P","SANTANDER","SAN GIL","KM 1 VIA AL AEROPUERTO","7242590","celsodiaz09@hotmail.com","Registro por la ESP","LUIS FRANCISCO RUIZ CEDIEL","EMPRESA INDUSTRIAL Y COMERCIAL DEL ESTADO","MAYOR O IGUAL A 5001 USUARIOS"
"SANTANDER","CHIPATA","ASEO","OPERATIVA","ACUASAN E.I.C.E  E.S.P","SANTANDER","SAN GIL","KM 1 VIA AL AEROPUERTO","7242590","celsodiaz09@hotmail.com","Registro por la ESP","LUIS FRANCISCO RUIZ CEDIEL","EMPRESA INDUSTRIAL Y COMERCIAL DEL ESTADO","MAYOR O IGUAL A 5001 USUARIOS"
"SANTANDER","CONFINES","ASEO","OPERATIVA","ACUASAN E.I.C.E  E.S.P","SANTANDER","SAN GIL","KM 1 VIA AL AEROPUERTO","7242590","celsodiaz09@hotmail.com","Registro por la ESP","LUIS FRANCISCO RUIZ CEDIEL","EMPRESA INDUSTRIAL Y COMERCIAL DEL ESTADO","MAYOR O IGUAL A 5001 USUARIOS"
"SANTANDER","CONTRATACION","ASEO","OPERATIVA","ACUASAN E.I.C.E  E.S.P","SANTANDER","SAN GIL","KM 1 VIA AL AEROPUERTO","7242590","celsodiaz09@hotmail.com","Registro por la ESP","LUIS FRANCISCO RUIZ CEDIEL","EMPRESA INDUSTRIAL Y COMERCIAL DEL ESTADO","MAYOR O IGUAL A 5001 USUARIOS"
"SANTANDER","EL GUACAMAYO","ASEO","OPERATIVA","ACUASAN E.I.C.E  E.S.P","SANTANDER","SAN GIL","KM 1 VIA AL AEROPUERTO","7242590","celsodiaz09@hotmail.com","Registro por la ESP","LUIS FRANCISCO RUIZ CEDIEL","EMPRESA INDUSTRIAL Y COMERCIAL DEL ESTADO","MAYOR O IGUAL A 5001 USUARIOS"
"SANTANDER","FLORIAN","ASEO","OPERATIVA","ACUASAN E.I.C.E  E.S.P","SANTANDER","SAN GIL","KM 1 VIA AL AEROPUERTO","7242590","celsodiaz09@hotmail.com","Registro por la ESP","LUIS FRANCISCO RUIZ CEDIEL","EMPRESA INDUSTRIAL Y COMERCIAL DEL ESTADO","MAYOR O IGUAL A 5001 USUARIOS"
"SANTANDER","GAMBITA","ASEO","OPERATIVA","ACUASAN E.I.C.E  E.S.P","SANTANDER","SAN GIL","KM 1 VIA AL AEROPUERTO","7242590","celsodiaz09@hotmail.com","Registro por la ESP","LUIS FRANCISCO RUIZ CEDIEL","EMPRESA INDUSTRIAL Y COMERCIAL DEL ESTADO","MAYOR O IGUAL A 5001 USUARIOS"
"SANTANDER","GUAPOTA","ASEO","OPERATIVA","ACUASAN E.I.C.E  E.S.P","SANTANDER","SAN GIL","KM 1 VIA AL AEROPUERTO","7242590","celsodiaz09@hotmail.com","Registro por la ESP","LUIS FRANCISCO RUIZ CEDIEL","EMPRESA INDUSTRIAL Y COMERCIAL DEL ESTADO","MAYOR O IGUAL A 5001 USUARIOS"
"SANTANDER","GUAVATA","ASEO","OPERATIVA","ACUASAN E.I.C.E  E.S.P","SANTANDER","SAN GIL","KM 1 VIA AL AEROPUERTO","7242590","celsodiaz09@hotmail.com","Registro por la ESP","LUIS FRANCISCO RUIZ CEDIEL","EMPRESA INDUSTRIAL Y COMERCIAL DEL ESTADO","MAYOR O IGUAL A 5001 USUARIOS"
"SANTANDER","JORDAN","ASEO","OPERATIVA","ACUASAN E.I.C.E  E.S.P","SANTANDER","SAN GIL","KM 1 VIA AL AEROPUERTO","7242590","celsodiaz09@hotmail.com","Registro por la ESP","LUIS FRANCISCO RUIZ CEDIEL","EMPRESA INDUSTRIAL Y COMERCIAL DEL ESTADO","MAYOR O IGUAL A 5001 USUARIOS"
"SANTANDER","LA PAZ","ASEO","OPERATIVA","ACUASAN E.I.C.E  E.S.P","SANTANDER","SAN GIL","KM 1 VIA AL AEROPUERTO","7242590","celsodiaz09@hotmail.com","Registro por la ESP","LUIS FRANCISCO RUIZ CEDIEL","EMPRESA INDUSTRIAL Y COMERCIAL DEL ESTADO","MAYOR O IGUAL A 5001 USUARIOS"
"SANTANDER","PALMAR","ASEO","OPERATIVA","ACUASAN E.I.C.E  E.S.P","SANTANDER","SAN GIL","KM 1 VIA AL AEROPUERTO","7242590","celsodiaz09@hotmail.com","Registro por la ESP","LUIS FRANCISCO RUIZ CEDIEL","EMPRESA INDUSTRIAL Y COMERCIAL DEL ESTADO","MAYOR O IGUAL A 5001 USUARIOS"
"SANTANDER","SAN BENITO","ASEO","OPERATIVA","ACUASAN E.I.C.E  E.S.P","SANTANDER","SAN GIL","KM 1 VIA AL AEROPUERTO","7242590","celsodiaz09@hotmail.com","Registro por la ESP","LUIS FRANCISCO RUIZ CEDIEL","EMPRESA INDUSTRIAL Y COMERCIAL DEL ESTADO","MAYOR O IGUAL A 5001 USUARIOS"
"SANTANDER","SAN GIL","ASEO","OPERATIVA","ACUASAN E.I.C.E  E.S.P","SANTANDER","SAN GIL","KM 1 VIA AL AEROPUERTO","7242590","celsodiaz09@hotmail.com","Registro por la ESP","LUIS FRANCISCO RUIZ CEDIEL","EMPRESA INDUSTRIAL Y COMERCIAL DEL ESTADO","MAYOR O IGUAL A 5001 USUARIOS"
"SANTANDER","SIMACOTA","ASEO","OPERATIVA","ACUASAN E.I.C.E  E.S.P","SANTANDER","SAN GIL","KM 1 VIA AL AEROPUERTO","7242590","celsodiaz09@hotmail.com","Registro por la ESP","LUIS FRANCISCO RUIZ CEDIEL","EMPRESA INDUSTRIAL Y COMERCIAL DEL ESTADO","MAYOR O IGUAL A 5001 USUARIOS"
"SANTANDER","SUAITA","ASEO","OPERATIVA","ACUASAN E.I.C.E  E.S.P","SANTANDER","SAN GIL","KM 1 VIA AL AEROPUERTO","7242590","celsodiaz09@hotmail.com","Registro por la ESP","LUIS FRANCISCO RUIZ CEDIEL","EMPRESA INDUSTRIAL Y COMERCIAL DEL ESTADO","MAYOR O IGUAL A 5001 USUARIOS"
"SANTANDER","SURATA","ACUEDUCTO","OPERATIVA","UNIDAD ADMINISTRADORA DE LOS SERVICOS PUBLICOS DE SURATA","SANTANDER","SURATA","Carrera 4 No. 4-19","6169790","unidaddeserviciospublicos@surata-santander.gov.co","Registro por la ESP","ANA FRANCISCA CORONADO GOMEZ","MUNICIPIO (PRESTACIÓN DIRECTA)","MENOR O IGUAL A 2500 USUARIOS"
"SANTANDER","SURATA","ALCANTARILLADO","OPERATIVA","UNIDAD ADMINISTRADORA DE LOS SERVICOS PUBLICOS DE SURATA","SANTANDER","SURATA","Carrera 4 No. 4-19","6169790","unidaddeserviciospublicos@surata-santander.gov.co","Registro por la ESP","ANA FRANCISCA CORONADO GOMEZ","MUNICIPIO (PRESTACIÓN DIRECTA)","MENOR O IGUAL A 2500 USUARIOS"
"SANTANDER","SURATA","ASEO","OPERATIVA","UNIDAD ADMINISTRADORA DE LOS SERVICOS PUBLICOS DE SURATA","SANTANDER","SURATA","Carrera 4 No. 4-19","6169790","unidaddeserviciospublicos@surata-santander.gov.co","Registro por la ESP","ANA FRANCISCA CORONADO GOMEZ","MUNICIPIO (PRESTACIÓN DIRECTA)","MENOR O IGUAL A 2500 USUARIOS"
"SANTANDER","CHARALA","ACUEDUCTO","OPERATIVA","UNIDAD DE SERVICIOS PUBLICOS DOMICILIOS DE ACUERDO,ALCANTARILLADO Y ASEO DEL MUNICIPIO DE CHARALA","SANTANDER","CHARALA","Carrera 17 No. 25-30","7258130","serviciospublicos@charala-santander.gov.co","Registro por la ESP","EDILSON ARENAS SILVA","MUNICIPIO (PRESTACIÓN DIRECTA)","MENOR O IGUAL A 2500 USUARIOS"
"SANTANDER","CHARALA","ALCANTARILLADO","OPERATIVA","UNIDAD DE SERVICIOS PUBLICOS DOMICILIOS DE ACUERDO,ALCANTARILLADO Y ASEO DEL MUNICIPIO DE CHARALA","SANTANDER","CHARALA","Carrera 17 No. 25-30","7258130","serviciospublicos@charala-santander.gov.co","Registro por la ESP","EDILSON ARENAS SILVA","MUNICIPIO (PRESTACIÓN DIRECTA)","MENOR O IGUAL A 2500 USUARIOS"
"SANTANDER","CHARALA","ASEO","OPERATIVA","UNIDAD DE SERVICIOS PUBLICOS DOMICILIOS DE ACUERDO,ALCANTARILLADO Y ASEO DEL MUNICIPIO DE CHARALA","SANTANDER","CHARALA","Carrera 17 No. 25-30","7258130","serviciospublicos@charala-santander.gov.co","Registro por la ESP","EDILSON ARENAS SILVA","MUNICIPIO (PRESTACIÓN DIRECTA)","MENOR O IGUAL A 2500 USUARIOS"
"SANTANDER","ARATOCA","ACUEDUCTO","OPERATIVA","EMPRESA MUNICIPAL DE SERVICIOS PUBLICOS DOMICILIARIOS DE ACUEDUCTO, ALCANTARILLADO Y ASEO EN LA CABECERA MUNICIPAL DEL MUNICIPIO DE ARATOCA","SANTANDER","ARATOCA","calle 4 No. 4 - 38","0000000","alcaldia@aratoca-santander.gov.co","Registro por la ESP","MONICA NATALIA AVELLANEDA GALVIS","MUNICIPIO (PRESTACIÓN DIRECTA)","MENOR O IGUAL A 2500 USUARIOS"
"SANTANDER","ARATOCA","ALCANTARILLADO","OPERATIVA","EMPRESA MUNICIPAL DE SERVICIOS PUBLICOS DOMICILIARIOS DE ACUEDUCTO, ALCANTARILLADO Y ASEO EN LA CABECERA MUNICIPAL DEL MUNICIPIO DE ARATOCA","SANTANDER","ARATOCA","calle 4 No. 4 - 38","0000000","alcaldia@aratoca-santander.gov.co","Registro por la ESP","MONICA NATALIA AVELLANEDA GALVIS","MUNICIPIO (PRESTACIÓN DIRECTA)","MENOR O IGUAL A 2500 USUARIOS"
"SANTANDER","ARATOCA","ASEO","OPERATIVA","EMPRESA MUNICIPAL DE SERVICIOS PUBLICOS DOMICILIARIOS DE ACUEDUCTO, ALCANTARILLADO Y ASEO EN LA CABECERA MUNICIPAL DEL MUNICIPIO DE ARATOCA","SANTANDER","ARATOCA","calle 4 No. 4 - 38","0000000","alcaldia@aratoca-santander.gov.co","Registro por la ESP","MONICA NATALIA AVELLANEDA GALVIS","MUNICIPIO (PRESTACIÓN DIRECTA)","MENOR O IGUAL A 2500 USUARIOS"
"SANTANDER","CARCASI","ACUEDUCTO","OPERATIVA","UNIDAD ADMINISTRADORA DE LOS SERVICIOS PUBLICOS DE ACUEDUCTO, ALCANTARILLADO Y ASEO DE CARCASI","SANTANDER","CARCASI","CALLE 2 No. 2-43 PISO 2","6606512","serviciospublicos@carcasi-santander.gov.co","Registro por la ESP","LUIS ALFREDO ALBARRACIN ARCHILA","MUNICIPIO (PRESTACIÓN DIRECTA)","MENOR O IGUAL A 2500 USUARIOS"
"SANTANDER","CARCASI","ALCANTARILLADO","OPERATIVA","UNIDAD ADMINISTRADORA DE LOS SERVICIOS PUBLICOS DE ACUEDUCTO, ALCANTARILLADO Y ASEO DE CARCASI","SANTANDER","CARCASI","CALLE 2 No. 2-43 PISO 2","6606512","serviciospublicos@carcasi-santander.gov.co","Registro por la ESP","LUIS ALFREDO ALBARRACIN ARCHILA","MUNICIPIO (PRESTACIÓN DIRECTA)","MENOR O IGUAL A 2500 USUARIOS"
"SANTANDER","CARCASI","ASEO","OPERATIVA","UNIDAD ADMINISTRADORA DE LOS SERVICIOS PUBLICOS DE ACUEDUCTO, ALCANTARILLADO Y ASEO DE CARCASI","SANTANDER","CARCASI","CALLE 2 No. 2-43 PISO 2","6606512","serviciospublicos@carcasi-santander.gov.co","Registro por la ESP","LUIS ALFREDO ALBARRACIN ARCHILA","MUNICIPIO (PRESTACIÓN DIRECTA)","MENOR O IGUAL A 2500 USUARIOS"
"SANTANDER","COROMORO","ACUEDUCTO","OPERATIVA","UNIDAD  DE SERVICIOS PUBLICOS DOMICILIARIOS DEL MUNICIPIO DE  COROMORO","SANTANDER","COROMORO","Carrera 5 No. 5 - 22","7247516","cavilaver@gmail.com","Registro por la ESP","CARLOS AUGUSTO MARTINEZ CACERES","MUNICIPIO (PRESTACIÓN DIRECTA)","MENOR O IGUAL A 2500 USUARIOS"
"SANTANDER","COROMORO","ALCANTARILLADO","OPERATIVA","UNIDAD  DE SERVICIOS PUBLICOS DOMICILIARIOS DEL MUNICIPIO DE  COROMORO","SANTANDER","COROMORO","Carrera 5 No. 5 - 22","7247516","cavilaver@gmail.com","Registro por la ESP","CARLOS AUGUSTO MARTINEZ CACERES","MUNICIPIO (PRESTACIÓN DIRECTA)","MENOR O IGUAL A 2500 USUARIOS"
"SANTANDER","COROMORO","ASEO","OPERATIVA","UNIDAD  DE SERVICIOS PUBLICOS DOMICILIARIOS DEL MUNICIPIO DE  COROMORO","SANTANDER","COROMORO","Carrera 5 No. 5 - 22","7247516","cavilaver@gmail.com","Registro por la ESP","CARLOS AUGUSTO MARTINEZ CACERES","MUNICIPIO (PRESTACIÓN DIRECTA)","MENOR O IGUAL A 2500 USUARIOS"
"SANTANDER","PARAMO","ACUEDUCTO","OPERATIVA","UNIDAD ADMINISTRADORA DE SERVICIOS PUBLICOS DE ACUEDUCTO, ALCANTARILLADO Y ASEO PARAMO SANTANDER","SANTANDER","PARAMO","Carrera 3 No. 3-40","7258910","ediliasilvahernandez@yahoo.es","Registro por la ESP","FILEMON SOLANO CALA","MUNICIPIO (PRESTACIÓN DIRECTA)","MENOR O IGUAL A 2500 USUARIOS"
"SANTANDER","PARAMO","ALCANTARILLADO","OPERATIVA","UNIDAD ADMINISTRADORA DE SERVICIOS PUBLICOS DE ACUEDUCTO, ALCANTARILLADO Y ASEO PARAMO SANTANDER","SANTANDER","PARAMO","Carrera 3 No. 3-40","7258910","ediliasilvahernandez@yahoo.es","Registro por la ESP","FILEMON SOLANO CALA","MUNICIPIO (PRESTACIÓN DIRECTA)","MENOR O IGUAL A 2500 USUARIOS"
"SANTANDER","PARAMO","ASEO","OPERATIVA","UNIDAD ADMINISTRADORA DE SERVICIOS PUBLICOS DE ACUEDUCTO, ALCANTARILLADO Y ASEO PARAMO SANTANDER","SANTANDER","PARAMO","Carrera 3 No. 3-40","7258910","ediliasilvahernandez@yahoo.es","Registro por la ESP","FILEMON SOLANO CALA","MUNICIPIO (PRESTACIÓN DIRECTA)","MENOR O IGUAL A 2500 USUARIOS"
"SANTANDER","CONCEPCION","ACUEDUCTO","OPERATIVA","UNIDAD MUNICIPAL DE SERVICIOS PUBLICOS DOMICILIARIOS DE ACUEDUCTO, ALCANTARILLADO Y ASEO  DEL MUNICIPIO DE CONCEPCION","SANTANDER","CONCEPCION","Calle 7  # 3 - 16","6603251","serviciospublicos@concepcion-santander.gov.co","Registro por la ESP","JOSE ALBERTO CALDERON CASTANEDA","MUNICIPIO (PRESTACIÓN DIRECTA)","MENOR O IGUAL A 2500 USUARIOS"
"SANTANDER","CONCEPCION","ALCANTARILLADO","OPERATIVA","UNIDAD MUNICIPAL DE SERVICIOS PUBLICOS DOMICILIARIOS DE ACUEDUCTO, ALCANTARILLADO Y ASEO  DEL MUNICIPIO DE CONCEPCION","SANTANDER","CONCEPCION","Calle 7  # 3 - 16","6603251","serviciospublicos@concepcion-santander.gov.co","Registro por la ESP","JOSE ALBERTO CALDERON CASTANEDA","MUNICIPIO (PRESTACIÓN DIRECTA)","MENOR O IGUAL A 2500 USUARIOS"
"SANTANDER","CONCEPCION","ASEO","OPERATIVA","UNIDAD MUNICIPAL DE SERVICIOS PUBLICOS DOMICILIARIOS DE ACUEDUCTO, ALCANTARILLADO Y ASEO  DEL MUNICIPIO DE CONCEPCION","SANTANDER","CONCEPCION","Calle 7  # 3 - 16","6603251","serviciospublicos@concepcion-santander.gov.co","Registro por la ESP","JOSE ALBERTO CALDERON CASTANEDA","MUNICIPIO (PRESTACIÓN DIRECTA)","MENOR O IGUAL A 2500 USUARIOS"
"SANTANDER","MALAGA","ACUEDUCTO","OPERATIVA","EMPRESAS PUBLICAS MUNICIPALES DE MALAGA  E.S.P.","SANTANDER","MALAGA","Calle 13 No. 6a-58","6617858","gerencia@espmalaga.gov.co","Registro por la ESP","WILFER ORLANDO PADILLA PINTO","EMPRESA INDUSTRIAL Y COMERCIAL DEL ESTADO","MAYOR O IGUAL A 5001 USUARIOS"
"SANTANDER","SAN JOSE DE MIRANDA","ACUEDUCTO","OPERATIVA","EMPRESAS PUBLICAS MUNICIPALES DE MALAGA  E.S.P.","SANTANDER","MALAGA","Calle 13 No. 6a-58","6617858","gerencia@espmalaga.gov.co","Registro por la ESP","WILFER ORLANDO PADILLA PINTO","EMPRESA INDUSTRIAL Y COMERCIAL DEL ESTADO","MAYOR O IGUAL A 5001 USUARIOS"
"SANTANDER","MALAGA","ALCANTARILLADO","OPERATIVA","EMPRESAS PUBLICAS MUNICIPALES DE MALAGA  E.S.P.","SANTANDER","MALAGA","Calle 13 No. 6a-58","6617858","gerencia@espmalaga.gov.co","Registro por la ESP","WILFER ORLANDO PADILLA PINTO","EMPRESA INDUSTRIAL Y COMERCIAL DEL ESTADO","MAYOR O IGUAL A 5001 USUARIOS"
"SANTANDER","CAPITANEJO","ASEO","OPERATIVA","EMPRESAS PUBLICAS MUNICIPALES DE MALAGA  E.S.P.","SANTANDER","MALAGA","Calle 13 No. 6a-58","6617858","gerencia@espmalaga.gov.co","Registro por la ESP","WILFER ORLANDO PADILLA PINTO","EMPRESA INDUSTRIAL Y COMERCIAL DEL ESTADO","MAYOR O IGUAL A 5001 USUARIOS"
"SANTANDER","CARCASI","ASEO","OPERATIVA","EMPRESAS PUBLICAS MUNICIPALES DE MALAGA  E.S.P.","SANTANDER","MALAGA","Calle 13 No. 6a-58","6617858","gerencia@espmalaga.gov.co","Registro por la ESP","WILFER ORLANDO PADILLA PINTO","EMPRESA INDUSTRIAL Y COMERCIAL DEL ESTADO","MAYOR O IGUAL A 5001 USUARIOS"
"SANTANDER","CERRITO","ASEO","OPERATIVA","EMPRESAS PUBLICAS MUNICIPALES DE MALAGA  E.S.P.","SANTANDER","MALAGA","Calle 13 No. 6a-58","6617858","gerencia@espmalaga.gov.co","Registro por la ESP","WILFER ORLANDO PADILLA PINTO","EMPRESA INDUSTRIAL Y COMERCIAL DEL ESTADO","MAYOR O IGUAL A 5001 USUARIOS"
"SANTANDER","CONCEPCION","ASEO","OPERATIVA","EMPRESAS PUBLICAS MUNICIPALES DE MALAGA  E.S.P.","SANTANDER","MALAGA","Calle 13 No. 6a-58","6617858","gerencia@espmalaga.gov.co","Registro por la ESP","WILFER ORLANDO PADILLA PINTO","EMPRESA INDUSTRIAL Y COMERCIAL DEL ESTADO","MAYOR O IGUAL A 5001 USUARIOS"
"SANTANDER","ENCISO","ASEO","OPERATIVA","EMPRESAS PUBLICAS MUNICIPALES DE MALAGA  E.S.P.","SANTANDER","MALAGA","Calle 13 No. 6a-58","6617858","gerencia@espmalaga.gov.co","Registro por la ESP","WILFER ORLANDO PADILLA PINTO","EMPRESA INDUSTRIAL Y COMERCIAL DEL ESTADO","MAYOR O IGUAL A 5001 USUARIOS"
"SANTANDER","GUACA","ASEO","OPERATIVA","EMPRESAS PUBLICAS MUNICIPALES DE MALAGA  E.S.P.","SANTANDER","MALAGA","Calle 13 No. 6a-58","6617858","gerencia@espmalaga.gov.co","Registro por la ESP","WILFER ORLANDO PADILLA PINTO","EMPRESA INDUSTRIAL Y COMERCIAL DEL ESTADO","MAYOR O IGUAL A 5001 USUARIOS"
"SANTANDER","MACARAVITA","ASEO","OPERATIVA","EMPRESAS PUBLICAS MUNICIPALES DE MALAGA  E.S.P.","SANTANDER","MALAGA","Calle 13 No. 6a-58","6617858","gerencia@espmalaga.gov.co","Registro por la ESP","WILFER ORLANDO PADILLA PINTO","EMPRESA INDUSTRIAL Y COMERCIAL DEL ESTADO","MAYOR O IGUAL A 5001 USUARIOS"
"SANTANDER","MALAGA","ASEO","OPERATIVA","EMPRESAS PUBLICAS MUNICIPALES DE MALAGA  E.S.P.","SANTANDER","MALAGA","Calle 13 No. 6a-58","6617858","gerencia@espmalaga.gov.co","Registro por la ESP","WILFER ORLANDO PADILLA PINTO","EMPRESA INDUSTRIAL Y COMERCIAL DEL ESTADO","MAYOR O IGUAL A 5001 USUARIOS"
"SANTANDER","MOLAGAVITA","ASEO","OPERATIVA","EMPRESAS PUBLICAS MUNICIPALES DE MALAGA  E.S.P.","SANTANDER","MALAGA","Calle 13 No. 6a-58","6617858","gerencia@espmalaga.gov.co","Registro por la ESP","WILFER ORLANDO PADILLA PINTO","EMPRESA INDUSTRIAL Y COMERCIAL DEL ESTADO","MAYOR O IGUAL A 5001 USUARIOS"
"SANTANDER","SAN ANDRES","ASEO","OPERATIVA","EMPRESAS PUBLICAS MUNICIPALES DE MALAGA  E.S.P.","SANTANDER","MALAGA","Calle 13 No. 6a-58","6617858","gerencia@espmalaga.gov.co","Registro por la ESP","WILFER ORLANDO PADILLA PINTO","EMPRESA INDUSTRIAL Y COMERCIAL DEL ESTADO","MAYOR O IGUAL A 5001 USUARIOS"
"SANTANDER","SAN JOSE DE MIRANDA","ASEO","OPERATIVA","EMPRESAS PUBLICAS MUNICIPALES DE MALAGA  E.S.P.","SANTANDER","MALAGA","Calle 13 No. 6a-58","6617858","gerencia@espmalaga.gov.co","Registro por la ESP","WILFER ORLANDO PADILLA PINTO","EMPRESA INDUSTRIAL Y COMERCIAL DEL ESTADO","MAYOR O IGUAL A 5001 USUARIOS"
"SANTANDER","SAN MIGUEL","ASEO","OPERATIVA","EMPRESAS PUBLICAS MUNICIPALES DE MALAGA  E.S.P.","SANTANDER","MALAGA","Calle 13 No. 6a-58","6617858","gerencia@espmalaga.gov.co","Registro por la ESP","WILFER ORLANDO PADILLA PINTO","EMPRESA INDUSTRIAL Y COMERCIAL DEL ESTADO","MAYOR O IGUAL A 5001 USUARIOS"
"SANTANDER","FLORIDABLANCA","ASEO","OPERATIVA","EMPRESA MUNICIPAL DE ASEO, ALCANTARILLADO Y ACUEDUCTO DE FLORIDABLANCA E.S.P","SANTANDER","FLORIDABLANCA","CARRERA 10A #13-04 BARRIO SANTA ANA","6884170","gerencia@emaf-esp.gov.co","Registro por la ESP","SERGIO AUGUSTO CABALLERO PEREZ","EMPRESA INDUSTRIAL Y COMERCIAL DEL ESTADO","MAYOR O IGUAL A 5001 USUARIOS"
"SANTANDER","SAN ANDRES","ACUEDUCTO","OPERATIVA","UNIDAD DE SERVICIOS PUBLICOS DE SAN ANDRES SANTANDER","SANTANDER","SAN ANDRES","calle 6 No 4 -07","6624216","uspd@sanandres-santander.gov.co","Registro por la ESP","JOSE ROSEMBER ROJAS  MORENO","MUNICIPIO (PRESTACIÓN DIRECTA)","MENOR O IGUAL A 2500 USUARIOS"
"SANTANDER","SAN ANDRES","ALCANTARILLADO","OPERATIVA","UNIDAD DE SERVICIOS PUBLICOS DE SAN ANDRES SANTANDER","SANTANDER","SAN ANDRES","calle 6 No 4 -07","6624216","uspd@sanandres-santander.gov.co","Registro por la ESP","JOSE ROSEMBER ROJAS  MORENO","MUNICIPIO (PRESTACIÓN DIRECTA)","MENOR O IGUAL A 2500 USUARIOS"
"SANTANDER","SAN ANDRES","ASEO","OPERATIVA","UNIDAD DE SERVICIOS PUBLICOS DE SAN ANDRES SANTANDER","SANTANDER","SAN ANDRES","calle 6 No 4 -07","6624216","uspd@sanandres-santander.gov.co","Registro por la ESP","JOSE ROSEMBER ROJAS  MORENO","MUNICIPIO (PRESTACIÓN DIRECTA)","MENOR O IGUAL A 2500 USUARIOS"
"SANTANDER","TONA","ACUEDUCTO","OPERATIVA","UNIDAD DE SERVICIOS PUBLICOS DEL MUNICIPIO DE TONA","SANTANDER","TONA","CALLE 7 N  3-11","6277521","serviciospublicostona@gmail.com","Registro por la ESP","ELKIN PEREZ SUAREZ","MUNICIPIO (PRESTACIÓN DIRECTA)","MENOR O IGUAL A 2500 USUARIOS"
"SANTANDER","TONA","ALCANTARILLADO","OPERATIVA","UNIDAD DE SERVICIOS PUBLICOS DEL MUNICIPIO DE TONA","SANTANDER","TONA","CALLE 7 N  3-11","6277521","serviciospublicostona@gmail.com","Registro por la ESP","ELKIN PEREZ SUAREZ","MUNICIPIO (PRESTACIÓN DIRECTA)","MENOR O IGUAL A 2500 USUARIOS"
"SANTANDER","TONA","ASEO","OPERATIVA","UNIDAD DE SERVICIOS PUBLICOS DEL MUNICIPIO DE TONA","SANTANDER","TONA","CALLE 7 N  3-11","6277521","serviciospublicostona@gmail.com","Registro por la ESP","ELKIN PEREZ SUAREZ","MUNICIPIO (PRESTACIÓN DIRECTA)","MENOR O IGUAL A 2500 USUARIOS"
"SANTANDER","PALMAR","ACUEDUCTO","OPERATIVA","UNIDAD  DE SERVICIOS PUBLICOS DOMICILIARIOS DE PALMAR - SANTANDER","SANTANDER","PALMAR","calle 5 No. 3-21","8002617","unidad@palmar-santander.gov.co","Registro por la ESP","FREDY CALA QUINTERO","MUNICIPIO (PRESTACIÓN DIRECTA)","MENOR O IGUAL A 2500 USUARIOS"
"SANTANDER","PALMAR","ALCANTARILLADO","OPERATIVA","UNIDAD  DE SERVICIOS PUBLICOS DOMICILIARIOS DE PALMAR - SANTANDER","SANTANDER","PALMAR","calle 5 No. 3-21","8002617","unidad@palmar-santander.gov.co","Registro por la ESP","FREDY CALA QUINTERO","MUNICIPIO (PRESTACIÓN DIRECTA)","MENOR O IGUAL A 2500 USUARIOS"
"SANTANDER","PALMAR","ASEO","OPERATIVA","UNIDAD  DE SERVICIOS PUBLICOS DOMICILIARIOS DE PALMAR - SANTANDER","SANTANDER","PALMAR","calle 5 No. 3-21","8002617","unidad@palmar-santander.gov.co","Registro por la ESP","FREDY CALA QUINTERO","MUNICIPIO (PRESTACIÓN DIRECTA)","MENOR O IGUAL A 2500 USUARIOS"
"SANTANDER","EL PLAYON","ACUEDUCTO","OPERATIVA","SECRETARIA DE SERVICIOS PUBLICOS DE ACUEDUCTO ALCANTARILLADO Y ASEO EL PLAYON","SANTANDER","EL PLAYON","CRA 5 NO. 12-41","5622469","alcaldia@elplayon-santander.gov.co","Registro por la ESP","WILMER ALEXANDER BARRIOS COTE","MUNICIPIO (PRESTACIÓN DIRECTA)","MENOR O IGUAL A 2500 USUARIOS"
"SANTANDER","EL PLAYON","ALCANTARILLADO","OPERATIVA","SECRETARIA DE SERVICIOS PUBLICOS DE ACUEDUCTO ALCANTARILLADO Y ASEO EL PLAYON","SANTANDER","EL PLAYON","CRA 5 NO. 12-41","5622469","alcaldia@elplayon-santander.gov.co","Registro por la ESP","WILMER ALEXANDER BARRIOS COTE","MUNICIPIO (PRESTACIÓN DIRECTA)","MENOR O IGUAL A 2500 USUARIOS"
"SANTANDER","SUAITA","ACUEDUCTO","CANCELACION","UNIDAD DE SERVICIOS PÚBLICOS MUNICIPIO DE SUAITA","SANTANDER","SUAITA","Calle 5 No. 8-32","7580243","servipublicos.sui2@gmail.com","Registro por la ESP","ELKIN JAVIER CHACON SANABRÍA",,
"SANTANDER","SUAITA","ALCANTARILLADO","CANCELACION","UNIDAD DE SERVICIOS PÚBLICOS MUNICIPIO DE SUAITA","SANTANDER","SUAITA","Calle 5 No. 8-32","7580243","servipublicos.sui2@gmail.com","Registro por la ESP","ELKIN JAVIER CHACON SANABRÍA",,
"SANTANDER","SUAITA","ASEO","CANCELACION","UNIDAD DE SERVICIOS PÚBLICOS MUNICIPIO DE SUAITA","SANTANDER","SUAITA","Calle 5 No. 8-32","7580243","servipublicos.sui2@gmail.com","Registro por la ESP","ELKIN JAVIER CHACON SANABRÍA",,
"SANTANDER","CHIPATA","ACUEDUCTO","OPERATIVA","EMPRESA DE SERVICIOS PÚBLICOS DE ACUEDUCTO ALCANTARILLADO Y ASEO DE CHIPATA - DEPENDENCIA MUNICIPAL","SANTANDER","CHIPATA","ALCALDIA CHIPATA CRA 6 Nº 3-17","7565494","contactenos@chipata-santander.gov.co","Registro por la ESP","EMILSE SANTAMARIA CASTILLO","MUNICIPIO (PRESTACIÓN DIRECTA)","MENOR O IGUAL A 2500 USUARIOS"
"SANTANDER","CHIPATA","ALCANTARILLADO","OPERATIVA","EMPRESA DE SERVICIOS PÚBLICOS DE ACUEDUCTO ALCANTARILLADO Y ASEO DE CHIPATA - DEPENDENCIA MUNICIPAL","SANTANDER","CHIPATA","ALCALDIA CHIPATA CRA 6 Nº 3-17","7565494","contactenos@chipata-santander.gov.co","Registro por la ESP","EMILSE SANTAMARIA CASTILLO","MUNICIPIO (PRESTACIÓN DIRECTA)","MENOR O IGUAL A 2500 USUARIOS"
"SANTANDER","CHIPATA","ASEO","OPERATIVA","EMPRESA DE SERVICIOS PÚBLICOS DE ACUEDUCTO ALCANTARILLADO Y ASEO DE CHIPATA - DEPENDENCIA MUNICIPAL","SANTANDER","CHIPATA","ALCALDIA CHIPATA CRA 6 Nº 3-17","7565494","contactenos@chipata-santander.gov.co","Registro por la ESP","EMILSE SANTAMARIA CASTILLO","MUNICIPIO (PRESTACIÓN DIRECTA)","MENOR O IGUAL A 2500 USUARIOS"
"SANTANDER","SUCRE","ACUEDUCTO","OPERATIVA","MUNICIPIO DE SUCRE","SANTANDER","SUCRE","PALACIO MUNICIPAL SUCRE SANTADER","7565626","planeacion.sucre2016.2019@gmail.com","Registro por la ESP","JAVIER ANTONIO ROJAS QUITIAN","MUNICIPIO (PRESTACIÓN DIRECTA)","MENOR O IGUAL A 2500 USUARIOS"
"SANTANDER","SUCRE","ALCANTARILLADO","OPERATIVA","MUNICIPIO DE SUCRE","SANTANDER","SUCRE","PALACIO MUNICIPAL SUCRE SANTADER","7565626","planeacion.sucre2016.2019@gmail.com","Registro por la ESP","JAVIER ANTONIO ROJAS QUITIAN","MUNICIPIO (PRESTACIÓN DIRECTA)","MENOR O IGUAL A 2500 USUARIOS"
"SANTANDER","SUCRE","ASEO","OPERATIVA","MUNICIPIO DE SUCRE","SANTANDER","SUCRE","PALACIO MUNICIPAL SUCRE SANTADER","7565626","planeacion.sucre2016.2019@gmail.com","Registro por la ESP","JAVIER ANTONIO ROJAS QUITIAN","MUNICIPIO (PRESTACIÓN DIRECTA)","MENOR O IGUAL A 2500 USUARIOS"
"SANTANDER","SABANA DE TORRES","ACUEDUCTO","OPERATIVA","EMPRESA MUNICIPAL DE SERVICIOS PUBLICOS DOMICILIARIOS DE ACUEDUCTO, ALCANTARILLADO Y SANEAMIENTO BASICO DE SABANA DE TORRES ESPUSATO E.S.P.","SANTANDER","SABANA DE TORRES","Calle 19 No 10-41 - Barrio Carvajal","6293282","aguaytierra.dag@gmail.com","Registro por la ESP","MIGUEL OMAR LEAL BOTELLO","EMPRESA INDUSTRIAL Y COMERCIAL DEL ESTADO","MAYOR O IGUAL A 5001 USUARIOS"
"SANTANDER","SABANA DE TORRES","ALCANTARILLADO","OPERATIVA","EMPRESA MUNICIPAL DE SERVICIOS PUBLICOS DOMICILIARIOS DE ACUEDUCTO, ALCANTARILLADO Y SANEAMIENTO BASICO DE SABANA DE TORRES ESPUSATO E.S.P.","SANTANDER","SABANA DE TORRES","Calle 19 No 10-41 - Barrio Carvajal","6293282","aguaytierra.dag@gmail.com","Registro por la ESP","MIGUEL OMAR LEAL BOTELLO","EMPRESA INDUSTRIAL Y COMERCIAL DEL ESTADO","MAYOR O IGUAL A 5001 USUARIOS"
"SANTANDER","SABANA DE TORRES","ASEO","OPERATIVA","EMPRESA MUNICIPAL DE SERVICIOS PUBLICOS DOMICILIARIOS DE ACUEDUCTO, ALCANTARILLADO Y SANEAMIENTO BASICO DE SABANA DE TORRES ESPUSATO E.S.P.","SANTANDER","SABANA DE TORRES","Calle 19 No 10-41 - Barrio Carvajal","6293282","aguaytierra.dag@gmail.com","Registro por la ESP","MIGUEL OMAR LEAL BOTELLO","EMPRESA INDUSTRIAL Y COMERCIAL DEL ESTADO","MAYOR O IGUAL A 5001 USUARIOS"
"SANTANDER","CERRITO","ACUEDUCTO","OPERATIVA","EMPRESA DE SERVICIOS PUBLICOS DE ACUEDUCTO, ALCANTARILLADO Y ASEO DEL MUNICIPIO DE CERRITO","SANTANDER","CERRITO","Carrera 6 # 6-52","6602344","serviciospublicos@cerrito-santander.gov.co","Registro por la ESP","HENRY CARDENAS  CARVAJAL","MUNICIPIO (PRESTACIÓN DIRECTA)","MENOR O IGUAL A 2500 USUARIOS"
"SANTANDER","CERRITO","ALCANTARILLADO","OPERATIVA","EMPRESA DE SERVICIOS PUBLICOS DE ACUEDUCTO, ALCANTARILLADO Y ASEO DEL MUNICIPIO DE CERRITO","SANTANDER","CERRITO","Carrera 6 # 6-52","6602344","serviciospublicos@cerrito-santander.gov.co","Registro por la ESP","HENRY CARDENAS  CARVAJAL","MUNICIPIO (PRESTACIÓN DIRECTA)","MENOR O IGUAL A 2500 USUARIOS"
"SANTANDER","CERRITO","ASEO","OPERATIVA","EMPRESA DE SERVICIOS PUBLICOS DE ACUEDUCTO, ALCANTARILLADO Y ASEO DEL MUNICIPIO DE CERRITO","SANTANDER","CERRITO","Carrera 6 # 6-52","6602344","serviciospublicos@cerrito-santander.gov.co","Registro por la ESP","HENRY CARDENAS  CARVAJAL","MUNICIPIO (PRESTACIÓN DIRECTA)","MENOR O IGUAL A 2500 USUARIOS"
"SANTANDER","CURITI","ACUEDUCTO","OPERATIVA","JUNTA ADMINISTRADORA DEL ACUEDUCTO DEL COMUN, CANTERA Y PALMAR","SANTANDER","CURITI","CALLE 6 4 11","7187110","acueductococapal8004@gmail.com","Registro por la ESP","JESUS GOMEZ LOPEZ","ORGANIZACION AUTORIZADA","MENOR O IGUAL A 2500 USUARIOS"
"SANTANDER","CEPITA","ACUEDUCTO","OPERATIVA","MUNICIPIO DE CEPITA - SANTANDER","SANTANDER","CEPITA","Calle3 2-03","6569240","planeacioncepitasui@gmail.com","Registro por la ESP","OSCAR JAVIER REY REY","MUNICIPIO (PRESTACIÓN DIRECTA)","MENOR O IGUAL A 2500 USUARIOS"
"SANTANDER","CEPITA","ALCANTARILLADO","OPERATIVA","MUNICIPIO DE CEPITA - SANTANDER","SANTANDER","CEPITA","Calle3 2-03","6569240","planeacioncepitasui@gmail.com","Registro por la ESP","OSCAR JAVIER REY REY","MUNICIPIO (PRESTACIÓN DIRECTA)","MENOR O IGUAL A 2500 USUARIOS"
"SANTANDER","CEPITA","ASEO","OPERATIVA","MUNICIPIO DE CEPITA - SANTANDER","SANTANDER","CEPITA","Calle3 2-03","6569240","planeacioncepitasui@gmail.com","Registro por la ESP","OSCAR JAVIER REY REY","MUNICIPIO (PRESTACIÓN DIRECTA)","MENOR O IGUAL A 2500 USUARIOS"
"SANTANDER","CURITI","ACUEDUCTO","OPERATIVA","CORPORACION DE SERVICIOS DE ACUEDUCTO Y ALCANTARILLADO DE CURITI MUNICIPIO DE CURITI","SANTANDER","CURITI","Carrera 6 No. 8-16","7187027","andres.lesmes@rsdltda.com","Registro por la ESP","VICTORIANO CORZO RAMIREZ","ORGANIZACION AUTORIZADA","MENOR O IGUAL A 2500 USUARIOS"
"SANTANDER","CURITI","ALCANTARILLADO","OPERATIVA","CORPORACION DE SERVICIOS DE ACUEDUCTO Y ALCANTARILLADO DE CURITI MUNICIPIO DE CURITI","SANTANDER","CURITI","Carrera 6 No. 8-16","7187027","andres.lesmes@rsdltda.com","Registro por la ESP","VICTORIANO CORZO RAMIREZ","ORGANIZACION AUTORIZADA","MENOR O IGUAL A 2500 USUARIOS"
"SANTANDER","FLORIDABLANCA","ACUEDUCTO","OPERATIVA","RUITOQUE S.A. E.S.P.","SANTANDER","FLORIDABLANCA","CALLE 31A # 26-15 OFICINA 705 CENTRO EMPRESARIAL LA FLORIDA","6185871","msereno@ruitoqueesp.com","Registro por la ESP","JOSE GABRIEL SORZANO SERRANO","SOCIEDADES (EMPRESA DE SERVICIOS PUBLICOS)","DESDE 2501 HASTA 5000 USUARIOS"
"SANTANDER","GIRON","ACUEDUCTO","OPERATIVA","RUITOQUE S.A. E.S.P.","SANTANDER","FLORIDABLANCA","CALLE 31A # 26-15 OFICINA 705 CENTRO EMPRESARIAL LA FLORIDA","6185871","msereno@ruitoqueesp.com","Registro por la ESP","JOSE GABRIEL SORZANO SERRANO","SOCIEDADES (EMPRESA DE SERVICIOS PUBLICOS)","DESDE 2501 HASTA 5000 USUARIOS"
"SANTANDER","PIEDECUESTA","ACUEDUCTO","OPERATIVA","RUITOQUE S.A. E.S.P.","SANTANDER","FLORIDABLANCA","CALLE 31A # 26-15 OFICINA 705 CENTRO EMPRESARIAL LA FLORIDA","6185871","msereno@ruitoqueesp.com","Registro por la ESP","JOSE GABRIEL SORZANO SERRANO","SOCIEDADES (EMPRESA DE SERVICIOS PUBLICOS)","DESDE 2501 HASTA 5000 USUARIOS"
"SANTANDER","FLORIDABLANCA","ASEO","OPERATIVA","RUITOQUE S.A. E.S.P.","SANTANDER","FLORIDABLANCA","CALLE 31A # 26-15 OFICINA 705 CENTRO EMPRESARIAL LA FLORIDA","6185871","msereno@ruitoqueesp.com","Registro por la ESP","JOSE GABRIEL SORZANO SERRANO","SOCIEDADES (EMPRESA DE SERVICIOS PUBLICOS)","DESDE 2501 HASTA 5000 USUARIOS"
"SANTANDER","GIRON","ASEO","OPERATIVA","RUITOQUE S.A. E.S.P.","SANTANDER","FLORIDABLANCA","CALLE 31A # 26-15 OFICINA 705 CENTRO EMPRESARIAL LA FLORIDA","6185871","msereno@ruitoqueesp.com","Registro por la ESP","JOSE GABRIEL SORZANO SERRANO","SOCIEDADES (EMPRESA DE SERVICIOS PUBLICOS)","DESDE 2501 HASTA 5000 USUARIOS"
"SANTANDER","PIEDECUESTA","ASEO","OPERATIVA","RUITOQUE S.A. E.S.P.","SANTANDER","FLORIDABLANCA","CALLE 31A # 26-15 OFICINA 705 CENTRO EMPRESARIAL LA FLORIDA","6185871","msereno@ruitoqueesp.com","Registro por la ESP","JOSE GABRIEL SORZANO SERRANO","SOCIEDADES (EMPRESA DE SERVICIOS PUBLICOS)","DESDE 2501 HASTA 5000 USUARIOS"
"SANTANDER","FLORIDABLANCA","ALCANTARILLADO","OPERATIVA","RUITOQUE S.A. E.S.P.","SANTANDER","FLORIDABLANCA","CALLE 31A # 26-15 OFICINA 705 CENTRO EMPRESARIAL LA FLORIDA","6185871","msereno@ruitoqueesp.com","Registro por la ESP","JOSE GABRIEL SORZANO SERRANO","SOCIEDADES (EMPRESA DE SERVICIOS PUBLICOS)","MENOR O IGUAL A 2500 USUARIOS"
"SANTANDER","PIEDECUESTA","ALCANTARILLADO","OPERATIVA","RUITOQUE S.A. E.S.P.","SANTANDER","FLORIDABLANCA","CALLE 31A # 26-15 OFICINA 705 CENTRO EMPRESARIAL LA FLORIDA","6185871","msereno@ruitoqueesp.com","Registro por la ESP","JOSE GABRIEL SORZANO SERRANO","SOCIEDADES (EMPRESA DE SERVICIOS PUBLICOS)","MENOR O IGUAL A 2500 USUARIOS"
"SANTANDER","LOS SANTOS","ACUEDUCTO","CANCELACION","UNIDAD ADMINISTRADORA DE SERVICIOS PUBLICOS DOMICILIARIOS DE ACUEDUCTO, ALCANTARILLADO Y ASEO DE LOS SANTOS","SANTANDER","LOS SANTOS","CRA 7 No. 2-22","7269650","secplaneacion@lossantos-santander.gov.co","Registro por la ESP","JAIME ARENAS RUEDA",,
"SANTANDER","LOS SANTOS","ALCANTARILLADO","CANCELACION","UNIDAD ADMINISTRADORA DE SERVICIOS PUBLICOS DOMICILIARIOS DE ACUEDUCTO, ALCANTARILLADO Y ASEO DE LOS SANTOS","SANTANDER","LOS SANTOS","CRA 7 No. 2-22","7269650","secplaneacion@lossantos-santander.gov.co","Registro por la ESP","JAIME ARENAS RUEDA",,
"SANTANDER","LOS SANTOS","ASEO","CANCELACION","UNIDAD ADMINISTRADORA DE SERVICIOS PUBLICOS DOMICILIARIOS DE ACUEDUCTO, ALCANTARILLADO Y ASEO DE LOS SANTOS","SANTANDER","LOS SANTOS","CRA 7 No. 2-22","7269650","secplaneacion@lossantos-santander.gov.co","Registro por la ESP","JAIME ARENAS RUEDA",,
"SANTANDER","ZAPATOCA","ACUEDUCTO","OPERATIVA","UNIDAD DE SERVICIOS PÚBLICOS DOMICILIARIOS DE ZAPATOCA","SANTANDER","ZAPATOCA","carrera 9 Nº 20 - 36","6252260","serviciospublicos.zapatoca@hotmail.com","Registro por la ESP","HERNAN  AGREDO ACEVEDO","MUNICIPIO (PRESTACIÓN DIRECTA)","DESDE 2501 HASTA 5000 USUARIOS"
"SANTANDER","ZAPATOCA","ALCANTARILLADO","OPERATIVA","UNIDAD DE SERVICIOS PÚBLICOS DOMICILIARIOS DE ZAPATOCA","SANTANDER","ZAPATOCA","carrera 9 Nº 20 - 36","6252260","serviciospublicos.zapatoca@hotmail.com","Registro por la ESP","HERNAN  AGREDO ACEVEDO","MUNICIPIO (PRESTACIÓN DIRECTA)","MENOR O IGUAL A 2500 USUARIOS"
"SANTANDER","ZAPATOCA","ASEO","OPERATIVA","UNIDAD DE SERVICIOS PÚBLICOS DOMICILIARIOS DE ZAPATOCA","SANTANDER","ZAPATOCA","carrera 9 Nº 20 - 36","6252260","serviciospublicos.zapatoca@hotmail.com","Registro por la ESP","HERNAN  AGREDO ACEVEDO","MUNICIPIO (PRESTACIÓN DIRECTA)","MENOR O IGUAL A 2500 USUARIOS"
"SANTANDER","BARBOSA","ACUEDUCTO","OPERATIVA","EMPRESA DE SERVICIOS PUBLICOS DOMICILIARIOS DE BARBOSA","SANTANDER","BARBOSA","PLANTA DE TRATAMIENTO KILOMETRO 1 VIA A VÉLEZ","7484627","esbarbosa@esbarbosa-santander-esp.gov.co","Registro por la ESP","ROMAN ALFREDO CASTANEDA MORALES","EMPRESA INDUSTRIAL Y COMERCIAL DEL ESTADO","MAYOR O IGUAL A 5001 USUARIOS"
"SANTANDER","BARBOSA","ALCANTARILLADO","OPERATIVA","EMPRESA DE SERVICIOS PUBLICOS DOMICILIARIOS DE BARBOSA","SANTANDER","BARBOSA","PLANTA DE TRATAMIENTO KILOMETRO 1 VIA A VÉLEZ","7484627","esbarbosa@esbarbosa-santander-esp.gov.co","Registro por la ESP","ROMAN ALFREDO CASTANEDA MORALES","EMPRESA INDUSTRIAL Y COMERCIAL DEL ESTADO","MAYOR O IGUAL A 5001 USUARIOS"
"SANTANDER","VELEZ","ACUEDUCTO","OPERATIVA","EMPRESA MUNICIPAL DE SERVICIOS PUBLICOS DOMICILIARIOS DE VELEZ EMPREVEL E.S.P.","SANTANDER","VELEZ","Calle 9 No.7-01","7563102","celsodiaz09@hotmail.com","Registro por la ESP","CLAUDIA PATRICIA APONTE HERNANDEZ","EMPRESA INDUSTRIAL Y COMERCIAL DEL ESTADO","DESDE 2501 HASTA 5000 USUARIOS"
"SANTANDER","VELEZ","ALCANTARILLADO","OPERATIVA","EMPRESA MUNICIPAL DE SERVICIOS PUBLICOS DOMICILIARIOS DE VELEZ EMPREVEL E.S.P.","SANTANDER","VELEZ","Calle 9 No.7-01","7563102","celsodiaz09@hotmail.com","Registro por la ESP","CLAUDIA PATRICIA APONTE HERNANDEZ","EMPRESA INDUSTRIAL Y COMERCIAL DEL ESTADO","DESDE 2501 HASTA 5000 USUARIOS"
"SANTANDER","VELEZ","ASEO","OPERATIVA","EMPRESA MUNICIPAL DE SERVICIOS PUBLICOS DOMICILIARIOS DE VELEZ EMPREVEL E.S.P.","SANTANDER","VELEZ","Calle 9 No.7-01","7563102","celsodiaz09@hotmail.com","Registro por la ESP","CLAUDIA PATRICIA APONTE HERNANDEZ","EMPRESA INDUSTRIAL Y COMERCIAL DEL ESTADO","DESDE 2501 HASTA 5000 USUARIOS"
"SANTANDER","GIRON","ASEO","CANCELACION","CARA LIMPIA S.A. E.S.P.","SANTANDER","GIRON","CARRERA 28 # 34 A - 45","6464141","gerencia@caralimpia.net","Registro por la ESP","LILIANA BOHORQUEZ RUEDA",,
"SANTANDER","PIEDECUESTA","ACUEDUCTO","OPERATIVA","EMPRESA MUNICIPAL DE SERVICIOS PUBLICOS DOMICILIARIOS DE PIEDECUESTA E.S.P.","SANTANDER","PIEDECUESTA","Carrera 8 No 12-28","6550058","alejinet@hotmail.com","Registro por la ESP","GABRIEL ABRIL ROJAS","EMPRESA INDUSTRIAL Y COMERCIAL DEL ESTADO","MAYOR O IGUAL A 5001 USUARIOS"
"SANTANDER","PIEDECUESTA","ALCANTARILLADO","OPERATIVA","EMPRESA MUNICIPAL DE SERVICIOS PUBLICOS DOMICILIARIOS DE PIEDECUESTA E.S.P.","SANTANDER","PIEDECUESTA","Carrera 8 No 12-28","6550058","alejinet@hotmail.com","Registro por la ESP","GABRIEL ABRIL ROJAS","EMPRESA INDUSTRIAL Y COMERCIAL DEL ESTADO","MAYOR O IGUAL A 5001 USUARIOS"
"SANTANDER","PIEDECUESTA","ASEO","OPERATIVA","EMPRESA MUNICIPAL DE SERVICIOS PUBLICOS DOMICILIARIOS DE PIEDECUESTA E.S.P.","SANTANDER","PIEDECUESTA","Carrera 8 No 12-28","6550058","alejinet@hotmail.com","Registro por la ESP","GABRIEL ABRIL ROJAS","EMPRESA INDUSTRIAL Y COMERCIAL DEL ESTADO","MAYOR O IGUAL A 5001 USUARIOS"
"SANTANDER","PINCHOTE","ACUEDUCTO","OPERATIVA","ASOCIACION DE SUSCRIPTORES DE SERVICIOS PUBLICOS DEL MUNICIPIO DE PINCHOTE DEPARTAMENTO DE SANTANDER ESP","SANTANDER","PINCHOTE","calle 4 No. 3-49","7235976","acupinchote@hotmail.com","Registro por la ESP","RODOLFO PORRAS REMOLINA","ORGANIZACION AUTORIZADA","MENOR O IGUAL A 2500 USUARIOS"
"SANTANDER","OIBA","ACUEDUCTO","OPERATIVA","EMPRESA MUNICIPAL DE SERVICIOS PUBLICOS DOMICILIARIOS DE OIBA E.S.P","SANTANDER","OIBA","Dg 13 No 8 - 24","7173340","oibanadeserviciospublicos@hotmail.com","Registro por la ESP","EYMAR YESITH BAEZ CAMACHO","EMPRESA INDUSTRIAL Y COMERCIAL DEL ESTADO","MENOR O IGUAL A 2500 USUARIOS"
"SANTANDER","OIBA","ALCANTARILLADO","OPERATIVA","EMPRESA MUNICIPAL DE SERVICIOS PUBLICOS DOMICILIARIOS DE OIBA E.S.P","SANTANDER","OIBA","Dg 13 No 8 - 24","7173340","oibanadeserviciospublicos@hotmail.com","Registro por la ESP","EYMAR YESITH BAEZ CAMACHO","EMPRESA INDUSTRIAL Y COMERCIAL DEL ESTADO","MENOR O IGUAL A 2500 USUARIOS"
"SANTANDER","OIBA","ASEO","OPERATIVA","EMPRESA MUNICIPAL DE SERVICIOS PUBLICOS DOMICILIARIOS DE OIBA E.S.P","SANTANDER","OIBA","Dg 13 No 8 - 24","7173340","oibanadeserviciospublicos@hotmail.com","Registro por la ESP","EYMAR YESITH BAEZ CAMACHO","EMPRESA INDUSTRIAL Y COMERCIAL DEL ESTADO","MENOR O IGUAL A 2500 USUARIOS"
"SANTANDER","BUCARAMANGA","ASEO","OPERATIVA","EMPRESA DE ASEO DE BUCARAMANGA S.A. E.S.P.","SANTANDER","BUCARAMANGA","Parque Intercambiador Vial Avenida Quebrada Seca con Carrera 15 Modulo CCIAL 1 Barrio Granada","7000480","gerencia@emab.gov.co","Registro por la ESP","PEDRO JOSE SALAZAR GARCIA","SOCIEDADES (EMPRESA DE SERVICIOS PUBLICOS)","MAYOR O IGUAL A 5001 USUARIOS"
"SANTANDER","LA PAZ","ACUEDUCTO","OPERATIVA","CORPORACION DE SERVICIOS DEL ACUEDUCTO Y ALCANTARILLADO DE LA CABECERA MUNICIPAL MUNICIPIO DE LA PAZ","SANTANDER","LA PAZ","cra 4 # 4 - 43","7518047","ita_da78@yahoo.com","Registro por la ESP","INES TRASLAVINA ARIZA","ORGANIZACION AUTORIZADA","MENOR O IGUAL A 2500 USUARIOS"
"SANTANDER","LA PAZ","ALCANTARILLADO","OPERATIVA","CORPORACION DE SERVICIOS DEL ACUEDUCTO Y ALCANTARILLADO DE LA CABECERA MUNICIPAL MUNICIPIO DE LA PAZ","SANTANDER","LA PAZ","cra 4 # 4 - 43","7518047","ita_da78@yahoo.com","Registro por la ESP","INES TRASLAVINA ARIZA","ORGANIZACION AUTORIZADA","MENOR O IGUAL A 2500 USUARIOS"
"SANTANDER","PINCHOTE","ALCANTARILLADO","OPERATIVA","SISTEMA INTEGRADO DE ALCANTARILLADO Y ASEO DE PINCHOTE SANTANDER","SANTANDER","PINCHOTE","Carrera 5 N 4 - 13","7248788","sandranay_22@hotmail.com","Registro por la ESP","HERNANDO BOHORQUEZ GARCIA","MUNICIPIO (PRESTACIÓN DIRECTA)","MENOR O IGUAL A 2500 USUARIOS"
"SANTANDER","PINCHOTE","ASEO","OPERATIVA","SISTEMA INTEGRADO DE ALCANTARILLADO Y ASEO DE PINCHOTE SANTANDER","SANTANDER","PINCHOTE","Carrera 5 N 4 - 13","7248788","sandranay_22@hotmail.com","Registro por la ESP","HERNANDO BOHORQUEZ GARCIA","MUNICIPIO (PRESTACIÓN DIRECTA)","MENOR O IGUAL A 2500 USUARIOS"
"SANTANDER","GAMBITA","ACUEDUCTO","OPERATIVA","UNIDAD DE SERVICIOS PUBLICOS DE GAMBITA","SANTANDER","GAMBITA","Carrera 9 No. 4 - 28","7453939","uspd@gambita-santander.gov.co","Registro por la ESP","AIDUBBY JULIANA MATEUS ESPITIA","MUNICIPIO (PRESTACIÓN DIRECTA)","MENOR O IGUAL A 2500 USUARIOS"
"SANTANDER","GAMBITA","ALCANTARILLADO","OPERATIVA","UNIDAD DE SERVICIOS PUBLICOS DE GAMBITA","SANTANDER","GAMBITA","Carrera 9 No. 4 - 28","7453939","uspd@gambita-santander.gov.co","Registro por la ESP","AIDUBBY JULIANA MATEUS ESPITIA","MUNICIPIO (PRESTACIÓN DIRECTA)","MENOR O IGUAL A 2500 USUARIOS"
"SANTANDER","GAMBITA","ASEO","OPERATIVA","UNIDAD DE SERVICIOS PUBLICOS DE GAMBITA","SANTANDER","GAMBITA","Carrera 9 No. 4 - 28","7453939","uspd@gambita-santander.gov.co","Registro por la ESP","AIDUBBY JULIANA MATEUS ESPITIA","MUNICIPIO (PRESTACIÓN DIRECTA)","MENOR O IGUAL A 2500 USUARIOS"
"SANTANDER","BOLIVAR","ACUEDUCTO","CANCELACION","UNIDAD ADMINISTRADORA DE SERVICIOS PUBLICOS DOMICILIARIOS DE BOLIVAR-SANTANDER","SANTANDER","BOLIVAR","Calle 3 No 3 - 31","7569006","luzcellypardo1@hotmail.com","Registro por la ESP","NOE ALEXANDER MEDINA SOSA","MUNICIPIO (PRESTACIÓN DIRECTA)",
"SANTANDER","BOLIVAR","ALCANTARILLADO","CANCELACION","UNIDAD ADMINISTRADORA DE SERVICIOS PUBLICOS DOMICILIARIOS DE BOLIVAR-SANTANDER","SANTANDER","BOLIVAR","Calle 3 No 3 - 31","7569006","luzcellypardo1@hotmail.com","Registro por la ESP","NOE ALEXANDER MEDINA SOSA","MUNICIPIO (PRESTACIÓN DIRECTA)",
"SANTANDER","BOLIVAR","ASEO","CANCELACION","UNIDAD ADMINISTRADORA DE SERVICIOS PUBLICOS DOMICILIARIOS DE BOLIVAR-SANTANDER","SANTANDER","BOLIVAR","Calle 3 No 3 - 31","7569006","luzcellypardo1@hotmail.com","Registro por la ESP","NOE ALEXANDER MEDINA SOSA","MUNICIPIO (PRESTACIÓN DIRECTA)",
"SANTANDER","BARRANCABERMEJA","ASEO","CANCELACION","REDIBA S.A ES.P","SANTANDER","GIRON","CALLE 60 # 16C - 03 BARRIO LA ESMERALDA","6576852","aseo-bucaramanga.co@veolia.com","Registro por la ESP","ISMARIS ORTIZ GONZALEZ",,
"SANTANDER","BUCARAMANGA","ASEO","CANCELACION","REDIBA S.A ES.P","SANTANDER","GIRON","CALLE 60 # 16C - 03 BARRIO LA ESMERALDA","6576852","aseo-bucaramanga.co@veolia.com","Registro por la ESP","ISMARIS ORTIZ GONZALEZ",,
"SANTANDER","FLORIDABLANCA","ASEO","CANCELACION","REDIBA S.A ES.P","SANTANDER","GIRON","CALLE 60 # 16C - 03 BARRIO LA ESMERALDA","6576852","aseo-bucaramanga.co@veolia.com","Registro por la ESP","ISMARIS ORTIZ GONZALEZ",,
"SANTANDER","CALIFORNIA","ACUEDUCTO","OPERATIVA","UNIDAD DE SERVICIOS PUBLICOS DE ACUEDUCTO, ALCANTARILLADO Y ASEO","SANTANDER","CALIFORNIA","CARRERA 6 4-22","6298259","serviciospublicos@california-santander.gov.co","Registro por la ESP","GENNY GAMBOA GUERRERO","MUNICIPIO (PRESTACIÓN DIRECTA)","MENOR O IGUAL A 2500 USUARIOS"
"SANTANDER","CALIFORNIA","ALCANTARILLADO","OPERATIVA","UNIDAD DE SERVICIOS PUBLICOS DE ACUEDUCTO, ALCANTARILLADO Y ASEO","SANTANDER","CALIFORNIA","CARRERA 6 4-22","6298259","serviciospublicos@california-santander.gov.co","Registro por la ESP","GENNY GAMBOA GUERRERO","MUNICIPIO (PRESTACIÓN DIRECTA)","MENOR O IGUAL A 2500 USUARIOS"
"SANTANDER","CALIFORNIA","ASEO","OPERATIVA","UNIDAD DE SERVICIOS PUBLICOS DE ACUEDUCTO, ALCANTARILLADO Y ASEO","SANTANDER","CALIFORNIA","CARRERA 6 4-22","6298259","serviciospublicos@california-santander.gov.co","Registro por la ESP","GENNY GAMBOA GUERRERO","MUNICIPIO (PRESTACIÓN DIRECTA)","MENOR O IGUAL A 2500 USUARIOS"
"SANTANDER","BARICHARA","ACUEDUCTO","OPERATIVA","ACUEDUCTO REGIONAL COOPERATIVO EL COMUN  ACUASCOOP  - EMPRESA DE SERVICIOS PUBLICOS E.S.P.","SANTANDER","BARICHARA","Carrera 8  4 - 89","7267165","acuascoop@yahoo.com","Registro por la ESP","LIBARDO ATUESTA PARRA","ORGANIZACION AUTORIZADA","MENOR O IGUAL A 2500 USUARIOS"
"SANTANDER","CABRERA","ACUEDUCTO","OPERATIVA","ACUEDUCTO REGIONAL COOPERATIVO EL COMUN  ACUASCOOP  - EMPRESA DE SERVICIOS PUBLICOS E.S.P.","SANTANDER","BARICHARA","Carrera 8  4 - 89","7267165","acuascoop@yahoo.com","Registro por la ESP","LIBARDO ATUESTA PARRA","ORGANIZACION AUTORIZADA","MENOR O IGUAL A 2500 USUARIOS"
"SANTANDER","VILLANUEVA","ACUEDUCTO","OPERATIVA","ACUEDUCTO REGIONAL COOPERATIVO EL COMUN  ACUASCOOP  - EMPRESA DE SERVICIOS PUBLICOS E.S.P.","SANTANDER","BARICHARA","Carrera 8  4 - 89","7267165","acuascoop@yahoo.com","Registro por la ESP","LIBARDO ATUESTA PARRA","ORGANIZACION AUTORIZADA","MENOR O IGUAL A 2500 USUARIOS"
"SANTANDER","CHARTA","ACUEDUCTO","OPERATIVA","UNIDAD ADMINISTRADORA DE SERVICIOS PUBLICOS DE ACUEDUCTO ALCANTARILLADO Y  ASEO DE CHARTA","SANTANDER","CHARTA","PALACIO MUNICIPAL","6069519","angelicaescobara@hotmail.com","Registro por la ESP","ALVARO ROJAS TOLOZA","MUNICIPIO (PRESTACIÓN DIRECTA)","MENOR O IGUAL A 2500 USUARIOS"
"SANTANDER","CHARTA","ALCANTARILLADO","OPERATIVA","UNIDAD ADMINISTRADORA DE SERVICIOS PUBLICOS DE ACUEDUCTO ALCANTARILLADO Y  ASEO DE CHARTA","SANTANDER","CHARTA","PALACIO MUNICIPAL","6069519","angelicaescobara@hotmail.com","Registro por la ESP","ALVARO ROJAS TOLOZA","MUNICIPIO (PRESTACIÓN DIRECTA)","MENOR O IGUAL A 2500 USUARIOS"
"SANTANDER","CHARTA","ASEO","OPERATIVA","UNIDAD ADMINISTRADORA DE SERVICIOS PUBLICOS DE ACUEDUCTO ALCANTARILLADO Y  ASEO DE CHARTA","SANTANDER","CHARTA","PALACIO MUNICIPAL","6069519","angelicaescobara@hotmail.com","Registro por la ESP","ALVARO ROJAS TOLOZA","MUNICIPIO (PRESTACIÓN DIRECTA)","MENOR O IGUAL A 2500 USUARIOS"
"SANTANDER","SAN BENITO","ACUEDUCTO","OPERATIVA","UNIDAD ADMINISTRADORA DE LOS SERVICIOS PUBLICOS DE ACUEDUCTO, ALCANTARILLADO Y ASEO DE SAN BENITO - SANTANDER","SANTANDER","SAN BENITO","PALACIO MUNICIPAL","7565454","uniaser2020@gmail.com","Registro por la ESP","JAIME AMADO ARGUELLO","MUNICIPIO (PRESTACIÓN DIRECTA)","MENOR O IGUAL A 2500 USUARIOS"
"SANTANDER","SAN BENITO","ALCANTARILLADO","OPERATIVA","UNIDAD ADMINISTRADORA DE LOS SERVICIOS PUBLICOS DE ACUEDUCTO, ALCANTARILLADO Y ASEO DE SAN BENITO - SANTANDER","SANTANDER","SAN BENITO","PALACIO MUNICIPAL","7565454","uniaser2020@gmail.com","Registro por la ESP","JAIME AMADO ARGUELLO","MUNICIPIO (PRESTACIÓN DIRECTA)","MENOR O IGUAL A 2500 USUARIOS"
"SANTANDER","SAN BENITO","ASEO","OPERATIVA","UNIDAD ADMINISTRADORA DE LOS SERVICIOS PUBLICOS DE ACUEDUCTO, ALCANTARILLADO Y ASEO DE SAN BENITO - SANTANDER","SANTANDER","SAN BENITO","PALACIO MUNICIPAL","7565454","uniaser2020@gmail.com","Registro por la ESP","JAIME AMADO ARGUELLO","MUNICIPIO (PRESTACIÓN DIRECTA)","MENOR O IGUAL A 2500 USUARIOS"
"SANTANDER","PUENTE NACIONAL","ACUEDUCTO","OPERATIVA","EMPRESA DE SERVICIOS PÚBLICOS DOMICILIARIOS DE PUENTE NACIONAL E.S.P.","SANTANDER","PUENTE NACIONAL","ANILLO VIAL","7587050","acuapuente@gmail.com","Registro por la ESP","BRAYAN STEEK CORTES LUENGAS","SOCIEDADES (EMPRESA DE SERVICIOS PUBLICOS)","MENOR O IGUAL A 2500 USUARIOS"
"SANTANDER","PUENTE NACIONAL","ALCANTARILLADO","OPERATIVA","EMPRESA DE SERVICIOS PÚBLICOS DOMICILIARIOS DE PUENTE NACIONAL E.S.P.","SANTANDER","PUENTE NACIONAL","ANILLO VIAL","7587050","acuapuente@gmail.com","Registro por la ESP","BRAYAN STEEK CORTES LUENGAS","SOCIEDADES (EMPRESA DE SERVICIOS PUBLICOS)","MENOR O IGUAL A 2500 USUARIOS"
"SANTANDER","PUENTE NACIONAL","ASEO","OPERATIVA","EMPRESA DE SERVICIOS PÚBLICOS DOMICILIARIOS DE PUENTE NACIONAL E.S.P.","SANTANDER","PUENTE NACIONAL","ANILLO VIAL","7587050","acuapuente@gmail.com","Registro por la ESP","BRAYAN STEEK CORTES LUENGAS","SOCIEDADES (EMPRESA DE SERVICIOS PUBLICOS)","MENOR O IGUAL A 2500 USUARIOS"
"SANTANDER","CONTRATACION","ACUEDUCTO","OPERATIVA","UNIDAD ADMINISTRADORA DE SERVICIOS PUBLICOS DE ACUEDUCTO, ALCANTARILLADO Y ASEO DE LA CABECERA MUNICIPAL CONTRATACION","SANTANDER","CONTRATACION","Calle 4 No.6 - 51","7171231","serviciospublicos@contratacion-santander.gov.co","Registro por la ESP","MARTHA CECILIA SUAREZ ABRIL","MUNICIPIO (PRESTACIÓN DIRECTA)","MENOR O IGUAL A 2500 USUARIOS"
"SANTANDER","CONTRATACION","ALCANTARILLADO","OPERATIVA","UNIDAD ADMINISTRADORA DE SERVICIOS PUBLICOS DE ACUEDUCTO, ALCANTARILLADO Y ASEO DE LA CABECERA MUNICIPAL CONTRATACION","SANTANDER","CONTRATACION","Calle 4 No.6 - 51","7171231","serviciospublicos@contratacion-santander.gov.co","Registro por la ESP","MARTHA CECILIA SUAREZ ABRIL","MUNICIPIO (PRESTACIÓN DIRECTA)","MENOR O IGUAL A 2500 USUARIOS"
"SANTANDER","CONTRATACION","ASEO","OPERATIVA","UNIDAD ADMINISTRADORA DE SERVICIOS PUBLICOS DE ACUEDUCTO, ALCANTARILLADO Y ASEO DE LA CABECERA MUNICIPAL CONTRATACION","SANTANDER","CONTRATACION","Calle 4 No.6 - 51","7171231","serviciospublicos@contratacion-santander.gov.co","Registro por la ESP","MARTHA CECILIA SUAREZ ABRIL","MUNICIPIO (PRESTACIÓN DIRECTA)","MENOR O IGUAL A 2500 USUARIOS"
"SANTANDER","VETAS","ACUEDUCTO","OPERATIVA","UNIDAD ADMINISTRADORA DE SERVICIOS PUBLICOS DE ACUEDUCTO, ALCANTARILLADO Y ASEO DE VETAS","SANTANDER","VETAS","carrera 4 No. 4 -05 Palacio Municipal","6297279","serviciospublicos@vetas-santander.gov.co","Registro por la ESP","HERNAN BAUTISTA MORENO","MUNICIPIO (PRESTACIÓN DIRECTA)","MENOR O IGUAL A 2500 USUARIOS"
"SANTANDER","VETAS","ALCANTARILLADO","OPERATIVA","UNIDAD ADMINISTRADORA DE SERVICIOS PUBLICOS DE ACUEDUCTO, ALCANTARILLADO Y ASEO DE VETAS","SANTANDER","VETAS","carrera 4 No. 4 -05 Palacio Municipal","6297279","serviciospublicos@vetas-santander.gov.co","Registro por la ESP","HERNAN BAUTISTA MORENO","MUNICIPIO (PRESTACIÓN DIRECTA)","MENOR O IGUAL A 2500 USUARIOS"
"SANTANDER","VETAS","ASEO","OPERATIVA","UNIDAD ADMINISTRADORA DE SERVICIOS PUBLICOS DE ACUEDUCTO, ALCANTARILLADO Y ASEO DE VETAS","SANTANDER","VETAS","carrera 4 No. 4 -05 Palacio Municipal","6297279","serviciospublicos@vetas-santander.gov.co","Registro por la ESP","HERNAN BAUTISTA MORENO","MUNICIPIO (PRESTACIÓN DIRECTA)","MENOR O IGUAL A 2500 USUARIOS"
"SANTANDER","AGUADA","ACUEDUCTO","OPERATIVA","UNIDAD ADMINISTRADORA DE SERVICIOS PUBLICOS DE ACUEDUCTO, ALCANTARILLADO Y ASEO DE AGUADA SANTANDER","SANTANDER","AGUADA","CARRERA 4 No 2-73","7565517","alcaldia@aguada-santander.gov.co","Registro por la ESP","OSCAR MAURICIO SANCHEZ SANTAMARIA","MUNICIPIO (PRESTACIÓN DIRECTA)","MENOR O IGUAL A 2500 USUARIOS"
"SANTANDER","AGUADA","ALCANTARILLADO","OPERATIVA","UNIDAD ADMINISTRADORA DE SERVICIOS PUBLICOS DE ACUEDUCTO, ALCANTARILLADO Y ASEO DE AGUADA SANTANDER","SANTANDER","AGUADA","CARRERA 4 No 2-73","7565517","alcaldia@aguada-santander.gov.co","Registro por la ESP","OSCAR MAURICIO SANCHEZ SANTAMARIA","MUNICIPIO (PRESTACIÓN DIRECTA)","MENOR O IGUAL A 2500 USUARIOS"
"SANTANDER","AGUADA","ASEO","OPERATIVA","UNIDAD ADMINISTRADORA DE SERVICIOS PUBLICOS DE ACUEDUCTO, ALCANTARILLADO Y ASEO DE AGUADA SANTANDER","SANTANDER","AGUADA","CARRERA 4 No 2-73","7565517","alcaldia@aguada-santander.gov.co","Registro por la ESP","OSCAR MAURICIO SANCHEZ SANTAMARIA","MUNICIPIO (PRESTACIÓN DIRECTA)","MENOR O IGUAL A 2500 USUARIOS"
"SANTANDER","BARBOSA","ACUEDUCTO","OPERATIVA","JUNTA DE ACCION COMUNAL INSPECCION POLICIA DE CITE","SANTANDER","BARBOSA","Carrera 3 N° 3-07","7485791","acuacite2971@hotmail.com","Registro por la ESP","MARIA MARLENY PINZON DE GALEANO","ORGANIZACION AUTORIZADA","MENOR O IGUAL A 2500 USUARIOS"
"SANTANDER","BARBOSA","ALCANTARILLADO","OPERATIVA","JUNTA DE ACCION COMUNAL INSPECCION POLICIA DE CITE","SANTANDER","BARBOSA","Carrera 3 N° 3-07","7485791","acuacite2971@hotmail.com","Registro por la ESP","MARIA MARLENY PINZON DE GALEANO","ORGANIZACION AUTORIZADA","MENOR O IGUAL A 2500 USUARIOS"
"SANTANDER","BARBOSA","ACUEDUCTO","OPERATIVA","ASOCIACION DE USUARIOS DEL ACUEDUCTO COMUNAL LA REVUELTA ACLARE","SANTANDER","BARBOSA","VEREDA CASABLANCA CORREGIMIENTO DE CITE","7482190","asorevuelta2971@hotmail.com","Registro por la ESP","LEONARDO CAMACHO PINZON","ORGANIZACION AUTORIZADA","MENOR O IGUAL A 2500 USUARIOS"
"SANTANDER","BARRANCABERMEJA","ACUEDUCTO","OPERATIVA","CORPORACION ADMINISTRADORA DEL ACUEDUCTO VEREDAL DEL CORREGIMIENTO EL CENTRO","SANTANDER","BARRANCABERMEJA","VEREDA CAMPO 22 FRENTE HOSPITAL DE ECOPETROL LOCAL 1001","6109174","corpacentro@hotmail.com","Registro por la ESP","CARLOS EDUARDO DIAZ NAVAS","ORGANIZACION AUTORIZADA","MENOR O IGUAL A 2500 USUARIOS"
"SANTANDER","JESUS MARIA","ACUEDUCTO","OPERATIVA","UNIDAD ADMINISTRADORA DE LOS SERVICIOS PÚBLICOS DE JESÚS MARÍA","SANTANDER","JESUS MARIA","CALLE 5 N 5-24","7569704","alcaldia@jesusmaria-santander.gov.co","Registro por la ESP","EDUARD JESUS SANCHEZ ARIZA","MUNICIPIO (PRESTACIÓN DIRECTA)","MENOR O IGUAL A 2500 USUARIOS"
"SANTANDER","JESUS MARIA","ALCANTARILLADO","OPERATIVA","UNIDAD ADMINISTRADORA DE LOS SERVICIOS PÚBLICOS DE JESÚS MARÍA","SANTANDER","JESUS MARIA","CALLE 5 N 5-24","7569704","alcaldia@jesusmaria-santander.gov.co","Registro por la ESP","EDUARD JESUS SANCHEZ ARIZA","MUNICIPIO (PRESTACIÓN DIRECTA)","MENOR O IGUAL A 2500 USUARIOS"
"SANTANDER","JESUS MARIA","ASEO","OPERATIVA","UNIDAD ADMINISTRADORA DE LOS SERVICIOS PÚBLICOS DE JESÚS MARÍA","SANTANDER","JESUS MARIA","CALLE 5 N 5-24","7569704","alcaldia@jesusmaria-santander.gov.co","Registro por la ESP","EDUARD JESUS SANCHEZ ARIZA","MUNICIPIO (PRESTACIÓN DIRECTA)","MENOR O IGUAL A 2500 USUARIOS"
"SANTANDER","SAN JOSE DE MIRANDA","ACUEDUCTO","OPERATIVA","UNIDAD MUNICIPAL DE SERVICIOS PUBLICOS DOMICILIARIOS DE ACUEDUCTO, ALCANTARILLADO Y ASEO DE SAN JOSE DE MIRANDA, SANTANDER","SANTANDER","SAN JOSE DE MIRANDA","CARRERA 4 No 3 - 31","6626003","CONTACTENOS@SANJOSEDEMIRANDA.-SANTANDER.GOV.CO","Registro por la ESP","DONALDO ORTIZ CARDENAS","MUNICIPIO (PRESTACIÓN DIRECTA)","MENOR O IGUAL A 2500 USUARIOS"
"SANTANDER","SAN JOSE DE MIRANDA","ALCANTARILLADO","OPERATIVA","UNIDAD MUNICIPAL DE SERVICIOS PUBLICOS DOMICILIARIOS DE ACUEDUCTO, ALCANTARILLADO Y ASEO DE SAN JOSE DE MIRANDA, SANTANDER","SANTANDER","SAN JOSE DE MIRANDA","CARRERA 4 No 3 - 31","6626003","CONTACTENOS@SANJOSEDEMIRANDA.-SANTANDER.GOV.CO","Registro por la ESP","DONALDO ORTIZ CARDENAS","MUNICIPIO (PRESTACIÓN DIRECTA)","MENOR O IGUAL A 2500 USUARIOS"
"SANTANDER","SAN JOSE DE MIRANDA","ASEO","OPERATIVA","UNIDAD MUNICIPAL DE SERVICIOS PUBLICOS DOMICILIARIOS DE ACUEDUCTO, ALCANTARILLADO Y ASEO DE SAN JOSE DE MIRANDA, SANTANDER","SANTANDER","SAN JOSE DE MIRANDA","CARRERA 4 No 3 - 31","6626003","CONTACTENOS@SANJOSEDEMIRANDA.-SANTANDER.GOV.CO","Registro por la ESP","DONALDO ORTIZ CARDENAS","MUNICIPIO (PRESTACIÓN DIRECTA)","MENOR O IGUAL A 2500 USUARIOS"
"SANTANDER","BUCARAMANGA","ASEO","OPERATIVA","COOPERATIVA DE TRABAJO ASOCIADO, RECICLAJE Y SERVICIOS, COOPRESER","SANTANDER","BUCARAMANGA","Calle 19 20 46","6323351","elsamaria0378@hotmail.com","Registro por la ESP","ELSA MARIA LOPEZ DE LATORRE","ORGANIZACION AUTORIZADA","MAYOR O IGUAL A 5001 USUARIOS"
"SANTANDER","VILLANUEVA","ACUEDUCTO","OPERATIVA","MUNICIPIO DE VILLANUEVA","SANTANDER","VILLANUEVA","CARRERA 15 # 13-27","7166216","ALCALDIA@VILLANUEVA-SANTANDER.GOV.CO","Registro por la ESP","JOSE ALFREDO JIMENEZ BARON","MUNICIPIO (PRESTACIÓN DIRECTA)","MENOR O IGUAL A 2500 USUARIOS"
"SANTANDER","VILLANUEVA","ALCANTARILLADO","OPERATIVA","MUNICIPIO DE VILLANUEVA","SANTANDER","VILLANUEVA","CARRERA 15 # 13-27","7166216","ALCALDIA@VILLANUEVA-SANTANDER.GOV.CO","Registro por la ESP","JOSE ALFREDO JIMENEZ BARON","MUNICIPIO (PRESTACIÓN DIRECTA)","MENOR O IGUAL A 2500 USUARIOS"
"SANTANDER","VILLANUEVA","ASEO","OPERATIVA","MUNICIPIO DE VILLANUEVA","SANTANDER","VILLANUEVA","CARRERA 15 # 13-27","7166216","ALCALDIA@VILLANUEVA-SANTANDER.GOV.CO","Registro por la ESP","JOSE ALFREDO JIMENEZ BARON","MUNICIPIO (PRESTACIÓN DIRECTA)","MENOR O IGUAL A 2500 USUARIOS"
"SANTANDER","ALBANIA","ACUEDUCTO","OPERATIVA","UNIDAD DE SERVICIOS PUBLICOS DEL MUNICIPIO DE ALBANIA SANTANDER","SANTANDER","ALBANIA","Calle 2 Nº 3 81","0000000","PAULINA.RU94@GMAIL.COM","Registro por la ESP","HUMBERTO URIAS SIERRA SANCHEZ","MUNICIPIO (PRESTACIÓN DIRECTA)","MENOR O IGUAL A 2500 USUARIOS"
"SANTANDER","ALBANIA","ALCANTARILLADO","OPERATIVA","UNIDAD DE SERVICIOS PUBLICOS DEL MUNICIPIO DE ALBANIA SANTANDER","SANTANDER","ALBANIA","Calle 2 Nº 3 81","0000000","PAULINA.RU94@GMAIL.COM","Registro por la ESP","HUMBERTO URIAS SIERRA SANCHEZ","MUNICIPIO (PRESTACIÓN DIRECTA)","MENOR O IGUAL A 2500 USUARIOS"
"SANTANDER","ALBANIA","ASEO","OPERATIVA","UNIDAD DE SERVICIOS PUBLICOS DEL MUNICIPIO DE ALBANIA SANTANDER","SANTANDER","ALBANIA","Calle 2 Nº 3 81","0000000","PAULINA.RU94@GMAIL.COM","Registro por la ESP","HUMBERTO URIAS SIERRA SANCHEZ","MUNICIPIO (PRESTACIÓN DIRECTA)","MENOR O IGUAL A 2500 USUARIOS"
"SANTANDER","GUACA","ACUEDUCTO","OPERATIVA","UNIDAD DE SERVICIOS PUBLICOS DOMICILIARIOS DEL MUNICIPIO DE GUACA","SANTANDER","GUACA","CARRERA 6 No 4-28","6632511","alcaldia@guaca-santander.gov.co","Registro por la ESP","RAMIRO ALONSO REATIGA ALVARADO","MUNICIPIO (PRESTACIÓN DIRECTA)","MENOR O IGUAL A 2500 USUARIOS"
"SANTANDER","GUACA","ALCANTARILLADO","OPERATIVA","UNIDAD DE SERVICIOS PUBLICOS DOMICILIARIOS DEL MUNICIPIO DE GUACA","SANTANDER","GUACA","CARRERA 6 No 4-28","6632511","alcaldia@guaca-santander.gov.co","Registro por la ESP","RAMIRO ALONSO REATIGA ALVARADO","MUNICIPIO (PRESTACIÓN DIRECTA)","MENOR O IGUAL A 2500 USUARIOS"
"SANTANDER","GUACA","ASEO","OPERATIVA","UNIDAD DE SERVICIOS PUBLICOS DOMICILIARIOS DEL MUNICIPIO DE GUACA","SANTANDER","GUACA","CARRERA 6 No 4-28","6632511","alcaldia@guaca-santander.gov.co","Registro por la ESP","RAMIRO ALONSO REATIGA ALVARADO","MUNICIPIO (PRESTACIÓN DIRECTA)","MENOR O IGUAL A 2500 USUARIOS"
"SANTANDER","SAN MIGUEL","ACUEDUCTO","OPERATIVA","UNIDAD ADMINISTRADORA DE SERVICIOS PÚBLICOS DE ACUEDUCTO, ALCANTARILLADO Y ASEO EN LA CABECERA MUNICIPAL  DEL MUNICIPIO DE SAN MIGUEL","SANTANDER","SAN MIGUEL","CARRERA 4 No. 4-15","6638816","planeacion@sanmiguel-santander.gov.co","Registro por la ESP","FIDEL CASTRO SANCHEZ","MUNICIPIO (PRESTACIÓN DIRECTA)","MENOR O IGUAL A 2500 USUARIOS"
"SANTANDER","SAN MIGUEL","ALCANTARILLADO","OPERATIVA","UNIDAD ADMINISTRADORA DE SERVICIOS PÚBLICOS DE ACUEDUCTO, ALCANTARILLADO Y ASEO EN LA CABECERA MUNICIPAL  DEL MUNICIPIO DE SAN MIGUEL","SANTANDER","SAN MIGUEL","CARRERA 4 No. 4-15","6638816","planeacion@sanmiguel-santander.gov.co","Registro por la ESP","FIDEL CASTRO SANCHEZ","MUNICIPIO (PRESTACIÓN DIRECTA)","MENOR O IGUAL A 2500 USUARIOS"
"SANTANDER","SAN MIGUEL","ASEO","OPERATIVA","UNIDAD ADMINISTRADORA DE SERVICIOS PÚBLICOS DE ACUEDUCTO, ALCANTARILLADO Y ASEO EN LA CABECERA MUNICIPAL  DEL MUNICIPIO DE SAN MIGUEL","SANTANDER","SAN MIGUEL","CARRERA 4 No. 4-15","6638816","planeacion@sanmiguel-santander.gov.co","Registro por la ESP","FIDEL CASTRO SANCHEZ","MUNICIPIO (PRESTACIÓN DIRECTA)","MENOR O IGUAL A 2500 USUARIOS"
"SANTANDER","GUEPSA","ASEO","OPERATIVA","MUNICIPIO DE GUEPSA","SANTANDER","GUEPSA","carrera 5 con calle 3 esquina","7583051","alcaldia@guepsa-santander.gov.co","Registro por la ESP","OSMAR ANGEL ARIAS ACUNA","MUNICIPIO (PRESTACIÓN DIRECTA)","MENOR O IGUAL A 2500 USUARIOS"
"SANTANDER","CURITI","ASEO","OPERATIVA","MUNICIPIO DE CURITI","SANTANDER","CURITI","CALLE 8 No. 8-49","7187473","contactenos@curiti-santander.gov.co","Registro por la ESP","MARIO GALVIS AVE","MUNICIPIO (PRESTACIÓN DIRECTA)","MENOR O IGUAL A 2500 USUARIOS"
"SANTANDER","BUCARAMANGA","ASEO","OPERATIVA","LIMPIEZA URBANA S.A. E.S.P.","SANTANDER","BUCARAMANGA","CARRERA 19 # 34 - 64 PISO 3 OF 306","6330970","auxiliarsui@limpiezaurbana.com.co","Registro por la ESP","SHADIA GOMEZ HERNANDEZ","SOCIEDADES (EMPRESA DE SERVICIOS PUBLICOS)","MAYOR O IGUAL A 5001 USUARIOS"
"SANTANDER","FLORIDABLANCA","ASEO","OPERATIVA","LIMPIEZA URBANA S.A. E.S.P.","SANTANDER","BUCARAMANGA","CARRERA 19 # 34 - 64 PISO 3 OF 306","6330970","auxiliarsui@limpiezaurbana.com.co","Registro por la ESP","SHADIA GOMEZ HERNANDEZ","SOCIEDADES (EMPRESA DE SERVICIOS PUBLICOS)","MAYOR O IGUAL A 5001 USUARIOS"
"SANTANDER","GIRON","ASEO","OPERATIVA","LIMPIEZA URBANA S.A. E.S.P.","SANTANDER","BUCARAMANGA","CARRERA 19 # 34 - 64 PISO 3 OF 306","6330970","auxiliarsui@limpiezaurbana.com.co","Registro por la ESP","SHADIA GOMEZ HERNANDEZ","SOCIEDADES (EMPRESA DE SERVICIOS PUBLICOS)","MAYOR O IGUAL A 5001 USUARIOS"
"SANTANDER","PIEDECUESTA","ASEO","OPERATIVA","LIMPIEZA URBANA S.A. E.S.P.","SANTANDER","BUCARAMANGA","CARRERA 19 # 34 - 64 PISO 3 OF 306","6330970","auxiliarsui@limpiezaurbana.com.co","Registro por la ESP","SHADIA GOMEZ HERNANDEZ","SOCIEDADES (EMPRESA DE SERVICIOS PUBLICOS)","MAYOR O IGUAL A 5001 USUARIOS"
"SANTANDER","CONFINES","ASEO","OPERATIVA","SESPA SANTANDER S.A.  E.S.P.","SANTANDER","SOCORRO","CARRERA 14 No. 11 - 30","7273772","contadorasespa@outlook.com","Registro por la ESP","INGRITH YOHANA ORTIZ ARMIROLA","SOCIEDADES (EMPRESA DE SERVICIOS PUBLICOS)","MAYOR O IGUAL A 5001 USUARIOS"
"SANTANDER","LEBRIJA","ASEO","OPERATIVA","SESPA SANTANDER S.A.  E.S.P.","SANTANDER","SOCORRO","CARRERA 14 No. 11 - 30","7273772","contadorasespa@outlook.com","Registro por la ESP","INGRITH YOHANA ORTIZ ARMIROLA","SOCIEDADES (EMPRESA DE SERVICIOS PUBLICOS)","MAYOR O IGUAL A 5001 USUARIOS"
"SANTANDER","PALMAS DEL SOCORRO","ASEO","OPERATIVA","SESPA SANTANDER S.A.  E.S.P.","SANTANDER","SOCORRO","CARRERA 14 No. 11 - 30","7273772","contadorasespa@outlook.com","Registro por la ESP","INGRITH YOHANA ORTIZ ARMIROLA","SOCIEDADES (EMPRESA DE SERVICIOS PUBLICOS)","MAYOR O IGUAL A 5001 USUARIOS"
"SANTANDER","SOCORRO","ASEO","OPERATIVA","SESPA SANTANDER S.A.  E.S.P.","SANTANDER","SOCORRO","CARRERA 14 No. 11 - 30","7273772","contadorasespa@outlook.com","Registro por la ESP","INGRITH YOHANA ORTIZ ARMIROLA","SOCIEDADES (EMPRESA DE SERVICIOS PUBLICOS)","MAYOR O IGUAL A 5001 USUARIOS"
"SANTANDER","BARRANCABERMEJA","ACUEDUCTO","OPERATIVA","AGUAS DE BARRANCABERMEJA S.A. E.S.P","SANTANDER","BARRANCABERMEJA","PLANTA DE TRATAMIENTO-Carretera NACIONAL","6216504","hernan.hernandez@aguasdebarrancabermeja.gov.co","Registro por la ESP","CARLOS ARTURO VAZQUEZ  ALDANA","SOCIEDADES (EMPRESA DE SERVICIOS PUBLICOS)","MAYOR O IGUAL A 5001 USUARIOS"
"SANTANDER","BARRANCABERMEJA","ALCANTARILLADO","OPERATIVA","AGUAS DE BARRANCABERMEJA S.A. E.S.P","SANTANDER","BARRANCABERMEJA","PLANTA DE TRATAMIENTO-Carretera NACIONAL","6216504","hernan.hernandez@aguasdebarrancabermeja.gov.co","Registro por la ESP","CARLOS ARTURO VAZQUEZ  ALDANA","SOCIEDADES (EMPRESA DE SERVICIOS PUBLICOS)","MAYOR O IGUAL A 5001 USUARIOS"
"SANTANDER","PUERTO PARRA","ACUEDUCTO","OPERATIVA","EMPRESA MUNICIPAL DE SERVICIOS PUBLICOS DE PUERTO PARRA EMSEPAR E.S.P. S.A.","SANTANDER","PUERTO PARRA","CARRERA 6 No. 7-78 BARRIO KENNEDY","6275067","carolinavasquezr1122@gmail.com","Registro por la ESP","GINETH CAROLINA VASQUEZ RAMIREZ","SOCIEDADES (EMPRESA DE SERVICIOS PUBLICOS)","MENOR O IGUAL A 2500 USUARIOS"
"SANTANDER","PUERTO PARRA","ALCANTARILLADO","OPERATIVA","EMPRESA MUNICIPAL DE SERVICIOS PUBLICOS DE PUERTO PARRA EMSEPAR E.S.P. S.A.","SANTANDER","PUERTO PARRA","CARRERA 6 No. 7-78 BARRIO KENNEDY","6275067","carolinavasquezr1122@gmail.com","Registro por la ESP","GINETH CAROLINA VASQUEZ RAMIREZ","SOCIEDADES (EMPRESA DE SERVICIOS PUBLICOS)","MENOR O IGUAL A 2500 USUARIOS"
"SANTANDER","PUERTO PARRA","ASEO","OPERATIVA","EMPRESA MUNICIPAL DE SERVICIOS PUBLICOS DE PUERTO PARRA EMSEPAR E.S.P. S.A.","SANTANDER","PUERTO PARRA","CARRERA 6 No. 7-78 BARRIO KENNEDY","6275067","carolinavasquezr1122@gmail.com","Registro por la ESP","GINETH CAROLINA VASQUEZ RAMIREZ","SOCIEDADES (EMPRESA DE SERVICIOS PUBLICOS)","MENOR O IGUAL A 2500 USUARIOS"
"SANTANDER","HATO","ACUEDUCTO","OPERATIVA","UNIDAD DE SERVICIOS PUBLICOS DOMICILIARIOS HATO SANTANDER","SANTANDER","HATO","carrera 5 No. 4 - 23","7248711","planeacion@hato-santander.gov.co","Registro por la ESP","JOSE PABLO TOLOZA RONDON","MUNICIPIO (PRESTACIÓN DIRECTA)","MENOR O IGUAL A 2500 USUARIOS"
"SANTANDER","HATO","ALCANTARILLADO","OPERATIVA","UNIDAD DE SERVICIOS PUBLICOS DOMICILIARIOS HATO SANTANDER","SANTANDER","HATO","carrera 5 No. 4 - 23","7248711","planeacion@hato-santander.gov.co","Registro por la ESP","JOSE PABLO TOLOZA RONDON","MUNICIPIO (PRESTACIÓN DIRECTA)","MENOR O IGUAL A 2500 USUARIOS"
"SANTANDER","HATO","ASEO","OPERATIVA","UNIDAD DE SERVICIOS PUBLICOS DOMICILIARIOS HATO SANTANDER","SANTANDER","HATO","carrera 5 No. 4 - 23","7248711","planeacion@hato-santander.gov.co","Registro por la ESP","JOSE PABLO TOLOZA RONDON","MUNICIPIO (PRESTACIÓN DIRECTA)","MENOR O IGUAL A 2500 USUARIOS"
"SANTANDER","GUAPOTA","ALCANTARILLADO","OPERATIVA","MUNICIPIO GUAPOTA","SANTANDER","GUAPOTA","CALLE 5 No. 2-04","7296250","ormillana@yahoo.es","Registro por la ESP","ORLANDO MILLAN AGUILAR","MUNICIPIO (PRESTACIÓN DIRECTA)","MENOR O IGUAL A 2500 USUARIOS"
"SANTANDER","GUAPOTA","ASEO","OPERATIVA","MUNICIPIO GUAPOTA","SANTANDER","GUAPOTA","CALLE 5 No. 2-04","7296250","ormillana@yahoo.es","Registro por la ESP","ORLANDO MILLAN AGUILAR","MUNICIPIO (PRESTACIÓN DIRECTA)","MENOR O IGUAL A 2500 USUARIOS"
"SANTANDER","RIONEGRO","ACUEDUCTO","OPERATIVA","CORPORACION DE SERVICIOS DE ACUEDUCTO Y ALCANTARILLADO DE LA TIGRA","SANTANDER","RIONEGRO","Vereda La Plazuela Finca San Pablo","6945995","CARLOSMURILLOCASTILLO@HOTMAIL.COM","Registro por la ESP","CARLOS ALBERTO MURILLO CASTILLO","ORGANIZACION AUTORIZADA","MENOR O IGUAL A 2500 USUARIOS"
"SANTANDER","GUAVATA","ACUEDUCTO","OPERATIVA","MUNICIPIO DE GUAVATA","SANTANDER","GUAVATA","Carrera  3 No. 4-48","7527061","ALCALDIA@GUAVATA-SANTANDER.GOV.CO","Registro por la ESP","ANGELICA MARIA QUITIAN CUBIDES","MUNICIPIO (PRESTACIÓN DIRECTA)","MENOR O IGUAL A 2500 USUARIOS"
"SANTANDER","GUAVATA","ALCANTARILLADO","OPERATIVA","MUNICIPIO DE GUAVATA","SANTANDER","GUAVATA","Carrera  3 No. 4-48","7527061","ALCALDIA@GUAVATA-SANTANDER.GOV.CO","Registro por la ESP","ANGELICA MARIA QUITIAN CUBIDES","MUNICIPIO (PRESTACIÓN DIRECTA)","MENOR O IGUAL A 2500 USUARIOS"
"SANTANDER","GUAVATA","ASEO","OPERATIVA","MUNICIPIO DE GUAVATA","SANTANDER","GUAVATA","Carrera  3 No. 4-48","7527061","ALCALDIA@GUAVATA-SANTANDER.GOV.CO","Registro por la ESP","ANGELICA MARIA QUITIAN CUBIDES","MUNICIPIO (PRESTACIÓN DIRECTA)","MENOR O IGUAL A 2500 USUARIOS"
"SANTANDER","SANTA BARBARA","ACUEDUCTO","OPERATIVA","UNIDAD ADMINISTRATIVA DE LOS SERVICIOS PUBLICOS DOMICILIARIOS DE ACUEDUCTO, ALCANTARILLADO Y ASEO DEL MUNICIPIO DE SANTA BARBARA","SANTANDER","SANTA BARBARA","CARRERA 3 No.4-50","6569083","yurypaolajaimes@gmail.com","Registro por la ESP","MARINELLA ESTUPINAN RINCON","MUNICIPIO (PRESTACIÓN DIRECTA)","MENOR O IGUAL A 2500 USUARIOS"
"SANTANDER","SANTA BARBARA","ALCANTARILLADO","OPERATIVA","UNIDAD ADMINISTRATIVA DE LOS SERVICIOS PUBLICOS DOMICILIARIOS DE ACUEDUCTO, ALCANTARILLADO Y ASEO DEL MUNICIPIO DE SANTA BARBARA","SANTANDER","SANTA BARBARA","CARRERA 3 No.4-50","6569083","yurypaolajaimes@gmail.com","Registro por la ESP","MARINELLA ESTUPINAN RINCON","MUNICIPIO (PRESTACIÓN DIRECTA)","MENOR O IGUAL A 2500 USUARIOS"
"SANTANDER","SANTA BARBARA","ASEO","OPERATIVA","UNIDAD ADMINISTRATIVA DE LOS SERVICIOS PUBLICOS DOMICILIARIOS DE ACUEDUCTO, ALCANTARILLADO Y ASEO DEL MUNICIPIO DE SANTA BARBARA","SANTANDER","SANTA BARBARA","CARRERA 3 No.4-50","6569083","yurypaolajaimes@gmail.com","Registro por la ESP","MARINELLA ESTUPINAN RINCON","MUNICIPIO (PRESTACIÓN DIRECTA)","MENOR O IGUAL A 2500 USUARIOS"
"SANTANDER","BARRANCABERMEJA","ASEO","OPERATIVA","EMPRESA ASOCIATIVA DE TRABAJO MUCAF E.S.P.","SANTANDER","BARRANCABERMEJA","VEREDA CAMPO 22 SECTOR PINCHOTE CGMTO EL CENTRO","6109327","wilpa60@hotmail.com","Registro por la ESP","LUZ HELENA CANO DE HERRERA","ORGANIZACION AUTORIZADA","MENOR O IGUAL A 2500 USUARIOS"
"SANTANDER","VILLANUEVA","ACUEDUCTO","OPERATIVA","CORPORACION ACUEDUCTO REGIONAL MACAREGUA","SANTANDER","VILLANUEVA","CALLE 15 13 - 56","7166220","zaidaludin80@hiotmail.com","Registro por la ESP","AGUSTIN SARMIENTO PEREZ","ORGANIZACION AUTORIZADA","HASTA 2500 SUSCRIPTORES"
"SANTANDER","JORDAN","ACUEDUCTO","OPERATIVA","MUNICIPIO DE JORDAN","SANTANDER","JORDAN","PARQUE PRINCIPAL","7269632","contactenos@jordan-santander.gov.co","Registro por la ESP","YOHANA MUNOZ RUIZ","MUNICIPIO (PRESTACIÓN DIRECTA)","MENOR O IGUAL A 2500 USUARIOS"
"SANTANDER","JORDAN","ALCANTARILLADO","OPERATIVA","MUNICIPIO DE JORDAN","SANTANDER","JORDAN","PARQUE PRINCIPAL","7269632","contactenos@jordan-santander.gov.co","Registro por la ESP","YOHANA MUNOZ RUIZ","MUNICIPIO (PRESTACIÓN DIRECTA)","MENOR O IGUAL A 2500 USUARIOS"
"SANTANDER","JORDAN","ASEO","OPERATIVA","MUNICIPIO DE JORDAN","SANTANDER","JORDAN","PARQUE PRINCIPAL","7269632","contactenos@jordan-santander.gov.co","Registro por la ESP","YOHANA MUNOZ RUIZ","MUNICIPIO (PRESTACIÓN DIRECTA)","MENOR O IGUAL A 2500 USUARIOS"
"SANTANDER","VILLANUEVA","ACUEDUCTO","OPERATIVA","CORPORACION DE SERVICIOS DE ACUEDUCTO Y ALCANTARILLADO DEL CHORO AGUACHORO","SANTANDER","VILLANUEVA","CRA  14 No. 14 - 64","7166272","zaidaludin80@hotmail.com","Registro por la ESP","CARLOS SILVA BUENO","ORGANIZACION AUTORIZADA","MENOR O IGUAL A 2500 USUARIOS"
"SANTANDER","VILLANUEVA","ACUEDUCTO","OPERATIVA","CORPORACION DE ACUEDUCTO Y ALCANTARILLADO REGIONAL DE AGUAFRIA","SANTANDER","VILLANUEVA","carrera 15 Nª13 - 07","7166373","jorodu04@hotmail.com","Registro por la ESP","JOSE ROMERO DURAN","ORGANIZACION AUTORIZADA","HASTA 2500 SUSCRIPTORES"
"SANTANDER","OCAMONTE","ACUEDUCTO","OPERATIVA","UNIDAD DE SERVICIOS PUBLICOS DE OCAMONTE","SANTANDER","OCAMONTE","Calle 5 No. 3-49","7247495","housemanrene@hotmail.com","Registro por la ESP","CALA ARMANDO  VEGA","MUNICIPIO (PRESTACIÓN DIRECTA)","HASTA 2500 SUSCRIPTORES"
"SANTANDER","OCAMONTE","ALCANTARILLADO","OPERATIVA","UNIDAD DE SERVICIOS PUBLICOS DE OCAMONTE","SANTANDER","OCAMONTE","Calle 5 No. 3-49","7247495","housemanrene@hotmail.com","Registro por la ESP","CALA ARMANDO  VEGA","MUNICIPIO (PRESTACIÓN DIRECTA)","HASTA 2500 SUSCRIPTORES"
"SANTANDER","OCAMONTE","ASEO","OPERATIVA","UNIDAD DE SERVICIOS PUBLICOS DE OCAMONTE","SANTANDER","OCAMONTE","Calle 5 No. 3-49","7247495","housemanrene@hotmail.com","Registro por la ESP","CALA ARMANDO  VEGA","MUNICIPIO (PRESTACIÓN DIRECTA)","HASTA 2500 SUSCRIPTORES"
"SANTANDER","EL PENON","ACUEDUCTO","OPERATIVA","UNIDAD ADMINISTRADORA DE SERVICIOS PUBLICOS DE ACUEDUCTO, ALCANTARILLADO Y ASEO DEL MUNICIPIO EL  PEÑON","SANTANDER","EL PENON","Carrera 4 N° 5 - 72 Palacio Municipal","9999999","alexmendezgarcia08@gmail.com","Registro por la ESP","BERCELY QUIROGA VARGAS","MUNICIPIO (PRESTACIÓN DIRECTA)","MENOR O IGUAL A 2500 USUARIOS"
"SANTANDER","EL PENON","ALCANTARILLADO","OPERATIVA","UNIDAD ADMINISTRADORA DE SERVICIOS PUBLICOS DE ACUEDUCTO, ALCANTARILLADO Y ASEO DEL MUNICIPIO EL  PEÑON","SANTANDER","EL PENON","Carrera 4 N° 5 - 72 Palacio Municipal","9999999","alexmendezgarcia08@gmail.com","Registro por la ESP","BERCELY QUIROGA VARGAS","MUNICIPIO (PRESTACIÓN DIRECTA)","MENOR O IGUAL A 2500 USUARIOS"
"SANTANDER","EL PENON","ASEO","OPERATIVA","UNIDAD ADMINISTRADORA DE SERVICIOS PUBLICOS DE ACUEDUCTO, ALCANTARILLADO Y ASEO DEL MUNICIPIO EL  PEÑON","SANTANDER","EL PENON","Carrera 4 N° 5 - 72 Palacio Municipal","9999999","alexmendezgarcia08@gmail.com","Registro por la ESP","BERCELY QUIROGA VARGAS","MUNICIPIO (PRESTACIÓN DIRECTA)","MENOR O IGUAL A 2500 USUARIOS"
"SANTANDER","FLORIAN","ACUEDUCTO","OPERATIVA","MUNICIPIO DE FLORIAN SANTANDER","SANTANDER","FLORIAN","CALLE 4 N. 1A - 45 PALACIO MUNICIPAL","4856025","aaalabellezana@gmail.com","Registro por la ESP","LUIS HUMBERTO ZARATE CASTILLO","MUNICIPIO (PRESTACIÓN DIRECTA)","MENOR O IGUAL A 2500 USUARIOS"
"SANTANDER","FLORIAN","ALCANTARILLADO","OPERATIVA","MUNICIPIO DE FLORIAN SANTANDER","SANTANDER","FLORIAN","CALLE 4 N. 1A - 45 PALACIO MUNICIPAL","4856025","aaalabellezana@gmail.com","Registro por la ESP","LUIS HUMBERTO ZARATE CASTILLO","MUNICIPIO (PRESTACIÓN DIRECTA)","MENOR O IGUAL A 2500 USUARIOS"
"SANTANDER","FLORIAN","ASEO","OPERATIVA","MUNICIPIO DE FLORIAN SANTANDER","SANTANDER","FLORIAN","CALLE 4 N. 1A - 45 PALACIO MUNICIPAL","4856025","aaalabellezana@gmail.com","Registro por la ESP","LUIS HUMBERTO ZARATE CASTILLO","MUNICIPIO (PRESTACIÓN DIRECTA)","MENOR O IGUAL A 2500 USUARIOS"
"SANTANDER","SAN VICENTE DE CHUCURI","ACUEDUCTO","OPERATIVA","CORPORACION DE ACUEDUCTO URBANO YARIMA","SANTANDER","SAN VICENTE DE CHUCURI","CORREGIMIENTO DE YARIMA","6222754","corpoayarima@hotmail.com","Registro por la ESP","ALEIDA RUEDA GUARIN","ORGANIZACION AUTORIZADA","MENOR O IGUAL A 2500 USUARIOS"
"SANTANDER","SAN VICENTE DE CHUCURI","ALCANTARILLADO","OPERATIVA","CORPORACION DE ACUEDUCTO URBANO YARIMA","SANTANDER","SAN VICENTE DE CHUCURI","CORREGIMIENTO DE YARIMA","6222754","corpoayarima@hotmail.com","Registro por la ESP","ALEIDA RUEDA GUARIN","ORGANIZACION AUTORIZADA","MENOR O IGUAL A 2500 USUARIOS"
"SANTANDER","SAN VICENTE DE CHUCURI","ASEO","OPERATIVA","CORPORACION DE ACUEDUCTO URBANO YARIMA","SANTANDER","SAN VICENTE DE CHUCURI","CORREGIMIENTO DE YARIMA","6222754","corpoayarima@hotmail.com","Registro por la ESP","ALEIDA RUEDA GUARIN","ORGANIZACION AUTORIZADA","MENOR O IGUAL A 2500 USUARIOS"
"SANTANDER","LA PAZ","ASEO","OPERATIVA","MUNICIPIO DE LA PAZ","SANTANDER","LA PAZ","calle 3 # 3-57","7518001","jmelor.ing@gmail.com","Registro por la ESP","CHISTIAN FERNANDO TAVERA AMADO","MUNICIPIO (PRESTACIÓN DIRECTA)","MENOR O IGUAL A 2500 USUARIOS"
"SANTANDER","CHIMA","ACUEDUCTO","OPERATIVA","UNIDAD DE SERVICIOS PUBLICOS DE ACUEDUCTO, ALCANTARILLADO Y ASEO DE CHIMA","SANTANDER","CHIMA","CARRERA 5 No. 5-08","0000000","serviciospublicos@chima-santander.gov.co","Registro por la ESP","SERGIO ALEXANDER GONZALEZ HERNANDEZ","MUNICIPIO (PRESTACIÓN DIRECTA)","MENOR O IGUAL A 2500 USUARIOS"
"SANTANDER","CHIMA","ALCANTARILLADO","OPERATIVA","UNIDAD DE SERVICIOS PUBLICOS DE ACUEDUCTO, ALCANTARILLADO Y ASEO DE CHIMA","SANTANDER","CHIMA","CARRERA 5 No. 5-08","0000000","serviciospublicos@chima-santander.gov.co","Registro por la ESP","SERGIO ALEXANDER GONZALEZ HERNANDEZ","MUNICIPIO (PRESTACIÓN DIRECTA)","MENOR O IGUAL A 2500 USUARIOS"
"SANTANDER","CHIMA","ASEO","OPERATIVA","UNIDAD DE SERVICIOS PUBLICOS DE ACUEDUCTO, ALCANTARILLADO Y ASEO DE CHIMA","SANTANDER","CHIMA","CARRERA 5 No. 5-08","0000000","serviciospublicos@chima-santander.gov.co","Registro por la ESP","SERGIO ALEXANDER GONZALEZ HERNANDEZ","MUNICIPIO (PRESTACIÓN DIRECTA)","MENOR O IGUAL A 2500 USUARIOS"
"SANTANDER","PIEDECUESTA","ACUEDUCTO","OPERATIVA","COOPERATIVA MULTISERVICIOS ACUAVICA","SANTANDER","PIEDECUESTA","VEREDA LOS COLORADOS CONDOMINIO CAMPESTRE VILLA DE SANTA MARIA PORTERIA","6554184","cmontose@hotmail.com.co","Registro por la ESP","CARLOS FELIPE MONTOYA SERRANO","ORGANIZACION AUTORIZADA","HASTA 2500 SUSCRIPTORES"
"SANTANDER","LEBRIJA","ACUEDUCTO","OPERATIVA","CORPORACIÓN DE SERVICIOS DE ACUEDUCTO Y SANEAMIENTO BASICO DE LA VEREDA SANTO DOMINGO MUNICIPIO DE LEBRIJA DEPARTAMENTO DE SANTANDER","SANTANDER","LEBRIJA","CALLE 13 #10-76 CENTRO LEBRIJA","6567995","acueductosantodo@hotmail.com","Registro por la ESP","JAIRO RANGEL REGUEROS","ORGANIZACION AUTORIZADA","MENOR O IGUAL A 2500 USUARIOS"
"SANTANDER","MACARAVITA","ACUEDUCTO","OPERATIVA","UNIDAD DE SERVICIOS PUBLICOS DOMICILIARIOS  DE MACARAVITA","SANTANDER","MACARAVITA","CARRERA 3 No.3 -38","6607679","sec.planeacion@macaravita-santander.gov.co","Registro por la ESP","IVAN DARIO VASQUEZ CORDERO","MUNICIPIO (PRESTACIÓN DIRECTA)","MENOR O IGUAL A 2500 USUARIOS"
"SANTANDER","MACARAVITA","ALCANTARILLADO","OPERATIVA","UNIDAD DE SERVICIOS PUBLICOS DOMICILIARIOS  DE MACARAVITA","SANTANDER","MACARAVITA","CARRERA 3 No.3 -38","6607679","sec.planeacion@macaravita-santander.gov.co","Registro por la ESP","IVAN DARIO VASQUEZ CORDERO","MUNICIPIO (PRESTACIÓN DIRECTA)","MENOR O IGUAL A 2500 USUARIOS"
"SANTANDER","MACARAVITA","ASEO","OPERATIVA","UNIDAD DE SERVICIOS PUBLICOS DOMICILIARIOS  DE MACARAVITA","SANTANDER","MACARAVITA","CARRERA 3 No.3 -38","6607679","sec.planeacion@macaravita-santander.gov.co","Registro por la ESP","IVAN DARIO VASQUEZ CORDERO","MUNICIPIO (PRESTACIÓN DIRECTA)","MENOR O IGUAL A 2500 USUARIOS"
"SANTANDER","BUCARAMANGA","ALCANTARILLADO","OPERATIVA","EMPRESA PUBLICA DE ALCANTARILLADO DE SANTANDER S.A. E.S.P.","SANTANDER","BUCARAMANGA","Calle 24 # 23-68","6059370","felix.herrera@empas.gov.co","Registro por la ESP","LUDY ELENA ALEMAN CASTELLANOS","SOCIEDADES (EMPRESA DE SERVICIOS PUBLICOS)","MAYOR O IGUAL A 5001 USUARIOS"
"SANTANDER","FLORIDABLANCA","ALCANTARILLADO","OPERATIVA","EMPRESA PUBLICA DE ALCANTARILLADO DE SANTANDER S.A. E.S.P.","SANTANDER","BUCARAMANGA","Calle 24 # 23-68","6059370","felix.herrera@empas.gov.co","Registro por la ESP","LUDY ELENA ALEMAN CASTELLANOS","SOCIEDADES (EMPRESA DE SERVICIOS PUBLICOS)","MAYOR O IGUAL A 5001 USUARIOS"
"SANTANDER","GIRON","ALCANTARILLADO","OPERATIVA","EMPRESA PUBLICA DE ALCANTARILLADO DE SANTANDER S.A. E.S.P.","SANTANDER","BUCARAMANGA","Calle 24 # 23-68","6059370","felix.herrera@empas.gov.co","Registro por la ESP","LUDY ELENA ALEMAN CASTELLANOS","SOCIEDADES (EMPRESA DE SERVICIOS PUBLICOS)","MAYOR O IGUAL A 5001 USUARIOS"
"SANTANDER","BARRANCABERMEJA","ASEO","OPERATIVA","ASOCIACION REGIONAL DE RECICLADORES DEL MAGDALENA MEDIO CENTRAL DEL RECICLAJE","SANTANDER","BARRANCABERMEJA","DIAGONAL 58 A T-50A BARRIO DANUBIO","6126899","centraldelreciclajebca@gmail.com","Registro por la ESP","JHONY ALEXANDER OCHOA GUIZA","ORGANIZACION AUTORIZADA","MAYOR O IGUAL A 5001 USUARIOS"
"SANTANDER","BUCARAMANGA","ALCANTARILLADO","OPERATIVA","D. INGENIERIA LIMITADA","SANTANDER","BUCARAMANGA","CALLE 51 N° 35 - 28 INTERIOR 100 OFICINA 309","6431155","jhon.salcedo@dingenieria.com","Registro por la ESP","CESAR AUGUSTO DUARTE GARZÓN","PRESTADORES FUERA DEL ART. 15 LSPD","MAS DE 2500 SUSCRIPTORES"
"SANTANDER","BARBOSA","ACUEDUCTO","OPERATIVA","CORPORACION ADMINISTRADORA DE ACUEDUCTO VEREDA SANTA ROSA BAJA MUNICIPIO DE BARBOSA, SANTANDER","SANTANDER","BARBOSA","Vereda Santa Rosa","7565845","jacacuacite@hotmail.com","Registro por la ESP","EDGAR JOSE  CANO ARIZA","ORGANIZACION AUTORIZADA","HASTA 2500 SUSCRIPTORES"
"SANTANDER","LOS SANTOS","ASEO","OPERATIVA","EMPRESA DE ASEO DE SANTANDER SA ESP","SANTANDER","LOS SANTOS","CALLE 3 # 3 - 03","7269598","empresadeaseodesder@gmail.com","Registro por la ESP","NANCY ALEJANDRA SANTANA CORREDOR","SOCIEDADES (EMPRESA DE SERVICIOS PUBLICOS)","DESDE 2501 HASTA 5000 USUARIOS"
"SANTANDER","PIEDECUESTA","ASEO","OPERATIVA","EMPRESA DE ASEO DE SANTANDER SA ESP","SANTANDER","LOS SANTOS","CALLE 3 # 3 - 03","7269598","empresadeaseodesder@gmail.com","Registro por la ESP","NANCY ALEJANDRA SANTANA CORREDOR","SOCIEDADES (EMPRESA DE SERVICIOS PUBLICOS)","DESDE 2501 HASTA 5000 USUARIOS"
"SANTANDER","SAN VICENTE DE CHUCURI","ACUEDUCTO","OPERATIVA","ASOCIACION JUNTA ADMINISTRADORA ACUEDUCTO BARRIO ANGOSTURAS","SANTANDER","SAN VICENTE DE CHUCURI","CARRERA 2 8-62 BARRIO ANGOSTURAS","6256694","CONTADOR_SANVICENTE@HOTMAIL.COM","Registro por la ESP","GUSTAVO DELGADO SILVA","ORGANIZACION AUTORIZADA","HASTA 2500 SUSCRIPTORES"
"SANTANDER","SAN VICENTE DE CHUCURI","ACUEDUCTO","OPERATIVA","ADMINISTRACION PUBLICA COOPERATIVA DE SERVICIOS PUBLICOS DE SAN VICENTE DE CHUCURI","SANTANDER","SAN VICENTE DE CHUCURI","CALLE 11 No. 14-01 CASA DE MERCADO TERCER PISO ofc. 301001","6256940","gerenciamanantialesdechucuri@gmail.com","Registro por la ESP","DIANA TORCOROMA QUINTERO  GOMEZ","ORGANIZACION AUTORIZADA","DESDE 2501 HASTA 5000 USUARIOS"
"SANTANDER","SAN VICENTE DE CHUCURI","ALCANTARILLADO","OPERATIVA","ADMINISTRACION PUBLICA COOPERATIVA DE SERVICIOS PUBLICOS DE SAN VICENTE DE CHUCURI","SANTANDER","SAN VICENTE DE CHUCURI","CALLE 11 No. 14-01 CASA DE MERCADO TERCER PISO ofc. 301001","6256940","gerenciamanantialesdechucuri@gmail.com","Registro por la ESP","DIANA TORCOROMA QUINTERO  GOMEZ","ORGANIZACION AUTORIZADA","MENOR O IGUAL A 2500 USUARIOS"
"SANTANDER","SAN VICENTE DE CHUCURI","ASEO","OPERATIVA","ADMINISTRACION PUBLICA COOPERATIVA DE SERVICIOS PUBLICOS DE SAN VICENTE DE CHUCURI","SANTANDER","SAN VICENTE DE CHUCURI","CALLE 11 No. 14-01 CASA DE MERCADO TERCER PISO ofc. 301001","6256940","gerenciamanantialesdechucuri@gmail.com","Registro por la ESP","DIANA TORCOROMA QUINTERO  GOMEZ","ORGANIZACION AUTORIZADA","MENOR O IGUAL A 2500 USUARIOS"
"SANTANDER","BARRANCABERMEJA","ASEO","OPERATIVA","BIOINGENIERIA TECNOLOGIA Y AMBIENTE SOCIEDAD POR ACCIONES SIMPLIFICADAS  EMPRESA DE SERVICIOS PUBLICOS","SANTANDER","BARRANCABERMEJA","Km 1.8 Vía Reten Aeropuerto","6020420","juridica@biotasa.com","Registro por la ESP","ANDRES CAMILO PARADA  RUEDA","SOCIEDADES (EMPRESA DE SERVICIOS PUBLICOS)","DESDE 2501 HASTA 5000 USUARIOS"
"SANTANDER","CABRERA","ACUEDUCTO","OPERATIVA","CABRERANA DE SERVICIOS PUBLICOS S.A. E.S.P","SANTANDER","CABRERA","CARRERA 7 No. 7-43 PALACIO MUNICIPAL","7248967","celsodiaz09@hotmail.com","Registro por la ESP","CLAUDIA PATRICIA BERARDINELLI BARRERA","SOCIEDADES (EMPRESA DE SERVICIOS PUBLICOS)","MENOR O IGUAL A 2500 USUARIOS"
"SANTANDER","CABRERA","ALCANTARILLADO","OPERATIVA","CABRERANA DE SERVICIOS PUBLICOS S.A. E.S.P","SANTANDER","CABRERA","CARRERA 7 No. 7-43 PALACIO MUNICIPAL","7248967","celsodiaz09@hotmail.com","Registro por la ESP","CLAUDIA PATRICIA BERARDINELLI BARRERA","SOCIEDADES (EMPRESA DE SERVICIOS PUBLICOS)","MENOR O IGUAL A 2500 USUARIOS"
"SANTANDER","CABRERA","ASEO","OPERATIVA","CABRERANA DE SERVICIOS PUBLICOS S.A. E.S.P","SANTANDER","CABRERA","CARRERA 7 No. 7-43 PALACIO MUNICIPAL","7248967","celsodiaz09@hotmail.com","Registro por la ESP","CLAUDIA PATRICIA BERARDINELLI BARRERA","SOCIEDADES (EMPRESA DE SERVICIOS PUBLICOS)","MENOR O IGUAL A 2500 USUARIOS"
"SANTANDER","EL CARMEN DE CHUCURI","ACUEDUCTO","OPERATIVA","EMPRESA COMUNITARIA AGUAS DE EL CARMEN ADMINISTRACION PUBLICA COOPERATIVA","SANTANDER","EL CARMEN DE CHUCURI","Diagonal Parque Principal Carrera 3 No. 5-50","6140770","CONSULTORESPCOMERCIAL@GMAIL.COM","Registro por la ESP","DIANA MARCELA PLATA RUEDA","ORGANIZACION AUTORIZADA","MENOR O IGUAL A 2500 USUARIOS"
"SANTANDER","EL CARMEN DE CHUCURI","ALCANTARILLADO","OPERATIVA","EMPRESA COMUNITARIA AGUAS DE EL CARMEN ADMINISTRACION PUBLICA COOPERATIVA","SANTANDER","EL CARMEN DE CHUCURI","Diagonal Parque Principal Carrera 3 No. 5-50","6140770","CONSULTORESPCOMERCIAL@GMAIL.COM","Registro por la ESP","DIANA MARCELA PLATA RUEDA","ORGANIZACION AUTORIZADA","MENOR O IGUAL A 2500 USUARIOS"
"SANTANDER","EL CARMEN DE CHUCURI","ASEO","OPERATIVA","EMPRESA COMUNITARIA AGUAS DE EL CARMEN ADMINISTRACION PUBLICA COOPERATIVA","SANTANDER","EL CARMEN DE CHUCURI","Diagonal Parque Principal Carrera 3 No. 5-50","6140770","CONSULTORESPCOMERCIAL@GMAIL.COM","Registro por la ESP","DIANA MARCELA PLATA RUEDA","ORGANIZACION AUTORIZADA","MENOR O IGUAL A 2500 USUARIOS"
"SANTANDER","BOLIVAR","ACUEDUCTO","OPERATIVA","ADMINISTRACION COOPERATIVA DE SERVICIOS PUBLICOS DE ACUEDUCTO, ALCANTARILLADO Y ASEO AGUAS DE BOLIVAR","SANTANDER","BOLIVAR","CALLE 9 N 3-31","7569015","acuabol@hotmail.com","Registro por la ESP","JOSE MIGUEL MOGOLLON GAMBOA","ORGANIZACION AUTORIZADA","MENOR O IGUAL A 2500 USUARIOS"
"SANTANDER","BOLIVAR","ALCANTARILLADO","OPERATIVA","ADMINISTRACION COOPERATIVA DE SERVICIOS PUBLICOS DE ACUEDUCTO, ALCANTARILLADO Y ASEO AGUAS DE BOLIVAR","SANTANDER","BOLIVAR","CALLE 9 N 3-31","7569015","acuabol@hotmail.com","Registro por la ESP","JOSE MIGUEL MOGOLLON GAMBOA","ORGANIZACION AUTORIZADA","MENOR O IGUAL A 2500 USUARIOS"
"SANTANDER","BOLIVAR","ASEO","OPERATIVA","ADMINISTRACION COOPERATIVA DE SERVICIOS PUBLICOS DE ACUEDUCTO, ALCANTARILLADO Y ASEO AGUAS DE BOLIVAR","SANTANDER","BOLIVAR","CALLE 9 N 3-31","7569015","acuabol@hotmail.com","Registro por la ESP","JOSE MIGUEL MOGOLLON GAMBOA","ORGANIZACION AUTORIZADA","MENOR O IGUAL A 2500 USUARIOS"
"SANTANDER","GALAN","ACUEDUCTO","OPERATIVA","EMPRESA DE SERVICIOS PUBLICOS DE GALAN SEPGA S.A.- E.S.P.","SANTANDER","GALAN","CARRERA 5 N° 7-49","7219359","gerencia@sepga.gov.co","Registro por la ESP","ANDRES GENARO ACUNA RESTREPO","SOCIEDADES (EMPRESA DE SERVICIOS PUBLICOS)","MENOR O IGUAL A 2500 USUARIOS"
"SANTANDER","GALAN","ALCANTARILLADO","OPERATIVA","EMPRESA DE SERVICIOS PUBLICOS DE GALAN SEPGA S.A.- E.S.P.","SANTANDER","GALAN","CARRERA 5 N° 7-49","7219359","gerencia@sepga.gov.co","Registro por la ESP","ANDRES GENARO ACUNA RESTREPO","SOCIEDADES (EMPRESA DE SERVICIOS PUBLICOS)","MENOR O IGUAL A 2500 USUARIOS"
"SANTANDER","GALAN","ASEO","OPERATIVA","EMPRESA DE SERVICIOS PUBLICOS DE GALAN SEPGA S.A.- E.S.P.","SANTANDER","GALAN","CARRERA 5 N° 7-49","7219359","gerencia@sepga.gov.co","Registro por la ESP","ANDRES GENARO ACUNA RESTREPO","SOCIEDADES (EMPRESA DE SERVICIOS PUBLICOS)","MENOR O IGUAL A 2500 USUARIOS"
"SANTANDER","CIMITARRA","ACUEDUCTO","CANCELACION","EMPRESAS PUBLICAS DE CIMITARRA - ADMINISTRACION PUBLICA COPERATIVA","SANTANDER","CIMITARRA","CRA 4 6-41","6260942","eepp.apc.cimitarra@gmail.com","Registro por la ESP","CESAR AUGUSTO OVALLE ARIZA",,
"SANTANDER","CIMITARRA","ALCANTARILLADO","CANCELACION","EMPRESAS PUBLICAS DE CIMITARRA - ADMINISTRACION PUBLICA COPERATIVA","SANTANDER","CIMITARRA","CRA 4 6-41","6260942","eepp.apc.cimitarra@gmail.com","Registro por la ESP","CESAR AUGUSTO OVALLE ARIZA",,
"SANTANDER","CIMITARRA","ASEO","CANCELACION","EMPRESAS PUBLICAS DE CIMITARRA - ADMINISTRACION PUBLICA COPERATIVA","SANTANDER","CIMITARRA","CRA 4 6-41","6260942","eepp.apc.cimitarra@gmail.com","Registro por la ESP","CESAR AUGUSTO OVALLE ARIZA",,
"SANTANDER","CONFINES","ACUEDUCTO","OPERATIVA","CONFINEÑA DE SERVICIOS PUBLICOS  S A  E.S.P","SANTANDER","CONFINES","CALLE 5 # 6-20","7248160","confinena@hotmail.com","Registro por la ESP","JORGE ANDRES NIÑO SIERRA","SOCIEDADES (EMPRESA DE SERVICIOS PUBLICOS)","HASTA 2500 SUSCRIPTORES"
"SANTANDER","CONFINES","ALCANTARILLADO","OPERATIVA","CONFINEÑA DE SERVICIOS PUBLICOS  S A  E.S.P","SANTANDER","CONFINES","CALLE 5 # 6-20","7248160","confinena@hotmail.com","Registro por la ESP","JORGE ANDRES NIÑO SIERRA","SOCIEDADES (EMPRESA DE SERVICIOS PUBLICOS)","HASTA 2500 SUSCRIPTORES"
"SANTANDER","CONFINES","ASEO","OPERATIVA","CONFINEÑA DE SERVICIOS PUBLICOS  S A  E.S.P","SANTANDER","CONFINES","CALLE 5 # 6-20","7248160","confinena@hotmail.com","Registro por la ESP","JORGE ANDRES NIÑO SIERRA","SOCIEDADES (EMPRESA DE SERVICIOS PUBLICOS)","HASTA 2500 SUSCRIPTORES"
"SANTANDER","CONFINES","ACUEDUCTO","OPERATIVA","CORPORACION DE SERVICIOS DEL ACUEDUCTO DE LAS VEREDAS PAVAS Y AGUABUENA DEL MUNICIPIO DE PALMAS DEL SOCORRO Y AGUABUENA","SANTANDER","SOCORRO","CALLE 2 No 10 - 28","2928172","corpaguas@gmail.com","Registro por la ESP","LUIS FRANCISCO NINO MARTINEZ","ORGANIZACION AUTORIZADA","MENOR O IGUAL A 2500 USUARIOS"
"SANTANDER","PALMAS DEL SOCORRO","ACUEDUCTO","OPERATIVA","CORPORACION DE SERVICIOS DEL ACUEDUCTO DE LAS VEREDAS PAVAS Y AGUABUENA DEL MUNICIPIO DE PALMAS DEL SOCORRO Y AGUABUENA","SANTANDER","SOCORRO","CALLE 2 No 10 - 28","2928172","corpaguas@gmail.com","Registro por la ESP","LUIS FRANCISCO NINO MARTINEZ","ORGANIZACION AUTORIZADA","MENOR O IGUAL A 2500 USUARIOS"
"SANTANDER","PIEDECUESTA","ACUEDUCTO","OPERATIVA","ASOCIACION DE USUARIOS DEL SERVICIO DE ACUEDUCTO REGIONAL SANTA ANA VEREDA MESETA GRANDE Y EL LIMONAL DEL MUNICIPIO DE PIEDECUESTA ACUESAMEGLI","SANTANDER","PIEDECUESTA","VEREDA MESETA GRANDE","6558352","aguasjuanes@hotmail.com","Registro por la ESP","JUAN DE JESUS SOTO CARVAJAL","ORGANIZACION AUTORIZADA","HASTA 2500 SUSCRIPTORES"
"SANTANDER","TONA","ACUEDUCTO","OPERATIVA","CORPORACION DE SERVICIOS DEL ACUEDUCTO Y ALCANTARILLADO DE BERLIN","SANTANDER","TONA","Calle 8 #3-99","6569238","corpaberlintona@gmail.com","Registro por la ESP","ALIRIO ROJAS ARIAS","ORGANIZACION AUTORIZADA","MENOR O IGUAL A 2500 USUARIOS"
"SANTANDER","ENCINO","ACUEDUCTO","OPERATIVA","ADMINISTRACIÓN PUBLICA COOPERATIVA DEL MUNICIPIO DE ENCINO, SANTANDER","SANTANDER","ENCINO","Calle 5 No. 3 - 22","7248232","gerencia@gerencia-espaguasan-encino-santander.gov.co","Registro por la ESP","LUZ ELENA GALVAN NUEZ","ORGANIZACION AUTORIZADA","MENOR O IGUAL A 2500 USUARIOS"
"SANTANDER","ENCINO","ALCANTARILLADO","OPERATIVA","ADMINISTRACIÓN PUBLICA COOPERATIVA DEL MUNICIPIO DE ENCINO, SANTANDER","SANTANDER","ENCINO","Calle 5 No. 3 - 22","7248232","gerencia@gerencia-espaguasan-encino-santander.gov.co","Registro por la ESP","LUZ ELENA GALVAN NUEZ","ORGANIZACION AUTORIZADA","MENOR O IGUAL A 2500 USUARIOS"
"SANTANDER","ENCINO","ASEO","OPERATIVA","ADMINISTRACIÓN PUBLICA COOPERATIVA DEL MUNICIPIO DE ENCINO, SANTANDER","SANTANDER","ENCINO","Calle 5 No. 3 - 22","7248232","gerencia@gerencia-espaguasan-encino-santander.gov.co","Registro por la ESP","LUZ ELENA GALVAN NUEZ","ORGANIZACION AUTORIZADA","MENOR O IGUAL A 2500 USUARIOS"
"SANTANDER","SIMACOTA","ACUEDUCTO","OPERATIVA","ADMINISTRACION PUBLICA COOPERATIVA DEL MUNICIPIO DE SIMACOTA SANTANDER SIMSACOOP APC","SANTANDER","SIMACOTA","calle 3 A No.6-65","7261507","miye-2587@hotmail.com","Registro por la ESP","MIREYA ARDILA GUTIERREZ","ORGANIZACION AUTORIZADA","MENOR O IGUAL A 2500 USUARIOS"
"SANTANDER","SIMACOTA","ALCANTARILLADO","OPERATIVA","ADMINISTRACION PUBLICA COOPERATIVA DEL MUNICIPIO DE SIMACOTA SANTANDER SIMSACOOP APC","SANTANDER","SIMACOTA","calle 3 A No.6-65","7261507","miye-2587@hotmail.com","Registro por la ESP","MIREYA ARDILA GUTIERREZ","ORGANIZACION AUTORIZADA","MENOR O IGUAL A 2500 USUARIOS"
"SANTANDER","SIMACOTA","ASEO","OPERATIVA","ADMINISTRACION PUBLICA COOPERATIVA DEL MUNICIPIO DE SIMACOTA SANTANDER SIMSACOOP APC","SANTANDER","SIMACOTA","calle 3 A No.6-65","7261507","miye-2587@hotmail.com","Registro por la ESP","MIREYA ARDILA GUTIERREZ","ORGANIZACION AUTORIZADA","MENOR O IGUAL A 2500 USUARIOS"
"SANTANDER","BARRANCABERMEJA","ASEO","OPERATIVA","VEOLIA ASEO SANTANDER Y CESAR S.A E.S.P","SANTANDER","GIRON","CALLE 60 #16C-03 AUTOPISTA GIRON BARRIO LA ESMERALDA","6806437","aseo-bucaramanga.co@veolia.com","Registro por la ESP","ISMARIS ORTIZ  GONZALEZ","SOCIEDADES (EMPRESA DE SERVICIOS PUBLICOS)","MAYOR O IGUAL A 5001 USUARIOS"
"SANTANDER","BUCARAMANGA","ASEO","OPERATIVA","VEOLIA ASEO SANTANDER Y CESAR S.A E.S.P","SANTANDER","GIRON","CALLE 60 #16C-03 AUTOPISTA GIRON BARRIO LA ESMERALDA","6806437","aseo-bucaramanga.co@veolia.com","Registro por la ESP","ISMARIS ORTIZ  GONZALEZ","SOCIEDADES (EMPRESA DE SERVICIOS PUBLICOS)","MAYOR O IGUAL A 5001 USUARIOS"
"SANTANDER","FLORIDABLANCA","ASEO","OPERATIVA","VEOLIA ASEO SANTANDER Y CESAR S.A E.S.P","SANTANDER","GIRON","CALLE 60 #16C-03 AUTOPISTA GIRON BARRIO LA ESMERALDA","6806437","aseo-bucaramanga.co@veolia.com","Registro por la ESP","ISMARIS ORTIZ  GONZALEZ","SOCIEDADES (EMPRESA DE SERVICIOS PUBLICOS)","MAYOR O IGUAL A 5001 USUARIOS"
"SANTANDER","GIRON","ASEO","OPERATIVA","VEOLIA ASEO SANTANDER Y CESAR S.A E.S.P","SANTANDER","GIRON","CALLE 60 #16C-03 AUTOPISTA GIRON BARRIO LA ESMERALDA","6806437","aseo-bucaramanga.co@veolia.com","Registro por la ESP","ISMARIS ORTIZ  GONZALEZ","SOCIEDADES (EMPRESA DE SERVICIOS PUBLICOS)","MAYOR O IGUAL A 5001 USUARIOS"
"SANTANDER","PIEDECUESTA","ASEO","OPERATIVA","VEOLIA ASEO SANTANDER Y CESAR S.A E.S.P","SANTANDER","GIRON","CALLE 60 #16C-03 AUTOPISTA GIRON BARRIO LA ESMERALDA","6806437","aseo-bucaramanga.co@veolia.com","Registro por la ESP","ISMARIS ORTIZ  GONZALEZ","SOCIEDADES (EMPRESA DE SERVICIOS PUBLICOS)","MAYOR O IGUAL A 5001 USUARIOS"
"SANTANDER","LANDAZURI","ACUEDUCTO","OPERATIVA","ADMINISTRACION PUBLICA COOPERATIVA DEL MUNICIPIO DE LANDAZURI","SANTANDER","LANDAZURI","CALLE 7 No. 6-10","6242034","servilan.16landazuri@gmail.com","Registro por la ESP","ELIANA MAYDE LOPEZ ARIZA","ORGANIZACION AUTORIZADA","MENOR O IGUAL A 2500 USUARIOS"
"SANTANDER","LANDAZURI","ALCANTARILLADO","OPERATIVA","ADMINISTRACION PUBLICA COOPERATIVA DEL MUNICIPIO DE LANDAZURI","SANTANDER","LANDAZURI","CALLE 7 No. 6-10","6242034","servilan.16landazuri@gmail.com","Registro por la ESP","ELIANA MAYDE LOPEZ ARIZA","ORGANIZACION AUTORIZADA","MENOR O IGUAL A 2500 USUARIOS"
"SANTANDER","LANDAZURI","ASEO","OPERATIVA","ADMINISTRACION PUBLICA COOPERATIVA DEL MUNICIPIO DE LANDAZURI","SANTANDER","LANDAZURI","CALLE 7 No. 6-10","6242034","servilan.16landazuri@gmail.com","Registro por la ESP","ELIANA MAYDE LOPEZ ARIZA","ORGANIZACION AUTORIZADA","MENOR O IGUAL A 2500 USUARIOS"
"SANTANDER","CABRERA","ACUEDUCTO","OPERATIVA","CORPORACION  DE SERVICIOS DEL ACUEDUCTO DE LAS VEREDAS OJO DE AGUA  Y CUCHILLAS DEL MUNICIPIO DE CABRERA","SANTANDER","CABRERA","VEREDA OJO DE AGUA Y CUCHILLAS","7235021","corpoojodeagua@hotmail.com","Registro por la ESP","JOSE DE JESUS MALAGON GUEVARA","ORGANIZACION AUTORIZADA","HASTA 2500 SUSCRIPTORES"
"SANTANDER","MOGOTES","ACUEDUCTO","OPERATIVA","EMPRESA DE SERVICIOS PUBLICOS DE ACUEDUCTO, ALCANTARILLADO Y ASEO DE MOGOTES S.A.-E.S.P.","SANTANDER","MOGOTES","CALLE 5 No. 6-15","7279240","celsodiaz09@hotmail.com","Registro por la ESP","JOSE ANGEL GUALDRON MARINO","SOCIEDADES (EMPRESA DE SERVICIOS PUBLICOS)","MENOR O IGUAL A 2500 USUARIOS"
"SANTANDER","MOGOTES","ALCANTARILLADO","OPERATIVA","EMPRESA DE SERVICIOS PUBLICOS DE ACUEDUCTO, ALCANTARILLADO Y ASEO DE MOGOTES S.A.-E.S.P.","SANTANDER","MOGOTES","CALLE 5 No. 6-15","7279240","celsodiaz09@hotmail.com","Registro por la ESP","JOSE ANGEL GUALDRON MARINO","SOCIEDADES (EMPRESA DE SERVICIOS PUBLICOS)","MENOR O IGUAL A 2500 USUARIOS"
"SANTANDER","MOGOTES","ASEO","OPERATIVA","EMPRESA DE SERVICIOS PUBLICOS DE ACUEDUCTO, ALCANTARILLADO Y ASEO DE MOGOTES S.A.-E.S.P.","SANTANDER","MOGOTES","CALLE 5 No. 6-15","7279240","celsodiaz09@hotmail.com","Registro por la ESP","JOSE ANGEL GUALDRON MARINO","SOCIEDADES (EMPRESA DE SERVICIOS PUBLICOS)","MENOR O IGUAL A 2500 USUARIOS"
"SANTANDER","LA BELLEZA","ACUEDUCTO","OPERATIVA","ADMINISTRACION  PUBLICA COOPERATIVA ACUEDUCTO, ASEO Y ALCANTARILLADO DE LA BELLEZA","SANTANDER","LA BELLEZA","CALLE 6 N. 2-44","4992177","aaalabellezana@gmail.com","Registro por la ESP","MARIA CONSUELO PEREZ RODRIGUEZ","ORGANIZACION AUTORIZADA","MENOR O IGUAL A 2500 USUARIOS"
"SANTANDER","LA BELLEZA","ALCANTARILLADO","OPERATIVA","ADMINISTRACION  PUBLICA COOPERATIVA ACUEDUCTO, ASEO Y ALCANTARILLADO DE LA BELLEZA","SANTANDER","LA BELLEZA","CALLE 6 N. 2-44","4992177","aaalabellezana@gmail.com","Registro por la ESP","MARIA CONSUELO PEREZ RODRIGUEZ","ORGANIZACION AUTORIZADA","MENOR O IGUAL A 2500 USUARIOS"
"SANTANDER","LA BELLEZA","ASEO","OPERATIVA","ADMINISTRACION  PUBLICA COOPERATIVA ACUEDUCTO, ASEO Y ALCANTARILLADO DE LA BELLEZA","SANTANDER","LA BELLEZA","CALLE 6 N. 2-44","4992177","aaalabellezana@gmail.com","Registro por la ESP","MARIA CONSUELO PEREZ RODRIGUEZ","ORGANIZACION AUTORIZADA","MENOR O IGUAL A 2500 USUARIOS"
"SANTANDER","ARATOCA","ASEO","OPERATIVA","ECOSANGIL SAS E.S.P.","SANTANDER","SAN GIL","KM 7 VÍA SAN GIL - CABRERA","6084034","ECOSANGILSAS.ESP@GMAIL.COM","Registro por la ESP","JORGE MAYORGA RUIZ","SOCIEDADES (EMPRESA DE SERVICIOS PUBLICOS)","MENOR O IGUAL A 2500 USUARIOS"
"SANTANDER","CHIMA","ASEO","OPERATIVA","ECOSANGIL SAS E.S.P.","SANTANDER","SAN GIL","KM 7 VÍA SAN GIL - CABRERA","6084034","ECOSANGILSAS.ESP@GMAIL.COM","Registro por la ESP","JORGE MAYORGA RUIZ","SOCIEDADES (EMPRESA DE SERVICIOS PUBLICOS)","MENOR O IGUAL A 2500 USUARIOS"
"SANTANDER","ENCINO","ASEO","OPERATIVA","ECOSANGIL SAS E.S.P.","SANTANDER","SAN GIL","KM 7 VÍA SAN GIL - CABRERA","6084034","ECOSANGILSAS.ESP@GMAIL.COM","Registro por la ESP","JORGE MAYORGA RUIZ","SOCIEDADES (EMPRESA DE SERVICIOS PUBLICOS)","MENOR O IGUAL A 2500 USUARIOS"
"SANTANDER","PINCHOTE","ASEO","OPERATIVA","ECOSANGIL SAS E.S.P.","SANTANDER","SAN GIL","KM 7 VÍA SAN GIL - CABRERA","6084034","ECOSANGILSAS.ESP@GMAIL.COM","Registro por la ESP","JORGE MAYORGA RUIZ","SOCIEDADES (EMPRESA DE SERVICIOS PUBLICOS)","MENOR O IGUAL A 2500 USUARIOS"
"SANTANDER","SAN GIL","ASEO","OPERATIVA","ECOSANGIL SAS E.S.P.","SANTANDER","SAN GIL","KM 7 VÍA SAN GIL - CABRERA","6084034","ECOSANGILSAS.ESP@GMAIL.COM","Registro por la ESP","JORGE MAYORGA RUIZ","SOCIEDADES (EMPRESA DE SERVICIOS PUBLICOS)","MENOR O IGUAL A 2500 USUARIOS"
"SANTANDER","SUAITA","ASEO","OPERATIVA","ECOSANGIL SAS E.S.P.","SANTANDER","SAN GIL","KM 7 VÍA SAN GIL - CABRERA","6084034","ECOSANGILSAS.ESP@GMAIL.COM","Registro por la ESP","JORGE MAYORGA RUIZ","SOCIEDADES (EMPRESA DE SERVICIOS PUBLICOS)","MENOR O IGUAL A 2500 USUARIOS"
"SANTANDER","PUERTO WILCHES","ACUEDUCTO","OPERATIVA","AGUAS DE PUERTO WILCHES S.A.S.E.S.P","SANTANDER","PUERTO WILCHES","CARRERA 3 NUMERO 4-76","6132179","wilpa60@hotmail.com","Registro por la ESP","JHON JHAMER SARMIENTO CISNEROS","SOCIEDADES (EMPRESA DE SERVICIOS PUBLICOS)","MAYOR O IGUAL A 5001 USUARIOS"
"SANTANDER","PUERTO WILCHES","ALCANTARILLADO","OPERATIVA","AGUAS DE PUERTO WILCHES S.A.S.E.S.P","SANTANDER","PUERTO WILCHES","CARRERA 3 NUMERO 4-76","6132179","wilpa60@hotmail.com","Registro por la ESP","JHON JHAMER SARMIENTO CISNEROS","SOCIEDADES (EMPRESA DE SERVICIOS PUBLICOS)","MAYOR O IGUAL A 5001 USUARIOS"
"SANTANDER","PUERTO WILCHES","ASEO","OPERATIVA","AGUAS DE PUERTO WILCHES S.A.S.E.S.P","SANTANDER","PUERTO WILCHES","CARRERA 3 NUMERO 4-76","6132179","wilpa60@hotmail.com","Registro por la ESP","JHON JHAMER SARMIENTO CISNEROS","SOCIEDADES (EMPRESA DE SERVICIOS PUBLICOS)","MAYOR O IGUAL A 5001 USUARIOS"
"SANTANDER","BARICHARA","ACUEDUCTO","OPERATIVA","EMPRESA DE SERVICIOS DE BARICHARA S.A. - E.S.P.","SANTANDER","BARICHARA","CALLE 8 No. 12-10","7267162","sandranay_22@hotmail.com","Registro por la ESP","ANA MARIA APARICIO ANGARITA","SOCIEDADES (EMPRESA DE SERVICIOS PUBLICOS)","MENOR O IGUAL A 2500 USUARIOS"
"SANTANDER","BARICHARA","ALCANTARILLADO","OPERATIVA","EMPRESA DE SERVICIOS DE BARICHARA S.A. - E.S.P.","SANTANDER","BARICHARA","CALLE 8 No. 12-10","7267162","sandranay_22@hotmail.com","Registro por la ESP","ANA MARIA APARICIO ANGARITA","SOCIEDADES (EMPRESA DE SERVICIOS PUBLICOS)","MENOR O IGUAL A 2500 USUARIOS"
"SANTANDER","BARICHARA","ASEO","OPERATIVA","EMPRESA DE SERVICIOS DE BARICHARA S.A. - E.S.P.","SANTANDER","BARICHARA","CALLE 8 No. 12-10","7267162","sandranay_22@hotmail.com","Registro por la ESP","ANA MARIA APARICIO ANGARITA","SOCIEDADES (EMPRESA DE SERVICIOS PUBLICOS)","MENOR O IGUAL A 2500 USUARIOS"
"SANTANDER","ONZAGA","ACUEDUCTO","OPERATIVA","ONZAGUA","SANTANDER","ONZAGA","K 3A 3 - 13","7217779","onzagua10@hotmail.com","Registro por la ESP","KAREN CORREA MORA","ORGANIZACION AUTORIZADA","MENOR O IGUAL A 2500 USUARIOS"
"SANTANDER","ONZAGA","ALCANTARILLADO","OPERATIVA","ONZAGUA","SANTANDER","ONZAGA","K 3A 3 - 13","7217779","onzagua10@hotmail.com","Registro por la ESP","KAREN CORREA MORA","ORGANIZACION AUTORIZADA","MENOR O IGUAL A 2500 USUARIOS"
"SANTANDER","ONZAGA","ASEO","OPERATIVA","ONZAGUA","SANTANDER","ONZAGA","K 3A 3 - 13","7217779","onzagua10@hotmail.com","Registro por la ESP","KAREN CORREA MORA","ORGANIZACION AUTORIZADA","MENOR O IGUAL A 2500 USUARIOS"
"SANTANDER","OCAMONTE","ACUEDUCTO","OPERATIVA","EMPRESA DE SERVICIOS PUBLICOS DE ACUEDUCTO, ALCANTARILLADO Y ASEO DE OCAMONTE S.A E.S.P","SANTANDER","OCAMONTE","CALLE 5 N 3-49","9999999","espocam.s.a@hotmail.com","Registro por la ESP","CARLOS ANGEL MEJIA CRISTANCHO","SOCIEDADES (EMPRESA DE SERVICIOS PUBLICOS)","MENOR O IGUAL A 2500 USUARIOS"
"SANTANDER","OCAMONTE","ALCANTARILLADO","OPERATIVA","EMPRESA DE SERVICIOS PUBLICOS DE ACUEDUCTO, ALCANTARILLADO Y ASEO DE OCAMONTE S.A E.S.P","SANTANDER","OCAMONTE","CALLE 5 N 3-49","9999999","espocam.s.a@hotmail.com","Registro por la ESP","CARLOS ANGEL MEJIA CRISTANCHO","SOCIEDADES (EMPRESA DE SERVICIOS PUBLICOS)","MENOR O IGUAL A 2500 USUARIOS"
"SANTANDER","OCAMONTE","ASEO","OPERATIVA","EMPRESA DE SERVICIOS PUBLICOS DE ACUEDUCTO, ALCANTARILLADO Y ASEO DE OCAMONTE S.A E.S.P","SANTANDER","OCAMONTE","CALLE 5 N 3-49","9999999","espocam.s.a@hotmail.com","Registro por la ESP","CARLOS ANGEL MEJIA CRISTANCHO","SOCIEDADES (EMPRESA DE SERVICIOS PUBLICOS)","MENOR O IGUAL A 2500 USUARIOS"
"SANTANDER","SUAITA","ACUEDUCTO","OPERATIVA","ASOCIACIÓN DE USUARIOS DEL ACUEDUCTO VEREDAL EL HIMAL, VEREDAS DAN Y BENJAMIN, DEL MUNICIPIO DE SUAITA","SANTANDER","SUAITA","finca el alto de la argelia","7580243","gilberardila@yahoo.com","Registro por la ESP","GILBER ANTONIO ARDILA ARDILA","ORGANIZACION AUTORIZADA","HASTA 2500 SUSCRIPTORES"
"SANTANDER","GUAPOTA","ACUEDUCTO","OPERATIVA","CORPORACION DE ACUEDUCTOS COMUNITARIOS DE GUAPOTA SANTANDER CORAGUAS O.N.G - E.S.P.","SANTANDER","GUAPOTA","CRA 2 Nº 4-48","7296222","jdrodriguezgaray@gmail.com","Registro por la ESP","JOSE DOMINGO RODRIGUEZ GARAY","ORGANIZACION AUTORIZADA","MENOR O IGUAL A 2500 USUARIOS"
"SANTANDER","VALLE DE SAN JOSE","ACUEDUCTO","OPERATIVA","EMPRESA DE SERVICIOS PUBLICOS DEL VALLE DE SAN JOSE S.A - E.S.P","SANTANDER","VALLE DE SAN JOSE","calle 5 # 6-29","7268710","esvallesaesp@yahoo.es","Registro por la ESP","NESTOR IVAN PEREIRA PORRAS","SOCIEDADES (EMPRESA DE SERVICIOS PUBLICOS)","MENOR O IGUAL A 2500 USUARIOS"
"SANTANDER","VALLE DE SAN JOSE","ALCANTARILLADO","OPERATIVA","EMPRESA DE SERVICIOS PUBLICOS DEL VALLE DE SAN JOSE S.A - E.S.P","SANTANDER","VALLE DE SAN JOSE","calle 5 # 6-29","7268710","esvallesaesp@yahoo.es","Registro por la ESP","NESTOR IVAN PEREIRA PORRAS","SOCIEDADES (EMPRESA DE SERVICIOS PUBLICOS)","MENOR O IGUAL A 2500 USUARIOS"
"SANTANDER","VALLE DE SAN JOSE","ASEO","OPERATIVA","EMPRESA DE SERVICIOS PUBLICOS DEL VALLE DE SAN JOSE S.A - E.S.P","SANTANDER","VALLE DE SAN JOSE","calle 5 # 6-29","7268710","esvallesaesp@yahoo.es","Registro por la ESP","NESTOR IVAN PEREIRA PORRAS","SOCIEDADES (EMPRESA DE SERVICIOS PUBLICOS)","MENOR O IGUAL A 2500 USUARIOS"
"SANTANDER","PALMAS DEL SOCORRO","ACUEDUCTO","OPERATIVA","EMPRESA DE SERVICIOS PUBLICOS DE LA PALMEÑA SAS ESP","SANTANDER","PALMAS DEL SOCORRO","calle 7-5-39","7274266","esppalmas@gmail.com","Registro por la ESP","ANGELA VIVIANA DIAZ PARRAS","SOCIEDADES (EMPRESA DE SERVICIOS PUBLICOS)","MENOR O IGUAL A 2500 USUARIOS"
"SANTANDER","PALMAS DEL SOCORRO","ALCANTARILLADO","OPERATIVA","EMPRESA DE SERVICIOS PUBLICOS DE LA PALMEÑA SAS ESP","SANTANDER","PALMAS DEL SOCORRO","calle 7-5-39","7274266","esppalmas@gmail.com","Registro por la ESP","ANGELA VIVIANA DIAZ PARRAS","SOCIEDADES (EMPRESA DE SERVICIOS PUBLICOS)","MENOR O IGUAL A 2500 USUARIOS"
"SANTANDER","PALMAS DEL SOCORRO","ASEO","OPERATIVA","EMPRESA DE SERVICIOS PUBLICOS DE LA PALMEÑA SAS ESP","SANTANDER","PALMAS DEL SOCORRO","calle 7-5-39","7274266","esppalmas@gmail.com","Registro por la ESP","ANGELA VIVIANA DIAZ PARRAS","SOCIEDADES (EMPRESA DE SERVICIOS PUBLICOS)","MENOR O IGUAL A 2500 USUARIOS"
"SANTANDER","PUENTE NACIONAL","ACUEDUCTO","OPERATIVA","ASOCIACION DE USUARIOS DEL ACUEDUCTO DE LAS VEREDAS CAPILLA ALTO CAPILLA, BAJO CANTANO Y ALTO CATANO DEL MUNICIPIO DE PUENTE NACIONAL SANTANDER","SANTANDER","PUENTE NACIONAL","VEREDA CAPILLA","0000000","lrgg48@hotmail.com","Registro por la ESP","LUIS ROBERTO GAMBOA   GONZALEZ","ORGANIZACION AUTORIZADA","HASTA 2500 SUSCRIPTORES"
"SANTANDER","ZAPATOCA","ACUEDUCTO","OPERATIVA","CORPORACION DE SERVICIOS DEL ACUEDUCTO DE LA FUENTE","SANTANDER","ZAPATOCA","Carrera 6 No. 8-03","6252055","ingjmdc@gmail.com","Registro por la ESP","RAMIRO RUEDA MOTTA","ORGANIZACION AUTORIZADA","HASTA 2500 SUSCRIPTORES"
"SANTANDER","ZAPATOCA","ALCANTARILLADO","OPERATIVA","CORPORACION DE SERVICIOS DEL ACUEDUCTO DE LA FUENTE","SANTANDER","ZAPATOCA","Carrera 6 No. 8-03","6252055","ingjmdc@gmail.com","Registro por la ESP","RAMIRO RUEDA MOTTA","ORGANIZACION AUTORIZADA","HASTA 2500 SUSCRIPTORES"
"SANTANDER","ZAPATOCA","ASEO","OPERATIVA","CORPORACION DE SERVICIOS DEL ACUEDUCTO DE LA FUENTE","SANTANDER","ZAPATOCA","Carrera 6 No. 8-03","6252055","ingjmdc@gmail.com","Registro por la ESP","RAMIRO RUEDA MOTTA","ORGANIZACION AUTORIZADA","HASTA 2500 SUSCRIPTORES"
"SANTANDER","LA PAZ","ACUEDUCTO","OPERATIVA","CORPORACION DE SERVICIOS DE ACUEDUCTO DE CASAS BLANCAS LA LOMA Y LA CORCOVADA","SANTANDER","LA PAZ","VEREDA CASAS BLANCAS CASA CARLOS EMIRO ORTIZ PARDO","3142147","caragor@hotmail.com","Registro por la ESP","CARLOS EMIRO ORTIZ PARDO","ORGANIZACION AUTORIZADA","HASTA 2500 SUSCRIPTORES"
"SANTANDER","SAN VICENTE DE CHUCURI","ASEO","OPERATIVA","COOPERATIVA DE TRABAJO ASOCIADO DE MICROEMPRESARIOS DE SAN VICENTE DE CHUCURI","SANTANDER","SAN VICENTE DE CHUCURI","calle 10 Nº 12-25","6256330","MIPYMESDECHUCURI@HOTMAIL.COM","Registro por la ESP","ROSA MARIA MUNIZ GOMEZ","ORGANIZACION AUTORIZADA","DESDE 2501 HASTA 5000 USUARIOS"
"SANTANDER","MOLAGAVITA","ACUEDUCTO","OPERATIVA","EMPRESA DE SERVICIOS PUBLICOS  DOMICILIARIOS DE MOLAGAVITA E.A.M. S.A. E.S.P.","SANTANDER","MOLAGAVITA","carrera 3 4 15","6627012","espmolagavita@gmail.com","Registro por la ESP","EDGAR FRANCISCO SUAREZ BECERRA","SOCIEDADES (EMPRESA DE SERVICIOS PUBLICOS)","MENOR O IGUAL A 2500 USUARIOS"
"SANTANDER","MOLAGAVITA","ALCANTARILLADO","OPERATIVA","EMPRESA DE SERVICIOS PUBLICOS  DOMICILIARIOS DE MOLAGAVITA E.A.M. S.A. E.S.P.","SANTANDER","MOLAGAVITA","carrera 3 4 15","6627012","espmolagavita@gmail.com","Registro por la ESP","EDGAR FRANCISCO SUAREZ BECERRA","SOCIEDADES (EMPRESA DE SERVICIOS PUBLICOS)","MENOR O IGUAL A 2500 USUARIOS"
"SANTANDER","MOLAGAVITA","ASEO","OPERATIVA","EMPRESA DE SERVICIOS PUBLICOS  DOMICILIARIOS DE MOLAGAVITA E.A.M. S.A. E.S.P.","SANTANDER","MOLAGAVITA","carrera 3 4 15","6627012","espmolagavita@gmail.com","Registro por la ESP","EDGAR FRANCISCO SUAREZ BECERRA","SOCIEDADES (EMPRESA DE SERVICIOS PUBLICOS)","MENOR O IGUAL A 2500 USUARIOS"
"SANTANDER","ENCINO","ACUEDUCTO","OPERATIVA","ASOCIACION DE SUSCRIPTORES DEL ACUEDUCTO RURAL ""FUENTE DE ORO"" VEREDA LA CABUYA, MUNICIPIO ENCINO","SANTANDER","ENCINO","VEREDA LA CABUYA","7248232","josegirata@yahoo.com","Registro por la ESP","BERNARDO BAEZ GIRATA","ORGANIZACION AUTORIZADA","HASTA 2500 SUSCRIPTORES"
"SANTANDER","SANTA HELENA DEL OPON","ACUEDUCTO","OPERATIVA","EMPRESA DE SERVICIOS PUBLICOS DOMICILIARIOS DE ACUEDUCTO ALCANTARILLADO Y ASEO - SANTA HELENA A.A.A.  S.A. - E.S.P","SANTANDER","SANTA HELENA DEL OPON","calle 4 No 3-63","0000000","esp.aaasantahelena@gmail.com","Registro por la ESP","JOSE NILSON ARGUELLO ARDILA","SOCIEDADES (EMPRESA DE SERVICIOS PUBLICOS)","MENOR O IGUAL A 2500 USUARIOS"
"SANTANDER","SANTA HELENA DEL OPON","ALCANTARILLADO","OPERATIVA","EMPRESA DE SERVICIOS PUBLICOS DOMICILIARIOS DE ACUEDUCTO ALCANTARILLADO Y ASEO - SANTA HELENA A.A.A.  S.A. - E.S.P","SANTANDER","SANTA HELENA DEL OPON","calle 4 No 3-63","0000000","esp.aaasantahelena@gmail.com","Registro por la ESP","JOSE NILSON ARGUELLO ARDILA","SOCIEDADES (EMPRESA DE SERVICIOS PUBLICOS)","MENOR O IGUAL A 2500 USUARIOS"
"SANTANDER","SANTA HELENA DEL OPON","ASEO","OPERATIVA","EMPRESA DE SERVICIOS PUBLICOS DOMICILIARIOS DE ACUEDUCTO ALCANTARILLADO Y ASEO - SANTA HELENA A.A.A.  S.A. - E.S.P","SANTANDER","SANTA HELENA DEL OPON","calle 4 No 3-63","0000000","esp.aaasantahelena@gmail.com","Registro por la ESP","JOSE NILSON ARGUELLO ARDILA","SOCIEDADES (EMPRESA DE SERVICIOS PUBLICOS)","MENOR O IGUAL A 2500 USUARIOS"
"SANTANDER","SAN JOAQUIN","ACUEDUCTO","OPERATIVA","CURIPA EMPRESA DE SERVICIOS PUBLICOS DE SAN JOAQUIN AAA SAS ESP","SANTANDER","SAN JOAQUIN","Cr 5 No. 6-24","7159147","ayde.cq@hotmail.com","Registro por la ESP","EDINSON GUERRERO","SOCIEDADES (EMPRESA DE SERVICIOS PUBLICOS)","MENOR O IGUAL A 2500 USUARIOS"
"SANTANDER","SAN JOAQUIN","ALCANTARILLADO","OPERATIVA","CURIPA EMPRESA DE SERVICIOS PUBLICOS DE SAN JOAQUIN AAA SAS ESP","SANTANDER","SAN JOAQUIN","Cr 5 No. 6-24","7159147","ayde.cq@hotmail.com","Registro por la ESP","EDINSON GUERRERO","SOCIEDADES (EMPRESA DE SERVICIOS PUBLICOS)","MENOR O IGUAL A 2500 USUARIOS"
"SANTANDER","SAN JOAQUIN","ASEO","OPERATIVA","CURIPA EMPRESA DE SERVICIOS PUBLICOS DE SAN JOAQUIN AAA SAS ESP","SANTANDER","SAN JOAQUIN","Cr 5 No. 6-24","7159147","ayde.cq@hotmail.com","Registro por la ESP","EDINSON GUERRERO","SOCIEDADES (EMPRESA DE SERVICIOS PUBLICOS)","MENOR O IGUAL A 2500 USUARIOS"
"SANTANDER","GIRON","ASEO","CANCELACION","ECONATURAL S.A.S  E.S.P","SANTANDER","GIRON","CALLE 60 #16C-03","6806437","ismaris.ortiz@veolia.com","Registro por la ESP","ISMARIS ORTIZ GONZALEZ",,
"SANTANDER","FLORIDABLANCA","ACUEDUCTO","OPERATIVA","ENERGIA & AGUA SAS ESP","SANTANDER","FLORIDABLANCA","Calle 31 A #26-15 Oficina 705 Centro Empresarial La Florida","6185871","escribanos@ruitoqueesp.com","Registro por la ESP","JOSE GABRIEL SORZANO SERRANO","SOCIEDADES (EMPRESA DE SERVICIOS PUBLICOS)","MENOR O IGUAL A 2500 USUARIOS"
"SANTANDER","PIEDECUESTA","ACUEDUCTO","OPERATIVA","ENERGIA & AGUA SAS ESP","SANTANDER","FLORIDABLANCA","Calle 31 A #26-15 Oficina 705 Centro Empresarial La Florida","6185871","escribanos@ruitoqueesp.com","Registro por la ESP","JOSE GABRIEL SORZANO SERRANO","SOCIEDADES (EMPRESA DE SERVICIOS PUBLICOS)","MENOR O IGUAL A 2500 USUARIOS"
"SANTANDER","ARATOCA","ASEO","OPERATIVA","EMPRESA DE SOLUCIONES AMBIENTALES PARA COLOMBIA S.A E.S.P.","SANTANDER","SAN GIL","VEREDA EL CUCHARO","7273772","empsacol@hotmail.com","Registro por la ESP","JHONNATHAN VESGA PALOMINO","SOCIEDADES (EMPRESA DE SERVICIOS PUBLICOS)","MENOR O IGUAL A 2500 USUARIOS"
"SANTANDER","BARBOSA","ASEO","OPERATIVA","EMPRESA DE SOLUCIONES AMBIENTALES PARA COLOMBIA S.A E.S.P.","SANTANDER","SAN GIL","VEREDA EL CUCHARO","7273772","empsacol@hotmail.com","Registro por la ESP","JHONNATHAN VESGA PALOMINO","SOCIEDADES (EMPRESA DE SERVICIOS PUBLICOS)","MENOR O IGUAL A 2500 USUARIOS"
"SANTANDER","BARICHARA","ASEO","OPERATIVA","EMPRESA DE SOLUCIONES AMBIENTALES PARA COLOMBIA S.A E.S.P.","SANTANDER","SAN GIL","VEREDA EL CUCHARO","7273772","empsacol@hotmail.com","Registro por la ESP","JHONNATHAN VESGA PALOMINO","SOCIEDADES (EMPRESA DE SERVICIOS PUBLICOS)","MENOR O IGUAL A 2500 USUARIOS"
"SANTANDER","BOLIVAR","ASEO","OPERATIVA","EMPRESA DE SOLUCIONES AMBIENTALES PARA COLOMBIA S.A E.S.P.","SANTANDER","SAN GIL","VEREDA EL CUCHARO","7273772","empsacol@hotmail.com","Registro por la ESP","JHONNATHAN VESGA PALOMINO","SOCIEDADES (EMPRESA DE SERVICIOS PUBLICOS)","MENOR O IGUAL A 2500 USUARIOS"
"SANTANDER","CABRERA","ASEO","OPERATIVA","EMPRESA DE SOLUCIONES AMBIENTALES PARA COLOMBIA S.A E.S.P.","SANTANDER","SAN GIL","VEREDA EL CUCHARO","7273772","empsacol@hotmail.com","Registro por la ESP","JHONNATHAN VESGA PALOMINO","SOCIEDADES (EMPRESA DE SERVICIOS PUBLICOS)","MENOR O IGUAL A 2500 USUARIOS"
"SANTANDER","CEPITA","ASEO","OPERATIVA","EMPRESA DE SOLUCIONES AMBIENTALES PARA COLOMBIA S.A E.S.P.","SANTANDER","SAN GIL","VEREDA EL CUCHARO","7273772","empsacol@hotmail.com","Registro por la ESP","JHONNATHAN VESGA PALOMINO","SOCIEDADES (EMPRESA DE SERVICIOS PUBLICOS)","MENOR O IGUAL A 2500 USUARIOS"
"SANTANDER","CHARALA","ASEO","OPERATIVA","EMPRESA DE SOLUCIONES AMBIENTALES PARA COLOMBIA S.A E.S.P.","SANTANDER","SAN GIL","VEREDA EL CUCHARO","7273772","empsacol@hotmail.com","Registro por la ESP","JHONNATHAN VESGA PALOMINO","SOCIEDADES (EMPRESA DE SERVICIOS PUBLICOS)","MENOR O IGUAL A 2500 USUARIOS"
"SANTANDER","CHIMA","ASEO","OPERATIVA","EMPRESA DE SOLUCIONES AMBIENTALES PARA COLOMBIA S.A E.S.P.","SANTANDER","SAN GIL","VEREDA EL CUCHARO","7273772","empsacol@hotmail.com","Registro por la ESP","JHONNATHAN VESGA PALOMINO","SOCIEDADES (EMPRESA DE SERVICIOS PUBLICOS)","MENOR O IGUAL A 2500 USUARIOS"
"SANTANDER","CONFINES","ASEO","OPERATIVA","EMPRESA DE SOLUCIONES AMBIENTALES PARA COLOMBIA S.A E.S.P.","SANTANDER","SAN GIL","VEREDA EL CUCHARO","7273772","empsacol@hotmail.com","Registro por la ESP","JHONNATHAN VESGA PALOMINO","SOCIEDADES (EMPRESA DE SERVICIOS PUBLICOS)","MENOR O IGUAL A 2500 USUARIOS"
"SANTANDER","CONTRATACION","ASEO","OPERATIVA","EMPRESA DE SOLUCIONES AMBIENTALES PARA COLOMBIA S.A E.S.P.","SANTANDER","SAN GIL","VEREDA EL CUCHARO","7273772","empsacol@hotmail.com","Registro por la ESP","JHONNATHAN VESGA PALOMINO","SOCIEDADES (EMPRESA DE SERVICIOS PUBLICOS)","MENOR O IGUAL A 2500 USUARIOS"
"SANTANDER","COROMORO","ASEO","OPERATIVA","EMPRESA DE SOLUCIONES AMBIENTALES PARA COLOMBIA S.A E.S.P.","SANTANDER","SAN GIL","VEREDA EL CUCHARO","7273772","empsacol@hotmail.com","Registro por la ESP","JHONNATHAN VESGA PALOMINO","SOCIEDADES (EMPRESA DE SERVICIOS PUBLICOS)","MENOR O IGUAL A 2500 USUARIOS"
"SANTANDER","CURITI","ASEO","OPERATIVA","EMPRESA DE SOLUCIONES AMBIENTALES PARA COLOMBIA S.A E.S.P.","SANTANDER","SAN GIL","VEREDA EL CUCHARO","7273772","empsacol@hotmail.com","Registro por la ESP","JHONNATHAN VESGA PALOMINO","SOCIEDADES (EMPRESA DE SERVICIOS PUBLICOS)","MENOR O IGUAL A 2500 USUARIOS"
"SANTANDER","EL GUACAMAYO","ASEO","OPERATIVA","EMPRESA DE SOLUCIONES AMBIENTALES PARA COLOMBIA S.A E.S.P.","SANTANDER","SAN GIL","VEREDA EL CUCHARO","7273772","empsacol@hotmail.com","Registro por la ESP","JHONNATHAN VESGA PALOMINO","SOCIEDADES (EMPRESA DE SERVICIOS PUBLICOS)","MENOR O IGUAL A 2500 USUARIOS"
"SANTANDER","ENCINO","ASEO","OPERATIVA","EMPRESA DE SOLUCIONES AMBIENTALES PARA COLOMBIA S.A E.S.P.","SANTANDER","SAN GIL","VEREDA EL CUCHARO","7273772","empsacol@hotmail.com","Registro por la ESP","JHONNATHAN VESGA PALOMINO","SOCIEDADES (EMPRESA DE SERVICIOS PUBLICOS)","MENOR O IGUAL A 2500 USUARIOS"
"SANTANDER","FLORIAN","ASEO","OPERATIVA","EMPRESA DE SOLUCIONES AMBIENTALES PARA COLOMBIA S.A E.S.P.","SANTANDER","SAN GIL","VEREDA EL CUCHARO","7273772","empsacol@hotmail.com","Registro por la ESP","JHONNATHAN VESGA PALOMINO","SOCIEDADES (EMPRESA DE SERVICIOS PUBLICOS)","MENOR O IGUAL A 2500 USUARIOS"
"SANTANDER","GALAN","ASEO","OPERATIVA","EMPRESA DE SOLUCIONES AMBIENTALES PARA COLOMBIA S.A E.S.P.","SANTANDER","SAN GIL","VEREDA EL CUCHARO","7273772","empsacol@hotmail.com","Registro por la ESP","JHONNATHAN VESGA PALOMINO","SOCIEDADES (EMPRESA DE SERVICIOS PUBLICOS)","MENOR O IGUAL A 2500 USUARIOS"
"SANTANDER","GAMBITA","ASEO","OPERATIVA","EMPRESA DE SOLUCIONES AMBIENTALES PARA COLOMBIA S.A E.S.P.","SANTANDER","SAN GIL","VEREDA EL CUCHARO","7273772","empsacol@hotmail.com","Registro por la ESP","JHONNATHAN VESGA PALOMINO","SOCIEDADES (EMPRESA DE SERVICIOS PUBLICOS)","MENOR O IGUAL A 2500 USUARIOS"
"SANTANDER","GUADALUPE","ASEO","OPERATIVA","EMPRESA DE SOLUCIONES AMBIENTALES PARA COLOMBIA S.A E.S.P.","SANTANDER","SAN GIL","VEREDA EL CUCHARO","7273772","empsacol@hotmail.com","Registro por la ESP","JHONNATHAN VESGA PALOMINO","SOCIEDADES (EMPRESA DE SERVICIOS PUBLICOS)","MENOR O IGUAL A 2500 USUARIOS"
"SANTANDER","GUAPOTA","ASEO","OPERATIVA","EMPRESA DE SOLUCIONES AMBIENTALES PARA COLOMBIA S.A E.S.P.","SANTANDER","SAN GIL","VEREDA EL CUCHARO","7273772","empsacol@hotmail.com","Registro por la ESP","JHONNATHAN VESGA PALOMINO","SOCIEDADES (EMPRESA DE SERVICIOS PUBLICOS)","MENOR O IGUAL A 2500 USUARIOS"
"SANTANDER","GUAVATA","ASEO","OPERATIVA","EMPRESA DE SOLUCIONES AMBIENTALES PARA COLOMBIA S.A E.S.P.","SANTANDER","SAN GIL","VEREDA EL CUCHARO","7273772","empsacol@hotmail.com","Registro por la ESP","JHONNATHAN VESGA PALOMINO","SOCIEDADES (EMPRESA DE SERVICIOS PUBLICOS)","MENOR O IGUAL A 2500 USUARIOS"
"SANTANDER","GUEPSA","ASEO","OPERATIVA","EMPRESA DE SOLUCIONES AMBIENTALES PARA COLOMBIA S.A E.S.P.","SANTANDER","SAN GIL","VEREDA EL CUCHARO","7273772","empsacol@hotmail.com","Registro por la ESP","JHONNATHAN VESGA PALOMINO","SOCIEDADES (EMPRESA DE SERVICIOS PUBLICOS)","MENOR O IGUAL A 2500 USUARIOS"
"SANTANDER","HATO","ASEO","OPERATIVA","EMPRESA DE SOLUCIONES AMBIENTALES PARA COLOMBIA S.A E.S.P.","SANTANDER","SAN GIL","VEREDA EL CUCHARO","7273772","empsacol@hotmail.com","Registro por la ESP","JHONNATHAN VESGA PALOMINO","SOCIEDADES (EMPRESA DE SERVICIOS PUBLICOS)","MENOR O IGUAL A 2500 USUARIOS"
"SANTANDER","JESUS MARIA","ASEO","OPERATIVA","EMPRESA DE SOLUCIONES AMBIENTALES PARA COLOMBIA S.A E.S.P.","SANTANDER","SAN GIL","VEREDA EL CUCHARO","7273772","empsacol@hotmail.com","Registro por la ESP","JHONNATHAN VESGA PALOMINO","SOCIEDADES (EMPRESA DE SERVICIOS PUBLICOS)","MENOR O IGUAL A 2500 USUARIOS"
"SANTANDER","LA BELLEZA","ASEO","OPERATIVA","EMPRESA DE SOLUCIONES AMBIENTALES PARA COLOMBIA S.A E.S.P.","SANTANDER","SAN GIL","VEREDA EL CUCHARO","7273772","empsacol@hotmail.com","Registro por la ESP","JHONNATHAN VESGA PALOMINO","SOCIEDADES (EMPRESA DE SERVICIOS PUBLICOS)","MENOR O IGUAL A 2500 USUARIOS"
"SANTANDER","LA PAZ","ASEO","OPERATIVA","EMPRESA DE SOLUCIONES AMBIENTALES PARA COLOMBIA S.A E.S.P.","SANTANDER","SAN GIL","VEREDA EL CUCHARO","7273772","empsacol@hotmail.com","Registro por la ESP","JHONNATHAN VESGA PALOMINO","SOCIEDADES (EMPRESA DE SERVICIOS PUBLICOS)","MENOR O IGUAL A 2500 USUARIOS"
"SANTANDER","MOGOTES","ASEO","OPERATIVA","EMPRESA DE SOLUCIONES AMBIENTALES PARA COLOMBIA S.A E.S.P.","SANTANDER","SAN GIL","VEREDA EL CUCHARO","7273772","empsacol@hotmail.com","Registro por la ESP","JHONNATHAN VESGA PALOMINO","SOCIEDADES (EMPRESA DE SERVICIOS PUBLICOS)","MENOR O IGUAL A 2500 USUARIOS"
"SANTANDER","OCAMONTE","ASEO","OPERATIVA","EMPRESA DE SOLUCIONES AMBIENTALES PARA COLOMBIA S.A E.S.P.","SANTANDER","SAN GIL","VEREDA EL CUCHARO","7273772","empsacol@hotmail.com","Registro por la ESP","JHONNATHAN VESGA PALOMINO","SOCIEDADES (EMPRESA DE SERVICIOS PUBLICOS)","MENOR O IGUAL A 2500 USUARIOS"
"SANTANDER","OIBA","ASEO","OPERATIVA","EMPRESA DE SOLUCIONES AMBIENTALES PARA COLOMBIA S.A E.S.P.","SANTANDER","SAN GIL","VEREDA EL CUCHARO","7273772","empsacol@hotmail.com","Registro por la ESP","JHONNATHAN VESGA PALOMINO","SOCIEDADES (EMPRESA DE SERVICIOS PUBLICOS)","MENOR O IGUAL A 2500 USUARIOS"
"SANTANDER","PALMAR","ASEO","OPERATIVA","EMPRESA DE SOLUCIONES AMBIENTALES PARA COLOMBIA S.A E.S.P.","SANTANDER","SAN GIL","VEREDA EL CUCHARO","7273772","empsacol@hotmail.com","Registro por la ESP","JHONNATHAN VESGA PALOMINO","SOCIEDADES (EMPRESA DE SERVICIOS PUBLICOS)","MENOR O IGUAL A 2500 USUARIOS"
"SANTANDER","PALMAS DEL SOCORRO","ASEO","OPERATIVA","EMPRESA DE SOLUCIONES AMBIENTALES PARA COLOMBIA S.A E.S.P.","SANTANDER","SAN GIL","VEREDA EL CUCHARO","7273772","empsacol@hotmail.com","Registro por la ESP","JHONNATHAN VESGA PALOMINO","SOCIEDADES (EMPRESA DE SERVICIOS PUBLICOS)","MENOR O IGUAL A 2500 USUARIOS"
"SANTANDER","PARAMO","ASEO","OPERATIVA","EMPRESA DE SOLUCIONES AMBIENTALES PARA COLOMBIA S.A E.S.P.","SANTANDER","SAN GIL","VEREDA EL CUCHARO","7273772","empsacol@hotmail.com","Registro por la ESP","JHONNATHAN VESGA PALOMINO","SOCIEDADES (EMPRESA DE SERVICIOS PUBLICOS)","MENOR O IGUAL A 2500 USUARIOS"
"SANTANDER","PINCHOTE","ASEO","OPERATIVA","EMPRESA DE SOLUCIONES AMBIENTALES PARA COLOMBIA S.A E.S.P.","SANTANDER","SAN GIL","VEREDA EL CUCHARO","7273772","empsacol@hotmail.com","Registro por la ESP","JHONNATHAN VESGA PALOMINO","SOCIEDADES (EMPRESA DE SERVICIOS PUBLICOS)","MENOR O IGUAL A 2500 USUARIOS"
"SANTANDER","SAN VICENTE DE CHUCURI","ASEO","OPERATIVA","EMPRESA DE SOLUCIONES AMBIENTALES PARA COLOMBIA S.A E.S.P.","SANTANDER","SAN GIL","VEREDA EL CUCHARO","7273772","empsacol@hotmail.com","Registro por la ESP","JHONNATHAN VESGA PALOMINO","SOCIEDADES (EMPRESA DE SERVICIOS PUBLICOS)","MENOR O IGUAL A 2500 USUARIOS"
"SANTANDER","SIMACOTA","ASEO","OPERATIVA","EMPRESA DE SOLUCIONES AMBIENTALES PARA COLOMBIA S.A E.S.P.","SANTANDER","SAN GIL","VEREDA EL CUCHARO","7273772","empsacol@hotmail.com","Registro por la ESP","JHONNATHAN VESGA PALOMINO","SOCIEDADES (EMPRESA DE SERVICIOS PUBLICOS)","MENOR O IGUAL A 2500 USUARIOS"
"SANTANDER","SOCORRO","ASEO","OPERATIVA","EMPRESA DE SOLUCIONES AMBIENTALES PARA COLOMBIA S.A E.S.P.","SANTANDER","SAN GIL","VEREDA EL CUCHARO","7273772","empsacol@hotmail.com","Registro por la ESP","JHONNATHAN VESGA PALOMINO","SOCIEDADES (EMPRESA DE SERVICIOS PUBLICOS)","MENOR O IGUAL A 2500 USUARIOS"
"SANTANDER","SUAITA","ASEO","OPERATIVA","EMPRESA DE SOLUCIONES AMBIENTALES PARA COLOMBIA S.A E.S.P.","SANTANDER","SAN GIL","VEREDA EL CUCHARO","7273772","empsacol@hotmail.com","Registro por la ESP","JHONNATHAN VESGA PALOMINO","SOCIEDADES (EMPRESA DE SERVICIOS PUBLICOS)","MENOR O IGUAL A 2500 USUARIOS"
"SANTANDER","SUCRE","ASEO","OPERATIVA","EMPRESA DE SOLUCIONES AMBIENTALES PARA COLOMBIA S.A E.S.P.","SANTANDER","SAN GIL","VEREDA EL CUCHARO","7273772","empsacol@hotmail.com","Registro por la ESP","JHONNATHAN VESGA PALOMINO","SOCIEDADES (EMPRESA DE SERVICIOS PUBLICOS)","MENOR O IGUAL A 2500 USUARIOS"
"SANTANDER","VALLE DE SAN JOSE","ASEO","OPERATIVA","EMPRESA DE SOLUCIONES AMBIENTALES PARA COLOMBIA S.A E.S.P.","SANTANDER","SAN GIL","VEREDA EL CUCHARO","7273772","empsacol@hotmail.com","Registro por la ESP","JHONNATHAN VESGA PALOMINO","SOCIEDADES (EMPRESA DE SERVICIOS PUBLICOS)","MENOR O IGUAL A 2500 USUARIOS"
"SANTANDER","VELEZ","ASEO","OPERATIVA","EMPRESA DE SOLUCIONES AMBIENTALES PARA COLOMBIA S.A E.S.P.","SANTANDER","SAN GIL","VEREDA EL CUCHARO","7273772","empsacol@hotmail.com","Registro por la ESP","JHONNATHAN VESGA PALOMINO","SOCIEDADES (EMPRESA DE SERVICIOS PUBLICOS)","MENOR O IGUAL A 2500 USUARIOS"
"SANTANDER","VILLANUEVA","ASEO","OPERATIVA","EMPRESA DE SOLUCIONES AMBIENTALES PARA COLOMBIA S.A E.S.P.","SANTANDER","SAN GIL","VEREDA EL CUCHARO","7273772","empsacol@hotmail.com","Registro por la ESP","JHONNATHAN VESGA PALOMINO","SOCIEDADES (EMPRESA DE SERVICIOS PUBLICOS)","MENOR O IGUAL A 2500 USUARIOS"
"SANTANDER","LA BELLEZA","ACUEDUCTO","OPERATIVA","CORPORACION DE SERVICIOS DEL ACUEDUCTO Y ALCANTARILLADO DE LAS VEREDAS VILLA HERMOSA, FUNCIAL Y CAMPO HERMOSO","SANTANDER","LA BELLEZA","VEREDA VILLA HERMOSA","0026982","crisantocruz1@hotmail.com","Registro por la ESP","CRISANTO CRUZ MATEUS","ORGANIZACION AUTORIZADA","HASTA 2500 SUSCRIPTORES"
"SANTANDER","SAN VICENTE DE CHUCURI","ACUEDUCTO","OPERATIVA","ASOCIACION DE USUARIOS ACUEDUCTO PALMIRA GUADUAL NUEVO MUNDO Y LLANA FRIA","SANTANDER","SAN VICENTE DE CHUCURI","Cra 16 Nº 15 36","6254150","acllanuguapal@hotmail.com","Registro por la ESP","PABLO MANRIQUE PARRA","ORGANIZACION AUTORIZADA","HASTA 2500 SUSCRIPTORES"
"SANTANDER","SOCORRO","ACUEDUCTO","OPERATIVA","AGUAS DEL SOCORRO S.A E.S.P","SANTANDER","SOCORRO","CARRERA 16 17-79","7276020","aguasdelsocorro@hotmail.com","Registro por la ESP","CESAR AUGUSTO ARDILA CARDENAS","SOCIEDADES (EMPRESA DE SERVICIOS PUBLICOS)","MAYOR O IGUAL A 5001 USUARIOS"
"SANTANDER","SOCORRO","ALCANTARILLADO","OPERATIVA","AGUAS DEL SOCORRO S.A E.S.P","SANTANDER","SOCORRO","CARRERA 16 17-79","7276020","aguasdelsocorro@hotmail.com","Registro por la ESP","CESAR AUGUSTO ARDILA CARDENAS","SOCIEDADES (EMPRESA DE SERVICIOS PUBLICOS)","MAYOR O IGUAL A 5001 USUARIOS"
"SANTANDER","GUADALUPE","ACUEDUCTO","OPERATIVA","AGUAS PUBLICAS DE GUADALUPE  E.P.G. S.A - E.S.P","SANTANDER","GUADALUPE","CALLE 5 No. 4-18","7180123","aguaspublicasdeguadalupe@gmail.com","Registro por la ESP","JAIME ALBERTO GARCES MAFLA","SOCIEDADES (EMPRESA DE SERVICIOS PUBLICOS)","MENOR O IGUAL A 2500 USUARIOS"
"SANTANDER","GUADALUPE","ALCANTARILLADO","OPERATIVA","AGUAS PUBLICAS DE GUADALUPE  E.P.G. S.A - E.S.P","SANTANDER","GUADALUPE","CALLE 5 No. 4-18","7180123","aguaspublicasdeguadalupe@gmail.com","Registro por la ESP","JAIME ALBERTO GARCES MAFLA","SOCIEDADES (EMPRESA DE SERVICIOS PUBLICOS)","MENOR O IGUAL A 2500 USUARIOS"
"SANTANDER","GUADALUPE","ASEO","OPERATIVA","AGUAS PUBLICAS DE GUADALUPE  E.P.G. S.A - E.S.P","SANTANDER","GUADALUPE","CALLE 5 No. 4-18","7180123","aguaspublicasdeguadalupe@gmail.com","Registro por la ESP","JAIME ALBERTO GARCES MAFLA","SOCIEDADES (EMPRESA DE SERVICIOS PUBLICOS)","MENOR O IGUAL A 2500 USUARIOS"
"SANTANDER","BUCARAMANGA","ASEO","OPERATIVA","COOPERATIVA MULTIACTIVA DE RECICLADORES BELLO RENACER","SANTANDER","BUCARAMANGA","km 7 VIA BUCARAMANGA-GIRON CENTRO DE ACOPIO EL CARRASCO","6467133","rutadereciclaje.bellorenacer@outlook.es","Registro por la ESP","GONZALO MEJIA PICO","ORGANIZACION AUTORIZADA","MAYOR O IGUAL A 5001 USUARIOS"
"SANTANDER","ENCISO","ACUEDUCTO","OPERATIVA","EMPRESA DE SERVICIOS PUBLICOS DE SANTANDER S.A.E.S.P.","SANTANDER","BUCARAMANGA","CALLE 36 No. 31-39 OFIC 131 CENTRO EMPRESARIAL CHICAMOCHA","7000420","favio.garcia@esant.com.co","Registro por la ESP","NOHORA CRISTINA FLOREZ BARRERA","SOCIEDADES (EMPRESA DE SERVICIOS PUBLICOS)","MENOR O IGUAL A 2500 USUARIOS"
"SANTANDER","LOS SANTOS","ACUEDUCTO","OPERATIVA","EMPRESA DE SERVICIOS PUBLICOS DE SANTANDER S.A.E.S.P.","SANTANDER","BUCARAMANGA","CALLE 36 No. 31-39 OFIC 131 CENTRO EMPRESARIAL CHICAMOCHA","7000420","favio.garcia@esant.com.co","Registro por la ESP","NOHORA CRISTINA FLOREZ BARRERA","SOCIEDADES (EMPRESA DE SERVICIOS PUBLICOS)","MENOR O IGUAL A 2500 USUARIOS"
"SANTANDER","VETAS","ACUEDUCTO","OPERATIVA","EMPRESA DE SERVICIOS PUBLICOS DE SANTANDER S.A.E.S.P.","SANTANDER","BUCARAMANGA","CALLE 36 No. 31-39 OFIC 131 CENTRO EMPRESARIAL CHICAMOCHA","7000420","favio.garcia@esant.com.co","Registro por la ESP","NOHORA CRISTINA FLOREZ BARRERA","SOCIEDADES (EMPRESA DE SERVICIOS PUBLICOS)","MENOR O IGUAL A 2500 USUARIOS"
"SANTANDER","ENCISO","ALCANTARILLADO","OPERATIVA","EMPRESA DE SERVICIOS PUBLICOS DE SANTANDER S.A.E.S.P.","SANTANDER","BUCARAMANGA","CALLE 36 No. 31-39 OFIC 131 CENTRO EMPRESARIAL CHICAMOCHA","7000420","favio.garcia@esant.com.co","Registro por la ESP","NOHORA CRISTINA FLOREZ BARRERA","SOCIEDADES (EMPRESA DE SERVICIOS PUBLICOS)","MENOR O IGUAL A 2500 USUARIOS"
"SANTANDER","LOS SANTOS","ALCANTARILLADO","OPERATIVA","EMPRESA DE SERVICIOS PUBLICOS DE SANTANDER S.A.E.S.P.","SANTANDER","BUCARAMANGA","CALLE 36 No. 31-39 OFIC 131 CENTRO EMPRESARIAL CHICAMOCHA","7000420","favio.garcia@esant.com.co","Registro por la ESP","NOHORA CRISTINA FLOREZ BARRERA","SOCIEDADES (EMPRESA DE SERVICIOS PUBLICOS)","MENOR O IGUAL A 2500 USUARIOS"
"SANTANDER","VETAS","ALCANTARILLADO","OPERATIVA","EMPRESA DE SERVICIOS PUBLICOS DE SANTANDER S.A.E.S.P.","SANTANDER","BUCARAMANGA","CALLE 36 No. 31-39 OFIC 131 CENTRO EMPRESARIAL CHICAMOCHA","7000420","favio.garcia@esant.com.co","Registro por la ESP","NOHORA CRISTINA FLOREZ BARRERA","SOCIEDADES (EMPRESA DE SERVICIOS PUBLICOS)","MENOR O IGUAL A 2500 USUARIOS"
"SANTANDER","ENCISO","ASEO","OPERATIVA","EMPRESA DE SERVICIOS PUBLICOS DE SANTANDER S.A.E.S.P.","SANTANDER","BUCARAMANGA","CALLE 36 No. 31-39 OFIC 131 CENTRO EMPRESARIAL CHICAMOCHA","7000420","favio.garcia@esant.com.co","Registro por la ESP","NOHORA CRISTINA FLOREZ BARRERA","SOCIEDADES (EMPRESA DE SERVICIOS PUBLICOS)","MENOR O IGUAL A 2500 USUARIOS"
"SANTANDER","VETAS","ASEO","OPERATIVA","EMPRESA DE SERVICIOS PUBLICOS DE SANTANDER S.A.E.S.P.","SANTANDER","BUCARAMANGA","CALLE 36 No. 31-39 OFIC 131 CENTRO EMPRESARIAL CHICAMOCHA","7000420","favio.garcia@esant.com.co","Registro por la ESP","NOHORA CRISTINA FLOREZ BARRERA","SOCIEDADES (EMPRESA DE SERVICIOS PUBLICOS)","MENOR O IGUAL A 2500 USUARIOS"
"SANTANDER","BUCARAMANGA","ASEO","OPERATIVA","METROLIMPIA S.A.S E.S.P","SANTANDER","BUCARAMANGA","Calle 105 # 16A-43 B. Rocio","6907039","metrolimpia@gmail.com","Registro por la ESP","SILVIA JULIANA CONTRERAS FERNANDEZ","SOCIEDADES (EMPRESA DE SERVICIOS PUBLICOS)","MENOR O IGUAL A 2500 USUARIOS"
"SANTANDER","FLORIDABLANCA","ASEO","OPERATIVA","METROLIMPIA S.A.S E.S.P","SANTANDER","BUCARAMANGA","Calle 105 # 16A-43 B. Rocio","6907039","metrolimpia@gmail.com","Registro por la ESP","SILVIA JULIANA CONTRERAS FERNANDEZ","SOCIEDADES (EMPRESA DE SERVICIOS PUBLICOS)","MENOR O IGUAL A 2500 USUARIOS"
"SANTANDER","GIRON","ASEO","OPERATIVA","METROLIMPIA S.A.S E.S.P","SANTANDER","BUCARAMANGA","Calle 105 # 16A-43 B. Rocio","6907039","metrolimpia@gmail.com","Registro por la ESP","SILVIA JULIANA CONTRERAS FERNANDEZ","SOCIEDADES (EMPRESA DE SERVICIOS PUBLICOS)","MENOR O IGUAL A 2500 USUARIOS"
"SANTANDER","LEBRIJA","ASEO","OPERATIVA","METROLIMPIA S.A.S E.S.P","SANTANDER","BUCARAMANGA","Calle 105 # 16A-43 B. Rocio","6907039","metrolimpia@gmail.com","Registro por la ESP","SILVIA JULIANA CONTRERAS FERNANDEZ","SOCIEDADES (EMPRESA DE SERVICIOS PUBLICOS)","MENOR O IGUAL A 2500 USUARIOS"
"SANTANDER","PIEDECUESTA","ASEO","OPERATIVA","METROLIMPIA S.A.S E.S.P","SANTANDER","BUCARAMANGA","Calle 105 # 16A-43 B. Rocio","6907039","metrolimpia@gmail.com","Registro por la ESP","SILVIA JULIANA CONTRERAS FERNANDEZ","SOCIEDADES (EMPRESA DE SERVICIOS PUBLICOS)","MENOR O IGUAL A 2500 USUARIOS"
"SANTANDER","SAN VICENTE DE CHUCURI","ASEO","OPERATIVA","COLOMBIANA RECICLEMOS EMPRESA DE SERVICIOS PÚBLICOS S.A.","SANTANDER","SAN VICENTE DE CHUCURI","CALLE 10  No. 12-25","6256330","reciclemossaesp@gmail.com","Registro por la ESP","ROSA MARIA MUÑOZ GOMEZ","SOCIEDADES (EMPRESA DE SERVICIOS PUBLICOS)","HASTA 2500 SUSCRIPTORES"
"SANTANDER","BARRANCABERMEJA","ACUEDUCTO","OPERATIVA","ASOCIACION DE USUARIOS DEL ACUEDUCTO VEREDAL LA FORTUNA E.S.P","SANTANDER","BARRANCABERMEJA","CASETA COMUNAL","7299005","oscar.mauro@hotmail.es","Registro por la ESP","OSCAR MAURICIO  CANO  SOLANO","ORGANIZACION AUTORIZADA","MENOR O IGUAL A 2500 USUARIOS"
"SANTANDER","SAN VICENTE DE CHUCURI","ACUEDUCTO","OPERATIVA","ASOCIACION DE USUARIOS DEL ACUEDUCTO VEREDAL LA FORTUNA E.S.P","SANTANDER","BARRANCABERMEJA","CASETA COMUNAL","7299005","oscar.mauro@hotmail.es","Registro por la ESP","OSCAR MAURICIO  CANO  SOLANO","ORGANIZACION AUTORIZADA","MENOR O IGUAL A 2500 USUARIOS"
"SANTANDER","FLORIDABLANCA","ASEO","OPERATIVA","EMPRESA DE SERVICIOS PUBLICOS DOMICILIARIOS EMPCORECICLAR SAS ESP","SANTANDER","BUCARAMANGA","KR 33-52 36","6577375","empcoreciclarsasesp@gmail.com","Registro por la ESP","ALEJANDRO BARRIOS OSMA","SOCIEDADES (EMPRESA DE SERVICIOS PUBLICOS)","MENOR O IGUAL A 2500 USUARIOS"
"SANTANDER","GIRON","ASEO","OPERATIVA","EMPRESA DE SERVICIOS PUBLICOS DOMICILIARIOS EMPCORECICLAR SAS ESP","SANTANDER","BUCARAMANGA","KR 33-52 36","6577375","empcoreciclarsasesp@gmail.com","Registro por la ESP","ALEJANDRO BARRIOS OSMA","SOCIEDADES (EMPRESA DE SERVICIOS PUBLICOS)","MENOR O IGUAL A 2500 USUARIOS"
"SANTANDER","SABANA DE TORRES","ACUEDUCTO","OPERATIVA","ASOCIACION DE USUARIOS DE ACUEDUCTO ALCANTARILLADO Y ASEO DE LA VEREDA ROSABLANCA - BIRMANIA Y PARCELACION LAS CRISTALINAS Y LA BAHIA","SANTANDER","SABANA DE TORRES","Escuela Rural de la vereda Rosablanca","6293357","acurosablanca.cristalina@gmail.com","Registro por la ESP","DEIBY FABIAN URIBE CARRASQUILLA","ORGANIZACION AUTORIZADA","MENOR O IGUAL A 2500 USUARIOS"
"SANTANDER","CURITI","ACUEDUCTO","OPERATIVA","ASOCIACION DE USUARIOS DE ACUEDUCTO ALCANTARILLADO Y ASEO DE LAS VEREDAS LA PEÑA - AGUASEMBRADA","SANTANDER","CURITI","Salón Comunal vereda La Peña","7242430","aguasembrada09@gmail.com","Registro por la ESP","REYNALDO  LOPEZ  APARICIO","ORGANIZACION AUTORIZADA","MENOR O IGUAL A 2500 USUARIOS"
"SANTANDER","ARATOCA","ACUEDUCTO","OPERATIVA","CORPORACIÓN DE SERVICIO DE ACUEDUCTO, ALCANTARILLADO Y ASEO JAIRO RICO NIÑO DE LA VEREDA CLAVELLINAS SECTOR LA LAJA SAN IGNACIO","SANTANDER","ARATOCA","Vereda Clavellinas sector La Laja San Ignacio","7266687","corposanignacio@yahoo.com","Registro por la ESP","HORACIO APARICIO JAIMES","ORGANIZACION AUTORIZADA","MENOR O IGUAL A 2500 USUARIOS"
"SANTANDER","FLORIDABLANCA","ASEO","OPERATIVA","COOPERATIVA DE TRABAJO ASOCIADO DE RECICLADORES UNIDOS POR EL MEDIO SOCIAL COLOMBIANO","SANTANDER","FLORIDABLANCA","Barrio Lagos 2 Bodega 1","6000000","recupmsoc@gmail.com","Registro por la ESP","WALTER ADRIAN RUIZ CESPEDES","ORGANIZACION AUTORIZADA","DESDE 2501 HASTA 5000 USUARIOS"
"SANTANDER","GIRON","ASEO","OPERATIVA","COOPERATIVA DE TRABAJO ASOCIADO DE RECICLADORES UNIDOS POR EL MEDIO SOCIAL COLOMBIANO","SANTANDER","FLORIDABLANCA","Barrio Lagos 2 Bodega 1","6000000","recupmsoc@gmail.com","Registro por la ESP","WALTER ADRIAN RUIZ CESPEDES","ORGANIZACION AUTORIZADA","DESDE 2501 HASTA 5000 USUARIOS"
"SANTANDER","PIEDECUESTA","ASEO","OPERATIVA","COOPERATIVA DE TRABAJO ASOCIADO DE RECICLADORES UNIDOS POR EL MEDIO SOCIAL COLOMBIANO","SANTANDER","FLORIDABLANCA","Barrio Lagos 2 Bodega 1","6000000","recupmsoc@gmail.com","Registro por la ESP","WALTER ADRIAN RUIZ CESPEDES","ORGANIZACION AUTORIZADA","DESDE 2501 HASTA 5000 USUARIOS"
"SANTANDER","SABANA DE TORRES","ACUEDUCTO","OPERATIVA","ASOCIACION DE USUARIOS DE ACUEDUCTO ALCANTARILLADO Y ASEO DE LA VEREDA SAN RAFAEL DE PAYOA","SANTANDER","SABANA DE TORRES","Vía Panamericana Km 12 Finca Buenos Aires","6293357","acueductopayoa@gmail.com","Registro por la ESP","ROBINSON LEON ORTIZ","ORGANIZACION AUTORIZADA","MENOR O IGUAL A 2500 USUARIOS"
"SANTANDER","BUCARAMANGA","ASEO","OPERATIVA","ASOCIACION DE RECICLADORES DE FLORIDABLANCA","SANTANDER","GIRON","Transversal Malpaso, Vereda Pueblito viejo","6959866","asoreflor2010@gmail.com","Registro por la ESP","MARIA SMITH GIL OSMA","ORGANIZACION AUTORIZADA","MAYOR O IGUAL A 5001 USUARIOS"
"SANTANDER","FLORIDABLANCA","ASEO","OPERATIVA","ASOCIACION DE RECICLADORES DE FLORIDABLANCA","SANTANDER","GIRON","Transversal Malpaso, Vereda Pueblito viejo","6959866","asoreflor2010@gmail.com","Registro por la ESP","MARIA SMITH GIL OSMA","ORGANIZACION AUTORIZADA","MAYOR O IGUAL A 5001 USUARIOS"
"SANTANDER","GIRON","ASEO","OPERATIVA","ASOCIACION DE RECICLADORES DE FLORIDABLANCA","SANTANDER","GIRON","Transversal Malpaso, Vereda Pueblito viejo","6959866","asoreflor2010@gmail.com","Registro por la ESP","MARIA SMITH GIL OSMA","ORGANIZACION AUTORIZADA","MAYOR O IGUAL A 5001 USUARIOS"
"SANTANDER","PIEDECUESTA","ASEO","OPERATIVA","ASOCIACION DE RECICLADORES DE FLORIDABLANCA","SANTANDER","GIRON","Transversal Malpaso, Vereda Pueblito viejo","6959866","asoreflor2010@gmail.com","Registro por la ESP","MARIA SMITH GIL OSMA","ORGANIZACION AUTORIZADA","MAYOR O IGUAL A 5001 USUARIOS"
"SANTANDER","BARRANCABERMEJA","ASEO","OPERATIVA","Corporacion de Recicladores en Materiales Aprovechables","SANTANDER","BARRANCABERMEJA","CALLE 52 # 13-05","0000000","Corporacioncoremab@gmail.com","Registro por la ESP","BEATRIZ ELENA GONZALEZ BLANCO","ORGANIZACION AUTORIZADA","MAYOR O IGUAL A 5001 USUARIOS"
"SANTANDER","BARRANCABERMEJA","ASEO","OPERATIVA","CORPORACIÒN COLOMBIA RECICLA","SANTANDER","GIRON","Calle 2 # 3 - 193","0000000","corporacioncolombiarecicla@gmail.com","Registro por la ESP","LUZ DENNIS AYALA ROJAS","ORGANIZACION AUTORIZADA","MAYOR O IGUAL A 5001 USUARIOS"
"SANTANDER","BUCARAMANGA","ASEO","OPERATIVA","CORPORACIÒN COLOMBIA RECICLA","SANTANDER","GIRON","Calle 2 # 3 - 193","0000000","corporacioncolombiarecicla@gmail.com","Registro por la ESP","LUZ DENNIS AYALA ROJAS","ORGANIZACION AUTORIZADA","MAYOR O IGUAL A 5001 USUARIOS"
"SANTANDER","FLORIDABLANCA","ASEO","OPERATIVA","CORPORACIÒN COLOMBIA RECICLA","SANTANDER","GIRON","Calle 2 # 3 - 193","0000000","corporacioncolombiarecicla@gmail.com","Registro por la ESP","LUZ DENNIS AYALA ROJAS","ORGANIZACION AUTORIZADA","MAYOR O IGUAL A 5001 USUARIOS"
"SANTANDER","GIRON","ASEO","OPERATIVA","CORPORACIÒN COLOMBIA RECICLA","SANTANDER","GIRON","Calle 2 # 3 - 193","0000000","corporacioncolombiarecicla@gmail.com","Registro por la ESP","LUZ DENNIS AYALA ROJAS","ORGANIZACION AUTORIZADA","MAYOR O IGUAL A 5001 USUARIOS"
"SANTANDER","PIEDECUESTA","ASEO","OPERATIVA","CORPORACIÒN COLOMBIA RECICLA","SANTANDER","GIRON","Calle 2 # 3 - 193","0000000","corporacioncolombiarecicla@gmail.com","Registro por la ESP","LUZ DENNIS AYALA ROJAS","ORGANIZACION AUTORIZADA","MAYOR O IGUAL A 5001 USUARIOS"
"SANTANDER","SABANA DE TORRES","ASEO","OPERATIVA","CORPORACIÒN COLOMBIA RECICLA","SANTANDER","GIRON","Calle 2 # 3 - 193","0000000","corporacioncolombiarecicla@gmail.com","Registro por la ESP","LUZ DENNIS AYALA ROJAS","ORGANIZACION AUTORIZADA","MAYOR O IGUAL A 5001 USUARIOS"
"SANTANDER","PIEDECUESTA","ASEO","OPERATIVA","EMPRESA DE SERVICIOS PÚBLICOS LA FUENTE S.A.S E.S.P","SANTANDER","PIEDECUESTA","Avenida 17 No. 7W - 51 Barrio Comuneros","6388053","LAFUENTESASESP@GMAIL.COM","Registro por la ESP","OSCAR ALFREDO AMAYA  QUINTERO","SOCIEDADES (EMPRESA DE SERVICIOS PUBLICOS)","DESDE 2501 HASTA 5000 USUARIOS"
"SANTANDER","SABANA DE TORRES","ASEO","OPERATIVA","ASOCIACION DE TRABAJADORES POR EL MEDIO AMBIENTE","SANTANDER","SABANA DE TORRES","CARRERA 12 # 15-24 L 01 BARRIO 20 DE JULIO","6293148","trabajadoresasotramarc@gmail.com","Registro por la ESP","JEISON FABIAN  RAMIREZ AYALA","ORGANIZACION AUTORIZADA","DESDE 2501 HASTA 5000 USUARIOS"
"SANTANDER","MALAGA","ASEO","OPERATIVA","ASOCIACIÓN DE RECICLADORES AMBIENTALES DE MALAGA","SANTANDER","MALAGA","CARRERA 6 B # 2 IMPAR","6607646","aramasolidaria@gmail.com","Registro por la ESP","FREY ALONSO PARRA MONSALVE","ORGANIZACION AUTORIZADA","MENOR O IGUAL A 2500 USUARIOS"
"SANTANDER","SAN GIL","ASEO","OPERATIVA","EMPRESA DE APROVECHAMIENTO DE RECICLADORES DE SANTANDER EMARES S.A.S. E.S.P.","SANTANDER","SAN GIL","CARRERA 11 # 29-407 BARRIO LAS GARDENIAS","0000000","contabilidadessangil@gmail.com","Registro por la ESP","FABIO NELSON OROZCO HENAO","SOCIEDADES (EMPRESA DE SERVICIOS PUBLICOS)","MAYOR O IGUAL A 5001 USUARIOS"
"SANTANDER","GIRON","ASEO","OPERATIVA","ASOCIACION DE RECICLAJE AMBIENTE Y SERVICIOS AREYS","SANTANDER","GIRON","Diagonal 25 B SUR 23-14 Sector 6 manzana F barrio ciudadela","6919590","recicladores.areys@gmail.com","Registro por la ESP","EDUAR SANDRO ENTRALGO FLOREZ","ORGANIZACION AUTORIZADA","DESDE 2501 HASTA 5000 USUARIOS"
"SANTANDER","GIRON","ASEO","OPERATIVA","ASOCIACION DE MUJERES EMPRENDEDORAS DE CHOCOITA ADME","SANTANDER","GIRON","Finca El Caucho Lt 1 vereda Chocoita","0000000","aprovechamiento@superservicios.gov.co","Registro por la ESP","ANSELMO HERNANDEZ RUEDA","ORGANIZACION AUTORIZADA","MENOR O IGUAL A 2500 USUARIOS"
"SANTANDER","PIEDECUESTA","ASEO","OPERATIVA","Asociacion Ecorecuperadores de Piedecuesta","SANTANDER","PIEDECUESTA","BARRIO NUEVO DIA CASA 14","0000000","ECOPIEDECUESTA2014@GMAIL.COM","Registro por la ESP","BEATRIZ GOMEZ SEPULVEDA","ORGANIZACION AUTORIZADA","DESDE 2501 HASTA 5000 USUARIOS"
"SANTANDER","BUCARAMANGA","ASEO","OPERATIVA","Asociacion de recicladores y recuperadores del area metropolitana de Bucaramanga y municipios de santander RECICLEMOS","SANTANDER","BUCARAMANGA","carrera 10 # 31-40 barrio granada","6428392","bucaramangareciclemos@gmail.com","Registro por la ESP","CAMILO TORRES PARRA","ORGANIZACION AUTORIZADA","DESDE 2501 HASTA 5000 USUARIOS"
"SANTANDER","BARRANCABERMEJA","ASEO","OPERATIVA","ASOCIACION MEDIO AMBIENTAL Y RECICLAJE JUAN VALENCIA & MANTILLA","SANTANDER","BARRANCABERMEJA","Corregimiento el centro VDA CAMPO SEIS","8054937","aso.jvym@hotmail.com","Registro por la ESP","JUAN BAUTISTA VALENCIA  AYALA","ORGANIZACION AUTORIZADA","MAYOR O IGUAL A 5001 USUARIOS"
"SANTANDER","BUCARAMANGA","ASEO","OPERATIVA","ECORECICLA","SANTANDER","BUCARAMANGA","Calle19a #13 -51","6523131","ecoreciclasas2017@gmail.com","Registro por la ESP","MARTHA BEATRIZ HERNANDEZ TURRIZO","SOCIEDADES (EMPRESA DE SERVICIOS PUBLICOS)","MENOR O IGUAL A 2500 USUARIOS"
"SANTANDER","FLORIDABLANCA","ASEO","OPERATIVA","ECORECICLA","SANTANDER","BUCARAMANGA","Calle19a #13 -51","6523131","ecoreciclasas2017@gmail.com","Registro por la ESP","MARTHA BEATRIZ HERNANDEZ TURRIZO","SOCIEDADES (EMPRESA DE SERVICIOS PUBLICOS)","MENOR O IGUAL A 2500 USUARIOS"
"SANTANDER","GIRON","ASEO","OPERATIVA","ECORECICLA","SANTANDER","BUCARAMANGA","Calle19a #13 -51","6523131","ecoreciclasas2017@gmail.com","Registro por la ESP","MARTHA BEATRIZ HERNANDEZ TURRIZO","SOCIEDADES (EMPRESA DE SERVICIOS PUBLICOS)","MENOR O IGUAL A 2500 USUARIOS"
"SANTANDER","PIEDECUESTA","ASEO","OPERATIVA","ECORECICLA","SANTANDER","BUCARAMANGA","Calle19a #13 -51","6523131","ecoreciclasas2017@gmail.com","Registro por la ESP","MARTHA BEATRIZ HERNANDEZ TURRIZO","SOCIEDADES (EMPRESA DE SERVICIOS PUBLICOS)","MENOR O IGUAL A 2500 USUARIOS"
"SANTANDER","SUAITA","ACUEDUCTO","OPERATIVA","EMPRESA DE SERVICIOS PÚBLICOS DE ACUEDUCTO, ALCANTARILLADO Y ASEO DE SUAITA S.A. E.S.P","SANTANDER","SUAITA","CALLE 5 # 8 - 26","3222125","serviciospublicos@suaita-santander.gov.co","Registro por la ESP","JUAN SEBASTIAN TORRES LOMBANA","SOCIEDADES (EMPRESA DE SERVICIOS PUBLICOS)","MENOR O IGUAL A 2500 USUARIOS"
"SANTANDER","SUAITA","ALCANTARILLADO","OPERATIVA","EMPRESA DE SERVICIOS PÚBLICOS DE ACUEDUCTO, ALCANTARILLADO Y ASEO DE SUAITA S.A. E.S.P","SANTANDER","SUAITA","CALLE 5 # 8 - 26","3222125","serviciospublicos@suaita-santander.gov.co","Registro por la ESP","JUAN SEBASTIAN TORRES LOMBANA","SOCIEDADES (EMPRESA DE SERVICIOS PUBLICOS)","MENOR O IGUAL A 2500 USUARIOS"
"SANTANDER","SUAITA","ASEO","OPERATIVA","EMPRESA DE SERVICIOS PÚBLICOS DE ACUEDUCTO, ALCANTARILLADO Y ASEO DE SUAITA S.A. E.S.P","SANTANDER","SUAITA","CALLE 5 # 8 - 26","3222125","serviciospublicos@suaita-santander.gov.co","Registro por la ESP","JUAN SEBASTIAN TORRES LOMBANA","SOCIEDADES (EMPRESA DE SERVICIOS PUBLICOS)","MENOR O IGUAL A 2500 USUARIOS"
"SANTANDER","LEBRIJA","ASEO","OPERATIVA","Cooperativa Multiactiva de Lebrija"" Vida y Medio Ambiente""","SANTANDER","LEBRIJA","calle 12 n 12 -100","6567502","yudyjacome@hotmail.com","Registro por la ESP","SANDRA MILENA  BERMUDEZ  MENDOZA","ORGANIZACION AUTORIZADA","MAYOR O IGUAL A 5001 USUARIOS"
"SANTANDER","BARRANCABERMEJA","ASEO","OPERATIVA","ASOCIACIÓN DE RECICLADORES AMBIENTALES  AFRODESCENDIENTES DE COLOMBIA","SANTANDER","BARRANCABERMEJA","Diagonal 60 Nº 44T- 18 Barrio las granjas","0000000","asociacion_aracol@hotmail.com","Registro por la ESP","CARMEN ALVAREZ MIZAR","ORGANIZACION AUTORIZADA","DESDE 2501 HASTA 5000 USUARIOS"
"SANTANDER","SAN VICENTE DE CHUCURI","ACUEDUCTO","OPERATIVA","Junta de Acción Comunal la Magdalena","SANTANDER","SAN VICENTE DE CHUCURI","Vereda Cerro la Magdalena finca los Alpes","6254640","actocerromagdalena@gmail.com","Registro por la ESP","ALEICER CEPEDA VILLAMIZAR","ORGANIZACION AUTORIZADA","MENOR O IGUAL A 2500 USUARIOS"
"SANTANDER","GIRON","ASEO","OPERATIVA","ASOCIACION DE RECICLAJE Y RECUPERADORES DEL MEDIO AMBIENTE","SANTANDER","GIRON","CALLE 31 #21-12 BODEGA 1","0000000","todosareciclar2016@hotmaail.com","Registro por la ESP","MARIA EUGENIA MANTILLA MARTINEZ","ORGANIZACION AUTORIZADA","DESDE 2501 HASTA 5000 USUARIOS"
"SANTANDER","BARRANCABERMEJA","ASEO","OPERATIVA","ASOCIACION DE RECICLADORES YARIGUIES","SANTANDER","BARRANCABERMEJA","Calle 31 52-91 B. El Castillo","6123456","reciclajeyariguies@gmail.com","Registro por la ESP","LUZ MILA ORTIZ RUEDA","ORGANIZACION AUTORIZADA","MAYOR O IGUAL A 5001 USUARIOS"
"SANTANDER","CERRITO","ASEO","OPERATIVA","AAA DE COLOMBIA S.A.S ESP","SANTANDER","BUCARAMANGA","Calle 36 No. 31-39 of 112","6960778","directora.administrativa@aaadecolombia.com","Registro por la ESP","RAFAEL STEIBY QUIROZ ESLAVA","SOCIEDADES (EMPRESA DE SERVICIOS PUBLICOS)","MENOR O IGUAL A 2500 USUARIOS"
"SANTANDER","MALAGA","ASEO","OPERATIVA","AAA DE COLOMBIA S.A.S ESP","SANTANDER","BUCARAMANGA","Calle 36 No. 31-39 of 112","6960778","directora.administrativa@aaadecolombia.com","Registro por la ESP","RAFAEL STEIBY QUIROZ ESLAVA","SOCIEDADES (EMPRESA DE SERVICIOS PUBLICOS)","MENOR O IGUAL A 2500 USUARIOS"
"SANTANDER","BARRANCABERMEJA","ASEO","OPERATIVA","EMPRESA ASOCIATIVA DE TRABAJO RECICLADORES DE COLOMBIA","SANTANDER","BARRANCABERMEJA","cra 32 # 31-84 barrio belén","6021251","redecol2018@hotmail.com","Registro por la ESP","DAGOBERTO DIAZ MEZA","ORGANIZACION AUTORIZADA","MAYOR O IGUAL A 5001 USUARIOS"
"SANTANDER","BARRANCABERMEJA","ASEO","OPERATIVA","ASOCIACION DE RECICLADORES BARRANCABERMEJA LIMPIA","SANTANDER","BARRANCABERMEJA","CALLE 47 15A-05 BARRIO BUENOS AIRES","6213072","asorebalbarrancabermeja@hotmail.com","Registro por la ESP","JAIR ALBERTO ROMERO SABOGAL","ORGANIZACION AUTORIZADA","DESDE 2501 HASTA 5000 USUARIOS"
"SANTANDER","BARBOSA","ASEO","OPERATIVA","ASOCIACION INTEGRAL DE RECICLADORES ESP","SANTANDER","SAN GIL","CR 9 No. 13-22 BARRIO CENTRO","7237471","airessantander1@gmail.com","Registro por la ESP","ARELIS NEIRA NEIRA","ORGANIZACION AUTORIZADA","MAYOR O IGUAL A 5001 USUARIOS"
"SANTANDER","CHARALA","ASEO","OPERATIVA","ASOCIACION INTEGRAL DE RECICLADORES ESP","SANTANDER","SAN GIL","CR 9 No. 13-22 BARRIO CENTRO","7237471","airessantander1@gmail.com","Registro por la ESP","ARELIS NEIRA NEIRA","ORGANIZACION AUTORIZADA","MAYOR O IGUAL A 5001 USUARIOS"
"SANTANDER","SAN GIL","ASEO","OPERATIVA","ASOCIACION INTEGRAL DE RECICLADORES ESP","SANTANDER","SAN GIL","CR 9 No. 13-22 BARRIO CENTRO","7237471","airessantander1@gmail.com","Registro por la ESP","ARELIS NEIRA NEIRA","ORGANIZACION AUTORIZADA","MAYOR O IGUAL A 5001 USUARIOS"
"SANTANDER","SOCORRO","ASEO","OPERATIVA","ASOCIACION INTEGRAL DE RECICLADORES ESP","SANTANDER","SAN GIL","CR 9 No. 13-22 BARRIO CENTRO","7237471","airessantander1@gmail.com","Registro por la ESP","ARELIS NEIRA NEIRA","ORGANIZACION AUTORIZADA","MAYOR O IGUAL A 5001 USUARIOS"
"SANTANDER","VELEZ","ASEO","OPERATIVA","ASOCIACION INTEGRAL DE RECICLADORES ESP","SANTANDER","SAN GIL","CR 9 No. 13-22 BARRIO CENTRO","7237471","airessantander1@gmail.com","Registro por la ESP","ARELIS NEIRA NEIRA","ORGANIZACION AUTORIZADA","MAYOR O IGUAL A 5001 USUARIOS"
"SANTANDER","GIRON","ALCANTARILLADO","OPERATIVA","EMPRESA DE SERVICIOS PÚBLICOS DOMICILIARIOS GIRÓN S.A.S E.S.P","SANTANDER","GIRON","Carrera 22c 16-02 urbanizacion portal campestre II","6167964","gerencia@gironesp.com","Registro por la ESP","FULVIA SANTAMARIA ACOSTA","SOCIEDADES (EMPRESA DE SERVICIOS PUBLICOS)","MAYOR O IGUAL A 5001 USUARIOS"
"SANTANDER","FLORIDABLANCA","ASEO","OPERATIVA","ASOCIACION RECICLAR RECUPERAR Y REDUCIR","SANTANDER","FLORIDABLANCA","DG 55 A CA 56 P 1 BRR CORPOVISUR II LA CUMBRE","6364819","abrahamoct15@hotmail.com","Registro por la ESP","ABRAHAM ORDUZ CUADROS","ORGANIZACION AUTORIZADA","DESDE 2501 HASTA 5000 USUARIOS"
"SANTANDER","EL CARMEN DE CHUCURI","ACUEDUCTO","OPERATIVA","Corporación de servicios de acueducto veredal Flores de San Guillerma del municipio del Carmen de Chucuri","SANTANDER","EL CARMEN DE CHUCURI","Finca San Francisco_La Bodega","6254640","coraflog@gmail.com","Registro por la ESP","JORGE ENRIQUE CALA RANGEL","ORGANIZACION AUTORIZADA","MENOR O IGUAL A 2500 USUARIOS"
"SANTANDER","BUCARAMANGA","ASEO","OPERATIVA","FUNDACION LATINOAMERICANA DE ACCION SOCIAL","SANTANDER","BUCARAMANGA","ANILLO VIAL KILOMETRO 3.5 CENTRO CAMIONERO TRACTO PARK","3103694","fundalas2009@hotmail.com","Registro por la ESP","CINDY JOHANA BLANCO FRANCO","ORGANIZACION AUTORIZADA","MAYOR O IGUAL A 5001 USUARIOS"
"SANTANDER","FLORIDABLANCA","ASEO","OPERATIVA","FUNDACION LATINOAMERICANA DE ACCION SOCIAL","SANTANDER","BUCARAMANGA","ANILLO VIAL KILOMETRO 3.5 CENTRO CAMIONERO TRACTO PARK","3103694","fundalas2009@hotmail.com","Registro por la ESP","CINDY JOHANA BLANCO FRANCO","ORGANIZACION AUTORIZADA","MAYOR O IGUAL A 5001 USUARIOS"
"SANTANDER","GIRON","ASEO","OPERATIVA","FUNDACION LATINOAMERICANA DE ACCION SOCIAL","SANTANDER","BUCARAMANGA","ANILLO VIAL KILOMETRO 3.5 CENTRO CAMIONERO TRACTO PARK","3103694","fundalas2009@hotmail.com","Registro por la ESP","CINDY JOHANA BLANCO FRANCO","ORGANIZACION AUTORIZADA","MAYOR O IGUAL A 5001 USUARIOS"
"SANTANDER","PIEDECUESTA","ASEO","OPERATIVA","FUNDACION LATINOAMERICANA DE ACCION SOCIAL","SANTANDER","BUCARAMANGA","ANILLO VIAL KILOMETRO 3.5 CENTRO CAMIONERO TRACTO PARK","3103694","fundalas2009@hotmail.com","Registro por la ESP","CINDY JOHANA BLANCO FRANCO","ORGANIZACION AUTORIZADA","MAYOR O IGUAL A 5001 USUARIOS"
"SANTANDER","SAN VICENTE DE CHUCURI","ACUEDUCTO","OPERATIVA","Asociación de Usuarios del Acueducto Horizonte","SANTANDER","SAN VICENTE DE CHUCURI","CRA 17B Nº 14 00","6254506","acueductohorizonte@gmail.com","Registro por la ESP","LIBARDO CALDERON DIAZ","ORGANIZACION AUTORIZADA","MENOR O IGUAL A 2500 USUARIOS"
"SANTANDER","BARRANCABERMEJA","ASEO","OPERATIVA","asociacion de recicladores de barrancabermeja la nueva esperanza (asorbanues)","SANTANDER","BARRANCABERMEJA","trans 48 #59-57 barrio Danubio","6100264","arsorbanues@gmail.com","Registro por la ESP","NELSON BELENO BELENO","ORGANIZACION AUTORIZADA","MAYOR O IGUAL A 5001 USUARIOS"
"SANTANDER","BARRANCABERMEJA","ASEO","OPERATIVA","FUNDACIÓN SERVICIOS, OPORTUNIDADES Y LOGROS  COLOMBIA","SANTANDER","BARRANCABERMEJA","CALLE 35 # 37-55","6204671","angelk-osorio@hotmail.com","Registro por la ESP","MARIA ANGELICA OSORIO DURAN","ORGANIZACION AUTORIZADA","MAYOR O IGUAL A 5001 USUARIOS"
"SANTANDER","CIMITARRA","ACUEDUCTO","OPERATIVA","AGUAS DE CIMITARRA S.A.S E.S.P","SANTANDER","CIMITARRA","CRA 4 #6-41","6260942","aguasdecimitarraesp@gmail.com","Registro por la ESP","CESAR AUGUSTO OVALLE ARIZA","SOCIEDADES (EMPRESA DE SERVICIOS PUBLICOS)","DESDE 2501 HASTA 5000 USUARIOS"
"SANTANDER","CIMITARRA","ALCANTARILLADO","OPERATIVA","AGUAS DE CIMITARRA S.A.S E.S.P","SANTANDER","CIMITARRA","CRA 4 #6-41","6260942","aguasdecimitarraesp@gmail.com","Registro por la ESP","CESAR AUGUSTO OVALLE ARIZA","SOCIEDADES (EMPRESA DE SERVICIOS PUBLICOS)","DESDE 2501 HASTA 5000 USUARIOS"
"SANTANDER","CIMITARRA","ASEO","OPERATIVA","AGUAS DE CIMITARRA S.A.S E.S.P","SANTANDER","CIMITARRA","CRA 4 #6-41","6260942","aguasdecimitarraesp@gmail.com","Registro por la ESP","CESAR AUGUSTO OVALLE ARIZA","SOCIEDADES (EMPRESA DE SERVICIOS PUBLICOS)","DESDE 2501 HASTA 5000 USUARIOS"
"SANTANDER","MACARAVITA","ACUEDUCTO","OPERATIVA","asociación de usuarios del servicio de acueducto de la vereda la bricha municipio de Macaravita","SANTANDER","MACARAVITA","vereda la bricha finca las lajitas","7615761","miglizarazo@uan.edu.co","Registro por la ESP","MILCIADES SALVADOR ESTEBAN","ORGANIZACION AUTORIZADA","MENOR O IGUAL A 2500 USUARIOS"
"SANTANDER","MACARAVITA","ACUEDUCTO","OPERATIVA","asociación de usuarios del servicio publico de acueducto de la vereda el juncal municipio de Macaravita","SANTANDER","MACARAVITA","5679384","7615761","miglizarazo@uan.edu.co","Registro por la ESP","ROBINSON  CHAPARRO  ACUNA","ORGANIZACION AUTORIZADA","MENOR O IGUAL A 2500 USUARIOS"
"SANTANDER","MACARAVITA","ACUEDUCTO","OPERATIVA","asociación de usuarios del servicio de acueducto de la vereda pajarito parte alta municipio de Macaravita","SANTANDER","MACARAVITA","vereda pajarito parte alta fincal la esperanza","7615761","miglizarazo@uan.edu.co","Registro por la ESP","JULIO ESTEBAN","ORGANIZACION AUTORIZADA","MENOR O IGUAL A 2500 USUARIOS"
"SANTANDER","MACARAVITA","ACUEDUCTO","OPERATIVA","asociación de usuarios del servicio de acueducto Donaldo Ortiz sierra del municipio de Macaravita","SANTANDER","MACARAVITA","vereda buraga finca plan de burras","7615761","miglizarazo@uan.edu.co","Registro por la ESP","GERMAN ORTIZ REYES","ORGANIZACION AUTORIZADA","MENOR O IGUAL A 2500 USUARIOS"
"SANTANDER","PINCHOTE","ASEO","OPERATIVA","EMPRESA DE SERVICIOS PÚBLICOS BIOTERRA S.A.S.","SANTANDER","PINCHOTE","CARRETERA 45A - VÍA PINCHOTE- SOCORRO PREDIO VILLA JUANA","3102886","BIOTERRAESP@GMAIL.COM","Registro por la ESP","DIKERSON ANDRES CALDERON RUEDA","SOCIEDADES (EMPRESA DE SERVICIOS PUBLICOS)","MENOR O IGUAL A 2500 USUARIOS"
"SANTANDER","EL PLAYON","ASEO","OPERATIVA","TRADE CENTRAL SAS ESP","SANTANDER","EL PLAYON","CALLE 4 N 6 - 71 BARRIO LOS NARANJOS","7242802","TRADECENTRALSASESP@GMAIL.COM","Registro por la ESP","ERIKA SILVANA MOLINA ARENAS","SOCIEDADES (EMPRESA DE SERVICIOS PUBLICOS)","MENOR O IGUAL A 2500 USUARIOS"
"SANTANDER","SOCORRO","ASEO","OPERATIVA","ASOCIACION DE RECICLADORES DEL MUNICIPIO DEL SOCORRO","SANTANDER","SOCORRO","Calle 21 No. 8-41","0000000","asorepro.comunera@gmail.com","Registro por la ESP","NICOLAS ROMERO MATEUS","ORGANIZACION AUTORIZADA","MAYOR O IGUAL A 5001 USUARIOS"
"SANTANDER","BUCARAMANGA","ASEO","OPERATIVA","COOPERATIVA DE SERVICIO DE RECICLAJE","SANTANDER","GIRON","MANZANA C CASA 36 PISO 2","0000000","gerencia.copserec@gmail.com","Registro por la ESP","JOSE LUIS BADILLO ALVARADO","ORGANIZACION AUTORIZADA","MENOR O IGUAL A 2500 USUARIOS"
"SANTANDER","GIRON","ASEO","OPERATIVA","COOPERATIVA DE SERVICIO DE RECICLAJE","SANTANDER","GIRON","MANZANA C CASA 36 PISO 2","0000000","gerencia.copserec@gmail.com","Registro por la ESP","JOSE LUIS BADILLO ALVARADO","ORGANIZACION AUTORIZADA","MENOR O IGUAL A 2500 USUARIOS"
"SANTANDER","BUCARAMANGA","ASEO","OPERATIVA","CORPORACIÓN SOLIDARIA NACIONAL PARA EL APROVECHAMIENTO DE RESIDUOS Y ENERGÍAS RENOVABLES","SANTANDER","BUCARAMANGA","CRA 18 # 46 - 20 APT 1704","6037480","reciclamasesp@gmail.com","Registro por la ESP","MIGUEL EDUARDO SOTO AYALA","ORGANIZACION AUTORIZADA","MAYOR O IGUAL A 5001 USUARIOS"
"SANTANDER","FLORIDABLANCA","ASEO","OPERATIVA","CORPORACIÓN SOLIDARIA NACIONAL PARA EL APROVECHAMIENTO DE RESIDUOS Y ENERGÍAS RENOVABLES","SANTANDER","BUCARAMANGA","CRA 18 # 46 - 20 APT 1704","6037480","reciclamasesp@gmail.com","Registro por la ESP","MIGUEL EDUARDO SOTO AYALA","ORGANIZACION AUTORIZADA","MAYOR O IGUAL A 5001 USUARIOS"
"SANTANDER","GIRON","ASEO","OPERATIVA","CORPORACIÓN SOLIDARIA NACIONAL PARA EL APROVECHAMIENTO DE RESIDUOS Y ENERGÍAS RENOVABLES","SANTANDER","BUCARAMANGA","CRA 18 # 46 - 20 APT 1704","6037480","reciclamasesp@gmail.com","Registro por la ESP","MIGUEL EDUARDO SOTO AYALA","ORGANIZACION AUTORIZADA","MAYOR O IGUAL A 5001 USUARIOS"
"SANTANDER","PIEDECUESTA","ASEO","OPERATIVA","CORPORACIÓN SOLIDARIA NACIONAL PARA EL APROVECHAMIENTO DE RESIDUOS Y ENERGÍAS RENOVABLES","SANTANDER","BUCARAMANGA","CRA 18 # 46 - 20 APT 1704","6037480","reciclamasesp@gmail.com","Registro por la ESP","MIGUEL EDUARDO SOTO AYALA","ORGANIZACION AUTORIZADA","MAYOR O IGUAL A 5001 USUARIOS"
"SANTANDER","BARRANCABERMEJA","ASEO","OPERATIVA","CORPORACIÓN PARA LA RESTAURACIÓN DEL MEDIO AMBIENTE Y EL LIDERAZGO AMBIENTAL","SANTANDER","BARRANCABERMEJA","CALLE 52 No 34 b-11","6019343","liderazgoambientalesp@gmail.com","Registro por la ESP","LUIS ANDERSON REYES HERNANDEZ","ORGANIZACION AUTORIZADA","MAYOR O IGUAL A 5001 USUARIOS"
"SANTANDER","SABANA DE TORRES","ASEO","OPERATIVA","CORPORACION COLOMBIA SI RECICLA","SANTANDER","SABANA DE TORRES","CARRERA 16 N 17-35","6293571","CSIRECICLA@GMAIL.COM","Registro por la ESP","MAUREN YALITZA ANGARITA FLOREZ","ORGANIZACION AUTORIZADA","DESDE 2501 HASTA 5000 USUARIOS"
"SANTANDER","BARRANCABERMEJA","ASEO","OPERATIVA","ASOCIACIÓN DE GESTORES AMBIENTALES UNIDOS POR COLOMBIA","SANTANDER","BARRANCABERMEJA","Clle 47 No 12C-71","6025455","asogecolgerencia@gmail.com","Registro por la ESP","DORIS HELENA PINILLA VASQUEZ","ORGANIZACION AUTORIZADA","MAYOR O IGUAL A 5001 USUARIOS"
"SANTANDER","BARRANCABERMEJA","ASEO","OPERATIVA","ASOCIACION DE RECICLADORES TRIPLE R ESP","SANTANDER","BARRANCABERMEJA","Calle 72B No. 36-36","6113349","tripleresp@gmail.com","Registro por la ESP","JHON JAIRO CORREA PACHECO","ORGANIZACION AUTORIZADA","MAYOR O IGUAL A 5001 USUARIOS"
"SANTANDER","SAN VICENTE DE CHUCURI","ASEO","OPERATIVA","FUNDACION DE ARTESANOS DE LA SERRANIA DE LOS YARIGUIES","SANTANDER","SAN VICENTE DE CHUCURI","CALLE 12 10 53","6254206","FUNDACIONDEARTESANOS@HOTMAIL.COM","Registro por la ESP","ROSA MARIA MUNIZ GOMEZ","ORGANIZACION AUTORIZADA","DESDE 2501 HASTA 5000 USUARIOS"
"SANTANDER","SIMACOTA","ACUEDUCTO","OPERATIVA","CORPORACION DE SERVICIO DE ACUEDUCTO DE LAS VEREDAS LLANITA Y LLANOGRANDE DEL MUNICIPIO DE SIMACOTA","SANTANDER","SIMACOTA","VEREDAS LLANITA Y LLANOGRANDE","7273010","frezuli@gmail.com","Registro por la ESP","LUISA LILIANA CALA SANCHEZ","ORGANIZACION AUTORIZADA","MENOR O IGUAL A 2500 USUARIOS"
"SANTANDER","BUCARAMANGA","ASEO","OPERATIVA","FUNDACION RECICLADORES UNIDAD Y SOSTENIBILIDAD","SANTANDER","BUCARAMANGA","carrera 17B 49-23","6427487","reuso.recicladores@outlook.com","Registro por la ESP","JOSE DEL CARMEN MORALES GARCES","ORGANIZACION AUTORIZADA","MAYOR O IGUAL A 5001 USUARIOS"
"SANTANDER","BARBOSA","ASEO","OPERATIVA","COLOMBIANA ORIENTAL DE AMBIENTE SAS ESP","SANTANDER","BUCARAMANGA","CALLE 28 # 2 - 93 BARRIO GIRARDOT","6373271","coloriadmon@gmail.com","Registro por la ESP","KAREN LORAINE ORTIZ CASTRO","SOCIEDADES (EMPRESA DE SERVICIOS PUBLICOS)","MENOR O IGUAL A 2500 USUARIOS"
"SANTANDER","BUCARAMANGA","ASEO","OPERATIVA","COLOMBIANA ORIENTAL DE AMBIENTE SAS ESP","SANTANDER","BUCARAMANGA","CALLE 28 # 2 - 93 BARRIO GIRARDOT","6373271","coloriadmon@gmail.com","Registro por la ESP","KAREN LORAINE ORTIZ CASTRO","SOCIEDADES (EMPRESA DE SERVICIOS PUBLICOS)","MENOR O IGUAL A 2500 USUARIOS"
"SANTANDER","FLORIDABLANCA","ASEO","OPERATIVA","COLOMBIANA ORIENTAL DE AMBIENTE SAS ESP","SANTANDER","BUCARAMANGA","CALLE 28 # 2 - 93 BARRIO GIRARDOT","6373271","coloriadmon@gmail.com","Registro por la ESP","KAREN LORAINE ORTIZ CASTRO","SOCIEDADES (EMPRESA DE SERVICIOS PUBLICOS)","MENOR O IGUAL A 2500 USUARIOS"
"SANTANDER","GIRON","ASEO","OPERATIVA","COLOMBIANA ORIENTAL DE AMBIENTE SAS ESP","SANTANDER","BUCARAMANGA","CALLE 28 # 2 - 93 BARRIO GIRARDOT","6373271","coloriadmon@gmail.com","Registro por la ESP","KAREN LORAINE ORTIZ CASTRO","SOCIEDADES (EMPRESA DE SERVICIOS PUBLICOS)","MENOR O IGUAL A 2500 USUARIOS"
"SANTANDER","LEBRIJA","ASEO","OPERATIVA","COLOMBIANA ORIENTAL DE AMBIENTE SAS ESP","SANTANDER","BUCARAMANGA","CALLE 28 # 2 - 93 BARRIO GIRARDOT","6373271","coloriadmon@gmail.com","Registro por la ESP","KAREN LORAINE ORTIZ CASTRO","SOCIEDADES (EMPRESA DE SERVICIOS PUBLICOS)","MENOR O IGUAL A 2500 USUARIOS"
"SANTANDER","PIEDECUESTA","ASEO","OPERATIVA","COLOMBIANA ORIENTAL DE AMBIENTE SAS ESP","SANTANDER","BUCARAMANGA","CALLE 28 # 2 - 93 BARRIO GIRARDOT","6373271","coloriadmon@gmail.com","Registro por la ESP","KAREN LORAINE ORTIZ CASTRO","SOCIEDADES (EMPRESA DE SERVICIOS PUBLICOS)","MENOR O IGUAL A 2500 USUARIOS"
"SANTANDER","SAN GIL","ASEO","OPERATIVA","COLOMBIANA ORIENTAL DE AMBIENTE SAS ESP","SANTANDER","BUCARAMANGA","CALLE 28 # 2 - 93 BARRIO GIRARDOT","6373271","coloriadmon@gmail.com","Registro por la ESP","KAREN LORAINE ORTIZ CASTRO","SOCIEDADES (EMPRESA DE SERVICIOS PUBLICOS)","MENOR O IGUAL A 2500 USUARIOS"
"SANTANDER","SOCORRO","ASEO","OPERATIVA","COLOMBIANA ORIENTAL DE AMBIENTE SAS ESP","SANTANDER","BUCARAMANGA","CALLE 28 # 2 - 93 BARRIO GIRARDOT","6373271","coloriadmon@gmail.com","Registro por la ESP","KAREN LORAINE ORTIZ CASTRO","SOCIEDADES (EMPRESA DE SERVICIOS PUBLICOS)","MENOR O IGUAL A 2500 USUARIOS"
"SANTANDER","BUCARAMANGA","ASEO","OPERATIVA","MUNDO RENACIENTE SAS","SANTANDER","BUCARAMANGA","CARRERA 21 # 10-41","6813283","aprovechamiento.mrenaciente@gmail.com","Registro por la ESP","GLADYS HERRERA DE PEREZ","SOCIEDADES (EMPRESA DE SERVICIOS PUBLICOS)","DESDE 2501 HASTA 5000 USUARIOS"
