"departamento_prestacion","municipio_prestacion","servicio","estado","nombre","departamento_domicilio","municipio_domicilio","direccion","telefono","email","representante_legal","tipo_prestador","clasificacion"
"CAUCA","ALMAGUER","ASEO","OPERATIVA","URBASER POPAYAN S.A. E.S.P.","CAUCA","POPAYAN","CARRERA 4 No 2 - 23","8206217","Luz.galvis@urbaser.co","RODRIGO VELASCO MOSQUERA","SOCIEDADES (EMPRESA DE SERVICIOS PUBLICOS)","MAYOR O IGUAL A 5001 USUARIOS"
"CAUCA","ALMAGUER","ASEO","OPERATIVA","ADMINISTRACION PUBLICA COOPERATIVA DE AGUA POTABLE Y SANEAMIENTO BASICO DE ALMAGUER CAUCA","CAUCA","ALMAGUER","Calle  3 # 4  - 31","8267750","apcalmaguer@gmail.com","ALBA YAQUELINE NARVAEZ ALVAREZ","ORGANIZACION AUTORIZADA","MENOR O IGUAL A 2500 USUARIOS"
"CAUCA","ALMAGUER","ALCANTARILLADO","OPERATIVA","ADMINISTRACION PUBLICA COOPERATIVA DE AGUA POTABLE Y SANEAMIENTO BASICO DE ALMAGUER CAUCA","CAUCA","ALMAGUER","Calle  3 # 4  - 31","8267750","apcalmaguer@gmail.com","ALBA YAQUELINE NARVAEZ ALVAREZ","ORGANIZACION AUTORIZADA","MENOR O IGUAL A 2500 USUARIOS"
"CAUCA","ALMAGUER","ALCANTARILLADO","OPERATIVA","MUNICIPIO DE ALMAGUER","CAUCA","ALMAGUER","CENTRO ADMINISTRATIVO MUNICIPAL","8267750","fabianhurtadogomes@yahoo.es","MILTON FABIAN HURTADO GOMEZ","MUNICIPIO (PRESTACIÓN DIRECTA)","HASTA 2500 SUSCRIPTORES"
"CAUCA","ALMAGUER","ASEO","OPERATIVA","MUNICIPIO DE ALMAGUER","CAUCA","ALMAGUER","CENTRO ADMINISTRATIVO MUNICIPAL","8267750","fabianhurtadogomes@yahoo.es","MILTON FABIAN HURTADO GOMEZ","MUNICIPIO (PRESTACIÓN DIRECTA)","HASTA 2500 SUSCRIPTORES"
"CAUCA","ALMAGUER","ACUEDUCTO","OPERATIVA","ADMINISTRACION PUBLICA COOPERATIVA DE AGUA POTABLE Y SANEAMIENTO BASICO DE ALMAGUER CAUCA","CAUCA","ALMAGUER","Calle  3 # 4  - 31","8267750","apcalmaguer@gmail.com","ALBA YAQUELINE NARVAEZ ALVAREZ","ORGANIZACION AUTORIZADA","MENOR O IGUAL A 2500 USUARIOS"
"CAUCA","ALMAGUER","ACUEDUCTO","OPERATIVA","MUNICIPIO DE ALMAGUER","CAUCA","ALMAGUER","CENTRO ADMINISTRATIVO MUNICIPAL","8267750","fabianhurtadogomes@yahoo.es","MILTON FABIAN HURTADO GOMEZ","MUNICIPIO (PRESTACIÓN DIRECTA)","HASTA 2500 SUSCRIPTORES"
"CAUCA","ARGELIA","ALCANTARILLADO","OPERATIVA","ADMINISTRACION PUBLICA COOPERATIVA DEL ACUEDUCTO  ALCANTARILLADO Y ASEO DE ARGELIA CAUCA","CAUCA","ARGELIA","CRA 1 N°1 BIS - 36","6958795","jimenaforest@gmail.com","CLAUDIA LILIANA RUIZ HOYOS","ORGANIZACION AUTORIZADA","MENOR O IGUAL A 2500 USUARIOS"
"CAUCA","ARGELIA","ACUEDUCTO","OPERATIVA","ADMINISTRACION PUBLICA COOPERATIVA DEL ACUEDUCTO  ALCANTARILLADO Y ASEO DE ARGELIA CAUCA","CAUCA","ARGELIA","CRA 1 N°1 BIS - 36","6958795","jimenaforest@gmail.com","CLAUDIA LILIANA RUIZ HOYOS","ORGANIZACION AUTORIZADA","MENOR O IGUAL A 2500 USUARIOS"
"CAUCA","ARGELIA","ASEO","OPERATIVA","ADMINISTRACION PUBLICA COOPERATIVA DEL ACUEDUCTO  ALCANTARILLADO Y ASEO DE ARGELIA CAUCA","CAUCA","ARGELIA","CRA 1 N°1 BIS - 36","6958795","jimenaforest@gmail.com","CLAUDIA LILIANA RUIZ HOYOS","ORGANIZACION AUTORIZADA","MENOR O IGUAL A 2500 USUARIOS"
"CAUCA","BALBOA","ASEO","OPERATIVA","MUNICIPIO BALBOA CAUCA","CAUCA","BALBOA","carrera 3 Nº 5-08 Palacio Municipal","8265212","espatia@hotmail.com","AMARILDO CORREA OBANDO","MUNICIPIO (PRESTACIÓN DIRECTA)","HASTA 2500 SUSCRIPTORES"
"CAUCA","BALBOA","ASEO","OPERATIVA","COOPERATIVA  ACUEDUCTO Y ALCANTARILLADO DE BALBOA","CAUCA","BALBOA","carrera 2 No.5-11","8265069","caabesp1@hotmail.com","EDUARDO ZUÑIGA AGREDO","ORGANIZACION AUTORIZADA","HASTA 2500 SUSCRIPTORES"
"CAUCA","BALBOA","ALCANTARILLADO","OPERATIVA","COOPERATIVA  ACUEDUCTO Y ALCANTARILLADO DE BALBOA","CAUCA","BALBOA","carrera 2 No.5-11","8265069","caabesp1@hotmail.com","EDUARDO ZUÑIGA AGREDO","ORGANIZACION AUTORIZADA","HASTA 2500 SUSCRIPTORES"
"CAUCA","BALBOA","ACUEDUCTO","OPERATIVA","COOPERATIVA  ACUEDUCTO Y ALCANTARILLADO DE BALBOA","CAUCA","BALBOA","carrera 2 No.5-11","8265069","caabesp1@hotmail.com","EDUARDO ZUÑIGA AGREDO","ORGANIZACION AUTORIZADA","HASTA 2500 SUSCRIPTORES"
"CAUCA","BALBOA","ASEO","OPERATIVA","EMPRESA METROPOLITANA DE ASEO DE PASTO S.A.  E.S.P.","NARINO","PASTO","CARRERA 24 #23-51","7362874","sonia-elizabeth.criollo@veolia.com","ANGELA MARCELA PAZ ROMERO","SOCIEDADES (EMPRESA DE SERVICIOS PUBLICOS)","MAYOR O IGUAL A 5001 USUARIOS"
"CAUCA","BOLIVAR","ASEO","OPERATIVA","ENTIDAD DESCENTRALIZADA TERRITORIAL MIXTA EMBOLIVAR SA ESP","CAUCA","BOLIVAR","CARRERA 3 NO 6-04","8272548","embolivar@gmail.com","CRISTOBAL  DORADO  ZUNIGA","SOCIEDADES (EMPRESA DE SERVICIOS PUBLICOS)","MENOR O IGUAL A 2500 USUARIOS"
"CAUCA","BOLIVAR","ALCANTARILLADO","OPERATIVA","ENTIDAD DESCENTRALIZADA TERRITORIAL MIXTA EMBOLIVAR SA ESP","CAUCA","BOLIVAR","CARRERA 3 NO 6-04","8272548","embolivar@gmail.com","CRISTOBAL  DORADO  ZUNIGA","SOCIEDADES (EMPRESA DE SERVICIOS PUBLICOS)","MENOR O IGUAL A 2500 USUARIOS"
"CAUCA","BOLIVAR","ACUEDUCTO","OPERATIVA","ENTIDAD DESCENTRALIZADA TERRITORIAL MIXTA EMBOLIVAR SA ESP","CAUCA","BOLIVAR","CARRERA 3 NO 6-04","8272548","embolivar@gmail.com","CRISTOBAL  DORADO  ZUNIGA","SOCIEDADES (EMPRESA DE SERVICIOS PUBLICOS)","MENOR O IGUAL A 2500 USUARIOS"
"CAUCA","BUENOS AIRES","ACUEDUCTO","OPERATIVA","ASOCIACIÓN DE USUARIOS DE ACUEDUCTO, ALCANTARILLADO Y ASEO DE BUENOS AIRES BRISAS DEL CERRO","CAUCA","BUENOS AIRES","BUENOS AIRES CABECERA MUNICIPAL","8466562","asociacionusuariosbuenosaires@gmail.com","CESAR EDUARDO MUNOZ  SANDOVAL","ORGANIZACION AUTORIZADA","MENOR O IGUAL A 2500 USUARIOS"
"CAUCA","BUENOS AIRES","ACUEDUCTO","OPERATIVA","ASOCIACION DE USUARIOS DEL ACUEDUCTO INTERVEREDAL PALOBLANCO Y NUEVE VEREDAS","CAUCA","BUENOS AIRES","CALLE PRINCIPAL CASA DE JUSTICIA","8466709","contactenos@buenosaires-cauca.gov.co","JOSE EVELIO CARABALI","ORGANIZACION AUTORIZADA","HASTA 2500 SUSCRIPTORES"
"CAUCA","BUENOS AIRES","ACUEDUCTO","OPERATIVA","ASOCIACION DE USUARIOS DEL ACUEDUCTO DE TIMBA CAUCA","CAUCA","BUENOS AIRES","CALLE PRINCIPAL CASA DE JUSTICIA","8466709","contactenos@buenosaires-cauca.gov.co","FANOR LUCUMI","ORGANIZACION AUTORIZADA","HASTA 2500 SUSCRIPTORES"
"CAUCA","BUENOS AIRES","ASEO","OPERATIVA","INTERASEO DEL VALLE S.A.S. E.S.P.",,,,,,"JUAN MANUEL GOMEZ MEJIA","SOCIEDADES (EMPRESA DE SERVICIOS PUBLICOS)","MAYOR O IGUAL A 5001 USUARIOS"
"CAUCA","BUENOS AIRES","ASEO","OPERATIVA","URBASER POPAYAN S.A. E.S.P.","CAUCA","POPAYAN","CARRERA 4 No 2 - 23","8206217","Luz.galvis@urbaser.co","RODRIGO VELASCO MOSQUERA","SOCIEDADES (EMPRESA DE SERVICIOS PUBLICOS)","MAYOR O IGUAL A 5001 USUARIOS"
"CAUCA","BUENOS AIRES","ASEO","OPERATIVA","MUNICIPIO DE BUENOS AIRES CAUCA","CAUCA","BUENOS AIRES","CENTRO ADMINISTRATIVO MUNICIPAL BARRIO CENTRAL","8466709","despacho@buenosaires-cauca.gov.co","OSCAR EDUIN  LOPEZ  SANCHEZ","MUNICIPIO (PRESTACIÓN DIRECTA)","MENOR O IGUAL A 2500 USUARIOS"
"CAUCA","BUENOS AIRES","ALCANTARILLADO","OPERATIVA","ASOCIACIÓN DE USUARIOS DE ACUEDUCTO, ALCANTARILLADO Y ASEO DE BUENOS AIRES BRISAS DEL CERRO","CAUCA","BUENOS AIRES","BUENOS AIRES CABECERA MUNICIPAL","8466562","asociacionusuariosbuenosaires@gmail.com","CESAR EDUARDO MUNOZ  SANDOVAL","ORGANIZACION AUTORIZADA","MENOR O IGUAL A 2500 USUARIOS"
"CAUCA","CAJIBIO","ASEO","OPERATIVA","ADMINISTRACION PUBLICA COOPERATIVA DE CAJIBIO","CAUCA","CAJIBIO","CALLE 5 No 2-41","8490109","apccajibio@gmail.com","CARLOS MARIO LOPEZ RODRIGUEZ","ORGANIZACION AUTORIZADA","MENOR O IGUAL A 2500 USUARIOS"
"CAUCA","CAJIBIO","ASEO","OPERATIVA","URBASER POPAYAN S.A. E.S.P.","CAUCA","POPAYAN","CARRERA 4 No 2 - 23","8206217","Luz.galvis@urbaser.co","RODRIGO VELASCO MOSQUERA","SOCIEDADES (EMPRESA DE SERVICIOS PUBLICOS)","MAYOR O IGUAL A 5001 USUARIOS"
"CAUCA","CAJIBIO","ACUEDUCTO","OPERATIVA","OFICINA DE  ACUEDUCTO, ALCANTARILLADO Y ASEO DEL MUNICIPIO DE CAJIBIO CAUCA","CAUCA","CAJIBIO","CALLE 5 No 1-34/38","8490109","tesoreriacajibio@yahoo.es","JUAN MANUEL JARAMILLO HURTADO","MUNICIPIO (PRESTACIÓN DIRECTA)","HASTA 2500 SUSCRIPTORES"
"CAUCA","CAJIBIO","ALCANTARILLADO","OPERATIVA","OFICINA DE  ACUEDUCTO, ALCANTARILLADO Y ASEO DEL MUNICIPIO DE CAJIBIO CAUCA","CAUCA","CAJIBIO","CALLE 5 No 1-34/38","8490109","tesoreriacajibio@yahoo.es","JUAN MANUEL JARAMILLO HURTADO","MUNICIPIO (PRESTACIÓN DIRECTA)","HASTA 2500 SUSCRIPTORES"
"CAUCA","CAJIBIO","ASEO","OPERATIVA","OFICINA DE  ACUEDUCTO, ALCANTARILLADO Y ASEO DEL MUNICIPIO DE CAJIBIO CAUCA","CAUCA","CAJIBIO","CALLE 5 No 1-34/38","8490109","tesoreriacajibio@yahoo.es","JUAN MANUEL JARAMILLO HURTADO","MUNICIPIO (PRESTACIÓN DIRECTA)","HASTA 2500 SUSCRIPTORES"
"CAUCA","CAJIBIO","ALCANTARILLADO","OPERATIVA","ADMINISTRACION PUBLICA COOPERATIVA DE CAJIBIO","CAUCA","CAJIBIO","CALLE 5 No 2-41","8490109","apccajibio@gmail.com","CARLOS MARIO LOPEZ RODRIGUEZ","ORGANIZACION AUTORIZADA","MENOR O IGUAL A 2500 USUARIOS"
"CAUCA","CAJIBIO","ACUEDUCTO","OPERATIVA","ADMINISTRACION PUBLICA COOPERATIVA DE CAJIBIO","CAUCA","CAJIBIO","CALLE 5 No 2-41","8490109","apccajibio@gmail.com","CARLOS MARIO LOPEZ RODRIGUEZ","ORGANIZACION AUTORIZADA","MENOR O IGUAL A 2500 USUARIOS"
"CAUCA","CAJIBIO","ACUEDUCTO","OPERATIVA","ASOCIACION ACUEDUCTO  LA VENTA EL COFRE","CAUCA","CAJIBIO","CORREGIMIENTO  LA VENTA DE CAJIBIO","8238419","aguasdelcofre@gmail.com","GERMAN MARTINEZ  SANCHEZ","ORGANIZACION AUTORIZADA","MENOR O IGUAL A 2500 USUARIOS"
"CAUCA","CALDONO","ASEO","OPERATIVA","ASOCIACION AGUAS DE CALDONO","CAUCA","CALDONO","EDIFICIO CONCEJO FRENTE AL PARQUE PRINCIPAL","8473501","aguascaldonoaso@gmail.com","FARID ANTONIO JULICUE CORPUS","ORGANIZACION AUTORIZADA","HASTA 2500 SUSCRIPTORES"
"CAUCA","CALDONO","ALCANTARILLADO","OPERATIVA","ASOCIACION AGUAS DE CALDONO","CAUCA","CALDONO","EDIFICIO CONCEJO FRENTE AL PARQUE PRINCIPAL","8473501","aguascaldonoaso@gmail.com","FARID ANTONIO JULICUE CORPUS","ORGANIZACION AUTORIZADA","HASTA 2500 SUSCRIPTORES"
"CAUCA","CALDONO","ACUEDUCTO","OPERATIVA","ASOCIACION DE USUARIOS DEL ACUEDUCTO PICACHO CERRO ALTO MUNICIPIO DE CALDONO","CAUCA","CALDONO","CERRO ALTO MUNICIPIO DE CALDONO","8473484","alfer1504@gmail.com","ALVARO AUGUSTO FERNANDEZ RIOS","ORGANIZACION AUTORIZADA","HASTA 2500 SUSCRIPTORES"
"CAUCA","CALDONO","ACUEDUCTO","OPERATIVA","MUNICIPIO DE CALDONO","CAUCA","CALDONO","EDIFICIO CAM FRENTE AL PARQUE PRINCIPAL","8473484","uspcaldono@gmail.com","JOSE VICENTE  OTERO CHATE","MUNICIPIO (PRESTACIÓN DIRECTA)","MENOR O IGUAL A 2500 USUARIOS"
"CAUCA","CALDONO","ASEO","OPERATIVA","MUNICIPIO DE CALDONO","CAUCA","CALDONO","EDIFICIO CAM FRENTE AL PARQUE PRINCIPAL","8473484","uspcaldono@gmail.com","JOSE VICENTE  OTERO CHATE","MUNICIPIO (PRESTACIÓN DIRECTA)","MENOR O IGUAL A 2500 USUARIOS"
"CAUCA","CALDONO","ACUEDUCTO","OPERATIVA","ASOCIACION AGUAS DE CALDONO","CAUCA","CALDONO","EDIFICIO CONCEJO FRENTE AL PARQUE PRINCIPAL","8473501","aguascaldonoaso@gmail.com","FARID ANTONIO JULICUE CORPUS","ORGANIZACION AUTORIZADA","HASTA 2500 SUSCRIPTORES"
"CAUCA","CALDONO","ASEO","OPERATIVA","URBASER POPAYAN S.A. E.S.P.","CAUCA","POPAYAN","CARRERA 4 No 2 - 23","8206217","Luz.galvis@urbaser.co","RODRIGO VELASCO MOSQUERA","SOCIEDADES (EMPRESA DE SERVICIOS PUBLICOS)","MAYOR O IGUAL A 5001 USUARIOS"
"CAUCA","CALDONO","ALCANTARILLADO","OPERATIVA","MUNICIPIO DE CALDONO","CAUCA","CALDONO","EDIFICIO CAM FRENTE AL PARQUE PRINCIPAL","8473484","uspcaldono@gmail.com","JOSE VICENTE  OTERO CHATE","MUNICIPIO (PRESTACIÓN DIRECTA)","MENOR O IGUAL A 2500 USUARIOS"
"CAUCA","CALOTO","ACUEDUCTO","EN PROCESO DE LIQUIDACION","EMPRESA DE ACUEDUCTO Y ALCANTARILLADO DEL RIO PALO SOCIEDAD POR ACCIONES E.S.P. EN LIQUIDACION","CAUCA","VILLA RICA","CALLE 2 1 139","8486421","miltonvel@hotmail.com","MARIA DEL PILAR VILLEGAS MULATO","SOCIEDADES (EMPRESA DE SERVICIOS PUBLICOS)","MAYOR O IGUAL A 5001 USUARIOS"
"CAUCA","CALOTO","ACUEDUCTO","OPERATIVA","Asociacion de Usuarios del Acueducto Inter-Veredal El Alba,Marañon,Caicedo, San Nicolas y Santa Rosa","CAUCA","CALOTO","kl 1 salida via santander quilichao vereda santa rosa","3174716","asoalma1@gmail.com","BLANCA FLOR MERA AMBUILA","ORGANIZACION AUTORIZADA","MENOR O IGUAL A 2500 USUARIOS"
"CAUCA","CALOTO","ACUEDUCTO","OPERATIVA","ASOCIACION DE USUARIOS DEL ACUEDUCTO INTERVEREDAL CRUCERO DE GUALI","CAUCA","CALOTO","VEREDA GUALI","8258284","acueductoguali@gmail.com","LUIS EMILCE CHARA","ORGANIZACION AUTORIZADA","MENOR O IGUAL A 2500 USUARIOS"
"CAUCA","CALOTO","ACUEDUCTO","OPERATIVA","ACUAPAEZ S.A. E.S.P.","CAUCA","CALOTO","PARQUE INDUSTRIAL Y CCIAL DEL CAUCA ET 4 LOTE 14","8259375","jmena@acuapaez.com","LILIANA FABIOLA PARRA MARTINEZ","SOCIEDADES (EMPRESA DE SERVICIOS PUBLICOS)","MENOR O IGUAL A 2500 USUARIOS"
"CAUCA","CALOTO","ASEO","OPERATIVA","PRO-AMBIENTALES  S.A  E.S.P.","VALLE DEL CAUCA","CALI","Carrera 1 No. 51-60","4463506","pro_ambientales@pro-ambientales.com","JOSE IVAN BURGOS CASTILLO","SOCIEDADES (EMPRESA DE SERVICIOS PUBLICOS)","MENOR O IGUAL A 2500 USUARIOS"
"CAUCA","CALOTO","ALCANTARILLADO","OPERATIVA","ACUAPAEZ S.A. E.S.P.","CAUCA","CALOTO","PARQUE INDUSTRIAL Y CCIAL DEL CAUCA ET 4 LOTE 14","8259375","jmena@acuapaez.com","LILIANA FABIOLA PARRA MARTINEZ","SOCIEDADES (EMPRESA DE SERVICIOS PUBLICOS)","MENOR O IGUAL A 2500 USUARIOS"
"CAUCA","CALOTO","ASEO","OPERATIVA","MUNICIPIO DE CALOTO","CAUCA","CALOTO","calle 12# 4-67","8258336","alcaldia@caloto-cauca.gov.co","GONZALO EMILIO RAMIREZ VELASCO","MUNICIPIO (PRESTACIÓN DIRECTA)","MENOR O IGUAL A 2500 USUARIOS"
"CAUCA","CALOTO","ALCANTARILLADO","OPERATIVA","EMPRESA DE SERVICIOS PUBLICOS DE CALOTO","CAUCA","CALOTO","Calle 11 No. 5  60","8258284","empocaloto@yahoo.com","MARIA AMPARO  VERA CAICEDO","EMPRESA INDUSTRIAL Y COMERCIAL DEL ESTADO","MENOR O IGUAL A 2500 USUARIOS"
"CAUCA","CALOTO","ASEO","OPERATIVA","INTERASEO DEL VALLE S.A.S. E.S.P.",,,,,,"JUAN MANUEL GOMEZ MEJIA","SOCIEDADES (EMPRESA DE SERVICIOS PUBLICOS)","MAYOR O IGUAL A 5001 USUARIOS"
"CAUCA","CALOTO","ACUEDUCTO","OPERATIVA","EMPRESA DE SERVICIOS PUBLICOS DE CALOTO","CAUCA","CALOTO","Calle 11 No. 5  60","8258284","empocaloto@yahoo.com","MARIA AMPARO  VERA CAICEDO","EMPRESA INDUSTRIAL Y COMERCIAL DEL ESTADO","MENOR O IGUAL A 2500 USUARIOS"
"CAUCA","CORINTO","ALCANTARILLADO","OPERATIVA","EMPRESA DE ACUEDUCTO, ALCANTARILLADO Y ASEO DE CORINTO CAUCA","CAUCA","CORINTO","CARRERA 8 8 40","8270099","gerente@emcorintoesp.com.co","JOSE CAMILO POLANIA  FLOREZ","EMPRESA INDUSTRIAL Y COMERCIAL DEL ESTADO","DESDE 2501 HASTA 5000 USUARIOS"
"CAUCA","CORINTO","ASEO","OPERATIVA","EMPRESA DE ACUEDUCTO, ALCANTARILLADO Y ASEO DE CORINTO CAUCA","CAUCA","CORINTO","CARRERA 8 8 40","8270099","gerente@emcorintoesp.com.co","JOSE CAMILO POLANIA  FLOREZ","EMPRESA INDUSTRIAL Y COMERCIAL DEL ESTADO","DESDE 2501 HASTA 5000 USUARIOS"
"CAUCA","CORINTO","ACUEDUCTO","OPERATIVA","EMPRESA DE ACUEDUCTO, ALCANTARILLADO Y ASEO DE CORINTO CAUCA","CAUCA","CORINTO","CARRERA 8 8 40","8270099","gerente@emcorintoesp.com.co","JOSE CAMILO POLANIA  FLOREZ","EMPRESA INDUSTRIAL Y COMERCIAL DEL ESTADO","DESDE 2501 HASTA 5000 USUARIOS"
"CAUCA","CORINTO","ASEO","OPERATIVA","ASOCIACIÓN DE MUJERES RECUPERADORAS Y TRANSFORMADORAS DE RESIDUOS SÓLIDOS Y OTRAS FORMAS DE EMPRENDIMIENTO","CAUCA","CORINTO","CALL 3 6 04","8270099","BSOTOBUENO@HOTMAIL.COM","ROBERTO JAVIER YONDA CHATE","ORGANIZACION AUTORIZADA","MENOR O IGUAL A 2500 USUARIOS"
"CAUCA","EL TAMBO","ASEO","OPERATIVA","URBASER POPAYAN S.A. E.S.P.","CAUCA","POPAYAN","CARRERA 4 No 2 - 23","8206217","Luz.galvis@urbaser.co","RODRIGO VELASCO MOSQUERA","SOCIEDADES (EMPRESA DE SERVICIOS PUBLICOS)","MAYOR O IGUAL A 5001 USUARIOS"
"CAUCA","EL TAMBO","ACUEDUCTO","OPERATIVA","ASOCIACION REGIONAL DEL ACUEDUCTO SACHACOCO","CAUCA","TIMBIO","CARRERA 22 No. 19-31 BARRIO SAN JUDAS","8278538","sachacocotimbio@hotmail.com","JESUS MAURICIO RODRIGUEZ LOPEZ","ORGANIZACION AUTORIZADA","DESDE 2501 HASTA 5000 USUARIOS"
"CAUCA","EL TAMBO","ACUEDUCTO","OPERATIVA","COOPERATIVA DE SERVICIOS PUBLICOS PANDIGUANDO PIAGUA","CAUCA","EL TAMBO","CALLE 2  3-34","8276302","coopserp24@yahoo.com.co","REINEL IDROBO BECERRA","ORGANIZACION AUTORIZADA","MENOR O IGUAL A 2500 USUARIOS"
"CAUCA","EL TAMBO","ACUEDUCTO","OPERATIVA","ASOCIACION DE USUARIOS DEL ACUEDUCTO CHISQUIO MONTERREDONDO DE EL TAMBO CAUCA","CAUCA","EL TAMBO","carrera 9 numero 4-92","8276234","acueductochisquio@hotmail.com","RUBEN YANIBE GUTIERREZ GONZALEZ","ORGANIZACION AUTORIZADA","MENOR O IGUAL A 2500 USUARIOS"
"CAUCA","EL TAMBO","ACUEDUCTO","OPERATIVA","EMPRESA DE SEVICIOS PUBLICOS DE ACUEDUCTO, ALCANTARILLADO Y ASEO - EMTAMBO E.S.P.","CAUCA","EL TAMBO","Calle 3 No. 3 - 45 Barrio Las Flores","8276396","emtamboaaa@gmail.com","EINER LEANDRO VIVAS GARCIA","EMPRESA INDUSTRIAL Y COMERCIAL DEL ESTADO","MENOR O IGUAL A 2500 USUARIOS"
"CAUCA","EL TAMBO","ALCANTARILLADO","OPERATIVA","EMPRESA DE SEVICIOS PUBLICOS DE ACUEDUCTO, ALCANTARILLADO Y ASEO - EMTAMBO E.S.P.","CAUCA","EL TAMBO","Calle 3 No. 3 - 45 Barrio Las Flores","8276396","emtamboaaa@gmail.com","EINER LEANDRO VIVAS GARCIA","EMPRESA INDUSTRIAL Y COMERCIAL DEL ESTADO","MENOR O IGUAL A 2500 USUARIOS"
"CAUCA","EL TAMBO","ASEO","OPERATIVA","EMPRESA DE SEVICIOS PUBLICOS DE ACUEDUCTO, ALCANTARILLADO Y ASEO - EMTAMBO E.S.P.","CAUCA","EL TAMBO","Calle 3 No. 3 - 45 Barrio Las Flores","8276396","emtamboaaa@gmail.com","EINER LEANDRO VIVAS GARCIA","EMPRESA INDUSTRIAL Y COMERCIAL DEL ESTADO","MENOR O IGUAL A 2500 USUARIOS"
"CAUCA","EL TAMBO","ACUEDUCTO","OPERATIVA","COOPERATIVA DE ACUEDUCTO LOS CEDROS TAMBO","CAUCA","EL TAMBO","Calle 2 Nro 3-35 B/ LAS FLORES","8276377","coocedrost@gmail.com","GUILLERMO LEON MEJIA PEREZ","ORGANIZACION AUTORIZADA","HASTA 2500 SUSCRIPTORES"
"CAUCA","EL TAMBO","ACUEDUCTO","OPERATIVA","ASOCIACION DE USUARIOS DEL ACUEDUCTO GUELEITO ANAYES SEGUENGUE","CAUCA","EL TAMBO","Corregimiento Los Anayes Municipio de El Tambo Cauca","3173510","orcarlos_027@hotmail.com","PEDRONEL SANCHEZ ANTE","ORGANIZACION AUTORIZADA","MENOR O IGUAL A 2500 USUARIOS"
"CAUCA","FLORENCIA","ALCANTARILLADO","OPERATIVA","ADMINISTRACIÓN PÚBLICA COOPERATIVA DE LOS SERVICIOS DE ACUEDUCTO, ALCANTARILLADO Y ASEO DE FLORENCIA - CAUCA","CAUCA","FLORENCIA","CALLE 4 No. 3-16 BARRIO LA PLAZA","7264709","cooserflo@hotmail.com","LORENA ENI ERAZO FERNANDEZ","ORGANIZACION AUTORIZADA","HASTA 2500 SUSCRIPTORES"
"CAUCA","FLORENCIA","ASEO","OPERATIVA","ADMINISTRACIÓN PÚBLICA COOPERATIVA DE LOS SERVICIOS DE ACUEDUCTO, ALCANTARILLADO Y ASEO DE FLORENCIA - CAUCA","CAUCA","FLORENCIA","CALLE 4 No. 3-16 BARRIO LA PLAZA","7264709","cooserflo@hotmail.com","LORENA ENI ERAZO FERNANDEZ","ORGANIZACION AUTORIZADA","HASTA 2500 SUSCRIPTORES"
"CAUCA","FLORENCIA","ACUEDUCTO","OPERATIVA","ADMINISTRACIÓN PÚBLICA COOPERATIVA DE LOS SERVICIOS DE ACUEDUCTO, ALCANTARILLADO Y ASEO DE FLORENCIA - CAUCA","CAUCA","FLORENCIA","CALLE 4 No. 3-16 BARRIO LA PLAZA","7264709","cooserflo@hotmail.com","LORENA ENI ERAZO FERNANDEZ","ORGANIZACION AUTORIZADA","HASTA 2500 SUSCRIPTORES"
"CAUCA","FLORENCIA","ASEO","OPERATIVA","MUNICIPIO DE FLORENCIA CAUCA","CAUCA","FLORENCIA","carrera 4 No 3-34","8264694","jimmyadf@latinmail.com","JOSE MIGUEL PAZ  BALLESTEROS","MUNICIPIO (PRESTACIÓN DIRECTA)","HASTA 2500 SUSCRIPTORES"
"CAUCA","FLORENCIA","ASEO","OPERATIVA","EMPRESA METROPOLITANA DE ASEO DE PASTO S.A.  E.S.P.","NARINO","PASTO","CARRERA 24 #23-51","7362874","sonia-elizabeth.criollo@veolia.com","ANGELA MARCELA PAZ ROMERO","SOCIEDADES (EMPRESA DE SERVICIOS PUBLICOS)","MAYOR O IGUAL A 5001 USUARIOS"
"CAUCA","GUACHENE","ACUEDUCTO","EN PROCESO DE LIQUIDACION","EMPRESA DE ACUEDUCTO Y ALCANTARILLADO DEL RIO PALO SOCIEDAD POR ACCIONES E.S.P. EN LIQUIDACION","CAUCA","VILLA RICA","CALLE 2 1 139","8486421","miltonvel@hotmail.com","MARIA DEL PILAR VILLEGAS MULATO","SOCIEDADES (EMPRESA DE SERVICIOS PUBLICOS)","MAYOR O IGUAL A 5001 USUARIOS"
"CAUCA","GUACHENE","ASEO","OPERATIVA","MUNICIPIO DE GUACHENE","CAUCA","GUACHENE","Calle 4 No. 5 - 46 Jorge Eliecer Gaitan","8259101","serviciospublicos@guachene-cauca.gov.co","ELMER ABONIA RODRIGUEZ","MUNICIPIO (PRESTACIÓN DIRECTA)","MENOR O IGUAL A 2500 USUARIOS"
"CAUCA","GUACHENE","ASEO","OPERATIVA","INTERASEO DEL VALLE S.A.S. E.S.P.",,,,,,"JUAN MANUEL GOMEZ MEJIA","SOCIEDADES (EMPRESA DE SERVICIOS PUBLICOS)","MAYOR O IGUAL A 5001 USUARIOS"
"CAUCA","GUACHENE","ALCANTARILLADO","OPERATIVA","MUNICIPIO DE GUACHENE","CAUCA","GUACHENE","Calle 4 No. 5 - 46 Jorge Eliecer Gaitan","8259101","serviciospublicos@guachene-cauca.gov.co","ELMER ABONIA RODRIGUEZ","MUNICIPIO (PRESTACIÓN DIRECTA)","MENOR O IGUAL A 2500 USUARIOS"
"CAUCA","GUACHENE","ACUEDUCTO","OPERATIVA","ACUAPAEZ S.A. E.S.P.","CAUCA","CALOTO","PARQUE INDUSTRIAL Y CCIAL DEL CAUCA ET 4 LOTE 14","8259375","jmena@acuapaez.com","LILIANA FABIOLA PARRA MARTINEZ","SOCIEDADES (EMPRESA DE SERVICIOS PUBLICOS)","MENOR O IGUAL A 2500 USUARIOS"
"CAUCA","GUAPI","ACUEDUCTO","OPERATIVA","EMPRESA MUNICIPAL OFICIAL DE SERVICIOS PÚBLICOS DOMICILIARIOS DE ACUEDUCTO, ALCANTARILLADO Y ASEO DE GUAPI CAUCA SAS ESP","CAUCA","GUAPI","CARRERA 2 # 5-73","0000000","yiduar222@hotmail.com","YIDUAR ADRIAN CUENU HINESTROZA","SOCIEDADES (EMPRESA DE SERVICIOS PUBLICOS)","MENOR O IGUAL A 2500 USUARIOS"
"CAUCA","GUAPI","ALCANTARILLADO","OPERATIVA","EMPRESA MUNICIPAL OFICIAL DE SERVICIOS PÚBLICOS DOMICILIARIOS DE ACUEDUCTO, ALCANTARILLADO Y ASEO DE GUAPI CAUCA SAS ESP","CAUCA","GUAPI","CARRERA 2 # 5-73","0000000","yiduar222@hotmail.com","YIDUAR ADRIAN CUENU HINESTROZA","SOCIEDADES (EMPRESA DE SERVICIOS PUBLICOS)","DESDE 2501 HASTA 5000 USUARIOS"
"CAUCA","GUAPI","ASEO","OPERATIVA","EMPRESA MUNICIPAL OFICIAL DE SERVICIOS PÚBLICOS DOMICILIARIOS DE ACUEDUCTO, ALCANTARILLADO Y ASEO DE GUAPI CAUCA SAS ESP","CAUCA","GUAPI","CARRERA 2 # 5-73","0000000","yiduar222@hotmail.com","YIDUAR ADRIAN CUENU HINESTROZA","SOCIEDADES (EMPRESA DE SERVICIOS PUBLICOS)","DESDE 2501 HASTA 5000 USUARIOS"
"CAUCA","GUAPI","ACUEDUCTO","CANCELACION","UNIDAD PRESTADORA DE LOS SERVICIOS PUBLICOS DOMICILIARIOS DE ACUEDUCTO, ALCANTARILLADO Y ASEO DEL MUNICIPIO DE GUAPI CAUCA","CAUCA","GUAPI","CARRERA 2ª # 5 -73 Barrio la Esperanza","8400488","despachoalcalde@guapi-cauca.gov.co","CARMENZA PALACIOS CUERO",,
"CAUCA","GUAPI","ALCANTARILLADO","CANCELACION","UNIDAD PRESTADORA DE LOS SERVICIOS PUBLICOS DOMICILIARIOS DE ACUEDUCTO, ALCANTARILLADO Y ASEO DEL MUNICIPIO DE GUAPI CAUCA","CAUCA","GUAPI","CARRERA 2ª # 5 -73 Barrio la Esperanza","8400488","despachoalcalde@guapi-cauca.gov.co","CARMENZA PALACIOS CUERO",,
"CAUCA","GUAPI","ASEO","CANCELACION","UNIDAD PRESTADORA DE LOS SERVICIOS PUBLICOS DOMICILIARIOS DE ACUEDUCTO, ALCANTARILLADO Y ASEO DEL MUNICIPIO DE GUAPI CAUCA","CAUCA","GUAPI","CARRERA 2ª # 5 -73 Barrio la Esperanza","8400488","despachoalcalde@guapi-cauca.gov.co","CARMENZA PALACIOS CUERO",,
"CAUCA","INZA","ALCANTARILLADO","OPERATIVA","ADMINISTRACIÓN PÚBLICA COOPERATIVA DE ACUEDUCTO, ALCANTARILLADO Y ASEO DEl MUNICIPIO DE  INZA - CAUCA","CAUCA","INZA","CARRERA 5 3 - 21","8700629","ESPINZA01@HOTMAIL.COM","NATALIA ANGEL PUYO","ORGANIZACION AUTORIZADA","MENOR O IGUAL A 2500 USUARIOS"
"CAUCA","INZA","ASEO","OPERATIVA","ADMINISTRACIÓN PÚBLICA COOPERATIVA DE ACUEDUCTO, ALCANTARILLADO Y ASEO DEl MUNICIPIO DE  INZA - CAUCA","CAUCA","INZA","CARRERA 5 3 - 21","8700629","ESPINZA01@HOTMAIL.COM","NATALIA ANGEL PUYO","ORGANIZACION AUTORIZADA","MENOR O IGUAL A 2500 USUARIOS"
"CAUCA","INZA","ACUEDUCTO","OPERATIVA","ADMINISTRACIÓN PÚBLICA COOPERATIVA DE ACUEDUCTO, ALCANTARILLADO Y ASEO DEl MUNICIPIO DE  INZA - CAUCA","CAUCA","INZA","CARRERA 5 3 - 21","8700629","ESPINZA01@HOTMAIL.COM","NATALIA ANGEL PUYO","ORGANIZACION AUTORIZADA","MENOR O IGUAL A 2500 USUARIOS"
"CAUCA","INZA","ASEO","OPERATIVA","CIUDAD LIMPIA NEIVA S.A E.S.P","HUILA","NEIVA","CARRERA 7 # 82 - 70 AVENIDA ALBERTO GALINDO","8766224","sui@ciudadlimpia.com.co","EDGAR GOMEZ OSORIO","SOCIEDADES (EMPRESA DE SERVICIOS PUBLICOS)","MAYOR O IGUAL A 5001 USUARIOS"
"CAUCA","INZA","ASEO","OPERATIVA","URBASER POPAYAN S.A. E.S.P.","CAUCA","POPAYAN","CARRERA 4 No 2 - 23","8206217","Luz.galvis@urbaser.co","RODRIGO VELASCO MOSQUERA","SOCIEDADES (EMPRESA DE SERVICIOS PUBLICOS)","MAYOR O IGUAL A 5001 USUARIOS"
"CAUCA","JAMBALO","ACUEDUCTO","OPERATIVA","ASOCIACION DE USUARIOS DE SERVICIO DE ALCANTARILLADO Y ACUEDUCTO DE LA VEREDA LA ODISEA","CAUCA","JAMBALO","VEREDA LA ODISEA","8252738","campo2007@yahoo.com","MARIA IGNACIA  MEDINA  IPIA","ORGANIZACION AUTORIZADA","HASTA 2500 SUSCRIPTORES"
"CAUCA","JAMBALO","ACUEDUCTO","OPERATIVA","ASOCIACION DE USUARIOS ACUEDUCTO VEREDA ZUMBICO","CAUCA","JAMBALO","vereda zumbico","8252738","luish_450@hotmail.com","LUIS HERNANDO YULE","ORGANIZACION AUTORIZADA","HASTA 2500 SUSCRIPTORES"
"CAUCA","JAMBALO","ASEO","OPERATIVA","ADMINISTRACION PUBLICA COOPERATIVA DE ACUEDUCTO ALCANTARILLADO Y ASEO DEL MUNICIPIO DE JAMBALO CAUCA","CAUCA","JAMBALO","CARRERA PRINCIPAL JAMBALO","8375362","apcjambalo@hotmail.com","JENNYFER DANIELA RIVERA  VALENCIA","ORGANIZACION AUTORIZADA","MENOR O IGUAL A 2500 USUARIOS"
"CAUCA","JAMBALO","ACUEDUCTO","OPERATIVA","ADMINISTRACION PUBLICA COOPERATIVA DE ACUEDUCTO ALCANTARILLADO Y ASEO DEL MUNICIPIO DE JAMBALO CAUCA","CAUCA","JAMBALO","CARRERA PRINCIPAL JAMBALO","8375362","apcjambalo@hotmail.com","JENNYFER DANIELA RIVERA  VALENCIA","ORGANIZACION AUTORIZADA","MENOR O IGUAL A 2500 USUARIOS"
"CAUCA","JAMBALO","ALCANTARILLADO","OPERATIVA","ADMINISTRACION PUBLICA COOPERATIVA DE ACUEDUCTO ALCANTARILLADO Y ASEO DEL MUNICIPIO DE JAMBALO CAUCA","CAUCA","JAMBALO","CARRERA PRINCIPAL JAMBALO","8375362","apcjambalo@hotmail.com","JENNYFER DANIELA RIVERA  VALENCIA","ORGANIZACION AUTORIZADA","MENOR O IGUAL A 2500 USUARIOS"
"CAUCA","LA SIERRA","ALCANTARILLADO","OPERATIVA","ADMINISTRACION PUBLICA COOPERATIVA DE ACUEDUCTO ALCANTARILLADO Y ASEO DE LA SIERRA CAUCA","CAUCA","LA SIERRA","aaalasierra@hotmail.com","8255014","aaalasierra@hotmail.com","ALVARO ALBEIRO ORDONES","ORGANIZACION AUTORIZADA","MENOR O IGUAL A 2500 USUARIOS"
"CAUCA","LA SIERRA","ASEO","OPERATIVA","ADMINISTRACION PUBLICA COOPERATIVA DE ACUEDUCTO ALCANTARILLADO Y ASEO DE LA SIERRA CAUCA","CAUCA","LA SIERRA","aaalasierra@hotmail.com","8255014","aaalasierra@hotmail.com","ALVARO ALBEIRO ORDONES","ORGANIZACION AUTORIZADA","MENOR O IGUAL A 2500 USUARIOS"
"CAUCA","LA SIERRA","ALCANTARILLADO","OPERATIVA","ADMINISTRACION PUBLICA COOPERATIVA DE ACUEDUCTO, ALCANTARILLADO Y ASEO DE LA SIERRA","CAUCA","LA SIERRA","CALLE 3 NO. 3- 51EDIFICIO APROAGROSI","8255014","acuasierra5@yahoo.es","ALEXANDER ANACONA HOYOS","ORGANIZACION AUTORIZADA","HASTA 2500 SUSCRIPTORES"
"CAUCA","LA SIERRA","ACUEDUCTO","OPERATIVA","ADMINISTRACION PUBLICA COOPERATIVA DE ACUEDUCTO, ALCANTARILLADO Y ASEO DE LA SIERRA","CAUCA","LA SIERRA","CALLE 3 NO. 3- 51EDIFICIO APROAGROSI","8255014","acuasierra5@yahoo.es","ALEXANDER ANACONA HOYOS","ORGANIZACION AUTORIZADA","HASTA 2500 SUSCRIPTORES"
"CAUCA","LA SIERRA","ACUEDUCTO","OPERATIVA","ADMINISTRACION PUBLICA COOPERATIVA DE ACUEDUCTO ALCANTARILLADO Y ASEO DE LA SIERRA CAUCA","CAUCA","LA SIERRA","aaalasierra@hotmail.com","8255014","aaalasierra@hotmail.com","ALVARO ALBEIRO ORDONES","ORGANIZACION AUTORIZADA","MENOR O IGUAL A 2500 USUARIOS"
"CAUCA","LA SIERRA","ASEO","OPERATIVA","MUNICIPIO DE LA SIERRA CAUCA","CAUCA","LA SIERRA","Calle 4 No. 18-20 Segundo Piso, Galería Municipal","8255014","sandraa866@hotmail.com","MILLER MIGUEL HURTADO MUÑOZ","MUNICIPIO (PRESTACIÓN DIRECTA)","HASTA 2500 SUSCRIPTORES"
"CAUCA","LA SIERRA","ASEO","OPERATIVA","URBASER POPAYAN S.A. E.S.P.","CAUCA","POPAYAN","CARRERA 4 No 2 - 23","8206217","Luz.galvis@urbaser.co","RODRIGO VELASCO MOSQUERA","SOCIEDADES (EMPRESA DE SERVICIOS PUBLICOS)","MAYOR O IGUAL A 5001 USUARIOS"
"CAUCA","LA VEGA","ACUEDUCTO","CANCELACION","ASOCIACIÓN DE USUARIOS DE LOS SERVICIOS DE AGUA POTABLE Y ALCANTARILLADO DE LA CABECERA MUNICIPAL DE LA VEGA","CAUCA","LA VEGA","CARRERA 7 #2A BARRIO LOURDES","8269754","nestorsandoval20@gmail.com","NESTOR ARMANDO SANDOVAL MUÑOZ",,
"CAUCA","LA VEGA","ALCANTARILLADO","CANCELACION","ASOCIACIÓN DE USUARIOS DE LOS SERVICIOS DE AGUA POTABLE Y ALCANTARILLADO DE LA CABECERA MUNICIPAL DE LA VEGA","CAUCA","LA VEGA","CARRERA 7 #2A BARRIO LOURDES","8269754","nestorsandoval20@gmail.com","NESTOR ARMANDO SANDOVAL MUÑOZ",,
"CAUCA","LA VEGA","ASEO","OPERATIVA","URBASER POPAYAN S.A. E.S.P.","CAUCA","POPAYAN","CARRERA 4 No 2 - 23","8206217","Luz.galvis@urbaser.co","RODRIGO VELASCO MOSQUERA","SOCIEDADES (EMPRESA DE SERVICIOS PUBLICOS)","MAYOR O IGUAL A 5001 USUARIOS"
"CAUCA","LA VEGA","ASEO","CANCELACION","MUNICIPIO DE LA VEGA","CAUCA","LA VEGA","CAM Calle 2 Nro 8-39","8269571","alcaldia@lavega-cauca.gov.co","CARLOS OLIVER ORDONEZ PAZ",,
"CAUCA","LA VEGA","ACUEDUCTO","OPERATIVA","ADMINISTRACIÓN PUBLICA COOPERATIVA CORAZÓN DEL MACIZO","CAUCA","LA VEGA","CARRERA 7 # 2A","8269754","oapino@unicauca.edu.co","OSCAR STIVEN ANACONA PINO","ORGANIZACION AUTORIZADA","MENOR O IGUAL A 2500 USUARIOS"
"CAUCA","LA VEGA","ALCANTARILLADO","OPERATIVA","ADMINISTRACIÓN PUBLICA COOPERATIVA CORAZÓN DEL MACIZO","CAUCA","LA VEGA","CARRERA 7 # 2A","8269754","oapino@unicauca.edu.co","OSCAR STIVEN ANACONA PINO","ORGANIZACION AUTORIZADA","MENOR O IGUAL A 2500 USUARIOS"
"CAUCA","LA VEGA","ASEO","OPERATIVA","ADMINISTRACIÓN PUBLICA COOPERATIVA CORAZÓN DEL MACIZO","CAUCA","LA VEGA","CARRERA 7 # 2A","8269754","oapino@unicauca.edu.co","OSCAR STIVEN ANACONA PINO","ORGANIZACION AUTORIZADA","MENOR O IGUAL A 2500 USUARIOS"
"CAUCA","LOPEZ DE MICAY","ALCANTARILLADO","OPERATIVA","MUNICIPIO LOPEZ DE MICAY","CAUCA","LOPEZ DE MICAY","CALLE LAS FLORES","8405010","contactenos@lopezdemicay-cauca.gov.co","WANNER DARIO SUAREZ MANTILLA","MUNICIPIO (PRESTACIÓN DIRECTA)","MENOR O IGUAL A 2500 USUARIOS"
"CAUCA","LOPEZ DE MICAY","ASEO","OPERATIVA","MUNICIPIO LOPEZ DE MICAY","CAUCA","LOPEZ DE MICAY","CALLE LAS FLORES","8405010","contactenos@lopezdemicay-cauca.gov.co","WANNER DARIO SUAREZ MANTILLA","MUNICIPIO (PRESTACIÓN DIRECTA)","MENOR O IGUAL A 2500 USUARIOS"
"CAUCA","LOPEZ DE MICAY","ACUEDUCTO","OPERATIVA","MUNICIPIO LOPEZ DE MICAY","CAUCA","LOPEZ DE MICAY","CALLE LAS FLORES","8405010","contactenos@lopezdemicay-cauca.gov.co","WANNER DARIO SUAREZ MANTILLA","MUNICIPIO (PRESTACIÓN DIRECTA)","MENOR O IGUAL A 2500 USUARIOS"
"CAUCA","MERCADERES","ACUEDUCTO","OPERATIVA","EMPRESA OFICIAL DE SERVICIOS PUBLICOS DOMICILIARIOS DE MERCADERES CAUCA E.S.P·","CAUCA","MERCADERES","CARRERA 3 CALLE 4 ESQUINA","8460527","empomer-esp@hotmail.com","JOSE ALEJANDRO MORENO SANCHEZ","EMPRESA INDUSTRIAL Y COMERCIAL DEL ESTADO","MENOR O IGUAL A 2500 USUARIOS"
"CAUCA","MERCADERES","ALCANTARILLADO","OPERATIVA","EMPRESA OFICIAL DE SERVICIOS PUBLICOS DOMICILIARIOS DE MERCADERES CAUCA E.S.P·","CAUCA","MERCADERES","CARRERA 3 CALLE 4 ESQUINA","8460527","empomer-esp@hotmail.com","JOSE ALEJANDRO MORENO SANCHEZ","EMPRESA INDUSTRIAL Y COMERCIAL DEL ESTADO","MENOR O IGUAL A 2500 USUARIOS"
"CAUCA","MERCADERES","ASEO","OPERATIVA","EMPRESA OFICIAL DE SERVICIOS PUBLICOS DOMICILIARIOS DE MERCADERES CAUCA E.S.P·","CAUCA","MERCADERES","CARRERA 3 CALLE 4 ESQUINA","8460527","empomer-esp@hotmail.com","JOSE ALEJANDRO MORENO SANCHEZ","EMPRESA INDUSTRIAL Y COMERCIAL DEL ESTADO","MENOR O IGUAL A 2500 USUARIOS"
"CAUCA","MERCADERES","ASEO","OPERATIVA","EMPRESA METROPOLITANA DE ASEO DE PASTO S.A.  E.S.P.","NARINO","PASTO","CARRERA 24 #23-51","7362874","sonia-elizabeth.criollo@veolia.com","ANGELA MARCELA PAZ ROMERO","SOCIEDADES (EMPRESA DE SERVICIOS PUBLICOS)","MAYOR O IGUAL A 5001 USUARIOS"
"CAUCA","MIRANDA","ALCANTARILLADO","OPERATIVA","EMPRESA MUNICIPAL DE SERVICIOS PUBLICOS DOMICILIARIOS INDUSTRIAL Y COMERCIAL DEL ESTADO DE MIRANDA CAUCA","CAUCA","MIRANDA","CALLE 6 # 4-30","8476093","emmir@emmir.gov.co","HECTOR MARIO TAFURT QUINTERO","EMPRESA INDUSTRIAL Y COMERCIAL DEL ESTADO","MAYOR O IGUAL A 5001 USUARIOS"
"CAUCA","MIRANDA","ACUEDUCTO","OPERATIVA","EMPRESA MUNICIPAL DE SERVICIOS PUBLICOS DOMICILIARIOS INDUSTRIAL Y COMERCIAL DEL ESTADO DE MIRANDA CAUCA","CAUCA","MIRANDA","CALLE 6 # 4-30","8476093","emmir@emmir.gov.co","HECTOR MARIO TAFURT QUINTERO","EMPRESA INDUSTRIAL Y COMERCIAL DEL ESTADO","MAYOR O IGUAL A 5001 USUARIOS"
"CAUCA","MIRANDA","ASEO","OPERATIVA","EMPRESA MUNICIPAL DE SERVICIOS PUBLICOS DOMICILIARIOS INDUSTRIAL Y COMERCIAL DEL ESTADO DE MIRANDA CAUCA","CAUCA","MIRANDA","CALLE 6 # 4-30","8476093","emmir@emmir.gov.co","HECTOR MARIO TAFURT QUINTERO","EMPRESA INDUSTRIAL Y COMERCIAL DEL ESTADO","MAYOR O IGUAL A 5001 USUARIOS"
"CAUCA","MIRANDA","ASEO","OPERATIVA","EMPRESA DE ACUEDUCTO, ALCANTARILLADO Y ASEO DE CORINTO CAUCA","CAUCA","CORINTO","CARRERA 8 8 40","8270099","gerente@emcorintoesp.com.co","JOSE CAMILO POLANIA  FLOREZ","EMPRESA INDUSTRIAL Y COMERCIAL DEL ESTADO","DESDE 2501 HASTA 5000 USUARIOS"
"CAUCA","MORALES","ALCANTARILLADO","OPERATIVA","OFICINA DE SERVICIOS PUBLICOS DOMICILIARIOS DE ALCANTARILLADO Y ASEO MORALES CAUCA","CAUCA","MORALES","CENTRO ADMINISTRATIVO MUNICIPAL MORALES","8493051","contactenos@morales-cauca.gov.co","VICTOR FELIX SABOGAL ARBOLEDA","MUNICIPIO (PRESTACIÓN DIRECTA)","MENOR O IGUAL A 2500 USUARIOS"
"CAUCA","MORALES","ACUEDUCTO","OPERATIVA","APC ACUEDUCTO PIENDAMO MORALES ORGANIZACION AUTORIZADA","CAUCA","PIENDAMO","CRA 4 No.5-130 BARRIO INMACULADA","8250060","acueductoregional@piendamo-cauca.gov.co","JULY ALEXANDRA CAMPO VELASCO","ORGANIZACION AUTORIZADA","DESDE 2501 HASTA 5000 USUARIOS"
"CAUCA","MORALES","ASEO","OPERATIVA","OFICINA DE SERVICIOS PUBLICOS DOMICILIARIOS DE ALCANTARILLADO Y ASEO MORALES CAUCA","CAUCA","MORALES","CENTRO ADMINISTRATIVO MUNICIPAL MORALES","8493051","contactenos@morales-cauca.gov.co","VICTOR FELIX SABOGAL ARBOLEDA","MUNICIPIO (PRESTACIÓN DIRECTA)","MENOR O IGUAL A 2500 USUARIOS"
"CAUCA","MORALES","ASEO","OPERATIVA","URBASER POPAYAN S.A. E.S.P.","CAUCA","POPAYAN","CARRERA 4 No 2 - 23","8206217","Luz.galvis@urbaser.co","RODRIGO VELASCO MOSQUERA","SOCIEDADES (EMPRESA DE SERVICIOS PUBLICOS)","MAYOR O IGUAL A 5001 USUARIOS"
"CAUCA","PADILLA","ASEO","OPERATIVA","MUNICIPIO DE PADILLA CAUCA","CAUCA","PADILLA","kra 3a No, 9a -36","8268124","contactenos@padilla-cauca.gov.co","ARMANDO MINA MENA","MUNICIPIO (PRESTACIÓN DIRECTA)","HASTA 2500 SUSCRIPTORES"
"CAUCA","PADILLA","ASEO","OPERATIVA","EMPRESA DE ACUEDUCTO Y ALCANTARILLADO DE PADILLA CAUCA E.S.P.","CAUCA","PADILLA","Kra 3a No. 9a - 36","8268124","luenfeme@gmail.com","JORGE ENRIQUE CANDELA MEDINA","EMPRESA INDUSTRIAL Y COMERCIAL DEL ESTADO","MENOR O IGUAL A 2500 USUARIOS"
"CAUCA","PADILLA","ALCANTARILLADO","OPERATIVA","EMPRESA DE ACUEDUCTO Y ALCANTARILLADO DE PADILLA CAUCA E.S.P.","CAUCA","PADILLA","Kra 3a No. 9a - 36","8268124","luenfeme@gmail.com","JORGE ENRIQUE CANDELA MEDINA","EMPRESA INDUSTRIAL Y COMERCIAL DEL ESTADO","MENOR O IGUAL A 2500 USUARIOS"
"CAUCA","PADILLA","ASEO","OPERATIVA","INTERASEO DEL VALLE S.A.S. E.S.P.",,,,,,"JUAN MANUEL GOMEZ MEJIA","SOCIEDADES (EMPRESA DE SERVICIOS PUBLICOS)","MAYOR O IGUAL A 5001 USUARIOS"
"CAUCA","PADILLA","ACUEDUCTO","OPERATIVA","EMPRESA DE ACUEDUCTO Y ALCANTARILLADO DE PADILLA CAUCA E.S.P.","CAUCA","PADILLA","Kra 3a No. 9a - 36","8268124","luenfeme@gmail.com","JORGE ENRIQUE CANDELA MEDINA","EMPRESA INDUSTRIAL Y COMERCIAL DEL ESTADO","MENOR O IGUAL A 2500 USUARIOS"
"CAUCA","PAEZ","ASEO","OPERATIVA","CIUDAD LIMPIA NEIVA S.A E.S.P","HUILA","NEIVA","CARRERA 7 # 82 - 70 AVENIDA ALBERTO GALINDO","8766224","sui@ciudadlimpia.com.co","EDGAR GOMEZ OSORIO","SOCIEDADES (EMPRESA DE SERVICIOS PUBLICOS)","MAYOR O IGUAL A 5001 USUARIOS"
"CAUCA","PAEZ","ASEO","OPERATIVA","LA ADMINISTRACION PUBLICA COOPERATIVA DE ACUEDUCTO ALCANTARILLADO Y ASEO DEL MUNICIPIO DE PAEZ CAUCA","CAUCA","PAEZ","KRA4  No 8A73","8236384","apcpaezcauca@gmail.com","LUBIANY COLLO VELASCO","ORGANIZACION AUTORIZADA","MENOR O IGUAL A 2500 USUARIOS"
"CAUCA","PAEZ","ALCANTARILLADO","OPERATIVA","LA ADMINISTRACION PUBLICA COOPERATIVA DE ACUEDUCTO ALCANTARILLADO Y ASEO DEL MUNICIPIO DE PAEZ CAUCA","CAUCA","PAEZ","KRA4  No 8A73","8236384","apcpaezcauca@gmail.com","LUBIANY COLLO VELASCO","ORGANIZACION AUTORIZADA","MENOR O IGUAL A 2500 USUARIOS"
"CAUCA","PAEZ","ACUEDUCTO","OPERATIVA","LA ADMINISTRACION PUBLICA COOPERATIVA DE ACUEDUCTO ALCANTARILLADO Y ASEO DEL MUNICIPIO DE PAEZ CAUCA","CAUCA","PAEZ","KRA4  No 8A73","8236384","apcpaezcauca@gmail.com","LUBIANY COLLO VELASCO","ORGANIZACION AUTORIZADA","MENOR O IGUAL A 2500 USUARIOS"
"CAUCA","PAEZ","ACUEDUCTO","OPERATIVA","ASOCIACION DE SERVICIOS PUBLICOS DE BELALCAZAR","CAUCA","PAEZ","Carrera 2 No. 7 - 08 Barrio Panamericano","3167871","aspube@outlook.com","JHON FREDY VIQUEZ RAMOS","ORGANIZACION AUTORIZADA","MENOR O IGUAL A 2500 USUARIOS"
"CAUCA","PAEZ","ASEO","OPERATIVA","ASOCIACION DE SERVICIOS PUBLICOS DE BELALCAZAR","CAUCA","PAEZ","Carrera 2 No. 7 - 08 Barrio Panamericano","3167871","aspube@outlook.com","JHON FREDY VIQUEZ RAMOS","ORGANIZACION AUTORIZADA","MENOR O IGUAL A 2500 USUARIOS"
"CAUCA","PAEZ","ALCANTARILLADO","OPERATIVA","ASOCIACION DE SERVICIOS PUBLICOS DE BELALCAZAR","CAUCA","PAEZ","Carrera 2 No. 7 - 08 Barrio Panamericano","3167871","aspube@outlook.com","JHON FREDY VIQUEZ RAMOS","ORGANIZACION AUTORIZADA","MENOR O IGUAL A 2500 USUARIOS"
"CAUCA","PATIA","ASEO","OPERATIVA","EMPRESA MUNICIPAL DE ACUEDUCTO ALCANTARILLADO Y ASEO DE PATIA","CAUCA","PATIA","Cra 1 N o 9-12 Via panamericana","8262056","EMPATIAESP@YAHOO.ES","PEDRO ALBERTO EGUIZABAL ERAZO","EMPRESA INDUSTRIAL Y COMERCIAL DEL ESTADO","DESDE 2501 HASTA 5000 USUARIOS"
"CAUCA","PATIA","ALCANTARILLADO","OPERATIVA","EMPRESA MUNICIPAL DE ACUEDUCTO ALCANTARILLADO Y ASEO DE PATIA","CAUCA","PATIA","Cra 1 N o 9-12 Via panamericana","8262056","EMPATIAESP@YAHOO.ES","PEDRO ALBERTO EGUIZABAL ERAZO","EMPRESA INDUSTRIAL Y COMERCIAL DEL ESTADO","DESDE 2501 HASTA 5000 USUARIOS"
"CAUCA","PATIA","ASEO","OPERATIVA","URBASER POPAYAN S.A. E.S.P.","CAUCA","POPAYAN","CARRERA 4 No 2 - 23","8206217","Luz.galvis@urbaser.co","RODRIGO VELASCO MOSQUERA","SOCIEDADES (EMPRESA DE SERVICIOS PUBLICOS)","MAYOR O IGUAL A 5001 USUARIOS"
"CAUCA","PATIA","ACUEDUCTO","OPERATIVA","EMPRESA MUNICIPAL DE ACUEDUCTO ALCANTARILLADO Y ASEO DE PATIA","CAUCA","PATIA","Cra 1 N o 9-12 Via panamericana","8262056","EMPATIAESP@YAHOO.ES","PEDRO ALBERTO EGUIZABAL ERAZO","EMPRESA INDUSTRIAL Y COMERCIAL DEL ESTADO","DESDE 2501 HASTA 5000 USUARIOS"
"CAUCA","PIAMONTE","ASEO","OPERATIVA","ALCALDIA MUNICIPAL DE PIAMONTE -  CAUCA","CAUCA","PIAMONTE","Alcaldia Municipal de Piamonte","5215868","alexac200979@yahoo.es","ALEXANDRA CUELLAR CUELLAR","MUNICIPIO (PRESTACIÓN DIRECTA)","HASTA 2500 SUSCRIPTORES"
"CAUCA","PIAMONTE","ALCANTARILLADO","OPERATIVA","ALCALDIA MUNICIPAL DE PIAMONTE -  CAUCA","CAUCA","PIAMONTE","Alcaldia Municipal de Piamonte","5215868","alexac200979@yahoo.es","ALEXANDRA CUELLAR CUELLAR","MUNICIPIO (PRESTACIÓN DIRECTA)","HASTA 2500 SUSCRIPTORES"
"CAUCA","PIAMONTE","ACUEDUCTO","OPERATIVA","ALCALDIA MUNICIPAL DE PIAMONTE -  CAUCA","CAUCA","PIAMONTE","Alcaldia Municipal de Piamonte","5215868","alexac200979@yahoo.es","ALEXANDRA CUELLAR CUELLAR","MUNICIPIO (PRESTACIÓN DIRECTA)","HASTA 2500 SUSCRIPTORES"
"CAUCA","PIAMONTE","ASEO","OPERATIVA","ACUEDUCTO ALCANTARILLADO Y ASEO DE PIAMONTE  S.A. E.S.P.","CAUCA","PIAMONTE","parque central","4362258","maria-cruz-03@hotmail.es","MARIA CRUZ DIAZ COLLAZOS","SOCIEDADES (EMPRESA DE SERVICIOS PUBLICOS)","HASTA 2500 SUSCRIPTORES"
"CAUCA","PIAMONTE","ALCANTARILLADO","OPERATIVA","ACUEDUCTO ALCANTARILLADO Y ASEO DE PIAMONTE  S.A. E.S.P.","CAUCA","PIAMONTE","parque central","4362258","maria-cruz-03@hotmail.es","MARIA CRUZ DIAZ COLLAZOS","SOCIEDADES (EMPRESA DE SERVICIOS PUBLICOS)","HASTA 2500 SUSCRIPTORES"
"CAUCA","PIAMONTE","ACUEDUCTO","OPERATIVA","ACUEDUCTO ALCANTARILLADO Y ASEO DE PIAMONTE  S.A. E.S.P.","CAUCA","PIAMONTE","parque central","4362258","maria-cruz-03@hotmail.es","MARIA CRUZ DIAZ COLLAZOS","SOCIEDADES (EMPRESA DE SERVICIOS PUBLICOS)","HASTA 2500 SUSCRIPTORES"
"CAUCA","PIENDAMO","ASEO","OPERATIVA","EMPRESA MUNICIPAL DE SERVICIOS PUBLICOS DE PIENDAMO E.S.P.","CAUCA","PIENDAMO","PLANTA DE ACUEDUCTO SAN CAYETANO","8250099","empiendamo@piendamo-cauca.gov.co","JOSE BELARMINO TEJADA HURTADO","EMPRESA INDUSTRIAL Y COMERCIAL DEL ESTADO","DESDE 2501 HASTA 5000 USUARIOS"
"CAUCA","PIENDAMO","ACUEDUCTO","OPERATIVA","EMPRESA MUNICIPAL DE SERVICIOS PUBLICOS DE PIENDAMO E.S.P.","CAUCA","PIENDAMO","PLANTA DE ACUEDUCTO SAN CAYETANO","8250099","empiendamo@piendamo-cauca.gov.co","JOSE BELARMINO TEJADA HURTADO","EMPRESA INDUSTRIAL Y COMERCIAL DEL ESTADO","DESDE 2501 HASTA 5000 USUARIOS"
"CAUCA","PIENDAMO","ALCANTARILLADO","OPERATIVA","EMPRESA MUNICIPAL DE SERVICIOS PUBLICOS DE PIENDAMO E.S.P.","CAUCA","PIENDAMO","PLANTA DE ACUEDUCTO SAN CAYETANO","8250099","empiendamo@piendamo-cauca.gov.co","JOSE BELARMINO TEJADA HURTADO","EMPRESA INDUSTRIAL Y COMERCIAL DEL ESTADO","DESDE 2501 HASTA 5000 USUARIOS"
"CAUCA","PIENDAMO","ACUEDUCTO","OPERATIVA","APC ACUEDUCTO PIENDAMO MORALES ORGANIZACION AUTORIZADA","CAUCA","PIENDAMO","CRA 4 No.5-130 BARRIO INMACULADA","8250060","acueductoregional@piendamo-cauca.gov.co","JULY ALEXANDRA CAMPO VELASCO","ORGANIZACION AUTORIZADA","DESDE 2501 HASTA 5000 USUARIOS"
"CAUCA","PIENDAMO","ASEO","OPERATIVA","URBASER POPAYAN S.A. E.S.P.","CAUCA","POPAYAN","CARRERA 4 No 2 - 23","8206217","Luz.galvis@urbaser.co","RODRIGO VELASCO MOSQUERA","SOCIEDADES (EMPRESA DE SERVICIOS PUBLICOS)","MAYOR O IGUAL A 5001 USUARIOS"
"CAUCA","PIENDAMO","ACUEDUCTO","OPERATIVA","ASOCIACION DE USUARIOS DEL ACUEDUCTO DE LA VEREDA EL HOGAR","CAUCA","PIENDAMO","CARRERA 5 No 9 -33 EFIDICIO CAM PIENDAMO","8250099","contactenos@piendamo-cauca.gov.co","RUBEN DARIO VELASCO FERNANDEZ","ORGANIZACION AUTORIZADA","HASTA 2500 SUSCRIPTORES"
"CAUCA","POPAYAN","ACUEDUCTO","OPERATIVA","ACUEDUCTO Y ALCANTARILLADO DE POPAYAN S.A.  E.S.P","CAUCA","POPAYAN","Calle  3  No 4 - 21","8321000","sgeneral@aapsa.com.co","JESUS CALVO CASTRO","SOCIEDADES (EMPRESA DE SERVICIOS PUBLICOS)","MAYOR O IGUAL A 5001 USUARIOS"
"CAUCA","POPAYAN","ALCANTARILLADO","OPERATIVA","ACUEDUCTO Y ALCANTARILLADO DE POPAYAN S.A.  E.S.P","CAUCA","POPAYAN","Calle  3  No 4 - 21","8321000","sgeneral@aapsa.com.co","JESUS CALVO CASTRO","SOCIEDADES (EMPRESA DE SERVICIOS PUBLICOS)","MAYOR O IGUAL A 5001 USUARIOS"
"CAUCA","POPAYAN","ASEO","OPERATIVA","CONSASA SAS ESP","BOGOTA, D.C.","BOGOTA, D.C.","CARRERA 7 N 73 47 OFICINA 202 EDIF ION 73","2777983","JARPIGA@YAHOO.COM","JAIME ARIEL PINILLA  GALINDO","SOCIEDADES (EMPRESA DE SERVICIOS PUBLICOS)","MENOR O IGUAL A 2500 USUARIOS"
"CAUCA","POPAYAN","ACUEDUCTO","OPERATIVA","ASOCIACION ACUEDUCTO RURAL DE RIONEGRO","CAUCA","POPAYAN","Centro Múltiple- salón comunal","0000000","aarrpopayan@yahoo.com","BRANDO JOSE VELASCO OBANDO","ORGANIZACION AUTORIZADA","MENOR O IGUAL A 2500 USUARIOS"
"CAUCA","POPAYAN","ASEO","OPERATIVA","URBASER POPAYAN S.A. E.S.P.","CAUCA","POPAYAN","CARRERA 4 No 2 - 23","8206217","Luz.galvis@urbaser.co","RODRIGO VELASCO MOSQUERA","SOCIEDADES (EMPRESA DE SERVICIOS PUBLICOS)","MAYOR O IGUAL A 5001 USUARIOS"
"CAUCA","POPAYAN","ASEO","OPERATIVA","ASOCIACION DE RECOLECTORES DE MATERIALES RECICLABLES DE POPAYAN","CAUCA","POPAYAN","CARRERA 4 B ESTE  No. 11 B - 16","8224625","aremarpo@gmail.com","ADELAIDA CAMPO DE JESUS","ORGANIZACION AUTORIZADA","MAYOR O IGUAL A 5001 USUARIOS"
"CAUCA","POPAYAN","ASEO","OPERATIVA","Asociacion Ambientalista de popayan","CAUCA","POPAYAN","Carrera 17 BIS # 73N - 13 BR La Primavera","8376287","asocampo@hotmail.com","FRANCISCO JAVIER PALECHOR CERON","ORGANIZACION AUTORIZADA","MENOR O IGUAL A 2500 USUARIOS"
"CAUCA","POPAYAN","ASEO","OPERATIVA","Bodegas de reciclaje asociadas del suroccidente colombiano SAS","CAUCA","POPAYAN","calle 11 bis 13-03 barrio El achiral","9999999","brasoc.cauca@gmail.com","DAVID AUGUSTO BAEZ BENAVIDES","SOCIEDADES (EMPRESA DE SERVICIOS PUBLICOS)","MENOR O IGUAL A 2500 USUARIOS"
"CAUCA","POPAYAN","ASEO","OPERATIVA","ASOCIACION DE RECICLADORES INDEPENDIENTES DE POPAYAN E.A.T RECINPAYAN","CAUCA","POPAYAN","cra 6 A E 11 04 Barrio los Braceros","8388343","paula23co@hotmail.com","SALVADOR GOMEZ","ORGANIZACION AUTORIZADA","MAYOR O IGUAL A 5001 USUARIOS"
"CAUCA","POPAYAN","ASEO","OPERATIVA","ASOCIACION DE RECUPERADORES DE MATERIALES APROVECHABLES DEL CAUCA","CAUCA","POPAYAN","Carrera 5 # 9N -203","8367812","armacpopayan2019@gmail.com","CESAR AUGUSTO HURTADO  ASTAIZA","ORGANIZACION AUTORIZADA","MAYOR O IGUAL A 5001 USUARIOS"
"CAUCA","POPAYAN","ASEO","OPERATIVA","ASOCIACION DE RECICLADORES DE OFICIO GOLEROS","CAUCA","POPAYAN","Cl 2A #29-04","8337600","paula23co@hotmail.com","JHONNATAN ANTONIO MAMIAN JIMENEZ","ORGANIZACION AUTORIZADA","MAYOR O IGUAL A 5001 USUARIOS"
"CAUCA","PUERTO TEJADA","ACUEDUCTO","OPERATIVA","EMPRESA DE AGUAS DE CIUDAD DEL SUR SURAGUAS S.A. E.S.P.","CAUCA","PUERTO TEJADA","CALLE 85B No.22-58 CIUDAD DEL SUR","3391143","auxiliar.suraguas@hotmail.com","LUCIA HIDALGO MONCAYO","SOCIEDADES (EMPRESA DE SERVICIOS PUBLICOS)","MENOR O IGUAL A 2500 USUARIOS"
"CAUCA","PUERTO TEJADA","ASEO","OPERATIVA","CIUDAD LIMPIA BOGOTÁ S.A. E.S.P.","BOGOTA, D.C.","BOGOTA, D.C.","Calle 59C Sur N.51-50","7300150","brodriguez@ciudadlimpia.com.co","MAURICIO VELASCO VALLECILLA","SOCIEDADES (EMPRESA DE SERVICIOS PUBLICOS)","MAYOR O IGUAL A 5001 USUARIOS"
"CAUCA","PUERTO TEJADA","ACUEDUCTO","OPERATIVA","ACUAPAEZ S.A. E.S.P.","CAUCA","CALOTO","PARQUE INDUSTRIAL Y CCIAL DEL CAUCA ET 4 LOTE 14","8259375","jmena@acuapaez.com","LILIANA FABIOLA PARRA MARTINEZ","SOCIEDADES (EMPRESA DE SERVICIOS PUBLICOS)","MENOR O IGUAL A 2500 USUARIOS"
"CAUCA","PUERTO TEJADA","ACUEDUCTO","OPERATIVA","AFROCAUCANA DE AGUAS S.A.S. E.S.P.","CAUCA","PUERTO TEJADA","Carrera 19 # 13-57","8267274","miltonmarinovelasco@hotmail.com","OSCAR EDUARDO LARRAHONDO BALANTA","SOCIEDADES (EMPRESA DE SERVICIOS PUBLICOS)","MAYOR O IGUAL A 5001 USUARIOS"
"CAUCA","PUERTO TEJADA","ALCANTARILLADO","OPERATIVA","AFROCAUCANA DE AGUAS S.A.S. E.S.P.","CAUCA","PUERTO TEJADA","Carrera 19 # 13-57","8267274","miltonmarinovelasco@hotmail.com","OSCAR EDUARDO LARRAHONDO BALANTA","SOCIEDADES (EMPRESA DE SERVICIOS PUBLICOS)","MAYOR O IGUAL A 5001 USUARIOS"
"CAUCA","PUERTO TEJADA","ALCANTARILLADO","EN PROCESO DE LIQUIDACION","EMPRESA DE ACUEDUCTO Y ALCANTARILLADO DEL RIO PALO SOCIEDAD POR ACCIONES E.S.P. EN LIQUIDACION","CAUCA","VILLA RICA","CALLE 2 1 139","8486421","miltonvel@hotmail.com","MARIA DEL PILAR VILLEGAS MULATO","SOCIEDADES (EMPRESA DE SERVICIOS PUBLICOS)","MENOR O IGUAL A 2500 USUARIOS"
"CAUCA","PUERTO TEJADA","ASEO","OPERATIVA","PUERTO TEJADA SAS ESP","VALLE DEL CAUCA","YUMBO","CALLE 11 No 32A-109","6933374","reportesui@servintegrales.com.co","WILSON HERIBERTO FREIRE CARDENAS","SOCIEDADES (EMPRESA DE SERVICIOS PUBLICOS)","MAYOR O IGUAL A 5001 USUARIOS"
"CAUCA","PUERTO TEJADA","ACUEDUCTO","EN PROCESO DE LIQUIDACION","EMPRESA DE ACUEDUCTO Y ALCANTARILLADO DEL RIO PALO SOCIEDAD POR ACCIONES E.S.P. EN LIQUIDACION","CAUCA","VILLA RICA","CALLE 2 1 139","8486421","miltonvel@hotmail.com","MARIA DEL PILAR VILLEGAS MULATO","SOCIEDADES (EMPRESA DE SERVICIOS PUBLICOS)","MAYOR O IGUAL A 5001 USUARIOS"
"CAUCA","PUERTO TEJADA","ALCANTARILLADO","OPERATIVA","OPERADORA DE SERVICIOS PUBLICOS S.A. EMPRESA DE SERVICIOS PUBLICOS","VALLE DEL CAUCA","CALI","CALLE 38 NORTE N 3N  84","6656512","gerenciageneral@opsasaesp.com","ANGELA MARIA YEPES SIERRA","SOCIEDADES (EMPRESA DE SERVICIOS PUBLICOS)","MAYOR O IGUAL A 5001 USUARIOS"
"CAUCA","PUERTO TEJADA","ALCANTARILLADO","OPERATIVA","ACUAPAEZ S.A. E.S.P.","CAUCA","CALOTO","PARQUE INDUSTRIAL Y CCIAL DEL CAUCA ET 4 LOTE 14","8259375","jmena@acuapaez.com","LILIANA FABIOLA PARRA MARTINEZ","SOCIEDADES (EMPRESA DE SERVICIOS PUBLICOS)","MENOR O IGUAL A 2500 USUARIOS"
"CAUCA","PUERTO TEJADA","ACUEDUCTO","OPERATIVA","OPERADORA DE SERVICIOS PUBLICOS S.A. EMPRESA DE SERVICIOS PUBLICOS","VALLE DEL CAUCA","CALI","CALLE 38 NORTE N 3N  84","6656512","gerenciageneral@opsasaesp.com","ANGELA MARIA YEPES SIERRA","SOCIEDADES (EMPRESA DE SERVICIOS PUBLICOS)","MAYOR O IGUAL A 5001 USUARIOS"
"CAUCA","PUERTO TEJADA","ASEO","OPERATIVA","APROVECHAMIENTO DE COLOMBIA S.A.S ESP","VALLE DEL CAUCA","YUMBO","CALLE 10 No 19A-300","6933374","comercial@aprovecolsasesp.com.co","ALVARO JOSE DONOSO BAFFONI","SOCIEDADES (EMPRESA DE SERVICIOS PUBLICOS)","MAYOR O IGUAL A 5001 USUARIOS"
"CAUCA","PUERTO TEJADA","ASEO","OPERATIVA","CAUCASEO LIMPIA S.A E.S.P","VALLE DEL CAUCA","YUMBO","CALLE 11 No 32A-109","6933374","reportesui@servintegrales.com.co","LUIS GABRIEL GOMEZ DONOSO","SOCIEDADES (EMPRESA DE SERVICIOS PUBLICOS)","MAYOR O IGUAL A 5001 USUARIOS"
"CAUCA","PUERTO TEJADA","ALCANTARILLADO","OPERATIVA","EMPRESA DE AGUAS DE CIUDAD DEL SUR SURAGUAS S.A. E.S.P.","CAUCA","PUERTO TEJADA","CALLE 85B No.22-58 CIUDAD DEL SUR","3391143","auxiliar.suraguas@hotmail.com","LUCIA HIDALGO MONCAYO","SOCIEDADES (EMPRESA DE SERVICIOS PUBLICOS)","MENOR O IGUAL A 2500 USUARIOS"
"CAUCA","PURACE","ASEO","OPERATIVA","MUNICIPIO DE PURACE - COCONUCO CAUCA","CAUCA","PURACE","Carrera 3 No.  9-81 Barrio Centro","8277002","wilmarfabian@hotmail.com","NELSON MAZABUEL QUILINDO","MUNICIPIO (PRESTACIÓN DIRECTA)","HASTA 2500 SUSCRIPTORES"
"CAUCA","PURACE","ASEO","OPERATIVA","URBASER POPAYAN S.A. E.S.P.","CAUCA","POPAYAN","CARRERA 4 No 2 - 23","8206217","Luz.galvis@urbaser.co","RODRIGO VELASCO MOSQUERA","SOCIEDADES (EMPRESA DE SERVICIOS PUBLICOS)","MAYOR O IGUAL A 5001 USUARIOS"
"CAUCA","PURACE","ACUEDUCTO","OPERATIVA","ASOCIACION DE USUARIOS DE LOS SERVICIOS PUBLICOS DE AGUA POTABLE ALCANTARILLADO Y ASEO DE LA ZONA URBANA DEL CORREGIMIENTO PURACE","CAUCA","PURACE","corregimiento purace","8477018","asociadopur@gmail.com","JOSE GERARDO BONILLA ARCE","ORGANIZACION AUTORIZADA","HASTA 2500 SUSCRIPTORES"
"CAUCA","PURACE","ALCANTARILLADO","OPERATIVA","ASOCIACION DE USUARIOS DE LOS SERVICIOS PUBLICOS DE AGUA POTABLE ALCANTARILLADO Y ASEO DE LA ZONA URBANA DEL CORREGIMIENTO PURACE","CAUCA","PURACE","corregimiento purace","8477018","asociadopur@gmail.com","JOSE GERARDO BONILLA ARCE","ORGANIZACION AUTORIZADA","HASTA 2500 SUSCRIPTORES"
"CAUCA","PURACE","ASEO","OPERATIVA","ACUEDUCTO ALCANTARILLADO Y ASEO DE COCONUCO S.A ESP","CAUCA","PURACE","Carrera 1E No.7-07 Coconuco Cauca","8277020","aaacoconuco@hotmail.com","JAIBER RIBEIRO RODRIGUEZ SERNA","SOCIEDADES (EMPRESA DE SERVICIOS PUBLICOS)","MENOR O IGUAL A 2500 USUARIOS"
"CAUCA","PURACE","ALCANTARILLADO","OPERATIVA","ACUEDUCTO ALCANTARILLADO Y ASEO DE COCONUCO S.A ESP","CAUCA","PURACE","Carrera 1E No.7-07 Coconuco Cauca","8277020","aaacoconuco@hotmail.com","JAIBER RIBEIRO RODRIGUEZ SERNA","SOCIEDADES (EMPRESA DE SERVICIOS PUBLICOS)","MENOR O IGUAL A 2500 USUARIOS"
"CAUCA","PURACE","ACUEDUCTO","OPERATIVA","ACUEDUCTO ALCANTARILLADO Y ASEO DE COCONUCO S.A ESP","CAUCA","PURACE","Carrera 1E No.7-07 Coconuco Cauca","8277020","aaacoconuco@hotmail.com","JAIBER RIBEIRO RODRIGUEZ SERNA","SOCIEDADES (EMPRESA DE SERVICIOS PUBLICOS)","MENOR O IGUAL A 2500 USUARIOS"
"CAUCA","PURACE","ACUEDUCTO","OPERATIVA","COOPERATIVA TINAJUELA COCONUCO","CAUCA","PURACE","CALLE 6 No. 3-08","8277063","ACUEDUCTOCOCONUCO@HOTMAIL.COM","WILMAR FABIAN CRUZ  LOPEZ","ORGANIZACION AUTORIZADA","HASTA 2500 SUSCRIPTORES"
"CAUCA","PURACE","ACUEDUCTO","OPERATIVA","MUNICIPIO DE PURACE - COCONUCO CAUCA","CAUCA","PURACE","Carrera 3 No.  9-81 Barrio Centro","8277002","wilmarfabian@hotmail.com","NELSON MAZABUEL QUILINDO","MUNICIPIO (PRESTACIÓN DIRECTA)","HASTA 2500 SUSCRIPTORES"
"CAUCA","PURACE","ALCANTARILLADO","OPERATIVA","MUNICIPIO DE PURACE - COCONUCO CAUCA","CAUCA","PURACE","Carrera 3 No.  9-81 Barrio Centro","8277002","wilmarfabian@hotmail.com","NELSON MAZABUEL QUILINDO","MUNICIPIO (PRESTACIÓN DIRECTA)","HASTA 2500 SUSCRIPTORES"
"CAUCA","ROSAS","ASEO","OPERATIVA","EMPRESA MUNICIPAL DE SERVICIOS PUBLICOS DE ROSAS - CAUCA","CAUCA","ROSAS","EDIFICIO CAM ROSAS","8254013","alcideslopez13@hotmail.com","JOSE ALCIDES LOPEZ RUEDA","EMPRESA INDUSTRIAL Y COMERCIAL DEL ESTADO","HASTA 2500 SUSCRIPTORES"
"CAUCA","ROSAS","ACUEDUCTO","OPERATIVA","EMPRESA MUNICIPAL DE SERVICIOS PUBLICOS DE ROSAS - CAUCA","CAUCA","ROSAS","EDIFICIO CAM ROSAS","8254013","alcideslopez13@hotmail.com","JOSE ALCIDES LOPEZ RUEDA","EMPRESA INDUSTRIAL Y COMERCIAL DEL ESTADO","HASTA 2500 SUSCRIPTORES"
"CAUCA","ROSAS","ACUEDUCTO","OPERATIVA","ACUEDUCTO ALCANTARILLADO Y ASEO DE ROSAS S.A E.S.P","CAUCA","ROSAS","calle 6 No. 3-40 ED CAM","8372667","rosassaesp@gmail.com","JESUS ANTONIO REALPE ESTELA","SOCIEDADES (EMPRESA DE SERVICIOS PUBLICOS)","MENOR O IGUAL A 2500 USUARIOS"
"CAUCA","ROSAS","ALCANTARILLADO","OPERATIVA","ACUEDUCTO ALCANTARILLADO Y ASEO DE ROSAS S.A E.S.P","CAUCA","ROSAS","calle 6 No. 3-40 ED CAM","8372667","rosassaesp@gmail.com","JESUS ANTONIO REALPE ESTELA","SOCIEDADES (EMPRESA DE SERVICIOS PUBLICOS)","MENOR O IGUAL A 2500 USUARIOS"
"CAUCA","ROSAS","ASEO","OPERATIVA","ACUEDUCTO ALCANTARILLADO Y ASEO DE ROSAS S.A E.S.P","CAUCA","ROSAS","calle 6 No. 3-40 ED CAM","8372667","rosassaesp@gmail.com","JESUS ANTONIO REALPE ESTELA","SOCIEDADES (EMPRESA DE SERVICIOS PUBLICOS)","MENOR O IGUAL A 2500 USUARIOS"
"CAUCA","ROSAS","ASEO","OPERATIVA","URBASER POPAYAN S.A. E.S.P.","CAUCA","POPAYAN","CARRERA 4 No 2 - 23","8206217","Luz.galvis@urbaser.co","RODRIGO VELASCO MOSQUERA","SOCIEDADES (EMPRESA DE SERVICIOS PUBLICOS)","MAYOR O IGUAL A 5001 USUARIOS"
"CAUCA","ROSAS","ALCANTARILLADO","OPERATIVA","EMPRESA MUNICIPAL DE SERVICIOS PUBLICOS DE ROSAS - CAUCA","CAUCA","ROSAS","EDIFICIO CAM ROSAS","8254013","alcideslopez13@hotmail.com","JOSE ALCIDES LOPEZ RUEDA","EMPRESA INDUSTRIAL Y COMERCIAL DEL ESTADO","HASTA 2500 SUSCRIPTORES"
"CAUCA","SAN SEBASTIAN","ALCANTARILLADO","OPERATIVA","ADMINISTRACION PUBLICA COOPERATIVA EMPRESA SOLIDARIA DE SERVICIOS PUBLICOS DE SAN SEBASTIAN AGUAS DE SAN SEBASTIAN ESP.","CAUCA","SAN SEBASTIAN","Cra 3 Cll 2 Edif.municipal","8273039","dguzman81@latinmail.com","DIOMAR GUZMAN UNI","ORGANIZACION AUTORIZADA","HASTA 2500 SUSCRIPTORES"
"CAUCA","SAN SEBASTIAN","ACUEDUCTO","OPERATIVA","ADMINISTRACION PUBLICA COOPERATIVA EMPRESA SOLIDARIA DE SERVICIOS PUBLICOS DE SAN SEBASTIAN AGUAS DE SAN SEBASTIAN ESP.","CAUCA","SAN SEBASTIAN","Cra 3 Cll 2 Edif.municipal","8273039","dguzman81@latinmail.com","DIOMAR GUZMAN UNI","ORGANIZACION AUTORIZADA","HASTA 2500 SUSCRIPTORES"
"CAUCA","SAN SEBASTIAN","ASEO","OPERATIVA","ADMINISTRACION PUBLICA COOPERATIVA EMPRESA SOLIDARIA DE SERVICIOS PUBLICOS DE SAN SEBASTIAN AGUAS DE SAN SEBASTIAN ESP.","CAUCA","SAN SEBASTIAN","Cra 3 Cll 2 Edif.municipal","8273039","dguzman81@latinmail.com","DIOMAR GUZMAN UNI","ORGANIZACION AUTORIZADA","HASTA 2500 SUSCRIPTORES"
"CAUCA","SANTANDER DE QUILICHAO","ACUEDUCTO","OPERATIVA","EMPRESAS MUNICIPALES DE SANTANDER DE QUILICHAO E.S.P.","CAUCA","SANTANDER DE QUILICHAO","CALLE 2B No 6-49","8292233","EMQUILICHAO@GMAIL.COM","LUIS ANTONIO VELASCO VALCKE","EMPRESA INDUSTRIAL Y COMERCIAL DEL ESTADO","MAYOR O IGUAL A 5001 USUARIOS"
"CAUCA","SANTANDER DE QUILICHAO","ACUEDUCTO","OPERATIVA","ACUEDUCTO DE MONDOMO","CAUCA","SANTANDER DE QUILICHAO","Oficina del Acueducto Parque Principal Mondomo","8299319","acueductodemondomo@gmail.com","EDWIN ANTONIO CHAVES GARCIA","ORGANIZACION AUTORIZADA","MENOR O IGUAL A 2500 USUARIOS"
"CAUCA","SANTANDER DE QUILICHAO","ALCANTARILLADO","OPERATIVA","EMPRESAS MUNICIPALES DE SANTANDER DE QUILICHAO E.S.P.","CAUCA","SANTANDER DE QUILICHAO","CALLE 2B No 6-49","8292233","EMQUILICHAO@GMAIL.COM","LUIS ANTONIO VELASCO VALCKE","EMPRESA INDUSTRIAL Y COMERCIAL DEL ESTADO","MAYOR O IGUAL A 5001 USUARIOS"
"CAUCA","SANTANDER DE QUILICHAO","ASEO","OPERATIVA","EMPRESAS MUNICIPALES DE SANTANDER DE QUILICHAO E.S.P.","CAUCA","SANTANDER DE QUILICHAO","CALLE 2B No 6-49","8292233","EMQUILICHAO@GMAIL.COM","LUIS ANTONIO VELASCO VALCKE","EMPRESA INDUSTRIAL Y COMERCIAL DEL ESTADO","MAYOR O IGUAL A 5001 USUARIOS"
"CAUCA","SANTANDER DE QUILICHAO","ASEO","OPERATIVA","INTERASEO DEL VALLE S.A.S. E.S.P.",,,,,,"JUAN MANUEL GOMEZ MEJIA","SOCIEDADES (EMPRESA DE SERVICIOS PUBLICOS)","MAYOR O IGUAL A 5001 USUARIOS"
"CAUCA","SANTANDER DE QUILICHAO","ALCANTARILLADO","OPERATIVA","AGUAS DEL PARAISO SA ESP","CAUCA","SANTANDER DE QUILICHAO","ZONA INDUSTRIAL EL PARAISO LOTE 15B MANZ C","8295304","nestorsanchez312@hotmail.com","JUAN CARLOS SANCHEZ HOLGUIN","SOCIEDADES (EMPRESA DE SERVICIOS PUBLICOS)","MENOR O IGUAL A 2500 USUARIOS"
"CAUCA","SANTANDER DE QUILICHAO","ACUEDUCTO","OPERATIVA","AGUAS DEL PARAISO SA ESP","CAUCA","SANTANDER DE QUILICHAO","ZONA INDUSTRIAL EL PARAISO LOTE 15B MANZ C","8295304","nestorsanchez312@hotmail.com","JUAN CARLOS SANCHEZ HOLGUIN","SOCIEDADES (EMPRESA DE SERVICIOS PUBLICOS)","MENOR O IGUAL A 2500 USUARIOS"
"CAUCA","SANTA ROSA","ASEO","OPERATIVA","ACUEDUCTO ALCANTARILLADO Y ASEO DE SANTA ROSA S.A E.S.P","CAUCA","SANTA ROSA","CABECERA MUNICIPAL FRENTE AL POLIDEPORTIVO","8388213","hdilsonruiz@hotmail.com","ALBEIRO GUAMANGA JIMENEZ","SOCIEDADES (EMPRESA DE SERVICIOS PUBLICOS)","HASTA 2500 SUSCRIPTORES"
"CAUCA","SANTA ROSA","ALCANTARILLADO","OPERATIVA","ACUEDUCTO ALCANTARILLADO Y ASEO DE SANTA ROSA S.A E.S.P","CAUCA","SANTA ROSA","CABECERA MUNICIPAL FRENTE AL POLIDEPORTIVO","8388213","hdilsonruiz@hotmail.com","ALBEIRO GUAMANGA JIMENEZ","SOCIEDADES (EMPRESA DE SERVICIOS PUBLICOS)","HASTA 2500 SUSCRIPTORES"
"CAUCA","SANTA ROSA","ACUEDUCTO","OPERATIVA","ACUEDUCTO ALCANTARILLADO Y ASEO DE SANTA ROSA S.A E.S.P","CAUCA","SANTA ROSA","CABECERA MUNICIPAL FRENTE AL POLIDEPORTIVO","8388213","hdilsonruiz@hotmail.com","ALBEIRO GUAMANGA JIMENEZ","SOCIEDADES (EMPRESA DE SERVICIOS PUBLICOS)","HASTA 2500 SUSCRIPTORES"
"CAUCA","SILVIA","ASEO","OPERATIVA","EMPRESA MUNICIPAL DE ACUEDUCTO ALCANTARILLADO Y ASEO DE SILVIA CAUCA EMSILVIA ESP","CAUCA","SILVIA","Carrera 3 #15-02 Barrio San Agustin Colina de Belen","8251168","eaasespd@yahoo.com.co","DIEGO ALONSO GIL VILLAMARIN","EMPRESA INDUSTRIAL Y COMERCIAL DEL ESTADO","MENOR O IGUAL A 2500 USUARIOS"
"CAUCA","SILVIA","ASEO","OPERATIVA","URBASER POPAYAN S.A. E.S.P.","CAUCA","POPAYAN","CARRERA 4 No 2 - 23","8206217","Luz.galvis@urbaser.co","RODRIGO VELASCO MOSQUERA","SOCIEDADES (EMPRESA DE SERVICIOS PUBLICOS)","MAYOR O IGUAL A 5001 USUARIOS"
"CAUCA","SILVIA","ALCANTARILLADO","OPERATIVA","EMPRESA MUNICIPAL DE ACUEDUCTO ALCANTARILLADO Y ASEO DE SILVIA CAUCA EMSILVIA ESP","CAUCA","SILVIA","Carrera 3 #15-02 Barrio San Agustin Colina de Belen","8251168","eaasespd@yahoo.com.co","DIEGO ALONSO GIL VILLAMARIN","EMPRESA INDUSTRIAL Y COMERCIAL DEL ESTADO","MENOR O IGUAL A 2500 USUARIOS"
"CAUCA","SILVIA","ACUEDUCTO","OPERATIVA","EMPRESA MUNICIPAL DE ACUEDUCTO ALCANTARILLADO Y ASEO DE SILVIA CAUCA EMSILVIA ESP","CAUCA","SILVIA","Carrera 3 #15-02 Barrio San Agustin Colina de Belen","8251168","eaasespd@yahoo.com.co","DIEGO ALONSO GIL VILLAMARIN","EMPRESA INDUSTRIAL Y COMERCIAL DEL ESTADO","MENOR O IGUAL A 2500 USUARIOS"
"CAUCA","SILVIA","ACUEDUCTO","OPERATIVA","ADMINSTRACION PUBLICA COOPERATIVA DE ACUEDUCTO Y ALCANTARILLADO DE LA ZONA CAMPESINA DEL MUNICIPIO DE SILVIA CAUCA","CAUCA","SILVIA","CENTRO POBLADO DE USENDA","0000000","apcasocamesp@gmail.com","EDWAR SANDOVAL OTERO","ORGANIZACION AUTORIZADA","MENOR O IGUAL A 2500 USUARIOS"
"CAUCA","SOTARA","ALCANTARILLADO","OPERATIVA","ADMINISTRACION PÙBLICA COOPERATIVA DE ACUEDUCTO ALCANTARILLADO Y ASEO DEL MUNICIPIO DE SOTARA","CAUCA","SOTARA","CAM MUNICIPAL","8489016","apcsotara@gmail.com","DIEGO MARINO SALAZAR MESA","ORGANIZACION AUTORIZADA","MENOR O IGUAL A 2500 USUARIOS"
"CAUCA","SOTARA","ACUEDUCTO","OPERATIVA","ADMINISTRACION PÙBLICA COOPERATIVA DE ACUEDUCTO ALCANTARILLADO Y ASEO DEL MUNICIPIO DE SOTARA","CAUCA","SOTARA","CAM MUNICIPAL","8489016","apcsotara@gmail.com","DIEGO MARINO SALAZAR MESA","ORGANIZACION AUTORIZADA","MENOR O IGUAL A 2500 USUARIOS"
"CAUCA","SOTARA","ACUEDUCTO","OPERATIVA","ASOCIACION REGIONAL DEL ACUEDUCTO SACHACOCO","CAUCA","TIMBIO","CARRERA 22 No. 19-31 BARRIO SAN JUDAS","8278538","sachacocotimbio@hotmail.com","JESUS MAURICIO RODRIGUEZ LOPEZ","ORGANIZACION AUTORIZADA","DESDE 2501 HASTA 5000 USUARIOS"
"CAUCA","SOTARA","ACUEDUCTO","OPERATIVA","ASOCIACIÒN DE USUARIOS DEL ACUEDUCTO REGIONAL INTEGRADO EL HIGUERÓN GUAYABAL","CAUCA","TIMBIO","antonmoreno","8243880","higuerong@gmail.com","GLORIA AMALIA CUELLAR URIBE","ORGANIZACION AUTORIZADA","MENOR O IGUAL A 2500 USUARIOS"
"CAUCA","SOTARA","ASEO","OPERATIVA","ADMINISTRACION PÙBLICA COOPERATIVA DE ACUEDUCTO ALCANTARILLADO Y ASEO DEL MUNICIPIO DE SOTARA","CAUCA","SOTARA","CAM MUNICIPAL","8489016","apcsotara@gmail.com","DIEGO MARINO SALAZAR MESA","ORGANIZACION AUTORIZADA","MENOR O IGUAL A 2500 USUARIOS"
"CAUCA","SOTARA","ASEO","OPERATIVA","URBASER POPAYAN S.A. E.S.P.","CAUCA","POPAYAN","CARRERA 4 No 2 - 23","8206217","Luz.galvis@urbaser.co","RODRIGO VELASCO MOSQUERA","SOCIEDADES (EMPRESA DE SERVICIOS PUBLICOS)","MAYOR O IGUAL A 5001 USUARIOS"
"CAUCA","SOTARA","ACUEDUCTO","OPERATIVA","ASOCIACIÓN DE USUARIOS DE ACUEDUCTO LA POBLACEÑA","CAUCA","SOTARA","VEREDA LA POBLACEÑA","3122014","benavidesalexander@yahoo.es","ALEXANDER BENAVIDES  BOLANOS","ORGANIZACION AUTORIZADA","MENOR O IGUAL A 2500 USUARIOS"
"CAUCA","SOTARA","ACUEDUCTO","OPERATIVA","ASOCIACION ACUEDUCTO RURAL DE RIONEGRO","CAUCA","POPAYAN","Centro Múltiple- salón comunal","0000000","aarrpopayan@yahoo.com","BRANDO JOSE VELASCO OBANDO","ORGANIZACION AUTORIZADA","MENOR O IGUAL A 2500 USUARIOS"
"CAUCA","SUAREZ","ALCANTARILLADO","OPERATIVA","EMPRESA MUNICIPAL DE SERVICIOS PUBLICOS DE SUAREZ E.S.P.","CAUCA","SUAREZ","Carrera 3 No. 3 - 126 Barrio los Almendros","3145092","emsuarez@suarez-cauca.gov.co","JULIAN VALDES CASTRO","EMPRESA INDUSTRIAL Y COMERCIAL DEL ESTADO","MENOR O IGUAL A 2500 USUARIOS"
"CAUCA","SUAREZ","ACUEDUCTO","OPERATIVA","EMPRESA MUNICIPAL DE SERVICIOS PUBLICOS DE SUAREZ E.S.P.","CAUCA","SUAREZ","Carrera 3 No. 3 - 126 Barrio los Almendros","3145092","emsuarez@suarez-cauca.gov.co","JULIAN VALDES CASTRO","EMPRESA INDUSTRIAL Y COMERCIAL DEL ESTADO","MENOR O IGUAL A 2500 USUARIOS"
"CAUCA","SUAREZ","ASEO","OPERATIVA","EMPRESA MUNICIPAL DE SERVICIOS PUBLICOS DE SUAREZ E.S.P.","CAUCA","SUAREZ","Carrera 3 No. 3 - 126 Barrio los Almendros","3145092","emsuarez@suarez-cauca.gov.co","JULIAN VALDES CASTRO","EMPRESA INDUSTRIAL Y COMERCIAL DEL ESTADO","MENOR O IGUAL A 2500 USUARIOS"
"CAUCA","SUAREZ","ASEO","OPERATIVA","URBASER POPAYAN S.A. E.S.P.","CAUCA","POPAYAN","CARRERA 4 No 2 - 23","8206217","Luz.galvis@urbaser.co","RODRIGO VELASCO MOSQUERA","SOCIEDADES (EMPRESA DE SERVICIOS PUBLICOS)","MAYOR O IGUAL A 5001 USUARIOS"
"CAUCA","SUAREZ","ASEO","OPERATIVA","INTERASEO DEL VALLE S.A.S. E.S.P.",,,,,,"JUAN MANUEL GOMEZ MEJIA","SOCIEDADES (EMPRESA DE SERVICIOS PUBLICOS)","MAYOR O IGUAL A 5001 USUARIOS"
"CAUCA","SUCRE","ACUEDUCTO","OPERATIVA","MUNICIPIO DE SUCRE","CAUCA","SUCRE","CARRERA 2 No 1-19 BARRIO CENTRO","8272815","alfonsosucre21@yahoo.es","GILDARDO HOYOS HOYOS","MUNICIPIO (PRESTACIÓN DIRECTA)","HASTA 2500 SUSCRIPTORES"
"CAUCA","SUCRE","ALCANTARILLADO","OPERATIVA","MUNICIPIO DE SUCRE","CAUCA","SUCRE","CARRERA 2 No 1-19 BARRIO CENTRO","8272815","alfonsosucre21@yahoo.es","GILDARDO HOYOS HOYOS","MUNICIPIO (PRESTACIÓN DIRECTA)","HASTA 2500 SUSCRIPTORES"
"CAUCA","SUCRE","ASEO","OPERATIVA","MUNICIPIO DE SUCRE","CAUCA","SUCRE","CARRERA 2 No 1-19 BARRIO CENTRO","8272815","alfonsosucre21@yahoo.es","GILDARDO HOYOS HOYOS","MUNICIPIO (PRESTACIÓN DIRECTA)","HASTA 2500 SUSCRIPTORES"
"CAUCA","SUCRE","ACUEDUCTO","OPERATIVA","ASOCIACION DE USUARIOS DE SERVICIOS PUBLICOS AAA DE SUCRE CAUCA","CAUCA","SUCRE","CRA 4 No 2- 25 Barrio Estudiantil","8272815","aaasucre@gmail.com","JHENIFER MARITZA VEGA DAZA","ORGANIZACION AUTORIZADA","HASTA 2500 SUSCRIPTORES"
"CAUCA","SUCRE","ALCANTARILLADO","OPERATIVA","ASOCIACION DE USUARIOS DE SERVICIOS PUBLICOS AAA DE SUCRE CAUCA","CAUCA","SUCRE","CRA 4 No 2- 25 Barrio Estudiantil","8272815","aaasucre@gmail.com","JHENIFER MARITZA VEGA DAZA","ORGANIZACION AUTORIZADA","HASTA 2500 SUSCRIPTORES"
"CAUCA","SUCRE","ASEO","OPERATIVA","ASOCIACION DE USUARIOS DE SERVICIOS PUBLICOS AAA DE SUCRE CAUCA","CAUCA","SUCRE","CRA 4 No 2- 25 Barrio Estudiantil","8272815","aaasucre@gmail.com","JHENIFER MARITZA VEGA DAZA","ORGANIZACION AUTORIZADA","HASTA 2500 SUSCRIPTORES"
"CAUCA","SUCRE","ASEO","OPERATIVA","ACUEDUCTO ALCANTARILLADO Y ASEO DE SUCRE S.A. E.S.P.","CAUCA","SUCRE","carrera 2 No 1-21","8701801","aaasucre@gmail.com","OSCAR MARINO MAYORGA HOYOS","SOCIEDADES (EMPRESA DE SERVICIOS PUBLICOS)","HASTA 2500 SUSCRIPTORES"
"CAUCA","SUCRE","ASEO","OPERATIVA","AGUAS DE SUCRE CAUCA EMPRESA DE SERVICIOS PUBLICOS SOCIEDAD POR ACCIONES SIMPLIFICADAS","CAUCA","SUCRE","ALCALDIA MUNICIPAL DE SUCRE CAUCA","8338799","aguasdesucre.sas@hotmail.com","ANA DEISY MENESES BURBANO","SOCIEDADES (EMPRESA DE SERVICIOS PUBLICOS)","MENOR O IGUAL A 2500 USUARIOS"
"CAUCA","SUCRE","ACUEDUCTO","OPERATIVA","AGUAS DE SUCRE CAUCA EMPRESA DE SERVICIOS PUBLICOS SOCIEDAD POR ACCIONES SIMPLIFICADAS","CAUCA","SUCRE","ALCALDIA MUNICIPAL DE SUCRE CAUCA","8338799","aguasdesucre.sas@hotmail.com","ANA DEISY MENESES BURBANO","SOCIEDADES (EMPRESA DE SERVICIOS PUBLICOS)","MENOR O IGUAL A 2500 USUARIOS"
"CAUCA","SUCRE","ALCANTARILLADO","OPERATIVA","AGUAS DE SUCRE CAUCA EMPRESA DE SERVICIOS PUBLICOS SOCIEDAD POR ACCIONES SIMPLIFICADAS","CAUCA","SUCRE","ALCALDIA MUNICIPAL DE SUCRE CAUCA","8338799","aguasdesucre.sas@hotmail.com","ANA DEISY MENESES BURBANO","SOCIEDADES (EMPRESA DE SERVICIOS PUBLICOS)","MENOR O IGUAL A 2500 USUARIOS"
"CAUCA","SUCRE","ACUEDUCTO","OPERATIVA","ACUEDUCTO ALCANTARILLADO Y ASEO DE SUCRE S.A. E.S.P.","CAUCA","SUCRE","carrera 2 No 1-21","8701801","aaasucre@gmail.com","OSCAR MARINO MAYORGA HOYOS","SOCIEDADES (EMPRESA DE SERVICIOS PUBLICOS)","HASTA 2500 SUSCRIPTORES"
"CAUCA","TIMBIO","ACUEDUCTO","OPERATIVA","ASOCIACION ACUEDUCTO RURAL DE RIONEGRO","CAUCA","POPAYAN","Centro Múltiple- salón comunal","0000000","aarrpopayan@yahoo.com","BRANDO JOSE VELASCO OBANDO","ORGANIZACION AUTORIZADA","MENOR O IGUAL A 2500 USUARIOS"
"CAUCA","TIMBIO","ACUEDUCTO","OPERATIVA","ASOCACION DE USUARIOS DEL ACUEDUCTO RURAL LAS CRUCES","CAUCA","TIMBIO","VEREDA LAS CRUCES TIMBIO CAUCA","8278460","ASUACRUCES@GMAIL.COM","LILIAN ELENA MANZANO DELGADO","ORGANIZACION AUTORIZADA","MENOR O IGUAL A 2500 USUARIOS"
"CAUCA","TIMBIO","ACUEDUCTO","OPERATIVA","ASOCIACION DE USUARIOS DEL ACUEDUCTO RURAL BRISAS DEL PARAMILLO","CAUCA","TIMBIO","VEREDA EL ENCENILLO TIMBIO CAUCA","8279250","paramillotimbio@yahoo.com.mx","JULIO CESAR AYALA","ORGANIZACION AUTORIZADA","HASTA 2500 SUSCRIPTORES"
"CAUCA","TIMBIO","ACUEDUCTO","OPERATIVA","ASOCIACIÒN DE USUARIOS DEL ACUEDUCTO REGIONAL INTEGRADO EL HIGUERÓN GUAYABAL","CAUCA","TIMBIO","antonmoreno","8243880","higuerong@gmail.com","GLORIA AMALIA CUELLAR URIBE","ORGANIZACION AUTORIZADA","MENOR O IGUAL A 2500 USUARIOS"
"CAUCA","TIMBIO","ACUEDUCTO","OPERATIVA","ASOCIACION DE USUARIOS DE EL ACUEDUCTO LAS YESCAS","CAUCA","TIMBIO","VEREDA LAS YESCAS TIMBIO CAUCA","8278538","lasyescastimbio@yahoo.com.mx","LORENZO TORRES","ORGANIZACION AUTORIZADA","HASTA 2500 SUSCRIPTORES"
"CAUCA","TIMBIO","ASEO","OPERATIVA","URBASER POPAYAN S.A. E.S.P.","CAUCA","POPAYAN","CARRERA 4 No 2 - 23","8206217","Luz.galvis@urbaser.co","RODRIGO VELASCO MOSQUERA","SOCIEDADES (EMPRESA DE SERVICIOS PUBLICOS)","MAYOR O IGUAL A 5001 USUARIOS"
"CAUCA","TIMBIO","ASEO","OPERATIVA","EMPRESA MUNICIPAL DE SERVICIOS PUBLICOS DE TIMBIO CAUCA E.S.P.","CAUCA","TIMBIO","Calle 17 NO. 19-24","8278937","emtiembioesp@emtimbioesp.gov.co","ADRIANA YICEL SARRIA ALEGRIA","EMPRESA INDUSTRIAL Y COMERCIAL DEL ESTADO","DESDE 2501 HASTA 5000 USUARIOS"
"CAUCA","TIMBIO","ALCANTARILLADO","OPERATIVA","EMPRESA MUNICIPAL DE SERVICIOS PUBLICOS DE TIMBIO CAUCA E.S.P.","CAUCA","TIMBIO","Calle 17 NO. 19-24","8278937","emtiembioesp@emtimbioesp.gov.co","ADRIANA YICEL SARRIA ALEGRIA","EMPRESA INDUSTRIAL Y COMERCIAL DEL ESTADO","DESDE 2501 HASTA 5000 USUARIOS"
"CAUCA","TIMBIO","ACUEDUCTO","OPERATIVA","EMPRESA MUNICIPAL DE SERVICIOS PUBLICOS DE TIMBIO CAUCA E.S.P.","CAUCA","TIMBIO","Calle 17 NO. 19-24","8278937","emtiembioesp@emtimbioesp.gov.co","ADRIANA YICEL SARRIA ALEGRIA","EMPRESA INDUSTRIAL Y COMERCIAL DEL ESTADO","DESDE 2501 HASTA 5000 USUARIOS"
"CAUCA","TIMBIO","ACUEDUCTO","OPERATIVA","ASOCIACION DE USUARIOS DEL ACUEDUCTO RURAL EL SALADITO DE TIMBIO CAUCA","CAUCA","TIMBIO","CARRERA 21 No 9A-49 BARRIO EL ARADO","8279334","saladitotimbio@yahoo.com.mx","EDIVER MENESES NARVAEZ","ORGANIZACION AUTORIZADA","MENOR O IGUAL A 2500 USUARIOS"
"CAUCA","TIMBIO","ASEO","OPERATIVA","ASOCIACION DE RECICLADORES DE OFICIO GOLEROS","CAUCA","POPAYAN","Cl 2A #29-04","8337600","paula23co@hotmail.com","JHONNATAN ANTONIO MAMIAN JIMENEZ","ORGANIZACION AUTORIZADA","MAYOR O IGUAL A 5001 USUARIOS"
"CAUCA","TIMBIO","ACUEDUCTO","OPERATIVA","ASOCIACION REGIONAL DEL ACUEDUCTO SACHACOCO","CAUCA","TIMBIO","CARRERA 22 No. 19-31 BARRIO SAN JUDAS","8278538","sachacocotimbio@hotmail.com","JESUS MAURICIO RODRIGUEZ LOPEZ","ORGANIZACION AUTORIZADA","DESDE 2501 HASTA 5000 USUARIOS"
"CAUCA","TIMBIO","ACUEDUCTO","OPERATIVA","ASOCIACION DE USUARIOS DEL ACUEDUCTO RURAL AIRES DEL CAMPO DE TIMBIO CAUCA","CAUCA","TIMBIO","VEREDA CAMPOSANO MUNICIPIO DE TIMBIO CAUCA","8238284","kelly2216-@hotmail.com","KELLY MANZANO  ALEGRIA","ORGANIZACION AUTORIZADA","MENOR O IGUAL A 2500 USUARIOS"
"CAUCA","TIMBIQUI","ACUEDUCTO","OPERATIVA","COOPERATIVA DE SERVICIOS PUBLICOS DE TIMBIQUI","CAUCA","TIMBIQUI","TIMBIQUI","8403005","yogohe78@yahoo.es","YOLIMA GOMEZ  HERRERA","ORGANIZACION AUTORIZADA","HASTA 2500 SUSCRIPTORES"
"CAUCA","TIMBIQUI","ALCANTARILLADO","OPERATIVA","COOPERATIVA DE SERVICIOS PUBLICOS DE TIMBIQUI","CAUCA","TIMBIQUI","TIMBIQUI","8403005","yogohe78@yahoo.es","YOLIMA GOMEZ  HERRERA","ORGANIZACION AUTORIZADA","HASTA 2500 SUSCRIPTORES"
"CAUCA","TIMBIQUI","ASEO","OPERATIVA","COOPERATIVA DE SERVICIOS PUBLICOS DE TIMBIQUI","CAUCA","TIMBIQUI","TIMBIQUI","8403005","yogohe78@yahoo.es","YOLIMA GOMEZ  HERRERA","ORGANIZACION AUTORIZADA","HASTA 2500 SUSCRIPTORES"
"CAUCA","TORIBIO","ALCANTARILLADO","OPERATIVA","ASOCIACION DE USUARIOS DE LOS SERVICIOS DE ACUEDUCTO ALCANTARILLADO Y ASEO DEL MUNICIPIO DE TORIBIO","CAUCA","TORIBIO","CARRERA 3 No 5 - 29 BARRIO LA UNION","8498281","acuedtoribio@hotmail.com","LUIS ABEL GALVIS FERNANDEZ","ORGANIZACION AUTORIZADA","HASTA 2500 SUSCRIPTORES"
"CAUCA","TORIBIO","ASEO","OPERATIVA","MUNICIPIO DE TORIBIO","CAUCA","TORIBIO","Plaza Principal","8498281","maurorealpe973@hotmail.com","CARLOS ALBERTO BANGUERO HENAO","MUNICIPIO (PRESTACIÓN DIRECTA)","HASTA 2500 SUSCRIPTORES"
"CAUCA","TORIBIO","ACUEDUCTO","OPERATIVA","ASOCIACION DE USUARIOS DE LOS SERVICIOS DE ACUEDUCTO ALCANTARILLADO Y ASEO DEL MUNICIPIO DE TORIBIO","CAUCA","TORIBIO","CARRERA 3 No 5 - 29 BARRIO LA UNION","8498281","acuedtoribio@hotmail.com","LUIS ABEL GALVIS FERNANDEZ","ORGANIZACION AUTORIZADA","HASTA 2500 SUSCRIPTORES"
"CAUCA","TORIBIO","ACUEDUCTO","OPERATIVA","ASOCIACIÓN DE USUARIOS DEL ACUEDUCTO VEREDAL ALTO DE LA CRUZ","CAUCA","TORIBIO","Alto de la Cruz","8498281","contactenos@toribio-cauca.gov.co","JOSE RODRIGO CAMPO NOSCUE","ORGANIZACION AUTORIZADA","HASTA 2500 SUSCRIPTORES"
"CAUCA","TOTORO","ACUEDUCTO","OPERATIVA","ADMINISTRACIÓN PUBLICA COOPERATIVA DE ACUEDUCTO ALCANTARILLADO Y ASEO   DE TOTORO","CAUCA","TOTORO","Calle 3 No.5-25","0000000","apctotoro@hotmail.com","MARCO ALBEIRO ORDONEZ MUNOZ","ORGANIZACION AUTORIZADA","MENOR O IGUAL A 2500 USUARIOS"
"CAUCA","TOTORO","ASEO","OPERATIVA","ASOCIACION DE RECICLADORES DE OFICIO GOLEROS","CAUCA","POPAYAN","Cl 2A #29-04","8337600","paula23co@hotmail.com","JHONNATAN ANTONIO MAMIAN JIMENEZ","ORGANIZACION AUTORIZADA","MAYOR O IGUAL A 5001 USUARIOS"
"CAUCA","TOTORO","ASEO","OPERATIVA","URBASER POPAYAN S.A. E.S.P.","CAUCA","POPAYAN","CARRERA 4 No 2 - 23","8206217","Luz.galvis@urbaser.co","RODRIGO VELASCO MOSQUERA","SOCIEDADES (EMPRESA DE SERVICIOS PUBLICOS)","MAYOR O IGUAL A 5001 USUARIOS"
"CAUCA","TOTORO","ACUEDUCTO","OPERATIVA","COOPERATIVA DE ACUEDUCTO Y ALCANTARILLADO MANANTIAL TOTOREÑO","CAUCA","TOTORO","CALLE 2 No 6A - 83","8275125","stediale.ortega@gmail.com","LUZ STELLA ORTEGA SANCHEZ","ORGANIZACION AUTORIZADA","HASTA 2500 SUSCRIPTORES"
"CAUCA","TOTORO","ALCANTARILLADO","OPERATIVA","ADMINISTRACIÓN PUBLICA COOPERATIVA DE ACUEDUCTO ALCANTARILLADO Y ASEO   DE TOTORO","CAUCA","TOTORO","Calle 3 No.5-25","0000000","apctotoro@hotmail.com","MARCO ALBEIRO ORDONEZ MUNOZ","ORGANIZACION AUTORIZADA","MENOR O IGUAL A 2500 USUARIOS"
"CAUCA","TOTORO","ASEO","OPERATIVA","ADMINISTRACIÓN PUBLICA COOPERATIVA DE ACUEDUCTO ALCANTARILLADO Y ASEO   DE TOTORO","CAUCA","TOTORO","Calle 3 No.5-25","0000000","apctotoro@hotmail.com","MARCO ALBEIRO ORDONEZ MUNOZ","ORGANIZACION AUTORIZADA","MENOR O IGUAL A 2500 USUARIOS"
"CAUCA","VILLA RICA","ASEO","OPERATIVA","SOLUCIONES INTEGRALES DE PROCESOS ECOLÓGICOS SOCIEDAD POR ACCIONES SIMPLIFICADAS EMPRESA DE SERVICIOS PUBLICOS","CAUCA","VILLA RICA","ZONA FRANCA PERMANENTE CONJUNTO INDUSTRIAL PARQUE SUR LT 9","5552271","gerencia@sipcozf.com.co","JUAN DAVID  IRAGORRI LOZANO","SOCIEDADES (EMPRESA DE SERVICIOS PUBLICOS)","MENOR O IGUAL A 2500 USUARIOS"
"CAUCA","VILLA RICA","ACUEDUCTO","OPERATIVA","EMPRESA DE SERVICIOS PUBLICOS EMVILLARRICA E.S.P.","CAUCA","VILLA RICA","CARRERA 4 No. 2A-10","8486048","anapaty@hotmail.com","ANA PATRICIA LASSO ZAPATA","EMPRESA INDUSTRIAL Y COMERCIAL DEL ESTADO","HASTA 2500 SUSCRIPTORES"
"CAUCA","VILLA RICA","ALCANTARILLADO","OPERATIVA","EMPRESA DE SERVICIOS PUBLICOS EMVILLARRICA E.S.P.","CAUCA","VILLA RICA","CARRERA 4 No. 2A-10","8486048","anapaty@hotmail.com","ANA PATRICIA LASSO ZAPATA","EMPRESA INDUSTRIAL Y COMERCIAL DEL ESTADO","HASTA 2500 SUSCRIPTORES"
"CAUCA","VILLA RICA","ASEO","OPERATIVA","EMPRESA DE SERVICIOS PUBLICOS EMVILLARRICA E.S.P.","CAUCA","VILLA RICA","CARRERA 4 No. 2A-10","8486048","anapaty@hotmail.com","ANA PATRICIA LASSO ZAPATA","EMPRESA INDUSTRIAL Y COMERCIAL DEL ESTADO","HASTA 2500 SUSCRIPTORES"
"CAUCA","VILLA RICA","ACUEDUCTO","OPERATIVA","EMPRESAS PUBLICAS DE ACUEDUCTO, ALCANTARILLADO Y ASEO DE VILLA RICA S.A.  E.S.P.","CAUCA","VILLA RICA","CALLE 5 Nº 6 -27 BARRIO LOS ALMENDROS","8486048","empuvillasaesp517@hotmail.com","DINACELLY MERA VIAFARA","SOCIEDADES (EMPRESA DE SERVICIOS PUBLICOS)","MENOR O IGUAL A 2500 USUARIOS"
"CAUCA","VILLA RICA","ACUEDUCTO","EN PROCESO DE LIQUIDACION","EMPRESA DE ACUEDUCTO Y ALCANTARILLADO DEL RIO PALO SOCIEDAD POR ACCIONES E.S.P. EN LIQUIDACION","CAUCA","VILLA RICA","CALLE 2 1 139","8486421","miltonvel@hotmail.com","MARIA DEL PILAR VILLEGAS MULATO","SOCIEDADES (EMPRESA DE SERVICIOS PUBLICOS)","MAYOR O IGUAL A 5001 USUARIOS"
"CAUCA","VILLA RICA","ALCANTARILLADO","OPERATIVA","EMPRESAS PUBLICAS DE ACUEDUCTO, ALCANTARILLADO Y ASEO DE VILLA RICA S.A.  E.S.P.","CAUCA","VILLA RICA","CALLE 5 Nº 6 -27 BARRIO LOS ALMENDROS","8486048","empuvillasaesp517@hotmail.com","DINACELLY MERA VIAFARA","SOCIEDADES (EMPRESA DE SERVICIOS PUBLICOS)","MENOR O IGUAL A 2500 USUARIOS"
"CAUCA","VILLA RICA","ASEO","OPERATIVA","EMPRESAS PUBLICAS DE ACUEDUCTO, ALCANTARILLADO Y ASEO DE VILLA RICA S.A.  E.S.P.","CAUCA","VILLA RICA","CALLE 5 Nº 6 -27 BARRIO LOS ALMENDROS","8486048","empuvillasaesp517@hotmail.com","DINACELLY MERA VIAFARA","SOCIEDADES (EMPRESA DE SERVICIOS PUBLICOS)","MENOR O IGUAL A 2500 USUARIOS"
"CAUCA","VILLA RICA","ACUEDUCTO","CANCELACION","MUNICIPIO DE VILLARICA CAUCA","CAUCA","VILLA RICA","Calle 2 No 1 - 187","8486212","alcaldia@villarica-cauca.gov.co","JENNY NAIR GOMEZ",,
"CAUCA","VILLA RICA","ALCANTARILLADO","CANCELACION","MUNICIPIO DE VILLARICA CAUCA","CAUCA","VILLA RICA","Calle 2 No 1 - 187","8486212","alcaldia@villarica-cauca.gov.co","JENNY NAIR GOMEZ",,
"CAUCA","VILLA RICA","ASEO","OPERATIVA","INTERASEO DEL VALLE S.A.S. E.S.P.",,,,,,"JUAN MANUEL GOMEZ MEJIA","SOCIEDADES (EMPRESA DE SERVICIOS PUBLICOS)","MAYOR O IGUAL A 5001 USUARIOS"
"CAUCA","VILLA RICA","ASEO","CANCELACION","MUNICIPIO DE VILLARICA CAUCA","CAUCA","VILLA RICA","Calle 2 No 1 - 187","8486212","alcaldia@villarica-cauca.gov.co","JENNY NAIR GOMEZ",,
