"departamento","municipio","codigo_prestador","nombre_prestador","codigo_abilitacion","numero_sede","nombre","gerente","tipo_zona","direccion","barrio","cepo_codigo","centro_poblado","telefono","fax","email","fecha_apertura","fecha_cierre","nits_nit","dv","clase_persona","naju_codigo","naturaleza","clpr_codigo","clase_prestador"
"Chocó","ACANDÍ","2700100834","ABRAZAR ATENCION MEDICA DEL PACIFICO S.A.S.","2700600834","2","ABRAZAR ATENCIÓN MEDICA DEL PACIFICO S.A.S","Ovidio Garrido Cordoba","URBANA","CALLE POLICARPA","LOS LIBERTADORES",,,"3.117479665E9",,"abrazarips@gmail.com","20190814",,"900552157","0.0","JURIDICO","1.0","Privada","1.0","Instituciones - IPS"
"Chocó","ACANDÍ","2700101075","MEDICHOCO IPS S.A.S","2700601075","3","MEDICHOCO IPS S.A.S","CIRO YACCI MENDOZA HINESTROZA","URBANA","CRA 4 N° 9-27","CONSISTORIAL","27006000","ACANDÍ","3.21641726E9",,"medicho5801@gmali.com","20190726",,"900881965","6.0","JURIDICO","1.0","Privada","1.0","Instituciones - IPS"
"Chocó","ACANDÍ","2700101140","FUNDACIÓN SANTA SOFIA DE ASIS","2700601140","2","FUNDACIÓN SANTA SOFIA DE ASIS","PATRICIA CAROLINA PEREA RENTERIA","URBANA","FRENTE AL HOSPITAL LASCARIO BARBOSA AVENDAÑO",,"27006000","ACANDÍ","9.46720285E8",,"fundacionsantasofiadeasis@gmail.com","20171219",,"901035250","4.0","JURIDICO","1.0","Privada","1.0","Instituciones - IPS"
"Chocó","ACANDÍ","2700601062","POLO SALUD IPS","2700601062","1","POLO SALUD IPS","NARCIZA JULIO POLO","URBANA","CALLE QUIBDO AV LA PLAYA","CALLE QUIBDO",,,"3.185172969E9","3136580181","polosalud@hotmail.com","20170804",,"900436203","5.0","JURIDICO","1.0","Privada","1.0","Instituciones - IPS"
"Chocó","ACANDÍ","2749100928","UNIDAD MEDICA ESPIRITU SANTO E. U.","2700600928","3","UNIDAD MEDICA ESPIRITUD SANTO E.U.","AULIO HERNAN LOZANO CAÑADAS","URBANA","DIAGONAL A LA ALCALDIA","CONSISTORIAL","27006003","CAPURGANÁ","3.108954673E9",,"unidadmedicaespiritu@hotmail.com","20190219",,"818001360","9.0","JURIDICO","1.0","Privada","1.0","Instituciones - IPS"
"Chocó","ALTO BAUDO","2700100390","IPS ERCHICHI JAI E.U.","2702500390","4","IPS ERCHICHI JAI ALTO BAUDO","PLINIO MECHA HACHITO","RURAL","RESGUARDO INDIGENA CATRU DUBASA Y ANCOSO","CATRU DUBASA Y ANCOSO","27025005","DUBAZA","3.217907591E9",,"erchichijaiipsindigena@gmail.com","20180423",,"900144266","5.0","JURIDICO","1.0","Privada","1.0","Instituciones - IPS"
"Chocó","ALTO BAUDO","2700100869","Fundacion Despertar Choco","2702500869","4","Fundacion Despertar Choco","MARIA YOHANA ARBOLEDA MURILLO","URBANA","CALLE PRINCIPAL","EL CARMELO","27025000","PIE DE PATO","3.206783508E9","6715561.0","arysto3@hotmail.com","20170721",,"900572393","8.0","JURIDICO","1.0","Privada","1.0","Instituciones - IPS"
"Chocó","ALTO BAUDO","2700101087","DAUBARA SALUD IPS S.A.S.","2702501087","2","DAUBARA SALUD IPS S.A.S.","ELICIO DE JESUS CAISAMO ISARAMA","RURAL","KATRU","KATRU","27025008","SANTA CATALINA","3.147741489E9",,"daubarasaludips@hotmail.com","20161212",,"900725702","9.0","JURIDICO","1.0","Privada","1.0","Instituciones - IPS"
"Chocó","ALTO BAUDO","2700101124","Asociación Megasalud","2702501124","4","ASOMEGASALUD","Gladys Bazan Aguilar","URBANA","B/ Lucitania","Lucitania","27025000","PIE DE PATO","6723518.0",,"asomegasalud2013@gmail.com","20190207",,"900088061","2.0","JURIDICO","1.0","Privada","4.0","Objeto Social Diferente a la Prestación de Servicios de Salud"
"Chocó","ALTO BAUDO","2702500657","I.P.S CUIDAR ES SALUD S.A.S","2702500657","1","I.P.S CUIDAR ES SALUD S.A.S","luis carlos cabrera palacios","URBANA","FRENTE AL CENTRO DE SALUD","BARRIO EL CARMELO","27025000","PIE DE PATO","3.207441866E9",,"ipscuidar.es.salud@hotmail.com","20170921",,"900424721","7.0","JURIDICO","1.0","Privada","1.0","Instituciones - IPS"
"Chocó","ALTO BAUDO","2702501195","SALUD PARA TODOS CHOCO IPS S.A.S","2702501195","1","SALUD PARA TODOS CHOCO IPS S.A.S","DIANA LEIVI ROJAS MOSQUERA","URBANA","CATRU CALLE PRINCIPAL","CATRU","27025005","DUBAZA","3.207291178E9",,"saludparatodoschocoipssas@hotmail.com","20180411",,"901152666","5.0","JURIDICO","1.0","Privada","1.0","Instituciones - IPS"
"Chocó","ALTO BAUDO","2707700324","FUNDACIÓN SOLIDARIA DEL BAJO BAUDO IPS","2702500324","2","FUNDACIÓN SOLIDARIA DEL BAJO BAUDO IPS","JOSE ISABEL JARAMILLO CORDOBA","RURAL","ALTO BAUDO","PIE DE PATO","27025000","PIE DE PATO","3.216419919E9",,"funsobabb@hotmail.com","20120410",,"818001478","9.0","JURIDICO","1.0","Privada","1.0","Instituciones - IPS"
"Chocó","ALTO BAUDO","2707700324","FUNDACIÓN SOLIDARIA DEL BAJO BAUDO IPS","2702500324","3","CENTRO DE SALUD ALTO BAUDO","JOSE ISABEL JARAMILLO CORDOBA","RURAL","CENTRO DE SALUD ALTO BAUDO",,"27025000","PIE DE PATO","3.216419919E9",,"pabloanto30@hotmail.com","20121113",,"818001478","9.0","JURIDICO","1.0","Privada","1.0","Instituciones - IPS"
"Chocó","ALTO BAUDO","2736101107","DIOCESIS ISTMINA-TADO","2702501107","7","RECUPERACIÓN NUTRICIONAL CON ENFOQUE CLINICO ALTO BAUDO","Luis Guillermo Palacios","RURAL","alto baudo","pie de pato","27025000","PIE DE PATO","3.206974621E9",,"gcielo_paola@hotmail.com","20160927",,"891680186","0.0","JURIDICO","1.0","Privada","4.0","Objeto Social Diferente a la Prestación de Servicios de Salud"
"Chocó","ATRATO","2700100636","IPS SALUD PROTEGIDA E.U","2705000636","4","IPS SALUD PROTEGIDA","ROSA ELENA MOSQUERA MOSQUERA","URBANA","YUTO NUEVO","YUTO NUEVO","27050000","YUTO","3.185149051E9",,"IPSSALUDPROTEGIDA@HOTMAIL.COM","20190212",,"900037648","7.0","JURIDICO","1.0","Privada","1.0","Instituciones - IPS"
"Chocó","ATRATO","2705000328","SALUD FAMILIAR ATRATO IPS LTDA","2705000328","1","SALUD FAMILIAR ATRATO IPS LTDA","HERNANDO ORTIZ PALACIOS","RURAL","ATRATO","BARRIO SANTANDER AVENIDA PRINCIPAL","27050000","YUTO","3.137457957E9",,"saludfamiliaratratoips@yahoo.es","20130404",,"900201593","3.0","JURIDICO","1.0","Privada","1.0","Instituciones - IPS"
"Chocó","BAGADÓ","2700100636","IPS SALUD PROTEGIDA E.U","2707300636","3","IPS SALUD PROTEGIDA SEDE BAGADO","ROSA ELENA MOSQUERA MOSQUERA","URBANA","CENTRO DE SALUD BAGADO","CENTRO DE SALUD BAGADO","27073000","BAGADÓ","3.185149051E9",,"ODONTORROSAMM@HOTMAIL.COM","20171229",,"900037648","7.0","JURIDICO","1.0","Privada","1.0","Instituciones - IPS"
"Chocó","BAGADÓ","2707300698","Santa IPS Indigena","2707300698","1","Atención Medica Santa Cecilia","JHON HEDIER TERAN HINESTROZA","RURAL","Comunidad Indigena Aguasal","Aguasal","27073001","AGUASAL","3.138699036E9",,"jhon_theran@hotmail.com","20150527",,"900146676","0.0","JURIDICO","1.0","Privada","1.0","Instituciones - IPS"
"Chocó","BAGADÓ","2707300698","Santa IPS Indigena","2707300698","2","ATENCION MEDICA BAGADO","JHON HEDIER TERAN HINESTROZA","URBANA","BARRIO SAN MARTÍN DE PORRAS","BARRIO SAN MARTÍN DE PORRAS","27073000","BAGADÓ","3.138699036E9","6723700.0","JHONJHON_THERAN@HOTMAIL.COM","20180130",,"900146676","0.0","JURIDICO","1.0","Privada","1.0","Instituciones - IPS"
"Chocó","BAGADÓ","2707301041","FUNMELLOCO IPS","2707301041","1","FUNMELLOCO IPS","LUISA IDALIA LLOREDA GRACIA","URBANA","BARRIO LAS PALMERAS","BARRIO LAS PALMERAS","27073000","BAGADÓ","3134009455-6720730",,"funafrocolombianafunmelloco@yahoo.com","20160713",,"900359029","1.0","JURIDICO","1.0","Privada","1.0","Instituciones - IPS"
"Chocó","BAGADÓ","2736101107","DIOCESIS ISTMINA-TADO","2707301107","11","OFICINA RECUPERACION NUTRICIONAL CON ENFOQUE COMUNITARIO BAGADO","LUIS GUILLERMO PALACIOS TORRES","URBANA","CABECERA MUNICIPAL","CABECERA MUNICIPAL",,,"3128538584-3206974621",,"LUIS_GUILLERMO_29@HOTMAIL.COM","20160610",,"891680186","0.0","JURIDICO","1.0","Privada","4.0","Objeto Social Diferente a la Prestación de Servicios de Salud"
"Chocó","BAHÍA SOLANO","2700100071","CAJA DE COMPENSACION FAMILIAR DEL CHOCO","2707500071","25","COMFACHOCO - HOSPITAL JULIO FIGUEROA VILLA","YOLANDA RENTERIA CUESTA","URBANA","HOSPITAL JULIO FIGUEROA VILLA BAHIA SOLANO","BARRIO EL CARMEN","27075000","MÚTIS","3.122469794E9","6711596.0","comfachoco@comfachoco.com.co","20170101",,"891600091","8.0","JURIDICO","1.0","Privada","1.0","Instituciones - IPS"
"Chocó","BAHÍA SOLANO","2700101075","MEDICHOCO IPS S.A.S","2707501075","6","MEDICHOCO IPS S.A.S","CIRO YACCI MENDOZA HINESTROZA","URBANA","CRA 4 N° 3-15","FIGUEROA CASTRO","27075000","MÚTIS","3.143959762E9",,"medicho5801@gmali.com","20190726",,"900881965","6.0","JURIDICO","1.0","Privada","1.0","Instituciones - IPS"
"Chocó","BAHÍA SOLANO","2707500111","ALVARO RAFAEL BUELVAS CONTRERAS","2707500111","1","ALVARO RAFAEL BUELVAS CONTRERAS",,"RURAL","AVENIDA LOS DELFINES","BARRIO EL CARMEN",,,"321 7244752",,"vasbuel@yahoo.es","20180705",,"92499142","4.0","NATURAL","1.0","Privada","2.0","Profesional Independiente"
"Chocó","BAHÍA SOLANO","2707500929","CLINILAB LABORATORIO CLINICO S.A.S","2707500929","1","CLINILAB LABORATORIO CLINICO BAHIA SOLANO","Miguel Delio Montes Montes","URBANA","SI","Barrio Fillo Castro","27075000","MÚTIS","3.147989105E9",,"migue182011@hotmail.com","20171124",,"900574893","8.0","JURIDICO","1.0","Privada","1.0","Instituciones - IPS"
"Chocó","BAHÍA SOLANO","2707501213","yolanda cortes barbosa","2707501213","1","yolanda cortes barbosa",,"URBANA","avenida los delfines","barrio el camen","27075000","MÚTIS","3.133479682E9",,"ycortesba@yahoo.com","20180705",,"51590932",,"NATURAL","1.0","Privada","2.0","Profesional Independiente"
"Chocó","BAJO BAUDÓ","2707700324","FUNDACIÓN SOLIDARIA DEL BAJO BAUDO IPS","2707700324","1","FUNDACIÓN SOLIDARIA DEL BAJO BAUDO","JOSE ISABEL JARAMILLO CORDOBA","URBANA","pizarro",,"27077000","PIZARRO","9.46806104E8",,"funsobabb@hotmail.com","20080301",,"818001478","9.0","JURIDICO","1.0","Privada","1.0","Instituciones - IPS"
"Chocó","BAJO BAUDÓ","2707700324","FUNDACIÓN SOLIDARIA DEL BAJO BAUDO IPS","2707700324","4","CENTRO DE SALUD BAJO BAUDO","JOSE ISABEL JARAMILLO CORDOBA","RURAL","CENTRO DE SALUD PIZARRO",,"27077000","PIZARRO","3.216419919E9",,"pabloanto30@hotmail.com","20121113",,"818001478","9.0","JURIDICO","1.0","Privada","1.0","Instituciones - IPS"
"Chocó","BAJO BAUDÓ","2736101107","DIOCESIS ISTMINA-TADO","2707701107","12","OFICINA RECUPERACION NUTRICIONAL CON ENFOQUE COMUNITARIO BAJO BAUDO","LUIS GUILLERMO PALACIOS TORRES","URBANA","CABECERA MUNICIPAL","CABECERA MUNICIPAL","27077000","PIZARRO","3103849978-3206974621",,"LUIS_GUILLERMO_29@HOTMAIL.COM","20160610",,"891680186","0.0","JURIDICO","1.0","Privada","4.0","Objeto Social Diferente a la Prestación de Servicios de Salud"
"Chocó","BOJAYA","2700100390","IPS ERCHICHI JAI E.U.","2709900390","3","ERICHICHIJAI IPS","ARTURO VALENCIA EVAO","URBANA","BELLAVISTA","BELLAVISTA","27099000","BELLAVISTA","6733456.0",,"erchichijaiipsindigena@gmail.com","20160610",,"900144266","5.0","JURIDICO","1.0","Privada","1.0","Instituciones - IPS"
"Chocó","BOJAYA","2700100643","I.P.S. SERVIMEDICO S.A.S.","2709900643","16","I.P.S SERVIMEDICO S.A.S CENTRO DE SALUD BELLAVISTA","MANUAL JOSE CORRALES CORDOBA","URBANA","BELLAVISTA","BELLAVISTA","27099000","BELLAVISTA","3.127962925E9",,"servimedico@hotmail.com","20141002",,"900206582","5.0","JURIDICO","1.0","Privada","1.0","Instituciones - IPS"
"Chocó","BOJAYA","2709901082","FUNDACION PARA LA ACCION Y EL DESARROLLO INTEGRAL COMUNITARIO","2709901082","1","FUNPADICONG IPS","ANTONIO CALIXTO ALVAREZ MARTINEZ","URBANA","BARRIO LA UNION","BARRIO LA UNION",,,"3.108233757E9",,"funpadicong@yahoo.es","20161020",,"900390534","8.0","JURIDICO","3.0","Mixta","1.0","Instituciones - IPS"
"Chocó","BOJAYA","2713500996","ZUNILDA CORDOBA IPS","2709900996","2","Zunilda Cordoba ips 2","Heandel Rentería Cordoba","URBANA","Calle principal","2 de mayo","27099000","BELLAVISTA","3.104181677E9",,"dr.renteria@live.com","20170719",,"900620222","3.0","JURIDICO","1.0","Privada","1.0","Instituciones - IPS"
"Chocó","BOJAYA","2736101107","DIOCESIS ISTMINA-TADO","2709901107","14","OFICINA RECUPERACION NUTRICIONAL CON ENFOQUE COMUNITARIO BOJAYA","LUIS GUILLERMO PALACIOS TORRES","URBANA","BELLAVISTA","CABECERA MUNICIPAL","27099000","BELLAVISTA","3147768813-3206974621",,"LUIS_GUILLERMO_29@HOTMAIL.COM","20160608",,"891680186","0.0","JURIDICO","1.0","Privada","4.0","Objeto Social Diferente a la Prestación de Servicios de Salud"
"Chocó","CARMEN DEL DARIEN","2700100643","I.P.S. SERVIMEDICO S.A.S.","2715000643","15","I.P.S SERVIMEDICO S.A.S CARMEN DEL DARIEN","MANUAL JOSE CORRALES CORDOBA","URBANA","CURBARADO","CURBARADO","27150000","CURBARADÓ","3.127962925E9",,"servimedico@hotmail.com","20141002",,"900206582","5.0","JURIDICO","1.0","Privada","1.0","Instituciones - IPS"
"Chocó","CARMEN DEL DARIEN","2715001005","IPS TRANSPORTE ACUÁTICO K Y M S.A.S","2715001005","1","IPS TRANSPORTE ACUÁTICO K Y M S.A.S","DIOMEDES SALAS MORENO","RURAL","CALLE PRINCIPAL","CENTRO","27150000","CURBARADÓ","3.104142401E9",,"transporteacuaticokym@gmail.com","20190218",,"900512334","7.0","JURIDICO","1.0","Privada","1.0","Instituciones - IPS"
"Chocó","CARMEN DEL DARIEN","2715001108","CONSULSALUD DARIEN SAS","2715001108","1","CONSULSALUD DARIEN","YENESID RENTERIA PALACIOS","URBANA","BARRIO EL JARDIN","JARDIN",,,"3137867838 - 3137864102",,"yenesid@yahoo.es","20170728",,"900779972","2.0","JURIDICO","1.0","Privada","1.0","Instituciones - IPS"
"Chocó","CARMEN DEL DARIEN","2715001207","SALVAMOS VISA ""PAZ"" SAS","2715001207","1","SALVAMOS VIDA LA PAZ","AMERICO PAZ TORRES","URBANA","CURBARADO CABECERA MUNICIPAL CARMEN DEL DARIEN",,"27150000","CURBARADÓ","3.1049673E9",,"americopazto@hotmail.com","20180518",,"901176740","6.0","JURIDICO","1.0","Privada","3.0","Transporte Especial de Pacientes"
"Chocó","CARMEN DEL DARIEN","2736101107","DIOCESIS ISTMINA-TADO","2715001107","9","OFICINA RECUPERACION NUTRICIONAL CON ENFOQUE COMUNITARIO CARMEN DEL DARIEN","LUIS GUILLERMO PALACIOS TORRES","URBANA","CABECERA MUNICIPAL","CABECERA MUNICIPAL",,,"3114314536-3206974621",,"LUIS_GUILLERMO_29@HOTMAIL.COM","20160610",,"891680186","0.0","JURIDICO","1.0","Privada","4.0","Objeto Social Diferente a la Prestación de Servicios de Salud"
"Chocó","CARMEN DEL DARIEN","2761500260","SIGMA SALUD IPS E.U.","2715000260","2","SALUD RIOSUCIO IPS E.U. SEDE CARMEN DEL DARIEN","ELKIN VICENTE RODRIGUEZ DIAZ","URBANA","CALLE PRINCIPAL",,,,"3.216400768E9",,"saludrisucio@hotmail.com","20120409",,"900104461","4.0","JURIDICO","1.0","Privada","1.0","Instituciones - IPS"
"Chocó","CARMEN DEL DARIEN","2761500260","SIGMA SALUD IPS E.U.","2715000260","5","SIGMA SALUD IPS E.U.","Elkin Rodrigues Díaz","URBANA","frente al palacio municipal",,"27150000","CURBARADÓ","3.21780541E9",,"elkinrd@hotmail.com","20170731",,"900104461","4.0","JURIDICO","1.0","Privada","1.0","Instituciones - IPS"
"Chocó","CÉRTEGUI","2781001209","FULTON RONNY ASPRILLA MORENO","2716001209","3","IPS HUMSALUD CERTEGUI","FULTON RONNY ASPRILLA MORENO","URBANA","CARRERA 5 NO 5-75","DIVINO NIÑO","27160000","CÉRTEGUI","3.108519848E9","3117913974","IPSHUMSALUD@GMAIL.COM","20180713",,"900994906","7.0","JURIDICO","1.0","Privada","1.0","Instituciones - IPS"
"Chocó","CONDOTO","2720500085","ESE HOSPITAL SAN JOSE DE CONDOTO","2720500085","1","ESE HOSPITAL SAN JOSE DE CONDOTO","HAILIETH YOARLY YURGAKY JORDAN","URBANA","CARRERA 3 # 11A - 81","EL SALTO",,,"3.10456377E9",,"ger_hsjc2016@oulook.com","20160809",,"891600061","7.0","JURIDICO","4.0","Pública","1.0","Instituciones - IPS"
"Chocó","CONDOTO","2720500333","UNIDAD MEDICA MI SALUD S.A.S.","2720500333","1","UNIDAD MEDICA MISALUD S.A.S","HUGO FERLEY MOSQUERA MOSQUERA","URBANA","CRA 6 Nº 11A09","COMERCIO","27205000","CONDOTO","9.46798035E8","946798421","ipsmisalud@yahoo.es","20140110",,"900212320","7.0","JURIDICO","1.0","Privada","1.0","Instituciones - IPS"
"Chocó","CONDOTO","2720501113","Yanira Del carmen Palacios Andrade","2720501113","1","Yanira Del carmen Palacios Andrade",,"URBANA","carrera 7 #16","comercio","27205000","CONDOTO","3.116089391E9",,"yasmi_1078@hotmail.com","20160705",,"52262306","0.0","NATURAL","1.0","Privada","2.0","Profesional Independiente"
"Chocó","CONDOTO","2720501183","Clinica Integral Bocca IPS S.A.S","2720501183","1","CLINICA INTEGRAL BOCCA IPS S.A.S","HANNIA MALFITANO RENTERIA","URBANA","BARRIO CARRETERA","CARRETERA","27205000","CONDOTO","3.135617793E9",,"hamare1015@hotmail.com","20190719",,"901125246","0.0","JURIDICO","1.0","Privada","1.0","Instituciones - IPS"
"Chocó","EL CANTÓN DEL SAN PABLO","2713500996","ZUNILDA CORDOBA IPS","2713500996","1","PUERTO PERVEL","HEANDEL RENTERÍA CORDOBA","RURAL","PUERTO NUEVO, CALLE PRINCIPAL","CALLE PRINCIPAL",,,"3.104181677E9",,"dr.rentería@live.com","20161018",,"900620222","3.0","JURIDICO","1.0","Privada","1.0","Instituciones - IPS"
"Chocó","EL CANTÓN DEL SAN PABLO","2713501148","fundacion vida y buena salud","2713501148","1","fundacion vida y buena salud","SORAYA PALACIOS","URBANA","CALLE PRINCIPAL","DIVINO NIÑO","27135000","MANAGRÚ","3.103863648E9",,"SORAYAAUDITORIA@GMAIL.COM","20170727",,"901059352","0.0","JURIDICO","1.0","Privada","1.0","Instituciones - IPS"
"Chocó","EL CANTÓN DEL SAN PABLO","2713501149","Jady Julisa Mosquera Palacios","2713501149","1","Jady Julisa Mosquera Palacios",,"URBANA","Diagonal a la Casa de la Cultura","Divino Niño","27135000","MANAGRÚ","3.122562968E9",,"yulisa_mp@hotmail.com","20170418",,"1076325293","0.0","NATURAL","1.0","Privada","2.0","Profesional Independiente"
"Chocó","EL CANTÓN DEL SAN PABLO","2781001209","FULTON RONNY ASPRILLA MORENO","2713501209","5","IPS HUMSALUD CANTON DE SAN PABLO","FULTON RONNY ASPRILLA MORENO","URBANA","CARRERA 5 NO 5-75","DIVINO NIÑO","27135000","MANAGRÚ","3.108519848E9","3117913974","IPSHUMSALUD@GMAIL.COM","20180713",,"900994906","7.0","JURIDICO","1.0","Privada","1.0","Instituciones - IPS"
"Chocó","EL CARMEN DE ATRATO","2724500014","EMPRESA SOCIAL DEL ESTADO HOSPITAL SAN ROQUE","2724500014","1","EMPRESA SOCIAL DEL ESTADO HOSPITAL SAN ROQUE","NATALIA MAZO RIVERA","URBANA","KILOMETRO 1 CARRETERA VIA A LA MINA","VILLA CLARET",,,"6790112 - 6790221 - 6790229",,"esehsanroque@hotmail.com","20110520",,"891680065","8.0","JURIDICO","4.0","Pública","1.0","Instituciones - IPS"
"Chocó","EL CARMEN DE ATRATO","2724501232","MAYERLING ANDREA OLAYA JIMÉNEZ","2724501232","1","MAYERLING ANDREA OLAYA JIMÉNEZ",,"URBANA","CALLE PRINCIPAL","CORAZÓN DE MARÍA","27245000","EL CARMEN DE ATRATO","3.103919309E9",,"mayeolaya@hotmail.com","20190115",,"43201536",,"NATURAL","1.0","Privada","2.0","Profesional Independiente"
"Chocó","EL CARMEN DE ATRATO","2736101107","DIOCESIS ISTMINA-TADO","2724501107","10","OFICINA RECUPERACION NUTRICIONAL CON ENFOQUE COMUNITARIO CARMEN DE ATRATO","LUIS GUILLERMO PALACIOS TORRES","URBANA","CABECERA MUNICIPAL","CABECERA MUNICIPAL",,,"3128118108-3203206974621",,"LUIS_GUILLERMO_29@HOTMAIL.COM","20160608",,"891680186","0.0","JURIDICO","1.0","Privada","4.0","Objeto Social Diferente a la Prestación de Servicios de Salud"
"Chocó","EL LITORAL DEL SAN JUAN","2725000814","IPS INDIGENA CAPERA SAS","2725000814","1","IPS INDIGENA CAPERA SAS","YURANNY ABUHATAB RAMIREZ","RURAL","COMUNIDAD INDIGENA PAPAYO","PAPAYO","27250023","PAPAYO","3.116463802E9",,"ipsindigenacapera@gmail.com","20120723",,"900538139","1.0","JURIDICO","1.0","Privada","1.0","Instituciones - IPS"
"Chocó","EL LITORAL DEL SAN JUAN","2725000814","IPS INDIGENA CAPERA SAS","2725000814","2","SEDE PALESTINA","YURANNY ABUHATAB RAMIREZ","RURAL","CORREGIMIENTO DE PALESTINA","PALESTINA","27250006","PALESTINA","3116463802 - 3122976471",,"ipsindigenacapera@gmail.com","20140226",,"900538139","1.0","JURIDICO","1.0","Privada","1.0","Instituciones - IPS"
"Chocó","EL LITORAL DEL SAN JUAN","2725000814","IPS INDIGENA CAPERA SAS","2725000814","3","SEDE DOCORDO","YURANNY ABUHATAB RAMIREZ","URBANA","CALLE PRINCIPAL","CALLE PRINCIPAL","27250000","SANTA GENOVEVA DE DOCORDÓ","6733648 - 3114643802",,"ipsindigenacapera@gmail.com","20161024",,"900538139","1.0","JURIDICO","1.0","Privada","1.0","Instituciones - IPS"
"Chocó","EL LITORAL DEL SAN JUAN","2725001215","SERVITRANSPORTES DEL LITORAL S.A.S.","2725001215","1","SERVITRANSPORTES DEL LITORAL S.A.S.","DAHIANA VANESSA ARANA MARTINEZ","URBANA","DOCORDO CENTRO","DOCORDO","27250000","SANTA GENOVEVA DE DOCORDÓ","3.104071962E9",,"d.ahi.ana15@hotmail.com","20180713",,"901167904","9.0","JURIDICO","1.0","Privada","1.0","Instituciones - IPS"
"Chocó","EL LITORAL DEL SAN JUAN","2725001227","transporte nuevo amanecer","2725001227","1","transporte nuevo amanecer","sandy patricia mena blandon","RURAL","santa genoveva de docordo","calle principal","27250000","SANTA GENOVEVA DE DOCORDÓ","3.113855055E9",,"sapamebla@yahoo.es","20181129",,"900540829","1.0","JURIDICO","1.0","Privada","3.0","Transporte Especial de Pacientes"
"Chocó","ISTMINA","2700100218","COLOMBIA SALUDABLE","2736100218","2","COLOMBIA SALUDABLE-ISTMINA","GUSTAVO CORREA","URBANA","BARRIO CUBIS SECTOR MESETAS PARTE ALTA","BARRIO CUBIS SECTOR MESETAS PARTE ALTA","27361000","ISTMINA","094 6724270",,"gloriasalcedo@colombiasaludable.org","20160317",,"811037901","3.0","JURIDICO","1.0","Privada","1.0","Instituciones - IPS"
"Chocó","ISTMINA","2700100235","LABORATORIO CLINICO CELSALUD","2736100235","2","MARIELA CASTILLO FRANCO","MARIELA CASTILLO FRANCO","URBANA","CARRERA 6A N 30A- 16","CUBIS MESETA ALTA","27361000","ISTMINA","3.104077235E9",,"lab.celsalud@gmail.com","20171026",,"900065157","1.0","JURIDICO","1.0","Privada","1.0","Instituciones - IPS"
"Chocó","ISTMINA","2700100643","I.P.S. SERVIMEDICO S.A.S.","2736100643","24","IPS SERVIMEDICO ISTMINA","MANUEL JOSE CORRALES CORDOBA","RURAL","ISTMINA","BARRIOS CUBIS","27361000","ISTMINA","3.127962925E9",,"IPSSERVIMEDICO@HOTMAIL.COM","20170726",,"900206582","5.0","JURIDICO","1.0","Privada","1.0","Instituciones - IPS"
"Chocó","ISTMINA","2700101124","Asociación Megasalud","2736101124","3","ASOMEGASALUD","Gladys Bazan Aguilar","URBANA","Cra 9 # 26-10","Cubis","27361000","ISTMINA","6723518.0",,"asomegasalud2013@gmail.com","20190207",,"900088061","2.0","JURIDICO","1.0","Privada","4.0","Objeto Social Diferente a la Prestación de Servicios de Salud"
"Chocó","ISTMINA","2700101132","FUNDACIÓN VALORES","2736101132","2","FUNDACIÓN VALORES","DIANA CORDOBA ORTIZ","URBANA","MANZANA 30","SANTA GENOBEBA","27361000","ISTMINA","3.128661822E9",,"fundacionvalores@hotmail.com","20161229",,"900207221","6.0","JURIDICO","1.0","Privada","4.0","Objeto Social Diferente a la Prestación de Servicios de Salud"
"Chocó","ISTMINA","2720500333","UNIDAD MEDICA MI SALUD S.A.S.","2736100333","7","UNIDAD MEDICA MI SALUD ISTMINA","HUGO FERLEY MOSQUERA MOSQUERA","URBANA","CUBIS","CUBIS","27361000","ISTMINA","3.146094984E9",,"ipsmisalud@yahoo.es","20190205",,"900212320","7.0","JURIDICO","1.0","Privada","1.0","Instituciones - IPS"
"Chocó","ISTMINA","2736100077","ESE HOSPITAL EDUARDO SANTOS DE ISTMINA","2736100077","1","ESE HOSPITAL EDUARDO SANTOS DE ISTMINA","YILMAR VALENCIA VARGAS","URBANA","BARRIO EDUARDO SANTOS","BARRIO EDUARDO SANTOS",,,"3.137432998E9",,"valencia.vargasasociados@hotmail.com","20170303",,"891680064","0.0","JURIDICO","4.0","Pública","1.0","Instituciones - IPS"
"Chocó","ISTMINA","2736100180","CENTRO MEDICO CUBIS LIMITADA","2736100180","1","CENTRO MEDICO CUBIS LIMITADA","EDINSON EMIL PEÑA GIL","URBANA","CL 25 No 6A-08","CUBIS",,,"9.467001069E9","946700335","centromedicocubis@hotmail.com","20110623",,"818002571","0.0","JURIDICO","1.0","Privada","1.0","Instituciones - IPS"
"Chocó","ISTMINA","2736100212","YANETH VICTORIA VALENCIA ASPRILLA","2736100212","1","YANETH VICTORIA VALENCIA ASPRILLA",,"URBANA","CRA 6 N° 24-48","BARRIO CUBIS","27361000","ISTMINA","6700360 - 3128155893",,"yanethv2015@gmail.com","20160628",,"26328934","8.0","NATURAL","1.0","Privada","2.0","Profesional Independiente"
"Chocó","ISTMINA","2736100342","MARIA CONCEPCION IPS","2736100342","1","UNIDAD MEDICA MARIA CONCEPCION IPS LTDA","MAYURIS RIVAS MACHADO","URBANA","CALLE 7 No 15- 04","OFFEL","27361000","ISTMINA","6702462.0",,"mariaconcepcionips@hotmail.com","20080703",,"900207856","2.0","JURIDICO","1.0","Privada","1.0","Instituciones - IPS"
"Chocó","ISTMINA","2736100644","CENTRO FISIOTERAPEUTICO Y DE REHABILITACIÓN DEL PACIFICO LTDA","2736100644","1","CENTRO FISIOTERAPEUTICO Y REHABILITACION DEL PACIFICO LTDA","YURANNY ABUHATAB RAMIREZ","URBANA","CUBIS MESETA ALTA EDIFICIO SAN RAFAEL","CUBIS MESETA ALTA EDIFICIO SAN RAFAEL",,,"3116463802 - 3136137312",,"cefirepaltda@gmail.com","20170629",,"900404308","2.0","JURIDICO","1.0","Privada","1.0","Instituciones - IPS"
"Chocó","ISTMINA","2736100692","IPS ORTHOMEDIC","2736100692","1","IPS ORTHOMEDIC","ALEX GEOVANNI MURILLO MOSQUERA","URBANA","Calle 22 N° 8-03","Camellon",,,"6703939-3136459134",,"algeova@hotmail.com","20180406",,"900359464","0.0","JURIDICO","1.0","Privada","1.0","Instituciones - IPS"
"Chocó","ISTMINA","2736100777","Danith Lorena Hinestroza Perea","2736100777","1","Danith Lorena Hinestroza Perea",,"URBANA","carrera 6 No 24-07","cubis","27361000","ISTMINA","3.137443991E9",,"danithlo@hotmail.com","20171031",,"26329415","0.0","NATURAL","1.0","Privada","2.0","Profesional Independiente"
"Chocó","ISTMINA","2736100862","FISIOSALUD MP CENTRO INTEGRAL DE TERAPIAS S.A.S","2736100862","1","FISIOSALUD MP CENTRO INTEGRAL DE TERAPIAS S.A.S","MARYORY DIGNELLY MURILLO PALACIOS","URBANA","CARRERA 7 N° 18-52","COMERCIO","27361000","ISTMINA","3.117909669E9",,"maryo744@hotmail.com","20180426",,"900516702","2.0","JURIDICO","1.0","Privada","1.0","Instituciones - IPS"
"Chocó","ISTMINA","2736100900","FUNDACION PARA UN NUEVO VIVIR","2736100900","1","FUNDACION PARA UN NUEVO VIVIR","CARLOS MARIO MOSQUERA MOSQUERA","URBANA","CARRERA 6 No 32-08","CUBIS SECTOR MESETA ALTA",,,"3114127838 - 3104394994",,"pacho619@yahoo.com","20170622",,"900589203","1.0","JURIDICO","1.0","Privada","4.0","Objeto Social Diferente a la Prestación de Servicios de Salud"
"Chocó","ISTMINA","2736100902","BIHOMEDICA SAS","2736100902","1","BIHOMEDICA SAS","JAIRO LUIS SALCEDO LOPEZ","URBANA","CARRERA 8ª No 25- 22","CUBIS",,,"6703157.0","6703157.0","dianita812009@hotmail.com","20130221",,"900586847","0.0","JURIDICO","1.0","Privada","1.0","Instituciones - IPS"
"Chocó","ISTMINA","2736101003","ORALMASS S.A.S.","2736101003","1","ORALMASS S.A.S.","WENDY JOHANA MOSQUERA ACOSTA","URBANA","CALLE SEGUNDA COMERCIO- ANTIGUO TEATRO MUNICIPAL","COMERCIO",,,"3.117265642E9",,"wendyjm1@hotmail.com","20160412",,"900626098","3.0","JURIDICO","1.0","Privada","1.0","Instituciones - IPS"
"Chocó","ISTMINA","2736101016","IPS ÓPTICAS OPTILUZ DE COLOMBIA VISION CENTER","2736101016","1","IPS OPTICAS OPTILUZ DE COLOMBIA VISION CENTER S.A.S","Javier Meneses Sanchez","URBANA","Cra 7 No 18 - 35","B./ Comercio - Calle Real","27361000","ISTMINA","3133422884 - 3183270050",,"optiluzdecolombia@hotmail.com","20150729",,"900731366","1.0","JURIDICO","1.0","Privada","1.0","Instituciones - IPS"
"Chocó","ISTMINA","2736101076","Valencia Vargas Asociados","2736101076","1","Valencia Vargas Asociados IPS (SAS)","Yilmar Valencia Vargas","URBANA","Barrio Cubis sector Calle 100","Cubis",,,"6702750.0",,"valencia.vargasasociados@hotmail.com","20160411",,"900867658","1.0","JURIDICO","1.0","Privada","1.0","Instituciones - IPS"
"Chocó","ISTMINA","2736101098","CLINICA SAN JUAN DEL PACIFICO S.A.S","2736101098","1","CLINICA DE LOS ANGELES","ARTURO JOSE VELASCO ALVAREZ","URBANA","CR 6 # 32 A 16","MESETA DE CUBIS",,,"3.216967217E9","0.0","clinicasanjuandirecciongeneral@gmail.com","20160523",,"900945861","5.0","JURIDICO","1.0","Privada","1.0","Instituciones - IPS"
"Chocó","ISTMINA","2736101107","DIOCESIS ISTMINA-TADO","2736101107","8","OFICINA RECUPERACION NUTRICIONAL CON ENFASIS EN LOS PRIMEROS MIL DIAS Y RECUPERACION NUTRICIONAL CON ENFOQUE COMUNITARIO","LUIS GUILLERMO PALACIOS TORRES","URBANA","CRA 8 Nº 20A-01","EL COMERCIO",,,"6702150-3206974621-3122790616","6702112.0","yarivao@yahoo.es","20160520",,"891680186","0.0","JURIDICO","1.0","Privada","4.0","Objeto Social Diferente a la Prestación de Servicios de Salud"
"Chocó","ISTMINA","2736101109","carmen irina ballesteros urrutia","2736101109","2","carmen irina ballesteros urrutia",,"URBANA","barrio cubis sector divino niño","Cubis",,,"6700183.0",,"ciballu@hotmail.com","20160621",,"26331368","0.0","NATURAL","1.0","Privada","2.0","Profesional Independiente"
"Chocó","ISTMINA","2736101116","PARROQUIA SAN FRANCISCO DE SOLANO","2736101116","1","curia","Pbro. Javier de Jesus Vacca Palacios","URBANA","Crr. 8va Nro 20a- 01","comercio","27361000","ISTMINA","3.122581412E9",,"javapa23@yahoo.es","20160713",,"818002346","1.0","JURIDICO","1.0","Privada","4.0","Objeto Social Diferente a la Prestación de Servicios de Salud"
"Chocó","ISTMINA","2736101133","FUNDACION VIRGEN DE LA POBREZA","2736101133","1","fundacion virgen de la pobreza","ROSA MARIA MOSQUERA POTES","URBANA","barrio cubis","cubis","27361000","ISTMINA","3.137397207E9",,"rositapotes@hotmail.com","20161123",,"901025960","2.0","JURIDICO","1.0","Privada","4.0","Objeto Social Diferente a la Prestación de Servicios de Salud"
"Chocó","ISTMINA","2736101138","FUNDACION SOCIAL MI NUEVA ESPERANZA","2736101138","1","FUNDACION SOCIAL MI NUEVA ESPERANZA","ANGEL MARIA COPETE GARRIDO","RURAL","CR6 N° 12-28","CAMELLON","27361000","ISTMINA","3.105251704E9",,"copetegarrido@gmail.com","20180530",,"900653435","7.0","JURIDICO","1.0","Privada","4.0","Objeto Social Diferente a la Prestación de Servicios de Salud"
"Chocó","ISTMINA","2736101139","heidy yurany moreno arboleda","2736101139","1","heidy yurany moreno arboleda",,"URBANA","BARRIO CUBIS SECTOR ANCIANATO","CUBIS","27361000","ISTMINA","3.206077021E9",,"hyma394@hotmail.com","20161222",,"35898790","0.0","NATURAL","1.0","Privada","2.0","Profesional Independiente"
"Chocó","ISTMINA","2736101172","JARCOA I.P.S. S.A.S.","2736101172","1","JARCOA I.PS. S.A.S.","JARBEY EVERALDO CORDOBA AGUILAR","URBANA","CALLE 25 # 6 a - 08","CUBIS","27361000","ISTMINA","3.16831132E9",,"jarbimateo@gmail.com","20180119",,"900219809","8.0","JURIDICO","1.0","Privada","1.0","Instituciones - IPS"
"Chocó","ISTMINA","2736101177","DENTAL LOPEZ S.A.S.","2736101177","1","DENTAL LOPEZ S.A.S.","CLARETZY LOPEZ MOSQUERA","URBANA","CARRERA 5° No 24 - 19","CUBIS","27361000","ISTMINA","3.22604687E9",,"clarelomo@yahoo.es","20180314",,"901119511","3.0","JURIDICO","1.0","Privada","1.0","Instituciones - IPS"
"Chocó","ISTMINA","2736101198","UNIDAD MEDICA SAN AGUSTIN S.A.S","2736101198","1","UNIDAD MEDICA SAN AGUSTIN S.A.S","heither lois mena cordoba","URBANA","barrio cubis edifcio san rafael","cubis","27361000","ISTMINA","3.218522711E9",,"luis_gregorio_a1@hotmail.com","20180315",,"901096047","6.0","JURIDICO","1.0","Privada","1.0","Instituciones - IPS"
"Chocó","ISTMINA","2736101206","CORPORACIÓN PARA EL DESARROLLO PSICOSOCIAL DEL CHOCÓ","2736101206","1","CENTRO DE ATENCIÓN NEURO PSICOPEDAGOGICO","SANDY SANCHEZ MURILLO","RURAL","meseta alta","meseta alta",,,"3.207730959E9",,"corpopsi.choco@hotmail.com","20180502",,"901166557","1.0","JURIDICO","1.0","Privada","4.0","Objeto Social Diferente a la Prestación de Servicios de Salud"
"Chocó","ISTMINA","2736101242","fundación para el fomento de la educación en el choco","2736101242","1","fundacion para el fomento de la educacion en el choco","zayra hedley castellano valencia","URBANA","santa genoveva","sector los murillos","27361000","ISTMINA","3.103902287E9","3103902287","funfecho.choco@hotmail.com","20190222",,"900631358","3.0","JURIDICO","1.0","Privada","4.0","Objeto Social Diferente a la Prestación de Servicios de Salud"
"Chocó","ISTMINA","2736101243","DANNIA SILIMA CUESTA AREIZA","2736101243","1","DANNIA SILIMA CUESTA AREIZA",,"URBANA","calle 7# 18-31","COMERCIO",,,"3.217781699E9",,"garcaysegpac@gmail.com","20190307",,"66924606",,"NATURAL","1.0","Privada","2.0","Profesional Independiente"
"Chocó","ISTMINA","2736101250","fundacion por la paz","2736101250","1","centro de atencion semillitas del saber","LILIANA CORDOBA MORENO","URBANA","barrio cubis santa genoveva","cubis","27361000","ISTMINA","3.144583043E9",,"lilianacordoba0625@gmail.com","20190530",,"901207372","3.0","JURIDICO","1.0","Privada","4.0","Objeto Social Diferente a la Prestación de Servicios de Salud"
"Chocó","ISTMINA","2778701046","CENTRO OPTICO LOREN Z S.A.S.","2736101046","2","CENTRO MEDICO LORENZ S.A.S.","ICARIS ITHALIE BALLESTERO URRUTIA","URBANA","CARRERA 9 No. 9-06","SAN FRANCISCO",,,"3.103763046E9",,"opticalorenz@gmail.com","20180827",,"900812380","3.0","JURIDICO","1.0","Privada","1.0","Instituciones - IPS"
"Chocó","ISTMINA","2781001209","FULTON RONNY ASPRILLA MORENO","2736101209","7","IPS - HUMSALUD ISTMINA - CHOCO","FULTON RONNY ASPRILLA MORENO","URBANA","CARRERA 6 # 301A - 16","CUBIS","27361000","ISTMINA","3.108519848E9",,"ipshumsalud@gmail.com","20190508",,"900994906","7.0","JURIDICO","1.0","Privada","1.0","Instituciones - IPS"
"Chocó","JURADÓ","2700101075","MEDICHOCO IPS S.A.S","2737201075","2","MEDICHOCO IPS","CIRO YACCI MENDOZA HINESTROZA","URBANA","CRA 1 N° 2-18",,"27372000","JURADÓ","3.104946245E9",,"medicho5801@gmali.com","20190726",,"900881965","6.0","JURIDICO","1.0","Privada","1.0","Instituciones - IPS"
"Chocó","JURADÓ","2720500333","UNIDAD MEDICA MI SALUD S.A.S.","2737200333","9","UNIDAD MEDICA MI SALUD JURADÓ","HUGO FERLEY MOSQUERA","URBANA","PUEBLO NUEVO","Barrio Pueblo Nuevo","27372000","JURADÓ","3.146094984E9",,"ipsmisalud@yahoo.es","20190702",,"900212320","7.0","JURIDICO","1.0","Privada","1.0","Instituciones - IPS"
"Chocó","LLORÓ","2700100390","IPS ERCHICHI JAI E.U.","2741300390","2","ERICHICHIJAI IPS","ARTURO VALENCIA EVAO","URBANA","CALLE PRINCIPAL CASA NUMERO 26","CALLE PRINCIPAL CASA NUMERO 26","27413000","LLORÓ","6733456.0",,"erchichijaiipsindigena@gmail.com","20160610",,"900144266","5.0","JURIDICO","1.0","Privada","1.0","Instituciones - IPS"
"Chocó","LLORÓ","2700100636","IPS SALUD PROTEGIDA E.U","2741300636","2","IPS SALUD PROTEGIDA SEDE LLORO","ROSA ELENA MOSQUERA MOSQUERA","URBANA","CENTRO DE LLORO",,"27413000","LLORÓ","3.185149051E9",,"ODONTORROSAMM@HOTMAIL.COM","20180104",,"900037648","7.0","JURIDICO","1.0","Privada","1.0","Instituciones - IPS"
"Chocó","LLORÓ","2741301090","Arleny Rodriguez Vivas","2741301090","1","Arleny Rodriguez Vivas",,"RURAL","edificio doña yane primer piso al lado de la iglesia","centro","27413000","LLORÓ","3137108609-3217625603",,"arlenyodo@gmail.com","20160217",,"35895351","0.0","NATURAL","1.0","Privada","2.0","Profesional Independiente"
"Chocó","MEDIO ATRATO","2700100643","I.P.S. SERVIMEDICO S.A.S.","2742500643","21","IPS SERVIMEDICO MEDIO ATRATO","MANUEL JOSE CORRALES CORDOBA","URBANA","BETE","BETE CENTRO",,,"3.127962925E9",,"IPSSERVIMEDICO@HOTMAIL.COM","20170102",,"900206582","5.0","JURIDICO","1.0","Privada","1.0","Instituciones - IPS"
"Chocó","MEDIO ATRATO","2742500867","Representaciones Divino Eccehomo S.A.S","2742500867","1","representaciones divino eccehomo","sandra milena segura mena","URBANA","calle principal","carrera 12 12-51",,,"3.217392512E9",,"representacionesdivinoeccehomo@gmail.com","20180427",,"900541825","5.0","JURIDICO","1.0","Privada","1.0","Instituciones - IPS"
"Chocó","MEDIO ATRATO","2761500260","SIGMA SALUD IPS E.U.","2742500260","3","SALUD RIOSUCIO IPS E.U. SEDE MEDIO ATRATO","JULIO ALFONSO RICO BARRIOS","URBANA","CALLE PRINCIPAL",,,,"3.216400768E9",,"saludriosucio@hotmail.com","20120409",,"900104461","4.0","JURIDICO","1.0","Privada","1.0","Instituciones - IPS"
"Chocó","MEDIO BAUDÓ","2702500657","I.P.S CUIDAR ES SALUD S.A.S","2743000657","5","ips cuidar es salud medio baudo","luis carlos cabrera palacios","RURAL","calle del comercio","calle del comercio","27430011","PUERTO MELUK","3.207441866E9","3207441866","lucapa34@gmail.com","20190221",,"900424721","7.0","JURIDICO","1.0","Privada","1.0","Instituciones - IPS"
"Chocó","MEDIO BAUDÓ","2707700324","FUNDACIÓN SOLIDARIA DEL BAJO BAUDO IPS","2743000324","5","FUNDACIÓN SOLIDARIA DEL BAJO BAUDÓ","JOSE ISABEL JARAMILLO CORDOBA","RURAL","CALLE DE LA ALCALDÍA","BARRIO EL SILENCIO","27430000","BOCA DE PEPE","3.216419919E9",,"pabloanto30@hotmail.com","20121113",,"818001478","9.0","JURIDICO","1.0","Privada","1.0","Instituciones - IPS"
"Chocó","MEDIO BAUDÓ","2743000323","UNISALUD TOTAL IPS PUERTO MELUK-MEDIO BAUDO","2743000323","1","UNISALUD TOTAL IPS PUERTO MELUK SAS - MEDIO BAUDO","RONALDO PALOMEQUE PALACIOS","URBANA","CALLE PRINCIPAL - PUERTO MELUK","COMERCIO","27430011","PUERTO MELUK","3146943128 - 6723605",,"wirua118@yahoo.es","20190621",,"900191094","5.0","JURIDICO","1.0","Privada","1.0","Instituciones - IPS"
"Chocó","MEDIO BAUDÓ","2743001126","UNIMEDICAL PACIFIC S.A.S.","2743001126","1","UNIMEDICAL PACIFIC S.A.S.","EBLIN FELICINDA BADILLO ZUÑIGA","URBANA","CALLE PRINCIPAL PUERTO MELUK","CALLE PRINCIPAL",,,"3.10383169E9",,"evelincho.1@gmail.com","20160922",,"900998064","9.0","JURIDICO","1.0","Privada","1.0","Instituciones - IPS"
"Chocó","MEDIO BAUDÓ","2743001229","GRUPO EMPRESARIAL MACROSALUD IPS BAJO BAUDO","2743001229","1","GRUPO EMPRESARIAL MACROSALUD IPS BAJO BAUDO","DEYNNE PEREA POTES","URBANA","PUEBLO NUEVO","PUEBLO NUEVO","27430011","PUERTO MELUK","3.137483191E9",,"macrosaludips@hotmail.com","20181220",,"900978555","8.0","JURIDICO","1.0","Privada","1.0","Instituciones - IPS"
"Chocó","MEDIO SAN JUAN","2745001191","FUNDACION ARCOIRIS, UNA CASA PARA TODOS Y TODA","2745001191","1","FUNDACION ARCOIRIS,UNA CASA PARA TODOS Y TODA","FERNANDO VALDERRAMA URRUTIA","URBANA","MEDIO SAN JUAN","EL LLANO DIAGONAL A LA CAPILLA","27450000","ANDAGOYA","3.122025023E9",,"FUARCATODOSA@GMAIL.COM","20180123",,"900962553","3.0","JURIDICO","1.0","Privada","4.0","Objeto Social Diferente a la Prestación de Servicios de Salud"
"Chocó","MEDIO SAN JUAN","2781000407","CENTRO MÉDICO VIVE SAS","2745000407","3","CENTRO MÉDICO VIVE SAS ANDAGOYA","ALISSA DADOLIS MOSQUERA RIOS","URBANA","BARRIO PALMERAS","BARRIO PALMERAS","27450000","ANDAGOYA","3.122885878E9","946795078","alissadadolis@hotmail.com","20100913",,"900269538","0.0","JURIDICO","1.0","Privada","1.0","Instituciones - IPS"
"Chocó","MEDIO SAN JUAN","2781001209","FULTON RONNY ASPRILLA MORENO","2745001209","2","IPS HUMSALUD MEDIO SAN JUAN","FULTON RONNY ASPRILLA MORENO","URBANA","CARRERA 5 NO 5-75","LA PUNTA","27450000","ANDAGOYA","3.108519848E9","3117913974","IPSHUMSALUD@GMAIL.COM","20180713",,"900994906","7.0","JURIDICO","1.0","Privada","1.0","Instituciones - IPS"
"Chocó","NÓVITA","2700101075","MEDICHOCO IPS S.A.S","2749101075","4","MEDICHOCO IPS S.A.S","CIRO YACCI MENDOZA HINESTROZA","URBANA","AL FRENTE DEL PARQUE MAYOR","LA CENTRAL","27491000","NÓVITA","3.112472978E9",,"medicho5801@gmali.com","20190726",,"900881965","6.0","JURIDICO","1.0","Privada","1.0","Instituciones - IPS"
"Chocó","NÓVITA","2749100928","UNIDAD MEDICA ESPIRITU SANTO E. U.","2749100928","1","UNIDAD MEDICA ESPIRITU SANTO E. U.","AULIO HERNAN LOZANO CAÑADAS","URBANA","CALLE PRINCIPAL","CALLE PRINCIPAL","27491000","NÓVITA","3.108954673E9",,"auheloca@hotmail.com","20130415",,"818001360","9.0","JURIDICO","1.0","Privada","1.0","Instituciones - IPS"
"Chocó","NUQUÍ","2700100071","CAJA DE COMPENSACION FAMILIAR DEL CHOCO","2749500071","15","IPS COMFACHOCO SAN PEDRO CLAVER NUQUI","YOLANDA RENTERIA CUESTA","URBANA","CENTRO DE SALUD NUQUI","NUQUI","27495000","NUQUÍ","6711597.0",,"comfachoco@comfachoco.com.co","20120210",,"891600091","8.0","JURIDICO","1.0","Privada","1.0","Instituciones - IPS"
"Chocó","NUQUÍ","2700100390","IPS ERCHICHI JAI E.U.","2749500390","6","IPS ERCHICHI JAI NUQUI","PLINIO MECHA HACHITO","URBANA","CENTRO","CENTRO","27495000","NUQUÍ","3.21790757591E11",,"erchichijaiipsindigena@gmail.com","20190213",,"900144266","5.0","JURIDICO","1.0","Privada","1.0","Instituciones - IPS"
"Chocó","QUIBDÓ","2700100004","JORGE ELIN LOPEZ VALENCIA","2700100004","1","JORGE ELIN LOPEZ VALENCIA",,"URBANA","CALLE 28 No 18-55","MEDRANO","27001000","SAN FRANCISCO DE QUIBDO","6733235.0","6723235.0","fancyo77@hotmail.com","20030129",,"73073219","4.0","NATURAL","1.0","Privada","2.0","Profesional Independiente"
"Chocó","QUIBDÓ","2700100010","MEDARDO MARIANO MORENO DIAZ","2700100010","1","MEDARDO MARIANO MORENO DIAZ",,"URBANA","Carrera 1° No 31-26 Frente a urgencias del HSA piso 2",,"27001000","SAN FRANCISCO DE QUIBDO","6717845- 3117087978","6717845.0","chofamilia@yahoo.es","20030224",,"70051881","5.0","NATURAL","1.0","Privada","2.0","Profesional Independiente"
"Chocó","QUIBDÓ","2700100019","LABORATORIO CLINICO BIOANÁLISIS S.A.S","2700100019","1","LABORATORIO CLINICO BIOANALISIS S.A.S","ANDRES CAMILO VIDAL VARELA","URBANA","CARRERA 5 # 29-79","CESAR CONTO",,,"0946724293-3108401355",,"labclinicobioanalisis@hotmail.com","20150314",,"818001440","1.0","JURIDICO","1.0","Privada","1.0","Instituciones - IPS"
"Chocó","QUIBDÓ","2700100026","ESE HOSPITAL LOCAL ISMAEL ROLDAN VALENCIA","2700100026","1","ESE. HOSPITAL LOCAL ISMAEL ROLDAN VALENCIA","WILMAN JESUS YURGAKY","URBANA","SECTOR LOS ROSALES","BARRIO JARDIN",,,,,,"20030327",,"818001019","1.0","JURIDICO","4.0","Pública","1.0","Instituciones - IPS"
"Chocó","QUIBDÓ","2700100026","ESE HOSPITAL LOCAL ISMAEL ROLDAN VALENCIA","2700100026","2","CENTRO DE SALUD MEDRANO",,"URBANA","AVENIDA FROILAN TRELLEZ","MEDRANO",,,,,,"20030327",,"818001019","1.0","JURIDICO","4.0","Pública","1.0","Instituciones - IPS"
"Chocó","QUIBDÓ","2700100026","ESE HOSPITAL LOCAL ISMAEL ROLDAN VALENCIA","2700100026","4","CENTO DE SALUD SAN VICENTE","WILMAN JESUS YURGAKY","URBANA","SAN VICENTE","SAN VICENTE",,,,,,"20030327",,"818001019","1.0","JURIDICO","4.0","Pública","1.0","Instituciones - IPS"
"Chocó","QUIBDÓ","2700100026","ESE HOSPITAL LOCAL ISMAEL ROLDAN VALENCIA","2700100026","5","CENTRO DE SALUD EL REPOSO","Wilman Jesus Yurgaky Ledesma","URBANA","REPOSO","REPOSO",,,,,,"20030327",,"818001019","1.0","JURIDICO","4.0","Pública","1.0","Instituciones - IPS"
"Chocó","QUIBDÓ","2700100026","ESE HOSPITAL LOCAL ISMAEL ROLDAN VALENCIA","2700100026","7","HOSPITAL LOCAL ISMAEL ROLDAN VALENCIA DE QUIBDO","WILMAN JESUS YURGAKY LEDEZMA","RURAL","SAN FRANCISCO DE ICHO","SAN FRANCISCO DE ICHO","27001000","SAN FRANCISCO DE QUIBDO","6710090.0","6710203.0","hlirv@hotmail.com","20120711",,"818001019","1.0","JURIDICO","4.0","Pública","1.0","Instituciones - IPS"
"Chocó","QUIBDÓ","2700100026","ESE HOSPITAL LOCAL ISMAEL ROLDAN VALENCIA","2700100026","8","HOSPITAL LOCAL ISMAEL ROLDAN VALENCIA DE QUIBDO","WILMAN JESUS YURGAKY LEDEZMA","RURAL","CORREGIMIENTO DE ALTAGRACIA","ALTAGRACIA","27001001","ALTAGRACIA","6710090.0","6710203.0","hlirv@hotmail.com","20120711",,"818001019","1.0","JURIDICO","4.0","Pública","1.0","Instituciones - IPS"
"Chocó","QUIBDÓ","2700100026","ESE HOSPITAL LOCAL ISMAEL ROLDAN VALENCIA","2700100026","9","HOSPITAL LOCAL ISMAEL ROLDAN VALENCIA DE QUIBDÒ","WILMAN JESUS YURGAKY LEDEZMA","RURAL","CORREGIMIENTO DE BELLALUZ","BELLA LUZ","27001005","BELLALUZ","6710090.0","6710203.0","hlirv@hotmail.com","20120711",,"818001019","1.0","JURIDICO","4.0","Pública","1.0","Instituciones - IPS"
"Chocó","QUIBDÓ","2700100026","ESE HOSPITAL LOCAL ISMAEL ROLDAN VALENCIA","2700100026","10","HOSPITAL LOCAL ISMAEL ROLDAN VALENCIA DE QUIBDO","WILMAN JESUS YURGAKY LEDEZMA","RURAL","CORREGIMIENTO BOCA DE TANANDO","BOCA DE TANANDO","27001008","BOCA DE TANANDÓ","6710090.0","6710203.0","hlirv@hotmail.com","20120711",,"818001019","1.0","JURIDICO","4.0","Pública","1.0","Instituciones - IPS"
"Chocó","QUIBDÓ","2700100026","ESE HOSPITAL LOCAL ISMAEL ROLDAN VALENCIA","2700100026","11","HOSPITAL LOCAL ISMAEL ROLDAN VALENCIA DE QUIBDÒ","WILMAN JESUS YURGAKY LEDEZMA","RURAL","COMUNIDAD DE CAMPO BONITO","CAMPO BONITO","27001013","CAMPOBONITO","6710090.0","6710203.0","hlirv@hotmail.com","20120711",,"818001019","1.0","JURIDICO","4.0","Pública","1.0","Instituciones - IPS"
"Chocó","QUIBDÓ","2700100026","ESE HOSPITAL LOCAL ISMAEL ROLDAN VALENCIA","2700100026","12","HOSPITAL LOCAL ISMAEL ROLDAN VALENCIA DE QUIBDÒ","WILMAN JESUS YURGAKY LEDEZMA","RURAL","CORREGIMIENTO DE GUARANDO","GUARANDO","27001015","GUARANDÓ","6710090.0","6710203.0","hlirv@hotmail.com","20120711",,"818001019","1.0","JURIDICO","4.0","Pública","1.0","Instituciones - IPS"
"Chocó","QUIBDÓ","2700100026","ESE HOSPITAL LOCAL ISMAEL ROLDAN VALENCIA","2700100026","13","HOSPITAL LOCAL ISMAEL ROLDAN VALENCIA DE QUIBDÒ","WILMAN JESUS YURGAKY LEDEZMA","RURAL","CORREGIMIENTO DE GUAYABAL","GUAYABAL","27001016","GUAYABAL","6710090.0","6710203.0","hlirv@hotmail.com","20120711",,"818001019","1.0","JURIDICO","4.0","Pública","1.0","Instituciones - IPS"
"Chocó","QUIBDÓ","2700100026","ESE HOSPITAL LOCAL ISMAEL ROLDAN VALENCIA","2700100026","14","HOSPITAL LOCAL ISMAEL ROLDAN VALENCAI DE QUIBDÒ","GENCY PATRICIA BORJA MORENO","RURAL","CORREGIMIENTO DE LA TROJE","LA TROJE","27001017","LA TROJE","6710090.0","6710203.0","hlirv@hotmail.com","20120712",,"818001019","1.0","JURIDICO","4.0","Pública","1.0","Instituciones - IPS"
"Chocó","QUIBDÓ","2700100026","ESE HOSPITAL LOCAL ISMAEL ROLDAN VALENCIA","2700100026","15","HOSPITAL LOCAL ISAMEL ROLDAN VALENCIA DE QUIBDÒ","WILMAN JESUS YURGAKY LEDEZMA","RURAL","CORREGIMIENTO DE LAS MERCEDES","LAS MERCEDES","27001018","LAS MERCEDES","6710090.0","6710203.0","hlirv@hotmail.com","20120712",,"818001019","1.0","JURIDICO","4.0","Pública","1.0","Instituciones - IPS"
"Chocó","QUIBDÓ","2700100026","ESE HOSPITAL LOCAL ISMAEL ROLDAN VALENCIA","2700100026","16","HOSPITAL LOCAL ISMAEL ROLDAN VALENCIA DE QUIBDÒ","WILMAN JESUS YURGAKY LEDEZMA","RURAL","CORREGIMIENTO DE NEGUA","SAN RAFAEL DE NEGUA","27001020","SAN RAFAEL DE NEGUA","6710090.0","6710203.0","hlirv@hotmail.com","20120712",,"818001019","1.0","JURIDICO","4.0","Pública","1.0","Instituciones - IPS"
"Chocó","QUIBDÓ","2700100026","ESE HOSPITAL LOCAL ISMAEL ROLDAN VALENCIA","2700100026","17","HOSPITAL LOCAL ISMAEL ROLDAN VALENCIA DE QUIBDÒ","WILMAN JESUS YURGAKY LEDEZMA","RURAL","CORREGIMIENTO DE TAGACHI","TAGACHI","27001029","TAGACHÍ","6710090.0","6710203.0","hlirv@hotmail.com","20120713",,"818001019","1.0","JURIDICO","4.0","Pública","1.0","Instituciones - IPS"
"Chocó","QUIBDÓ","2700100026","ESE HOSPITAL LOCAL ISMAEL ROLDAN VALENCIA","2700100026","18","HOSPITAL LOCAL ISMAEL ROLDAN VALENCIA DE QUIBDÒ","WILMAN JESUS YURGAKY LEDEZMA","RURAL","CORREGIMIENTO DE TUTUNENDO","BARRIO TUTUNENDO","27001032","TUTUNENDÓ","6710090.0","6710203.0","hlirv@hotmail.com","20120713",,"818001019","1.0","JURIDICO","4.0","Pública","1.0","Instituciones - IPS"
"Chocó","QUIBDÓ","2700100026","ESE HOSPITAL LOCAL ISMAEL ROLDAN VALENCIA","2700100026","19","HOSPITAL LOCAL ISMAEL ROLDAN VALENCIA DE QUIBDÒ","WILMAN JESUS YURGAKY LEDEZMA","RURAL","CORREGIMIENTO DE GUADALUPE","GIADALUPE","27001035","GUADALUPE","6710090.0","6710203.0","hlirv@hotmail.com","20120713",,"818001019","1.0","JURIDICO","4.0","Pública","1.0","Instituciones - IPS"
"Chocó","QUIBDÓ","2700100026","ESE HOSPITAL LOCAL ISMAEL ROLDAN VALENCIA","2700100026","20","HOSPITAL LOCAL ISAMEL ROLDAN VALENCIA DE QUIBDÒ","WILMAN JESUS YURGAKY LEDEZMA","RURAL","CORREGIMIENTO DE SANCENO","SANCENO","27001038","SANCENO","6710090.0","6710203.0","nerbego@hotmail.com","20120713",,"818001019","1.0","JURIDICO","4.0","Pública","1.0","Instituciones - IPS"
"Chocó","QUIBDÓ","2700100026","ESE HOSPITAL LOCAL ISMAEL ROLDAN VALENCIA","2700100026","21","HOSPITAL LOCAL ISMAEL ROLDAN VALENCIA DE QUIBDÒ","WILMAN JESUS YURGAKY LEDEZMA","RURAL","CORREGIMIENTO DE EL TAMBO","EL TAMBO","27001040","EL TAMBO","6710090.0","6710203.0","hlirv@hotmail.com","20120713",,"818001019","1.0","JURIDICO","4.0","Pública","1.0","Instituciones - IPS"
"Chocó","QUIBDÓ","2700100026","ESE HOSPITAL LOCAL ISMAEL ROLDAN VALENCIA","2700100026","22","HOSPITAL LOCAL ISMAEL ROLDAN VALENCIA DE QUIBDÒ","WILMAN JESUS YURGAKY LEDEZMA","RURAL","CORREGIMIENTO DE ALTO MUNGUIDO","MUNGUIDO","27001041","ALTO MUNGUIDÓ","6710090.0","6710203.0","hlirv@hotmail.com","20120713",,"818001019","1.0","JURIDICO","4.0","Pública","1.0","Instituciones - IPS"
"Chocó","QUIBDÓ","2700100026","ESE HOSPITAL LOCAL ISMAEL ROLDAN VALENCIA","2700100026","23","HOSPITAL LOCAL ISMAEL ROLDAN VALENCIA DE QUIBDÒ","WILMAN JESUS YURGAKY LEDEZMA","RURAL","CORREGIMIENTO DE NAURITA","NAURITA","27001044","BOCA DE NAURITÁ (NAURITÁ)","6710090.0","6710203.0","hlirv@hotmail.com","20120713",,"818001019","1.0","JURIDICO","4.0","Pública","1.0","Instituciones - IPS"
"Chocó","QUIBDÓ","2700100026","ESE HOSPITAL LOCAL ISMAEL ROLDAN VALENCIA","2700100026","24","HOSPITAL LOCAL ISMAEL ROLDAN VALENCIA DE QUIBDÒ","WILMAN JESUS YURGAKY LEDEZMA","RURAL","CORREGIMIENTO DEL FUERTE","EL FUERTE","27001047","EL FUERTE","6710090.0","6710203.0","hlirv@hotmail.com","20120713",,"818001019","1.0","JURIDICO","4.0","Pública","1.0","Instituciones - IPS"
"Chocó","QUIBDÓ","2700100026","ESE HOSPITAL LOCAL ISMAEL ROLDAN VALENCIA","2700100026","25","HOSPITAL LOCAL ISMAEL ROLDAN VALENCIA DE QUIBDÒ","WILMAN JESUS YURGAKY LEDEZMA","RURAL","CORREGIMIENTO DE BOCA DE NEMOTA","BOCA DE NEMOTA","27001052","BOCA DE NEMOTÁ (NEMOTÁ)","6710090.0","6710203.0","hlirv@hotmail.com","20120713",,"818001019","1.0","JURIDICO","4.0","Pública","1.0","Instituciones - IPS"
"Chocó","QUIBDÓ","2700100026","ESE HOSPITAL LOCAL ISMAEL ROLDAN VALENCIA","2700100026","26","HOSPITAL LOCAL ISMAEL ROLDAN VALENCIA DE QUIBDÒ","WILMAN JESUS YURGAKY LEDEZMA","RURAL","CORREGIMIENTO DE PACURITA","PACURITA","27001054","PACURITA (CABÍ)","6710090.0","6710203.0","hlirv@hotmail.com","20120716",,"818001019","1.0","JURIDICO","4.0","Pública","1.0","Instituciones - IPS"
"Chocó","QUIBDÓ","2700100026","ESE HOSPITAL LOCAL ISMAEL ROLDAN VALENCIA","2700100026","27","HOSPITAL LOCAL ISMAEL ROLDAN VALENCIA DE QUIBDÒ","WILMAN JESUS YURGAKY LEDEZMA","RURAL","CORREGIMIENTO DE PUERTO MURILLO","PUERTO MURILLO","27001056","PUERTO MURILLO","6710090.0","6710203.0","hlirv@hotmail.com","20120716",,"818001019","1.0","JURIDICO","4.0","Pública","1.0","Instituciones - IPS"
"Chocó","QUIBDÓ","2700100026","ESE HOSPITAL LOCAL ISMAEL ROLDAN VALENCIA","2700100026","28","HOSPITAL LOCAL ISMAEL ROLDAN VALENCIA DE QUIBDÒ","WILMAN JESUS YURGAKY LEDEZMA","RURAL","CORREGIMIENTO DE WINANDO","WINANDO","27001061","WINANDO","6710090.0","6710203.0","hlirv@hotmail.com","20120716",,"818001019","1.0","JURIDICO","4.0","Pública","1.0","Instituciones - IPS"
"Chocó","QUIBDÓ","2700100026","ESE HOSPITAL LOCAL ISMAEL ROLDAN VALENCIA","2700100026","29","HOSPITAL LOCAL ISMAEL ROLDAN VALENCIA DE QUIBDÒ","GENCY PATRICIA BORJA MORENO","RURAL","CORREGIMIENTO DE MOJAUDO","MOJAUDO","27001037","MOJAUDO","6710090.0","6710203.0","hlirv@hotmail.com","20120716",,"818001019","1.0","JURIDICO","4.0","Pública","1.0","Instituciones - IPS"
"Chocó","QUIBDÓ","2700100026","ESE HOSPITAL LOCAL ISMAEL ROLDAN VALENCIA","2700100026","30","HOSPITAL LOCAL ISMAEL ROLDAN VALENCIA DE QUIBDÓ","WILMAN JESUS YURGAKY LEDEZMA","RURAL","CORREGIMIENTO DE VILLA NUEVA","VILLA NUEVA","27001041","ALTO MUNGUIDÓ","6710090.0","6710203.0","hlirv@hotmail.com","20120716",,"818001019","1.0","JURIDICO","4.0","Pública","1.0","Instituciones - IPS"
"Chocó","QUIBDÓ","2700100026","ESE HOSPITAL LOCAL ISMAEL ROLDAN VALENCIA","2700100026","31","HOSPITAL LOCAL ISMAEL ROLDAN VALENCIA DE QUIBDÓ","GENCY PATRICIA BORJA MORENO","RURAL","CORREGIMIENTO DE GITRADO","GITRADO","27001041","ALTO MUNGUIDÓ","6710090.0","6710203.0","hlirv@hotmail.com","20120716",,"818001019","1.0","JURIDICO","4.0","Pública","1.0","Instituciones - IPS"
"Chocó","QUIBDÓ","2700100026","ESE HOSPITAL LOCAL ISMAEL ROLDAN VALENCIA","2700100026","32","HOSPITAL LOCAL ISMAEL ROLDAN VALENCIA DE QUIBDÓ","GENCY PATRICIA BORJA MORENO","RURAL","CORREGIMIENTO DE CALAHORRA","CALAHORRA","27001011","CALAHORRA","6710090.0","6710203.0","hlirv@hotmail.com","20120716",,"818001019","1.0","JURIDICO","4.0","Pública","1.0","Instituciones - IPS"
"Chocó","QUIBDÓ","2700100026","ESE HOSPITAL LOCAL ISMAEL ROLDAN VALENCIA","2700100026","33","HOSPITAL LOCAL ISMAEL ROLDAN VALENCIA DE QUIBDÓ","WILMAN JESUS YURGAKY LEDEZMA","RURAL","CORREGIMIENTO DEL JAGUO","EL JAGUO","27001041","ALTO MUNGUIDÓ","6710090.0","6710203.0","hlirv@hotmail.com","20120717",,"818001019","1.0","JURIDICO","4.0","Pública","1.0","Instituciones - IPS"
"Chocó","QUIBDÓ","2700100033","UNIDAD DE SALUD SANTA MARIA S.A.S","2700100033","1","UNIDAD DE SALUD SANTA MARIA","DELCY PEREA CHAVERRA","URBANA","Calle 31 Nº 2 ? 42 Barrio Cristo Rey","CRISTO REY",,,"6708217.0","6716147.0","U-santamaria@hotmail.com","20030404",,"818000373","1.0","JURIDICO","1.0","Privada","1.0","Instituciones - IPS"
"Chocó","QUIBDÓ","2700100036","NOHEMY PALACIO CHAVERRA","2700100036","1","NOHEMY PALACIO CHAVERRA",,"URBANA","Kra 5 # 26-91","ALAMEDA",,,"6718075.0","6718075.0","nopach5@hotmail.com","20150722",,"32708667","0.0","NATURAL","1.0","Privada","2.0","Profesional Independiente"
"Chocó","QUIBDÓ","2700100042","UNIDAD DE DIAGNOSTICO POR IMAGEN DIAGNOSTICAR S.A.S.","2700100042","1","UNIDAD DE DIAGNOSTICO POR IMAGEN DIAGNOSTICAR LIMITADA","MATILDE TAMAR LOPEZ LOZANO","URBANA","CL 24 # 7 - 07","YESCA GRANDE",,,"(094)6713685-6713831","946714761","diagnosticarips@yahoo.es","20061011",,"818000989","6.0","JURIDICO","1.0","Privada","1.0","Instituciones - IPS"
"Chocó","QUIBDÓ","2700100042","UNIDAD DE DIAGNOSTICO POR IMAGEN DIAGNOSTICAR S.A.S.","2700100042","2","DIAGNOSTICAR RESONANCIA","MATILDE TAMAR LOPEZ LOZANO","URBANA","CALLE 18 No 18 - 55","MEDRANO","27001000","SAN FRANCISCO DE QUIBDO","0946715101 EXT 202","946715101","matildelopez@diagnosticar-ips.com","20161013",,"818000989","6.0","JURIDICO","1.0","Privada","1.0","Instituciones - IPS"
"Chocó","QUIBDÓ","2700100071","CAJA DE COMPENSACION FAMILIAR DEL CHOCO","2700100071","1","CAJA DE COMPENSACION FAMILIAR DEL CHOCO","YOLANDA RENTERIA CUESTA","URBANA","Cra 4 Nº 28-43 Barrio Cristo Rey","CALLE 23 No. 4-31",,,,,,"20030411",,"891600091","8.0","JURIDICO","1.0","Privada","1.0","Instituciones - IPS"
"Chocó","QUIBDÓ","2700100281","BIOSALUD UNIDAD DE VIDA S.A.S.","2700100281","1","BIOSALUD UNIDAD DE VIDA E.U.","Yilmar Murillo Urrutia","URBANA","KR 3 CA 3-51 PI 2","Cristo Rey","27001000","SAN FRANCISCO DE QUIBDO","5.746710683E9",,"biosaluduv@hotmail.com, biosaluduv@gmail.com","20070309",,"900129139","5.0","JURIDICO","1.0","Privada","1.0","Instituciones - IPS"
"Chocó","QUIBDÓ","2700100071","CAJA DE COMPENSACION FAMILIAR DEL CHOCO","2700100071","2","CAJA DE COMPENSACION FAMILIAR DEL CHOCO","YOLANDA RENTERIA CUESTA","URBANA","CARRERA 4a. No. 29 - 57","CRISTO REY","27001000","SAN FRANCISCO DE QUIBDO","6711313.0","6711313.0","ipscomfachoco@comfachoco.com.co","20030411",,"891600091","8.0","JURIDICO","1.0","Privada","1.0","Instituciones - IPS"
"Chocó","QUIBDÓ","2700100071","CAJA DE COMPENSACION FAMILIAR DEL CHOCO","2700100071","31","SEDE PRIORITARIA","YOLANDA RENTERIA CUESTA","URBANA","CALLE 30","CRISTO REY",,,"6709568.0",,"comfachoco@comfachoco.com.co","20190115",,"891600091","8.0","JURIDICO","1.0","Privada","1.0","Instituciones - IPS"
"Chocó","QUIBDÓ","2700100071","CAJA DE COMPENSACION FAMILIAR DEL CHOCO","2700100071","32","FARMACIA","YOLANDA RENTERIA CUESTA","URBANA","CRA 5TA NRO 30-75","CESAR CONTO",,,"6709568.0",,"comfachoco@comfachoco.com.co","20190115",,"891600091","8.0","JURIDICO","1.0","Privada","1.0","Instituciones - IPS"
"Chocó","QUIBDÓ","2700100074","ASOCIACION PROBIENESTAR DE LA FAMILIA COLOMBIANA""""PROFAMILIA""","2700100074","1","PROFAMILIA","Hervin Johnas Caicedo Martínez","URBANA","QUIBDO","CALLE 30 No. 9 - 06",,,"094 6712458-6719673",,"hervin.caicedo@profamilia.org.co","20030414",,"860013779","5.0","JURIDICO","1.0","Privada","1.0","Instituciones - IPS"
"Chocó","QUIBDÓ","2700100081","AURA DEL CARMEN DIAZ MILLAN","2700100081","1","AURA DEL CARMEN DIAZ MILLAN",,"URBANA","CRA 5a # 24-170",,,,,,,"20030415",,"54254046","5.0","NATURAL","1.0","Privada","2.0","Profesional Independiente"
"Chocó","QUIBDÓ","2700100084","Cooperativa de Medicos Especialistas del Choco y Afines ""COOMESA""","2700100084","1","Cooperativa de Medicos Especialistas del Choco y Afines ""COOMESA""","JORGE ELIM LOPEZ VALENCIA","URBANA","Calle 18 N 18-55","Medrano",,,"310510609 / 3105010478","6730794.0","coomesa@hotmail.com","20171122",,"800213755","9.0","JURIDICO","1.0","Privada","1.0","Instituciones - IPS"
"Chocó","QUIBDÓ","2700100093","SOCIEDAD MEDICA VIDA S.A.S.","2700100093","1","CLINICA VIDA I.P.S S.A.S.","MARTIN EMILIO SANCHEZ VALENCIA","URBANA","CRA 4 # 29 -64","CRISTO REY",,,"6724949.0","6708131.0","clinicavidachoco@hotmail.com","20110509",,"800232788","2.0","JURIDICO","1.0","Privada","1.0","Instituciones - IPS"
"Chocó","QUIBDÓ","2700100107","MATILDE BECHARA VALENCIA","2700100107","1","MATILDE BECHARA VALENCIA",,"URBANA","CR 8 # 28- ESQUINA","SILENCIO",,,"6723638.0",,"matisa1227@hotmail.com","20110427",,"35601408","0.0","NATURAL","1.0","Privada","2.0","Profesional Independiente"
"Chocó","QUIBDÓ","2700100108","LORENZA SALAS PALACIOS","2700100108","1","LORENZA SALAS PALACIOS",,"URBANA","CARRERA 1a No.22-44",,,,,,,"20030520",,"26271516","5.0","NATURAL","1.0","Privada","2.0","Profesional Independiente"
"Chocó","QUIBDÓ","2700100138","MEJORSALUD LTDA","2700100138","1","MEJORSALUD LTDA","KELLY JOHANA PALACIOS SANCHEZ","URBANA","CALLE 20 N° 5-37","YESQUITA",,,"6713128 3117191769",,"kejopasa@hotmail.com","20160223",,"818001324","3.0","JURIDICO","1.0","Privada","1.0","Instituciones - IPS"
"Chocó","QUIBDÓ","2700100140","ANA TERESA PEÑA COPETE","2700100140","1","ANA TERESA PEÑA COPETE",,"URBANA","CALLE 27 # 3 - 02","YESQUITA",,,"6715264.0",,"ana.pena@uan.edu.co","20180131",,"54252353","2.0","NATURAL","1.0","Privada","2.0","Profesional Independiente"
"Chocó","QUIBDÓ","2700100159","maruja cujar coutin","2700100159","1","maruja cujar coutin",,"URBANA","carrera 1 # 22-44","centro",,,"3.103898031E9",,"mcujarcoutin@gmail.com","20170811",,"26259312","0.0","NATURAL","1.0","Privada","2.0","Profesional Independiente"
"Chocó","QUIBDÓ","2700100168","CORPORACIÓN GÉNESIS SALUD IPS","2700100168","1","SEDE QUIBDÓ","LUIS BAYRON GIL LONDOÑO","URBANA","Carrera 7 # 26 - 45","Alameda","27001000","SAN FRANCISCO DE QUIBDO","6709689 6709068","6709068.0","luis.gil@genesisips.com.co","20061117",,"811041637","9.0","JURIDICO","1.0","Privada","1.0","Instituciones - IPS"
"Chocó","QUIBDÓ","2700100217","IPS ROBLE SALUD E.U","2700100217","7","ROBLESALUD E.U.","HAROL ENRIQUE ANDRADE PEREA","URBANA","CRA 9 N° 26 - 56 PISO 3","SILENCIO","27001000","SAN FRANCISCO DE QUIBDO","3.218169926E9",,"harolandrades17@gmail.com","20190509",,"818002271","6.0","JURIDICO","1.0","Privada","1.0","Instituciones - IPS"
"Chocó","QUIBDÓ","2700100218","COLOMBIA SALUDABLE","2700100218","1","COLOMBIA SALUDABLE","NORELEY TOBON CAÑAS","URBANA","CL 25 # 6-27","PAN DE YUCA",,,"6708312.0","6708312.0","colombiasaludable23@epm.net.co","20061117",,"811037901","3.0","JURIDICO","1.0","Privada","1.0","Instituciones - IPS"
"Chocó","QUIBDÓ","2700100223","CENTRO DE FONOAUDIOLOGIA REHABILITACION INTEGRAL SAN JUDAS E.U","2700100223","1","CENTRO DE FONOAUDIOLOGIA INTEGRAL SAN JUDAS E.U","JUANA PATRICIA QUEJADA MAYO","RURAL","CRA 12 Nº 28-04","SAN JUDAS",,,"0946717454Ó3108373090",,"quejadajuanita@hotmail.com","20061201",,"818001954","3.0","JURIDICO","1.0","Privada","1.0","Instituciones - IPS"
"Chocó","QUIBDÓ","2700100226","CONFYR IPS LTDA","2700100226","1","CONFYR IPS LTDA","AMIR AMARILDO MENA LOZANO","URBANA","CR 3 N° 30 - 40","CRISTO REY",,,"6714295.0",,"confyrips@hotmail.com","20181120",,"830513941","9.0","JURIDICO","1.0","Privada","1.0","Instituciones - IPS"
"Chocó","QUIBDÓ","2700100226","CONFYR IPS LTDA","2700100226","3","CONFYR IPS LTDA YESCA GRANDE","AMIR AMIRLDO MENA LOZANO","URBANA","CALLE 24 NUMERO 5 - 44","YESCA GRANDE",,,"6708000.0",,"confyrips@hotmail.com","20190221",,"830513941","9.0","JURIDICO","1.0","Privada","1.0","Instituciones - IPS"
"Chocó","QUIBDÓ","2700100226","CONFYR IPS LTDA","2700100226","6","JULIO FIGUEROA VILLA","AMIR AMARILDO MENA LOZANO","URBANA","CRA 30 10-200 AVENIDA AEREOPUERTO","JULIO FIGUEROA VILLA","27001000","SAN FRANCISCO DE QUIBDO","(4)6711821",,"confyrips@hotmail.com","20190306",,"830513941","9.0","JURIDICO","1.0","Privada","1.0","Instituciones - IPS"
"Chocó","QUIBDÓ","2700100235","LABORATORIO CLINICO CELSALUD","2700100235","1","Laboratorio Clinico Celsalud","MARIELA CASTILLO FRANCO","URBANA","Calle 24 N 4 - 66 1er piso","Yesca Grande",,,"6709664 3113339820",,"lab.celsalud@hotmail.com","20110509",,"900065157","1.0","JURIDICO","1.0","Privada","1.0","Instituciones - IPS"
"Chocó","QUIBDÓ","2700100240","ARGOSALUD IPS LTDA","2700100240","1","ARGOSALUD IPS LTDA","FAUSTO BERNARDO PEREZ CHALA","URBANA","CALLE 28 # 6 - 24","CESAR CONTO","27001000","SAN FRANCISCO DE QUIBDO","6723259.0",,"ARGOIPS@HOTMAIL.COM","20180831",,"900066756","8.0","JURIDICO","1.0","Privada","1.0","Instituciones - IPS"
"Chocó","QUIBDÓ","2700100243","DENIS EUCARIS PINO MOSQUERA","2700100243","1","DENIS EUCARIS PINO MOSQUERA",,"URBANA","CRA 4 N 29- 44","CRISTO REY","27001000","SAN FRANCISCO DE QUIBDO","6725936.0","2725936.0","denispino1@gmail.com","20180221",,"35589258","0.0","NATURAL","1.0","Privada","2.0","Profesional Independiente"
"Chocó","QUIBDÓ","2700100277","Lucina Herrera Mosquera","2700100277","1","Lucina Herrera Mosquera",,"URBANA","CARRERA 4° No 24 - 129 OFICINA 103","YESCAGRANDE",,,"3.115715056E9",,"lucinah2010@hotmail.com","20170203",,"51651506","0.0","NATURAL","1.0","Privada","2.0","Profesional Independiente"
"Chocó","QUIBDÓ","2700100279","MARIA DE JESUS IPS S.A.S.","2700100279","1","MARIA DE JESUS IPS S.A.S.","JHONNY DE JESUS GRACIA ARBOLEDA","URBANA","CARRERA 5 N° 24-79 P2","PAN DE YUCA",,,"6721615.0","6721615.0","mariadejesusips@hotmail.com","20130507",,"900132422","6.0","JURIDICO","1.0","Privada","1.0","Instituciones - IPS"
"Chocó","QUIBDÓ","2700100313","GAVAVISION UNIDAD DE ESPECIALISTAS S.A.S","2700100313","1","GAVAVISION UNIDAD DE ESPECIALISTAS S.A.S","EDGAR OVIDIO GARCES VALENCIA","URBANA","CALLE 24 NO 25 -26","EL JARDIN",,,"6719502.0","6719502.0","calidad.quibdo@gavavision.com","20090215",,"900106018","3.0","JURIDICO","1.0","Privada","1.0","Instituciones - IPS"
"Chocó","QUIBDÓ","2700100322","ORTOPEDICOS DEL PACIFICO","2700100322","1","ORTOPEDICOS DEL PACIFICO","carmen lorena cañaveral castrillon","URBANA","CARRERA 5 # 30-43","CESAR CONTO",,,"6707530.0",,"contacto@ortopedicosdelpacifico.com","20170405",,"900189713","1.0","JURIDICO","1.0","Privada","1.0","Instituciones - IPS"
"Chocó","QUIBDÓ","2700100332","GILBERTO PANESSO ASPRILLA","2700100332","1","GILBERTO PANESSO ASPRILLA",,"URBANA","CRA 4 No 24-93","YESCAGRANDE","27001000","SAN FRANCISCO DE QUIBDO","6721979.0",,"optisaludchoco@hotmail.com","20140109",,"79792194","0.0","NATURAL","1.0","Privada","2.0","Profesional Independiente"
"Chocó","QUIBDÓ","2700100334","Unidad de Cuidados Intensivos y Coronarios SAS","2700100334","1","Unidad de Cuidados Intensivos y Coronarios SAS","Carlos Alberto Renteria Asprilla","URBANA","Carrera 4 # 29-57","Cristo Rey","27001000","SAN FRANCISCO DE QUIBDO","3.192646849E9",,"ucincor@gmail.com","20140508",,"900622907","9.0","JURIDICO","1.0","Privada","1.0","Instituciones - IPS"
"Chocó","QUIBDÓ","2700100362","CARDIODIAGNOSTICO DEL CHOCO SAS","2700100362","1","CARDIODIAGNOSTICO DEL CHOCO SAS","KAREN JHOANA CHAPARRO PEÑA","URBANA","KR 4a. # 29-47","CRISTO REY","27001000","SAN FRANCISCO DE QUIBDO","6724232.0","6724232.0",,"20080805",,"900210883","2.0","JURIDICO","1.0","Privada","1.0","Instituciones - IPS"
"Chocó","QUIBDÓ","2700100389","Citara Oral and Maxillofacial center S.A.S","2700100389","1","Citara Oral and Maxillofacial Center S.A.S","Mahamed Ali Gomez Renteria","URBANA","Calle 31 N° 5-43 P1","Cesar Conto","27001000","SAN FRANCISCO DE QUIBDO","6725438/3104596452",,"gestioncitaraoral@hotmail.com","20160229",,"900234000","1.0","JURIDICO","1.0","Privada","1.0","Instituciones - IPS"
"Chocó","QUIBDÓ","2700100390","IPS ERCHICHI JAI E.U.","2700100390","1","ERICHICHIJAI IPS","ARTURO VALENCIA EVAO","URBANA","VIA YUTO","CABI","27001000","SAN FRANCISCO DE QUIBDO","6733456.0","6733456.0","erchichijaiipsindigena@gmail.com","20090115",,"900144266","5.0","JURIDICO","1.0","Privada","1.0","Instituciones - IPS"
"Chocó","QUIBDÓ","2700100401","NICIDA ABADIA MOSQUERA","2700100401","1","NICIDA ABADIA MOSQUERA",,"URBANA","CALLE 31 No 2-42","CRISTO REY","27001000","SAN FRANCISCO DE QUIBDO","9.46712598E8",,"nicida_abamo@hotmail.com","20090226",,"26258167","0.0","NATURAL","1.0","Privada","2.0","Profesional Independiente"
"Chocó","QUIBDÓ","2700100418","LUZ BETANIA MOSQUERA MOSQUERA","2700100418","1","ESTETICA Y FIGURA",,"URBANA","KR 4a. # 30-21","CRISTO REY","27001000","SAN FRANCISCO DE QUIBDO","6712903.0","6712903.0","esteticayfigura@hotmail.com","20090409",,"818001599","1.0","JURIDICO","1.0","Privada","1.0","Instituciones - IPS"
"Chocó","QUIBDÓ","2700100469","LITZIA BLANDON CASAS","2700100469","1","LITZIA BLANDON CASAS",,"URBANA","CLL 24A 6-56","PANDEYUCA",,,"6708394.0","6708394.0","litziablandon@yahoo.com.co","20180828",,"51976707","2.0","JURIDICO","1.0","Privada","2.0","Profesional Independiente"
"Chocó","QUIBDÓ","2700100507","RAYMOND E.U.","2700100507","1","consultorio odontologico raymond","harley ramon murillo cuesta","URBANA","cra 7ma nº 24- 112","pan de yuca",,,"6708323.0",,"harleyramon@hotmail.com","20091001",,"818002434","1.0","JURIDICO","1.0","Privada","1.0","Instituciones - IPS"
"Chocó","QUIBDÓ","2700100522","EUSTAQUIO REYES MOSQUERA REYES","2700100522","1","EUSTAQUIO REYES MOSQUERA REYES",,"URBANA","CARRERA 3A No 27 ESQUINA","ROMA","27001000","SAN FRANCISCO DE QUIBDO","6715239.0","6715239.0","opticavision_mas@hotmail.com","20060517",,"11803896","0.0","NATURAL","1.0","Privada","2.0","Profesional Independiente"
"Chocó","QUIBDÓ","2700100531","ODONTOSALUD IPS S.A.S","2700100531","1","ODONTOSALUD IPS","JILSON HINESTROZA IBARGUEN","URBANA","CARRERA 6ª No 29 - 11","CESAR CONTO","27001000","SAN FRANCISCO DE QUIBDO","9.46713216E8",,"odontosalud@hotmail.com","20091113",,"818001404","4.0","JURIDICO","1.0","Privada","1.0","Instituciones - IPS"
"Chocó","QUIBDÓ","2700100537","YADIRA ELENA PEREA MENA","2700100537","1","OPTICA WORLD VISION","YADIRA ELENA PEREA MENA","URBANA","CL 30 N 3-21","CRISTO REY","27001000","SAN FRANCISCO DE QUIBDO","3114803044-(4)6714407","6714407.0","yadirapeream@hotmail.com","20091203",,"35892165",,"NATURAL","1.0","Privada","2.0","Profesional Independiente"
"Chocó","QUIBDÓ","2700100542","IMAGENES DIAGNOSTICAS DEL CHOCO IPS SAS","2700100542","1","IMAGENES DIAGNOSTICAS DEL CHOCO IPS SAS","YIRLEZA PINO PALACIOS","URBANA","KR 4a. # 28-39","YESCA GRANDE",,,"9.46712045E8","946712045","idchips2009@hotmail.com.co","20100119",,"900319282","6.0","JURIDICO","1.0","Privada","1.0","Instituciones - IPS"
"Chocó","QUIBDÓ","2700100543","Sociedad Hemato Oncológico del pacifico","2700100543","1","CENTRO HEMATONCOLOGICO DEL PACIFICO","ALEJANDRO PIEDRAHITA ORTEGA","URBANA","CARRERA 7 No 24 - 90","PANDEYUCA","27001000","SAN FRANCISCO DE QUIBDO","6721623.0",,"metroclinicossa@hotmail.com","20180223",,"900329116","4.0","JURIDICO","1.0","Privada","1.0","Instituciones - IPS"
"Chocó","QUIBDÓ","2700100555","Yudy Carina Lemos Mena","2700100555","1","Yudy Carina Lemos Mena",,"URBANA","cra 9ª # 17 - 45","Nicolas Medrano",,,"67177 98",,"yukaleme_17@hotmail.com","20100326",,"1017127221","0.0","NATURAL","1.0","Privada","2.0","Profesional Independiente"
"Chocó","QUIBDÓ","2700100588","Laura Patricia Pardo Velasquez","2700100588","1","Laura Patricia Pardo Velasquez",,"URBANA","cra 4ta Nº 24-58 centro comercial cinema","Yesca Grande",,,"6723930.0",,"sultancroy@hotmail.com","20100507",,"53122416","0.0","NATURAL","1.0","Privada","2.0","Profesional Independiente"
"Chocó","QUIBDÓ","2700100603","KAROL YOHANNA ARIAS LEDEZMA","2700100603","1","KAROL YOHANNA ARIAS LEDEZMA",,"URBANA","carrera 4ª No 21-91","yesquita",,,"6717587.0",,"karolarias2008@hotmail.com","20100722",,"52709436","0.0","NATURAL","1.0","Privada","2.0","Profesional Independiente"
"Chocó","QUIBDÓ","2700100604","Centro terapeútico Integral Fisiosalud","2700100604","1","Centro Terapeútico Integral Fisiosalud","Patricia Esther Perea Rodríguez","URBANA","Carrera 8 N. 28-62","yescagrande","27001000","SAN FRANCISCO DE QUIBDO","6725936.0",,"patriciapereafisiosalud@gmail.com","20180511",,"818002335","9.0","JURIDICO","1.0","Privada","1.0","Instituciones - IPS"
"Chocó","QUIBDÓ","2700100626","LABORATORIO CLINICO BACTERIOLOGICO PROVILAB","2700100626","1","LABORATORIO CLINICO BACTERIOLOGICO PROVILAB","CARLOTA CASTILLO AYALA","URBANA","calle 31 Nro. 2-70","Cristo Rey","27001000","SAN FRANCISCO DE QUIBDO","6711161.0","6724601.0","carcastillo161@hotmail.com","20101124",,"900395863","9.0","JURIDICO","1.0","Privada","1.0","Instituciones - IPS"
"Chocó","QUIBDÓ","2700100635","LUZ AMPARO JAIMES PEÑARANDA","2700100635","1","LUZ AMPARO JAIMES PEÑARANDA",,"URBANA","CALLE 31 NUMERO 3 - 18 CONSULTORIO 203","CRISTO REY","27001000","SAN FRANCISCO DE QUIBDO","6717615 3218344268","3218344268","lussamparo@yahoo.com","20110208",,"63499161","9.0","NATURAL","1.0","Privada","2.0","Profesional Independiente"
"Chocó","QUIBDÓ","2700100636","IPS SALUD PROTEGIDA E.U","2700100636","1","IPS SALUD PROTEGIDA","ROSA ELENA MOSQUERA","URBANA","CALLE15#8-50 PISO 1","NIÑO JESUS","27001000","SAN FRANCISCO DE QUIBDO","3148272907 6717584",,"odontorosamm@hotmail.com","20170327",,"900037648","7.0","JURIDICO","1.0","Privada","1.0","Instituciones - IPS"
"Chocó","QUIBDÓ","2700100643","I.P.S. SERVIMEDICO S.A.S.","2700100643","23","IPS SERVIMEDICO","MANUEL JOSE CORRALES CORDOBA","URBANA","CARRERA 7 #28-44","SILENCIO","27001000","SAN FRANCISCO DE QUIBDO","3.127962925E9",,"IPSSERVIMEDICO@HOTMAIL.COM","20170428",,"900206582","5.0","JURIDICO","1.0","Privada","1.0","Instituciones - IPS"
"Chocó","QUIBDÓ","2700100649","JONATHAN ARGUELLO MOYA","2700100649","2","JONATHAN ARGUELLO MOYA",,"URBANA","CALLE 29 # 7-26","CESAR CONTO","27001000","SAN FRANCISCO DE QUIBDO","3.46711789E8",,"DERMIKACLINICA@GMAIL.COM","20190530",,"4803351.0","0.0","NATURAL","1.0","Privada","2.0","Profesional Independiente"
"Chocó","QUIBDÓ","2700100669","CLAUDIA MILENA CUERO MOSQUERA","2700100669","1","CLAUDIA MILENA CUERO MOSQUERA",,"URBANA","Calle 21 N 4 - 09 (ENDODENT S.A.S)","Yesquita",,,"4 6724380",,"claudiacuero5@hotmail.com","20110427",,"31971073","0.0","NATURAL","1.0","Privada","2.0","Profesional Independiente"
"Chocó","QUIBDÓ","2700100676","CENTRO ODONTOLÓGICO ORALSALUD","2700100676","1","CENTRO ODONTOLÓGICO ORALSALUD","WILMER LOZANO CÓRDOBA","URBANA","CALLE 28 Nro. 1-110","ROMA",,,"0946708296 - 3218402912","946708296","wilcor70@gmail.com","20110622",,"900431019","3.0","JURIDICO","1.0","Privada","1.0","Instituciones - IPS"
"Chocó","QUIBDÓ","2700100690","unidad medica otorrinolaringologica otomedic","2700100690","1","unidad medica otorrinolringologica otomedic","Virgilio Antonio Arias Mena","URBANA","carrera 6# 33-64 , segundo piso.","Huapango",,,"6721707.0","6721707.0","otomedic.sas@gmail.com","20111014",,"900446163","1.0","JURIDICO","1.0","Privada","1.0","Instituciones - IPS"
"Chocó","QUIBDÓ","2700100696","GALENA-LABORATORIO DE PATOLOGIA S.A.S","2700100696","1","GALENA-LABORATORIO DE PATOLOGIA S.A.S","GONZALO GONZALEZ VILLARRAGA","URBANA","CARRERA 1° No 22-20","YESQUITA",,,"9.46720636E8","946720636","galena.pat@hotmail.co","20111125",,"900475379","9.0","JURIDICO","1.0","Privada","1.0","Instituciones - IPS"
"Chocó","QUIBDÓ","2700100706","UNIDAD DE VIDA SAN JUAN DE DIOS IPS S.A.S","2700100706","1","UNIDAD DE VIDA SAN JUAN DE DIOS IPS S.A.S","edwin palacios arboleda","URBANA","carrera 12 # 26a - 63","san judas tadeo","27001000","SAN FRANCISCO DE QUIBDO","3.116097011E9",,"edwinchechi1904@gmail.com","20180316",,"900475414","9.0","JURIDICO","1.0","Privada","1.0","Instituciones - IPS"
"Chocó","QUIBDÓ","2700100707","PACIFIC HEALTH SAS","2700100707","1","PACIFIC HEALTH","YACIRA BARRIOS RIVAS","URBANA","CARRERA 4 No. 24-93 PISO 2","PAN DE YUCA","27001000","SAN FRANCISCO DE QUIBDO","6721458.0",,"pacifichealth1@gmail.com","20120127",,"900478349","1.0","JURIDICO","1.0","Privada","1.0","Instituciones - IPS"
"Chocó","QUIBDÓ","2700100708","CENTRO FISIOTERAPEUTICO REHABILITAMOS IPS SAS","2700100708","1","CENTRO FISIOTERAPEUTICO REHABILITAMOS IPS SAS","Leidy samira murillo moreno","URBANA","CALLE 30 FRENTE A LA DEFENSORIA DEL PUEBLO","JULIO FIGUEROA VILLA","27001000","SAN FRANCISCO DE QUIBDO","6708703.0",,"rehabilitamosips@hotmail.com","20120127",,"900488067","2.0","JURIDICO","1.0","Privada","1.0","Instituciones - IPS"
"Chocó","QUIBDÓ","2700100740","UNIDAD DE SALUD SANTA MONICA S.A.S","2700100740","1","UNIDAD DE SALUD SANTA MONICA S.A.S","JENNY JERFAIRA RAMIREZ RODRIGUEZ","URBANA","cra 4 Nº 27-34","cristo rey","27001000","SAN FRANCISCO DE QUIBDO","3.122694801E9",,"samisaussm@hotmail.com","20181221",,"900421854","4.0","JURIDICO","1.0","Privada","1.0","Instituciones - IPS"
"Chocó","QUIBDÓ","2700100770","FUNDACION UNIONVIDA","2700100770","2","FUNDACION UNIONVIDA QUIBDO","JOSE DEL CARMEN MOSQUERA MOSQUERA","URBANA","CARRERA 2 No. 26-20 B/. ROMA","ROMA",,,"094-6712254 - 094-6719091",,"unionvida2012@hotmail.com","20120507",,"900520293","7.0","JURIDICO","1.0","Privada","1.0","Instituciones - IPS"
"Chocó","QUIBDÓ","2700100770","FUNDACION UNIONVIDA","2700100770","5","FUNDACION UNIONVIDA IPS","JOSE DEL CARMEN MOSQUERA MOSQUERA","URBANA","CARRERA 6 No. 32-19","HUAPANGO","27001000","SAN FRANCISCO DE QUIBDO","6715436 - 6719091",,"unionvida2012@hotmail.com","20150626",,"900520293","7.0","JURIDICO","1.0","Privada","1.0","Instituciones - IPS"
"Chocó","QUIBDÓ","2700100770","FUNDACION UNIONVIDA","2700100770","7","FUNDACIÓN UNIÓN VIDA ""FUNVIDA IPS PRIORITARIA Y CONSULTA EXTERNA ESPECIALIZADA","JOSE DEL CARMEM MOSQUERA MOSQUERA","URBANA","CARRERA 2 No. 26A-32","ROMA","27001000","SAN FRANCISCO DE QUIBDO","3.117339527E9",,"unionvida2012@hotmail.com","20180912",,"900520293","7.0","JURIDICO","1.0","Privada","1.0","Instituciones - IPS"
"Chocó","QUIBDÓ","2700100829","FUNDACIÓN PATRULLA AEREA DEL CHOCO IPS S.A.S.","2700100829","1","FUNDACIÓN PATRULLA AEREA DEL CHOCO IPS S.A.S.","carlos epi alvarez restrepo","URBANA","CALLE 30 No 30 A- 30 AEROPUERTO ZONA HANGARES","CARAÑO","27001000","SAN FRANCISCO DE QUIBDO","3127068823 - 3217606050",,"patrulla.aereachoco@hotmail.com","20171017",,"900222944","5.0","JURIDICO","1.0","Privada","1.0","Instituciones - IPS"
"Chocó","QUIBDÓ","2700100834","ABRAZAR ATENCION MEDICA DEL PACIFICO S.A.S.","2700100834","1","ABRAZAR ATENCION MEDICA DEL PACIFICO S.A.S.","OVIDIO CORDOBA","URBANA","carrera 10 Nro. 28 - 21 segundo piso","Barrio el Silencio",,,"3.217348304E9","6728588.0","suicidiologoscolombia@gmail.com","20181129",,"900552157","0.0","JURIDICO","1.0","Privada","1.0","Instituciones - IPS"
"Chocó","QUIBDÓ","2700100851","ENDODONTIC DENTAL CLINICA S. A. S.","2700100851","1","ENDODONTIC DENTAL CLINIC S.A.S","MARIO ANDRES CHAVERRA SALAS","URBANA","CARRERA 3ª No 29-76","CRISTO REY",,,"3.206681548E9",,"m_chaverra_salas@hotmail.com","20121029",,"900565100","8.0","JURIDICO","1.0","Privada","1.0","Instituciones - IPS"
"Chocó","QUIBDÓ","2700100852","FUNDACION RED DE LIDERES AFECTIVOS","2700100852","1","FUNDACION RED DE LIDERES AFECTIVOS","PATRICIA MENA CORDOBA","URBANA","CARRERA 3 Nro. 31 -37","CRISTO REY","27001000","SAN FRANCISCO DE QUIBDO","6723418.0",,"fundaafectivos2000@hotmail.com","20171130",,"801004934","8.0","JURIDICO","1.0","Privada","4.0","Objeto Social Diferente a la Prestación de Servicios de Salud"
"Chocó","QUIBDÓ","2700100869","Fundacion Despertar Choco","2700100869","1","fudecho","MARIA YOHANA ARBOLEDA MURILLO","URBANA","cr 3 n 22 - 17","alameda","27001000","SAN FRANCISCO DE QUIBDO","3.206783508E9","6715561.0","arysto@hotmail.com","20121214",,"900572393","8.0","JURIDICO","1.0","Privada","1.0","Instituciones - IPS"
"Chocó","QUIBDÓ","2700100884","CLINICA ODONTOLOGICA CREANDO SONRISA","2700100884","1","CLINICA ODONTOLOGICA CREANDO SONRISAS","CESAR ACUÑA MATURANA","URBANA","CALLE 28 1 No 1-110","ROMA","27001000","SAN FRANCISCO DE QUIBDO","3.105016072E9",,"nellycordoba777@gmail.com","20170329",,"900581673","3.0","JURIDICO","1.0","Privada","1.0","Instituciones - IPS"
"Chocó","QUIBDÓ","2700100889","I.P.S. TRANSVIDA CHOCO S.A.S.","2700100889","1","I. P. S. TRANSVIDA CHOCÓ S.A.S.","ARCENIO PALACIOS VALENCIA","URBANA","CALLE 26 No 4 - 39","ALAMEDA REYES","27001000","SAN FRANCISCO DE QUIBDO","9.467212E8",,"arysto3@hotmail.com","20151112",,"900585654","1.0","JURIDICO","1.0","Privada","1.0","Instituciones - IPS"
"Chocó","QUIBDÓ","2700100916","fundacion de apoyo para la vigilancia y la investigacion de la salud publica","2700100916","1","fundacion de apoyo para la vigilancia y la investigación de la salud publica","magdalena mosquera cuesta","URBANA","manzana 1 Nª 21 sector las tres torres","las americas","27001000","SAN FRANCISCO DE QUIBDO","3.103904829E9",,"juanfer2004@hotmail.com","20170728",,"900305695","3.0","JURIDICO","1.0","Privada","4.0","Objeto Social Diferente a la Prestación de Servicios de Salud"
"Chocó","QUIBDÓ","2700100931","salud y vida del pacifico s.as","2700100931","1","SALUD Y VIDA DEL PACIFICO S.A.S.","CLAUDIA MAGALY LEDEZMA LLOREDA","URBANA","CALLE 29 No 5-16","CESAR CONTO",,,"3.103979504E9",,"ipsaludyvidadelpacifico@hotmail.com","20130423",,"900568590","7.0","JURIDICO","1.0","Privada","1.0","Instituciones - IPS"
"Chocó","QUIBDÓ","2700100942","ORTOPEDICOS SAN FRANCISCO SAS","2700100942","1","ORTOPEDICOS SAN FRANCISCO S.A.S.","JOSE RAUL CAÑADAS HOYOS","URBANA","CALLE 30 # 6-45 PISO 1","CESAR CONTO/ EDF. SAN FRANCISCO",,,"3.122723741E9","6724496.0","ortopedicossanfranciscosas@gmail.com","20160628",,"900634247","8.0","JURIDICO","1.0","Privada","1.0","Instituciones - IPS"
"Chocó","QUIBDÓ","2700100944","centro fonoaudiologico DAMA S.A.S.","2700100944","1","centro fonoaudiologico DAMA S.A.S","GENITH GARRIDO ARRIAGA","URBANA","KRA 7 N 26 - 93","ALAMEDA REYES","27001000","SAN FRANCISCO DE QUIBDO","6721226 - 3105599823","6721226.0","centrofonoaudiologicodama@hotmail.com","20131023",,"900642109","3.0","JURIDICO","1.0","Privada","1.0","Instituciones - IPS"
"Chocó","QUIBDÓ","2700100945","Unidad de Cuidados Críticos del Chocó SAS","2700100945","1","Unidad de Cuidados Críticos del Chocó SAS","Martín Emilio Sánchez Valencia","URBANA","Carrera 4 No. 29-64","Cristo Rey","27001000","SAN FRANCISCO DE QUIBDO","6724949.0","6724949.0","ucidelchoco@gmail.com","20131107",,"900568257","9.0","JURIDICO","1.0","Privada","1.0","Instituciones - IPS"
"Chocó","QUIBDÓ","2700100984","CENTRO NEUROLOGICO DEL PACIFICO","2700100984","1","CENTRO NEUROLOGICO DEL PACIFICO","LUIS YILBER MEZA BEJARANO","URBANA","CALLE 24 N- 6-33","YESCA GRANDE","27001000","SAN FRANCISCO DE QUIBDO","3104183963 - 3206188551",,"centroneurologico7yg@gmail.com","20131119",,"900611518","1.0","JURIDICO","1.0","Privada","1.0","Instituciones - IPS"
"Chocó","QUIBDÓ","2700100994","Instituto Nefrológico del Choco S.A.S","2700100994","1","Instituto Nefrológico del Choco S.A.S","HUMBERTO QUINTERO DUQUE","URBANA","CRA 3 No. 29 - 52 QUINTO PISO","CRISTO REY",,,"3.165301041E9",,"nefrochoco13@gmail.com","20140821",,"900476563","2.0","JURIDICO","1.0","Privada","1.0","Instituciones - IPS"
"Chocó","QUIBDÓ","2700100997","IPS UNIVISUAL CHOCO SAS","2700100997","1","IPS UNIVISUAL CHOCO SAS","ANA MARCELA VALENCIA GARCES","URBANA","CALLE 25 No.6-56","PAN DE YUCA","27001000","SAN FRANCISCO DE QUIBDO","9.46721981E8",,"ipsunivisualchoco@outlook.es","20131226",,"900670631","6.0","JURIDICO","1.0","Privada","1.0","Instituciones - IPS"
"Chocó","QUIBDÓ","2700101007","RENOVA SER IPS S.A.S.","2700101007","1","RENOVA SER IPS S.A.S.","SOFFY ZENAIDA MOSQUERA MOSQUERA","URBANA","CALLE 18 #11-41","MEDRANO",,,"6720968 - 3192367768","3192367768","info@renovaser.com","20160112",,"900656570","7.0","JURIDICO","1.0","Privada","1.0","Instituciones - IPS"
"Chocó","QUIBDÓ","2700101009","REACTIVA TOMA DE MUESTRAS","2700101009","1","REACTIVA TOMA DE MUESTRAS",,"URBANA","CALLE 14 No.5-16","NIÑO JESUS SECTOR LA T",,,"6724153-3136416137",,"reactivatomademuestras@gmail.com","20150305",,"11804814","0.0","NATURAL","1.0","Privada","2.0","Profesional Independiente"
"Chocó","QUIBDÓ","2700101020","CORPASOFA","2700101020","1","CORPASOFA","MARY LUZ ORTIZ DIAZ","URBANA","CALLE 23 4-40","YESQUITA","27001000","SAN FRANCISCO DE QUIBDO","3.128343214E9",,"corpasofa@gmail.com","20140820",,"818002076","6.0","JURIDICO","1.0","Privada","4.0","Objeto Social Diferente a la Prestación de Servicios de Salud"
"Chocó","QUIBDÓ","2700101026","SERVIMEDICAL J.J EXPRESS S.A.S","2700101026","1","SERVIMEDICAL J.J EXPRESS S.A.S","JOSE FELIX PALACIOS RENTERIA","URBANA","CARRERA 12 No 46 - 133","PORVENIR","27001000","SAN FRANCISCO DE QUIBDO","3105594601 -3128199076",,"jfeliz61@hotmail.com","20170210",,"900601482","0.0","JURIDICO","1.0","Privada","1.0","Instituciones - IPS"
"Chocó","QUIBDÓ","2700101034","CERECONQUIBDO SAS","2700101034","1","CERECONQUIBDO SAS",,"URBANA","Calle 30 No. 12 - 112","San Judas","27001000","SAN FRANCISCO DE QUIBDO","6720284.0",,"cereconquibdo@hotmail.com","20160308",,"900772707","5.0","JURIDICO","1.0","Privada","4.0","Objeto Social Diferente a la Prestación de Servicios de Salud"
"Chocó","QUIBDÓ","2700101035","Hemo Pacifico s.a.s","2700101035","1","IPS COMFACHOCO","claudia milena mesa pèrez","URBANA","Cra 3 No 29-57 6 Piso IPS Comfachocò","CristoRey",,,"3.016063259E9",,"hemopacificosas@gmail.com","20150312",,"900767816","1.0","JURIDICO","1.0","Privada","1.0","Instituciones - IPS"
"Chocó","QUIBDÓ","2700101038","GASTRO CENTER S.A.S","2700101038","1","GASTRO CENTER S.A.S","Gilberto Ibargüen","URBANA","CARRERA 7#30-28","CESAR CONTO","27001000","SAN FRANCISCO DE QUIBDO","3.122303518E9",,"saxpasionario@gmail.com","20150305",,"900771065","0.0","JURIDICO","1.0","Privada","1.0","Instituciones - IPS"
"Chocó","QUIBDÓ","2700101044","Luis Augusto Cordoba Asprila","2700101044","1","Luis Augusto Cordoba Asprila",,"URBANA","calle 28 carrera 8 esquina","Silencio","27001000","SAN FRANCISCO DE QUIBDO","6723638.0",,"frenilloscali@gmail.com","20150130",,"79625820","0.0","NATURAL","1.0","Privada","2.0","Profesional Independiente"
"Chocó","QUIBDÓ","2700101045","carmen iris palacios mena","2700101045","1","carmen iris palacios mena",,"URBANA","Barrio Pablo sexto","Barrio Pablo sexto","27001000","SAN FRANCISCO DE QUIBDO","3.122688901E9",,"carmeniris2011@gmail.com","20150204",,"54255597","0.0","NATURAL","1.0","Privada","2.0","Profesional Independiente"
"Chocó","QUIBDÓ","2700101049","centro especializado en medicina del sueno y del corazon","2700101049","1","CENTRO ESPECIALIZADO EN MEDICINA DEL SUEÑO Y DEL CORAZON","MERCEDES ALARCON SANCHEZ","URBANA","CRA 6 No. 30-63 piso 1","CESAR CONTO",,,"3226530585-3113045431",,"mercedes.alarconsanchez@gmail.com","20150319",,"900815727","9.0","JURIDICO","1.0","Privada","1.0","Instituciones - IPS"
"Chocó","QUIBDÓ","2700101049","centro especializado en medicina del sueno y del corazon","2700101049","2","CENTRO ESPECIALIZADO EN MEDICINA DEL SUEÑO Y DEL CORAZÓN S.A.S","mercedez alarcon sanchez","URBANA","CALLE 6° # 30 - 63","CESAR CONTO","27001000","SAN FRANCISCO DE QUIBDO","6710233.0",,"clinicadelsuenoydelcorazon@hotmail.com","20170630",,"900815727","9.0","JURIDICO","1.0","Privada","1.0","Instituciones - IPS"
"Chocó","QUIBDÓ","2700101053","GOLDEN SERVICES OUTSOURCING S.A.S","2700101053","1","GOLDEN SERVICES OUTSOURCING S.A.S.","YEFERSON BECHARA MOSQUERA","URBANA","CALLE 31# 5-22","CESAR CONTO","27001000","SAN FRANCISCO DE QUIBDO","6718108.0",,"goldenservices@outlook.es","20150319",,"900795746","1.0","JURIDICO","1.0","Privada","4.0","Objeto Social Diferente a la Prestación de Servicios de Salud"
"Chocó","QUIBDÓ","2700101058","EYRA DALENA MURILLO GONZALEZ","2700101058","1","EYRA DALENA MURILLO GONZALEZ",,"URBANA","Cra 6° HUAPANGO",,,,"3148501286-3113685532",,"dalena18@hotmail.com","20150527",,"52263892","0.0","NATURAL","1.0","Privada","2.0","Profesional Independiente"
"Chocó","QUIBDÓ","2700101059","UNIDAD MEDICA INTEGRAL SAN RAFAEL","2700101059","1","UNIDAD MEDICA SAN RAFAEL","LUZ DARY LOZANO PEREZ","URBANA","CARRERA 5 N° 30 - 27","CESAR CONTO","27001000","SAN FRANCISCO DE QUIBDO","6723730.0",,"mary.lozano@hotmail.com","20150529",,"900848941","0.0","JURIDICO","1.0","Privada","1.0","Instituciones - IPS"
"Chocó","QUIBDÓ","2700101060","CARLOS ALBERTO MOSQUERA VALOYES","2700101060","1","CARLOS ALBERTO MOSQUERA VALOYES",,"URBANA","CALLE 34 - 139","KENNEDY",,,"3107678856 - 3117348359",,"sixtely19@hotmail.com","20160229",,"71350931","0.0","NATURAL","1.0","Privada","2.0","Profesional Independiente"
"Chocó","QUIBDÓ","2700101066","Ong Crecer en Familia Choco","2700101066","1","ONG CRECER EN FAMILIA CHOCO","ZULAMITA ANA LILIANA KAIM TORRES","URBANA","CARRERA 8 No. 28-45","EL SILENCIO",,,"6714323.0",,"crecefamilia@hotmail.com","20150715",,"805020621","1.0","JURIDICO","1.0","Privada","4.0","Objeto Social Diferente a la Prestación de Servicios de Salud"
"Chocó","QUIBDÓ","2700101074","INVERSIONES EN TRANSPORTE, EDUCACION, SEGURIDAD Y SERVICIOS S.A.","2700101074","1","INVERSIONES EN TRASPORTE, EDUCACION, SEGURIDAD Y SERVICIOS S.A.","BLANCA EMMA GIRALDO RAMIREZ","URBANA","CALLE 30 # 13-48 piso 2","BARRIO SAN JUDAS",,,"6709565.0",,"invertress.sa2@hotmail.com","20151125",,"900120459","6.0","JURIDICO","1.0","Privada","4.0","Objeto Social Diferente a la Prestación de Servicios de Salud"
"Chocó","QUIBDÓ","2700101075","MEDICHOCO IPS S.A.S","2700101075","1","MEDICHOCO IPS S.A.S","CIRO YACCI MENDOZA HINESTROZA","URBANA","CALLE 24 N° 19-232","MINERCOL ZONA MINERA",,,"6721135.0",,"felipe5801@hotmail.com","20160907",,"900881965","6.0","JURIDICO","1.0","Privada","1.0","Instituciones - IPS"
"Chocó","QUIBDÓ","2700101078","VICTOR HUGO RODRIGUEZ MUÑOZ","2700101078","1","VICTOR HUGO RODRIGUEZ MUÑOZ",,"URBANA","Cra 9 # 28-17","Barrio El Silencio","27001000","SAN FRANCISCO DE QUIBDO","3.136737201E9",,"quibdo@vhrcentropediatricoips.com","20151217",,"76306801","0.0","NATURAL","1.0","Privada","2.0","Profesional Independiente"
"Chocó","QUIBDÓ","2700101081","ERIKA TATIANA ZULUAGA GOMEZ","2700101081","1","ERIKA TATIANA ZULUAGA GOMEZ",,"URBANA","KR 1 # 26 - 08 LC 2","ROMA","27001000","SAN FRANCISCO DE QUIBDO","3.217227881E9",,"eritatazg@gmail.com","20160104",,"1077434147","0.0","NATURAL","1.0","Privada","2.0","Profesional Independiente"
"Chocó","QUIBDÓ","2700101084","jhasnny moreno reales","2700101084","1","jhasnny moreno reales",,"URBANA","carrera 4 # 29 - 47 piso 2","cristo rey","27001000","SAN FRANCISCO DE QUIBDO","3.206979794E9",,"jhasnny@gmail.com","20160204",,"22479667","0.0","NATURAL","1.0","Privada","2.0","Profesional Independiente"
"Chocó","QUIBDÓ","2700101086","Centro Terapeutico Recuperarte IPS","2700101086","1","Centro terapeutico Recuperarte","Yomaira Asprilla","URBANA","Carrera 5 # 32-55","Miraflores","27001000","SAN FRANCISCO DE QUIBDO","3.103995087E9",,"centroterapeuticorecuperarte@gmail.com","20160229",,"900926275","8.0","JURIDICO","1.0","Privada","1.0","Instituciones - IPS"
"Chocó","QUIBDÓ","2700101087","DAUBARA SALUD IPS S.A.S.","2700101087","1","DAUBARA SALUD IPS SAS","ELICIO DE JESUS CAISAMO ISARAMA","URBANA","CARRERA 1°CON CALLE 27 No 10 PISO 2","ROMA","27001000","SAN FRANCISCO DE QUIBDO","3.147741489E9",,"daubarasaludips@hotmail.com","20160912",,"900725702","9.0","JURIDICO","1.0","Privada","1.0","Instituciones - IPS"
"Chocó","QUIBDÓ","2700101093","CORPUSOI","2700101093","1","corpusoi","moshe shalim cañas cortes","URBANA","Calle 27 No 3-04","Roma",,,"3.127591548E9",,"corpusoi.es@gmail.com","20160831",,"900871288","5.0","JURIDICO","1.0","Privada","4.0","Objeto Social Diferente a la Prestación de Servicios de Salud"
"Chocó","QUIBDÓ","2700101099","tatiana sofia posada zambrano","2700101099","1","tatiana sofia posada zambrano",,"URBANA","CALLE 30 # 3 -19","CRISTO REY","27001000","SAN FRANCISCO DE QUIBDO","3.152163916E9",,"peggy201353654@hotmail.com","20160512",,"39049753","0.0","NATURAL","1.0","Privada","2.0","Profesional Independiente"
"Chocó","QUIBDÓ","2700101100","NEUROPSIS IPS","2700101100","1","NEUROPSIS IPS","CLARA ISABEL DIAZ","URBANA","CL 30 # 13-48","Santa Ana",,,"3017868115-6708701",,"neuropsis.ips@gmail.com","20160518",,"900952558","7.0","JURIDICO","1.0","Privada","1.0","Instituciones - IPS"
"Chocó","QUIBDÓ","2700101104","CAPITAL DENT IPS SAS","2700101104","1","CAPITAL DENT IPS SAS","DISSA LENIS LOPEZ MOSQUERA","URBANA","cr 6 # 29-29","CESAR CONTO","27001000","SAN FRANCISCO DE QUIBDO","3.21833266E8","6700000.0","centrocapitaldento@hotmail.com","20161108",,"900967165","1.0","JURIDICO","1.0","Privada","1.0","Instituciones - IPS"
"Chocó","QUIBDÓ","2700101105","nefrochoco s.a.s","2700101105","1","nefrocochoco","marcelo aguirre caicedo","URBANA","cra 8 29-30","silencio","27001000","SAN FRANCISCO DE QUIBDO","6716440.0","6716440.0","nefrochoco@gmail.com","20160622",,"900927887","1.0","JURIDICO","1.0","Privada","1.0","Instituciones - IPS"
"Chocó","QUIBDÓ","2700101106","SALUD PARA MI IPS S.A.S","2700101106","1","SALUD PARA MI IPS S.A.S","FABIAN PALACIOS SANCHEZ","URBANA","CALLE 15 # 5 -02","NIÑO JESUS",,,"3.208319106E9",,"ROLDAN1965@GMAIL.COM","20161014",,"900929235","7.0","JURIDICO","1.0","Privada","1.0","Instituciones - IPS"
"Chocó","QUIBDÓ","2700101110","FISIODEMIND IPS S.A.S.","2700101110","1","FISIODEMIND IPS S.A.S.","YOHANA PAOLA ANDRADE CASTRO","URBANA","calle 21 No. 17-89","sector los roales",,,"3.225684879E9",,"fisiodemindips@outlook.es","20161214",,"900927665","1.0","JURIDICO","1.0","Privada","1.0","Instituciones - IPS"
"Chocó","QUIBDÓ","2700101111","CLINICA ODONTOLOGICA MATIZ SAS","2700101111","1","CLINICA ODONTOLOGICA MATIZ SAS","LUISA EDIGME ASPRILLA RENTERIA","URBANA","Carrera 4 # 29-12","Cristo Rey","27001000","SAN FRANCISCO DE QUIBDO","3113725062- 3122402570",,"consultas.matiz@gmail.com","20160722",,"900972283","2.0","JURIDICO","1.0","Privada","1.0","Instituciones - IPS"
"Chocó","QUIBDÓ","2700101119","Sully Arriaga Mosquera","2700101119","1","Sully Arriaga Mosquera",,"URBANA","Carrera 4 #29-47 2° piso","Cristo Rey","27001000","SAN FRANCISCO DE QUIBDO","3.176753381E9",,"suarrim@hotmail.com","20160718",,"52056786","0.0","NATURAL","1.0","Privada","2.0","Profesional Independiente"
"Chocó","QUIBDÓ","2700101120","Servicio Nacional de Aprendizaje SENA","2700101120","1","Servicio Nacional de Aprendizaje SENA","CARLOS ANDRES VARGAS GARCIA","URBANA","CARRERA 1° No 28-71","CRISTO REY",,,"9.467238E8","946723800","yalili1@hotmail.com","20160722",,"899999034","1.0","JURIDICO","4.0","Pública","4.0","Objeto Social Diferente a la Prestación de Servicios de Salud"
"Chocó","QUIBDÓ","2700101122","JULIAN ERNESTO PEÑA RAVE","2700101122","1","JULIAN ERNESTO PEÑA RAVE",,"URBANA","CALLE 28 # 4-14","CRISTO REY","27001000","SAN FRANCISCO DE QUIBDO","3.148664208E9",,"JULIANP22@HOTMAIL.COM","20160802",,"98670335","0.0","NATURAL","1.0","Privada","2.0","Profesional Independiente"
"Chocó","QUIBDÓ","2700101123","FUNDACIÓN PAZCIFICO VIVE","2700101123","1","FUNDACIÓN PAZCIFICO VIVE","NIZA HISLEYDYS MOSQUERA CORDOBA","URBANA","20 No 21 -32","JARDIN SECTOR LOS ROSALES",,,"3.117115425E9",,"nizahisleydys@yahoo.es","20161121",,"900937890","5.0","JURIDICO","1.0","Privada","1.0","Instituciones - IPS"
"Chocó","QUIBDÓ","2700101124","Asociación Megasalud","2700101124","1","ASOMEGASALUD","GLADYS BAZAN AGUILAR","URBANA","calle 24 cr. 1ra N° 33-03","MEDRANO POR LA FARMACIA",,,"3.147013545E9","6722518.0","asomegasalud2013@gmail.com","20160914",,"900088061","2.0","JURIDICO","1.0","Privada","4.0","Objeto Social Diferente a la Prestación de Servicios de Salud"
"Chocó","QUIBDÓ","2700101125","UNIDAD MEDICOQUIRURGICA SANTIAGO I.P.S.","2700101125","1","UNIDAD MEDICOQUIRURGICA SANTIAGO S.A.S","GILBERTO CESAR IBARGUEN MORENO","URBANA","CARRERA 23 # 21-21","BARRIO EL JARDIN - ZONA MINERA / SECTOR MINERCOL",,,"3.122303518E9",,"SAXPASIONARIO@GMAIL.COM","20160921",,"900604984","1.0","JURIDICO","1.0","Privada","1.0","Instituciones - IPS"
"Chocó","QUIBDÓ","2700101127","INSTITUTO DE DOLOR DEL PACIFICO S.A.S.","2700101127","1","INSTITUTO DE DOLOR DEL PACIFICO S.A.S.","LEONIDAS MOYA PALACIOS","URBANA","CALLE 30# 12-96 PISO 1","JULIO FIGUEROA VILLA",,,"3.146567446E9",,"INSTITUTODEDOLORDELPACIFICO@GMAIL.COM","20161011",,"901012362","1.0","JURIDICO","1.0","Privada","1.0","Instituciones - IPS"
"Chocó","QUIBDÓ","2700101128","somed-clínica reina virgen maría","2700101128","1","clinica reina virgen maria","mario eliecer diaz lorduy","URBANA","clle 18 # 18-55","medrano",,,"6730794.0",,"clinicareinavirgenmariaquibdo@hotmail.com","20180315",,"900115425","6.0","JURIDICO","1.0","Privada","1.0","Instituciones - IPS"
"Chocó","QUIBDÓ","2700101129","ONEIDA LUZ HERRERA LOPEZ","2700101129","1","PUREZA DE PIEL",,"URBANA","Cra 6 No. 27-17","Cesar Conto",,,"3.108901244E9","3146271635","jimyas11@hotmail.com","20161212",,"26202764","0.0","NATURAL","1.0","Privada","2.0","Profesional Independiente"
"Chocó","QUIBDÓ","2700101131","UNIDAD DE SALUD DE LA COSTA S.A.S","2700101131","1","UNIDAD DE SALUD DE LA COSTA S.A.S","YANELIS MONTALVO MOSQUERA","URBANA","kra.13#30-37","santodomingo",,,"5.73548453E8",,"unicostasas@gmail.com","20161108",,"900982608","5.0","JURIDICO","1.0","Privada","1.0","Instituciones - IPS"
"Chocó","QUIBDÓ","2700101132","FUNDACIÓN VALORES","2700101132","1","FUNDACIÓN VALORES","DIANA CORDOBA ORTIZ","URBANA","CARRERA 8° No 30 - 72 P 1-4","TOMAS PEREZ","27001000","SAN FRANCISCO DE QUIBDO","3.128661822E9",,"fundacionvalores@hotmail.com","20161121",,"900207221","6.0","JURIDICO","1.0","Privada","4.0","Objeto Social Diferente a la Prestación de Servicios de Salud"
"Chocó","QUIBDÓ","2700101135","ORTODENT DEL PACIFICO.","2700101135","1","ORTODENT DEL PACIFICO","LEONARDO VALOIS VALENCIA","URBANA","CRA 6 N 24-13","YESCAGRANDE",,,"6716809.0",,"leonardovalois68@gmail.com","20170220",,"900688989","6.0","JURIDICO","1.0","Privada","1.0","Instituciones - IPS"
"Chocó","QUIBDÓ","2700101136","SUMIMEDICAL SAS","2700101136","1","SUMIMEDICAL QUIBDO","JORGE LUIS ROCHA PATERNINA","URBANA","Cra 1 No. 26-91","BARRIO ROMA","27001000","SAN FRANCISCO DE QUIBDO","4114488.0","4114488.0","jrocha48@hotmail.com","20180130",,"900033371","4.0","JURIDICO","1.0","Privada","1.0","Instituciones - IPS"
"Chocó","QUIBDÓ","2700101137","CENTRO DE REHABILITACIÓN INTEGRAL SAGRADO CORAZON S.A.S.","2700101137","1","CENTRO DE REHABILITACIÓN INTEGRAL SAGRADO CORAZON","JULIA SEGUNDA LOZANO ANDRADE","URBANA","CALLE 26 No 26 - 22","COHIMBRA","27001000","SAN FRANCISCO DE QUIBDO","3.103902278E9",,"julialozanoandrade@hotmail.es","20170203",,"901027044","1.0","JURIDICO","1.0","Privada","1.0","Instituciones - IPS"
"Chocó","QUIBDÓ","2700101140","FUNDACIÓN SANTA SOFIA DE ASIS","2700101140","1","FUNDACIÓN SANTA SOFIA DE ASIS","PATRICIA CAROLINA PEREA RENTERIA","URBANA","CARRERA 4 No 29-12","CRISTO REY",,,"9.46720285E8",,"fundacionsantasofiadeasis@gmail.com","20161227",,"901035250","4.0","JURIDICO","1.0","Privada","1.0","Instituciones - IPS"
"Chocó","QUIBDÓ","2700101147","ORAL & MAXILLOFACIAL CENTER CARE S.A.S","2700101147","1","ORAL & MAXILLOFACIAL CENTER CARE S.A.S","PEDRO MARTIRO MORENO RODRIGUEZ","URBANA","CRA 3-22-31","YESQUITA","27001000","SAN FRANCISCO DE QUIBDO","3145380480- 6709038","6709038.0","peter3086@hotmail.com","20170315",,"901053894","3.0","JURIDICO","1.0","Privada","1.0","Instituciones - IPS"
"Chocó","QUIBDÓ","2700101154","BANTÚ CLÍNICA DE SALUD MENTAL S.A.S.","2700101154","1","BANTÚ CLÍNICA DE SALUD MENTAL S.A.S.","LUZ AMPARO JAIME PEÑARANDA","URBANA","carrera 7° No 25- 82","ALAMEDA REYES","27001000","SAN FRANCISCO DE QUIBDO","3.218344268E9","946717615","lussamparo@yahoo.com","20170624",,"901053124","0.0","JURIDICO","1.0","Privada","1.0","Instituciones - IPS"
"Chocó","QUIBDÓ","2700101155","FUNDACION PODER CHOCO","2700101155","1","FUNDACIÓN PODER CHOCO","MARIO MENA RENTERIA","URBANA","CALLE 27 ENTRE 18 Y 20","JARDIN","27001000","SAN FRANCISCO DE QUIBDO","3.133503306E9","6714433.0","poderchoco@gmail.com","20170623",,"900720926","9.0","JURIDICO","1.0","Privada","4.0","Objeto Social Diferente a la Prestación de Servicios de Salud"
"Chocó","QUIBDÓ","2700101158","Yolane Asprilla Zapata","2700101158","1","Yolane Asprilla Zapata",,"URBANA","carrera 9 No 13 -37","Niño Jesus","27001000","SAN FRANCISCO DE QUIBDO","3.117705948E9",,"lapediatrayolane@hotmail.com","20170628",,"53140691","0.0","NATURAL","1.0","Privada","2.0","Profesional Independiente"
"Chocó","QUIBDÓ","2700101160","AASIEL S.A.S.","2700101160","1","AASIEL S.A.S.","MERLIN YADIRA PALACIOS CUESTA","URBANA","CALLE 31 No 7 - 90","TOMAS PEREZ PISO 1","27001000","SAN FRANCISCO DE QUIBDO","3.107723871E9",,"mpalacios1309@outlook.com","20170630",,"900944188","1.0","JURIDICO","1.0","Privada","1.0","Instituciones - IPS"
"Chocó","QUIBDÓ","2700101161","Corporación Integral para el desarrollo comunitario Caminar","2700101161","1","Corporación Caminar","Maritza Adriana Copete Hernandez","URBANA","cra 6 calle 40","subestacion","27001000","SAN FRANCISCO DE QUIBDO","6707396.0","6707396.0","corpocaminar2006@gmail.com","20170721",,"900108108","7.0","JURIDICO","1.0","Privada","4.0","Objeto Social Diferente a la Prestación de Servicios de Salud"
"Chocó","QUIBDÓ","2700101162","ANTONIO GABRIEL MUSIRI PASTRANA","2700101162","1","antonio gabriel musiri pastrana",,"URBANA","CRA 9 N 21-30","MEDRANO LA Y",,,"3205342639-3203286761","3516516.0","distriopticas@gmail.com","20170721",,"72285166","0.0","NATURAL","1.0","Privada","2.0","Profesional Independiente"
"Chocó","QUIBDÓ","2700101164","FUNDACION ETNODESARROLLO SOCIAL","2700101164","1","FUNDACION ETNODESARROLLO SOCIAL","Kevin Garcia","URBANA","Calle 26 entre 4a y 5a. Oficina 401, Edificio Asturias.","Alameda Reyes",,,"3104405912 - 3124079161",,"franceslygiron@hotmail.com","20170728",,"901037645","9.0","JURIDICO","1.0","Privada","4.0","Objeto Social Diferente a la Prestación de Servicios de Salud"
"Chocó","QUIBDÓ","2700101165","FUNDACION JESUS DIVINO PROTECTOR","2700101165","1","FUNDACION JESUS DIVINO PROTECTOR","MARTIN PALOMEQUE MARTINEZ","URBANA","KRA 9 N 20-24","NICOLAS MEDRANO",,,"6713840.0",,"jediprochoco.org@hotmail.com","20170809",,"900413418","2.0","JURIDICO","1.0","Privada","4.0","Objeto Social Diferente a la Prestación de Servicios de Salud"
"Chocó","QUIBDÓ","2700101168","HENRY ZAFRA OSORIO","2700101168","1","HENRY ZAFRA OSORIO",,"URBANA","CRA 5 29 47","CESAR CONTO",,,"6723252.0",,"omaryesid-456@hotmail.com","20171108",,"72004074","5.0","NATURAL","1.0","Privada","2.0","Profesional Independiente"
"Chocó","QUIBDÓ","2700101169","Nueva Empresa Social del Estado Hospital Departamental San Francisco de Asís","2700101169","1","Nueva Empresa Social del Estado Hospital Departamental San Francisco de Asis","CARLOS ENRIQUE PALACIOS PEREA","URBANA","CR 1 31 25","KENNEDY",,,"3.146327293E9",,"calidadnuevaese@hotmail.com","20170901",,"901108114","5.0","JURIDICO","4.0","Pública","1.0","Instituciones - IPS"
"Chocó","QUIBDÓ","2700101170","FUNDACIÓN BIENESTAR TOTAL PARA EL DESARROLLO DEL CHOCÓ","2700101170","1","FUNDACIÓN BIENESTAR TOTAL PARA EL DESARROLLO DEL CHOCÓ","JAMES RIVAS MOSQUERA","URBANA","calle 21 No 20 - 95","JARDIN","27001000","SAN FRANCISCO DE QUIBDO","3.207215244E9",,"beimarborja@hotmail.es","20170929",,"900681269","1.0","JURIDICO","1.0","Privada","4.0","Objeto Social Diferente a la Prestación de Servicios de Salud"
"Chocó","QUIBDÓ","2700101171","fundacion medios","2700101171","1","fundacion medios","karen indira ledesma maturana","URBANA","cr 13 calle 8 n. 8-58","niño jesus","27001000","SAN FRANCISCO DE QUIBDO","6723604-3122012675",,"mediosapm@yahoo.es","20170925",,"900274186","1.0","JURIDICO","1.0","Privada","4.0","Objeto Social Diferente a la Prestación de Servicios de Salud"
"Chocó","QUIBDÓ","2700101175","UNIMEDICS S.A.S.","2700101175","1","UNIMEDICS S.A.S.","SELVA TERESA DUEÑAS MOSQUERA","URBANA","CARRERA 22 No.21-44","NICOLAS MEDRANO",,,"3.114356232E9",,"unimedicssas@gmail.com","20171115",,"901124916","2.0","JURIDICO","1.0","Privada","1.0","Instituciones - IPS"
"Chocó","QUIBDÓ","2700101176","GRUPO SINAPSIS","2700101176","1","Grupo Sinapsis Ips","HEILER MARCEL VALOYES MENA","URBANA","CARRERA 6 DIAGONAL AL ANTIGUO MATADERO","HUAPANGO","27001000","SAN FRANCISCO DE QUIBDO","3015827072 - 3148637133",,"gruposinapsis.ips@gmail.com","20171114",,"900821753","5.0","JURIDICO","1.0","Privada","1.0","Instituciones - IPS"
"Chocó","QUIBDÓ","2700101179","Carlos Edinson Cristancho Prada","2700101179","1","Carlos Edinson Cristancho Prada",,"URBANA","CRA 4 N°28-58","CRISTO REY","27001000","SAN FRANCISCO DE QUIBDO","3.117923189E9",,"elmerarley@gmail.com","20171115",,"80100839",,"NATURAL","1.0","Privada","2.0","Profesional Independiente"
"Chocó","QUIBDÓ","2700101182","Samira Lozano Mena","2700101182","2","Samira Lozano Mena",,"URBANA","REHABILITEMOS CON AMOR","Calle 24# 5-77 Barrio Yescagrandre",,,"3.217281165E9",,"samira_1920@hotmail.com","20171218",,"1077442167",,"NATURAL","1.0","Privada","2.0","Profesional Independiente"
"Chocó","QUIBDÓ","2700101184","ANALIZAR LAB S.A.S.","2700101184","1","ANALIZAR LAB S.A.S.","OSIRIS DEL CARMEN CASAS MENA","URBANA","CARRERA 5° No 29-3","CRISTO REY","27001000","SAN FRANCISCO DE QUIBDO","6720213.0",,"analizarlaboratorio1@gmail.com","20171222",,"901119395","5.0","JURIDICO","1.0","Privada","1.0","Instituciones - IPS"
"Chocó","QUIBDÓ","2700101185","CENTRO VISUAL DEL CHOCÓ S.A.S","2700101185","1","CENTRO VISUAL DEL CHOCÓ S.A.S","JUAN CARLOS GRACIA ARBOLEDA","URBANA","carrera 4 N 24-79 piso 1","yesca grande","27001000","SAN FRANCISCO DE QUIBDO","3.148363688E9",,"centromedicodelchoco@gmail.com","20180206",,"901136508","2.0","JURIDICO","1.0","Privada","1.0","Instituciones - IPS"
"Chocó","QUIBDÓ","2700101188","CENTRO DE ESPECIALIDADES MEDICAS DEL CHOCO","2700101188","1","CENTRO DE ESPECIALIDADES MEDICAS DEL CHOCO","NIDIA YEANA PALOMEQUE MORENO","URBANA","CARRERA 8 # 25-65","ALAMEDA","27001000","SAN FRANCISCO DE QUIBDO","6721109.0",,"contacto@cemchocoips.com","20180125",,"901111629","7.0","JURIDICO","1.0","Privada","1.0","Instituciones - IPS"
"Chocó","QUIBDÓ","2700101189","otilia cuesta caicedo","2700101189","1","otilia cuesta caicedo",,"URBANA","carrera 5 # 25-11 4 piso","barrrio pandeyuca","27001000","SAN FRANCISCO DE QUIBDO","3.207206251E9",,"ocuca7@hotmail.com","20180119",,"51567113",,"NATURAL","1.0","Privada","2.0","Profesional Independiente"
"Chocó","QUIBDÓ","2700101190","ANTONIO SANZ GONZALEZ","2700101190","1","ANTONIO SANZ GONZALEZ",,"URBANA","cra 26 n 6 25","alameda","27001000","SAN FRANCISCO DE QUIBDO","3.116038323E9","353888215","centrovisualsga@gmail.com","20180119",,"1140835650",,"NATURAL","1.0","Privada","2.0","Profesional Independiente"
"Chocó","QUIBDÓ","2700101192","corporación gest-art asesorías y consultorias","2700101192","1","corporación gest-art asesorías y consultorias","BRENDA YULIANA RENTERIA ASPRILLA","URBANA","calle 27 # 2-31","roma",,,"3.105458224E9",,"monicajissel@msn.com","20180125",,"900932156","4.0","JURIDICO","1.0","Privada","4.0","Objeto Social Diferente a la Prestación de Servicios de Salud"
"Chocó","QUIBDÓ","2700101194","edward francisco renteria palacios","2700101194","1","edward francisco renteria palacios",,"URBANA","calle 31 # 3-25","cristo rey",,,"6710520.0",,"opticapacifico@hotmail.com","20180201",,"79755698","0.0","NATURAL","1.0","Privada","2.0","Profesional Independiente"
"Chocó","QUIBDÓ","2700101196","FUNDACIÓN AFROSALUD SOCIAL","2700101196","1","FUNDACIÓN AFROSALUD SOCIAL","josefina rojas palacios","URBANA","carrera 7 con calle 29 esquina","cesar conto",,,"3.147685482E9",,"afrosaludsocial01@outlook.com","20180216",,"901156001","6.0","JURIDICO","1.0","Privada","4.0","Objeto Social Diferente a la Prestación de Servicios de Salud"
"Chocó","QUIBDÓ","2700101199","corporación nutricional vida saludable","2700101199","1","corporación nutricional vida saludable","kelly jhoana palacios ramos","URBANA","carrera 25 # 21-26","jardin",,,"3.147427378E9",,"palacioskelly29@gmail.com","20180305",,"901152471","6.0","JURIDICO","1.0","Privada","4.0","Objeto Social Diferente a la Prestación de Servicios de Salud"
"Chocó","QUIBDÓ","2700101200","Fundacion Lunas Verde","2700101200","1","fundacion Lunas Verde","Luz Darys Mosquera Palacios","URBANA","Cra 18 N 24 - 290 P 2","Jardin","27001000","SAN FRANCISCO DE QUIBDO","6728629 - 3209003867",,"funluver03@gmail.com","20180405",,"900854621","3.0","JURIDICO","1.0","Privada","4.0","Objeto Social Diferente a la Prestación de Servicios de Salud"
"Chocó","QUIBDÓ","2700101203","SERVI SALUD CHOCO IPS S.A.S","2700101203","1","SERVI SALUD CHOCO IPS S.A.S","CARLOS YESID VIVAS PALACIOS","URBANA","CALLE 24 B","MARGARITAS","27001000","SAN FRANCISCO DE QUIBDO","3.206783508E9",,"servisaludipsas@hotmail.com","20180406",,"901149976","2.0","JURIDICO","1.0","Privada","1.0","Instituciones - IPS"
"Chocó","QUIBDÓ","2700101204","CIMAR SALUD IPS","2700101204","1","CIMAR SALUD IPS","MARTIN PALOMEQUE MARTINEZ","URBANA","carrera 22 # 23 - 39 piso 1","el jardin","27001000","SAN FRANCISCO DE QUIBDO","3.113197029E9",,"cimarsaludips@gmail.com","20180425",,"901145777","5.0","JURIDICO","1.0","Privada","1.0","Instituciones - IPS"
"Chocó","QUIBDÓ","2700101212","Melissa del Pilar Prens Reyes","2700101212","1","Melissa del Pilar Prens Reyes",,"URBANA","Carrera 9 n 29 - 23 Segundo piso","El Silencio","27001000","SAN FRANCISCO DE QUIBDO","3.106435816E9",,"dentalmaxsas@gmail.com","20180530",,"43257515","0.0","NATURAL","1.0","Privada","2.0","Profesional Independiente"
"Chocó","QUIBDÓ","2700101216","ENDODENT S.A.S","2700101216","1","Endodent","Elena Carolina Chaverra Mesa","URBANA","Calle 21 N 4-09","Yesquita",,,"3.00620043E9",,"carolinachaverramesa@hotmail.com","20180802",,"901192617","5.0","JURIDICO","3.0","Mixta","1.0","Instituciones - IPS"
"Chocó","QUIBDÓ","2700101217","OLGA PATRICIA HURTADO CORDOBA","2700101217","1","OLGA PATRICIA HURTADO CORDOBA",,"URBANA","CARRERA 6 N° 24-70 segundo piso","PAN DE YUCA",,,"6712364- 3128519246",,"olgaphc@gmail.com","20180827",,"35892210",,"NATURAL","1.0","Privada","2.0","Profesional Independiente"
"Chocó","QUIBDÓ","2700101218","luis rafael morales atencio","2700101218","1","luis felipe morales atencio",,"URBANA","Ese Hospital Local Ismael Roldan Valencia, Quibdó","Cra 1 No 31-25 Barrio Kennedy",,,"3.227524597E9",,"angelviloria2189@gmail.com","20180912",,"1140841878",,"NATURAL","1.0","Privada","2.0","Profesional Independiente"
"Chocó","QUIBDÓ","2700101219","PACIFIC SALUD GROUP S.A.S","2700101219","1","PACIFIC SALUD IPS","JUAN DAVID NARANJO SANCHEZ","URBANA","CR","YESCA GRANDE","27001000","SAN FRANCISCO DE QUIBDO","6722684.0",,"pacificsaludips@gmail.com","20190524",,"901204561","5.0","JURIDICO","1.0","Privada","1.0","Instituciones - IPS"
"Chocó","QUIBDÓ","2700101220","solartesana s.a.s","2700101220","1","solartesana sas","nazly meliza solarte ortiz","URBANA","carrera 6 # 27 -29","cesar conto",,,"3.127417114E9",,"solartesana.clinicadeheridas@gmail.com","20181211",,"901201287","8.0","JURIDICO","1.0","Privada","1.0","Instituciones - IPS"
"Chocó","QUIBDÓ","2700101222","yadilfa palacios palacios","2700101222","1","yadilfa palacios palacios",,"URBANA","cra. 5a calle 24-33 primer piso Barrio yescagrande","yescagrande",,,"3105951280-6727864",,"centromsagradafamilia@gmail.com","20181017",,"35893230",,"NATURAL","1.0","Privada","2.0","Profesional Independiente"
"Chocó","QUIBDÓ","2700101223","familia entorno individuo","2700101223","1","familia entorno individuo","Larry Alberto Rivas Hurtado","RURAL","KILOMETRO 8 VIA YUTO","KILOMETRO 8","27001064","BOCA DE TANANDO","3.159286013E9",,"chocofundacionfei@gmail.com","20181116",,"900001876","4.0","JURIDICO","1.0","Privada","4.0","Objeto Social Diferente a la Prestación de Servicios de Salud"
"Chocó","QUIBDÓ","2700101226","leonardo enrique cantillo gonzalez","2700101226","1","leonardo enrique cantillo gonzalez",,"URBANA","Carrera 9 N 9 - 71","Nicolas Medrano",,,"3.016255685E9",,"opticabethanyasas@gmail.com","20181116",,"1042417843",,"NATURAL","1.0","Privada","2.0","Profesional Independiente"
"Chocó","QUIBDÓ","2700101233","PROLAB S.A.S.","2700101233","1","PROLAB SEDE QUIBDÓ SUMIMEDICAL","Elisa María Merino Aristizabal","URBANA","Carrera 1 # 26 - 91","Roma",,,"5166740.0",,"erika.echavarria@synlab.co","20190411",,"800087565","5.0","JURIDICO","1.0","Privada","1.0","Instituciones - IPS"
"Chocó","QUIBDÓ","2700101235","salud vital del pacifico sas","2700101235","1","SALUD VITAL DEL PACIFICO S.A.S","LUIS SANTO ROJAS FORASTERO","RURAL","BARRIO LA CASCORVA","LA CASCORVA","27001000","SAN FRANCISCO DE QUIBDO","3.10497443E9",,"NICOLASGUZMAN2606@GMAIL.COM","20190130",,"901226329","7.0","JURIDICO","1.0","Privada","1.0","Instituciones - IPS"
"Chocó","QUIBDÓ","2700101236","Walter Mosquera Ibarguen","2700101236","1","Walter Mosquera Ibarguen",,"URBANA","Carrera 4ta #26-104 (clínica odontologica especializada oral dent)","Alameda Reyes",,,"3.146807493E9",,"dr.waltermosqueraibarguen@hotmail.com","20190131",,"11809665",,"NATURAL","1.0","Privada","2.0","Profesional Independiente"
"Chocó","QUIBDÓ","2700101238","MADELLINE MAYO CORDOBA","2700101238","1","MADELLINE MAYO CORDOBA",,"URBANA","CARRERA 1 # 26-08","ROMA",,,"3.21714321E9",,"MADELLINE401@HOTMAIL.COM","20190618",,"53001432",,"NATURAL","1.0","Privada","2.0","Profesional Independiente"
"Chocó","QUIBDÓ","2700101239","fundacion talentos del pacifico","2700101239","1","fundación talentos del pacifico","henrry albeiro perea olave","URBANA","calle25#11B-3","margaritas","27001000","SAN FRANCISCO DE QUIBDO","3.12216555E9",,"katerinechaverra47@gmail.com","20190204",,"901152586","4.0","JURIDICO","1.0","Privada","4.0","Objeto Social Diferente a la Prestación de Servicios de Salud"
"Chocó","QUIBDÓ","2700101246","hilmery renteria mena","2700101246","1","hilmery renteria mena",,"URBANA","carrera 5a N 24-170","barrio pandeyuca","27001000","SAN FRANCISCO DE QUIBDO","3127176996-3207199649",,"hilmery44@hotmail.com","20190402",,"1144125647",,"NATURAL","1.0","Privada","2.0","Profesional Independiente"
"Chocó","QUIBDÓ","2700101252","MEDICAL BIOANALISIS IPS S.A.S","2700101252","1","MEDICAL BIOANALISIS IPS S.A.S","SANDRA XIMENA RODRIGUEZ DELGADO","URBANA","Ka 5 N° 29-79 SEGUNDO PISO","CESAR CONTO","27001000","SAN FRANCISCO DE QUIBDO","3.117821448E9",,"medicalbioanalisisips@gmail.com","20190529",,"901054205","3.0","JURIDICO","1.0","Privada","1.0","Instituciones - IPS"
"Chocó","QUIBDÓ","2700101255","MATERNAL FETAL CARE","2700101255","1","MATERNAL FETAL CARE","RONALD CORDOBA QUESADA","URBANA","CRA 7ma # 30 - 23","Tomas Perez",,,"3.107461828E9",,"lacoque3@gmail.com","20190712",,"901269729","4.0","JURIDICO","1.0","Privada","1.0","Instituciones - IPS"
"Chocó","QUIBDÓ","2700101257","Fundación Yo También Puedo","2700101257","1","Fundación Yo También Puedo","Samir Garcia Maturana","URBANA","Cr 4 N 30 - 53","Barrio Cristo Rey","27001000","SAN FRANCISCO DE QUIBDO","310 599 20 91","6708353.0","sagacm@hotmail.com","20190702",,"900645062","1.0","JURIDICO","1.0","Privada","4.0","Objeto Social Diferente a la Prestación de Servicios de Salud"
"Chocó","QUIBDÓ","2700101260","maria esneda mayo parra","2700101260","1","maria esneda mayo parra",,"URBANA","carrera 4 nº 24 - 58","yescagrande - centro","27001000","SAN FRANCISCO DE QUIBDO","3.144285412E9",,"mariaesnedamayo@hotmail.com","20190723",,"52114965",,"NATURAL","1.0","Privada","2.0","Profesional Independiente"
"Chocó","QUIBDÓ","2743001229","GRUPO EMPRESARIAL MACROSALUD IPS BAJO BAUDO","2700101229","2","Grupo Empresarial Macrosalud IPS","DEYNNE PEREA POTES","URBANA","CARRERA 13 A N 19-39","LAS MERCEDES","27001000","SAN FRANCISCO DE QUIBDO","313 7483191",,"macrosaludips@hotmail.com","20190116",,"900978555","8.0","JURIDICO","1.0","Privada","1.0","Instituciones - IPS"
"Chocó","RÍO IRO","2700100869","Fundacion Despertar Choco","2758000869","3","fundacion despertar del choco","MARIA YOHANA ARBOLEDA MURILLO","RURAL","BARRIO LA REAL","BARRIO LA REAL","27580000","SANTA RITA","3.206783508E9",,"arysto2@hotmail.com","20130114",,"900572393","8.0","JURIDICO","1.0","Privada","1.0","Instituciones - IPS"
"Chocó","RÍO IRO","2736100180","CENTRO MEDICO CUBIS LIMITADA","2758000180","10","CENTRO MEDICO CUBIS SEDE RIO IRO","EDINSON EMIL PEÑA GIL","URBANA","SANTA RITA","CALLE PRINCIPAL","27580000","SANTA RITA","3.127748855E9","6700395.0","cmcubis@gmail.com","20180809",,"818002571","0.0","JURIDICO","1.0","Privada","1.0","Instituciones - IPS"
"Chocó","RÍO IRO","2781001209","FULTON RONNY ASPRILLA MORENO","2758001209","6","RIO IRO","FULTON RONNY ASPRILLA MORENO","URBANA","CARRERA 5 # 5- 75","LA UNION","27580000","SANTA RITA","3.108519848E9","3117913974","ipshumsalud@gmail.com","20180713",,"900994906","7.0","JURIDICO","1.0","Privada","1.0","Instituciones - IPS"
"Chocó","RÍO QUITO","2700100138","MEJORSALUD LTDA","2760000138","2","MEJORSALUD LTDA RIO QUITO","KELLY JOHANA PALACIOS SANCHEZ","RURAL","CORREGIMIENTO DE SAN ISIDRO","SAN ISIDRO","27600003","SAN ISIDRO","3.117191769E9","0.0","kejopasa@hotmail.com","20160303",,"818001324","3.0","JURIDICO","1.0","Privada","1.0","Instituciones - IPS"
"Chocó","RÍO QUITO","2700100138","MEJORSALUD LTDA","2760000138","3","MEJORSALUD LTDA RIO QUITO VILLA CONTO","GRACE KELLY PALACIOS SANCHEZ","RURAL","CORREGIMIENTO DE VILLA CONTO","SAN ANTONIO","27600004","VILLA CONTO","6713128 - 3117191769",,"kejopasa@hotmail.com","20171229",,"818001324","3.0","JURIDICO","1.0","Privada","1.0","Instituciones - IPS"
"Chocó","RÍO QUITO","2700100138","MEJORSALUD LTDA","2760000138","4","MEJORSALUD LTDA RIO QUITO PAIMADO","GRACE KELLY PALACIOS SANCHEZ","URBANA","PAIMADO CABECERA MUNICIPAL","JUAN PABLO","27600000","PAIMADÓ","6713128- 3117191769",,"kejopasa@hotmail.com","20171229",,"818001324","3.0","JURIDICO","1.0","Privada","1.0","Instituciones - IPS"
"Chocó","RIOSUCIO","2700100643","I.P.S. SERVIMEDICO S.A.S.","2761500643","14","I.P.S SERVIMEDICO S.A.S RIO SUCIO","MANUAL JOSE CORRALES CORDOBA","URBANA","RIO SUCIO","RIO SUCIO","27615000","RIOSUCIO","3.127962925E9",,"servimedico@hotmail.com","20141001",,"900206582","5.0","JURIDICO","1.0","Privada","1.0","Instituciones - IPS"
"Chocó","RIOSUCIO","2700100643","I.P.S. SERVIMEDICO S.A.S.","2761500643","17","I.P.S SERVIMEDICO S.A.S BELEN DE BAJIRA","MANUAL JOSE CORRALES CORDOBA","URBANA","BAJIRA","BAJIRA","27615000","RIOSUCIO","3.127962925E9",,"IPSSERVIMEDICO@HOTMAIL.COM","20141002",,"900206582","5.0","JURIDICO","1.0","Privada","1.0","Instituciones - IPS"
"Chocó","RIOSUCIO","2700101140","FUNDACIÓN SANTA SOFIA DE ASIS","2761501140","4","FUNDACIÓN SANTA SOFIA DE ASIS","PATRICIA CAROLINA PEREA RENTERIA","URBANA","calle principal","calle principal","27615000","RIOSUCIO","9.46720285E8",,"fundacionsantasofiadeasis@gmail.com","20171219",,"901035250","4.0","JURIDICO","1.0","Privada","1.0","Instituciones - IPS"
"Chocó","RIOSUCIO","2736100180","CENTRO MEDICO CUBIS LIMITADA","2761500180","11","CENTRO MEDICO CUBIS SEDE RIOSUCIO","EDINSON EMIL PEÑA GIL","URBANA","CALLE PRINCIPAL","COMERCIO","27615000","RIOSUCIO","3.127748855E9","6700395.0","cmcubis@gmail.com","20180921",,"818002571","0.0","JURIDICO","1.0","Privada","1.0","Instituciones - IPS"
"Chocó","RIOSUCIO","2736101107","DIOCESIS ISTMINA-TADO","2761501107","13","OFICINA RECUPERACION NUTRICIONAL CON ENFOQUE COMUNITARIO RIOSUCIO","LUIS GUILLERMO PALACIOS TORRES","URBANA","CABECERA MUNICIPAL","CABECERA MUNICIPAL","27615000","RIOSUCIO","3216760554-3206974621",,"LUIS_GUILLERMO_29@HOTMAIL.COM","20160608",,"891680186","0.0","JURIDICO","1.0","Privada","4.0","Objeto Social Diferente a la Prestación de Servicios de Salud"
"Chocó","RIOSUCIO","2761500260","SIGMA SALUD IPS E.U.","2761500260","1","SALUD RIOSUCIO","JULIO ALFONSO RICO BARRIOS","URBANA","Clle principal frete a elecmuri","BENJAMIN","27615000","RIOSUCIO","6810457.0","6810457.0","saludriosucio@hotmail.com","20061201",,"900104461","4.0","JURIDICO","1.0","Privada","1.0","Instituciones - IPS"
"Chocó","RIOSUCIO","2761500260","SIGMA SALUD IPS E.U.","2761500260","4","SIGMA SALUD IPS E.U.","Elkin Rodrigues Díaz","RURAL","belen de bajira","barrio el indio/ al lado del centro de salud de antioquia",,,"3.21780541E9",,"elkinrd@hotmail.com","20170731",,"900104461","4.0","JURIDICO","1.0","Privada","1.0","Instituciones - IPS"
"Chocó","RIOSUCIO","2761500697","IPS KATIOS RIOSUCIO LTDA","2761500697","1","IPS KATIOS LTDA","YULEDIS PAOLA LLOREDA ARBOLEDA","URBANA","BARRIO EL CENTRO","BARRIO EL CENTRO",,,"3.116701685E9",,"IPSKATIOS@GMAIL.COM","20160225",,"900483570","3.0","JURIDICO","1.0","Privada","1.0","Instituciones - IPS"
"Chocó","RIOSUCIO","2761501092","GRUPO EMPRESARIAL DE SERVICIOS DE LA SALUD APLICADOS IPS","2761501092","1","GRUPO EMPRESARIAL DE SERVICIOS DE LA SALUD APLICADOS","LUIS ALBERTO RIOS DIN","URBANA","CALLE PRINCIPAL FRENTE AL HOSPITAL","EL PARAISO","27615000","RIOSUCIO","3.104959488E9",,"RIOS_LTDA@HOTMAIL.COM","20160302",,"900553671","1.0","JURIDICO","1.0","Privada","1.0","Instituciones - IPS"
"Chocó","RIOSUCIO","2761501112","fundacion la micericordia de dios","2761501112","1","fundacion misericordia de Dios","ANA ROSALBA MOSQUERA PALACIOS","URBANA","CALLE PRINCIPAL","benjamin",,,"3.146200515E9",,"anarmp@hotmail.com","20190702",,"900575380","6.0","JURIDICO","1.0","Privada","1.0","Instituciones - IPS"
"Chocó","RIOSUCIO","2761501193","alexis alberto hernandez de la hoz","2761501193","1","alexis alberto hernandez de la hoz",,"URBANA","belen de bajira","el indio","27615000","RIOSUCIO","3.216401937E9",,"alexishdez126@gmail.com","20180131",,"8779881.0",,"NATURAL","1.0","Privada","2.0","Profesional Independiente"
"Chocó","SAN JOSÉ DEL PALMAR","2749100928","UNIDAD MEDICA ESPIRITU SANTO E. U.","2766000928","2","UNIDAD MEDICA ESPIRITU SANTO E. U.","AULIO HERNAN LOZANO CAÑADAS","URBANA","CALLE PRINCIPAL","PORVENIR","27660000","SAN JOSÉ DEL PALMAR","3.108954673E9",,"auheloca@hotmail.com","20161231",,"818001360","9.0","JURIDICO","1.0","Privada","1.0","Instituciones - IPS"
"Chocó","SIPÍ","2720500333","UNIDAD MEDICA MI SALUD S.A.S.","2774500333","2","UNIDAD MEDICA MI SALUD S.A.S.","HUGO FERLEY MOSQUERA MOSQUERA","URBANA","CALLE PRINCIPAL","CALLE PRINCIPAL","27745000","SIPÍ","3.146094984E9",,"ipsminsalud@yahoo.es","20160404",,"900212320","7.0","JURIDICO","1.0","Privada","1.0","Instituciones - IPS"
"Chocó","TADÓ","2700100390","IPS ERCHICHI JAI E.U.","2778700390","7","IPS ERCHICHI JAI TADO","PLINIO MECHA HACHITO","RURAL","CENTRO","CENTRO","27787000","TADÓ","3.21790757591E11",,"erchichijaiipsindigena@gmail.com","20190213",,"900144266","5.0","JURIDICO","1.0","Privada","1.0","Instituciones - IPS"
"Chocó","TADÓ","2778700097","ESE HOSPITAL SAN JOSE DE TADO","2778700097","1","ESE HOSPITAL SAN JOSÉ DE TADÓ","EVERTH ANDRADES CASAS","URBANA","BARRIO CALDAS","TADÓ",,,,,,"20030416",,"818000466","6.0","JURIDICO","4.0","Pública","1.0","Instituciones - IPS"
"Chocó","TADÓ","2778700210","SERSALUD I. P. S. CHOCO LTDA","2778700210","1","SERSALUD I. P. S. CHOCO LTDA","FELIX ALBERTO PALACIOS MORENO","URBANA","CALLE 6 No 11-15","ESCOLAR",,,"6795867.0",,"sersaludips@gmail.com","20160804",,"818002342","0.0","JURIDICO","1.0","Privada","1.0","Instituciones - IPS"
"Chocó","TADÓ","2778700599","IPS FISIOCENTER GP S.A.S","2778700599","1","IPS FISIOCENTER GP S.A.S","YANIER HOMERO GOMEZ PALACIOS","URBANA","CARRERA 17 # 9-10","SAN PEDRO","27787000","TADÓ","6795031.0","6795031.0","fisiocentergp@hotmail.com","20181212",,"900263845","1.0","JURIDICO","1.0","Privada","1.0","Instituciones - IPS"
"Chocó","TADÓ","2778701046","CENTRO OPTICO LOREN Z S.A.S.","2778701046","1","CENTRO OPTICO LORENN Z S.A.S","ICARIS ATHALIE BALLESTERO URRUTIA","URBANA","BARRIO POPULAR","BARRIO POPULAR",,,"3.103763045E9",,"icarisathalie@hotmail.com","20150715",,"900812380","3.0","JURIDICO","1.0","Privada","1.0","Instituciones - IPS"
"Chocó","TADÓ","2778701187","CENTRO DE FISIOTERAPIA Y REHABILITACIÓN SAN JUAN S.A.S","2778701187","1","CENTRO DE FISIOTERAPIA Y REHABILITACIÓN SAN JUAN S.A.S","YOCIRA LOZANO MOSQUERA","URBANA","CARRERA 7 NO. 13-84","POPULAR","27787000","TADÓ","3.127510331E9",,"rehabilitamosanjuan@gmail.com","20180112",,"901143535","0.0","JURIDICO","1.0","Privada","1.0","Instituciones - IPS"
"Chocó","TADÓ","2778701202","Carlos Mario Beltrán Garcés","2778701202","1","Carlos Mario Beltrán Garcés",,"URBANA","Calle 6 Numero 11 - 15","Barrio Escolar, Tadó - Chocó",,,"3.147926059E9",,"cbeltrangarces5@gmail.com","20180405",,"82362794",,"NATURAL","1.0","Privada","2.0","Profesional Independiente"
"Chocó","TADÓ","2781000407","CENTRO MÉDICO VIVE SAS","2778700407","2","CENTRO MÉDICO VIVE SAS","ALISSA DADOLIS MOSQUERA RIOS","URBANA","CALLE 7 N16-12 BARRIO CARMELITA","CARMELITA","27787000","TADÓ","6795078.0","6795078.0","alissadadolis@hotmail.com","20090422",,"900269538","0.0","JURIDICO","1.0","Privada","1.0","Instituciones - IPS"
"Chocó","UNGUÍA","2700100071","CAJA DE COMPENSACION FAMILIAR DEL CHOCO","2780000071","28","COMFACHOCO - HOSPITAL LOCAL DE UNGUIA","YOLANDA RENTERIA CUESTA","URBANA","BARRIO ANDALUCIA FRENTE AL PALACIO MUNICIPAL","BARRIO ANDALUCIA FRENTE AL PALACIO MUNICIPAL",,,"3.218819768E9",,"comfachoco@comfachoco.com.co","20170101",,"891600091","8.0","JURIDICO","1.0","Privada","1.0","Instituciones - IPS"
"Chocó","UNGUÍA","2700101075","MEDICHOCO IPS S.A.S","2780001075","5","MEDICHOCO IPS S.A.S","CIRO YACCI MENDOZA HINESTROZA","URBANA","CRA 4 BAARRIO POREVENIR","PORVENIR","27800000","UNGUÍA","3.103550113E9",,"medicho5801@gmali.com","20190726",,"900881965","6.0","JURIDICO","1.0","Privada","1.0","Instituciones - IPS"
"Chocó","UNGUÍA","2780001102","Andres Felipe Saldarriaga Muñoz","2780001102","1","Andres Felipe Saldarriaga Muñoz",,"URBANA","parroquial.","parroquial.",,,"3.10347934E9",,"ansal97@hotmail.com","20160506",,"10346861","0.0","NATURAL","1.0","Privada","2.0","Profesional Independiente"
"Chocó","UNGUÍA","2780001208","IPS GOLFO SALUD S.A.S","2780001208","1","IPS GOLFO SALUD S.A.S","Yennifer Aviles Tordecilla","RURAL","vereda el puerto","calle principal",,,"3.233449544E9",,"jenerferaviles70@gmail.com","20180522",,"901179608","5.0","JURIDICO","1.0","Privada","1.0","Instituciones - IPS"
"Chocó","UNIÓN PANAMERICANA","2781000407","CENTRO MÉDICO VIVE SAS","2781000407","1","CENTRO MÉDICO VIVE SAS ANIMAS","ALISSA DADOLIS MOSQUERA RIOS","URBANA","BARRIO SAN JOAQUIN","SAN JOAQUIN","27810000","ÁNIMAS","3.122885878E9","6795078.0","alissadadolis@hotmail.com","20090311",,"900269538","0.0","JURIDICO","1.0","Privada","1.0","Instituciones - IPS"
"Chocó","UNIÓN PANAMERICANA","2781001205","UNIDAD MEDICA SANJOAQUIN SALUD Y BIENESTAR S.A.S","2781001205","1","UNIDAD MEDICA SANJOAQUIN SALUD Y BIENESTAR S.A.S","Jhon Jairo Betancur Castañeda","URBANA","calle principal","barrio lourdes","27810000","ÁNIMAS","3.123518991E9",,"ipssanjoaquin@outlook.com","20180817",,"901165024","3.0","JURIDICO","1.0","Privada","1.0","Instituciones - IPS"
"Chocó","UNIÓN PANAMERICANA","2781001209","FULTON RONNY ASPRILLA MORENO","2781001209","1","FUNDACION HUMANA PARA LA SALUD DE COLOMBIA -IPS HUMSALUD","FULTON RONNY ASPRILLA MORENO","URBANA","CRA 5 # 5-75","SAN JOAQUIN",,,"3.108519848E9",,"ipshumsalud@gmail.com","20180612",,"900994906","7.0","JURIDICO","1.0","Privada","1.0","Instituciones - IPS"
