"departamento_prestacion","municipio_prestacion","servicio","estado","nombre","departamento_domicilio","municipio_domicilio","direccion","telefono","email","tipo_inscripcion","representante_legal","tipo_prestador","clasificacion"
"SUCRE","SAMPUES","ACUEDUCTO","OPERATIVA","EMPRESA OFICIAL DE ACUEDUCTO, ALCANTARILLADO Y ASEO DE SAMPUES E.S.P.","SUCRE","SAMPUES","CARRERA 19 # 24 - 06 CENTRO","2830771","info@empasam.com","Registro por la ESP","ISAAC ENRIQUE GOMEZ DIAZ","EMPRESA INDUSTRIAL Y COMERCIAL DEL ESTADO","DESDE 2501 HASTA 5000 USUARIOS"
"SUCRE","SAMPUES","ALCANTARILLADO","OPERATIVA","EMPRESA OFICIAL DE ACUEDUCTO, ALCANTARILLADO Y ASEO DE SAMPUES E.S.P.","SUCRE","SAMPUES","CARRERA 19 # 24 - 06 CENTRO","2830771","info@empasam.com","Registro por la ESP","ISAAC ENRIQUE GOMEZ DIAZ","EMPRESA INDUSTRIAL Y COMERCIAL DEL ESTADO","DESDE 2501 HASTA 5000 USUARIOS"
"SUCRE","BUENAVISTA","ACUEDUCTO","OPERATIVA","EMPRESA DE SERVICIOS PUBLICOS DOMICILIARIOS DE BUENAVISTA","SUCRE","BUENAVISTA","Calle 8 No 7 10 Barrio El Carmen","2901103","jhontorres05@hotmail.com","Registro por la ESP","JHON ALEX TORRES TAPIA","EMPRESA INDUSTRIAL Y COMERCIAL DEL ESTADO","HASTA 2500 SUSCRIPTORES"
"SUCRE","BUENAVISTA","ALCANTARILLADO","OPERATIVA","EMPRESA DE SERVICIOS PUBLICOS DOMICILIARIOS DE BUENAVISTA","SUCRE","BUENAVISTA","Calle 8 No 7 10 Barrio El Carmen","2901103","jhontorres05@hotmail.com","Registro por la ESP","JHON ALEX TORRES TAPIA","EMPRESA INDUSTRIAL Y COMERCIAL DEL ESTADO","HASTA 2500 SUSCRIPTORES"
"SUCRE","BUENAVISTA","ASEO","OPERATIVA","EMPRESA DE SERVICIOS PUBLICOS DOMICILIARIOS DE BUENAVISTA","SUCRE","BUENAVISTA","Calle 8 No 7 10 Barrio El Carmen","2901103","jhontorres05@hotmail.com","Registro por la ESP","JHON ALEX TORRES TAPIA","EMPRESA INDUSTRIAL Y COMERCIAL DEL ESTADO","HASTA 2500 SUSCRIPTORES"
"SUCRE","SAN BENITO ABAD","ACUEDUCTO","OPERATIVA","MUNICIPIO DE SAN BENITO ABAD - UNIDAD ESPECIAL DE SERVICIOS PUBLICOS UESP","SUCRE","SAN BENITO ABAD","Plaza Principal","2930003","alcaldia2008-11@hotmail.com","Registro por la ESP","MANUEL DEL CRISTO CADRAZCO SALCEDO","MUNICIPIO (PRESTACIÓN DIRECTA)","HASTA 2500 SUSCRIPTORES"
"SUCRE","CAIMITO","ASEO","OPERATIVA","URBASER COLOMBIA S.A. E.S.P.","BOGOTA, D.C.","BOGOTA, D.C.","CALLE 100 No. 19 A 10 PISO 9","5802145","sspd@superservicios.gov.co","Registro por la ESP","HUMBERTO ENRIQUE RODRIGUEZ COBO","SOCIEDADES (EMPRESA DE SERVICIOS PUBLICOS)","MAYOR O IGUAL A 5001 USUARIOS"
"SUCRE","COVENAS","ASEO","OPERATIVA","INTERASEO S.A.S.  E.S.P.","MAGDALENA","SANTA MARTA","Km 2 Via a Gaira Frente a Zona Franca techin","4346234","notificaciones@interaseo.com.co","Registro por la ESP","JUAN MANUEL GOMEZ MEJIA","SOCIEDADES (EMPRESA DE SERVICIOS PUBLICOS)","MAYOR O IGUAL A 5001 USUARIOS"
"SUCRE","GALERAS","ASEO","OPERATIVA","INTERASEO S.A.S.  E.S.P.","MAGDALENA","SANTA MARTA","Km 2 Via a Gaira Frente a Zona Franca techin","4346234","notificaciones@interaseo.com.co","Registro por la ESP","JUAN MANUEL GOMEZ MEJIA","SOCIEDADES (EMPRESA DE SERVICIOS PUBLICOS)","MAYOR O IGUAL A 5001 USUARIOS"
"SUCRE","MORROA","ASEO","OPERATIVA","INTERASEO S.A.S.  E.S.P.","MAGDALENA","SANTA MARTA","Km 2 Via a Gaira Frente a Zona Franca techin","4346234","notificaciones@interaseo.com.co","Registro por la ESP","JUAN MANUEL GOMEZ MEJIA","SOCIEDADES (EMPRESA DE SERVICIOS PUBLICOS)","MAYOR O IGUAL A 5001 USUARIOS"
"SUCRE","SAMPUES","ASEO","OPERATIVA","INTERASEO S.A.S.  E.S.P.","MAGDALENA","SANTA MARTA","Km 2 Via a Gaira Frente a Zona Franca techin","4346234","notificaciones@interaseo.com.co","Registro por la ESP","JUAN MANUEL GOMEZ MEJIA","SOCIEDADES (EMPRESA DE SERVICIOS PUBLICOS)","MAYOR O IGUAL A 5001 USUARIOS"
"SUCRE","SAN JUAN DE BETULIA","ASEO","OPERATIVA","INTERASEO S.A.S.  E.S.P.","MAGDALENA","SANTA MARTA","Km 2 Via a Gaira Frente a Zona Franca techin","4346234","notificaciones@interaseo.com.co","Registro por la ESP","JUAN MANUEL GOMEZ MEJIA","SOCIEDADES (EMPRESA DE SERVICIOS PUBLICOS)","MAYOR O IGUAL A 5001 USUARIOS"
"SUCRE","SAN LUIS DE SINCE","ASEO","OPERATIVA","INTERASEO S.A.S.  E.S.P.","MAGDALENA","SANTA MARTA","Km 2 Via a Gaira Frente a Zona Franca techin","4346234","notificaciones@interaseo.com.co","Registro por la ESP","JUAN MANUEL GOMEZ MEJIA","SOCIEDADES (EMPRESA DE SERVICIOS PUBLICOS)","MAYOR O IGUAL A 5001 USUARIOS"
"SUCRE","SAN MARCOS","ASEO","OPERATIVA","INTERASEO S.A.S.  E.S.P.","MAGDALENA","SANTA MARTA","Km 2 Via a Gaira Frente a Zona Franca techin","4346234","notificaciones@interaseo.com.co","Registro por la ESP","JUAN MANUEL GOMEZ MEJIA","SOCIEDADES (EMPRESA DE SERVICIOS PUBLICOS)","MAYOR O IGUAL A 5001 USUARIOS"
"SUCRE","SANTIAGO DE TOLU","ASEO","OPERATIVA","INTERASEO S.A.S.  E.S.P.","MAGDALENA","SANTA MARTA","Km 2 Via a Gaira Frente a Zona Franca techin","4346234","notificaciones@interaseo.com.co","Registro por la ESP","JUAN MANUEL GOMEZ MEJIA","SOCIEDADES (EMPRESA DE SERVICIOS PUBLICOS)","MAYOR O IGUAL A 5001 USUARIOS"
"SUCRE","SINCELEJO","ASEO","OPERATIVA","INTERASEO S.A.S.  E.S.P.","MAGDALENA","SANTA MARTA","Km 2 Via a Gaira Frente a Zona Franca techin","4346234","notificaciones@interaseo.com.co","Registro por la ESP","JUAN MANUEL GOMEZ MEJIA","SOCIEDADES (EMPRESA DE SERVICIOS PUBLICOS)","MAYOR O IGUAL A 5001 USUARIOS"
"SUCRE","SAN MARCOS","ASEO","OPERATIVA","EMPRESA DE SERVICIOS DE SAN MARCOS","SUCRE","SAN MARCOS","PALACIO MUNICIPAL SEGUNDO PISO","2953465","essanmarcos_essanmarcos@hotmail.com","Registro por la ESP","JOHANA EALO ARRIETA","EMPRESA INDUSTRIAL Y COMERCIAL DEL ESTADO","MAS DE 2500 SUSCRIPTORES"
"SUCRE","SAN MARCOS","ACUEDUCTO","OPERATIVA","AGUAS DE LA MOJANA S.A. E.S.P","SUCRE","SAN MARCOS","CARRERA 24 # 14 - 25 APTO 1","2954404","aguasdelamojanaesp@hotmail.com","Registro por la ESP","ALVARO LUIS MONTERROSA ARRIETA","SOCIEDADES (EMPRESA DE SERVICIOS PUBLICOS)","MAYOR O IGUAL A 5001 USUARIOS"
"SUCRE","SAN ONOFRE","ACUEDUCTO","OPERATIVA","AGUAS DE LA MOJANA S.A. E.S.P","SUCRE","SAN MARCOS","CARRERA 24 # 14 - 25 APTO 1","2954404","aguasdelamojanaesp@hotmail.com","Registro por la ESP","ALVARO LUIS MONTERROSA ARRIETA","SOCIEDADES (EMPRESA DE SERVICIOS PUBLICOS)","MAYOR O IGUAL A 5001 USUARIOS"
"SUCRE","SAN MARCOS","ALCANTARILLADO","OPERATIVA","AGUAS DE LA MOJANA S.A. E.S.P","SUCRE","SAN MARCOS","CARRERA 24 # 14 - 25 APTO 1","2954404","aguasdelamojanaesp@hotmail.com","Registro por la ESP","ALVARO LUIS MONTERROSA ARRIETA","SOCIEDADES (EMPRESA DE SERVICIOS PUBLICOS)","MENOR O IGUAL A 2500 USUARIOS"
"SUCRE","SAN ONOFRE","ALCANTARILLADO","OPERATIVA","AGUAS DE LA MOJANA S.A. E.S.P","SUCRE","SAN MARCOS","CARRERA 24 # 14 - 25 APTO 1","2954404","aguasdelamojanaesp@hotmail.com","Registro por la ESP","ALVARO LUIS MONTERROSA ARRIETA","SOCIEDADES (EMPRESA DE SERVICIOS PUBLICOS)","MENOR O IGUAL A 2500 USUARIOS"
"SUCRE","SINCELEJO","ASEO","OPERATIVA","CONSASA SAS ESP","BOGOTA, D.C.","BOGOTA, D.C.","CARRERA 7 N 73 47 OFICINA 202 EDIF ION 73","2777983","JARPIGA@YAHOO.COM","Registro por la ESP","JAIME ARIEL PINILLA  GALINDO","SOCIEDADES (EMPRESA DE SERVICIOS PUBLICOS)","MENOR O IGUAL A 2500 USUARIOS"
"SUCRE","COROZAL","ACUEDUCTO","OPERATIVA","AGUAS DE LA SABANA S.A. E.S.P.","SUCRE","SINCELEJO","CAR KM1 OCC VIA COROZAL","2745008","ximena.morales@veolia.com","Registro por la ESP","FABIO ERNESTO ARAQUE DE AVILA","SOCIEDADES (EMPRESA DE SERVICIOS PUBLICOS)","MAYOR O IGUAL A 5001 USUARIOS"
"SUCRE","SAN LUIS DE SINCE","ACUEDUCTO","OPERATIVA","AGUAS DE LA SABANA S.A. E.S.P.","SUCRE","SINCELEJO","CAR KM1 OCC VIA COROZAL","2745008","ximena.morales@veolia.com","Registro por la ESP","FABIO ERNESTO ARAQUE DE AVILA","SOCIEDADES (EMPRESA DE SERVICIOS PUBLICOS)","MAYOR O IGUAL A 5001 USUARIOS"
"SUCRE","SINCELEJO","ACUEDUCTO","OPERATIVA","AGUAS DE LA SABANA S.A. E.S.P.","SUCRE","SINCELEJO","CAR KM1 OCC VIA COROZAL","2745008","ximena.morales@veolia.com","Registro por la ESP","FABIO ERNESTO ARAQUE DE AVILA","SOCIEDADES (EMPRESA DE SERVICIOS PUBLICOS)","MAYOR O IGUAL A 5001 USUARIOS"
"SUCRE","COROZAL","ALCANTARILLADO","OPERATIVA","AGUAS DE LA SABANA S.A. E.S.P.","SUCRE","SINCELEJO","CAR KM1 OCC VIA COROZAL","2745008","ximena.morales@veolia.com","Registro por la ESP","FABIO ERNESTO ARAQUE DE AVILA","SOCIEDADES (EMPRESA DE SERVICIOS PUBLICOS)","MAYOR O IGUAL A 5001 USUARIOS"
"SUCRE","SAN LUIS DE SINCE","ALCANTARILLADO","OPERATIVA","AGUAS DE LA SABANA S.A. E.S.P.","SUCRE","SINCELEJO","CAR KM1 OCC VIA COROZAL","2745008","ximena.morales@veolia.com","Registro por la ESP","FABIO ERNESTO ARAQUE DE AVILA","SOCIEDADES (EMPRESA DE SERVICIOS PUBLICOS)","MAYOR O IGUAL A 5001 USUARIOS"
"SUCRE","SINCELEJO","ALCANTARILLADO","OPERATIVA","AGUAS DE LA SABANA S.A. E.S.P.","SUCRE","SINCELEJO","CAR KM1 OCC VIA COROZAL","2745008","ximena.morales@veolia.com","Registro por la ESP","FABIO ERNESTO ARAQUE DE AVILA","SOCIEDADES (EMPRESA DE SERVICIOS PUBLICOS)","MAYOR O IGUAL A 5001 USUARIOS"
"SUCRE","BUENAVISTA","ASEO","OPERATIVA","SERVIASEO S.A.  E.S.P.","SUCRE","COROZAL","CARRERA 29 No.37-29","8243690","serviaseosaesp@hotmail.com","Registro por la ESP","LUCY DEL ROSARIO VERBEL HERAZO","SOCIEDADES (EMPRESA DE SERVICIOS PUBLICOS)","MAYOR O IGUAL A 5001 USUARIOS"
"SUCRE","COROZAL","ASEO","OPERATIVA","SERVIASEO S.A.  E.S.P.","SUCRE","COROZAL","CARRERA 29 No.37-29","8243690","serviaseosaesp@hotmail.com","Registro por la ESP","LUCY DEL ROSARIO VERBEL HERAZO","SOCIEDADES (EMPRESA DE SERVICIOS PUBLICOS)","MAYOR O IGUAL A 5001 USUARIOS"
"SUCRE","EL ROBLE","ASEO","OPERATIVA","SERVIASEO S.A.  E.S.P.","SUCRE","COROZAL","CARRERA 29 No.37-29","8243690","serviaseosaesp@hotmail.com","Registro por la ESP","LUCY DEL ROSARIO VERBEL HERAZO","SOCIEDADES (EMPRESA DE SERVICIOS PUBLICOS)","MAYOR O IGUAL A 5001 USUARIOS"
"SUCRE","GALERAS","ASEO","OPERATIVA","SERVIASEO S.A.  E.S.P.","SUCRE","COROZAL","CARRERA 29 No.37-29","8243690","serviaseosaesp@hotmail.com","Registro por la ESP","LUCY DEL ROSARIO VERBEL HERAZO","SOCIEDADES (EMPRESA DE SERVICIOS PUBLICOS)","MAYOR O IGUAL A 5001 USUARIOS"
"SUCRE","LOS PALMITOS","ASEO","OPERATIVA","SERVIASEO S.A.  E.S.P.","SUCRE","COROZAL","CARRERA 29 No.37-29","8243690","serviaseosaesp@hotmail.com","Registro por la ESP","LUCY DEL ROSARIO VERBEL HERAZO","SOCIEDADES (EMPRESA DE SERVICIOS PUBLICOS)","MAYOR O IGUAL A 5001 USUARIOS"
"SUCRE","MORROA","ASEO","OPERATIVA","SERVIASEO S.A.  E.S.P.","SUCRE","COROZAL","CARRERA 29 No.37-29","8243690","serviaseosaesp@hotmail.com","Registro por la ESP","LUCY DEL ROSARIO VERBEL HERAZO","SOCIEDADES (EMPRESA DE SERVICIOS PUBLICOS)","MAYOR O IGUAL A 5001 USUARIOS"
"SUCRE","OVEJAS","ASEO","OPERATIVA","SERVIASEO S.A.  E.S.P.","SUCRE","COROZAL","CARRERA 29 No.37-29","8243690","serviaseosaesp@hotmail.com","Registro por la ESP","LUCY DEL ROSARIO VERBEL HERAZO","SOCIEDADES (EMPRESA DE SERVICIOS PUBLICOS)","MAYOR O IGUAL A 5001 USUARIOS"
"SUCRE","SAMPUES","ASEO","OPERATIVA","SERVIASEO S.A.  E.S.P.","SUCRE","COROZAL","CARRERA 29 No.37-29","8243690","serviaseosaesp@hotmail.com","Registro por la ESP","LUCY DEL ROSARIO VERBEL HERAZO","SOCIEDADES (EMPRESA DE SERVICIOS PUBLICOS)","MAYOR O IGUAL A 5001 USUARIOS"
"SUCRE","SAN JUAN DE BETULIA","ASEO","OPERATIVA","SERVIASEO S.A.  E.S.P.","SUCRE","COROZAL","CARRERA 29 No.37-29","8243690","serviaseosaesp@hotmail.com","Registro por la ESP","LUCY DEL ROSARIO VERBEL HERAZO","SOCIEDADES (EMPRESA DE SERVICIOS PUBLICOS)","MAYOR O IGUAL A 5001 USUARIOS"
"SUCRE","SAN ONOFRE","ASEO","OPERATIVA","SERVIASEO S.A.  E.S.P.","SUCRE","COROZAL","CARRERA 29 No.37-29","8243690","serviaseosaesp@hotmail.com","Registro por la ESP","LUCY DEL ROSARIO VERBEL HERAZO","SOCIEDADES (EMPRESA DE SERVICIOS PUBLICOS)","MAYOR O IGUAL A 5001 USUARIOS"
"SUCRE","SAN PEDRO","ASEO","OPERATIVA","SERVIASEO S.A.  E.S.P.","SUCRE","COROZAL","CARRERA 29 No.37-29","8243690","serviaseosaesp@hotmail.com","Registro por la ESP","LUCY DEL ROSARIO VERBEL HERAZO","SOCIEDADES (EMPRESA DE SERVICIOS PUBLICOS)","MAYOR O IGUAL A 5001 USUARIOS"
"SUCRE","SANTIAGO DE TOLU","ASEO","OPERATIVA","SERVIASEO S.A.  E.S.P.","SUCRE","COROZAL","CARRERA 29 No.37-29","8243690","serviaseosaesp@hotmail.com","Registro por la ESP","LUCY DEL ROSARIO VERBEL HERAZO","SOCIEDADES (EMPRESA DE SERVICIOS PUBLICOS)","MAYOR O IGUAL A 5001 USUARIOS"
"SUCRE","GUARANDA","ACUEDUCTO","OPERATIVA","ADMINISTRACION PUBLICA COOPERATIVA EMPRESA SOLIDARIA DE SERVICIOS PUBLICOS DE GUARANDA","SUCRE","GUARANDA","CLL 2 BARRIO EL COMERCIO","0000000","EMCOOG@HOTMAIL.COM","Registro por la ESP","MAGOLA MELY VIERA TUIRAN","ORGANIZACION AUTORIZADA","MENOR O IGUAL A 2500 USUARIOS"
"SUCRE","GUARANDA","ALCANTARILLADO","OPERATIVA","ADMINISTRACION PUBLICA COOPERATIVA EMPRESA SOLIDARIA DE SERVICIOS PUBLICOS DE GUARANDA","SUCRE","GUARANDA","CLL 2 BARRIO EL COMERCIO","0000000","EMCOOG@HOTMAIL.COM","Registro por la ESP","MAGOLA MELY VIERA TUIRAN","ORGANIZACION AUTORIZADA","MENOR O IGUAL A 2500 USUARIOS"
"SUCRE","GUARANDA","ASEO","OPERATIVA","ADMINISTRACION PUBLICA COOPERATIVA EMPRESA SOLIDARIA DE SERVICIOS PUBLICOS DE GUARANDA","SUCRE","GUARANDA","CLL 2 BARRIO EL COMERCIO","0000000","EMCOOG@HOTMAIL.COM","Registro por la ESP","MAGOLA MELY VIERA TUIRAN","ORGANIZACION AUTORIZADA","MENOR O IGUAL A 2500 USUARIOS"
"SUCRE","SINCELEJO","ACUEDUCTO","OPERATIVA","ADMINISTRACION PUBLICA COOPERATIVA EMPRESA SOLIDARIA DE SERVICIOS PUBLICOS DE AGUA POTABLE Y SANEAMIENTO BASICO DE CHOCHO","SUCRE","SINCELEJO","Calle 6 N° 7 - 15 CHOCHO - SINCELEJO","3022077","dayssyandrade@gmail.com","Registro por la ESP","DAYSSY ANDRADE BOHORQUEZ","ORGANIZACION AUTORIZADA","MENOR O IGUAL A 2500 USUARIOS"
"SUCRE","SINCELEJO","ALCANTARILLADO","OPERATIVA","ADMINISTRACION PUBLICA COOPERATIVA EMPRESA SOLIDARIA DE SERVICIOS PUBLICOS DE AGUA POTABLE Y SANEAMIENTO BASICO DE CHOCHO","SUCRE","SINCELEJO","Calle 6 N° 7 - 15 CHOCHO - SINCELEJO","3022077","dayssyandrade@gmail.com","Registro por la ESP","DAYSSY ANDRADE BOHORQUEZ","ORGANIZACION AUTORIZADA","MENOR O IGUAL A 2500 USUARIOS"
"SUCRE","SAN ONOFRE","ACUEDUCTO","OPERATIVA","INSERGRUP SOCIEDAD ANONIMA EMPRESA DE SERVICIOS PUBLICOS","BOGOTA, D.C.","BOGOTA, D.C.","CALLE 98 No 15-17 OFICINA 800","3573834","insergrupsaesp@gmail.com","Registro por la ESP","JAIME PARRA PAMPLONA","SOCIEDADES (EMPRESA DE SERVICIOS PUBLICOS)","DESDE 2501 HASTA 5000 USUARIOS"
"SUCRE","SAN ONOFRE","ALCANTARILLADO","OPERATIVA","INSERGRUP SOCIEDAD ANONIMA EMPRESA DE SERVICIOS PUBLICOS","BOGOTA, D.C.","BOGOTA, D.C.","CALLE 98 No 15-17 OFICINA 800","3573834","insergrupsaesp@gmail.com","Registro por la ESP","JAIME PARRA PAMPLONA","SOCIEDADES (EMPRESA DE SERVICIOS PUBLICOS)","DESDE 2501 HASTA 5000 USUARIOS"
"SUCRE","SUCRE","ACUEDUCTO","OPERATIVA","EMPRESA INDUSTRIAL Y COMERCIAL DE AGUA POTABLE ALCANTARILLADO Y ASEO","SUCRE","SUCRE","PALACIO MUNICIPAL","2879029","acuasucre@yahoo.es","Registro por la ESP","YESENIA SEVERICHE NADJAR","EMPRESA INDUSTRIAL Y COMERCIAL DEL ESTADO","HASTA 2500 SUSCRIPTORES"
"SUCRE","SUCRE","ASEO","OPERATIVA","EMPRESA INDUSTRIAL Y COMERCIAL DE AGUA POTABLE ALCANTARILLADO Y ASEO","SUCRE","SUCRE","PALACIO MUNICIPAL","2879029","acuasucre@yahoo.es","Registro por la ESP","YESENIA SEVERICHE NADJAR","EMPRESA INDUSTRIAL Y COMERCIAL DEL ESTADO","HASTA 2500 SUSCRIPTORES"
"SUCRE","OVEJAS","ACUEDUCTO","OPERATIVA","EMPRESA MUNICIPAL DE ACUEDUCTO, ALCANTARILLADO Y ASEO DE OVEJAS SA ESP","SUCRE","OVEJAS","CRA 15 # 23 - 09","2869291","aaadeovejas@gmail.com","Registro por la ESP","MODESTO CARLOS CHAVEZ GONZALEZ","SOCIEDADES (EMPRESA DE SERVICIOS PUBLICOS)","DESDE 2501 HASTA 5000 USUARIOS"
"SUCRE","OVEJAS","ALCANTARILLADO","OPERATIVA","EMPRESA MUNICIPAL DE ACUEDUCTO, ALCANTARILLADO Y ASEO DE OVEJAS SA ESP","SUCRE","OVEJAS","CRA 15 # 23 - 09","2869291","aaadeovejas@gmail.com","Registro por la ESP","MODESTO CARLOS CHAVEZ GONZALEZ","SOCIEDADES (EMPRESA DE SERVICIOS PUBLICOS)","DESDE 2501 HASTA 5000 USUARIOS"
"SUCRE","OVEJAS","ASEO","OPERATIVA","EMPRESA MUNICIPAL DE ACUEDUCTO, ALCANTARILLADO Y ASEO DE OVEJAS SA ESP","SUCRE","OVEJAS","CRA 15 # 23 - 09","2869291","aaadeovejas@gmail.com","Registro por la ESP","MODESTO CARLOS CHAVEZ GONZALEZ","SOCIEDADES (EMPRESA DE SERVICIOS PUBLICOS)","DESDE 2501 HASTA 5000 USUARIOS"
"SUCRE","CAIMITO","ACUEDUCTO","OPERATIVA","EMPRESAS PUBLICAS MUNICIPALES DE CAIMITO","SUCRE","CAIMITO","Plaza Principal - Palacio Municipal","2914136","empocaimito@gmail.com","Registro por la ESP","OMAR RAFAEL LEON ROJAS","PRESTADORES FUERA DEL ART. 15 LSPD","HASTA 2500 SUSCRIPTORES"
"SUCRE","CAIMITO","ALCANTARILLADO","OPERATIVA","EMPRESAS PUBLICAS MUNICIPALES DE CAIMITO","SUCRE","CAIMITO","Plaza Principal - Palacio Municipal","2914136","empocaimito@gmail.com","Registro por la ESP","OMAR RAFAEL LEON ROJAS","PRESTADORES FUERA DEL ART. 15 LSPD","HASTA 2500 SUSCRIPTORES"
"SUCRE","LA UNION","ACUEDUCTO","OPERATIVA","EMPRESA MUNICIPAL DE ACUEDUCTO,ALCANTARILLADO Y ASEO DEL MUNICIPIO DE LA UNION SUCRE SA ESP","SUCRE","LA UNION","Calle 8 Cra 11","2919126","UNIONAAA@HOTMAIL.COM","Registro por la ESP","HECTOR RICARDO MONTERROSA","SOCIEDADES (EMPRESA DE SERVICIOS PUBLICOS)","MENOR O IGUAL A 2500 USUARIOS"
"SUCRE","LA UNION","ALCANTARILLADO","OPERATIVA","EMPRESA MUNICIPAL DE ACUEDUCTO,ALCANTARILLADO Y ASEO DEL MUNICIPIO DE LA UNION SUCRE SA ESP","SUCRE","LA UNION","Calle 8 Cra 11","2919126","UNIONAAA@HOTMAIL.COM","Registro por la ESP","HECTOR RICARDO MONTERROSA","SOCIEDADES (EMPRESA DE SERVICIOS PUBLICOS)","MENOR O IGUAL A 2500 USUARIOS"
"SUCRE","LA UNION","ASEO","OPERATIVA","EMPRESA MUNICIPAL DE ACUEDUCTO,ALCANTARILLADO Y ASEO DEL MUNICIPIO DE LA UNION SUCRE SA ESP","SUCRE","LA UNION","Calle 8 Cra 11","2919126","UNIONAAA@HOTMAIL.COM","Registro por la ESP","HECTOR RICARDO MONTERROSA","SOCIEDADES (EMPRESA DE SERVICIOS PUBLICOS)","MENOR O IGUAL A 2500 USUARIOS"
"SUCRE","SAN LUIS DE SINCE","ACUEDUCTO","OPERATIVA","EMPRESA MUNICIPAL DE ACUEDUCTO, ALCANTARILLADO Y ASEO DEL MUNICIPIO DE SINCE SUCRE S.A. E.S.P.","SUCRE","SAN LUIS DE SINCE","Calle 9 No 11- 57","2895207","acuasince@hotmail.com","Registro por la ESP","NESTOR JOSE LARA  BARRIOS","SOCIEDADES (EMPRESA DE SERVICIOS PUBLICOS)","MAS DE 2500 SUSCRIPTORES"
"SUCRE","SAN LUIS DE SINCE","ALCANTARILLADO","OPERATIVA","EMPRESA MUNICIPAL DE ACUEDUCTO, ALCANTARILLADO Y ASEO DEL MUNICIPIO DE SINCE SUCRE S.A. E.S.P.","SUCRE","SAN LUIS DE SINCE","Calle 9 No 11- 57","2895207","acuasince@hotmail.com","Registro por la ESP","NESTOR JOSE LARA  BARRIOS","SOCIEDADES (EMPRESA DE SERVICIOS PUBLICOS)","MAS DE 2500 SUSCRIPTORES"
"SUCRE","SAN LUIS DE SINCE","ASEO","OPERATIVA","EMPRESA MUNICIPAL DE ACUEDUCTO, ALCANTARILLADO Y ASEO DEL MUNICIPIO DE SINCE SUCRE S.A. E.S.P.","SUCRE","SAN LUIS DE SINCE","Calle 9 No 11- 57","2895207","acuasince@hotmail.com","Registro por la ESP","NESTOR JOSE LARA  BARRIOS","SOCIEDADES (EMPRESA DE SERVICIOS PUBLICOS)","MAS DE 2500 SUSCRIPTORES"
"SUCRE","SANTIAGO DE TOLU","ALCANTARILLADO","OPERATIVA","MUNICIPIO  SANTIAGO DE TOLU","SUCRE","SANTIAGO DE TOLU","Cra 2 No  15 - 43","2860598","adolfogonzalezgonzalez@gmail.com","Registro por la ESP","ADOLFO DE JESUS GONZALEZ GONZALEZ","MUNICIPIO (PRESTACIÓN DIRECTA)","HASTA 2500 SUSCRIPTORES"
"SUCRE","SANTIAGO DE TOLU","ACUEDUCTO","OPERATIVA","MUNICIPIO  SANTIAGO DE TOLU","SUCRE","SANTIAGO DE TOLU","Cra 2 No  15 - 43","2860598","adolfogonzalezgonzalez@gmail.com","Registro por la ESP","ADOLFO DE JESUS GONZALEZ GONZALEZ","MUNICIPIO (PRESTACIÓN DIRECTA)","MAS DE 2500 SUSCRIPTORES"
"SUCRE","SANTIAGO DE TOLU","ASEO","OPERATIVA","MUNICIPIO  SANTIAGO DE TOLU","SUCRE","SANTIAGO DE TOLU","Cra 2 No  15 - 43","2860598","adolfogonzalezgonzalez@gmail.com","Registro por la ESP","ADOLFO DE JESUS GONZALEZ GONZALEZ","MUNICIPIO (PRESTACIÓN DIRECTA)","MAS DE 2500 SUSCRIPTORES"
"SUCRE","MAJAGUAL","ACUEDUCTO","OPERATIVA","COOPERATIVA DE ACUEDUCTO, ALCANTARRILLADO Y ASEO DE MAJAGUAL E.S.P.","SUCRE","MAJAGUAL","calle 5 Nº17-57","0000000","alberto-enrique89@hotmail.com","Registro por la ESP","ALBERTO ENRIQUE ACUNA BUENO","ORGANIZACION AUTORIZADA","MENOR O IGUAL A 2500 USUARIOS"
"SUCRE","MAJAGUAL","ALCANTARILLADO","OPERATIVA","COOPERATIVA DE ACUEDUCTO, ALCANTARRILLADO Y ASEO DE MAJAGUAL E.S.P.","SUCRE","MAJAGUAL","calle 5 Nº17-57","0000000","alberto-enrique89@hotmail.com","Registro por la ESP","ALBERTO ENRIQUE ACUNA BUENO","ORGANIZACION AUTORIZADA","MENOR O IGUAL A 2500 USUARIOS"
"SUCRE","MAJAGUAL","ASEO","OPERATIVA","COOPERATIVA DE ACUEDUCTO, ALCANTARRILLADO Y ASEO DE MAJAGUAL E.S.P.","SUCRE","MAJAGUAL","calle 5 Nº17-57","0000000","alberto-enrique89@hotmail.com","Registro por la ESP","ALBERTO ENRIQUE ACUNA BUENO","ORGANIZACION AUTORIZADA","MENOR O IGUAL A 2500 USUARIOS"
"SUCRE","TOLU VIEJO","ACUEDUCTO","OPERATIVA","MUNICIPIO DE TOLUVIEJO","SUCRE","TOLU VIEJO","DIAGONAL 2 No 6-12 CALLE REAL","2948242","minerly2007@hotmail.com","Registro por la ESP","MIGUEL EDUARDO CARRASCAL PADILLA","MUNICIPIO (PRESTACIÓN DIRECTA)","HASTA 2500 SUSCRIPTORES"
"SUCRE","TOLU VIEJO","ALCANTARILLADO","OPERATIVA","MUNICIPIO DE TOLUVIEJO","SUCRE","TOLU VIEJO","DIAGONAL 2 No 6-12 CALLE REAL","2948242","minerly2007@hotmail.com","Registro por la ESP","MIGUEL EDUARDO CARRASCAL PADILLA","MUNICIPIO (PRESTACIÓN DIRECTA)","HASTA 2500 SUSCRIPTORES"
"SUCRE","TOLU VIEJO","ASEO","OPERATIVA","MUNICIPIO DE TOLUVIEJO","SUCRE","TOLU VIEJO","DIAGONAL 2 No 6-12 CALLE REAL","2948242","minerly2007@hotmail.com","Registro por la ESP","MIGUEL EDUARDO CARRASCAL PADILLA","MUNICIPIO (PRESTACIÓN DIRECTA)","HASTA 2500 SUSCRIPTORES"
"SUCRE","COVENAS","ACUEDUCTO","OPERATIVA","AGUAS DEL GOLFO S.A. .E.S.P.","SUCRE","COVENAS","barrio isla de gallinazo","2880437","aguasdelgolfocovenas@yahoo.es","Registro por la ESP","DOMINGO SAEL AGRESOT MENDOZA","SOCIEDADES (EMPRESA DE SERVICIOS PUBLICOS)","HASTA 2500 SUSCRIPTORES"
"SUCRE","COVENAS","ASEO","OPERATIVA","AGUAS DEL GOLFO S.A. .E.S.P.","SUCRE","COVENAS","barrio isla de gallinazo","2880437","aguasdelgolfocovenas@yahoo.es","Registro por la ESP","DOMINGO SAEL AGRESOT MENDOZA","SOCIEDADES (EMPRESA DE SERVICIOS PUBLICOS)","HASTA 2500 SUSCRIPTORES"
"SUCRE","SAN LUIS DE SINCE","ACUEDUCTO","OPERATIVA","ASOCIACION DE USUARIOS DE LOS SERVICIOS PUBLICOS DE ACUEDUCTO, ALCANTARILLADO Y ASEO DEL CORREGIMIENTO DE VALENCIA-SUCRE","SUCRE","SAN LUIS DE SINCE","CORREGIMIENTO DE VALENCIA","2869961","alcaldia@since-sucre.gov.co","Registro por la ESP","ENITH DEL CARMEN MERCADO ZUÑIGA","ORGANIZACION AUTORIZADA","HASTA 2500 SUSCRIPTORES"
"SUCRE","TOLU VIEJO","ACUEDUCTO","OPERATIVA","EMPRESA OFICIAL DE SERVICIOS PUBLICOS DOMICILIARIOS DEL MUNICIPIO DE TOLUVIEJO S.A. E.S.P.","SUCRE","TOLU VIEJO","PLAZA PRINCIPAL DE TOLUVIEJO","2948242","aguasdetoluviejoesp@hotmail.com","Registro por la ESP","ARMANDO JOSE SIERRA  SIERRA","SOCIEDADES (EMPRESA DE SERVICIOS PUBLICOS)","HASTA 2500 SUSCRIPTORES"
"SUCRE","TOLU VIEJO","ALCANTARILLADO","OPERATIVA","EMPRESA OFICIAL DE SERVICIOS PUBLICOS DOMICILIARIOS DEL MUNICIPIO DE TOLUVIEJO S.A. E.S.P.","SUCRE","TOLU VIEJO","PLAZA PRINCIPAL DE TOLUVIEJO","2948242","aguasdetoluviejoesp@hotmail.com","Registro por la ESP","ARMANDO JOSE SIERRA  SIERRA","SOCIEDADES (EMPRESA DE SERVICIOS PUBLICOS)","HASTA 2500 SUSCRIPTORES"
"SUCRE","TOLU VIEJO","ASEO","OPERATIVA","EMPRESA OFICIAL DE SERVICIOS PUBLICOS DOMICILIARIOS DEL MUNICIPIO DE TOLUVIEJO S.A. E.S.P.","SUCRE","TOLU VIEJO","PLAZA PRINCIPAL DE TOLUVIEJO","2948242","aguasdetoluviejoesp@hotmail.com","Registro por la ESP","ARMANDO JOSE SIERRA  SIERRA","SOCIEDADES (EMPRESA DE SERVICIOS PUBLICOS)","HASTA 2500 SUSCRIPTORES"
"SUCRE","MORROA","ACUEDUCTO","OPERATIVA","UNIDAD DE AGUA POTABLE Y SANEAMIENTO BASICO DE MORROA","SUCRE","MORROA","Cra 6 No 8 - 11","2857451","morroasp@gmail.com","Registro por la ESP","BENJAMIN ARTURO SALCEDO PEREZ","MUNICIPIO (PRESTACIÓN DIRECTA)","HASTA 2500 SUSCRIPTORES"
"SUCRE","MORROA","ALCANTARILLADO","OPERATIVA","UNIDAD DE AGUA POTABLE Y SANEAMIENTO BASICO DE MORROA","SUCRE","MORROA","Cra 6 No 8 - 11","2857451","morroasp@gmail.com","Registro por la ESP","BENJAMIN ARTURO SALCEDO PEREZ","MUNICIPIO (PRESTACIÓN DIRECTA)","HASTA 2500 SUSCRIPTORES"
"SUCRE","MORROA","ASEO","OPERATIVA","UNIDAD DE AGUA POTABLE Y SANEAMIENTO BASICO DE MORROA","SUCRE","MORROA","Cra 6 No 8 - 11","2857451","morroasp@gmail.com","Registro por la ESP","BENJAMIN ARTURO SALCEDO PEREZ","MUNICIPIO (PRESTACIÓN DIRECTA)","HASTA 2500 SUSCRIPTORES"
"SUCRE","MORROA","ACUEDUCTO","OPERATIVA","AGUAS DE MORROA SA ESP","SUCRE","MORROA","Carrera 4 No 4 - 28","2858276","AGUASDEMORROA@HOTMAIL.COM","Registro por la ESP","JAIRO ALFREDO PEREZ LOPEZ","SOCIEDADES (EMPRESA DE SERVICIOS PUBLICOS)","HASTA 2500 SUSCRIPTORES"
"SUCRE","MORROA","ALCANTARILLADO","OPERATIVA","AGUAS DE MORROA SA ESP","SUCRE","MORROA","Carrera 4 No 4 - 28","2858276","AGUASDEMORROA@HOTMAIL.COM","Registro por la ESP","JAIRO ALFREDO PEREZ LOPEZ","SOCIEDADES (EMPRESA DE SERVICIOS PUBLICOS)","HASTA 2500 SUSCRIPTORES"
"SUCRE","MORROA","ASEO","OPERATIVA","AGUAS DE MORROA SA ESP","SUCRE","MORROA","Carrera 4 No 4 - 28","2858276","AGUASDEMORROA@HOTMAIL.COM","Registro por la ESP","JAIRO ALFREDO PEREZ LOPEZ","SOCIEDADES (EMPRESA DE SERVICIOS PUBLICOS)","HASTA 2500 SUSCRIPTORES"
"SUCRE","SANTIAGO DE TOLU","ACUEDUCTO","OPERATIVA","AGUAS DEL MORROSQUILLO S.A E.S.P.","SUCRE","SANTIAGO DE TOLU","carrera 3 Nº 17-59","2884115","aguasdelmorrosquillo1@hotmail.com","Registro por la ESP","MARIA DEL PILAR PEREZ PEREZ","SOCIEDADES (EMPRESA DE SERVICIOS PUBLICOS)","DESDE 2501 HASTA 5000 USUARIOS"
"SUCRE","SANTIAGO DE TOLU","ALCANTARILLADO","OPERATIVA","AGUAS DEL MORROSQUILLO S.A E.S.P.","SUCRE","SANTIAGO DE TOLU","carrera 3 Nº 17-59","2884115","aguasdelmorrosquillo1@hotmail.com","Registro por la ESP","MARIA DEL PILAR PEREZ PEREZ","SOCIEDADES (EMPRESA DE SERVICIOS PUBLICOS)","DESDE 2501 HASTA 5000 USUARIOS"
"SUCRE","SANTIAGO DE TOLU","ASEO","OPERATIVA","AGUAS DEL MORROSQUILLO S.A E.S.P.","SUCRE","SANTIAGO DE TOLU","carrera 3 Nº 17-59","2884115","aguasdelmorrosquillo1@hotmail.com","Registro por la ESP","MARIA DEL PILAR PEREZ PEREZ","SOCIEDADES (EMPRESA DE SERVICIOS PUBLICOS)","MAYOR O IGUAL A 5001 USUARIOS"
"SUCRE","COLOSO","ACUEDUCTO","OPERATIVA","EMPRESA MUNICIPAL DE ACUEDUCTO, ALCANTARILLADO Y ASEO DEL MUNICIPIO DE COLOSO SUCRE S.A. E.S.P.","SUCRE","COLOSO","calle real","2499837","aguasdecoloso@gmail.com","Registro por la ESP","MARCEL BELTRAN RIVERA","SOCIEDADES (EMPRESA DE SERVICIOS PUBLICOS)","HASTA 2500 SUSCRIPTORES"
"SUCRE","COLOSO","ALCANTARILLADO","OPERATIVA","EMPRESA MUNICIPAL DE ACUEDUCTO, ALCANTARILLADO Y ASEO DEL MUNICIPIO DE COLOSO SUCRE S.A. E.S.P.","SUCRE","COLOSO","calle real","2499837","aguasdecoloso@gmail.com","Registro por la ESP","MARCEL BELTRAN RIVERA","SOCIEDADES (EMPRESA DE SERVICIOS PUBLICOS)","HASTA 2500 SUSCRIPTORES"
"SUCRE","COLOSO","ASEO","OPERATIVA","EMPRESA MUNICIPAL DE ACUEDUCTO, ALCANTARILLADO Y ASEO DEL MUNICIPIO DE COLOSO SUCRE S.A. E.S.P.","SUCRE","COLOSO","calle real","2499837","aguasdecoloso@gmail.com","Registro por la ESP","MARCEL BELTRAN RIVERA","SOCIEDADES (EMPRESA DE SERVICIOS PUBLICOS)","HASTA 2500 SUSCRIPTORES"
"SUCRE","PALMITO","ACUEDUCTO","OPERATIVA","EMPRESA MUNICIPAL DE ACUEDUCTO ALCANTARILLADO Y ASEO DEL MUNICIPIO DE SAN ANTONIO DE PALMITO SUCRE SA ESP","SUCRE","PALMITO","Carrera 7 No 6  08","2822784","ACUAPAL@SANANTONIODEPALMITO_SUCRE.GOV.CO","Registro por la ESP","JOSE DANIEL SEVILLA BALETA","SOCIEDADES (EMPRESA DE SERVICIOS PUBLICOS)","MENOR O IGUAL A 2500 USUARIOS"
"SUCRE","PALMITO","ALCANTARILLADO","OPERATIVA","EMPRESA MUNICIPAL DE ACUEDUCTO ALCANTARILLADO Y ASEO DEL MUNICIPIO DE SAN ANTONIO DE PALMITO SUCRE SA ESP","SUCRE","PALMITO","Carrera 7 No 6  08","2822784","ACUAPAL@SANANTONIODEPALMITO_SUCRE.GOV.CO","Registro por la ESP","JOSE DANIEL SEVILLA BALETA","SOCIEDADES (EMPRESA DE SERVICIOS PUBLICOS)","MENOR O IGUAL A 2500 USUARIOS"
"SUCRE","PALMITO","ASEO","OPERATIVA","EMPRESA MUNICIPAL DE ACUEDUCTO ALCANTARILLADO Y ASEO DEL MUNICIPIO DE SAN ANTONIO DE PALMITO SUCRE SA ESP","SUCRE","PALMITO","Carrera 7 No 6  08","2822784","ACUAPAL@SANANTONIODEPALMITO_SUCRE.GOV.CO","Registro por la ESP","JOSE DANIEL SEVILLA BALETA","SOCIEDADES (EMPRESA DE SERVICIOS PUBLICOS)","MENOR O IGUAL A 2500 USUARIOS"
"SUCRE","SAN JUAN DE BETULIA","ACUEDUCTO","OPERATIVA","EMPRESA MUNICIPAL DE ACUEDUCTO ALCANTARILLADO Y ASEO DEL MUNICIPIO DE SAN JUAN DE BETULIA SA ESP","SUCRE","SAN JUAN DE BETULIA","Diagonal 5 4-29","2744567","jorgepajo@hotmail.com","Registro por la ESP","JAIRO ALEJANDRO HERRERA HOYOS","SOCIEDADES (EMPRESA DE SERVICIOS PUBLICOS)","HASTA 2500 SUSCRIPTORES"
"SUCRE","SAN JUAN DE BETULIA","ALCANTARILLADO","OPERATIVA","EMPRESA MUNICIPAL DE ACUEDUCTO ALCANTARILLADO Y ASEO DEL MUNICIPIO DE SAN JUAN DE BETULIA SA ESP","SUCRE","SAN JUAN DE BETULIA","Diagonal 5 4-29","2744567","jorgepajo@hotmail.com","Registro por la ESP","JAIRO ALEJANDRO HERRERA HOYOS","SOCIEDADES (EMPRESA DE SERVICIOS PUBLICOS)","HASTA 2500 SUSCRIPTORES"
"SUCRE","SAN JUAN DE BETULIA","ASEO","OPERATIVA","EMPRESA MUNICIPAL DE ACUEDUCTO ALCANTARILLADO Y ASEO DEL MUNICIPIO DE SAN JUAN DE BETULIA SA ESP","SUCRE","SAN JUAN DE BETULIA","Diagonal 5 4-29","2744567","jorgepajo@hotmail.com","Registro por la ESP","JAIRO ALEJANDRO HERRERA HOYOS","SOCIEDADES (EMPRESA DE SERVICIOS PUBLICOS)","HASTA 2500 SUSCRIPTORES"
"SUCRE","GALERAS","ACUEDUCTO","OPERATIVA","EMPRESA DE SERVICIOS PUBLICOS DE GALERAS S.A. E.S.P.","SUCRE","GALERAS","Kra 11 No 12-24 Plaza Principal","2893020","empagal@colombia.com","Registro por la ESP","JAIR FABIAN ORTEGA UPARELA","SOCIEDADES (EMPRESA DE SERVICIOS PUBLICOS)","HASTA 2500 SUSCRIPTORES"
"SUCRE","GALERAS","ALCANTARILLADO","OPERATIVA","EMPRESA DE SERVICIOS PUBLICOS DE GALERAS S.A. E.S.P.","SUCRE","GALERAS","Kra 11 No 12-24 Plaza Principal","2893020","empagal@colombia.com","Registro por la ESP","JAIR FABIAN ORTEGA UPARELA","SOCIEDADES (EMPRESA DE SERVICIOS PUBLICOS)","HASTA 2500 SUSCRIPTORES"
"SUCRE","GALERAS","ASEO","OPERATIVA","EMPRESA DE SERVICIOS PUBLICOS DE GALERAS S.A. E.S.P.","SUCRE","GALERAS","Kra 11 No 12-24 Plaza Principal","2893020","empagal@colombia.com","Registro por la ESP","JAIR FABIAN ORTEGA UPARELA","SOCIEDADES (EMPRESA DE SERVICIOS PUBLICOS)","HASTA 2500 SUSCRIPTORES"
"SUCRE","LOS PALMITOS","ACUEDUCTO","OPERATIVA","EMPRESA DE SERVICIOS PUBLICOS LOS PALMITOS S.A. E.S.P","SUCRE","LOS PALMITOS","CRA 13 5 - 92 PLAZA DE LA CRUZ","2922188","empalaguadevida@hotmail.com","Registro por la ESP","LUZCELIS GUERRA DIAZ","SOCIEDADES (EMPRESA DE SERVICIOS PUBLICOS)","HASTA 2500 SUSCRIPTORES"
"SUCRE","LOS PALMITOS","ALCANTARILLADO","OPERATIVA","EMPRESA DE SERVICIOS PUBLICOS LOS PALMITOS S.A. E.S.P","SUCRE","LOS PALMITOS","CRA 13 5 - 92 PLAZA DE LA CRUZ","2922188","empalaguadevida@hotmail.com","Registro por la ESP","LUZCELIS GUERRA DIAZ","SOCIEDADES (EMPRESA DE SERVICIOS PUBLICOS)","HASTA 2500 SUSCRIPTORES"
"SUCRE","LOS PALMITOS","ASEO","OPERATIVA","EMPRESA DE SERVICIOS PUBLICOS LOS PALMITOS S.A. E.S.P","SUCRE","LOS PALMITOS","CRA 13 5 - 92 PLAZA DE LA CRUZ","2922188","empalaguadevida@hotmail.com","Registro por la ESP","LUZCELIS GUERRA DIAZ","SOCIEDADES (EMPRESA DE SERVICIOS PUBLICOS)","HASTA 2500 SUSCRIPTORES"
"SUCRE","MORROA","ACUEDUCTO","OPERATIVA","ASOCIACION DE SERVICIOS PUBLICOS REGIONALES SABANAS DE CALI, EL RINCON Y LOS HATOS, JURISDICCION DEL MUNICIPIO DE MORROA","SUCRE","MORROA","CORREGIMIENTO SABANAS DE CALI","2857451","asepur@hotmail.com","Registro por la ESP","ROBINSON ALFREDO SALAS RIVERA","ORGANIZACION AUTORIZADA","HASTA 2500 SUSCRIPTORES"
"SUCRE","TOLU VIEJO","ACUEDUCTO","OPERATIVA","EMPRESA OFICIAL DE ACUEDUCTO ALCANTARILLADO Y ASEO DEL MUNICIPIO DE TOLUVIEJO SA ESP","SUCRE","TOLU VIEJO","Diagonal 2 No. 5 -13","0000000","alfonsourzola@hotmail.com","Registro por la ESP","ALFONSO URZOLA REVOLLO","SOCIEDADES (EMPRESA DE SERVICIOS PUBLICOS)","DESDE 2501 HASTA 5000 USUARIOS"
"SUCRE","TOLU VIEJO","ALCANTARILLADO","OPERATIVA","EMPRESA OFICIAL DE ACUEDUCTO ALCANTARILLADO Y ASEO DEL MUNICIPIO DE TOLUVIEJO SA ESP","SUCRE","TOLU VIEJO","Diagonal 2 No. 5 -13","0000000","alfonsourzola@hotmail.com","Registro por la ESP","ALFONSO URZOLA REVOLLO","SOCIEDADES (EMPRESA DE SERVICIOS PUBLICOS)","DESDE 2501 HASTA 5000 USUARIOS"
"SUCRE","BUENAVISTA","ASEO","OPERATIVA","EMPRESA OFICIAL DE ACUEDUCTO ALCANTARILLADO Y ASEO DEL MUNICIPIO DE TOLUVIEJO SA ESP","SUCRE","TOLU VIEJO","Diagonal 2 No. 5 -13","0000000","alfonsourzola@hotmail.com","Registro por la ESP","ALFONSO URZOLA REVOLLO","SOCIEDADES (EMPRESA DE SERVICIOS PUBLICOS)","DESDE 2501 HASTA 5000 USUARIOS"
"SUCRE","COLOSO","ASEO","OPERATIVA","EMPRESA OFICIAL DE ACUEDUCTO ALCANTARILLADO Y ASEO DEL MUNICIPIO DE TOLUVIEJO SA ESP","SUCRE","TOLU VIEJO","Diagonal 2 No. 5 -13","0000000","alfonsourzola@hotmail.com","Registro por la ESP","ALFONSO URZOLA REVOLLO","SOCIEDADES (EMPRESA DE SERVICIOS PUBLICOS)","DESDE 2501 HASTA 5000 USUARIOS"
"SUCRE","EL ROBLE","ASEO","OPERATIVA","EMPRESA OFICIAL DE ACUEDUCTO ALCANTARILLADO Y ASEO DEL MUNICIPIO DE TOLUVIEJO SA ESP","SUCRE","TOLU VIEJO","Diagonal 2 No. 5 -13","0000000","alfonsourzola@hotmail.com","Registro por la ESP","ALFONSO URZOLA REVOLLO","SOCIEDADES (EMPRESA DE SERVICIOS PUBLICOS)","DESDE 2501 HASTA 5000 USUARIOS"
"SUCRE","LA UNION","ASEO","OPERATIVA","EMPRESA OFICIAL DE ACUEDUCTO ALCANTARILLADO Y ASEO DEL MUNICIPIO DE TOLUVIEJO SA ESP","SUCRE","TOLU VIEJO","Diagonal 2 No. 5 -13","0000000","alfonsourzola@hotmail.com","Registro por la ESP","ALFONSO URZOLA REVOLLO","SOCIEDADES (EMPRESA DE SERVICIOS PUBLICOS)","DESDE 2501 HASTA 5000 USUARIOS"
"SUCRE","MORROA","ASEO","OPERATIVA","EMPRESA OFICIAL DE ACUEDUCTO ALCANTARILLADO Y ASEO DEL MUNICIPIO DE TOLUVIEJO SA ESP","SUCRE","TOLU VIEJO","Diagonal 2 No. 5 -13","0000000","alfonsourzola@hotmail.com","Registro por la ESP","ALFONSO URZOLA REVOLLO","SOCIEDADES (EMPRESA DE SERVICIOS PUBLICOS)","DESDE 2501 HASTA 5000 USUARIOS"
"SUCRE","PALMITO","ASEO","OPERATIVA","EMPRESA OFICIAL DE ACUEDUCTO ALCANTARILLADO Y ASEO DEL MUNICIPIO DE TOLUVIEJO SA ESP","SUCRE","TOLU VIEJO","Diagonal 2 No. 5 -13","0000000","alfonsourzola@hotmail.com","Registro por la ESP","ALFONSO URZOLA REVOLLO","SOCIEDADES (EMPRESA DE SERVICIOS PUBLICOS)","DESDE 2501 HASTA 5000 USUARIOS"
"SUCRE","SAN ONOFRE","ASEO","OPERATIVA","EMPRESA OFICIAL DE ACUEDUCTO ALCANTARILLADO Y ASEO DEL MUNICIPIO DE TOLUVIEJO SA ESP","SUCRE","TOLU VIEJO","Diagonal 2 No. 5 -13","0000000","alfonsourzola@hotmail.com","Registro por la ESP","ALFONSO URZOLA REVOLLO","SOCIEDADES (EMPRESA DE SERVICIOS PUBLICOS)","DESDE 2501 HASTA 5000 USUARIOS"
"SUCRE","SANTIAGO DE TOLU","ASEO","OPERATIVA","EMPRESA OFICIAL DE ACUEDUCTO ALCANTARILLADO Y ASEO DEL MUNICIPIO DE TOLUVIEJO SA ESP","SUCRE","TOLU VIEJO","Diagonal 2 No. 5 -13","0000000","alfonsourzola@hotmail.com","Registro por la ESP","ALFONSO URZOLA REVOLLO","SOCIEDADES (EMPRESA DE SERVICIOS PUBLICOS)","DESDE 2501 HASTA 5000 USUARIOS"
"SUCRE","TOLU VIEJO","ASEO","OPERATIVA","EMPRESA OFICIAL DE ACUEDUCTO ALCANTARILLADO Y ASEO DEL MUNICIPIO DE TOLUVIEJO SA ESP","SUCRE","TOLU VIEJO","Diagonal 2 No. 5 -13","0000000","alfonsourzola@hotmail.com","Registro por la ESP","ALFONSO URZOLA REVOLLO","SOCIEDADES (EMPRESA DE SERVICIOS PUBLICOS)","DESDE 2501 HASTA 5000 USUARIOS"
"SUCRE","CHALAN","ACUEDUCTO","OPERATIVA","EMPRESA DE ACUEDUCTO ALCANTARILLADO Y ASEO DEL MUNICIPIO DE CHALAN SA ESP","SUCRE","CHALAN","CL 6A CR 3 - 20","0000000","aguasdechalansaesp@hotmail.com","Registro por la ESP","BLADIMIR JOSE CERMENO RODRIGUEZ","SOCIEDADES (EMPRESA DE SERVICIOS PUBLICOS)","MENOR O IGUAL A 2500 USUARIOS"
"SUCRE","CHALAN","ALCANTARILLADO","OPERATIVA","EMPRESA DE ACUEDUCTO ALCANTARILLADO Y ASEO DEL MUNICIPIO DE CHALAN SA ESP","SUCRE","CHALAN","CL 6A CR 3 - 20","0000000","aguasdechalansaesp@hotmail.com","Registro por la ESP","BLADIMIR JOSE CERMENO RODRIGUEZ","SOCIEDADES (EMPRESA DE SERVICIOS PUBLICOS)","MENOR O IGUAL A 2500 USUARIOS"
"SUCRE","CHALAN","ASEO","OPERATIVA","EMPRESA DE ACUEDUCTO ALCANTARILLADO Y ASEO DEL MUNICIPIO DE CHALAN SA ESP","SUCRE","CHALAN","CL 6A CR 3 - 20","0000000","aguasdechalansaesp@hotmail.com","Registro por la ESP","BLADIMIR JOSE CERMENO RODRIGUEZ","SOCIEDADES (EMPRESA DE SERVICIOS PUBLICOS)","MENOR O IGUAL A 2500 USUARIOS"
"SUCRE","EL ROBLE","ACUEDUCTO","OPERATIVA","EMPRESA DE SERVICIOS PUBLICOS AGUAS DE PADILLA S.A. E.S.P.","SUCRE","EL ROBLE","CRA 6 No 9 - 63","0000000","aguasdepadilla2019@hotmail.com","Registro por la ESP","KETTY VERGARA PEREZ","SOCIEDADES (EMPRESA DE SERVICIOS PUBLICOS)","MENOR O IGUAL A 2500 USUARIOS"
"SUCRE","EL ROBLE","ALCANTARILLADO","OPERATIVA","EMPRESA DE SERVICIOS PUBLICOS AGUAS DE PADILLA S.A. E.S.P.","SUCRE","EL ROBLE","CRA 6 No 9 - 63","0000000","aguasdepadilla2019@hotmail.com","Registro por la ESP","KETTY VERGARA PEREZ","SOCIEDADES (EMPRESA DE SERVICIOS PUBLICOS)","MENOR O IGUAL A 2500 USUARIOS"
"SUCRE","EL ROBLE","ASEO","OPERATIVA","EMPRESA DE SERVICIOS PUBLICOS AGUAS DE PADILLA S.A. E.S.P.","SUCRE","EL ROBLE","CRA 6 No 9 - 63","0000000","aguasdepadilla2019@hotmail.com","Registro por la ESP","KETTY VERGARA PEREZ","SOCIEDADES (EMPRESA DE SERVICIOS PUBLICOS)","MENOR O IGUAL A 2500 USUARIOS"
"SUCRE","SAN PEDRO","ASEO","OPERATIVA","EMPRESA DE ASEO SAN PEDRO SENTIDO SOCIAL S.A. E.S.P.","SUCRE","SAN PEDRO","CALLE 13 CON CARRERA 13","2894141","yesidaseo@hotmail.com","Registro por la ESP","EVER ENRIQUE ANGULO PALMERA","SOCIEDADES (EMPRESA DE SERVICIOS PUBLICOS)","MAS DE 2500 SUSCRIPTORES"
"SUCRE","SAN PEDRO","ACUEDUCTO","OPERATIVA","EMPRESA DE SERVICIOS PUBLICOS DE ACUEDUCTO Y ALCANTARILLADO DE SAN PEDRO SUCRE SA ESP","SUCRE","SAN PEDRO","CRA 9 No 11 - 16","2894188","eduardodvf@gmail.com","Registro por la ESP","MELISSA DE JESUS GONZALEZ LUNA","SOCIEDADES (EMPRESA DE SERVICIOS PUBLICOS)","DESDE 2501 HASTA 5000 USUARIOS"
"SUCRE","SAN PEDRO","ALCANTARILLADO","OPERATIVA","EMPRESA DE SERVICIOS PUBLICOS DE ACUEDUCTO Y ALCANTARILLADO DE SAN PEDRO SUCRE SA ESP","SUCRE","SAN PEDRO","CRA 9 No 11 - 16","2894188","eduardodvf@gmail.com","Registro por la ESP","MELISSA DE JESUS GONZALEZ LUNA","SOCIEDADES (EMPRESA DE SERVICIOS PUBLICOS)","DESDE 2501 HASTA 5000 USUARIOS"
"SUCRE","SINCELEJO","ACUEDUCTO","OPERATIVA","ASOCIACIÓN DE USUARIIOS DE SERVICIIOS PUBLICOS DEL CORREGIMIENTO DE LAS PALMAS","SUCRE","SINCELEJO","CORREGIMIENTO LAS PALMAS","3145453","jahernan@superservicios.gov.co","Registro por la ESP","OLIMPO RAFAEL CANCHILA PATERNINA","ORGANIZACION AUTORIZADA","HASTA 2500 SUSCRIPTORES"
"SUCRE","SAN ONOFRE","ACUEDUCTO","CANCELACION","BALSILLAS S.A.","ANTIOQUIA","MEDELLIN","diagonal 50 # 49-84","2515298","balsillas@gmail.com","Registro por la ESP","CARLOS ERNESTO FERNANDEZ CORREA",,
"SUCRE","CAIMITO","ACUEDUCTO","OPERATIVA","ASOCIACION DE PESCADORES DE LAS PAVITAS","SUCRE","CAIMITO","VEREDA LAS PAVITAS","3135105","alcaldia@caimito-sucre.gov.co","Registro por la ESP","FRANCISCO FABIO REGINO MASEA","ORGANIZACION AUTORIZADA","HASTA 2500 SUSCRIPTORES"
"SUCRE","EL ROBLE","ACUEDUCTO","OPERATIVA","JUNTA ADMINISTRADORA DEL ACUEDUCTO DEL CORREGIMIENTO DE CORNETA","SUCRE","EL ROBLE","VEREDA CORNETA","0000000","acueductodecorneta@gmail.com","Registro por la ESP","EDUIN DE JESUS GAMARRA ARRIETA","ORGANIZACION AUTORIZADA","MENOR O IGUAL A 2500 USUARIOS"
"SUCRE","SUCRE","ALCANTARILLADO","OPERATIVA","ACUEDUCTO ALCANTARILLADO Y ASEO DE SUCRE S.A. E.S.P.","CAUCA","SUCRE","carrera 2 No 1-21","8701801","aaasucre@gmail.com","Registro por la ESP","OSCAR MARINO MAYORGA HOYOS","SOCIEDADES (EMPRESA DE SERVICIOS PUBLICOS)","HASTA 2500 SUSCRIPTORES"
"SUCRE","GUARANDA","ACUEDUCTO","OPERATIVA","EMPRESA DE ACUEDUCTO ALCANTARILLADO Y ASEO DEL MUNICIPIO DE GUARANDA SA ESP","SUCRE","GUARANDA","cr 5 n 11-22 centro","0000000","aguasdeguaranda@hotmail.com","Registro por la ESP","ISORA CARMELA RODELO MOLINA","SOCIEDADES (EMPRESA DE SERVICIOS PUBLICOS)","HASTA 2500 SUSCRIPTORES"
"SUCRE","GUARANDA","ALCANTARILLADO","OPERATIVA","EMPRESA DE ACUEDUCTO ALCANTARILLADO Y ASEO DEL MUNICIPIO DE GUARANDA SA ESP","SUCRE","GUARANDA","cr 5 n 11-22 centro","0000000","aguasdeguaranda@hotmail.com","Registro por la ESP","ISORA CARMELA RODELO MOLINA","SOCIEDADES (EMPRESA DE SERVICIOS PUBLICOS)","HASTA 2500 SUSCRIPTORES"
"SUCRE","GUARANDA","ASEO","OPERATIVA","EMPRESA DE ACUEDUCTO ALCANTARILLADO Y ASEO DEL MUNICIPIO DE GUARANDA SA ESP","SUCRE","GUARANDA","cr 5 n 11-22 centro","0000000","aguasdeguaranda@hotmail.com","Registro por la ESP","ISORA CARMELA RODELO MOLINA","SOCIEDADES (EMPRESA DE SERVICIOS PUBLICOS)","HASTA 2500 SUSCRIPTORES"
"SUCRE","SUCRE","ACUEDUCTO","OPERATIVA","EMPRESA DE SERVICIOS PUBLICOS DE ACUEDUCTO ALCANTARILLADO Y ASEO DESUCRE SUCRE SA ESP","SUCRE","SUCRE","CALLE 10 4 - 24","0000000","aaadesucresucre@hotmail.com","Registro por la ESP","EDGAR MIGUEL NOVOA ESTTOR","SOCIEDADES (EMPRESA DE SERVICIOS PUBLICOS)","MENOR O IGUAL A 2500 USUARIOS"
"SUCRE","SUCRE","ASEO","OPERATIVA","EMPRESA DE SERVICIOS PUBLICOS DE ACUEDUCTO ALCANTARILLADO Y ASEO DESUCRE SUCRE SA ESP","SUCRE","SUCRE","CALLE 10 4 - 24","0000000","aaadesucresucre@hotmail.com","Registro por la ESP","EDGAR MIGUEL NOVOA ESTTOR","SOCIEDADES (EMPRESA DE SERVICIOS PUBLICOS)","MENOR O IGUAL A 2500 USUARIOS"
"SUCRE","BUENAVISTA","ACUEDUCTO","OPERATIVA","EMPRESA MUNICIPAL DE ACUEDUCTO ALCANTARILLADO Y ASEO DEL MUNICIPIO DE BUENAVISTA SUCRE SA ESP","SUCRE","BUENAVISTA","CALLE 9 8-09 BARRIO SUCRE","2901103","aguasdebuenavista@gmail.com","Registro por la ESP","GUSTAVO LUIS NAGUIB GIL","SOCIEDADES (EMPRESA DE SERVICIOS PUBLICOS)","MENOR O IGUAL A 2500 USUARIOS"
"SUCRE","BUENAVISTA","ALCANTARILLADO","OPERATIVA","EMPRESA MUNICIPAL DE ACUEDUCTO ALCANTARILLADO Y ASEO DEL MUNICIPIO DE BUENAVISTA SUCRE SA ESP","SUCRE","BUENAVISTA","CALLE 9 8-09 BARRIO SUCRE","2901103","aguasdebuenavista@gmail.com","Registro por la ESP","GUSTAVO LUIS NAGUIB GIL","SOCIEDADES (EMPRESA DE SERVICIOS PUBLICOS)","MENOR O IGUAL A 2500 USUARIOS"
"SUCRE","BUENAVISTA","ASEO","OPERATIVA","EMPRESA MUNICIPAL DE ACUEDUCTO ALCANTARILLADO Y ASEO DEL MUNICIPIO DE BUENAVISTA SUCRE SA ESP","SUCRE","BUENAVISTA","CALLE 9 8-09 BARRIO SUCRE","2901103","aguasdebuenavista@gmail.com","Registro por la ESP","GUSTAVO LUIS NAGUIB GIL","SOCIEDADES (EMPRESA DE SERVICIOS PUBLICOS)","MENOR O IGUAL A 2500 USUARIOS"
"SUCRE","CHALAN","ASEO","OPERATIVA","EMPRESA DE ASEO INTEGRAL S.A E.S.P","SUCRE","MORROA","CRA 4 5-38","0000000","gvg03040506@gmail.com","Registro por la ESP","YEIDIS MEZA PATERNINA","SOCIEDADES (EMPRESA DE SERVICIOS PUBLICOS)","HASTA 2500 SUSCRIPTORES"
"SUCRE","COLOSO","ASEO","OPERATIVA","EMPRESA DE ASEO INTEGRAL S.A E.S.P","SUCRE","MORROA","CRA 4 5-38","0000000","gvg03040506@gmail.com","Registro por la ESP","YEIDIS MEZA PATERNINA","SOCIEDADES (EMPRESA DE SERVICIOS PUBLICOS)","HASTA 2500 SUSCRIPTORES"
"SUCRE","LOS PALMITOS","ASEO","OPERATIVA","EMPRESA DE ASEO INTEGRAL S.A E.S.P","SUCRE","MORROA","CRA 4 5-38","0000000","gvg03040506@gmail.com","Registro por la ESP","YEIDIS MEZA PATERNINA","SOCIEDADES (EMPRESA DE SERVICIOS PUBLICOS)","HASTA 2500 SUSCRIPTORES"
"SUCRE","MORROA","ASEO","OPERATIVA","EMPRESA DE ASEO INTEGRAL S.A E.S.P","SUCRE","MORROA","CRA 4 5-38","0000000","gvg03040506@gmail.com","Registro por la ESP","YEIDIS MEZA PATERNINA","SOCIEDADES (EMPRESA DE SERVICIOS PUBLICOS)","HASTA 2500 SUSCRIPTORES"
"SUCRE","OVEJAS","ASEO","OPERATIVA","EMPRESA DE ASEO INTEGRAL S.A E.S.P","SUCRE","MORROA","CRA 4 5-38","0000000","gvg03040506@gmail.com","Registro por la ESP","YEIDIS MEZA PATERNINA","SOCIEDADES (EMPRESA DE SERVICIOS PUBLICOS)","HASTA 2500 SUSCRIPTORES"
"SUCRE","PALMITO","ASEO","OPERATIVA","EMPRESA DE ASEO INTEGRAL S.A E.S.P","SUCRE","MORROA","CRA 4 5-38","0000000","gvg03040506@gmail.com","Registro por la ESP","YEIDIS MEZA PATERNINA","SOCIEDADES (EMPRESA DE SERVICIOS PUBLICOS)","HASTA 2500 SUSCRIPTORES"
"SUCRE","SAN BENITO ABAD","ASEO","OPERATIVA","EMPRESA DE ASEO INTEGRAL S.A E.S.P","SUCRE","MORROA","CRA 4 5-38","0000000","gvg03040506@gmail.com","Registro por la ESP","YEIDIS MEZA PATERNINA","SOCIEDADES (EMPRESA DE SERVICIOS PUBLICOS)","HASTA 2500 SUSCRIPTORES"
"SUCRE","TOLU VIEJO","ASEO","OPERATIVA","EMPRESA DE ASEO INTEGRAL S.A E.S.P","SUCRE","MORROA","CRA 4 5-38","0000000","gvg03040506@gmail.com","Registro por la ESP","YEIDIS MEZA PATERNINA","SOCIEDADES (EMPRESA DE SERVICIOS PUBLICOS)","HASTA 2500 SUSCRIPTORES"
"SUCRE","CAIMITO","ACUEDUCTO","OPERATIVA","EMPRESA MUNICIPAL DE ACUEDUCTO ALCANTARILLADO Y ASEO DEL MUNICIPIO DE CAIMITO SUCRE SA ESP","SUCRE","CAIMITO","Cra 12 N 12-38","0000000","aguasdecaimito@hotmail.com","Registro por la ESP","OSCAR EDUARDO MADERA PEREZ","SOCIEDADES (EMPRESA DE SERVICIOS PUBLICOS)","MENOR O IGUAL A 2500 USUARIOS"
"SUCRE","CAIMITO","ALCANTARILLADO","OPERATIVA","EMPRESA MUNICIPAL DE ACUEDUCTO ALCANTARILLADO Y ASEO DEL MUNICIPIO DE CAIMITO SUCRE SA ESP","SUCRE","CAIMITO","Cra 12 N 12-38","0000000","aguasdecaimito@hotmail.com","Registro por la ESP","OSCAR EDUARDO MADERA PEREZ","SOCIEDADES (EMPRESA DE SERVICIOS PUBLICOS)","MENOR O IGUAL A 2500 USUARIOS"
"SUCRE","CAIMITO","ASEO","OPERATIVA","EMPRESA MUNICIPAL DE ACUEDUCTO ALCANTARILLADO Y ASEO DEL MUNICIPIO DE CAIMITO SUCRE SA ESP","SUCRE","CAIMITO","Cra 12 N 12-38","0000000","aguasdecaimito@hotmail.com","Registro por la ESP","OSCAR EDUARDO MADERA PEREZ","SOCIEDADES (EMPRESA DE SERVICIOS PUBLICOS)","MENOR O IGUAL A 2500 USUARIOS"
"SUCRE","SAN MARCOS","ALCANTARILLADO","OPERATIVA","SOCIEDAD DE ACUEDUCTO ALCANTARILLADO Y ASEO DEL NORTE  SAS  E.S.P","SUCRE","SINCELEJO","Cra. 36A #31-68 Edif Venecia livingmall of. 404","2765045","gerencia@tripleadelnorte.com","Registro por la ESP","OSCAR IVAN SILGADO VERBEL","SOCIEDADES (EMPRESA DE SERVICIOS PUBLICOS)","DESDE 2501 HASTA 5000 USUARIOS"
"SUCRE","SAN ONOFRE","ALCANTARILLADO","OPERATIVA","SOCIEDAD DE ACUEDUCTO ALCANTARILLADO Y ASEO DEL NORTE  SAS  E.S.P","SUCRE","SINCELEJO","Cra. 36A #31-68 Edif Venecia livingmall of. 404","2765045","gerencia@tripleadelnorte.com","Registro por la ESP","OSCAR IVAN SILGADO VERBEL","SOCIEDADES (EMPRESA DE SERVICIOS PUBLICOS)","DESDE 2501 HASTA 5000 USUARIOS"
"SUCRE","SAN ONOFRE","ASEO","OPERATIVA","SOCIEDAD DE ACUEDUCTO ALCANTARILLADO Y ASEO DEL NORTE  SAS  E.S.P","SUCRE","SINCELEJO","Cra. 36A #31-68 Edif Venecia livingmall of. 404","2765045","gerencia@tripleadelnorte.com","Registro por la ESP","OSCAR IVAN SILGADO VERBEL","SOCIEDADES (EMPRESA DE SERVICIOS PUBLICOS)","DESDE 2501 HASTA 5000 USUARIOS"
"SUCRE","SAN MARCOS","ACUEDUCTO","OPERATIVA","SOCIEDAD DE ACUEDUCTO ALCANTARILLADO Y ASEO DEL NORTE  SAS  E.S.P","SUCRE","SINCELEJO","Cra. 36A #31-68 Edif Venecia livingmall of. 404","2765045","gerencia@tripleadelnorte.com","Registro por la ESP","OSCAR IVAN SILGADO VERBEL","SOCIEDADES (EMPRESA DE SERVICIOS PUBLICOS)","MAYOR O IGUAL A 5001 USUARIOS"
"SUCRE","SAN ONOFRE","ACUEDUCTO","OPERATIVA","SOCIEDAD DE ACUEDUCTO ALCANTARILLADO Y ASEO DEL NORTE  SAS  E.S.P","SUCRE","SINCELEJO","Cra. 36A #31-68 Edif Venecia livingmall of. 404","2765045","gerencia@tripleadelnorte.com","Registro por la ESP","OSCAR IVAN SILGADO VERBEL","SOCIEDADES (EMPRESA DE SERVICIOS PUBLICOS)","MAYOR O IGUAL A 5001 USUARIOS"
"SUCRE","SUCRE","ACUEDUCTO","OPERATIVA","ASOCIACION DE USUARIOS DEL SERVICIOS DE ACUEDUCTO Y SANEAMIENTO BÁSICO DEL CORREGIMIENTO DE NARANJAL SUCRE","SUCRE","SUCRE","calle 10 2 32","2000000","acuanaran2013@hotmail.com","Registro por la ESP","EDILSON ANTONIO LOPEZ JEREZ","ORGANIZACION AUTORIZADA","MENOR O IGUAL A 2500 USUARIOS"
"SUCRE","SUCRE","ACUEDUCTO","OPERATIVA","ASOCIACIÓN DE USUARIOS DEL MICROACUEDUCTO DEL CORREGIMIENTO DE SAN LUIS SUCRE","SUCRE","SUCRE","CALLE 2 5 155","0000000","aguasdesanluis@outlook.com","Registro por la ESP","ENEMECIO JOSE PENA BARRIOS","ORGANIZACION AUTORIZADA","MENOR O IGUAL A 2500 USUARIOS"
"SUCRE","SAN BENITO ABAD","ACUEDUCTO","OPERATIVA","EMPRESA MUNICIPAL DE ACUEDUCTO ALCANTARILLADO Y ASEO DEL MUNICIPIO DE SAN BENITO ABAD SA ESP","SUCRE","SAN BENITO ABAD","CRA 15 # 10-50","2930004","eduardodvf@gmail.com","Registro por la ESP","JOSE ALFREDO GUERRERO MONTES DE OCCA","SOCIEDADES (EMPRESA DE SERVICIOS PUBLICOS)","MENOR O IGUAL A 2500 USUARIOS"
"SUCRE","SAN BENITO ABAD","ASEO","OPERATIVA","EMPRESA MUNICIPAL DE ACUEDUCTO ALCANTARILLADO Y ASEO DEL MUNICIPIO DE SAN BENITO ABAD SA ESP","SUCRE","SAN BENITO ABAD","CRA 15 # 10-50","2930004","eduardodvf@gmail.com","Registro por la ESP","JOSE ALFREDO GUERRERO MONTES DE OCCA","SOCIEDADES (EMPRESA DE SERVICIOS PUBLICOS)","MENOR O IGUAL A 2500 USUARIOS"
"SUCRE","SUCRE","ACUEDUCTO","OPERATIVA","ASOCIACION DE USUARIOS DEL SERVICIO DE MICROACUEDUCTO DEL CORREGIMIENTO DE ARBOLEDA SUCRE","SUCRE","SUCRE","Calle 1 # 14 100","0000000","acuaarbol2014@outlook.com","Registro por la ESP","RODOLFO EVARISTO CASARES JEREZ","ORGANIZACION AUTORIZADA","MENOR O IGUAL A 2500 USUARIOS"
"SUCRE","SUCRE","ACUEDUCTO","OPERATIVA","ASOCIACIÓN DE USUARIOS DEL SERVICIO DE MICROACUEDUCTO Y SANEAMIENTO BÁSICO DEL CORREGIMIENTO DE SAN MATEO SUCRE","SUCRE","SUCRE","Calle 1 # 2 122","0000000","asoaguasanmateo@hotmail.com","Registro por la ESP","DEIMER ANTONIO CURE ACUNA","ORGANIZACION AUTORIZADA","MENOR O IGUAL A 2500 USUARIOS"
"SUCRE","COVENAS","ACUEDUCTO","OPERATIVA","EMPRESA DE SERVICIOS PUBLICOS DE ACUEDUCTO Y ALCANTARILLADO SERCOV SA ESP","SUCRE","COVENAS","COVEÑAS GUAYABAL","0000000","SERCOVSA@GMAIL.COM","Registro por la ESP","ALDEMAR SALAZAR ACOSTA","SOCIEDADES (EMPRESA DE SERVICIOS PUBLICOS)","DESDE 2501 HASTA 5000 USUARIOS"
"SUCRE","COVENAS","ALCANTARILLADO","OPERATIVA","EMPRESA DE SERVICIOS PUBLICOS DE ACUEDUCTO Y ALCANTARILLADO SERCOV SA ESP","SUCRE","COVENAS","COVEÑAS GUAYABAL","0000000","SERCOVSA@GMAIL.COM","Registro por la ESP","ALDEMAR SALAZAR ACOSTA","SOCIEDADES (EMPRESA DE SERVICIOS PUBLICOS)","MENOR O IGUAL A 2500 USUARIOS"
"SUCRE","SINCELEJO","ACUEDUCTO","OPERATIVA","ASOCIACION DE USUARIOS DE ACUEDUCTO LOS CORREGIMIENTOS DE CASTAÑEDA Y MIRABEL","SUCRE","SINCELEJO","calle 2 Nº 332","3113631","earrieta340@gmail.com","Registro por la ESP","MIGUEL ENRIQUE ARRIETA CONTRERAS","ORGANIZACION AUTORIZADA","MENOR O IGUAL A 2500 USUARIOS"
"SUCRE","EL ROBLE","ACUEDUCTO","OPERATIVA","ASOCIACION AGUA AZUL DE EL SITIO","SUCRE","EL ROBLE","EL SITIO - EL ROBLE","4374308","eduardodvf@gmail.com","Registro por la ESP","DAIRO DANIEL LEON QUIROZ","ORGANIZACION AUTORIZADA","MENOR O IGUAL A 2500 USUARIOS"
"SUCRE","SUCRE","ACUEDUCTO","OPERATIVA","ASOCIACIÓN DE USUARIOS DE ACUEDUCTO Y SANEAMIENTO BÁSICO DEL CORREGIMIENTO DE OREJERO SUCRE","SUCRE","SUCRE","CALLE 2 CRA 3 28","0000000","AGUASDELGUAMO@HOTMAIL.COM","Registro por la ESP","LETIS ANAY MENDEZ VARGAS","ORGANIZACION AUTORIZADA","MENOR O IGUAL A 2500 USUARIOS"
"SUCRE","SUCRE","ACUEDUCTO","OPERATIVA","ASOCIACIÓN DE USUARIOS DEL SERVICIO DE MICROACUEDUCTO DEL CORREGIMIENTO DE CAMPO ALEGRE","SUCRE","SUCRE","CL 1 # 2 - 80","0000000","asoaguascampo2014@hotmail.com","Registro por la ESP","NICOLAS ALBERTO GUERRERO POLANCO","ORGANIZACION AUTORIZADA","MENOR O IGUAL A 2500 USUARIOS"
"SUCRE","SAN ONOFRE","ACUEDUCTO","CANCELACION","PROACTIVA SANTA MARTA S A  ESP","MAGDALENA","SANTA MARTA","CALLE 14 No. 3-01","4209676","dora.barriga@veolia.com","Registro por la ESP","FERNANDO MONCALEANO ARCHILA",,
"SUCRE","SAN ONOFRE","ALCANTARILLADO","CANCELACION","PROACTIVA SANTA MARTA S A  ESP","MAGDALENA","SANTA MARTA","CALLE 14 No. 3-01","4209676","dora.barriga@veolia.com","Registro por la ESP","FERNANDO MONCALEANO ARCHILA",,
"SUCRE","SAMPUES","ACUEDUCTO","OPERATIVA","ASOCIACIÓN DE USUARIOS DEL ACUEDUCTO DE SABANA LARGA Y SANTA INES DE PALITO ESP","SUCRE","SAMPUES","CALLE 3 No 1","7459614","acueducto.asossidep@gmail.com","Registro por la ESP","ALBERTO JULIO VERGARA CONTRERAS","ORGANIZACION AUTORIZADA","MENOR O IGUAL A 2500 USUARIOS"
"SUCRE","SAMPUES","ACUEDUCTO","OPERATIVA","ASOCIACIÓN DE SUSCRIPTORES DEL ACUEDUCTO REGIONAL ""MOCHÁ""","SUCRE","SAMPUES","CORREGIMIENTO DE BOSSA NAVARRO","7459614","acueductoregional.mocha@gmail.com","Registro por la ESP","OMEIDE MANUEL PATERNINA PINEDA","ORGANIZACION AUTORIZADA","MENOR O IGUAL A 2500 USUARIOS"
"SUCRE","GUARANDA","ACUEDUCTO","OPERATIVA","ASOCIACION DE SUSCRIPTORES DEL ACUEDUCTO REGIONAL DE GAVALDA Y JARDIN","SUCRE","GUARANDA","CALLE 1 # 2-10","7459614","acueducto.asoaguajar@gmail.com","Registro por la ESP","FERNANDO ANTONIO HERAZO GOEZ","ORGANIZACION AUTORIZADA","MENOR O IGUAL A 2500 USUARIOS"
"SUCRE","SINCELEJO","ASEO","OPERATIVA","COOPERATIVA DE RECICLADORES DE LA COSTA NORTE","SUCRE","SINCELEJO","CL 38 56 20 CARR TRONCAL DE OCCIDENTE","2746695","pedro860@gmail.com","Registro por la ESP","JABIB ELIAS MARTINEZ HERNANDEZ","ORGANIZACION AUTORIZADA","MAYOR O IGUAL A 5001 USUARIOS"
"SUCRE","COROZAL","ASEO","OPERATIVA","ASOCIACIÓN DE RECICLADORES DE COROZAL","SUCRE","COROZAL","Calle 34  No. 36 A  - 62  BARRIO LOS MANGUITOS","0000000","mmsantos89@gmail.com","Registro por la ESP","MARIA MONICA SANTOS  FERIA","ORGANIZACION AUTORIZADA","MAYOR O IGUAL A 5001 USUARIOS"
"SUCRE","SUCRE","ACUEDUCTO","OPERATIVA","ASOCIACION DE USUARIOS DEL ACUEDUCTO DE NARIÑO SUCRE","SUCRE","SUCRE","CRA 2 # 13 09","0000000","acuenasdesucresucre@hotmail.com","Registro por la ESP","NAFFER BENAVIDES ROJAS","ORGANIZACION AUTORIZADA","MENOR O IGUAL A 2500 USUARIOS"
"SUCRE","SINCELEJO","ASEO","OPERATIVA","ASOCIACION DE RECICLADORES DE OFICIO DE SINCELEJO","SUCRE","SINCELEJO","Carrera 6B # 31 -33 Barrio Argelia","2761678","areciclarsincelejoesp@gmail.com","Registro por la ESP","EDIFERLINA DEL ROSARIO CARMONA MANOSALVA","ORGANIZACION AUTORIZADA","MAYOR O IGUAL A 5001 USUARIOS"
"SUCRE","COROZAL","ACUEDUCTO","OPERATIVA","JUNTA ADMINISTRADORA DEL AGUA ACUEDUCTO RURAL DE LAS LLANADA","SUCRE","COROZAL","CR 6 1C 19 CORREGIMIENTO DE LAS LLANADAS","0000000","aguasdelasllanadasesp@gmail.com","Registro por la ESP","AREBY MARGOTH ROMERO MADRID","ORGANIZACION AUTORIZADA","MENOR O IGUAL A 2500 USUARIOS"
"SUCRE","GALERAS","ACUEDUCTO","OPERATIVA","JUNTA DE ACCION COMUNAL DEL CORREGIMIENTO PUEBLO NUEVO PRIMERO","SUCRE","GALERAS","CRA 2 # 1-35","8219820","jacjunnin@gmail.com","Registro por la ESP","ELIECER ELIGIO RAMIREZ LUNA","ORGANIZACION AUTORIZADA","MENOR O IGUAL A 2500 USUARIOS"
"SUCRE","SUCRE","ACUEDUCTO","OPERATIVA","ASOCIACION DE USUARIOS DEL AGUA DEL CORREGIMIENTO DE SOLERA SUCRE","SUCRE","SUCRE","calle 1 1 1","0000000","asoaguasoldesucresucre@gmail.com","Registro por la ESP","LODYS PATRICIA SALCEDO HERRERA","ORGANIZACION AUTORIZADA","MENOR O IGUAL A 2500 USUARIOS"
"SUCRE","SAN BENITO ABAD","ACUEDUCTO","OPERATIVA","ASOCIACIÓN COMUNITARIA AGUAS DE SANTIAGO APÓSTOL SUCRE","SUCRE","SAN BENITO ABAD","CR 7 6B 43","8874641","aguasdesantiagoapostol@gmail.com","Registro por la ESP","MIGUEL ENRIQUE ACOSTA MEJIA","ORGANIZACION AUTORIZADA","MENOR O IGUAL A 2500 USUARIOS"
"SUCRE","GALERAS","ACUEDUCTO","OPERATIVA","JUNTA DE ACCION COMUNAL DEL CORREGIMIENTO SAN ANDRES PALOMO","SUCRE","GALERAS","CALLE 2  1 40P","3137670","salcedosilvio344@gmail.com","Registro por la ESP","SILVIO REMBERTO SALCEDO AGUAS","ORGANIZACION AUTORIZADA","MENOR O IGUAL A 2500 USUARIOS"
"SUCRE","SAMPUES","ACUEDUCTO","OPERATIVA","asociacion de usuarios del acueducto de mateo perez, mata de caña y calle fria esp","SUCRE","SAMPUES","calle 2 cra 2 - 256 mateo perez","2838994","asomacaesp@outlook.es","Registro por la ESP","JOSE ALFREDO MERCADO BUELVAS","ORGANIZACION AUTORIZADA","MENOR O IGUAL A 2500 USUARIOS"
"SUCRE","SUCRE","ACUEDUCTO","OPERATIVA","ASOCIACION DE USUARIOS DE ACUEDUCTO Y SANEAMIENTO BASICO DEL CORREGIMIENTO DE HATONUEVO ARRIBA AGUAS EL PROGRESO","SUCRE","SUCRE","CORREGIMIENTO DE HATONUEVO","0000000","asousaprogresohatonuevo@gmail.com","Registro por la ESP","ROBINSON MANUEL ARCIA TOVAR","ORGANIZACION AUTORIZADA","MENOR O IGUAL A 2500 USUARIOS"
"SUCRE","OVEJAS","ACUEDUCTO","OPERATIVA","Asociación de Usuarios del Servicio de Agua Potable Alcantarillado y/o Aseo de Canutal Municipio de Ovejas Departamento de Sucre","SUCRE","OVEJAS","Calle 5 N°. 5-20 Canutal","2869418","aaacanutal@gmail.com","Registro por la ESP","CARMELO JOSE GONZALEZ MEZA","ORGANIZACION AUTORIZADA","MENOR O IGUAL A 2500 USUARIOS"
"SUCRE","OVEJAS","ALCANTARILLADO","OPERATIVA","Asociación de Usuarios del Servicio de Agua Potable Alcantarillado y/o Aseo de Canutal Municipio de Ovejas Departamento de Sucre","SUCRE","OVEJAS","Calle 5 N°. 5-20 Canutal","2869418","aaacanutal@gmail.com","Registro por la ESP","CARMELO JOSE GONZALEZ MEZA","ORGANIZACION AUTORIZADA","MENOR O IGUAL A 2500 USUARIOS"
"SUCRE","SUCRE","ACUEDUCTO","OPERATIVA","EMPRESA DE SERVICIOS PUBLICOS DOMICILIARIOS Y ECOLOGICOS DE SUCRE S.A.S E.S.P","SUCRE","SUCRE","CRA 4 No 6 - 41","0000000","rimaaguas@gmail.com","Registro por la ESP","RICARDO DE JESUS MAZA AGUAS","SOCIEDADES (EMPRESA DE SERVICIOS PUBLICOS)","MENOR O IGUAL A 2500 USUARIOS"
"SUCRE","SUCRE","ASEO","OPERATIVA","EMPRESA DE SERVICIOS PUBLICOS DOMICILIARIOS Y ECOLOGICOS DE SUCRE S.A.S E.S.P","SUCRE","SUCRE","CRA 4 No 6 - 41","0000000","rimaaguas@gmail.com","Registro por la ESP","RICARDO DE JESUS MAZA AGUAS","SOCIEDADES (EMPRESA DE SERVICIOS PUBLICOS)","MENOR O IGUAL A 2500 USUARIOS"
