"departamento_prestacion","municipio_prestacion","servicio","estado","nombre","departamento_domicilio","municipio_domicilio","direccion","telefono","email","tipo_inscripcion","representante_legal","tipo_prestador","clasificacion"
"ANTIOQUIA","MONTEBELLO","ACUEDUCTO","OPERATIVA","OFICINA DE SERVICIOS PÚBLICOS DE  MONTEBELLO","ANTIOQUIA","MONTEBELLO","Calle 20 No 19 - 51 P1","8480564","serviciospublicos@montebello-antioquia.gov.co","Registro por la ESP","VIRGILIO ANTONIO GARZON GARZON","MUNICIPIO (PRESTACIÓN DIRECTA)","MENOR O IGUAL A 2500 USUARIOS"
"ANTIOQUIA","PUERTO NARE","ACUEDUCTO","OPERATIVA","EMPRESAS PUBLICAS MUNICIPALES DE PUERTO NARE E.S.P.","ANTIOQUIA","PUERTO NARE","Carrera 2 No 49 - 35","8347184","GERENCIA@EPPN.GOV.CO","Registro por la ESP","ALEXCIS DUBER CERVERA CRUZ","EMPRESA INDUSTRIAL Y COMERCIAL DEL ESTADO","DESDE 2501 HASTA 5000 USUARIOS"
"ANTIOQUIA","RETIRO","ACUEDUCTO","OPERATIVA","EMPRESA DE ASEO RETIRAR S.A. E.S.P.","ANTIOQUIA","RETIRO","CALLE 19 No. 26-150","5412887","comercial@retirarsaesp.com","Registro por la ESP","CARLOS MAURICIO YEPES BEDOYA","SOCIEDADES (EMPRESA DE SERVICIOS PUBLICOS)","MENOR O IGUAL A 2500 USUARIOS"
"ANTIOQUIA","RIONEGRO","ACUEDUCTO","OPERATIVA","ASOCIACION ACUEDUCTO Y ALCANTARILLADO CUATRO ESQUINAS RIONEGRO, ANTIOQUIA","ANTIOQUIA","RIONEGRO","CARRERA 38A NO 40-54","6146360","acueducto4444@hotmail.com","Registro por la ESP","HUMBERTO LEON SANTA CARDONA","ORGANIZACION AUTORIZADA","MENOR O IGUAL A 2500 USUARIOS"
"ANTIOQUIA","ANDES","ACUEDUCTO","OPERATIVA","ASOCIACIÓN DE USUARIOS DEL ACUEDUCTO MULTIVEREDAL DE JARDIN","ANTIOQUIA","JARDIN","CARRERA 7 No. 9-23","8455838","acueductomultiveredaljardin@hotmail.com","Registro por la ESP","MARISOL MARIN  MARIN","ORGANIZACION AUTORIZADA","MENOR O IGUAL A 2500 USUARIOS"
"ANTIOQUIA","JARDIN","ACUEDUCTO","OPERATIVA","ASOCIACIÓN DE USUARIOS DEL ACUEDUCTO MULTIVEREDAL DE JARDIN","ANTIOQUIA","JARDIN","CARRERA 7 No. 9-23","8455838","acueductomultiveredaljardin@hotmail.com","Registro por la ESP","MARISOL MARIN  MARIN","ORGANIZACION AUTORIZADA","MENOR O IGUAL A 2500 USUARIOS"
"ANTIOQUIA","JERICO","ACUEDUCTO","OPERATIVA","DIRECCION DE SERVICIOS PUBLICOS DOMICILIARIOS DE JERICO-ANTIOQUIA","ANTIOQUIA","JERICO","Carrera 5 No. 7 - 50 piso 1","8523101","alcaldia@jerico-antioquia.gov.co","Registro por la ESP","CARLOS AUGUSTO GIRALDO BERMUDEZ","MUNICIPIO (PRESTACIÓN DIRECTA)","HASTA 2500 SUSCRIPTORES"
"ANTIOQUIA","LA CEJA","ACUEDUCTO","OPERATIVA","ASOCIACION DE USUARIOS DEL ACUEDUCTO Y ALCANTARILLADO VERAMIEL","ANTIOQUIA","LA CEJA","CORREGIMIENTO SAN JOSE VEREDA LA MIEL","5531654","wiland@misena.edu.co","Registro por la ESP","LIBARDO DE JESUS YEPEZ GONZALES","ORGANIZACION AUTORIZADA","MENOR O IGUAL A 2500 USUARIOS"
"ANTIOQUIA","LA CEJA","ACUEDUCTO","OPERATIVA","ASOCIACION DE USUARIOS DEL ACUEDUCTO Y ALCANTARILLADO CESTILLAL LA PALMA","ANTIOQUIA","LA CEJA","CALLE 21 N° 27-21. PISO 2, BARRIO MIRADOR DEL NORTE","5538072","lgcarvajal2009@hotmail.com","Registro por la ESP","MARTA NELLY BEDOYA MOLINA","ORGANIZACION AUTORIZADA","HASTA 2500 SUSCRIPTORES"
"ANTIOQUIA","LA UNION","ACUEDUCTO","OPERATIVA","EMPRESA DE SERVICIOS PUBLICOS LA UNION S.A E.S.P.","ANTIOQUIA","LA UNION","CALLE 10 N° 10-36","5561650","esp@launion-antioquia.gov.co","Registro por la ESP","CARMEN JUDITH VALENCIA  MORENO","SOCIEDADES (EMPRESA DE SERVICIOS PUBLICOS)","DESDE 2501 HASTA 5000 USUARIOS"
"ANTIOQUIA","EL CARMEN DE VIBORAL","ACUEDUCTO","OPERATIVA","EMPRESA DE SERVICIOS PÚBLICOS DE EL CARMEN DE VIBORAL E.S.P.","ANTIOQUIA","EL CARMEN DE VIBORAL","Carrera 30 No 29 - 90 2 Piso","5432127","juanfernandomanrique5@hotmail.com","Registro por la ESP","JOHN JAIRO ARCILA GOMEZ","EMPRESA INDUSTRIAL Y COMERCIAL DEL ESTADO","MAYOR O IGUAL A 5001 USUARIOS"
"ANTIOQUIA","MEDELLIN","ACUEDUCTO","OPERATIVA","CORPORACION DE ACUEDUCTO DE ALTAVISTA","ANTIOQUIA","MEDELLIN","CALLE 18 Nº 105 - 21","4083052","administrativo@acueductoaltavista.com","Registro por la ESP","GUSTAVO DE JESUS CANO MUNOZ","ORGANIZACION AUTORIZADA","DESDE 2501 HASTA 5000 USUARIOS"
"ANTIOQUIA","AMAGA","ACUEDUCTO","OPERATIVA","ASOCIACION DE USUARIOS DEL ACUEDUCTO DE MINAS  AMAGA","ANTIOQUIA","AMAGA","CENTRO POBLADO MINAS PARQUE PRINCIPAL","8478285","acueductodeminas@hotmail.com","Registro por la ESP","GILDARDO DE JESUS ROJAS CARMONA","ORGANIZACION AUTORIZADA","MENOR O IGUAL A 2500 USUARIOS"
"ANTIOQUIA","BARBOSA","ACUEDUCTO","OPERATIVA","EMPRESAS PÚBLICAS DE MEDELLIN E.S.P.","ANTIOQUIA","MEDELLIN","CRA 58 No 42-125 Edificio Inteligente","3808080","DONEY.MARTINEZ@EPM.COM.CO","Registro por la ESP","JORGE ANDRES CARRILLO CARDOSO","EMPRESA INDUSTRIAL Y COMERCIAL DEL ESTADO","MAYOR O IGUAL A 5001 USUARIOS"
"ANTIOQUIA","BELLO","ACUEDUCTO","OPERATIVA","EMPRESAS PÚBLICAS DE MEDELLIN E.S.P.","ANTIOQUIA","MEDELLIN","CRA 58 No 42-125 Edificio Inteligente","3808080","DONEY.MARTINEZ@EPM.COM.CO","Registro por la ESP","JORGE ANDRES CARRILLO CARDOSO","EMPRESA INDUSTRIAL Y COMERCIAL DEL ESTADO","MAYOR O IGUAL A 5001 USUARIOS"
"ANTIOQUIA","CALDAS","ACUEDUCTO","OPERATIVA","EMPRESAS PÚBLICAS DE MEDELLIN E.S.P.","ANTIOQUIA","MEDELLIN","CRA 58 No 42-125 Edificio Inteligente","3808080","DONEY.MARTINEZ@EPM.COM.CO","Registro por la ESP","JORGE ANDRES CARRILLO CARDOSO","EMPRESA INDUSTRIAL Y COMERCIAL DEL ESTADO","MAYOR O IGUAL A 5001 USUARIOS"
"ANTIOQUIA","COPACABANA","ACUEDUCTO","OPERATIVA","EMPRESAS PÚBLICAS DE MEDELLIN E.S.P.","ANTIOQUIA","MEDELLIN","CRA 58 No 42-125 Edificio Inteligente","3808080","DONEY.MARTINEZ@EPM.COM.CO","Registro por la ESP","JORGE ANDRES CARRILLO CARDOSO","EMPRESA INDUSTRIAL Y COMERCIAL DEL ESTADO","MAYOR O IGUAL A 5001 USUARIOS"
"ANTIOQUIA","ENVIGADO","ACUEDUCTO","OPERATIVA","EMPRESAS PÚBLICAS DE MEDELLIN E.S.P.","ANTIOQUIA","MEDELLIN","CRA 58 No 42-125 Edificio Inteligente","3808080","DONEY.MARTINEZ@EPM.COM.CO","Registro por la ESP","JORGE ANDRES CARRILLO CARDOSO","EMPRESA INDUSTRIAL Y COMERCIAL DEL ESTADO","MAYOR O IGUAL A 5001 USUARIOS"
"ANTIOQUIA","GIRARDOTA","ACUEDUCTO","OPERATIVA","EMPRESAS PÚBLICAS DE MEDELLIN E.S.P.","ANTIOQUIA","MEDELLIN","CRA 58 No 42-125 Edificio Inteligente","3808080","DONEY.MARTINEZ@EPM.COM.CO","Registro por la ESP","JORGE ANDRES CARRILLO CARDOSO","EMPRESA INDUSTRIAL Y COMERCIAL DEL ESTADO","MAYOR O IGUAL A 5001 USUARIOS"
"ANTIOQUIA","ITAGUI","ACUEDUCTO","OPERATIVA","EMPRESAS PÚBLICAS DE MEDELLIN E.S.P.","ANTIOQUIA","MEDELLIN","CRA 58 No 42-125 Edificio Inteligente","3808080","DONEY.MARTINEZ@EPM.COM.CO","Registro por la ESP","JORGE ANDRES CARRILLO CARDOSO","EMPRESA INDUSTRIAL Y COMERCIAL DEL ESTADO","MAYOR O IGUAL A 5001 USUARIOS"
"ANTIOQUIA","LA ESTRELLA","ACUEDUCTO","OPERATIVA","EMPRESAS PÚBLICAS DE MEDELLIN E.S.P.","ANTIOQUIA","MEDELLIN","CRA 58 No 42-125 Edificio Inteligente","3808080","DONEY.MARTINEZ@EPM.COM.CO","Registro por la ESP","JORGE ANDRES CARRILLO CARDOSO","EMPRESA INDUSTRIAL Y COMERCIAL DEL ESTADO","MAYOR O IGUAL A 5001 USUARIOS"
"ANTIOQUIA","MEDELLIN","ACUEDUCTO","OPERATIVA","EMPRESAS PÚBLICAS DE MEDELLIN E.S.P.","ANTIOQUIA","MEDELLIN","CRA 58 No 42-125 Edificio Inteligente","3808080","DONEY.MARTINEZ@EPM.COM.CO","Registro por la ESP","JORGE ANDRES CARRILLO CARDOSO","EMPRESA INDUSTRIAL Y COMERCIAL DEL ESTADO","MAYOR O IGUAL A 5001 USUARIOS"
"ANTIOQUIA","RETIRO","ACUEDUCTO","OPERATIVA","EMPRESAS PÚBLICAS DE MEDELLIN E.S.P.","ANTIOQUIA","MEDELLIN","CRA 58 No 42-125 Edificio Inteligente","3808080","DONEY.MARTINEZ@EPM.COM.CO","Registro por la ESP","JORGE ANDRES CARRILLO CARDOSO","EMPRESA INDUSTRIAL Y COMERCIAL DEL ESTADO","MAYOR O IGUAL A 5001 USUARIOS"
"ANTIOQUIA","RIONEGRO","ACUEDUCTO","OPERATIVA","EMPRESAS PÚBLICAS DE MEDELLIN E.S.P.","ANTIOQUIA","MEDELLIN","CRA 58 No 42-125 Edificio Inteligente","3808080","DONEY.MARTINEZ@EPM.COM.CO","Registro por la ESP","JORGE ANDRES CARRILLO CARDOSO","EMPRESA INDUSTRIAL Y COMERCIAL DEL ESTADO","MAYOR O IGUAL A 5001 USUARIOS"
"ANTIOQUIA","SABANETA","ACUEDUCTO","OPERATIVA","EMPRESAS PÚBLICAS DE MEDELLIN E.S.P.","ANTIOQUIA","MEDELLIN","CRA 58 No 42-125 Edificio Inteligente","3808080","DONEY.MARTINEZ@EPM.COM.CO","Registro por la ESP","JORGE ANDRES CARRILLO CARDOSO","EMPRESA INDUSTRIAL Y COMERCIAL DEL ESTADO","MAYOR O IGUAL A 5001 USUARIOS"
"ANTIOQUIA","CAMPAMENTO","ACUEDUCTO","OPERATIVA","MUNICIPIO DE CAMPAMENTO ANTIOQUIA","ANTIOQUIA","CAMPAMENTO","Cra 10 Nro. 9-30 Parque Principal","8614020","serviciospublicos@campamento-antioquia.gov.co","Registro por la ESP","JUAN PABLO TORRES  PIEDRAHITA","MUNICIPIO (PRESTACIÓN DIRECTA)","MENOR O IGUAL A 2500 USUARIOS"
"ANTIOQUIA","URRAO","ACUEDUCTO","OPERATIVA","EMPRESAS PÚBLICAS  DE URRAO E.S.P.","ANTIOQUIA","URRAO","CALLE 29 N 29 57","8503641","contactenos@empresaspublicas.gov.co","Registro por la ESP","ELKIN DARIO MADRID DURAN","EMPRESA INDUSTRIAL Y COMERCIAL DEL ESTADO","MAYOR O IGUAL A 5001 USUARIOS"
"ANTIOQUIA","RIONEGRO","ACUEDUCTO","OPERATIVA","CORPORACIÓN CIVICA ACUEDUCTO SAN ANTONIO DE PEREIRA","ANTIOQUIA","RIONEGRO","CALLE 24 55B-65 SAN ANTONIO DE PEREIRA","5576228","acuesanantonio@gmail.com","Registro por la ESP","JULIAN NICANOR CARDENAS HENAO","ORGANIZACION AUTORIZADA","MENOR O IGUAL A 2500 USUARIOS"
"ANTIOQUIA","ENVIGADO","ACUEDUCTO","OPERATIVA","CORPORACION DE ACUEDUCTO  SAN PEDRO","ANTIOQUIA","MEDELLIN","Corregimiento Santa Elena","5400550","llanoplan@gmail.com","Registro por la ESP","LUZ MARINA CEPEDA TORO","ORGANIZACION AUTORIZADA","MENOR O IGUAL A 2500 USUARIOS"
"ANTIOQUIA","MEDELLIN","ACUEDUCTO","OPERATIVA","CORPORACION DE ACUEDUCTO  SAN PEDRO","ANTIOQUIA","MEDELLIN","Corregimiento Santa Elena","5400550","llanoplan@gmail.com","Registro por la ESP","LUZ MARINA CEPEDA TORO","ORGANIZACION AUTORIZADA","MENOR O IGUAL A 2500 USUARIOS"
"ANTIOQUIA","CALDAS","ACUEDUCTO","OPERATIVA","JUNTA ADMINISTRADORA ACUEDUCTO VEREDA PRIMAVERA","ANTIOQUIA","CALDAS","VEREDA PRIMAVERA","3030440","jadavepri@une.net.co","Registro por la ESP","GLORIA LILIANA LOPEZ CASTRILLON","ORGANIZACION AUTORIZADA","MENOR O IGUAL A 2500 USUARIOS"
"ANTIOQUIA","ANZA","ACUEDUCTO","OPERATIVA","OFICINA DE SERVICIOS PUBLICOS MUNICIPIO DE ANZA","ANTIOQUIA","ANZA","Carrera 10 No. 10-08","8522047","alcaldia@anza-antioquia.gov.co","Registro por la ESP","ANDRES FELIPE HOLGUIN MUNERA","MUNICIPIO (PRESTACIÓN DIRECTA)","MENOR O IGUAL A 2500 USUARIOS"
"ANTIOQUIA","GUARNE","ACUEDUCTO","OPERATIVA","EMPRESA DE SERVICIOS PUBLICOS DOMICILIARIOS DE GUARNE AQUATERRA E.S.P","ANTIOQUIA","GUARNE","Carrera 50  No.42-100 Local 209","5515184","juanfernandomanrique5@hotmail.com","Registro por la ESP","ANDRES FELIPE POSADA ZAPATA","EMPRESA INDUSTRIAL Y COMERCIAL DEL ESTADO","MAYOR O IGUAL A 5001 USUARIOS"
"ANTIOQUIA","DONMATIAS","ACUEDUCTO","OPERATIVA","SECRETARIA DE SERVICIOS PUBLICOS DEL MUNICIPIO DE DONMATIAS","ANTIOQUIA","DONMATIAS","Carrera 30 No. 29-59","8663243","serviciospublicos@donmatias-antioquia.gov.co","Registro por la ESP","JAVIER DARIO LOPEZ RESTREPO","MUNICIPIO (PRESTACIÓN DIRECTA)","MAS DE 2500 SUSCRIPTORES"
"ANTIOQUIA","FRONTINO","ACUEDUCTO","OPERATIVA","EMPRESA DE SERVICIOS PUBLICOS  DE FRONTINO E.S.P. FRONTINO","ANTIOQUIA","FRONTINO","Cra. 32 Nº 31-60","8596476","serviciospublicos@frontino-antioquia.gov.co","Registro por la ESP","SANDRA PATRICIA DAVID TORRES","EMPRESA INDUSTRIAL Y COMERCIAL DEL ESTADO","DESDE 2501 HASTA 5000 USUARIOS"
"ANTIOQUIA","PENOL","ACUEDUCTO","OPERATIVA","AGUAS Y ASEO DE EL PEÑOL E.S.P.","ANTIOQUIA","PENOL","TRANSVERSAL 4 Nº 18-60","8516600","gerencia@aguasyaseo.gov.co","Registro por la ESP","ANGEL NORBEY GARCIA GIRALDO","EMPRESA INDUSTRIAL Y COMERCIAL DEL ESTADO","DESDE 2501 HASTA 5000 USUARIOS"
"ANTIOQUIA","GUARNE","ACUEDUCTO","OPERATIVA","ASOCIACION DE SUSCRIPTORES DEL ACUEDUCTO HONDITA HOJAS ANCHAS DEL MUNICIPIO DE GUARNE","ANTIOQUIA","GUARNE","AUT MEDELLIN BOGOTA MALL MIRADOR DE LOS COMUNEROS KM 25+90","5575609","acueductohha@une.net.co","Registro por la ESP","JOHN JAIRO GIL OSPINA","ORGANIZACION AUTORIZADA","MENOR O IGUAL A 2500 USUARIOS"
"ANTIOQUIA","ALEJANDRIA","ACUEDUCTO","OPERATIVA","UNIDAD DE SERVICIOS PUBLICOS DOMICILIARIOS MUNICIPIO DE ALEJANDRIA","ANTIOQUIA","ALEJANDRIA","Calle 20 No 19 - 36","8660016","servipublicos@alejandria-antioquia.gov.co","Registro por la ESP","SOR MARIA OCAMPO GIRALDO","MUNICIPIO (PRESTACIÓN DIRECTA)","MENOR O IGUAL A 2500 USUARIOS"
"ANTIOQUIA","GUARNE","ACUEDUCTO","OPERATIVA","ASOCIACION DE SUSCRIPTORES DEL ACUEDUCTO MULTIVEREDAL JUAN XXIII CHAPARRAL","ANTIOQUIA","GUARNE","VEREDA CHAPARRAL SECTOR CUATRO ESQUINAS","4187603","acue232003@hotmail.com","Registro por la ESP","ARMANDO DE JESUS ZAPATA  MARIN","ORGANIZACION AUTORIZADA","MENOR O IGUAL A 2500 USUARIOS"
"ANTIOQUIA","BELLO","ACUEDUCTO","OPERATIVA","ASOCIACIÓN DE USUARIOS ""ACUEDUCTO CHARCO VERDE"" BELLO ANTIOQUIA","ANTIOQUIA","BELLO","VEREDA CHARCO VERDE K 10 CORREGIMIENTO SAN FELIX","3881522","luzdabega4267@hotmail.com","Registro por la ESP","EDWIN ALONSO ATEHORTUA MONSALVE","ORGANIZACION AUTORIZADA","MENOR O IGUAL A 2500 USUARIOS"
"ANTIOQUIA","BELMIRA","ACUEDUCTO","OPERATIVA","EMPRESAS PÚBLICAS DE BELMIRA  SA ESP","ANTIOQUIA","BELMIRA","carrera 20 N° 20-24","8674493","EMPUBEL@BELMIRA-ANTIOQUIA.GOV.CO","Registro por la ESP","MIGUEL ANTONIO ARIAS RESTREPO","SOCIEDADES (EMPRESA DE SERVICIOS PUBLICOS)","MENOR O IGUAL A 2500 USUARIOS"
"ANTIOQUIA","EBEJICO","ACUEDUCTO","OPERATIVA","EMPRESA DE SERVICIOS PUBLICOS DE EBEJICO E.S.P.E.","ANTIOQUIA","EBEJICO","CALLE 20 No 18-11","8562859","espeebejico@edatel.net.co","Registro por la ESP","ANIBAL DE JESUS MUÑOZ ARAQUE","EMPRESA INDUSTRIAL Y COMERCIAL DEL ESTADO","HASTA 2500 SUSCRIPTORES"
"ANTIOQUIA","PEQUE","ACUEDUCTO","CANCELACION","UNIDAD DE SERVICIOS PUBLICOS  DOMICILIARIOS DE PEQUE","ANTIOQUIA","PEQUE","PARQUE  PRINCIPAL","8552043","alcaldia@peque-antioquia.gov.co","Registro por la ESP","ADALBERTO  VALLE  DAVID",,
"ANTIOQUIA","GUARNE","ACUEDUCTO","OPERATIVA","ASOCIACION DE USUARIOS DEL ACUEDUCTO VEREDAL SAN JOSE","ANTIOQUIA","GUARNE","Cra 50 No. 42-100 Centro Integrado de Guarne local 213","5512233","gusta707@gmail.com","Registro por la ESP","ANDRES AYALA CARVAJAL","ORGANIZACION AUTORIZADA","MENOR O IGUAL A 2500 USUARIOS"
"ANTIOQUIA","MARINILLA","ACUEDUCTO","OPERATIVA","ASOCIACION DE USUARIOS PROPIETARIOS DEL ACUEDUCTO RURAL ALTO DEL MERCADO SAN JOSE SANTA CRUZ PARTE DEL CHOCHO Y DEL SOCORRO","ANTIOQUIA","MARINILLA","CALLE 30 N° 31 - 40","5482272","altomer_02@hotmail.com","Registro por la ESP","MARTHA BOTERO ROJAS","ORGANIZACION AUTORIZADA","MENOR O IGUAL A 2500 USUARIOS"
"ANTIOQUIA","GUATAPE","ACUEDUCTO","OPERATIVA","EMPRESA DE SERVICIOS  PUBLICOS DE GUATAPE S.A.S E.S.P","ANTIOQUIA","GUATAPE","Carrera 28 # 31-11","8611241","serviciospublicos@guatape-antioquia.gov.co","Registro por la ESP","FEDERICO GIRALDO FLOREZ","SOCIEDADES (EMPRESA DE SERVICIOS PUBLICOS)","DESDE 2501 HASTA 5000 USUARIOS"
"ANTIOQUIA","GUARNE","ACUEDUCTO","OPERATIVA","ASOCIACION DE USUARIOS DEL ACUEDUCTO ENSENILLO","ANTIOQUIA","GUARNE","VEREDA EL SALADO","5677057","yereva15@gmail.com","Registro por la ESP","LUZ MARINA CASTAO YEPES","ORGANIZACION AUTORIZADA","MENOR O IGUAL A 2500 USUARIOS"
"ANTIOQUIA","EBEJICO","ACUEDUCTO","OPERATIVA","JUNTA ADMINISTRADORA DEL SERVICIO DE ACUEDUCTO DE LA VEREDA EL ZARZAL","ANTIOQUIA","EBEJICO","VEREDA EL ZARZAL","8562823","yolima.bedoya@hotmail.com","Registro por la ESP","GIL MILLER BEDOYA HOLGUIN","ORGANIZACION AUTORIZADA","HASTA 2500 SUSCRIPTORES"
"ANTIOQUIA","MARINILLA","ACUEDUCTO","OPERATIVA","ASOCIADOS DEL ACUEDUCTO DE CASCAJO","ANTIOQUIA","MARINILLA","vereda Cascajo","5690186","ADECASCAJO@HOTMAIL.COM","Registro por la ESP","HERNANDO DE JESUS BOTERO DUQUE","ORGANIZACION AUTORIZADA","MENOR O IGUAL A 2500 USUARIOS"
"ANTIOQUIA","MARINILLA","ACUEDUCTO","OPERATIVA","ASOCIACION DE USUARIOS PROPIETARIOS DEL ACUEDUCTO MULTIVEREDAL GAVIRIA SAN JUAN BOSCO","ANTIOQUIA","MARINILLA","CARRERA 30 N° 30 - 52 PASAJE BOLIVAR SEGUNDO PISO, LOCAL 206","5690360","lfwillsz@gmail.com","Registro por la ESP","NELSON DE JESUS VALENCIA MUNOZ","ORGANIZACION AUTORIZADA","MENOR O IGUAL A 2500 USUARIOS"
"ANTIOQUIA","MARINILLA","ACUEDUCTO","OPERATIVA","ASOCIACION DE USUARIOS PROPIETARIOS DEL ACUEDUCTO RURAL LA PRIMAVERA EL SOCORRO LA ASUNCION Y PARTE DEL ALTO DEL MERCADO","ANTIOQUIA","MARINILLA","CALLE 29 No. 30-30 LOCAL 110","5484057","aculaprimavera@gmail.com","Registro por la ESP","JORGE DE JESUS OSORIO CASTAÑO","ORGANIZACION AUTORIZADA","HASTA 2500 SUSCRIPTORES"
"ANTIOQUIA","MARINILLA","ACUEDUCTO","OPERATIVA","CORPORACION DE SERVICIOS PUBLICOS DE BELEN MARINILLA CORBELEN","ANTIOQUIA","MARINILLA","PARCELACION VIEJO PUENTE VEREDA BELEN","5480422","leidycorbelenesp@gmail.com","Registro por la ESP","JAIRO DE LA CRUZ DUQUE JARAMILLO","ORGANIZACION AUTORIZADA","MENOR O IGUAL A 2500 USUARIOS"
"ANTIOQUIA","ABEJORRAL","ACUEDUCTO","OPERATIVA","EMPRESAS PUBLICAS DE ABEJORRAL E.S.P.","ANTIOQUIA","ABEJORRAL","CL 50 52 26","8647272","gerenciaepaesp@edatel.net.co","Registro por la ESP","CARLOS ALBERTO VAHOS CEBALLOS","EMPRESA INDUSTRIAL Y COMERCIAL DEL ESTADO","DESDE 2501 HASTA 5000 USUARIOS"
"ANTIOQUIA","SAN VICENTE FERRER","ACUEDUCTO","OPERATIVA","SECRETARIA DE SERVICIOS PUBLICOS MUNICIPIO DE SAN VICENTE","ANTIOQUIA","SAN VICENTE FERRER","CAM PLAZUELA VICENTE ARBELAEZ","8544212","serviciospublicos@sanvicente-antioquia.gov.co","Registro por la ESP","YIMI ARLEY GIRALDO MARIN","MUNICIPIO (PRESTACIÓN DIRECTA)","DESDE 2501 HASTA 5000 USUARIOS"
"ANTIOQUIA","ABEJORRAL","ACUEDUCTO","OPERATIVA","ASOCIACION DE USUARIOS DEL ACUEDUCTO DE LA LOMA ALTA ABEJORRAL","ANTIOQUIA","ABEJORRAL","PALACIO MUNICIPAL","3104435","asoabejorral@gmail.com","Registro por la ESP","LUIS ALBERTO FLOREZ GIRALDO","ORGANIZACION AUTORIZADA","HASTA 2500 SUSCRIPTORES"
"ANTIOQUIA","SAN LUIS","ACUEDUCTO","OPERATIVA","UNIDAD MUNICIPAL DE SERVICIOS PUBLICOS DOMICILIARIOS DE SAN LUIS, ANTIOQUIA","ANTIOQUIA","SAN LUIS","Carrera 18 No 17-08 oficina 103","8348748","serviciospublicos@sanluis-antioquia.gov.co","Registro por la ESP","JOSE MAXIMINO CASTAÑO CASTAÑO","MUNICIPIO (PRESTACIÓN DIRECTA)","HASTA 2500 SUSCRIPTORES"
"ANTIOQUIA","BELMIRA","ACUEDUCTO","OPERATIVA","ASOCIACION DE USUARIOS DEL ACUEDUCTO EL YUYAL","ANTIOQUIA","BELMIRA","PALACIO MUNICIPAL DE BELMIRA","3454178","alzatic@yohoo.com.mx","Registro por la ESP","JAIRO DE JESUS AGUIRRE","ORGANIZACION AUTORIZADA","HASTA 2500 SUSCRIPTORES"
"ANTIOQUIA","SAN ROQUE","ACUEDUCTO","OPERATIVA","UNIDAD DE  SERVICIOS  PUBLICOS  DOMICILIARIOS","ANTIOQUIA","SAN ROQUE","ALCALDIA MUNICIPAL","8656350","pm.sanque@gmail.com","Registro por la ESP","FOCION DE  JESUS BARRIENTOS OCAMPO","MUNICIPIO (PRESTACIÓN DIRECTA)","HASTA 2500 SUSCRIPTORES"
"ANTIOQUIA","CONCORDIA","ACUEDUCTO","OPERATIVA","JUNTA ADMINISTRADORA DEL ACUEDUCTO PARTIDAS DE MORELIA","ANTIOQUIA","CONCORDIA","PALACIO MUNICIPAL","3122432","vereda@hotmail.com","Registro por la ESP","MARY LUZ RESTREPO  ARREDONDO","ORGANIZACION AUTORIZADA","HASTA 2500 SUSCRIPTORES"
"ANTIOQUIA","CONCORDIA","ACUEDUCTO","OPERATIVA","JUNTA DE ACCION COMUNAL BARRIO SALAZAR","ANTIOQUIA","CONCORDIA","BARRIO SALAZAR","3128596","juanmarica2011@hotmail.com","Registro por la ESP","JUAN CAMILO MUNOZ","ORGANIZACION AUTORIZADA","HASTA 2500 SUSCRIPTORES"
"ANTIOQUIA","GUARNE","ACUEDUCTO","OPERATIVA","ASOCIACION DE USUARIOS DEL ACUEDUCTO VEREDAL LA CLARA","ANTIOQUIA","GUARNE","VEREDA LA CLARA","3576807","verajaime707@gmail.com","Registro por la ESP","ELKIN ARLEY ARCILA RAMIREZ","ORGANIZACION AUTORIZADA","MENOR O IGUAL A 2500 USUARIOS"
"ANTIOQUIA","FREDONIA","ACUEDUCTO","OPERATIVA","ASOCIACION  DE USUARIOS DEL ACUEDUCTO  DE  HOYO FRIO","ANTIOQUIA","FREDONIA","ALCALDIA DE FREDONIA","8401272","clarirueda@hotmail.com","Registro por la ESP","CLARA   INES RUEDA ACEVEDO","ORGANIZACION AUTORIZADA","MENOR O IGUAL A 2500 USUARIOS"
"ANTIOQUIA","COCORNA","ACUEDUCTO","OPERATIVA","CORPORACION ACUEDUCTO MULTIVEREDAL CRUCES COCORNA","ANTIOQUIA","COCORNA","VEREDA LAS CRUCES","5460140","contactenos@cocorna-antioquia.gov.co","Registro por la ESP","JOSE BELISARIO GIRALDO YEPES","ORGANIZACION AUTORIZADA","HASTA 2500 SUSCRIPTORES"
"ANTIOQUIA","REMEDIOS","ACUEDUCTO","OPERATIVA","ASOCIACIÓN DE USUARIOS ACUEDUCTO LA CRUZADA, REMEDIOS","ANTIOQUIA","REMEDIOS","CLL 8 N° 8-10 LA CRUZADA REMEDIOS ANTIOQUIA","8311026","acueductolacruzada@yahoo.es","Registro por la ESP","GUILLERMO DARIO PAREJA AYALA","ORGANIZACION AUTORIZADA","MENOR O IGUAL A 2500 USUARIOS"
"ANTIOQUIA","CONCEPCION","ACUEDUCTO","CANCELACION","MUNICIPIO DE CONCEPCION","ANTIOQUIA","CONCEPCION","Carrera 21 No.19-23","8567083","serviciospublicos@concepcion-antioquia.gov.co","Registro por la ESP","GUSTAVO ALONSO LOPEZ ORREGO",,
"ANTIOQUIA","CONCORDIA","ACUEDUCTO","OPERATIVA","EMPRESAS PÚBLICAS MUNICIPALES DE CONCORDIA E.S.P.","ANTIOQUIA","CONCORDIA","CALLE 19 NO 20 - 22 PALACIO MUNICIPAL","8446693","SECRETARIA@EGCCONSULTORES.CO","Registro por la ESP","DIEGO ALEJANDRO PALACIO SUAREZ","EMPRESA INDUSTRIAL Y COMERCIAL DEL ESTADO","DESDE 2501 HASTA 5000 USUARIOS"
"ANTIOQUIA","APARTADO","ACUEDUCTO","CANCELACION","PRESTADORA DE SERVICIOS PÚBLICOS DOMICILIARIOS S.A. E.S.P.","BOGOTA, D.C.","BOGOTA, D.C.","Calle 82 No. 19A - 34","7470047","juan.garcia@emdepa.com","Registro por la ESP","JUAN FELIPE  HERNANDEZ GAMBIN",,
"ANTIOQUIA","LA CEJA","ACUEDUCTO","OPERATIVA","EMPRESAS PÚBLICAS DE LA CEJA E.S.P.","ANTIOQUIA","LA CEJA","CALLE 20 No.22-05","5537788","gestionsui@egcconsultores.co","Registro por la ESP","JULIO CESAR VELEZ HURTADO","EMPRESA INDUSTRIAL Y COMERCIAL DEL ESTADO","MAYOR O IGUAL A 5001 USUARIOS"
"ANTIOQUIA","RIONEGRO","ACUEDUCTO","OPERATIVA","CORPORACION DE USUARIOS  ACUEDUCTO EL CAPIRO","ANTIOQUIA","RIONEGRO","Vereda Capiro Kilometro 4.8","5390452","gusta707@gmail.com","Registro por la ESP","CARLOS MARIO VIECO ALVAREZ","ORGANIZACION AUTORIZADA","MENOR O IGUAL A 2500 USUARIOS"
"ANTIOQUIA","NECOCLI","ACUEDUCTO","OPERATIVA","SISTEMAS PUBLICOS S.A. E.S.P.","ANTIOQUIA","MEDELLIN","Cr 32 No. 18 C 113 Int 105","4083034","wacevedo3@gmail.com","Registro por la ESP","HECTOR  LEON ARANGO ALVAREZ","SOCIEDADES (EMPRESA DE SERVICIOS PUBLICOS)","DESDE 2501 HASTA 5000 USUARIOS"
"ANTIOQUIA","SAN PEDRO DE URABA","ACUEDUCTO","OPERATIVA","SISTEMAS PUBLICOS S.A. E.S.P.","ANTIOQUIA","MEDELLIN","Cr 32 No. 18 C 113 Int 105","4083034","wacevedo3@gmail.com","Registro por la ESP","HECTOR  LEON ARANGO ALVAREZ","SOCIEDADES (EMPRESA DE SERVICIOS PUBLICOS)","DESDE 2501 HASTA 5000 USUARIOS"
"ANTIOQUIA","AMALFI","ACUEDUCTO","OPERATIVA","ACUEDUCTOS Y ALCANTARILLADOS SOSTENIBLES A.A.S. S.A.  E.S.P.","ANTIOQUIA","MEDELLIN","Calle 33A No  78A  -  56","4161177","estadistica@aassa.com.co","Registro por la ESP","NELSON DE JESUS URIBE ARANGO","SOCIEDADES (EMPRESA DE SERVICIOS PUBLICOS)","DESDE 2501 HASTA 5000 USUARIOS"
"ANTIOQUIA","ARBOLETES","ACUEDUCTO","OPERATIVA","ACUEDUCTOS Y ALCANTARILLADOS SOSTENIBLES A.A.S. S.A.  E.S.P.","ANTIOQUIA","MEDELLIN","Calle 33A No  78A  -  56","4161177","estadistica@aassa.com.co","Registro por la ESP","NELSON DE JESUS URIBE ARANGO","SOCIEDADES (EMPRESA DE SERVICIOS PUBLICOS)","DESDE 2501 HASTA 5000 USUARIOS"
"ANTIOQUIA","ARMENIA","ACUEDUCTO","OPERATIVA","ACUEDUCTOS Y ALCANTARILLADOS SOSTENIBLES A.A.S. S.A.  E.S.P.","ANTIOQUIA","MEDELLIN","Calle 33A No  78A  -  56","4161177","estadistica@aassa.com.co","Registro por la ESP","NELSON DE JESUS URIBE ARANGO","SOCIEDADES (EMPRESA DE SERVICIOS PUBLICOS)","DESDE 2501 HASTA 5000 USUARIOS"
"ANTIOQUIA","PUERTO TRIUNFO","ACUEDUCTO","OPERATIVA","ACUEDUCTOS Y ALCANTARILLADOS SOSTENIBLES A.A.S. S.A.  E.S.P.","ANTIOQUIA","MEDELLIN","Calle 33A No  78A  -  56","4161177","estadistica@aassa.com.co","Registro por la ESP","NELSON DE JESUS URIBE ARANGO","SOCIEDADES (EMPRESA DE SERVICIOS PUBLICOS)","DESDE 2501 HASTA 5000 USUARIOS"
"ANTIOQUIA","SAN JOSE DE LA MONTANA","ACUEDUCTO","OPERATIVA","ACUEDUCTOS Y ALCANTARILLADOS SOSTENIBLES A.A.S. S.A.  E.S.P.","ANTIOQUIA","MEDELLIN","Calle 33A No  78A  -  56","4161177","estadistica@aassa.com.co","Registro por la ESP","NELSON DE JESUS URIBE ARANGO","SOCIEDADES (EMPRESA DE SERVICIOS PUBLICOS)","DESDE 2501 HASTA 5000 USUARIOS"
"ANTIOQUIA","SAN JUAN DE URABA","ACUEDUCTO","OPERATIVA","ACUEDUCTOS Y ALCANTARILLADOS SOSTENIBLES A.A.S. S.A.  E.S.P.","ANTIOQUIA","MEDELLIN","Calle 33A No  78A  -  56","4161177","estadistica@aassa.com.co","Registro por la ESP","NELSON DE JESUS URIBE ARANGO","SOCIEDADES (EMPRESA DE SERVICIOS PUBLICOS)","DESDE 2501 HASTA 5000 USUARIOS"
"ANTIOQUIA","SAN PEDRO DE LOS MILAGROS","ACUEDUCTO","OPERATIVA","ACUEDUCTOS Y ALCANTARILLADOS SOSTENIBLES A.A.S. S.A.  E.S.P.","ANTIOQUIA","MEDELLIN","Calle 33A No  78A  -  56","4161177","estadistica@aassa.com.co","Registro por la ESP","NELSON DE JESUS URIBE ARANGO","SOCIEDADES (EMPRESA DE SERVICIOS PUBLICOS)","DESDE 2501 HASTA 5000 USUARIOS"
"ANTIOQUIA","SANTA ROSA DE OSOS","ACUEDUCTO","OPERATIVA","ACUEDUCTOS Y ALCANTARILLADOS SOSTENIBLES A.A.S. S.A.  E.S.P.","ANTIOQUIA","MEDELLIN","Calle 33A No  78A  -  56","4161177","estadistica@aassa.com.co","Registro por la ESP","NELSON DE JESUS URIBE ARANGO","SOCIEDADES (EMPRESA DE SERVICIOS PUBLICOS)","DESDE 2501 HASTA 5000 USUARIOS"
"ANTIOQUIA","TITIRIBI","ACUEDUCTO","OPERATIVA","ACUEDUCTOS Y ALCANTARILLADOS SOSTENIBLES A.A.S. S.A.  E.S.P.","ANTIOQUIA","MEDELLIN","Calle 33A No  78A  -  56","4161177","estadistica@aassa.com.co","Registro por la ESP","NELSON DE JESUS URIBE ARANGO","SOCIEDADES (EMPRESA DE SERVICIOS PUBLICOS)","DESDE 2501 HASTA 5000 USUARIOS"
"ANTIOQUIA","VENECIA","ACUEDUCTO","OPERATIVA","ACUEDUCTOS Y ALCANTARILLADOS SOSTENIBLES A.A.S. S.A.  E.S.P.","ANTIOQUIA","MEDELLIN","Calle 33A No  78A  -  56","4161177","estadistica@aassa.com.co","Registro por la ESP","NELSON DE JESUS URIBE ARANGO","SOCIEDADES (EMPRESA DE SERVICIOS PUBLICOS)","DESDE 2501 HASTA 5000 USUARIOS"
"ANTIOQUIA","CIUDAD BOLIVAR","ACUEDUCTO","OPERATIVA","INGENIERIA TOTAL SERVICIOS PUBLICOS S.A.S E.S.P.","ANTIOQUIA","MEDELLIN","Carrera 37A # 1 Sur 120","4441401","lmachado@ingetotal.com.co","Registro por la ESP","LUCY MACHADO CORREA","SOCIEDADES (EMPRESA DE SERVICIOS PUBLICOS)","MAYOR O IGUAL A 5001 USUARIOS"
"ANTIOQUIA","JARDIN","ACUEDUCTO","OPERATIVA","INGENIERIA TOTAL SERVICIOS PUBLICOS S.A.S E.S.P.","ANTIOQUIA","MEDELLIN","Carrera 37A # 1 Sur 120","4441401","lmachado@ingetotal.com.co","Registro por la ESP","LUCY MACHADO CORREA","SOCIEDADES (EMPRESA DE SERVICIOS PUBLICOS)","MAYOR O IGUAL A 5001 USUARIOS"
"ANTIOQUIA","RIONEGRO","ACUEDUCTO","CANCELACION","EMPRESAS PUBLICAS DE RIONEGRO S.A.S  E.S.P.","ANTIOQUIA","RIONEGRO","calle 47 No 74 -18","5318787","CARLOS.AGUDELO.MEJIA@EPM.COM.CO","Registro por la ESP","CARLOS AUGUSTO AGUDELO MEJIA",,
"ANTIOQUIA","FREDONIA","ACUEDUCTO","OPERATIVA","ASOCIACION DE USUARIOS DEL ACUEDUCTO MULTIVEREDAL DE FREDONIA RODRIGO ARENAS BETANCUR","ANTIOQUIA","FREDONIA","vereeda el plan","8402930","chabela1411@hotmail.com","Registro por la ESP","ESTEBAN DE JESUS ACEVEDO ACEVEDO","ORGANIZACION AUTORIZADA","MENOR O IGUAL A 2500 USUARIOS"
"ANTIOQUIA","CAROLINA","ACUEDUCTO","OPERATIVA","UNIDAD ADMINISTRATIVA ESPECIAL DE SERVICIOS PUBLICOS DOMICILIARIOS DE CAROLINA DEL PRINCIPE","ANTIOQUIA","CAROLINA","Carrera 50 Nº 49-59","8634033","serviciospublicos@carolinadelprincipe-antioquia.gov.co","Registro por la ESP","CARLOS ANDRES PEREZ VASQUEZ","MUNICIPIO (PRESTACIÓN DIRECTA)","MENOR O IGUAL A 2500 USUARIOS"
"ANTIOQUIA","ENVIGADO","ACUEDUCTO","OPERATIVA","ASOCIACION DEL ACUEDUCTO CRISTAL PEÑAZUL E.S.P.","ANTIOQUIA","ENVIGADO","Calle. 40Sur No.24DE10","3333300","cristalpenazul@gmail.com","Registro por la ESP","DANIELA QUICENO MUNOZ","ORGANIZACION AUTORIZADA","MENOR O IGUAL A 2500 USUARIOS"
"ANTIOQUIA","RIONEGRO","ACUEDUCTO","CANCELACION","CONHYDRA S.A. E.S.P.","ANTIOQUIA","MEDELLIN","CALLE 32 F # 63 A 117","4441676","lchavarria@conhydra.com","Registro por la ESP","JORGE ALBERTO URIBE VELASQUEZ",,
"ANTIOQUIA","RIONEGRO","ACUEDUCTO","OPERATIVA","ZONA FRANCA INDUSTRIAL DE BIENES Y SERVICIOS DE RIONEGRO","ANTIOQUIA","RIONEGRO","VEREDA CHACHAFRUTO","5612233","ppatino@zonafrancarionegro.com","Registro por la ESP","CARLOS ALBERTO MESA POSADA","PRODUCTOR MARGINAL, INDEPENDIENTE O USO PARTICULAR","MENOR O IGUAL A 2500 USUARIOS"
"ANTIOQUIA","PUERTO BERRIO","ACUEDUCTO","OPERATIVA","AGUAS DEL PUERTO S.A E.S.P","ANTIOQUIA","PUERTO BERRIO","Carrera 5 No 46-51","8332028","gerencia@aguasdelpuerto.com","Registro por la ESP","JAIME ORLANDO MAZO LOAIZA","SOCIEDADES (EMPRESA DE SERVICIOS PUBLICOS)","MAYOR O IGUAL A 5001 USUARIOS"
"ANTIOQUIA","FREDONIA","ACUEDUCTO","OPERATIVA","OPERADORES DE SERVICIOS S.A.  E.S.P.","ANTIOQUIA","MEDELLIN","Calle 42B No 63C - 51","3512999","contabilidad@operadoresdeserviciossaesp.com","Registro por la ESP","HERNAN DARIO PEREZ LOZANO","SOCIEDADES (EMPRESA DE SERVICIOS PUBLICOS)","DESDE 2501 HASTA 5000 USUARIOS"
"ANTIOQUIA","SANTA BARBARA","ACUEDUCTO","OPERATIVA","OPERADORES DE SERVICIOS S.A.  E.S.P.","ANTIOQUIA","MEDELLIN","Calle 42B No 63C - 51","3512999","contabilidad@operadoresdeserviciossaesp.com","Registro por la ESP","HERNAN DARIO PEREZ LOZANO","SOCIEDADES (EMPRESA DE SERVICIOS PUBLICOS)","DESDE 2501 HASTA 5000 USUARIOS"
"ANTIOQUIA","ENVIGADO","ACUEDUCTO","OPERATIVA","ACUEDUCTO COMUNITARIO EL SOCORRO","ANTIOQUIA","ENVIGADO","CALLE 40 SUR 24 E 19","5577090","acueductoelsocorro@hotmail.com","Registro por la ESP","JOSE REINERIO HIGUITA ZAPATA","ORGANIZACION AUTORIZADA","MENOR O IGUAL A 2500 USUARIOS"
"ANTIOQUIA","ZARAGOZA","ACUEDUCTO","OPERATIVA","JUNTA MUNICIPAL DE SERVICIOS PUBLICOS DEL MUNICIPIO DE ZARAGOZA","ANTIOQUIA","ZARAGOZA","palacio municipal","8388209","serviciospublicos@zaragoza-antioquia.gov.co","Registro por la ESP","VICTOR DARIO PERLAZA HINESTROZA","MUNICIPIO (PRESTACIÓN DIRECTA)","DESDE 2501 HASTA 5000 USUARIOS"
"ANTIOQUIA","ABEJORRAL","ACUEDUCTO","OPERATIVA","ASOCIACIÓN DE USUARIOS DEL ACUEDUCTO MULTIVEREDAL DE PANTANILLO","ANTIOQUIA","ABEJORRAL","CARRERA 50 N° 50 -06 EDIFICIO ESTEBAN JARAMILLO PLAZA PRINCIPAL","3128881","gloriae1969@hotmail.com","Registro por la ESP","JOSE MARIO VELASQUEZ MARTINEZ","ORGANIZACION AUTORIZADA","HASTA 2500 SUSCRIPTORES"
"ANTIOQUIA","EL SANTUARIO","ACUEDUCTO","OPERATIVA","EMPRESAS PUBLICAS DEL MUNICIPIO DE EL SANTUARIO E.S.P.","ANTIOQUIA","EL SANTUARIO","Car 42 # 49-39","3222914","juanfernandomanrique5@hotmail.com","Registro por la ESP","JULIAN ESTEBAN HERNANDEZ ECHEVERRI","EMPRESA INDUSTRIAL Y COMERCIAL DEL ESTADO","MAYOR O IGUAL A 5001 USUARIOS"
"ANTIOQUIA","YOLOMBO","ACUEDUCTO","OPERATIVA","EMPRESA DE SERVICIOS PUBLICOS DE YOLOMBO","ANTIOQUIA","YOLOMBO","Calle Colombia No. 20-92","8655550","serviciospublicosyol@hotmail.com","Registro por la ESP","ISAIAS DE JESUS PALACIO TABORDA","EMPRESA INDUSTRIAL Y COMERCIAL DEL ESTADO","MENOR O IGUAL A 2500 USUARIOS"
"ANTIOQUIA","GOMEZ PLATA","ACUEDUCTO","OPERATIVA","UNIDAD DE SERVICIOS PUBLICOS DOMICILIARIOS DEL MUNICIPIO DE GOMEZ PLATA","ANTIOQUIA","GOMEZ PLATA","CRA 50 N. 49 49","8627522","serviciospublicos@gomezplata-antioquia.gov.co","Registro por la ESP","JORGE ADRIAN PEREZ ATEHORTUA","MUNICIPIO (PRESTACIÓN DIRECTA)","MENOR O IGUAL A 2500 USUARIOS"
"ANTIOQUIA","MARINILLA","ACUEDUCTO","OPERATIVA","EMPRESA DE SERVICIOS PUBLICOS DE SAN JOSE DE LA MARINILLA E.S.P.","ANTIOQUIA","MARINILLA","CALLE 30 N 25-96","5482811","gestionsui@egcconsultores.co","Registro por la ESP","FELIX HERNANDO GOMEZ RAMIREZ","EMPRESA INDUSTRIAL Y COMERCIAL DEL ESTADO","MAYOR O IGUAL A 5001 USUARIOS"
"ANTIOQUIA","GUARNE","ACUEDUCTO","OPERATIVA","ASOCIACION DE USUARIOS DEL ACUEDUCTO MULTIVEREDAL EL MOLINO","ANTIOQUIA","GUARNE","PALACIO MUNICIPAL","5512998","acumultimolino@gmail.com","Registro por la ESP","CARLOS ALBERTO ZAPATA  VANEGAS","ORGANIZACION AUTORIZADA","HASTA 2500 SUSCRIPTORES"
"ANTIOQUIA","GUARNE","ACUEDUCTO","OPERATIVA","CORPORACION ACUEDUCTO MULTIVEREDAL CARMIN, CUCHILLAS, MAMPUESTO Y ANEXOS","ANTIOQUIA","RIONEGRO","CRA 47 N. 54-13, INT 205 SECTOR GALERIA","5904592","direccionadministrativa@camrionegro.com","Registro por la ESP","HUMBERTO NICOLAS RESTREPO AMAYA","ORGANIZACION AUTORIZADA","DESDE 2501 HASTA 5000 USUARIOS"
"ANTIOQUIA","RIONEGRO","ACUEDUCTO","OPERATIVA","CORPORACION ACUEDUCTO MULTIVEREDAL CARMIN, CUCHILLAS, MAMPUESTO Y ANEXOS","ANTIOQUIA","RIONEGRO","CRA 47 N. 54-13, INT 205 SECTOR GALERIA","5904592","direccionadministrativa@camrionegro.com","Registro por la ESP","HUMBERTO NICOLAS RESTREPO AMAYA","ORGANIZACION AUTORIZADA","DESDE 2501 HASTA 5000 USUARIOS"
"ANTIOQUIA","GRANADA","ACUEDUCTO","OPERATIVA","EMPRESA DE SERVICIOS PÚBLICOS DE GRANADA","ANTIOQUIA","GRANADA","Calle 20 # 21-55","8320939","espgranada@yahoo.es","Registro por la ESP","DUBIAN FREDY GOMEZ GIRALDO","EMPRESA INDUSTRIAL Y COMERCIAL DEL ESTADO","DESDE 2501 HASTA 5000 USUARIOS"
"ANTIOQUIA","RIONEGRO","ACUEDUCTO","OPERATIVA","ASOCIACION DE SUSCRIPTORES ACUEDUCTO RANCHERIAS","ANTIOQUIA","RIONEGRO","Vereda Rancherias","5576338","acueductorancherias@hotmail.com","Registro por la ESP","JAIME ALBERTO GARCIA RIVERA","ORGANIZACION AUTORIZADA","MENOR O IGUAL A 2500 USUARIOS"
"ANTIOQUIA","PUERTO TRIUNFO","ACUEDUCTO","OPERATIVA","ASOCIACIÓN DE USUARIOS DEL ACUEDUCTO Y ALCANTARILLADO DE PUERTO PERALES E.S.P","ANTIOQUIA","PUERTO TRIUNFO","CARRERA 17 No. 19 - 49 PUERTO PERALES","8322326","acuedperales@hotmail.com","Registro por la ESP","XIOMARA ANDREA PORTILLO GOMEZ","ORGANIZACION AUTORIZADA","MENOR O IGUAL A 2500 USUARIOS"
"ANTIOQUIA","BETANIA","ACUEDUCTO","OPERATIVA","UNIDAD DESERVICIOS PUBLICOS MUNICIPALES DE BETANIA E.S.P","ANTIOQUIA","BETANIA","CALLE 19 19-67","8435127","secgobierno@betania.gov.co","Registro por la ESP","CARLOS MARIO VILLADA URIBE","MUNICIPIO (PRESTACIÓN DIRECTA)","HASTA 2500 SUSCRIPTORES"
"ANTIOQUIA","PUERTO TRIUNFO","ACUEDUCTO","OPERATIVA","ASOCIACION JUNTA ADMINISTRADORA DEL ACUEDUCTO Y ALCANTARILLADO DE DORADAL","ANTIOQUIA","PUERTO TRIUNFO","DIAGONAL 25 # 25 72","8342471","acueducto.alcantarillado@hotmail.com","Registro por la ESP","JHON SEBASTIAN PEREZ  ROJAS","ORGANIZACION AUTORIZADA","MENOR O IGUAL A 2500 USUARIOS"
"ANTIOQUIA","CALDAS","ACUEDUCTO","OPERATIVA","ASOCIACION DE USUARIOS DEL ACUEDUCTO MULTIVEREDAL CORRALA CORRALITA Y CORRALA PARTE BAJA","ANTIOQUIA","CALDAS","CARRERA 50 129 SUR 37 LOCAL 202","3064652","multiveredalcaldas2007@hotmail.com","Registro por la ESP","LUIS HUMBERTO LOAIZA URAN","ORGANIZACION AUTORIZADA","MENOR O IGUAL A 2500 USUARIOS"
"ANTIOQUIA","SABANETA","ACUEDUCTO","OPERATIVA","CORPORACION DE USUARIOS DEL ACUEDUCTO Y ALCANTARILLADO VEREDA SAN JOSE PARTE BAJA","ANTIOQUIA","SABANETA","Cra. 45 # 77 Sur 13","2881400","trapiche@epm.net.co","Registro por la ESP","ANTONIO JESUS  MONTOYA  OCHOA","ORGANIZACION AUTORIZADA","HASTA 2500 SUSCRIPTORES"
"ANTIOQUIA","TURBO","ACUEDUCTO","OPERATIVA","TURBO EXPRESS ACUATURBO","ANTIOQUIA","TURBO","CURRULAO CAR 50A Nº 50-48","8207432","corre45@yahoo.com","Registro por la ESP","NOEL ANTONIO ESPINOZA CORREA","ORGANIZACION AUTORIZADA","HASTA 2500 SUSCRIPTORES"
"ANTIOQUIA","SABANETA","ACUEDUCTO","OPERATIVA","CORPORACION ACUEDUCTO Y ALCANTARILLADO VEREDA CAÑAVERALEJO E.S.P","ANTIOQUIA","SABANETA","calle 78 sur # 35 - 213","2885021","jhony.camp@hotmail.com","Registro por la ESP","JHON JAIRO GOMEZ ALZATE","ORGANIZACION AUTORIZADA","HASTA 2500 SUSCRIPTORES"
"ANTIOQUIA","MEDELLIN","ACUEDUCTO","OPERATIVA","CORPORACION DE ACUEDUCTO MULTIVEREDAL SANTA ELENA","ANTIOQUIA","MEDELLIN","Corregimiento Santa Elena","4790455","acuesanta@hotmail.com","Registro por la ESP","LUIS ALBERTO  ATEHORTUA  GRISALES","ORGANIZACION AUTORIZADA","MENOR O IGUAL A 2500 USUARIOS"
"ANTIOQUIA","COCORNA","ACUEDUCTO","OPERATIVA","EMPRESA DE SERVICIOS PUBLICOS DE COCORNA E.S.P.","ANTIOQUIA","COCORNA","CALLE 20  No 20-26","8344267","esp@cocorna-antioquia.gov.co","Registro por la ESP","MARIA ISABEL  GIL GIRALDO","EMPRESA INDUSTRIAL Y COMERCIAL DEL ESTADO","DESDE 2501 HASTA 5000 USUARIOS"
"ANTIOQUIA","MEDELLIN","ACUEDUCTO","OPERATIVA","CORPORACIÓN DE ACUEDUCTO SAN JOSÉ","ANTIOQUIA","MEDELLIN","VEREDA SAN JOSE","3222260","c.acueductosanjose@gmail.com","Registro por la ESP","OLGA LUCIA MARIN  BENJUMEA","ORGANIZACION AUTORIZADA","MENOR O IGUAL A 2500 USUARIOS"
"ANTIOQUIA","AMAGA","ACUEDUCTO","OPERATIVA","ASOCIACION DE USUARIOS DEL ACUEDUEDUCTO MULTIVEREDAL  ANGELOPOLIS, AMAGA Y TITIRIBI","ANTIOQUIA","ANGELOPOLIS","CALLE 11 LOS ALPES","8421943","acueductomultiveredalangelopolis@hotmail.com","Registro por la ESP","WILLIAM DE JESUS CARMONA VILLA","ORGANIZACION AUTORIZADA","MENOR O IGUAL A 2500 USUARIOS"
"ANTIOQUIA","ANGELOPOLIS","ACUEDUCTO","OPERATIVA","ASOCIACION DE USUARIOS DEL ACUEDUEDUCTO MULTIVEREDAL  ANGELOPOLIS, AMAGA Y TITIRIBI","ANTIOQUIA","ANGELOPOLIS","CALLE 11 LOS ALPES","8421943","acueductomultiveredalangelopolis@hotmail.com","Registro por la ESP","WILLIAM DE JESUS CARMONA VILLA","ORGANIZACION AUTORIZADA","MENOR O IGUAL A 2500 USUARIOS"
"ANTIOQUIA","TITIRIBI","ACUEDUCTO","OPERATIVA","ASOCIACION DE USUARIOS DEL ACUEDUEDUCTO MULTIVEREDAL  ANGELOPOLIS, AMAGA Y TITIRIBI","ANTIOQUIA","ANGELOPOLIS","CALLE 11 LOS ALPES","8421943","acueductomultiveredalangelopolis@hotmail.com","Registro por la ESP","WILLIAM DE JESUS CARMONA VILLA","ORGANIZACION AUTORIZADA","MENOR O IGUAL A 2500 USUARIOS"
"ANTIOQUIA","BETANIA","ACUEDUCTO","OPERATIVA","ASOCIACION DE USUARIOS DEL ACUEDUCTO MULTIVEREDAL BETANIA - HISPANIA","ANTIOQUIA","BETANIA","CALLE 21 AYACUCHO 20-52","8435695","velex19@hotmail.com","Registro por la ESP","HUBER ANTONIO VELEZ RODRIGUEZ","ORGANIZACION AUTORIZADA","MENOR O IGUAL A 2500 USUARIOS"
"ANTIOQUIA","CIUDAD BOLIVAR","ACUEDUCTO","OPERATIVA","ASOCIACION DE USUARIOS DEL ACUEDUCTO MULTIVEREDAL BETANIA - HISPANIA","ANTIOQUIA","BETANIA","CALLE 21 AYACUCHO 20-52","8435695","velex19@hotmail.com","Registro por la ESP","HUBER ANTONIO VELEZ RODRIGUEZ","ORGANIZACION AUTORIZADA","MENOR O IGUAL A 2500 USUARIOS"
"ANTIOQUIA","HISPANIA","ACUEDUCTO","OPERATIVA","ASOCIACION DE USUARIOS DEL ACUEDUCTO MULTIVEREDAL BETANIA - HISPANIA","ANTIOQUIA","BETANIA","CALLE 21 AYACUCHO 20-52","8435695","velex19@hotmail.com","Registro por la ESP","HUBER ANTONIO VELEZ RODRIGUEZ","ORGANIZACION AUTORIZADA","MENOR O IGUAL A 2500 USUARIOS"
"ANTIOQUIA","SABANETA","ACUEDUCTO","OPERATIVA","CORPORACION DE USUARIOS DE ACUEDUCTO VEREDA MARIA AUXILIADORA","ANTIOQUIA","SABANETA","cra 36 N° 55 A sur 123","3012017","AMAUXI@HOTMAIL.COM","Registro por la ESP","SAMUEL MORALES OCAMPO","ORGANIZACION AUTORIZADA","MENOR O IGUAL A 2500 USUARIOS"
"ANTIOQUIA","LA ESTRELLA","ACUEDUCTO","OPERATIVA","ASOCIACION DE USUARIOS DEL SERVICIO DE AGUA POTABLE Y ALCANTARILLADO DEL BARRIO LA INMACULADA NO. 1","ANTIOQUIA","LA ESTRELLA","CRA 51 No. 95A SUR - 174","3020329","asuac@hotmail.com","Registro por la ESP","FLOR DAVINIA CASTANEDA SANCHEZ","ORGANIZACION AUTORIZADA","MENOR O IGUAL A 2500 USUARIOS"
"ANTIOQUIA","TITIRIBI","ACUEDUCTO","OPERATIVA","ASOCIACION JUNTA ADMINISTRADORA ACUEDUCTO COMUNITARIO LAS ISAZAS DE TITIRIBI","ANTIOQUIA","TITIRIBI","CARRERA 21 Nº 20-09","8482745","cmartinez.asesorias@gmail.com","Registro por la ESP","JUAN GABRIL POSADA  GONZALEZ","ORGANIZACION AUTORIZADA","MENOR O IGUAL A 2500 USUARIOS"
"ANTIOQUIA","SAN PEDRO DE LOS MILAGROS","ACUEDUCTO","OPERATIVA","ASOCIACION DE ACUEDUCTO LA LANA","ANTIOQUIA","SAN PEDRO DE LOS MILAGROS","VEREDA LA LANA","8602632","acueductolalana@gmail.com","Registro por la ESP","ADRIAN ALITER ZAPATA MESA","ORGANIZACION AUTORIZADA","HASTA 2500 SUSCRIPTORES"
"ANTIOQUIA","LA CEJA","ACUEDUCTO","OPERATIVA","ASOCIACION DE USUARIOS DEL ACUEDUCTO Y/O ALCANTARILLADO SAN NICOLAS","ANTIOQUIA","LA CEJA","vereda san nicolas sector la escuela","3156875","acuasanlaceja@gmail.com","Registro por la ESP","ULISES MORALES GUERRA","ORGANIZACION AUTORIZADA","MENOR O IGUAL A 2500 USUARIOS"
"ANTIOQUIA","ABRIAQUI","ACUEDUCTO","OPERATIVA","UNIDAD DE SERVICIOS PUBLICOS DE ABRIAQUI","ANTIOQUIA","ABRIAQUI","Carrera 11 No. 11-07","8520024","planeacion@abriaqui-antioquia.gov.co","Registro por la ESP","EDGAR HERNADO GOMEZ BEDOYA","MUNICIPIO (PRESTACIÓN DIRECTA)","HASTA 2500 SUSCRIPTORES"
"ANTIOQUIA","LA PINTADA","ACUEDUCTO","CANCELACION","ASOCIACION DE USUARIOS ACUEDUCTO MASAGUAY (EN LIQUIDACION)","ANTIOQUIA","LA PINTADA","Av 30 No 28-111","8454526","contabilidad@ohsalmon.com","Registro por la ESP","DOLLY VICTORIA ALVAREZ RIOS",,
"ANTIOQUIA","CAICEDO","ACUEDUCTO","OPERATIVA","UNIDAD DE SERVICIOS PUBLICOS DOMICILIARIOS DEL MUNICIPIO DE CAICEDO.","ANTIOQUIA","CAICEDO","Calle 5 N 4-01","8572002","serviciospublicos@caicedo-antioquia.gov.co","Registro por la ESP","MIGUEL ALFONSO MARTINEZ GAVIRIA","MUNICIPIO (PRESTACIÓN DIRECTA)","MENOR O IGUAL A 2500 USUARIOS"
"ANTIOQUIA","YONDO","ACUEDUCTO","OPERATIVA","AGUAS & ASEO YONDO SA ESP","ANTIOQUIA","YONDO","CARRERA 53 No.50-79","8325371","amby105@hotmail.com","Registro por la ESP","ALEXANDER DIAZ BARRERA","SOCIEDADES (EMPRESA DE SERVICIOS PUBLICOS)","MENOR O IGUAL A 2500 USUARIOS"
"ANTIOQUIA","MEDELLIN","ACUEDUCTO","OPERATIVA","CORPORACION  DE ACUEDUCTO MULTIVEREDAL LA ACUARELA","ANTIOQUIA","MEDELLIN","Carrera 131 No 60D - 27","4276009","aux_admin@acueductolaacuarela.com","Registro por la ESP","MARTHA NELLY SANCHEZ  VELASQUEZ","ORGANIZACION AUTORIZADA","DESDE 2501 HASTA 5000 USUARIOS"
"ANTIOQUIA","MEDELLIN","ACUEDUCTO","OPERATIVA","CORPORACIÓN DE ACUEDUCTO MULTIVEREDAL ""ARCOIRIS""","ANTIOQUIA","MEDELLIN","carrera 150C No 80-14 vereda El Llano","4796109","gerencia@acueductoarcoiris.com","Registro por la ESP","SANDRA MILENA GOMEZ SANCHEZ","ORGANIZACION AUTORIZADA","MENOR O IGUAL A 2500 USUARIOS"
"ANTIOQUIA","RIONEGRO","ACUEDUCTO","OPERATIVA","ASOCIACION DEL ACUEDUCTO CABECERAS DE LLANOGRANDE","ANTIOQUIA","RIONEGRO","VEREDA  CABECERAS DE  LLANOGRANDE","4084881","acueductocabeceras@gmail.com","Registro por la ESP","CAMILO RIOS VALENCIA","ORGANIZACION AUTORIZADA","MENOR O IGUAL A 2500 USUARIOS"
"ANTIOQUIA","MEDELLIN","ACUEDUCTO","OPERATIVA","CORPORACION DE ASOCIADOS DEL ACUEDUCTO LAS FLORES","ANTIOQUIA","MEDELLIN","CORREGIMIENTO SANTA ELENA","4087235","corpolasflores@outlook.com","Registro por la ESP","JUAN GUILLERMO RAMIREZ GALLEGO","ORGANIZACION AUTORIZADA","MENOR O IGUAL A 2500 USUARIOS"
"ANTIOQUIA","SABANETA","ACUEDUCTO","OPERATIVA","ASOCIACION DE USUARIOS.DEL ACUEDUCTO VEREDAL LAS BRISAS Y SAN ISISDRO","ANTIOQUIA","SABANETA","CRA 31 N° 70 SUR 65","3019454","wicazu@hotmail.com","Registro por la ESP","WILSON DE JESUS CASTAÑEDA ZULETA","ORGANIZACION AUTORIZADA","HASTA 2500 SUSCRIPTORES"
"ANTIOQUIA","EL CARMEN DE VIBORAL","ACUEDUCTO","OPERATIVA","ASOCIACION DE SOCIOS DEL ACUEDUCTO Y ALCANTARILLADO CAMPOALEGRE","ANTIOQUIA","EL CARMEN DE VIBORAL","CALLE 33 No 30-60","5430827","aguaselcarmen@gmail.com","Registro por la ESP","MAGDALENA RESTREPO DE TOBON","ORGANIZACION AUTORIZADA","MENOR O IGUAL A 2500 USUARIOS"
"ANTIOQUIA","MEDELLIN","ACUEDUCTO","OPERATIVA","CORPORACION DE ASOCIADOS DEL ACUEDUCTO MONTAÑITA","ANTIOQUIA","MEDELLIN","Vereda Montañita","2863280","acueducto646@gmail.com","Registro por la ESP","DIANA MARIA GARCIA LOPERA","ORGANIZACION AUTORIZADA","MENOR O IGUAL A 2500 USUARIOS"
"ANTIOQUIA","EL CARMEN DE VIBORAL","ACUEDUCTO","OPERATIVA","ASOCIACION DE SOCIOS DEL ACUEDUCTO CAMARGO","ANTIOQUIA","EL CARMEN DE VIBORAL","CALLE 33 No 30-60","5430827","aguaselcarmen@gmail.com","Registro por la ESP","OCTAVIO DE JESUS LONDONO GOMEZ","ORGANIZACION AUTORIZADA","MENOR O IGUAL A 2500 USUARIOS"
"ANTIOQUIA","MEDELLIN","ACUEDUCTO","OPERATIVA","CORPORACION DE ASOCIADOS DEL ACUEDUCTO ISAAC GAVIRIA","ANTIOQUIA","MEDELLIN","CALLE 56H 18-27","2849356","acueductoisaacgaviria@yayoo.com","Registro por la ESP","DEYANIRA GIRALDO CASTRILLON","ORGANIZACION AUTORIZADA","MENOR O IGUAL A 2500 USUARIOS"
"ANTIOQUIA","MEDELLIN","ACUEDUCTO","OPERATIVA","JUNTA ADMINISTRADORA DEL ACUEDUCTO DE SAN JOSE DE MANZANILLO - AGUA PURA-","ANTIOQUIA","MEDELLIN","VEREDA EL MANZANILLO","3436335","aguapura-manzanillo@hotmail.com","Registro por la ESP","LUIS HERNANDO ISAZA ROJAS","ORGANIZACION AUTORIZADA","DESDE 2501 HASTA 5000 USUARIOS"
"ANTIOQUIA","RETIRO","ACUEDUCTO","OPERATIVA","EMPRESA DE AGUAS DEL ORIENTE ANTIOQUEÑO S.A.  E.S.P.","ANTIOQUIA","RETIRO","Cll 22 No 22-35","5415469","buzoncorporativo@aguasdeloriente.com","Registro por la ESP","JOHN FREDY RESTREPO SANCHEZ","SOCIEDADES (EMPRESA DE SERVICIOS PUBLICOS)","DESDE 2501 HASTA 5000 USUARIOS"
"ANTIOQUIA","SABANETA","ACUEDUCTO","OPERATIVA","CORPORACION DE USUARIOS DE ACUEDUCTO Y ALCANTARILLADO DE LA VEREDA PAN DE AZUCAR","ANTIOQUIA","SABANETA","CALLE 82 SUR N° 32 - 61","3090654","soloaguas11@hotmail.com","Registro por la ESP","CARLOS ALBERTO HERNANDEZ LONDOÑO","ORGANIZACION AUTORIZADA","HASTA 2500 SUSCRIPTORES"
"ANTIOQUIA","SAN JERONIMO","ACUEDUCTO","OPERATIVA","ASOCIACION DE SUSCRIPTORES O USUARIOS DEL ACUEDUCTO DE QUIMBAYO EL ALTICO MUNICIPIO DE SAN JERONIMO","ANTIOQUIA","SAN JERONIMO","VEREDA QUIMBAYO EL ALTICO","8583668","gloriaroci@gmail.com","Registro por la ESP","ARLEY RAMIREZ ARBOLEDA","ORGANIZACION AUTORIZADA","HASTA 2500 SUSCRIPTORES"
"ANTIOQUIA","TAMESIS","ACUEDUCTO","OPERATIVA","JUNTA ADMINISTRADORA DEL ACUEDUCTO DE PALERMO","ANTIOQUIA","TAMESIS","PALERMO TAMESIS ANTIOQUIA","8494595","helenmo07@hotmail.com","Registro por la ESP","HERNEY DE JESUS BETANCUR HERRERA","ORGANIZACION AUTORIZADA","HASTA 2500 SUSCRIPTORES"
"ANTIOQUIA","COPACABANA","ACUEDUCTO","OPERATIVA","JUNTA ADMINISTRADORA DEL ACUEDUCTO VEREDAL EL LLANO","ANTIOQUIA","COPACABANA","CALLE 49 No 46 C 59","4080517","diegojmnz51@latinmail.com","Registro por la ESP","OSCAR HUMBERTO JIMENEZ ECHEVERRY","PRODUCTOR MARGINAL, INDEPENDIENTE O USO PARTICULAR","HASTA 2500 SUSCRIPTORES"
"ANTIOQUIA","CALDAS","ACUEDUCTO","OPERATIVA","ASOCIACION DE USUARIOS DE ACUEDUCTO VEREDA EL CANO","ANTIOQUIA","CALDAS","CALLE 113 SU # 54-32","3035431","palaciooscar@hotmail.com","Registro por la ESP","OSCAR DARIO PALACIO DELGADO","ORGANIZACION AUTORIZADA","HASTA 2500 SUSCRIPTORES"
"ANTIOQUIA","SALGAR","ACUEDUCTO","OPERATIVA","ASOCIACION DE USUARIOS DEL ACUEDUCTO DEL CORREGIMIENTO EL CONCILIO DEL MUNICIPIO DE SALGAR","ANTIOQUIA","SALGAR","CALLE CALDAS 31A - 57 SALGAR","8443141","orlandoromero@hotmail.com.ar","Registro por la ESP","ORLANDO ROMERO GALLEGO","ORGANIZACION AUTORIZADA","HASTA 2500 SUSCRIPTORES"
"ANTIOQUIA","CALDAS","ACUEDUCTO","OPERATIVA","ASOCIACION DE USUARIOS DEL ACUEDUCTO VEREDAL LA RAYA","ANTIOQUIA","CALDAS","CRA 50 N 107Bsur -27","4990590","acueducto.laraya@gmail.com","Registro por la ESP","ALVARO IGNACIO ZEA ZEA","ORGANIZACION AUTORIZADA","MENOR O IGUAL A 2500 USUARIOS"
"ANTIOQUIA","SAN JERONIMO","ACUEDUCTO","OPERATIVA","JUNTA ADMINISTRADORA DEL ACUEDUCTO VELIGUARIN","ANTIOQUIA","SAN JERONIMO","VELIGUARIN-SECTOR EL PESCADOR","8580408","nerijani-nojana@hotmail.com","Registro por la ESP","LUZ ANALIDA SIERRA MARTINEZ","ORGANIZACION AUTORIZADA","MENOR O IGUAL A 2500 USUARIOS"
"ANTIOQUIA","RIONEGRO","ACUEDUCTO","OPERATIVA","ASOCIACION ACUEDUCTO TABLACITO","ANTIOQUIA","RIONEGRO","VEREDA TABLACITO","4087581","acueductotablacito@yahoo.es","Registro por la ESP","MARGARITA MARIA  ORTEGA  GARCIA","ORGANIZACION AUTORIZADA","MENOR O IGUAL A 2500 USUARIOS"
"ANTIOQUIA","COPACABANA","ACUEDUCTO","OPERATIVA","ASOCIACION DE USUARIOS DEL ACUEDUCTO MULTIVEREDAL JOSE ANTONIO CORREA","ANTIOQUIA","COPACABANA","calle 50 nº 51 57 local 109","2743700","yereva15@gmail.com","Registro por la ESP","LIDA DEL SOCORRO MARTINEZ PIEDRAHITA","ORGANIZACION AUTORIZADA","MENOR O IGUAL A 2500 USUARIOS"
"ANTIOQUIA","GIRARDOTA","ACUEDUCTO","OPERATIVA","ASOCIACION DE USUARIOS DEL ACUEDUCTO MULTIVEREDAL JOSE ANTONIO CORREA","ANTIOQUIA","COPACABANA","calle 50 nº 51 57 local 109","2743700","yereva15@gmail.com","Registro por la ESP","LIDA DEL SOCORRO MARTINEZ PIEDRAHITA","ORGANIZACION AUTORIZADA","MENOR O IGUAL A 2500 USUARIOS"
"ANTIOQUIA","ENVIGADO","ACUEDUCTO","OPERATIVA","ASOCIACION DE SUSCRIPTORES RESERVA EL CARRIQUI","ANTIOQUIA","ENVIGADO","Carrera 24d #40sur-981 vereda el vallano","4085335","gloria_acued@hotmail.com","Registro por la ESP","LUIS BERNARDO TORRES  PARRA","ORGANIZACION AUTORIZADA","MENOR O IGUAL A 2500 USUARIOS"
"ANTIOQUIA","RETIRO","ACUEDUCTO","OPERATIVA","CORPORACION DE ACUEDUCTO DEL BARRIO EL PLAN AGUAPLAN","ANTIOQUIA","RETIRO","CRA 25  # 16 43","5411555","gusta707@gmail.com","Registro por la ESP","ARLEN ALBERTO ESCOBAR MEJIA","ORGANIZACION AUTORIZADA","MENOR O IGUAL A 2500 USUARIOS"
"ANTIOQUIA","TOLEDO","ACUEDUCTO","OPERATIVA","UNIDAD DE SERVICIOS PUBLICOS DOMICILIARIOS E.S.P. DEL MUNICIPIO DE TOLEDO ANTIOQUIA","ANTIOQUIA","TOLEDO","CARRERA 10 No 10-30","8619020","serviciospublicos@toledo-antioquia.gov.co","Registro por la ESP","ASTRID ELENA CHAVARRIA CORREA","MUNICIPIO (PRESTACIÓN DIRECTA)","MENOR O IGUAL A 2500 USUARIOS"
"ANTIOQUIA","COPACABANA","ACUEDUCTO","OPERATIVA","PRODUCTORA MARGINAL DE SERVICIOS PUBLICOS DOMICILIARIOS ACUEDUCTO BARRIO MARIA","ANTIOQUIA","COPACABANA","calle 47 # 29- 31","6028543","acueductoseed@yahoo.es","Registro por la ESP","MARIA ABIGAIL ZAPATA DE VANEGAS","ORGANIZACION AUTORIZADA","MENOR O IGUAL A 2500 USUARIOS"
"ANTIOQUIA","GUARNE","ACUEDUCTO","OPERATIVA","ASOCIACIÓN DE USUARIOS DEL ACUEDUCTO EL ROSARIO PIEDRAS BLANCAS","ANTIOQUIA","GUARNE","Vereda Piedras Blancas","4797979","acueductorosario@hotmail.com","Registro por la ESP","LUIS GUILLERMO GALEANO BAENA","ORGANIZACION AUTORIZADA","MENOR O IGUAL A 2500 USUARIOS"
"ANTIOQUIA","COPACABANA","ACUEDUCTO","OPERATIVA","JUNTA ADMINISTRADORA DEL ACUEDUCTO  EL CONVENTO","ANTIOQUIA","COPACABANA","CRA 58 No 43-82","2742667","acueductoelconvento@yahoo.es","Registro por la ESP","BLANCA NUBIA QUINTERO DE IDARRGA","ORGANIZACION AUTORIZADA","HASTA 2500 SUSCRIPTORES"
"ANTIOQUIA","SALGAR","ACUEDUCTO","OPERATIVA","ACUEDUCTO LA CAMARA","ANTIOQUIA","SALGAR","vereda la camara","3136735","acueductolacamara@gmail.com","Registro por la ESP","HECTOR  FERNANDEZ ALVAREZ","ORGANIZACION AUTORIZADA","HASTA 2500 SUSCRIPTORES"
"ANTIOQUIA","BELLO","ACUEDUCTO","OPERATIVA","ASOCIACION DE USUARIOS DEL ACUEDUCTO Y ALCANTARILLADO DE SAN FELIX- AGUALINDA.","ANTIOQUIA","BELLO","SAN FELIX KM. 8 VIA PAJARITO SAN PEDRO","3880200","fcastro.hoyos@hotmail.com","Registro por la ESP","LUIS FERNANDO CASTRO HOYOS","ORGANIZACION AUTORIZADA","MENOR O IGUAL A 2500 USUARIOS"
"ANTIOQUIA","MEDELLIN","ACUEDUCTO","OPERATIVA","CORPORACION DE ACUEDUCTO EL MANANTIAL","ANTIOQUIA","MEDELLIN","CRA 78 N° 43 SUR 02","3028009","acueducto.elmanantial@gmail.com","Registro por la ESP","ANDREA MONTOYA ORTIZ","ORGANIZACION AUTORIZADA","MENOR O IGUAL A 2500 USUARIOS"
"ANTIOQUIA","MEDELLIN","ACUEDUCTO","OPERATIVA","JUNTA ADMINISTRADORA DE SERVICIOS DE EL VERGEL","ANTIOQUIA","MEDELLIN","CL 48 SUR 72 225 IN 201","2862523","juntavergel@hotmail.com","Registro por la ESP","SANDRA MILENA GOMEZ DIEZ","ORGANIZACION AUTORIZADA","MENOR O IGUAL A 2500 USUARIOS"
"ANTIOQUIA","SAN JERONIMO","ACUEDUCTO","OPERATIVA","ASOCIACIÓN DE USUARIOS DE SUSCRIPTORES O USUARIOS DEL ACUEDUCTO EL POMAR DEL MUNICIPIO DE SAN JERONIMO","ANTIOQUIA","SAN JERONIMO","VEREDA EL POMAR SAN JERONIMO","4192658","juliocesarrq@gmail.com","Registro por la ESP","JORGE ALBERTO ALVAREZ ALVAREZ","ORGANIZACION AUTORIZADA","HASTA 2500 SUSCRIPTORES"
"ANTIOQUIA","EL CARMEN DE VIBORAL","ACUEDUCTO","OPERATIVA","ASOCIACION DE SOCIOS DEL ACUEDUCTO LA CHAPA","ANTIOQUIA","EL CARMEN DE VIBORAL","Vereda La Chapa","5436248","monykmar@yahoo.com","Registro por la ESP","FRANCISCO EDUARDO ARCILA QUINTERO","ORGANIZACION AUTORIZADA","HASTA 2500 SUSCRIPTORES"
"ANTIOQUIA","EL CARMEN DE VIBORAL","ACUEDUCTO","OPERATIVA","ASOCIACION DE SOCIOS DEL ACUEDUCTO SONADORA GARZONAS DE EL MUNICIPIO DE EL CARMEN DE VIBORAL","ANTIOQUIA","EL CARMEN DE VIBORAL","Vereda La Sonadora","5666075","SONADORA.GARZONAS@GMAIL.COM","Registro por la ESP","FABIOLA GIL CORREA","ORGANIZACION AUTORIZADA","MENOR O IGUAL A 2500 USUARIOS"
"ANTIOQUIA","EL CARMEN DE VIBORAL","ACUEDUCTO","OPERATIVA","ASOCIACION DE USUARIOS DEL ACUEDUCTO AGUAS CLARAS DEL MUNICIPIO DE EL CARMEN DE VIBORAL","ANTIOQUIA","EL CARMEN DE VIBORAL","VEREDA AGUAS CLARAS","5630489","asociacion@acueductoaguasclaras.com","Registro por la ESP","NELSON ORLANDO CASTANEDA ZULUAGA","ORGANIZACION AUTORIZADA","MENOR O IGUAL A 2500 USUARIOS"
"ANTIOQUIA","EL CARMEN DE VIBORAL","ACUEDUCTO","OPERATIVA","ASOCIACION DE USUARIO DEL ACUEDUCTO BETANIA DEL MUNICIPIO DE EL CARMEN DE VIBORAL","ANTIOQUIA","EL CARMEN DE VIBORAL","CALLE 33 No 30-60","5430827","aguaselcarmen@gmail.com","Registro por la ESP","JUAN MANUEL BETANCUR LONDONO","ORGANIZACION AUTORIZADA","MENOR O IGUAL A 2500 USUARIOS"
"ANTIOQUIA","EL CARMEN DE VIBORAL","ACUEDUCTO","OPERATIVA","ASOCIACION DE SOCIOS DEL ACUEDUCTO EL CERRO SAMARIA LA MILAGROSA QUIRAMA CRISTO REY  EL SALADO","ANTIOQUIA","EL CARMEN DE VIBORAL","CRA 30 No 29-72 OF 204","5668386","cerrosamaria@gmail.com","Registro por la ESP","MARIA ANGELICA VALENCIA VARGAS","ORGANIZACION AUTORIZADA","MENOR O IGUAL A 2500 USUARIOS"
"ANTIOQUIA","SAN JERONIMO","ACUEDUCTO","OPERATIVA","ASOCIACION DE SUSCRIPTORES O USUARIOS DEL ACUEDUCTO POLEAL ESPIRITU SANTO DEL MUNICIPIO DE SAN JERONIMO","ANTIOQUIA","SAN JERONIMO","VEREDA POLEAL ESPIRITU SANTO","2299600","misacueductos@gmail.com","Registro por la ESP","LUIS EDUARDO GOMEZ ARANGO","ORGANIZACION AUTORIZADA","MENOR O IGUAL A 2500 USUARIOS"
"ANTIOQUIA","SAN JERONIMO","ACUEDUCTO","OPERATIVA","ASOCIACION DE SUSCRIPTORES O USUARIOS DEL ACUEDUCTO DE LA VEREDA EL CALVARIO DE SAN JERONIMO","ANTIOQUIA","SAN JERONIMO","Vereda el Calvario Municipio de San Jerónimo","8580112","gadupa23@yahoo.com","Registro por la ESP","LUIS EMILIO COLORADO ZAPATA","ORGANIZACION AUTORIZADA","HASTA 2500 SUSCRIPTORES"
"ANTIOQUIA","LA ESTRELLA","ACUEDUCTO","OPERATIVA","ASOCIACION DE USUARIOS DEL ACUEDUCTO DE LA VEREDA LA BERMEJALA","ANTIOQUIA","LA ESTRELLA","VEREDA LA BERMEJALA CASA JOHN MARIO CARMONA","3020873","m_samarad@hotmail.com","Registro por la ESP","JOHN MARIO CARMONA LONDOÑO","ORGANIZACION AUTORIZADA","HASTA 2500 SUSCRIPTORES"
"ANTIOQUIA","ENVIGADO","ACUEDUCTO","OPERATIVA","ACUEDUCTO LOMA EL ESCOBERO","ANTIOQUIA","ENVIGADO","Calle 36D Sur No 25A 71 Interior 109","3361669","acuescobero@une.net.co","Registro por la ESP","GABRIEL JAIME MEJIA RUIZ","ORGANIZACION AUTORIZADA","MENOR O IGUAL A 2500 USUARIOS"
"ANTIOQUIA","RIONEGRO","ACUEDUCTO","OPERATIVA","ASOCIACION DE USUARIOS DEL ACUEDUCTO RURAL SAJONIA ALTO DEL VALLEJO ESP","ANTIOQUIA","RIONEGRO","VDA YARUMAL SEC LA ARENERA","4798138","administrativayfinanciera@arsaesp.com.co","Registro por la ESP","RONALD MEJIA BUITRAGO","ORGANIZACION AUTORIZADA","MENOR O IGUAL A 2500 USUARIOS"
"ANTIOQUIA","MEDELLIN","ACUEDUCTO","OPERATIVA","JUNTA ADMINISTRADORA ACUEDUCTO MULTIVEREDAL LA IGUANA","ANTIOQUIA","MEDELLIN","Calle 64  128-109","4271429","acueductoiguana@hotmail.com","Registro por la ESP","SIGIFREDO TORRES SANCHEZ","ORGANIZACION AUTORIZADA","MENOR O IGUAL A 2500 USUARIOS"
"ANTIOQUIA","TAMESIS","ACUEDUCTO","OPERATIVA","ASOCIACIÓN ACUEDUCTO COMUNITARIO EL LIBANO","ANTIOQUIA","TAMESIS","Corregimiento Palermo Vereda El Libano","3022698","acueudctoellibano@gmail.com","Registro por la ESP","BLANCA LIBIA ZAPATA","ORGANIZACION AUTORIZADA","MENOR O IGUAL A 2500 USUARIOS"
"ANTIOQUIA","SAN PEDRO DE LOS MILAGROS","ACUEDUCTO","OPERATIVA","JUNTA ADMINISTRADORA DEL ACUEDUCTO SAN FRANCISCO DE SAN PEDRO DE LOS MILAGROS","ANTIOQUIA","SAN PEDRO DE LOS MILAGROS","CALLE 50 No. 51-8","8686557","contabilidadangelamolina@gmail.com","Registro por la ESP","FRANCISCO LEON ARANGO ARBOLEDA","ORGANIZACION AUTORIZADA","MENOR O IGUAL A 2500 USUARIOS"
"ANTIOQUIA","SAN PEDRO DE LOS MILAGROS","ACUEDUCTO","OPERATIVA","ASOCIACION DE USUARIOS DEL ACUEDUCTO VEREDAS MONTERREDONDO ALTO DEL INGENIO","ANTIOQUIA","SAN PEDRO DE LOS MILAGROS","CL 50 49B-44","4925949","lgomez.balance@une.net.co","Registro por la ESP","ARCANGEL DE JESUS GOMEZ MUNERA","ORGANIZACION AUTORIZADA","HASTA 2500 SUSCRIPTORES"
"ANTIOQUIA","SABANETA","ACUEDUCTO","OPERATIVA","CORPORACION DE USUARIOS DE ACUEDUCTO DE LA FLORESTA","ANTIOQUIA","SABANETA","CALLE 57 SUR N. 43 A 62","2884232","cris20912008@hotmail.com","Registro por la ESP","MARIA CRISTINA FLOREZ ALVAREZ","ORGANIZACION AUTORIZADA","HASTA 2500 SUSCRIPTORES"
"ANTIOQUIA","MEDELLIN","ACUEDUCTO","OPERATIVA","JUNTA ADMINISTRADORA ACUEDUCTO LA SORBETANA","ANTIOQUIA","MEDELLIN","CERRERA78 43SUR 02 SAN ANTONIO DE PRADO","2792095","j.acueductolasorbetana@gmail.com","Registro por la ESP","EUGENIA  MARIA  HERNANDEZ","ORGANIZACION AUTORIZADA","MENOR O IGUAL A 2500 USUARIOS"
"ANTIOQUIA","RETIRO","ACUEDUCTO","OPERATIVA","CORPORACION CIVICA DE SOCIOS DEL ACUEDUCTO DON DIEGO MUNICIPIO DE EL RETIRO DEPARTAMENTO DE ANTIOQUIA","ANTIOQUIA","RETIRO","VEREDA DON DIEGO","5421543","gusta707@gmail.com","Registro por la ESP","LEONEL ANTONIO BOTERO SANCHEZ","ORGANIZACION AUTORIZADA","MENOR O IGUAL A 2500 USUARIOS"
"ANTIOQUIA","RETIRO","ACUEDUCTO","OPERATIVA","ASOCIACION DE USUARIOS DE ACUEDUCTO Y ALCANTARILLADO DE VILLA ELENA","ANTIOQUIA","RETIRO","vereda santa elena","3136486","verajaime707@gmail.com","Registro por la ESP","CARLOS ALBERTO MEJIA ARENAS","ORGANIZACION AUTORIZADA","MENOR O IGUAL A 2500 USUARIOS"
"ANTIOQUIA","SAN PEDRO DE LOS MILAGROS","ACUEDUCTO","OPERATIVA","ASOCIACIÓN DE USUARIOS JUNTA ADMINISTRADORA  ACUEDUCTO LA CUCHILLA SAN PEDRO","ANTIOQUIA","SAN PEDRO DE LOS MILAGROS","VDA. LA CUCHILLA","8686173","miriam1230@hotmail.es","Registro por la ESP","MIRIAM DEL SOCORRO PATINO RODRIGUEZ","ORGANIZACION AUTORIZADA","MENOR O IGUAL A 2500 USUARIOS"
"ANTIOQUIA","YARUMAL","ACUEDUCTO","OPERATIVA","ASOCIACIÓN DE PROGRESO LLANOS DE CUIVA","ANTIOQUIA","YARUMAL","corregimiento Llanos de Cuivá","8601461","acueductollanos@hotmail.com","Registro por la ESP","JESUS ORLEY GARCIA MEDINA","ORGANIZACION AUTORIZADA","MENOR O IGUAL A 2500 USUARIOS"
"ANTIOQUIA","MEDELLIN","ACUEDUCTO","OPERATIVA","JUNTA ADMINISTRADORA ACUEDUCTO MULTIVEREDAL EL HATO","ANTIOQUIA","MEDELLIN","CL 64 128 44 Apto 301","4275336","acueductoelhato@une.net.co","Registro por la ESP","MARTHA ELENA CORREA VELASQUEZ","ORGANIZACION AUTORIZADA","MENOR O IGUAL A 2500 USUARIOS"
"ANTIOQUIA","COPACABANA","ACUEDUCTO","OPERATIVA","ASOCIACION COMUNITARIA  DEL ACUEDUCTO VEREDA EL CABUYAL","ANTIOQUIA","COPACABANA","VEREDA EL CABUYAL","4534507","josearangoe@yahoo.es","Registro por la ESP","GABRIEL ALEJANDRO ALVAREZ PINEDA","ORGANIZACION AUTORIZADA","MENOR O IGUAL A 2500 USUARIOS"
"ANTIOQUIA","ENVIGADO","ACUEDUCTO","OPERATIVA","ASOCIACION DE USUARIOS DEL ACUEDUCTO URBANIZACION LAS PALMAS","ANTIOQUIA","ENVIGADO","VIA LAS PALMAS KM 16","3861161","asopalmas@hotmail.com","Registro por la ESP","ALEIDA OSORIO ACOSTA","ORGANIZACION AUTORIZADA","MENOR O IGUAL A 2500 USUARIOS"
"ANTIOQUIA","COPACABANA","ACUEDUCTO","OPERATIVA","ASOCIACION  COMUNITARIA  DEL ACUEDUCTO DEL BARRIO CRISTO REY DEL  MUNICIPIO DE COPACABANA","ANTIOQUIA","COPACABANA","CARRERA 49A 37 85","2061134","anmagagri@gmail.com","Registro por la ESP","ANA MARIA GALLEGO GRISALES","ORGANIZACION AUTORIZADA","MENOR O IGUAL A 2500 USUARIOS"
"ANTIOQUIA","GUATAPE","ACUEDUCTO","OPERATIVA","ASOCIACION DE USUARIOS DEL ACUEDUCTO MULTIVEREDAL LA PIEDRA, LA PEÑA Y LOS NARANJOS MUNICIPIO DE GUATAPE DEPARTAMENTO DE ANTIOQUIA","ANTIOQUIA","GUATAPE","Cra 31 No 30-35","8610886","asoveredal@hotmail.es","Registro por la ESP","JESUS MARIA CARRILLO CRESPO","ORGANIZACION AUTORIZADA","MENOR O IGUAL A 2500 USUARIOS"
"ANTIOQUIA","RIONEGRO","ACUEDUCTO","OPERATIVA","CORPORACION CIVICA ACUEDUCTO EL TABLAZO","ANTIOQUIA","RIONEGRO","VRD EL TABLAZO","4797982","acuatablazo2@gmail.com","Registro por la ESP","MIGUEL ANTONIO MARTINEZ ARIAS","ORGANIZACION AUTORIZADA","MENOR O IGUAL A 2500 USUARIOS"
"ANTIOQUIA","RIONEGRO","ACUEDUCTO","OPERATIVA","CORPORACION DEL ACUEDUCTO TRESPUERTAS GUAYABITO","ANTIOQUIA","RIONEGRO","Km 8.5 via llanogrande - CC Complex Of 27 - 2 Piso","5370978","fermasa67@gmail.com","Registro por la ESP","RICARDO DARIO MEJIA PELAEZ","ORGANIZACION AUTORIZADA","MENOR O IGUAL A 2500 USUARIOS"
"ANTIOQUIA","RIONEGRO","ACUEDUCTO","OPERATIVA","ASOCIACION JUNTA ADMINISTRADORA ACUEDUCTO VEREDA LA CONVENCION","ANTIOQUIA","RIONEGRO","VEREDA LA CONVENCION","5360777","asoacuacon2006@yahoo.com","Registro por la ESP","DIONNE AMPARO CORREA BURGOS","ORGANIZACION AUTORIZADA","MENOR O IGUAL A 2500 USUARIOS"
"ANTIOQUIA","LA ESTRELLA","ACUEDUCTO","OPERATIVA","ACUEDUCTO COMUNAL BARRIO EL PEDRERO","ANTIOQUIA","LA ESTRELLA","CALLE 87 SUR CARRERA 65A - 82","3021322","acuecomunal@yahoo.com.co","Registro por la ESP","TERESA DEL CARMEN LONDONO VELEZ","ORGANIZACION AUTORIZADA","MENOR O IGUAL A 2500 USUARIOS"
"ANTIOQUIA","AMAGA","ACUEDUCTO","OPERATIVA","ASOCIACION DE USUARIOS DEL ACUEDUCTO Y/O ALCANTARILLADO DE  CAMILO CE","ANTIOQUIA","AMAGA","centro poblado CAMILO C","8472444","wacevedo3@gmail.com","Registro por la ESP","JOSE LUIS COLORADO SANCHEZ","ORGANIZACION AUTORIZADA","MENOR O IGUAL A 2500 USUARIOS"
"ANTIOQUIA","MEDELLIN","ACUEDUCTO","OPERATIVA","CORPORACIÓN DE   ACUEDUCTO MAZO","ANTIOQUIA","MEDELLIN","SANTA ELENA VEREDA MAZO","4084292","acuemazo@gmail.com","Registro por la ESP","LUZ ARLEY ROJAS GRAJALES","ORGANIZACION AUTORIZADA","MENOR O IGUAL A 2500 USUARIOS"
"ANTIOQUIA","CALDAS","ACUEDUCTO","OPERATIVA","ASOCIACION DE SUSCRIPTORES DE ACUEDUCTO Y ALCANTARILLADO DEL BARRIO MANDALAY CENTRAL","ANTIOQUIA","CALDAS","Carrera  53 No 140 Sur - 07","3038297","mandalay3@une.net.co","Registro por la ESP","RODRIGO DE JESUS TIRADO SANCHEZ","ORGANIZACION AUTORIZADA","MENOR O IGUAL A 2500 USUARIOS"
"ANTIOQUIA","BELLO","ACUEDUCTO","OPERATIVA","ASOCIACION DE USUARIOS ACUEDUCTO VEREDAL LA UNION-BELLO","ANTIOQUIA","BELLO","CRA  54B NRO 50 B 29","8686856","ACUEDUCTOLAUNION123@HOTMAIL.COM","Registro por la ESP","JAIME ARTURO PEREZ GARCIA","ORGANIZACION AUTORIZADA","MENOR O IGUAL A 2500 USUARIOS"
"ANTIOQUIA","SAN PEDRO DE LOS MILAGROS","ACUEDUCTO","OPERATIVA","ASOCIACION DE USUARIOS DEL ACUEDUCTO DE LAS VEREDAS ESPIRITU SANTO - PANTANILLO","ANTIOQUIA","SAN PEDRO DE LOS MILAGROS","VEREDA PANTANILLO","8689915","asuavep@hotmail.com","Registro por la ESP","LUIS HERNANDO GIRALDO  TAMAYO","ORGANIZACION AUTORIZADA","MENOR O IGUAL A 2500 USUARIOS"
"ANTIOQUIA","MEDELLIN","ACUEDUCTO","OPERATIVA","JUNTA ADMINISTRADORA ACUEDUCTO MANZANILLO","ANTIOQUIA","MEDELLIN","VEREDA MANZANILLO CORR. ALTAVISTA","3884438","acueductom@hotmail.com","Registro por la ESP","MARIA TERESA LOAIZA CANO","ORGANIZACION AUTORIZADA","MENOR O IGUAL A 2500 USUARIOS"
"ANTIOQUIA","SABANETA","ACUEDUCTO","OPERATIVA","CORPORACION DE  USUARIOS DE ACUEDUCTO Y ALCANTARILLADO LAS MARGARITAS","ANTIOQUIA","SABANETA","CALLE 77 SUR N. 29-21","3762960","odinytita@hotmail.com","Registro por la ESP","ADRIANA MARIA RESTREPO DIAZ","ORGANIZACION AUTORIZADA","HASTA 2500 SUSCRIPTORES"
"ANTIOQUIA","EBEJICO","ACUEDUCTO","OPERATIVA","ASOCIACION DE USUARIOS  DEL ACUEDUCTO MULTIVEREDAL LAS NIEVES","ANTIOQUIA","EBEJICO","CALLE DE COMERCIO","8577339","acuanieves2001@yahoo.es","Registro por la ESP","GLADYS  CARMONA ZAPATA","ORGANIZACION AUTORIZADA","MENOR O IGUAL A 2500 USUARIOS"
"ANTIOQUIA","MEDELLIN","ACUEDUCTO","OPERATIVA","CORPORACIÓN JUNTA ADMINISTRADORA ACUEDUCTO AGUAS FRIAS","ANTIOQUIA","MEDELLIN","CORREGIMIENTO ALTAVISTA VEREDA AGUAS FRIAS","3685207","acueductoaguasfrias@gmail.com","Registro por la ESP","LUZ MIRYAM  ORTIZ SERNA","ORGANIZACION AUTORIZADA","MENOR O IGUAL A 2500 USUARIOS"
"ANTIOQUIA","AMAGA","ACUEDUCTO","OPERATIVA","ASOCIACIÓN DE USUARIOS DEL ACUEDUCTO MALABRIGO PARTE BAJA","ANTIOQUIA","AMAGA","VEREDA MALABRIGO PARTE BAJA","8470252","acueductomalabrigopartebaja@gmail.com","Registro por la ESP","HUBER EDUARDO HENAO VANEGAS","ORGANIZACION AUTORIZADA","MENOR O IGUAL A 2500 USUARIOS"
"ANTIOQUIA","AMAGA","ACUEDUCTO","OPERATIVA","ASOCIACION DE USUARIOS DEL ACUEDUCTO DEL CENTRO POBLADO LA CLARITA","ANTIOQUIA","AMAGA","CENTRO POBLADO LA CLARITA","8471676","acueductocplaclarita@gmail.com","Registro por la ESP","ALVARO OTONIEL AGUDELO SERNA","ORGANIZACION AUTORIZADA","MENOR O IGUAL A 2500 USUARIOS"
"ANTIOQUIA","AMAGA","ACUEDUCTO","EN PROCESO DE LIQUIDACION","ASOCIACION DE USUARIOS DEL ACUEDUCTO DE LOS ALVARES","ANTIOQUIA","AMAGA","VEREDA EL CEDRO SECTOR LOS ALVAREZ","8475132","acueductobarriolosalvares2@hotmail.com","Registro por la ESP","DANIBIA DEL ROCIO OSSA ALVAREZ","ORGANIZACION AUTORIZADA","HASTA 2500 SUSCRIPTORES"
"ANTIOQUIA","AMAGA","ACUEDUCTO","OPERATIVA","ASOCIACION DE USUARIOS DEL ACUEDUCTO DE MAL ABRIGO PARTE ALTA","ANTIOQUIA","AMAGA","VEREDA MALABRIGO PARTE ALTA","1111111","metalcafesas@gmail.com","Registro por la ESP","LUIS ALONSO RUIZ IDRRAGA","ORGANIZACION AUTORIZADA","MENOR O IGUAL A 2500 USUARIOS"
"ANTIOQUIA","SANTA BARBARA","ACUEDUCTO","OPERATIVA","ASOCIACION DE USUARIOS DEL ACUEDUCTO MULTIVEREDAL DEL CORREGIMIENTO DE DAMASCO DEL MUNICIPIO DE SANTA BARBARA","ANTIOQUIA","SANTA BARBARA","CORREGIMIENTO DE DAMASCO MUNICIPIO DE SANTA BARBARA","8433530","casesoriasgenerales@yahoo.es","Registro por la ESP","HERNANDO ALBEIRO LONDOÑO BEDOYA","ORGANIZACION AUTORIZADA","HASTA 2500 SUSCRIPTORES"
"ANTIOQUIA","AMAGA","ACUEDUCTO","OPERATIVA","ASOCIACION DE USUARIOS DEL ACUEDUCTO DE LA FERRERIA","ANTIOQUIA","AMAGA","VEREDA LA FERRERIA","8473695","acueductoferreria@hotmail.com","Registro por la ESP","CESAR AUGUSTO CORREA RUIZ","ORGANIZACION AUTORIZADA","HASTA 2500 SUSCRIPTORES"
"ANTIOQUIA","GUARNE","ACUEDUCTO","OPERATIVA","ASOCIACION DE USUARIOS DEL ACUEDUCTO ALTO DE LA VIRGEN","ANTIOQUIA","GUARNE","VEREDA ALTO DE LA VIRGEN","6118637","verajaime707@gmail.com","Registro por la ESP","LIBARDO DE JESUS LOPEZ SANCHEZ","ORGANIZACION AUTORIZADA","MENOR O IGUAL A 2500 USUARIOS"
"ANTIOQUIA","AMAGA","ACUEDUCTO","OPERATIVA","ASOCIACION DE USUARIOS DEL ACUEDUCTO DE CALLE NUEVA","ANTIOQUIA","AMAGA","VEREDA CALLE NUEVA","8470037","acuecallenueva@latinmail.com","Registro por la ESP","HUMBERTO GARZON","ORGANIZACION AUTORIZADA","HASTA 2500 SUSCRIPTORES"
"ANTIOQUIA","ITAGUI","ACUEDUCTO","OPERATIVA","ACUEDUCTO  VEREDAL  AGUAS CLARAS LOS OLIVARES","ANTIOQUIA","ITAGUI","CALLE 40 PARTE ALTA","3771196","acueductoavaco123@gmail.com","Registro por la ESP","RODRIGO DE JESUS ARANGO SUAZA","ORGANIZACION AUTORIZADA","MENOR O IGUAL A 2500 USUARIOS"
"ANTIOQUIA","SALGAR","ACUEDUCTO","OPERATIVA","ASOCIACION DE USUARIOS DEL ACUEDUCTO DE LA VEREDA LA MONTANITA MUNICIPIO DE SALGAR DEPARTAMENTO DE ANTIOQUIA","ANTIOQUIA","SALGAR","PALACIO MUNICIPAL","4380854","acumontanita@gmail.com","Registro por la ESP","OSCAR  RUIZ RUIZ","ORGANIZACION AUTORIZADA","HASTA 2500 SUSCRIPTORES"
"ANTIOQUIA","AMAGA","ACUEDUCTO","OPERATIVA","ASOCIACION DE USUARIOS DEL ACUEDUCTO DE PIEDECUESTA","ANTIOQUIA","AMAGA","VEREDA PIEDECUESTA","8470252","claudiacano4@gmail.com","Registro por la ESP","ALVARO DE JESUS FORONDA FRANCO","ORGANIZACION AUTORIZADA","MENOR O IGUAL A 2500 USUARIOS"
"ANTIOQUIA","TITIRIBI","ACUEDUCTO","OPERATIVA","ASOCIACION JUNTA ACUEDUCTO SECTOR HOYO DEL BARRO, CORREGIMIENTO DEL LIBANO, LA ALBANIA MUNICIPIO DE TITIRIBI","ANTIOQUIA","TITIRIBI","HOYO DEL BARRO LA ALBANIA","8422417","hoyodelbarro2014@outlook.com","Registro por la ESP","OMAR DE JESUS VELASQUEZ  VASCO","ORGANIZACION AUTORIZADA","HASTA 2500 SUSCRIPTORES"
"ANTIOQUIA","CIUDAD BOLIVAR","ACUEDUCTO","OPERATIVA","ASOCIACION USUARIOS ACUEDUCTO MULTIVEREDAL BOLIVAR ARRIBA","ANTIOQUIA","CIUDAD BOLIVAR","carrera 76 No 50 69","8411509","acueamba@hotmail.com","Registro por la ESP","SANDRA MILENA RESTREPO VANEGAS","ORGANIZACION AUTORIZADA","MENOR O IGUAL A 2500 USUARIOS"
"ANTIOQUIA","EBEJICO","ACUEDUCTO","OPERATIVA","ASOCIACION DE SUSCRIPTORES Y USUARIOS DEL ACUEDUCTO CORREGIMIENTO EL BRASIL-EBEJICO-ANTIOQUIA","ANTIOQUIA","EBEJICO","CORREGIMIENTO EL BRASIL","8514764","gallegopatri16@hotmail.com","Registro por la ESP","FRANCISCO JAVIER CORRALES LEON","ORGANIZACION AUTORIZADA","MENOR O IGUAL A 2500 USUARIOS"
"ANTIOQUIA","COPACABANA","ACUEDUCTO","OPERATIVA","CORPORACION ACUEDUCTO VEREDAL ZARZAL LA LUZ","ANTIOQUIA","COPACABANA","VEREDA ZARZAL LALUZ","4799170","josearangoe@yahoo.es","Registro por la ESP","CIPRIANO EMIRO LOPEZ HENAO","ORGANIZACION AUTORIZADA","MENOR O IGUAL A 2500 USUARIOS"
"ANTIOQUIA","EL CARMEN DE VIBORAL","ACUEDUCTO","OPERATIVA","ASOCIACION DE SOCIOS DEL ACUEDUCTO LA MADERA","ANTIOQUIA","EL CARMEN DE VIBORAL","CALLE 33 No 30-60","5430827","aguaselcarmen@gmail.com","Registro por la ESP","MARIA EUGENIA CARDONA MONSALVE","ORGANIZACION AUTORIZADA","MENOR O IGUAL A 2500 USUARIOS"
"ANTIOQUIA","GUARNE","ACUEDUCTO","OPERATIVA","CORPORACION LA ENEA","ANTIOQUIA","RIONEGRO","CALLE 60 # 47-63 BARRIO LOS LAGOS","5661874","acueducto@corporacionlaenea.com.co","Registro por la ESP","SANDRA ELENA LOPEZ GIRALDO","ORGANIZACION AUTORIZADA","MENOR O IGUAL A 2500 USUARIOS"
"ANTIOQUIA","RIONEGRO","ACUEDUCTO","OPERATIVA","CORPORACION LA ENEA","ANTIOQUIA","RIONEGRO","CALLE 60 # 47-63 BARRIO LOS LAGOS","5661874","acueducto@corporacionlaenea.com.co","Registro por la ESP","SANDRA ELENA LOPEZ GIRALDO","ORGANIZACION AUTORIZADA","MENOR O IGUAL A 2500 USUARIOS"
"ANTIOQUIA","ENVIGADO","ACUEDUCTO","OPERATIVA","ASOCIACION DEL ACUEDUCTO Y/O ALCANTARILLADO CHINGUI NO1","ANTIOQUIA","ENVIGADO","CALLE 39BSUR No 25AA102","3335068","penazur@une.net.co","Registro por la ESP","MIGUEL ANGEL OLAYA RESTREPO","ORGANIZACION AUTORIZADA","HASTA 2500 SUSCRIPTORES"
"ANTIOQUIA","ENVIGADO","ACUEDUCTO","OPERATIVA","JUNTA ADMINISTRADORA ACUEDUCTO VEREDAL MORGAN","ANTIOQUIA","ENVIGADO","CALLE 25 SUR 5 - 141","4088659","ACUEDUCTOMORGAN@GMAIL.COM","Registro por la ESP","ALEJANDRO BUENO BUENO","ORGANIZACION AUTORIZADA","MENOR O IGUAL A 2500 USUARIOS"
"ANTIOQUIA","AMAGA","ACUEDUCTO","OPERATIVA","ASOCIACION DE USUARIOS DEL ACUEDUCTO VEREDA YARUMAL","ANTIOQUIA","AMAGA","VEREDA YARUMAL","8471676","acueductoyarumal9@gmail.com","Registro por la ESP","MONICA MARIA LAVERDE RODAS","ORGANIZACION AUTORIZADA","MENOR O IGUAL A 2500 USUARIOS"
"ANTIOQUIA","BARBOSA","ACUEDUCTO","OPERATIVA","ASOCIACION DE USUARIOS DEL ACUEDUCTO MULTIVEREDAL AGUAS CRISTALIN","ANTIOQUIA","BARBOSA","Carrera 15 # 10-40 Local 106","4795545","acueductoauamac@gmail.com","Registro por la ESP","JHON JAIRO  LONDONO CASTRILLON","ORGANIZACION AUTORIZADA","MENOR O IGUAL A 2500 USUARIOS"
"ANTIOQUIA","GUARNE","ACUEDUCTO","OPERATIVA","ASOCIACIÓN DE USUARIOS DEL ACUEDUCTO Y ALCANTARILLADO SAN IGNACIO","ANTIOQUIA","GUARNE","VEREDA SAN IGNACIO","5380007","asuasi538@gmail.com","Registro por la ESP","MARTHA LUCIA ESCOBAR PELAEZ","ORGANIZACION AUTORIZADA","MENOR O IGUAL A 2500 USUARIOS"
"ANTIOQUIA","MEDELLIN","ACUEDUCTO","OPERATIVA","ASOCIACIÓN DE USUARIOS DEL ACUEDUCTO Y ALCANTARILLADO SAN IGNACIO","ANTIOQUIA","GUARNE","VEREDA SAN IGNACIO","5380007","asuasi538@gmail.com","Registro por la ESP","MARTHA LUCIA ESCOBAR PELAEZ","ORGANIZACION AUTORIZADA","MENOR O IGUAL A 2500 USUARIOS"
"ANTIOQUIA","RIONEGRO","ACUEDUCTO","OPERATIVA","ASOCIACIÓN DE USUARIOS DEL ACUEDUCTO Y ALCANTARILLADO SAN IGNACIO","ANTIOQUIA","GUARNE","VEREDA SAN IGNACIO","5380007","asuasi538@gmail.com","Registro por la ESP","MARTHA LUCIA ESCOBAR PELAEZ","ORGANIZACION AUTORIZADA","MENOR O IGUAL A 2500 USUARIOS"
"ANTIOQUIA","ENVIGADO","ACUEDUCTO","OPERATIVA","ASOSIACION DE USUARIOS ACUEDUCTO APURES ESP","ANTIOQUIA","ENVIGADO","Urbanizacion san sebastian","3860292","acueductoapures@hotmail.com","Registro por la ESP","LUZ ELENA RIOS URIBE","ORGANIZACION AUTORIZADA","MENOR O IGUAL A 2500 USUARIOS"
"ANTIOQUIA","RETIRO","ACUEDUCTO","OPERATIVA","ASOCIACION DE USUARIOS DEL ACUEDUCTO VEREDA LOS SALADOS","ANTIOQUIA","RETIRO","Vereda los salados","3576807","verajaime707@gmail.com","Registro por la ESP","GUILLERMO LEON OSORNO YEPES","ORGANIZACION AUTORIZADA","MENOR O IGUAL A 2500 USUARIOS"
"ANTIOQUIA","LA CEJA","ACUEDUCTO","OPERATIVA","ASOCIACION DE USUARIOS ACUEDUCTO AGUAS DEL ALTO VERED LA MILAGROSA","ANTIOQUIA","LA CEJA","CARRERA 22 N° 18-82","5681538","bdoelalarife@gmail.com","Registro por la ESP","BERNARDO GOMEZ LONDOÑO","ORGANIZACION AUTORIZADA","HASTA 2500 SUSCRIPTORES"
"ANTIOQUIA","SANTO DOMINGO","ACUEDUCTO","OPERATIVA","EMPRESA DE SERVICIOS PUBLICOS DOMICILIARIOS DE ACUEDUCTO, ALCANTARILLADO Y ASEO, SANTO DOMINGO S.A. E.S.P","ANTIOQUIA","SANTO DOMINGO","CARRERA 16 N 14-40","8621071","gerencia@espsantodomingo-antioquia.gov.co","Registro por la ESP","JUAN CAMILO ACEVEDO ARANGO","SOCIEDADES (EMPRESA DE SERVICIOS PUBLICOS)","MENOR O IGUAL A 2500 USUARIOS"
"ANTIOQUIA","SAN PEDRO DE LOS MILAGROS","ACUEDUCTO","OPERATIVA","ASOCIACIÓN DE USUARIOS  DEL ACUEDUCTO  DE OVEJAS","ANTIOQUIA","SAN PEDRO DE LOS MILAGROS","Corregimiento de Ovejas - San Pedro- Antioquia","2299600","acueductoovejas@gmail.com","Registro por la ESP","MARIA PAULA QUINTERO RODRIGUEZ","ORGANIZACION AUTORIZADA","MENOR O IGUAL A 2500 USUARIOS"
"ANTIOQUIA","SANTA BARBARA","ACUEDUCTO","OPERATIVA","ASOCIACION DE USUARIOS DEL ACUEDUCTO MORROPLANCHO","ANTIOQUIA","SANTA BARBARA","VEREDA MORROPLANCHO","8464165","luisjaramillo648@hotmail.com","Registro por la ESP","JHON DAVY GUTIERREZ BEDOYA","ORGANIZACION AUTORIZADA","HASTA 2500 SUSCRIPTORES"
"ANTIOQUIA","CIUDAD BOLIVAR","ACUEDUCTO","OPERATIVA","ASOCIACION ACOLINDA","ANTIOQUIA","CIUDAD BOLIVAR","Calle 52 No 72 - 58","8411285","acolinda1234@yahoo.es","Registro por la ESP","MARIO DE JESUS BUSTAMANTE  GONZALEZ","ORGANIZACION AUTORIZADA","HASTA 2500 SUSCRIPTORES"
"ANTIOQUIA","SAN VICENTE FERRER","ACUEDUCTO","OPERATIVA","ASOCIACION DE USUARIOS DEL ACUEDUCTO DE CHAPARRAL","ANTIOQUIA","SAN VICENTE FERRER","VEREDA CHAPARRAL","5303120","asuachapa1@hotmail.com","Registro por la ESP","SAMUEL MARTINEZ  RODRIGUEZ","ORGANIZACION AUTORIZADA","MENOR O IGUAL A 2500 USUARIOS"
"ANTIOQUIA","SANTA BARBARA","ACUEDUCTO","OPERATIVA","CORPORACION ACUEDUCTO MORROPLANCHO PARTE BAJA CAMPAMENTO","ANTIOQUIA","SANTA BARBARA","CALLE 48 C SUR NO. 42D 47","8422406","jumolgo@gmail.com","Registro por la ESP","JUVENAL ANTONIO MOLINA GOMEZ","ORGANIZACION AUTORIZADA","HASTA 2500 SUSCRIPTORES"
"ANTIOQUIA","AMAGA","ACUEDUCTO","OPERATIVA","ASOCIACION DE USUARIOS DEL ACUEDUCTO MULTIVEREDAL CAMILOCE, EL MORRO Y LA MANI, MUNICIPIO DE AMAGA, ANTIOQUIA","ANTIOQUIA","AMAGA","CAMILO CE, SECTOR LA POLKA","8471775","acueductocamiloce@hotmail.com","Registro por la ESP","DIANA CRISTINA BOLIVAR GIRALDO","ORGANIZACION AUTORIZADA","MENOR O IGUAL A 2500 USUARIOS"
"ANTIOQUIA","MONTEBELLO","ACUEDUCTO","OPERATIVA","ASOCIACION DE USUARIOS DE ACUEDUCTO VEREDA LA GRANJA","ANTIOQUIA","MONTEBELLO","calle 8 # 84 f 220 apt 608 - 605","5026216","angelalvaro62@gmail.com","Registro por la ESP","ANGEL ALVARO LOPEZ RAMIREZ","ORGANIZACION AUTORIZADA","MENOR O IGUAL A 2500 USUARIOS"
"ANTIOQUIA","ENTRERRIOS","ACUEDUCTO","OPERATIVA","UNIDAD DE SERVICIOS PÚBLICOS DEL MUNICIPIO DE ENTRERRIOS","ANTIOQUIA","ENTRERRIOS","CALLE 10A 11-28","5670411","servicios@entrerrios-antioquia.gov.co","Registro por la ESP","WEIMAR VILLA TOBON","MUNICIPIO (PRESTACIÓN DIRECTA)","MENOR O IGUAL A 2500 USUARIOS"
"ANTIOQUIA","RIONEGRO","ACUEDUCTO","OPERATIVA","ASOCIACION DE USUARIOS DEL ACUEDUCTO DE PONTEZUELA","ANTIOQUIA","RIONEGRO","VEREDA PONTEZUELA","5630784","auapontezuela@gmail.com","Registro por la ESP","JORGE ALONSO TURBAY CEBALLOS","ORGANIZACION AUTORIZADA","MENOR O IGUAL A 2500 USUARIOS"
"ANTIOQUIA","OLAYA","ACUEDUCTO","OPERATIVA","UNIDAD DE SERVICIOS PUBLICOS DOMICILIARIOS MUNICIPIO DE OLAYA - ANTIOQUIA","ANTIOQUIA","OLAYA","calle 10 N 10 - 40","8550007","julianhenao91@gmail.com","Registro por la ESP","JOSE HUMBERTO CARDONA GONZALEZ","MUNICIPIO (PRESTACIÓN DIRECTA)","MENOR O IGUAL A 2500 USUARIOS"
"ANTIOQUIA","NARINO","ACUEDUCTO","CANCELACION","UNIDAD DE SERVICIOS PUBLICOS NARIÑO ANTIOQUIA","ANTIOQUIA","NARINO","CALLE 10 # 10-17","8680179","espdenarino@gmail.com","Registro por la ESP","CARLOS ARTURO MARIN LONDONO",,
"ANTIOQUIA","RETIRO","ACUEDUCTO","OPERATIVA","CORPORACION USUARIOS DEL  ACUEDUCTO CARRIZALES  PARTE  ALTA","ANTIOQUIA","RETIRO","vereda  carrizales","3576807","verajaime707@gmail.com","Registro por la ESP","ANGEL JOSE SILVA PINEDA","ORGANIZACION AUTORIZADA","MENOR O IGUAL A 2500 USUARIOS"
"ANTIOQUIA","SAN PEDRO DE LOS MILAGROS","ACUEDUCTO","OPERATIVA","ASOCIACIÓN DE USUARIOS DEL ACUEDUCTO VEREDA ALTO MEDINA DE SAN PEDRO DE LOS MILAGROS","ANTIOQUIA","SAN PEDRO DE LOS MILAGROS","VEREDA ALTO DE MEDINA","8686173","acueductoaltomedina@gmail.com","Registro por la ESP","AMANDA DE JESUS GONZALEZ AGUDELO","ORGANIZACION AUTORIZADA","MENOR O IGUAL A 2500 USUARIOS"
"ANTIOQUIA","GIRARDOTA","ACUEDUCTO","OPERATIVA","Asociación de Usuarios del Acueducto vereda La Palma Municipio de Girardota","ANTIOQUIA","GIRARDOTA","Vereda La Palma","4675125","jguz51@latinmail.com","Registro por la ESP","JESUS ANIBAL RUA CATAÑO","ORGANIZACION AUTORIZADA","HASTA 2500 SUSCRIPTORES"
"ANTIOQUIA","SALGAR","ACUEDUCTO","OPERATIVA","EMPRESAS PUBLICAS DE SALGAR  S.A. E.S.P.","ANTIOQUIA","SALGAR","Calle 30 # 32-34","8442476","gerencia@empresaspublicasdesalgar.gov.co","Registro por la ESP","ANDRES FELIPE PINEDA CEBALLOS","SOCIEDADES (EMPRESA DE SERVICIOS PUBLICOS)","MENOR O IGUAL A 2500 USUARIOS"
"ANTIOQUIA","ANGELOPOLIS","ACUEDUCTO","OPERATIVA","JUNTA DE SERVICIOS PÚBLICOS DEL MUNICIPIO DE ANGELOPOLIS","ANTIOQUIA","ANGELOPOLIS","Calle 10 Palacio Municipal","8421793","serviciospublicos@angelopolis-antioquia.gov.co","Registro por la ESP","JAIME ALBERTO GOMEZ GOMEZ","MUNICIPIO (PRESTACIÓN DIRECTA)","MENOR O IGUAL A 2500 USUARIOS"
"ANTIOQUIA","SAN CARLOS","ACUEDUCTO","OPERATIVA","UNIDAD DE SERVICIOS PUBLICOS DOMICILIARIOS DEL MUNICIPIO DE SAN CARLOS AGUAS Y ASEO DEL TABOR","ANTIOQUIA","SAN CARLOS","Calle 19 No. 18-71","8358039","datehortua19@gmail.com","Registro por la ESP","MARY LUZ QUINTERO DUQUE","MUNICIPIO (PRESTACIÓN DIRECTA)","DESDE 2501 HASTA 5000 USUARIOS"
"ANTIOQUIA","GUARNE","ACUEDUCTO","OPERATIVA","ASOCIACION DE USUARIOS DEL ACUEDUCTO DE LA VEREDA LA BRIZUELA","ANTIOQUIA","GUARNE","VEREDA LA BRIZUELA","5517004","yereva15@gmail.com","Registro por la ESP","DAGLEN IGNACIO ARBELAEZ GALLEGO","ORGANIZACION AUTORIZADA","MENOR O IGUAL A 2500 USUARIOS"
"ANTIOQUIA","PENOL","ACUEDUCTO","OPERATIVA","ASOCIACION DE USUARIOS DEL ACUEDUCTO EL CHILCO- CHIQUINQUIRA Y LA MESETA","ANTIOQUIA","PENOL","VEREDA EL CHILCO","8515488","juliogiraldo0607@yahoo.es","Registro por la ESP","JULIO ADOLFO GIRALDO  MARIN","ORGANIZACION AUTORIZADA","HASTA 2500 SUSCRIPTORES"
"ANTIOQUIA","PENOL","ACUEDUCTO","OPERATIVA","ASOCIACION DE USUARIOS ACUEDUCTO HELIDA CONCORDIA","ANTIOQUIA","PENOL","TRANSVERSAL 15A # 23A-21 (301), EL PEÑOL","8515136","achelidaconcordia@hotmail.com","Registro por la ESP","LUIS ALBERTO RAMIREZ SALAZAR","ORGANIZACION AUTORIZADA","MENOR O IGUAL A 2500 USUARIOS"
"ANTIOQUIA","SABANETA","ACUEDUCTO","OPERATIVA","ASOCIACION DE USUARIOS DE ACUEDUCTO DE LA INMACULADA DEL MUNICIPIO DE SABANETA","ANTIOQUIA","SABANETA","carrera 33 no. 72 sur 265","5967705","inmaculadasabaneta@gamial.com","Registro por la ESP","LILIAN SANCHEZ","ORGANIZACION AUTORIZADA","HASTA 2500 SUSCRIPTORES"
"ANTIOQUIA","JERICO","ACUEDUCTO","OPERATIVA","ASOCIACIÓN DE USUARIOS DEL ACUEDUCTO MULTIVEREDAL GUACAMAYAL  LA LEONA","ANTIOQUIA","JERICO","VEREDA GUACAMAYAL","8525165","multiedesa@gmail.com","Registro por la ESP","RODRIGO DE JESUS MORALES  BLANDON","ORGANIZACION AUTORIZADA","MENOR O IGUAL A 2500 USUARIOS"
"ANTIOQUIA","EBEJICO","ACUEDUCTO","OPERATIVA","EMPRESA DE SERVICIOS PUBLICOS DE EBEJICO E.S.P.E.","ANTIOQUIA","EBEJICO","Cra 22 No 20  22","8562859","espesui2020@gmail.com","Registro por la ESP","JUAN DAVID BETANCUR BEDOYA","EMPRESA INDUSTRIAL Y COMERCIAL DEL ESTADO","MENOR O IGUAL A 2500 USUARIOS"
"ANTIOQUIA","CACERES","ACUEDUCTO","OPERATIVA","AGUASCOL ARBELAEZ S.A. E.S.P.","ANTIOQUIA","MEDELLIN","CALLE 42 B No. 63 C 51","2350111","diradministrativo@aguascol.com","Registro por la ESP","HERNAN DARIO PEREZ LOZANO","SOCIEDADES (EMPRESA DE SERVICIOS PUBLICOS)","MAYOR O IGUAL A 5001 USUARIOS"
"ANTIOQUIA","CAUCASIA","ACUEDUCTO","OPERATIVA","AGUASCOL ARBELAEZ S.A. E.S.P.","ANTIOQUIA","MEDELLIN","CALLE 42 B No. 63 C 51","2350111","diradministrativo@aguascol.com","Registro por la ESP","HERNAN DARIO PEREZ LOZANO","SOCIEDADES (EMPRESA DE SERVICIOS PUBLICOS)","MAYOR O IGUAL A 5001 USUARIOS"
"ANTIOQUIA","NECHI","ACUEDUCTO","OPERATIVA","AGUASCOL ARBELAEZ S.A. E.S.P.","ANTIOQUIA","MEDELLIN","CALLE 42 B No. 63 C 51","2350111","diradministrativo@aguascol.com","Registro por la ESP","HERNAN DARIO PEREZ LOZANO","SOCIEDADES (EMPRESA DE SERVICIOS PUBLICOS)","MAYOR O IGUAL A 5001 USUARIOS"
"ANTIOQUIA","TARAZA","ACUEDUCTO","OPERATIVA","AGUASCOL ARBELAEZ S.A. E.S.P.","ANTIOQUIA","MEDELLIN","CALLE 42 B No. 63 C 51","2350111","diradministrativo@aguascol.com","Registro por la ESP","HERNAN DARIO PEREZ LOZANO","SOCIEDADES (EMPRESA DE SERVICIOS PUBLICOS)","MAYOR O IGUAL A 5001 USUARIOS"
"ANTIOQUIA","EL CARMEN DE VIBORAL","ACUEDUCTO","OPERATIVA","ASOCIACIÓN DE SOCIOS DEL ACUEDUCTO LA PALMA RIVERA ALTO GRANDE","ANTIOQUIA","EL CARMEN DE VIBORAL","calle 29 No. 28-46","5436248","lestelaeg@hotmail.com","Registro por la ESP","ISNELIA DEL SOCORRO GOMEZ ZULUAGA","ORGANIZACION AUTORIZADA","HASTA 2500 SUSCRIPTORES"
"ANTIOQUIA","EL CARMEN DE VIBORAL","ACUEDUCTO","OPERATIVA","ASOCIACION DE USUARIOS DEL ACUEDUCTO LA AURORA VIBORAL","ANTIOQUIA","EL CARMEN DE VIBORAL","CALLE 33 No 30-60","5430827","aguaselcarmen@gmail.com","Registro por la ESP","HERNAN DARIO RAMIREZ MORENO","ORGANIZACION AUTORIZADA","MENOR O IGUAL A 2500 USUARIOS"
"ANTIOQUIA","COPACABANA","ACUEDUCTO","OPERATIVA","ASOCIACION DE USUARIOS ACUEDUCTO LA TOLDA","ANTIOQUIA","COPACABANA","CL 45E 73 31","2748342","tobon.monica@hotmail.com","Registro por la ESP","LUIS FERNANDO MUNOZ SIERRA","ORGANIZACION AUTORIZADA","MENOR O IGUAL A 2500 USUARIOS"
"ANTIOQUIA","GIRARDOTA","ACUEDUCTO","OPERATIVA","ASOCIACION CAMPESINA NO NACIONAL DE USUARIOS DEL ACUEDUCTO Y ALCANTARILLADO DE LA VEREDA PORTACHUELO DEL MUNICIPIO DE GIRARDOTA DEPARTAMENTO DE ANTIOQUIA","ANTIOQUIA","GIRARDOTA","vereda portachuelo","2896836","gusta707@gmail.com","Registro por la ESP","RAMON DARIO MONSALVE  CATANO","ORGANIZACION AUTORIZADA","MENOR O IGUAL A 2500 USUARIOS"
"ANTIOQUIA","AMAGA","ACUEDUCTO","OPERATIVA","ASOCIACION DE USUARIOS DEL ACUEDUCTO LOS ALJIBES","ANTIOQUIA","AMAGA","CARRERA 51 Nº46-30","8473420","helcanocortes@gmail.com","Registro por la ESP","MARIO DE JESUS CANO  HOLGUIN","ORGANIZACION AUTORIZADA","MENOR O IGUAL A 2500 USUARIOS"
"ANTIOQUIA","COCORNA","ACUEDUCTO","OPERATIVA","ASOCOCORNA","ANTIOQUIA","COCORNA","vereda san jose","3122449","ASOCCORNA@GMAIL.COM","Registro por la ESP","JAIRO ARTURO MONTOYA ZULUAGA","ORGANIZACION AUTORIZADA","HASTA 2500 SUSCRIPTORES"
"ANTIOQUIA","ENTRERRIOS","ACUEDUCTO","OPERATIVA","ASOCIACION DE USUARIOS PROPIETARIOS DEL ACUEDUCTO MULTIVEREDAL LA VETA E.S.P","ANTIOQUIA","ENTRERRIOS","CARRERRA 13 N 12-100","8671109","acueductolaveta@hotmail.com","Registro por la ESP","LUIS ARGIRO LOPERA AVENDANO","ORGANIZACION AUTORIZADA","MENOR O IGUAL A 2500 USUARIOS"
"ANTIOQUIA","FREDONIA","ACUEDUCTO","OPERATIVA","ASOCIACION DE USUARIOS DEL ACUEDUCTO LA CORDILLERA MUNICIPIO DE FREDONIA","ANTIOQUIA","FREDONIA","VEREDA LA CORDILLERA","3148152","acueductolacordillera@gmail.com","Registro por la ESP","MIRYAM DEL SOCORRO MONTOYA DE GARCIA","ORGANIZACION AUTORIZADA","MENOR O IGUAL A 2500 USUARIOS"
"ANTIOQUIA","CAICEDO","ACUEDUCTO","OPERATIVA","ASOCIACIÓN DE USUARIOS DEL ACUEDUCTO LA SOLEDAD MUNICIPIO DE CAICEDO","ANTIOQUIA","CAICEDO","CLL 5 N 4-01","8572002","YEREVA@GMAIL.COM","Registro por la ESP","ROBER ERNEY  CARO  LEZCANO","ORGANIZACION AUTORIZADA","MENOR O IGUAL A 2500 USUARIOS"
"ANTIOQUIA","CAICEDO","ACUEDUCTO","OPERATIVA","ASOCIACIÓN DE USUARIOS DEL ACUEDUCTO EL ENCANTO MUNICIPIO DE CAICEDO","ANTIOQUIA","CAICEDO","VEREDA EL ENCANTO","8572002","luisfernando1998@gmail.com","Registro por la ESP","JEISON ESNEIDER PALACIO RUEDA","ORGANIZACION AUTORIZADA","MENOR O IGUAL A 2500 USUARIOS"
"ANTIOQUIA","GUARNE","ACUEDUCTO","OPERATIVA","ASOCIACION DE SUSCRIPTORES ACUEDUCTO MULTIVEREDAL EL COLORADO ASUCOL","ANTIOQUIA","GUARNE","CARRERA 50 No 42-100 local 231","5676158","gusta707@gmail.com","Registro por la ESP","JORGE ALBERTO ZAPATA  ORTIZ","ORGANIZACION AUTORIZADA","MENOR O IGUAL A 2500 USUARIOS"
"ANTIOQUIA","RIONEGRO","ACUEDUCTO","OPERATIVA","ASOCIACION LIBARDO GONZALEZ E. ACUEDUCTO Y ALCANTARILLADO","ANTIOQUIA","RIONEGRO","VEREDA SANTA ANA OJO DE AGUA","5661133","acueducto.ajodeagua@hotmail.com","Registro por la ESP","BEATRIZ ELENA COLORADO OSORIO","ORGANIZACION AUTORIZADA","HASTA 2500 SUSCRIPTORES"
"ANTIOQUIA","RIONEGRO","ACUEDUCTO","OPERATIVA","CORPORACION CIVICA SAN LUIS SANTA BARBARA","ANTIOQUIA","RIONEGRO","VDA SANTA BARBARA","4083457","c.cbarbara@hotmail.com","Registro por la ESP","JOSE RAUL VANEGAS MONTOYA","ORGANIZACION AUTORIZADA","MENOR O IGUAL A 2500 USUARIOS"
"ANTIOQUIA","DABEIBA","ACUEDUCTO","OPERATIVA","ASOCIACIÓN DE USUARIOS DEL ACUEDUCTO ALBAPALAR","ANTIOQUIA","DABEIBA","BARRIO ALFONSO LÓPEZ","8590374","asudapalar05@yahoo.com","Registro por la ESP","GUSTAVO DE JESÚS BORJA GUZMÁN","ORGANIZACION AUTORIZADA","HASTA 2500 SUSCRIPTORES"
"ANTIOQUIA","CALDAS","ACUEDUCTO","OPERATIVA","JUNTA DE ACCION COMUNAL VEREDA SALADA PARTE BAJA","ANTIOQUIA","CALDAS","CALLE 127 SUR #42-53 CALDAS","4195069","jacsaladapartebaja40@hotmail.com","Registro por la ESP","CLAUDIA ROSA BOHORQUEZ HERNANDEZ","ORGANIZACION AUTORIZADA","MENOR O IGUAL A 2500 USUARIOS"
"ANTIOQUIA","GUARNE","ACUEDUCTO","OPERATIVA","ASOCIACION DE SUSCRIPTORES AGUAS LA CHORRERA","ANTIOQUIA","GUARNE","VEREDA LA MOSQUITA","4798990","verajaime707@gmail.com","Registro por la ESP","DANIEL SANTIAGO ALZATE OSPINA","ORGANIZACION AUTORIZADA","MENOR O IGUAL A 2500 USUARIOS"
"ANTIOQUIA","CACERES","ACUEDUCTO","CANCELACION","JUNTA MUNICIPAL DE SERVICIOS PUBLICOS DEL MUNICIPIO DE CACERES","ANTIOQUIA","CACERES","Alcaldía Cáceres - Parque Principal","8362201","planeacion@caceres-antioquia.gov.co","Registro por la ESP","JOSE MERCEDES BERRIO BERRIO",,
"ANTIOQUIA","RIONEGRO","ACUEDUCTO","OPERATIVA","COOPERATIVA YARUMAL DE AGUAS","ANTIOQUIA","RIONEGRO","VEREDA YARUMAL DE RIONEGRO","5360118","yarumaguas@une.net.co","Registro por la ESP","BIBIANA  ECHEVERRI RIOS","ORGANIZACION AUTORIZADA","MENOR O IGUAL A 2500 USUARIOS"
"ANTIOQUIA","EL CARMEN DE VIBORAL","ACUEDUCTO","OPERATIVA","ASOCIACION DE SOCIOS DEL ACUEDUCTO BOQUERON DEL MUNICIPIO DE EL CARMEN DE VIBORAL","ANTIOQUIA","EL CARMEN DE VIBORAL","Cll 33 No30-60","5430827","aguaselcarmen@gmail.com","Registro por la ESP","MONICA LILIANA GALLEGO PEREZ","ORGANIZACION AUTORIZADA","MENOR O IGUAL A 2500 USUARIOS"
"ANTIOQUIA","SANTA ROSA DE OSOS","ACUEDUCTO","OPERATIVA","ASOCIACION DE USUARIOS DEL ACUEDUCTO SAN ISIDRO DEL MUNICIPIO DE SANTA ROSA DE OSOS","ANTIOQUIA","SANTA ROSA DE OSOS","vereda san isidro","8602087","biame_74@hotmail.com","Registro por la ESP","ELKLIN ENRIQUE  GOMEZ MONTOYA","ORGANIZACION AUTORIZADA","HASTA 2500 SUSCRIPTORES"
"ANTIOQUIA","AMAGA","ACUEDUCTO","OPERATIVA","ASOCIACION DE USUARIOS DEL ACUEDUCTO DE LA VEREDA MANI DE LAS CASAS","ANTIOQUIA","AMAGA","VEREDA MANI DE LAS CASAS","8470252","acueductomanidelascasas@gmail.com","Registro por la ESP","MARIA ELENA JIMENEZ","ORGANIZACION AUTORIZADA","MENOR O IGUAL A 2500 USUARIOS"
"ANTIOQUIA","ANZA","ACUEDUCTO","OPERATIVA","ASOCIACION DE USUARIOS DEL ACUEDUCTO AGUAS UNIDAS DE ANZA","ANTIOQUIA","ANZA","VEREDA LOMITAS","8522082","aguasunidasdeanza@gmail.com","Registro por la ESP","CARLOS EDUARDO ARANGO CHAVARRIAGA","ORGANIZACION AUTORIZADA","HASTA 2500 SUSCRIPTORES"
"ANTIOQUIA","RETIRO","ACUEDUCTO","OPERATIVA","CORPORACIÓN DE USUARIOS DEL ACUEDUCTO EL PORTENTO","ANTIOQUIA","RETIRO","VEREDA EL PORTENTO","3576807","verajaime707@gmail.com","Registro por la ESP","LEON JAIRO RODRIGUEZ  CORREA","ORGANIZACION AUTORIZADA","MENOR O IGUAL A 2500 USUARIOS"
"ANTIOQUIA","RIONEGRO","ACUEDUCTO","OPERATIVA","CORPORACION ACUEDUCTO GALICIA J.H.G.N.","ANTIOQUIA","RIONEGRO","SECTOR TANQUES ELEVADOS GALICIA","3146393","corporacionacueductogalicia@gmail.com","Registro por la ESP","MARIO AUGUSTO AGUDELO HINCAPIE","ORGANIZACION AUTORIZADA","MENOR O IGUAL A 2500 USUARIOS"
"ANTIOQUIA","TURBO","ACUEDUCTO","OPERATIVA","ASOCIACIÓN DE USUARIOS DEL ACUEDUCTO MULTIVEREDAL PLATANEROS UNIDOS","ANTIOQUIA","TURBO","Vereda La pola - Municipio de Turbo","8206119","jamartinez111@epm.net.co","Registro por la ESP","RAMIRO BETIN OSORIO","ORGANIZACION AUTORIZADA","HASTA 2500 SUSCRIPTORES"
"ANTIOQUIA","HELICONIA","ACUEDUCTO","OPERATIVA","ASOCIACION DE USUARIOS DEL ACUEDUCTO MULTIVEREDAL TRES MONTAÑAS","ANTIOQUIA","HELICONIA","Vereda Palo Blanco","8422857","montresmulacue@hotmail.com","Registro por la ESP","GILDARDO ANTONIO ARTEAGA","ORGANIZACION AUTORIZADA","MENOR O IGUAL A 2500 USUARIOS"
"ANTIOQUIA","AMAGA","ACUEDUCTO","OPERATIVA","ASOCIACIÓN DE USUARIOS DEL ACUEDUCTO NARANGITOS","ANTIOQUIA","AMAGA","VEREDA TRAVESIAS SECTOR NARANJITOS AMAGÁ","8472122","naranjitos@gmail.com","Registro por la ESP","DIOSELINA RENDON LOPEZ","ORGANIZACION AUTORIZADA","HASTA 2500 SUSCRIPTORES"
"ANTIOQUIA","SAN VICENTE FERRER","ACUEDUCTO","OPERATIVA","ASOCIACION DE USURARIOS DEL ACUEDUCTO MULTIVEREDAL PIEDRA GORDA","ANTIOQUIA","SAN VICENTE FERRER","CENTRO CCIAL BULEVAR DEL APRQUE","2507440","FDOJALZATE05@HOTMAIL.COM","Registro por la ESP","FERNANDO JAVIER ALZATE FRANCO","ORGANIZACION AUTORIZADA","MENOR O IGUAL A 2500 USUARIOS"
"ANTIOQUIA","SAN PEDRO DE LOS MILAGROS","ACUEDUCTO","OPERATIVA","ASOCIACION DE USUARIOS DEL ACUEDUCTO DE LA VEREDA LA PULGARINA DEL MUNICIPIO DE SAN PEDRO DE LOS MILAGROS","ANTIOQUIA","SAN PEDRO DE LOS MILAGROS","CALLE 50 49B- 44 PARQUE PRINCIPAL","8687417","registrobalance@gmail.com","Registro por la ESP","ALBEIRO BETANCUR CORREA","ORGANIZACION AUTORIZADA","HASTA 2500 SUSCRIPTORES"
"ANTIOQUIA","HELICONIA","ACUEDUCTO","OPERATIVA","ASOCIACION DE USUARIOS DEL ACUEDUCTO MULTIVEREDAL DEL CORREGIMIENTO ALTO DEL CORRAL","ANTIOQUIA","HELICONIA","CORREGIMIENTO ALTO DEL CORRAL","8549604","restrepocontador@gmail.com","Registro por la ESP","MISSURY ADELA TEJADA PATIO","ORGANIZACION AUTORIZADA","MENOR O IGUAL A 2500 USUARIOS"
"ANTIOQUIA","COPACABANA","ACUEDUCTO","OPERATIVA","CORPORACION ACUEDUCTO MULTIVEREDAL LA CHUSCALA","ANTIOQUIA","COPACABANA","CALLE 49 46C 59","4013847","acueductochuscala@yahoo.es","Registro por la ESP","GUILLERMO LEON MUNOZ CASTANO","ORGANIZACION AUTORIZADA","MENOR O IGUAL A 2500 USUARIOS"
"ANTIOQUIA","BARBOSA","ACUEDUCTO","OPERATIVA","ASOCIACION DE ACUEDCUTOS  LOMITAS- PRIMAVERA DE BARBOSA","ANTIOQUIA","BARBOSA","Vereda La Lomita Corregimiento Hatillo Barbosa, Antioquia, Colombia","4070524","ASOCIACIONLOMITASPRIMAVERA@GMAIL.COM","Registro por la ESP","PEDRO NEL MORALES MORALES","ORGANIZACION AUTORIZADA","MENOR O IGUAL A 2500 USUARIOS"
"ANTIOQUIA","SONSON","ACUEDUCTO","OPERATIVA","ASOCIACION DE USUARIOS DEL ACUEDUCTO, ALCANTARILLADO Y ASEO DE SAN MIGUEL","ANTIOQUIA","SONSON","Carrera 2 No. 29 - 53","8324064","acueductosanmiguel@yahoo.es","Registro por la ESP","ROCIO DEL SOCORRO CESPEDES DE RUA","ORGANIZACION AUTORIZADA","MENOR O IGUAL A 2500 USUARIOS"
"ANTIOQUIA","AMAGA","ACUEDUCTO","OPERATIVA","ASOCIACION DE USUARIOS DEL ACUEDUCTO DE LA VEREDA EL MORRO","ANTIOQUIA","AMAGA","VEREDA EL MORRO","8472592","acueductomorro@hotmail.com","Registro por la ESP","ALICIA DEL SOCORRO GRANADOS OROZCO","ORGANIZACION AUTORIZADA","HASTA 2500 SUSCRIPTORES"
"ANTIOQUIA","AMAGA","ACUEDUCTO","OPERATIVA","JUNTA ADMINISTRADORA DEL ACUEDUCTO LA FLORIDA","ANTIOQUIA","AMAGA","VEREDA LA CLARITA SECTOR LA FLORIDA","8421561","acueductolaflorida@gmail.com","Registro por la ESP","CARLOS ALBERTO ATEHORTUA GOMEZ","ORGANIZACION AUTORIZADA","HASTA 2500 SUSCRIPTORES"
"ANTIOQUIA","SAN JERONIMO","ACUEDUCTO","OPERATIVA","CORPORACION VEREDAL LLANOS DE SAN JUAN","ANTIOQUIA","SAN JERONIMO","Vereda Llanos de San Juan","8580436","sin@sin.com","Registro por la ESP","JORGE ENRIQUE  GARCIA","ORGANIZACION AUTORIZADA","HASTA 2500 SUSCRIPTORES"
"ANTIOQUIA","LA CEJA","ACUEDUCTO","OPERATIVA","ASOCIACION DE USUARIOS DEL ACUEDUCTO Y O ALCANTARILLADO COLMENAS GARCIA","ANTIOQUIA","LA CEJA","calle 15 B 17 42","5560959","giresco@yahoo.com","Registro por la ESP","GILDARDO BOTERO ECHEVERRI","ORGANIZACION AUTORIZADA","MENOR O IGUAL A 2500 USUARIOS"
"ANTIOQUIA","BARBOSA","ACUEDUCTO","OPERATIVA","ASOCIACION DE USUARIOS DEL ACUEDUCTO DE LA VEREDA PLATANITO","ANTIOQUIA","BARBOSA","VEREDA PLATANITO","4071972","mauriciocas83@hotmail.es","Registro por la ESP","MAURICIO CASTRILLON RODRIGUEZ","ORGANIZACION AUTORIZADA","HASTA 2500 SUSCRIPTORES"
"ANTIOQUIA","GIRARDOTA","ACUEDUCTO","OPERATIVA","ASOCIACION DE USUARIOS DEL ACUEDUCTO MULTIVEREDAL JAMUNDI - EL BARRO","ANTIOQUIA","GIRARDOTA","Calle 5B No. 12B - 31","3377177","asuajabagirardota@gmail.com","Registro por la ESP","JOAQUIN ENRIQUE ZULETA BERRIO","ORGANIZACION AUTORIZADA","MENOR O IGUAL A 2500 USUARIOS"
"ANTIOQUIA","GIRARDOTA","ACUEDUCTO","OPERATIVA","ASOCIACION COMUNITARIA ACUEDUCTO VEREDA SAN DIEGO DEL MUNICIPIO DE GIRARDOTA","ANTIOQUIA","GIRARDOTA","Carrera 15 Nro 5 - 8","2800518","yereva15@gmail.com","Registro por la ESP","ANA ROSA GALLEGO OSORIO","ORGANIZACION AUTORIZADA","MENOR O IGUAL A 2500 USUARIOS"
"ANTIOQUIA","BELMIRA","ACUEDUCTO","OPERATIVA","COMITE EMPRESARIAL JUNTA DE ACUEDUCTO VEREDA LA MIEL","ANTIOQUIA","BELMIRA","CALLE 20 N° 19 - 49","3136808","alcaldiamunicipiobelmira@hotmail.com","Registro por la ESP","GILBERTO LONDOÑO BARRIENTOS","ORGANIZACION AUTORIZADA","HASTA 2500 SUSCRIPTORES"
"ANTIOQUIA","BARBOSA","ACUEDUCTO","OPERATIVA","ASOCIACION DE USUARIOS DEL ACUEDUCTO Y/O ALCANTARILLADO DE LA VEREDA CESTILLAS","ANTIOQUIA","BARBOSA","PALACIO MUNICIPIO DE BARBOSA","4711985","acueductocestillal@hotmail.com","Registro por la ESP","LUZ ELENA  MONTOYA  HENAO","ORGANIZACION AUTORIZADA","HASTA 2500 SUSCRIPTORES"
"ANTIOQUIA","BARBOSA","ACUEDUCTO","OPERATIVA","ASOCIACIÓN DE SUSCRIPTORES DEL ACUEDUCTO MULTIVEREDAL EL ROBLE","ANTIOQUIA","GUARNE","VEREDA LA ENEA GUARNE","8544062","lgcarvajal2009@hotmail.com","Registro por la ESP","HECTOR ISAIAS CASTANO CASTANO","ORGANIZACION AUTORIZADA","MENOR O IGUAL A 2500 USUARIOS"
"ANTIOQUIA","GIRARDOTA","ACUEDUCTO","OPERATIVA","ASOCIACIÓN DE SUSCRIPTORES DEL ACUEDUCTO MULTIVEREDAL EL ROBLE","ANTIOQUIA","GUARNE","VEREDA LA ENEA GUARNE","8544062","lgcarvajal2009@hotmail.com","Registro por la ESP","HECTOR ISAIAS CASTANO CASTANO","ORGANIZACION AUTORIZADA","MENOR O IGUAL A 2500 USUARIOS"
"ANTIOQUIA","GUARNE","ACUEDUCTO","OPERATIVA","ASOCIACIÓN DE SUSCRIPTORES DEL ACUEDUCTO MULTIVEREDAL EL ROBLE","ANTIOQUIA","GUARNE","VEREDA LA ENEA GUARNE","8544062","lgcarvajal2009@hotmail.com","Registro por la ESP","HECTOR ISAIAS CASTANO CASTANO","ORGANIZACION AUTORIZADA","MENOR O IGUAL A 2500 USUARIOS"
"ANTIOQUIA","SAN VICENTE FERRER","ACUEDUCTO","OPERATIVA","ASOCIACIÓN DE SUSCRIPTORES DEL ACUEDUCTO MULTIVEREDAL EL ROBLE","ANTIOQUIA","GUARNE","VEREDA LA ENEA GUARNE","8544062","lgcarvajal2009@hotmail.com","Registro por la ESP","HECTOR ISAIAS CASTANO CASTANO","ORGANIZACION AUTORIZADA","MENOR O IGUAL A 2500 USUARIOS"
"ANTIOQUIA","CARAMANTA","ACUEDUCTO","OPERATIVA","JUNTA DE ACXCION COMUNAL, VEREDA AGUADITA CHIQUITA","ANTIOQUIA","CARAMANTA","VEREDA AGUADITA CHIQUITA","8553358","juntasdeaccioncomunal@gmail.com","Registro por la ESP","JHON FREDY TORRES  GOMEZ","ORGANIZACION AUTORIZADA","HASTA 2500 SUSCRIPTORES"
"ANTIOQUIA","GIRARDOTA","ACUEDUCTO","OPERATIVA","ASOCIACION DE USUARIOS DEL ACUEDUCTO VEREDAL MERCEDES ABREGO DEL MUNICIPIO DE GIRARDOTA","ANTIOQUIA","GIRARDOTA","Vereda Mercedes Abrego","2893293","yereva15@gmail.com","Registro por la ESP","IGNACIO ALFONSO RAVE","ORGANIZACION AUTORIZADA","MENOR O IGUAL A 2500 USUARIOS"
"ANTIOQUIA","GIRARDOTA","ACUEDUCTO","OPERATIVA","ASOCIACION DEL ACUEDUCTO MULTIVEREDAL LOMATICA, VEREDAS LA MATA, EL SOCORRO, LA MATICA, Y LOMA DE LOS OCHOA","ANTIOQUIA","GIRARDOTA","Vereda La Mata","4560370","yereva15@gmail.com","Registro por la ESP","FABIO ALBERTO MONSALVE RAMIREZ","ORGANIZACION AUTORIZADA","MENOR O IGUAL A 2500 USUARIOS"
"ANTIOQUIA","CARAMANTA","ACUEDUCTO","OPERATIVA","JUNTA DE ACCION COMUNAL VEREDA CHIRAPOTO","ANTIOQUIA","CARAMANTA","Vereda Chirapoto","8553358","juntasdeaccioncomunal@gmail.com","Registro por la ESP","LUZ DARY ALVAREZ MONTOYA","ORGANIZACION AUTORIZADA","HASTA 2500 SUSCRIPTORES"
"ANTIOQUIA","CARAMANTA","ACUEDUCTO","OPERATIVA","JUNTAS DE ACCIÓN COMUNAL, VEREDA NARANJAL","ANTIOQUIA","CARAMANTA","Vereda Naranjal","8553358","juntasdeaccioncomunal@gamil.com","Registro por la ESP","JOSE ALDEMAR MONTES SERNA","ORGANIZACION AUTORIZADA","HASTA 2500 SUSCRIPTORES"
"ANTIOQUIA","LA CEJA","ACUEDUCTO","OPERATIVA","ASOCIACION DE USUARIOS DEL ACUEDUCTO Y/O ALCANTARILLADO VEDSAGUEL","ANTIOQUIA","LA CEJA","Vereda San Miguel","5624673","acueductovedsaguel@gmail.com","Registro por la ESP","CARLOS JAIME ARIAS CORREA","ORGANIZACION AUTORIZADA","MENOR O IGUAL A 2500 USUARIOS"
"ANTIOQUIA","LA CEJA","ACUEDUCTO","OPERATIVA","ASOCIACION DE USUARIOS DEL ACUEDUCTO MULTIVEREDAL ROMERAL LA MIEL","ANTIOQUIA","LA CEJA","Calle 20 # 19-14 piso 2","5649987","wiland@misena.edu.co","Registro por la ESP","LEONARDO DE JESUS TOBON MAYA","ORGANIZACION AUTORIZADA","MENOR O IGUAL A 2500 USUARIOS"
"ANTIOQUIA","ENVIGADO","ACUEDUCTO","OPERATIVA","ASOCIACION DE USUARIOS DEL ACUEDUCTO SAN JOSE DEL SECTOR LA MINA Y SAN JOSE","ANTIOQUIA","ENVIGADO","cra 29 A No 40 C sur 79","3313860","ladyyeseniaguerradiez@hotmail.com","Registro por la ESP","LADY YESENIA GUERRA DIEZ","ORGANIZACION AUTORIZADA","HASTA 2500 SUSCRIPTORES"
"ANTIOQUIA","AMAGA","ACUEDUCTO","OPERATIVA","ASOCIACION DE USUARIOS ACUEDUTO VEREDA LA COMUNIDAD, ESP MUNICIPIO DE AMAGA","ANTIOQUIA","AMAGA","CENTRO POBLADO CAMILOCE SECTOR LA COMUNIDAD","8472158","lulu3079@hotmail.com","Registro por la ESP","MARCO JULIO USMA  TORRES","ORGANIZACION AUTORIZADA","HASTA 2500 SUSCRIPTORES"
"ANTIOQUIA","SAN JERONIMO","ACUEDUCTO","OPERATIVA","ASOCIACIÓN DE USUARIOS DEL ACUEDUCTO DE LA VEREDA LOS CEDROS  MUNICIPIO DE SAN JERONIMO DEPARTAMENTO DE ANTIOQUIA","ANTIOQUIA","SAN JERONIMO","Vereda Los Cedros,  Municipio de San Jeronimo","8582024","malvarez@une.net.co","Registro por la ESP","FABIO HERNANDEZ TORRES","ORGANIZACION AUTORIZADA","HASTA 2500 SUSCRIPTORES"
"ANTIOQUIA","NARINO","ACUEDUCTO","OPERATIVA","ASOCIACION DE USUARIOS DEL ACUEDUCTO PUERTO VENUS","ANTIOQUIA","NARINO","CALLE PUERTO VENUS","8680116","asoacuptoven@gmail.com","Registro por la ESP","JOSE NOE RONDON MORALES","ORGANIZACION AUTORIZADA","MENOR O IGUAL A 2500 USUARIOS"
"ANTIOQUIA","AMAGA","ACUEDUCTO","OPERATIVA","ASOCIACION DE USUARIOS DEL ACUEDUCTO VEREDA PUEBLITO DE LOS SANCHEZ","ANTIOQUIA","AMAGA","VDA PUEBLITO DE LOS SANCHEZ","4713702","acueducto@hotmail.com","Registro por la ESP","WILLIAM DE JESÚS VÉLEZ CORTEZ","ORGANIZACION AUTORIZADA","HASTA 2500 SUSCRIPTORES"
"ANTIOQUIA","AMAGA","ACUEDUCTO","OPERATIVA","ASOCIACION DE USUARIOS DEL ACUEDUCTO DE PASONIVEL","ANTIOQUIA","AMAGA","VDA PASONIVEL","3386539","asopasonivel@hotmail.com","Registro por la ESP","DORALBA QUIROS GRANADOS","ORGANIZACION AUTORIZADA","HASTA 2500 SUSCRIPTORES"
"ANTIOQUIA","SAN PEDRO DE LOS MILAGROS","ACUEDUCTO","OPERATIVA","ASOCIACIÓN DE USUARIOS DEL ACUEDUCTO DE LA VEREDA LA PALMA DEL MUNICIPIO DE  SAN PEDRO DE LOS MILAGROS","ANTIOQUIA","SAN PEDRO DE LOS MILAGROS","VEREDA LA PALMA","8513456","snpeal01@edatel.net.co","Registro por la ESP","MARTA ALICIA URIBE LONDOÑO","ORGANIZACION AUTORIZADA","HASTA 2500 SUSCRIPTORES"
"ANTIOQUIA","BARBOSA","ACUEDUCTO","OPERATIVA","ASOCIACION DE USUARIOS DEL ACUEDUCTO Y/O ALCANTARILLADO DE LA VEREDA POPALITO -ASUAP-","ANTIOQUIA","BARBOSA","CR. 19 # 13- 15","4061012","claudiapatriciasosa45@gmail.com","Registro por la ESP","ALBERTO ZULUAGA YEPES","ORGANIZACION AUTORIZADA","MENOR O IGUAL A 2500 USUARIOS"
"ANTIOQUIA","BARBOSA","ACUEDUCTO","OPERATIVA","ASOCIACION DE USUARIOS DEL ACUEDUCTO Y/O ALCANTARILLADO DE EL PARAISO CORREGIMIENTO DE EL HATILLO, MUNICIPIO DE BARBOSA, DEPARTAMENTO DE ANTIOQUIA","ANTIOQUIA","BARBOSA","vereda Paraiso","4070836","asoacueductoparaiso@gmail.com","Registro por la ESP","OLGA ESENEDA BEDOYA TORO","ORGANIZACION AUTORIZADA","MENOR O IGUAL A 2500 USUARIOS"
"ANTIOQUIA","VIGIA DEL FUERTE","ACUEDUCTO","OPERATIVA","MUNICIPIO DE VIGIA DEL FUERTE","ANTIOQUIA","VIGIA DEL FUERTE","CARRERA 2 BARRIO FATIMA","8678080","contactenos@vigiadelfuerte-antioquia.gov.co","Registro por la ESP","FELIX NEFTELIO SANTOS PESTANA","MUNICIPIO (PRESTACIÓN DIRECTA)","MENOR O IGUAL A 2500 USUARIOS"
"ANTIOQUIA","AMAGA","ACUEDUCTO","OPERATIVA","ASOCIACION DE USUARIOS DEL ACUEDUCTO VEREDA PUEBLITO DE SAN JOSE","ANTIOQUIA","AMAGA","VEREDA PUEBLITO SAN JOSE","8422668","pueblitosj@hotmail.com","Registro por la ESP","JAIRO ANTONIO TABORDA BERRIO","ORGANIZACION AUTORIZADA","HASTA 2500 SUSCRIPTORES"
"ANTIOQUIA","EBEJICO","ACUEDUCTO","OPERATIVA","ASOCIACION DE USUARIOS DEL ACUEDUCTO MULTIVEREDAL DEL MUNICIPIO DE EBEJICO","ANTIOQUIA","EBEJICO","CRA 22 17-13 Plaza de mercado","8562494","amemultiveredal@hotmail.com","Registro por la ESP","ALVARO DE JESUS  BETANCUR GUTIERREZ","ORGANIZACION AUTORIZADA","MENOR O IGUAL A 2500 USUARIOS"
"ANTIOQUIA","RIONEGRO","ACUEDUCTO","OPERATIVA","D. INGENIERIA LIMITADA","SANTANDER","BUCARAMANGA","CALLE 51 N° 35 - 28 INTERIOR 100 OFICINA 309","6431155","jhon.salcedo@dingenieria.com","Registro por la ESP","CESAR AUGUSTO DUARTE GARZÓN","PRESTADORES FUERA DEL ART. 15 LSPD","HASTA 2500 SUSCRIPTORES"
"ANTIOQUIA","AMAGA","ACUEDUCTO","OPERATIVA","ASOCIACION DE USUARIOS DE ACUEDUCTO LA ESPERANZA","ANTIOQUIA","AMAGA","VEREDA EL CEDRO, SECTOR LAS FALDAS","8472915","vanegaspedropablo@yahoo.es","Registro por la ESP","PEDRO PABLO OSSA VANEGAS","ORGANIZACION AUTORIZADA","HASTA 2500 SUSCRIPTORES"
"ANTIOQUIA","SOPETRAN","ACUEDUCTO","OPERATIVA","AGUAS DE SAN NICOLAS S.A.  E.S.P.","ANTIOQUIA","SOPETRAN","VEREDA YARUMAL","4798138","gerencia@aguasdesannicolas.com","Registro por la ESP","RONALD MEJIA BUITRAGO","SOCIEDADES (EMPRESA DE SERVICIOS PUBLICOS)","MENOR O IGUAL A 2500 USUARIOS"
"ANTIOQUIA","LA PINTADA","ACUEDUCTO","OPERATIVA","EMPRESAS PÚBLICAS DE LA PINTADA S.A.  E.S.P.","ANTIOQUIA","LA PINTADA","Carrera 31 29 - 57","8453460","eppisaesp@gmail.com","Registro por la ESP","JOHN BYRON ARIAS CARDONA","SOCIEDADES (EMPRESA DE SERVICIOS PUBLICOS)","MENOR O IGUAL A 2500 USUARIOS"
"ANTIOQUIA","SAN VICENTE FERRER","ACUEDUCTO","OPERATIVA","ASOCIACION DE SUSCRIPTORES DEL ACUEDUCTO MULTIVEREDAL SAN ANTONIO ONG","ANTIOQUIA","SAN VICENTE FERRER","Vereda San Antonio","8545176","acueductomsa@hotmail.com","Registro por la ESP","JOHN JAIRO MARIN ARBELAEZ","ORGANIZACION AUTORIZADA","MENOR O IGUAL A 2500 USUARIOS"
"ANTIOQUIA","RIONEGRO","ACUEDUCTO","OPERATIVA","ASOCIACION DE USUARIOS DEL ACUEDUCTO SIERRALTA CHUSCALITO ALTAMONTE Y MONTICELO","ANTIOQUIA","RIONEGRO","Vereda Tablacito Parte Alta","3113036","acueductosaltamonte@gmail.com","Registro por la ESP","ALVARO LAFAURIE RESTREPO","ORGANIZACION AUTORIZADA","MENOR O IGUAL A 2500 USUARIOS"
"ANTIOQUIA","VEGACHI","ACUEDUCTO","OPERATIVA","EMPRESAS PUBLICAS DE VEGACHI S.A. E.S.P.","ANTIOQUIA","VEGACHI","CRA 50 N° 50A-01 CALLE PRINCIPAL","8305097","epvsaesp@gmail.com","Registro por la ESP","JOSE FERNANDO YEPES RENGIFO","SOCIEDADES (EMPRESA DE SERVICIOS PUBLICOS)","DESDE 2501 HASTA 5000 USUARIOS"
"ANTIOQUIA","CARACOLI","ACUEDUCTO","OPERATIVA","EMPRESA DE SERVICIOS PUBLICOS DOMICILIARIOS DE CARACOLI S.A  E.S.P.","ANTIOQUIA","CARACOLI","CRA 22 Nº 20 04","8336064","serpublicos@caracoli-antioquia.gov.co","Registro por la ESP","PABLO ARTURO CORREA URAN","SOCIEDADES (EMPRESA DE SERVICIOS PUBLICOS)","MENOR O IGUAL A 2500 USUARIOS"
"ANTIOQUIA","HISPANIA","ACUEDUCTO","OPERATIVA","EMPRESAS PUBLICAS DE HISPANIA S.A. E.S.P.","ANTIOQUIA","HISPANIA","Calle 48B N 48-72 LOCAL 101","8432051","paola.manrique.giraldo@gmail.com","Registro por la ESP","SERGIO STIVEN TABORDA ALVAREZ","SOCIEDADES (EMPRESA DE SERVICIOS PUBLICOS)","MENOR O IGUAL A 2500 USUARIOS"
"ANTIOQUIA","LIBORINA","ACUEDUCTO","OPERATIVA","EMPRESA DE SERVICIOS PUBLICOS DOMICILIARIOS DEL MUNICIPIO DE  LIBORINA S.A. E.S.P.","ANTIOQUIA","LIBORINA","Calle  8 No  10 35","8561023","esplibo@gmail.com","Registro por la ESP","WALTER DE JESUS FLOREZ ROJAS","SOCIEDADES (EMPRESA DE SERVICIOS PUBLICOS)","MENOR O IGUAL A 2500 USUARIOS"
"ANTIOQUIA","CISNEROS","ACUEDUCTO","OPERATIVA","EMPRESA DE SERVICIOS PUBLICOS DOMICILIARIOS DEL MUNICIPIO DE CISNEROS S.A. E.S.P.","ANTIOQUIA","CISNEROS","Calle Colombia No 20 - 37","8632098","empresaspublicasdecisneros@gmail.com","Registro por la ESP","JUAN CRISTOBAL GRANDA MARIN","SOCIEDADES (EMPRESA DE SERVICIOS PUBLICOS)","DESDE 2501 HASTA 5000 USUARIOS"
"ANTIOQUIA","HELICONIA","ACUEDUCTO","OPERATIVA","AGUAS DE HELICONIA SA ESP","ANTIOQUIA","HELICONIA","Calle 20 No. 20   31","8549604","aguas@heliconia-antioquia.gov.co","Registro por la ESP","ARLEY DAVID  BEDOYA PENAGOS","SOCIEDADES (EMPRESA DE SERVICIOS PUBLICOS)","MENOR O IGUAL A 2500 USUARIOS"
"ANTIOQUIA","PUEBLORRICO","ACUEDUCTO","OPERATIVA","EMPRESA PUEBLORRIQUEÑA DE ACUEDUCTO, ALCANTARILLADO Y ASEO S.A.  E.S.P","ANTIOQUIA","PUEBLORRICO","carrera 31 Nº 30 - 31","8498274","gerencia@epaaapueblorrico.gov.co","Registro por la ESP","JHON JAIME ZAPATA ARISMENDY","SOCIEDADES (EMPRESA DE SERVICIOS PUBLICOS)","MENOR O IGUAL A 2500 USUARIOS"
"ANTIOQUIA","CIUDAD BOLIVAR","ACUEDUCTO","OPERATIVA","ASOCIACION DE USUARIOS DEL ACUEDUCTO Y ALCANTARILLADO CORREGIMIENTO ALFONSO LOPEZ","ANTIOQUIA","CIUDAD BOLIVAR","carrera 50 49 62","8422934","yanepatri_17@hotmail.com","Registro por la ESP","JHON WALTER BEDOYA HERNANDEZ","ORGANIZACION AUTORIZADA","MENOR O IGUAL A 2500 USUARIOS"
"ANTIOQUIA","VALDIVIA","ACUEDUCTO","OPERATIVA","EMPRESAS PUBLICAS DE VALDIVIA ANTIOQUIA S.A. E.S.P","ANTIOQUIA","VALDIVIA","CARRERA 9 8-14","8360246","empval@hotmail.com","Registro por la ESP","NIDIA PETRONA PARODY RUA","SOCIEDADES (EMPRESA DE SERVICIOS PUBLICOS)","MENOR O IGUAL A 2500 USUARIOS"
"ANTIOQUIA","LA UNION","ACUEDUCTO","OPERATIVA","ASOCIACION DE USUARIOS DEL ACUEDUCTO Y ALCANTARILLADO DEL CORREGIMIENTO DE MESOPOTAMIA","ANTIOQUIA","LA UNION","CORREGIMIENTO MESOPOTAMIA","5624409","acuames@hotmail.com","Registro por la ESP","ALVARO ANTONIO HERRERA VALENCIA","ORGANIZACION AUTORIZADA","HASTA 2500 SUSCRIPTORES"
"ANTIOQUIA","TURBO","ACUEDUCTO","OPERATIVA","OPTIMA DE URABA S.A. E.S.P.","ANTIOQUIA","APARTADO","CRA 103 N°97A-06","8280049","evelez@optimadeuraba.com","Registro por la ESP","JOSE NELSON  JARAMILLO  QUINTERO","SOCIEDADES (EMPRESA DE SERVICIOS PUBLICOS)","MAYOR O IGUAL A 5001 USUARIOS"
"ANTIOQUIA","APARTADO","ACUEDUCTO","OPERATIVA","AGUAS REGIONALES EPM S.A E.S.P","ANTIOQUIA","APARTADO","CALLE 97A No 104-13 BARRIO EL HUMEDAL","8286657","rosa.cordoba@aguasregionales.com","Registro por la ESP","HERNAN ANDRES RAMIREZ  RIOS","SOCIEDADES (EMPRESA DE SERVICIOS PUBLICOS)","MAYOR O IGUAL A 5001 USUARIOS"
"ANTIOQUIA","CAREPA","ACUEDUCTO","OPERATIVA","AGUAS REGIONALES EPM S.A E.S.P","ANTIOQUIA","APARTADO","CALLE 97A No 104-13 BARRIO EL HUMEDAL","8286657","rosa.cordoba@aguasregionales.com","Registro por la ESP","HERNAN ANDRES RAMIREZ  RIOS","SOCIEDADES (EMPRESA DE SERVICIOS PUBLICOS)","MAYOR O IGUAL A 5001 USUARIOS"
"ANTIOQUIA","CHIGORODO","ACUEDUCTO","OPERATIVA","AGUAS REGIONALES EPM S.A E.S.P","ANTIOQUIA","APARTADO","CALLE 97A No 104-13 BARRIO EL HUMEDAL","8286657","rosa.cordoba@aguasregionales.com","Registro por la ESP","HERNAN ANDRES RAMIREZ  RIOS","SOCIEDADES (EMPRESA DE SERVICIOS PUBLICOS)","MAYOR O IGUAL A 5001 USUARIOS"
"ANTIOQUIA","MUTATA","ACUEDUCTO","OPERATIVA","AGUAS REGIONALES EPM S.A E.S.P","ANTIOQUIA","APARTADO","CALLE 97A No 104-13 BARRIO EL HUMEDAL","8286657","rosa.cordoba@aguasregionales.com","Registro por la ESP","HERNAN ANDRES RAMIREZ  RIOS","SOCIEDADES (EMPRESA DE SERVICIOS PUBLICOS)","MAYOR O IGUAL A 5001 USUARIOS"
"ANTIOQUIA","OLAYA","ACUEDUCTO","OPERATIVA","AGUAS REGIONALES EPM S.A E.S.P","ANTIOQUIA","APARTADO","CALLE 97A No 104-13 BARRIO EL HUMEDAL","8286657","rosa.cordoba@aguasregionales.com","Registro por la ESP","HERNAN ANDRES RAMIREZ  RIOS","SOCIEDADES (EMPRESA DE SERVICIOS PUBLICOS)","MAYOR O IGUAL A 5001 USUARIOS"
"ANTIOQUIA","SAN JERONIMO","ACUEDUCTO","OPERATIVA","AGUAS REGIONALES EPM S.A E.S.P","ANTIOQUIA","APARTADO","CALLE 97A No 104-13 BARRIO EL HUMEDAL","8286657","rosa.cordoba@aguasregionales.com","Registro por la ESP","HERNAN ANDRES RAMIREZ  RIOS","SOCIEDADES (EMPRESA DE SERVICIOS PUBLICOS)","MAYOR O IGUAL A 5001 USUARIOS"
"ANTIOQUIA","SANTA FE DE ANTIOQUIA","ACUEDUCTO","OPERATIVA","AGUAS REGIONALES EPM S.A E.S.P","ANTIOQUIA","APARTADO","CALLE 97A No 104-13 BARRIO EL HUMEDAL","8286657","rosa.cordoba@aguasregionales.com","Registro por la ESP","HERNAN ANDRES RAMIREZ  RIOS","SOCIEDADES (EMPRESA DE SERVICIOS PUBLICOS)","MAYOR O IGUAL A 5001 USUARIOS"
"ANTIOQUIA","SOPETRAN","ACUEDUCTO","OPERATIVA","AGUAS REGIONALES EPM S.A E.S.P","ANTIOQUIA","APARTADO","CALLE 97A No 104-13 BARRIO EL HUMEDAL","8286657","rosa.cordoba@aguasregionales.com","Registro por la ESP","HERNAN ANDRES RAMIREZ  RIOS","SOCIEDADES (EMPRESA DE SERVICIOS PUBLICOS)","MAYOR O IGUAL A 5001 USUARIOS"
"ANTIOQUIA","TURBO","ACUEDUCTO","OPERATIVA","AGUAS REGIONALES EPM S.A E.S.P","ANTIOQUIA","APARTADO","CALLE 97A No 104-13 BARRIO EL HUMEDAL","8286657","rosa.cordoba@aguasregionales.com","Registro por la ESP","HERNAN ANDRES RAMIREZ  RIOS","SOCIEDADES (EMPRESA DE SERVICIOS PUBLICOS)","MAYOR O IGUAL A 5001 USUARIOS"
"ANTIOQUIA","AMAGA","ACUEDUCTO","OPERATIVA","EMPRESAS PUBLICAS DE AMAGA  S.A.   E.S.P.","ANTIOQUIA","AMAGA","Calle 51 No  51 - 23","8471375","asesorsp@epama.com.co","Registro por la ESP","RICARDO RAMIREZ PIEDRAHITA","SOCIEDADES (EMPRESA DE SERVICIOS PUBLICOS)","DESDE 2501 HASTA 5000 USUARIOS"
"ANTIOQUIA","SAN ROQUE","ACUEDUCTO","OPERATIVA","EMPRESA DE SERVICIOS PUBLICOS DOMICILIARIOS SAN ROQUE E.S.P.","ANTIOQUIA","SAN ROQUE","CARRERA 20    No. 20-59","8656427","espsanroque@gmail.com","Registro por la ESP","DOLLY  PATRICIA  OSORIO NARANJO","SOCIEDADES (EMPRESA DE SERVICIOS PUBLICOS)","HASTA 2500 SUSCRIPTORES"
"ANTIOQUIA","ANGOSTURA","ACUEDUCTO","OPERATIVA","ASOCIACION DE USUARIOS DEL ACUEDUCTO MULTIVEREDAL SANTA ANA LOS CHOCHOS MUNICIPIO DE ANGOSTURA","ANTIOQUIA","ANGOSTURA","parque principal palacio municipal","8645161","asousu09@hotmail.com","Registro por la ESP","LUZ ADRIANA TABARES VASQUEZ","ORGANIZACION AUTORIZADA","HASTA 2500 SUSCRIPTORES"
"ANTIOQUIA","OLAYA","ACUEDUCTO","CANCELACION","REGIONAL DE OCCIDENTE S.A E.S.P","ANTIOQUIA","APARTADO","Calle 97A # 104-13","8286657","Hernan.Ramirez@aguasregionales.com","Registro por la ESP","HERNAN ANDRES RAMIREZ RIOS",,
"ANTIOQUIA","SAN JERONIMO","ACUEDUCTO","CANCELACION","REGIONAL DE OCCIDENTE S.A E.S.P","ANTIOQUIA","APARTADO","Calle 97A # 104-13","8286657","Hernan.Ramirez@aguasregionales.com","Registro por la ESP","HERNAN ANDRES RAMIREZ RIOS",,
"ANTIOQUIA","SANTA FE DE ANTIOQUIA","ACUEDUCTO","CANCELACION","REGIONAL DE OCCIDENTE S.A E.S.P","ANTIOQUIA","APARTADO","Calle 97A # 104-13","8286657","Hernan.Ramirez@aguasregionales.com","Registro por la ESP","HERNAN ANDRES RAMIREZ RIOS",,
"ANTIOQUIA","SOPETRAN","ACUEDUCTO","CANCELACION","REGIONAL DE OCCIDENTE S.A E.S.P","ANTIOQUIA","APARTADO","Calle 97A # 104-13","8286657","Hernan.Ramirez@aguasregionales.com","Registro por la ESP","HERNAN ANDRES RAMIREZ RIOS",,
"ANTIOQUIA","ARGELIA","ACUEDUCTO","OPERATIVA","ASOCIACION DE ACUEDUCTO Y ALCANTARILLADO SAN TROPEL","ANTIOQUIA","ARGELIA","carrera 31Nº30-60","8650477","narango3@gmail.com","Registro por la ESP","NELSON DE JESUS ARANGO GARCIA","ORGANIZACION AUTORIZADA","HASTA 2500 SUSCRIPTORES"
"ANTIOQUIA","YARUMAL","ACUEDUCTO","OPERATIVA","AGUAS DEL NORTE ANTIOQUEÑO S.A E.S.P","ANTIOQUIA","YARUMAL","CALLE 20 No 20-03 piso 5","8536868","secretaria@aguasdelnorte.gov.co","Registro por la ESP","SERGIO ACEVEDO GUTIERREZ","SOCIEDADES (EMPRESA DE SERVICIOS PUBLICOS)","MAYOR O IGUAL A 5001 USUARIOS"
"ANTIOQUIA","SANTA BARBARA","ACUEDUCTO","OPERATIVA","ASOCIACION DE USUARIOS DEL ACUEDUCTO DEL CORREGIMIENTO DE VERSALLES","ANTIOQUIA","SANTA BARBARA","PARQUE PRINCIPAL CORREGIMIENTO DE VERSALLES","8439242","acueductoversalles@hotmail.com","Registro por la ESP","HUMBERTO DE JESUS RENDON ZULUAGA","ORGANIZACION AUTORIZADA","MENOR O IGUAL A 2500 USUARIOS"
"ANTIOQUIA","SAN VICENTE FERRER","ACUEDUCTO","OPERATIVA","ASOCIACION DE USUARIOS DEL ACUEDUCTO MULTIVEREDAL HONDA FLORESTA SANTA ANA DEL MUNICIPIO DE SAN VICENTE FERRER ANTIOQUIA","ANTIOQUIA","SAN VICENTE FERRER","VEREDA HONDA FLORESTA SANTA ANA","8544212","acueductofloresta@gmail.com","Registro por la ESP","CARLOS ARTURO CASTANO QUINTERO","ORGANIZACION AUTORIZADA","MENOR O IGUAL A 2500 USUARIOS"
"ANTIOQUIA","GUARNE","ACUEDUCTO","OPERATIVA","ASOCIACION DE USUARIOS DEL SERVICIO DE ACUEDUCTO DE LA VEREDA EL SANGO","ANTIOQUIA","GUARNE","AUT MEDELLIN BOGOTA KM 19, VEREDA EL SANGO","5512724","yola_mallely@yahoo.es","Registro por la ESP","JOSE RUPERTO RODRIGUEZ BLANDON","ORGANIZACION AUTORIZADA","MENOR O IGUAL A 2500 USUARIOS"
"ANTIOQUIA","CIUDAD BOLIVAR","ACUEDUCTO","OPERATIVA","ASOCIACION DE USUARIOS DE ACUEDUCTO DE LA SUCIA LA MARIA MUNICIPIO DE CIUDAD BOLIVAR DEPARTAMENTO DE ANTIOQUIA","ANTIOQUIA","CIUDAD BOLIVAR","Carrera  58 No 58 - 126","8413256","moni1226@hotmail.com","Registro por la ESP","BERNANDO ORTIZ PALACIO","ORGANIZACION AUTORIZADA","HASTA 2500 SUSCRIPTORES"
"ANTIOQUIA","SAN JERONIMO","ACUEDUCTO","OPERATIVA","ASOCIACION DE SUSCRIPTORES O USUARIOS DEL ACUEDUCTO DE LA VEREDA LAPALMA PARTE ALTA DEL MUNICIPIO DE SAN JERONIMO","ANTIOQUIA","SAN JERONIMO","Calle 21 No 8 - 78","8582154","asopalmapartealta@gmail.com","Registro por la ESP","CARLOS ALBERTO RUIZ URIBE","ORGANIZACION AUTORIZADA","HASTA 2500 SUSCRIPTORES"
"ANTIOQUIA","FREDONIA","ACUEDUCTO","OPERATIVA","ASOCIACION DE USUARIOS DEL ACUEDUCTO VEREDA SABALETAS","ANTIOQUIA","FREDONIA","VEREDA ZABALETAS","8402164","henryantoniozapata@hotmail.com","Registro por la ESP","HENRY ANTONIO ZAPATA","ORGANIZACION AUTORIZADA","HASTA 2500 SUSCRIPTORES"
"ANTIOQUIA","SAN ROQUE","ACUEDUCTO","OPERATIVA","ASOCIACION DE USUARIOS DEL ACUEDUCTO MULTIVEREDAL SAN ROQUE","ANTIOQUIA","SAN ROQUE","Cra 21 No 20 - 45","8656066","acueductocristales@gmail.com","Registro por la ESP","WILLIAM BUILES CASTRILLON","ORGANIZACION AUTORIZADA","HASTA 2500 SUSCRIPTORES"
"ANTIOQUIA","FREDONIA","ACUEDUCTO","OPERATIVA","ASOCIACION DE USUARIOS DEL ACUEDUCTO Y ALCANTARILLADO DE LA VEREDA EL ZANCUDO MUNICIPIO DE FREDONIA","ANTIOQUIA","FREDONIA","Vereda el Zancudo","8401676","GUSTAVO2@HOTMAIL.COM","Registro por la ESP","GUSTAVO ADOLFO  CASTANEDA POSADA","ORGANIZACION AUTORIZADA","MENOR O IGUAL A 2500 USUARIOS"
"ANTIOQUIA","FREDONIA","ACUEDUCTO","OPERATIVA","ASOCIACION DE USUARIOS DE LA VEREDA EL CALVARIO","ANTIOQUIA","FREDONIA","Vereda el Calvario","8401264","dtvergara@gmail.com","Registro por la ESP","SAMUEL DE JESUS GALLEGO LONDOÑO","ORGANIZACION AUTORIZADA","HASTA 2500 SUSCRIPTORES"
"ANTIOQUIA","SAN ROQUE","ACUEDUCTO","OPERATIVA","ASOCIACIÓN JUNTA DE ACUEDUCTO Y ALCANTARILLADO LA PLATA DEL CORREGIMIENTO DE PROVIDENCIA","ANTIOQUIA","SAN ROQUE","Carrera 1  No. 1 - 10","8511528","SIN@SIN.COM","Registro por la ESP","LUIS NOLBERTO ARENAS OSPINA","ORGANIZACION AUTORIZADA","HASTA 2500 SUSCRIPTORES"
"ANTIOQUIA","GUARNE","ACUEDUCTO","OPERATIVA","ASOCIACION ACUEDUCTO VEREDA LA MEJIA","ANTIOQUIA","GUARNE","VEREDA LA MEJIA","5578093","yereva15@gmail.com","Registro por la ESP","LUIS ALONSO CADAVID CADAVID","ORGANIZACION AUTORIZADA","MENOR O IGUAL A 2500 USUARIOS"
"ANTIOQUIA","BARBOSA","ACUEDUCTO","OPERATIVA","ASOCIACION DE USUARIOS ACUEDUCTO MULTIVEREDAL LA GOTA DE AGUA","ANTIOQUIA","BARBOSA","CARRERA 18 N° 9 - 96  BARRIO 30 DE MAYO","4661643","ormamaicaroldan@yahoo.es","Registro por la ESP","MARIA ENORIS VELEZ V","ORGANIZACION AUTORIZADA","MENOR O IGUAL A 2500 USUARIOS"
"ANTIOQUIA","PENOL","ACUEDUCTO","OPERATIVA","ASOCIACION DE USUARIOS ACUEDUCTO LA CHAPA","ANTIOQUIA","PENOL","vereda la chapa","8517476","agroambiental@elpenol-antioquia.gov.co","Registro por la ESP","ARCESIO VELASQUEZ OCAMPO","ORGANIZACION AUTORIZADA","HASTA 2500 SUSCRIPTORES"
"ANTIOQUIA","SAN VICENTE FERRER","ACUEDUCTO","OPERATIVA","ASOCIACION DE USUARIOS DEL ACUEDUCTO GUACIRU CALVARIO","ANTIOQUIA","SAN VICENTE FERRER","cll 31-11 piso 2 oficina 2","2507440","acueductoguacirucalvario@gmail.com","Registro por la ESP","CLAUDIA PATRICIA AGUDELO AGUDELO","ORGANIZACION AUTORIZADA","MENOR O IGUAL A 2500 USUARIOS"
"ANTIOQUIA","SANTA BARBARA","ACUEDUCTO","OPERATIVA","ASOCIACION DE SUSCRIPTORES DEL ACUEDUCTO Y ALCANTARILLADO DE LA VEREDA LA LIBORIANA,CORREGIMIENTO DE VERSALLES","ANTIOQUIA","SANTA BARBARA","VEREDA LA LIBORIANA","8439049","hjrendon@hotmail.com","Registro por la ESP","LUCELLY OSORIO QUIRAMA","ORGANIZACION AUTORIZADA","MENOR O IGUAL A 2500 USUARIOS"
"ANTIOQUIA","RETIRO","ACUEDUCTO","OPERATIVA","ASOCIACION DE USUARIOS DEL ACUEDUCTO VEREDA CARRIZALES PARTE BAJA EL VENTIADERO","ANTIOQUIA","RETIRO","VEREDA CARRIZALES BAJO","3137164","verajaime707@gmail.com","Registro por la ESP","EDGAR ALFONSO SANCHEZ ROSADO","ORGANIZACION AUTORIZADA","MENOR O IGUAL A 2500 USUARIOS"
"ANTIOQUIA","GUARNE","ACUEDUCTO","OPERATIVA","ASOCIACION DE USUARIOS DEL ACUEDUCTO CAÑADA HONDA","ANTIOQUIA","GUARNE","Vereda Canoas","5676330","navarroabogados@colombia.com","Registro por la ESP","MAURICIO ENRIQUE NAVARRO CASTILLA","ORGANIZACION AUTORIZADA","HASTA 2500 SUSCRIPTORES"
"ANTIOQUIA","ENVIGADO","ACUEDUCTO","OPERATIVA","ASOCIACION DE USUARIOS ACUEDUCTO LA PAVITA","ANTIOQUIA","ENVIGADO","calle 40 sur #24 c 48 el salado","2769297","jfredyguerra@gmail.com","Registro por la ESP","JOHN FREDY GUERRA MONSALVE","ORGANIZACION AUTORIZADA","HASTA 2500 SUSCRIPTORES"
"ANTIOQUIA","SABANALARGA","ACUEDUCTO","OPERATIVA","EMPRESA DE SERVICIOS PUBLICOS DOMICILIAMRIOS DEL MUNICIPIO DE SABANALARGA S.A E.S.P","ANTIOQUIA","SABANALARGA","carrera 20 # 18-113","8554032","wacevedo3@gmail.com","Registro por la ESP","GLORIA LUCIA ARTEAGA CORREA","SOCIEDADES (EMPRESA DE SERVICIOS PUBLICOS)","MENOR O IGUAL A 2500 USUARIOS"
"ANTIOQUIA","SANTA BARBARA","ACUEDUCTO","OPERATIVA","ASOCIACION DE USUARIOS DEL ACUEDUCTO DE LA VEREDA EL HELECHAL","ANTIOQUIA","SANTA BARBARA","VEREDA EL HELECHAL MUNICIPIO DE SANTA BARBARA ANTIOQUIA","8423352","casesoriasgenerales@yahoo.es","Registro por la ESP","CARLOS ANTONIO BEDOYA CASTAÑEDA","ORGANIZACION AUTORIZADA","HASTA 2500 SUSCRIPTORES"
"ANTIOQUIA","CONCORDIA","ACUEDUCTO","OPERATIVA","JUNTA ADMINISTRADORA DE LOS SERVICIOS DE ACUEDUCTO Y ALCANTARILLADO DE MORELIA SAN PACHO","ANTIOQUIA","CONCORDIA","vereda morelia","3136667","contactenos@concordia-antioquia.gov.co","Registro por la ESP","MARIA ROSAURA LONDOÑO DE SEPULVEDA","ORGANIZACION AUTORIZADA","HASTA 2500 SUSCRIPTORES"
"ANTIOQUIA","TARSO","ACUEDUCTO","OPERATIVA","EMPRESA DE SERVICIOS PUBLICOS DE TARSO S.A. E.S.P.","ANTIOQUIA","TARSO","Carrera 20 No. 20-08","8458541","eseptarsa@gmail.com","Registro por la ESP","CLAUDIA PATRICIA RUEDA MORENO","SOCIEDADES (EMPRESA DE SERVICIOS PUBLICOS)","MENOR O IGUAL A 2500 USUARIOS"
"ANTIOQUIA","BRICENO","ACUEDUCTO","OPERATIVA","EMPRESAS PÚBLICAS DE BRICEÑO S.A. E.S.P","ANTIOQUIA","BRICENO","CALLE 10 ENTRE CARRERA 9 Y 10","8570049","epbriceno@hotmail.com","Registro por la ESP","YELENY DEL CARMEN AGUDELO TORRES","SOCIEDADES (EMPRESA DE SERVICIOS PUBLICOS)","MENOR O IGUAL A 2500 USUARIOS"
"ANTIOQUIA","MEDELLIN","ACUEDUCTO","OPERATIVA","CORPORACION DE ACUEDUCTO MEDIA LUNA","ANTIOQUIA","MEDELLIN","CARRERA 20 ESTE No 52-551 VDA. MEDIA LUNA KM3. VIA SANTA ELENA","3379881","acueductomedialuna@hotmail.com","Registro por la ESP","LUZ EMERITA GOMEZ CELADA","ORGANIZACION AUTORIZADA","MENOR O IGUAL A 2500 USUARIOS"
"ANTIOQUIA","YALI","ACUEDUCTO","OPERATIVA","SERVICIOS PUBLICOS YALÍ S.A. E.S.P.","ANTIOQUIA","AMALFI","CARRERA 21 #18-39, C.C. La plaza, piso 2","8300747","auxiliarsui@serviciospublicosyali.com.co","Registro por la ESP","NATALIA TORRES ZAPATA","SOCIEDADES (EMPRESA DE SERVICIOS PUBLICOS)","MENOR O IGUAL A 2500 USUARIOS"
"ANTIOQUIA","ANDES","ACUEDUCTO","OPERATIVA","ASOCIACION DE USUARIOS DEL ACUEDUCTO MULTIVEREDAL DEL MUNICIPIO DE ANDES","ANTIOQUIA","ANDES","CARRERA 49 47  31","8415248","acueductoandes@gmail.com","Registro por la ESP","ALBERTO LEON RIVERA ORTIZ","ORGANIZACION AUTORIZADA","MENOR O IGUAL A 2500 USUARIOS"
"ANTIOQUIA","GUARNE","ACUEDUCTO","OPERATIVA","ASOCIACION DE USUARIOS DEL ACUEDUCTO DE LA VEREDA ROMERAL","ANTIOQUIA","GUARNE","cra 48 41b04","3576807","verajaime707@gmail.com","Registro por la ESP","FRANCISCO LUIS GALLEGO  ALZATE","ORGANIZACION AUTORIZADA","MENOR O IGUAL A 2500 USUARIOS"
"ANTIOQUIA","ANGOSTURA","ACUEDUCTO","OPERATIVA","LA EMPRESA DE SERVICIOS PUBLICOS DOMICILIARIOS DE ANGOSTURA S.A. E.S.P.","ANTIOQUIA","ANGOSTURA","Calle 11 No 9-34","8645055","OLGAML@HOTMAIL.COM","Registro por la ESP","OLGA ESNEDA MORA LOPERA","SOCIEDADES (EMPRESA DE SERVICIOS PUBLICOS)","MENOR O IGUAL A 2500 USUARIOS"
"ANTIOQUIA","ARGELIA","ACUEDUCTO","OPERATIVA","EMPRESA DE SERVICIOS PÙBLICOS ARGELIA DE MARÍA S.A","ANTIOQUIA","ARGELIA","Calle 30 No. 30 - 20","8650077","espargelia@gmail.com","Registro por la ESP","NATANIEL ALEJANDRO GOMEZ TORRES","SOCIEDADES (EMPRESA DE SERVICIOS PUBLICOS)","MENOR O IGUAL A 2500 USUARIOS"
"ANTIOQUIA","AMAGA","ACUEDUCTO","OPERATIVA","ASOCIACION DE USUARIOS EL ACUEDUCTO DE TRAVESIAS SECTOR CARRETERA EL MANGAL-23056","ANTIOQUIA","AMAGA","calle 138 sur # 49-33 apto 102","3035070","betancurbolinora@hotmail.com","Registro por la ESP","DORA AMANDA HERRERA MESA","ORGANIZACION AUTORIZADA","HASTA 2500 SUSCRIPTORES"
"ANTIOQUIA","BETULIA","ACUEDUCTO","OPERATIVA","EMPRESAS PUBLICAS DE BETULIA S.A E.S.P","ANTIOQUIA","BETULIA","CALLE 19 No. 20 - 30","8436678","spdbetulia@gmail.com","Registro por la ESP","PAULA ANDREA MAYA ORTIZ","SOCIEDADES (EMPRESA DE SERVICIOS PUBLICOS)","MENOR O IGUAL A 2500 USUARIOS"
"ANTIOQUIA","URAMITA","ACUEDUCTO","OPERATIVA","EMPRESA DE SERVICIOS PUBLICOS DE URAMITA S.A.S E.S.P","ANTIOQUIA","URAMITA","CALLE 20 Sur # 17 - 34","8574005","serviciospublicos@uramita-antioquia.gov.co","Registro por la ESP","RAFAEL  TORRES BEDOYA","SOCIEDADES (EMPRESA DE SERVICIOS PUBLICOS)","MENOR O IGUAL A 2500 USUARIOS"
"ANTIOQUIA","LA ESTRELLA","ACUEDUCTO","OPERATIVA","EMPRESA DE SERVICIOS PUBLICOS DOMICILIARIOS DE LA ESTRELLA S.A E.S.P.","ANTIOQUIA","LA ESTRELLA","Calle 100 SUR No 49D - 91","2788888","wacevedo3@gmail.com","Registro por la ESP","GABRIEL JAIME JARAMILLO LOPEZ","SOCIEDADES (EMPRESA DE SERVICIOS PUBLICOS)","DESDE 2501 HASTA 5000 USUARIOS"
"ANTIOQUIA","CALDAS","ACUEDUCTO","OPERATIVA","ASOCIACION DE SUSCRIPTORES DE ACUEDUCTO LA RAPIDA","ANTIOQUIA","CALDAS","CARRERA 50 146S  384","3387424","asdarcaldas@yahoo.es","Registro por la ESP","MARITZA MORALES DIEZ","ORGANIZACION AUTORIZADA","HASTA 2500 SUSCRIPTORES"
"ANTIOQUIA","BURITICA","ACUEDUCTO","OPERATIVA","EMPRESA DE SERVICIOS PÚBLICOS DOMICILIARIOS DE BURITICÁ S.A. E.S.P.","ANTIOQUIA","BURITICA","CALLE 7 No. 46-5","8527050","serburiticasaesp@yahoo.com","Registro por la ESP","ANDRES GONZALO USUGA VELEZ","SOCIEDADES (EMPRESA DE SERVICIOS PUBLICOS)","MENOR O IGUAL A 2500 USUARIOS"
"ANTIOQUIA","JERICO","ACUEDUCTO","OPERATIVA","EMPRESAS PUBLICAS DE JERICO ANTIOQUIA S.A E.S.P","ANTIOQUIA","JERICO","Calle 8 N° 4 - 57","8523101","eeppj@hotmail.com","Registro por la ESP","LUZ ALICIA MONCADA SUAREZ","SOCIEDADES (EMPRESA DE SERVICIOS PUBLICOS)","DESDE 2501 HASTA 5000 USUARIOS"
"ANTIOQUIA","MACEO","ACUEDUCTO","OPERATIVA","EMPRESA DE SERVICIOS PUBLICOS DE MACEO S.A.S  E.S.P.","ANTIOQUIA","MACEO","Carrera 29 # 26 - 15","8640044","aguasdemaceo@gmail.com","Registro por la ESP","HERNAN ALONSO LOPERA RESTREPO","SOCIEDADES (EMPRESA DE SERVICIOS PUBLICOS)","MENOR O IGUAL A 2500 USUARIOS"
"ANTIOQUIA","SAN ANDRES DE CUERQUIA","ACUEDUCTO","OPERATIVA","EMPRESAS PUBLICAS DE SAN ANDRES DE CUERQUIA SA ESP","ANTIOQUIA","SAN ANDRES DE CUERQUIA","Carrera 30 30-19","8618110","empusac.sa.esp@gmail.com","Registro por la ESP","DORA DE JESUS SERNA ORREGO","SOCIEDADES (EMPRESA DE SERVICIOS PUBLICOS)","MENOR O IGUAL A 2500 USUARIOS"
"ANTIOQUIA","COPACABANA","ACUEDUCTO","OPERATIVA","CORPORACION MULTIVEREDAL SALINAS, EL CONVENTO, EL LLANO","ANTIOQUIA","COPACABANA","calle 49 No 46c - 59","4013847","acueductoseed@yahoo.es","Registro por la ESP","MARIBEL DEL SOCORRO MEJIA VELEZ","ORGANIZACION AUTORIZADA","MENOR O IGUAL A 2500 USUARIOS"
"ANTIOQUIA","SAN VICENTE FERRER","ACUEDUCTO","OPERATIVA","ASOCIACION DE SUSCRIPTORES DEL ACUEDUCTO LA MINA E.S.P.","ANTIOQUIA","SAN VICENTE FERRER","Carrera 30 # 32-20","8544220","acueductolamina811@hotmail.com","Registro por la ESP","WILLIAM DE JESUS CORRALES GIRALDO","ORGANIZACION AUTORIZADA","MENOR O IGUAL A 2500 USUARIOS"
"ANTIOQUIA","SAN VICENTE FERRER","ACUEDUCTO","OPERATIVA","JUNTA DE ACCION COMUNAL VEREDA ALTO DE LA COMPAÑIA","ANTIOQUIA","SAN VICENTE FERRER","Calle Córdoba # 31-11 2° piso","8544365","marzo546@hotmail.com","Registro por la ESP","MARCO AURELIO ROJAS ZAPATA","ORGANIZACION AUTORIZADA","MENOR O IGUAL A 2500 USUARIOS"
"ANTIOQUIA","SAN VICENTE FERRER","ACUEDUCTO","OPERATIVA","ASOCIACION DE USUARIOS DEL ACUEDUCTOMULTIVEREDAL SAN JOSE CANTOR","ANTIOQUIA","SAN VICENTE FERRER","CR30 N3220","2507440","acueductoguacirucalvario@gmail.com","Registro por la ESP","JAVIER JIOVANY AGUDELO ARANGO","ORGANIZACION AUTORIZADA","MENOR O IGUAL A 2500 USUARIOS"
"ANTIOQUIA","SAN VICENTE FERRER","ACUEDUCTO","OPERATIVA","ASOCIACION DE USUARIOS DEL ACUEDUCTO MULTIVEREDAL CARMELO CORRIENTES","ANTIOQUIA","SAN VICENTE FERRER","VEREDA EL CARMELO SAN VICENTE","5776346","acueductoelcarmelo@gmail.com","Registro por la ESP","JOSE JESUS SANCHEZ FRANCO","ORGANIZACION AUTORIZADA","MENOR O IGUAL A 2500 USUARIOS"
"ANTIOQUIA","DABEIBA","ACUEDUCTO","OPERATIVA","EMPRESAS PUBLICAS DE DABEIBA S.A.S   E.S.P","ANTIOQUIA","DABEIBA","CARRERA 10 11-74","8590426","SERVICIOSPUBLICOS@DABEIBA-ANTIOQUIA.GOV.CO","Registro por la ESP","VERONICA GONZALEZ CARDONA","SOCIEDADES (EMPRESA DE SERVICIOS PUBLICOS)","DESDE 2501 HASTA 5000 USUARIOS"
"ANTIOQUIA","AMAGA","ACUEDUCTO","OPERATIVA","ASOCIACION DE USUARIOS DEL ACUEDUCTO LA CABUYALA","ANTIOQUIA","AMAGA","AMAGA - BARRIO LOS ALVAREZ","8471676","smda1104@gmail.com","Registro por la ESP","MARISOL ARTEAGA QUINTANA","ORGANIZACION AUTORIZADA","MENOR O IGUAL A 2500 USUARIOS"
"ANTIOQUIA","CANASGORDAS","ACUEDUCTO","OPERATIVA","EMPRESAS PUBLICAS DE CAÑASGORDAS S.A.  E.S.P","ANTIOQUIA","CANASGORDAS","calle 25 no 29 a 03","8564101","serviciospublicos@canasgordas-antioquia.gov.co","Registro por la ESP","LEIDY CRISTINA MAZO RUIZ","SOCIEDADES (EMPRESA DE SERVICIOS PUBLICOS)","MENOR O IGUAL A 2500 USUARIOS"
"ANTIOQUIA","CACERES","ACUEDUCTO","OPERATIVA","EMPRESA DE ASEO CACERES SAS ESP","ANTIOQUIA","CACERES","CALLE 31 19-04 LOCAL 10  JARDIN","8280999","e.s.ptamanacaceres@gmail.com","Registro por la ESP","AURA MARIA BARRERA ESPINOSA","SOCIEDADES (EMPRESA DE SERVICIOS PUBLICOS)","MENOR O IGUAL A 2500 USUARIOS"
"ANTIOQUIA","SANTA ROSA DE OSOS","ACUEDUCTO","OPERATIVA","ASOCIACION DE USUARIOS DEL ACUEDUCTO MULTIVEREDAL AMORSSAN SANTA ROSA DE OSOS","ANTIOQUIA","SANTA ROSA DE OSOS","VEREDA SANTA ANA","2329672","amorssan@hotmail.es","Registro por la ESP","CARLOS HERNANDO GIL PRECIADO","ORGANIZACION AUTORIZADA","MENOR O IGUAL A 2500 USUARIOS"
"ANTIOQUIA","GIRALDO","ACUEDUCTO","OPERATIVA","EMPRESA DE SERVICIOS PUBLICOS DOMICILIARIOS DE GIRALDO S.A. E.S.P","ANTIOQUIA","GIRALDO","CALLE 10 No. 9-02","8571039","wacevedo3@gmail.com","Registro por la ESP","JOSE DOMINGO SEPULVEDA LUJAN","SOCIEDADES (EMPRESA DE SERVICIOS PUBLICOS)","MENOR O IGUAL A 2500 USUARIOS"
"ANTIOQUIA","BETANIA","ACUEDUCTO","OPERATIVA","EMPRESAS PUBLICAS MUNICIPALES DE BETANIA S.A E.S.P","ANTIOQUIA","BETANIA","Calle 18 # 24-01","8435055","yereva15@gmail.com","Registro por la ESP","ANDRES MAURICIO ALVAREZ CANO","SOCIEDADES (EMPRESA DE SERVICIOS PUBLICOS)","MENOR O IGUAL A 2500 USUARIOS"
"ANTIOQUIA","GUARNE","ACUEDUCTO","OPERATIVA","ASOCIACION ACUEDUCTO GUAPANTE ASOAGUA","ANTIOQUIA","GUARNE","VEREDA GUAPANTE","2432415","verajaime707@gmail.com","Registro por la ESP","FRANCISCO GARCIA ZAPATA","ORGANIZACION AUTORIZADA","MENOR O IGUAL A 2500 USUARIOS"
"ANTIOQUIA","GUARNE","ACUEDUCTO","OPERATIVA","ASOCIACION DE SUSCRIPTORES DEL ACUEDUCTO BARRIO SAN ANTONIO AGUASANAN","ANTIOQUIA","GUARNE","BARRIO SAN ANTONIO","5677648","verajaime707@gmail.com","Registro por la ESP","ELKIN ARLEY ARCILA RAMIREZ","ORGANIZACION AUTORIZADA","MENOR O IGUAL A 2500 USUARIOS"
"ANTIOQUIA","GUADALUPE","ACUEDUCTO","OPERATIVA","EMPRESA DE SERVICIOS PUBLICOS DE GUADALUPE S.A.S ESP","ANTIOQUIA","GUADALUPE","carrera 50 No 51-13","8616115","uspguadalupe@gmail.com","Registro por la ESP","JENNY ALEJANDRA RODRIGUEZ ARBOLEDA","SOCIEDADES (EMPRESA DE SERVICIOS PUBLICOS)","MENOR O IGUAL A 2500 USUARIOS"
"ANTIOQUIA","LA CEJA","ACUEDUCTO","OPERATIVA","ASOSIACION DE USUARIOS DE ACUEDUCTOS SAN RAFAEL","ANTIOQUIA","LA CEJA","CALLE 20 N° 27-20","5531654","nellygarciaosorio@yahoo.es","Registro por la ESP","ROSALINA  TOBON TOBON","ORGANIZACION AUTORIZADA","HASTA 2500 SUSCRIPTORES"
"ANTIOQUIA","SAN RAFAEL","ACUEDUCTO","OPERATIVA","EMPRESAS PUBLICAS DE SAN RAFAEL S.A. E.S.P.","ANTIOQUIA","SAN RAFAEL","CALLE 21 N21-04","8586809","serviciospublicos@sanrafael-antioquia.gov.co","Registro por la ESP","FABER ERNEY SANCHEZ PARRA","SOCIEDADES (EMPRESA DE SERVICIOS PUBLICOS)","DESDE 2501 HASTA 5000 USUARIOS"
"ANTIOQUIA","COPACABANA","ACUEDUCTO","OPERATIVA","ASOCIACION JUNTA ADMINISTRADORA DEL ACUEDUCTO VEREDA PEÑOLCITO PARTE MEDIA Y ALTA MUNICIPIO DE COPACABANA","ANTIOQUIA","COPACABANA","VEREDA PEÑOLCITO PARTE ALTA","2299600","willi.rey@hotmail.com","Registro por la ESP","BLANCA OLIVA RESTREPO URREGO","ORGANIZACION AUTORIZADA","MENOR O IGUAL A 2500 USUARIOS"
"ANTIOQUIA","SAN ROQUE","ACUEDUCTO","OPERATIVA","JUNTA DE ACCIÓN COMUNAL VEREDA LAS ENCARNACIONES","ANTIOQUIA","SAN ROQUE","PALACIO MUNICIPAL","3147684","lunacarr@hotmail.com","Registro por la ESP","LUIS  NAVOR CARVAJAL RESTREPO","ORGANIZACION AUTORIZADA","HASTA 2500 SUSCRIPTORES"
"ANTIOQUIA","SAN CARLOS","ACUEDUCTO","OPERATIVA","ASOCIACION DE USUARIOS ACUEDUCTO EL JORDAN","ANTIOQUIA","SAN CARLOS","Calle 20 No. 22-30. Barrio Buenos Aires","8354027","auajor@gmail.com","Registro por la ESP","YEISON OVIDIO MANCO PATINO","ORGANIZACION AUTORIZADA","MENOR O IGUAL A 2500 USUARIOS"
"ANTIOQUIA","SAN VICENTE FERRER","ACUEDUCTO","OPERATIVA","ASOCIACIÓN DE USUARIOS DEL ACUEDUCTO DE LA VEREDA LA MAGDALENA DEL MUNICIPIO DE SAN VICENTE","ANTIOQUIA","SAN VICENTE FERRER","VEREDA LA MAGDALENA","8544212","leidyjoha2008@gmail.com","Registro por la ESP","ALEJANDRO ANTONIO ECHEVERRY LOPEZ","ORGANIZACION AUTORIZADA","HASTA 2500 SUSCRIPTORES"
"ANTIOQUIA","TAMESIS","ACUEDUCTO","OPERATIVA","ASOCIACION DE USUARIOS DEL ACUEDUCTO MULTIVEREDAL ASOAGUAS TAMESIS","ANTIOQUIA","TAMESIS","EDIFICIO DEL CAFE SEGUNDO PISO","8494595","fescobar63@hotmail.com","Registro por la ESP","FERNANDO ANTONIO ESCOBAR ALZATE","ORGANIZACION AUTORIZADA","MENOR O IGUAL A 2500 USUARIOS"
"ANTIOQUIA","MEDELLIN","ACUEDUCTO","OPERATIVA","CORPORACION DE ACUEDUCTO PIEDRAS BLANCAS","ANTIOQUIA","MEDELLIN","CR 46 ESTE 69-10 VIA EL ROSARIO KM 3 792","4084330","acueductopiedrasblancas@gmail.com","Registro por la ESP","HECTOR HEVELIO ATEHORTUA GRAJALES","ORGANIZACION AUTORIZADA","MENOR O IGUAL A 2500 USUARIOS"
"ANTIOQUIA","BARBOSA","ACUEDUCTO","OPERATIVA","ASOCIACION DE USUARIOS DEL ACUEDUCTO Y ALCANTARILLADO DE EL HATILLO","ANTIOQUIA","BARBOSA","CORREGIDURIA EL HATILLO","4070576","asoacueductohatill@hotmail.com","Registro por la ESP","GILBERTO ANTONIO VANEGAS ORTEGA","ORGANIZACION AUTORIZADA","MENOR O IGUAL A 2500 USUARIOS"
"ANTIOQUIA","ENVIGADO","ACUEDUCTO","OPERATIVA","ASOCIACION DE USUARIOS DE ACUEDUCTO PANTANILLO","ANTIOQUIA","ENVIGADO","Vereda Pantanillo Envigado","4798998","asopantanillo@gmail.com","Registro por la ESP","OSCAR ALBERTO RODRIGUEZ ORTEGA","ORGANIZACION AUTORIZADA","MENOR O IGUAL A 2500 USUARIOS"
"ANTIOQUIA","BELLO","ACUEDUCTO","OPERATIVA","ASOCIACION DE USUARIOS DE ACUEDUCTO LA CHINA-CUARTAS","ANTIOQUIA","BELLO","km 28 via Medellin - San Pedro","2684959","acueductolachina@hotmail.com","Registro por la ESP","CESAR BEDOYA GIRALDO","ORGANIZACION AUTORIZADA","HASTA 2500 SUSCRIPTORES"
"ANTIOQUIA","GIRARDOTA","ACUEDUCTO","OPERATIVA","ASOCIACION DE USUARIOS DEL ACUEDUCTO VEREDA MANGA ARRIBA SECTOR LA LOMA","ANTIOQUIA","GIRARDOTA","VEREDA MANGA ARRIBA","9999999","asousu_mangaloma@hotmail.com","Registro por la ESP","JOSE DUBAN SUAREZ HERNANDEZ","ORGANIZACION AUTORIZADA","MENOR O IGUAL A 2500 USUARIOS"
"ANTIOQUIA","COPACABANA","ACUEDUCTO","OPERATIVA","ASOCIACIÓN ADMINISTRADORA DEL ACUEDUCTO MARÍA SANTIFICADORA","ANTIOQUIA","COPACABANA","Vereda Quebrada Arriba","5576453","amariasantificadora@gmail.com","Registro por la ESP","BEIBA MARGARITA ZULUAGA QUINTERO","ORGANIZACION AUTORIZADA","MENOR O IGUAL A 2500 USUARIOS"
"ANTIOQUIA","ENVIGADO","ACUEDUCTO","OPERATIVA","ASOCIACION DE USUARIOS ACUEDUCTO MULTIVEREDAL LA MIEL Y LOS RODAS","ANTIOQUIA","ENVIGADO","CARRERA 24 C 41 SUR 64","4988683","asomielrodas@gmail.com","Registro por la ESP","JUAN CARLOS MUNOZ PALACIO","ORGANIZACION AUTORIZADA","MENOR O IGUAL A 2500 USUARIOS"
"ANTIOQUIA","VALPARAISO","ACUEDUCTO","OPERATIVA","EMPRESA DE SERVICIOS PUBLICOS DOMICILIARIOS DE VALPARAISO SAS ESP","ANTIOQUIA","VALPARAISO","CL 10 10-53","8492029","gerenciaesp.valparaiso@gmail.com","Registro por la ESP","LIDA CRISTINA MEJIA CARDONA","SOCIEDADES (EMPRESA DE SERVICIOS PUBLICOS)","MENOR O IGUAL A 2500 USUARIOS"
"ANTIOQUIA","SONSON","ACUEDUCTO","OPERATIVA","ASOCIACION DE USUARIOS DE LOS SERVICIOS DE ACUEDUCTO ALCANTARILLADO Y ASEO DEL CORREGIMIENTO LA DANTA MUNICIPIO DE SONSON","ANTIOQUIA","SONSON","CR 33 32 23 LA DANTA","3426984","limaclal@hotmail.com","Registro por la ESP","FABIO ENRIQUE CIRO SALAZAR","ORGANIZACION AUTORIZADA","HASTA 2500 SUSCRIPTORES"
"ANTIOQUIA","SAN LUIS","ACUEDUCTO","OPERATIVA","EMPRESAS PUBLICAS DE SAN LUIS S.A.S. E.S.P.","ANTIOQUIA","SAN LUIS","calle 20N°17a-50","8348748","empresaspublicasdesanluis@hotmail.com","Registro por la ESP","MILLER ARBEY MARIN  GOMEZ","SOCIEDADES (EMPRESA DE SERVICIOS PUBLICOS)","MENOR O IGUAL A 2500 USUARIOS"
"ANTIOQUIA","ENVIGADO","ACUEDUCTO","OPERATIVA","ASOCIACIÓN ACUEDUCTO EL ESPIGAL","ANTIOQUIA","MEDELLIN","KILOMETRO 16 VÍA LAS PALMAS","1111111","elespigal123@hotmail.com","Registro por la ESP","HERNAN DARIO CANO","ORGANIZACION AUTORIZADA","MENOR O IGUAL A 2500 USUARIOS"
"ANTIOQUIA","MARINILLA","ACUEDUCTO","OPERATIVA","ASOCIACION DE USUARIOS PROPIETARIOS DEL ACUEDUCTO MULTIVEREDAL POZO INMACULADA  MILAGROSA","ANTIOQUIA","MARINILLA","CL 30 SAN JOSE No 31-40 mall comercial la gran manzana","5691431","YANETHGOM@YAHOO.ES","Registro por la ESP","DUVAN MONTOYA QUINTERO","ORGANIZACION AUTORIZADA","MENOR O IGUAL A 2500 USUARIOS"
"ANTIOQUIA","GUARNE","ACUEDUCTO","OPERATIVA","ASOCIACION DE USUARIOS DEL SERVICIO DE ACUEDUCTO DE LA VEREDA YOLOMBAL","ANTIOQUIA","GUARNE","VEREDA YOLOMBAL","5677648","juanfernandomanrique5@hotmail.com","Registro por la ESP","ANA LIBIA HENAO BEDOYA","ORGANIZACION AUTORIZADA","MENOR O IGUAL A 2500 USUARIOS"
"ANTIOQUIA","GIRARDOTA","ACUEDUCTO","OPERATIVA","ASOCIACIÓN DE USUARIOS ACUEDUCTO NUEVA ANTIOQUIA","ANTIOQUIA","GIRARDOTA","VEREDA EL TOTUMO","2898044","josearangoe@yahoo.es","Registro por la ESP","IGNACIO LEON ARANGO","ORGANIZACION AUTORIZADA","MENOR O IGUAL A 2500 USUARIOS"
"ANTIOQUIA","CARAMANTA","ACUEDUCTO","OPERATIVA","EMPRESAS PUBLICAS DE CARAMANTA S.A.S. E.S.P.","ANTIOQUIA","CARAMANTA","CL 19 No. 20 87","8553044","gerenciaespcaramanta@gmail.com","Registro por la ESP","ALEJANDRO ARANGO GIL","SOCIEDADES (EMPRESA DE SERVICIOS PUBLICOS)","MENOR O IGUAL A 2500 USUARIOS"
"ANTIOQUIA","PEQUE","ACUEDUCTO","OPERATIVA","EMPRESA DE SERVICIOS PUBLICOS DOMICILIARIOS DEL MUNICIPIO DE PEQUE ANTIOQUIA S.A E.S.P","ANTIOQUIA","PEQUE","CALLE 10 N 9-34","8552094","espd@peque-antioquia.gov.co","Registro por la ESP","JOHNMAR ESTEVAN RUA ORTIZ","SOCIEDADES (EMPRESA DE SERVICIOS PUBLICOS)","MENOR O IGUAL A 2500 USUARIOS"
"ANTIOQUIA","SAN PEDRO DE LOS MILAGROS","ACUEDUCTO","OPERATIVA","ASOCIACION DE USUARIOS DEL ACUEDUCTO SAN JUAN-LA MARIA","ANTIOQUIA","SAN PEDRO DE LOS MILAGROS","VEREDA SAN JUAN","8687214","asojumaria.acueducto@hotmail.com","Registro por la ESP","NUBIA DEL SOCORRO BARRIENTOS","ORGANIZACION AUTORIZADA","MENOR O IGUAL A 2500 USUARIOS"
"ANTIOQUIA","ITUANGO","ACUEDUCTO","OPERATIVA","EMPRESA DE SERVICIOS PUBLICOS DOMICILIARIOS DE ITUANGO S.A. E.S.P.","ANTIOQUIA","ITUANGO","CALLE BERRIO N° 19 - 04","8643218","servituangosa@gmail.com","Registro por la ESP","LEIDY JOHANA DAVID GRACIANO","SOCIEDADES (EMPRESA DE SERVICIOS PUBLICOS)","MENOR O IGUAL A 2500 USUARIOS"
"ANTIOQUIA","FRONTINO","ACUEDUCTO","OPERATIVA","ASOCIACION DE USUARIOS ACUEDUCTO NUTIBARA","ANTIOQUIA","FRONTINO","NUTIBARA","8599200","acueductonutibara2017@gmail.com","Registro por la ESP","PEDRO MARIA BENITEZ  CARVAJAL","ORGANIZACION AUTORIZADA","MENOR O IGUAL A 2500 USUARIOS"
"ANTIOQUIA","EL BAGRE","ACUEDUCTO","OPERATIVA","EMPRESA MUNICIPAL DE ACUEDUCTO ALCANTARILLADO Y ASEO DEL MUNICIPIO DE EL BAGRE ANTIOQUIA SA ESP","ANTIOQUIA","EL BAGRE","CALLE 54 No 48 33","8370286","andicor2010@gmail.com","Registro por la ESP","ANGELICA MARIA LOPEZ VILORIA","SOCIEDADES (EMPRESA DE SERVICIOS PUBLICOS)","MAYOR O IGUAL A 5001 USUARIOS"
"ANTIOQUIA","SONSON","ACUEDUCTO","OPERATIVA","AGUAS DEL PÁRAMO DE SONSÓN S.A.S. E.S.P","ANTIOQUIA","SONSON","calle 6 #5-41","8691810","aguasdelparamodesonson@gmail.com","Registro por la ESP","FRANCIA IRENE CIFUENTES ARANGO","SOCIEDADES (EMPRESA DE SERVICIOS PUBLICOS)","MAYOR O IGUAL A 5001 USUARIOS"
"ANTIOQUIA","SAN FRANCISCO","ACUEDUCTO","OPERATIVA","EMPRESA DE SERVICIOS PUBLICOS DE SAN FRANCISCO ANTIOQUIA SAS ESP","ANTIOQUIA","SAN FRANCISCO","CALLE 11 N 9 61","8323030","gerencia@esp-sanfrancisco-antioquia.gov.co","Registro por la ESP","RUBEN DARIO ZULUAGA GALVIS","SOCIEDADES (EMPRESA DE SERVICIOS PUBLICOS)","MENOR O IGUAL A 2500 USUARIOS"
"ANTIOQUIA","PUERTO TRIUNFO","ACUEDUCTO","OPERATIVA","ASOCIACION DE USUARIOS DEL ACUEDUCTO  Y ALCANTARILLADO DE LAS MERCEDES PUERTO TRIUNFO","ANTIOQUIA","PUERTO TRIUNFO","CALLE  19","8352811","tulio.18@hotmail.com","Registro por la ESP","JULIO ERNESTO AGUDELO  LISARAZO","ORGANIZACION AUTORIZADA","MENOR O IGUAL A 2500 USUARIOS"
"ANTIOQUIA","SAN ROQUE","ACUEDUCTO","OPERATIVA","EMPRESAS PUBLICAS DE SON ROQUE SAS","ANTIOQUIA","SAN ROQUE","cr 20 No 20 19","8656427","ESPSANROQUE@GMAIL.COM","Registro por la ESP","JESUS ORLANDO GIRALDO ARCILA","SOCIEDADES (EMPRESA DE SERVICIOS PUBLICOS)","MENOR O IGUAL A 2500 USUARIOS"
"ANTIOQUIA","GUARNE","ACUEDUCTO","OPERATIVA","ASOCIACION DE USUARIOS DEL ACUEDUCTO VEREDAL LA PASTORCITA","ANTIOQUIA","GUARNE","VEREDA LA PASTORCITA","2919899","verajaime707@gmail.com","Registro por la ESP","ALIRIO DE JESUS ATEHORTUA AGUDELO","ORGANIZACION AUTORIZADA","MENOR O IGUAL A 2500 USUARIOS"
"ANTIOQUIA","COCORNA","ACUEDUCTO","OPERATIVA","ASOCIACION DE ACUEDUCTO VEREDA SANTO DOMINGO COCORNA","ANTIOQUIA","COCORNA","CALLE 20 # 20-29","8344267","luzdarydaza02@hotmail.com","Registro por la ESP","LUZ DARY DE JESUS DAZA VALENCIA","ORGANIZACION AUTORIZADA","HASTA 2500 SUSCRIPTORES"
"ANTIOQUIA","COCORNA","ACUEDUCTO","OPERATIVA","ASOCIACION DE USUARIOS DEL ACUEDUCTO VEREDAL EL COCO DEL MUNICIPIO DE COCORNA","ANTIOQUIA","COCORNA","CALLE 20 # 20-29","8343404","acueducto.elcoco@gmail.com","Registro por la ESP","JULIO ERNESTO GIRALDO ZULUAGA","ORGANIZACION AUTORIZADA","HASTA 2500 SUSCRIPTORES"
"ANTIOQUIA","TAMESIS","ACUEDUCTO","OPERATIVA","EMPRESA DE SERVICIOS PUBLICOS DOMICILIARIOS TAMESIS ESP SAS","ANTIOQUIA","TAMESIS","Calle 10 No. 8-47","8494035","serviciospublicos@tamesis-antioquia.gov.co","Registro por la ESP","GUILLERMO LEON SUAZA ARREDONDO","SOCIEDADES (EMPRESA DE SERVICIOS PUBLICOS)","DESDE 2501 HASTA 5000 USUARIOS"
"ANTIOQUIA","SANTO DOMINGO","ACUEDUCTO","OPERATIVA","ASOCIACION DE USUARIOS PRO ACUEDUCTO BOTERO","ANTIOQUIA","SANTO DOMINGO","VEREDA PIEDRA GORDA SANTO DOMINGO ANTIOQUIA","8514240","josearangoe@yahoo.es","Registro por la ESP","GLORIA ISABEL JARAMILLO MAZO","ORGANIZACION AUTORIZADA","MENOR O IGUAL A 2500 USUARIOS"
"ANTIOQUIA","ANDES","ACUEDUCTO","OPERATIVA","EMPRESA DE SERVICIOS PUBLICOS DE ANDES S.A E.S.P","ANTIOQUIA","ANDES","Calle 51 No 53-03","8418447","yereva15@gmail.com","Registro por la ESP","ANA MARIA  ZULETA GOMEZ","SOCIEDADES (EMPRESA DE SERVICIOS PUBLICOS)","MAYOR O IGUAL A 5001 USUARIOS"
"ANTIOQUIA","MEDELLIN","ACUEDUCTO","OPERATIVA","CORPORACION DE ACUEDUCTO EL MANANTIAL DE ANA DIAZ","ANTIOQUIA","MEDELLIN","CARRERA  125 NUMERO 34 AA 167 INT. 201","4934719","acueductomanantialdeanadiaz@gmail.com","Registro por la ESP","YUDY FRANCENLY BOLIVAR CARTAGENA","ORGANIZACION AUTORIZADA","MENOR O IGUAL A 2500 USUARIOS"
"ANTIOQUIA","GIRARDOTA","ACUEDUCTO","OPERATIVA","ASOCIACION ACUEDUCTO ECOSOSTENIBLE VEREDA LA MESETA","ANTIOQUIA","GIRARDOTA","Vereda La Meseta, Girardota, Antioquia","2895767","acueductolameseta@gmail.com","Registro por la ESP","GABRIEL DE JESUS CASTAÑO BUSTAMANTE","ORGANIZACION AUTORIZADA","HASTA 2500 SUSCRIPTORES"
"ANTIOQUIA","SEGOVIA","ACUEDUCTO","OPERATIVA","AGUAS DEL POCUNÉ S.A.S E.S.P.","ANTIOQUIA","MEDELLIN","Calle 33 A # 78 A 56","4161177","estadistica@aassa.com.co","Registro por la ESP","NELSON DE JESUS URIBE ARANGO","SOCIEDADES (EMPRESA DE SERVICIOS PUBLICOS)","MAYOR O IGUAL A 5001 USUARIOS"
"ANTIOQUIA","MEDELLIN","ACUEDUCTO","OPERATIVA","Corporación de Acueducto Multiveredal Palmitas La China","ANTIOQUIA","MEDELLIN","KILOMETRO 2 # 255 CALLE 116 # 215-51","1111111","acueductolachina@yahoo.es","Registro por la ESP","MARTHA CECILIA PULGARIN CANO","ORGANIZACION AUTORIZADA","MENOR O IGUAL A 2500 USUARIOS"
"ANTIOQUIA","DONMATIAS","ACUEDUCTO","OPERATIVA","SERVIDONMATIAS ESP SAS","ANTIOQUIA","DONMATIAS","CALLE 30 30-13","8663960","servidonmatias@gmail.com","Registro por la ESP","SERGIO GOMEZ MARIN","SOCIEDADES (EMPRESA DE SERVICIOS PUBLICOS)","MAYOR O IGUAL A 5001 USUARIOS"
"ANTIOQUIA","EL CARMEN DE VIBORAL","ACUEDUCTO","OPERATIVA","ASOCIACION DE SOCIOS DEL ACUEDUCTO RIVERA ARRIBA","ANTIOQUIA","EL CARMEN DE VIBORAL","CALLE 33 No 30-60","5430827","aguaselcarmen@gmail.com","Registro por la ESP","HORACIO DE JESUS GONZALEZ MARTINEZ","ORGANIZACION AUTORIZADA","MENOR O IGUAL A 2500 USUARIOS"
"ANTIOQUIA","EL CARMEN DE VIBORAL","ACUEDUCTO","OPERATIVA","ASOCIACION DE SOCIOS DEL ACUEDUCTO LA FLORIDA MUNICIPIO DE EL CARMEN DE VIBORAL","ANTIOQUIA","EL CARMEN DE VIBORAL","CALLE 33 No 30-60","5430827","aguaselcarmen@gmail.com","Registro por la ESP","JESUS MARIA ALZATE ZULUAGA","ORGANIZACION AUTORIZADA","MENOR O IGUAL A 2500 USUARIOS"
"ANTIOQUIA","REMEDIOS","ACUEDUCTO","OPERATIVA","AGUAS Y SERVICIOS DEL ITE  S.A.S   E.S.P.","ANTIOQUIA","MEDELLIN","CLL 33A No 78 A 56","4161177","estadistica@aassa.com.co","Registro por la ESP","NELSON DE JESUS  URIBE ARANGO","SOCIEDADES (EMPRESA DE SERVICIOS PUBLICOS)","DESDE 2501 HASTA 5000 USUARIOS"
"ANTIOQUIA","GIRARDOTA","ACUEDUCTO","OPERATIVA","ASOCIACIÓN ACUEDUCTO MULTIVEREDAL SAN ESTEBAN","ANTIOQUIA","GIRARDOTA","Vereda San Esteban Casa de Ramón Mesa","7365207","asuasanesteban@hotmail.com","Registro por la ESP","OLGA LUCIA ORTEGA CATANO","ORGANIZACION AUTORIZADA","MENOR O IGUAL A 2500 USUARIOS"
"ANTIOQUIA","GIRARDOTA","ACUEDUCTO","OPERATIVA","ASOCIACIÓN DE USUARIOS ACUECUCTO JUAN COJO- CUCHILLAS","ANTIOQUIA","GIRARDOTA","VEREDA JUAN COJO- GIRARDOTA","2800009","acueductojuancojo@hotmail.com","Registro por la ESP","CARLOS ARTURO GOMEZ ZAPATA","ORGANIZACION AUTORIZADA","MENOR O IGUAL A 2500 USUARIOS"
"ANTIOQUIA","CAREPA","ACUEDUCTO","OPERATIVA","EMPRESA DE SERVICIOS PÚBLICOS DOMICILIARIOS SERVIARAUCARIAS SAS ESP","RISARALDA","SANTA ROSA DE CABAL","CLL 13 No 9 76 esquina","3659448","admon.serviaraucarias@gmail.com","Registro por la ESP","ANDRES FELIPE CALDERON VELASQUEZ","SOCIEDADES (EMPRESA DE SERVICIOS PUBLICOS)","MENOR O IGUAL A 2500 USUARIOS"
"ANTIOQUIA","YARUMAL","ACUEDUCTO","OPERATIVA","EMPRESA DE SERVICIOS PÚBLICOS DOMICILIARIOS SERVIARAUCARIAS SAS ESP","RISARALDA","SANTA ROSA DE CABAL","CLL 13 No 9 76 esquina","3659448","admon.serviaraucarias@gmail.com","Registro por la ESP","ANDRES FELIPE CALDERON VELASQUEZ","SOCIEDADES (EMPRESA DE SERVICIOS PUBLICOS)","MENOR O IGUAL A 2500 USUARIOS"
"ANTIOQUIA","SANTO DOMINGO","ACUEDUCTO","OPERATIVA","ASOCIACIÓN DE USUARIOS DEL ACUEDUCTO AGUAS DE PORCESITO","ANTIOQUIA","SANTO DOMINGO","Corregimiento Porcesito","9999999","aso.aguasporce@hotmail.com","Registro por la ESP","GUILLERMO DE JESUS VIANA","ORGANIZACION AUTORIZADA","MENOR O IGUAL A 2500 USUARIOS"
"ANTIOQUIA","BARBOSA","ACUEDUCTO","OPERATIVA","Asociacion de Usuarios del Acueducto Yarumito Tamborcito","ANTIOQUIA","BARBOSA","cra 15 B 29A","1111111","aguacomunal@gmail.com","Registro por la ESP","MIGUEL GALLEGO MUNERA","ORGANIZACION AUTORIZADA","MENOR O IGUAL A 2500 USUARIOS"
"ANTIOQUIA","GUARNE","ACUEDUCTO","OPERATIVA","ASOCIACION DE USUARIOS ACUEDUCTO LA CHARANGA PARTE ALTA","ANTIOQUIA","GUARNE","VEREDA LA CHARANGA","2432415","verajaime707@gmail.com","Registro por la ESP","JUAN RAFAEL JARAMILLO ATEHORTUA","ORGANIZACION AUTORIZADA","MENOR O IGUAL A 2500 USUARIOS"
"ANTIOQUIA","GUARNE","ACUEDUCTO","OPERATIVA","ASOCIACION DE USUARIOS DEL ACUEDUCTO DE LA VEREDA SAN ISIDRO","ANTIOQUIA","GUARNE","VEREDA SAN ISIDRO","5517014","yereva15@gmail.com","Registro por la ESP","ANGEL MIRO RIOS VANEGAS","ORGANIZACION AUTORIZADA","MENOR O IGUAL A 2500 USUARIOS"
"ANTIOQUIA","BETULIA","ACUEDUCTO","OPERATIVA","ASOCIACIÓN DE USUARIOS DEL ACUEDUCTO DE ALTAMIRA, MUNICIPIO DE BETULIA - ANTIOQUIA","ANTIOQUIA","BETULIA","Calle 10 No.7 - 128","8630018","asuamaltamira@hotmail.com","Registro por la ESP","JAVIER DE JESUS ROJAS SOLORZANO","ORGANIZACION AUTORIZADA","MENOR O IGUAL A 2500 USUARIOS"
"ANTIOQUIA","NARINO","ACUEDUCTO","OPERATIVA","EMPRESA DE SERVICIOS PUBLICOS DE NARIÑO S.A.S. E.S.P.","ANTIOQUIA","NARINO","CR 10 Nº 13A-18","8680031","espdenarino@gmail.com","Registro por la ESP","JOHN CARLOS ZULUAGA GALLO","SOCIEDADES (EMPRESA DE SERVICIOS PUBLICOS)","MENOR O IGUAL A 2500 USUARIOS"
"ANTIOQUIA","GUARNE","ACUEDUCTO","OPERATIVA","ASOCIACION DE USUARIOS DEL ACUEDUCTO MONTANES EL AGUACATE","ANTIOQUIA","GUARNE","CL 51 No 51-25","5512344","sandramilena39448@gmail.com","Registro por la ESP","LUIS CARLOS ARANGO VELASQUEZ","ORGANIZACION AUTORIZADA","MENOR O IGUAL A 2500 USUARIOS"
"ANTIOQUIA","PENOL","ACUEDUCTO","OPERATIVA","ASOCIACIÓN DE USUARIOS DEL ACUEDUCTO PALMIRA MARIAL","ANTIOQUIA","PENOL","Transversal 6 No. 16-18 Apto 302","8517064","juntadeaccioncomunalvp@gmail.com","Registro por la ESP","CLARA ROSA MORALES LOPEZ","ORGANIZACION AUTORIZADA","MENOR O IGUAL A 2500 USUARIOS"
"ANTIOQUIA","ANORI","ACUEDUCTO","OPERATIVA","EMPRESA DE SERVICIOS PUBLICOS ANORI S.A. E.S.P.","ANTIOQUIA","ANORI","AVENIDA 31-55 CALLE LA RONDA","8300747","AUXILIARSUI@AMALFISA.COM.CO","Registro por la ESP","JORGE EDUARDO VASQUEZ IBARBO","SOCIEDADES (EMPRESA DE SERVICIOS PUBLICOS)","DESDE 2501 HASTA 5000 USUARIOS"
"ANTIOQUIA","PUERTO TRIUNFO","ACUEDUCTO","OPERATIVA","ASOCIACIÓN DE USUARIOS DEL ACUEDUCTO CORREGIMIENTO SANTIAGO BERRIO","ANTIOQUIA","PUERTO TRIUNFO","CALLE 10 N 10-17","8352392","acueductosantiagoberrio@gmail.com","Registro por la ESP","SOBEIDA MONTANO RINCON","ORGANIZACION AUTORIZADA","MENOR O IGUAL A 2500 USUARIOS"
"ANTIOQUIA","COPACABANA","ACUEDUCTO","OPERATIVA","ASOCIACIÓN DE USUARIOS DEL ACUEDUCTO VEREDAL LA VETA CENTRO","ANTIOQUIA","COPACABANA","VEREDA LA VETA COPACABANA","4011930","josearangoe@yahoo.es","Registro por la ESP","ALVARO URIBE ISAZA","ORGANIZACION AUTORIZADA","MENOR O IGUAL A 2500 USUARIOS"
"ANTIOQUIA","PENOL","ACUEDUCTO","OPERATIVA","ASOCIACIÓN DE ACUEDUCTO MULTIVEREDAL JESUS ARCESIO BOTERO BOTERO VEREDA MORRO - UVITAL","ANTIOQUIA","PENOL","VEREDA EL MORRO SEDE ACUEDUCTO","8515855","jabbacueductomultiveredal@gmail.com","Registro por la ESP","JAIME ALBERTO GIRALDO  CARDONA","ORGANIZACION AUTORIZADA","MENOR O IGUAL A 2500 USUARIOS"
"ANTIOQUIA","EL SANTUARIO","ACUEDUCTO","OPERATIVA","ASOCIACIÓN DE ASOCIADOS ACUEDUCTO ALTO DEL CALVARIO","ANTIOQUIA","EL SANTUARIO","cll 50 No. 50-52","5462330","asoacueductoelcalvario@gmail.com","Registro por la ESP","FRANCISCO ALBERTO ORREGO GIL","ORGANIZACION AUTORIZADA","MENOR O IGUAL A 2500 USUARIOS"
"ANTIOQUIA","LA ESTRELLA","ACUEDUCTO","OPERATIVA","ANTIOQUEÑA DE AGUAS Y ASEO SAS ESP","ANTIOQUIA","MEDELLIN","carrera 50 50-48 interior 700","4440461","adeaasas@hotmail.com","Registro por la ESP","CRUZ ELENA PALACIO ORTIZ","SOCIEDADES (EMPRESA DE SERVICIOS PUBLICOS)","MENOR O IGUAL A 2500 USUARIOS"
"ANTIOQUIA","GUATAPE","ACUEDUCTO","OPERATIVA","ASOCIACIÓN DE USUARIOS DE ACUEDUCTO Y ALCANTARILLADO VEREDA EL ROBLE","ANTIOQUIA","GUATAPE","Caseta Comunal Sector El Roble","8610555","alvaro3428246@hotmail.com","Registro por la ESP","ALVARO BLANDON  ORTEGA","ORGANIZACION AUTORIZADA","MENOR O IGUAL A 2500 USUARIOS"
"ANTIOQUIA","APARTADO","ACUEDUCTO","OPERATIVA","Empresas Publicas de Apartado S.A.S. ESP","ANTIOQUIA","APARTADO","Carrera 100 103A-02 Bloque A Piso 3 Oficina 303","8289400","dinamactoro@gmail.com","Registro por la ESP","HECTOR HERNAN PALACIOS PALACIOS","SOCIEDADES (EMPRESA DE SERVICIOS PUBLICOS)","MENOR O IGUAL A 2500 USUARIOS"
"ANTIOQUIA","RETIRO","ACUEDUCTO","OPERATIVA","SOCIEDAD FUENTE DE VIDA SAS ESP","ANTIOQUIA","MARINILLA","Carrera 30No. 31-28 Piso 2","3206724","gerencia@fuentedevidaesp.com","Registro por la ESP","FERNEY ELIECER ARBELAEZ GUTIERREZ","SOCIEDADES (EMPRESA DE SERVICIOS PUBLICOS)","MENOR O IGUAL A 2500 USUARIOS"
"ANTIOQUIA","ITAGUI","ACUEDUCTO","OPERATIVA","ASOCIACION ADMINISTRADORA ACUEDUCTO VEREDAL LA ESPERANZA","ANTIOQUIA","ITAGUI","CR 47a # 59-77","2851249","acueductoporvenir@gmail.com","Registro por la ESP","LEIDYBEL BETANCURT GOMEZ","ORGANIZACION AUTORIZADA","MENOR O IGUAL A 2500 USUARIOS"
"ANTIOQUIA","ITAGUI","ACUEDUCTO","OPERATIVA","Asociación Acueducto Veredal El Pedregal","ANTIOQUIA","ITAGUI","CRA 67 A # 71 -143","2940424","acueductopedregal123@gmail.com","Registro por la ESP","ALBERTO DE JESUS GARCIA ESTRADA","ORGANIZACION AUTORIZADA","MENOR O IGUAL A 2500 USUARIOS"
"ANTIOQUIA","ITAGUI","ACUEDUCTO","OPERATIVA","Junta Administradora Acueducto Vereda El Ajizal sector Los Florianos","ANTIOQUIA","ITAGUI","VEREDA AJIZAL SECTOR LOS FLORIANOS","3765274","acueductoflorianos@gmail.com","Registro por la ESP","WILMAR ALEXIS GIRALDO","ORGANIZACION AUTORIZADA","MENOR O IGUAL A 2500 USUARIOS"
"ANTIOQUIA","ITAGUI","ACUEDUCTO","OPERATIVA","Asociación Acueducto Veredal Fuente de Vida","ANTIOQUIA","ITAGUI","VDA LOS YEPEZ","5799706","acueductolosyepes@gmail.com","Registro por la ESP","DENY JANETH SUCERQUIA RESTREPO","ORGANIZACION AUTORIZADA","MENOR O IGUAL A 2500 USUARIOS"
"ANTIOQUIA","ITAGUI","ACUEDUCTO","OPERATIVA","Asociación Acueducto Veredal Barrio Nuevo","ANTIOQUIA","ITAGUI","VEREDA BARRIO NUEVO","2089306","acueductobarrionuevo@gmail.com","Registro por la ESP","MARIBEL ROJAS MONTOYA","ORGANIZACION AUTORIZADA","MENOR O IGUAL A 2500 USUARIOS"
"ANTIOQUIA","ITAGUI","ACUEDUCTO","OPERATIVA","Acueducto Veredal Comunidad Unida por el Mejoramiento del Agua","ANTIOQUIA","ITAGUI","CL 40 VEREDA LOS OLIVARES","3733813","acueductocuma@gmail.com","Registro por la ESP","ROSALBA LONODO MORALES","ORGANIZACION AUTORIZADA","MENOR O IGUAL A 2500 USUARIOS"
"ANTIOQUIA","COPACABANA","ACUEDUCTO","OPERATIVA","junta administradora de usuarios del acueducto la montañuela","ANTIOQUIA","COPACABANA","vereda quebrada arriba sector montañuela","4196640","luci381@outlook.es","Registro por la ESP","LUCELLY GOMEZ JIMENEZ","ORGANIZACION AUTORIZADA","MENOR O IGUAL A 2500 USUARIOS"
"ANTIOQUIA","BARBOSA","ACUEDUCTO","OPERATIVA","ASOCIACIÓN DE USUARIOS DEL ACUEDUCTO LA DELGADITA BARBOSA","ANTIOQUIA","BARBOSA","Vereda Isaza","4664812","consueloacueducto@gmail.com","Registro por la ESP","CONSUELO DE FATIMA CASTRILLON M.","ORGANIZACION AUTORIZADA","MENOR O IGUAL A 2500 USUARIOS"
"ANTIOQUIA","ALEJANDRIA","ACUEDUCTO","OPERATIVA","ASOCIACION DE USUARIOS DEL ACUEDUCTO RURAL SAN MIGUEL RESPALDO","ANTIOQUIA","ALEJANDRIA","Vereda San Miguel El Respaldo","8660016","asociacionsanmiguelrespaldo@gmail.com","Registro por la ESP","LIBIA ESTRELLA OROZCO MARIN","ORGANIZACION AUTORIZADA","MENOR O IGUAL A 2500 USUARIOS"
"ANTIOQUIA","CIUDAD BOLIVAR","ACUEDUCTO","OPERATIVA","ASOCIACION DE USUARIOS DEL ACUEDUCTO ALTO DE LOS JARAMILLOS","ANTIOQUIA","CIUDAD BOLIVAR","VEREDA ALTO DE LOS JARAMILLOS","8411183","jaramillojaramilloleonel@gmail.com","Registro por la ESP","LEONEL JARAMILLO JARAMILLO","ORGANIZACION AUTORIZADA","MENOR O IGUAL A 2500 USUARIOS"
"ANTIOQUIA","CIUDAD BOLIVAR","ACUEDUCTO","OPERATIVA","ASOCIACION DE USUARIOS DEL ACUEDUCTO MULTIVEREDAL VENTORRILLO - ABEJERO MUNICIPIO CIUDAD BOLÍVAR","ANTIOQUIA","CIUDAD BOLIVAR","VEREDA VENTORRILLO","8411183","asociacionacueductocb@gmail.com","Registro por la ESP","LUZ MERY TABORDA TABORDA","ORGANIZACION AUTORIZADA","MENOR O IGUAL A 2500 USUARIOS"
"ANTIOQUIA","SAN VICENTE FERRER","ACUEDUCTO","OPERATIVA","ASOCIACION DE SUSCRIPTORES DEL ACUEDUCTO MULTIVEREDAL LA QUINTERO","ANTIOQUIA","SAN VICENTE FERRER","VEREDA LAS FRIAS","2932473","cesarramiroboteromarin@gmail.com","Registro por la ESP","CESAR RAMIRO BOTERO MARIN","ORGANIZACION AUTORIZADA","MENOR O IGUAL A 2500 USUARIOS"
"ANTIOQUIA","ALEJANDRIA","ACUEDUCTO","OPERATIVA","ASOCIACION DE USUARIOS DEL ACUEDUCTO VEREDAL EL POPO","ANTIOQUIA","ALEJANDRIA","VEREDA EL POPO","8660016","acueductoruralelpopo@gmail.com","Registro por la ESP","MARIA MARGARITA MARIN DE VILLA","ORGANIZACION AUTORIZADA","MENOR O IGUAL A 2500 USUARIOS"
"ANTIOQUIA","CIUDAD BOLIVAR","ACUEDUCTO","OPERATIVA","ASOCIACION DE SUSCRIPTORES O USUARIOS DEL ACUEDUCTO LA ARBOLEDA","ANTIOQUIA","CIUDAD BOLIVAR","VEREDA LA ARBOLEDA","8423507","raul.ortiz@cafeterosdecolombia.com","Registro por la ESP","RAUL ANTONIO ORTIZ VARGAS","ORGANIZACION AUTORIZADA","MENOR O IGUAL A 2500 USUARIOS"
"ANTIOQUIA","TITIRIBI","ACUEDUCTO","OPERATIVA","ASOCIACION DE SUSCRIPTORES O USUARIOS ACUEDUCTO Y ALCANTARILLADO EL PORVENIR","ANTIOQUIA","TITIRIBI","VEREDA EL PORVENIR","8470252","acueductoelporvenirtitiribi@gmail.com","Registro por la ESP","SILVIA ESTER PINO IBARRA","ORGANIZACION AUTORIZADA","MENOR O IGUAL A 2500 USUARIOS"
"ANTIOQUIA","EL BAGRE","ACUEDUCTO","OPERATIVA","asociacion de usuarios acueductoy alcantarillado puerto claver","ANTIOQUIA","EL BAGRE","barrio la union","8378116","jluisrodriguezmontoya08@hotmail.com","Registro por la ESP","JORGE LUIS  RODRIGUEZ MONTOYA","ORGANIZACION AUTORIZADA","MENOR O IGUAL A 2500 USUARIOS"
"ANTIOQUIA","RETIRO","ACUEDUCTO","OPERATIVA","ASOCIACION DE USUARIOS DEL ACUEDUCTO VEREDA LEJOS DEL NIDO","ANTIOQUIA","RETIRO","VEREDA LEJOS DEL NIDO","3576807","verajaime707@gmail.com","Registro por la ESP","LUZ BIBIANA CASTRO VILLADA","ORGANIZACION AUTORIZADA","MENOR O IGUAL A 2500 USUARIOS"
"ANTIOQUIA","CALDAS","ACUEDUCTO","OPERATIVA","JUNTA DE ACCION COMUNAL VEREDA LA VALERIA","ANTIOQUIA","CALDAS","Calle 128 sur vereda la Valeria","4995608","reygilsanchez@hotmail.com","Registro por la ESP","REINALDO ANTONIO GIL  SANCHEZ","ORGANIZACION AUTORIZADA","MENOR O IGUAL A 2500 USUARIOS"
"ANTIOQUIA","FREDONIA","ACUEDUCTO","OPERATIVA","ASOCIACION DE USUARIOS DEL ACUEDUCTO VEREDAL AGUA PURA LA MARIA","ANTIOQUIA","FREDONIA","VEREDA LA MARIA","0000000","acueductoaguapuralamaria@hotmail.com","Registro por la ESP","OCTAVIO DE JESUS PENAGOS GALLEGO","ORGANIZACION AUTORIZADA","MENOR O IGUAL A 2500 USUARIOS"
"ANTIOQUIA","ALEJANDRIA","ACUEDUCTO","OPERATIVA","ASOCIACION DE USUARIOS SUSCRIPTORES DEL ACUEDUCTO MULTIVEREDAL CRUCES EL CERRO LA INMACULADA Y SAN JOSE","ANTIOQUIA","ALEJANDRIA","VEREDA CRUCES","8660102","natyarenasa@gmail.com","Registro por la ESP","FERNANDO ANTONIO VERGARA GUARIN","ORGANIZACION AUTORIZADA","MENOR O IGUAL A 2500 USUARIOS"
