"dm_institucion_cod_institucion","nombre","ccb_nit_inst","orden","suborden","nivel_institucion","clasificacion_organica","sector","naturaleza_juridica","tipo_institucion","idmunicipio","municipio","iddepartamento","departamento","direccion","fax","email","ccb_telefono","ccb_pagina_web","longitud","latitud","estado_ins"
"3008","CENTRO DE SALUD SAN BLAS - MORROA","823002856","Territorial","Municipal","Descentralizado","Ejecutiva","No Aplica","Empresas Sociales del Estado","Vinculación","473","MORROA","70","Sucre","CARRERA 7 No 10-70","(5)-2840563","esesanblasdemorroa@hotmail.es","(5)-2840563","NO DISPONIBLE","-75.307733","9.332193","Activa"
"1062","ALCALDÍA DE SAN ONOFRE","892200592-3","Territorial","Municipal","Central","Ejecutiva","No Aplica","Alcaldía","Adscripción","713","SAN ONOFRE","70","Sucre","CENTRO PLAZA PRINCIPAL","095-2983235","alcaldia@sanonofre-sucre.gov.co","3205009491","http://www.sanonofre-sucre.gov.co","-75.519872","9.74084","Activa"
"2799","CENTRO DE SALUD SAMPUES","900208532","Territorial","Municipal","Descentralizado","Ejecutiva","No Aplica","Empresas Sociales del Estado","Vinculación","670","SAMPUÉS","70","Sucre","Calle 21 No. 24-37 Barrio Millan Vargas","301-4570825","NULL","2838139","NO DISPONIBLE","-75.381105","9.18357","Activa"
"3954","EMPRESA DE ACUEDUCTO, ALCANTARILLADO Y ASEO DE OVEJAS - SUCRE","900085690","Territorial","Municipal","Descentralizado","Ejecutiva","No Aplica","Empresas de Servicios Públicos Domiciliarios - Oficiales","Vinculación","508","OVEJAS","70","Sucre","Calle El Esfuerzo  23 -09","095-2869692","aaadeovejas@hotmail.com","300-6148035","NO DISPONIBLE","-75.227529","9.525856","Activa"
"0380","ALCALDÍA DE COROZAL","892280032","Territorial","Municipal","Central","Ejecutiva","No Aplica","Alcaldía","Adscripción","215","COROZAL","70","Sucre","Carrera 28 No 31A-08 Barrio San Juan - Palacio Municipal - Corozal","095-2840463","alcaldia@corozal-sucre.gov.co 
contactenos@corozal-sucre.gov.co","2840460","http://www.corozal-sucre.gov.co","-75.294467","9.321697","Activa"
"2778","CENTRO DE SALUD COVEÑAS","823004853","Territorial","Municipal","Descentralizado","Ejecutiva","No Aplica","Empresas Sociales del Estado","Vinculación","221","COVEÑAS","70","Sucre","SECTOR EL CAMPANO - LA PLAYA","095-2880723","centrodesaludcovenas123@hotmail.com","2499329","NO DISPONIBLE","-75.681642","9.402597","Activa"
"2907","CENTRO DE SALUD - CHALAN  SUCRE","823004927","Territorial","Municipal","Descentralizado","Ejecutiva","No Aplica","Empresas Sociales del Estado","Vinculación","230","CHALÁN","70","Sucre","Calle Principal frente al parque","095-2806339","esechalan@hotmail.com","095-2806401","NO DISPONIBLE","-75.312885","9.545827","Activa"
"3745","EMPRESA DE ACUEDUCTO, ALCANTARILLO Y ASEO DE SAN ANTONIO DE PALMITO-ACUAPAL","900254562","Territorial","Municipal","Descentralizado","Ejecutiva","No Aplica","Empresas de Servicios Públicos Domiciliarios - Oficiales","Vinculación","523","PALMITO","70","Sucre","Calle 6 No. 6-52 calle Central San Antonio de Palmito - Sucre","095-2822784","acuapalsaesp@yahoo.es","5 - 2822784","NO DISPONIBLE","-75.540823","9.333659","Activa"
"5124","PERSONERÍA DE CAIMITO","823000869","Territorial","Municipal","No Aplica","Organismos de control y vigilancia","No Aplica","Personeria Municipal","No Aplica","124","CAIMITO","70","Sucre","Carrera 15A N. 10 - 01 Plaza Principal, Palacio Municipal Primera Oficina","57 - 5 - 2904136","persocaimito@hotmail.com","57 - 5 - 2904136","http://www.caimito-sucre.gov.co/Personeria.shtml","-75.11489","8.789558","Activa"
"3004","ESE CENTRO DE SALUD SAN ANTONIO DE PALMITO","900208755","Territorial","Municipal","Descentralizado","Ejecutiva","No Aplica","Empresas Sociales del Estado","Vinculación","523","PALMITO","70","Sucre","CL 05 No. 2C - 21","(5)-2862143","esepalmito@sanantoniodepalmito-sucre.gov.co","(5)-2862143","NO DISPONIBLE","-75.540823","9.333659","Activa"
"4257","EMPRESAS PÚBLICAS DE SANTIAGO DE TOLÚ","999999999","Territorial","Municipal","Descentralizado","Ejecutiva","No Aplica","Empresas de Servicios Públicos Domiciliarios - Mixtas","Vinculación","820","SANTIAGO DE TOLÚ","70","Sucre","Carrera 3  16 - 17","095-9999999","entidad@pordefinir.gov.co","095-9999999","NO DISPONIBLE","-75.581273","9.527515","Activa"
"0442","ALCALDÍA DE OVEJAS","800100729","Territorial","Municipal","Central","Ejecutiva","No Aplica","Alcaldía","Adscripción","508","OVEJAS","70","Sucre","plaza principal","095-869086","alcaldia@ovejasucre.gov.co","2869086","http://www.ovejas-sucre.gov.co/informacion_general.","-75.227529","9.525856","Activa"
"0490","ALCALDÍA DE SAN LUIS DE SINCÉ","800100747","Territorial","Municipal","Central","Ejecutiva","No Aplica","Alcaldía","Adscripción","742","SAN LUIS DE SINCÉ","70","Sucre","carrera 11 No 8-10","095-2895207","contactenos@since-sucre.gov.co","2895207","http://www.since-sucre.gov.co/","-75.146445","9.241075","Activa"
"4761","INSTITUTO MUNICIPAL PARA EL DEPORTE Y LA RECREACION DE SINCELEJO","823000308","Territorial","Municipal","Descentralizado","Ejecutiva","No Aplica","Establecimiento Público","Adscripción","001","SINCELEJO","70","Sucre","cra. 13- calle 31 polideportivo san vicente","095-2805700","imdersincelejo7@hotmail.com","2805700","http://www.imdersincelejo.gov.co","-75.390557","9.304577","Activa"
"4886","PERSONERÍA DE GUARANDA","NULL","Territorial","Municipal","No Aplica","Organismos de control y vigilancia","No Aplica","Personeria Municipal","No Aplica","265","GUARANDA","70","Sucre","VACIA","NULL","NULL","VACIA","NO DISPONIBLE","-74.537025","8.46831","Activa"
"1200","ALCALDÍA DE TOLUVIEJO","800100751","Territorial","Municipal","Central","Ejecutiva","No Aplica","Alcaldía","Adscripción","823","TOLÚ VIEJO","70","Sucre","Diagonal 2 No 6-12 calle real","095-2894003","contactenos@toluviejo-sucre.gov.co","300 2771719","http://www.toluviejo-sucre.gov.co","-75.439135","9.452849","Activa"
"2460","CONCEJO DE SAN JUAN DE BETULIA","NULL","Territorial","Municipal","No Aplica","Corporaciones administrativas","No Aplica","Concejo Municipal","No Aplica","702","SAN JUAN DE BETULIA","70","Sucre","Carrera 7 Calle La Esperanza- Esquina Barrio Centro","NULL","contacenos@sanjuandebetulia-sucre.gov.co","575-2490267","http://www.sanjuandebetulia-sucre.gov.co/concejo.shtml","-75.243774","9.274374","Activa"
"3913","EMPRESA DE SERVICIOS PUBLICOS DE COROZAL","800084547","Territorial","Municipal","Descentralizado","Ejecutiva","No Aplica","Empresas de Servicios Públicos Domiciliarios - Oficiales","Vinculación","215","COROZAL","70","Sucre","Carrera 2   30 - 26","095-6840294","imdersincelejo7@hotmail.com","095-6840294","NO DISPONIBLE","-75.294467","9.321697","Activa"
"5356","PERSONERÍA DE OVEJAS","NULL","Territorial","Municipal","No Aplica","Organismos de control y vigilancia","No Aplica","Personeria Municipal","No Aplica","508","OVEJAS","70","Sucre","VACIA","NULL","NULL","0","NO DISPONIBLE","-75.227529","9.525856","Activa"
"1406","CASA DE LA CULTURA HUMBERTO HERNANDEZ SANCHEZ DE COVEÑAS","900232996","Territorial","Municipal","Descentralizado","Ejecutiva","No Aplica","Establecimiento Público","Adscripción","221","COVEÑAS","70","Sucre","Cra. 4 No. 1-10 Urbanización Alikante, Coveñas (Sucre)","NULL","marylopez1806@yahoo.es","3004527044","NO DISPONIBLE","-75.681642","9.402597","Activa"
"5616","PERSONERÍA DE GALERAS","823000817","Territorial","Municipal","No Aplica","Organismos de control y vigilancia","No Aplica","Personeria Municipal","No Aplica","235","GALERAS","70","Sucre","Kra 15 B Nº 15-18","NULL","nelvysmerlano@hotmail.com","3114089307","NO DISPONIBLE","-74.991011","9.117596","Activa"
"3029","CENTRO DE SALUD SANTA LUCÍA - BUENAVISTA","823002149","Territorial","Municipal","Descentralizado","Ejecutiva","No Aplica","Empresas Sociales del Estado","Vinculación","110","BUENAVISTA","70","Sucre","Calle 10 Nº 10-39 Buenavista","(5)-2901260","f_buenavista@hotmail.com","(5)-2901260","NO DISPONIBLE","-75.482981","8.222953","Activa"
"4378","FONDO ROTATORIO MUNICIPAL DE VALORIZACIÓN DE SINCELEJO - FOMVAS -","823002933","Territorial","Municipal","Descentralizado","Ejecutiva","No Aplica","Establecimiento Público","Adscripción","001","SINCELEJO","70","Sucre","Cra 19A 14-92 la Ford","NULL","asesor2-fomvas@sincelejo.gov.co","2829328","NO DISPONIBLE","-75.390557","9.304577","Activa"
"4372","FONDO MUNICIPAL DE VIVIENDA DE INTERES SOCIAL Y REFORMA URBANA DE SINCELEJO -FOVIS-","823000029","Territorial","Municipal","Descentralizado","Ejecutiva","No Aplica","Establecimiento Público","Adscripción","001","SINCELEJO","70","Sucre","carrera 20 calle 22 esquina antiguo palacio municipal.","095-2741190","fovis_2008@hotmail.com","2741190","NO DISPONIBLE","-75.390557","9.304577","Activa"
"0366","ALCALDÍA DE COLOSO","892280053","Territorial","Municipal","Central","Ejecutiva","No Aplica","Alcaldía","Adscripción","204","COLOSO","70","Sucre","PLAZA PRINCIPAL-COLOSO SUCRE","095-2824550","alcaldiacoloso@hotmail.com
contactenos@coloso-sucre.gov.co","3145064821","http://www.coloso-sucre.gov.co/","-75.355767","9.490946","Activa"
"3529","HOSPITAL REGIONAL  SAN MARCOS - SUCRE","800191643-6","Territorial","Departamental","Descentralizado","Ejecutiva","No Aplica","Empresas Sociales del Estado","Vinculación","708","SAN MARCOS","70","Sucre","Calle 22, Carreras 20 y 22,","+57 (5) 295 48 00","contacto@esehospitalregionalsanmarcos.gov.co","+57 (5) 295 41 00 311 415 71 41 - 311 415 71 43","http://www.esehospitalregionalsanmarcos.gov.co/","-75.128872","8.662577","Activa"
"4173","EMPRESA COMERCIAL DE JUEGOS DE SUERTE Y AZAR DE SUCRE","900159228","Territorial","Municipal","Descentralizado","Ejecutiva","No Aplica","Empresas Industriales y Comerciales del Estado","Vinculación","001","SINCELEJO","70","Sucre","Calle 25   25 B-35","095-2743911","emcoazar@yahoo.es","095-2815576","NO DISPONIBLE","-75.390557","9.304577","Activa"
"6030","PERSONERÍA DE TOLUVIEJO","823002530","Territorial","Municipal","No Aplica","Organismos de control y vigilancia","No Aplica","Personeria Municipal","No Aplica","823","TOLÚ VIEJO","70","Sucre","Diagonal 2 N 6 - 12 calle real Toluviejo - Sucre","(57 5)2949904","nagovi_3@hotmail.com","3114116581 (57 5)2949904","NO DISPONIBLE","-75.439135","9.452849","Activa"
"1754","CONCEJO DE CHALAN","NULL","Territorial","Municipal","No Aplica","Corporaciones administrativas","No Aplica","Concejo Municipal","No Aplica","230","CHALÁN","70","Sucre","VACIA","NULL","NULL","000","NO DISPONIBLE","-75.312885","9.545827","Activa"
"8354","SOCIEDAD ALMIDONES DE SUCRE S.A.","NULL","Territorial","Municipal","Descentralizado","Ejecutiva","NULL","Sociedad de Economía Mixta","Vinculación","215","COROZAL","70","Sucre","Km 4.5 Vía Sincelejo - Corozal","NULL","NULL","320 5657684 - 2499005","NO DISPONIBLE","-75.294467","9.321697","Activa"
"2265","CONCEJO DE MAJAGUAL","NULL","Territorial","Municipal","No Aplica","Corporaciones administrativas","No Aplica","Concejo Municipal","No Aplica","429","MAJAGUAL","70","Sucre","Calle 5 N° 22 - 07 - Palacio Municipal","NULL","contactenos@majagual-sucre.gov.co","57 + 5 2871545","http://www.majagual-sucre.gov.co/concejo.shtml","-74.628099","8.54125","Activa"
"1009","ALCALDÍA DE SAN BENITO ABAD - SUCRE","892280054","Territorial","Municipal","Central","Ejecutiva","No Aplica","Alcaldía","Adscripción","678","SAN BENITO ABAD","70","Sucre","Cl  15  # 11 - 50","095-2930003,2030004","alcaldia@sanbenitoabad-sucre.gov.co","2930004","http://www.sanbenitoabad-sucre.gov.co","-75.030651","8.931132","Activa"
"2939","CENTRO DE SALUD DE GUARANDA - SUCRE","823003985","Territorial","Municipal","Descentralizado","Ejecutiva","No Aplica","Empresas Sociales del Estado","Vinculación","265","GUARANDA","70","Sucre","Calle 5ta Plaza Centro","091-2911001,2911020","ESEGUARANDA@YAHOO.com","2911020","http://ESEGUARANDA.COM","-74.537025","8.46831","Activa"
"5887","PERSONERÍA DE SAN ANTONIO DE PALMITO","823000246","Territorial","Municipal","No Aplica","Organismos de control y vigilancia","No Aplica","Personeria Municipal","No Aplica","523","PALMITO","70","Sucre","Ck 8 No 5 - 58 San Antonio de Palmito","2 49 79 00","personeria@sanantoniodepalmito-sucre.gov.co","2 49 79 00","http://www.sanantoniodepalmito-sucre.gov.co/Personeria","-75.540823","9.333659","Activa"
"5481","PERSONERÍA DE SINCE","823000238","Territorial","Municipal","No Aplica","Organismos de control y vigilancia","No Aplica","Personeria Municipal","No Aplica","742","SAN LUIS DE SINCÉ","70","Sucre","Carrera 11 Nº 8-10 Parque Simón Bolívar","2895207","contactenos@since-sucre.gov.co","2895207","NO DISPONIBLE","-75.146445","9.241075","Activa"
"0708","ALCALDÍA DE LA UNIÓN -  SUCRE","800050331","Territorial","Municipal","Central","Ejecutiva","No Aplica","Alcaldía","Adscripción","400","LA UNIÓN","70","Sucre","Avenida Nuñez Calle 14 No.8A-45","095-2919013","alcaldia@launionsucre.gov.co","2919140-2919013 -3126596730","NO DISPONIBLE","-75.281155","8.853929","Activa"
"1126","ALCALDÍA DE SINCELEJO","800104062","Territorial","Municipal","Central","Ejecutiva","No Aplica","Alcaldía","Adscripción","001","SINCELEJO","70","Sucre","Carrera 17 No. 22 - 42 Centro Ejecutivo Los Andes","095-2748208","contactenos@sincelejo-sucre.gov.co","(5) 2826264 ext. 111-113","https://www.alcaldiadesincelejo.gov.co/Paginas/default.aspx","-75.390557","9.304577","Activa"
"8431","EMPRESA OFICIAL DE ACUEDUCTO, ALCANTARILLADO Y ASEO SAMPUES E.S.P -","823000796","Territorial","Municipal","Descentralizado","Ejecutiva","NULL","Empresas Industriales y Comerciales del Estado","Adscripción","670","SAMPUÉS","70","Sucre","TRANSVERSAL 13# 18- 107 Barrio Santa Marta","NULL","espempasam@yahoo.com.co","3104059708","http://www.empasam.com","-75.381105","9.18357","Activa"
"2520","CONCEJO DE SINCELEJO","NULL","Territorial","Municipal","No Aplica","Corporaciones administrativas","No Aplica","Concejo Municipal","No Aplica","001","SINCELEJO","70","Sucre","Cr 20 No. 22 - 25 Palacio Municipal","NULL","concejo@sincelejo-sucre.gov.co","(5) 2826315","http://www.sincelejo-sucre.gov.co/concejo.shtml","-75.390557","9.304577","Activa"
"0883","CORPORACION AUTONOMA REGIONAL DE SUCRE","823000050","Nacional","No Aplica","No Aplica","Entes autónomos","Ambiente y Desarrollo Sostenible","Órganos autónomos","Régimen Autónomo","001","SINCELEJO","70","Sucre","Cra 25 No. 25-101 Avenida Ocala","(57)5 2749996","carsucre@carsucre.gov.co","(57)5 2749995","http://www.carsucre.gov.co/","-75.390557","9.304577","Activa"
"4842","JUNTA MUNICIPAL DE DEPORTES Y RECREACION DE SAMPUÉS","823000567","Territorial","Municipal","Descentralizado","Ejecutiva","No Aplica","Establecimiento Público","Adscripción","670","SAMPUÉS","70","Sucre","Carrera 24 Nº 20-25","NULL","jundesam46@hotmail.es","2830094","NO DISPONIBLE","-75.381105","9.18357","Activa"
"2784","CENTRO DE SALUD EL ROBLE","900205773","Territorial","Municipal","Descentralizado","Ejecutiva","No Aplica","Empresas Sociales del Estado","Vinculación","233","EL ROBLE","70","Sucre","PARQUE PRINCIPAL","314-5098253","eseelroble2008@hotmail.com","300-7252206","NO DISPONIBLE","-75.19554","9.10192","Activa"
"2467","CONCEJO DE SAN MARCOS","NULL","Territorial","Municipal","No Aplica","Corporaciones administrativas","No Aplica","Concejo Municipal","No Aplica","708","SAN MARCOS","70","Sucre","Calle 18 entre carreras 25 y 26 San Marcos - Sucre","NULL","concejo@sanmarcos-sucre.gov.co","2954114","http://www.sanmarcos-sucre.gov.co/concejo.shtml","-75.128872","8.662577","Activa"
"5458","PERSONERÍA DE SAN PEDRO SUCRE","823000133","Territorial","Municipal","No Aplica","Organismos de control y vigilancia","No Aplica","Personeria Municipal","No Aplica","717","SAN PEDRO","70","Sucre","Carrera 9 No 13 - 10 edifico Alcaldia Primer piso","NULL","personeria@sanpedro-sucre.gov.co","2992189","NO DISPONIBLE","-75.064008","9.393723","Activa"
"0295","ALCALDÍA DE COVEÑAS","823003543","Territorial","Municipal","Central","Ejecutiva","No Aplica","Alcaldía","Adscripción","221","COVEÑAS","70","Sucre","Calle 3B No.4-16 Urbanización Alicante","095-952880528","alcaldia@covenas-sucre.gov.co","2880528","http://www.alcadiadecovenas.gov.co","-75.681642","9.402597","Activa"
"0342","ALCALDÍA DE CHALAN","892200740","Territorial","Municipal","Central","Ejecutiva","No Aplica","Alcaldía","Adscripción","230","CHALÁN","70","Sucre","calle real 6 N° 5-33","095-2813829","contactenos@chalan-sucre.gov.co","2820-030","http://www.chalan-sucre.gov.co","-75.312885","9.545827","Activa"
"3548","HOSPITAL REGIONAL NUESTRA SEÑORA DE LAS MERCEDES  -COROZAL","890480113","Territorial","Departamental","Descentralizado","Ejecutiva","No Aplica","Empresas Sociales del Estado","Vinculación","215","COROZAL","70","Sucre","Calle 32 No 31-65 Corozal Sucre","095-2841488","hregcorozal@yahoo.com","2840002-EXT 127","http://hospitallasmercedesdecorozalsucre.gov.co/","-75.294467","9.321697","Activa"
"3984","EMPRESA DE SERVICIOS DE SAN MARCOS - ESAM","823000888","Territorial","Municipal","Descentralizado","Ejecutiva","No Aplica","Empresas de Servicios Públicos Domiciliarios - Oficiales","Vinculación","708","SAN MARCOS","70","Sucre","Carrera  21  20-34 Palacio Municipal Piso 2","095-2954114","www.essanmarcos_essanmarcos@hotmail.com","095-2954280","NO DISPONIBLE","-75.128872","8.662577","Activa"
"0743","ALCALDÍA DE MAJAGUAL","892280057","Territorial","Municipal","Central","Ejecutiva","No Aplica","Alcaldía","Adscripción","429","MAJAGUAL","70","Sucre","Calle 5 N 22-05 Majagual","095-871045","contactenos@majagual-sucre.gov.co","3145447373","NO DISPONIBLE","-74.628099","8.54125","Activa"
"1065","ALCALDÍA DE SAN PEDRO - SUCRE","892280063","Territorial","Municipal","Central","Ejecutiva","No Aplica","Alcaldía","Adscripción","717","SAN PEDRO","70","Sucre","CALLE PRINCIPAL SAN PEDRO - SUCRE","095-2298200","contactenos@sanpedro-sucre.gov.co","3107212562","http://www.sanpedro-sucre.gov.co/","-75.064008","9.393723","Activa"
"0561","ALCALDÍA DE EL ROBLE","823002595","Territorial","Municipal","Central","Ejecutiva","No Aplica","Alcaldía","Adscripción","233","EL ROBLE","70","Sucre","Calle 6 Kr 6-9","095-2810721","contactenos@elroble-sucre.gov.co","2816045","http://www.elroble-sucre.gov.co/","-75.19554","9.10192","Activa"
"8208","EMPRESA DE SERVICIOS PÚBLICOS AGUAS DE COLOSO S.A.","NULL","Territorial","Municipal","Descentralizado","Ejecutiva","NULL","Empresas de Servicios Públicos Domiciliarios - Oficiales","Vinculación","204","COLOSO","70","Sucre","vacia","NULL","NULL","000","NO DISPONIBLE","-75.355767","9.490946","Activa"
"1054","ALCALDÍA DE SAN MARCOS - SUCRE","892200591","Territorial","Municipal","Central","Ejecutiva","No Aplica","Alcaldía","Adscripción","708","SAN MARCOS","70","Sucre","Calle 18 entre carreras 25 y 26","094-7754050","contactenos@sanmarcos-sucre.gov.co","2954114","http://www.sanmarcos-sucre.gov.co","-75.128872","8.662577","Activa"
"4982","PERSONERÍA DE BUENAVISTA -- BUENAVISTA, SUCRE","823002339","Territorial","Municipal","No Aplica","Organismos de control y vigilancia","No Aplica","Personeria Municipal","No Aplica","110","BUENAVISTA","70","Sucre","Calle 8 N° 7 - 08","NULL","juanfra88@hotmail.com","2901249","NO DISPONIBLE","-75.482981","8.222953","Activa"
"5709","PERSONERÍA DE LOS PALMITOS","823000357","Territorial","Municipal","No Aplica","Organismos de control y vigilancia","No Aplica","Personeria Municipal","No Aplica","418","LOS PALMITOS","70","Sucre","carrera 12 No 06-06","NULL","rafa0633@hotmail.com","2922188","http://www.lospalmitos-sucre.gov.co/","-75.27095","9.380494","Activa"
"5917","PERSONERÍA DE SAN JUAN DE BETULIA","NULL","Territorial","Municipal","No Aplica","Organismos de control y vigilancia","No Aplica","Personeria Municipal","No Aplica","702","SAN JUAN DE BETULIA","70","Sucre","Cra 7º, Calle La Esperanza","NULL","NULL","2490267","NO DISPONIBLE","-75.243774","9.274374","Activa"
"5930","PERSONERÍA DE SAN ONOFRE","NULL","Territorial","Municipal","No Aplica","Organismos de control y vigilancia","No Aplica","Personeria Municipal","No Aplica","713","SAN ONOFRE","70","Sucre","Kra. 20 Nº 19 - 16, Plaza Principal - Palacio Municipal - San Onofre - Sucre","NULL","NULL","(57) 5 2982129","NO DISPONIBLE","-75.519872","9.74084","Activa"
"1574","CONCEJO DE BUENAVISTA -- BUENAVISTA, SUCRE","NULL","Territorial","Municipal","No Aplica","Corporaciones administrativas","No Aplica","Concejo Municipal","No Aplica","110","BUENAVISTA","70","Sucre","Calle 9 No. 09-08 Barrio Centro","NULL","concejo@buenavista-sucre.gov.co","2901103","http://www.buenavista-sucre.gov.co/concejo.shtml","-75.482981","8.222953","Activa"
"1044","ALCALDÍA DE SAN JUAN DE BETULIA","892201282","Territorial","Municipal","Central","Ejecutiva","No Aplica","Alcaldía","Adscripción","702","SAN JUAN DE BETULIA","70","Sucre","cr 7 nº 7-42","095-9999999","contactenos@sanjuandebetulia-sucre.gov.co","3107470259","http://www.sanjuandebetulia-sucre.gov.co","-75.243774","9.274374","Activa"
"1528","CORPORACION PARA EL DESARROLLO SOSTENIBLE DE LA MOJANA Y EL SAN JORGE","823000077","Nacional","No Aplica","No Aplica","Entes autónomos","NULL","Órganos autónomos","Otro","708","SAN MARCOS","70","Sucre","Carrera 21 No. 21 A - 44","0752954477","corpomojana@corpomojana.gov.co","0752954869","http://www.corpomojana.gov.co","-75.128872","8.662577","Activa"
"2911","CENTRO DE SALUD - SAN PEDRO SUCRE","823001999","Territorial","Municipal","Descentralizado","Ejecutiva","No Aplica","Empresas Sociales del Estado","Vinculación","717","SAN PEDRO","70","Sucre","Carrera 14  13 - 42","095-2894047","jandy712@hotmail.com","095-2894047","NO DISPONIBLE","-75.064008","9.393723","Activa"
"5964","PERSONERÍA DE TOLU","823000127","Territorial","Municipal","No Aplica","Organismos de control y vigilancia","No Aplica","Personeria Municipal","No Aplica","820","SANTIAGO DE TOLÚ","70","Sucre","Calle 14 No. 2-40 Piso 2 Santiago de Tolú, Dpto. de Sucre","NULL","edcaraballo@hotmail.com","312-6453588","NO DISPONIBLE","-75.581273","9.527515","Activa"
"8479","EMPRESA DE ACUEDUCTO, ALCANTARILLADO Y ASEO DE MORROA S.A ESP","900.230.374","Territorial","Municipal","Descentralizado","Ejecutiva","NULL","Sociedades Públicas por Acciones","No Aplica","473","MORROA","70","Sucre","Carrera 7# 9- 37 barrio la plaza","NULL","aguasdemorroa@hotmail.com","3046105923","NULL","-75.307733","9.332193","Activa"
"1895","CONCEJO DE MORROA","823000385","Territorial","Municipal","No Aplica","Corporaciones administrativas","No Aplica","Concejo Municipal","No Aplica","473","MORROA","70","Sucre","Cra. 6 No. 6-06","2857671","concejo@morroa-sucre.gov.co","2857671","http://www.morroa-sucre.gov.co/concejo.shtml","-75.307733","9.332193","Activa"
"2806","DE PRIMER NIVEL DE SAN JUAN DE BETULIA","900169684","Territorial","Municipal","Descentralizado","Ejecutiva","No Aplica","Empresas Sociales del Estado","Vinculación","702","SAN JUAN DE BETULIA","70","Sucre","BARRIO CALLE NUEVA CALLE 5a No 10 - 48","312-6431114","esebetulia@hotmail.com","314-5136325","NO DISPONIBLE","-75.243774","9.274374","Activa"
"2162","CONCEJO DE GALERAS","NULL","Territorial","Municipal","No Aplica","Corporaciones administrativas","No Aplica","Concejo Municipal","No Aplica","235","GALERAS","70","Sucre","Cll 11# 12-24 -Plaza Principal - Palacio Municipal 2º Piso","2893020","concejogaleras@hotmail.com","2893020","http://www.galeras-sucre.gov.co","-74.991011","9.117596","Activa"
"5429","PERSONERÍA DE SAMPUES","NULL","Territorial","Municipal","No Aplica","Organismos de control y vigilancia","No Aplica","Personeria Municipal","No Aplica","670","SAMPUÉS","70","Sucre","VACIA","NULL","NULL","0","NO DISPONIBLE","-75.381105","9.18357","Activa"
"5055","PERSONERÍA DE COVEÑAS","823004072","Territorial","Municipal","No Aplica","Organismos de control y vigilancia","No Aplica","Personeria Municipal","No Aplica","221","COVEÑAS","70","Sucre","calle 3B No 4-16","NULL","masoan50@hotmail.com","311 6543000","NO DISPONIBLE","-75.681642","9.402597","Activa"
"4010","EMPRESA DE SERVICIOS PUBLICOS DE GALERAS S.A.","900264081","Territorial","Municipal","Descentralizado","Ejecutiva","No Aplica","Empresas de Servicios Públicos Domiciliarios - Oficiales","Vinculación","235","GALERAS","70","Sucre","Calle 11 No. 13-39  Apartamento 02","095-2893020","empagal@colombia.com","312-6085153","NO DISPONIBLE","-74.991011","9.117596","Activa"
"2001","CONCEJO DE SAN PEDRO -- SAN PEDRO, SUCRE","823002171-6","Territorial","Municipal","No Aplica","Corporaciones administrativas","No Aplica","Concejo Municipal","No Aplica","717","SAN PEDRO","70","Sucre","Carrera 9 No 13 - 10 Segundo II","2992189","contactenos@concejo-sanpedro-sucre.gov.co","2992189","http://concejo-sanpedro-sucre.gov.co/es/inicio","-75.064008","9.393723","Activa"
"4060","EMPRESA MUNICIPAL DE ACUEDUCTO, ALCANTARILLADO Y ASEO DE LA UNION DE SUCRE S.A.","900084706","Territorial","Municipal","Descentralizado","Ejecutiva","No Aplica","Empresas de Servicios Públicos Domiciliarios - Oficiales","Vinculación","400","LA UNIÓN","70","Sucre","Av. Nuñez, frente a la Alcaldía","095-2919013","unionaaa@hotmail.com","095-2919126","NO DISPONIBLE","-75.281155","8.853929","Activa"
"8408","INSTITUTO MUNICIPAL DE DEPORTE Y RECREACIÓN DE COLOSÓ - SUCRE","NULL","Territorial","Municipal","Descentralizado","Ejecutiva","NULL","Establecimiento Público","No Aplica","204","COLOSO","70","Sucre","CALLE 13 A # 4 A - 80","NULL","alcaldia@coloso-sucre.gov.co","3126534274","http://www.coloso-sucre.gov.co/","-75.355767","9.490946","Activa"
"0433","ALCALDÍA DE MORROA SUCRE","892201296","Territorial","Municipal","Central","Ejecutiva","No Aplica","Alcaldía","Adscripción","473","MORROA","70","Sucre","Kra 6 # 7 - 70 Centro - Morroa","095-2857451","alcaldia@morroa-sucre.gov.co","2857451","http://www.morroa-sucre.gov.co","-75.307733","9.332193","Activa"
"2671","CONTRALORÍA GENERAL DEL DEPARTAMENTO DE SUCRE","892280017","Territorial","Departamental","No Aplica","Organismos de control y vigilancia","No Aplica","Contraloría Departamental","No Aplica","001","SINCELEJO","70","Sucre","calle 20 Nº 20- 47 Edificio La sabanera","NULL","cgerman_arturo@hotmail.com","2747888-2742040-3114275766","http://www.contraloriasucre.gov.co","-75.390557","9.304577","Activa"
"3875","EMPRESA DE SERVICIOS PUBLICOS AGUAS DE TOLUVIEJO S.A.","900161816","Territorial","Municipal","Descentralizado","Ejecutiva","No Aplica","Empresas de Servicios Públicos Domiciliarios - Oficiales","Vinculación","823","TOLÚ VIEJO","70","Sucre","Diagonal 2 No. 5-15 Calle Real","095-2499818","danescoh@hotmail.com","095-2499817","NO DISPONIBLE","-75.439135","9.452849","Activa"
"4424","HOPITAL LOCAL SANTA CATALINA DE SENA","823000281","Territorial","Municipal","Descentralizado","Ejecutiva","No Aplica","Empresas Sociales del Estado","Vinculación","771","SUCRE","70","Sucre","kra 1a  14A 27 Barrio Zulia Sucre Sucre","095-2879029","esehospitalbarbosa@gmail.com","2879030","NO DISPONIBLE","-74.72042","8.81005","Activa"
"5139","PERSONERÍA DE CHALAN","892200740-7","Territorial","Municipal","No Aplica","Organismos de control y vigilancia","No Aplica","Personeria Municipal","No Aplica","230","CHALÁN","70","Sucre","calle real 6 N° 5-33","NULL","contacto@chalan-sucre.gov.co","(57) 3013316129","http://www.chalan-sucre.gov.co/Personeria.shtml","-75.312885","9.545827","Activa"
"4399","GOBERNACIÓN DE SUCRE","892280021","Territorial","Departamental","Central","Ejecutiva","No Aplica","Gobernación","Adscripción","001","SINCELEJO","70","Sucre","Calle 25 No. 25B-35 Avenida las Peñias, Edificio Gobernacion de Sucre, Sincelejo - Sucre","095-2801071","gobernacion@sucre.gov.co","(5) 2801552","http://www.sucre.gov.co","-75.390557","9.304577","Activa"
"1654","CONCEJO DE COVEÑAS","NULL","Territorial","Municipal","No Aplica","Corporaciones administrativas","No Aplica","Concejo Municipal","No Aplica","221","COVEÑAS","70","Sucre","VACIA","NULL","NULL","00","NO DISPONIBLE","-75.681642","9.402597","Activa"
"2795","CENTRO DE SALUD SAN JOSE DE TOLUVIEJO","823000696","Territorial","Municipal","Descentralizado","Ejecutiva","No Aplica","Empresas Sociales del Estado","Vinculación","823","TOLÚ VIEJO","70","Sucre","TV 4 No. 3 - 44 Calle Sincelejo","314-5098253","esetoluviejo2008@hotmail.com","3114263116","NO DISPONIBLE","-75.439135","9.452849","Activa"
"3472","HOSPITAL LOCAL SAN BENITO ABAD - SUCRE","823002356-1","Territorial","Departamental","Descentralizado","Ejecutiva","No Aplica","Empresas Sociales del Estado","Vinculación","678","SAN BENITO ABAD","70","Sucre","Calle 13 Nº 7A-42","095-2930158","esesanbenito@yahoo.es","2930158-3205432601","NO DISPONIBLE","-75.030651","8.931132","Activa"
"1773","CONCEJO DE COLOSO","823000400","Territorial","Municipal","No Aplica","Corporaciones administrativas","No Aplica","Concejo Municipal","No Aplica","204","COLOSO","70","Sucre","SECTOR CENTRO COLOSO SUCRE","NULL","alotes1@hotmail.com","3116976278","NO DISPONIBLE","-75.355767","9.490946","Activa"
"5161","PERSONERÍA DE COLOSO","892280053-7","Territorial","Municipal","No Aplica","Organismos de control y vigilancia","No Aplica","Personeria Municipal","No Aplica","204","COLOSO","70","Sucre","Plaza Principal - Colosó - Sucre","NULL","contactenos@coloso-sucre.gov.co","(57 5) 249 98 73","http://www.coloso-sucre.gov.co/Personeria.shtml","-75.355767","9.490946","Activa"
"2977","CENTRO DE SALUD LOS PALMITOS - SUCRE","823002541","Territorial","Municipal","Descentralizado","Ejecutiva","No Aplica","Empresas Sociales del Estado","Vinculación","418","LOS PALMITOS","70","Sucre","Cra 11 No. 7 - 25","095-2922193","eselospalmitos@yahoo.com.co","(5)2922193","NO DISPONIBLE","-75.27095","9.380494","Activa"
"0336","ALCALDÍA DE CAIMITO SUCRE","892200058","Territorial","Municipal","Central","Ejecutiva","No Aplica","Alcaldía","Adscripción","124","CAIMITO","70","Sucre","Carrera 15A N. 10 - 01 Plaza Principal","095-2904098","secgobierno@caimito-sucre.gov.co","2904136","http://www.caimito-sucre.gov.co","-75.11489","8.789558","Activa"
"0601","ALCALDÍA DE GALERAS","800049826","Territorial","Municipal","Central","Ejecutiva","No Aplica","Alcaldía","Adscripción","235","GALERAS","70","Sucre","Calle 11# 12 - 24 Plaza Principal","095-2893020","contactenos@galeras-sucre.gov.co","2893020","http://www.galeras-sucre.gov.co","-74.991011","9.117596","Activa"
"1918","CONCEJO DE OVEJAS","823000307","Territorial","Municipal","No Aplica","Corporaciones administrativas","No Aplica","Concejo Municipal","No Aplica","508","OVEJAS","70","Sucre","Calle 21 No. 15-55","NULL","jfterrazaba_@hotmail.com","2869086","http://www.ovejas-sucre.gov.co/concejo.shtml","-75.227529","9.525856","Activa"
"4433","HOSPITAL LOCAL SANTIAGO DE TOLU","900208676","Territorial","Departamental","Descentralizado","Ejecutiva","No Aplica","Empresas Sociales del Estado","Vinculación","820","SANTIAGO DE TOLÚ","70","Sucre","Calle 16 No. 9-61 Barrio San Felipe, Santiago de Tolú, Sucre","095-2885256","esetolu2008@hotmail.com","5 - 2885258","NO DISPONIBLE","-75.581273","9.527515","Activa"
"2834","HOSPITAL LOCAL LA UNION","900008025","Territorial","Departamental","Descentralizado","Ejecutiva","No Aplica","Empresas Sociales del Estado","Vinculación","400","LA UNIÓN","70","Sucre","Av. Nuñez La Union Sucre","314-5098253","esehospitalunion2008@hotmail.com","310-7244546","NO DISPONIBLE","-75.281155","8.853929","Activa"
"2472","CONCEJO DE SAN ONOFRE","NULL","Territorial","Municipal","No Aplica","Corporaciones administrativas","No Aplica","Concejo Municipal","No Aplica","713","SAN ONOFRE","70","Sucre","Kra. 20 Nº 19 - 16, Plaza Principal - Palacio Municipal - San Onofre","NULL","concejo@sanonofre-sucre.gov.co"," 2983191 - 3135322718","http://www.sanonofre-sucre.gov.co/concejo.shtml","-75.519872","9.74084","Activa"
"4346","FONDO MIXTO DE PROMOCIÓN DE LA CULTURA Y LAS ARTES DE SUCRE","800225219","Territorial","Municipal","Descentralizado","Ejecutiva","No Aplica","Establecimiento Público","Adscripción","001","SINCELEJO","70","Sucre","Carrera 17  26 - 123  Piso 2  Biblioteca Departamental","095-2826788","fculturasucre@yahoo.com","095-2826788","http://www.fculturasucre.com","-75.390557","9.304577","Activa"
"0631","ALCALDÍA DE GUARANDA","800061313","Territorial","Municipal","Central","Ejecutiva","No Aplica","Alcaldía","Adscripción","265","GUARANDA","70","Sucre","Carrera 5  Nª 4-67 guaranda sucre","091-2911001","alcaldiatesoreriaguaranda@yahoo.es","2911001","http://www.alcaldiadeguaranda.gov.co","-74.537025","8.46831","Activa"
"1152","ALCALDÍA DE SUCRE - SUCRE","892280061","Territorial","Municipal","Central","Ejecutiva","No Aplica","Alcaldía","Adscripción","771","SUCRE","70","Sucre","Carrera 3 No. 10 - 10 - Palacio Municipal","095-2879029","alcaldia@sucre-sucre.gov.co","(095) 2879203","http://www.sucre-sucre.gov.co","-74.72042","8.81005","Activa"
"8451","INSTITUTO MUNICIPAL DEL DEPORTE Y LA RECREACIÓN, EL APROVECHAMIENTO DEL TIEMPO LIBRE DE COROZAL","901263945-1","Territorial","Distrital","Descentralizado","Ejecutiva","NULL","Establecimiento Público","No Aplica","215","COROZAL","70","Sucre","CALLE 32 No. 29-18 BARRIO SAN JUAN SEGUNDO PISO","3002475570","imdercor2018@gmail.com","3002475570","http://www.corozal-sucre.gov.co","-75.294467","9.321697","Activa"
"2941","CENTRO DE SALUD DE MAJAGUAL","823202044","Territorial","Municipal","Descentralizado","Ejecutiva","No Aplica","Empresas Sociales del Estado","Vinculación","429","MAJAGUAL","70","Sucre","Kilometro 1 via a Guranda Barrio Guyabalito","NULL","esemajagual@yahoo.es","2871087","NO DISPONIBLE","-74.628099","8.54125","Activa"
"5997","PERSONERÍA DE SUCRE -- SUCRE, SUCRE","823001418","Territorial","Municipal","No Aplica","Organismos de control y vigilancia","No Aplica","Personeria Municipal","No Aplica","771","SUCRE","70","Sucre","Municipio de Sucre - Sucre, Departamento de Sucre","NULL","hugomaury@hotmail.com","3114393178","NO DISPONIBLE","-74.72042","8.81005","Activa"
"4198","EMPRESA DE SERVICIOS PÚBLICOS AGUAS DE PADILLA SUCRE S.A.","900312659","Territorial","Municipal","Descentralizado","Ejecutiva","No Aplica","Empresas de Servicios Públicos Domiciliarios - Mixtas","Vinculación","233","EL ROBLE","70","Sucre","EL ROBLE SUCRE - CALLE PRINCIPAL CENTRO","3106610466","jogoca1978@hotmail.com","314-5219975","http://www.elroble-sucre.gov.co/Entidades_descentralizadas.shtml?apc=lbEmpresas%20de%20econom%EDa%20mixta-1-=1966705","-75.19554","9.10192","Activa"
"2026","CONCEJO DE SINCE","NULL","Territorial","Municipal","No Aplica","Corporaciones administrativas","No Aplica","Concejo Municipal","No Aplica","742","SAN LUIS DE SINCÉ","70","Sucre","Cra. 11 No. 8-10 Parque Simón Bolívar","2895207","concejo@since-sucre.gov.co","2895207","NO DISPONIBLE","-75.146445","9.241075","Activa"
"5980","PERSONERÍA DE SINCELEJO","823000069","Territorial","Municipal","No Aplica","Organismos de control y vigilancia","No Aplica","Personeria Municipal","No Aplica","001","SINCELEJO","70","Sucre","Carrera 20 No. 22 - 25 Antiguo Palacio Municipal","NULL","personeriasincelejo@hotmail.com","2752097","NO DISPONIBLE","-75.390557","9.304577","Activa"
"2434","CONCEJO DE SAN BENITO ABAD","NULL","Territorial","Municipal","No Aplica","Corporaciones administrativas","No Aplica","Concejo Municipal","No Aplica","678","SAN BENITO ABAD","70","Sucre","CRA 15 Nº. 10-50 Plaza Principal","NULL","alcaldia@sanbenitoabad-sucre.gov.co;contactenos@sanbenitoabad-sucre.gov.co","(57 5) 2930003 - (57 5) 2930004","http://www.sanbenitoabad-sucre.gov.co/concejo.shtml","-75.030651","8.931132","Activa"
"1976","CONCEJO DE SAMPUES","823000318","Territorial","Municipal","No Aplica","Corporaciones administrativas","No Aplica","Concejo Municipal","No Aplica","670","SAMPUÉS","70","Sucre","Calle 23 No. 19-22","NULL","cdasaca@hotmail.com","2839144","http://www.sampues-sucre.gov.co/concejo.shtml","-75.381105","9.18357","Activa"
"2913","CENTRO DE SALUD  SAN JOSÉ   - SAN MARCOS","823001035","Territorial","Municipal","Descentralizado","Ejecutiva","No Aplica","Empresas Sociales del Estado","Vinculación","708","SAN MARCOS","70","Sucre","Calle 15 Nº 34 - 59","094-2954715","esesanmarcos1nivel@hotmail.com","2955715 - 2955437","http://www.esesanjosesanmarcos.gov.co/","-75.128872","8.662577","Activa"
"3939","EMPRESA AGUAS DE SUCRE S.A.","900258919","Territorial","Municipal","Descentralizado","Ejecutiva","No Aplica","Empresas de Servicios Públicos Domiciliarios - Mixtas","Vinculación","001","SINCELEJO","70","Sucre","Calle 20 No. 20 - 47","095-2754477","aguasdesucre@hotmail.com","095-2754040","http://www.aguasdesucre.com","-75.390557","9.304577","Activa"
"2137","CONCEJO DE EL ROBLE","823002894","Territorial","Municipal","No Aplica","Corporaciones administrativas","No Aplica","Concejo Municipal","No Aplica","233","EL ROBLE","70","Sucre","EL ROBLE - SUCRE.","NULL","concejoelroble@hotmail.es","3016796753","NO DISPONIBLE","-75.19554","9.10192","Activa"
"5169","PERSONERÍA DE COROZAL","823000260","Territorial","Municipal","No Aplica","Organismos de control y vigilancia","No Aplica","Personeria Municipal","No Aplica","215","COROZAL","70","Sucre","carrera 26 No.27-27","NULL","diegolaramerlano@hotmail.com","2858191","http://www.corozal-sucre.gov.co/Personeria.shtml","-75.294467","9.321697","Activa"
"3466","HOSPITAL LOCAL NIVEL I NUESTRA SEÑORA DEL SOCORRO -SINCE","823000624-1","Territorial","Departamental","Descentralizado","Ejecutiva","No Aplica","Empresas Sociales del Estado","Vinculación","001","SINCELEJO","70","Sucre","Carrera 12 No.13-94 Barrio la Esmeralda salida a corozal","095-2895373","hospisince@hotmail.com","2895373 - 2895148","NO DISPONIBLE","-75.390557","9.304577","Activa"
"3747","EMPRESA DE ALUMBRADO PÚBLICO DE TOLUVIEJO SUCRE","900250257","Territorial","Municipal","Descentralizado","Ejecutiva","No Aplica","Empresas de Servicios Públicos Domiciliarios - Oficiales","Vinculación","823","TOLÚ VIEJO","70","Sucre","TOLUVIEJO - SUCRE","NULL","adalfa14@hotmail.com","313-5231395","NO DISPONIBLE","-75.439135","9.452849","Activa"
"3713","EMPRESA DE ACUEDUCTO Y ALCANTARILLADO DE SINCELEJO -EMPA","800079938","Territorial","Municipal","Descentralizado","Ejecutiva","No Aplica","Empresas de Servicios Públicos Domiciliarios - Oficiales","Vinculación","001","SINCELEJO","70","Sucre","Carrera 20 Nº 22-02 Palacio Municipal Piso 1","095-2814265","empamaria@hotmail.com","095-2814265","NO DISPONIBLE","-75.390557","9.304577","Activa"
"2910","CENTRO DE SALUD - OVEJAS","823001873","Territorial","Municipal","Descentralizado","Ejecutiva","No Aplica","Empresas Sociales del Estado","Vinculación","508","OVEJAS","70","Sucre","Cra 15 Cll 19 contiguo a Telecom","098-2869014","esecensaludovejas@telecom.com.co","2869499","NO DISPONIBLE","-75.227529","9.525856","Activa"
"1006","ALCALDÍA DE SAN ANTONIO DE PALMITO - SUCRE","892200312","Territorial","Municipal","Central","Ejecutiva","No Aplica","Alcaldía","Adscripción","523","PALMITO","70","Sucre","Carrera 7 No. 6-08 Calle Central - San Antonio de Palmito","095-2822784","contactenos@sanantoniodepalmito-sucre.gov.co","5 - 2822784","http://www.sanantoniodepalmito-sucre.gov.co","-75.540823","9.333659","Activa"
"5889","PERSONERÍA DE SAN BENITO ABAD","892280054","Territorial","Municipal","No Aplica","Organismos de control y vigilancia","No Aplica","Personeria Municipal","No Aplica","678","SAN BENITO ABAD","70","Sucre","Carrera 15 # 10-50. SAN BENITO ABAD (SUCRE)","2930004","contactenos@sanbenitoabad-sucre.gov.co","57 5) 2930003","http://www.sanbenitoabad-sucre.gov.co/Personeria","-75.030651","8.931132","Activa"
"0997","ALCALDÍA DE SAMPUÉS","892280055","Territorial","Municipal","Central","Ejecutiva","No Aplica","Alcaldía","Adscripción","670","SAMPUÉS","70","Sucre","Carrera 20 No. 19-36","095-2838303,2830484","alcaldia@sampues-sucre.gov.co","2838994","http://www.alcaldiadesampues.gov.co","-75.381105","9.18357","Activa"
"2238","CONCEJO DE LA UNION","823000765","Territorial","Municipal","No Aplica","Corporaciones administrativas","No Aplica","Concejo Municipal","No Aplica","400","LA UNIÓN","70","Sucre","calle 8 CON CRA 11 Nº 11","NULL","hconcejodelaudes@hotmail.com","3017545647","http://www.launion-sucre.gov.co/index.shtml","-75.281155","8.853929","Activa"
"3532","HOSPITAL UNIVERSITARIO DE SINCELEJO  -SINCELEJO","892280033-1","Territorial","Departamental","Descentralizado","Ejecutiva","No Aplica","Empresas Sociales del Estado","Vinculación","001","SINCELEJO","70","Sucre","Carrera 14 No. 15 A- 140, Calle la pajuela","095-2820305","hrsincelejo@telecom.com.co","282 38 69 - 282 24 05","http://www.husincelejo.gov.co/","-75.390557","9.304577","Activa"
"2921","CENTRO DE SALUD CAIMITO","823001943","Territorial","Municipal","Descentralizado","Ejecutiva","No Aplica","Empresas Sociales del Estado","Vinculación","124","CAIMITO","70","Sucre","CALLE PRINCIPAL","095-6755073","emaximoisaiascarriazo@hotmail.com","3103654491","NO DISPONIBLE","-75.11489","8.789558","Activa"
"8245","CONTRALORÍA MUNICIPAL DE SINCELEJO","NULL","Territorial","Municipal","No Aplica","Organismos de control y vigilancia","NULL","Contraloría Municipal","No Aplica","001","SINCELEJO","70","Sucre","VACIA","NULL","NULL","000","NO DISPONIBLE","-75.390557","9.304577","Activa"
"4286","EMPRESA DE ASEO ACUEDUCTO Y ALCANTARILLADO DE TOLU VIEJO","900303124","Territorial","Municipal","Descentralizado","Ejecutiva","No Aplica","Empresas de Servicios Públicos Domiciliarios - Oficiales","Vinculación","823","TOLÚ VIEJO","70","Sucre","TOLUVIEJO - SUCRE","095-9999999","aaadetoluviejo@hotmail.com","300-6300125","NO DISPONIBLE","-75.439135","9.452849","Activa"
"8490","EMPRESA MUNICIPAL DE ACUEDUCTO, ALCANTARILLADO Y ASEO DEL MUNICIPIO DE SAN BENITO ABAD S.A. E.S.P.","900675296-4","Territorial","Municipal","Descentralizado","Ejecutiva","NULL","Empresas de Servicios Públicos Domiciliarios - Oficiales","Vinculación","678","SAN BENITO ABAD","70","Sucre","CRA 13 N° 7A - 24","3218571032","aguasdesanbenito@outlook.com","3215185745","http://www.epsanbenito.gov.co/index.php","-75.030651","8.931132","Activa"
"5592","PERSONERÍA DE EL ROBLE","823002908","Territorial","Municipal","No Aplica","Organismos de control y vigilancia","No Aplica","Personeria Municipal","No Aplica","233","EL ROBLE","70","Sucre","Kra 4 Nº. 5-7 CENTRO","NULL","yisetharrieta8@hotmail.com","312-6794552","NO DISPONIBLE","-75.19554","9.10192","Activa"
"2572","CONCEJO DE TOLUVIEJO","NULL","Territorial","Municipal","No Aplica","Corporaciones administrativas","No Aplica","Concejo Municipal","No Aplica","823","TOLÚ VIEJO","70","Sucre","Diagonal 2 N 6 - 12 Calle Real","NULL","contactenos@toluviejo-sucre.gov.co","(57 5) 2949904 - (57 5) 2949901","http://www.toluviejo-sucre.gov.co/concejo.shtml","-75.439135","9.452849","Activa"
"1741","CONCEJO DE CAIMITO","823000901","Territorial","Municipal","No Aplica","Corporaciones administrativas","No Aplica","Concejo Municipal","No Aplica","124","CAIMITO","70","Sucre","Carrera 15A N. 10 - 01 Plaza Principal, Palacio Municipal","NULL","mariosber80@hotmail.com","2904136","http://www.caimito-sucre.gov.co/concejo.shtml","-75.11489","8.789558","Activa"
"4732","INSTITUTO MUNICIPAL DE TRANSPORTES Y TRANSITO DE COROZAL","823001932","Territorial","Municipal","Descentralizado","Ejecutiva","No Aplica","Establecimiento Público","Adscripción","215","COROZAL","70","Sucre","carrera 27 No.37 29","NULL","diyapa2010@hotmail.com","2840039","NO DISPONIBLE","-75.294467","9.321697","Activa"
"5926","PERSONERÍA DE SAN MARCOS","823000229","Territorial","Municipal","No Aplica","Organismos de control y vigilancia","No Aplica","Personeria Municipal","No Aplica","708","SAN MARCOS","70","Sucre","alle 18 No. 25 - 26","NULL","personeriasanmarcos@hotmail.com","2954050","NO DISPONIBLE","-75.128872","8.662577","Activa"
"2181","CONCEJO DE GUARANDA","823001461","Territorial","Municipal","No Aplica","Corporaciones administrativas","No Aplica","Concejo Municipal","No Aplica","265","GUARANDA","70","Sucre","Carrera 5 No 4-67","NULL","concejomunicipaldeguranda@hotmail.com","2911001","http://guaranda-sucre.gov.co/concejo.shtml","-74.537025","8.46831","Activa"
"3707","UNIDAD DE SALUD SAN FRANCISCO DE ASIS","823001518","Territorial","Municipal","Descentralizado","Ejecutiva","No Aplica","Empresas Sociales del Estado","Vinculación","001","SINCELEJO","70","Sucre","calle 25 No 25-70 avenida las peñitas - Sincelejo (Sucre)","095-2820924","esesanfranciscodeasis@sincelejo.gov.co","2828189","http://esesanfranciscodeasis.sincelejo-sucre.gov.co","-75.390557","9.304577","Activa"
"2969","CENTRO DE SALUD INMACULADA CONCEPCIÓN","823001901","Territorial","Municipal","Descentralizado","Ejecutiva","No Aplica","Empresas Sociales del Estado","Vinculación","235","GALERAS","70","Sucre","Carrera 18a No. 12- 31","092-9999999","ese.inmaculadaconcepcion@hotmail.com","2893245","NO DISPONIBLE","-74.991011","9.117596","Activa"
"1781","CONCEJO DE COROZAL","823000240","Territorial","Municipal","No Aplica","Corporaciones administrativas","No Aplica","Concejo Municipal","No Aplica","215","COROZAL","70","Sucre","Calle 28 No.26-04, Palacio Municipal, 3er. Piso.","NULL","concejo@corozal-sucre.gov.co","2841333","NO DISPONIBLE","-75.294467","9.321697","Activa"
"0730","ALCALDÍA DE LOS PALMITOS - SUCRE","892201287","Territorial","Municipal","Central","Ejecutiva","No Aplica","Alcaldía","Adscripción","418","LOS PALMITOS","70","Sucre","Carrera 12 No. 6 - 06","095-2922188","alcaldia_los_palmitos@hotmail.com","(095) 2922188","http://www.lospalmitos-sucre.gov.co","-75.27095","9.380494","Activa"
"8207","EMPRESA DE ACUEDUCTO, ALCANTARILLADO Y ASEO DE CAIMITO - SUCRE S.A","NULL","Territorial","Municipal","Descentralizado","Ejecutiva","NULL","Empresas de Servicios Públicos Domiciliarios - Oficiales","Vinculación","124","CAIMITO","70","Sucre","vacia","NULL","NULL","000","NO DISPONIBLE","-75.11489","8.789558","Activa"
"4283","EMPRESA DE SERVICIOS PUBLICOS AGUAS DEL MORROSQUILLO S.A","900216922","Territorial","Municipal","Descentralizado","Ejecutiva","No Aplica","Empresas de Servicios Públicos Domiciliarios - Oficiales","Vinculación","820","SANTIAGO DE TOLÚ","70","Sucre","carrera 9 No. 13-37","095-2885911","aguasdelmorrosquillo@hotmail.com","3215260556","NO DISPONIBLE","-75.581273","9.527515","Activa"
"0159","ALCALDÍA DE BUENAVISTA - SUCRE","892201286","Territorial","Municipal","Central","Ejecutiva","No Aplica","Alcaldía","Adscripción","110","BUENAVISTA","70","Sucre","calle 9 No 9-08","095-2901103","contacto@buenavista-sucre.gov.co","2901103","http://alcaldiabuenavista-sucre.gov.co","-75.482981","8.222953","Activa"
"2536","CONCEJO DE SUCRE -- SUCRE, SUCRE","823002269","Territorial","Municipal","No Aplica","Corporaciones administrativas","No Aplica","Concejo Municipal","No Aplica","771","SUCRE","70","Sucre","Municipio de Sucre - Sucre, Departamento de Sucre","NULL","enrik-soncrist@hotmail.com; contactenos@sucre-sucre.gov.co","3145485270","http://www.sucre-sucre.gov.co/concejo.shtml","-74.72042","8.81005","Activa"
"3896","EMPRESA DE SERVICIOS PUBLICOS BUENAVISTA","800125261","Territorial","Municipal","Descentralizado","Ejecutiva","No Aplica","Empresas de Servicios Públicos Domiciliarios - Oficiales","Vinculación","110","BUENAVISTA","70","Sucre","Calle 8-08","095-9999999","aguavistaesp@yahoo.es","095-6310301","NO DISPONIBLE","-75.482981","8.222953","Activa"
"4616","INSTITUTO DEPARTAMENTAL DE DEPORTES Y RECREACIÓN DE SUCRE - INDERSUCRE","823002411","Territorial","Municipal","Descentralizado","Ejecutiva","No Aplica","Establecimiento Público","Adscripción","001","SINCELEJO","70","Sucre","Calle 25 No. 25B - 35 Av. Las Peñitas","095-2806580","prensa@indersucre.gov.co","2744995","http://www.indersucre.gov.co/","-75.390557","9.304577","Activa"
"4207","EMPRESA DE SERVICIOS PÚBLICOS LOS PALMITOS S.A. E.S.P.- SUCRE","900292686","Territorial","Municipal","Descentralizado","Ejecutiva","No Aplica","Empresas de Servicios Públicos Domiciliarios - Oficiales","Vinculación","418","LOS PALMITOS","70","Sucre","CRA 13 5 - 92 PLAZA DE LA CRUZ","095-2922102","empal@colombia.com","3114237025","NO DISPONIBLE","-75.27095","9.380494","Activa"
"1107","ALCALDÍA DE SANTIAGO DE TOLÚ","892200839","Territorial","Municipal","Central","Ejecutiva","No Aplica","Alcaldía","Adscripción","820","SANTIAGO DE TOLÚ","70","Sucre","Carrera 2da. entre calles 15 y 16 Parque Principal, Santiago de Tolú.","095-2860075","contactenos@santiagodetolu-sucre.gov.co
alcaldia@santiagodetolu-sucre.gov.co","5-2860596","http://www.santiagodetolu-sucre.gov.co","-75.581273","9.527515","Activa"
"2433","CONCEJO DE SAN ANTONIO DE PALMITO","NULL","Territorial","Municipal","No Aplica","Corporaciones administrativas","No Aplica","Concejo Municipal","No Aplica","523","PALMITO","70","Sucre","Edificio Palacio Municipal - Kr. 7 No. 06-08 - 2do. Piso","NULL","concejo@sanantoniodepalmito-sucre.gov.co","57+5+2 49 79 00","http://www.sanantoniodepalmito-sucre.gov.co/concejo.shtml","-75.540823","9.333659","Activa"
"4050","METRO SABANAS S.A.S.","NULL","Territorial","Municipal","Descentralizado","Ejecutiva","No Aplica","Sociedades Públicas por Acciones","Vinculación","001","SINCELEJO","70","Sucre","Carrera 20 No 22- 02  Antiguo Palacio Municipal","NULL","NULL","574","NO DISPONIBLE","-75.390557","9.304577","Activa"
"5719","PERSONERÍA DE MAJAGUAL","NULL","Territorial","Municipal","No Aplica","Organismos de control y vigilancia","No Aplica","Personeria Municipal","No Aplica","429","MAJAGUAL","70","Sucre","VACIA","NULL","NULL","57 + 5 2871545.","NO DISPONIBLE","-74.628099","8.54125","Activa"
"5690","PERSONERÍA DE LA UNION","823002409","Territorial","Municipal","No Aplica","Organismos de control y vigilancia","No Aplica","Personeria Municipal","No Aplica","400","LA UNIÓN","70","Sucre","Cl.14 Nº 8 A - 45 Av. Nuñez","NULL","persunion@hotmail.com","2919004","NO DISPONIBLE","-75.281155","8.853929","Activa"
"2254","CONCEJO DE LOS PALMITOS","823000374","Territorial","Municipal","No Aplica","Corporaciones administrativas","No Aplica","Concejo Municipal","No Aplica","418","LOS PALMITOS","70","Sucre","carrera 12 # 6-06 piso 2","NULL","alex_tovar18777@hotmail.com","3135467880","http://www.lospalmitos-sucre.gov.co/concejo.shtml","-75.27095","9.380494","Activa"
"5331","PERSONERÍA DE MORROA","823000510","Territorial","Municipal","No Aplica","Organismos de control y vigilancia","No Aplica","Personeria Municipal","No Aplica","473","MORROA","70","Sucre","Carrera 6 N. 8-11 Barrio La Plaza","NULL","rochy2008@hotmail.com","2857451 - 3013718156","NO DISPONIBLE","-75.307733","9.332193","Activa"
"1474","CONCEJO DE TOLU","800196692-1","Territorial","Municipal","No Aplica","Corporaciones administrativas","No Aplica","Concejo Municipal","No Aplica","820","SANTIAGO DE TOLÚ","70","Sucre","Cra 2 Nº 15 - 43 Palacio Municipal","5 - 2860598","concejo@santiagodetolu-sucre.gov.co","5 - 2885965","http://www.santiagodetolu-sucre.gov.co/otrasentidades.shtml?apc=o-I1--=c","-75.581273","9.527515","Activa"
"6236","UNIVERSIDAD DE SUCRE","892200323","Territorial","Departamental","No Aplica","Entes autónomos","No Aplica","Ente Universitario Autónomo","No Aplica","001","SINCELEJO","70","Sucre","Cra 28 No 5-267","095-2771195","rectoria@unisucre.edu.co","2771195 Ext 1018","http://www.unisucre.edu.co","-75.390557","9.304577","Activa"
"3878","EMPRESA DE SERVICIOS PUBLICOS AGUAS DEL GOLFO S.A.","900139739","Territorial","Municipal","Descentralizado","Ejecutiva","No Aplica","Empresas de Servicios Públicos Domiciliarios - Oficiales","Vinculación","221","COVEÑAS","70","Sucre","Diagonal 10   14 - 72 Barrio Isla de Gallinazo","095-2880437","aguasdelgolfocovenas@yahoo.es","2820437","https://covenas.gov.co","-75.681642","9.402597","Activa"
"2924","CENTRO DE SALUD CARTAGENA DE INDIAS","823000878","Territorial","Municipal","Descentralizado","Ejecutiva","No Aplica","Empresas Sociales del Estado","Vinculación","215","COROZAL","70","Sucre","calle 30 No. 22-04","095-2857738","esecorozal@gmail.com","2857738","NO DISPONIBLE","-75.294467","9.321697","Activa"
"2927","CENTRO DE SALUD COLOSO - SUCRE","900206237","Territorial","Municipal","Descentralizado","Ejecutiva","No Aplica","Empresas Sociales del Estado","Vinculación","204","COLOSO","70","Sucre","Carrera 5   4A-21 Calle Principal","095-2814945","ese_coloso@hotmail.com","095-2499852","NO DISPONIBLE","-75.355767","9.490946","Activa"
"8071","ASAMBLEA DEPARTAMENTAL DE SUCRE","800051900-4","Territorial","Departamental","No Aplica","Corporaciones administrativas","No Aplica","Asamblea Departamental","No Aplica","001","SINCELEJO","70","Sucre","Cll 25 N. 25B 32 Avenida las Peñitas","(095) 2821023","asamblea@sucre.gov.co","2821023","http://asamblea-sucre.gov.co/","-75.390557","9.304577","Activa"
"3360","HOSPITAL DE SAN ONOFRE","823000496","Territorial","Departamental","Descentralizado","Ejecutiva","No Aplica","Empresas Sociales del Estado","Vinculación","713","SAN ONOFRE","70","Sucre","carrera 16 No. 16-52 san onofre sucre","095-2983002","esforbexc007@hotmail.com","2983002","NO DISPONIBLE","-75.519872","9.74084","Activa"
"3956","EMPRESA DE ACUEDUCTO, ALCANTARILLADO Y ASEO DE SAN JUAN DE BETULIA   - ESAB","823000147","Territorial","Municipal","Descentralizado","Ejecutiva","No Aplica","Empresas de Servicios Públicos Domiciliarios - Oficiales","Vinculación","702","SAN JUAN DE BETULIA","70","Sucre","Palacio municipal","095-9999999","jorgepme@hotmail.com","095-6841685","NO DISPONIBLE","-75.243774","9.274374","Activa"
"1331","ASOCIACION DE MUNICIPIOS DE SUCRE","830510550","Territorial","Municipal","Descentralizado","Ejecutiva","No Aplica","Establecimiento Público","No Aplica","001","SINCELEJO","70","Sucre","Carrera 20 No. 27 -87 Piso 3","095-9999999","yalesantiz@hotmail.com","300-2415602","NULL","-75.390557","9.304577","Activa"
