ID#,Company Name,County,Zip Code,Phone,Location 1,Census Tract Boundaries,Utah Senate Districts,Utah House Districts,Municipalities
1285,Logan City,Cache,,,,,,,
60,Blair Ditch Cub River Irrigation Company,Cache,,,,,,,
57,Bench Irrigation Company,Cache,,,,,,,
59,Benson Irrigation Company,Cache,,,,,,,
61,Bowman Ditch Siphon,Cache,,,,,,,
62,Brig Telford Pump,Cache,,,,,,,
1281,Cache Highline Water Association,Cache,84318,4358811070,"1285 East 4500 North
Hyde Park, UT",,,,
64,Chambers Spring Irrigation Company,Cache,,,,,,,
1279,Clarkston Town,Cache,,,,,,,
68,Clear Creek Irrigation Company,Cache,,,,,,,
1278,Cove Water Works,Cache,,,,,,,
71,"Crockett Avenue Irrigation and Distribution System, Inc.",Cache,,,,,,,
72,Cub River Irrigation Company,Cache,84320,4355129255,"PO Box 215
Lewiston, UT",,,,
73,Dry Canyon Water Association,Cache,,,,,,,
74,East Branch Canal - Cub River Irrigation Company,Cache,,,,,,,
76,"Fullmer Subdivision Irrigation Company, Inc.",Cache,,,,,,,
77,Garr Spring Water Company,Cache,84326,4357523213,"PO Box 181
Millville, UT",,,,
78,Gosalind Spring Water Works Company,Cache,,,,,,,
79,Greater Mendon Irrigation Company,Cache,84325,4357307553,"PO Box 6
Mendon, UT",,,,
90,H. W. M. J. Ballard Pump Company,Cache,,,,,,,
80,Hammer Canal Company,Cache,,,,,,,
82,Hill Irrigation Company,Cache,,,,,,,
85,Hyer Canal Company,Cache,,,,,,,
86,Hyer Ditch Company,Cache,,,,,,,
91,Jackson Ditch Company,Cache,,,,,,,
93,Johnson Park Water Company,Cache,,,,,,,
95,Kent & Creager Ditch Company,Cache,,,,,,,
98,Little Bear River Distribution Company,Cache,,,,,,,
99,Litz Lateral-Cub River Irrigation Company,Cache,,,,,,,
109,Logan & Northern Irrigation Company,Cache,,,,,,,
100,Logan 1220 North Irrigation Company,Cache,,,,,,,
101,Logan Cow Pasture Water Company,Cache,,,,,,,
105,Logan NorthWest Field Irrigation Company,Cache,84323-0531,4357526025,"PO Box 531
Logan, UT",,,,
107,Logan River Water Users Association,Cache,,,,,,,
1249,"Logan, Hyde Park, and Smithfield Canal Company",Cache,,,,,,,
112,"Mack & Story Springs, (Anderson)",Cache,,,,,,,
113,Maughan Ditch,Cache,,,,,,,
114,Mendon Central Irrigation Company,Cache,84325,8012317932,"PO Box 483
Mendon, UT",,,,
116,"Mendon Second North Pressurized Irrigation System, Inc.",Cache,84325,4357525589,"5570 West 2600 South
Mendon, UT",,,,
118,Millville Irrigation Company,Cache,84326,4357559717,"PO Box 652
Millville, UT",,,,
120,Mountain Home Irrigation Company,Cache,,,,,,,
121,"Mountain View Estates Irrigation Company, Inc.",Cache,,,,,,,
122,Munk & Jorgenson Pump,Cache,,,,,,,
94,MUNK - TARBET - FISHER PUMP COMPANY,Cache,,,,,,,
123,New Logan Hollow Canal Corporation,Cache,,,,,,,
124,Newton Southfield Pumping Company,Cache,,,,,,,
125,Newton Water Users Association,Cache,84327,4355639293,"PO Box 81
Newton, UT",,,,
127,North Ditch Company,Cache,,,,,,,
1283,North Logan City,Cache,,,,,,,
55,North Logan Hyde Park Smithfield Irrigation Company,Cache,,,,,,,
130,Paradise Irrigation & Reservoir Company,Cache,84328,,"PO Box 138
Paradise, UT",,,,
131,Pole Canyon Ditch,Cache,,,,,,,
133,Providence Blacksmith Fork Irrigation Company,Cache,84332,4357531837,"P. O. Box 373
Providence, UT",,,,
134,Providence Irrigation Company,Cache,,,,,,,
136,Providence Logan Irrigation Company,Cache,,,,,,,
137,Providence Millville Water Users Association,Cache,,,,,,,
138,Pulsipher South Fork River Ditch,Cache,,,,,,,
139,Reese Clark Pump and Irrigation Company,Cache,,,,,,,
1282,Riley Smith Irrigation Company,Cache,,,,,,,
141,Riverbirch Canyon Company (culinary),Cache,,,,,,,
142,Riverside Culinary Water Company,Cache,,,,,,,
143,Riverside Pump and Irrigation Company,Cache,,,,,,,
144,Rocky Mountain Irrigation,Cache,,,,,,,
145,Seventh Ward Irrigation Company,Cache,,,,,,,
146,Skyline Irrigation Company,Cache,,,,,,,
147,Smithfield Irrigation Company,Cache,84335,4355633161,"PO Box 41
Smithfield, UT",,,,
150,South Cache Water Users Association,Cache,,,,,,,
151,South Smithfield Sprinkler Irrigation Company,Cache,,,,,,,
152,Southwest Lewiston Canal,Cache,,,,,,,
1259,Spring Creek Irrigation Company (Cache County),Cache,,,,,,,
155,Spring Creek Water Company,Cache,84332,4357526358,"PO Box 314
Providence, UT",,,,
156,Sunday Water Users Ditch,Cache,,,,,,,
160,Walter Wood Pump,Cache,,,,,,,
63,Water Street (formerly Central Mill),Cache,,,,,,,
164,Wellsville East Field Irrigation and Canal Company,Cache,84339,4357709873,"PO Box 118
Wellsville, UT",,,,
165,Wellsville Lower Creek Irrigation Company,Cache,,,,,,,
167,Wellsville Slough Irrigation Company,Cache,,,,,,,
170,Wood Irrigation,Cache,,,,,,,
5020,Cache Highline Water Association,Cache,84332,4352131771,"PO Box 100
Providence, UT",,,,
5007,Mendon Central Pipeline Company,Cache,84325,8014407795,"PO Box 173
Mendon, UT",,,,
83,Hopkins Slough Irrigation,Cache,84335,4357523572,"4443 North 2400 West
Benson, UT
(41.814011, -111.891661)",,18,23,
157,Temple Canal Company,Cache,84321,4357528729,"287 North 500 East
Logan, UT
(41.736787, -111.821943)",,18,34,29
135,Providence Pioneer Irrigation Company,Cache,84321,4357524868,"328 E Riverdale Ave
Logan, UT
(41.724437, -111.82724)",,18,45,21
103,Logan Island Irrigation Company,Cache,84321,4357530562,"138 West 300 South
Logan, UT
(41.725981, -111.838167)",,18,34,29
92,Johnson Park Pipeline Company,Cache,84341,4357527142,"2163 North 1400 East
North Logan, UT
(41.770772, -111.799485)",,18,23,24
161,Webster Irrigation Company,Cache,84320,4352582754,"1149 East 12700 North
Cove, UT
(41.963401, -111.811504)",,18,23,
149,Smithfield West Bench Irrigation Company,Cache,84335,4358810241,"357 North 100 East
Smithfield, UT
(41.843972, -111.829627)",,18,23,27
132,Porcupine Highline Canal Company,Cache,84319,4357705803,"900 East 6600 S
Hyrum, UT
(41.612235, -111.796165)",,9,45,
162,Wellsville-Mendon Conservancy District (Canal),Cache,84339,4352453420,"691 S 200 W
Wellsville, UT
(41.624804, -111.940342)",,9,45,18
58,Benson Bear Lake Irrigation Company,Cache,84335,4357533693,"4705 West 3800 North
Benson, UT
(41.800532, -111.944638)",52,18,23,
102,Logan Hollow Irrigation Company,Cache,84321,4357531742,"1238 Island Drive
Logan, UT
(41.739125, -111.802908)",,18,34,29
163,Wellsville City Irrigation Company,Cache,84339,4352456252,"15 East Main St
Wellsville, UT
(41.638699, -111.933976)",,9,45,18
89,HY-Branch Water Company (culinary),Cache,84320,4352582754,"1149 East 12700 North
Cove, UT
(41.963401, -111.811504)",,18,23,
119,"Montage Park Water Company, Inc.",Cache,84341,4355353569,"2010 North 950 East
North Logan, UT
(41.767811, -111.809935)",4,18,23,24
115,Mendon North Irrigation Ditch,Cache,84325,4357576347,"560 North 100 West
Mendon, UT
(41.717226, -111.978927)",,18,45,20
140,Richmond Irrigation Company,Cache,84333,4352585106,"298 South 200 West
Richmond, UT
(41.917759, -111.814432)",,18,23,23
148,Smithfield North Bench Ditch Company,Cache,84335,4357577675,"7810 North Hwy 91
Smithfield, UT
(41.875187, -111.824597)",,18,23,
87,Hyrum Blacksmith Fork Irrigation Company,Cache,84319,4358811931,"258 E 6600 S
Hyrum, UT
(41.612401, -111.827107)",,9,45,
56,Ballard Reese Pump Company,Cache,84335,4357608123,"3875 N 3200 W
Benson, UT
(41.802806, -111.912117)",52,18,23,
97,Kirkbride Spring Irrigation,Cache,84010,8012944036,"2586 Fairway Circle
Bountiful, UT
(40.86198, -111.863867)",173,16,11,49
84,Hyde Park Irrigation Company,Cache,84318,4355635876,"260 North 200 East
Hyde Park, UT
(41.80337, -111.814073)",53,18,23,239
5006,Greenbelt Irrigation Company,Cache,84341,4357539011,"2085 North 600 East
North Logan, UT
(41.769753, -111.818625)",4,18,23,24
69,College Irrigation Company,Cache,84321,4357527573,"1835 West 3200 South
Logan, UT
(41.675196, -111.876908)",,9,45,
75,First South Hyde Park Water Pipeline Company,Cache,84318,4355630156,"98 1/2 S 250 E
Hyde Park, UT
(41.796526, -111.812825)",53,18,23,239
67,Clear Creek Ditch Company,Cache,84321,4357520184,"715 South 1000 West
Logan, UT
(41.717196, -111.859989)",,18,34,29
88,Hyrum Irrigation Company,Cache,84319,4357709904,"685 Ridge Crest Circle
Hyrum, UT
(41.643262, -111.835357)",,9,45,19
169,West Canyon,Cache,84328,4359388548,"31 West Canyon Road
Paradise, UT
(41.536196, -111.832117)",,9,45,
128,North Hyde Park Irrigation Company,Cache,84318,4355633905,"51 West 385 North
Hyde Park, UT
(41.806604, -111.819234)",53,18,23,239
81,"High Creek Culinary Water System, Inc.",Cache,84320,4352582927,"13091 North High Creek Road, Apt 1
Lewiston, UT
(41.970596, -111.773216)",,18,23,
117,Mendon South Canal Company,Cache,84325,4357531899,"2690 South Hwy 23
Mendon, UT
(41.682943, -111.963299)",,18,45,
158,Thatcher Irrigation Company,Cache,84321,4357550591,"132 South 300 West
Logan, UT
(41.728305, -111.842809)",,18,34,29
166,Wellsville North Field Irrigation Company,Cache,84339,4352453186,"780 S Center
Wellsville, UT
(41.622323, -111.934899)",,9,45,18
168,West Cache Irrigation Company,Cache,84338,4355633501,"1207 South 400 East
Trenton, UT
(41.897506, -111.933063)",52,18,23,28
1277,Southwest Field Irrigation Company,Cache,84321,4357531152,"1090 West 1000 South
Logan, UT
(41.713378, -111.862409)",52,18,45,
96,King Irrigation Company,Cache,84335,4357570687,"809 East 400 South
Smithfield, UT
(41.828052, -111.810918)",,18,23,27
65,Clarkston Irrigation Company,Cache,84305,4355635806,"127 North Main
Clarkston, UT
(41.923473, -112.050455)",,18,1,26
66,Clayton Spring Irrigation Company,Cache,84339,432453948,"321 S 300 W
Wellsville, UT
(41.630995, -111.942949)",,9,45,18
106,Logan River and Blacksmith Fork Irrigation Company,Cache,84321,4357534439,"997 South 3200 West
Logan, UT
(41.714433, -111.910854)",52,18,45,
154,Spring Creek Cache Irrigation Company,Cache,84321,4357571835,"2727 W 1800 S
Logan, UT
(41.69996, -111.897688)",52,18,45,
126,Nibley Blacksmith Fork Irrigation Company,Cache,84321,4352453830,"4785 Hollow Rd
Nibley, UT
(41.647373, -111.822191)",,9,45,32
104,Logan North Field Irrigation Company,Cache,84341,4357603566,"195 West 1800 North
North Logan, UT
(41.765033, -111.83859)",,18,23,29
129,North Park Irrigation Company,Cache,84341,4352321787,"2460 North 800 East
North Logan, UT
(41.776995, -111.813283)",4,18,23,24
70,Coveville Irrigation Company,Cache,84320,4352582529,"12616 N 1200 E
Cove, UT
(41.962007, -111.807329)",,18,23,
