ID#,Company Name,County,Zip Code,Phone,Location 1,Census Tract Boundaries,Utah Senate Districts,Utah House Districts,Municipalities
831,Ogden Brigham Canal (North),Weber,,,,,,,
855,Blair/Smout 4 mile Irrigation Company,Weber,,,,,,,
772,Anderson-Felt Ditch Company,Weber,,,,,,,
774,Bertionotti Irrigation Company,Weber,,,,,,,
776,Bona-Vista Water Improvement District,Weber,,,,,,,
779,Charles Story Ditch,Weber,,,,,,,
780,Cherry Hill Water Association,Weber,,,,,,,
782,Co-op Farm Irrigation Co.,Weber,,,,,,,
784,Dave Moore Ditch Company,Weber,,,,,,,
786,Dinsdale Irrigation Company,Weber,,,,,,,
787,Downs Ditch Water Co. Inc.,Weber,,,,,,,
788,Dunn Canal Company,Weber,,,,,,,
789,East Willow Springs Irrigation Company,Weber,,,,,,,
790,Eden Hills Water Company,Weber,,,,,,,
791,Eden Irrigation Company,Weber,,,,,,,
792,Eden Waterworks Company,Weber,,,,,,,
794,Emmertson Irrigation Company,Weber,,,,,,,
795,Enoch Farr Ditch Company,Weber,,,,,,,
796,"Felt, Petersen, Slater Ditch Company",Weber,,,,,,,
799,Great Basin Water Company,Weber,,,,,,,
1240,Green Hills Water & Sewer District,Weber,,,,,,,
801,Holmes-Ferrin Irrigation Company,Weber,,8013918694,,,,,
803,Huntsville Irrigation Company,Weber,,,,,,,
804,Huntsville South Bench Canal Company,Weber,,,,,,,
805,Huntsville Waterworks Corp.,Weber,,,,,,,
807,Jones Ditch Company,Weber,,,,,,,
808,Knight Irrigation Company,Weber,,8013304381,,,,,
809,Lakeview Water Corporation,Weber,,,,,,,
812,Liberty Irrigation Association,Weber,,,,,,,
814,Lynne Irrigation Company,Weber,,,,,,,
815,Marriott Irrigation Company,Weber,,,,,,,
816,Middle Fork Irrigation Company,Weber,,,,,,,
817,Montgomery Slough Ditch 1,Weber,,,,,,,
1048,Moore Ditch Company,Weber,,,,,,,
818,Mound Fort Irrigation Company 1,Weber,,,,,,,
819,Mound Fort Irrigation Company 2,Weber,,,,,,,
820,Mound Fort Irrigation Company 3,Weber,,,,,,,
821,Mound Fort Irrigation Company 4,Weber,,,,,,,
822,Mound Fort Irrigation Company 5,Weber,,,,,,,
823,Mound Fort Irrigation Company 6,Weber,,,,,,,
824,Mountain Canal Irrigation Association,Weber,,,,,,,
825,Mountain Canal Irrigation Company,Weber,,,,,,,
826,Mountain Water Irrigation Company,Weber,,,,,,,
827,Nordic Mountain Water Company,Weber,,,,,,,
829,North Slaterville Irrigation Company,Weber,,,,,,,
830,Ogden Bench Canal & Water Company,Weber,,,,,,,
832,Ogden River Distribution System,Weber,,,,,,,
833,Ogden River Reservoir Company,Weber,,,,,,,
837,Perry Ditch Company,Weber,,,,,,,
838,Pine Canyon Ditch Company Inc.,Weber,,,,,,,
1049,Pineview Heights Water Co.,Weber,,,,,,,
839,Pineview Home Owners Water Development,Weber,,,,,,,
840,Pineview Water System,Weber,,,,,,,
841,Pineview West Water Company,Weber,,,,,,,
842,Pioneer Irrigation Canal Company,Weber,,,,,,,
843,Pioneer Land & Irrigation Co.,Weber,,,,,,,
845,Pleasant View City Water Department,Weber,,,,,,,
846,Pole Patch Irrigation Company,Weber,,,,,,,
849,Rice Creek Irrigation Company,Weber,,,,,,,
848,Richardson & Cowan Ditch Company,Weber,84404,8017318210,"1091 N 3500 W
Marriot-Slaterville, UT",,,,
850,Riverdale Bench Canal Company,Weber,84405,8017711677,"8065 South South Weber Dr
Riverdale, UT",,,,
851,Rollo-Johnson-Downs Ditch,Weber,,,,,,,
852,Roy Water Conservancy Subdistrict,Weber,,1801731520,,,,,
854,Shupe & Middleton Ditch,Weber,,,,,,,
857,South Slaterville Irrigation Company,Weber,,,,,,,
859,South Weber Improvement District:,Weber,,,,,,,
860,South Weber Irrigation Company,Weber,,,,,,,
861,South Weber Reservoir Canal Company,Weber,,,,,,,
1050,Spring Mountain Mutal Water Company Inc.,Weber,,,,,,,
862,Spring Mountain Water Company,Weber,,,,,,,
865,Uintah Mountain Stream Irrigation Company,Weber,,,,,,,
1158,Warren Irrigation Company,Weber,,,,,,,
869,Weber Canal Water Company This company has been dissolved,Weber,,,,,,,
870,Weber River Distribution System,Weber,,,,,,,
872,Weber-Box Elder Conservancy District,Weber,,,,,,,
873,Western Irrigation Company,Weber,,,,,,,
875,Wolf Creek Irrigation Company,Weber,,,,,,,
836,Wolf Creek Water Company Inc.,Weber,,,,,,,
856,South Ogden Conservation District,Weber,84404,8016216555,"471 W 2nd St
Ogden, UT
(41.259351, -111.987272)",,11,74,148
844,Plain City Irrigation Company,Weber,84404,8018145228,"2502 North 3975 West
Plain City, UT
(41.303366, -112.075801)",,13,22,217
864,Uintah Central Canal Company,Weber,84405,8016249670,"1658 East 6525 South
Uintah, UT
(41.144577, -111.937552)",,10,3,150
798,Glenwood Ditch Company,Weber,84404,8013945180,"984 16th Street
Ogden, UT
(41.238287, -111.953714)",,11,74,148
783,Crooked Creek Irrigation Company,Weber,84405,,"5327 South 500 East Ste A
Ogden, Ut
(41.167395, -111.968567)",,10,3,149
828,North Ogden Irrigation Company,Weber,84414,8016216555,"471 W 2nd St
Ogden, UT
(41.259351, -111.987272)",,11,74,148
874,Wilson Irrigation Company,Weber,84401,8014300582,"2321 West 2200 South
West Haven, UT
(41.226906, -112.036336)",,13,22,151
255,Weber Basin Water Conservancy District,Weber,84040,8017711677,"2837 Utah 193
Layton, UT
(41.10804, -111.91441)",,15,8,233
834,Ogden River Water Users Association,Weber,84404,8016216555,"471 West 2nd Street
Ogden, UT
(41.259351, -111.987272)",,11,74,148
781,Cold Water Irrigation Company No. 2,Weber,84404,8016216555,"471 W 2nd St
Ogden, UT
(41.259351, -111.987272)",,11,74,148
802,Hooper Irrigation Company,Weber,84315,8019858429,"5375 S 5500 W
Hooper, UT
(41.166455, -112.112855)",,13,4,155
