"type_of_location","company_name","study_area_code","latitude","longitude","address","city","state","zip_code","locations","fund_type"
"Qualifying","Slic Network Solutions","159038","44.499817","-74.745156","6 BULLOCK DR/PRVT","COLTON","NY","13672","1","CAFII AUC"
"Qualifying","Slic Network Solutions","159038","44.915132","-73.883010","269 LAFRANCIS RD","CHURUBUSCO","NY","12923","1","CAFII AUC"
"Qualifying","Slic Network Solutions","159038","43.386465","-73.366225","41 GUILDER HOLLOW RD","HARTFORD","NY","12832","1","CAFII AUC"
"Ineligible","Slic Network Solutions","159038","44.646885","-74.286196","11367 STATE ROUTE 30","MALONE","NY","12953","1","CAFII AUC"
"Qualifying","Slic Network Solutions","159038","42.979082","-73.520707","35 IVES HILL RD","EASTON","NY","12185","1","CAFII AUC"
"Qualifying","Slic Network Solutions","159038","43.253595","-73.283947","6452 STATE ROUTE 22","HEBRON","NY","12865","1","CAFII AUC"
"Qualifying","Slic Network Solutions","159038","43.762158","-73.407377","144 NOTCH HILL LN","PUTNAM STATION","NY","12861","1","CAFII AUC"
"Qualifying","Slic Network Solutions","159038","43.341279","-73.321356","279 & 350 LIEBIG RD","HEBRON","NY","12832","1","CAFII AUC"
"Qualifying","Slic Network Solutions","159038","44.489726","-74.728726","172 JOE INDIAN POND RD","COLTON","NY","13672","1","CAFII AUC"
"Qualifying","Slic Network Solutions","159038","43.330109","-73.337284","1286 BIG BURCH HILL RD","HEBRON","NY","12832","1","CAFII AUC"
"Qualifying","Slic Network Solutions","159038","43.333728","-73.267022","7646 STATE ROUTE 22","HEBRON","NY","12832","1","CAFII AUC"
"Qualifying","Slic Network Solutions","159038","44.633404","-74.458583","43 BACK ST","SANTA CLARA","NY","12980","1","CAFII AUC"
"Qualifying","Slic Network Solutions","159038","42.989861","-73.483846","17 BROWNELL RD","CAMBRIDGE","NY","12816","1","CAFII AUC"
"Qualifying","Slic Network Solutions","159038","43.241575","-73.391853","2236 COUNTY ROUTE 47","HEBRON","NY","12865","1","CAFII AUC"
"Qualifying","Slic Network Solutions","159038","44.875639","-74.417444","1459 COUNTY ROUTE 8","BANGOR","NY","12916","1","CAFII AUC"
"Qualifying","Slic Network Solutions","159038","44.922352","-74.013293","748 COUNTY LINE RD","CHURUBUSCO","NY","12923","1","CAFII AUC"
"Qualifying","Slic Network Solutions","159038","43.174138","-73.571314","152 COUNTY ROUTE 46","FORT EDWARD","NY","12828","1","CAFII AUC"
"Qualifying","Slic Network Solutions","159038","43.229267","-73.374205","3164 COUNTY ROUTE 30","HEBRON","NY","12865","1","CAFII AUC"
"Qualifying","Slic Network Solutions","159038","43.429845","-73.386473","1202 COUNTY ROUTE 17","FORT ANN","NY","12827","1","CAFII AUC"
"Qualifying","Slic Network Solutions","159038","43.394949","-73.444536","1558 BALDWIN CORNERS RD","HARTFORD","NY","12827","1","CAFII AUC"
"Qualifying","Slic Network Solutions","159038","44.841448","-73.953901","96 PEETS RD","ELLENBURG","NY","12955","1","CAFII AUC"
"Qualifying","Slic Network Solutions","159038","44.490019","-74.729544","167 JOE INDIAN POND RD","COLTON","NY","13672","1","CAFII AUC"
"Qualifying","Slic Network Solutions","159038","44.885975","-74.455189","12 AVERY RD","BANGOR","NY","12916","1","CAFII AUC"
"Qualifying","Slic Network Solutions","159038","43.239015","-73.268521","268 BLOSSOM RD","GRANVILLE","NY","12832","1","CAFII AUC"
"Qualifying","Slic Network Solutions","159038","43.378635","-73.446269","142 CR-17","FORT ANN","NY","12827","1","CAFII AUC"
"Qualifying","Slic Network Solutions","159038","44.373514","-75.050189","82118 118A DEAN RD","DICKINSON","NY","13625","1","CAFII AUC"
"Qualifying","Slic Network Solutions","159038","44.566363","-74.748828","22852287 WHITE HILL RD","COLTON","NY","13672","1","CAFII AUC"
"Qualifying","Slic Network Solutions","159038","44.671081","-74.276908","91 EAGLE POND RD","MALONE","NY","12953","1","CAFII AUC"
"Qualifying","Slic Network Solutions","159038","44.965621","-73.934817","725 ROUTE 189","CHURUBUSCO","NY","12923","1","CAFII AUC"
"Qualifying","Slic Network Solutions","159038","43.696102","-73.427926","1071 B LN","WHITEHALL","NY","12887","1","CAFII AUC"
"Qualifying","Slic Network Solutions","159038","44.908381","-73.928361","105 GAGNIER RD","ELLENBURG CENTER","NY","12934","1","CAFII AUC"
"Qualifying","Slic Network Solutions","159038","43.108974","-73.265254","5 CHUNKS BROOK RD","SALEM","NY","12873","1","CAFII AUC"
"Qualifying","Slic Network Solutions","159038","44.488651","-74.728673","17,20 MACCARTER DR/PRVT","COLTON","NY","13672","1","CAFII AUC"
"Qualifying","Slic Network Solutions","159038","43.210955","-73.274886","COUNTY ROUTE 153","SALEM","NY","12865","1","CAFII AUC"
"Qualifying","Slic Network Solutions","159038","44.898909","-73.965085","148 CAMPBELL RD","CHURUBUSCO","NY","12923","1","CAFII AUC"
"Qualifying","Slic Network Solutions","159038","43.251077","-73.281837","448 TIPLADY RD","HEBRON","NY","12832","1","CAFII AUC"
"Qualifying","Slic Network Solutions","159038","44.146255","-73.563740","198 WAY   LOWER POND WAY","ELIZABETHTOWN","NY","12932","1","CAFII AUC"
"Qualifying","Slic Network Solutions","159038","44.913207","-73.990854","722 RYAN RD","CHURUBUSCO","NY","12923","1","CAFII AUC"
"Qualifying","Slic Network Solutions","159038","43.237298","-73.379438","3331 COUNTY ROUTE 30","HEBRON","NY","12865","1","CAFII AUC"
"Qualifying","Slic Network Solutions","159038","43.090088","-73.452764","1139 MCCORMACK RD","GREENWICH","NY","12834","1","CAFII AUC"
"Qualifying","Slic Network Solutions","159038","43.157675","-73.572695","106 BLODGETT RD","FORT EDWARD","NY","12828","1","CAFII AUC"
"Qualifying","Slic Network Solutions","159038","43.199398","-73.279822","231 CHAMBERS RD","SALEM","NY","12865","1","CAFII AUC"
"Qualifying","Slic Network Solutions","159038","44.650277","-74.506610","710 S RIVER RD","WAVERLY","NY","12980","1","CAFII AUC"
"Qualifying","Slic Network Solutions","159038","43.323500","-73.269861","7491 STATE ROUTE 22","HEBRON","NY","12832","1","CAFII AUC"
"Qualifying","Slic Network Solutions","159038","44.319002","-73.476494","174    REBER RD","WILLSBORO","NY","12996","1","CAFII AUC"
"Qualifying","Slic Network Solutions","159038","44.664393","-74.282875","3122 COUNTY ROUTE 14","DUANE","NY","12953","1","CAFII AUC"
"Qualifying","Slic Network Solutions","159038","43.751248","-73.404802","16981 STATE ROUTE 22","PUTNAM STATION","NY","12861","1","CAFII AUC"
"Qualifying","Slic Network Solutions","159038","43.402198","-73.345026","64 WHITNEY ESTATES LN","GRANVILLE","NY","12832","1","CAFII AUC"
"Qualifying","Slic Network Solutions","159038","44.515362","-74.822720","1327 RAQUETTE RIVER RD","SOUTH COLTON","NY","13687","1","CAFII AUC"
"Qualifying","Slic Network Solutions","159038","43.288852","-73.295327","269 PINE HILL RD","SALEM","NY","12865","1","CAFII AUC"
"Qualifying","Slic Network Solutions","159038","44.967292","-74.129268","105 SIMMS RD","CHATEAUGAY","NY","12920","1","CAFII AUC"
"Qualifying","Slic Network Solutions","159038","43.397087","-73.434584","1678 BALDWIN CORNERS RD","HARTFORD","NY","12827","1","CAFII AUC"
"Qualifying","Slic Network Solutions","159038","43.497540","-73.269309","1099 QUIVEY HILL RD","WHITEHALL","NY","12887","1","CAFII AUC"
"Qualifying","Slic Network Solutions","159038","43.722915","-73.405800","207 LAKE RD","PUTNAM","NY","12861","1","CAFII AUC"
"Qualifying","Slic Network Solutions","159038","43.005901","-73.462347","91 DARWIN RD","CAMBRIDGE","NY","12816","1","CAFII AUC"
"Qualifying","Slic Network Solutions","159038","44.957167","-73.891540","893 LAFRANCIS RD","CHURUBUSCO","NY","12923","1","CAFII AUC"
"Qualifying","Slic Network Solutions","159038","43.017128","-73.483948","2096 CR-74","GREENWICH","NY","12834","1","CAFII AUC"
"Qualifying","Slic Network Solutions","159038","43.006934","-73.478042","193 HORTON RD","CAMBRIDGE","NY","12816","1","CAFII AUC"
"Qualifying","Slic Network Solutions","159038","43.183990","-73.518826","14 PRIMROSE LN","ARGYLE","NY","12809","1","CAFII AUC"
"Qualifying","Slic Network Solutions","159038","43.235609","-73.404522","4865 COUNTY ROUTE 48","ARGYLE","NY","12809","1","CAFII AUC"
"Qualifying","Slic Network Solutions","159038","43.293867","-73.354172","86 DARFLER LN","HEBRON","NY","12832","1","CAFII AUC"
"Qualifying","Slic Network Solutions","159038","43.497927","-73.300492","50 HAMPTON HEIGHTS WAY","HAMPTON","NY","12887","1","CAFII AUC"
"Qualifying","Slic Network Solutions","159038","43.393504","-73.421671","508 COUNTY ROUTE 17","HARTFORD","NY","12827","1","CAFII AUC"
"Qualifying","Slic Network Solutions","159038","44.953162","-73.949720","186 LOOBY RD","CHURUBUSCO","NY","12923","1","CAFII AUC"
"Qualifying","Slic Network Solutions","159038","44.670431","-74.274549","112 EAGLE POND RD","DUANE","NY","12953","1","CAFII AUC"
"Qualifying","Slic Network Solutions","159038","43.281293","-73.326054","66 FIRST LIGHT RD","HEBRON","NY","12865","1","CAFII AUC"
"Qualifying","Slic Network Solutions","159038","44.609656","-74.822036","248 PICKETVILLE RD","COLTON","NY","13672","1","CAFII AUC"
"Qualifying","Slic Network Solutions","159038","43.207618","-73.524185","662 WEST VALLEY RD","ARGYLE","NY","12809","1","CAFII AUC"
"Qualifying","Slic Network Solutions","159038","43.368854","-73.461195","3906 STATE ROUTE 149","HARTFORD","NY","12827","1","CAFII AUC"
"Qualifying","Slic Network Solutions","159038","43.251046","-73.332589","660 CHAMBERLIN MILLS RD","HEBRON","NY","12865","1","CAFII AUC"
"Qualifying","Slic Network Solutions","159038","44.984687","-73.977879","101 SANTAMORE RD","CHURUBUSCO","NY","12923","1","CAFII AUC"
"Qualifying","Slic Network Solutions","159038","44.731119","-73.670993","339 BART MERRILL RD","DANNEMORA","NY","12918","1","CAFII AUC"
"Qualifying","Slic Network Solutions","159038","44.517961","-74.822408","RAQUETTE RIVER RD","COLTON","NY","13687","1","CAFII AUC"
"Qualifying","Slic Network Solutions","159038","44.701355","-74.126246","SALMON RIV","BELLMONT","NY","12969","1","CAFII AUC"
"Qualifying","Slic Network Solutions","159038","44.325712","-73.479402","318    REBER RD","WILLSBORO","NY","12996","1","CAFII AUC"
"Qualifying","Slic Network Solutions","159038","44.965848","-74.022742","1403 COUNTY LINE RD","CHATEAUGAY","NY","12920","1","CAFII AUC"
"Ineligible","Slic Network Solutions","159038","44.494174","-74.747134","16 COULON DR","PARISHVILLE","NY","13672","1","CAFII AUC"
"Qualifying","Slic Network Solutions","159038","44.287511","-73.520750","899    STOWERSVILLE RD","LEWIS","NY","12950","1","CAFII AUC"
"Qualifying","Slic Network Solutions","159038","44.987653","-74.152989","969 EAST RD","BURKE","NY","12917","1","CAFII AUC"
"Qualifying","Slic Network Solutions","159038","43.752907","-73.400846","111 PUTNAM CENTER RD","PUTNAM","NY","12861","1","CAFII AUC"
"Qualifying","Slic Network Solutions","159038","43.294512","-73.319321","664 MIDDLE RD","GRANVILLE","NY","12832","1","CAFII AUC"
"Qualifying","Slic Network Solutions","159038","44.933328","-73.955876","6977 ROUTE 11","CHURUBUSCO","NY","12923","1","CAFII AUC"
"Qualifying","Slic Network Solutions","159038","43.431105","-73.464361","63 FLAT ROCK RD","FORT ANN","NY","12827","1","CAFII AUC"
"Qualifying","Slic Network Solutions","159038","44.497700","-74.747074","57 COULON DR/PRVT","COLTON","NY","13672","1","CAFII AUC"
"Qualifying","Slic Network Solutions","159038","43.290319","-73.291093","170 CLARK WAY","GRANVILLE","NY","12832","1","CAFII AUC"
"Qualifying","Slic Network Solutions","159038","44.563892","-74.859674","317 DONOVAN DR/PRVT","COLTON","NY","13625","1","CAFII AUC"
"Qualifying","Slic Network Solutions","159038","44.960649","-74.264139","328 FOUNTAIN ST","CONSTABLE","NY","12926","1","CAFII AUC"
"Qualifying","Slic Network Solutions","159038","44.574285","-74.876560","459 FRENCH HILL RD","COLTON","NY","13625","1","CAFII AUC"
"Qualifying","Slic Network Solutions","159038","44.979855","-74.222300","198 TROUT RIVER RD","BURKE","NY","12917","1","CAFII AUC"
"Qualifying","Slic Network Solutions","159038","44.284022","-73.594132","70 GOFF RD","ELIZABETHTOWN","NY","12932","1","CAFII AUC"
"Qualifying","Slic Network Solutions","159038","43.423631","-73.458629","352 CLAY HILL RD","FORT ANN","NY","12827","1","CAFII AUC"
"Qualifying","Slic Network Solutions","159038","43.120020","-73.397035","199 REAFIELD FARM RD","JACKSON","NY","12865","1","CAFII AUC"
"Qualifying","Slic Network Solutions","159038","44.959026","-73.782145","395 DROWN RD","ELLENBURG DEPOT","NY","12935","1","CAFII AUC"
"Qualifying","Slic Network Solutions","159038","43.403132","-73.348727","58 LOGAN LN","GRANVILLE","NY","12832","1","CAFII AUC"
"Qualifying","Slic Network Solutions","159038","43.152811","-73.263705","1072 CAMDEN VALLEY RD","SHUSHAN","NY","12873","1","CAFII AUC"
"Qualifying","Slic Network Solutions","159038","43.719752","-73.413379","110 LAKE RD","PUTNAM","NY","12861","1","CAFII AUC"
"Qualifying","Slic Network Solutions","159038","44.787922","-73.768420","415 PLANK RD","ELLENBURG","NY","12935","1","CAFII AUC"
"Qualifying","Slic Network Solutions","159038","43.232936","-73.285921","27 CENTER WAY","HEBRON","NY","12865","1","CAFII AUC"
"Qualifying","Slic Network Solutions","159038","43.585172","-73.488265","801 PIKE BROOK RD","CLEMONS","NY","12819","1","CAFII AUC"
"Qualifying","Slic Network Solutions","159038","42.974598","-73.523281","1032 BEADLE HILL RD","EASTON","NY","12185","1","CAFII AUC"
"Qualifying","Slic Network Solutions","159038","43.759758","-73.406859","37 SMITH WAY","PUTNAM","NY","12861","1","CAFII AUC"
"Qualifying","Slic Network Solutions","159038","42.945705","-73.546496","525 BEADLE HILL RD","EASTON","NY","12185","1","CAFII AUC"
"Qualifying","Slic Network Solutions","159038","44.873865","-73.955516","7881 STAR RD","ELLENBURG","NY","12934","1","CAFII AUC"
"Qualifying","Slic Network Solutions","159038","44.967297","-73.948009","212 JONES RD","CHURUBUSCO","NY","12923","1","CAFII AUC"
"Qualifying","Slic Network Solutions","159038","44.656554","-74.247672","375 COUNTY ROUTE 26","DUANE","NY","12953","1","CAFII AUC"
"Qualifying","Slic Network Solutions","159038","44.948645","-74.512596","56 JESS CROKE RD","BOMBAY","NY","12914","1","CAFII AUC"
"Qualifying","Slic Network Solutions","159038","43.254437","-73.330795","38 MCKNIGHT HILL RD","SALEM","NY","12865","1","CAFII AUC"
"Qualifying","Slic Network Solutions","159038","44.123446","-73.580917","167 TWIN BROOKS DR","ELIZABETHTOWN","NY","12932","1","CAFII AUC"
"Qualifying","Slic Network Solutions","159038","44.459386","-74.823470","2861 SH 56","COLTON","NY","13687","1","CAFII AUC"
"Qualifying","Slic Network Solutions","159038","43.507077","-73.247993","76 COUNTY ROUTE 20","HAMPTON","NY","12837","2","CAFII AUC"
"Qualifying","Slic Network Solutions","159038","43.381226","-73.451739","57 COUNTRY LN","HARTFORD","NY","12827","1","CAFII AUC"
"Qualifying","Slic Network Solutions","159038","44.366662","-73.364388","76 WAY   PERRYS POINT WAY","WILLSBORO","NY","12996","1","CAFII AUC"
"Qualifying","Slic Network Solutions","159038","43.137970","-73.379555","159 WOOD LN","JACKSON","NY","12865","1","CAFII AUC"
"Qualifying","Slic Network Solutions","159038","43.764482","-73.422178","78 LILLIE LN","PUTNAM","NY","12861","1","CAFII AUC"
"Qualifying","Slic Network Solutions","159038","44.490405","-74.721747","6 NEWTON HILL DR/PRVT","COLTON","NY","13672","1","CAFII AUC"
"Qualifying","Slic Network Solutions","159038","43.385007","-73.368667","8492 STATE ROUTE 40","HARTFORD","NY","12832","1","CAFII AUC"
"Qualifying","Slic Network Solutions","159038","44.951165","-74.464581","43 COUNTY ROUTE 42","FORT COVINGTON","NY","12937","1","CAFII AUC"
"Qualifying","Slic Network Solutions","159038","43.277213","-73.384167","4 HALLS POND RD","HEBRON","NY","12865","1","CAFII AUC"
"Qualifying","Slic Network Solutions","159038","44.345722","-73.484068","616    REBER RD","WILLSBORO","NY","12996","1","CAFII AUC"
"Qualifying","Slic Network Solutions","159038","44.934853","-73.984130","7299 ROUTE 11","CHURUBUSCO","NY","12923","1","CAFII AUC"
"Qualifying","Slic Network Solutions","159038","44.834006","-73.966286","614 SPEAR HILL RD","ELLENBURG","NY","12955","1","CAFII AUC"
"Qualifying","Slic Network Solutions","159038","43.118170","-73.297046","313 CAMDEN VALLEY RD","SHUSHAN","NY","12873","1","CAFII AUC"
"Qualifying","Slic Network Solutions","159038","43.286472","-73.404122","992 CALLAWAY RD","HEBRON","NY","12809","1","CAFII AUC"
"Qualifying","Slic Network Solutions","159038","43.407049","-73.335113","641 GUILDER HOLLOW RD","GRANVILLE","NY","12832","1","CAFII AUC"
"Qualifying","Slic Network Solutions","159038","44.341442","-73.425821","444 DR   MOUNTAIN VIEW DR","WILLSBORO","NY","12996","1","CAFII AUC"
"Qualifying","Slic Network Solutions","159038","44.386914","-73.380981","322 POINT RD","WILLSBORO","NY","12996","1","CAFII AUC"
"Ineligible","Slic Network Solutions","159038","44.477013","-74.727209","66 PINE POINT DR","PARISHVILLE","NY","13672","1","CAFII AUC"
"Qualifying","Slic Network Solutions","159038","43.206687","-73.259732","CHAMBERS RD","SALEM","NY","12865","1","CAFII AUC"
"Qualifying","Slic Network Solutions","159038","43.751778","-73.430442","398 LIDDLE HARRIS RD","PUTNAM STATION","NY","12861","1","CAFII AUC"
"Qualifying","Slic Network Solutions","159038","44.286134","-73.585421","148 GOFF RD","ELIZABETHTOWN","NY","12932","1","CAFII AUC"
"Qualifying","Slic Network Solutions","159038","43.111724","-73.303345","11 PERRY HILL RD","SALEM","NY","12873","1","CAFII AUC"
"Qualifying","Slic Network Solutions","159038","44.212316","-73.667512","11 LIVIES WAY","ELIZABETHTOWN","NY","12932","1","CAFII AUC"
"Qualifying","Slic Network Solutions","159038","43.273354","-73.282408","209 INDIAN HEAD WAY","HEBRON","NY","12865","1","CAFII AUC"
"Qualifying","Slic Network Solutions","159038","44.666540","-74.291528","41 HORSESHOE LN","DUANE","NY","12953","1","CAFII AUC"
"Qualifying","Slic Network Solutions","159038","44.542774","-74.731325","37 WATKINS DR/PRVT","COLTON","NY","13672","1","CAFII AUC"
"Qualifying","Slic Network Solutions","159038","43.286538","-73.401098","964 CALLAWAY RD","HEBRON","NY","12809","1","CAFII AUC"
"Qualifying","Slic Network Solutions","159038","43.395089","-73.349904","399 GUILDER HOLLOW RD","GRANVILLE","NY","12832","1","CAFII AUC"
"Qualifying","Slic Network Solutions","159038","43.138016","-73.277327","39 BUTCHER LN","SHUSHAN","NY","12873","1","CAFII AUC"
"Qualifying","Slic Network Solutions","159038","42.997614","-73.483023","126 BROWNELL RD","CAMBRIDGE","NY","12816","1","CAFII AUC"
"Qualifying","Slic Network Solutions","159038","44.507992","-74.811596","732 EAST HILL RD","COLTON","NY","13687","1","CAFII AUC"
"Qualifying","Slic Network Solutions","159038","44.508683","-74.804281","804 EAST HILL RD","COLTON","NY","13687","1","CAFII AUC"
"Qualifying","Slic Network Solutions","159038","43.257058","-73.443885","228 MOON RD","ARGYLE","NY","12809","1","CAFII AUC"
"Qualifying","Slic Network Solutions","159038","43.196864","-73.579827","20 PATTERSON RD","FORT EDWARD","NY","12828","1","CAFII AUC"
"Qualifying","Slic Network Solutions","159038","44.993119","-74.036783","115 RHINEHART RD","CHATEAUGAY","NY","12920","1","CAFII AUC"
"Qualifying","Slic Network Solutions","159038","44.384283","-73.380033","282 POINT RD","WILLSBORO","NY","12996","1","CAFII AUC"
"Qualifying","Slic Network Solutions","159038","44.943149","-74.521462","482 COUNTY ROUTE 4","BOMBAY","NY","12914","1","CAFII AUC"
"Qualifying","Slic Network Solutions","159038","44.586974","-74.819776","603 PICKETVILLE RD","COLTON","NY","13672","1","CAFII AUC"
"Qualifying","Slic Network Solutions","159038","44.509088","-74.806209","905 E HILL RD","SOUTH COLTON","NY","13687","1","CAFII AUC"
"Qualifying","Slic Network Solutions","159038","43.750112","-73.373250","250 HUTTON SQUARE RD","PUTNAM","NY","12861","1","CAFII AUC"
"Qualifying","Slic Network Solutions","159038","43.367241","-73.450720","56+61+69 STRAINER LN","HARTFORD","NY","12827","1","CAFII AUC"
"Qualifying","Slic Network Solutions","159038","43.586098","-73.442107","154 BLUE GOOSE RD","DRESDEN","NY","12887","1","CAFII AUC"
"Qualifying","Slic Network Solutions","159038","44.745728","-74.171319","CHILDS RD","BELLMONT","NY","12969","1","CAFII AUC"
"Qualifying","Slic Network Solutions","159038","43.724190","-73.403158","241 LAKE RD","PUTNAM","NY","12861","1","CAFII AUC"
"Qualifying","Slic Network Solutions","159038","43.120842","-73.395630","196 REAFIELD FARM RD","JACKSON","NY","12816","1","CAFII AUC"
"Qualifying","Slic Network Solutions","159038","44.911009","-73.882233","205 LAFRANCIS RD","CHURUBUSCO","NY","12923","1","CAFII AUC"
"Qualifying","Slic Network Solutions","159038","44.579162","-74.898911","603 CR 58","COLTON","NY","13625","1","CAFII AUC"
"Qualifying","Slic Network Solutions","159038","43.237685","-73.392516","135 BARKLEY LN","HEBRON","NY","12865","1","CAFII AUC"
"Qualifying","Slic Network Solutions","159038","42.995470","-73.483675","93 BROWNELL RD","CAMBRIDGE","NY","12816","1","CAFII AUC"
"Qualifying","Slic Network Solutions","159038","44.293299","-73.528460","94    MOSS RD","LEWIS","NY","12950","1","CAFII AUC"
"Qualifying","Slic Network Solutions","159038","44.969539","-73.933877","780 ROUTE 189","CHURUBUSCO","NY","12923","1","CAFII AUC"
"Qualifying","Slic Network Solutions","159038","43.203699","-73.265245","432 CHAMBERS RD","SALEM","NY","12865","1","CAFII AUC"
"Qualifying","Slic Network Solutions","159038","43.393487","-73.353442","353 GUILDER HOLLOW RD","GRANVILLE","NY","12832","1","CAFII AUC"
"Qualifying","Slic Network Solutions","159038","44.960344","-74.220403","186 GRIFFITH RD","BURKE","NY","12917","1","CAFII AUC"
"Qualifying","Slic Network Solutions","159038","42.942588","-73.560263","VALLEY FALLS RD","EASTON","NY","12154","1","CAFII AUC"
"Qualifying","Slic Network Solutions","159038","44.667243","-74.283278","44 MOORE RD","DUANE","NY","12953","1","CAFII AUC"
"Qualifying","Slic Network Solutions","159038","44.384182","-73.376877","274    POINT RD","WILLSBORO","NY","12996","1","CAFII AUC"
"Qualifying","Slic Network Solutions","159038","43.719841","-73.410564","154 LAKE RD","PUTNAM","NY","12861","1","CAFII AUC"
"Qualifying","Slic Network Solutions","159038","43.028502","-73.490826","491 HERRINGTON HILL RD","EASTON","NY","12834","1","CAFII AUC"
"Qualifying","Slic Network Solutions","159038","43.819667","-73.401404","198 NYS ROUTE 22","TICONDEROGA","NY","12883","1","CAFII AUC"
"Qualifying","Slic Network Solutions","159038","44.860735","-73.996020","197 HARRIGAN RD","ELLENBURG","NY","12920","1","CAFII AUC"
"Qualifying","Slic Network Solutions","159038","44.402364","-73.455545","4761 22   NYS ROUTE 22","WILLSBORO","NY","12944","1","CAFII AUC"
"Qualifying","Slic Network Solutions","159038","43.249636","-73.283230","6363 RT-22","SALEM","NY","12865","1","CAFII AUC"
"Qualifying","Slic Network Solutions","159038","44.124176","-73.579683","154 DR   TWIN BROOKS DR","ELIZABETHTOWN","NY","12932","1","CAFII AUC"
"Qualifying","Slic Network Solutions","159038","43.051133","-73.512789","33 EASTON STATION RD","EASTON","NY","12834","1","CAFII AUC"
"Qualifying","Slic Network Solutions","159038","43.499103","-73.294835","11 HAMPTON HEIGHTS WAY","HAMPTON","NY","12887","1","CAFII AUC"
"Qualifying","Slic Network Solutions","159038","43.141377","-73.312456","916 STEELE RD","SALEM","NY","12873","1","CAFII AUC"
"Qualifying","Slic Network Solutions","159038","44.938441","-73.798965","486 CANAAN RD","MOOERS FORKS","NY","12959","1","CAFII AUC"
"Qualifying","Slic Network Solutions","159038","43.386202","-73.406713","188 WARREN RD","HARTFORD","NY","12827","1","CAFII AUC"
"Qualifying","Slic Network Solutions","159038","43.327549","-73.315771","1541 BIG BURCH HILL RD","HEBRON","NY","12832","1","CAFII AUC"
"Qualifying","Slic Network Solutions","159038","42.999059","-73.482110","154 BROWNELL RD","CAMBRIDGE","NY","12816","1","CAFII AUC"
"Qualifying","Slic Network Solutions","159038","43.215411","-73.373953","1084 COUNTY ROUTE 30","SALEM","NY","12865","1","CAFII AUC"
"Qualifying","Slic Network Solutions","159038","44.875366","-73.951798","7837 STAR RD","ELLENBURG","NY","12934","1","CAFII AUC"
"Qualifying","Slic Network Solutions","159038","44.944950","-74.436597","497 MCQUEEN RD","FORT COVINGTON","NY","12937","1","CAFII AUC"
"Qualifying","Slic Network Solutions","159038","43.305765","-73.357801","21 OLD CASTLE GREEN LN","HEBRON","NY","12832","1","CAFII AUC"
"Qualifying","Slic Network Solutions","159038","44.149052","-73.564396","231 WAY   LOWER POND WAY","ELIZABETHTOWN","NY","12932","1","CAFII AUC"
"Qualifying","Slic Network Solutions","159038","44.450345","-74.783036","185 STARK RD","COLTON","NY","13687","1","CAFII AUC"
"Qualifying","Slic Network Solutions","159038","43.394793","-73.450292","1494 BALDWIN CORNERS RD","HARTFORD","NY","12827","1","CAFII AUC"
"Qualifying","Slic Network Solutions","159038","43.228846","-73.387999","24 HEBRON HILLS RD","SALEM","NY","12865","1","CAFII AUC"
"Qualifying","Slic Network Solutions","159038","44.829022","-74.218173","318 MOODY RD","MALONE","NY","12953","1","CAFII AUC"
"Qualifying","Slic Network Solutions","159038","44.755320","-74.184589","362 BROWN-BENOIT RD","BELLMONT","NY","12969","1","CAFII AUC"
"Qualifying","Slic Network Solutions","159038","44.449652","-74.748153","28 STARK RESERVOIR LN/PRVT","CLARE","NY","13672","1","CAFII AUC"
"Qualifying","Slic Network Solutions","159038","44.952716","-74.185732","1177 COVEYTOWN RD","BURKE","NY","12917","1","CAFII AUC"
"Qualifying","Slic Network Solutions","159038","43.783069","-73.375757","COUNTY ROUTE 2","PUTNAM","NY","12861","1","CAFII AUC"
"Qualifying","Slic Network Solutions","159038","43.146058","-73.270721","778 CAMDEN VALLEY RD","SALEM","NY","12873","1","CAFII AUC"
"Qualifying","Slic Network Solutions","159038","44.963751","-73.798111","177 STONE RD","ELLENBURG DEPOT","NY","12935","1","CAFII AUC"
"Qualifying","Slic Network Solutions","159038","43.746048","-73.457686","71 WHITE BIRCH WAY","PUTNAM STATION","NY","12861","1","CAFII AUC"
"Qualifying","Slic Network Solutions","159038","43.257651","-73.322432","797 CHAMBERLIN MILLS RD","HEBRON","NY","12865","1","CAFII AUC"
"Qualifying","Slic Network Solutions","159038","43.635166","-73.500873","800 COUNTY ROUTE 6","DRESDEN","NY","12819","1","CAFII AUC"
"Qualifying","Slic Network Solutions","159038","44.633264","-74.454619","14 OLD ROUTE 72 RD","SANTA CLARA","NY","12980","1","CAFII AUC"
"Qualifying","Slic Network Solutions","159038","44.743938","-73.671724","526 BART MERRILL RD","DANNEMORA","NY","12918","1","CAFII AUC"
"Qualifying","Slic Network Solutions","159038","44.670515","-74.274157","116 EAGLE POND RD","DUANE","NY","12953","1","CAFII AUC"
"Qualifying","Slic Network Solutions","159038","43.294224","-73.277229","7047 STATE ROUTE 22","HEBRON","NY","12832","1","CAFII AUC"
"Qualifying","Slic Network Solutions","159038","44.551397","-74.891631","648 WINDMILL RD","COLTON","NY","13625","1","CAFII AUC"
"Qualifying","Slic Network Solutions","159038","43.753691","-73.402151","16976 STATE ROUTE 22","PUTNAM","NY","12861","1","CAFII AUC"
"Qualifying","Slic Network Solutions","159038","44.742565","-74.208870","178 WEBBER RD","MALONE","NY","12953","1","CAFII AUC"
"Qualifying","Slic Network Solutions","159038","44.965965","-74.466545","47 CUSHMAN RD","FORT COVINGTON","NY","12937","1","CAFII AUC"
"Qualifying","Slic Network Solutions","159038","44.857130","-73.994820","145 HARRIGAN RD","ELLENBURG","NY","12920","1","CAFII AUC"
"Qualifying","Slic Network Solutions","159038","43.494725","-73.276558","186 RAINBOW WAY","WHITEHALL","NY","12887","1","CAFII AUC"
"Qualifying","Slic Network Solutions","159038","44.489841","-74.750551","12 BECKSTEAD DR/PRVT","COLTON","NY","13672","1","CAFII AUC"
"Qualifying","Slic Network Solutions","159038","44.826667","-73.988660","331 SPEAR HILL RD","ELLENBURG","NY","12955","1","CAFII AUC"
"Qualifying","Slic Network Solutions","159038","44.953656","-73.932419","1 LOOBY RD APARTMENT 1","CHURUBUSCO","NY","12923","9","CAFII AUC"
"Qualifying","Slic Network Solutions","159038","43.133725","-73.386724","46 WOOD LN","JACKSON","NY","12865","1","CAFII AUC"
"Qualifying","Slic Network Solutions","159038","44.708730","-73.750930","200 HUGH HERRON RD","SARANAC","NY","12981","1","CAFII AUC"
"Qualifying","Slic Network Solutions","159038","44.746916","-74.175793","172 BROWN BENOIT RD","BELLMONT","NY","12969","1","CAFII AUC"
"Qualifying","Slic Network Solutions","159038","44.893875","-73.965328","71 CAMPBELL RD","CHURUBUSCO","NY","12923","1","CAFII AUC"
"Qualifying","Slic Network Solutions","159038","44.976251","-73.935783","885 ROUTE 189","CHURUBUSCO","NY","12923","1","CAFII AUC"
"Qualifying","Slic Network Solutions","159038","44.875429","-74.403757","1605 COUNTY ROUTE 8","BANGOR","NY","12966","1","CAFII AUC"
"Qualifying","Slic Network Solutions","159038","43.172027","-73.381876","305 DILLON HILL RD","SALEM","NY","12865","1","CAFII AUC"
"Qualifying","Slic Network Solutions","159038","44.578659","-74.487384","4339 BLUE MOUNTAIN RD","SAINT REGIS FALLS","NY","12980","1","CAFII AUC"
"Qualifying","Slic Network Solutions","159038","43.082786","-73.316108","312 BINNINGER RD","SALEM","NY","12873","1","CAFII AUC"
"Qualifying","Slic Network Solutions","159038","43.238955","-73.390935","163 BARKLEY LN","HEBRON","NY","12865","1","CAFII AUC"
"Qualifying","Slic Network Solutions","159038","43.251026","-73.335065","635 CHAMBERLIN MILLS RD","HEBRON","NY","12865","1","CAFII AUC"
"Qualifying","Slic Network Solutions","159038","44.829749","-74.224117","MOODY RD (S)","MALONE","NY","12953","1","CAFII AUC"
"Qualifying","Slic Network Solutions","159038","43.175649","-73.369058","483 BLACK CREEK RD","SALEM","NY","12865","1","CAFII AUC"
"Qualifying","Slic Network Solutions","159038","43.735949","-73.395000","169 COUNTY ROUTE 3","PUTNAM","NY","12861","1","CAFII AUC"
"Qualifying","Slic Network Solutions","159038","43.118978","-73.302938","117 PERRY HILL RD","SALEM","NY","12873","1","CAFII AUC"
"Qualifying","Slic Network Solutions","159038","43.261616","-73.372965","339 COUNTY ROUTE 31","HEBRON","NY","12865","1","CAFII AUC"
"Qualifying","Slic Network Solutions","159038","44.279900","-73.578874","8 WAY   BIRCH TRAIL WAY","LEWIS","NY","12932","1","CAFII AUC"
"Qualifying","Slic Network Solutions","159038","43.763938","-73.422668","610 LIDDLE-HARRIS RD","PUTNAM","NY","12861","1","CAFII AUC"
"Qualifying","Slic Network Solutions","159038","43.108242","-73.413929","90 CR-61","GREENWICH","NY","12834","1","CAFII AUC"
"Qualifying","Slic Network Solutions","159038","44.607500","-74.787891","3214 WHITE HILL RD","COLTON","NY","13672","1","CAFII AUC"
"Qualifying","Slic Network Solutions","159038","43.284125","-73.296016","347 PINE HILL RD","HEBRON","NY","12865","1","CAFII AUC"
"Qualifying","Slic Network Solutions","159038","44.326449","-73.422867","647    SUNSET DR","WILLSBORO","NY","12996","1","CAFII AUC"
"Qualifying","Slic Network Solutions","159038","43.181689","-73.534215","135 HARPER RD","FORT EDWARD","NY","12834","1","CAFII AUC"
"Qualifying","Slic Network Solutions","159038","44.953889","-73.930326","1331 CLINTON MILLS RD","CHURUBUSCO","NY","12923","1","CAFII AUC"
"Qualifying","Slic Network Solutions","159038","43.498684","-73.274862","68 RAINBOW WAY","HAMPTON","NY","12887","1","CAFII AUC"
"Qualifying","Slic Network Solutions","159038","43.234048","-73.272106","193 BLOSSOM RD","GRANVILLE","NY","12832","1","CAFII AUC"
"Qualifying","Slic Network Solutions","159038","44.817758","-73.775862","869 PLANK ROAD","ELLENBURG","NY","12935","1","CAFII AUC"
"Qualifying","Slic Network Solutions","159038","43.091299","-73.450766","700 CENTER FALLS RD","JACKSON","NY","12834","1","CAFII AUC"
"Qualifying","Slic Network Solutions","159038","43.161890","-73.505522","4003 STATE ROUTE 40","ARGYLE","NY","12809","2","CAFII AUC"
"Qualifying","Slic Network Solutions","159038","43.242270","-73.386356","2286 CR-47","SALEM","NY","12865","1","CAFII AUC"
"Qualifying","Slic Network Solutions","159038","43.434995","-73.449080","550 CLAY HILL RD","FORT ANN","NY","12827","1","CAFII AUC"
"Qualifying","Slic Network Solutions","159038","43.256042","-73.443174","215 MOON RD","ARGYLE","NY","12809","1","CAFII AUC"
"Qualifying","Slic Network Solutions","159038","43.283687","-73.289811","104 CLARK WAY","HEBRON","NY","12865","1","CAFII AUC"
"Qualifying","Slic Network Solutions","159038","43.798213","-73.389331","1016+1037 COUNTY ROUTE 2","PUTNAM","NY","12861","1","CAFII AUC"
"Qualifying","Slic Network Solutions","159038","44.910114","-73.880470","196 LAFRANCIS RD","ELLENBURG CENTER","NY","12934","1","CAFII AUC"
"Qualifying","Slic Network Solutions","159038","43.381798","-73.459622","57 CEDAR RIDGE WAY","HARTFORD","NY","12827","1","CAFII AUC"
"Qualifying","Slic Network Solutions","159038","43.238984","-73.354101","336 CHAMBERLIN MILLS RD","HEBRON","NY","12865","1","CAFII AUC"
"Qualifying","Slic Network Solutions","159038","43.028507","-73.467278","136 STUMP CHURCH RD","GREENWICH","NY","12834","1","CAFII AUC"
"Qualifying","Slic Network Solutions","159038","43.382907","-73.460550","62 CEDAR RIDGE WAY","HARTFORD","NY","12827","1","CAFII AUC"
"Qualifying","Slic Network Solutions","159038","43.293111","-73.319872","624 MIDDLE RD","HEBRON","NY","12832","1","CAFII AUC"
"Qualifying","Slic Network Solutions","159038","44.329886","-73.449398","128 DR   MOUNTAIN VIEW DR","WILLSBORO","NY","12996","1","CAFII AUC"
"Qualifying","Slic Network Solutions","159038","44.978612","-74.083440","760 COUNTY ROUTE 52","CHATEAUGAY","NY","12920","1","CAFII AUC"
"Qualifying","Slic Network Solutions","159038","44.967227","-74.255337","472 FOUNTAIN ST","CONSTABLE","NY","12926","1","CAFII AUC"
"Qualifying","Slic Network Solutions","159038","44.886018","-74.406487","159 COUNTY ROUTE 19","BANGOR","NY","12916","1","CAFII AUC"
"Qualifying","Slic Network Solutions","159038","43.403453","-73.344531","41 WHITNEY ESTATES LN","GRANVILLE","NY","12832","1","CAFII AUC"
"Qualifying","Slic Network Solutions","159038","43.906572","-73.648190","317    LETSONVILLE RD","SCHROON","NY","12872","1","CAFII AUC"
"Qualifying","Slic Network Solutions","159038","43.685485","-73.409089","108 BELDEN RD","DRESDEN","NY","12887","1","CAFII AUC"
"Qualifying","Slic Network Solutions","159038","43.732058","-73.458879","4033 BEACH LN","PUTNAM","NY","12861","1","CAFII AUC"
"Qualifying","Slic Network Solutions","159038","44.852048","-73.965425","803 W HILL RD","ELLENBURG","NY","12934","1","CAFII AUC"
"Qualifying","Slic Network Solutions","159038","43.799345","-73.381267","122 WRIGHTS RD","PUTNAM STATION","NY","12861","1","CAFII AUC"
"Qualifying","Slic Network Solutions","159038","43.277440","-73.379764","270 CROSIER RD","HEBRON","NY","12865","1","CAFII AUC"
"Qualifying","Slic Network Solutions","159038","44.503517","-74.736559","1290 WHITE HILL RD","COLTON","NY","13672","1","CAFII AUC"
"Qualifying","Slic Network Solutions","159038","44.555714","-74.824504","988 PICKETVILLE RD","PARISHVILLE","NY","13672","1","CAFII AUC"
"Qualifying","Slic Network Solutions","159038","43.292719","-73.313979","59 PINE HILL RD","HEBRON","NY","12865","1","CAFII AUC"
"Qualifying","Slic Network Solutions","159038","43.584397","-73.305936","165 CHAPMAN RD","WHITEHALL","NY","12887","1","CAFII AUC"
"Qualifying","Slic Network Solutions","159038","44.527668","-74.869914","3 SUGAR RD/PRVT","COLTON","NY","13625","1","CAFII AUC"
"Qualifying","Slic Network Solutions","159038","44.947178","-74.275018","110 FOUNTAIN ST","CONSTABLE","NY","12926","1","CAFII AUC"
"Qualifying","Slic Network Solutions","159038","44.630271","-74.468730","2792 STATE ROUTE 458","WAVERLY","NY","12980","1","CAFII AUC"
"Qualifying","Slic Network Solutions","159038","44.860314","-74.130132","COUNTY ROUTE 33","BELLMONT","NY","12920","1","CAFII AUC"
"Qualifying","Slic Network Solutions","159038","44.965524","-74.440922","320 CUSHMAN RD","FORT COVINGTON","NY","12937","1","CAFII AUC"
"Qualifying","Slic Network Solutions","159038","43.219309","-73.260437","2086 COUNTY ROUTE 153","SALEM","NY","12865","1","CAFII AUC"
"Qualifying","Slic Network Solutions","159038","44.677249","-74.289284","23 GLASGOW RD","DUANE","NY","12953","1","CAFII AUC"
"Qualifying","Slic Network Solutions","159038","43.242446","-73.381008","3375 COUNTY ROUTE 30","HEBRON","NY","12865","1","CAFII AUC"
"Qualifying","Slic Network Solutions","159038","44.984729","-73.977107","93 SANTAMORE RD","CHURUBUSCO","NY","12923","1","CAFII AUC"
"Qualifying","Slic Network Solutions","159038","44.847933","-74.047287","MERRILL RD","BELLMONT","NY","12920","1","CAFII AUC"
"Qualifying","Slic Network Solutions","159038","44.962148","-73.844040","412 CLINTON MILLS RD","ELLENBURG DEPOT","NY","12935","1","CAFII AUC"
"Qualifying","Slic Network Solutions","159038","43.393726","-73.385551","379 GIBBS RD","HARTFORD","NY","12827","1","CAFII AUC"
"Qualifying","Slic Network Solutions","159038","44.529155","-74.491703","3557 BLUE MOUNTAIN RD","SAINT REGIS FALLS","NY","12980","1","CAFII AUC"
"Qualifying","Slic Network Solutions","159038","44.916901","-73.882138","298 LAFRANCIS RD","ELLENBURG CENTER","NY","12934","1","CAFII AUC"
"Qualifying","Slic Network Solutions","159038","43.192011","-73.536094","48 WILLIAMS RD","FORT EDWARD","NY","12828","1","CAFII AUC"
"Qualifying","Slic Network Solutions","159038","44.926924","-74.461430","847 COUNTY ROUTE 3","FORT COVINGTON","NY","12916","1","CAFII AUC"
"Qualifying","Slic Network Solutions","159038","43.242220","-73.387170","2290 COUNTY ROUTE 47","HEBRON","NY","12865","1","CAFII AUC"
"Qualifying","Slic Network Solutions","159038","43.671281","-73.412882","41 DRESDEN RD","DRESDEN","NY","12887","1","CAFII AUC"
"Qualifying","Slic Network Solutions","159038","43.296226","-73.353336","45 DARFLER LN","HEBRON","NY","12832","1","CAFII AUC"
"Qualifying","Slic Network Solutions","159038","44.941192","-73.800199","527 CANAAN RD","ELLENBURG DEPOT","NY","12935","1","CAFII AUC"
"Qualifying","Slic Network Solutions","159038","43.340094","-73.284847","580 WEST GREEN POND WAY","HEBRON","NY","12832","1","CAFII AUC"
"Qualifying","Slic Network Solutions","159038","44.475372","-74.904598","382 LITTLE JOHN RD","COLTON","NY","13625","1","CAFII AUC"
"Qualifying","Slic Network Solutions","159038","44.308973","-73.519340","476 MOSS RD","LEWIS","NY","12950","1","CAFII AUC"
"Qualifying","Slic Network Solutions","159038","44.876780","-74.411676","1519 COUNTY ROUTE 8","BANGOR","NY","12916","1","CAFII AUC"
"Qualifying","Slic Network Solutions","159038","44.690014","-73.749346","397 NASHVILLE RD","SARANAC","NY","12981","1","CAFII AUC"
"Qualifying","Slic Network Solutions","159038","43.083212","-73.315253","324 BINNINGER RD","SALEM","NY","12873","1","CAFII AUC"
"Qualifying","Slic Network Solutions","159038","44.953990","-73.928441","1311 CLINTON MILLS RD","CHURUBUSCO","NY","12923","1","CAFII AUC"
"Qualifying","Slic Network Solutions","159038","42.946542","-73.527452","538 COLONEL BURCH RD","EASTON","NY","12185","1","CAFII AUC"
"Qualifying","Slic Network Solutions","159038","43.286974","-73.270680","129 & 149 HIGGINS RD","HEBRON","NY","12832","1","CAFII AUC"
"Qualifying","Slic Network Solutions","159038","43.331922","-73.338202","1252 BIG BURCH HILL RD","HEBRON","NY","12832","1","CAFII AUC"
"Qualifying","Slic Network Solutions","159038","44.935518","-73.980053","7259 ROUTE 11","CHURUBUSCO","NY","12923","1","CAFII AUC"
"Qualifying","Slic Network Solutions","159038","44.527128","-74.869916","287 MORGAN RD","COLTON","NY","13625","1","CAFII AUC"
"Qualifying","Slic Network Solutions","159038","43.302402","-73.370781","104 JAMES RD","HEBRON","NY","12865","1","CAFII AUC"
"Qualifying","Slic Network Solutions","159038","44.450174","-74.752450","4 STARK RESERVOIR LN/PRVT","COLTON","NY","13672","1","CAFII AUC"
"Qualifying","Slic Network Solutions","159038","43.385711","-73.458909","126 COUNTRY LN","HARTFORD","NY","12827","1","CAFII AUC"
"Qualifying","Slic Network Solutions","159038","43.130138","-73.390735","334 REAFIELD FARM RD","SALEM","NY","12865","1","CAFII AUC"
"Qualifying","Slic Network Solutions","159038","43.498377","-73.271156","43 RAINBOW WAY","HAMPTON","NY","12887","1","CAFII AUC"
"Qualifying","Slic Network Solutions","159038","43.722720","-73.404644","216 LAKE RD","PUTNAM","NY","12861","1","CAFII AUC"
"Qualifying","Slic Network Solutions","159038","43.203271","-73.378216","896 COUNTY ROUTE 30","SALEM","NY","12865","1","CAFII AUC"
"Qualifying","Slic Network Solutions","159038","44.480415","-74.849528","10,12 TRIMM RD","COLTON","NY","13687","1","CAFII AUC"
"Qualifying","Slic Network Solutions","159038","44.982000","-74.152227","885 EAST RD","BURKE","NY","12917","1","CAFII AUC"
"Qualifying","Slic Network Solutions","159038","43.080048","-73.444268","152 CAMBRIDGE-BATTENVILLE RD","JACKSON","NY","12834","1","CAFII AUC"
"Qualifying","Slic Network Solutions","159038","44.756432","-74.185593","362 BROWN-BENOIT RD","BELLMONT","NY","12953","1","CAFII AUC"
"Qualifying","Slic Network Solutions","159038","43.671370","-73.413690","STATE ROUTE 22","DRESDEN","NY","12887","1","CAFII AUC"
"Qualifying","Slic Network Solutions","159038","44.763978","-73.767671","50 PLANK RD","DANNEMORA","NY","12935","1","CAFII AUC"
"Qualifying","Slic Network Solutions","159038","43.283739","-73.256654","251 HIGGINS RD","GRANVILLE","NY","12832","1","CAFII AUC"
"Qualifying","Slic Network Solutions","159038","43.206861","-73.366611","321 PRIEST RD","SALEM","NY","12865","1","CAFII AUC"
"Qualifying","Slic Network Solutions","159038","43.266872","-73.370806","86 CROSIER RD","HEBRON","NY","12865","1","CAFII AUC"
"Qualifying","Slic Network Solutions","159038","43.799794","-73.379902","137 WRIGHTS RD","PUTNAM","NY","12861","1","CAFII AUC"
"Qualifying","Slic Network Solutions","159038","43.257904","-73.378042","3620 COUNTY ROUTE 30","HEBRON","NY","12865","1","CAFII AUC"
"Qualifying","Slic Network Solutions","159038","44.927216","-74.010385","816 COUNTY LINE RD","CHURUBUSCO","NY","12923","1","CAFII AUC"
"Qualifying","Slic Network Solutions","159038","43.283813","-73.281179","6890 STATE ROUTE 22","HEBRON","NY","12832","1","CAFII AUC"
"Qualifying","Slic Network Solutions","159038","43.389452","-73.468842","1288 BALDWIN CORNERS RD","HARTFORD","NY","12827","1","CAFII AUC"
"Qualifying","Slic Network Solutions","159038","44.939211","-74.182192","297 CALLAHAN RD","BURKE","NY","12917","1","CAFII AUC"
"Qualifying","Slic Network Solutions","159038","43.332374","-73.333401","1305 BIG BURCH HILL RD","HEBRON","NY","12832","1","CAFII AUC"
"Qualifying","Slic Network Solutions","159038","43.302746","-73.403732","304 SCOTT HILL RD","HEBRON","NY","12809","1","CAFII AUC"
"Qualifying","Slic Network Solutions","159038","44.557361","-74.827969","982 PICKETVILLE RD","PARISHVILLE","NY","13672","1","CAFII AUC"
"Qualifying","Slic Network Solutions","159038","44.707855","-73.728596","72 DOUGLAS RD","SARANAC","NY","12981","1","CAFII AUC"
"Qualifying","Slic Network Solutions","159038","44.894059","-73.990405","443 RYAN RD","CHURUBUSCO","NY","12923","1","CAFII AUC"
"Qualifying","Slic Network Solutions","159038","44.259301","-73.595132","163    DENTON RD","LEWIS","NY","12932","1","CAFII AUC"
"Qualifying","Slic Network Solutions","159038","44.563574","-74.889007","461 WILDWOOD RD","COLTON","NY","13625","1","CAFII AUC"
"Qualifying","Slic Network Solutions","159038","43.350834","-73.331246","608 TAYLOR HILL RD","GRANVILLE","NY","12832","1","CAFII AUC"
"Qualifying","Slic Network Solutions","159038","44.564629","-74.902068","37 RIEHL RD","COLTON","NY","13625","1","CAFII AUC"
"Qualifying","Slic Network Solutions","159038","44.948011","-74.457172","1156 COUNTY ROUTE 4","FORT COVINGTON","NY","12937","1","CAFII AUC"
"Qualifying","Slic Network Solutions","159038","44.295613","-73.528886","128    MOSS RD","LEWIS","NY","12950","1","CAFII AUC"
"Qualifying","Slic Network Solutions","159038","43.319902","-73.280958","1101 SMITH RD","HEBRON","NY","12832","1","CAFII AUC"
"Qualifying","Slic Network Solutions","159038","43.285258","-73.266229","209 HIGGINS RD","HEBRON","NY","12832","1","CAFII AUC"
"Qualifying","Slic Network Solutions","159038","43.165580","-73.574877","217 BLODGETT RD","FORT EDWARD","NY","12828","4","CAFII AUC"
"Qualifying","Slic Network Solutions","159038","44.147439","-73.529932","179 DR   TWIN BROOKS DR","ELIZABETHTOWN","NY","12932","1","CAFII AUC"
"Qualifying","Slic Network Solutions","159038","43.286067","-73.406505","1017 CALLAWAY RD","HEBRON","NY","12809","1","CAFII AUC"
"Qualifying","Slic Network Solutions","159038","43.303500","-73.403717","308 SCOTT HILL RD","HEBRON","NY","12809","1","CAFII AUC"
"Qualifying","Slic Network Solutions","159038","44.670200","-74.285472","11589 STATE ROUTE 30","DUANE","NY","12953","1","CAFII AUC"
"Qualifying","Slic Network Solutions","159038","43.510072","-73.303297","1783 COUNTY ROUTE 21","HAMPTON","NY","12887","1","CAFII AUC"
"Qualifying","Slic Network Solutions","159038","43.162912","-73.526677","1594 LICK SPRINGS RD","ARGYLE","NY","12834","1","CAFII AUC"
"Qualifying","Slic Network Solutions","159038","43.755918","-73.432079","LIDDLE-HARRIS RD","PUTNAM","NY","12861","1","CAFII AUC"
"Qualifying","Slic Network Solutions","159038","43.722647","-73.377235","1907 RAILROAD WAY S","PUTNAM STATION","NY","12861","1","CAFII AUC"
"Qualifying","Slic Network Solutions","159038","43.021515","-73.465560","1324 VLY SUMMIT RD","CAMBRIDGE","NY","12834","1","CAFII AUC"
"Qualifying","Slic Network Solutions","159038","44.771469","-73.765552","165 PLANK RD","DANNEMORA","NY","12935","1","CAFII AUC"
"Qualifying","Slic Network Solutions","159038","43.702316","-73.432630","7 NORTHWOODS WAY","PUTNAM","NY","12861","1","CAFII AUC"
"Qualifying","Slic Network Solutions","159038","43.238575","-73.365961","175 FERGUSON LN","HEBRON","NY","12865","1","CAFII AUC"
"Qualifying","Slic Network Solutions","159038","43.596077","-73.308820","1625 COUNTY ROUTE 11","HAMPTON","NY","12887","1","CAFII AUC"
"Qualifying","Slic Network Solutions","159038","43.751829","-73.434540","56 CHARTER BROOK LN","PUTNAM","NY","12861","1","CAFII AUC"
"Qualifying","Slic Network Solutions","159038","44.657177","-74.249768","351 COUNTY ROUTE 26","DUANE","NY","12953","1","CAFII AUC"
"Qualifying","Slic Network Solutions","159038","43.216007","-73.267132","2022 COUNTY ROUTE 153","SALEM","NY","12865","1","CAFII AUC"
"Qualifying","Slic Network Solutions","159038","43.109699","-73.413406","26 SKELLIE RD","GREENWICH","NY","12834","1","CAFII AUC"
"Qualifying","Slic Network Solutions","159038","43.161394","-73.535714","1039 ANTHONY RD","FORT EDWARD","NY","12834","1","CAFII AUC"
"Qualifying","Slic Network Solutions","159038","43.114931","-73.302421","56 PERRY HILL RD","SALEM","NY","12873","1","CAFII AUC"
"Qualifying","Slic Network Solutions","159038","43.423065","-73.330614","165+167 HICKS RD","GRANVILLE","NY","12832","1","CAFII AUC"
"Qualifying","Slic Network Solutions","159038","44.953044","-74.439706","1351 COUNTY ROUTE 4","FORT COVINGTON","NY","12937","1","CAFII AUC"
"Qualifying","Slic Network Solutions","159038","43.271642","-73.360066","538 COUNTY ROUTE 31","HEBRON","NY","12865","1","CAFII AUC"
"Qualifying","Slic Network Solutions","159038","43.286717","-73.269867","151 HIGGINS RD","HEBRON","NY","12832","1","CAFII AUC"
"Qualifying","Slic Network Solutions","159038","44.671068","-74.271689","143 EAGLE POND RD","DUANE","NY","12953","1","CAFII AUC"
"Qualifying","Slic Network Solutions","159038","43.285902","-73.348263","779 COUNTY ROUTE 31","HEBRON","NY","12832","1","CAFII AUC"
"Qualifying","Slic Network Solutions","159038","43.401216","-73.339849","555 GUILDER HOLLOW RD","GRANVILLE","NY","12832","1","CAFII AUC"
"Qualifying","Slic Network Solutions","159038","44.888132","-73.986055","340 RYAN RD","CHURUBUSCO","NY","12923","1","CAFII AUC"
"Qualifying","Slic Network Solutions","159038","43.154955","-73.379181","14 DILLON HILL RD","SALEM","NY","12865","1","CAFII AUC"
"Qualifying","Slic Network Solutions","159038","44.655541","-74.306624","61 DEER RIVER DR","DUANE","NY","12953","1","CAFII AUC"
"Qualifying","Slic Network Solutions","159038","44.664213","-74.279182","21 COUNTY ROUTE 26","DUANE","NY","12953","1","CAFII AUC"
"Qualifying","Slic Network Solutions","159038","43.157677","-73.534979","858 ANTHONY RD","GREENWICH","NY","12834","1","CAFII AUC"
"Qualifying","Slic Network Solutions","159038","42.943059","-73.560778","2507 VALLEY FALLS RD","EASTON","NY","12154","1","CAFII AUC"
"Qualifying","Slic Network Solutions","159038","43.297513","-73.400099","4303 COUNTY ROUTE 30","HEBRON","NY","12865","1","CAFII AUC"
"Qualifying","Slic Network Solutions","159038","43.135106","-73.285679","579 CAMDEN VALLEY RD","SALEM","NY","12873","1","CAFII AUC"
"Qualifying","Slic Network Solutions","159038","44.937466","-73.968243","7132 ROUTE 11","CHURUBUSCO","NY","12923","1","CAFII AUC"
"Qualifying","Slic Network Solutions","159038","44.952938","-74.270703","204 FOUNTAIN ST","CONSTABLE","NY","12926","1","CAFII AUC"
"Qualifying","Slic Network Solutions","159038","43.244048","-73.282804","30 WOOD WAY","GRANVILLE","NY","12832","1","CAFII AUC"
"Qualifying","Slic Network Solutions","159038","43.203679","-73.556150","280 PATTERSON RD","FORT EDWARD","NY","12828","1","CAFII AUC"
"Qualifying","Slic Network Solutions","159038","43.296568","-73.362313","114 MOUNTAIN WAY","HEBRON","NY","12832","1","CAFII AUC"
"Qualifying","Slic Network Solutions","159038","44.392947","-73.463325","231    CARVER LN","WILLSBORO","NY","12944","1","CAFII AUC"
"Qualifying","Slic Network Solutions","159038","44.785414","-73.767018","379 PLANK ROAD","ELLENBURG","NY","12935","1","CAFII AUC"
"Qualifying","Slic Network Solutions","159038","44.124368","-73.580321","154 DR   TWIN BROOKS DR","ELIZABETHTOWN","NY","12932","1","CAFII AUC"
"Qualifying","Slic Network Solutions","159038","44.631333","-74.457603","FRASER AVE","SANTA CLARA","NY","12980","1","CAFII AUC"
"Qualifying","Slic Network Solutions","159038","44.905329","-73.967240","245 CAMPBELL RD","CHURUBUSCO","NY","12923","1","CAFII AUC"
"Qualifying","Slic Network Solutions","159038","43.152490","-73.536880","381 & 390 ANTHONY RD","GREENWICH","NY","12834","1","CAFII AUC"
"Qualifying","Slic Network Solutions","159038","43.261948","-73.286788","6555 STATE ROUTE 22","HEBRON","NY","12865","1","CAFII AUC"
"Qualifying","Slic Network Solutions","159038","43.619204","-73.471838","387 COUNTY ROUTE 6","DRESDEN","NY","12819","1","CAFII AUC"
"Qualifying","Slic Network Solutions","159038","44.957169","-73.927968","38 SMITH ST","CHURUBUSCO","NY","12923","1","CAFII AUC"
"Qualifying","Slic Network Solutions","159038","44.878694","-73.977134","102 RYAN RD","CHURUBUSCO","NY","12923","1","CAFII AUC"
"Qualifying","Slic Network Solutions","159038","43.184541","-73.539758","592 HUNTER RD","FORT EDWARD","NY","12834","1","CAFII AUC"
"Qualifying","Slic Network Solutions","159038","43.288388","-73.271603","108 HIGGINS RD","HEBRON","NY","12832","1","CAFII AUC"
"Qualifying","Slic Network Solutions","159038","44.992175","-73.914832","239 LIBERTY POLE RD","CHURUBUSCO","NY","12923","1","CAFII AUC"
"Qualifying","Slic Network Solutions","159038","43.228051","-73.292856","6042 STATE ROUTE 22","HEBRON","NY","12865","2","CAFII AUC"
"Qualifying","Slic Network Solutions","159038","43.164642","-73.578093","1114 STATE ROUTE 4","FORT EDWARD","NY","12828","1","CAFII AUC"
"Qualifying","Slic Network Solutions","159038","44.674885","-74.290263","37 PINES RD","DUANE","NY","12953","1","CAFII AUC"
"Qualifying","Slic Network Solutions","159038","43.315501","-73.314376","103 LANG HILL RD","HEBRON","NY","12832","1","CAFII AUC"
"Qualifying","Slic Network Solutions","159038","44.482783","-74.844396","82 TRIMM RD","COLTON","NY","13687","1","CAFII AUC"
"Qualifying","Slic Network Solutions","159038","44.955577","-73.932528","575 ROUTE 189","CHURUBUSCO","NY","12923","1","CAFII AUC"
"Qualifying","Slic Network Solutions","159038","44.906505","-73.910114","6346 ROUTE 11","CHURUBUSCO","NY","12923","1","CAFII AUC"
"Qualifying","Slic Network Solutions","159038","44.975497","-74.104854","766 SANDY KNOLL RD","CHATEAUGAY","NY","12920","1","CAFII AUC"
"Qualifying","Slic Network Solutions","159038","43.302234","-73.372211","105 JAMES RD","HEBRON","NY","12865","1","CAFII AUC"
"Ineligible","Slic Network Solutions","159038","44.362520","-73.517478","977 REBER RD","LEWIS","NY","12996","2","CAFII AUC"
"Qualifying","Slic Network Solutions","159038","44.737524","-74.169641","62 STATION RD","BELLMONT","NY","12969","1","CAFII AUC"
"Qualifying","Slic Network Solutions","159038","44.969104","-74.068149","163 MCCORMICK RD NAME","CHATEAUGAY","NY","12920","1","CAFII AUC"
"Qualifying","Slic Network Solutions","159038","43.273934","-73.356220","22 WAITES WAY","HEBRON","NY","12865","1","CAFII AUC"
"Qualifying","Slic Network Solutions","159038","43.207354","-73.521482","553 S VALLEY RD","ARGYLE","NY","12809","1","CAFII AUC"
"Qualifying","Slic Network Solutions","159038","44.571726","-74.910608","443 CR 58","COLTON","NY","13625","1","CAFII AUC"
"Qualifying","Slic Network Solutions","159038","43.303090","-73.371630","115 JAMES RD","HEBRON","NY","12865","1","CAFII AUC"
"Ineligible","Slic Network Solutions","159038","44.714448","-74.374760","847 DALE RD","NORTH BANGOR","NY","12966","1","CAFII AUC"
"Qualifying","Slic Network Solutions","159038","44.991050","-73.923100","149 LIBERTY POLE RD","CHURUBUSCO","NY","12923","1","CAFII AUC"
"Qualifying","Slic Network Solutions","159038","43.547990","-73.466699","214 SOUTH BAY RD","DRESDEN","NY","12819","1","CAFII AUC"
"Qualifying","Slic Network Solutions","159038","43.481739","-73.258728","926 STATE ROUTE 22A","GRANVILLE","NY","12837","1","CAFII AUC"
"Qualifying","Slic Network Solutions","159038","44.931774","-74.014808","7631 ROUTE 11","CHURUBUSCO","NY","12923","1","CAFII AUC"
"Qualifying","Slic Network Solutions","159038","44.669822","-74.284973","11589 STATE ROUTE 30","DUANE","NY","12953","1","CAFII AUC"
"Qualifying","Slic Network Solutions","159038","44.676196","-74.288092","2 GLASGOW RD","MALONE","NY","12953","1","CAFII AUC"
"Qualifying","Slic Network Solutions","159038","44.323328","-73.503932","505 DEERHEAD RD","LEWIS","NY","12950","1","CAFII AUC"
"Qualifying","Slic Network Solutions","159038","44.959094","-73.933003","629 ROUTE 189","CHURUBUSCO","NY","12923","1","CAFII AUC"
"Qualifying","Slic Network Solutions","159038","44.908365","-73.928105","103 GAGNIER RD","ELLENBURG CENTER","NY","12934","1","CAFII AUC"
"Qualifying","Slic Network Solutions","159038","42.957167","-73.538123","724 BEADLE HILL RD","EASTON","NY","12185","1","CAFII AUC"
"Qualifying","Slic Network Solutions","159038","44.756414","-74.183252","362 BROWN-BENOIT RD","BELLMONT","NY","12969","1","CAFII AUC"
"Qualifying","Slic Network Solutions","159038","43.576458","-73.442017","327 COUNTY ROUTE 7","DRESDEN","NY","12819","1","CAFII AUC"
"Qualifying","Slic Network Solutions","159038","43.179102","-73.412415","358 FERGUSON RD","GREENWICH","NY","12823","1","CAFII AUC"
"Qualifying","Slic Network Solutions","159038","44.890946","-73.986202","386 RYAN RD","CHURUBUSCO","NY","12923","1","CAFII AUC"
"Qualifying","Slic Network Solutions","159038","43.498432","-73.275940","78 RAINBOW WAY","HAMPTON","NY","12887","1","CAFII AUC"
"Qualifying","Slic Network Solutions","159038","44.742991","-75.099180","15 TROUT BROOK RD","MADRID","NY","13660","1","CAFII AUC"
"Qualifying","Slic Network Solutions","159038","43.469999","-73.265967","740 RT-22A","HAMPTON","NY","12837","1","CAFII AUC"
"Qualifying","Slic Network Solutions","159038","44.480688","-74.849273","22 TRIMM RD","COLTON","NY","13687","1","CAFII AUC"
"Qualifying","Slic Network Solutions","159038","44.322015","-73.515973","375    DEERHEAD-REBER RD","LEWIS","NY","12950","1","CAFII AUC"
"Qualifying","Slic Network Solutions","159038","43.022156","-73.583590","1830 COUNTY ROUTE 113","EASTON","NY","12154","1","CAFII AUC"
"Qualifying","Slic Network Solutions","159038","44.901284","-73.967669","185 CAMPBELL RD","CHURUBUSCO","NY","12923","1","CAFII AUC"
"Qualifying","Slic Network Solutions","159038","43.196385","-73.535853","115 WILLIAMS RD","FORT EDWARD","NY","12828","1","CAFII AUC"
"Qualifying","Slic Network Solutions","159038","43.748321","-73.415739","327 PETERSON RD","PUTNAM","NY","12861","1","CAFII AUC"
"Qualifying","Slic Network Solutions","159038","43.096135","-73.310070","1429 COUNTY ROUTE 61","SALEM","NY","12873","1","CAFII AUC"
"Qualifying","Slic Network Solutions","159038","43.119590","-73.319902","387 JUNIPER SWAMP RD","SALEM","NY","12873","1","CAFII AUC"
"Qualifying","Slic Network Solutions","159038","44.912711","-73.922956","6514 ROUTE 11","CHURUBUSCO","NY","12923","1","CAFII AUC"
"Qualifying","Slic Network Solutions","159038","43.324995","-73.303749","1668 COUNTY ROUTE 31","HEBRON","NY","12832","1","CAFII AUC"
"Qualifying","Slic Network Solutions","159038","44.733441","-74.150737","45 BELANGA RD","BELLMONT","NY","12969","1","CAFII AUC"
"Qualifying","Slic Network Solutions","159038","44.478719","-74.846707","3252 SH 56","COLTON","NY","13687","1","CAFII AUC"
"Qualifying","Slic Network Solutions","159038","43.260647","-73.443088","264 COOT HILL RD","ARGYLE","NY","12809","1","CAFII AUC"
"Qualifying","Slic Network Solutions","159038","44.663495","-74.396861","1849 CR-14","SAINT REGIS FALLS","NY","12980","1","CAFII AUC"
"Qualifying","Slic Network Solutions","159038","44.905821","-73.989323","610 RYAN RD","CHURUBUSCO","NY","12923","1","CAFII AUC"
"Qualifying","Slic Network Solutions","159038","43.284986","-73.375742","158 HALLS POND RD","HEBRON","NY","12865","1","CAFII AUC"
"Qualifying","Slic Network Solutions","159038","43.735574","-73.418836","31 RUPP LN","PUTNAM STATION","NY","12861","1","CAFII AUC"
"Qualifying","Slic Network Solutions","159038","43.748118","-73.461092","6710 ROYAL ANCHORAGE WAY","PUTNAM","NY","12861","1","CAFII AUC"
"Qualifying","Slic Network Solutions","159038","44.291252","-73.592352","74 RD   WELLS HILL RD","LEWIS","NY","12950","1","CAFII AUC"
"Qualifying","Slic Network Solutions","159038","44.496771","-74.749476","WHITE HILL RD","COLTON","NY","13672","1","CAFII AUC"
"Qualifying","Slic Network Solutions","159038","43.572882","-73.313522","11879 STATE ROUTE 4","HAMPTON","NY","12887","1","CAFII AUC"
"Qualifying","Slic Network Solutions","159038","43.429827","-73.387128","1225 COUNTY ROUTE 17","FORT ANN","NY","12827","1","CAFII AUC"
"Qualifying","Slic Network Solutions","159038","44.910866","-73.988096","674 RYAN RD","CHURUBUSCO","NY","12923","1","CAFII AUC"
"Qualifying","Slic Network Solutions","159038","44.325087","-73.481916","755 DEERHEAD RD","WILLSBORO","NY","12996","1","CAFII AUC"
"Qualifying","Slic Network Solutions","159038","44.862128","-73.699079","4 RIVERBEND","ALTONA","NY","12910","1","CAFII AUC"
"Qualifying","Slic Network Solutions","159038","42.995029","-73.484415","99 BROWNELL RD","CAMBRIDGE","NY","12816","1","CAFII AUC"
"Qualifying","Slic Network Solutions","159038","44.917989","-73.992443","793 RYAN RD","CHURUBUSCO","NY","12923","1","CAFII AUC"
"Qualifying","Slic Network Solutions","159038","43.001130","-73.485814","183 BROWNELL RD","CAMBRIDGE","NY","12816","1","CAFII AUC"
"Qualifying","Slic Network Solutions","159038","43.088203","-73.451363","30 DUELLES LN","JACKSON","NY","12834","1","CAFII AUC"
"Qualifying","Slic Network Solutions","159038","43.763317","-73.410906","17144 STATE ROUTE 22","PUTNAM","NY","12861","2","CAFII AUC"
"Qualifying","Slic Network Solutions","159038","44.594400","-74.848789","38 MCCOY RD","COLTON","NY","13625","1","CAFII AUC"
"Qualifying","Slic Network Solutions","159038","44.290655","-73.522946","50    MOSS ROAD","LEWIS","NY","12950","1","CAFII AUC"
"Qualifying","Slic Network Solutions","159038","43.597698","-73.295279","12 SUGAR HILL WAY","HAMPTON","NY","12887","1","CAFII AUC"
"Qualifying","Slic Network Solutions","159038","43.134164","-73.302430","347 PERRY HILL RD","SALEM","NY","12873","1","CAFII AUC"
"Qualifying","Slic Network Solutions","159038","44.969964","-73.826335","97 COLGAN RD","ELLENBURG DEPOT","NY","12935","1","CAFII AUC"
"Qualifying","Slic Network Solutions","159038","43.132529","-73.318834","557+588 JUNIPER SWAMP RD","SALEM","NY","12873","1","CAFII AUC"
"Qualifying","Slic Network Solutions","159038","44.899003","-73.901295","515 BRANDY BROOK RD","ELLENBURG CENTER","NY","12934","1","CAFII AUC"
"Qualifying","Slic Network Solutions","159038","43.242570","-73.277603","84 WOOD WAY","HEBRON","NY","12865","1","CAFII AUC"
"Qualifying","Slic Network Solutions","159038","44.937424","-74.204275","294 SPENCER RD","BURKE","NY","12917","1","CAFII AUC"
"Qualifying","Slic Network Solutions","159038","43.419600","-73.332289","127 HICKS RD","GRANVILLE","NY","12832","1","CAFII AUC"
"Qualifying","Slic Network Solutions","159038","43.362791","-73.470478","3759 STATE ROUTE 149","HARTFORD","NY","12827","1","CAFII AUC"
"Qualifying","Slic Network Solutions","159038","44.947758","-74.475257","967 COUNTY ROUTE 4","FORT COVINGTON","NY","12937","1","CAFII AUC"
"Qualifying","Slic Network Solutions","159038","43.278726","-73.267751","292 HIGGINS RD","HEBRON","NY","12832","1","CAFII AUC"
"Qualifying","Slic Network Solutions","159038","44.490455","-74.726752","194 JOE INDIAN POND RD","COLTON","NY","13672","1","CAFII AUC"
"Qualifying","Slic Network Solutions","159038","44.916741","-74.459269","698 COUNTY ROUTE 3","FORT COVINGTON","NY","12937","1","CAFII AUC"
"Qualifying","Slic Network Solutions","159038","44.700314","-74.125431","7 SUNSET RIDGE","BELLMONT","NY","12969","1","CAFII AUC"
"Qualifying","Slic Network Solutions","159038","44.700405","-73.753250","67 HUGH HERRON RD","SARANAC","NY","12981","1","CAFII AUC"
"Qualifying","Slic Network Solutions","159038","43.162493","-73.505080","4011 STATE ROUTE 40","ARGYLE","NY","12809","2","CAFII AUC"
"Qualifying","Slic Network Solutions","159038","43.801660","-73.393243","1110 COUNTY ROUTE 2","PUTNAM","NY","12861","1","CAFII AUC"
"Qualifying","Slic Network Solutions","159038","44.967011","-74.103957","886 SANDY KNOLL RD","CHATEAUGAY","NY","12920","1","CAFII AUC"
"Qualifying","Slic Network Solutions","159038","44.511470","-74.813674","1214 RAQUETTE RIVER RD","COLTON","NY","13687","1","CAFII AUC"
"Qualifying","Slic Network Solutions","159038","44.922635","-73.824160","323 BULL RUN RD","ELLENBURG DEPOT","NY","12935","1","CAFII AUC"
"Qualifying","Slic Network Solutions","159038","43.386345","-73.368234","8518 STATE ROUTE 40","HARTFORD","NY","12832","1","CAFII AUC"
"Qualifying","Slic Network Solutions","159038","43.269009","-73.340389","499 MCKNIGHT HILL RD","SALEM","NY","12865","1","CAFII AUC"
"Qualifying","Slic Network Solutions","159038","43.495703","-73.276792","128 RAINBOW WAY","WHITEHALL","NY","12887","1","CAFII AUC"
"Qualifying","Slic Network Solutions","159038","44.479870","-74.909290","227 LITTLE JOHN RD","COLTON","NY","13625","1","CAFII AUC"
"Qualifying","Slic Network Solutions","159038","42.960499","-73.531309","69 LEES CROSSING RD","EASTON","NY","12185","1","CAFII AUC"
"Qualifying","Slic Network Solutions","159038","44.761762","-73.769645","13 PLANK RD","DANNEMORA","NY","12935","1","CAFII AUC"
"Qualifying","Slic Network Solutions","159038","43.393537","-73.441567","349 HALL RD","HARTFORD","NY","12827","1","CAFII AUC"
"Qualifying","Slic Network Solutions","159038","43.175458","-73.507438","103 COON RD","ARGYLE","NY","12809","2","CAFII AUC"
"Qualifying","Slic Network Solutions","159038","43.746512","-73.456488","6007 DONAT TURNPIKE WAY","PUTNAM STATION","NY","12861","1","CAFII AUC"
"Qualifying","Slic Network Solutions","159038","43.323704","-73.329885","460 LITTLE BURCH HILL RD","HEBRON","NY","12832","2","CAFII AUC"
"Qualifying","Slic Network Solutions","159038","43.552511","-73.460354","112 SOUTH BAY RD","DRESDEN","NY","12819","1","CAFII AUC"
"Qualifying","Slic Network Solutions","159038","43.271686","-73.362353","555 CR-31","SALEM","NY","12865","1","CAFII AUC"
"Qualifying","Slic Network Solutions","159038","44.981433","-73.990949","586 WHALEN RD","CHURUBUSCO","NY","12923","1","CAFII AUC"
"Qualifying","Slic Network Solutions","159038","44.977023","-74.124282","240 SANDY KNOLL RD","CHATEAUGAY","NY","12920","1","CAFII AUC"
"Qualifying","Slic Network Solutions","159038","43.178125","-73.505609","126 COON RD","ARGYLE","NY","12809","2","CAFII AUC"
"Qualifying","Slic Network Solutions","159038","43.185882","-73.499765","164 MCNEIL RD","ARGYLE","NY","12809","2","CAFII AUC"
"Qualifying","Slic Network Solutions","159038","44.907119","-73.989634","618 RYAN RD","CHURUBUSCO","NY","12923","1","CAFII AUC"
"Ineligible","Slic Network Solutions","159038","44.773011","-74.190485","664 BROWN BENOIT RD","BELLMONT","NY","12953","1","CAFII AUC"
"Qualifying","Slic Network Solutions","159038","43.390504","-73.441886","300 HALL RD","HARTFORD","NY","12827","1","CAFII AUC"
"Qualifying","Slic Network Solutions","159038","43.245661","-73.354527","76 HEAPHY LN","HEBRON","NY","12865","1","CAFII AUC"
"Qualifying","Slic Network Solutions","159038","42.979480","-73.520690","32 IVES HILL RD","EASTON","NY","12185","1","CAFII AUC"
"Qualifying","Slic Network Solutions","159038","43.286061","-73.376290","165 HALLS POND RD","HEBRON","NY","12865","1","CAFII AUC"
"Qualifying","Slic Network Solutions","159038","44.924007","-73.938549","6750 ROUTE 11","CHURUBUSCO","NY","12923","1","CAFII AUC"
"Qualifying","Slic Network Solutions","159038","44.507635","-74.793125","976 RAQUETTE RIVER RD","COLTON","NY","13687","1","CAFII AUC"
"Qualifying","Slic Network Solutions","159038","44.888334","-74.006564","236 COUNTY LINE RD","CHURUBUSCO","NY","12923","1","CAFII AUC"
"Qualifying","Slic Network Solutions","159038","44.528055","-74.869711","2 SUGAR RD/PRVT","COLTON","NY","13625","1","CAFII AUC"
"Qualifying","Slic Network Solutions","159038","43.089364","-73.309914","30 ROBERSON RD","SHUSHAN","NY","12873","1","CAFII AUC"
"Qualifying","Slic Network Solutions","159038","43.134364","-73.277432","86 BUTCHER LN","SALEM","NY","12873","1","CAFII AUC"
"Qualifying","Slic Network Solutions","159038","44.360056","-73.361248","326    RIVER LN","WILLSBORO","NY","12996","1","CAFII AUC"
"Qualifying","Slic Network Solutions","159038","44.985481","-74.186467","574 TROUT RIVER RD","BURKE","NY","12917","1","CAFII AUC"
"Qualifying","Slic Network Solutions","159038","44.664780","-74.265551","79 KENNY RD","DUANE","NY","12953","1","CAFII AUC"
"Qualifying","Slic Network Solutions","159038","44.539845","-74.731935","51 WATKINS DR/PRVT","COLTON","NY","13672","1","CAFII AUC"
"Qualifying","Slic Network Solutions","159038","44.936415","-73.798641","456 CANAAN RD","MOOERS FORKS","NY","12959","1","CAFII AUC"
"Qualifying","Slic Network Solutions","159038","43.686910","-73.407802","132 BELDEN RD","DRESDEN","NY","12887","1","CAFII AUC"
"Qualifying","Slic Network Solutions","159038","44.564767","-74.859934","305 DONOVAN DR/PRVT","COLTON","NY","13625","1","CAFII AUC"
"Qualifying","Slic Network Solutions","159038","44.829622","-73.738371","703 ALDER BEND RD","ALTONA","NY","12935","1","CAFII AUC"
"Qualifying","Slic Network Solutions","159038","44.689000","-73.751740","49 MOUNTAIN RD","SARANAC","NY","12981","1","CAFII AUC"
"Qualifying","Slic Network Solutions","159038","43.280195","-73.268045","384 HIGGINS RD","GRANVILLE","NY","12832","1","CAFII AUC"
"Qualifying","Slic Network Solutions","159038","43.143981","-73.308165","521 PERRY HILL RD","SALEM","NY","12873","1","CAFII AUC"
"Qualifying","Slic Network Solutions","159038","44.665422","-74.290855","23 HORSESHOE LN","DUANE","NY","12953","1","CAFII AUC"
"Qualifying","Slic Network Solutions","159038","44.632737","-74.453310","26 OLD ROUTE 72 RD","SANTA CLARA","NY","12980","1","CAFII AUC"
"Qualifying","Slic Network Solutions","159038","43.232336","-73.287371","18 CENTER WAY","HEBRON","NY","12865","1","CAFII AUC"
"Qualifying","Slic Network Solutions","159038","43.157525","-73.524880","516 LICK SPRINGS RD","GREENWICH","NY","12834","2","CAFII AUC"
"Qualifying","Slic Network Solutions","159038","43.098928","-73.273508","2002 RT-313","SHUSHAN","NY","12873","1","CAFII AUC"
"Qualifying","Slic Network Solutions","159038","44.920041","-73.947602","646 PATNODE RD","CHURUBUSCO","NY","12923","1","CAFII AUC"
"Qualifying","Slic Network Solutions","159038","43.118249","-73.265165","16 VOURI LN","SALEM","NY","12873","1","CAFII AUC"
"Qualifying","Slic Network Solutions","159038","44.374377","-75.059358","36 DEAN RD","COLTON","NY","13684","1","CAFII AUC"
"Qualifying","Slic Network Solutions","159038","44.858696","-74.140217","183 COUNTY ROUTE 33","BELLMONT","NY","12917","1","CAFII AUC"
"Qualifying","Slic Network Solutions","159038","44.822440","-73.998073","HILL RD","ELLENBURG","NY","12955","1","CAFII AUC"
"Qualifying","Slic Network Solutions","159038","43.296302","-73.375266","8 JAMES RD","HEBRON","NY","12865","1","CAFII AUC"
"Qualifying","Slic Network Solutions","159038","44.134922","-73.571916","4252 RD   LINCOLN POND RD","ELIZABETHTOWN","NY","12932","1","CAFII AUC"
"Qualifying","Slic Network Solutions","159038","44.381327","-73.373187","96    DUGAN WAY","WILLSBORO","NY","12996","1","CAFII AUC"
"Qualifying","Slic Network Solutions","159038","43.004751","-73.481593","902 CR-74","GREENWICH","NY","12834","1","CAFII AUC"
"Qualifying","Slic Network Solutions","159038","43.015700","-73.485910","2133 COUNTY ROUTE 74","EASTON","NY","12834","1","CAFII AUC"
"Qualifying","Slic Network Solutions","159038","43.278878","-73.385556","3964 CR-30","SALEM","NY","12865","1","CAFII AUC"
"Qualifying","Slic Network Solutions","159038","43.330110","-73.284730","1873 COUNTY ROUTE 31","HEBRON","NY","12832","1","CAFII AUC"
"Qualifying","Slic Network Solutions","159038","43.154861","-73.455650","801 SPRAGUETOWN RD","GREENWICH","NY","12834","1","CAFII AUC"
"Qualifying","Slic Network Solutions","159038","44.702932","-73.751066","102 HUGH HERRON RD","SARANAC","NY","12981","1","CAFII AUC"
"Qualifying","Slic Network Solutions","159038","43.798160","-73.388152","1016+1037 COUNTY ROUTE 2","PUTNAM","NY","12861","1","CAFII AUC"
"Qualifying","Slic Network Solutions","159038","43.189621","-73.392005","150 JOHN SEARS RD","SALEM","NY","12865","1","CAFII AUC"
"Qualifying","Slic Network Solutions","159038","43.754840","-73.432105","CHARTER BROOK LN N","PUTNAM","NY","12861","1","CAFII AUC"
"Qualifying","Slic Network Solutions","159038","44.936631","-73.965351","7103 ROUTE 11","CHURUBUSCO","NY","12923","1","CAFII AUC"
"Qualifying","Slic Network Solutions","159038","43.636153","-73.500586","1 SCHOOLHOUSE WAY","DRESDEN","NY","12819","1","CAFII AUC"
"Qualifying","Slic Network Solutions","159038","44.921188","-73.947054","662 PATNODE RD","CHURUBUSCO","NY","12923","1","CAFII AUC"
"Qualifying","Slic Network Solutions","159038","43.102245","-73.294002","78 HICKORY HILL RD","SHUSHAN","NY","12873","1","CAFII AUC"
"Qualifying","Slic Network Solutions","159038","44.923224","-73.795884","258 CANAAN RD","MOOERS FORKS","NY","12959","1","CAFII AUC"
"Qualifying","Slic Network Solutions","159038","44.944970","-74.487338","22 LAHEY RD","FORT COVINGTON","NY","12937","1","CAFII AUC"
"Qualifying","Slic Network Solutions","159038","44.758559","-74.192780","BROWN-BENOIT RD","BELLMONT","NY","12953","1","CAFII AUC"
"Qualifying","Slic Network Solutions","159038","44.897502","-74.408979","329 COUNTY ROUTE 19","WESTVILLE","NY","12966","1","CAFII AUC"
"Qualifying","Slic Network Solutions","159038","43.253021","-73.283668","6420 STATE ROUTE 22","HEBRON","NY","12865","1","CAFII AUC"
"Qualifying","Slic Network Solutions","159038","44.266758","-73.596746","622 RD   MITCHELL HILL RD","LEWIS","NY","12932","1","CAFII AUC"
"Qualifying","Slic Network Solutions","159038","43.349899","-73.319225","465 LIEBIG RD","GRANVILLE","NY","12832","1","CAFII AUC"
"Qualifying","Slic Network Solutions","159038","43.278034","-73.385160","3960 COUNTY ROUTE 30","HEBRON","NY","12865","1","CAFII AUC"
"Qualifying","Slic Network Solutions","159038","43.357817","-73.323549","13 BRIGGS LN","GRANVILLE","NY","12832","1","CAFII AUC"
"Qualifying","Slic Network Solutions","159038","44.732574","-74.162021","113 RAGGED LAKE RD","BELLMONT","NY","12969","1","CAFII AUC"
"Qualifying","Slic Network Solutions","159038","43.323156","-73.319607","1444 COUNTY ROUTE 31","HEBRON","NY","12832","1","CAFII AUC"
"Ineligible","AMG Technology Investment Group LLC","359146","40.684963","-94.811975","2,718 FEET NORTH OF 260TH ST AND GRANITE AVE","BEDFORD","IA","50833","1","CAFII AUC"
"Ineligible","AMG Technology Investment Group LLC","349039","39.906393","-90.551618","401 1900E ST","VERSAILLES","IL","62378","1","CAFII AUC"
"Ineligible","AMG Technology Investment Group LLC","349039","41.270425","-89.439103","21719 850 AVE N","TISKILWA","IL","61368","1","CAFII AUC"
"Qualifying","Slic Network Solutions","159038","43.300367","-73.406334","254 SCOTT HILL RD","HEBRON","NY","12809","1","CAFII AUC"
"Ineligible","AMG Technology Investment Group LLC","359146","42.850162","-95.350291","541 FEET SOUTHWEST OF 30TH AVE AND 460TH ST","PETERSON","IA","51047","1","CAFII AUC"
"Ineligible","AMG Technology Investment Group LLC","349039","42.314806","-90.046448","3558 S MASSBACH RD","STOCKTON","IL","61085","1","CAFII AUC"
"Qualifying","Slic Network Solutions","159038","44.987390","-73.947935","113 FRONTIER RD","CHURUBUSCO","NY","12923","1","CAFII AUC"
"Qualifying","Slic Network Solutions","159038","44.716539","-74.378189","867 WALKERVILLE RD","NORTH BANGOR","NY","12966","1","CAFII AUC"
"Qualifying","Slic Network Solutions","159038","43.682219","-73.413198","16 MANNING RD","DRESDEN","NY","12887","1","CAFII AUC"
"Qualifying","Slic Network Solutions","159038","44.885758","-74.020406","596 NUMBER 5 RD","CHATEAUGAY","NY","12920","1","CAFII AUC"
"Qualifying","Slic Network Solutions","159038","43.381084","-73.449344","34 COUNTRY LN","HARTFORD","NY","12827","1","CAFII AUC"
"Ineligible","AMG Technology Investment Group LLC","349039","40.334330","-91.253824","941 N 1300 EAST RD","SUTTER","IL","62373","1","CAFII AUC"
"Qualifying","Slic Network Solutions","159038","44.490687","-74.719660","284 JOE INDIAN POND RD","COLTON","NY","13672","1","CAFII AUC"
"Qualifying","Slic Network Solutions","159038","44.288455","-73.519981","915    STOWERSVILLE RD","LEWIS","NY","12950","1","CAFII AUC"
"Ineligible","AMG Technology Investment Group LLC","359146","42.517646","-94.764793","1765 190TH ST","POMEROY","IA","50575","1","CAFII AUC"
"Ineligible","AMG Technology Investment Group LLC","349039","41.261928","-90.998677","1369 BURGER BLUFF RD","NEW BOSTON","IL","61272","1","CAFII AUC"
"Qualifying","Slic Network Solutions","159038","44.830488","-73.986188","418 SPEAR HILL RD","ELLENBURG","NY","12955","1","CAFII AUC"
"Qualifying","Slic Network Solutions","159038","44.281227","-73.581035","42 WAY   BIRCH TRAIL WAY","LEWIS","NY","12932","1","CAFII AUC"
"Ineligible","AMG Technology Investment Group LLC","359146","40.869739","-94.374030","1515 120TH ST","DIAGONAL","IA","50845","1","CAFII AUC"
"Ineligible","AMG Technology Investment Group LLC","359146","43.137600","-92.252903","1,717 FEET SOUTHEAST OF 150TH ST AND ODESSA AVE","NEW HAMPTON","IA","50659","1","CAFII AUC"
"Ineligible","AMG Technology Investment Group LLC","359146","41.818722","-94.548907","1,861 FEET WEST OF 130TH ST AND KOPECK AVE","BAYARD","IA","50029","1","CAFII AUC"
"Qualifying","Slic Network Solutions","159038","43.328989","-73.269892","78 WARNER RD","HEBRON","NY","12832","1","CAFII AUC"
"Ineligible","AMG Technology Investment Group LLC","359146","41.753705","-94.562653","572 FEET WEST OF 175TH ST AND JUSTICE RD","GUTHRIE CENTER","IA","50115","1","CAFII AUC"
"Ineligible","AMG Technology Investment Group LLC","439073","36.189810","-98.407836","628 FEET NORTHWEST OF E0570 RD AND N2580 RD","FAIRVIEW","OK","73737","1","CAFII AUC"
"Qualifying","Slic Network Solutions","159038","43.281228","-73.388359","4018 COUNTY ROUTE 30","HEBRON","NY","12865","1","CAFII AUC"
"Qualifying","Slic Network Solutions","159038","43.021273","-73.474510","1244 VLY SUMMIT RD","CAMBRIDGE","NY","12834","1","CAFII AUC"
"Ineligible","AMG Technology Investment Group LLC","439073","36.493080","-97.951576","2,263 FEET WEST OF N GARLAND RD AND ROBERTSON RD","ENID","OK","73703","1","CAFII AUC"
"Ineligible","AMG Technology Investment Group LLC","359146","40.709753","-94.155553","2,074 FEET WEST OF 270TH AVE AND STATE HWY 2","MOUNT AYR","IA","50854","1","CAFII AUC"
"Ineligible","Slic Network Solutions","159038","44.550545","-74.784881","985 PICKETVILLE RD","PARISHVILLE","NY","13672","4","CAFII AUC"
"Qualifying","Slic Network Solutions","159038","44.968208","-74.001671","505 LOST NATION RD","CHURUBUSCO","NY","12923","1","CAFII AUC"
"Qualifying","Slic Network Solutions","159038","44.686931","-74.571144","HEWITT RD","DICKINSON","NY","12980","1","CAFII AUC"
"Ineligible","AMG Technology Investment Group LLC","359146","40.723537","-95.855055","2253 174TH AVE","PERCIVAL","IA","51648","1","CAFII AUC"
"Qualifying","Slic Network Solutions","159038","43.195868","-73.561467","487 COUNTY ROUTE 46","FORT EDWARD","NY","12828","1","CAFII AUC"
"Qualifying","Slic Network Solutions","159038","43.230266","-73.374801","3178 COUNTY ROUTE 30","HEBRON","NY","12865","1","CAFII AUC"
"Ineligible","AMG Technology Investment Group LLC","359146","42.624187","-95.917232","1,936 FEET NORTH OF 300TH ST AND SHAMROCK AVE","KINGSLEY","IA","51028","1","CAFII AUC"
"Qualifying","Slic Network Solutions","159038","44.962751","-74.130573","202 SAM COOK RD","CHATEAUGAY","NY","12920","1","CAFII AUC"
"Qualifying","Slic Network Solutions","159038","43.286072","-73.397938","952 CALLAWAY RD","HEBRON","NY","12809","1","CAFII AUC"
"Ineligible","AMG Technology Investment Group LLC","359146","43.279332","-95.214424","2,283 FEET SOUTHWEST OF 190TH AVE AND 250TH ST","MILFORD","IA","51351","1","CAFII AUC"
"Qualifying","Slic Network Solutions","159038","43.290192","-73.320070","193 BENN RD","HEBRON","NY","12832","1","CAFII AUC"
"Ineligible","AMG Technology Investment Group LLC","359146","40.967878","-95.517820","63471 350TH ST","MALVERN","IA","51551","1","CAFII AUC"
"Qualifying","Slic Network Solutions","159038","44.541296","-74.727248","391 STERLING POND RD","COLTON","NY","13672","1","CAFII AUC"
"Ineligible","AMG Technology Investment Group LLC","349039","41.311954","-90.879052","1667 CR-9","JOY","IL","61260","1","CAFII AUC"
"Qualifying","Slic Network Solutions","159038","44.481443","-74.854991","29 CAYEY RD","COLTON","NY","13687","1","CAFII AUC"
"Ineligible","AMG Technology Investment Group LLC","349039","40.734519","-90.415415","134 KNOX ROAD 150 E","SAINT AUGUSTINE","IL","61474","1","CAFII AUC"
"Ineligible","AMG Technology Investment Group LLC","439073","34.689845","-99.194946","2,266 FEET SOUTH OF E1600 RD AND N2120 RD","HEADRICK","OK","73549","1","CAFII AUC"
"Ineligible","AMG Technology Investment Group LLC","439073","34.298744","-95.774230","3,929 FEET NORTHWEST OF DOSHIER RD AND SORRELS RD","ANTLERS","OK","74523","1","CAFII AUC"
"Qualifying","Slic Network Solutions","159038","43.212875","-73.374193","1049/1055/ COUNTY ROUTE 30","SALEM","NY","12865","1","CAFII AUC"
"Ineligible","AMG Technology Investment Group LLC","359146","41.205893","-93.594376","3,840 FEET SOUTH OF TAFT ST AND US HWY 69","INDIANOLA","IA","50125","1","CAFII AUC"
"Qualifying","Slic Network Solutions","159038","44.703647","-74.437729","88 DALE RD","NORTH BANGOR","NY","12966","1","CAFII AUC"
"Ineligible","AMG Technology Investment Group LLC","349039","41.064754","-89.850324","6998 615 N","TOULON","IL","61483","1","CAFII AUC"
"Ineligible","AMG Technology Investment Group LLC","359146","41.389931","-92.308240","2,615 FEET SOUTHEAST OF 150TH AVE AND 180TH ST","WHAT CHEER","IA","50268","1","CAFII AUC"
"Ineligible","AMG Technology Investment Group LLC","439073","36.274896","-96.925229","233 FEET SOUTH OF INDEPENDENCE AND STATE HWY 108","GLENCOE","OK","74032","1","CAFII AUC"
"Qualifying","Slic Network Solutions","159038","44.608347","-74.492977","45 DEXTER RD","SAINT REGIS FALLS","NY","12980","1","CAFII AUC"
"Qualifying","Slic Network Solutions","159038","43.695472","-73.399371","335 BELDEN RD","DRESDEN","NY","12887","1","CAFII AUC"
"Qualifying","Slic Network Solutions","159038","44.767949","-74.190591","CHILDS RD  E","BELLMONT","NY","12953","1","CAFII AUC"
"Ineligible","AMG Technology Investment Group LLC","359146","43.256447","-91.674081","3,449 FEET SOUTHEAST OF 225TH ST AND NORSKE RD","DECORAH","IA","52101","1","CAFII AUC"
"Ineligible","AMG Technology Investment Group LLC","359146","42.457475","-93.662534","3,438 FEET WEST OF 230TH ST AND QUEENS AVE","BLAIRSBURG","IA","50034","1","CAFII AUC"
"Qualifying","Slic Network Solutions","159038","44.821649","-74.911530","100 VAN KENNEN RD","NORFOLK","NY","13667","1","CAFII AUC"
"Qualifying","Slic Network Solutions","159038","43.343029","-73.315190","75 HEBRON MOORS WAY","HEBRON","NY","12832","1","CAFII AUC"
"Qualifying","Slic Network Solutions","159038","44.979239","-74.045702","93 EARLVILLE RD","CHATEAUGAY","NY","12920","1","CAFII AUC"
"Qualifying","Slic Network Solutions","159038","43.310163","-73.294606","50 POTTER LN","HEBRON","NY","12832","1","CAFII AUC"
"Ineligible","AMG Technology Investment Group LLC","349039","39.922885","-90.937612","1144 E 2975TH ST","CLAYTON","IL","62324","1","CAFII AUC"
"Qualifying","Slic Network Solutions","159038","44.835031","-73.959749","687 SPEAR HILL RD","ELLENBURG","NY","12955","1","CAFII AUC"
"Qualifying","Slic Network Solutions","159038","44.297601","-73.608725","133    SEVENTY LN","LEWIS","NY","12950","1","CAFII AUC"
"Ineligible","AMG Technology Investment Group LLC","359146","42.755610","-91.549849","1,280 FEET SOUTHEAST OF BIXBY AVE AND SAINT SEBALD RD","STRAWBERRY POINT","IA","52076","1","CAFII AUC"
"Qualifying","Slic Network Solutions","159038","42.947823","-73.529190","538 COLONEL BURCH RD","EASTON","NY","12185","1","CAFII AUC"
"Qualifying","Slic Network Solutions","159038","44.959981","-74.113330","935 COUNTY ROUTE 35","CHATEAUGAY","NY","12920","1","CAFII AUC"
"Ineligible","AMG Technology Investment Group LLC","359146","42.581920","-95.032099","2,967 FEET SOUTH OF 190TH AVE AND 640TH ST","NEWELL","IA","50568","1","CAFII AUC"
"Qualifying","Slic Network Solutions","159038","43.396671","-73.439215","1624 BALDWIN CORNERS RD","HARTFORD","NY","12827","1","CAFII AUC"
"Ineligible","AMG Technology Investment Group LLC","359146","43.024839","-94.437489","1,433 FEET EAST OF 180TH ST AND 580TH AVE","WHITTEMORE","IA","50598","1","CAFII AUC"
"Ineligible","AMG Technology Investment Group LLC","439073","35.301332","-98.286093","1,658 FEET SOUTHEAST OF CO RD 1180 AND COUNTY STREET 2640","BINGER","OK","73009","1","CAFII AUC"
"Ineligible","AMG Technology Investment Group LLC","439073","34.621878","-96.081645","3,600 FEET NORTHEAST OF N3890 RD AND STATE HWY 131","WARDVILLE","OK","74576","1","CAFII AUC"
"Qualifying","Slic Network Solutions","159038","44.667915","-74.291299","60 HORSESHOE LN","DUANE","NY","12953","1","CAFII AUC"
"Ineligible","AMG Technology Investment Group LLC","439073","36.230500","-98.471056","1,756 FEET EAST OF E0540 RD AND STATE HWY 58","FAIRVIEW","OK","73737","1","CAFII AUC"
"Ineligible","AMG Technology Investment Group LLC","349039","42.171400","-90.037160","16964 POLSGROVE RD","MOUNT CARROLL","IL","61053","1","CAFII AUC"
"Qualifying","Slic Network Solutions","159038","44.906067","-73.990737","617 RYAN RD","CHURUBUSCO","NY","12923","1","CAFII AUC"
"Qualifying","Slic Network Solutions","159038","43.749235","-73.415475","309 PETERSON RD","PUTNAM STATION","NY","12861","1","CAFII AUC"
"Ineligible","AMG Technology Investment Group LLC","349039","40.751515","-89.870855","5084 N TEXAS RD","ELMWOOD","IL","61529","1","CAFII AUC"
"Qualifying","Slic Network Solutions","159038","44.885392","-74.025998","650 NUMBER 5 RD","CHATEAUGAY","NY","12920","1","CAFII AUC"
"Qualifying","Slic Network Solutions","159038","44.306053","-73.395954","2289 NYS ROUTE 22","ESSEX","NY","12936","1","CAFII AUC"
"Ineligible","AMG Technology Investment Group LLC","359146","42.379181","-91.325255","3,044 FEET SOUTHEAST OF 235TH AVE AND OMEGA RD","DELHI","IA","52223","1","CAFII AUC"
"Qualifying","Slic Network Solutions","159038","44.296056","-73.606747","19    BROOKSIDE WAY","LEWIS","NY","12950","1","CAFII AUC"
"Qualifying","Slic Network Solutions","159038","44.954008","-73.929609","1323 CLINTON MILLS RD","CHURUBUSCO","NY","12923","1","CAFII AUC"
"Ineligible","AMG Technology Investment Group LLC","359146","43.237417","-91.710092","3,980 FEET NORTH OF 200TH ST AND CENTENNIAL RD","DECORAH","IA","52101","1","CAFII AUC"
"Ineligible","AMG Technology Investment Group LLC","439073","35.547671","-98.017574","6,207 FEET NORTHEAST OF HWY 66 W AND SUNSET DR","EL RENO","OK","73036","1","CAFII AUC"
"Ineligible","AMG Technology Investment Group LLC","359146","41.374800","-92.216963","3,217 FEET NORTH OF 198TH ST AND 200TH AVE","SIGOURNEY","IA","52591","1","CAFII AUC"
"Qualifying","Slic Network Solutions","159038","43.502254","-73.275587","192 SOUTH RD","HAMPTON","NY","12887","1","CAFII AUC"
"Qualifying","Slic Network Solutions","159038","43.355464","-73.318563","22 HALTERMAN RD","GRANVILLE","NY","12832","1","CAFII AUC"
"Ineligible","AMG Technology Investment Group LLC","439073","34.887298","-98.729488","1,487 FEET NORTHWEST OF E1470 RD AND N2390 RD","MOUNTAIN VIEW","OK","73062","1","CAFII AUC"
"Qualifying","Slic Network Solutions","159038","43.235569","-73.393480","100 BARKLEY LN","HEBRON","NY","12865","1","CAFII AUC"
"Ineligible","AMG Technology Investment Group LLC","359146","41.994037","-95.701996","2,350 FEET EAST OF 250TH ST AND TEAK AVE","UTE","IA","51060","1","CAFII AUC"
"Qualifying","Slic Network Solutions","159038","44.542254","-74.726274","15 GOLDSMITH DR/PRVT","COLTON","NY","13672","1","CAFII AUC"
"Ineligible","AMG Technology Investment Group LLC","359146","43.410693","-91.792928","822 FEET WEST OF 325TH ST AND FOX HOLLOW RD","DECORAH","IA","52101","1","CAFII AUC"
"Qualifying","Slic Network Solutions","159038","42.968845","-73.539729","152 + 211 HOAG RD","EASTON","NY","12185","1","CAFII AUC"
"Qualifying","Slic Network Solutions","159038","43.378766","-73.411015","304 WRIGHT RD","HARTFORD","NY","12827","1","CAFII AUC"
"Qualifying","Slic Network Solutions","159038","44.486306","-74.732349","46,47 PINE POINT DR/PRVT","COLTON","NY","13672","1","CAFII AUC"
"Qualifying","Slic Network Solutions","159038","44.670437","-74.274968","110 EAGLE POND RD","DUANE","NY","12953","1","CAFII AUC"
"Ineligible","AMG Technology Investment Group LLC","359146","42.972534","-92.257392","2,585 FEET SOUTH OF 260TH ST AND ODESSA AVE","FREDERICKSBURG","IA","50630","1","CAFII AUC"
"Ineligible","AMG Technology Investment Group LLC","439073","36.190735","-98.584486","1,124 FEET NORTH OF E0570 RD AND N2480 RD","FAIRVIEW","OK","73737","1","CAFII AUC"
"Qualifying","Slic Network Solutions","159038","44.975421","-74.054796","101 GRAHAM RD","CHATEAUGAY","NY","12920","1","CAFII AUC"
"Ineligible","AMG Technology Investment Group LLC","439073","35.128060","-98.458587","1,414 FEET SOUTH OF CO RD 1300 AND COUNTY STREET 2540","FORT COBB","OK","73038","1","CAFII AUC"
"Ineligible","AMG Technology Investment Group LLC","359146","43.065751","-94.330391","1,619 FEET WEST OF 210TH ST AND 70TH AVE","WHITTEMORE","IA","50598","1","CAFII AUC"
"Ineligible","AMG Technology Investment Group LLC","359146","41.470537","-91.551249","1,032 FEET NORTH OF 130TH ST AND US HWY 218","RIVERSIDE","IA","52327","1","CAFII AUC"
"Qualifying","Slic Network Solutions","159038","44.326548","-73.480627","330    REBER RD","WILLSBORO","NY","12996","1","CAFII AUC"
"Ineligible","AMG Technology Investment Group LLC","349039","40.280203","-91.295271","557 CR-1100E","WARSAW","IL","62379","1","CAFII AUC"
"Ineligible","AMG Technology Investment Group LLC","439073","34.162096","-95.619214","2,184 FEET NORTHEAST OF E 1970 RD AND OLD HWY RD","ANTLERS","OK","74523","1","CAFII AUC"
"Ineligible","Point Broadband Fiber Holding, LLC","319050","43.986562","-85.102213","918 IVY LN","EVART","MI","49631","1","CAFII AUC"
"Qualifying","Slic Network Solutions","159038","44.627408","-74.474062","2720 STATE ROUTE 458","WAVERLY","NY","12980","1","CAFII AUC"
"Qualifying","Slic Network Solutions","159038","44.947242","-74.205467","436 SPENCER RD","BURKE","NY","12917","1","CAFII AUC"
"Qualifying","Slic Network Solutions","159038","43.013396","-73.482788","1083 VLY SUMMIT RD","CAMBRIDGE","NY","12816","1","CAFII AUC"
"Qualifying","Slic Network Solutions","159038","43.619850","-73.304645","1396 CARVERS FALLS LN","HAMPTON","NY","12887","1","CAFII AUC"
"Ineligible","AMG Technology Investment Group LLC","349039","39.822307","-91.009888","2606 HWY 104","LIBERTY","IL","62347","1","CAFII AUC"
"Qualifying","Slic Network Solutions","159038","44.976350","-74.150818","809 EAST RD","BURKE","NY","12917","1","CAFII AUC"
"Ineligible","AMG Technology Investment Group LLC","349039","42.483872","-90.219978","7657 N CARR RD","SCALES MOUND","IL","61075","1","CAFII AUC"
"Qualifying","Slic Network Solutions","159038","43.361600","-73.466954","3776 STATE ROUTE 149","HARTFORD","NY","12827","1","CAFII AUC"
"Qualifying","Slic Network Solutions","159038","43.281346","-73.262411","249 HIGGINS RD","HEBRON","NY","12832","1","CAFII AUC"
"Qualifying","Slic Network Solutions","159038","44.512532","-74.733092","1388 WHITE HILL RD","COLTON","NY","13672","1","CAFII AUC"
"Ineligible","AMG Technology Investment Group LLC","439073","34.157073","-95.620863","502 FEET EAST OF E 1970 RD AND OLD HWY RD","ANTLERS","OK","74523","1","CAFII AUC"
"Qualifying","Slic Network Solutions","159038","43.394413","-73.454791","1443 BALDWIN CORNERS RD","HARTFORD","NY","12827","1","CAFII AUC"
"Qualifying","Slic Network Solutions","159038","43.102434","-73.295923","54 HICKORY HILL RD","SALEM","NY","12873","1","CAFII AUC"
"Ineligible","AMG Technology Investment Group LLC","359146","42.937421","-93.570452","2130 120TH ST","GOODELL","IA","50439","1","CAFII AUC"
"Ineligible","AMG Technology Investment Group LLC","439073","34.825819","-98.907489","2,115 FEET EAST OF E1510 RD AND N2280 RD","ROOSEVELT","OK","73564","1","CAFII AUC"
"Ineligible","AMG Technology Investment Group LLC","349039","40.930884","-89.678158","19943 N HOLMES RD","EDELSTEIN","IL","61526","1","CAFII AUC"
"Qualifying","Slic Network Solutions","159038","44.609889","-74.793048","3229 WHITE HILL RD","COLTON","NY","13672","1","CAFII AUC"
"Ineligible","AMG Technology Investment Group LLC","439073","34.082682","-97.990510","2,808 FEET WEST OF CHOCTAW AVE AND MC CABE ST","RYAN","OK","73565","1","CAFII AUC"
"Qualifying","Slic Network Solutions","159038","43.175706","-73.570339","178 COUNTY ROUTE 46","FORT EDWARD","NY","12828","1","CAFII AUC"
"Ineligible","AMG Technology Investment Group LLC","349039","41.760551","-90.130715","12159 SAND RD","FULTON","IL","61252","1","CAFII AUC"
"Ineligible","Point Broadband Fiber Holding, LLC","319050","44.105641","-85.522759","21969 W MARION RD","TUSTIN","MI","49688","1","CAFII AUC"
"Qualifying","Slic Network Solutions","159038","44.912911","-73.924354","6523 ROUTE 11","CHURUBUSCO","NY","12923","1","CAFII AUC"
"Qualifying","Slic Network Solutions","159038","44.732273","-73.670411","347 BART MERRILL RD","DANNEMORA","NY","12918","1","CAFII AUC"
"Qualifying","Slic Network Solutions","159038","44.306203","-73.454974","1707    JERSEY ST","ESSEX","NY","12936","1","CAFII AUC"
"Qualifying","Slic Network Solutions","159038","44.862469","-74.154055","172 COUNTY ROUTE 36","BURKE","NY","12917","1","CAFII AUC"
"Ineligible","AMG Technology Investment Group LLC","359146","42.775471","-94.575279","1,385 FEET EAST OF 270TH AVE AND 490TH ST","POCAHONTAS","IA","50574","1","CAFII AUC"
"Ineligible","AMG Technology Investment Group LLC","359146","41.753519","-91.191652","1325 JACKSON AVE","TIPTON","IA","52772","1","CAFII AUC"
"Qualifying","Slic Network Solutions","159038","44.664695","-74.284189","3108 COUNTY ROUTE 14","DUANE","NY","12953","1","CAFII AUC"
"Qualifying","Slic Network Solutions","159038","43.306659","-73.357099","24 OLD CASTLE GREEN LN","HEBRON","NY","12832","1","CAFII AUC"
"Ineligible","AMG Technology Investment Group LLC","349039","40.422967","-90.059685","15992 N SHELBY RD","LEWISTOWN","IL","61542","1","CAFII AUC"
"Qualifying","Slic Network Solutions","159038","43.387750","-73.367916","8552 STATE ROUTE 40","HARTFORD","NY","12832","1","CAFII AUC"
"Qualifying","Slic Network Solutions","159038","43.774099","-73.405530","95 CUMMINGS RD","PUTNAM","NY","12861","1","CAFII AUC"
"Ineligible","AMG Technology Investment Group LLC","359146","40.932770","-94.584508","3,676 FEET SOUTH OF 250TH ST AND REDWOOD AVE","LENOX","IA","50851","1","CAFII AUC"
"Ineligible","AMG Technology Investment Group LLC","359146","43.179486","-92.395272","1,669 FEET SOUTH OF 120TH ST AND HICKORY AVE","ALTA VISTA","IA","50603","1","CAFII AUC"
"Qualifying","Slic Network Solutions","159038","44.917464","-73.968357","426 CAMPBELL RD","CHURUBUSCO","NY","12923","1","CAFII AUC"
"Qualifying","Slic Network Solutions","159038","43.622950","-73.304519","1440 CARVERS FALLS LN","HAMPTON","NY","12887","1","CAFII AUC"
"Ineligible","AMG Technology Investment Group LLC","439073","36.467310","-99.381415","2,290 FEET EAST OF GRASS VALLEY ACRES ST AND STATE HWY 34","WOODWARD","OK","73801","1","CAFII AUC"
"Qualifying","Slic Network Solutions","159038","43.314112","-73.341879","236 LITTLE BURCH HILL RD","HEBRON","NY","12832","1","CAFII AUC"
"Ineligible","AMG Technology Investment Group LLC","349039","42.018767","-89.951837","5829 DAGGERT RD","MOUNT CARROLL","IL","61053","1","CAFII AUC"
"Qualifying","Slic Network Solutions","159038","44.663626","-74.300259","2918 CR-14","MALONE","NY","12953","1","CAFII AUC"
"Qualifying","Slic Network Solutions","159038","44.988346","-73.959924","214 FRONTIER RD","CHURUBUSCO","NY","12923","1","CAFII AUC"
"Qualifying","Slic Network Solutions","159038","43.245078","-73.286804","44 KOSTER WAY","SALEM","NY","12865","1","CAFII AUC"
"Ineligible","AMG Technology Investment Group LLC","359146","41.849805","-95.486161","432 STREET F16","DUNLAP","IA","51529","1","CAFII AUC"
"Ineligible","Point Broadband Fiber Holding, LLC","319050","43.809467","-85.630635","14100 N DOGWOOD AVE","REED CITY","MI","49677","1","CAFII AUC"
"Qualifying","Slic Network Solutions","159038","44.511544","-74.812168","1200 RAQUETTE RIVER RD","HOPKINTON","NY","13687","1","CAFII AUC"
"Ineligible","AMG Technology Investment Group LLC","439073","36.193086","-97.886726","1,016 FEET SOUTH OF MAIN ST AND US HWY 81","BISON","OK","73720","1","CAFII AUC"
"Ineligible","AMG Technology Investment Group LLC","359146","43.347203","-91.777058","2,958 FEET NORTH OF BALLROOM RD AND LOCUST RD","DECORAH","IA","52101","1","CAFII AUC"
"Qualifying","Slic Network Solutions","159038","44.765836","-73.781595","37 VARIN RD","DANNEMORA","NY","12935","1","CAFII AUC"
"Ineligible","AMG Technology Investment Group LLC","359146","41.563224","-95.479549","307 FEET SOUTH OF 500TH ST AND ELMWOOD RD","SHELBY","IA","51570","1","CAFII AUC"
"Qualifying","Slic Network Solutions","159038","43.003097","-73.484706","217 BROWNELL RD","CAMBRIDGE","NY","12816","1","CAFII AUC"
"Ineligible","AMG Technology Investment Group LLC","359146","43.234490","-91.714568","2,839 FEET NORTH OF 200TH ST AND CENTENNIAL RD","DECORAH","IA","52101","1","CAFII AUC"
"Qualifying","Slic Network Solutions","159038","43.209614","-73.402836","536 BUNKER HILL RD","ARGYLE","NY","12865","1","CAFII AUC"
"Ineligible","AMG Technology Investment Group LLC","349039","42.485224","-90.442079","7782 IL-84","GALENA","IL","61036","1","CAFII AUC"
"Ineligible","AMG Technology Investment Group LLC","439073","34.447597","-97.876854","4,852 FEET WEST OF N2880 RD AND STATE HWY 7","DUNCAN","OK","73533","1","CAFII AUC"
"Ineligible","AMG Technology Investment Group LLC","359146","41.243690","-92.938885","3,182 FEET WEST OF 220TH AVE AND REAGAN ST","BUSSEY","IA","50044","1","CAFII AUC"
"Ineligible","AMG Technology Investment Group LLC","359146","43.147770","-91.603683","399 FEET NORTHEAST OF BLUEBERRY RD AND MAPLE VALLEY RD","POSTVILLE","IA","52162","1","CAFII AUC"
"Qualifying","Slic Network Solutions","159038","43.202781","-73.538899","233 WILLIAMS RD","FORT EDWARD","NY","12828","1","CAFII AUC"
"Qualifying","Slic Network Solutions","159038","43.549219","-73.461461","153 SOUTH BAY RD","DRESDEN","NY","12819","1","CAFII AUC"
"Ineligible","AMG Technology Investment Group LLC","349039","41.063252","-90.511437","3019 1ST AVE","ALEXIS","IL","61412","1","CAFII AUC"
"Ineligible","AMG Technology Investment Group LLC","359146","41.352430","-94.146398","2,461 FEET SOUTH OF 200TH ST AND FAWN AVE","WINTERSET","IA","50273","1","CAFII AUC"
"Qualifying","Slic Network Solutions","159038","44.941796","-73.930200","370 ROUTE 189","CHURUBUSCO","NY","12923","1","CAFII AUC"
"Qualifying","Slic Network Solutions","159038","43.480183","-73.259131","902 STATE ROUTE 22A","GRANVILLE","NY","12837","1","CAFII AUC"
"Ineligible","AMG Technology Investment Group LLC","359146","41.682023","-95.519244","2,613 FEET SOUTH OF 1300TH ST AND CEDAR RD","PORTSMOUTH","IA","51565","1","CAFII AUC"
"Qualifying","Slic Network Solutions","159038","44.962657","-74.186539","641 CALLAHAN RD","BURKE","NY","12917","1","CAFII AUC"
"Qualifying","Slic Network Solutions","159038","43.743090","-73.401362","16793 STATE ROUTE 22","PUTNAM","NY","12861","1","CAFII AUC"
"Qualifying","Slic Network Solutions","159038","43.291447","-73.277682","7008 STATE ROUTE 22","HEBRON","NY","12832","1","CAFII AUC"
"Qualifying","Slic Network Solutions","159038","43.355840","-73.317045","849 LIEBIG RD","GRANVILLE","NY","12832","1","CAFII AUC"
"Ineligible","AMG Technology Investment Group LLC","349039","40.645647","-89.849891","16018 W RIEKENA RD","GLASFORD","IL","61533","1","CAFII AUC"
"Ineligible","AMG Technology Investment Group LLC","349039","41.848143","-90.111956","18321 FROG POND RD","FULTON","IL","61252","1","CAFII AUC"
"Qualifying","Slic Network Solutions","159038","43.730696","-73.412983","28 BEST RD","PUTNAM STATION","NY","12861","1","CAFII AUC"
"Qualifying","Slic Network Solutions","159038","42.988265","-73.485470","373 CENTER CAMBRIDGE RD","JOHNSONVILLE","NY","12094","1","CAFII AUC"
"Ineligible","AMG Technology Investment Group LLC","359146","42.163727","-91.394501","2,651 FEET EAST OF BUFFALO RIDGE RD AND FINN RD","ANAMOSA","IA","52205","1","CAFII AUC"
"Qualifying","Slic Network Solutions","159038","43.106684","-73.285636","58 HART HILL LN","SALEM","NY","12873","1","CAFII AUC"
"Qualifying","Slic Network Solutions","159038","42.979074","-73.521174","39 IVES HILL RD","EASTON","NY","12185","1","CAFII AUC"
"Qualifying","Slic Network Solutions","159038","44.544729","-74.725137","419 STERLING POND RD","COLTON","NY","13672","1","CAFII AUC"
"Qualifying","Slic Network Solutions","159038","44.935056","-74.435163","351 MCQUEEN RD","FORT COVINGTON","NY","12937","1","CAFII AUC"
"Qualifying","Slic Network Solutions","159038","43.189488","-73.520384","1216 MOORE RD","ARGYLE","NY","12834","1","CAFII AUC"
"Qualifying","Slic Network Solutions","159038","44.839734","-73.890171","8 SEYMOUR RD","ELLENBURG","NY","12934","1","CAFII AUC"
"Ineligible","AMG Technology Investment Group LLC","359146","42.771357","-94.562093","49353 280TH AVE","ROLFE","IA","50581","1","CAFII AUC"
"Qualifying","Slic Network Solutions","159038","43.276127","-73.281291","118 INDIAN HEAD WAY","HEBRON","NY","12865","1","CAFII AUC"
"Ineligible","AMG Technology Investment Group LLC","349039","41.181961","-90.762632","780 170TH ST","ALEDO","IL","61231","1","CAFII AUC"
"Qualifying","Slic Network Solutions","159038","43.314820","-73.354975","1198 BURCH RD","GRANVILLE","NY","12832","1","CAFII AUC"
"Qualifying","Slic Network Solutions","159038","43.694803","-73.401354","326 BELDEN RD","DRESDEN","NY","12887","1","CAFII AUC"
"Qualifying","Slic Network Solutions","159038","44.285029","-73.589925","112 GOFF RD","ELIZABETHTOWN","NY","12932","1","CAFII AUC"
"Ineligible","AMG Technology Investment Group LLC","349039","41.079346","-90.900133","65 100TH ST","KEITHSBURG","IL","61442","1","CAFII AUC"
"Qualifying","Slic Network Solutions","159038","44.276724","-73.579886","49    CLARK LN","LEWIS","NY","12932","1","CAFII AUC"
"Ineligible","AMG Technology Investment Group LLC","439073","36.303531","-98.578979","2,889 FEET WEST OF E0490 RD AND N2490 RD","FAIRVIEW","OK","73737","1","CAFII AUC"
"Qualifying","Slic Network Solutions","159038","44.751230","-73.752697","1867 ROUTE 374","ELLENBURG DEPOT","NY","12935","1","CAFII AUC"
"Qualifying","Slic Network Solutions","159038","44.658960","-74.264407","192 COUNTY ROUTE 26","DUANE","NY","12953","1","CAFII AUC"
"Ineligible","AMG Technology Investment Group LLC","359146","43.143381","-91.457997","3,080 FEET SOUTHWEST OF FOREST MILLS RD AND SMITHFIELD DR","POSTVILLE","IA","52162","1","CAFII AUC"
"Qualifying","Slic Network Solutions","159038","43.004029","-73.481536","938 COUNTY ROUTE 74","CAMBRIDGE","NY","12834","1","CAFII AUC"
"Qualifying","Slic Network Solutions","159038","43.163538","-73.503274","4022 STATE ROUTE 40","ARGYLE","NY","12809","2","CAFII AUC"
"Ineligible","AMG Technology Investment Group LLC","349039","40.816172","-90.331686","577 CR-5","ABINGDON","IL","61410","1","CAFII AUC"
"Qualifying","Slic Network Solutions","159038","43.257274","-73.270466","24 OAK HILL RD","HEBRON","NY","12832","1","CAFII AUC"
"Ineligible","AMG Technology Investment Group LLC","359146","43.146897","-91.572021","545 FRANKVILLE RD","POSTVILLE","IA","52162","1","CAFII AUC"
"Qualifying","Slic Network Solutions","159038","43.575098","-73.311713","11909 STATE ROUTE 4","HAMPTON","NY","12887","2","CAFII AUC"
"Ineligible","AMG Technology Investment Group LLC","359146","41.360494","-92.160435","2,030 FEET SOUTH OF 200TH ST AND 230TH AVE","HARPER","IA","52231","1","CAFII AUC"
"Qualifying","Slic Network Solutions","159038","44.976943","-74.128536","250 SIMMS RD","CHATEAUGAY","NY","12920","1","CAFII AUC"
"Qualifying","Slic Network Solutions","159038","43.280828","-73.345768","44 WEBBER LN","HEBRON","NY","12865","1","CAFII AUC"
"Ineligible","AMG Technology Investment Group LLC","349039","40.747146","-90.733970","281 80TH AVE","ROSEVILLE","IL","61473","1","CAFII AUC"
"Qualifying","Slic Network Solutions","159038","44.732037","-74.519251","448 CEMETERY ST","DICKINSON CENTER","NY","12930","1","CAFII AUC"
"Ineligible","AMG Technology Investment Group LLC","359146","42.657161","-91.586242","569 FEET SOUTH OF 390TH ST AND APRIL AVE","STRAWBERRY POINT","IA","52076","1","CAFII AUC"
"Ineligible","AMG Technology Investment Group LLC","359146","41.352665","-91.947488","283 FEET NORTHWEST OF 210TH ST AND KEOKUK WASHINGTON RD","KEOTA","IA","52248","1","CAFII AUC"
"Ineligible","AMG Technology Investment Group LLC","349039","42.211127","-90.259165","10646 IL-84","HANOVER","IL","61041","1","CAFII AUC"
"Qualifying","Slic Network Solutions","159038","44.487729","-74.879343","338 FRENCH POND RD","SOUTH COLTON","NY","13687","1","CAFII AUC"
"Qualifying","Slic Network Solutions","159038","43.236878","-73.355313","305 CHAMBERLIN MILLS RD","HEBRON","NY","12865","1","CAFII AUC"
"Ineligible","AMG Technology Investment Group LLC","349039","41.213298","-89.677868","2,442 FEET NORTH OF 1600 E AND STATE RTE 40","BRADFORD","IL","61421","1","CAFII AUC"
"Ineligible","AMG Technology Investment Group LLC","359146","42.574095","-90.815431","400 FEET SOUTH OF CARMEN OAKS DR AND US HWY 52","DURANGO","IA","52039","1","CAFII AUC"
"Ineligible","AMG Technology Investment Group LLC","439073","34.285430","-95.530197","1,552 FEET NORTHEAST OF CO RD 1885 AND CO RD 4210","RATTAN","OK","74562","1","CAFII AUC"
"Ineligible","AMG Technology Investment Group LLC","349039","40.894078","-90.801014","1,563 FEET EAST OF CO HWY 1 AND TWP RD 1800N","BIGGSVILLE","IL","61418","1","CAFII AUC"
"Qualifying","Slic Network Solutions","159038","43.236147","-73.329531","1109 BOGTOWN RD","SALEM","NY","12865","1","CAFII AUC"
"Ineligible","AMG Technology Investment Group LLC","439073","36.591877","-99.390726","1,235 FEET SOUTHWEST OF E0290 RD AND STATE HWY 34","FORT SUPPLY","OK","73841","1","CAFII AUC"
"Qualifying","Slic Network Solutions","159038","43.012637","-73.457097","253 TINGUE RD","CAMBRIDGE","NY","12816","1","CAFII AUC"
"Qualifying","Slic Network Solutions","159038","44.640779","-74.267958","171 OLD MEACHAM RD","MALONE","NY","12953","1","CAFII AUC"
"Ineligible","Point Broadband Fiber Holding, LLC","319050","43.897682","-85.188079","4919 PRATT ST","SEARS","MI","49679","1","CAFII AUC"
"Qualifying","Slic Network Solutions","159038","43.189379","-73.283073","221 BEATTIE HOLLOW RD","SALEM","NY","12865","1","CAFII AUC"
"Ineligible","AMG Technology Investment Group LLC","349039","40.019643","-89.996603","10335 CASS COUNTY LINE ST","ASHLAND","IL","62612","1","CAFII AUC"
"Ineligible","AMG Technology Investment Group LLC","359146","42.722967","-94.872561","1,557 FEET NORTH OF 120TH AVE AND 530TH ST","ALBERT CITY","IA","50510","1","CAFII AUC"
"Qualifying","Slic Network Solutions","159038","44.733691","-74.164146","91 RAGGED LAKE RD","BELLMONT","NY","12969","1","CAFII AUC"
"Ineligible","AMG Technology Investment Group LLC","359146","41.953715","-94.783649","3,694 FEET SOUTHEAST OF 272ND ST AND PEEBLE AVE","CARROLL","IA","51401","1","CAFII AUC"
"Qualifying","Slic Network Solutions","159038","43.582063","-73.312543","94 CHAPMAN RD","WHITEHALL","NY","12887","1","CAFII AUC"
"Qualifying","Slic Network Solutions","159038","43.754960","-73.430292","434 LIDDLE-HARRIS RD","PUTNAM","NY","12861","1","CAFII AUC"
"Ineligible","AMG Technology Investment Group LLC","439073","36.496294","-97.405513","1,796 FEET NORTHEAST OF E0360 RD AND N3140 RD","BILLINGS","OK","74630","1","CAFII AUC"
"Qualifying","Slic Network Solutions","159038","44.976411","-74.045088","51 EARLVILLE RD","CHATEAUGAY","NY","12920","1","CAFII AUC"
"Qualifying","Slic Network Solutions","159038","43.210233","-73.364518","380 PRIEST RD","SALEM","NY","12865","1","CAFII AUC"
"Ineligible","AMG Technology Investment Group LLC","359146","43.245283","-92.161680","1,185 FEET NORTH OF 190TH ST AND UNITY AVE","CRESCO","IA","52136","1","CAFII AUC"
"Qualifying","Slic Network Solutions","159038","43.720111","-73.416155","74 LAKE RD","PUTNAM","NY","10541","1","CAFII AUC"
"Qualifying","Slic Network Solutions","159038","44.495924","-74.774439","321 BLAKE FALLS DAM RD","SOUTH COLTON","NY","13687","1","CAFII AUC"
"Ineligible","Point Broadband Fiber Holding, LLC","319050","44.230235","-85.301246","10350 MULDER RD","MCBAIN","MI","49657","1","CAFII AUC"
"Qualifying","Slic Network Solutions","159038","43.163837","-73.577510","1116 US-4","FORT EDWARD","NY","12828","1","CAFII AUC"
"Qualifying","Slic Network Solutions","159038","43.386217","-73.436098","299 + 322 COUNTY ROUTE 17","HARTFORD","NY","12827","1","CAFII AUC"
"Qualifying","Slic Network Solutions","159038","43.087692","-73.450054","43 DUELLES LN","JACKSON","NY","12834","1","CAFII AUC"
"Qualifying","Slic Network Solutions","159038","43.406303","-73.372721","8850 STATE ROUTE 40","HARTFORD","NY","12827","1","CAFII AUC"
"Ineligible","AMG Technology Investment Group LLC","349039","41.377434","-90.372681","3326 N 1550TH AVE","ORION","IL","61273","1","CAFII AUC"
"Ineligible","AMG Technology Investment Group LLC","439073","36.466692","-99.482282","1,723 FEET NORTHWEST OF E0380 RD AND N1980 RD","WOODWARD","OK","73801","1","CAFII AUC"
"Qualifying","Slic Network Solutions","159038","44.744964","-73.672015","677-799 GEN LEROY MANOR","DANNEMORA","NY","12918","1","CAFII AUC"
"Ineligible","AMG Technology Investment Group LLC","359146","42.836969","-93.579572","4,154 FEET NORTH OF BELMOND RD AND UNION AVE","BELMOND","IA","50421","1","CAFII AUC"
"Ineligible","AMG Technology Investment Group LLC","359146","41.789889","-94.686352","444 FEET SOUTH OF 150TH ST AND DOGWOOD AVE","COON RAPIDS","IA","50058","1","CAFII AUC"
"Qualifying","Slic Network Solutions","159038","44.961253","-73.861364","600 CLINTON MILLS RD","CHURUBUSCO","NY","12923","1","CAFII AUC"
"Qualifying","Slic Network Solutions","159038","43.240867","-73.331862","1171 BOGTOWN RD","HEBRON","NY","12865","1","CAFII AUC"
"Ineligible","Point Broadband Fiber Holding, LLC","319050","43.277161","-85.404616","17080 MORGAN WOODS DR NE","SAND LAKE","MI","49343","1","CAFII AUC"
"Qualifying","Slic Network Solutions","159038","43.496250","-73.284119","60 SOUTH RD","HAMPTON","NY","12887","1","CAFII AUC"
"Ineligible","AMG Technology Investment Group LLC","349039","39.994590","-91.371251","5326 KASE DR","QUINCY","IL","62305","1","CAFII AUC"
"Qualifying","Slic Network Solutions","159038","44.304159","-73.492499","1295    STOWERSVILLE RD","LEWIS","NY","12993","1","CAFII AUC"
"Qualifying","Slic Network Solutions","159038","44.362437","-73.409529","791 DR   MOUNTAIN VIEW DR","WILLSBORO","NY","12996","1","CAFII AUC"
"Qualifying","Slic Network Solutions","159038","43.036433","-73.495506","191 WATERS RD","EASTON","NY","12834","1","CAFII AUC"
"Ineligible","AMG Technology Investment Group LLC","359146","43.142212","-92.269400","3,459 FEET WEST OF 150TH ST AND ODESSA AVE","NEW HAMPTON","IA","50659","1","CAFII AUC"
"Ineligible","AMG Technology Investment Group LLC","359146","42.713797","-94.521349","1,600 FEET SOUTH OF 300TH AVE AND 530TH ST","GILMORE CITY","IA","50541","1","CAFII AUC"
"Ineligible","AMG Technology Investment Group LLC","349039","41.800086","-90.038160","10899 PRAIRIE CENTER RD","MORRISON","IL","61270","1","CAFII AUC"
"Ineligible","AMG Technology Investment Group LLC","349039","42.474822","-90.247650","96 PROVOST AVE","SCALES MOUND","IL","61075","1","CAFII AUC"
"Qualifying","Slic Network Solutions","159038","43.228635","-73.374138","3154 COUNTY ROUTE 30","HEBRON","NY","12865","1","CAFII AUC"
"Qualifying","Slic Network Solutions","159038","44.899850","-73.901174","529 BRANDY BROOK RD","ELLENBURG CENTER","NY","12934","1","CAFII AUC"
"Qualifying","Slic Network Solutions","159038","43.262862","-73.287124","6565 STATE ROUTE 22","HEBRON","NY","12865","1","CAFII AUC"
"Ineligible","AMG Technology Investment Group LLC","439073","36.988771","-97.137312","1,346 FEET NORTH OF N RANCH DR AND W JUDO RD","NEWKIRK","OK","74647","1","CAFII AUC"
"Qualifying","Slic Network Solutions","159038","44.966012","-73.799172","166 STONE RD","MOOERS FORKS","NY","12959","1","CAFII AUC"
"Ineligible","AMG Technology Investment Group LLC","359146","41.233647","-92.541574","2728 290TH ST","OSKALOOSA","IA","52577","1","CAFII AUC"
"Ineligible","AMG Technology Investment Group LLC","439073","35.472746","-97.933864","2,617 FEET SOUTHEAST OF E OKC 10TH ST AND US HWY 81","EL RENO","OK","73036","1","CAFII AUC"
"Qualifying","Slic Network Solutions","159038","43.241590","-73.396770","2086 COUNTY ROUTE 47","HEBRON","NY","12865","1","CAFII AUC"
"Qualifying","Slic Network Solutions","159038","43.188252","-73.299488","39 BEATTIE HOLLOW RD","SALEM","NY","12865","1","CAFII AUC"
"Ineligible","AMG Technology Investment Group LLC","359146","42.018376","-95.639299","4,179 FEET SOUTHEAST OF 110TH ST AND N AVE","CHARTER OAK","IA","51439","1","CAFII AUC"
"Qualifying","Slic Network Solutions","159038","44.123857","-73.580029","157 DR   TWIN BROOKS DR","ELIZABETHTOWN","NY","12932","1","CAFII AUC"
"Ineligible","AMG Technology Investment Group LLC","359146","43.266555","-91.628974","4,022 FEET SOUTH OF GLENVILLE RD AND PONTOPPIDAN RD","DECORAH","IA","52101","1","CAFII AUC"
"Qualifying","Slic Network Solutions","159038","43.672903","-73.410974","69 DRESDEN RD","DRESDEN","NY","12887","1","CAFII AUC"
"Ineligible","AMG Technology Investment Group LLC","439073","36.193404","-97.229185","268 FEET SOUTHEAST OF E0566 RD AND N3240 RD","STILLWATER","OK","74075","1","CAFII AUC"
"Ineligible","AMG Technology Investment Group LLC","349039","39.810049","-91.220032","350 IL-96","PAYSON","IL","62360","1","CAFII AUC"
"Ineligible","AMG Technology Investment Group LLC","359146","42.226101","-91.239108","1,002 FEET NORTH OF 185TH AVE AND CO RD E16","MONTICELLO","IA","52310","1","CAFII AUC"
"Ineligible","AMG Technology Investment Group LLC","359146","41.754113","-92.762322","121 375TH AVE","GRINNELL","IA","50112","1","CAFII AUC"
"Ineligible","Slic Network Solutions","159038","44.485091","-74.939171","760 COLD BROOK DR","COLTON","NY","13625","1","CAFII AUC"
"Qualifying","Slic Network Solutions","159038","44.542126","-74.731645","45 WATKINS DR/PRVT","COLTON","NY","13672","1","CAFII AUC"
"Ineligible","AMG Technology Investment Group LLC","439073","34.297021","-95.715230","3,476 FEET SOUTHWEST OF INDIAN NATION TPKE AND ROCKY PT","ANTLERS","OK","74523","1","CAFII AUC"
"Qualifying","Slic Network Solutions","159038","44.702381","-73.755673","77 HUGH HERRON RD","SARANAC","NY","12981","1","CAFII AUC"
"Qualifying","Slic Network Solutions","159038","43.695681","-73.427563","1061 B RD","WHITEHALL","NY","12887","1","CAFII AUC"
"Qualifying","Slic Network Solutions","159038","43.203316","-73.522358","178 SOUTH VALLEY RD","ARGYLE","NY","12809","1","CAFII AUC"
"Qualifying","Slic Network Solutions","159038","43.730413","-73.425894","44 LIDDLE-HARRIS RD","PUTNAM","NY","12861","1","CAFII AUC"
"Qualifying","Slic Network Solutions","159038","44.936179","-73.982084","7280 ROUTE 11","CHURUBUSCO","NY","12923","1","CAFII AUC"
"Qualifying","Slic Network Solutions","159038","44.495156","-74.745039","WHITE HILL RD","COLTON","NY","13672","1","CAFII AUC"
"Qualifying","Slic Network Solutions","159038","43.336080","-73.282787","91 EAST GREEN POND WAY","HEBRON","NY","12832","1","CAFII AUC"
"Ineligible","AMG Technology Investment Group LLC","359146","43.413592","-94.536883","3,880 FEET WEST OF 160TH ST AND 540TH AVE","ARMSTRONG","IA","50514","1","CAFII AUC"
"Qualifying","Slic Network Solutions","159038","44.984864","-74.188867","968 CALLAHAN RD","BURKE","NY","12917","1","CAFII AUC"
"Qualifying","Slic Network Solutions","159038","43.747813","-73.460734","6510 ROYAL ANCHORAGE WAY","PUTNAM","NY","12861","1","CAFII AUC"
"Qualifying","Slic Network Solutions","159038","44.526248","-74.872283","257 MORGAN RD","COLTON","NY","13625","1","CAFII AUC"
"Qualifying","Slic Network Solutions","159038","44.832118","-73.738980","753/765 ALDER BEND RD","ALTONA","NY","12935","1","CAFII AUC"
"Qualifying","Slic Network Solutions","159038","43.037350","-73.489244","85 WATERS RD","EASTON","NY","12834","1","CAFII AUC"
"Ineligible","AMG Technology Investment Group LLC","359146","43.453352","-92.326335","3,067 FEET SOUTHEAST OF 40TH ST AND LILAC AVE","LIME SPRINGS","IA","52155","1","CAFII AUC"
"Qualifying","Slic Network Solutions","159038","44.861342","-73.993146","204 HARRIGAN RD","ELLENBURG","NY","12955","1","CAFII AUC"
"Ineligible","AMG Technology Investment Group LLC","349039","40.105626","-89.937120","13062 E OAKFORD AVE","OAKFORD","IL","62673","1","CAFII AUC"
"Ineligible","AMG Technology Investment Group LLC","359146","43.241630","-95.207336","752 FEET EAST OF 190TH AVE AND 280TH ST","SPENCER","IA","51301","1","CAFII AUC"
"Qualifying","Slic Network Solutions","159038","44.970446","-74.043672","708 COUNTY ROUTE 39","CHATEAUGAY","NY","12920","1","CAFII AUC"
"Qualifying","Slic Network Solutions","159038","43.422592","-73.392228","1085 COUNTY ROUTE 17","FORT ANN","NY","12827","1","CAFII AUC"
"Ineligible","Co-Mo Comm, Inc.","429038","38.280946","-92.855111","12070 SOAP CREEK RD","GRAVOIS MILLS","MO","65037","1","CAFII AUC"
"Qualifying","Slic Network Solutions","159038","43.381633","-73.458536","51 CEDAR RIDGE WAY","HARTFORD","NY","12827","1","CAFII AUC"
"Qualifying","Slic Network Solutions","159038","43.587655","-73.440665","182 BLUE GOOSE RD","DRESDEN","NY","12887","1","CAFII AUC"
"Qualifying","Slic Network Solutions","159038","43.127434","-73.289168","469 CAMDEN VALLEY RD","SALEM","NY","12873","1","CAFII AUC"
"Ineligible","AMG Technology Investment Group LLC","439073","36.534969","-97.771707","1,942 FEET WEST OF E CENTENNIAL RD AND N 78TH ST","KREMLIN","OK","73753","1","CAFII AUC"
"Ineligible","AMG Technology Investment Group LLC","349039","40.841661","-89.761105","10650 W BRIMFIELD-JUBILEE RD","PRINCEVILLE","IL","61559","1","CAFII AUC"
"Qualifying","Slic Network Solutions","159038","43.596195","-73.303502","1689 COUNTY ROUTE 11","HAMPTON","NY","12887","1","CAFII AUC"
"Qualifying","Slic Network Solutions","159038","42.955696","-73.587557","405 COUNTY ROUTE 54","EASTON","NY","12154","1","CAFII AUC"
"Qualifying","Slic Network Solutions","159038","43.292749","-73.375352","269 HALLS POND RD","HEBRON","NY","12865","1","CAFII AUC"
"Qualifying","Slic Network Solutions","159038","43.229466","-73.389791","53 HEBRON HILLS RD","SALEM","NY","12865","1","CAFII AUC"
"Qualifying","Slic Network Solutions","159038","43.118857","-73.301848","112 PERRY HILL RD","SALEM","NY","12873","1","CAFII AUC"
"Ineligible","AMG Technology Investment Group LLC","349039","40.406053","-90.036080","21320 US-24","LEWISTOWN","IL","61542","1","CAFII AUC"
"Qualifying","Slic Network Solutions","159038","43.304983","-73.269767","7212 STATE ROUTE 22","HEBRON","NY","12832","1","CAFII AUC"
"Qualifying","Slic Network Solutions","159038","44.500229","-74.744731","WHITE HILL RD","COLTON","NY","13672","1","CAFII AUC"
"Qualifying","Slic Network Solutions","159038","44.703380","-73.722998","627 PICKETTS CORNERS RD","SARANAC","NY","12981","1","CAFII AUC"
"Ineligible","AMG Technology Investment Group LLC","349039","41.105095","-90.043049","2786 IL-180","GALVA","IL","61434","1","CAFII AUC"
"Ineligible","AMG Technology Investment Group LLC","359146","42.760241","-91.608240","296 FEET WEST OF 320TH ST AND 90TH ST","ARLINGTON","IA","50606","1","CAFII AUC"
"Ineligible","AMG Technology Investment Group LLC","359146","42.576186","-90.936472","1,208 FEET SOUTHWEST OF MIDWAY RD AND US HWY 52","HOLY CROSS","IA","52053","1","CAFII AUC"
"Ineligible","Slic Network Solutions","159038","44.724893","-74.394743","650 WALKERVILLE RD","NORTH BANGOR","NY","12966","2","CAFII AUC"
"Qualifying","Slic Network Solutions","159038","43.186821","-73.290445","137 BEATTIE HOLLOW RD","SALEM","NY","12865","1","CAFII AUC"
"Ineligible","AMG Technology Investment Group LLC","349039","40.927864","-90.778486","43 205TH AVE","MONMOUTH","IL","61462","1","CAFII AUC"
"Qualifying","Slic Network Solutions","159038","44.402364","-73.456324","4755 NYS ROUTE 22","WILLSBORO","NY","12996","1","CAFII AUC"
"Ineligible","AMG Technology Investment Group LLC","439073","36.434831","-97.841108","1,270 FEET WEST OF BRECKINRIDGE RD AND N 30TH ST","ENID","OK","73701","1","CAFII AUC"
"Qualifying","Slic Network Solutions","159038","44.815546","-73.776296","837 PLANK RD","ELLENBURG","NY","12935","1","CAFII AUC"
"Ineligible","AMG Technology Investment Group LLC","359146","42.079131","-91.291020","21212 100TH ST","ANAMOSA","IA","52205","1","CAFII AUC"
"Ineligible","AMG Technology Investment Group LLC","349039","39.918150","-91.050432","2396 N 1100TH AVE","LIBERTY","IL","62347","1","CAFII AUC"
"Qualifying","Slic Network Solutions","159038","43.290915","-73.317989","1 PINE HILL RD","HEBRON","NY","12832","1","CAFII AUC"
"Ineligible","AMG Technology Investment Group LLC","359146","43.280989","-91.674346","3,872 FEET SOUTH OF OLD STAGE RD AND TROUT RIVER RD","DECORAH","IA","52101","1","CAFII AUC"
"Qualifying","Slic Network Solutions","159038","43.293118","-73.396462","4221 COUNTY ROUTE 30","HEBRON","NY","12865","1","CAFII AUC"
"Ineligible","AMG Technology Investment Group LLC","439073","36.673007","-97.096857","2,997 FEET NORTHEAST OF S WAVERLY ST AND W OAKLAND RD","PONCA CITY","OK","74601","1","CAFII AUC"
"Qualifying","Slic Network Solutions","159038","44.506470","-74.753487","362 BLAKE FALLS DAM RD","COLTON","NY","13687","1","CAFII AUC"
"Qualifying","Slic Network Solutions","159038","43.404717","-73.346278","1306 COUNTY ROUTE 23","GRANVILLE","NY","12832","1","CAFII AUC"
"Ineligible","AMG Technology Investment Group LLC","359146","42.735784","-95.222316","3,282 FEET WEST OF 100TH AVE AND 540TH ST","STORM LAKE","IA","50588","1","CAFII AUC"
"Qualifying","Slic Network Solutions","159038","44.846020","-74.001707","1184 W HILL RD","ELLENBURG","NY","12934","1","CAFII AUC"
"Ineligible","AMG Technology Investment Group LLC","359146","42.685059","-91.476760","3,333 FEET SOUTH OF CRYSTAL RD AND DELTA AVE","STRAWBERRY POINT","IA","52076","1","CAFII AUC"
"Ineligible","AMG Technology Investment Group LLC","439073","35.203820","-98.403202","1,180 FEET EAST OF CO RD 1250 AND COUNTY STREET 2570","FORT COBB","OK","73038","1","CAFII AUC"
"Qualifying","Slic Network Solutions","159038","44.660976","-74.264979","23 KENNY RD","MALONE","NY","12953","1","CAFII AUC"
"Qualifying","Slic Network Solutions","159038","44.663719","-74.305906","2859 COUNTY ROUTE 14","DUANE","NY","12953","1","CAFII AUC"
"Ineligible","AMG Technology Investment Group LLC","439073","34.816353","-99.194447","1,445 FEET NORTH OF E1520 RD AND N2120 RD","HEADRICK","OK","73549","1","CAFII AUC"
"Qualifying","Slic Network Solutions","159038","44.861635","-74.153302","146 COUNTY ROUTE 36","BURKE","NY","12917","1","CAFII AUC"
"Ineligible","AMG Technology Investment Group LLC","349039","39.771223","-91.200529","1624 N 100TH AVE","PLAINVILLE","IL","62365","1","CAFII AUC"
"Qualifying","Slic Network Solutions","159038","43.250096","-73.352611","43 HENDERSON LN","HEBRON","NY","12865","1","CAFII AUC"
"Ineligible","AMG Technology Investment Group LLC","349039","40.018622","-89.996042","10300 CASS COUNTY LINE ST","ASHLAND","IL","62612","1","CAFII AUC"
"Ineligible","AMG Technology Investment Group LLC","439073","34.549821","-99.819116","1,522 FEET EAST OF E1700 RD AND N1760 RD","GOULD","OK","73544","1","CAFII AUC"
"Qualifying","Slic Network Solutions","159038","44.838548","-73.734235","874 ALDER BEND RD","ALTONA","NY","12935","1","CAFII AUC"
"Qualifying","Slic Network Solutions","159038","44.977748","-74.083461","748 COUNTY ROUTE 52","CHATEAUGAY","NY","12920","1","CAFII AUC"
"Ineligible","AMG Technology Investment Group LLC","349039","41.045223","-89.616845","105 850 N","WYOMING","IL","61491","1","CAFII AUC"
"Qualifying","Slic Network Solutions","159038","44.499054","-74.777059","902 A RAQUETTE RIVER RD","COLTON","NY","13687","1","CAFII AUC"
"Qualifying","Slic Network Solutions","159038","43.612679","-73.492821","1226 PIKE BROOK RD","DRESDEN","NY","12819","1","CAFII AUC"
"Ineligible","AMG Technology Investment Group LLC","349039","41.118699","-89.705976","9916 N CASTLETON RD","CASTLETON","IL","61426","1","CAFII AUC"
"Qualifying","Slic Network Solutions","159038","43.409986","-73.336974","1421 COUNTY ROUTE 23","GRANVILLE","NY","12832","1","CAFII AUC"
"Ineligible","AMG Technology Investment Group LLC","439073","35.308770","-98.372571","2,898 FEET NORTHWEST OF COUNTY STREET 2595 AND STATE HWY 152","BINGER","OK","73009","1","CAFII AUC"
"Qualifying","Slic Network Solutions","159038","43.201916","-73.523123","158 SOUTH VALLEY RD","ARGYLE","NY","12809","1","CAFII AUC"
"Ineligible","AMG Technology Investment Group LLC","359146","42.871554","-93.615404","2,256 FEET SOUTH OF 120TH ST AND US HWY 69","BELMOND","IA","50421","1","CAFII AUC"
"Ineligible","AMG Technology Investment Group LLC","439073","35.434118","-97.846719","696 FEET SOUTHEAST OF S BANNER RD AND SW 29TH ST","EL RENO","OK","73036","1","CAFII AUC"
"Qualifying","Slic Network Solutions","159038","43.153450","-73.461078","26 HARTSHORN RD","GREENWICH","NY","12834","1","CAFII AUC"
"Qualifying","Slic Network Solutions","159038","44.123324","-73.579822","157 DR   TWIN BROOKS DR","ELIZABETHTOWN","NY","12932","1","CAFII AUC"
"Ineligible","AMG Technology Investment Group LLC","359146","41.691857","-92.147038","588 FEET SOUTH OF 216TH ST AND 220TH ST","MARENGO","IA","52301","1","CAFII AUC"
"Qualifying","Slic Network Solutions","159038","44.531027","-74.491061","3617 BLUE MOUNTAIN RD","SAINT REGIS FALLS","NY","12980","1","CAFII AUC"
"Qualifying","Slic Network Solutions","159038","43.227095","-73.354098","1401 DUNNIGAN RD","HEBRON","NY","12865","1","CAFII AUC"
"Ineligible","AMG Technology Investment Group LLC","349039","39.854744","-91.087273","664 E 2200TH ST","LIBERTY","IL","62347","1","CAFII AUC"
"Ineligible","AMG Technology Investment Group LLC","349039","40.936558","-89.569492","1592 E SANTE FE RD","CHILLICOTHE","IL","61523","1","CAFII AUC"
"Qualifying","Slic Network Solutions","159038","44.641251","-74.475732","1049 S RIVER RD","WAVERLY","NY","12980","1","CAFII AUC"
"Qualifying","Slic Network Solutions","159038","44.991582","-73.914968","238 LIBERTY POLE RD","CHURUBUSCO","NY","12923","1","CAFII AUC"
"Qualifying","Slic Network Solutions","159038","43.731931","-73.427225","86 LIDDLE HARRIS RD","PUTNAM STATION","NY","12861","1","CAFII AUC"
"Qualifying","Slic Network Solutions","159038","43.352437","-73.253395","83 EGG ST","GRANVILLE","NY","12832","1","CAFII AUC"
"Ineligible","AMG Technology Investment Group LLC","439073","34.598942","-96.118746","3,241 FEET NORTHEAST OF BILL WARD RD AND STATE HWY 131","COALGATE","OK","74538","1","CAFII AUC"
"Ineligible","AMG Technology Investment Group LLC","359146","42.122860","-91.319976","2,157 FEET NORTHWEST OF BUFFALO RD AND VIOLET RD","ANAMOSA","IA","52205","1","CAFII AUC"
"Qualifying","Slic Network Solutions","159038","43.329907","-73.284321","1883 COUNTY ROUTE 31","HEBRON","NY","12832","1","CAFII AUC"
"Ineligible","AMG Technology Investment Group LLC","439073","36.449762","-99.539458","1,633 FEET WEST OF E0390 RD AND N1950 RD","WOODWARD","OK","73801","1","CAFII AUC"
"Ineligible","AMG Technology Investment Group LLC","359146","42.653087","-93.825463","2,249 FEET SOUTH OF 270TH ST AND HANCOCK AVE","EAGLE GROVE","IA","50533","1","CAFII AUC"
"Ineligible","AMG Technology Investment Group LLC","359146","43.226152","-91.594912","2,207 FEET WEST OF PICNIC WOODS DR AND POLE LINE RD","WAUKON","IA","52172","1","CAFII AUC"
"Ineligible","AMG Technology Investment Group LLC","359146","41.368213","-94.527788","2,212 FEET SOUTH OF 190TH ST AND JORDAN AVE","FONTANELLE","IA","50846","1","CAFII AUC"
"Ineligible","AMG Technology Investment Group LLC","349039","41.350167","-90.996751","17614 308TH ST W","ILLINOIS CITY","IL","61259","1","CAFII AUC"
"Qualifying","Slic Network Solutions","159038","44.945333","-74.184103","387 CALLAHAN RD","BURKE","NY","12917","1","CAFII AUC"
"Ineligible","AMG Technology Investment Group LLC","359146","42.591720","-90.866993","4,917 FEET NORTH OF KLEIN LN AND US HWY 52","DURANGO","IA","52039","1","CAFII AUC"
"Qualifying","Slic Network Solutions","159038","43.769130","-73.412592","17234 STATE ROUTE 22","PUTNAM","NY","12861","1","CAFII AUC"
"Qualifying","Slic Network Solutions","159038","43.382192","-73.461398","75 CEDAR RIDGE WAY","HARTFORD","NY","12827","1","CAFII AUC"
"Qualifying","Slic Network Solutions","159038","43.417914","-73.412688","41 NORTON RD","FORT ANN","NY","12827","1","CAFII AUC"
"Qualifying","Slic Network Solutions","159038","44.123520","-73.577916","RD   LINCOLN POND RD","ELIZABETHTOWN","NY","12932","1","CAFII AUC"
"Qualifying","Slic Network Solutions","159038","44.932265","-73.929214","228 ROUTE 189","CHURUBUSCO","NY","12923","1","CAFII AUC"
"Qualifying","Slic Network Solutions","159038","44.991448","-73.912007","268 LIBERTY POLE RD","CHURUBUSCO","NY","12923","1","CAFII AUC"
"Qualifying","Slic Network Solutions","159038","43.755308","-73.427442","60 FERNWOOD WAY","PUTNAM STATION","NY","12861","1","CAFII AUC"
"Ineligible","AMG Technology Investment Group LLC","439073","35.075767","-98.812673","1,174 FEET NORTHEAST OF E1340 RD AND N2340 RD","MOUNTAIN VIEW","OK","73062","1","CAFII AUC"
"Ineligible","AMG Technology Investment Group LLC","359146","41.397676","-94.145342","2,248 FEET SOUTHEAST OF 170TH ST AND ELDERBERRY AVE","EARLHAM","IA","50072","1","CAFII AUC"
"Qualifying","Slic Network Solutions","159038","44.670417","-74.286636","11597 STATE ROUTE 30","DUANE","NY","12953","1","CAFII AUC"
"Ineligible","AMG Technology Investment Group LLC","349039","42.470946","-90.276626","6665 N JEWELL LN","SCALES MOUND","IL","61075","1","CAFII AUC"
"Qualifying","Slic Network Solutions","159038","44.464705","-74.836941","3019 SH 56","COLTON","NY","13687","1","CAFII AUC"
"Ineligible","AMG Technology Investment Group LLC","349039","40.828538","-89.939258","21820 W SHISSLER RD","ELMWOOD","IL","61529","1","CAFII AUC"
"Qualifying","Slic Network Solutions","159038","44.495998","-74.750036","33 COULON DR/PRVT","COLTON","NY","13672","1","CAFII AUC"
"Qualifying","Slic Network Solutions","159038","43.735050","-73.459466","5091 SAGAMORE RD","PUTNAM","NY","12861","1","CAFII AUC"
"Qualifying","Slic Network Solutions","159038","44.528394","-74.868592","309 MORGAN RD","COLTON","NY","13625","1","CAFII AUC"
"Qualifying","Slic Network Solutions","159038","43.392841","-73.450803","1486 BALDWIN CORNERS RD","HARTFORD","NY","12827","1","CAFII AUC"
"Ineligible","AMG Technology Investment Group LLC","439073","36.250730","-96.997822","1,552 FEET NORTH OF E0530 RD AND FAIRGROUNDS RD","MORRISON","OK","73061","1","CAFII AUC"
"Ineligible","AMG Technology Investment Group LLC","439073","36.854295","-98.918906","732 FEET SOUTHWEST OF CO RD 300 AND JOHNSTON RD","ALVA","OK","73717","1","CAFII AUC"
"Qualifying","Slic Network Solutions","159038","43.109326","-73.416828","6 SKELLIE RD","JACKSON","NY","12834","1","CAFII AUC"
"Qualifying","Slic Network Solutions","159038","43.103285","-73.285249","30 HART HILL LN","SALEM","NY","12873","1","CAFII AUC"
"Qualifying","Slic Network Solutions","159038","44.505007","-74.812807","49 ROUND POND RD","PARISHVILLE","NY","13672","1","CAFII AUC"
"Ineligible","AMG Technology Investment Group LLC","439073","35.801950","-97.757160","1,883 FEET NORTHEAST OF E0840 RD AND N2940 RD","KINGFISHER","OK","73750","1","CAFII AUC"
"Ineligible","AMG Technology Investment Group LLC","349039","41.375363","-90.391108","2250 N 1520TH AVE","ORION","IL","61273","1","CAFII AUC"
"Qualifying","Slic Network Solutions","159038","43.080019","-73.348764","147 SUTHERLAND RD","JACKSON","NY","12816","1","CAFII AUC"
"Qualifying","Slic Network Solutions","159038","43.239467","-73.380989","3335 CR-30","SALEM","NY","12865","1","CAFII AUC"
"Ineligible","AMG Technology Investment Group LLC","439073","34.798776","-96.057783","807 FEET NORTH OF E153 RD AND N390 RD","STUART","OK","74570","1","CAFII AUC"
"Ineligible","AMG Technology Investment Group LLC","359146","42.796790","-91.522083","1,209 FEET NORTH OF CANOE RD AND CRYSTAL RD","ELKADER","IA","52043","1","CAFII AUC"
"Ineligible","AMG Technology Investment Group LLC","439073","36.955208","-97.052112","550 FEET WEST OF E HOME RD AND US HWY 77","NEWKIRK","OK","74647","1","CAFII AUC"
"Ineligible","AMG Technology Investment Group LLC","359146","40.714247","-95.340312","2,052 FEET WEST OF 230TH ST AND C AVE","SHENANDOAH","IA","51601","1","CAFII AUC"
"Ineligible","AMG Technology Investment Group LLC","349039","40.841551","-90.731396","1444 30TH ST","KIRKWOOD","IL","61447","1","CAFII AUC"
"Ineligible","AMG Technology Investment Group LLC","359146","41.390650","-92.253246","1,527 FEET SOUTH OF 180TH ST AND 185TH AVE","SIGOURNEY","IA","52591","1","CAFII AUC"
"Ineligible","AMG Technology Investment Group LLC","359146","41.145109","-94.676670","4,729 FEET SOUTH OF BROWN AVE AND MULBERRY AVE","BRIDGEWATER","IA","50837","1","CAFII AUC"
"Qualifying","Slic Network Solutions","159038","44.491003","-74.750901","WHITE HILL RD","MADRID","NY","13672","1","CAFII AUC"
"Qualifying","Slic Network Solutions","159038","43.731415","-73.377444","427 COUNTY ROUTE 3","PUTNAM STATION","NY","12861","1","CAFII AUC"
"Qualifying","Slic Network Solutions","159038","44.952168","-73.948725","183 LOOBY RD","CHURUBUSCO","NY","12923","1","CAFII AUC"
"Qualifying","Slic Network Solutions","159038","44.731000","-74.465686","1 AVERY LOT RD","NORTH BANGOR","NY","12966","1","CAFII AUC"
"Qualifying","Slic Network Solutions","159038","42.993567","-73.498255","679 MEETING HOUSE RD","EASTON","NY","12816","1","CAFII AUC"
"Qualifying","Slic Network Solutions","159038","43.595196","-73.314032","1575 COUNTY ROUTE 11","HAMPTON","NY","12887","1","CAFII AUC"
"Ineligible","AMG Technology Investment Group LLC","359146","41.759513","-91.220420","1,063 FEET NORTH OF GREEN RD AND HAYES AVE","TIPTON","IA","52772","1","CAFII AUC"
"Qualifying","Slic Network Solutions","159038","44.746844","-74.177794","197 BROWN BENOIT RD","OWLS HEAD","NY","12969","1","CAFII AUC"
"Ineligible","AMG Technology Investment Group LLC","359146","41.368591","-92.355063","1,448 FEET SOUTH OF 195TH ST AND STATE HWY 21","DELTA","IA","52550","1","CAFII AUC"
"Qualifying","Slic Network Solutions","159038","43.332530","-73.336608","1280 BIG BURCH HILL RD","HEBRON","NY","12832","1","CAFII AUC"
"Qualifying","Slic Network Solutions","159038","44.949077","-74.217678","839 COVEYTOWN RD","BURKE","NY","12917","1","CAFII AUC"
"Qualifying","Slic Network Solutions","159038","43.304995","-73.367672","120 JAMES RD","SALEM","NY","12865","1","CAFII AUC"
"Ineligible","AMG Technology Investment Group LLC","359146","42.243481","-91.505122","1,466 FEET WEST OF HEATONS VALLEY RD AND JORDANS GROVE RD","CENTRAL CITY","IA","52214","1","CAFII AUC"
"Ineligible","AMG Technology Investment Group LLC","349039","41.139358","-90.913189","932 47TH AVE","KEITHSBURG","IL","61442","1","CAFII AUC"
"Ineligible","AMG Technology Investment Group LLC","359146","40.925117","-95.738240","1,961 FEET SOUTH OF 235TH ST AND QUANDT RD","GLENWOOD","IA","51534","1","CAFII AUC"
"Qualifying","Slic Network Solutions","159038","43.331370","-73.339079","1248 BIG BURCH HILL RD","HEBRON","NY","12832","1","CAFII AUC"
"Ineligible","AMG Technology Investment Group LLC","349039","40.110919","-90.070731","3396 CR 1500E","BATH","IL","62617","1","CAFII AUC"
"Qualifying","Slic Network Solutions","159038","43.254251","-73.322367","793 CHAMBERLIN MILLS RD","HEBRON","NY","12865","1","CAFII AUC"
"Ineligible","AMG Technology Investment Group LLC","349039","41.255851","-89.838649","972 750 AVE N","NEPONSET","IL","61345","1","CAFII AUC"
"Qualifying","Slic Network Solutions","159038","44.969235","-74.253084","503 FOUNTAIN ST","CONSTABLE","NY","12926","1","CAFII AUC"
"Qualifying","Slic Network Solutions","159038","43.705634","-73.406386","309 PULPIT POINT RD","PUTNAM","NY","12861","1","CAFII AUC"
"Ineligible","AMG Technology Investment Group LLC","359146","43.201798","-91.587473","1,701 FEET NORTH OF CHICORY DR AND POLE LINE RD","POSTVILLE","IA","52162","1","CAFII AUC"
"Ineligible","AMG Technology Investment Group LLC","349039","40.090214","-89.990292","10250 W OAKFORD AVE","OAKFORD","IL","62673","1","CAFII AUC"
"Qualifying","Slic Network Solutions","159038","43.196128","-73.536682","109 WILLIAMS RD","FORT EDWARD","NY","12828","1","CAFII AUC"
"Ineligible","AMG Technology Investment Group LLC","349039","39.919368","-90.370889","3709 LOVEKAMP SCHOOL RD","ARENZVILLE","IL","62611","1","CAFII AUC"
"Qualifying","Slic Network Solutions","159038","43.591599","-73.438339","250 BLUE GOOSE RD","DRESDEN","NY","12887","1","CAFII AUC"
"Qualifying","Slic Network Solutions","159038","44.480544","-74.850218","10,12 TRIMM RD","CLARE","NY","13687","1","CAFII AUC"
"Qualifying","Slic Network Solutions","159038","43.050871","-73.514644","13 EASTON STATION RD","EASTON","NY","12834","1","CAFII AUC"
"Ineligible","AMG Technology Investment Group LLC","359146","42.131247","-91.305750","13639 VIOLET RD","ANAMOSA","IA","52205","1","CAFII AUC"
"Qualifying","Slic Network Solutions","159038","43.302527","-73.399959","4372 COUNTY ROUTE 30","HEBRON","NY","12832","1","CAFII AUC"
"Ineligible","AMG Technology Investment Group LLC","359146","42.148055","-94.665621","1,519 FEET SOUTHEAST OF 140TH ST AND WALNUT AVE","GLIDDEN","IA","51443","1","CAFII AUC"
"Ineligible","AMG Technology Investment Group LLC","359146","41.968389","-95.132407","1,056 FEET NORTH OF 380TH ST AND R AVE","MANNING","IA","51455","1","CAFII AUC"
"Qualifying","Slic Network Solutions","159038","44.941572","-74.435960","447 MCQUEEN RD","FORT COVINGTON","NY","12937","1","CAFII AUC"
"Qualifying","Slic Network Solutions","159038","44.626206","-74.475875","2700 STATE ROUTE 458","WAVERLY","NY","12980","1","CAFII AUC"
"Qualifying","Slic Network Solutions","159038","44.944761","-74.509359","610 COUNTY ROUTE 4","BOMBAY","NY","12914","1","CAFII AUC"
"Qualifying","Slic Network Solutions","159038","44.961804","-74.021091","1348 COUNTY LINE RD","CHURUBUSCO","NY","12923","1","CAFII AUC"
"Qualifying","Slic Network Solutions","159038","44.876005","-73.973062","30 RYAN RD","CHURUBUSCO","NY","12923","1","CAFII AUC"
"Qualifying","Slic Network Solutions","159038","44.352006","-73.409996","660 DR   MOUNTAIN VIEW DR","WILLSBORO","NY","12996","1","CAFII AUC"
"Qualifying","Slic Network Solutions","159038","43.499794","-73.273194","38 RAINBOW WAY","HAMPTON","NY","12887","1","CAFII AUC"
"Qualifying","Slic Network Solutions","159038","43.347184","-73.329072","151 HALTERMAN RD","GRANVILLE","NY","12832","1","CAFII AUC"
"Ineligible","AMG Technology Investment Group LLC","439073","36.538520","-97.129843","2,496 FEET WEST OF ACRE RD AND N3300 RD","MARLAND","OK","74644","1","CAFII AUC"
"Qualifying","Slic Network Solutions","159038","43.226231","-73.388737","1169 PATTERSON HILL RD","HEBRON","NY","12865","1","CAFII AUC"
"Qualifying","Slic Network Solutions","159038","43.150864","-73.271612","875 CAMDEN VALLEY RD","SALEM","NY","12873","1","CAFII AUC"
"Ineligible","AMG Technology Investment Group LLC","439073","34.827068","-99.432965","2,469 FEET EAST OF E1510 RD AND N1980 RD","MANGUM","OK","73554","1","CAFII AUC"
"Qualifying","Slic Network Solutions","159038","43.760593","-73.408220","21 SMITH WAY","PUTNAM","NY","12861","1","CAFII AUC"
"Qualifying","Slic Network Solutions","159038","44.873184","-74.429396","1332 COUNTY ROUTE 8","BANGOR","NY","12966","1","CAFII AUC"
"Ineligible","AMG Technology Investment Group LLC","359146","43.249555","-91.744958","3,677 FEET SOUTHWEST OF CO RD W42 AND VALDRES RD","DECORAH","IA","52101","1","CAFII AUC"
