Establishment ID,Name,Address 1,Address 2,City,Zip,Owner,Category,Type,Latitude,Longitude,Location,Council Districts,Councils,Communities,Zip Codes,Municipalities,Montgomery County Boundary
37032,168 ASIAN BURRITO,18000 GEORGIA AVE.,,OLNEY,20832,168 ASIAN BURRITO LLC,Market,Food,39.1511,-77.0673,"(39.1511, -77.0673)",4,4,58,100,1,1
37032,168 ASIAN BURRITO,18000 GEORGIA AVE.,,OLNEY,20832,168 ASIAN BURRITO LLC,Market,Food,39.1511,-77.0673,"(39.1511, -77.0673)",4,4,58,100,1,1
37032,168 ASIAN BURRITO,18000 GEORGIA AVE.,,OLNEY,20832,168 ASIAN BURRITO LLC,Market,Food,39.1511,-77.0673,"(39.1511, -77.0673)",4,4,58,100,1,1
37032,168 ASIAN BURRITO,18000 GEORGIA AVE.,,OLNEY,20832,168 ASIAN BURRITO LLC,Market,Food,39.1511,-77.0673,"(39.1511, -77.0673)",4,4,58,100,1,1
37032,168 ASIAN BURRITO,18000 GEORGIA AVE.,,OLNEY,20832,168 ASIAN BURRITO LLC,Market,Food,39.1511,-77.0673,"(39.1511, -77.0673)",4,4,58,100,1,1
32992,29 CONVENIENCE MART,10755 COLESVILLE RD,,SILVER SPRING,20901,A&I ENTERPRISE VI INC - ALEENA MALIK,Market,Food,39.032,-77.0034,"(39.032, -77.0034)",5,5,18,21,1,1
32992,29 CONVENIENCE MART,10755 COLESVILLE RD,,SILVER SPRING,20901,A&I ENTERPRISE VI INC - ALEENA MALIK,Market,Food,39.032,-77.0034,"(39.032, -77.0034)",5,5,18,21,1,1
32992,29 CONVENIENCE MART,10755 COLESVILLE RD,,SILVER SPRING,20901,A&I ENTERPRISE VI INC - ALEENA MALIK,Market,Food,39.032,-77.0034,"(39.032, -77.0034)",5,5,18,21,1,1
32992,29 CONVENIENCE MART,10755 COLESVILLE RD,,SILVER SPRING,20901,A&I ENTERPRISE VI INC - ALEENA MALIK,Market,Food,39.032,-77.0034,"(39.032, -77.0034)",5,5,18,21,1,1
32992,29 CONVENIENCE MART,10755 COLESVILLE RD,,SILVER SPRING,20901,A&I ENTERPRISE VI INC - ALEENA MALIK,Market,Food,39.032,-77.0034,"(39.032, -77.0034)",5,5,18,21,1,1
20632,3 STAR BEER & WINE,18524 WOODFIELD RD,,GAITHERSBURG,20879,"CPSS, INC",Market,Food,39.1607,-77.1597,"(39.1607, -77.1597)",4,4,36,31,1,1
20632,3 STAR BEER & WINE,18524 WOODFIELD RD,,GAITHERSBURG,20879,"CPSS, INC",Market,Food,39.1607,-77.1597,"(39.1607, -77.1597)",4,4,36,31,1,1
41092,5-10 QUICK MART,817 HUNGERFORD DR.,,ROCKVILLE,20850,GURU ANGAD INC.,Market,Food,39.0951,-77.1528,"(39.0951, -77.1528)",3,3,25,71,12,1
41092,5-10 QUICK MART,817 HUNGERFORD DR.,,ROCKVILLE,20850,GURU ANGAD INC.,Market,Food,39.0951,-77.1528,"(39.0951, -77.1528)",3,3,25,71,12,1
37048,6-TWELVE CONVENIENT MART,14100 C DARNESTOWN RD.,,GERMANTOWN,20874,AKSHAT ENTERPRISES LLC,Market,Food,39.103,-77.2925,"(39.103, -77.2925)",1,1,28,39,1,1
37048,6-TWELVE CONVENIENT MART,14100 C DARNESTOWN RD.,,GERMANTOWN,20874,AKSHAT ENTERPRISES LLC,Market,Food,39.103,-77.2925,"(39.103, -77.2925)",1,1,28,39,1,1
37048,6-TWELVE CONVENIENT MART,14100 C DARNESTOWN RD.,,GERMANTOWN,20874,AKSHAT ENTERPRISES LLC,Market,Food,39.103,-77.2925,"(39.103, -77.2925)",1,1,28,39,1,1
32975,7-ELEVEN #1038936,20510 FREDERICK RD,,GERMANTOWN,20876,7 ELEVEN,Market,Food,39.1924,-77.2436,"(39.1924, -77.2436)",2,2,39,36,1,1
32975,7-ELEVEN #1038936,20510 FREDERICK RD,,GERMANTOWN,20876,7 ELEVEN,Market,Food,39.1924,-77.2436,"(39.1924, -77.2436)",2,2,39,36,1,1
32975,7-ELEVEN #1038936,20510 FREDERICK RD,,GERMANTOWN,20876,7 ELEVEN,Market,Food,39.1924,-77.2436,"(39.1924, -77.2436)",2,2,39,36,1,1
32975,7-ELEVEN #1038936,20510 FREDERICK RD,,GERMANTOWN,20876,7 ELEVEN,Market,Food,39.1924,-77.2436,"(39.1924, -77.2436)",2,2,39,36,1,1
32975,7-ELEVEN #1038936,20510 FREDERICK RD,,GERMANTOWN,20876,7 ELEVEN,Market,Food,39.1924,-77.2436,"(39.1924, -77.2436)",2,2,39,36,1,1
20209,7-ELEVEN #11570,8946 N. WESTLAND DR.,,GAITHERSBURG,20877,MAJMUDAR RETAIL STORES,Market,Food,39.1278,-77.1839,"(39.1278, -77.1839)",3,3,36,35,1,1
20209,7-ELEVEN #11570,8946 N. WESTLAND DR.,,GAITHERSBURG,20877,MAJMUDAR RETAIL STORES,Market,Food,39.1278,-77.1839,"(39.1278, -77.1839)",3,3,36,35,1,1
20209,7-ELEVEN #11570,8946 N. WESTLAND DR.,,GAITHERSBURG,20877,MAJMUDAR RETAIL STORES,Market,Food,39.1278,-77.1839,"(39.1278, -77.1839)",3,3,36,35,1,1
20209,7-ELEVEN #11570,8946 N. WESTLAND DR.,,GAITHERSBURG,20877,MAJMUDAR RETAIL STORES,Market,Food,39.1278,-77.1839,"(39.1278, -77.1839)",3,3,36,35,1,1
20209,7-ELEVEN #11570,8946 N. WESTLAND DR.,,GAITHERSBURG,20877,MAJMUDAR RETAIL STORES,Market,Food,39.1278,-77.1839,"(39.1278, -77.1839)",3,3,36,35,1,1
20209,7-ELEVEN #11570,8946 N. WESTLAND DR.,,GAITHERSBURG,20877,MAJMUDAR RETAIL STORES,Market,Food,39.1278,-77.1839,"(39.1278, -77.1839)",3,3,36,35,1,1
11,7-ELEVEN #11572,12405 GEORGIA AVE.,,SILVER SPRING,20906,TENAYE Y. TEBEGE,Market,Food,39.061,-77.0518,"(39.061, -77.0518)",4,4,23,6,1,1
11,7-ELEVEN #11572,12405 GEORGIA AVE.,,SILVER SPRING,20906,TENAYE Y. TEBEGE,Market,Food,39.061,-77.0518,"(39.061, -77.0518)",4,4,23,6,1,1
11,7-ELEVEN #11572,12405 GEORGIA AVE.,,SILVER SPRING,20906,TENAYE Y. TEBEGE,Market,Food,39.061,-77.0518,"(39.061, -77.0518)",4,4,23,6,1,1
11,7-ELEVEN #11572,12405 GEORGIA AVE.,,SILVER SPRING,20906,TENAYE Y. TEBEGE,Market,Food,39.061,-77.0518,"(39.061, -77.0518)",4,4,23,6,1,1
12,7-ELEVEN #11575,18120 GEORGIA AVE.,,OLNEY,20832,"SJB, INC. #11575",Market,Food,39.1542,-77.0676,"(39.1542, -77.0676)",4,4,58,100,1,1
12,7-ELEVEN #11575,18120 GEORGIA AVE.,,OLNEY,20832,"SJB, INC. #11575",Market,Food,39.1542,-77.0676,"(39.1542, -77.0676)",4,4,58,100,1,1
12,7-ELEVEN #11575,18120 GEORGIA AVE.,,OLNEY,20832,"SJB, INC. #11575",Market,Food,39.1542,-77.0676,"(39.1542, -77.0676)",4,4,58,100,1,1
12,7-ELEVEN #11575,18120 GEORGIA AVE.,,OLNEY,20832,"SJB, INC. #11575",Market,Food,39.1542,-77.0676,"(39.1542, -77.0676)",4,4,58,100,1,1
12,7-ELEVEN #11575,18120 GEORGIA AVE.,,OLNEY,20832,"SJB, INC. #11575",Market,Food,39.1542,-77.0676,"(39.1542, -77.0676)",4,4,58,100,1,1
18004,7-ELEVEN #11577,15539 NEW HAMPSHIRE AVE.,,SILVER SPRING,20905,"REKHI, INC.",Market,Food,39.1111,-76.9947,"(39.1111, -76.9947)",5,5,29,8,1,1
18004,7-ELEVEN #11577,15539 NEW HAMPSHIRE AVE.,,SILVER SPRING,20905,"REKHI, INC.",Market,Food,39.1111,-76.9947,"(39.1111, -76.9947)",5,5,29,8,1,1
18004,7-ELEVEN #11577,15539 NEW HAMPSHIRE AVE.,,SILVER SPRING,20905,"REKHI, INC.",Market,Food,39.1111,-76.9947,"(39.1111, -76.9947)",5,5,29,8,1,1
18004,7-ELEVEN #11577,15539 NEW HAMPSHIRE AVE.,,SILVER SPRING,20905,"REKHI, INC.",Market,Food,39.1111,-76.9947,"(39.1111, -76.9947)",5,5,29,8,1,1
17984,7-ELEVEN #11580B,160 ROLLINS AVE,,ROCKVILLE,20852,JG RETAIL CORPORATION,Market,Food,39.0582,-77.1244,"(39.0582, -77.1244)",3,3,25,60,12,1
17984,7-ELEVEN #11580B,160 ROLLINS AVE,,ROCKVILLE,20852,JG RETAIL CORPORATION,Market,Food,39.0582,-77.1244,"(39.0582, -77.1244)",3,3,25,60,12,1
17984,7-ELEVEN #11580B,160 ROLLINS AVE,,ROCKVILLE,20852,JG RETAIL CORPORATION,Market,Food,39.0582,-77.1244,"(39.0582, -77.1244)",3,3,25,60,12,1
22694,7-ELEVEN #11581,10203 NEW HAMPSHIRE AVE.,,SILVER SPRING,20903,"VVORA, INC.",Market,Food,39.0232,-76.9776,"(39.0232, -76.9776)",5,5,11,15,1,1
22694,7-ELEVEN #11581,10203 NEW HAMPSHIRE AVE.,,SILVER SPRING,20903,"VVORA, INC.",Market,Food,39.0232,-76.9776,"(39.0232, -76.9776)",5,5,11,15,1,1
22694,7-ELEVEN #11581,10203 NEW HAMPSHIRE AVE.,,SILVER SPRING,20903,"VVORA, INC.",Market,Food,39.0232,-76.9776,"(39.0232, -76.9776)",5,5,11,15,1,1
22694,7-ELEVEN #11581,10203 NEW HAMPSHIRE AVE.,,SILVER SPRING,20903,"VVORA, INC.",Market,Food,39.0232,-76.9776,"(39.0232, -76.9776)",5,5,11,15,1,1
36931,7-ELEVEN #11586,13251 ATLANTIC AVE.,,ROCKVILLE,20851,KHUSHI TWIN INC,Market,Food,39.0741,-77.1151,"(39.0741, -77.1151)",3,3,25,68,12,1
36931,7-ELEVEN #11586,13251 ATLANTIC AVE.,,ROCKVILLE,20851,KHUSHI TWIN INC,Market,Food,39.0741,-77.1151,"(39.0741, -77.1151)",3,3,25,68,12,1
18031,7-ELEVEN #11590,10594 METROPOLITAN AVE.,,KENSINGTON,20895,BANDESHA CORPORATION,Market,Food,39.0292,-77.0749,"(39.0292, -77.0749)",1,1,15,25,6,1
18031,7-ELEVEN #11590,10594 METROPOLITAN AVE.,,KENSINGTON,20895,BANDESHA CORPORATION,Market,Food,39.0292,-77.0749,"(39.0292, -77.0749)",1,1,15,25,6,1
18031,7-ELEVEN #11590,10594 METROPOLITAN AVE.,,KENSINGTON,20895,BANDESHA CORPORATION,Market,Food,39.0292,-77.0749,"(39.0292, -77.0749)",1,1,15,25,6,1
21,7-ELEVEN #11591,5402 RANDOLPH RD.,,ROCKVILLE,20852,"WHAMI, INC",Market,Food,39.053,-77.1076,"(39.053, -77.1076)",4,4,19,60,1,1
21,7-ELEVEN #11591,5402 RANDOLPH RD.,,ROCKVILLE,20852,"WHAMI, INC",Market,Food,39.053,-77.1076,"(39.053, -77.1076)",4,4,19,60,1,1
21,7-ELEVEN #11591,5402 RANDOLPH RD.,,ROCKVILLE,20852,"WHAMI, INC",Market,Food,39.053,-77.1076,"(39.053, -77.1076)",4,4,19,60,1,1
21,7-ELEVEN #11591,5402 RANDOLPH RD.,,ROCKVILLE,20852,"WHAMI, INC",Market,Food,39.053,-77.1076,"(39.053, -77.1076)",4,4,19,60,1,1
28566,7-ELEVEN #11595,824 BALTIMORE RD,,ROCKVILLE,20851,B2B INC,Market,Food,39.0849,-77.1351,"(39.0849, -77.1351)",3,3,25,68,12,1
28566,7-ELEVEN #11595,824 BALTIMORE RD,,ROCKVILLE,20851,B2B INC,Market,Food,39.0849,-77.1351,"(39.0849, -77.1351)",3,3,25,68,12,1
28566,7-ELEVEN #11595,824 BALTIMORE RD,,ROCKVILLE,20851,B2B INC,Market,Food,39.0849,-77.1351,"(39.0849, -77.1351)",3,3,25,68,12,1
26,7-ELEVEN #11713,14101 GEORGIA AVE.,,SILVER SPRING,20906,"MC MAHON DENT, INC.",Market,Food,39.0853,-77.0778,"(39.0853, -77.0778)",4,4,59,6,1,1
26,7-ELEVEN #11713,14101 GEORGIA AVE.,,SILVER SPRING,20906,"MC MAHON DENT, INC.",Market,Food,39.0853,-77.0778,"(39.0853, -77.0778)",4,4,59,6,1,1
26,7-ELEVEN #11713,14101 GEORGIA AVE.,,SILVER SPRING,20906,"MC MAHON DENT, INC.",Market,Food,39.0853,-77.0778,"(39.0853, -77.0778)",4,4,59,6,1,1
26,7-ELEVEN #11713,14101 GEORGIA AVE.,,SILVER SPRING,20906,"MC MAHON DENT, INC.",Market,Food,39.0853,-77.0778,"(39.0853, -77.0778)",4,4,59,6,1,1
26,7-ELEVEN #11713,14101 GEORGIA AVE.,,SILVER SPRING,20906,"MC MAHON DENT, INC.",Market,Food,39.0853,-77.0778,"(39.0853, -77.0778)",4,4,59,6,1,1
28,7-ELEVEN #11727,5114 RIVER RD,,BETHESDA,20816,"C S MANAGEMENT, INC./7-ELEVEN",Market,Food,38.9635,-77.1025,"(38.9635, -77.1025)",1,1,12,107,1,1
28,7-ELEVEN #11727,5114 RIVER RD,,BETHESDA,20816,"C S MANAGEMENT, INC./7-ELEVEN",Market,Food,38.9635,-77.1025,"(38.9635, -77.1025)",1,1,12,107,1,1
28,7-ELEVEN #11727,5114 RIVER RD,,BETHESDA,20816,"C S MANAGEMENT, INC./7-ELEVEN",Market,Food,38.9635,-77.1025,"(38.9635, -77.1025)",1,1,12,107,1,1
28,7-ELEVEN #11727,5114 RIVER RD,,BETHESDA,20816,"C S MANAGEMENT, INC./7-ELEVEN",Market,Food,38.9635,-77.1025,"(38.9635, -77.1025)",1,1,12,107,1,1
48223,7-ELEVEN #20096,14430 LAYHILL RD.,,SILVER SPRING,20906,ALISHBA ENTERPRISES INC,Market,Food,39.0928,-77.0459,"(39.0928, -77.0459)",4,4,59,6,1,1
29,7-ELEVEN #20096,14430 LAYHILL RD.,,SILVER SPRING,20906,CHUENCHOM SRISAWANGVONG,Market,Food,39.0928,-77.0459,"(39.0928, -77.0459)",4,4,59,6,1,1
29,7-ELEVEN #20096,14430 LAYHILL RD.,,SILVER SPRING,20906,CHUENCHOM SRISAWANGVONG,Market,Food,39.0928,-77.0459,"(39.0928, -77.0459)",4,4,59,6,1,1
29,7-ELEVEN #20096,14430 LAYHILL RD.,,SILVER SPRING,20906,CHUENCHOM SRISAWANGVONG,Market,Food,39.0928,-77.0459,"(39.0928, -77.0459)",4,4,59,6,1,1
29,7-ELEVEN #20096,14430 LAYHILL RD.,,SILVER SPRING,20906,CHUENCHOM SRISAWANGVONG,Market,Food,39.0928,-77.0459,"(39.0928, -77.0459)",4,4,59,6,1,1
29,7-ELEVEN #20096,14430 LAYHILL RD.,,SILVER SPRING,20906,CHUENCHOM SRISAWANGVONG,Market,Food,39.0928,-77.0459,"(39.0928, -77.0459)",4,4,59,6,1,1
29,7-ELEVEN #20096,14430 LAYHILL RD.,,SILVER SPRING,20906,CHUENCHOM SRISAWANGVONG,Market,Food,39.0928,-77.0459,"(39.0928, -77.0459)",4,4,59,6,1,1
29,7-ELEVEN #20096,14430 LAYHILL RD.,,SILVER SPRING,20906,CHUENCHOM SRISAWANGVONG,Market,Food,39.0928,-77.0459,"(39.0928, -77.0459)",4,4,59,6,1,1
30,7-ELEVEN #20294,785 ROCKVILLE PK.,,ROCKVILLE,20852,PHUC INC,Market,Food,39.0767,-77.1413,"(39.0767, -77.1413)",3,3,25,60,12,1
30,7-ELEVEN #20294,785 ROCKVILLE PK.,,ROCKVILLE,20852,PHUC INC,Market,Food,39.0767,-77.1413,"(39.0767, -77.1413)",3,3,25,60,12,1
17807,7-ELEVEN #22053,11445 AMHERST AVE.,,WHEATON,20902,"GIANNA, INC.",Market,Food,39.043,-77.0475,"(39.043, -77.0475)",4,4,16,17,1,1
17807,7-ELEVEN #22053,11445 AMHERST AVE.,,WHEATON,20902,"GIANNA, INC.",Market,Food,39.043,-77.0475,"(39.043, -77.0475)",4,4,16,17,1,1
17807,7-ELEVEN #22053,11445 AMHERST AVE.,,WHEATON,20902,"GIANNA, INC.",Market,Food,39.043,-77.0475,"(39.043, -77.0475)",4,4,16,17,1,1
17807,7-ELEVEN #22053,11445 AMHERST AVE.,,WHEATON,20902,"GIANNA, INC.",Market,Food,39.043,-77.0475,"(39.043, -77.0475)",4,4,16,17,1,1
17977,7-ELEVEN #22921,8101 FENTON ST,,SILVER SPRING,20910,"KUMA MAMIE/7-ELEVEN, INC. #22921",Market,Food,38.9905,-77.0236,"(38.9905, -77.0236)",5,5,7,3065,1,1
17977,7-ELEVEN #22921,8101 FENTON ST,,SILVER SPRING,20910,"KUMA MAMIE/7-ELEVEN, INC. #22921",Market,Food,38.9905,-77.0236,"(38.9905, -77.0236)",5,5,7,3065,1,1
17977,7-ELEVEN #22921,8101 FENTON ST,,SILVER SPRING,20910,"KUMA MAMIE/7-ELEVEN, INC. #22921",Market,Food,38.9905,-77.0236,"(38.9905, -77.0236)",5,5,7,3065,1,1
17977,7-ELEVEN #22921,8101 FENTON ST,,SILVER SPRING,20910,"KUMA MAMIE/7-ELEVEN, INC. #22921",Market,Food,38.9905,-77.0236,"(38.9905, -77.0236)",5,5,7,3065,1,1
17977,7-ELEVEN #22921,8101 FENTON ST,,SILVER SPRING,20910,"KUMA MAMIE/7-ELEVEN, INC. #22921",Market,Food,38.9905,-77.0236,"(38.9905, -77.0236)",5,5,7,3065,1,1
17871,7-ELEVEN #23666,9254 NEW HAMPSHIRE AVE,,SILVER SPRING,20903,FTT COMMERICAL ENTERPRISES INC,Market,Food,39.0066,-76.9809,"(39.0066, -76.9809)",5,5,9,15,1,1
17871,7-ELEVEN #23666,9254 NEW HAMPSHIRE AVE,,SILVER SPRING,20903,FTT COMMERICAL ENTERPRISES INC,Market,Food,39.0066,-76.9809,"(39.0066, -76.9809)",5,5,9,15,1,1
17871,7-ELEVEN #23666,9254 NEW HAMPSHIRE AVE,,SILVER SPRING,20903,FTT COMMERICAL ENTERPRISES INC,Market,Food,39.0066,-76.9809,"(39.0066, -76.9809)",5,5,9,15,1,1
17871,7-ELEVEN #23666,9254 NEW HAMPSHIRE AVE,,SILVER SPRING,20903,FTT COMMERICAL ENTERPRISES INC,Market,Food,39.0066,-76.9809,"(39.0066, -76.9809)",5,5,9,15,1,1
17871,7-ELEVEN #23666,9254 NEW HAMPSHIRE AVE,,SILVER SPRING,20903,FTT COMMERICAL ENTERPRISES INC,Market,Food,39.0066,-76.9809,"(39.0066, -76.9809)",5,5,9,15,1,1
18833,7-ELEVEN #23691,15585 OLD COLUMBIA PK.,,BURTONSVILLE,20866,"MALINA, INC.",Market,Food,39.1105,-76.9329,"(39.1105, -76.9329)",5,5,30,47,1,1
18833,7-ELEVEN #23691,15585 OLD COLUMBIA PK.,,BURTONSVILLE,20866,"MALINA, INC.",Market,Food,39.1105,-76.9329,"(39.1105, -76.9329)",5,5,30,47,1,1
18833,7-ELEVEN #23691,15585 OLD COLUMBIA PK.,,BURTONSVILLE,20866,"MALINA, INC.",Market,Food,39.1105,-76.9329,"(39.1105, -76.9329)",5,5,30,47,1,1
18833,7-ELEVEN #23691,15585 OLD COLUMBIA PK.,,BURTONSVILLE,20866,"MALINA, INC.",Market,Food,39.1105,-76.9329,"(39.1105, -76.9329)",5,5,30,47,1,1
18833,7-ELEVEN #23691,15585 OLD COLUMBIA PK.,,BURTONSVILLE,20866,"MALINA, INC.",Market,Food,39.1105,-76.9329,"(39.1105, -76.9329)",5,5,30,47,1,1
18833,7-ELEVEN #23691,15585 OLD COLUMBIA PK.,,BURTONSVILLE,20866,"MALINA, INC.",Market,Food,39.1105,-76.9329,"(39.1105, -76.9329)",5,5,30,47,1,1
18833,7-ELEVEN #23691,15585 OLD COLUMBIA PK.,,BURTONSVILLE,20866,"MALINA, INC.",Market,Food,39.1105,-76.9329,"(39.1105, -76.9329)",5,5,30,47,1,1
18833,7-ELEVEN #23691,15585 OLD COLUMBIA PK.,,BURTONSVILLE,20866,"MALINA, INC.",Market,Food,39.1105,-76.9329,"(39.1105, -76.9329)",5,5,30,47,1,1
18231,7-ELEVEN #23693,15821 FREDERICK RD,,DERWOOD,20855,NIMAL PREMATNE,Market,Food,39.1157,-77.1655,"(39.1157, -77.1655)",3,3,27,51,1,1
18231,7-ELEVEN #23693,15821 FREDERICK RD,,DERWOOD,20855,NIMAL PREMATNE,Market,Food,39.1157,-77.1655,"(39.1157, -77.1655)",3,3,27,51,1,1
18231,7-ELEVEN #23693,15821 FREDERICK RD,,DERWOOD,20855,NIMAL PREMATNE,Market,Food,39.1157,-77.1655,"(39.1157, -77.1655)",3,3,27,51,1,1
18231,7-ELEVEN #23693,15821 FREDERICK RD,,DERWOOD,20855,NIMAL PREMATNE,Market,Food,39.1157,-77.1655,"(39.1157, -77.1655)",3,3,27,51,1,1
18250,7-ELEVEN #23696,650 UNIVERSITY BLVD E,,SILVER SPRING,20901,YOHANA INC,Market,Food,39.0002,-76.9949,"(39.0002, -76.9949)",5,5,8,15,1,1
18250,7-ELEVEN #23696,650 UNIVERSITY BLVD E,,SILVER SPRING,20901,YOHANA INC,Market,Food,39.0002,-76.9949,"(39.0002, -76.9949)",5,5,8,15,1,1
18250,7-ELEVEN #23696,650 UNIVERSITY BLVD E,,SILVER SPRING,20901,YOHANA INC,Market,Food,39.0002,-76.9949,"(39.0002, -76.9949)",5,5,8,15,1,1
18250,7-ELEVEN #23696,650 UNIVERSITY BLVD E,,SILVER SPRING,20901,YOHANA INC,Market,Food,39.0002,-76.9949,"(39.0002, -76.9949)",5,5,8,15,1,1
18250,7-ELEVEN #23696,650 UNIVERSITY BLVD E,,SILVER SPRING,20901,YOHANA INC,Market,Food,39.0002,-76.9949,"(39.0002, -76.9949)",5,5,8,15,1,1
18250,7-ELEVEN #23696,650 UNIVERSITY BLVD E,,SILVER SPRING,20901,YOHANA INC,Market,Food,39.0002,-76.9949,"(39.0002, -76.9949)",5,5,8,15,1,1
18250,7-ELEVEN #23696,650 UNIVERSITY BLVD E,,SILVER SPRING,20901,YOHANA INC,Market,Food,39.0002,-76.9949,"(39.0002, -76.9949)",5,5,8,15,1,1
17746,7-ELEVEN #23706,3507 UNIVERSITY BLVD W,,KENSINGTON,20895,"GIANNA, INC.",Market,Food,39.0347,-77.0715,"(39.0347, -77.0715)",1,1,15,25,1,1
17746,7-ELEVEN #23706,3507 UNIVERSITY BLVD W,,KENSINGTON,20895,"GIANNA, INC.",Market,Food,39.0347,-77.0715,"(39.0347, -77.0715)",1,1,15,25,1,1
17746,7-ELEVEN #23706,3507 UNIVERSITY BLVD W,,KENSINGTON,20895,"GIANNA, INC.",Market,Food,39.0347,-77.0715,"(39.0347, -77.0715)",1,1,15,25,1,1
17746,7-ELEVEN #23706,3507 UNIVERSITY BLVD W,,KENSINGTON,20895,"GIANNA, INC.",Market,Food,39.0347,-77.0715,"(39.0347, -77.0715)",1,1,15,25,1,1
17746,7-ELEVEN #23706,3507 UNIVERSITY BLVD W,,KENSINGTON,20895,"GIANNA, INC.",Market,Food,39.0347,-77.0715,"(39.0347, -77.0715)",1,1,15,25,1,1
37,7-ELEVEN #25403,13401 NEW HAMPSHIRE AVE,,SILVER SPRING,20904,"KHUNYA, INC.",Market,Food,39.076,-77.0013,"(39.076, -77.0013)",5,5,26,12,1,1
37,7-ELEVEN #25403,13401 NEW HAMPSHIRE AVE,,SILVER SPRING,20904,"KHUNYA, INC.",Market,Food,39.076,-77.0013,"(39.076, -77.0013)",5,5,26,12,1,1
37,7-ELEVEN #25403,13401 NEW HAMPSHIRE AVE,,SILVER SPRING,20904,"KHUNYA, INC.",Market,Food,39.076,-77.0013,"(39.076, -77.0013)",5,5,26,12,1,1
37,7-ELEVEN #25403,13401 NEW HAMPSHIRE AVE,,SILVER SPRING,20904,"KHUNYA, INC.",Market,Food,39.076,-77.0013,"(39.076, -77.0013)",5,5,26,12,1,1
38,7-ELEVEN #25667,2 UNIVERSITY BLVD W,,SILVER SPRING,20901,"VMP, INC./7-ELEVEN #25667-2541",Market,Food,39.0202,-77.0133,"(39.0202, -77.0133)",5,5,13,21,1,1
38,7-ELEVEN #25667,2 UNIVERSITY BLVD W,,SILVER SPRING,20901,"VMP, INC./7-ELEVEN #25667-2541",Market,Food,39.0202,-77.0133,"(39.0202, -77.0133)",5,5,13,21,1,1
38,7-ELEVEN #25667,2 UNIVERSITY BLVD W,,SILVER SPRING,20901,"VMP, INC./7-ELEVEN #25667-2541",Market,Food,39.0202,-77.0133,"(39.0202, -77.0133)",5,5,13,21,1,1
38,7-ELEVEN #25667,2 UNIVERSITY BLVD W,,SILVER SPRING,20901,"VMP, INC./7-ELEVEN #25667-2541",Market,Food,39.0202,-77.0133,"(39.0202, -77.0133)",5,5,13,21,1,1
38,7-ELEVEN #25667,2 UNIVERSITY BLVD W,,SILVER SPRING,20901,"VMP, INC./7-ELEVEN #25667-2541",Market,Food,39.0202,-77.0133,"(39.0202, -77.0133)",5,5,13,21,1,1
35683,7-ELEVEN #26360,6848 OLNEY LAYTONSVILLE RD,,LAYTONSVILLE,20882,SHEREE GANESHA CORP,Market,Food,39.2044,-77.1402,"(39.2044, -77.1402)",4,4,46,29,22,1
35683,7-ELEVEN #26360,6848 OLNEY LAYTONSVILLE RD,,LAYTONSVILLE,20882,SHEREE GANESHA CORP,Market,Food,39.2044,-77.1402,"(39.2044, -77.1402)",4,4,46,29,22,1
35683,7-ELEVEN #26360,6848 OLNEY LAYTONSVILLE RD,,LAYTONSVILLE,20882,SHEREE GANESHA CORP,Market,Food,39.2044,-77.1402,"(39.2044, -77.1402)",4,4,46,29,22,1
35683,7-ELEVEN #26360,6848 OLNEY LAYTONSVILLE RD,,LAYTONSVILLE,20882,SHEREE GANESHA CORP,Market,Food,39.2044,-77.1402,"(39.2044, -77.1402)",4,4,46,29,22,1
35683,7-ELEVEN #26360,6848 OLNEY LAYTONSVILLE RD,,LAYTONSVILLE,20882,SHEREE GANESHA CORP,Market,Food,39.2044,-77.1402,"(39.2044, -77.1402)",4,4,46,29,22,1
26851,7-ELEVEN #26881,8035 SNOUFFER SCHOOL RD,STE J,GAITHERSBURG,20879,RSM GROUP INC,Market,Food,39.1611,-77.1628,"(39.1611, -77.1628)",4,4,36,31,1,1
26851,7-ELEVEN #26881,8035 SNOUFFER SCHOOL RD,STE J,GAITHERSBURG,20879,RSM GROUP INC,Market,Food,39.1611,-77.1628,"(39.1611, -77.1628)",4,4,36,31,1,1
26851,7-ELEVEN #26881,8035 SNOUFFER SCHOOL RD,STE J,GAITHERSBURG,20879,RSM GROUP INC,Market,Food,39.1611,-77.1628,"(39.1611, -77.1628)",4,4,36,31,1,1
26851,7-ELEVEN #26881,8035 SNOUFFER SCHOOL RD,STE J,GAITHERSBURG,20879,RSM GROUP INC,Market,Food,39.1611,-77.1628,"(39.1611, -77.1628)",4,4,36,31,1,1
26851,7-ELEVEN #26881,8035 SNOUFFER SCHOOL RD,STE J,GAITHERSBURG,20879,RSM GROUP INC,Market,Food,39.1611,-77.1628,"(39.1611, -77.1628)",4,4,36,31,1,1
38459,7-ELEVEN #26997,29 OLNEY-SANDY SPRING RD.,,ASHTON,20861,JIVAN PAUDEL INC,Market,Food,39.1498,-77.0136,"(39.1498, -77.0136)",4,4,35,49,1,1
38459,7-ELEVEN #26997,29 OLNEY-SANDY SPRING RD.,,ASHTON,20861,JIVAN PAUDEL INC,Market,Food,39.1498,-77.0136,"(39.1498, -77.0136)",4,4,35,49,1,1
38459,7-ELEVEN #26997,29 OLNEY-SANDY SPRING RD.,,ASHTON,20861,JIVAN PAUDEL INC,Market,Food,39.1498,-77.0136,"(39.1498, -77.0136)",4,4,35,49,1,1
38459,7-ELEVEN #26997,29 OLNEY-SANDY SPRING RD.,,ASHTON,20861,JIVAN PAUDEL INC,Market,Food,39.1498,-77.0136,"(39.1498, -77.0136)",4,4,35,49,1,1
29254,7-ELEVEN #27368B,26344 RIDGE RD,,DAMASCUS,20872,MBD SALES INC,Market,Food,39.2893,-77.2053,"(39.2893, -77.2053)",2,2,51,42,1,1
29254,7-ELEVEN #27368B,26344 RIDGE RD,,DAMASCUS,20872,MBD SALES INC,Market,Food,39.2893,-77.2053,"(39.2893, -77.2053)",2,2,51,42,1,1
29254,7-ELEVEN #27368B,26344 RIDGE RD,,DAMASCUS,20872,MBD SALES INC,Market,Food,39.2893,-77.2053,"(39.2893, -77.2053)",2,2,51,42,1,1
29254,7-ELEVEN #27368B,26344 RIDGE RD,,DAMASCUS,20872,MBD SALES INC,Market,Food,39.2893,-77.2053,"(39.2893, -77.2053)",2,2,51,42,1,1
29254,7-ELEVEN #27368B,26344 RIDGE RD,,DAMASCUS,20872,MBD SALES INC,Market,Food,39.2893,-77.2053,"(39.2893, -77.2053)",2,2,51,42,1,1
29254,7-ELEVEN #27368B,26344 RIDGE RD,,DAMASCUS,20872,MBD SALES INC,Market,Food,39.2893,-77.2053,"(39.2893, -77.2053)",2,2,51,42,1,1
29254,7-ELEVEN #27368B,26344 RIDGE RD,,DAMASCUS,20872,MBD SALES INC,Market,Food,39.2893,-77.2053,"(39.2893, -77.2053)",2,2,51,42,1,1
29254,7-ELEVEN #27368B,26344 RIDGE RD,,DAMASCUS,20872,MBD SALES INC,Market,Food,39.2893,-77.2053,"(39.2893, -77.2053)",2,2,51,42,1,1
38460,7-ELEVEN #27591D,19700 FREDERICK RD,,GERMANTOWN,20874,TALEJU LLC,Market,Food,39.1786,-77.2392,"(39.1786, -77.2392)",2,2,39,36,1,1
38460,7-ELEVEN #27591D,19700 FREDERICK RD,,GERMANTOWN,20874,TALEJU LLC,Market,Food,39.1786,-77.2392,"(39.1786, -77.2392)",2,2,39,36,1,1
38460,7-ELEVEN #27591D,19700 FREDERICK RD,,GERMANTOWN,20874,TALEJU LLC,Market,Food,39.1786,-77.2392,"(39.1786, -77.2392)",2,2,39,36,1,1
38460,7-ELEVEN #27591D,19700 FREDERICK RD,,GERMANTOWN,20874,TALEJU LLC,Market,Food,39.1786,-77.2392,"(39.1786, -77.2392)",2,2,39,36,1,1
38460,7-ELEVEN #27591D,19700 FREDERICK RD,,GERMANTOWN,20874,TALEJU LLC,Market,Food,39.1786,-77.2392,"(39.1786, -77.2392)",2,2,39,36,1,1
30738,7-ELEVEN #27669C,19786 CRYSTAL ROCK DR,,GERMANTOWN,20874,VANDAN INC,Market,Food,39.1801,-77.2623,"(39.1801, -77.2623)",2,2,39,39,1,1
30738,7-ELEVEN #27669C,19786 CRYSTAL ROCK DR,,GERMANTOWN,20874,VANDAN INC,Market,Food,39.1801,-77.2623,"(39.1801, -77.2623)",2,2,39,39,1,1
30738,7-ELEVEN #27669C,19786 CRYSTAL ROCK DR,,GERMANTOWN,20874,VANDAN INC,Market,Food,39.1801,-77.2623,"(39.1801, -77.2623)",2,2,39,39,1,1
30738,7-ELEVEN #27669C,19786 CRYSTAL ROCK DR,,GERMANTOWN,20874,VANDAN INC,Market,Food,39.1801,-77.2623,"(39.1801, -77.2623)",2,2,39,39,1,1
30738,7-ELEVEN #27669C,19786 CRYSTAL ROCK DR,,GERMANTOWN,20874,VANDAN INC,Market,Food,39.1801,-77.2623,"(39.1801, -77.2623)",2,2,39,39,1,1
18002,7-ELEVEN #28808,"1301 UNIVERSITY BLVD., E.",,TAKOMA PARK,20912,ABESS INC,Market,Food,38.9882,-76.9873,"(38.9882, -76.9873)",5,5,4,3062,11,1
18002,7-ELEVEN #28808,"1301 UNIVERSITY BLVD., E.",,TAKOMA PARK,20912,ABESS INC,Market,Food,38.9882,-76.9873,"(38.9882, -76.9873)",5,5,4,3062,11,1
18002,7-ELEVEN #28808,"1301 UNIVERSITY BLVD., E.",,TAKOMA PARK,20912,ABESS INC,Market,Food,38.9882,-76.9873,"(38.9882, -76.9873)",5,5,4,3062,11,1
18002,7-ELEVEN #28808,"1301 UNIVERSITY BLVD., E.",,TAKOMA PARK,20912,ABESS INC,Market,Food,38.9882,-76.9873,"(38.9882, -76.9873)",5,5,4,3062,11,1
18002,7-ELEVEN #28808,"1301 UNIVERSITY BLVD., E.",,TAKOMA PARK,20912,ABESS INC,Market,Food,38.9882,-76.9873,"(38.9882, -76.9873)",5,5,4,3062,11,1
17707,7-ELEVEN #28813,19235 WATKINS MILL RD.,,GAITHERSBURG,20886,"MANAN, INC./RAHMAN MANAN",Market,Food,39.1722,-77.2057,"(39.1722, -77.2057)",2,2,38,28,1,1
17707,7-ELEVEN #28813,19235 WATKINS MILL RD.,,GAITHERSBURG,20886,"MANAN, INC./RAHMAN MANAN",Market,Food,39.1722,-77.2057,"(39.1722, -77.2057)",2,2,38,28,1,1
17707,7-ELEVEN #28813,19235 WATKINS MILL RD.,,GAITHERSBURG,20886,"MANAN, INC./RAHMAN MANAN",Market,Food,39.1722,-77.2057,"(39.1722, -77.2057)",2,2,38,28,1,1
49,7-ELEVEN #28823,10524 CONNECTICUT AVE.,,KENSINGTON,20895,"IBY, INC.",Market,Food,39.0279,-77.0769,"(39.0279, -77.0769)",1,1,15,25,6,1
49,7-ELEVEN #28823,10524 CONNECTICUT AVE.,,KENSINGTON,20895,"IBY, INC.",Market,Food,39.0279,-77.0769,"(39.0279, -77.0769)",1,1,15,25,6,1
49,7-ELEVEN #28823,10524 CONNECTICUT AVE.,,KENSINGTON,20895,"IBY, INC.",Market,Food,39.0279,-77.0769,"(39.0279, -77.0769)",1,1,15,25,6,1
49,7-ELEVEN #28823,10524 CONNECTICUT AVE.,,KENSINGTON,20895,"IBY, INC.",Market,Food,39.0279,-77.0769,"(39.0279, -77.0769)",1,1,15,25,6,1
17891,7-ELEVEN #28838,11303 LOCKWOOD DR.,,SILVER SPRING,20904,MUSA BADAWAY,Market,Food,39.0399,-76.9893,"(39.0399, -76.9893)",5,5,18,12,1,1
17891,7-ELEVEN #28838,11303 LOCKWOOD DR.,,SILVER SPRING,20904,MUSA BADAWAY,Market,Food,39.0399,-76.9893,"(39.0399, -76.9893)",5,5,18,12,1,1
17891,7-ELEVEN #28838,11303 LOCKWOOD DR.,,SILVER SPRING,20904,MUSA BADAWAY,Market,Food,39.0399,-76.9893,"(39.0399, -76.9893)",5,5,18,12,1,1
17891,7-ELEVEN #28838,11303 LOCKWOOD DR.,,SILVER SPRING,20904,MUSA BADAWAY,Market,Food,39.0399,-76.9893,"(39.0399, -76.9893)",5,5,18,12,1,1
17891,7-ELEVEN #28838,11303 LOCKWOOD DR.,,SILVER SPRING,20904,MUSA BADAWAY,Market,Food,39.0399,-76.9893,"(39.0399, -76.9893)",5,5,18,12,1,1
37223,7-ELEVEN #28840C,7305 MAC ARTHUR BLVD,,BETHESDA,20816,PURPL BERRI LLC,Market,Food,38.9694,-77.1387,"(38.9694, -77.1387)",1,1,12,107,1,1
37223,7-ELEVEN #28840C,7305 MAC ARTHUR BLVD,,BETHESDA,20816,PURPL BERRI LLC,Market,Food,38.9694,-77.1387,"(38.9694, -77.1387)",1,1,12,107,1,1
17884,7-ELEVEN #28862,10020 DARNESTOWN RD.,,ROCKVILLE,20850,BOKHARI CORPORATION,Market,Food,39.096,-77.2063,"(39.096, -77.2063)",3,3,24,71,1,1
17884,7-ELEVEN #28862,10020 DARNESTOWN RD.,,ROCKVILLE,20850,BOKHARI CORPORATION,Market,Food,39.096,-77.2063,"(39.096, -77.2063)",3,3,24,71,1,1
17884,7-ELEVEN #28862,10020 DARNESTOWN RD.,,ROCKVILLE,20850,BOKHARI CORPORATION,Market,Food,39.096,-77.2063,"(39.096, -77.2063)",3,3,24,71,1,1
29395,7-ELEVEN #28864C,13001 WISTERIA DR,,GERMANTOWN,20874,PR BANSAL CORP,Market,Food,39.1786,-77.2703,"(39.1786, -77.2703)",2,2,39,39,1,1
29395,7-ELEVEN #28864C,13001 WISTERIA DR,,GERMANTOWN,20874,PR BANSAL CORP,Market,Food,39.1786,-77.2703,"(39.1786, -77.2703)",2,2,39,39,1,1
29395,7-ELEVEN #28864C,13001 WISTERIA DR,,GERMANTOWN,20874,PR BANSAL CORP,Market,Food,39.1786,-77.2703,"(39.1786, -77.2703)",2,2,39,39,1,1
29395,7-ELEVEN #28864C,13001 WISTERIA DR,,GERMANTOWN,20874,PR BANSAL CORP,Market,Food,39.1786,-77.2703,"(39.1786, -77.2703)",2,2,39,39,1,1
20659,7-ELEVEN #28903B,1319 FENWICK LANE,,SILVER SPRING,20910,SISAY BIRKE,Market,Food,38.9978,-77.0316,"(38.9978, -77.0316)",5,5,7,3065,1,1
20659,7-ELEVEN #28903B,1319 FENWICK LANE,,SILVER SPRING,20910,SISAY BIRKE,Market,Food,38.9978,-77.0316,"(38.9978, -77.0316)",5,5,7,3065,1,1
20659,7-ELEVEN #28903B,1319 FENWICK LANE,,SILVER SPRING,20910,SISAY BIRKE,Market,Food,38.9978,-77.0316,"(38.9978, -77.0316)",5,5,7,3065,1,1
20659,7-ELEVEN #28903B,1319 FENWICK LANE,,SILVER SPRING,20910,SISAY BIRKE,Market,Food,38.9978,-77.0316,"(38.9978, -77.0316)",5,5,7,3065,1,1
20659,7-ELEVEN #28903B,1319 FENWICK LANE,,SILVER SPRING,20910,SISAY BIRKE,Market,Food,38.9978,-77.0316,"(38.9978, -77.0316)",5,5,7,3065,1,1
20659,7-ELEVEN #28903B,1319 FENWICK LANE,,SILVER SPRING,20910,SISAY BIRKE,Market,Food,38.9978,-77.0316,"(38.9978, -77.0316)",5,5,7,3065,1,1
20659,7-ELEVEN #28903B,1319 FENWICK LANE,,SILVER SPRING,20910,SISAY BIRKE,Market,Food,38.9978,-77.0316,"(38.9978, -77.0316)",5,5,7,3065,1,1
20659,7-ELEVEN #28903B,1319 FENWICK LANE,,SILVER SPRING,20910,SISAY BIRKE,Market,Food,38.9978,-77.0316,"(38.9978, -77.0316)",5,5,7,3065,1,1
20659,7-ELEVEN #28903B,1319 FENWICK LANE,,SILVER SPRING,20910,SISAY BIRKE,Market,Food,38.9978,-77.0316,"(38.9978, -77.0316)",5,5,7,3065,1,1
20659,7-ELEVEN #28903B,1319 FENWICK LANE,,SILVER SPRING,20910,SISAY BIRKE,Market,Food,38.9978,-77.0316,"(38.9978, -77.0316)",5,5,7,3065,1,1
20659,7-ELEVEN #28903B,1319 FENWICK LANE,,SILVER SPRING,20910,SISAY BIRKE,Market,Food,38.9978,-77.0316,"(38.9978, -77.0316)",5,5,7,3065,1,1
29255,7-ELEVEN #29216B,13880 OLD COLUMBIA PIKE,,SILVER SPRING,20904,YONATA KABA INC,Market,Food,39.0844,-76.9521,"(39.0844, -76.9521)",5,5,53,12,1,1
29255,7-ELEVEN #29216B,13880 OLD COLUMBIA PIKE,,SILVER SPRING,20904,YONATA KABA INC,Market,Food,39.0844,-76.9521,"(39.0844, -76.9521)",5,5,53,12,1,1
29255,7-ELEVEN #29216B,13880 OLD COLUMBIA PIKE,,SILVER SPRING,20904,YONATA KABA INC,Market,Food,39.0844,-76.9521,"(39.0844, -76.9521)",5,5,53,12,1,1
29255,7-ELEVEN #29216B,13880 OLD COLUMBIA PIKE,,SILVER SPRING,20904,YONATA KABA INC,Market,Food,39.0844,-76.9521,"(39.0844, -76.9521)",5,5,53,12,1,1
29255,7-ELEVEN #29216B,13880 OLD COLUMBIA PIKE,,SILVER SPRING,20904,YONATA KABA INC,Market,Food,39.0844,-76.9521,"(39.0844, -76.9521)",5,5,53,12,1,1
17607,7-ELEVEN #29763,11530-G ROCKVILLE PK.,,ROCKVILLE,20852,ASHFAQ H. SHAH/7-ELEVEN/AB AND SONS CORP.,Market,Food,39.0458,-77.1129,"(39.0458, -77.1129)",1,1,19,60,1,1
17607,7-ELEVEN #29763,11530-G ROCKVILLE PK.,,ROCKVILLE,20852,ASHFAQ H. SHAH/7-ELEVEN/AB AND SONS CORP.,Market,Food,39.0458,-77.1129,"(39.0458, -77.1129)",1,1,19,60,1,1
17607,7-ELEVEN #29763,11530-G ROCKVILLE PK.,,ROCKVILLE,20852,ASHFAQ H. SHAH/7-ELEVEN/AB AND SONS CORP.,Market,Food,39.0458,-77.1129,"(39.0458, -77.1129)",1,1,19,60,1,1
17607,7-ELEVEN #29763,11530-G ROCKVILLE PK.,,ROCKVILLE,20852,ASHFAQ H. SHAH/7-ELEVEN/AB AND SONS CORP.,Market,Food,39.0458,-77.1129,"(39.0458, -77.1129)",1,1,19,60,1,1
17607,7-ELEVEN #29763,11530-G ROCKVILLE PK.,,ROCKVILLE,20852,ASHFAQ H. SHAH/7-ELEVEN/AB AND SONS CORP.,Market,Food,39.0458,-77.1129,"(39.0458, -77.1129)",1,1,19,60,1,1
17607,7-ELEVEN #29763,11530-G ROCKVILLE PK.,,ROCKVILLE,20852,ASHFAQ H. SHAH/7-ELEVEN/AB AND SONS CORP.,Market,Food,39.0458,-77.1129,"(39.0458, -77.1129)",1,1,19,60,1,1
17607,7-ELEVEN #29763,11530-G ROCKVILLE PK.,,ROCKVILLE,20852,ASHFAQ H. SHAH/7-ELEVEN/AB AND SONS CORP.,Market,Food,39.0458,-77.1129,"(39.0458, -77.1129)",1,1,19,60,1,1
18623,7-ELEVEN #32389,7980 GEORGIA AVE,,SILVER SPRING,20910,"TEFERA, INC.",Market,Food,38.9861,-77.0272,"(38.9861, -77.0272)",5,5,7,3065,1,1
18623,7-ELEVEN #32389,7980 GEORGIA AVE,,SILVER SPRING,20910,"TEFERA, INC.",Market,Food,38.9861,-77.0272,"(38.9861, -77.0272)",5,5,7,3065,1,1
18623,7-ELEVEN #32389,7980 GEORGIA AVE,,SILVER SPRING,20910,"TEFERA, INC.",Market,Food,38.9861,-77.0272,"(38.9861, -77.0272)",5,5,7,3065,1,1
18623,7-ELEVEN #32389,7980 GEORGIA AVE,,SILVER SPRING,20910,"TEFERA, INC.",Market,Food,38.9861,-77.0272,"(38.9861, -77.0272)",5,5,7,3065,1,1
18623,7-ELEVEN #32389,7980 GEORGIA AVE,,SILVER SPRING,20910,"TEFERA, INC.",Market,Food,38.9861,-77.0272,"(38.9861, -77.0272)",5,5,7,3065,1,1
39881,7-ELEVEN #32879C,3 PROFESSIONAL DRIVE,,GAITHERSBURG,20879,"BTT, LLC",Market,Food,39.1631,-77.2266,"(39.1631, -77.2266)",3,3,36,31,21,1
39881,7-ELEVEN #32879C,3 PROFESSIONAL DRIVE,,GAITHERSBURG,20879,"BTT, LLC",Market,Food,39.1631,-77.2266,"(39.1631, -77.2266)",3,3,36,31,21,1
39881,7-ELEVEN #32879C,3 PROFESSIONAL DRIVE,,GAITHERSBURG,20879,"BTT, LLC",Market,Food,39.1631,-77.2266,"(39.1631, -77.2266)",3,3,36,31,21,1
39881,7-ELEVEN #32879C,3 PROFESSIONAL DRIVE,,GAITHERSBURG,20879,"BTT, LLC",Market,Food,39.1631,-77.2266,"(39.1631, -77.2266)",3,3,36,31,21,1
39881,7-ELEVEN #32879C,3 PROFESSIONAL DRIVE,,GAITHERSBURG,20879,"BTT, LLC",Market,Food,39.1631,-77.2266,"(39.1631, -77.2266)",3,3,36,31,21,1
26502,7-ELEVEN #32882,12861 CLOPPER RD,,GERMANTOWN,20874,KAY-TEE'S CORPORATION,Market,Food,39.1567,-77.2661,"(39.1567, -77.2661)",2,2,39,39,1,1
26502,7-ELEVEN #32882,12861 CLOPPER RD,,GERMANTOWN,20874,KAY-TEE'S CORPORATION,Market,Food,39.1567,-77.2661,"(39.1567, -77.2661)",2,2,39,39,1,1
26502,7-ELEVEN #32882,12861 CLOPPER RD,,GERMANTOWN,20874,KAY-TEE'S CORPORATION,Market,Food,39.1567,-77.2661,"(39.1567, -77.2661)",2,2,39,39,1,1
26502,7-ELEVEN #32882,12861 CLOPPER RD,,GERMANTOWN,20874,KAY-TEE'S CORPORATION,Market,Food,39.1567,-77.2661,"(39.1567, -77.2661)",2,2,39,39,1,1
26502,7-ELEVEN #32882,12861 CLOPPER RD,,GERMANTOWN,20874,KAY-TEE'S CORPORATION,Market,Food,39.1567,-77.2661,"(39.1567, -77.2661)",2,2,39,39,1,1
18469,7-ELEVEN #32961,9051 SNOUFFER SCHOOL RD.,,GAITHERSBURG,20879,"NITI, INC.",Market,Food,39.1873,-77.1854,"(39.1873, -77.1854)",2,2,38,28,1,1
18469,7-ELEVEN #32961,9051 SNOUFFER SCHOOL RD.,,GAITHERSBURG,20879,"NITI, INC.",Market,Food,39.1873,-77.1854,"(39.1873, -77.1854)",2,2,38,28,1,1
18469,7-ELEVEN #32961,9051 SNOUFFER SCHOOL RD.,,GAITHERSBURG,20879,"NITI, INC.",Market,Food,39.1873,-77.1854,"(39.1873, -77.1854)",2,2,38,28,1,1
18469,7-ELEVEN #32961,9051 SNOUFFER SCHOOL RD.,,GAITHERSBURG,20879,"NITI, INC.",Market,Food,39.1873,-77.1854,"(39.1873, -77.1854)",2,2,38,28,1,1
18469,7-ELEVEN #32961,9051 SNOUFFER SCHOOL RD.,,GAITHERSBURG,20879,"NITI, INC.",Market,Food,39.1873,-77.1854,"(39.1873, -77.1854)",2,2,38,28,1,1
18518,7-ELEVEN #32967,19412 WALTER JOHNSON RD.,,GERMANTOWN,20874,"HOLT ENTERPRISES, INC.",Market,Food,39.1753,-77.271,"(39.1753, -77.271)",2,2,39,39,1,1
18518,7-ELEVEN #32967,19412 WALTER JOHNSON RD.,,GERMANTOWN,20874,"HOLT ENTERPRISES, INC.",Market,Food,39.1753,-77.271,"(39.1753, -77.271)",2,2,39,39,1,1
18518,7-ELEVEN #32967,19412 WALTER JOHNSON RD.,,GERMANTOWN,20874,"HOLT ENTERPRISES, INC.",Market,Food,39.1753,-77.271,"(39.1753, -77.271)",2,2,39,39,1,1
18518,7-ELEVEN #32967,19412 WALTER JOHNSON RD.,,GERMANTOWN,20874,"HOLT ENTERPRISES, INC.",Market,Food,39.1753,-77.271,"(39.1753, -77.271)",2,2,39,39,1,1
28613,7-ELEVEN #32997,779 HUNGERFORD DR,,ROCKVILLE,20850,TILAHUN FAMILY INC,Market,Food,39.0939,-77.1528,"(39.0939, -77.1528)",3,3,25,71,12,1
28613,7-ELEVEN #32997,779 HUNGERFORD DR,,ROCKVILLE,20850,TILAHUN FAMILY INC,Market,Food,39.0939,-77.1528,"(39.0939, -77.1528)",3,3,25,71,12,1
28613,7-ELEVEN #32997,779 HUNGERFORD DR,,ROCKVILLE,20850,TILAHUN FAMILY INC,Market,Food,39.0939,-77.1528,"(39.0939, -77.1528)",3,3,25,71,12,1
17522,7-ELEVEN #33215,7820 WISCONSIN AVE.,,BETHESDA,20814,"WHAMI, INC.",Market,Food,38.9887,-77.0954,"(38.9887, -77.0954)",1,1,12,111,1,1
17522,7-ELEVEN #33215,7820 WISCONSIN AVE.,,BETHESDA,20814,"WHAMI, INC.",Market,Food,38.9887,-77.0954,"(38.9887, -77.0954)",1,1,12,111,1,1
17522,7-ELEVEN #33215,7820 WISCONSIN AVE.,,BETHESDA,20814,"WHAMI, INC.",Market,Food,38.9887,-77.0954,"(38.9887, -77.0954)",1,1,12,111,1,1
17522,7-ELEVEN #33215,7820 WISCONSIN AVE.,,BETHESDA,20814,"WHAMI, INC.",Market,Food,38.9887,-77.0954,"(38.9887, -77.0954)",1,1,12,111,1,1
17522,7-ELEVEN #33215,7820 WISCONSIN AVE.,,BETHESDA,20814,"WHAMI, INC.",Market,Food,38.9887,-77.0954,"(38.9887, -77.0954)",1,1,12,111,1,1
17927,7-ELEVEN #33250,9900-A KEY WEST AVE,,ROCKVILLE,20850,AZANA INC.,Market,Food,39.1009,-77.2116,"(39.1009, -77.2116)",3,3,25,71,1,1
17927,7-ELEVEN #33250,9900-A KEY WEST AVE,,ROCKVILLE,20850,AZANA INC.,Market,Food,39.1009,-77.2116,"(39.1009, -77.2116)",3,3,25,71,1,1
17927,7-ELEVEN #33250,9900-A KEY WEST AVE,,ROCKVILLE,20850,AZANA INC.,Market,Food,39.1009,-77.2116,"(39.1009, -77.2116)",3,3,25,71,1,1
17927,7-ELEVEN #33250,9900-A KEY WEST AVE,,ROCKVILLE,20850,AZANA INC.,Market,Food,39.1009,-77.2116,"(39.1009, -77.2116)",3,3,25,71,1,1
19316,7-ELEVEN #33558,259 DERWOOD CIR,,ROCKVILLE,20850,"PATCHARA, INC",Market,Food,39.1062,-77.1527,"(39.1062, -77.1527)",3,3,27,71,1,1
19316,7-ELEVEN #33558,259 DERWOOD CIR,,ROCKVILLE,20850,"PATCHARA, INC",Market,Food,39.1062,-77.1527,"(39.1062, -77.1527)",3,3,27,71,1,1
19316,7-ELEVEN #33558,259 DERWOOD CIR,,ROCKVILLE,20850,"PATCHARA, INC",Market,Food,39.1062,-77.1527,"(39.1062, -77.1527)",3,3,27,71,1,1
19316,7-ELEVEN #33558,259 DERWOOD CIR,,ROCKVILLE,20850,"PATCHARA, INC",Market,Food,39.1062,-77.1527,"(39.1062, -77.1527)",3,3,27,71,1,1
20778,7-ELEVEN #34140,21040 HENDERSON CORNER RD.,,GERMANTOWN,20876,AMIA CORPORATION,Market,Food,39.2046,-77.2441,"(39.2046, -77.2441)",2,2,39,36,1,1
20778,7-ELEVEN #34140,21040 HENDERSON CORNER RD.,,GERMANTOWN,20876,AMIA CORPORATION,Market,Food,39.2046,-77.2441,"(39.2046, -77.2441)",2,2,39,36,1,1
20778,7-ELEVEN #34140,21040 HENDERSON CORNER RD.,,GERMANTOWN,20876,AMIA CORPORATION,Market,Food,39.2046,-77.2441,"(39.2046, -77.2441)",2,2,39,36,1,1
20778,7-ELEVEN #34140,21040 HENDERSON CORNER RD.,,GERMANTOWN,20876,AMIA CORPORATION,Market,Food,39.2046,-77.2441,"(39.2046, -77.2441)",2,2,39,36,1,1
20778,7-ELEVEN #34140,21040 HENDERSON CORNER RD.,,GERMANTOWN,20876,AMIA CORPORATION,Market,Food,39.2046,-77.2441,"(39.2046, -77.2441)",2,2,39,36,1,1
20778,7-ELEVEN #34140,21040 HENDERSON CORNER RD.,,GERMANTOWN,20876,AMIA CORPORATION,Market,Food,39.2046,-77.2441,"(39.2046, -77.2441)",2,2,39,36,1,1
20778,7-ELEVEN #34140,21040 HENDERSON CORNER RD.,,GERMANTOWN,20876,AMIA CORPORATION,Market,Food,39.2046,-77.2441,"(39.2046, -77.2441)",2,2,39,36,1,1
22148,7-ELEVEN #34366,11406 D GEORGIA AVE.,,SILVER SPRING,20902,"MEREKATO GEBEYA, INC.",Market,Food,39.0419,-77.0522,"(39.0419, -77.0522)",4,4,16,17,1,1
22148,7-ELEVEN #34366,11406 D GEORGIA AVE.,,SILVER SPRING,20902,"MEREKATO GEBEYA, INC.",Market,Food,39.0419,-77.0522,"(39.0419, -77.0522)",4,4,16,17,1,1
22148,7-ELEVEN #34366,11406 D GEORGIA AVE.,,SILVER SPRING,20902,"MEREKATO GEBEYA, INC.",Market,Food,39.0419,-77.0522,"(39.0419, -77.0522)",4,4,16,17,1,1
22148,7-ELEVEN #34366,11406 D GEORGIA AVE.,,SILVER SPRING,20902,"MEREKATO GEBEYA, INC.",Market,Food,39.0419,-77.0522,"(39.0419, -77.0522)",4,4,16,17,1,1
22721,7-ELEVEN #34560,121 KENTLANDS BLVD.,,GAITHERSBURG,20878,DHIRENDRA K SHAH,Market,Food,39.1233,-77.2336,"(39.1233, -77.2336)",3,3,36,33,21,1
22721,7-ELEVEN #34560,121 KENTLANDS BLVD.,,GAITHERSBURG,20878,DHIRENDRA K SHAH,Market,Food,39.1233,-77.2336,"(39.1233, -77.2336)",3,3,36,33,21,1
22721,7-ELEVEN #34560,121 KENTLANDS BLVD.,,GAITHERSBURG,20878,DHIRENDRA K SHAH,Market,Food,39.1233,-77.2336,"(39.1233, -77.2336)",3,3,36,33,21,1
22721,7-ELEVEN #34560,121 KENTLANDS BLVD.,,GAITHERSBURG,20878,DHIRENDRA K SHAH,Market,Food,39.1233,-77.2336,"(39.1233, -77.2336)",3,3,36,33,21,1
28023,7-ELEVEN #35003,18701 LIBERTY MILL RD,,GERMANTOWN,20874,AMITKUMAR PATEL/HARIOM MANAGEMENT LLC,Market,Food,39.1622,-77.281,"(39.1622, -77.281)",2,2,39,39,1,1
28023,7-ELEVEN #35003,18701 LIBERTY MILL RD,,GERMANTOWN,20874,AMITKUMAR PATEL/HARIOM MANAGEMENT LLC,Market,Food,39.1622,-77.281,"(39.1622, -77.281)",2,2,39,39,1,1
28023,7-ELEVEN #35003,18701 LIBERTY MILL RD,,GERMANTOWN,20874,AMITKUMAR PATEL/HARIOM MANAGEMENT LLC,Market,Food,39.1622,-77.281,"(39.1622, -77.281)",2,2,39,39,1,1
28023,7-ELEVEN #35003,18701 LIBERTY MILL RD,,GERMANTOWN,20874,AMITKUMAR PATEL/HARIOM MANAGEMENT LLC,Market,Food,39.1622,-77.281,"(39.1622, -77.281)",2,2,39,39,1,1
37042,7-ELEVEN #35036B,8202 GEORGIA AVE,,SILVER SPRING,20910,7-ELEVEN INC,Market,Food,38.9918,-77.0273,"(38.9918, -77.0273)",5,5,7,3065,1,1
37042,7-ELEVEN #35036B,8202 GEORGIA AVE,,SILVER SPRING,20910,7-ELEVEN INC,Market,Food,38.9918,-77.0273,"(38.9918, -77.0273)",5,5,7,3065,1,1
26646,7-ELEVEN #36460A,405-D N. FREDERICK AVE,,GAITHERSBURG,20877,"ABE & NIKI, INC",Market,Food,39.1464,-77.204,"(39.1464, -77.204)",3,3,36,35,21,1
26646,7-ELEVEN #36460A,405-D N. FREDERICK AVE,,GAITHERSBURG,20877,"ABE & NIKI, INC",Market,Food,39.1464,-77.204,"(39.1464, -77.204)",3,3,36,35,21,1
26646,7-ELEVEN #36460A,405-D N. FREDERICK AVE,,GAITHERSBURG,20877,"ABE & NIKI, INC",Market,Food,39.1464,-77.204,"(39.1464, -77.204)",3,3,36,35,21,1
26646,7-ELEVEN #36460A,405-D N. FREDERICK AVE,,GAITHERSBURG,20877,"ABE & NIKI, INC",Market,Food,39.1464,-77.204,"(39.1464, -77.204)",3,3,36,35,21,1
36822,7-ELEVEN #36494J,8484 GEORGIA AVE,,SILVER SPRING,20910,7 ELEVEN INC,Market,Food,38.9941,-77.0271,"(38.9941, -77.0271)",5,5,7,3065,1,1
36822,7-ELEVEN #36494J,8484 GEORGIA AVE,,SILVER SPRING,20910,7 ELEVEN INC,Market,Food,38.9941,-77.0271,"(38.9941, -77.0271)",5,5,7,3065,1,1
36822,7-ELEVEN #36494J,8484 GEORGIA AVE,,SILVER SPRING,20910,7 ELEVEN INC,Market,Food,38.9941,-77.0271,"(38.9941, -77.0271)",5,5,7,3065,1,1
36822,7-ELEVEN #36494J,8484 GEORGIA AVE,,SILVER SPRING,20910,7 ELEVEN INC,Market,Food,38.9941,-77.0271,"(38.9941, -77.0271)",5,5,7,3065,1,1
36822,7-ELEVEN #36494J,8484 GEORGIA AVE,,SILVER SPRING,20910,7 ELEVEN INC,Market,Food,38.9941,-77.0271,"(38.9941, -77.0271)",5,5,7,3065,1,1
28030,7-ELEVEN #36867,418 ALLIED PLACE,,GAITHERSBURG,20877,GONDAL ENTERPRISES INC,Market,Food,39.1511,-77.1916,"(39.1511, -77.1916)",3,3,36,35,21,1
28030,7-ELEVEN #36867,418 ALLIED PLACE,,GAITHERSBURG,20877,GONDAL ENTERPRISES INC,Market,Food,39.1511,-77.1916,"(39.1511, -77.1916)",3,3,36,35,21,1
28030,7-ELEVEN #36867,418 ALLIED PLACE,,GAITHERSBURG,20877,GONDAL ENTERPRISES INC,Market,Food,39.1511,-77.1916,"(39.1511, -77.1916)",3,3,36,35,21,1
28030,7-ELEVEN #36867,418 ALLIED PLACE,,GAITHERSBURG,20877,GONDAL ENTERPRISES INC,Market,Food,39.1511,-77.1916,"(39.1511, -77.1916)",3,3,36,35,21,1
28706,7-ELEVEN #37157A,1701 ROCKVILLE PK,,ROCKVILLE,20852,"B2B2, INC",Market,Food,39.0613,-77.1244,"(39.0613, -77.1244)",3,3,25,60,12,1
28706,7-ELEVEN #37157A,1701 ROCKVILLE PK,,ROCKVILLE,20852,"B2B2, INC",Market,Food,39.0613,-77.1244,"(39.0613, -77.1244)",3,3,25,60,12,1
28706,7-ELEVEN #37157A,1701 ROCKVILLE PK,,ROCKVILLE,20852,"B2B2, INC",Market,Food,39.0613,-77.1244,"(39.0613, -77.1244)",3,3,25,60,12,1
29960,7-ELEVEN #37715A,11421 ROCKVILLE PIKE,,ROCKVILLE,20852,ARJ GROUP INC,Market,Food,39.0443,-77.1107,"(39.0443, -77.1107)",1,1,19,60,1,1
29960,7-ELEVEN #37715A,11421 ROCKVILLE PIKE,,ROCKVILLE,20852,ARJ GROUP INC,Market,Food,39.0443,-77.1107,"(39.0443, -77.1107)",1,1,19,60,1,1
29960,7-ELEVEN #37715A,11421 ROCKVILLE PIKE,,ROCKVILLE,20852,ARJ GROUP INC,Market,Food,39.0443,-77.1107,"(39.0443, -77.1107)",1,1,19,60,1,1
36810,7-ELEVEN #38133A,6900 NEW HAMPSHIRE AVE,,TAKOMA PARK,20912,AHIESA CORP,Market,Food,38.9757,-76.9944,"(38.9757, -76.9944)",5,5,4,3062,11,1
36810,7-ELEVEN #38133A,6900 NEW HAMPSHIRE AVE,,TAKOMA PARK,20912,AHIESA CORP,Market,Food,38.9757,-76.9944,"(38.9757, -76.9944)",5,5,4,3062,11,1
36810,7-ELEVEN #38133A,6900 NEW HAMPSHIRE AVE,,TAKOMA PARK,20912,AHIESA CORP,Market,Food,38.9757,-76.9944,"(38.9757, -76.9944)",5,5,4,3062,11,1
36810,7-ELEVEN #38133A,6900 NEW HAMPSHIRE AVE,,TAKOMA PARK,20912,AHIESA CORP,Market,Food,38.9757,-76.9944,"(38.9757, -76.9944)",5,5,4,3062,11,1
36810,7-ELEVEN #38133A,6900 NEW HAMPSHIRE AVE,,TAKOMA PARK,20912,AHIESA CORP,Market,Food,38.9757,-76.9944,"(38.9757, -76.9944)",5,5,4,3062,11,1
38346,7-ELEVEN #38656H,7101 DEMOCRACY BLVD,,BETHESDA,20817,7-ELEVEN INC,Market,Food,39.0242,-77.146,"(39.0242, -77.146)",1,1,19,103,1,1
38346,7-ELEVEN #38656H,7101 DEMOCRACY BLVD,,BETHESDA,20817,7-ELEVEN INC,Market,Food,39.0242,-77.146,"(39.0242, -77.146)",1,1,19,103,1,1
38346,7-ELEVEN #38656H,7101 DEMOCRACY BLVD,,BETHESDA,20817,7-ELEVEN INC,Market,Food,39.0242,-77.146,"(39.0242, -77.146)",1,1,19,103,1,1
38346,7-ELEVEN #38656H,7101 DEMOCRACY BLVD,,BETHESDA,20817,7-ELEVEN INC,Market,Food,39.0242,-77.146,"(39.0242, -77.146)",1,1,19,103,1,1
20167,7-ELEVEN #39156,8472 PINEY BRANCH RD,,SILVER SPRING,20901,"NTA, INC.",Market,Food,38.9983,-77.0045,"(38.9983, -77.0045)",5,5,8,21,1,1
20167,7-ELEVEN #39156,8472 PINEY BRANCH RD,,SILVER SPRING,20901,"NTA, INC.",Market,Food,38.9983,-77.0045,"(38.9983, -77.0045)",5,5,8,21,1,1
20167,7-ELEVEN #39156,8472 PINEY BRANCH RD,,SILVER SPRING,20901,"NTA, INC.",Market,Food,38.9983,-77.0045,"(38.9983, -77.0045)",5,5,8,21,1,1
20167,7-ELEVEN #39156,8472 PINEY BRANCH RD,,SILVER SPRING,20901,"NTA, INC.",Market,Food,38.9983,-77.0045,"(38.9983, -77.0045)",5,5,8,21,1,1
20167,7-ELEVEN #39156,8472 PINEY BRANCH RD,,SILVER SPRING,20901,"NTA, INC.",Market,Food,38.9983,-77.0045,"(38.9983, -77.0045)",5,5,8,21,1,1
30188,7-ELEVEN #39789A,12301 MIDDLEBROOK RD,,GERMANTOWN,20874,E&C ENTERPRISES INC,Market,Food,39.1758,-77.2545,"(39.1758, -77.2545)",2,2,39,39,1,1
30188,7-ELEVEN #39789A,12301 MIDDLEBROOK RD,,GERMANTOWN,20874,E&C ENTERPRISES INC,Market,Food,39.1758,-77.2545,"(39.1758, -77.2545)",2,2,39,39,1,1
30188,7-ELEVEN #39789A,12301 MIDDLEBROOK RD,,GERMANTOWN,20874,E&C ENTERPRISES INC,Market,Food,39.1758,-77.2545,"(39.1758, -77.2545)",2,2,39,39,1,1
30188,7-ELEVEN #39789A,12301 MIDDLEBROOK RD,,GERMANTOWN,20874,E&C ENTERPRISES INC,Market,Food,39.1758,-77.2545,"(39.1758, -77.2545)",2,2,39,39,1,1
33189,7-ELEVEN #39796A,16201 NEW HAMPSHIRE AVE,,SILVER SPRING,20903,E & C ENTERPRISES INC,Market,Food,39.1218,-76.9885,"(39.1218, -76.9885)",5,5,29,46,1,1
33189,7-ELEVEN #39796A,16201 NEW HAMPSHIRE AVE,,SILVER SPRING,20903,E & C ENTERPRISES INC,Market,Food,39.1218,-76.9885,"(39.1218, -76.9885)",5,5,29,46,1,1
33189,7-ELEVEN #39796A,16201 NEW HAMPSHIRE AVE,,SILVER SPRING,20903,E & C ENTERPRISES INC,Market,Food,39.1218,-76.9885,"(39.1218, -76.9885)",5,5,29,46,1,1
33189,7-ELEVEN #39796A,16201 NEW HAMPSHIRE AVE,,SILVER SPRING,20903,E & C ENTERPRISES INC,Market,Food,39.1218,-76.9885,"(39.1218, -76.9885)",5,5,29,46,1,1
38418,7-ELEVEN #39974A,12400 PARKLAWN DR,,ROCKVILLE,20852,PARKLAWN MARKET LLC,Market,Food,39.0611,-77.1123,"(39.0611, -77.1123)",4,4,19,60,1,1
46931,7-ELEVEN #42092A,22702 GOSNELL FARM DR,,BOYDS,20841,E&C  ENTERPRISES INC,Market,Food,39.2286,-77.2895,"(39.2286, -77.2895)",2,2,50,75,1,1
46931,7-ELEVEN #42092A,22702 GOSNELL FARM DR,,BOYDS,20841,E&C  ENTERPRISES INC,Market,Food,39.2286,-77.2895,"(39.2286, -77.2895)",2,2,50,75,1,1
30224,7-ELEVEN CLARKSBURG VILLAGE,12101 SNOWDEN FARM PKWY,,CLARKSBURG,20871,E & C MID-ATLANTIC VENTURES LLC,Market,Food,39.2289,-77.2499,"(39.2289, -77.2499)",2,2,50,36,1,1
30224,7-ELEVEN CLARKSBURG VILLAGE,12101 SNOWDEN FARM PKWY,,CLARKSBURG,20871,E & C MID-ATLANTIC VENTURES LLC,Market,Food,39.2289,-77.2499,"(39.2289, -77.2499)",2,2,50,36,1,1
30224,7-ELEVEN CLARKSBURG VILLAGE,12101 SNOWDEN FARM PKWY,,CLARKSBURG,20871,E & C MID-ATLANTIC VENTURES LLC,Market,Food,39.2289,-77.2499,"(39.2289, -77.2499)",2,2,50,36,1,1
30224,7-ELEVEN CLARKSBURG VILLAGE,12101 SNOWDEN FARM PKWY,,CLARKSBURG,20871,E & C MID-ATLANTIC VENTURES LLC,Market,Food,39.2289,-77.2499,"(39.2289, -77.2499)",2,2,50,36,1,1
30418,99 RANCH MARKET,110 ODENDHAL AVE,,GAITHERSBURG,20877,WELCOME CALIFORNIA MARKET INC,Market,Food,39.15,-77.2061,"(39.15, -77.2061)",3,3,36,35,21,1
30418,99 RANCH MARKET,110 ODENDHAL AVE,,GAITHERSBURG,20877,WELCOME CALIFORNIA MARKET INC,Market,Food,39.15,-77.2061,"(39.15, -77.2061)",3,3,36,35,21,1
30418,99 RANCH MARKET,110 ODENDHAL AVE,,GAITHERSBURG,20877,WELCOME CALIFORNIA MARKET INC,Market,Food,39.15,-77.2061,"(39.15, -77.2061)",3,3,36,35,21,1
30418,99 RANCH MARKET,110 ODENDHAL AVE,,GAITHERSBURG,20877,WELCOME CALIFORNIA MARKET INC,Market,Food,39.15,-77.2061,"(39.15, -77.2061)",3,3,36,35,21,1
32898,ABART INTERNATIONAL FOOD STORE,11456 CHERRY HILL RD,,BELTSVILLE,20705,BASHIR AZEER,Market,Food,39.0446,-76.9528,"(39.0446, -76.9528)",5,5,21,1648,1,1
29587,ADARASH MARKET,11249 NEW HAMPSHIRE AVE,,SILVER SPRING,20904,ADARASH MARKET  INC,Market,Food,39.0414,-76.9879,"(39.0414, -76.9879)",5,5,18,12,1,1
29587,ADARASH MARKET,11249 NEW HAMPSHIRE AVE,,SILVER SPRING,20904,ADARASH MARKET  INC,Market,Food,39.0414,-76.9879,"(39.0414, -76.9879)",5,5,18,12,1,1
29587,ADARASH MARKET,11249 NEW HAMPSHIRE AVE,,SILVER SPRING,20904,ADARASH MARKET  INC,Market,Food,39.0414,-76.9879,"(39.0414, -76.9879)",5,5,18,12,1,1
27411,ADARASH MARKET,8706 A FLOWER AVE,,SILVER SPRING,20901,ADARASH MARKET II  INC,Market,Food,38.9987,-77.0041,"(38.9987, -77.0041)",5,5,8,21,1,1
27411,ADARASH MARKET,8706 A FLOWER AVE,,SILVER SPRING,20901,ADARASH MARKET II  INC,Market,Food,38.9987,-77.0041,"(38.9987, -77.0041)",5,5,8,21,1,1
27411,ADARASH MARKET,8706 A FLOWER AVE,,SILVER SPRING,20901,ADARASH MARKET II  INC,Market,Food,38.9987,-77.0041,"(38.9987, -77.0041)",5,5,8,21,1,1
36922,ADARASH MARKET III,2000-B VEIRS MILL RD,,ROCKVILLE,20853,ADARASH MARKET III,Market,Food,39.0755,-77.1154,"(39.0755, -77.1154)",3,3,25,68,12,1
36922,ADARASH MARKET III,2000-B VEIRS MILL RD,,ROCKVILLE,20853,ADARASH MARKET III,Market,Food,39.0755,-77.1154,"(39.0755, -77.1154)",3,3,25,68,12,1
41097,ADARASH MARKET IV,13842-B OUTLET DR,,SILVER SPRING,20904,ADARASH MARKET IV,Market,Food,39.0835,-76.9453,"(39.0835, -76.9453)",5,5,53,12,1,1
41097,ADARASH MARKET IV,13842-B OUTLET DR,,SILVER SPRING,20904,ADARASH MARKET IV,Market,Food,39.0835,-76.9453,"(39.0835, -76.9453)",5,5,53,12,1,1
41097,ADARASH MARKET IV,13842-B OUTLET DR,,SILVER SPRING,20904,ADARASH MARKET IV,Market,Food,39.0835,-76.9453,"(39.0835, -76.9453)",5,5,53,12,1,1
41097,ADARASH MARKET IV,13842-B OUTLET DR,,SILVER SPRING,20904,ADARASH MARKET IV,Market,Food,39.0835,-76.9453,"(39.0835, -76.9453)",5,5,53,12,1,1
41097,ADARASH MARKET IV,13842-B OUTLET DR,,SILVER SPRING,20904,ADARASH MARKET IV,Market,Food,39.0835,-76.9453,"(39.0835, -76.9453)",5,5,53,12,1,1
29518,ADISU TEDLA,920 EAST WEST HWY,,SILVER SPRING,20910,E & A INC,Market,Food,38.9757,-76.9928,"(38.9757, -76.9928)",5,5,4,3062,11,1
29518,ADISU TEDLA,920 EAST WEST HWY,,SILVER SPRING,20910,E & A INC,Market,Food,38.9757,-76.9928,"(38.9757, -76.9928)",5,5,4,3062,11,1
45649,ADULIS STORE,7825 EASTERN AVE,,SILVER SPRING,20910,ADULIS ENTERPRISES LLC/DINBERU MELAKEHIWOT,Market,Food,38.9856,-77.0274,"(38.9856, -77.0274)",5,5,7,3065,1,1
26716,ADVANCE AUTO PARTS #7123,9813 MAIN ST,#104,DAMASCUS,20872,"ADVANCE STORE COMPANY, INC",Market,Food,39.2886,-77.2018,"(39.2886, -77.2018)",2,2,51,42,1,1
26716,ADVANCE AUTO PARTS #7123,9813 MAIN ST,#104,DAMASCUS,20872,"ADVANCE STORE COMPANY, INC",Market,Food,39.2886,-77.2018,"(39.2886, -77.2018)",2,2,51,42,1,1
26716,ADVANCE AUTO PARTS #7123,9813 MAIN ST,#104,DAMASCUS,20872,"ADVANCE STORE COMPANY, INC",Market,Food,39.2886,-77.2018,"(39.2886, -77.2018)",2,2,51,42,1,1
26716,ADVANCE AUTO PARTS #7123,9813 MAIN ST,#104,DAMASCUS,20872,"ADVANCE STORE COMPANY, INC",Market,Food,39.2886,-77.2018,"(39.2886, -77.2018)",2,2,51,42,1,1
30251,ADVANCE AUTO PARTS #7753,19204 MONTGOMERY VILLAGE AVE,,MONTGOMERY VILLAGE,20886,ADVANCE STORES COMPANY INC,Market,Food,39.1718,-77.2053,"(39.1718, -77.2053)",2,2,38,28,1,1
30251,ADVANCE AUTO PARTS #7753,19204 MONTGOMERY VILLAGE AVE,,MONTGOMERY VILLAGE,20886,ADVANCE STORES COMPANY INC,Market,Food,39.1718,-77.2053,"(39.1718, -77.2053)",2,2,38,28,1,1
20872,ADVANCE AUTO PARTS #8597,2285 BEL PRE RD.,,SILVER SPRING,20906,ADVANCE STORES CO. INC.,Market,Food,39.0909,-77.0482,"(39.0909, -77.0482)",4,4,59,6,1,1
20872,ADVANCE AUTO PARTS #8597,2285 BEL PRE RD.,,SILVER SPRING,20906,ADVANCE STORES CO. INC.,Market,Food,39.0909,-77.0482,"(39.0909, -77.0482)",4,4,59,6,1,1
23576,ADVANCE AUTO PARTS #8879,401 N. FREDERICK AVE,,GAITHERSBURG,20877,ADVANCE STORES COMPANY INCORPORATED,Market,Food,39.1463,-77.2032,"(39.1463, -77.2032)",3,3,36,35,21,1
23576,ADVANCE AUTO PARTS #8879,401 N. FREDERICK AVE,,GAITHERSBURG,20877,ADVANCE STORES COMPANY INCORPORATED,Market,Food,39.1463,-77.2032,"(39.1463, -77.2032)",3,3,36,35,21,1
22754,ADVANCE AUTO PARTS #8920,12021 GEORGIA AVE.,,SILVER SPRING,20902,"ADVANCED STORES COMPANY, INC.",Market,Food,39.0526,-77.0497,"(39.0526, -77.0497)",4,4,16,17,1,1
22754,ADVANCE AUTO PARTS #8920,12021 GEORGIA AVE.,,SILVER SPRING,20902,"ADVANCED STORES COMPANY, INC.",Market,Food,39.0526,-77.0497,"(39.0526, -77.0497)",4,4,16,17,1,1
20881,ADVANCE AUTO PARTS #8979,5144 NICHOLSON LANE,,KENSINGTON,20895,ADVANCE STORES CO. INC.,Market,Food,39.0439,-77.1046,"(39.0439, -77.1046)",1,1,19,25,1,1
20874,ADVANCE AUTO PARTS #9002,6300 NEW HAMPSHIRE AVE.,,TAKOMA PARK,20912,ADVANCE STORES CO. INC.,Market,Food,38.9667,-77.0024,"(38.9667, -77.0024)",5,5,4,3062,11,1
20874,ADVANCE AUTO PARTS #9002,6300 NEW HAMPSHIRE AVE.,,TAKOMA PARK,20912,ADVANCE STORES CO. INC.,Market,Food,38.9667,-77.0024,"(38.9667, -77.0024)",5,5,4,3062,11,1
20873,ADVANCE AUTO PARTS #9005,13625 B GEORGIA AVE.,,SILVER SPRING,20906,ADVANCE STORES CO. INC.,Market,Food,39.08,-77.0719,"(39.08, -77.0719)",4,4,59,6,1,1
20873,ADVANCE AUTO PARTS #9005,13625 B GEORGIA AVE.,,SILVER SPRING,20906,ADVANCE STORES CO. INC.,Market,Food,39.08,-77.0719,"(39.08, -77.0719)",4,4,59,6,1,1
20877,ADVANCE AUTO PARTS #9012,13006 MIDDLEBROOK RD.,,GERMANTOWN,20874,ADVANCE STORES CO. INC.,Market,Food,39.1802,-77.2712,"(39.1802, -77.2712)",2,2,39,39,1,1
20877,ADVANCE AUTO PARTS #9012,13006 MIDDLEBROOK RD.,,GERMANTOWN,20874,ADVANCE STORES CO. INC.,Market,Food,39.1802,-77.2712,"(39.1802, -77.2712)",2,2,39,39,1,1
20876,ADVANCE AUTO PARTS #9013,18208 FLOWER HILL WAY,,GAITHERSBURG,20879,ADVANCE STORES CO. INC.,Market,Food,39.1541,-77.1649,"(39.1541, -77.1649)",4,4,36,35,1,1
20876,ADVANCE AUTO PARTS #9013,18208 FLOWER HILL WAY,,GAITHERSBURG,20879,ADVANCE STORES CO. INC.,Market,Food,39.1541,-77.1649,"(39.1541, -77.1649)",4,4,36,35,1,1
19097,AFC SUSHI @ HARRIS TEETER #325,14101 DARNESTOWN RD.,,GERMANTOWN,20874,ADVANCED FRESH CONCEPTS FRANCHISE CORP,Market,Food,39.1044,-77.2916,"(39.1044, -77.2916)",2,2,28,33,1,1
19097,AFC SUSHI @ HARRIS TEETER #325,14101 DARNESTOWN RD.,,GERMANTOWN,20874,ADVANCED FRESH CONCEPTS FRANCHISE CORP,Market,Food,39.1044,-77.2916,"(39.1044, -77.2916)",2,2,28,33,1,1
20232,AFC SUSHI @ HARRIS TEETER #328,11845 OLD GEORGETOWN RD,,ROCKVILLE,20852,ADVANCED FRESH CONCEPTS FRANCHISE CORP,Market,Food,39.0494,-77.1093,"(39.0494, -77.1093)",1,1,19,60,1,1
27823,AFC SUSHI @ HARRIS TEETER #384,323 COPLEY PLACE,,GAITHERSBURG,20878,ADVANCED FRESH CONCEPTS FRANCHISE CORP,Market,Food,39.1149,-77.2077,"(39.1149, -77.2077)",3,3,25,71,21,1
27823,AFC SUSHI @ HARRIS TEETER #384,323 COPLEY PLACE,,GAITHERSBURG,20878,ADVANCED FRESH CONCEPTS FRANCHISE CORP,Market,Food,39.1149,-77.2077,"(39.1149, -77.2077)",3,3,25,71,21,1
27823,AFC SUSHI @ HARRIS TEETER #384,323 COPLEY PLACE,,GAITHERSBURG,20878,ADVANCED FRESH CONCEPTS FRANCHISE CORP,Market,Food,39.1149,-77.2077,"(39.1149, -77.2077)",3,3,25,71,21,1
27823,AFC SUSHI @ HARRIS TEETER #384,323 COPLEY PLACE,,GAITHERSBURG,20878,ADVANCED FRESH CONCEPTS FRANCHISE CORP,Market,Food,39.1149,-77.2077,"(39.1149, -77.2077)",3,3,25,71,21,1
22472,AFC SUSHI @ HARRIS TEETER #403,18169 TOWN CENTER DR.,,OLNEY,20832,ADVANCED FRESH CONCEPTS FRANCHISE CORP.,Market,Food,39.1535,-77.062,"(39.1535, -77.062)",4,4,58,100,1,1
22472,AFC SUSHI @ HARRIS TEETER #403,18169 TOWN CENTER DR.,,OLNEY,20832,ADVANCED FRESH CONCEPTS FRANCHISE CORP.,Market,Food,39.1535,-77.062,"(39.1535, -77.062)",4,4,58,100,1,1
22472,AFC SUSHI @ HARRIS TEETER #403,18169 TOWN CENTER DR.,,OLNEY,20832,ADVANCED FRESH CONCEPTS FRANCHISE CORP.,Market,Food,39.1535,-77.062,"(39.1535, -77.062)",4,4,58,100,1,1
22472,AFC SUSHI @ HARRIS TEETER #403,18169 TOWN CENTER DR.,,OLNEY,20832,ADVANCED FRESH CONCEPTS FRANCHISE CORP.,Market,Food,39.1535,-77.062,"(39.1535, -77.062)",4,4,58,100,1,1
38327,A & H CONVENIENCE MARKET,11235 OAK LEAF DR,B-07,SILVER SPRING,20901,A & H CONVENIENCE MARKET LLC,Market,Food,39.0409,-76.9932,"(39.0409, -76.9932)",5,5,18,21,1,1
38327,A & H CONVENIENCE MARKET,11235 OAK LEAF DR,B-07,SILVER SPRING,20901,A & H CONVENIENCE MARKET LLC,Market,Food,39.0409,-76.9932,"(39.0409, -76.9932)",5,5,18,21,1,1
20483,AIRPARK BEER & WINE,7601- G AIRPARK RD.,,GAITHERSBURG,20879,CRUNCHKIDS LLC,Market,Food,39.1702,-77.1546,"(39.1702, -77.1546)",4,4,36,31,1,1
20483,AIRPARK BEER & WINE,7601- G AIRPARK RD.,,GAITHERSBURG,20879,CRUNCHKIDS LLC,Market,Food,39.1702,-77.1546,"(39.1702, -77.1546)",4,4,36,31,1,1
26802,AIRPARK BP,19230 WOODFIELD RD,,GAITHERSBURG,20879,AIRPARK PETRO LLC,Market,Food,39.172,-77.1533,"(39.172, -77.1533)",4,4,36,31,1,1
26802,AIRPARK BP,19230 WOODFIELD RD,,GAITHERSBURG,20879,AIRPARK PETRO LLC,Market,Food,39.172,-77.1533,"(39.172, -77.1533)",4,4,36,31,1,1
27879,AIR PARK SHELL,7620 LINDBERGH DR,,GAITHERSBURG,20879,"POTOMAC ENERGY HOLDINGS, LLC",Market,Food,39.1665,-77.1553,"(39.1665, -77.1553)",4,4,36,31,1,1
27879,AIR PARK SHELL,7620 LINDBERGH DR,,GAITHERSBURG,20879,"POTOMAC ENERGY HOLDINGS, LLC",Market,Food,39.1665,-77.1553,"(39.1665, -77.1553)",4,4,36,31,1,1
27879,AIR PARK SHELL,7620 LINDBERGH DR,,GAITHERSBURG,20879,"POTOMAC ENERGY HOLDINGS, LLC",Market,Food,39.1665,-77.1553,"(39.1665, -77.1553)",4,4,36,31,1,1
27879,AIR PARK SHELL,7620 LINDBERGH DR,,GAITHERSBURG,20879,"POTOMAC ENERGY HOLDINGS, LLC",Market,Food,39.1665,-77.1553,"(39.1665, -77.1553)",4,4,36,31,1,1
27879,AIR PARK SHELL,7620 LINDBERGH DR,,GAITHERSBURG,20879,"POTOMAC ENERGY HOLDINGS, LLC",Market,Food,39.1665,-77.1553,"(39.1665, -77.1553)",4,4,36,31,1,1
27879,AIR PARK SHELL,7620 LINDBERGH DR,,GAITHERSBURG,20879,"POTOMAC ENERGY HOLDINGS, LLC",Market,Food,39.1665,-77.1553,"(39.1665, -77.1553)",4,4,36,31,1,1
27879,AIR PARK SHELL,7620 LINDBERGH DR,,GAITHERSBURG,20879,"POTOMAC ENERGY HOLDINGS, LLC",Market,Food,39.1665,-77.1553,"(39.1665, -77.1553)",4,4,36,31,1,1
30336,ALDI #148,19150 MONTGOMERY VILLAGE AVE,,MONTGOMERY VILLAGE,20886,ALDI INC FREDERICK DIVISION,Market,Food,39.0099,-77.0418,"(39.0099, -77.0418)",5,5,7,3065,1,1
30336,ALDI #148,19150 MONTGOMERY VILLAGE AVE,,MONTGOMERY VILLAGE,20886,ALDI INC FREDERICK DIVISION,Market,Food,39.0099,-77.0418,"(39.0099, -77.0418)",5,5,7,3065,1,1
21406,ALDI #42,20904 FREDERICK RD.,,GERMANTOWN,20876,"ALDI, INC. FREDERICK DIVISION",Market,Food,39.1986,-77.2473,"(39.1986, -77.2473)",2,2,39,36,1,1
21406,ALDI #42,20904 FREDERICK RD.,,GERMANTOWN,20876,"ALDI, INC. FREDERICK DIVISION",Market,Food,39.1986,-77.2473,"(39.1986, -77.2473)",2,2,39,36,1,1
28373,ALDI #46,608 QUINCE ORCHARD DR,,GAITHERSBURG,20878,ALDI INC - FREDERICK DIVISION,Market,Food,39.1421,-77.2234,"(39.1421, -77.2234)",3,3,36,33,21,1
28373,ALDI #46,608 QUINCE ORCHARD DR,,GAITHERSBURG,20878,ALDI INC - FREDERICK DIVISION,Market,Food,39.1421,-77.2234,"(39.1421, -77.2234)",3,3,36,33,21,1
38315,ALDI #72,9440 GEORGIA AVE,,SILVER SPRING,20910,ALDI INC FREDERICK DIVISION,Market,Food,39.0099,-77.0418,"(39.0099, -77.0418)",5,5,7,3065,1,1
38315,ALDI #72,9440 GEORGIA AVE,,SILVER SPRING,20910,ALDI INC FREDERICK DIVISION,Market,Food,39.0099,-77.0418,"(39.0099, -77.0418)",5,5,7,3065,1,1
38315,ALDI #72,9440 GEORGIA AVE,,SILVER SPRING,20910,ALDI INC FREDERICK DIVISION,Market,Food,39.0099,-77.0418,"(39.0099, -77.0418)",5,5,7,3065,1,1
38315,ALDI #72,9440 GEORGIA AVE,,SILVER SPRING,20910,ALDI INC FREDERICK DIVISION,Market,Food,39.0099,-77.0418,"(39.0099, -77.0418)",5,5,7,3065,1,1
33044,ALDI STORE # 145,1501 ROCKVILLE PIKE,,ROCKVILLE,20852,ALDI INC FREDERICK DIVISION,Market,Food,39.0651,-77.1281,"(39.0651, -77.1281)",3,3,25,60,12,1
33044,ALDI STORE # 145,1501 ROCKVILLE PIKE,,ROCKVILLE,20852,ALDI INC FREDERICK DIVISION,Market,Food,39.0651,-77.1281,"(39.0651, -77.1281)",3,3,25,60,12,1
33044,ALDI STORE # 145,1501 ROCKVILLE PIKE,,ROCKVILLE,20852,ALDI INC FREDERICK DIVISION,Market,Food,39.0651,-77.1281,"(39.0651, -77.1281)",3,3,25,60,12,1
33044,ALDI STORE # 145,1501 ROCKVILLE PIKE,,ROCKVILLE,20852,ALDI INC FREDERICK DIVISION,Market,Food,39.0651,-77.1281,"(39.0651, -77.1281)",3,3,25,60,12,1
39926,ALDI STORE # 181,12012 CHERRY HILL RD,,SILVER SPRING,20904,ALDI INC. FREDERICK DIVISION,Market,Food,39.0529,-76.9572,"(39.0529, -76.9572)",5,5,21,12,1,1
39926,ALDI STORE # 181,12012 CHERRY HILL RD,,SILVER SPRING,20904,ALDI INC. FREDERICK DIVISION,Market,Food,39.0529,-76.9572,"(39.0529, -76.9572)",5,5,21,12,1,1
39926,ALDI STORE # 181,12012 CHERRY HILL RD,,SILVER SPRING,20904,ALDI INC. FREDERICK DIVISION,Market,Food,39.0529,-76.9572,"(39.0529, -76.9572)",5,5,21,12,1,1
45688,ALDI STORE # 191,5110 NICHOLSON LANE,,KENSINGTON,20895,ALDI INC MARYLAND,Market,Food,39.0447,-77.1049,"(39.0447, -77.1049)",1,1,19,25,1,1
45688,ALDI STORE # 191,5110 NICHOLSON LANE,,KENSINGTON,20895,ALDI INC MARYLAND,Market,Food,39.0447,-77.1049,"(39.0447, -77.1049)",1,1,19,25,1,1
45688,ALDI STORE # 191,5110 NICHOLSON LANE,,KENSINGTON,20895,ALDI INC MARYLAND,Market,Food,39.0447,-77.1049,"(39.0447, -77.1049)",1,1,19,25,1,1
47097,ALEX BABY & TOYS,7101 DEMOCRACY BLVD,,BETHESDA,20817,2428392 INC,Market,Food,39.0243,-77.146,"(39.0243, -77.146)",1,1,19,103,1,1
36801,ALL AFRICAN FOOD STORES,18525 N FREDERICK AVE,,GAITHERSBURG,20879,ALL AFRICAN FOOD STORES,Market,Food,39.1617,-77.2216,"(39.1617, -77.2216)",3,3,36,31,21,1
36801,ALL AFRICAN FOOD STORES,18525 N FREDERICK AVE,,GAITHERSBURG,20879,ALL AFRICAN FOOD STORES,Market,Food,39.1617,-77.2216,"(39.1617, -77.2216)",3,3,36,31,21,1
36801,ALL AFRICAN FOOD STORES,18525 N FREDERICK AVE,,GAITHERSBURG,20879,ALL AFRICAN FOOD STORES,Market,Food,39.1617,-77.2216,"(39.1617, -77.2216)",3,3,36,31,21,1
36801,ALL AFRICAN FOOD STORES,18525 N FREDERICK AVE,,GAITHERSBURG,20879,ALL AFRICAN FOOD STORES,Market,Food,39.1617,-77.2216,"(39.1617, -77.2216)",3,3,36,31,21,1
30811,AMAI CREPE,199 E MONTGOMERY AVE,STE J,ROCKVILLE,20850,BCH2 LLC,Market,Food,39.084,-77.1497,"(39.084, -77.1497)",3,3,25,71,12,1
30811,AMAI CREPE,199 E MONTGOMERY AVE,STE J,ROCKVILLE,20850,BCH2 LLC,Market,Food,39.084,-77.1497,"(39.084, -77.1497)",3,3,25,71,12,1
30811,AMAI CREPE,199 E MONTGOMERY AVE,STE J,ROCKVILLE,20850,BCH2 LLC,Market,Food,39.084,-77.1497,"(39.084, -77.1497)",3,3,25,71,12,1
46959,AMAZON FRESH,15790 SHADY GROVE RD,,GAITHERSBURG,20877,AMAZON RETAIL LLC,Market,Food,39.1168,-77.1849,"(39.1168, -77.1849)",3,3,36,35,21,1
46959,AMAZON FRESH,15790 SHADY GROVE RD,,GAITHERSBURG,20877,AMAZON RETAIL LLC,Market,Food,39.1168,-77.1849,"(39.1168, -77.1849)",3,3,36,35,21,1
45524,AMAZON FRESH,5463 WISCONSIN AVE,,CHEVY CHASE,20815,AMAZON RETAIL LLC,Market,Food,38.9624,-77.0846,"(38.9624, -77.0846)",1,1,5,110,1,1
45524,AMAZON FRESH,5463 WISCONSIN AVE,,CHEVY CHASE,20815,AMAZON RETAIL LLC,Market,Food,38.9624,-77.0846,"(38.9624, -77.0846)",1,1,5,110,1,1
46960,AMAZON FRESH,8531 CONNECTICUT AVE,,CHEVY CHASE,20815,AMAZON RETAIL LLC,Market,Food,38.9959,-77.0761,"(38.9959, -77.0761)",1,1,5,110,1,1
46960,AMAZON FRESH,8531 CONNECTICUT AVE,,CHEVY CHASE,20815,AMAZON RETAIL LLC,Market,Food,38.9959,-77.0761,"(38.9959, -77.0761)",1,1,5,110,1,1
46852,AMC MONTGOMERY 16,7101 DEMOCRACY BLVD,,BETHESDA,20817,AMC OF MARYLAND LLC,Market,Food,39.0221,-77.1471,"(39.0221, -77.1471)",1,1,19,103,1,1
569,AMC THEATRES RIO CINEMA 18,9811 WASHINGTONIAN BLVD.,,GAITHERSBURG,20878,AMC OF MARYLAND LLC,Market,Food,39.1157,-77.1977,"(39.1157, -77.1977)",3,3,36,33,21,1
569,AMC THEATRES RIO CINEMA 18,9811 WASHINGTONIAN BLVD.,,GAITHERSBURG,20878,AMC OF MARYLAND LLC,Market,Food,39.1157,-77.1977,"(39.1157, -77.1977)",3,3,36,33,21,1
101,AMERICANA GROCERY,8541 PINEY BRANCH RD.,,SILVER SPRING,20901,"AMERICANA GROCERY OF MD., INC.",Market,Food,38.9977,-77.001,"(38.9977, -77.001)",5,5,8,3062,1,1
101,AMERICANA GROCERY,8541 PINEY BRANCH RD.,,SILVER SPRING,20901,"AMERICANA GROCERY OF MD., INC.",Market,Food,38.9977,-77.001,"(38.9977, -77.001)",5,5,8,3062,1,1
101,AMERICANA GROCERY,8541 PINEY BRANCH RD.,,SILVER SPRING,20901,"AMERICANA GROCERY OF MD., INC.",Market,Food,38.9977,-77.001,"(38.9977, -77.001)",5,5,8,3062,1,1
39586,AMERICAN FOOD MART,12401 GEORGIA AVE,,SILVER SPRING,20906,AMERICAN FOOD MART LLC,Market,Food,39.0609,-77.0515,"(39.0609, -77.0515)",4,4,23,6,1,1
29344,ANDY'S BEER AND WINE,15523 NEW HAMPSHIRE AVE,,SILVER SPRING,20905,JS2Y INC,Market,Food,39.1105,-76.9952,"(39.1105, -76.9952)",5,5,29,8,1,1
29344,ANDY'S BEER AND WINE,15523 NEW HAMPSHIRE AVE,,SILVER SPRING,20905,JS2Y INC,Market,Food,39.1105,-76.9952,"(39.1105, -76.9952)",5,5,29,8,1,1
29344,ANDY'S BEER AND WINE,15523 NEW HAMPSHIRE AVE,,SILVER SPRING,20905,JS2Y INC,Market,Food,39.1105,-76.9952,"(39.1105, -76.9952)",5,5,29,8,1,1
39588,ANGKOR SUPERMARKET,"937 UNIVERSITY BLVD., E.",,SILVER SPRING,20903,MATTHEW & BROTHERS LLC,Market,Food,38.9928,-76.9923,"(38.9928, -76.9923)",5,5,4,15,11,1
39588,ANGKOR SUPERMARKET,"937 UNIVERSITY BLVD., E.",,SILVER SPRING,20903,MATTHEW & BROTHERS LLC,Market,Food,38.9928,-76.9923,"(38.9928, -76.9923)",5,5,4,15,11,1
39588,ANGKOR SUPERMARKET,"937 UNIVERSITY BLVD., E.",,SILVER SPRING,20903,MATTHEW & BROTHERS LLC,Market,Food,38.9928,-76.9923,"(38.9928, -76.9923)",5,5,4,15,11,1
39872,A-ONE HALAL MART,12941 WISTERIA DRIVE,,GERMANTOWN,20874,"A-ONE HALAL MART, INC",Market,Food,39.1783,-77.2698,"(39.1783, -77.2698)",2,2,39,39,1,1
39872,A-ONE HALAL MART,12941 WISTERIA DRIVE,,GERMANTOWN,20874,"A-ONE HALAL MART, INC",Market,Food,39.1783,-77.2698,"(39.1783, -77.2698)",2,2,39,39,1,1
39872,A-ONE HALAL MART,12941 WISTERIA DRIVE,,GERMANTOWN,20874,"A-ONE HALAL MART, INC",Market,Food,39.1783,-77.2698,"(39.1783, -77.2698)",2,2,39,39,1,1
39872,A-ONE HALAL MART,12941 WISTERIA DRIVE,,GERMANTOWN,20874,"A-ONE HALAL MART, INC",Market,Food,39.1783,-77.2698,"(39.1783, -77.2698)",2,2,39,39,1,1
39872,A-ONE HALAL MART,12941 WISTERIA DRIVE,,GERMANTOWN,20874,"A-ONE HALAL MART, INC",Market,Food,39.1783,-77.2698,"(39.1783, -77.2698)",2,2,39,39,1,1
39872,A-ONE HALAL MART,12941 WISTERIA DRIVE,,GERMANTOWN,20874,"A-ONE HALAL MART, INC",Market,Food,39.1783,-77.2698,"(39.1783, -77.2698)",2,2,39,39,1,1
118,ARADA INTERNATIONAL MARKET,6844 NEW HAMPSHIRE AVE.,,TAKOMA PARK,20912,"ARADA INTERNATIONAL FOOD CORP., INC.",Market,Food,38.9748,-76.9956,"(38.9748, -76.9956)",5,5,4,3062,11,1
118,ARADA INTERNATIONAL MARKET,6844 NEW HAMPSHIRE AVE.,,TAKOMA PARK,20912,"ARADA INTERNATIONAL FOOD CORP., INC.",Market,Food,38.9748,-76.9956,"(38.9748, -76.9956)",5,5,4,3062,11,1
118,ARADA INTERNATIONAL MARKET,6844 NEW HAMPSHIRE AVE.,,TAKOMA PARK,20912,"ARADA INTERNATIONAL FOOD CORP., INC.",Market,Food,38.9748,-76.9956,"(38.9748, -76.9956)",5,5,4,3062,11,1
118,ARADA INTERNATIONAL MARKET,6844 NEW HAMPSHIRE AVE.,,TAKOMA PARK,20912,"ARADA INTERNATIONAL FOOD CORP., INC.",Market,Food,38.9748,-76.9956,"(38.9748, -76.9956)",5,5,4,3062,11,1
28583,ARCLIGHT CINEMAS,7101 DEMOCRACY BLVD,,BETHESDA,20817,PACIFIC THEATRE EXHIBITION CORP,Market,Food,39.0221,-77.1471,"(39.0221, -77.1471)",1,1,19,103,1,1
46717,ARIA BEER WINE & DELI,4800 AUBURN AVE,,BETHESDA,20814,STELLA BAMA / PROSERITY AT THE GALLERY LLC,Market,Food,38.9905,-77.0989,"(38.9905, -77.0989)",1,1,12,111,1,1
46717,ARIA BEER WINE & DELI,4800 AUBURN AVE,,BETHESDA,20814,STELLA BAMA / PROSERITY AT THE GALLERY LLC,Market,Food,38.9905,-77.0989,"(38.9905, -77.0989)",1,1,12,111,1,1
48200,ARIA HALA SUPERMARKET,811 HUNGERFORD DR,,ROCKVILLE,20850,AMINULLAH AHMADI AND GHULAM E AHMADI,Market,Food,39.095,-77.1528,"(39.095, -77.1528)",3,3,25,71,12,1
48200,ARIA HALA SUPERMARKET,811 HUNGERFORD DR,,ROCKVILLE,20850,AMINULLAH AHMADI AND GHULAM E AHMADI,Market,Food,39.095,-77.1528,"(39.095, -77.1528)",3,3,25,71,12,1
43431,AROMA JUICE CAFE AND GOLDEN CROSSANT #1,1313 E. GUDE DR.,,ROCKVILLE,20850,AROMA JUICE CAFE INC,Market,Food,39.0969,-77.1363,"(39.0969, -77.1363)",3,3,25,71,12,1
43431,AROMA JUICE CAFE AND GOLDEN CROSSANT #1,1313 E. GUDE DR.,,ROCKVILLE,20850,AROMA JUICE CAFE INC,Market,Food,39.0969,-77.1363,"(39.0969, -77.1363)",3,3,25,71,12,1
43431,AROMA JUICE CAFE AND GOLDEN CROSSANT #1,1313 E. GUDE DR.,,ROCKVILLE,20850,AROMA JUICE CAFE INC,Market,Food,39.0969,-77.1363,"(39.0969, -77.1363)",3,3,25,71,12,1
43431,AROMA JUICE CAFE AND GOLDEN CROSSANT #1,1313 E. GUDE DR.,,ROCKVILLE,20850,AROMA JUICE CAFE INC,Market,Food,39.0969,-77.1363,"(39.0969, -77.1363)",3,3,25,71,12,1
22625,ASADUR'S MARKET,5536 RANDOLPH RD.,,ROCKVILLE,20852,"MEHRANIAN, LLC.",Market,Food,39.0521,-77.1119,"(39.0521, -77.1119)",1,1,19,60,1,1
22625,ASADUR'S MARKET,5536 RANDOLPH RD.,,ROCKVILLE,20852,"MEHRANIAN, LLC.",Market,Food,39.0521,-77.1119,"(39.0521, -77.1119)",1,1,19,60,1,1
18416,ASHTON BEER AND WINE,7 OLNEY-SANDY SPRING RD.,,ASHTON,20861,"JOCELYN, INC.",Market,Food,39.15,-77.013,"(39.15, -77.013)",4,4,35,49,1,1
18416,ASHTON BEER AND WINE,7 OLNEY-SANDY SPRING RD.,,ASHTON,20861,"JOCELYN, INC.",Market,Food,39.15,-77.013,"(39.15, -77.013)",4,4,35,49,1,1
46778,ASPEN HILL CITGO,13615 GEORGIA AVE.,,SILVER SPRING,20906,ASPENHILL SERVICES INC,Market,Food,39.079,-77.0721,"(39.079, -77.0721)",4,4,59,6,1,1
151,ASPEN HILL SHELL,4001 ASPEN HILL RD.,,SILVER SPRING,20906,"JHLM, INC.",Market,Food,39.0805,-77.0798,"(39.0805, -77.0798)",3,3,61,6,1,1
151,ASPEN HILL SHELL,4001 ASPEN HILL RD.,,SILVER SPRING,20906,"JHLM, INC.",Market,Food,39.0805,-77.0798,"(39.0805, -77.0798)",3,3,61,6,1,1
28921,ASPEN SHELL,4101 ASPEN HILL RD,,ROCKVILLE,20853,MMA PETROULEUM LLC,Market,Food,39.0804,-77.0811,"(39.0804, -77.0811)",3,3,61,58,1,1
46904,AT HOME STORES,209 KENTLANDS BLVD,,GAITHERSBURG,20878,AT HOME STORES LLC,Market,Food,39.1264,-77.2373,"(39.1264, -77.2373)",3,3,36,33,21,1
46904,AT HOME STORES,209 KENTLANDS BLVD,,GAITHERSBURG,20878,AT HOME STORES LLC,Market,Food,39.1264,-77.2373,"(39.1264, -77.2373)",3,3,36,33,21,1
46904,AT HOME STORES,209 KENTLANDS BLVD,,GAITHERSBURG,20878,AT HOME STORES LLC,Market,Food,39.1264,-77.2373,"(39.1264, -77.2373)",3,3,36,33,21,1
30191,AUNTIE ANNES,8661 COLESVILLE RD,SPACE B149,SILVER SPRING,20910,MILZELS LLC /DHARMESH SHAH,Market,Food,38.9971,-77.027,"(38.9971, -77.027)",5,5,7,3065,1,1
30191,AUNTIE ANNES,8661 COLESVILLE RD,SPACE B149,SILVER SPRING,20910,MILZELS LLC /DHARMESH SHAH,Market,Food,38.9971,-77.027,"(38.9971, -77.027)",5,5,7,3065,1,1
30191,AUNTIE ANNES,8661 COLESVILLE RD,SPACE B149,SILVER SPRING,20910,MILZELS LLC /DHARMESH SHAH,Market,Food,38.9971,-77.027,"(38.9971, -77.027)",5,5,7,3065,1,1
30191,AUNTIE ANNES,8661 COLESVILLE RD,SPACE B149,SILVER SPRING,20910,MILZELS LLC /DHARMESH SHAH,Market,Food,38.9971,-77.027,"(38.9971, -77.027)",5,5,7,3065,1,1
33130,AUNTIE ANNE'S PRETZELS,7101 DEMOCRACY BLVD,# 9024,BETHESDA,20817,TWISTS & SHOUT LLC,Market,Food,39.0221,-77.1471,"(39.0221, -77.1471)",1,1,19,103,1,1
33130,AUNTIE ANNE'S PRETZELS,7101 DEMOCRACY BLVD,# 9024,BETHESDA,20817,TWISTS & SHOUT LLC,Market,Food,39.0221,-77.1471,"(39.0221, -77.1471)",1,1,19,103,1,1
33130,AUNTIE ANNE'S PRETZELS,7101 DEMOCRACY BLVD,# 9024,BETHESDA,20817,TWISTS & SHOUT LLC,Market,Food,39.0221,-77.1471,"(39.0221, -77.1471)",1,1,19,103,1,1
33130,AUNTIE ANNE'S PRETZELS,7101 DEMOCRACY BLVD,# 9024,BETHESDA,20817,TWISTS & SHOUT LLC,Market,Food,39.0221,-77.1471,"(39.0221, -77.1471)",1,1,19,103,1,1
26654,AUNTIE ANNE'S PRETZELS MD #130,11160 VEIRS MILL RD,(H10),SILVER SPRING,20902,WT PRETZEL LLC,Market,Food,39.037,-77.0539,"(39.037, -77.0539)",4,4,16,17,1,1
26654,AUNTIE ANNE'S PRETZELS MD #130,11160 VEIRS MILL RD,(H10),SILVER SPRING,20902,WT PRETZEL LLC,Market,Food,39.037,-77.0539,"(39.037, -77.0539)",4,4,16,17,1,1
20448,BALDUCCI'S,10323 OLD GEORGETOWN RD.,,BETHESDA,20814,BALDUCCI'S MARYLAND LLC - DONNA YARRISH,Market,Food,39.0251,-77.1243,"(39.0251, -77.1243)",1,1,12,111,1,1
20448,BALDUCCI'S,10323 OLD GEORGETOWN RD.,,BETHESDA,20814,BALDUCCI'S MARYLAND LLC - DONNA YARRISH,Market,Food,39.0251,-77.1243,"(39.0251, -77.1243)",1,1,12,111,1,1
20448,BALDUCCI'S,10323 OLD GEORGETOWN RD.,,BETHESDA,20814,BALDUCCI'S MARYLAND LLC - DONNA YARRISH,Market,Food,39.0251,-77.1243,"(39.0251, -77.1243)",1,1,12,111,1,1
41283,BANGLA BAZAR,11468 CHERRY HILL ROAD,,BELTSVILLE,20705,B3M LLC,Market,Food,39.0447,-76.953,"(39.0447, -76.953)",5,5,21,1648,1,1
22248,BANNER'S HALLMARK,7101 DEMOCRACY BLVD.  2222,,BETHESDA,20817,"OCCASIONS OF MONTGOMERY MALL, LLC.",Market,Food,39.0233,-77.1486,"(39.0233, -77.1486)",1,1,19,103,1,1
22248,BANNER'S HALLMARK,7101 DEMOCRACY BLVD.  2222,,BETHESDA,20817,"OCCASIONS OF MONTGOMERY MALL, LLC.",Market,Food,39.0233,-77.1486,"(39.0233, -77.1486)",1,1,19,103,1,1
212,BASKIN ROBBINS,10592 B METROPOLITAN AVE.,,KENSINGTON,20895,KRISHANA CORPORATION,Market,Food,39.0291,-77.0749,"(39.0291, -77.0749)",1,1,15,25,6,1
212,BASKIN ROBBINS,10592 B METROPOLITAN AVE.,,KENSINGTON,20895,KRISHANA CORPORATION,Market,Food,39.0291,-77.0749,"(39.0291, -77.0749)",1,1,15,25,6,1
212,BASKIN ROBBINS,10592 B METROPOLITAN AVE.,,KENSINGTON,20895,KRISHANA CORPORATION,Market,Food,39.0291,-77.0749,"(39.0291, -77.0749)",1,1,15,25,6,1
28205,B & B BEER & WINE,8403 SNOUFFER SCHOOL RD,,GAITHERSBURG,20879,SOVATHA LLC,Market,Food,39.1674,-77.172,"(39.1674, -77.172)",4,4,36,31,1,1
28205,B & B BEER & WINE,8403 SNOUFFER SCHOOL RD,,GAITHERSBURG,20879,SOVATHA LLC,Market,Food,39.1674,-77.172,"(39.1674, -77.172)",4,4,36,31,1,1
2745,"BED, BATH & BEYOND #33",1519 ROCKVILLE PK.,,ROCKVILLE,20852,BED BATH & BEYOND,Market,Food,39.064,-77.1291,"(39.064, -77.1291)",3,3,25,60,12,1
22770,BED BATH & BEYOND # 805,12940 MIDDLEBROOK RD.,,GERMANTOWN,20874,BED BATH AND BEYOND,Market,Food,39.1796,-77.2704,"(39.1796, -77.2704)",2,2,39,39,1,1
22770,BED BATH & BEYOND # 805,12940 MIDDLEBROOK RD.,,GERMANTOWN,20874,BED BATH AND BEYOND,Market,Food,39.1796,-77.2704,"(39.1796, -77.2704)",2,2,39,39,1,1
20899,BEER & WINE INTERNATIONAL,4011-B NORBECK RD.,,ROCKVILLE,20853,"AKSHAT, LLC",Market,Food,39.1099,-77.0777,"(39.1099, -77.0777)",4,4,60,58,1,1
33139,BEILER'S BAKERY & DOUGHNUTS,12613 WISTERIA DR,,GERMANTOWN,20874,BEILER'S DONUTS MD LLC,Market,Food,39.1709,-77.2606,"(39.1709, -77.2606)",2,2,39,39,1,1
33139,BEILER'S BAKERY & DOUGHNUTS,12613 WISTERIA DR,,GERMANTOWN,20874,BEILER'S DONUTS MD LLC,Market,Food,39.1709,-77.2606,"(39.1709, -77.2606)",2,2,39,39,1,1
33139,BEILER'S BAKERY & DOUGHNUTS,12613 WISTERIA DR,,GERMANTOWN,20874,BEILER'S DONUTS MD LLC,Market,Food,39.1709,-77.2606,"(39.1709, -77.2606)",2,2,39,39,1,1
20137,BELBY DISCOUNT BEER & WINE,888 ROCKVILLE PIKE,,ROCKVILLE,20852,"CKCE, INC",Market,Food,39.075,-77.1356,"(39.075, -77.1356)",3,3,25,60,12,1
24145,BELLA'S RESERVE,2120 INDUSTRIAL PARKWAY,,SILVER SPRING,20904,JSK CARE GROUP LLC,Market,Food,39.0549,-76.9691,"(39.0549, -76.9691)",5,5,21,12,1,1
35760,BEL PRE LAYHILL SUNOCO,2115 BEL PRE RD,,SILVER SPRING,20906,SFT FUEL LLC,Market,Food,39.0909,-77.0458,"(39.0909, -77.0458)",4,4,59,6,1,1
28006,BEL PRE WINE,2251 BEL PRE RD,,SILVER SPRING,20906,RETIAL REAL ESTATE SERVICE INC,Market,Food,39.0919,-77.0482,"(39.0919, -77.0482)",4,4,59,6,1,1
28006,BEL PRE WINE,2251 BEL PRE RD,,SILVER SPRING,20906,RETIAL REAL ESTATE SERVICE INC,Market,Food,39.0919,-77.0482,"(39.0919, -77.0482)",4,4,59,6,1,1
236,BELTWAY CAR CARE,9475 GEORGIA AVE.,,SILVER SPRING,20910,AMSG PETROLEUM INC,Market,Food,39.0101,-77.0405,"(39.0101, -77.0405)",5,5,7,3065,1,1
236,BELTWAY CAR CARE,9475 GEORGIA AVE.,,SILVER SPRING,20910,AMSG PETROLEUM INC,Market,Food,39.0101,-77.0405,"(39.0101, -77.0405)",5,5,7,3065,1,1
236,BELTWAY CAR CARE,9475 GEORGIA AVE.,,SILVER SPRING,20910,AMSG PETROLEUM INC,Market,Food,39.0101,-77.0405,"(39.0101, -77.0405)",5,5,7,3065,1,1
18445,BELTWAY SHELL,9510 GEORGIA AVE.,,SILVER SPRING,20910,"TRIPETRO, LLC",Market,Food,39.0108,-77.0421,"(39.0108, -77.0421)",5,5,7,3065,1,1
28411,BEMNET SUPERMARKET AND DELI,617 SLIGO AVE,,SILVER SPRING,20910,BEMNET MARKET DLL & LLC,Market,Food,38.9914,-77.0141,"(38.9914, -77.0141)",5,5,7,3065,1,1
28411,BEMNET SUPERMARKET AND DELI,617 SLIGO AVE,,SILVER SPRING,20910,BEMNET MARKET DLL & LLC,Market,Food,38.9914,-77.0141,"(38.9914, -77.0141)",5,5,7,3065,1,1
28411,BEMNET SUPERMARKET AND DELI,617 SLIGO AVE,,SILVER SPRING,20910,BEMNET MARKET DLL & LLC,Market,Food,38.9914,-77.0141,"(38.9914, -77.0141)",5,5,7,3065,1,1
28411,BEMNET SUPERMARKET AND DELI,617 SLIGO AVE,,SILVER SPRING,20910,BEMNET MARKET DLL & LLC,Market,Food,38.9914,-77.0141,"(38.9914, -77.0141)",5,5,7,3065,1,1
39535,BEN & JERRY'S ICE CREAM,903 ELLSWORTH DR.,,SILVER SPRING,20910,MB & MB LLC,Market,Food,38.9967,-77.0258,"(38.9967, -77.0258)",5,5,7,3065,1,1
39535,BEN & JERRY'S ICE CREAM,903 ELLSWORTH DR.,,SILVER SPRING,20910,MB & MB LLC,Market,Food,38.9967,-77.0258,"(38.9967, -77.0258)",5,5,7,3065,1,1
39535,BEN & JERRY'S ICE CREAM,903 ELLSWORTH DR.,,SILVER SPRING,20910,MB & MB LLC,Market,Food,38.9967,-77.0258,"(38.9967, -77.0258)",5,5,7,3065,1,1
39535,BEN & JERRY'S ICE CREAM,903 ELLSWORTH DR.,,SILVER SPRING,20910,MB & MB LLC,Market,Food,38.9967,-77.0258,"(38.9967, -77.0258)",5,5,7,3065,1,1
23946,BEN YEHUDA CAFE AND PIZZERIA,1370 LAMBERTON DR,,SILVER SPRING,20902,"MONUMENTAL KOSHER, INC",Market,Food,39.04,-77.031,"(39.04, -77.031)",4,4,16,17,1,1
23946,BEN YEHUDA CAFE AND PIZZERIA,1370 LAMBERTON DR,,SILVER SPRING,20902,"MONUMENTAL KOSHER, INC",Market,Food,39.04,-77.031,"(39.04, -77.031)",4,4,16,17,1,1
23946,BEN YEHUDA CAFE AND PIZZERIA,1370 LAMBERTON DR,,SILVER SPRING,20902,"MONUMENTAL KOSHER, INC",Market,Food,39.04,-77.031,"(39.04, -77.031)",4,4,16,17,1,1
23946,BEN YEHUDA CAFE AND PIZZERIA,1370 LAMBERTON DR,,SILVER SPRING,20902,"MONUMENTAL KOSHER, INC",Market,Food,39.04,-77.031,"(39.04, -77.031)",4,4,16,17,1,1
37300,BERRIES & BOWLS,120 MARKET ST,,GAITHERSBURG,20878,SEEN LLC,Market,Food,39.1223,-77.2348,"(39.1223, -77.2348)",3,3,36,33,21,1
37300,BERRIES & BOWLS,120 MARKET ST,,GAITHERSBURG,20878,SEEN LLC,Market,Food,39.1223,-77.2348,"(39.1223, -77.2348)",3,3,36,33,21,1
37300,BERRIES & BOWLS,120 MARKET ST,,GAITHERSBURG,20878,SEEN LLC,Market,Food,39.1223,-77.2348,"(39.1223, -77.2348)",3,3,36,33,21,1
45534,BERRIES & BOWLS,4961 ELM ST,,BETHESDA,20814,SEEN 2 LLC,Market,Food,38.9824,-77.0981,"(38.9824, -77.0981)",1,1,12,111,1,1
45534,BERRIES & BOWLS,4961 ELM ST,,BETHESDA,20814,SEEN 2 LLC,Market,Food,38.9824,-77.0981,"(38.9824, -77.0981)",1,1,12,111,1,1
45534,BERRIES & BOWLS,4961 ELM ST,,BETHESDA,20814,SEEN 2 LLC,Market,Food,38.9824,-77.0981,"(38.9824, -77.0981)",1,1,12,111,1,1
35621,BERRY CUP,36 MARYLAND AVE,,ROCKVILLE,20850,STONEICE COMPANY,Market,Food,39.0857,-77.1506,"(39.0857, -77.1506)",3,3,25,71,12,1
35621,BERRY CUP,36 MARYLAND AVE,,ROCKVILLE,20850,STONEICE COMPANY,Market,Food,39.0857,-77.1506,"(39.0857, -77.1506)",3,3,25,71,12,1
48172,"BEST BEER, WINE & DELI",18749 - A N. FREDERICK AVE,,GAITHERSBURG,20879,NILKANTH LLC,Market,Food,39.1639,-77.2257,"(39.1639, -77.2257)",3,3,36,31,21,1
20488,"BEST BEER, WINE & DELI",18749 - A N. FREDERICK AVE,,GAITHERSBURG,20879,AMBEKRUPA LLC,Market,Food,39.1639,-77.2257,"(39.1639, -77.2257)",3,3,36,31,21,1
20488,"BEST BEER, WINE & DELI",18749 - A N. FREDERICK AVE,,GAITHERSBURG,20879,AMBEKRUPA LLC,Market,Food,39.1639,-77.2257,"(39.1639, -77.2257)",3,3,36,31,21,1
18134,BEST BUY #288,15750 SHADY GROVE RD.,,GAITHERSBURG,20877,BEST BUY STORES LP,Market,Food,39.1161,-77.1869,"(39.1161, -77.1869)",3,3,36,35,21,1
18134,BEST BUY #288,15750 SHADY GROVE RD.,,GAITHERSBURG,20877,BEST BUY STORES LP,Market,Food,39.1161,-77.1869,"(39.1161, -77.1869)",3,3,36,35,21,1
18134,BEST BUY #288,15750 SHADY GROVE RD.,,GAITHERSBURG,20877,BEST BUY STORES LP,Market,Food,39.1161,-77.1869,"(39.1161, -77.1869)",3,3,36,35,21,1
19379,BEST BUY #293,1200 ROCKVILLE PIKE,,ROCKVILLE,20852,"BEST BUY STORES, LP",Market,Food,39.0699,-77.1303,"(39.0699, -77.1303)",3,3,25,60,12,1
19379,BEST BUY #293,1200 ROCKVILLE PIKE,,ROCKVILLE,20852,"BEST BUY STORES, LP",Market,Food,39.0699,-77.1303,"(39.0699, -77.1303)",3,3,25,60,12,1
18423,BEST BUY #819,20914 FREDERICK RD.,,GERMANTOWN,20876,BEST BUY STORES L.P.,Market,Food,39.2,-77.2516,"(39.2, -77.2516)",2,2,39,36,1,1
18423,BEST BUY #819,20914 FREDERICK RD.,,GERMANTOWN,20876,BEST BUY STORES L.P.,Market,Food,39.2,-77.2516,"(39.2, -77.2516)",2,2,39,36,1,1
18423,BEST BUY #819,20914 FREDERICK RD.,,GERMANTOWN,20876,BEST BUY STORES L.P.,Market,Food,39.2,-77.2516,"(39.2, -77.2516)",2,2,39,36,1,1
38388,BEST CONVENIENCE MART,8120 PINEY BRANCH RD.,,SILVER SPRING,20910,ASTER EDOSSA/ FANTU INC,Market,Food,38.9927,-77.0099,"(38.9927, -77.0099)",5,5,7,3065,1,1
38388,BEST CONVENIENCE MART,8120 PINEY BRANCH RD.,,SILVER SPRING,20910,ASTER EDOSSA/ FANTU INC,Market,Food,38.9927,-77.0099,"(38.9927, -77.0099)",5,5,7,3065,1,1
38310,BETHESDA BAZAR,8006 NORFOLK AVE,,BETHESDA,20814,AE SOLUTIONS LLC,Market,Food,38.9899,-77.0992,"(38.9899, -77.0992)",1,1,12,111,1,1
253,BETHESDA BEER & WINE,8015 WISCONSIN AVE.,,BETHESDA,20814,BSBB LIMITED,Market,Food,38.9909,-77.0953,"(38.9909, -77.0953)",1,1,12,111,1,1
253,BETHESDA BEER & WINE,8015 WISCONSIN AVE.,,BETHESDA,20814,BSBB LIMITED,Market,Food,38.9909,-77.0953,"(38.9909, -77.0953)",1,1,12,111,1,1
258,BETHESDA COMMUNITY FOOD STORE,6500 SEVEN LOCKS RD.,,CABIN JOHN,20818,"BETHESDA COMMUNITY FOOD STORE, INC.",Market,Food,38.9753,-77.1619,"(38.9753, -77.1619)",1,1,3,102,1,1
258,BETHESDA COMMUNITY FOOD STORE,6500 SEVEN LOCKS RD.,,CABIN JOHN,20818,"BETHESDA COMMUNITY FOOD STORE, INC.",Market,Food,38.9753,-77.1619,"(38.9753, -77.1619)",1,1,3,102,1,1
258,BETHESDA COMMUNITY FOOD STORE,6500 SEVEN LOCKS RD.,,CABIN JOHN,20818,"BETHESDA COMMUNITY FOOD STORE, INC.",Market,Food,38.9753,-77.1619,"(38.9753, -77.1619)",1,1,3,102,1,1
258,BETHESDA COMMUNITY FOOD STORE,6500 SEVEN LOCKS RD.,,CABIN JOHN,20818,"BETHESDA COMMUNITY FOOD STORE, INC.",Market,Food,38.9753,-77.1619,"(38.9753, -77.1619)",1,1,3,102,1,1
26565,BETHESDA MARKET,4611-D SANAGMORE RD,,BETHESDA,20816,"OM SAI RAM, INC",Market,Food,38.95,-77.1194,"(38.95, -77.1194)",1,1,12,107,1,1
26565,BETHESDA MARKET,4611-D SANAGMORE RD,,BETHESDA,20816,"OM SAI RAM, INC",Market,Food,38.95,-77.1194,"(38.95, -77.1194)",1,1,12,107,1,1
26673,BETHESDA ROW CAFE,7235 WOODMONT AVE,,BETHESDA,20814,CINEMA BEVERAGES HOLDING COMPANY LLC,Market,Food,38.9816,-77.0953,"(38.9816, -77.0953)",1,1,12,111,1,1
26673,BETHESDA ROW CAFE,7235 WOODMONT AVE,,BETHESDA,20814,CINEMA BEVERAGES HOLDING COMPANY LLC,Market,Food,38.9816,-77.0953,"(38.9816, -77.0953)",1,1,12,111,1,1
174,BETHESDA SUNOCO,8240 WISCONSIN AVE.,,BETHESDA,20814,"FOGEL/BETHESDA SERVICE CENTER, INC.",Market,Food,38.9924,-77.0963,"(38.9924, -77.0963)",1,1,12,111,1,1
33126,BETHY MAGIC DOLLAR,12337-B GEORGIA AVE,,SILVER SPRING,20906,SAMSON HABTEMARIAM (FIREHIWOT LLC),Market,Food,39.0608,-77.0488,"(39.0608, -77.0488)",4,4,23,6,1,1
2729,BIG LOTS #1218,19142 MONTGOMERY VILLAGE AVE,,GAITHERSBURG,20886,"BIG LOTS STORES, INC.",Market,Food,39.1712,-77.2056,"(39.1712, -77.2056)",2,2,38,28,1,1
2729,BIG LOTS #1218,19142 MONTGOMERY VILLAGE AVE,,GAITHERSBURG,20886,"BIG LOTS STORES, INC.",Market,Food,39.1712,-77.2056,"(39.1712, -77.2056)",2,2,38,28,1,1
26926,BIG LOTS #5300,20926 FREDERICK RD,,GERMANTOWN,20876,BIG LOTS STORES INC,Market,Food,39.2022,-77.2497,"(39.2022, -77.2497)",2,2,39,36,1,1
26926,BIG LOTS #5300,20926 FREDERICK RD,,GERMANTOWN,20876,BIG LOTS STORES INC,Market,Food,39.2022,-77.2497,"(39.2022, -77.2497)",2,2,39,36,1,1
26926,BIG LOTS #5300,20926 FREDERICK RD,,GERMANTOWN,20876,BIG LOTS STORES INC,Market,Food,39.2022,-77.2497,"(39.2022, -77.2497)",2,2,39,36,1,1
33258,BISMILLAH 355,765 ROCKVILLE PIKE,STE H,ROCKVILLE,20852,BISMILLAH 355  LLC,Market,Food,39.0777,-77.1415,"(39.0777, -77.1415)",3,3,25,60,12,1
33258,BISMILLAH 355,765 ROCKVILLE PIKE,STE H,ROCKVILLE,20852,BISMILLAH 355  LLC,Market,Food,39.0777,-77.1415,"(39.0777, -77.1415)",3,3,25,60,12,1
36792,BJ BEER & WINE,20032 GOSHEN RD.,,GAITHERSBURG,20879,JEON GALAXY INC,Market,Food,39.1865,-77.189,"(39.1865, -77.189)",2,2,38,28,1,1
33194,BLACK HILL VISITOR CENTER,20926 LAKE RIDGE DR,,BOYDS,20841,MARYLAND NAT'L CAPITAL PARK & PLANNING COMMISSION,Market,Food,39.1926,-77.2962,"(39.1926, -77.2962)",2,2,42,75,1,1
33194,BLACK HILL VISITOR CENTER,20926 LAKE RIDGE DR,,BOYDS,20841,MARYLAND NAT'L CAPITAL PARK & PLANNING COMMISSION,Market,Food,39.1926,-77.2962,"(39.1926, -77.2962)",2,2,42,75,1,1
32939,BOBA POP,312 MAIN STREET,STE 100,GAITHERSBURG,20878,BOBA POP LLC,Market,Food,39.1219,-77.2383,"(39.1219, -77.2383)",3,3,36,33,21,1
32939,BOBA POP,312 MAIN STREET,STE 100,GAITHERSBURG,20878,BOBA POP LLC,Market,Food,39.1219,-77.2383,"(39.1219, -77.2383)",3,3,36,33,21,1
32939,BOBA POP,312 MAIN STREET,STE 100,GAITHERSBURG,20878,BOBA POP LLC,Market,Food,39.1219,-77.2383,"(39.1219, -77.2383)",3,3,36,33,21,1
45528,BOBAPOP GERMANTOWN,19847 CENTURY BLVD,UNIT J,GERMANTOWN,20874,LIYIN CHEN/ BOBAPOP GERMANTOWN LLC,Market,Food,39.1815,-77.2658,"(39.1815, -77.2658)",2,2,39,39,1,1
45528,BOBAPOP GERMANTOWN,19847 CENTURY BLVD,UNIT J,GERMANTOWN,20874,LIYIN CHEN/ BOBAPOP GERMANTOWN LLC,Market,Food,39.1815,-77.2658,"(39.1815, -77.2658)",2,2,39,39,1,1
45522,BONJOUR WAFFLES,11160 VEIRS MILL RD,,SILVER SPRING,20902,BONJOUR WAFFLES,Market,Food,39.037,-77.0539,"(39.037, -77.0539)",4,4,16,17,1,1
45522,BONJOUR WAFFLES,11160 VEIRS MILL RD,,SILVER SPRING,20902,BONJOUR WAFFLES,Market,Food,39.037,-77.0539,"(39.037, -77.0539)",4,4,16,17,1,1
45522,BONJOUR WAFFLES,11160 VEIRS MILL RD,,SILVER SPRING,20902,BONJOUR WAFFLES,Market,Food,39.037,-77.0539,"(39.037, -77.0539)",4,4,16,17,1,1
45522,BONJOUR WAFFLES,11160 VEIRS MILL RD,,SILVER SPRING,20902,BONJOUR WAFFLES,Market,Food,39.037,-77.0539,"(39.037, -77.0539)",4,4,16,17,1,1
45522,BONJOUR WAFFLES,11160 VEIRS MILL RD,,SILVER SPRING,20902,BONJOUR WAFFLES,Market,Food,39.037,-77.0539,"(39.037, -77.0539)",4,4,16,17,1,1
842,BOOLTEENA (LATINO MARKET ),2503-2505 ENNALLS AVE,,WHEATON,20902,"BOOLTEENA, INC",Market,Food,39.0402,-77.0532,"(39.0402, -77.0532)",4,4,16,17,1,1
28549,BOTTLE SHOP,350 FORTUNE TER,STE 102,POTOMAC,20854,THE BOUKALI GROUP LLC,Market,Food,39.0617,-77.1583,"(39.0617, -77.1583)",3,3,25,53,12,1
28549,BOTTLE SHOP,350 FORTUNE TER,STE 102,POTOMAC,20854,THE BOUKALI GROUP LLC,Market,Food,39.0617,-77.1583,"(39.0617, -77.1583)",3,3,25,53,12,1
38354,BOYDS COUNTRY STORE,15110 BARNESVILLE RD.,,BOYDS,20841,P & V GROUP LLC,Market,Food,39.1846,-77.3144,"(39.1846, -77.3144)",2,2,42,75,1,1
38354,BOYDS COUNTRY STORE,15110 BARNESVILLE RD.,,BOYDS,20841,P & V GROUP LLC,Market,Food,39.1846,-77.3144,"(39.1846, -77.3144)",2,2,42,75,1,1
38354,BOYDS COUNTRY STORE,15110 BARNESVILLE RD.,,BOYDS,20841,P & V GROUP LLC,Market,Food,39.1846,-77.3144,"(39.1846, -77.3144)",2,2,42,75,1,1
38354,BOYDS COUNTRY STORE,15110 BARNESVILLE RD.,,BOYDS,20841,P & V GROUP LLC,Market,Food,39.1846,-77.3144,"(39.1846, -77.3144)",2,2,42,75,1,1
38354,BOYDS COUNTRY STORE,15110 BARNESVILLE RD.,,BOYDS,20841,P & V GROUP LLC,Market,Food,39.1846,-77.3144,"(39.1846, -77.3144)",2,2,42,75,1,1
22414,BP GAS STATION,19304 MONTGOMERY VILLAGE AVE.,,MONTGOMERY VILLAGE,20886,"DERMIK, LLC.",Market,Food,39.1731,-77.2047,"(39.1731, -77.2047)",2,2,38,28,1,1
22414,BP GAS STATION,19304 MONTGOMERY VILLAGE AVE.,,MONTGOMERY VILLAGE,20886,"DERMIK, LLC.",Market,Food,39.1731,-77.2047,"(39.1731, -77.2047)",2,2,38,28,1,1
22414,BP GAS STATION,19304 MONTGOMERY VILLAGE AVE.,,MONTGOMERY VILLAGE,20886,"DERMIK, LLC.",Market,Food,39.1731,-77.2047,"(39.1731, -77.2047)",2,2,38,28,1,1
22414,BP GAS STATION,19304 MONTGOMERY VILLAGE AVE.,,MONTGOMERY VILLAGE,20886,"DERMIK, LLC.",Market,Food,39.1731,-77.2047,"(39.1731, -77.2047)",2,2,38,28,1,1
20380,BRADLEY BOULEVARD LIBERTY,5001 BRADLEY BLVD.,,CHEVY CHASE,20815,"L + T GROUP, INC.",Market,Food,38.9791,-77.0991,"(38.9791, -77.0991)",1,1,12,111,1,1
20380,BRADLEY BOULEVARD LIBERTY,5001 BRADLEY BLVD.,,CHEVY CHASE,20815,"L + T GROUP, INC.",Market,Food,38.9791,-77.0991,"(38.9791, -77.0991)",1,1,12,111,1,1
20380,BRADLEY BOULEVARD LIBERTY,5001 BRADLEY BLVD.,,CHEVY CHASE,20815,"L + T GROUP, INC.",Market,Food,38.9791,-77.0991,"(38.9791, -77.0991)",1,1,12,111,1,1
20379,BRADLEY LIBERTY,4972 BRADLEY BLVD,,CHEVY CHASE,20815,L + T GROUP INC.,Market,Food,38.9777,-77.0985,"(38.9777, -77.0985)",1,1,5,110,1,1
20379,BRADLEY LIBERTY,4972 BRADLEY BLVD,,CHEVY CHASE,20815,L + T GROUP INC.,Market,Food,38.9777,-77.0985,"(38.9777, -77.0985)",1,1,5,110,1,1
20305,BREAD CORNER,591 HUNGERFORD DR,,ROCKVILLE,20850,BREAD CORNER,Market,Food,39.0918,-77.1523,"(39.0918, -77.1523)",3,3,25,71,12,1
20305,BREAD CORNER,591 HUNGERFORD DR,,ROCKVILLE,20850,BREAD CORNER,Market,Food,39.0918,-77.1523,"(39.0918, -77.1523)",3,3,25,71,12,1
39683,BREADS UNLIMTED,6914 ARLINGTON RD,,BETHESDA,20814,"JRM ENTERPRISES, LLC",Market,Food,38.9792,-77.0993,"(38.9792, -77.0993)",1,1,12,111,1,1
39683,BREADS UNLIMTED,6914 ARLINGTON RD,,BETHESDA,20814,"JRM ENTERPRISES, LLC",Market,Food,38.9792,-77.0993,"(38.9792, -77.0993)",1,1,12,111,1,1
39683,BREADS UNLIMTED,6914 ARLINGTON RD,,BETHESDA,20814,"JRM ENTERPRISES, LLC",Market,Food,38.9792,-77.0993,"(38.9792, -77.0993)",1,1,12,111,1,1
28002,BRIGGS CHANEY DELI,13832 OUTLET DR,,SILVER SPRING,20904,TALATI ENTERPRISES INC,Market,Food,39.0833,-76.9454,"(39.0833, -76.9454)",5,5,53,12,1,1
28002,BRIGGS CHANEY DELI,13832 OUTLET DR,,SILVER SPRING,20904,TALATI ENTERPRISES INC,Market,Food,39.0833,-76.9454,"(39.0833, -76.9454)",5,5,53,12,1,1
344,BRIGGS CHANEY EXXON,3050 BRIGGS CHANEY RD.,,SILVER SPRING,20904,McLEOD & SONS,Market,Food,39.0817,-76.9463,"(39.0817, -76.9463)",5,5,53,12,1,1
344,BRIGGS CHANEY EXXON,3050 BRIGGS CHANEY RD.,,SILVER SPRING,20904,McLEOD & SONS,Market,Food,39.0817,-76.9463,"(39.0817, -76.9463)",5,5,53,12,1,1
29307,BRIGHTON BEER & WINE,225 MUDDY BRANCH RD,,GAITHERSBURG,20878,NDA GROUP INC,Market,Food,39.1278,-77.2058,"(39.1278, -77.2058)",3,3,36,33,21,1
30683,BROOKSIDE GARDENS GIFTSHOPS #1,1800 GLENALLAN AVE,,WHEATON,20902,M-NCPPC BROOKSIDE GARDENS ENTERPRISE,Market,Food,39.0581,-77.0374,"(39.0581, -77.0374)",4,4,23,17,1,1
30704,BROOKSIDE GARDENS GIFTSHOPS # 2,1500 GLENALLAN AVE,,SILVER SPRING,20902,M-NCPPC BROOKSIDE GARDENS ENTERPRISE,Market,Food,39.0581,-77.0374,"(39.0581, -77.0374)",4,4,23,17,1,1
358,BROOKVILLE MARKET,7027 BROOKVILLE RD.,,CHEVY CHASE,20815,CHEVY CHASE MARKET INC,Market,Food,38.981,-77.0712,"(38.981, -77.0712)",1,1,5,110,5,1
358,BROOKVILLE MARKET,7027 BROOKVILLE RD.,,CHEVY CHASE,20815,CHEVY CHASE MARKET INC,Market,Food,38.981,-77.0712,"(38.981, -77.0712)",1,1,5,110,5,1
358,BROOKVILLE MARKET,7027 BROOKVILLE RD.,,CHEVY CHASE,20815,CHEVY CHASE MARKET INC,Market,Food,38.981,-77.0712,"(38.981, -77.0712)",1,1,5,110,5,1
358,BROOKVILLE MARKET,7027 BROOKVILLE RD.,,CHEVY CHASE,20815,CHEVY CHASE MARKET INC,Market,Food,38.981,-77.0712,"(38.981, -77.0712)",1,1,5,110,5,1
17702,BROOKVILLE PHARMACY,7025 BROOKVILLE RD.,,CHEVY CHASE,20815,"DRUG DEPOT, INC.",Market,Food,38.9808,-77.0712,"(38.9808, -77.0712)",1,1,5,110,5,1
17702,BROOKVILLE PHARMACY,7025 BROOKVILLE RD.,,CHEVY CHASE,20815,"DRUG DEPOT, INC.",Market,Food,38.9808,-77.0712,"(38.9808, -77.0712)",1,1,5,110,5,1
35636,BROWN BAG,1 BETHESDA METRO CENTER,,BETHESDA,20814,THE BROWN BAG INC,Market,Food,38.9844,-77.0948,"(38.9844, -77.0948)",1,1,12,111,1,1
35636,BROWN BAG,1 BETHESDA METRO CENTER,,BETHESDA,20814,THE BROWN BAG INC,Market,Food,38.9844,-77.0948,"(38.9844, -77.0948)",1,1,12,111,1,1
35636,BROWN BAG,1 BETHESDA METRO CENTER,,BETHESDA,20814,THE BROWN BAG INC,Market,Food,38.9844,-77.0948,"(38.9844, -77.0948)",1,1,12,111,1,1
35636,BROWN BAG,1 BETHESDA METRO CENTER,,BETHESDA,20814,THE BROWN BAG INC,Market,Food,38.9844,-77.0948,"(38.9844, -77.0948)",1,1,12,111,1,1
35636,BROWN BAG,1 BETHESDA METRO CENTER,,BETHESDA,20814,THE BROWN BAG INC,Market,Food,38.9844,-77.0948,"(38.9844, -77.0948)",1,1,12,111,1,1
35636,BROWN BAG,1 BETHESDA METRO CENTER,,BETHESDA,20814,THE BROWN BAG INC,Market,Food,38.9844,-77.0948,"(38.9844, -77.0948)",1,1,12,111,1,1
18951,BRUSTER'S REAL ICE CREAM,18519 N. FREDERICK AVE.,,GAITHERSBURG,20879,"SMILES N TREATS, LLC",Market,Food,39.1612,-77.2212,"(39.1612, -77.2212)",3,3,36,31,21,1
18951,BRUSTER'S REAL ICE CREAM,18519 N. FREDERICK AVE.,,GAITHERSBURG,20879,"SMILES N TREATS, LLC",Market,Food,39.1612,-77.2212,"(39.1612, -77.2212)",3,3,36,31,21,1
18951,BRUSTER'S REAL ICE CREAM,18519 N. FREDERICK AVE.,,GAITHERSBURG,20879,"SMILES N TREATS, LLC",Market,Food,39.1612,-77.2212,"(39.1612, -77.2212)",3,3,36,31,21,1
18951,BRUSTER'S REAL ICE CREAM,18519 N. FREDERICK AVE.,,GAITHERSBURG,20879,"SMILES N TREATS, LLC",Market,Food,39.1612,-77.2212,"(39.1612, -77.2212)",3,3,36,31,21,1
33266,BUBBLE AND TEA,1319 B ROCKVILLE PIKE,,ROCKVILLE,20852,HSIAO FEN CHANG,Market,Food,39.0686,-77.1309,"(39.0686, -77.1309)",3,3,25,60,12,1
33266,BUBBLE AND TEA,1319 B ROCKVILLE PIKE,,ROCKVILLE,20852,HSIAO FEN CHANG,Market,Food,39.0686,-77.1309,"(39.0686, -77.1309)",3,3,25,60,12,1
33266,BUBBLE AND TEA,1319 B ROCKVILLE PIKE,,ROCKVILLE,20852,HSIAO FEN CHANG,Market,Food,39.0686,-77.1309,"(39.0686, -77.1309)",3,3,25,60,12,1
46901,BUBBLE N BERRY,7234 MUNCASTER MILL RD,,DERWOOD,20855,MARYLAND BUBBLE N BERRY INC,Market,Food,39.1455,-77.1456,"(39.1455, -77.1456)",3,3,36,51,1,1
32846,BUBBLE N BERRY,7234 MUNCASTER MILL RD,,DERWOOD,20855,BUBBLE N BERRY INC,Market,Food,39.1455,-77.1456,"(39.1455, -77.1456)",3,3,36,51,1,1
32846,BUBBLE N BERRY,7234 MUNCASTER MILL RD,,DERWOOD,20855,BUBBLE N BERRY INC,Market,Food,39.1455,-77.1456,"(39.1455, -77.1456)",3,3,36,51,1,1
32846,BUBBLE N BERRY,7234 MUNCASTER MILL RD,,DERWOOD,20855,BUBBLE N BERRY INC,Market,Food,39.1455,-77.1456,"(39.1455, -77.1456)",3,3,36,51,1,1
39532,BUBBLE TEA CAF,130 ROLLINS AVE.,,ROCKVILLE,20852,AURORA INTL LLC,Market,Food,39.0586,-77.1229,"(39.0586, -77.1229)",3,3,25,60,12,1
39532,BUBBLE TEA CAF,130 ROLLINS AVE.,,ROCKVILLE,20852,AURORA INTL LLC,Market,Food,39.0586,-77.1229,"(39.0586, -77.1229)",3,3,25,60,12,1
39532,BUBBLE TEA CAF,130 ROLLINS AVE.,,ROCKVILLE,20852,AURORA INTL LLC,Market,Food,39.0586,-77.1229,"(39.0586, -77.1229)",3,3,25,60,12,1
39532,BUBBLE TEA CAF,130 ROLLINS AVE.,,ROCKVILLE,20852,AURORA INTL LLC,Market,Food,39.0586,-77.1229,"(39.0586, -77.1229)",3,3,25,60,12,1
39532,BUBBLE TEA CAF,130 ROLLINS AVE.,,ROCKVILLE,20852,AURORA INTL LLC,Market,Food,39.0586,-77.1229,"(39.0586, -77.1229)",3,3,25,60,12,1
47065,BURLINGTON #1285,12089 ROCKVILLE PIKE,,ROCKVILLE,20852,BURLINGTON COAT FACTORY WAREHOUSE CORP,Market,Food,39.0563,-77.118,"(39.0563, -77.118)",1,1,19,60,1,1
39802,BURLINGTON COAT FACTORY #276,8661 COLESVILLE RD,,SILVER SPRING,20910,BURLINGTON COAT FACTORY WAREHOUSE CORPORATION,Market,Food,38.9969,-77.0262,"(38.9969, -77.0262)",5,5,7,3065,1,1
39803,BURLINGTON COAT FACTORY #303,600 NORTH FREDERICK AVE,,GAITHERSBURG,20877,BURLINGTON COAT FACTORY WAREHOUSE CORPORATION,Market,Food,39.15,-77.2102,"(39.15, -77.2102)",3,3,36,35,21,1
39803,BURLINGTON COAT FACTORY #303,600 NORTH FREDERICK AVE,,GAITHERSBURG,20877,BURLINGTON COAT FACTORY WAREHOUSE CORPORATION,Market,Food,39.15,-77.2102,"(39.15, -77.2102)",3,3,36,35,21,1
23543,BURNT MILLS CARROLL FUEL,10711 COLUMBIA PIKE,,SILVER SPRING,20901,"DUSTIN, INC.",Market,Food,39.0309,-77.0047,"(39.0309, -77.0047)",5,5,18,21,1,1
46940,BURNT MILLS SUNOCO,10810 COLUMBIA PIKE,,SILVER SPRING,20901,MONTGOMERY PETRO LLC,Market,Food,39.0335,-77.0031,"(39.0335, -77.0031)",5,5,18,21,1,1
23542,BURNT MILLS SUNOCO,10810 COLUMBIA PIKE,,SILVER SPRING,20901,"CARPAT, INC.",Market,Food,39.0335,-77.0031,"(39.0335, -77.0031)",5,5,18,21,1,1
23542,BURNT MILLS SUNOCO,10810 COLUMBIA PIKE,,SILVER SPRING,20901,"CARPAT, INC.",Market,Food,39.0335,-77.0031,"(39.0335, -77.0031)",5,5,18,21,1,1
966,BURTONSVILLE FREESTATE,15411 OLD COLUMBIA PK.,,BURTONSVILLE,20866,FREESTATE PETROLEUM CORPORATION,Market,Food,39.1084,-76.9358,"(39.1084, -76.9358)",5,5,30,47,1,1
33393,BUTLER'S ORCHARD SEASONAL FESTIVAL KITCHEN,22200 DAVIS MILL RD,,GERMANTOWN,20876,WADE BUTLER /BUTLER'S ORCHARD,Market,Food,39.22,-77.2224,"(39.22, -77.2224)",2,2,44,36,1,1
33393,BUTLER'S ORCHARD SEASONAL FESTIVAL KITCHEN,22200 DAVIS MILL RD,,GERMANTOWN,20876,WADE BUTLER /BUTLER'S ORCHARD,Market,Food,39.22,-77.2224,"(39.22, -77.2224)",2,2,44,36,1,1
2748,BUY BUY BABY #3001,1683 ROCKVILLE PK.,,ROCKVILLE,20852,"BUY BUY BABY, INC.",Market,Food,39.0609,-77.1263,"(39.0609, -77.1263)",3,3,25,60,12,1
2748,BUY BUY BABY #3001,1683 ROCKVILLE PK.,,ROCKVILLE,20852,"BUY BUY BABY, INC.",Market,Food,39.0609,-77.1263,"(39.0609, -77.1263)",3,3,25,60,12,1
2748,BUY BUY BABY #3001,1683 ROCKVILLE PK.,,ROCKVILLE,20852,"BUY BUY BABY, INC.",Market,Food,39.0609,-77.1263,"(39.0609, -77.1263)",3,3,25,60,12,1
11629,BY BRAZIL,11333 GEORGIA AVE.,,WHEATON,20902,"BY BRAZIL TRAVEL, INC.",Market,Food,39.0412,-77.0512,"(39.0412, -77.0512)",4,4,16,17,1,1
11629,BY BRAZIL,11333 GEORGIA AVE.,,WHEATON,20902,"BY BRAZIL TRAVEL, INC.",Market,Food,39.0412,-77.0512,"(39.0412, -77.0512)",4,4,16,17,1,1
18784,CAKES IN STYLE,1327- E  ROCKVILLE PK.,,ROCKVILLE,20852,CAKES IN STYLE,Market,Food,39.068,-77.1303,"(39.068, -77.1303)",3,3,25,60,12,1
45583,CALL YOUR MOTHER DELI,11807 GRAND PARK AVENUE,SUITE 1226,ROCKVILLE,20852,DEE ZEE GROUP LLC,Market,Food,39.0496,-77.1168,"(39.0496, -77.1168)",1,1,19,60,1,1
45583,CALL YOUR MOTHER DELI,11807 GRAND PARK AVENUE,SUITE 1226,ROCKVILLE,20852,DEE ZEE GROUP LLC,Market,Food,39.0496,-77.1168,"(39.0496, -77.1168)",1,1,19,60,1,1
45583,CALL YOUR MOTHER DELI,11807 GRAND PARK AVENUE,SUITE 1226,ROCKVILLE,20852,DEE ZEE GROUP LLC,Market,Food,39.0496,-77.1168,"(39.0496, -77.1168)",1,1,19,60,1,1
423,CAMERON'S SEAFOOD MARKET,875 HUNGERFORD DR.,,ROCKVILLE,20850,"AMIR MANESH/CAMERON SEAFOOD, INC.",Market,Food,39.0957,-77.1529,"(39.0957, -77.1529)",3,3,25,71,12,1
27641,CANA BEER & WINE,13505 CLOPPER RD,,GERMANTOWN,20874,CANA BEER AND WINE INC,Market,Food,39.1621,-77.2803,"(39.1621, -77.2803)",2,2,39,39,1,1
17458,CANDY WORLD,7101 DEMOCRACY BLVD.,2127,BETHESDA,20817,JAY SAWMI SHRIJI LLC,Market,Food,39.0233,-77.1486,"(39.0233, -77.1486)",1,1,19,103,1,1
17458,CANDY WORLD,7101 DEMOCRACY BLVD.,2127,BETHESDA,20817,JAY SAWMI SHRIJI LLC,Market,Food,39.0233,-77.1486,"(39.0233, -77.1486)",1,1,19,103,1,1
17458,CANDY WORLD,7101 DEMOCRACY BLVD.,2127,BETHESDA,20817,JAY SAWMI SHRIJI LLC,Market,Food,39.0233,-77.1486,"(39.0233, -77.1486)",1,1,19,103,1,1
17458,CANDY WORLD,7101 DEMOCRACY BLVD.,2127,BETHESDA,20817,JAY SAWMI SHRIJI LLC,Market,Food,39.0233,-77.1486,"(39.0233, -77.1486)",1,1,19,103,1,1
37103,CANTEEN @ COSTCO GAITHERSBURG,880 RUSSELL AVE.,,GAITHERSBURG,20879,COMPASS GROUP USA DBA CANTEEN,Market,Food,39.1556,-77.2141,"(39.1556, -77.2141)",3,3,36,31,21,1
37103,CANTEEN @ COSTCO GAITHERSBURG,880 RUSSELL AVE.,,GAITHERSBURG,20879,COMPASS GROUP USA DBA CANTEEN,Market,Food,39.1556,-77.2141,"(39.1556, -77.2141)",3,3,36,31,21,1
37101,CANTEEN @ COSTCO WHEATON,11160 VIERS MILL RD,,SILVER SPRING,20902,COMPASS GROUP USA INC DBA CANTEEN,Market,Food,39.037,-77.0539,"(39.037, -77.0539)",4,4,16,17,1,1
22446,CAPITAL BEER AND WINE,7903 NORFOLK AVE.,,BETHESDA,20814,"BETHESDA BEER AND WINE, LLC.",Market,Food,38.9892,-77.0973,"(38.9892, -77.0973)",1,1,12,111,1,1
22446,CAPITAL BEER AND WINE,7903 NORFOLK AVE.,,BETHESDA,20814,"BETHESDA BEER AND WINE, LLC.",Market,Food,38.9892,-77.0973,"(38.9892, -77.0973)",1,1,12,111,1,1
20406,CARAMELO BAKERY,11301 GEORGIA AVE,,SILVER SPRING,20902,LIZARAZU BAKERY,Market,Food,39.0403,-77.0509,"(39.0403, -77.0509)",4,4,16,17,1,1
20406,CARAMELO BAKERY,11301 GEORGIA AVE,,SILVER SPRING,20902,LIZARAZU BAKERY,Market,Food,39.0403,-77.0509,"(39.0403, -77.0509)",4,4,16,17,1,1
20406,CARAMELO BAKERY,11301 GEORGIA AVE,,SILVER SPRING,20902,LIZARAZU BAKERY,Market,Food,39.0403,-77.0509,"(39.0403, -77.0509)",4,4,16,17,1,1
20406,CARAMELO BAKERY,11301 GEORGIA AVE,,SILVER SPRING,20902,LIZARAZU BAKERY,Market,Food,39.0403,-77.0509,"(39.0403, -77.0509)",4,4,16,17,1,1
20406,CARAMELO BAKERY,11301 GEORGIA AVE,,SILVER SPRING,20902,LIZARAZU BAKERY,Market,Food,39.0403,-77.0509,"(39.0403, -77.0509)",4,4,16,17,1,1
20406,CARAMELO BAKERY,11301 GEORGIA AVE,,SILVER SPRING,20902,LIZARAZU BAKERY,Market,Food,39.0403,-77.0509,"(39.0403, -77.0509)",4,4,16,17,1,1
33462,CARROLL FUEL,26234 RIDGE RD,,DAMASCUS,20872,AASHIRWAD LLC,Market,Food,39.288,-77.2072,"(39.288, -77.2072)",2,2,51,42,1,1
33462,CARROLL FUEL,26234 RIDGE RD,,DAMASCUS,20872,AASHIRWAD LLC,Market,Food,39.288,-77.2072,"(39.288, -77.2072)",2,2,51,42,1,1
39604,CARROLL FUEL CEDAR GROVE,23418 RIDGE RD,,GERMANTOWN,20876,HFMP LLC,Market,Food,39.2419,-77.2353,"(39.2419, -77.2353)",2,2,50,36,1,1
39604,CARROLL FUEL CEDAR GROVE,23418 RIDGE RD,,GERMANTOWN,20876,HFMP LLC,Market,Food,39.2419,-77.2353,"(39.2419, -77.2353)",2,2,50,36,1,1
46797,CASABLANCO SUNOCO,8875 PINEY BRANCH RD,,SILVER SPRING,20903,A GUDISSA LLC,Market,Food,38.9995,-76.991,"(38.9995, -76.991)",5,5,8,15,1,1
46797,CASABLANCO SUNOCO,8875 PINEY BRANCH RD,,SILVER SPRING,20903,A GUDISSA LLC,Market,Food,38.9995,-76.991,"(38.9995, -76.991)",5,5,8,15,1,1
46797,CASABLANCO SUNOCO,8875 PINEY BRANCH RD,,SILVER SPRING,20903,A GUDISSA LLC,Market,Food,38.9995,-76.991,"(38.9995, -76.991)",5,5,8,15,1,1
46797,CASABLANCO SUNOCO,8875 PINEY BRANCH RD,,SILVER SPRING,20903,A GUDISSA LLC,Market,Food,38.9995,-76.991,"(38.9995, -76.991)",5,5,8,15,1,1
29545,CASABLANCO SUNOCO,8875 PINEY BRANCH RD,,SILVER SPRING,20903,EJRA INC,Market,Food,38.9995,-76.991,"(38.9995, -76.991)",5,5,8,15,1,1
17989,CEDAR GROVE BEER & WINE,23412 RIDGE RD.,,GERMANTOWN,20876,CHEAM CORPORATION,Market,Food,39.2416,-77.2353,"(39.2416, -77.2353)",2,2,50,36,1,1
17989,CEDAR GROVE BEER & WINE,23412 RIDGE RD.,,GERMANTOWN,20876,CHEAM CORPORATION,Market,Food,39.2416,-77.2353,"(39.2416, -77.2353)",2,2,50,36,1,1
17427,CENTRAL NEWSSTAND,701 RUSSELL AVE.,FC 110,GAITHERSBURG,20877,Z & H INCORPORATED,Market,Food,39.1534,-77.204,"(39.1534, -77.204)",3,3,36,35,21,1
17427,CENTRAL NEWSSTAND,701 RUSSELL AVE.,FC 110,GAITHERSBURG,20877,Z & H INCORPORATED,Market,Food,39.1534,-77.204,"(39.1534, -77.204)",3,3,36,35,21,1
11664,CHERRY HILL SUNOCO,12040 CHERRY HILL RD.,,SILVER SPRING,20904,MPT INC,Market,Food,39.0528,-76.9541,"(39.0528, -76.9541)",5,5,21,12,1,1
11664,CHERRY HILL SUNOCO,12040 CHERRY HILL RD.,,SILVER SPRING,20904,MPT INC,Market,Food,39.0528,-76.9541,"(39.0528, -76.9541)",5,5,21,12,1,1
11664,CHERRY HILL SUNOCO,12040 CHERRY HILL RD.,,SILVER SPRING,20904,MPT INC,Market,Food,39.0528,-76.9541,"(39.0528, -76.9541)",5,5,21,12,1,1
38503,CHEVY CHASE CITGO,8505 CONNECTICUT AVE.,,CHEVY CHASE,20815,JJ CAR CARE CENTER,Market,Food,38.9949,-77.0767,"(38.9949, -77.0767)",1,1,5,110,1,1
38503,CHEVY CHASE CITGO,8505 CONNECTICUT AVE.,,CHEVY CHASE,20815,JJ CAR CARE CENTER,Market,Food,38.9949,-77.0767,"(38.9949, -77.0767)",1,1,5,110,1,1
30063,CHOCOLATE MOONSHINE,7101 DEMOCRACY BLVD,,BETHESDA,20817,EDWARD HELLER / ENERGY SUITE LLC,Market,Food,39.024,-77.1458,"(39.024, -77.1458)",1,1,19,103,1,1
29140,CHOICE MARKET,18700 WALKERS CHOICE RD,,MONTGOMERY VILLAGE,20886,E&F INC,Market,Food,39.1633,-77.2051,"(39.1633, -77.2051)",2,2,38,28,1,1
29140,CHOICE MARKET,18700 WALKERS CHOICE RD,,MONTGOMERY VILLAGE,20886,E&F INC,Market,Food,39.1633,-77.2051,"(39.1633, -77.2051)",2,2,38,28,1,1
29544,CHOP SHOP,12209 DARNESTOWN RD,,GAITHERSBURG,20878,CHOP SHOP BUTCHERY,Market,Food,39.1188,-77.2539,"(39.1188, -77.2539)",3,3,28,33,1,1
29544,CHOP SHOP,12209 DARNESTOWN RD,,GAITHERSBURG,20878,CHOP SHOP BUTCHERY,Market,Food,39.1188,-77.2539,"(39.1188, -77.2539)",3,3,28,33,1,1
29544,CHOP SHOP,12209 DARNESTOWN RD,,GAITHERSBURG,20878,CHOP SHOP BUTCHERY,Market,Food,39.1188,-77.2539,"(39.1188, -77.2539)",3,3,28,33,1,1
41059,CHURRO,8600 DAKOTA DR,,GAITHERSBURG,20879,CHURRO INC,Market,Food,39.1267,-77.1771,"(39.1267, -77.1771)",3,3,36,35,1,1
41059,CHURRO,8600 DAKOTA DR,,GAITHERSBURG,20879,CHURRO INC,Market,Food,39.1267,-77.1771,"(39.1267, -77.1771)",3,3,36,35,1,1
41059,CHURRO,8600 DAKOTA DR,,GAITHERSBURG,20879,CHURRO INC,Market,Food,39.1267,-77.1771,"(39.1267, -77.1771)",3,3,36,35,1,1
41059,CHURRO,8600 DAKOTA DR,,GAITHERSBURG,20879,CHURRO INC,Market,Food,39.1267,-77.1771,"(39.1267, -77.1771)",3,3,36,35,1,1
41059,CHURRO,8600 DAKOTA DR,,GAITHERSBURG,20879,CHURRO INC,Market,Food,39.1267,-77.1771,"(39.1267, -77.1771)",3,3,36,35,1,1
46707,CICILIA BEER & WINE,13505 CLOPPER RD,,GERMANTOWN,20874,CICILIA BEER & WINE INC,Market,Food,39.1621,-77.2803,"(39.1621, -77.2803)",2,2,39,39,1,1
37255,CINNAHOLIC GOURMET - CINNAMON ROLLS,230 CROWN PARK AVE,,GAITHERSBURG,20878,HARRIS CHRISTY HOLDING LLC,Market,Food,39.1145,-77.205,"(39.1145, -77.205)",3,3,25,71,21,1
37255,CINNAHOLIC GOURMET - CINNAMON ROLLS,230 CROWN PARK AVE,,GAITHERSBURG,20878,HARRIS CHRISTY HOLDING LLC,Market,Food,39.1145,-77.205,"(39.1145, -77.205)",3,3,25,71,21,1
37255,CINNAHOLIC GOURMET - CINNAMON ROLLS,230 CROWN PARK AVE,,GAITHERSBURG,20878,HARRIS CHRISTY HOLDING LLC,Market,Food,39.1145,-77.205,"(39.1145, -77.205)",3,3,25,71,21,1
36832,CITGO GAS STATION,14300 NEW HAMPSHIRE AVE,,SILVER SPRING,20904,HAMMAD PETROLEUM LLC,Market,Food,39.0904,-77.0002,"(39.0904, -77.0002)",4,4,26,12,1,1
36832,CITGO GAS STATION,14300 NEW HAMPSHIRE AVE,,SILVER SPRING,20904,HAMMAD PETROLEUM LLC,Market,Food,39.0904,-77.0002,"(39.0904, -77.0002)",4,4,26,12,1,1
36832,CITGO GAS STATION,14300 NEW HAMPSHIRE AVE,,SILVER SPRING,20904,HAMMAD PETROLEUM LLC,Market,Food,39.0904,-77.0002,"(39.0904, -77.0002)",4,4,26,12,1,1
29611,CITGO GAS STATION,21625 LAYTONSVILLE RD,,GAITHERSBURG,20882,BUSHRA Z LLC,Market,Food,39.2117,-77.1423,"(39.2117, -77.1423)",4,4,46,29,22,1
29611,CITGO GAS STATION,21625 LAYTONSVILLE RD,,GAITHERSBURG,20882,BUSHRA Z LLC,Market,Food,39.2117,-77.1423,"(39.2117, -77.1423)",4,4,46,29,22,1
18468,CLARKSBURG GROCERIES,23329 FREDERICK RD.,,CLARKSBURG,20871,"APOLLO GROUP, LLC",Market,Food,39.2388,-77.2792,"(39.2388, -77.2792)",2,2,50,44,1,1
46829,CLARKSBURG MARKET - GRILLE,23329 FREDERICK RD.,,CLARKSBURG,20871,SHANKER LIMITED,Market,Food,39.2388,-77.2792,"(39.2388, -77.2792)",2,2,50,44,1,1
46829,CLARKSBURG MARKET - GRILLE,23329 FREDERICK RD.,,CLARKSBURG,20871,SHANKER LIMITED,Market,Food,39.2388,-77.2792,"(39.2388, -77.2792)",2,2,50,44,1,1
30235,CLASSIC BAKERY,9204 GAITHER RD,,GAITHERSBURG,20877,CLASSIC BAKERY INC,Market,Food,39.1152,-77.1891,"(39.1152, -77.1891)",3,3,36,35,1,1
30235,CLASSIC BAKERY,9204 GAITHER RD,,GAITHERSBURG,20877,CLASSIC BAKERY INC,Market,Food,39.1152,-77.1891,"(39.1152, -77.1891)",3,3,36,35,1,1
45604,CLASSIC BEER AND WINE,891-C ROCKVILLE PK,,ROCKVILLE,20852,CLASSIC WINE ROCKVILLE LLC,Market,Food,39.0742,-77.137,"(39.0742, -77.137)",3,3,25,60,12,1
45604,CLASSIC BEER AND WINE,891-C ROCKVILLE PK,,ROCKVILLE,20852,CLASSIC WINE ROCKVILLE LLC,Market,Food,39.0742,-77.137,"(39.0742, -77.137)",3,3,25,60,12,1
35698,CLOVE & CEDAR COFFEEBAR,4918 ST. ELMO AVE,,BETHESDA,20814,JANET FORLINI / CLOVE & CEDAR COFFEEBAR LLC,Market,Food,38.9883,-77.0976,"(38.9883, -77.0976)",1,1,12,111,1,1
35698,CLOVE & CEDAR COFFEEBAR,4918 ST. ELMO AVE,,BETHESDA,20814,JANET FORLINI / CLOVE & CEDAR COFFEEBAR LLC,Market,Food,38.9883,-77.0976,"(38.9883, -77.0976)",1,1,12,111,1,1
28777,CLOVERLY AUTO CARE,15501 NEW HAMPSHIRE AVE,,SILVER SPRING,20905,"VARIETY SERVICE, LLC",Market,Food,39.1099,-76.9962,"(39.1099, -76.9962)",5,5,29,8,1,1
28777,CLOVERLY AUTO CARE,15501 NEW HAMPSHIRE AVE,,SILVER SPRING,20905,"VARIETY SERVICE, LLC",Market,Food,39.1099,-76.9962,"(39.1099, -76.9962)",5,5,29,8,1,1
19132,CLOVERLY CITGO AUTO SERVICE,15541 NEW HAMPSHIRE AVE.,,SILVER SPRING,20905,S&B  OF CLOVERLY INC,Market,Food,39.1115,-76.9947,"(39.1115, -76.9947)",5,5,29,8,1,1
24339,CLUB DEMONSTRATION SERVICES,11160 VEIRS MILL RD,,SILVER SPRING,20902,CLUB DEMONSTRATION SERVICES INC,Market,Food,39.037,-77.0539,"(39.037, -77.0539)",4,4,16,17,1,1
43324,COLD STONE CREAMERY,18105 VILLAGE CENTER DR,,OLNEY,20832,SHREENATH JABU LLC,Market,Food,39.1524,-77.064,"(39.1524, -77.064)",4,4,58,100,1,1
43324,COLD STONE CREAMERY,18105 VILLAGE CENTER DR,,OLNEY,20832,SHREENATH JABU LLC,Market,Food,39.1524,-77.064,"(39.1524, -77.064)",4,4,58,100,1,1
43324,COLD STONE CREAMERY,18105 VILLAGE CENTER DR,,OLNEY,20832,SHREENATH JABU LLC,Market,Food,39.1524,-77.064,"(39.1524, -77.064)",4,4,58,100,1,1
30835,COLDSTONE CREAMERY,18105 VILLAGE CENTER DR,,OLNEY,20832,SAHN CORP,Market,Food,39.1524,-77.0638,"(39.1524, -77.0638)",4,4,58,100,1,1
599,COLESVILLE BEER & WINE,13468 NEW HAMPSHIRE AVE.,,SILVER SPRING,20904,"BYUNG H. PARK/COLESVILLE BEER & WINE, INC.",Market,Food,39.0773,-77.0028,"(39.0773, -77.0028)",4,4,26,12,1,1
599,COLESVILLE BEER & WINE,13468 NEW HAMPSHIRE AVE.,,SILVER SPRING,20904,"BYUNG H. PARK/COLESVILLE BEER & WINE, INC.",Market,Food,39.0773,-77.0028,"(39.0773, -77.0028)",4,4,26,12,1,1
599,COLESVILLE BEER & WINE,13468 NEW HAMPSHIRE AVE.,,SILVER SPRING,20904,"BYUNG H. PARK/COLESVILLE BEER & WINE, INC.",Market,Food,39.0773,-77.0028,"(39.0773, -77.0028)",4,4,26,12,1,1
22469,COLESVILLE BP,13310 NEW HAMPSHIRE AVE.,,SILVER SPRING,20904,"JAMES KURTZ, INC.",Market,Food,39.0739,-77.0028,"(39.0739, -77.0028)",4,4,26,12,1,1
22469,COLESVILLE BP,13310 NEW HAMPSHIRE AVE.,,SILVER SPRING,20904,"JAMES KURTZ, INC.",Market,Food,39.0739,-77.0028,"(39.0739, -77.0028)",4,4,26,12,1,1
32897,COLLEGE PLAZA EXXON,15211 FREDERICK RD,,ROCKVILLE,20850,FARAH PETROLEUM LLC / ZIFER REYAL,Market,Food,39.1061,-77.1572,"(39.1061, -77.1572)",3,3,27,71,1,1
32897,COLLEGE PLAZA EXXON,15211 FREDERICK RD,,ROCKVILLE,20850,FARAH PETROLEUM LLC / ZIFER REYAL,Market,Food,39.1061,-77.1572,"(39.1061, -77.1572)",3,3,27,71,1,1
18988,COLUMBIA ROAD EXXON,12601 OLD COLUMBIA PIKE,,SILVER SPRING,20904,"MMK GROUP, LLC",Market,Food,39.0636,-76.9652,"(39.0636, -76.9652)",5,5,53,12,1,1
18988,COLUMBIA ROAD EXXON,12601 OLD COLUMBIA PIKE,,SILVER SPRING,20904,"MMK GROUP, LLC",Market,Food,39.0636,-76.9652,"(39.0636, -76.9652)",5,5,53,12,1,1
18988,COLUMBIA ROAD EXXON,12601 OLD COLUMBIA PIKE,,SILVER SPRING,20904,"MMK GROUP, LLC",Market,Food,39.0636,-76.9652,"(39.0636, -76.9652)",5,5,53,12,1,1
28819,COMMUNITY EXXON,9336 GEORGIA AVE,,SILVER SPRING,20910,"GEORGIA FUEL AND TREATS, LLC",Market,Food,39.0081,-77.0405,"(39.0081, -77.0405)",5,5,7,3065,1,1
28819,COMMUNITY EXXON,9336 GEORGIA AVE,,SILVER SPRING,20910,"GEORGIA FUEL AND TREATS, LLC",Market,Food,39.0081,-77.0405,"(39.0081, -77.0405)",5,5,7,3065,1,1
29579,CONGRESSIONAL SUNOCO,1469 ROCKVILLE PIKE,,ROCKVILLE,20852,TYSON PETRO LLC,Market,Food,39.0657,-77.1278,"(39.0657, -77.1278)",3,3,25,60,12,1
18851,CONVENIENCE EXPRESS,948 WAYNE AVE.,,SILVER SPRING,20910,"JOACHIM & JOYCE, INC.",Market,Food,38.9943,-77.0258,"(38.9943, -77.0258)",5,5,7,3065,1,1
20444,CORK 57 BEER & WINE STORE,4910 BETHESDA AVE,,BETHESDA,20814,"CORK 57, INC",Market,Food,38.9805,-77.0989,"(38.9805, -77.0989)",1,1,12,111,1,1
20444,CORK 57 BEER & WINE STORE,4910 BETHESDA AVE,,BETHESDA,20814,"CORK 57, INC",Market,Food,38.9805,-77.0989,"(38.9805, -77.0989)",1,1,12,111,1,1
24334,COSTCO WHOLESALE #1124,11160 VEIRS MILL RD,,WHEATON,20902,COSTCO WHOLESALE CORPORATION,Market,Food,39.0349,-77.055,"(39.0349, -77.055)",4,4,16,17,1,1
24334,COSTCO WHOLESALE #1124,11160 VEIRS MILL RD,,WHEATON,20902,COSTCO WHOLESALE CORPORATION,Market,Food,39.0349,-77.055,"(39.0349, -77.055)",4,4,16,17,1,1
24334,COSTCO WHOLESALE #1124,11160 VEIRS MILL RD,,WHEATON,20902,COSTCO WHOLESALE CORPORATION,Market,Food,39.0349,-77.055,"(39.0349, -77.055)",4,4,16,17,1,1
24334,COSTCO WHOLESALE #1124,11160 VEIRS MILL RD,,WHEATON,20902,COSTCO WHOLESALE CORPORATION,Market,Food,39.0349,-77.055,"(39.0349, -77.055)",4,4,16,17,1,1
24334,COSTCO WHOLESALE #1124,11160 VEIRS MILL RD,,WHEATON,20902,COSTCO WHOLESALE CORPORATION,Market,Food,39.0349,-77.055,"(39.0349, -77.055)",4,4,16,17,1,1
24334,COSTCO WHOLESALE #1124,11160 VEIRS MILL RD,,WHEATON,20902,COSTCO WHOLESALE CORPORATION,Market,Food,39.0349,-77.055,"(39.0349, -77.055)",4,4,16,17,1,1
632,COSTCO WHOLESALE #213,880 RUSSELL AVE.,,GAITHERSBURG,20879,COSTCO WHOLESALE/LICENSING,Market,Food,39.1556,-77.2141,"(39.1556, -77.2141)",3,3,36,31,21,1
632,COSTCO WHOLESALE #213,880 RUSSELL AVE.,,GAITHERSBURG,20879,COSTCO WHOLESALE/LICENSING,Market,Food,39.1556,-77.2141,"(39.1556, -77.2141)",3,3,36,31,21,1
632,COSTCO WHOLESALE #213,880 RUSSELL AVE.,,GAITHERSBURG,20879,COSTCO WHOLESALE/LICENSING,Market,Food,39.1556,-77.2141,"(39.1556, -77.2141)",3,3,36,31,21,1
632,COSTCO WHOLESALE #213,880 RUSSELL AVE.,,GAITHERSBURG,20879,COSTCO WHOLESALE/LICENSING,Market,Food,39.1556,-77.2141,"(39.1556, -77.2141)",3,3,36,31,21,1
632,COSTCO WHOLESALE #213,880 RUSSELL AVE.,,GAITHERSBURG,20879,COSTCO WHOLESALE/LICENSING,Market,Food,39.1556,-77.2141,"(39.1556, -77.2141)",3,3,36,31,21,1
637,COUNTRY BOY MARKET,2211 RANDOLPH RD.,,WHEATON,20902,"J. M. BARNSLEY, JR. PTR",Market,Food,39.0604,-77.0481,"(39.0604, -77.0481)",4,4,23,6,1,1
637,COUNTRY BOY MARKET,2211 RANDOLPH RD.,,WHEATON,20902,"J. M. BARNSLEY, JR. PTR",Market,Food,39.0604,-77.0481,"(39.0604, -77.0481)",4,4,23,6,1,1
637,COUNTRY BOY MARKET,2211 RANDOLPH RD.,,WHEATON,20902,"J. M. BARNSLEY, JR. PTR",Market,Food,39.0604,-77.0481,"(39.0604, -77.0481)",4,4,23,6,1,1
644,COURT HOUSE EXXON,700 ROCKVILLE PK.,,ROCKVILLE,20852,"H & P AUTOMOTIVE, INC.",Market,Food,39.0805,-77.1434,"(39.0805, -77.1434)",3,3,25,60,12,1
38458,CREPE LENA ICE CREAM,11160 VEIRS MILL RD,#9244,SILVER SPRING,20902,YASSIR ABDALLA,Market,Food,39.037,-77.0539,"(39.037, -77.0539)",4,4,16,17,1,1
38458,CREPE LENA ICE CREAM,11160 VEIRS MILL RD,#9244,SILVER SPRING,20902,YASSIR ABDALLA,Market,Food,39.037,-77.0539,"(39.037, -77.0539)",4,4,16,17,1,1
38458,CREPE LENA ICE CREAM,11160 VEIRS MILL RD,#9244,SILVER SPRING,20902,YASSIR ABDALLA,Market,Food,39.037,-77.0539,"(39.037, -77.0539)",4,4,16,17,1,1
18729,CRESCENT CONVENIENCE,7475 WISCONSIN AVE.,,BETHESDA,20814,"EJY, INC.",Market,Food,38.9843,-77.0938,"(38.9843, -77.0938)",1,1,12,111,1,1
18729,CRESCENT CONVENIENCE,7475 WISCONSIN AVE.,,BETHESDA,20814,"EJY, INC.",Market,Food,38.9843,-77.0938,"(38.9843, -77.0938)",1,1,12,111,1,1
2205,CROSSMARK @ SAM'S CLUB #6653,610 N. FREDERICK AVE.,,GAITHERSBURG,20877,CROSSMARK INC,Market,Food,39.1516,-77.2125,"(39.1516, -77.2125)",3,3,36,35,21,1
2205,CROSSMARK @ SAM'S CLUB #6653,610 N. FREDERICK AVE.,,GAITHERSBURG,20877,CROSSMARK INC,Market,Food,39.1516,-77.2125,"(39.1516, -77.2125)",3,3,36,35,21,1
2205,CROSSMARK @ SAM'S CLUB #6653,610 N. FREDERICK AVE.,,GAITHERSBURG,20877,CROSSMARK INC,Market,Food,39.1516,-77.2125,"(39.1516, -77.2125)",3,3,36,35,21,1
50361,CRUMBL COOKIES,"20650 SENECA MEADOWS PKWY, UNIT C-1",,GERMANTOWN,20876,DSV-GERMANTON LLC,Market,Food,,,,,,,,,
1316,CRYSTAL ROCK EXXON,19815 GERMANTOWN ROAD,,GERMANTOWN,20874,"GTOWN, INC",Market,Food,39.181,-77.2616,"(39.181, -77.2616)",2,2,39,39,1,1
1316,CRYSTAL ROCK EXXON,19815 GERMANTOWN ROAD,,GERMANTOWN,20874,"GTOWN, INC",Market,Food,39.181,-77.2616,"(39.181, -77.2616)",2,2,39,39,1,1
1316,CRYSTAL ROCK EXXON,19815 GERMANTOWN ROAD,,GERMANTOWN,20874,"GTOWN, INC",Market,Food,39.181,-77.2616,"(39.181, -77.2616)",2,2,39,39,1,1
30465,CVS/PHAMARCY #10398,20 UPPER ROCK CIR,,ROCKVILLE,20850,MARYLAND CVS PHARMACY LLC,Market,Food,39.1135,-77.1856,"(39.1135, -77.1856)",3,3,25,71,12,1
30465,CVS/PHAMARCY #10398,20 UPPER ROCK CIR,,ROCKVILLE,20850,MARYLAND CVS PHARMACY LLC,Market,Food,39.1135,-77.1856,"(39.1135, -77.1856)",3,3,25,71,12,1
19267,CVS/PHARMACY #0169,799 ROCKVILLE PIKE,,ROCKVILLE,20852,"MARYLAND CVS PHARMACY, LLC.",Market,Food,39.0764,-77.1407,"(39.0764, -77.1407)",3,3,25,60,12,1
30020,CVS/PHARMACY #10321,2 ASHTON RD,,ASHTON,20861,MARYLAND CVS PHARMACY LLC,Market,Food,39.15,-77.0118,"(39.15, -77.0118)",4,4,35,49,1,1
35672,CVS/PHARMACY # 11054,22701 GOSNELL FARM DR,,CLARKSBURG,20871,MARYLAND CVS PHARMACY LLC,Market,Food,39.2291,-77.2888,"(39.2291, -77.2888)",2,2,50,75,1,1
35672,CVS/PHARMACY # 11054,22701 GOSNELL FARM DR,,CLARKSBURG,20871,MARYLAND CVS PHARMACY LLC,Market,Food,39.2291,-77.2888,"(39.2291, -77.2888)",2,2,50,75,1,1
18996,CVS/PHARMACY #1177,11190 VEIRS MILL RD.,,WHEATON,20902,"MARYLAND CVS PHARMACY, LLC.",Market,Food,39.0391,-77.0546,"(39.0391, -77.0546)",4,4,16,17,1,1
18996,CVS/PHARMACY #1177,11190 VEIRS MILL RD.,,WHEATON,20902,"MARYLAND CVS PHARMACY, LLC.",Market,Food,39.0391,-77.0546,"(39.0391, -77.0546)",4,4,16,17,1,1
2738,CVS/PHARMACY #1431,3110 OLNEY - SANDY SPRING RD,,OLNEY,20832,"MARYLAND CVS PHARMACY, LLC.",Market,Food,39.1508,-77.0636,"(39.1508, -77.0636)",4,4,58,100,1,1
2738,CVS/PHARMACY #1431,3110 OLNEY - SANDY SPRING RD,,OLNEY,20832,"MARYLAND CVS PHARMACY, LLC.",Market,Food,39.1508,-77.0636,"(39.1508, -77.0636)",4,4,58,100,1,1
20247,CVS/PHARMACY #1452,12215 DARNESTOWN RD,,GAITHERSBURG,20878,"MARYLAND CVS PHARMACY, LLC.",Market,Food,39.119,-77.2539,"(39.119, -77.2539)",3,3,28,33,1,1
20247,CVS/PHARMACY #1452,12215 DARNESTOWN RD,,GAITHERSBURG,20878,"MARYLAND CVS PHARMACY, LLC.",Market,Food,39.119,-77.2539,"(39.119, -77.2539)",3,3,28,33,1,1
679,CVS/PHARMACY #1465,2210 VEIRS MILL RD.,,ROCKVILLE,20851,"MARYLAND CVS PHARMACY, LLC.",Market,Food,39.0754,-77.1145,"(39.0754, -77.1145)",3,3,25,68,12,1
683,CVS/PHARMACY #1475,10233 OLD GEORGETOWN RD.,,BETHESDA,20814,"MARYLAND CVS PHARMACY, LLC.",Market,Food,39.0241,-77.1237,"(39.0241, -77.1237)",1,1,12,111,1,1
683,CVS/PHARMACY #1475,10233 OLD GEORGETOWN RD.,,BETHESDA,20814,"MARYLAND CVS PHARMACY, LLC.",Market,Food,39.0241,-77.1237,"(39.0241, -77.1237)",1,1,12,111,1,1
683,CVS/PHARMACY #1475,10233 OLD GEORGETOWN RD.,,BETHESDA,20814,"MARYLAND CVS PHARMACY, LLC.",Market,Food,39.0241,-77.1237,"(39.0241, -77.1237)",1,1,12,111,1,1
683,CVS/PHARMACY #1475,10233 OLD GEORGETOWN RD.,,BETHESDA,20814,"MARYLAND CVS PHARMACY, LLC.",Market,Food,39.0241,-77.1237,"(39.0241, -77.1237)",1,1,12,111,1,1
685,CVS/PHARMACY #1479,6917 ARLINGTON RD.,,BETHESDA,20814,"CVS OF MARYLAND, INC.",Market,Food,38.9784,-77.0985,"(38.9784, -77.0985)",1,1,12,111,1,1
685,CVS/PHARMACY #1479,6917 ARLINGTON RD.,,BETHESDA,20814,"CVS OF MARYLAND, INC.",Market,Food,38.9784,-77.0985,"(38.9784, -77.0985)",1,1,12,111,1,1
11707,CVS/PHARMACY #1494,4601-A SANGAMORE RD.,,BETHESDA,20816,"MARYLAND CVS PHARMACY, LLC.",Market,Food,38.9493,-77.1183,"(38.9493, -77.1183)",1,1,12,107,1,1
11707,CVS/PHARMACY #1494,4601-A SANGAMORE RD.,,BETHESDA,20816,"MARYLAND CVS PHARMACY, LLC.",Market,Food,38.9493,-77.1183,"(38.9493, -77.1183)",1,1,12,107,1,1
690,CVS/PHARMACY #1499,2271 BEL PRE RD.,,SILVER SPRING,20906,"MARYLAND CVS PHARMACY, LLC.",Market,Food,39.0914,-77.0481,"(39.0914, -77.0481)",4,4,59,6,1,1
690,CVS/PHARMACY #1499,2271 BEL PRE RD.,,SILVER SPRING,20906,"MARYLAND CVS PHARMACY, LLC.",Market,Food,39.0914,-77.0481,"(39.0914, -77.0481)",4,4,59,6,1,1
19417,CVS/PHARMACY #1501,19100 MONTGOMERY VILLAGE AVE.,,GAITHERSBURG,20886,"CVS OF MARYLAND, INC",Market,Food,39.1702,-77.2049,"(39.1702, -77.2049)",2,2,38,28,1,1
19417,CVS/PHARMACY #1501,19100 MONTGOMERY VILLAGE AVE.,,GAITHERSBURG,20886,"CVS OF MARYLAND, INC",Market,Food,39.1702,-77.2049,"(39.1702, -77.2049)",2,2,38,28,1,1
693,CVS/PHARMACY #1502,5560 NORBECK RD.,,ROCKVILLE,20853,"MARYLAND CVS PHARMACY, LLC.",Market,Food,39.095,-77.1113,"(39.095, -77.1113)",3,3,61,58,1,1
34520,CVS PHARMACY #1504,17651 REDLAND RD,,DERWOOD,20855,MARYLAND CVS PHARMACY LLC,Market,Food,39.1452,-77.1438,"(39.1452, -77.1438)",3,3,54,51,1,1
11558,CVS/PHARMACY #1513,9920 KEY WEST AVE.,,N. POTOMAC,20850,"MD CVS OF MARYLAND, INC.",Market,Food,39.1002,-77.2124,"(39.1002, -77.2124)",3,3,25,71,1,1
696,CVS/PHARMACY #1521,9140 ROTHBURY DR.,,GAITHERSBURG,20886,"MARYLAND CVS PHARMACY, LLC.",Market,Food,39.1846,-77.1895,"(39.1846, -77.1895)",2,2,38,28,1,1
696,CVS/PHARMACY #1521,9140 ROTHBURY DR.,,GAITHERSBURG,20886,"MARYLAND CVS PHARMACY, LLC.",Market,Food,39.1846,-77.1895,"(39.1846, -77.1895)",2,2,38,28,1,1
697,CVS/PHARMACY #1797,19594 FISHER AVE.,,POOLESVILLE,20837,"MARYLAND CVS PHARMACY, LLC.",Market,Food,39.1435,-77.409,"(39.1435, -77.409)",1,1,34,97,16,1
24352,CVS/PHARMACY #1879,11416 ROCKVILLE PIKE,,ROCKVILLE,20852,MARYLAND CVS PHARMANCY LLC,Market,Food,39.043,-77.1114,"(39.043, -77.1114)",1,1,19,60,1,1
701,CVS/PHARMACY #1964,18080 MATENY RD.,,GERMANTOWN,20874,"MARYLAND CVS PHARMACY, LLC.",Market,Food,39.1473,-77.2725,"(39.1473, -77.2725)",2,2,39,39,1,1
701,CVS/PHARMACY #1964,18080 MATENY RD.,,GERMANTOWN,20874,"MARYLAND CVS PHARMACY, LLC.",Market,Food,39.1473,-77.2725,"(39.1473, -77.2725)",2,2,39,39,1,1
2883,CVS/PHARMACY #2221,"3715 UNIVERSITY BLVD., W.",,KENSINGTON,20895,"MARYLAND CVS PHARMACY, LLC.",Market,Food,39.0336,-77.0736,"(39.0336, -77.0736)",1,1,15,25,1,1
2883,CVS/PHARMACY #2221,"3715 UNIVERSITY BLVD., W.",,KENSINGTON,20895,"MARYLAND CVS PHARMACY, LLC.",Market,Food,39.0336,-77.0736,"(39.0336, -77.0736)",1,1,15,25,1,1
2883,CVS/PHARMACY #2221,"3715 UNIVERSITY BLVD., W.",,KENSINGTON,20895,"MARYLAND CVS PHARMACY, LLC.",Market,Food,39.0336,-77.0736,"(39.0336, -77.0736)",1,1,15,25,1,1
2883,CVS/PHARMACY #2221,"3715 UNIVERSITY BLVD., W.",,KENSINGTON,20895,"MARYLAND CVS PHARMACY, LLC.",Market,Food,39.0336,-77.0736,"(39.0336, -77.0736)",1,1,15,25,1,1
22670,CVS/PHARMACY #3517,825 WAYNE AVE.,,SILVER SPRING,20910,"MARYLAND CVS PHARMACY, LLC.",Market,Food,38.9964,-77.0246,"(38.9964, -77.0246)",5,5,7,3065,1,1
22670,CVS/PHARMACY #3517,825 WAYNE AVE.,,SILVER SPRING,20910,"MARYLAND CVS PHARMACY, LLC.",Market,Food,38.9964,-77.0246,"(38.9964, -77.0246)",5,5,7,3065,1,1
22670,CVS/PHARMACY #3517,825 WAYNE AVE.,,SILVER SPRING,20910,"MARYLAND CVS PHARMACY, LLC.",Market,Food,38.9964,-77.0246,"(38.9964, -77.0246)",5,5,7,3065,1,1
18383,CVS/PHARMACY #5460,19901 FREDERICK RD.,,GERMANTOWN,20876,"MARYLAND CVS PHARMACY, LLC.",Market,Food,39.182,-77.2379,"(39.182, -77.2379)",2,2,39,36,1,1
18383,CVS/PHARMACY #5460,19901 FREDERICK RD.,,GERMANTOWN,20876,"MARYLAND CVS PHARMACY, LLC.",Market,Food,39.182,-77.2379,"(39.182, -77.2379)",2,2,39,36,1,1
20332,DAD'S BEER & WINE,603 HUNGERFORD DR,,ROCKVILLE,20850,"DAD'S BEER & WINE, LLC",Market,Food,39.0918,-77.1521,"(39.0918, -77.1521)",3,3,25,71,12,1
704,DAE RUK CORPORATION,11780 PARKLAWN DR.,,ROCKVILLE,20852,DAE RUK CORP,Market,Food,39.0482,-77.1026,"(39.0482, -77.1026)",4,4,19,60,1,1
704,DAE RUK CORPORATION,11780 PARKLAWN DR.,,ROCKVILLE,20852,DAE RUK CORP,Market,Food,39.0482,-77.1026,"(39.0482, -77.1026)",4,4,19,60,1,1
38465,DAMASCUS GAS,9871 MAIN STREET,,DAMASCUS,20872,DAMASCUS GAS LLC,Market,Food,39.2284,-77.2035,"(39.2284, -77.2035)",2,2,44,36,1,1
38465,DAMASCUS GAS,9871 MAIN STREET,,DAMASCUS,20872,DAMASCUS GAS LLC,Market,Food,39.2284,-77.2035,"(39.2284, -77.2035)",2,2,44,36,1,1
38465,DAMASCUS GAS,9871 MAIN STREET,,DAMASCUS,20872,DAMASCUS GAS LLC,Market,Food,39.2284,-77.2035,"(39.2284, -77.2035)",2,2,44,36,1,1
19058,DAMASCUS LIBERTY,26241 RIDGE RD.,,DAMASCUS,20872,JAI MATA DI CORP.,Market,Food,39.2879,-77.2062,"(39.2879, -77.2062)",2,2,51,42,1,1
19058,DAMASCUS LIBERTY,26241 RIDGE RD.,,DAMASCUS,20872,JAI MATA DI CORP.,Market,Food,39.2879,-77.2062,"(39.2879, -77.2062)",2,2,51,42,1,1
17651,DANA BAZAAR,12215 NEBEL ST.,,ROCKVILLE,20852,S & S TRADER,Market,Food,39.0524,-77.1099,"(39.0524, -77.1099)",1,1,19,60,1,1
29506,DANA BAZAAR,12941 WISTERIA DR,,GERMANTOWN,20874,SEVARAM SAHU,Market,Food,39.1783,-77.2698,"(39.1783, -77.2698)",2,2,39,39,1,1
22152,DARNESTOWN LIBERTY,12175 DARNESTOWN RD.,,GAITHERSBURG,20878,"DARNESTOWN LIBERTY, LLC.",Market,Food,39.1181,-77.2519,"(39.1181, -77.2519)",3,3,36,33,21,1
22152,DARNESTOWN LIBERTY,12175 DARNESTOWN RD.,,GAITHERSBURG,20878,"DARNESTOWN LIBERTY, LLC.",Market,Food,39.1181,-77.2519,"(39.1181, -77.2519)",3,3,36,33,21,1
39555,DARNESTOWN SUNOCO,12301 DARNESTOWN RD,,GAITHERSBURG,20878,PRIME ENTREPRISES LLC,Market,Food,39.1186,-77.2555,"(39.1186, -77.2555)",3,3,28,33,1,1
39663,DASH IN 1873,11150 NEW HAMPSHIRE AVE,,SILVER SPRING,20904,UNITED 3 LLC,Market,Food,39.0389,-76.9909,"(39.0389, -76.9909)",5,5,18,21,1,1
39663,DASH IN 1873,11150 NEW HAMPSHIRE AVE,,SILVER SPRING,20904,UNITED 3 LLC,Market,Food,39.0389,-76.9909,"(39.0389, -76.9909)",5,5,18,21,1,1
39663,DASH IN 1873,11150 NEW HAMPSHIRE AVE,,SILVER SPRING,20904,UNITED 3 LLC,Market,Food,39.0389,-76.9909,"(39.0389, -76.9909)",5,5,18,21,1,1
39663,DASH IN 1873,11150 NEW HAMPSHIRE AVE,,SILVER SPRING,20904,UNITED 3 LLC,Market,Food,39.0389,-76.9909,"(39.0389, -76.9909)",5,5,18,21,1,1
39663,DASH IN 1873,11150 NEW HAMPSHIRE AVE,,SILVER SPRING,20904,UNITED 3 LLC,Market,Food,39.0389,-76.9909,"(39.0389, -76.9909)",5,5,18,21,1,1
30003,DAVIDS TEA,22705 CLARKSBURG RD,STE 922,CLARKSBURG,20871,DAVIDS TEA USA INC,Market,Food,39.2296,-77.2863,"(39.2296, -77.2863)",2,2,50,75,1,1
30003,DAVIDS TEA,22705 CLARKSBURG RD,STE 922,CLARKSBURG,20871,DAVIDS TEA USA INC,Market,Food,39.2296,-77.2863,"(39.2296, -77.2863)",2,2,50,75,1,1
35654,DAWSON'S MARKET,225 N WASHINGTON ST,,ROCKVILLE,20850,DM ROCKVILLE LLC,Market,Food,39.0865,-77.1527,"(39.0865, -77.1527)",3,3,25,71,12,1
35654,DAWSON'S MARKET,225 N WASHINGTON ST,,ROCKVILLE,20850,DM ROCKVILLE LLC,Market,Food,39.0865,-77.1527,"(39.0865, -77.1527)",3,3,25,71,12,1
35654,DAWSON'S MARKET,225 N WASHINGTON ST,,ROCKVILLE,20850,DM ROCKVILLE LLC,Market,Food,39.0865,-77.1527,"(39.0865, -77.1527)",3,3,25,71,12,1
27883,DAWSON'S MARKET SUSHI BAR @,225 N WASHINGTON ST,,ROCKVILLE,20850,FRESH SUSHI EXPRESS INC,Market,Food,39.0865,-77.1527,"(39.0865, -77.1527)",3,3,25,71,12,1
43366,DAY AND NIGHT CEREAL BAR,22705 CLARKSBURG RD,STE 922,CLARKSBURG,20871,DAY AND NIGHT CEREAL BAR MARYLAND LLC,Market,Food,39.2296,-77.2863,"(39.2296, -77.2863)",2,2,50,75,1,1
43366,DAY AND NIGHT CEREAL BAR,22705 CLARKSBURG RD,STE 922,CLARKSBURG,20871,DAY AND NIGHT CEREAL BAR MARYLAND LLC,Market,Food,39.2296,-77.2863,"(39.2296, -77.2863)",2,2,50,75,1,1
43366,DAY AND NIGHT CEREAL BAR,22705 CLARKSBURG RD,STE 922,CLARKSBURG,20871,DAY AND NIGHT CEREAL BAR MARYLAND LLC,Market,Food,39.2296,-77.2863,"(39.2296, -77.2863)",2,2,50,75,1,1
43366,DAY AND NIGHT CEREAL BAR,22705 CLARKSBURG RD,STE 922,CLARKSBURG,20871,DAY AND NIGHT CEREAL BAR MARYLAND LLC,Market,Food,39.2296,-77.2863,"(39.2296, -77.2863)",2,2,50,75,1,1
43366,DAY AND NIGHT CEREAL BAR,22705 CLARKSBURG RD,STE 922,CLARKSBURG,20871,DAY AND NIGHT CEREAL BAR MARYLAND LLC,Market,Food,39.2296,-77.2863,"(39.2296, -77.2863)",2,2,50,75,1,1
27996,DC DIAPER BANK,8858 MONARD DR,,SILVER SPRING,20910,DC DIAPER BANK,Market,Food,39.0012,-77.0589,"(39.0012, -77.0589)",1,1,6,3065,1,1
39959,DELICLUB CAFE AND MARKET,3750 HOWARD AVE,,KENSINGTON,20895,DELICLUB KENSINGTON LLC,Market,Food,39.0274,-77.0736,"(39.0274, -77.0736)",1,1,15,25,6,1
39959,DELICLUB CAFE AND MARKET,3750 HOWARD AVE,,KENSINGTON,20895,DELICLUB KENSINGTON LLC,Market,Food,39.0274,-77.0736,"(39.0274, -77.0736)",1,1,15,25,6,1
39959,DELICLUB CAFE AND MARKET,3750 HOWARD AVE,,KENSINGTON,20895,DELICLUB KENSINGTON LLC,Market,Food,39.0274,-77.0736,"(39.0274, -77.0736)",1,1,15,25,6,1
39959,DELICLUB CAFE AND MARKET,3750 HOWARD AVE,,KENSINGTON,20895,DELICLUB KENSINGTON LLC,Market,Food,39.0274,-77.0736,"(39.0274, -77.0736)",1,1,15,25,6,1
39959,DELICLUB CAFE AND MARKET,3750 HOWARD AVE,,KENSINGTON,20895,DELICLUB KENSINGTON LLC,Market,Food,39.0274,-77.0736,"(39.0274, -77.0736)",1,1,15,25,6,1
26912,DENISE MEXICAN BAR & GRILLE,25901 FREDERICK RD,,CLARKSBURG,20871,DENISE BAKERY INC,Market,Food,39.2811,-77.3147,"(39.2811, -77.3147)",2,2,50,44,1,1
26912,DENISE MEXICAN BAR & GRILLE,25901 FREDERICK RD,,CLARKSBURG,20871,DENISE BAKERY INC,Market,Food,39.2811,-77.3147,"(39.2811, -77.3147)",2,2,50,44,1,1
26912,DENISE MEXICAN BAR & GRILLE,25901 FREDERICK RD,,CLARKSBURG,20871,DENISE BAKERY INC,Market,Food,39.2811,-77.3147,"(39.2811, -77.3147)",2,2,50,44,1,1
26912,DENISE MEXICAN BAR & GRILLE,25901 FREDERICK RD,,CLARKSBURG,20871,DENISE BAKERY INC,Market,Food,39.2811,-77.3147,"(39.2811, -77.3147)",2,2,50,44,1,1
26511,DERWOOD BEER WINE,17601 REDLAND RD,,DERWOOD,20855,SUBH LAXMI INC,Market,Food,39.1441,-77.1442,"(39.1441, -77.1442)",3,3,54,51,1,1
11375,DERWOOD MARATHON,15805 FREDERICK RD,,DERWOOD,20855,"DERMIK, INC",Market,Food,39.1148,-77.164,"(39.1148, -77.164)",3,3,27,51,1,1
11375,DERWOOD MARATHON,15805 FREDERICK RD,,DERWOOD,20855,"DERMIK, INC",Market,Food,39.1148,-77.164,"(39.1148, -77.164)",3,3,27,51,1,1
22571,DESHI BAZAR,282 N. FREDERICK AVE.,,GAITHERSBURG,20877,"ALAM AND OBAIED, INC.",Market,Food,39.1445,-77.2037,"(39.1445, -77.2037)",3,3,36,35,21,1
22571,DESHI BAZAR,282 N. FREDERICK AVE.,,GAITHERSBURG,20877,"ALAM AND OBAIED, INC.",Market,Food,39.1445,-77.2037,"(39.1445, -77.2037)",3,3,36,35,21,1
22571,DESHI BAZAR,282 N. FREDERICK AVE.,,GAITHERSBURG,20877,"ALAM AND OBAIED, INC.",Market,Food,39.1445,-77.2037,"(39.1445, -77.2037)",3,3,36,35,21,1
43457,DIAMOND BAKERY,8-B EAST DIAMOND AVE.,,GAITHERSBURG,20877,DIAMOND BAKERY INN,Market,Food,39.1422,-77.198,"(39.1422, -77.198)",3,3,36,35,21,1
43457,DIAMOND BAKERY,8-B EAST DIAMOND AVE.,,GAITHERSBURG,20877,DIAMOND BAKERY INN,Market,Food,39.1422,-77.198,"(39.1422, -77.198)",3,3,36,35,21,1
43457,DIAMOND BAKERY,8-B EAST DIAMOND AVE.,,GAITHERSBURG,20877,DIAMOND BAKERY INN,Market,Food,39.1422,-77.198,"(39.1422, -77.198)",3,3,36,35,21,1
43457,DIAMOND BAKERY,8-B EAST DIAMOND AVE.,,GAITHERSBURG,20877,DIAMOND BAKERY INN,Market,Food,39.1422,-77.198,"(39.1422, -77.198)",3,3,36,35,21,1
43457,DIAMOND BAKERY,8-B EAST DIAMOND AVE.,,GAITHERSBURG,20877,DIAMOND BAKERY INN,Market,Food,39.1422,-77.198,"(39.1422, -77.198)",3,3,36,35,21,1
43457,DIAMOND BAKERY,8-B EAST DIAMOND AVE.,,GAITHERSBURG,20877,DIAMOND BAKERY INN,Market,Food,39.1422,-77.198,"(39.1422, -77.198)",3,3,36,35,21,1
43457,DIAMOND BAKERY,8-B EAST DIAMOND AVE.,,GAITHERSBURG,20877,DIAMOND BAKERY INN,Market,Food,39.1422,-77.198,"(39.1422, -77.198)",3,3,36,35,21,1
43457,DIAMOND BAKERY,8-B EAST DIAMOND AVE.,,GAITHERSBURG,20877,DIAMOND BAKERY INN,Market,Food,39.1422,-77.198,"(39.1422, -77.198)",3,3,36,35,21,1
20291,DIAMOND DELI,504 E. DIAMOND AVE,,GAITHERSBURG,20878,J & JOYCE INC,Market,Food,39.1411,-77.1844,"(39.1411, -77.1844)",3,3,36,35,21,1
20291,DIAMOND DELI,504 E. DIAMOND AVE,,GAITHERSBURG,20878,J & JOYCE INC,Market,Food,39.1411,-77.1844,"(39.1411, -77.1844)",3,3,36,35,21,1
20291,DIAMOND DELI,504 E. DIAMOND AVE,,GAITHERSBURG,20878,J & JOYCE INC,Market,Food,39.1411,-77.1844,"(39.1411, -77.1844)",3,3,36,35,21,1
20291,DIAMOND DELI,504 E. DIAMOND AVE,,GAITHERSBURG,20878,J & JOYCE INC,Market,Food,39.1411,-77.1844,"(39.1411, -77.1844)",3,3,36,35,21,1
20291,DIAMOND DELI,504 E. DIAMOND AVE,,GAITHERSBURG,20878,J & JOYCE INC,Market,Food,39.1411,-77.1844,"(39.1411, -77.1844)",3,3,36,35,21,1
2951,DICK'S SPORTING GOODS,2 GRAND CORNER AVE.,,GAITHERSBURG,20878,"DICK'S SPORTING GOODS, INC.",Market,Food,39.1179,-77.201,"(39.1179, -77.201)",3,3,36,33,21,1
38332,DING TEA,785 ROCKVILLE PIKE,STE C,ROCKVILLE,20852,JENNIFER TRAN / DING TEA MARYLAND,Market,Food,39.0768,-77.1413,"(39.0768, -77.1413)",3,3,25,60,12,1
38332,DING TEA,785 ROCKVILLE PIKE,STE C,ROCKVILLE,20852,JENNIFER TRAN / DING TEA MARYLAND,Market,Food,39.0768,-77.1413,"(39.0768, -77.1413)",3,3,25,60,12,1
38332,DING TEA,785 ROCKVILLE PIKE,STE C,ROCKVILLE,20852,JENNIFER TRAN / DING TEA MARYLAND,Market,Food,39.0768,-77.1413,"(39.0768, -77.1413)",3,3,25,60,12,1
29164,DIPPIN DOTS,11160 VEIRS MILL RD,,SILVER SPRING,20902,MEHDI TRADERS LLC,Market,Food,39.037,-77.0539,"(39.037, -77.0539)",4,4,16,17,1,1
36824,DIRE CONVENIENCE STORE,6480 NEW HAMPSHIRE AVE,#100,TAKOMA PARK,20912,DIRE CONVENIENCE INC,Market,Food,38.9685,-77.0008,"(38.9685, -77.0008)",5,5,4,3062,11,1
36824,DIRE CONVENIENCE STORE,6480 NEW HAMPSHIRE AVE,#100,TAKOMA PARK,20912,DIRE CONVENIENCE INC,Market,Food,38.9685,-77.0008,"(38.9685, -77.0008)",5,5,4,3062,11,1
36824,DIRE CONVENIENCE STORE,6480 NEW HAMPSHIRE AVE,#100,TAKOMA PARK,20912,DIRE CONVENIENCE INC,Market,Food,38.9685,-77.0008,"(38.9685, -77.0008)",5,5,4,3062,11,1
36824,DIRE CONVENIENCE STORE,6480 NEW HAMPSHIRE AVE,#100,TAKOMA PARK,20912,DIRE CONVENIENCE INC,Market,Food,38.9685,-77.0008,"(38.9685, -77.0008)",5,5,4,3062,11,1
19219,DODSON SERVICE,15701 FREDERICK RD.,,ROCKVILLE,20855,DODAN INC.,Market,Food,39.1141,-77.163,"(39.1141, -77.163)",3,3,27,51,1,1
19219,DODSON SERVICE,15701 FREDERICK RD.,,ROCKVILLE,20855,DODAN INC.,Market,Food,39.1141,-77.163,"(39.1141, -77.163)",3,3,27,51,1,1
19219,DODSON SERVICE,15701 FREDERICK RD.,,ROCKVILLE,20855,DODAN INC.,Market,Food,39.1141,-77.163,"(39.1141, -77.163)",3,3,27,51,1,1
20251,DOLLAR BUYS,9661 LOST KNIFE RD,,GAITHERSBURG,20877,"BUY & SAVE, LLC",Market,Food,39.1539,-77.1983,"(39.1539, -77.1983)",2,2,38,35,1,1
20251,DOLLAR BUYS,9661 LOST KNIFE RD,,GAITHERSBURG,20877,"BUY & SAVE, LLC",Market,Food,39.1539,-77.1983,"(39.1539, -77.1983)",2,2,38,35,1,1
27837,DOLLAR CENTURY PLUS,8713 FLOWER AVE,,SILVER SPRING,20901,LAI & C LLC,Market,Food,38.9988,-77.0033,"(38.9988, -77.0033)",5,5,8,21,1,1
17438,DOLLAR CITY,8503 PINEY BRANCH RD.,,SILVER SPRING,20901,"STAR IMPORTS, INC./P. SANDHU",Market,Food,38.9979,-77.0032,"(38.9979, -77.0032)",5,5,8,3062,1,1
41232,DOLLAR CITY & MORE,12337 GEORGIA AVE,SUITE AB,SILVER SPRING,20906,S & GILL LLC,Market,Food,39.061,-77.0488,"(39.061, -77.0488)",4,4,23,6,1,1
41232,DOLLAR CITY & MORE,12337 GEORGIA AVE,SUITE AB,SILVER SPRING,20906,S & GILL LLC,Market,Food,39.061,-77.0488,"(39.061, -77.0488)",4,4,23,6,1,1
46863,DOLLAR CITY & MORE,8503 PINEY BRANCH RD.,,SILVER SPRING,20901,S & GRILL LLC / JAGROOP S SANDHU,Market,Food,38.9979,-77.0032,"(38.9979, -77.0032)",5,5,8,3062,1,1
22481,DOLLAR CITY PLUS,10115 NEW HAMPSHIRE AVE.,,SILVER SPRING,20903,"DARSHAN, LLC.",Market,Food,39.0212,-76.9752,"(39.0212, -76.9752)",5,5,11,15,1,1
28313,DOLLAR GENERAL #14838,19718 FISHER AVE,,POOLESVILLE,20837,DOLGENCORP LLC,Market,Food,39.1446,-77.4134,"(39.1446, -77.4134)",1,1,34,97,16,1
28313,DOLLAR GENERAL #14838,19718 FISHER AVE,,POOLESVILLE,20837,DOLGENCORP LLC,Market,Food,39.1446,-77.4134,"(39.1446, -77.4134)",1,1,34,97,16,1
30839,DOLLAR GENERAL STORE # 18669,12619 WISTERIA DR STE J,,GERMANTOWN,20874,DOLENCORP LLC,Market,Food,39.1718,-77.2612,"(39.1718, -77.2612)",2,2,39,39,1,1
30839,DOLLAR GENERAL STORE # 18669,12619 WISTERIA DR STE J,,GERMANTOWN,20874,DOLENCORP LLC,Market,Food,39.1718,-77.2612,"(39.1718, -77.2612)",2,2,39,39,1,1
30839,DOLLAR GENERAL STORE # 18669,12619 WISTERIA DR STE J,,GERMANTOWN,20874,DOLENCORP LLC,Market,Food,39.1718,-77.2612,"(39.1718, -77.2612)",2,2,39,39,1,1
756,DOLLAR & MORE - GAITHERSBURG,229 MUDDY BRANCH RD.,,GAITHERSBURG,20878,GURCHARAN SINGH,Market,Food,39.1277,-77.2059,"(39.1277, -77.2059)",3,3,36,33,21,1
756,DOLLAR & MORE - GAITHERSBURG,229 MUDDY BRANCH RD.,,GAITHERSBURG,20878,GURCHARAN SINGH,Market,Food,39.1277,-77.2059,"(39.1277, -77.2059)",3,3,36,33,21,1
756,DOLLAR & MORE - GAITHERSBURG,229 MUDDY BRANCH RD.,,GAITHERSBURG,20878,GURCHARAN SINGH,Market,Food,39.1277,-77.2059,"(39.1277, -77.2059)",3,3,36,33,21,1
30168,DOLLAR PLUS SHOP,13434 NEW HAMPSHIRE AVE,,SILVER SPRING,20904,BIZEN AYLAY,Market,Food,39.0772,-77.0023,"(39.0772, -77.0023)",4,4,26,12,1,1
30289,DOLLAR PLUS STORE #7,11250 TRIANGLE LANE,,SILVER SPRING,20902,YONAS ARAYA,Market,Food,39.0398,-77.0518,"(39.0398, -77.0518)",4,4,16,17,1,1
30289,DOLLAR PLUS STORE #7,11250 TRIANGLE LANE,,SILVER SPRING,20902,YONAS ARAYA,Market,Food,39.0398,-77.0518,"(39.0398, -77.0518)",4,4,16,17,1,1
46936,DOLLAR SHOPPES,8407 SNOUFFER SCHOOL RD,,GAITHERSBURG,20879,ELELBIN M PAREDES & ROBERTO MONTEDLUS,Market,Food,39.1676,-77.1721,"(39.1676, -77.1721)",4,4,36,31,1,1
46957,DOLLAR SHOP PLUS,18224 FLOWER HILL WAY,,GAITHERSBURG,20879,MYO THEINKHA/ EASTERNPEACOCK LLC,Market,Food,39.1546,-77.1652,"(39.1546, -77.1652)",4,4,36,35,1,1
11425,DOLLAR TREE #1704,19214 MONTGOMERY VILLAGE AVE.,,MONTG. VILLAGE,20886,"DOLLAR TREE STORES, INC.",Market,Food,39.1721,-77.2053,"(39.1721, -77.2053)",2,2,38,28,1,1
11425,DOLLAR TREE #1704,19214 MONTGOMERY VILLAGE AVE.,,MONTG. VILLAGE,20886,"DOLLAR TREE STORES, INC.",Market,Food,39.1721,-77.2053,"(39.1721, -77.2053)",2,2,38,28,1,1
24125,DOLLAR TREE #29293,275 MUDDY BRANCH RD,,GAITHERSBURG,20878,"FAMILY DOLLAR STORES OF MD, LLC",Market,Food,39.1271,-77.2073,"(39.1271, -77.2073)",3,3,36,33,21,1
24125,DOLLAR TREE #29293,275 MUDDY BRANCH RD,,GAITHERSBURG,20878,"FAMILY DOLLAR STORES OF MD, LLC",Market,Food,39.1271,-77.2073,"(39.1271, -77.2073)",3,3,36,33,21,1
21368,DOLLAR TREE #4512,5260 RANDOLPH RD.,,ROCKVILLE,20852,"DOLLAR TREE STORES, INC.",Market,Food,39.0524,-77.1056,"(39.0524, -77.1056)",4,4,19,60,1,1
21368,DOLLAR TREE #4512,5260 RANDOLPH RD.,,ROCKVILLE,20852,"DOLLAR TREE STORES, INC.",Market,Food,39.0524,-77.1056,"(39.0524, -77.1056)",4,4,19,60,1,1
21368,DOLLAR TREE #4512,5260 RANDOLPH RD.,,ROCKVILLE,20852,"DOLLAR TREE STORES, INC.",Market,Food,39.0524,-77.1056,"(39.0524, -77.1056)",4,4,19,60,1,1
24034,DOLLAR TREE #4983,9809 MAIN ST.,STE 100,DAMASCUS,20872,"DOLLAR TREE STORES, INC.",Market,Food,39.2902,-77.2029,"(39.2902, -77.2029)",2,2,51,42,1,1
24034,DOLLAR TREE #4983,9809 MAIN ST.,STE 100,DAMASCUS,20872,"DOLLAR TREE STORES, INC.",Market,Food,39.2902,-77.2029,"(39.2902, -77.2029)",2,2,51,42,1,1
24034,DOLLAR TREE #4983,9809 MAIN ST.,STE 100,DAMASCUS,20872,"DOLLAR TREE STORES, INC.",Market,Food,39.2902,-77.2029,"(39.2902, -77.2029)",2,2,51,42,1,1
24034,DOLLAR TREE #4983,9809 MAIN ST.,STE 100,DAMASCUS,20872,"DOLLAR TREE STORES, INC.",Market,Food,39.2902,-77.2029,"(39.2902, -77.2029)",2,2,51,42,1,1
37286,DOLLAR TREE #7952,7230 MUNCASTER MILL RD,,DERWOOD,20855,DOLLAR TREE STORES INC,Market,Food,39.1454,-77.1454,"(39.1454, -77.1454)",3,3,36,51,1,1
37286,DOLLAR TREE #7952,7230 MUNCASTER MILL RD,,DERWOOD,20855,DOLLAR TREE STORES INC,Market,Food,39.1454,-77.1454,"(39.1454, -77.1454)",3,3,36,51,1,1
37286,DOLLAR TREE #7952,7230 MUNCASTER MILL RD,,DERWOOD,20855,DOLLAR TREE STORES INC,Market,Food,39.1454,-77.1454,"(39.1454, -77.1454)",3,3,36,51,1,1
28034,DOLLAR TREE #969,18036 MATNEY RD,,GERMANTOWN,20874,"DOLLAR TREE STORES, INC",Market,Food,39.1484,-77.2743,"(39.1484, -77.2743)",2,2,39,39,1,1
26709,DOLLAR ZONE,2090 VEIRS MILL RD,,ROCKVILLE,20851,EDIAL CORPORATION,Market,Food,39.0757,-77.1156,"(39.0757, -77.1156)",3,3,25,68,12,1
18268,DOMINO'S PIZZA,18037 GEORGIA AVE.,,OLNEY,20832,"BREWSKIES, LLC",Market,Food,39.1518,-77.0664,"(39.1518, -77.0664)",4,4,58,100,1,1
18268,DOMINO'S PIZZA,18037 GEORGIA AVE.,,OLNEY,20832,"BREWSKIES, LLC",Market,Food,39.1518,-77.0664,"(39.1518, -77.0664)",4,4,58,100,1,1
18268,DOMINO'S PIZZA,18037 GEORGIA AVE.,,OLNEY,20832,"BREWSKIES, LLC",Market,Food,39.1518,-77.0664,"(39.1518, -77.0664)",4,4,58,100,1,1
775,DOMINO'S PIZZA #4631,18214 FLOWER HILL WAY,,GAITHERSBURG,20879,"TEAM WASHINGTON, INC.",Market,Food,39.1542,-77.165,"(39.1542, -77.165)",4,4,36,35,1,1
775,DOMINO'S PIZZA #4631,18214 FLOWER HILL WAY,,GAITHERSBURG,20879,"TEAM WASHINGTON, INC.",Market,Food,39.1542,-77.165,"(39.1542, -77.165)",4,4,36,35,1,1
775,DOMINO'S PIZZA #4631,18214 FLOWER HILL WAY,,GAITHERSBURG,20879,"TEAM WASHINGTON, INC.",Market,Food,39.1542,-77.165,"(39.1542, -77.165)",4,4,36,35,1,1
18056,DOMINO'S PIZZA #4682,13050 MIDDLEBROOK RD.,,GERMANTOWN,20874,"TBG PIZZA, INC.",Market,Food,39.1815,-77.2717,"(39.1815, -77.2717)",2,2,39,39,1,1
18056,DOMINO'S PIZZA #4682,13050 MIDDLEBROOK RD.,,GERMANTOWN,20874,"TBG PIZZA, INC.",Market,Food,39.1815,-77.2717,"(39.1815, -77.2717)",2,2,39,39,1,1
18056,DOMINO'S PIZZA #4682,13050 MIDDLEBROOK RD.,,GERMANTOWN,20874,"TBG PIZZA, INC.",Market,Food,39.1815,-77.2717,"(39.1815, -77.2717)",2,2,39,39,1,1
769,DOMINO'S PIZZA #4692,10145 NEW HAMPSHIRE AVE.,,SILVER SPRING,20903,"TEAM WASHINGTON, INC.",Market,Food,39.022,-76.9762,"(39.022, -76.9762)",5,5,11,15,1,1
769,DOMINO'S PIZZA #4692,10145 NEW HAMPSHIRE AVE.,,SILVER SPRING,20903,"TEAM WASHINGTON, INC.",Market,Food,39.022,-76.9762,"(39.022, -76.9762)",5,5,11,15,1,1
769,DOMINO'S PIZZA #4692,10145 NEW HAMPSHIRE AVE.,,SILVER SPRING,20903,"TEAM WASHINGTON, INC.",Market,Food,39.022,-76.9762,"(39.022, -76.9762)",5,5,11,15,1,1
30412,DOWNTOWN BEER AND WINE 3,70 UPPER ROCK CIR,STE 104,ROCKVILLE,20850,ALVARO VIVANCO,Market,Food,39.1125,-77.1836,"(39.1125, -77.1836)",3,3,25,71,12,1
33114,DOWNTOWN BEER & WINE,5751 FISHERS LANE,,ROCKVILLE,20852,FERNANDO M COZVIVANCO,Market,Food,39.063,-77.1173,"(39.063, -77.1173)",3,3,19,60,12,1
28037,DOWNTOWN CROWN WINE & BEER,303 COPLEY PLACE,,GAITHERSBURG,20878,CROWN BEER & WINE LLC,Market,Food,39.1152,-77.2068,"(39.1152, -77.2068)",3,3,25,71,21,1
28037,DOWNTOWN CROWN WINE & BEER,303 COPLEY PLACE,,GAITHERSBURG,20878,CROWN BEER & WINE LLC,Market,Food,39.1152,-77.2068,"(39.1152, -77.2068)",3,3,25,71,21,1
28037,DOWNTOWN CROWN WINE & BEER,303 COPLEY PLACE,,GAITHERSBURG,20878,CROWN BEER & WINE LLC,Market,Food,39.1152,-77.2068,"(39.1152, -77.2068)",3,3,25,71,21,1
28037,DOWNTOWN CROWN WINE & BEER,303 COPLEY PLACE,,GAITHERSBURG,20878,CROWN BEER & WINE LLC,Market,Food,39.1152,-77.2068,"(39.1152, -77.2068)",3,3,25,71,21,1
17524,DQ ORANGE JULIUS,7101 DEMOCRACY BLVD.,,BETHESDA,20817,"QING QING, INC.",Market,Food,39.0233,-77.1486,"(39.0233, -77.1486)",1,1,19,103,1,1
17524,DQ ORANGE JULIUS,7101 DEMOCRACY BLVD.,,BETHESDA,20817,"QING QING, INC.",Market,Food,39.0233,-77.1486,"(39.0233, -77.1486)",1,1,19,103,1,1
17524,DQ ORANGE JULIUS,7101 DEMOCRACY BLVD.,,BETHESDA,20817,"QING QING, INC.",Market,Food,39.0233,-77.1486,"(39.0233, -77.1486)",1,1,19,103,1,1
17524,DQ ORANGE JULIUS,7101 DEMOCRACY BLVD.,,BETHESDA,20817,"QING QING, INC.",Market,Food,39.0233,-77.1486,"(39.0233, -77.1486)",1,1,19,103,1,1
35541,DUCK DONUTS,1327 ROCKVILLE PIKE,,ROCKVILLE,20852,HYSC-RV INC,Market,Food,39.0681,-77.1302,"(39.0681, -77.1302)",3,3,25,60,12,1
35541,DUCK DONUTS,1327 ROCKVILLE PIKE,,ROCKVILLE,20852,HYSC-RV INC,Market,Food,39.0681,-77.1302,"(39.0681, -77.1302)",3,3,25,60,12,1
35541,DUCK DONUTS,1327 ROCKVILLE PIKE,,ROCKVILLE,20852,HYSC-RV INC,Market,Food,39.0681,-77.1302,"(39.0681, -77.1302)",3,3,25,60,12,1
35541,DUCK DONUTS,1327 ROCKVILLE PIKE,,ROCKVILLE,20852,HYSC-RV INC,Market,Food,39.0681,-77.1302,"(39.0681, -77.1302)",3,3,25,60,12,1
36807,DUCK DONUTS,511 QUINCE ORCHARD RD,,GAITHERSBURG,20878,7T7 CAFE LLC,Market,Food,39.1442,-77.2195,"(39.1442, -77.2195)",3,3,36,33,21,1
36807,DUCK DONUTS,511 QUINCE ORCHARD RD,,GAITHERSBURG,20878,7T7 CAFE LLC,Market,Food,39.1442,-77.2195,"(39.1442, -77.2195)",3,3,36,33,21,1
36807,DUCK DONUTS,511 QUINCE ORCHARD RD,,GAITHERSBURG,20878,7T7 CAFE LLC,Market,Food,39.1442,-77.2195,"(39.1442, -77.2195)",3,3,36,33,21,1
36807,DUCK DONUTS,511 QUINCE ORCHARD RD,,GAITHERSBURG,20878,7T7 CAFE LLC,Market,Food,39.1442,-77.2195,"(39.1442, -77.2195)",3,3,36,33,21,1
36807,DUCK DONUTS,511 QUINCE ORCHARD RD,,GAITHERSBURG,20878,7T7 CAFE LLC,Market,Food,39.1442,-77.2195,"(39.1442, -77.2195)",3,3,36,33,21,1
36807,DUCK DONUTS,511 QUINCE ORCHARD RD,,GAITHERSBURG,20878,7T7 CAFE LLC,Market,Food,39.1442,-77.2195,"(39.1442, -77.2195)",3,3,36,33,21,1
43445,DUNKIN' & BASKIN-ROBBINS,11140 NEW HAMPSHIRE AVE,,SILVER SPRING,20904,WHITE OAK DONUTS LLC,Market,Food,39.0377,-76.9902,"(39.0377, -76.9902)",5,5,18,21,1,1
43445,DUNKIN' & BASKIN-ROBBINS,11140 NEW HAMPSHIRE AVE,,SILVER SPRING,20904,WHITE OAK DONUTS LLC,Market,Food,39.0377,-76.9902,"(39.0377, -76.9902)",5,5,18,21,1,1
43445,DUNKIN' & BASKIN-ROBBINS,11140 NEW HAMPSHIRE AVE,,SILVER SPRING,20904,WHITE OAK DONUTS LLC,Market,Food,39.0377,-76.9902,"(39.0377, -76.9902)",5,5,18,21,1,1
26668,DUNKIN DONUTS,19781 FREDERICK RD,,GERMANTOWN,20876,WASHAM INVESTORS LLC,Market,Food,39.1795,-77.2379,"(39.1795, -77.2379)",2,2,39,36,1,1
26668,DUNKIN DONUTS,19781 FREDERICK RD,,GERMANTOWN,20876,WASHAM INVESTORS LLC,Market,Food,39.1795,-77.2379,"(39.1795, -77.2379)",2,2,39,36,1,1
26668,DUNKIN DONUTS,19781 FREDERICK RD,,GERMANTOWN,20876,WASHAM INVESTORS LLC,Market,Food,39.1795,-77.2379,"(39.1795, -77.2379)",2,2,39,36,1,1
26668,DUNKIN DONUTS,19781 FREDERICK RD,,GERMANTOWN,20876,WASHAM INVESTORS LLC,Market,Food,39.1795,-77.2379,"(39.1795, -77.2379)",2,2,39,36,1,1
26668,DUNKIN DONUTS,19781 FREDERICK RD,,GERMANTOWN,20876,WASHAM INVESTORS LLC,Market,Food,39.1795,-77.2379,"(39.1795, -77.2379)",2,2,39,36,1,1
24349,DUNKIN DONUTS #350786,8401 COLESVILLE RD,,SILVER SPRING,20910,WASHAM INVESTORS LLC,Market,Food,38.9946,-77.0311,"(38.9946, -77.0311)",5,5,6,3065,1,1
24349,DUNKIN DONUTS #350786,8401 COLESVILLE RD,,SILVER SPRING,20910,WASHAM INVESTORS LLC,Market,Food,38.9946,-77.0311,"(38.9946, -77.0311)",5,5,6,3065,1,1
24349,DUNKIN DONUTS #350786,8401 COLESVILLE RD,,SILVER SPRING,20910,WASHAM INVESTORS LLC,Market,Food,38.9946,-77.0311,"(38.9946, -77.0311)",5,5,6,3065,1,1
24349,DUNKIN DONUTS #350786,8401 COLESVILLE RD,,SILVER SPRING,20910,WASHAM INVESTORS LLC,Market,Food,38.9946,-77.0311,"(38.9946, -77.0311)",5,5,6,3065,1,1
27624,DUNKIN DONUTS #352248,7500 OLD GEORGETOWN RD,STE 6R2,BETHESDA,20814,LUIS GROUPSIX LLC,Market,Food,38.9851,-77.0952,"(38.9851, -77.0952)",1,1,12,111,1,1
27624,DUNKIN DONUTS #352248,7500 OLD GEORGETOWN RD,STE 6R2,BETHESDA,20814,LUIS GROUPSIX LLC,Market,Food,38.9851,-77.0952,"(38.9851, -77.0952)",1,1,12,111,1,1
27624,DUNKIN DONUTS #352248,7500 OLD GEORGETOWN RD,STE 6R2,BETHESDA,20814,LUIS GROUPSIX LLC,Market,Food,38.9851,-77.0952,"(38.9851, -77.0952)",1,1,12,111,1,1
27624,DUNKIN DONUTS #352248,7500 OLD GEORGETOWN RD,STE 6R2,BETHESDA,20814,LUIS GROUPSIX LLC,Market,Food,38.9851,-77.0952,"(38.9851, -77.0952)",1,1,12,111,1,1
33263,DUNKIN DONUTS # 358197,13804 OUTLET DR,,SILVER SPRING,20904,LUIS GROUP NINTEEN LLC (BORIS LANDER),Market,Food,39.0829,-76.9468,"(39.0829, -76.9468)",5,5,53,12,1,1
33263,DUNKIN DONUTS # 358197,13804 OUTLET DR,,SILVER SPRING,20904,LUIS GROUP NINTEEN LLC (BORIS LANDER),Market,Food,39.0829,-76.9468,"(39.0829, -76.9468)",5,5,53,12,1,1
33263,DUNKIN DONUTS # 358197,13804 OUTLET DR,,SILVER SPRING,20904,LUIS GROUP NINTEEN LLC (BORIS LANDER),Market,Food,39.0829,-76.9468,"(39.0829, -76.9468)",5,5,53,12,1,1
33263,DUNKIN DONUTS # 358197,13804 OUTLET DR,,SILVER SPRING,20904,LUIS GROUP NINTEEN LLC (BORIS LANDER),Market,Food,39.0829,-76.9468,"(39.0829, -76.9468)",5,5,53,12,1,1
33263,DUNKIN DONUTS # 358197,13804 OUTLET DR,,SILVER SPRING,20904,LUIS GROUP NINTEEN LLC (BORIS LANDER),Market,Food,39.0829,-76.9468,"(39.0829, -76.9468)",5,5,53,12,1,1
33263,DUNKIN DONUTS # 358197,13804 OUTLET DR,,SILVER SPRING,20904,LUIS GROUP NINTEEN LLC (BORIS LANDER),Market,Food,39.0829,-76.9468,"(39.0829, -76.9468)",5,5,53,12,1,1
48158,DUNKIN DONUTS/ BASKIN ROBBINS,16268 FREDERICK RD,,GAITHERSBURG,20877,T DONUT OPERATING LLC,Market,Food,39.1217,-77.1779,"(39.1217, -77.1779)",3,3,36,35,1,1
48158,DUNKIN DONUTS/ BASKIN ROBBINS,16268 FREDERICK RD,,GAITHERSBURG,20877,T DONUT OPERATING LLC,Market,Food,39.1217,-77.1779,"(39.1217, -77.1779)",3,3,36,35,1,1
45590,DUNKIN DONUTS/BASKIN ROBBINS,"115 UNIVERSITY BLVD, WEST",,SILVER SPRING,20901,FOUR CORNERS DONUTS LLC,Market,Food,39.0216,-77.0144,"(39.0216, -77.0144)",5,5,13,21,1,1
37306,DUNKIN' DONUTS/ BASKIN-ROBBINS #357487,19706 FISHER AVE,,POOLESVILLE,20837,LUIS GROUP EIGHTEEN LLC,Market,Food,39.1444,-77.4118,"(39.1444, -77.4118)",1,1,34,97,16,1
37306,DUNKIN' DONUTS/ BASKIN-ROBBINS #357487,19706 FISHER AVE,,POOLESVILLE,20837,LUIS GROUP EIGHTEEN LLC,Market,Food,39.1444,-77.4118,"(39.1444, -77.4118)",1,1,34,97,16,1
37306,DUNKIN' DONUTS/ BASKIN-ROBBINS #357487,19706 FISHER AVE,,POOLESVILLE,20837,LUIS GROUP EIGHTEEN LLC,Market,Food,39.1444,-77.4118,"(39.1444, -77.4118)",1,1,34,97,16,1
37306,DUNKIN' DONUTS/ BASKIN-ROBBINS #357487,19706 FISHER AVE,,POOLESVILLE,20837,LUIS GROUP EIGHTEEN LLC,Market,Food,39.1444,-77.4118,"(39.1444, -77.4118)",1,1,34,97,16,1
33317,DUNKIN DONUTS/BASKIN-ROBINS #357488,18006 MATENY RD,,GERMANTOWN,20874,LUIS GROUP SEVENTEEN LLC,Market,Food,39.1476,-77.2747,"(39.1476, -77.2747)",2,2,39,39,1,1
33317,DUNKIN DONUTS/BASKIN-ROBINS #357488,18006 MATENY RD,,GERMANTOWN,20874,LUIS GROUP SEVENTEEN LLC,Market,Food,39.1476,-77.2747,"(39.1476, -77.2747)",2,2,39,39,1,1
33317,DUNKIN DONUTS/BASKIN-ROBINS #357488,18006 MATENY RD,,GERMANTOWN,20874,LUIS GROUP SEVENTEEN LLC,Market,Food,39.1476,-77.2747,"(39.1476, -77.2747)",2,2,39,39,1,1
33317,DUNKIN DONUTS/BASKIN-ROBINS #357488,18006 MATENY RD,,GERMANTOWN,20874,LUIS GROUP SEVENTEEN LLC,Market,Food,39.1476,-77.2747,"(39.1476, -77.2747)",2,2,39,39,1,1
46865,DYNAMIC SCULPT SMOOTHIE BAR,314 COPLEY PLACE,,GAITHERSBURG,20878,KINGSLEY EZE/ DYNAMIC SCULPT SMOOTHIE BAR LLC,Market,Food,39.1147,-77.2068,"(39.1147, -77.2068)",3,3,25,71,21,1
46865,DYNAMIC SCULPT SMOOTHIE BAR,314 COPLEY PLACE,,GAITHERSBURG,20878,KINGSLEY EZE/ DYNAMIC SCULPT SMOOTHIE BAR LLC,Market,Food,39.1147,-77.2068,"(39.1147, -77.2068)",3,3,25,71,21,1
46842,DYNAMIC SCULPT SMOOTHIE BAR,602 QUINCE ORCHARD RD,,GAITHERSBURG,20878,KINGSLEY EZE/DYNAMIC SCULPT SMOOTHIE BAR LLC,Market,Food,39.1428,-77.2234,"(39.1428, -77.2234)",3,3,36,33,21,1
149,EAST ROCKVILLE SUNOCO,4100 ASPEN HILL RD.,,ROCKVILLE,20853,EAST ROCKVILLE SUNOCO/JI SOO SONG,Market,Food,39.0799,-77.0811,"(39.0799, -77.0811)",4,4,61,58,1,1
149,EAST ROCKVILLE SUNOCO,4100 ASPEN HILL RD.,,ROCKVILLE,20853,EAST ROCKVILLE SUNOCO/JI SOO SONG,Market,Food,39.0799,-77.0811,"(39.0799, -77.0811)",4,4,61,58,1,1
149,EAST ROCKVILLE SUNOCO,4100 ASPEN HILL RD.,,ROCKVILLE,20853,EAST ROCKVILLE SUNOCO/JI SOO SONG,Market,Food,39.0799,-77.0811,"(39.0799, -77.0811)",4,4,61,58,1,1
149,EAST ROCKVILLE SUNOCO,4100 ASPEN HILL RD.,,ROCKVILLE,20853,EAST ROCKVILLE SUNOCO/JI SOO SONG,Market,Food,39.0799,-77.0811,"(39.0799, -77.0811)",4,4,61,58,1,1
47049,EATING RECOVERY CENTER,6931 ARLINGTON RD,,BETHESDA,20814,EATING RECOVERY CENTER LLC,Market,Food,38.9789,-77.0979,"(38.9789, -77.0979)",1,1,12,111,1,1
46910,EBISU LIFE STORE,836 ROCKVILLE PIKE,,ROCKVILLE,20852,FULLERFU LLC,Market,Food,39.0762,-77.1374,"(39.0762, -77.1374)",3,3,25,60,12,1
46910,EBISU LIFE STORE,836 ROCKVILLE PIKE,,ROCKVILLE,20852,FULLERFU LLC,Market,Food,39.0762,-77.1374,"(39.0762, -77.1374)",3,3,25,60,12,1
30473,EDIBLE ARRANGEMENT,3478 OLNEY LAYTONSVILLE RD,,OLNEY,20832,ANVE OLNEY INC,Market,Food,39.1534,-77.0687,"(39.1534, -77.0687)",4,4,58,100,1,1
30473,EDIBLE ARRANGEMENT,3478 OLNEY LAYTONSVILLE RD,,OLNEY,20832,ANVE OLNEY INC,Market,Food,39.1534,-77.0687,"(39.1534, -77.0687)",4,4,58,100,1,1
30473,EDIBLE ARRANGEMENT,3478 OLNEY LAYTONSVILLE RD,,OLNEY,20832,ANVE OLNEY INC,Market,Food,39.1534,-77.0687,"(39.1534, -77.0687)",4,4,58,100,1,1
30473,EDIBLE ARRANGEMENT,3478 OLNEY LAYTONSVILLE RD,,OLNEY,20832,ANVE OLNEY INC,Market,Food,39.1534,-77.0687,"(39.1534, -77.0687)",4,4,58,100,1,1
22176,EDIBLE ARRANGEMENTS,4611-N SANGAMORE RD.,,BETHESDA,20816,"2FRUITS, INC.",Market,Food,38.95,-77.1194,"(38.95, -77.1194)",1,1,12,107,1,1
28821,EDIBLE ARRANGEMENTS,5050 NICHOLSON LN,Unit #C,ROCKVILLE,20852,MICHAEL POPE,Market,Food,39.0459,-77.103,"(39.0459, -77.103)",1,1,19,25,1,1
28821,EDIBLE ARRANGEMENTS,5050 NICHOLSON LN,Unit #C,ROCKVILLE,20852,MICHAEL POPE,Market,Food,39.0459,-77.103,"(39.0459, -77.103)",1,1,19,25,1,1
30600,EDIBLE ARRANGEMENTS,76 MARKET ST,,GAITHERSBURG,20878,SHAZ CAPITAL CONSULTING LLC,Market,Food,39.1243,-77.2342,"(39.1243, -77.2342)",3,3,36,33,21,1
30600,EDIBLE ARRANGEMENTS,76 MARKET ST,,GAITHERSBURG,20878,SHAZ CAPITAL CONSULTING LLC,Market,Food,39.1243,-77.2342,"(39.1243, -77.2342)",3,3,36,33,21,1
30600,EDIBLE ARRANGEMENTS,76 MARKET ST,,GAITHERSBURG,20878,SHAZ CAPITAL CONSULTING LLC,Market,Food,39.1243,-77.2342,"(39.1243, -77.2342)",3,3,36,33,21,1
30600,EDIBLE ARRANGEMENTS,76 MARKET ST,,GAITHERSBURG,20878,SHAZ CAPITAL CONSULTING LLC,Market,Food,39.1243,-77.2342,"(39.1243, -77.2342)",3,3,36,33,21,1
30666,EDIBLE ARRANGEMENTS SILVER SPRING,915 BONIFANT ST,,SILVER SPRING,20910,MLP INC - MICHAEL POPE,Market,Food,38.9942,-77.0246,"(38.9942, -77.0246)",5,5,7,3065,1,1
30666,EDIBLE ARRANGEMENTS SILVER SPRING,915 BONIFANT ST,,SILVER SPRING,20910,MLP INC - MICHAEL POPE,Market,Food,38.9942,-77.0246,"(38.9942, -77.0246)",5,5,7,3065,1,1
843,EL AMIGO GROCERY AND DELI,12214 VEIRS MILL RD.,,SILVER SPRING,20906,"LA UNION, INC.",Market,Food,39.0563,-77.084,"(39.0563, -77.084)",4,4,56,6,1,1
37222,EL DORADO FOOD MARKET,11441 AMHERST AVE,,SILVER SPRING,20902,MORIS A DIAZ / LUIS H DIAZ,Market,Food,39.0429,-77.0475,"(39.0429, -77.0475)",4,4,16,17,1,1
37222,EL DORADO FOOD MARKET,11441 AMHERST AVE,,SILVER SPRING,20902,MORIS A DIAZ / LUIS H DIAZ,Market,Food,39.0429,-77.0475,"(39.0429, -77.0475)",4,4,16,17,1,1
37222,EL DORADO FOOD MARKET,11441 AMHERST AVE,,SILVER SPRING,20902,MORIS A DIAZ / LUIS H DIAZ,Market,Food,39.0429,-77.0475,"(39.0429, -77.0475)",4,4,16,17,1,1
26571,"EL GAUCHO MEATS & FISH, INC",4301 RANDOLPH RD,,SILVER SPRING,20906,RAMON ALEGRE,Market,Food,39.056,-77.0836,"(39.056, -77.0836)",4,4,56,6,1,1
47062,EL LLUYA BAKERY,"11910 PARKLAWN DR, STE O",,ROCKVILLE,20852,LUIS ALBERTO GAMBOA MESA,Market,Food,39.0517,-77.1072,"(39.0517, -77.1072)",4,4,19,60,1,1
47062,EL LLUYA BAKERY,"11910 PARKLAWN DR, STE O",,ROCKVILLE,20852,LUIS ALBERTO GAMBOA MESA,Market,Food,39.0517,-77.1072,"(39.0517, -77.1072)",4,4,19,60,1,1
46710,EL PANADERO BAKERY,7813 AIRPARK RD,,GAITHERSBURG,20878,EL PANADERO BAKERY LLC,Market,Food,39.1706,-77.16,"(39.1706, -77.16)",4,4,36,31,1,1
