"company","address","address_2","city","state","zip"
"""D"" PLATINUM CONTRACTING SERVICES, LLC","3024 SHEPPERTON TER",,"SILVER SPRING","MD","20904-6709"
"(C) MANAGEMENT, INC.","1801 RESEARCH BOULEVARD","SUITE 400","ROCKVILLE","MD","20850"
"(K)RPG, LLC","9711 WASHINGTONIAN BLVD","#420","GAITHERSBURG","MA","20878"
"07 DESIGN, LLC","119 SNOWY OWL DR",,"SILVER SPRING","MD","20901"
"1 CUT ABOVE, L.L.C.","613 OLNEY-SANDY SPRING RD",,"SANDY SPRING","MD","20860"
"1 SOURCE CONSULTING, INC.","20440 CENTURY BLVD STE 125",,"GERMANTOWN","MD","20874"
"10001 NEW HAMPSHIRE AVENUE, INC.","1701 ELTON ROAD",,"SILVER SPRING","MD","20903"
"10010 STATION, LLC","9101 RIVER RD",,"POTOMAC","MD","20854"
"101 GENEVA, LLC","12020 GEORGIA AVENUE","UNIT H","SILVER SPRING","MD","20902"
"101 PARK AVENUE PARTNERS, INC.","200 SUMMIT LAKE DR","FLOOR 2","VALHALLA","NY","10595"
"10102 RIVER INC.","10102 RIVER RD.","#A","POTOMAC","MD","20854"
"1021 EAST UNIVERSITY, L.L.C.","7220 BRADLEY BOULEVARD",,"BETHESDA","MD","20817"
"103 FRANKLIN AVENUE LLC","2605 BRIGGS ROAD",,"SILVER SPRING","MD","20906"
"10550 CONNECTICUT AVENUE, LLC","10550 CONNECTICUT AVE",,"KENSINGTON","MD","20895-2426"
"10720 COLUMBIA PIKE, LLC","10770 COLUMBIA PIKE, SUITE 125",,"SILVER SPRING","MD","20901"
"11160 VIERS MILL 20902 INC.","#TK01K","701 RUSSELL AVE.","GAITHERSBURG","MD","20877"
"11200 ROCKVILLE PIKE, LLC","4520 EAST WEST HWY","SUITE 200","BETHESDA","MD","20814"
"11250 NAIL PERFECTION INC.","11250 GEORGIA AVE",,"SILVER SPRING","MD","20902"
"11250 VEIRS MILL ROAD, LLC","11250 VEIRS MILL RD",,"WHEATON","MD","20902-2525"
"114 EVANS STREET L.L.C.","214 W MONTGOMERY AVE.",,"ROCKVILLE","MD","20850"
"12 KNOTS LLC","3919 KINCAID TERRACE",,"KENSINGTON","MD","20895"
"12051 TECH ROAD, LLC","12051 TECH ROAD",,"SILVER SPRING","MD","20904"
"121 FACILITIES SERVICES, LLC","17041 OLD BALTIMORE RD",,"OLNEY","MD","20832-2411"
"121 FOOD & SERVICE, INC.","4011 NORBECK RD",,"ROCKVILLE","MD","20853-1889"
"121 USA, LLC","7315 WISCONSIN AVE","SUITE 400 W","BETHESDA","MD","20814"
"1215, LLC","1215 EAST GUDE DRIVE",,"ROCKVILLE","MD","20850"
"12IN12 DESIGN GROUP LLC","11310 HALTHORPE TERRACE",,"GERMANTOWN","MD","20876"
"12ONE, LLC","22115 FAIR GARDEN LANE",,"CLARKSBURG","MD","20871"
"13400 JEFFERSON DAVIS LLC","2359 RESEARCH COURT",,"WOODBRIDGE","VA","22192-4632"
"1380 PICCARD DRIVE HOLDCO LLC","STE 600","1660 L ST NW","WASHINGTON","DC","20036"
"14020 DARNESTOWN L.L.C.","14020 DARNESTOWN RD",,"DARNESTOWN","MD","20878"
"14816 WOOTTON MANOR LLC","#200","416 MAIN ST","GAITHERSBURG","MD","20878-6529"
"1488-B, INC.","1488-B ROCKVILLE PIKE",,"ROCKVILLE","MD","20852"
"157 ENTERTAINMENT, LLC","23 BRALAN CT.",,"GAITHERSBURG","MD","20877"
"159 ART STUDIO LLC","159 MILLGREEN AVE., #100",,"GAITHERSBURG","MD","20878"
"16210 S FREDERICK, LLC","2359 RESEARCH CT",,"WOODBRIDGE","VA","22192"
"1750 ROCKVILLE PIKE, LLC","11770 US HIGHWAY 1","SUITE 202","NORTH PALM BEACH","FL","33408"
"1788 HOLDINGS, L.L.C.","4421 EAST-WEST HIGHWAY",,"BETHESDA","MD","20814"
"180 HALPINE ROAD, LLC","11401 PATRIOT LANE",,"POTOMAC","MD","20854"
"1800 ROCKVILLE RESIDENTIAL, L.L.C.","SUITE 400","2711 CENTERVILLE ROAD","WILMINGTON","DE","19808"
"18201 BROOKE ROAD, LLC","1916 NARROWS LN",,"SILVER SPRING","MD","20906-1139"
"18240 OLNEY VILLAGE DR 20832 INC","39-40 30TH STREET",,"LONG ISLAND CITY","NY","11101"
"1905 MAY LIN LLC","4227 ROUND HILL RD",,"SILVER SPRING","MD","20906"
"1907 VMR L.L.C.","343 HICKMAN ST",,"REHOBOTH","DE","19971"
"1910 ROCKVILLE, LLC","2359 RESEARCH COURT",,"WOODBRIDGE","VA","22192"
"19301 WATKINS MILL ROAD, LLC","173 BRIDGE PLAZA NORTH",,"FORT LEE","NJ","07024-7575"
"19304 MONTGOMERY, LLC","2359 RESEARCH CT",,"WOODBRIDGE","VA","22192"
"19725A, INC.","19725-A GERMANTOWN ROAD",,"GERMANTOWN","MD","20874"
"1AU GLOBAL MEDIA, LLC","17816 WHIMSEY CT",,"OLNEY","MD","20832-2826"
"1CALL4HELP, LLC","4 SUPREME CT",,"GAITHERSBURG","MD","20878-2817"
"1ST AMENDMENT SPORTS, LLC","4014 SPRUELL DR",,"KENSINGTON","MD","20895"
"1ST CHOICE COLLISION, LLC","5531 NICHOLSON LN",,"ROCKVILLE","MD","20852-3181"
"1ST CHOICE, LLC","8121 GEORGIA AVE STE 700",,"SILVER SPRING","MD","20910"
"1ST INVESTORS REALTY, INC.","12444 ANSIN CIRCLE",,"POTOMAC","MD","20854"
"1ST PORTFOLIO LENDING CORPORATION","12700 FAIR LAKES CIRCLE","SUITE 400","FAIRFAX","VA","22033"
"1ST THINKING, INC.","6001 SOUTHPORT DRIVE",,"BETHESDA","MD","20814-1847"
"1ST. SECURITY MORTGAGE, INC. D/B/A FEDER","6901 ROCKLEDGE DR STE 710",,"BETHESDA","MD","20817"
"2 OCEANS ENTERPRISES LLC","19200-E CHENNAULT WAY",,"GAITHERSBURG","MD","20879"
"2 RESEARCH PLACE, LLC","2 RESEARCH PLACE","STE 100","ROCKVILLE","MD","20850"
"20 SUMMIT AVE, LLC","20 S SUMMIT AVE",,"GAITHERSBURG","MD","20877-2036"
"20-20 SERVICES LLC","8 ORCHARD WAY S",,"ROCKVILLE","MD","20854-6130"
"20/20 GENESYSTEMS, INC.","SUITE 100","9430 KEY WEST AVENUE","ROCKVILLE","MD","20850"
"20/20 VISION, LLC","17211 SNOW GOOSE COURT",,"GERMANTOWN","MD","20874"
"2000 OFFICE PARTNERS, LLC","2000 TOWER OAKS BLVD    8TH FL",,"ROCKVILLE","MD","20852-4284"
"2000 TOWER OAKS BOULEVARD, LLC","FLOOR 9","2000 TOWER OAKS BOULEVARD","ROCKVILLE","MD","20852-4282"
"2015 EAST WEST HIGHWAY OPERATIONS LLC","101 EAST STATE STREET",,"KENNETT SQUARE","PA","19348"
"202 PARTNERS LLC","12007 GALENA ROAD",,"ROCKVILLE","MD","20852"
"2020 COMPANY, LLC","3130 FAIRVIEW PARK DR","STE 800","FALLS CHURCH","VA","22042"
"2020 CREATIVE SOLUTIONS, LLC","1804 CARTERS GROVE DRIVE",,"SILVER SPRING","MD","20904"
"2020 INVESTMENT GROUP, INC.","3001 MEDWAY ST",,"SILVER SPRING","MD","20902"
"2040 DIGITAL LLC","11619 HITCHING POST LANE",,"NORTH BETHESDA","MD","20852-4403"
"210 NORTH ADAMS LLC.","9 ENID COURT",,"POTOMAC","MD","20854"
"21000 FREDERICK ROAD MILESTONE SHELL, LL","PETROLEUM MARKETING GROUP INC","2359 RESEARCH COURT","WOOODBRIDGE","MD","22192"
"2101 FAIRLAND ROAD OPERATIONS LLC","101 EAST STATE STREET",,"KENNETT SQUARE","PA","19348"
"214 W. MONTGOMERY L.L.C.","214 W. MONTGOMERY AVE.",,"ROCKVILLE","MD","20850"
"220 TO GO, INC.","5465 RANDOLPH ROAD",,"ROCKVILLE","MD","20852"
"2201 UNIVERSITY LLC","20514 TEHRANI LANE",,"HAGERSTOWN","MD","21742"
"23418 RIDGE ROAD, LLC","2700 LOCH RAVEN RD",,"BALTIMORE","MD","21218-4729"
"24/7 LOCKSMITH SERVICES LLC","5270 FISHERS LANE, APT 104",,"ROCKVILLE","MD","20852"
"2401 BLUERIDGE, LLC","2401 BLUERIDGE AVE",,"WHEATON","MD","20902"
"2405 PRICE, LLC","3101 MOORE LN",,"KENSINGTON","MD","20895-2200"
"24136 DOREEN DRIVE, LLC","5743 DETRICK ROAD",,"MT. AIRY","MD","21771"
"2426 LINDEN LANE, L.L.C.","7101 WISCONSIN AVE., #1203",,"BETHESDA","MD","20814"
"26 HOLLY LEAF, LLC","1 RESEARCH COURT,SUITE 101",,"ROCKVILLE","MD","20850"
"26TH LETTER LLC","637 CHESTNUT HILL MEWS",,"GAITHERSBURG","MD","20878"
"270 VENDING INC","19922 SUGAR NOTCH CIRCLE",,"GAITHERSBURG","MD","20886"
"2700 BARKER STREET LLC","400 RELLA BLVD","STE 200","MONTEBELLO","NY","10901"
"2C INCORPORATED","7 TANAGER CT",,"POTOMAC","MD","20854-6314"
"2FRIENDS LLC","4611 SANGAMORE ROAD, SUITE N",,"BETHESDA","MD","20816"
"2ND LOGIC, LLC","10405 OVERGATE PLACE",,"POTOMAC","MD","20854"
"2SAND.COM, LLC","5237 RIVER RD #238",,"BETHESDA","MD","20816"
"3 BROWN BOYS GRANOLA LLC","20332 PLEASANT RIDGE DRIVE","20332 PLEASANT RIDGE DRIVE","GAITHERSBURG","MD","20886"
"3 PENNY FILMS, LLC","5602 OVERLEA RD",,"BETHESDA","MD","20816-1921"
"3 SQUARED ENTERPRISES, INC.","451 HUNGERFORD DR","STE. 735","ROCKVILLE","MD","20850"
"3 STEF CORPORATION","5151 RIVER RD",,"BETHESDA","MD","20816-1517"
"3 TERRITORY SOLUTIONS, LLC","720 GATESTONE ST.",,"GAITHERSBURG","MD","20878"
"30 POINT STRATEGIES, LLC","7315 WISCONSIN AV","STE 606E","BETHESDA","MD","20814"
"307 PARKVIEW LLC","PO BOX 61030",,"POTOMAC","MD","20859-1030"
"311 DAWSON AVENUE, INC.","9000 COLLESVILLE ROAD",,"SILVER SPRING","MD","20910"
"3124 ENTERPRISES, INC.","8402 CONNECTICUT AVE",,"CHEVY CHASE","MD","20815-5826"
"32168, INC.","4933 BETHESDA AVE.",,"BETHESDA","MD","20814"
"3227 BEL PRE ROAD OPERATIONS LLC","101 E STATE ST",,"KENNETT SQUARE","PA","19348-3109"
"3301 DAMASCUS ROAD, LLC","16121 BATSON ROAD",,"SPENCERVILLE","MD","20868"
"333 MAIN STREET, LLC","333 MAIN STREET",,"GAITHERSBURG","MD","20878"
"3346 HICKORY AVENUE, LLC","8328 FENWAY ROAD",,"BETHESDA","MD","20817"
"355 BARBERSHOP & SPA, LLC","815 HUNGERFORD DR",,"ROCKVILLE","MD","20850-1727"
"357 PLUMBING, LLC","12261 ELM FOREST CT","UNITE E","CLARKSBURG","MD","20871"
"360DEGREEVIEW, LLC","8508 BRADMOOR DRIVE",,"BETHESDA","MD","20817-3810"
"3801 SANDY SPRING ROAD L.L.L.P.","3801 SANDY SPRING RD",,"BURTONSVILLE","MD","20866-1154"
"3905 BLACKTHORN STREET, LLC","8750 BROOKVILLE RD",,"SILVER SPRING","MD","20910-1850"
"3CCL, LLC","595 HUNGERFORD DR",,"ROCKVILLE","MD","20855"
"3CLOGIC, INC.","9201 CORPORATE BLVD   STE 470",,"ROCKVILLE","MD","20850"
"3D CONSULTING SERVICES, INC.","8406 SAINT REGIS WAY",,"MONTGOMERY VILLAGE","MD","20886"
"3D ORAL & MAXILLOFACIAL IMAGING CENTER,","11125 ROCKVILLE PIKE",,"NORTH BETHESDA","MD","20852-3142"
"3D SCAPES, LLC","19611 HOOVER FARM DRIVE",,"LAYTONSVILE","MD","20882"
"3D STRUCTURAL ENGINEERS, INC.","4903 AUBURN AVE",,"BETHESDA","MD","20814-2601"
"3E COMPANY ENVIRONMENTAL ECOLOGICAL AND","545 WASHINGTON BLVD",,"JERSEY CITY","NJ","07310"
"3E GLOBAL KONSULTING, LLC","712 CLOVERLY STREET",,"SILVER SPRING","MD","20905"
"3E TECHNOLOGIES INTERNATIONAL, INC.","9715 KEY WEST AVE",,"ROCKVILLE","MD","20850-3900"
"3ELEMENTS COUNSELING, LLC","SUITE 110","10410 KENSINGTON PKWY","KENSINGTON","MD","20895-2943"
"3G ARCHITECTS, LLC","13100 FOXHALL DR",,"SILVER SPRING","MD","20906-5303"
"3GEM CONSULTING, LLC","2130 ROSE THEATRE CIRCLE",,"OLNEY","MD","20832"
"3GREENMOMS LLC","6917 ARLINGTON ROAD",,"BETHESDA","MD","20814"
"3H BROTHERS, INC.","7006 CARROLL AVE",,"TAKOMA PARK","MD","20912-4436"
"3I DIAGNOSTICS, INC.","V5","20271 GOLDENROD LANE","GERMANTOWN","MD","20876"
"3LINKS TECHNOLOGIES, INC.","8701 GEORGIA AVE STE 705",,"SILVER SPRING","MD","20910-3713"
"3M COMPANY","P.O.BOX 33441",,"SAINT PAUL","MN","55133-3441"
"3RM, LLC","13625 NIGHT SKY DRIVE",,"SILVER SPRING","MD","20906"
"3S HEALTH LLC","9613 BELLEVUE DRIVE",,"BETHESDA","MD","20814"
"3SI SECURITY SYSTEMS, INC.","101 LINDENWOOD DR STE 200",,"MALVERN","PA","19355"
"3U CORPORATION","13406 KINGSVIEW VILLAGE AVE., #D4",,"GERMANTOWN","MD","20874"
"3Y LLC","6 CANDLELIGHT CT",,"POTOMAC","MD","20854"
"4 DIMENSIONAL REAL ESTATE SOLUTIONS, LLC","102 LITTLE QUARRY ROAD",,"GAITHERSBURG","MD","20878"
"4 STAR TENNIS ACADEMY AT BULLIS LLC","7917 SANDALFOOT DRIVE",,"POTOMAC","MD","20854"
"4&CO. LLC","12154 DARNESTOWN ROAD","SUITE 621","GAITHERSBURG","MD","20878"
"400 PROFESSIONAL LLC","400 PROFESSIONAL DRIVE, SUITE 400",,"GAITHERSBURG","MD","20879"
"410 LABS, INC.","6912 NEVIS RD",,"BETHESDA","MD","20817"
"42 WELLNESS LLC","PO BOX 71660",,"RICHMOND","VA","23255"
"4328 MONTGOMERY LIMITED LIABILITY COMPAN","4328 MONTGOMERY AVENUE",,"BETHESDA","MD","20814-4402"
"4339 MONTGOMERY AVENUE, LLC","8184 LARK BROWN ROAD",,"ELKRIDGE","MD","21075"
"4401 EAST WEST, L.L.C.","4520 EAST WEST HWY","SUITE 200","BETHESDA","MD","20814"
"442ND RCT, INC.","3022 KRAMER ST",,"WHEATON","MD","20902-2211"
"4500 EAST WEST HIGHWAY LLC","SUITE 650","1615 L STREET NW","WASHINGTON","DC","20036"
"4504 WALSH STREET, L.L.C.","2401 RESEARCH BLVD",,"ROCKVILLE","MD","20850-3215"
"451 RESEARCH, LLC","1411 BROADWAY 32ND FLOOR",,"NEW YORK","NY","10018"
"4630 MONTGOMERY AVENUE, LLC","4630 MONTGOMERY AVE SUITE 550",,"BETHESDA","MD","20814"
"4806 RUGBY AVENUE L.L.C.","4806 RUGBY AVENUE",,"BETHESDA","MD","20814"
"4808 MOORLAND (UNIT 109) LLC","4808 MOORLAND LN UNIT 109",,"BETHESDA","MD","20814"
"4900 FAIRMONT RESIDENTIAL, L.L.C.","SUITE 400","2711 CENTERVILLE ROAD","WILMINGTON","DE","19808"
"4913 HAMPDEN LANE LIMITED PARTNERSHIP","10400 DETRICK AVE",,"KENSINGTON","MD","20895-2440"
"4931 FAIRMONT LLC","5101 WISCONSIN AVENUE NW","5TH FLOOR","WASHINGTON","DC","20016"
"495 MOVERS, INC.","640 LOFTRAND LANE B",,"ROCKVILLE","MD","20850"
"4A PAINTING AND HOME IMPROVEMENT INC","932 SCHINDLER DR",,"SILVER SPRING","MD","20903"
"4HIM-HEREYNES LLC","2053 CROSSING GATE WAY",,"VIENNA","VA","22181"
"4X4 AUTO GROUP INC","8153 SILVERBERRY WAY",,"VIENNA","VA","22182"
"5 TWELVE, LLC","42162 GISELLE CT",,"CHANTILLY","VA","20152"
"5-WOOD, LLC","5 WOOD LLC","2120 BULLS SAWMILL","FREELAND","MD","21053"
"5.11, INC.","1360 REYNOLDS AVE","STE 101","IRVINE","CA","92614"
"50+ FITNESS FOR LIFE LLC","19212 MUNGER FARM ROAD",,"POOLESVILLE","MD","20837"
"501C3 TUNEUP, INC.","9219 MINTWOOD ST",,"SILVER SPRING","MD","20901-3520"
"5132 WESTPATH, LLC","5132 WEST PATH WAY",,"BETHESDA","MD","20816-2318"
"5151 RIVER LLC","5151 RIVER ROAD",,"BETHESDA","MD","20816"
"520 ICE CREAM OF BETHESDA, LLC","4941 ELM STREET",,"BETHESDA","MD","20814"
"535 AUTOMOTIVE CENTER, LLC","535-B SOUTHLAWN LANE",,"ROCKVILLE","MD","20850"
"5400 GROSVENOR LLC","4800 HAMPDEN LN","SUITE 300","BETHESDA","MD","20814"
"5520 WISCONSIN, LLC","SUITE 2500","ONE CALIFORNIA STREET","SAN FRANCISCO","CA","94111"
"555 THAYER AVENUE ASSOCIATES LIMITED PAR","10TH FLOOR","4800 MONTGOMERY LANE","BETHESDA","MD","20814"
"58UNITY LLC","1368 WOODSIDE DRIVE",,"MC LEAN","VA","22102"
"5AM SOLUTIONS, INC.","1700 ROCKVILLE PIKE",,"ROCKVILLE","MD","20852-1631"
"60I MEDIA PRODUCTIONS, LLC","725 HARRINGTON ROAD",,"ROCKVILLE","MD","20852"
"61 VINEYARD LLC","28639 KEMPTOWN ROAD",,"DAMASCUS","MD","20872"
"6110 TEMPLE STREET, LLC","911 SENECA RD",,"GRAET FALLS","VA","22066"
"6432 83RD PLACE, LLC","1131 PARRISH DR",,"ROCKVILLE","MD","20851"
"650 LIMITED PARTNERSHIP","631 CROCUS DRIVE",,"ROCKVILLE","MD","20850"
"6809 SUPERWASH INC","6809 NEW HAMPSHIRE AVE",,"TAKOMA PARK","MD","20912"
"6815 OLNEY-LAYTONSVILLE ROAD, LLC","PO BOX 5126","6815 OLNEY-LAYTONSVILLE ROAD","LAYTONSVILLE","MD","20882"
"7 RIVER SYSTEMS, LLC","9741 DUFFER WAY",,"MONTGOMERY VILLAGE","MD","20886"
"7-ELEVEN, INC.","P  O  BOX 4900 #711",,"SCOTTSDALE","AZ","85261-4900"
"7-FAIRLAND, INC.","13318 OLD COLUMBIA PIKE",,"SILVER SPRING","MD","20904-5232"
"7005 SOLAR NAILS & SPA INC.","7005 CARROLL AVE",,"TAKOMA PARK","MD","20912-4429"
"701 RUSSELL 20877 INC.","#TK01K","701 RUSSELL AVE","GAITHERSBURG","MD","20877-2631"
"7060 CARROLL AVENUE, LLC","7060 CARROLL AVE LLC","7060 CARROLL AVE","TAKOMA PARK","MD","20912"
"707 ENTERTAINMENT GROUP, LLC","707 CROOKED CREEK DR",,"ROCKVILLE","MD","20850"
"707 MONROE, LLC","51 MONROE ST",,"ROCKVILLE","MD","20850-2421"
"71 INC.","118 DERWOOD CIR",,"ROCKVILLE","MD","20850-1264"
"7105 CARROLL RENOVATION LLC","506 TULIP AVENUE",,"TAKOMA PARK","MD","20912"
"7220 WISCONSIN AVENUE LLC","4520 EAST WEST HWY","STE 200","BETHESDA","MD","20814-3382"
"7272 CORK, LLC","6900 WISCONSIN AVENUE","604","CHEVY CHASE","MD","20815"
"730 LEASING INDUSTRIES LLC","3470 OLNEY-LAYTONSVILLE RD","#134","OLNEY","MD","20832"
"7501 WISCONSIN LLC","7501 WISCONSIN AVENUE","SUITE 1500 E","BETHESDA","MD","20814"
"7525 CARROLL AVENUE OPERATIONS LLC","101 E STATE ST",,"KENNETT SQUARE","PA","19348-3109"
"7550IAD LLC","601 13TH STREET NW STE 300N",,"WASHINGTON","DC","20005"
"7606 YORKSHIRE INVESTMENTS, LLC","7606 BOXBERRY TER",,"GAITHERSBURG","MD","20879-4578"
"7700 OGR FINANCIAL, LLC","PLAZA LEVEL","7610 OLD GEORGETOWN ROAD","BETHESDA","MD","20814"
"777 MILLWORK & CABINETS LLC","12520 LITTLETON ST",,"SILVER SPRING","MD","20906"
"7840 GENERAL PARTNERSHIP","#C","7840 CESSNA AVE","GAITHERSBURG","MD","20879-4159"
"786 PROPERTY MANAGEMENT, INC","7361 CALHOUN PLACE","SUITE 565","ROCKVILLE","MD","20855"
"7TH GENERATION FOUNDATION, INCORPORATED","12640 ROLLING ROAD","DREAM CATCHER MEADOWS","POTOMAC","MD","20854"
"804 DIAMOND AVENUE, L.L.C.","804 DIAMOND AVE STE 300",,"GAITHERSBURG","MD","20878"
"8121 PINEY BRANCH, LLC","8121A PINEY BRANCH RD",,"SILVER SPRING","MD","20910-4698"
"8131 GEORGIA AVENUE, LLC","7621 RICKENBACKER DRIVE","STE 700","GAITHERSBURG","MD","20879"
"813GIST LLC","815 GIST AVE",,"SILVER SPRING","MD","20910"
"8204 ASSOCIATES LIMITED LIABILITY COMPAN","8204 FENTON ST",,"SILVER SPRING","MD","20910-4502"
"8215 FENTON STREET, L.L.C.","SUITE 300","801 WAYNE AVE","SILVER SPRING","MD","20910-4450"
"8307 ROANOKE AVE LLC","7310 MAPLE AVE.",,"CHEVY CHASE","MD","20815"
"836 BONIFANT, LLC","836 BONIFANT ST.",,"SILVER SPRING","MD","20910"
"843C AND 843D QUINCE ORCHARD BLVD, LLC","843C QUINCE ORCHARD BLVD",,"GAITHERSBURG","MD","20878"
"8515 GEORGIA AVENUE ASSOCIATES L.L.C.","12435 PARK POTOMAC AVENUE","SUITE 200","POTOMAC","MD","20854"
"8517 OAKMONT, LLC","8517 ATLAS DR",,"GAITHERSBURG","MD","20877-4135"
"852 PHOTOGRAPHY LLC","12708 PIEDMONT TRAIL RD.",,"CLARKSBURG","MD","20871"
"8627 FLOWER AVENUE, LLC","9 LEE AVENUE",,"TAKOMA PRAK","MD","20912-4514"
"8701 RAM, INC.","8701 RAMSEY AVENUE",,"SILVER SPRING","MD","20910"
"8711 APARTMENTS OWNER LLC","STE 400","6000 EXECUTIVE BOULEVARD","NORTH BETHESDA","MD","20852-3857"
"8900 HOLLY LEAF, LLC","1 RESEARCH COURT","SUITE 101","ROCKVILLE","MD","20850"
"8937 SHADY GROVE LLC","8937 SHADY GROVE COURT UNIT 26A",,"GAITHERSBURG","MD","20877"
"9-11 SECURITY & INVESTIGATION SERVICES,","#41","13817 CASTLE BOULEVARD","SILVER SPRING","MD","20904"
"917, LLC","1610 WEST MORLAND ST",,"MCLEAN","VA","22101"
"93 WAVES, LLC","#G","15307 GABLE RIDGE COURT","ROCKVILLE","MD","20850"
"931 ELLSWORTH RESTAURANT LLC","931 ELLSWORTH DRIVE",,"SILVER SPRING","MD","20910"
"9701 MEDICAL CENTER DRIVE OPERATIONS LLC","101 EAST STATE STREET",,"KENNETT SQUARE","PA","19348"
"9747 AVENEL FARM DRIVE, LLC","1 RESEARCH COURT","SUITE 101","ROCKVILLE","MD","20850"
"9811 MAIN ST DAMASCUS 20872 INC","39-40 30TH STREET",,"LONG ISLAND CITY","NY","11101"
"A & A HEARING GROUP, LLC","19110 MONTGOMERY VILLAGE AVE",,"MONTGOMERY","MD","20886"
"A & A LANDSCAPE & HARDSCAPE, LLC","10125 COLESVILLE RD","SUITE 166","SILVER SPRING","MD","20901"
"A & A LANDSCAPING INC","16101 ASA DR.",,"SPENCERVILLE","MD","20868"
"A & A RESTORATION COMPANIES, INC.","13601 FAIRRIDGE DR",,"SILVER SPRING","MD","20904"
"A & A RESTORATION SERVICES, INC.","13601 FAIRRIDGE DR",,"SILVER SPRING","MD","20904"
"A & A TACTICAL, LLC","13648 SPINNING WHEEL DRIVE",,"GERMANTOWN","MD","20874"
"A & ANDREAS CONSTRUCTION, INCORPORATED","3513 PERRY AVE",,"KENSINGTON","MD","20895-2115"
"A & B AUTOMOTIVE CARE INC.","8220 GEORGIA AVE.",,"SILVER SPRING","MD","20910"
"A & C AUTO SALES LLC","15520 GEORGIA AVE",,"ROCKVILLE","MD","20853-1201"
"A & C FINE DINNING INC.","2646 UNIVERSITY BLVD",,"WHEATON","MD","20902"
"A & D CLEANING SVC, INC.","10904 HORDE STREET",,"SILVER SPRING","MD","20902"
"A & D ELECTRICAL SERVICES LLC","2016 FOREST HILL DR",,"SILVER SPRING","MD","20903"
"A & D TAX SERVICES, LLC","1 RESEARCH CT.","SUITE 450","ROCKVILLE","MD","20850"
"A & G AUTOMOTIVE, LLC","11750 PARKLAWN DR",,"ROCKVILLE","MD","20852-2533"
"A & G MASONRY, LLC","3809 BERLEIGH HILL COURT",,"BURTONSVILLE","MD","20866"
"A & H SEAFOOD MARKET PARTNERS, LLC","SUITE B","4215 HOWARD AVENUE","KENSINGTON","MD","20895"
"A & I ENTERPRISE VI, INC.","10755 COLESVILLE RD",,"SILVER SPRING","MD","20901"
"A & IK, INC.","16604 CUTLASS DR",,"ROCKVILLE","MD","20853-1334"
"A & J CORPORATION","525 DALE DR",,"SILVER SPRING","MD","20910-4210"
"A & J INVSTMNTS, LLC","10704 NORMANDIE FARM DR",,"POTOMAC","MD","20854-1800"
"A & J PAINTING CONTRACTORS, LLC","22401 FREDERICK RD",,"CLARKSBURG","MD","20871"
"A & J RESTAURANT CORPORATION","1319-C ROCKVILLE PIKE",,"ROCKVILLE","MD","20852-1437"
"A & K NATURAL WELLNESS CENTER LLC","3 NARROWLEAF CT",,"GAITHERSBURG","MD","20878"
"A & L DONUTS, INC.","13810 CONNECTICUT AVE",,"SILVER SPRING","MD","20906"
"A & M BALTIMORE AUCTION, LLC","12305 BRAXFIELD CT","#10","ROCKVILLE","MD","20852"
"A & M CLEANING SVC, INC.","772 QUINCE ORCHARD BLVD",,"GAITHERSBURG","MD","20878-1520"
"A & M CORRADO, LLC","7017 OLD CABIN LANE",,"ROCKVILLE","MD","20852"
"A & M HAIR ONE, INC.","20 MONTGOMERY VILLAGE AVE","STE A","GAITHERSBURG","MD","20879"
"A & M IV CORPORATION","5526 NORBECK RD",,"ROCKVILLE","MD","20853-2441"
"A & M REPAIR & TOWING, INC.","6 BRYANTS NURSERY ROAD",,"SILVER SPRING","MD","20905"
"A & N SERVICES INC.","2700 BRIGGS RD",,"SILVER SPRING","MD","20906-3721"
"A & P LANDSCAPING SERVICES LLC","3111 WISPERING PINES","APT-11","SILVER SPRING","MD","20906"
"A & P PLUMBING AND HEATING, INC.","2600 FOREST GLEN RD",,"SILVER SPRING","MD","20910"
"A & R DECORATING GROUP INC.","APT #41","3512 PEAR TREE CT","SILVER SPRING","MD","20906"
"A & S ENTERPRISES LLC","5516 DOWGATE COURT #111",,"ROCKVILLE","MD","20851"
"A & S INC.","16146 EAGLE BEAK CIRCLE",,"WOODBRIDGE","VA","22191"
"A & S REAL ESTATE GROUP LLC","20835 AMBER HILL COURT",,"GERMANTOWN","MD","20879"
"A & S REALTY ASSOCIATES, INC.","STE 300","12810 WISTERIA DR","GERMANTOWN","MD","20874-2657"
"A & T AUTOMOTIVE CARE, LLC","8129 GEORGIA AVE.",,"SILVER SPRING","MD","20910"
"A & T SYSTEMS, INC.","12200 TECH RD","#200","SILVER SPRING","MD","20904"
"A & Z CONTRACTORS LLC","11235 OAK LEAF DR",,"SILVER","MD","20901-2090"
"A 1 A MEDICAL SUPPLY, INC.","101 CHESTNUT ST","STE 120","GAITHERSBURG","MD","20877"
"A A ROOTER LLC","2323 TWIN VALLEY LANE",,"SILVER SPRING","MD","20906"
"A AAAABILITY JAMES M. SCHUETTE, P.C.","504 HENDRIX AVENUE",,"GAITHERSBURG","MD","20878"
"A ACE BUS CHARTER, INC.","13246 MEANDER COVE DRIVE",,"GERMANTOWN","MD","20874"
"A AND G AUTO SERVICE, INC.","7406 WESTMORE RD #A",,"ROCKVILLE","MD","20850-5215"
"A AND I HOME IMPROVEMENT INC","1300 CAVENDISH ROAD",,"SILVER SPRING","MD","20905"
"A BIT BETTER FARM, L.L.C.","3400 DAMASCUS ROAD",,"BROOKEVILLE","MD","20833"
"A BRIGHTER IDEA, INC.","1306 CLAGETT DR",,"ROCKVILLE","MD","20851-1701"
"A C GRACE, LLC","3303 ROLLING RD",,"CHEVY CHASE","MD","20815-4033"
"A CAT CLINIC LLC","PO BOX 330",,"GERMANTOWN","MD","20875"
"A CAT PRACTICE, INC.","4173 COQUINA DR",,"JACKSONVILLE","FL","32250-2101"
"A CENTER FOR ACUPUNCTURE & HERBS, INC.","751 ROCKVILLE PIKE STE 6A",,"ROCKVILLE","MD","20852"
"A COMPANY OF ONE LLC","34 RITCHFIELD CT.",,"ROCKVILLE","MD","20850"
"A COOPERATIVE BODY, LLC","552 LONGHORN CRES",,"ROCKVILLE","MD","20850"
"A GARCIA'S GENERAL CONSTRUCTION INC.","11829 ROCKING HORSE RD.",,"ROCKVILLE","MD","20852"
"A GREAT MEETING, INC.","P.O. BOX 12283",,"SILVER SPRING","MD","20906"
"A GRIFFIN EVENTS, LLC","1433 FALLSMEAD WAY",,"ROCKVILLE","MD","20854"
"A HEALING JOURNEY, LLC","3204 TOWER OAKS BLVD, SUITE 175",,"ROCKVILLE","MD","20852"
"A HEALTHY HOME, INCORPORATED","62 CARONA COURT",,"SILVER SPRING","MD","20905"
"A HOUSER LLC","5003 NEWPORT AVE",,"BETHESDA","MD","20816"
"A LA MODE LLC","11200 WILLOWBROOK DRIVE",,"POTOMAC","MD","20854"
"A LOCKSMITH LLC","1701 EVELYN DRIVE",,"ROCKVILLE","MD","20852"
"A LOOK OF LOVE MINISTRIES, CORP.","4408 INDEPENDENCE STREET",,"ROCKVILLE","MD","20853"
"A MAINTENANCE SUPPLY COMPANY, INC.","27505 RIDGE ROAD",,"DAMASCUS","MD","20872"
"A MARK ST. GEORGE, LLC","10128 CEDAR LN",,"KENSINGTON","MD","20895-3842"
"A N J CONSTRUCTION INC.","7208 TITONKA WAY",,"DERWOOD","MD","20855-2663"
"A ONE CASH INC","3810 AVONLEA WAY",,"CATHARPIN","VA","20143"
"A PLUS ADULT MEDICAL DAY CARE CENTER COR","50 W GUDE DR",,"ROCKVILLE","MD","20850"
"A PLUS AUTOMOTIVE SERVICES, INC.","15563 FREDERICK RD # 0",,"ROCKVILLE","MD","20855-2116"
"A PLUS CONTRACTORS INC.","P O BOX 9758",,"SILVER SPRING","MD","20916"
"A PLUS MEDICAL P.C.","STE. 330","7676 NEW HAMPSHIRE AVE.","TAKOMA PARK","MD","20912"
"A PLUS, INC.","38 ESWORTHY TER",,"N POTOMAC","MD","20878-8724"
"A PRIORI ANALYTICS GROUP LLC","STE 413","38 MARYLAND","ROCKVILLE","MD","20850-2424"
"A QUIET JOURNEY COUNSELING, LLC","1213 FOREST GLEN ROAD",,"SILVER SPRING","MD","20901"
"A S & P LLC","23313 WOODFIELD RD",,"GAITHERSBURG","MD","20882-3013"
"A SANTOS CARPENTRY INC","904 NORA DRIVE",,"SILVER SPRING","MD","20904"
"A SIGNSTORE, INC.","15833 REDLAND RD",,"ROCKVILLE","MD","20855-2206"
"A SQUAD ENTERTAINMENT, LLC","#304","18707 SPARKLING WATER DRIVE","GERMANTOWN","MD","20874"
"A T L A N T I C  G E M S,  I N C.","8609 SECOND AVENUE  SUITE 103B",,"SILVER SPRING","MD","20910"
"A TO Z DESIGN, INC.","8120 WOODMONT AVE    STE 400",,"BETHESDA","MD","20814-2743"
"A TO Z FUN CARE LLC","8916 VICTORY LANE",,"POTOMAC","MD","20854"
"A TO Z HOME REPAIR SERVICE, INC.","313 MAIN STREET",,"GAITHERSBURG","MD","20878"
"A WEINSTEIN, INC.","3 WINIFRED CT",,"BURTONSVILLE","MD","20866"
"A&B LUCK PLUMBING & HEATING, INC.","10001E LEWIS DR",,"DAMASCUS","MD","20872"
"A&C INTERNATIONAL IMPORT AND EXPORT, LLC","1262 CARRINGTON HILL DR",,"GAITHERSBURG","MD","20878"
"A&C PLOWING, LLC","25409 JARL DRIVE",,"GAITHERSBURG","MD","20882"
"A&C QUALITY SERVICES LLC","15101 VICARS WAY",,"DARNESTOWN","MD","20877"
"A&D LANDSCAPING AND CONSTRUCTION SERVICE","14601 LAYHILL ROAD",,"SILVER SPRING","MD","20906"
"A&E ENTERPRISES II, INC.","18403 WOODFIELD ROAD","SUITE A","GAITHERSBURG","MD","20879"
"A&F ENGINEERS INC.","1112 16TH STREET NW","SUITE 920","WASHINGTON","DC","20036"
"A&G GROUP, LLC","10215 FERNWOOOD ROAD SUITE 630",,"BETHESDA","MD","20817"
"A&L PIZZA INC.","12949 WISTERIA DR",,"GERMANTOWN","MD","20874-2620"
"A&M HANDYMAN SERVICES, LLC","2613 ELMONT STREET",,"SILVER SPRING","MD","20902"
"A&S ELECTRIC, LLC","12913 MORAY ROAD",,"SILVER SPRING","MD","20906-4243"
"A'GACI, LLC","P.O.BOX 80615",,"INDIANAPOLIS","IN","46280"
"A+ DECK RESTORATION, INC.","9254 BROWN CHURCH RD",,"MOUNT AIRY","MD","21771-4419"
"A+ GOVERNMENT SOLUTIONS, LLC","2600 JOHN SAXON BLVD.",,"NORMAN","OK","73071"
"A-1 ACTION NURSING CARE, INC.","SWANEE KLINE","3508 GREENCASTLE ROAD","BURTONSVILLE","MD","20866-1940"
"A-1 DENTAL LAB, INC.","912 SILVER SPRING AVE",,"SILVER SPRING","MD","20910-4618"
"A-1 IMPORTS, INC.","15605 FREDERICK RD",,"ROCKVILLE","MD","20855-2109"
"A-1 INSURANCE LLC","933 RUSSELL AVE., STE.C",,"GAITHERSBURG","MD","20879"
"A-1 SECURITY, INC.","P O BOX 12035",,"SILVER SPRING","MD","20908"
"A-1 TV SALES & SERVICE, LLC","2141 INDUSTRIAL PKWY, STE 102",,"SILVER SPRING","MD","20904-1988"
"A-A HEATING. A/C & REFRIGERATION, INC.","10505 GEORGIA AVE",,"SILVER SPRING","MD","20902-4110"
"A-DEC, INC.","2601 CRESTVIEW DR",,"NEWBERG","OR","97132-9528"
"A-GO LIMITED PARTNERSHIP","10500 DARNESTOWN RD",,"ROCKVILLE","MD","20850"
"A-MAJOR CONSTRUCTION, LLP","601 NORTHWOOD TERRACE",,"SILVER SPRING","MD","20902"
"A-ONE GROUPS LTD","10442 AUTO PARK AVE",,"BETHESDA","MD","20817-1006"
"A-PLUS GROUPS LTD","10442 AUTO PARK AVE",,"BETHESDA","MD","20817"
"A-SERVICE COMPANY, INC.","419 EAST GUIDE DRIVE",,"ROCKVILLE","MD","20850-1270"
"A-TBC BETHESDA OWNER, L.L.C.","3299 K STREET NE,SUITE 700",,"WASHINGTON","DC","20007"
"A-TECH NORTH AMERICA, INC.","8539 ZIGGY LANE",,"GAITHERSBURG","MD","20850"
"A-THRU-Z INC.","8309 OLD SEVEN LOCKS RD",,"BETHESDA","MD","20817-2009"
"A-Z MORTGAGE INC.","751 ROCKVILLE PIKE 17B-18B",,"ROCKVILLE","MD","20852"
"A. & H. D. ENTERPRISES, INC.","327","4701 WILLARD AVE","CHEVY CHASE","MD","20815-4611"
"A. A. ELECTRIC CO., INC.","PO BOX 445",,"DAMASCUS","MD","20872"
"A. ALIBAKHSHI & ASSOCIATES, P.C.","19512 AMARANTH DRIVE",,"GERMANTOWN","MD","20874-1212"
"A. B. E. CORPORATION","12250 WILKINS AVENUE",,"ROCKVILLE","MD","20852"
"A. B. VEIRS & SONS, INC.","7411 LINDBERGH DR STE L",,"GAITHERSBURG","MD","20879-5416"
"A. GONSALVES ASSOCIATES, INC.","21516 NEW HAMPSHIRE AVENUE",,"BROOKEVILLE","MD","20833"
"A. JERRY FRIEDMAN, M.D., P.A.","15005 SHADY GROVE ROAD",,"ROCKVILLE","MD","20850"
"A. K. BURTON, P.C.","9501 ANCHORAGE PLACE",,"BETHESDA","MD","20817"
"A. M. FABRICATORS WHOLESALE DISTRIBUTORS","7810 PEARSON KNOLL PLACE",,"POTOMAC","MD","20854"
"A. MARQUEZ TRUCKING, INC.","3915 ELBY STREET",,"SILVER SPRING","MD","20906"
"A. MATHIVANNAN, P.C.","7511 LEESBURG PL",,"BETHESDA","MD","20817-5608"
"A. MORTON THOMAS AND ASSOCIATES, INC.","800 KING FARM BLVD FOURTH FLOOR",,"ROCKVILLE","MD","20850"
"A. R. BRUCE AND COMPANY, INC.","STE 320","12501 PROSPERITY DRIVE","SILVER SPRING","MD","20904"
"A. R. DAVE, P. A.","107 ALDERWOOD DR.",,"GAITHERSBURG","MD","20878-2681"
"A. ROY ROSENTHAL, M.D.","10313 GEORGIA AVE STE 107",,"SILVER SPRING","MD","20902"
"A. SALAS CONSTRUCTION SERV. LLC","19515 FREDERICK RD #168",,"GERMANTOWN","MD","20876"
"A. SMITH MARKETING LLC","9630 EAGLE RIDGE DRIVE",,"BETHESDA","MD","20817"
"A. TASKER INCORPORATED","615 S. STONESTREET AVENUE",,"ROCKVILLE,","MD","20850"
"A.A.A MOTOR, INC.","20125 GREEN RUN CT",,"GAITHERSBURG","MD","20879-1623"
"A.A.M., INC.","120 N FREDERICK AVE",,"GAITHERSBURG","MD","20877-2411"
"A.B.C.TRADE, LLC","7709 WHITE CLIFF TERR",,"DERWOOD","MD","20855"
"A.C. GRILL INC.","293 MUDDY BRANCH ROAD",,"GAITHERSBURG","MD","20878"
"A.C. MOORE INCORPORATED","130 A C MOORE DR",,"BERLIN","NJ","08009-9500"
"A.C. SCUDERI AUTO BODY, INC.","15927 FREDERICK RD",,"ROCKVILLE","MD","20855-2218"
"A.D.H. ENTERPRISES, LLC","32 BRINKWOOD RD",,"BROOKEVILLE","MD","20833-2303"
"A.F.D. GENERAL CONTRACTORS INC","2300 EAST GATE DR",,"SILVER SPRING","MD","20906"
"A.G. FLOORS, INC.","11608 BOILING BROOK PARKWAY",,"ROCVILLLE","MD","20851"
"A.J. LIEBEL LLC","4711 MERCURY DR.",,"ROCKVILLE","MD","20853"
"A.M.J., INC.","1700 ROCKVILLE PIKE STE 400",,"ROCKVILLE","MD","20852"
"A.M.M.M.G.,INC.","8484 GEORGIA AVENUE #110",,"SILVER SPRING","MD","20910"
"A.P. MORTON & COMPANY, LLC","6815 SELKIRK DRIVE",,"BETHESDA","MD","20817"
"A.P. WOODSON COMPANY","8900 CITATION RD",,"BALTIMORE","MD","21221-3103"
"A.P.B, INC.","2401 BLUERIDGE AVE",,"WHEATON","MD","20902"
"A.R. COMMUNICATIONS, INC.","9104 COPENHAVER DRIVE",,"POTOMAC","MD","20854"
"A.R. KRONSTADT REALTY INVESTORS, INC.","5515 SECURITY LANE SUITE 1115",,"ROCKVILLE","MD","20852"
"A.R. ZARGARIAN, INC.","102 CANFIELD HILL DR",,"GAITHERSBURG","MD","20878-5263"
"A.R.T. DESIGN BUILD, INC.","4309 LYNBROOK DR",,"BETHESDA","MD","20814-4641"
"A.R.T. INSTITUTE OF WASHINGTON, INC.","3 REGENT ST STE 301",,"LIVINGSTON","NJ","07039-1638"
"A.S. GAUTAM, INC.","23414 TAILOR SHOP PL",,"CLARKSBURG","MD","20871-4357"
"A.S.O. COMPANY, INC.","19321 JERUSALEM ROAD",,"POOLESVILLE","MD","20837"
"A.W. SPORTS, INC.","14520 WHIRLAWAY LN",,"NORTH POTOMAC","MD","20878-3762"
"A/C - HV4U LLC","16500 RAVEN ROCK DR",,"GAITHERSBURG","MD","20878"
"A/R ELECTRICAL SOLUTIONS, INC.","7636 AIRPARK ROAD",,"GAITHERSBURG","MD","20879"
"A/X CARPENTERS, LLC","4108 WARNER ST",,"KENSINGTON","MD","20895-4056"
"A1 LOCKSMITH DMV, LLC","14115 YORKSHIRE WOOD  DR",,"SILVER SPRING","MD","20906"
"A1 SUPER SERVICES, LLC","11801 ROCKVILLE PIKE","UNIT # 815","ROCKVILLE","MD","20852"
"A2 MANAGEMENT, LLC","11 HESKETH STREET",,"CHEVY CHASE","MD","20815"
"A2F CONSULTING LLC","7220 WISCONSIN AVE STE 210",,"BETHESDA","MD","20814"
"A2O STRATEGIES, LLC","11 WOODMOOR DR",,"SILVER SPRING","MD","20901-2448"
"A3 HOME IMPROVEMENTS, INC.","4401 GLENRIDGE STREET",,"KENSINGTON","MD","20895"
"A3 INSURANCE SERVICES, LLC","4 PROFESSIONAL DR","STE 148","GAITHERSBURG","MD","20879"
"AA ART ASSOCIATES LLC","8923 BROOKVILLE RD",,"SILVER SPRING","MD","20910"
"AA DRIVING SCHOOL INC.","2446 REEDIE DR STE 7",,"WHEATON","MD","20902"
"AA ENTERPRICES, LLC","12908 ELOISE AVE",,"ROCKVILLE","MD","20853"
"AA HOME IMPROVEMENT LLC","18429 CAPE JASMINE WAY",,"GAITHERSBURG","MD","20879"
"AA REFUSE INC.","8001 BEECHCRAFT AVE",,"GAITHERSBURG","MD","20879-5521"
"AAA ATTRIUM CLASSIC ASSISTED LIVING, INC","14920 OLD COLUMBIA PIKE",,"BURTONSVILLE","MD","20866-1610"
"AAA CLUB ALLIANCE INC.","1 RIVER PLACE",,"WILMINGTON","DE","19801"
"AAA PLUS SUPPLY LLC","23209 ARORA HILLS DRIVE",,"CLARKSBURG","MD","20871"
"AAA RESEARCH, LLC","21515 MANOR VIEW CIRCLE",,"GERMANTOWN","MD","20876"
"AAA WARMAN HOME CARE, LLC","604 S FREDERICK AVE",,"GAITHERSBURG","MD","20877-1275"
"AAA WARMCARE OF POTOMAC, INC.","2305 FOLLING CREEK ROAD",,"SILVER SPRING","MD","20904"
"AAANTIQUES, INC","10125 LLOYD RD",,"POTOMAC","MD","20854"
"AAB SMALL ENGINE REPAIR, LLC.","12013 CHEYENNE RD",,"GAITHERSBURG","MD","20878-2011"
"AABHA LLC","11629 DRUMCASTLE TER",,"GERMANTOWN","MD","20876"
"AADJI & MANTEN INTERNATIONAL, LLC","5632 HOGENHILL TERRACE",,"ROCKVILLE","MD","20853-2564"
"AAHANA LLC","19911 AIRCRAFT DRIVE",,"GERMANTOWN","MD","20874"
"AARILY PROPERTIES, LLC","751 ROCKVILLE PIKE    STE 30 B",,"ROCKVILLE","MD","20852"
"AARON A. NICHOLAS, DDS-PA","3905 NATIONAL DR STE 170",,"BURTONSVILLE","MD","20866"
"AARON COHEN PR LLC","107 GRANT AVE",,"TAKOMA PARK","MD","20912-4328"
"AARON LEE STEIN REAL ESTATE SETTLEMENTS,","917 N. RUSSELL AVE.",,"GAITHERSBURG,","MD","20879"
"AARON NAGAR CPA P.C.","152 ROLLINS AVE STE 207",,"ROCKVILLE","MD","20852-4008"
"AARP CORPORATION","TAX DEPT 8TH FLOOR A","601 E STREET NW","WASHINGTON","DC","20049"
"AARP SERVICES INC.","601 E STREET NW","8TH FLOOR  A-8","WASHINGTON","DC","20049"
"AARSAND MANAGEMENT, LLC","11019 MCCORMICK RD","STE 320","HUNT VALLEY","MD","21031"
"AARYAN, INC.","925 EAST UNIVERSITY BLVD",,"SILVER SPRING","MD","20903"
"AASHNIN FOUR INC.","12332 STREAMVALE CIR",,"HERNDON","VA","20170-2514"
"AB & M LLC","18538 WOODFIELD RD",,"GAITHERSBURG","MD","20879-4709"
"AB ALICE LIMITED LIABILITY COMPANY","6701 DEMOCRACY BLVD., SUITE 300",,"BETHESDA","MD","20817"
"AB AND SONS CORPORATION","11530-G ROCKVILLE PIKE",,"ROCKVILLE","MD","20852"
"ABA CONSTRUCTION INC.","7801 NORFOLK AVENUE STE T-ST",,"BETHESDA","MD","20814"
"ABACUS CONSTRUCTION COMPANY, INC.","2217 CHERRY LEAF LANE",,"SILVER SPRING","MD","20906-5735"
"ABACUS REMODELING, INC.","3008 EDGEWOOD ROAD",,"KENSINGTON","MD","20895"
"ABACUS TECHNOLOGY CORPORATION","5404 WISCONSIN AVE SUITE 1100",,"CHEVY CHASE","MD","20815"
"ABARCA, MANUEL","18318 BAILIWICK PL",,"GERMANTOWN","MD","20874-2222"
"ABARIS REALTY, INC.","7811 MONTROSE ROAD","SUITE 110","POTOMAC","MD","20854"
"ABBA UPHOLSTERING FOAM & FUTONS, INC.","1 EAST DIAMOND AVE UNIT B",,"GAITHERSBURG","MD","20877"
"ABBEY'S WORLD TRAVEL LLC.","1607 CRESTLINE RD",,"SILVER SPRING","MD","20904-1431"
"ABBOTT BUILDING SYSTEMS LLC","6720 B ROCKLEDGE DR STE 750",,"BETHESDA","MD","20817"
"ABBOTT SALES, MARKETING & DISTRIBUTION C","100 ABBOTT PARK RD",,"ABBOTT PARK","IL","60064-6057"
"ABBRIMS STAIRLIFTS INC.","16301 SUGARLAND RD",,"BOYDS","MD","20841-9582"
"ABBVIE US LLC","PO BOX 80615",,"INDIANAPOLIS","IN","46280-0615"
"ABC FRANCO PAINTING COMPANY INC.","8430 12TH AVE.",,"SILVER SPRING","MD","20903"
"ABC GENERAL AND MECHANICAL SERVICES, INC","15732 CRABBS BRANCH WAY",,"DERWOOD","MD","20855"
"ABC IMAGING OF WASHINGTON, INC.","5290 SHAWNEE RD STE 300",,"ALEXANDRIA","AV","22312"
"ABC SCIENCES CORPORATION","11009 COLONIAL GREEN COURT",,"GAITHERSBURG","MD","20878"
"ABC WRITE DESIGN, LLC","10909 SILENT WOOD PLACE",,"NORTH POTOMAC","MD","20878"
"ABC'S AND 1-2-3'S, INC.","825 D ROCKVILLE PIKE",,"ROCKVILLE","MD","20852-1264"
"ABCD & COMPANY, LLC","2 WISCONSIN CIRCLE SE 700",,"CHEVY CHASE","MD","20815"
"ABD TAX & ACCOUNTING SERVICES, LLC","817 SILVER SPRING AVE STE 405",,"SILVER SPRING","MD","20910"
"ABDIAS CONSTRUCTION, INC.","8 BROOKES AVE., STE.203",,"GAITHERSBURG","MD","20877"
"ABDOW FRIENDSHIP PEDIATRICS, P.C.","11125 ROCKVILLE PIKE STE 307",,"ROCKVILLE","MD","20852"
"ABDVALI, INC","4600 EAST WEST HWY. STE 110",,"BETHESDA","MD","20814"
"ABEL & ASSOCIATES LLC","12013 COLDSTREAM DRIVE",,"POTOMAC","MD","20854"
"ABEL CONSULTING ENGINEERS, P.A.","9055 COMPRING COURT, SUITE 370",,"GAITHERSBURG","MD","20877"
"ABEL CONTRACTOR, INC.","10320 INWOOD AVENUE",,"SILVER SPRING","MD","20902"
"ABENZRAEL REMODELING, INC.","3508 JEFFERSON STREET",,"HYATTSVILLE","MD","20782"
"ABERCROMBIE & ASSOCIATES, LLC","8609 SECOND AVE #507B",,"SILVER SPRING","MD","20910"
"ABERCROMBIE & FITCH STORES, INC.","PO BOX 52427",,"ATLANTA","GA","30355"
"ABERNETHY STICKS, INC.","3837 PLYERS MILL ROAD",,"KENSINGTON","MD","20895-2015"
"ABESS, INC.","1301 UNIVERSITY BLVD.",,"TAKOMA PARK","MD","20912"
"ABEYA ENTERPRISES LLC","3 POOKS HILL RD","#904","BETHESDA","MD","20814"
"ABG LLC","39 RANDOLPH RD.",,"SILVER SPRING","MD","20904"
"ABI II, INC.","8401 SNOUFFER SCHOOL ROAD",,"GAITHERSBURG","MD","20879"
"ABI III CORPORATION","425 S FREDERICK AVE",,"GAITHERSBURG","MD","20877-2326"
"ABI NKWA INC.","6104 CHESHIRE DRIVE",,"BETHESDA","MD","20814"
"ABIG CONSULTING LLC","12703 HELEN ROAD",,"SILVER SPRING","MD","20906"
"ABILITY PROSTHETICS & ORTHOTICS, INC.","660 W LINCOLN HWY",,"EXTON","PA","19341-2514"
"ABISO HOSPITALITY GROUP, LLC","6924 OLD STAGE RD",,"ROCKVILLE","MD","20852-4332"
"ABIYOU AUTO LLC","18801 BIRDSEYE DR",,"GERMANTOWN","MD","20874"
"ABL INFORMATION TECHNOLOGY, LLC","10601 TANAGER LANE",,"POTOMAC","MD","20854"
"ABLE ENGINEERING, INC.","421 N STONESTREET AVE",,"ROCKVILLE","MD","20850-1658"
"ABLE PLUS ASSISTED LIVING LLC","13317 SHERWOOD FOREST",,"SILVER SPRING","MD","20904"
"ABLE SERVICE CONTRACTORS, INC.","STE 2","13505 DULLES TECHNOLOGY DR","HERNDON","VA","20171-3401"
"ABM INDUSTRY GROUPS, LLC","SUITE 477","14141 SW FWY","SUGAR LAND","TX","77478"
"ABM JANITORIAL SERVICES - MID-ATLANTIC,","14141 SOUTHWEST FRWY","#425","SUGARLAND","TX","77478"
"ABM LIMITED, INC.","SUITE 1010","10212 GOVERNOR LANE BLVD.","WILLIAMSPORT","MD","21795"
"ABM PARKING SERVICES, INC.","14141 SOUTHWEST FRWY","STE 425","SUGARLAND","TX","77478"
"ABNEY AT LAW, P.C.","1 CHURCH ST.","SUITE 910","ROCKVILLE","MD","20850"
"ABOD & ASSOCIATES LLC","15850 CRABBS BRANCH WAY",,"ROCKVILLE","MD","20855-2622"
"ABOD & CARUSO, L.L.C.","18524 OFFICE PARK DR",,"GAITHERSBURG","MD","20886"
"ABOL LLC","8626 COLESVILLE RD",,"SILVER SPRING","MD","20910-3915"
"ABONAR TITLE COMPANY LLC","711 FORDHAM ST",,"ROCKVILLE","MD","20850-1106"
"ABORTIONCLINICS.ORG, INC.","13233 EXECUTIVE PARK TER",,"GERMANTOWN","MD","20874-2648"
"ABOUT HAIR INC","600 JEFFERSON PLAZA #100",,"ROCKVILLE","MD","20852"
"ABOUT WEB, LLC","101 CHESTNUT ST SUITE 240",,"GAITHERSBURG","MD","20877"
"ABOVE ALL MARBLE & GRANITE, INC.","567 SOUTHLAWN LN",,"ROCKVILLE","MD","20850-1467"
"ABP BIOSCIENCES LLC","14624 DRUM HILL CT.",,"NORTH POTOMAC","MD","20878"
"ABRAHAM C. BLITZER, P.C.","8 PARK VALLEY RD",,"SILVER SPRING","MD","20910-5423"
"ABRAHAM MORRISON MEMORIAL, LLC","388 NE SPANISH CT",,"BOCA RATON","FL","33432-4128"
"ABRAHAMS LAWN SERVICE, INC.","101 SHEFFIELD ST",,"SILVER SPRING","MD","20910-5521"
"ABRAHAMS, MICHAEL L.","18 EXECUTIVE PARK COURT",,"GERMANTOWN","MD","20874"
"ABRAMOWITZ PROPERTIES, LLC","18612 ROLLING ACRES WAY",,"OLNEY","MD","20832-1319"
"ABRAMS & ASSOCIATES, INC.","P.O. BOX 475","10711 WEYMOUTH STREET","GARRETT PARK","MD","20896-0475"
"ABRAMS & WEST, P.C.","4550 MONTGOMERY AVENUE",,"BETHESDA","MD","20814-3304"
"ABRAMS BISON INVESTMENTS, LLC","3 BETHESDA METRO CENTER","SUITE 1250","BETHESDA","MD","20814"
"ABRAMS TRAVEL, INC.","2909 FRIENDLYWOOD WAY",,"BURTONSVILLE","MD","20866-1856"
"ABRAMSON ENTERTAINMENT, LLC","185 SW 7TH STREET 2104",,"MIAMI","FL","33130"
"ABRISHAMI, BRIGITTE","11904 DARNESTOWN RD","STE E","GAITHERSBURG","MD","20878"
"ABS US CORP.","10220 RIVER ROAD","#306","POTOMAC","MD","20854"
"ABSG CONSULTING INC.","16855 NORTHCHASE DR",,"HOUSTON","TX","77060-6006"
"ABSJ PROPERTIES, LLC","13316 TAMWORTH LN",,"SILVER SPRING","MD","20904-1226"
"ABSOLUTE ASSISTED LIVING, INC.","4911 BROOKS RD",,"ROCKVILLE","MD","20853-1008"
"ABSOLUTE AUTO L.L.C.","22210 DICKERSON ROAD",,"DICKERSON","MD","20842"
"ABSOLUTE CONCRETE CONCEPT. INC.","P.O. BOX 3059",,"GERMANTOWN","MD","20875"
"ABSOLUTE DRYWALL CONSTRUCTION, INC.","7604 LINBERGH DRIVE",,"GAITHERSBURG","MD","20879"
"ABSOLUTE GENERAL CONTRACTING SERVICES LL","1601 NORTHCREST DR.",,"SILVER SPRING","MD","20904"
"ABSOLUTE HOME SOLUTIONS INC.","16 HIDDEN VALLEY CT",,"SILVER SPRING","MD","20904-5252"
"ABSOLUTE PRINTING, INC.","P O BOX 67",,"BURTONSVILLE","MD","20866"
"ABSOLUTE REMODELING, LLC","12004 APPLE KNOLL CT",,"NORTH POTOMAC","MD","20878"
"ABSTRACT GROUP, INC.","1734 CHISWICK COURT",,"SILVER SPRING","MD","20904"
"ABT ASSOCIATES, INC.","10 FAWCETT STREET",,"CAMBRIDGE","MA","02138"
"ABT ASSOCIATES, INC.","55 WHEELER ST",,"CAMBRIDGE","MA","02138-1192"
"ABVIRO LLC","4800 HAMPDEN LANE","SUITE 200","BETHESDA","MD","20814"
"ABY AND ASSOCIATES, LTD.","8805 FLOWER AVE",,"SILVER SPRING","MD","20901-4038"
"ABYE, L.L.C.","8233 FENTON ST",,"SILVER SPRING","MD","20910-4503"
"AC ACQUISITIONS, L.L.C.","2730 UNIVERSITY BLVD WEST SUITE 200",,"WHEATON","MD","20902"
"AC ACQUISITIONS, L.L.C.","STE 200","2730 UNIVERSITY BLVD WEST","WHEATON","MD","20902"
"AC CRANE & SIGN SERVICE, INC.","16912 NORBROOK DR",,"OLNEY","MD","20832-2622"
"AC CRANE LEASING, INC.","16912 NORBROOK DR",,"OLNEY","MD","20832-2622"
"AC ELECTRIC, LLC","14115 CHAWICK LANE",,"ROCKVILLE","MD","20853"
"AC GROUP OF MARYLAND, LLC A/K/A/ AC GROU","19200-D CHENNAULT WAY",,"GAITHERSBURG","MD","20879"
"AC HOOKAH LLC","17519 REDLAND RD",,"DERWOOD","MD","20855"
"AC RESTAURANTS WHEATON, LLC","6330 BELMONT RD STE 4B",,"DOWNERS GROVE","IL","60516"
"ACACIA FINANCIAL ADVISORS LLC","#208","3204 TOWER OAKS BLVD","ROCKVILLE","MD","20852"
"ACADEMIC INTELLIGENCE, LLC","205 PRIMROSE STREET",,"CHEVY CHASE","MD","20815"
"ACADEMY MORTGAGE CORPORATION","339 W 13490 S",,"DRAPER","UT","84020"
"ACADEMY OF ACUPUNCTURE AND CHINESE MEDIC","6410 ROCKLEDGE DR STE 418",,"BETHESDA","MD","20817"
"ACADEMY REMODELING, LLC","8208 WAHLY DR",,"BETHESDA","MD","20817-3166"
"ACADIA CONTRACTORS, INC.","7945 MACARTHUR BLVD",,"CABIN JOHN","MD","20818"
"ACADIA CYBER SOLUTIONS LLC","13401 VALLEY DRIVE",,"ROCKVILLE","MD","20850"
"ACADIA PLUMBING AND HEATING, INC.","8018 BARRON STREET",,"TAKOMA PARK","MD","20912-7366"
"ACADIA, LLC","8207 THOREAU DRIVE","SUITE 103","BETHESDA","MD","20817"
"ACARCIA, LTD.","3 MARYLAND AVE",,"ROCKVILLE","MD","20850-2327"
"ACAS, LLC","C/O ARES MANAGEMENT LLC","2000 AVENUE OF THE STARS 12TH FL","LOS ANGELES","CA","90067"
"ACCARDIS SYSTEMS, INC","20061 DOOLITTLE STREET",,"MONTGOMERY VILLAGE","MD","20886"
"ACCEL CORPORATION","8720 GEORGIA AVE.","SUITE 900","SILVER SPRING","MD","20910"
"ACCELERATED CARE PLUS LEASING, INC.","4999 AIRCENTER CIR",,"RENO","NV","89502-7965"
"ACCELERMARK, LLC","7219 OLD GATE RD",,"ROCKVILLE","MD","20852"
"ACCENT GENERAL CONTRACTING, INC.","114 DERWOOD CIR",,"ROCKVILLE","MD","20850"
"ACCENT SOFTWARE, INC.","14402 SYLVAN GLADE DRIVE",,"NORTH POTOMAC","MD","20878"
"ACCESS CONSULTING, INC.","9 BENTANA CT",,"ROCKVILLE","MD","20850"
"ACCESS DRIVING ACADEMY, LLC","3460 OLNEY LAYTONSVILLE RD",,"OLNEY","MD","20832-1781"
"ACCESS INTELLIGENCE LLC","9211 CORPORATE BOULEVARD 4TH FLOOR",,"ROCKVILLE","MD","20850"
"ACCESS MEDIA HOLDINGS, LLC","900 COMMERCE DR, STE 200",,"OAK BROOK","IL","60523-1967"
"ACCESS NOW URGENT CARE, LLC","405 NATURE LN",,"ROCKVILLE","MD","20850"
"ACCESS REAL ESTATE LLC","5801 NICHOLSON LANE","1602","ROCKVILLE","MD","20852"
"ACCESS SPECTRUM, LLC","2 BETHESDA METRO CTR","SUITE 300","BETHESDA","MD","20814-6319"
"ACCESS TRANS & TRAVEL INC.","7505 NEW HAMPSHIRE AVENUE, SUITE 316E",,"TAKOMA PARK","MD","20912"
"ACCESS-ABILITY CONSULTANTS, INC.","7106 13TH AVENUE",,"TAKOMA PARK","MD","20912"
"ACCESSABILITY MEDCARE, LLC","15915 EMORY LANE",,"ROCKVILLE","MD","20853"
"ACCESSIBLE BELTWAY CLINICS, LLC","30 W GUDE DRIVE STE 375",,"ROCKVILLE","MD","20850"
"ACCESSNOW, LLC","2700 SHANANDALE DR",,"SILVER SPRING","MD","20904-1632"
"ACCOLADE CONSTRUCTION, INC.","4701 OLDEN ROAD",,"ROCKVILLE","MD","20852-2343"
"ACCOLADES, INC.","17214 SUMAC COURT",,"GERMANTOWN","MD","20874"
"ACCORMEND ASSOCIATES, INC.","1221 SMITH VILLAGE RD",,"SILVER SPRING","MD","20904-3135"
"ACCOUNTABLE HEALTH, INC.","1101 WOOTTON PARKWAY","10TH FLOOR","ROCKVILLE","MD","20852"
"ACCOUNTING 2000, INC.","3916 ELBY STREET",,"SILVER SPRING","MD","20906-4415"
"ACCOUNTING AND TAXES SOLUTIONS INC","11441 GEORGIA AVE",,"SILVER SPRING","MD","20902-1906"
"ACCOUNTING RESEARCH & ANALYTICS, LLC","675 PETER JEFFERSON PARKWAY","SUITE 100","CHARLOTTESVILLE","VA","22911"
"ACCOUNTING, TAX AND FINANCIAL SERVICES,","13646 TRAVILAH RD",,"ROCKVILLE","MD","20850-4815"
"ACCUALINA LLC","12405 FALCONBRIDGE DR",,"NORTH POTOMAC","MD","20878-3444"
"ACCUFAST APPRAISAL SERVICES, INC.","15107 INTERLACHEN DRIVE SUITE #809",,"SILVER SPRING","MD","20906"
"ACCUFIT DENTAL LABORATORY, LLC","8539 ZIGGY LN",,"GAITHERSBURG","MD","20877"
"ACCULINE ENTERPRISES INC.","12802 LEAHY DR",,"ROCKVILLE","MD","20851-1924"
"ACCURACY IN MEDIA, INC. A/K/A ACCURACY I","SUITE 555","4350  EAST WEST HIGHWAY","BETHESDA","MD","20814"
"ACCURATE RECORDS & TAX SERVICES, INC.","18562 OFFICE PARK DR",,"MONTGOMERY VILLAGE","MD","20886"
"ACCUSTRATA, INC.","11900 PARKLAWN DRIVE","SUITE 203","ROCKVILLE","MD","20852"
"ACD ENTERPRISE, LLC","12528 ANSIN CIRCLE DRIVE",,"POTOMAC","MD","20854"
"ACD FRANCHISING, LLC","14421 SUGERLAND LANE",,"POOLESVILLE","MD","20837"
"ACD REMODELING, INC.","11225 TROY ROAD",,"ROCKVILLE","MD","20852"
"ACE CASH EXPRESS, INC.","1231 GREENWAY DR   STE 800",,"IRVING","TX","75038-2536"
"ACE CONSTRUCTION LLC","904 ERIE AVE",,"TAKOMA PARK","MD","20912-6863"
"ACE CONSULTANTS, INC.","10520 DEMOCRACY BLVD",,"POTOMAC","MD","20854-4444"
"ACE FLOORING, LLC","325 WEST SIDE DRIVE","APT 101","GAITHERSBURG","MD","20878"
"ACE LEARNING CENTER, INC.","9 MILESTONE MANOR CT",,"GERMANTOWN","MD","20876-5906"
"ACE MAINTENANCE & SERVICE, INC.","PO BOX 5896",,"AUSTIN","TX","78763-5896"
"ACE MENTOR PROGRAM OF AMERICA, INC.","6110 EXECUTIVE BOULEVARD","SUITE 612","ROCKVILLE","MD","20852"
"ACE UNIFORM SERVICES, INC.","1800 PARKMAN AVE",,"BALTIMORE","MD","21230-1024"
"ACECO, L.L.C.","901 STODDARD PL",,"SILVER SPRING","MD","20910-4506"
"ACENTO REAL ESTATE PARTNERS, LLC","8120 WOODMONT AVE","STE 520","BETHESDA","MD","20814"
"ACER TITLE & ESCROW, LLC","4340 EAST WEST HIGHWAY SUITE 600",,"BETHESDA","MD","20814"
"ACESEVEN MOTORS, LLC","847-I QUINCE ORCHARD BLVD","SUITE 4","GAITHERSBURG","MD","20878"
"ACESO HEALTHCARE PARTNERS, LLC","10401 RIVERWOOD DRIVE",,"POTOMAC","MD","20854"
"ACETHIA, LLC","21632 GENTRY LANE",,"BROOKEVILLE","MD","20833"
"ACH GROUP LLC","11810 CHAREN LANE",,"POTOMAC","MD","20854"
"ACHANKUNJU A. CHACKO, M.D., LLC","SUITE 390","7610 CARROLL AVENUE","TAKOMA PARK","MD","20912"
"ACHATES INTERNATIONAL, INCORPORATED","8004 BOULDER RIDGE WAY",,"GAITHERSBURG","MD","20879-5635"
"ACHIEVING MILESTONES, LLC","5815 GREENLAWN DRIVE",,"BETHESDA","MD","20814"
"ACI DESIGN BUILD LLC","23300 WOODFIELD ROAD",,"GAITHERSBURG","MD","20882"
"ACK CONSTRUCTION INC.","TRLR 46","19515 FREDERICK ROAD","GERMANTOWN","MD","20876"
"ACK FAMILY DENTISTRY P.C.","11300 ROCKVILLE PIKE STE 711",,"ROCKVILLE","MD","20852"
"ACK RESTAURANT GROUP LLC","PO BOX 661",,"FREDERICK","MD","21705-0661"
"ACKER AND SONS, INC.","10516 SUMMIT AVE",,"KENSINGTON","MD","20895-2436"
"ACL, INC.","STE 670","TWO WISCONSIN CIRCLE","CHEVY CHASE","MD","20815"
"ACLARK.NET, LIMITED LIABILITY COMPANY","10007 PARKWOOD DR",,"BETHESDA","MD","20814-4031"
"ACM GROUP, INC.","PO BOX 1702",,"GERMANTOWN","MD","20875-1702"
"ACM SERVICES, INC.","12022 PARKLAWN DR",,"ROCKVILLE","MD","20852-1802"
"ACME ACUPUNCTURE & HERBS CLINIC, INC.","9079 SHADY GROVE CT",,"GAITHERSBURG","MD","20877"
"ACORN ASPEN HILL, LLC","8601 GEORGIA AVENUE","SUITE 200","SILVER SPRING","MD","20910"
"ACORN BUILDING SERVICES CORPORATION","1115 NETHERLANDS CT",,"SILVER SPRING","MD","20905-6039"
"ACORN KENSINGTON, LLC","SUITE 200","8601 GEORGIA AVE.","SILVER SPRING","MD","20910"
"ACORN MEDIA GROUP, INC.","8515 GEORGIA AVE STE 650",,"SILVER SPRING","MD","20910"
"ACOUSTIC PROTOCOL INC.","5268 NICHOLSON LN","SUITE 121","KENSINGTON","MD","20895"
"ACOUSTICAL PANEL RESOURCES, INC.","7620-D RICKENBACKER DR",,"GAITHERSBURG","MD","20879"
"ACP-OFFENBACHERS, LLC","509 S. EXETER ST","SUITE 505","BALTIMORE","MD","21202"
"ACQUA LLC","4701 SANGAMORE RD STE M7",,"BETHESDA","MD","20816"
"ACQUALUXE NAILS SPA LLC","14510 BAUER DR",,"ROCKVILLE","MD","20853"
"ACQUANAILS, INC.","4701 SANGAMORE ROAD","#M8","BETHESDA","MD","20816"
"ACQUIA INC.","10TH FLOOR","53 STATE ST","BOSTON","MA","02109-2820"
"ACQUIRED DATA SOLUTIONS, INC.","11900 PARKLAWN DRIVE","#420","ROCKVILLE","MD","20852-2710"
"ACREBAY INVESTMENT MANAGEMENT, INC.","1 TROON DRIVE",,"NEWPORT BEACH","CA","92660"
"ACRO SYSTEMS INC.","18411 BROKEN TIMBER WAY",,"BOYDS","MD","20841"
"ACSAN LLC","11125 MARYLAND MANOR CT.",,"GERMANTOWN","MD","20876"
"ACT 2 EVENTS, LLC","P O BOX 4834",,"ANNAPOLIS","MD","21403"
"ACTA CHINESE LANGUAGE SERVICES, L.L.C.","14641 BROUGHAM WAY",,"GAITHERSBURG","MD","20878"
"ACTAEON, LLC","307 SCOTT DR",,"SILVER SPRING","MD","20904-1063"
"ACTION DECOR LLC","9605 WATKINS RD",,"GAITHERSBURG","MD","20882"
"ACTION TAXICAB, INCORPORATED","15805 PARAMOUNT DRIVE",,"ROCKVILLE","MD","20855"
"ACTIONET, INC.","2600 PARK TOWER DR",,"VIENNA","VA","22180-7342"
"ACTIVE PHYSICAL THERAPY SERVICES, LLC","7525 CONNELLEY DR","SUITE C","HANOVER","MD","21076"
"ACTIVE POLICY SOLUTIONS, LLC","11305","ROYAL MANOR WAY","NORTH POTOMAC","MD","20878"
"ACTIVEND, LLC","600 JEFFERSON PLAZA","STE. 304","ROCKVILLE","MD","20852"
"ACTIVTRAX, LLC","849 J QUINCE ORCHARD BLVD",,"GAITHERSBURG","MD","20878-4906"
"ACTUALIZE STUDIO, LLC","510 FLEETWOOD ST.",,"SILVER SPRING","MD","20910"
"ACUATIVE CORPORATION","8237 DOW CIRCLE",,"STRONGSVILLE","OH","44136"
"ACUCARE THERAPY, LLC","8304 BRINK RD.",,"GAITHERSBURG","MD","20882"
"ACUENTA TAX LLC","1717 WILCOX LN",,"SILVER SPRING","MD","20906-5945"
"ACUITY SPECIALTY PRODUCTS, INC.","PO BOX 59365",,"SCHAUMBURG","IL","60159-0365"
"ACUITYNANO, LLC","10300 STRATHMORE HALL STREET","SUITE 405","ROCKVILLE","MD","20852"
"ACUMEDICINE-HEALTH, LLC","603 SLIGO AVE","STE 305","SILVER SPRING","MD","20910"
"ACUMEN CARE LLC","14725 GOOD HOPE RD",,"SILVER SPRING","MD","20905-6020"
"ACUMEN INTELLECTUAL PROPERTY, LLC","10908 OLD COACH RD",,"POTOMAC","MD","20854"
"ACUMEN SECURITY, LLC","18504 OFFICE PARK DR",,"MONTGOMERY VILLAGE","MD","20886"
"ACUP BILLING LLC","145 CENTRAL AVE.",,"GAITHERSBURG","MD","20877"
"ACUPUNCTURE & CHINESE HERBAL THERAPY, IN","6015 ONONDAGA ROAD",,"BETHESDA","MD","20816"
"ACUPUNCTURE & NATURAL MEDICINE L.L.C.","2401 RESEARCH BLVD",,"ROCKVILLE","MD","20850-3215"
"ACUPUNCTURE AND HERBAL CENTER, L.L.C.","522 W MONTGOMERY AVE",,"ROCKVILLE","MD","20850-3814"
"ACUPUNCTURE MEDICINE CENTER, LLC","9811 BALD CYPRESS DR",,"ROCKVILLE","MD","20850-3488"
"ACUSPA LLC","2 CEDAR COURT",,"ROCKVILLE","MD","20851"
"ACZEN TECHNOLOGY, INC.","13922 BROMFIELD ROAD",,"GERMANTOWN","MD","20874"
"AD & RESOURCES, LLC","17617 NORWOOD ROAD",,"SANDY SPRING","MD","20860-1304"
"AD AMERICA INCORPORATED","18308 WICKHAM ROAD","SUITE B","OLNEY","MD","20832"
"ADA ONE, LLC","9 MONTVALE COURT",,"SILVER SPRING","MD","20904"
"ADABTEK, CORP.","3413 OLANDWOOD CT","SUITE 204","OLNEY","MD","20832"
"ADAD, LLC","4860 BOILING BROOK PKWY",,"ROCKVILLE","MD","20852"
"ADAGIO CARE, LLC","7500 OLD CHESTER ROAD",,"BETHESDA","MD","20817"
"ADAIR PARR, M.D., LLC","5403 BLACKISTONE ROAD",,"BETHESDA","MD","20816"
"ADALBERTO LAWN SERVICE, INC.","12225 KENDALL ST",,"SILVER SPRING","MD","20902"
"ADAM EISNER, D.D.S., P.A.","13415 CONNECTICUT AVE STE 201",,"SILVER SPRING","MD","20906-2910"
"ADAM G. TATTELBAUM, M.D., P.C.","3203 TOWER OAKS BLVD",,"ROCKVILLE","MD","20852-4258"
"ADAM KESHISHIAN JEWELERS, INC.","4405 WILLARD AVENUE",,"CHEVY CHASE","MD","20815-3649"
"ADAM LOWE CREATIVE LLC","1202 ROSEMERE AVE",,"SILVER SPRING","MD","20904"
"ADAM S. APATOFF, P.C.","408 NATURE LANE",,"ROCKVILLE","MD","20850"
"ADAM T. SCHNEIDER, D.D.S., P.A.","22 MONTGOMERY VILLAGE AVE",,"GAITHERSBURG","MD","20879-3582"
"ADAMS CORPORATION","7700 LITTLE RIVER TPKE",,"ANNANDALE","VA","22003-2406"
"ADAMSON, JONATHAN","19300 MOUTH OF MONOCACY RD",,"DICKERSON","MD","20842"
"ADAMSWOOD, LLC","109 NORTH ADAMS STREET",,"ROCKVILLE","MD","20850-2234"
"ADAPTABLE SYSTEMS CORPORATION","1000 MILLER CT W",,"NORCROSS","GA","30071-1410"
"ADAPTIFY SOLUTIONS LLC","8720 GEORGIA AVE","SUITE 302","SILVER SPRING","MD","20910"
"ADAPTIVE DECISIONS, INC.","11515 DANVILLE DR",,"NORTH BETHESDA","MD","20852-3713"
"ADAPTIVE HIRING INC.","22010 BIG WOODS RD",,"DICKERSON","MD","20842-8921"
"ADAPTIVE PHAGE THERAPEUTICS, INC.","22FIRST FIELD RD",,"GAITHERSBURG","MD","20878"
"ADAPTIVE SOLUTIONS PENNSYLVANIA INC. A/K","PO BOX 99",,"EAIR PLAY","SC","29643"
"ADAPTIVE SOLUTIONS, INC.","13925 ROCKINGHAM RD",,"GERMANTOWN","MD","20874-2230"
"ADAPTIVE STUDIO, LLC","9202 2ND AVENUE",,"SILVER SPRING","MD","20910"
"ADAPTIVE TECH SPHERE LLC","12703 LAYHILL RD","APT # 102","SILVER SPRING","MD","20906"
"ADARASH MARKET II, INC.","11249 NEW HAMPSHIRE AVE",,"SILVER SPRING","MD","20904"
"ADARASH MARKET, INC.","8706-A FLOWER AVE.",,"SILVER SPRING","MD","20901"
"ADC STRATEGIES LLC","9224 QUINTANA DR",,"BETHESDA","MD","20817"
"ADCI OF DELAWARE, LLC","2 WISCONSIN CIRCLE","SUITE 700","CHEVYCHASE","MD","20815"
"ADCOMM LLC","11215 LEE HIGHWAY","SUITE L","FAIRFAX","VA","22030"
"ADCS CLINICS, LLC","151 SOUTHHALL LANE SUITE 300",,"MAITLAND","FL","32751"
"ADCURATUS INFORMATION SYSTEMS INC.","9812 LOG HOUSE COURT",,"GAITHERSBURG","MD","20882"
"ADD INSPIRATION LLC","12511 FELLOWSHIP LANE",,"NORTH POTOMAC","MD","20878"
"ADDED DIMENSIONS, INC.","7527 NEW HAMPSHIRE AVE",,"TAKOMA PARK","MD","20912-6969"
"ADDIE'S PARK POTOMAC LLC","7752 WOODMONT AVENUE","SUITE 201","BETHESDA","MD","20814"
"ADDIS ACCOUNTING AND TAX SERVICES, LLC","#1215","8711 GEORGIA AVE.","SILVER SPRING","MD","20910"
"ADDIS ALEM MEDICINE, PLLC","8713 SNOWHILL COURT",,"POTOMAC","MD","20854"
"ADDIS WING, LLC","3008 FALLSTON AVE",,"SILVER SPRING","MD","20904"
"ADDISON NAILS LLC","2502 WEISMAN ROAD",,"SILVER SPRING","MD","20902"
"ADDISU GEBEYA, LLC","8107 FENTON STREET",,"SILVER SPRING","MD","20910"
"ADEGE CO LLC","11904 ENID DRIVE",,"POTOMAC","MD","20854"
"ADELA MOROCHO, DDS, LLC","2008 MACDOWELL STREET",,"ROCKVILLE","MD","20851"
"ADELFIO ENTERPRISES, LTD.","4422 EAST WEST HIGHWAY",,"BETHESDA","MD","20814"
"ADEPT ACCOUNTING LLC","9329 BENTRIDGE AVE",,"POTOMAC","MD","20854"
"ADEPT ENGINEERING SOLUTIONS, LLC","312 MARSHALLAVE","SUIE 1010","LAUREL","MD","20707"
"ADEPTUS PARTNERS, LLC","733 STATE ROUTE 35","SUITE A","OCEAN","NJ","07712"
"ADERA LABS, LLC","20271 GOLDENROD LN","STE 2062","GERMANTOWN","MD","20876"
"ADF MIDATLANTIC, LLC","PO BOX 780660",,"WICHITA","KS","67228-0660"
"ADF PAINTING LLC","12721 BARBARA RD",,"SILVER SPRING","MD","20906"
"ADHVAN CORPORATION","19520 WATERS ROAD","1104","GERMANTOWN","MD","20874"
"ADI HEATING & AIR CONDITIONING, LLC","21529 RIPPLEMEAD DR",,"LAYTONSVILLE","MD","20882"
"ADI SERVICES LLC","9117 FALL RIVER LANE",,"POTOMAC","MD","20854"
"ADI SHMUELI, PH.D., P.C.","9021 ALTON PARKWAY",,"SILVER SPRING","MD","20910"
"ADIDAS AMERICA, INC.","C/O DMA, PO BOX 80615",,"INDIANAPOLIS","IN","46280"
"ADIGE LLC","200 A MONROE ST SUITE 11S",,"ROCKVILLE","MD","20850"
"ADIL MAGLAD CORPORATION","1802 LEWIS AVE",,"ROCKVILLE","MD","20851-2138"
"ADINA SOLUTIONS, INC.","22775 AUTUMN BREEZE AVE",,"CLARKSBURG","MD","20871"
"ADITATVA, LLC","425 MAIN STREET UNIT 15C",,"HUDSON","MA","01749"
"ADLER & MANDEL, INC.","12298 WILKINS AVE # B",,"ROCKVILLE","MD","20852"
"ADLER ASSOCIATES, LP","5530 WISCONSIN AVE STE 1460",,"CHEVY CHASE","MD","20815-4404"
"ADM GROUP LLC","12704 FOUND STONE ROAD","APT 305","GERMANTOWN","MD","20876"
"ADM PARTNERS, LLC","10000 GREENOCK ROAD",,"SILVER SPRING","MD","20901"
"ADMARK, INC.","121 CONGRESSIONAL LN STE 603",,"ROCKVILLE","MD","20852"
"ADMAS TRAVEL AND TOUR ENTERPRISE, INC.","8401 COLESVILLE RD STE 5",,"SILVER SPRING","MD","20910"
"ADMIN ASSISTANCE, INC.","2 WISCONSIN CIRCLE #700",,"CHEVY CHASE","MD","20815"
"ADMIRAL HARDWOOD FLOORS, INC.","4903 BAYARD BLVD",,"BETHESDA","MD","20816-1712"
"ADMIT ADVANTAGE, INC.","8070 GEORGIA AVENUE","SUITE 203","SILVER SPRING","MD","20910"
"ADNET SYSTEMS, INC.","6720 B ROCKLEDGE DRIVE","SUITE 500","BETHESDA","MD","20817"
"ADOJAM, LLC","10225 FREDERICK AVE NO 210",,"KENSINGTON","MD","20895"
"ADOLFO PINEDA CLEANING SERVICE, INC.","14713 PHILIP COURT",,"LAUREL","MD","20708"
"ADONAI 7 SERVICES, LLC","10344 WATKINS MILL DR",,"MONTGOMERY VILLAGE","MD","20886"
"ADONAI E+ SOUND","13702 ASHBY RD",,"ROCKVILLE","MD","20853"
"ADONAI FAMILY HEALTHCARE, LLC","1514 DECEMBER DR APT 202",,"SILVER SPRING","MD","20904"
"ADORA CONSULTING, LLC","111 ARGOSY DRIVE",,"GAITHERSBURG","MD","20878"
"ADORE INC.","8564 DAKOTA DR",,"GAITHERSBURG","MD","20877"
"ADP CONSTRUCTION, INC.","14901 RIVER RD",,"POTOMAC","MD","20854-6029"
"ADP CONSULTANTS, INC","13976 LAUREL LAKE",,"LAUREL","MD","20707"
"ADP GRANITE & QUARTZ COUNTERTOPS, LLC","11713 TROPHY CT",,"GERMANTOWN","MD","20876"
"ADP LEASING DIVISION OF ADP INCORPORATED","1 ADP BLVD","MS 433","ROSELAND","NJ","07068"
"ADP, LLC","1 ADP BLVD","M/S B401","ROSELAND","NJ","07068"
"ADRENALINE OFF ROAD, L.L.C.","15201 B1RMINGHAM DR",,"BURTONSVILLE","MD","20866"
"ADRIANA'S SERVICES, LLC","23207 ARORA HILLS DRIVE",,"CLARKSBURG","MD","20871"
"ADRIANAS HOME SERVICES LLC","784 QUINCE ORCHARD BLVD # 201",,"GAITHERSBURG","MD","20878"
"ADS SYSTEM SAFETY CONSULTING, LLC","20 S CHARLES STREET SUITE 1103",,"BALTIMORE","MD","21201"
"ADSYSTECH, INC.","8401 COLESVILLE RD  #450",,"SILVER SPRING","MD","20910-3393"
"ADT LLC","PO BOX 54767",,"LEXINGTON","KY","40555"
"ADULT DAY HEALTH, INC.","313 CONGRESS STREET","5TH FLOOR","BOSTON","MA","02210"
"ADVANCE ACCEPTANCE ALL LINES CO. A/K/A F","PO BOX 2068",,"MINOT","ND","58702-2068"
"ADVANCE BUILDING SOLUTIONS, INC.","2022 ROUTE 22, SUITE 105",,"BREWSTER","NY","10509"
"ADVANCE BUSINESS SYSTEMS & SUPPLY COMPAN","10755 YORK RD",,"COCKEYSVILLE","MD","21030-2114"
"ADVANCE DIAGNOSTICS SERVICES, INC.","8027-F SNOUFFER SCHOOL ROAD",,"GAITHERBURG","MD","20879"
"ADVANCE FINANCIAL, LLC","STE 320","8121 GEORGIA AVE","SILVER SPRING","MD","20910"
"ADVANCE STORES COMPANY, INCORPORATED","PO BOX 56607",,"ATLANTA","GA","30343"
"ADVANCE SURGERY CENTER, L.L.C.","10110 MOLECULAR DR",,"ROCKVILLE","MD","20850-7539"
"ADVANCED AIR SERVICES, INC.","21808 GAITHERS MEADOW LN",,"BROOKEVILLE","MD","20833-1826"
"ADVANCED AUTO SERVICES OF GERMANTOWN, LL","13210 WISTERIA DR. STE S2",,"GERMANTOWN","MD","20874"
"ADVANCED BEHAVIORAL HEALTH, INC.","ADVANCED BEHAVIORAL HEALTH INC","1003 WEST SEVENTH STREET SUITE 500","FREDERICK","MD","21701"
"ADVANCED BEHAVIORAL HEALTH, LLC","1003 W SEVENTH ST SUITE 500",,"FREDERICK","MD","21701"
"ADVANCED BIOMIMETIC SENSORS, INC.","11140 ROCKVILLE PIKE 400",,"ROCKVILLE","MD","20852"
"ADVANCED BIOSCIENCE LABORATORIES, INC.","9800 MEDICAL CENTER DRIVE, SUITE D",,"ROCKVILLE","MD","20850"
"ADVANCED BUILDING DESIGN, INCORPORATED","7213 FLOWER AVE",,"TAKOMA PARK","MD","20912-6436"
"ADVANCED CHIROPRACTIC & REHAB, INC.","2730 UNIVERSITY BLVD W STE 1050",,"WHEATON","MD","20902"
"ADVANCED COMMUNICATION TECHNOLOGY, INC.","PO BOX 4119",,"SILVER SPRING","MD","20914-4119"
"ADVANCED COMMUNICATIONS SOLUTIONS LLC","118 PASTURE SIDE WAY",,"ROCKVILLE","MD","20850"
"ADVANCED CONSERVATION TECHNOLOGIES, INC.","13813 TURKEY FOOT RD",,"NORTH POTOMAC","MD","20878-3935"
"ADVANCED CONTROLS AND FACILITIES ENGINEE","4621 NORBECK RD",,"ROCKVILLE","MD","20853-1710"
"ADVANCED DATA TECHNOLOGIES, INC.","207 JERSEY LANE",,"ROCKVILLE","MD","20850"
"ADVANCED DATABASE TECHNOLOGIES, INC.","18403 TAPWOOD RD",,"BOYDS","MD","20841"
"ADVANCED DERMATOLOGY AND COSMETIC CENTER","11125 ROCKVILLE PIKE SUITE 105",,"NORTH BETHESDA","MD","20852"
"ADVANCED DESIGNS, INC.","14536 CHESTERFIELD ROAD",,"ROCKVILLE","MD","20853"
"ADVANCED DIALYSIS CENTER, LLC","9320 ANNAPOLIS ROAD","#200","LANHAM","MD","20706"
"ADVANCED DIGITAL FORENSIC SOLUTIONS, INC","7910 WOODMONT AVE, SUITE 1103",,"BETHESDA","MD","20814"
"ADVANCED DIGITAL TECHNOLOGIES INC.","4915 CORDELL AVE",,"BETHESDA","MD","20814"
"ADVANCED ENERGY DYNAMICS, LLC","#202","1521 CONCORD PIKE","WILMINGTON","DE","19803"
"ADVANCED HEALTH COLLABORATIVE, LLC","2600 GRAND AVENUE SUITE 100",,"DES MOINES","IA","50312"
"ADVANCED HOME SERVICES, LLC","14600 LOCUSTWOOD LANE",,"SILVER SPRING","MD","20905"
"ADVANCED HOME SUPPORT, INC.","15800 CRABBS BRANCH WAY #205",,"ROCKVILLE","MD","20855"
"ADVANCED ICU CARE, INC.","1 CITYPLACE DR STE 570",,"SAINT LOUIS","MO","63141"
"ADVANCED INTERNAL MEDICINE, P.C.","18121 GEORGIA AVENUE STE 103",,"OLNEY","MD","20832"
"ADVANCED LANGUAGE SYSTEMS INTERNATIONAL","SUITE 640","6001 MONTROSE ROAD","ROCKVILLE","MD","20852"
"ADVANCED LIGHTNING SYSTEMS, INC.","26204 RIDGE RD",,"DAMASCUS","MD","20872-2331"
"ADVANCED MARKING PRODUCTS, INC.","932 HUNGERFORD DR STE 38-B",,"ROCKVILLE","MD","20850"
"ADVANCED NEIGHBORHOOD PEDIATRICS, LLC","12239 CYPRESS SPRING ROAD STE",,"CLARKSBURG","MD","20871"
"ADVANCED NETWORK SOLUTIONS, INC.","15908 GREEN MEADOW WAY",,"DARNESTOWN","MD","20878"
"ADVANCED NEURO & ORTHOPEDIC PHYSICAL THE","12718 WEST OLD BALTIMORE RD",,"BOYDS","MD","20841"
"ADVANCED NEUROMUSCULAR PHYSIOTHERAPY, LL","11403 ORLEANS WAY",,"KENSINGTON","MD","20895"
"ADVANCED PATHOLOGY ASSOCIATES, LLC","11200 ROCKVILLE PIKE, SUITE 400",,"ROCKVILLE","MD","20852"
"ADVANCED PETROSYSTEMS LLC","9611 WATTS BRANCH DRIVE",,"ROCKVILLE","MD","20850-3755"
"ADVANCED POWER SYSTEM SOLUTIONS LLC","14402 CORAL GABLES WAY",,"NORTH POTOMAC","MD","20878"
"ADVANCED PRO INSPECTIONS LLC","8408 TUCKERMAN LANE",,"POTOMAC","MD","20854"
"ADVANCED PT & ACUPUNCTURE INC.","46 B WEST GUDE DRIVE",,"ROCKVILLE","MD","20850"
"ADVANCED SOFTWARE TECHNOLOGIES COMPANY,","PO BOX 10826",,"ROCKVILLE","MD","20849"
"ADVANCED SURGERY CENTER OF BETHESDA, LLC","14400 METCALF AVENUE",,"OVERLAND PARK","KS","66223"
"ADVANCED SURGERY, P.C.","9707 MEDICAL CENTER DR   STE 200",,"ROCKVILLE","MD","20850-3361"
"ADVANCED TECHNOLOGY EXPERTS, LLC","9832 WATTS BRANCH DRIVE",,"ROCKVILLE","MD","20850"
"ADVANCED THERAPIES PARTNERS, LLC","13512 ORIENTAL STREET",,"ROCKVILLE","MD","20853"
"ADVANCED TV & VIDEO SERVICE, INC.","4 PROFESSIONAL DR STE 118",,"GAITHERSBURG","MD","20879"
"ADVANCED WEIGHT LOSS SURGERY, BARRY S. G","9707 MEDICAL CENTER DR",,"ROCKVILLE","MD","20850-3348"
"ADVANCED WELLNESS SYSTEMS, LLC","50 WEST GUDE DR SUITE 46B",,"ROCKVILLE","MD","20850"
"ADVANCED WOMEN'S CARE, INC.","19514 DOCTORS DR",,"GERMANTOWN","MD","20874-5200"
"ADVANCED WORKGROUP SOLUTIONS, LLC","2216 COLD MEADOW WAY",,"SILVER SPRING","MD","20906-6213"
"ADVANCEPRO LLC","9908 WALKER HOUSE RD., #4",,"MONTGOMERY VILLAGE","MD","20886"
"ADVANCIER LLC","2308 EAGLE ROCK PLACE",,"SILVER SPRING","MD","20906"
"ADVANCING SYNERGY, LLC","12155 POND PINE DR",,"CLARKSBURG","MD","20871"
"ADVANI, TANVIR","11414 GEORGIA AVE",,"SILVER SPRING","MD","20902-1907"
"ADVANOSYS, LLC","20813 FAIRWAY VIEW DRIVE PO BOX 5247",,"LAYTONSVILLE","MD","20882"
"ADVANTAGE CONSTRUCTION SVC INC","11808 MORNING STAR DR",,"GERMANTOWN","MD","20876"
"ADVANTAGE PROPERTIES, INC.","SUITE 224","6917 ARLINGTON RD","BETHESDA","MD","20814"
"ADVANTAGE SALES & MARKETING INC.","1611 N INTERSTATE 35E","SUITE 428","CURROLLTON","TX","75006-8616"
"ADVANTAGE SALES, LLC","9401 WOODINGTON DR",,"POTOMAC","MD","20854-2060"
"ADVANTAGE, LLC","12508 EASTBOURNE DR",,"SILVER SPRING","MD","20904-2039"
"ADVANTEK SYSTEMS INTERNATIONAL LLC","14417 AUTUMN CREST ROAD",,"BOYDS","MD","20841"
"ADVANTIA HEALTH LLC","1525 WILSON BLVD.","SUITE 540","ARLINGTON","VA","22209"
"ADVENA WORLD LLC","8653 16TH ST #7603",,"SILVER SPRING","MD","20910"
"ADVENT DENTAL LABORATORY LLC","431 N FREDERICK AVE SUITE 202",,"GATHERSBURG","MD","20877"
"ADVENTIST - MEDICAL FACULTY ASSOCIATES,","3811 N.FAIRFAX DRIVE,SUITE 1000",,"ARLINGTON","VA","22203"
"ADVENTIST CANCER CARE, LLC","820 W DIAMOND AVE STE 600",,"GAITHERSBURG","MD","20878"
"ADVENTIST CONTACT, INCORPORATED","8103 GARLAND AVE",,"TAKOMA PARK","MD","20912-6852"
"ADVENTURE TRAVEL, LLC","9 HASTINGS CIR",,"ROCKVILLE","MD","20850-3011"
"ADVENTURE WINE, LLC","505 MAIN ST 433",,"GAITHERSBURG","MD","20878"
"ADVISER COMPLIANCE ASSOCIATES, LLC","SUITE 700","8401 COLESVILLE ROAD","SILVER SPRING","MD","20910"
"ADVISORS PREFERRED LLC","1445 RESEARCH BLVD STE 530",,"ROCKVILLE","MD","20850-6197"
"ADVISORS, LLC","SUITE 680","10411 MOTOR CITY DRIVE","BETHESDA","MD","20817"
"ADVISORSHARES INVESTMENTS, LLC","4800 MONTGOMERY LN","STE 150","BETHESDA","MD","20814"
"ADVOCACY DATA, INC.","SUITE 111","4915 AUBURN AVE.","BETHESDA","MD","20814-2677"
"ADVOCACYSMITHS, INC.","4515 DRUMMOND AVENUE",,"CHEVY CHASE","MD","20815"
"AE & MK, INC.","4101 RANDOLPH ROAD",,"SILVER SPRING","MD","20906"
"AE CONSULTING, INC.","16530 HARBOUR TOWN DR",,"SILVER SPRING","MD","20905"
"AE ELECTRIC INC","12234 VEIRS MILL RD",,"SILVER SPRING","MD","20906"
"AE OUTFITTERS RETAIL CO.","PO BOX 52427",,"ATLANTA","GA","30355-0427"
"AE RENTALS LLC","3007 EDGEWOOD RD",,"KENSINGTON","MD","20895"
"AEC FINANCIAL, INC.","14508 CERVANTES AVENUE",,"DARNESTOWN","MD","20874-3350"
"AECD GROUP, LLC","9533 REACH RD",,"POTOMAC","MD","20854-2855"
"AECOM TECHNICAL SERVICES, INC.","4840 COX RD",,"GLEN ALLEN","VA","23060-6292"
"AEF LOCKWOOD, LLC","11305 LOCKWOOD DRIVE",,"WHITE OAK","MD","20904"
"AEG BUILDERS, INC.","6007 GRANBY RD",,"DERWOOD","MD","20855-1472"
"AEG/DCIS, LLC","13728 CREEKSIDE DRIVE STE 410",,"SILVER SPRING","MD","20904-5418"
"AEGIS DENTAL GROUP LLC","14440 LAYHILL RD",,"SILVER SPRING","MD","20906-1911"
"AEGIS INDUSTRIES LLC","2275 RESEARCH BLVD, SUITE 500",,"ROCKVILLE","MD","20850"
"AEGIS PROJECT CONTROLS CORP.","1010 WAYNE AVENUE","SUITE 770","SILVER SPRING","MD","20910-5635"
"AEGIS WEALTH MANAGEMENT LLC","6903 ROCKLEDGE DR",,"BETHESDA","MD","20817-1818"
"AEGIS.NET, INC.","PO BOX 3897",,"MERRIFIELD","VA","22116-3897"
"AEH CARPENTRY AND HOME REPAIR, LLC","12813 BAKER  DR",,"SILVER SPRING","MD","20904"
"AEMAC IMPERIA LLC","UNIT 307","501 KING FARM BOULEVARD","ROCKVILLE","MD","20850"
"AERC 7001 ARLINGTON ROAD, LLC","1 AEC PARKWAY",,"RICHMOND HTS","OH","44143"
"AERO OPCO LLC","125 CHUBB AVENUE,5TH FLOOR",,"LYNDHURST","NJ","07071"
"AERO SPACE CARWASH, LLC","2400 THOMPSON DRIVE",,"MARRIOTTSVILLE","MD","21104"
"AEROSTRESS, INC.","5205 NAHANT STREET",,"BETHESDA","MD","20816"
"AEROTEK SCIENTIFIC, LLC","7301 PARKWAY DR",,"HANOVER","MD","21076-1159"
"AEROTEK, INC.","7301 PARKWAY DRIVE",,"HANOVER","MD","21076"
"AESOLUTIONS, LLC","11404 TALL FOREST CIRCLE",,"GERMANTOWN","MD","20876"
"AESTHETIC COLLECTIVE (THE) LLC","5530 WISCONSIN AVENUE","SUITE 612","CHEVY CHASE","MD","20815"
"AETEA INFORMATION TECHNOLOGY, INC.","STE 300","1445 RESEARCH BLVD","ROCKVILLE","MD","20850-6110"
"AETNA LIFE INSURANCE COMPANY","151 FARMINGTON AVE RT 21",,"HARTFORD","CT","06156-0001"
"AETNA M. THOMPSON, ATTORNEY AT LAW, L.L.","843 QUINCE ORCHARD BLVD SUITE I",,"GAITHERSBURG","MD","20878"
"AEY, INC.","C9","8369 SNOUFFERS SCHOOL ROAD","GAITHERSBURG","MD","20879"
"AF BT SERVICES, LLC","16209 CENTRAL COMMERCE DRIVE",,"PFLUGERVILLE","TX","78660"
"AFEWERKI MOTORS, INC.","947 SELIM RD",,"SILVER SPRING","MD","20910-4924"
"AFFILIATED CONSULTANTS, INC.","7223 DELFIELD STREET",,"CHEVY CHASE","MD","20815"
"AFFILIATED ENGINEERS METRO DC, INC.","800 UNIVERSITY BAY DR STE 200",,"MADISON","WI","53705"
"AFFILIATED ORAL AND MAXILLOFACIAL SURGEO","3401 OLANWOOD COURT, STE 104",,"OLNEY","MD","20832-1485"
"AFFILIATED PET SYSTEMS, L.L.C.","486 NORRISTOWN ROAD","SUITE 133","BLUE BELL","PA","19422"
"AFFILIATES IN PLASTIC SURGERY, LLC","4660 KENMORE AVE #220",,"ALEXANDRIA","VA","22304"
"AFFINITY AIRPORT SEDAN INC.","10318 STRATHMORE HALL STREET #107",,"NORTH BETHESDA","MD","20817"
"AFFLUENT FINANCIAL SERVICES LLC","11806 KIGGER JACK LANE",,"CLARKSBURG","MD","20871"
"AFFORDABLE CHINA, LLC","7613 HONESTY WAY",,"BETHESDA","MD","20817"
"AFFORDABLE CREATIVE SERVICES OF MARYLAND","3554 CHAIN BRIDGE ROAD SUITE 306",,"FAIRFAX","VA","22030-2709"
"AFFORDABLE PRESSURE WASHING SOLUTIONS, L","718 ERIE AVENUE",,"TAKOMA PARK","MD","20912"
"AFGHAN CORPORATION","12335-G- GEORGIA AVE",,"SILVER SPRING","MD","20906-3647"
"AFILON, INC.","1201 SEVEN LOCKS ROAD,SUITE 200",,"ROCKVILLE","MD","20854"
"AFOLABI MARTINS, DDS P.C.","11300 ROCKVILLE PIKE","STE 711","ROCKVILLE","MD","20852"
"AFR, LLC","12227 GALESVILLE DRIVE",,"GAITHERSBURG","MD","20878-2074"
"AFRAND CONSTRUCTION CO., INC.","8316 LILLY STONE DR",,"BETHESDA","MD","20817-4508"
"AFRICAN & CARIBBEAN FOOD CORP.","7645 NEW HAMPSHIRE AVE.",,"TAKOMA PARK","MD","20912"
"AFRICAN AMERICAN BRAIDING CENTER, LLC","701 RUSSEL AVE","SUITE E 201","GAITHERSBURG","MD","20877"
"AFRICAN PALACE, LLC","117 NORTH FREDERICK AVENUE",,"GAITHERSBURG","MD","20877"
"AFRICANFIX LLC","SUITE 300","6701 DEMOCRACY ROAD","BETHESDA","MD","20817"
"AFRICGO INC","8120 FENTON ST","SUITE 301G","SILVER SPRING","VA","20910"
"AFRICURIA, LLC","126 MOORE DRIVE",,"ROCKVILLE","MD","20853"
"AFRIKUTZ, INC.","8217B GEORGIA AVE",,"SILVER SPRING","MD","20910-4520"
"AFRIQUE CUISINE INC","27 CARONA CT",,"SILVER SPRING","MD","20905-7447"
"AFS 401(K) RETIREMENT SERVICES, LLC","7700 OLD GEORGETOWN RD",,"BETHESDA","MD","20814-6100"
"AFS FINANCIAL GROUP, LLC","7700 OLD GEORGETOWN RD","SUITE 630","BETHESDA","MD","20814"
"AFSOON SALON 2 LLC","9619 LOST KNIFE RD.",,"GAITHERSBURG","MD","20877"
"AFTAL, INC.","2911 CABIN CREEK DRIVE",,"BURTONSVILLE","MD","20866"
"AG & K GENERAL CONSTRUCTION LLC","14533 PERRYWOOD DR",,"BURTONSVILLE","MD","20886"
"AG BUILDING AND REMODELING LLC","13701 CREEKSIDE DR",,"SILVER SPRING","MD","20904-5419"
"AG DESIGN, LLC","664 AZALEA DRIVE",,"ROCKVILLE","MD","20850-2003"
"AG INSURANCE, INC.","125 EAST DIAMOND AVE",,"GAITHERSBURG","MD","20877"
"AG-LOWE EXECUTIVE PLAZA OWNER, L.L.C.","245 PARK AVENUE, 26TH FLOOR",,"NEW YORK","NY","10167"
"AGAPE CONSUMER RELATIONS INC.","4600 GRIFFITH ROAD",,"MT AIRY","MD","21771"
"AGAPE VENDING, LLC","5470 PRINCE WILLIAM CT",,"FREDERICK","MD","21703-8699"
"AGAR LIMITED PARTNERSHIP","13321 NEW HAMPSHIRE AVE., STE. 110",,"SILVER SPRING","MD","20904"
"AGASTAR VIDEO AND MULTIMEDIA, LLC","11908 AMBLESIDE DR",,"POTOMAC","MD","20854-2106"
"AGATE, INC.","19847 CENTURY BLVD   STE M",,"GERMANTOWN","MD","20874-7203"
"AGE ONE PEDIATRIC DENISTRY, PROFESSIONAL","14012 WAGON WAY",,"SILVER SPRING","MD","20906"
"AGENCY ONE INSURANCE MARKETING GROUP, IN","11200 ROCKVILLE PIKE","STE 500","ROCKVILLE","MD","20852"
"AGENCY TWO INSURANCE MARKETING GROUP, LL","11200 ROCKVILLE PIKE","SUITE 500","ROCKVILLE","MD","20852"
"AGGER, INC.","9301 SHADY TREE COURT",,"FORT WASHINGTON","MD","20744"
"AGI DEVCO, LLC","12616 BRIDGETON DR",,"POTOMAC","MD","20854-1000"
"AGI MISSION SUPPORT SERVICES, INC.","962 WAYNE AVENUE, STE 325",,"SILVER SPRING","MD","20910-4433"
"AGILE DATA LLC","2090 DUNWOODY CLUB DRIVE","STE 106-202","ATLANTA","GA","30350"
"AGILE DATA SITES CHESAPEAKE, LLC","7226 LEE DEFOREST DR","SUITE 105","COLUMBIA","MD","21046"
"AGILE REAL ESTATE, LLC","100 LIGHT STREET",,"BALTIMORE","MD","21202-1435"
"AGILENT TECHNOLOGIES, INC.","12100 ANDREWS DR",,"PLAIN CITY","OH","43064-9148"
"AGILIOUS LLC","501 BURNT MILLS AVE.",,"SILVER SPRING","MD","20901"
"AGING NETWORK SERVICES, LLC","4400 E WEST HWY",,"BETHESDA","MD","20814-4524"
"AGM COLLEGE PLANNING, LLC","602 FIRESTONE DRIVE",,"SILVER SPRING","MD","20905"
"AGMUS VENTURES, INC.","5575 S SEMORAN BLVD SUITE 505",,"ORLANDO","FL","32822"
"AGNC MORTGAGE MANAGEMENT, LLC","FMA AMERICAN CAPITAL MORTGAGE MANAGEMENT","2 BETHESDA METRO CENTER 12TH FL","BETHESDA","MD","20814"
"AGNES BOLUS-ALIGNAY, D.D.S., P.A.","804 PERSHING DRIVE STE 003",,"SILVER SPRING","MD","20910-4436"
"AGNOVOS HEALTHCARE USA, LLC","7301 CALHOUN PL",,"ROCKVILLE","MD","20855-2740"
"AGORA, LLC","4304 OLD NATIONAL PIKE",,"MIDDLETOWN","MD","20852"
"AGRODOLCE, LLC","21030 J FREDERICK RD",,"GERMANTOWN","MD","20876-4133"
"AGUILAR AND ASSOCIATES, INC.","11510 GEORGIA AVE","STE 101","WHEATON","MD","20902"
"AGUILAR LINARES, INC.","3204 TOWER OAKS BLVD","STE 100","ROCKVILLE","MD","20852"
"AGUIRRE, MINDY R","10400 CONNECTICUT AVE","SUITE 300","KENSINGTON","MD","20895"
"AH MAKHLOUF CPA LLC","2408 MUMFORD DRIVE",,"SILVER SPRING","MD","20906"
"AHA MEDIA GROUP, LLC","11714 KEMP MILL ROAD",,"SILVER SPRING","MD","20902"
"AHADU ETHIOPIAN RESTAURANT LLC","824 8TH STREET","APT 103","LAUREL","MD","20707"
"AHC HAMPTONS LIMITED PARTNERSHIP","1209 N ORANGE ST",,"WILMINGTON","DE","19801-1120"
"AHC WOODLEAF LLC","1501 LEE HIGHWAY","SUITE 303","ARLINGTON","VA","22209"
"AHD MANAGEMENT, INC.","3 BETHESDA METRO CENTER","STE 110","BETHESDA","MD","20814"
"AHD, INC.","STE 110","3 BETHESDA METRO CENTER","BETHESDA","MD","20814"
"AHEARN GREENE ASSOCIATES, LLC","3624 QUEEN MARY DRIVE",,"OLNEY","MD","20832"
"AHERN MANAGEMENT GROUP, INC.","4949 NEW DESIGN ROAD",,"FREDERICK","MD","21703"
"AHESIAN TECHNOLOGY AND SERVICES, INC","13337 REDSPIRE DR",,"SILVER SPRING","MD","20906-6742"
"AHMAD SOOLARI, D.M.D., P.C.","11616 TOULONE LN",,"POTOMAC","MD","20854-3144"
"AHMADI INTERNATIONAL, INC.","7400B LINDBERGH DR",,"GAITHERSBURG","MD","20879-5433"
"AHN & OH CORPORATION","18286 CONTOUR ROAD",,"GAITHERSBURG","MD","20877"
"AHSAN CONSULTING INTERNATIONAL LLC","11603 MILBERN DR0",,"POTOMAC","MD","20854"
"AHSAN, ANEES","7610 CARROLL AVE","STE #410","TAKOMA PARK","MD","20912"
"AI VO DDS, LLC","15715 MURPHYS TIN ST",,"SILVER SPRING","MD","20906"
"AIDAN DESIGN, LLC","8935 BROOKVILLE ROAD",,"SILVER SPRING","MD","20910"
"AIGNER LIMITED PARTNERSHIP","20261 GOLDENROD LN",,"GERMANTOWN","MD","20876-4063"
"AIKAM ENTERPRISES, INC.","13341 QUERY MILL ROAD",,"N. POTOMAC","MD","20878"
"AIL HOSPITALITY, LLC","3 RESEARCH CT",,"ROCKVILLE","MD","20850"
"AIMEE SEIDMAN, M.D., P.C.","9420 KEY WEST AVENUE SUITE 104",,"ROCKVILLE","MD","20850-6369"
"AIMIE CORP.","16825 CRABBS BRANCH WAY",,"DERWOOD","MD","20855-2215"
"AINET, LLC","11700 MONTGOMERY RD",,"BELTSVILLE","MD","20705-1159"
"AINLOO, INC.","509 QUINCE ORCHARD RD",,"GAITHERSBURG","MD","20878"
"AINS, INC.","806 W DIAMOND AVE","STE 400","GAITHERSBURG","MD","20878"
"AIPING SUI, M.D. AND WEI XU, M.D., P.C.","604 S FREDERICK AVE",,"GAITHERSBURG","MD","20877-1275"
"AIR FLOW ENVIRONMENTAL CONTROL, LTD.","7845 AIRPARK RD UNIT H",,"GAITHERSBURG","MD","20879"
"AIR FLOW SERVICES, INC.","1143 TAFT ST",,"ROCKVILLE","MD","20850"
"AIR PRODUCTS AND CHEMICALS, INC.","7201 HAMILTON BLVD",,"ALLENTOWN","PA","18195-1526"
"AIR QUALITY HEATING AND AIR CONDITIONING","100 TULIP DR",,"GAITHERSBURG","MD","20877"
"AIR SUPPLY INC. AIRCONDITIONING & HEATIN","14672 SOUTHLAWN LANE #M",,"ROCKVILLE","MD","20850-1376"
"AIR TECH MANAGEMENT, INC","11820 PARKLAWN DR","#201","ROCKVILLE","MD","20852"
"AIR TEMP TECHNOLOGY INC.","9418 CURRAN RD",,"SILVER SPRING","MD","20901-2804"
"AIR-COOL, INCORPORATED","11900 RENICK LANE",,"SILVER SPRING","MD","20904-2140"
"AIRECO SUPPLY, INC.","PO BOX 414",,"SAVAGE","MD","20763-0414"
"AIRESPRING, INC","PROPERTY TAX DEPARTMENT","7800 WOODLEY AVENUE","VAN NUYS","CA","91406"
"AIRFACTS, INC.","8120 WOODMONT AV","STE 200","BETHESDA","MD","20814"
"AIRGAS USA, LLC","PO BOX 6610",,"RADNOR","PA","19087-8610"
"AIRIN TECHNOLOGIES INC.","10537 MACARTHUR BOULEVARD",,"POTOMAC","MD","20854"
"AIRLINE TARIFF PUBLISHING COMPANY","45005 AVIATION DRIVE","STE 130","DULLES","VA","20166"
"AIRON, INC.","416 N STONESTREET AVE. B4",,"ROCKVILLE","MD","20850-1652"
"AIRPARK 124, LLC","2141 INDUSTRIAL PKWY",,"SILVER SPRING","MD","20904-1988"
"AIRPARK APARTMENTS LIMITED PARTNERSHIP","9710 TRAVILLE GATEWAY DR","PMB 395","ROCKVILLE","MD","20850-7408"
"AIRPARK AUTO MASTERS, INC.","7935 QUEENAIR DR",,"GAITHERSBURG","MD","20879-4137"
"AIRPARK CARPET AND INTERIORS, INC.","7601 H AIRPARK ROAD",,"GAITHERSBURG","MD","20879"
"AIRPARK HOLDINGS LLC","7622 AIRPARK RD",,"GAITHERSBURG","MD","20879-4134"
"AIRPARK PARCEL ""J"" LIMITED LIABILITY COM","SUITE 211","4405 E WEST HWY","BETHESDA","MD","20814-4522"
"AIRPARK PETRO, LLC","19230 WOODFIELD ROAD",,"GAITHERSBURG","MD","20879"
"AIRPARK TOWING, LLC","7905 MUNCASTER MILL RD",,"GAITHERSBURG","MD","20877"
"AIRSHOW, INC.","7014C WESTMORELAND AVE",,"TAKOMA PARK","MD","20912-4490"
"AIRTEK AIR CONDITIONING AND REFRIGERATIO","14650 ROTHGEB DRIVE STE. Q",,"ROCKVILLE","MD","20850-5316"
"AIRWAYS UNLIMITED, INC.","9305 COLUMBIA BOULEVARD",,"SILVER SPRING","MD","20910"
"AIS ENGINEERING, INC.","804 PERSHING DR",,"SILVER SPRING","MD","20910-4434"
"AISHOK CO","14418 BAUER DR.",,"ROCKVILLE","MD","20853"
"AITHERAS, LLC","51 MONROE ST","STE 506","ROCKVILLE","MD","20850"
"AIYER ASSOCIATES, INC.","7207 BRENNON LN",,"CHEVY CHASE","MD","20815-4065"
"AJ & AJ CORPORATION","9902 HEDIN DRIVE",,"SILVER SPRING","MD","20903"
"AJ BAKERY, INC.","19725 GERMANTPWN RD STE B",,"GERMANTOWN","MD","20874"
"AJ'S PLUMBING LLC","21234 HICKORY FOREST WAY",,"GERMANTOWN","MD","20876"
"AJAC, INC.","5400 RANDOLPH RD",,"ROCKVILLE","MD","20852-2616"
"AJAY BAKSHI, M.D., LLC","9406 OLD GEORGETOWN ROAD",,"BETHESDA","MD","20814"
"AJAY GLASS & MIRROR CO., INC.","101 NORTH STREET",,"CANANDAIGUA","NY","14424"
"AJB TRUCKING, INC.","4204 ELBY STREET",,"SILVER SPRING","MD","20906"
"AJC PROFESSIONAL PAINTING INC","3503 FARTHING DR",,"SILVER SPRING","MD","20906-4128"
"AJE NETWORKS, LLC","4512 ADRIAN ST",,"ROCKVILLE","MD","20853"
"AJK, INC.","216 MAIN ST",,"GAITHERSBURG","MD","20878-5524"
"AJMAGH, LLC","11419 ENCORE DRIVE",,"SILVER SPRING","MD","20901-5044"
"AJMAL INTERNATIONAL CONSULTING GROUP, LL","2821 MUNSON ST",,"SILVER SPRING","MD","20902"
"AJN, LLC","17500 COUNTRY VIEW WAY",,"ASHTON","MD","20861"
"AK CYCLES, LLC","8637 ZIGGY LANE",,"GAITHERSBURG","MD","20877"
"AK MEDIA & EVENT CONSULTANT, LLC","10821 HOB NAIL COURT",,"POTOMAC","MD","20854"
"AKAD, INC.","11910 Q PARKLAWN DR",,"ROCKVILLE","MD","20852"
"AKAL, LLC","108 CHERRYWOOD TERRACE",,"GAITHERSBURG","MD","20878"
"AKAMAI TECHNOLOGIES, INC.","8 CAMBRIDGE CTR",,"CAMBRIDGE","MA","02142"
"AKARA RUGS INC.","50 CRAGWOOD ROAD","SUITE # 205","SOUTH PLAINFIELD","MD","07080"
"AKIDESIGN INC.","13 SUMMIT RIDGE CT.",,"GERMANTOWN","MD","20874"
"AKIMA SUPPORT OPERATIONS, LLC","13873 PARK CENTER ROAD","SUITE 400N","HERNDON","VA","20171"
"AKINDE FINANCIAL GROUP, INC.","14100 DARNESTOWN ROAD SUITE D",,"DARNESTOWN","MD","20874"
"AKME INC.","17830 CRICKET HILL DR",,"GERMANTOWN","MD","20874-3457"
"AKPENE'S CASA CORP.","941 BONIFANT ST   UNIT 1",,"SILVER SPRING","MD","20910-4594"
"AKSHAT LLC","21326 EMERALD DRIVE",,"GERMANTOWN","MD","20876"
"AKSUM LLC","3303 SHIRLEY LANE",,"CHEVY CHASE","MD","20815"
"AKTA REAL ESTATE, LLC","#10784","16501 SHADY GROV ROAD","GAITHERSBURG","MD","20898"
"AKVARR, INC.","101 LAKEFOREST BLVD",,"GAITHERSBURG","MD","20877-2611"
"AKZ CONSULTING, LLC","8809 SPRING VALLEY RD",,"CHEVY CHASE","MD","20815"
"AL-HADI SCHOOL, INC.","2825 CABIN CREEK DR",,"BURTONSVILLE","MD","20866"
"ALA GROUP LLC","4026 SIMMS DRIVE",,"KENSINGTON","MD","20895"
"ALADDIN FOOD MANAGEMENT SERVICES, LLC","775 WOODLANDS PKWY STE 100",,"RIDGELAND","MS","39157-5214"
"ALADDIN SURFACES, INC.","7400 LINDBERGH DR",,"GAITHERSBURG","MD","20879-5408"
"ALAM AND OBAIED INC.","280 N FREDERICK AVE",,"GAITHERSBURG","MD","20877"
"ALAN ASSOCIATES, INC.","5950 AGER ROAD",,"HYATTSVILLE","MD","20782"
"ALAN B. KRAVITZ, M.D., P.A.","11119 ROCKVILLE PIKE","SUITE 105","ROCKVILLE","MD","20892-3143"
"ALAN BEER & WINE, INC.","8204 PINEY BRANCH RD",,"SILVER SPRING","MD","20910-4605"
"ALAN COLE PHOTOGRAPHY LLC","17411 KIRSTIN CT",,"OLNEY","MD","20832-2542"
"ALAN EDITS LLC","APT 1704","9039 SLIGO CREEK PKWY","SILVER SPRING","MD","20901-3301"
"ALAN FURMAN & CO., INC.","12250 ROCKVILLE PIKE",,"ROCKVILLE","MD","20852-1600"
"ALAN G. POCINKI, M.D. LLC A/K/A/ ALAN G.","10110 MOLECULAR DRIVE","SUITE 209","ROCKVILLE","MD","20850"
"ALAN H. GRANT, O. D., CHARTERED","7209 ARMAT DRIVE",,"BETHESDA","MD","20817"
"ALAN HERMESCH PUBLIC RELATIONS, LLC","6318 ALCOTT RD",,"BETHESDA","MD","20817-3180"
"ALAN I. SIEGEL & ASSOCIATES, INC.","6 DELFORD AVENUE",,"SILVER SPRING","MD","20904"
"ALAN J. DINKIN, D.D.S., P.A.","SUITE A26","19201 MONTGOMERY VILLAGE AVE","MONTGOMERY VILLAGE","MD","20886-5043"
"ALAN KRESSE PHOTOGRAPHY, LLC","450 TSCHIFFELY SQUARE ROAD",,"GAITHERSBURG","MD","20878"
"ALAN L. BERMAN, PH.D., ABPP, PLLC","7200 MAPLE AVE",,"CHEVY CHASE","MD","20815"
"ALAN L. FARKAS & ASSOCIATES, INC.","3216 LELAND ST",,"CHEVY CHASE","MD","20815-4010"
"ALAN L. GORDON, CPA, P.A.","51 MONROE ST",,"ROCKVILLE","MD","20850-2421"
"ALAN M. LEVINE, DDS, LLC","5530 WISCONSIN AVE   STE 829",,"CHEVY CHASE","MD","20815-4401"
"ALAN PENN & ASSOCIATES, INC.","14 CLEMSON CENTER",,"ROCKVILLE","MD","20850"
"ALAN R. VINITSKY, M.D., LLC","2301 RESEARCH BLVD  STE 220",,"ROCKVILLE","MD","20850"
"ALAN R. WOLCOTT, DDS, P.A. DENTAL HEALTH","1734 ELTON RD    STE 231",,"SILVER SPRING","MD","20903-5722"
"ALAN SISLEN PHOTOGRAPHY, LLC","9139 MCDONALD DRIVE",,"BETHESDA","MD","20817"
"ALAN ZIPP, CPA, PC","932 HUNGERFORD DR STE 13",,"ROCKVILLE","MD","20850"
"ALANIZ CARPET INC.","14200 CANTERBURY LN",,"ROCKVILLE","MD","20853-2014"
"ALARCON DESIGN & BUILD, INC.","11516 SCOTTSBURY TERR",,"GERMANTOWN","MD","20876"
"ALBA ESPRESSO SERVICE LLC","12205 SAINT PETER CT",,"GERMANTOWN","MD","20874-2557"
