OBJECTID,CATEGORY,NAME,ADDRESS,CITY,ZIPCODE,PHONE,URL,DATA,POINT_X,POINT_Y,SHAPE
1,PRIVATE SCHOOL,Acorn Hill Waldorf School,9504 Brunett Ave,Silver Spring,20901,301-565-2282,http://www.acornhill.org/,N-K,1305904.750026430003345,489803.406211070017889,"(39.01159165100006, -77.02262644499996)"
2,PRIVATE SCHOOL,Wonders at Edgemoor Childrens Center,4805 Edgemoor La,Bethesda,20814,301-907-4080,http://www.wonderschildcare.org/about/sites.php,N-P,1290103.000004359986633,473620.40622235002229,"(38.98533916300005, -77.09612247499996)"
3,PRIVATE SCHOOL,St James Childrens School,11815 Seven Locks Rd,Potomac,20854,301-762-3246,http://stjamespotomac.org/school.shtml,N-K,1266031.875031620031223,503913.468747020000592,"(39.05022205600005, -77.16303982799997)"
4,PRIVATE SCHOOL,Ashton Christian Preschool,17314 New Hampshire Ave,Ashton,20861,301-774-7113,http://www.ashtonchurch.org/ashton-christian-preschool,Preschool,1312782.000018189894035,537053.562455690000206,"(39.14132637700004, -76.99842042099993)"
5,PRIVATE SCHOOL,Barnesville School,21830 Peach Tree Rd,Barnesville,20838,301-972-0341,http://www.barnesvilleschool.org/,N-8,1210866.624972450081259,564149.125028089969419,"(39.215173090000064, -77.35811932699994)"
6,PRIVATE SCHOOL,Barrie School,13500 Layhill Rd,Silver Spring,20906,301-576-2800,http://www.barrie.org/,N-12,1298596.749963120091707,513869.437493129982613,"(39.07766131000005, -77.04839042999998)"
7,PRIVATE SCHOOL,Beth El Preschool,8215 Old Georgetown Rd,Bethesda,20814,301-652-8569,http://bethelpreschool.org/,Preschool,1281986.750004279892892,483063.93745750002563,"(38.99304055700003, -77.10677342599996)"
8,PRIVATE SCHOOL,Beth Sholom Early Childhood Center,11825 Seven Locks Rd,Potomac,20854,301-279-7010,http://bethsholom.org/content/preschool,N-K,1266028.750024999957532,504207.812489820003975,"(39.05103021000008, -77.16305268299999)"
9,PRIVATE SCHOOL,Bethesda Community School,7500 Honeywell La,Bethesda,20814,301-652-0117,http://www.bethesdacommunityschool.com/,N-K,1280656.499989540083334,480067.218783450021874,"(38.984808086000044, -77.11144089099997)"
10,PRIVATE SCHOOL,Bethesda Cooperative Nursery School,5033 Wilson La,Bethesda,20814,301-654-1864,http://www.bethesdacoopnurseryschool.org/,Nursery,1283824.999973840080202,481059.062508750008419,"(38.98754148800003, -77.10029799999995)"
11,PRIVATE SCHOOL,Children in the Shoe Rockville,1375 Piccard Dr,Rockville,20850,301-841-7708,http://www.thechildrenintheshoe.com/locations/,N-P,1292209.64648519991897,534441.372270570020191,"(39.10592842800003, -77.17890981999994)"
12,PRIVATE SCHOOL,Goddard School Clarksburg,22010 Frederick Rd,Clarksburg,20841,301-540-1231,http://www.goddardschool.com/,N-K,1246979.045194270089269,533141.805379949975759,"(39.21826647100005, -77.25635338199999)"
13,PRIVATE SCHOOL,Bethesda Country Day School,5615 Beech Ave,Bethesda,20814,301-530-6999,http://www.bethesdacountrydayschool.com/,N-K,1280203.624964579939842,489904.406238159979694,"(39.01181651500008, -77.11307696399996)"
14,PRIVATE SCHOOL,Bethesda Montessori School,7611 Clarendon Rd,Bethesda,20814,301-986-1260,http://www.bethesdamontessori.com/,P-K,1283745.874993110075593,480836.87495853001019,"(38.98693118700004, -77.10057550999994)"
15,PRIVATE SCHOOL,Bnai Israel Schilit Nursery School,6301 Montrose Rd,Rockville,20852,301-881-6550,http://www.bnaiisraelcong.org/template.cfm?cid=304,Nursery,1275793.374966139905155,505231.06250831001671,"(39.05388255200006, -77.12867404899998)"
16,PRIVATE SCHOOL,Laura and Joel Greenzaid ECC,10621 S Glen Rd,Potomac,20854,301-299-1149,https://www.bnaitzedek.org/learn/early-childhood-center,Nursery,1252886.625030539929867,497865.593736800015904,"(39.03354298600004, -77.20927815499994)"
17,PRIVATE SCHOOL,Bradley Hills Presbyterian Church Nursery Sch,6601 Bradley Blv,Bethesda,20817,301-365-2909,http://www.bhpcns.org/,Nursery,1275054.890323109924793,486456.481764830008615,"(39.00233065700007, -77.13117953899996)"
18,PRIVATE SCHOOL,Tikvat Israel ECC,2200 Baltimore Rd,Rockville,20851,301-251-0455,http://tikvatisrael.org/ecc/,N-P,1279168.875015209894627,517414.562527759990189,"(39.087346704000026, -77.11684249499996)"
19,PRIVATE SCHOOL,Butler School ,15951 Germantown Rd,Darnestown,20874,301-977-6600,http://www.butlerschool.org,P-8,1228837.500010940013453,528549.687475459999405,"(39.117608465000046, -77.29428828799996)"
20,PRIVATE SCHOOL,Auburn School,9545 Georgia Ave,Silver Spring,20910,301-588-8048,http://www.theauburnschool.org/SilverSpring.cfm,K-8,1300710.999956710031256,489824.281255320005585,"(39.01164400500005, -77.04090487399998)"
21,PRIVATE SCHOOL,Camp Olympia Country Day School,5511 Muncaster Mill Rd,Rockville,20855,301-926-9281,http://www.camp-olympia.com/,N-K,1281562.625040259910747,529532.749955520033836,"(39.120595337000054, -77.10859204399998)"
22,PRIVATE SCHOOL,Charles E  Smith Jewish Day School Upper,11710 Hunters La,Rockville,20852,301-881-1404,http://www.cesjds.org/,K-6,1283871.374978639883921,503614.218767200014554,"(39.04947104400003, -77.10022196599994)"
23,PRIVATE SCHOOL,Georgetown Hill Apple Ridge Campus,10001 Apple Ridge Rd,Montgomery Village,20886,301-963-3000,http://www.georgetownhill.com/,N-P,1280686.643191050039604,502375.862645810004324,"(39.18564104600006, -77.20662745099997)"
24,PRIVATE SCHOOL,Georgetown Hill North Potomac Campus,14901 Dufief Mill Rd,Gaithersburg,20878,240-454-9488,http://www.georgetownhill.com/,N-P,1231185.875033309916034,523290.968775140005164,"(39.09982255700004, -77.22497976299996)"
25,PRIVATE SCHOOL,Chevy Chase United Methodist Church Preschool,7001 Connecticut Ave,Chevy Chase,20815,301-652-7660,http://www.ccumcpreschool.org/,Preschool,1290542.875001759966835,478389.656233770016115,"(38.98022995400004, -77.07665584199998)"
26,PRIVATE SCHOOL,"Karasik and Family, Infant & Child Care Center",10611 Tenbrook Dr,Silver Spring,20901,301-984-5777,http://thearcmontgomerycounty.org/program-services/children/family-infant-and-child-care-center.html,N-3 Special,1304844.625023280037567,496724.937523310014512,"(39.03059523500008, -77.02636438499997)"
27,PRIVATE SCHOOL,Christ Episcopal School,22 W Jefferson St,Rockville,20850,301-424-6550,http://www.ces-rockville.org/,P-8,1268886.62500534998253,515604.531204400002025,"(39.08296409800005, -77.15386164299997)"
28,PRIVATE SCHOOL,Concord Hill School,6050 Wisconsin Ave,Chevy Chase,20815,301-654-2626,http://www.concordhill.org/,P-3,1286756.875017550075427,474797.124965530005284,"(38.970356406000064, -77.08996161199997)"
29,PRIVATE SCHOOL,Connelly School of The Holy Child,9029 Bradley Blv,Potomac,20854,301-365-0955,http://www.holychild.org/,6-12,1259188.250017639948055,485795.09376986999996,"(39.000438763000034, -77.18700696699995)"
30,PRIVATE SCHOOL,Covenant Life School,7503 Muncaster Mill Rd,Gaithersburg,20877,301-869-4500,http://www.covenantlifeschool.org/,K-12,1269602.375026529887691,541562.8750238600187,"(39.153610351000054, -77.15068617599997)"
31,PRIVATE SCHOOL,Covenant United Methodist Preschool,20301 Pleasant Ridge Dr,Montgomery Village,20886,301-527-9300,http://www.covenantumpreschool.org/,Preschool,1258237.999966890085489,554831.62500621995423,"(39.18998245300003, -77.19085854499997)"
32,PRIVATE SCHOOL,Damascus Community Preschool,23425 Spire St,Clarksburg,20871,301-916-8888,https://www.facebook.com/damascuscommunitypreschool,Preschool,1246313.933649899903685,573232.427938009961508,"(39.241012961000024, -77.27936862899998)"
33,PRIVATE SCHOOL,Torah School of Greater Washington,2010 Linden La,Silver Spring,20910,301-962-8003,http://www.tsgw.org/,K-6,1299700.449852949939668,488524.887139939994086,"(39.008110489000046, -77.04506395699997)"
34,PRIVATE SCHOOL,Academy at Charles Drew,1200 Swingingdale Dr,Silver Spring,20905,301-989-0245,http://www.academychild.com/,Nursery,,,"(39.09193277700007, -76.98724451399994)"
35,PRIVATE SCHOOL,Goddard School Olney,3421 Morningwood Dr,Olney,20832,301-683-9200,http://www.goddardschool.com/,N-K,,,"(39.15076424100005, -77.06852505699999)"
36,PRIVATE SCHOOL,Goddard School Bethesda,6400 Goldsboro Rd,Bethesda,20817,240-630-2400,http://www.goddardschool.com/,N-K,,,"(38.97016535800003, -77.12959034299996)"
37,PRIVATE SCHOOL,Goddard School Silver Spring,8611 Second Ave,Silver Spring,20910,301-830-4505,http://www.goddardschool.com/,N-K,,,"(38.99756249400008, -77.03369991599999)"
38,PRIVATE SCHOOL,Early Learning Fun School,19821 White Ground Rd,Boyds,20841,301-540-3370,http://www.elfschool.org/,Preschool,1223047.938094970071688,551790.884268039953895,"(39.181366206000064, -77.31497641999994)"
39,PRIVATE SCHOOL,Epworth Preschool And Kindergarten,9008 Rosemont Dr,Gaithersburg,20877,301-977-3421,http://www.epworthsteeple.org/ChristianEducationPreschl.html,P-K,1259675.625022229971364,531947.062477399944328,"(39.12715890700008, -77.18562223199996)"
40,PRIVATE SCHOOL,Faith Methodist Church Preschool,6810 Montrose Rd,Rockville,20852,301-881-1416,http://www.faithworkshere.com/preschool.html,Preschool,1272643.37502105999738,505166.750012230011635,"(39.05369325500004, -77.13976608999997)"
41,PRIVATE SCHOOL,First Baptist Church WEE Center,55 Adclare Rd,Rockville,20850,301-762-4245,http://www.theweecenter.org/,Preschool,1263844.499976529972628,516300.343730069987942,"(39.08422116000003, -77.17082365299996)"
42,PRIVATE SCHOOL,Forcey Christian School,2130 E Randolph Rd,Silver Spring,20904,301-622-2281,http://www.forcey.org/pages/page.asp?page_id=160014,P-8,1321721.666404519928619,509221.559466719976626,"(39.06490516100007, -76.96693712099994)"
43,PRIVATE SCHOOL,Foundation School of Montgomery County,220 Girard St,Gaithersburg,20877,301-740-7807,http://www.foundationschools.org/the-foundation-school-of-montgomery-county.html,1-12 Special,1279927.48021324002184,494300.884704050025903,"(39.14217729500007, -77.18329668199993)"
44,PRIVATE SCHOOL,Franklin Montessori Schools,10500 Darnestown Rd,Rockville,20850,301-279-2799,http://www.franklinschoolsmd.com/,N-P,1250602.999958429951221,522321.968778149981517,"(39.100677028000064, -77.21752253799997)"
45,PRIVATE SCHOOL,Frost School,4915 Aspen Hill Rd,Rockville,20853,301-933-3451,http://www.sheppardpratt.org/special-education-services/our-schools/frost-school/,K-Adult Special,1283666.000010800082237,511897.999975020007696,"(39.07221488600004, -77.10097739299994)"
46,PRIVATE SCHOOL,Chabad Hebrew School,11520 Darnestown Rd,North Potomac,20878,301-926-3632,http://www.ourshul.org/templates/section_cdo/aid/1318481/jewish/Chabad-Hebrew-School.htm,K-7 Religious,1244544.250018649967387,525682.187474700040184,"(39.10989147600003, -77.23884507399998)"
47,PRIVATE SCHOOL,JCCGW Preschool And Kindergarten,6125 Montrose Rd,Rockville,20852,301-348-3839,http://www.jccgw.org/preschool/,P-K,1276738.750006560003385,505153.8749849399901,"(39.05367423200005, -77.12534463699996)"
48,PRIVATE SCHOOL,Geneva Day School,11931 Seven Locks Rd,Potomac,20854,301-340-7704,http://www.genevadayschool.org/,N-K,1266313.249973559984937,505313.937496980011929,"(39.05406865000003, -77.16205780199994)"
49,PRIVATE SCHOOL,Georgetown Hill Bells Mill Campus,8311 Bells Mill Rd,Potomac,20854,301-299-2350,http://www.georgetownhill.com/,N-P,1263965.625046269968152,497211.062525259971153,"(39.03180909400004, -77.17027150799998)"
50,PRIVATE SCHOOL,German School Washington,8617 Chateau Dr,Potomac,20854,301-365-4400,http://www.dswashington.org/,P-12,1261818.374982740031555,489570.40627818001667,"(39.010819035000054, -77.17777808899996)"
51,PRIVATE SCHOOL,Glenbrook Cooperative Nursery School,10010 Fernwood Rd,Bethesda,20817,301-365-3190,http://www.glenbrookschool.org/,Nursery,1273732.374991930089891,493207.656227589992341,"(39.02086198200004, -77.13586862399995)"
52,PRIVATE SCHOOL,Good Shepherd Lutheran Preschool,16420 S Westland Dr,Gaithersburg,20877,301-963-1955,http://www.gslp-gaithersburg.org/,Preschool,1260121.500032359967008,531630.062459959997796,"(39.12629102600005, -77.18404826199998)"
53,PRIVATE SCHOOL,Rock Creek Montessori School,3701 Spruell Dr,Silver Spring,20902,301-942-9561,http://www.rockcreekmontessori.com/,N-K,1290204.625032769981772,501381.656256570015103,"(39.04335812700003, -77.07791475699997)"
54,PRIVATE SCHOOL,Graceland Preschool,16819 New Hampshire Ave,Silver Spring,20905,301-989-4673,http://immanuels.org/index.php/ministries/childcare-center,Preschool,1314753.404907220043242,533897.756870029959828,"(39.13266145400007, -76.99147082199994)"
55,PRIVATE SCHOOL,Har Shalom Early Childhood Center,11510 Falls Rd,Potomac,20854,301-299-7087,http://www.harshalomecec.org/,N-P,1257086.318486959906295,501912.200387810007669,"(39.04467913800005, -77.19452397999999)"
56,PRIVATE SCHOOL,Harbor School,7701 Bradley Blv,Bethesda,20817,301-365-1100,http://www.theharborschool.org/,P-2,1267949.499982429901138,490398.625030629977118,"(39.013310656000044, -77.15733381099994)"
57,PRIVATE SCHOOL,Heights School,10400 Seven Locks Rd,Potomac,20854,301-365-4300,http://www.heights.edu/,3-12,1265729.500045170076191,495715.593760930001736,"(39.02771188600008, -77.16405267799996)"
58,PRIVATE SCHOOL,Holton Arms School,7303 River Rd,Bethesda,20817,301-365-5300,http://www.holton-arms.edu/,3-12,1270342.000004820059985,482819.937501289998181,"(38.99232603300004, -77.14774275599996)"
59,PRIVATE SCHOOL,Holy Redeemer School,9715 Summit Ave,Kensington,20895,301-942-3701,http://www.hrs-ken.org/,P-8,1288548.62498203990981,490957.343772829975933,"(39.014732253000034, -77.08371166899997)"
60,PRIVATE SCHOOL,KinderCare Germantown,19921 Frederick Rd,Germantown,20876,301-916-9190,http://www.kindercare.com/our-centers/center-details/000318/,N-K,1244856.372781930025667,552372.37390740995761,"(39.183144094000056, -77.23804806299995)"
61,PRIVATE SCHOOL,KinderCare Shady Grove Road,16723 Crabbs Branch Way,Rockville,20855,301-990-7703,http://www.kindercare.com/our-centers/center-details/301511/,N-K,1265141.405773249920458,532892.382824360043742,"(39.12978332400007, -77.16636131599995)"
62,PRIVATE SCHOOL,Jefferson Montessori School,8507 Emory Grove Rd,Gaithersburg,20877,301-840-8448,http://applemontessorimd.com/jefferson/about/,N-1,1263445.249971739947796,542521.6249991300283,"(39.156212776000075, -77.17240462699993)"
63,PRIVATE SCHOOL,John Nevins Andrews School,117 Elm Ave,Takoma Park,20912,301-270-1400,http://www.jna.org/,P-8,1310564.99999379995279,475935.875041840015911,"(38.97351753100003, -77.00622226899998)"
64,PRIVATE SCHOOL,Julia Brown Montessori School,1300 Milestone Dr,Silver Spring,20904,301-622-7808,http://juliabrownmontessorischools.com/,N-3,1315931.249961680034176,502808.499968939984683,"(39.04730102000008, -76.98733376999996)"
65,PRIVATE SCHOOL,Kensington Nursery School,3202 Decatur Ave,Kensington,20895,301-933-0041,http://www.knscoop.org/,Nursery,1293393.999967809999362,497990.46872100001201,"(39.03405395800007, -77.06667664199995)"
66,PRIVATE SCHOOL,Children in the Shoe Bethesda E/W,4330 East West Hwy,Bethesda,20814,301-656-5056,http://www.thechildrenintheshoe.com/locations/,N-P,1292209.64648519991897,534441.372270570020191,"(38.98524037200008, -77.08797900399998)"
67,PRIVATE SCHOOL,Children in the Shoe Bethesda BCC,4401 East West Hwy,Bethesda,20814,301-654-9253,http://www.thechildrenintheshoe.com/locations/,N-P,1292209.64648519991897,534441.372270570020191,"(38.98566507800007, -77.08983896399997)"
68,PRIVATE SCHOOL,KinderCare Great Seneca,13230 Clopper Mill Dr,Germantown,20874,301-515-0888,http://www.kindercare.com/our-centers/center-details/301470/,N-K,1234153.124965009978041,539799.875026809982955,"(39.14854257400003, -77.27567291299994)"
69,PRIVATE SCHOOL,King David Nursery School,200 Rollins Ave,Rockville,20850,301-984-9640,http://kdpreschool.com/,N-P,1276359.500044160056859,506819.031281710020266,"(39.05824475500003, -77.12668825999998)"
70,PRIVATE SCHOOL,Learning Center For Young Children,10123 Connecticut Ave,Kensington,20895,301-949-2933,http://www.warnermemorial.org/lcyc,Nursery,1290772.512175099924207,493893.83672086999286,"(39.02280028600006, -77.07589337799999)"
71,PRIVATE SCHOOL,Lone Oak Montessori School Potomac,10201 Democracy Blv,Potomac,20854,301-469-4888,http://www.loneoakmontessori.com/,P-6,1258436.000012590084225,494778.406284609984141,"(39.02509986600006, -77.18971963799999)"
72,PRIVATE SCHOOL,Lone Oak Montessori School Bethesda,10100 Old Georgetown Rd,Bethesda,20814,301-469-4888,http://www.loneoakmontessori.com/,P-6,1277232.500024660024792,493338.437544420012273,"(39.02123472100004, -77.12354964199994)"
73,PRIVATE SCHOOL,Pathways School Edgewood,801 University Blv W,Silver Spring,20901,301-681-4112,http://www.pathwayschools.org/programs/pathways-school-edgewood.php,9-Adult Special,1306206.000010499963537,497054.093793149979319,"(39.03149997600008, -77.02157228399994)"
74,PRIVATE SCHOOL,Lutheran Church Of St Andrew Preschool,15300 New Hampshire Ave,Silver Spring,20905,301-384-2660,http://www.mystandrew.org/?q=content/preschool,Preschool,1298321.375033899908885,506052.031245400023181,"(39.10769341500003, -77.00146400699998)"
75,PRIVATE SCHOOL,Children of The Cross Preschool,12801 Falls Rd,Rockville,20854,301-762-7566,http://www.lccrockville.org/preschool.htm,Preschool,1264402.375037059886381,511136.343723399972077,"(39.07004548000003, -77.16882467599999)"
76,PRIVATE SCHOOL,Lycee Rochambeau Forest Rd Campus,9600 Forest Rd,Bethesda,20814,301-530-8260,http://www.rochambeau.org/,5-12,1279974.750040430109948,490573.687480969994795,"(39.01365337300007, -77.11388538499995)"
77,PRIVATE SCHOOL,Lycee Rochambeau Rollingwood Campus,3200 Woodbine St,Chevy Chase,20815,301-907-3265,http://www.rochambeau.org/,1-4,1294256.875020350096747,480862.593786420009565,"(38.98702775400005, -77.06359695599997)"
78,PRIVATE SCHOOL,Manor Montessori School Potomac,10500 Oaklyn Dr,Potomac,20854,301-299-7400,http://www.manormontessori.com/,N-3,1250718.750016780104488,487609.187461599998642,"(39.00536826900003, -77.21682414299994)"
79,PRIVATE SCHOOL,Manor Montessori School Rockville,11200 Old Georgetown Rd,Rockville,20852,301-299-7400,http://www.manormontessori.com/,N-3,1277210.124977240106091,499680.999978050007485,"(39.038649287000055, -77.12365863899998)"
80,PRIVATE SCHOOL,Mary of Nazareth School,14131 Seneca Rd,Darnestown,20874,301-869-0940,http://www.maryofnazareth.org/,P-8,1226987.125015689991415,523031.28123893000884,"(39.10244047500004, -77.30074591999994)"
81,PRIVATE SCHOOL,McLean School of Maryland,8224 Lochinver La,Potomac,20854,301-299-8277,http://www.mcleanschool.org/,K-12,1264764.499963159905747,499850.156282740004826,"(39.03905924500003, -77.16747627299998)"
82,PRIVATE SCHOOL,Melvin J  Berman Hebrew Academy,13300 Arctic Ave,Rockville,20853,301-962-9400,http://www.mjbha.org/,P-12,1283649.249975299928337,512588.718716509989463,"(39.074111310000035, -77.10103908499997)"
83,PRIVATE SCHOOL,Mill Creek Parish Preschool,7101 Horizon Ter,Derwood,20855,301-926-3592,http://www.mcpp.org/,Preschool,1271994.864858180051669,539033.489240120048635,"(39.14667620600005, -77.14223556099995)"
84,PRIVATE SCHOOL,St Peters School,2900 Sandy Spring Rd,Olney,20832,301-774-9112,http://www.stpetersschoololney.org/pages/St__PetersSchool,P-8,1295151.749953730031848,539833.687458239961416,"(39.148943865000035, -77.06058639799994)"
85,PRIVATE SCHOOL,St Martin Of Tours School,115 S Frederick Ave,Gaithersburg,20877,301-990-2441,http://www.smsmd.org/,P-8,1257070.875017429934815,536419.124966620001942,"(39.13942254500006, -77.19483766899998)"
86,PRIVATE SCHOOL,Gaithersburg Presbyterian Prsch And Kndrgtn,610 S Frederick Ave,Gaithersburg,20877,301-977-5787,http://www.gppk.com/,P-K,1259272.37500896002166,532784.375022509950213,"(39.12945558400003, -77.18704974399998)"
87,PRIVATE SCHOOL,Seneca Academy,15601 Germantown Rd,Darnestown,20874,301-869-3728,http://www.senecaacademy.org/,P-5,1227270.374961599940434,526293.187460849992931,"(39.11139898500005, -77.29978555599996)"
88,PRIVATE SCHOOL,Academy At DuFief,15001 Dufief Dr,Gaithersburg,20878,301-309-1224,http://www.academychild.com/,N-P,1244862.375038479920477,522700.374965390015859,"(39.101676687000065, -77.23775426299994)"
89,PRIVATE SCHOOL,Resurrection Preschool,3315 Greencastle Rd,Burtonsville,20866,301-288-4665,http://www.resurrectionadw.org/index.php/2012-08-14-15-04-20/preschool,Preschool,1328281.374960330082104,520977.562506780028343,"(39.09717423400008, -76.94380872299996)"
90,PRIVATE SCHOOL,Childway,4058 Blackburn La,Burtonsville,20866,301-384-5753,http://www.childway.com/,N-P,1332197.968807729892433,524978.944118030020036,"(39.10815314000007, -76.92999763899996)"
91,PRIVATE SCHOOL,Georgetown Hill Woodley Gardens Campus,850 Nelson St,Rockville,20850,240-453-9047,http://www.georgetownhill.com/,N-P,1263641.500013730023056,519659.406291040009819,"(39.093442896000056, -77.17156104099996)"
92,PRIVATE SCHOOL,Diener School,11510 Falls Rd,Potomac,20854,301-299-4602,http://www.thedienerschool.org/,K-6 Special,,,"(39.04496638100005, -77.19343492599995)"
93,PRIVATE SCHOOL,Chabad Hebrew School of Potomac,11621 Seven Locks Rd,Potomac,20854,240-621-0770,http://www.chabadpotomac.com/templates/section_cdo/aid/1305060/jewish/HEBREW-SCHOOL.htm,K-7 Religious,,,"(39.047851983000044, -77.16164045899995)"
94,PRIVATE SCHOOL,Muslim Community School,7917 Montrose Rd,Potomac,20854,301-340-6713,http://www.mymcs.org/,P-8,1265428.999969210010022,506693.374975730024744,"(39.057851768000035, -77.16518038999999)"
95,PRIVATE SCHOOL,Green Acres School,11701 Danville Dr,Rockville,20852,301-881-4100,http://www.greenacres.org/,P-8,1275519.000039040111005,503441.53122840001015,"(39.04896802900004, -77.12963128199993)"
96,PRIVATE SCHOOL,Goddard School Gaithersburg,900 Wind River La,Gaithersburg,20878,301-208-8787,http://www.goddardschool.com/,N-K,1246979.045194270089269,533141.805379949975759,"(39.13035977700008, -77.23038849799997)"
97,PRIVATE SCHOOL,Apple Montessori School,7210 Hidden Creek Rd,Bethesda,20817,301-320-8832,http://applemontessorimd.com/,N-K,1271531.760566960088909,477824.37278057000367,"(38.98084126100008, -77.14997231199999)"
98,PRIVATE SCHOOL,Brookewood School (Avalon School),10401 Armory Ave,Kensington,20895,301-949-7997,http://www.brookewood.org/,1-12,1291122.746930150082335,495192.369110419997014,"(39.02636643900007, -77.07466433999997)"
99,PRIVATE SCHOOL,Siena School,1300 Forest Glen Rd,Silver Spring,20910,301-244-3600,http://www.thesienaschool.org/,4-12,1300388.38016295991838,491007.10519094002666,"(39.01686447800006, -77.03070228899998)"
100,PRIVATE SCHOOL,Georgetown Preparatory School,10900 Rockville Pike,North Bethesda,20852,301-493-5000,http://www.gprep.org/,9-12,1281191.875002379994839,497972.500003029999789,"(39.03239098800003, -77.10929139399997)"
101,PRIVATE SCHOOL,Academy of the Holy Cross,4920 Strathmore Ave,Kensington,20895,301-942-2100,http://www.academyoftheholycross.org/,9-12,1283925.750000400003046,497075.187517740007024,"(39.031517155000074, -77.10000527799997)"
102,PRIVATE SCHOOL,Millian Methodist Preschool,13025 Grenoble Dr,Rockville,20853,301-946-2222,http://www.millianchurch.org/millian-preschool.html,Preschool,1287159.750030030030757,511308.312487300019711,"(39.07060577100003, -77.08866932899997)"
103,PRIVATE SCHOOL,Montgomery Methodist Childrens Center,28325 Kemptown Rd,Damascus,20872,301-253-4884,http://www.mmchildrenscenter.org/wordpress/,Preschool,1254968.748553639976308,603661.419322210014798,"(39.324026167000056, -77.20277558399994)"
104,PRIVATE SCHOOL,Montrose Christian School,5100 Randolph Rd,Rockville,20852,301-770-5335,http://www.montrosechristian.org/,K-12,1283168.1381664799992,504851.074604930006899,"(39.05286489300005, -77.10270308799994)"
105,PRIVATE SCHOOL,Mother of God School,20501 Goshen Rd,Gaithersburg,20879,301-990-2088,www.mogschool.com,P-8,1260107.37500242004171,555951.000041470048018,"(39.19306632000007, -77.18427110699997)"
106,PRIVATE SCHOOL,Norwood School,8821 River Rd,Bethesda,20817,301-365-2595,http://www.norwoodschool.org/,K-8,1262055.388387120096013,486549.778989510028623,"(39.00252659000006, -77.17692337399995)"
107,PRIVATE SCHOOL,Ohr Kodesh Early Childhood Center,8300 Meadowbrook Ln,Chevy Chase,20815,301-589-3880,http://ohrkodesh.org/early-childhood-center,Preschool,1295054.875028880080208,483258.218721940007526,"(38.99360692700003, -77.06079513099996)"
108,PRIVATE SCHOOL,Olney Adventist Preparatory School,4100 Olney Laytonsville Rd,Olney,20832,301-570-2500,http://www.olneyprep.org/,K-8,1288955.917356160003692,544711.566346119972877,"(39.162323241000024, -77.08244909099994)"
109,PRIVATE SCHOOL,Oneness Family School,6701 Wisconsin Ave,Chevy Chase,20815,301-652-7751,http://www.onenessfamily.org/,N-8,1286634.250038119964302,477410.624988880008459,"(38.97753199700003, -77.09040201899995)"
110,PRIVATE SCHOOL,Potomac Glen Day School,9908 S Glen Rd,Potomac,20854,301-299-9193,http://www.potomacglendayschool.com/,N-K,1253990.500032929936424,495446.124977360013872,"(39.02695460700005, -77.20584070599995)"
111,PRIVATE SCHOOL,Potomac Nursery School,12300 Falls Rd,Potomac,20854,301-340-0579,http://potomacnurseryschool.com/,Nursery,1261664.000029500108212,506771.093726849998347,"(39.058045701000026, -77.17843969899997)"
112,PRIVATE SCHOOL,Primary Day School,7300 River Rd,Bethesda,20817,301-365-4355,http://www.theprimarydayschool.org/,P-2,1269889.124979859916493,481337.531217899988405,"(38.988253763000046, -77.14932759699997)"
113,PRIVATE SCHOOL,Gates of Discovery Rose & Geo Teller Presch,16620 Georgia Ave,Olney,20832,301-593-3410,http://www.shaaretefila.org/olney_preschool/,Preschool,1291577.225548639893532,532276.384230019990355,"(39.12818725400007, -77.07316918899994)"
114,PRIVATE SCHOOL,Shaare Torah Nursery School,1409 Main St,Gaithersburg,20878,301-869-9842,http://www.shaaretorah.org/life-long-learning/nursery-school.html,Nursery,1245150.827688009943813,528496.538802600000054,"(39.11742842100006, -77.23635627299996)"
115,PRIVATE SCHOOL,Rockville Nursery School and Kindergarten,301 Adclare Rd,Rockville,20850,301-762-2678,http://www.rnsandk.com/,N-K,1264025.124985399888828,515726.343728860025294,"(39.08263853600005, -77.17059805899999)"
116,PRIVATE SCHOOL,Rockville Presbyterian Coop Nursery School,215 W Montgomery Ave,Rockville,20850,301-762-1293,http://www.rpcns.org/,Nursery,1267505.918077389942482,516460.446257149975281,"(39.08467884700008, -77.15792584299999)"
117,PRIVATE SCHOOL,Crestview Montessori School,4728 Western Ave,Bethesda,20816,301-910-4728,http://crestviewmontessori.com/,N-K,,,"(38.95182452500006, -77.09768454199997)"
118,PRIVATE SCHOOL,Paint Branch Montessori School,10309 New Hampshire Ave,Hillandale,20903,301-434-0373,http://pbmontessori.com/,P-6,,,"(39.025462136000044, -76.97980577999994)"
119,PRIVATE SCHOOL,Sandy Spring Friends School,16923 Norwood Rd,Sandy Spring,20860,301-774-7455,http://www.ssfs.org/,P-K,1304841.500016659963876,534481.812520829960704,"(39.13426238100004, -77.02641384599997)"
120,PRIVATE SCHOOL,Silver Spring Nursery School,10309 New Hampshire Ave,Silver Spring,20903,301-434-2313,http://www.silverspringnurseryschool.org/,Preschool,1318096.547090400010347,494973.116869340010453,"(39.025786502000074, -76.97971573299998)"
121,PRIVATE SCHOOL,Silver Spring Presbyterian Church Childrens Ctr,580 University Blv E,Silver Spring,20901,301-439-2942,http://www.sspcchildrenscenter.com/,N-P,1313812.180773129919544,487079.482804830011446,"(39.00411466000003, -76.99479831999997)"
122,PRIVATE SCHOOL,Spencerville Adventist Academy,2502 Spencerville Rd,Silver Spring,20868,301-421-9101,http://www.spencervilleacademy.org/,P-12,1318756.499966379953548,528242.687479209969752,"(39.11660789600006, -76.95802039599994)"
123,PRIVATE SCHOOL,St Andrews Episcopal School Postoak Road,8804 Postoak Rd,Potomac,20854,301-983-5200,http://www.saes.org,3-12,1262225.500004220055416,502435.718793620006181,"(39.04666687500003, -77.17634493399999)"
124,PRIVATE SCHOOL,St Bartholomew School,6900 River Rd,Bethesda,20817,301-229-8654,http://www.stbartholomew.org/school/,P-8,1272374.500012130010873,479783.343742720026057,"(38.983997259000034, -77.14057525699997)"
125,PRIVATE SCHOOL,St Elizabeth School,917 Montrose Rd,Rockville,20852,301-881-1824,http://www.stelizabethschoolmd.org/,P-8,1273708.500034820055589,505642.531218879972585,"(39.055004008000026, -77.13601787199997)"
126,PRIVATE SCHOOL,St Andrews Episcopal School Potomac Village,10033 River Rd,Potomac,20854,301-983-5200,http://www.saes.org,P-2,1253551.375037109944969,492027.312476729974151,"(39.017517104000035, -77.20689140099995)"
127,PRIVATE SCHOOL,St John The Baptist School,12319 New Hampshire Ave,Silver Spring,20904,301-622-3076,http://www.sjbsilverspring.org/school/,K-8,1313491.750026650028303,506853.375034380005673,"(39.05840752100005, -76.99592278799997)"
128,PRIVATE SCHOOL,Don Bosco Cristo Rey High School,1010 Larch Ave,Takoma Park,20912,301-891-4750,http://www.donboscocristorey.org/,9-12,,,"(38.97721091900007, -76.99053019099995)"
129,PRIVATE SCHOOL,CHI Centers - Hillandale Center,10501 New Hampshire Ave,Silver Spring,20903,301-445-3350,http://www.chicenters.org/,Adult Special,,,"(39.027769757000044, -76.98088100599995)"
130,PRIVATE SCHOOL,Echelon Academy,900 Olney Sandy Spring Rd,Sandy Spring,20860,301-570-0999,http://echelonacademy.com/,K-12,,,"(39.14936418000008, -77.02681536299997)"
131,PRIVATE SCHOOL,Feynman School,7730 Bradley Blvd,Bethesda,20817,301-365-1212,http://www.feynmanschool.org/,P-4,1227270.374961599940434,526293.187460849992931,"(39.01168768900004, -77.15859121499994)"
132,PRIVATE SCHOOL,School for Tomorrow,13313 Old Columbia Pik,Burtonsville,20904,301-460-4747,http://www.schoolfortomorrow.net/,4-12,1286678.12503762007691,519026.343711389985401,"(39.07495584600008, -76.95767430199999)"
133,PRIVATE SCHOOL,St John The Evangelist School,10201 Woodland Dr,Silver Spring,20902,301-681-7656,http://sjte.org/,P-8,1300021.499991169897839,493889.812497680017259,"(39.02280582100008, -77.04333822899997)"
134,PRIVATE SCHOOL,St Johns Christian Preschool,4629 Aspen Hill Rd,Rockville,20853,301-946-4977,http://sjkidspreschool.org/,Preschool,1285577.875042909989133,513255.593727589992341,"(39.07594798200006, -77.09424812699996)"
135,PRIVATE SCHOOL,St Luke Christian Day School,9100 Colesville Rd,Silver Spring,20910,301-588-3866,http://saintlukekids.org/,N-P,1305566.124963149894029,487450.250045439985115,"(39.00513036500007, -77.02381600899997)"
136,PRIVATE SCHOOL,Village Montessori School,20301 Fulks Farm Rd,Montgomery Village,20886,301-977-5766,http://vms-md.com/,N-K,1262500.125025339890271,553388.000031659961678,"(39.186042378000025, -77.17581137399998)"
137,PRIVATE SCHOOL,Washington Hebrew Cong Early Childhood Ctr,11810 Falls Rd,Potomac,20854,301-279-7505,http://www.whcecc.org/,N-K,1258325.124964569928125,503986.562488330004271,"(39.05038181000003, -77.19017743899997)"
138,PRIVATE SCHOOL,Wesley Nursery School,8300 Old Georgetown Rd,Bethesda,20814,301-654-5285,http://www.wesleynurseryschool.org/,N-P,1281451.47502904990688,483207.54350233997684,"(38.993433122000056, -77.10865733299994)"
139,PRIVATE SCHOOL,Westmoreland Childrens Ctr Circle Campus,1 Westmoreland Cir,Bethesda,20816,301-320-2020,http://www.westmorelandchildrenscenter.com/,N-P,1283416.625043200096115,467177.656216609990224,"(38.94942584300003, -77.10168031399996)"
140,PRIVATE SCHOOL,Westmoreland Childrens Ctr Pilgrim Campus,5500 Massachusetts Ave,Bethesda,20816,301-229-8766,http://www.westmorelandchildrenscenter.com/,N-P,1280847.875021199928597,470431.624968449992593,"(38.958352138000066, -77.11072651999996)"
141,PRIVATE SCHOOL,Westmoreland Childrens Ctr Westbrook Campus,5112 Allan Ter,Bethesda,20816,301-229-7055,http://www.westmorelandchildrenscenter.com/,N-P,1283089.000003230059519,470478.031293430016376,"(38.958486755000024, -77.10284539399998)"
142,PRIVATE SCHOOL,Winchester School,3223 Bel Pre Rd,Silver Spring,20906,301-598-2266,http://www.thewinchesterschool.org/,P-2,1293982.750000290106982,519118.59371992998058,"(39.09206580100005, -77.06465667899994)"
143,PRIVATE SCHOOL,Woods Academy,6801 Greentree Rd,Bethesda,20817,301-365-3080,http://www.woodsacademy.org/,P-12,1273049.875041220104322,488744.374983610003255,"(39.00860438800004, -77.13824706899999)"
144,PRIVATE SCHOOL,Yeshiva Of Greater Washington Boys Campus,1216 Arcola Ave,Silver Spring,20902,301-649-7077,http://www.yeshiva.edu/BOYSDIVISION/tabid/54/Default.aspx,7-12,1303665.374954619910568,501028.156255249981768,"(39.04240948200004, -77.03052069899996)"
145,PRIVATE SCHOOL,YISE Nursery School,813 University Blv W,Silver Spring,20901,301-593-7365,http://nursery.yise.org/,N-P,1306026.750004539964721,497236.062484750000294,"(39.03202141600008, -77.02225972199994)"
146,PRIVATE SCHOOL,Bullis School,10601 Falls Rd,Potomac,20854,301-299-8500,http://www.bullis.org/,2-12,1255401.750032369978726,495983.031220070028212,"(39.02838957700004, -77.20040940299998)"
147,PRIVATE SCHOOL,Early Childhood School at Bnai Shalom of Olney,18401 Burtfield Dr,Olney,20832,301-570-0699,http://www.ecsolney.org/,P-K,1291483.823611699976027,543337.687966660014354,"(39.158557055000074, -77.07352984599999)"
148,PRIVATE SCHOOL,Holy Cross School,4900 Strathmore Ave,Garrett Park,20896,301-949-1699,http://www.hcross.org/,P-8,1284701.249961229972541,497990.000040119979531,"(39.03403123700008, -77.09727872599996)"
149,PRIVATE SCHOOL,Outdoor Nursery School,8922 Spring Valley Rd,Chevy Chase,20815,301-656-8871,http://www.outdoornurseryschool.org/,Nursery,1289353.375004869885743,487162.218769280007109,"(39.00431399400003, -77.08086755199997)"
150,PRIVATE SCHOOL,NIST Child Care Center,601 Quince Orchard Rd,Gaithersburg,20899,301-975-2152,http://www.nist.gov/ccc/,Nursery,1248708.641698670107871,533285.375803919974715,"(39.13080533400006, -77.22457733599998)"
151,PRIVATE SCHOOL,TLC Katherine Thomas School,9975 Medical Center Dr,Rockville,20850,301-738-9691,http://ttlc.org/katherine_thomas_school/,P-12 Special,1254744.000040630111471,521893.781258769973647,"(39.09952756600006, -77.20292751999995)"
152,PRIVATE SCHOOL,Pleasant Plains Preschool,9700 New Church St,Damascus,20872,301-253-9798,http://www.damascusumc.org/#christform/Pleasant_Plains_Preschool.php,Preschool,1255613.914936060085893,589723.715322869946249,"(39.28576440300003, -77.20038689899997)"
153,PRIVATE SCHOOL,Potomac Valley Assembly Academy,22901 Ridge Rd,Germantown,20876,301-253-1022,http://academy.pvachurch.com/,Preschool,1245748.375046540051699,570775.374955300008878,"(39.23367685300008, -77.23506843999996)"
154,PRIVATE SCHOOL,Mater Amoris Montessori School,18501 Mink Hollow Rd,Ashton,20861,301-774-7468,http://www.materamoris.com/,N-6,1312741.006475809961557,543924.030832470045425,"(39.16018996400004, -76.99856457299995)"
155,PRIVATE SCHOOL,Julia Brown Montessori School,3400 Queen Mary Dr,Olney,20832,301-774-5700,http://juliabrownmontessorischools.com/,N-3,1293171.249963149894029,539519.56254038005136,"(39.14807758500007, -77.06756903099995)"
156,PRIVATE SCHOOL,Ivymount School,11614 Seven Locks Rd,Rockville,20854,301-469-0223,http://www.ivymount.org/,P-Adult Special,1266226.499976669903845,502466.187538079975639,"(39.04624925600007, -77.16234544899999)"
157,PRIVATE SCHOOL,Fourth Presbyterian School,10701 S Glen Rd,Potomac,20854,301-765-8133,http://www.fourthschool.org/,P-8,1252654.125005210051313,498564.781269619998056,"(39.035461260000034, -77.21010230999997)"
158,PRIVATE SCHOOL,St Francis International School,1500 St Camillus Dr,Silver Spring,20903,301-434-2344,http://www.saintfrancisinternational.org/,P-8,1317149.875020310049877,489320.156215230002999,"(39.01026575600008, -76.98305171899995)"
159,PRIVATE SCHOOL,St Bernadette School,80 University Blv E,Silver Spring,20901,301-593-5611,http://saintbernadetteschool.org/,K-8,1310006.750025969929993,492767.062455279985443,"(39.019730838000044, -77.00819118499999)"
160,PRIVATE SCHOOL,Sligo Adventist School,8300 Carroll Ave,Takoma Park,20912,301-434-1417,http://sligoadventistschool.org/,K-8,1314063.125022300053388,482970.781220410019159,"(38.99283335000007, -76.99391622599995)"
161,PRIVATE SCHOOL,Washington McLaughlin Christian School,6501 Poplar Ave,Takoma Park,20912,301-270-2760,http://www.privateschoolreview.com/school_ov/school_id/12840,P-6,1312455.124979810090736,475265.375023079977836,"(38.97167669300006, -76.99957390599997)"
162,PRIVATE SCHOOL,Spring Bilingual Montessori Academy,3514 Plyers Mill Rd,Kensington,20895,301-962-7262,http://www.spring-bilingual.org/,N-P,1291827.334904490038753,496410.672459309978876,"(39.02971307000007, -77.07218755699995)"
163,PRIVATE SCHOOL,Cedar Lane Nursery School,9601 Cedar La,Bethesda,20814,301-564-1680,http://clns.org/,Nursery,1286950.999961540102959,490370.687518169987015,"(39.01311731800007, -77.08933242499995)"
164,PRIVATE SCHOOL,Grace Episcopal Day School,9411 Connecticut Ave,Kensington,20895,301-949-5860,http://www.geds.org/,P-5,1289605.749978830106556,489348.406275100016501,"(39.01031720900005, -77.07998619799997)"
165,PRIVATE SCHOOL,Stone Ridge School of The Sacred Heart,9101 Rockville Pik,Bethesda,20814,301-657-4322,http://www.stoneridge.org/,P-12,1285163.750006590038538,487684.312527340021916,"(39.00579666500005, -77.09539596399998)"
166,PRIVATE SCHOOL,St Jane de Chantal School,9525 Old Georgetown Rd,Bethesda,20814,301-530-1221,http://www.dechantal.org/,K-8,1279416.49997910996899,490134.156257660011761,"(39.012444628000026, -77.11584812999996)"
167,PRIVATE SCHOOL,Our Lady of Lourdes Catholic School,7500 Pearl St,Bethesda,20814,301-654-5376,http://www.bethesda-lourdes.org/,P-8,1286311.244585359934717,480491.114689400012139,"(38.98598924300006, -77.09154909699998)"
168,PRIVATE SCHOOL,Sidwell Friends Lower School,5100 Edgemoor La,Bethesda,20814,202-537-6900,http://www.sidwell.edu/lower_school/index.asp,P-4,1283692.749974010046571,479839.781222109973896,"(38.98367135700005, -77.10051233499996)"
169,PRIVATE SCHOOL,Bethesda Chevy Chase Nursery School,4700 Norwood Dr,Chevy Chase,20815,301-986-0677,http://www.bccnurseryschool.org/,Nursery,1285685.374990290030837,476621.124998370010871,"(38.975345170000026, -77.09406543899996)"
170,PRIVATE SCHOOL,Washington Episcopal School,5600 Little Falls Pkw,Bethesda,20816,301-652-7878,http://www.w-e-s.org/,N-8,1283429.374976729974151,473203.531273700005841,"(38.96597126100005, -77.10165907799995)"
171,PRIVATE SCHOOL,Little Flower School,5601 Massachusetts Ave,Bethesda,20816,301-320-3273,http://littleflowerschool.org/,P-8,1280406.692616390064359,471112.412032200023532,"(38.960219909000045, -77.11228095999996)"
172,PRIVATE SCHOOL,Washington Waldorf School,4800 Sangamore Rd,Bethesda,20816,301-229-6107,http://www.washingtonwaldorf.org/,1-12,1277661.62499928008765,468261.812497330014594,"(38.95238328600004, -77.12192133299999)"
173,PRIVATE SCHOOL,Landon School,6101 Wilson La,Bethesda,20817,301-320-3200,http://www.landon.net/,3-12,1276186.749958480009809,482314.875005949987099,"(38.99096344700007, -77.12717639799996)"
174,PRIVATE SCHOOL,Bannockburn Nursery School,6314 Bannockburn Dr,Bethesda,20817,301-320-4252,http://www.bns-web.com/,Nursery,1272069.500020120060071,476047.968772320018616,"(38.973739712000054, -77.14162784099994)"
175,PRIVATE SCHOOL,Suburban Nursery School,7210 Hidden Creek Rd,Bethesda,20817,301-229-1465,http://www.suburbannurseryschool.org/,Nursery,1269652.37503902008757,478681.999972329998855,"(38.98096139100005, -77.15014515299998)"
176,PRIVATE SCHOOL,Our Lady of Mercy School,9222 Kentsdale Dr,Potomac,20854,301-365-4477,http://www.schoololom.org/pages/OLOM,K-8,1262917.374974800040945,488990.187490409996826,"(39.00923174800005, -77.17390653099994)"
177,PRIVATE SCHOOL,Mater Dei School,9600 Seven Locks Rd,Bethesda,20817,301-365-2700,http://www.materdeischool.net/,1-8,1266427.750029260059819,490926.437480700027663,"(39.014565797000046, -77.16156493299997)"
178,PRIVATE SCHOOL,St Johns Episcopal School,3427 Olney Laytonsville Rd,Olney,20832,301-774-6804,http://www.stjes.com/,P-8,1292886.500014059944078,542056.625041960040107,"(39.155042768000044, -77.06857979799997)"
179,PRIVATE SCHOOL,Machane Temple Beth Ami,14330 Travilah Rd,Rockville,20850,301-340-6818,http://www.bethami.org/EDUCATION/RELIGIOUS/,N-12,1252655.768426789902151,520324.402277940011118,"(39.09520565100007, -77.21027297499995)"
180,PRIVATE SCHOOL,Ridge School,14901 Broschart Rd,Rockville,20850,301-251-4500,http://www.adventistbehavioralhealth.com/ABH/locations/profile/?id=1138,6-12 Special,1255698.125006099930033,522062.281241939985193,"(39.099995980000074, -77.19956681799994)"
181,PRIVATE SCHOOL,Academy At Stone Mill,14327 Stonebridge View Dr,Gaithersburg,20878,301-762-8206,http://www.academychild.com/,N-P,1251422.000011469935998,518735.812523420026992,"(39.09083607800005, -77.21460691699997)"
182,PRIVATE SCHOOL,Academy At Cold Spring,9201 Falls Chapel Way,Potomac,20854,301-424-4318,http://www.academychild.com/,N-P,1258836.250019500032067,507209.000040200015064,"(39.05923244300004, -77.18840107499994)"
183,PRIVATE SCHOOL,Silver Spring Day School,33 University Blv E,Silver Spring,20901,301-593-6581,http://ssds-coop.org/,N-P,1306095.541754689998925,497107.917579629982356,"(39.019533866000074, -77.01223821899998)"
184,PRIVATE SCHOOL,Garrett Park Coop Nursery School,4812 Oxford St,Garrett Park,20896,301-933-5254,http://www.garrettparknurseryschool.org/,Nursery,1284974.999980499967933,497735.812515570025425,"(39.033209689000046, -77.09615876399994)"
185,PRIVATE SCHOOL,Takoma Academy,8120 Carroll Ave,Takoma Park,20912,301-434-4700,http://www.ta.edu/,9-12,1313762.625039830105379,482538.000011409982108,"(38.991645110000036, -76.99497358199994)"
186,PRIVATE SCHOOL,Brookmont Childrens Program,4000 Virginia Pl,Bethesda,20816,301-320-6780,http://brookmontkids.org/,Preschool,1277614.74999341997318,465582.03129384998465,"(38.94502516800003, -77.12207356199997)"
187,PRIVATE SCHOOL,Spring Valley Montessori School,5144 Massachusetts Ave,Bethesda,20816,202-316-2200,http://springvalleymontessoriacademy.org/,N-K,1283171.499991110060364,467658.593754309986252,"(38.95074561300004, -77.10254413099995)"
188,PRIVATE SCHOOL,Messiah Lutheran Preschool,13901 Clopper Rd,Germantown,20874,301-972-5428,www.messiahlutherangermantown.org/preschool/. ,Preschool,1230323.749982360051945,546290.687494189944118,"(39.166331128000024, -77.28924807299995)"
189,PRIVATE SCHOOL,Casa De Montessori,14015 New Hampshire Ave,Silver Spring,20904,301-384-8404,http://www.casademontessori.com/,P-K,1312735.000012069940567,516927.656204039987642,"(39.086068099000045, -76.99858722799996)"
190,PRIVATE SCHOOL,Redwood Montessori Academy,1605 Veirs Mill Rd,Rockville,20851,301-762-2524,http://www.redwoodmontessorimd.com/,N-5,1277452.75002402998507,513464.625023300002795,"(39.07649537900005, -77.12286975999996)"
191,PRIVATE SCHOOL,Manor Montessori School Bethesda,5450 Massachusetts Ave,Bethesda,20816,301-229-7400,http://www.manormontessori.com/,N-3,1281165.375039709964767,470210.468740530021023,"(38.95774595600005, -77.10960904099994)"
192,PRIVATE SCHOOL,Jamon Montessori Day School,52 Randolph Rd,Silver Spring,20904,301-384-3131,http://www.jamonmontessori.com/,N-1,1310329.721073280088603,512338.528489139978774,"(39.07346774800004, -77.00705975099999)"
193,PRIVATE SCHOOL,Norbeck Montessori,4500 Muncaster Mill Rd,Rockville,20853,301-924-4233,http://www.norbeck.com/,N-K,1286793.75000221002847,526552.249995730002411,"(39.11245919500004, -77.09001140699996)"
194,PRIVATE SCHOOL,Peppertree Childrens Center,12900 Middlebrook Rd,Germantown,20874,301-540-1170,http://peppertreechildrenscenter.com/,N-P,1236236.999987710034475,550977.687518249964342,"(39.179249232000075, -77.26844092199997)"
195,PRIVATE SCHOOL,Avalon School,200 W Diamond Ave,Gaithersburg,20877,301-963-8022,http://www.avalonschools.org/,K-12,1279824.194654010003433,477925.337373780028429,"(39.14117003100006, -77.20648901899995)"
196,PRIVATE SCHOOL,Crossway Community Montessori School,3015 Upton Dr,Kensington,20895,301-929-2505,http://www.crossway-community.org/,N-P,1294906.374994599958882,500440.343771510000806,"(39.04078343700007, -77.06135824999996)"
197,PRIVATE SCHOOL,Georgetown Hill Darnestown Campus,15120 Turkey Foot Rd,Gaithersburg,20878,301-527-1761,http://www.georgetownhill.com/,N-P,1231185.875033309916034,523290.968775140005164,"(39.10319052400007, -77.28595329799998)"
198,PRIVATE SCHOOL,Lycee Rochambeau Bradley Campus,7108 Bradley Blv,Bethesda,20817,301-767-1683,http://www.rochambeau.org/,N-K,1270681.624976729974151,487488.031258650007658,"(39.005144710000025, -77.14657420799995)"
199,PRIVATE SCHOOL,4 Corners Community Nursery,801 University Blv W,Silver Spring,20901,301-681-9520,http://www.4ccn.org/,Nursery,1306142.499969399999827,497164.468746619997546,"(39.03180298900003, -77.02179591499998)"
200,PRIVATE SCHOOL,KinderCare on Sioux Lane,18000 Sioux La,Gaithersburg,20878,301-869-1352,http://www.kindercare.com/our-centers/center-details/301407/,N-K,1245866.250015900004655,532888.812510140007362,"(39.12965738100007, -77.23430900499994)"
201,PRIVATE SCHOOL,St Marys School,600 Veirs Mill Rd,Rockville,20852,301-762-4179,http://www.stmaryschoolrockville.org/,P-8,1271493.75001520011574,515319.812481999979354,"(39.081565169000044, -77.14387070899994)"
202,PRIVATE SCHOOL,Hampshire View Christian School,360 Ednor Rd,Silver Spring,20905,301-570-8457,http://hvbcsite.org/hampshire-view-christian-school/,K-12,1309166.001796700060368,533764.040431039989926,"(39.132103509000046, -77.01108249699996)"
203,PRIVATE SCHOOL,Georgetown Hill USNRC Campus,11545 Rockville Pik,Rockville,20852,301-415-0777,http://www.georgetownhill.com/,N-P,1280686.643191050039604,502375.862645810004324,"(39.04606078900008, -77.11143064699996)"
204,PRIVATE SCHOOL,Faith Arts Academy,13618 Layhill Rd,Silver Spring,20906,301-438-2012,,P-5,1298775.374967749929056,514836.281258929986507,"(39.08031618500007, -77.04776299199995)"
205,PRIVATE SCHOOL,Aspen Hill Cooperative Nursery School,1001 Twinbrook Pkw,Rockville,20851,301-424-7370,http://ahcns.org/,Nursery,1278922.374960209941491,516507.093794309999794,"(39.08485424700007, -77.11770680399997)"
206,PRIVATE SCHOOL,St Andrew The Apostle School,11602 Kemp Mill Rd,Silver Spring,20902,301-649-3555,https://standrewapostle.org/School-WP/,N-8,1303456.124978570034727,502739.250009150011465,"(39.047719709000035, -77.03120195699995)"
207,PRIVATE SCHOOL,St Jude Regional Catholic School,4820 Walbridge St,Rockville,20853,301-946-7888,http://www.stjuderockville.org/pages/StJudeRegionalCatholicSchool,P-8,1285098.874962579924613,509591.062493729987182,"(39.065885070000036, -77.09592183499996)"
208,PRIVATE SCHOOL,St Raphael School,1513 Dunster Rd,Rockville,20854,301-762-2143,http://www.straphaelschoolmd.org/pages/StRaphaels_School,K-7,1263116.822948019951582,508171.659803120011929,"(39.06189886400006, -77.17333280799994)"
209,PRIVATE SCHOOL,Rockville Community Nursery School,100 Welsh Park Dr,Rockville,20850,301-340-7584,http://www.rcnscoop.org/,Nursery,1265971.759066500002518,518515.381521429982968,"(39.090313553000044, -77.16334350999995)"
210,PRIVATE SCHOOL,Takoma Park Cooperative Nursery School,8204 Flower Ave,Takoma Park,20912,301-585-7272,http://takomacooperativeschool.org/,Nursery,1311681.000021890038624,482464.343722159974277,"(38.99144295800005, -77.00229739999997)"
211,PRIVATE SCHOOL,Community School of MD Brookeville,21515 Zion Rd,Brookeville,20833,240-912-2220,http://csaac.org/community-school-of-maryland/,K-Adult Special,1286717.969736879924312,562348.95629107998684,"(39.210742237000034, -77.09040341599996)"
212,PRIVATE SCHOOL,Lourie Center School ,12301 Academy Way,Rockville,20852,301-984-4444,http://www.louriecenter.org/LC/programs/school/,N-5 Special,1281877.374959439970553,506815.749954639992211,"(39.058255158000065, -77.10725643799998)"
213,PRIVATE SCHOOL,Pathways School Springville Re-Entry,2601 University Blv W,Wheaton,20902,301-942-1115,http://www.pathwayschools.org/programs/pathways-school-springville-re-entry.php,9-12 Special,1297171.500027500092983,500619.781231119995937,"(39.04128002200008, -77.05338368399998)"
214,PRIVATE SCHOOL,Church of The Redeemer Christian School,19425 Woodfield Rd,Gaithersburg,20879,240-238-1500,http://school.church-redeemer.org/,P-8,1269876.000045540044084,549642.875040589948185,"(39.17579595800004, -77.14976802799998)"
215,PRIVATE SCHOOL,Concord St Andrews Cooperative Nursery School,5910 Goldsboro Rd,Bethesda,20817,301-229-5225,http://www.csacns.org/,Nursery,1278128.624960690038279,475758.500039860024117,"(38.972968783000056, -77.12031392699998)"
216,PRIVATE SCHOOL,KinderCare at Olney,3805 Gelding La,Olney,20832,301-774-0001,http://www.kindercare.com/our-centers/center-details/301082/,N-K,1290958.043514489894733,543079.725658489973284,"(39.15784761700007, -77.07538330099999)"
217,PRIVATE SCHOOL,KinderCare at Town Center,19780 Crystal Rock Dr,Germantown,20874,301-515-2700,http://www.kindercare.com/our-centers/center-details/301596/,N-K,1237875.336014470085502,551170.492620249977335,"(39.179791677000026, -77.26266349099996)"
218,PRIVATE SCHOOL,Har Tzeon Agudath Achim Early Childhood Ctr,1910 University Blv W,Silver Spring,20902,301-649-2348,http://www.htaa.org/,Preschool,1299857.250017009908333,499971.843713429989293,"(39.039888432000055, -77.04390923799997)"
219,PRIVATE SCHOOL,New Jewish School,2200 Baltimore Rd,Rockville,20851,240-399-6100,http://www.newjewishschool.org/,K-6,1300004.24995460989885,499841.812491679971572,"(39.08796503000008, -77.11663831099997)"
220,PRIVATE SCHOOL,Sulam at Torah School of GW,2010 Linden La,Silver Spring,20910,301-962-9400,http://www.sulam.org/,K-6,1299700.449852949939668,488524.887139939994086,"(39.00807496900006, -77.04445908299994)"
221,PRIVATE SCHOOL,New Day Preschool,112 W Montgomery Ave,Rockville,20850,301-340-3373,http://www.rockvilleunitedmethodistchurch.com/newdaypreschool.html,Preschool,1268242.750043029896915,516196.156242970027961,"(39.083956672000056, -77.15532846099995)"
222,PRIVATE SCHOOL,Silver Spring Learning Center,1401 Arcola Ave,Silver Spring,20902,301-649-1373,http://www.silverspringlearningcenter.org/,N-P,1303678.999983499990776,501975.031205350009259,"(39.045009305000065, -77.03047384099995)"
223,PRIVATE SCHOOL,Evergreen Montessori School,10700 Georgia Ave,Wheaton,20902,301-942-5979,http://www.evergreenschool.com/,N-3,1298650.374983289977536,496607.500008129980415,"(39.03026584600008, -77.04816944499998)"
224,PRIVATE SCHOOL,Nora School,955 Sligo Ave,Silver Spring,20910,301-495-6672,http://www.nora-school.org/,9-12,1305157.125031189993024,482142.031240199983586,"(38.990555279000034, -77.02525010799997)"
225,PRIVATE SCHOOL,KidStop Child Development Center,15910 Somerville Dr,Rockville,20855,301-548-8899,http://www.kindercare.com/our-centers/rockville/md/073287/,N-K,1265131.1174193599727,528342.860840379958972,"(39.11729202200007, -77.16636835599996)"
226,PRIVATE SCHOOL,Ark Childrens Center,3425 Emory Church Rd,Olney,20832,301-774-5369,http://www.oeumc.org/ark,Preschool,1292754.875015550060198,532781.812470330041833,"(39.12957748500003, -77.06901923199996)"
227,PRIVATE SCHOOL,Alef Bet Montessori,5701 Grosvenor La,Bethesda,20814,301-556-5010,http://www.alefbetmontessori.org/,N-6,1277919.528032829985023,501769.663903950015083,"(39.02324650600008, -77.11408927399998)"
228,PRIVATE SCHOOL,Yang Academy,111 Central Ave,Gaithersburg,20877,301-208-8821,http://www.yangacademy.com/,K-12,1259658.508774290094152,532691.474676009966061,"(39.13246047800004, -77.18543915499998)"
229,PRIVATE SCHOOL,White Flint Childrens House,11810 Parklawn Dr,Rockville,20852,301-230-9720,http://www.wfchm.com/,N-K,1283130.210917060030624,503481.526638530020136,"(39.04910445100006, -77.10283120899999)"
230,PRIVATE SCHOOL,Charles E Smith Jewish Day School Lower,1901 E Jefferson St,Rockville,20852,301-881-1400,http://www.cesjds.org/,7-12,1276313.95768884010613,505315.948907379992306,"(39.054117622000035, -77.12684128599994)"
231,PRIVATE SCHOOL,Goddard School Rockville,900 Gaither Rd,Rockville,20850,301-330-2300,http://www.goddardschool.com/,N-K,1262316.416894749971107,526603.210275770048611,"(39.11250109200006, -77.17627701399994)"
232,PRIVATE SCHOOL,Family Academy of Bethesda,4324 Montgomery Ave,Bethesda,20814,301-656-5437,http://familyacademyofbethesda.com/,N-K,1287419.957668310031295,479972.261495430022478,"(38.984567611000045, -77.08764684799996)"
233,PRIVATE SCHOOL,Primary Montessori Day School,14138 Travilah Rd,Rockville,20850,301-309-9532 ,http://www.primarymontessori.com/,N-3,1250168.20200993004255,517289.664450759999454,"(39.086857303000045, -77.21901209499998)"
234,PRIVATE SCHOOL,Yeshiva of Greater Washington Girls Campus,2010 Linden La,Silver Spring,20910,301-962-5111,http://www.yeshiva.edu/GIRLSDIVISION/tabid/55/Default.aspx,7-12,1299572.397599489893764,488717.112023809982929,"(39.00860258800003, -77.04491004999994)"
235,PRIVATE SCHOOL,Boyds Country Day School,12417 Deoudes Rd,Boyds,20841,301-972-5982,,P-K,1239271.186486130114645,563512.429774319985881,"(39.21368812900005, -77.25786243799996)"
236,PRIVATE SCHOOL,Childrens Towne Academy,19616 Fisher Ave,Poolesville,20837,301-349-5500,http://childrentowneacademy.wikidot.com/,N-P,1195846.458693739958107,537957.018746069981717,"(39.14308744700003, -77.41071498799994)"
237,PRIVATE SCHOOL,Washington Christian Academy,16227 Batchellors Forest Rd,Olney,20832,240-390-0429,http://www.washingtonchristian.org,K-12,1293240.143807749962434,529312.606444790028036,"(39.12103418500004, -77.06909610899999)"
238,PRIVATE SCHOOL,Our Lady of Good Counsel High School,17301 Old Vic Blv,Olney,20832,240-283-3200,http://www.olgchs.org/,9-12,1299648.739197350107133,537633.362768369959667,"(39.14190912300006, -77.04489582399998)"
239,PRIVATE SCHOOL,St Patrick School,4101 Norbeck Rd,Rockville,20853,301-929-9672,http://www.stpatrickadw.org/,P-8,1288933.903192070079967,525432.971164879971184,"(39.10939162000005, -77.08246530799994)"
240,PRIVATE SCHOOL,Good Shepherd Episcopal Preschool,818 University Blv W,Silver Spring,20901,301-593-2308,http://www.gsecmd.org/article/6/good-shepherd-episcopal-preschool,Preschool,1305584.782725210068747,497172.39284718001727,"(39.031824363000055, -77.02375925799998)"
241,PRIVATE SCHOOL,Marcia D Smith School,9075 Comprint Ct,Gaithersburg,20877,301-926-2300,http://css-md.org/smithschool.htm,5-Adult Special,1259292.326995899900794,529437.873445529956371,"(39.120267488000025, -77.18695525099997)"
242,PRIVATE SCHOOL,Mt Jezreel Baptist Church Christian Academy,420 University Blv E,Silver Spring,20901,301-431-2800,http://www.mtjezreel.com/MJCS/index.html,P-5,1313165.719417890068144,488794.835262589971535,"(39.00882457500006, -76.99707298199996)"
243,PRIVATE SCHOOL,Children in the Shoe Olney,16910 Georgia Ave,Olney,20832,301-260-1200,http://www.thechildrenintheshoe.com/locations/,N-P,1292209.64648519991897,534441.372270570020191,"(39.13413285200005, -77.07094578899995)"
244,PRIVATE SCHOOL,Twinbrook Christian Daycare,5906 Halpine Rd,Rockville,20851,240-401-9182,http://www.tcdaycare.org/,N-P,1278630.539824069943279,509118.224075670004822,"(39.06456594000008, -77.11870107099998)"
245,PRIVATE SCHOOL,"Nurturey, The",112 W Diamond Ave,Gaithersburg,20878,301-216-1444,https://www.facebook.com/pages/The-Nurturey-Childrens-Center/324798670897989,Nursery,1254651.296964559936896,536875.784778960049152,"(39.14066186300005, -77.20337178299997)"
246,PRIVATE SCHOOL,National Childrens Center School,410 University Blv W,Silver Spring,20901,301-593-0642,http://www.nccinc.org/schools/,K-Adult Special,1306602.791894899914041,494764.700758179998957,"(39.02521427600004, -77.02017367999997)"
247,PRIVATE SCHOOL,Academy At Academy Hills,10107 Darnestown Rd,Rockville,20850,301-424-9475,http://www.academychild.com/,N-2,1253364.615291980095208,521349.275430020003114,"(39.09802403400005, -77.20778361899994)"
248,PRIVATE SCHOOL,Quality Time Learning Center,8101 Georgia Ave,Silver Spring,20910,301-588-3350,http://qualitytimellc.com/,N-1,1304939.456843579886481,482158.94573004997801,"(38.99060155400008, -77.02601593899999)"
249,PRIVATE SCHOOL,Academy at Galway,12612 Galway Dr,Silver Spring,20904,301-586-0080,http://www.academychild.com/,N-P,,,"(39.064394599000025, -76.94569406499994)"
250,PRIVATE SCHOOL,Academy at Bnai Israel,6301 Montrose Rd,Rockville,20852,301-340-6818,http://www.academychild.com/,Nursery,,,"(39.05393747800008, -77.12473311199994)"
251,PRIVATE SCHOOL,Kennedy Krieger School,12301 Academy Way,Rockville,20852,443-923-4170,http://locations.kennedykrieger.org/#montgomery,K-Adult Special,,,"(39.05810414700005, -77.10695665299994)"
252,PRIVATE SCHOOL,Sulam School at MJBHA,13300 Arctic Ave,Rockville,20852,301-962-9400,http://www.sulam.org/,K-12,,,"(39.073657694000076, -77.10040151599998)"
253,PRIVATE SCHOOL,Montrose School OLC,5721 Montrose Pkw,Rockville,20850,301-770-4233,http://www.montroseschoolhouse.org/,P-K,,,"(39.05351759800004, -77.11485988499999)"
254,PRIVATE SCHOOL,Thomas Jefferson Preparatory School,12801 Darnestown Rd,Darnestown,20878,301-330-7550,http://tjprep.org/,P-8,,,"(39.11565508000007, -77.26591172399998)"
255,PRIVATE SCHOOL,CHI Centers - Jones Center Adult Program,9426 Stewartown Rd,Gaithersburg,20879,240-631-2637,http://www.chicenters.org/,Adult Special,,,"(39.17633428600004, -77.19313811099994)"
256,PRIVATE SCHOOL,Little Hands Preschool,24800 Kings Valley Rd,Damascus,20872,301-391-6655,http://www.lhpreschool.com/,Preschool,,,"(39.26151179900006, -77.23784984799994)"
257,PRIVATE SCHOOL,Forbush School at Oakmont Upper School,610 E Diamond Ave,Gaithersburg,20877,301-330-4359,http://www.sheppardpratt.org/special-education-services/our-schools/forbush-school-oakmont-upper-school/,7-Adult Special,,,"(39.140339278000056, -77.18133326299994)"
258,PRIVATE SCHOOL,CHI Centers - Lone Oak Adult Program,1010 Grandin Ave,Rockville,20851,301-545-0017,http://www.chicenters.org/,Adult Special,,,"(39.08011731800008, -77.13288202099994)"
259,PRIVATE SCHOOL,Poolesville Community Preschool,17550 W Willard Rd,Poolesville,20837,301-349-2399,http://www.poolesvillechamber.com/memberspages/poolesvillecommpreschool.html,Preschool,,,"(39.14415861200007, -77.42004859499997)"
260,PRIVATE SCHOOL,CHI Centers - MacDonald Knolls,10611 Tenbrook Dr,Silver Spring,20901,301-593-8822,http://www.chicenters.org/,Adult Special,,,"(39.03079084800004, -77.02599965499996)"
