Facility Owner,Site,Address,City,State,Zip,Location,Zip Codes,Municipalities,Communities,Councils
MNCPPC,Aberdeen Local Park,12231 Triple Crown RD,N. Potomac,MD,20878,"12231 Triple Crown RD
N. Potomac, MD 20878
(39.098854, -77.257063)",33,1,24,2
Montgomery County Public Schools,Arcola ES,1820 Franwall Ave,Silver Spring,MD,20902,"1820 Franwall Ave
Silver Spring, MD 20902
(39.046067, -77.039516)",17,1,16,4
MNCPPC,Arcola LP/ES,11501 Channing DR,Wheaton,MD,20902,"11501 Channing DR
Wheaton, MD 20902
(39.043998, -77.040551)",17,1,16,4
MNCPPC,Argyle Local Park,1030 Forest Glen RD,Silver Spring,MD,20901,"1030 Forest Glen RD
Silver Spring, MD 20901
(39.018034, -77.026421)",21,1,17,5
Montgomery County Public Schools,Argyle MS,2400 Bel Pre Road,Silver Spring,MD,20906,"2400 Bel Pre Road
Silver Spring, MD 20906
(39.090457, -77.049724)",6,1,59,4
MNCPPC,Arora Hills Local Park,22344 Arora Hills DR,Clarksburg,MD,20871,"22344 Arora Hills DR
Clarksburg, MD 20871",,,,
Montgomery County Public Schools,Ashburton ES,6314 Lone Oak Drive,Bethesda,MD,20817,"6314 Lone Oak Drive
Bethesda, MD 20817
(39.020113, -77.127556)",103,1,12,1
Libraries,Aspen Hill Community Library,4407 Aspen Hill RD,Rockville,MD,20853,"4407 Aspen Hill RD
Rockville, MD 20853
(39.079163, -77.087308)",58,1,61,3
MNCPPC,Aspen Hill Local Park,5013 Baltic AVE,Aspen Hill,MD,20853,"5013 Baltic AVE
Aspen Hill, MD 20853
(39.071185, -77.103838)",58,1,61,3
MNCPPC,Avenel Local Park,10551 Oaklyn DR,Potomac,MD,20854,"10551 Oaklyn DR
Potomac, MD 20854
(39.006919, -77.21785)",53,1,20,1
MNCPPC,Ayrlawn Local Park,5652 Oakmont AVE,Bethesda,MD,20817,"5652 Oakmont AVE
Bethesda, MD 20817
(39.004333, -77.115154)",103,1,12,1
Montgomery County Public Schools,"Baker, John T. MS",25400 Oak Drive,Damascus,MD,20872,"25400 Oak Drive
Damascus, MD 20872
(39.273333, -77.218271)",42,1,51,2
Montgomery County Public Schools,"Banneker, Benjamin MS",14800 Perrywood Drive,Burtonsville,MD,20866,"14800 Perrywood Drive
Burtonsville, MD 20866
(39.097395, -76.947963)",47,1,53,5
Montgomery County Public Schools,Bannockburn ES,6520 Dalroy Lane,Bethesda,MD,20817,"6520 Dalroy Lane
Bethesda, MD 20817
(38.97458, -77.137169)",103,1,12,1
Montgomery County Public Schools,"Barnsley, Lucy V. ES",14516 Nadine Drive,Rockville,MD,20853,"14516 Nadine Drive
Rockville, MD 20853
(39.094576, -77.102842)",58,1,61,3
MNCPPC,Bauer Drive Local Park,14625 Bauer DR,Aspen Hill,MD,20853,"14625 Bauer DR
Aspen Hill, MD 20853
(39.095324, -77.109491)",58,1,61,3
Montgomery County Public Schools,Beall ES,451 Beall Avenue,Rockville,MD,20850,"451 Beall Avenue
Rockville, MD 20850
(39.08722, -77.161572)",71,12,25,3
Montgomery County Public Schools,Bells Mill ES,8225 Bells Mill Road,Rockville,MD,20854,"8225 Bells Mill Road
Rockville, MD 20854
(39.03128, -77.168772)",53,1,20,1
Montgomery County Public Schools,Belmont ES,19528 Olney Mill Road,Olney,MD,20832,"19528 Olney Mill Road
Olney, MD 20832
(39.177863, -77.066666)",100,1,58,4
Montgomery County Public Schools,Bel Pre ES @ North Lake Center,15101 Bauer Dr.,Rockville,MD,20853,"15101 Bauer Dr.
Rockville, MD 20853
(39.10328, -77.104608)",58,1,61,3
Montgomery County Public Schools,Bethesda-Chevy Chase HS,4301 East-West Highway,Bethesda,MD,20814,"4301 East-West Highway
Bethesda, MD 20814
(38.985326, -77.089222)",111,1,12,1
Montgomery County Public Schools,Bethesda ES,7600 Arlington Road,Bethesda,MD,20814,"7600 Arlington Road
Bethesda, MD 20814
(38.986176, -77.098716)",111,1,12,1
Libraries,Bethesda Regional Library,7400 Arlington Road,Bethesda,MD,20814,"7400 Arlington Road
Bethesda, MD 20814
(38.983745, -77.098579)",111,1,12,1
Montgomery County Public Schools,Beverly Farms ES,8501 Post Oak Road,Rockville,MD,20854,"8501 Post Oak Road
Rockville, MD 20854
(39.052344, -77.174688)",53,1,20,1
MNCPPC,Beverly Farms LP/ES,8505 Postoak RD,Potomac,MD,20854,"8505 Postoak RD
Potomac, MD 20854
(39.05208, -77.175264)",53,1,20,1
MNCPPC,Big Pines Local Park,13900 Travilah RD,Travilah,MD,20878,"13900 Travilah RD
Travilah, MD 20878",,,,
Montgomery County Public Schools,"Blair, Montgomery HS",51 University Blvd. E.,Silver Spring,MD,20901,"51 University Blvd. E.
Silver Spring, MD 20901
(39.019175, -77.011951)",21,1,13,5
Montgomery County Public Schools,"Blake, James HS",300 Norwood Road,Silver Spring,MD,20905,"300 Norwood Road
Silver Spring, MD 20905
(39.115713, -77.017181)",8,1,26,4
MNCPPC,Blueberry Hill Local Park,16617 Bethayres RD,Gaithersburg,MD,20855,"16617 Bethayres RD
Gaithersburg, MD 20855
(39.131112, -77.157843)",51,1,36,3
MNCPPC,Bowie Mill Local Park,17311 Bowie Mill RD,Derwood,MD,20855,"17311 Bowie Mill RD
Derwood, MD 20855
(39.140134, -77.119504)",51,1,55,4
Montgomery County Public Schools,Bradley Hills ES,8701 Hartsdale Avenue,Bethesda,MD,20817,"8701 Hartsdale Avenue
Bethesda, MD 20817
(38.999129, -77.118386)",103,1,12,1
MNCPPC,Bradley LP (Bradley Hills ES),8703 Hartsdale AVE,Bethesda,MD,20817,"8703 Hartsdale AVE
Bethesda, MD 20817
(38.998689, -77.117919)",103,1,12,1
Montgomery County Public Schools,Briggs Chaney MS,1901 Rainbow Drive,Silver Spring,MD,20904,"1901 Rainbow Drive
Silver Spring, MD 20904
(39.110862, -76.972352)",8,1,29,5
Montgomery County Public Schools,Broad Acres ES,710 Beacon Road,Silver Spring,MD,20903,"710 Beacon Road
Silver Spring, MD 20903
(39.008937, -76.984067)",15,1,9,5
MNCPPC,Broadacres LP (Broad Acres ES),710 Beacon RD,Silver Spring,MD,20903,"710 Beacon RD
Silver Spring, MD 20903
(39.008937, -76.984067)",15,1,9,5
Montgomery County Public Schools,Brooke Grove ES,2700 Spartan Road,Olney,MD,20832,"2700 Spartan Road
Olney, MD 20832
(39.157561, -77.051491)",100,1,58,4
Montgomery County Public Schools,Brookhaven ES,4610 Renn Street,Rockville,MD,20853,"4610 Renn Street
Rockville, MD 20853
(39.083212, -77.092408)",58,1,61,3
Montgomery County,Broome MS,751 Twinbrook Pkwy.,Rockville,MD,20853,"751 Twinbrook Pkwy.
Rockville, MD 20853
(39.08179, -77.114307)",68,12,25,3
Montgomery County Public Schools,Brown Station ES,851 Quince Orchard Boulevard,Gaithersburg,MD,20878,"851 Quince Orchard Boulevard
Gaithersburg, MD 20878
(39.13776, -77.230401)",33,21,36,3
MNCPPC,Buck Branch Nghbrhd Park,8704 Bells Mill RD,Potomac,MD,20854,"8704 Bells Mill RD
Potomac, MD 20854
(39.032143, -77.179118)",53,1,20,1
MNCPPC,Bullis Local Park,8501 Houston ST,Silver Spring,MD,20910,"8501 Houston ST
Silver Spring, MD 20910
(38.995228, -77.020178)",3065,1,7,5
Montgomery County Public Schools,Burning Tree ES,7900 Beach Tree Road,Bethesda,MD,20817,"7900 Beach Tree Road
Bethesda, MD 20817
(38.989399, -77.14208)",103,1,12,1
MNCPPC,Burning Tree LP/ES,7904 Beechtree RD,Bethesda,MD,20817,"7904 Beechtree RD
Bethesda, MD 20817
(38.989507, -77.142022)",103,1,12,1
Montgomery County Public Schools,Burnt Mills ES,11211 Childs Street,Silver Spring,MD,20901,"11211 Childs Street
Silver Spring, MD 20901
(39.039309, -77.002562)",21,1,18,5
Montgomery County Public Schools,Burtonsville ES,15516 Old Columbia Pike,Burtonsville,MD,20866,"15516 Old Columbia Pike
Burtonsville, MD 20866
(39.109871, -76.934674)",47,1,30,5
MNCPPC,Burtonsville Local Park,15700 Oursler RD,Burtonsville,MD,20866,"15700 Oursler RD
Burtonsville, MD 20866
(39.114245, -76.954454)",47,1,30,5
MNCPPC,Cabin John Local Park,7401 MacArthur BLVD,Cabin John,MD,20818,"7401 MacArthur BLVD
Cabin John, MD 20818
(38.972734, -77.151235)",102,1,3,1
Montgomery County Public Schools,Cabin John MS,10701 Gainsborough Road,Potomac,MD,20854,"10701 Gainsborough Road
Potomac, MD 20854
(39.03049, -77.172753)",53,1,20,1
MNCPPC,Calverton-Galway LP (Galway ES),3039 Fairland RD,Silver Spring,MD,20904,"3039 Fairland RD
Silver Spring, MD 20904
(39.066747, -76.94702)",12,1,53,5
Montgomery County Public Schools,Candlewood ES @ Emory Grove Center,18100 Washington Grove Lane,Gaithersburg,MD,20902,"18100 Washington Grove Lane
Gaithersburg, MD 20902
(39.152385, -77.164791)",35,1,36,4
Montgomery County Public Schools,Cannon Road ES,901 Cannon Road,Silver Spring,MD,20904,"901 Cannon Road
Silver Spring, MD 20904
(39.069581, -76.994031)",12,1,26,5
MNCPPC,Cannon Road LP (Cannon Road ES),921 Cannon RD,Colesville,MD,20904,"921 Cannon RD
Colesville, MD 20904
(39.069496, -76.99312)",12,1,26,5
MNCPPC,Capital View LP (Oakland Terr ES),2929 Edgewood RD,Kensington,MD,20895,"2929 Edgewood RD
Kensington, MD 20895
(39.026159, -77.060418)",25,1,15,5
Montgomery County Public Schools,Carderock Springs ES,7401 Persimmon Tree Lane,Bethesda,MD,20817,"7401 Persimmon Tree Lane
Bethesda, MD 20817
(38.982359, -77.173102)",103,1,12,1
Montgomery County Public Schools,"Carson, Rachel ES",100 Tschiffely Square Road,Gaithersburg,MD,20878,"100 Tschiffely Square Road
Gaithersburg, MD 20878
(39.116398, -77.2461)",33,21,36,3
Montgomery County Public Schools,Cashell ES,17101 Cashell Road,Rockville,MD,20853,"17101 Cashell Road
Rockville, MD 20853",,,,
MNCPPC,Cedar Creek Local Park,13513 Richter Farm RD,Germantown,MD,20874,"13513 Richter Farm RD
Germantown, MD 20874
(39.148551, -77.278938)",39,1,39,2
Montgomery County Public Schools,Cedar Grove ES,24001 Ridge Road,Germantown,MD,20876,"24001 Ridge Road
Germantown, MD 20876
(39.248823, -77.233905)",42,1,44,2
MNCPPC,Centerway Local Park,9551 Centerway RD,Gaithersburg,MD,20879,"9551 Centerway RD
Gaithersburg, MD 20879
(39.170663, -77.196783)",28,1,38,2
MNCPPC,Cherrywood Local Park,4100 Cherry Valley DR,Olney,MD,20832,"4100 Cherry Valley DR
Olney, MD 20832
(39.137409, -77.079546)",100,1,58,4
Libraries,Chevy Chase Community Library,8005 Connecticut AVE,Chevy Chase,MD,20815,"8005 Connecticut AVE
Chevy Chase, MD 20815
(38.991122, -77.077082)",110,1,5,1
Montgomery County Public Schools,Chevy Chase ES,4015 Rosemary Street,Chevy Chase,MD,20815,"4015 Rosemary Street
Chevy Chase, MD 20815
(38.97806, -77.080335)",110,20,5,1
MNCPPC,Chevy Chase Local Park,3315 Shepherd ST,Chevy Chase,MD,20815,"3315 Shepherd ST
Chevy Chase, MD 20815
(38.979546, -77.066305)",110,1,5,1
Montgomery County Public Schools,"Churchill, Winston HS",11300 Gainsborough Road,Potomac,MD,20854,"11300 Gainsborough Road
Potomac, MD 20854
(39.043008, -77.17248)",53,1,20,1
Montgomery County,Clarksburg Cottage,23201 Stringtown Road,Clarksburg,MD,20871,"23201 Stringtown Road
Clarksburg, MD 20871
(39.237766, -77.277374)",44,1,50,2
Montgomery County Public Schools,Clarksburg ES,13530 Redgrave Place,Clarksburg,MD,20871,"13530 Redgrave Place
Clarksburg, MD 20871
(39.236563, -77.282353)",44,1,50,2
Montgomery County Public Schools,Clarksburg HS,22500 Wims Road,Clarksburg,MD,20871,"22500 Wims Road
Clarksburg, MD 20871
(39.226275, -77.264144)",44,1,50,2
Montgomery County Public Schools,Clearspring ES,9930 Moyer Road,Damascus,MD,20872,"9930 Moyer Road
Damascus, MD 20872
(39.266764, -77.207203)",42,1,51,2
MNCPPC,Clear Spring Local Park,20301 Brandermill DR,Germantown,MD,20876,"20301 Brandermill DR
Germantown, MD 20876
(39.190227, -77.23234)",36,1,39,2
Montgomery County Public Schools,"Clemente, Roberto MS",18808 Waring Station Road,Germantown,MD,20874,"18808 Waring Station Road
Germantown, MD 20874
(39.165732, -77.246476)",39,1,39,2
Montgomery County Public Schools,Clopper Mill ES,18501 Cinnamon Drive,Germantown,MD,20874,"18501 Cinnamon Drive
Germantown, MD 20874
(39.162624, -77.266025)",39,1,39,2
Montgomery County Public Schools,Cloverly ES,800 Briggs Chaney Road,Silver Spring,MD,20904,"800 Briggs Chaney Road
Silver Spring, MD 20904
(39.107003, -76.994489)",8,1,26,5
Montgomery County Public Schools,Cold Spring ES,9201 Falls Chapel Way,Potomac,MD,20854,"9201 Falls Chapel Way
Potomac, MD 20854
(39.059623, -77.187461)",53,1,20,3
Montgomery County,Colesville Elementary School,14015 New Hampshire AVE,Silver Spring,MD,20904,"14015 New Hampshire AVE
Silver Spring, MD 20904
(39.08653, -76.999326)",12,1,26,5
MNCPPC,Colesville Local Park,610 Hobbs DR,Silver Spring,MD,20904,"610 Hobbs DR
Silver Spring, MD 20904
(39.084973, -76.998131)",12,1,26,5
Montgomery County Public Schools,College Gardens ES,1700 Yale Place,Rockville,MD,20850,"1700 Yale Place
Rockville, MD 20850
(39.102779, -77.161985)",71,12,25,3
MNCPPC,Columbia Local Park,14900 Old Columbia PIKE,Silver Spring,MD,20866,"14900 Old Columbia PIKE
Silver Spring, MD 20866
(39.100746, -76.941385)",47,1,30,5
MNCPPC,Concord Local Park,7216 Hidden Creek RD,Bethesda,MD,20817,"7216 Hidden Creek RD
Bethesda, MD 20817
(38.982136, -77.150372)",103,1,12,1
Montgomery County,Council Office Building,100 Maryland AVE,Rockville,MD,20850,"100 Maryland AVE
Rockville, MD 20850
(39.082088, -77.151215)",71,12,25,3
Montgomery County Public Schools,Cresthaven ES,1234 Cresthaven Drive,Silver Spring,MD,20903,"1234 Cresthaven Drive
Silver Spring, MD 20903
(39.027461, -76.986753)",15,1,18,5
MNCPPC,Cross Creek Club Local Park,3530 Briggs Chaney RD,Silver Spring,MD,20904,"3530 Briggs Chaney RD
Silver Spring, MD 20904
(39.07276, -76.938764)",12,1,53,5
Montgomery County Public Schools,"Daly, James ES",20301 Brandermill Drive,Germantown,MD,20876,"20301 Brandermill Drive
Germantown, MD 20876
(39.190227, -77.23234)",36,1,39,2
Libraries,Damascus Community Library,9701 Main ST,Damascus,MD,20872,"9701 Main ST
Damascus, MD 20872
(39.287238, -77.200174)",42,1,51,2
Recreation,Damascus Community Recreation Center,25520 Oak Drive,Damascus,MD,20872,"25520 Oak Drive
Damascus, MD 20872
(39.275463, -77.21483)",42,1,51,2
Montgomery County Public Schools,Damascus ES,10201 Bethesda Church Road,Damascus,MD,20872,"10201 Bethesda Church Road
Damascus, MD 20872
(39.283545, -77.208415)",42,1,51,2
Montgomery County Public Schools,Damascus HS,25921 Ridge Road,Damascus,MD,20872,"25921 Ridge Road
Damascus, MD 20872
(39.281699, -77.211481)",42,1,51,2
Montgomery County Public Schools,Darnestown ES,15030 Turkey Foot Road,Gaithersburg,MD,20878,"15030 Turkey Foot Road
Gaithersburg, MD 20878
(39.102688, -77.284252)",33,1,28,1
MNCPPC,Darnestown Local Park,14211 Darnestown RD,Darnestown,MD,20874,"14211 Darnestown RD
Darnestown, MD 20874
(39.105606, -77.295624)",39,1,28,1
Libraries,Davis Community Library,6400 Democracy BLVD,Bethesda,MD,20817,"6400 Democracy BLVD
Bethesda, MD 20817
(39.02349, -77.128782)",103,1,12,1
Montgomery County,Dennis Ave ES,2000 Dennis Avenue,Silver Spring,MD,20902,"2000 Dennis Avenue
Silver Spring, MD 20902
(39.025621, -77.043408)",17,1,10,5
MNCPPC,Dewey Local Park,11720 Dewey RD,Silver Spring,MD,20906,"11720 Dewey RD
Silver Spring, MD 20906
(39.047255, -77.088219)",6,1,56,4
Montgomery County Public Schools,Diamond ES,4 Marquis Drive,Gaithersburg,MD,20878,"4 Marquis Drive
Gaithersburg, MD 20878
(39.134859, -77.238468)",33,21,36,3
MNCPPC,Dickerson Local Park,22121 Dickerson School RD,Dickerson,MD,20842,"22121 Dickerson School RD
Dickerson, MD 20842
(39.218266, -77.421918)",74,1,48,2
Montgomery County Public Schools,"Drew, Dr. Charles ES",1200 Swingingdale Drive,Silver Spring,MD,20905,"1200 Swingingdale Drive
Silver Spring, MD 20905
(39.091174, -76.986769)",8,1,29,5
Montgomery County Public Schools,Dufief ES,15001 DuFief Drive,Gaithersburg,MD,20878,"15001 DuFief Drive
Gaithersburg, MD 20878
(39.1015, -77.23849)",33,1,24,2
MNCPPC,Dufief Local Park,11336 Brandyhall LN,Darnestown,MD,20878,"11336 Brandyhall LN
Darnestown, MD 20878
(39.103625, -77.236319)",33,1,24,2
Montgomery County Public Schools,Eastern MS,"300 University Blvd., East",Silver Spring,MD,20901,"300 University Blvd., East
Silver Spring, MD 20901
(39.010789, -77.001228)",21,1,8,5
MNCPPC,East Norbeck Local Park,3131 Norbeck RD,Silver Spring,MD,20906,"3131 Norbeck RD
Silver Spring, MD 20906
(39.112492, -77.065335)",6,1,60,4
Montgomery County Public Schools,East Silver Spring ES,631 Silver Spring Avenue,Silver Spring,MD,20910,"631 Silver Spring Avenue
Silver Spring, MD 20910
(38.991995, -77.015191)",3065,1,7,5
Montgomery County Public Schools,"Edison, Thomas HS of Technology",12501 Dalewood Drive,Wheaton,MD,20906,"12501 Dalewood Drive
Wheaton, MD 20906
(39.061137, -77.068353)",6,1,23,4
MNCPPC,Ednor Local Park,17030 Clear Creek DR,Silver Spring,MD,20905,"17030 Clear Creek DR
Silver Spring, MD 20905
(39.136678, -76.983948)",8,1,32,5
Montgomery County Public Schools,"Einstein, Albert HS",11135 Newport Mill Road,Kensington,MD,20895,"11135 Newport Mill Road
Kensington, MD 20895
(39.039987, -77.069991)",25,1,15,4
MNCPPC,English Manor Nghbrhd Park,4511 Bestor DR,Rockville,MD,20853,"4511 Bestor DR
Rockville, MD 20853
(39.091355, -77.091032)",58,1,61,3
Montgomery County Public Schools,"Ewing, Blair G. Center (Mark Twain School)",14501 Avery Road,Rockville,MD,20853,"14501 Avery Road
Rockville, MD 20853
(39.094519, -77.123697)",71,12,25,3
Montgomery County,Executive Office Building,101 Monroe ST,Rockville,MD,20850,"101 Monroe ST
Rockville, MD 20850
(39.082836, -77.148966)",71,12,25,3
Montgomery County Public Schools,Fairland Center,13313 Old Columbia Pike,Silver Spring,MD,20904,"13313 Old Columbia Pike
Silver Spring, MD 20904
(39.075025, -76.958349)",12,1,53,5
Montgomery County Public Schools,Fairland ES,14315 Fairdale Road,Silver Spring,MD,20905,"14315 Fairdale Road
Silver Spring, MD 20905
(39.091489, -76.957172)",8,1,53,5
MNCPPC,Fairland Recreational Park,3928 Greencastle Road,Burtonsville,MD,20866,"3928 Greencastle Road
Burtonsville, MD 20866
(39.083852, -76.930926)",47,1,30,5
Montgomery County Public Schools,Fallsmead ES,1800 Greenplace Terrace,Rockville,MD,20850,"1800 Greenplace Terrace
Rockville, MD 20850
(39.07873, -77.177201)",71,12,25,3
MNCPPC,Falls Road Local Park,12600 Falls Road RD,Potomac,MD,20854,"12600 Falls Road RD
Potomac, MD 20854",,,,
MNCPPC,Farmland Drive LP (Farmland ES),7000 Old Gate RD,Rockville,MD,20852,"7000 Old Gate RD
Rockville, MD 20852
(39.047805, -77.1448)",60,1,19,1
Montgomery County Public Schools,Farmland ES,7000 Old Gate Road,Rockville,MD,20852,"7000 Old Gate Road
Rockville, MD 20852
(39.047805, -77.1448)",60,1,19,1
Montgomery County Public Schools,"Farquhar, William MS",16915 Batchellors Forest Road,Olney,MD,20832,"16915 Batchellors Forest Road
Olney, MD 20832
(39.135238, -77.04572)",100,1,60,4
Montgomery County,Fernwood ES (Woods Academy),6801 Greentree RD,Bethesda,MD,20817,"6801 Greentree RD
Bethesda, MD 20817
(39.007831, -77.1384)",103,1,12,1
MNCPPC,Fernwood Local Park,6640 Marywood RD,Bethesda,MD,20817,"6640 Marywood RD
Bethesda, MD 20817
(39.009221, -77.136689)",103,1,12,1
Montgomery County Public Schools,Fields Road ES,One School Drive,Gaithersburg,MD,20878,"One School Drive
Gaithersburg, MD 20878",,,,
MNCPPC,Fleming Local Park,9925 Fleming AVE,Bethesda,MD,20814,"9925 Fleming AVE
Bethesda, MD 20814
(39.019005, -77.11182)",111,1,12,1
Montgomery County Public Schools,Flower Hill ES,18425 Flower Hill Way,Gaithersburg,MD,20879,"18425 Flower Hill Way
Gaithersburg, MD 20879
(39.159444, -77.17198)",31,1,36,4
MNCPPC,Flower Hill Local Park,8308 Mountain Laurel LN,Gaithersburg,MD,20879,"8308 Mountain Laurel LN
Gaithersburg, MD 20879
(39.1621, -77.171913)",31,1,36,4
Montgomery County Public Schools,Flower Valley ES,4615 Sunflower Drive,Rockville,MD,20853,"4615 Sunflower Drive
Rockville, MD 20853
(39.104924, -77.092995)",58,1,61,3
MNCPPC,Flower Valley Neigh Park,4510 Hornbeam DR,Rockville,MD,20853,"4510 Hornbeam DR
Rockville, MD 20853
(39.110542, -77.089671)",58,1,61,3
MNCPPC,Forest Grove Neigh. Park,9901 Dameron DR,Wheaton,MD,20902,"9901 Dameron DR
Wheaton, MD 20902
(39.018409, -77.034574)",17,1,10,5
Montgomery County Public Schools,Forest Knolls ES,10830 Eastwood Avenue,Silver Spring,MD,20901,"10830 Eastwood Avenue
Silver Spring, MD 20901
(39.033571, -77.020592)",21,1,17,5
Montgomery County Public Schools,Forest Oak MS,651 Saybrooke Oaks Blvd.,Gaithersburg,MD,20877,"651 Saybrooke Oaks Blvd.
Gaithersburg, MD 20877
(39.153357, -77.185735)",35,21,36,3
MNCPPC,Fountain Hills Local Park,18801 Liberty Mill RD,Germantown,MD,20874,"18801 Liberty Mill RD
Germantown, MD 20874
(39.163805, -77.279797)",39,1,39,2
Montgomery County Public Schools,Fox Chapel ES,19315 Archdale Road,Germantown,MD,20874,"19315 Archdale Road
Germantown, MD 20874
(39.172177, -77.243146)",36,1,39,2
MNCPPC,Fox Chapel Neigh. Park,19129 Staleybridge RD,Germantown,MD,20876,"19129 Staleybridge RD
Germantown, MD 20876
(39.170795, -77.242882)",36,1,39,2
Montgomery County Public Schools,"Frost, Robert MS",9201 Scott Drive,Rockville,MD,20850,"9201 Scott Drive
Rockville, MD 20850
(39.074551, -77.188673)",71,1,22,3
Montgomery County Public Schools,Gaithersburg ES,35 North Summit Avenue,Gaithersburg,MD,20877,"35 North Summit Avenue
Gaithersburg, MD 20877
(39.143829, -77.192954)",35,21,36,3
Montgomery County Public Schools,Gaithersburg HS,314 South Frederick Avenue,Gaithersburg,MD,20877,"314 South Frederick Avenue
Gaithersburg, MD 20877
(39.137541, -77.193851)",35,21,36,3
Montgomery County Public Schools,Gaithersburg MS,2 Teachers' Way,Gaithersburg,MD,20877,"2 Teachers' Way
Gaithersburg, MD 20877
(39.142587, -77.182734)",35,21,36,3
Libraries,Gaithersburg Regional Library,18330 Montgomery Village AVE,Gaithersburg,MD,20879,"18330 Montgomery Village AVE
Gaithersburg, MD 20879
(39.157594, -77.205133)",28,1,38,2
Montgomery County Public Schools,Galway ES,12612 Galway Drive,Silver Spring,MD,20904,"12612 Galway Drive
Silver Spring, MD 20904
(39.064105, -76.944982)",12,1,21,5
Montgomery County Public Schools,Garrett Park ES,4810 Oxford Street,Kensington,MD,20895,"4810 Oxford Street
Kensington, MD 20895",,,,
Montgomery County,Georgetown Hill ES (Ivymount),11614 Seven Locks Rd.,Rockville,MD,20854,"11614 Seven Locks Rd.
Rockville, MD 20854
(39.046638, -77.161296)",53,1,20,1
Montgomery County Public Schools,Georgian Forest ES,3100 Regina Drive,Silver Spring,MD,20906,"3100 Regina Drive
Silver Spring, MD 20906
(39.075656, -77.06235)",6,1,23,4
MNCPPC,Georgian Forest Local Park,2720 Silverdale DR,Silver Spring,MD,20906,"2720 Silverdale DR
Silver Spring, MD 20906
(39.07427, -77.057419)",6,1,23,4
Recreation,Germantown Community Center,18905 Kingsview Drive,Germantown,MD,20874,"18905 Kingsview Drive
Germantown, MD 20874
(39.164971, -77.287073)",39,1,39,2
Montgomery County Public Schools,Germantown ES,19110 Liberty Mill Road,Germantown,MD,20874,"19110 Liberty Mill Road
Germantown, MD 20874
(39.168991, -77.275664)",39,1,39,2
Libraries,Germantown Library,19840 Century Boulevard,Germantown,MD,20874,"19840 Century Boulevard
Germantown, MD 20874
(39.182045, -77.26526)",39,1,39,2
Montgomery County Public Schools,"Gibbs, William B., Jr. ES",12615 Royal Crown Drive,Germantown,MD,20876,"12615 Royal Crown Drive
Germantown, MD 20876
(39.204805, -77.259711)",36,1,39,2
Montgomery County Public Schools,Glenallan ES,12520 Heurich Road,Silver Spring,MD,20902,"12520 Heurich Road
Silver Spring, MD 20902
(39.062127, -77.041276)",17,1,23,4
MNCPPC,Glenfield Local Park,12800 Layhill RD,Silver Spring,MD,20906,"12800 Layhill RD
Silver Spring, MD 20906
(39.065282, -77.048016)",6,1,23,4
Montgomery County Public Schools,Glen Haven ES,10900 Inwood Avenue,Silver Spring,MD,20902,"10900 Inwood Avenue
Silver Spring, MD 20902
(39.033022, -77.035951)",17,1,16,4
MNCPPC,Glen Hills Local Park,12511 Circle DR,Rockville,MD,20850,"12511 Circle DR
Rockville, MD 20850
(39.066524, -77.208203)",71,1,22,3
MNCPPC,Glenmont Local Park,3201 Randolph RD,Silver Spring,MD,20906,"3201 Randolph RD
Silver Spring, MD 20906
(39.059107, -77.064633)",6,1,23,4
MNCPPC,Good Hope Local Park,14715 Good Hope,Silver Spring,MD,20905,"14715 Good Hope
Silver Spring, MD 20905
(39.096556, -76.986725)",8,1,26,5
Montgomery County Public Schools,Goshen ES,8701 Warfield Road,Gaithersburg,MD,20879,"8701 Warfield Road
Gaithersburg, MD 20879
(39.193538, -77.180303)",29,1,46,2
Montgomery County Public Schools,Great Seneca Creek ES,13010 Dairymaid Drive,Germantown,MD,20874,"13010 Dairymaid Drive
Germantown, MD 20874
(39.154277, -77.270697)",39,1,39,2
Montgomery County Public Schools,Greencastle ES,13611 Robey Road,Silver Spring,MD,20904,"13611 Robey Road
Silver Spring, MD 20904
(39.081083, -76.942196)",12,1,53,5
Montgomery County Public Schools,Greenwood ES,3336 Gold Mine Road,Brookeville,MD,20833,"3336 Gold Mine Road
Brookeville, MD 20833
(39.166063, -77.065049)",99,1,58,4
MNCPPC,Greenwood LP/ES,18700 Georgia AVE,Brookeville,MD,20833,"18700 Georgia AVE
Brookeville, MD 20833
(39.164548, -77.060947)",99,1,58,4
Montgomery County Public Schools,Grosvenor Center,4710 Saul Road,Kensington,MD,20895,"4710 Saul Road
Kensington, MD 20895
(39.022051, -77.094268)",25,1,15,1
MNCPPC,Gunner's Branch Local Park,18509 Cinnamon DR,Gaithersburg,MD,20874,"18509 Cinnamon DR
Gaithersburg, MD 20874
(39.162533, -77.265735)",39,1,39,2
MNCPPC,Gunner's Lake Local Park,12671 Grey Eagle CT,Germantown,MD,20874,"12671 Grey Eagle CT
Germantown, MD 20874
(39.168174, -77.263049)",39,1,39,2
Montgomery County Public Schools,Hadley Farms MS (Phoenix II),7401 Hadley Farms Dr.,Gaithersburg,MD,20879,"7401 Hadley Farms Dr.
Gaithersburg, MD 20879
(39.180933, -77.155728)",31,1,36,4
Montgomery County Public Schools,Harmony Hills ES,13407 Lydia Street,Silver Spring,MD,20906,"13407 Lydia Street
Silver Spring, MD 20906
(39.07694, -77.076897)",6,1,61,4
MNCPPC,Heritage Farm Neigh Park,9520 Hall RD,Potomac,MD,20854,"9520 Hall RD
Potomac, MD 20854
(39.011436, -77.214923)",53,1,20,1
Montgomery County Public Schools,Highland ES,3100 Medway Street,Silver Spring,MD,20902,"3100 Medway Street
Silver Spring, MD 20902
(39.051584, -77.063117)",17,1,23,4
Montgomery County Public Schools,Highland View ES,9010 Providence Avenue,Silver Spring,MD,20901,"9010 Providence Avenue
Silver Spring, MD 20901
(39.004529, -77.010807)",21,1,8,5
MNCPPC,Hillandale Local Park,10615 New Hampshire AVE,Silver Spring,MD,20903,"10615 New Hampshire AVE
Silver Spring, MD 20903
(39.029915, -76.983559)",15,1,18,5
Montgomery County Public Schools,"Hoover, Herbert MS",8810 Post Oak Road,Rockville,MD,20854,"8810 Post Oak Road
Rockville, MD 20854
(39.045067, -77.179943)",53,1,20,1
MNCPPC,Hoyles Mill Village Local Park,14040 Tatani DR,Boyds,MD,20841,"14040 Tatani DR
Boyds, MD 20841
(39.156863, -77.294261)",75,1,42,2
Montgomery County,Hungerford Park ES (Children's Resource Center),332 W. Edmonston Dr.,Rockville,MD,20852,"332 W. Edmonston Dr.
Rockville, MD 20852
(39.071183, -77.145312)",60,12,25,3
MNCPPC,Hunters Woods Local Park,9616 Ridge Heights DR,Gaithersburg,MD,20879,"9616 Ridge Heights DR
Gaithersburg, MD 20879",,,,
MNCPPC,Indian Springs Terrace Local Park,9717 Lawndale DR,Silver Spring,MD,20901,"9717 Lawndale DR
Silver Spring, MD 20901
(39.015203, -77.010587)",21,1,8,5
Montgomery County Public Schools,Jackson Road ES,900 Jackson Road,Silver Spring,MD,20904,"900 Jackson Road
Silver Spring, MD 20904
(39.055762, -76.991707)",12,1,18,5
MNCPPC,Jesup-Blair Local Park,900 Jesup Blair DR,Silver Spring,MD,20912,"900 Jesup Blair DR
Silver Spring, MD 20912
(38.985796, -77.025417)",3062,1,7,5
MNCPPC,Johnson's Local Park,18000 Washington Grove LN,Gaithersburg,MD,20877,"18000 Washington Grove LN
Gaithersburg, MD 20877",,,,
Montgomery County Public Schools,"Johnson, Walter HS",6400 Rock Spring Drive,Bethesda,MD,20814,"6400 Rock Spring Drive
Bethesda, MD 20814
(39.026575, -77.130113)",103,1,19,1
Montgomery County Public Schools,Jones Lane ES,15110 Jones Lane,Darnestown,MD,20878,"15110 Jones Lane
Darnestown, MD 20878
(39.102908, -77.264766)",33,1,28,2
MNCPPC,"Kaufmann, Milton Local Park",9607 Wightman RD,Gaithersburg,MD,20876,"9607 Wightman RD
Gaithersburg, MD 20876
(39.196038, -77.196429)",28,1,38,2
Montgomery County Public Schools,Kemp Mill ES,411 Sisson Street,Silver Spring,MD,20902,"411 Sisson Street
Silver Spring, MD 20902
(39.043251, -77.016531)",17,1,17,4
MNCPPC,Kemp Mill Estates Local Park,120 Claybrook DR,Silver Spring,MD,20902,"120 Claybrook DR
Silver Spring, MD 20902
(39.044338, -77.011833)",17,1,17,4
MNCPPC,Ken-Gar Palisades Local Park,4140 Wexford DR,Kensington,MD,20895,"4140 Wexford DR
Kensington, MD 20895
(39.03654, -77.083601)",25,1,15,4
Montgomery County Public Schools,"Kennedy, John F. HS",1901 Randolph Road,Silver Spring,MD,20902,"1901 Randolph Road
Silver Spring, MD 20902
(39.065113, -77.037591)",6,1,23,4
MNCPPC,Kensington Cabin Local Park,10000 Kensington PKY,Kensington,MD,20895,"10000 Kensington PKY
Kensington, MD 20895
(39.019336, -77.074731)",25,6,15,1
Montgomery County,Kensington ES (HOC),10400 Detrick Ave.,Kensington,MD,20895,"10400 Detrick Ave.
Kensington, MD 20895
(39.027064, -77.078401)",25,6,15,1
Libraries,Kensington Park Community Library,4201 Knowles AVE,Kensington,MD,20895,"4201 Knowles AVE
Kensington, MD 20895
(39.028768, -77.08162)",25,1,15,1
Montgomery County Public Schools,Kensington Parkwood ES,4710 Saul Road,Kensington,MD,20895,"4710 Saul Road
Kensington, MD 20895
(39.022051, -77.094268)",25,1,15,1
Montgomery County Public Schools,"Key, Francis Scott MS",910 Schindler Drive,Silver Spring,MD,20903,"910 Schindler Drive
Silver Spring, MD 20903
(39.027315, -76.990839)",15,1,18,5
MNCPPC,"King, Jr., Martin Luther RP",1100 Jackson RD,Silver Spring,MD,20904,"1100 Jackson RD
Silver Spring, MD 20904
(39.055563, -76.986135)",12,1,18,5
Montgomery County Public Schools,"King, Martin Luther MS",13737 Wisteria Dr.,Germantown,MD,20874,"13737 Wisteria Dr.
Germantown, MD 20874
(39.17981, -77.2851)",39,1,39,2
MNCPPC,Kings Crossing Local Park,14221 Kings Crossing BLVD,Boyds,MD,20841,"14221 Kings Crossing BLVD
Boyds, MD 20841
(39.163159, -77.297998)",75,1,42,2
MNCPPC,Kings LP (Little Bennett ES),23715 Clarksburg RD,Clarksburg,MD,20871,"23715 Clarksburg RD
Clarksburg, MD 20871
(39.245702, -77.2777)",44,1,50,2
Montgomery County Public Schools,Kingsview MS,18909 Kingsview Road,Germantown,MD,20874,"18909 Kingsview Road
Germantown, MD 20874
(39.165754, -77.286566)",39,1,39,2
Montgomery County Public Schools,"Knolls, Stephen ES",10731 St. Margaret's Way,Kensington,MD,20895,"10731 St. Margaret's Way
Kensington, MD 20895
(39.033107, -77.052177)",25,1,16,4
Montgomery County Public Schools,Lakelands Park MS,1200 Main Street,Gaithersburg,MD,20878,"1200 Main Street
Gaithersburg, MD 20878
(39.11603, -77.233172)",33,21,36,3
Montgomery County Public Schools,Lake Seneca ES,13600 Wanegarden Drive,Germantown,MD,20874,"13600 Wanegarden Drive
Germantown, MD 20874
(39.18503, -77.28342)",39,1,39,2
Montgomery County Public Schools,Lakewood ES,2534 Lindley Terrace,Rockville,MD,20850,"2534 Lindley Terrace
Rockville, MD 20850
(39.08706, -77.1914)",71,12,25,3
Montgomery County,Larchmont ES/Grace Episcopal Day School,9115 Georgia Ave.,Silver Spring,MD,20910,"9115 Georgia Ave.
Silver Spring, MD 20910
(39.00513, -77.037861)",3065,1,7,5
MNCPPC,Layhill Local Park,14901 Layhill RD,Aspen Hill,MD,20906,"14901 Layhill RD
Aspen Hill, MD 20906",,,,
MNCPPC,Layhill Village Local Park,1920 Queensguard RD,Silver Spring,MD,20906,"1920 Queensguard RD
Silver Spring, MD 20906
(39.087243, -77.042221)",6,1,57,4
Montgomery County Public Schools,Laytonsville ES,21401 Laytonsville Road,Gaithersburg,MD,20882,"21401 Laytonsville Road
Gaithersburg, MD 20882
(39.207164, -77.141334)",29,22,46,4
MNCPPC,Laytonsville Local Park,7620 Brink RD,Gaithersburg,MD,20882,"7620 Brink RD
Gaithersburg, MD 20882
(39.21064, -77.156096)",29,1,46,4
MNCPPC,Leaman Local Park,14021 Eternity RD,Germantown,MD,20874,"14021 Eternity RD
Germantown, MD 20874
(39.170145, -77.292958)",39,1,39,2
Montgomery County Public Schools,"Lee, Col. E. Brooke MS",11800 Monticello Avenue,Silver Spring,MD,20902,"11800 Monticello Avenue
Silver Spring, MD 20902
(39.0494, -77.029668)",17,1,17,4
Montgomery County Public Schools,Little Bennett ES,23930 Burdette Forest Road,Clarksburg,MD,20871,"23930 Burdette Forest Road
Clarksburg, MD 20871
(39.245446, -77.274969)",44,1,50,2
Libraries,Little Falls Community Library,5501 Massachusetts AVE,Bethesda,MD,20816,"5501 Massachusetts AVE
Bethesda, MD 20816
(38.958766, -77.110877)",107,1,12,1
MNCPPC,Little Falls SVU2,Arlington/Little Falls,Bethesda,MD,20815,"Arlington/Little Falls
Bethesda, MD 20815",,,,
Montgomery County Public Schools,"Loiederman, A. Mario MS",12701 Goodhill Road,Silver Spring,MD,20906,"12701 Goodhill Road
Silver Spring, MD 20906
(39.064625, -77.072017)",6,1,23,4
Libraries,Long Branch Community Library,8800 Garland AVE,Silver Spring,MD,20901,"8800 Garland AVE
Silver Spring, MD 20901
(39.000533, -77.000708)",21,1,8,5
MNCPPC,Long Branch-East Wayne Local Park,509 E University BLVD,Silver Spring,MD,20901,"509 E University BLVD
Silver Spring, MD 20901
(39.005917, -76.997524)",21,1,8,5
MNCPPC,Long Branch Local Park,8700 Piney Branch RD,Silver Spring,MD,20901,"8700 Piney Branch RD
Silver Spring, MD 20901
(38.998965, -76.997846)",3062,1,8,5
MNCPPC,Longwood Local Park,19300 Georgia AVE,Brookeville,MD,20833,"19300 Georgia AVE
Brookeville, MD 20833
(39.176353, -77.058293)",99,1,40,4
Montgomery County Public Schools,Luxmanor ES,6201 Tilden Lane,Rockville,MD,20852,"6201 Tilden Lane
Rockville, MD 20852
(39.044039, -77.127299)",60,1,19,1
MNCPPC,Luxmanor LP/ES,6201 Tilden LN,Rockville,MD,20852,"6201 Tilden LN
Rockville, MD 20852
(39.044039, -77.127299)",60,1,19,1
MNCPPC,Lynnbrook Center,8001 Lynnbrook Drive,Bethesda,MD,20814,"8001 Lynnbrook Drive
Bethesda, MD 20814
(38.990303, -77.087069)",111,1,12,1
MNCPPC,Lynnbrook Local Park,8008 Newdale DR,Bethesda,MD,20814,"8008 Newdale DR
Bethesda, MD 20814
(38.990511, -77.085066)",111,1,12,1
Montgomery County,MacDonald Knolls (Center for the Handicapped),10611 Tenbrook Dr.,Silver Spring,MD,20901,"10611 Tenbrook Dr.
Silver Spring, MD 20901
(39.029796, -77.027401)",21,1,17,5
Montgomery County Public Schools,"Magruder, Col. Zadok HS",5939 Muncaster Mill Road,Rockville,MD,20855,"5939 Muncaster Mill Road
Rockville, MD 20855
(39.131023, -77.119901)",51,1,55,4
MNCPPC,Manor Oak Local Park,18820 Quarrymen TER,Olney,MD,20832,"18820 Quarrymen TER
Olney, MD 20832
(39.16697, -77.04529)",99,1,58,4
MNCPPC,Maplewood-Alta Vista Local Park,5209 Alta Vista RD,Bethesda,MD,20814,"5209 Alta Vista RD
Bethesda, MD 20814
(39.01191, -77.104649)",111,1,12,1
Libraries,Marilyn J. Praisner Branch Library,14910 Old Columbia PIKE,Burtonsville,MD,20866,"14910 Old Columbia PIKE
Burtonsville, MD 20866
(39.100886, -76.941241)",47,1,30,5
Montgomery County Public Schools,"Marshall, Thurgood ES",12260 McDonald Chapel Drive,Gaithersburg,MD,20876,"12260 McDonald Chapel Drive
Gaithersburg, MD 20876
(39.124373, -77.258787)",33,1,28,3
Montgomery County Public Schools,Maryvale ES,1000 First Street,Rockville,MD,20851,"1000 First Street
Rockville, MD 20851
(39.090929, -77.136035)",71,12,25,3
Montgomery County Public Schools,"Matsunaga, Spark ES",13902 Bromfield Road,Germantown,MD,20874,"13902 Bromfield Road
Germantown, MD 20874
(39.151107, -77.294639)",39,1,39,2
Montgomery County Public Schools,"McAuliffe, Christa ES",12500 Wisteria Drive,Germantown,MD,20874,"12500 Wisteria Drive
Germantown, MD 20874
(39.167984, -77.259979)",39,1,39,2
MNCPPC,McKnew Local Park,14901 Saddle Creek DR,Burtonsville,MD,20866,"14901 Saddle Creek DR
Burtonsville, MD 20866
(39.10008, -76.918057)",47,1,30,5
Montgomery County Public Schools,"McNair, Ronald ES",13881 Hopkins Road,Germantown,MD,20874,"13881 Hopkins Road
Germantown, MD 20874
(39.16861, -77.290717)",39,1,39,2
MNCPPC,Meadowbrook Local Park,7901 Meadowbrook LN,Chevy Chase,MD,20815,"7901 Meadowbrook LN
Chevy Chase, MD 20815",,,,
Montgomery County Public Schools,Meadow Hall ES,951 Twinbrook Parkway,Rockville,MD,20851,"951 Twinbrook Parkway
Rockville, MD 20851
(39.083695, -77.116521)",68,12,25,3
MNCPPC,Meadowood Local Park,12810 New Hampshire AVE,Colesville,MD,20904,"12810 New Hampshire AVE
Colesville, MD 20904
(39.065229, -77.000161)",12,1,26,4
MNCPPC,Merrimac Neigh Park,6415 Winston DR,Bethesda,MD,20817,"6415 Winston DR
Bethesda, MD 20817
(38.9737, -77.131023)",103,1,12,1
Recreation,Mid County Community Recreation Center,2004 Queensguard Road,Silver Spring,MD,20906,"2004 Queensguard Road
Silver Spring, MD 20906
(39.087364, -77.042991)",6,1,57,4
Montgomery County Public Schools,Mill Creek Towne ES,17700 Park Mill Drive,Rockville,MD,20855,"17700 Park Mill Drive
Rockville, MD 20855
(39.146725, -77.15253)",51,1,36,4
MNCPPC,Mill Creek Towne Local Park,17401 Shady Grove RD,Gaithersburg,MD,20855,"17401 Shady Grove RD
Gaithersburg, MD 20855
(39.141129, -77.151744)",51,1,36,3
Montgomery County Public Schools,Monocacy ES,18801 Barnesville Road,Dickerson,MD,20842,"18801 Barnesville Road
Dickerson, MD 20842
(39.223844, -77.393789)",78,1,41,2
Montgomery County,Montgomery Hills JHS (Yeshiva of Greater Wash.),2010 Linden Lane,Silver Spring,MD,20910,"2010 Linden Lane
Silver Spring, MD 20910
(39.008941, -77.043459)",3065,1,7,5
Montgomery County Public Schools,Montgomery Knolls ES,807 Daleview Drive,Silver Spring,MD,20901,"807 Daleview Drive
Silver Spring, MD 20901
(39.006277, -76.994448)",21,1,8,5
Montgomery County Public Schools,"Montgomery, Richard  HS",250 Richard Montgomery Drive,Rockville,MD,20852,"250 Richard Montgomery Drive
Rockville, MD 20852
(39.078636, -77.145631)",60,12,25,3
Montgomery County Public Schools,Montgomery Village MS,19300 Watkins Mill Road,Montgomery Village,MD,20886,"19300 Watkins Mill Road
Montgomery Village, MD 20886
(39.17157, -77.208715)",28,1,38,2
Montgomery County,Montrose ES (Lourie Center),12301 Academy Way,Rockville,MD,20852,"12301 Academy Way
Rockville, MD 20852
(39.057436, -77.107493)",60,1,19,4
MNCPPC,Mount Zion Local Park,5130 Brookeville RD,Gaithersburg,MD,20882,"5130 Brookeville RD
Gaithersburg, MD 20882
(39.184693, -77.103062)",29,1,45,4
MNCPPC,Moyer Road Local Park,10000 Moyer RD,Damascus,MD,20872,"10000 Moyer RD
Damascus, MD 20872",,,,
Montgomery County Public Schools,Neelsville MS,11700 Neelsville Church Road,Germantown,MD,20876,"11700 Neelsville Church Road
Germantown, MD 20876
(39.195792, -77.240002)",36,1,39,2
Montgomery County Public Schools,New Hampshire Estates ES,8720 Carroll Avenue,Silver Spring,MD,20903,"8720 Carroll Avenue
Silver Spring, MD 20903
(38.998139, -76.991492)",15,1,8,5
MNCPPC,Newport Mill LP/MS,11201 Newport Mill RD,Kensington,MD,20895,"11201 Newport Mill RD
Kensington, MD 20895
(39.040534, -77.069897)",25,1,15,4
Montgomery County Public Schools,Newport Mill MS,11311 Newport Mill Rd.,Kensington,MD,20895,"11311 Newport Mill Rd.
Kensington, MD 20895
(39.042666, -77.068789)",17,1,15,4
MNCPPC,Nike Missile Local Park,8500 Snouffer School RD,Gaithersburg,MD,20879,"8500 Snouffer School RD
Gaithersburg, MD 20879
(39.168207, -77.175066)",31,1,36,4
Montgomery County Public Schools,"Nix, Roscoe ES",1100 Corliss Street,Silver Spring,MD,20903,"1100 Corliss Street
Silver Spring, MD 20903
(39.016872, -76.988631)",15,1,9,5
MNCPPC,Nolte Local Park,200 Denver RD,Silver Spring,MD,20910,"200 Denver RD
Silver Spring, MD 20910
(38.994681, -77.014306)",3065,1,7,5
Montgomery County Public Schools,North Bethesda MS,8935 Bradmoor St.,Bethesda,MD,20817,"8935 Bradmoor St.
Bethesda, MD 20817
(39.003501, -77.12538)",103,1,12,1
Montgomery County Public Schools,North Chevy Chase ES,3700 Jones Bridge Road,Chevy Chase,MD,20815,"3700 Jones Bridge Road
Chevy Chase, MD 20815
(38.999365, -77.073445)",110,1,5,1
MNCPPC,North Chevy Chase Local Park,4105 Jones Bridge RD,Chevy Chase,MD,20815,"4105 Jones Bridge RD
Chevy Chase, MD 20815
(39.000414, -77.081183)",110,1,5,1
MNCPPC,North Four Corners Local Park,211 Southwood AVE,Silver Spring,MD,20901,"211 Southwood AVE
Silver Spring, MD 20901
(39.025219, -77.014169)",21,1,13,5
Montgomery County Public Schools,North Lake Center (Bel Pre ES),15101 Bauer Dr.,Rockville,MD,20853,"15101 Bauer Dr.
Rockville, MD 20853
(39.10328, -77.104608)",58,1,61,3
Montgomery County Public Schools,Northwest HS,13501 Richter Farm Road,Germantown,MD,20874,"13501 Richter Farm Road
Germantown, MD 20874
(39.148617, -77.279068)",39,1,39,2
Montgomery County Public Schools,Northwood HS,919 University Boulevard,Silver Spring,MD,20901,"919 University Boulevard
Silver Spring, MD 20901
(39.034242, -77.024155)",21,1,17,5
MNCPPC,Norwood Local Park,4700 Norwood RD,Bethesda,MD,20815,"4700 Norwood RD
Bethesda, MD 20815
(38.975324, -77.092797)",110,1,5,1
Montgomery County Public Schools,Oakland Terrace ES,2720 Plyers Mill Road,Silver Spring,MD,20902,"2720 Plyers Mill Road
Silver Spring, MD 20902
(39.029663, -77.058119)",17,1,10,4
Montgomery County Public Schools,Oak View ES,400 East Wayne Avenue,Silver Spring,MD,20901,"400 East Wayne Avenue
Silver Spring, MD 20901
(39.003632, -77.002721)",21,1,8,5
Libraries,Olney Community Library,3500 Olney-Laytonsville RD,Olney,MD,20832,"3500 Olney-Laytonsville RD
Olney, MD 20832
(39.154143, -77.068772)",100,1,58,4
Montgomery County Public Schools,Olney ES,3401 Queen Mary Drive,Olney,MD,20832,"3401 Queen Mary Drive
Olney, MD 20832
(39.148347, -77.066975)",100,1,58,4
MNCPPC,Olney Family Nghbrhd Park,19117 Willow Grove RD,Olney,MD,20832,"19117 Willow Grove RD
Olney, MD 20832
(39.170179, -77.076504)",100,1,58,4
MNCPPC,Ovid Hazen Wells Recreational  Park,12001 Skylark RD,Clarksburg,MD,20871,"12001 Skylark RD
Clarksburg, MD 20871
(39.235607, -77.247531)",44,1,50,2
MNCPPC,Owens Local Park,19900 Beallsville RD,Beallsville,MD,20839,"19900 Beallsville RD
Beallsville, MD 20839
(39.182427, -77.407433)",77,1,37,2
Montgomery County Public Schools,Page ES,13400 Tamarack Road,Silver Spring,MD,20904,"13400 Tamarack Road
Silver Spring, MD 20904
(39.07511, -76.983029)",12,1,53,5
Montgomery County Public Schools,Paint Branch HS,14121 Old Columbia Pike,Burtonsville,MD,20866,"14121 Old Columbia Pike
Burtonsville, MD 20866
(39.087895, -76.94922)",47,1,53,5
MNCPPC,Parkland LP/MS,4701 Renn ST,Rockville,MD,20853,"4701 Renn ST
Rockville, MD 20853
(39.0836, -77.093771)",58,1,61,3
Montgomery County Public Schools,Parkland MS,4610 West Frankfort Drive,Rockville,MD,20853,"4610 West Frankfort Drive
Rockville, MD 20853
(39.085282, -77.091027)",58,1,61,3
MNCPPC,Parklawn Local Park,13000 Veirs Mill RD,Rockville,MD,20853,"13000 Veirs Mill RD
Rockville, MD 20853
(39.067032, -77.101406)",58,1,56,4
MNCPPC,Parkside Headquarters,9500 Brunett AVE,Silver Spring,MD,20901,"9500 Brunett AVE
Silver Spring, MD 20901
(39.010698, -77.021766)",21,1,7,5
Montgomery County Public Schools,"Parks, Rosa MS",19200 Olney Mill Road,Olney,MD,20832,"19200 Olney Mill Road
Olney, MD 20832
(39.171261, -77.080621)",100,1,58,4
Montgomery County,Peary HS (Berman Hebrew Academy),13300 Arctic Avenue,Rockville,MD,20853,"13300 Arctic Avenue
Rockville, MD 20853
(39.073283, -77.099331)",58,1,61,3
MNCPPC,Pilgrim Hill Local Park,1615 E Randolph RD,Colesville,MD,20904,"1615 E Randolph RD
Colesville, MD 20904
(39.065232, -76.978894)",12,1,18,5
Montgomery County Public Schools,Pine Crest ES,201 Woodmoor Drive,Silver Spring,MD,20901,"201 Woodmoor Drive
Silver Spring, MD 20901
(39.020804, -77.005219)",21,1,13,5
MNCPPC,Pinecrest LP (Pine Crest ES),301 St. Lawrence DR,Silver Spring,MD,20901,"301 St. Lawrence DR
Silver Spring, MD 20901
(39.021023, -77.003786)",21,1,13,5
Montgomery County Public Schools,Piney Branch ES,7510 Maple Avenue,Takoma Park,MD,20912,"7510 Maple Avenue
Takoma Park, MD 20912
(38.981843, -77.008918)",3062,11,4,5
MNCPPC,Pleasant View Local Park,11321 Norris DR,Wheaton,MD,20902,"11321 Norris DR
Wheaton, MD 20902
(39.041928, -77.064966)",17,1,15,4
MNCPPC,Plumgar Local Park,19561 Scenery DR,Germantown,MD,20876,"19561 Scenery DR
Germantown, MD 20876
(39.17713, -77.233675)",36,1,39,2
Montgomery County Public Schools,"Poole, John MS",17014 Tom Fox Avenue,Poolesville,MD,20837,"17014 Tom Fox Avenue
Poolesville, MD 20837
(39.126234, -77.409484)",97,16,34,1
Libraries,Poolesville Community Library,19633 Fisher AVE,Poolesville,MD,20837,"19633 Fisher AVE
Poolesville, MD 20837
(39.144381, -77.41053)",97,16,34,1
Montgomery County Public Schools,Poolesville ES,19565 Fisher Avenue,Poolesville,MD,20837,"19565 Fisher Avenue
Poolesville, MD 20837
(39.143637, -77.408289)",97,16,34,1
Montgomery County Public Schools,Poolesville HS,17501 Willard Road,Poolesville,MD,20837,"17501 Willard Road
Poolesville, MD 20837
(39.143357, -77.420046)",97,16,34,1
Recreation,Potomac Community Center,11315 Falls Road,Potomac,MD,20854,"11315 Falls Road
Potomac, MD 20854
(39.039653, -77.192805)",53,1,20,1
Libraries,Potomac Community Library,10101 Glenolden DR,Potomac,MD,20854,"10101 Glenolden DR
Potomac, MD 20854
(39.018886, -77.207624)",53,1,20,1
Montgomery County Public Schools,Potomac ES,10311 River Road,Rockville,MD,20854,"10311 River Road
Rockville, MD 20854
(39.020881, -77.213143)",53,1,20,1
Montgomery County Public Schools,"Pyle, Thomas MS",6311 Wilson Lane,Bethesda,MD,20817,"6311 Wilson Lane
Bethesda, MD 20817
(38.987745, -77.129477)",103,1,12,1
Montgomery County Public Schools,Quince Orchard HS,15800 Quince Orchard Road,Gaithersburg,MD,20878,"15800 Quince Orchard Road
Gaithersburg, MD 20878
(39.114944, -77.252945)",33,1,24,2
MNCPPC,Quince Orchard Knolls Local Park,11900 Quicne Mill DR,Darnestown,MD,20878,"11900 Quicne Mill DR
Darnestown, MD 20878
(39.109293, -77.248557)",33,1,24,2
Libraries,Quince Orchard Library,100 Maryland AVE,Rockville,MD,20850,"100 Maryland AVE
Rockville, MD 20850
(39.082088, -77.151215)",71,12,25,3
MNCPPC,Quince Orchard Valley Nghbrhd Park,12015 Suffolk TER,Gaithersburg,MD,20878,"12015 Suffolk TER
Gaithersburg, MD 20878
(39.133065, -77.249892)",33,1,36,3
Montgomery County Public Schools,Radnor Center (Rock Creek Forest ES),7000 Radnor Road,Bethesda,MD,20817,"7000 Radnor Road
Bethesda, MD 20817
(38.979748, -77.114417)",103,1,12,1
MNCPPC,Randolph Hills Local Park,11805 Ashley DR,Rockville,MD,20852,"11805 Ashley DR
Rockville, MD 20852
(39.049585, -77.093097)",60,1,19,4
Montgomery County,Randolph JHS (CESJDS),11710 Hunters Lane,Rockville,MD,20852,"11710 Hunters Lane
Rockville, MD 20852
(39.048885, -77.099926)",60,1,19,4
MNCPPC,Ray's Meadow Local Park,2901 East-West HWY,Chevy Chase,MD,20815,"2901 East-West HWY
Chevy Chase, MD 20815
(38.992575, -77.060642)",110,1,5,1
MNCPPC,Redland Local Park,17210 Redland RD,Derwood,MD,20855,"17210 Redland RD
Derwood, MD 20855
(39.13909, -77.143677)",51,1,36,3
Montgomery County Public Schools,Redland MS,6505 Muncaster Mill Road,Rockville,MD,20855,"6505 Muncaster Mill Road
Rockville, MD 20855
(39.139448, -77.132418)",51,1,54,4
Montgomery County,Regional Services Center-B-CC,4805 Edgemoor LN,Bethesda,MD,20814,"4805 Edgemoor LN
Bethesda, MD 20814
(38.984796, -77.095858)",111,1,12,1
Montgomery County,Regional Services Center-Eastern,3300 Briggs Chaney RD,Silver Spring,MD,20904,"3300 Briggs Chaney RD
Silver Spring, MD 20904
(39.077375, -76.942667)",12,1,53,5
Montgomery County,Regional Services Center-Mid-County,2424 Reedie DR,Wheaton,MD,20902,"2424 Reedie DR
Wheaton, MD 20902
(39.038469, -77.051985)",17,1,16,4
Montgomery County,Regional Services Center-Upcounty,12900 Middlebrook RD,Germantown,MD,20874,"12900 Middlebrook RD
Germantown, MD 20874
(39.179332, -77.267914)",39,1,39,2
Montgomery County Public Schools,"Resnik, Judith ES",7301 Hadley Farms Drive,Gaithersburg,MD,20879,"7301 Hadley Farms Drive
Gaithersburg, MD 20879
(39.179992, -77.150837)",31,1,36,4
Montgomery County Public Schools,"Ride, Dr. Sally ES",21301 Seneca Crossing Drive,Germantown,MD,20876,"21301 Seneca Crossing Drive
Germantown, MD 20876
(39.209423, -77.237359)",36,1,39,2
MNCPPC,Ridge Road Recreational Park,21155 Frederick Road,Germantown,MD,20876,"21155 Frederick Road
Germantown, MD 20876
(39.203839, -77.245751)",36,1,39,2
Montgomery County Public Schools,Ridgeview MS,16600 Raven Rock Drive,Gaithersburg,MD,20878,"16600 Raven Rock Drive
Gaithersburg, MD 20878
(39.128055, -77.248119)",33,1,36,3
Montgomery County Public Schools,Ritchie Park ES,1514 Dunster Road,Rockville,MD,20854,"1514 Dunster Road
Rockville, MD 20854
(39.062293, -77.17373)",53,12,25,3
Montgomery County Public Schools,Rock Creek Forest ES (closed),8330 Grubb Road,Chevy Chase,MD,20815,"8330 Grubb Road
Chevy Chase, MD 20815
(38.993133, -77.050908)",110,1,6,1
Montgomery County Public Schools,Rock Creek Forest ES @ Radnor Center,7000 Radnor Road,Bethesda,MD,20817,"7000 Radnor Road
Bethesda, MD 20817
(38.979748, -77.114417)",103,1,12,1
MNCPPC,Rock Creek Hills Local Park,3701 Saul RD,Kensington,MD,20895,"3701 Saul RD
Kensington, MD 20895
(39.015001, -77.075458)",25,1,15,1
Montgomery County Public Schools,Rock Creek Valley ES,5121 Russett Road,Rockville,MD,20853,"5121 Russett Road
Rockville, MD 20853
(39.082544, -77.102967)",58,1,61,3
Montgomery County Public Schools,Rock Terrace School,390 Martins Lane,Rockville,MD,20850,"390 Martins Lane
Rockville, MD 20850
(39.092281, -77.158378)",71,12,25,3
Montgomery County Public Schools,Rock View ES,3901 Denfield Avenue,Kensington,MD,20895,"3901 Denfield Avenue
Kensington, MD 20895
(39.038681, -77.076895)",25,1,15,4
Montgomery County Public Schools,Rockville HS,2100 Baltimore Road,Rockville,MD,20851,"2100 Baltimore Road
Rockville, MD 20851
(39.085797, -77.117242)",68,12,25,3
Libraries,Rockville Memorial Library,21 Maryland Avenue,Rockville,MD,20850,"21 Maryland Avenue
Rockville, MD 20850
(39.086577, -77.15105)",71,12,25,3
Montgomery County Public Schools,"Rockwell, Lois ES",24555 Cutsail Drive,Damascus,MD,20872,"24555 Cutsail Drive
Damascus, MD 20872
(39.256377, -77.215086)",42,1,51,2
Montgomery County Public Schools,Rocky Hill MS,22401 Brick Haven Way,Clarksburg,MD,20871,"22401 Brick Haven Way
Clarksburg, MD 20871
(39.220838, -77.263208)",44,1,50,2
Montgomery County Public Schools,Rolling Terrace ES,705 Bayfield Street,Takoma Park,MD,20912,"705 Bayfield Street
Takoma Park, MD 20912
(38.995922, -76.997606)",3062,1,8,5
Montgomery County Public Schools,Rosemary Hills ES,2111 Porter Road,Silver Spring,MD,20910,"2111 Porter Road
Silver Spring, MD 20910
(39.000698, -77.045452)",3065,1,6,5
MNCPPC,Rosemary Hills-Lyttonsville Local Park,2450 Lyttonsville RD,Silver Spring,MD,20910,"2450 Lyttonsville RD
Silver Spring, MD 20910
(38.999711, -77.050901)",3065,1,6,5
Montgomery County Public Schools,Rosemont ES,16400 Alden Avenue,Gaithersburg,MD,20877,"16400 Alden Avenue
Gaithersburg, MD 20877
(39.125802, -77.185192)",35,21,36,3
Recreation,Ross Boddy Community Center,18529 Brooke Road,Sandy Spring,MD,20860,"18529 Brooke Road
Sandy Spring, MD 20860
(39.159601, -77.032618)",50,1,58,4
MNCPPC,Saddlebrook Local Park,12751 Layhill RD,Silver Spring,MD,20906,"12751 Layhill RD
Silver Spring, MD 20906
(39.065198, -77.048095)",6,1,23,4
Montgomery County Public Schools,"Sandburg, Carl Learning Center",451 Meadow Hall Drive,Rockville,MD,20851,"451 Meadow Hall Drive
Rockville, MD 20851
(39.075861, -77.11041)",68,12,61,3
MNCPPC,Sangamore Local Park,4802 Sangamore RD,Bethesda,MD,20816,"4802 Sangamore RD
Bethesda, MD 20816
(38.952468, -77.12095)",107,1,1,1
Montgomery County Public Schools,Seneca Valley HS,19401 Crystal Rock Drive,Germantown,MD,20874,"19401 Crystal Rock Drive
Germantown, MD 20874
(39.175675, -77.265554)",39,1,39,2
Montgomery County Public Schools,Sequoyah ES,17301 Bowie Mill Road,Derwood,MD,20855,"17301 Bowie Mill Road
Derwood, MD 20855
(39.134221, -77.122312)",51,1,55,4
Montgomery County Public Schools,Seven Locks ES,9500 Seven Locks Road,Bethesda,MD,20814,"9500 Seven Locks Road
Bethesda, MD 20814
(39.012083, -77.16012)",103,1,12,1
MNCPPC,Seven Locks Local Park,6922 Seven Locks RD,Cabin John,MD,20818,"6922 Seven Locks RD
Cabin John, MD 20818
(38.980088, -77.160946)",102,1,3,1
Montgomery County Public Schools,Shady Grove MS,8100 Mid County Highway,Gaithersburg,MD,20877,"8100 Mid County Highway
Gaithersburg, MD 20877
(39.143991, -77.162144)",35,1,36,3
Montgomery County Public Schools,Sherwood ES,1401 Olney-Sandy Spring Road,Sandy Spring,MD,20860,"1401 Olney-Sandy Spring Road
Sandy Spring, MD 20860
(39.148391, -77.033874)",50,1,35,4
Montgomery County Public Schools,Sherwood HS,300 Olney-Sandy Spring Road,Sandy Spring,MD,20860,"300 Olney-Sandy Spring Road
Sandy Spring, MD 20860
(39.149009, -77.019875)",49,1,35,4
Montgomery County Public Schools,"Shriver, Sargent ES",12518 Greenly Drive,Silver Spring,MD,20906,"12518 Greenly Drive
Silver Spring, MD 20906
(39.0602, -77.07974)",6,1,23,4
Montgomery County,Silver Spring Civic Building,1 Veterans Place,Silver Spring,MD,20910,"1 Veterans Place
Silver Spring, MD 20910
(38.997448, -77.02368)",3065,1,7,5
Libraries,Silver Spring Community Library,8901 Colesville RD,Silver Spring,MD,20910,"8901 Colesville RD
Silver Spring, MD 20910
(39.000396, -77.025608)",3065,1,7,5
Montgomery County Public Schools,Silver Spring International MS (Old Blair),313 Wayne Avenue,Silver Spring,MD,20910,"313 Wayne Avenue
Silver Spring, MD 20910
(38.999849, -77.013957)",3065,1,7,5
Montgomery County Public Schools,"Singer, Flora M. ES",2600 Hayden Drive,Silver Spring,MD,20902,"2600 Hayden Drive
Silver Spring, MD 20902
(39.020032, -77.053757)",17,1,10,5
Montgomery County Public Schools,Sligo Creek ES,500 Schuyler Road,Silver Spring,MD,20910,"500 Schuyler Road
Silver Spring, MD 20910
(39.001247, -77.015927)",3065,1,7,5
MNCPPC,Sligo Creek SVU3,Sligo Creek Pkwy,Silver Spring,MD,20902,"Sligo Creek Pkwy
Silver Spring, MD 20902",,,,
MNCPPC,Sligo-Dennis Ave. Local Pk,10200 Sligo Creek PKY,Silver Spring,MD,20902,"10200 Sligo Creek PKY
Silver Spring, MD 20902
(39.027504, -77.028714)",21,1,17,5
Montgomery County Public Schools,Sligo MS,1401 Dennis Avenue,Silver Spring,MD,20902,"1401 Dennis Avenue
Silver Spring, MD 20902
(39.025854, -77.033042)",17,1,16,5
Montgomery County Public Schools,Somerset ES,5811 Warwick Place,Chevy Chase,MD,20815,"5811 Warwick Place
Chevy Chase, MD 20815
(38.968893, -77.092999)",110,7,5,1
MNCPPC,Southeast Olney Local Park,17600 Buehler RD,Olney,MD,20832,"17600 Buehler RD
Olney, MD 20832
(39.144909, -77.062741)",100,1,58,4
MNCPPC,South Germantown RP,14501 Shaeffer RD,Boyds,MD,20841,"14501 Shaeffer RD
Boyds, MD 20841
(39.145995, -77.308383)",75,1,42,2
MNCPPC,South Gunners Branch Local Park,12919 Prairie Knoll CT,Germantown,MD,20874,"12919 Prairie Knoll CT
Germantown, MD 20874
(39.150085, -77.271861)",39,1,39,2
Montgomery County Public Schools,South Lake ES,18201 Contour Road,Gaithersburg,MD,20877,"18201 Contour Road
Gaithersburg, MD 20877
(39.154918, -77.197223)",28,1,38,2
MNCPPC,Spencerville Local Park,15701 Good Hope RD,Silver Spring,MD,20905,"15701 Good Hope RD
Silver Spring, MD 20905
(39.111628, -76.97911)",8,1,29,5
Montgomery County Public Schools,Springbrook HS,201 Valleybrook Drive,Silver Spring,MD,20904,"201 Valleybrook Drive
Silver Spring, MD 20904",,,,
Montgomery County Public Schools,Spring Mill Center,11721 Kemp Mill Road,Silver Spring,MD,20902,"11721 Kemp Mill Road
Silver Spring, MD 20902
(39.047972, -77.026511)",17,1,17,4
Montgomery County Public Schools,Stedwick ES,10631 Stedwick Road,Gaithersburg,MD,20879,"10631 Stedwick Road
Gaithersburg, MD 20879
(39.173192, -77.216638)",28,1,38,2
MNCPPC,Stewartown Local Park,19700 Goshen RD,Gaithersburg,MD,20879,"19700 Goshen RD
Gaithersburg, MD 20879
(39.178412, -77.189566)",31,1,38,2
Montgomery County Public Schools,Stonegate ES,14811 Notley Road,Silver Spring,MD,20904,"14811 Notley Road
Silver Spring, MD 20904
(39.098951, -77.016718)",8,1,26,4
MNCPPC,Stonegate Local Park,14920 Notley RD,Silver Spring,MD,20905,"14920 Notley RD
Silver Spring, MD 20905
(39.101921, -77.016356)",8,1,26,4
MNCPPC,Stonehedge Local Park,12121 Old Columbia PIKE,Silver Spring,MD,20904,"12121 Old Columbia PIKE
Silver Spring, MD 20904
(39.054304, -76.973393)",12,1,21,5
Montgomery County Public Schools,Stone Mill ES,14323 Stonebridge View Drive,Gaithersburg,MD,20879,"14323 Stonebridge View Drive
Gaithersburg, MD 20879
(39.091035, -77.215729)",33,1,24,3
MNCPPC,Stoneybrook Local Park,4105 Havard ST,Silver Spring,MD,20906,"4105 Havard ST
Silver Spring, MD 20906
(39.062798, -77.081866)",6,1,23,4
Montgomery County Public Schools,Strathmore ES,3200 Beaverwood Lane,Silver Spring,MD,20906,"3200 Beaverwood Lane
Silver Spring, MD 20906
(39.086788, -77.065205)",6,1,59,4
MNCPPC,Strathmore Local Park,3210 Beaverwood LN,Aspen Hill,MD,20906,"3210 Beaverwood LN
Aspen Hill, MD 20906
(39.086506, -77.064286)",6,1,59,4
MNCPPC,Stratton Local Park,9925 Harrogate RD,Bethesda,MD,20817,"9925 Harrogate RD
Bethesda, MD 20817
(39.019721, -77.137415)",103,1,12,1
Montgomery County Public Schools,Strawberry Knoll ES,18820 Strawberry Knoll Road,Gaithersburg,MD,20879,"18820 Strawberry Knoll Road
Gaithersburg, MD 20879
(39.167998, -77.18016)",31,1,36,2
MNCPPC,Strawberry Knoll Local Park,18810 Strawberry Knoll RD,Gaithersburg,MD,20879,"18810 Strawberry Knoll RD
Gaithersburg, MD 20879
(39.168343, -77.179947)",31,1,36,2
Montgomery County Public Schools,Summit Hall ES,101 West Deer Park Road,Gaithersburg,MD,20877,"101 West Deer Park Road
Gaithersburg, MD 20877
(39.134808, -77.2054)",35,21,36,3
MNCPPC,Sundown Road Local Park,6200 Sundown RD,Laytonsville,MD,20882,"6200 Sundown RD
Laytonsville, MD 20882
(39.214222, -77.127106)",29,1,45,4
Montgomery County Public Schools,Takoma Park ES,7511 Holly Avenue,Takoma Park,MD,20912,"7511 Holly Avenue
Takoma Park, MD 20912
(38.983053, -77.012936)",3062,11,4,5
Montgomery County Public Schools,Takoma Park MS,7611 Piney Branch Rd.,Silver Spring,MD,20910,"7611 Piney Branch Rd.
Silver Spring, MD 20910
(38.985229, -77.014394)",3062,1,4,5
Montgomery County Public Schools,Tilden Center,6300 Tilden Lane,Rockville,MD,20852,"6300 Tilden Lane
Rockville, MD 20852
(39.043705, -77.131793)",60,1,19,1
Montgomery County Public Schools,Tilden MS,11211 Old Georgetown Road,Rockville,MD,20852,"11211 Old Georgetown Road
Rockville, MD 20852
(39.038751, -77.122716)",60,1,19,1
MNCPPC,Tilden Woods Local Park,6800 Tilden LN,Rockville,MD,20852,"6800 Tilden LN
Rockville, MD 20852
(39.044118, -77.138867)",60,1,19,1
MNCPPC,Timberlawn Local Park,10800 Gloxinia DR,North Bethesda,MD,20852,"10800 Gloxinia DR
North Bethesda, MD 20852",,,,
Montgomery County Public Schools,Travilah ES,13801 Dufief Mill Road,Gaithersburg,MD,20878,"13801 Dufief Mill Road
Gaithersburg, MD 20878
(39.082085, -77.249536)",33,1,24,2
Libraries,Twinbrook Community Library,202 Meadow Hall DR,Rockville,MD,20851,"202 Meadow Hall DR
Rockville, MD 20851
(39.074824, -77.113291)",68,12,25,3
Montgomery County Public Schools,Twinbrook ES,5911 Ridgeway Avenue,Rockville,MD,20851,"5911 Ridgeway Avenue
Rockville, MD 20851
(39.067111, -77.12012)",68,12,25,3
Montgomery County Public Schools,Veirs Mill ES,11711 Joseph Mill Road,Silver Spring,MD,20906,"11711 Joseph Mill Road
Silver Spring, MD 20906
(39.047884, -77.085777)",6,1,56,4
MNCPPC,Veirs Mill Local Park,4425 Garrett Park RD,Silver Spring,MD,20906,"4425 Garrett Park RD
Silver Spring, MD 20906
(39.041726, -77.087343)",6,1,56,4
MNCPPC,Waring Station Local Park,12215 Stoney Bottom RD,Germantown,MD,20874,"12215 Stoney Bottom RD
Germantown, MD 20874
(39.169967, -77.254473)",39,1,39,2
Montgomery County Public Schools,Washington Grove ES,8712 Oakmont Street,Gaithersburg,MD,20877,"8712 Oakmont Street
Gaithersburg, MD 20877
(39.133664, -77.178804)",35,1,36,3
MNCPPC,Washington Square Nghbrhd Park,17800 Amity DR,Gaithersburg,MD,20877,"17800 Amity DR
Gaithersburg, MD 20877",,,,
Montgomery County Public Schools,Waters Landing ES,13100 Waters Landing Drive,Germantown,MD,20874,"13100 Waters Landing Drive
Germantown, MD 20874
(39.189693, -77.269343)",39,1,39,2
MNCPPC,Waters Landing Local Park,13701 Waters Landing DR,Germantown,MD,20874,"13701 Waters Landing DR
Germantown, MD 20874
(39.191459, -77.271559)",39,1,39,2
Montgomery County Public Schools,Watkins Mill ES,19001 Watkins Mill Road,Gaithersburg,MD,20879,"19001 Watkins Mill Road
Gaithersburg, MD 20879
(39.167544, -77.21211)",28,1,38,2
Montgomery County Public Schools,Watkins Mill HS,10301 Apple Ridge Road,Gaithersburg,MD,20879,"10301 Apple Ridge Road
Gaithersburg, MD 20879
(39.182753, -77.215258)",28,1,38,2
Montgomery County Public Schools,Wayside ES,10011 Glen Road,Potomac,MD,20854,"10011 Glen Road
Potomac, MD 20854
(39.046704, -77.206614)",53,1,20,1
Montgomery County Public Schools,Weller Rd ES,3301 Weller Road,Silver Spring,MD,20906,"3301 Weller Road
Silver Spring, MD 20906
(39.06445, -77.067959)",6,1,23,4
Montgomery County Public Schools,Westbrook ES,5110 Allan Terrace,Bethesda,MD,20816,"5110 Allan Terrace
Bethesda, MD 20816
(38.957615, -77.102401)",107,1,12,1
MNCPPC,West Fairland Local Park,2201 Fairland RD,Fairland,MD,20904,"2201 Fairland RD
Fairland, MD 20904
(39.077889, -76.965174)",12,1,53,5
Montgomery County Public Schools,"West, Julius MS",651 Great Falls Road,Rockville,MD,20850,"651 Great Falls Road
Rockville, MD 20850
(39.075374, -77.163534)",71,12,25,3
Montgomery County Public Schools,Westland MS,5511 Massachusetts Avenue,Bethesda,MD,20816,"5511 Massachusetts Avenue
Bethesda, MD 20816
(38.95833, -77.109902)",107,1,12,1
MNCPPC,Westmoreland Hills Local Park,5315 Elliott DR,Bethesda,MD,20816,"5315 Elliott DR
Bethesda, MD 20816
(38.951645, -77.108013)",107,1,12,1
Montgomery County Public Schools,Westover ES,401 Hawkesbury Lane,Silver Spring,MD,20904,"401 Hawkesbury Lane
Silver Spring, MD 20904
(39.074344, -77.017246)",12,1,26,4
MNCPPC,Wheaton Forest Local Park,1700 University BLVD W,Silver Spring,MD,20902,"1700 University BLVD W
Silver Spring, MD 20902
(39.037243, -77.039678)",17,1,16,4
Montgomery County Public Schools,Wheaton HS,12601 Dalewood Drive,Wheaton,MD,20906,"12601 Dalewood Drive
Wheaton, MD 20906
(39.061934, -77.067513)",6,1,23,4
Libraries,Wheaton Regional Library,11701 Georgia AVE,Wheaton,MD,20902,"11701 Georgia AVE
Wheaton, MD 20902
(39.047816, -77.051924)",17,1,16,4
Montgomery County Public Schools,Wheaton Woods ES,4510 Faroe Place,Rockville,MD,20853,"4510 Faroe Place
Rockville, MD 20853
(39.068888, -77.08976)",58,1,61,4
MNCPPC,Wheaton Woods Local Park,4650 Falcon ST,Rockville,MD,20853,"4650 Falcon ST
Rockville, MD 20853
(39.066811, -77.092715)",58,1,61,4
Montgomery County Public Schools,Whetstone ES,19201 Thomas Farm Road,Gaithersburg,MD,20879,"19201 Thomas Farm Road
Gaithersburg, MD 20879
(39.172339, -77.197706)",28,1,38,2
Libraries,White Oak Community Library,11701 New Hampshire AVE,Silver Spring,MD,20904,"11701 New Hampshire AVE
Silver Spring, MD 20904
(39.047705, -76.992802)",12,1,18,5
Montgomery County Public Schools,White Oak MS,12201 New Hampshire Avenue,Silver Spring,MD,20904,"12201 New Hampshire Avenue
Silver Spring, MD 20904
(39.055274, -76.995405)",12,1,18,5
Montgomery County Public Schools,"Whitman, Walt HS",7100 Whittier Boulevard,Bethesda,MD,20817,"7100 Whittier Boulevard
Bethesda, MD 20817
(38.980869, -77.125554)",103,1,12,1
MNCPPC,Whittier Woods Local Park,7400 Whitter BLVD,Bethesda,MD,20817,"7400 Whitter BLVD
Bethesda, MD 20817
(38.983381, -77.126071)",103,1,12,1
MNCPPC,Winding Creek Local Park,12326 Dewey RD,Wheaton,MD,20906,"12326 Dewey RD
Wheaton, MD 20906
(39.056342, -77.089958)",6,1,56,4
Montgomery County Public Schools,Wood Acres ES,5800 Cromwell Drive,Bethesda,MD,20816,"5800 Cromwell Drive
Bethesda, MD 20816
(38.968448, -77.118049)",107,1,12,1
MNCPPC,Woodacres LP/ES,5850 Wyndwood RD,Bethesda,MD,20816,"5850 Wyndwood RD
Bethesda, MD 20816
(38.96753, -77.121598)",107,1,12,1
Montgomery County Public Schools,"Wood, Earl MS",14615 Bauer Drive,Rockville,MD,20853,"14615 Bauer Drive
Rockville, MD 20853
(39.093397, -77.109047)",58,1,61,3
Montgomery County Public Schools,Woodfield ES,24200 Woodfield Road,Gaithersburg,MD,20879,"24200 Woodfield Road
Gaithersburg, MD 20879
(39.2533, -77.197462)",29,1,46,2
Montgomery County Public Schools,Woodlin ES,2101 Luzerne Avenue,Silver Spring,MD,20910,"2101 Luzerne Avenue
Silver Spring, MD 20910
(39.006008, -77.04669)",3065,1,6,5
MNCPPC,Wood LP/MS,14601 Bauer DR,Rockville,MD,20853,"14601 Bauer DR
Rockville, MD 20853
(39.091531, -77.108732)",58,1,61,3
Montgomery County Public Schools,"Wootton, Thomas HS",2100 Wootton Parkway,Rockville,MD,20850,"2100 Wootton Parkway
Rockville, MD 20850
(39.0762, -77.182019)",71,12,25,3
Montgomery County Public Schools,Wyngate ES,9300 Wadsworth Drive,Bethesda,MD,20817,"9300 Wadsworth Drive
Bethesda, MD 20817
(39.010245, -77.127132)",103,1,12,1
