Licensee Name,Street,City,State,Zip,Licensee Number,Channel Type,Account Name,Location,MoCo_boundary,Zip Codes,Communities,Councils,Municipalities
TWIN VALLEY DISTILLERS,1029 E. GUDE DR.,ROCKVILLE,MD,20850,OCP123261,On Premise,"CELICAR, LLC","1029 E. GUDE DR.
ROCKVILLE, MD 20850
(39.098377, -77.13765)",1,71,27,3,1
FARMSOOK HAPPINESS THAI KITCHEN,"800 KING FARM BLVD., #125",ROCKVILLE,MD,20850,BBWLHR100259,On Premise,"FARMSOOK, LLC","800 KING FARM BLVD., #125
ROCKVILLE, MD 20850
(39.111796, -77.177755)",1,71,25,3,12
MATCHBOX-BETHESDA,7278 WOODMONT AVE.,BETHESDA,MD,20814,BBWLHR95262,On Premise,"MATCHBOX BETHESDA, LLC","7278 WOODMONT AVE.
BETHESDA, MD 20814
(38.981852, -77.096022)",1,111,12,1,1
SUNDAY MORNING BAKEHOUSE,11869 GRAND PARK AVE.,NORTH BETHESDA,MD,20852,BBWLHR42483,On Premise,"SUNDAY MORNING BAKEHOUSE, LLC","11869 GRAND PARK AVE.
NORTH BETHESDA, MD 20852
(39.050391, -77.117345)",1,60,19,1,1
THE BETHESDA BAZAR,8006 NORFOLK AVENUE,BETHESDA,MD,20814,ABWS160264,Off Premise,"AESOLUTIONS, LLC","8006 NORFOLK AVENUE
BETHESDA, MD 20814
(38.989884, -77.098878)",1,111,12,1,1
BONCHON CHICKEN-KENTLANDS,130 MARKET ST.,GAITHERSBURG,MD,20878,BBWLHR277259,On Premise,"KF KENTLANDS, INC.","130 MARKET ST.
GAITHERSBURG, MD 20878
(39.122645, -77.234936)",1,33,36,3,21
DEBAB RESTAURANT,952 SLIGO AVE.,SILVER SPRING,MD,20910,BBWLHR304268,On Premise,"AMROT, LLC","952 SLIGO AVE.
SILVER SPRING, MD 20910
(38.990253, -77.025745)",1,3065,7,5,1
HOT POT HERO,100 PARAMOUNT PARK DR.,GAITHERSBURG,MD,20879,HBWHR299259,On Premise,"HPH ROCKVILLE, LLC","100 PARAMOUNT PARK DR.
GAITHERSBURG, MD 20879
(39.159485, -77.22167)",1,31,36,3,21
MIX BAR & GRILLE,8241 GEORGIA AVENUE,SILVER SPRING,MD,20910,BBWLHR20197,On Premise,"BP HOSPITALITY GROUP, LLC","8241 GEORGIA AVENUE
SILVER SPRING, MD 20910
(38.992822, -77.026558)",1,3065,7,5,1
NC-MEDINA CUISINE,6301 MONTROSE RD.,ROCKVILLE,MD,20852,CATBWL767357,On Premise,"THE KOSHER KITCHEN CATERING CO, LLC","6301 MONTROSE RD.
ROCKVILLE, MD 20852
(39.052973, -77.128805)",1,60,19,3,1
A & H CONVENIENCE MARKET,11235 OAK LEAF DR.,SILVER SPRING,MD,20901,ABW190259,Off Premise,A&H CONVENIENCE MARKET,"11235 OAK LEAF DR.
SILVER SPRING, MD 20901
(39.040723, -76.995529)",1,21,18,5,1
THE BLOCK AT PIKE & ROSE,967 ROSE AVENUE,ROCKVILLE,MD,20852,BBWLHR127259,On Premise,"THE BLOCK AT PIKE & ROSE, INC.","967 ROSE AVENUE
ROCKVILLE, MD 20852
(39.051169, -77.115844)",1,60,19,1,1
BANGKOK GARDEN-ROCKVILLE,891-D ROCKVILLE PIKE,ROCKVILLE,MD,20852,BBWHR209259,On/Off-Premise,"V&Y FOOD, LLC","891-D ROCKVILLE PIKE
ROCKVILLE, MD 20852
(39.074883, -77.13643)",1,60,25,3,12
NT-BIRYANI JOINT INDIAN CUISINE,15504 OLD COLUMBIA PIKE,BURTONSVILLE,MD,20866,BBWHR885396,On/Off-Premise,HASHTAG FOOD AND BEVERAGE LLC,"15504 OLD COLUMBIA PIKE
BURTONSVILLE, MD 20866
(39.109736, -76.934828)",1,47,30,5,1
NC-RIDGEWELLS,5520 CLIPPER LANE,BETHESDA,MD,20816,CATBWL19232,On Premise,RIDGEWELLS,"5520 CLIPPER LANE
BETHESDA, MD 20816
(38.964332, -77.101794)",1,107,12,1,1
NC-SIMPLY FRESH EVENTS,7621 RICKENBACKER DRIVE #500,GAITHERSBURG,MD,20879,CATBWL28122,On Premise,"SIMPLY FRESH EVENTS, LLC","7621 RICKENBACKER DRIVE #500
GAITHERSBURG, MD 20879
(39.173459, -77.158101)",1,31,36,4,1
AMY TEXMEX BAR AND GRILL LLC,621 SLIGO AVE.,SILVER SPRING,MD,20910,BBWLHR798369,On Premise,AMY TEX MEX BAR & GRILL CORP,"621 SLIGO AVE.
SILVER SPRING, MD 20910
(38.991126, -77.014576)",1,3065,7,5,1
GHAR-E-KABAB,944 WAYNE AVE.,SILVER SPRING,MD,20910,BBWLHR802372,On Premise,MDD GROUP LLC,"944 WAYNE AVE.
SILVER SPRING, MD 20910
(38.994631, -77.025739)",1,3065,7,5,1
MEZEHUB,11506-11508 SCHUYLKILL RD,ROCKVILLE,MD,20852,DBW416289,On/Off-Premise,"FILLY FOODS, LLC","11506-11508 SCHUYLKILL RD
ROCKVILLE, MD 20852
(39.045587, -77.097509)",1,60,19,4,1
ENGOCHA MARKET,"11406 GEORGIA AVE, STE A",WHEATON,MD,20902,ABW34662,Off Premise,"ENGOCHA, LLC","11406 GEORGIA AVE, STE A
WHEATON, MD 20902
(39.042028, -77.051982)",1,17,16,4,1
N-CUBASI BISTRO,4710 BETHESDA AVE SUITE A,BETHESDA,MD,20814,BBWLHR873396,On Premise,CUBASI BISTRO CORP,"4710 BETHESDA AVE SUITE A
BETHESDA, MD 20814
(38.981021, -77.093828)",1,111,12,1,1
SQUISITO PIZZA & PASTA,15654 OLD COLUMBIA PIKE,BURTONSVILLE,MD,20866,HBWHR43859,On Premise,"PUNCEATYME, INC.","15654 OLD COLUMBIA PIKE
BURTONSVILLE, MD 20866
(39.112823, -76.932866)",1,47,30,5,1
N-LA CATRINA LOUNGE,4935 CORDELL AVENUE,BETHESDA,MD,20814,BBWLHR878396,On Premise,LA CATRINA LOUNGE LLC,"4935 CORDELL AVENUE
BETHESDA, MD 20814
(38.988911, -77.098565)",1,111,12,1,1
MARIA'S CAFE & RESTAURANT,11305 ELKIN ST.,WHEATON,MD,20902,BBWLHR185262,On Premise,"MARIA'S CAFE & RESTAURANT, INC.","11305 ELKIN ST.
WHEATON, MD 20902
(39.040457, -77.05035)",1,17,16,4,1
HALFSMOKE,7101 DEMOCRACY BLVD.,BETHESDA,MD,20817,DBWL800367,On Premise,"HS WESTFIELD, LLC","7101 DEMOCRACY BLVD.
BETHESDA, MD 20817
(39.0242, -77.1459)",1,103,19,1,1
N-JOY BY SEVEN REASONS,5471-F WISCONSN AVE,CHEVY CHASE,MD,20815,BBWLHR,On Premise,JOY7R LLC,"5471-F WISCONSN AVE
CHEVY CHASE, MD 20815
(38.963042, -77.086756)",1,110,5,1,1
N-BONCHON,19775 FREDERICK ROAD,GERMANTOWN,MD,20876,BBWLHR881399,On Premise,"JSM BC GERMANTOWN, LLC","19775 FREDERICK ROAD
GERMANTOWN, MD 20876
(39.179618, -77.238366)",1,36,39,2,1
NINJA SUSHI,13452 NEW HAMPSHIRE AVE.,SILVER SPRING,MD,20904,BBWHR372277,On/Off-Premise,"NINJA SUSHI, INC.","13452 NEW HAMPSHIRE AVE.
SILVER SPRING, MD 20904
(39.076762, -77.001835)",1,12,26,4,1
Z-GEPETTO CATERING COMPANY,4505 QUEENSBURY ROAD,RIVERDALE,MD,20737,CATBWL26369,On Premise,"GEPETTO CATERING COMPANY, INC.","4505 QUEENSBURY ROAD
RIVERDALE, MD 20737
(38.963028, -76.938235)",,1731,,,
NC-ROSE'S AT HOME CATERING,5223 RIVER RD.,POTOMAC,MD,20816,CATBWL431274,On Premise,"RRG CATERING, LLC","5223 RIVER RD.
POTOMAC, MD 20816",,,,,
N-LA GELATTERIA,10414 DETRICK AVE #500,KENSINGTON,MD,20895,BBWLHR779375,,LA GELATTERIA LLC,"10414 DETRICK AVE #500
KENSINGTON, MD 20895
(39.02795, -77.077975)",1,25,15,1,6
BEST BEER WINE AND DELI,18749-A NORTH FREDERICK ROAD,GAITHERSBURG,MD,20879,ABW854397,Off Premise,BEST BEER WINE AND DELI,"18749-A NORTH FREDERICK ROAD
GAITHERSBURG, MD 20879
(39.163477, -77.226134)",1,31,36,3,21
OLNEY BEER & WINE,18316 VILLAGE CENTER DR,OLNEY,MD,20832,DBW39022,On/Off-Premise,"MERC ENTERPRISES, INC.","18316 VILLAGE CENTER DR
OLNEY, MD 20832
(39.153785, -77.063134)",1,100,58,4,1
GOOD HARVEST,5700-A FISHER LANE,ROCKVILLE,MD,20852,BBWHR393275,On/Off-Premise,"HS HARVEST, INC.","5700-A FISHER LANE
ROCKVILLE, MD 20852
(39.062757, -77.117447)",1,60,19,4,12
DISTRICT TACO,1310 EAST WEST HWY.,SILVER SPRING,MD,20910,HBWHR387275,On Premise,"DISTRICT TACO, LLC","1310 EAST WEST HWY.
SILVER SPRING, MD 20910
(38.99282, -77.031575)",1,3065,7,5,1
KOOK KAI'S THAI NOODLES,939 BONIFANT ST,SILVER SPRING,MD,20910,BBWHR825372,On/Off-Premise,"PK FOOD SERVICE, LLC","939 BONIFANT ST
SILVER SPRING, MD 20910
(38.993902, -77.025212)",1,3065,7,5,1
N-THE HEIGHTS,5406 WISCONSIN AVE SUITE A,CHEVY CHASE,MD,20815,BBWLHR878403,On Premise,THE HEIGHTS MD LLC,"5406 WISCONSIN AVE SUITE A
CHEVY CHASE, MD 20815
(38.96121, -77.086026)",1,110,5,1,1
VIRRAAJ,4914 CORDELL AVE.,BETHESDA,MD,20814,BBWLHR309260,On Premise,"VIRAAJ REST. GROUP,LLC","4914 CORDELL AVE.
BETHESDA, MD 20814
(38.989005, -77.098473)",1,111,12,1,1
DICKERSON MARKET,PO BOX 175,DICKERSON,MD,20842,ABW052,Off Premise,"DICKERSON SERVICES, INC.","PO BOX 175
DICKERSON, MD 20842",,,,,
EL AGUILA-RANDOLPH ROAD,55 RANDOLPH RD.,SILVER SPRING,MD,20904,BBWLHR203297,On Premise,"JWA, LLC","55 RANDOLPH RD.
SILVER SPRING, MD 20904
(39.075476, -77.004069)",1,12,26,4,1
ATTMAN'S DELICATESSEN,12505 PARK POTOMAC AVE.,POTOMAC,MD,20854,BBWHR403274,On/Off-Premise,"ATTMAN'S DELI. CABIN JOHN, LLC","12505 PARK POTOMAC AVE.
POTOMAC, MD 20854
(39.060806, -77.157996)",1,53,20,3,1
SPICE STREET,8242 GEORGIA AVE.,SILVER SPRING,MD,20910,BBWLHR374284,On Premise,"MD ARSHVEER, LLC","8242 GEORGIA AVE.
SILVER SPRING, MD 20910
(38.993025, -77.026748)",1,3065,7,5,1
SILVER STRINGS,8630 COLESVILLE RD.,SILVER SPRING,MD,20910,BBWLHR42502,On Premise,"SILVER STRINGS, INC.","8630 COLESVILLE RD.
SILVER SPRING, MD 20910
(38.996952, -77.027518)",1,3065,7,5,1
FLOWER CHILD-BETHESDA,"10205 OLD GEORGETOWN RD.,",BETHESDA,MD,20814,HBWHR37056,On Premise,"FC WILDWOOD, LLC","10205 OLD GEORGETOWN RD.,
BETHESDA, MD 20814
(39.022756, -77.123692)",1,111,12,1,1
MAHDANG,12300 WILKINS AVENUE,ROCKVILLE,MD,20852,BBWLHR43343,On Premise,"MASJIB, LLC","12300 WILKINS AVENUE
ROCKVILLE, MD 20852
(39.058047, -77.112918)",1,60,19,4,1
GYUZO,33 MARYLAND AVE.,ROCKVILLE,MD,20850,BBWLHR314262,On Premise,"SETSAIL, LLC","33 MARYLAND AVE.
ROCKVILLE, MD 20850
(39.085575, -77.150996)",1,71,25,3,12
VIET PHO & GRILL,1640 ELTON RD.,SILVER SPRING,MD,20903,HBWHR156259,On Premise,"VIET PHO & GRILL, LLC","1640 ELTON RD.
SILVER SPRING, MD 20903
(39.020061, -76.975316)",1,15,11,5,1
KALDI'S SOCIAL,918 SILVER SPRING AVENUE,SILVER SPRING,MD,20910,BBWLHR22788,On Premise,"KALDI'S SOCIAL HOUSE, INC.","918 SILVER SPRING AVENUE
SILVER SPRING, MD 20910
(38.991648, -77.025724)",1,3065,7,5,1
KENTLANDS PHOTOGRAPHY CAFE,309 MAIN ST.,GAITHERSBURG,MD,20878,DBW767361,On/Off-Premise,"Z-DEMOS HOUSE OF PHOTOGRAPHY, LLC","309 MAIN ST.
GAITHERSBURG, MD 20878
(39.121827, -77.238431)",1,33,36,3,21
LEBANESE TAVERNA CAFE - ROCKVILLE,1629 ROCKVILLE PIKE,ROCKVILLE,MD,20852,HBWHR042,On Premise,LEBANESE TAVERNA CAFE CONGRESS,"1629 ROCKVILLE PIKE
ROCKVILLE, MD 20852
(39.063406, -77.125462)",1,60,25,3,12
WANG DYNASTY,"4929 BETHESDA AVE., SUITE #100",BETHESDA,MD,20814,BBWLHR43342,On Premise,"WANG DYNASTY, INC.","4929 BETHESDA AVE., SUITE #100
BETHESDA, MD 20814
(38.980798, -77.099581)",1,111,12,1,1
CASA OAXACA,4905 FAIRMOUNT AVENUE,BETHESDA,MD,20814,BBWLHR42419,On Premise,"TEQ. & MEZCAL COCINA MEXICANA,LLC","4905 FAIRMOUNT AVENUE
BETHESDA, MD 20814
(38.987839, -77.097231)",1,111,12,1,1
FINE CUISINE CATERING,26130 FREDERICK RD.,CLARKSBURG,MD,20871,CATBWL007,On Premise,"FINE CUISINE, INC.","26130 FREDERICK RD.
CLARKSBURG, MD 20871
(39.285366, -77.314465)",1,44,50,2,1
HOT POT CITY,199 EAST MONTGOMERY AVE.,ROCKVILLE,MD,20850,HBWHR41405,On Premise,"BT TRADING, LLC","199 EAST MONTGOMERY AVE.
ROCKVILLE, MD 20850
(39.084083, -77.150357)",1,71,25,3,12
WESTSIDE WINE CELLAR & BEER,8010 GRAMERCY BLVD,ROCKVILLE,MD,20855,DBW32215,On/Off-Premise,HIMA LLC,"8010 GRAMERCY BLVD
ROCKVILLE, MD 20855
(39.124098, -77.164646)",1,51,36,3,1
GRAPE & GRAIN,19233 WATKINS MILL RD,MONTGOMERY VILLAGE,MD,20886,DBW40359,On/Off-Premise,"AABHA, LLC","19233 WATKINS MILL RD
MONTGOMERY VILLAGE, MD 20886
(39.171384, -77.208688)",1,28,38,2,1
ON THE VINE,15230 SIESTA KEY WAY,ROCKVILLE,MD,20850,DBW37415,On/Off-Premise,"TANGRI, LLC","15230 SIESTA KEY WAY
ROCKVILLE, MD 20850
(39.105619, -77.194439)",1,71,25,3,1
LA PANETTERIA,4921 CORDELL AVE.,BETHESDA,MD,20814,BBWLHR42759,On Premise,"BAIRES KITCHEN, LLC","4921 CORDELL AVE.
BETHESDA, MD 20814
(38.988784, -77.098689)",1,111,12,1,1
BEERS & CHEERS TOO,678 QUINCE ORCHARD ROAD,GAITHERSBURG,MD,20878,DBW23668,On/Off-Premise,"BEERS AND CHEERS TOO, LLC","678 QUINCE ORCHARD ROAD
GAITHERSBURG, MD 20878
(39.139619, -77.22206)",1,33,31,3,21
COMMONWEALTH INDIAN,11610 OLD GEORGETOWN ROAD,NORTH BETHESDA,MD,20852,BBWLHR36044,On Premise,"COMMONWEALTH INDIAN, INC","11610 OLD GEORGETOWN ROAD
NORTH BETHESDA, MD 20852
(39.049174, -77.116479)",1,60,19,1,1
BREW BELLY,18065 GEORGIA AVE,OLNEY,MD,20832,BDBWL31001,On/Off-Premise,"BREW BELLY, LLC","18065 GEORGIA AVE
OLNEY, MD 20832
(39.152487, -77.066769)",1,100,58,4,1
HUMITOS GRILL RESTAURANT,8371 SNOUFFER SCHOOL RD.,GAITHERSBURG,MD,20879,BBWLHR688356,On/Off-Premise,"HUMITOS GBEI, LLC","8371 SNOUFFER SCHOOL RD.
GAITHERSBURG, MD 20879
(39.166783, -77.171666)",1,31,36,4,1
N-UNCORKED,"8525 CHEVY CHASE LAKE TERRACE, SUITE 301",CHEVY CHASE,MD,20815,DBW623355,,"THE CHASE, LLC","8525 CHEVY CHASE LAKE TERRACE, SUITE 301
CHEVY CHASE, MD 20815",,,,,
PIZZA STOP,2231 BEL PRE RD.,SILVER SPRING,MD,20906,BBWHR165270,On/Off-Premise,"IN'TL FOODS GROUP,LLC","2231 BEL PRE RD.
SILVER SPRING, MD 20906
(39.090504, -77.047571)",1,6,59,4,1
DOUBLETREE WASH. DC N. GAITHERSBURG,620 PERRY PKWY,GAITHERSBURG,MD,20877,BBWLHR36508,On Premise,"GAITHERSBURG OPERATOR, LLC","620 PERRY PKWY
GAITHERSBURG, MD 20877
(39.148631, -77.21303)",1,35,36,3,21
CLEAR SKIES MEADERY,325 MAIN STREET,GAITHERSBURG,MD,20878,DBW72259,On/Off-Premise,"R&H EIGNER, LLC","325 MAIN STREET
GAITHERSBURG, MD 20878
(39.121676, -77.238216)",1,33,36,3,21
TWINBROOK DELI BEER WINE,2208 VEIRS MILL ROAD,ROCKVILLE,MD,20851,ABW212259,Off Premise,"TWINBROOK DELI BEER WINE, LLC","2208 VEIRS MILL ROAD
ROCKVILLE, MD 20851
(39.074665, -77.114546)",1,68,25,3,12
POTOMAC GROCER,10107 RIVER RD.,POTOMAC,MD,20854,DBW95264,On/Off-Premise,"POTOMAC GROCER, LLC","10107 RIVER RD.
POTOMAC, MD 20854
(39.017799, -77.208537)",1,53,20,1,1
N-KUSSHI KO,8512 FENTON ST.,SILVER SPRING,MD,20910,HBWHR804375,On Premise,"KUSSHI KO, LLC","8512 FENTON ST.
SILVER SPRING, MD 20910
(38.995869, -77.024602)",1,3065,7,5,1
BASSETT'S RESTAURANT,19950 FISHER AVENUE,POOLESVILLE,MD,20837,BBWLHR799369,On Premise,"ALL FLAVORS, INC","19950 FISHER AVENUE
POOLESVILLE, MD 20837
(39.146173, -77.417193)",1,97,34,1,16
N-ALIBABA BEER &WINE,112 EAST DIAMOND AVE.,GAITHERSBURG,MD,20877,ABW402276,Off Premise,"ARIA ENTERPRISE, INC.","112 EAST DIAMOND AVE.
GAITHERSBURG, MD 20877
(39.141871, -77.196213)",1,35,36,3,21
BOYDS COUNTRY STORE,15110 BARNESVILLE RD.,BOYDS,MD,20841,ABW185263,Off Premise,"P&V GROUP, LLC","15110 BARNESVILLE RD.
BOYDS, MD 20841
(39.184783, -77.31421)",1,75,42,2,1
KNOWLES STATION WINE & COMPANY,10414 DETRICK AVE.,KENSINGTON,MD,20895,DBW30780,On/Off-Premise,DETRICK AND KNOWLES WINE & COMPANY LLC,"10414 DETRICK AVE.
KENSINGTON, MD 20895
(39.027961, -77.077937)",1,25,15,1,6
KPOT HOT POT & BBQ,5550 RANDOLPH RD,ROCKVILLE,MD,20852,BBWLHR32900,On Premise,"ROCK HOT POT & BBQ, INC.","5550 RANDOLPH RD
ROCKVILLE, MD 20852
(39.053283, -77.112551)",1,60,19,1,1
N-HULU SKEWER HOUSE,1488-B ROCKVILLE PIKE,ROCKVILLE,MD,20852,BBWLHR779374,,INVSIGHT GROUP LLC,"1488-B ROCKVILLE PIKE
ROCKVILLE, MD 20852
(39.065524, -77.126927)",1,60,25,3,12
NORBECK COUNTRY CLUB,17200 CASHELL ROAD,ROCKVILLE,MD,20853,CBWLCCO29874,On Premise,"NORBECK CC, LLC","17200 CASHELL ROAD
ROCKVILLE, MD 20853
(39.137517, -77.094454)",1,58,58,4,1
HOLA BEER & WINE,8035 SNOUFFER SCHOOL RD.,GAITHERSBURG,MD,20879,DBW275260,On/Off-Premise,"GNS TRADING COMPANY, LLC","8035 SNOUFFER SCHOOL RD.
GAITHERSBURG, MD 20879
(39.160802, -77.163068)",1,31,36,4,1
BAMBOO CAFE,4222 D HOWARD AVE.,KENSINGTON,MD,20895,ABW275259,Off Premise,"BAMBOO CAFE, LLC","4222 D HOWARD AVE.
KENSINGTON, MD 20895
(39.031009, -77.083186)",1,25,15,1,1
MELA MARKET,8711 1st AVE.,SILVER SPRING,MD,20910,DBW174262,On/Off-Premise,MELA LLC,"8711 1st AVE.
SILVER SPRING, MD 20910
(38.998065, -77.032549)",1,3065,7,5,1
LA PLAYITA,8638 FLOWER AVENUE,TAKOMA PARK,MD,20912,BBWLHR287259,On Premise,"LA PLAYITA REST., INC.","8638 FLOWER AVENUE
TAKOMA PARK, MD 20912
(38.997545, -77.003409)",1,3062,8,5,11
DON POLLO OF POTOMAC,10321 WESTLAKE DRIVE,BETHESDA,MD,20817,HBW29871,On Premise,"DON POLLO OF POTOMAC, INC.","10321 WESTLAKE DRIVE
BETHESDA, MD 20817
(39.026389, -77.147939)",1,103,19,1,1
BREWS AND BARRELS,625 CENTER POINT WAY,GAITHERSBURG,MD,20878,BBWLHR224259,On Premise,"MAHI RESTAURANT, INC.","625 CENTER POINT WAY
GAITHERSBURG, MD 20878
(39.121857, -77.23361)",1,33,36,3,21
LUCY KITCHEN,8301 GEORGIA AVE.,SILVER SPRING,MD,20910,BBWLHR268261,On Premise,"YUMMY, LLC","8301 GEORGIA AVE.
SILVER SPRING, MD 20910
(38.993059, -77.026571)",1,3065,7,5,1
WARREN STREET DELI,9226 WARREN STREET,SILVER SPRING,MD,20910,ABW115,Off Premise,WARREN STREET DELI,"9226 WARREN STREET
SILVER SPRING, MD 20910
(39.007107, -77.049146)",1,3065,6,5,1
AMC MONTGOMERY 16,7101 DEMOCRACY BLVD,BETHESDA,MD,20817,BBWLHR786363,On Premise,AMC OF MARYLAND LLC,"7101 DEMOCRACY BLVD
BETHESDA, MD 20817
(39.0242, -77.1459)",1,103,19,1,1
TACOMBI,4749 BETHESDA AVE.,BETHESDA,MD,20814,BDBWL490321,On/Off-Premise,TAQUERIA BUENA BETHESDADITA,"4749 BETHESDA AVE.
BETHESDA, MD 20814
(38.980984, -77.094751)",1,111,12,1,1
VILLAGE GRILLE,50  SOUTHLAWN COURT,ROCKVILLE,MD,20850,HBWHR800368,On Premise,"STLB, LLC","50 SOUTHLAWN COURT
ROCKVILLE, MD 20850
(39.102443, -77.129224)",1,71,27,3,12
JUANITA'S RESTAURANT,15883 REDLAND ROAD,DERWOOD,MD,20855,DBW6117,On/Off-Premise,JUANA GONZALEZ,"15883 REDLAND ROAD
DERWOOD, MD 20855
(39.116924, -77.164935)",1,51,27,3,1
KAREN'S SEAFOOD,13843 OUTLET DR.,SILVER SPRING,MD,20904,BBWLHR436279,On Premise,"KAREN'S KITCHEN, LLC","13843 OUTLET DR.
SILVER SPRING, MD 20904
(39.082668, -76.946524)",1,12,53,5,1
N-SHAKE SHACK KENTLANDS,150 KENTLANDS SQ. PL.,GAITHERSBURG,MD,20878,BBWHR738355,On/Off-Premise,"SHAKE SHACK MARYLAND, LLC","150 KENTLANDS SQ. PL.
GAITHERSBURG, MD 20878",,,,,
COOPER'S HAWK WINERY & RESTAURANT,1403 RESEARCH BLVD.,ROCKVILLE,MD,20850,BDBWL43341,On/Off-Premise,"COOPER'S HAWK ROCKVILLE, LLC","1403 RESEARCH BLVD.
ROCKVILLE, MD 20850
(39.091276, -77.178755)",1,71,25,3,12
LEBANESE TAVERNA CAFE - SS,8535 FENTON ST.,SILVER SPRING,MD,20910,HBWHR392,On Premise,LEBANESE TAVERNA CAFE CONGRESS,"8535 FENTON ST.
SILVER SPRING, MD 20910
(38.99718, -77.025952)",1,3065,7,5,1
RUSSIAN GOURMET,11431 ROCKVILLE PIKE,ROCKVILE,MD,20852,ABW779369,On Premise,MATRESHKA LLC,"11431 ROCKVILLE PIKE
ROCKVILE, MD 20852
(39.044169, -77.111378)",1,60,19,1,1
CHINA GARDEN HAN GONG,11333 WOODGLEN DR.,ROCKVILLE,MD,20852,BBWLHR42899,On Premise,"CHINA GARDEN OF VIRGINIA, INC.","11333 WOODGLEN DR.
ROCKVILLE, MD 20852
(39.04271, -77.113354)",1,60,19,1,1
BOULANGERIE CHRISTOPHE,11321 SEVEN LOCKS RD.,POTOMAC,MD,20854,DBW774363,On/Off-Premise,"GRADIER, LLC","11321 SEVEN LOCKS RD.
POTOMAC, MD 20854
(39.041353, -77.159218)",1,53,20,1,1
HAMMER & STAIN,107B GIBBS ST,ROCKVILLE,MD,20850,SAGBW779376,On Premise,IZQUIERDO ART LLC,"107B GIBBS ST
ROCKVILLE, MD 20850
(39.085293, -77.15195)",1,71,25,3,12
LOCAVINO,8519 FENTON STREET,SILVER SPRING,MD,20910,BBWHR41463,On/Off-Premise,"EAT DRINK LIVE, LLC","8519 FENTON STREET
SILVER SPRING, MD 20910
(38.997078, -77.025747)",1,3065,7,5,1
TRUE RESPITE BREWING COMPANY,7301 CALHOUN PL,ROCKVILLE,MD,20855,DBW31607,On/Off-Premise,TRUE RESPITE BREWING COMPANY,"7301 CALHOUN PL
ROCKVILLE, MD 20855
(39.107769, -77.148192)",1,51,27,3,1
CLYDE'S OF CHEVY CHASE,5441 WISCONSIN AVENUE,CHEVY CHASE,MD,20815,BBWLHR86259,On Premise,"CLYDE'S OF CHEVY CHASE, LLC","5441 WISCONSIN AVENUE
CHEVY CHASE, MD 20815
(38.962284, -77.086343)",1,110,5,1,1
N-TACOSWAY MEXICAN GRILL,8777 - B FIRST AVENUE,SILVER SPRING,MD,20910,DBWL718356,On Premise,"TWSS1,LLC","8777 - B FIRST AVENUE
SILVER SPRING, MD 20910
(38.99973, -77.034277)",1,3065,7,5,1
KINGS CRAFT BEER & WINE DELI,"402 KING FARM BLVD., STE.100",ROCKVILLE,MD,20850,DBW43143,On/Off-Premise,"DNB, INC.","402 KING FARM BLVD., STE.100
ROCKVILLE, MD 20850
(39.113878, -77.172402)",1,71,25,3,12
HAKUNA MATATA GRILL,2405 PRICE AVE.,SILVER SPRING,MD,20902,BBWLHR44186,On Premise,"HAKUNA MATATA GROUP, LLC","2405 PRICE AVE.
SILVER SPRING, MD 20902
(39.040273, -77.050542)",1,17,16,4,1
QUINCY'S POTOMAC BAR & GRILLE,1093 SEVEN LOCKS RD.,ROCKVILLE,MD,20854,BBWLHR292259,On Premise,"RAT PACK OF MD II, LLC","1093 SEVEN LOCKS RD.
ROCKVILLE, MD 20854
(39.062214, -77.160795)",1,53,25,3,12
SAFEWAY,3333 SPARTAN ROAD,OLNEY,MD,20832,ABWS18689,Off Premise,"NAI SATURN EASTERN, LLC","3333 SPARTAN ROAD
OLNEY, MD 20832
(39.150002, -77.06478)",1,100,58,4,1
TOPGOLF,20051 CENTURY BLVD.,GERMANTOWN,MD,20874,BBWLHR208259,On Premise,"TOPGOLF USA GERMANTOWN, LLC","20051 CENTURY BLVD.
GERMANTOWN, MD 20874
(39.184793, -77.25955)",1,39,39,2,1
CENTER FOR LEADER EXCELLENCE,6777 & 6801 ROCKLEDGE DR.,BETHESDA,MD,20817,BBWLHR223265,On Premise,"ARAMARK SPORTS & ENTMT. SVCS., LLC","6777 & 6801 ROCKLEDGE DR.
BETHESDA, MD 20817
(39.030317, -77.136313)",1,103,19,1,1
HAWKERS ASIAN STREET FARE,7117 BETHESDA LN.,BETHESDA,MD,20814,BBWLHR208260,On Premise,"HAWKERS BETHESDA, LLC","7117 BETHESDA LN.
BETHESDA, MD 20814
(38.981897, -77.097829)",1,111,12,1,1
EATHAI,"4011 E. NORBECK RD, UNIT E",ROCKVILLE,MD,20853,HBW25816,On Premise,"121 FOOD & SERVICE, INC.","4011 E. NORBECK RD, UNIT E
ROCKVILLE, MD 20853
(39.109481, -77.077694)",1,58,60,4,1
BRAZIL GOURMET PIZZERIA & GRILL,9870 MAIN STREET,DAMASCUS,MD,20872,HBWHR462303,On Premise,"BRAZIL GOURMET, LLC","9870 MAIN STREET
DAMASCUS, MD 20872
(39.288266, -77.203578)",1,42,51,2,1
DARO'S BEER & WINE,2501 ENNALLS AVE.,WHEATON,MD,20902,DBW40399,On/Off-Premise,"CORDARO VENTURES,LLC","2501 ENNALLS AVE.
WHEATON, MD 20902
(39.039996, -77.052968)",1,17,16,4,1
BOTTLES UP,11800 NEBEL ST.,ROCKVILLE,MD,20852,DBW305259,On/Off-Premise,"V3 PROPERTIES, LLC","11800 NEBEL ST.
ROCKVILLE, MD 20852
(39.04906, -77.106756)",1,60,19,1,1
HUNAN DELIGHT,18220 VILLAGE CENTER DRIVE,OLNEY,MD,20832,BBWLHR212260,On Premise,"HUNAN DELIGHT 1688, LLC","18220 VILLAGE CENTER DRIVE
OLNEY, MD 20832
(39.153175, -77.063284)",1,100,58,4,1
ANTHONY'S COAL FIRED PIZZA,7776 NORFOLK AVENUE,BETHESDA,MD,20814,BBWLHR135263,On Premise,"ANTHONY'S COAL FIRED PIZZA, LLC","7776 NORFOLK AVENUE
BETHESDA, MD 20814
(38.988356, -77.096312)",1,111,12,1,1
GREGORIO'S TRATTORIA AT SUMNER PLACE,4611A SANGAMORE LN.,BETHESDA,MD,20816,BBWLHR391274,On Premise,"GREGORIO'S AT SUMNER PLACE, LLC","4611A SANGAMORE LN.
BETHESDA, MD 20816
(38.94866, -77.119725)",1,107,12,1,1
MISSION BBQ-GERMANTOWN,"19800 CENTURY BLVD.,STE. 600",GERMANTOWN,MD,20874,HBWHR51270,On Premise,"MISSION BBQ GERMANTOWN, LLC","19800 CENTURY BLVD.,STE. 600
GERMANTOWN, MD 20874
(39.180589, -77.267834)",1,39,39,2,1
CHAMPIONS SPORTS BAR,9433 GEORGIA AVE.,SILVER SPRING,MD,20910,DBWL192259,On Premise,"ACTION HOUSE VAPE & HOOKAH, LLC","9433 GEORGIA AVE.
SILVER SPRING, MD 20910
(39.009169, -77.040422)",1,3065,7,5,1
PICCOLI PIATTI,10257 OLD GEORGETOWN RD.,BETHESDA,MD,20814,HBWHR393274,On Premise,"PICCOLI PIATTI, INC.","10257 OLD GEORGETOWN RD.
BETHESDA, MD 20814
(39.023945, -77.124553)",1,111,12,1,1
CUBANO'S RESTAURANT 2,4907 CORDELL AVE.,BETHESDA,MD,20814,BBWLHR43805,On Premise,"MENDEZ & MENDEZ, INC.","4907 CORDELL AVE.
BETHESDA, MD 20814
(38.989168, -77.098312)",1,111,12,1,1
N-BONFIELDS MARKET,6124 MACARTHUR BLVD.,BETHESDA,MD,20816,DBW224260,On/Off-Premise,"BONFIELDS MARKET, LLC","6124 MACARTHUR BLVD.
BETHESDA, MD 20816
(38.943729, -77.115947)",1,107,12,1,1
N-BBQ CHICKEN & BEER,2235 BEL PRE RD.,SILVER SPRING,MD,20906,BBWLHR655357,On Premise,"HIZ CHICKEN FACTORY, LLC","2235 BEL PRE RD.
SILVER SPRING, MD 20906
(39.090501, -77.047895)",1,6,59,4,1
JAVA NATION-KENTLANDS,121 MARKET ST.,GAITHERSBURG,MD,20878,BBWLHR481300,On Premise,"JN KENTLANDS, INC.","121 MARKET ST.
GAITHERSBURG, MD 20878
(39.122198, -77.234979)",1,33,36,3,21
RED CHILLIES INDIAN CUISINE,1341 UNIVERSITY BLVD.,TAKOMA PARK,MD,20912,HBWHR61261,On Premise,"JB BISHAL,LLC","1341 UNIVERSITY BLVD.
TAKOMA PARK, MD 20912
(38.987199, -76.985127)",,3062,,5,11
LOS PRIMOS TEX MEX GRILL,12303 TWINBROOK PARKWAY,ROCKVILLE,MD,20852,BBWLHR39399,On Premise,"LOS PRIMOS TEX MEX GRILL, INC.","12303 TWINBROOK PARKWAY
ROCKVILLE, MD 20852
(39.058675, -77.119318)",1,60,25,1,12
POOLESVILLE GOLF COURSE,16601 WEST WILLARD ROAD,POOLESVILLE,MD,20837,BBWLCL084,On Premise,MONTGOMERY COUNTY REVENUE AUTH,"16601 WEST WILLARD ROAD
POOLESVILLE, MD 20837
(39.127178, -77.424335)",1,97,34,1,1
CURRY PLACE,11229 NEW HAMPSHIRE AVE.,SILVER SPRING,MD,20904,BBWLHR110259,On Premise,"CURRY PLACE THREE, LLC","11229 NEW HAMPSHIRE AVE.
SILVER SPRING, MD 20904
(39.04031, -76.990789)",1,12,18,5,1
N-QDOBAS MEXICAN EATS,16260 FREDERICK RD.,GAITHERSBURG,MD,20877,BBWLHR531355,On/Off-Premise,"METROMEX HOSPITALITY GROUP, INC.","16260 FREDERICK RD.
GAITHERSBURG, MD 20877
(39.121754, -77.176591)",1,35,36,3,1
SLIGO CREEK GOLF COURSE,9701 SLIGO CREEK PKY,SILVER SPRING,MD,20901,BBWLCL269,On Premise,MONTGOMERY CO. REV. AUTHORITY,"9701 SLIGO CREEK PKY
SILVER SPRING, MD 20901
(39.014001, -77.030853)",1,21,7,5,1
NORTHWEST GOLF COURSE,15701 LAYHILL ROAD,SILVER SPRING,MD,20906,BBWLCL231,On Premise,MONTGOMERY CO. REV. AUTHORITY,"15701 LAYHILL ROAD
SILVER SPRING, MD 20906
(39.112134, -77.037099)",1,6,59,4,1
NEEDWOOD GOLF COURSE,6724 NEEDWOOD ROAD,DERWOOD,MD,20855,BBWLCL229,On Premise,MONTGOMERY CO. REV.AUTHORITY,"6724 NEEDWOOD ROAD
DERWOOD, MD 20855
(39.122971, -77.1365)",1,51,54,3,1
FALLS ROAD GOLF COURSE,10800 FALLS ROAD,POTOMAC,MD,20854,BBWLCL013,On Premise,MONTGOMERY CO. REV AUTHORITY,"10800 FALLS ROAD
POTOMAC, MD 20854
(39.031487, -77.19879)",1,53,20,1,1
NT-THE BETHESDAN HOTEL,8120 WISCONSIN AVE,BETHESDA,MD,20814,BBWLHR835387,On Premise,"CRESCENT HOTELS & RESORTS, LLC","8120 WISCONSIN AVE
BETHESDA, MD 20814
(38.991303, -77.095768)",1,111,12,1,1
CM CHICKEN GERMANTOWN,12933 WISTERIA DR.,GERMANTOWN,MD,20874,BBWLHR347259,On Premise,"CM CHICKEN GERMANTOWN, INC.","12933 WISTERIA DR.
GERMANTOWN, MD 20874
(39.177145, -77.270483)",1,39,39,2,1
N-FIREPAN KOREAN BBQ,962 WAYNE AVE.,SILVER SRPING,MD,20910,BBWLHR671356,On Premise,"FIREPAN KBBQ SS, LLC","962 WAYNE AVE.
SILVER SRPING, MD 20910
(38.994545, -77.02601)",1,3065,7,5,1
PROSPERITY BEER & WINE,11623 NEBEL ST.,NORTH BETHESDA,MD,20852,DBW307259,On/Off-Premise,"PROSPERITY PARTNERS, INC.","11623 NEBEL ST.
NORTH BETHESDA, MD 20852
(39.047591, -77.105293)",1,60,19,1,1
BEST CONVENIENCE MART,8120 PINEY BRANCH RD.,SILVER SPRING,MD,20910,ABW238266,Off Premise,"FANTU, INC.","8120 PINEY BRANCH RD.
SILVER SPRING, MD 20910
(38.992528, -77.009667)",1,3065,7,5,1
BARRA BRAVA,15921 FREDERICK ROAD,ROCKVILLE,MD,20855,ABW42119,Off Premise,"BARRA BRAVA PERUVIAN SEAFOOD, LLC","15921 FREDERICK ROAD
ROCKVILLE, MD 20855
(39.116499, -77.167548)",1,51,27,3,12
MEXICUE,4733 ELM ST.,BETHESDA,MD,20814,BBWLHR656367,On Premise,"MEXICUE BETHESDA, LLC","4733 ELM ST.
BETHESDA, MD 20814
(38.982164, -77.095681)",1,111,12,1,1
N-BARRILES REST. & SPORTS BAR,7637 NEW HAMPSHIRE AVE.,TAKOMA PARK,MD,20912,BBWLHR767360,On Premise,"JVJ ENTERPRISES, LLC","7637 NEW HAMPSHIRE AVE.
TAKOMA PARK, MD 20912
(38.986896, -76.987868)",1,3062,4,5,11
N-PAPA SHERMAN'S,8240 FENTON ST.,SILVER SPRING,MD,20910,BBWLHR745355,On Premise,"EAT 2 LIVE, LLC","8240 FENTON ST.
SILVER SPRING, MD 20910
(38.992761, -77.024072)",1,3065,7,5,1
SILVER DINER,9811 WASHINGTONIAN BLVD.,GAITHERSBURG,MD,20878,BBWLHR40010,On Premise,"SILVER DINER RIO WASH, LLC","9811 WASHINGTONIAN BLVD.
GAITHERSBURG, MD 20878
(39.11537, -77.198222)",1,33,36,3,21
RATTLEWOOD GOLF COURSE,13501 PENN SHOP ROAD,MOUNT AIRY,MD,21771,BBWLCL186,On Premise,MONT.CO. REVENUE AUTHORITY,"13501 PENN SHOP ROAD
MOUNT AIRY, MD 21771
(39.34468, -77.192856)",,1769,,,
N-IHOP-GERMANTOWN,20009 CENTURY BLVD.,GERMANTOWN,MD,20874,BBWLHR485315,On/Off-Premise,"HARVEST ASSOCIATES, INC.","20009 CENTURY BLVD.
GERMANTOWN, MD 20874
(39.18424, -77.260329)",1,39,39,2,1
LAYTONSVILLE GOLF COURSE,7130 DORSEY RD,LAYTONSVILLE,MD,20882,BBWLCL018,On Premise,MONTGOMERY CO.REV. AUTHORITY,"7130 DORSEY RD
LAYTONSVILLE, MD 20882
(39.197463, -77.144115)",1,29,46,4,1
N-WILLIE T'S SEAFOOD SHACK-BRB,9326 GEORGIA AVE.,SILVER SPRING,MD,20910,BBWLHR749361,On Premise,"WILLIE T'S LOBSTER SHACK, LLC","9326 GEORGIA AVE.
SILVER SPRING, MD 20910
(39.007918, -77.03995)",1,3065,7,5,1
LITTLE BENNETT GOLF COURSE,25900 PRESCOTT ROAD,CLARKSBURG,MD,20871,BBWLCL100,On Premise,MONTGOMERY CO. REV. AUTHORITY,"25900 PRESCOTT ROAD
CLARKSBURG, MD 20871
(39.281785, -77.294875)",1,44,50,2,1
SISTERS THAI,7995 TUCKERMAN LANE,POTOMAC,MD,20854,BBWLHR39579,On Premise,"LUCKDEE, LLC","7995 TUCKERMAN LANE
POTOMAC, MD 20854
(39.039941, -77.157354)",1,53,20,1,1
IBEX ETHIOPIAN RESTAURANT & LOUNGE,6846 NEW HAMPSHIRE AVE.,TAKOMA PARK,MD,20912,DBWL299261,On Premise,"IBEX BUSINESS P'SHIP, INC.","6846 NEW HAMPSHIRE AVE.
TAKOMA PARK, MD 20912
(38.974324, -76.995406)",1,3062,4,5,1
N-ROHOBOT ETHIOPIAN RESTAURANT,7833 EASTERN AVE.,SILVER SPRING,MD,20912,BBWHR642355,On Premise,"ROHOBOT ENTERPRISE, LLC","7833 EASTERN AVE.
SILVER SPRING, MD 20912
(38.985232, -77.02747)",,3065,,,
THE BETHESDAN HOTEL,8120 WISCONSIN AVENUE,BETHESDA,MD,20814,BBWLHR27731,On Premise,"A-TBC BETHESDA HOSPITALITY,LLC","8120 WISCONSIN AVENUE
BETHESDA, MD 20814
(38.991303, -77.095768)",1,111,12,1,1
DOCK OF THE BAY,429 S. FREDERICK AVENUE,GAITHERSBURG,MD,20877,DBW836400,On/Off-Premise,"URKAY, LLC","429 S. FREDERICK AVENUE
GAITHERSBURG, MD 20877
(39.135405, -77.19165)",1,35,36,3,21
MOSAIC CUISINE AND CAFE,186 HALPINE RD,ROCKVILLE,MD,20852,BBWLHR1059358,On Premise,"GINOU, INC.","186 HALPINE RD
ROCKVILLE, MD 20852
(39.060295, -77.126871)",1,60,25,3,12
SALT AND VINE,3308 OLNEY SANDY SPRING RD.,OLNEY,MD,20832,BBWLHR287260,On Premise,"THE OLNEY HOUSE, LLC","3308 OLNEY SANDY SPRING RD.
OLNEY, MD 20832
(39.15233, -77.065288)",1,100,58,4,1
ZT-SHEBA RESTAURANT,5071 NICHOLSON LANE,ROCKVILLE,MD,20852,HBWHR34236,On Premise,"TAZZO, LLC","5071 NICHOLSON LANE
ROCKVILLE, MD 20852
(39.046081, -77.10402)",1,25,19,1,1
TACO BAR CANTINA,18100 GEORGIA AVE.,OLNEY,MD,20832,BBWLHR272259,On Premise,"TACO BAR CANTINA, LLC","18100 GEORGIA AVE.
OLNEY, MD 20832
(39.153859, -77.066953)",1,100,58,4,1
TACO BAR,3 RUSSELL AVE SUITE A,GAITHERSBURG,MD,20877,BDBWL28685,On/Off-Premise,TACO BAR LLC,"3 RUSSELL AVE SUITE A
GAITHERSBURG, MD 20877
(39.142375, -77.196515)",1,35,36,3,21
GENTLEMAN JIM'S,18257 FLOWER HILL WAY,GAITHERSBURG,MD,20879,BBWLHR451301,On Premise,"CAVALIER, LLC","18257 FLOWER HILL WAY
GAITHERSBURG, MD 20879
(39.155448, -77.16461)",1,35,36,4,1
FOGO DE CHAO,11600 OLD GEORGETOWN ROAD,BETHESDA,MD,20852,BBWLHR41519,On Premise,"FOGO DE CHAO CHURRASCARIA, LLC","11600 OLD GEORGETOWN ROAD
BETHESDA, MD 20852
(39.049032, -77.117199)",1,60,19,1,1
ARADA MARKET,6844 NEW HAMPSHIRE AVE,TAKOMA PARK,MD,20912,DBW24781,On/Off-Premise,"ARADA INTERNATIONAL FOOD CORP, INC","6844 NEW HAMPSHIRE AVE
TAKOMA PARK, MD 20912
(38.97431, -76.995421)",1,3062,4,5,1
CHIKO,7280 WOODMONT AVE.,BETHESDA,MD,20814,BBWHR454315,On/Off-Premise,"CHIKO BETHESDA, LLC","7280 WOODMONT AVE.
BETHESDA, MD 20814
(38.98188, -77.096033)",1,111,12,1,1
DELICLUB CAFE & MARKET,3750 HOWARD AVE.,KENSINGTON,MD,20895,DBW450316,On/Off-Premise,"DELICLUB KENSINGTON, LLC","3750 HOWARD AVE.
KENSINGTON, MD 20895
(39.027605, -77.07358)",1,25,15,1,6
CHEF TONY'S @ THE PROMENADE,5225 POOKS HILL RD.,BETHESDA,MD,20814,BDBWL413274,On/Off-Premise,"ESPLANADE, LLC","5225 POOKS HILL RD.
BETHESDA, MD 20814
(39.015152, -77.107936)",1,111,12,1,1
ANTOJITOS RESTAURANT,12 EAST DIAMOND AVE.,GAITHERSBURG,MD,20877,BDBWL55260,On/Off-Premise,"ANTOJITOS RESTAURANT, INC.","12 EAST DIAMOND AVE.
GAITHERSBURG, MD 20877
(39.141726, -77.197752)",1,35,36,3,21
MI PERU,18216 FLOWER HILL WAY,GAITHERSBURG,MD,20879,HBWHR44059,On Premise,"MI PERU, LLC","18216 FLOWER HILL WAY
GAITHERSBURG, MD 20879
(39.155235, -77.164397)",1,35,36,4,1
CINEPOLIS,629 CENTER POINT WAY,GAITHERSBURG,MD,20878,BBWLHR122259,On Premise,"MARYLAND CINEMA INVESTMENTS, LLC","629 CENTER POINT WAY
GAITHERSBURG, MD 20878
(39.121887, -77.234083)",1,33,36,3,21
TEXAS PARRILLADA,9631 LOST KNIFE ROAD,GAITHERSBURG,MD,20877,BBWLHR361,On Premise,"HENRIQUEZ BATRES, INC.","9631 LOST KNIFE ROAD
GAITHERSBURG, MD 20877
(39.153897, -77.199854)",1,35,38,2,1
GEORGE'S HOT POT & BBQ,24 BUREAU DR.,GAITHERSBURG,MD,20878,HBWHR223266,On Premise,"GEORGE'S HOT POT & BBQ, INC.","24 BUREAU DR.
GAITHERSBURG, MD 20878
(39.143151, -77.217268)",1,33,36,3,21
EMA ROSSI NEAPOLITAN PIZZERIA,5556 NORBECK RD.,ROCKVILLE,MD,20853,HBWHR117262,On Premise,"RUIZ-HABIG RESTAURANT GROUP, LLC","5556 NORBECK RD.
ROCKVILLE, MD 20853
(39.095504, -77.111559)",1,58,61,3,1
WHITE'S FERRY STORE & GRILL,24801 WHITES FERRY RD.,DICKERSON,MD,20842,DBW92261,On/Off-Premise,"RC1, LLC","24801 WHITES FERRY RD.
DICKERSON, MD 20842
(39.154664, -77.518826)",1,74,48,1,1
HOOK & REEL,9643 LOST KNIFE ROAD,GAITHERSBURG,MD,20877,BBWLHR42554,On Premise,"HOOK REEL GAITHERSBURG, LLC","9643 LOST KNIFE ROAD
GAITHERSBURG, MD 20877
(39.154061, -77.200045)",1,35,38,2,1
INGERA ROCK,825 HUNGERFORD DR.,ROCKVILLE,MD,20850,BBWHR282260,On/Off-Premise,"ENGERA ROCK, LLC","825 HUNGERFORD DR.
ROCKVILLE, MD 20850
(39.094798, -77.153222)",1,71,25,3,12
THE GRILL AT THAT'S AMORE,15201 SHADY GROVE RD.,ROCKVILLE,MD,20850,BBWLHR294259,On Premise,"STRADA FOODS, INC.","15201 SHADY GROVE RD.
ROCKVILLE, MD 20850
(39.1056, -77.190146)",1,71,25,3,1
N-METRO COFFEE,202 PARK ROAD,ROCKVILLE,MD,20850,DBW840393,,"SOZACH, INC","202 PARK ROAD
ROCKVILLE, MD 20850
(39.08575, -77.145965)",1,71,25,3,12
JUICY SEAFOOD MD,2259 BEL PRE RD.,SILVER SPRING,MD,20906,BBWLHR235264,On Premise,"JUICY SEAFOOD MD, LLC","2259 BEL PRE RD.
SILVER SPRING, MD 20906
(39.090489, -77.048503)",1,6,59,4,1
KIELBASA FACTORY,1073 ROCKVILLE PIKE,ROCKVILLE,MD,20852,DBW849394,On/Off-Premise,"SMOLAVI, LLC","1073 ROCKVILLE PIKE
ROCKVILLE, MD 20852
(39.070839, -77.132053)",1,60,25,3,12
THE NIBBLER,18556 WOODFIELD RD.,GAITHERSBURG,MD,20879,BBWHR387274,On/Off-Premise,"RP GROUP, LLC","18556 WOODFIELD RD.
GAITHERSBURG, MD 20879
(39.161223, -77.158856)",1,31,36,4,1
BETE ETHIOPIAN CUISINE & CAFE,811 ROEDER ROAD,SILVER SPRING,MD,20910,BBWLHR1056162,On Premise,"TADELECH ZELEKE DUBALE, INC.","811 ROEDER ROAD
SILVER SPRING, MD 20910
(38.997602, -77.025902)",1,3065,7,5,1
GIO'S,13643 GEORGIA AVE,SILVER SPRING,MD,20906,BBWHR804374,Off Premise,CHICKEN RICO ASPEN HILL INCE,"13643 GEORGIA AVE
SILVER SPRING, MD 20906
(39.079028, -77.07269)",1,6,59,4,1
VILLAGE BEER & FINE WINE,5526 NORBECK ROAD,ROCKVILLE,MD,20853,DBW798367,On/Off-Premise,"ANT, LLC","5526 NORBECK ROAD
ROCKVILLE, MD 20853
(39.095818, -77.110597)",1,58,61,3,1
UTOPIA BEER & WINE,14 RANDOLPH RD.,SILVER SPRING,MD,20904,ABW299260,Off Premise,"ZEMEN, LLC","14 RANDOLPH RD.
SILVER SPRING, MD 20904
(39.075611, -77.003117)",1,12,26,4,1
NAGOYA SUSHI,"402 KING FARM BLVD.,  #130",ROCKVILLE,MD,20850,HBW174,On Premise,"TAN'S RESTAURANT GROUP, LLC","402 KING FARM BLVD., #130
ROCKVILLE, MD 20850
(39.113878, -77.172402)",1,71,25,3,12
SHADY GROVE  BEER & WINE,15904 SHADY GROVE ROAD,GAITHERSBURG,MD,20877,ABW27290,Off Premise,"CHOISDREAM, INC","15904 SHADY GROVE ROAD
GAITHERSBURG, MD 20877
(39.117535, -77.183645)",1,71,36,3,1
GEORGIA MARKET,"13623  GEORGIA AVE, UNIT D",SILVER SPRING,MD,20906,ABW147,Off Premise,"MUHN, INC.","13623 GEORGIA AVE, UNIT D
SILVER SPRING, MD 20906
(39.079042, -77.07271)",1,6,59,4,1
CHIPOTLE MEXICAN GRILL - GAITH,"564  NORTH FREDERICK AVE, UNIT4",GAITHERSBURG,MD,20877,BBWLHR315,On Premise,CHIPOLTE MEXICAN GRILL OF MD L,"564 NORTH FREDERICK AVE, UNIT4
GAITHERSBURG, MD 20877
(39.150105, -77.209163)",1,35,36,3,21
N-RAKUGAKI,10223 OLD GEORGETOWN ROAD,BETHESDA,MD,20814,BBWLHR791373,On Premise,OG3 LLC,"10223 OLD GEORGETOWN ROAD
BETHESDA, MD 20814
(39.023088, -77.123927)",1,111,12,1,1
TIPICO DOMINICANO,11417 WOODGLEN DR.,ROCKVILLE,MD,20852,BBWLHR669355,On Premise,"TIPICO DOMINICANO MD, LLC","11417 WOODGLEN DR.
ROCKVILLE, MD 20852
(39.044402, -77.113491)",1,60,19,1,1
JK BEER & WINE,331 KENTLANDS BLVD,GAITHERSURG,MD,20878,ABWS463301,Off Premise,"JK BEER & WINE, LLC","331 KENTLANDS BLVD
GAITHERSURG, MD 20878
(39.123823, -77.239796)",1,33,36,3,21
ROCK BOTTOM RESTAURANT & BREWERY,7900 NORFOLK AVE.,BETHESDA,MD,20814,BBWLHR422274,On Premise,"ROCK BOTTOM MARYLAND, LLC","7900 NORFOLK AVE.
BETHESDA, MD 20814
(38.989091, -77.097545)",1,111,12,1,1
BURTONS GRILL & BAR,109 COMMERCE SQUARE PL.,GAITHERSBURG,MD,20878,BDBWL310263,On/Off-Premise,"BURTONS GRILL OF GAITH., LLC","109 COMMERCE SQUARE PL.
GAITHERSBURG, MD 20878",,,,,
SAINTS ROW BREWING,"15 FULKS CORNER AVE, SUITE 101",GAITHERSBURG,MD,20877,DBW30553,On/Off-Premise,SAINTS ROW BREWING LLC,"15 FULKS CORNER AVE, SUITE 101
GAITHERSBURG, MD 20877
(39.14024, -77.195772)",1,35,36,3,21
IPIC THEATERS,11830 GRAND PARK AVE.,NORTH BETHESDA,MD,20852,BBWLHR416288,On Premise,"IPIC THEATERS, LLC","11830 GRAND PARK AVE.
NORTH BETHESDA, MD 20852
(39.049906, -77.117214)",1,60,19,1,1
SIMPLY NAILS & SPA,18078 MATENY ROAD,GERMANTOWN,MD,20874,SBSBW462301,On Premise,"SIMPLY NAILS & SPA, INC.","18078 MATENY ROAD
GERMANTOWN, MD 20874
(39.147353, -77.271861)",1,39,39,2,1
TEQUILA'S,20021 CENTURY BLVD.,GERMANTOWN,MD,20874,BBWLHR452300,On Premise,"RIVAS RESTAURANT VENTURES, LLC","20021 CENTURY BLVD.
GERMANTOWN, MD 20874
(39.184275, -77.260207)",1,39,39,2,1
TALBOTT BEER & WINE,1071 ROCKVILLE PIKE,ROCKVILLE,MD,20858,ABW814373,Off Premise,"Talbott Wine Cellars, LLC","1071 ROCKVILLE PIKE
ROCKVILLE, MD 20858
(39.07085, -77.132063)",1,60,25,3,12
TERRA MARE RESTAURANT & BAR,2504 ENNALLS AVE.,WHEATON,MD,20902,BBWLHR782365,On Premise,"TERRA MARE, INC.","2504 ENNALLS AVE.
WHEATON, MD 20902
(39.039875, -77.053271)",1,17,16,4,1
CHEESESTEAK MIKE'S,10222 NEW HAMPSHIRE AVE,SILVER SPRING,MD,20903,BDBWL1062553,On/Off-Premise,"DJS OH, LLC","10222 NEW HAMPSHIRE AVE
SILVER SPRING, MD 20903
(39.022864, -76.978051)",1,15,18,5,1
PETERS CARRY OUT,8017 WISCONSIN AVE,BETHESDA,MD,20814,BBWHR029,On/Off-Premise,PETERS CARRY OUT,"8017 WISCONSIN AVE
BETHESDA, MD 20814
(38.990897, -77.09554)",1,111,12,1,1
CRISFIELD SEAFOOD RESTAURANT,8012 GEORGIA AVE,SILVER SPRING,MD,20910,BBWHR024,On/Off-Premise,"CRISFIELD SEAFOOD REST CO, INC","8012 GEORGIA AVE
SILVER SPRING, MD 20910
(38.988362, -77.02673)",1,3065,7,5,1
HILTON GARDEN INN-SS N.,2200 BROAD BIRCH DR.,SILVER SPRING,MD,20904,BBWLHR441298,On Premise,"CRESTLINE HOTELS & RSRTS-MONT.,LLC","2200 BROAD BIRCH DR.
SILVER SPRING, MD 20904
(39.055949, -76.965765)",1,12,21,5,1
SPRINGHILL SUITES GAITHERSBURG,9715 WASHINGTONIAN BLVD,GAITHERSBURG,MD,20878,BBWHR28291,On/Off-Premise,"SPRINGHILL SMC, LLC","9715 WASHINGTONIAN BLVD
GAITHERSBURG, MD 20878
(39.11302, -77.192496)",1,33,36,3,21
LAS AMERICAS MARKET,785 E. ROCKVILLE PIKE,ROCKVILLE,MD,20852,ABW37577,Off Premise,"LAS AMERICAS MARKET, LLC","785 E. ROCKVILLE PIKE
ROCKVILLE, MD 20852
(39.077237, -77.139804)",1,60,25,3,12
NIWANO HANA,887 ROCKVILLE PIKE,ROCKVILLE,MD,20852,BBWLHR35795,On/Off-Premise,"NIWANO HANA HS,INC.","887 ROCKVILLE PIKE
ROCKVILLE, MD 20852
(39.075164, -77.136831)",1,60,25,3,12
CAPTAIN'S MARKET,7607 MACARTHUR BLVD.,CABIN JOHN,MD,20818,DBW39382,On/Off-Premise,JAE AND JAE MARKET CORP.,"7607 MACARTHUR BLVD.
CABIN JOHN, MD 20818
(38.973439, -77.155702)",1,102,3,1,1
JAVA NATION-ROCKVILLE,11120 ROCKVILLE PIKE,ROCKVILLE,MD,20852,BDBWL43779,On/Off-Premise,"JAVA NATION, INC.","11120 ROCKVILLE PIKE
ROCKVILLE, MD 20852
(39.039029, -77.109053)",1,25,19,1,1
LEDO PIZZA - BETHESDA,5245 RIVER ROAD,BETHESDA,MD,20816,BBWHR017,On/Off-Premise,"RIVER ROAD PIZZA, INC.","5245 RIVER ROAD
BETHESDA, MD 20816
(38.965574, -77.104703)",1,107,12,1,1
BUTCHER'S ALLEY,4961 BETHESDA AVE.,BETHESDA,MD,20814,ABW39882,Off Premise,"PD & BA, LLC","4961 BETHESDA AVE.
BETHESDA, MD 20814
(38.980776, -77.10034)",1,111,12,1,1
SHALLA RESTAURANT & BAR,8081 GEORGIA AVE.,SILVER SPRING,MD,20910,BBWLHR463302,On Premise,"TRIPLE BROTHERS, LLC","8081 GEORGIA AVE.
SILVER SPRING, MD 20910
(38.990148, -77.026573)",1,3065,7,5,1
TASTEE DINER,8601 CAMERON STREET,SILVER SPRING,MD,20910,DBW033,On/Off-Premise,"SILVER SPRING DINER, INC.","8601 CAMERON STREET
SILVER SPRING, MD 20910
(38.996868, -77.030436)",1,3065,7,5,1
ETHIO ADDIS MARKET,8107 FENTON STREET,SILVER SPRING,MD,20910,ABW38296,Off Premise,"COTTAGE TRADING, LLC","8107 FENTON STREET
SILVER SPRING, MD 20910
(38.990676, -77.023991)",1,3065,7,5,1
MAIN STREET PEARL,7050 CARROLL AVE #101,TAKOMA PARK,MD,20912,DBW468302,On/Off-Premise,"MAIN STREET PEARL, LLC","7050 CARROLL AVE #101
TAKOMA PARK, MD 20912
(38.975048, -77.010832)",1,3062,4,5,11
AJI-NIPPON RESTAURANT,6937 ARLINGTON RD,BETHESDA,MD,20814,BBWHR089,On/Off-Premise,"ASAHI FUSION, INC.","6937 ARLINGTON RD
BETHESDA, MD 20814
(38.979199, -77.09871)",1,111,12,1,1
FLOWER DELICATESSEN,8707 FLOWER AVE,SILVER SPRING,MD,20901,BBWHR044,On/Off-Premise,"MFM, INC.","8707 FLOWER AVE
SILVER SPRING, MD 20901
(38.998579, -77.00368)",1,21,8,5,1
PINES OF ROME,4918 CORDELL AVENUE,BETHESDA,MD,20814,BBWHR045,On/Off-Premise,"LA TAVERNA, INC.","4918 CORDELL AVENUE
BETHESDA, MD 20814
(38.988798, -77.098675)",1,111,12,1,1
FULL ON CRAFT EATS & DRINKS,4007-D NORBECK ROAD,ROCKVILLE,MD,20853,BBWHR136,On/Off-Premise,"FULL ON CRAFT EATS&DRINKS, LLC","4007-D NORBECK ROAD
ROCKVILLE, MD 20853
(39.10949, -77.076962)",1,58,60,4,1
DENIZENS BREWING COMPANY,1115 EAST WEST HIGHWAY,SILVER SPRING,MD,20910,DBWL159,On Premise,"CITIZENS BREWING, LLC","1115 EAST WEST HIGHWAY
SILVER SPRING, MD 20910
(38.988542, -77.027643)",1,3065,7,5,1
KENSINGTON BEER & WINE KABOB & PIZZA,"3701 UNIVERSITY BLVD., WEST",KENSINGTON,MD,20895,BBWHR003,On/Off-Premise,"HOMA, INC.","3701 UNIVERSITY BLVD., WEST
KENSINGTON, MD 20895
(39.033393, -77.07316)",1,25,15,1,1
CEDAR GROVE STORE,23412 RIDGE ROAD,GERMANTOWN,MD,20876,DBW61603,On/Off-Premise,CHEAM CORPORATION,"23412 RIDGE ROAD
GERMANTOWN, MD 20876
(39.241639, -77.234985)",1,36,50,2,1
MAMA WOK,9900 KEY WEST AVE,ROCKVILLE,MD,20850,BBWHR030,On/Off-Premise,"HHCC, INC.","9900 KEY WEST AVE
ROCKVILLE, MD 20850
(39.10111, -77.211756)",1,71,25,3,1
THE BEER & WINE CELLAR,146  CONGRESSIONAL LANE,ROCKVILLE,MD,20852,DBW22927,On/Off-Premise,"GOMES CELLARS, INC.","146 CONGRESSIONAL LANE
ROCKVILLE, MD 20852
(39.063255, -77.127789)",1,60,25,3,12
GOURMET ASIAN BISTRO,7224 MUNCASTER MILL ROAD,DERWOOD,MD,20855,HBW348,On Premise,"R AND S GROUP, LLC","7224 MUNCASTER MILL ROAD
DERWOOD, MD 20855
(39.146256, -77.1453)",1,51,36,4,1
UPCOUNTY FINE WINE & BEER,23229 STRINGTOWN RD.,CLARKSBURG,MD,20871,DBW51271,On/Off-Premise,"AP RETAIL, LLC","23229 STRINGTOWN RD.
CLARKSBURG, MD 20871
(39.237871, -77.276845)",1,44,50,2,1
EL PATIO,5240 RANDOLPH ROAD,ROCKVILLE,MD,20852,BBWHR113,On/Off-Premise,"EL PATIO INTERNATIONAL, INC.","5240 RANDOLPH ROAD
ROCKVILLE, MD 20852
(39.053336, -77.105627)",1,60,19,4,1
DOGFISH HEAD ALEHOUSE,800 W. DIAMOND AVE,GAITHERSBURG,MD,20878,BDBWLHR337,On/Off-Premise,"JMGM GROUP, LLC","800 W. DIAMOND AVE
GAITHERSBURG, MD 20878
(39.141574, -77.217187)",1,33,36,3,21
SIU'S ASIAN BISTRO,12271 TECH ROAD,SILVER SPRING,MD,20904,BBWHR104,On/Off-Premise,"GINGER ASIAN BISTRO, LLC","12271 TECH ROAD
SILVER SPRING, MD 20904
(39.056575, -76.967198)",1,12,21,5,1
CARIBBEAN FLAVOR,11524 MIDDLEBROOK RD.,GERMANTOWN,MD,20876,DBW42301,On/Off-Premise,"CARIBBEAN FLAVOR, LLC","11524 MIDDLEBROOK RD.
GERMANTOWN, MD 20876
(39.180466, -77.239326)",1,36,39,2,1
OLNEY ALE HOUSE,2000 OLNEY SANDY SPRING ROAD,SANDY SPRING,MD,20832,BBWHR027,On/Off-Premise,OOAH LLC,"2000 OLNEY SANDY SPRING ROAD
SANDY SPRING, MD 20832
(39.144388, -77.042904)",1,100,35,4,1
THE COMUS INN,23900 OLD HUNDRED RD.,DICKERSON,MD,20842,BDBWL246259,On/Off-Premise,"HSFT COMUS, LLC","23900 OLD HUNDRED RD.
DICKERSON, MD 20842
(39.247697, -77.349324)",1,74,48,2,1
MARKET ON THE BOULEVARD,7945 MACARTHUR BLVD,CABIN JOHN,MD,20818,BBWHR085,On/Off-Premise,"NEXKIM, INC.","7945 MACARTHUR BLVD
CABIN JOHN, MD 20818
(38.974709, -77.162774)",1,102,3,1,1
MOTI'S MARKET,4860 BOILING BROOK PARKWAY,ROCKVILLE,MD,20852,BBWHR114,On/Off-Premise,"ADAD, LLC","4860 BOILING BROOK PARKWAY
ROCKVILLE, MD 20852
(39.046293, -77.097925)",1,60,19,4,1
GREGORIO'S TRATTORIA,7745 TUCKERMAN LANE,POTOMAC,MD,20854,BDBWLHR1070947,On/Off-Premise,"GREGORIO'S, LLC","7745 TUCKERMAN LANE
POTOMAC, MD 20854
(39.039406, -77.156417)",1,53,20,1,1
ROUTE 108 PIZZA & BBQ,805 OLNEY SANDY SPRING,SANDY SPRING,MD,20860,BBWLHR464306,On Premise,"108 COMPANIES, LLC","805 OLNEY SANDY SPRING
SANDY SPRING, MD 20860",,,,,
JNK BEER & WINE,14344 LAYHILL RD.,SILVER SPRING,MD,20906,DBW450315,On/Off-Premise,"CABIN JOHN WINE & BEER, INC.","14344 LAYHILL RD.
SILVER SPRING, MD 20906
(39.091092, -77.044982)",1,6,59,4,1
THE ELEANOR,931 ELLSWORTH DRIVE,SILVER SPRING,MD,20910,BBWLHR188260,On Premise,"WHITE RUSSIAN SILVER SPRING, LLC","931 ELLSWORTH DRIVE
SILVER SPRING, MD 20910
(38.995593, -77.026816)",1,3065,7,5,1
CUGINIS RESTAURANT & BAR,"19616 FISHER AVE, UNIT H",POOLESVILLE,MD,20837,BDBWL758,On/Off-Premise,"CUGINIS RESTAURANT & BAR, LLC","19616 FISHER AVE, UNIT H
POOLESVILLE, MD 20837
(39.144194, -77.409811)",1,97,34,1,16
YEKTA KABOBI,1488 ROCKVILLE PIKE,ROCKVILLE,MD,20852,BBWHR103,On/Off-Premise,YEKTA DELI & IMPORTED GROCERIE,"1488 ROCKVILLE PIKE
ROCKVILLE, MD 20852
(39.065524, -77.126927)",1,60,25,3,12
PARKWAY DELICATESSEN,8317 GRUBB ROAD,SILVER SPRING,MD,20910,BBWHR031,On/Off-Premise,G.G.S. INCORPORATED,"8317 GRUBB ROAD
SILVER SPRING, MD 20910
(38.99226, -77.049314)",1,110,6,1,1
WISTERIA BEER & WINE,"13220 WISTERIA DRIVE, UNIT #4",GERMANTOWN,MD,20874,DBW276,On/Off-Premise,"WISTERIA BEER & WINE, LLC","13220 WISTERIA DRIVE, UNIT #4
GERMANTOWN, MD 20874
(39.180874, -77.275704)",1,39,39,2,1
BETHESDA CRAB HOUSE,4958 BETHESDA AVE,BETHESDA,MD,20814,BBWHR079,On/Off-Premise,"BETHESDA CRAB HOUSE, LLC","4958 BETHESDA AVE
BETHESDA, MD 20814
(38.980778, -77.10029)",1,111,12,1,1
ITALIAN KITCHEN,8201 FENTON STREET,SILVER SPRING,MD,20910,BBWHR21279,On/Off-Premise,8201 FENTON STREET LLC,"8201 FENTON STREET
SILVER SPRING, MD 20910
(38.992016, -77.024042)",1,3065,7,5,1
EL BOTANERO,800 PLEASANT DR,ROCKVILLE,MD,20850,BDBWL24075,On/Off-Premise,"JMK, LLC","800 PLEASANT DR
ROCKVILLE, MD 20850
(39.113696, -77.171131)",1,71,25,3,12
SMOKE BBQ,4858 CORDELL AVE,BETHESDA,MD,20814,BDBWLHR1070165,On/Off-Premise,"DESIGNS BY M, LLP","4858 CORDELL AVE
BETHESDA, MD 20814
(38.989818, -77.097675)",1,111,12,1,1
GEORGETOWN SQUARE WINE & CHEESE,10400 OLD GEORGETOWN ROAD,BETHESDA,MD,20814,DBW61450,On/Off-Premise,H & A WINE & CHEESE INC.,"10400 OLD GEORGETOWN ROAD
BETHESDA, MD 20814
(39.025879, -77.126068)",1,103,19,1,1
KAO THAI RESTAURANT,8650 COLESVILLE ROAD,SILVER SPRING,MD,20910,DBW137,On/Off-Premise,"KAO THAI, LLC","8650 COLESVILLE ROAD
SILVER SPRING, MD 20910
(38.997097, -77.027413)",1,3065,7,5,1
GOURMET BEER & WINE,"11530 ROCKVILLE PIKE, UNIT D",ROCKVILLE,MD,20852,DBW166,On/Off-Premise,HOPE RESOURCES CORPORATION,"11530 ROCKVILLE PIKE, UNIT D
ROCKVILLE, MD 20852
(39.046183, -77.112501)",1,60,19,1,1
BARK SOCIAL,935 PROSE ST.,NORTH BETHESDA,MD,20852,BDBWL383274,On/Off-Premise,"BARK SOCIAL BETHESDA, LLC","935 PROSE ST.
NORTH BETHESDA, MD 20852",,,,,
THE URBAN WINERY,2315 STEWART AVE.,SILVER SPRING,MD,20910,DBWL21272,On Premise,"URBAN WINERY, LLC","2315 STEWART AVE.
SILVER SPRING, MD 20910
(39.002705, -77.050115)",1,3065,6,5,1
KOREAN KORNER,12207 VEIRS MILL ROAD,SILVER SPRING,MD,20906,ABW107,Off Premise,"KOREAN KORNER, INC.","12207 VEIRS MILL ROAD
SILVER SPRING, MD 20906
(39.056386, -77.082787)",1,6,23,4,1
HAMPSHIRE GREENS GOLF COURSE,616 FIRESTONE DRIVE,ASHTON,MD,20861,BBWLCL178,On Premise,MONTGOMERY CO REVENUE AUTHORIT,"616 FIRESTONE DRIVE
ASHTON, MD 20861
(39.126466, -77.000703)",1,8,29,5,1
REGINA'S RESTAURANT,11423 GEORGIA AVE.,WHEATON,MD,20902,BBWLHR546348,On Premise,"ALVAREZ & CAMPOS, INC.","11423 GEORGIA AVE.
WHEATON, MD 20902
(39.042046, -77.051837)",1,17,16,4,1
DOG HAUS BIERGARTEN-SS,933 ELLSWORTH DR.,SILVER SPRING,MD,20910,BBWLHR471301,On Premise,"DHSS, LLC","933 ELLSWORTH DR.
SILVER SPRING, MD 20910
(38.995506, -77.026918)",1,3065,7,5,1
HOOK & REEL CAJUN SEAFOOD & BAR,11160 VEIRS MILL RD.,WHEATON,MD,20902,BBWLHR648359,On Premise,"CAJUN SEAFOOD WHEATON, LLC","11160 VEIRS MILL RD.
WHEATON, MD 20902
(39.038338, -77.052936)",1,17,16,4,1
AKIRA RAMEN & IZAKAYA,"1800 ROCKVILLE PIKE, STE H1",ROCKVILLE,MD,20852,HBWHR749355,On Premise,"HS PANIDA, INC.","1800 ROCKVILLE PIKE, STE H1
ROCKVILLE, MD 20852
(39.059817, -77.12213)",1,60,25,1,12
KUMBIA RESTAURANT,100 B GIBBS ST.,ROCKVILLE,MD,20850,BBWLHR699358,On Premise,"KUMBIA ENTERTAINMENT GROUP, LLC","100 B GIBBS ST.
ROCKVILLE, MD 20850
(39.085101, -77.151945)",1,71,25,3,12
SKY LOUNGE MD,11272 GEORGIA AVE,SILVER SPRING,MD,20902,BBWLHR764,On Premise,"THE CUBANAKAN LOUNGE, INC.","11272 GEORGIA AVE
SILVER SPRING, MD 20902
(39.040442, -77.051504)",1,17,16,4,1
TRAVILAH BEER & WINE,10046 DARNESTOWN RD.,ROCKVILLE,MD,20850,DBW747355,On/Off-Premise,"NKGS, LLC","10046 DARNESTOWN RD.
ROCKVILLE, MD 20850
(39.096989, -77.206906)",1,71,25,3,1
COURTYARD BY MARRIOTT-CHEVY CHASE,5520 WISCONSIN AVE.,CHEVY CHASE,MD,20815,BBWLHM475300,On Premise,"5520 WISCONSIN HOTEL PROP, LP","5520 WISCONSIN AVE.
CHEVY CHASE, MD 20815
(38.964247, -77.087509)",1,110,5,1,3
CHEF LEES ELEMENT,521 QUINCE ORCHARD RD.,GAITHERSBURG,MD,20878,HBWHR653362,On Premise,"CHEF LI, LLC","521 QUINCE ORCHARD RD.
GAITHERSBURG, MD 20878
(39.144441, -77.220217)",1,33,36,3,21
BARBERRYS BAR & LOUNGE,2423 HICKERSON DR.,SILVER SPRING,MD,20902,BBWLHR629355,On Premise,"JOSVIC ENTERPRISES, LLC","2423 HICKERSON DR.
SILVER SPRING, MD 20902
(39.042349, -77.051069)",1,17,16,4,1
MAYA CUISINE RESTAURANT & BAR,7345-A WISCONSIN AVE.,BETHESDA,MD,20814,BBWHR490323,On/Off-Premise,"SHANGRILA MANAGEMENT, LLC","7345-A WISCONSIN AVE.
BETHESDA, MD 20814
(38.983065, -77.093514)",1,111,12,1,1
MARRIOTT BETHESDA DOWNTOWN,7707 WOODMONT AVE.,BETHESDA,MD,20814,BBWLHM635355,On Premise,"MARRIOTT HOTEL SERVICES, INC.","7707 WOODMONT AVE.
BETHESDA, MD 20814
(38.986368, -77.096604)",1,111,12,1,1
POUR VINO N HOPS,42 MARYLAND AVENUE,ROCKVILLE,MD,20850,DBW34227,On/Off-Premise,"DIA CORPORATION, INC.","42 MARYLAND AVENUE
ROCKVILLE, MD 20850
(39.084668, -77.15095)",1,71,25,3,12
DIAMOND SQUARE BEER & WINE,38 BUREAU DRIVE,GAITHERSBURG,MD,20878,ABW283,Off Premise,"J&J BEER AND WINE, INC.","38 BUREAU DRIVE
GAITHERSBURG, MD 20878
(39.143455, -77.21708)",1,33,36,3,21
PLAZA OAXACA,141 GIBBS ST.,ROCKVILLE,MD,20850,BBWLHR482315,On Premise,"PLAZA OAXACA, INC.","141 GIBBS ST.
ROCKVILLE, MD 20850
(39.086442, -77.15198)",1,71,25,3,12
SNIDERS SUPER FOODS,1936 SEMINARY RD.,SILVER SPRING,MD,20910,ABWS382274,Off Premise,"SNIDERS FAMILY GROCERY, INC.","1936 SEMINARY RD.
SILVER SPRING, MD 20910
(39.008733, -77.041644)",1,3065,7,5,1
CLARKSBURG TAVERN,23315 FREDERICK RD.,CLARKSBURG,MD,20871,BBWLHR641363,On Premise,"THE CLARKSBURG TAVEN, LLC","23315 FREDERICK RD.
CLARKSBURG, MD 20871
(39.238519, -77.279127)",1,44,50,2,1
ZINNIA,9201 COLESVILLE RD.,SILVER SPRING,MD,20910,BBWLHR533348,On Premise,"MILLS  GROUP, LLC","9201 COLESVILLE RD.
SILVER SPRING, MD 20910
(39.005729, -77.022438)",1,3065,7,5,1
GREENE GROWLERS,227 E. DIAMOND AVE,GAITHERSBURG,MD,20877,BDBWLHR30633,On/Off-Premise,GREENECORP,"227 E. DIAMOND AVE
GAITHERSBURG, MD 20877
(39.142171, -77.193587)",1,35,36,3,21
ADULIS STORE,7825 EASTERN AVENUE,SILVER SPRING,MD,20910,ABW597348,Off Premise,"ADULIS ENTERPRISES, LLC","7825 EASTERN AVENUE
SILVER SPRING, MD 20910
(38.98522, -77.027455)",,3065,,,
FAIRLAND ETHIOPIAN RESTAURANT,13310 OLD COLUMBIA PIKE,SILVER SPRING,MD,20904,ABW479300,On Premise,"7-FAIRLAND, INC.","13310 OLD COLUMBIA PIKE
SILVER SPRING, MD 20904
(39.07556, -76.958027)",1,12,53,5,1
STRATHMORE MUSIC CENTER & MANSION,5301 TUCKERMAN LANE,ROCKVILLE,MD,20852,SBWLCPA1069795,On Premise,"STRATHMORE HALL FOUNDATION, IN","5301 TUCKERMAN LANE
ROCKVILLE, MD 20852
(39.03093, -77.102574)",1,60,19,1,1
LEDO PIZZA-ROCKVILLE,1319-H ROCKVILLE PIKE,ROCKVILLE,MD,20852,HBWHR524355,On/Off-Premise,"RAMAJ, LLC","1319-H ROCKVILLE PIKE
ROCKVILLE, MD 20852
(39.068834, -77.130134)",1,60,25,3,12
THE GRILLED OYSTER COMPANY,200 MAIN ST.,GAITHERSBURG,MD,20878,BBWLHR732,On Premise,"OLLIE JACK, LLC","200 MAIN ST.
GAITHERSBURG, MD 20878
(39.123037, -77.238571)",1,33,36,3,21
EMPIRE CAFE & MARKET,22301 GEORGIA AVENUE,BROOKVILLE,MD,20833,ABWS26399,Off Premise,"NASSA MART, LLC","22301 GEORGIA AVENUE
BROOKVILLE, MD 20833
(39.221724, -77.059798)",1,99,43,4,1
LE PAIN QUOTIDIEN-WESTERN,5310 WESTERN AVE.,CHEVY CHASE,MD,20815,HBWHR485310,On Premise,"APQ CHEVY CHASE MD, LLC","5310 WESTERN AVE.
CHEVY CHASE, MD 20815
(38.95995, -77.086781)",,978,,,
SOUTH HOUSE GARDEN,317 E. DIAMOND AVE.,GAITHERSBURG,MD,20877,BBWLHR438274,On Premise,"SOUTH HOUSE GARDEN, LLC","317 E. DIAMOND AVE.
GAITHERSBURG, MD 20877
(39.142117, -77.19107)",1,35,36,3,21
CHOICE WINE & BEER,11160 VEIRS MILL RD.,WHEATON,MD,20902,ABWS566348,Off Premise,"PERFECT CHOICE WINE & BEER, LLC","11160 VEIRS MILL RD.
WHEATON, MD 20902
(39.038338, -77.052936)",1,17,16,4,1
VINE ALLEY,114 MARKET ST.,GAITHERSBURG,MD,20878,DBW489303,On/Off-Premise,"KENTLANDS WINE GROUP, INC.","114 MARKET ST.
GAITHERSBURG, MD 20878
(39.122699, -77.23493)",1,33,36,3,21
SPRING BEER & WINE,9330 GEORGIA AVENUE,SILVER SPRING,MD,20910,ABW145,Off Premise,SPRING BEER & WINE CORPORATION,"9330 GEORGIA AVENUE
SILVER SPRING, MD 20910
(39.008079, -77.040015)",1,3065,7,5,1
BOTTLEGONIA,10723 COLUMBIA PIKE,SILVER SPRING,MD,20901,ABWS402274,Off Premise,"BOTTLEGONIA, INC.","10723 COLUMBIA PIKE
SILVER SPRING, MD 20901
(39.031476, -77.004411)",1,21,18,5,1
"SEMINARY BEER, WINE & DELI",9458 GEORGIA AVE,SILVER SPRING,MD,20910,ABW1067695,Off Premise,"B.B.S.B.,INC.","9458 GEORGIA AVE
SILVER SPRING, MD 20910
(39.009905, -77.040691)",1,3065,7,5,1
CHINESE EXPRESS,849 RUSSELL AVE.,GAITHERSBURG,MD,20879,BBWLHR717357,On Premise,"W&Y FOOD, LLC","849 RUSSELL AVE.
GAITHERSBURG, MD 20879
(39.156464, -77.211673)",1,31,36,3,21
ZAO STAMINA RAMEN,7345 WISCONSIN AVE.,BETHESDA,MD,20814,BBWLHR485311,On Premise,"ZAO STAMINA RAMEN, LLC","7345 WISCONSIN AVE.
BETHESDA, MD 20814
(38.983065, -77.093514)",1,111,12,1,1
KENTLANDS GOURMET,414 MAIN ST,GAITHERSBURG,MD,20878,ABW201,Off Premise,"HUR & SONS ENTERPRISE, INC.","414 MAIN ST
GAITHERSBURG, MD 20878
(39.120977, -77.236484)",1,33,36,3,21
PASSION FIN ASIAN BISTRO,4611 SANGAMORE ROAD,BETHESDA,MD,20816,BBWHR722,On Premise,"PASSION SUSHI, INC.","4611 SANGAMORE ROAD
BETHESDA, MD 20816
(38.948733, -77.119082)",1,107,12,1,1
NEW YORK J&P PIZZA,26027 RIDGE RD.,DAMASCUS,MD,20872,HBWHR485306,On Premise,"FIVEPAR, LLC","26027 RIDGE RD.
DAMASCUS, MD 20872
(39.285041, -77.209743)",1,42,51,2,1
KENSINGTON MARKET,4215 HOWARD AVE.,KENSINGTON,MD,20895,ABW542348,Off Premise,"KENSINGTON MARKET, LLC","4215 HOWARD AVE.
KENSINGTON, MD 20895
(39.03088, -77.082812)",1,25,15,1,1
CLASSIC BEER & WNE,891-C ROCKVILLE PIKE,ROCKVILLE,MD,20852,ABWS650360,Off Premise,"CLASSIC WINE ROCKVILLE, LLC","891-C ROCKVILLE PIKE
ROCKVILLE, MD 20852
(39.074883, -77.136431)",1,60,25,3,12
ROLLINS BEER & WINE,151 ROLLINS AVE.,ROCKVILLE,MD,20852,DBW492304,On/Off-Premise,"RIVNISH, LLC","151 ROLLINS AVE.
ROCKVILLE, MD 20852
(39.05867, -77.124054)",1,60,25,3,12
THE SENECA ROCKVILLE,55 WEST GUDE DR.,ROCKVILLE,MD,20850,BBWLHR508328,On Premise,"WATERMARK RET. COMMS. OF MD, LLC","55 WEST GUDE DR.
ROCKVILLE, MD 20850
(39.106784, -77.163853)",1,71,25,3,12
WATKINS MILL BEER & WINE,857 RUSSELL AVE.,GAITHERSBURG,MD,20879,DBW508327,On/Off-Premise,"SONI FAMILY, LLC","857 RUSSELL AVE.
GAITHERSBURG, MD 20879
(39.156794, -77.212092)",1,31,36,3,21
SABAI SABAI...SIMPLY THAI,19847 CENTURY BLVD,GERMANTOWN,MD,20874,BBWHR549,On Premise,"AGATE, INC","19847 CENTURY BLVD
GERMANTOWN, MD 20874
(39.182012, -77.265319)",1,39,39,2,1
BOWLERO ROCKVILLE,15720 SHADY GROVE ROAD,GAITHERSBURG,MD,20877,BBWLHR497,On Premise,"AMF BOWLING CENTERS, INC.","15720 SHADY GROVE ROAD
GAITHERSBURG, MD 20877
(39.113727, -77.186423)",1,71,36,3,1
FISH TACO OF WOODMONT,7251 WOODMONT AVENUE,BETHESDA,MD,20814,BBWLHR36066,On Premise,"FISH TACO OF WOODMONT, LLC","7251 WOODMONT AVENUE
BETHESDA, MD 20814
(38.98152, -77.09582)",1,111,12,1,1
BESTWAY MARYLAND SUPERMARKET,8540 PINEY BRANCH ROAD,SILVER SPRING,MD,20901,ABWS082,Off Premise,GREEN CASTLE INTERNATIONAL INC,"8540 PINEY BRANCH ROAD
SILVER SPRING, MD 20901
(38.998378, -77.001731)",1,3062,8,5,1
ROYAL TANDOOR,820 MUDDY BRANCH RD.,GAITHERSBURG,MD,20878,BBWLHR485312,On Premise,"ROYAL BROTHERS, INC.","820 MUDDY BRANCH RD.
GAITHERSBURG, MD 20878
(39.113498, -77.216155)",1,33,36,3,21
DOG HAUS BIERGARTEN-KENTLAND,644 CENTER POINT WAY,GAITHERSBURG,MD,20878,BBWLHR95263,On Premise,"DHKMSQ, LLC","644 CENTER POINT WAY
GAITHERSBURG, MD 20878
(39.121934, -77.234774)",1,33,36,3,21
CICILIA BEER & WINE,13505 CLOPPER RD.,GERMANTOWN,MD,20874,ABWS733358,Off Premise,"CICILIA BEER & WINE, INC.","13505 CLOPPER RD.
GERMANTOWN, MD 20874
(39.161766, -77.280841)",1,39,39,2,1
QUINCY'S UPTOWN,9813 MAIN STREET,DAMASCUS,MD,20872,HBWHR40099,On Premise,"QUINCYGROUP, LLC","9813 MAIN STREET
DAMASCUS, MD 20872
(39.288059, -77.202925)",1,42,51,2,1
HOP N CRU,20940 FREDERICK ROAD,GERMANTOWN,MD,20876,ABW39057,Off Premise,HOP N CRU INC.,"20940 FREDERICK ROAD
GERMANTOWN, MD 20876
(39.199111, -77.245141)",1,36,39,2,1
MELINA,905 ROSE AVENUE,ROCKVILLE,MD,20852,BBWLHR479301,On Premise,"DTI MELINA, LLC","905 ROSE AVENUE
ROCKVILLE, MD 20852
(39.05122, -77.115644)",1,60,19,1,1
PINSTRIPES,11920 GRAND PARK AVE,NORTH BETHESDA,MD,20852,BBWLHR29538,On Premise,"PINSTRIPES, INC.","11920 GRAND PARK AVE
NORTH BETHESDA, MD 20852
(39.050956, -77.117463)",1,60,19,1,1
AMP BY STRATHMORE,11810 GRAND PARK AVENUE,NORTH BETHESDA,MD,20852,SBWLCPA27465,On Premise,"STRATHMORE HALL FOUNDATION, INC","11810 GRAND PARK AVENUE
NORTH BETHESDA, MD 20852
(39.04937, -77.117067)",1,60,19,1,1
FAMILY MARKET BEER & WINE,15432 NEW HAMPSHIRE AVE.,SILVER SPRING,MD,20905,ABW696359,Off Premise,"FAMILY MARKET BEER & WINE, INC.","15432 NEW HAMPSHIRE AVE.
SILVER SPRING, MD 20905
(39.109458, -76.99707)",1,8,29,5,1
BUFFALO WILD WINGS-GAITH,668 CLOPPER RD.,GAITHERSBURG,MD,20878,BBWLHR389274,On Premise,"BWW LEX PARK, LLC","668 CLOPPER RD.
GAITHERSBURG, MD 20878
(39.143026, -77.222496)",1,33,36,3,21
CHAIA,7237 WOODMONT AVE.,BETHEDA,MD,20814,DBW656368,On/Off-Premise,"CHAIA BETHESDA, LLC","7237 WOODMONT AVE.
BETHEDA, MD 20814
(38.981379, -77.095658)",1,111,12,1,1
BLACK MARKET BISTRO,4600 WAVERLY AVE,GARRETT PARK,MD,20896,BBWHR004,On/Off-Premise,"M.W. TAPPAN, LLC,","4600 WAVERLY AVE
GARRETT PARK, MD 20896
(39.038526, -77.093264)",1,24,14,1,18
MATCHBOX-ROCKVILLE,1699 ROCKVILLE PIKE,ROCKVILLE,MD,20852,BBWLHR483304,On Premise,"MATCHBOX CONGRESSIONAL PLZ, LLC","1699 ROCKVILLE PIKE
ROCKVILLE, MD 20852
(39.061973, -77.124252)",1,60,25,3,12
THAI CHEF,29 MARYLAND AVE.,ROCKVILLE,MD,20850,BBWLHR531351,On Premise,"WESTON, INC.","29 MARYLAND AVE.
ROCKVILLE, MD 20850
(39.086345, -77.151029)",1,71,25,3,12
PHO VIET USA,4917 CORDELL AVE.,BETHESDA,MD,20814,BBWLHR489304,On Premise,"PHO VIET USA, INC.","4917 CORDELL AVE.
BETHESDA, MD 20814
(38.988893, -77.098583)",1,111,12,1,1
LAMOON THAI,906 THAYER AVE.,SILVER SPRING,MD,20910,BBWHR610348,On Premise,"S&P 6868, LLC","906 THAYER AVE.
SILVER SPRING, MD 20910
(38.993028, -77.024672)",1,3065,7,5,1
RANKEN NOODLE HOUSE,133 COMMERCE SQUARE PL.,GAITHERSBURG,MD,20878,HBWHR441289,On Premise,"RANKEN NOODLE HOUSE, LLC","133 COMMERCE SQUARE PL.
GAITHERSBURG, MD 20878",,,,,
BEAR BRICK OVEN,15410 NEW HAMPSHIRE AVE.,SILVER SPRING,MD,20905,HBWHR282259,On Premise,BEAR BRICK OVEN CO.,"15410 NEW HAMPSHIRE AVE.
SILVER SPRING, MD 20905
(39.10955, -76.996977)",1,8,29,5,1
N-Our Family Restaurant,201 EDISON PARK DR,GAITHERSBURG,MD,20878,BBWLHR756356,On Premise,"Our Family Restaurant, LLC","201 EDISON PARK DR
GAITHERSBURG, MD 20878
(39.113326, -77.234001)",1,33,36,3,21
COLADA SHOP,7993 TUCKERMAN LN.,POTOMAC,MD,20854,BDBWL490322,On/Off-Premise,"COLADA SHOP POTOMAC, LLC","7993 TUCKERMAN LN.
POTOMAC, MD 20854
(39.039938, -77.157346)",1,53,20,1,1
ABI AZTECA GRILL,11514 MIDDLEBROOK ROAD,GERMANTOWN,MD,20876,BBWLHR792,On Premise,"AZTECA GRILL, LLC","11514 MIDDLEBROOK ROAD
GERMANTOWN, MD 20876
(39.18058, -77.239197)",1,36,39,2,1
DUCK DUCK GOOSE,7929 NORFOLK AVENUE,BETHESDA,MD,20814,BBWLHR24264,On Premise,"DUCK DUCK GOOSE, LLC","7929 NORFOLK AVENUE
BETHESDA, MD 20814
(38.989324, -77.097937)",1,111,12,1,1
SIN & GRIN,353 MAIN STREET,GAITHERSBURG,MD,20878,BBWLHR019,On Premise,SIN & GRIN LLC,"353 MAIN STREET
GAITHERSBURG, MD 20878
(39.121261, -77.237608)",1,33,36,3,21
HUG LOUNGE,949 BONIFANT ST.,SILVER SPRING,MD,20910,BBWLHR323259,On Premise,"HUG LOUNGE, LLC","949 BONIFANT ST.
SILVER SPRING, MD 20910
(38.99372, -77.025644)",1,3065,7,5,1
LIA'S,4435 WILLARD AVE,CHEVY CHASE,MD,20815,BBWLHR413,On Premise,"CG3,LLC","4435 WILLARD AVE
CHEVY CHASE, MD 20815
(38.961933, -77.088009)",1,110,5,1,1
SPORTS & SOCIAL BETHESDA,11800 GRAND PARK AVE.,NORTH BETHESDA,MD,20852,BDBWL498327,On/Off-Premise,"S&S BETHESDA, LLC","11800 GRAND PARK AVE.
NORTH BETHESDA, MD 20852
(39.049586, -77.117127)",1,60,19,1,1
DOG HAUS BIERGARTEN-BETH.,7904 WOODMONT AVENUE,BETHESDA,MD,20814,BBWLHR29718,On Premise,"CASTLEROCK RESTAURANTS 1, LLC","7904 WOODMONT AVENUE
BETHESDA, MD 20814
(38.989175, -77.096269)",1,111,12,1,1
"KEMP MILL BEER, WINE & DELI",1339 LAMBERTON DRIVE,SILVER SPRING,MD,20902,ABW067,Off Premise,"JAI SHREE GANESH, INC.","1339 LAMBERTON DRIVE
SILVER SPRING, MD 20902
(39.04094, -77.029722)",1,17,16,4,1
FINEWINE.COM,20 GRAND CORNER AVE.,GAITHERSBURG,MD,20878,DBW542350,On/Off-Premise,"PSB, LLC","20 GRAND CORNER AVE.
GAITHERSBURG, MD 20878
(39.118722, -77.202218)",1,33,36,3,21
THE HUNTERS HOUNDS,5471 WISCONSIN AVE.,CHEVY CHASE,MD,20815,BDBWL642356,On/Off-Premise,"QUEEN BEE GROUP, INC.","5471 WISCONSIN AVE.
CHEVY CHASE, MD 20815
(38.963042, -77.086756)",1,110,5,1,1
TACO BAMBA TAQUERIA,1627 ROCKVILLE PIKE,ROCKVILLE,MD,20852,BBWLHR481301,On Premise,"PYM HOLDINGS, LLC","1627 ROCKVILLE PIKE
ROCKVILLE, MD 20852
(39.063507, -77.125541)",1,60,25,3,12
MOH MOH LICIOUS,4925 BETHESDA AVE,BETHESDA,MD,20814,BBWLHR761,On Premise,HIMALAYAN HERITAGE LLC,"4925 BETHESDA AVE
BETHESDA, MD 20814
(38.980808, -77.099357)",1,111,12,1,1
SPANISH DINER,7271 WOODMONT AVE,BETHESDA,MD,20814,BBWLHR321,On Premise,"TYM MERGER COMPANY, LLC","7271 WOODMONT AVE
BETHESDA, MD 20814
(38.981775, -77.09599)",1,111,12,1,1
CAMBRIA HOTEL & SUITES,1 HELEN HENEGHAN WAY,ROCKVILLE,MD,20850,BBWLHM650358,On Premise,"PEACHTREE HOSPITALITY MGMT., LLC","1 HELEN HENEGHAN WAY
ROCKVILLE, MD 20850
(39.084625, -77.15031)",1,71,25,3,12
COLESVILLE BEER & WINE,13468 NEW HAMPSHIRE AVE,SILVER SPRING,MD,20904,ABWS038,Off Premise,"COLESVILLE BEER AND WINE, INC.","13468 NEW HAMPSHIRE AVE
SILVER SPRING, MD 20904
(39.076991, -77.0018)",1,12,26,4,1
WOODLANDS PURE VEGETARIAN,555 QUINCE ORCHARD RD.,GAITHERSBURG,MD,20878,HBWHR650356,On Premise,"UDIPI, INC.","555 QUINCE ORCHARD RD.
GAITHERSBURG, MD 20878
(39.143586, -77.220512)",1,33,36,3,21
EL MERCAT BAR DE TAPAS,101 GIBBS ST.,ROCKVILLE,MD,20850,BDBWL655355,On Premise,"GEORGE RODRIGUES REST. GRP., LLC","101 GIBBS ST.
ROCKVILLE, MD 20850
(39.085333, -77.151951)",1,71,25,3,12
SAM'S PIZZA & SUBS,15855 REDLAND RD.,ROCKVILLE,MD,20855,DBW656366,On/Off-Premise,"CAPITAL FLAVOR PIZZA, LLC","15855 REDLAND RD.
ROCKVILLE, MD 20855
(39.116953, -77.164915)",1,51,27,3,1
RANDOLPH BEER & WINE,5408 A RANDOLPH RD.,ROCKVILLE,MD,20852,DBW497333,On/Off-Premise,"R&S SOLUTIONS, LLC","5408 A RANDOLPH RD.
ROCKVILLE, MD 20852
(39.053467, -77.107674)",1,60,19,4,1
NAVA THAI RESTAURANT,11301 FERN STREET,SILVER SPRING,MD,20902,HBWHR535,On Premise,NAVA THAI RESTAURANT CORPORATI,"11301 FERN STREET
SILVER SPRING, MD 20902
(39.040345, -77.049529)",1,17,16,4,1
YARD HOUSE #8380,211 RIO BLVD,GAITHERSBURG,MD,20878,BBWLHR33183,On Premise,"GMR MONTGOMERY COUNTY, INC.","211 RIO BLVD
GAITHERSBURG, MD 20878
(39.117422, -77.200811)",1,33,36,3,21
RIO GRANDE CAFE & SAVAGE BURRITO- BETH.,4870 BETHESDA AVE,BETHESDA,MD,20814,BBWLHR161,On Premise,"THE MEXICAN REST., INC.","4870 BETHESDA AVE
BETHESDA, MD 20814
(38.980865, -77.098052)",1,111,12,1,1
RIO GRANDE GRILL,13541 CLOPPER ROAD,GERMANTOWN,MD,20874,BBWLHR462302,On/Off-Premise,"RIO GRANDE GRILL, LLC","13541 CLOPPER ROAD
GERMANTOWN, MD 20874
(39.161675, -77.280659)",1,39,39,2,1
WORLD MARKET - ROCKVILLE,"12266 ROCKVILLE PIKE, UNIT P",ROCKVILLE,MD,20852,ABWS220,Off Premise,"WORLD MARKET, LLC","12266 ROCKVILLE PIKE, UNIT P
ROCKVILLE, MD 20852
(39.057661, -77.120504)",1,60,19,3,1
KING STREET OYSTER BAR,12435  PARK POTOMAC AVE.,POTOMAC,MD,20854,BBWLHR483305,On Premise,"KSOB POTOMAC, LLC","12435 PARK POTOMAC AVE.
POTOMAC, MD 20854
(39.059528, -77.157576)",1,53,20,3,1
EUROPEAN DELIGHT,"1488 ROCKVILLE PIKE, UNIT I",ROCKVILLE,MD,20852,DBW201,Off Premise,"ILHOM, INC.","1488 ROCKVILLE PIKE, UNIT I
ROCKVILLE, MD 20852
(39.065524, -77.126927)",1,60,25,3,12
KLAY RESTAURANT,9736 TRAVILLE GATEWAY DRIVE,ROCKVILLE,MD,20850,BBWLHR42186,On Premise,"BTRG, LLC","9736 TRAVILLE GATEWAY DRIVE
ROCKVILLE, MD 20850
(39.091793, -77.203832)",1,71,24,3,1
BUFFALO WILD WINGS-ROCKVILLE,33 MARYLAND AVE.,ROCKVILLE,MD,20850,BBWLHR389275,On Premise,"BWW LEX PARK, LLC","33 MARYLAND AVE.
ROCKVILLE, MD 20850
(39.085575, -77.150996)",1,71,25,3,12
LAKESIDE BEER AND WINE,9621 LOST KNIFE RD,GAITHERSBURG,MD,20877,DBW31825,On/Off-Premise,SHUVASHREE CORPORATION,"9621 LOST KNIFE RD
GAITHERSBURG, MD 20877
(39.153268, -77.199077)",1,35,38,2,1
SALSA WITH SILVIA,4731 ELM ST.,BETHESDA,MD,20814,DBWL339262,On Premise,"SALSA WITH SILVIA BALLROOM, LLC","4731 ELM ST.
BETHESDA, MD 20814
(38.982175, -77.095429)",1,111,12,1,1
AROMA JUICE CAFE,1313 EAST GUDE DR.,ROCKVILLE,MD,20854,BBWLHR521348,On Premise,"AROMA JUICE CAFE, INC.","1313 EAST GUDE DR.
ROCKVILLE, MD 20854
(39.097005, -77.135691)",1,71,25,3,12
MILLER'S ALE HOUSE,1471 ROCKVILLE PIKE,ROCKVILLE,MD,20852,BBWLHR740,On Premise,"MILLER'S ALE HOUSE OF MD, LLC","1471 ROCKVILLE PIKE
ROCKVILLE, MD 20852
(39.065632, -77.127222)",1,60,25,3,12
JAVA NATION,10516 CONNECTICUT AVENUE,KENSINGTON,MD,20895,HBWHR71919,On Premise,"JAVA NATION, INC","10516 CONNECTICUT AVENUE
KENSINGTON, MD 20895
(39.028719, -77.076291)",1,25,15,1,6
TAKO GRILL,4914 HAMPDEN LANE,BETHESDA,MD,20814,HBWHR311,On Premise,S.K.O. CORPORATION,"4914 HAMPDEN LANE
BETHESDA, MD 20814
(38.982692, -77.096987)",1,111,12,1,1
RIO GRANDE CAFE & SAVAGE BURRITO-GAIT,231 RIO BLVD,GAITHERSBURG,MD,20878,BBWLHR048,On Premise,"THE MEXICAN RESTAURANT,INC.","231 RIO BLVD
GAITHERSBURG, MD 20878
(39.118054, -77.200395)",1,33,36,3,21
GLENSTONE FOUNDATION,12100 GLEN RD.,POTOMAC,MD,20854,HBWHR43459,On Premise,"GLENSTONE FOUNDATION, INC.","12100 GLEN RD.
POTOMAC, MD 20854",,,,,
"ARIA BEER, WINE & DELI",4800 AUBURN AVE.,BETHESDA,MD,20814,ABW504331,Off Premise,"PROSPERITY AT THE GALLERY, LLC","4800 AUBURN AVE.
BETHESDA, MD 20814
(38.990806, -77.099102)",1,111,12,1,1
MEIWAH RESTAURANT,4457 WILLARD AVENUE,CHEVY CHASE,MD,20815,BBWLHR176,On Premise,"HAKKA, LLC","4457 WILLARD AVENUE
CHEVY CHASE, MD 20815
(38.961984, -77.088261)",1,110,5,1,1
ERTTERS MARKET,521 DALE DR.,SILVER SPRING,MD,20910,ABW524348,Off Premise,"TEA'S ERTTERS, LLC","521 DALE DR.
SILVER SPRING, MD 20910
(39.000175, -77.017563)",1,3065,7,5,1
BALDUCCI'S,10323 OLD GEORGETOWN RD.,BETHESDA,MD,20814,BBWHR478300,On/Off-Premise,"AMERICAN STORES COMPANY, LLC","10323 OLD GEORGETOWN RD.
BETHESDA, MD 20814
(39.024761, -77.125139)",1,111,12,1,1
PLANTA BETHESDA,4910 ELM ST.,BETHESDA,MD,20814,BDBWL656364,On/Off-Premise,"PLANTA BETHESDA, LLC","4910 ELM ST.
BETHESDA, MD 20814
(38.982114, -77.097113)",1,111,12,1,1
6/12 CONVENIENT MART,14100-C DARNESTOWN RD.,GERMANTOWN,MD,20874,DBW43142,On/Off-Premise,"AKSHAT ENTERPRISES, LLC","14100-C DARNESTOWN RD.
GERMANTOWN, MD 20874
(39.103541, -77.292186)",1,33,28,2,1
JEFFREY'S SUB & PIZZA,15547 OLD COLUMBIA PIKE,BURTONSVILLE,MD,20866,HBW096,On Premise,"CHAI III, INC.","15547 OLD COLUMBIA PIKE
BURTONSVILLE, MD 20866
(39.109735, -76.934829)",1,47,30,5,1
LANGANO ETHIOPIAN BAR & RESTAURANT,11261 NEW HAMPSHIRE AVE,SILVER SPRING,MD,20904,BDBWL35192,On/Off-Premise,"LANGANO WHITE OAK, LLC","11261 NEW HAMPSHIRE AVE
SILVER SPRING, MD 20904
(39.040332, -76.990799)",1,12,18,5,1
T&T WINE SHOP,5052 NICHOLSON LN.,ROCKVILLE,MD,20852,ABWS454314,Off Premise,"T&T WINE SHOP, LLC","5052 NICHOLSON LN.
ROCKVILLE, MD 20852
(39.046184, -77.103879)",1,25,19,1,1
HANK DIETLE'S TAVERN,11010 ROCKVILLE PIKE,ROCKVILLE,MD,20852,DBW001,On/Off-Premise,"HANK DIETLE'S, LLC","11010 ROCKVILLE PIKE
ROCKVILLE, MD 20852
(39.036996, -77.108038)",1,25,19,1,1
LAO SZE CHUAN,20 PASEO DR.,NORTH BETHESDA,MD,20852,BBWLHR710355,On Premise,"BUFFET BETHESDA, LLC","20 PASEO DR.
NORTH BETHESDA, MD 20852
(39.043001, -77.111935)",1,60,19,1,1
CINCO DE MAYO,640 CENTER POINT WAY,GAITHERSBURG,MD,20878,BBWLHR188259,On Premise,"CINCO DE MAYO KENTLANDS, INC.","640 CENTER POINT WAY
GAITHERSBURG, MD 20878
(39.121908, -77.234382)",1,33,36,3,21
MOBY DICK SEAFOOD,11220 TRIANGLE LANE,SILVER SPRING,MD,20902,BBWHR023,On/Off-Premise,"CHANG & MI, INC.","11220 TRIANGLE LANE
SILVER SPRING, MD 20902
(39.03902, -77.051708)",1,17,16,4,1
MUSE PAINTBAR,217 BOARDWALK PLACE,GAITHERSBURG,MD,20878,HBWHR372276,On Premise,"EAD ENTERTAINMENT, LLC","217 BOARDWALK PLACE
GAITHERSBURG, MD 20878
(39.1169, -77.198501)",1,33,36,3,21
DON POLLO OF GAITHERSBURG,9083 GAITHER ROAD,GAITHERSBURG,MD,20877,HBWHR18665,On Premise,"DON POLLO OF GAITHERSBURG, INC","9083 GAITHER ROAD
GAITHERSBURG, MD 20877
(39.117542, -77.185807)",1,35,36,3,1
KENTLANDS PHOTOGRAPHY CAFE,309 MAIN ST.,GAITHERSBURG,MD,20878,DBW767361,On/Off-Premise,"DEMOS HOUSE OF PHOTOGRAPHY, LLC","309 MAIN ST.
GAITHERSBURG, MD 20878
(39.121827, -77.238431)",1,33,36,3,21
EKO HOUSE,150 GIBBS ST.,ROCKVILLE,MD,20850,BBWLHR671355,On Premise,"O2A2, LLC","150 GIBBS ST.
ROCKVILLE, MD 20850
(39.086329, -77.151978)",1,71,25,3,12
DOUBLETREE BY HILTON SS DC N.,8777 GEORGIA AVE.,SILVER SPRING,MD,20910,BBWLHM629356,On Premise,"LCOF SS OPERATING, LLC","8777 GEORGIA AVE.
SILVER SPRING, MD 20910
(38.998784, -77.030976)",1,3065,7,5,1
LE PAIN QUOTIDIEN-WILDWOOD,10217 OLD GEORGETOWN RD.,BETHESDA,MD,20814,HBWHR485309,On Premise,"APQ WILDWOOD MD, LLC","10217 OLD GEORGETOWN RD.
BETHESDA, MD 20814
(39.022851, -77.123759)",1,111,12,1,1
SIRIWAN 4 SECTORS,20640 SENECA MEADOWS PKWY,GERMANTOWN,MD,20876,BBWLHR40920,On Premise,"SIRIWAN, LLC","20640 SENECA MEADOWS PKWY
GERMANTOWN, MD 20876
(39.198236, -77.255163)",1,36,39,2,1
VILLAGE CENTER BEER WINE,9991 STEDWICK RD.,GAITHERSBURG,MD,20886,ABW441295,Off Premise,"RUPAL & PARI, INC.","9991 STEDWICK RD.
GAITHERSBURG, MD 20886
(39.170206, -77.20694)",1,28,38,2,1
CHADOL,1403 RESEARCH BLVD.,ROCKVILLE,MD,20850,BBWLHR655356,On Premise,"DAE SEUNG, INC.","1403 RESEARCH BLVD.
ROCKVILLE, MD 20850
(39.091276, -77.178755)",1,71,25,3,12
LA COLOMBIANA RESTAURANT,11216 GRANDVIEW AVE.,WHEATON,MD,20902,BBWLHR485314,On Premise,"LA COLOMBIANA BAR RESTAURANT, LLC","11216 GRANDVIEW AVE.
WHEATON, MD 20902
(39.038931, -77.052406)",1,17,16,4,1
POTOMAC OAK MART,12960 TRAVILAH RD.,POTOMAC,MD,20854,ABWS485313,Off Premise,"VIDHRU,LLC","12960 TRAVILAH RD.
POTOMAC, MD 20854
(39.068746, -77.263269)",1,53,22,1,1
COPPER CANYON GRILL  - GAITHERSBURG,100 BOARDWALK PLACE,GAITHERSBURG,MD,20878,BBWLHR340,On Premise,"CANYON GRILL ENTERPRISES, LLC","100 BOARDWALK PLACE
GAITHERSBURG, MD 20878
(39.117081, -77.1988)",1,33,36,3,21
CRISTINA'S ITALIAN RISTORANTE,2666 UNIVERSITY BLVD. WEST,SILVER SPRING,MD,20902,BBWLHR486302,On Premise,"VASQUEZ WHEATON, LLC","2666 UNIVERSITY BLVD. WEST
SILVER SPRING, MD 20902
(39.040323, -77.054722)",1,17,16,4,1
MERENDERO,11220 GEORGIA AVE.,SILVER SPRING,MD,20906,DBWL650359,On Premise,"MERENDERO, LLC","11220 GEORGIA AVE.
SILVER SPRING, MD 20906
(39.039247, -77.051142)",1,17,16,4,1
SHEBA ETHIOPIAN RESTAURANT,5071 NICHOLSON LN.,ROCKVILLE,MD,20852,HBWHR249259,On Premise,"TAZZO, INC.","5071 NICHOLSON LN.
ROCKVILLE, MD 20852
(39.046087, -77.104012)",1,25,19,1,1
THE FILLMORE SILVER SPRING,8656 COLESVILLE RD,SILVER SPRING,MD,20910,BBWLPA28293,On Premise,"DLS EVENTS, LLC","8656 COLESVILLE RD
SILVER SPRING, MD 20910
(38.997311, -77.027262)",1,3065,7,5,1
LA GULA MEXICANA,21030 FREDERICK RD.,GERMANTOWN,MD,20876,BBWLHR451300,On Premise,"LA GULA, LLC","21030 FREDERICK RD.
GERMANTOWN, MD 20876
(39.201403, -77.245551)",1,36,39,2,1
YETT GOL RESTAURANT,12337 GEORGIA AVE,SILVER SPRING,MD,20906,BBWHR234,On Premise,EAST HILL CORPORATION,"12337 GEORGIA AVE
SILVER SPRING, MD 20906
(39.05927, -77.050194)",1,6,23,4,1
LA BRASITA RESTAURANT,7206 MUNCASTER MILL RD.,DERWOOD,MD,20855,BBWLHR192260,On Premise,"LA ESQUINA, LLC","7206 MUNCASTER MILL RD.
DERWOOD, MD 20855
(39.146011, -77.144728)",1,51,55,4,1
POTOMAC PIZZA - TRAVILLE,9709 TRAVILLE GATEWAY DRIVE,ROCKVILLE,MD,20850,HBWHR449,On Premise,"PIZZA ZONE OF TRAVILLE, LLC","9709 TRAVILLE GATEWAY DRIVE
ROCKVILLE, MD 20850
(39.091532, -77.204064)",1,71,24,3,1
BOWL AMERICA GAITHERSBURG,1101 CLOPPER RD.,GAITHERSBURG,MD,20878,BBWLHR738356,On Premise,"BOWL AMERICA, INC.","1101 CLOPPER RD.
GAITHERSBURG, MD 20878
(39.146787, -77.229684)",1,33,36,3,21
CLARKSBURG BEER & WINE,23335 FREDERICK RD.,CLARKSBURG,MD,20871,ABWS468301,Off Premise,SHANKER LIMITED,"23335 FREDERICK RD.
CLARKSBURG, MD 20871
(39.238893, -77.279574)",1,44,50,2,1
VILLAGE WEST LIQUOR,19520 WATERS ROAD,GERMANTOWN,MD,20874,DBW29800,On/Off-Premise,"VILLAGE WEST LIQUOR, LLC","19520 WATERS ROAD
GERMANTOWN, MD 20874
(39.175996, -77.273122)",1,39,39,2,1
THE BRAZILIAN PLACE,2418 UNIVERSITY BOULEVARD WEST,WHEATON,MD,20902,BBWLHR34405,On Premise,"THE BRAZILIAN PLACE, LLC","2418 UNIVERSITY BOULEVARD WEST
WHEATON, MD 20902
(39.041516, -77.051195)",1,17,16,4,1
ISLANDS RESTAURANT AND LOUNGE,11300 FERN STREET,WHEATON,MD,20902,DBWL34234,On Premise,"ISLANDZ ENTERTAINMENT, INC.","11300 FERN STREET
WHEATON, MD 20902
(39.040426, -77.049513)",1,17,16,4,1
TIKKA MASALA INDIAN CUISINE,4929 ELM STREET,BETHESDA,MD,20814,BBWLHR42459,On Premise,"LOTUS MODERN INDIAN CUISINE, LLC","4929 ELM STREET
BETHESDA, MD 20814
(38.982101, -77.097491)",1,111,12,1,1
Q'PADRE CANTINA,2310 PRICE AVE.,SILVER SPRING,MD,20902,BDBWL715355,On Premise,"LOS BERRACOS 2, LLC","2310 PRICE AVE.
SILVER SPRING, MD 20902
(39.040315, -77.050362)",1,17,16,4,1
MODENA RESERVE AT KENSINGTON,10540 METROPOLITAN AVE.,KENSINGTON,MD,20895,BBWLHR603348,On Premise,"SHI-III SOLERA KENSINGTON OWNER, LLC","10540 METROPOLITAN AVE.
KENSINGTON, MD 20895
(39.028339, -77.072994)",1,25,15,1,6
EVEN HOTEL,1775 ROCKVILLE PIKE,ROCKVILLE,MD,20852,BBWLHM756355,On Premise,"CRESCENT HOTELS & RESORTS, LLC","1775 ROCKVILLE PIKE
ROCKVILLE, MD 20852
(39.060631, -77.123064)",1,60,25,3,12
CORNER MARKET,8309 GRUBB RD.,SILVER SPRING,MD,20910,ABWS542349,Off Premise,"CORNER MARKET & PHARMACY, INC.","8309 GRUBB RD.
SILVER SPRING, MD 20910
(38.992311, -77.04943)",1,110,6,1,1
JONGRO BBQ,11160 VEIRS MILL RD.,WHEATON,MD,20902,BBWLHR742355,On Premise,JONRO BBQ CORP.,"11160 VEIRS MILL RD.
WHEATON, MD 20902
(39.038338, -77.052936)",1,17,16,4,1
FRANK PEPE'S PIZZERIA NAPOLETANA,7101 DEMOCRACY BLVD.,BETHESDA,MD,20817,HBWHR616351,On/Off-Premise,"PEPE'S OF MONTGOMERY, LLC","7101 DEMOCRACY BLVD.
BETHESDA, MD 20817
(39.0242, -77.1459)",1,103,19,1,1
BURGERFI-GAITHERSBURG,5 GRAND CORNER AVE.,GAITHERSBURG,MD,20878,BBWHR733356,On Premise,"BUFIRIO, LLC","5 GRAND CORNER AVE.
GAITHERSBURG, MD 20878
(39.118461, -77.201542)",1,33,36,3,21
AMERICAS SUPERMARKET,2404 UNIVERSITY BLVD.,WHEATON,MD,20902,ABW767359,Off Premise,"BITENCOURT HOLDINGS, LLC","2404 UNIVERSITY BLVD.
WHEATON, MD 20902
(39.041566, -77.050534)",1,17,16,4,1
RESTAURANT 198,15540 OLD COLUMBIA PIKE,BURTONSVILLE,MD,20866,BBWLHR768356,On Premise,"CHAPALA, INC.","15540 OLD COLUMBIA PIKE
BURTONSVILLE, MD 20866
(39.110479, -76.93392)",1,47,30,5,1
FOX HILL CLUB & RESIDENCES,8300 BURDETTE ROAD,BETHESDA,MD,20817,BBWLHR800,On Premise,"WELLTOWER OPCO GROUP, LLC","8300 BURDETTE ROAD
BETHESDA, MD 20817
(38.991456, -77.151758)",1,103,12,1,1
NC-SIGNATURE CATERERS,1361 LAMBERTON DR.,SILVER SPRING,MD,20902,CATBWL574348,On Premise,"SHALOM STRICTLY KOSHER MEATS, INC.","1361 LAMBERTON DR.
SILVER SPRING, MD 20902
(39.040913, -77.029787)",1,17,16,4,1
GROG BEER WINE & DELI,513 QUINCE ORCHARD RD UNIT 3,GAITHERSBURG,MD,20878,ABW117,Off Premise,"SWASTIK, INC.","513 QUINCE ORCHARD RD UNIT 3
GAITHERSBURG, MD 20878
(39.144685, -77.220134)",1,33,36,3,21
GAITHERSTOWNE BEER & WINE,296 N. FREDERICK AVENUE,GAITHERSBURG,MD,20877,ABW284,Off Premise,GAITHERSTOWNE BEER & WINE,"296 N. FREDERICK AVENUE
GAITHERSBURG, MD 20877
(39.144849, -77.202702)",1,35,36,3,21
FOOD STOP MINI MART,4820 BOILING BROOK PARKWAY,ROCKVILLE,MD,20852,ABW091,Off Premise,"BOILING BROOK PARKWAY FOODS, I","4820 BOILING BROOK PARKWAY
ROCKVILLE, MD 20852
(39.047707, -77.099423)",1,60,19,4,1
POYOTECA,14921 SHADY GROVE RD.,ROCKVILLE,MD,20850,BBWHR616352,On/Off-Premise,"POYOTECA ROCKVILLE, INC.","14921 SHADY GROVE RD.
ROCKVILLE, MD 20850
(39.097363, -77.194255)",1,71,25,3,1
THE ROCKVILLE HOTEL,3 RESEARCH CT.,ROCKVILLE,MD,20850,BBWLHR633355,On Premise,AIL HOSPITALITY LLC,"3 RESEARCH CT.
ROCKVILLE, MD 20850
(39.106197, -77.186553)",1,71,25,3,12
JUNCTION BISTRO BAR & BAKERY,5471 WISCONSIN AVE.,CHEVY CHASE,MD,20815,BBWLHR767358,On/Off-Premise,"BAKER'S BREAD MD, LLC","5471 WISCONSIN AVE.
CHEVY CHASE, MD 20815
(38.963042, -77.086756)",1,110,5,1,1
PARIS IN TOWN,4903 CORDELL AVE.,BETHESDA,MD,20814,BBWHR699362,On/Off-Premise,TVH & US CORP,"4903 CORDELL AVE.
BETHESDA, MD 20814
(38.989375, -77.098107)",1,111,12,1,1
EMBASSY SUITES BETHESDA,6711 DEMOCRACY BLVD.,BETHESDA,MD,20817,BBWLHM782363,On Premise,"SAGE CLIENT 227, LLC","6711 DEMOCRACY BLVD.
BETHESDA, MD 20817
(39.021549, -77.13792)",1,103,19,1,1
N-THE VILLAGE AT ROCKVILLE,9701 VEIRS DR,ROCKVILLE,MD,20850,CBWLRC26512,On Premise,"THE VILLAGE AT ROCKIVLLE, INC","9701 VEIRS DR
ROCKVILLE, MD 20850
(39.077226, -77.19424)",1,71,25,3,12
CENTRADO CAFE SHOP,15530 OLD COLUMBIA PIKE,BURTONSVILLE,MD,20866,BDBWL785366,On/Off-Premise,CENTRADO INVESTMENTS LLC,"15530 OLD COLUMBIA PIKE
BURTONSVILLE, MD 20866
(39.110256, -76.934195)",1,47,30,5,1
ELA MESA TASTE OF GREECE,109 PARAMOUNT PARK DR.,GAITHERSBURG,MD,20879,BBWLHR257262,On Premise,"EPSILON GI, LLC","109 PARAMOUNT PARK DR.
GAITHERSBURG, MD 20879
(39.159812, -77.221461)",1,31,36,3,21
BON CHON OF GERMANTOWN,19775 FREDERICK ROAD,GERMANTOWN,MD,20876,HBWHR21460,On Premise,"BON BON HOSPITALITY, LLC","19775 FREDERICK ROAD
GERMANTOWN, MD 20876
(39.179618, -77.238366)",1,36,39,2,1
J.HOLLINGERS,8606 COLESVILLE RD.,SILVER SPRING,MD,20910,BDBWL493303,On Premise,"J.HOLLINGER'S-SS, LLC","8606 COLESVILLE RD.
SILVER SPRING, MD 20910
(38.996566, -77.027769)",1,3065,7,5,1
"BONCHON, 3161",107 GIBBS ST UNIT A,ROCKVILLE,MD,20850,BBWLHR779373,,REYANSH INVESTMENTS LLC,"107 GIBBS ST UNIT A
ROCKVILLE, MD 20850
(39.085293, -77.15195)",1,71,25,3,12
BUTTER ME UP,7101 DEMOCRACY BOULEVARD SUIT 1158,BETHESDA,MD,20817,BBWLHR820386,,"BMU  Westfield, LLC","7101 DEMOCRACY BOULEVARD SUIT 1158
BETHESDA, MD 20817
(39.0242, -77.1459)",1,103,19,1,1
TERRAPIN BICYCLES,4933 AUBURN AVE.,BETHESDA,MD,20814,DBW768355,On/Off-Premise,"TERRAPIN BICYCLES, LLC","4933 AUBURN AVE.
BETHESDA, MD 20814
(38.989375, -77.100498)",1,111,12,1,1
KISS & RIDE  CONVENIENCE STORE,11175 GEORGIA AVE.,SILVER SPRING,MD,20902,ABW774364,Off Premise,"HOPE FOUND, INC.","11175 GEORGIA AVE.
SILVER SPRING, MD 20902
(39.038203, -77.050641)",1,17,16,4,1
YIRASAI SUSHI & CAFE,12525 PARK POTOMAC AVE,POTOMAC,MD,20854,HBW093,On Premise,YIRASHI SUSHI & CAFE INC,"12525 PARK POTOMAC AVE
POTOMAC, MD 20854
(39.061451, -77.157911)",1,53,20,3,1
BURGERIM,200 ELLINGTON BLVD.,GAITHERSBURG,MD,20878,HBWHR72260,On Premise,"IN'TL SOLUTION PARTNERS, LLC","200 ELLINGTON BLVD.
GAITHERSBURG, MD 20878
(39.115079, -77.20479)",1,71,25,3,21
THE DAILY DISH,"8301 GRUBB ROAD, UNIT A",SILVER SPRING,MD,20910,BBWLHR580,On Premise,"WJ HOLLINGER, LLC","8301 GRUBB ROAD, UNIT A
SILVER SPRING, MD 20910
(38.992093, -77.048935)",1,110,6,1,1
SAGAR BEER & WINE,615 SOUTH FREDERICK AVENUE,GAITHERSBURG,MD,20877,DBW34224,On/Off-Premise,"DAY & NIGHT BEER WINE, LLC","615 SOUTH FREDERICK AVENUE
GAITHERSBURG, MD 20877
(39.128879, -77.185912)",1,35,36,3,21
WOODMOOR SUPERMARKET,10129 COLESVILLE ROAD,SILVER SPRING,MD,20901,ABWS044,Off Premise,"CHOI MARKET, INC.","10129 COLESVILLE ROAD
SILVER SPRING, MD 20901
(39.021066, -77.012098)",1,21,13,5,1
OUTBACK STEAKHOUSE - SILVER SPRING,13703 GEORGIA AVE,SILVER SPRING,MD,20906,BBWLHR472,On Premise,"OUTBACK OF ASPEN HILL, INC.","13703 GEORGIA AVE
SILVER SPRING, MD 20906
(39.080219, -77.074345)",1,6,59,4,1
MAKI BAR,6831 WISCONSIN AVENUE,BETHESDA,MD,20815,HBW22695,On Premise,"NEW JOURNEY, LLC","6831 WISCONSIN AVENUE
BETHESDA, MD 20815
(38.978198, -77.091125)",1,110,5,1,1
GRILLMARX STEAKHOUSE,18149 TOWN CENTER DRIVE,OLNEY,MD,20832,BBWLHR658,On Premise,"GRILLMARX, LLC","18149 TOWN CENTER DRIVE
OLNEY, MD 20832
(39.151799, -77.061987)",1,100,58,4,1
MON AMI GABI,7239 WOODMONT AVE,BETHESDA,MD,20814,BBWLHR330,On Premise,MON AMI BETHESDA LLC,"7239 WOODMONT AVE
BETHESDA, MD 20814
(38.981449, -77.095743)",1,111,12,1,1
FISH TACO,7945 MACARTHUR BLVD,CABIN JOHN,MD,20818,BBWLHR797,On Premise,"FISH TACO, INC","7945 MACARTHUR BLVD
CABIN JOHN, MD 20818
(38.974709, -77.162774)",1,102,3,1,1
EL AMATE RESTAURANT,11452 CHERRY HILL ROAD,BELTSVILLE,MD,20705,BBWLHR172,On Premise,"EL AMATE RESTAURANT, INC.","11452 CHERRY HILL ROAD
BELTSVILLE, MD 20705
(39.044863, -76.951649)",,1648,,,
CADDIES ON CORDELL,4922 CORDELL AVENUE,BETHESDA,MD,20814,BBWLHR27463,On Premise,HOLE IN ONE OF MD LLC,"4922 CORDELL AVENUE
BETHESDA, MD 20814
(38.98876, -77.098713)",1,111,12,1,1
CHINA JADE,16805 CRABBS BRANCH WAY,DERWOOD,MD,20855,HBW237,On Premise,"JIN SHENG, INC.","16805 CRABBS BRANCH WAY
DERWOOD, MD 20855
(39.130076, -77.168091)",1,51,36,3,1
MERIDIAN MARKET & WINE,5230 TUCKERMAN LANE,ROCKVILLE,MD,20852,ABW251,Off Premise,EMC AT MERIDIAN INC.,"5230 TUCKERMAN LANE
ROCKVILLE, MD 20852
(39.027448, -77.101293)",1,60,19,1,1
TACO MEX RESTAURANT,13830 OLD COLUMBIA PIKE,SILVER SPRING,MD,20904,BBWLHR284,On Premise,"ERICK & EDWIN, INC.","13830 OLD COLUMBIA PIKE
SILVER SPRING, MD 20904
(39.083754, -76.951524)",1,12,53,5,1
MIKE & SON'S SUBS,5404 RANDOLPH RD,ROCKVILLE,MD,20852,DBW26658,On/Off-Premise,"BHATTI FAMILY, LLC","5404 RANDOLPH RD
ROCKVILLE, MD 20852
(39.05347, -77.107584)",1,60,19,4,1
CIELO ROJO,7056 CARROLL AVENUE,TAKOMA PARK,MD,20912,BBWLHR38002,On Premise,"SHILOH RESTAURANT GROUP, LLC","7056 CARROLL AVENUE
TAKOMA PARK, MD 20912
(38.975136, -77.010318)",1,3062,4,5,11
AMERICAN LEGION POST 268,11225 FERN STREET,SILVER SPRING,MD,20902,CBWLFV002,On Premise,WHEATON POST #268,"11225 FERN STREET
SILVER SPRING, MD 20902
(39.039832, -77.049621)",1,17,16,4,1
TAKOMA BEVERAGE,6917 LAUREL AVENUE,TAKOMA PARK,MD,20912,BDBWLHR26663,On/Off-Premise,"TAKOMA BEVERAGE COMPANY, LLC","6917 LAUREL AVENUE
TAKOMA PARK, MD 20912
(38.973996, -77.012678)",1,3062,4,5,11
LONG BRANCH BEER & WINE,649 UNIVERSITY BLVD,SILVER SPRING,MD,20901,ABW041,Off Premise,"LONG BRANCH BEER & WINE, INC.","649 UNIVERSITY BLVD
SILVER SPRING, MD 20901
(38.999885, -76.995524)",1,21,8,5,1
ANDY'S BEER AND WINE,15523 NEW HAMPSHIRE AVE,SILVER SPRING,MD,20905,ABW21694,Off Premise,"JS2Y, INC","15523 NEW HAMPSHIRE AVE
SILVER SPRING, MD 20905
(39.110833, -76.995814)",1,8,29,5,1
3 STAR CONVENIENCE STORE,18524 WOODFIELD ROAD,GAITHERSBURG,MD,20879,ABW194,Off Premise,"CPSS, INC.","18524 WOODFIELD ROAD
GAITHERSBURG, MD 20879
(39.160917, -77.159032)",1,31,36,4,1
WASHINGTONIAN CENTER MARRIOTT,9751 WASHINGTONIAN BLVD,GAITHERSBURG,MD,20878,BBWLHM011,On Premise,MARRIOTT CORPORATION,"9751 WASHINGTONIAN BLVD
GAITHERSBURG, MD 20878
(39.113913, -77.195458)",1,33,36,3,21
SEOULFOOD DC,7302 CARROLL AVE,TAKOMA PARK,MD,20912,BBWHR33500,On/Off-Premise,"SEOULFOOD DC, LLC","7302 CARROLL AVE
TAKOMA PARK, MD 20912
(38.978041, -77.005987)",1,3062,4,5,11
CALIENTE RESTAURANT & BAR,2442 ENNALLS AVE,SILVER SPRING,MD,20902,BBWLHR763,On Premise,"CALIENTE RESTAURANT & BAR, COR","2442 ENNALLS AVE
SILVER SPRING, MD 20902
(39.040255, -77.05253)",1,17,16,4,1
CONGRESS RESTAURANT AND LOUNGE,6834 NEW HAMPSHIRE AVE,TAKOMA PARK,MD,20912,BBWLHR573,On Premise,"CONGRESS RESTAURANT & LOUNGE,LLC","6834 NEW HAMPSHIRE AVE
TAKOMA PARK, MD 20912
(38.974251, -76.995484)",1,3062,4,5,1
EVALASH AND NAIL LOUNGE,10225A OLD GEORGETOWN ROAD,BETHESDA,MD,20814,SBSBW18692,On Premise,EVALASH AND NAIL LOUNGE,"10225A OLD GEORGETOWN ROAD
BETHESDA, MD 20814
(39.022915, -77.123804)",1,111,12,1,1
ATU TRAINING & EDUCATION CENTER,10000 NEW HAMPSHIRE AVENUE,SILVER SPRING,MD,20903,BBWLCT26487,On Premise,"ATU TRAINING & EDUCATION CEN, INC","10000 NEW HAMPSHIRE AVENUE
SILVER SPRING, MD 20903
(39.0222, -76.977536)",1,15,18,5,1
MASA HIBACHI STEAKHOUSE & SUSHI,"921 ELLSWORTH DRIVE, UNIT J",SILVER SPRING,MD,20910,BBWLHR705,On Premise,JE DING COROPORATION,"921 ELLSWORTH DRIVE, UNIT J
SILVER SPRING, MD 20910
(38.995973, -77.02637)",1,3065,7,5,1
BENIHANA OF TOKYO,7935 WISCONSIN AVE,BETHESDA,MD,20814,BBWLHR040,On Premise,BENIHANA BETHESDA CORPORATION,"7935 WISCONSIN AVE
BETHESDA, MD 20814
(38.990335, -77.095422)",1,111,12,1,1
HOLIDAY INN EXPRESS & SUITES,20260 GOLDENROD LANE,GERMANTOWN,MD,20876,BBWLHM219,On Premise,"GERMANTOWN HOSPITALITY, LLC","20260 GOLDENROD LANE
GERMANTOWN, MD 20876
(39.186833, -77.251449)",1,36,39,2,1
QUICK STOP BEER & WINE,"21101 FREDERICK ROAD, UNIT A",GERMANTOWN,MD,20876,ABWS267,Off Premise,"LEW LIQUORS, LLC.","21101 FREDERICK ROAD, UNIT A
GERMANTOWN, MD 20876
(39.203737, -77.245727)",1,36,39,2,1
"POOLESVILLE BEER, WINE & DELI",19716 FISHER AVE,POOLESVILLE,MD,20837,ABW188,Off Premise,"JOANIE, INC.","19716 FISHER AVE
POOLESVILLE, MD 20837
(39.144975, -77.412785)",1,97,34,1,16
DOWNTOWN CROWN WINE & BEER,303 COPLEY PLACE,GAITHERSBURG,MD,20878,DBW155,On/Off-Premise,"CROWN BEER & WINE, LLC.","303 COPLEY PLACE
GAITHERSBURG, MD 20878
(39.115162, -77.206535)",1,71,25,3,21
CHARM THAI RESTAURANT,"8408 GEORGIA AVE, UNIT A",SILVER SPRING,MD,20910,HBW291,On Premise,"DEEWANDEEKERN, INC.","8408 GEORGIA AVE, UNIT A
SILVER SPRING, MD 20910
(38.99381, -77.026791)",1,3065,7,5,1
GALLERY MARKET & CAFE,11710 OLD GEORGETOWN ROAD,ROCKVILLE,MD,20852,ABW26094,Off Premise,"HARVEY CROP, INC.","11710 OLD GEORGETOWN ROAD
ROCKVILLE, MD 20852
(39.04977, -77.113244)",1,60,19,1,1
HWA GAE JANG TUH,2104 VEIRS MILL RD,ROCKVILLE,MD,20851,BBWLHR37315,On Premise,"QGS, INC.","2104 VEIRS MILL RD
ROCKVILLE, MD 20851
(39.075036, -77.115608)",1,68,25,3,12
SARDI'S TAPHOUSE,3418 OLNEY-LAYTONSVILLE ROAD,OLNEY,MD,20832,BBWLHR21342,On Premise,"SARDIS FUSION, INC","3418 OLNEY-LAYTONSVILLE ROAD
OLNEY, MD 20832
(39.15369, -77.068)",1,100,58,4,1
LA LIMENA GRILL,1093 ROCKVILLE PIKE,ROCKVILLE,MD,20852,BBWLHR26364,On Premise,"DUIVI, INC","1093 ROCKVILLE PIKE
ROCKVILLE, MD 20852
(39.070736, -77.131954)",1,60,25,3,12
WILLIAMS BEER & WINE,15440 OLD COLUMBIA PIKE,BURTONSVILLE,MD,20866,DBW27325,On/Off-Premise,"SONI AND SONS, LLC","15440 OLD COLUMBIA PIKE
BURTONSVILLE, MD 20866
(39.109307, -76.935328)",1,47,30,5,1
THAI HOUSE RESTAURANT,8369 SNOUFFER SCHOOL ROAD,GAITHERSBURG,MD,20879,DBW135,On/Off-Premise,"AEY, INC.","8369 SNOUFFER SCHOOL ROAD
GAITHERSBURG, MD 20879
(39.166707, -77.171498)",1,31,36,4,1
SALA THAI BETHESDA,4828 CORDELL AVE,BETHESDA,MD,20814,BBWLHR178,On Premise,"JA-ROEN-D, INC.","4828 CORDELL AVE
BETHESDA, MD 20814
(38.990584, -77.096926)",1,111,12,1,1
TOMMY JOE'S BAR & GRILL,7940 NORFOLK AVENUE,BETHESDA,MD,20814,BBWLHR19871,On Premise,SOCIAL HEIGHTS RESTAURANT LLC,"7940 NORFOLK AVENUE
BETHESDA, MD 20814
(38.989331, -77.09795)",1,111,12,1,1
PUENTE DE ORO RESTAURANT,11123 VEIRS MILL ROAD,SILVER SPRING,MD,20902,BBWLHR24387,On Premise,"CASTRO & CEDILLOS, INC","11123 VEIRS MILL ROAD
SILVER SPRING, MD 20902
(39.038035, -77.052285)",1,17,16,4,1
FINE WINE OF WHEATON,11211 GEORGIA AVENUE,WHEATON,MD,20902,ABW273,Off Premise,"MJ HOLDINGS, INC","11211 GEORGIA AVENUE
WHEATON, MD 20902
(39.038862, -77.050876)",1,17,16,4,1
LA CASA DEL MOFONGO,"9441 GEORGIA AVE, # 4",SILVER SPRING,MD,20910,BBWLHR786,On Premise,"LA CASA DEL MOFONGO, LLC.","9441 GEORGIA AVE, # 4
SILVER SPRING, MD 20910
(39.009456, -77.040524)",1,3065,7,5,1
VERIDIAN MARKET AND WINE,8010 BLAIR MILL WAY,SILVER SPRING,MD,20910,ABWS26668,Off Premise,"MCH VERIDIAN, INC","8010 BLAIR MILL WAY
SILVER SPRING, MD 20910
(38.989158, -77.027521)",1,3065,7,5,1
CHERCHER ETHIOPIAN CUISINE,4921 BETHESDA AVENUE,BETHESDA,MD,20814,BBWLHR34720,On Premise,"CHERO,LLC","4921 BETHESDA AVENUE
BETHESDA, MD 20814
(38.980808, -77.099271)",1,111,12,1,1
COURTYARD BY MARRIOTT - PROSPERITY,12521 PROSPERITY DRIVE,SILVER SPRING,MD,20904,BBWLHM214,On Premise,COURTYARD II ASSOCIATES LIMITE,"12521 PROSPERITY DRIVE
SILVER SPRING, MD 20904
(39.061558, -76.960778)",1,12,21,5,1
CHIPOTLE MEXICAN GRILL- CC,4471 WILLARD AVE,CHEVY CHASE,MD,20815,BBWLHR540,On Premise,CHIPOTLE MEXICAN GRILL OF MARY,"4471 WILLARD AVE
CHEVY CHASE, MD 20815
(38.962047, -77.088572)",1,110,5,1,1
THE KOSHER PASTRY OVEN,1372 LAMBERTON DRIVE,SILVER SPRING,MD,20902,HBW216,On Premise,"KOSHER PASTRY OVEN, INC.","1372 LAMBERTON DRIVE
SILVER SPRING, MD 20902
(39.040986, -77.02961)",1,17,16,4,1
EL ENCANTO,"8035 SNOUFFER SCHOOL ROAD, #1",GAITHERSBURG,MD,20879,HBW19272,On Premise,"EL ENCANTO, INC.","8035 SNOUFFER SCHOOL ROAD, #1
GAITHERSBURG, MD 20879
(39.160802, -77.163068)",1,31,36,4,1
DERWOOD BEER & WINE,17601 REDLAND ROAD,DERWOOD,MD,20855,DBW133,On/Off-Premise,"SUBH LAXMI, INC.","17601 REDLAND ROAD
DERWOOD, MD 20855
(39.143988, -77.144663)",1,51,36,3,1
NEWS EXPRESS,4853 CORDELL AVE,BETHESDA,MD,20814,ABW262,Off Premise,NEWS EXPRESS,"4853 CORDELL AVE
BETHESDA, MD 20814
(38.990263, -77.097239)",1,111,12,1,1
AFRICAN PALACE,117 N. FREDERICK AVENUE,GAITHERSBURG,MD,20877,DBWL21494,On Premise,"AFRICAN PALACE, LLC","117 N. FREDERICK AVENUE
GAITHERSBURG, MD 20877
(39.143238, -77.200651)",1,35,36,3,21
"STEVES BEER, WINE & DELI",12132 DARNESTOWN ROAD,GAITHERSBURG,MD,20878,DBW043,On/Off-Premise,MANHO CORPORATION,"12132 DARNESTOWN ROAD
GAITHERSBURG, MD 20878
(39.117525, -77.251935)",1,33,36,2,1
THE OLNEY GRILLE,3464 OLNEY-LAYTONSVILLE ROAD,OLNEY,MD,20832,BBWLHR31000,On Premise,"OLNEY GRILLE, INC.","3464 OLNEY-LAYTONSVILLE ROAD
OLNEY, MD 20832
(39.154307, -77.069012)",1,100,58,4,1
SUMMER HOUSE,11825 GRANDPARK AVENUE,ROCKVILLE,MD,20852,BBWLHR873,On Premise,"ROCKVILLE RESTAURANT,LLC","11825 GRANDPARK AVENUE
ROCKVILLE, MD 20852
(39.049854, -77.1172)",1,60,19,1,1
PANSA LLENA,"11279 NEW HAMPSHIRE AVE, UNIT A",SILVER SPRING,MD,20904,BBWLHR473,On Premise,"RED GROUP, INC.","11279 NEW HAMPSHIRE AVE, UNIT A
SILVER SPRING, MD 20904
(39.040355, -76.990809)",1,12,18,5,1
OLNEY THEATRE CENTER,2001 OLNEY-SANDY SPRING ROAD,OLNEY,MD,20832,SBWLCPA003,On Premise,OLNEY THEATRE CENTER FOR THE A,"2001 OLNEY-SANDY SPRING ROAD
OLNEY, MD 20832
(39.144409, -77.046139)",1,100,58,4,1
GESTE FOODS & WINE,4801 EDGEMOOR LANE,BETHESDA,MD,20814,ABWS268,Off Premise,"GESTE FOODS AND WINES, LLC","4801 EDGEMOOR LANE
BETHESDA, MD 20814
(38.984828, -77.095804)",1,111,12,1,1
PROGRESSION SALON SPA STORE,12211 NEBEL ST,ROCKVILLE,MD,20852,SBSBW30595,On Premise,IAL INC DBA PRORESSIONS,"12211 NEBEL ST
ROCKVILLE, MD 20852
(39.052242, -77.110437)",1,60,19,1,1
BLACK ROCK CENTER FOR THE ARTS,12901 TOWN COMMONS DRIVE,GERMANTOWN,MD,20874,SBWLCPA21286,On Premise,"GERMANTOWN CULT. ARTS CTR, INC.","12901 TOWN COMMONS DRIVE
GERMANTOWN, MD 20874
(39.181015, -77.267135)",1,39,39,2,1
PACCI'S TRATTORIA,6 POST OFFICE ROAD,SILVER SPRING,MD,20910,BBWLHR680,On Premise,"PACCI'S TRATTORIA, LLC","6 POST OFFICE ROAD
SILVER SPRING, MD 20910
(39.015049, -77.055406)",1,3065,10,5,1
DOLLAR PLUS STORE,11250 TRIANGLE LANE,SILVER SPRING,MD,20902,ABW27734,Off Premise,"DOLLAR PLUS STORE #7, LLC","11250 TRIANGLE LANE
SILVER SPRING, MD 20902
(39.039763, -77.051936)",1,17,16,4,1
TRATTORIA DA LINA,7000 CARROLL AVENUE,TAKOMA PARK,MD,20912,BBWLHR24865,On Premise,"MINNA, LLC","7000 CARROLL AVENUE
TAKOMA PARK, MD 20912
(38.974655, -77.012363)",1,3062,4,5,11
TEMARI CAFE,1043 ROCKVILLE PIKE,ROCKVILLE,MD,20852,HBW139,On Premise,"NAKA, INC.","1043 ROCKVILLE PIKE
ROCKVILLE, MD 20852
(39.071219, -77.132434)",1,60,25,3,12
SILVER DINER - ROCKVILLE,12276 ROCKVILLE PIKE,ROCKVILLE,MD,20852,BBWLHR614,On Premise,"SILVER DINER ROCKVILLE, LLC","12276 ROCKVILLE PIKE
ROCKVILLE, MD 20852
(39.058356, -77.121084)",1,60,25,3,12
ARTS ON THE GREEN,311 KENT SQUARE ROAD,GAITHERSBURG,MD,20878,STBW1072567,On Premise,CITY OF GAITHERSBURG,"311 KENT SQUARE ROAD
GAITHERSBURG, MD 20878
(39.118633, -77.239167)",1,33,36,3,21
BUCA DI BEPPO,122 KENTLANDS BLVD.,GAITHERSBURG,MD,20878,BBWLHR076,On Premise,"BUCA RESTAURANTS, INC.","122 KENTLANDS BLVD.
GAITHERSBURG, MD 20878
(39.123203, -77.232586)",1,33,36,3,21
LEDO PIZZA - MONTGOMERY VILLAGE,19200 MONTGOMERY VILLAGE AVE,MONTGOMERY VILLAGE,MD,20886,HBWHR1050733,On Premise,"MHI HOTEL SERVICES, LLC","19200 MONTGOMERY VILLAGE AVE
MONTGOMERY VILLAGE, MD 20886
(39.172113, -77.203826)",1,28,38,2,1
INDIA PALACE BAR & TANDOOR,19743 FREDERICK ROAD,GERMANTOWN,MD,20876,BBWLHR380,On Premise,SIMRAN INC,"19743 FREDERICK ROAD
GERMANTOWN, MD 20876
(39.179908, -77.238353)",1,36,39,2,1
ASADUR'S MARKET,5536 RANDOLPH RD.,ROCKVILLE,MD,20852,ABW41082,Off Premise,"MEHRANIAN, LLC","5536 RANDOLPH RD.
ROCKVILLE, MD 20852
(39.053298, -77.112104)",1,60,19,1,1
CALIFORNIA PIZZA KITCHEN - GAITH,136 BOARDWALK PLACE,GAITHERSBURG,MD,20878,BBWLHR674,On Premise,"CALIFORNIA PIZZA KITCHEN, INC","136 BOARDWALK PLACE
GAITHERSBURG, MD 20878
(39.1135, -77.1925)",1,33,36,3,21
ZENE'S DELI & WORLDMARKET,8113 A FENTON ST,SILVER SPRING,MD,20910,BDBWLHR24574,On/Off-Premise,"SOLIYANA, LLC","8113 A FENTON ST
SILVER SPRING, MD 20910
(38.99109, -77.024006)",1,3065,7,5,1
SHALOM STRICTLY KOSHER MEATS,1361 LAMBERTON DRIVE,SILVER SPRING,MD,20902,ABWS103,Off Premise,"SHALOM STRICTLY KOSHER MEATS,","1361 LAMBERTON DRIVE
SILVER SPRING, MD 20902
(39.040915, -77.029782)",1,17,16,4,1
TOURNAMENT PLAYERS CLUB AT AVENEL,10000 OAKLYN DRIVE,POTOMAC,MD,20854,CBWLCC018,On Premise,"TOURNAMENT PLAYERS AT AVENEL,","10000 OAKLYN DRIVE
POTOMAC, MD 20854
(38.992688, -77.195244)",1,53,20,1,1
EL GOLFO RESTAURANT,8739 FLOWER AVE,SILVER SPRING,MD,20901,BBWLHR215,On Premise,"EL MEZCAL RESTAURANT, INC.","8739 FLOWER AVE
SILVER SPRING, MD 20901
(38.998801, -77.003732)",1,21,8,5,1
PICCA POLLO A LA BRASA,13000 MIDDLEBROOK ROAD,GERMANTOWN,MD,20874,BBWLHR854,On Premise,"PICCA CHICKEN, INC","13000 MIDDLEBROOK ROAD
GERMANTOWN, MD 20874
(39.181895, -77.270103)",1,39,39,2,1
OM INDIAN RESTAURANT,"785 ROCKVILLE PIKE, UNIT K",ROCKVILLE,MD,20852,HBW220,On Premise,"JACREAS ENTERPRISES, INC","785 ROCKVILLE PIKE, UNIT K
ROCKVILLE, MD 20852
(39.077237, -77.139804)",1,60,25,3,12
TIJUANA MEXICAN CAFE - S.S.,949 EAST UNIVERSITY BLVD,SILVER SPRING,MD,20912,BBWLHR486,On Premise,"TIJUANA TAKOMA, INC.","949 EAST UNIVERSITY BLVD
SILVER SPRING, MD 20912
(38.992908, -76.991807)",1,15,4,5,11
PORT AU PRINCE,7912 GEORGIA AVENUE,SILVER SPRING,MD,20910,BBWLHR33952,On Premise,"DON BERTO'S KITCHEN, LLC","7912 GEORGIA AVENUE
SILVER SPRING, MD 20910
(38.98546, -77.026633)",1,3065,7,5,1
AY! JALISCO II,425 S. FREDERICK AVE,GAITHERSBURG,MD,20878,BBWLHR169,On Premise,"ABI III, CORP.","425 S. FREDERICK AVE
GAITHERSBURG, MD 20878
(39.135791, -77.192002)",1,35,36,3,21
BISTRO PROVENCE,4933 FAIRMONT AVE,BETHESDA,MD,20814,BBWLHR584,On Premise,"BISTRO PROVENCE, LLC","4933 FAIRMONT AVE
BETHESDA, MD 20814
(38.987612, -77.097455)",1,111,12,1,1
POTOMAC BEER & WINE,9700 TRAVILLE GATEWAY DR.,ROCKVILLE,MD,20850,ABW055,Off Premise,"JINHYE, INC.","9700 TRAVILLE GATEWAY DR.
ROCKVILLE, MD 20850
(39.09113, -77.204436)",1,71,24,3,1
WOODMONT COUNTRY CLUB,1201 ROCKVILLE PIKE,ROCKVILLE,MD,20852,CBWLCC002,On Premise,R.SHARLIN T.GORDON A.KASLOW,"1201 ROCKVILLE PIKE
ROCKVILLE, MD 20852
(39.070985, -77.132191)",1,60,25,3,12
FRESH GREEK GRILL,25 UNIVERSITY BLVD,SILVER SPRING,MD,20901,DBW149,On/Off-Premise,FRESH GREEK GRILL,"25 UNIVERSITY BLVD
SILVER SPRING, MD 20901
(39.019382, -77.012575)",1,21,13,5,1
SAKURA JAPANESE STEAK & SEAFOOD,11502 MIDDLEBROOK ROAD,GERMANTOWN,MD,20876,BBWLHR116,On Premise,GERMANTOWN SAKURA INC,"11502 MIDDLEBROOK ROAD
GERMANTOWN, MD 20876
(39.180418, -77.23938)",1,36,39,2,1
WHITE OAK BOWLING LANES,11207 NEW HAMPSHIRE AVE,SILVER SPRING,MD,20904,HBWHR35355,On Premise,"WHITE OAK BOWL, LLC","11207 NEW HAMPSHIRE AVE
SILVER SPRING, MD 20904
(39.040264, -76.990768)",1,12,18,5,1
TAIPEI TOKYO-ROCKVILLE PIKE,11510-A ROCKVILLE PIKE,ROCKVILLE,MD,20852,HBWHR27324,On Premise,"YENG XING INTERNATIONAL, INC","11510-A ROCKVILLE PIKE
ROCKVILLE, MD 20852
(39.045006, -77.111963)",1,60,19,1,1
JINYA RAMEN BAR,910 PROSE STREET,ROCKVILLE,MD,20852,BBWLHR35339,On Premise,"RAMEN PR, LLC","910 PROSE STREET
ROCKVILLE, MD 20852",,,,,
SHERATON ROCKVILLE HOTEL,920 KING FARM BLVD,ROCKVILLE,MD,20850,BBWLHM024,On Premise,"GRAND PRIX ROCKVILLE, LLC","920 KING FARM BLVD
ROCKVILLE, MD 20850
(39.110322, -77.182703)",1,71,25,3,12
BETHESDA BLUES & JAZZ,7719 WISCONSIN AVE,BETHESDA,MD,20814,BBWLHR765,On Premise,"BETHESDA BLUES & JAZZ, LLC","7719 WISCONSIN AVE
BETHESDA, MD 20814
(38.9871, -77.094717)",1,111,12,1,1
BURNING TREE CLUB,8600 BURDETTE ROAD,BETHESDA,MD,20817,CBWLCC007,On Premise,"BURNING TREE CLUB, INC.","8600 BURDETTE ROAD
BETHESDA, MD 20817
(38.998472, -77.146387)",1,103,12,1,1
GOLF ULTRA LOUNGE,8123 GEORGIA AVE,SILVER SPRING,MD,20910,BBWLHR21250,On Premise,MXM LLC,"8123 GEORGIA AVE
SILVER SPRING, MD 20910
(38.99118, -77.026411)",1,3065,7,5,1
MONTEREY MART & CAFE,5901 MONTROSE ROAD,ROCKVILLE,MD,20852,DBW34934,On/Off-Premise,"UK STORES, LLC","5901 MONTROSE ROAD
ROCKVILLE, MD 20852
(39.052973, -77.1192)",1,60,19,3,1
GRINGOS & MARIACHIS,4928 CORDELL AVENUE,BETHESDA,MD,20814,BBWLHR815,On Premise,"G & M GROUP, INC","4928 CORDELL AVENUE
BETHESDA, MD 20814
(38.988611, -77.09886)",1,111,12,1,1
PEPINO'S,15721 COLUMBIA PIKE,BURTONSVILLE,MD,20866,HBW187,On Premise,PEPINO'S KITCHEN,"15721 COLUMBIA PIKE
BURTONSVILLE, MD 20866
(39.113643, -76.932821)",1,47,30,5,1
ACAJUTLA RESTAURANT,18554 WOODFIELD ROAD,GAITHERSBURG,MD,20879,BBWLHR293,On Premise,"ARCOR, INC.","18554 WOODFIELD ROAD
GAITHERSBURG, MD 20879
(39.161136, -77.158907)",1,31,36,4,1
LOCK 72 KITCHEN & BAR,10128 RIVER ROAD,POTOMAC,MD,20854,BBWLHR22787,On Premise,"POTOMAC FALLS TAVERN, LLC","10128 RIVER ROAD
POTOMAC, MD 20854
(39.01758, -77.2084)",1,53,20,1,1
MCGINTY'S PUBLIC HOUSE AND REST.,911 ELLSWORTH DRIVE,SILVER SPRING,MD,20910,BBWLHR362,On Premise,"WOLFISH, LLC,","911 ELLSWORTH DRIVE
SILVER SPRING, MD 20910
(38.996521, -77.025765)",1,3065,7,5,1
LONGHORN STEAKHOUSE,20017 CENTURY BLVD,GERMANTOWN,MD,20874,BBWLHR059,On Premise,RARE BEVERAGES OF MD INC,"20017 CENTURY BLVD
GERMANTOWN, MD 20874
(39.184367, -77.259991)",1,39,39,2,1
AY! JALISCO,8401 SNOUFFER SCHOOL ROAD,GAITHERSBURG,MD,20879,BBWLHR187,On Premise,"ABI II, INC.","8401 SNOUFFER SCHOOL ROAD
GAITHERSBURG, MD 20879
(39.167023, -77.172313)",1,31,36,4,1
DOWNTOWN BEER AND WINE 3,70 UPPER ROCK CIR,ROCKVILLE,MD,20850,DBW22817,On/Off-Premise,DOWNTOWN BEER & WINE 3 CORP,"70 UPPER ROCK CIR
ROCKVILLE, MD 20850
(39.104, -77.157)",1,71,25,3,12
LAKEWOOD COUNTRY CLUB,13901 GLEN MILL ROAD,ROCKVILLE,MD,20850,CBWLCC015,On Premise,LAKEWOOD COUNTRY CLUB INC,"13901 GLEN MILL ROAD
ROCKVILLE, MD 20850
(39.08438, -77.197761)",1,71,25,3,12
TARA THAI- MONTGOMERY MALL,7101 DEMOCRACY BLVD.,BETHESDA,MD,20817,BBWLHR21714,On Premise,"NORTH ASIATIC, INC","7101 DEMOCRACY BLVD.
BETHESDA, MD 20817
(39.0242, -77.1459)",1,103,19,1,1
BLUE MASH GOLF COURSE,5821 OLNEY LAYTONSVILLE ROAD,GAITHERSBURG,MD,20882,BBWLHR650,On Premise,"BLUE MASH GOLF COURSE, LLC","5821 OLNEY LAYTONSVILLE ROAD
GAITHERSBURG, MD 20882
(39.186536, -77.117801)",1,29,46,4,1
WASABI ZEN,18066 GEORGIA AVE,OLNEY,MD,20832,HBW121,On Premise,"WASABI ZEN JAPANESE CUIS., INC","18066 GEORGIA AVE
OLNEY, MD 20832
(39.15223, -77.066885)",1,100,58,4,1
WESTERN MARKET,4840 WESTERN AVE,BETHESDA,MD,20816,ABW018,Off Premise,WESTERN MARKET INC.,"4840 WESTERN AVE
BETHESDA, MD 20816
(38.952525, -77.096295)",,930,,,
GRILLMARX STEAKHOUSE & RAW BAR,12011 SNOWDEN FARM PARKWAY,CLARKSBURG,MD,20871,BBWLHR829,On Premise,"GRILLMARX CB, LLC","12011 SNOWDEN FARM PARKWAY
CLARKSBURG, MD 20871
(39.228519, -77.250549)",1,36,50,2,1
HILTON GARDEN INN & HOMEWOOD SUITES,14975 SHADY GROVE ROAD,ROCKVILLE,MD,20850,BBWLHM021,On Premise,"FALLSGROVE HOTEL ASSOCIATES, L","14975 SHADY GROVE ROAD
ROCKVILLE, MD 20850
(39.100259, -77.192039)",1,71,25,3,1
BETHESDA ROW CAFE,7235 WOODMONT AVE.,BETHESDA,MD,20814,BBWLHR41999,On Premise,"CINEMA BEVERAGES HOLDING COMPANY, LLC","7235 WOODMONT AVE.
BETHESDA, MD 20814
(38.981347, -77.095616)",1,111,12,1,1
HILLANDALE BEER & WINE,10117 NEW HAMPSHIRE AVE,SILVER SPRING,MD,20903,ABW183,Off Premise,SATH INC.,"10117 NEW HAMPSHIRE AVE
SILVER SPRING, MD 20903
(39.020779, -76.976697)",1,15,18,5,1
IXTAPALAPA TAQUERIA,411 N. FREDERICK AVENUE,GAITHERSBURG,MD,20877,BBWLHR29498,On Premise,IXTAPALAPA LLC,"411 N. FREDERICK AVENUE
GAITHERSBURG, MD 20877
(39.146346, -77.204515)",1,35,36,3,21
DOMINIC'S ITALIAN GRILLE,12854 NEW HAMPSHIRE AVE,SILVER SPRING,MD,20904,BBWLHR804,On Premise,"PATRON ENTERPRISES, LLC","12854 NEW HAMPSHIRE AVE
SILVER SPRING, MD 20904
(39.066313, -77.000976)",1,12,26,4,1
RENATO'S @ RIVER FALLS,10120 RIVER ROAD,POTOMAC,MD,20854,BBWLHR1051306,On Premise,POTOMAC RESTAURANT GROUP,"10120 RIVER ROAD
POTOMAC, MD 20854
(39.017549, -77.208351)",1,53,20,1,1
CHIPOTLE MEXICAN GRILL - OLNEY,3333 OLNEY SANDY SPRING ROAD,OLNEY,MD,20832,BBWLHR316,On Premise,CHIPOTLE MEXICAN GRILL OF MD L,"3333 OLNEY SANDY SPRING ROAD
OLNEY, MD 20832
(39.152916, -77.066166)",1,100,58,4,1
LA MEXICANA - GAITHERSBURG,16143 SHADY GROVE ROAD,GAITHERSBURG,MD,20877,BBWLHR828,On Premise,LA MEXICANA INC.,"16143 SHADY GROVE ROAD
GAITHERSBURG, MD 20877
(39.120909, -77.179379)",1,35,36,3,1
CABIN JOHN MEMORIAL VFW POST 5633,11511 MACARTHUR BLVD.,POTOMAC,MD,20854,CBWLC002,On Premise,CABIN JOHN MEMORIAL VFW 5633,"11511 MACARTHUR BLVD.
POTOMAC, MD 20854
(38.995705, -77.237607)",1,53,20,1,1
RUTH'S CHRIS STEAK HOUSE - G/BURG,106 CROWN PARK AVENUE,GAITHERSBURG,MD,20878,BBWLHR857,On Premise,"RCSH OPERATIONS, LLC","106 CROWN PARK AVENUE
GAITHERSBURG, MD 20878
(39.115062, -77.206553)",1,71,25,3,21
KABUTO,1 CHOICE HOTEL CIRCLE,ROCKVILLE,MD,20850,BBWLHR37806,On Premise,"KABU ROCKVILLE, INC.","1 CHOICE HOTEL CIRCLE
ROCKVILLE, MD 20850
(39.08583, -77.149099)",1,71,25,3,12
RESIDENCE INN - BETHESDA,7335 WISCONSIN AVE,BETHESDA,MD,20814,BBWLHR735,On Premise,"RLJ R BETHESDA LESSEE, LLC","7335 WISCONSIN AVE
BETHESDA, MD 20814
(38.982773, -77.09337)",1,111,12,1,1
WESTLAKE BEER & WINE,10442 AUTO PARK AVE,BETHESDA,MD,20817,ABW263,Off Premise,A-ONE GROUPS LTD,"10442 AUTO PARK AVE
BETHESDA, MD 20817
(39.027346, -77.145463)",1,103,19,1,1
MAMMA LUCIA - BETHESDA,4916 ELM STREET,BETHESDA,MD,20814,BBWLHR385,On Premise,"MAMMA LUCIA OF BETHESDA, INC.","4916 ELM STREET
BETHESDA, MD 20814
(38.98212, -77.096926)",1,111,12,1,1
FINNEGAN'S WAKE IRISH PUB,100-F GIBBS STREET,ROCKVILLE,MD,20850,BBWLHR21337,On Premise,"FINNEGAN'S WAKE IRISH PUB,LLC","100-F GIBBS STREET
ROCKVILLE, MD 20850
(39.085101, -77.151945)",1,71,25,3,12
BEDFORD COURT,3701 INTERNATIONAL DRIVE,SILVER SPRING,MD,20906,CBWLRC003,On Premise,"WELLTOWER CCRC OPCO, LLC","3701 INTERNATIONAL DRIVE
SILVER SPRING, MD 20906
(39.103627, -77.074602)",1,6,62,3,1
LEDO'S LEISURE WORLD,3850 INTERNATIONAL DRIVE,SILVER SPRING,MD,20906,HBWHR27710,On Premise,"MHI HOTELS SERVICES, LLC","3850 INTERNATIONAL DRIVE
SILVER SPRING, MD 20906
(39.103709, -77.07598)",1,6,62,3,1
LA FERME,7101 BROOKVILLE ROAD,CHEVY CHASE,MD,20815,BBWLHR228,On Premise,LA FERME INCORPORATED,"7101 BROOKVILLE ROAD
CHEVY CHASE, MD 20815
(38.981284, -77.071491)",1,110,5,1,15
KOI ASIAN CUISINE,12046 CHERRY HILL RD,SILVER SPRING,MD,20904,BBWLHR21737,On Premise,"Jasmine Garden, LLC","12046 CHERRY HILL RD
SILVER SPRING, MD 20904
(39.054247, -76.953598)",1,12,21,5,1
PACIFICA CAFE,621 CENTER POINT WAY,GAITHERSBURG,MD,20878,HBW070,On Premise,"TASTE OF HONG KONG,INC.","621 CENTER POINT WAY
GAITHERSBURG, MD 20878
(39.121874, -77.233884)",1,33,36,3,21
EL AGUILA - GEORGIA AVENUE,7926 GEORGIA AVENUE,SILVER SPRING,MD,20910,BBWLHR840,On Premise,"JID, LLC","7926 GEORGIA AVENUE
SILVER SPRING, MD 20910
(38.985759, -77.026642)",1,3065,7,5,1
NOODLE KING RESTAURANT,12705 NEW HAMPSHIRE AVENUE,SILVER SPRING,MD,20904,HBWHR34641,On Premise,"UNITED XU, INC.","12705 NEW HAMPSHIRE AVENUE
SILVER SPRING, MD 20904
(39.064414, -76.999489)",1,12,26,5,1
LANGANO ETHIOPIAN RESTAURANT,8305 GEORGIA AVE,SILVER SPRING,MD,20910,BBWLHR738,On Premise,LANGANO LLC,"8305 GEORGIA AVE
SILVER SPRING, MD 20910
(38.993139, -77.026576)",1,3065,7,5,1
THE 4 CORNER'S PUB,10111 SUTHERLAND ROAD,SILVER SPRING,MD,20901,BBWLHR745,On Premise,"HOSS & DOG, LLC","10111 SUTHERLAND ROAD
SILVER SPRING, MD 20901
(39.021228, -77.013257)",1,21,13,5,1
MAPLEWOOD PARK PLACE,9707 OLD GEORGETOWN ROAD,BETHESDA,MD,20814,CBWLRC002,On Premise,SUNRISE SENIOR LIVING SERVICES,"9707 OLD GEORGETOWN ROAD
BETHESDA, MD 20814
(39.014017, -77.117952)",1,111,12,1,1
CURRY PLACE,12951 WISTERIA DRIVE,GERMANTOWN,MD,20874,BBWHR124,On/Off-Premise,CURRY PLACE LLC,"12951 WISTERIA DRIVE
GERMANTOWN, MD 20874
(39.177252, -77.270668)",1,39,39,2,1
AIRPARK BEER AND WINE,"7601 AIRPARK ROAD, UNIT G",GAITHERSBURG,MD,20879,ABWS208,Off Premise,CRUNCHKIDS LLC,"7601 AIRPARK ROAD, UNIT G
GAITHERSBURG, MD 20879
(39.169732, -77.155114)",1,31,36,4,1
DON POLLO-GERMANTOWN,21040-A FREDERICK ROAD,GERMANTOWN,MD,20876,HBWHR35720,On Premise,"DON POLLO OF GERMANTOWN, LLC","21040-A FREDERICK ROAD
GERMANTOWN, MD 20876
(39.201134, -77.245509)",1,36,39,2,1
WILD TOMATO,"7945 MACARTHUR BLVD, #103",CABIN JOHN,MD,20818,BBWLHR631,On Premise,"CLEMENTINE CAFE, LLC","7945 MACARTHUR BLVD, #103
CABIN JOHN, MD 20818
(38.974709, -77.162774)",1,102,3,1,1
ELBE'S BEER AND WINE,"2522 UNIVERSITY BLVD, WEST",SILVER SPRING,MD,20902,DBW045,On/Off-Premise,"ELBE'S, INC.","2522 UNIVERSITY BLVD, WEST
SILVER SPRING, MD 20902
(39.041161, -77.05268)",1,17,16,4,1
MOM'S ORGANIC MARKET,5566 RANDOLPH ROAD,ROCKVILLE,MD,20852,ABWS037,Off Premise,"MOM'S ORGANIC MARKET,INC","5566 RANDOLPH ROAD
ROCKVILLE, MD 20852
(39.053265, -77.113062)",1,60,19,1,1
IRISH INN AT GLEN ECHO,6119 TULANE AVE,GLEN ECHO,MD,20812,BBWLHR101,On Premise,"BALLYMAHON, CORP.","6119 TULANE AVE
GLEN ECHO, MD 20812
(38.965169, -77.137015)",1,114,2,1,4
PLAZA AZTECA RESTAURANT,10430 AUTO PARK AVE,BETHESDA,MD,20817,BBWLHR527,On Premise,"CASA AZTECCA RESTAURANT, INC.","10430 AUTO PARK AVE
BETHESDA, MD 20817
(39.028191, -77.145488)",1,103,19,1,1
MAIN STREET BEER & WINE,300 MAIN STREET,GAITHERSBURG,MD,20878,ABW237,Off Premise,NONE,"300 MAIN STREET
GAITHERSBURG, MD 20878
(39.121984, -77.238627)",1,33,36,3,21
LA CASITA,2 E. DIAMOND AVE,GAITHERSBURG,MD,20877,BBWLHR25458,On Premise,"ARBAIZA FOOD GROUP, INC","2 E. DIAMOND AVE
GAITHERSBURG, MD 20877
(39.141713, -77.19864)",1,35,36,3,21
AMERICAN LEGION POST #41,905 SLIGO AVE,SILVER SPRING,MD,20910,CBWLFV012,On Premise,"CISSEL-SAXON POST #41, INC.","905 SLIGO AVE
SILVER SPRING, MD 20910
(38.990219, -77.02465)",1,3065,7,5,1
TACO BAR II,"10003 FIELDS ROAD, SUITE B",GAITHERSBURG,MD,20878,ABW003,Off Premise,"TACO BAR,LLC","10003 FIELDS ROAD, SUITE B
GAITHERSBURG, MD 20878
(39.116298, -77.20662)",1,33,36,3,21
WHEATON WINERY,"2211 UNIVERSITY BLVD, WEST, UNIT B",SILVER SPRING,MD,20902,ABW139,Off Premise,JOHNNY & PRUM INC.,"2211 UNIVERSITY BLVD, WEST, UNIT B
SILVER SPRING, MD 20902
(39.041564, -77.049166)",1,17,16,4,1
MARUICHI,1047 ROCKVILLE PIKE,ROCKVILLE,MD,20852,DBW053,On/Off-Premise,MARUICHI INC.,"1047 ROCKVILLE PIKE
ROCKVILLE, MD 20852
(39.070975, -77.132181)",1,60,25,3,12
THE CAPITAL GRILLE,"5310 WESTERN AVE, SUITE A",CHEVY CHASE,MD,20815,BBWLHR557,On Premise,"GMR MONTGOMERY COUNTY, INC.","5310 WESTERN AVE, SUITE A
CHEVY CHASE, MD 20815
(38.95995, -77.086781)",,978,,,
DEMPSEYS OF ASHTON,1 OLNEY SANDY SPRING ROAD,ASHTON,MD,20861,BBWLHR731,On Premise,IRM SLONIN INC MICHAEL SLONIN,"1 OLNEY SANDY SPRING ROAD
ASHTON, MD 20861
(39.14934, -77.012359)",1,49,35,4,1
NEW FORTUNE RESTAURANT,16515 SOUTH FREDERICK AVE,GAITHERSBURG,MD,20877,BBWLHR162,On Premise,"NEW FORTUNE , INC.","16515 SOUTH FREDERICK AVE
GAITHERSBURG, MD 20877
(39.126472, -77.183367)",1,35,36,3,21
EL ESTERON RESTAURANT,8500 DAKOTA DRIVE,GAITHERSBURG,MD,20877,DBW134,On/Off-Premise,"EL ESTERON RESTAURANT, INC.","8500 DAKOTA DRIVE
GAITHERSBURG, MD 20877
(39.127046, -77.176127)",1,35,36,3,1
GRINGOS & MARIACHIS RESTAURANT,12435 PARK POTOMAC AVENUE,POTOMAC,MD,20854,BBWLHR28338,On Premise,"POTOMAC GRINGOS, LLC","12435 PARK POTOMAC AVENUE
POTOMAC, MD 20854
(39.059527, -77.157576)",1,53,20,3,1
PHOLUSCIOUS,10048 DARNESTOWN ROAD,ROCKVILLE,MD,20850,HBW318,On Premise,"HAPPY HUB, INC.","10048 DARNESTOWN ROAD
ROCKVILLE, MD 20850
(39.096992, -77.20692)",1,71,25,3,1
IKKO SUSHI,1215 EAST-WEST HIGHWAY,SILVER SPRING,MD,20910,DBW124,On/Off-Premise,"POMEGRANATE, INC.","1215 EAST-WEST HIGHWAY
SILVER SPRING, MD 20910
(38.990346, -77.029301)",1,3065,7,5,1
KAYPI RESTAURANT,2005 VEIRS MILL ROAD,ROCKVILLE,MD,20851,BBWLHR22684,On Premise,"KAYPI RESTAURANT, LLC","2005 VEIRS MILL ROAD
ROCKVILLE, MD 20851
(39.075307, -77.116859)",1,68,25,3,12
EN BISTRO AND SUSHI,9945 FALLS ROAD,POTOMAC,MD,20854,BBWHR18910,On/Off-Premise,EN BISTRO POTOMAC LLC,"9945 FALLS ROAD
POTOMAC, MD 20854
(39.018513, -77.208723)",1,53,20,1,1
MIDDLE EAST CUISINE,7006 CARROLL AVE,TAKOMA PARK,MD,20912,BBWLHR041,On Premise,"3H BROTHERS, INC.","7006 CARROLL AVE
TAKOMA PARK, MD 20912
(38.974847, -77.01194)",1,3062,4,5,11
MYKONOS GRILL,121 CONGRESSIONAL LANE,ROCKVILLE,MD,20852,BBWLHR210,On Premise,"HANE RESTAURANT, INC.","121 CONGRESSIONAL LANE
ROCKVILLE, MD 20852
(39.063307, -77.127716)",1,60,25,3,12
RAINBOW RESTAURANT,"312 E. DIAMOND AVE, B-1",GAITHERSBURG,MD,20877,HBW119,On Premise,RAINBOW REST. AND CATERING SER,"312 E. DIAMOND AVE, B-1
GAITHERSBURG, MD 20877
(39.142162, -77.192704)",1,35,36,3,21
SPENCERVILLE DELI,2215 SPENCERVILLE RD,SPENCERVILLE,MD,20868,DBW25583,On/Off-Premise,"SPENCERVILLE DELI, LLC","2215 SPENCERVILLE RD
SPENCERVILLE, MD 20868
(39.116426, -76.965563)",1,46,32,5,1
CITY LIGHTS OF CHINA,4953 BETHESDA AVENUE,BETHESDA,MD,20814,BBWLHR1071900,On Premise,Q & Q RESTAURANT,"4953 BETHESDA AVENUE
BETHESDA, MD 20814
(38.980785, -77.100052)",1,111,12,1,1
THAI CUISINE,3430-3434 OLNEY-LAYTONSVILLE RD.,OLNEY,MD,20832,HBWHR40499,On Premise,"THAI CUISINE 2005, INC.","3430-3434 OLNEY-LAYTONSVILLE RD.
OLNEY, MD 20832
(39.153946, -77.068459)",1,100,58,4,1
GUAPO'S - BETHESDA,8130 WISCONSIN AVE,BETHESDA,MD,20814,BBWLHR051,On Premise,GUAPO'S BETHESDA INC.,"8130 WISCONSIN AVE
BETHESDA, MD 20814",,,,,
NADA,11886 GRAND PARK AVENUE,NORTH BETHESDA,MD,20852,BBWLHR36284,On Premise,"NADA BETHESDA, LLC","11886 GRAND PARK AVENUE
NORTH BETHESDA, MD 20852
(39.050579, -77.117393)",1,60,19,1,1
SENECA CONVENIENCE,"12611 WISTERIA DRIVE, UNIT F",GERMANTOWN,MD,20874,ABWS119,Off Premise,SOOD & SOOD INC,"12611 WISTERIA DRIVE, UNIT F
GERMANTOWN, MD 20874
(39.169931, -77.261662)",1,39,39,2,1
BETHESDA MARKET,"4611 SANGAMORE ROAD, UNIT D",BETHESDA,MD,20816,DBW146,On/Off-Premise,OM SAI RAM INC.,"4611 SANGAMORE ROAD, UNIT D
BETHESDA, MD 20816
(38.94866, -77.119725)",1,107,12,1,1
THE GIRL AND THE VINE,7071 CARROLL AVENUE,TAKOMA PARK,MD,20912,BDBWL41020,On/Off-Premise,"KULA HOSPITALITY, LLC","7071 CARROLL AVENUE
TAKOMA PARK, MD 20912
(38.975397, -77.009613)",1,3062,4,5,11
CHEVY CHASE CLUB,6100 CONNECTICUT AVE,CHEVY CHASE,MD,20815,CBWLCC008,On Premise,"CHEVY CHASE CLUB, INC.","6100 CONNECTICUT AVE
CHEVY CHASE, MD 20815
(38.972797, -77.077201)",1,110,5,1,3
TIA OCHI,806 BALTIMORE ROAD,ROCKVILLE,MD,20851,DBW012,On/Off-Premise,"TIA OCHI, INC.","806 BALTIMORE ROAD
ROCKVILLE, MD 20851
(39.084451, -77.135267)",1,68,25,3,12
EL CHANGARRO,107-B EAST DIAMOND AVENUE,GAITHERSBURG,MD,20877,DBW23613,On/Off-Premise,DELMA CORP,"107-B EAST DIAMOND AVENUE
GAITHERSBURG, MD 20877
(39.141938, -77.19558)",1,35,36,3,21
SOL AZTECA RESTAURANT,18129 TOWN CENTER DRIVE,OLNEY,MD,20832,BBWLHR179,On Premise,"SOL AZTECA, INC.","18129 TOWN CENTER DRIVE
OLNEY, MD 20832
(39.151794, -77.061976)",1,100,58,4,1
WAYSIDE FARM MARKET,11790 CHERRY HILL ROAD,SILVER SPRING,MD,20904,ABW065,Off Premise,YINGROUY CORPORATION,"11790 CHERRY HILL ROAD
SILVER SPRING, MD 20904
(39.047177, -76.952061)",1,12,21,5,1
GOSHEN PLAZA BEER & WINE,9150 ROTHBURY DR.,MONTGOMERY VILLAGE,MD,20886,DBW029,On/Off-Premise,"LAKSHMI LLC,","9150 ROTHBURY DR.
MONTGOMERY VILLAGE, MD 20886
(39.185511, -77.189165)",1,28,38,2,1
CHIPOTLE MEXICAN GRILL - BETHESDA,7624 OLD GEORGETOWN ROAD,BETHESDA,MD,20814,BBWLHR299,On Premise,"CHIPOTLE MEXICAN GRILL, INC.","7624 OLD GEORGETOWN ROAD
BETHESDA, MD 20814
(38.986087, -77.096403)",1,111,12,1,1
SOCIETY RESTAURANT & LOUNGE,8229 GEORGIA AVENUE,SILVER SPRING,MD,20910,BBWLHR41379,On Premise,"SILVER SPRING REST. GROUP, LLC","8229 GEORGIA AVENUE
SILVER SPRING, MD 20910
(38.992557, -77.026544)",1,3065,7,5,1
"TRAN DINH BEER,WINE & DELI","20 MONTGOMERY VILLAGE AVE, UNIT D",GAITHERSBURG,MD,20879,DBW141,On/Off-Premise,"TRAN DINH BEER,WINE, & DELI, I","20 MONTGOMERY VILLAGE AVE, UNIT D
GAITHERSBURG, MD 20879
(39.155112, -77.208497)",1,31,36,3,21
CAFE ROMA,12166 DARNESTOWN ROAD,GAITHERSBURG,MD,20878,BBWLHR30393,On Premise,"MILA, INC.","12166 DARNESTOWN ROAD
GAITHERSBURG, MD 20878
(39.117688, -77.252475)",1,33,28,2,1
ASIA NINE II,254 CROWN PARK ROAD,GAITHERSBURG,MD,20878,BBWLHR861,On Premise,"THAIDEE, INC","254 CROWN PARK ROAD
GAITHERSBURG, MD 20878
(39.11377, -77.204868)",1,71,25,3,21
LAHINCH TAVERN & GRILL,7747 TUCKERMAN LANE,POTOMAC,MD,20854,BBWLHR24688,On Premise,"CLARE, INC","7747 TUCKERMAN LANE
POTOMAC, MD 20854
(39.039411, -77.156424)",1,53,20,1,1
TEX'S PLACE,14630 SOUTHLAWN LANE,ROCKVILLE,MD,20850,BBWHR34384,On/Off-Premise,"DOAN, INC","14630 SOUTHLAWN LANE
ROCKVILLE, MD 20850
(39.095024, -77.140589)",1,71,27,3,12
WORLD OF BEER,196-B EAST MONTGOMERY AVENUE,ROCKVILLE,MD,20850,BBWLHR22600,On Premise,"WOB ROCKVILLE, LLC","196-B EAST MONTGOMERY AVENUE
ROCKVILLE, MD 20850
(39.08408, -77.150463)",1,71,25,3,12
ABYSSINIA RESTAURANT,8221 GEORGIA AVE,SILVER SPRING,MD,20910,BBWLHR561,On Premise,"SOLO & AD, INC.","8221 GEORGIA AVE
SILVER SPRING, MD 20910
(38.992334, -77.026542)",1,3065,7,5,1
BROOKVILLE MARKET,7027 BROOKVILLE ROAD,CHEVY CHASE,MD,20815,ABW189,Off Premise,"CHEVY CHASE MARKET, INC.","7027 BROOKVILLE ROAD
CHEVY CHASE, MD 20815
(38.980533, -77.071265)",1,110,5,1,15
ANNA'S DELI PLUS,11512 MIDDLEBROOK ROAD,GERMANTOWN,MD,20876,ABWS179,Off Premise,ANNA'S DELI PLUS INC.,"11512 MIDDLEBROOK ROAD
GERMANTOWN, MD 20876
(39.180642, -77.239121)",1,36,39,2,1
HOLIDAY INN GAITHERSBURG,TWO MONTGOMERY VILLAGE AVE,GAITHERSBURG,MD,20879,BBWLHM003,On Premise,MONTGOMERY VILLAGE HOSPITALITY,"TWO MONTGOMERY VILLAGE AVE
GAITHERSBURG, MD 20879",,,,,
THE MANOR AT SILO FALLS,19501 GEORGIA AVENUE,BROOKEVILLE,MD,20833,BBWLHR35520,On Premise,"THE MANOR AT SILO FALLS, LLC","19501 GEORGIA AVENUE
BROOKEVILLE, MD 20833
(39.176642, -77.058235)",1,99,40,4,1
7 BILLIARDS,15966 SHADY GROVE RD.,GAITHERSBURG,MD,20877,DBWL36065,On Premise,"7 BILLARDS, INC.","15966 SHADY GROVE RD.
GAITHERSBURG, MD 20877
(39.11882, -77.182767)",1,71,36,3,1
WING STOP # 238,14925 SHADY GROVE ROAD,ROCKVILLE,MD,20850,HBWHR839,On Premise,"RED COW POLITY, LLC","14925 SHADY GROVE ROAD
ROCKVILLE, MD 20850
(39.097568, -77.19403)",1,71,25,3,1
CONVENIENCE EXPRESS,948 WAYNE AVE,SILVER SPRING,MD,20910,ABW030,Off Premise,"JOACHIM & JOYCE, INC.","948 WAYNE AVE
SILVER SPRING, MD 20910
(38.994598, -77.025822)",1,3065,7,5,1
BELBY DISCOUNT BEER & WINE,888 ROCKVILLE PIKE,ROCKVILLE,MD,20852,DBW109,On/Off-Premise,"CKCE, INC","888 ROCKVILLE PIKE
ROCKVILLE, MD 20852
(39.07469, -77.135906)",1,60,25,3,12
VASILIS KITCHEN,705 CENTER POINT WAY,GAITHERSBURG,MD,20878,BBWLHR24645,On Premise,"KENTLANDS JOINT VENTURE, LLC","705 CENTER POINT WAY
GAITHERSBURG, MD 20878
(39.12195, -77.235019)",1,33,36,3,21
HYATT REGENCY BETHESDA,ONE BETHESDA METRO,BETHESDA,MD,20814,BBWLHM21674,On Premise,"TMG II BETHESDA HOTEL TRS, LLC","ONE BETHESDA METRO
BETHESDA, MD 20814",,,,,
WOODMONT GRILL,7715 WOODMONT AVE,BETHESDA,MD,20814,BBWLHR241,On Premise,"HILLSTONE RESTAURANT GROUP,INC","7715 WOODMONT AVE
BETHESDA, MD 20814
(38.987864, -77.096019)",1,111,12,1,1
TALBERTS ICE & BEVERAGE SERVICE,5234 RIVER ROAD,BETHESDA,MD,20816,DBW044,On/Off-Premise,MONTGOMERY ICE CORPORATION,"5234 RIVER ROAD
BETHESDA, MD 20816
(38.965237, -77.104444)",1,107,12,1,1
LENOX BEER & WINE GOURMET MKT,8395 COLESVILLE RD.,SILVER SPRING,MD,20910,ABW219,Off Premise,"BTG HOLDINGS, INC.","8395 COLESVILLE RD.
SILVER SPRING, MD 20910
(38.993375, -77.032939)",1,3065,6,5,1
HUNTER'S BAR & GRILL,10123 RIVER ROAD,POTOMAC,MD,20854,BBWLHR274,On Premise,"JBS RESTUARANT MANAGEMENT,LLC","10123 RIVER ROAD
POTOMAC, MD 20854
(39.017831, -77.208587)",1,53,20,1,1
PIZZERIA DAMARCO,8008 WOODMONT AVE,BETHESDA,MD,20814,BBWLHR109,On Premise,"LIONSGATE RESTAURANT, LLC","8008 WOODMONT AVE
BETHESDA, MD 20814
(38.990236, -77.096483)",1,111,12,1,1
THE REPUBLIC GARDEN,8402 GEORGIA AVENUE,SILVER SPRING,MD,20910,BBWLHR41280,On Premise,"C&G GROUP, LLC","8402 GEORGIA AVENUE
SILVER SPRING, MD 20910
(38.99366, -77.026779)",1,3065,7,5,1
THE GREENE TURTLE BAR & GRILLE,18101 TOWN CENTER DRIVE,OLNEY,MD,20832,BBWLHR803,On Premise,"GT OLNEY, LLC","18101 TOWN CENTER DRIVE
OLNEY, MD 20832
(39.15188, -77.062182)",1,100,58,4,1
SENECA MEADOWS BEER & WINE,"20640 SENECA MEADOWS PARKWAY,",GERMANTOWN,MD,20876,ABW271,Off Premise,"ARIDI ENTERPRISE, INC","20640 SENECA MEADOWS PARKWAY,
GERMANTOWN, MD 20876
(39.198236, -77.255163)",1,36,39,2,1
SARITA'S CHICKEN RESTAURANT,2545 ENNALLS AVE,SILVER SPRING,MD,20902,BBWLHR778,On Premise,SARITA'S CHICKEN RESTAURANT,"2545 ENNALLS AVE
SILVER SPRING, MD 20902
(39.039717, -77.053686)",1,17,16,4,1
ARIRANG RESTAURANT,1314 EAST GUDE DRIVE,ROCKVILLE,MD,20850,BBWLHR020,On Premise,PLEROMA INC.,"1314 EAST GUDE DRIVE
ROCKVILLE, MD 20850
(39.096898, -77.135283)",1,71,27,3,12
EL SAPO,8455 FENTON STREET #1,SILVER SPRING,MD,20910,BBWLHR36204,On Premise,"8455CSC, LLC","8455 FENTON STREET #1
SILVER SPRING, MD 20910
(38.995995, -77.024661)",1,3065,7,5,1
FLOWER HILL BEER & WINE,18253 FLOWER HILL WAY,GAITHERSBURG,MD,20879,ABW092,Off Premise,"HBJ, INC","18253 FLOWER HILL WAY
GAITHERSBURG, MD 20879
(39.155424, -77.164586)",1,35,36,4,1
LOS COBANOS RESTAURANT,11210 GRANDVIEW AVE,SILVER SPRING,MD,20902,BBWLHR008,On Premise,"MERSAL, INC.","11210 GRANDVIEW AVE
SILVER SPRING, MD 20902
(39.038776, -77.052324)",1,17,16,4,1
MIDDLEBROOK DISCOUNT B & W,19601 FREDERICK ROAD,GERMANTOWN,MD,20876,ABW257,Off Premise,"SOHRABS, INC","19601 FREDERICK ROAD
GERMANTOWN, MD 20876
(39.177455, -77.238444)",1,36,39,2,1
LILIT CAFE,7921 OLD GEORGETOWN ROAD,BETHESDA,MD,20814,DBW057,On/Off-Premise,DJ MANAGEMENT LLC,"7921 OLD GEORGETOWN ROAD
BETHESDA, MD 20814
(38.988751, -77.100881)",1,111,12,1,1
MI RANCHO - GERMANTOWN,"19725 GERMANTOWN ROAD, UNIT A",GERMANTOWN,MD,20874,BBWLHR145,On Premise,19725A INC.,"19725 GERMANTOWN ROAD, UNIT A
GERMANTOWN, MD 20874
(39.180374, -77.263847)",1,39,39,2,1
TAVIRA RESTAURANT,8401 CONNECTICUT AVE,CHEVY CHASE,MD,20815,BBWLHR260,On Premise,"DUCA, LLC","8401 CONNECTICUT AVE
CHEVY CHASE, MD 20815
(38.994244, -77.077078)",1,110,5,1,1
RED LOBSTER RESTAURANT,15700 SHADY GROVE ROAD,GAITHERSBURG,MD,20877,BBWLHR065,On Premise,"RL MARYLAND, INC.","15700 SHADY GROVE ROAD
GAITHERSBURG, MD 20877
(39.113281, -77.186629)",1,71,36,3,1
RODMAN'S GOURMET BEER & WINE,5148 NICHOLSON LANE,KENSINGTON,MD,20895,DBW002,On/Off-Premise,"W.F.F.& B., INC.","5148 NICHOLSON LANE
KENSINGTON, MD 20895
(39.045102, -77.105555)",1,25,19,1,1
EL ANDARIEGO,5 OLNEY SANDY SPRING ROAD,ASHTON,MD,20861,BBWLHR111,On Premise,EL ANDARIEGO,"5 OLNEY SANDY SPRING ROAD
ASHTON, MD 20861
(39.149296, -77.013282)",1,49,35,4,1
"OLLIE'S BEER, WINE AND DELI",2011-A VIERS MILL ROAD,ROCKVILLE,MD,20851,ABW287,Off Premise,"SREYPICH, LLC","2011-A VIERS MILL ROAD
ROCKVILLE, MD 20851
(39.075307, -77.116859)",1,68,25,3,12
BURGERFI,8504 FENTON STREET,SILVER SPRING,MD,20910,HBWHR34596,On Premise,"BUFISS, LLC","8504 FENTON STREET
SILVER SPRING, MD 20910
(38.995808, -77.024576)",1,3065,7,5,1
TG SILVER SPRING MART,8211 FENTON STREET,SILVER SPRING,MD,20910,DBW1057690,On/Off-Premise,TG SILVER SPRING MART,"8211 FENTON STREET
SILVER SPRING, MD 20910
(38.992091, -77.024045)",1,3065,7,5,1
BETHESDA BEER & WINE,8015 WISCONSIN AVE,BETHESDA,MD,20814,ABW121,Off Premise,BSBB LIMITED INC.,"8015 WISCONSIN AVE
BETHESDA, MD 20814
(38.990866, -77.095534)",1,111,12,1,1
EL CARACOL CAFE,609 SLIGO AVE,SILVER SPRING,MD,20910,BBWLHR1063665,On Premise,SNS CORPORATION,"609 SLIGO AVE
SILVER SPRING, MD 20910
(38.991286, -77.013269)",1,3065,7,5,1
JEWEL OF INDIA,10151 NEW HAMPSHIRE AVE,SILVER SPRING,MD,20903,BBWLHR661,On Premise,"JEWEL OF INDIA, CORP.","10151 NEW HAMPSHIRE AVE
SILVER SPRING, MD 20903
(39.021522, -76.976956)",1,15,18,5,1
MOOSE LODGE #1775,2901 BEL PRE ROAD,SILVER SPRING,MD,20906,CBWLFV006,On Premise,"WHEATON MOOSE LODGE #1775, INC","2901 BEL PRE ROAD
SILVER SPRING, MD 20906
(39.0907, -77.059394)",1,6,59,4,1
WHEATON DELI,11413 GEORGIA AVE,SILVER SPRING,MD,20902,ABW124,Off Premise,WHEATON DELI LLC,"11413 GEORGIA AVE
SILVER SPRING, MD 20902
(39.042046, -77.051837)",1,17,16,4,1
LEDO PIZZA - DERWOOD,7213 MUNCASTER MILL ROAD,ROCKVILLE,MD,20855,HBW266,On Premise,"BOGEY ENTERPRISES, INC.","7213 MUNCASTER MILL ROAD
ROCKVILLE, MD 20855
(39.146155, -77.145077)",1,51,36,4,1
KANTUTAS RESTAURANT,2462 ENNALLS AVE,SILVER SPRING,MD,20902,HBWHR673,On Premise,"KANTUTAS RESTAURANT, INC","2462 ENNALLS AVE
SILVER SPRING, MD 20902
(39.040344, -77.05247)",1,17,16,4,1
CAVA RESTAURANT,9713 TRAVILLE GATEWAY DRIVE,ROCKVILLE,MD,20850,BBWLHR066,On Premise,"DTI, LLC,","9713 TRAVILLE GATEWAY DRIVE
ROCKVILLE, MD 20850
(39.091461, -77.204129)",1,71,24,3,1
RED MAPLE RESTAURANT,10110 COLESVILLE ROAD,SILVER SPRING,MD,20901,BBWLHR742,On Premise,"RED MAPLE ASSOCIATES, LLC","10110 COLESVILLE ROAD
SILVER SPRING, MD 20901
(39.020606, -77.012588)",1,21,13,5,1
FRATERNAL ORDER OF EAGLES #3509,19201 FREDERICK ROAD,GERMANTOWN,MD,20876,CBWLFV008,On Premise,"GAITHERSBURG AERIE #3509, INC.","19201 FREDERICK ROAD
GERMANTOWN, MD 20876
(39.170082, -77.235004)",1,36,39,2,1
ASBURY METHODIST VILLAGE,201 RUSSELL AVENUE,GAITHERSBURG,MD,20877,CBWLRC004,On Premise,"IVA, INC","201 RUSSELL AVENUE
GAITHERSBURG, MD 20877
(39.145339, -77.197225)",1,35,36,3,21
AL CARBON,200 PARK ROAD,ROCKVILLE,MD,20850,BBWLHR624,On Premise,"CMV GROUP, INC.","200 PARK ROAD
ROCKVILLE, MD 20850
(39.085569, -77.146429)",1,71,25,3,12
CONGRESSIONAL COUNTRY CLUB,8500 RIVER ROAD,POTOMAC,MD,20817,CBWLCCO010,On Premise,"CONGRESSIONAL COUNTRY CLUB, IN","8500 RIVER ROAD
POTOMAC, MD 20817",,,,,
KENWOOD GOLF & COUNTRY CLUB,5601 RIVER ROAD,BETHESDA,MD,20816,CBWLCC014,On Premise,"KENWOOD GOLF & CC., INC.","5601 RIVER ROAD
BETHESDA, MD 20816
(38.970382, -77.114401)",1,103,12,1,1
OLD WORLD FAVORITES,3854 INTERNATIONAL DR.,SILVER SPRING,MD,20906,DBW027,On/Off-Premise,"SATSHIV, INC.","3854 INTERNATIONAL DR.
SILVER SPRING, MD 20906
(39.103712, -77.076025)",1,6,62,3,1
BEERS AND CHEERS,19827 CENTURY BLVD,GERMANTOWN,MD,20874,DBW061,On/Off-Premise,GRAND CREW ENTERPRISES INC,"19827 CENTURY BLVD
GERMANTOWN, MD 20874
(39.18098, -77.267192)",1,39,39,2,1
O'DONNELL'S MARKET,1073 SEVEN LOCKS ROAD,ROCKVILLE,MD,20850,HBW21614,On Premise,"O'DONNELL'S MARKET, LLC","1073 SEVEN LOCKS ROAD
ROCKVILLE, MD 20850
(39.062109, -77.160803)",1,53,25,3,12
BARREL & CROW,4867 CORDELL AVENUE,BETHESDA,MD,20814,BBWLHR20279,On Premise,"BARREL AND CROW, LLC","4867 CORDELL AVENUE
BETHESDA, MD 20814
(38.990002, -77.097494)",1,111,12,1,1
"SILVER SPRING BEER, WINE & DELI",8746 GEORGIA AVE,SILVER SPRING,MD,20910,DBW081,On/Off-Premise,"RYANALEX, INC.","8746 GEORGIA AVE
SILVER SPRING, MD 20910
(38.9985, -77.030878)",1,3065,7,5,1
RIDERWOOD VILLAGE,3120 GRACEFIELD ROAD,SILVER SPRING,MD,20904,CBWLRC001,On Premise,RIDERWOOD VILLAGE INC.,"3120 GRACEFIELD ROAD
SILVER SPRING, MD 20904
(39.0563, -76.950937)",1,12,21,5,1
ROSCOE'S NEAPOLITAN PIZZERIA,7040 CARROLL AVE,TAKOMA PARK,MD,20912,BBWLHR543,On Premise,"MU & CD, LLC","7040 CARROLL AVE
TAKOMA PARK, MD 20912
(38.975031, -77.011269)",1,3062,4,5,11
COAL FIRE,116 MAIN STREET,GAITHERSBURG,MD,20878,BBWLHR586,On Premise,"COAL FIRE PIZZA OF KENTLANDS,","116 MAIN STREET
GAITHERSBURG, MD 20878
(39.124366, -77.237792)",1,33,36,3,21
HONEY PIG,12015 ROCKVILLE PIKE #G,ROCKVILLE,MD,20852,BBWLHR35053,On Premise,"HONEY PIG ROCKVILLE, INC.","12015 ROCKVILLE PIKE #G
ROCKVILLE, MD 20852
(39.053977, -77.117241)",1,60,19,1,1
HARD TIMES CAFE,1117 NELSON STREET,ROCKVILLE,MD,20850,BBWLHR578,On Premise,"MORGAN HOWARD, LLC","1117 NELSON STREET
ROCKVILLE, MD 20850
(39.090711, -77.174355)",1,71,25,3,12
COUNTRY BOY BEER & WINE,2211 RANDOLPH ROAD,SILVER SPRING,MD,20902,ABW140,Off Premise,THOMAS BARNSLEY & JAMES BARNSL,"2211 RANDOLPH ROAD
SILVER SPRING, MD 20902
(39.059515, -77.047318)",1,6,23,4,1
VFW POST 2562,11316 FERN STREET,SILVER SPRING,MD,20902,CBWLFV001,On Premise,SILVER SPRING MEMORIAL VFW,"11316 FERN STREET
SILVER SPRING, MD 20902
(39.040765, -77.049447)",1,17,16,4,1
ADDIS ABABA RESTAURANT,8233 FENTON STREET,SILVER SPRING,MD,20910,BBWLHR700,On Premise,"ABYE, LLC","8233 FENTON STREET
SILVER SPRING, MD 20910
(38.99275, -77.024071)",1,3065,7,5,1
MIDWAY BEER & WINE,16057 FREDERICK ROAD,DERWOOD,MD,20855,ABW279,Off Premise,SHIVA CORPORATION,"16057 FREDERICK ROAD
DERWOOD, MD 20855
(39.118865, -77.171444)",1,51,27,3,12
TAIPEI CAFE,802 HUNGERFORD DRIVE,ROCKVILLE,MD,20850,BBWHR138,On/Off-Premise,"BROTHERS BISTRO, LLC","802 HUNGERFORD DRIVE
ROCKVILLE, MD 20850
(39.094245, -77.153434)",1,71,25,3,12
WOODMONT DELI,8225 WOODMONT AVE,BETHESDA,MD,20814,DBW051,On/Off-Premise,WOODMONT DELI CORPORATION,"8225 WOODMONT AVE
BETHESDA, MD 20814
(38.992434, -77.097002)",1,111,12,1,1
GOURMET INSPIRATIONS,2646 UNIVERSITY BOULEVARD,WHEATON,MD,20902,BBWLHR869,On Premise,"A&C FINE DINING, INC","2646 UNIVERSITY BOULEVARD
WHEATON, MD 20902
(39.040537, -77.054302)",1,17,16,4,1
CHINA GOURMET RESTAURANT,"3739 UNIVERSITY BLVD, WEST",KENSINGTON,MD,20895,BBWLHR247,On Premise,"KENSINGTON RESTAURANT, INC.","3739 UNIVERSITY BLVD, WEST
KENSINGTON, MD 20895
(39.032666, -77.073942)",1,25,15,1,6
COURTYARD BY MARRIOTT - GAITH,204 BOARDWALK PLACE,GAITHERSBURG,MD,20878,BBWLHM018,On Premise,COURTYARD MANAGEMENT CORPORATI,"204 BOARDWALK PLACE
GAITHERSBURG, MD 20878
(39.116606, -77.198083)",1,33,36,3,21
T.G.I. FRIDAY'S - ROCKVILLE,12147 ROCKVILLE PIKE,ROCKVILLE,MD,20852,BBWLHR016,On Premise,TGI FRIDAY'S OF ROCKVILLE INC.,"12147 ROCKVILLE PIKE
ROCKVILLE, MD 20852
(39.057718, -77.120352)",1,60,19,1,1
DAD'S BEER & WINE,603 HUNGERFORD DRIVE,ROCKVILLE,MD,20850,ABWS203,Off Premise,"DAD'S BEER & WINE, LLC","603 HUNGERFORD DRIVE
ROCKVILLE, MD 20850
(39.091973, -77.153201)",1,71,25,3,12
AZUCAR RESTAURANT,14418 LAYHILL ROAD,SILVER SPRING,MD,20906,BBWLHR389,On Premise,"JAR-RAM & JAG, INC.","14418 LAYHILL ROAD
SILVER SPRING, MD 20906
(39.091837, -77.04516)",1,6,59,4,1
NOT YOUR AVERAGE JOE'S - BETHESDA,"10400 OLD GEORGETOWN ROAD, 6A",BETHESDA,MD,20814,BBWLHR21761,On Premise,"NOT YOUR AVERAGE JOE'S MD, LLC","10400 OLD GEORGETOWN ROAD, 6A
BETHESDA, MD 20814
(39.025879, -77.126068)",1,103,19,1,1
COURTYARD BY MARRIOTT-ROCKVILLE,2500 RESEARCH BOULEVARD,ROCKVILLE,MD,20850,BBWLHM19293,On Premise,COURTYARD MANAGEMENT CORP.,"2500 RESEARCH BOULEVARD
ROCKVILLE, MD 20850
(39.104768, -77.18902)",1,71,25,3,12
ASTRO LAB BREWING,8216 GEORGIA AVENUE,SILVER SPRING,MD,20910,DBW30618,On/Off-Premise,ASTRO LAB BREWING LLC,"8216 GEORGIA AVENUE
SILVER SPRING, MD 20910
(38.992142, -77.0267)",1,3065,7,5,1
SKKY MARKET,108 OLDE TOWNE AVE,GAITHERSBURG,MD,20877,ABWS125,Off Premise,"AYALA ANDRADE, INC.","108 OLDE TOWNE AVE
GAITHERSBURG, MD 20877
(39.140701, -77.194726)",1,35,36,3,21
LIFETIME ATHLETIC,10121 WASHINGTONIAN BLVD,GAITHERSBURG,MD,20878,CBW27779,On Premise,"LTF MARYLAND LIQUOR,LLC","10121 WASHINGTONIAN BLVD
GAITHERSBURG, MD 20878
(39.120096, -77.205361)",1,33,36,3,21
GILLY'S CRAFT BEER & FINE WINE,2009 CHAPMAN AVENUE,ROCKVILLE,MD,20852,DBW41021,On/Off-Premise,"ROSEMARY WINEYARD, LLC","2009 CHAPMAN AVENUE
ROCKVILLE, MD 20852
(39.056268, -77.11702)",1,60,19,1,1
MAKI CAFE,842-C ROCKVILLE PIKE,ROCKVILLE,MD,20852,DBW152,On/Off-Premise,"MAKI, LLC","842-C ROCKVILLE PIKE
ROCKVILLE, MD 20852
(39.075532, -77.137075)",1,60,25,3,12
LEDO PIZZA OLNEY,3472 OLNEY LAYTONSVILLE ROAD,OLNEY,MD,20832,HBWHR38339,On Premise,"MHI HOTELS SERVICES, LLC","3472 OLNEY LAYTONSVILLE ROAD
OLNEY, MD 20832
(39.154395, -77.069141)",1,100,58,4,1
SILVER,7150 WOODMONT AVENUE,BETHESDA,MD,20814,BBWLHR22814,On Premise,"SILVER BETHESDA, LLC","7150 WOODMONT AVENUE
BETHESDA, MD 20814
(38.97996, -77.093539)",1,110,12,1,1
TANDOORI NIGHTS,106 MARKET STREET,GAITHERSBURG,MD,20878,BBWLHR696,On Premise,"DLV, LLC.","106 MARKET STREET
GAITHERSBURG, MD 20878
(39.122787, -77.234922)",1,33,36,3,21
JC CRAB HOUSE,13432 NEW HAMPSHIRE AVE,SILVER SPRING,MD,20904,HBW31540,On Premise,JC SEAFOOD LLC,"13432 NEW HAMPSHIRE AVE
SILVER SPRING, MD 20904
(39.076439, -77.001888)",1,12,26,4,1
EURO MARKET,13077 WISTERIA DR,GERMANTOWN,MD,20874,ABW28312,Off Premise,"ANDIRA, LLC","13077 WISTERIA DR
GERMANTOWN, MD 20874
(39.178057, -77.272075)",1,39,39,2,1
FOREST GLEN DELI,536 FOREST GLEN ROAD,SILVER SPRING,MD,20901,ABW048,Off Premise,MOO YOUNG CHUN & SONG JU CHUN,"536 FOREST GLEN ROAD
SILVER SPRING, MD 20901
(39.016639, -77.018519)",1,21,13,5,1
SUSHIKO CHEVY CHASE,5455 WISCONSIN AVENUE,CHEVY CHASE,MD,20815,BBWLHR851,On Premise,"SUSHIKO CHEVY CHASE, LLC.","5455 WISCONSIN AVENUE
CHEVY CHASE, MD 20815
(38.962451, -77.086421)",1,110,5,1,1
NOVA EUROPA RESTAURANT,1311 LAMBERTON DRIVE,SILVER SPRING,MD,20902,BBWLHR091,On Premise,"NOVA EUROPA RESTURANT, INC.","1311 LAMBERTON DRIVE
SILVER SPRING, MD 20902
(39.040979, -77.029629)",1,17,16,4,1
LEDO PIZZA - DAMASCUS,9805 MAIN STREET,DAMASCUS,MD,20872,HBW310,On Premise,MAIN STREET INN INC.,"9805 MAIN STREET
DAMASCUS, MD 20872
(39.288017, -77.20279)",1,42,51,2,1
POLLO BRASERO REST. & CARRYOUT,14336 LAYHILL ROAD,SILVER SPRING,MD,20906,HBW246,On Premise,"JULROC, INC.","14336 LAYHILL ROAD
SILVER SPRING, MD 20906
(39.091027, -77.044969)",1,6,59,4,1
ARAT KILO MARKET AND RESTAURANT,818 EASLEY STREET,SILVER SPRING,MD,20910,HBW23352,On Premise,"HELINA ASEGED AND SONS, LLC","818 EASLEY STREET
SILVER SPRING, MD 20910
(38.993979, -77.023621)",1,3065,7,5,1
KUSSHI,11826 TRADE STREET,NORTH BETHESDA,MD,20852,BBWLHR35806,On Premise,"TWMK,LLC","11826 TRADE STREET
NORTH BETHESDA, MD 20852
(39.050932, -77.116381)",1,60,19,1,1
WINGSTOP - GAITHERSBURG,"20201 GOSHEN ROAD, SPACE G",GAITHERSBURG,MD,20879,DBW093,On/Off-Premise,"REDCOWPOLITY II, LLC","20201 GOSHEN ROAD, SPACE G
GAITHERSBURG, MD 20879
(39.188211, -77.186402)",1,28,38,2,1
SEAFOOD IN THE BUFF,12132 GEORGIA AVE,WHEATON,MD,20902,DBW28313,On/Off-Premise,"TAESAN,INC","12132 GEORGIA AVE
WHEATON, MD 20902
(39.053806, -77.050759)",1,17,23,4,1
MONTGOMERY VILLAGE BEER & WINE,18286 CONTOUR ROAD,GAITHERSBURG,MD,20879,ABW18682,Off Premise,"ANH & OH CORPORATION, INC","18286 CONTOUR ROAD
GAITHERSBURG, MD 20879
(39.155814, -77.199106)",1,28,38,2,1
VFW POST NO. 350,6420 ORCHARD AVE,TAKOMA PARK,MD,20912,CBWLFV1,On Premise,POST NO. 350 VFW OF THE U.S,"6420 ORCHARD AVE
TAKOMA PARK, MD 20912
(38.968949, -77.002305)",1,3062,4,5,11
QUALITY BEER & WINE,13826 OLD COLUMBIA PIKE,SILVER SPRING,MD,20904,ABW1071811,Off Premise,"BONG & KWON, INC","13826 OLD COLUMBIA PIKE
SILVER SPRING, MD 20904
(39.083744, -76.951534)",1,12,53,5,1
GOOD FORTUNE CAFE,237 KENTLANDS BLVD.,GAITHERSBURG,MD,20878,HBW298,On Premise,"GOOD FORTUNE CAFE, INC.","237 KENTLANDS BLVD.
GAITHERSBURG, MD 20878
(39.123251, -77.236521)",1,33,36,3,21
FOUNDING FARMERS,12505 PARK POTOMAC AVE,POTOMAC,MD,20854,BBWLHR677,On Premise,FOUNDING FARMERS POTOMAC LLC,"12505 PARK POTOMAC AVE
POTOMAC, MD 20854
(39.060806, -77.157996)",1,53,20,3,1
MANNEQUIN PIS,18064 GEORGIA AVENUE,OLNEY,MD,20832,HBW30862,On Premise,"QUINTERO MARTELL, LLC","18064 GEORGIA AVENUE
OLNEY, MD 20832
(39.152469, -77.06689)",1,100,58,4,1
PHO WHEATON & BANH MI,11232 GRANDVIEW AVE,SILVER SPRING,MD,20902,HBW034,On Premise,SAIGONESE RESTAURANT INC.,"11232 GRANDVIEW AVE
SILVER SPRING, MD 20902
(39.039189, -77.05239)",1,17,16,4,1
JULLIANO'S ITALIAN CAFE,6840 OLNEY LAYTONSVILLE ROAD,LAYTONSVILLE,MD,20882,HBW281,On Premise,"FUENTES RESTAURANT, INC.","6840 OLNEY LAYTONSVILLE ROAD
LAYTONSVILLE, MD 20882
(39.204313, -77.139646)",1,29,46,4,22
OLD ANGLERS INN,10801 MACARTHUR BLVD.,POTOMAC,MD,20854,BBWLHR060,On Premise,"MARYLAND CATERING CO., INC.","10801 MACARTHUR BLVD.
POTOMAC, MD 20854
(38.982427, -77.226671)",1,53,20,1,1
IRON AGE,1054 ROCKVILLE PIKE,ROCKVILLE,MD,20852,BBWLHR724,On Premise,"IRON AGE ROCKVILLE, LLC","1054 ROCKVILLE PIKE
ROCKVILLE, MD 20852
(39.072464, -77.133438)",1,60,25,3,12
ROOTS MARKET,16800 GEORGIA AVE,OLNEY,MD,20832,DBW078,On/Off-Premise,"ROOTS OLNEY, LLC","16800 GEORGIA AVE
OLNEY, MD 20832
(39.131892, -77.0707)",1,100,58,4,1
SIRIWAN THAI RESTAURANT,736 CLOVERLY STREET,SILVER SPRING,MD,20905,HBW275,On Premise,"SIRIWAN THAI RESTAURANT, INC.","736 CLOVERLY STREET
SILVER SPRING, MD 20905
(39.109116, -76.995715)",1,8,29,5,1
MOKO SUSHI,5550 NORBECK RD,ROCKVILLE,MD,20853,HBW28292,On Premise,"MOKO SUSHI, LLC","5550 NORBECK RD
ROCKVILLE, MD 20853
(39.095606, -77.11124)",1,58,61,3,1
HERSHEYS RESTAURANT,17030 OAKMONT AVE,GAITHERSBURG,MD,20877,BBWLHR135,On Premise,"GORMAN, INC.","17030 OAKMONT AVE
GAITHERSBURG, MD 20877
(39.135769, -77.177353)",1,35,33,3,1
COURTYARD BY MARRIOTT-SILVER SPRING,8506 FENTON STREET,SILVER SPRING,MD,20910,BBWLHM210,On Premise,SILVER SPRING HOTEL ASSOCIATES,"8506 FENTON STREET
SILVER SPRING, MD 20910
(38.995597, -77.024479)",1,3065,7,5,1
PALADAR LATIN KITCHEN & RUM BAR - G,203 CROWNE PARK AVENUE,GAITHERSBURG,MD,20878,BBWLHR855,On Premise,"PALADAR GAITHERSBURG, LLC","203 CROWNE PARK AVENUE
GAITHERSBURG, MD 20878
(39.114205, -77.205435)",1,71,25,3,21
BEST WESTERN MOTEL,1251 WEST MONTGOMERY AVE,ROCKVILLE,MD,20850,BBWLHM010,On Premise,ROCKVILLE MOTEL ASSOCIATES LLC,"1251 WEST MONTGOMERY AVE
ROCKVILLE, MD 20850
(39.088925, -77.177511)",1,71,25,3,12
LIVE CRAWFISH & SEAFOOD,765 ROCKVILLE PIKE SUITE FG,ROCKVILLE,MD,20852,BBWLHR32161,On Premise,"MARYLANDLIVECRAWFISH, LLC","765 ROCKVILLE PIKE SUITE FG
ROCKVILLE, MD 20852
(39.077779, -77.140579)",1,60,25,3,12
IL PORTO,245 MUDDY BRANCH ROAD,GAITHERSBURG,MD,20878,BBWLHR235,On Premise,"JCD,INC.","245 MUDDY BRANCH ROAD
GAITHERSBURG, MD 20878
(39.12818, -77.20873)",1,33,36,3,21
WILLOUGHBY MARKET,4515 WILLARD AVE,CHEVY CHASE,MD,20815,ABW175,Off Premise,CHAE UNG CHO,"4515 WILLARD AVE
CHEVY CHASE, MD 20815
(38.962274, -77.090302)",1,110,5,1,1
THE QUARRY HOUSE TAVERN,8401 GEORGIA AVE,SILVER SPRING,MD,20910,BBWLHR030,On Premise,"DOGBONE, LLC.","8401 GEORGIA AVE
SILVER SPRING, MD 20910
(38.993605, -77.026614)",1,3065,7,5,1
BOMBAY BISTRO,98 W. MONTGOMERY AVE,ROCKVILLE,MD,20850,HBW122,On Premise,BOMBAY BREEZE INTL. INC.,"98 W. MONTGOMERY AVE
ROCKVILLE, MD 20850
(39.084165, -77.154561)",1,71,25,3,12
TOKYO SUSHI,18301 LEAMAN FARM ROAD,GERMANTOWN,MD,20874,BBWHR142,On/Off-Premise,"ASIA CAFE 3, INC.","18301 LEAMAN FARM ROAD
GERMANTOWN, MD 20874
(39.158125, -77.278846)",1,39,39,2,1
TALLY HO RESTUARANT,9923 FALLS RD,POTOMAC,MD,20854,HBW22790,On Premise,TALLY HO,"9923 FALLS RD
POTOMAC, MD 20854
(39.018686, -77.208656)",1,53,20,1,1
29 CONVENIENCE MART,10755 COLESVILLE ROAD,SILVER SPRING,MD,20901,DBW32443,On/Off-Premise,A&I ENTERPRISE VI . INC,"10755 COLESVILLE ROAD
SILVER SPRING, MD 20901",,,,,
LOVE SUSHI,9031 GAITHER ROAD,GAITHERSBURG,MD,20877,HBW299,On Premise,"KAWA ENTERPRISE, INC","9031 GAITHER ROAD
GAITHERSBURG, MD 20877
(39.117527, -77.185268)",1,35,36,3,1
JOE'S NOODLE HOUSE,1488-C ROCKVILLE PIKE,ROCKVILLE,MD,20852,HBW21676,On Premise,YONG SHENG CORPORATION,"1488-C ROCKVILLE PIKE
ROCKVILLE, MD 20852
(39.065524, -77.126927)",1,60,25,3,12
SUSHI DAMO,"36 MARYLAND AVE, UNIT G",ROCKVILLE,MD,20850,BBWLHR427,On Premise,"DAMO DALCOM, INC.","36 MARYLAND AVE, UNIT G
ROCKVILLE, MD 20850
(39.085441, -77.15099)",1,71,25,3,12
LA MALINCHE,8622 COLESVILLE ROAD,SILVER SPRING,MD,20910,BBWLHR750,On Premise,"BSZ & BROTHERS, LLC","8622 COLESVILLE ROAD
SILVER SPRING, MD 20910
(38.99675, -77.027656)",1,3065,7,5,1
PASSION NAIL SPA - CLARKSBURG,"12051 CHESTNUT BRANCH WAY, C-2",CLARKSBURG,MD,20871,SBSBW0004,On Premise,"KCD NGUYEN II, LLC","12051 CHESTNUT BRANCH WAY, C-2
CLARKSBURG, MD 20871
(39.229719, -77.249405)",1,36,50,2,1
TRAPEZARIA MEDITERRANEAN KUZINA,11 NORTH WASHINGTON STREET,ROCKVILLE,MD,20850,BBWLHR793,On Premise,"SNF GROUP II, LLC.","11 NORTH WASHINGTON STREET
ROCKVILLE, MD 20850
(39.084711, -77.152924)",1,71,25,3,12
WONG GEE ASIAN RESTAURANT,"2417 UNIVERSITY BLVD, WEST",SILVER SPRING,MD,20902,BBWLHR509,On Premise,WONG GEE ASIAN RESTAURANT CORP,"2417 UNIVERSITY BLVD, WEST
SILVER SPRING, MD 20902
(39.041653, -77.05078)",1,17,16,4,1
JONATHANS A PUBLICK HOUSE,820 BALTIMORE ROAD,ROCKVILLE,MD,20851,BBWLHR082,On Premise,"MOONBURST INDUSTRIES, INC.","820 BALTIMORE ROAD
ROCKVILLE, MD 20851
(39.084444, -77.135199)",1,68,25,3,12
YU-ZHOU CAFE,576 NORTH FREDERICK AVE,GAITHERSBURG,MD,20877,HBW288,On Premise,LLDC GROUP INC.,"576 NORTH FREDERICK AVE
GAITHERSBURG, MD 20877
(39.149759, -77.208749)",1,35,36,3,21
NANDO'S PERI PERI,922 ROSE AVENUE,NORTH BETHESDA,MD,20852,BBWLHR34549,On Premise,"NANDO'S OF PIKE & ROSE, LLC","922 ROSE AVENUE
NORTH BETHESDA, MD 20852
(39.051083, -77.116289)",1,60,19,1,1
Q' VIVA COCINA & LOUNGE,2322 UNIVERSITY BLVD.,SILVER SPRING,MD,20902,BBWLHR29765,On Premise,"COLOMBIA 4, LLC","2322 UNIVERSITY BLVD.
SILVER SPRING, MD 20902
(39.041529, -77.049773)",1,17,16,4,1
MOD SUPER FAST PIZZA,909 ELLSWORTH DRIVE B-106,SILVER SPRING,MD,20910,BBWLHR21675,On Premise,"MOD SUPER FAST PIZZA, LLC","909 ELLSWORTH DRIVE B-106
SILVER SPRING, MD 20910
(38.995894, -77.026456)",1,3065,7,5,1
INFERNO PIZZERIA,12207 DARNESTOWN ROAD,GAITHERSBURG,MD,20878,HBW22015,On Premise,"PIZZERIA INFERNO, LLC","12207 DARNESTOWN ROAD
GAITHERSBURG, MD 20878
(39.118087, -77.25365)",1,33,28,3,1
MI LA CAY RESTAURANT,2409 UNIVERSITY BLVD,SILVER SPRING,MD,20902,HBW319,On Premise,MJEJ CORPORATION,"2409 UNIVERSITY BLVD
SILVER SPRING, MD 20902
(39.041677, -77.050401)",1,17,16,4,1
UNPLUGGED SPORT BAR & RESTAURANT,11305-C GEORGIA AVE,WHEATON,MD,20902,BBWLHR23147,On Premise,"UNPLUGGED SPORT BAR & REST., INC","11305-C GEORGIA AVE
WHEATON, MD 20902
(39.040455, -77.051352)",1,17,16,4,1
HOP N GRAPE,11416 ROCKVILLE PIKE,ROCKVILLE,MD,20852,ABWS26365,Off Premise,"HOP N GRAPE, INC","11416 ROCKVILLE PIKE
ROCKVILLE, MD 20852
(39.043105, -77.111104)",1,60,19,1,1
FRIENDSHIP GOURMET MARKET,5550 FRIENDSHIP BLVD,CHEVY CHASE,MD,20815,DBW082,On/Off-Premise,"TAAF, LLC","5550 FRIENDSHIP BLVD
CHEVY CHASE, MD 20815
(38.964038, -77.089536)",1,110,5,1,9
SPRING GARDEN RESTAURANT,1919 SEMINARY RD.,SILVER SPRING,MD,20910,BBWHR42564,On/Off-Premise,"SPRING GARDEN RESTAURANT, INC.","1919 SEMINARY RD.
SILVER SPRING, MD 20910
(39.008661, -77.041066)",1,3065,7,5,1
CANCUN MEXICAN CUISINE,117 EAST DIAMOND AVE,GAITHERSBURG,MD,20877,BBWLHR249,On Premise,"CANCUN MEXICAN CUISINE, INC.","117 EAST DIAMOND AVE
GAITHERSBURG, MD 20877
(39.142015, -77.19493)",1,35,36,3,21
LEBANESE TAVERNA CAFE - TOWN CENTER,"115 GIBBS STREET, UNIT A",ROCKVILLE,MD,20850,HBWHR434,On Premise,"LEBANESE TAVERNA ROCKVILLE, IN","115 GIBBS STREET, UNIT A
ROCKVILLE, MD 20850
(39.085724, -77.151962)",1,71,25,3,12
MELTING POT,9021 GAITHER ROAD,GAITHERSBURG,MD,20877,BBWLHR218,On Premise,BERK INC.,"9021 GAITHER ROAD
GAITHERSBURG, MD 20877
(39.117494, -77.184551)",1,35,36,3,1
OUTTA THE WAY CAFE,17503 REDLAND ROAD,DERWOOD,MD,20855,BBWLHR063,On Premise,REST. MNGMT. ACQ. INC.,"17503 REDLAND ROAD
DERWOOD, MD 20855
(39.143317, -77.144295)",1,51,36,3,1
BOWLERO BETHESDA,5353 WESTBARD AVE,BETHESDA,MD,20816,BBWLHR328,On Premise,WESTWOOD LANES LLC,"5353 WESTBARD AVE
BETHESDA, MD 20816
(38.963252, -77.106398)",1,107,12,1,1
BJ'S BEER & WINE,20032 GOSHEN RD.,GAITHERSBURG,MD,20879,ABW42099,Off Premise,"JEON GALAXY, INC.","20032 GOSHEN RD.
GAITHERSBURG, MD 20879
(39.186963, -77.187059)",1,28,38,2,1
LEDO PIZZA - WESTLAKE,10301 WESTLAKE DRIVE,BETHESDA,MD,20817,HBW011,On Premise,WESTLAKE DRIVE PIZZA INC.,"10301 WESTLAKE DRIVE
BETHESDA, MD 20817
(39.026246, -77.148052)",1,103,19,1,1
RAKU AN ASIAN DINER,7240 WOODMONT AVE,BETHESDA,MD,20814,BBWLHR263,On Premise,"D.G. HOLDINGS , INC.","7240 WOODMONT AVE
BETHESDA, MD 20814
(38.981724, -77.095966)",1,111,12,1,1
TIJUANA MEXICAN CAFE - ROCKVILLE,2007 VEIRS MILL ROAD,ROCKVILLE,MD,20851,BBWLHR255,On Premise,MARIO CORPORATION,"2007 VEIRS MILL ROAD
ROCKVILLE, MD 20851
(39.075307, -77.116859)",1,68,25,3,12
QUENCH! BEER & WINE,13423 NEW HAMPSHIRE AVE,SILVER SPRING,MD,20904,BDBWLHR1056030,On/Off-Premise,"BREW 1729, INC.","13423 NEW HAMPSHIRE AVE
SILVER SPRING, MD 20904
(39.07618, -77.001741)",1,12,26,5,1
LEDO PIZZA - WHEATON,"2638 UNIVERSITY BLVD, WEST",SILVER SPRING,MD,20902,HBW176,On Premise,SHRI CORPORATION,"2638 UNIVERSITY BLVD, WEST
SILVER SPRING, MD 20902
(39.040722, -77.053874)",1,17,16,4,1
PAUL KEE,"11305 GEORGIA AVE, UNIT B",SILVER SPRING,MD,20902,HBW300,On Premise,"CWL RESTUARANT, INC.","11305 GEORGIA AVE, UNIT B
SILVER SPRING, MD 20902
(39.040455, -77.051352)",1,17,16,4,1
BROOKVILLE EATERY,8921 BROOKVILLE ROAD,SILVER SPRING,MD,20910,ABW026,Off Premise,"BROOKVILLE EATERY ,INC.","8921 BROOKVILLE ROAD
SILVER SPRING, MD 20910
(39.002849, -77.052689)",1,3065,6,5,1
HUNAN CITY,9429 GEORGIA AVE,SILVER SPRING,MD,20910,DBW040,On/Off-Premise,YAN WING INC.,"9429 GEORGIA AVE
SILVER SPRING, MD 20910
(39.009334, -77.040481)",1,3065,7,5,1
SILVER SPRING HILTON HOTEL,8727 COLESVILLE ROAD,SILVER SPRING,MD,20910,BBWLHM017,On Premise,HOSPITALITY ASSOCIATES OF SS,"8727 COLESVILLE ROAD
SILVER SPRING, MD 20910
(38.998494, -77.026431)",1,3065,7,5,1
MEXICAN GRILL,19710-K FISHER AVE,POOLESVILLE,MD,20837,BBWLHR25584,On Premise,"MEXICAN GRILL, LLC","19710-K FISHER AVE
POOLESVILLE, MD 20837
(39.144824, -77.412219)",1,97,34,1,16
NANDO'S PERI PERI - SILVER SPRING,924 ELLSWORTH DRIVE,SILVER SPRING,MD,20910,BBWLHR606,On Premise,"NANDO'S OF SILVER SPRING, LLC","924 ELLSWORTH DRIVE
SILVER SPRING, MD 20910
(38.995783, -77.026588)",1,3065,7,5,1
WHITE OAK CONVENIENCE STORE,11407 LOCKWOOD DRIVE,SILVER SPRING,MD,20904,ABW159,Off Premise,WHITE OAK CONVENIENCE STORE,"11407 LOCKWOOD DRIVE
SILVER SPRING, MD 20904
(39.040692, -76.988397)",1,12,18,5,1
THE MARKET AT RIVER FALLS,10124 RIVER ROAD,POTOMAC,MD,20854,ABWS19213,Off Premise,"JAAT, INC.","10124 RIVER ROAD
POTOMAC, MD 20854
(39.017564, -77.208376)",1,53,20,1,1
ETCHISON COUNTRY STORE,7000 DAMASCUS ROAD,GAITHERSBURG,MD,20882,ABW118,Off Premise,ELK INCORPORATED,"7000 DAMASCUS ROAD
GAITHERSBURG, MD 20882
(39.25474, -77.143635)",1,29,46,4,1
THAI AT SILVER SPRING,"921 ELLSWORTH DRIVE, UNIT E",SILVER SPRING,MD,20910,BBWLHR056,On Premise,"JJNPP, INC.,","921 ELLSWORTH DRIVE, UNIT E
SILVER SPRING, MD 20910
(38.995973, -77.02637)",1,3065,7,5,1
SUGARLOAF WINE CELLAR,12955 WISTERIA DR,GERMANTOWN,MD,20874,DBW25768,On/Off-Premise,"VHVP GROUP, LLC","12955 WISTERIA DR
GERMANTOWN, MD 20874
(39.177264, -77.270689)",1,39,39,2,1
THAI TANIUM,657 CENTER POINT WAY,GAITHERSBURG,MD,20878,BBWLHR492,On Premise,"SUNNY & P.S, INC.","657 CENTER POINT WAY
GAITHERSBURG, MD 20878
(39.121987, -77.235615)",1,33,36,3,21
SHOPPERS FOOD WAREHOUSE,18066 MATENY ROAD,GERMANTOWN,MD,20874,DBW013,On/Off-Premise,SHOPPERS FOOD WAREHOUSE CORP.,"18066 MATENY ROAD
GERMANTOWN, MD 20874
(39.146999, -77.272673)",1,39,39,2,1
FUSION SPORTS BAR,15535 NEW HAMPSHIRE AVE,SILVER SPRING,MD,20905,BBWLHR37936,On Premise,"FUSION SPORTS BAR, LLC","15535 NEW HAMPSHIRE AVE
SILVER SPRING, MD 20905
(39.111457, -76.995333)",1,8,29,5,1
SMOKEY GLEN FARM BARBEQUERS INC,16407 RIFFLEFORD RD,GAITHERSBURG,MD,20878,BBWLHR221,On Premise,SMOKEY GLEN FARM BARBERQUERS I,"16407 RIFFLEFORD RD
GAITHERSBURG, MD 20878
(39.125858, -77.269342)",1,33,28,3,1
TERRAIN CAFE,7228 WOODMONT AVE,BETHESDA,MD,20814,BBWLHR36286,On Premise,"URBN Bethesda Row, LLC","7228 WOODMONT AVE
BETHESDA, MD 20814
(38.981319, -77.095581)",1,111,12,1,1
CASPIAN HOUSE OF KABOB,72 MARKET ST,GAITHERSBURG,MD,20878,HBW26446,On Premise,"CASPIAN CAFE, INC","72 MARKET ST
GAITHERSBURG, MD 20878
(39.123934, -77.234933)",1,33,36,3,21
IL FORNO II/METRO DHABA,8941 N WESTLAND DRIVE,GAITHERSBURG,MD,20877,HBW069,On Premise,JAI & NAYAR LLC,"8941 N WESTLAND DRIVE
GAITHERSBURG, MD 20877
(39.12842, -77.184375)",1,35,36,3,1
ADDIS BEER & WINE,730 SLIGO AVENUE,SILVER SPRING,MD,20910,ABW29872,Off Premise,"HOT, INC.","730 SLIGO AVENUE
SILVER SPRING, MD 20910
(38.990094, -77.019327)",1,3065,7,5,1
SPICE GRILL,12611-G WISTERIA DRIVE,GERMANTOWN,MD,20874,HBW346,On Premise,"INDIA GARDEN, INC","12611-G WISTERIA DRIVE
GERMANTOWN, MD 20874
(39.169931, -77.261662)",1,39,39,2,1
THE CHEESECAKE FACTORY,7101 DEMOCRACY BOULEVARD,BETHESDA,MD,20817,BBWLHR816,On Premise,"THE CHEESECAKE FACT. REST.,INC","7101 DEMOCRACY BOULEVARD
BETHESDA, MD 20817
(39.0242, -77.1459)",1,103,19,1,1
MAMMA LENA,13507 CLOPPER ROAD,GERMANTOWN,MD,20874,BBWHR24735,On/Off-Premise,"MAMMA LENA, LLC","13507 CLOPPER ROAD
GERMANTOWN, MD 20874
(39.161772, -77.280854)",1,39,39,2,1
BRETTON WOODS RECREATION CENTER,15700 RIVER ROAD,GERMANTOWN,MD,20874,CBWLCCO006,On Premise,"BRETTON WOODS REC. CENTER, INC","15700 RIVER ROAD
GERMANTOWN, MD 20874
(39.077899, -77.327158)",1,39,28,1,1
LOS CHORROS RESTAURANT,2420 BLUERIDGE AVE,SILVER SPRING,MD,20902,BBWLHR173,On Premise,BLUERIDGE 2420 INC.,"2420 BLUERIDGE AVE
SILVER SPRING, MD 20902
(39.043091, -77.051731)",1,17,16,4,1
MAKI MAKI SUSHI,8023 WISCONSIN AVE,BETHESDA,MD,20814,HBW224,On Premise,"JTL, LLC","8023 WISCONSIN AVE
BETHESDA, MD 20814
(38.991082, -77.095581)",1,111,12,1,1
COLUMBIA COUNTRY CLUB,7900 CONNECTICUT AVE,CHEVY CHASE,MD,20815,CBWLCC009,On Premise,COLUMBIA COUNTRY CLUB INC.,"7900 CONNECTICUT AVE
CHEVY CHASE, MD 20815
(38.989133, -77.077229)",1,110,5,1,1
MATCHBOX-SILVER SPRING,919 ELLSWORTH DRIVE,SILVER SPRING,MD,20910,BBWLHR42625,On Premise,"MATCHBOX SILVER SPRING, LLC","919 ELLSWORTH DRIVE
SILVER SPRING, MD 20910
(38.996048, -77.026287)",1,3065,7,5,1
OLAZZO,7921 NORFOLK AVE,BETHESDA,MD,20814,BBWLHR242,On Premise,LAZIOS INC,"7921 NORFOLK AVE
BETHESDA, MD 20814
(38.989243, -77.097801)",1,111,12,1,1
CHIPOTLE MEXICAN GRILL - KENTLANDS,96 MAIN STREET,GAITHERSBURG,MD,20878,BBWLHR541,On Premise,CHIPOTLE MEXICAN GRILL OF MARY,"96 MAIN STREET
GAITHERSBURG, MD 20878
(39.124759, -77.237169)",1,33,36,3,21
WINGSTOP - SILVER SPRING,13633 CONNECTICUT AVENUE,SILVER SPRING,MD,20906,HBWHR845,On Premise,"REDCOW POLITY IV, LLC","13633 CONNECTICUT AVENUE
SILVER SPRING, MD 20906
(39.078347, -77.080727)",1,58,61,4,1
EUROMART,"822 ROCKVILLE PIKE, UNIT C",ROCKVILLE,MD,20852,ABW39499,Off Premise,"EUROMART, LLC","822 ROCKVILLE PIKE, UNIT C
ROCKVILLE, MD 20852
(39.076729, -77.138761)",1,60,25,3,12
BLU WATER DAY SPA,5234 NICHOLSON LANE,KENSINGTON,MD,20895,SBSBW0002,On Premise,"CIRCLE P SPA, INC","5234 NICHOLSON LANE
KENSINGTON, MD 20895
(39.044983, -77.106071)",1,25,19,1,1
HAMPTON INN & SUITES,960 FREDERICK AVENUE,GAITHERSBURG,MD,20879,DBW153,On/Off-Premise,"MCC HOSPITALITY, LLC","960 FREDERICK AVENUE
GAITHERSBURG, MD 20879
(39.158191, -77.21856)",1,31,36,3,21
LUCKY STRIKE,7101 DEMOCRACY BOULEVARD,BETHESDA,MD,20817,BBWLHR27296,On Premise,"LUCKY STRIKE BETHESDA,LLC","7101 DEMOCRACY BOULEVARD
BETHESDA, MD 20817
(39.0242, -77.1459)",1,103,19,1,1
HOME2,1701 ELTON RD.,SILVER SPRING,MD,20903,DBW42859,On/Off-Premise,"HILLANDALE HOSPITALITY, LLC","1701 ELTON RD.
SILVER SPRING, MD 20903
(39.019802, -76.974201)",1,15,11,5,1
MELEKET ETHIOPIAN RESTAURANT,1907 SEMINARY ROAD,SILVER SPRING,MD,20910,BBWLHR27472,On Premise,MELEKET ETHIOPIAN RESTAURANT LLC,"1907 SEMINARY ROAD
SILVER SPRING, MD 20910
(39.008636, -77.04078)",1,3065,7,5,1
MONTGOMERY COUNTRY CLUB,20908 GOLF VIEW DRIVE,GAITHERSBURG,MD,20882,CBWLCC24652,On Premise,"EAGL BEVERAGE HOLDINGS, LLC","20908 GOLF VIEW DRIVE
GAITHERSBURG, MD 20882
(39.20027, -77.13373)",1,29,45,4,1
LEDO PIZZA - ROCKVILLE,10058 DARNESTOWN ROAD,ROCKVILLE,MD,20850,HBW133,On Premise,"DARNESTOWN ROAD PIZZA, INC.","10058 DARNESTOWN ROAD
ROCKVILLE, MD 20850
(39.096955, -77.206696)",1,71,25,3,1
THE OFFICE CAFE & LOUNGE,6860 OLNEY LAYTONSVILLE ROAD,LAYTONSVILLE,MD,20882,BBWLHR1059218,On Premise,"ATLANTIC DEVELOPMENT, LLC","6860 OLNEY LAYTONSVILLE ROAD
LAYTONSVILLE, MD 20882
(39.20494, -77.140368)",1,29,46,4,22
CORK 57 BEER & WINE,4910 BETHESDA AVE,BETHESDA,MD,20814,DBW102,On/Off-Premise,NONE,"4910 BETHESDA AVE
BETHESDA, MD 20814
(38.980817, -77.098948)",1,111,12,1,1
AMALFI RISTORANTE,12307 WILKINS AVE,ROCKVILLE,MD,20852,BBWLHR013,On Premise,AMALFI RISTORANTE ITALIANO INC,"12307 WILKINS AVE
ROCKVILLE, MD 20852
(39.057823, -77.112958)",1,60,19,4,1
FAR EAST RESTAURANT,5055 NICHOLSON LANE,ROCKVILLE,MD,20852,BBWLHR35232,On Premise,"KAIWEN, LLC","5055 NICHOLSON LANE
ROCKVILLE, MD 20852
(39.046029, -77.10409)",1,25,19,1,1
QUINCY'S BAR & GRILLE,616 QUINCE ORCHARD ROAD,GAITHERSBURG,MD,20878,BBWLHR536,On Premise,"COTY GROUP, LLC","616 QUINCE ORCHARD ROAD
GAITHERSBURG, MD 20878
(39.142232, -77.221095)",1,33,31,3,21
BISCOTTI RESTAURANT,7212 MUNCASTER MILL ROAD,DERWOOD,MD,20855,HBWHR34622,On Premise,"BISCOTTI RESTAURANT, LLC","7212 MUNCASTER MILL ROAD
DERWOOD, MD 20855
(39.146172, -77.145119)",1,51,36,4,1
BLACK'S BAR & KITCHEN,7750 WOODMONT AVE,BETHESDA,MD,20814,BBWLHR301,On Premise,"I.T.B., EIGHT,LLC","7750 WOODMONT AVE
BETHESDA, MD 20814",,,,,
RAINBOW SUSHI,18076 MATENY ROAD,GERMANTOWN,MD,20874,HBWHR34235,On Premise,"RAINBOW SUSHI ZYW, LLC","18076 MATENY ROAD
GERMANTOWN, MD 20874
(39.147115, -77.272407)",1,39,39,2,1
AFI SILVER THEATRE&CULTURAL CENTER,8633 COLESVILLE ROAD,SILVER SPRING,MD,20910,SBWLCPA1059463,On Premise,AMERICAN FILM INSTITUTE,"8633 COLESVILLE ROAD
SILVER SPRING, MD 20910
(38.996874, -77.027574)",1,3065,7,5,1
BACCHUS OF LEBANON,7945 NORFOLK AVE,BETHESDA,MD,20814,BBWLHR230,On Premise,"U.H.B., INC.","7945 NORFOLK AVE
BETHESDA, MD 20814
(38.989711, -77.098587)",1,111,12,1,1
LA ANTIGUA RESTAURANT,11260 GEORGIA AVE,SILVER SPRING,MD,20902,BBWLHR403,On Premise,"LA ANTIGUA RESTAURANT, INC.","11260 GEORGIA AVE
SILVER SPRING, MD 20902
(39.040157, -77.051423)",1,17,16,4,1
FAIRFIELD INN,20025 CENTURY BOULEVARD,GERMANTOWN,MD,20874,DBW158,On/Off-Premise,"HOSPITALITY SERVICES 2, LLC","20025 CENTURY BOULEVARD
GERMANTOWN, MD 20874
(39.184287, -77.260176)",1,39,39,2,1
BARKING MAD CAFE,239 SPECTRUM AVE,GAITHERSBURG,MD,20879,BBWLHR21715,On Premise,"RENEGADES COFFEE COMPANY, LLC","239 SPECTRUM AVE
GAITHERSBURG, MD 20879
(39.160211, -77.222137)",1,31,36,3,21
HOMEWOOD SUITES BY HILTON,805 RUSSELL AVENUE,GAITHERSBURG,MD,20879,BBWLHM220,On Premise,"ROCKVILLE LEGACY SERVICES, LLC","805 RUSSELL AVENUE
GAITHERSBURG, MD 20879
(39.155652, -77.210673)",1,31,36,3,21
WASHINGTON-ROCKVILLE ELKS #15,5 TAFT COURT,ROCKVILLE,MD,20850,CBWLFV019,On Premise,B.P.O. ELKS #15,"5 TAFT COURT
ROCKVILLE, MD 20850
(39.09562, -77.131637)",1,71,25,3,12
K TOWN BISTRO,3784 HOWARD AVE,KENSINGTON,MD,20895,BKBWHR002,On Premise,"K TOWN BISTRO, LLC","3784 HOWARD AVE
KENSINGTON, MD 20895
(39.027823, -77.074114)",1,25,15,1,6
GYROLAND,1701 ROCKVILLE PIKE SUITE B-3,ROCKVILLE,MD,20852,HBW32382,On Premise,"ROSO RESTAURANT, LLC","1701 ROCKVILLE PIKE SUITE B-3
ROCKVILLE, MD 20852
(39.061034, -77.123421)",1,60,25,3,12
PALISADES LOUNGE,8211 GEORGIA AVE,SILVER SPRING,MD,20910,BBWLHR33300,On Premise,PALISADES LOUNGE LLC,"8211 GEORGIA AVE
SILVER SPRING, MD 20910
(38.991998, -77.026541)",1,3065,7,5,1
SASUNS,7217 MUNCASTER MILL RD,DERWOOD,MD,20855,BBWHR28724,On/Off-Premise,"SASUNS, LLC","7217 MUNCASTER MILL RD
DERWOOD, MD 20855
(39.146258, -77.145305)",1,51,36,4,1
RED LOBSTER,8533 GEORGIA AVE,SILVER SPRING,MD,20910,BBWLHR355,On Premise,"RL MARYLAND, INC.","8533 GEORGIA AVE
SILVER SPRING, MD 20910
(38.995614, -77.027607)",1,3065,7,5,1
THE DISH & DRAM,10301 KENSINGTON PARKWAY,KENSINGTON,MD,20895,BKBWLHR26097,On Premise,"LEFTFORK, INC","10301 KENSINGTON PARKWAY
KENSINGTON, MD 20895
(39.024992, -77.071473)",1,25,15,1,6
"THE ROCKVILLE PIKE CRAFT BEER, WINE & MORE",1800 ROCKVILLE PIKE,ROCKVILLE,MD,20852,DBW32114,On/Off-Premise,"RAM RAM, LLC","1800 ROCKVILLE PIKE
ROCKVILLE, MD 20852
(39.059819, -77.122136)",1,60,25,1,12
NEW SILVER FOUNTAIN RESTAURANT,13533 CONNECTICUT AVE,SILVER SPRING,MD,20906,BBWLHR771,On Premise,"NEW SILVER FOUNTAIN, INC","13533 CONNECTICUT AVE
SILVER SPRING, MD 20906
(39.077337, -77.080765)",1,58,61,4,1
MANOR COUNTRY CLUB,14901 CARROLTON ROAD,ROCKVILLE,MD,20853,CBWLCC017,On Premise,"MANOR COUNTRY CLUB, INC.","14901 CARROLTON ROAD
ROCKVILLE, MD 20853
(39.100321, -77.086425)",1,58,61,3,1
GUAPO'S - RIO,9811 WASHINGTONIAN BLVD,GAITHERSBURG,MD,20878,BBWLHR243,On Premise,GUAPO'S III INC.,"9811 WASHINGTONIAN BLVD
GAITHERSBURG, MD 20878
(39.11537, -77.198222)",1,33,36,3,21
SUPER BOWL NOODLE HOUSE,785-G ROCKVILLE PIKE,ROCKVILLE,MD,20852,HBW328,On Premise,"SML NOODLE HOUSE, INC","785-G ROCKVILLE PIKE
ROCKVILLE, MD 20852
(39.077237, -77.139804)",1,60,25,3,12
EL POLLO REAL RESTAURANT,5058-C NICHOLSON LANE,ROCKVILLE,MD,20852,HBW21336,On Premise,"TRUJILLO-LIMA FOODS, LLC","5058-C NICHOLSON LANE
ROCKVILLE, MD 20852
(39.045828, -77.104364)",1,25,19,1,1
LEDO'S PIZZA COLESVILLE,13444 NEW HAMPSHIRE AVE,COLESVILLE,MD,20904,HBWHR28449,On Premise,"MHI HOTELS SERVICES, LLC","13444 NEW HAMPSHIRE AVE
COLESVILLE, MD 20904
(39.076644, -77.001854)",1,12,26,4,1
CAMPEON,902 MERRIMAC DRIVE,TAKOMA PARK,MD,20912,HBW321,On Premise,"CAMPEON, INC","902 MERRIMAC DRIVE
TAKOMA PARK, MD 20912
(38.992363, -76.992509)",1,15,4,5,11
HILTON GARDEN INN BETHESDA,7301 WAVERLY STREET,BETHESDA,MD,20814,BBWLHM023,On Premise,"BETHESDA HOTEL ASSOCIATES, LLC","7301 WAVERLY STREET
BETHESDA, MD 20814
(38.983212, -77.092275)",1,111,12,1,1
CHOICE MARKET,18700 WALKERS CHOICE ROAD,MONTGOMERY VILLAGE,MD,20886,ABW24171,Off Premise,"E AND F, INC","18700 WALKERS CHOICE ROAD
MONTGOMERY VILLAGE, MD 20886
(39.163498, -77.204355)",1,28,38,2,1
I ROCK KARAOKE LOUNGE,15964 SHADY GROVE ROAD,GAITHERSBURG,MD,20877,DBWL001,On Premise,"BRICKSTONE, LLC","15964 SHADY GROVE ROAD
GAITHERSBURG, MD 20877
(39.118792, -77.182787)",1,71,36,3,1
AMERICAN LEGION POST #171,"10201 LEWIS DRIVE, P.O. BOX 171",DAMASCUS,MD,20872,CBWLC20177,On Premise,DEPT. MD DAMASCUS AMER. LG. # 171,"10201 LEWIS DRIVE, P.O. BOX 171
DAMASCUS, MD 20872
(39.291297, -77.211356)",1,42,51,2,1
POTOMAC PIZZA,9812 FALLS ROAD,POTOMAC,MD,20854,HBWHR132,On Premise,"PIZZA ZONE OF POTOMAC, INC.","9812 FALLS ROAD
POTOMAC, MD 20854
(39.016816, -77.210319)",1,53,20,1,1
PRIME BEER & WINE,12842 NEW HAMPSHIRE AVE,SILVER SPRING,MD,20904,ABW33369,Off Premise,"FASOL PRIME, LLC","12842 NEW HAMPSHIRE AVE
SILVER SPRING, MD 20904
(39.065838, -77.000609)",1,12,26,4,1
EL GAVILAN RESTAURANT,8805 FLOWER AVE,SILVER SPRING,MD,20901,BBWLHR227,On Premise,ABY & ASSOCIATES LTD.,"8805 FLOWER AVE
SILVER SPRING, MD 20901
(38.999877, -77.00399)",1,21,8,5,1
AZUL BAR & GRILL,18749 NORTH FREDERICK ROAD,GAITHERSBURG,MD,20879,BBWLHR767,On Premise,SCUMV GROUP INC.,"18749 NORTH FREDERICK ROAD
GAITHERSBURG, MD 20879
(39.163477, -77.226134)",1,31,36,3,21
TRATTORIA SORRENTO,4930 CORDELL AVE,BETHESDA,MD,20814,BBWLHR177,On Premise,"SORRENTO, INC.","4930 CORDELL AVE
BETHESDA, MD 20814
(38.988553, -77.098916)",1,111,12,1,1
APPLEBEE'S,21048 FREDERICK ROAD,GERMANTOWN,MD,20876,BBWLHR645,On Premise,POTOMAC FAMILY DINING GROUP,"21048 FREDERICK ROAD
GERMANTOWN, MD 20876
(39.201846, -77.245619)",1,36,39,2,1
SAL'S ITALIAN KITCHEN,"7945 MACARTHUR BOULEVARD, #107",CABIN JOHN,MD,20818,BBWLHR867,On Premise,"CJ2, INC","7945 MACARTHUR BOULEVARD, #107
CABIN JOHN, MD 20818
(38.974709, -77.162774)",1,102,3,1,1
THE SPOT,255 NORTH WASHINGTON STREET,ROCKVILLE,MD,20850,BBWLHR36111,On Premise,"WL GROUP, LLC","255 NORTH WASHINGTON STREET
ROCKVILLE, MD 20850
(39.087059, -77.153033)",1,71,25,3,12
HOLLYWOOD EAST CAFE - WESTFIELD,"11160 VEIRS MILL ROAD, #1",SILVER SPRING,MD,20902,BBWLHR582,On Premise,"FOUR KINGS ENTERPRISES, INC.","11160 VEIRS MILL ROAD, #1
SILVER SPRING, MD 20902
(39.038321, -77.052915)",1,17,16,4,1
"BEER, WINE, & CO.",7029 WISCONSIN AVE,CHEVY CHASE,MD,20815,DBW22948,On/Off-Premise,"GOLDEN TRADE, LLC","7029 WISCONSIN AVE
CHEVY CHASE, MD 20815
(38.979887, -77.09198)",1,110,5,1,1
METHI INDIAN RESTAURANT,2509 UNIVERSITY BLVD W.,SILVER SPRING,MD,20902,HBWHR27735,On Premise,"AARAMVA, LLC","2509 UNIVERSITY BLVD W.
SILVER SPRING, MD 20902
(39.041487, -77.052064)",1,17,16,4,1
BETHESDA N. MARRIOTT HOTEL/CONF CTR,5701 MARINELLI ROAD,ROCKVILLE,MD,20852,BBWLHC001,On Premise,"MARRIOTT HOTEL SERVICES, INC.","5701 MARINELLI ROAD
ROCKVILLE, MD 20852
(39.046496, -77.115266)",1,60,19,1,1
HOLLYWOOD BALLROOM DANCE CENTER,2126 INDUSTRIAL PARKWAY,SILVER SPRING,MD,20904,DBWL1059072,On Premise,"HOLLYWOOD BALLROOM CENTER, INC.","2126 INDUSTRIAL PARKWAY
SILVER SPRING, MD 20904
(39.053915, -76.968991)",1,12,21,5,1
RINCON PERUANO,210 EAST DIAMOND AVENUE,GAITHERSBURG,MD,20877,BBWLHR25675,On Premise,RINCON PERUANO GAITHERSBURG LLC,"210 EAST DIAMOND AVENUE
GAITHERSBURG, MD 20877
(39.142132, -77.19394)",1,35,36,3,21
STATE LINE MARKET,7817 EASTERN AVE,SILVER SPRING,MD,20910,ABW229,Off Premise,"BAMLAK, LLC","7817 EASTERN AVE
SILVER SPRING, MD 20910
(38.98491, -77.026991)",,3065,,5,1
TURNTABLE,4862 CORDELL AVENUE,BETHESDA,MD,20814,BBWLHR841,On Premise,"TURNTABLE, LLC","4862 CORDELL AVENUE
BETHESDA, MD 20814
(38.989752, -77.09774)",1,111,12,1,1
GROVE BEER AND WINE,16825 CRABBS BRANCH WAY,DERWOOD,MD,20855,ABW199,Off Premise,AIMIE CORP.,"16825 CRABBS BRANCH WAY
DERWOOD, MD 20855
(39.130286, -77.16824)",1,51,36,3,1
SEASON'S 52,11414 ROCKVILLE PIKE,ROCKVILLE,MD,20852,BBWLHR638,On Premise,"GMR MONTGOMERY COUNTY, INC","11414 ROCKVILLE PIKE
ROCKVILLE, MD 20852
(39.042756, -77.110923)",1,60,19,1,1
GREEK VILLAGE RESTAURANT,13476 NEW HAMPSHIRE AVE,SILVER SPRING,MD,20904,BBWLHR295,On Premise,"GREEK VILLAGE RESTAURANT, INC.","13476 NEW HAMPSHIRE AVE
SILVER SPRING, MD 20904
(39.077081, -77.001785)",1,12,26,4,1
PIEOLOGY-GAITHERSBURG,15780 SHADY GROVE RD,GAITHERSBURG,MD,20877,HBW28410,On Premise,"MMM PIZZA I, LLC","15780 SHADY GROVE RD
GAITHERSBURG, MD 20877
(39.115912, -77.184819)",1,71,36,3,1
EL PAISANO,9112 ROTHBURY DRIVE,MONTGOMERY VILLAGE,MD,20886,BBWLHR214,On Premise,EL PAISANO INC.,"9112 ROTHBURY DRIVE
MONTGOMERY VILLAGE, MD 20886
(39.185376, -77.188252)",1,28,38,2,1
GERMANTOWN BEER & WINE,13046 MIDDLEBROOK RD #190,GERMANTOWN,MD,20874,DBW29418,On/Off-Premise,"FOR DC, INC.","13046 MIDDLEBROOK RD #190
GERMANTOWN, MD 20874
(39.1833, -77.271607)",1,39,39,2,1
BEMNET SUPERMARKET & DELI,617 SLIGO AVENUE,SILVER SPRING,MD,20910,BDBWLHR18176,On/Off-Premise,"BEMNET SUPERMARKET & DELI, LLC","617 SLIGO AVENUE
SILVER SPRING, MD 20910
(38.991185, -77.014067)",1,3065,7,5,1
TED'S BULLETIN,220 ELLINGTON BOULEVARD,GAITHERSBURG,MD,20878,BBWLHR33121,On Premise,"TB CROWN FARM, LLC","220 ELLINGTON BOULEVARD
GAITHERSBURG, MD 20878
(39.114618, -77.205394)",1,71,25,3,21
THE STANFORD GRILL,2000 TOWER OAKS BOULEVARD,ROCKVILLE,MD,20852,BBWLHR23452,On Premise,"TOWER OAKS REST HOLDINGS, LLC","2000 TOWER OAKS BOULEVARD
ROCKVILLE, MD 20852
(39.066282, -77.153935)",1,60,25,3,12
GISELE'S CREOLE CUISINE,2407 PRICE AVENUE,SILVER SPRING,MD,20902,BBWLHR29873,On Premise,"GISELE'S CREOLE CUISINE, LLC","2407 PRICE AVENUE
SILVER SPRING, MD 20902
(39.040242, -77.050704)",1,17,16,4,1
LA FRONTERA RESTAURANT,3 RUSSELL AVE,GAITHERSBURG,MD,20877,BBWLHR604,On Premise,LA FRONTERA RESTAURANT INC.,"3 RUSSELL AVE
GAITHERSBURG, MD 20877
(39.142375, -77.196515)",1,35,36,3,21
MARRIOTT HOTEL - BETHESDA,5151 POOKS HILL ROAD,BETHESDA,MD,20814,BBWLHM002,On Premise,MARRIOTT CORPORATION,"5151 POOKS HILL ROAD
BETHESDA, MD 20814
(39.01505, -77.103852)",1,111,12,1,1
REDMILL MARKET BEER & WINE,7248 MUNCASTER MILL ROAD,DERWOOD,MD,20855,DBW090,On/Off-Premise,"SR GROUP, INC.","7248 MUNCASTER MILL ROAD
DERWOOD, MD 20855
(39.146431, -77.145579)",1,51,36,4,1
OLD TOWN MARKET,10251 KENSINGTON PARKWAY,KENSINGTON,MD,20895,ABWS243,Off Premise,"COOPERSMITH, INC","10251 KENSINGTON PARKWAY
KENSINGTON, MD 20895
(39.022263, -77.071885)",1,25,15,1,6
CLYDE'S TOWER OAKS LODGE,2 PRESERVE PARKWAY,ROCKVILLE,MD,20852,BBWLHR339,On Premise,CLYDE'S TOWER OAKS LODGE LLC,"2 PRESERVE PARKWAY
ROCKVILLE, MD 20852
(39.06328, -77.150735)",1,60,25,3,12
VACE,4705 MILLER AVE,BETHESDA,MD,20814,ABW136,Off Premise,VACE INC.,"4705 MILLER AVE
BETHESDA, MD 20814
(38.980566, -77.093118)",1,110,12,1,1
YOUNG GOURMET BEER & WINE,3422 OLNEY LAYTONSVILLE ROAD,OLNEY,MD,20832,ABW247,Off Premise,"JAEJUNG FAMILY, INC","3422 OLNEY LAYTONSVILLE ROAD
OLNEY, MD 20832
(39.153867, -77.068325)",1,100,58,4,1
VILLAGE BEER & WINE - POOLESVILLE,"19710 FISHER AVE, UNIT G",POOLESVILLE,MD,20837,ABW238,Off Premise,"MANAKAMANA, INC.","19710 FISHER AVE, UNIT G
POOLESVILLE, MD 20837
(39.144824, -77.412219)",1,97,34,1,16
CUBANO'S,1201 FIDLER LANE,SILVER SPRING,MD,20910,BBWLHR028,On Premise,WICHO & WICHO,"1201 FIDLER LANE
SILVER SPRING, MD 20910
(38.996013, -77.029899)",1,3065,7,5,1
EAST GRILL KARAOKE,12 N. WASHINGTON ST,ROCKVILLE,MD,20850,BBWLHR26237,On Premise,"EAST GRILL KARAOKE, LLC","12 N. WASHINGTON ST
ROCKVILLE, MD 20850
(39.084383, -77.152911)",1,71,25,3,12
ROSSMOOR LEISURE WORLD,3700 ROSSMOOR BLVD,SILVER SPRING,MD,20906,CBWLCC001,On Premise,"MARYLAND CLUBHOUSE SERV., INC.","3700 ROSSMOOR BLVD
SILVER SPRING, MD 20906
(39.100949, -77.074635)",1,6,62,3,1
HOUSE OF POOLESVILLE,19611 FISHER AVE,POOLESVILLE,MD,20837,BBWLHR480,On Premise,"HOUSE OF POOLESVILLE,LLC","19611 FISHER AVE
POOLESVILLE, MD 20837
(39.144201, -77.409838)",1,97,34,1,16
ROYAL INDIAN CUISINE,15504 OLD COLUMBIA PIKE,BURTONSVILLE,MD,20866,HBWHR41480,On Premise,"SUNRISE, LLC","15504 OLD COLUMBIA PIKE
BURTONSVILLE, MD 20866
(39.109735, -76.93483)",1,47,30,5,1
"HOLLYWOOD BEER, WINE & DELI",12703 NEW HAMPSHIRE AVE,SILVER SPRING,MD,20904,ABW031,Off Premise,"DYO ENTERPRISES,INC.","12703 NEW HAMPSHIRE AVE
SILVER SPRING, MD 20904
(39.064379, -76.999472)",1,12,26,5,1
CHAPEL BEER & WINE,19737 FREDERICK RD,GERMANTOWN,MD,20876,ABW25734,Off Premise,"ROSARY BEER & WINE, INC","19737 FREDERICK RD
GERMANTOWN, MD 20876
(39.179247, -77.238389)",1,36,39,2,1
WOODMONT MARKET,"8227 WOODMONT AVE, UNIT A",BETHESDA,MD,20814,ABW213,Off Premise,"WOODMONT MARKET, INC.","8227 WOODMONT AVE, UNIT A
BETHESDA, MD 20814
(38.992144, -77.09693)",1,111,12,1,1
A.C. GRILL,293 MUDDY BRANCH ROAD,GAITHERSBURG,MD,20878,BBWLHR31868,On Premise,A.C. GRILL INC.,"293 MUDDY BRANCH ROAD
GAITHERSBURG, MD 20878
(39.127601, -77.209722)",1,33,31,3,1
RUAN THAI,11407 AMHERST AVE,SILVER SPRING,MD,20902,HBW004,On Premise,RUAN THAI RESTAURANT INC.,"11407 AMHERST AVE
SILVER SPRING, MD 20902
(39.041789, -77.048071)",1,17,16,4,1
AMERICAN LEGION POST #86,2013 VEIRS MILL ROAD,ROCKVILLE,MD,20851,CBWLFV016,On Premise,"HENDERSON-SMITH-EDMONDS#86, INC","2013 VEIRS MILL ROAD
ROCKVILLE, MD 20851
(39.07539, -77.117174)",1,68,25,3,12
GRAPE EXPECTATIONS,20207 GOSHEN ROAD,GAITHERSBURG,MD,20879,DBW086,On/Off-Premise,"LUVANDY NARA, INC.","20207 GOSHEN ROAD
GAITHERSBURG, MD 20879
(39.188259, -77.186375)",1,28,38,2,1
ROSE'S ONE STOP GIFT SHOP,961 BONIFANT ST,SILVER SPRING,MD,20910,ABW23473,Off Premise,"ROSE'S ONE STOP GIFT SHOP, LLC","961 BONIFANT ST
SILVER SPRING, MD 20910
(38.993578, -77.026008)",1,3065,7,5,1
GROSVENOR MARKET,"10401 GROSVENOR PLACE, SUITE 2",ROCKVILLE,MD,20852,ABW010,Off Premise,GROSVENOR MARKET INC.,"10401 GROSVENOR PLACE, SUITE 2
ROCKVILLE, MD 20852
(39.025726, -77.103762)",1,60,19,1,1
TASTE OF EUROPE,630 QUINCE ORCHARD RD.,GAITHERSBURG,MD,20878,ABW41666,Off Premise,"TASTE OF EUROPE ENTERPRISES, INC.","630 QUINCE ORCHARD RD.
GAITHERSBURG, MD 20878
(39.141949, -77.221189)",1,33,31,3,21
FISH TACO OF BETHESDA,10305 OLD GEORGETOWN ROAD,BETHESDA,MD,20814,BBWLHR24030,On Premise,"FISH TACO OF BETHESDA, INC","10305 OLD GEORGETOWN ROAD
BETHESDA, MD 20814
(39.024851, -77.125197)",1,111,12,1,1
NANDO'S PERI PERI - GAITHERSBURG,224 BOARDWALK PLACE,GAITHERSBURG,MD,20878,BBWLHR666,On Premise,"NANDO'S OF GAITHERSBURG, LLC","224 BOARDWALK PLACE
GAITHERSBURG, MD 20878
(39.116804, -77.198364)",1,33,36,3,21
EL SITIO RESTAURANT,8210 PINEY BRANCH ROAD,SILVER SPRING,MD,20910,BBWLHR437,On Premise,"J.B. MARTINEZ, INC.","8210 PINEY BRANCH ROAD
SILVER SPRING, MD 20910
(38.993165, -77.009355)",1,3065,7,5,1
ASI ES MI TIERRA,2559 ENNALLS AVE,SILVER SPRING,MD,20902,BBWLHR652,On Premise,"ASI ES MI TIERRA, LLC","2559 ENNALLS AVE
SILVER SPRING, MD 20902
(39.039576, -77.053982)",1,17,16,4,1
KIN DA,6923 LAUREL AVENUE,TAKOMA PARK,MD,20912,HBW19789,On Premise,"PRASOBSUK, INC.","6923 LAUREL AVENUE
TAKOMA PARK, MD 20912
(38.97404, -77.01264)",1,3062,4,5,11
"GLENMONT BEER, WINE & DELI",12351 GEORGIA AVE,SILVER SPRING,MD,20906,ABW176,Off Premise,"JYL,INC.","12351 GEORGIA AVE
SILVER SPRING, MD 20906
(39.059317, -77.050221)",1,6,23,4,1
RED BOWL,12051 C-4 CHESTNUT BRANCH WAY,CLARKSBURG,MD,20871,BBWLHR20257,On Premise,"RED BOWL OF CLARKSBURG, INC","12051 C-4 CHESTNUT BRANCH WAY
CLARKSBURG, MD 20871
(39.229719, -77.249405)",1,36,50,2,1
SEVEN-ELEVEN STORE,14101 GEORGIA AVE.,SILVER SPRING,MD,20906,ABW100,Off Premise,MCMAHON-DENT INC.,"14101 GEORGIA AVE.
SILVER SPRING, MD 20906
(39.085127, -77.078328)",1,58,59,4,1
ZEN ASIAN GRILL SUSHI,15602 OLD COLUMBIA PIKE,BURTONSVILLE,MD,20866,BBWLHR654,On Premise,ZEN-AN CORPORATION,"15602 OLD COLUMBIA PIKE
BURTONSVILLE, MD 20866
(39.111148, -76.932951)",1,47,30,5,1
YURAKU JAPANESE RESTAURANT,19773 FREDERICK RD.,GERMANTOWN,MD,20876,BBWLHR41059,On Premise,"LOVEGOD123, INC.","19773 FREDERICK RD.
GERMANTOWN, MD 20876
(39.179702, -77.238362)",1,36,39,2,1
KNIGHTS OF COLUMBUS #2169,9707 ROSENSTEEL AVE,SILVER SPRING,MD,20910,CBWLFV007,On Premise,FATHER ROSENSTEEL KNIGHTS OF COLUMBUS CLUBHOUSE ASSOCIATION,"9707 ROSENSTEEL AVE
SILVER SPRING, MD 20910
(39.015851, -77.050817)",1,3065,10,5,1
SHEGER SPRING CAFE,900 SILVER SPRING AVENUE,SILVER SPRING,MD,20910,BBWLHR21274,On Premise,"SHEGER SPRING CAFE, LLC","900 SILVER SPRING AVENUE
SILVER SPRING, MD 20910
(38.991699, -77.024028)",1,3065,7,5,1
CAVA MEZZE-OLNEY,3124 OLNEY SANDY SPRING RD,OLNEY,MD,20832,BBWLHR22697,On Premise,"DTI 108, LLC","3124 OLNEY SANDY SPRING RD
OLNEY, MD 20832
(39.151557, -77.063751)",1,100,58,4,1
OLD TOWN POUR HOUSE,212 ELLINGTON BOULEVARD,GAITHERSBURG,MD,20878,BBWLHR18725,On Premise,"BOTTLENECK DTC, LLC","212 ELLINGTON BOULEVARD
GAITHERSBURG, MD 20878
(39.114995, -77.204899)",1,71,25,3,21
LA BAMBA,8241 GEORGIA AVENUE,SILVER SPRING,MD,20910,BBWLHR34014,On Premise,"LA BAMBA RESTAURANT, INC.","8241 GEORGIA AVENUE
SILVER SPRING, MD 20910
(38.992822, -77.026558)",1,3065,7,5,1
PASSAGE TO INDIA,4931 CORDELL AVE,BETHESDA,MD,20814,BBWLHR368,On Premise,PASSAGE TO INDIA INC.,"4931 CORDELL AVE
BETHESDA, MD 20814",,,,,
TARA THAI - ROCKVILLE,12071 ROCKVILLE PIKE,ROCKVILLE,MD,20852,BBWLHR164,On Premise,"AQUATIC THAI, INC.","12071 ROCKVILLE PIKE
ROCKVILLE, MD 20852
(39.05493, -77.118027)",1,60,19,1,1
ALL SET,8630 FENTON STREET,SILVER SPRING,MD,20910,BBWLHR18690,On Premise,"ALL SET HOSPITALITY, LLC","8630 FENTON STREET
SILVER SPRING, MD 20910
(38.998159, -77.028188)",1,3065,7,5,1
VICINO RISTORANTE ITALIANO,959 SLIGO AVE,SILVER SPRING,MD,20910,HBW032,On Premise,"VICINO RISTORANTE ITALIANO, IN","959 SLIGO AVE
SILVER SPRING, MD 20910
(38.990252, -77.025705)",1,3065,7,5,1
MARYVALE MARKET,500 NORTH HORNERS LANE,ROCKVILLE,MD,20850,ABW072,Off Premise,MARYVALE MARKET INC.,"500 NORTH HORNERS LANE
ROCKVILLE, MD 20850
(39.09096, -77.14347)",1,71,25,3,12
VISARTS,"155 GIBBS STREET, SUITE 300",ROCKVILLE,MD,20850,SBWLCPA01,On Premise,METROPOLITAN CENTER FOR THE VI,"155 GIBBS STREET, SUITE 300
ROCKVILLE, MD 20850
(39.086509, -77.151981)",1,71,25,3,12
INSPIRE NAILS BAR & SPA,8010 GRAMERCY BLVD.,ROCKVILLE,MD,20855,SBSBW32720,On Premise,"INSPIRE NAIL BAR AND SPA, INC.","8010 GRAMERCY BLVD.
ROCKVILLE, MD 20855
(39.124098, -77.164646)",1,51,36,3,1
FOUND. FOR ADV. EDUC. IN SCIENCES,9101 OLD GEORGETOWN ROAD,BETHESDA,MD,20814,CBWLFV003,On Premise,FOUNDATION FOR ADV. EDUC. IN T,"9101 OLD GEORGETOWN ROAD
BETHESDA, MD 20814
(39.004943, -77.110797)",1,111,12,1,1
MEDIUM RARE,4904 FAIRMONT AVE,BETHESDA,MD,20814,BBWLHR25766,On Premise,"MEDIUM RARE BETHESDA, LLC","4904 FAIRMONT AVE
BETHESDA, MD 20814
(38.987839, -77.097231)",1,111,12,1,1
THE THAI CUISINE RESTAURANT,757 HUNGERFORD DRIVE,ROCKVILLE,MD,20850,HBW285,On Premise,THE THAI CUISINE RESTAURANT 20,"757 HUNGERFORD DRIVE
ROCKVILLE, MD 20850
(39.093247, -77.15334)",1,71,25,3,12
TED'S MONTANA GRILL,105 ELLINGTON BOULEVARD,GAITHERSBURG,MD,20878,BBWLHR21344,On Premise,"TMG OF GAITHERSBURG, LLC","105 ELLINGTON BOULEVARD
GAITHERSBURG, MD 20878
(39.115662, -77.20406)",1,71,25,3,21
ISLAND PRIDE OASIS,617 S. FREDERICK AVENUE,GAITHERSBURG,MD,20877,BBWLHR28015,On Premise,"ISLAND PRIDE OASIS, LLC","617 S. FREDERICK AVENUE
GAITHERSBURG, MD 20877
(39.128635, -77.185698)",1,35,36,3,21
PERSIMMON,7003 WISCONSIN AVE,CHEVY CHASE,MD,20815,BBWLHR329,On Premise,UNIQUE ASSET LLC,"7003 WISCONSIN AVE
CHEVY CHASE, MD 20815
(38.979385, -77.091719)",1,110,5,1,1
BRADLEY FOOD & BEVERAGE,6904 ARLINGTON ROAD,BETHESDA,MD,20814,DBW130,On/Off-Premise,"BRADLEY FOOD & BEVERAGE, INC.","6904 ARLINGTON ROAD
BETHESDA, MD 20814
(38.978742, -77.09873)",1,111,12,1,1
SHUVAM BEER AND WINE,10313 WESTLAKE DRIVE,BETHESDA,MD,20817,ABWS40709,Off Premise,"NARAYAN PUJJA, LLC","10313 WESTLAKE DRIVE
BETHESDA, MD 20817
(39.026357, -77.147965)",1,103,19,1,1
BEER & WINE INTERNATIONAL,"4011 NORBECK ROAD, UNIT B",ROCKVILLE,MD,20853,ABWS218,Off Premise,"AKSHAT, LLC","4011 NORBECK ROAD, UNIT B
ROCKVILLE, MD 20853
(39.109481, -77.077694)",1,58,60,4,1
FRANKLY...PIZZA!,10417 ARMORY AVENUE,KENSINGTON,MD,20895,BKBWHR005,On Premise,"FRANKLY...FOOD, LLC","10417 ARMORY AVENUE
KENSINGTON, MD 20895
(39.027464, -77.07479)",1,25,15,1,6
KINGSVIEW BEER & WINE,13406 KINGSVIEW VILLAGE AVENUE,GERMANTOWN,MD,20874,ABWS172,Off Premise,3U CORPORATION,"13406 KINGSVIEW VILLAGE AVENUE
GERMANTOWN, MD 20874
(39.160451, -77.279509)",1,39,39,2,1
HOUSE OF MILAE,4932 SAINT ELMO AVENUE,BETHESDA,MD,20814,BBWLHR326,On Premise,"LYON & MILAE, LLC","4932 SAINT ELMO AVENUE
BETHESDA, MD 20814
(38.988003, -77.09826)",1,111,12,1,1
SIRIWAN THAI RESTUARANT,12115 DARNESTOWN RD,GAITHERSBURG,MD,20878,HBW26242,On Premise,"SIRIWAN M.X.B., LLC","12115 DARNESTOWN RD
GAITHERSBURG, MD 20878
(39.117441, -77.251178)",1,33,36,3,1
LA CANELA,141 GIBBS STREET,ROCKVILLE,MD,20850,BBWLHR281,On Premise,MASHA CORP II,"141 GIBBS STREET
ROCKVILLE, MD 20850
(39.086442, -77.15198)",1,71,25,3,12
FIRE STATION 1 RESTAURANT,8131 GEORGIA AVENUE,SILVER SPRING,MD,20910,BBWLHR36494,On Premise,"FS1SSMD, LLC","8131 GEORGIA AVENUE
SILVER SPRING, MD 20910
(38.99147, -77.026546)",1,3065,7,5,1
LAREDO GRILLE,347 MUDDY BRANCH ROAD,GAITHERSBURG,MD,20878,BBWLHR258,On Premise,LAREDO GRILLE INC.,"347 MUDDY BRANCH ROAD
GAITHERSBURG, MD 20878
(39.126943, -77.210602)",1,33,31,3,1
TOKYO FIRE,9811 MAIN ST,DAMASCUS,MD,20872,HBW24576,On Premise,TOKYO FIRE INC,"9811 MAIN ST
DAMASCUS, MD 20872
(39.28805, -77.202898)",1,42,51,2,1
MARK'S KITCHEN,7006 CARROLL AVE,TAKOMA PARK,MD,20912,HBW243,On Premise,"MARK'S KITCHEN, LLC","7006 CARROLL AVE
TAKOMA PARK, MD 20912
(38.974847, -77.01194)",1,3062,4,5,11
PHOTO PRESS ART,914 EAST WEST HIGHWAY,TAKOMA PARK,MD,20912,DBW21340,On/Off-Premise,PHOTOPRESS ART LLC,"914 EAST WEST HIGHWAY
TAKOMA PARK, MD 20912
(38.975449, -76.992684)",,3062,,5,11
LEGENDS CAFE,11317 ELKIN STREET,SILVER SPRING,MD,20902,BBWLHR150,On Premise,"MEGA 112,INC.","11317 ELKIN STREET
SILVER SPRING, MD 20902
(39.040865, -77.050374)",1,17,16,4,1
"TIGER BEER, WINE & DELI",303 NORTH WASHINGTON STREET,ROCKVILLE,MD,20850,ABWS123,Off Premise,"J.E.N., INC.","303 NORTH WASHINGTON STREET
ROCKVILLE, MD 20850
(39.089034, -77.153717)",1,71,25,3,12
GIUSEPPI'S PIZZA PLUS - ROCKVILLE,"199 EAST MONTGOMERY AVE, UNIT L",ROCKVILLE,MD,20850,HBW097,On Premise,"SPENSCO, INC.","199 EAST MONTGOMERY AVE, UNIT L
ROCKVILLE, MD 20850
(39.084083, -77.150357)",1,71,25,3,12
MISSION BBQ,885 ROCKVILLE PIKE,ROCKVILLE,MD,20852,HBW27623,On Premise,"MISSION BBQ ROCKVILLE, LLC","885 ROCKVILLE PIKE
ROCKVILLE, MD 20852
(39.075143, -77.136801)",1,60,25,3,12
HINODE RESTAURANT,134 CONGRESSIONAL LANE,ROCKVILLE,MD,20852,HBW168,On Premise,"K.K. SUSHI, INC.","134 CONGRESSIONAL LANE
ROCKVILLE, MD 20852
(39.063621, -77.127231)",1,60,25,3,12
ASPEN HILL RACQUET CLUB,14501 HOMECREST ROAD,SILVER SPRING,MD,20906,DBW010,On/Off-Premise,"ASPEN HILL TENNIS, INC.","14501 HOMECREST ROAD
SILVER SPRING, MD 20906
(39.094642, -77.061802)",1,6,59,4,1
COPPER CANYON GRILL- SILVER SPRING,928 ELLSWORTH DRIVE,SILVER SPRING,MD,20910,BBWLHR079,On Premise,"RED ROCK CANYON GRILL, LLC","928 ELLSWORTH DRIVE
SILVER SPRING, MD 20910
(38.995506, -77.026918)",1,3065,7,5,1
MAMMA LUCIA - SILVER SPRING,1302 EAST-WEST HIGHWAY,SILVER SPRING,MD,20910,BBWLHR386,On Premise,"IMOSS, INC.","1302 EAST-WEST HIGHWAY
SILVER SPRING, MD 20910
(38.992798, -77.031553)",1,3065,7,5,1
FONTINA GRILLE,801 PLEASANT DRIVE,ROCKVILLE,MD,20850,BBWLHR520,On Premise,"HIBA, LLC","801 PLEASANT DRIVE
ROCKVILLE, MD 20850
(39.113827, -77.171336)",1,71,25,3,12
GRAND FUSION,350 FORTUNE TERRACE,ROCKVILLE,MD,20854,HBW025,On Premise,"KYS ENTERPRISES, INC.","350 FORTUNE TERRACE
ROCKVILLE, MD 20854
(39.061979, -77.15774)",1,53,20,3,1
PASSION NAIL SPA - GERMANTOWN,19847-H CENTURY BOULEVARD,GERMANTOWN,MD,20874,SBSBW0003,On Premise,"KDC NGUYEN, LLC","19847-H CENTURY BOULEVARD
GERMANTOWN, MD 20874
(39.182012, -77.265319)",1,39,39,2,1
TAIPEI TOKYO,"14921 SHADY GROVE ROAD, UNIT D",ROCKVILLE,MD,20850,BBWLHR021,On Premise,"YUNG LONG, INC.","14921 SHADY GROVE ROAD, UNIT D
ROCKVILLE, MD 20850
(39.098029, -77.193482)",1,71,25,3,1
COASTAL FLATS,135 CROWN PARK AVENUE,GAITHERSBURG,MD,20878,BBWLHR853,On Premise,COASTAL FLATS - CROWN,"135 CROWN PARK AVENUE
GAITHERSBURG, MD 20878
(39.114382, -77.206)",1,71,25,3,21
HOUSE OF FOONG LIN,4613 WILLOW LANE,CHEVY CHASE,MD,20815,BBWLHR775,On Premise,"CFK, LLC","4613 WILLOW LANE
CHEVY CHASE, MD 20815
(38.98146, -77.092079)",1,111,5,1,1
FIVE STAR PREMIER RESIDENCES OF CC,8100 CONNECTICUT AVE,CHEVY CHASE,MD,20815,BBWLHR693,On Premise,"FVE MANAGERS, INC.","8100 CONNECTICUT AVE
CHEVY CHASE, MD 20815
(38.992424, -77.077252)",1,110,5,1,1
POTOMAC PIZZA - CHEVY CHASE,19 WISCONSIN CIRCLE,CHEVY CHASE,MD,20815,HBWHR411,On Premise,"PIZZA ZONE OF CHEVY CHASE, INC","19 WISCONSIN CIRCLE
CHEVY CHASE, MD 20815
(38.962056, -77.085638)",1,110,5,1,1
UMBERTO'S-OLNEY,5500 OLNEY LAYTONSVILLE ROAD,OLNEY,MD,20832,BBWLHR26637,On Premise,"ITALIAN RESTAURANT CARRYOUT, INC","5500 OLNEY LAYTONSVILLE ROAD
OLNEY, MD 20832
(39.182965, -77.110181)",1,51,45,4,1
GIANT FOOD STORE 350,11221 NEW HAMPSHIRE AVE,SILVER SPRING,MD,20901,ABWS1061476,Off Premise,GIANT OF MARYLAND LLC,"11221 NEW HAMPSHIRE AVE
SILVER SPRING, MD 20901
(39.040819, -76.991009)",1,12,18,5,1
BOCA BOTANA'S,239 MUDDY BRANCH ROAD,GAITHERSBURG,MD,20878,BBWLHR21334,On Premise,BOCA BOTANA'S INC,"239 MUDDY BRANCH ROAD
GAITHERSBURG, MD 20878
(39.128283, -77.208631)",1,33,36,3,21
BB.Q CHICKEN & BEER,9712 TRAVILLE GATEWAY DRIVE,ROCKVILLE,MD,20850,BBWLHR40879,On Premise,"J&K ENTERTAINMENT, INC.","9712 TRAVILLE GATEWAY DRIVE
ROCKVILLE, MD 20850
(39.091562, -77.204036)",1,71,24,3,1
LESAAC CAFE,8200 FENTON STREET,SILVER SPRING,MD,20910,BBWLHR708,On Premise,LESAAC INC.,"8200 FENTON STREET
SILVER SPRING, MD 20910
(38.991907, -77.024037)",1,3065,7,5,1
GEMELLI'S ITALIAN MARKET,12169 DARNESTOWN ROAD,GAITHERSBURG,MD,20878,DBW151,On/Off-Premise,"M AND M CALCAGNO, LLC","12169 DARNESTOWN ROAD
GAITHERSBURG, MD 20878
(39.117547, -77.251496)",1,33,36,3,1
MANOLI CANOLI,8540 CONNECTICUT AVE,CHEVY CHASE,MD,20815,BBWLHR376,On Premise,"MANOLI CANOLI, LLC","8540 CONNECTICUT AVE
CHEVY CHASE, MD 20815
(38.995372, -77.077257)",1,110,5,1,1
GREEN BAMBOO ASIAN BISTRO,"5751 FISHERS LANE, UNIT F",ROCKVILLE,MD,20852,BBWLHR656,On Premise,"YEUNG ENTERPRISE, LLC","5751 FISHERS LANE, UNIT F
ROCKVILLE, MD 20852
(39.062752, -77.117617)",1,60,19,4,12
EL MARIACHI,765 ROCKVILLE PIKE,ROCKVILLE,MD,20852,BBWLHR151,On Premise,"TIO RESTAURANTER, INC.","765 ROCKVILLE PIKE
ROCKVILLE, MD 20852
(39.077779, -77.140579)",1,60,25,3,12
ALFIO'S,4515 WILLARD AVENUE,CHEVY CHASE,MD,20815,BBWLHR830,On Premise,"ALFIO'S, LLC","4515 WILLARD AVENUE
CHEVY CHASE, MD 20815
(38.962274, -77.090302)",1,110,5,1,1
THE GREENE TURTLE,15660 OLD COLUMBIA PIKE,BURTONSVILLE,MD,20866,BBWLHR41479,On Premise,"GT BURTONSVILLE 19, LLC","15660 OLD COLUMBIA PIKE
BURTONSVILLE, MD 20866
(39.112047, -76.932571)",1,47,30,5,1
WOODSIDE DELI II,13048 MIDDLEBROOK ROAD,GERMANTOWN,MD,20874,HBW250,On Premise,ZKB CORPORATION,"13048 MIDDLEBROOK ROAD
GERMANTOWN, MD 20874
(39.183335, -77.271684)",1,39,39,2,1
LA FONDA PAISA & GROCERY STORE,7914 GEORGIA AVE,SILVER SPRING,MD,20910,DBW064,On/Off-Premise,LA FONDA INC.,"7914 GEORGIA AVE
SILVER SPRING, MD 20910
(38.985545, -77.026635)",1,3065,7,5,1
CANOPY,940 ROSE AVENUE,NORTH BETHESDA,MD,20852,BBWLHM33201,On Premise,"PNR HOTEL XXVI OPERATOR, LLC","940 ROSE AVENUE
NORTH BETHESDA, MD 20852
(39.051118, -77.116107)",1,60,19,1,1
GIL'S RESTAURANT,8200 PINEY BRANCH ROAD,SILVER SPRING,MD,20910,BBWLHR684,On Premise,GILS RESTAURANT PARTNERSHIP,"8200 PINEY BRANCH ROAD
SILVER SPRING, MD 20910
(38.992974, -77.009452)",1,3065,7,5,1
SUSHI HOUSE,"1331 ROCKVILLE PIKE, UNIT D",ROCKVILLE,MD,20852,HBW214,On Premise,"SUSHI HOUSE, INC.","1331 ROCKVILLE PIKE, UNIT D
ROCKVILLE, MD 20852
(39.06857, -77.129875)",1,60,25,3,12
SUSHIJIN,"8555 FENTON STREET, UNIT A",SILVER SPRING,MD,20910,HBW145,On Premise,"SUSHIJIN, LLC","8555 FENTON STREET, UNIT A
SILVER SPRING, MD 20910
(38.997662, -77.027023)",1,3065,7,5,1
SICHUAN JIN RIVER,410 HUNGERFORD DRIVE,ROCKVILLE,MD,20850,HBWHR39699,On Premise,"GOOD FORTUNE ROCKVILLE, INC.","410 HUNGERFORD DRIVE
ROCKVILLE, MD 20850
(39.088149, -77.150765)",1,71,25,3,12
OWENS ORDINARY,11820 TRADE STREET,NORTH BETHESDA,MD,20852,BBWLHR24646,On Premise,"NEIGHBORHOOD REST. GROUP XX, LLC","11820 TRADE STREET
NORTH BETHESDA, MD 20852
(39.050921, -77.116378)",1,60,19,1,1
DON RAMON RESTAURANT,13816 OLD COLUMBIA PIKE,SILVER SPRING,MD,20904,BBWLHR22080,On Premise,"RC ARBAIZA ENTERPRISE, INC","13816 OLD COLUMBIA PIKE
SILVER SPRING, MD 20904
(39.083256, -76.952096)",1,12,53,5,1
Q BY PETER CHANG,4500 EAST WEST HIGHWAY SUITE 100,BETHESDA,MD,20814,BBWLHR27709,On Premise,"CHANG'S HOME, LLC","4500 EAST WEST HIGHWAY SUITE 100
BETHESDA, MD 20814
(38.984911, -77.092038)",1,111,12,1,1
"HALPINE BEER, WINE & DELI",1701-B8 ROCKVILLE PIKE,ROCKVILLE,MD,20852,ABWS24778,Off Premise,JAI LAXMI MATA CORPORATION,"1701-B8 ROCKVILLE PIKE
ROCKVILLE, MD 20852
(39.061034, -77.123421)",1,60,25,3,12
TOMATILLO MEXICAN GRILL,2232 VEIRS MILL ROAD,ROCKVILLE,MD,20851,HBW241,On Premise,"EL PRIMER PASO, INC.","2232 VEIRS MILL ROAD
ROCKVILLE, MD 20851
(39.074716, -77.114689)",1,68,25,3,12
BEL PRE BEER & WINE,2251 BEL PRE ROAD,SILVER SPRING,MD,20906,DBW103,On/Off-Premise,RETAIL & REAL ESTATE SERVICES INC.,"2251 BEL PRE ROAD
SILVER SPRING, MD 20906
(39.090491, -77.048388)",1,6,59,4,1
RUMBA Y CARBON,11222 GRANDVIEW AVE,SILVER SPRING,MD,20902,BBWLHR669,On Premise,PIRATA CORP.,"11222 GRANDVIEW AVE
SILVER SPRING, MD 20902
(39.038918, -77.05233)",1,17,16,4,1
N-FINGERPRINTING,202 EDISON PARK DR,GAITHERSBURG,MD,20878,34229,On Premise,FINGERPRINTING,"202 EDISON PARK DR
GAITHERSBURG, MD 20878
(39.110925, -77.235379)",1,33,36,3,21
BOB'S SHANGHAI 66 BISTRO,305 N. WASHINGTON STREET,ROCKVILLE,MD,20850,HBW31416,On Premise,BOB'S SHANGHAI 66 BISTRO INC,"305 N. WASHINGTON STREET
ROCKVILLE, MD 20850
(39.089056, -77.153718)",1,71,25,3,12
ROUND HOUSE THEATRE,4545 EAST-WEST HIGHWAY,BETHESDA,MD,20814,SBWLCPA70602,On Premise,"ROUND HOUSE THEATRE, INC.","4545 EAST-WEST HIGHWAY
BETHESDA, MD 20814
(38.984949, -77.091778)",1,111,12,1,1
TIA QUETA RESTAURANT,4839 DEL RAY AVE,BETHESDA,MD,20814,BBWLHR160,On Premise,"TIA QUETA RESTAURANT, INC.","4839 DEL RAY AVE
BETHESDA, MD 20814
(38.990089, -77.098606)",1,111,12,1,1
ALATRI BROS.,4926 CORDELL AVENUE,BETHESDA,MD,20814,BBWLHR28339,On Premise,BRIGGS MANAGEMENT LLC,"4926 CORDELL AVENUE
BETHESDA, MD 20814
(38.988635, -77.098835)",1,111,12,1,1
SUSHI OISHII,9706 TRAVILLE GATEWAY DR,ROCKVILLE,MD,20850,BBWLHR685,On Premise,"SUSHI OISHII II, INC","9706 TRAVILLE GATEWAY DR
ROCKVILLE, MD 20850
(39.091443, -77.204146)",1,71,24,3,1
THAI TASTE,11315 FERN STREET,WHEATON,MD,20902,BBWHR139,On/Off-Premise,MAX'S PROJECTS CORP,"11315 FERN STREET
WHEATON, MD 20902
(39.040692, -77.049461)",1,17,16,4,1
FOUR STREAMS,19501 DARNESTOWN ROAD,BEALLSVILLE,MD,20839,CBWLCC023,On Premise,"FOUR STREAMS, LLC.","19501 DARNESTOWN ROAD
BEALLSVILLE, MD 20839
(39.176292, -77.407886)",1,97,37,1,1
ASHTON BEER & WINE,7 OLNEY SANDY SPRING ROAD,ASHTON,MD,20861,DBW085,On/Off-Premise,JOCELYN INC.,"7 OLNEY SANDY SPRING ROAD
ASHTON, MD 20861
(39.149332, -77.012441)",1,49,35,4,1
STAINED GLASS PUB,12510 LAYHILL ROAD,SILVER SPRING,MD,20906,BBWLHR192,On Premise,"THE PUB OF GLENMONT, INC.","12510 LAYHILL ROAD
SILVER SPRING, MD 20906
(39.061747, -77.050941)",1,6,23,4,1
RESTAURANT POLLOS EL MESON,615 SOUTH FREDERICK AVE,GAITHERSBURG,MD,20877,BBWLHR22816,On Premise,"RESTAURANT POLLOS EL MESON, LLC","615 SOUTH FREDERICK AVE
GAITHERSBURG, MD 20877
(39.128879, -77.185912)",1,35,36,3,21
PRALINE,"4611 SANGAMORE ROAD, UNIT O",BETHESDA,MD,20816,BBWLHR408,On Premise,"PRALINE BAKERY, LLC,","4611 SANGAMORE ROAD, UNIT O
BETHESDA, MD 20816
(38.94866, -77.119725)",1,107,12,1,1
BETHESDA CURRY KITCHEN,4860 CORDELL AVENUE,BETHESDA,MD,20814,BBWLHR1071790,On Premise,"BHAIRAVI, LLC","4860 CORDELL AVENUE
BETHESDA, MD 20814
(38.989808, -77.097685)",1,111,12,1,1
LEDO PIZZA - GERMANTOWN,"12619 WISTERIA DRIVE, UNIT B",GERMANTOWN,MD,20874,HBW024,On Premise,"JABELLA, INC.","12619 WISTERIA DRIVE, UNIT B
GERMANTOWN, MD 20874
(39.171006, -77.262726)",1,39,39,2,1
TJ LIQUOR STORE,7669 NEW HAMPSHIRE AVENUE,TAKOMA PARK,MD,20912,ABWLTP002,Off Premise,KKR KIM. INC.,"7669 NEW HAMPSHIRE AVENUE
TAKOMA PARK, MD 20912
(38.987682, -76.98777)",1,3062,4,5,11
BETHESDA CO-OP,6500 SEVEN LOCKS ROAD,CABIN JOHN,MD,20818,ABWS099,Off Premise,"BETHESDA COMMUNITY FOOD STORE,","6500 SEVEN LOCKS ROAD
CABIN JOHN, MD 20818
(38.975145, -77.161517)",1,102,3,1,1
KENAKI SUSHI COUNTER,706 CENTER POINT WAY,GAITHERSBURG,MD,20878,BBWLHR36295,On Premise,"KENAKI, LLC","706 CENTER POINT WAY
GAITHERSBURG, MD 20878
(39.121966, -77.235283)",1,33,36,3,21
HILTON WASHINGTON DC/ROCKVILLE EMC,1750 ROCKVILLE PIKE,ROCKVILLE,MD,20852,BBWLHM23552,On Premise,"MARYLAND SPECIAL SERVICING, LLC","1750 ROCKVILLE PIKE
ROCKVILLE, MD 20852
(39.060847, -77.123048)",1,60,25,1,12
LANCE'S BEER & WINE,4701 MILLER AVE,BETHESDA,MD,20814,DBW120,On/Off-Premise,"GUTHWORKS, LLC","4701 MILLER AVE
BETHESDA, MD 20814
(38.980608, -77.092503)",1,111,5,1,1
SILVER BRANCH BREWING COMPANY,8401 COLESVILLE ROAD,SILVER SPRING,MD,20910,DBWL36146,On Premise,"PARALLEL WORLD BREWING CO., LLC","8401 COLESVILLE ROAD
SILVER SPRING, MD 20910
(38.994358, -77.031047)",1,3065,6,5,1
LA BRASA ROTISSERIE,12401 PARKLAWN DR.,ROCKVILLE,MD,20852,BBWLHR1051241,On Premise,"LA BRASA ROTISSERIE, INC.","12401 PARKLAWN DR.
ROCKVILLE, MD 20852
(39.061126, -77.111797)",1,60,19,4,1
NIRVANA INDIAN CUSINE,3474 OLNEY LAYTONSVILLE ROAD,OLNEY,MD,20832,HBWHR31664,On Premise,NIRVANA RESTAURANT LLC,"3474 OLNEY LAYTONSVILLE ROAD
OLNEY, MD 20832
(39.154417, -77.069172)",1,100,58,4,1
KUYA JA'S LECHON BELLY,5268H NICHOLSON LN,ROCKVILLE,MD,20895,DBW33522,On/Off-Premise,"KUYA JAS LECHON BELLY, LLC","5268H NICHOLSON LN
ROCKVILLE, MD 20895
(39.04497, -77.10627)",1,25,19,1,1
SN BEER & WINE,12801 WISTERIA DRIVE,GERMANTOWN,MD,20874,ABW173,Off Premise,SONG SAKANIN CORPORATION,"12801 WISTERIA DRIVE
GERMANTOWN, MD 20874
(39.176372, -77.269215)",1,39,39,2,1
GAITHERSBURG SUPERMARKET,220 EAST DIAMOND AVE,GAITHERSBURG,MD,20877,ABW23750,Off Premise,"GAITHERSBURG SUPERMARKET, INC","220 EAST DIAMOND AVE
GAITHERSBURG, MD 20877
(39.142071, -77.194462)",1,35,36,3,21
KIIN IMM THAI RESTAURANT,785 D ROCKVILLE PIKE,ROCKVILLE,MD,20852,HBWHR34891,On Premise,"PATTARA, INC.","785 D ROCKVILLE PIKE
ROCKVILLE, MD 20852
(39.077237, -77.139804)",1,60,25,3,12
BLUE FIN,"9613 MEDICAL CENTER DRIVE, UNIT G",ROCKVILLE,MD,20850,HBWHR37657,On Premise,"BORU & CHANG, CORP","9613 MEDICAL CENTER DRIVE, UNIT G
ROCKVILLE, MD 20850
(39.10395, -77.196604)",1,71,25,3,1
RED ROBIN GOURMET BURGERS & BREWS,20001 CENTURY BLVD,GERMANTOWN,MD,20874,BBWLHR332,On Premise,RED ROBIN OF MONTGOMERY CO INC,"20001 CENTURY BLVD
GERMANTOWN, MD 20874
(39.184092, -77.260932)",1,39,39,2,1
T.G.I. FRIDAYS - SILVER SPRING,12281 TECH ROAD,SILVER SPRING,MD,20904,BBWLHR366,On Premise,"ATLANTA RESTAURANT PARTNERS, L","12281 TECH ROAD
SILVER SPRING, MD 20904
(39.056514, -76.967134)",1,12,21,5,1
ZN-BOMBAY INDIAN RESTAURANT,11229 NEW HAMPSHIRE AVENUE,SILVER SPRING,MD,20904,HBW28025,,,"11229 NEW HAMPSHIRE AVENUE
SILVER SPRING, MD 20904
(39.04031, -76.990789)",1,12,18,5,1
MAMMA LUCIA - SHADY GROVE,14921 SHADY GROVE ROAD,ROCKVILLE,MD,20850,BBWLHR341,On Premise,"MAMMA LUCIA'S OF FALLSGROVE, I","14921 SHADY GROVE ROAD
ROCKVILLE, MD 20850
(39.098029, -77.193482)",1,71,25,3,1
BETHESDA COUNTRY CLUB,7601 BRADLEY BLVD.,BETHESDA,MD,20817,CBWLCC004,On Premise,BETHESDA COUNTRY CLUB INC.,"7601 BRADLEY BLVD.
BETHESDA, MD 20817
(39.011743, -77.15544)",1,103,12,1,1
LOTUS CAFE,8077 GEORGIA AVE,SILVER SPRING,MD,20910,BBWLHR635,On Premise,"BAC LIEU, INC.","8077 GEORGIA AVE
SILVER SPRING, MD 20910
(38.989915, -77.026572)",1,3065,7,5,1
7 LOCKS BREWING,12227 WILKINS AVENUE,ROCKVILLE,MD,20852,DBW21275,On/Off-Premise,"SLIGO MILL BREWING COMPANY, LLC","12227 WILKINS AVENUE
ROCKVILLE, MD 20852
(39.056134, -77.11192)",1,60,19,4,1
CONVENIENT BEER AND WINE,8441 SNOUFFER SCHOOL ROAD,GAITHERSBURG,MD,20879,ABW27890,Off Premise,"CONVENIENT BEER AND WINE, INC","8441 SNOUFFER SCHOOL ROAD
GAITHERSBURG, MD 20879
(39.167674, -77.174201)",1,31,36,4,1
SOLE D'ITALIA RESTAURANT,14324 LAYHILL ROAD,SILVER SPRING,MD,20906,BDBWL286,On/Off-Premise,"ANTONICOLA, INC.","14324 LAYHILL ROAD
SILVER SPRING, MD 20906
(39.091329, -77.045062)",1,6,59,4,1
IL PIZZICO,15209 FREDERICK ROAD,ROCKVILLE,MD,20850,BBWLHR741,On Premise,LIVIA INC.,"15209 FREDERICK ROAD
ROCKVILLE, MD 20850
(39.105608, -77.15759)",1,71,27,3,1
PIKE CHICKEN & BEER,1066 ROCKVILLE PIKE,ROCKVILLE,MD,20852,DBW36296,On/Off-Premise,"PIKE CHICKEN & BEER, INC.","1066 ROCKVILLE PIKE
ROCKVILLE, MD 20852
(39.072466, -77.13344)",1,60,25,3,12
NEW VILLAGE RESTAURANT,11540 MIDDLEBROOK ROAD,GERMANTOWN,MD,20876,BBWHR25277,On/Off-Premise,"58UNITY,LLC","11540 MIDDLEBROOK ROAD
GERMANTOWN, MD 20876
(39.18022, -77.239589)",1,36,39,2,1
AMC THEATRES WHEATON 9,11006 VEIRS MILL RD,WHEATON,MD,20902,BBWLHR21332,On Premise,"AMC OF MARYLAND, LLC","11006 VEIRS MILL RD
WHEATON, MD 20902
(39.03606, -77.050094)",1,17,16,4,1
ARGYLE COUNTRY CLUB,14600 ARGYLE CLUB ROAD,SILVER SPRING,MD,20906,CBWLCC003,On Premise,ARGYLE LAND COMPANY INC.,"14600 ARGYLE CLUB ROAD
SILVER SPRING, MD 20906
(39.096409, -77.046569)",1,6,59,4,1
WINGSTOP FLOWERHILL,18230 FLOWER HILL WAY,GAITHERSBURG,MD,20879,BBWHR41019,On/Off-Premise,"REDCOW POLITY VI, LLC","18230 FLOWER HILL WAY
GAITHERSBURG, MD 20879
(39.155309, -77.16447)",1,35,36,4,1
PARTY TIME BEER & WINE,11443 GEORGIA AVE,SILVER SPRING,MD,20902,ABW095,Off Premise,NONE,"11443 GEORGIA AVE
SILVER SPRING, MD 20902
(39.042493, -77.051942)",1,17,16,4,1
LA RUMBA RESTAURANT,2311 PRICE AVE,SILVER SPRING,MD,20902,BBWLHR703,On Premise,"PORSAN CORPORATION, INC","2311 PRICE AVE
SILVER SPRING, MD 20902
(39.040315, -77.050362)",1,17,16,4,1
WORLD OF BEER-BETHESDA,7200 WISCONSIN AVE,BETHESDA,MD,20814,BBWLHR26104,On Premise,"WOB BETHESDA, LLC","7200 WISCONSIN AVE
BETHESDA, MD 20814
(38.981581, -77.09298)",1,111,5,1,1
SLAPFISH,12033 ROCKVILLE PIKE,ROCKVILLE,MD,20852,HBWHR35093,On Premise,"CHENEGA SF, LLC","12033 ROCKVILLE PIKE
ROCKVILLE, MD 20852
(39.054335, -77.117537)",1,60,19,1,1
KNIGHTS OF PYTHIAS,11011 GAME PRESERVE ROAD,GAITHERSBURG,MD,20879,CBWLFV017,On Premise,KNIGHTS OF PYTHIAS,"11011 GAME PRESERVE ROAD
GAITHERSBURG, MD 20879
(39.164098, -77.228743)",1,31,36,3,1
SOFIVE,1008 WESTMORE AVENUE,ROCKVILLE,MD,20850,DBW41761,On/Off-Premise,"SOFIVE, INC.","1008 WESTMORE AVENUE
ROCKVILLE, MD 20850
(39.098296, -77.147591)",1,71,27,3,1
WANG JJA JANG,1613 EAST GUDE DRIVE,ROCKVILLE,MD,20850,BBWLHR694,On Premise,"JYS ENTERPRISES, INC","1613 EAST GUDE DRIVE
ROCKVILLE, MD 20850
(39.09391, -77.132371)",1,71,25,3,12
EL NORTENO,8917 BROOKVILLE ROAD,SILVER SPRING,MD,20910,BBWLHR367,On Premise,"DALISSON,LLC","8917 BROOKVILLE ROAD
SILVER SPRING, MD 20910
(39.002316, -77.053101)",1,3065,6,5,1
CARRABBAS ITALIAN GRILL,19935 CENTURY BLVD,GERMANTOWN,MD,20874,BBWLHR099,On Premise,"CARRABBAS OF GERMANTOWN, INC.","19935 CENTURY BLVD
GERMANTOWN, MD 20874
(39.183402, -77.262395)",1,39,39,2,1
BURGERFI,11881 GRAND PARK AVENUE,NORTH BETHESDA,MD,20852,HBWHR39250,On Premise,"BUFIPIRO, LLC","11881 GRAND PARK AVENUE
NORTH BETHESDA, MD 20852
(39.050547, -77.117385)",1,60,19,1,1
MAMMA LUCIA - ROCKVILLE,"12274 ROCKVILLE PIKE, SUITE M",ROCKVILLE,MD,20852,BBWLHR387,On Premise,"MAMMA LUCIA OF MONTGOMERY, INC","12274 ROCKVILLE PIKE, SUITE M
ROCKVILLE, MD 20852
(39.058268, -77.121013)",1,60,25,3,12
JULII,11915 GRAND PARK AVENUE,NORTH BETHESDA,MD,20852,BBWLHR35087,On Premise,"BTI HOSPITALITY, LLC","11915 GRAND PARK AVENUE
NORTH BETHESDA, MD 20852",,,,,
