"business_address","address1","address_2","city","state","zip"
"101 GENEVA, LLC","12020 GEORGIA AVENUE","UNIT H","SILVER SPRING","MD","20902"
"103 FRANKLIN AVENUE LLC","103 FRANKLIN AVENUE",,"SILVER SPRING","MD","20901"
"10720 COLUMBIA PIKE, LLC","10770 COLUMBIA PIKE, SUITE 125",,"SILVER SPRING","MD","20901"
"11160 VIERS MILL 20902 INC.","#TK01K","701 RUSSELL AVE.","GAITHERSBURG","MD","20877"
"11200 ROCKVILLE PIKE, LLC","4520 EAST WEST HWY","SUITE 200","BETHESDA","MD","20814"
"121 FACILITIES SERVICES, LLC","17041 OLD BALTIMORE RD",,"OLNEY","MD","20832-2411"
"1215, LLC","1215 EAST GUDE DRIVE",,"ROCKVILLE","MD","20850"
"12ONE, LLC","22115 FAIR GARDEN LANE",,"CLARKSBURG","MD","20871"
"1380 PICCARD DRIVE HOLDCO LLC","STE 600","1660 L ST NW","WASHINGTON","DC","20036"
"144 INVESTORS, LLC","9922 DERBYSHIRE LANE",,"BETHESDA","MD","20817"
"157 ENTERTAINMENT, LLC","23 BRALAN CT.",,"GAITHERSBURG","MD","20877"
"15YEARSADEPLORABLE, LLC","5203 SANGAMORE ROAD",,"BETHESDA","MD","20816"
"1750 ROCKVILLE PIKE, LLC","11770 US HIGHWAY 1","SUITE 202","NORTH PALM BEACH","FL","33408"
"1788 HOLDINGS, L.L.C.","4421 EAST-WEST HIGHWAY",,"BETHESDA","MD","20814"
"18240 OLNEY VILLAGE DR 20832 INC","595 SOUTH BROADWAY 2ND FL",,"HICKSVILLE","NY","11801"
"19725A, INC.","19725-A GERMANTOWN ROAD",,"GERMANTOWN","MD","20874"
"1ST CHOICE COLLISION, LLC","5531 NICHOLSON LN",,"ROCKVILLE","MD","20852-3181"
"1ST CHOICE, LLC","8121 GEORGIA AVE, STE 700",,"SILVER SPRING","MD","20910"
"1ST THINKING, INC.","6001 SOUTHPORT DRIVE",,"BETHESDA","MD","20814-1847"
"1ST. SECURITY MORTGAGE, INC. D/B/A FEDER","8555 16TH STREET, STE 603",,"SILVER SPRING","MD","20910"
"20 RIVERWOOD LLC","11903 CENTURION WAY",,"POTOMAC","MD","20854"
"20-20 SERVICES LLC","8 ORCHARD WAY S",,"ROCKVILLE","MD","20854-6130"
"2000 TOWER OAKS BOULEVARD, LLC","2000 TOWER OAKS BOULEVARD","FLOOR 9","ROCKVILLE","MD","20852-4282"
"2015 EAST WEST HIGHWAY OPERATIONS LLC","101 EAST STATE STREET",,"KENNETT SQUARE","PA","19348"
"2040 DIGITAL LLC","11619 HITCHING POST LANE",,"NORTH BETHESDA","MD","20852-4403"
"21ST CENTURY FREIGHT LINE LLC","21ST CENTURY FREIGHT LINE LLC","11909 CHESTNUT BRANCH WAY","CLARKSBURG","MD","20871"
"23418 RIDGE ROAD, LLC","2700 LOCH RAVEN RD",,"BALTIMORE","MD","21218-4729"
"2405 PRICE, LLC","3101 MOORE LN",,"KENSINGTON","MD","20895-2200"
"255 GONGCHA ROCKVILLE LLC","THE SPOT ASIAN FOOD HALL","255 N WASHINGTON ST","ROCKVILLE","MD","20850"
"26TH LETTER LLC","637 CHESTNUT HILL MEWS",,"GAITHERSBURG","MD","20878"
"270 VENDING INC","19922 SUGAR NOTCH CIRCLE",,"GAITHERSBURG","MD","20886"
"2700 BARKER STREET LLC","400 RELLA BLVD","STE 200","MONTEBELLO","NY","10901"
"2FRIENDS LLC","4611 SANGAMORE ROAD, SUITE N",,"BETHESDA","MD","20816"
"2SAND.COM, LLC","5237 RIVER RD #238",,"BETHESDA","MD","20816"
"3 PENNY FILMS, LLC","5602 OVERLEA RD",,"BETHESDA","MD","20816-1921"
"3 TERRITORY SOLUTIONS, LLC","233 EDDIE LEWIS DR",,"WEXFORD","PA","15090"
"30 POINT STRATEGIES, LLC","7315 WISCONSIN AV","STE 400W","BETHESDA","MD","20814"
"311 DAWSON AVENUE, INC.","9000 COLLESVILLE RD",,"SILVER SPRING","MD","20910"
"3301 DAMASCUS ROAD, LLC","16121 BATSON ROAD",,"SPENCERVILLE","MD","20868"
"333 MAIN STREET, LLC","333 MAIN STREET",,"GAITHERSBURG","MD","20878"
"355 BARBERSHOP & SPA, LLC","815 HUNGERFORD DR",,"ROCKVILLE","MD","20850-1727"
"357 PLUMBING, LLC","23030 SWEETSPIRE DRIVE",,"CLARKSBURG","MD","20871"
"3CCL, LLC","595 HUNGERFORD DR",,"ROCKVILLE","MD","20855"
"3CLOGIC, INC.","9201 CORPORATE BLVD   STE 470",,"ROCKVILLE","MD","20850"
"3D CONSULTING SERVICES, INC.","8406 SAINT REGIS WAY",,"MONTGOMERY VILLAGE","MD","20886"
"3D ENVIROLOGICS, LLC","585 GLENGARRY COURT",,"EARLYSVILLE","VA","22936"
"3D ORAL & MAXILLOFACIAL IMAGING CENTER,","11125 ROCKVILLE PIKE",,"NORTH BETHESDA","MD","20852-3142"
"3D SCAPES, LLC","19611 HOOVER FARM DRIVE",,"LAYTONSVILE","MD","20882"
"3E TECHNOLOGIES INTERNATIONAL, INC.","SUITE 225",,"GERMANTOWN","MD","20876"
"3GREENMOMS LLC","6917 ARLINGTON ROAD, SUITE 200-A",,"BETHESDA","MD","20814"
"3H BROTHERS, INC.","7006 CARROLL AVE",,"TAKOMA PARK","MD","20912-4436"
"4 SEASONS LAWN CARE LLC","19065 STALEYBRIDGE RD",,"GERMANTOWN","MD","20876"
"42 WELLNESS LLC","PO BOX 71660",,"RICHMOND","VA","23255"
"4328 MONTGOMERY LIMITED LIABILITY COMPAN","4328 MONTGOMERY AVENUE",,"BETHESDA","MD","20814-4402"
"4401 EAST WEST, L.L.C.","4520 EAST WEST HWY","SUITE 200","BETHESDA","MD","20814"
"4500 EAST WEST HIGHWAY LLC","SUITE 650","1615 L STREET NW","WASHINGTON","DC","20036"
"4504 WALSH STREET, L.L.C.","2401 RESEARCH BLVD",,"ROCKVILLE","MD","20850-3215"
"4520 EAST WEST, LLC","4520 EAST WEST HWY","SUITE 200","BETHESDA","MD","20814-3382"
"495 MOVERS, INC.","640 LOFTRAND LANE B",,"ROCKVILLE","MD","20850"
"4D CONSULTING, LLC","12154 DARNESTOWN ROAD","SUITE 233","GAITHERSBURG","MD","20878"
"501C3 TUNEUP, INC.","9219 MINTWOOD STREET",,"SILVER SPRING","MD","20901-3520"
"5055 NICHOLSON LANE ASSOCIATES, LLC","5505 NICHOLSON LN",,"ROCKVILLE","MD","20852-3133"
"5132 WESTPATH, LLC","5132 WEST PATH WAY",,"BETHESDA","MD","20816-2318"
"7 BILLIARDS, INC.","15966 SHADY GROVE ROAD",,"GAITHERSBURG","MD","20877"
"7005 SOLAR NAILS & SPA INC.","7005 CARROLL AVE",,"TAKOMA PARK","MD","20912-4429"
"701 RUSSELL 20877 INC.","#TK01K","701 RUSSELL AVE","GAITHERSBURG","MD","20877-2631"
"7060 CARROLL AVENUE, LLC","7060 CARROLL AVE LLC","7060 CARROLL AVE","TAKOMA PARK","MD","20912"
"7220 WISCONSIN AVENUE LLC","4520 EAST WEST HWY","STE 200","BETHESDA","MD","20814-3382"
"7550IAD LLC","601 13TH STREET NW STE 300N",,"WASHINGTON","DC","20005"
"7606 YORKSHIRE INVESTMENTS, LLC","7606 BOXBERRY TER",,"GAITHERSBURG","MD","20879-4578"
"7840 GENERAL PARTNERSHIP","#C","7840 CESSNA AVE","GAITHERSBURG","MD","20879-4159"
"836 BONIFANT, LLC","836 BONIFANT ST.",,"SILVER SPRING","MD","20910"
"8421 EVENTS, LLC","105 CORAL REEF TERRACE",,"GAITHERSBURG","MD","20878"
"8455CSC, LLC","8226 GEORGIA AVE",,"SILVER SPRING","MD","20910-4519"
"8506 LONGFELLOW PLACE, LLC","C/O GARLAND MILLER","3804 WILLIAMS LANE","CHEVY CHASE","MD","20815"
"8515 GEORGIA AVENUE ASSOCIATES L.L.C.","12435 PARK POTOMAC AVENUE","SUITE 200","POTOMAC","MD","20854"
"8517 OAKMONT, LLC","8517 ATLAS DR",,"GAITHERSBURG","MD","20877-4135"
"8701 RAM, INC.","8701 RAMSEY AVENUE",,"SILVER SPRING","MD","20910"
"8711 APARTMENTS OWNER LLC","STE 400","6000 EXECUTIVE BOULEVARD","NORTH BETHESDA","MD","20852-3857"
"8937 SHADY GROVE LLC","8937 SHADY GROVE COURT UNIT 26A",,"GAITHERSBURG","MD","20877"
"9-11 SECURITY & INVESTIGATION SERVICES,","8115 FENTON ST","STE 303","SILVER SPRING","MD","20910"
"917, LLC","917, LLC","946 SENECA ROAD","GREAT FALLS","VA","22066"
"9811 MAIN ST DAMASCUS 20872 INC","595 S BROADWAY, 2FL",,"HICKSVILLE","NY","11801"
"A & A FLOORING KITCHEN & BATH INC.","22301 HONEY HILL LN",,"CLARKSBURG","MD","20871-5345"
"A & A LANDSCAPING INC","16101 ASA DR.",,"SPENCERVILLE","MD","20868"
"A & A RESTORATION COMPANIES, INC.","13601 FAIRRIDGE DR",,"SILVER SPRING","MD","20904"
"A & A RESTORATION SERVICES, INC.","13601 FAIRRIDGE DR",,"SILVER SPRING","MD","20904"
"A & A STRUCTURES LLC","22 HOLLY LEAF CT",,"BETHESDA","MD","20817-2652"
"A & A TACTICAL, LLC","3738 POSEY HOLLOW ROAD",,"BERKLEY SPRINGS","WV","25411"
"A & B AUTOMOTIVE CARE INC.","8220 GEORGIA AVE.",,"SILVER SPRING","MD","20910"
"A & B'S BARBERSHOP LLC","11520-D ROCKVILLE PIKE",,"ROCKVILLE","MD","20852-2762"
"A & C AUTO SALES LLC","15520 GEORGIA AVENUE STE C",,"ROCKVILLE","MD","20853"
"A & G AUTOMOTIVE, LLC","11750 PARKLAWN DRIVE","SUITE 500","ROCKVILLE","MD","20852-2533"
"A & H LANDSCAPING, INC.","14016 SCHAFFER ROAD",,"GERMANTOWN","MD","20874"
"A & H SEAFOOD MARKET PARTNERS, LLC","SUITE B","4215 HOWARD AVENUE","KENSINGTON","MD","20895"
"A & J CORPORATION","525 DALE DR",,"SILVER SPRING","MD","20910-4210"
"A & J INVSTMNTS, LLC","10704 NORMANDIE FARM DR",,"POTOMAC","MD","20854-1800"
"A & L DONUTS, INC.","13810 CONNECTICUT AVE",,"SILVER SPRING","MD","20906"
"A & M CORRADO, LLC","7017 OLD CABIN LANE",,"ROCKVILLE","MD","20852"
"A & M HAIR ONE, INC.","20 MONTGOMERY VILLAGE AVE","STE A","GAITHERSBURG","MD","20879"
"A & N SERVICES INC.","13002 MIDDLEVALE LN",,"SILVER SPRING","MD","20906"
"A & S ENTERPRISES LLC","5516 DOWGATE COURT #111",,"ROCKVILLE","MD","20851"
"A & T AUTOMOTIVE CARE, LLC","8129 GEORGIA AVE.",,"SILVER SPRING","MD","20910"
"A & T SYSTEMS, INC.","12200 TECH RD","#200","SILVER SPRING","MD","20904"
"A AAAABILITY JAMES M. SCHUETTE, P.C.","504 HENDRIX AVENUE",,"GAITHERSBURG","MD","20878"
"A ACE BUS CHARTER, INC.","13246 MEANDER COVE DRIVE",,"GERMANTOWN","MD","20874"
"A AND H VITAMINS INC.","10400 OLD GEORGETOWN RD",,"BETHESDA","MD","20814-1914"
"A BIT BETTER FARM, L.L.C.","3400 DAMASCUS ROAD",,"BROOKEVILLE","MD","20833"
"A COOPERATIVE BODY, LLC","552 LONGHORN CRES",,"ROCKVILLE","MD","20850"
"A FEW GOOD COLLEGE MEN MOVERS LLC","7800 AIRPORT RD #25",,"GAITHERSBURG","MD","20877"
"A GAME OF ROOMS-ROCKVILLE, LLC","12009 NEBEL STREET",,"ROCKVILLE","MD","20852"
"A GARCIA'S GENERAL CONSTRUCTION INC.","11829 ROCKING HORSE RD.",,"ROCKVILLE","MD","20852"
"A HEALING JOURNEY, LLC","A HEALING JOURNEY, LLC","50 WEST EDMONSTON DRIVE., SUITE 208","ROCKVILLE","MD","20852"
"A HEALTHY HOME, INCORPORATED","62 CARONA COURT",,"SILVER SPRING","MD","20905"
"A LITTLE SONG LLC","A LITTLE SONG LLC","1823 TILTON DR","SILVER SPRING","MD","20902"
"A LOCKSMITH LLC","1701 EVELYN DRIVE",,"ROCKVILLE","MD","20852"
"A MAINTENANCE SUPPLY COMPANY, INC.","27505 RIDGE ROAD",,"DAMASCUS","MD","20872"
"A PLUS AUTOMOTIVE SERVICES, INC.","15563 FREDERICK RD # 0",,"ROCKVILLE","MD","20855-2116"
"A PLUS MEDICAL P.C.","7505 NEW HAMPSHIRE AVENUE ST 314","SUITE 314","TAKOMA PARK","MD","20912"
"A TO Z HOME REPAIR SERVICE, INC.","313 MAIN STREET",,"GAITHERSBURG","MD","20878"
"A TO Z TURNOVER SERVICES, INC.","20203 GOSHEN ROAD","#149","GAITHERSBURG","MD","20879"
"A&A VENTURES INC.","23307 BENT ARROW DRIVE",,"CLARKSBURG","MD","20871"
"A&D LANDSCAPING AND CONSTRUCTION SERVICE","15600 RIDING STABLE RD",,"LAUREL","MD","20707-2645"
"A+ DECK RESTORATION, INC.","9254 BROWN CHURCH RD",,"MOUNT AIRY","MD","21771-4419"
"A-GO LIMITED PARTNERSHIP","10500 DARNESTOWN RD",,"ROCKVILLE","MD","20850"
"A-MAJOR CONSTRUCTION, LLP","601 NORTHWOOD TERRACE",,"SILVER SPRING","MD","20902"
"A-SERVICE COMPANY, INC.","419 EAST GUIDE DRIVE",,"ROCKVILLE","MD","20850-1270"
"A-TBC BETHESDA OWNER, L.L.C.","3299 K ST NW STE 700","SUITE 700","WASHINGTON","DC","20007"
"A-TECH NORTH AMERICA, INC.","8539 ZIGGY LANE",,"GAITHERSBURG","MD","20877"
"A-Z PLUS LLP","14023 CASTLE BLVD","#203","SILVER SPRING","MD","20904"
"A. B. VEIRS & SONS, INC.","7411 LINDBERGH DR STE L",,"GAITHERSBURG","MD","20879-5416"
"A. H. BLAND ENTERPRISES LLC","700 AMER DRIVE",,"FORT WASHINGTON","MD","20744"
"A. K. BURTON, P.C.","9501 ANCHORAGE PLACE",,"BETHESDA","MD","20817"
"A. ROY ROSENTHAL, M.D.","10313 GEORGIA AVE STE 107",,"SILVER SPRING","MD","20902"
"A. SALAS CONSTRUCTION SERV. LLC","19515 FREDERICK RD #168",,"GERMANTOWN","MD","20876"
"A. SMITH MARKETING LLC","9630 EAGLE RIDGE DR",,"BETHESDA","MD","20817"
"A.A.M., INC.","120 N FREDERICK AVE",,"GAITHERSBURG","MD","20877-2411"
"A.C. GRILL INC.","OGEIS GRILL","293 MUDDY BRANCH RD","GAITHERSBURG","MD","20878"
"A.J. LIEBEL LLC","4711 MERCURY DR.",,"ROCKVILLE","MD","20853"
"A.M.M.M.G.,INC.","8484 GEORGIA AVENUE #110",,"SILVER SPRING","MD","20910"
"A.R.T. DESIGN BUILD, INC.","4309 LYNBROOK DR",,"BETHESDA","MD","20814-4641"
"A/X CARPENTERS, LLC","4108 WARNER ST",,"KENSINGTON","MD","20895-4056"
"A2MK, LLC","11940 RIVER RD",,"POTOMAC","MD","20854"
"A3 INSURANCE SERVICES, LLC","4 PROFESSIONAL DR","STE 148","GAITHERSBURG","MD","20879"
"AA ART ASSOCIATES LLC","8923 BROOKVILLE RD",,"SILVER SPRING","MD","20910"
"AA DRIVING SCHOOL INC.","2446 REEDIE DR STE 7",,"WHEATON","MD","20902"
"AA ENTERPRICES, LLC","12908 ELOISE AVE",,"ROCKVILLE","MD","20853"
"AAA ATTRIUM CLASSIC ASSISTED LIVING, INC","14920 OLD COLUMBIA PIKE",,"BURTONSVILLE","MD","20866"
"AAA LUMBAR CHIROPRACTIC, LLC","418 E. DIAMOND AVE",,"GAITHERSBURG","MD","20877"
"AAA PLUS SUPPLY LLC","23209 ARORA HILLS DRIVE",,"CLARKSBURG","MD","20871"
"AAA RESEARCH, LLC","21515 MANOR VIEW CIRCLE",,"GERMANTOWN","MD","20876"
"AAA WARMAN HOME CARE, LLC","604 S FREDERICK AVE",,"GAITHERSBURG","MD","20877-1275"
"AAA WARMCARE OF POTOMAC, INC.","2305 FOLLING CREEK ROAD",,"SILVER SPRING","MD","20904"
"AABHA LLC","AABHA LLC","901 RUSSELL AVE STE 125","GAITHERSBURG","MD","20879"
"AARAMVA, LLC","11920 BLUHILL ROAD",,"SILVER SPRING","MD","20902"
"AARON COHEN PR LLC","107 GRANT AVE",,"TAKOMA PARK","MD","20912-4328"
"AASHNIN FOUR INC.","2800 UNIVERSITY DRIVE BLVD","#116","WHEATON","MD","20902"
"AB DRYWALL LLC","19808 MAYHILL TERRACE",,"GAITHERSBURG","MD","20879"
"ABA CONSTRUCTION SERVICES, LLC","1785 REDGATE FARMS COURT",,"ROCKVILLE","MD","20850"
"ABACUS BENEFIT CONSULTANTS OF MARYLAND,","240 CHESTNUT ST",,"WARWICK","RI","02888-3100"
"ABANTO PAINTING AND CARPENTRY LLC","12405 BRAXFIELD COURT #10",,"ROCKVILLE","MD","20852"
"ABARCA, MANUEL","18318 BAILIWICK PL",,"GERMANTOWN","MD","20874-2222"
"ABBEY'S WORLD TRAVEL LLC.","1607 CRESTLINE RD",,"SILVER SPRING","MD","20904-1431"
"ABBOTT BUILDING SYSTEMS LLC","9210 CORPORATE BLVD","SUITE 120","ROCKVILLE","MD","20850"
"ABBRIMS STAIRLIFTS INC.","16301 SUGARLAND RD",,"BOYDS","MD","20841-9582"
"ABC FRANCO PAINTING COMPANY INC.","8430 12TH AVE.",,"SILVER SPRING","MD","20903"
"ABC GENERAL AND MECHANICAL SERVICES, INC","15732 CRABBS BRANCH WAY",,"DERWOOD","MD","20855"
"ABDIAS CONSTRUCTION, INC.","8 BROOKES AVE., STE.203",,"GAITHERSBURG","MD","20877"
"ABDOW FRIENDSHIP PEDIATRICS, P.C.","11125 ROCKVILLE PIKE",,"ROCKVILLE","MD","20852"
"ABE & NIKI, INC.","405 N. FREDERICK AVE.",,"GAITHERSBURG","MD","20877"
"ABEL & ASSOCIATES LLC","12013 COLDSTREAM DRIVE",,"POTOMAC","MD","20854"
"ABERCROMBIE & ASSOCIATES, LLC","8609 SECOND AVE #507B",,"SILVER SPRING","MD","20910"
"ABERCROMBIE & FITCH STORES, INC.","PO BOX 52427",,"ATLANTA","GA","30355"
"ABERDEEN ASSISTED LIVING, LLC","14304 BAUER DRIVE",,"ROCKVILLE","MD","20853"
"ABERNETHY STICKS, INC.","3837 PLYERS MILL ROAD",,"KENSINGTON","MD","20895-2015"
"ABESS, INC.","1301 UNIVERSITY BLVD.",,"TAKOMA PARK","MD","20912"
"ABEYA ENTERPRISES LLC","3 POOKS HILL","907","BETHESDA","MD","20814"
"ABI II, INC.","8401 SNOUFFER SCHOOL ROAD",,"GAITHERSBURG","MD","20879"
"ABI III CORPORATION","425 S FREDERICK AVE",,"GAITHERSBURG","MD","20877-2326"
"ABI NKWA INC.","6104 CHESHIRE DRIVE",,"BETHESDA","MD","20814"
"ABIYOU AUTO LLC","18801 BIRDSEYE DR",,"GERMANTOWN","MD","20874"
"ABKA DESIGN CENTER, INC.","6604 RIVERCREST COURT",,"BETHESDA","MD","20816"
"ABL INFORMATION TECHNOLOGY, LLC","10601 TANAGER LANE",,"POTOMAC","MD","20854"
"ABLE SERVICE CONTRACTORS, INC.","13505 DULLES TECHNOLOGY DR","SUITE#2","HERNDON","VA","20171-3401"
"ABM HVAC SERVICES INC.","16604 HEARTWOOD DR",,"ROCKVILLE","MD","20855"
"ABM INDUSTRY GROUPS, LLC","SUITE 477","14141 SW FWY","SUGAR LAND","TX","77478"
"ABM LIMITED, INC.","SUITE 1010","10212 GOVERNOR LANE BLVD.","WILLIAMSPORT","MD","21795"
"ABNEY AT LAW, P.C.","20 COURTHOUSE SQUARE","SUITE 205","ROCKVILLE","MD","20850"
"ABOL RESTAURANT LLC","8626 COLESVILLE ROAD",,"SILVER SPRING","MD","20910"
"ABONAR TITLE COMPANY LLC","711 FORDHAM ST",,"ROCKVILLE","MD","20850"
"ABOUT HAIR INC","600 JEFFERSON PLAZA #100",,"ROCKVILLE","MD","20852"
"ABRAHAMS, MICHAEL L.","18 EXECUTIVE PARK COURT",,"GERMANTOWN","MD","20874"
"ABRAMOWITZ PROPERTIES, LLC","18612 ROLLING ACRES WAY",,"OLNEY","MD","20832-1319"
"ABRAMS & WEST, P.C.","4550 MONTGOMERY AVENUE","SUITE 760N","BETHESDA","MD","20814-3304"
"ABRAMS BISON INVESTMENTS, LLC","3 BETHESDA METRO CENTER","SUITE 1250","BETHESDA","MD","20814"
"ABRAMS TRAVEL, INC.","2909 FRIENDLYWOOD WAY",,"BURTONSVILLE","MD","20866-1856"
"ABRY AND SONS LLC","24217 NEWBURY RD",,"GAITHERSBURG","MD","20882"
"ABS LOGISTICS LIMITED LIABILITY COMPANY","802 FLAGLER DRIVE",,"GAITHERSBURG","MD","20878"
"ABS US CORP.","10220 RIVER ROAD","#306","POTOMAC","MD","20854"
"ABSG CONSULTING INC.","1701 CITY PLAZA DRIVE",,"SPRING","TX","77389"
"ABSOLUTE ASSISTED LIVING, INC.","4911 BROOKS RD",,"ROCKVILLE","MD","20853-1008"
"ABSOLUTE AUTO L.L.C.","22210 DICKERSON ROAD",,"DICKERSON","MD","20842"
"ABSOLUTE CONCRETE CONCEPT. INC.","PO BOX 3059",,"GERMANTOWN","MD","20875"
"ABSOLUTE DRYWALL CONSTRUCTION, INC.","7604 LINBERGH DRIVE",,"GAITHERSBURG","MD","20879"
"ABSOLUTE ENGINEERING SOLUTIONS, LLC","6802 RANNOCH ROAD","6802 RANNOCH RD","BETHESDA","MD","20817"
"ABSOLUTE GENERAL CONTRACTING SERVICES LL","16808 OAK HILL RD",,"SILVER SPRING","MD","20905-3944"
"ABT ASSOCIATES, INC.","10 FAWCETT STREET",,"CAMBRIDGE","MA","2138"
"ABVIRO LLC","4800 HAMPDEN LANE","SUITE 200","BETHESDA","MD","20814"
"ABY AND ASSOCIATES, LTD.","8805 FLOWER AVE",,"SILVER SPRING","MD","20901-4038"
"ABYSSINIA RESTAURANT, INC.","2335 PONDSIDE TERRACE",,"SILVER SPRING","MD","20906"
"AC COMFORT MECHANICAL SERVICES LLC","166 HIDDEN FOREST CT",,"GAITHERSBURG","MD","20877"
"AC GROUP OF MARYLAND, LLC A/K/A/ AC GROU","19200-D CHENNAULT WAY",,"GAITHERSBURG","MD","20879"
"ACACIA FINANCIAL ADVISORS LLC","3204 TOWER OAKS BLVD","STE 208","ROCKVILLE","MD","20852"
"ACADEMIC INFORMATION SERVICE, INC.","1723 EDGEWATER PKWY",,"SILVER SPRING","MD","20903"
"ACADEMIC INTELLIGENCE, LLC","205 PRIMROSE STREET",,"CHEVY CHASE","MD","20815"
"ACARCIA, LTD.","3 MARYLAND AVE",,"ROCKVILLE","MD","20850-2327"
"ACCARDIS SYSTEMS, INC","20061 DOOLITTLE STREET",,"MONTGOMERY VILLAGE","MD","20886"
"ACCEL CORPORATION","8720 GEORGIA AVE.","SUITE 900","SILVER SPRING","MD","20910"
"ACCELERED, LLC","7315 WISCONSIN AVENUE. SUITE 400","7315 WISCONSIN AVE.","BETHESDA","MD","20814"
"ACCESS DRIVING ACADEMY, LLC","3460 OLNEY LAYTONSVILLE RD",,"OLNEY","MD","20832-1781"
"ACCESS NOW URGENT CARE, LLC","405 NATURE LN",,"ROCKVILLE","MD","20850"
"ACCESS REAL ESTATE LLC","5801 NICHOLSON LANE","#1602","ROCKVILLE","MD","20852"
"ACCESS-ABILITY CONSULTANTS, INC.","7106 13TH AVENUE",,"TAKOMA PARK","MD","20912"
"ACCESSABILITY MEDCARE, LLC","15915 EMORY LANE",,"ROCKVILLE","MD","20853"
"ACCOLADES, INC.","17214 SUMAC COURT",,"GERMANTOWN","MD","20874"
"ACCOUNTABLE HEALTH, INC.","1101 WOOTTON PARKWAY","10TH FLOOR","ROCKVILLE","MD","20852"
"ACCUALINA LLC","12405 FALCONBRIDGE DRIVE",,"NORTH POTOMAC","MD","20878"
"ACCUSTRATA, INC.","11900 PARKLAWN DRIVE","SUITE 203","ROCKVILLE","MD","20852"
"ACD ENTERPRISE, LLC","12528 ANSIN CIRCLE DRIVE",,"POTOMAC","MD","20854"
"ACD FRANCHISING, LLC","14421 SUGERLAND LANE",,"POOLESVILLE","MD","20837"
"ACE FAMILIA FOOD LLC","8041 QUEENAIR DR","STE 1","GAITHERSBURG","MD","20879"
"ACE FLOORING, LLC","325 WEST SIDE DRIVE","APT 101","GAITHERSBURG","MD","20878"
"ACE MAINTENANCE & SERVICE, INC.","PO BOX 5896",,"AUSTIN","TX","78763-5896"
"ACE TRAVEL, INC.","2837 GUNARETTE WAY",,"SILVER SPRING","MD","20906-1865"
"ACE UNIFORM SERVICES, INC.","1800 PARKMAN AVE",,"BALTIMORE","MD","21230-1024"
"ACEJ HOLDINGS, LLC","5465 RANDOLPH ROAD","SUITE A","ROCKVILLE","MD","20852"
"ACESEVEN MOTORS, LLC","847-I QUINCE ORCHARD BLVD","SUITE 4","GAITHERSBURG","MD","20878"
"ACH GROUP LLC","1680 E. GUDE DR., STE.100",,"ROCKVILLE","MD","20850"
"ACHATES INTERNATIONAL, INCORPORATED","8004 BOULDER RIDGE WAY",,"GAITHERSBURG","MD","20879-5635"
"ACK CHOCOLATE INDUSTRIES LLC","10836 ANTIGUA TERRACE","#202","ROCKVILLE","MD","20852"
"ACK FAMILY DENTISTRY P.C.","11300 ROCKVILLE PIKE STE 711",,"ROCKVILLE","MD","20852"
"ACKER AND SONS, INC.","10516 SUMMIT AVE",,"KENSINGTON","MD","20895-2436"
"ACKER LAW GROUP, LLC","9711 WASHINGTON BLVD","SUITE 550","GAITHERSBURG","MD","20878"
"ACL, INC.","TWO WISCONSIN CIRCLE #670",,"CHEVY CHASE","MD","20815"
"ACM SERVICES, INC.","12022 PARKLAWN DR",,"ROCKVILLE","MD","20852"
"ACO INCORPORATED","1002 W. MISSION AVE.",,"BELLEVUE","NE","68005"
"ACORN BUILDING SERVICES CORPORATION","1115 NETHERLANDS CT",,"SILVER SPRINGS","MD","20905"
"ACOUSTIC PROTOCOL INC.","PO BOX 77811","2 MASS AVE NE","WASHINGTON","DC","20013"
"ACQUA LLC","4701 SANGAMORE RD STE M7",,"BETHESDA","MD","20816"
"ACQUALUXE NAILS SPA LLC","ACQUALUXE NAILS SPA LLC","5330 WESTERN AVE STE D-102","CHEVY CHASE","MD","20815"
"ACQUANAILS, INC.","4701 SANGAMORE ROAD","#M8","BETHESDA","MD","20816"
"ACSAN LLC","11125 MARYLAND MANOR CT",,"GERMANTOWN","MD","20876"
"ACT 2 EVENTS, LLC","P O BOX 4834",,"ANNAPOLIS","MD","21403"
"ACTIVE PHYSICAL THERAPY SERVICES, LLC","802 CROMWELL PARK DR.","SUITE T","GLEN BURNIE","MD","21061"
"ACTIVEND, LLC","600 JEFFERSON PLAZA","STE. 204","ROCKVILLE","MD","20852"
"ACTUALIZE STUDIO, LLC","510 FLEETWOOD ST.",,"SILVER SPRING","MD","20910"
"ACUMEN INTELLECTUAL PROPERTY, LLC","10908 OLD COACH RD",,"POTOMAC","MD","20854"
"ACUMEN SECURITY, LLC","200 WESTLAKE PARK BLVD., STE. 400",,"HOUSTON","TX","77079"
"ACUPUNCTURE & CHINESE HERBAL THERAPY, IN","6015 ONONDAGA ROAD",,"BETHESDA","MD","20816"
"ACUPUNCTURE CURE LLC","6216 MONTROSE RD",,"ROCKVILLE","MD","20852"
"ACUPUNCTURE MEDICINE CENTER, LLC","10110 MOLECULAR DR., #214",,"ROCKVILLE","MD","20850-7542"
"ACUSPA LLC","2 CEDAR COURT",,"ROCKVILLE","MD","20851"
"AD AMERICA INCORPORATED","18308 WICKHAM ROAD","SUITE B","OLNEY","MD","20832"
"ADA FOUNDATION, INC. A/K/A ADA FOUNDATIO","211 E CHICAGO AVE",,"CHICAGO","IL","60611-2637"
"ADABTEK, CORP.","P.O. BOX 130",,"GLENELG","MD","21737"
"ADALBERTO LAWN SERVICE, INC.","12225 KENDALL ST",,"SILVER SPRING","MD","20902"
"ADAM LOWE CREATIVE LLC","1202 ROSEMERE AVE",,"SILVER SPRING","MD","20904"
"ADAMS GENERAL CONTRACTORS, INC.","5625 GROVE ST",,"CHEVY CHASE","MD","20815-3420"
"ADAMSON, JONATHAN","19300 MOUTH OF MONOCACY RD",,"DICKERSON","MD","20842"
"ADAPTABLE SYSTEMS CORPORATION","1000 MILLER CT W",,"NORCROSS","GA","30071"
"ADAPTIVE DECISIONS, INC.","11515 DANVILLE DR",,"NORTH BETHESDA","MD","20852-3713"
"ADAPTIVE HIRING INC.","22010 BIG WOODS RD",,"DICKERSON","MD","20842-8921"
"ADAPTIVE PHAGE THERAPEUTICS, INC.","22FIRST FIELD RD",,"GAITHERSBURG","MD","20878"
"ADAPTIVE SOLUTIONS, INC.","13925 ROCKINGHAM RD",,"GERMANTOWN","MD","20874-2230"
"ADAPTIVE STUDIO, LLC","9202 2ND AVENUE",,"SILVER SPRING","MD","20910"
"ADARASH MARKET II, INC.","11249 NEW HAMPSHIRE AVE",,"SILVER SPRING","MD","20904"
"ADARASH MARKET, INC.","8706-A FLOWER AVE.",,"SILVER SPRING","MD","20901"
"ADC STRATEGIES LLC","9224 QUINTANA DR",,"BETHESDA","MD","20817"
"ADDIS WING, LLC","3008 FALLSTON AVE",,"SILVER SPRING","MD","20904"
"ADDISON NAILS LLC","2502 WEISMAN ROAD",,"SILVER SPRING","MD","20902"
"ADEGE CO LLC","11904 ENID DRIVE",,"POTOMAC","MD","20854"
"ADELA MOROCHO, DDS, LLC","2008 MACDOWELL STREET",,"ROCKVILLE","MD","20851"
"ADELFIO ENTERPRISES, LTD.","4422 EAST WEST HIGHWAY",,"BETHESDA","MD","20814"
"ADEMCO INC.","P O BOX 71970",,"PHOENIX","AZ","85050"
"ADEN CONVENIENCE SOLUTIONS, L.L.C.","16553 SIOUX LANE",,"GAITHERSBURG","MD","20878"
"ADEPT ENGINEERING SOLUTIONS, LLC","312 MARSHALLAVE","SUIE 1010","LAUREL","MD","20707"
"ADINA SOLUTIONS, INC.","22775 AUTUMN BREEZE AVE",,"CLARKSBURG","MD","20871"
"ADLER & MANDEL, INC.","12298 WILKINS AVE # B",,"ROCKVILLE","MD","20852"
"ADLER ASSOCIATES, LP","5530 WISCONSIN AVE","STE 1460","CHEVY CHASE","MD","20815-4404"
"ADM PARTNERS, LLC","10000 GREENOCK ROAD",,"SILVER SPRING","MD","20901"
"ADMIT ADVANTAGE, INC.","6917 ARLINGTON RD","#315","BETHESDA","MD","20814"
"ADONAI 7 SERVICES, LLC","ADONAI 7 SERVICES, LLC","5002 LEE HILL CIRCLE","MONROVIA","MD","21770"
"ADONAI E+ SOUND","13702 ASHBY RD",,"ROCKVILLE","MD","20853"
"ADONAI FAMILY HEALTHCARE, LLC","1514 DECEMBER DR APT 202",,"SILVER SPRING","MD","20904"
"ADORA CONSULTING, LLC","111 ARGOSY DRIVE",,"GAITHERSBURG","MD","20878"
"ADORN BOUTIQUE LLC","1200 EAST WEST HIGHWAY APT 1215",,"SILVER SPRING","MD","20910"
"ADP, LLC","1 ADP BLVD","M/S B401","ROSELAND","NJ","7068"
"ADRENALINE OFF ROAD, L.L.C.","15201 B1RMINGHAM DR",,"BURTONSVILLE","MD","20866"
"ADROIT ACUMEN ASSOCIATES, LTD.","4 FILBERT CT",,"GAITHERSBURG","MD","20879"
"ADSYSTECH, INC.","8401 COLESVILLE RD  #450",,"SILVER SPRING","MD","20910-3393"
"ADVANCE BUILDING SOLUTIONS, INC.","2022 ROUTE 22","SUITE 105","BREWSTER","NY","10509"
"ADVANCE DIAGNOSTICS SERVICES, INC.","8027-F SNOUFFER SCHOOL ROAD",,"GAITHERBURG","MD","20879"
"ADVANCE SURGERY CENTER, L.L.C.","10110 MOLECULAR DR",,"ROCKVILLE","MD","20850-7539"
"ADVANCED AIR SERVICES, INC.","21808 GAITHERS MEADOW LN",,"BROOKEVILLE","MD","20833-1826"
"ADVANCED BIOMIMETIC SENSORS, INC.","6710A ROCKLEDGE DR","STE 400","BETHESDA","MD","20817"
"ADVANCED BUILDING DESIGN, INCORPORATED","7213 FLOWER AVE",,"TAKOMA PARK","MD","20912-6436"
"ADVANCED CARDIOVASCULAR INSTITUTE, LLC","15252 BRIARCLIFF MANOR WAY",,"BURTONSVILLE","MD","20866"
"ADVANCED COMMUNICATIONS SOLUTIONS LLC","118 PASTURE SIDE WAY",,"ROCKVILLE","MD","20850"
"ADVANCED DESIGNS, INC.","14536 CHESTERFIELD ROAD",,"ROCKVILLE","MD","20853"
"ADVANCED HOME SERVICES, LLC","14600 LOCUSTWOOD LANE",,"SILVER SPRING","MD","20905"
"ADVANCED ICU CARE, INC.","1 CITYPLACE DR STE 570",,"SAINT LOUIS","MO","63141"
"ADVANCED LANGUAGE SYSTEMS INTERNATIONAL","6001 MONTROSE ROAD","SUITE 640","ROCKVILLE","MD","20852"
"ADVANCED NEIGHBORHOOD PEDIATRICS, LLC","12239 CYPRESS SPRING ROAD STE",,"CLARKSBURG","MD","20871"
"ADVANCED NEURO & ORTHOPEDIC PHYSICAL THE","12718 WEST OLD BALTIMORE RD",,"BOYDS","MD","20841"
"ADVANCED POWER SYSTEM SOLUTIONS LLC","14402 CORAL GABLES WAY",,"NORTH POTOMAC","MD","20878"
"ADVANCED PT & ACUPUNCTURE INC.","46 B WEST GUDE DRIVE",,"ROCKVILLE","MD","20850"
"ADVANCED TV & VIDEO SERVICE, INC.","12205 WALNUT CREEK CT",,"GERMANTOWN","MD","20874"
"ADVANCED WEIGHT LOSS SURGERY, BARRY S. G","9707 MEDICAL CENTER DR",,"ROCKVILLE","MD","20850-3348"
"ADVANCED WOMEN'S CARE, INC.","19514 DOCTORS DR",,"GERMANTOWN","MD","20874-5200"
"ADVANCED WORKGROUP SOLUTIONS, LLC","2216 COLD MEADOW WAY",,"SILVER SPRING","MD","20906-6213"
"ADVANCEPRO LLC","9908 WALKER HOUSE RD., #3",,"MONTGOMERY VILLAGE","MD","20886"
"ADVANTAGE, LLC","901 WINHALL WAY",,"SILVER SPRING","MD","20904"
"ADVENTIST - MEDICAL FACULTY ASSOCIATES,","3811 N.FAIRFAX DRIVE,SUITE 1000",,"ARLINGTON","VA","22203"
"ADVENTIST CANCER CARE, LLC","820 W DIAMOND AVE STE 600",,"GAITHERSBURG","MD","20878"
"ADVISORSHARES INVESTMENTS, LLC","4800 MONTGOMERY LN","STE 150","BETHESDA","MD","20814"
"ADVOCACY DATA, INC.","4948 ST. ELMO AVE","SUITE 308","BETHESDA","MD","20814-2677"
"ADVOCACYSMITHS, INC.","4515 DRUMMOND AVENUE",,"CHEVY CHASE","MD","20815"
"AE ELECTRIC INC","12234 VEIRS MILL RD",,"SILVER SPRING","MD","20906"
"AE RENTALS LLC","3007 EDGEWOOD RD",,"KENSINGTON","MD","20895"
"AEC FINANCIAL, INC.","14508 CERVANTES AVE",,"DARNESTOWN","MD","20874"
"AEGIS DENTAL GROUP LLC","12092 ELL LN",,"WALDORF","MD","20602-3522"
"AEGIS.NET, INC.","PO BOX 3897",,"MERRIFIELD","VA","22116-3897"
"AEH CARPENTRY AND HOME REPAIR, LLC","12813 BAKER DRIVE",,"SILVER SPRING","MD","20904"
"AETNA LIFE INSURANCE COMPANY","PO BOX 71130",,"PHOENIX","AZ","85050-1003"
"AFFILIATED CONSULTANTS, INC.","7223 DELFIELD STREET",,"CHEVY CHASE","MD","20815"
"AFFILIATED ENGINEERS METRO DC, INC.","800 UNIVERSITY BAY DR STE 200",,"MADISON","WI","53705"
"AFFILIATED PET SYSTEMS, L.L.C.","486 NORRISTOWN ROAD","SUITE 133","BLUE BELL","PA","19422"
"AFFILIATES IN PLASTIC SURGERY, LLC","4660 KENMORE AVE #220",,"ALEXANDRIA","VA","22304"
"AFFLUENT FINANCIAL SERVICES LLC","11806 KIGGER JACK LANE",,"CLARKSBURG","MD","20871"
"AFFORDABLE CREATIVE SERVICES OF MARYLAND","3554 CHAIN BRIDGE ROAD SUITE 306",,"FAIRFAX","VA","22030-2709"
"AFFORDABLE HOUSING CONFERENCE OF MONTGOM","133 ROLLINS AVE #4",,"ROCKVILLE","MD","20852"
"AFOLABI MARTINS, DDS P.C.","11300 ROCKVILLE PIKE","STE 711","ROCKVILLE","MD","20852"
"AFS FINANCIAL GROUP, LLC","7700 OLD GEORGETOWN RD","SUITE 630","BETHESDA","MD","20814"
"AG DESIGN, LLC","664 AZALEA DRIVE",,"ROCKVILLE","MD","20850-2003"
"AGATE, INC.","19847 M CENTURY BLVD",,"GERMANTOWN","MD","20874"
"AGE ONE PEDIATRIC DENISTRY, PROFESSIONAL","14012 WAGON WAY",,"SILVER SPRING","MD","20906"
"AGELESS HEALTH SPA LLC","1063 ROCKVILLE PIKE",,"ROCKVILLE","MD","20852"
"AGENCY ONE INSURANCE MARKETING GROUP, IN","11200 ROCKVILLE PIKE","STE 500","ROCKVILLE","MD","20852"
"AGGER, INC.","9301 SHADY TREE COURT",,"FORT WASHINGTON","MD","20744"
"AGI DEVCO, LLC","12616 BRIDGETON DR",,"POTOMAC","MD","20854-1000"
"AGI LLC","3330 ELMWOOD AVE",,"ROCHESTER","NY","14610"
"AGI MISSION SUPPORT SERVICES, INC.","962 WAYNE AVENUE, STE 325",,"SILVER SPRING","MD","20910-4433"
"AGILE DATA LLC","2090 DUNWOODY CLUB DRIVE","STE 106-202","ATLANTA","GA","30350"
"AGILENT TECHNOLOGIES, INC.","12100 ANDREWS DR",,"PLAIN CITY","OH","43064-9148"
"AGILIOUS LLC","13017 WISTERIA DR, SUITE 155",,"SILVER SPRING","MD","20901"
"AGING NETWORK SERVICES, LLC","4400 E WEST HWY",,"BETHESDA","MD","20814-4524"
"AGMUS VENTURES, INC.","5575 SOUTH SEMORAN BLVD.","SUITE 502","ORLANDO","FL","32822"
"AGNC MORTGAGE MANAGEMENT, LLC","FMA AMERICAN CAPITAL MORTGAGE MANAGEMENT","2 BETHESDA METRO CENTER 12TH FL","BETHESDA","MD","20814"
"AGUIRRE, CHRIS D.","10400 CONNECTICUT AVE","STE 103","KENSINGTON","MD","20895"
"AGURCIA TRANSPORTATION INC","2100 MCMAHON RD","APT 2112","SILVER SPRING","MD","20902"
"AH HOMES, LLC A/K/A FB22 REAL ESTATE SOL","22100 CASTLETON CT",,"BOYDS","MD","20841"
"AH MAKHLOUF CPA LLC","2408 MUMFORD DRIVE",,"SILVER SPRING","MD","20906"
"AHA MEDIA GROUP, LLC","11714 KEMP MILL ROAD",,"SILVER SPRING","MD","20902"
"AHADU ETHIOPIAN RESTAURANT LLC","824 8TH STREET","APT 103","LAUREL","MD","20707"
"AHC WOODLEAF LLC","1501 LEE HIGHWAY","SUITE 303","ARLINGTON","VA","22209"
"AHD MANAGEMENT, INC.","3 BETHESDA METRO CENTER","STE 110","BETHESDA","MD","20814"
"AHEARN GREENE ASSOCIATES, LLC","3624 QUEEN MARY DRIVE",,"OLNEY","MD","20832"
"AHERN MANAGEMENT GROUP, INC.","4949 NEW DESIGN ROAD",,"FREDERICK","MD","21703"
"AHESIAN TECHNOLOGY AND SERVICES, INC","13337 REDSPIRE DR",,"SILVER SPRING","MD","20906-6742"
"AHSAN CONSULTING INTERNATIONAL LLC","11603 MILBERN DR0",,"POTOMAC","MD","20854"
"AHSAN, ANEES","7610 CARROLL AVE","STE #410","TAKOMA PARK","MD","20912"
"AIG, INC.","9510 GEORGIA AVE",,"SILVER SPRING","MD","20910-1436"
"AIGNER LIMITED PARTNERSHIP","20261 GOLDENROD LN",,"GERMANTOWN","MD","20876-4063"
"AIMIE CORP.","16825 CRABBS BRANCH WAY",,"DERWOOD","MD","20855-2215"
"AIR FLOW ENVIRONMENTAL CONTROL, LTD.","7845 AIRPARK RD UNIT H",,"GAITHERSBURG","MD","20879"
"AIR FLOW SERVICES, INC.","1143 TAFT ST",,"ROCKVILLE","MD","20850"
"AIR SUPPLY INC. AIRCONDITIONING & HEATIN","14672 SOUTHLAWN LANE #M",,"ROCKVILLE","MD","20850-1376"
"AIRFACTS, INC.","8120 WOODMONT AV","STE 200","BETHESDA","MD","20814"
"AIRGAS USA, LLC","P O BOX 6675",,"RADNOR","PA","19087"
"AIRLINE TARIFF PUBLISHING COMPANY","45005 AVIATION DRIVE","STE 130","DULLES","VA","20166"
"AIRPARK 124, LLC","2141 INDUSTRIAL PKWY",,"SILVER SPRING","MD","20904-1988"
"AIRPARK APARTMENTS LIMITED PARTNERSHIP","9710 TRAVILLE GATEWAY DR","PMB 395","ROCKVILLE","MD","20850-7408"
"AIRPARK TOWING, LLC","8011 CESSNA",,"GAITHERSBURG","MD","20879"
"AIRWAYS UNLIMITED, INC.","9305 COLUMBIA BOULEVARD",,"SILVER SPRING","MD","20910"
"AISHA HAIR BRAIDING LLC","7918 GEORGIA AVE",,"SILVER SPRING","MD","20910-4837"
"AISHOK CO","14418 BAUER DR.",,"ROCKVILLE","MD","20853"
"AJAC, INC.","5400 RANDOLPH RD",,"ROCKVILLE","MD","20852-2616"
"AJB PROPERTIES, LLC","20054 GATESHEAD CIRCLE",,"GERMANTOWN","MD","20876"
"AJN, LLC","17500 COUNTRY VIEW WAY",,"ASHTON","MD","20861"
"AK CYCLES, LLC","8637 ZIGGY LANE",,"GAITHERSBURG","MD","20877"
"AKAD, INC.","11910 Q PARKLAWN DR",,"ROCKVILLE","MD","20852"
"AKIMA SUPPORT OPERATIONS, LLC","2553 DULLES VIEW DR","SUITE 700","HERNDON","VA","20171"
"AKKARIKK LLC","12001 OLD COLUMBIA PIKE","UNIT 806","SILVER SPRING","MD","20904"
"AL BAYT AL ARABI, LLC","14905 TALKING ROCK CT",,"GAITHERSBURG","MD","20878"
"AL&JOSEPH SHEET METAL MECHANIC LLC","14104 CASTLE BLVD APT 302",,"SILVER SPRING","MD","20904"
"ALAN FURMAN & CO., INC.","12250 ROCKVILLE PIKE",,"ROCKVILLE","MD","20852-1600"
"ALAN H. GRANT, O. D., CHARTERED","2813 UNIVERSITY BLVD W",,"KENSINGTON","MD","20895-1900"
"ALAN HERMESCH PUBLIC RELATIONS, LLC","6318 ALCOTT RD",,"BETHESDA","MD","20817-3180"
"ALAN J. DINKIN, D.D.S., P.A.","SUITE 300","6 MONTGOMERY VILLAGE AVE","ATLANTA","GA","20879"
"ALAN L. BERMAN, PH.D., ABPP, PLLC","7200 MAPLE AVE",,"CHEVY CHASE","MD","20815"
"ALAN R. VINITSKY, M.D., LLC","2301 RESEARCH BLVD  STE 220",,"ROCKVILLE","MD","20850"
"ALARCON DESIGN & BUILD, INC.","11516 SCOTTSBURY TERR",,"GERMANTOWN","MD","20876"
"ALBAS CONTRACTORS INC.","3908 WENDY LN",,"SILVER SPRING","MD","20906-5236"
"ALBERT & SCHULWOLF, LLC","110 NO WASHINGTON STREET","NUMBER 300","ROCKVILLE","MD","20850"
"ALCANTARA DRIVING SCHOOL, CORP.","1620 ELTON ROAD",,"SILVER SPRING","MD","20903"
"ALCHEMY BUSINESS SOLUTIONS INC.","18406 POLYNESIAN LANE",,"BOYDS","MD","20841"
"ALCHEMY SALON, LLC","10739 COLESVILLE ROAD",,"SILVER SPRING","MD","20904"
"ALCOVA MORTGAGE LLC","308 MARKET ST SE",,"ROANOKE","VA","24011"
"ALDANA & ASSOCIATES PSC, LTD","133 ROLLINS AVE   UNIT 1",,"ROCKVILLE","MD","20852"
"ALDEBARON, INC.","15839 CRABBS BRANCH WAY",,"ROCKVILLE","MD","20855"
"ALDI INC.(MARYLAND)","PO BOX 460049",,"HOUSTON","TX","77056-8049"
"ALDON MANAGEMENT CORP.","8180 WISCONSIN AVENUE",,"BETHESDA","MD","20814"
"ALE MANAGEMENT GROUP, LLC","800 PLEASANT DRIVE","SUITE 110","ROCKVILLE","MD","20850"
"ALEC M. ANDERS, M.D., P.A.","13607 PARRECO FARM CT",,"GERMANTOWN","MD","20874-4415"
"ALEDADE, INC.","4550 MONTGOMERY AVE STE 950N","SUITE 400","BETHESDA","MD","20814"
"ALEPH LLC","4835 LELAND STREET",,"CHEVYCHASE","MD","20815"
"ALEX AND ANI, LLC","10 BRIGGS DR",,"E GREENWICH","RI","02818-1555"
"ALEX CARPET, LLC","10908 GLENHAVEN PKWY",,"SILVER SPRING","MD","20902"
"ALEX MARTINEZ & PARTNERS, INC.","6101 EXECUTIVE BOULEVARD, SUITE#230",,"ROCKVILLE","MD","20852-2667"
"ALEXANDER HEALTHCARE GROUP, LLC","8830 EGGERT DRIVE",,"BETHESDA","MD","20817"
"ALEXANDER, DENNIS","107 PEMBROOKE VIEW LANE",,"GAITHERSBURG","MD","20877-3784"
"ALEXIS KRUG ARCHITECTURE, LLC","2238 WASHINGTON AVENUE","APT. 201","SILVER SPRING","MD","20910"
"ALFA AND OMEGA FLOORING, LLC","1096 W. SIDE DR.",,"GAITHERSBURG","MD","20878"
"ALFA ELECTRICAL CONTRACTOR, LLC","19817 BRAMBLE BUSH DR.",,"GAITHERSBURG","MD","20879-1615"
"ALFAR DISTRIBUTION LLC","12 BLUE RIBBON CT",,"GAITHERSBURG","MD","20878-2813"
"ALFIO'S LLC","4515 WILLARD AVENUE",,"BETHESDA","MD","20815-3632"
"ALI HENDI, M.D., P.C.","SUITE 725","5454 WISCONSIN AVE","CHEVY CHASE","MD","20815"
"ALI SARKARZADEH DDS PC","SUITE 10","1750 ROCKVILLE PIKE","ROCKVILLE","MD","20852-1613"
"ALIANZA MULTISERVICE, LLC","19817 BRAMBLE BUSH DR",,"GAITHERSBURG","MD","20879-1615"
"ALICIA BELTRAN, L.C.P.C. AND ASSOCIATES,","4008","SPARROW HOUSE","BURTONSVILLE","MD","20866"
"ALIEN KNOWLEDGE CONTRACTOR LLC.","1062 RUATAN ST",,"SILVER SPRING","MD","20903-3217"
"ALIGHT SPA WELLNESS CENTER, LLC","10335 KENSINGTON PKWY","SUITE F","KENSINGTON","MD","20895-3359"
"ALIGN SPINE HEALTH CENTER, LLC","8555 16TH ST","STE 240","SILVER SPRING","MD","20910"
"ALIGNED DEVELOPMENT STRATEGIES, INCORPOR","1900-L STREET, NW SUITE 600",,"WASHINGTON","DC","20036"
"ALINIAD CONSULTING PARTNERS, INC.","2284 DUNSTER LANE",,"POTOMAC","MD","20854"
"ALIRON INTERNATIONAL, INC.","1 CRAGWOOD ROAD, SUITE 101",,"SOUTH PLAINFIELD","NJ","7080"
"ALKS & ASSOCIATES, INC.","3233 K STREET NW, 2ND FLOOR",,"WASHINGTON","DC","20007-4412"
"ALL ABOUT SOUND & VIDEO, INC.","1595 KIMBLEWICK ROAD",,"POTOMAC","MD","20854"
"ALL AMERICAN A/C HEATING, INC.","19515 WHITE GROUND ROAD",,"BOYDS","MD","20841"
"ALL AROUND TECHNOLOGY, INC.","8565 ATLAS DRIVE",,"GAITHERSBURG","MD","20877"
"ALL ECO DESIGN CENTER LLC","2662 UNIVERSITY BLVD W",,"WHEATON","MD","20902"
"ALL MED SALES, LLC","20411 HERITAGE FARM TERRACE",,"MONTGOMERY VILLAGE","MD","20886"
"ALL NATURAL MEDICINE CLINIC LLC","4801 RANDOLPH RD",,"ROCKVILLE","MD","20852-2235"
"ALL OUT DANZA LLC","PO BOX 1341",,"ROCKVILLE","MD","20849-1341"
"ALL SAINTS HOME HEALTH CARE, LLC","ALL SAINTS HOME HEALTH CARE, LLC","11235 OAK LEAF DR, APT 509","SILVER SPRING","MD","20901"
"ALL SET HOSPITALITY, LLC","8630 FENTON STREET PLAZA 5",,"SILVER SPRING","MD","20910"
"ALL STAGE AND SOUND, INC","21500 LAYTONSVILLE ROAD",,"LAYTONSVILLE","MD","20882-1624"
"ALL STAR AQUATICS CORPORATION A/K/A ALL","604 EDMONSTON DR.",,"ROCKVILLE","MD","20851"
"ALL THINGS SPROUT, INC.","5635 FISHERS LN",,"ROCKVILLE","MD","20852-1796"
"ALLAN CHIU LUI D.M.D. LLP","12908 NEW HAMPSHIRE AVE",,"SILVER SPRING","MD","20904-3354"
"ALLAN H. KAUFMAN, D.D.S., P.A.","9701 NEW CHURCH ST",,"DAMASCUS","MD","20872-2000"
"ALLAN S. BERGER, M.D., P.A.","1302 MIDWOOD PL",,"SILVER SPRING","MD","20910-1645"
"ALLCOUNTED, INC.","10209 YEARLING DR",,"ROCKVILLE","MD","20850"
"ALLEGHENY BUILDERS & CONTRACTORS, INC.","18304 DUNDONNELL WAY",,"OLNEY","MD","20832-3125"
"ALLEGHENY SCIENCE & TECHNOLOGY CORPORATI","20251 CENTURY BLVD",,"GERMANTOWN","MD","20874"
"ALLEGHENY WOODWORKS, LLC","5170 LAWRENCE PL UNIT F",,"HYATTSVILLE","MD","20781"
"ALLEN & DELALIO ARCHITECTS, INC.","4300 SCOTCH MEADOW CT.",,"OLNEY","MD","20832"
"ALLEN OFFTERDINGER GROUP LLC","11617 HITCHING POST LN",,"NORTH BETHESDA","MD","20852-4403"
"ALLEN ROY BUILDERS, INC.","P.O. BOX 188",,"CLARKSBURG","MD","20871"
"ALLEN RUSS PHOTOGRAPHY, LLC","3509 FREDERICK PLACE",,"KENSINGTON","MD","20895"
"ALLERGY & ASTHMACARE, INC.","19328 ERIN TREE COURT",,"GAITHERSBURG","MD","20879"
"ALLERGY AND ASTHMA CLINICAL CENTERS, LLC","19735 GERMANTOWN ROAD","SUITE 180","GERMANTOWN","MD","20874"
"ALLERGY AND ASTHMA MANAGEMENT, INC.","10000 ORMOND ROAD",,"POTOMAC","MD","20854"
"ALLEY INTERACTIVE LLC","228 PARK AVE S","#85467","NEW YORK","NY","10003-1502"
"ALLIANCE CONSULTANTS CORP.","7529 STANDISH PL",,"ROCKVILLE","MD","20855-2733"
"ALLIANCE COUNSELING INC.","6177 EXECUTIVE BLVD",,"ROCKVILLE","MD","20852"
"ALLIANCE INTERNATIONAL INVESTMENT LLC","10201 GROSVENOR PLACE 1703",,"NORTH BETHESDA","MD","20852"
"ALLIANCE PARTNERS LLC","1209 ORANGE ST.",,"WILMINGTON","DE","19801"
"ALLIANCEBIO, LLC","12154 DARNESTOWN ROAD, SUITE 508",,"GAITHERSBURG","MD","20878"
"ALLIANT TECHNOLOGIES, L.L.C.","360 MOUNT KEMBLE AVE",,"MORRISTOWN","NJ","07960-6662"
"ALLIED MARKETING GROUP, L.C.","3720 FARRAGUT AVE 4TH FL",,"KENSINGTON","MD","20895"
"ALLIED PHARMACEUTICAL SERVICES, INC.","ALLIED PHARMACEUTICAL SERVICES INC","1201 SEVEN LOCKS ROAD SUITE 203","ROCKVILLE","MD","20854"
"ALLIED REALTY CORPORATION","7605 ARLINGTON RD",,"BETHESDA","MD","20814-6219"
"ALLISON CORINNE PHOTOGRAPHY, LLC","5412 WANETA RD",,"BETHESDA","MD","20816"
"ALLNUTT SERVICES LLC","1310 EDNOR ROAD",,"SILVER SPRING","MD","20905"
"ALLPA LANDSCAPING, LLC","19547 TWIN FLOWER CIR",,"GERMANTOWN","MD","20876"
"ALLTRAN HEALTH SERVICES, INC.","250 AVE 14TH E",,"SARTELL","MN","56377"
"ALLURE NAIL & BAR INC","2509 ENNALLS AVE.",,"WHEATON","MD","20902"
"ALLURE NAIL & SPA INC.","7208 TITONKA WAY",,"DERWOOD","MD","20855-2663"
"ALLWORLD LANGUAGE CONSULTANTS INC.","5327 GOLDSBORO ROAD",,"BETHESDA","MD","20817"
"ALLY BANK","500 WOODWARD AVE.","MI-01-19-FIN","DETROIT","MI","48226"
"ALMA HAIR SALON LLC","5026 NICHOLSON LANE",,"ROCKVILLE","MD","20852"
"ALOHA POOL & SPA, INC.","9604 OLD SPRING ROAD",,"KENSINGTON","MD","20895-3124"
"ALPAS GROUP LLC","PO BOX 264",,"BELLBROOK","OH","45305"
"ALPES DECORATING CO, INC.","20812 MERLE DR",,"GAITHERSBURG","MD","20882"
"ALPHA & OMEGA SERVICE, INC.","13215 CHESTNUT OAK DRIVE",,"DARNESTOWN","MD","20878-3545"
"ALPHA BUSINESS CONSULTANTS, LLC","11528 LAKE POTOMAC DR",,"POTOMAC","MD","20854-1223"
"ALPHA DOG LLC","9011 1ST AVE.",,"SILVER SPRING","MD","20910"
"ALPHA INTERNATIONAL INC.","11300 GILSAN ST",,"SILVER SPRING","MD","20902"
"ALPHA POWER WASHING, LLC","13505 TEAKWOOD LANE",,"GERMANTOWN","MD","20874"
"ALPINE SERVICES, INC.","5313 BROOKEVILLE RD",,"GAITHERSBURG","MD","20882-1707"
"ALSOP SNOW REMOVAL SERVICE, INC.","301 BRISTOL DOWNS DR",,"GAITHERSBURG","MD","20877-4304"
"ALTA IT SERVICES, LLC","210 SIXTH AVENUE,  STE 3100",,"PITTSBURGH","PA","15222"
"ALTA PLANA CORPORATION","7300 WILLOW AVENUE",,"TAKOMA PARK","MD","20912-4321"
"ALTAI FREELANCE LLC","6040 CHATSWORTH LN",,"BETHESDA","MD","20814"
"ALTEO, LLC","6002 LOGANWOOD DR",,"ROCKVILLE","MD","20852-3458"
"ALTEON HEALTH (MID-ATLANTIC), LLC","5700 DARROW RD, #106",,"HUDSON","OH","44236"
"ALTERNATIVE BUSINESS SOLUTION ENTERPRISE","33 STONEGATE DRIVE","SUITE 202","SILVER SPRING","MD","20905"
"ALTERNATIVE SOLUTIONS CENTER, INC.","11110 WHISPERWOOD LANE",,"ROCKVILLE","MD","20852"
"ALTIGY, LLC","11429 SENECA FOREST CIRCLE",,"GERMANTOWN","MD","20876"
"ALTIMMUNE, INC.","910 CLOPPER ROAD","STE 2015","GAITHERSBURG","MD","20878"
"ALTITUDE CONSULTING, INC.","8010 PARK OVERLOOK DR",,"BETHESDA","MD","20817"
"ALV LAW, LLC","16712 BAEDERWOOD LN",,"DERWOOD","MD","20855"
"ALVAREZ GENERAL CONTRACTOR INC.","11919 PARKLAWN DR. APT. T3",,"ROCKVILLE","MD","20853"
"ALVAREZ MARTINEZ LAW FIRM LLC","SUITE 200","4800 HAMPDEN LANE","BETHESDA","MD","20814"
"AMAFHH HOLDINGS II LLC","3705 BOLD RULER CT",,"GLENELG","MD","21737"
"AMAKIMA, LLC","5401 BURLING ROAD","5401 BURLING ROAD","BETHESDA","MD","20814"
"AMALFI RISTORANTE ITALIANO, INC.","12307 WILKINS AVE",,"ROCKVILLE","MD","20852"
"AMALGAMATED CASUALTY INSURANCE COMPANY","8401 CONNECTICUT AVE, SUITE 105",,"CHEVY CHASE","MD","20815"
"AMANDA BAKER DESIGN, LLC","7112 CYPRESS HILL DR",,"GAITHERSBURG","MD","20879"
"AMANDAMATIONS PHOTOGRAPHY, LLC","2219 COLD MEADOW WAY",,"SILVER SPRING","MD","20906"
"AMAREX CLINICAL RESEARCH, LLC","789 N DIXBORO RD",,"ANN ARBOR","MI","48105"
"AMAYA TRUCKING, INC.","16412 EMORY LN",,"ROCKVILLE","MD","20853-1226"
"AMAZING ART STUDIO III, INC.","115 CROWN PARK AVE",,"GAITHERSBURG","MD","20878"
"AMAZING CLEANING SERVICES, LLC","23100 MISTFLOWER DR",,"CLARKSBURG","MD","20871-3314"
"AMAZON RETAIL LLC","PO BOX 80416",,"SEATTLE","WA","98108-0416"
"AMAZONIA DEVELOPMENT GROUP, LLC","AMAZONIA DEVELOPMENT GROUP, LLC","4114 DAVIS PL NW","WASHINGTON","DC","20007"
"AMAZONICA COFFEE, LLC","5408 PARKVALE TER",,"ROCKVILLE","MD","20853"
"AMBASSADOR ANIMAL HOSPITAL, INC.","811 SLIGO AVE",,"SILVER SPRING","MD","20910-4774"
"AMBEKRUPA, LLC","18419 POLYNESIAN LANE",,"BOYD","MD","20841"
"AMBI ENTERPRISES LLC","11017 DAYBREAK CT",,"ROCKVILLE","MD","20852-4500"
"AMBRACROMBIE & CO. LLC","12029 SMOKETREE ROAD",,"POTOMAC","MD","20854"
"AMBULATORY PLASTIC SURGERY CENTER ASSOCI","15245 SHADY GROVE RD","SUITE 155","ROCKVILLE","MD","20850-3222"
"AMCO METAL PRODUCTS, INC.","7901 BEECHCRAFT AVENUE","STE H","GAITHERSBURG","MD","20879"
"AMCON LLC","PO BOX 1606",,"ANNAPOLIS","MD","21404"
"AMDEE, LLC","10611 PINE HAVEN TERRACE",,"ROCKVILLE","MD","20852"
"AMDURSKY, LOREN","4701 WILLARD AVE","#217","CHEVY CHASE","MD","20815"
"AMERICA CONTRACTOR, INC.","1504 JASPER STREET",,"SILVER SPRING","MD","20802"
"AMERICA EAGLE CONSTRUCTION CORPORATION","3316 CLARIDGE CT",,"WHEATON","MD","20902-2201"
"AMERICA'S GRANITE INC.","12221 PARKLAWN DRIVE SUITE 110",,"ROCKVILLE","MD","20852"
"AMERICA'S GREEN HEATING & AIR-CONDITIONI","6907 BALTIMORE NATIONAL PIKE # 7",,"FREDERICK","MD","21702"
"AMERICA'S HOPE NEWS, LLC","12607 BLUE SKY DR",,"CLARKSBURG","MD","20871-4496"
"AMERICA'S MUSIC SCHOOL LLC","4819 ST ELMO AVENUE",,"BETHESDA","MD","20814"
"AMERICAN ASSISTANCE, LLC","SUITE 200","4800 HAMPDEN LANE","BETHESDA","MD","20814-2934"
"AMERICAN ASSOCIATION OF BLOOD BANKS, INC","4550 MONTGOMERY AVENUE","SUITE #700 NORTH TOWER","BETHESDA","MD","20814"
"AMERICAN BEAUTIFUL FLORIST, INC.","414 HUNGERFORD DR","STE 112","ROCKVILLE","MD","20850-4125"
"AMERICAN BUSINESS JOURNAL, INC.","914 ALLAN RD",,"ROCKVILLE","MD","20850"
"AMERICAN COLLEGE DANCE ASSOCIATION, INC.","15 W MONTGOMERY AVE","SUITE 301","ROCKVILLE","MD","20850"
"AMERICAN COLLEGE OF MEDICAL GENETICS FOU","7220 WISCONSIN AVENUE, SUITE 300",,"BETHESDA","MD","20814"
"AMERICAN COLLEGE OF NURSE-MIDWIVES, INCO","8403 COLESVILLE RD STE 1550",,"SILVER SPRING","MD","20910"
"AMERICAN CRANE, LLC","10563 METROPOLITAN AVENUE",,"KENSINGTON","MD","20895"
"AMERICAN CULTURAL EXCHANGE SOCIETY INC.","10136 COLEBROOK AVE",,"POTOMAC","MD","20854"
"AMERICAN DATABASE SYSTEMS, INC.","3528 DARTMORE LN",,"OLNEY","MD","20832"
"AMERICAN DREAM LAWN AND SERVICES, LLC","8616 JONES MILL ROAD","8616 JONES MILL RD CHEVY CHASE MD","CHEVY CHASE","MD","20815"
"AMERICAN EAGLE EDITING OFFICE LLC","WENJUN LI & HUIFENG YU","11 FOREST LANDING CT","ROCKVILLE","MD","20850"
"AMERICAN FAN COIL, INC.","8925 CHARRED OAK DR",,"BETHESDA","MD","20817-1921"
"AMERICAN FINGERPRINTING SERVICES, LLC","3 BETHESDA METRO CENTER","STE 700","BETHESDA","MD","20814"
"AMERICAN FLOOR MATS, LLC","152 ROLLINS AVE #102",,"ROCKVILLE","MD","20852"
"AMERICAN GENERAL SUPPLIES, INC.","7840 AIRPARK ROAD",,"GAITHERSBURG","MD","20879"
"AMERICAN HIKING SOCIETY","8605 2ND AVE",,"SILVER SPRING","MD","20910"
"AMERICAN HISTOLABS, INC.","7605 AIRPARK RD   STE F",,"GAITHERSBURG","MD","20879-4183"
"AMERICAN HISTORY RESEARCH ASSOCIATES, IN","1711 GOLDMINE ROAD",,"BROOKVILLE","MD","20833"
"AMERICAN HONDA MOTOR CO., INC.","1919 TORRANCE BLVD",,"TORRANCE","CA","90501"
"AMERICAN INSTITUTE FOR RADIOLOGIC PATHOL","1100 WAYNE AVE., SUITE 1020",,"SILVER SPRING","MD","20910"
"AMERICAN INSTITUTE OF PROFESSIONAL BOOKK","6001 MONTROSE RD STE 500",,"ROCKVILLE","MD","20852-4887"
"AMERICAN INTERNATIONAL EXPORTS, INC.","8309 B SHERWICK COURT",,"JESSUP","MD","20794"
"AMERICAN MASTER CONSTRUCTION AND CLEANIN","11819 SELFRIDGE RD",,"SILVER SPRING","MD","20906-4739"
"AMERICAN MEDICAL SERVICES, INC.","1840 ENTERPRISE DRIVE",,"ROCHESTER HILLS","MI","48309"
"AMERICAN MINORITY GENERAL CONTRACTORS, L","23600 FOUNDERS PLACE",,"DAMASCUS","MD","20872"
"AMERICAN MORTGAGE AND INVESTMENT SERVICE","3915 NATIONAL DR.","SUITE 100","BURTONSVILLE","MD","20866"
"AMERICAN MORTGAGE LLC","12733 GRAND ELM ST",,"CLARKSBURG","MD","20871-4452"
"AMERICAN PAINTING AND JANITORIAL CO., IN","10319 WESTLAKE DR STE 322",,"BETHESDA","MD","20817-6403"
"AMERICAN PLANT FOOD CO., INC.","5272 RIVER RD",,"BETHESDA","MD","20816-1405"
"AMERICAN PODIATRIC MEDICAL ASSOCIATION,","9312 OLD GEORGETOWN RD",,"BETHESDA","MD","20814-1621"
"AMERICAN POOL SERVICE, LLC","13413 GRENOBLE DR.",,"ROCKVILLE","MD","20850"
"AMERICAN PRISON DATA SYSTEMS BENEFIT COR","65 WEST 36TH STREET, 2ND FLOOR",,"NEW YORK","NY","10018"
"AMERICAN SELF SERVICE STORAGE CORPORATIO","3700 PLYERS MILL RD",,"KENSINGTON","MD","20895-2522"
"AMERICAN SOCIETY FOR BIOCHEMISTRY AND MO","SUITE 302","11200 ROCKVILLE PIKE","ROCKVILLE","MD","20852"
"AMERICAN TRADING, LLC","# 205","10401 OLD GEORGETOWN RD","BETHESDA","MD","20814"
"AMERICAN TYPE CULTURE COLLECTION, INC. A","10801 UNIVERSITY BOULEVARD",,"MANASSAS","VA","20110-2204"
"AMERICAN UNITED LIFE INSURANCE COMPANY","P.O. BOX 368",,"INDIANAPOLIS","IN","46206-0368"
"AMERICAN WINDOWS & SIDING OF VIRGINIA, I","5609 SANDY LEWIS DRIVE",,"FAIRFAX","VA","22032"
"AMERICANA CENTRE CONDOMINIUM, INC.","118 MONROE STREET","#106","ROCKVILLE","MD","20850"
"AMERICANA GROCERY OF MD., INC.","8539 PINEY BRANCH RD",,"SILVER SPRING","MD","20901-3920"
"AMERIKOR TITLE & ESCROW, LLC","7361 CALHOUN PL STE 340",,"ROCKVILLE","MD","20855"
"AMERITAS LIFE INSURANCE CORP.","ATTN: AMANDA FARVER","5900 O ST","LINCOLN","NE","68510-2234"
"AMERITEL OF BLANDING PARK, LLC","AMERITEL OF BLANDING PARK, LLC","254 47TH STREET","BROOKLYN","NY","11220"
"AMERIWELL CHIROPRACTIC, PC","STE 320","7505 NEW HAMPSHIRE AVE","TAKOMA PARK","MD","20912"
"AMERTEL COMMUNICATION, INC.","1343 EAST UNIVERSITY BLVD",,"LANGLEY PARK","MD","20783"
"AMETRINE, INC.","12168 NEBEL ST",,"ROCKVILLE","MD","20852"
"ANMND LLC","13107 BEAVER TERR",,"ROCKVILLE","MD","20853"
"AMF BOWLING CENTERS, INC.","7313 BELL CREEK RD",,"MECHANICSVILLE","VA","23111-3551"
"AMG COMMUNICATIONS, INC.","14023 WELLAND TERRACE",,"NORTH POTOMAC","MD","20878"
"AMI CARDIAC MONITORING, LLC","1803 RESEARCH BLVD.","SUITE 600","ROCKVILLE","MD","20850"
"AMICUS USA, INC.","807 FAIRLAND RD",,"SILVER SPRING","MD","20904"
"AMIGO MEDIA LLC","13502 TURQUOISE LN",,"HERNDON","VA","20170-5901"
"AMIN CORP.","12401 MIDDLEBROOK RD",,"GERMANTOWN","MD","20874-1525"
"AMIR SARKARZADEH, PC","13215 EXECUTIVE PARK TER",,"GERMANTOWN","MD","20874-2647"
"AMIT K. RAJVANSHI, MD, P.C.","121 CONGRESSIONAL LANE","SUITE 409","ROCKVILLE","MD","20852-1542"
"AMJ ENTERPRISES, INC.","318 DUXBURY RD",,"SILVER SPRING","MD","20905"
"AMP'D HAIR STUDIO, LLC","9811 MAIN STREET","SUITE 108","DAMASCUS","MD","20872"
"AMPM AUTOMOTIVE, LLC","11806 COAKLEY CIR",,"ROCKVILLE","MD","20852-2510"
"AMR COMMERCIAL, LLC","4849 RUGBY AVE","STE 200","BETHESDA","MD","20814"
"AMR U.S., INC.","11821 PARKLAWN DRIVE # 204",,"ROCKVILLE","MD","20852"
"AMRUT INC.","209 SHADOW GLEN CT",,"GAITHERSBURG","MD","20878"
"AMUSEMENTS UNLIMITED, INC.","12354 WILKINS AVE.",,"ROCKVILLE","MD","20852-1828"
"AMY J WHITE, LCPC & ASSOCIATES P.C.","2907 A OLNEY-SANDY SPRING ROAD","SUITE F","OLNEY","MD","20832"
"AMY RIOLO LLC","26 BROOKES AVE",,"GAITHERSBURG","MD","20877"
"AMY SCHWARTZ INTERIORS, LLC","310 TANNERY DR",,"GAITHERSBURG","MD","20878"
"AMY TEX MEX BAR & GRILL CORP","621 SLIGO AVENUE",,"SILVER SPRING","MD","20910"
"ANA CONSULTING LLC","10209 GARY RD",,"POTOMAC","MD","20854"
"ANA'S HOUSEKEEPING SERVICE, INC","9709 BELVEDERE PLACE",,"SILVER SPRING","MD","20910"
"ANALYTIC FUSION, L.L.C.","4206 STANFORD STREET",,"CHEVY CHASE","MD","20815"
"ANALYTICAL SOLUTIONS GROUP, INC.","14730 SOFT WIND DR",,"NORTH POTOMAC","MD","20878-4236"
"ANANDSAGAR SOLUTIONS INC.","14118 CHINKAPIN DRIVE",,"ROCKVILLE","MD","20850"
"ANATELLA LLC","8126 GEORGIA AVE.",,"SILVER SPRING","MD","20910"
"ANBAR, INC.","6729 GOLDSBORO RD",,"BETHESDA","MD","20817-5417"
"ANCA G. ZINNES, M.D., LLC","5454 WISCONSIN AVE.","SUITE 1435","CHEVY CHASE","MD","20815"
"ANCIENT MARINERS AQUATICS, INC.","4530 EVERETT ST",,"KENSINGTON","MD","20895"
"ANDERSCHAT, JOHN F","1515 HIGHLAND DRIVE",,"SILVER SPRING","MD","20910"
"ANDES FINANCIAL GROUP, INC.","510 BRADFORD DRIVE",,"ROCKVILLE","MD","20850"
"ANDIRA LLC","13077 WISTERIADR",,"GERMANTOWN","MD","20874"
"ANDREA INVESTORS, LLC","11401 PATRIOT LANE",,"POTOMAC","MD","20854"
"ANDREW BAKERY LLC","9639 LOST KNIFE RD",,"GAITHERSBURG","MD","20877"
"ANDREW D. FINIZIO, D.D.S., P.A.","14808 PHYSICIANS LN STE 112",,"ROCKVILLE","MD","20850-3942"
"ANDREW J. KOMISKE, INC.","6835 OLNEY LAYTONSVILLE RD",,"LAYTONSVILLE","MD","20882"
"ANDREW J. SORKIN, DMD, LLC","1901 RESEARCH BLVD",,"ROCKVILLE","MD","20850-3164"
"ANDREWS & COLE, L.L.C.","7315 WISCONSIN AVENUE SUITE 1225W",,"BETHESDA","MD","20814"
"ANDRIS REALTY, INC.","10701 VENETIA MILL CIR",,"SILVER SPRING","MD","20901-1595"
"ANDY KUSHNER ENTERTAINMENT, INC.","5801 NICHOLSON LANE",,"ROCKVILLE","MD","20852"
"ANGAMUTHU & ASSOCIATES, D.D.S., P.A.","4 PROFESSIONAL DR","#121","GAITHERSBURG","MD","20879"
"ANGEL OF CARE HOME HEALTH SERVICES LLC","3115 FAIRLAND RD",,"SILVER SPRING","MD","20904-7120"
"ANGEL RESIDENTIAL CARE PROVIDERS, LLC","9720  BRECKENRIDGE PLACE",,"MONTGOMERY VILLAGE","MD","20886"
"ANGEL'S WONDERFUL LANDSCAPING LLC","12122 SELFRIDGE ROAD",,"SILVER SPRING","MD","20906"
"ANGELA INSTRUMENTS, LLC","4229 HOWARD AVE","STE B","KENSINGTON","MD","20895"
"ANGELES H. CONSTRUCTION, LLC","10810 BLOSSON LANE",,"SILVER SPRING","MD","20903"
"ANGELINI PHARMA INC.","9200 CORPORATE BLVD. SUITE 100","SUITE 100","ROCKVILLE","MD","20850"
"ANGELOS CONTRACTINC, INC.","5114 ADRIAN STREET",,"ROCKVILLE","MD","20853"
"ANGEVINE, JOHN J.","5454 WISCONSIN AVE","#1330","CHEVY CHASE","MD","20815"
"ANGKOR SUPERMARKET, INC.","937 UNIVERSITY BLVD E",,"SILVER SPRING","MD","20903-2918"
"ANGLO DUTCH CORPORATION","5450 WESTBARD AVE",,"BETHESDA","MD","20816-1409"
"ANGLO, INC.","8559 FENTON STREET",,"SILVER SPRING","MD","20910-4404"
"ANI CHEROT, DDS, LLC","50 W. EDMONSTON DRIVE","SUITE 605","ROCKVILLE","MD","20852"
"ANIMAL CARE, INC.","15820 REDLAND RD",,"ROCKVILLE","MD","20855"
"ANIMAL OUTLOOK, INC.","6930 CARROLL AVE","#910","TAKOMA PARK","MD","20912"
"ANIS HAIR STUDIO INC.","8307 FENTON ST.",,"SILVER SPRING","MD","20910"
"ANISH S. DESAI, M.D., LLC","9858 CLINT MOORE ROAD","SUITE C111-131","BOCA RATON","FL","33496"
"ANISSA MAROOF, M.D., L.L.C.","5301 WESTBARD CIR","STE 6","BETHESDA","MD","20816"
"ANIXTER INC.","2301 PATRIOT BLVD",,"GLENVIEW","IL","60026"
"ANM WHITE OAK WINGS INC.","555 GROVE ST","SUITE: 102","HERNDON","VA","20170"
"ANN BUI, D.D.S., P.C.","644 UNIVERSITY BLVD E",,"SILVER SPRING","MD","20901-3768"
"ANN HAIR STUDIO, INC.","11160 VEIRS MILL RD",,"WHEATON","MD","20902"
"ANN W. EVERETT AND ASSOCIATES CONSULTING","16609 MEDINAH CT",,"SILVER SPRING","MD","20905-4097"
"ANNATEIKO DESIGNS LLC","19248 WHEATFIELD TERRACE",,"GAITHERSBURG","MD","20879"
"ANNDYL POLICY GROUP, LLC","ATTN: KARA SAUL RINALDI","717 KENNEBEC AVE","TAKOMA PARK","MD","20912-6808"
"ANNE DENOVO, P.A.","ANNE DENOVO PA","1 RESEARCH COURT SUITE 450","ROCKVILLE","MD","20850-6252"
"ANNE LIKES RED, INC.","10726 LESTER ST",,"SILVER SPRING","MD","20902-3782"
"ANNE REYNOLDS, LLC","18 CREST PARK CT",,"SILVER SPRING","MD","20903-1305"
"ANNE WALKER DESIGN LLC","10405 JOINERS LANE",,"POTOMAC","MD","20854-1941"
"ANNE'S LLC","12928 CLARKS CROSSING DR",,"CLARKSBURG","MD","20871-4365"
"ANNY. PHOTOGRAPHY LLC","17712 CLIFFBOURNE LN",,"ROCKVILLE","MD","20855"
"ANOTHER WAY, INC.","1363 HOLTON LANE",,"TAKOMA PARK","MD","20912-4634"
"ANOTHERVISION LLC","8009 ROCKY RD",,"GAITHERSBURG","MD","20882-4121"
"ANS AUTO CLINIC, LLC","8033 - B SNOUFFER SCHOOL ROAD",,"GAITHERSBURG","MD","20879"
"ANSYS, INC.","2600 ANSYS DR",,"CANONSBURG","PA","15317"
"ANT TECHNOLOGY LLC","1 SPRUCE TREE CT","1 SPRUCE TREE CT","BETHESDA","MD","20814"
"ANTEL CONSTRUCTION, LLC","1109 GRANDIN AVE",,"ROCKVILLE","MD","20851"
"ANTHONY & SON INDOOR AIR QUALITY LLC","ANTHONY & SON INDOOR AIR QUALITY LLC","12100 SIOUX PLACE","GAITHERSBURG","MD","20878"
"ANTHONY GREY SMITH LLC","10701 MARGATE RD",,"SILVER SPRING","MD","20901-1613"
"ANTHONY J. COLA, CHARTERED","5410 EDSON LANE, #315",,"ROCKVILLE","MD","20852"
"ANTHONY WILDER DESIGN/BUILD, INC.","7913 MACARTHUR BLVD 2ND FLOOR",,"CABIN JOHN","MD","20818"
"ANTONICOLA, INC.","14324 LAYHILL RD",,"SILVER SPRING","MD","20906-1909"
"ANUNTA TECH INC.","9711 WASHINGTONIAN BLVD, STE #550",,"GAITHERSBURG","MD","20878"
"ANURITA MENDHIRATTA MD PC","9043 SHADY GROVE CT",,"GAITHERSBURG","MD","20877"
"AP BENEFIT ADVISORS, LLC","200 INTERNATIONAL CIRCLE","SUITE 4500","HUNT VALLEY","MD","21031"
"APA, INC.","9005 GOSHEN VALLEY DRIVE",,"GAITHERSBURG","MD","20882"
"APACHE APPLIANCE, INC.","13866 GEORGIA AVE",,"SILVER SPRING","MD","20906-2924"
"APACHE, INC.","PO BOX 10033",,"ROCKVILLE","MD","20849-0033"
"APARTMENT & CONDOMINIUM PAINTING SOLUTIO","9710 TRAVILLE GATEWAY DRIVE","SUITE 327","ROCKVILLE","MD","20850-7408"
"APARTMENT INVESTMENT AND MANAGEMENT COMP","13155 NOEL RD 100 LB 73",,"DALLAS","TX","75240"
"APARTMENT RESTORERS, LLC","14660 ROTHGEB DR.","STE 102","ROCKVILLE","MD","20850"
"APARTMENT TURNOVERS, INCORPORATED","14660 ROTHGEB DR",,"ROCKVILLE","MD","20850-5309"
"APC SERVICES, LLC","STE 600","5425 WISCONSIN AVE","CHEVY CHASE","MD","20815"
"APEX DEVELOPERS ENTERPRISES, INC.","16631 KILLDEER DRIVE",,"DERWOOD","MD","20855"
"APEX HOME PROS, LLC","4445 CORPORATION LANE",,"VIRGINIA BEACH","VA","23462"
"APEX SETTLEMENT SERVICES, LLC","12520 PROSPERITY DR",,"SILVER SPRING","MD","20904-1664"
"APIFOCAL LLC","SUITE 450","ONE RESEARCH COURT","ROCKVILLE","MD","20850"
"APLIX RESEARCH, INC.","13820 APPALOOSA CT",,"GAITHERSBURG","MD","20878-3877"
"APLUSIFY LLC","7520 STANDISH PL #265",,"ROCKVILLE","MD","20855"
"APOLLO GROUP LLC","23335 FREDERICK ROAD",,"CLARKSBURG","MD","20871"
"APOLLO MANAGEMENT HOLDINGS, L.P.","9 WEST 57TH STREET","43RD FLOOR","NEW YORK","NY","10019"
"APOLLO PHARMACY OF GAITHERSBURG, INC.","22492 CASTLE OAK ROAD",,"CLARKSBURG","MD","28071"
"APOSTLE GROUP LLC","10215 FERNWOOD RD STE 630",,"BETHESDA","MD","20817"
"APPLE DESIGNS, INC.","3739 NATIONAL DRIVE, SUITE 228",,"RALEIGH","NC","27612"
"APPLE MONTESSORI SCHOOL, INC.","7210 HIDDEN CREEK ROAD",,"BETHESDA","MD","20817-4632"
"APPLE NINE HOSPITALITY OWNERSHIP, INC.","814 E MAIN ST",,"RICHMOND","VA","23219-3306"
"APPLEMILL, INC.","9318 GAITHER ROAD","SUITE 260","GAITHERSBURG","MD","20877"
"APPLIED BEHAVIOR SERVICES, LLC","405 KERSTEN STREET","405 KERSTEN ST","GAITHERSBURG","MD","20878"
"APPLIED BIOMIMETIC, INC.","942 CLOPPER RD",,"GAITHERSBURG","MD","20878"
"APPLIED RESEARCH LLC","13619 VALLEY OAK CIR",,"ROCKVILLE","MD","20850-3563"
"APPLIED SIMULATIONS, INC.","10001 CHARTWELL MANOR CT",,"POTOMAC","MD","20854"
"APPLIED SOFTWARE TECHNOLOGIES, INC.","8816 COPENHAVER DRIVE",,"POTOMAC","MD","20854-3007"
"APPLIED TECHNOLOGY RESOURCES, INC.","8801 FALLS RD",,"POTOMAC","MD","20854-1729"
"APPLIED WIRELESS LOCAL AREA NETWORKS, IN","155 GIBBS STREET","SUITE 551","ROCKVILLE","MD","20850"
"APPLIN, THOMAS L M.D.","SUITE 623","4701 WILLARD AVE","CHEVY CHASE","MD","20815-4614"
"APPRENTICE MUSIC, LLC","512 GILMOURE DRIVE",,"SILVER SPRING","MD","20901-2005"
"APPSENTIAL, LLC","20251 CENTURY BLVD SUITE 300",,"GERMANTOWN","MD","20874"
"APPTIO INC.","11100 NE 8TH ST.","STE 600","BELLEVUE","WA","98004"
"AQUAS, INCORPORATED","10400 CONNECTICUT AVENUE",,"KENSINGTON","MD","20895"
"AQUATECH CARWASH SOLUTIONS, LLC","11127 YELLOW LEAF WAY",,"GERMANTOWN","MD","20876"
"AR AUTO PRO, LLC","7545 RICKENBACKER DRIVE",,"GAITHERSBURG","MD","20879"
"ARADA INTERNATIONAL FOOD CORPORATION","6844 NEW HAMPSHIRE AVE",,"TAKOMA PARK","MD","20912-4817"
"ARAS JEWELERS, INCORPORATED","1522 ROCKVILLE PIKE",,"ROCKVILLE","MD","20852-1602"
"ARASP MIRHAKKAK-BIPARVA DENTAL CARE P.C.","941B RUSSELL AVE","SUITE B","GAITHERSBURG","MD","20879-3254"
"ARAUJO LANDSCAPING SERVICES, L.L.C.","2705 URBANA DRIVE",,"SILVER SPRING","MD","20906"
"ARBON,INC.","16600 MUSIC GROVE COURT",,"ROCKVILLE","MD","20853"
"ARBORCARE, INC.","18001 BOWIE MILL RD",,"ROCKVILLE","MD","20855-1614"
"ARBORVIEW CAPITAL LLC","5425 WISCONSIN AVE, SUITE 704",,"CHEVY CHASE","MD","20815-3552"
"ARC HOME LLC","9707 KEY WEST AVE, SUITE 110",,"ROCKVILLE","MD","20850"
"ARC MANOR LLC","7416 OSKALOOSA DR",,"DERWOOD","MD","20855"
"ARC SERVICES A LLC","ARC SERVICES A LLC","189 KENTLANDS BLVD STE 200","GAITHERSBURG","MD","20878"
"ARCELLX, INC.","25 WEST WATKINS MILL ROAD","SUITE A","GAITHERSBURG","VA","20878"
"ARCETRI GROUP, LLC","7722 SAVANNAH DR",,"BETHESDA","MD","20817-1434"
"ARCH TELECOM INC.","575 UNDERHILL BLVD","STE 211","SYOSSET","NY","11791"
"ARCHER SERVICE, INC.","13612 CREEKSIDE DR",,"SILVER SPRING","MD","20904-5417"
"ARCHIE AVEDISIAN & COMPANY, INC.","9832 MEADOWCROFT LANE",,"MONTGOMERY VILLAGE","MD","20886-1337"
"ARCHITECTS COLLABORATIVE INCORPORATED","9400 OLD GEORGETOWN ROD",,"BETHESDA","MD","20817"
"ARCHITECTURAL CERAMICS, INC.","800 E GUDE DR",,"ROCKVILLE","MD","20850-8308"
"ARCHSTONE GROSVENOR TOWER LP","671 N. GLEBE ROAD","SUITE 800","ARLINGTON","VA","22203"
"ARCOR, INC.","ACAJUTLA RESTAURANT","18554 WOODFIELD RD","GAITHERSBURG","MD","20879-4709"
"ARDENT COMPANY, LLC","PO BOX 879",,"MCLEAN","VA","22101-0879"
"ARDENT HOME HEALTHCARE SERVICES LLC","963 D RUSSELL AVE.",,"GAITHERSBURG","MD","20879"
"AREA APPRAISAL SERVICES, INC.","7131 ARLINGTON RD, APT 455",,"BETHESDA","MD","20814"
"AREA WIDE MARKET RESEARCH, INC.","16017 COMPRINT CIRCLE",,"GAITHERSBURG","MD","20877-1319"
"AREEHANT, LLC","8004 CLOVER WOOD COURT",,"GAITHERSBURG","MD","20879"
"AREENASOFT CORPORATION","1 RESEARCH CT STE 450",,"ROCKVILLE","MD","20850"
"ARENA PRODUCTIONS, INC.","11504 BROAD GREEN DR",,"POTOMAC","MD","20854"
"AREPAS PUES, LLC","8855 FENTON ST",,"SILVER SPRING","MD","20910"
"ARESTI, INC.","1071 ROCKVILLE PIKE",,"ROCKVILLE","MD","20852"
"ARGOR BUSINESS SOLUTIONS LLC","12510 PROSPERITY DRIVE,SUITE 140",,"SILVER SPRING","MD","20904-1988"
"ARIAS COSMETIC SALES LLC","1105 SPRING ST. STE H",,"SILVER SPRING","MD","20910"
"ARIDI ENTERPRISE INC.","20640 SENACA MEADOWS PARKWAY",,"GERMANTOWN","MD","20876"
"ARIDI MOTOR SPORT CORP.","8054 CESSNA AVE",,"GAITHERSBURG","MD","20879"
"ARIDORMY LLC","202 PRETTYMAN DRIVE",,"ROCKVILLE","MD","20850"
"ARIELLE SHUGOLL PSY. D. LLC","2212 HERMITAGE AVE",,"SILVER SPRING","MD","20902"
"ARIF PICTURES BY NARDY LLC","23516 GARDENSIDE PL",,"CLARKSBURG","MD","20871"
"ARII LAW FIRM, LLC","401 E. JEFFERSON STREET","SUITE 208","ROCKVILLE","MD","20850"
"ARISTEAS CORPORATION","14451 STONEBRIDGE VIEW DRIVE",,"N POTOMAC","MD","20878-4372"
"ARJ GROUP INC","11421 ROCKVILLE PIKE",,"ROCKVILLE","MD","20852"
"ARLENE F. GARDSBANE, P.A.","13818 GEORGIA AVE",,"WHEATON","MD","20906-2924"
"ARM CONTRACTORS LLC","12104 GOODHILL RD",,"SILVER SPRING","MD","20902"
"ARMEN LOCK LLC","7622 AIRPARK RD",,"GAITHERSBURG","MD","20879"
"ARMSTRONG, DONOHUE, CEPPOS, VAUGHAN & RH","204 MONROE ST STE 101",,"ROCKVILLE","MD","20850"
"AROMA VIBES LLC","8250 GEORGIA AVE","APT 718","SILVER SPRING","MD","20910"
"ARONOFF & ASSOCIATES, INC.","7810 PEARSON KNOLL PLACE",,"POTOMAC","MD","20854"
"ARONSON LLC","111 ROCKVILLE PIKE","SUITE 600","ROCKVILLE","MD","20850"
"ARORA WIRELESS LLC","12926 VALLEYWOOD DR",,"SILVER SPRING","MD","20906"
"ARP SCIENCES LLC","PO BOX 10008",,"ROCKVILLE","MD","20849-0008"
"ARQISOFT, LLC","14914 BRADWILL CT",,"ROCKVILLE","MD","20850"
"ARRESSSOFT, LLC","11115 CANDLELIGHT LN.",,"POTOMAC","MD","20854"
"ARREST PEST LLC","6701 DEMOCRACY BLVD.","SUITE 300","BETHESDA","MD","20817"
"ARROYO'S FAMILY DENTAL, L.L.C","610 VALLEY BROOK DR",,"SILVER SPRING","MD","20904-2954"
"ARTEMIS HUMAN CAPITAL MANAGEMENT, LLC","9841 WASHINGTONIAN BLVD, SUITE 200",,"GAITHERSBURG","MD","20878"
"ARTEMIS REAL ESTATE PARTNERS, LLC","5404 WISCONSIN AVENUE","SUITE 1150","CHEVY CHASE","MD","20815"
"ARTFUL FLORALS LLC","7705 ARROWOOD COURT",,"BETHESDA","MD","20817"
"ARTHRITIS AND RHEUMATISM ASSOCIATES, P.C","2730 UNIVERSITY BLVD W    STE 708",,"WHEATON","MD","20902-5904"
"ARTIGA PHOTOGRAPHY, LLC","4906 AURORA DR",,"KENSINGTON","MD","20895-1201"
"ARTISAN DENTAL OF CHEVY CHASE, LLC","STE 712","5530 WISCONSIN AVE","CHEVY CHASE","MD","20815"
"ARTISAN HANDCRAFTS, LLC","13938 LAYHILL RD",,"SILVER SPRING","MD","20906-2109"
"ARTISAN MOVERS INC","6219 EXECUTIVE BLVD",,"ROCKVILLE","MD","20852"
"ARTISTIC DESIGN BUILD, INC.","10411 MOTORCITY DR., SUITE 750",,"ROCKVILLE","MD","20817"
"ARTISTIC GARDENS, INC.","2296 GLENMORE TERRACE",,"ROCKVILLE","MD","20850"
"ARTISTIC KITCHEN, INC.","7910 CESSNA AVE",,"GAITHERSBURG","MD","20879-5408"
"ARTISTRY BY GABRIEL, LLC","19633 WHITE SADDLE DR",,"GERMANTOWN","MD","20874"
"ARTITECH, INC.","350A CHRISTOPHER AVE",,"GAITHERSBURG","MD","20879-3660"
"ARTS OF GREATER WASHINGTON, LLC","11800 OLD GEORGETOWN RD, #1310",,"ROCKVILLE","MD","20852"
"ARTURO H. HERNANDEZ, P.C.","8607 SECOND AVENUE","SUITE 507","SILVER SPRING","MD","20910-3355"
"ARUDIA, LLC","8004 GLENDALE ROAD",,"CHEVY CHASE","MD","20815"
"ARUNA S NATHAN, M.D., P.A.","6816 MARBURY ROAD",,"BETHESDA","MD","20817"
"ARVO SOLUTIONS LLC","10319 WESTLAKE DRIVE SUITE 219",,"BETHESDA","MD","20817"
"ARYA PRODUCTIONS, LLC","14216 BEAR CREEK DR",,"BOYDS","MD","20841"
"ASAP GENERAL CONTRACTORS, INC.","1016 7 TH ST SE",,"WASHINGTON","DC","20003-3528"
"ASBELL, LARRY","7216 WILLOW AVE",,"TAKOMA PARK","MD","20912-4323"
"ASC TICKET CO., LLC","408 MAIN ST",,"GAITHERSBURG","MD","20878-5541"
"ASCEND CONTRACTING, CORP.","6615 MILLWOOD RD",,"BETHESDA","MD","20817"
"ASCENSION HOME CONTRACTORS, LLC","3315 FAYETTE ROAD",,"KENSINGTON","MD","20895"
"ASESORIA AMERICANA & TAXLINE SERVICES, I","11255 GRANDVIEW AVE",,"WHEATON","MD","20902"
"ASHAASI INVESTMENT GROUP, LLC","402 KING FARM BLVD","STE. 125","ROCKVILLE","MD","20850"
"ASHBRE HOME CARE LLC","SUITE 201","121 CONGRESSIONAL LANE","ROCKVILLE","MD","20852"
"ASHCRAFT & GEREL, LLP","8403 COLESVILLE RD, STE 1250",,"SILVER SPRING","MD","20910"
"ASHLEY SOPHIA, LLC","18509 CAPE JASMINE WAY",,"GAITHERSBURG","MD","20879"
"ASHTON ASSOCIATES COMPANY","17504 SHENANDOAH CT",,"ASHTON","MD","20861"
"ASHTON CONFERENCE PLANNING PROFESSIONALS","103 CRYSTAL SPRING DRIVE",,"ASHTON","MD","20861-3601"
"ASHTON PAINT AND HARDWARE, INC.","500 OLNEY SANDY SPRING ROAD",,"SANDY SPRING","MD","20860"
"ASHTON SPA NAILS, LLC","9 OLNEY- SANDY SPRING RD",,"ASHTON","MD","20861"
"ASI COMPREHENSIVE WASTE MANAGEMENT, INC.","1 SHEA WAY",,"NEWARK","DE","19713-3421"
"ASIA 2, INC.","12937 WISTERIA DR",,"GERMANTOWN","MD","20874-2654"
"ASIA BUFFET INC.","8661 COLESVILLE RD",,"SILVER SPRING","MD","20910-3924"
"ASIA CAFE 3, INC.","18301 LEAMAN FARM RD",,"GERMANTOWN","MD","20874"
"ASIAN AMERICAN MEMORIALS, LLC","12913 PARKLAND DR",,"ROCKVILLE","MD","20853"
"ASIAN REMODELING, INC.","8519 BELLS RIDGE TERR",,"POTOMAC","MD","20854"
"ASM PAVING, LLC","PO BOX 460",,"OLNEY","MD","20832"
"ASMP - THE AMERICAN SOCIETY OF MEDIA PHO","PO BOX 31207",,"BETHESDA","MD","20824"
"ASNER, JUDITH (MSW,BCD)","10613 MUIRFIELD DR",,"POTOMAC","MD","20854-4080"
"ASPEN GROWTH TECHNOLOGY SOLUTIONS LLC","9916 CHAPEL ROAD",,"POTOMAC","MD","20854"
"ASPEN HILL FLORIST, INC.","3833 ASPEN HILL RD",,"SILVER SPRING","MD","20906-2905"
"ASPEN HILL OPTOMETRY, LLC","1950 OLD GALLOWS ROAD STE 520",,"VIENNA","VA","22182"
"ASPEN HILL PARTNERS, LTD.","12 WELLAND CT",,"NORTH POTOMAC","MD","20878-4847"
"ASPEN HILL PEDIATRICS LLC","3041 BEL PRE RD",,"SILVER SPRING","MD","20906-2407"
"ASPEN HILL PHYSICAL THERAPY LLC","12006 VEIRS MILL RD",,"SILVER SPRING","MD","20906-2407"
"ASPEN HILL PLUMBING, LLC","12813 FALMOUTH DRIVE",,"SILVER SPRING","MD","20904-3404"
"ASPEN HOME MORTGAGE GROUP, INC.","19844 MEREDITH DRIVE",,"DERWOOD","MD","20855"
"ASPEN LANDSCAPE CONTRACTORS, INC.","PO BOX 545",,"SPENCERVILLE","MD","20868"
"ASPEN SERVICES, LLC","13206 MAGELLAN AVE",,"ROCKVILLE","MD","20853-3046"
"ASPEN TECH, LLC","509 TANBARK CT",,"BRINKLOW","MD","20862-9751"
"ASPEN TREE CARE LLC","13006 PICKERING DRIVE",,"GERMANTOWN","MD","20874"
"ASPHALT CONCRETE ASSOCIATES, LTD.","24233 CLEMATIS DRIVE",,"GAITHERSBURG","MD","20882"
"ASSESSMENT, EDUCATION, AND RESEARCH EXPE","26001 SCHOOL YARD COURT","26001","DAMASCUS","MD","20872"
"ASSET MANAGEMENT COMPLIANCE CONSULTING S","18419 SNOWBERRY WAY",,"OLNEY","MD","20832"
"ASSISTED LIVING OF POTOMAC, LLC","12620 GREENBRIAR ROAD",,"POTOMAC","MD","20854"
"ASSISTED LIVING OF ROCKVILLE II INC.","13700 PARKLAND DR",,"ROCKVILLE","MD","20853-2741"
"ASSISTED LIVING OF ROCKVILLE, LLC","4110 HEATHFIELD RD",,"ROCKVILLE","MD","20853"
"ASSOCIATED PROFESSIONAL REHABILITATION S","PO BOX 500",,"BROOKEVILLE","MD","20833-0500"
"ASSOCIATES IN CARDIOLOGY, P.A.","2900 LINDEN LANE","SUITE 200","SILVER SPRING","MD","20910"
"ASSOCIATES IN FAMILY PRACTICE, P.A.","STE 212","12210 PLUM ORCHARD DRIVE","SILVER SPRING","MD","20904"
"ASSOCIATION FOR FINANCIAL PROFESSIONALS,","4520 E WEST HWY",,"BETHESDA","MD","20814-3319"
"ASSOCIATION RESEARCH, INC.","910 CLOPPER DR - SUITE 210N",,"GAITHERSBURG","MD","20878"
"ASTELLAS PHARMA US, INC.","1 ASTELLAS WAY",,"NORTHBROOK","IL","60062"
"ASTOR & SANDERS CORPORATION","9900 BELWARD CAMPUS DR","SUITE 275","ROCKVILLE","MD","20850"
"ASTRIX SOFTWARE TECHNOLOGY, INC.","125 HALF MILE RD SUITE 200",,"RED BANK","NJ","07701-6749"
"ASTRO LAB BREWING LLC","ASTRO LAB BREWING LLC","12 E GRANVILLE DR","SILVER SPRING","MD","20901"
"ASTRO SYSTEMS, INC.","7979 OLD GEORGETOWN RD","STE 650","BETHESDA","MD","20814"
"ASTROLINK INTERNATIONAL LLC","BUILDING 100, RM U4632","PO BOX 61511","KING OF PRUSSIA","PA","19406-0911"
"ASWAN FURNITURE CORP.","6824-A NEW HAMPSHIRE AVE.",,"TAKOMA PARK","MD","20912"
"AT AUTOMOTIVE, INC.","3831G PLYERS MILL RD",,"KENSINGTON","MD","20895-2030"
"AT HOME CARE, INC.","15304 SPENCERVILLE COURT #101",,"BURTONVILLE","MD","20866"
"AT HOME INSPECTIONS, LLC","9533 LOST TRAIL WAY",,"POTOMAC","MD","20854"
"ATAM, ASUGMAN","751 ROCKVILLE PIKE #10A",,"ROCKVILLE,","MD","20852-1142"
"ATAR DESIGNS LLC","407 N STONESTREET AVENUE",,"ROCKVILLE","MD","20850"
"ATC IT CONSULTING INC.","11830 TULIPSTEM DR",,"CLARKSBURG","MD","20817"
"ATCO, INC.","15924 DERWOOD ROAD",,"ROCKVILLE","MD","20855"
"ATGC LABS LLC","9204 BELLS MILL RD",,"POTOMAC","MD","20854-2215"
"ATHENA CONSULTING LLC","506 MAIN ST","STE 215","GAITHERSBURG","MD","20878"
"ATHENA INFONOMICS LLC","155 GIBBS STREET, #403",,"ROCKVILLE","MD","20850"
"ATHENA JOINT VENTURE SERVICES, LLC","4905 DEL RAY AVE SUITE 402",,"BETHESDA","MD","20814"
"ATIYA H. GOPALANI, M.D., P.A.","18111 PRINCE PHILIP DRIVE, STE 126",,"OLNEY","MD","20832"
"ATJ AGENCY INC","1300 PICCARD DRIVE","SUITE 201","ROCKVILLE","MD","20850"
"ATL ENVIRONMENTAL, INC. A/K/A ADVANCED T","10632 LITTLE PATUXENT PARKWAY","SUITE 200","COLUMBIA","MD","21044"
"ATLANTA RESTAURANT PARTNERS, LLC","1760 PEACHTREE ST","#200","ATLANTA","GA","30309"
"ATLANTIC BATH & BRASS, LLC","4306 MILLWOOD RD",,"MOUNT AIRY","MD","21771-4604"
"ATLANTIC COASTAL COOLING AND HEATING, IN","7845 CESSNA AVENUE",,"GAITHERSBURG","MD","20879"
"ATLANTIC DEVELOPMENT, LLC","6860 OLNEY-LAYTONSVILLE ROAD",,"LAYTONSVILLE","MD","20882"
"ATLANTIC EDGE, INC.","211 PERRY PARKWAY","STE 4","GAITHERSBURG","MD","20877"
"ATLANTIC FINANCE AND CREDIT LLC","4601","HALLET PL","ROCKVILLE","MD","20853"
"ATLANTIC HEARING CENTERS, INC.","10400 CONNECTICUT AVE   STE 510",,"KENSINGTON","MD","20895-3944"
"ATLANTIC MACHINERY INC.","2628 GARFIELD AVE",,"SILVER SPRING","MD","20910-1811"
"ATLANTIDA BUILDERS, INC.","7628 AIRPARK RD",,"GAITHERSBURG","MD","20879"
"ATLAS CLEANERS INC.","8517 ATLAS DR",,"GAITHERSBURG","MD","20877"
"ATLAS FLOORS, INC.","7845 AIRPARK RD",,"GAITHERSBURG","MD","20879-4167"
"ATLAS REALTY, INC.","807 MILESTONE DR",,"SILVER SPRING","MD","20904-2710"
"ATM SERVICES CORPORATION","P.O. BOX 34",,"SPENCERVILLE","MD","20868-0034"
"ATOS IT OUTSOURCING SERVICES, LLC","PO BOX 460189","DEPT 907","HOUSTON","TX","77056"
"ATTRONICA COMPUTERS, INC.","15867 GAITHER DR",,"GAITHERSBURG","MD","20877-1403"
"AUBREY & ASSOCIATES, L.L.C.","18916 N. MEADOW FENCE ROAD",,"MONTGOMERY VILLAGE","MD","20886"
"AUDACE, L.L.C.","11216 TROY ROAD",,"ROCKVILLE","MD","20852"
"AUDIOLOGY CENTER OF MARYLAND, INC.","PO BOX 77072",,"EWING","NJ","08628-6072"
"AUDITORY SERVICES, INC.","STE 104","1734 ELTON RD","SILVER SPRING","MD","20903-1724"
"AUEL, ADAM B","19941 SPURRIER AVE",,"POOLESVILLE","MD","20837-2018"
"AUERBACH, KENNETH D","8720 GEORGIA AVE #704",,"SILVER SPRING","MD","20910-3602"
"AUERBACHSCHROT LLC","2200 RESEARCH BLVD",,"ROCKVILLE","MD","20850-3289"
"AUGUST 32, LLC","19847 CENTURY BLVD UNIT J",,"GERMANTOWN","MD","20874"
"AUGUST II PRODUCTIONS,LLC","4800 HAMPDEN LANE #200",,"BETHESDA","MD","20814"
"AUGUST, LANG & HUSAK, INC.","SUITE 700","2 WOSCPMSOM CIRCLE","CHEVY CHASE","MD","20815"
"AUGUSTUS LLC","5 DUVALL LN",,"GAITHERSBURG","MD","20877-1838"
"AULTEC, INC.","7895 CESSNA AVE., STE D",,"GAITHERSBURG","MD","20879"
"AUMILLER AND SON GENERAL CONTRACTOR, INC","2209 DISTRIBUTION CIR",,"SILVER SPRING","MD","20910-1260"
"AUNTIE ANNE'S FRANCHISOR SPV LLC","PO BOX 802206",,"DALLAS","TX","75380-2206"
"AURON TECHNOLOGIES, LLC","11569 PARAMUS DR",,"NORTH POTOMAC","MD","20878-4282"
"AURORA RIDGE PROPERTIES, LLC","P.O. BOX 44506",,"FORT WASHINGTON","MD","20749"
"AURORAS HAIR DESIGN, INC.","2106 VEIRS MILL ROAD",,"ROCKVILLE","MD","20851"
"AUROTECH, INC.","6909 TIMBER CREEK COURT",,"CLARKSVILLE","MD","21029"
"AUSSIE NICK SQUASH, LLC","10105 NEW LONDON DR","10105 NEW LONDON DR","POTOMAC","MD","20854-4850"
"AUTHXPERTS LLC","1 RESEARCH COURT,SUITE 450",,"ROCKVILLE","MD","20850"
"AUTO BODY MANAGEMENT GROUP, LLC","535 D2 SOUTHLAWN LANE",,"ROCKVILLE","MD","20850"
"AUTO CARE ASSOCIATION","7101 WISCONSIN AVE STE 1300",,"BETHESDA","MD","20814"
"AUTO COLLISION CRAFTSMEN, INC.","7865 CESSNA AVE",,"GAITHERSBURG","MD","20879"
"AUTO DENT CARE, INC.","5410 RANDOLPH DR",,"ROCKVILLE","MD","20854"
"AUTO ENTERPRISES, LTD.","203 MOUNT VERNON PL",,"ROCKVILLE","MD","20852-1116"
"AUTO GLASS EXPERTS L.L.C.","13 TRUDY WAY",,"GAITHERSBURG","MD","20878-1147"
"AUTO GLASS INNOVATORS L.L.C","655 ELMCROFT BLVD","APP12203","ROCKVILLE","MD","20850"
"AUTO KRAFTERS BODYSHOP INC.","12320 WILKINS AVENUE",,"ROCKVILLE","MD","20852"
"AUTO THERAPY, LLC","8027 SNOUFFER SCHOOL ROAD","SUITE A","GAITHERSBURG","MD","20879"
"AUTO TRADER OF DMV, LLC","AUTO TRADER OF DMV, LLC","4811 CAMELOT ST","ROCKVILLE","MD","20853"
"AUTOALERT, LLC","114 W. 11TH STREET",,"KANSAS CITY","MO","64105"
"AUTOBAHN CAR SERVICE, LLC","11848 COAKLEY CIRCLE",,"ROCKVILLE","MD","20852"
"AUTOCHEM STANDARDS LLC","43 TRIPLE CROWN COURT",,"NORTH POTOMAC","MD","20878"
"AUTOMATED PRECISION INC.","15000 JOHNS HOPKINS DR.",,"ROCKVILLE","MD","20850"
"AUTOMATED RESOURCE MANAGEMENT ASSOCIATES","962 WAYNE AVE STE 320",,"SILVER SPRING","MD","20910-4433"
"AUTOMATIC FILMS LLC","9505 CABLE DRIVE",,"KENSINGTON","MD","20895"
"AUTOMATIC NURSING CARE SERVICES, INC.","SUITE 316","7505 NEW HEMPSHIRE","TAKOMA PARK","MD","20912"
"AUTOMOBILE DIAGNOSTIC CENTER INC.","4233 HOWARD AVE",,"KENSINGTON","MD","20895"
"AUTOMOTIVE INVESTMENT PARTNERS LLC","19079 TOW PATH TER",,"LEESBURG","VA","20176"
"AUTOMOTIVE RENTALS, INC.","PO BOX 844",,"MT LAUREL","NJ","8054"
"AUTOMOTIVE RHYTHMS COMMUNICATIONS, LLC","13924 OVERTON LANE",,"SILVER SPRING","MD","20904"
"AUTOMOTIVE SOLUTIONS, LLC","231 DERWOOD CIRCLE",,"ROCKVILLE","MD","20850"
"AUTOMOTIVE SUPPORT SERVICES, INC.","15621 AITCHESON LN",,"LAUREL","MD","20707-3030"
"AUTONOMOUS THERAPEUTICS INC","11808 AUTH LANE",,"SILVER SPRING","MD","20902"
"AUTOPART INTERNATIONAL, INC. OF MASSACHU","1004 SEABROOK WAY",,"CINCINNATI","OH","45245-1963"
"AUTOSCRIBE CORPORATION","12276 SAN JOSE BLVD","SUITE 624","JACKSONVILLE","FL","32223"
"AUTUMN HEALTH INC.","AUTUMN HEALTH INC","15137 ROLLINMEAD DRIVE","DARNESTOWN","MD","20878"
"AV GENERAL SERVICES, INC.","9926 BRIXTON LANE",,"BETHESDA","MD","20817"
"AVAID, LLC","8820 OAKMONT STREET",,"GAITHERSBURG","MD","20877"
"AVAIL VAPOR, LLC","820 SOUTHLAKE BLVD","820 SOUTHLAKE BLVD.","NORTH CHESTERFIELD","VA","23236"
"AVALON CHASE GROVE, INC.","671 N GLEBE RD","STE 800","ARLINGTON","VA","22203"
"AVALON GROSVENOR LLC","671 N GLEBE RD","STE 800","ARLINGTON","VA","22203"
"AVALON HEALTH, LLC","811 RUSSELL AVE STE B",,"GAITHERSBURG","MD","20879"
"AVALON NAIL SPA LLC","3846 INTERNATIONAL DRIVE",,"SILVER SPRING","MD","20906"
"AVALON PORTICO AT SILVER SPRING METRO, L","SUITE 800","671 N. GLEBE ROAD","ARLINGTON","VA","22203"
"AVALONBAY COMMUNITIES, INC.","671 N. GLEBE ROAD",,"ARLINGTON","VA","22203"
"AVALONBAY TRAVILLE, LLC","671 N GLEBE RD","STE 800","ARLINGTON","VA","22203"
"AVANCE SYSTEMS, INC.","18403 GUILDBERRY DRIV","APT. 304","GAITHERSBURG","MD","20879"
"AVANT DENTISTRY, LLC","613 GRAND CHAMPION DRIVE",,"ROCKVILE","MD","20850"
"AVANTE ELLSWORTH VENTURE I LLC","9010 OVERLOOK BOULEVARD",,"BRENTWOOD","TN","37027"
"AVANTE RESOURCES, LLC","19300 MONTGOMERY VILLAGE AVE.",,"MONTGOMERY VILLAGE","MD","20866"
"AVAR CONSULTING, INC.","1395 PICCARD DR","SUITE 200","ROCKVILLE","MD","20850"
"AVAZI AUTO GROUP LLC","19211  CHENNAULT WAY","STE FG","NORTH BETHESDA","MD","20852"
"AVE-MARIA BRAIDING-HAIR SALON L.L.C.","19221 PLUMMER DRIVE",,"GERMANTOWN","MD","20876"
"AVELI STUDIOS LLC","11409 COMMONWEALTH DR., APT. T3",,"ROCKVILLE","MD","20852"
"AVENUE SIXTY-FIVE STAGING AND DESIGN, LL","14921 TURKEY FOOT ROAD","14921","DARNESTOWN","MD","20878"
"AVENUE STORES, LLC","PO BOX 4747",,"OAK BROOK","IL","60522"
"AVERY-HESS, INC.","2301 GALLOWS RD",,"DUNN LORING","VA","22027-1149"
"AVIATION PROCUREMENT SYSTEMS, LLC","211 PERRY PKWY STE 5",,"GAITHERSBURG","MD","20877"
"AVIATIONMANUALS, LLC","7361 CALHOUN PLACE","SUITE 620","ROCKVILLE","MD","20855"
"AVISON YOUNG - WASHINGTON, D.C., LLC","1 SOUTH WACKER DRIVE","SUITE 3000","CHICAGO","IL","60606"
"AVOCADO ASSOCIATES II, LLC","18153 VILLAGE CENTER DRIVE",,"OLNEY","MD","20832"
"AVOCADO ASSOCIATES LLC","18310 CONTOUR RD",,"GAITHERSBURG","MD","20877-2614"
"AW BEAUTY SALON LLC","900 THAYER AVE.",,"SILVER SPRING","MD","20910"
"AW LANDSCAPES, INC.","16998 OVERHILL ROAD",,"ROCKVILLE","MD","20855"
"AWFCS LLC","1300 PICCARD DRIVE","SUITE 201","ROCKVILLE","MD","20850"
"AWK, LTD.","P O BOX 10543",,"SILVER SPRINGS","MD","20914"
"AWO TITLE, LLC","4421 FORBES BLVD","SUITE G","LANHAM","MD","20706"
"BEAUTY SYSTEMS GROUP LLC","PO BOX 90220",,"DENTON","TX","76210"
"AXELSON, WILLIAMOWSKY, BENDER & FISHMAN,","1401 ROCKVILLE PIKE   STE 650",,"ROCKVILLE","MD","20852-1428"
"AXIA ACQUISITION CORPORATION","1327 NORTHBROOK PARKWAY","SUITE 400","SUWANEE","GA","30024"
"AXIM FRINGE SOLUTIONS GROUP, LLC","1355 PICCARD DRIVE 120",,"ROCKVILLE","MD","20850"
"AXIM GLOBAL STRATEGIES GROUP, LLC","1355 PICCARD DRIVE 120",,"ROCKVILLE","MD","20850"
"AXIOM SERVICES INC","12105 DAMSON DR",,"NORTH POTOMAC","MD","20878"
"AXIOMINE, LLC","13900 CARLSON FARM DR",,"GERMANTOWN","MD","20874"
"AXION INFORMATION TECHNOLOGIES, INC.","9010 COLESBURY PLACE",,"FAIRFAX","VA","22031"
"AYALA ANDRADE INC.","9029 MANCHESTER RD",,"SILVER SPRING","MD","20901-4126"
"AYOUB, INC.","10516 METROPOLITAN AVE",,"KENSINGTON","MD","20895-2606"
"AYPEKS, INCORPORATED","4800 HAMPDEN LANE","STE 200","BETHESDA","MD","20814"
"AZ1 CONSTRUCTION SERVICES LLC","9113 ETON RD",,"SILVER SPRING","MD","20901-4901"
"AZANA, INC.","9900 KEY WEST AVE",,"ROCKVILLE","MD","20850-3975"
"AZARIA HAIR STUDIO LLC","8101 SCHRIDER ST",,"SILVER SPRING","MD","20910"
"AZIYO BIOLOGICS, INC.","12510 PROSPERITY DRIVE","STE 370","SILVER SPRING","MD","20904"
"B & B REFUSE, INC.","13899 FOGGY BOTTOM CT",,"MT AIRY","MD","21771"
"B & C FOOD SERVICE, LLC","9623 LOST KNIFE RD",,"GAITHERSBURG","MD","20877"
"B & D RENTALS","3609 CHERRY VALLEY DR",,"OLNEY","MD","20832-2403"
"B & G EXTRAHAND, LLC","23106 BASSWOOD HILL DRIVE",,"CLARKSBURG","MD","20871"
"B & G GARDENING & LANDSCAPING, INC.","3601 JANET RD",,"SILVER SPRING","MD","20906-4353"
"B & J BAGELS, LLC","36 VITAL WAY",,"SILVER SPRING","MD","20904"
"B & J INTERNATIONAL INCORPORATED","5018 46TH AVE",,"HYATTSVILLE","MD","20781-2303"
"B & L JOINT VENTURE","57 RANDOLPH ROAD","SUITE 200","SILVER SPRING","MD","20904"
"B & P JEWELERY AND GIFTS LLC","417 E. INDIAN SPRING DR",,"SILVER SPRING","MD","20901"
"B & R CLEANING SERVICES PLUS, INC.","PO BOX 1233",,"CLARKSBURG","MD","20871-8889"
"B & R PROPERTY MANAGMENT, L.L.C.","451 HUNGERFORD DR SUITE 700",,"ROCKVILLE","MD","20850"
"B J A QUALITY CARPENTRY, LLC","3526 PEARTREE COURT APT 13",,"SILVER SPRING","MD","20906"
"B S R S, LLC","17612 BURDETTE LN",,"GERMANTOWN","MD","20874-2202"
"B&M CONSULTING GROUP, INC.","10401 GROSVENOR PLACE","925","ROCKVILLE","MD","20852"
"B'S DOGGIE OASIS, LLC","19125 SAINT JOHNSBURY LA",,"GERMANTOWN","MD","20876"
"B. A. HAM, INC.","4604 FLOWER VALLEY DR",,"ROCKVILLE","MD","20853"
"B. BURNS CO. L.L.C.","5019 RODMAN ROAD",,"BETHESDA","MD","20816"
"B. C. ZIEGLER AND COMPANY","735 N WATER STREET STE 1000",,"MILWAUKEE","WI","53202"
"B. F. SAUL COMPANY OF WASHINGTON A/K/A B","7501 WISCONSIN AVE",,"BETHESDA","MD","20814-6519"
"B. K. LANG CONTRACTING CO., INC.","15721 PAGANO LANE",,"DANNESTOWN","MD","20874-3115"
"B. LINDSEY & ASSOCIATES, INC.","2141 INDUSTRIAL PKWY","SUITE 205","SILVER SPRING","MD","20904-1988"
"B. LINK ENTERPRISES, LLC","18316 QUEEN ELIZABETH DRIVE",,"OLNEY","MD","20832"
"B.M.C. PAINTING, INC.","11439 MONTERREY DR",,"WHEATON","MD","20902-2684"
"B.MOTUMA LLC","8533 PINEY BRANCH RD",,"SILVER SPRING","MD","20901"
"B.P. MESSENGER, INC.","19900 TANBARK WAY",,"BRINKLOW","MD","20862-9712"
"B.W. SURGICAL SUPPLY, INC.","10556 METROPOLITAN  AVE",,"KENSINGTON","MD","20895-2606"
"B2 EQUITY HOLDINGS, INC.","3121 QUAIL SPRINGS PARKWAY","SUITE 140","OKLAHOMA CITY","NY","73134"
"B2M, LLC","1099 14TH STREET NW","STE 300","WASHINGTON","DC","20005-3419"
"BA ENGINEERING, INC.","9705 HICKORY SPRING LN",,"GAITHERSBURG","MD","20882-3940"
"BA STAR, LLC","9800 HALL RD",,"POTOMAC","MD","20854-4349"
"BABAR, LLC","10346 CHAMPION WAY",,"LAUREL","MD","20723"
"BABIES 'N BUSINESS LIMITED LIABILITY COM","10117 PARKWOOD TER",,"BETHESDA","MD","20814-4035"
"BABIOLOGY, LLC","3209 PAULINE DRIVE",,"CHEVY CHASE","MD","20815"
"BABY GOT BARK PET SERVICES, LLC","2007 LANSDOWNE WAY",,"SILVER SPRING","MD","20910"
"BABY JOY 3D4D ULTRASOUND, LLC","1612 FEATHERWOOD ST",,"SILVER SPRING","MD","20904"
"BAC LIEU INC.","8077 GEORGIA AVE.",,"SILVER SPRING","MD","20910"
"BACHBAUER, KUNO","1107 NELSON ST","STE 204","ROCKVILLE","MD","20850"
"BACHRACH ASSET MANAGEMENT INC.","20 COURTHOUSE SQUARE","SUITE 208","ROCKVILLE","MD","20850-2338"
"BACK PAIN & HEADACHE CENTERS, LLC","1200 TREASURE OAK COURT",,"ROCKVILLE","MD","20852-5300"
"BACO REALTY CORPORATION","SUITE 202","51 FEDERAL STREET","SAN FRANCISCO","CA","94107-4151"
"BADLANDS, LLC","5200 RANDOLPH ROAD",,"ROCKVILLE","MD","20852"
"BAE SYSTEMS INFORMATION AND ELECTRONIC S","PO BOX 868",,"NASHUA","NH","03061-0868"
"BAER, RHODA","6327 WALHONDING ROAD",,"BETHESDA","MD","20816"
"BAF CONSULTING LLC","12008 WINESAP TERRACE",,"NORTHPOTOMAC","MD","20878"
"BAGZ, INC.","15432 NEW HAMPSHIRE AVE",,"SILVER SPRING","MD","20905"
"BAHIA 21 CORPORATION","2275 RESEARCH BLVD STE 500",,"ROCKVILLE","MD","20850"
"BAHIA CONSTRUCTION, LLC","18560 OFFICE PARK DR",,"ROCKVILLE","MD","20886"
"BAHN, CHARLES F","4848 BATTERY LANE STE 102-103",,"BETHESDA","MD","20814"
"BAILEY BUILDING CONSTRUCTION GROUP, INC.","10719 CASPER ST",,"KENSINGTON","MD","20895-2813"
"BAILEY PATENT RESEARCH LLC","16621 ROUNDABOUT DR",,"GAITHERSBURG","MD","20878-2001"
"BAILY & ASSOCIATES, LLC","9509 MEADOW RIDGE LANE",,"GAITHERSBURG","MD","20882"
"BAINBRIDGE MID-ATLANTIC MANAGEMENT, LLC","12765 W FOREST HILL BLVD","STE 1307","WELLINGTON","FL","33414-4722"
"BAINBRIDGE SHADY GROVE APARTMENTS, LLC","12765 FOREST HILL BLVD","1307","WELLINGTON","FL","33414"
"BAINBRIDGE ST. ELMO BETHESDA APARTMENTS,","12765 FOREST HILL BLVD","1307","WELLINGTON","FL","33414"
