OBJECTID,CATEGORY,NAME,ADDRESS,CITY,ZIPCODE,PHONE,URL,DATA,POINT_X,POINT_Y,SHAPE,LATITUDE,LONGITUDE
1,BUSINESS PARK,Park Plaza at Shady Grove,2101 Gaither Rd,Rockville,20850,202-783-8200,http://www.cbre.com/usa,Business Park,1260878.246275250101462,528623.054158660001121,"(39.11803908700006, -77.18135969099995)",39.118031219999999,-77.181357370000001
2,BUSINESS PARK,Princemont Industrial Pk,326 N Stonestreet Ave,Rockville,20850,301-424-5151, ,Industrial Park,1270098.481803830014542,517983.103300750022754,"(39.088871479000034, -77.14880119999998)",39.088863619999998,-77.148798889999995
3,BUSINESS PARK,Quince Orchard Corporate Park,101 Orchard Ridge Dr,Gaithersburg,20878,240-499-9600,http://www.quadrangledevcorp.com/quadrangle_w/files/home.htm,Business Park,1246520.557941870065406,532383.529298159992322,"(39.128274659000056, -77.23199795199997)",39.128104870000001,-77.234939179999998
4,BUSINESS PARK,270 Corporate Center,20201 Century Blv,Germantown,20874,301-815-9961,http://270corporatecenter.com/,Business Park,1237864.249965809984133,554950.874983179965056,"(39.18819897600008, -77.26016024799998)",39.190163009999999,-77.262738630000001
5,BUSINESS PARK,270 Corporate Center,20251 Century Blv,Germantown,20874,301-815-9961,http://270corporatecenter.com/,Business Park,1237864.249965809984133,554950.874983179965056,"(39.18866721200004, -77.26059866199995)",39.190163009999999,-77.262738630000001
6,BUSINESS PARK,270 Corporate Center,20250 Century Blv,Germantown,20874,301-815-9961,http://270corporatecenter.com/,Business Park,1237864.249965809984133,554950.874983179965056,"(39.187728992000075, -77.26292007799998)",39.190163009999999,-77.262738630000001
7,BUSINESS PARK,Rock Spring Industrial Park,6500 Rockledge Dr,Bethesda,20817,202-833-5800,http://www.bostonproperties.com,Industrial Park,1274156.056975610088557,494862.802223209990188,"(39.02540821200006, -77.13438594099995)",39.030756080000003,-77.134757769999993
8,BUSINESS PARK,Rock Spring Industrial Park,6901 Rockledge Dr,Bethesda,20817,202-585-0800,http://www.brandywinerealty.com,Industrial Park,1272570.973838140023872,495737.332272030005697,"(39.027802853000026, -77.13997012999994)",39.030756080000003,-77.134757769999993
9,BUSINESS PARK,Shady Grove Life Sciences Center,9700 Medical Center Dr,Rockville,20850,202-478-2300, ,Business Park,1257138.889599760062993,521470.192967990005855,"(39.09837886100007, -77.19448558999994)",39.100567519999998,-77.198817770000005
10,BUSINESS PARK,30 West Watkins Mill Rd LLC,30 W Watkins Mill Rd,Gaithersburg,20878,301-527-9219, ,Business Park,1246957.812086279969662,540312.427097539999522,"(39.15004730800007, -77.23052718199995)",39.15003944,-77.230524840000001
11,BUSINESS PARK,Belward Research Campus,9910 Belward Campus Dr,Rockville,20850,410-290-1461,http://www.manekin.com/projects/project-listing/belward-research-campus,Business Park,1253072.082811980042607,523296.597065689973533,"(39.103368827000054, -77.20883007599997)",39.103360960000003,-77.208827740000004
12,BUSINESS PARK,Bennington Corporate Center,35 W Watkins Mill Rd,Gaithersburg,20878,301-947-1770, ,Business Park,1246144.038517520064488,540020.616537270019762,"(39.14924043700006, -77.23339403899996)",39.151426979999997,-77.232646529999997
13,BUSINESS PARK,Burgundy Park,14803 Southlawn Ln,Rockville,20850,301-547-1000,,Business Park,1274051.584911519894376,521255.213895789987873,"(39.09787238100006, -77.13489095699998)",39.097864520000002,-77.134888649999994
14,BUSINESS PARK,Derwood Industrial Park,98 Derwood Cir,Rockville,20850,301-279-9386,,Industrial Park,1269336.353931119898334,524053.086538399977144,"(39.10553400600003, -77.15152176799995)",39.104257650000001,-77.155002409999994
15,BUSINESS PARK,Derwood Industrial Park,114 Derwood Cir,Rockville,20850,301-983-1553,,Industrial Park,1268720.20135454996489,523977.542986329994164,"(39.10532376300006, -77.15369260999995)",39.104257650000001,-77.155002409999994
16,BUSINESS PARK,Derwood Industrial Park,231 Derwood Cir,Rockville,20850,301-279-9386,http://www.hbwgroup.com,Industrial Park,1269806.14081155997701,524114.465866459999233,"(39.10570466000007, -77.14986661699999)",39.104257650000001,-77.155002409999994
17,BUSINESS PARK,Derwood Industrial Park,267 Derwood Cir,Rockville,20850,301-424-2900,http://www.donohoerealestate.com/property.HTM,Industrial Park,1268647.01837848010473,524234.863178569998126,"(39.10602993100008, -77.15395203199995)",39.104257650000001,-77.155002409999994
18,BUSINESS PARK,Diamond Farm Professional Park,839 Quince Orchard Blv,Gaithersburg,20878,301-424-2900,http://www.hbwgroup.com,Business Park,1247251.395446560112759,536747.235670219990425,"(39.140260752000074, -77.22946036399998)",39.140252879999998,-77.229458019999996
19,BUSINESS PARK,Doctors Medical Park,2101 Medical Park Dr,Wheaton,20902,301-983-2344, ,Business Park,1300028.142759710084647,494374.16068675997667,"(39.024135698000066, -77.04331565699994)",39.024127839999998,-77.043313380000001
20,BUSINESS PARK,Game Preserve Industrial Park,18775 N Frederick Ave,Gaithersburg,20879,301-340-9404,http://www.offenbacher.net,Industrial Park,1248287.288695520022884,546050.096734890015796,"(39.16580972400004, -77.22588931099995)",39.165801850000001,-77.225886970000005
21,BUSINESS PARK,Gateway 270 Business Center,22513 Gateway Center Dr,Clarksburg,20871,202-638-3000,,Business Park,1233716.56765795010142,568719.683443999965675,"(39.227940137000076, -77.27752225299997)",39.227932250000002,-77.277519889999994
22,BUSINESS PARK,Gateway 270 Business Center,22601 Gateway Center Dr,Clarksburg,20871,703-448-0121,http://www.akridge.com,Business Park,1233009.423209290020168,569742.840948950033635,"(39.230743321000034, -77.28002956199998)",39.227932250000002,-77.277519889999994
23,BUSINESS PARK,Germantown Technology Center,20270 Goldenrod La,Germantown,20876,301-986-9200,http://www.thebernsteincompanies.com,Business Park,1241027.606128759915009,554046.432102330029011,"(39.187712146000024, -77.25157142499995)",39.186904419999998,-77.250420759999997
24,BUSINESS PARK,King Farm Business Park,800 King Farm Blvd,Rockville,20850,703-847-5270,http://www.penrosegroup.com,Business Park,1260851.062659220071509,525581.157195820007473,"(39.109687034000046, -77.18143419299997)",39.10967917,-77.181431869999997
25,BUSINESS PARK,Campus at Metro Park North,7301 Calhoun Pl,Rockville,20855,301-986-9200,https://www.transwestern.com/propertylisting/building/14df9c96-3cab-e611-aca4-00155d0a270e/7301-calhoun-pl---building-3,Business Park,1270500.509580210084096,525044.630091320024803,"(39.10826165100008, -77.14742498399994)",39.108253779999998,-77.147422669999997
26,BUSINESS PARK,Century Corporate Campus,20381 Century Blvd,Germantown,20874,301-530-6200,http://www.trammellcrow.com,Business Park,1237685.741421649930999,555718.281319890054874,"(39.19227643800008, -77.26337859599994)",39.192268560000002,-77.263376239999999
27,BUSINESS PARK,Churchill Office Park,13236 Executive Park Ter,Germantown,20874,, ,Business Park,1234430.200426619965583,551459.555171919986606,"(39.18055747300008, -77.27481969499996)",39.180549599999999,-77.274817339999998
28,BUSINESS PARK,Clopper R and D Park,2 Metropolitan Ct,Gaithersburg,20878,202-244-5800,http://www.standardproperties.com/clopper-rd-park/,Business Park,1247535.88210282009095,539615.598680890048854,"(39.14813808800005, -77.22848267099994)",39.148130219999999,-77.228480329999996
29,BUSINESS PARK,Cloverleaf Center,20400 Century Blvd,Germantown,20874,301-530-6200,http://cloverleafcenter.info/toc.cfm,Business Park,1237040.169325049966574,555468.501863660058007,"(39.19158551700008, -77.26565376599996)",39.191577639999998,-77.265651410000004
30,BUSINESS PARK,Cloverleaf Center,12910 Cloverleaf Center Dr,Germantown,20874,301-816-0297,http://cloverleafcenter.info/toc.cfm,Business Park,1237358.524525339948013,554979.007847200031392,"(39.19024411800007, -77.26452553799999)",39.191577639999998,-77.265651410000004
31,BUSINESS PARK,Cotler Industrial Park,701 E Gude Dr,Rockville,20850,301-652-6366, ,Industrial Park,1271609.680269239936024,523321.583433719992172,"(39.10353565400004, -77.14350662599998)",39.103527790000001,-77.143504320000005
32,BUSINESS PARK,Crown Pointe Corporate Center,200 Professional Dr,Gaithersburg,20879,301-459-4151, ,Business Park,1247553.877878840081394,545095.843934000004083,"(39.16318473000007, -77.22846757799994)",39.163743009999997,-77.22740666
33,BUSINESS PARK,Quince Orchard Corporate Park,902 Wind River La,Gaithersburg,20878,202-393-1999,http://www.foulgerpratt.com,Business Park,1246658.815861999988556,533085.647442810004577,"(39.13020336500006, -77.23151685999994)",39.128104870000001,-77.234939179999998
34,BUSINESS PARK,Quince Orchard Medical Pk,11904 Darnestown Rd,Gaithersburg,20878,301-840-1616,http://greater-potomac.com,Business Park,1242343.111537979915738,527243.513165369979106,"(39.114132082000026, -77.24667477799994)",39.114124220000001,-77.246672430000004
35,BUSINESS PARK,Quince Orchard Park,1 Medimmune Way,Gaithersburg,20878,202-393-1999,http://www.quadrangledevcorp.com/quadrangle_w/files/home.htm,Business Park,1246402.080373760079965,531459.621969299972989,"(39.12573714000007, -77.23240730199996)",39.125729270000001,-77.232404959999997
36,BUSINESS PARK,Russell Office Park,901 Russell Ave,Gaithersburg,20879,301-948-6666,http://www.themgmtgroup.com,Business Park,1251583.82783459010534,543553.573468560003676,"(39.15897711900004, -77.21424197099998)",39.158969239999998,-77.214239640000002
37,BUSINESS PARK,Shady Grove Develop Park,9100 Gaither Rd,Gaithersburg,20877,240-912-0200,http://www.minkoffdev.com,Business Park,1258982.278785479953513,528086.970702160033397,"(39.11655667300005, -77.18803826299995)",39.115702339999999,-77.190176469999997
38,BUSINESS PARK,Shady Grove Develop Park,9300 Gaither Rd,Gaithersburg,20877,240-912-0200,http://www.minkoffdev.com,Business Park,1257518.016896120039746,528326.240078379982151,"(39.11720522100006, -77.19320082799999)",39.115702339999999,-77.190176469999997
39,BUSINESS PARK,Shady Grove Executive Center,9211 Corporate Blv,Rockville,20850,202-478-2300,,Business Park,1258472.732289009960368,525425.54580367996823,"(39.109246505000044, -77.18981465199994)",39.106723189999997,-77.190938729999999
40,BUSINESS PARK,Shady Grove Industrial Park,8717 Grovemont Cir,Gaithersburg,20877,202-244-5800, ,Industrial Park,1262513.717124769929796,532201.363537990022451,"(39.12787253800008, -77.17561962599996)",39.127864670000001,-77.175617299999999
41,BUSINESS PARK,Shady Grove Life Sciences Center,9920 Medical Center Dr,Rockville,20850,202-478-2300, ,Business Park,1254969.425533740082756,521187.219271729991306,"(39.09758898000007, -77.20212768799996)",39.100567519999998,-77.198817770000005
42,BUSINESS PARK,Southlawn Enterprise Park,14628 Southlawn Ln,Rockville,20850,202-244-5800, ,Business Park,1272336.215949920006096,520455.978823049983475,"(39.09567085600003, -77.14093083299997)",39.095662990000001,-77.140928520000003
43,BUSINESS PARK,Southlawn Industrial Ctr,689 Lofstrand Ln,Rockville,20850,, ,Industrial Park,1273451.499406960094348,520681.675591260020155,"(39.09629519900005, -77.13700236799997)",39.096287330000003,-77.137000060000005
44,BUSINESS PARK,Southlawn Industrial Ctr,14670 Southlawn Ln,Rockville,20850,301-294-8773, ,Industrial Park,1272722.356366280000657,520860.973127430013847,"(39.096784452000065, -77.13957246399997)",39.096287330000003,-77.137000060000005
45,BUSINESS PARK,Springpointe Executive Center,15200 Dino Dr,Burtonsville,20866,301-470-3635, ,Business Park,1333287.057094679912552,525208.666955480002798,"(39.10883628500005, -76.92652986499996)",39.108828410000001,-76.926527620000002
46,BUSINESS PARK,Tech Center Phase II,2180 Industrial Pkw,Silver Spring,20904,, ,Business Park,1321690.71813988010399,505012.17746466997778,"(39.05334764100007, -76.96705146999994)",39.053339780000002,-76.967049220000007
47,BUSINESS PARK,Tech Center 29,12120 Tech Rd,Silver Spring,20904,703-709-8866, ,Business Park,1321427.748539640102535,505695.500089299981482,"(39.05522407500007, -76.96797663899997)",39.055216209999998,-76.967974389999995
48,BUSINESS PARK,The Green Center,1201 Taft St,Rockville,20850,301-881-7800, ,Business Park,1274399.954575839918107,519617.711686270020436,"(39.09337779900005, -77.13365500399993)",39.093369930000001,-77.133652699999999
49,BUSINESS PARK,Zarpas Industrial Park,19300 Woodfield Rd,Gaithersburg,20879,301-948-2674, ,Industrial Park,1268774.180490599945188,548810.347617459949106,"(39.17350515700008, -77.15364968199998)",39.173497279999999,-77.153647359999994
50,BUSINESS PARK,Burtonsville Office Building,3537 Spencerville Rd,Burtonsville,20866,, ,Business Park,1329930.058947559911758,524542.063690850045532,"(39.10695812900008, -76.93799098799997)",39.106950249999997,-76.937988739999994
51,BUSINESS PARK,Shady Grove Life Sciences Center,9800 Medical Center Dr,Rockville,20850,202-478-2300, ,Business Park,1256385.7967350599356,520521.295943110017106,"(39.09576910200008, -77.19713196199996)",39.100567519999998,-77.198817770000005
52,BUSINESS PARK,Shady Grove Life Sciences Center,14907 Broschart Rd,Rockville,20850, , ,Business Park,1255910.499966620001942,522272.843848739983514,"(39.100575380000066, -77.19882009399998)",39.100567519999998,-77.198817770000005
53,BUSINESS PARK,Shady Grove Life Sciences Center,9900 Blackwell Rd,Rockville,20850, , ,Business Park,1254851.071101630106568,522562.031689009978436,"(39.10136298800006, -77.20255546499999)",39.100567519999998,-77.198817770000005
54,BUSINESS PARK,Silver Spring Metro Center,1301 East West Hwy,Silver Spring,20910,,,Business Park,1303965.547691369894892,482530.946851729997434,"(38.991622147000044, -77.02944283599999)",38.991614300000002,-77.029440570000006
55,BUSINESS PARK,Crown Pointe Corporate Center,300 Professional Dr,Gaithersburg,20879,301-947-1770,http://www.loughlinmanagement.com,Business Park,1247350.929014649940655,544720.012637650012039,"(39.16215145500007, -77.22918001099998)",39.163743009999997,-77.22740666
56,BUSINESS PARK,Crown Pointe Corporate Center,400 Professional Dr,Gaithersburg,20879,410-244-7100,http://www.labspace.com/home.asp?sec=home,Business Park,1247100.374646410113201,544269.015133230015635,"(39.160911472000066, -77.23005964499998)",39.163743009999997,-77.22740666
57,BUSINESS PARK,Crown Pointe Corporate Center,610 Professional Dr,Gaithersburg,20879,301-258-9832, ,Business Park,1247759.332215029979125,543782.939996770001017,"(39.15958144600006, -77.22773143099994)",39.163743009999997,-77.22740666
58,BUSINESS PARK,Crown Pointe Corporate Center,700 Professional Dr,Gaithersburg,20879,202-452-1100,http://www.cbre.com/usa,Business Park,1248423.300983649911359,543334.447964360006154,"(39.15835459500005, -77.22538595699996)",39.163743009999997,-77.22740666
59,BUSINESS PARK,Decoverly Office Park,15201 Diamondback Dr,Rockville,20850,202-728-8316, ,Business Park,1255340.310142090078443,524317.858890649979003,"(39.10618680700003, -77.20084512599993)",39.107663580000001,-77.198996179999995
60,BUSINESS PARK,Decoverly Office Park,15200 Omega Dr,Rockville,20850,561-395-9666, ,Business Park,1256315.148926999885589,524587.648330900003202,"(39.106933387000026, -77.19741187099999)",39.107663580000001,-77.198996179999995
61,BUSINESS PARK,Derwood Industrial Park,45 Derwood Cir,Rockville,20850,301-424-2900,http://www.hbwgroup.com,Industrial Park,1268904.338826719904318,523198.499401599983685,"(39.10318564500005, -77.15303911899997)",39.104257650000001,-77.155002409999994
62,BUSINESS PARK,Twelve Oaks Office Park,1500 Research Blvd,Rockville,20850,301-656-2333, ,Business Park,1260734.249859109986573,519969.488710600009654,"(39.094278820000056, -77.18180647199995)",39.094270960000003,-77.181804150000005
63,BUSINESS PARK,Twinbrook Metro Park,5630 Fishers Ln,Rockville,20852,240-333-3600,http://www.jbg.com,Business Park,1279908.777364969952032,508235.044155669980682,"(39.06214550400006, -77.11419532499997)",39.062137649999997,-77.114193029999996
64,BUSINESS PARK,Twinbrook Metro Park,5625 Fishers Ln,Rockville,20852,240-333-3600,http://www.jbg.com,Business Park,1279986.567829040111974,508656.028220059990417,"(39.063301651000074, -77.11392321299996)",39.062137649999997,-77.114193029999996
65,BUSINESS PARK,Twinbrook Metro Park,12420 Parklawn Dr,Rockville,20852,240-333-3600,http://www.jbg.com,Business Park,1280013.630357069894671,507696.694331170001533,"(39.06066773800006, -77.11382368999995)",39.062137649999997,-77.114193029999996
66,BUSINESS PARK,Twinbrook Metro Park,12729 Twinbrook Pkw,Rockville,20852,240-333-3600,http://www.jbg.com,Business Park,1279719.175828790059313,509415.196732770011295,"(39.065385149000065, -77.11486829499995)",39.062137649999997,-77.114193029999996
67,BUSINESS PARK,Washington Rockville Industrial Park,12331 Carroll Ave,Rockville,20852,, ,Industrial Park,1280103.447701150085777,507174.842170679999981,"(39.05923521500006, -77.11350509199997)",39.059227360000001,-77.113502789999998
68,BUSINESS PARK,Washingtonian Industrial Park,16031 Industrial Dr,Gaithersburg,20877,301-948-2000, ,Industrial Park,1258982.399617480114102,529580.848975550034083,"(39.120658296000045, -77.18804868299998)",39.118141190000003,-77.189308220000001
69,BUSINESS PARK,Washingtonian Center,9737 Washingtonian Blvd,Gaithersburg,20878,240-404-0600,http://www.brandywinerealty.com,Business Park,1257106.607743730070069,527313.729357440024614,"(39.11442285000004, -77.19464324099994)",39.114414979999999,-77.194640910000004
70,BUSINESS PARK,Wisteria Office Park,12810 Wisteria Dr,Germantown,20874,301-657-2800,http://www.danac.com,Business Park,1235677.117291779955849,549840.045154419960454,"(39.17612121500008, -77.27040407399994)",39.176113340000001,-77.270401719999995
71,BUSINESS PARK,WWDC Industrial Park,8810 Brookville Rd,Silver Spring,20910,301-345-9730,http://www.donohoerealestate.com/property.HTM,Industrial Park,1296639.181476549943909,485775.317030749982223,"(39.000520892000054, -77.05522623699994)",39.000513040000001,-77.055223960000006
72,BUSINESS PARK,WWDC Industrial Park,8800 Monard Dr,Silver Spring,20910,301-345-9730,http://www.donohoerealestate.com/property.HTM,Industrial Park,1295561.27709154994227,485757.678630730020814,"(39.000470610000036, -77.05901908299995)",39.000513040000001,-77.055223960000006
73,BUSINESS PARK,Randolph Hills Complex,4930 Boiling Brook Pkw,Rockville,20852,301-530-9700,http://kronstadtrealty.com,Business Park,1283591.331992400111631,502577.261622400023043,"(39.046623053000076, -77.10120399899995)",39.046615199999998,-77.101201700000004
74,BUSINESS PARK,Randolph Hills Complex,4960 Wyaconda Rd,Rockville,20852,301-231-4877,http://www.divaris.com,Business Park,1283917.078680699924007,502113.365301969985012,"(39.045350332000055, -77.10005524299999)",39.046615199999998,-77.101201700000004
75,BUSINESS PARK,Randolph Hills Complex,5481 Randolph Rd,Rockville,20852,301-530-9700,http://kronstadtrealty.com,Business Park,1281114.737046089954674,505206.041144850023557,"(39.05383294600006, -77.10993532499998)",39.046615199999998,-77.101201700000004
76,BUSINESS PARK,Redgate Industrial Park,3 Taft Ct,Rockville,20850,301-294-5140,http://www.labspace.com/home.asp?sec=home,Industrial Park,1275308.721808690112084,520521.514055109990295,"(39.09586292300003, -77.13045765099997)",39.095729489999997,-77.132720259999999
77,BUSINESS PARK,Redgate Business Park,14636 Rothgeb Dr,Rockville,20850,301-251-1205, ,Business Park,1274405.112975839991122,521515.425608040008228,"(39.09858825500004, -77.13364661799994)",39.098580390000002,-77.133644309999994
78,BUSINESS PARK,Redland Center,540 Gaither Rd,Rockville,20850,, ,Business Park,1262494.871940749930218,525388.654667639988475,"(39.10916732100003, -77.17563984999998)",39.10915945,-77.175637530000003
79,BUSINESS PARK,Research Boulevard Center,1801 Research Blvd,Rockville,20850,301-948-2600,http://www.mcsheaco.com,Business Park,1261417.93293175008148,521329.723975859989878,"(39.09801724500005, -77.17940700899999)",39.098009380000001,-77.179404689999998
80,BUSINESS PARK,Research Office Center,2401 Research Blv,Rockville,20850,301-840-2011,,Business Park,1259132.874113620026037,523899.446602259995416,"(39.10506015000004, -77.18747717999997)",39.102247460000001,-77.181672699999993
81,BUSINESS PARK,Research Plaza,1455 Research Blvd,Rockville,20850,202-463-2100,http://www.cassidypinkard.com,Business Park,1261974.368900269968435,519409.52122206997592,"(39.09274805200005, -77.17743321399996)",39.092740190000001,-77.177430889999997
82,BUSINESS PARK,Rock Spring Industrial Park,6700 Rockledge Dr,Bethesda,20817,240-404-0600,http://www.brandywinerealty.com,Industrial Park,1273950.183311420027167,496141.563696399971377,"(39.02891844900006, -77.13511727599996)",39.030756080000003,-77.134757769999993
83,BUSINESS PARK,Rock Spring Industrial Park,10401 Fernwood Rd,Bethesda,20817,301-493-5585,http://www.hines.com,Industrial Park,1273540.231311039999127,495706.047024000028614,"(39.02772098400004, -77.13655807899994)",39.030756080000003,-77.134757769999993
84,BUSINESS PARK,Montgomery Village Exec Plaza,19650 Club House Rd,Gaithersburg,20886,301-424-2900,http://www.hbwgroup.com,Business Park,1253713.202300569973886,548913.468513550003991,"(39.17370665200008, -77.20677534399994)",39.173698770000001,-77.206773010000006
85,BUSINESS PARK,Nicholson Research Center,5510 Nicholson Ln,Rockville,20852,301-208-6700, ,Business Park,1281732.756630670046434,501826.725941699987743,"(39.04455648900006, -77.10774499099995)",39.044548630000001,-77.107742689999995
86,BUSINESS PARK,North Adams Park,204 N Adams St,Rockville,20850,, ,Business Park,1268300.380810159957036,517363.70080416998826,"(39.087162602000035, -77.15513242499998)",39.087154740000003,-77.155130110000002
87,BUSINESS PARK,North Bethesda Industrial Park,11740 Parklawn Dr,Rockville,20852,301-345-9730,http://www.donohoerealestate.com/property.HTM,Industrial Park,1282827.08725569001399,503389.033527149993461,"(39.04884955400007, -77.10389818499993)",39.048841699999997,-77.103895890000004
88,BUSINESS PARK,270 Corporate Center,20300 Century Blv,Germantown,20874,301-815-9961,http://270corporatecenter.com/,Business Park,1237864.249965809984133,554950.874983179965056,"(39.188759195000046, -77.26284635299999)",39.190163009999999,-77.262738630000001
89,BUSINESS PARK,Montgomery County Airpark Business Center,7601 Airpark Rd,Gaithersburg,20879,301-948-2674, ,Business Park,1268816.515722640091553,545665.636190530029126,"(39.16487127400006, -77.15348170199997)",39.164863400000002,-77.153479379999993
90,BUSINESS PARK,Avenel Business Park,200 Perry Pkw,Gaithersburg,20877,301-986-7720,http://www.saulcenters.com/properties-metro/md/avenel/index.htm,Business Park,1253240.374908129917458,537299.125078739947639,"(39.14157335900006, -77.21002973999998)",39.141807579999998,-77.208347329999995
91,BUSINESS PARK,Bennington Corporate Center,55 W Watkins Mill Rd,Gaithersburg,20878,410-290-1400, ,Business Park,1246357.404021719936281,540819.321178009966388,"(39.15143485200008, -77.23264886699997)",39.151426979999997,-77.232646529999997
92,BUSINESS PARK,Burtonsville Commerce Center,4000 Blackburn La,Burtonsville,20866,301-345-9730,,Business Park,1332012.750021500047296,524498.437450809986331,"(39.10683423300003, -76.93065165099995)",39.106826359999999,-76.930649410000001
93,BUSINESS PARK,Crown Pointe Corporate Center,2 Professional Dr,Gaithersburg,20879, , ,Business Park,1247854.542967119952664,545301.298526189988479,"(39.16375088400008, -77.22740899699994)",39.163743009999997,-77.22740666
94,BUSINESS PARK,Danac Stiles,9515 Key West Ave,Rockville,20850,301-770-1807, ,Business Park,1254167.889276999980211,523781.214794149971567,"(39.104706227000065, -77.20497246499997)",39.10469836,-77.204970130000007
95,BUSINESS PARK,Derwood Industrial Park,3 Derwood Cir,Rockville,20850,301-345-9730,,Industrial Park,1268347.204746200004593,523592.742729970021173,"(39.10426551200004, -77.15500472499997)",39.104257650000001,-77.155002409999994
96,BUSINESS PARK,Decoverly Office Park,9503 Key West Ave,Rockville,20850,202-728-8316,http://www.colonialprop.com,Business Park,1255865.500030579976737,524857.437515150057152,"(39.10767144700003, -77.19899851299994)",39.107663580000001,-77.198996179999995
97,BUSINESS PARK,Fortune Parc,7811 Montrose Rd,Rockville,20854, , ,Business Park,1266897.249928849982098,506673.406266210018657,"(39.05780412100006, -77.16000969499999)",39.057796260000003,-77.160007379999996
98,BUSINESS PARK,Ziggy Lane Center,8501 Ziggy La,Gaithersburg,20877,301-770-3360,http://www.showcase.com/property/8507-8657-Ziggy-Lane/Gaithersburg/Maryland/782161,Business Park,1262427.919748689979315,532938.328402669983916,"(39.13059845200007, -77.17506709599996)",39.12988764,-77.175924749999993
99,BUSINESS PARK,8500-8533 Muscatello Ct,8501 Muscatello Ct,Gaithersburg,20877,,,Business Park,1262427.919748689979315,532938.328402669983916,"(39.13097209500006, -77.17511208099995)",39.12988764,-77.175924749999993
100,BUSINESS PARK,16831 Oakmont Ave,16831 Oakmont Ave,Gaithersburg,20877,301-921-8223,http://www.cityfeet.com/cont/md/gaithersburg-industrial-space#id=LN19916390&overlay=true,Business Park,1262427.919748689979315,532938.328402669983916,"(39.132217559000026, -77.17484340799996)",39.12988764,-77.175924749999993
101,BUSINESS PARK,Metro Executive Park,15850 Crabbs Branch Way,Rockville,20855,301-424-2100,http://www.cassidyandpinkard.com,Business Park,1267573.000073479954153,527217.187405350035988,"(39.114213249000045, -77.15775500599995)",39.114205380000001,-77.157752689999995
102,BUSINESS PARK,Gateway 270,22600 Gateway Center Dr,Clarksburg,20871,301-621-8800,http://www.transwestern.net,Business Park,1232528.176488840021193,569994.708597189979628,"(39.23143076700006, -77.28173117999995)",39.231422879999997,-77.281728819999998
103,BUSINESS PARK,Germantown Technology Center,20271 Goldenrod La,Germantown,20876,202-333-9000,http://www.first-potomac.com,Business Park,1241352.289905060082674,553754.216806060052477,"(39.186912300000074, -77.25042310699996)",39.186904419999998,-77.250420759999997
104,BUSINESS PARK,Key West Corporation Center,9400 Key West Ave,Rockville,20850,301-948-2600,http://www.mcsheaco.com,Business Park,1257730.993536320049316,523335.666505730012432,"(39.10350420900005, -77.19241311199994)",39.10349635,-77.192410789999997
105,BUSINESS PARK,Key West Research Center,9610 Medical Center Dr,Rockville,20850,301-840-2011, ,Business Park,1257068.319615700049326,523455.888969840016216,"(39.103830438000045, -77.19474917699995)",39.103822569999998,-77.194746850000001
106,BUSINESS PARK,Metro Park North,7520 Standish Pl,Rockville,20850,301-340-0901,http://www.psbusinessparks.com,Business Park,1268453.206666300073266,525381.303115639952011,"(39.10917673100005, -77.15464186299994)",39.109168859999997,-77.154639549999999
107,BUSINESS PARK,Metropolitan Grove Park,1 Metropolitan Ct,Gaithersburg,20878,301-921-0333, ,Business Park,1247943.059319199994206,539740.048217009985819,"(39.14848256600004, -77.22704803199997)",39.14847469,-77.227045689999997
108,BUSINESS PARK,Middlebrook Business Park,19525 Amaranth Dr,Germantown,20874, , ,Business Park,1241341.124977050116286,549577.43753817002289,"(39.175444568000046, -77.25042207299998)",39.175436689999998,-77.250419730000004
109,BUSINESS PARK,Montgomery County Airpark Industrial Park,8201 Beechcraft Ave,Gaithersburg,20879,301-340-0774, ,Industrial Park,1264975.344519060105085,546249.888351069996133,"(39.16645687600004, -77.16703286499995)",39.166449,-77.167030539999999
110,BUSINESS PARK,Montgomery Industrial Park,11800 Tech Rd,Silver Spring,20904,888-811-4276,http://www.copt.com,Industrial Park,1321403.213499610079452,506165.641017740010284,"(39.05651494800003, -76.96806245899995)",39.056507089999997,-76.968060210000004
111,BUSINESS PARK,Montrose Office Center,3206 Tower Oaks Blv,Rockville,20852,301-948-9870,http://www.mcsheaco.com,Business Park,1269574.499979350017384,507226.687546729983296,"(39.05933574900007, -77.15058474099999)",39.059327889999999,-77.15058243
112,BUSINESS PARK,Trevion Corporate Park,12850 Middlebrook Rd,Germantown,20874,202-783-8200,http://www.cbre.com/usa,Business Park,1236871.87492488999851,550304.374882849981077,"(39.17740570800004, -77.26619441299994)",39.177397829999997,-77.266192059999995
113,BUSINESS PARK,Quince Orchard Corporate Park,200 Orchard Ridge Dr,Gaithersburg,20878,202-393-1999,http://www.quadrangledevcorp.com/quadrangle_w/files/home.htm,Business Park,1245685.374069100013003,532326.692690100055188,"(39.12811274300003, -77.23494151799997)",39.128104870000001,-77.234939179999998
114,BUSINESS PARK,Quince Tree Executive Center,814 W Diamond Ave,Gaithersburg,20877,301-657-5950, ,Business Park,1251026.99993007001467,537852.125015250057913,"(39.14331964000007, -77.21615806699998)",39.143311769999997,-77.216155729999997
115,BUSINESS PARK,Redgate Industrial Park,1500 E Gude Dr,Rockville,20850,301-947-1770,,Industrial Park,1274665.848208090057597,520476.707655070000328,"(39.095737357000075, -77.13272256799996)",39.095729489999997,-77.132720259999999
116,BUSINESS PARK,Research Office Center,2277 Research Blv,Rockville,20850,240-404-0600 ,http://www.brandywinerealty.com,Business Park,1260777.337987150065601,522874.560841300000902,"(39.10225532100003, -77.18167502599994)",39.102247460000001,-77.181672699999993
117,BUSINESS PARK,Research West,2400 Research Blvd,Rockville,20850,202-463-2100,http://www.cassidypinkard.com,Business Park,1259032.169601530069485,523332.76525772997411,"(39.10350368400003, -77.18782794599997)",39.103495819999999,-77.187825619999998
118,BUSINESS PARK,Rock Spring Industrial Park,6701 Rockledge Dr,Bethesda,20817,202-478-2300,http://smithcommercialrealty.com,Industrial Park,1274052.649615519912913,496813.55243302998133,"(39.030763931000024, -77.13476006999997)",39.030756080000003,-77.134757769999993
119,BUSINESS PARK,Shady Grove Executive Center,9210 Corporate Blv,Rockville,20850,301-530-6200,http://www.trammellcrow.com,Business Park,1258151.192448710091412,524510.050634820014238,"(39.10673105500007, -77.19094105199997)",39.106723189999997,-77.190938729999999
120,BUSINESS PARK,Oak Grove Corporate Park,2092 Gaither Rd,Rockville,20850,301-948-2600,http://www.mcsheaco.com,Business Park,1260934.985347300069407,527655.846477749990299,"(39.115383810000026, -77.18115294499995)",39.11537594,-77.181150619999997
121,BUSINESS PARK,Shady Grove Life Sciences Center,14907 Broschart Rd,Rockville,20850, , ,Business Park,1255910.499966620001942,522272.843848739983514,"(39.100575380000066, -77.19882009399998)",39.100567519999998,-77.198817770000005
122,BUSINESS PARK,Shady Grove Medical Village,14825 Physicians La,Rockville,20850,301-984-9400,http://www.writ.com,Business Park,1252606.124923540046439,522202.12487267999677,"(39.10036087300006, -77.21046314399996)",39.100353009999999,-77.210460810000001
123,BUSINESS PARK,Silver Spring Industrial Park,11501 Columbia Pike,Silver Spring,20904,301-680-2900, ,Industrial Park,1316749.000119280070066,502565.031222390010953,"(39.04663218700006, -76.98445455899997)",39.04662433,-76.984452300000001
124,BUSINESS PARK,Technology Park 270,912 Clopper Rd,Gaithersburg,20878,301-947-1770,http://www.labspace.com/home.asp?sec=home,Business Park,1246648.625013990094885,539067.62504837999586,"(39.14662743400004, -77.23160628599999)",39.146619559999998,-77.231603949999993
125,BUSINESS PARK,The Preserve at Tower Oaks,2600 Tower Oaks Blv,Rockville,20852,202-585-0800,http://www.bostonproperties.com,Business Park,1268589.500042429892346,508286.156347720010672,"(39.062240177000035, -77.15405987499997)",39.06223232,-77.154057559999998
126,BUSINESS PARK,Washingtonian Center Office Park,9831 Washingtonian Blvd,Gaithersburg,20878,650-637-1154,http://www.transwestern.net,Business Park,1255815.539582530036569,528254.596174309961498,"(39.11699846700003, -77.19920069999995)",39.116990600000001,-77.199198370000005
127,BUSINESS PARK,Washington National Pike Industrial Park,1601 Research Blv,Rockville,20850, , ,Industrial Park,1261653.749891970073804,520081.531206700019538,"(39.094591431000026, -77.17856748699995)",39.094583569999998,-77.178565169999999
128,BUSINESS PARK,Washington Science Center,6110 Executive Blv,Rockville,20852, , ,Business Park,1276834.624914109939709,502916.968758710019756,"(39.04753279200003, -77.12499623899998)",39.047524940000002,-77.124993939999996
129,BUSINESS PARK,White Flint Industrial Park,4935 Nicholson La,Kensington,20895,301-881-0001, ,Industrial Park,1283412.98447223007679,502126.31710997998016,"(39.04538436300004, -77.10183019599998)",39.045376509999997,-77.101827900000004
130,BUSINESS PARK,Churchill Executive Park,2 Executive Park Cir,Germantown,20874,301-340-9400,http://www.jayclogg.com,Business Park,1234683.281770850066096,551613.695332069997676,"(39.18098276500007, -77.27392854299995)",39.180974890000002,-77.273926189999997
131,BUSINESS PARK,Girard Place,602 E Diamond Ave,Gaithersburg,20877,301-986-9200,http://www.first-potomac.com,Business Park,1260644.934531030012295,536890.322774359956384,"(39.14073653500003, -77.18224018399997)",39.140728660000001,-77.182237860000001
132,BUSINESS PARK,Meadows Corporate Park,12510 Prosperity Dr,Silver Spring,20904,410-730-7905, ,Business Park,1322993.000125099904835,507972.7498834200087,"(39.061475003000055, -76.96246136499997)",39.061467139999998,-76.962459109999998
133,BUSINESS PARK,Washingtonian Industrial Park,16001 Industrial Dr,Gaithersburg,20877, ,http://www.glcornell.com,Industrial Park,1258622.499969149939716,528667.687502700020559,"(39.118149060000064, -77.18931054499996)",39.118141190000003,-77.189308220000001
134,BUSINESS PARK,WesTech Business Park,12201 Plum Orchard Rd,Silver Spring,20904,301-530-6200,http://www.joneslanglasalle.com,Business Park,1324791.750078770099208,506011.78117759997258,"(39.05608863800006, -76.95612989599994)",39.056080770000001,-76.956127649999999
135,BUSINESS PARK,Comsat Corporate Campus,22300 Comsat Dr,Clarksburg,20871,301-428-4000, ,Business Park,1234091.250026300083846,566486.37502591998782,"(39.22181162600003, -77.27617576899996)",39.221803739999999,-77.276173409999998
136,BUSINESS PARK,Edison Technology Park,11555 Edison Park Dr,Gaithersburg,20878, , ,Business Park,1246475.125109829939902,526978.187597119947895,"(39.11343335000004, -77.23210965899995)",39.113425489999997,-77.232107319999997
137,BUSINESS PARK,Gude South,387 E Gude Dr,Rockville,20850, , ,Business Park,1270098.624907830031589,524159.87489049998112,"(39.10583065000003, -77.14883617699996)",39.105822779999997,-77.148833859999996
138,BUSINESS PARK,Gude North,15400 Calhoun Dr,Rockville,20850, , ,Business Park,1269838.250123589998111,524799.687499089981429,"(39.10758617000005, -77.14975742699994)",39.1075783,-77.149755110000001
139,BUSINESS PARK,West Gude Office Park,20 W Gude Dr,Rockville,20850,301-972-4200, ,Business Park,1267081.982601020019501,523899.67316225997638,"(39.10510224600006, -77.15946511299995)",39.105094379999997,-77.1594628
140,BUSINESS PARK,Warren Street Industrial Center,9224 Warren St,Silver Spring,20910, , ,Industrial Park,1298102.30058190994896,487875.257640709984116,"(39.006289012000025, -77.05008192799994)",39.00628116,-77.050079650000001
141,BUSINESS PARK,Washington Office Park,9700 Washingtonian Blvd,Gaithersburg,20878, , ,Business Park,1257521.624960120068863,526461.250124639947899,"(39.112084683000035, -77.19317420199997)",39.112076819999999,-77.193171879999994
142,BUSINESS PARK,Burtonsville Industrial Park,3801 Sandy Spring Rd,Burtonsville,20866, , ,Industrial Park,1331966.000069449888542,526025.937484240042977,"(39.11102828300005, -76.93081231899998)",39.111020410000002,-76.930810070000007
143,BUSINESS PARK,Burtonsville Office Park,3901 National Dr,Burtonsville,20866,301-621-8800,https://www.transwestern.com/propertylisting/building/af44a3d6-9afc-e311-8c52-00155d0069d3/burtonsville-office-park-1,Business Park,1331772.75002127001062,526466.062412649975158,"(39.11223710400003, -76.93149221199997)",39.112229229999997,-76.931489970000001
144,BUSINESS PARK,Girard Business Center,200 Girard St,Gaithersburg,20877,301-986-9200,http://www.first-potomac.com,Business Park,1260311.923074719961733,537288.539478729944676,"(39.14182805000007, -77.18341710099997)",39.141820180000003,-77.183414780000007
145,BUSINESS PARK,Heritage Business Park,11820 Parklawn Dr,Rockville,20852,301-984-9400,http://www.writ.com,Business Park,1282901.580695759970695,503796.904503530007787,"(39.04996966500005, -77.10363751399996)",39.049961809999999,-77.103635220000001
146,BUSINESS PARK,Heritage Office Park,11820 Parklawn Dr,Rockville,20852,301-984-9400,http://www.writ.com,Business Park,1283077.298071919940412,503491.309111249982379,"(39.049131147000026, -77.10301756299998)",39.049123289999997,-77.10301527
147,BUSINESS PARK,Key West Corporation Center,9410 Key West Ave,Rockville,20850,301-657-2800,http://www.danac.com,Business Park,1257647.46892824000679,523082.56186549999984,"(39.102808794000055, -77.19270555699995)",39.10349635,-77.192410789999997
148,BUSINESS PARK,Oakmont Condominium,8541 Atlas Dr,Gaithersburg,20877,301-216-0277,http://www.buzzfile.com/business/Oakmont-Condominium-Inc-301-216-0277,Business Park,1262427.919748689979315,532938.328402669983916,"(39.129922228000055, -77.17590755499998)",39.12988764,-77.175924749999993
149,BUSINESS PARK,Westmore Industrial Park,7402 Westmore Rd,Rockville,20850,, ,Industrial Park,1269587.125131360022351,521610.450760120002087,"(39.09882856300004, -77.15062385999994)",39.098820699999997,-77.150621549999997
150,BUSINESS PARK,Milestone Business Park,1 Milestone Center Ct,Germantown,20876,301-896-9000,http://www.transwestern.net,Business Park,1238099.137902030022815,558834.07473078998737,"(39.200834300000054, -77.26195157799998)",39.200826419999999,-77.261949220000005
151,BUSINESS PARK,Seneca Meadows Corporate Center,20457 Seneca Meadows Pkwy,Germantown,20876,240-912-0200,http://www.minkoffdev.com,Business Park,1239272.165487119928002,556475.918184599955566,"(39.19436901000006, -77.25778885399995)",39.194361129999997,-77.257786499999995
152,BUSINESS PARK,Middlebrook Tech Park,12321 Middlebrook Rd,Germantown,20874,301-916-1957, ,Business Park,1239828.272239639889449,549846.252898419974372,"(39.17617110500004, -77.25576117899999)",39.17616323,-77.255758830000005
153,BUSINESS PARK,Germantown Business Park,19300 Germantown Rd,Germantown,20874,, ,Business Park,1233745.219689979916438,548879.386209520045668,"(39.17346774500004, -77.27720843499998)",39.173459870000002,-77.277206079999999
154,BUSINESS PARK,Executive Court Center,1730 Elton Rd,Silver Spring,20903,301-530-6200,http://www.trammellcrow.com,Business Park,1320006.172346309991553,493008.147757489990909,"(39.02038995500004, -76.97299588299995)",39.020382099999999,-76.972993630000005
155,BUSINESS PARK,Fraser Industrial Center,9345 Fraser Ave,Silver Spring,20910,301-933-7272, ,Industrial Park,1297942.466213769977912,488898.686761659977492,"(39.00909879400007, -77.05064638999994)",39.00909094,-77.050644109999993
156,BUSINESS PARK,Gaither Distribution Center,16060 Industrial Dr,Gaithersburg,20877,, ,Business Park,1258353.252736900001764,529530.830671499948949,"(39.120517386000074, -77.19026586699994)",39.120509519999999,-77.190263540000004
157,BUSINESS PARK,Poolesville Professional Ctr,20010 Fisher Ave,Poolesville,20837,, ,Business Park,1193639.059012620011345,538973.281624290044419,"(39.14585015200004, -77.41851421899997)",39.145842289999997,-77.418511820000006
158,BUSINESS PARK,Shady Grove Develop Park,15800 Gaither Dr,Gaithersburg,20877,240-912-0200,http://www.minkoffdev.com,Business Park,1258374.307712909998372,527779.935053869965486,"(39.11571021100008, -77.19017879799998)",39.115702339999999,-77.190176469999997
159,BUSINESS PARK,Montgomery County Airpark Industrial Park,19050 Woodfield Rd,Gaithersburg,20879,301-656-7252, ,Industrial Park,1267628.630921530071646,548410.557281080051325,"(39.17240213600007, -77.15768796599997)",39.166449,-77.167030539999999
160,BUSINESS PARK,City Center,501 Hungerford Dr,Rockville,20850,, ,Business Park,1269286.232459079939872,518718.734661430004053,"(39.09088758900003, -77.15166716099998)",39.090879729999997,-77.151664850000003
161,BUSINESS PARK,Rockville Corporate Center,15 W Gude Dr,Rockville,20850,, ,Business Park,1266553.77856852998957,524836.3705071300501,"(39.10767152200003, -77.16133229999997)",39.10766366,-77.161329980000005
162,BUSINESS PARK,Montgomery County Medical,15853 Crabbs Branch Way,Derwood,20855,, ,Business Park,1268076.937353949993849,526783.821644939947873,"(39.11302576600008, -77.15597632999999)",39.113017900000003,-77.155974020000002
163,BUSINESS PARK,WesTech Business Park,11921 Bournefield Way,Silver Spring,20904,301-625-6703,http://www.trammellcrow.com,Business Park,1322825.921724939951673,504283.477815989986993,"(39.051345680000054, -76.96305503599996)",39.056080770000001,-76.956127649999999
164,BUSINESS PARK,Rock Spring Industrial Park,6600 Rockledge Dr,Bethesda,20817,240-404-0600, ,Industrial Park,1274549.784975979942828,495927.762224210018758,"(39.02833383600006, -77.13300548599994)",39.030756080000003,-77.134757769999993
165,BUSINESS PARK,Northridge Business Park,19560 Amaranth Dr,Germantown,20874,301-657-2800,http://www.danac.com,Business Park,1241527.105905219912529,550320.779106860049069,"(39.177486868000074, -77.24977321699998)",39.177478989999997,-77.249770870000006
166,BUSINESS PARK,Northtech Business Park,704 Quince Orchard Rd,Gaithersburg,20878,617-641-2900,http://www.newbostonfund.com,Business Park,1248816.768632010091096,535572.410453130025417,"(39.137045820000026, -77.22393122099999)",39.13703795,-77.223928880000003
167,BUSINESS PARK,Northtech Business Park,1300 Quince Orchard Blv,Gaithersburg,20878,301-947-1770,http://www.newbostonfund.com,Business Park,1248644.175479850033298,534880.669524480006658,"(39.13514540800003, -77.22453370099998)",39.13703795,-77.223928880000003
168,BUSINESS PARK,Oak Grove Plaza,2701 Tower Oaks Blvd,Rockville,20852,301-424-2100,http://www.cassidypinkard.com,Business Park,1268777.052042600000277,506966.639930489996914,"(39.058618101000036, -77.15339154499998)",39.05861024,-77.153389230000002
169,BUSINESS PARK,Oakmont Industrial Center,8500 Dakota Dr,Gaithersburg,20877,301-840-0000, ,Industrial Park,1262354.541956620058045,531859.265361670055427,"(39.12693242600005, -77.17617839999997)",39.126924559999999,-77.176176080000005
170,BUSINESS PARK,Oakmont R and D Park,8400 Helgerman Ct,Gaithersburg,20877,202-244-5800, ,Business Park,1263089.857669309945777,533078.931282810051925,"(39.130285026000024, -77.17359458199996)",39.130277159999999,-77.173592260000007
171,BUSINESS PARK,Oland Professional Center,3400 Olandwood Ct,Olney,20832,301-924-5645, ,Business Park,1293250.00233739009127,542205.697883310029283,"(39.15545280500004, -77.06729832799994)",39.155444930000002,-77.067296040000002
172,BUSINESS PARK,Park 29 Professional Park,15300 Spencerville Ct,Burtonsville,20866,, ,Business Park,1329735.903939380077645,524483.926858799997717,"(39.10679886600008, -76.93867533299994)",39.10679099,-76.938673089999995
173,BUSINESS PARK,Oakmont Center,16598 Oakmont Ave,Gaithersburg,20877,,,Industrial Park,,,"(39.129415822000055, -77.17476757199995)",,
