CATEGORY,SCHOOL NAME,ADDRESS,CITY,ZIP CODE,PHONE,URL,LONGITUDE,LATITUDE,LOCATION,Council Districts,Councils,Communities,Zip Codes,Municipalities
MIDDLE SCHOOLS,Westland MS,5511 Massachusetts Ave,Bethesda,20816,301-320-6515,http://www.montgomeryschoolsmd.org/schools/westlandms,-77.1089289733,38.9603838716,"5511 Massachusetts Ave
Bethesda, MD 20816
(38.9603838716, -77.1089289733)",1,1,12,107,1
MIDDLE SCHOOLS,North Bethesda MS,8935 Bradmoor Dr,Bethesda,20817,301-571-3883,http://www.montgomeryschoolsmd.org/schools/northbethesdams,-77.1248538896,39.0045827558,"8935 Bradmoor Dr
Bethesda, MD 20817
(39.0045827558, -77.1248538896)",1,1,12,103,1
MIDDLE SCHOOLS,Thomas W Pyle MS,6311 Wilson La,Bethesda,20817,301-320-6540,http://www.montgomeryschoolsmd.org/schools/pylems,-77.1296136734,38.9888410039,"6311 Wilson La
Bethesda, MD 20817
(38.9888410039, -77.1296136734)",1,1,12,103,1
MIDDLE SCHOOLS,William H Farquhar MS,16915 Batchellors Forest Rd,Olney,20832,301-924-3100,http://www.montgomeryschoolsmd.org/schools/farquharms,-77.0450643632,39.134332601,"16915 Batchellors Forest Rd
Olney, MD 20832
(39.134332601, -77.0450643632)",4,4,60,100,1
MIDDLE SCHOOLS,Rosa M Parks MS,19200 Olney Mill Rd,Olney,20832,301-924-3180,http://www.montgomeryschoolsmd.org/schools/rosaparksms,-77.0811949528,39.1719982569,"19200 Olney Mill Rd
Olney, MD 20832
(39.1719982569, -77.0811949528)",4,4,58,100,1
MIDDLE SCHOOLS,John Poole MS,17014 Tom Fox Ave,Poolesville,20837,301-972-7979,http://www.montgomeryschoolsmd.org/schools/poolems,-77.410844519,39.1260537267,"17014 Tom Fox Ave
Poolesville, MD 20837
(39.1260537267, -77.410844519)",1,1,34,97,16
MIDDLE SCHOOLS,Julius West MS,651 Great Falls Rd,Rockville,20850,301-279-3979,http://www.montgomeryschoolsmd.org/schools/westms,-77.1638855665,39.0767475193,"651 Great Falls Rd
Rockville, MD 20850
(39.0767475193, -77.1638855665)",3,3,25,71,12
MIDDLE SCHOOLS,Robert Frost MS,9201 Scott Dr,Rockville,20850,301-279-3949,http://www.montgomeryschoolsmd.org/schools/robertfrostms,-77.1876235891,39.0759509206,"9201 Scott Dr
Rockville, MD 20850
(39.0759509206, -77.1876235891)",3,3,25,71,12
MIDDLE SCHOOLS,Earle B. Wood MS,14615 Bauer Dr,Rockville,20852,301-460-2150,http://www.montgomeryschoolsmd.org/schools/woodms,-77.1075293636,39.093294956,"14615 Bauer Dr
Rockville, MD 20852
(39.093294956, -77.1075293636)",3,3,61,58,1
MIDDLE SCHOOLS,Tilden MS,11211 Old Georgetown Rd,Rockville,20852,301-230-5930,http://www.montgomeryschoolsmd.org/schools/tildenms,-77.1219142526,39.038258394,"11211 Old Georgetown Rd
Rockville, MD 20852
(39.038258394, -77.1219142526)",1,1,19,60,1
MIDDLE SCHOOLS,Herbert Hoover MS (at Tilden Center),6300 Tilden La,Rockville,20852,301-469-1010,http://www.montgomeryschoolsmd.org/schools/hooverms,-77.1305753352,39.0423221394,"6300 Tilden La
Rockville, MD 20852
(39.0423221394, -77.1305753352)",1,1,19,60,1
MIDDLE SCHOOLS,Parkland MS,4610 W Frankfort Dr,Rockville,20853,301-438-5700,http://www.montgomeryschoolsmd.org/schools/parklandms,-77.0916686732,39.0841517945,"4610 W Frankfort Dr
Rockville, MD 20853
(39.0841517945, -77.0916686732)",3,3,61,58,1
MIDDLE SCHOOLS,Cabin John MS,10701 Gainsborough Rd,Potomac,20854,301-469-1150,http://www.montgomeryschoolsmd.org/schools/cabinjohnms,-77.1720217394,39.0315783821,"10701 Gainsborough Rd
Potomac, MD 20854
(39.0315783821, -77.1720217394)",1,1,20,53,1
MIDDLE SCHOOLS,Herbert Hoover MS (Construction),8810 Post Oak Rd,Potomac,20854,301-469-1010,http://www.montgomeryschoolsmd.org/schools/hooverms,-77.1786375804,39.0448587758,"8810 Post Oak Rd
Potomac, MD 20854
(39.0448587758, -77.1786375804)",1,1,20,53,1
MIDDLE SCHOOLS,Redland MS,6505 Muncaster Mill Rd,Rockville,20855,301-840-4680,http://www.montgomeryschoolsmd.org/schools/redlandms,-77.1319130755,39.1405182884,"6505 Muncaster Mill Rd
Rockville, MD 20855
(39.1405182884, -77.1319130755)",4,4,54,51,1
MIDDLE SCHOOLS,Benjamin Banneker MS,14800 Perrywood Dr,Burtonsville,20866,301-989-5747,http://www.montgomeryschoolsmd.org/schools/bannekerms,-76.948403246,39.0960860509,"14800 Perrywood Dr
Burtonsville, MD 20866
(39.0960860509, -76.948403246)",5,5,53,47,1
MIDDLE SCHOOLS,Rocky Hill MS,22401 Brick Haven Way,Clarksburg,20871,301-353-8282,http://www.montgomeryschoolsmd.org/schools/rockyhillms,-77.2634759958,39.2218821148,"22401 Brick Haven Way
Clarksburg, MD 20871
(39.2218821148, -77.2634759958)",2,2,50,44,1
MIDDLE SCHOOLS,John T Baker MS,25400 Oak Dr,Damascus,20872,301-253-7010,http://www.montgomeryschoolsmd.org/schools/bakerms,-77.2187711116,39.2741001904,"25400 Oak Dr
Damascus, MD 20872
(39.2741001904, -77.2187711116)",2,2,51,42,1
MIDDLE SCHOOLS,Martin Luther King MS,13737 Wisteria Dr,Germantown,20874,301-353-8080,http://www.montgomeryschoolsmd.org/schools/mlkms,-77.2851000471,39.1809127605,"13737 Wisteria Dr
Germantown, MD 20874
(39.1809127605, -77.2851000471)",2,2,39,39,1
MIDDLE SCHOOLS,Kingsview MS,18909 Kingsview Rd,Germantown,20874,301-601-4611,http://www.montgomeryschoolsmd.org/schools/kingsviewms,-77.2850448312,39.1661607823,"18909 Kingsview Rd
Germantown, MD 20874
(39.1661607823, -77.2850448312)",2,2,39,39,1
MIDDLE SCHOOLS,Roberto W Clemente MS,18808 Waring Station Rd,Germantown,20874,301-601-0344,http://www.montgomeryschoolsmd.org/schools/clementems,-77.2479808749,39.165823052,"18808 Waring Station Rd
Germantown, MD 20874
(39.165823052, -77.2479808749)",2,2,39,39,1
MIDDLE SCHOOLS,Neelsville MS,11700 Neelsville Church Rd,Germantown,20876,301-353-8064,http://www.montgomeryschoolsmd.org/schools/neelsvillems,-77.2405597451,39.1940928847,"11700 Neelsville Church Rd
Germantown, MD 20876
(39.1940928847, -77.2405597451)",2,2,39,36,1
MIDDLE SCHOOLS,Shady Grove MS,8100 Midcounty Hwy,Gaithersburg,20877,301-548-7540,http://www.montgomeryschoolsmd.org/schools/shadygrovems,-77.1626472824,39.1431549327,"8100 Midcounty Hwy
Gaithersburg, MD 20877
(39.1431549327, -77.1626472824)",3,3,36,35,1
MIDDLE SCHOOLS,Forest Oak MS,651 Saybrooke Oaks Blv,Gaithersburg,20877,301-670-8242,http://www.montgomeryschoolsmd.org/schools/forestoakms,-77.1844656503,39.1535621295,"651 Saybrooke Oaks Blv
Gaithersburg, MD 20877
(39.1535621295, -77.1844656503)",3,3,36,35,21
MIDDLE SCHOOLS,Gaithersburg MS,2 Teachers Way,Gaithersburg,20877,301-840-4554,http://www.montgomeryschoolsmd.org/schools/gaithersburgms,-77.1875725096,39.1437648079,"2 Teachers Way
Gaithersburg, MD 20877
(39.1437648079, -77.1875725096)",3,3,36,35,21
MIDDLE SCHOOLS,Lakelands Park MS,1200 Main St,Gaithersburg,20878,301-670-1400,http://www.montgomeryschoolsmd.org/schools/lakelandsparkms,-77.2329591425,39.115512598,"1200 Main St
Gaithersburg, MD 20878
(39.115512598, -77.2329591425)",3,3,36,33,21
MIDDLE SCHOOLS,Ridgeview MS,16600 Raven Rock Dr,Gaithersburg,20878,240-406-1300,http://www.montgomeryschoolsmd.org/schools/ridgeviewms,-77.249263077,39.127656608,"16600 Raven Rock Dr
Gaithersburg, MD 20878
(39.127656608, -77.249263077)",3,3,36,33,1
MIDDLE SCHOOLS,Montgomery Village MS,19300 Watkins Mill Rd,Montgomery Village,20886,301-840-4660,http://www.montgomeryschoolsmd.org/schools/mvms,-77.2094293659,39.1725103244,"19300 Watkins Mill Rd
Montgomery Village, MD 20886
(39.1725103244, -77.2094293659)",2,2,38,28,1
MIDDLE SCHOOLS,Newport Mill MS,11311 Newport Mill Rd,Kensington,20895,301-929-2244,http://www.montgomeryschoolsmd.org/schools/newportmillms,-77.0677974108,39.041512287,"11311 Newport Mill Rd
Kensington, MD 20895
(39.041512287, -77.0677974108)",4,4,15,17,1
MIDDLE SCHOOLS,Eastern MS,300 E University Blv,Silver Spring,20901,301-650-6650,http://www.montgomeryschoolsmd.org/schools/easternms,-77.0008858418,39.0118461813,"300 E University Blv
Silver Spring, MD 20901
(39.0118461813, -77.0008858418)",5,5,8,21,1
MIDDLE SCHOOLS,Col E Brooke Lee MS,11800 Monticello Ave,Silver Spring,20902,301-649-8100,http://www.montgomeryschoolsmd.org/schools/leems,-77.0307001852,39.0496028325,"11800 Monticello Ave
Silver Spring, MD 20902
(39.0496028325, -77.0307001852)",4,4,17,17,1
MIDDLE SCHOOLS,Sligo MS,1401 Dennis Ave,Silver Spring,20902,301-649-8121,http://www.montgomeryschoolsmd.org/schools/sligoms,-77.0328776196,39.0267787982,"1401 Dennis Ave
Silver Spring, MD 20902
(39.0267787982, -77.0328776196)",4,4,16,17,1
MIDDLE SCHOOLS,Francis Scott Key MS,910 Schindler Dr,Silver Spring,20903,301-422-5600,http://www.montgomeryschoolsmd.org/schools/fskms,-76.9922116369,39.0276166438,"910 Schindler Dr
Silver Spring, MD 20903
(39.0276166438, -76.9922116369)",5,5,18,15,1
MIDDLE SCHOOLS,White Oak MS,12201 New Hampshire Ave,Silver Spring,20904,301-989-5780,http://www.montgomeryschoolsmd.org/schools/whiteoakms,-76.9953329495,39.0565217301,"12201 New Hampshire Ave
Silver Spring, MD 20904
(39.0565217301, -76.9953329495)",5,5,18,12,1
MIDDLE SCHOOLS,Briggs Chaney MS,1901 Rainbow Dr,Silver Spring,20905,301-989-6000,http://www.montgomeryschoolsmd.org/schools/briggschaneyms,-76.9714624882,39.1097896862,"1901 Rainbow Dr
Silver Spring, MD 20905
(39.1097896862, -76.9714624882)",5,5,29,8,1
MIDDLE SCHOOLS,A Mario Loiederman MS,12701 Goodhill Rd,Silver Spring,20906,301-929-2282,http://www.montgomeryschoolsmd.org/schools/loiedermanms,-77.0708351501,39.065306494,"12701 Goodhill Rd
Silver Spring, MD 20906
(39.065306494, -77.0708351501)",4,4,23,6,1
MIDDLE SCHOOLS,Argyle MS,2400 Bel Pre Rd,Silver Spring,20906,301-460-2400,http://www.montgomeryschoolsmd.org/schools/argylems,-77.048924226,39.0895212498,"2400 Bel Pre Rd
Silver Spring, MD 20906
(39.0895212498, -77.048924226)",4,4,59,6,1
MIDDLE SCHOOLS,Takoma Park MS,7611 Piney Branch Rd,Takoma Park,20910,301-650-6444,http://www.montgomeryschoolsmd.org/schools/takomaparkms,-77.0130811462,38.9854294113,"7611 Piney Branch Rd
Takoma Park, MD 20910
(38.9854294113, -77.0130811462)",5,5,4,3062,11
MIDDLE SCHOOLS,Silver Spring International MS,313 Wayne Ave,Silver Spring,20910,301-650-6544,http://www.montgomeryschoolsmd.org/schools/ssims,-77.0147746936,39.0005798316,"313 Wayne Ave
Silver Spring, MD 20910
(39.0005798316, -77.0147746936)",5,5,7,3065,1
