"house_no","fraction","hse_suff","street_nam","street_typ","st_dir","unit_no","city","state","zip","collection_day","collection_week"
"1610",,"B","WILLOW","ST",,,"AUSTIN","TX","78702","FRIDAY","A"
"1705",,,"ROSEWOOD","AVE",,,"AUSTIN","TX","78702","FRIDAY","A"
"1201",,,"8TH","ST","W","UNIT 201","AUSTIN","TX","78703","FRIDAY","A"
"1118",,,"DESIRABLE","DR",,,"AUSTIN","TX","78721","FRIDAY","A"
"1305",,,"EXPOSITION","BLVD",,"UNIT 4","AUSTIN","TX","78703","FRIDAY","A"
"1807",,,"16TH","ST","E",,"AUSTIN","TX","78702","FRIDAY","A"
"704",,,"WALLER","ST",,,"AUSTIN","TX","78702","FRIDAY","A"
"1610",,"A","WILLOW","ST",,,"AUSTIN","TX","78702","FRIDAY","A"
"1412",,,"WILLOW","ST",,"UNIT 1","AUSTIN","TX","78702","FRIDAY","A"
"1401",,,"HOLLY","ST",,,"AUSTIN","TX","78702","FRIDAY","A"
"1617",,,"HOLLY","ST",,,"AUSTIN","TX","78702","FRIDAY","A"
"1811",,,"CANTERBURY","ST",,,"AUSTIN","TX","78702","FRIDAY","A"
"3301",,,"GOVALLE","AVE",,,"AUSTIN","TX","78702","FRIDAY","A"
"1902",,,"GARDEN","ST",,,"AUSTIN","TX","78702","FRIDAY","A"
"2307",,,"12TH","ST","W",,"AUSTIN","TX","78703","FRIDAY","A"
"2207",,,"QUARRY","RD",,,"AUSTIN","TX","78703","FRIDAY","A"
"1301",,,"MERIDEN","LN",,,"AUSTIN","TX","78703","FRIDAY","A"
"2411",,,"WILLOW","ST",,,"AUSTIN","TX","78702","FRIDAY","A"
"2212",,,"WILLOW","ST",,,"AUSTIN","TX","78702","FRIDAY","A"
"5901",,,"JAIN","LN",,"UNIT 1","AUSTIN","TX","78721","FRIDAY","A"
"1032",,,"GARDNER","RD",,,"AUSTIN","TX","78721","FRIDAY","A"
"1712",,,"11TH","ST","W",,"AUSTIN","TX","78703","FRIDAY","A"
"747",,"B","GUNTER","ST",,,"AUSTIN","TX","78702","FRIDAY","A"
"2619",,,"SANTA ROSA","ST",,,"AUSTIN","TX","78702","FRIDAY","A"
"2714",,,"3RD","ST","E",,"AUSTIN","TX","78702","FRIDAY","A"
"1800",,,"FOREST","TRL",,,"AUSTIN","TX","78703","FRIDAY","A"
"1714",,,"SUMMIT","VW",,"UNIT 1","AUSTIN","TX","78703","FRIDAY","A"
"1714",,,"SUMMIT","VW",,"UNIT 2","AUSTIN","TX","78703","FRIDAY","A"
"1714",,,"SUMMIT","VW",,"UNIT 3","AUSTIN","TX","78703","FRIDAY","A"
"1714",,,"SUMMIT","VW",,"UNIT 5","AUSTIN","TX","78703","FRIDAY","A"
"1714",,,"SUMMIT","VW",,"UNIT 6","AUSTIN","TX","78703","FRIDAY","A"
"1714",,,"SUMMIT","VW",,"UNIT 7","AUSTIN","TX","78703","FRIDAY","A"
"1714",,,"SUMMIT","VW",,"UNIT 8","AUSTIN","TX","78703","FRIDAY","A"
"1603",,,"WOODLAWN","BLVD",,"UNIT 2","AUSTIN","TX","78703","FRIDAY","A"
"2215",,,"GARDEN","ST",,,"AUSTIN","TX","78702","FRIDAY","A"
"1022",,,"7TH","ST","E",,"AUSTIN","TX","78702","FRIDAY","A"
"1503",,,"WALLER","ST",,,"AUSTIN","TX","78702","FRIDAY","A"
"1803",,,"14TH","ST","E","UNIT 2","AUSTIN","TX","78702","FRIDAY","A"
"2103",,,"10TH","ST","E",,"AUSTIN","TX","78702","FRIDAY","A"
"3213",,"B","WINDSOR","RD",,,"AUSTIN","TX","78703","FRIDAY","A"
"3707",,,"WINDSOR","RD",,,"AUSTIN","TX","78703","FRIDAY","A"
"1105",,"C","9TH","ST","W",,"AUSTIN","TX","78703","FRIDAY","A"
"5006",,,"HIGHLAND","CT",,,"AUSTIN","TX","78731","FRIDAY","A"
"3507",,,"CHERRY","LN",,,"AUSTIN","TX","78703","FRIDAY","A"
"2503",,,"9TH","ST","E",,"AUSTIN","TX","78702","FRIDAY","A"
"3316",,,"LOOKOUT","LN",,,"AUSTIN","TX","78746","FRIDAY","A"
"2709",,,"LYONS","RD",,,"AUSTIN","TX","78702","FRIDAY","A"
"2802",,,"CASTRO","ST",,,"AUSTIN","TX","78702","FRIDAY","A"
"3506",,,"WINDSOR","RD",,,"AUSTIN","TX","78703","FRIDAY","A"
"2307",,,"10TH","ST","W",,"AUSTIN","TX","78703","FRIDAY","A"
"1313",,,"GARDEN","ST",,,"AUSTIN","TX","78702","FRIDAY","A"
"34",,,"CHALMERS","AVE",,,"AUSTIN","TX","78702","FRIDAY","A"
"1905",,,"9TH","ST","E",,"AUSTIN","TX","78702","FRIDAY","A"
"81",,,"CHALMERS","AVE",,,"AUSTIN","TX","78702","FRIDAY","A"
"2315",,,"PRUETT","ST",,,"AUSTIN","TX","78703","FRIDAY","A"
"1911",,,"GARDEN","ST",,,"AUSTIN","TX","78702","FRIDAY","A"
"2404",,,"WILLOW","ST",,,"AUSTIN","TX","78702","FRIDAY","A"
"2329",,,"CESAR CHAVEZ","ST","E",,"AUSTIN","TX","78702","FRIDAY","A"
"1151",,,"PERRY","RD",,,"AUSTIN","TX","78721","FRIDAY","A"
"1109",,,"GARDNER","CV",,,"AUSTIN","TX","78721","FRIDAY","A"
"1805",,,"WINSTED","LN",,,"AUSTIN","TX","78703","FRIDAY","A"
"2017",,"B","3RD","ST","E",,"AUSTIN","TX","78702","FRIDAY","A"
"1703",,,"WETHERSFIELD","RD",,,"AUSTIN","TX","78703","FRIDAY","A"
"2323",,,"HARTFORD","RD",,,"AUSTIN","TX","78703","FRIDAY","A"
"1113",,,"22ND 1/2","ST","W",,"AUSTIN","TX","78705","FRIDAY","A"
"1",,,"SCOTT","CRES",,,"AUSTIN","TX","78703","FRIDAY","A"
"1809",,,"16TH","ST","E",,"AUSTIN","TX","78702","FRIDAY","A"
"2506",,"A","EXPOSITION","BLVD",,,"AUSTIN","TX","78703","FRIDAY","A"
"2105",,,"16TH","ST","E",,"AUSTIN","TX","78702","FRIDAY","A"
"1710",,,"CHESTNUT","AVE",,,"AUSTIN","TX","78702","FRIDAY","A"
"1608",,,"CEDAR","AVE",,,"AUSTIN","TX","78702","FRIDAY","A"
"3409",,,"MOUNT BARKER","DR",,,"AUSTIN","TX","78731","FRIDAY","A"
"2607",,,"MARIA ANNA","RD",,,"AUSTIN","TX","78703","FRIDAY","A"
"3402",,,"SOUTHILL","CIR",,,"AUSTIN","TX","78703","FRIDAY","A"
"5117",,,"VALLEY OAK","DR",,,"AUSTIN","TX","78731","FRIDAY","A"
"2409",,,"SHARON","LN",,,"AUSTIN","TX","78703","FRIDAY","A"
"1907",,"B","13TH","ST","E",,"AUSTIN","TX","78702","FRIDAY","A"
"4303",,,"ISLAND","AVE",,,"AUSTIN","TX","78731","FRIDAY","A"
"6216",,,"NORTHERN DANCER","DR",,,"AUSTIN","TX","78746","FRIDAY","A"
"1005",,,"WILLOW","ST",,,"AUSTIN","TX","78702","FRIDAY","A"
"2907",,,"CASTRO","ST",,,"AUSTIN","TX","78702","FRIDAY","A"
"4711",,,"COLORADO","XING",,,"AUSTIN","TX","78731","FRIDAY","A"
"2114",,,"8TH","ST","E",,"AUSTIN","TX","78702","FRIDAY","A"
"6226",,,"THURGOOD","AVE",,,"AUSTIN","TX","78721","FRIDAY","A"
"1701",,"B","FOREST","TRL",,,"AUSTIN","TX","78703","FRIDAY","A"
"1815",,,"WATERSTON","AVE",,,"AUSTIN","TX","78703","FRIDAY","A"
"1611",,,"PALMA","PLZ",,,"AUSTIN","TX","78703","FRIDAY","A"
"509",,,"BRUSHY","ST",,,"AUSTIN","TX","78702","FRIDAY","A"
"711",,,"7TH","ST","W",,"AUSTIN","TX","78701","FRIDAY","A"
"1189",,,"BRANCH","ST",,,"AUSTIN","TX","78702","FRIDAY","A"
"3217",,,"BRIDLE","PATH",,,"AUSTIN","TX","78703","FRIDAY","A"
"1138",,,"SALINA","ST",,,"AUSTIN","TX","78702","FRIDAY","A"
"6107",,,"NASHUA","CT",,,"AUSTIN","TX","78746","FRIDAY","A"
"3500",,,"LAKELAND","DR",,,"AUSTIN","TX","78731","FRIDAY","A"
"2200",,,"STAMFORD","LN",,,"AUSTIN","TX","78703","FRIDAY","A"
"4609",,,"RIDGE OAK","DR",,,"AUSTIN","TX","78731","FRIDAY","A"
"4501",,,"RIDGE OAK","DR",,"UNIT 1","AUSTIN","TX","78731","FRIDAY","A"
"5907",,,"CARRY BACK","LN",,,"AUSTIN","TX","78746","FRIDAY","A"
"4602",,,"RIDGE OAK","DR",,,"AUSTIN","TX","78731","FRIDAY","A"
"5906",,,"CARRY BACK","LN",,,"AUSTIN","TX","78746","FRIDAY","A"
"4601",,,"RIDGE OAK","DR",,,"AUSTIN","TX","78731","FRIDAY","A"
"5903",,,"CARRY BACK","LN",,,"AUSTIN","TX","78746","FRIDAY","A"
"4507",,,"RIDGE OAK","DR",,,"AUSTIN","TX","78731","FRIDAY","A"
"4417",,,"RIDGE OAK","DR",,,"AUSTIN","TX","78731","FRIDAY","A"
"4929",,"A","FM 2222","RD",,,"AUSTIN","TX","78731","FRIDAY","A"
"4929",,"B","FM 2222","RD",,,"AUSTIN","TX","78731","FRIDAY","A"
"4925",,"A","FM 2222","RD",,,"AUSTIN","TX","78731","FRIDAY","A"
"4611",,,"RIDGE OAK","DR",,,"AUSTIN","TX","78731","FRIDAY","A"
"4603",,,"RIDGE OAK","DR",,,"AUSTIN","TX","78731","FRIDAY","A"
"4600",,,"RIDGE OAK","DR",,,"AUSTIN","TX","78731","FRIDAY","A"
"4604",,,"RIDGE OAK","DR",,,"AUSTIN","TX","78731","FRIDAY","A"
"4608",,,"RIDGE OAK","DR",,,"AUSTIN","TX","78731","FRIDAY","A"
"5909",,,"CARRY BACK","LN",,,"AUSTIN","TX","78746","FRIDAY","A"
"5904",,,"CARRY BACK","LN",,,"AUSTIN","TX","78746","FRIDAY","A"
"5908",,,"CARRY BACK","LN",,,"AUSTIN","TX","78746","FRIDAY","A"
"6002",,,"CARRY BACK","LN",,,"AUSTIN","TX","78746","FRIDAY","A"
"6006",,,"CARRY BACK","LN",,,"AUSTIN","TX","78746","FRIDAY","A"
"5900",,,"CARRY BACK","LN",,,"AUSTIN","TX","78746","FRIDAY","A"
"6004",,,"CARRY BACK","LN",,,"AUSTIN","TX","78746","FRIDAY","A"
"4613",,,"RIDGE OAK","DR",,,"AUSTIN","TX","78731","FRIDAY","A"
"4605",,,"RIDGE OAK","DR",,,"AUSTIN","TX","78731","FRIDAY","A"
"4610",,,"RIDGE OAK","DR",,,"AUSTIN","TX","78731","FRIDAY","A"
"4612",,,"RIDGE OAK","DR",,,"AUSTIN","TX","78731","FRIDAY","A"
"6007",,,"CARRY BACK","LN",,,"AUSTIN","TX","78746","FRIDAY","A"
"4606",,,"RIDGE OAK","DR",,,"AUSTIN","TX","78731","FRIDAY","A"
"4909",,"B","FM 2222","RD",,,"AUSTIN","TX","78731","FRIDAY","A"
"2317",,,"NEWFIELD","LN",,,"AUSTIN","TX","78703","FRIDAY","A"
"1404",,"B","WINDSOR","RD",,,"AUSTIN","TX","78703","FRIDAY","A"
"2400",,,"8TH","ST","W",,"AUSTIN","TX","78703","FRIDAY","A"
"1904",,"C","NUECES","ST",,,"AUSTIN","TX","78705","FRIDAY","A"
"2004",,"B","9TH","ST","E",,"AUSTIN","TX","78702","FRIDAY","A"
"1176",,"A","BEDFORD","ST",,,"AUSTIN","TX","78702","FRIDAY","A"
"2930",,"A","12TH","ST","E",,"AUSTIN","TX","78702","FRIDAY","A"
"1125",,,"ALTUM","ST",,,"AUSTIN","TX","78721","FRIDAY","A"
"2410",,,"8TH","ST","W",,"AUSTIN","TX","78703","FRIDAY","A"
"5909",,,"LUX","ST",,,"AUSTIN","TX","78721","FRIDAY","A"
"1400",,,"WILLOW","ST",,,"AUSTIN","TX","78702","FRIDAY","A"
"2814",,,"CASTRO","ST",,,"AUSTIN","TX","78702","FRIDAY","A"
"1508",,,"HASKELL","ST",,,"AUSTIN","TX","78702","FRIDAY","A"
"3904",,,"BONNELL","DR",,,"AUSTIN","TX","78731","FRIDAY","A"
"2010",,,"HASKELL","ST",,,"AUSTIN","TX","78702","FRIDAY","A"
"3000",,,"GLEN RAE","ST",,,"AUSTIN","TX","78702","FRIDAY","A"
"2203",,,"PENNSYLVANIA","AVE",,,"AUSTIN","TX","78702","FRIDAY","A"
"93",,,"ROBERT T MARTINEZ","ST",,,"AUSTIN","TX","78702","FRIDAY","A"
"2605",,,"SOL WILSON","AVE",,,"AUSTIN","TX","78702","FRIDAY","A"
"1617",,,"10TH","ST","W",,"AUSTIN","TX","78703","FRIDAY","A"
"2907",,,"3RD","ST","E",,"AUSTIN","TX","78702","FRIDAY","A"
"2007",,"A","16TH","ST","E",,"AUSTIN","TX","78702","FRIDAY","A"
"4231",,,"WESTLAKE","DR",,"UNIT I-2","AUSTIN","TX","78746","FRIDAY","A"
"1908",,"C","2ND","ST","E",,"AUSTIN","TX","78702","FRIDAY","A"
"1600",,,"PEASE","RD",,"UNIT 4","AUSTIN","TX","78703","FRIDAY","A"
"1710",,,"CLIFFORD","AVE",,,"AUSTIN","TX","78702","FRIDAY","A"
"2933",,,"MARTIN LUTHER KING","BLVD","E",,"AUSTIN","TX","78702","FRIDAY","A"
"1711",,,"3RD","ST","E",,"AUSTIN","TX","78702","FRIDAY","A"
"2515",,,"JANICE","DR",,,"AUSTIN","TX","78703","FRIDAY","A"
"2516",,,"SPRING","LN",,,"AUSTIN","TX","78703","FRIDAY","A"
"1206",,,"CASTLE HILL","ST",,"UNIT 2","AUSTIN","TX","78703","FRIDAY","A"
"1708",,,"6TH","ST","E",,"AUSTIN","TX","78702","FRIDAY","A"
"3701",,,"BRIDLE","PATH",,,"AUSTIN","TX","78703","FRIDAY","A"
"1406",,"A","CHICON","ST",,,"AUSTIN","TX","78702","FRIDAY","A"
"5406",,,"COURTYARD","DR",,,"AUSTIN","TX","78731","FRIDAY","A"
"508",,,"14TH","ST","W",,"AUSTIN","TX","78701","FRIDAY","A"
"2601",,,"3RD","ST","E",,"AUSTIN","TX","78702","FRIDAY","A"
"1189",,,"ALAMO","ST",,,"AUSTIN","TX","78702","FRIDAY","A"
"1302",,,"SINGLETON","AVE",,,"AUSTIN","TX","78702","FRIDAY","A"
"2603",,,"8TH","ST","W",,"AUSTIN","TX","78703","FRIDAY","A"
"4301",,,"WATERFORD","PL",,,"AUSTIN","TX","78731","FRIDAY","A"
"809",,"B","12TH","ST","W",,"AUSTIN","TX","78701","FRIDAY","A"
"1104",,,"LAMBIE","ST",,,"AUSTIN","TX","78702","FRIDAY","A"
"3011",,,"PRADO","ST",,,"AUSTIN","TX","78702","FRIDAY","A"
"2304",,,"7TH","ST","W",,"AUSTIN","TX","78703","FRIDAY","A"
"1611",,,"CANTERBURY","ST",,,"AUSTIN","TX","78702","FRIDAY","A"
"1009",,,"CHERICO","ST",,,"AUSTIN","TX","78702","FRIDAY","A"
"3207",,,"THOMPSON","ST",,,"AUSTIN","TX","78702","FRIDAY","A"
"2411",,,"PRUETT","ST",,,"AUSTIN","TX","78703","FRIDAY","A"
"2211",,,"HOLLY","ST",,"UNIT 2","AUSTIN","TX","78702","FRIDAY","A"
"2205",,,"WILLOW","ST",,,"AUSTIN","TX","78702","FRIDAY","A"
"709",,,"BROWNLEE","CIR",,,"AUSTIN","TX","78703","FRIDAY","A"
"1180",,,"SOL WILSON","AVE",,,"AUSTIN","TX","78702","FRIDAY","A"
"1707",,,"STAMFORD","LN",,,"AUSTIN","TX","78703","FRIDAY","A"
"1401",,,"HARTFORD","RD",,"UNIT 3","AUSTIN","TX","78703","FRIDAY","A"
"2908",,"B","WINDSOR","RD",,,"AUSTIN","TX","78703","FRIDAY","A"
"2408",,,"INDIAN","TRL",,,"AUSTIN","TX","78703","FRIDAY","A"
"2307",,,"GREENLEE","DR",,,"AUSTIN","TX","78703","FRIDAY","A"
"1203","1/2",,"BAYLOR","ST",,,"AUSTIN","TX","78703","FRIDAY","A"
"1319",,,"ROSEWOOD","AVE",,,"AUSTIN","TX","78702","FRIDAY","A"
"1908",,"A","2ND","ST","E",,"AUSTIN","TX","78702","FRIDAY","A"
"2703",,,"McCULLOUGH","ST",,,"AUSTIN","TX","78703","FRIDAY","A"
"1704",,,"CEDAR","AVE",,,"AUSTIN","TX","78702","FRIDAY","A"
"3323",,,"PERRY","LN",,,"AUSTIN","TX","78731","FRIDAY","A"
"3608",,,"LUCAS","DR",,,"AUSTIN","TX","78731","FRIDAY","A"
"1239",,"B","PARKWAY",,,,"AUSTIN","TX","78703","FRIDAY","A"
"1312",,"B","BOB HARRISON",,,,"AUSTIN","TX","78702","FRIDAY","A"
"915",,"B","BRET","LN",,,"AUSTIN","TX","78721","FRIDAY","A"
"2930",,"C","12TH","ST","E",,"AUSTIN","TX","78702","FRIDAY","A"
"2918",,,"14TH","ST","E",,"AUSTIN","TX","78702","FRIDAY","A"
"1625",,,"10TH","ST","E",,"AUSTIN","TX","78702","FRIDAY","A"
"2201",,,"BOWMAN","AVE",,,"AUSTIN","TX","78703","FRIDAY","A"
"1131","1/2",,"POQUITO","ST",,,"AUSTIN","TX","78702","FRIDAY","A"
"5407",,,"SCOUT ISLAND","CIR","S",,"AUSTIN","TX","78731","FRIDAY","A"
"1709",,,"SINGLETON","AVE",,,"AUSTIN","TX","78702","FRIDAY","A"
"2801",,,"HILLVIEW","RD",,,"AUSTIN","TX","78703","FRIDAY","A"
"821",,,"11TH","ST","W",,"AUSTIN","TX","78701","FRIDAY","A"
"2609",,,"SOL WILSON","AVE",,,"AUSTIN","TX","78702","FRIDAY","A"
"1303",,,"COTTON","ST",,,"AUSTIN","TX","78702","FRIDAY","A"
"2517",,,"WINSTED","LN",,"UNIT 1B","AUSTIN","TX","78703","FRIDAY","A"
"2517",,,"WINSTED","LN",,"UNIT 2B","AUSTIN","TX","78703","FRIDAY","A"
"1505",,"A","WINDSOR","RD",,,"AUSTIN","TX","78703","FRIDAY","A"
"1505",,"C","WINDSOR","RD",,,"AUSTIN","TX","78703","FRIDAY","A"
"2610",,"B","3RD","ST","E",,"AUSTIN","TX","78702","FRIDAY","A"
"2505",,,"ENFIELD","RD",,"UNIT 3-4","AUSTIN","TX","78703","FRIDAY","A"
"5912",,,"LUX","ST",,,"AUSTIN","TX","78721","FRIDAY","A"
"2014",,,"11TH","ST","E",,"AUSTIN","TX","78702","FRIDAY","A"
"1709",,,"HASKELL","ST",,"UNIT 1","AUSTIN","TX","78702","FRIDAY","A"
"1809",,,"HOLLY","ST",,,"AUSTIN","TX","78702","FRIDAY","A"
"1706",,,"HOLLY","ST",,,"AUSTIN","TX","78702","FRIDAY","A"
"2605",,,"WILLOW","ST",,,"AUSTIN","TX","78702","FRIDAY","A"
"1180","1/2",,"SOL WILSON","AVE",,,"AUSTIN","TX","78702","FRIDAY","A"
"1805",,,"FOREST","TRL",,,"AUSTIN","TX","78703","FRIDAY","A"
"1713",,"A","ENFIELD","RD",,,"AUSTIN","TX","78703","FRIDAY","A"
"2044",,,"CESAR CHAVEZ","ST","E",,"AUSTIN","TX","78702","FRIDAY","A"
"2207",,,"GREENLEE","DR",,,"AUSTIN","TX","78703","FRIDAY","A"
"2205",,,"SUNNY SLOPE","DR",,,"AUSTIN","TX","78703","FRIDAY","A"
"2109",,,"HIGHGROVE","TER",,,"AUSTIN","TX","78703","FRIDAY","A"
"1706",,"B","13TH","ST","E",,"AUSTIN","TX","78702","FRIDAY","A"
"2101",,"A","WINSTED","LN",,,"AUSTIN","TX","78703","FRIDAY","A"
"1204",,"C","SALINA","ST",,,"AUSTIN","TX","78702","FRIDAY","A"
"1181",,,"COMAL","ST",,,"AUSTIN","TX","78702","FRIDAY","A"
"2307",,,"11TH","ST","E",,"AUSTIN","TX","78702","FRIDAY","A"
"1914",,,"8TH","ST","E",,"AUSTIN","TX","78702","FRIDAY","A"
"1309",,,"WALNUT","AVE",,,"AUSTIN","TX","78702","FRIDAY","A"
"1405",,,"ULIT","AVE",,,"AUSTIN","TX","78702","FRIDAY","A"
"2702",,,"MOUNTAIN LAUREL","LN",,,"AUSTIN","TX","78703","FRIDAY","A"
"5224",,,"VALLEY OAK","DR",,,"AUSTIN","TX","78731","FRIDAY","A"
"305",,"B","13TH","ST","W",,"AUSTIN","TX","78701","FRIDAY","A"
"1708",,"D","HARVEY","ST",,,"AUSTIN","TX","78702","FRIDAY","A"
"2505",,,"ENFIELD","RD",,"UNIT 3-3","AUSTIN","TX","78703","FRIDAY","A"
"1605",,,"CHESTNUT","AVE",,,"AUSTIN","TX","78702","FRIDAY","A"
"4516",,,"COLORADO","XING",,,"AUSTIN","TX","78731","FRIDAY","A"
"701",,,"BAYLOR","ST",,,"AUSTIN","TX","78703","FRIDAY","A"
"1708",,,"HASKELL","ST",,,"AUSTIN","TX","78702","FRIDAY","A"
"2308",,,"CANTERBURY","ST",,,"AUSTIN","TX","78702","FRIDAY","A"
"923",,,"SHADY","LN",,,"AUSTIN","TX","78702","FRIDAY","A"
"6202",,,"STILES","CV",,"UNIT 2","AUSTIN","TX","78721","FRIDAY","A"
"907",,,"GULLETT","ST",,,"AUSTIN","TX","78702","FRIDAY","A"
"3021",,,"16TH","ST","E",,"AUSTIN","TX","78702","FRIDAY","A"
"2611",,,"2ND","ST","E",,"AUSTIN","TX","78702","FRIDAY","A"
"2908",,"A","WINDSOR","RD",,,"AUSTIN","TX","78703","FRIDAY","A"
"1710",,"D","ENFIELD","RD",,,"AUSTIN","TX","78703","FRIDAY","A"
"1201",,,"ENFIELD","RD",,"UNIT 2","AUSTIN","TX","78703","FRIDAY","A"
"1207",,,"LORRAIN","ST",,"UNIT 3","AUSTIN","TX","78703","FRIDAY","A"
"1308",,,"3RD","ST","E",,"AUSTIN","TX","78702","FRIDAY","A"
"3002",,,"BRIDLE","PATH",,,"AUSTIN","TX","78703","FRIDAY","A"
"5719",,,"SAM HOUSTON","CIR",,,"AUSTIN","TX","78731","FRIDAY","A"
"2806",,,"SCENIC","DR",,,"AUSTIN","TX","78703","FRIDAY","A"
"3402",,,"KAY","ST",,,"AUSTIN","TX","78702","FRIDAY","A"
"1200",,,"INTERSTATE 35 FRONTAGE RD SB",,"N",,"AUSTIN","TX","78701","FRIDAY","A"
"2506",,"E","ENFIELD","RD",,,"AUSTIN","TX","78703","FRIDAY","A"
"3712",,,"STEVENSON","AVE",,,"AUSTIN","TX","78703","FRIDAY","A"
"1706",,,"WILLOW","ST",,,"AUSTIN","TX","78702","FRIDAY","A"
"2517",,,"WAYMAKER","WAY",,,"AUSTIN","TX","78746","FRIDAY","A"
"1034",,,"GARDNER","RD",,"UNIT 2","AUSTIN","TX","78721","FRIDAY","A"
"2215",,,"SANTA MARIA","ST",,,"AUSTIN","TX","78702","FRIDAY","A"
"2101",,,"BOWMAN","AVE",,,"AUSTIN","TX","78703","FRIDAY","A"
"2524",,,"SPRING","LN",,,"AUSTIN","TX","78703","FRIDAY","A"
"906",,,"6TH","ST","E",,"AUSTIN","TX","78702","FRIDAY","A"
"3214",,,"STEVENSON","AVE",,,"AUSTIN","TX","78703","FRIDAY","A"
"1810",,,"MAPLE","AVE",,,"AUSTIN","TX","78702","FRIDAY","A"
"2717",,,"MOUNTAIN LAUREL","LN",,,"AUSTIN","TX","78703","FRIDAY","A"
"3802",,,"EDGEMONT","DR",,,"AUSTIN","TX","78731","FRIDAY","A"
"1803",,"A","18TH","ST","E",,"AUSTIN","TX","78702","FRIDAY","A"
"1510",,,"PALMA","PLZ",,,"AUSTIN","TX","78703","FRIDAY","A"
"1306",,,"ALAMO","ST",,,"AUSTIN","TX","78702","FRIDAY","A"
"1601",,"B","HOLLY","ST",,,"AUSTIN","TX","78702","FRIDAY","A"
"1708",,"F","HARVEY","ST",,,"AUSTIN","TX","78702","FRIDAY","A"
"1129",,"B","ALTUM","ST",,,"AUSTIN","TX","78721","FRIDAY","A"
"1111",,,"CLERMONT","AVE",,,"AUSTIN","TX","78702","FRIDAY","A"
"3101",,,"PRADO","ST",,,"AUSTIN","TX","78702","FRIDAY","A"
"710",,"B","AUGUSTA","AVE",,,"AUSTIN","TX","78703","FRIDAY","A"
"3218",,,"BRIDLE","PATH",,,"AUSTIN","TX","78703","FRIDAY","A"
"1807",,,"HOLLY","ST",,,"AUSTIN","TX","78702","FRIDAY","A"
"904",,,"POSSUM TROT",,,,"AUSTIN","TX","78703","FRIDAY","A"
"1408",,,"10TH","ST","W",,"AUSTIN","TX","78703","FRIDAY","A"
"1511",,"B","10TH","ST","W",,"AUSTIN","TX","78703","FRIDAY","A"
"40",,,"ANTHONY","ST",,,"AUSTIN","TX","78702","FRIDAY","A"
"600",,"B","9TH","ST","W",,"AUSTIN","TX","78701","FRIDAY","A"
"700",,,"HIGHLAND","AVE",,,"AUSTIN","TX","78703","FRIDAY","A"
"715",,"A","BROWNLEE","CIR",,,"AUSTIN","TX","78703","FRIDAY","A"
"3019",,"C","12TH","ST","E",,"AUSTIN","TX","78702","FRIDAY","A"
"1703",,"B","WINSTED","LN",,,"AUSTIN","TX","78703","FRIDAY","A"
"3109",,,"14TH","ST","E",,"AUSTIN","TX","78702","FRIDAY","A"
"1103",,,"CONCHO","ST",,,"AUSTIN","TX","78702","FRIDAY","A"
"1610",,,"HARTFORD","RD",,,"AUSTIN","TX","78703","FRIDAY","A"
"1607",,,"SANCHEZ","ST",,,"AUSTIN","TX","78702","FRIDAY","A"
"2007",,"B","WINSTED","LN",,,"AUSTIN","TX","78703","FRIDAY","A"
"1515",,,"ENFIELD","RD",,,"AUSTIN","TX","78703","FRIDAY","A"
"1510",,"A","PALMA","PLZ",,,"AUSTIN","TX","78703","FRIDAY","A"
"1201",,"A","BAYLOR","ST",,,"AUSTIN","TX","78703","FRIDAY","A"
"1111",,"A","KINGSBURY","ST",,,"AUSTIN","TX","78703","FRIDAY","A"
"2007",,,"WINSTED","LN",,,"AUSTIN","TX","78703","FRIDAY","A"
"3707",,,"BRIDLE","PATH",,"UNIT 1","AUSTIN","TX","78703","FRIDAY","A"
"2408",,,"10TH","ST","E",,"AUSTIN","TX","78702","FRIDAY","A"
"1910",,"B","11TH","ST","E",,"AUSTIN","TX","78702","FRIDAY","A"
"1619",,,"11TH","ST","E",,"AUSTIN","TX","78702","FRIDAY","A"
"2710",,"B","BOWMAN","AVE",,,"AUSTIN","TX","78703","FRIDAY","A"
"1194",,,"COLETO","ST",,,"AUSTIN","TX","78702","FRIDAY","A"
"1204",,"B","22ND","ST","W",,"AUSTIN","TX","78705","FRIDAY","A"
"2214",,,"18TH","ST","E",,"AUSTIN","TX","78702","FRIDAY","A"
"1800",,,"CEDAR","AVE",,,"AUSTIN","TX","78702","FRIDAY","A"
"2716",,,"MOUNTAIN LAUREL","LN",,,"AUSTIN","TX","78703","FRIDAY","A"
"2303",,"B","10TH","ST","E",,"AUSTIN","TX","78702","FRIDAY","A"
"1907",,"A","13TH","ST","E",,"AUSTIN","TX","78702","FRIDAY","A"
"1305",,"B","WALLER","ST",,,"AUSTIN","TX","78702","FRIDAY","A"
"1127",,,"SALINA","ST",,,"AUSTIN","TX","78702","FRIDAY","A"
"1905",,,"McCALL","RD",,,"AUSTIN","TX","78703","FRIDAY","A"
"6003",,,"ASCOT","CV",,,"AUSTIN","TX","78746","FRIDAY","A"
"1107",,"B","22ND 1/2","ST","W",,"AUSTIN","TX","78705","FRIDAY","A"
"1621",,,"11TH","ST","E",,"AUSTIN","TX","78702","FRIDAY","A"
"1112",,,"HENNINGER","ST",,,"AUSTIN","TX","78702","FRIDAY","A"
"1603",,,"PEARL","ST",,,"AUSTIN","TX","78701","FRIDAY","A"
"2906",,,"2ND","ST","E",,"AUSTIN","TX","78702","FRIDAY","A"
"4231",,,"WESTLAKE","DR",,"UNIT G-3","AUSTIN","TX","78746","FRIDAY","A"
"1800",,,"WATERSTON","AVE",,,"AUSTIN","TX","78703","FRIDAY","A"
"4",,,"SCOTT","CRES",,,"AUSTIN","TX","78703","FRIDAY","A"
"1706",,,"13TH","ST","E",,"AUSTIN","TX","78702","FRIDAY","A"
"2000",,,"10TH","ST","E",,"AUSTIN","TX","78702","FRIDAY","A"
"1133",,,"SALINA","ST",,,"AUSTIN","TX","78702","FRIDAY","A"
"3211",,,"WINDSOR","RD",,,"AUSTIN","TX","78703","FRIDAY","A"
"2702",,,"McCULLOUGH","ST",,,"AUSTIN","TX","78703","FRIDAY","A"
"5312",,,"SCOUT ISLAND","CIR","N",,"AUSTIN","TX","78731","FRIDAY","A"
"2502",,,"14TH","ST","E",,"AUSTIN","TX","78702","FRIDAY","A"
"3212",,,"HILLVIEW","RD",,,"AUSTIN","TX","78703","FRIDAY","A"
"3101",,,"PERRY","LN",,,"AUSTIN","TX","78731","FRIDAY","A"
"4709",,,"HIGHLAND","TER",,,"AUSTIN","TX","78731","FRIDAY","A"
"92",,,"NAVASOTA","ST",,,"AUSTIN","TX","78702","FRIDAY","A"
"2803",,,"5TH","ST","E",,"AUSTIN","TX","78702","FRIDAY","A"
"1801",,,"14TH","ST","E",,"AUSTIN","TX","78702","FRIDAY","A"
"2512",,,"MATTHEWS","DR",,,"AUSTIN","TX","78703","FRIDAY","A"
"3921",,,"BALCONES","DR",,,"AUSTIN","TX","78731","FRIDAY","A"
"3000",,"B","PRADO","ST",,,"AUSTIN","TX","78702","FRIDAY","A"
"1708",,"C","HARVEY","ST",,,"AUSTIN","TX","78702","FRIDAY","A"
"1120",,,"GUNTER","ST",,,"AUSTIN","TX","78702","FRIDAY","A"
"1806",,,"WILLOW","ST",,,"AUSTIN","TX","78702","FRIDAY","A"
"2005",,,"CESAR CHAVEZ","ST","E",,"AUSTIN","TX","78702","FRIDAY","A"
"610",,,"HARTHAN","ST",,,"AUSTIN","TX","78703","FRIDAY","A"
"1801",,"A","18TH","ST","E",,"AUSTIN","TX","78702","FRIDAY","A"
"3305",,,"BOWMAN","AVE",,,"AUSTIN","TX","78703","FRIDAY","A"
"4509",,,"BALCONES","DR",,,"AUSTIN","TX","78731","FRIDAY","A"
"3301",,,"PERRY","LN",,,"AUSTIN","TX","78731","FRIDAY","A"
"4711",,,"HIGHLAND","TER",,,"AUSTIN","TX","78731","FRIDAY","A"
"908",,"B","BRET","LN",,,"AUSTIN","TX","78721","FRIDAY","A"
"6007",,,"NORTHERN DANCER","DR",,,"AUSTIN","TX","78746","FRIDAY","A"
"1611",,,"11TH","ST","E",,"AUSTIN","TX","78702","FRIDAY","A"
"3001",,,"GOODWIN","AVE",,,"AUSTIN","TX","78702","FRIDAY","A"
"2909",,,"GOODWIN","AVE",,,"AUSTIN","TX","78702","FRIDAY","A"
"3515",,,"WEBBERVILLE","RD",,,"AUSTIN","TX","78702","FRIDAY","A"
"2803",,,"GOODWIN","AVE",,,"AUSTIN","TX","78702","FRIDAY","A"
"2809",,,"GOODWIN","AVE",,,"AUSTIN","TX","78702","FRIDAY","A"
"2901",,,"GOODWIN","AVE",,,"AUSTIN","TX","78702","FRIDAY","A"
"2907",,,"GOODWIN","AVE",,,"AUSTIN","TX","78702","FRIDAY","A"
"2805",,,"GOODWIN","AVE",,,"AUSTIN","TX","78702","FRIDAY","A"
"2807",,,"GOODWIN","AVE",,,"AUSTIN","TX","78702","FRIDAY","A"
"2801",,"B","GOODWIN","AVE",,,"AUSTIN","TX","78702","FRIDAY","A"
"2801",,"A","GOODWIN","AVE",,,"AUSTIN","TX","78702","FRIDAY","A"
"1410",,"B","ULIT","AVE",,,"AUSTIN","TX","78702","FRIDAY","A"
"2201",,"B","EXPOSITION","BLVD",,,"AUSTIN","TX","78703","FRIDAY","A"
"2109",,"B","PENNSYLVANIA","AVE",,,"AUSTIN","TX","78702","FRIDAY","A"
"1601",,,"MIRIAM","AVE",,"UNIT 200","AUSTIN","TX","78702","FRIDAY","A"
"1601",,,"MIRIAM","AVE",,"UNIT 210","AUSTIN","TX","78702","FRIDAY","A"
"1601",,,"MIRIAM","AVE",,"UNIT 215","AUSTIN","TX","78702","FRIDAY","A"
"1601",,,"MIRIAM","AVE",,"UNIT 216","AUSTIN","TX","78702","FRIDAY","A"
"1611",,"B","ULIT","AVE",,,"AUSTIN","TX","78702","FRIDAY","A"
"1601",,,"MIRIAM","AVE",,"UNIT 18","AUSTIN","TX","78702","FRIDAY","A"
"5009",,,"RED BLUFF","RD",,,"AUSTIN","TX","78702","FRIDAY","A"
"1103",,,"LAMBIE","ST",,,"AUSTIN","TX","78702","FRIDAY","A"
"808",,"B","BAYLOR","ST",,,"AUSTIN","TX","78703","FRIDAY","A"
"31",,"A","CHALMERS","AVE",,,"AUSTIN","TX","78702","FRIDAY","A"
"1813",,,"RIVERVIEW","ST",,,"AUSTIN","TX","78702","FRIDAY","A"
"1606",,,"HOLLY","ST",,,"AUSTIN","TX","78702","FRIDAY","A"
"2314",,,"7TH","ST","W",,"AUSTIN","TX","78703","FRIDAY","A"
"713",,,"NEWMAN","DR",,,"AUSTIN","TX","78703","FRIDAY","A"
"3519",,,"FAWN","TRL",,,"AUSTIN","TX","78746","FRIDAY","A"
"1902",,,"CANTERBURY","ST",,"UNIT 1","AUSTIN","TX","78702","FRIDAY","A"
"3009",,,"KUHLMAN","AVE",,,"AUSTIN","TX","78702","FRIDAY","A"
"1001",,,"EASON","ST",,,"AUSTIN","TX","78703","FRIDAY","A"
"2215",,,"WILLOW","ST",,,"AUSTIN","TX","78702","FRIDAY","A"
"2203",,,"CESAR CHAVEZ","ST","E",,"AUSTIN","TX","78702","FRIDAY","A"
"2505",,,"WILLOW","ST",,,"AUSTIN","TX","78702","FRIDAY","A"
"1507",,"B","ELTON","LN",,,"AUSTIN","TX","78703","FRIDAY","A"
"1633",,"B","WATERSTON","AVE",,,"AUSTIN","TX","78703","FRIDAY","A"
"905",,,"GULLETT","ST",,,"AUSTIN","TX","78702","FRIDAY","A"
"747",,"A","GUNTER","ST",,,"AUSTIN","TX","78702","FRIDAY","A"
"1906",,,"STAMFORD","LN",,,"AUSTIN","TX","78703","FRIDAY","A"
"1405",,,"HARVEY","ST",,,"AUSTIN","TX","78702","FRIDAY","A"
"1404",,"E","WOODLAWN","BLVD",,,"AUSTIN","TX","78703","FRIDAY","A"
"1704",,,"SANCHEZ","ST",,,"AUSTIN","TX","78702","FRIDAY","A"
"1511",,"B","PALMA","PLZ",,,"AUSTIN","TX","78703","FRIDAY","A"
"705",,,"WALLER","ST",,,"AUSTIN","TX","78702","FRIDAY","A"
"2928",,"A","12TH","ST","E",,"AUSTIN","TX","78702","FRIDAY","A"
"1204",,,"10TH","ST","E",,"AUSTIN","TX","78702","FRIDAY","A"
"1006",,,"15TH","ST","E",,"AUSTIN","TX","78702","FRIDAY","A"
"5511",,,"COURTYARD","DR",,,"AUSTIN","TX","78731","FRIDAY","A"
"5100",,,"FAIRVIEW","DR",,,"AUSTIN","TX","78731","FRIDAY","A"
"1911",,,"TILLOTSON","AVE",,,"AUSTIN","TX","78702","FRIDAY","A"
"1206",,,"CHESTNUT","AVE",,,"AUSTIN","TX","78702","FRIDAY","A"
"2203",,,"13TH","ST","E",,"AUSTIN","TX","78702","FRIDAY","A"
"3005",,,"KUHLMAN","AVE",,,"AUSTIN","TX","78702","FRIDAY","A"
"1809",,,"CLIFFORD","AVE",,,"AUSTIN","TX","78702","FRIDAY","A"
"1503",,,"PALMA","PLZ",,"UNIT 2","AUSTIN","TX","78703","FRIDAY","A"
"2101",,,"MATTHEWS","DR",,,"AUSTIN","TX","78703","FRIDAY","A"
"1205",,"E","NORWALK","LN",,,"AUSTIN","TX","78703","FRIDAY","A"
"1612",,"A","MIRIAM","AVE",,,"AUSTIN","TX","78702","FRIDAY","A"
"1710",,"B","NEW YORK","AVE",,,"AUSTIN","TX","78702","FRIDAY","A"
"2706",,,"CREST","AVE",,,"AUSTIN","TX","78702","FRIDAY","A"
"1708",,"A","HARVEY","ST",,,"AUSTIN","TX","78702","FRIDAY","A"
"1600",,"A","EXPOSITION","BLVD",,,"AUSTIN","TX","78703","FRIDAY","A"
"1600",,,"MAPLE","AVE",,"UNIT 2","AUSTIN","TX","78702","FRIDAY","A"
"1909",,,"GARDEN","ST",,,"AUSTIN","TX","78702","FRIDAY","A"
"2912",,,"PRADO","ST",,,"AUSTIN","TX","78702","FRIDAY","A"
"808",,"C","BAYLOR","ST",,,"AUSTIN","TX","78703","FRIDAY","A"
"2711",,,"SCENIC","DR",,,"AUSTIN","TX","78703","FRIDAY","A"
"800",,,"SAN ANTONIO","ST",,"UNIT 3","AUSTIN","TX","78701","FRIDAY","A"
"811",,"B","BLANCO","ST",,,"AUSTIN","TX","78703","FRIDAY","A"
"811",,"C","BLANCO","ST",,,"AUSTIN","TX","78703","FRIDAY","A"
"811",,"A","BLANCO","ST",,,"AUSTIN","TX","78703","FRIDAY","A"
"6200",,,"THURGOOD","AVE",,,"AUSTIN","TX","78721","FRIDAY","A"
"1008",,,"GLEN OAKS","CT",,,"AUSTIN","TX","78702","FRIDAY","A"
"2609",,,"WILLOW","ST",,,"AUSTIN","TX","78702","FRIDAY","A"
"1109",,,"WALTON","LN",,,"AUSTIN","TX","78721","FRIDAY","A"
"1205",,"F","NORWALK","LN",,,"AUSTIN","TX","78703","FRIDAY","A"
"917",,,"CALLE LIMON",,,,"AUSTIN","TX","78702","FRIDAY","A"
"2004",,,"STAMFORD","LN",,,"AUSTIN","TX","78703","FRIDAY","A"
"1913",,"B","DAVID","ST",,,"AUSTIN","TX","78705","FRIDAY","A"
"1707",,,"FRANCIS","AVE",,,"AUSTIN","TX","78703","FRIDAY","A"
"610",,,"VERMONT","RD",,,"AUSTIN","TX","78702","FRIDAY","A"
"600",,,"ALLEN","ST",,,"AUSTIN","TX","78702","FRIDAY","A"
"2211",,"B","STAMFORD","LN",,,"AUSTIN","TX","78703","FRIDAY","A"
"2211",,"A","STAMFORD","LN",,,"AUSTIN","TX","78703","FRIDAY","A"
"2103",,,"FOREST","TRL",,,"AUSTIN","TX","78703","FRIDAY","A"
"1610",,,"11TH","ST","W",,"AUSTIN","TX","78703","FRIDAY","A"
"2209",,,"NEWFIELD","LN",,,"AUSTIN","TX","78703","FRIDAY","A"
"2912",,,"WINDSOR","RD",,"UNIT 2","AUSTIN","TX","78703","FRIDAY","A"
"1503",,,"LORRAIN","ST",,,"AUSTIN","TX","78703","FRIDAY","A"
"907",,,"3RD","ST","E",,"AUSTIN","TX","78702","FRIDAY","A"
"2206",,,"BOWMAN","AVE",,,"AUSTIN","TX","78703","FRIDAY","A"
"2204",,,"TOWER","DR",,,"AUSTIN","TX","78703","FRIDAY","A"
"807",,,"16TH","ST","E",,"AUSTIN","TX","78702","FRIDAY","A"
"1800",,,"NEW YORK","AVE",,,"AUSTIN","TX","78702","FRIDAY","A"
"1156",,,"ANGELINA","ST",,,"AUSTIN","TX","78702","FRIDAY","A"
"3301",,,"CHERRY","LN",,,"AUSTIN","TX","78703","FRIDAY","A"
"3502",,,"CHERRY","LN",,,"AUSTIN","TX","78703","FRIDAY","A"
"3704",,,"MEREDITH","ST",,"UNIT 1","AUSTIN","TX","78703","FRIDAY","A"
"2508",,,"10TH","ST","E",,"AUSTIN","TX","78702","FRIDAY","A"
"2302",,,"9TH","ST","E",,"AUSTIN","TX","78702","FRIDAY","A"
"2111",,,"SCENIC","DR",,,"AUSTIN","TX","78703","FRIDAY","A"
"3304",,,"WINDSOR","RD",,,"AUSTIN","TX","78703","FRIDAY","A"
"2202",,"C","13TH","ST","E",,"AUSTIN","TX","78702","FRIDAY","A"
"5210",,,"SCOUT ISLAND","CIR","S",,"AUSTIN","TX","78731","FRIDAY","A"
"1307",,"A","3RD","ST","E",,"AUSTIN","TX","78702","FRIDAY","A"
"4614",,,"MADRONA","DR",,,"AUSTIN","TX","78731","FRIDAY","A"
"2013",,"B","RIVERVIEW","ST",,,"AUSTIN","TX","78702","FRIDAY","A"
"3206",,,"BENGSTON","ST",,,"AUSTIN","TX","78702","FRIDAY","A"
"1006",,,"TILLERY","ST",,,"AUSTIN","TX","78702","FRIDAY","A"
"2103",,"A","EXPOSITION","BLVD",,,"AUSTIN","TX","78703","FRIDAY","A"
"2109",,"A","PENNSYLVANIA","AVE",,,"AUSTIN","TX","78702","FRIDAY","A"
"1187",,"B","RIDGEWAY","DR",,,"AUSTIN","TX","78702","FRIDAY","A"
"2208",,,"CANTERBURY","ST",,,"AUSTIN","TX","78702","FRIDAY","A"
"2207",,,"FOREST","TRL",,,"AUSTIN","TX","78703","FRIDAY","A"
"2911",,"B","5TH","ST","E",,"AUSTIN","TX","78702","FRIDAY","A"
"610",,,"VERMONT","RD",,"UNIT 2","AUSTIN","TX","78702","FRIDAY","A"
"3102",,,"LOOKOUT","LN",,,"AUSTIN","TX","78746","FRIDAY","A"
"1600",,,"MAPLE","AVE",,"UNIT 1","AUSTIN","TX","78702","FRIDAY","A"
"1604",,,"MAPLE","AVE",,"UNIT 1","AUSTIN","TX","78702","FRIDAY","A"
"1604",,,"MAPLE","AVE",,"UNIT 2","AUSTIN","TX","78702","FRIDAY","A"
"95",,,"RAINEY","ST",,,"AUSTIN","TX","78701","FRIDAY","A"
"3106",,,"RIVERCREST","DR",,,"AUSTIN","TX","78746","FRIDAY","A"
"1201",,,"GARDEN","ST",,,"AUSTIN","TX","78702","FRIDAY","A"
"1203",,,"GARDEN","ST",,,"AUSTIN","TX","78702","FRIDAY","A"
"800",,,"SAN ANTONIO","ST",,"UNIT 1","AUSTIN","TX","78701","FRIDAY","A"
"1004",,"B","EASON","ST",,,"AUSTIN","TX","78703","FRIDAY","A"
"2108",,,"11TH","ST","W",,"AUSTIN","TX","78703","FRIDAY","A"
"2105",,,"11TH","ST","W",,"AUSTIN","TX","78703","FRIDAY","A"
"1405",,,"KENT","LN",,,"AUSTIN","TX","78703","FRIDAY","A"
"2520",,,"ENFIELD","RD",,,"AUSTIN","TX","78703","FRIDAY","A"
"2505",,,"ENFIELD","RD",,"UNIT 1","AUSTIN","TX","78703","FRIDAY","A"
"1711",,,"VISTA","LN",,,"AUSTIN","TX","78703","FRIDAY","A"
"1902",,,"DAVID","ST",,,"AUSTIN","TX","78705","FRIDAY","A"
"1706",,,"WETHERSFIELD","RD",,,"AUSTIN","TX","78703","FRIDAY","A"
"2105",,"B","HARTFORD","RD",,,"AUSTIN","TX","78703","FRIDAY","A"
"2104",,,"BOWMAN","AVE",,,"AUSTIN","TX","78703","FRIDAY","A"
"2203",,,"TOWNES","LN",,,"AUSTIN","TX","78703","FRIDAY","A"
"3402",,,"BRIDLE","PATH",,,"AUSTIN","TX","78703","FRIDAY","A"
"1007",,"A","7TH","ST","E",,"AUSTIN","TX","78702","FRIDAY","A"
"2103",,"B","16TH","ST","E",,"AUSTIN","TX","78702","FRIDAY","A"
"1310",,,"CONCHO","ST",,,"AUSTIN","TX","78702","FRIDAY","A"
"3513",,,"WINDSOR","RD",,,"AUSTIN","TX","78703","FRIDAY","A"
"1005",,,"BRASS","ST",,,"AUSTIN","TX","78702","FRIDAY","A"
"608",,,"22ND","ST","W",,"AUSTIN","TX","78705","FRIDAY","A"
"1803",,,"WILLOW","ST",,,"AUSTIN","TX","78702","FRIDAY","A"
"3703",,,"BONNELL","DR",,,"AUSTIN","TX","78731","FRIDAY","A"
"504",,,"TILLERY","ST",,,"AUSTIN","TX","78702","FRIDAY","A"
"4900",,,"BALCONES","DR",,,"AUSTIN","TX","78731","FRIDAY","A"
"2505",,,"ENFIELD","RD",,"UNIT 1-11","AUSTIN","TX","78703","FRIDAY","A"
"609",,"A","OAKLAND","AVE",,,"AUSTIN","TX","78703","FRIDAY","A"
"1404",,,"CANTERBURY","ST",,,"AUSTIN","TX","78702","FRIDAY","A"
"1203",,,"TAYLOR","ST",,,"AUSTIN","TX","78702","FRIDAY","A"
"1709",,,"HASKELL","ST",,"UNIT 2","AUSTIN","TX","78702","FRIDAY","A"
"1105",,,"MERIDEN","LN",,,"AUSTIN","TX","78703","FRIDAY","A"
"5501",,,"STUART","CT",,,"AUSTIN","TX","78721","FRIDAY","A"
"2004",,"B","FOREST","TRL",,,"AUSTIN","TX","78703","FRIDAY","A"
"1500",,,"ELTON","LN",,"UNIT 1","AUSTIN","TX","78703","FRIDAY","A"
"5005",,,"RED BLUFF","RD",,,"AUSTIN","TX","78702","FRIDAY","A"
"706",,,"HIGHLAND","AVE",,,"AUSTIN","TX","78703","FRIDAY","A"
"1167",,,"RIDGEWAY","DR",,,"AUSTIN","TX","78702","FRIDAY","A"
"815",,,"SPRINGDALE","RD",,,"AUSTIN","TX","78702","FRIDAY","A"
"2602",,,"WOODMONT","AVE",,,"AUSTIN","TX","78703","FRIDAY","A"
"710",,,"PATTERSON","AVE",,,"AUSTIN","TX","78703","FRIDAY","A"
"1710",,,"CONFEDERATE","ST",,,"AUSTIN","TX","78703","FRIDAY","A"
"3005",,,"14TH","ST","E",,"AUSTIN","TX","78702","FRIDAY","A"
"3014",,,"17TH","ST","E",,"AUSTIN","TX","78702","FRIDAY","A"
"2610",,,"3RD","ST","E",,"AUSTIN","TX","78702","FRIDAY","A"
"1300",,"B","4TH","ST","E",,"AUSTIN","TX","78702","FRIDAY","A"
"806",,"E","BAYLOR","ST",,,"AUSTIN","TX","78703","FRIDAY","A"
"1607",,,"WOODLAWN","BLVD",,,"AUSTIN","TX","78703","FRIDAY","A"
"111",,,"NAVASOTA","ST",,,"AUSTIN","TX","78702","FRIDAY","A"
"1300",,,"CESAR CHAVEZ","ST","E",,"AUSTIN","TX","78702","FRIDAY","A"
"1219",,,"CASTLE HILL","ST",,,"AUSTIN","TX","78703","FRIDAY","A"
"3711",,,"BRIDLE","PATH",,"UNIT 2","AUSTIN","TX","78703","FRIDAY","A"
"1300",,,"CESAR CHAVEZ","ST","E","UNIT 1","AUSTIN","TX","78702","FRIDAY","A"
"1300",,,"CESAR CHAVEZ","ST","E","UNIT 2","AUSTIN","TX","78702","FRIDAY","A"
"1300",,,"CESAR CHAVEZ","ST","E","UNIT 3","AUSTIN","TX","78702","FRIDAY","A"
"1300",,,"CESAR CHAVEZ","ST","E","UNIT 4","AUSTIN","TX","78702","FRIDAY","A"
"1300",,,"CESAR CHAVEZ","ST","E","UNIT 5","AUSTIN","TX","78702","FRIDAY","A"
"1300",,,"CESAR CHAVEZ","ST","E","UNIT 6","AUSTIN","TX","78702","FRIDAY","A"
"3305",,,"BRIDLE","PATH",,,"AUSTIN","TX","78703","FRIDAY","A"
"1505",,,"LORRAIN","ST",,"UNIT 3","AUSTIN","TX","78703","FRIDAY","A"
"2003",,,"10TH","ST","E",,"AUSTIN","TX","78702","FRIDAY","A"
"1120",,,"CHICON","ST",,,"AUSTIN","TX","78702","FRIDAY","A"
"1307",,,"COLETO","ST",,,"AUSTIN","TX","78702","FRIDAY","A"
"2009",,,"14TH","ST","E",,"AUSTIN","TX","78702","FRIDAY","A"
"2201",,,"14TH","ST","E",,"AUSTIN","TX","78702","FRIDAY","A"
"1411",,,"CHESTNUT","AVE",,,"AUSTIN","TX","78702","FRIDAY","A"
"3001",,,"RIVA RIDGE","RD",,,"AUSTIN","TX","78746","FRIDAY","A"
"1302",,,"4TH","ST","E",,"AUSTIN","TX","78702","FRIDAY","A"
"810",,,"SAN MARCOS","ST",,,"AUSTIN","TX","78702","FRIDAY","A"
"6006",,"B","TRACY LYNN","LN",,,"AUSTIN","TX","78721","FRIDAY","A"
"1200",,,"WINDSOR","RD",,"UNIT 5","AUSTIN","TX","78703","FRIDAY","A"
"1168",,,"WALLER","ST",,,"AUSTIN","TX","78702","FRIDAY","A"
"1909",,,"CANTERBURY","ST",,,"AUSTIN","TX","78702","FRIDAY","A"
"1813",,"B","8TH","ST","W",,"AUSTIN","TX","78703","FRIDAY","A"
"1124",,,"EMMITT","RUN",,,"AUSTIN","TX","78721","FRIDAY","A"
"2506",,"C","ENFIELD","RD",,,"AUSTIN","TX","78703","FRIDAY","A"
"3421",,,"BUNNY","RUN",,,"AUSTIN","TX","78746","FRIDAY","A"
"1621",,,"ENFIELD","RD",,"UNIT 1-A","AUSTIN","TX","78703","FRIDAY","A"
"2505",,,"ENFIELD","RD",,"UNIT 2-9","AUSTIN","TX","78703","FRIDAY","A"
"1708",,"B","HARVEY","ST",,,"AUSTIN","TX","78702","FRIDAY","A"
"5900",,,"LUX","ST",,,"AUSTIN","TX","78721","FRIDAY","A"
"2213",,,"WINDSOR","RD","E",,"AUSTIN","TX","78703","FRIDAY","A"
"2902",,,"MILL REEF","CV",,,"AUSTIN","TX","78746","FRIDAY","A"
"6506",,,"WEST COURTYARD","DR",,,"AUSTIN","TX","78730","FRIDAY","A"
"703",,,"BAYLOR","ST",,,"AUSTIN","TX","78703","FRIDAY","A"
"4602",,,"CRESTWAY","DR",,,"AUSTIN","TX","78731","FRIDAY","A"
"2102",,,"RIVERVIEW","ST",,,"AUSTIN","TX","78702","FRIDAY","A"
"1908",,,"RIVERVIEW","ST",,,"AUSTIN","TX","78702","FRIDAY","A"
"2304",,,"SANTA MARIA","ST",,,"AUSTIN","TX","78702","FRIDAY","A"
"4700",,,"GONZALES","ST",,,"AUSTIN","TX","78702","FRIDAY","A"
"4604",,,"GONZALES","ST",,,"AUSTIN","TX","78702","FRIDAY","A"
"2509",,,"10TH","ST","E",,"AUSTIN","TX","78702","FRIDAY","A"
"2407",,,"DORMARION","LN",,,"AUSTIN","TX","78703","FRIDAY","A"
"1400",,,"MARSHALL","LN",,,"AUSTIN","TX","78703","FRIDAY","A"
"2405",,,"TOWER","DR",,,"AUSTIN","TX","78703","FRIDAY","A"
"1198",,,"ANGELINA","ST",,,"AUSTIN","TX","78702","FRIDAY","A"
"1804",,,"ROCKMOOR","AVE",,,"AUSTIN","TX","78703","FRIDAY","A"
"2211",,,"9TH","ST","E",,"AUSTIN","TX","78702","FRIDAY","A"
"2100",,,"S L DAVIS","AVE",,,"AUSTIN","TX","78702","FRIDAY","A"
"2502",,,"12TH","ST","E",,"AUSTIN","TX","78702","FRIDAY","A"
"2526",,,"TANGLEWOOD","TRL",,,"AUSTIN","TX","78703","FRIDAY","A"
"3420",,,"FOOTHILL","TER",,,"AUSTIN","TX","78731","FRIDAY","A"
"3406",,,"BARRANCA","CIR",,,"AUSTIN","TX","78731","FRIDAY","A"
"913",,,"BRASS","ST",,,"AUSTIN","TX","78702","FRIDAY","A"
"2506",,,"4TH","ST","E",,"AUSTIN","TX","78702","FRIDAY","A"
"1184",,,"OAK GROVE","AVE",,,"AUSTIN","TX","78702","FRIDAY","A"
"2209",,"A","9TH","ST","E",,"AUSTIN","TX","78702","FRIDAY","A"
"1103",,,"22ND 1/2","ST","W",,"AUSTIN","TX","78705","FRIDAY","A"
"5600",,,"CRAGGY","PT",,,"AUSTIN","TX","78731","FRIDAY","A"
"1729",,,"10TH","ST","W",,"AUSTIN","TX","78703","FRIDAY","A"
"3015",,,"16TH","ST","E",,"AUSTIN","TX","78702","FRIDAY","A"
"2101",,,"GRISWOLD","LN",,,"AUSTIN","TX","78703","FRIDAY","A"
"1411",,,"NEWFIELD","LN",,,"AUSTIN","TX","78703","FRIDAY","A"
"1714",,,"CROMWELL HILL",,,,"AUSTIN","TX","78703","FRIDAY","A"
"2501",,,"TOWER","DR",,,"AUSTIN","TX","78703","FRIDAY","A"
"2301",,"A","SHOAL CREEK","BLVD",,,"AUSTIN","TX","78705","FRIDAY","A"
"3212",,,"BONNIE","RD",,,"AUSTIN","TX","78703","FRIDAY","A"
"3706",,"B","STEVENSON","AVE",,,"AUSTIN","TX","78703","FRIDAY","A"
"2404",,"A","7TH","ST","E",,"AUSTIN","TX","78702","FRIDAY","A"
"5602",,,"CRAGGY","PT",,,"AUSTIN","TX","78731","FRIDAY","A"
"2512",,"B","TARRYHILL","PL",,,"AUSTIN","TX","78703","FRIDAY","A"
"2530",,,"PECOS","ST",,,"AUSTIN","TX","78703","FRIDAY","A"
"2606",,,"THOMAS","DR",,,"AUSTIN","TX","78703","FRIDAY","A"
"4432",,,"CRESTWAY","DR",,,"AUSTIN","TX","78731","FRIDAY","A"
"4603",,,"EDGEMONT","DR",,,"AUSTIN","TX","78731","FRIDAY","A"
"3405",,,"PERRY","LN",,,"AUSTIN","TX","78731","FRIDAY","A"
"2707",,,"PECOS","ST",,,"AUSTIN","TX","78703","FRIDAY","A"
"2209",,"B","9TH","ST","E",,"AUSTIN","TX","78702","FRIDAY","A"
"2202",,,"BONITA","ST",,,"AUSTIN","TX","78703","FRIDAY","A"
"702",,,"SAN ANTONIO","ST",,"UNIT 4","AUSTIN","TX","78701","FRIDAY","A"
"1911",,"B","CLIFF","ST",,,"AUSTIN","TX","78705","FRIDAY","A"
"1911",,"A","CLIFF","ST",,,"AUSTIN","TX","78705","FRIDAY","A"
"1907",,,"CLIFF","ST",,,"AUSTIN","TX","78705","FRIDAY","A"
"1300",,,"OLD 19TH","ST",,"UNIT 1","AUSTIN","TX","78705","FRIDAY","A"
"1300",,,"OLD 19TH","ST",,"UNIT 2","AUSTIN","TX","78705","FRIDAY","A"
"1915",,,"CLIFF","ST",,,"AUSTIN","TX","78705","FRIDAY","A"
"1913",,,"CLIFF","ST",,"UNIT 2","AUSTIN","TX","78705","FRIDAY","A"
"1901",,,"CLIFF","ST",,,"AUSTIN","TX","78705","FRIDAY","A"
"1913",,,"CLIFF","ST",,,"AUSTIN","TX","78705","FRIDAY","A"
"1908",,,"CLIFF","ST",,,"AUSTIN","TX","78705","FRIDAY","A"
"712",,"B","16TH","ST","W",,"AUSTIN","TX","78701","FRIDAY","A"
"806",,,"16TH","ST","W",,"AUSTIN","TX","78701","FRIDAY","A"
"1512",,"A","PENNSYLVANIA","AVE",,,"AUSTIN","TX","78702","FRIDAY","A"
"1708",,"H","HARVEY","ST",,,"AUSTIN","TX","78702","FRIDAY","A"
"2001",,,"HOLLY","ST",,,"AUSTIN","TX","78702","FRIDAY","A"
"1507",,"B","HOLLY","ST",,,"AUSTIN","TX","78702","FRIDAY","A"
"1612",,,"CANTERBURY","ST",,,"AUSTIN","TX","78702","FRIDAY","A"
"3205",,,"THOMPSON","ST",,"UNIT 2","AUSTIN","TX","78702","FRIDAY","A"
"2400",,,"9TH","ST","W",,"AUSTIN","TX","78703","FRIDAY","A"
"800",,,"SAN ANTONIO","ST",,"UNIT 5","AUSTIN","TX","78701","FRIDAY","A"
"3004",,,"GLEN RAE","ST",,,"AUSTIN","TX","78702","FRIDAY","A"
"1405",,,"POSSUM TROT",,,,"AUSTIN","TX","78703","FRIDAY","A"
"1405",,"B","POSSUM TROT",,,,"AUSTIN","TX","78703","FRIDAY","A"
"1013",,,"SHELLEY","AVE",,,"AUSTIN","TX","78703","FRIDAY","A"
"86",,,"CLARA","ST",,,"AUSTIN","TX","78702","FRIDAY","A"
"3317",,,"LOOKOUT","LN",,,"AUSTIN","TX","78746","FRIDAY","A"
"614",,,"WINFLO","DR",,,"AUSTIN","TX","78703","FRIDAY","A"
"1179",,,"OAK GROVE","AVE",,,"AUSTIN","TX","78702","FRIDAY","A"
"4805",,,"LYONS","RD",,,"AUSTIN","TX","78702","FRIDAY","A"
"2406",,,"10TH","ST","E",,"AUSTIN","TX","78702","FRIDAY","A"
"2909",,,"3RD","ST","E",,"AUSTIN","TX","78702","FRIDAY","A"
"1401",,,"SANCHEZ","ST",,,"AUSTIN","TX","78702","FRIDAY","A"
"1013",,"A","3RD","ST","E",,"AUSTIN","TX","78702","FRIDAY","A"
"1200",,,"WINDSOR","RD",,"UNIT 3","AUSTIN","TX","78703","FRIDAY","A"
"7",,,"SCOTT","CRES",,,"AUSTIN","TX","78703","FRIDAY","A"
"1008",,,"9TH","ST","E",,"AUSTIN","TX","78702","FRIDAY","A"
"3500",,"C","ENFIELD","RD",,,"AUSTIN","TX","78703","FRIDAY","A"
"1012",,,"14TH","ST","E",,"AUSTIN","TX","78702","FRIDAY","A"
"5747",,,"SCOUT ISLAND","CIR","N",,"AUSTIN","TX","78731","FRIDAY","A"
"3303",,,"CHERRY","LN",,,"AUSTIN","TX","78703","FRIDAY","A"
"3309",,,"CLEARVIEW","DR",,,"AUSTIN","TX","78703","FRIDAY","A"
"2100",,,"RALEIGH","AVE",,,"AUSTIN","TX","78703","FRIDAY","A"
"1902",,,"TILLOTSON","AVE",,,"AUSTIN","TX","78702","FRIDAY","A"
"1911",,,"8TH","ST","E",,"AUSTIN","TX","78702","FRIDAY","A"
"1208",,,"SINGLETON","AVE",,"UNIT 1","AUSTIN","TX","78702","FRIDAY","A"
"2601",,,"TANGLEWOOD","TRL",,,"AUSTIN","TX","78703","FRIDAY","A"
"5909",,,"TOM WOOTEN","DR",,,"AUSTIN","TX","78731","FRIDAY","A"
"4400",,,"EDGEMONT","DR",,,"AUSTIN","TX","78731","FRIDAY","A"
"3714",,,"BRIDLE","PATH",,"UNIT 1","AUSTIN","TX","78703","FRIDAY","A"
"2015",,,"CANTERBURY","ST",,,"AUSTIN","TX","78702","FRIDAY","A"
"703",,,"PRESSLER","ST",,,"AUSTIN","TX","78703","FRIDAY","A"
"1410",,,"HASKELL","ST",,,"AUSTIN","TX","78702","FRIDAY","A"
"1704",,,"HASKELL","ST",,,"AUSTIN","TX","78702","FRIDAY","A"
"1618",,"B","HASKELL","ST",,,"AUSTIN","TX","78702","FRIDAY","A"
"704",,,"MERIDEN","LN",,,"AUSTIN","TX","78703","FRIDAY","A"
"5901",,,"ROUND TABLE","CV",,,"AUSTIN","TX","78746","FRIDAY","A"
"1306",,,"GARDEN","ST",,,"AUSTIN","TX","78702","FRIDAY","A"
"2810",,,"CASTRO","ST",,,"AUSTIN","TX","78702","FRIDAY","A"
"6700",,,"BRIDGE HILL","CV",,,"AUSTIN","TX","78746","FRIDAY","A"
"2304",,,"9TH","ST","W",,"AUSTIN","TX","78703","FRIDAY","A"
"2006",,,"FAR GALLANT","DR",,,"AUSTIN","TX","78746","FRIDAY","A"
"2511",,"A","ENFIELD","RD",,,"AUSTIN","TX","78703","FRIDAY","A"
"2311",,,"ENFIELD","RD",,,"AUSTIN","TX","78703","FRIDAY","A"
"2101",,,"QUARRY","RD",,,"AUSTIN","TX","78703","FRIDAY","A"
"3118",,,"12TH","ST","E",,"AUSTIN","TX","78702","FRIDAY","A"
"2102",,"C","ENFIELD","RD",,,"AUSTIN","TX","78703","FRIDAY","A"
"2102",,"A","ENFIELD","RD",,,"AUSTIN","TX","78703","FRIDAY","A"
"2102",,"B","ENFIELD","RD",,,"AUSTIN","TX","78703","FRIDAY","A"
"706",,,"SAN ANTONIO","ST",,,"AUSTIN","TX","78701","FRIDAY","A"
"1802",,,"HARVEY","ST",,,"AUSTIN","TX","78702","FRIDAY","A"
"2508",,,"3RD","ST","E",,"AUSTIN","TX","78702","FRIDAY","A"
"2305",,,"RIO GRANDE","ST",,,"AUSTIN","TX","78705","FRIDAY","A"
"1611",,,"WOODLAWN","BLVD",,,"AUSTIN","TX","78703","FRIDAY","A"
"2930",,,"13TH","ST","E",,"AUSTIN","TX","78702","FRIDAY","A"
"1004",,,"JUNIPER","ST",,,"AUSTIN","TX","78702","FRIDAY","A"
"3103",,,"BONNIE","RD",,,"AUSTIN","TX","78703","FRIDAY","A"
"3205",,,"CHERRY","LN",,,"AUSTIN","TX","78703","FRIDAY","A"
"5706",,,"JAMBOREE","CT",,,"AUSTIN","TX","78731","FRIDAY","A"
"2109",,,"ROBINHOOD","TRL",,,"AUSTIN","TX","78703","FRIDAY","A"
"3312",,,"LOOKOUT","LN",,,"AUSTIN","TX","78746","FRIDAY","A"
"3218",,"A","WINDSOR","RD",,,"AUSTIN","TX","78703","FRIDAY","A"
"1606",,"B","POQUITO","ST",,,"AUSTIN","TX","78702","FRIDAY","A"
"1406",,,"CEDAR","AVE",,,"AUSTIN","TX","78702","FRIDAY","A"
"5007",,,"HIGHLAND","CT",,,"AUSTIN","TX","78731","FRIDAY","A"
"3513",,,"FAWN CREEK","PATH",,,"AUSTIN","TX","78746","FRIDAY","A"
"1206",,,"HARVEY","ST",,,"AUSTIN","TX","78702","FRIDAY","A"
"2923",,,"16TH","ST","E",,"AUSTIN","TX","78702","FRIDAY","A"
"4171",,,"WESTLAKE","DR",,,"AUSTIN","TX","78746","FRIDAY","A"
"1305",,"A","WALLER","ST",,,"AUSTIN","TX","78702","FRIDAY","A"
"3306",,"A","HANCOCK","DR",,,"AUSTIN","TX","78731","FRIDAY","A"
"2801",,,"BONNIE","RD",,,"AUSTIN","TX","78703","FRIDAY","A"
"2108",,"B","HASKELL","ST",,,"AUSTIN","TX","78702","FRIDAY","A"
"3204",,,"NEAL","ST",,,"AUSTIN","TX","78702","FRIDAY","A"
"1701",,,"STAMFORD","LN",,,"AUSTIN","TX","78703","FRIDAY","A"
"1306",,,"CLIFFORD","AVE",,,"AUSTIN","TX","78702","FRIDAY","A"
"1607",,,"CLIFFORD","AVE",,,"AUSTIN","TX","78702","FRIDAY","A"
"2304",,,"TOWER","DR",,,"AUSTIN","TX","78703","FRIDAY","A"
"1505",,,"WINDSOR","RD",,,"AUSTIN","TX","78703","FRIDAY","A"
"2208",,,"SUNNY SLOPE","DR",,,"AUSTIN","TX","78703","FRIDAY","A"
"1706",,,"EXPOSITION","BLVD",,,"AUSTIN","TX","78703","FRIDAY","A"
"2103",,,"NEW YORK","AVE",,,"AUSTIN","TX","78702","FRIDAY","A"
"1405",,,"CHICON","ST",,,"AUSTIN","TX","78702","FRIDAY","A"
"1601",,,"SINGLETON","AVE",,,"AUSTIN","TX","78702","FRIDAY","A"
"3300",,"B","MAYWOOD","AVE",,,"AUSTIN","TX","78703","FRIDAY","A"
"2602",,,"ESCONDIDO","CV",,,"AUSTIN","TX","78703","FRIDAY","A"
"5000",,,"BALCONES","DR",,,"AUSTIN","TX","78731","FRIDAY","A"
"2309",,,"RIO GRANDE","ST",,,"AUSTIN","TX","78705","FRIDAY","A"
"1406",,,"WILLOW","ST",,,"AUSTIN","TX","78702","FRIDAY","A"
"3300",,,"GOVALLE","AVE",,,"AUSTIN","TX","78702","FRIDAY","A"
"1806",,,"GARDEN","ST",,,"AUSTIN","TX","78702","FRIDAY","A"
"200",,,"TILLERY","SQ",,,"AUSTIN","TX","78702","FRIDAY","A"
"3107",,,"PLEASANT RUN","PL",,,"AUSTIN","TX","78703","FRIDAY","A"
"3114",,,"CASTRO","ST",,,"AUSTIN","TX","78702","FRIDAY","A"
"91",,,"RED RIVER","ST",,,"AUSTIN","TX","78701","FRIDAY","A"
"1100",,"B","TILLERY","ST",,,"AUSTIN","TX","78702","FRIDAY","A"
"5908",,,"VENTUS","ST",,,"AUSTIN","TX","78721","FRIDAY","A"
"640",,,"TILLERY","ST",,,"AUSTIN","TX","78702","FRIDAY","A"
"1181",,,"HARGRAVE","ST",,,"AUSTIN","TX","78702","FRIDAY","A"
"1133",,"A","ALTUM","ST",,,"AUSTIN","TX","78721","FRIDAY","A"
"302",,,"TILLERY","SQ",,,"AUSTIN","TX","78702","FRIDAY","A"
"800",,,"SAN ANTONIO","ST",,"UNIT 2","AUSTIN","TX","78701","FRIDAY","A"
"800",,,"SAN ANTONIO","ST",,"UNIT 6","AUSTIN","TX","78701","FRIDAY","A"
"1900",,,"HASKELL","ST",,,"AUSTIN","TX","78702","FRIDAY","A"
"5604",,"A","CREEK MEADOWS",,,,"AUSTIN","TX","78731","FRIDAY","A"
"2403",,,"10TH","ST","W",,"AUSTIN","TX","78703","FRIDAY","A"
"2309",,,"12TH","ST","W",,"AUSTIN","TX","78703","FRIDAY","A"
"900",,,"16TH","ST","W",,"AUSTIN","TX","78701","FRIDAY","A"
"2413",,,"BRYAN","ST",,,"AUSTIN","TX","78702","FRIDAY","A"
"1725",,,"10TH","ST","W",,"AUSTIN","TX","78703","FRIDAY","A"
"2908",,,"3RD","ST","E",,"AUSTIN","TX","78702","FRIDAY","A"
"2511",,,"5TH","ST","E",,"AUSTIN","TX","78702","FRIDAY","A"
"2502",,,"3RD","ST","E",,"AUSTIN","TX","78702","FRIDAY","A"
"1607",,,"NEWFIELD","LN",,,"AUSTIN","TX","78703","FRIDAY","A"
"2403",,,"2ND","ST","E",,"AUSTIN","TX","78702","FRIDAY","A"
"2302",,,"SANTA MARIA","ST",,,"AUSTIN","TX","78702","FRIDAY","A"
"1209",,"C","22ND 1/2","ST","W",,"AUSTIN","TX","78705","FRIDAY","A"
"1402",,"C","13TH","ST","W",,"AUSTIN","TX","78703","FRIDAY","A"
"1105",,"A","6TH","ST","E",,"AUSTIN","TX","78702","FRIDAY","A"
"1195",,,"COMAL","ST",,,"AUSTIN","TX","78702","FRIDAY","A"
"1139","1/2",,"POQUITO","ST",,"UNIT 4","AUSTIN","TX","78702","FRIDAY","A"
"2208",,"B","18TH","ST","E",,"AUSTIN","TX","78702","FRIDAY","A"
"3006",,,"MAYWOOD","CIR",,"UNIT 2","AUSTIN","TX","78703","FRIDAY","A"
"2906",,,"KUHLMAN","AVE",,,"AUSTIN","TX","78702","FRIDAY","A"
"3312",,,"BENGSTON","ST",,,"AUSTIN","TX","78702","FRIDAY","A"
"2615",,,"MARIA ANNA","RD",,,"AUSTIN","TX","78703","FRIDAY","A"
"1304",,,"ALAMO","ST",,,"AUSTIN","TX","78702","FRIDAY","A"
"5916",,,"LUX","ST",,,"AUSTIN","TX","78721","FRIDAY","A"
"1201",,,"8TH","ST","W","UNIT 101","AUSTIN","TX","78703","FRIDAY","A"
"2303",,,"QUARRY","RD",,,"AUSTIN","TX","78703","FRIDAY","A"
"1204",,,"10TH","ST","W",,"AUSTIN","TX","78703","FRIDAY","A"
"2013",,,"HASKELL","ST",,,"AUSTIN","TX","78702","FRIDAY","A"
"6303",,,"THURGOOD","AVE",,,"AUSTIN","TX","78721","FRIDAY","A"
"1900",,,"WINSTED","LN",,,"AUSTIN","TX","78703","FRIDAY","A"
"2600",,,"CESAR CHAVEZ","ST","E",,"AUSTIN","TX","78702","FRIDAY","A"
"1626",,,"10TH","ST","E",,"AUSTIN","TX","78702","FRIDAY","A"
"3208",,,"BRIDLE","PATH",,,"AUSTIN","TX","78703","FRIDAY","A"
"1215",,,"12TH","ST","E",,"AUSTIN","TX","78702","FRIDAY","A"
"2008",,,"HASKELL","ST",,,"AUSTIN","TX","78702","FRIDAY","A"
"2206",,,"HASKELL","ST",,,"AUSTIN","TX","78702","FRIDAY","A"
"1602",,,"SHARON","LN",,,"AUSTIN","TX","78703","FRIDAY","A"
"1208",,,"2ND","ST","E",,"AUSTIN","TX","78702","FRIDAY","A"
"2511",,,"McCULLOUGH","ST",,,"AUSTIN","TX","78703","FRIDAY","A"
"3406",,,"GILBERT","ST",,,"AUSTIN","TX","78703","FRIDAY","A"
"2922",,"A","12TH","ST","E",,"AUSTIN","TX","78702","FRIDAY","A"
"44",,,"ANTHONY","ST",,,"AUSTIN","TX","78702","FRIDAY","A"
"2912",,,"13TH","ST","E",,"AUSTIN","TX","78702","FRIDAY","A"
"736",,,"CHERICO","ST",,,"AUSTIN","TX","78702","FRIDAY","A"
"2307",,,"BOWMAN","AVE",,,"AUSTIN","TX","78703","FRIDAY","A"
"1302",,,"3RD","ST","E",,"AUSTIN","TX","78702","FRIDAY","A"
"2008",,,"RALEIGH","AVE",,,"AUSTIN","TX","78703","FRIDAY","A"
"2506",,,"10TH","ST","E",,"AUSTIN","TX","78702","FRIDAY","A"
"2013",,,"HAMILTON","AVE",,,"AUSTIN","TX","78702","FRIDAY","A"
"4503",,,"EDGEMONT","DR",,,"AUSTIN","TX","78731","FRIDAY","A"
"2105",,"A","EXPOSITION","BLVD",,,"AUSTIN","TX","78703","FRIDAY","A"
"2508",,,"TARRYHILL","PL",,,"AUSTIN","TX","78703","FRIDAY","A"
"1603",,,"NILES","RD",,,"AUSTIN","TX","78703","FRIDAY","A"
"6706",,,"WEST COURTYARD","DR",,,"AUSTIN","TX","78730","FRIDAY","A"
"2603",,,"PLUMCREEK","CIR",,,"AUSTIN","TX","78703","FRIDAY","A"
"1404",,,"GARDEN","ST",,,"AUSTIN","TX","78702","FRIDAY","A"
"604",,,"UPSON","ST",,,"AUSTIN","TX","78703","FRIDAY","A"
"2108",,,"7TH","ST","W",,"AUSTIN","TX","78703","FRIDAY","A"
"1710",,,"CANTERBURY","ST",,,"AUSTIN","TX","78702","FRIDAY","A"
"3306",,,"NEAL","ST",,,"AUSTIN","TX","78702","FRIDAY","A"
"3407",,,"THOMPSON","ST",,,"AUSTIN","TX","78702","FRIDAY","A"
"1704",,,"CLIFFORD","AVE",,,"AUSTIN","TX","78702","FRIDAY","A"
"94",,,"NAVASOTA","ST",,,"AUSTIN","TX","78702","FRIDAY","A"
"2803",,,"CASTRO","ST",,,"AUSTIN","TX","78702","FRIDAY","A"
"1411",,,"HASKELL","ST",,,"AUSTIN","TX","78702","FRIDAY","A"
"1118",,,"GUNTER","ST",,,"AUSTIN","TX","78702","FRIDAY","A"
"3005",,,"4TH","ST","E",,"AUSTIN","TX","78702","FRIDAY","A"
"3010",,,"2ND","ST","E",,"AUSTIN","TX","78702","FRIDAY","A"
"1401",,,"CESAR CHAVEZ","ST","E",,"AUSTIN","TX","78702","FRIDAY","A"
"1407",,,"WILLOW","ST",,,"AUSTIN","TX","78702","FRIDAY","A"
"1806",,,"HOLLY","ST",,,"AUSTIN","TX","78702","FRIDAY","A"
"1804",,,"HOLLY","ST",,,"AUSTIN","TX","78702","FRIDAY","A"
"3113",,,"CASTRO","ST",,,"AUSTIN","TX","78702","FRIDAY","A"
"1406",,,"CLIFFORD","AVE",,,"AUSTIN","TX","78702","FRIDAY","A"
"2204",,"B","9TH","ST","W",,"AUSTIN","TX","78703","FRIDAY","A"
"3505",,,"FAWN","TRL",,,"AUSTIN","TX","78746","FRIDAY","A"
"2007",,,"HOLLY","ST",,,"AUSTIN","TX","78702","FRIDAY","A"
"2502",,,"QUARRY","RD",,,"AUSTIN","TX","78703","FRIDAY","A"
"40",,,"ANTHONY","ST",,"UNIT 2","AUSTIN","TX","78702","FRIDAY","A"
"45",,,"ANTHONY","ST",,,"AUSTIN","TX","78702","FRIDAY","A"
"702",,,"PRESSLER","ST",,,"AUSTIN","TX","78703","FRIDAY","A"
"3400",,,"MOUNT BONNELL","RD",,,"AUSTIN","TX","78731","FRIDAY","A"
"604",,,"PATTERSON","AVE",,,"AUSTIN","TX","78703","FRIDAY","A"
"3515",,,"GONZALES","ST",,,"AUSTIN","TX","78702","FRIDAY","A"
"604",,,"ALLEN","ST",,,"AUSTIN","TX","78702","FRIDAY","A"
"2906",,,"4TH","ST","E",,"AUSTIN","TX","78702","FRIDAY","A"
"2619",,,"SANTA ROSA","ST",,"UNIT 2","AUSTIN","TX","78702","FRIDAY","A"
"2507",,,"3RD","ST","E",,"AUSTIN","TX","78702","FRIDAY","A"
"1616",,,"10TH","ST","W",,"AUSTIN","TX","78703","FRIDAY","A"
"1401",,"E","LORRAIN","ST",,,"AUSTIN","TX","78703","FRIDAY","A"
"1401",,"C","LORRAIN","ST",,,"AUSTIN","TX","78703","FRIDAY","A"
"1604",,,"SANCHEZ","ST",,,"AUSTIN","TX","78702","FRIDAY","A"
"1504",,"B","WINDSOR","RD",,,"AUSTIN","TX","78703","FRIDAY","A"
"1623",,,"10TH","ST","E",,"AUSTIN","TX","78702","FRIDAY","A"
"5604",,,"MUSTER","CT",,,"AUSTIN","TX","78731","FRIDAY","A"
"4116",,,"CREEK LEDGE",,,,"AUSTIN","TX","78731","FRIDAY","A"
"1914",,,"9TH","ST","E",,"AUSTIN","TX","78702","FRIDAY","A"
"2008",,,"8TH","ST","E",,"AUSTIN","TX","78702","FRIDAY","A"
"1913",,,"17TH","ST","E",,"AUSTIN","TX","78702","FRIDAY","A"
"4702",,,"PALISADE","DR",,,"AUSTIN","TX","78731","FRIDAY","A"
"2210",,,"18TH","ST","E",,"AUSTIN","TX","78702","FRIDAY","A"
"3300",,,"JAMESBOROUGH","ST",,,"AUSTIN","TX","78703","FRIDAY","A"
"5008",,,"WESTVIEW","DR",,,"AUSTIN","TX","78731","FRIDAY","A"
"3419",,,"MOUNT BARKER","DR",,,"AUSTIN","TX","78731","FRIDAY","A"
"3202",,,"HIGHLAND","TER","W",,"AUSTIN","TX","78731","FRIDAY","A"
"908",,"A","BRET","LN",,,"AUSTIN","TX","78721","FRIDAY","A"
"900",,,"CALLE LIMON",,,,"AUSTIN","TX","78702","FRIDAY","A"
"1411",,,"3RD","ST","E",,"AUSTIN","TX","78702","FRIDAY","A"
"1004",,,"LYDIA","ST",,,"AUSTIN","TX","78702","FRIDAY","A"
"5516",,,"STEVEN CREEK","WAY",,,"AUSTIN","TX","78721","FRIDAY","A"
"1708",,"G","HARVEY","ST",,,"AUSTIN","TX","78702","FRIDAY","A"
"2115",,"A","9TH","ST","E",,"AUSTIN","TX","78702","FRIDAY","A"
"1705",,"B","HOLLY","ST",,,"AUSTIN","TX","78702","FRIDAY","A"
"3001",,,"3RD","ST","E",,"AUSTIN","TX","78702","FRIDAY","A"
"3003",,,"3RD","ST","E",,"AUSTIN","TX","78702","FRIDAY","A"
"1801",,,"CESAR CHAVEZ","ST","E",,"AUSTIN","TX","78702","FRIDAY","A"
"82",,,"ANTHONY","ST",,,"AUSTIN","TX","78702","FRIDAY","A"
"1913",,,"CANTERBURY","ST",,,"AUSTIN","TX","78702","FRIDAY","A"
"2015",,,"RIVERVIEW","ST",,,"AUSTIN","TX","78702","FRIDAY","A"
"1031",,,"NILE","ST",,,"AUSTIN","TX","78702","FRIDAY","A"
"5613",,,"CLARION","CV",,,"AUSTIN","TX","78746","FRIDAY","A"
"2109",,,"10TH","ST","W",,"AUSTIN","TX","78703","FRIDAY","A"
"2212",,,"RIVERVIEW","ST",,,"AUSTIN","TX","78702","FRIDAY","A"
"2100",,,"RIVERVIEW","ST",,,"AUSTIN","TX","78702","FRIDAY","A"
"1905",,,"HASKELL","ST",,,"AUSTIN","TX","78702","FRIDAY","A"
"44",,,"LYNN","ST",,,"AUSTIN","TX","78702","FRIDAY","A"
"2003",,,"HASKELL","ST",,,"AUSTIN","TX","78702","FRIDAY","A"
"2219",,,"HOLLY","ST",,,"AUSTIN","TX","78702","FRIDAY","A"
"2619",,,"WILLOW","ST",,,"AUSTIN","TX","78702","FRIDAY","A"
"2707",,,"WILLOW","ST",,,"AUSTIN","TX","78702","FRIDAY","A"
"2514",,,"CANTERBURY","ST",,,"AUSTIN","TX","78702","FRIDAY","A"
"5907",,,"JAIN","LN",,"UNIT 2","AUSTIN","TX","78721","FRIDAY","A"
"1101",,,"MAHAN","DR",,,"AUSTIN","TX","78721","FRIDAY","A"
"1103",,,"DESIRABLE","DR",,,"AUSTIN","TX","78721","FRIDAY","A"
"2541",,,"SOL WILSON","AVE",,,"AUSTIN","TX","78702","FRIDAY","A"
"1185",,,"BEDFORD","ST",,,"AUSTIN","TX","78702","FRIDAY","A"
"2903",,,"12TH","ST","E",,"AUSTIN","TX","78702","FRIDAY","A"
"831",,,"SPRINGDALE","RD",,,"AUSTIN","TX","78702","FRIDAY","A"
"905",,,"CALLE LIMON",,,,"AUSTIN","TX","78702","FRIDAY","A"
"2612",,,"3RD","ST","E","UNIT 2","AUSTIN","TX","78702","FRIDAY","A"
"2200",,"B","SANTA RITA","ST",,,"AUSTIN","TX","78702","FRIDAY","A"
"2506",,"A","INDIAN","TRL",,,"AUSTIN","TX","78703","FRIDAY","A"
"1506",,,"WETHERSFIELD","RD",,,"AUSTIN","TX","78703","FRIDAY","A"
"1710",,,"WETHERSFIELD","RD",,,"AUSTIN","TX","78703","FRIDAY","A"
"1507",,,"2ND","ST","E",,"AUSTIN","TX","78702","FRIDAY","A"
"1212",,,"12TH","ST","W",,"AUSTIN","TX","78703","FRIDAY","A"
"1403",,,"13TH","ST","E",,"AUSTIN","TX","78702","FRIDAY","A"
"2414",,,"9TH","ST","E",,"AUSTIN","TX","78702","FRIDAY","A"
"102",,,"SPRINGDALE","RD",,,"AUSTIN","TX","78702","FRIDAY","A"
"76",,,"SAN SABA","ST",,,"AUSTIN","TX","78702","FRIDAY","A"
"1206",,"A","8TH","ST","W",,"AUSTIN","TX","78703","FRIDAY","A"
"2106",,"A","9TH","ST","E",,"AUSTIN","TX","78702","FRIDAY","A"
"1912",,,"9TH","ST","E",,"AUSTIN","TX","78702","FRIDAY","A"
"1909",,,"9TH","ST","E",,"AUSTIN","TX","78702","FRIDAY","A"
"2002",,"A","8TH","ST","E",,"AUSTIN","TX","78702","FRIDAY","A"
"805",,,"LINCOLN","ST",,,"AUSTIN","TX","78702","FRIDAY","A"
"2202",,"C","S L DAVIS","AVE",,,"AUSTIN","TX","78702","FRIDAY","A"
"2009",,,"NEW YORK","AVE",,,"AUSTIN","TX","78702","FRIDAY","A"
"5321",,,"TORTUGA","TRL",,,"AUSTIN","TX","78731","FRIDAY","A"
"2803",,,"MOUNTAIN LAUREL","DR",,,"AUSTIN","TX","78703","FRIDAY","A"
"3306",,,"GLEN ROSE","DR",,,"AUSTIN","TX","78731","FRIDAY","A"
"905",,"A","EAST LESLIE","CIR",,,"AUSTIN","TX","78721","FRIDAY","A"
"906",,"B","EAST LESLIE","CIR",,,"AUSTIN","TX","78721","FRIDAY","A"
"3403",,,"KAY","ST",,,"AUSTIN","TX","78702","FRIDAY","A"
"5702",,"B","TRACY LYNN","LN",,,"AUSTIN","TX","78721","FRIDAY","A"
"1501",,"A","3RD","ST","E",,"AUSTIN","TX","78702","FRIDAY","A"
"65",,,"NAVASOTA","ST",,,"AUSTIN","TX","78702","FRIDAY","A"
"602",,,"VERMONT","RD",,,"AUSTIN","TX","78702","FRIDAY","A"
"2105",,,"GARDEN","ST",,,"AUSTIN","TX","78702","FRIDAY","A"
"2111",,,"GARDEN","ST",,,"AUSTIN","TX","78702","FRIDAY","A"
"1910",,,"HASKELL","ST",,,"AUSTIN","TX","78702","FRIDAY","A"
"2217",,,"HASKELL","ST",,,"AUSTIN","TX","78702","FRIDAY","A"
"2218",,,"HASKELL","ST",,,"AUSTIN","TX","78702","FRIDAY","A"
"2331",,,"WILLOW","ST",,,"AUSTIN","TX","78702","FRIDAY","A"
"69",,,"PEDERNALES","ST",,,"AUSTIN","TX","78702","FRIDAY","A"
"1121",,,"PERRY","RD",,,"AUSTIN","TX","78721","FRIDAY","A"
"2702",,,"CREST","AVE",,,"AUSTIN","TX","78702","FRIDAY","A"
"2941",,"A","12TH","ST","E",,"AUSTIN","TX","78702","FRIDAY","A"
"910",,,"CHOTE","AVE",,,"AUSTIN","TX","78702","FRIDAY","A"
"610",,,"SPRINGDALE","RD",,,"AUSTIN","TX","78702","FRIDAY","A"
"401",,,"PLEASANT VALLEY","RD","N",,"AUSTIN","TX","78702","FRIDAY","A"
"4907",,"A","RED BLUFF","RD",,,"AUSTIN","TX","78702","FRIDAY","A"
"2504",,,"DIAZ","ST",,,"AUSTIN","TX","78702","FRIDAY","A"
"2001",,,"14TH","ST","E",,"AUSTIN","TX","78702","FRIDAY","A"
"6000",,"B","TRACY LYNN","LN",,,"AUSTIN","TX","78721","FRIDAY","A"
"2004",,"A","9TH","ST","E",,"AUSTIN","TX","78702","FRIDAY","A"
"2206",,,"9TH","ST","E",,"AUSTIN","TX","78702","FRIDAY","A"
"2115",,,"RIVERVIEW","ST",,,"AUSTIN","TX","78702","FRIDAY","A"
"2208",,"B","RIVERVIEW","ST",,,"AUSTIN","TX","78702","FRIDAY","A"
"3211",,"B","HOLTON","ST",,,"AUSTIN","TX","78702","FRIDAY","A"
"45",,,"LYNN","ST",,,"AUSTIN","TX","78702","FRIDAY","A"
"5929",,,"LUX","ST",,,"AUSTIN","TX","78721","FRIDAY","A"
"2517",,,"WINSTED","LN",,"UNIT 2","AUSTIN","TX","78703","FRIDAY","A"
"3405",,,"CHARLES","ST",,,"AUSTIN","TX","78702","FRIDAY","A"
"3005",,,"3RD","ST","E",,"AUSTIN","TX","78702","FRIDAY","A"
"1102",,,"BAYLOR","ST",,,"AUSTIN","TX","78703","FRIDAY","A"
"1901",,,"GARDEN","ST",,,"AUSTIN","TX","78702","FRIDAY","A"
"1900",,,"HOLLY","ST",,,"AUSTIN","TX","78702","FRIDAY","A"
"2009",,,"RIVERVIEW","ST",,"UNIT 1","AUSTIN","TX","78702","FRIDAY","A"
"2205",,,"CESAR CHAVEZ","ST","E",,"AUSTIN","TX","78702","FRIDAY","A"
"93",,,"MILDRED","ST",,,"AUSTIN","TX","78702","FRIDAY","A"
"81",,,"LLANO","ST",,,"AUSTIN","TX","78702","FRIDAY","A"
"5500",,,"STUART","CT",,,"AUSTIN","TX","78721","FRIDAY","A"
"1179",,,"PANDORA","ST",,,"AUSTIN","TX","78702","FRIDAY","A"
"2907",,,"12TH","ST","E",,"AUSTIN","TX","78702","FRIDAY","A"
"4609",,,"GONZALES","ST",,,"AUSTIN","TX","78702","FRIDAY","A"
"4613",,,"GLISSMAN","RD",,,"AUSTIN","TX","78702","FRIDAY","A"
"4605",,,"MILBURN","LN",,,"AUSTIN","TX","78702","FRIDAY","A"
"4611",,,"MILBURN","LN",,,"AUSTIN","TX","78702","FRIDAY","A"
"4609",,,"LYONS","RD",,,"AUSTIN","TX","78702","FRIDAY","A"
"903",,,"MANSELL","AVE",,,"AUSTIN","TX","78702","FRIDAY","A"
"908",,,"MANSELL","AVE",,,"AUSTIN","TX","78702","FRIDAY","A"
"909",,,"CHOTE","AVE",,,"AUSTIN","TX","78702","FRIDAY","A"
"1902","1/2",,"DAVID","ST",,,"AUSTIN","TX","78705","FRIDAY","A"
"506",,,"VERMONT","RD",,,"AUSTIN","TX","78702","FRIDAY","A"
"606",,,"ALLEN","ST",,,"AUSTIN","TX","78702","FRIDAY","A"
"4228",,,"WESTLAKE","DR",,,"AUSTIN","TX","78746","FRIDAY","A"
"2709",,,"2ND","ST","E",,"AUSTIN","TX","78702","FRIDAY","A"
"1704",,,"6TH","ST","E",,"AUSTIN","TX","78702","FRIDAY","A"
"1617",,,"10TH","ST","E",,"AUSTIN","TX","78702","FRIDAY","A"
"37",,,"MARGRANITA","CRES",,,"AUSTIN","TX","78703","FRIDAY","A"
"1112",,,"MYRTLE","ST",,,"AUSTIN","TX","78702","FRIDAY","A"
"1405",,,"BOB HARRISON",,,,"AUSTIN","TX","78702","FRIDAY","A"
"2203",,,"ROBINHOOD","TRL",,,"AUSTIN","TX","78703","FRIDAY","A"
"2108",,,"9TH","ST","E",,"AUSTIN","TX","78702","FRIDAY","A"
"2001",,,"9TH","ST","E",,"AUSTIN","TX","78702","FRIDAY","A"
"2012",,,"8TH","ST","E",,"AUSTIN","TX","78702","FRIDAY","A"
"1703",,,"CLIFFORD","AVE",,,"AUSTIN","TX","78702","FRIDAY","A"
"2600",,,"MARIA ANNA","RD",,,"AUSTIN","TX","78703","FRIDAY","A"
"2706",,,"SCENIC","DR",,,"AUSTIN","TX","78703","FRIDAY","A"
"1128",,,"LINDEN","ST",,,"AUSTIN","TX","78702","FRIDAY","A"
"5904",,"B","TRACY LYNN","LN",,,"AUSTIN","TX","78721","FRIDAY","A"
"1708",,,"WILLOW","ST",,,"AUSTIN","TX","78702","FRIDAY","A"
"3109",,,"CESAR CHAVEZ","ST","E",,"AUSTIN","TX","78702","FRIDAY","A"
"3709",,,"WINDSOR","RD",,,"AUSTIN","TX","78703","FRIDAY","A"
"1405",,,"4TH","ST","E",,"AUSTIN","TX","78702","FRIDAY","A"
"2207",,,"HASKELL","ST",,,"AUSTIN","TX","78702","FRIDAY","A"
"1172",,,"BEDFORD","ST",,,"AUSTIN","TX","78702","FRIDAY","A"
"5520",,,"STUART","CIR",,,"AUSTIN","TX","78721","FRIDAY","A"
"5601",,,"STEVEN CREEK","WAY",,,"AUSTIN","TX","78721","FRIDAY","A"
"1121","1/2",,"GUNTER","ST",,,"AUSTIN","TX","78702","FRIDAY","A"
"1123","1/2",,"GUNTER","ST",,,"AUSTIN","TX","78702","FRIDAY","A"
"1104",,,"LORRAIN","ST",,,"AUSTIN","TX","78703","FRIDAY","A"
"3005",,,"18TH","ST","E",,"AUSTIN","TX","78702","FRIDAY","A"
"1102",,,"ENFIELD","RD",,,"AUSTIN","TX","78703","FRIDAY","A"
"4501",,,"ISLAND","CV",,,"AUSTIN","TX","78731","FRIDAY","A"
"4405",,,"ISLAND","CV",,,"AUSTIN","TX","78731","FRIDAY","A"
"4609",,,"ISLAND","CV",,,"AUSTIN","TX","78731","FRIDAY","A"
"4407",,,"ISLAND","CV",,,"AUSTIN","TX","78731","FRIDAY","A"
"4401",,,"ISLAND","CV",,,"AUSTIN","TX","78731","FRIDAY","A"
"4406",,,"ISLAND","CV",,,"AUSTIN","TX","78731","FRIDAY","A"
"4511",,,"ISLAND","CV",,,"AUSTIN","TX","78731","FRIDAY","A"
"4603",,,"ISLAND","CV",,,"AUSTIN","TX","78731","FRIDAY","A"
"4400",,,"ISLAND","CV",,,"AUSTIN","TX","78731","FRIDAY","A"
"4612",,,"ISLAND","CV",,,"AUSTIN","TX","78731","FRIDAY","A"
"4512",,,"ISLAND","CV",,,"AUSTIN","TX","78731","FRIDAY","A"
"4504",,,"ISLAND","CV",,,"AUSTIN","TX","78731","FRIDAY","A"
"4402",,,"ISLAND","CV",,,"AUSTIN","TX","78731","FRIDAY","A"
"79",,,"RAINEY","ST",,,"AUSTIN","TX","78701","FRIDAY","A"
"1109",,,"CLERMONT","AVE",,,"AUSTIN","TX","78702","FRIDAY","A"
"613",,,"HEARN","ST",,,"AUSTIN","TX","78703","FRIDAY","A"
"1601",,,"HOLLY","ST",,,"AUSTIN","TX","78702","FRIDAY","A"
"1619",,,"NORTHUMBERLAND","RD",,,"AUSTIN","TX","78703","FRIDAY","A"
"1109",,,"WILLOW","ST",,,"AUSTIN","TX","78702","FRIDAY","A"
"5903",,,"LONG","CT",,,"AUSTIN","TX","78730","FRIDAY","A"
"1403",,,"WALNUT","AVE",,,"AUSTIN","TX","78702","FRIDAY","A"
"1211",,"A","WALNUT","AVE",,,"AUSTIN","TX","78702","FRIDAY","A"
"1211",,"B","WALNUT","AVE",,,"AUSTIN","TX","78702","FRIDAY","A"
"1301",,,"CESAR CHAVEZ","ST","E",,"AUSTIN","TX","78702","FRIDAY","A"
"1905",,,"CANTERBURY","ST",,,"AUSTIN","TX","78702","FRIDAY","A"
"1009",,,"POSSUM TROT",,,,"AUSTIN","TX","78703","FRIDAY","A"
