"house_no","fraction","hse_suff","street_nam","street_typ","st_dir","unit_no","city","state","zip","collection_day","collection_week"
"9013",,,"SAUTELLE","LN",,,"AUSTIN","TX","78749","MONDAY","A"
"7500",,,"SHADOWRIDGE","RUN",,"UNIT 54","AUSTIN","TX","78749","MONDAY","A"
"6400",,,"VIA CORRETO","DR",,,"AUSTIN","TX","78749","MONDAY","A"
"3115",,,"SACBE","CV",,,"AUSTIN","TX","78745","MONDAY","A"
"3101",,,"DAVIS","LN",,"UNIT 80-8002","AUSTIN","TX","78748","MONDAY","A"
"3101",,,"DAVIS","LN",,"UNIT 83-8301","AUSTIN","TX","78748","MONDAY","A"
"3101",,,"DAVIS","LN",,"UNIT 86-8601","AUSTIN","TX","78748","MONDAY","A"
"8606",,,"BISBEE","CT",,,"AUSTIN","TX","78745","MONDAY","A"
"8502",,,"BISBEE","CT",,,"AUSTIN","TX","78745","MONDAY","A"
"7802",,,"NAIRN","DR",,,"AUSTIN","TX","78749","MONDAY","A"
"5803",,,"FITCHWOOD","LN",,,"AUSTIN","TX","78749","MONDAY","A"
"5911",,,"PECANWOOD","LN",,,"AUSTIN","TX","78749","MONDAY","A"
"6105",,,"MESA GRANDE","DR",,,"AUSTIN","TX","78749","MONDAY","A"
"8406",,,"GANTTCREST","DR",,,"AUSTIN","TX","78749","MONDAY","A"
"9206",,,"SOMMERLAND","WAY",,,"AUSTIN","TX","78749","MONDAY","A"
"8508",,,"DUNSMERE","DR",,,"AUSTIN","TX","78749","MONDAY","A"
"6509",,,"ABILENE","TRL",,,"AUSTIN","TX","78749","MONDAY","A"
"2902",,"A","KESTREL","DR",,,"AUSTIN","TX","78745","MONDAY","A"
"7608",,,"VAIL VALLEY","DR",,,"AUSTIN","TX","78749","MONDAY","A"
"6732",,,"PONCHA","PASS",,,"AUSTIN","TX","78749","MONDAY","A"
"6729",,,"PONCHA","PASS",,,"AUSTIN","TX","78749","MONDAY","A"
"6206",,,"OLIVER LOVING","TRL",,,"AUSTIN","TX","78749","MONDAY","A"
"3312",,,"ELIJA","ST",,,"AUSTIN","TX","78745","MONDAY","A"
"6804",,,"TERRA OAK","CIR",,,"AUSTIN","TX","78749","MONDAY","A"
"211",,"B","WILLIAM CANNON","DR","W",,"AUSTIN","TX","78745","MONDAY","A"
"8207",,,"ISAAC PRYOR","DR",,,"AUSTIN","TX","78749","MONDAY","A"
"2516",,,"DOVEMEADOW","DR",,,"AUSTIN","TX","78744","MONDAY","A"
"7912",,,"SIRINGO","PASS",,,"AUSTIN","TX","78749","MONDAY","A"
"8604",,,"PINEY CREEK","BND",,,"AUSTIN","TX","78745","MONDAY","A"
"5510",,,"CAMP FIRE","TRL",,,"AUSTIN","TX","78749","MONDAY","A"
"8801",,,"COLLINGWOOD","DR",,,"AUSTIN","TX","78748","MONDAY","A"
"7722",,,"CROFTWOOD","DR",,,"AUSTIN","TX","78749","MONDAY","A"
"8204",,,"SIRINGO","PASS",,,"AUSTIN","TX","78749","MONDAY","A"
"8113",,,"SIRINGO","PASS",,,"AUSTIN","TX","78749","MONDAY","A"
"6437",,,"CLAY ALLISON","PASS",,,"AUSTIN","TX","78749","MONDAY","A"
"6413",,,"CLAY ALLISON","PASS",,,"AUSTIN","TX","78749","MONDAY","A"
"8505",,,"BARASINGA","TRL",,,"AUSTIN","TX","78749","MONDAY","A"
"7108",,,"WANDERING OAK","RD",,,"AUSTIN","TX","78749","MONDAY","A"
"6412",,,"RUXTON","LN",,,"AUSTIN","TX","78749","MONDAY","A"
"6821",,,"GREYCLOUD","DR",,,"AUSTIN","TX","78745","MONDAY","A"
"5434",,,"WALNUT GROVE","DR",,,"AUSTIN","TX","78744","MONDAY","A"
"7209",,,"BARNSDALE","WAY",,,"AUSTIN","TX","78745","MONDAY","A"
"7712",,,"FOREST WOOD","RD",,,"AUSTIN","TX","78745","MONDAY","A"
"5304",,,"KORTH","DR",,,"AUSTIN","TX","78749","MONDAY","A"
"7801",,,"WHITSUN","DR",,,"AUSTIN","TX","78749","MONDAY","A"
"8102",,,"APPOMATTOX","DR",,,"AUSTIN","TX","78745","MONDAY","A"
"6710",,,"SKYNOOK","DR",,,"AUSTIN","TX","78745","MONDAY","A"
"7702",,,"CLOUDBERRY","CIR",,,"AUSTIN","TX","78745","MONDAY","A"
"7709",,,"ELDERBERRY","DR",,,"AUSTIN","TX","78745","MONDAY","A"
"7701",,,"EVALINE","LN",,,"AUSTIN","TX","78745","MONDAY","A"
"3712",,,"KANDY","DR",,,"AUSTIN","TX","78749","MONDAY","A"
"601",,"B","THELMA","DR",,,"AUSTIN","TX","78745","MONDAY","A"
"2108",,,"LEAR","LN",,,"AUSTIN","TX","78745","MONDAY","A"
"2100",,,"LEAR","LN",,,"AUSTIN","TX","78745","MONDAY","A"
"3204",,,"EVANSTON","LN",,,"AUSTIN","TX","78745","MONDAY","A"
"8907",,,"VERONA","TRL",,,"AUSTIN","TX","78749","MONDAY","A"
"7604",,,"MELVILLE","CV",,,"AUSTIN","TX","78749","MONDAY","A"
"9016",,,"MARSH","DR",,,"AUSTIN","TX","78748","MONDAY","A"
"4306",,,"CLARNO","DR",,,"AUSTIN","TX","78749","MONDAY","A"
"7403",,,"WHISTLESTOP","DR",,,"AUSTIN","TX","78749","MONDAY","A"
"7416",,,"WHISTLESTOP","DR",,,"AUSTIN","TX","78749","MONDAY","A"
"6200",,,"MIFFLIN KENEDY","CT",,,"AUSTIN","TX","78749","MONDAY","A"
"2611",,,"DAVIS","LN",,,"AUSTIN","TX","78748","MONDAY","A"
"5903",,,"WAGON","BND",,,"AUSTIN","TX","78744","MONDAY","A"
"8406",,,"DIXON","DR",,,"AUSTIN","TX","78745","MONDAY","A"
"7325",,,"SCENIC OAKS","CIR",,,"AUSTIN","TX","78745","MONDAY","A"
"6004",,,"BLANCO RIVER","PASS",,,"AUSTIN","TX","78749","MONDAY","A"
"2701",,,"GUIDEPOST","TRL",,,"AUSTIN","TX","78748","MONDAY","A"
"2616",,,"AYLESBURY","LN",,,"AUSTIN","TX","78745","MONDAY","A"
"4141",,,"STONECROFT","DR",,,"AUSTIN","TX","78749","MONDAY","A"
"2309",,"C","RACHAEL","CT",,,"AUSTIN","TX","78748","MONDAY","A"
"3605",,"A","LEAFIELD","DR",,,"AUSTIN","TX","78749","MONDAY","A"
"6802",,,"LA CONCHA","PASS",,,"AUSTIN","TX","78749","MONDAY","A"
"806",,,"HUNTINGDON","PL",,,"AUSTIN","TX","78745","MONDAY","A"
"2508",,,"DOVE","DR",,,"AUSTIN","TX","78744","MONDAY","A"
"4908",,,"WOODCREEK","RD",,,"AUSTIN","TX","78749","MONDAY","A"
"4416",,,"EAST HOVE","LOOP",,,"AUSTIN","TX","78749","MONDAY","A"
"7300",,"B","DAN JEAN","DR",,,"AUSTIN","TX","78745","MONDAY","A"
"7205",,,"VIA CORRETO","DR",,,"AUSTIN","TX","78749","MONDAY","A"
"7708",,,"STEPHANY TAYLOR","CV",,,"AUSTIN","TX","78745","MONDAY","A"
"9201",,,"BRODIE","LN",,"UNIT 34-3402","AUSTIN","TX","78748","MONDAY","A"
"3101",,,"DAVIS","LN",,"UNIT 82-8203","AUSTIN","TX","78748","MONDAY","A"
"4800",,,"CRAFTY","CV",,,"AUSTIN","TX","78749","MONDAY","A"
"5715",,,"PECANWOOD","LN",,,"AUSTIN","TX","78749","MONDAY","A"
"6405",,,"SALCON CLIFF","DR",,,"AUSTIN","TX","78749","MONDAY","A"
"6212",,,"MESA GRANDE","DR",,,"AUSTIN","TX","78749","MONDAY","A"
"9611",,"A","NIGHTJAR","DR",,,"AUSTIN","TX","78748","MONDAY","A"
"6727",,,"PONCHA","PASS",,,"AUSTIN","TX","78749","MONDAY","A"
"6846",,,"LA CONCHA","PASS",,,"AUSTIN","TX","78749","MONDAY","A"
"2211",,,"DOVE SPRINGS","DR",,,"AUSTIN","TX","78744","MONDAY","A"
"2606",,"A","AFTONSHIRE","WAY",,,"AUSTIN","TX","78748","MONDAY","A"
"2309",,,"DOVE SPRINGS","DR",,,"AUSTIN","TX","78744","MONDAY","A"
"3119",,,"SILKGRASS","BND",,,"AUSTIN","TX","78748","MONDAY","A"
"6445",,,"ZADOCK WOODS","DR",,,"AUSTIN","TX","78749","MONDAY","A"
"9220",,,"EDWARDSON","LN",,,"AUSTIN","TX","78749","MONDAY","A"
"9307",,,"EDWARDSON","LN",,,"AUSTIN","TX","78749","MONDAY","A"
"9300",,,"EDWARDSON","LN",,,"AUSTIN","TX","78749","MONDAY","A"
"7736",,,"CROFTWOOD","DR",,,"AUSTIN","TX","78749","MONDAY","A"
"6825",,,"BEATTY","DR",,,"AUSTIN","TX","78749","MONDAY","A"
"6828",,,"BEATTY","DR",,,"AUSTIN","TX","78749","MONDAY","A"
"6806",,"A","KENOSHA","PASS",,,"AUSTIN","TX","78749","MONDAY","A"
"9001",,,"LANTANA","WAY",,,"AUSTIN","TX","78749","MONDAY","A"
"6308",,,"TAYLORCREST","DR",,,"AUSTIN","TX","78749","MONDAY","A"
"7703",,,"WHITSUN","DR",,,"AUSTIN","TX","78749","MONDAY","A"
"8100",,,"CROFTWOOD","DR",,,"AUSTIN","TX","78749","MONDAY","A"
"2503",,,"BROKEN OAK","DR",,,"AUSTIN","TX","78745","MONDAY","A"
"6200",,,"SOFTWOOD","DR",,,"AUSTIN","TX","78744","MONDAY","A"
"3707",,,"HARPERS FERRY","LN",,,"AUSTIN","TX","78749","MONDAY","A"
"7406",,,"BENDER","DR",,,"AUSTIN","TX","78749","MONDAY","A"
"2119",,,"TREDE","DR",,,"AUSTIN","TX","78745","MONDAY","A"
"3315",,,"DALTON","ST",,,"AUSTIN","TX","78745","MONDAY","A"
"7111",,,"CROSSWOOD","DR",,,"AUSTIN","TX","78745","MONDAY","A"
"1118",,,"ECHO","LN",,,"AUSTIN","TX","78745","MONDAY","A"
"9311",,,"ROXANNA","DR",,,"AUSTIN","TX","78748","MONDAY","A"
"2620",,,"MONARCH","DR",,,"AUSTIN","TX","78748","MONDAY","A"
"2202",,"B","TABOR","CT",,,"AUSTIN","TX","78748","MONDAY","A"
"2310",,"A","RACHAEL","CT",,,"AUSTIN","TX","78748","MONDAY","A"
"6809",,,"LA CONCHA","PASS",,,"AUSTIN","TX","78749","MONDAY","A"
"7817",,,"FINCH","TRL",,,"AUSTIN","TX","78745","MONDAY","A"
"9905",,,"WILLERS","WAY",,,"AUSTIN","TX","78748","MONDAY","A"
"7202",,,"ALBERT","RD",,"UNIT 1","AUSTIN","TX","78745","MONDAY","A"
"8037",,,"EVADEAN","CIR",,,"AUSTIN","TX","78745","MONDAY","A"
"7332",,"B","DAN JEAN","DR",,,"AUSTIN","TX","78745","MONDAY","A"
"7703",,,"HUDDLESTON","LN",,,"AUSTIN","TX","78745","MONDAY","A"
"5702",,,"PECANWOOD","LN",,,"AUSTIN","TX","78749","MONDAY","A"
"9100",,,"SOMMERLAND","WAY",,,"AUSTIN","TX","78749","MONDAY","A"
"7207",,,"BREEZY PASS","CV",,,"AUSTIN","TX","78749","MONDAY","A"
"6908",,,"PONCHA","PASS",,,"AUSTIN","TX","78749","MONDAY","A"
"4614",,,"CONVICT HILL","RD",,,"AUSTIN","TX","78749","MONDAY","A"
"7903",,,"ISAAC PRYOR","DR",,,"AUSTIN","TX","78749","MONDAY","A"
"3003",,,"NORFOLK","DR",,,"AUSTIN","TX","78745","MONDAY","A"
"8617",,,"AXIS","DR",,,"AUSTIN","TX","78749","MONDAY","A"
"7500",,,"SHADOWRIDGE","RUN",,"UNIT 13","AUSTIN","TX","78749","MONDAY","A"
"4401",,,"KALAMA","DR",,,"AUSTIN","TX","78749","MONDAY","A"
"6038",,,"ABILENE","TRL",,,"AUSTIN","TX","78749","MONDAY","A"
"2607",,,"SHILOH","DR",,,"AUSTIN","TX","78745","MONDAY","A"
"4605",,"A","STASSNEY","LN","E",,"AUSTIN","TX","78744","MONDAY","A"
"2304",,,"SHELBY OAK","LN",,,"AUSTIN","TX","78748","MONDAY","A"
"4707",,,"CREEK BEND","DR",,,"AUSTIN","TX","78744","MONDAY","A"
"9107",,"B","JAPONICA","CT",,,"AUSTIN","TX","78748","MONDAY","A"
"9401",,"A","KEMPLER","DR",,,"AUSTIN","TX","78748","MONDAY","A"
"6012",,,"OPEN RANGE","TRL",,,"AUSTIN","TX","78749","MONDAY","A"
"909",,,"ACORN OAKS","DR",,,"AUSTIN","TX","78745","MONDAY","A"
"3101",,,"DAVIS","LN",,"UNIT 54-5403","AUSTIN","TX","78748","MONDAY","A"
"3101",,,"DAVIS","LN",,"UNIT 55-5502","AUSTIN","TX","78748","MONDAY","A"
"3101",,,"DAVIS","LN",,"UNIT 56-5602","AUSTIN","TX","78748","MONDAY","A"
"3101",,,"DAVIS","LN",,"UNIT 56-5603","AUSTIN","TX","78748","MONDAY","A"
"3101",,,"DAVIS","LN",,"UNIT 88-8801","AUSTIN","TX","78748","MONDAY","A"
"3101",,,"DAVIS","LN",,"UNIT 88-8803","AUSTIN","TX","78748","MONDAY","A"
"8202",,"A","WEST GATE","BLVD",,,"AUSTIN","TX","78745","MONDAY","A"
"3101",,,"DAVIS","LN",,"UNIT 88-8802","AUSTIN","TX","78748","MONDAY","A"
"3101",,,"DAVIS","LN",,"UNIT 53-5301","AUSTIN","TX","78748","MONDAY","A"
"3101",,,"DAVIS","LN",,"UNIT 54-5401","AUSTIN","TX","78748","MONDAY","A"
"8116",,"A","WEST GATE","BLVD",,,"AUSTIN","TX","78745","MONDAY","A"
"8207",,,"WEST GATE","BLVD",,,"AUSTIN","TX","78745","MONDAY","A"
"8122",,,"WEST GATE","BLVD",,,"AUSTIN","TX","78745","MONDAY","A"
"8104",,"B","WEST GATE","BLVD",,,"AUSTIN","TX","78745","MONDAY","A"
"6505",,,"PONCHA","PASS",,,"AUSTIN","TX","78749","MONDAY","A"
"8108",,"B","WEST GATE","BLVD",,,"AUSTIN","TX","78745","MONDAY","A"
"8104",,"A","WEST GATE","BLVD",,,"AUSTIN","TX","78745","MONDAY","A"
"8113",,"A","WEST GATE","BLVD",,,"AUSTIN","TX","78745","MONDAY","A"
"8102",,"B","WEST GATE","BLVD",,,"AUSTIN","TX","78745","MONDAY","A"
"8118",,"A","WEST GATE","BLVD",,,"AUSTIN","TX","78745","MONDAY","A"
"8120",,"B","WEST GATE","BLVD",,,"AUSTIN","TX","78745","MONDAY","A"
"8200",,"A","WEST GATE","BLVD",,,"AUSTIN","TX","78745","MONDAY","A"
"8200",,"B","WEST GATE","BLVD",,,"AUSTIN","TX","78745","MONDAY","A"
"8201",,"A","WEST GATE","BLVD",,,"AUSTIN","TX","78745","MONDAY","A"
"8201",,"B","WEST GATE","BLVD",,,"AUSTIN","TX","78745","MONDAY","A"
"8203",,"A","WEST GATE","BLVD",,,"AUSTIN","TX","78745","MONDAY","A"
"8106",,"A","WEST GATE","BLVD",,,"AUSTIN","TX","78745","MONDAY","A"
"8106",,"B","WEST GATE","BLVD",,,"AUSTIN","TX","78745","MONDAY","A"
"8204",,"B","WEST GATE","BLVD",,,"AUSTIN","TX","78745","MONDAY","A"
"8110",,"A","WEST GATE","BLVD",,,"AUSTIN","TX","78745","MONDAY","A"
"8110",,"B","WEST GATE","BLVD",,,"AUSTIN","TX","78745","MONDAY","A"
"8205",,"A","WEST GATE","BLVD",,,"AUSTIN","TX","78745","MONDAY","A"
"8112",,"B","WEST GATE","BLVD",,,"AUSTIN","TX","78745","MONDAY","A"
"8207",,"A","WEST GATE","BLVD",,,"AUSTIN","TX","78745","MONDAY","A"
"8108",,"A","WEST GATE","BLVD",,,"AUSTIN","TX","78745","MONDAY","A"
"8114",,"A","WEST GATE","BLVD",,,"AUSTIN","TX","78745","MONDAY","A"
"8202",,"B","WEST GATE","BLVD",,,"AUSTIN","TX","78745","MONDAY","A"
"8116",,"B","WEST GATE","BLVD",,,"AUSTIN","TX","78745","MONDAY","A"
"8122",,"A","WEST GATE","BLVD",,,"AUSTIN","TX","78745","MONDAY","A"
"8112",,"A","WEST GATE","BLVD",,,"AUSTIN","TX","78745","MONDAY","A"
"8117",,"B","WEST GATE","BLVD",,,"AUSTIN","TX","78745","MONDAY","A"
"8114",,"B","WEST GATE","BLVD",,,"AUSTIN","TX","78745","MONDAY","A"
"8102",,"A","WEST GATE","BLVD",,,"AUSTIN","TX","78745","MONDAY","A"
"8203",,"B","WEST GATE","BLVD",,,"AUSTIN","TX","78745","MONDAY","A"
"8204",,"A","WEST GATE","BLVD",,,"AUSTIN","TX","78745","MONDAY","A"
"3010",,,"SISKIN","DR",,,"AUSTIN","TX","78745","MONDAY","A"
"6503",,,"PONCHA","PASS",,,"AUSTIN","TX","78749","MONDAY","A"
"6509",,,"PONCHA","PASS",,,"AUSTIN","TX","78749","MONDAY","A"
"3008",,,"SISKIN","DR",,,"AUSTIN","TX","78745","MONDAY","A"
"6601",,,"PONCHA","PASS",,,"AUSTIN","TX","78749","MONDAY","A"
"3329",,,"DAVIS","LN",,,"AUSTIN","TX","78748","MONDAY","A"
"3306",,,"DAVIS","LN",,,"AUSTIN","TX","78745","MONDAY","A"
"6501",,,"PONCHA","PASS",,,"AUSTIN","TX","78749","MONDAY","A"
"3312",,,"DAVIS","LN",,,"AUSTIN","TX","78745","MONDAY","A"
"3003",,,"SISKIN","DR",,,"AUSTIN","TX","78745","MONDAY","A"
"8115",,"A","WEST GATE","BLVD",,,"AUSTIN","TX","78745","MONDAY","A"
"8205",,"B","WEST GATE","BLVD",,,"AUSTIN","TX","78745","MONDAY","A"
"3006",,,"SISKIN","DR",,,"AUSTIN","TX","78745","MONDAY","A"
"8113",,"B","WEST GATE","BLVD",,,"AUSTIN","TX","78745","MONDAY","A"
"8117",,"A","WEST GATE","BLVD",,,"AUSTIN","TX","78745","MONDAY","A"
"8100",,"B","WEST GATE","BLVD",,,"AUSTIN","TX","78745","MONDAY","A"
"8120",,"A","WEST GATE","BLVD",,,"AUSTIN","TX","78745","MONDAY","A"
"8100",,"A","WEST GATE","BLVD",,,"AUSTIN","TX","78745","MONDAY","A"
"8119",,"B","WEST GATE","BLVD",,,"AUSTIN","TX","78745","MONDAY","A"
"8115",,"B","WEST GATE","BLVD",,,"AUSTIN","TX","78745","MONDAY","A"
"3004",,,"SISKIN","DR",,,"AUSTIN","TX","78745","MONDAY","A"
"3002",,,"SISKIN","DR",,,"AUSTIN","TX","78745","MONDAY","A"
"8119",,"A","WEST GATE","BLVD",,,"AUSTIN","TX","78745","MONDAY","A"
"3000",,,"SISKIN","DR",,,"AUSTIN","TX","78745","MONDAY","A"
"8118",,"B","WEST GATE","BLVD",,,"AUSTIN","TX","78745","MONDAY","A"
"3101",,,"DAVIS","LN",,"UNIT 55-5503","AUSTIN","TX","78748","MONDAY","A"
"3101",,,"DAVIS","LN",,"UNIT 89-8901","AUSTIN","TX","78748","MONDAY","A"
"9110",,"A","SEDGEMOOR","TRL",,,"AUSTIN","TX","78748","MONDAY","A"
"3101",,,"DAVIS","LN",,"UNIT 89-8902","AUSTIN","TX","78748","MONDAY","A"
"3101",,,"DAVIS","LN",,"UNIT 89-8903","AUSTIN","TX","78748","MONDAY","A"
"9200",,,"GARDEN RANCH","CT",,,"AUSTIN","TX","78749","MONDAY","A"
"2103",,,"KEEPSAKE","DR",,,"AUSTIN","TX","78745","MONDAY","A"
"2509",,,"KEEPSAKE","DR",,,"AUSTIN","TX","78745","MONDAY","A"
"2304",,,"SWEET CLOVER","DR",,,"AUSTIN","TX","78745","MONDAY","A"
"8703",,,"DULCET","DR",,,"AUSTIN","TX","78745","MONDAY","A"
"3405",,"B","DALTON","ST",,,"AUSTIN","TX","78745","MONDAY","A"
"9201",,,"BRODIE","LN",,"UNIT 801","AUSTIN","TX","78748","MONDAY","A"
"5808",,,"FITCHWOOD","LN",,,"AUSTIN","TX","78749","MONDAY","A"
"5811",,,"PECANWOOD","LN",,,"AUSTIN","TX","78749","MONDAY","A"
"9102",,,"WAMPTON","WAY",,,"AUSTIN","TX","78749","MONDAY","A"
"7721",,,"KIVA","DR",,,"AUSTIN","TX","78749","MONDAY","A"
"7503",,,"CORRIE","CV",,,"AUSTIN","TX","78749","MONDAY","A"
"8208",,,"EDGEMOOR","PL",,,"AUSTIN","TX","78749","MONDAY","A"
"3421",,,"DALTON","ST",,,"AUSTIN","TX","78745","MONDAY","A"
"2510",,,"DOVE","DR",,,"AUSTIN","TX","78744","MONDAY","A"
"5200",,,"CLOUDCROFT","DR",,,"AUSTIN","TX","78749","MONDAY","A"
"8101",,,"SIRINGO","PASS",,,"AUSTIN","TX","78749","MONDAY","A"
"2214",,,"FANCY GAP","LN",,,"AUSTIN","TX","78745","MONDAY","A"
"3104",,,"SILKGRASS","BND",,,"AUSTIN","TX","78748","MONDAY","A"
"9614",,"B","NIGHTJAR","DR",,,"AUSTIN","TX","78748","MONDAY","A"
"7029",,,"AUCKLAND","DR",,,"AUSTIN","TX","78749","MONDAY","A"
"6809",,,"TELLURIDE","TRL",,,"AUSTIN","TX","78749","MONDAY","A"
"6803",,"B","WOODHUE","DR",,,"AUSTIN","TX","78745","MONDAY","A"
"9001",,,"COLBERG","DR",,,"AUSTIN","TX","78749","MONDAY","A"
"8732",,,"CORRAN FERRY","DR",,,"AUSTIN","TX","78749","MONDAY","A"
"6803",,"B","STAR","DR",,,"AUSTIN","TX","78745","MONDAY","A"
"8202",,"A","HOOD","CIR",,,"AUSTIN","TX","78745","MONDAY","A"
"6803",,"A","STAR","DR",,,"AUSTIN","TX","78745","MONDAY","A"
"3403",,,"DALTON","ST",,,"AUSTIN","TX","78745","MONDAY","A"
"6802",,"B","KENOSHA","PASS",,,"AUSTIN","TX","78749","MONDAY","A"
"8302",,,"MAUAI","DR",,,"AUSTIN","TX","78749","MONDAY","A"
"7907",,,"WAKEFIELD","DR",,,"AUSTIN","TX","78749","MONDAY","A"
"4413",,,"CLARNO","DR",,,"AUSTIN","TX","78749","MONDAY","A"
"7821",,,"PALACIOS","DR",,,"AUSTIN","TX","78749","MONDAY","A"
"6002",,,"SHANGHAI PIERCE","RD",,,"AUSTIN","TX","78749","MONDAY","A"
"8006",,"B","CLYDESDALE","DR",,,"AUSTIN","TX","78745","MONDAY","A"
"209",,,"MEADOW LEA","DR",,,"AUSTIN","TX","78745","MONDAY","A"
"2800",,,"ZEKE","BND",,,"AUSTIN","TX","78745","MONDAY","A"
"7707",,"B","CROFTWOOD","DR",,,"AUSTIN","TX","78749","MONDAY","A"
"6807",,,"WINDRIFT","WAY",,,"AUSTIN","TX","78745","MONDAY","A"
"2406",,,"TOULOUSE","DR",,,"AUSTIN","TX","78748","MONDAY","A"
"5402",,"D","VILLAGE","LN",,,"AUSTIN","TX","78744","MONDAY","A"
"2702",,,"EDENWOOD","DR",,,"AUSTIN","TX","78745","MONDAY","A"
"2311",,,"GRANBERRY","DR",,,"AUSTIN","TX","78745","MONDAY","A"
"7400",,,"WHISPERING OAKS","DR",,,"AUSTIN","TX","78745","MONDAY","A"
"7318",,,"SHADYWOOD","DR",,,"AUSTIN","TX","78745","MONDAY","A"
"9011",,"B","SEDGEMOOR","TRL",,,"AUSTIN","TX","78748","MONDAY","A"
"7000",,,"BENT OAK","CIR",,,"AUSTIN","TX","78749","MONDAY","A"
"3621",,"B","LEAFIELD","DR",,,"AUSTIN","TX","78749","MONDAY","A"
"6804",,,"EDINBURGH","CV",,,"AUSTIN","TX","78749","MONDAY","A"
"7900",,,"WHITSUN","DR",,,"AUSTIN","TX","78749","MONDAY","A"
"5000",,,"GALEN","CT",,,"AUSTIN","TX","78744","MONDAY","A"
"2102",,"A","COURTNEY","ST",,,"AUSTIN","TX","78745","MONDAY","A"
"7500",,,"SHADOWRIDGE","RUN",,"UNIT 24","AUSTIN","TX","78749","MONDAY","A"
"7320",,"B","DAN JEAN","DR",,,"AUSTIN","TX","78745","MONDAY","A"
"8622",,,"BROCK","CIR",,,"AUSTIN","TX","78745","MONDAY","A"
"6409",,,"VIA CORRETO","DR",,,"AUSTIN","TX","78749","MONDAY","A"
"7700",,,"HUDDLESTON","LN",,,"AUSTIN","TX","78745","MONDAY","A"
"9309",,,"HOPELAND","DR",,,"AUSTIN","TX","78749","MONDAY","A"
"9201",,,"BRODIE","LN",,"UNIT 43-4301","AUSTIN","TX","78748","MONDAY","A"
"3015",,,"SEA JAY","DR",,,"AUSTIN","TX","78745","MONDAY","A"
"6400",,,"CLAIRMONT","DR",,,"AUSTIN","TX","78749","MONDAY","A"
"8512",,,"DUNSMERE","DR",,,"AUSTIN","TX","78749","MONDAY","A"
"5709",,,"TAYLORCREST","DR",,,"AUSTIN","TX","78749","MONDAY","A"
"9709",,"A","NIGHTJAR","DR",,,"AUSTIN","TX","78748","MONDAY","A"
"4617",,,"MOOSE","DR",,,"AUSTIN","TX","78749","MONDAY","A"
"6618",,,"HILLSIDE TERRACE","DR",,,"AUSTIN","TX","78749","MONDAY","A"
"7912",,,"KENESHAW","DR",,,"AUSTIN","TX","78745","MONDAY","A"
"5302",,,"WALNUT GROVE","DR",,,"AUSTIN","TX","78744","MONDAY","A"
"9112",,,"HEIDEN","LN",,,"AUSTIN","TX","78749","MONDAY","A"
"6808",,,"BEATTY","DR",,,"AUSTIN","TX","78749","MONDAY","A"
"5432",,,"HITCHER","BND",,,"AUSTIN","TX","78749","MONDAY","A"
"918",,,"HILLSIDE OAKS","DR",,,"AUSTIN","TX","78745","MONDAY","A"
"5736",,,"JANABYRD","LN",,,"AUSTIN","TX","78749","MONDAY","A"
"7500",,,"SHADOWRIDGE","RUN",,"UNIT 12","AUSTIN","TX","78749","MONDAY","A"
"4900",,,"FLICKER","LN",,,"AUSTIN","TX","78744","MONDAY","A"
"8109",,,"LONGVIEW","RD",,"UNIT 2","AUSTIN","TX","78745","MONDAY","A"
"313",,"B","WILLIAM CANNON","DR","W",,"AUSTIN","TX","78745","MONDAY","A"
"1502",,"B","MATTHEWS","LN",,,"AUSTIN","TX","78745","MONDAY","A"
"4007",,,"ALEXANDRIA","DR",,,"AUSTIN","TX","78749","MONDAY","A"
"4504",,,"SARASOTA","DR",,,"AUSTIN","TX","78749","MONDAY","A"
"7709",,,"VAIL VALLEY","DR",,,"AUSTIN","TX","78749","MONDAY","A"
"3221",,"B","DARNELL","DR",,,"AUSTIN","TX","78745","MONDAY","A"
"7009",,"B","IVORY KEY","CT",,,"AUSTIN","TX","78745","MONDAY","A"
"7003",,,"WINDRIFT","WAY",,,"AUSTIN","TX","78745","MONDAY","A"
"2401",,,"CROWNSPOINT","DR",,,"AUSTIN","TX","78748","MONDAY","A"
"4410",,,"DOVEMEADOW","DR",,,"AUSTIN","TX","78744","MONDAY","A"
"2816",,,"NORFOLK","DR",,,"AUSTIN","TX","78745","MONDAY","A"
"6919",,,"CHERRY MEADOW","DR",,,"AUSTIN","TX","78745","MONDAY","A"
"2621",,,"MONARCH","DR",,,"AUSTIN","TX","78748","MONDAY","A"
"2201",,"C","TABOR","CT",,,"AUSTIN","TX","78748","MONDAY","A"
"2311",,"B","RACHAEL","CT",,,"AUSTIN","TX","78748","MONDAY","A"
"2304",,"B","CEDRICK","CV",,,"AUSTIN","TX","78748","MONDAY","A"
"9810",,"A","ROXANNA","DR",,,"AUSTIN","TX","78748","MONDAY","A"
"8202",,,"LOS RANCHOS","DR",,,"AUSTIN","TX","78749","MONDAY","A"
"9703",,,"WILLERS","WAY",,,"AUSTIN","TX","78748","MONDAY","A"
"9406",,"A","KEMPLER","DR",,,"AUSTIN","TX","78748","MONDAY","A"
"9204",,"A","SEDGEMOOR","TRL",,,"AUSTIN","TX","78748","MONDAY","A"
"5700",,,"MESQUITE GROVE","RD",,,"AUSTIN","TX","78744","MONDAY","A"
"6802",,,"STAR","DR",,,"AUSTIN","TX","78745","MONDAY","A"
"8100",,,"BAXTER SPRINGS","RD",,,"AUSTIN","TX","78745","MONDAY","A"
"7321",,,"TWILIGHT SHADOW","DR",,,"AUSTIN","TX","78749","MONDAY","A"
"2212",,,"FANCY GAP","LN",,,"AUSTIN","TX","78745","MONDAY","A"
"7216",,"B","ALDEA","DR",,,"AUSTIN","TX","78745","MONDAY","A"
"9204",,,"RIDGEWELL","PL",,,"AUSTIN","TX","78749","MONDAY","A"
"4804",,,"TURNSTONE","DR",,,"AUSTIN","TX","78744","MONDAY","A"
"314",,,"KIMBERLY","DR",,,"AUSTIN","TX","78745","MONDAY","A"
"7810",,,"EVALINE","LN",,,"AUSTIN","TX","78745","MONDAY","A"
"5800",,,"ENCINAL","CV",,,"AUSTIN","TX","78744","MONDAY","A"
"1901",,,"MATTHEWS","LN",,,"AUSTIN","TX","78745","MONDAY","A"
"6907",,,"CHERRY MEADOW","DR",,,"AUSTIN","TX","78745","MONDAY","A"
"5104",,,"BRASSIEWOOD","DR",,,"AUSTIN","TX","78744","MONDAY","A"
"2201",,"C","LEAH","CV",,,"AUSTIN","TX","78748","MONDAY","A"
"1713",,"B","MATTHEWS","LN",,,"AUSTIN","TX","78745","MONDAY","A"
"5308",,,"KORTH","DR",,,"AUSTIN","TX","78749","MONDAY","A"
"8205",,,"TWILIGHT TERRACE","DR",,,"AUSTIN","TX","78749","MONDAY","A"
"807",,,"MARC TAYLOR","DR",,,"AUSTIN","TX","78745","MONDAY","A"
"9201",,,"BRODIE","LN",,"UNIT 23-2301","AUSTIN","TX","78748","MONDAY","A"
"9201",,,"BRODIE","LN",,"UNIT 35-3503","AUSTIN","TX","78748","MONDAY","A"
"6017",,,"LA NARANJA","LN",,,"AUSTIN","TX","78749","MONDAY","A"
"4814",,,"RUTHERGLEN","DR",,,"AUSTIN","TX","78749","MONDAY","A"
"5713",,,"MARCHMONT","LN",,,"AUSTIN","TX","78749","MONDAY","A"
"600",,,"MEADOW LEA","DR",,,"AUSTIN","TX","78745","MONDAY","A"
"6433",,,"ZADOCK WOODS","DR",,,"AUSTIN","TX","78749","MONDAY","A"
"7908",,,"WYKEHAM","DR",,,"AUSTIN","TX","78749","MONDAY","A"
"5306",,,"BECKETT","CIR",,,"AUSTIN","TX","78749","MONDAY","A"
"5310",,,"WALNUT GROVE","DR",,,"AUSTIN","TX","78744","MONDAY","A"
"6310",,,"ZADOCK WOODS","DR",,,"AUSTIN","TX","78749","MONDAY","A"
"6212",,,"CLARION","DR",,,"AUSTIN","TX","78749","MONDAY","A"
"9613",,"B","NIGHTJAR","DR",,,"AUSTIN","TX","78748","MONDAY","A"
"8709",,,"PUCKETT","CT",,,"AUSTIN","TX","78749","MONDAY","A"
"5917",,,"KABAYE","CV",,,"AUSTIN","TX","78749","MONDAY","A"
"7000",,,"WANDERING OAK","RD",,,"AUSTIN","TX","78749","MONDAY","A"
"4525",,,"CORRAN FERRY","LOOP",,,"AUSTIN","TX","78749","MONDAY","A"
"7907",,,"MANASSAS","DR",,,"AUSTIN","TX","78745","MONDAY","A"
"4603",,,"DOVE SPRINGS","DR",,,"AUSTIN","TX","78744","MONDAY","A"
"3309",,,"GALESBURG","DR",,,"AUSTIN","TX","78745","MONDAY","A"
"2709",,,"HOLLY SPRINGS","CT",,,"AUSTIN","TX","78748","MONDAY","A"
"6903",,,"KENOSHA","PASS",,,"AUSTIN","TX","78749","MONDAY","A"
"7105",,,"WISHING WELL","DR",,,"AUSTIN","TX","78745","MONDAY","A"
"8407",,,"AVOCET","DR",,,"AUSTIN","TX","78745","MONDAY","A"
"7514",,,"ISLANDER","DR",,,"AUSTIN","TX","78749","MONDAY","A"
"1202",,,"ECHO","LN",,,"AUSTIN","TX","78745","MONDAY","A"
"4205",,,"MOLOKAI","DR",,,"AUSTIN","TX","78749","MONDAY","A"
"810",,,"BUCKINGHAM","PL",,,"AUSTIN","TX","78745","MONDAY","A"
"4600",,,"COPANO","CT",,,"AUSTIN","TX","78749","MONDAY","A"
"7814",,,"VAIL VALLEY","DR",,,"AUSTIN","TX","78749","MONDAY","A"
"6009",,,"LA NARANJA","LN",,,"AUSTIN","TX","78749","MONDAY","A"
"2716",,,"DEERINGHILL","DR",,,"AUSTIN","TX","78745","MONDAY","A"
"5404",,"B","AGUA CALIENTE","CV",,,"AUSTIN","TX","78744","MONDAY","A"
"7800",,,"EPPING","LN",,,"AUSTIN","TX","78745","MONDAY","A"
"4123",,,"STONECROFT","DR",,,"AUSTIN","TX","78749","MONDAY","A"
"7404",,,"SHADYWOOD","DR",,,"AUSTIN","TX","78745","MONDAY","A"
"4707",,,"CIRCLE OAK","CV",,,"AUSTIN","TX","78749","MONDAY","A"
"7500",,,"SHADOWRIDGE","RUN",,"UNIT 35","AUSTIN","TX","78749","MONDAY","A"
"806",,,"MARC TAYLOR","DR",,,"AUSTIN","TX","78745","MONDAY","A"
"7715",,,"HUDDLESTON","LN",,,"AUSTIN","TX","78745","MONDAY","A"
"9201",,,"BRODIE","LN",,"UNIT 9-901","AUSTIN","TX","78748","MONDAY","A"
"3320",,,"SILKGRASS","BND",,,"AUSTIN","TX","78748","MONDAY","A"
"5918",,,"MAGEE","BND",,,"AUSTIN","TX","78749","MONDAY","A"
"7717",,,"PONOMA","TRL",,,"AUSTIN","TX","78749","MONDAY","A"
"9709",,"A","SUGAR HILL","DR",,,"AUSTIN","TX","78748","MONDAY","A"
"9504",,"D","MANCHACA","RD",,,"AUSTIN","TX","78748","MONDAY","A"
"7205",,,"QUIMPER","LN",,,"AUSTIN","TX","78749","MONDAY","A"
"4601",,,"LEATHERLEAF","TRL",,,"AUSTIN","TX","78744","MONDAY","A"
"8010",,"B","WILLET","TRL",,,"AUSTIN","TX","78745","MONDAY","A"
"5510",,,"KAYVIEW","DR",,,"AUSTIN","TX","78749","MONDAY","A"
"5700",,,"LOMITA VERDE","CIR",,,"AUSTIN","TX","78749","MONDAY","A"
"6824",,,"BEATTY","DR",,,"AUSTIN","TX","78749","MONDAY","A"
"5314",,,"SPIREA","CV",,,"AUSTIN","TX","78749","MONDAY","A"
"4304",,,"TRIBORO","TRL",,,"AUSTIN","TX","78749","MONDAY","A"
"5801",,,"SUNNY VISTA","DR",,,"AUSTIN","TX","78749","MONDAY","A"
"8102",,"B","HOOD","CIR",,,"AUSTIN","TX","78745","MONDAY","A"
"9606",,"A","SUGAR HILL","DR",,,"AUSTIN","TX","78748","MONDAY","A"
"4605",,,"SAN SIMEON","DR",,,"AUSTIN","TX","78749","MONDAY","A"
"4607",,,"MOLERA","DR",,,"AUSTIN","TX","78749","MONDAY","A"
"6902",,"B","1ST","ST","S",,"AUSTIN","TX","78745","MONDAY","A"
"6915",,"B","WOODHUE","DR",,,"AUSTIN","TX","78745","MONDAY","A"
"7805",,,"PALACIOS","DR",,,"AUSTIN","TX","78749","MONDAY","A"
"4305",,,"MOLOKAI","DR",,,"AUSTIN","TX","78749","MONDAY","A"
"7930",,,"WHEEL RIM","CIR",,,"AUSTIN","TX","78749","MONDAY","A"
"906",,,"BODARK","LN",,,"AUSTIN","TX","78745","MONDAY","A"
"7706",,,"DONCASTER","DR",,,"AUSTIN","TX","78745","MONDAY","A"
"7902",,,"DONCASTER","DR",,,"AUSTIN","TX","78745","MONDAY","A"
"5404",,"A","AGUA CALIENTE","CV",,,"AUSTIN","TX","78744","MONDAY","A"
"2200",,"B","LEAH","CV",,,"AUSTIN","TX","78748","MONDAY","A"
"2307",,"C","CEDRICK","CV",,,"AUSTIN","TX","78748","MONDAY","A"
"9804",,"C","ROXANNA","DR",,,"AUSTIN","TX","78748","MONDAY","A"
"5006",,"B","CAPE VERDE","CV",,,"AUSTIN","TX","78744","MONDAY","A"
"2100",,"A","COURTNEY","ST",,,"AUSTIN","TX","78745","MONDAY","A"
"3115",,,"PLANTATION","RD",,,"AUSTIN","TX","78745","MONDAY","A"
"3306",,,"CLARKSBURG","DR",,,"AUSTIN","TX","78745","MONDAY","A"
"5905",,,"TAYLORCREST","DR",,,"AUSTIN","TX","78749","MONDAY","A"
"8100",,,"NOTTAWAY","CV",,,"AUSTIN","TX","78745","MONDAY","A"
"8000",,,"CUTLER RIDGE","PL",,,"AUSTIN","TX","78749","MONDAY","A"
"9305",,,"BRADNER","DR",,,"AUSTIN","TX","78748","MONDAY","A"
"5913",,,"KABAYE","CV",,,"AUSTIN","TX","78749","MONDAY","A"
"7204",,"A","ALDEA","DR",,,"AUSTIN","TX","78745","MONDAY","A"
"6110",,,"WING FEATHER","DR",,,"AUSTIN","TX","78744","MONDAY","A"
"4900",,,"NESTING","WAY",,,"AUSTIN","TX","78744","MONDAY","A"
"4011",,,"CONVICT HILL","RD",,,"AUSTIN","TX","78749","MONDAY","A"
"4407",,,"DOVEWOOD","DR",,,"AUSTIN","TX","78744","MONDAY","A"
"7008",,,"MOUNT CARRELL","DR",,,"AUSTIN","TX","78745","MONDAY","A"
"3802",,,"BANNOCKBURN","DR",,,"AUSTIN","TX","78749","MONDAY","A"
"2707",,,"HOLLY SPRINGS","CT",,,"AUSTIN","TX","78748","MONDAY","A"
"3012",,"B","AFTONSHIRE","WAY",,,"AUSTIN","TX","78748","MONDAY","A"
"7803",,,"HUDDLESTON","LN",,,"AUSTIN","TX","78745","MONDAY","A"
"9201",,,"BRODIE","LN",,"UNIT 4-403","AUSTIN","TX","78748","MONDAY","A"
"8606",,"B","LEO","ST",,,"AUSTIN","TX","78745","MONDAY","A"
"3303",,,"GRASSHOPPER","DR",,,"AUSTIN","TX","78748","MONDAY","A"
"6002",,,"SAN PAUBLO","CT",,,"AUSTIN","TX","78749","MONDAY","A"
"8106",,,"NAIRN","DR",,,"AUSTIN","TX","78749","MONDAY","A"
"5811",,,"FITCHWOOD","LN",,,"AUSTIN","TX","78749","MONDAY","A"
"8610",,,"GANTTCREST","DR",,,"AUSTIN","TX","78749","MONDAY","A"
"7423",,,"PONOMA","TRL",,,"AUSTIN","TX","78749","MONDAY","A"
"9002",,,"MEACHAM","WAY",,,"AUSTIN","TX","78749","MONDAY","A"
"9623",,"B","SUGAR HILL","DR",,,"AUSTIN","TX","78748","MONDAY","A"
"6712",,,"TELLURIDE","TRL",,,"AUSTIN","TX","78749","MONDAY","A"
"8507",,"A","APPLE CARRIE","CV",,,"AUSTIN","TX","78745","MONDAY","A"
"8511",,"B","APPLE CARRIE","CV",,,"AUSTIN","TX","78745","MONDAY","A"
"7109",,,"SHADYWOOD","DR",,,"AUSTIN","TX","78745","MONDAY","A"
"2501",,,"BURLY OAK","DR",,,"AUSTIN","TX","78745","MONDAY","A"
"6806",,,"HITCHING POST","CIR",,,"AUSTIN","TX","78749","MONDAY","A"
"5505",,,"WASSAIL","ST",,,"AUSTIN","TX","78744","MONDAY","A"
"2811",,,"INRIDGE","DR",,,"AUSTIN","TX","78745","MONDAY","A"
"9612",,"A","SUGAR HILL","DR",,,"AUSTIN","TX","78748","MONDAY","A"
"705",,,"PRINCE ARN","DR",,,"AUSTIN","TX","78745","MONDAY","A"
"7716",,,"EVALINE","LN",,,"AUSTIN","TX","78745","MONDAY","A"
"3310",,,"OAK ALLEY","RD",,,"AUSTIN","TX","78745","MONDAY","A"
"414",,"B","DITTMAR","RD","W",,"AUSTIN","TX","78745","MONDAY","A"
"3718",,,"HOLT","DR",,,"AUSTIN","TX","78749","MONDAY","A"
"3904",,,"HOLT","DR",,,"AUSTIN","TX","78749","MONDAY","A"
"7607",,,"NAVARRO","PL",,,"AUSTIN","TX","78749","MONDAY","A"
"3617",,"B","LEAFIELD","DR",,,"AUSTIN","TX","78749","MONDAY","A"
"9002",,,"MARSH","DR",,,"AUSTIN","TX","78748","MONDAY","A"
"7717",,,"PALACIOS","DR",,,"AUSTIN","TX","78749","MONDAY","A"
"1506",,"B","MATTHEWS","LN",,,"AUSTIN","TX","78745","MONDAY","A"
"6902",,,"WINDRIFT","WAY",,,"AUSTIN","TX","78745","MONDAY","A"
"9505",,,"CASTLEWOOD","DR",,,"AUSTIN","TX","78748","MONDAY","A"
"5819",,,"ENCINAL","CV",,,"AUSTIN","TX","78744","MONDAY","A"
"2520",,,"DOVEWOOD","DR",,,"AUSTIN","TX","78744","MONDAY","A"
"8706",,,"OAK LEDGE","DR",,,"AUSTIN","TX","78748","MONDAY","A"
"9809",,"A","ROXANNA","DR",,,"AUSTIN","TX","78748","MONDAY","A"
"7209",,,"COOPER","LN",,,"AUSTIN","TX","78745","MONDAY","A"
"2308",,"A","CEDRICK","CV",,,"AUSTIN","TX","78748","MONDAY","A"
"7105",,,"GREENOCK","ST",,,"AUSTIN","TX","78749","MONDAY","A"
"3226",,,"SLAUGHTER","LN","W","UNIT 2","AUSTIN","TX","78748","MONDAY","A"
"9504",,"B","KEMPLER","DR",,,"AUSTIN","TX","78748","MONDAY","A"
"6738",,,"PONCHA","PASS",,,"AUSTIN","TX","78749","MONDAY","A"
"5911",,,"SALCON CLIFF","DR",,,"AUSTIN","TX","78749","MONDAY","A"
"2504",,,"KEEPSAKE","DR",,,"AUSTIN","TX","78745","MONDAY","A"
"7706",,,"HUDDLESTON","LN",,,"AUSTIN","TX","78745","MONDAY","A"
"9201",,,"BRODIE","LN",,"UNIT 22-2202","AUSTIN","TX","78748","MONDAY","A"
"6117",,,"WAGON BEND","TRL",,,"AUSTIN","TX","78744","MONDAY","A"
"7613",,,"ORRICK","DR",,,"AUSTIN","TX","78749","MONDAY","A"
"9301",,,"BRADNER","DR",,,"AUSTIN","TX","78748","MONDAY","A"
"9700",,,"CURLEW","DR",,,"AUSTIN","TX","78748","MONDAY","A"
"5324",,,"MABRY","CT",,,"AUSTIN","TX","78749","MONDAY","A"
"9208",,,"GARDEN RANCH","CT",,,"AUSTIN","TX","78749","MONDAY","A"
"8900",,,"LANTANA","WAY",,,"AUSTIN","TX","78749","MONDAY","A"
"6111",,,"CONGRESS","AVE","S","UNIT 42","AUSTIN","TX","78745","MONDAY","A"
"7101",,,"SIR GAWAIN","DR",,,"AUSTIN","TX","78745","MONDAY","A"
"4904",,,"CABOB","ST",,,"AUSTIN","TX","78744","MONDAY","A"
"2112",,,"LEAR","LN",,,"AUSTIN","TX","78745","MONDAY","A"
"3210",,,"CENTRALIA","CV",,,"AUSTIN","TX","78745","MONDAY","A"
"5906",,,"HAMMERMILL","RUN",,,"AUSTIN","TX","78744","MONDAY","A"
"2011",,"B","STASSNEY","LN","E",,"AUSTIN","TX","78744","MONDAY","A"
"6912",,"A","1ST","ST","S",,"AUSTIN","TX","78745","MONDAY","A"
"8808",,,"AMPEZO","TRL",,,"AUSTIN","TX","78749","MONDAY","A"
"8016",,,"DOE MEADOW","DR",,,"AUSTIN","TX","78749","MONDAY","A"
"2003",,,"COVERED WAGON","PASS",,,"AUSTIN","TX","78744","MONDAY","A"
"3417",,"B","DUNLIEGH","DR",,,"AUSTIN","TX","78745","MONDAY","A"
"7219",,,"WHISPERING WINDS","DR",,,"AUSTIN","TX","78745","MONDAY","A"
"3900",,,"GEMSTONE","RD",,,"AUSTIN","TX","78749","MONDAY","A"
"7603",,"B","WOODSTONE","CV",,,"AUSTIN","TX","78749","MONDAY","A"
"9505",,,"MARSH","DR",,,"AUSTIN","TX","78748","MONDAY","A"
"9807",,,"WILLERS","WAY",,,"AUSTIN","TX","78748","MONDAY","A"
"9103",,"A","SANGER","DR",,,"AUSTIN","TX","78748","MONDAY","A"
"8626",,,"PINEY CREEK","BND",,,"AUSTIN","TX","78745","MONDAY","A"
"3012",,"A","AFTONSHIRE","WAY",,,"AUSTIN","TX","78748","MONDAY","A"
"3206",,,"GRASSHOPPER","DR",,,"AUSTIN","TX","78748","MONDAY","A"
"5710",,,"KAYVIEW","DR",,,"AUSTIN","TX","78749","MONDAY","A"
"4704",,,"TURNSTONE","DR",,,"AUSTIN","TX","78744","MONDAY","A"
"8301",,,"LOS RANCHOS","DR",,,"AUSTIN","TX","78749","MONDAY","A"
"3207",,,"PAISANO","TRL",,,"AUSTIN","TX","78745","MONDAY","A"
"7507",,,"CALUMET","CV",,,"AUSTIN","TX","78745","MONDAY","A"
"7603",,,"GAINES MILL","LN",,,"AUSTIN","TX","78745","MONDAY","A"
"7604",,,"GAINES MILL","LN",,,"AUSTIN","TX","78745","MONDAY","A"
"3604",,,"ALEXANDRIA","DR",,,"AUSTIN","TX","78749","MONDAY","A"
"8003",,,"COPANO","DR",,,"AUSTIN","TX","78749","MONDAY","A"
"4302",,,"MANZANILLO","DR",,,"AUSTIN","TX","78749","MONDAY","A"
"7012",,,"MEADOW","RUN",,,"AUSTIN","TX","78745","MONDAY","A"
"5402",,"B","VILLAGE","LN",,,"AUSTIN","TX","78744","MONDAY","A"
"5816",,,"ENCINAL","CV",,,"AUSTIN","TX","78744","MONDAY","A"
"7318",,,"LUNAR","DR",,,"AUSTIN","TX","78745","MONDAY","A"
"5710",,,"ENCINAL","CV",,,"AUSTIN","TX","78744","MONDAY","A"
"7905",,,"WHITSUN","DR",,,"AUSTIN","TX","78749","MONDAY","A"
"5001",,,"PARELL","PATH",,,"AUSTIN","TX","78744","MONDAY","A"
"9107",,,"HILLSIDE TERRACE","CV",,,"AUSTIN","TX","78749","MONDAY","A"
"2111",,,"KEEPSAKE","DR",,,"AUSTIN","TX","78745","MONDAY","A"
"6617",,,"VIA CORRETO","DR",,,"AUSTIN","TX","78749","MONDAY","A"
"6916",,,"VIA CORRETO","DR",,,"AUSTIN","TX","78749","MONDAY","A"
"9201",,,"BRODIE","LN",,"UNIT 47-4703","AUSTIN","TX","78748","MONDAY","A"
"8403",,,"LA NARANJA","CV",,,"AUSTIN","TX","78749","MONDAY","A"
"8805",,,"DANDELION","TRL",,,"AUSTIN","TX","78745","MONDAY","A"
"6201",,,"MESA GRANDE","DR",,,"AUSTIN","TX","78749","MONDAY","A"
"6522",,,"CLAIRMONT","DR",,,"AUSTIN","TX","78749","MONDAY","A"
"5904",,,"KAYVIEW","DR",,,"AUSTIN","TX","78749","MONDAY","A"
"3423",,,"DALTON","ST",,,"AUSTIN","TX","78745","MONDAY","A"
"7905",,,"HENRY KINNEY","ROW",,,"AUSTIN","TX","78749","MONDAY","A"
"6205",,,"BURK BURNETT","CT",,,"AUSTIN","TX","78749","MONDAY","A"
"6505",,,"BILLY BONNEY","PASS",,,"AUSTIN","TX","78749","MONDAY","A"
"6441",,,"ZADOCK WOODS","DR",,,"AUSTIN","TX","78749","MONDAY","A"
"6705",,,"EDWARDSON","CV",,,"AUSTIN","TX","78749","MONDAY","A"
"9615",,"A","SUGAR HILL","DR",,,"AUSTIN","TX","78748","MONDAY","A"
"6814",,,"GAUR","DR",,,"AUSTIN","TX","78749","MONDAY","A"
"6832",,,"AUCKLAND","DR",,,"AUSTIN","TX","78749","MONDAY","A"
"9328",,,"SANFORD","DR",,,"AUSTIN","TX","78748","MONDAY","A"
"7916",,,"KENESHAW","DR",,,"AUSTIN","TX","78745","MONDAY","A"
"8000",,,"CROFTWOOD","DR",,,"AUSTIN","TX","78749","MONDAY","A"
"5420",,,"BLACKJACK","CV",,,"AUSTIN","TX","78744","MONDAY","A"
"7904",,"B","WILLET","TRL",,,"AUSTIN","TX","78745","MONDAY","A"
"7200",,"A","ALDEA","DR",,,"AUSTIN","TX","78745","MONDAY","A"
"9121",,,"COLBERG","DR",,,"AUSTIN","TX","78749","MONDAY","A"
"7208",,"B","ALDEA","DR",,,"AUSTIN","TX","78745","MONDAY","A"
"8720",,,"BARROW GLEN","LOOP",,,"AUSTIN","TX","78749","MONDAY","A"
"5400",,,"AMANDA ELLIS","CT",,,"AUSTIN","TX","78749","MONDAY","A"
"8704",,,"GANTTCREST","DR",,,"AUSTIN","TX","78749","MONDAY","A"
"4405",,,"MANZANILLO","DR",,,"AUSTIN","TX","78749","MONDAY","A"
"7101",,,"BARNSDALE","WAY",,,"AUSTIN","TX","78745","MONDAY","A"
"8728",,,"CORRAN FERRY","DR",,,"AUSTIN","TX","78749","MONDAY","A"
"5725",,,"SUNNY VISTA","DR",,,"AUSTIN","TX","78749","MONDAY","A"
"7501",,,"SHADOWRIDGE","RUN",,"UNIT 107","AUSTIN","TX","78749","MONDAY","A"
"7910",,"A","WEST GATE","BLVD",,,"AUSTIN","TX","78745","MONDAY","A"
"7601",,"A","ST AMANT","PL",,,"AUSTIN","TX","78749","MONDAY","A"
"7909",,,"CROFTWOOD","DR",,,"AUSTIN","TX","78749","MONDAY","A"
"5714",,,"ABILENE","TRL",,,"AUSTIN","TX","78749","MONDAY","A"
"7707",,,"NAVARRO","PL",,,"AUSTIN","TX","78749","MONDAY","A"
"5810",,,"CHARLES SCHREINER","TRL",,,"AUSTIN","TX","78749","MONDAY","A"
"7502",,,"SHERWOOD","RD",,,"AUSTIN","TX","78745","MONDAY","A"
"922",,,"ACORN OAKS","DR",,,"AUSTIN","TX","78745","MONDAY","A"
"2607",,,"CROWNSPOINT","DR",,,"AUSTIN","TX","78748","MONDAY","A"
"2619",,,"AYLESBURY","LN",,,"AUSTIN","TX","78745","MONDAY","A"
"2618",,,"MONARCH","DR",,,"AUSTIN","TX","78748","MONDAY","A"
"7209",,,"LUNAR","DR",,,"AUSTIN","TX","78745","MONDAY","A"
"7500",,,"LOGANBERRY","DR",,,"AUSTIN","TX","78745","MONDAY","A"
"3619",,"A","LEAFIELD","DR",,,"AUSTIN","TX","78749","MONDAY","A"
"8819",,,"DANDELION","TRL",,,"AUSTIN","TX","78745","MONDAY","A"
"5301",,,"MABRY","CT",,,"AUSTIN","TX","78749","MONDAY","A"
"9213",,,"ASHEVILLE","PL",,,"AUSTIN","TX","78749","MONDAY","A"
"5601",,,"JANABYRD","LN",,,"AUSTIN","TX","78749","MONDAY","A"
"7301",,"B","DAN JEAN","DR",,,"AUSTIN","TX","78745","MONDAY","A"
"9120",,,"HOPELAND","DR",,,"AUSTIN","TX","78749","MONDAY","A"
"7120",,,"VIA DONO","DR",,,"AUSTIN","TX","78749","MONDAY","A"
"710",,,"MARC TAYLOR","DR",,,"AUSTIN","TX","78745","MONDAY","A"
"8601",,,"BISBEE","CT",,,"AUSTIN","TX","78745","MONDAY","A"
"6305",,,"SALCON CLIFF","DR",,,"AUSTIN","TX","78749","MONDAY","A"
"6200",,,"MESA GRANDE","DR",,,"AUSTIN","TX","78749","MONDAY","A"
"6302",,,"MESA GRANDE","DR",,,"AUSTIN","TX","78749","MONDAY","A"
"5952",,,"SALCON CLIFF","DR",,,"AUSTIN","TX","78749","MONDAY","A"
"8005",,,"WILLET","TRL",,,"AUSTIN","TX","78745","MONDAY","A"
"9610",,"A","NIGHTJAR","DR",,,"AUSTIN","TX","78748","MONDAY","A"
"3005",,,"NORFOLK","DR",,,"AUSTIN","TX","78745","MONDAY","A"
"7011",,,"BILL HUGHES","RD",,,"AUSTIN","TX","78745","MONDAY","A"
"2008",,,"MALVERN HILL","DR",,,"AUSTIN","TX","78745","MONDAY","A"
"4325",,,"MANZANILLO","DR",,,"AUSTIN","TX","78749","MONDAY","A"
"3135",,,"SILKGRASS","BND",,,"AUSTIN","TX","78748","MONDAY","A"
"9009",,,"RUXTON","CV",,,"AUSTIN","TX","78749","MONDAY","A"
"8720",,,"MINOT","CIR",,,"AUSTIN","TX","78748","MONDAY","A"
"5609",,,"VOL WALKER","CV",,,"AUSTIN","TX","78749","MONDAY","A"
"9710",,"B","SUGAR HILL","DR",,,"AUSTIN","TX","78748","MONDAY","A"
"9614",,,"CURLEW","DR",,,"AUSTIN","TX","78748","MONDAY","A"
"9209",,,"COLBERG","DR",,,"AUSTIN","TX","78749","MONDAY","A"
"6909",,,"AUCKLAND","DR",,,"AUSTIN","TX","78749","MONDAY","A"
"5915",,,"MAGEE","BND",,,"AUSTIN","TX","78749","MONDAY","A"
"6600",,,"RUXTON","LN",,,"AUSTIN","TX","78749","MONDAY","A"
"607",,"B","THELMA","DR",,,"AUSTIN","TX","78745","MONDAY","A"
"8416",,,"SEMINARY RIDGE","DR",,,"AUSTIN","TX","78745","MONDAY","A"
"4905",,,"BRASSIEWOOD","DR",,,"AUSTIN","TX","78744","MONDAY","A"
"5902",,,"CANNON MOUNTAIN","DR",,,"AUSTIN","TX","78749","MONDAY","A"
"7409",,,"CANNON MOUNTAIN","PL",,,"AUSTIN","TX","78749","MONDAY","A"
"7404",,,"LADLE","LN",,,"AUSTIN","TX","78749","MONDAY","A"
"5304",,"A","ATASCOSA","DR",,,"AUSTIN","TX","78744","MONDAY","A"
"7406",,,"CEYLON","CT",,,"AUSTIN","TX","78749","MONDAY","A"
"7612",,,"ISLANDER","DR",,,"AUSTIN","TX","78749","MONDAY","A"
"2012",,,"WAGON CROSSING","PATH",,,"AUSTIN","TX","78744","MONDAY","A"
"7015",,,"COOPER","LN",,,"AUSTIN","TX","78745","MONDAY","A"
"907",,,"HILLSIDE OAKS","DR",,,"AUSTIN","TX","78745","MONDAY","A"
"6703",,,"LUNAR","DR",,,"AUSTIN","TX","78745","MONDAY","A"
"2507",,,"MONARCH","DR",,,"AUSTIN","TX","78748","MONDAY","A"
"2307",,"B","CEDRICK","CV",,,"AUSTIN","TX","78748","MONDAY","A"
"9005",,"B","SEDGEMOOR","TRL",,,"AUSTIN","TX","78748","MONDAY","A"
"8106",,,"CACHE","DR",,,"AUSTIN","TX","78749","MONDAY","A"
"7825",,,"BEAUREGARD","CIR",,"UNIT A-11","AUSTIN","TX","78745","MONDAY","A"
"9021",,,"SAUTELLE","LN",,,"AUSTIN","TX","78749","MONDAY","A"
"8402",,,"NAIRN","DR",,,"AUSTIN","TX","78749","MONDAY","A"
"7712",,,"VAIL VALLEY","DR",,,"AUSTIN","TX","78749","MONDAY","A"
"315",,,"CLOUDVIEW","DR",,,"AUSTIN","TX","78745","MONDAY","A"
"3214",,,"SILK OAK","DR",,,"AUSTIN","TX","78748","MONDAY","A"
"6430",,,"IRA INGRAM","DR",,,"AUSTIN","TX","78749","MONDAY","A"
"4508",,,"TURNSTONE","DR",,,"AUSTIN","TX","78744","MONDAY","A"
"8000",,,"APPOMATTOX","DR",,,"AUSTIN","TX","78745","MONDAY","A"
"7603",,,"WHISPERING WINDS","DR",,,"AUSTIN","TX","78745","MONDAY","A"
"4900",,,"PARELL","PATH",,,"AUSTIN","TX","78744","MONDAY","A"
"7310",,,"GAINES MILL","LN",,,"AUSTIN","TX","78745","MONDAY","A"
"103",,"B","CLOUDVIEW","DR",,,"AUSTIN","TX","78745","MONDAY","A"
"2800",,,"CHENEY","CV",,,"AUSTIN","TX","78748","MONDAY","A"
"7702",,,"DONCASTER","DR",,,"AUSTIN","TX","78745","MONDAY","A"
"5101",,,"BRASSIEWOOD","DR",,,"AUSTIN","TX","78744","MONDAY","A"
"8200",,,"KELLOG","CT",,,"AUSTIN","TX","78745","MONDAY","A"
"7101",,,"CROSSWOOD","DR",,,"AUSTIN","TX","78745","MONDAY","A"
"2415",,,"BENDING","TRL",,,"AUSTIN","TX","78744","MONDAY","A"
"7731",,,"MANCHACA","RD",,,"AUSTIN","TX","78745","MONDAY","A"
"6308",,,"SALCON CLIFF","DR",,,"AUSTIN","TX","78749","MONDAY","A"
"9414",,,"LA PUENTE","DR",,,"AUSTIN","TX","78749","MONDAY","A"
"2113",,,"KEEPSAKE","DR",,,"AUSTIN","TX","78745","MONDAY","A"
"8807",,,"DULCET","DR",,,"AUSTIN","TX","78745","MONDAY","A"
"9201",,,"BRODIE","LN",,"UNIT 19-1903","AUSTIN","TX","78748","MONDAY","A"
"9201",,,"BRODIE","LN",,"UNIT 20-2001","AUSTIN","TX","78748","MONDAY","A"
"4517",,,"CREEK BEND","DR",,,"AUSTIN","TX","78744","MONDAY","A"
"3314",,,"SILKGRASS","BND",,,"AUSTIN","TX","78748","MONDAY","A"
"8110",,,"NAIRN","DR",,,"AUSTIN","TX","78749","MONDAY","A"
"5804",,,"MARCHMONT","LN",,,"AUSTIN","TX","78749","MONDAY","A"
"5707",,,"MARCHMONT","LN",,,"AUSTIN","TX","78749","MONDAY","A"
"5813",,,"PECANWOOD","LN",,,"AUSTIN","TX","78749","MONDAY","A"
"8406",,,"FOREST HEIGHTS","LN",,,"AUSTIN","TX","78749","MONDAY","A"
"8409",,,"FOREST HEIGHTS","LN",,,"AUSTIN","TX","78749","MONDAY","A"
"8129",,,"FOREST HEIGHTS","LN",,,"AUSTIN","TX","78749","MONDAY","A"
"6002",,,"TAYLORCREST","DR",,,"AUSTIN","TX","78749","MONDAY","A"
"7204",,,"BREEZY PASS","CV",,,"AUSTIN","TX","78749","MONDAY","A"
"7835",,,"WHEEL RIM","CIR",,,"AUSTIN","TX","78749","MONDAY","A"
"8009",,,"DOE MEADOW","DR",,,"AUSTIN","TX","78749","MONDAY","A"
"6909",,,"PONCHA","PASS",,,"AUSTIN","TX","78749","MONDAY","A"
"3314",,,"ELIJA","ST",,,"AUSTIN","TX","78745","MONDAY","A"
"8008",,,"RICHARD KING","TRL",,,"AUSTIN","TX","78749","MONDAY","A"
"4418",,,"DOVE","DR",,,"AUSTIN","TX","78744","MONDAY","A"
"3405",,"A","ELIJA","ST",,,"AUSTIN","TX","78745","MONDAY","A"
"6616",,,"RUXTON","LN",,,"AUSTIN","TX","78749","MONDAY","A"
"5703",,,"LIMEROCK","HOLW",,,"AUSTIN","TX","78744","MONDAY","A"
"9304",,,"BRADNER","DR",,,"AUSTIN","TX","78748","MONDAY","A"
"9504",,,"QUEENSWOOD","DR",,,"AUSTIN","TX","78748","MONDAY","A"
"7903",,,"APPOMATTOX","DR",,,"AUSTIN","TX","78745","MONDAY","A"
"7024",,,"AUCKLAND","DR",,,"AUSTIN","TX","78749","MONDAY","A"
"7030",,,"AUCKLAND","DR",,,"AUSTIN","TX","78749","MONDAY","A"
"9100",,,"COLBERG","DR",,,"AUSTIN","TX","78749","MONDAY","A"
"3420",,,"GALESBURG","DR",,,"AUSTIN","TX","78745","MONDAY","A"
"5967",,,"LOMITA VERDE","CIR",,,"AUSTIN","TX","78749","MONDAY","A"
"8900",,,"BEATTY","CT",,,"AUSTIN","TX","78749","MONDAY","A"
"6905",,,"BEATTY","DR",,,"AUSTIN","TX","78749","MONDAY","A"
"8920",,,"HACHITA","DR",,,"AUSTIN","TX","78749","MONDAY","A"
"8501",,"B","APPLE CARRIE","CV",,,"AUSTIN","TX","78745","MONDAY","A"
"6701",,,"ONE OAK","RD",,,"AUSTIN","TX","78749","MONDAY","A"
"7435",,,"PUSCH RIDGE","LOOP",,,"AUSTIN","TX","78749","MONDAY","A"
"4509",,,"KEOTA","DR",,,"AUSTIN","TX","78749","MONDAY","A"
"7909",,,"MANASSAS","DR",,,"AUSTIN","TX","78745","MONDAY","A"
"6508",,,"RUXTON","LN",,,"AUSTIN","TX","78749","MONDAY","A"
"6716",,,"SKYNOOK","DR",,,"AUSTIN","TX","78745","MONDAY","A"
"8100",,"B","HOOD","CIR",,,"AUSTIN","TX","78745","MONDAY","A"
"8103",,,"TREEHOUSE","LN",,,"AUSTIN","TX","78749","MONDAY","A"
"9620",,,"HOLLY SPRINGS","DR",,,"AUSTIN","TX","78748","MONDAY","A"
"8404",,,"COPANO","DR",,,"AUSTIN","TX","78749","MONDAY","A"
"4616",,,"SALOMA","PL",,,"AUSTIN","TX","78749","MONDAY","A"
"3303",,,"PLANTATION","RD",,,"AUSTIN","TX","78745","MONDAY","A"
"4701",,,"SAN SIMEON","DR",,,"AUSTIN","TX","78749","MONDAY","A"
"7721",,,"MANASSAS","DR",,,"AUSTIN","TX","78745","MONDAY","A"
"2818",,,"WILCREST","DR",,,"AUSTIN","TX","78748","MONDAY","A"
"2707",,,"WILCREST","DR",,,"AUSTIN","TX","78748","MONDAY","A"
"7806",,,"PALACIOS","DR",,,"AUSTIN","TX","78749","MONDAY","A"
"6714",,,"LA CONCHA","PASS",,,"AUSTIN","TX","78749","MONDAY","A"
"8108",,"B","HOOD","CIR",,,"AUSTIN","TX","78745","MONDAY","A"
"8010",,"A","CLYDESDALE","DR",,,"AUSTIN","TX","78745","MONDAY","A"
"3711",,,"TAMIL","ST",,,"AUSTIN","TX","78749","MONDAY","A"
"7903",,,"KESWICK","DR",,,"AUSTIN","TX","78745","MONDAY","A"
"8001",,"A","HOOD","CIR",,,"AUSTIN","TX","78745","MONDAY","A"
"910",,,"HILLSIDE OAKS","DR",,,"AUSTIN","TX","78745","MONDAY","A"
"7705",,"B","CROFTWOOD","DR",,,"AUSTIN","TX","78749","MONDAY","A"
"7904",,,"FOREST WOOD","RD",,,"AUSTIN","TX","78745","MONDAY","A"
"1002",,,"STONEOAK","LN",,,"AUSTIN","TX","78745","MONDAY","A"
"1100",,,"ECHO","LN",,,"AUSTIN","TX","78745","MONDAY","A"
"5806",,,"ENCINAL","CV",,,"AUSTIN","TX","78744","MONDAY","A"
"7102",,,"TOWERING OAKS","DR",,,"AUSTIN","TX","78745","MONDAY","A"
"2620",,,"MARKET GARDEN","LN",,,"AUSTIN","TX","78745","MONDAY","A"
"405",,,"BLACKBERRY","DR",,,"AUSTIN","TX","78745","MONDAY","A"
"7802",,,"WYCOMBE","DR",,,"AUSTIN","TX","78749","MONDAY","A"
"715",,,"BUCKINGHAM","PL",,,"AUSTIN","TX","78745","MONDAY","A"
"3317",,,"ELIJA","ST",,,"AUSTIN","TX","78745","MONDAY","A"
"2503",,,"LAZY OAKS","DR",,,"AUSTIN","TX","78745","MONDAY","A"
"5506",,,"ICON","ST",,,"AUSTIN","TX","78744","MONDAY","A"
"2813",,,"GETTYSBURG","DR",,,"AUSTIN","TX","78745","MONDAY","A"
"2515",,,"KEEPSAKE","DR",,,"AUSTIN","TX","78745","MONDAY","A"
"8408",,,"EMPRESS","BLVD",,,"AUSTIN","TX","78745","MONDAY","A"
"8306",,,"NICOLA","TRL",,,"AUSTIN","TX","78745","MONDAY","A"
"3405",,"A","MINNIE","ST",,,"AUSTIN","TX","78745","MONDAY","A"
"3405",,"B","MINNIE","ST",,,"AUSTIN","TX","78745","MONDAY","A"
"3305",,"A","MINNIE","ST",,,"AUSTIN","TX","78745","MONDAY","A"
"8509",,,"BISBEE","CT",,,"AUSTIN","TX","78745","MONDAY","A"
"8307",,,"GANTTCREST","DR",,,"AUSTIN","TX","78749","MONDAY","A"
"6401",,,"CLAIRMONT","DR",,,"AUSTIN","TX","78749","MONDAY","A"
"8111",,,"WILLET","TRL",,,"AUSTIN","TX","78745","MONDAY","A"
"7610",,,"KIVA","DR",,,"AUSTIN","TX","78749","MONDAY","A"
"7211",,,"TEABERRY","DR",,,"AUSTIN","TX","78745","MONDAY","A"
"8313",,,"SIRINGO","PASS",,,"AUSTIN","TX","78749","MONDAY","A"
"9120",,,"EDWARDSON","LN",,,"AUSTIN","TX","78749","MONDAY","A"
"5520",,,"MEG BRAUER","WAY",,,"AUSTIN","TX","78749","MONDAY","A"
"5408",,,"BLACKJACK","CV",,,"AUSTIN","TX","78744","MONDAY","A"
"8908",,,"BEATTY","CT",,,"AUSTIN","TX","78749","MONDAY","A"
"6700",,,"DEBCOE","DR",,,"AUSTIN","TX","78749","MONDAY","A"
"9028",,,"SAUTELLE","LN",,,"AUSTIN","TX","78749","MONDAY","A"
"8713",,,"TIOMBE","BND",,,"AUSTIN","TX","78749","MONDAY","A"
"9018",,,"LANTANA","WAY",,,"AUSTIN","TX","78749","MONDAY","A"
"9101",,,"TAYLORCREST","CV",,,"AUSTIN","TX","78749","MONDAY","A"
"104",,"B","METEOR","DR",,,"AUSTIN","TX","78745","MONDAY","A"
"2604",,,"CRANBROOK","CV",,,"AUSTIN","TX","78748","MONDAY","A"
"9725",,,"CURLEW","DR",,,"AUSTIN","TX","78748","MONDAY","A"
"2624",,,"PIPING ROCK","TRL",,,"AUSTIN","TX","78748","MONDAY","A"
"4605",,,"CANDLETREE","LN",,,"AUSTIN","TX","78744","MONDAY","A"
"4603",,,"VELASCO","PL",,,"AUSTIN","TX","78749","MONDAY","A"
"4003",,,"ALEXANDRIA","DR",,,"AUSTIN","TX","78749","MONDAY","A"
"317",,,"KIMBERLY","DR",,,"AUSTIN","TX","78745","MONDAY","A"
"8003",,"A","CLYDESDALE","DR",,,"AUSTIN","TX","78745","MONDAY","A"
"2709",,,"BOBBY","LN",,,"AUSTIN","TX","78748","MONDAY","A"
"2713",,,"EDENWOOD","DR",,,"AUSTIN","TX","78745","MONDAY","A"
"7011",,,"WHISPERING OAKS","DR",,,"AUSTIN","TX","78745","MONDAY","A"
"7300",,,"EGANHILL","DR",,,"AUSTIN","TX","78745","MONDAY","A"
"7317",,,"LUNAR","DR",,,"AUSTIN","TX","78745","MONDAY","A"
"8007",,"B","DUNN","ST",,,"AUSTIN","TX","78745","MONDAY","A"
"2403",,,"BENDING","TRL",,,"AUSTIN","TX","78744","MONDAY","A"
"8302",,,"TREEHOUSE","LN",,,"AUSTIN","TX","78749","MONDAY","A"
"7408",,,"COOPER","LN",,,"AUSTIN","TX","78745","MONDAY","A"
"6716",,,"LA CONCHA","PASS",,,"AUSTIN","TX","78749","MONDAY","A"
"8029",,,"EVADEAN","CIR",,,"AUSTIN","TX","78745","MONDAY","A"
"5301",,,"SPIREA","CV",,,"AUSTIN","TX","78749","MONDAY","A"
"5903",,,"MARCHMONT","LN",,,"AUSTIN","TX","78749","MONDAY","A"
"8301",,,"FOREST HEIGHTS","LN",,,"AUSTIN","TX","78749","MONDAY","A"
"8005",,,"BOUNTY","TRL",,,"AUSTIN","TX","78749","MONDAY","A"
"509",,,"TEABERRY","CIR",,,"AUSTIN","TX","78745","MONDAY","A"
"6026",,,"ABILENE","TRL",,,"AUSTIN","TX","78749","MONDAY","A"
"5900",,,"KABAYE","CV",,,"AUSTIN","TX","78749","MONDAY","A"
"6304",,,"CLARION","DR",,,"AUSTIN","TX","78749","MONDAY","A"
"5638",,,"TAYLORCREST","DR",,,"AUSTIN","TX","78749","MONDAY","A"
"1103",,,"DYMALOR","CIR",,,"AUSTIN","TX","78745","MONDAY","A"
"7207",,,"LOCH LOMMOND","ST",,,"AUSTIN","TX","78749","MONDAY","A"
"5620",,,"WAGON TRAIN","RD",,,"AUSTIN","TX","78749","MONDAY","A"
"3313",,,"PLANTATION","RD",,,"AUSTIN","TX","78745","MONDAY","A"
"6913",,"A","WOODHUE","DR",,,"AUSTIN","TX","78745","MONDAY","A"
"8209",,,"TREEHOUSE","LN",,,"AUSTIN","TX","78749","MONDAY","A"
"7310",,,"SAFFRON","ST",,,"AUSTIN","TX","78749","MONDAY","A"
"1108",,,"ECHO","LN",,,"AUSTIN","TX","78745","MONDAY","A"
"8209",,,"FORT SUMTER","RD",,,"AUSTIN","TX","78745","MONDAY","A"
"2400",,,"MATTHEWS","LN",,,"AUSTIN","TX","78745","MONDAY","A"
"7005",,,"WHEELER BRANCH","TRL",,,"AUSTIN","TX","78749","MONDAY","A"
"5400",,"C","VILLAGE","LN",,,"AUSTIN","TX","78744","MONDAY","A"
"6063",,,"ABILENE","TRL",,,"AUSTIN","TX","78749","MONDAY","A"
"6407",,,"PLEASANT VALLEY","RD","S",,"AUSTIN","TX","78744","MONDAY","A"
"9201",,,"BRODIE","LN",,"UNIT 38-3803","AUSTIN","TX","78748","MONDAY","A"
"3311",,"A","MINNIE","ST",,,"AUSTIN","TX","78745","MONDAY","A"
"9414",,,"LIGHTWOOD","CV",,,"AUSTIN","TX","78748","MONDAY","A"
"7110",,,"BILL HUGHES","RD",,,"AUSTIN","TX","78745","MONDAY","A"
"6020",,,"ABILENE","TRL",,,"AUSTIN","TX","78749","MONDAY","A"
"9123",,,"FAINWOOD","LN",,,"AUSTIN","TX","78749","MONDAY","A"
"7200",,,"BENDING OAK","RD",,,"AUSTIN","TX","78749","MONDAY","A"
"7204",,,"QUIMPER","LN",,,"AUSTIN","TX","78749","MONDAY","A"
"9706",,,"CURLEW","DR",,,"AUSTIN","TX","78748","MONDAY","A"
"8304",,,"KEARSARGE","DR",,,"AUSTIN","TX","78745","MONDAY","A"
"2958",,,"LAGERWAY","CV",,,"AUSTIN","TX","78748","MONDAY","A"
"6805",,,"BEATTY","DR",,,"AUSTIN","TX","78749","MONDAY","A"
"4400",,,"GOLETA","CT",,,"AUSTIN","TX","78749","MONDAY","A"
"4300",,,"DOS CABEZAS","DR",,,"AUSTIN","TX","78749","MONDAY","A"
"9628",,"A","SUGAR HILL","DR",,,"AUSTIN","TX","78748","MONDAY","A"
"3302",,,"HARPERS FERRY","LN",,,"AUSTIN","TX","78745","MONDAY","A"
"7403",,,"BENDER","DR",,,"AUSTIN","TX","78749","MONDAY","A"
"7810",,,"KINCHEON","CT",,,"AUSTIN","TX","78749","MONDAY","A"
"7703",,,"PONOMA","TRL",,,"AUSTIN","TX","78749","MONDAY","A"
"5302",,"A","ATASCOSA","DR",,,"AUSTIN","TX","78744","MONDAY","A"
"2805",,,"WILCREST","DR",,,"AUSTIN","TX","78748","MONDAY","A"
"9107",,,"COOKWOOD","CV",,,"AUSTIN","TX","78748","MONDAY","A"
"8307",,,"CATTLE","DR",,,"AUSTIN","TX","78749","MONDAY","A"
"4311",,,"CLARNO","DR",,,"AUSTIN","TX","78749","MONDAY","A"
"4401",,,"ESKEW","DR",,,"AUSTIN","TX","78749","MONDAY","A"
"6104",,,"SOFTWOOD","DR",,,"AUSTIN","TX","78744","MONDAY","A"
"7003",,"B","IVORY KEY","CT",,,"AUSTIN","TX","78745","MONDAY","A"
"1000",,,"RENO","DR",,,"AUSTIN","TX","78745","MONDAY","A"
"2403",,,"CASTLEDALE","DR",,,"AUSTIN","TX","78748","MONDAY","A"
"2313",,,"DOVEHILL","DR",,,"AUSTIN","TX","78744","MONDAY","A"
"2606",,,"AYLESBURY","LN",,,"AUSTIN","TX","78745","MONDAY","A"
"7100",,,"TOWERING OAKS","DR",,,"AUSTIN","TX","78745","MONDAY","A"
"2606",,,"GREENLAND","LN",,,"AUSTIN","TX","78745","MONDAY","A"
"4800",,,"BRASSIEWOOD","DR",,,"AUSTIN","TX","78744","MONDAY","A"
"4002",,,"STONECROFT","DR",,,"AUSTIN","TX","78749","MONDAY","A"
"2817",,,"NORFOLK","DR",,,"AUSTIN","TX","78745","MONDAY","A"
"7806",,,"WYCOMBE","DR",,,"AUSTIN","TX","78749","MONDAY","A"
"2602",,,"GADWALL","CV",,,"AUSTIN","TX","78748","MONDAY","A"
"4151",,,"STONECROFT","DR",,,"AUSTIN","TX","78749","MONDAY","A"
"6018",,,"ABILENE","TRL",,,"AUSTIN","TX","78749","MONDAY","A"
"6804",,,"SHADYWOOD","DR",,,"AUSTIN","TX","78745","MONDAY","A"
"7404",,,"TWILIGHT SHADOW","DR",,,"AUSTIN","TX","78749","MONDAY","A"
"7500",,,"SHADOWRIDGE","RUN",,"UNIT 25","AUSTIN","TX","78749","MONDAY","A"
"5301",,,"TAMANGO","WAY",,,"AUSTIN","TX","78749","MONDAY","A"
"6825",,,"VIA CORRETO","DR",,,"AUSTIN","TX","78749","MONDAY","A"
"6103",,,"LA NARANJA","LN",,,"AUSTIN","TX","78749","MONDAY","A"
"8212",,,"FOREST HEIGHTS","LN",,,"AUSTIN","TX","78749","MONDAY","A"
"7108",,,"BILL HUGHES","RD",,,"AUSTIN","TX","78745","MONDAY","A"
"5604",,,"MESQUITE GROVE","RD",,,"AUSTIN","TX","78744","MONDAY","A"
"8609",,,"MINOT","CIR",,,"AUSTIN","TX","78748","MONDAY","A"
"9317",,,"NOTCHES","DR",,,"AUSTIN","TX","78748","MONDAY","A"
"5918",,,"HAMMERMILL","RUN",,,"AUSTIN","TX","78744","MONDAY","A"
"5437",,,"HITCHER","BND",,,"AUSTIN","TX","78749","MONDAY","A"
"4515",,,"KEOTA","DR",,,"AUSTIN","TX","78749","MONDAY","A"
"3400",,,"HARPERS FERRY","LN",,,"AUSTIN","TX","78745","MONDAY","A"
"8948",,,"WEST HOVE","LOOP",,,"AUSTIN","TX","78749","MONDAY","A"
"6004",,,"TURNSTONE","CT",,,"AUSTIN","TX","78744","MONDAY","A"
"8423",,,"SEMINARY RIDGE","DR",,,"AUSTIN","TX","78745","MONDAY","A"
"6906",,"A","1ST","ST","S",,"AUSTIN","TX","78745","MONDAY","A"
"7807",,,"KESWICK","DR",,,"AUSTIN","TX","78745","MONDAY","A"
"2809",,,"PECTORAL","DR",,,"AUSTIN","TX","78748","MONDAY","A"
"9406",,"B","MANCHACA","RD",,,"AUSTIN","TX","78748","MONDAY","A"
"7111",,,"WHISPERING OAKS","DR",,,"AUSTIN","TX","78745","MONDAY","A"
"5507",,,"NUCKOLS CROSSING","RD",,,"AUSTIN","TX","78744","MONDAY","A"
"2202",,"D","TABOR","CT",,,"AUSTIN","TX","78748","MONDAY","A"
"8007",,,"SWINDON","LN",,,"AUSTIN","TX","78745","MONDAY","A"
"2105",,,"TOULOUSE","DR",,,"AUSTIN","TX","78748","MONDAY","A"
"9317",,"A","KEMPLER","DR",,,"AUSTIN","TX","78748","MONDAY","A"
"3408",,,"PLANTATION","RD",,,"AUSTIN","TX","78745","MONDAY","A"
"802",,,"HUNTINGDON","PL",,,"AUSTIN","TX","78745","MONDAY","A"
"7200",,"A","DAN JEAN","DR",,,"AUSTIN","TX","78745","MONDAY","A"
"9536",,,"COLEBROOK","ST",,,"AUSTIN","TX","78749","MONDAY","A"
"7304",,,"VIA CORRETO","DR",,,"AUSTIN","TX","78749","MONDAY","A"
"4519",,,"CREEK BEND","DR",,,"AUSTIN","TX","78744","MONDAY","A"
"2213",,,"STONE RIVER","DR",,,"AUSTIN","TX","78745","MONDAY","A"
"2912",,,"LAGERWAY","CV",,,"AUSTIN","TX","78748","MONDAY","A"
"7740",,,"CROFTWOOD","DR",,,"AUSTIN","TX","78749","MONDAY","A"
"5918",,,"MESA VERDE","CIR",,,"AUSTIN","TX","78749","MONDAY","A"
"8612",,,"GANTTCREST","DR",,,"AUSTIN","TX","78749","MONDAY","A"
"9213",,,"ROCK CASTLE","CV",,,"AUSTIN","TX","78749","MONDAY","A"
"3316",,,"GALESBURG","DR",,,"AUSTIN","TX","78745","MONDAY","A"
"6906",,"B","1ST","ST","S",,"AUSTIN","TX","78745","MONDAY","A"
"2304",,"B","RACHAEL","CT",,,"AUSTIN","TX","78748","MONDAY","A"
"7202",,,"WISHING WELL","DR",,,"AUSTIN","TX","78745","MONDAY","A"
"7509",,,"COOPER","LN",,,"AUSTIN","TX","78745","MONDAY","A"
"9804",,,"WOODSHIRE","DR",,,"AUSTIN","TX","78748","MONDAY","A"
"7806",,,"WOODCROFT","DR",,,"AUSTIN","TX","78749","MONDAY","A"
"8410",,,"WASHITA","DR",,,"AUSTIN","TX","78749","MONDAY","A"
"6305",,,"CARRINGTON","DR",,,"AUSTIN","TX","78749","MONDAY","A"
"9517",,,"SANFORD","DR",,,"AUSTIN","TX","78748","MONDAY","A"
"9005",,,"WAMPTON","WAY",,,"AUSTIN","TX","78749","MONDAY","A"
"6902",,,"TELLURIDE","TRL",,,"AUSTIN","TX","78749","MONDAY","A"
"7010",,,"BILL HUGHES","RD",,,"AUSTIN","TX","78745","MONDAY","A"
"7102",,,"BILL HUGHES","RD",,,"AUSTIN","TX","78745","MONDAY","A"
"7910",,,"CROFTWOOD","DR",,,"AUSTIN","TX","78749","MONDAY","A"
"6800",,"B","LUNAR","DR",,,"AUSTIN","TX","78745","MONDAY","A"
"2312",,,"DOVE SPRINGS","DR",,,"AUSTIN","TX","78744","MONDAY","A"
"3115",,,"SILKGRASS","BND",,,"AUSTIN","TX","78748","MONDAY","A"
"9104",,,"FAINWOOD","LN",,,"AUSTIN","TX","78749","MONDAY","A"
"513",,,"MULBERRY","DR",,,"AUSTIN","TX","78745","MONDAY","A"
"8500",,,"ABILENE","CV",,,"AUSTIN","TX","78749","MONDAY","A"
"6403",,,"SALCON CLIFF","DR",,,"AUSTIN","TX","78749","MONDAY","A"
"7617",,,"SHADOWRIDGE","RUN",,,"AUSTIN","TX","78749","MONDAY","A"
"7807",,,"CHENO CORTINA","TRL",,,"AUSTIN","TX","78749","MONDAY","A"
"8507",,,"BISMARK","CV",,,"AUSTIN","TX","78745","MONDAY","A"
"7125",,,"GENTLE OAK","DR",,,"AUSTIN","TX","78749","MONDAY","A"
"7800",,,"CROFTWOOD","DR",,,"AUSTIN","TX","78749","MONDAY","A"
"6104",,,"ABILENE","TRL",,,"AUSTIN","TX","78749","MONDAY","A"
"6115",,,"ABILENE","TRL",,,"AUSTIN","TX","78749","MONDAY","A"
"8702",,,"CRETYS","CV",,,"AUSTIN","TX","78745","MONDAY","A"
"8512",,,"GANTTCREST","DR",,,"AUSTIN","TX","78749","MONDAY","A"
"2208",,,"DOVE SPRINGS","DR",,,"AUSTIN","TX","78744","MONDAY","A"
"6207",,,"WAGON BEND","TRL",,,"AUSTIN","TX","78744","MONDAY","A"
"8320",,,"STEAMLINE","CIR",,,"AUSTIN","TX","78745","MONDAY","A"
"9529",,,"COLEBROOK","ST",,,"AUSTIN","TX","78749","MONDAY","A"
"6409",,,"CARRINGTON","DR",,,"AUSTIN","TX","78749","MONDAY","A"
"5421",,,"BATAK","LN",,,"AUSTIN","TX","78749","MONDAY","A"
"2505",,,"KEEPSAKE","DR",,,"AUSTIN","TX","78745","MONDAY","A"
"701",,,"MARC TAYLOR","DR",,,"AUSTIN","TX","78745","MONDAY","A"
"9201",,,"BRODIE","LN",,"UNIT 15-1503","AUSTIN","TX","78748","MONDAY","A"
"9201",,,"BRODIE","LN",,"UNIT 23-2302","AUSTIN","TX","78748","MONDAY","A"
"9201",,,"BRODIE","LN",,"UNIT 49-4901","AUSTIN","TX","78748","MONDAY","A"
"7603",,,"PONOMA","TRL",,,"AUSTIN","TX","78749","MONDAY","A"
"7419",,,"PONOMA","TRL",,,"AUSTIN","TX","78749","MONDAY","A"
"2200",,"A","GRANBERRY","DR",,,"AUSTIN","TX","78745","MONDAY","A"
"7033",,,"RIDGE OAK","RD",,,"AUSTIN","TX","78749","MONDAY","A"
"6317",,,"CLARION","DR",,,"AUSTIN","TX","78749","MONDAY","A"
"9320",,,"NOTCHES","DR",,,"AUSTIN","TX","78748","MONDAY","A"
"8900",,,"TIOMBE","BND",,,"AUSTIN","TX","78749","MONDAY","A"
"5104",,,"DUSTY TRAIL","CV",,,"AUSTIN","TX","78749","MONDAY","A"
"2909",,,"JORWOODS","DR",,,"AUSTIN","TX","78745","MONDAY","A"
"7602",,,"WHISPERING OAKS","DR",,,"AUSTIN","TX","78745","MONDAY","A"
"2905",,,"INRIDGE","DR",,,"AUSTIN","TX","78745","MONDAY","A"
"1500",,"A","MATTHEWS","LN",,,"AUSTIN","TX","78745","MONDAY","A"
"7704",,,"LOWDES","DR",,,"AUSTIN","TX","78745","MONDAY","A"
"4304",,,"ESKEW","DR",,,"AUSTIN","TX","78749","MONDAY","A"
"5904",,,"CANNON MOUNTAIN","DR",,,"AUSTIN","TX","78749","MONDAY","A"
"5913",,,"CANNON MOUNTAIN","DR",,,"AUSTIN","TX","78749","MONDAY","A"
"2105",,"A","STASSNEY","LN","E",,"AUSTIN","TX","78744","MONDAY","A"
"2215",,"B","STASSNEY","LN","E",,"AUSTIN","TX","78744","MONDAY","A"
"2612",,,"BRISBANE","RD",,,"AUSTIN","TX","78745","MONDAY","A"
"1101",,,"RENO","DR",,,"AUSTIN","TX","78745","MONDAY","A"
"9008",,"B","SEDGEMOOR","TRL",,,"AUSTIN","TX","78748","MONDAY","A"
"1007",,,"ACORN OAKS","DR",,,"AUSTIN","TX","78745","MONDAY","A"
"7404",,,"BROKEN ARROW","LN",,,"AUSTIN","TX","78745","MONDAY","A"
"5706",,,"HAMMERMILL","RUN",,,"AUSTIN","TX","78744","MONDAY","A"
"5009",,,"CREEK BEND","DR",,,"AUSTIN","TX","78744","MONDAY","A"
"7501",,,"SHADOWRIDGE","RUN",,"UNIT 153","AUSTIN","TX","78749","MONDAY","A"
"7310",,"A","DAN JEAN","DR",,,"AUSTIN","TX","78745","MONDAY","A"
"6100",,,"YORK BRIDGE","CIR",,,"AUSTIN","TX","78749","MONDAY","A"
"5705",,,"YORK BRIDGE","CIR",,,"AUSTIN","TX","78749","MONDAY","A"
"8321",,,"EMPRESS","BLVD",,,"AUSTIN","TX","78745","MONDAY","A"
"3313",,"B","ELIJA","ST",,,"AUSTIN","TX","78745","MONDAY","A"
"3413",,"B","BLUMIE","ST",,,"AUSTIN","TX","78745","MONDAY","A"
"9213",,,"BRADNER","DR",,,"AUSTIN","TX","78748","MONDAY","A"
"9606",,,"CURLEW","DR",,,"AUSTIN","TX","78748","MONDAY","A"
"3417",,,"HARPERS FERRY","LN",,,"AUSTIN","TX","78745","MONDAY","A"
"2511",,,"BROKEN OAK","DR",,,"AUSTIN","TX","78745","MONDAY","A"
"7202",,,"SIR GAWAIN","DR",,,"AUSTIN","TX","78745","MONDAY","A"
"8908",,,"WEST HOVE","LOOP",,,"AUSTIN","TX","78749","MONDAY","A"
"5716",,,"JANABYRD","LN",,,"AUSTIN","TX","78749","MONDAY","A"
"3410",,,"CLARKSBURG","DR",,,"AUSTIN","TX","78745","MONDAY","A"
"6109",,,"SOFTWOOD","DR",,,"AUSTIN","TX","78744","MONDAY","A"
"2908",,,"INRIDGE","DR",,,"AUSTIN","TX","78745","MONDAY","A"
"4800",,,"FLICKER","CV",,,"AUSTIN","TX","78744","MONDAY","A"
"4802",,,"FLICKER","CV",,,"AUSTIN","TX","78744","MONDAY","A"
"5103",,,"WAGON HITCH","CV",,,"AUSTIN","TX","78749","MONDAY","A"
"3810",,,"LEAFIELD","DR",,,"AUSTIN","TX","78749","MONDAY","A"
"102",,"A","CLOUDVIEW","DR",,,"AUSTIN","TX","78745","MONDAY","A"
"8403",,,"LOS RANCHOS","DR",,,"AUSTIN","TX","78749","MONDAY","A"
"7504",,,"BLOOMFIELD","DR",,,"AUSTIN","TX","78745","MONDAY","A"
"7513",,"B","ST AMANT","PL",,,"AUSTIN","TX","78749","MONDAY","A"
"5205",,,"SNOWMASS","CV",,,"AUSTIN","TX","78749","MONDAY","A"
"8323",,,"DOE MEADOW","DR",,,"AUSTIN","TX","78749","MONDAY","A"
"7601",,,"HAWKEYE","DR",,,"AUSTIN","TX","78749","MONDAY","A"
"8003",,,"BURLEY","BND",,,"AUSTIN","TX","78745","MONDAY","A"
"7909",,,"WHEEL RIM","CIR",,,"AUSTIN","TX","78749","MONDAY","A"
"7405",,,"MIFFLIN KENEDY","TER",,,"AUSTIN","TX","78749","MONDAY","A"
"2103",,,"CROWNSPOINT","DR",,,"AUSTIN","TX","78748","MONDAY","A"
"6100",,,"BROKEN SPOKE","TRL",,,"AUSTIN","TX","78744","MONDAY","A"
"7701",,"B","WYNNE","LN",,,"AUSTIN","TX","78745","MONDAY","A"
"2211",,"A","STASSNEY","LN","E",,"AUSTIN","TX","78744","MONDAY","A"
"4403",,,"DOVEHILL","DR",,,"AUSTIN","TX","78744","MONDAY","A"
"6064",,,"ABILENE","TRL",,,"AUSTIN","TX","78749","MONDAY","A"
"7900",,,"ISAAC PRYOR","DR",,,"AUSTIN","TX","78749","MONDAY","A"
"5320",,"B","ATASCOSA","DR",,,"AUSTIN","TX","78744","MONDAY","A"
"9504",,,"ROXANNA","DR",,,"AUSTIN","TX","78748","MONDAY","A"
"2203",,"A","TABOR","CT",,,"AUSTIN","TX","78748","MONDAY","A"
"9114",,,"MARSH","DR",,,"AUSTIN","TX","78748","MONDAY","A"
"3705",,"A","LEAFIELD","DR",,,"AUSTIN","TX","78749","MONDAY","A"
"3613",,"A","LEAFIELD","DR",,,"AUSTIN","TX","78749","MONDAY","A"
"8203",,,"KELLOG","CT",,,"AUSTIN","TX","78745","MONDAY","A"
"3511",,"B","LEAFIELD","DR",,,"AUSTIN","TX","78749","MONDAY","A"
"7007",,,"BENT OAK","CIR",,,"AUSTIN","TX","78749","MONDAY","A"
"4609",,,"VILLAGE","CT","E",,"AUSTIN","TX","78744","MONDAY","A"
"2406",,,"DOVEHILL","DR",,,"AUSTIN","TX","78744","MONDAY","A"
"5102",,,"NESTING","WAY",,,"AUSTIN","TX","78744","MONDAY","A"
"5916",,,"WAGON","BND",,,"AUSTIN","TX","78744","MONDAY","A"
"2317",,,"WAGON CROSSING","PATH",,,"AUSTIN","TX","78744","MONDAY","A"
"7811",,,"WHITSUN","DR",,,"AUSTIN","TX","78749","MONDAY","A"
"7503",,,"ELDERBERRY","DR",,,"AUSTIN","TX","78745","MONDAY","A"
"8405",,,"EMPRESS","BLVD",,,"AUSTIN","TX","78745","MONDAY","A"
"6205",,,"PINO","LN",,,"AUSTIN","TX","78744","MONDAY","A"
"7200",,,"REABURN","ST",,,"AUSTIN","TX","78749","MONDAY","A"
"3423",,,"HARPERS FERRY","LN",,,"AUSTIN","TX","78745","MONDAY","A"
"7907",,,"WYCOMBE","DR",,,"AUSTIN","TX","78749","MONDAY","A"
"8721",,,"CORRAN FERRY","DR",,,"AUSTIN","TX","78749","MONDAY","A"
"4216",,,"DOS CABEZAS","DR",,,"AUSTIN","TX","78749","MONDAY","A"
"3406",,,"CLARKSBURG","DR",,,"AUSTIN","TX","78745","MONDAY","A"
"5513",,,"WASSAIL","ST",,,"AUSTIN","TX","78744","MONDAY","A"
"6107",,,"SOFTWOOD","DR",,,"AUSTIN","TX","78744","MONDAY","A"
"8008",,"B","WEST GATE","BLVD",,,"AUSTIN","TX","78745","MONDAY","A"
"4802",,,"FLICKER","LN",,,"AUSTIN","TX","78744","MONDAY","A"
"6205",,,"AVIARY","CV",,,"AUSTIN","TX","78744","MONDAY","A"
"3110",,"A","PLANTATION","RD",,,"AUSTIN","TX","78745","MONDAY","A"
"3505",,"B","HARPERS FERRY","LN",,,"AUSTIN","TX","78749","MONDAY","A"
"7602",,,"WORDHAM","DR",,,"AUSTIN","TX","78749","MONDAY","A"
"5816",,,"ABILENE","TRL",,,"AUSTIN","TX","78749","MONDAY","A"
"7505",,"B","ST AMANT","PL",,,"AUSTIN","TX","78749","MONDAY","A"
"5004",,,"BRASSIEWOOD","DR",,,"AUSTIN","TX","78744","MONDAY","A"
"7903",,,"DONCASTER","DR",,,"AUSTIN","TX","78745","MONDAY","A"
"6810",,,"1ST","ST","S","UNIT 101","AUSTIN","TX","78745","MONDAY","A"
"2013",,,"WAGON CROSSING","PATH",,,"AUSTIN","TX","78744","MONDAY","A"
"7906",,"A","BRODIE","LN",,,"AUSTIN","TX","78749","MONDAY","A"
"5929",,,"SHANGHAI PIERCE","RD",,,"AUSTIN","TX","78749","MONDAY","A"
"4408",,,"DOVEWOOD","DR",,,"AUSTIN","TX","78744","MONDAY","A"
"4511",,,"DOVE SPRINGS","DR",,,"AUSTIN","TX","78744","MONDAY","A"
"4501",,,"DOVE SPRINGS","DR",,,"AUSTIN","TX","78744","MONDAY","A"
