"the_geom","asset_cate","external_i","asset_id","asset_name","asset_clas","asset_sub_","asset_type","asset_su00","region","suburb","signal_loc","fixed_sign","status","commission","connection","modificati","latest_rep","service_pr","cctv_camer","bluetooth_","constructi","ownership","maintained","asset_hand","latitude","longitude"
"POINT (149.1349374733637 -35.18553368049308)","Signals","11124223","TSSI317","Site 317  CROSS","ROAD INFRASTRUCTURE","ELECTRICAL AND MECHANICAL","TRAFFIC SIGNAL SITE","CROSS","GUNGAHLIN","GUNGAHLIN",,"YES","ACTIVE/IN SERVICE","20180420000000","20180420000000",,,,"NO","NO",,"ROADS_ACT","ROADS_ACT",,"-35.1855419987","149.134932118"
"POINT (149.03501311893862 -35.22781170067774)","Signals","740506","TSSI39","Site 39 SOUTHERN CROSS DR / KINGSFORD SMITH DR, SCULLIN CROSS","ROAD INFRASTRUCTURE","ELECTRICAL AND MECHANICAL","TRAFFIC SIGNAL SITE","CROSS","BELCONNEN","LATHAM","SOUTHERN CROSS DR / KINGSFORD SMITH DR, SCULLIN","YES","ACTIVE/IN SERVICE","19730323000000","19921223000000",,"19921127000000","TELSTRA","NO","YES","19730323000000","ROADS_ACT","ROADS_ACT","GIFTED","-35.2278200944","149.035007436"
"POINT (149.02833281464146 -35.29888920342357)","Signals","10772893","TSSI292","Site 292  TEE","ROAD INFRASTRUCTURE","ELECTRICAL AND MECHANICAL","TRAFFIC SIGNAL SITE","TEE","WODEN","DENMAN PROSPECT",,"YES","ACTIVE/IN SERVICE",,,,,,"NO","NO",,,,"GIFTED","-35.2988977718","149.028327108"
"POINT (149.07576819510544 -35.239608996884684)","Signals","740806","TSSI203","Site 203 AIKMAN DR / EMU BANK, BELCONNEN TEE","ROAD INFRASTRUCTURE","ELECTRICAL AND MECHANICAL","TRAFFIC SIGNAL SITE","TEE","BELCONNEN","BELCONNEN","AIKMAN DR / EMU BANK, BELCONNEN","YES","ACTIVE/IN SERVICE","20050224000000","20041216000000",,,"TELSTRA","NO","NO","20050224000000","ROADS_ACT","ROADS_ACT","GIFTED","-35.2396173548","149.075762588"
"POINT (149.12459843660727 -35.283606331839614)","Signals","740498","TSSI31","Site 31 MARCUS CLARKE ST / EDINBURGH AVE, ACTON CROSS","ROAD INFRASTRUCTURE","ELECTRICAL AND MECHANICAL","TRAFFIC SIGNAL SITE","CROSS","CITY","CITY","MARCUS CLARKE ST / EDINBURGH AVE, ACTON","YES","ACTIVE/IN SERVICE","19721020000000","19840531000000","20010316000000","20010316000000","TELSTRA","NO","NO","19721020000000","ROADS_ACT","ROADS_ACT","CAPITAL WORKS","-35.2836146929","149.124592841"
"POINT (149.07896847939057 -35.423640745491056)","Signals","10053253","TSSI290","Site 290 ISABELLA DR / DRAKFORD DR PART TIME","ROAD INFRASTRUCTURE","ELECTRICAL AND MECHANICAL","TRAFFIC SIGNAL SITE","PART TIME","WODEN","ISABELLA PLAINS","ISABELLA DR / DRAKFORD DR","YES","ACTIVE/IN SERVICE","20150624000000","20150610000000",,,"TELSTRA","NO","YES","20150624000000","ROADS_ACT","ROADS_ACT","GIFTED","-35.4236491757","149.078962832"
"POINT (149.06851402179848 -35.23994943830226)","Signals","9084290","TSSI1038","Site 1038 COHEN ST PEDS, BELCONNEN PEDESTRIAN","ROAD INFRASTRUCTURE","ELECTRICAL AND MECHANICAL","TRAFFIC SIGNAL SITE","PEDESTRIAN","BELCONNEN","BELCONNEN","COHEN ST PEDS, BELCONNEN","YES","ACTIVE/IN SERVICE","20101115000000","20101115000000",,,"TELSTRA","NO","NO","20101115000000","ROADS_ACT","ROADS_ACT","CAPITAL WORKS","-35.2399578139","149.0685084"
"POINT (149.1492400425371 -35.20087276589969)","Signals","4287238","TSSI216","Site 216 FLEMINGTON DR / NULLABOR AVE, HARRISON CROSS","ROAD INFRASTRUCTURE","ELECTRICAL AND MECHANICAL","TRAFFIC SIGNAL SITE","CROSS","BELCONNEN","FRANKLIN","FLEMINGTON DR / NULLABOR AVE, HARRISON","YES","ACTIVE/IN SERVICE","20061105000000","20070808000000",,,"TELSTRA","NO","NO","20061105000000","ROADS_ACT","ROADS_ACT","GIFTED","-35.2008810972","149.14923468"
"POINT (149.08747715845993 -35.341382201113454)","Signals","740576","TSSI75","Site 75 LAUNCESTON ST / CALLAM ST, PHILLIP TEE","ROAD INFRASTRUCTURE","ELECTRICAL AND MECHANICAL","TRAFFIC SIGNAL SITE","TEE","WODEN","PHILLIP","LAUNCESTON ST / CALLAM ST, PHILLIP","YES","ACTIVE/IN SERVICE","19781201000000","19800905000000","20020722000000","19781201000000","TELSTRA","NO","NO","19781201000000","ROADS_ACT","ROADS_ACT","GIFTED","-35.3413906291","149.087471545"
"POINT (149.0879548907613 -35.25158748238436)","Signals","4299894","TSSI193","Site 193 HAYDON DR / JAEGER CCT, BRUCE TEE","ROAD INFRASTRUCTURE","ELECTRICAL AND MECHANICAL","TRAFFIC SIGNAL SITE","TEE","BELCONNEN","BRUCE","HAYDON DR / JAEGER CCT, BRUCE","YES","ACTIVE/IN SERVICE","20051130000000","20041202000000",,,"TELSTRA","NO","NO","20051130000000","ROADS_ACT","ROADS_ACT","CAPITAL WORKS","-35.2515958241","149.087949313"
"POINT (149.08416547002048 -35.348766095355465)","Signals","740471","TSSI16","Site 16 HINDMARSH DR / MELROSE DR, CHIFLEY CROSS","ROAD INFRASTRUCTURE","ELECTRICAL AND MECHANICAL","TRAFFIC SIGNAL SITE","CROSS","WODEN","CHIFLEY","HINDMARSH DR / MELROSE DR, CHIFLEY","YES","ACTIVE/IN SERVICE","19701123000000","19850614000000","20090506000000","20090506000000","TELSTRA","NO","YES","19701123000000","ROADS_ACT","ROADS_ACT","GIFTED","-35.3487745364","149.084159849"
"POINT (149.12507524318644 -35.27527855942929)","Signals","9416851","TSSI268","Site 268 BARRY DR / KINGLEY ST, TURNER TEE","ROAD INFRASTRUCTURE","ELECTRICAL AND MECHANICAL","TRAFFIC SIGNAL SITE","TEE","CITY","ACTON","BARRY DR / KINGLEY ST, TURNER","YES","ACTIVE/IN SERVICE","20130316000000","20130316000000",,,"TELSTRA","NO","NO","20130316000000","ROADS_ACT","ROADS_ACT","CAPITAL WORKS","-35.2752869014","149.125069652"
"POINT (149.13245642964276 -35.20685956979672)","Signals","740727","TSSI157","Site 157 GUNGAHLIN DR / WELLS STATION RD, MITCHELL TEE","ROAD INFRASTRUCTURE","ELECTRICAL AND MECHANICAL","TRAFFIC SIGNAL SITE","TEE","BELCONNEN","GUNGAHLIN (RURAL DIST.)","GUNGAHLIN DR / WELLS STATION RD, MITCHELL","YES","ACTIVE/IN SERVICE","19971211000000","19971107000000",,"19971211000000","TELSTRA","YES","YES","19971211000000","ROADS_ACT","ROADS_ACT","CAPITAL WORKS","-35.2068679088","149.132450999"
"POINT (149.12788303645382 -35.260046306018545)","Signals","740826","TSSI1012","Site 1012 MACARTHUR AV, OCONNOR PEDESTRIAN","ROAD INFRASTRUCTURE","ELECTRICAL AND MECHANICAL","TRAFFIC SIGNAL SITE","PEDESTRIAN","CITY","O""CONNOR","MACARTHUR AV, OCONNOR","YES","ACTIVE/IN SERVICE","19731219000000","19891121000000","20040817000000","20080916000000","TELSTRA","NO","NO","19731219000000","ROADS_ACT","ROADS_ACT","CAPITAL WORKS","-35.2600546234","149.127877477"
"POINT (149.13244954772904 -35.28406331032255)","Signals","740608","TSSI98","Site 98 CONSTITUTION AV / ALLARA ST, CITY CROSS","ROAD INFRASTRUCTURE","ELECTRICAL AND MECHANICAL","TRAFFIC SIGNAL SITE","CROSS","CITY","CITY","CONSTITUTION AV / ALLARA ST, CITY","YES","ACTIVE/IN SERVICE","19861002000000","19870911000000",,"19861002000000","TELSTRA","NO","NO","19861002000000","NCA","NCA","GIFTED","-35.2840716652","149.132443962"
"POINT (149.22135979528952 -35.341168044569294)","Signals","2981610","TSSI195","Site 195 OAKS ESTATE RD / RAILWAY ST, OAKS ESTATE TEE","ROAD INFRASTRUCTURE","ELECTRICAL AND MECHANICAL","TRAFFIC SIGNAL SITE","TEE","WODEN","JERRABOMBERRA (RURAL DIST.)","OAKS ESTATE RD / RAILWAY ST, OAKS ESTATE","YES","ACTIVE/IN SERVICE","20051214000000","20051118000000",,,"TELSTRA","NO","NO","20051214000000","ROADS_ACT","ROADS_ACT","GIFTED","-35.3411764683","149.221354585"
"POINT (149.15090567449468 -35.19387128792301)","Signals","9084211","TSSI230","Site 230 FLEMMINGTON RD / MANNING CLARK CR SOUTH, FRANKLIN CROSS","ROAD INFRASTRUCTURE","ELECTRICAL AND MECHANICAL","TRAFFIC SIGNAL SITE","CROSS","BELCONNEN","FRANKLIN","FLEMMINGTON RD / MANNING CLARK CR SOUTH, FRANKLIN","YES","ACTIVE/IN SERVICE","20100831000000","20100831000000",,,"TELSTRA","NO","YES","20100831000000","ROADS_ACT","ROADS_ACT","CAPITAL WORKS","-35.1938796143","149.150900347"
"POINT (149.12568640749896 -35.1579994120446)","Signals","9465082","TSSI274","Site 274 HORSE PARK DR / APPLEFORD AVE / MONCRIEF AVE, JACKA CROSS","ROAD INFRASTRUCTURE","ELECTRICAL AND MECHANICAL","TRAFFIC SIGNAL SITE","CROSS","BELCONNEN","JACKA","HORSE PARK DR / APPLEFORD AVE / MONCRIEF AVE, JACKA","YES","ACTIVE/IN SERVICE","20130828000000","20140708000000",,,"TELSTRA","NO","NO","20140715000000","ROADS_ACT","ROADS_ACT","CAPITAL WORKS","-35.15800767","149.12568101"
"POINT (149.14524362235744 -35.27863179601419)","Signals","740840","TSSI1018","Site 1018 LIMESTONE AV, CAMPBELL PEDESTRIAN","ROAD INFRASTRUCTURE","ELECTRICAL AND MECHANICAL","TRAFFIC SIGNAL SITE","PEDESTRIAN","CITY","REID","LIMESTONE AV, CAMPBELL","YES","ACTIVE/IN SERVICE","19850805000000","19850802000000","20020722000000","19850805000000","TELSTRA","NO","NO","19850805000000","ROADS_ACT","ROADS_ACT","GIFTED","-35.2786401251","149.145238049"
"POINT (149.1128718521005 -35.277406693290686)","Signals","4287193","TSSI218","Site 218 CLUNIES ROSS ST / DICKSON RD, ACTON TEE","ROAD INFRASTRUCTURE","ELECTRICAL AND MECHANICAL","TRAFFIC SIGNAL SITE","TEE","CITY","ACTON","CLUNIES ROSS ST / DICKSON RD, ACTON","YES","ACTIVE/IN SERVICE","20070504000000","20070504000000",,,"TELSTRA","NO","NO","20070504000000","ROADS_ACT","ROADS_ACT","GIFTED","-35.2774150526","149.112866242"
"POINT (149.05791993770563 -35.32209268501743)","Signals","9277356","TSSI253","Site 253 COTTER RD / KIRKPATRICK ST CROSS","ROAD INFRASTRUCTURE","ELECTRICAL AND MECHANICAL","TRAFFIC SIGNAL SITE","CROSS","WODEN","WESTON","COTTER RD / KIRKPATRICK ST","YES","ACTIVE/IN SERVICE","20121213000000","20121205000000",,,"TELSTRA","NO","NO","20121213000000","ROADS_ACT","ROADS_ACT","CAPITAL WORKS","-35.3221012197","149.057914308"
"POINT (149.08848493435912 -35.34576331111914)","Signals","740648","TSSI116","Site 116 CALLAM ST / NEPTUNE ST, PHILLIP CROSS","ROAD INFRASTRUCTURE","ELECTRICAL AND MECHANICAL","TRAFFIC SIGNAL SITE","CROSS","WODEN","PHILLIP","CALLAM ST / NEPTUNE ST, PHILLIP","YES","ACTIVE/IN SERVICE","19871217000000","19800812000000",,"19871217000000","TELSTRA","NO","NO","19871217000000","ROADS_ACT","ROADS_ACT","GIFTED","-35.3457717391","149.088479316"
"POINT (149.11471294056315 -35.15272605147361)","Signals","9810454","TSSI273","Site 273 HORSE PARK DR / MIRRABEI DR, CASEY TEE","ROAD INFRASTRUCTURE","ELECTRICAL AND MECHANICAL","TRAFFIC SIGNAL SITE","TEE","BELCONNEN","TAYLOR","HORSE PARK DR / MIRRABEI DR, CASEY","YES","ACTIVE/IN SERVICE","20140715000000","20140521000000","20170711000000",,"TELSTRA","NO","NO","20140715000000","ROADS_ACT","ROADS_ACT","CAPITAL WORKS","-35.1527343109","149.114707443"
"POINT (149.1345099012132 -35.277388590190796)","Signals","740564","TSSI65","Site 65 SCOTTS / COOYONG  TEE","ROAD INFRASTRUCTURE","ELECTRICAL AND MECHANICAL","TRAFFIC SIGNAL SITE","TEE","CITY","CITY","SCOTTS / COOYONG","YES","ACTIVE/IN SERVICE","19780202000000","19840110000000",,"19780202000000","TELSTRA","NO","NO","19780202000000","ROADS_ACT","ROADS_ACT","GIFTED","-35.277396927","149.134504317"
"POINT (149.14686762589142 -35.254193203610086)","Signals","740812","TSSI1003","Site 1003 MAJURA AV, AINSLIE PEDESTRIAN","ROAD INFRASTRUCTURE","ELECTRICAL AND MECHANICAL","TRAFFIC SIGNAL SITE","PEDESTRIAN","CITY","DICKSON","MAJURA AV, AINSLIE","YES","ACTIVE/IN SERVICE","19670913000000","20050727000000","20050727000000","20050412000000","TELSTRA","NO","NO","19670913000000","ROADS_ACT","ROADS_ACT","GIFTED","-35.2542015023","149.146862093"
"POINT (149.15693993732256 -35.246191930443665)","Signals","9085553","TSSI1039","Site 1039 ANTILL ST (WEST OF FLEMMING ST), WATSON PEDESTRIAN","ROAD INFRASTRUCTURE","ELECTRICAL AND MECHANICAL","TRAFFIC SIGNAL SITE","PEDESTRIAN","CITY","WATSON","ANTILL ST (WEST OF FLEMMING ST), WATSON","YES","ACTIVE/IN SERVICE","20111118000000","20111117000000",,,"TELSTRA","NO","NO","20111118000000","ROADS_ACT","ROADS_ACT","GIFTED","-35.2462002155","149.15693444"
"POINT (149.08791451227927 -35.326601392703175)","Signals","740761","TSSI176","Site 176 YARRA GLEN / CARRUTHERS ST, CURTIN (SOUTHBOUND) CROSS","ROAD INFRASTRUCTURE","ELECTRICAL AND MECHANICAL","TRAFFIC SIGNAL SITE","CROSS","WODEN","HUGHES","YARRA GLEN / CARRUTHERS ST, CURTIN (SOUTHBOUND)","YES","ACTIVE/IN SERVICE","20010530000000","20011215000000","20010530000000","20010530000000","TELSTRA","NO","NO","20010530000000","ROADS_ACT","ROADS_ACT","CAPITAL WORKS","-35.3266098403","149.087908895"
"POINT (149.14678929949343 -35.29262897122634)","Signals","740734","TSSI161","Site 161 CONSTITUTION AVE / RUSSELL DR, RUSSELL CROSS","ROAD INFRASTRUCTURE","ELECTRICAL AND MECHANICAL","TRAFFIC SIGNAL SITE","CROSS","CITY","CAMPBELL","CONSTITUTION AVE / RUSSELL DR, RUSSELL","YES","ACTIVE/IN SERVICE","19971219000000","19971218000000",,"19971219000000","TELSTRA","NO","NO","19971219000000","NCA","NCA","GIFTED","-35.2926373338","149.146783736"
"POINT (149.17810188029497 -35.330937131165115)","Signals","740688","TSSI135","Site 135 NEWCASTLE ST / BARRIER ST / COLLIE ST, FYSHWICK CROSS","ROAD INFRASTRUCTURE","ELECTRICAL AND MECHANICAL","TRAFFIC SIGNAL SITE","CROSS","WODEN","FYSHWICK","NEWCASTLE ST / BARRIER ST / COLLIE ST, FYSHWICK","YES","ACTIVE/IN SERVICE","19890727000000","19900101000000","20021217000000","19890727000000","TELSTRA","NO","NO","19890727000000","ROADS_ACT","ROADS_ACT","GIFTED","-35.3309454615","149.17809639"
"POINT (149.0899251129687 -35.34895897940633)","Signals","740602","TSSI93","Site 93 HINDMARSH DR / ATHLLON DR, PHILLIP CROSS","ROAD INFRASTRUCTURE","ELECTRICAL AND MECHANICAL","TRAFFIC SIGNAL SITE","CROSS","WODEN","PHILLIP","HINDMARSH DR / ATHLLON DR, PHILLIP","YES","ACTIVE/IN SERVICE","19790823000000","19800614000000","20020818000000","20020818000000","TELSTRA","NO","NO","19790823000000","ROADS_ACT","ROADS_ACT","GIFTED","-35.3489674059","149.089919492"
"POINT (149.14682953973835 -35.21242953573948)","Signals","11165029","TSSI86","Site 86  CROSS","ROAD INFRASTRUCTURE","ELECTRICAL AND MECHANICAL","TRAFFIC SIGNAL SITE","CROSS","BELCONNEN","KENNY",,"YES","ACTIVE/IN SERVICE",,,,,,,,,,,,"-35.2124378752","149.146824121"
"POINT (149.12979665225316 -35.28259385273945)","Signals","10449597","TSSI302","Site 302 CONSTITUTION AV / VERNON CIR TEE","ROAD INFRASTRUCTURE","ELECTRICAL AND MECHANICAL","TRAFFIC SIGNAL SITE","TEE","CITY","CITY","CONSTITUTION AV / VERNON CIR","YES","ACTIVE/IN SERVICE","20160929000000","20160929000000",,,"TELSTRA","YES","NO","20160929000000","NCA","NCA","CAPITAL WORKS","-35.2826022062","149.129791062"
"POINT (149.1474385008391 -35.20861521191282)","Signals","9084198","TSSI221","Site 221 FLEMINGTON RD / WELL STATION DR, KENNY CROSS","ROAD INFRASTRUCTURE","ELECTRICAL AND MECHANICAL","TRAFFIC SIGNAL SITE","CROSS","BELCONNEN","HARRISON","FLEMINGTON RD / WELL STATION DR, KENNY","YES","ACTIVE/IN SERVICE","20080708000000","20080101000000",,"20100702000000","TELSTRA","YES","YES","20080708000000","ROADS_ACT","ROADS_ACT","GIFTED","-35.2086235487","149.1474331"
"POINT (149.209828351966 -35.344201203689835)","Signals","9084224","TSSI243","Site 243 NORSE RD / COOPER ST, BEARD TEE","ROAD INFRASTRUCTURE","ELECTRICAL AND MECHANICAL","TRAFFIC SIGNAL SITE","TEE","WODEN","BEARD","NORSE RD / COOPER ST, BEARD","YES","ACTIVE/IN SERVICE","20101104000000","20101014000000",,,"TELSTRA","NO","NO","20101104000000","ROADS_ACT","ROADS_ACT","GIFTED","-35.3442096367","149.209823055"
"POINT (149.161858058915 -35.33051371709797)","Signals","740458","TSSI8","Site 8 CANBERRA AV / IPSWICH ST, FYSHWICK CROSS","ROAD INFRASTRUCTURE","ELECTRICAL AND MECHANICAL","TRAFFIC SIGNAL SITE","CROSS","WODEN","SYMONSTON","CANBERRA AV / IPSWICH ST, FYSHWICK","YES","ACTIVE/IN SERVICE","19680920000000","19890725000000",,"19881111000000","TELSTRA","NO","YES","19680920000000","ROADS_ACT","ROADS_ACT","CAPITAL WORKS","-35.3305220527","149.161852531"
"POINT (149.13714148768383 -35.18589933461971)","Signals","11165030","TSSI275","Site 275  CROSS","ROAD INFRASTRUCTURE","ELECTRICAL AND MECHANICAL","TRAFFIC SIGNAL SITE","CROSS","BELCONNEN","GUNGAHLIN",,"YES","ACTIVE/IN SERVICE",,,,,,,,,,,,"-35.1859076533","149.13713614"
"POINT (149.132833947806 -35.318090796718)","Signals","740818","TSSI1005","Site 1005 CANBERRA AV, KINGSTON PEDESTRIAN","ROAD INFRASTRUCTURE","ELECTRICAL AND MECHANICAL","TRAFFIC SIGNAL SITE","PEDESTRIAN","CITY","GRIFFITH","CANBERRA AV, KINGSTON","YES","ACTIVE/IN SERVICE","19910704000000","19910913000000","20010507000000","20140121000000","TELSTRA","NO","NO","19910704000000","ROADS_ACT","ROADS_ACT","GIFTED","-35.3180991853","149.132828364"
"POINT (149.09261586571301 -35.364349910908324)","Signals","740552","TSSI61","Site 61 ATHLLON DR / MAWSON DR, TORRENS CROSS","ROAD INFRASTRUCTURE","ELECTRICAL AND MECHANICAL","TRAFFIC SIGNAL SITE","CROSS","WODEN","TORRENS","ATHLLON DR / MAWSON DR, TORRENS","YES","ACTIVE/IN SERVICE","19770928000000","19800611000000",,"19930217000000","TELSTRA","NO","NO","19770928000000","ROADS_ACT","ROADS_ACT","GIFTED","-35.3643583455","149.092610234"
"POINT (149.1380744759978 -35.248642265242225)","Signals","10073556","TSSI298","Site 298 ANTILL ST / BADHAM ST TEE","ROAD INFRASTRUCTURE","ELECTRICAL AND MECHANICAL","TRAFFIC SIGNAL SITE","TEE","CITY","DICKSON","ANTILL ST / BADHAM ST","YES","ACTIVE/IN SERVICE","20151029000000","20151113000000",,,"TELSTRA","NO","NO","20151029000000","ROADS_ACT","ROADS_ACT","CAPITAL WORKS","-35.2486505614","149.138068945"
"POINT (149.16368128127098 -35.340686093651314)","Signals","740684","TSSI134","Site 134 HINDMARSH DR / MONARO HWY (STHRAMP), SYMONSTON CROSS","ROAD INFRASTRUCTURE","ELECTRICAL AND MECHANICAL","TRAFFIC SIGNAL SITE","CROSS","WODEN","SYMONSTON","HINDMARSH DR / MONARO HWY (STHRAMP), SYMONSTON","YES","ACTIVE/IN SERVICE","19890802000000","19900101000000","20021216000000","19890802000000","TELSTRA","NO","YES","19890802000000","ROADS_ACT","ROADS_ACT","GIFTED","-35.340694425","149.163675762"
"POINT (149.1512122306201 -35.30103486748279)","Signals","740883","TSSI2006","Site 2006 RUSSELL DR FLASHING LIGHTS, RUSSELL PEDESTRIAN","ROAD INFRASTRUCTURE","ELECTRICAL AND MECHANICAL","TRAFFIC SIGNAL SITE","PEDESTRIAN","CITY","RUSSELL","RUSSELL DR FLASHING LIGHTS, RUSSELL","YES","ACTIVE/IN SERVICE","20010907000000",,,,,"NO","NO","20010907000000","NCA","NCA","GIFTED","-35.3010432461","149.151206679"
"POINT (149.0807812594357 -35.313871665472064)","Signals","740783","TSSI186","Site 186 COTTOR RD / MCCULLOCH ST, CURTIN TEE","ROAD INFRASTRUCTURE","ELECTRICAL AND MECHANICAL","TRAFFIC SIGNAL SITE","TEE","WODEN","WESTON CREEK (RURAL DIST.)","COTTOR RD / MCCULLOCH ST, CURTIN","YES","ACTIVE/IN SERVICE","20031104000000","20031016000000",,,"TELSTRA","NO","NO","20031104000000","ROADS_ACT","ROADS_ACT","CAPITAL WORKS","-35.3138801567","149.080775631"
"POINT (149.07552844902457 -35.18400770712208)","Signals","9151718","TSSI245","Site 245 BARTON HWY / KURINGA DR / CLARRIE HERMES DR, NICHOLLS CROSS","ROAD INFRASTRUCTURE","ELECTRICAL AND MECHANICAL","TRAFFIC SIGNAL SITE","CROSS","BELCONNEN","BELCONNEN (RURAL DIST.)","BARTON HWY / KURINGA DR / CLARRIE HERMES DR, NICHOLLS","YES","ACTIVE/IN SERVICE","20111220000000","20121212000000",,,,"NO","YES","20111220000000","ROADS_ACT","ROADS_ACT","CAPITAL WORKS","-35.1840160348","149.075522869"
"POINT (149.1616389023133 -35.19425392666107)","Signals","10768580","TSSI276","Site 276 HORSE PARK DR / MAPLETON AV CROSS","ROAD INFRASTRUCTURE","ELECTRICAL AND MECHANICAL","TRAFFIC SIGNAL SITE","CROSS","GUNGAHLIN","HARRISON","HORSE PARK DR / MAPLETON AV","YES","ACTIVE/IN SERVICE","20170523000000",,,,,"NO","NO","20170523000000","ROADS_ACT","ROADS_ACT","GIFTED","-35.1942622098","149.16163355"
"POINT (149.1297420554685 -35.31434543076147)","Signals","740707","TSSI146","Site 146 CANBERRA AV / NATIONAL CIRCUIT, FORREST CROSS","ROAD INFRASTRUCTURE","ELECTRICAL AND MECHANICAL","TRAFFIC SIGNAL SITE","CROSS","CITY","FORREST","CANBERRA AV / NATIONAL CIRCUIT, FORREST","YES","ACTIVE/IN SERVICE","19901221000000","19910913000000",,"19901221000000","TELSTRA","NO","NO","19901221000000","ROADS_ACT","ROADS_ACT","GIFTED","-35.314353834","149.129736471"
"POINT (149.13468497182114 -35.322416203465785)","Signals","740769","TSSI180","Site 180 CAPTAIN COOK CRES / STUART ST, GRIFFITH CROSS","ROAD INFRASTRUCTURE","ELECTRICAL AND MECHANICAL","TRAFFIC SIGNAL SITE","CROSS","CITY","GRIFFITH","CAPTAIN COOK CRES / STUART ST, GRIFFITH","YES","ACTIVE/IN SERVICE","20011003000000","20011003000000",,,"TELSTRA","NO","NO","20011003000000","ROADS_ACT","ROADS_ACT","GIFTED","-35.3224245772","149.134679387"
"POINT (149.16802410461884 -35.3226525004746)","Signals","740696","TSSI139","Site 139 NEWCASTLE ST / MONARO HWY (STH RAMP) TEE","ROAD INFRASTRUCTURE","ELECTRICAL AND MECHANICAL","TRAFFIC SIGNAL SITE","TEE","WODEN","FYSHWICK","NEWCASTLE ST / MONARO HWY (STH RAMP)","YES","ACTIVE/IN SERVICE","19900704000000","19900704000000","20030305000000","19900704000000","TELSTRA","NO","NO","19900704000000","ROADS_ACT","ROADS_ACT","CAPITAL WORKS","-35.3226608395","149.168018588"
"POINT (149.14496099438378 -35.23227467071052)","Signals","11165018","TSSI73","Site 73  CROSS","ROAD INFRASTRUCTURE","ELECTRICAL AND MECHANICAL","TRAFFIC SIGNAL SITE","CROSS","BELCONNEN","LYNEHAM",,"YES","ACTIVE/IN SERVICE",,,,,,,,,,,,"-35.2322829911","149.144955511"
"POINT (149.06172536559802 -35.38625905686624)","Signals","740532","TSSI55","Site 55 DRAKEFORD DR / OHALLORAN CIR (NTH), KAMBAH CROSS","ROAD INFRASTRUCTURE","ELECTRICAL AND MECHANICAL","TRAFFIC SIGNAL SITE","CROSS","WODEN","KAMBAH","DRAKEFORD DR / OHALLORAN CIR (NTH), KAMBAH","YES","ACTIVE/IN SERVICE","19770421000000","19801212000000","20020722000000","19890922000000","TELSTRA","NO","NO","19770421000000","ROADS_ACT","ROADS_ACT","GIFTED","-35.3862675292","149.061719701"
"POINT (149.126295729062 -35.31213735943318)","Signals","740477","TSSI21","Site 21 STATE CIRCLE / CANBERRA AV, FORREST CROSS","ROAD INFRASTRUCTURE","ELECTRICAL AND MECHANICAL","TRAFFIC SIGNAL SITE","CROSS","CITY","FORREST","STATE CIRCLE / CANBERRA AV, FORREST","YES","ACTIVE/IN SERVICE","19710803000000","19850212000000",,"19840703000000","TELSTRA","NO","YES","19710803000000","ROADS_ACT","ROADS_ACT","GIFTED","-35.3121457734","149.126290142"
"POINT (149.13386497504365 -35.28493272088092)","Signals","10351660","TSSI1044","Site 1044 CONSTITUTION AV PEDS (AT CONVENTION CENTRE) PEDESTRIAN","ROAD INFRASTRUCTURE","ELECTRICAL AND MECHANICAL","TRAFFIC SIGNAL SITE","PEDESTRIAN","CITY","CITY","CONSTITUTION AV PEDS (AT CONVENTION CENTRE)","YES","ACTIVE/IN SERVICE","20160202000000",,,,"TELSTRA","NO","NO","20160217000000","NCA","NCA","GIFTED","-35.2849410767","149.133859391"
"POINT (149.071394613133 -35.23961388417272)","Signals","9084232","TSSI249","Site 249 EMU BANK / COHEN ST, BELCONNEN TEE","ROAD INFRASTRUCTURE","ELECTRICAL AND MECHANICAL","TRAFFIC SIGNAL SITE","TEE","BELCONNEN","BELCONNEN","EMU BANK / COHEN ST, BELCONNEN","YES","ACTIVE/IN SERVICE","20101115000000","20101115000000",,,"TELSTRA","NO","NO","20101115000000","ROADS_ACT","ROADS_ACT","CAPITAL WORKS","-35.2396222526","149.071388998"
"POINT (149.12590741726055 -35.24041491769725)","Signals","740759","TSSI175","Site 175 ELLENBOROUGH ST / CROSSINGTON SMITH CRES, LYNEHAM TEE","ROAD INFRASTRUCTURE","ELECTRICAL AND MECHANICAL","TRAFFIC SIGNAL SITE","TEE","CITY","LYNEHAM","ELLENBOROUGH ST / CROSSINGTON SMITH CRES, LYNEHAM","YES","ACTIVE/IN SERVICE","20000411000000","20000502000000",,,"TELSTRA","NO","NO","20000411000000","ROADS_ACT","ROADS_ACT","GIFTED","-35.2404232318","149.125901892"
"POINT (149.07720079436203 -35.424144960762526)","Signals","740638","TSSI109","Site 109 ATHLLON DR / DRAKEFORD DR , GREENWAY PART TIME","ROAD INFRASTRUCTURE","ELECTRICAL AND MECHANICAL","TRAFFIC SIGNAL SITE","PART TIME","WODEN","BONYTHON","ATHLLON DR / DRAKEFORD DR , GREENWAY","YES","ACTIVE/IN SERVICE","20050919000000","20050912000000",,,"TELSTRA","NO","NO","20050919000000","ROADS_ACT","ROADS_ACT","GIFTED","-35.4241533895","149.077195142"
"POINT (149.23083462149347 -35.328966147266094)","Signals","10442656","TSSI301","Site 301 PIALLIGO AV / OAKS ESTATE RD TEE","ROAD INFRASTRUCTURE","ELECTRICAL AND MECHANICAL","TRAFFIC SIGNAL SITE","TEE","CITY","MAJURA (RURAL DIST.)","PIALLIGO AV / OAKS ESTATE RD","YES","ACTIVE/IN SERVICE","20160519000000","20160606000000",,"20160519000000",,"NO","NO","20160519000000","ROADS_ACT","ROADS_ACT","CAPITAL WORKS","-35.328974528","149.230829452"
"POINT (149.06748973761637 -35.2479341847301)","Signals","740565","TSSI66","Site 66 BELCONNEN WAY / BENJAMIN WAY, BELCONNEN TEE","ROAD INFRASTRUCTURE","ELECTRICAL AND MECHANICAL","TRAFFIC SIGNAL SITE","TEE","BELCONNEN","BELCONNEN","BELCONNEN WAY / BENJAMIN WAY, BELCONNEN","YES","ACTIVE/IN SERVICE","19780227000000","19850808000000","20050310000000","20050310000000","TELSTRA","NO","NO","19780227000000","ROADS_ACT","ROADS_ACT","GIFTED","-35.2479425663","149.06748411"
"POINT (149.06340883131202 -35.23927942390814)","Signals","9084220","TSSI239","Site 239 LATHLAIN ST / COHEN ST, BELCONNEN TEE","ROAD INFRASTRUCTURE","ELECTRICAL AND MECHANICAL","TRAFFIC SIGNAL SITE","TEE","BELCONNEN","BELCONNEN","LATHLAIN ST / COHEN ST, BELCONNEN","YES","ACTIVE/IN SERVICE","20090417000000","20090331000000","20101115000000","20101115000000","TELSTRA","NO","NO","20090417000000","ROADS_ACT","ROADS_ACT","GIFTED","-35.2392878115","149.0634032"
"POINT (149.0686995439904 -35.34831729117202)","Signals","740525","TSSI48","Site 48 HINDMARSH DR / TUGG PKWY (NTH RAMP), WARRAMANGA CROSS","ROAD INFRASTRUCTURE","ELECTRICAL AND MECHANICAL","TRAFFIC SIGNAL SITE","CROSS","WODEN","WARAMANGA","HINDMARSH DR / TUGG PKWY (NTH RAMP), WARRAMANGA","YES","ACTIVE/IN SERVICE","19800201000000","19800619000000","20050412000000","20050412000000","TELSTRA","NO","YES","19800201000000","ROADS_ACT","ROADS_ACT","GIFTED","-35.3483257718","149.068693924"
"POINT (149.18491225487426 -35.213191359765055)","Signals","9951097","TSSI271","Site 271 FEDERAL HWY OFF RAMP TO HORSE PARK DR TEE","ROAD INFRASTRUCTURE","ELECTRICAL AND MECHANICAL","TRAFFIC SIGNAL SITE","TEE","BELCONNEN","GUNGAHLIN (RURAL DIST.)","FEDERAL HWY OFF RAMP TO HORSE PARK DR","YES","ACTIVE/IN SERVICE","20150402000000","20150320000000",,,"TELSTRA","NO","NO","20150402000000","ROADS_ACT","ROADS_ACT","CAPITAL WORKS","-35.2131996135","149.184906826"
"POINT (149.1856169837993 -35.29658230699041)","Signals","10773922","TSSI305","Site 305 MEDDHUNG RD / IKEA ACCESS TEE","ROAD INFRASTRUCTURE","ELECTRICAL AND MECHANICAL","TRAFFIC SIGNAL SITE","TEE","CITY","PIALLIGO","MEDDHUNG RD / IKEA ACCESS","YES","ACTIVE/IN SERVICE","20171222000000",,,,,"NO","NO","20171222000000","ROADS_ACT","ROADS_ACT","CAPITAL WORKS","-35.2965906014","149.185611485"
"POINT (149.16366057251656 -35.32811973431683)","Signals","740676","TSSI130","Site 130 IPSWICH ST / WILUNA ST, FYSHWICK TEE","ROAD INFRASTRUCTURE","ELECTRICAL AND MECHANICAL","TRAFFIC SIGNAL SITE","TEE","WODEN","FYSHWICK","IPSWICH ST / WILUNA ST, FYSHWICK","YES","ACTIVE/IN SERVICE","19880928000000","19800928000000",,"19880928000000","TELSTRA","NO","NO","19880928000000","ROADS_ACT","ROADS_ACT","GIFTED","-35.3281280722","149.163655048"
"POINT (149.09033057272526 -35.24199749873889)","Signals","740715","TSSI151","Site 151 HAYDON DR / COLLEGE ST, BRUCE TEE","ROAD INFRASTRUCTURE","ELECTRICAL AND MECHANICAL","TRAFFIC SIGNAL SITE","TEE","BELCONNEN","BRUCE","HAYDON DR / COLLEGE ST, BRUCE","YES","ACTIVE/IN SERVICE","19930430000000","19930603000000",,"19930430000000","TELSTRA","NO","NO","19930430000000","ROADS_ACT","ROADS_ACT","CAPITAL WORKS","-35.2420058234","149.090324999"
"POINT (149.0862906632481 -35.348862772593954)","Signals","740744","TSSI166","Site 166 HINDMASH DR / BALL ST, PHILLIP TEE","ROAD INFRASTRUCTURE","ELECTRICAL AND MECHANICAL","TRAFFIC SIGNAL SITE","TEE","WODEN","PHILLIP","HINDMASH DR / BALL ST, PHILLIP","YES","ACTIVE/IN SERVICE","19980812000000","19900812000000",,"19980812000000","TELSTRA","NO","NO","19980812000000","ROADS_ACT","ROADS_ACT","GIFTED","-35.3488712083","149.086285042"
"POINT (149.14891434963062 -35.18795553006288)","Signals","9084225","TSSI244","Site 244 FLEMINGTON RD / WIZARD ST, GUNGAHLIN TEE","ROAD INFRASTRUCTURE","ELECTRICAL AND MECHANICAL","TRAFFIC SIGNAL SITE","TEE","BELCONNEN","GUNGAHLIN","FLEMINGTON RD / WIZARD ST, GUNGAHLIN","YES","ACTIVE/IN SERVICE","20100831000000","20100831000000",,,"TELSTRA","NO","NO","20100831000000","ROADS_ACT","ROADS_ACT","GIFTED","-35.1879638519","149.148909039"
"POINT (149.13055811643508 -35.27031425165339)","Signals","740667","TSSI125","Site 125 NORTHBOURNE AV / MASSON ST, TURNER CROSS","ROAD INFRASTRUCTURE","ELECTRICAL AND MECHANICAL","TRAFFIC SIGNAL SITE","CROSS","CITY","BRADDON","NORTHBOURNE AV / MASSON ST, TURNER","YES","ACTIVE/IN SERVICE","19881220000000","19890201000000",,"19881220000000","TELSTRA","NO","NO","19881220000000","ROADS_ACT","ROADS_ACT","GIFTED","-35.2703225819","149.130552541"
"POINT (149.13776534286825 -35.26571151428822)","Signals","740499","TSSI32","Site 32 LIMESTONE AV / COWPER ST, AINSLIE CROSS","ROAD INFRASTRUCTURE","ELECTRICAL AND MECHANICAL","TRAFFIC SIGNAL SITE","CROSS","CITY","AINSLIE","LIMESTONE AV / COWPER ST, AINSLIE","YES","ACTIVE/IN SERVICE","19721221000000","19920505000000",,"19920327000000","TELSTRA","NO","NO","19721221000000","ROADS_ACT","ROADS_ACT","GIFTED","-35.265719833","149.137759783"
"POINT (149.06384425779103 -35.41767214293147)","Signals","740864","TSSI1031","Site 1031 ATHLLON DR (NEAR SET 169), GREENWAY PEDESTRIAN","ROAD INFRASTRUCTURE","ELECTRICAL AND MECHANICAL","TRAFFIC SIGNAL SITE","PEDESTRIAN","WODEN","GREENWAY","ATHLLON DR (NEAR SET 169), GREENWAY","YES","ACTIVE/IN SERVICE","20030815000000","20030815000000",,,"TELSTRA","NO","NO","20030815000000","ROADS_ACT","ROADS_ACT","GIFTED","-35.4176805745","149.063838577"
"POINT (149.073804644987 -35.2429869869096)","Signals","740584","TSSI80","Site 80 EASTERN VALLEY WAY / COLLEGE ST, BELCONNEN CROSS","ROAD INFRASTRUCTURE","ELECTRICAL AND MECHANICAL","TRAFFIC SIGNAL SITE","CROSS","BELCONNEN","BRUCE","EASTERN VALLEY WAY / COLLEGE ST, BELCONNEN","YES","ACTIVE/IN SERVICE","19790323000000","19870611000000","20021217000000","19790323000000","TELSTRA","NO","NO","19790323000000","ROADS_ACT","ROADS_ACT","CAPITAL WORKS","-35.2429953514","149.073799034"
"POINT (149.17012573192594 -35.29172962673755)","Signals","740842","TSSI1020","Site 1020 FAIRBAIRN AV / ADFA, CAMPBELL PEDESTRIAN","ROAD INFRASTRUCTURE","ELECTRICAL AND MECHANICAL","TRAFFIC SIGNAL SITE","PEDESTRIAN","CITY","MAJURA (RURAL DIST.)","FAIRBAIRN AV / ADFA, CAMPBELL","YES","ACTIVE/IN SERVICE","19870514000000","19800804000000",,"19870514000000","TELSTRA","NO","NO","19870514000000","ROADS_ACT","ROADS_ACT","GIFTED","-35.291737939","149.170120189"
"POINT (149.11537528684585 -35.25868589567943)","Signals","740465","TSSI12","Site 12 MACARTHUR AV / MILLER ST, O""CONNOR CROSS","ROAD INFRASTRUCTURE","ELECTRICAL AND MECHANICAL","TRAFFIC SIGNAL SITE","CROSS","CITY","O""CONNOR","MACARTHUR AV / MILLER ST, O""CONNOR","YES","ACTIVE/IN SERVICE","19691105000000","19870611000000","20000622000000","20000622000000","TELSTRA","NO","YES","19691105000000","ROADS_ACT","ROADS_ACT","GIFTED","-35.2586942208","149.11536972"
"POINT (149.08286072136886 -35.312989281884626)","Signals","9416854","TSSI236","Site 236 LADY DENMAN DR / COTTER RD TEE","ROAD INFRASTRUCTURE","ELECTRICAL AND MECHANICAL","TRAFFIC SIGNAL SITE","TEE","WODEN","WESTON CREEK (RURAL DIST.)","LADY DENMAN DR / COTTER RD","YES","ACTIVE/IN SERVICE","20130216000000","20130220000000",,,"TELSTRA","NO","YES","20130216000000","ROADS_ACT","ROADS_ACT","CAPITAL WORKS","-35.3129977692","149.082855093"
"POINT (149.06164407070463 -35.411905059281224)","Signals","740750","TSSI170","Site 170 ANKETELL ST / ATHLLON DR, GREENWAY TEE","ROAD INFRASTRUCTURE","ELECTRICAL AND MECHANICAL","TRAFFIC SIGNAL SITE","TEE","WODEN","GREENWAY","ANKETELL ST / ATHLLON DR, GREENWAY","YES","ACTIVE/IN SERVICE","19981118000000","19981118000000","20000829000000","19981118000000","TELSTRA","NO","NO","19981118000000","ROADS_ACT","ROADS_ACT","GIFTED","-35.4119135013","149.061638391"
"POINT (149.16855865889931 -35.37208622852977)","Signals","2981935","TSSI212","Site 212 MONARO HIGHWAY / ALEXANDER MACONAOCHIE CENTRE, HUME TEE","ROAD INFRASTRUCTURE","ELECTRICAL AND MECHANICAL","TRAFFIC SIGNAL SITE","TEE","WODEN","HUME","MONARO HIGHWAY / ALEXANDER MACONAOCHIE CENTRE, HUME","YES","ACTIVE/IN SERVICE","20060220000000","20060213000000",,,"TELSTRA","NO","YES","20060220000000","ROADS_ACT","ROADS_ACT","GIFTED","-35.3720946456","149.168553196"
"POINT (149.05402801262142 -35.21989360955883)","Signals","740569","TSSI70","Site 70 GINNINDERRA DR / JOHN CLELAND CR, FLOREY CROSS","ROAD INFRASTRUCTURE","ELECTRICAL AND MECHANICAL","TRAFFIC SIGNAL SITE","CROSS","BELCONNEN","FLOREY","GINNINDERRA DR / JOHN CLELAND CR, FLOREY","YES","ACTIVE/IN SERVICE","19780814000000","19870611000000",,"19780814000000","TELSTRA","NO","YES","19780814000000","ROADS_ACT","ROADS_ACT","GIFTED","-35.2199019936","149.054022379"
"POINT (149.06942111755305 -35.41797917784767)","Signals","740620","TSSI102","Site 102 SOWARD WAY / ANKETELL ST, GREENWAY CROSS","ROAD INFRASTRUCTURE","ELECTRICAL AND MECHANICAL","TRAFFIC SIGNAL SITE","CROSS","WODEN","GREENWAY","SOWARD WAY / ANKETELL ST, GREENWAY","YES","ACTIVE/IN SERVICE","19870625000000","19800301000000","20160507000000","20041015000000","TELSTRA","NO","NO","19870625000000","ROADS_ACT","ROADS_ACT","GIFTED","-35.41798761","149.069415449"
"POINT (149.0948724481688 -35.20145828859141)","Signals","10534507","TSSI300","Site 300 BARTON HWY / GUNDAROO DR / WILLIAM WEB DR CROSS","ROAD INFRASTRUCTURE","ELECTRICAL AND MECHANICAL","TRAFFIC SIGNAL SITE","CROSS","BELCONNEN","GIRALANG","BARTON HWY / GUNDAROO DR / WILLIAM WEB DR","YES","ACTIVE/IN SERVICE","20161220000000",,,,"TELSTRA","NO","YES","20161220000000","ROADS_ACT","ROADS_ACT","CAPITAL WORKS","-35.2014666074","149.094866905"
"POINT (149.1323509388708 -35.18510441357806)","Signals","740794","TSSI194","Site 194 GOZZARD ST / HIBBERSON ST, GUNGAHLIN CROSS","ROAD INFRASTRUCTURE","ELECTRICAL AND MECHANICAL","TRAFFIC SIGNAL SITE","CROSS","BELCONNEN","GUNGAHLIN","GOZZARD ST / HIBBERSON ST, GUNGAHLIN","YES","ACTIVE/IN SERVICE","20031212000000","20031119000000",,,"TELSTRA","NO","NO","20031212000000","ROADS_ACT","ROADS_ACT","GIFTED","-35.1851127312","149.132345575"
"POINT (149.0940996689059 -35.349081173752275)","Signals","740473","TSSI17","Site 17 HINDMARSH DR / AINSWORTH ST, PHILLIP CROSS","ROAD INFRASTRUCTURE","ELECTRICAL AND MECHANICAL","TRAFFIC SIGNAL SITE","CROSS","WODEN","PHILLIP","HINDMARSH DR / AINSWORTH ST, PHILLIP","YES","ACTIVE/IN SERVICE","19701123000000","19850731000000",,"19950825000000","TELSTRA","NO","NO","19701123000000","ROADS_ACT","ROADS_ACT","GIFTED","-35.3490895909","149.094094048"
"POINT (149.14293566353953 -35.179833146055344)","Signals","740796","TSSI196","Site 196 GUNDAROO DR / HORSE PARK DR, GUNGAHLIN TEE","ROAD INFRASTRUCTURE","ELECTRICAL AND MECHANICAL","TRAFFIC SIGNAL SITE","TEE","BELCONNEN","GUNGAHLIN","GUNDAROO DR / HORSE PARK DR, GUNGAHLIN","YES","ACTIVE/IN SERVICE","20040211000000","20040217000000",,,"TELSTRA","NO","YES","20040211000000","ROADS_ACT","ROADS_ACT","CAPITAL WORKS","-35.1798414489","149.142930331"
"POINT (149.1356150929997 -35.30381937501829)","Signals","740830","TSSI1014","Site 1014 KINGS AV (NORTH AND SOUTH), BARTON PEDESTRIAN","ROAD INFRASTRUCTURE","ELECTRICAL AND MECHANICAL","TRAFFIC SIGNAL SITE","PEDESTRIAN","CITY","PARKES","KINGS AV (NORTH AND SOUTH), BARTON","YES","ACTIVE/IN SERVICE","19741128000000","19880426000000",,"20160901000000","TELSTRA","NO","NO","19741128000000","ROADS_ACT","ROADS_ACT","GIFTED","-35.3038277781","149.135609522"
"POINT (149.06722958214704 -35.348222245903806)","Signals","740595","TSSI88","Site 88 HINDMARSH DR / BADIMARA ST, WARAMANGA TEE","ROAD INFRASTRUCTURE","ELECTRICAL AND MECHANICAL","TRAFFIC SIGNAL SITE","TEE","WODEN","WARAMANGA","HINDMARSH DR / BADIMARA ST, WARAMANGA","YES","ACTIVE/IN SERVICE","19800714000000","19800801000000",,"19800714000000","TELSTRA","NO","NO","19800714000000","ROADS_ACT","ROADS_ACT","GIFTED","-35.3482307303","149.067223963"
"POINT (149.15575530058044 -35.184557745429096)","Signals","4287117","TSSI197","Site 197 HORSE PARK DR / ANTHONY ROLFE AVE, GUNGAHLIN TEE","ROAD INFRASTRUCTURE","ELECTRICAL AND MECHANICAL","TRAFFIC SIGNAL SITE","TEE","BELCONNEN","THROSBY","HORSE PARK DR / ANTHONY ROLFE AVE, GUNGAHLIN","YES","ACTIVE/IN SERVICE","20070411000000","20070411000000",,,"TELSTRA","NO","YES","20070411000000","ROADS_ACT","ROADS_ACT","GIFTED","-35.1845660376","149.155749985"
"POINT (149.03413484717655 -35.29892852865247)","Signals","9951490","TSSI286","Site 286 JOHN GORTON DR / HOLBOROW AVE / EAST-WEST ARTERIAL CROSS","ROAD INFRASTRUCTURE","ELECTRICAL AND MECHANICAL","TRAFFIC SIGNAL SITE","CROSS","WODEN","DENMAN PROSPECT","JOHN GORTON DR / HOLBOROW AVE / EAST-WEST ARTERIAL","YES","ACTIVE/IN SERVICE","20150212000000","20140731000000",,,"TELSTRA","NO","NO","20150212000000","ROADS_ACT","ROADS_ACT","GIFTED","-35.2989371042","149.034129141"
"POINT (149.18699121409404 -35.31170213710283)","Signals","9084215","TSSI234","Site 234 PIALLIGO AVE / BRINDABELLA CIRC, PIALLIGO PART TIME","ROAD INFRASTRUCTURE","ELECTRICAL AND MECHANICAL","TRAFFIC SIGNAL SITE","PART TIME","CITY","CANBERRA AIRPORT","PIALLIGO AVE / BRINDABELLA CIRC, PIALLIGO","YES","ACTIVE/IN SERVICE","20090325000000","20090318000000",,,"TELSTRA","NO","NO","20090325000000","ROADS_ACT","ROADS_ACT","GIFTED","-35.3117104574","149.186985745"
"POINT (149.05344412224719 -35.32637940731193)","Signals","740517","TSSI44","Site 44 COTTER RD / STREETON DR, HOLDER TEE","ROAD INFRASTRUCTURE","ELECTRICAL AND MECHANICAL","TRAFFIC SIGNAL SITE","TEE","WODEN","WESTON","COTTER RD / STREETON DR, HOLDER","YES","ACTIVE/IN SERVICE","19730821000000","19801212000000",,"20140922000000","TELSTRA","NO","YES","19730821000000","ROADS_ACT","ROADS_ACT","CAPITAL WORKS","-35.326387937","149.053438492"
"POINT (149.06594439634245 -35.413413261959306)","Signals","740660","TSSI120","Site 120 ANKETELL ST / COWLISHAW ST, GREENWAY CROSS","ROAD INFRASTRUCTURE","ELECTRICAL AND MECHANICAL","TRAFFIC SIGNAL SITE","CROSS","WODEN","GREENWAY","ANKETELL ST / COWLISHAW ST, GREENWAY","YES","ACTIVE/IN SERVICE","19881013000000","19900927000000",,"19881013000000","TELSTRA","NO","NO","19881013000000","ROADS_ACT","ROADS_ACT","GIFTED","-35.4134217006","149.065938724"
"POINT (149.19788019579414 -35.32071279700737)","Signals","9084209","TSSI229","Site 229 PIALLIGO AVE / GLENORA DR, PIALLIGO TEE","ROAD INFRASTRUCTURE","ELECTRICAL AND MECHANICAL","TRAFFIC SIGNAL SITE","TEE","CITY","MAJURA (RURAL DIST.)","PIALLIGO AVE / GLENORA DR, PIALLIGO","YES","ACTIVE/IN SERVICE","20081121000000","20010101000000","20170922000000",,"TELSTRA","NO","YES","20081121000000","ROADS_ACT","ROADS_ACT","GIFTED","-35.3207211477","149.197874795"
"POINT (149.1353102743649 -35.25113842944803)","Signals","10534515","TSSI262","Site 262 CHALLIS ST / CAPE ST CROSS","ROAD INFRASTRUCTURE","ELECTRICAL AND MECHANICAL","TRAFFIC SIGNAL SITE","CROSS","CITY","DICKSON","CHALLIS ST / CAPE ST","YES","ACTIVE/IN SERVICE","20171007000000",,,,,"NO","NO","20171007000000","ROADS_ACT","ROADS_ACT","CAPITAL WORKS","-35.2511467302","149.135304737"
"POINT (149.0742926961811 -35.225798448424236)","Signals","740573","TSSI74","Site 74 GINNINDERRA DR / WILLIAM SLIM DR, MCKELLAR TEE","ROAD INFRASTRUCTURE","ELECTRICAL AND MECHANICAL","TRAFFIC SIGNAL SITE","TEE","BELCONNEN","MCKELLAR","GINNINDERRA DR / WILLIAM SLIM DR, MCKELLAR","YES","ACTIVE/IN SERVICE","19781117000000","19870611000000",,"19781117000000","TELSTRA","NO","YES","19781117000000","ROADS_ACT","ROADS_ACT","GIFTED","-35.2258068022","149.074287086"
"POINT (149.1653492420511 -35.20020481404291)","Signals","9178438","TSSI260","Site 260 CNR HORSE PARK DR / WELL STALION DR, HARRISON TEE","ROAD INFRASTRUCTURE","ELECTRICAL AND MECHANICAL","TRAFFIC SIGNAL SITE","TEE","BELCONNEN","HARRISON","CNR HORSE PARK DR / WELL STALION DR, HARRISON","YES","ACTIVE/IN SERVICE","20120511000000","20120503000000",,,"TELSTRA","NO","YES","20120511000000","ROADS_ACT","ROADS_ACT","CAPITAL WORKS","-35.2002130908","149.165343861"
"POINT (149.07761828110418 -35.29154622446726)","Signals","4287217","TSSI219","Site 219 LADY DENMAN DR / LAKESIDE INTERCHANGE, YARRALUMBLA TEE","ROAD INFRASTRUCTURE","ELECTRICAL AND MECHANICAL","TRAFFIC SIGNAL SITE","TEE","BELCONNEN","MOLONGLO VALLEY (RURAL DIST.)","LADY DENMAN DR / LAKESIDE INTERCHANGE, YARRALUMBLA","YES","ACTIVE/IN SERVICE","20061207000000","20061207000000",,,"TELSTRA","NO","NO","20061207000000","ROADS_ACT","ROADS_ACT","CAPITAL WORKS","-35.2915546849","149.077612647"
"POINT (149.17607771210248 -35.337675907853004)","Signals","740568","TSSI69","Site 69 CANBERRA AV / NEWCASTLE STREET, FYSHWICK CROSS","ROAD INFRASTRUCTURE","ELECTRICAL AND MECHANICAL","TRAFFIC SIGNAL SITE","CROSS","WODEN","SYMONSTON","CANBERRA AV / NEWCASTLE STREET, FYSHWICK","YES","ACTIVE/IN SERVICE","19780420000000","19900101000000","20020722000000","20020809000000","TELSTRA","NO","YES","19780420000000","ROADS_ACT","ROADS_ACT","GIFTED","-35.3376842402","149.176072221"
"POINT (149.13968766266137 -35.248811076685286)","Signals","740831","TSSI1015","Site 1015 ANTILL ST (EAST AND WEST), DOWNER PEDESTRIAN","ROAD INFRASTRUCTURE","ELECTRICAL AND MECHANICAL","TRAFFIC SIGNAL SITE","PEDESTRIAN","CITY","DOWNER","ANTILL ST (EAST AND WEST), DOWNER","YES","ACTIVE/IN SERVICE","19781106000000","19930305000000","20160829000000","20080612000000","TELSTRA","NO","NO","19781106000000","ROADS_ACT","ROADS_ACT","CAPITAL WORKS","-35.2488193723","149.139682133"
"POINT (149.14354749351898 -35.29069417062367)","Signals","9277357","TSSI263","Site 263 CONSTITUTION AV / WENDOUREE DR, PARKES TEE","ROAD INFRASTRUCTURE","ELECTRICAL AND MECHANICAL","TRAFFIC SIGNAL SITE","TEE","CITY","CAMPBELL","CONSTITUTION AV / WENDOUREE DR, PARKES","YES","ACTIVE/IN SERVICE","20130705000000","20130618000000",,,"TELSTRA","NO","NO","20130705000000","ROADS_ACT","ROADS_ACT","GIFTED","-35.2907025317","149.143541925"
"POINT (149.1312179000147 -35.26622918721121)","Signals","740466","TSSI13","Site 13 NORTHBOURNE AV / CONDAMINE ST, TURNER CROSS","ROAD INFRASTRUCTURE","ELECTRICAL AND MECHANICAL","TRAFFIC SIGNAL SITE","CROSS","CITY","TURNER","NORTHBOURNE AV / CONDAMINE ST, TURNER","YES","ACTIVE/IN SERVICE","19700511000000","19850527000000","20020311000000","19970109000000","TELSTRA","NO","YES","19700511000000","ROADS_ACT","ROADS_ACT","GIFTED","-35.2662375112","149.131212332"
"POINT (149.07029414835048 -35.41912669386964)","Signals","740647","TSSI115","Site 115 ANKETELL STREET / REED ST (SOUTH), GREENWAY CROSS","ROAD INFRASTRUCTURE","ELECTRICAL AND MECHANICAL","TRAFFIC SIGNAL SITE","CROSS","WODEN","GREENWAY","ANKETELL STREET / REED ST (SOUTH), GREENWAY","YES","ACTIVE/IN SERVICE","19871013000000","19800812000000",,"19871013000000","TELSTRA","NO","NO","19871013000000","ROADS_ACT","ROADS_ACT","GIFTED","-35.4191351247","149.070288481"
"POINT (149.1095747261842 -35.37088515793856)","Signals","740618","TSSI101","Site 101 YAMBA DR / DORSCH ST, ISAACS TEE","ROAD INFRASTRUCTURE","ELECTRICAL AND MECHANICAL","TRAFFIC SIGNAL SITE","TEE","WODEN","ISAACS","YAMBA DR / DORSCH ST, ISAACS","YES","ACTIVE/IN SERVICE","19870527000000","19800201000000","20040205000000","20131210000000","TELSTRA","NO","NO","19870527000000","ROADS_ACT","ROADS_ACT","GIFTED","-35.3708935805","149.109569124"
"POINT (149.11461273708406 -35.15140351506315)","Signals","10772895","TSSI1002","Site 1002 SUTHERLAND CR / EAST PED XING PEDESTRIAN","ROAD INFRASTRUCTURE","ELECTRICAL AND MECHANICAL","TRAFFIC SIGNAL SITE","PEDESTRIAN","BELCONNEN","TAYLOR","SUTHERLAND CR / EAST PED XING","YES","ACTIVE/IN SERVICE","20171208000000",,,,"TELSTRA","NO","NO","20171208000000","ROADS_ACT","ROADS_ACT","GIFTED","-35.1514117723","149.114607234"
"POINT (149.12748275151853 -35.28934687528374)","Signals","740855","TSSI1027","Site 1027 COMMONWEALTH AVE, PARKES PEDESTRIAN","ROAD INFRASTRUCTURE","ELECTRICAL AND MECHANICAL","TRAFFIC SIGNAL SITE","PEDESTRIAN","CITY","PARKES","COMMONWEALTH AVE, PARKES","YES","ACTIVE/IN SERVICE","19980918000000","19980918000000",,"19980918000000","TELSTRA","NO","NO","19980918000000","NCA","NCA","GIFTED","-35.289355249","149.127477162"
"POINT (149.10730616239618 -35.28353344921922)","Signals","9084778","TSSI224","Site 224 CLUNIES ROSS ST / LADY DENMAN DR / PARKES WAY OFF RAMP - ACTON TEE","ROAD INFRASTRUCTURE","ELECTRICAL AND MECHANICAL","TRAFFIC SIGNAL SITE","TEE","CITY","ACTON","CLUNIES ROSS ST / LADY DENMAN DR / PARKES WAY OFF RAMP - ACTON","YES","ACTIVE/IN SERVICE","20061211000000","20061211000000",,"20061211000000","TELSTRA","NO","YES","20061211000000","ROADS_ACT","ROADS_ACT","GIFTED","-35.2835418318","149.107300546"
"POINT (149.13439955015295 -35.26075413447889)","Signals","9084201","TSSI222","Site 222 WAKEFIELD AVE / DOORING ST, BRADDON CROSS","ROAD INFRASTRUCTURE","ELECTRICAL AND MECHANICAL","TRAFFIC SIGNAL SITE","CROSS","CITY","DICKSON","WAKEFIELD AVE / DOORING ST, BRADDON","YES","ACTIVE/IN SERVICE","20091222000000","20091222000000",,,"TELSTRA","NO","NO","20091222000000","ROADS_ACT","ROADS_ACT","GIFTED","-35.2607624488","149.134393995"
"POINT (149.18758135161653 -35.21400991501479)","Signals","9951096","TSSI270","Site 270 MAJURA PKY / HORSE PARK DR / FEDERAL HWY SOUTH BOUND ON RAMP TEE","ROAD INFRASTRUCTURE","ELECTRICAL AND MECHANICAL","TRAFFIC SIGNAL SITE","TEE","BELCONNEN","GUNGAHLIN (RURAL DIST.)","MAJURA PKY / HORSE PARK DR / FEDERAL HWY SOUTH BOUND ON RAMP","YES","ACTIVE/IN SERVICE","20150402000000","20150320000000",,,,"NO","YES","20150402000000","ROADS_ACT","ROADS_ACT","CAPITAL WORKS","-35.2140181739","149.187575928"
"POINT (149.13441643783474 -35.1876146424519)","Signals","11135539","TSSI318","Site 318  CROSS","ROAD INFRASTRUCTURE","ELECTRICAL AND MECHANICAL","TRAFFIC SIGNAL SITE","CROSS","BELCONNEN","GUNGAHLIN",,"YES","ACTIVE/IN SERVICE","20180420000000","20180420000000",,,,"NO","NO",,,,,"-35.1876229657","149.134411082"
"POINT (149.10848612600492 -35.15255159139459)","Signals","10773918","TSSI1009","Site 1009 SUTHERLAND CR CROSS","ROAD INFRASTRUCTURE","ELECTRICAL AND MECHANICAL","TRAFFIC SIGNAL SITE","CROSS","BELCONNEN","TAYLOR","SUTHERLAND CR","YES","ACTIVE/IN SERVICE","20171208000000",,,,,"NO","NO","20171208000000","ROADS_ACT","ROADS_ACT","GIFTED","-35.1525598559","149.108480572"
"POINT (149.13214179446265 -35.26050918496989)","Signals","740460","TSSI9","Site 9 NORTHBOURNE AV / MACARTHUR AV, TURNER CROSS","ROAD INFRASTRUCTURE","ELECTRICAL AND MECHANICAL","TRAFFIC SIGNAL SITE","CROSS","CITY","BRADDON","NORTHBOURNE AV / MACARTHUR AV, TURNER","YES","ACTIVE/IN SERVICE","19681209000000","19850920000000","20010301000000","20010301000000","TELSTRA","YES","YES","19681209000000","ROADS_ACT","ROADS_ACT","GIFTED","-35.2605175003","149.132136238"
"POINT (149.07056127059147 -35.22269721360832)","Signals","740776","TSSI183","Site 183 GINNINDERRA DR / WILLIAM WEBB DR, MCKELLAR TEE","ROAD INFRASTRUCTURE","ELECTRICAL AND MECHANICAL","TRAFFIC SIGNAL SITE","TEE","BELCONNEN","BELCONNEN","GINNINDERRA DR / WILLIAM WEBB DR, MCKELLAR","YES","ACTIVE/IN SERVICE","20020823000000","20020823000000",,,"TELSTRA","NO","NO","20020823000000","ROADS_ACT","ROADS_ACT","GIFTED","-35.2227055757","149.070555658"
"POINT (149.12860349180423 -35.18182198204274)","Signals","11284811","TSSI312","Site 312  CROSS","ROAD INFRASTRUCTURE","ELECTRICAL AND MECHANICAL","TRAFFIC SIGNAL SITE","CROSS","BELCONNEN","GUNGAHLIN",,"YES","ACTIVE/IN SERVICE","20181022000000",,,,,,,,,,,"-35.1818302929","149.128598115"
"POINT (149.1268057153476 -35.27544837600765)","Signals","740509","TSSI40","Site 40 BARRY DR / MARCUS CLARKE ST, CITY TEE","ROAD INFRASTRUCTURE","ELECTRICAL AND MECHANICAL","TRAFFIC SIGNAL SITE","TEE","CITY","CITY","BARRY DR / MARCUS CLARKE ST, CITY","YES","ACTIVE/IN SERVICE","19730323000000","19840113000000","20010407000000","19940909000000","TELSTRA","NO","NO","19730323000000","ROADS_ACT","ROADS_ACT","CAPITAL WORKS","-35.2754567168","149.126800126"
"POINT (149.14379798520199 -35.276134798187705)","Signals","740699","TSSI142","Site 142 LIMESTONE AV / AINSLIE AV, REID TEE","ROAD INFRASTRUCTURE","ELECTRICAL AND MECHANICAL","TRAFFIC SIGNAL SITE","TEE","CITY","REID","LIMESTONE AV / AINSLIE AV, REID","YES","ACTIVE/IN SERVICE","19891213000000","19910924000000",,"19891213000000","TELSTRA","NO","NO","19891213000000","ROADS_ACT","ROADS_ACT","GIFTED","-35.2761431253","149.143792414"
"POINT (149.0910286399931 -35.35186162184126)","Signals","4283416","TSSI207","Site 207 ATHLLON DR / COLBEE COURT, PHILLIP TEE","ROAD INFRASTRUCTURE","ELECTRICAL AND MECHANICAL","TRAFFIC SIGNAL SITE","TEE","WODEN","PHILLIP","ATHLLON DR / COLBEE COURT, PHILLIP","YES","ACTIVE/IN SERVICE","20060904000000","20060403000000",,,"TELSTRA","NO","NO","20060904000000","ROADS_ACT","ROADS_ACT","GIFTED","-35.351870048","149.091023017"
"POINT (149.07626159169988 -35.42052000595866)","Signals","11163474","TSSI310","Site 310  TEE","ROAD INFRASTRUCTURE","ELECTRICAL AND MECHANICAL","TRAFFIC SIGNAL SITE","TEE","WODEN","GREENWAY",,"YES","ACTIVE/IN SERVICE","20180412000000","20180412000000",,,,,,,,,,"-35.4205284373","149.076255938"
"POINT (149.19991360566058 -35.344050390565066)","Signals","740805","TSSI202","Site 202 CANBERRA AVE / WOODS LANE, HARMAN TEE","ROAD INFRASTRUCTURE","ELECTRICAL AND MECHANICAL","TRAFFIC SIGNAL SITE","TEE","WODEN","JERRABOMBERRA (RURAL DIST.)","CANBERRA AVE / WOODS LANE, HARMAN","YES","ACTIVE/IN SERVICE","20041221000000","20050118000000",,,"TELSTRA","NO","YES","20041221000000","ROADS_ACT","ROADS_ACT","GIFTED","-35.3440587949","149.199908248"
"POINT (149.09219560209812 -35.33948868752552)","Signals","740716","TSSI152","Site 152 YAMBA DR / WISDOM ST / LAUNCESTON ST, HUGHES CROSS","ROAD INFRASTRUCTURE","ELECTRICAL AND MECHANICAL","TRAFFIC SIGNAL SITE","CROSS","WODEN","GARRAN","YAMBA DR / WISDOM ST / LAUNCESTON ST, HUGHES","YES","ACTIVE/IN SERVICE","19930830000000","19900830000000","20021217000000","19930921000000","TELSTRA","NO","NO","19930830000000","ROADS_ACT","ROADS_ACT","CAPITAL WORKS","-35.3394971","149.092189988"
"POINT (149.14207416624853 -35.27315691093796)","Signals","740450","TSSI4","Site 4 LIMESTONE AV / DONALDSON ST, AINSLIE CROSS","ROAD INFRASTRUCTURE","ELECTRICAL AND MECHANICAL","TRAFFIC SIGNAL SITE","CROSS","CITY","BRADDON","LIMESTONE AV / DONALDSON ST, AINSLIE","YES","ACTIVE/IN SERVICE","19670525000000","19910924000000",,"19910326000000","TELSTRA","NO","YES","19670525000000","ROADS_ACT","ROADS_ACT","GIFTED","-35.2731652358","149.142068598"
"POINT (149.12912705326175 -35.306343463146455)","Signals","740476","TSSI20","Site 20 STATE CIRCLE / KINGS AV, BARTON CROSS","ROAD INFRASTRUCTURE","ELECTRICAL AND MECHANICAL","TRAFFIC SIGNAL SITE","CROSS","CITY","BARTON","STATE CIRCLE / KINGS AV, BARTON","YES","ACTIVE/IN SERVICE","19710803000000","19880204000000",,"19870929000000","TELSTRA","NO","NO","19710803000000","NCA","NCA","GIFTED","-35.3063518803","149.129121474"
"POINT (149.1216770773146 -35.44122084374551)","Signals","740639","TSSI110","Site 110 THARWA DR / WERE ST, CALWELL CROSS","ROAD INFRASTRUCTURE","ELECTRICAL AND MECHANICAL","TRAFFIC SIGNAL SITE","CROSS","WODEN","THEODORE","THARWA DR / WERE ST, CALWELL","YES","ACTIVE/IN SERVICE","19900313000000","19901006000000",,"19900313000000","TELSTRA","NO","YES","19900313000000","ROADS_ACT","ROADS_ACT","GIFTED","-35.4412293402","149.121671555"
"POINT (149.0598500411942 -35.22786281413042)","Signals","4287143","TSSI215","Site 215 COULTER DRIVE / JOYNTON SMITH DRIVE, FLOREY TEE","ROAD INFRASTRUCTURE","ELECTRICAL AND MECHANICAL","TRAFFIC SIGNAL SITE","TEE","BELCONNEN","BELCONNEN","COULTER DRIVE / JOYNTON SMITH DRIVE, FLOREY","YES","ACTIVE/IN SERVICE","20070118000000",,,,"TELSTRA","NO","NO","20070118000000","ROADS_ACT","ROADS_ACT","GIFTED","-35.2278712033","149.059844414"
"POINT (149.15289216546583 -35.39784511535502)","Signals","740709","TSSI147","Site 147 MONARO HWY / MUGGA LANE, HUME TEE","ROAD INFRASTRUCTURE","ELECTRICAL AND MECHANICAL","TRAFFIC SIGNAL SITE","TEE","WODEN","TUGGERANONG (RURAL DIST.)","MONARO HWY / MUGGA LANE, HUME","YES","ACTIVE/IN SERVICE","19911119000000","19900213000000",,"19911119000000","TELSTRA","NO","NO","19911119000000","ROADS_ACT","ROADS_ACT","GIFTED","-35.3978535571","149.152886726"
"POINT (149.07439039839966 -35.347690226397035)","Signals","10768594","TSSI307","Site 307 HINDMASH DR / LAUNCESTON ST TEE","ROAD INFRASTRUCTURE","ELECTRICAL AND MECHANICAL","TRAFFIC SIGNAL SITE","TEE","WODEN","CHIFLEY","HINDMASH DR / LAUNCESTON ST","YES","ACTIVE/IN SERVICE","20170509000000",,,,,"NO","YES","20170509000000","ROADS_ACT","ROADS_ACT","GIFTED","-35.3476986925","149.074384779"
"POINT (149.08943844822988 -35.25679290584867)","Signals","740502","TSSI35","Site 35 BELCONNEN WAY / CASWELL DR, ARANDA TEE","ROAD INFRASTRUCTURE","ELECTRICAL AND MECHANICAL","TRAFFIC SIGNAL SITE","TEE","BELCONNEN","ARANDA","BELCONNEN WAY / CASWELL DR, ARANDA","YES","ACTIVE/IN SERVICE","19730209000000","19850530000000",,"19910918000000","TELSTRA","NO","YES","19730209000000","ROADS_ACT","ROADS_ACT","CAPITAL WORKS","-35.256801255","149.089432862"
"POINT (149.0825430763717 -35.339957932643536)","Signals","740484","TSSI25","Site 25 MELROSE DR / LAUNCESTON ST, LYONS CROSS","ROAD INFRASTRUCTURE","ELECTRICAL AND MECHANICAL","TRAFFIC SIGNAL SITE","CROSS","WODEN","LYONS","MELROSE DR / LAUNCESTON ST, LYONS","YES","ACTIVE/IN SERVICE","19711101000000","19870109000000",,"19950817000000","TELSTRA","NO","NO","19711101000000","ROADS_ACT","ROADS_ACT","GIFTED","-35.3399663749","149.082537467"
"POINT (149.09358116353948 -35.17744314310849)","Signals","9084236","TSSI1036","Site 1036 CLARRIE HERMES DRV, CASEY PEDESTRIAN","ROAD INFRASTRUCTURE","ELECTRICAL AND MECHANICAL","TRAFFIC SIGNAL SITE","PEDESTRIAN","BELCONNEN","CASEY","CLARRIE HERMES DRV, CASEY","YES","ACTIVE/IN SERVICE","20100701000000","20100701000000",,,"TELSTRA","NO","NO","20100701000000","ROADS_ACT","ROADS_ACT","GIFTED","-35.1774514588","149.093575586"
"POINT (149.06318065796805 -35.23852093009988)","Signals","9084230","TSSI248","Site 248 LATHLAIN ST / WESTFIELD BUS STATION, BELCONNEN TEE","ROAD INFRASTRUCTURE","ELECTRICAL AND MECHANICAL","TRAFFIC SIGNAL SITE","TEE","BELCONNEN","BELCONNEN","LATHLAIN ST / WESTFIELD BUS STATION, BELCONNEN","YES","ACTIVE/IN SERVICE","20101115000000","20101115000000",,,"TELSTRA","NO","NO","20101115000000","ROADS_ACT","ROADS_ACT","GIFTED","-35.238529318","149.063175027"
"POINT (149.16930909912136 -35.30265841195406)","Signals","10351661","TSSI288","Site 288 MORSHEAD DR / MONARO HWY TEE","ROAD INFRASTRUCTURE","ELECTRICAL AND MECHANICAL","TRAFFIC SIGNAL SITE","TEE","CITY","CAMPBELL","MORSHEAD DR / MONARO HWY","YES","ACTIVE/IN SERVICE","20160217000000","20160310000000",,,"TELSTRA","NO","YES","20160217000000","ROADS_ACT","ROADS_ACT","CAPITAL WORKS","-35.3026667464","149.169303572"
"POINT (149.06407081270416 -35.24147990454135)","Signals","740623","TSSI105","Site 105 LATHLAIN ST / CHAN ST, BELCONNEN CROSS","ROAD INFRASTRUCTURE","ELECTRICAL AND MECHANICAL","TRAFFIC SIGNAL SITE","CROSS","BELCONNEN","BELCONNEN","LATHLAIN ST / CHAN ST, BELCONNEN","YES","ACTIVE/IN SERVICE","19870917000000","19880201000000",,"19870917000000","TELSTRA","NO","NO","19870917000000","ROADS_ACT","ROADS_ACT","CAPITAL WORKS","-35.2414882914","149.064065181"
"POINT (149.07307607698405 -35.23961044367021)","Signals","9084221","TSSI240","Site 240 EASTERN VALLEY WAY / EMU BANK, BELCONNEN TEE","ROAD INFRASTRUCTURE","ELECTRICAL AND MECHANICAL","TRAFFIC SIGNAL SITE","TEE","BELCONNEN","BELCONNEN","EASTERN VALLEY WAY / EMU BANK, BELCONNEN","YES","ACTIVE/IN SERVICE","20090507000000","20090507000000",,,"TELSTRA","NO","NO","20090507000000","ROADS_ACT","ROADS_ACT","CAPITAL WORKS","-35.2396188081","149.073070465"
"POINT (149.0903286293684 -35.313042692844434)","Signals","740768","TSSI179","Site 179 COTTER RD / DUDLEY ST, YARRALUMLA TEE","ROAD INFRASTRUCTURE","ELECTRICAL AND MECHANICAL","TRAFFIC SIGNAL SITE","TEE","WODEN","CURTIN","COTTER RD / DUDLEY ST, YARRALUMLA","YES","ACTIVE/IN SERVICE","20010818000000","20010818000000",,,"TELSTRA","NO","YES","20010818000000","ROADS_ACT","ROADS_ACT","GIFTED","-35.3130511602","149.090323005"
"POINT (149.0537619602557 -35.32872078761024)","Signals","9810536","TSSI255","Site 255 STREETON DR / DIXON DR / UNWIN PL CROSS","ROAD INFRASTRUCTURE","ELECTRICAL AND MECHANICAL","TRAFFIC SIGNAL SITE","CROSS","WODEN","HOLDER","STREETON DR / DIXON DR / UNWIN PL","YES","ACTIVE/IN SERVICE","20140522000000","20140530000000",,,"TELSTRA","NO","NO","20140522000000","ROADS_ACT","ROADS_ACT","CAPITAL WORKS","-35.3287293125","149.053756335"
"POINT (149.16699339664473 -35.322054763486115)","Signals","740695","TSSI138","Site 138 NEWCASTLE ST / MONARO HWY (NTH RAMP), FYSHWICK CROSS","ROAD INFRASTRUCTURE","ELECTRICAL AND MECHANICAL","TRAFFIC SIGNAL SITE","CROSS","WODEN","FYSHWICK","NEWCASTLE ST / MONARO HWY (NTH RAMP), FYSHWICK","YES","ACTIVE/IN SERVICE","19900704000000","19900704000000","20030214000000","19900704000000","TELSTRA","NO","NO","19900704000000","ROADS_ACT","ROADS_ACT","CAPITAL WORKS","-35.3220631042","149.166987878"
"POINT (149.0929992804628 -35.37190209107819)","Signals","740559","TSSI62","Site 62 ATHLLON DR / BEASLEY ST, FARRER CROSS","ROAD INFRASTRUCTURE","ELECTRICAL AND MECHANICAL","TRAFFIC SIGNAL SITE","CROSS","WODEN","TORRENS","ATHLLON DR / BEASLEY ST, FARRER","YES","ACTIVE/IN SERVICE","19770928000000","19800611000000",,"19930625000000","TELSTRA","NO","YES","19770928000000","ROADS_ACT","ROADS_ACT","GIFTED","-35.3719105285","149.092993647"
"POINT (149.1064398187687 -35.155035074128364)","Signals","10773857","TSSI304","Site 304 HORSE PARK DR / GRENFELL AV TEE","ROAD INFRASTRUCTURE","ELECTRICAL AND MECHANICAL","TRAFFIC SIGNAL SITE","TEE","BELCONNEN","TAYLOR","HORSE PARK DR / GRENFELL AV","YES",,,,,,,"NO","NO",,"ROADS_ACT","ROADS_ACT","CAPITAL WORKS","-35.1550433464","149.10643425"
"POINT (149.0804079659428 -35.230905763531396)","Signals","740725","TSSI156","Site 156 GINNINDERRA DR / AIKMAN DR, BELCONNEN TEE","ROAD INFRASTRUCTURE","ELECTRICAL AND MECHANICAL","TRAFFIC SIGNAL SITE","TEE","BELCONNEN","LAWSON","GINNINDERRA DR / AIKMAN DR, BELCONNEN","YES","ACTIVE/IN SERVICE","19960928000000","19960927000000","20050316000000","20050316000000","TELSTRA","NO","NO","19960928000000","ROADS_ACT","ROADS_ACT","CAPITAL WORKS","-35.2309141046","149.080402364"
"POINT (149.08072955243375 -35.33100005095312)","Signals","740809","TSSI1001","Site 1001 THEODORE ST, CURTIN PEDESTRIAN","ROAD INFRASTRUCTURE","ELECTRICAL AND MECHANICAL","TRAFFIC SIGNAL SITE","PEDESTRIAN","WODEN","CURTIN","THEODORE ST, CURTIN","YES","ACTIVE/IN SERVICE","19670626000000","20100112000000",,"20130807000000","TELSTRA","NO","NO","19670626000000","ROADS_ACT","ROADS_ACT","GIFTED","-35.3310085117","149.080723939"
"POINT (149.15084269628932 -35.29851360280973)","Signals","740875","TSSI2005","Site 2005 RUSSELL DR FLASHING LIGHTS, RUSSELL PEDESTRIAN","ROAD INFRASTRUCTURE","ELECTRICAL AND MECHANICAL","TRAFFIC SIGNAL SITE","PEDESTRIAN","CITY","RUSSELL","RUSSELL DR FLASHING LIGHTS, RUSSELL","YES","ACTIVE/IN SERVICE","20010907000000",,,,,"NO","NO","20010907000000","NCA","NCA","GIFTED","-35.2985219757","149.150837142"
"POINT (149.1230545402081 -35.187838430814836)","Signals","9084235","TSSI1035","Site 1035 THE VALLEY AVE, GUNGAHLIN PEDESTRIAN","ROAD INFRASTRUCTURE","ELECTRICAL AND MECHANICAL","TRAFFIC SIGNAL SITE","PEDESTRIAN","BELCONNEN","GUNGAHLIN","THE VALLEY AVE, GUNGAHLIN","YES","ACTIVE/IN SERVICE","20090904000000","20090904000000",,,"TELSTRA","NO","NO","20090904000000","ROADS_ACT","ROADS_ACT","GIFTED","-35.1878467562","149.123049149"
"POINT (149.07847237777946 -35.40365982881797)","Signals","740781","TSSI184","Site 184 NEWMAN MORRIS CCT / TAVERNER ST, WANNIASSA CROSS","ROAD INFRASTRUCTURE","ELECTRICAL AND MECHANICAL","TRAFFIC SIGNAL SITE","CROSS","WODEN","WANNIASSA","NEWMAN MORRIS CCT / TAVERNER ST, WANNIASSA","YES","ACTIVE/IN SERVICE","20021018000000","20021014000000",,,"TELSTRA","NO","NO","20021018000000","ROADS_ACT","ROADS_ACT","GIFTED","-35.4036682728","149.078466733"
"POINT (149.13379248539044 -35.28255232831689)","Signals","740849","TSSI1024","Site 1024 ALLARA STREET, CITY PEDESTRIAN","ROAD INFRASTRUCTURE","ELECTRICAL AND MECHANICAL","TRAFFIC SIGNAL SITE","PEDESTRIAN","CITY","CITY","ALLARA STREET, CITY","YES","ACTIVE/IN SERVICE","19940629000000","19940722000000","20010705000000","19940722000000","TELSTRA","NO","NO","19940629000000","ROADS_ACT","ROADS_ACT","CAPITAL WORKS","-35.282560678","149.1337869"
"POINT (149.1334102263307 -35.309140922568126)","Signals","740624","TSSI106","Site 106 NATIONAL CIRC / BRISBANE AV, BARTON CROSS","ROAD INFRASTRUCTURE","ELECTRICAL AND MECHANICAL","TRAFFIC SIGNAL SITE","CROSS","CITY","BARTON","NATIONAL CIRC / BRISBANE AV, BARTON","YES","ACTIVE/IN SERVICE","19870305000000","19870911000000",,"19870305000000","TELSTRA","NO","NO","19870305000000","ROADS_ACT","ROADS_ACT","GIFTED","-35.309149338","149.133404654"
"POINT (149.13188853709067 -35.31261509769799)","Signals","9085552","TSSI259","Site 259 NATIONAL CIRC / SYDNEY AVE, BARTON CROSS","ROAD INFRASTRUCTURE","ELECTRICAL AND MECHANICAL","TRAFFIC SIGNAL SITE","CROSS","CITY","BARTON","NATIONAL CIRC / SYDNEY AVE, BARTON","YES","ACTIVE/IN SERVICE","20120404000000","20120405000000",,,"TELSTRA","NO","NO","20120404000000","ROADS_ACT","ROADS_ACT","GIFTED","-35.3126235041","149.131882958"
"POINT (149.07062821898103 -35.34814340197204)","Signals","740523","TSSI47","Site 47 HINDMARSH DR / TUGG. PKWY (STH RAMP), CHIFLEY CROSS","ROAD INFRASTRUCTURE","ELECTRICAL AND MECHANICAL","TRAFFIC SIGNAL SITE","CROSS","WODEN","CHIFLEY","HINDMARSH DR / TUGG. PKWY (STH RAMP), CHIFLEY","YES","ACTIVE/IN SERVICE","19740207000000","19800619000000","20050408000000","20050408000000","TELSTRA","NO","NO","19740207000000","ROADS_ACT","ROADS_ACT","GIFTED","-35.3481518777","149.070622599"
"POINT (149.13444166105367 -35.28099248106194)","Signals","740701","TSSI143","Site 143 AKUNA ST / BUNDA ST, CITY CROSS","ROAD INFRASTRUCTURE","ELECTRICAL AND MECHANICAL","TRAFFIC SIGNAL SITE","CROSS","CITY","CITY","AKUNA ST / BUNDA ST, CITY","YES","ACTIVE/IN SERVICE","19891031000000","19891031000000",,"19891031000000","TELSTRA","NO","NO","19891031000000","ROADS_ACT","ROADS_ACT","CAPITAL WORKS","-35.281000826","149.134436076"
"POINT (149.13846464123506 -35.2876988463811)","Signals","740668","TSSI126","Site 126 CONSTITUTION AV / CANBERRA TAFE, REID CROSS","ROAD INFRASTRUCTURE","ELECTRICAL AND MECHANICAL","TRAFFIC SIGNAL SITE","CROSS","CITY","REID","CONSTITUTION AV / CANBERRA TAFE, REID","YES","ACTIVE/IN SERVICE","19881101000000","19891204000000","20021218000000","19881101000000","TELSTRA","NO","NO","19881101000000","NCA","NCA","GIFTED","-35.2877072049","149.138459065"
"POINT (149.1252452976818 -35.27980972381244)","Signals","740482","TSSI24","Site 24 MARCUS CLARKE ST / UNIVERSITY AV, CITY CROSS","ROAD INFRASTRUCTURE","ELECTRICAL AND MECHANICAL","TRAFFIC SIGNAL SITE","CROSS","CITY","CITY","MARCUS CLARKE ST / UNIVERSITY AV, CITY","YES","ACTIVE/IN SERVICE","19710121000000","19840110000000",,"19971010000000","TELSTRA","NO","NO","19710121000000","ROADS_ACT","ROADS_ACT","CAPITAL WORKS","-35.2798180741","149.125239701"
"POINT (149.13654550559608 -35.220152186052566)","Signals","740733","TSSI160","Site 160 STANDFORD ST / HOSKINS ST, MITCHELL CROSS","ROAD INFRASTRUCTURE","ELECTRICAL AND MECHANICAL","TRAFFIC SIGNAL SITE","CROSS","BELCONNEN","MITCHELL","STANDFORD ST / HOSKINS ST, MITCHELL","YES","ACTIVE/IN SERVICE","19970806000000","19970806000000",,"19970806000000","TELSTRA","NO","NO","19970806000000","ROADS_ACT","ROADS_ACT","GIFTED","-35.2201605295","149.136540036"
"POINT (149.14745857989692 -35.33482652253118)","Signals","10073372","TSSI297","Site 297 JERRABOMBERRA AVE / STURT AVE / CAPT. COOK CRES TEE","ROAD INFRASTRUCTURE","ELECTRICAL AND MECHANICAL","TRAFFIC SIGNAL SITE","TEE","WODEN","NARRABUNDAH","JERRABOMBERRA AVE / STURT AVE / CAPT. COOK CRES","YES","ACTIVE/IN SERVICE","20150812000000","20081210000000",,,"TELSTRA","NO","NO","20150812000000","ROADS_ACT","ROADS_ACT","CAPITAL WORKS","-35.3348348524","149.147453016"
"POINT (149.0529838663028 -35.26987530757044)","Signals","740789","TSSI190","Site 190 WILLIAM HOVELL DR / COULTER DR, BELCONNEN TEE","ROAD INFRASTRUCTURE","ELECTRICAL AND MECHANICAL","TRAFFIC SIGNAL SITE","TEE","BELCONNEN","BELCONNEN (RURAL DIST.)","WILLIAM HOVELL DR / COULTER DR, BELCONNEN","YES","ACTIVE/IN SERVICE","20031104000000","20031030000000",,,"TELSTRA","NO","YES","20031104000000","ROADS_ACT","ROADS_ACT","GIFTED","-35.2698837659","149.052978215"
"POINT (149.1295925946951 -35.308662606558386)","Signals","740601","TSSI92","Site 92 STATE CIRCLE / BRISBANE AV, CAPITAL HILL TEE","ROAD INFRASTRUCTURE","ELECTRICAL AND MECHANICAL","TRAFFIC SIGNAL SITE","TEE","CITY","BARTON","STATE CIRCLE / BRISBANE AV, CAPITAL HILL","YES","ACTIVE/IN SERVICE","19810624000000","19880202000000","20020304000000","19810624000000","TELSTRA","NO","NO","19810624000000","ROADS_ACT","ROADS_ACT","GIFTED","-35.3086710279","149.129587017"
"POINT (149.1323349031468 -35.276048979947184)","Signals","740801","TSSI198","Site 198 COOYONG ST / LONSDALE ST, CITY CROSS","ROAD INFRASTRUCTURE","ELECTRICAL AND MECHANICAL","TRAFFIC SIGNAL SITE","CROSS","CITY","BRADDON","COOYONG ST / LONSDALE ST, CITY","YES","ACTIVE/IN SERVICE","20040419000000","20040311000000","20040805000000",,"TELSTRA","NO","NO","20040419000000","ROADS_ACT","ROADS_ACT","GIFTED","-35.2760573168","149.132329319"
"POINT (149.04899244533715 -35.34233598668545)","Signals","740514","TSSI43","Site 43 HINDMARSH DR / STREETON DR, HOLDER CROSS","ROAD INFRASTRUCTURE","ELECTRICAL AND MECHANICAL","TRAFFIC SIGNAL SITE","CROSS","WODEN","HOLDER","HINDMARSH DR / STREETON DR, HOLDER","YES","ACTIVE/IN SERVICE","19730802000000","19800611000000",,"19730802000000","TELSTRA","NO","YES","19730802000000","ROADS_ACT","ROADS_ACT","GIFTED","-35.3423444883","149.048986823"
"POINT (149.0647562925243 -35.40336441681315)","Signals","740787","TSSI189","Site 189 ATHLLON DR / LEARMONTH DR, GREENWAY TEE","ROAD INFRASTRUCTURE","ELECTRICAL AND MECHANICAL","TRAFFIC SIGNAL SITE","TEE","WODEN","GREENWAY","ATHLLON DR / LEARMONTH DR, GREENWAY","YES","ACTIVE/IN SERVICE","20030711000000","20030704000000",,,"TELSTRA","NO","NO","20030711000000","ROADS_ACT","ROADS_ACT","GIFTED","-35.4033728722","149.064750628"
"POINT (149.1388516314056 -35.169501491463976)","Signals","10878154","TSSI316","Site 316  TEE","ROAD INFRASTRUCTURE","ELECTRICAL AND MECHANICAL","TRAFFIC SIGNAL SITE","TEE","GUNGAHLIN","AMAROO",,"YES","ACTIVE/IN SERVICE","20180721000000","20180721000000",,,,"NO","NO",,,,,"-35.1695097704","149.138846282"
"POINT (149.1220379447846 -35.28570247993654)","Signals","740583","TSSI79","Site 79 EDINBURGH AV / LAWSON CR, ACTON CROSS","ROAD INFRASTRUCTURE","ELECTRICAL AND MECHANICAL","TRAFFIC SIGNAL SITE","CROSS","CITY","ACTON","EDINBURGH AV / LAWSON CR, ACTON","YES","ACTIVE/IN SERVICE","19790330000000","19840525000000","20010206000000","20010206000000",,"NO","YES","19790330000000","ROADS_ACT","ROADS_ACT","GIFTED","-35.2857108491","149.122032347"
"POINT (149.14827941048358 -35.28243644778091)","Signals","740863","TSSI1030","Site 1030 FAIRBAIRN AVE NEAR ANZAC PDE, CAMPBELL PEDESTRIAN","ROAD INFRASTRUCTURE","ELECTRICAL AND MECHANICAL","TRAFFIC SIGNAL SITE","PEDESTRIAN","CITY","CAMPBELL","FAIRBAIRN AVE NEAR ANZAC PDE, CAMPBELL","YES","ACTIVE/IN SERVICE","20030423000000","20030423000000",,,"TELSTRA","NO","NO","20030423000000","NCA","NCA","GIFTED","-35.2824447836","149.148273843"
"POINT (149.07451002707836 -35.25357083289011)","Signals","740596","TSSI89","Site 89 BINDUBI ST / REDFERN ST / BINDEL ST, ARANDA CROSS","ROAD INFRASTRUCTURE","ELECTRICAL AND MECHANICAL","TRAFFIC SIGNAL SITE","CROSS","BELCONNEN","ARANDA","BINDUBI ST / REDFERN ST / BINDEL ST, ARANDA","YES","ACTIVE/IN SERVICE","19800811000000","19860227000000",,"19950607000000","TELSTRA","NO","NO","19800811000000","ROADS_ACT","ROADS_ACT","GIFTED","-35.2535792097","149.074504414"
"POINT (149.12161795808126 -35.22389824038364)","Signals","4287123","TSSI210","Site 210 BARTON HWY / GUNGAHLIN DR (WEST), MITCHELL CROSS","ROAD INFRASTRUCTURE","ELECTRICAL AND MECHANICAL","TRAFFIC SIGNAL SITE","CROSS","BELCONNEN","KALEEN","BARTON HWY / GUNGAHLIN DR (WEST), MITCHELL","YES","ACTIVE/IN SERVICE","20061211000000","20061211000000",,,"TELSTRA","NO","NO","20061211000000","ROADS_ACT","ROADS_ACT","CAPITAL WORKS","-35.2239065821","149.121612453"
"POINT (149.03139856408603 -35.298714826737985)","Signals","9951492","TSSI291","Site 291 HOLBOROW AVE  / ROAD 1 / ROAD 2 CROSS","ROAD INFRASTRUCTURE","ELECTRICAL AND MECHANICAL","TRAFFIC SIGNAL SITE","CROSS","WODEN","DENMAN PROSPECT","HOLBOROW AVE  / ROAD 1 / ROAD 2","YES","INACTIVE/UNUSED",,"20150228000000",,,"TELSTRA","NO","NO","20150330000000","ROADS_ACT","ROADS_ACT","CAPITAL WORKS","-35.298723407","149.031392852"
"POINT (149.07812879829237 -35.34759636557733)","Signals","10768593","TSSI308","Site 308 HINDMARSH DR / LAUNCESTON ST TEE","ROAD INFRASTRUCTURE","ELECTRICAL AND MECHANICAL","TRAFFIC SIGNAL SITE","TEE","WODEN","LYONS","HINDMARSH DR / LAUNCESTON ST","YES","ACTIVE/IN SERVICE","20170605000000","20170603000000",,,"TELSTRA","NO","YES","20170605000000","ROADS_ACT","ROADS_ACT","GIFTED","-35.3476048219","149.078123179"
"POINT (149.06450237078903 -35.41565576240362)","Signals","740655","TSSI119","Site 119 PITMAN ST / SCOLLAY ST, GREENWAY CROSS","ROAD INFRASTRUCTURE","ELECTRICAL AND MECHANICAL","TRAFFIC SIGNAL SITE","CROSS","WODEN","GREENWAY","PITMAN ST / SCOLLAY ST, GREENWAY","YES","ACTIVE/IN SERVICE","19881013000000","19900927000000",,"19881013000000","TELSTRA","NO","NO","19881013000000","ROADS_ACT","ROADS_ACT","GIFTED","-35.4156641975","149.064496693"
"POINT (149.14401490028757 -35.18703961464005)","Signals","9084214","TSSI233","Site 233 FLEMINGTON RD / MANNING CLARK CR NORTH, GUNGAHLIN TEE","ROAD INFRASTRUCTURE","ELECTRICAL AND MECHANICAL","TRAFFIC SIGNAL SITE","TEE","BELCONNEN","GUNGAHLIN","FLEMINGTON RD / MANNING CLARK CR NORTH, GUNGAHLIN","YES","ACTIVE/IN SERVICE","20100831000000","20100831000000",,,"TELSTRA","NO","YES","20100831000000","ROADS_ACT","ROADS_ACT","CAPITAL WORKS","-35.187047935","149.144009574"
"POINT (149.1234279849536 -35.184301077543815)","Signals","11284812","TSSI1022","Site 1022  PEDESTRIAN","ROAD INFRASTRUCTURE","ELECTRICAL AND MECHANICAL","TRAFFIC SIGNAL SITE","PEDESTRIAN","BELCONNEN","GUNGAHLIN",,"YES",,,,,,,,,,,,,"-35.184309395","149.123422593"
"POINT (149.1286648856838 -35.31063445677936)","Signals","740717","TSSI153","Site 153 STATE CIRCLE / SYDNEY AV, CAPITAL HILL TEE","ROAD INFRASTRUCTURE","ELECTRICAL AND MECHANICAL","TRAFFIC SIGNAL SITE","TEE","CITY","BARTON","STATE CIRCLE / SYDNEY AV, CAPITAL HILL","YES","ACTIVE/IN SERVICE","19931216000000","19931216000000",,"19931216000000","TELSTRA","NO","NO","19931216000000","ROADS_ACT","ROADS_ACT","GIFTED","-35.310642873","149.128659304"
"POINT (149.13261470378663 -35.30498694977234)","Signals","740448","TSSI3","Site 3 KINGS AV / NATIONAL CIRCUIT, BARTON CROSS","ROAD INFRASTRUCTURE","ELECTRICAL AND MECHANICAL","TRAFFIC SIGNAL SITE","CROSS","CITY","BARTON","KINGS AV / NATIONAL CIRCUIT, BARTON","YES","ACTIVE/IN SERVICE","19670523000000","19880204000000",,"19871111000000","TELSTRA","NO","NO","19670523000000","ROADS_ACT","ROADS_ACT","CAPITAL WORKS","-35.3049953593","149.132609129"
"POINT (149.1362921096576 -35.26096004028737)","Signals","740452","TSSI5","Site 5 LIMESTONE AV / WAKEFIELD AV, AINSLIE CROSS","ROAD INFRASTRUCTURE","ELECTRICAL AND MECHANICAL","TRAFFIC SIGNAL SITE","CROSS","CITY","AINSLIE","LIMESTONE AV / WAKEFIELD AV, AINSLIE","YES","ACTIVE/IN SERVICE","19671011000000","19910924000000","20020403000000","19910426000000","TELSTRA","NO","YES","19671011000000","ROADS_ACT","ROADS_ACT","GIFTED","-35.2609683537","149.136286556"
"POINT (149.12228831477205 -35.188455119584454)","Signals","740751","TSSI171","Site 171 GUNGAHLIN DR / KOSCIUSZKO AV / THE VALLEY AV, PALMERSTON CROSS","ROAD INFRASTRUCTURE","ELECTRICAL AND MECHANICAL","TRAFFIC SIGNAL SITE","CROSS","BELCONNEN","PALMERSTON","GUNGAHLIN DR / KOSCIUSZKO AV / THE VALLEY AV, PALMERSTON","YES","ACTIVE/IN SERVICE","19990128000000","19990128000000",,"19990128000000","TELSTRA","NO","NO","19990128000000","ROADS_ACT","ROADS_ACT","GIFTED","-35.1884634464","149.122282921"
"POINT (149.0338611639907 -35.300992174091526)","Signals","9951488","TSSI285","Site 285 JOHN GORTON DR / ROAD 1 TEE","ROAD INFRASTRUCTURE","ELECTRICAL AND MECHANICAL","TRAFFIC SIGNAL SITE","TEE","WODEN","MOLONGLO","JOHN GORTON DR / ROAD 1","YES","INACTIVE/UNUSED",,"20140731000000",,,"TELSTRA","NO","NO","20150212000000","ROADS_ACT","ROADS_ACT","GIFTED","-35.3010007563","149.033855456"
"POINT (149.1312311556753 -35.283335650884894)","Signals","740607","TSSI97","Site 97 CONSTITUTION AV / LONDON CIRC, CITY CROSS","ROAD INFRASTRUCTURE","ELECTRICAL AND MECHANICAL","TRAFFIC SIGNAL SITE","CROSS","CITY","CITY","CONSTITUTION AV / LONDON CIRC, CITY","YES","ACTIVE/IN SERVICE","19861009000000","19870611000000","20021219000000","19861009000000","TELSTRA","NO","NO","19861009000000","NCA","NCA","GIFTED","-35.283344005","149.131225568"
"POINT (149.14475527890522 -35.31518518252899)","Signals","740782","TSSI185","Site 185 WENTWORTH AVE / EYRE ST, KINGSTON CROSS","ROAD INFRASTRUCTURE","ELECTRICAL AND MECHANICAL","TRAFFIC SIGNAL SITE","CROSS","CITY","KINGSTON","WENTWORTH AVE / EYRE ST, KINGSTON","YES","ACTIVE/IN SERVICE","20021018000000","20021127000000","20041209000000",,"TELSTRA","NO","NO","20021018000000","ROADS_ACT","ROADS_ACT","GIFTED","-35.3151935682","149.144749719"
"POINT (149.10361324113734 -35.239644595695715)","Signals","2981930","TSSI211","Site 211 GINNINDERRA DR / BRAYBROOKE DR, KALEEN TEE","ROAD INFRASTRUCTURE","ELECTRICAL AND MECHANICAL","TRAFFIC SIGNAL SITE","TEE","BELCONNEN","KALEEN","GINNINDERRA DR / BRAYBROOKE DR, KALEEN","YES","ACTIVE/IN SERVICE","20051222000000","20060117000000",,,"TELSTRA","NO","NO","20051222000000","ROADS_ACT","ROADS_ACT","GIFTED","-35.2396529149","149.103607685"
"POINT (149.08831784909708 -35.348916667167884)","Signals","740501","TSSI34","Site 34 HINDMARSH DR / BOTANY ST, PHILLIP TEE","ROAD INFRASTRUCTURE","ELECTRICAL AND MECHANICAL","TRAFFIC SIGNAL SITE","TEE","WODEN","PHILLIP","HINDMARSH DR / BOTANY ST, PHILLIP","YES","ACTIVE/IN SERVICE","19730110000000","19800628000000","20020818000000","19841105000000","TELSTRA","NO","NO","19730110000000","ROADS_ACT","ROADS_ACT","GIFTED","-35.3489250978","149.088312228"
"POINT (149.08329593078744 -35.346305092434896)","Signals","740745","TSSI167","Site 167 MELROSE DR / BREWER ST, LYONS TEE","ROAD INFRASTRUCTURE","ELECTRICAL AND MECHANICAL","TRAFFIC SIGNAL SITE","TEE","WODEN","LYONS","MELROSE DR / BREWER ST, LYONS","YES","ACTIVE/IN SERVICE","19990303000000","19990303000000",,"19990303000000","TELSTRA","NO","NO","19990303000000","ROADS_ACT","ROADS_ACT","GIFTED","-35.3463135348","149.083290313"
"POINT (149.0348238173606 -35.20634069212277)","Signals","11284794","TSSI324","Site 324  TEE","ROAD INFRASTRUCTURE","ELECTRICAL AND MECHANICAL","TRAFFIC SIGNAL SITE","TEE","BELCONNEN","FLYNN",,"YES",,,,,,,,,,,,,"-35.2063490466","149.034818128"
"POINT (149.15387804445209 -35.22889104964603)","Signals","11165004","TSSI311","Site 311  CROSS","ROAD INFRASTRUCTURE","ELECTRICAL AND MECHANICAL","TRAFFIC SIGNAL SITE","CROSS","CITY","WATSON",,"YES","ACTIVE/IN SERVICE","20180917000000",,,,,,,,,,,"-35.2288993677","149.153872582"
"POINT (149.14359002466858 -35.236142065746755)","Signals","740752","TSSI172","Site 172 NORTHBOURNE AV / PHILLIP AV, WATSON TEE","ROAD INFRASTRUCTURE","ELECTRICAL AND MECHANICAL","TRAFFIC SIGNAL SITE","TEE","CITY","LYNEHAM","NORTHBOURNE AV / PHILLIP AV, WATSON","YES","ACTIVE/IN SERVICE","19990803000000","19990803000000",,,"TELSTRA","NO","NO","19990803000000","ROADS_ACT","ROADS_ACT","GIFTED","-35.2361503801","149.143584529"
"POINT (149.09013100422067 -35.240156797595866)","Signals","740741","TSSI163","Site 163 HAYDON DR / EARDLEY ST, BRUCE TEE","ROAD INFRASTRUCTURE","ELECTRICAL AND MECHANICAL","TRAFFIC SIGNAL SITE","TEE","BELCONNEN","BRUCE","HAYDON DR / EARDLEY ST, BRUCE","YES","ACTIVE/IN SERVICE","19980803000000","19980803000000",,"19980803000000","TELSTRA","NO","NO","19980803000000","ROADS_ACT","ROADS_ACT","CAPITAL WORKS","-35.2401651212","149.090125428"
"POINT (149.14093945331803 -35.24883083885547)","Signals","740698","TSSI141","Site 141 ANTILL ST / COWPER ST, DOWNER TEE","ROAD INFRASTRUCTURE","ELECTRICAL AND MECHANICAL","TRAFFIC SIGNAL SITE","TEE","CITY","DICKSON","ANTILL ST / COWPER ST, DOWNER","YES","ACTIVE/IN SERVICE","19890914000000","19891204000000",,"19890914000000","TELSTRA","NO","NO","19890914000000","ROADS_ACT","ROADS_ACT","CAPITAL WORKS","-35.2488391339","149.140933924"
"POINT (149.14426180166498 -35.227841761740436)","Signals","11165021","TSSI76","Site 76  CROSS","ROAD INFRASTRUCTURE","ELECTRICAL AND MECHANICAL","TRAFFIC SIGNAL SITE","CROSS","BELCONNEN","LYNEHAM",,"YES","ACTIVE/IN SERVICE",,,,,,,,,,,,"-35.2278500899","149.144256328"
"POINT (149.06292869425795 -35.32033443272369)","Signals","740605","TSSI95","Site 95 COTTER RD / TUGG PKWY (NTH RAMP), CURTIN CROSS","ROAD INFRASTRUCTURE","ELECTRICAL AND MECHANICAL","TRAFFIC SIGNAL SITE","CROSS","WODEN","WESTON","COTTER RD / TUGG PKWY (NTH RAMP), CURTIN","YES","ACTIVE/IN SERVICE","19791212000000","19801027000000",,"19791212000000","TELSTRA","NO","YES","19791212000000","ROADS_ACT","ROADS_ACT","CAPITAL WORKS","-35.3203429624","149.062923068"
"POINT (149.16677729333196 -35.33325549808806)","Signals","9726645","TSSI287","Site 287 CANBERRA AVE / GEELONG ST, FYSHWICK TEE","ROAD INFRASTRUCTURE","ELECTRICAL AND MECHANICAL","TRAFFIC SIGNAL SITE","TEE","WODEN","SYMONSTON","CANBERRA AVE / GEELONG ST, FYSHWICK","YES","ACTIVE/IN SERVICE","20140513000000","20140204000000",,,"TELSTRA","NO","NO","20140513000000","ROADS_ACT","ROADS_ACT","CAPITAL WORKS","-35.3332638298","149.166771777"
"POINT (149.1340263899801 -35.251093934718675)","Signals","10534514","TSSI30","Site 30 NORTHBOURNE AVE / CAPE ST TEE","ROAD INFRASTRUCTURE","ELECTRICAL AND MECHANICAL","TRAFFIC SIGNAL SITE","TEE","CITY","DICKSON","NORTHBOURNE AVE / CAPE ST","YES","ACTIVE/IN SERVICE","20171007000000",,,,,"NO","NO","20171007000000","ROADS_ACT","ROADS_ACT","GIFTED","-35.251102236","149.134020852"
"POINT (149.06748485968157 -35.241096965634725)","Signals","740567","TSSI68","Site 68 BENJAMIN WAY / CAMERON AV, BELCONNEN CROSS","ROAD INFRASTRUCTURE","ELECTRICAL AND MECHANICAL","TRAFFIC SIGNAL SITE","CROSS","BELCONNEN","BELCONNEN","BENJAMIN WAY / CAMERON AV, BELCONNEN","YES","ACTIVE/IN SERVICE","19780816000000","19860307000000","20040406000000","19780420000000","TELSTRA","NO","NO","19780816000000","ROADS_ACT","ROADS_ACT","GIFTED","-35.2411053442","149.067479235"
"POINT (149.10251187870338 -35.23353882803143)","Signals","740832","TSSI1016","Site 1016 MARIBYRNONG AV / ALBERGA ST, KALEEN PEDESTRIAN","ROAD INFRASTRUCTURE","ELECTRICAL AND MECHANICAL","TRAFFIC SIGNAL SITE","PEDESTRIAN","BELCONNEN","KALEEN","MARIBYRNONG AV / ALBERGA ST, KALEEN","YES","ACTIVE/IN SERVICE","19830903000000","19891206000000","20160420000000","19830903000000","TELSTRA","NO","NO","19830903000000","ROADS_ACT","ROADS_ACT","GIFTED","-35.2335471479","149.102506319"
"POINT (149.13386706050008 -35.279999994405294)","Signals","2981999","TSSI1032","Site 1032 BUNDA ST, CITY PEDESTRIAN","ROAD INFRASTRUCTURE","ELECTRICAL AND MECHANICAL","TRAFFIC SIGNAL SITE","PEDESTRIAN","CITY","CITY","BUNDA ST, CITY","YES","ACTIVE/IN SERVICE","20051209000000","20051209000000",,,"TELSTRA","NO","NO","20051209000000","ROADS_ACT","ROADS_ACT","CAPITAL WORKS","-35.2800083373","149.133861474"
"POINT (149.0667732476589 -35.4144983015301)","Signals","740650","TSSI118","Site 118 ANKETELL ST / PITMAN ST, GREENWAY CROSS","ROAD INFRASTRUCTURE","ELECTRICAL AND MECHANICAL","TRAFFIC SIGNAL SITE","CROSS","WODEN","GREENWAY","ANKETELL ST / PITMAN ST, GREENWAY","YES","ACTIVE/IN SERVICE","19881013000000","19900927000000",,"19881013000000","TELSTRA","NO","NO","19881013000000","ROADS_ACT","ROADS_ACT","GIFTED","-35.4145067384","149.066767576"
"POINT (149.188987457035 -35.21448080075955)","Signals","9951091","TSSI269","Site 269 FEDERAL HWY SOUTHBOUND OFF RAMP TO / MAJURA PARKWAY TEE","ROAD INFRASTRUCTURE","ELECTRICAL AND MECHANICAL","TRAFFIC SIGNAL SITE","TEE","BELCONNEN","MAJURA (RURAL DIST.)","FEDERAL HWY SOUTHBOUND OFF RAMP TO / MAJURA PARKWAY","YES","ACTIVE/IN SERVICE","20150402000000","20150320000000",,,"TELSTRA","NO","NO","20150402000000","ROADS_ACT","ROADS_ACT","CAPITAL WORKS","-35.2144890625","149.188982036"
"POINT (149.15343376529182 -35.300958132591106)","Signals","10770020","TSSI2009","Site 2009 KELLIHER DR - PED CROSSING PEDESTRIAN","ROAD INFRASTRUCTURE","ELECTRICAL AND MECHANICAL","TRAFFIC SIGNAL SITE","PEDESTRIAN","CITY","RUSSELL","KELLIHER DR - PED CROSSING","YES","ACTIVE/IN SERVICE","20150606000000",,,,,"NO","NO","20150606000000","NCA","NCA","GIFTED","-35.3009665053","149.153428216"
"POINT (148.9503829141029 -35.3230653915673)","Signals","740510","TSSI41","Site 41 COTTER RD / MURRUMBIDGEE RIVER, COTTER TEE","ROAD INFRASTRUCTURE","ELECTRICAL AND MECHANICAL","TRAFFIC SIGNAL SITE","TEE","WODEN","STROMLO (RURAL DIST.)","COTTER RD / MURRUMBIDGEE RIVER, COTTER","YES","ACTIVE/IN SERVICE","19730419000000","19801024000000","20010806000000","20010806000000","TELSTRA","NO","NO","19730419000000","ROADS_ACT","ROADS_ACT","GIFTED","-35.3230738159","148.950377058"
"POINT (149.10641669834646 -35.40308608006217)","Signals","9810947","TSSI281","Site 281 ERINDALE DR / STERNBERG CRES PART TIME","ROAD INFRASTRUCTURE","ELECTRICAL AND MECHANICAL","TRAFFIC SIGNAL SITE","PART TIME","WODEN","GOWRIE","ERINDALE DR / STERNBERG CRES","YES","ACTIVE/IN SERVICE","20141003000000","20140722000000",,,"TELSTRA","NO","YES","20141003000000","ROADS_ACT","ROADS_ACT","CAPITAL WORKS","-35.4030945202","149.106411104"
"POINT (149.08582975201722 -35.25397034265125)","Signals","740561","TSSI63","Site 63 BELCONNEN WAY / HAYDON DR, BRUCE TEE","ROAD INFRASTRUCTURE","ELECTRICAL AND MECHANICAL","TRAFFIC SIGNAL SITE","TEE","BELCONNEN","BRUCE","BELCONNEN WAY / HAYDON DR, BRUCE","YES","ACTIVE/IN SERVICE","19771123000000","19850530000000","20020722000000","19980701000000","TELSTRA","NO","NO","19771123000000","ROADS_ACT","ROADS_ACT","GIFTED","-35.2539786942","149.085824164"
"POINT (149.1447717451854 -35.22124053636807)","Signals","9084217","TSSI235","Site 235 FLEMINGTON RD / SANDFORD ST / MORISSET RD, KENNY CROSS","ROAD INFRASTRUCTURE","ELECTRICAL AND MECHANICAL","TRAFFIC SIGNAL SITE","CROSS","BELCONNEN","GUNGAHLIN (RURAL DIST.)","FLEMINGTON RD / SANDFORD ST / MORISSET RD, KENNY","YES","ACTIVE/IN SERVICE","20101203000000","20101210000000",,,"TELSTRA","NO","YES","20101203000000","ROADS_ACT","ROADS_ACT","GIFTED","-35.2212488756","149.14476629"
"POINT (149.13080228750763 -35.279976639490215)","Signals","740819","TSSI1006","Site 1006 LONDON CIRCUIT, CITY PEDESTRIAN","ROAD INFRASTRUCTURE","ELECTRICAL AND MECHANICAL","TRAFFIC SIGNAL SITE","PEDESTRIAN","CITY","CITY","LONDON CIRCUIT, CITY","YES","ACTIVE/IN SERVICE","19720501000000","19900622000000","20010607000000","20130807000000","TELSTRA","NO","NO","19720501000000","ROADS_ACT","ROADS_ACT","GIFTED","-35.2799849851","149.130796698"
"POINT (149.11738359794754 -35.27233147157952)","Signals","740543","TSSI58","Site 58 BARRY DR / CLUNIES ROSS ST, ACTON TEE","ROAD INFRASTRUCTURE","ELECTRICAL AND MECHANICAL","TRAFFIC SIGNAL SITE","TEE","CITY","ACTON","BARRY DR / CLUNIES ROSS ST, ACTON","YES","ACTIVE/IN SERVICE","19770801000000","19840111000000","20020722000000","19940929000000","TELSTRA","NO","YES","19770801000000","ROADS_ACT","ROADS_ACT","CAPITAL WORKS","-35.2723398169","149.117378004"
"POINT (149.15548015715996 -35.25035360570892)","Signals","9085541","TSSI228","Site 228 PHILLIP AVE / MAJURA AVE, DICKSON TEE","ROAD INFRASTRUCTURE","ELECTRICAL AND MECHANICAL","TRAFFIC SIGNAL SITE","TEE","CITY","DICKSON","PHILLIP AVE / MAJURA AVE, DICKSON","YES","ACTIVE/IN SERVICE","20120203000000","20120203000000",,,"TELSTRA","NO","YES","20120203000000","ROADS_ACT","ROADS_ACT","CAPITAL WORKS","-35.2503618915","149.155474647"
"POINT (149.13876497184415 -35.34435399163001)","Signals","740578","TSSI78","Site 78 HINDMARSH DR / DALRYMPLE ST, RED HILL CROSS","ROAD INFRASTRUCTURE","ELECTRICAL AND MECHANICAL","TRAFFIC SIGNAL SITE","CROSS","WODEN","NARRABUNDAH","HINDMARSH DR / DALRYMPLE ST, RED HILL","YES","ACTIVE/IN SERVICE","19781221000000","19800819000000","20020722000000","20010719000000","TELSTRA","NO","YES","19781221000000","ROADS_ACT","ROADS_ACT","GIFTED","-35.3443623301","149.138759392"
"POINT (149.17013460674767 -35.38380500623831)","Signals","740678","TSSI131","Site 131 MONARO HWY / THARWA RD, HUME CROSS","ROAD INFRASTRUCTURE","ELECTRICAL AND MECHANICAL","TRAFFIC SIGNAL SITE","CROSS","WODEN","HUME","MONARO HWY / THARWA RD, HUME","YES","ACTIVE/IN SERVICE","19890606000000","19900101000000",,"19890606000000","TELSTRA","NO","NO","19890606000000","ROADS_ACT","ROADS_ACT","GIFTED","-35.3838134612","149.17012917"
"POINT (149.12297878924522 -35.284240218549925)","Signals","9416843","TSSI266","Site 266 EDINBURGH AVE / PHILLIP LAW ST TEE","ROAD INFRASTRUCTURE","ELECTRICAL AND MECHANICAL","TRAFFIC SIGNAL SITE","TEE","CITY","CITY","EDINBURGH AVE / PHILLIP LAW ST","YES","ACTIVE/IN SERVICE","20121217000000","20121217000000",,,"TELSTRA","NO","NO","20121217000000","ROADS_ACT","ROADS_ACT","GIFTED","-35.2842485829","149.122973192"
"POINT (149.13412098841124 -35.24825223782514)","Signals","740467","TSSI14","Site 14 NORTHBOURNE AV / ANTILL ST, LYNEHAM CROSS","ROAD INFRASTRUCTURE","ELECTRICAL AND MECHANICAL","TRAFFIC SIGNAL SITE","CROSS","CITY","LYNEHAM","NORTHBOURNE AV / ANTILL ST, LYNEHAM","YES","ACTIVE/IN SERVICE","19700611000000","19850816000000","20020722000000","19990416000000","TELSTRA","YES","YES","19700611000000","ROADS_ACT","ROADS_ACT","CAPITAL WORKS","-35.2482605357","149.134115456"
"POINT (149.13025032947104 -35.235451445294444)","Signals","740775","TSSI182","Site 182 BARTON HWY / RANDWICK RD, LYNEHAM TEE","ROAD INFRASTRUCTURE","ELECTRICAL AND MECHANICAL","TRAFFIC SIGNAL SITE","TEE","CITY","LYNEHAM","BARTON HWY / RANDWICK RD, LYNEHAM","YES","ACTIVE/IN SERVICE","20021127000000","20021127000000",,,"TELSTRA","NO","NO","20021127000000","ROADS_ACT","ROADS_ACT","GIFTED","-35.2354597657","149.130244818"
"POINT (149.1610010157351 -35.32999592208448)","Signals","740690","TSSI137","Site 137 CANBERRA AV / MONARO HWY (OFF RAMP), NARRABUNDAH TEE","ROAD INFRASTRUCTURE","ELECTRICAL AND MECHANICAL","TRAFFIC SIGNAL SITE","TEE","WODEN","NARRABUNDAH","CANBERRA AV / MONARO HWY (OFF RAMP), NARRABUNDAH","YES","ACTIVE/IN SERVICE","19890926000000","19900101000000",,"19890926000000","TELSTRA","NO","YES","19890926000000","ROADS_ACT","ROADS_ACT","CAPITAL WORKS","-35.3300042588","149.160995485"
"POINT (149.12253824227807 -35.22590329774226)","Signals","740732","TSSI159","Site 159 GUNGAHLIN DR / BARTON HWY, MITCHELL TEE","ROAD INFRASTRUCTURE","ELECTRICAL AND MECHANICAL","TRAFFIC SIGNAL SITE","TEE","BELCONNEN","KALEEN","GUNGAHLIN DR / BARTON HWY, MITCHELL","YES","ACTIVE/IN SERVICE","19971211000000","19971207000000","20010704000000","19971211000000","TELSTRA","YES","YES","19971211000000","ROADS_ACT","ROADS_ACT","CAPITAL WORKS","-35.2259116361","149.122532736"
"POINT (149.08293948063505 -35.32478239735397)","Signals","740821","TSSI1008","Site 1008 CARRUTHERS STREET, CURTIN PEDESTRIAN","ROAD INFRASTRUCTURE","ELECTRICAL AND MECHANICAL","TRAFFIC SIGNAL SITE","PEDESTRIAN","WODEN","CURTIN","CARRUTHERS STREET, CURTIN","YES","ACTIVE/IN SERVICE","19720704000000","19900101000000","20020722000000","19720704000000","TELSTRA","NO","NO","19720704000000","ROADS_ACT","ROADS_ACT","GIFTED","-35.3247908629","149.082933862"
"POINT (149.0746785499226 -35.41542425256254)","Signals","740613","TSSI100","Site 100 DRAKEFORD DR / ERINDALE DR, GREENWAY CROSS","ROAD INFRASTRUCTURE","ELECTRICAL AND MECHANICAL","TRAFFIC SIGNAL SITE","CROSS","WODEN","OXLEY","DRAKEFORD DR / ERINDALE DR, GREENWAY","YES","ACTIVE/IN SERVICE","19860904000000","19801028000000","20040604000000","20040604000000","TELSTRA","NO","YES","19860904000000","ROADS_ACT","ROADS_ACT","GIFTED","-35.4154326882","149.074672895"
"POINT (149.1456404087815 -35.215996434398726)","Signals","10790171","TSSI84","Site 84 FLEMMINGTON RD / LYSAGHT ST TEE","ROAD INFRASTRUCTURE","ELECTRICAL AND MECHANICAL","TRAFFIC SIGNAL SITE","TEE","GUNGAHLIN","MITCHELL","FLEMMINGTON RD / LYSAGHT ST","YES","ACTIVE/IN SERVICE","20171201000000",,,,,"NO","NO","20171201000000","ROADS_ACT","ROADS_ACT",,"-35.2160047766","149.145634973"
"POINT (149.12659950235084 -35.24279753182224)","Signals","740530","TSSI53","Site 53 GINNINDERRA DR / ELLENBOROUGH ST, LYNEHAM CROSS","ROAD INFRASTRUCTURE","ELECTRICAL AND MECHANICAL","TRAFFIC SIGNAL SITE","CROSS","CITY","LYNEHAM","GINNINDERRA DR / ELLENBOROUGH ST, LYNEHAM","YES","ACTIVE/IN SERVICE","19761013000000","19930205000000","20000420000000","19940831000000","TELSTRA","NO","YES","19761013000000","ROADS_ACT","ROADS_ACT","GIFTED","-35.2428058418","149.126593974"
"POINT (149.07210876613328 -35.396355356920374)","Signals","740640","TSSI111","Site 111 DRAKEFORD DR / ATHLLON DR, KAMBAH CROSS","ROAD INFRASTRUCTURE","ELECTRICAL AND MECHANICAL","TRAFFIC SIGNAL SITE","CROSS","WODEN","KAMBAH","DRAKEFORD DR / ATHLLON DR, KAMBAH","YES","ACTIVE/IN SERVICE","19871012000000","19800201000000","20030815000000","19871012000000","TELSTRA","NO","YES","19871012000000","ROADS_ACT","ROADS_ACT","GIFTED","-35.3963638127","149.072103115"
"POINT (149.13924513778846 -35.18624859364083)","Signals","10768595","TSSI306","Site 306 FLEMINGTON RD / KATE CRACE ST / HIBBERSON ST CROSS","ROAD INFRASTRUCTURE","ELECTRICAL AND MECHANICAL","TRAFFIC SIGNAL SITE","CROSS","GUNGAHLIN","GUNGAHLIN","FLEMINGTON RD / KATE CRACE ST / HIBBERSON ST","YES","ACTIVE/IN SERVICE","20170505000000",,,,,"NO","NO","20170505000000","ROADS_ACT","ROADS_ACT","GIFTED","-35.1862569128","149.139239796"
"POINT (149.14648009252488 -35.31816300866185)","Signals","740521","TSSI46","Site 46 WENTWORTH AV / CUNNINGHAM ST, KINGSTON CROSS","ROAD INFRASTRUCTURE","ELECTRICAL AND MECHANICAL","TRAFFIC SIGNAL SITE","CROSS","CITY","KINGSTON","WENTWORTH AV / CUNNINGHAM ST, KINGSTON","YES","ACTIVE/IN SERVICE","19740111000000","19920206000000",,"19740111000000","TELSTRA","NO","YES","19740111000000","ROADS_ACT","ROADS_ACT","GIFTED","-35.3181713845","149.146474534"
"POINT (149.1397842346176 -35.16107304577268)","Signals","9449698","TSSI277","Site 277 MABO BVD / MOBOURNE ST, BONNER TEE","ROAD INFRASTRUCTURE","ELECTRICAL AND MECHANICAL","TRAFFIC SIGNAL SITE","TEE","BELCONNEN","BONNER","MABO BVD / MOBOURNE ST, BONNER","YES","ACTIVE/IN SERVICE","20130614000000","20130614000000",,,"TRANSACT","NO","NO","20130614000000","ROADS_ACT","ROADS_ACT","CAPITAL WORKS","-35.161081304","149.139778885"
"POINT (149.07566279148523 -35.276565872062825)","Signals","740598","TSSI90","Site 90 WILLIAM HOVELL DR / BINDUBI ST, BELCONNEN TEE","ROAD INFRASTRUCTURE","ELECTRICAL AND MECHANICAL","TRAFFIC SIGNAL SITE","TEE","BELCONNEN","MOLONGLO VALLEY (RURAL DIST.)","WILLIAM HOVELL DR / BINDUBI ST, BELCONNEN","YES","ACTIVE/IN SERVICE","19800325000000","19860905000000","20031201000000","20031201000000","TELSTRA","NO","YES","19800325000000","ROADS_ACT","ROADS_ACT","GIFTED","-35.2765742954","149.07565716"
"POINT (149.06748140953437 -35.236221119046625)","Signals","9084222","TSSI241","Site 241 BENJAMIN WAY / EMU BANK, BELCONNEN TEE","ROAD INFRASTRUCTURE","ELECTRICAL AND MECHANICAL","TRAFFIC SIGNAL SITE","TEE","BELCONNEN","BELCONNEN","BENJAMIN WAY / EMU BANK, BELCONNEN","YES","ACTIVE/IN SERVICE","20090430000000","20090416000000",,,"TELSTRA","NO","NO","20090430000000","ROADS_ACT","ROADS_ACT","GIFTED","-35.2362294954","149.067475788"
"POINT (149.13562711822794 -35.27931490776466)","Signals","740461","TSSI10","Site 10 AINSLIE AVENUE / BALLUMBIR ST, CITY CROSS","ROAD INFRASTRUCTURE","ELECTRICAL AND MECHANICAL","TRAFFIC SIGNAL SITE","CROSS","CITY","BRADDON","AINSLIE AVENUE / BALLUMBIR ST, CITY","YES","ACTIVE/IN SERVICE","19690618000000","19880531000000","20020213000000","20120628000000","TELSTRA","NO","NO","19690618000000","ROADS_ACT","ROADS_ACT","GIFTED","-35.2793232473","149.135621534"
"POINT (149.12925128337724 -35.278402672424946)","Signals","740492","TSSI27","Site 27 NORTHBOURNE AV / ALINGA ST, CITY CROSS","ROAD INFRASTRUCTURE","ELECTRICAL AND MECHANICAL","TRAFFIC SIGNAL SITE","CROSS","CITY","CITY","NORTHBOURNE AV / ALINGA ST, CITY","YES","ACTIVE/IN SERVICE","19711119000000","19840221000000","20050510000000","20050510000000","TELSTRA","NO","NO","19711119000000","ROADS_ACT","ROADS_ACT","GIFTED","-35.2784110153","149.129245691"
"POINT (149.17448256880883 -35.301689680130075)","Signals","9084202","TSSI223","Site 223  PIALLIGO AVE / MORSEHEAD DR / MONARO HWY, PIALLIGO CROSS","ROAD INFRASTRUCTURE","ELECTRICAL AND MECHANICAL","TRAFFIC SIGNAL SITE","CROSS","CITY","PIALLIGO","PIALLIGO AVE / MORSEHEAD DR / MONARO HWY, PIALLIGO","YES","ACTIVE/IN SERVICE","20081121000000","20010101000000",,,"TELSTRA","NO","YES","20081121000000","ROADS_ACT","ROADS_ACT","GIFTED","-35.3016979991","149.174477047"
"POINT (149.10335451717552 -35.42457655014567)","Signals","10812978","TSSI309","Site 309  TEE","ROAD INFRASTRUCTURE","ELECTRICAL AND MECHANICAL","TRAFFIC SIGNAL SITE","TEE","WODEN","RICHARDSON",,"YES","ACTIVE/IN SERVICE","20180628000000",,,,,"NO","NO",,,,,"-35.4245850167","149.103348954"
"POINT (149.13620173348892 -35.280307944921255)","Signals","740662","TSSI122","Site 122 BALLUMBIR ST / AKUNA ST, CITY TEE","ROAD INFRASTRUCTURE","ELECTRICAL AND MECHANICAL","TRAFFIC SIGNAL SITE","TEE","CITY","CITY","BALLUMBIR ST / AKUNA ST, CITY","YES","ACTIVE/IN SERVICE","19880530000000","19880602000000",,"19880530000000","TELSTRA","NO","NO","19880530000000","ROADS_ACT","ROADS_ACT","GIFTED","-35.2803162865","149.13619615"
"POINT (149.04400002247976 -35.32508012496099)","Signals","9151720","TSSI254","Site 254 COTTER RD / JOHN GORTON DR, WRIGHT CROSS","ROAD INFRASTRUCTURE","ELECTRICAL AND MECHANICAL","TRAFFIC SIGNAL SITE","CROSS","WODEN","WRIGHT","COTTER RD / JOHN GORTON DR, WRIGHT","YES","ACTIVE/IN SERVICE","20111020000000","20111011000000",,,"TELSTRA","NO","NO","20111020000000","ROADS_ACT","ROADS_ACT","CAPITAL WORKS","-35.3250886628","149.043994372"
"POINT (149.04882347369164 -35.273566586038214)","Signals","11297567","TSSI325","Site 325  CROSS","ROAD INFRASTRUCTURE","ELECTRICAL AND MECHANICAL","TRAFFIC SIGNAL SITE","CROSS","BELCONNEN","MOLONGLO",,"YES","INACTIVE/UNUSED","20190530000000",,,,,,,,,,,"-35.2735750608","149.048817814"
"POINT (149.13139006373683 -35.28096405336993)","Signals","740861","TSSI1028","Site 1028 LONDON CIRC / AINSLIE AVE. PEDESTRIAN","ROAD INFRASTRUCTURE","ELECTRICAL AND MECHANICAL","TRAFFIC SIGNAL SITE","PEDESTRIAN","CITY","CITY","LONDON CIRC / AINSLIE AVE.","YES","ACTIVE/IN SERVICE","20010809000000","20010809000000",,,"TELSTRA","NO","NO","20010809000000","ROADS_ACT","ROADS_ACT","CAPITAL WORKS","-35.2809724011","149.131384475"
"POINT (149.131290219325 -35.18281507972547)","Signals","9084228","TSSI247","Site 247 ANTHONY ROLFE AV / GRIBBLE ST, GUNGAHLIN CROSS","ROAD INFRASTRUCTURE","ELECTRICAL AND MECHANICAL","TRAFFIC SIGNAL SITE","CROSS","BELCONNEN","GUNGAHLIN","ANTHONY ROLFE AV / GRIBBLE ST, GUNGAHLIN","YES","ACTIVE/IN SERVICE","20100910000000","20100910000000",,,"TELSTRA","NO","NO","20100910000000","ROADS_ACT","ROADS_ACT","GIFTED","-35.1828233923","149.131284852"
"POINT (149.08504902163864 -35.351267074025614)","Signals","740808","TSSI206","Site 206 MELROSE DR / BOTANY ST / EGGLESTON CRES, CHIFLEY TEE","ROAD INFRASTRUCTURE","ELECTRICAL AND MECHANICAL","TRAFFIC SIGNAL SITE","TEE","WODEN","CHIFLEY","MELROSE DR / BOTANY ST / EGGLESTON CRES, CHIFLEY","YES","ACTIVE/IN SERVICE","20050818000000","20050818000000",,,"TELSTRA","NO","NO","20050818000000","ROADS_ACT","ROADS_ACT","CAPITAL WORKS","-35.351275514","149.085043398"
"POINT (149.12945821592908 -35.27712211539204)","Signals","740670","TSSI127","Site 127 NORTHBOURNE AV / BUNDA ST, CITY CROSS","ROAD INFRASTRUCTURE","ELECTRICAL AND MECHANICAL","TRAFFIC SIGNAL SITE","CROSS","CITY","CITY","NORTHBOURNE AV / BUNDA ST, CITY","YES","ACTIVE/IN SERVICE","19880929000000","19880929000000",,"19880929000000","TELSTRA","NO","NO","19880929000000","ROADS_ACT","ROADS_ACT","CAPITAL WORKS","-35.2771304563","149.129452626"
"POINT (149.12189163483797 -35.273422957697115)","Signals","740475","TSSI19","Site 19 BARRY DR / MCCAUGHEY ST, TURNER CROSS","ROAD INFRASTRUCTURE","ELECTRICAL AND MECHANICAL","TRAFFIC SIGNAL SITE","CROSS","CITY","ACTON","BARRY DR / MCCAUGHEY ST, TURNER","YES","ACTIVE/IN SERVICE","19710226000000","19840111000000",,"19940914000000","TELSTRA","NO","NO","19710226000000","ROADS_ACT","ROADS_ACT","CAPITAL WORKS","-35.2734312995","149.121886044"
"POINT (149.07576950979472 -35.25027602914945)","Signals","740503","TSSI36","Site 36 BELCONNEN WAY / BINDUBI ST, MACQUARIE CROSS","ROAD INFRASTRUCTURE","ELECTRICAL AND MECHANICAL","TRAFFIC SIGNAL SITE","CROSS","BELCONNEN","BRUCE","BELCONNEN WAY / BINDUBI ST, MACQUARIE","YES","ACTIVE/IN SERVICE","19730209000000","19850731000000",,"19931021000000","TELSTRA","NO","YES","19730209000000","ROADS_ACT","ROADS_ACT","CAPITAL WORKS","-35.250284396","149.075763903"
"POINT (149.17167442623693 -35.3246901183854)","Signals","740586","TSSI83","Site 83 NEWCASTLE ST / GLADSTONE ST, FYSHWICK CROSS","ROAD INFRASTRUCTURE","ELECTRICAL AND MECHANICAL","TRAFFIC SIGNAL SITE","CROSS","WODEN","FYSHWICK","NEWCASTLE ST / GLADSTONE ST, FYSHWICK","YES","ACTIVE/IN SERVICE","19790905000000","19800819000000",,"19960428000000","TELSTRA","NO","NO","19790905000000","ROADS_ACT","ROADS_ACT","GIFTED","-35.3246984523","149.171668918"
"POINT (149.1112651123066 -35.24330965439533)","Signals","4287134","TSSI214","Site 214 GINNINDERRA DR / GUNGAHLIN DR (EAST), BRUCE CROSS","ROAD INFRASTRUCTURE","ELECTRICAL AND MECHANICAL","TRAFFIC SIGNAL SITE","CROSS","BELCONNEN","BRUCE","GINNINDERRA DR / GUNGAHLIN DR (EAST), BRUCE","YES","ACTIVE/IN SERVICE","20061211000000","20071213000000",,,"TELSTRA","NO","NO","20061211000000","ROADS_ACT","ROADS_ACT","CAPITAL WORKS","-35.2433179698","149.111259566"
"POINT (149.16129622037377 -35.39194621559987)","Signals","740766","TSSI178","Site 178 MONARO HWY / SHEPPARD ST, HUME TEE","ROAD INFRASTRUCTURE","ELECTRICAL AND MECHANICAL","TRAFFIC SIGNAL SITE","TEE","WODEN","HUME","MONARO HWY / SHEPPARD ST, HUME","YES","ACTIVE/IN SERVICE","20010518000000","20010518000000",,,"TELSTRA","NO","YES","20010518000000","ROADS_ACT","ROADS_ACT","GIFTED","-35.3919546711","149.161290783"
"POINT (149.0629228986113 -35.41646082919982)","Signals","740711","TSSI148","Site 148 ATHLLON DR / PITMAN ST, GREENWAY CROSS","ROAD INFRASTRUCTURE","ELECTRICAL AND MECHANICAL","TRAFFIC SIGNAL SITE","CROSS","WODEN","GREENWAY","ATHLLON DR / PITMAN ST, GREENWAY","YES","ACTIVE/IN SERVICE","19911009000000","19900213000000",,"19911009000000","TELSTRA","NO","NO","19911009000000","ROADS_ACT","ROADS_ACT","GIFTED","-35.4164692628","149.062917217"
"POINT (149.15029582154443 -35.297568727072)","Signals","740874","TSSI2004","Site 2004 RUSSELL DR FLASHING LIGHTS, RUSSELL PEDESTRIAN","ROAD INFRASTRUCTURE","ELECTRICAL AND MECHANICAL","TRAFFIC SIGNAL SITE","PEDESTRIAN","CITY","RUSSELL","RUSSELL DR FLASHING LIGHTS, RUSSELL","YES","ACTIVE/IN SERVICE","20010907000000",,,,,"NO","NO","20010907000000","NCA","NCA","GIFTED","-35.2975770982","149.150290266"
"POINT (149.1303893555162 -35.247845920282195)","Signals","9084237","TSSI1037","Site 1037 MOUAT ST PEDS, LYNEHAM PEDESTRIAN","ROAD INFRASTRUCTURE","ELECTRICAL AND MECHANICAL","TRAFFIC SIGNAL SITE","PEDESTRIAN","CITY","LYNEHAM","MOUAT ST PEDS, LYNEHAM","YES","ACTIVE/IN SERVICE","20101022000000","20101006000000",,,"TELSTRA","NO","NO","20101022000000","ROADS_ACT","ROADS_ACT","CAPITAL WORKS","-35.2478542205","149.130383821"
"POINT (149.1782536161561 -35.29864908957482)","Signals","740790","TSSI191","Site 191 FAIRBAIRN AVE / MORSHEAD DR, PIALLIGO TEE","ROAD INFRASTRUCTURE","ELECTRICAL AND MECHANICAL","TRAFFIC SIGNAL SITE","TEE","CITY","PIALLIGO","FAIRBAIRN AVE / MORSHEAD DR, PIALLIGO","YES","ACTIVE/IN SERVICE","20030825000000","20030825000000",,,"TELSTRA","NO","YES","20030825000000","ROADS_ACT","ROADS_ACT","CAPITAL WORKS","-35.2986573939","149.178248093"
"POINT (149.06426984119784 -35.245795332830404)","Signals","2981850","TSSI208","Site 208 LATHLAIN ST / BUNNINGS CARPARK, BELCONNEN CROSS","ROAD INFRASTRUCTURE","ELECTRICAL AND MECHANICAL","TRAFFIC SIGNAL SITE","CROSS","BELCONNEN","BELCONNEN","LATHLAIN ST / BUNNINGS CARPARK, BELCONNEN","YES","ACTIVE/IN SERVICE","20060127000000","20060127000000",,,"TELSTRA","NO","NO","20060127000000","ROADS_ACT","ROADS_ACT","GIFTED","-35.2458037209","149.064264206"
"POINT (149.0663469294292 -35.41808092997142)","Signals","740622","TSSI104","Site 104 SCOLLAY ST / REED ST, GREENWAY CROSS","ROAD INFRASTRUCTURE","ELECTRICAL AND MECHANICAL","TRAFFIC SIGNAL SITE","CROSS","WODEN","GREENWAY","SCOLLAY ST / REED ST, GREENWAY","YES","ACTIVE/IN SERVICE","19870722000000","19800301000000","19990806000000","19870722000000","TELSTRA","NO","NO","19870722000000","ROADS_ACT","ROADS_ACT","GIFTED","-35.4180893614","149.066341254"
"POINT (149.14207593820746 -35.17149284005474)","Signals","9084207","TSSI227","Site 227 FRANCIS FORDE BVD / AMY ACKMAN CRES / ZAKHAROV AV, FORDE CROSS","ROAD INFRASTRUCTURE","ELECTRICAL AND MECHANICAL","TRAFFIC SIGNAL SITE","CROSS","BELCONNEN","FORDE","FRANCIS FORDE BVD / AMY ACKMAN CRES / ZAKHAROV AV, FORDE","YES","ACTIVE/IN SERVICE","20081112000000","20081111000000",,,"TELSTRA","NO","NO","20081112000000","ROADS_ACT","ROADS_ACT","CAPITAL WORKS","-35.1715011227","149.1420706"
"POINT (149.073396164508 -35.241093982665156)","Signals","740802","TSSI199","Site 199 EASTERN VALLEY WAY / AIKMAN DR, BELCONNEN CROSS","ROAD INFRASTRUCTURE","ELECTRICAL AND MECHANICAL","TRAFFIC SIGNAL SITE","CROSS","BELCONNEN","BRUCE","EASTERN VALLEY WAY / AIKMAN DR, BELCONNEN","YES","ACTIVE/IN SERVICE","20050215000000","20041215000000",,,"TELSTRA","NO","NO","20050215000000","ROADS_ACT","ROADS_ACT","GIFTED","-35.2411023471","149.073390553"
"POINT (149.10065469172181 -35.22366627857391)","Signals","11284857","TSSI319","Site 319  CROSS","ROAD INFRASTRUCTURE","ELECTRICAL AND MECHANICAL","TRAFFIC SIGNAL SITE","CROSS","BELCONNEN","KALEEN",,"YES","ACTIVE/IN SERVICE","20181205000000",,,,,,,,,,,"-35.223674597","149.100649122"
"POINT (149.07473830893701 -35.40293922420321)","Signals","740626","TSSI107","Site 107 DRAKEFORD DR / TAVERNER ST, WANNIASSA CROSS","ROAD INFRASTRUCTURE","ELECTRICAL AND MECHANICAL","TRAFFIC SIGNAL SITE","CROSS","WODEN","WANNIASSA","DRAKEFORD DR / TAVERNER ST, WANNIASSA","YES","ACTIVE/IN SERVICE","19871222000000","19800122000000",,"19871222000000","TELSTRA","NO","NO","19871222000000","ROADS_ACT","ROADS_ACT","GIFTED","-35.4029476719","149.074732659"
"POINT (149.08528743049914 -35.24243139371185)","Signals","9465079","TSSI272","Site 272 COLLEGE ST / KIRINARI ST, BRUCE TEE","ROAD INFRASTRUCTURE","ELECTRICAL AND MECHANICAL","TRAFFIC SIGNAL SITE","TEE","BELCONNEN","BRUCE","COLLEGE ST / KIRINARI ST, BRUCE","YES","ACTIVE/IN SERVICE","20130917000000","20130920000000",,,"TRANSACT","NO","NO","20130917000000","ROADS_ACT","ROADS_ACT","CAPITAL WORKS","-35.2424397307","149.085281846"
"POINT (149.07257225858632 -35.422123862909274)","Signals","9951503","TSSI289","Site 289 ANKETELL ST / OAKDEN ST CROSS","ROAD INFRASTRUCTURE","ELECTRICAL AND MECHANICAL","TRAFFIC SIGNAL SITE","CROSS","WODEN","GREENWAY","ANKETELL ST / OAKDEN ST","YES","ACTIVE/IN SERVICE","20150721000000","20141212000000",,,"TELSTRA","NO","NO","20150721000000","ROADS_ACT","ROADS_ACT","GIFTED","-35.422132291","149.072566595"
"POINT (149.13526889232867 -35.31946737293097)","Signals","740592","TSSI85","Site 85 CANBERRA AV / CAPTAIN COOK CR, GRIFFITH CROSS","ROAD INFRASTRUCTURE","ELECTRICAL AND MECHANICAL","TRAFFIC SIGNAL SITE","CROSS","CITY","GRIFFITH","CANBERRA AV / CAPTAIN COOK CR, GRIFFITH","YES","ACTIVE/IN SERVICE","19791221000000","19971113000000",,"19791221000000","TELSTRA","NO","YES","19791221000000","ROADS_ACT","ROADS_ACT","GIFTED","-35.3194757551","149.135263312"
"POINT (149.0435444902911 -35.21758808390291)","Signals","740527","TSSI51","Site 51 GINNINDERRA DR / KINGSFORD SMITH DR, FLOREY CROSS","ROAD INFRASTRUCTURE","ELECTRICAL AND MECHANICAL","TRAFFIC SIGNAL SITE","CROSS","BELCONNEN","FLYNN","GINNINDERRA DR / KINGSFORD SMITH DR, FLOREY","YES","ACTIVE/IN SERVICE","19760906000000","19870611000000","20040122000000","19760906000000","TELSTRA","NO","YES","19760906000000","ROADS_ACT","ROADS_ACT","GIFTED","-35.2175964614","149.04353883"
"POINT (149.14611037289842 -35.23439416919649)","Signals","740718","TSSI154","Site 154 NORTHBOURNE AV / FLEMINGTON ROAD, LYNEHAM TEE","ROAD INFRASTRUCTURE","ELECTRICAL AND MECHANICAL","TRAFFIC SIGNAL SITE","TEE","CITY","WATSON","NORTHBOURNE AV / FLEMINGTON ROAD, LYNEHAM","YES","ACTIVE/IN SERVICE","19941021000000","19941104000000",,"19940821000000","TELSTRA","YES","YES","19941021000000","ROADS_ACT","ROADS_ACT","GIFTED","-35.2344024856","149.146104885"
"POINT (149.13515731754057 -35.285681100359774)","Signals","740454","TSSI6","Site 6 CONSTITUTION AV / CORANDERRK ST, CITY CROSS","ROAD INFRASTRUCTURE","ELECTRICAL AND MECHANICAL","TRAFFIC SIGNAL SITE","CROSS","CITY","CITY","CONSTITUTION AV / CORANDERRK ST, CITY","YES","ACTIVE/IN SERVICE","19680807000000","19860227000000",,"19851213000000","TELSTRA","NO","NO","19680807000000","NCA","NCA","GIFTED","-35.2856894569","149.135151736"
"POINT (149.17315660461804 -35.304549032070874)","Signals","740713","TSSI149","Site 149 MONARO HWY / DAIRY RD, FYSHWICK CROSS","ROAD INFRASTRUCTURE","ELECTRICAL AND MECHANICAL","TRAFFIC SIGNAL SITE","CROSS","WODEN","FYSHWICK","MONARO HWY / DAIRY RD, FYSHWICK","YES","ACTIVE/IN SERVICE","20030214000000","19901006000000",,"20030214000000","TELSTRA","NO","NO","20030214000000","ROADS_ACT","ROADS_ACT","CAPITAL WORKS","-35.3045573595","149.173151086"
"POINT (149.12138510377227 -35.31160294478783)","Signals","740606","TSSI96","Site 96 STATE CIRCLE / MELBOURNE AV, FORREST CROSS","ROAD INFRASTRUCTURE","ELECTRICAL AND MECHANICAL","TRAFFIC SIGNAL SITE","CROSS","CITY","FORREST","STATE CIRCLE / MELBOURNE AV, FORREST","YES","ACTIVE/IN SERVICE","19840206000000","19840417000000",,"19840206000000","TELSTRA","NO","NO","19840206000000","ROADS_ACT","ROADS_ACT","GIFTED","-35.3116113658","149.12137951"
"POINT (149.13505251789599 -35.27832243097269)","Signals","740663","TSSI123","Site 123 BALLUMBIR ST / PETRIE ST, CITY TEE","ROAD INFRASTRUCTURE","ELECTRICAL AND MECHANICAL","TRAFFIC SIGNAL SITE","TEE","CITY","CITY","BALLUMBIR ST / PETRIE ST, CITY","YES","ACTIVE/IN SERVICE","19880602000000","19880602000000",,"19880602000000","TELSTRA","NO","NO","19880602000000","ROADS_ACT","ROADS_ACT","GIFTED","-35.2783307686","149.135046932"
"POINT (149.13689429689234 -35.30951897762245)","Signals","740888","TSSI2008","Site 2008 BRISBANE AVE FLASHING LIGHTS, BARTON PEDESTRIAN","ROAD INFRASTRUCTURE","ELECTRICAL AND MECHANICAL","TRAFFIC SIGNAL SITE","PEDESTRIAN","CITY","BARTON","BRISBANE AVE FLASHING LIGHTS, BARTON","YES","ACTIVE/IN SERVICE","20030124000000",,,,,"NO","NO","20030124000000","ROADS_ACT","ROADS_ACT","GIFTED","-35.309527388","149.136888729"
"POINT (149.139339710486 -35.17279760839214)","Signals","10878153","TSSI315","Site 315  TEE","ROAD INFRASTRUCTURE","ELECTRICAL AND MECHANICAL","TRAFFIC SIGNAL SITE","TEE","GUNGAHLIN","FORDE",,"YES","ACTIVE/IN SERVICE","20180710000000","20180710000000",,,,"NO","NO",,,,,"-35.1728058951","149.139334364"
"POINT (149.07495853298923 -35.25239757471769)","Signals","740846","TSSI1023","Site 1023 BINDUBI STREET, MACQUARIE PEDESTRIAN","ROAD INFRASTRUCTURE","ELECTRICAL AND MECHANICAL","TRAFFIC SIGNAL SITE","PEDESTRIAN","BELCONNEN","ARANDA","BINDUBI STREET, MACQUARIE","YES","ACTIVE/IN SERVICE","19900912000000","19920213000000",,"19900912000000","TELSTRA","NO","NO","19900912000000","ROADS_ACT","ROADS_ACT","CAPITAL WORKS","-35.252405948","149.074952922"
"POINT (149.10172923805882 -35.17619350338006)","Signals","9416867","TSSI1034","Site 1034 GUNGAHLIN DR / PED CROSSING PEDESTRIAN","ROAD INFRASTRUCTURE","ELECTRICAL AND MECHANICAL","TRAFFIC SIGNAL SITE","PEDESTRIAN","BELCONNEN","NGUNNAWAL","GUNGAHLIN DR / PED CROSSING","YES","ACTIVE/IN SERVICE","20140131000000","20130731000000",,"20130807000000",,"NO","YES",,"ROADS_ACT","ROADS_ACT","CAPITAL WORKS","-35.1762018136","149.101723707"
"POINT (149.12637866220314 -35.278090607274144)","Signals","740703","TSSI144","Site 144 MARCUS CLARKE ST / ALINGA ST, CITY TEE","ROAD INFRASTRUCTURE","ELECTRICAL AND MECHANICAL","TRAFFIC SIGNAL SITE","TEE","CITY","CITY","MARCUS CLARKE ST / ALINGA ST, CITY","YES","ACTIVE/IN SERVICE","19891207000000","19900208000000",,"19891207000000","TELSTRA","NO","NO","19891207000000","ROADS_ACT","ROADS_ACT","CAPITAL WORKS","-35.2780989523","149.126373067"
"POINT (149.0891513964731 -35.34745384274905)","Signals","740747","TSSI168","Site 168 CALLAM ST / CORINNA ST, PHILLIP TEE","ROAD INFRASTRUCTURE","ELECTRICAL AND MECHANICAL","TRAFFIC SIGNAL SITE","TEE","WODEN","PHILLIP","CALLAM ST / CORINNA ST, PHILLIP","YES","ACTIVE/IN SERVICE","19981124000000","19981124000000","20020818000000","20020818000000","TELSTRA","NO","NO","19981124000000","ROADS_ACT","ROADS_ACT","GIFTED","-35.3474622702","149.089145777"
"POINT (149.09195110556962 -35.23467699958074)","Signals","740542","TSSI57","Site 57 GINNINDERRA DR / BALDWIN DR, KALEEN CROSS","ROAD INFRASTRUCTURE","ELECTRICAL AND MECHANICAL","TRAFFIC SIGNAL SITE","CROSS","BELCONNEN","KALEEN","GINNINDERRA DR / BALDWIN DR, KALEEN","YES","ACTIVE/IN SERVICE","19770610000000","19860818000000","20020722000000","20010725000000","TELSTRA","NO","YES","19770610000000","ROADS_ACT","ROADS_ACT","CAPITAL WORKS","-35.2346853163","149.091945525"
"POINT (149.13986699093147 -35.25725655662456)","Signals","740500","TSSI33","Site 33 MAJURA AVENUE / COWPER ST, AINSLIE CROSS","ROAD INFRASTRUCTURE","ELECTRICAL AND MECHANICAL","TRAFFIC SIGNAL SITE","CROSS","CITY","AINSLIE","MAJURA AVENUE / COWPER ST, AINSLIE","YES","ACTIVE/IN SERVICE","19721221000000","19930305000000",,"19920727000000","TELSTRA","NO","NO","19721221000000","ROADS_ACT","ROADS_ACT","GIFTED","-35.257264863","149.139861447"
"POINT (149.0341992564715 -35.2073620516077)","Signals","11284793","TSSI323","Site 323  TEE","ROAD INFRASTRUCTURE","ELECTRICAL AND MECHANICAL","TRAFFIC SIGNAL SITE","TEE","BELCONNEN","FLYNN",,,"YET TO BE CONNECTED",,,,,,,,,,,,"-35.2073704076","149.034193566"
"POINT (149.13326542088637 -35.25355141934717)","Signals","11165005","TSSI26","Site 26  CROSS","ROAD INFRASTRUCTURE","ELECTRICAL AND MECHANICAL","TRAFFIC SIGNAL SITE","CROSS","CITY","LYNEHAM",,"YES","ACTIVE/IN SERVICE",,,,,,,,,,,,"-35.2535597244","149.133259878"
"POINT (149.08252734523862 -35.34378344638463)","Signals","10241129","TSSI296","Site 296 MELROSE DR / CORINNA ST CROSS","ROAD INFRASTRUCTURE","ELECTRICAL AND MECHANICAL","TRAFFIC SIGNAL SITE","CROSS","WODEN","LYONS","MELROSE DR / CORINNA ST","YES","ACTIVE/IN SERVICE",,,,"20160909000000","TELSTRA","NO","NO","20160909000000","ROADS_ACT","ROADS_ACT","CAPITAL WORKS","-35.3437918899","149.082521731"
"POINT (149.13011810893187 -35.273037061319535)","Signals","740754","TSSI173","Site 173 NORTHBOURNE AV / ELOUERA ST / GOULD ST CROSS","ROAD INFRASTRUCTURE","ELECTRICAL AND MECHANICAL","TRAFFIC SIGNAL SITE","CROSS","CITY","TURNER","NORTHBOURNE AV / ELOUERA ST / GOULD ST","YES","ACTIVE/IN SERVICE","20000719000000","20000719000000",,"20000719000000","TELSTRA","NO","NO","20000719000000","ROADS_ACT","ROADS_ACT","GIFTED","-35.2730453958","149.130112527"
"POINT (149.12764114725 -35.29706029896397)","Signals","740481","TSSI23","Site 23 LANGTON CR / KING EDWARD TERRACE, PARKES CROSS","ROAD INFRASTRUCTURE","ELECTRICAL AND MECHANICAL","TRAFFIC SIGNAL SITE","CROSS","CITY","PARKES","LANGTON CR / KING EDWARD TERRACE, PARKES","YES","ACTIVE/IN SERVICE","19711020000000","20010109000000","20030329000000","19711020000000","TELSTRA","NO","NO","19711020000000","NCA","NCA","GIFTED","-35.2970686931","149.127635562"
"POINT (149.08803172561625 -35.28503211337239)","Signals","9084234","TSSI1033","Site 1033 LADY DENMAN DR / PARKES WAY, BELCONNEN PEDESTRIAN","ROAD INFRASTRUCTURE","ELECTRICAL AND MECHANICAL","TRAFFIC SIGNAL SITE","PEDESTRIAN","BELCONNEN","CANBERRA CENTRAL (RURAL DIST.)","LADY DENMAN DR / PARKES WAY, BELCONNEN","YES","ACTIVE/IN SERVICE","20070921000000","20070925000000",,,"TELSTRA","NO","YES","20070921000000","ROADS_ACT","ROADS_ACT","CAPITAL WORKS","-35.2850405293","149.088026091"
"POINT (149.0331386316326 -35.303040474407545)","Signals","9951431","TSSI284","Site 284 JOHN GORTON DR / COMMERCIAL ST TEE","ROAD INFRASTRUCTURE","ELECTRICAL AND MECHANICAL","TRAFFIC SIGNAL SITE","TEE","WODEN","MOLONGLO","JOHN GORTON DR / COMMERCIAL ST","YES","INACTIVE/UNUSED",,"20140730000000",,,"TELSTRA","NO","NO","20150212000000","ROADS_ACT","ROADS_ACT","GIFTED","-35.303049064","149.033132921"
"POINT (149.17436879368418 -35.38263275150819)","Signals","9084213","TSSI232","Site 232 LANYON DR / SHEPPARD ST, HUME TEE","ROAD INFRASTRUCTURE","ELECTRICAL AND MECHANICAL","TRAFFIC SIGNAL SITE","TEE","WODEN","HUME","LANYON DR / SHEPPARD ST, HUME","YES","ACTIVE/IN SERVICE","20090506000000","20090318000000",,,"TELSTRA","NO","NO","20090506000000","ROADS_ACT","ROADS_ACT","GIFTED","-35.3826412114","149.174363362"
"POINT (149.16938976416117 -35.32344380285156)","Signals","740548","TSSI59","Site 59 IPSWICH ST / NEWCASTLE ST / CESSNOCK ST, FYSHWICK CROSS","ROAD INFRASTRUCTURE","ELECTRICAL AND MECHANICAL","TRAFFIC SIGNAL SITE","CROSS","WODEN","FYSHWICK","IPSWICH ST / NEWCASTLE ST / CESSNOCK ST, FYSHWICK","YES","ACTIVE/IN SERVICE","19770801000000","19900704000000","20120518000000","20010711000000","TELSTRA","NO","NO","19770801000000","ROADS_ACT","ROADS_ACT","CAPITAL WORKS","-35.3234521397","149.169384251"
"POINT (149.10038287482823 -35.35077039128813)","Signals","740504","TSSI37","Site 37 HINDMARSH DR / YAMBA DR, O""MALLEY CROSS","ROAD INFRASTRUCTURE","ELECTRICAL AND MECHANICAL","TRAFFIC SIGNAL SITE","CROSS","WODEN","GARRAN","HINDMARSH DR / YAMBA DR, O""MALLEY","YES","ACTIVE/IN SERVICE","19730220000000","19800618000000",,"19940518000000","TELSTRA","NO","YES","19730220000000","ROADS_ACT","ROADS_ACT","GIFTED","-35.3507787973","149.100377254"
"POINT (149.13412843172077 -35.30439789185364)","Signals","740642","TSSI113","Site 113 KINGS AV / MACQUARIE ST, BARTON CROSS","ROAD INFRASTRUCTURE","ELECTRICAL AND MECHANICAL","TRAFFIC SIGNAL SITE","CROSS","CITY","BARTON","KINGS AV / MACQUARIE ST, BARTON","YES","ACTIVE/IN SERVICE","19871019000000","19880204000000",,"19871009000000","TELSTRA","NO","NO","19871019000000","NCA","NCA","GIFTED","-35.3044062981","149.134122859"
"POINT (149.12782093180945 -35.19326206673554)","Signals","740742","TSSI164","Site 164 GUNGAHLIN DR /KOSCIUSZKO ST, PALMERSTON TEE","ROAD INFRASTRUCTURE","ELECTRICAL AND MECHANICAL","TRAFFIC SIGNAL SITE","TEE","BELCONNEN","PALMERSTON","GUNGAHLIN DR /KOSCIUSZKO ST, PALMERSTON","YES","ACTIVE/IN SERVICE","19981215000000","19981215000000",,"19981215000000","TELSTRA","NO","YES","19981215000000","ROADS_ACT","ROADS_ACT","GIFTED","-35.1932703965","149.127815538"
"POINT (149.1503737031968 -35.24176388028929)","Signals","740680","TSSI132","Site 132 PHILLIP AV / WINDEYER ST, WATSON TEE","ROAD INFRASTRUCTURE","ELECTRICAL AND MECHANICAL","TRAFFIC SIGNAL SITE","TEE","CITY","WATSON","PHILLIP AV / WINDEYER ST, WATSON","YES","ACTIVE/IN SERVICE","19890120000000","19891122000000",,"19890120000000","TELSTRA","NO","NO","19890120000000","ROADS_ACT","ROADS_ACT","GIFTED","-35.2417721823","149.1503682"
"POINT (149.18043197439857 -35.30291387822339)","Signals","9084239","TSSI209","Site 209 PIALLIGO AVE / FAIRBAIRNE AVE / BELTAND RD, PIALLIGO CROSS","ROAD INFRASTRUCTURE","ELECTRICAL AND MECHANICAL","TRAFFIC SIGNAL SITE","CROSS","CITY","PIALLIGO","PIALLIGO AVE / FAIRBAIRNE AVE / BELTAND RD, PIALLIGO","YES","ACTIVE/IN SERVICE","20090806000000","20090806000000",,,"TELSTRA","NO","NO","20090806000000","ROADS_ACT","ROADS_ACT","CAPITAL WORKS","-35.3029221834","149.180426463"
"POINT (149.11487039618902 -35.15421640732723)","Signals","10073507","TSSI294","Site 294 MIRRABEI DR / O KEEFE AV TEE","ROAD INFRASTRUCTURE","ELECTRICAL AND MECHANICAL","TRAFFIC SIGNAL SITE","TEE","BELCONNEN","MONCRIEFF","MIRRABEI DR / O KEEFE AV","YES","ACTIVE/IN SERVICE","20160127000000","20151106000000",,,,"NO","NO","20160127000000","ROADS_ACT","ROADS_ACT","GIFTED","-35.1542246692","149.114864906"
"POINT (149.06557066733896 -35.419941788899166)","Signals","740786","TSSI188","Site 188 ATHLLON DR / SOWARD WAY, GREENWAY CROSS","ROAD INFRASTRUCTURE","ELECTRICAL AND MECHANICAL","TRAFFIC SIGNAL SITE","CROSS","WODEN","GREENWAY","ATHLLON DR / SOWARD WAY, GREENWAY","YES","ACTIVE/IN SERVICE","20030729000000","20030729000000",,,"TELSTRA","NO","NO","20030729000000","ROADS_ACT","ROADS_ACT","GIFTED","-35.4199502171","149.065564988"
"POINT (149.13797897861528 -35.16688344899772)","Signals","9085551","TSSI258","Site 258 HORSE PARK DR / MULLIGANS FLAT RD, BONNER TEE","ROAD INFRASTRUCTURE","ELECTRICAL AND MECHANICAL","TRAFFIC SIGNAL SITE","TEE","BELCONNEN","FORDE","HORSE PARK DR / MULLIGANS FLAT RD, BONNER","YES","ACTIVE/IN SERVICE","20110616000000","20110504000000",,"20110616000000","TELSTRA","NO","YES",,"ROADS_ACT","ROADS_ACT","GIFTED","-35.166891722","149.137973626"
"POINT (149.08447212252005 -35.38971743602561)","Signals","10768587","TSSI1010","Site 1010 ATHLLON DR PARK AND RIDE PEDESTRIAN","ROAD INFRASTRUCTURE","ELECTRICAL AND MECHANICAL","TRAFFIC SIGNAL SITE","PEDESTRIAN","WODEN","WANNIASSA","ATHLLON DR PARK AND RIDE","YES","ACTIVE/IN SERVICE","20170804000000",,,,,"NO","NO","20170804000000","ROADS_ACT","ROADS_ACT","GIFTED","-35.3897258792","149.084466484"
"POINT (149.12967824480128 -35.275760431335755)","Signals","740446","TSSI2","Site 2 NORTHBOURNE AV / BARRY DR / COOYONG ST, CITY CROSS","ROAD INFRASTRUCTURE","ELECTRICAL AND MECHANICAL","TRAFFIC SIGNAL SITE","CROSS","CITY","BRADDON","NORTHBOURNE AV / BARRY DR / COOYONG ST, CITY","YES","ACTIVE/IN SERVICE","19651023000000","19840112000000",,"20031021000000","TELSTRA","YES","YES","19651023000000","ROADS_ACT","ROADS_ACT","GIFTED","-35.2757687701","149.129672658"
"POINT (149.07857682702405 -35.23399474420411)","Signals","9085545","TSSI250","Site 250 AIKMAN DR / JOY CUMMINGS PL, BELCONNEN TEE","ROAD INFRASTRUCTURE","ELECTRICAL AND MECHANICAL","TRAFFIC SIGNAL SITE","TEE","BELCONNEN","BRUCE","AIKMAN DR / JOY CUMMINGS PL, BELCONNEN","YES","ACTIVE/IN SERVICE","20110610000000","20110511000000",,"20110610000000","TELSTRA","NO","NO",,"ROADS_ACT","ROADS_ACT","GIFTED","-35.2340030918","149.078571224"
"POINT (149.11956464397397 -35.18619655944333)","Signals","740763","TSSI177","Site 177 GUNGAHLIN DR / GUNDAROO DR, PALMERSTON CROSS","ROAD INFRASTRUCTURE","ELECTRICAL AND MECHANICAL","TRAFFIC SIGNAL SITE","CROSS","BELCONNEN","PALMERSTON","GUNGAHLIN DR / GUNDAROO DR, PALMERSTON","YES","ACTIVE/IN SERVICE","20010125000000","20010125000000",,,"TELSTRA","NO","YES","20010125000000","ROADS_ACT","ROADS_ACT","GIFTED","-35.1862048816","149.119559239"
"POINT (149.0322847560104 -35.31247004539264)","Signals","9810549","TSSI282","Site 282 JOHN GORTON DR / OPPERMAN DR / TBA, WRIGHT CROSS","ROAD INFRASTRUCTURE","ELECTRICAL AND MECHANICAL","TRAFFIC SIGNAL SITE","CROSS","WODEN","WRIGHT","JOHN GORTON DR / OPPERMAN DR / TBA, WRIGHT","YES","ACTIVE/IN SERVICE","20140731000000","20140718000000",,,"TELSTRA","NO","NO","20140801000000","ROADS_ACT","ROADS_ACT","CAPITAL WORKS","-35.3124786374","149.032279051"
"POINT (149.09853668344323 -35.34388565809321)","Signals","740512","TSSI42","Site 42 YAMBA DR / KITCHENER ST, GARRAN CROSS","ROAD INFRASTRUCTURE","ELECTRICAL AND MECHANICAL","TRAFFIC SIGNAL SITE","CROSS","WODEN","GARRAN","YAMBA DR / KITCHENER ST, GARRAN","YES","ACTIVE/IN SERVICE","19730620000000","19800228000000",,"19921223000000","TELSTRA","NO","NO","19730620000000","ROADS_ACT","ROADS_ACT","CAPITAL WORKS","-35.343894059","149.098531064"
"POINT (149.12813905599657 -35.247262359297935)","Signals","740740","TSSI162","Site 162 MOUAT ST / BRIGALOW ST, LYNEHAM TEE","ROAD INFRASTRUCTURE","ELECTRICAL AND MECHANICAL","TRAFFIC SIGNAL SITE","TEE","CITY","LYNEHAM","MOUAT ST / BRIGALOW ST, LYNEHAM","YES","ACTIVE/IN SERVICE","19980204000000","19980201000000",,"19980204000000","TELSTRA","NO","YES","19980204000000","ROADS_ACT","ROADS_ACT","GIFTED","-35.2472706614","149.128133521"
"POINT (149.06089283758288 -35.23978860951005)","Signals","9084218","TSSI237","Site 237 JOSEPHSON ST / COHEN ST, BELCONNEN CROSS","ROAD INFRASTRUCTURE","ELECTRICAL AND MECHANICAL","TRAFFIC SIGNAL SITE","CROSS","BELCONNEN","BELCONNEN","JOSEPHSON ST / COHEN ST, BELCONNEN","YES","ACTIVE/IN SERVICE","20090507000000","20090506000000",,,"TELSTRA","NO","NO","20090507000000","ROADS_ACT","ROADS_ACT","GIFTED","-35.2397970029","149.0608872"
"POINT (149.0969544386283 -35.32430357919398)","Signals","740816","TSSI1004","Site 1004 KENT ST, DEAKIN PEDESTRIAN","ROAD INFRASTRUCTURE","ELECTRICAL AND MECHANICAL","TRAFFIC SIGNAL SITE","PEDESTRIAN","WODEN","DEAKIN","KENT ST, DEAKIN","YES","ACTIVE/IN SERVICE","19680921000000","19900316000000","20050401000000","20050401000000","TELSTRA","NO","NO","19680921000000","ROADS_ACT","ROADS_ACT","GIFTED","-35.3243120095","149.09694882"
"POINT (149.06536618786606 -35.31945854917845)","Signals","740603","TSSI94","Site 94 COTTER RD / TUGG PKWY (STH RAMP), CURTIN CROSS","ROAD INFRASTRUCTURE","ELECTRICAL AND MECHANICAL","TRAFFIC SIGNAL SITE","CROSS","WODEN","CURTIN","COTTER RD / TUGG PKWY (STH RAMP), CURTIN","YES","ACTIVE/IN SERVICE","19740407000000","19801027000000",,"19740207000000","TELSTRA","NO","NO","19740407000000","ROADS_ACT","ROADS_ACT","CAPITAL WORKS","-35.3194670733","149.065360561"
"POINT (149.11011957384252 -35.243036273562936)","Signals","4287128","TSSI213","Site 213 GINNINDERRA DR / GUNGAHLIN DR (WEST), BRUCE CROSS","ROAD INFRASTRUCTURE","ELECTRICAL AND MECHANICAL","TRAFFIC SIGNAL SITE","CROSS","BELCONNEN","BRUCE","GINNINDERRA DR / GUNGAHLIN DR (WEST), BRUCE","YES","ACTIVE/IN SERVICE","20061211000000","20061213000000",,,"TELSTRA","NO","YES","20061211000000","ROADS_ACT","ROADS_ACT","CAPITAL WORKS","-35.2430445897","149.110114027"
"POINT (149.12587882699145 -35.27909655721632)","Signals","740641","TSSI112","Site 112 MARCUS CLARKE ST / ALLSOP PL, CITY TEE","ROAD INFRASTRUCTURE","ELECTRICAL AND MECHANICAL","TRAFFIC SIGNAL SITE","TEE","CITY","CITY","MARCUS CLARKE ST / ALLSOP PL, CITY","YES","ACTIVE/IN SERVICE","19880225000000","19890819000000",,"19880225000000","TELSTRA","NO","NO","19880225000000","ROADS_ACT","ROADS_ACT","CAPITAL WORKS","-35.279104905","149.125873231"
"POINT (149.10374851142893 -35.259947150334604)","Signals","740494","TSSI28","Site 28 BARRY DR / BELCONNEN WAY, O""CONNOR TEE","ROAD INFRASTRUCTURE","ELECTRICAL AND MECHANICAL","TRAFFIC SIGNAL SITE","TEE","BELCONNEN","O""CONNOR","BARRY DR / BELCONNEN WAY, O""CONNOR","YES","ACTIVE/IN SERVICE","19711221000000","19850528000000",,"19711221000000","TELSTRA","NO","YES","19711221000000","ROADS_ACT","ROADS_ACT","GIFTED","-35.2599554892","149.103742931"
"POINT (149.1089970743952 -35.15352547566844)","Signals","10768596","TSSI303","Site 303 HORSE PARK DR / GASTON WAY / SUTHRLAND CRES CROSS","ROAD INFRASTRUCTURE","ELECTRICAL AND MECHANICAL","TRAFFIC SIGNAL SITE","CROSS","GUNGAHLIN","TAYLOR","HORSE PARK DR / GASTON WAY / SUTHRLAND CRES","YES","ACTIVE/IN SERVICE","20170619000000","20170619000000",,,"TELSTRA","NO","NO","20170619000000","ROADS_ACT","ROADS_ACT","CAPITAL WORKS","-35.1535337419","149.108991527"
"POINT (149.13105637953078 -35.27591001408424)","Signals","740469","TSSI15","Site 15 COOYONG ST / MORT ST, CITY CROSS","ROAD INFRASTRUCTURE","ELECTRICAL AND MECHANICAL","TRAFFIC SIGNAL SITE","CROSS","CITY","BRADDON","COOYONG ST / MORT ST, CITY","YES","ACTIVE/IN SERVICE","19700918000000","19840112000000","20000608000000","20000608000000","TELSTRA","NO","NO","19700918000000","ROADS_ACT","ROADS_ACT","GIFTED","-35.2759183519","149.131050794"
"POINT (149.12536893415538 -35.28209035411526)","Signals","740649","TSSI117","Site 117 LONDON CIRC / GORDON ST, CITY TEE","ROAD INFRASTRUCTURE","ELECTRICAL AND MECHANICAL","TRAFFIC SIGNAL SITE","TEE","CITY","CITY","LONDON CIRC / GORDON ST, CITY","YES","ACTIVE/IN SERVICE","19880323000000","19890819000000","20030116000000","19880323000000","TELSTRA","NO","NO","19880323000000","ROADS_ACT","ROADS_ACT","GIFTED","-35.2820987104","149.125363339"
"POINT (149.07134145514237 -35.21529458385138)","Signals","740611","TSSI99","Site 99 WILLIAM WEBB DR / MOYNIHAN ST, EVATT TEE","ROAD INFRASTRUCTURE","ELECTRICAL AND MECHANICAL","TRAFFIC SIGNAL SITE","TEE","BELCONNEN","MCKELLAR","WILLIAM WEBB DR / MOYNIHAN ST, EVATT","YES","ACTIVE/IN SERVICE","19860616000000","19870611000000",,"19860616000000","TELSTRA","NO","YES","19860616000000","ROADS_ACT","ROADS_ACT","GIFTED","-35.215302939","149.071335847"
"POINT (149.1470460405799 -35.28174462128163)","Signals","740862","TSSI1029","Site 1029 LIMESTONE AVE NEAR ANZAC PDE, REID PEDESTRIAN","ROAD INFRASTRUCTURE","ELECTRICAL AND MECHANICAL","TRAFFIC SIGNAL SITE","PEDESTRIAN","CITY","CAMPBELL","LIMESTONE AVE NEAR ANZAC PDE, REID","YES","ACTIVE/IN SERVICE","20030423000000","20030423000000",,,"TELSTRA","NO","NO","20030423000000","NCA","NCA","GIFTED","-35.2817529565","149.147040471"
"POINT (149.12881466397457 -35.162324616769)","Signals","11297411","TSSI321","Site 321  TEE","ROAD INFRASTRUCTURE","ELECTRICAL AND MECHANICAL","TRAFFIC SIGNAL SITE","TEE","BELCONNEN","AMAROO",,"YES","ACTIVE/IN SERVICE","20190520000000","20190520000000",,,,,,,"ROADS_ACT","ROADS_ACT","CAPITAL WORKS","-35.1623328828","149.12880928"
"POINT (149.06214205926332 -35.23556226028772)","Signals","9084223","TSSI242","Site 242 LATHLAIN ST / LUXTON ST, BELCONNEN TEE","ROAD INFRASTRUCTURE","ELECTRICAL AND MECHANICAL","TRAFFIC SIGNAL SITE","TEE","BELCONNEN","BELCONNEN","LATHLAIN ST / LUXTON ST, BELCONNEN","YES","ACTIVE/IN SERVICE","20090807000000","20090807000000",,,"TELSTRA","NO","NO","20090807000000","ROADS_ACT","ROADS_ACT","CAPITAL WORKS","-35.2355706496","149.062136429"
"POINT (149.07368969188877 -35.26066364869143)","Signals","740600","TSSI91","Site 91 BINDUBI ST / BANDJALONG CR, ARANDA CROSS","ROAD INFRASTRUCTURE","ELECTRICAL AND MECHANICAL","TRAFFIC SIGNAL SITE","CROSS","BELCONNEN","ARANDA","BINDUBI ST / BANDJALONG CR, ARANDA","YES","ACTIVE/IN SERVICE","19801104000000","19860228000000","19991122000000","19991122000000","TELSTRA","NO","NO","19801104000000","ROADS_ACT","ROADS_ACT","GIFTED","-35.2606720427","149.073684072"
"POINT (149.14805237844186 -35.298945879313976)","Signals","9084203","TSSI225","Site 225 KINGS AVE / PARKES WAY / MORSEHEAD DR, RUSSELL CROSS","ROAD INFRASTRUCTURE","ELECTRICAL AND MECHANICAL","TRAFFIC SIGNAL SITE","CROSS","CITY","RUSSELL","KINGS AVE / PARKES WAY / MORSEHEAD DR, RUSSELL","YES","ACTIVE/IN SERVICE","20110328000000","20110328000000",,,"TELSTRA","NO","YES","20110328000000","NCA","NCA","GIFTED","-35.2989542563","149.148046821"
"POINT (149.13351055402964 -35.25077186989312)","Signals","11165035","TSSI1013","Site 1013  PEDESTRIAN","ROAD INFRASTRUCTURE","ELECTRICAL AND MECHANICAL","TRAFFIC SIGNAL SITE","PEDESTRIAN","CITY","DICKSON",,"YES","ACTIVE/IN SERVICE","20190206000000",,,,,,,,,,,"-35.250780171","149.133505016"
"POINT (149.1754415979313 -35.297175762710545)","Signals","9950980","TSSI278","Site 278 FAIRBAIRN AVE / MAJURA PARKWAY NTHBOUND ON RAMP TEE","ROAD INFRASTRUCTURE","ELECTRICAL AND MECHANICAL","TRAFFIC SIGNAL SITE","TEE","CITY","CAMPBELL","FAIRBAIRN AVE / MAJURA PARKWAY NTHBOUND ON RAMP","YES","ACTIVE/IN SERVICE","20150514000000","20150320000000",,,"TELSTRA","NO","NO","20150514000000","ROADS_ACT","ROADS_ACT","CAPITAL WORKS","-35.2971840717","149.175436069"
"POINT (149.14396476697829 -35.31382010205968)","Signals","740774","TSSI181","Site 181 WENTWORTH AV / GILES ST, KINGSTON CROSS","ROAD INFRASTRUCTURE","ELECTRICAL AND MECHANICAL","TRAFFIC SIGNAL SITE","CROSS","CITY","KINGSTON","WENTWORTH AV / GILES ST, KINGSTON","YES","ACTIVE/IN SERVICE","20020506000000","20020527000000","20041022000000",,"TELSTRA","NO","NO","20020506000000","ROADS_ACT","ROADS_ACT","GIFTED","-35.3138284923","149.143959206"
"POINT (149.1265761126737 -35.27680492108235)","Signals","9416849","TSSI267","Site 267 MARCUS CLARKE ST / RUDD ST / RIMMER ST, ACTON CROSS","ROAD INFRASTRUCTURE","ELECTRICAL AND MECHANICAL","TRAFFIC SIGNAL SITE","CROSS","CITY","CITY","MARCUS CLARKE ST / RUDD ST / RIMMER ST, ACTON","YES","ACTIVE/IN SERVICE","20130316000000","20130316000000",,,"TELSTRA","NO","NO","20130316000000","ROADS_ACT","ROADS_ACT","CAPITAL WORKS","-35.276813264","149.12657052"
"POINT (149.17754681431452 -35.333415217637885)","Signals","740689","TSSI136","Site 136 NEWCASTLE ST / WHYALLA ST, FYSHWICK TEE","ROAD INFRASTRUCTURE","ELECTRICAL AND MECHANICAL","TRAFFIC SIGNAL SITE","TEE","WODEN","FYSHWICK","NEWCASTLE ST / WHYALLA ST, FYSHWICK","YES","ACTIVE/IN SERVICE","19890720000000","19900101000000","20021216000000","19890720000000","TELSTRA","NO","NO","19890720000000","ROADS_ACT","ROADS_ACT","GIFTED","-35.3334235491","149.177541324"
"POINT (149.05703534425447 -35.373898171869726)","Signals","740563","TSSI64","Site 64 DRAKEFORD DRIVE / SULWOOD DR, KAMBAH CROSS","ROAD INFRASTRUCTURE","ELECTRICAL AND MECHANICAL","TRAFFIC SIGNAL SITE","CROSS","WODEN","KAMBAH","DRAKEFORD DRIVE / SULWOOD DR, KAMBAH","YES","ACTIVE/IN SERVICE","19771213000000","19800611000000","20020722000000","19970314000000","TELSTRA","NO","YES","19771213000000","ROADS_ACT","ROADS_ACT","GIFTED","-35.3739066548","149.057029672"
"POINT (149.12882153001513 -35.25711231750539)","Signals","740824","TSSI1011","Site 1011 WATTLE ST, O""CONNOR PEDESTRIAN","ROAD INFRASTRUCTURE","ELECTRICAL AND MECHANICAL","TRAFFIC SIGNAL SITE","PEDESTRIAN","CITY","LYNEHAM","WATTLE ST, O""CONNOR","YES","ACTIVE/IN SERVICE","19731219000000","19891207000000","20020827000000","20170330000000","TELSTRA","NO","NO","19731219000000","ROADS_ACT","ROADS_ACT","CAPITAL WORKS","-35.25712063","149.128815977"
"POINT (149.1308099588062 -35.218231614264674)","Signals","740728","TSSI158","Site 158 GUNGAHLIN DR / STANDFORD ST, MITCHELL TEE","ROAD INFRASTRUCTURE","ELECTRICAL AND MECHANICAL","TRAFFIC SIGNAL SITE","TEE","BELCONNEN","MITCHELL","GUNGAHLIN DR / STANDFORD ST, MITCHELL","YES","ACTIVE/IN SERVICE","19971211000000","19971207000000",,"19971211000000","TELSTRA","YES","YES","19971211000000","ROADS_ACT","ROADS_ACT","CAPITAL WORKS","-35.218239962","149.130804482"
"POINT (149.08678206610662 -35.25290568271884)","Signals","740807","TSSI204","Site 204 HAYDON DR / MARY POTTER CIRC, BRUCE TEE","ROAD INFRASTRUCTURE","ELECTRICAL AND MECHANICAL","TRAFFIC SIGNAL SITE","TEE","BELCONNEN","BRUCE","HAYDON DR / MARY POTTER CIRC, BRUCE","YES","ACTIVE/IN SERVICE","20050830000000","20050824000000",,,"TELSTRA","NO","NO","20050830000000","ROADS_ACT","ROADS_ACT","GIFTED","-35.2529140299","149.086776483"
"POINT (149.14413002374738 -35.22352468885241)","Signals","11165023","TSSI82","Site 82  CROSS","ROAD INFRASTRUCTURE","ELECTRICAL AND MECHANICAL","TRAFFIC SIGNAL SITE","CROSS","BELCONNEN","LYNEHAM",,"YES","ACTIVE/IN SERVICE",,,,,,,,,,,,"-35.2235330244","149.144124561"
"POINT (149.10174431372485 -35.40505242314444)","Signals","9810655","TSSI279","Site 279 ASHLEY DR / MCBRYDE ST, WANNIASSA CROSS","ROAD INFRASTRUCTURE","ELECTRICAL AND MECHANICAL","TRAFFIC SIGNAL SITE","CROSS","WODEN","WANNIASSA","ASHLEY DR / MCBRYDE ST, WANNIASSA","YES","ACTIVE/IN SERVICE","20140728000000","20140722000000",,,"TELSTRA","NO","NO","20140728000000","ROADS_ACT","ROADS_ACT","CAPITAL WORKS","-35.4050608636","149.101738713"
"POINT (149.1417928295791 -35.31108550354942)","Signals","740519","TSSI45","Site 45 WENTWORTH AV / TELOPEA PK, KINGSTON CROSS","ROAD INFRASTRUCTURE","ELECTRICAL AND MECHANICAL","TRAFFIC SIGNAL SITE","CROSS","CITY","KINGSTON","WENTWORTH AV / TELOPEA PK, KINGSTON","YES","ACTIVE/IN SERVICE","19731220000000","19941129000000",,"19731220000000","TELSTRA","NO","YES","19731220000000","ROADS_ACT","ROADS_ACT","GIFTED","-35.3110939038","149.141787267"
"POINT (149.1364179322103 -35.28646162001442)","Signals","10443125","TSSI1043","Site 1043 CONSTITUTION AV PEDESTRIAN","ROAD INFRASTRUCTURE","ELECTRICAL AND MECHANICAL","TRAFFIC SIGNAL SITE","PEDESTRIAN","CITY","REID","CONSTITUTION AV","YES","ACTIVE/IN SERVICE","20160607000000","20160607000000",,,,"NO","NO","20160607000000","NCA","NCA","GIFTED","-35.2864699773","149.136412353"
"POINT (149.11098871005123 -35.22407206122109)","Signals","740833","TSSI1017","Site 1017 MARIBYRNONG AV / HEALTH CENTRE, KALEEN PEDESTRIAN","ROAD INFRASTRUCTURE","ELECTRICAL AND MECHANICAL","TRAFFIC SIGNAL SITE","PEDESTRIAN","BELCONNEN","KALEEN","MARIBYRNONG AV / HEALTH CENTRE, KALEEN","YES","ACTIVE/IN SERVICE","19820521000000","19891206000000","20050330000000","20050330000000","TELSTRA","NO","NO","19820521000000","ROADS_ACT","ROADS_ACT","GIFTED","-35.2240803913","149.110983173"
"POINT (149.06748621021237 -35.24299018550294)","Signals","740566","TSSI67","Site 67 BENJAMIN WAY / COLLEGE ST, BELCONNEN CROSS","ROAD INFRASTRUCTURE","ELECTRICAL AND MECHANICAL","TRAFFIC SIGNAL SITE","CROSS","BELCONNEN","BELCONNEN","BENJAMIN WAY / COLLEGE ST, BELCONNEN","YES","ACTIVE/IN SERVICE","19780303000000","19860221000000","20030115000000","19780816000000","TELSTRA","NO","NO","19780303000000","ROADS_ACT","ROADS_ACT","GIFTED","-35.2429985649","149.067480585"
"POINT (149.12594224185403 -35.28308344091072)","Signals","740577","TSSI77","Site 77 EDINBURGH AV / LONDON CIRC, CITY TEE","ROAD INFRASTRUCTURE","ELECTRICAL AND MECHANICAL","TRAFFIC SIGNAL SITE","TEE","CITY","CITY","EDINBURGH AV / LONDON CIRC, CITY","YES","ACTIVE/IN SERVICE","19781220000000","19840528000000",,"19781220000000","TELSTRA","NO","NO","19781220000000","ROADS_ACT","ROADS_ACT","GIFTED","-35.2830917993","149.125936648"
"POINT (149.17724730927105 -35.33480250069805)","Signals","4287176","TSSI217","Site 217 NEWCASTLE ST - IRON KNOB ST, FYSHWICK TEE","ROAD INFRASTRUCTURE","ELECTRICAL AND MECHANICAL","TRAFFIC SIGNAL SITE","TEE","WODEN","FYSHWICK","NEWCASTLE ST - IRON KNOB ST, FYSHWICK","YES","ACTIVE/IN SERVICE","20070313000000","20070313000000",,,"TELSTRA","NO","NO","20070313000000","ROADS_ACT","ROADS_ACT","GIFTED","-35.3348108326","149.177241819"
"POINT (149.13197532406434 -35.28198188425475)","Signals","740661","TSSI121","Site 121 LONDON CIRC / AKUNA ST, CITY TEE","ROAD INFRASTRUCTURE","ELECTRICAL AND MECHANICAL","TRAFFIC SIGNAL SITE","TEE","CITY","CITY","LONDON CIRC / AKUNA ST, CITY","YES","ACTIVE/IN SERVICE","19880526000000","19880527000000",,"19880526000000","TELSTRA","NO","NO","19880526000000","ROADS_ACT","ROADS_ACT","CAPITAL WORKS","-35.2819902341","149.131969737"
"POINT (149.10238583971713 -35.413966340892785)","Signals","10812979","TSSI280","Site 280  TEE","ROAD INFRASTRUCTURE","ELECTRICAL AND MECHANICAL","TRAFFIC SIGNAL SITE","TEE","WODEN","GOWRIE",,"YES","ACTIVE/IN SERVICE","20180508000000",,,,,"NO","NO",,,,,"-35.4139747924","149.102380255"
"POINT (149.0961084756311 -35.2291774919711)","Signals","9142966","TSSI251","Site 251 BALDWIN DR / MARIBYRNONG AVE, KALEEN CROSS","ROAD INFRASTRUCTURE","ELECTRICAL AND MECHANICAL","TRAFFIC SIGNAL SITE","CROSS","BELCONNEN","LAWSON","BALDWIN DR / MARIBYRNONG AVE, KALEEN","YES","ACTIVE/IN SERVICE","20110408000000","20110408000000",,,"TELSTRA","NO","NO","20110408000000","ROADS_ACT","ROADS_ACT","CAPITAL WORKS","-35.2291858076","149.096102898"
"POINT (149.05641446139478 -35.379165067783234)","Signals","740531","TSSI54","Site 54 DRAKEFORD DR / MARCONI CR, KAMBAH CROSS","ROAD INFRASTRUCTURE","ELECTRICAL AND MECHANICAL","TRAFFIC SIGNAL SITE","CROSS","WODEN","KAMBAH","DRAKEFORD DR / MARCONI CR, KAMBAH","YES","ACTIVE/IN SERVICE","19770421000000","19801212000000","20040528000000","20040528000000","TELSTRA","NO","NO","19770421000000","ROADS_ACT","ROADS_ACT","GIFTED","-35.3791735495","149.056408789"
"POINT (149.0645267149286 -35.242994950000494)","Signals","740672","TSSI128","Site 128 NETTLEFOLD ST / LATHLAIN ST, BELCONNEN CROSS","ROAD INFRASTRUCTURE","ELECTRICAL AND MECHANICAL","TRAFFIC SIGNAL SITE","CROSS","BELCONNEN","BELCONNEN","NETTLEFOLD ST / LATHLAIN ST, BELCONNEN","YES","ACTIVE/IN SERVICE","19890824000000","19891121000000","20030115000000","19890824000000","TELSTRA","NO","NO","19890824000000","ROADS_ACT","ROADS_ACT","GIFTED","-35.2430033364","149.064521083"
"POINT (149.03730728893552 -35.31973593376046)","Signals","9277096","TSSI256","Site 256 JOHN GORTON DR / STEVE IRWIN AVE CROSS","ROAD INFRASTRUCTURE","ELECTRICAL AND MECHANICAL","TRAFFIC SIGNAL SITE","CROSS","WODEN","WRIGHT","JOHN GORTON DR / STEVE IRWIN AVE","YES","ACTIVE/IN SERVICE","20120821000000","20120920000000",,,"TELSTRA","NO","NO","20120821000000","ROADS_ACT","ROADS_ACT","CAPITAL WORKS","-35.3197444934","149.037301613"
"POINT (149.1402993785636 -35.2511173626309)","Signals","740758","TSSI174","Site 174 COWPER ST / DICKSON PL, DICKSON TEE","ROAD INFRASTRUCTURE","ELECTRICAL AND MECHANICAL","TRAFFIC SIGNAL SITE","TEE","CITY","DICKSON","COWPER ST / DICKSON PL, DICKSON","YES","ACTIVE/IN SERVICE","20000627000000","20000627000000","20010702000000",,"TELSTRA","NO","NO","20000627000000","ROADS_ACT","ROADS_ACT","CAPITAL WORKS","-35.2511256609","149.140293845"
"POINT (149.18306732207947 -35.34056953318852)","Signals","9084197","TSSI220","Site 220 CANBERRA AVE / TOM PRICE ST, FYSHWICK TEE","ROAD INFRASTRUCTURE","ELECTRICAL AND MECHANICAL","TRAFFIC SIGNAL SITE","TEE","WODEN","SYMONSTON","CANBERRA AVE / TOM PRICE ST, FYSHWICK","YES","ACTIVE/IN SERVICE","20080715000000","20080715000000",,,"TELSTRA","NO","NO","20080715000000","ROADS_ACT","ROADS_ACT","GIFTED","-35.3405778799","149.183061858"
"POINT (149.05865750405036 -35.24024059788459)","Signals","9084219","TSSI238","Site 238  NETTLEFOLD ST / COHEN ST, BELCONNEN TEE","ROAD INFRASTRUCTURE","ELECTRICAL AND MECHANICAL","TRAFFIC SIGNAL SITE","TEE","BELCONNEN","BELCONNEN","NETTLEFOLD ST / COHEN ST, BELCONNEN","YES","ACTIVE/IN SERVICE","20090424000000","20090424000000",,,"TELSTRA","NO","NO","20090424000000","ROADS_ACT","ROADS_ACT","GIFTED","-35.2402489935","149.058651863"
"POINT (149.1412109960624 -35.28929771107573)","Signals","740456","TSSI7","Site 7 ANZAC PARADE / CONSTITUTION AV, PARKES CROSS","ROAD INFRASTRUCTURE","ELECTRICAL AND MECHANICAL","TRAFFIC SIGNAL SITE","CROSS","CITY","CAMPBELL","ANZAC PARADE / CONSTITUTION AV, PARKES","YES","ACTIVE/IN SERVICE","19680807000000","19920819000000","20010404000000","19901004000000","TELSTRA","NO","NO","19680807000000","NCA","NCA","GIFTED","-35.289306071","149.141205424"
"POINT (149.08800382451082 -35.343592739244514)","Signals","740724","TSSI155","Site 155 CALLUM ST / BOWES ST, PHILLIP TEE","ROAD INFRASTRUCTURE","ELECTRICAL AND MECHANICAL","TRAFFIC SIGNAL SITE","TEE","WODEN","PHILLIP","CALLUM ST / BOWES ST, PHILLIP","YES","ACTIVE/IN SERVICE","19951024000000","19900604000000",,"19951024000000","TELSTRA","NO","NO","19951024000000","ROADS_ACT","ROADS_ACT","GIFTED","-35.3436011671","149.087998209"
"POINT (149.03178130287026 -35.30492206758772)","Signals","9951430","TSSI283","Site 283 JOHN GORTON DR / WYNDHAM AV TEE","ROAD INFRASTRUCTURE","ELECTRICAL AND MECHANICAL","TRAFFIC SIGNAL SITE","TEE","WODEN","DENMAN PROSPECT","JOHN GORTON DR / WYNDHAM AV","YES","ACTIVE/IN SERVICE",,"20140730000000",,,"TELSTRA","NO","YES","20150212000000","ROADS_ACT","ROADS_ACT","CAPITAL WORKS","-35.3049306654","149.031775588"
"POINT (149.0647676003613 -35.41888602051568)","Signals","740749","TSSI169","Site 169 ATHLLON DR / REED ST, GREENWAY TEE","ROAD INFRASTRUCTURE","ELECTRICAL AND MECHANICAL","TRAFFIC SIGNAL SITE","TEE","WODEN","GREENWAY","ATHLLON DR / REED ST, GREENWAY","YES","ACTIVE/IN SERVICE","19981216000000","19981216000000",,"19981216000000","TELSTRA","NO","NO","19981216000000","ROADS_ACT","ROADS_ACT","GIFTED","-35.4188944502","149.06476192"
"POINT (149.12906221375889 -35.279572806910366)","Signals","740442","TSSI1","Site 1 NORTHBOURNE AV / LONDON CIRCUIT, CITY CROSS","ROAD INFRASTRUCTURE","ELECTRICAL AND MECHANICAL","TRAFFIC SIGNAL SITE","CROSS","CITY","CITY","NORTHBOURNE AV / LONDON CIRCUIT, CITY","YES","ACTIVE/IN SERVICE","19651023000000","19840221000000","20070603000000","20070603000000","TELSTRA","NO","YES","19711119000000","ROADS_ACT","ROADS_ACT","CAPITAL WORKS","-35.2795811531","149.129056622"
"POINT (149.08829616045506 -35.34481937530636)","Signals","740550","TSSI60","Site 60 CALLAM ST / BRADLEY ST, PHILLIP TEE","ROAD INFRASTRUCTURE","ELECTRICAL AND MECHANICAL","TRAFFIC SIGNAL SITE","TEE","WODEN","PHILLIP","CALLAM ST / BRADLEY ST, PHILLIP","YES","ACTIVE/IN SERVICE","19770926000000","19900604000000","20120224000000","19770926000000","TELSTRA","NO","NO","19770926000000","ROADS_ACT","ROADS_ACT","GIFTED","-35.3448278032","149.088290544"
"POINT (149.1167616343403 -35.38289933869882)","Signals","740697","TSSI140","Site 140 YAMBA DR / LONG GULLY RD, ISACCS TEE","ROAD INFRASTRUCTURE","ELECTRICAL AND MECHANICAL","TRAFFIC SIGNAL SITE","TEE","WODEN","TUGGERANONG (RURAL DIST.)","YAMBA DR / LONG GULLY RD, ISACCS","YES","ACTIVE/IN SERVICE","19891221000000","19900927000000",,"19891221000000","TELSTRA","NO","YES","19891221000000","ROADS_ACT","ROADS_ACT","GIFTED","-35.382907762","149.116756046"
"POINT (149.16161810071358 -35.34097185527531)","Signals","740683","TSSI133","Site 133 HINDMARSH DR / MONARO HWY (NTH RAMP), SYMONSTON CROSS","ROAD INFRASTRUCTURE","ELECTRICAL AND MECHANICAL","TRAFFIC SIGNAL SITE","CROSS","WODEN","NARRABUNDAH","HINDMARSH DR / MONARO HWY (NTH RAMP), SYMONSTON","YES","ACTIVE/IN SERVICE","19890802000000","19900101000000","20021216000000","19890802000000","TELSTRA","NO","NO","19890802000000","ROADS_ACT","ROADS_ACT","GIFTED","-35.3409801861","149.161612576"
"POINT (149.13462642947778 -35.24417200701432)","Signals","11165006","TSSI49","Site 49  CROSS","ROAD INFRASTRUCTURE","ELECTRICAL AND MECHANICAL","TRAFFIC SIGNAL SITE","CROSS","CITY","DOWNER",,"YES","ACTIVE/IN SERVICE",,,,,,,,,,,,"-35.2441803114","149.134620906"
"POINT (149.1027539426594 -35.408635222908956)","Signals","10812980","TSSI265","Site 265  TEE","ROAD INFRASTRUCTURE","ELECTRICAL AND MECHANICAL","TRAFFIC SIGNAL SITE","TEE","WODEN","GOWRIE",,"YES","ACTIVE/IN SERVICE","20180508000000",,,,,"NO","NO",,,,,"-35.4086436684","149.10274835"
"POINT (149.12992648638698 -35.29842567700386)","Signals","9084205","TSSI226","Site 226 KING EDWARD TCE / PARKES PL WEST, PARKES PEDESTRIAN","ROAD INFRASTRUCTURE","ELECTRICAL AND MECHANICAL","TRAFFIC SIGNAL SITE","PEDESTRIAN","CITY","PARKES","KING EDWARD TCE / PARKES PL WEST, PARKES","YES","ACTIVE/IN SERVICE","20090227000000","20090303000000",,,"TELSTRA","NO","NO","20090227000000","NCA","NCA","GIFTED","-35.2984340723","149.129920905"
"POINT (149.15187654020932 -35.230393783113016)","Signals","740664","TSSI124","Site 124 NORTHBOURNE AV / STIRLING AV, WATSON TEE","ROAD INFRASTRUCTURE","ELECTRICAL AND MECHANICAL","TRAFFIC SIGNAL SITE","TEE","CITY","GUNGAHLIN (RURAL DIST.)","NORTHBOURNE AV / STIRLING AV, WATSON","YES","ACTIVE/IN SERVICE","19881214000000","19910924000000",,"19881012000000","TELSTRA","NO","NO","19891214000000","ROADS_ACT","ROADS_ACT","GIFTED","-35.2304021031","149.151871072"
"POINT (149.08733972450506 -35.23356586705472)","Signals","9084233","TSSI252","Site 252 GINNINDERRA DR / ALLAWOONA ST, LAWSON CROSS","ROAD INFRASTRUCTURE","ELECTRICAL AND MECHANICAL","TRAFFIC SIGNAL SITE","CROSS","BELCONNEN","LAWSON","GINNINDERRA DR / ALLAWOONA ST, LAWSON","YES","ACTIVE/IN SERVICE","20110317000000","20110225000000",,,"TELSTRA","NO","NO","20110317000000","ROADS_ACT","ROADS_ACT","CAPITAL WORKS","-35.2335741924","149.087334134"
"POINT (149.14817663135705 -35.295793625743265)","Signals","740872","TSSI2003","Site 2003 RUSSELL DR FLASHING LIGHTS, RUSSELL PEDESTRIAN","ROAD INFRASTRUCTURE","ELECTRICAL AND MECHANICAL","TRAFFIC SIGNAL SITE","PEDESTRIAN","CITY","RUSSELL","RUSSELL DR FLASHING LIGHTS, RUSSELL","YES","ACTIVE/IN SERVICE","20000828000000",,,"20000828000000",,"NO","NO","20000828000000","NCA","NCA","GIFTED","-35.2958019948","149.148171072"
"POINT (149.06472947197747 -35.236222408826485)","Signals","740585","TSSI81","Site 81 EMU BANK / LUXTON ST, BELCONNEN CROSS","ROAD INFRASTRUCTURE","ELECTRICAL AND MECHANICAL","TRAFFIC SIGNAL SITE","CROSS","BELCONNEN","BELCONNEN","EMU BANK / LUXTON ST, BELCONNEN","YES","ACTIVE/IN SERVICE","19790711000000","19940725000000",,"19790711000000","TELSTRA","NO","NO","19790711000000","ROADS_ACT","ROADS_ACT","GIFTED","-35.236230792","149.064723845"
"POINT (149.0572928860536 -35.34536399870679)","Signals","740594","TSSI87","Site 87 HINDMARSH DR / NAMATJIRA DR, WESTON CROSS","ROAD INFRASTRUCTURE","ELECTRICAL AND MECHANICAL","TRAFFIC SIGNAL SITE","CROSS","WODEN","WESTON","HINDMARSH DR / NAMATJIRA DR, WESTON","YES","ACTIVE/IN SERVICE","19800229000000","19800611000000",,"19950821000000","TELSTRA","NO","NO","19800229000000","ROADS_ACT","ROADS_ACT","GIFTED","-35.3453725007","149.057287268"
"POINT (149.0765169478833 -35.238568804896644)","Signals","9465080","TSSI1042","Site 1042 AIKMAN DR PEDESTRIAN","ROAD INFRASTRUCTURE","ELECTRICAL AND MECHANICAL","TRAFFIC SIGNAL SITE","PEDESTRIAN","BELCONNEN","BRUCE","AIKMAN DR","YES","ACTIVE/IN SERVICE","20130828000000","20130823000000",,"20130828000000",,"NO","NO",,"ROADS_ACT","ROADS_ACT","CAPITAL WORKS","-35.2385771604","149.076511342"
"POINT (149.13262049991414 -35.18400963322325)","Signals","11124221","TSSI314","Site 314  CROSS","ROAD INFRASTRUCTURE","ELECTRICAL AND MECHANICAL","TRAFFIC SIGNAL SITE","CROSS","GUNGAHLIN","GUNGAHLIN",,"YES","ACTIVE/IN SERVICE","20180413000000","20180413000000",,,,"NO","NO",,"ROADS_ACT","ROADS_ACT",,"-35.1840179483","149.132615137"
"POINT (149.13286120168084 -35.18303209213421)","Signals","740785","TSSI187","Site 187 ANTHONY ROLFE AVE / GOZZARD ST, GUNGAHLIN CROSS","ROAD INFRASTRUCTURE","ELECTRICAL AND MECHANICAL","TRAFFIC SIGNAL SITE","CROSS","BELCONNEN","GUNGAHLIN","ANTHONY ROLFE AVE / GOZZARD ST, GUNGAHLIN","YES","ACTIVE/IN SERVICE","20030328000000","20030328000000",,,"TELSTRA","NO","NO","20030328000000","ROADS_ACT","ROADS_ACT","GIFTED","-35.1830404049","149.132855839"
"POINT (149.10407635056217 -35.349650569021215)","Signals","740804","TSSI200","Site 200 HINDMASH DR / PALMER ST, GARRAN TEE","ROAD INFRASTRUCTURE","ELECTRICAL AND MECHANICAL","TRAFFIC SIGNAL SITE","TEE","WODEN","O""MALLEY","HINDMASH DR / PALMER ST, GARRAN","YES","ACTIVE/IN SERVICE","20041026000000","20041021000000",,,"TELSTRA","NO","NO","20041026000000","ROADS_ACT","ROADS_ACT","GIFTED","-35.3496589656","149.104070731"
"POINT (149.16051943733345 -35.243476139631845)","Signals","9085554","TSSI1040","Site 1040 ANTILL ST (EAST OF KNOX ST), WATSON PEDESTRIAN","ROAD INFRASTRUCTURE","ELECTRICAL AND MECHANICAL","TRAFFIC SIGNAL SITE","PEDESTRIAN","CITY","HACKETT","ANTILL ST (EAST OF KNOX ST), WATSON","YES","ACTIVE/IN SERVICE","20111116000000","20111116000000",,,"TELSTRA","NO","NO","20111116000000","ROADS_ACT","ROADS_ACT","GIFTED","-35.2434844229","149.160513956"
"POINT (149.01944195616147 -35.21944695133062)","Signals","9276475","TSSI261","Site 261 SOUTHERN CROSS DR / FLOREY DR, MACGREGOR TEE","ROAD INFRASTRUCTURE","ELECTRICAL AND MECHANICAL","TRAFFIC SIGNAL SITE","TEE","BELCONNEN","HOLT","SOUTHERN CROSS DR / FLOREY DR, MACGREGOR","YES","ACTIVE/IN SERVICE","20120917000000","20120823000000",,,"TELSTRA","NO","NO","20120917000000","ROADS_ACT","ROADS_ACT","CAPITAL WORKS","-35.21945532","149.019436225"
"POINT (149.09708726741985 -35.40134451172032)","Signals","10768584","TSSI264","Site 264 STERNBERG CR / LANGDON AV TEE","ROAD INFRASTRUCTURE","ELECTRICAL AND MECHANICAL","TRAFFIC SIGNAL SITE","TEE","WODEN","WANNIASSA","STERNBERG CR / LANGDON AV","YES","ACTIVE/IN SERVICE","20170703000000","20170703000000",,,"TELSTRA","NO","NO","20170703000000","ROADS_ACT","ROADS_ACT","GIFTED","-35.4013529467","149.097081651"
"POINT (149.0624951251491 -35.2215811956926)","Signals","740526","TSSI50","Site 50 GINNINDERRA DR / COULTER DR, EVATT TEE","ROAD INFRASTRUCTURE","ELECTRICAL AND MECHANICAL","TRAFFIC SIGNAL SITE","TEE","BELCONNEN","FLOREY","GINNINDERRA DR / COULTER DR, EVATT","YES","ACTIVE/IN SERVICE","19760906000000","19870611000000",,"19760906000000","TELSTRA","NO","YES","19760906000000","ROADS_ACT","ROADS_ACT","GIFTED","-35.221589579","149.062489509"
"POINT (149.1086711119989 -35.36823736696333)","Signals","740705","TSSI145","Site 145 YAMBA DR / BEASLEY ST, ISAACS TEE","ROAD INFRASTRUCTURE","ELECTRICAL AND MECHANICAL","TRAFFIC SIGNAL SITE","TEE","WODEN","ISAACS","YAMBA DR / BEASLEY ST, ISAACS","YES","ACTIVE/IN SERVICE","19901004000000","19900927000000",,"19901004000000","TELSTRA","NO","YES","19901004000000","ROADS_ACT","ROADS_ACT","GIFTED","-35.3682457891","149.108665508"
"POINT (149.125629263588 -35.30081372928775)","Signals","740479","TSSI22","Site 22 COMMONWEALTH AV / CORONATION DR, YARRALUMLA CROSS","ROAD INFRASTRUCTURE","ELECTRICAL AND MECHANICAL","TRAFFIC SIGNAL SITE","CROSS","CITY","PARKES","COMMONWEALTH AV / CORONATION DR, YARRALUMLA","YES","ACTIVE/IN SERVICE","19710803000000","19840426000000","20010216000000","20010216000000","TELSTRA","NO","YES","19710803000000","NCA","NCA","CAPITAL WORKS","-35.3008221356","149.125623677"
"POINT (149.08244729526047 -35.34211327552491)","Signals","10241130","TSSI295","Site 295 MELROSE DR / WORGAN ST TEE","ROAD INFRASTRUCTURE","ELECTRICAL AND MECHANICAL","TRAFFIC SIGNAL SITE","TEE","WODEN","LYONS","MELROSE DR / WORGAN ST","YES","ACTIVE/IN SERVICE",,,,"20151209000000",,"NO","NO",,"ROADS_ACT","ROADS_ACT","GIFTED","-35.3421217188","149.082441683"
"POINT (149.10544492822964 -35.36231765722973)","Signals","9084240","TSSI201","Site 201 YAMBA DR / MAWSON DR, MAWSON TEE","ROAD INFRASTRUCTURE","ELECTRICAL AND MECHANICAL","TRAFFIC SIGNAL SITE","TEE","WODEN","O""MALLEY","YAMBA DR / MAWSON DR, MAWSON","YES","ACTIVE/IN SERVICE","20090918000000","20090917000000",,,"TELSTRA","NO","NO","20090918000000","ROADS_ACT","ROADS_ACT","GIFTED","-35.3623260725","149.105439315"
"POINT (149.18067007673355 -35.299249352350294)","Signals","740792","TSSI192","Site 192 FAIRBAIRN AVE / MAJURA RD, PIALLIGO TEE","ROAD INFRASTRUCTURE","ELECTRICAL AND MECHANICAL","TRAFFIC SIGNAL SITE","TEE","CITY","CANBERRA AIRPORT","FAIRBAIRN AVE / MAJURA RD, PIALLIGO","YES","ACTIVE/IN SERVICE","20030917000000","20030919000000",,,"TELSTRA","NO","NO","20030917000000","ROADS_ACT","ROADS_ACT","CAPITAL WORKS","-35.2992576514","149.180664558"
"POINT (149.06944754776222 -35.39193104471243)","Signals","740540","TSSI56","Site 56 DRAKEFORD DR / OHALLORAN CIR (STH), KAMBAH CROSS","ROAD INFRASTRUCTURE","ELECTRICAL AND MECHANICAL","TRAFFIC SIGNAL SITE","CROSS","WODEN","KAMBAH","DRAKEFORD DR / OHALLORAN CIR (STH), KAMBAH","YES","ACTIVE/IN SERVICE","19770421000000","19801212000000","20020722000000","19890623000000","TELSTRA","NO","NO","19770421000000","ROADS_ACT","ROADS_ACT","CAPITAL WORKS","-35.3919395053","149.069441892"
"POINT (149.11430103902572 -35.15644392909367)","Signals","10073506","TSSI293","Site 293 MIRRABEI DR / YAMMS WAY CROSS","ROAD INFRASTRUCTURE","ELECTRICAL AND MECHANICAL","TRAFFIC SIGNAL SITE","CROSS","BELCONNEN","MONCRIEFF","MIRRABEI DR / YAMMS WAY","YES","ACTIVE/IN SERVICE","20160127000000",,,,,"NO","NO","20160127000000","ROADS_ACT","ROADS_ACT","GIFTED","-35.1564521955","149.114295551"
"POINT (149.09987745078726 -35.34729983482242)","Signals","740714","TSSI150","Site 150 YAMBA DR / BATESON RD (HOSPITAL ENTRANCE), GARRAN TEE","ROAD INFRASTRUCTURE","ELECTRICAL AND MECHANICAL","TRAFFIC SIGNAL SITE","TEE","WODEN","GARRAN","YAMBA DR / BATESON RD (HOSPITAL ENTRANCE), GARRAN","YES","ACTIVE/IN SERVICE","19921013000000","19901013000000",,"19920813000000","TELSTRA","NO","NO","19921013000000","ROADS_ACT","ROADS_ACT","GIFTED","-35.3473082371","149.09987183"
"POINT (149.06715018102008 -35.4191366878994)","Signals","740644","TSSI114","Site 114 SOWARD WAY / SCOLLAY ST, GREENWAY CROSS","ROAD INFRASTRUCTURE","ELECTRICAL AND MECHANICAL","TRAFFIC SIGNAL SITE","CROSS","WODEN","GREENWAY","SOWARD WAY / SCOLLAY ST, GREENWAY","YES","ACTIVE/IN SERVICE","19871012000000","19800812000000",,"19871012000000","TELSTRA","NO","NO","19871012000000","ROADS_ACT","ROADS_ACT","GIFTED","-35.4191451179","149.067144506"
"POINT (149.05630295191213 -35.24366422763416)","Signals","740505","TSSI38","Site 38 BELCONNEN WAY / COULTER DR, WEETANGERA CROSS","ROAD INFRASTRUCTURE","ELECTRICAL AND MECHANICAL","TRAFFIC SIGNAL SITE","CROSS","BELCONNEN","MACQUARIE","BELCONNEN WAY / COULTER DR, WEETANGERA","YES","ACTIVE/IN SERVICE","19730227000000","19850618000000",,"19920519000000","TELSTRA","NO","YES","19730227000000","ROADS_ACT","ROADS_ACT","CAPITAL WORKS","-35.2436726276","149.056297303"
"POINT (149.0674834482274 -35.23995846268387)","Signals","740570","TSSI71","Site 71 BENJAMIN WAY / JOYNTON SMITH DR, BELCONNEN TEE","ROAD INFRASTRUCTURE","ELECTRICAL AND MECHANICAL","TRAFFIC SIGNAL SITE","TEE","BELCONNEN","BELCONNEN","BENJAMIN WAY / JOYNTON SMITH DR, BELCONNEN","YES","ACTIVE/IN SERVICE","19780918000000","19890816000000",,"19780918000000","TELSTRA","NO","NO","19780918000000","ROADS_ACT","ROADS_ACT","CAPITAL WORKS","-35.2399668407","149.067477824"
"POINT (149.0913832928313 -35.24572352046765)","Signals","740743","TSSI165","Site 165 HAYDON DR / BATTYE ST, BRUCE TEE","ROAD INFRASTRUCTURE","ELECTRICAL AND MECHANICAL","TRAFFIC SIGNAL SITE","TEE","BELCONNEN","BRUCE","HAYDON DR / BATTYE ST, BRUCE","YES","ACTIVE/IN SERVICE","19980921000000","19980921000000",,"19980921000000","TELSTRA","NO","NO","19980921000000","ROADS_ACT","ROADS_ACT","CAPITAL WORKS","-35.2457318459","149.091377727"
"POINT (149.0638618661791 -35.246522396685656)","Signals","2981802","TSSI205","Site 205 BELCONNEN WAY / LATHLAIN ST CROSS","ROAD INFRASTRUCTURE","ELECTRICAL AND MECHANICAL","TRAFFIC SIGNAL SITE","CROSS","BELCONNEN","BELCONNEN","BELCONNEN WAY / LATHLAIN ST","YES","ACTIVE/IN SERVICE","20060123000000","20060123000000",,,"TELSTRA","NO","NO","20060123000000","ROADS_ACT","ROADS_ACT","GIFTED","-35.246530786","149.063856229"
"POINT (149.13880407640858 -35.18793845677087)","Signals","11295362","TSSI313","Site 313  CROSS","ROAD INFRASTRUCTURE","ELECTRICAL AND MECHANICAL","TRAFFIC SIGNAL SITE","CROSS","BELCONNEN",,,,"ACTIVE/IN SERVICE","20181221000000",,,,,,,,,,,"-35.1879467801","149.138798734"
"POINT (149.13061967391775 -35.26034342292541)","Signals","740474","TSSI18","Site 18 MACARTHUR AV / DAVID ST, TURNER CROSS","ROAD INFRASTRUCTURE","ELECTRICAL AND MECHANICAL","TRAFFIC SIGNAL SITE","CROSS","CITY","LYNEHAM","MACARTHUR AV / DAVID ST, TURNER","YES","ACTIVE/IN SERVICE","19701126000000","19850920000000","20010530000000","20010530000000","TELSTRA","NO","NO","19701126000000","ROADS_ACT","ROADS_ACT","CAPITAL WORKS","-35.260351739","149.130614117"
"POINT (149.1308157710348 -35.30881588120452)","Signals","740884","TSSI2007","Site 2007 BRISBANE AV, CAPITAL HILL PEDESTRIAN","ROAD INFRASTRUCTURE","ELECTRICAL AND MECHANICAL","TRAFFIC SIGNAL SITE","PEDESTRIAN","CITY","BARTON","BRISBANE AV, CAPITAL HILL","YES","ACTIVE/IN SERVICE","20020304000000",,,,,"NO","NO","20020304000000","ROADS_ACT","ROADS_ACT","GIFTED","-35.3088243007","149.130810195"
"POINT (149.0579978344313 -35.23581522393116)","Signals","740529","TSSI52","Site 52 COULTER DR / SOUTHERN CROSS DR, BELCONNEN CROSS","ROAD INFRASTRUCTURE","ELECTRICAL AND MECHANICAL","TRAFFIC SIGNAL SITE","CROSS","BELCONNEN","PAGE","COULTER DR / SOUTHERN CROSS DR, BELCONNEN","YES","ACTIVE/IN SERVICE","19760906000000","19870611000000","20041129000000","19760906000000","TELSTRA","NO","YES","19760906000000","ROADS_ACT","ROADS_ACT","CAPITAL WORKS","-35.2358236178","149.057992196"
"POINT (149.15448893274453 -35.3261094698695)","Signals","740636","TSSI108","Site 108 CANBERRA AV / NYRANG ST, FYSHWICK CROSS","ROAD INFRASTRUCTURE","ELECTRICAL AND MECHANICAL","TRAFFIC SIGNAL SITE","CROSS","WODEN","NARRABUNDAH","CANBERRA AV / NYRANG ST, FYSHWICK","YES","ACTIVE/IN SERVICE","19871112000000","19800201000000",,"19871112000000","TELSTRA","NO","YES","19871112000000","ROADS_ACT","ROADS_ACT","GIFTED","-35.3261178179","149.154483388"
"POINT (149.14502806478842 -35.28500122711733)","Signals","9084226","TSSI246","Site 246 ANZAC PDE / CURRONG ST / BLAMEY CRES, REID CROSS","ROAD INFRASTRUCTURE","ELECTRICAL AND MECHANICAL","TRAFFIC SIGNAL SITE","CROSS","CITY","REID","ANZAC PDE / CURRONG ST / BLAMEY CRES, REID","YES","ACTIVE/IN SERVICE","20110412000000","20110408000000",,,"TELSTRA","NO","NO","20110412000000","NCA","NCA","GIFTED","-35.2850095724","149.145022495"
"POINT (149.13114551685754 -35.163701570000846)","Signals","9085549","TSSI257","Site 257 HORSE PARK DR / KATHERINE AVE, BONNER CROSS","ROAD INFRASTRUCTURE","ELECTRICAL AND MECHANICAL","TRAFFIC SIGNAL SITE","CROSS","BELCONNEN","AMAROO","HORSE PARK DR / KATHERINE AVE, BONNER","YES","ACTIVE/IN SERVICE","20110616000000","20110504000000",,"20110616000000","TELSTRA","NO","NO",,"ROADS_ACT","ROADS_ACT","CAPITAL WORKS","-35.1637098382","149.131140141"
"POINT (149.13317518081078 -35.281485533190924)","Signals","740843","TSSI1021","Site 1021 AKUNA ST / CITY WALK, CITY PEDESTRIAN","ROAD INFRASTRUCTURE","ELECTRICAL AND MECHANICAL","TRAFFIC SIGNAL SITE","PEDESTRIAN","CITY","CITY","AKUNA ST / CITY WALK, CITY","YES","ACTIVE/IN SERVICE","19880526000000","19880527000000","20010706000000","19880526000000","TELSTRA","NO","NO","19880526000000","ROADS_ACT","ROADS_ACT","GIFTED","-35.2814938806","149.133169595"
"POINT (149.09116216048014 -35.45717728623449)","Signals","9416866","TSSI1041","Site 1041 THARWA DR (PED) NEAR BOX HILL AVE PEDESTRIAN","ROAD INFRASTRUCTURE","ELECTRICAL AND MECHANICAL","TRAFFIC SIGNAL SITE","PEDESTRIAN","WODEN","CONDER","THARWA DR (PED) NEAR BOX HILL AVE","YES","ACTIVE/IN SERVICE","20130307000000","20130307000000",,,"TELSTRA","NO","YES","20130307000000","ROADS_ACT","ROADS_ACT","CAPITAL WORKS","-35.4571856636","149.091156511"
"POINT (149.08658823485024 -35.32615162062025)","Signals","740464","TSSI11","Site 11 YARRA GLEN / CARRUTHERS ST, CURTIN (NORTHBOUND) CROSS","ROAD INFRASTRUCTURE","ELECTRICAL AND MECHANICAL","TRAFFIC SIGNAL SITE","CROSS","WODEN","CURTIN","YARRA GLEN / CARRUTHERS ST, CURTIN (NORTHBOUND)","YES","ACTIVE/IN SERVICE","19690626000000","19910927000000",,"19901024000000","TELSTRA","NO","YES","19690626000000","ROADS_ACT","ROADS_ACT","CAPITAL WORKS","-35.326160073","149.086582617"
"POINT (149.17012955257638 -35.3838090910886)","Signals","9084212","TSSI231","Site 231 LANYON DR / MONARO HWY NTH BOUND, HUME TEE","ROAD INFRASTRUCTURE","ELECTRICAL AND MECHANICAL","TRAFFIC SIGNAL SITE","TEE","WODEN","HUME","LANYON DR / MONARO HWY NTH BOUND, HUME","YES","ACTIVE/IN SERVICE","20090506000000","20090318000000",,"20090506000000","TELSTRA","NO","YES","20090506000000","ROADS_ACT","ROADS_ACT","GIFTED","-35.3838175461","149.170124116"
"POINT (149.05704715477714 -35.239096773899774)","Signals","740674","TSSI129","Site 129 NETTLEFOLD ST / COULTER DR, BELCONNEN CROSS","ROAD INFRASTRUCTURE","ELECTRICAL AND MECHANICAL","TRAFFIC SIGNAL SITE","CROSS","BELCONNEN","BELCONNEN","NETTLEFOLD ST / COULTER DR, BELCONNEN","YES","ACTIVE/IN SERVICE","19881021000000","19891121000000","20020722000000","19881021000000","TELSTRA","NO","NO","19881021000000","ROADS_ACT","ROADS_ACT","GIFTED","-35.2391051703","149.057041511"
"POINT (149.06861801989146 -35.416923434754885)","Signals","740621","TSSI103","Site 103 ANKETELL ST / REED ST (NORTH), GREENWAY CROSS","ROAD INFRASTRUCTURE","ELECTRICAL AND MECHANICAL","TRAFFIC SIGNAL SITE","CROSS","WODEN","GREENWAY","ANKETELL ST / REED ST (NORTH), GREENWAY","YES","ACTIVE/IN SERVICE","19870722000000","19800301000000",,"19870722000000","TELSTRA","NO","NO","19870722000000","ROADS_ACT","ROADS_ACT","GIFTED","-35.4169318682","149.068612351"
"POINT (149.02593874588018 -35.2990370456477)","Signals","10772892","TSSI299","Site 299 HOLBOROW AV / EUREKA WAY TEE","ROAD INFRASTRUCTURE","ELECTRICAL AND MECHANICAL","TRAFFIC SIGNAL SITE","TEE","WODEN","DENMAN PROSPECT","HOLBOROW AV / EUREKA WAY","YES","ACTIVE/IN SERVICE",,,,,,"NO","NO",,,,"GIFTED","-35.2990456038","149.025933044"
"POINT (149.13714045621893 -35.24061763152798)","Signals","740572","TSSI72","Site 72 NORTHBOURNE AV / BARTON HWY, LYNEHAM TEE","ROAD INFRASTRUCTURE","ELECTRICAL AND MECHANICAL","TRAFFIC SIGNAL SITE","TEE","CITY","DOWNER","NORTHBOURNE AV / BARTON HWY, LYNEHAM","YES","ACTIVE/IN SERVICE","19781018000000","19850618000000","20021213000000","19970521000000","TELSTRA","NO","YES","19781018000000","ROADS_ACT","ROADS_ACT","GIFTED","-35.2406259408","149.137134943"
"POINT (149.1543434884442 -35.34300358989636)","Signals","740496","TSSI29","Site 29 HINDMARSH DR / JERRABOMBERRA AVE, NARABUNDAH CROSS","ROAD INFRASTRUCTURE","ELECTRICAL AND MECHANICAL","TRAFFIC SIGNAL SITE","CROSS","WODEN","NARRABUNDAH","HINDMARSH DR / JERRABOMBERRA AVE, NARABUNDAH","YES","ACTIVE/IN SERVICE","19720502000000","19801212000000",,"19720502000000","TELSTRA","NO","NO","19720502000000","ROADS_ACT","ROADS_ACT","GIFTED","-35.3430119215","149.154337949"
