ASSET_ID,EQUIPMENT,LOCATION,DIVISION_NAME,IMAGE_LINK,VIDEO_LINK,LATITUDE,LONGITUDE,Location_1,Zip Codes
Plgr187,This playground has no play structures.,Railway Street Pedestrian Parkland,Oaks Estate,,,-35.341973,149.227519,"(-35.341973, 149.227519)",
Plgr533,This playground has no play structures.,Townsend Place District Park,Belconnen,,,-35.236067,149.074995,"(-35.236067, 149.074995)",
Plgr1,This playground has no play structures.,Paterson Street Neighbourhood Park,Ainslie,,,-35.268805,149.141571,"(-35.268805, 149.141571)",
Plgr43,This playground has no play structures.,Jamison Centre,Macquarie,,,-35.253349,149.071527,"(-35.253349, 149.071527)",
Plgr240,This playground has no play structures.,De Little Circuit Central Community  Playground,Greenway,,,-35.402803,149.072405,"(-35.402803, 149.072405)",
Plgr619,This playground has no play structures.,Pahlman Street Neighbourhood Park,Forde,,,-35.16829,149.146406,"(-35.16829, 149.146406)",
Plgr445,This playground has no play structures.,Hall Park Pedestrian Parkland,Hall,,,-35.171633,149.070198,"(-35.171633, 149.070198)",
Plgr521,This playground has no play structures.,James Harrison Street Neighbourhood Park,Dunlop,,,-35.191296,149.017063,"(-35.191296, 149.017063)",
Plgr14,This playground has no play structures.,Tryon Street Neighbourhood Park,Hackett,,,-35.24946,149.165251,"(-35.24946, 149.165251)",
Plgr679,This playground has no play structures.,Mortimer Lewis Drive,Greenway,,,-35.407188,149.070955,"(-35.407188, 149.070955)",
Plgr228,This playground has no play structures.,Coyne Street District Park,Fadden,,,-35.411025,149.120551,"(-35.411025, 149.120551)",
Plgr588,This playground has no play structures.,Hilder Street Neighbourhood Park,Weston,,,-35.336942,149.055067,"(-35.336942, 149.055067)",
Plgr345,This playground has no play structures.,Dumolo Place Neighbourhood Park,Isaacs,,,-35.368328,149.111165,"(-35.368328, 149.111165)",
Plgr492,This playground has no play structures.,Garryowen Drive District Park,Acton,,,-35.292273,149.101138,"(-35.292273, 149.101138)",
Plgr178,This playground has no play structures.,Finn Street Neighbouhood Park,O'connor,,,-35.260888,149.118359,"(-35.260888, 149.118359)",
Plgr372,This playground has no play structures.,Chifley Place Neighbourhood Park,Chifley,,,-35.352569,149.07665,"(-35.352569, 149.07665)",
Plgr142,This playground has no play structures.,Scarlett Street Neighbourhood Park,Melba,,,-35.211514,149.053432,"(-35.211514, 149.053432)",
Plgr451,This playground has no play structures.,Kosciuszko Avenue Neighbourhood Park,Palmerston,,,-35.197305,149.119068,"(-35.197305, 149.119068)",
Plgr535,This playground has no play structures.,Burgoyne Street Neighbourhood Park,Bonython,,,-35.426476,149.071602,"(-35.426476, 149.071602)",
Plgr480,This playground has no play structures.,Paul Coe Crescent Road Median,Ngunnawal,,,-35.17467,149.1198,"(-35.17467, 149.1198)",
Plgr98,This playground has no play structures.,Florey Drive District Park,Latham,,,-35.212932,149.028095,"(-35.212932, 149.028095)",
Plgr81,This playground has no play structures.,Shakespheare Crescent Neighbourhood Park,Fraser,,,-35.192024,149.040594,"(-35.192024, 149.040594)",
Plgr475,This playground has no play structures.,Bizant Street Neighbourhood Park,Amaroo,,,-35.17373,149.135224,"(-35.17373, 149.135224)",
Plgr405,This playground has no play structures.,Wilkins Street Neighbourhood Park,Mawson,,,-35.370295,149.098561,"(-35.370295, 149.098561)",
Plgr185,This playground has no play structures.,Geerilong Gardens Neighbourhood Park,Reid,,,-35.283076,149.143688,"(-35.283076, 149.143688)",
Plgr443,This playground has no play structures.,Levine Street Neighbourhood Park,Evatt,,,-35.211351,149.064818,"(-35.211351, 149.064818)",
Plgr327,This playground has no play structures.,Bayly Place Neighbourhood Park,Macarthur,,,-35.408236,149.128364,"(-35.408236, 149.128364)",
Plgr493,This playground has no play structures.,Hawker Shopping Centre,Hawker,,,-35.243443,149.043894,"(-35.243443, 149.043894)",
Plgr680,This playground has no play structures.,Sutherland Crescent Neighbourhood Park,Taylor,,,-35.151063,149.108411,"(-35.151063, 149.108411)",
Plgr116,This playground has no play structures.,Hancock Street Pedestrian Parkland,Spence,,,-35.201658,149.064286,"(-35.201658, 149.064286)",
Plgr357,This playground has no play structures.,Stapylton Street Neighbourhhod Park,Holder,,,-35.337209,149.044638,"(-35.337209, 149.044638)",
Plgr10,This playground has no play structures.,Hawdon Street Neighbourhood Park,Dickson,,,-35.25269,149.149211,"(-35.25269, 149.149211)",
Plgr134,This playground has no play structures.,Macdermott Place  District Park,Belconnen,,,-35.226759,149.062799,"(-35.226759, 149.062799)",
Plgr582,This playground has no play structures.,Boddington Crescent (North) Neighbourhood Park,Kambah,,,-35.383301,149.052118,"(-35.383301, 149.052118)",
Plgr655,This playground has no play structures.,Kilmeny Close Community Park (Crip),Franklin,,,-35.197607,149.143965,"(-35.197607, 149.143965)",
Plgr583,This playground has no play structures.,Templeton Street Neighbourhood Park,Cook,,,-35.258976,149.061965,"(-35.258976, 149.061965)",
Plgr404,This playground has no play structures.,Culgoa Circuit Neighbourhood Park,O'malley,,,-35.355149,149.106404,"(-35.355149, 149.106404)",
Plgr207,This playground has no play structures.,Golden Grove Neighbourhood Park,Red Hill,,,-35.335927,149.126168,"(-35.335927, 149.126168)",
Plgr328,This playground has no play structures.,Jeffries Street Neighbourhood Park,Gowrie,,,-35.414065,149.110533,"(-35.414065, 149.110533)",
Plgr594,This playground has no play structures.,Neil Harris Crescent District Park,Forde,,,-35.172933,149.141334,"(-35.172933, 149.141334)",
Plgr278,This playground has no play structures.,Mcgilvray Close District Park,Gordon,,,-35.456079,149.083775,"(-35.456079, 149.083775)",
Plgr172,This playground has no play structures.,Condamine Street Neighbourhood Park,Turner,,,-35.267364,149.123258,"(-35.267364, 149.123258)",
Plgr673,This playground has no play structures.,Limburg Way Neighbourhood Park,Greenway,,,-35.420221,149.072857,"(-35.420221, 149.072857)",
Plgr500,This playground has no play structures.,Sandalwood Street Neighbourhood Park,Kingston,,,-35.316803,149.152743,"(-35.316803, 149.152743)",
Plgr242,This playground has no play structures.,Anketell Street,Greenway,,,-35.411067,149.065976,"(-35.411067, 149.065976)",
Plgr612,This playground has no play structures.,Bruce Dittmar Central Community Park,Forde,,,-35.176043,149.145141,"(-35.176043, 149.145141)",
Plgr202,This playground has no play structures.,Mueller Street Neighbourhood Park,Yarralumla,,,-35.307108,149.100725,"(-35.307108, 149.100725)",
Plgr383,This playground has no play structures.,Bunbury Street Neighbourhood Park,Stirling,,,-35.347383,149.052184,"(-35.347383, 149.052184)",
Plgr590,This playground has no play structures.,Rivett Place Neighbourhood Park,Rivett,,,-35.347728,149.038108,"(-35.347728, 149.038108)",
Plgr271,This playground has no play structures.,Sangster Place Shopping Centre,Wanniassa,,,-35.390616,149.085639,"(-35.390616, 149.085639)",
Plgr526,This playground has no play structures.,Tanami Street (Nw) Neighbourhood Park,Harrison,,,-35.19816,149.157372,"(-35.19816, 149.157372)",
Plgr189,This playground has no play structures.,Carnegie Crescent Pedestrian Parkland,Narrabundah,,,-35.337696,149.13783,"(-35.337696, 149.13783)",
Plgr584,This playground has no play structures.,Beaurepaire Crescent Neighboourhood Park,Holt,,,-35.222235,149.012624,"(-35.222235, 149.012624)",
Plgr669,This playground has no play structures.,Wanderlight Avenue Neibourhood Park,Lawson,,,-35.229364,149.091726,"(-35.229364, 149.091726)",
Plgr676,This playground has no play structures.,Bon Scott Crip Park,Moncrieff,,,-35.155681,149.120912,"(-35.155681, 149.120912)",
Plgr195,This playground has no play structures.,Telopea Park,Barton,,,-35.315086,149.137312,"(-35.315086, 149.137312)",
Plgr211,This playground has no play structures.,Weston Park District Park(east),Yarralumla,,,-35.291717,149.089526,"(-35.291717, 149.089526)",
Plgr219,This playground has no play structures.,Cremone Place Neighbourhood Park,Conder,,,-35.464393,149.102991,"(-35.464393, 149.102991)",
Plgr363,This playground has no play structures.,Tauchert Street Neighbourhood Park,Chapman,,,-35.357472,149.045935,"(-35.357472, 149.045935)",
Plgr130,This playground has no play structures.,Diddams Close (West),Belconnen,,,-35.227204,149.071722,"(-35.227204, 149.071722)",
Plgr89,This playground has no play structures.,Kesteven Street Florey Shopping Centre,Florey,,,-35.226588,149.054616,"(-35.226588, 149.054616)",
Plgr674,This playground has no play structures.,Bettong Avenue Neighbourhood Park,Throsby,,,-35.187918,149.161994,"(-35.187918, 149.161994)",
Plgr626,This playground has no play structures.,Narden Street Central Community Park (Crip),Crace,,,-35.201686,149.102459,"(-35.201686, 149.102459)",
Plgr587,This playground has no play structures.,Cnr Bonython And Melba Sts Neighbourhood Park,Downer,,,-35.2464,149.143293,"(-35.2464, 149.143293)",
Plgr20,This playground has no play structures.,Cossington Smith Crescent Pedestrian Parkland,Lyneham,,,-35.24085,149.124028,"(-35.24085, 149.124028)",
Plgr162,This playground has no play structures.,Read Place Pedestrian Parkland,Evatt,,,-35.217985,149.067009,"(-35.217985, 149.067009)",
Plgr580,This playground has no play structures.,Summerland Circuit (North) Neighbourhood Park,Kambah,,,-35.385632,149.071252,"(-35.385632, 149.071252)",
Plgr398,This playground has no play structures.,Torrens Place Pedestrian Parkland,Torrens,,,-35.373141,149.088071,"(-35.373141, 149.088071)",
Plgr31,This playground has no play structures.,Glebe Park Town Park,City,,,-35.281113,149.135893,"(-35.281113, 149.135893)",
Plgr305,This playground has no play structures.,Springbett Street District Park,Kambah,,,-35.392161,149.063408,"(-35.392161, 149.063408)",
Plgr546,This playground has no play structures.,Wunderlich Street District Park,Gungahlin,,,-35.179076,149.130506,"(-35.179076, 149.130506)",
Plgr525,This playground has no play structures.,Gungahlin Central Linear Park,Gungahlin,,,-35.186448,149.134788,"(-35.186448, 149.134788)",
Plgr381,This playground has no play structures.,Launceston St District Park,Phillip,,,-35.340972,149.091344,"(-35.340972, 149.091344)",
