"business","branch","suburb","street_address","latitude","longitude","geocoded_column"
"BELCONNEN BUS DEPOT","ACTION","BELCONNEN","CORNER COHEN & JOSEPHSON STS, BELCONNEN","-35.2396429050082","149.060162567953","POINT (149.060162567953 -35.2396429050082)"
"KAMBAH ROADS YARD","TRANSPORT CANBERRA AND CITY SERVICES","KAMBAH","CORNER SULWOOD DR & KAMBAH POOL RD","-35.3721353919002","149.051845948269","POINT (149.051845948269 -35.3721353919002)"
"TUGGERANONG BUS INTERCHANGE","ACTION","GREENWAY","PITMAN ST, TUGGERANONG","-35.415035201147","149.065830085097","POINT (149.065830085097 -35.415035201147)"
"TUGGERANONG RECYCLING DROP OFF CENTRE","ACT NOWASTE","GREENWAY","CORNER ATHLLON DR & SCOLLAY ST","-35.4244689070685","149.070845076223","POINT (149.070845076223 -35.4244689070685)"
"CITY RANGERS ABANDONED VEHICLE IMPOUND YARD","TRANSPORT CANBERRA AND CITY SERVICES","HUME","SHEPPARD ST, HUME","-35.3912868491128","149.165682734185","POINT (149.165682734185 -35.39128684911281)"
"HOLDER CITY PRESENTATION DEPOT","CITY PRESENTATION","HOLDER","DIXON DR, HOLDER","-35.3293313794385","149.052523554054","POINT (149.052523554054 -35.3293313794385)"
"WODEN BUS INTERCHANGE","ACTION","PHILLIP","CORNER CALLAM & BRADLEY STS, WODEN","-35.3443406279512","149.08775568861","POINT (149.08775568861 -35.3443406279512)"
"RON REYNOLDS CENTRE","TRANSPORT CANBERRA AND CITY SERVICES","CURTIN","12 STRANGWAYS ST, CURTIN","-35.3247983639737","149.081362813394","POINT (149.081362813394 -35.324798363973706)"
"WODEN CEMETERY","CANBERRA CEMETERIES","PHILLIP","JUSTINIAN ST, WODEN","-35.3440597263716","149.09293346095","POINT (149.09293346095 -35.3440597263716)"
"DOMESTIC ANIMAL SERVICES","CITY PRESENTATION","SYMONSTON","MUGGA LANE, SYMONSTON","-35.3513214688774","149.133175144781","POINT (149.133175144781 -35.3513214688774)"
"CITY RANGERS REID DEPOT","CITY PRESENTATION","REID","2 ELIMATTA ST, REID","-35.2824163972513","149.145886552882","POINT (149.145886552882 -35.2824163972513)"
"WODEN LIBRARY","LIBRARIES ACT","PHILLIP","CORINNA & FURZER STS, PHILLIP","-35.3446676665266","149.084331140736","POINT (149.084331140736 -35.3446676665266)"
"CALWELL CITY PRESENTATION DEPOT","CITY PRESENTATION","CALWELL","WERE ST, CALWELL","-35.4394607408364","149.119553583744","POINT (149.119553583744 -35.4394607408364)"
"FYSHWICK CITY PRESENTATION & ROADS MAINTENANCE DEPOT","ROADS ACT","FYSHWICK","255 CANBERRA AVE, FYSHWICK","-35.3317514820756","149.165534877045","POINT (149.165534877045 -35.3317514820756)"
"WEST BELCONNEN RESOURCE MGT CENTRE","ACT NOWASTE","MACNAMARA","PARKWOOD RD, MACGREGOR","-35.2149764341134","148.987949596634","POINT (148.987949596634 -35.2149764341134)"
"CITY SERVICES CORPORATE OFFICE","TRANSPORT CANBERRA AND CITY SERVICES","DICKSON","490 NORTHBOURNE AVE, DICKSON","-35.2492050316475","149.134697721483","POINT (149.134697721483 -35.2492050316475)"
"MUGGA LANE RESOURCE MGT CENTRE","ACT NOWASTE","JERRABOMBERRA (RURAL DIST.)","MUGGA LN, HUME","-35.3850359951555","149.13747540395","POINT (149.13747540395 -35.3850359951555)"
"MITCHELL RESOURCE MGT CENTRE","ACT NOWASTE","GUNGAHLIN (RURAL DIST.)","FLEMINGTON RD, MITCHELL","-35.2118940343237","149.148224355418","POINT (149.148224355418 -35.2118940343237)"
"KIPPAX LIBRARY","LIBRARIES ACT","HOLT","HARDWICK CRES, HOLT","-35.2207730318837","149.019304440285","POINT (149.01930444028503 -35.2207730318837)"
"GUNGAHLIN CEMETERY","CANBERRA CEMETERIES","MITCHELL","SANDFORD ST, MITCHELL","-35.2168979556817","149.134233589525","POINT (149.134233589525 -35.2168979556817)"
"CAPITAL LINEN SERVICES","BUSINESS ENTERPRISES","MITCHELL","9 SANDFORD ST, MITCHELL","-35.2220720732317","149.140396501714","POINT (149.140396501714 -35.2220720732317)"
"DEAKIN CITY PRESENTATION DEPOT","CITY PRESENTATION","DEAKIN","LA TROBE PARK, GAWLER CRES, DEAKIN","-35.31748492186","149.114296560536","POINT (149.114296560536 -35.31748492186)"
"CIVIC CITY PRESENTATION DEPOT","CITY PRESENTATION","CITY","ALLARA ST, CANBERRA CITY","-35.2857195285236","149.129969294518","POINT (149.129969294518 -35.2857195285236)"
"CHARNWOOD CITY PRESENTATION DEPOT","CITY PRESENTATION","CHARNWOOD","LHOTSKY ST, CHARNWOOD","-35.2044739620836","149.028365437984","POINT (149.028365437984 -35.2044739620836)"
"BELCONNEN LIBRARY","LIBRARIES ACT","BELCONNEN","12 CHANDLER ST, BELCONNEN","-35.2380709987066","149.069629220541","POINT (149.069629220541 -35.2380709987066)"
"CITY INTERCHANGE AND INFORMATION CENTRE","ACTION","CITY","ALINGA ST, CANBERRA CITY","-35.2787190421269","149.1301078043","POINT (149.1301078043 -35.2787190421269)"
"CAPITAL METRO DEPOT","CAPITAL METRO","MITCHELL","9 SANDFORD ST, MITCHELL","-35.2229577892053","149.142824689092","POINT (149.142824689092 -35.2229577892053)"
"FLEXIBLE TRANSPORT BUS DEPOT","ACTION","FYSHWICK","255 CANBERRA AVE, FYSHWICK","-35.3316799115605","149.165340207811","POINT (149.165340207811 -35.3316799115605)"
"TUGGERANONG LIBRARY","LIBRARIES ACT","GREENWAY","COWLISHAW ST, TUGGERANONG","-35.4150408478128","149.068453596294","POINT (149.068453596294 -35.4150408478128)"
"HEAD OFFICE AND TRAFFIC MGT CENTRE","TRANSPORT CANBERRA AND CITY SERVICES","DICKSON","496 NORTHBOURNE AVE, DICKSON","-35.2487599818326","149.134903545014","POINT (149.134903545014 -35.2487599818326)"
"TUGGERANONG BUS DEPOT AND OPERATIONS","ACTION","GREENWAY","200 - 220 SCOLLAY ST, TUGGERANONG","-35.4225396334072","149.068758164584","POINT (149.068758164584 -35.4225396334072)"
"HERITAGE LIBRARY","LIBRARIES ACT","FYSHWICK","255 CANBERRA AVE, FYSHWICK","-35.3315995012201","149.165206194108","POINT (149.165206194108 -35.3315995012201)"
"HOLT SPORTS DEPOT","SPORTSGROUNDS ACT","HOLT","ORMSBY PLACE, HOLT","-35.2262495742123","149.023900547957","POINT (149.023900547957 -35.2262495742123)"
"HALL CEMETERY","CANBERRA CEMETERIES","HALL","WALLAROO RD, HALL","-35.1723210675828","149.057045531477","POINT (149.057045531477 -35.17232106758281)"
"PHILLIP RECYCLING DROP OFF CENTRE","ACT NOWASTE","PHILLIP","BOTANY ST, PHILLIP","-35.3506703267726","149.088915354702","POINT (149.088915354702 -35.3506703267726)"
"COPPINS CROSSING SEWAGE TREATMENT WORKS","ACT NOWASTE","MOLONGLO VALLEY (RURAL DIST.)","COPPINS CROSSING RD, MOLONGLO","-35.2826781910785","149.029447135109","POINT (149.029447135109 -35.2826781910785)"
"BELCONNEN COMMUNITY BUS STATION","ACTION","BELCONNEN","COHEN ST B/W BENJAMIN WY AND EMU BANK","-35.2398813397574","149.068972138742","POINT (149.068972138742 -35.2398813397574)"
"CIVIC LIBRARY","LIBRARIES ACT","CITY","CIVIC SQUARE, LONDON CCT, CANBERRA CITY","-35.2816420087699","149.131236994774","POINT (149.131236994774 -35.2816420087699)"
"KAMBAH CITY PRESENTATION DEPOT","CITY PRESENTATION","KAMBAH","CORNER OHALLORAN & CHIRNSIDE STS, KAMBAH","-35.3873214541222","149.060106166294","POINT (149.06010616629402 -35.3873214541222)"
"KINGSTON LIBRARY","LIBRARIES ACT","KINGSTON","SHOP 4, 52 GILES ST, KINGSTON","-35.3157373939961","149.14071061654","POINT (149.14071061654 -35.3157373939961)"
"DICKSON CITY PRESENTATION DEPOT","CITY PRESENTATION","DICKSON","HAWDON ST, DICKSON","-35.2509620011758","149.147282907913","POINT (149.147282907913 -35.2509620011758)"
"YARRALUMLA NURSERY","BUSINESS ENTERPRISES","YARRALUMLA","BANKS ST, YARRALUMLA","-35.2972198492289","149.091990920911","POINT (149.091990920911 -35.2972198492289)"
"MITCHELL ROADS YARD","TRANSPORT CANBERRA AND CITY SERVICES","MITCHELL","DACRE ST, MITCHELL","-35.2086712820991","149.137405183044","POINT (149.137405183044 -35.2086712820991)"
"BELCONNEN RECYCLING DROP OFF CENTRE","ACT NOWASTE","BELCONNEN","JOLLY ST, BELCONNEN","-35.2405938227783","149.059894920065","POINT (149.059894920065 -35.2405938227783)"
"GUNGAHLIN LIBRARY","LIBRARIES ACT","GUNGAHLIN","CORNER HIBBERSON & GOZZARD STS, GUNGAHLIN","-35.1855376907144","149.130524499839","POINT (149.130524499839 -35.1855376907144)"
"BIRRIGAI OUTDOOR SCHOOL","TRANSPORT CANBERRA AND CITY SERVICES","PADDYS RIVER (RURAL DIST.)","142 TIDBINBILLA RD, PADDYS RIVER","-35.4483487049599","148.957615911976","POINT (148.95761591197603 -35.4483487049599)"
"ERINDALE LIBRARY","LIBRARIES ACT","WANNIASSA","MCBRYDE CRES, WANNIASSA","-35.4042149261267","149.096597658426","POINT (149.096597658426 -35.4042149261267)"
"MAWSON CITY PRESENTATION DEPOT","CITY PRESENTATION","MAWSON","46 MAWSON DR, MAWSON","-35.360670525233","149.100392821451","POINT (149.100392821451 -35.360670525233)"
"DICKSON LIBRARY","LIBRARIES ACT","DICKSON","DICKSON SHOPPING CENTRE, DICKSON","-35.2495948208726","149.13949772118","POINT (149.13949772118 -35.2495948208726)"
"BELCONNEN CITY PRESENTATION DEPOT","CITY PRESENTATION","BELCONNEN","MOUBRAY PL, BELCONNEN","-35.2432748923329","149.058777661549","POINT (149.058777661549 -35.2432748923329)"
"WARAMANGA SPORTS DEPOT","SPORTSGROUNDS ACT","WARAMANGA","BADIMARA STREET, WARAMANGA","-35.3556760655666","149.055924340402","POINT (149.055924340402 -35.3556760655666)"
"NICHOLLS CITY PRESENTATION DEPOT","CITY PRESENTATION","NICHOLLS","CLARRIE-HERMES DR, NICHOLLS","-35.1770356467991","149.096699469536","POINT (149.096699469536 -35.1770356467991)"
"GUNGAHLIN RECYCLING DROP OFF CENTRE","ACT NOWASTE","GUNGAHLIN","OÂ¿BRIEN PL, GUNGAHLIN","-35.1849628316013","149.125210900713","POINT (149.125210900713 -35.1849628316013)"
"MITCHELL RECYCLING DROP OFF CENTRE","ACT NOWASTE","MITCHELL","BAILLIEU CT, MITCHELL","-35.217269294998","149.142013538913","POINT (149.142013538913 -35.217269294998)"
