"licencenumber","licencecode","licencetype","licenseeorg","liccount","lictotal","licensees","tradingnames","address","suburb","state","postcode","dateexpiry","dateissued"
"20000524","MVR","Traders","Individual","1","1","Rasika Lasantha RANTHILAKA","Rasika Lasantha RANTHILAKA","3 Galleghan Circuit","GOWRIE","ACT","2904","2027-08-24T00:00:00.000","2022-08-25T00:00:00.000"
"20000602","MVR","Traders","Individual","1","1","Nathaniel Richard BLAND","Mechanicall Automotive","Unit 516, 83 Cooyong Street","REID","ACT","2612","2027-08-23T00:00:00.000","2022-08-24T00:00:00.000"
"20000599","MVR","Traders","Company","1","1","BEAR'S AUTO GROUP PTY LTD","Bears Auto Group","12 Tantalum Street","BEARD","ACT","2620","2027-08-22T00:00:00.000","2022-08-23T00:00:00.000"
"20000477","MVD","Traders","Company","1","1","CAPITAL'S PRESTIGE AUTO TRADER PTY LTD","Capital's Prestige Auto Trader","87 Bandjalong Crescent","ARANDA","ACT","2614","2027-08-15T00:00:00.000","2022-08-16T00:00:00.000"
"20000517","MVR","Traders","Partnership","1","1","KATHMANDU AUTO PTY LIMITED","Kathmandu Automotive","Unit 1, 22 Geelong Street","FYSHWICK","ACT","2609","2027-08-11T00:00:00.000","2022-08-12T00:00:00.000"
"20000597","MVR","Traders","Company","1","1","MICOY PTY LTD","Micoy Pty Ltd","14 Bowden Crescent","MACGREGOR","ACT","2615","2027-08-08T00:00:00.000","2022-08-09T00:00:00.000"
"20000057","MVD","Traders","Company","1","1","WARDVIEW PTY. LIMITED","Forza Motorsports","Unit 5/6 Pelle Street","MITCHELL","ACT","2911","2027-08-02T00:00:00.000","2022-08-03T00:00:00.000"
"20000595","MVR","Traders","Company","1","1","MELBA AUTOMOTIVE PTY LTD","Melba Automotive Pty Ltd","12 Purdue Street","BELCONNEN","ACT","2617","2027-08-02T00:00:00.000","2022-08-03T00:00:00.000"
"20000596","SHD","Traders","Company","1","1","JEWELO PTY LTD","Jewelo Pty Ltd","17 Katoomba Street","HARRISON","ACT","2914","2027-08-02T00:00:00.000","2022-08-03T00:00:00.000"
"20000591","MVR","Traders","Company","2","2","SCHMICK CAR CARE CLUB PTY LTD","Schmick Scratch and Dent Assist","7 Ames Place","RICHARDSON","ACT","2905","2027-08-01T00:00:00.000","2022-08-02T00:00:00.000"
"20000591","MVR","Traders","Company","1","2","SCHMICK CAR CARE CLUB PTY LTD","Schmick Scratch and Dent Assist","39 Gollan Street","EVATT","ACT","2617","2027-08-01T00:00:00.000","2022-08-02T00:00:00.000"
"20000585","MVR","Traders","Company","1","1","QUEANBEYAN ELECTRICAL & BATTERY SERVICE PTY. LIMITED","Tauntons Automotive","46 Yass Road","QUEANBEYAN EAST","NSW","2620","2027-07-20T00:00:00.000","2022-07-21T00:00:00.000"
"20000581","MVR","Traders","Company","2","2","HB HOLDINGS AUSTRALIA PTY LTD","Ozzy Tyres Canberra","13-15 Wollongong Street","FYSHWICK","ACT","2609","2027-07-06T00:00:00.000","2022-07-07T00:00:00.000"
"20000582","MVR","Traders","Company","1","1","ALL ROUND TYRES (ART) PROPRIETARY LIMITED","All Round Tyres (Art)","64-66 Gladstone Street","FYSHWICK","ACT","2609","2027-07-06T00:00:00.000","2022-07-07T00:00:00.000"
"20000581","MVW","Traders","Company","1","2","HB HOLDINGS AUSTRALIA PTY LTD","Ozzy Tyres Canberra","13-15 Wollongong Street","FYSHWICK","ACT","2609","2027-07-06T00:00:00.000","2022-07-07T00:00:00.000"
"19001153","CC","Charitable Collections","Company","1","1","MARKET FORCES LIMITED",,,,,,"2027-06-30T00:00:00.000","2022-05-16T00:00:00.000"
"20000577","MVD","Traders","Company","5","10","EAGERS ACT PTY LTD","Belconnen Cheaper Cars, Capital Subaru, Gerald Slaven Chrysler Jeep, Gerald Slaven Ford, Gerald Slaven GMSV, Gerald Slaven Holden, Gerald Slaven HSV, Gerald Slaven Volkswagen, Phillip Mitsubishi, Subaru Canberra, Volvo Cars Canberra","142 Melrose Drive","PHILLIP","ACT","2606","2027-06-26T00:00:00.000","2022-06-27T00:00:00.000"
"20000578","MVR","Traders","Company","2","10","EAGERS TACT PTY LTD","Canberra Toyota, Lexus of Canberra","160 Melrose Drive","PHILLIP","ACT","2606","2027-06-26T00:00:00.000","2022-06-27T00:00:00.000"
"20000577","MVR","Traders","Company","8","10","EAGERS ACT PTY LTD","Belconnen Cheaper Cars, Capital Subaru, Gerald Slaven Chrysler Jeep, Gerald Slaven Ford, Gerald Slaven GMSV, Gerald Slaven Holden, Gerald Slaven HSV, Gerald Slaven Volkswagen, Phillip Mitsubishi, Subaru Canberra, Volvo Cars Canberra","152 Melrose Drive","PHILLIP","ACT","2606","2027-06-26T00:00:00.000","2022-06-27T00:00:00.000"
"20000577","MVD","Traders","Company","7","10","EAGERS ACT PTY LTD","Belconnen Cheaper Cars, Capital Subaru, Gerald Slaven Chrysler Jeep, Gerald Slaven Ford, Gerald Slaven GMSV, Gerald Slaven Holden, Gerald Slaven HSV, Gerald Slaven Volkswagen, Phillip Mitsubishi, Subaru Canberra, Volvo Cars Canberra","152 Melrose Drive","PHILLIP","ACT","2606","2027-06-26T00:00:00.000","2022-06-27T00:00:00.000"
"20000578","MVR","Traders","Company","4","10","EAGERS TACT PTY LTD","Canberra Toyota, Lexus of Canberra","162 Melrose Drive","PHILLIP","ACT","2606","2027-06-26T00:00:00.000","2022-06-27T00:00:00.000"
"20000578","MVD","Traders","Company","9","10","EAGERS TACT PTY LTD","Canberra Toyota, Lexus of Canberra","4 O???Brien Street","GUNGAHLIN","ACT","2912","2027-06-26T00:00:00.000","2022-06-27T00:00:00.000"
"20000578","MVR","Traders","Company","6","10","EAGERS TACT PTY LTD","Canberra Toyota, Lexus of Canberra","44 Wollongong Street","FYSHWICK","ACT","2609","2027-06-26T00:00:00.000","2022-06-27T00:00:00.000"
"20000578","MVD","Traders","Company","5","10","EAGERS TACT PTY LTD","Canberra Toyota, Lexus of Canberra","44 Wollongong Street","FYSHWICK","ACT","2609","2027-06-26T00:00:00.000","2022-06-27T00:00:00.000"
"20000578","MVD","Traders","Company","1","10","EAGERS TACT PTY LTD","Canberra Toyota, Lexus of Canberra","160 Melrose Drive","PHILLIP","ACT","2606","2027-06-26T00:00:00.000","2022-06-27T00:00:00.000"
"20000577","MVD","Traders","Company","1","10","EAGERS ACT PTY LTD","Belconnen Cheaper Cars, Capital Subaru, Gerald Slaven Chrysler Jeep, Gerald Slaven Ford, Gerald Slaven GMSV, Gerald Slaven Holden, Gerald Slaven HSV, Gerald Slaven Volkswagen, Phillip Mitsubishi, Subaru Canberra, Volvo Cars Canberra","29 Botany Street","PHILLIP","ACT","2606","2027-06-26T00:00:00.000","2022-06-27T00:00:00.000"
"20000577","MVR","Traders","Company","6","10","EAGERS ACT PTY LTD","Belconnen Cheaper Cars, Capital Subaru, Gerald Slaven Chrysler Jeep, Gerald Slaven Ford, Gerald Slaven GMSV, Gerald Slaven Holden, Gerald Slaven HSV, Gerald Slaven Volkswagen, Phillip Mitsubishi, Subaru Canberra, Volvo Cars Canberra","142 Melrose Drive","PHILLIP","ACT","2606","2027-06-26T00:00:00.000","2022-06-27T00:00:00.000"
"20000578","MVR","Traders","Company","8","10","EAGERS TACT PTY LTD","Canberra Toyota, Lexus of Canberra","1 Josephson Street","BELCONNEN","ACT","2616","2027-06-26T00:00:00.000","2022-06-27T00:00:00.000"
"20000577","MVR","Traders","Company","2","10","EAGERS ACT PTY LTD","Belconnen Cheaper Cars, Capital Subaru, Gerald Slaven Chrysler Jeep, Gerald Slaven Ford, Gerald Slaven GMSV, Gerald Slaven Holden, Gerald Slaven HSV, Gerald Slaven Volkswagen, Phillip Mitsubishi, Subaru Canberra, Volvo Cars Canberra","29 Botany Street","PHILLIP","ACT","2606","2027-06-26T00:00:00.000","2022-06-27T00:00:00.000"
"20000578","MVD","Traders","Company","7","10","EAGERS TACT PTY LTD","Canberra Toyota, Lexus of Canberra","1 Josephson Street","BELCONNEN","ACT","2616","2027-06-26T00:00:00.000","2022-06-27T00:00:00.000"
"20000578","MVD","Traders","Company","3","10","EAGERS TACT PTY LTD","Canberra Toyota, Lexus of Canberra","162 Melrose Drive","PHILLIP","ACT","2606","2027-06-26T00:00:00.000","2022-06-27T00:00:00.000"
"20000577","MVD","Traders","Company","3","10","EAGERS ACT PTY LTD","Belconnen Cheaper Cars, Capital Subaru, Gerald Slaven Chrysler Jeep, Gerald Slaven Ford, Gerald Slaven GMSV, Gerald Slaven Holden, Gerald Slaven HSV, Gerald Slaven Volkswagen, Phillip Mitsubishi, Subaru Canberra, Volvo Cars Canberra","2-10 & 3 Josephson Street","PHILLIP","ACT","2606","2027-06-26T00:00:00.000","2022-06-27T00:00:00.000"
"20000578","MVR","Traders","Company","10","10","EAGERS TACT PTY LTD","Canberra Toyota, Lexus of Canberra","4 O???Brien Street","GUNGAHLIN","ACT","2912","2027-06-26T00:00:00.000","2022-06-27T00:00:00.000"
"20000577","MVR","Traders","Company","10","10","EAGERS ACT PTY LTD","Belconnen Cheaper Cars, Capital Subaru, Gerald Slaven Chrysler Jeep, Gerald Slaven Ford, Gerald Slaven GMSV, Gerald Slaven Holden, Gerald Slaven HSV, Gerald Slaven Volkswagen, Phillip Mitsubishi, Subaru Canberra, Volvo Cars Canberra","3/34 Ipswich Street","FYSHWICK","ACT","2609","2027-06-26T00:00:00.000","2022-06-27T00:00:00.000"
"20000577","MVD","Traders","Company","9","10","EAGERS ACT PTY LTD","Belconnen Cheaper Cars, Capital Subaru, Gerald Slaven Chrysler Jeep, Gerald Slaven Ford, Gerald Slaven GMSV, Gerald Slaven Holden, Gerald Slaven HSV, Gerald Slaven Volkswagen, Phillip Mitsubishi, Subaru Canberra, Volvo Cars Canberra","3/34 Ipswich Street","FYSHWICK","ACT","2609","2027-06-26T00:00:00.000","2022-06-27T00:00:00.000"
"20000577","MVR","Traders","Company","4","10","EAGERS ACT PTY LTD","Belconnen Cheaper Cars, Capital Subaru, Gerald Slaven Chrysler Jeep, Gerald Slaven Ford, Gerald Slaven GMSV, Gerald Slaven Holden, Gerald Slaven HSV, Gerald Slaven Volkswagen, Phillip Mitsubishi, Subaru Canberra, Volvo Cars Canberra","2-10 & 3 Josephson Street","PHILLIP","ACT","2606","2027-06-26T00:00:00.000","2022-06-27T00:00:00.000"
"20000574","MVD","Traders","Company","1","1","VOLKSWAGEN GROUP AUSTRALIA PTY LTD","CUPRA Australia","895 South Dowling Street","ZETLAND","NSW","2017","2027-06-09T00:00:00.000","2022-06-10T00:00:00.000"
"20000571","MVR","Traders","Company","1","1","KAMBAH AUTOMOTIVE SERVICES PTY LIMITED","Kambah Car Care","3 Marconi Crescent (Caltex Service Station)","KAMBAH","ACT","2902","2027-05-10T00:00:00.000","2022-05-11T00:00:00.000"
"20000573","MVR","Traders","Company","1","1","SAGARMATHA AUTO GROUP PTY LIMITED","Kathmandu Automotive Mitchell","Unit 3, 36 Grimwade Street","MITCHELL","ACT","2911","2027-05-10T00:00:00.000","2022-05-11T00:00:00.000"
"20000572","MVR","Traders","Company","1","1","ADVANCED TECH AUTO PTY LTD","Advanced Tech Auto Pty Ltd","91 Prospect Court","PHILLIP","ACT","2606","2027-05-10T00:00:00.000","2022-05-11T00:00:00.000"
"20000103","MVR","Traders","Company","2","2","DIARD FAMILY PTY LTD","Ultra Tune Fyshwick, UltraTune Fyshwick","17 Wollongong Street","FYSHWICK","ACT","2609","2027-05-09T00:00:00.000","2022-05-10T00:00:00.000"
"20000103","MVR","Traders","Company","1","2","DIARD FAMILY PTY LTD","Ultra Tune Fyshwick, UltraTune Fyshwick","115 Wollongong Street","FYSHWICK","ACT","2609","2027-05-09T00:00:00.000","2022-05-10T00:00:00.000"
"20000051","MVR","Traders","Company","1","2","BOSS DOG PTY LTD","Premier Auto Sales Mitchell, Premier Automotive Repairs","5 Winchcombe Court","MITCHELL","ACT","2911","2027-04-04T00:00:00.000","2022-04-05T00:00:00.000"
"20000567","MVR","Traders","Company","1","1","PROFECTION AUTOMOTIVE PTY LTD","Profection Automotive Pty Ltd","Unit 5, 92 Sawmill Circuit","HUME","ACT","2620","2027-03-27T00:00:00.000","2022-03-28T00:00:00.000"
"20000479","MVD","Traders","Individual","2","2","Amit  HANDA","Amit HANDA","10 Holford Street","TAYLOR","ACT","2913","2027-03-22T00:00:00.000","2022-03-23T00:00:00.000"
"20000354","MVR","Traders","Company","8","8","RAY GULSON PTY LTD","Gulson Canberra","99 Newcastle Street","FYSHWICK","ACT","2609","2027-03-02T00:00:00.000","2022-03-03T00:00:00.000"
"20000354","MVR","Traders","Company","2","8","RAY GULSON PTY LTD","Gulson Canberra","92 Newcastle Street","FYSHWICK","ACT","2609","2027-03-02T00:00:00.000","2022-03-03T00:00:00.000"
"20000354","MVR","Traders","Company","6","8","RAY GULSON PTY LTD","Gulson Canberra","279 Canberra Avenue","FYSHWICK","ACT","2609","2027-03-02T00:00:00.000","2022-03-03T00:00:00.000"
"20000354","MVR","Traders","Company","4","8","RAY GULSON PTY LTD","Gulson Canberra","76 Newcastle Street","FYSHWICK","ACT","2609","2027-03-02T00:00:00.000","2022-03-03T00:00:00.000"
"20000561","MVR","Traders","Company","1","1","DEMAX PTY LTD","DMBAUTOMOTIVE","2 Cape Street","DICKSON","ACT","2602","2027-02-24T00:00:00.000","2022-02-25T00:00:00.000"
"20000560","MVR","Traders","Company","1","1","SAE AUTOMOTIVE CONSULTING PTY LTD","SAE Automotive Consulting Pty Ltd","Unit 2, 18 Lander Crescent","AMAROO","ACT","2914","2027-02-17T00:00:00.000","2022-02-18T00:00:00.000"
"20000559","MVR","Traders","Company","1","1","CALWELL SERVICE CENTRE PTY. LIMITED","Tuggeranong Car Care","224-238 Soward Way","GREENWAY","ACT","2900","2027-02-10T00:00:00.000","2022-02-11T00:00:00.000"
"20000557","MVR","Traders","Individual","1","1","Adam Patrick LARKINGS","All Bikes and Cars Automotive","13 Elyard Place","DUNLOP","ACT","2615","2027-02-06T00:00:00.000","2022-02-07T00:00:00.000"
"20000372","MVR","Traders","Company","1","1","CAPITAL AUTO AND TYRE PTY LTD","Capital Auto and Tyre","3/180 Katherine Avenue","AMAROO","ACT","2914","2027-02-05T00:00:00.000","2022-02-06T00:00:00.000"
"20000180","MVR","Traders","Company","1","1","Bears Paintless Dent Repairs Pty Ltd","Bears Paintless Dent Repairs Pty Ltd","13 Tantalum Street","BEARD","ACT","2620","2027-02-04T00:00:00.000","2022-02-05T00:00:00.000"
"20000552","SHD","Traders","Individual","2","2","Cody James SAVAGE","Universal Phone Services Belconnen","Shop 132, 20 Benjamin Way","BELCONNEN","ACT","2617","2027-01-19T00:00:00.000","2022-01-20T00:00:00.000"
"20000272","MVR","Traders","Company","1","1","ACT AUTOMOTIVE SERVICES PTY LTD","ACT Automotive Services Pty Ltd","4/129 Newcastle Street","FYSHWICK","ACT","2609","2026-12-06T00:00:00.000","2021-12-07T00:00:00.000"
"20000411","MVR","Traders","Company","1","1","L K AUTOMOTIVE PTY LTD","L K Automotive Pty Ltd","7/22 Geelong Street","FYSHWICK","ACT","2609","2026-12-05T00:00:00.000","2021-12-06T00:00:00.000"
"20000471","MVW","Traders","Company","1","1","NATIONAL CAPITAL VEHICLES PTY LTD","NATIONAL CAPITAL VEHICLES PTY LTD","27 Goldfinch Circuit","THEODORE","ACT","2905","2026-11-24T00:00:00.000","2021-11-25T00:00:00.000"
"20000547","MVR","Traders","Company","1","1","MACGREGOR AUTO PTY LTD","Macgregor Auto","Unit 1/2 Park Street","BELCONNEN","ACT","2617","2026-11-16T00:00:00.000","2021-11-17T00:00:00.000"
"20000546","SHD","Traders","Company","1","1","THE AUCTION BARN PTY LTD","The Auction Barn","10 Wiluna Street","FYSHWICK","ACT","2609","2026-11-16T00:00:00.000","2021-11-17T00:00:00.000"
"20000545","MVD","Traders","Company","1","1","FJ BAGSHAW PTY LTD","Trailers Canberra","36 Hoskins Street","MITCHELL","ACT","2911","2026-11-11T00:00:00.000","2021-11-12T00:00:00.000"
"20000543","MVD","Traders","Company","1","1","TOW2GO AUSTRALIA PTY LTD","Canberra Motor Group Australia","16 Backhouse Street","LATHAM","ACT","2615","2026-11-04T00:00:00.000","2021-11-05T00:00:00.000"
"20000004","MVR","Traders","Individual","1","1","Craig Mark PHILLIPS","KEGZ AUTOMOTIVE","7 Deeley Place","KAMBAH","ACT","2902","2026-10-26T00:00:00.000","2021-10-27T00:00:00.000"
"20000538","MVR","Traders","Company","1","1","CFR AUTO SERVICE PTY LTD","CFR Auto Care","20 Hattersley Court","NICHOLLS","ACT","2913","2026-10-24T00:00:00.000","2021-10-25T00:00:00.000"
"20000535","MVW","Traders","Company","1","1","GRADYS AUTOS PTY LIMITED","Gradys Autos Pty Limited","Unit 10, 83 Gladstone Street","FYSHWICK","ACT","2609","2026-10-11T00:00:00.000","2021-10-12T00:00:00.000"
"20000532","MVR","Traders","Company","1","1","CORKHILL BROS. SALES PTY. LIMITED","Corkhill Bros","67 Sawmill Circuit","HUME","ACT","2620","2026-09-27T00:00:00.000","2021-09-28T00:00:00.000"
"20000528","MVD","Traders","Company","1","1","POLESTAR AUTOMOTIVE AUSTRALIA PTY LTD","Polestar Australia","65 Epping Road","MACQUARIE PARK","NSW","2113","2026-09-23T00:00:00.000","2021-09-24T00:00:00.000"
"20000529","SHD","Traders","Company","1","1","GOODBYES AUSTRALIA PTY LTD","GOODBYES AUSTRALIA PTY LTD","27 Lonsdale Street","BRADDON","ACT","2612","2026-09-23T00:00:00.000","2021-09-24T00:00:00.000"
"20000116","MVR","Traders","Company","1","1","SINO-AUS MOTOR PTY LTD","Sino-Aus Motor Pty Ltd","22 Lyell Street","FYSHWICK","ACT","2609","2026-09-22T00:00:00.000","2021-09-23T00:00:00.000"
"20000381","MVR","Traders","Company","1","1","LATIN MOTORS PTY LTD","Latin Motors","Unit 6/106 Gladstone Street","FYSHWICK","ACT","2609","2026-09-19T00:00:00.000","2021-09-20T00:00:00.000"
"20000525","SHD","Traders","Company","1","1","SPHAERA PTY LTD","RETRO SOUND TECH","1/130 Shackleton Circuit","MAWSON","ACT","2607","2026-08-29T00:00:00.000","2021-08-30T00:00:00.000"
"20000519","SHD","Traders","Company","1","3","ELECTRICAL HOME-AIDS PTY. LIMITED","ELECTRICAL HOME-AIDS PTY. LIMITED","Shop 8, 5 Hibberson Street","GUNGAHLIN","ACT","2912","2026-08-17T00:00:00.000","2021-08-18T00:00:00.000"
"20000519","SHD","Traders","Company","3","3","ELECTRICAL HOME-AIDS PTY. LIMITED","ELECTRICAL HOME-AIDS PTY. LIMITED","5/100 Barrier Street","FYSHWICK","ACT","2609","2026-08-17T00:00:00.000","2021-08-18T00:00:00.000"
"20000519","SHD","Traders","Company","2","3","ELECTRICAL HOME-AIDS PTY. LIMITED","ELECTRICAL HOME-AIDS PTY. LIMITED","Shop 189, Westfiled Belconnen Benjamin Way","BELCONNEN","ACT","2617","2026-08-17T00:00:00.000","2021-08-18T00:00:00.000"
"20000432","SHD","Traders","Company","1","1","PALAMAM PTY LIMITED","MacQueen Auctioneers and Valuers","6 Yallourn Street","FYSHWICK","ACT","2609","2026-08-11T00:00:00.000","2021-08-12T00:00:00.000"
"20000128","MVR","Traders","Partnership","2","2","John Hurst GREEN & Sandra Joy GREEN","MB Spares and Service","14 Lyell Street","FYSHWICK","ACT","2609","2026-07-29T00:00:00.000","2021-07-30T00:00:00.000"
"20000212","MVD","Traders","Company","2","2","EZY SCRAP SERVICES PTY LIMITED","Ezy Scrap Services Pty Ltd","17 Baillieu Court","MITCHELL","ACT","2911","2026-07-27T00:00:00.000","2021-07-28T00:00:00.000"
"20000164","MVD","Traders","Individual","1","1","TOP USED CARS PTY LTD","TOP USED CARS PTY LTD","3 Whyalla Street","FYSHWICK","ACT","2609","2026-07-27T00:00:00.000","2021-07-28T00:00:00.000"
"20000515","SHD","Traders","Company","1","1","MVR Retailers Pty Ltd","Mobile Experts and The Mobile Company","Kiosks 10 and 23 Hyperdome Shopping Centre Anketell and Reed St","GREENWAY","ACT","2900","2026-07-27T00:00:00.000","2021-07-28T00:00:00.000"
"20000296","SHD","Traders","Company","1","1","REVOLUTION CD PTY LTD","Revolution CD","Shop 62, 18 Benjamin Way","BELCONNEN","ACT","2617","2026-07-25T00:00:00.000","2021-07-26T00:00:00.000"
"20000514","MVR","Traders","Company","1","1","AUSTECH CANBERRA PTY LTD","Capital Automotive Services","Unit 2, 60 Kembla Street","FYSHWICK","ACT","2609","2026-07-25T00:00:00.000","2021-07-26T00:00:00.000"
"20000509","SHD","Traders","Company","1","1","ALLMAD PTY LTD","ALLMAD PTY LTD","51 Collie Street","FYSHWICK","ACT","2609","2026-07-04T00:00:00.000","2021-07-05T00:00:00.000"
"20000422","MVR","Traders","Individual","1","1","Anthony Charles INNES","Precious Metal Panel Beating","Unit 4, 3 Sleigh Place","HUME","ACT","2620","2026-06-29T00:00:00.000","2021-06-30T00:00:00.000"
"20000006","MVR","Traders","Company","1","1","BATES MOTORSPORT PTY LTD","Neal Bates Automotive, Neal Bates Motorsport","48  Sheppard Street","HUME","ACT","2620","2026-06-20T00:00:00.000","2021-06-21T00:00:00.000"
"20000504","MVW","Traders","Company","1","1","W T H PTY LTD","Avis Australia","Tower B, Level 1, 197 Coward Street","MASCOT","NSW","2020","2026-06-15T00:00:00.000","2021-06-16T00:00:00.000"
"20000502","SHD","Traders","Company","1","1","APPLIANCES ONLINE PTY LIMITED","Appliances Online Pty Limited","Level 2, 20A Danks Street","REDFERN","NSW","2016","2026-06-07T00:00:00.000","2021-06-08T00:00:00.000"
"20000501","MVR","Traders","Individual","1","1","Cameron John HACKETT","Classic Garage Bodyworks","4/16 Isa Street","FYSHWICK","ACT","2609","2026-06-06T00:00:00.000","2021-06-07T00:00:00.000"
"20000500","SHD","Traders","Individual","1","1","Andrew John BISHOP","Preloved Gold","22 Daley Crescent","FRASER","ACT","2615","2026-05-25T00:00:00.000","2021-05-26T00:00:00.000"
"20000021","MVR","Traders","Company","1","1","GUNGAHLIN AUTO GROUP PTY LIMITED","Gungahlin Auto Group Pty Limited","Unit 1 4 O'Brien Place","GUNGAHLIN","ACT","2912","2026-05-15T00:00:00.000","2021-05-16T00:00:00.000"
"20000404","MVR","Traders","Company","1","1","BRIDGESTONE AUSTRALIA LTD","Bridgestone Service Centre","4 Sawmill Circuit","HUME","ACT","2620","2026-05-08T00:00:00.000","2021-05-09T00:00:00.000"
"20000334","MVR","Traders","Company","1","1","CAPITAL S.M.A.R.T. REPAIRS AUSTRALIA PTY LTD","Capital S.M.A.R.T. Repairs Australia Pty Ltd","63 Collie Street","FYSHWICK","ACT","2609","2026-04-22T00:00:00.000","2021-04-23T00:00:00.000"
"20000487","MVD","Traders","Individual","1","1","Ivan  HINTON-TEOH","Ivan HINTON-TEOH","27 Hawdon Street","AINSLIE","ACT","2602","2026-03-18T00:00:00.000","2021-03-19T00:00:00.000"
"20000343","MVR","Traders","Partnership","1","1","L.G HUSSEY & M.W NUESSLER","Kevin's Auto Repairs","2 Ipswich Street","FYSHWICK","ACT","2609","2026-03-17T00:00:00.000","2021-03-18T00:00:00.000"
"20000401","MVD","Traders","Company","1","2","MANHEIM PTY LTD","Manheim","22 Couranga Cresent","HUME","ACT","2620","2026-03-16T00:00:00.000","2021-03-17T00:00:00.000"
"20000401","MVD","Traders","Company","2","2","MANHEIM PTY LTD","Manheim","3 Cheney Place","MITCHELL","ACT","2911","2026-03-16T00:00:00.000","2021-03-17T00:00:00.000"
"20000317","MVR","Traders","Company","1","1","SERIES WORKSHOP PTY LIMITED","Series Workshop Pty Limited","50 Townsville Street","FYSHWICK","ACT","2609","2026-03-09T00:00:00.000","2021-03-10T00:00:00.000"
"20000485","MVD","Traders","Company","1","1","ENZO AUTO DETAILING PTY. LTD.","ENZO AUTO WHOLESALE","7/15 Darling Street","MITCHELL","ACT","2911","2026-03-01T00:00:00.000","2021-03-02T00:00:00.000"
"20000483","MVR","Traders","Company","1","1","ACT FORKLIFTS PTY LTD","ACT FORKLIFTS PTY LTD","28/11 Lorn Road","CRESTWOOD","NSW","2620","2026-02-25T00:00:00.000","2021-02-26T00:00:00.000"
"19001151","CC","Charitable Collections","Company","1","1","A.C.T. FLY FISHERS",,,,,,"2026-02-22T00:00:00.000","2021-02-23T00:00:00.000"
"20000480","SHD","Traders","Individual","1","1","Natalie Kim  ALEGRIA","Natalie Kim ALEGRIA","Shop 5, 14 Franklin Street","GRIFFITH","ACT","2603","2026-02-11T00:00:00.000","2021-02-12T00:00:00.000"
"19001013","CC","Charitable Collections","Company","1","1","PCA Group Pty Ltd",,,,,,"2026-02-09T00:00:00.000","2016-02-10T00:00:00.000"
"20000207","MVR","Traders","Company","1","2","Smart Repair Australia Pty Ltd","Smart Repair Australia","Unit 2, 32 Raws Crescent","HUME","ACT","2620","2026-01-28T00:00:00.000","2021-01-29T00:00:00.000"
"20000207","MVR","Traders","Company","2","2","Smart Repair Australia Pty Ltd","Smart Repair Australia","24 Sawmill Circuit","HUME","ACT","2620","2026-01-28T00:00:00.000","2021-01-29T00:00:00.000"
"20000274","MVR","Traders","Individual","1","1","Justin Malcolm WRIGHT","Capital Caravan Service Centre","Unit 7, 39 Kembla Street","FYSHWICK","ACT","2609","2026-01-23T00:00:00.000","2021-01-24T00:00:00.000"
"20000371","MVD","Traders","Company","1","2","MCGUINNESS AUTO WHOLESALES PTY LTD","MCGUINNESS AUTO WHOLESALES PTY LTD","4/100 Maryborough Street","FYSHWICK","ACT","2609","2026-01-16T00:00:00.000","2021-01-17T00:00:00.000"
"20000371","MVD","Traders","Company","2","2","MCGUINNESS AUTO WHOLESALES PTY LTD","MCGUINNESS AUTO WHOLESALES PTY LTD","14 Bannister Gardens","GRIFFITH","ACT","2603","2026-01-16T00:00:00.000","2021-01-17T00:00:00.000"
"20000474","SHD","Traders","Company","1","1","ADVANCE JEWELLERS PTY LTD","ADVANCE JEWELLERS PTY LTD","Shop 6A, 22 Mawson Place","MAWSON","ACT","2607","2026-01-03T00:00:00.000","2021-01-04T00:00:00.000"
"20000007","MVR","Traders","Company","1","1","MARSETTS PTY LTD.","Jax Quick Fit Tyres, Phillip","58-60 Colbee Court","PHILLIP","ACT","2606","2025-12-20T00:00:00.000","2020-12-21T00:00:00.000"
"20000473","MVR","Traders","Individual","1","1","Brenton Gus NICHOLS","Brenton Gus NICHOLS","6 Winchcombe Court","MITCHELL","ACT","2911","2025-11-29T00:00:00.000","2020-11-30T00:00:00.000"
"20000470","SHD","Traders","Company","1","1","ABUNDANCE ACT PTY LTD","E AND C MOTORS","5 Abercrombie Circuit","BANKS","ACT","2906","2025-11-23T00:00:00.000","2020-11-24T00:00:00.000"
"20000353","MVR","Traders","Company","1","1","CUSTOM MOTOR TRIMMING PTY LTD","Custom Motor Trimming Pty Ltd","16 Kembla Street","FYSHWICK","ACT","2609","2025-11-10T00:00:00.000","2020-11-11T00:00:00.000"
"17725223","SEMP","1A - patrol, guard, watch or protect property (including cash in transit)","Individual","1","2","Lachlan Connor BUGG",,,,,,"2025-11-09T00:00:00.000","2019-11-01T00:00:00.000"
"17725223","SEMP","1C - act as a crowd controller","Individual","2","2","Lachlan Connor BUGG",,,,,,"2025-11-09T00:00:00.000","2019-11-01T00:00:00.000"
"19001150","CC","Charitable Collections","Company","1","1","AUSTRALIA CLIMATE AUCTION FUND LTD",,,,,,"2025-10-13T00:00:00.000","2020-10-14T00:00:00.000"
"20000462","MVR","Traders","Company","1","1","CHEMOGAH PTY LTD","Canberra Comprehensive Car Care Centre","111 Wollongong Street","FYSHWICK","ACT","2609","2025-10-11T00:00:00.000","2020-10-12T00:00:00.000"
"20000018","MVR","Traders","Company","1","1","LUBE MOBILE PTY LTD","Lube Mobile","2/12 Cheney Place","MITCHELL","ACT","2911","2025-10-06T00:00:00.000","2020-10-07T00:00:00.000"
"17707694","SEMP","2C - carry out surveys and inspections of security equipment","Individual","4","4","Ie Kok SOEN",,,,,,"2025-09-22T00:00:00.000","2003-09-23T00:00:00.000"
"17707694","SEMP","2E - install, maintain, monitor, repair or service security equipment","Individual","1","4","Ie Kok SOEN",,,,,,"2025-09-22T00:00:00.000","2003-09-23T00:00:00.000"
"17707694","SEMP","2D - give advice about security equipment","Individual","3","4","Ie Kok SOEN",,,,,,"2025-09-22T00:00:00.000","2003-09-23T00:00:00.000"
"17707694","SEMP","2B - sell security equipment","Individual","2","4","Ie Kok SOEN",,,,,,"2025-09-22T00:00:00.000","2003-09-23T00:00:00.000"
"17721317","SEMP","2D - give advice about security equipment","Individual","3","5","Stephen  ARCH",,,,,,"2025-09-20T00:00:00.000","2016-09-21T00:00:00.000"
"17721317","SEMP","2B - sell security equipment","Individual","2","5","Stephen  ARCH",,,,,,"2025-09-20T00:00:00.000","2016-09-21T00:00:00.000"
"17721317","SEMP","2A - acts as a security consultant","Individual","1","5","Stephen  ARCH",,,,,,"2025-09-20T00:00:00.000","2016-09-21T00:00:00.000"
"17721317","SEMP","2C - carry out surveys and inspections of security equipment","Individual","5","5","Stephen  ARCH",,,,,,"2025-09-20T00:00:00.000","2016-09-21T00:00:00.000"
"17713578","SEMP","1C - act as a crowd controller","Individual","2","2","Suninder Pal Singh SIDHU",,,,,,"2025-09-20T00:00:00.000","2009-09-21T00:00:00.000"
"17713578","SEMP","1A - patrol, guard, watch or protect property (including cash in transit)","Individual","1","2","Suninder Pal Singh SIDHU",,,,,,"2025-09-20T00:00:00.000","2009-09-21T00:00:00.000"
"17721317","SEMP","2E - install, maintain, monitor, repair or service security equipment","Individual","4","5","Stephen  ARCH",,,,,,"2025-09-20T00:00:00.000","2016-09-21T00:00:00.000"
"20000130","MVR","Traders","Company","4","4","BELCONNEN AUTOMOTIVE PTY LIMITED","Belconnen Automotive Pty Limited, Belconnen Cheaper Cars, Gerald Slaven Chrysler Jeep, Gerald Slaven Ford, Gerald Slaven Holden, Gerald Slaven HSV, Gerald Slaven Volkswagen","29 Botany Street","PHILLIP","ACT","2606","2025-09-16T00:00:00.000","2020-09-17T00:00:00.000"
"20000130","MVR","Traders","Company","2","4","BELCONNEN AUTOMOTIVE PTY LIMITED","Belconnen Automotive Pty Limited, Belconnen Cheaper Cars, Gerald Slaven Chrysler Jeep, Gerald Slaven Ford, Gerald Slaven Holden, Gerald Slaven HSV, Gerald Slaven Volkswagen","2 & 3 Josephson Street","BELCONNEN","ACT","2617","2025-09-16T00:00:00.000","2020-09-17T00:00:00.000"
"20000455","MVR","Traders","Individual","1","1","Jeffrey John VISSER","Differential & Mechanical Services","53 Lambrigg Street","FARRER","ACT","2607","2025-09-07T00:00:00.000","2020-09-08T00:00:00.000"
"17723569","SEMP","1A - patrol, guard, watch or protect property (including cash in transit)","Individual","1","2","Ethan Maxwell ARMSTRONG",,,,,,"2025-09-01T00:00:00.000","2018-09-03T00:00:00.000"
"17724955","SEMP","1A - patrol, guard, watch or protect property (including cash in transit)","Individual","1","3","Mohit  PUBREJA",,,,,,"2025-09-01T00:00:00.000","2019-09-02T00:00:00.000"
"17724955","SEMP","1E - act as a monitoring centre operator","Individual","3","3","Mohit  PUBREJA",,,,,,"2025-09-01T00:00:00.000","2019-09-02T00:00:00.000"
"17723569","SEMP","1C - act as a crowd controller","Individual","2","2","Ethan Maxwell ARMSTRONG",,,,,,"2025-09-01T00:00:00.000","2018-09-03T00:00:00.000"
"17724955","SEMP","1C - act as a crowd controller","Individual","2","3","Mohit  PUBREJA",,,,,,"2025-09-01T00:00:00.000","2019-09-02T00:00:00.000"
"17706330","SEMP","1C - act as a crowd controller","Individual","2","2","Peter Laurence PERO",,,,,,"2025-09-01T00:00:00.000","2002-09-02T00:00:00.000"
"17706330","SEMP","1A - patrol, guard, watch or protect property (including cash in transit)","Individual","1","2","Peter Laurence PERO",,,,,,"2025-09-01T00:00:00.000","2002-09-02T00:00:00.000"
"17716622","SEMP","1C - act as a crowd controller","Individual","2","2","Nyree Michelle KING",,,,,,"2025-08-31T00:00:00.000","2011-09-01T00:00:00.000"
"17721264","SEMP","1A - patrol, guard, watch or protect property (including cash in transit)","Individual","1","2","Sebastien William BACON",,,,,,"2025-08-31T00:00:00.000","2016-09-01T00:00:00.000"
"17716622","SEMP","1A - patrol, guard, watch or protect property (including cash in transit)","Individual","1","2","Nyree Michelle KING",,,,,,"2025-08-31T00:00:00.000","2011-09-01T00:00:00.000"
"17721264","SEMP","1C - act as a crowd controller","Individual","2","2","Sebastien William BACON",,,,,,"2025-08-31T00:00:00.000","2016-09-01T00:00:00.000"
"17727441","SEMP","1A - patrol, guard, watch or protect property (including cash in transit)","Individual","1","3","Latutama Anga'aefonu MAILAU",,,,,,"2025-08-29T00:00:00.000","2021-08-30T00:00:00.000"
"17727441","SEMP","1C - act as a crowd controller","Individual","3","3","Latutama Anga'aefonu MAILAU",,,,,,"2025-08-29T00:00:00.000","2021-08-30T00:00:00.000"
"17727441","SEMP","1B - act as a bodyguard","Individual","2","3","Latutama Anga'aefonu MAILAU",,,,,,"2025-08-29T00:00:00.000","2021-08-30T00:00:00.000"
"17715188","SEMP","1A - patrol, guard, watch or protect property (including cash in transit)","Individual","1","1","Bradley Joel SCHIER",,,,,,"2025-08-28T00:00:00.000","2010-06-24T00:00:00.000"
"17712034","SEMP","2C - carry out surveys and inspections of security equipment","Individual","4","5","Kabir-Ur-Rehman  MEHLODY",,,,,,"2025-08-28T00:00:00.000","2008-07-30T00:00:00.000"
"17712034","SEMP","2A - acts as a security consultant","Individual","1","5","Kabir-Ur-Rehman  MEHLODY",,,,,,"2025-08-28T00:00:00.000","2008-07-30T00:00:00.000"
"17712034","SEMP","2B - sell security equipment","Individual","3","5","Kabir-Ur-Rehman  MEHLODY",,,,,,"2025-08-28T00:00:00.000","2008-07-30T00:00:00.000"
"17712034","SEMP","2D - give advice about security equipment","Individual","5","5","Kabir-Ur-Rehman  MEHLODY",,,,,,"2025-08-28T00:00:00.000","2008-07-30T00:00:00.000"
"17712034","SEMP","2E - install, maintain, monitor, repair or service security equipment","Individual","2","5","Kabir-Ur-Rehman  MEHLODY",,,,,,"2025-08-28T00:00:00.000","2008-07-30T00:00:00.000"
"17717746","SEMP","1C - act as a crowd controller","Individual","2","2","Ishwinder Pal Singh ANEJA",,,,,,"2025-08-27T00:00:00.000","2012-08-27T00:00:00.000"
"17717746","SEMP","1A - patrol, guard, watch or protect property (including cash in transit)","Individual","1","2","Ishwinder Pal Singh ANEJA",,,,,,"2025-08-27T00:00:00.000","2012-08-27T00:00:00.000"
"17722018","SEMP","2C - carry out surveys and inspections of security equipment","Individual","3","4","Daniel John BUTTON",,,,,,"2025-08-26T00:00:00.000","2017-05-24T00:00:00.000"
"17722018","SEMP","2B - sell security equipment","Individual","2","4","Daniel John BUTTON",,,,,,"2025-08-26T00:00:00.000","2017-05-24T00:00:00.000"
"20000450","MVR","Traders","Company","1","1","J&B CAR CARE PTY LTD","John Motors","Unit 2, 16 Brookes Street","MITCHELL","ACT","2911","2025-08-26T00:00:00.000","2020-08-27T00:00:00.000"
"17722018","SEMP","2E - install, maintain, monitor, repair or service security equipment","Individual","1","4","Daniel John BUTTON",,,,,,"2025-08-26T00:00:00.000","2017-05-24T00:00:00.000"
"17712128","SEMP","1A - patrol, guard, watch or protect property (including cash in transit)","Individual","2","2","Rajbahadur Singh BEDI",,,,,,"2025-08-26T00:00:00.000","2008-08-27T00:00:00.000"
"17712128","SEMP","1C - act as a crowd controller","Individual","1","2","Rajbahadur Singh BEDI",,,,,,"2025-08-26T00:00:00.000","2008-08-27T00:00:00.000"
"17722018","SEMP","2D - give advice about security equipment","Individual","4","4","Daniel John BUTTON",,,,,,"2025-08-26T00:00:00.000","2017-05-24T00:00:00.000"
"17723413","SEMP","1A - patrol, guard, watch or protect property (including cash in transit)","Individual","1","3","Michael Henry BRADBURY",,,,,,"2025-08-25T00:00:00.000","2018-07-09T00:00:00.000"
"17702163","SEMP","2D - give advice about security equipment","Individual","4","5","Christopher Charles MENZIES",,,,,,"2025-08-25T00:00:00.000","1998-07-21T00:00:00.000"
"17702163","SEMP","2C - carry out surveys and inspections of security equipment","Individual","3","5","Christopher Charles MENZIES",,,,,,"2025-08-25T00:00:00.000","1998-07-21T00:00:00.000"
"17715071","SEMP","2D - give advice about security equipment","Individual","3","4","Adam Gray TOUZEL",,,,,,"2025-08-25T00:00:00.000","2010-06-02T00:00:00.000"
"17727437","SEMP","1A - patrol, guard, watch or protect property (including cash in transit)","Individual","1","2","Shane Peter  COWELL",,,,,,"2025-08-25T00:00:00.000","2021-08-26T00:00:00.000"
"17715071","SEMP","2E - install, maintain, monitor, repair or service security equipment","Individual","4","4","Adam Gray TOUZEL",,,,,,"2025-08-25T00:00:00.000","2010-06-02T00:00:00.000"
"17702163","SEMP","2B - sell security equipment","Individual","2","5","Christopher Charles MENZIES",,,,,,"2025-08-25T00:00:00.000","1998-07-21T00:00:00.000"
"17727437","SEMP","1C - act as a crowd controller","Individual","2","2","Shane Peter  COWELL",,,,,,"2025-08-25T00:00:00.000","2021-08-26T00:00:00.000"
"17723413","SEMP","1C - act as a crowd controller","Individual","2","3","Michael Henry BRADBURY",,,,,,"2025-08-25T00:00:00.000","2018-07-09T00:00:00.000"
"17715071","SEMP","2B - sell security equipment","Individual","1","4","Adam Gray TOUZEL",,,,,,"2025-08-25T00:00:00.000","2010-06-02T00:00:00.000"
"17723413","SEMP","1E - act as a monitoring centre operator","Individual","3","3","Michael Henry BRADBURY",,,,,,"2025-08-25T00:00:00.000","2018-07-09T00:00:00.000"
"17715071","SEMP","2C - carry out surveys and inspections of security equipment","Individual","2","4","Adam Gray TOUZEL",,,,,,"2025-08-25T00:00:00.000","2010-06-02T00:00:00.000"
"17702163","SEMP","2A - acts as a security consultant","Individual","1","5","Christopher Charles MENZIES",,,,,,"2025-08-25T00:00:00.000","1998-07-21T00:00:00.000"
"17702163","SEMP","2E - install, maintain, monitor, repair or service security equipment","Individual","5","5","Christopher Charles MENZIES",,,,,,"2025-08-25T00:00:00.000","1998-07-21T00:00:00.000"
"17708794","SEMP","1A - patrol, guard, watch or protect property (including cash in transit)","Individual","1","1","Steven John MCANULTY",,,,,,"2025-08-24T00:00:00.000","2005-04-13T00:00:00.000"
"17727375","SEMP","1C - act as a crowd controller","Individual","2","2","Cameron Theodore SAGE",,,,,,"2025-08-24T00:00:00.000","2021-07-29T00:00:00.000"
"17728468","SEMP","2E - install, maintain, monitor, repair or service security equipment","Individual","3","3","Hoai-Nhan  NGUYEN",,,,,,"2025-08-24T00:00:00.000","2022-08-25T00:00:00.000"
"17727375","SEMP","1A - patrol, guard, watch or protect property (including cash in transit)","Individual","1","2","Cameron Theodore SAGE",,,,,,"2025-08-24T00:00:00.000","2021-07-29T00:00:00.000"
"17728468","SEMP","2B - sell security equipment","Individual","1","3","Hoai-Nhan  NGUYEN",,,,,,"2025-08-24T00:00:00.000","2022-08-25T00:00:00.000"
"17728468","SEMP","2D - give advice about security equipment","Individual","2","3","Hoai-Nhan  NGUYEN",,,,,,"2025-08-24T00:00:00.000","2022-08-25T00:00:00.000"
"17721235","SEMP","1C - act as a crowd controller","Individual","2","2","Michael John HANCOCK",,,,,,"2025-08-23T00:00:00.000","2016-08-24T00:00:00.000"
"17721235","SEMP","1A - patrol, guard, watch or protect property (including cash in transit)","Individual","1","2","Michael John HANCOCK",,,,,,"2025-08-23T00:00:00.000","2016-08-24T00:00:00.000"
"17721067","SEMP","1A - patrol, guard, watch or protect property (including cash in transit)","Individual","1","3","Clayton Alexander MULLER",,,,,,"2025-08-23T00:00:00.000",
"17721237","SEMP","1C - act as a crowd controller","Individual","2","2","Sineth  HARRIS",,,,,,"2025-08-23T00:00:00.000","2016-08-24T00:00:00.000"
"17721067","SEMP","1C - act as a crowd controller","Individual","2","3","Clayton Alexander MULLER",,,,,,"2025-08-23T00:00:00.000",
"17721237","SEMP","1A - patrol, guard, watch or protect property (including cash in transit)","Individual","1","2","Sineth  HARRIS",,,,,,"2025-08-23T00:00:00.000","2016-08-24T00:00:00.000"
"17721067","SEMP","1E - act as a monitoring centre operator","Individual","3","3","Clayton Alexander MULLER",,,,,,"2025-08-23T00:00:00.000",
"17728456","SEMP","1E - act as a monitoring centre operator","Individual","1","3","Gandhiraj  SUBBIAH",,,,,,"2025-08-22T00:00:00.000","2022-08-23T00:00:00.000"
"17728456","SEMP","1C - act as a crowd controller","Individual","3","3","Gandhiraj  SUBBIAH",,,,,,"2025-08-22T00:00:00.000","2022-08-23T00:00:00.000"
"17724881","SEMP","1A - patrol, guard, watch or protect property (including cash in transit)","Individual","1","2","Nicholas James CUSHAN",,,,,,"2025-08-22T00:00:00.000","2019-08-20T00:00:00.000"
"17724881","SEMP","1C - act as a crowd controller","Individual","2","2","Nicholas James CUSHAN",,,,,,"2025-08-22T00:00:00.000","2019-08-20T00:00:00.000"
"17728456","SEMP","1A - patrol, guard, watch or protect property (including cash in transit)","Individual","2","3","Gandhiraj  SUBBIAH",,,,,,"2025-08-22T00:00:00.000","2022-08-23T00:00:00.000"
"17715326","SEMP","1C - act as a crowd controller","Individual","1","2","Ryan Kenneth DYSON",,,,,,"2025-08-21T00:00:00.000","2010-07-29T00:00:00.000"
"17716495","SEMP","2B - sell security equipment","Individual","1","4","James Macleay RAMSAY",,,,,,"2025-08-21T00:00:00.000","2011-07-22T00:00:00.000"
"17716495","SEMP","2C - carry out surveys and inspections of security equipment","Individual","2","4","James Macleay RAMSAY",,,,,,"2025-08-21T00:00:00.000","2011-07-22T00:00:00.000"
"17723499","SEMP","2E - install, maintain, monitor, repair or service security equipment","Individual","4","4","Ehren  FYNMORE",,,,,,"2025-08-21T00:00:00.000",
"17723499","SEMP","2D - give advice about security equipment","Individual","3","4","Ehren  FYNMORE",,,,,,"2025-08-21T00:00:00.000",
"17716495","SEMP","2D - give advice about security equipment","Individual","3","4","James Macleay RAMSAY",,,,,,"2025-08-21T00:00:00.000","2011-07-22T00:00:00.000"
"17723499","SEMP","2C - carry out surveys and inspections of security equipment","Individual","2","4","Ehren  FYNMORE",,,,,,"2025-08-21T00:00:00.000",
"17724901","SEMP","1A - patrol, guard, watch or protect property (including cash in transit)","Individual","1","3","Christopher Anthony MCGRATH",,,,,,"2025-08-21T00:00:00.000","2019-08-22T00:00:00.000"
"17502816","SMAS","Security Master","Individual","1","1","Chantell Marie HILL","Night & Day Locksmiths","17 DEBENHAM ST","MAWSON","ACT","2607","2025-08-21T00:00:00.000","2022-08-22T00:00:00.000"
"17723499","SEMP","2B - sell security equipment","Individual","1","4","Ehren  FYNMORE",,,,,,"2025-08-21T00:00:00.000",
"17716495","SEMP","2E - install, maintain, monitor, repair or service security equipment","Individual","4","4","James Macleay RAMSAY",,,,,,"2025-08-21T00:00:00.000","2011-07-22T00:00:00.000"
"17724901","SEMP","1C - act as a crowd controller","Individual","2","3","Christopher Anthony MCGRATH",,,,,,"2025-08-21T00:00:00.000","2019-08-22T00:00:00.000"
"17715326","SEMP","1A - patrol, guard, watch or protect property (including cash in transit)","Individual","2","2","Ryan Kenneth DYSON",,,,,,"2025-08-21T00:00:00.000","2010-07-29T00:00:00.000"
"17716531","SEMP","1A - patrol, guard, watch or protect property (including cash in transit)","Individual","1","3","Brian Lawrence GAVIN",,,,,,"2025-08-21T00:00:00.000",
"17716531","SEMP","1C - act as a crowd controller","Individual","2","3","Brian Lawrence GAVIN",,,,,,"2025-08-21T00:00:00.000",
"17724250","SEMP","1C - act as a crowd controller","Individual","2","2","Muhammad Asif MEHMOOD",,,,,,"2025-08-21T00:00:00.000","2019-03-21T00:00:00.000"
"17724901","SEMP","1E - act as a monitoring centre operator","Individual","3","3","Christopher Anthony MCGRATH",,,,,,"2025-08-21T00:00:00.000","2019-08-22T00:00:00.000"
"17716531","SEMP","1D - guard with a dog","Individual","3","3","Brian Lawrence GAVIN",,,,,,"2025-08-21T00:00:00.000",
"17724250","SEMP","1A - patrol, guard, watch or protect property (including cash in transit)","Individual","1","2","Muhammad Asif MEHMOOD",,,,,,"2025-08-21T00:00:00.000","2019-03-21T00:00:00.000"
"17728447","SEMP","1E - act as a monitoring centre operator","Individual","3","3","Sarpreet Singh CHATTHA",,,,,,"2025-08-18T00:00:00.000","2022-08-19T00:00:00.000"
"17728447","SEMP","1A - patrol, guard, watch or protect property (including cash in transit)","Individual","1","3","Sarpreet Singh CHATTHA",,,,,,"2025-08-18T00:00:00.000","2022-08-19T00:00:00.000"
"17728447","SEMP","1C - act as a crowd controller","Individual","2","3","Sarpreet Singh CHATTHA",,,,,,"2025-08-18T00:00:00.000","2022-08-19T00:00:00.000"
"19001149","CC","Charitable Collections","Company","1","1","IGA COMMUNITY CHEST LIMITED",,,,,,"2025-08-18T00:00:00.000","2020-08-19T00:00:00.000"
"19001148","CC","Charitable Collections","Individual","1","1","David  BARRIE",,,,,,"2025-08-18T00:00:00.000","2020-08-19T00:00:00.000"
"17702019","SEMP","1A - patrol, guard, watch or protect property (including cash in transit)","Individual","1","3","Netane  LANIVIA",,,,,,"2025-08-18T00:00:00.000","1998-08-19T00:00:00.000"
"20000447","MVR","Traders","Individual","1","1","John Patrick  WILLIAMS","COOK AUTOMOTIVE SERVICE & REPAIRS","22 Grylls Crescent","COOK","ACT","2614","2025-08-18T00:00:00.000","2020-08-19T00:00:00.000"
"17702019","SEMP","1C - act as a crowd controller","Individual","2","3","Netane  LANIVIA",,,,,,"2025-08-18T00:00:00.000","1998-08-19T00:00:00.000"
"17702019","SEMP","1E - act as a monitoring centre operator","Individual","3","3","Netane  LANIVIA",,,,,,"2025-08-18T00:00:00.000","1998-08-19T00:00:00.000"
"17727418","SEMP","1E - act as a monitoring centre operator","Individual","3","3","Muhammad Noman MEHBOOB",,,,,,"2025-08-17T00:00:00.000","2021-08-18T00:00:00.000"
"17727418","SEMP","1A - patrol, guard, watch or protect property (including cash in transit)","Individual","1","3","Muhammad Noman MEHBOOB",,,,,,"2025-08-17T00:00:00.000","2021-08-18T00:00:00.000"
"17727418","SEMP","1C - act as a crowd controller","Individual","2","3","Muhammad Noman MEHBOOB",,,,,,"2025-08-17T00:00:00.000","2021-08-18T00:00:00.000"
"17726335","SEMP","1D - guard with a dog","Individual","3","3","Julie-Anne Marree  MARSHALL",,,,,,"2025-08-16T00:00:00.000","2020-08-17T00:00:00.000"
"17721158","SEMP","2B - sell security equipment","Individual","3","6","Fei  CHAN",,,,,,"2025-08-16T00:00:00.000","2022-06-30T00:00:00.000"
"17728441","SEMP","1A - patrol, guard, watch or protect property (including cash in transit)","Individual","1","3","Preetpal  SINGH",,,,,,"2025-08-16T00:00:00.000",
"17721158","SEMP","1A - patrol, guard, watch or protect property (including cash in transit)","Individual","1","6","Fei  CHAN",,,,,,"2025-08-16T00:00:00.000","2022-06-30T00:00:00.000"
"17721158","SEMP","2C - carry out surveys and inspections of security equipment","Individual","4","6","Fei  CHAN",,,,,,"2025-08-16T00:00:00.000","2022-06-30T00:00:00.000"
"17726335","SEMP","1C - act as a crowd controller","Individual","2","3","Julie-Anne Marree  MARSHALL",,,,,,"2025-08-16T00:00:00.000","2020-08-17T00:00:00.000"
"17721158","SEMP","1C - act as a crowd controller","Individual","2","6","Fei  CHAN",,,,,,"2025-08-16T00:00:00.000","2022-06-30T00:00:00.000"
"17721158","SEMP","2D - give advice about security equipment","Individual","5","6","Fei  CHAN",,,,,,"2025-08-16T00:00:00.000","2022-06-30T00:00:00.000"
"17728441","SEMP","1E - act as a monitoring centre operator","Individual","3","3","Preetpal  SINGH",,,,,,"2025-08-16T00:00:00.000",
"17728441","SEMP","1C - act as a crowd controller","Individual","2","3","Preetpal  SINGH",,,,,,"2025-08-16T00:00:00.000",
"17721158","SEMP","2E - install, maintain, monitor, repair or service security equipment","Individual","6","6","Fei  CHAN",,,,,,"2025-08-16T00:00:00.000","2022-06-30T00:00:00.000"
"17502208","SMAS","Security Master","Company","1","1","Point 2 Point Secure Pty Ltd","Point 2 Point Secure Pty Ltd","4 Kembla Street","FYSHWICK","ACT","2609","2025-08-16T00:00:00.000","2013-08-01T00:00:00.000"
"17726335","SEMP","1A - patrol, guard, watch or protect property (including cash in transit)","Individual","1","3","Julie-Anne Marree  MARSHALL",,,,,,"2025-08-16T00:00:00.000","2020-08-17T00:00:00.000"
"17727394","SEMP","1A - patrol, guard, watch or protect property (including cash in transit)","Individual","2","2","Faizan  AHMED",,,,,,"2025-08-15T00:00:00.000","2021-08-09T00:00:00.000"
"17724197","SEMP","1E - act as a monitoring centre operator","Individual","2","3","Micheal Barry BRIGHT",,,,,,"2025-08-15T00:00:00.000","2019-03-07T00:00:00.000"
"17727394","SEMP","1C - act as a crowd controller","Individual","1","2","Faizan  AHMED",,,,,,"2025-08-15T00:00:00.000","2021-08-09T00:00:00.000"
"17724197","SEMP","2B - sell security equipment","Individual","3","3","Micheal Barry BRIGHT",,,,,,"2025-08-15T00:00:00.000","2019-03-07T00:00:00.000"
"17724197","SEMP","1A - patrol, guard, watch or protect property (including cash in transit)","Individual","1","3","Micheal Barry BRIGHT",,,,,,"2025-08-15T00:00:00.000","2019-03-07T00:00:00.000"
"17727345","SEMP","1E - act as a monitoring centre operator","Individual","3","3","Thomas James CONWAY",,,,,,"2025-08-14T00:00:00.000","2021-07-21T00:00:00.000"
"17711023","SEMP","2C - carry out surveys and inspections of security equipment","Individual","3","4","Robert Lindsay MOSS",,,,,,"2025-08-14T00:00:00.000","2007-08-15T00:00:00.000"
"17717616","SEMP","1C - act as a crowd controller","Individual","2","3","Mark John WATERS",,,,,,"2025-08-14T00:00:00.000",
"17711023","SEMP","2B - sell security equipment","Individual","2","4","Robert Lindsay MOSS",,,,,,"2025-08-14T00:00:00.000","2007-08-15T00:00:00.000"
"17711023","SEMP","2D - give advice about security equipment","Individual","4","4","Robert Lindsay MOSS",,,,,,"2025-08-14T00:00:00.000","2007-08-15T00:00:00.000"
"17711023","SEMP","2E - install, maintain, monitor, repair or service security equipment","Individual","1","4","Robert Lindsay MOSS",,,,,,"2025-08-14T00:00:00.000","2007-08-15T00:00:00.000"
"17717616","SEMP","1A - patrol, guard, watch or protect property (including cash in transit)","Individual","1","3","Mark John WATERS",,,,,,"2025-08-14T00:00:00.000",
"17717702","SEMP","1C - act as a crowd controller","Individual","2","2","John Stephen MILLS",,,,,,"2025-08-14T00:00:00.000","2012-08-15T00:00:00.000"
"17717702","SEMP","1A - patrol, guard, watch or protect property (including cash in transit)","Individual","1","2","John Stephen MILLS",,,,,,"2025-08-14T00:00:00.000","2012-08-15T00:00:00.000"
"17727345","SEMP","1A - patrol, guard, watch or protect property (including cash in transit)","Individual","1","3","Thomas James CONWAY",,,,,,"2025-08-14T00:00:00.000","2021-07-21T00:00:00.000"
"17727345","SEMP","1C - act as a crowd controller","Individual","2","3","Thomas James CONWAY",,,,,,"2025-08-14T00:00:00.000","2021-07-21T00:00:00.000"
"17717616","SEMP","1FC - guard with a firearm for cash in transit","Individual","3","3","Mark John WATERS",,,,,,"2025-08-14T00:00:00.000",
"17726325","SEMP","1C - act as a crowd controller","Individual","2","2","Daniel  TAN-HOLMES",,,,,,"2025-08-12T00:00:00.000","2020-08-14T00:00:00.000"
"17726325","SEMP","1A - patrol, guard, watch or protect property (including cash in transit)","Individual","1","2","Daniel  TAN-HOLMES",,,,,,"2025-08-12T00:00:00.000","2020-08-14T00:00:00.000"
"17717692","SEMP","1A - patrol, guard, watch or protect property (including cash in transit)","Individual","1","2","Michael Jaycob PARMENTER",,,,,,"2025-08-12T00:00:00.000",
"17717692","SEMP","1C - act as a crowd controller","Individual","2","2","Michael Jaycob PARMENTER",,,,,,"2025-08-12T00:00:00.000",
"17727232","SEMP","2C - carry out surveys and inspections of security equipment","Individual","2","4","Luke Aaron DIXON",,,,,,"2025-08-11T00:00:00.000","2021-06-21T00:00:00.000"
"17727113","SEMP","1C - act as a crowd controller","Individual","2","3","Asim  ISHTIAQ",,,,,,"2025-08-11T00:00:00.000","2021-05-12T00:00:00.000"
"17728427","SEMP","2D - give advice about security equipment","Individual","2","3","Michael David JONES",,,,,,"2025-08-11T00:00:00.000","2022-08-12T00:00:00.000"
"17701676","SEMP","2E - install, maintain, monitor, repair or service security equipment","Individual","4","4","Eduard  DE SMETH",,,,,,"2025-08-11T00:00:00.000","1998-07-22T00:00:00.000"
"17701676","SEMP","2D - give advice about security equipment","Individual","3","4","Eduard  DE SMETH",,,,,,"2025-08-11T00:00:00.000","1998-07-22T00:00:00.000"
"17728429","SEMP","2B - sell security equipment","Individual","1","3","John Barry WHITTON",,,,,,"2025-08-11T00:00:00.000","2022-08-12T00:00:00.000"
"17718652","SEMP","1A - patrol, guard, watch or protect property (including cash in transit)","Individual","1","2","Alexander Stephen COCHRANE",,,,,,"2025-08-11T00:00:00.000","2013-08-12T00:00:00.000"
"17726676","SEMP","1A - patrol, guard, watch or protect property (including cash in transit)","Individual","1","4","Francois Frederickus LE GRANGE",,,,,,"2025-08-11T00:00:00.000","2020-12-18T00:00:00.000"
"17724752","SEMP","2C - carry out surveys and inspections of security equipment","Individual","1","1","Mark Shane ROBINSON",,,,,,"2025-08-11T00:00:00.000","2019-07-31T00:00:00.000"
"17727232","SEMP","2D - give advice about security equipment","Individual","3","4","Luke Aaron DIXON",,,,,,"2025-08-11T00:00:00.000","2021-06-21T00:00:00.000"
"17727232","SEMP","2E - install, maintain, monitor, repair or service security equipment","Individual","4","4","Luke Aaron DIXON",,,,,,"2025-08-11T00:00:00.000","2021-06-21T00:00:00.000"
"17727113","SEMP","1A - patrol, guard, watch or protect property (including cash in transit)","Individual","1","3","Asim  ISHTIAQ",,,,,,"2025-08-11T00:00:00.000","2021-05-12T00:00:00.000"
"17701676","SEMP","2C - carry out surveys and inspections of security equipment","Individual","2","4","Eduard  DE SMETH",,,,,,"2025-08-11T00:00:00.000","1998-07-22T00:00:00.000"
"17728427","SEMP","2E - install, maintain, monitor, repair or service security equipment","Individual","3","3","Michael David JONES",,,,,,"2025-08-11T00:00:00.000","2022-08-12T00:00:00.000"
"17726676","SEMP","2E - install, maintain, monitor, repair or service security equipment","Individual","4","4","Francois Frederickus LE GRANGE",,,,,,"2025-08-11T00:00:00.000","2020-12-18T00:00:00.000"
"17726676","SEMP","1E - act as a monitoring centre operator","Individual","3","4","Francois Frederickus LE GRANGE",,,,,,"2025-08-11T00:00:00.000","2020-12-18T00:00:00.000"
"17502599","SMAS","Security Master","Company","1","1","CORROBOREE SECURITY SERVICES INDIGENOUS CORPORATION","Corroboree Security Services Indigenous Corporation","Unit 5, 89-91 Tennant Street","FYSHWICK","ACT","2609","2025-08-11T00:00:00.000","2019-06-04T00:00:00.000"
"17728429","SEMP","2E - install, maintain, monitor, repair or service security equipment","Individual","2","3","John Barry WHITTON",,,,,,"2025-08-11T00:00:00.000","2022-08-12T00:00:00.000"
"17727232","SEMP","2B - sell security equipment","Individual","1","4","Luke Aaron DIXON",,,,,,"2025-08-11T00:00:00.000","2021-06-21T00:00:00.000"
"17718652","SEMP","1C - act as a crowd controller","Individual","2","2","Alexander Stephen COCHRANE",,,,,,"2025-08-11T00:00:00.000","2013-08-12T00:00:00.000"
"17721186","SEMP","1C - act as a crowd controller","Individual","2","2","Lual Akau Ayuen DENG",,,,,,"2025-08-11T00:00:00.000","2016-08-01T00:00:00.000"
"17728429","SEMP","2D - give advice about security equipment","Individual","3","3","John Barry WHITTON",,,,,,"2025-08-11T00:00:00.000","2022-08-12T00:00:00.000"
"17701676","SEMP","2B - sell security equipment","Individual","1","4","Eduard  DE SMETH",,,,,,"2025-08-11T00:00:00.000","1998-07-22T00:00:00.000"
"17721186","SEMP","1A - patrol, guard, watch or protect property (including cash in transit)","Individual","1","2","Lual Akau Ayuen DENG",,,,,,"2025-08-11T00:00:00.000","2016-08-01T00:00:00.000"
"17727113","SEMP","1E - act as a monitoring centre operator","Individual","3","3","Asim  ISHTIAQ",,,,,,"2025-08-11T00:00:00.000","2021-05-12T00:00:00.000"
"17726676","SEMP","1C - act as a crowd controller","Individual","2","4","Francois Frederickus LE GRANGE",,,,,,"2025-08-11T00:00:00.000","2020-12-18T00:00:00.000"
"17728427","SEMP","2B - sell security equipment","Individual","1","3","Michael David JONES",,,,,,"2025-08-11T00:00:00.000","2022-08-12T00:00:00.000"
"17718573","SEMP","1C - act as a crowd controller","Individual","2","2","Zahed Al  BATEN",,,,,,"2025-08-10T00:00:00.000","2013-07-11T00:00:00.000"
"20000444","MVR","Traders","Individual","2","2","Carmelo  SGROI","Car Mechanical Services","2/82 Kalgoorlie Crescent","FISHER","ACT","2611","2025-08-10T00:00:00.000","2020-08-11T00:00:00.000"
"17502403","SMAS","Security Master","Company","1","1","FS SOLUTIONS (ACT) PTY LTD","FS SOLUTIONS (ACT) PTY LTD","C/O Equity Partners Mode 3, Unit 126/24 Lonsdale Street","BRADDON","ACT","2612","2025-08-10T00:00:00.000","2016-06-20T00:00:00.000"
"17502127","SMAS","Security Master","Company","1","1","DAINTREE ELECTRONICS PTY LTD","Daintree Electronics Pty Ltd","4 Apperly Close","KAMBAH","ACT","2902","2025-08-10T00:00:00.000","2012-07-13T00:00:00.000"
"17722001","SEMP","1A - patrol, guard, watch or protect property (including cash in transit)","Individual","1","2","Bonnie Louise TYLER",,,,,,"2025-08-10T00:00:00.000","2017-05-18T00:00:00.000"
"17722001","SEMP","1C - act as a crowd controller","Individual","2","2","Bonnie Louise TYLER",,,,,,"2025-08-10T00:00:00.000","2017-05-18T00:00:00.000"
"17707582","SEMP","1A - patrol, guard, watch or protect property (including cash in transit)","Individual","1","2","Peter  KUZMA",,,,,,"2025-08-10T00:00:00.000","2003-08-12T00:00:00.000"
"17718573","SEMP","1A - patrol, guard, watch or protect property (including cash in transit)","Individual","1","2","Zahed Al  BATEN",,,,,,"2025-08-10T00:00:00.000","2013-07-11T00:00:00.000"
"17723462","SEMP","1A - patrol, guard, watch or protect property (including cash in transit)","Individual","1","2","Samaan Fereh Nessem ATTIA",,,,,,"2025-08-10T00:00:00.000","2018-07-26T00:00:00.000"
"17707582","SEMP","1C - act as a crowd controller","Individual","2","2","Peter  KUZMA",,,,,,"2025-08-10T00:00:00.000","2003-08-12T00:00:00.000"
"20000444","MVR","Traders","Individual","1","2","Carmelo  SGROI","Car Mechanical Services","4 Kapunda Street","FISHER","ACT","2611","2025-08-10T00:00:00.000","2020-08-11T00:00:00.000"
"17723462","SEMP","1C - act as a crowd controller","Individual","2","2","Samaan Fereh Nessem ATTIA",,,,,,"2025-08-10T00:00:00.000","2018-07-26T00:00:00.000"
"17707505","SEMP","2B - sell security equipment","Individual","1","4","Richard John DAINTREE",,,,,,"2025-08-09T00:00:00.000","1998-07-16T00:00:00.000"
"17727386","SEMP","1C - act as a crowd controller","Individual","2","2","Shivam  GUPTA",,,,,,"2025-08-09T00:00:00.000","2021-08-02T00:00:00.000"
"17707505","SEMP","2D - give advice about security equipment","Individual","3","4","Richard John DAINTREE",,,,,,"2025-08-09T00:00:00.000","1998-07-16T00:00:00.000"
"17707505","SEMP","2E - install, maintain, monitor, repair or service security equipment","Individual","4","4","Richard John DAINTREE",,,,,,"2025-08-09T00:00:00.000","1998-07-16T00:00:00.000"
"17501831","SMAS","Security Master","Company","1","1","TYCO AUSTRALIA GROUP PTY LTD","ADT Security","38/38-46 South Street","RYDALMERE","NSW","2116","2025-08-09T00:00:00.000","2009-02-11T00:00:00.000"
"17727386","SEMP","1A - patrol, guard, watch or protect property (including cash in transit)","Individual","1","2","Shivam  GUPTA",,,,,,"2025-08-09T00:00:00.000","2021-08-02T00:00:00.000"
"17707505","SEMP","2C - carry out surveys and inspections of security equipment","Individual","2","4","Richard John DAINTREE",,,,,,"2025-08-09T00:00:00.000","1998-07-16T00:00:00.000"
"17717366","SEMP","2A - acts as a security consultant","Individual","2","4","Simon John AUSTON",,,,,,"2025-08-08T00:00:00.000",
"17501793","SMAS","Security Master","Company","6","6","SECOM TECHNICAL SERVICES PTY LTD","Secom Technical Services Pty Ltd","A 2/8 Rogers Street","PORT MELBOURNE","VIC","3207","2025-08-08T00:00:00.000",
"17717366","SEMP","1A - patrol, guard, watch or protect property (including cash in transit)","Individual","3","4","Simon John AUSTON",,,,,,"2025-08-08T00:00:00.000",
"17501793","SMAS","Security Master","Company","1","6","SECOM TECHNICAL SERVICES PTY LTD","Secom Technical Services Pty Ltd","9 Penney Place","QUEANBEYAN","NSW","2620","2025-08-08T00:00:00.000",
"17501793","SMAS","Security Master","Company","2","6","SECOM TECHNICAL SERVICES PTY LTD","Secom Technical Services Pty Ltd","Unit 5, 23 Brindabella Circuit Brindabella Business Park","PIALLIGO","ACT","2609","2025-08-08T00:00:00.000",
"17717366","SEMP","1C - act as a crowd controller","Individual","1","4","Simon John AUSTON",,,,,,"2025-08-08T00:00:00.000",
"17501793","SMAS","Security Master","Company","5","6","SECOM TECHNICAL SERVICES PTY LTD","Secom Technical Services Pty Ltd","40 Wickham Street","EAST PERTH","WA","6004","2025-08-08T00:00:00.000",
"17501793","SMAS","Security Master","Company","3","6","SECOM TECHNICAL SERVICES PTY LTD","Secom Technical Services Pty Ltd","91 Phillips Street","PARRAMATTA","NSW","2150","2025-08-08T00:00:00.000",
"17501793","SMAS","Security Master","Company","4","6","SECOM TECHNICAL SERVICES PTY LTD","Secom Technical Services Pty Ltd","Level 1, 176 Montague Street","WEST END","QLD","4101","2025-08-08T00:00:00.000",
"17721185","SEMP","1A - patrol, guard, watch or protect property (including cash in transit)","Individual","1","2","Muhammad Adnan KHAN",,,,,,"2025-08-08T00:00:00.000","2016-08-01T00:00:00.000"
"17721185","SEMP","1C - act as a crowd controller","Individual","2","2","Muhammad Adnan KHAN",,,,,,"2025-08-08T00:00:00.000","2016-08-01T00:00:00.000"
"17717366","SEMP","1B - act as a bodyguard","Individual","4","4","Simon John AUSTON",,,,,,"2025-08-08T00:00:00.000",
"17717669","SEMP","1A - patrol, guard, watch or protect property (including cash in transit)","Individual","1","1","Gordon Douglas BOWEN",,,,,,"2025-08-07T00:00:00.000",
"17717658","SEMP","1C - act as a crowd controller","Individual","2","2","Adam James SOLMAN",,,,,,"2025-08-06T00:00:00.000","2012-08-06T00:00:00.000"
"17717658","SEMP","1A - patrol, guard, watch or protect property (including cash in transit)","Individual","1","2","Adam James SOLMAN",,,,,,"2025-08-06T00:00:00.000","2012-08-06T00:00:00.000"
"17712063","SEMP","1A - patrol, guard, watch or protect property (including cash in transit)","Individual","1","2","Kym Maree WALDRON",,,,,,"2025-08-06T00:00:00.000","2008-08-07T00:00:00.000"
"17712063","SEMP","1C - act as a crowd controller","Individual","2","2","Kym Maree WALDRON",,,,,,"2025-08-06T00:00:00.000","2008-08-07T00:00:00.000"
"20000442","SHD","Traders","Company","2","2","THE GREEN SHED PTY LTD","THE GREEN SHED SHOP","Garema Court 180 City Walk","CITY","ACT","2601","2025-08-05T00:00:00.000","2020-08-06T00:00:00.000"
"20000442","SHD","Traders","Company","1","2","THE GREEN SHED PTY LTD","THE GREEN SHED SHOP","Resource Management Centre Flemington Road","MITCHELL","ACT","2911","2025-08-05T00:00:00.000","2020-08-06T00:00:00.000"
"17707530","SEMP","1C - act as a crowd controller","Individual","2","2","Philip Keith CHOWN",,,,,,"2025-08-04T00:00:00.000","2003-07-31T00:00:00.000"
"17724703","SEMP","1C - act as a crowd controller","Individual","2","2","Zsolt  HORVATH",,,,,,"2025-08-04T00:00:00.000","2019-07-22T00:00:00.000"
"17707530","SEMP","1A - patrol, guard, watch or protect property (including cash in transit)","Individual","1","2","Philip Keith CHOWN",,,,,,"2025-08-04T00:00:00.000","2003-07-31T00:00:00.000"
"17724703","SEMP","1A - patrol, guard, watch or protect property (including cash in transit)","Individual","1","2","Zsolt  HORVATH",,,,,,"2025-08-04T00:00:00.000","2019-07-22T00:00:00.000"
"17707539","SEMP","2A - acts as a security consultant","Individual","5","5","Craig John MANCE",,,,,,"2025-08-03T00:00:00.000","2003-08-08T00:00:00.000"
"17707539","SEMP","2C - carry out surveys and inspections of security equipment","Individual","2","5","Craig John MANCE",,,,,,"2025-08-03T00:00:00.000","2003-08-08T00:00:00.000"
"17707539","SEMP","2D - give advice about security equipment","Individual","4","5","Craig John MANCE",,,,,,"2025-08-03T00:00:00.000","2003-08-08T00:00:00.000"
"17713360","SEMP","1A - patrol, guard, watch or protect property (including cash in transit)","Individual","1","2","Dayna Brook HULME",,,,,,"2025-08-03T00:00:00.000","2009-07-31T00:00:00.000"
"17713360","SEMP","1C - act as a crowd controller","Individual","2","2","Dayna Brook HULME",,,,,,"2025-08-03T00:00:00.000","2009-07-31T00:00:00.000"
"17716525","SEMP","1A - patrol, guard, watch or protect property (including cash in transit)","Individual","1","1","Hem  CHANDRA",,,,,,"2025-08-03T00:00:00.000","2011-08-04T00:00:00.000"
"17707539","SEMP","2B - sell security equipment","Individual","1","5","Craig John MANCE",,,,,,"2025-08-03T00:00:00.000","2003-08-08T00:00:00.000"
"17707539","SEMP","2E - install, maintain, monitor, repair or service security equipment","Individual","3","5","Craig John MANCE",,,,,,"2025-08-03T00:00:00.000","2003-08-08T00:00:00.000"
"17727390","SEMP","2B - sell security equipment","Individual","1","4","Callum Brett DENNIS",,,,,,"2025-08-02T00:00:00.000","2021-08-03T00:00:00.000"
"17727390","SEMP","2E - install, maintain, monitor, repair or service security equipment","Individual","4","4","Callum Brett DENNIS",,,,,,"2025-08-02T00:00:00.000","2021-08-03T00:00:00.000"
"17727390","SEMP","2D - give advice about security equipment","Individual","3","4","Callum Brett DENNIS",,,,,,"2025-08-02T00:00:00.000","2021-08-03T00:00:00.000"
"17727390","SEMP","2C - carry out surveys and inspections of security equipment","Individual","2","4","Callum Brett DENNIS",,,,,,"2025-08-02T00:00:00.000","2021-08-03T00:00:00.000"
"17728413","SEMP","2E - install, maintain, monitor, repair or service security equipment","Individual","1","1","Thomas Joel ALLENSPACH",,,,,,"2025-08-01T00:00:00.000","2022-08-02T00:00:00.000"
"17502609","SMAS","Security Master","Company","1","1","WILSON AVIATION SERVICES PTY LTD","Wilson Aviation Services Pty Ltd","6 ENGLISH ST","ESSENDON FIELDS","VIC","3041","2025-08-01T00:00:00.000","2019-08-02T00:00:00.000"
"17721189","SEMP","1A - patrol, guard, watch or protect property (including cash in transit)","Individual","1","2","Angela Joy WILSON",,,,,,"2025-08-01T00:00:00.000","2016-08-02T00:00:00.000"
"17701023","SEMP","1A - patrol, guard, watch or protect property (including cash in transit)","Individual","1","1","Shane John REID",,,,,,"2025-08-01T00:00:00.000","1998-05-21T00:00:00.000"
"17721189","SEMP","1C - act as a crowd controller","Individual","2","2","Angela Joy WILSON",,,,,,"2025-08-01T00:00:00.000","2016-08-02T00:00:00.000"
"17727254","SEMP","1C - act as a crowd controller","Individual","2","2","Brett  THISTLETHWAITE",,,,,,"2025-07-31T00:00:00.000","2021-06-24T00:00:00.000"
"17710029","SEMP","1A - patrol, guard, watch or protect property (including cash in transit)","Individual","1","1","Ross Michael SMITH",,,,,,"2025-07-31T00:00:00.000","2006-08-01T00:00:00.000"
"17723246","SEMP","1C - act as a crowd controller","Individual","1","2","Muhammad  JAWAD",,,,,,"2025-07-31T00:00:00.000","2018-05-18T00:00:00.000"
"17727254","SEMP","1A - patrol, guard, watch or protect property (including cash in transit)","Individual","1","2","Brett  THISTLETHWAITE",,,,,,"2025-07-31T00:00:00.000","2021-06-24T00:00:00.000"
"17723377","SEMP","1C - act as a crowd controller","Individual","1","3","Paul Andrew BARRETT",,,,,,"2025-07-31T00:00:00.000","2018-06-28T00:00:00.000"
"17723377","SEMP","1E - act as a monitoring centre operator","Individual","2","3","Paul Andrew BARRETT",,,,,,"2025-07-31T00:00:00.000","2018-06-28T00:00:00.000"
"20000410","MVR","Traders","Company","1","1","AAO JEE GROUP PTY LTD","EVERYDAY AUTO REPAIR AND TYRES","Unit 2, 5 Felton Street","MITCHELL","ACT","2911","2025-07-31T00:00:00.000","2020-08-01T00:00:00.000"
"17723377","SEMP","1A - patrol, guard, watch or protect property (including cash in transit)","Individual","3","3","Paul Andrew BARRETT",,,,,,"2025-07-31T00:00:00.000","2018-06-28T00:00:00.000"
"17723246","SEMP","1A - patrol, guard, watch or protect property (including cash in transit)","Individual","2","2","Muhammad  JAWAD",,,,,,"2025-07-31T00:00:00.000","2018-05-18T00:00:00.000"
"17726267","SEMP","1C - act as a crowd controller","Individual","3","3","Garth Anthony TERLICH",,,,,,"2025-07-29T00:00:00.000","2020-07-30T00:00:00.000"
"17724511","SEMP","1A - patrol, guard, watch or protect property (including cash in transit)","Individual","1","2","Jure Antony GRUBISIC",,,,,,"2025-07-29T00:00:00.000","2019-06-04T00:00:00.000"
"17701681","SEMP","2E - install, maintain, monitor, repair or service security equipment","Individual","4","4","James Russell FISHER",,,,,,"2025-07-29T00:00:00.000","1998-07-22T00:00:00.000"
"17701681","SEMP","2D - give advice about security equipment","Individual","3","4","James Russell FISHER",,,,,,"2025-07-29T00:00:00.000","1998-07-22T00:00:00.000"
"17724511","SEMP","1C - act as a crowd controller","Individual","2","2","Jure Antony GRUBISIC",,,,,,"2025-07-29T00:00:00.000","2019-06-04T00:00:00.000"
"17723468","SEMP","1A - patrol, guard, watch or protect property (including cash in transit)","Individual","1","1","Sean Alan BROWN",,,,,,"2025-07-29T00:00:00.000","2018-07-30T00:00:00.000"
"17726267","SEMP","1A - patrol, guard, watch or protect property (including cash in transit)","Individual","1","3","Garth Anthony TERLICH",,,,,,"2025-07-29T00:00:00.000","2020-07-30T00:00:00.000"
"17701681","SEMP","2C - carry out surveys and inspections of security equipment","Individual","2","4","James Russell FISHER",,,,,,"2025-07-29T00:00:00.000","1998-07-22T00:00:00.000"
"17701681","SEMP","2B - sell security equipment","Individual","1","4","James Russell FISHER",,,,,,"2025-07-29T00:00:00.000","1998-07-22T00:00:00.000"
"17726267","SEMP","1B - act as a bodyguard","Individual","2","3","Garth Anthony TERLICH",,,,,,"2025-07-29T00:00:00.000","2020-07-30T00:00:00.000"
"17720384","SEMP","1A - patrol, guard, watch or protect property (including cash in transit)","Individual","1","2","Andrew Arthur MCLEAY",,,,,,"2025-07-28T00:00:00.000","2015-07-29T00:00:00.000"
"17720384","SEMP","1C - act as a crowd controller","Individual","2","2","Andrew Arthur MCLEAY",,,,,,"2025-07-28T00:00:00.000","2015-07-29T00:00:00.000"
"17502814","SMAS","Security Master","Company","1","1","ZUBIX SECURITY PTY LTD","Zubix Security Pty Ltd","158 ROBEY AV","MIDDLETON GRANGE","NSW","2171","2025-07-28T00:00:00.000","2022-07-29T00:00:00.000"
"17728405","SEMP","1E - act as a monitoring centre operator","Individual","3","3","Kareem Ahmed SYED",,,,,,"2025-07-27T00:00:00.000","2022-07-28T00:00:00.000"
"17728405","SEMP","1C - act as a crowd controller","Individual","2","3","Kareem Ahmed SYED",,,,,,"2025-07-27T00:00:00.000","2022-07-28T00:00:00.000"
"17728405","SEMP","1A - patrol, guard, watch or protect property (including cash in transit)","Individual","1","3","Kareem Ahmed SYED",,,,,,"2025-07-27T00:00:00.000","2022-07-28T00:00:00.000"
"17728406","SEMP","1C - act as a crowd controller","Individual","3","3","Craig Lee GREENWOOD",,,,,,"2025-07-27T00:00:00.000","2022-07-28T00:00:00.000"
"17728406","SEMP","1A - patrol, guard, watch or protect property (including cash in transit)","Individual","1","3","Craig Lee GREENWOOD",,,,,,"2025-07-27T00:00:00.000","2022-07-28T00:00:00.000"
"17728406","SEMP","1B - act as a bodyguard","Individual","2","3","Craig Lee GREENWOOD",,,,,,"2025-07-27T00:00:00.000","2022-07-28T00:00:00.000"
"17501839","SMAS","Security Master","Company","1","1","REDDAWN AUSTRALIA PTY LTD","Reddawn Australia Pty Ltd","Office Annex, Building C 60-66 Perry Street","MATRAVILLE","NSW","2036","2025-07-26T00:00:00.000","2009-03-19T00:00:00.000"
"17715317","SEMP","2E - install, maintain, monitor, repair or service security equipment","Individual","1","1","Anthony Alan COURT",,,,,,"2025-07-26T00:00:00.000","2010-07-27T00:00:00.000"
"17501029","SMAS","Security Master","Company","1","1","COMPLETE LOCK AND SECURITY SERVICES PTY LTD","C.L.A.S.S Locksmiths, Complete Lock and Safe Services","51-55 Kembla Street","FYSHWICK","ACT","2609","2025-07-26T00:00:00.000","1998-07-22T00:00:00.000"
"20000440","MVR","Traders","Company","2","2","SOUTHSUB PTY LTD","Subaru Canberra","142 Melrose Drive","PHILLIP","ACT","2606","2025-07-26T00:00:00.000","2020-07-27T00:00:00.000"
"20000440","MVD","Traders","Company","1","2","SOUTHSUB PTY LTD","Subaru Canberra","142 Melrose Drive","PHILLIP","ACT","2606","2025-07-26T00:00:00.000","2020-07-27T00:00:00.000"
"17726448","SEMP","2C - carry out surveys and inspections of security equipment","Individual","4","4","Nathan John  SMITH",,,,,,"2025-07-25T00:00:00.000","2020-09-17T00:00:00.000"
"17726448","SEMP","2B - sell security equipment","Individual","1","4","Nathan John  SMITH",,,,,,"2025-07-25T00:00:00.000","2020-09-17T00:00:00.000"
"17726448","SEMP","2D - give advice about security equipment","Individual","2","4","Nathan John  SMITH",,,,,,"2025-07-25T00:00:00.000","2020-09-17T00:00:00.000"
"17726448","SEMP","2E - install, maintain, monitor, repair or service security equipment","Individual","3","4","Nathan John  SMITH",,,,,,"2025-07-25T00:00:00.000","2020-09-17T00:00:00.000"
"17721167","SEMP","1A - patrol, guard, watch or protect property (including cash in transit)","Individual","2","2","Prasi  Khoe Khoe",,,,,,"2025-07-25T00:00:00.000","2016-07-26T00:00:00.000"
"17726218","SEMP","1D - guard with a dog","Individual","3","3","Abuzeid Alnour Ali ABUZEID",,,,,,"2025-07-25T00:00:00.000","2020-07-16T00:00:00.000"
"17726218","SEMP","1C - act as a crowd controller","Individual","2","3","Abuzeid Alnour Ali ABUZEID",,,,,,"2025-07-25T00:00:00.000","2020-07-16T00:00:00.000"
"17726218","SEMP","1A - patrol, guard, watch or protect property (including cash in transit)","Individual","1","3","Abuzeid Alnour Ali ABUZEID",,,,,,"2025-07-25T00:00:00.000","2020-07-16T00:00:00.000"
"17721167","SEMP","1C - act as a crowd controller","Individual","1","2","Prasi  Khoe Khoe",,,,,,"2025-07-25T00:00:00.000","2016-07-26T00:00:00.000"
"17715264","SEMP","1A - patrol, guard, watch or protect property (including cash in transit)","Individual","1","1","In Cheol  JEON",,,,,,"2025-07-25T00:00:00.000","2010-07-13T00:00:00.000"
"17502036","SMAS","Security Master","Company","1","1","ARA Security Services Pty Ltd","E.C.S Services","UNIT 1 9 LITHGOW ST","FYSHWICK","ACT","2609","2025-07-24T00:00:00.000",
"17721166","SEMP","1A - patrol, guard, watch or protect property (including cash in transit)","Individual","1","1","Liam  BROWNE",,,,,,"2025-07-24T00:00:00.000","2016-07-25T00:00:00.000"
"17721147","SEMP","2B - sell security equipment","Individual","1","4","Amy Maree LUCERNE",,,,,,"2025-07-23T00:00:00.000",
"17721147","SEMP","2E - install, maintain, monitor, repair or service security equipment","Individual","4","4","Amy Maree LUCERNE",,,,,,"2025-07-23T00:00:00.000",
"17721147","SEMP","2D - give advice about security equipment","Individual","3","4","Amy Maree LUCERNE",,,,,,"2025-07-23T00:00:00.000",
"17721147","SEMP","2C - carry out surveys and inspections of security equipment","Individual","2","4","Amy Maree LUCERNE",,,,,,"2025-07-23T00:00:00.000",
"17727361","SEMP","1E - act as a monitoring centre operator","Individual","1","3","Aizad  RAZA",,,,,,"2025-07-22T00:00:00.000","2021-07-23T00:00:00.000"
"20000228","MVR","Traders","Company","8","12","MCGRATH CANBERRA PTY LTD","Mercedes Benz Canberra, John McGrath Auto Group","88 Prospect Court","PHILLIP","ACT","2606","2025-07-22T00:00:00.000","2020-07-23T00:00:00.000"
"20000228","MVR","Traders","Company","4","12","MCGRATH CANBERRA PTY LTD","Mercedes Benz Canberra, John McGrath Auto Group","170 Melrose Drive","PHILLIP","ACT","2606","2025-07-22T00:00:00.000","2020-07-23T00:00:00.000"
"17727361","SEMP","1A - patrol, guard, watch or protect property (including cash in transit)","Individual","2","3","Aizad  RAZA",,,,,,"2025-07-22T00:00:00.000","2021-07-23T00:00:00.000"
"20000228","MVR","Traders","Company","12","12","MCGRATH CANBERRA PTY LTD","Mercedes Benz Canberra, John McGrath Auto Group","174 Melrose Drive","PHILLIP","ACT","2606","2025-07-22T00:00:00.000","2020-07-23T00:00:00.000"
"17727361","SEMP","1C - act as a crowd controller","Individual","3","3","Aizad  RAZA",,,,,,"2025-07-22T00:00:00.000","2021-07-23T00:00:00.000"
"20000228","MVR","Traders","Company","10","12","MCGRATH CANBERRA PTY LTD","Mercedes Benz Canberra, John McGrath Auto Group","158 Melrose Drive","PHILLIP","ACT","2606","2025-07-22T00:00:00.000","2020-07-23T00:00:00.000"
"20000228","MVR","Traders","Company","2","12","MCGRATH CANBERRA PTY LTD","Mercedes Benz Canberra, John McGrath Auto Group","Cnr Cohen & Josephson Streets","BELCONNEN","ACT","2617","2025-07-22T00:00:00.000","2020-07-23T00:00:00.000"
"20000228","MVR","Traders","Company","6","12","MCGRATH CANBERRA PTY LTD","Mercedes Benz Canberra, John McGrath Auto Group","3 Tom Price Street","FYSHWICK","ACT","2609","2025-07-22T00:00:00.000","2020-07-23T00:00:00.000"
"17728367","SEMP","1C - act as a crowd controller","Individual","2","3","Lachlan Anthony WARD",,,,,,"2025-07-21T00:00:00.000","2022-07-22T00:00:00.000"
"17727194","SEMP","1A - patrol, guard, watch or protect property (including cash in transit)","Individual","1","3","Pankaj Kumar  .",,,,,,"2025-07-21T00:00:00.000","2021-06-02T00:00:00.000"
"17721165","SEMP","1C - act as a crowd controller","Individual","2","2","Lesley Catherine JAATINEN",,,,,,"2025-07-21T00:00:00.000","2016-07-22T00:00:00.000"
"17727194","SEMP","1E - act as a monitoring centre operator","Individual","3","3","Pankaj Kumar  .",,,,,,"2025-07-21T00:00:00.000","2021-06-02T00:00:00.000"
"17727194","SEMP","1C - act as a crowd controller","Individual","2","3","Pankaj Kumar  .",,,,,,"2025-07-21T00:00:00.000","2021-06-02T00:00:00.000"
"17727348","SEMP","1A - patrol, guard, watch or protect property (including cash in transit)","Individual","1","2","Damian-Jae Christopher DE GROOT",,,,,,"2025-07-21T00:00:00.000","2021-07-22T00:00:00.000"
"17727348","SEMP","1C - act as a crowd controller","Individual","2","2","Damian-Jae Christopher DE GROOT",,,,,,"2025-07-21T00:00:00.000","2021-07-22T00:00:00.000"
"17721165","SEMP","1A - patrol, guard, watch or protect property (including cash in transit)","Individual","1","2","Lesley Catherine JAATINEN",,,,,,"2025-07-21T00:00:00.000","2016-07-22T00:00:00.000"
"17728367","SEMP","1A - patrol, guard, watch or protect property (including cash in transit)","Individual","1","3","Lachlan Anthony WARD",,,,,,"2025-07-21T00:00:00.000","2022-07-22T00:00:00.000"
"17728367","SEMP","1E - act as a monitoring centre operator","Individual","3","3","Lachlan Anthony WARD",,,,,,"2025-07-21T00:00:00.000","2022-07-22T00:00:00.000"
"17726193","SEMP","1C - act as a crowd controller","Individual","2","3","Nikita Kirankumar  PATEL",,,,,,"2025-07-20T00:00:00.000","2020-07-06T00:00:00.000"
"17726193","SEMP","1E - act as a monitoring centre operator","Individual","3","3","Nikita Kirankumar  PATEL",,,,,,"2025-07-20T00:00:00.000","2020-07-06T00:00:00.000"
"17720815","SEMP","1A - patrol, guard, watch or protect property (including cash in transit)","Individual","1","2","Lee  PUKLOWSKI",,,,,,"2025-07-20T00:00:00.000","2016-02-17T00:00:00.000"
"17721125","SEMP","1A - patrol, guard, watch or protect property (including cash in transit)","Individual","1","2","Aran  ERDEBILLI",,,,,,"2025-07-20T00:00:00.000","2016-07-11T00:00:00.000"
"17720815","SEMP","1C - act as a crowd controller","Individual","2","2","Lee  PUKLOWSKI",,,,,,"2025-07-20T00:00:00.000","2016-02-17T00:00:00.000"
"17721125","SEMP","1C - act as a crowd controller","Individual","2","2","Aran  ERDEBILLI",,,,,,"2025-07-20T00:00:00.000","2016-07-11T00:00:00.000"
"17726193","SEMP","1A - patrol, guard, watch or protect property (including cash in transit)","Individual","1","3","Nikita Kirankumar  PATEL",,,,,,"2025-07-20T00:00:00.000","2020-07-06T00:00:00.000"
"17727340","SEMP","1C - act as a crowd controller","Individual","2","3","Satyen  SHARMA",,,,,,"2025-07-19T00:00:00.000","2021-07-20T00:00:00.000"
"17727340","SEMP","1E - act as a monitoring centre operator","Individual","3","3","Satyen  SHARMA",,,,,,"2025-07-19T00:00:00.000","2021-07-20T00:00:00.000"
"17727340","SEMP","1A - patrol, guard, watch or protect property (including cash in transit)","Individual","1","3","Satyen  SHARMA",,,,,,"2025-07-19T00:00:00.000","2021-07-20T00:00:00.000"
"17728385","SEMP","1A - patrol, guard, watch or protect property (including cash in transit)","Individual","1","3","Muhammad  ALI",,,,,,"2025-07-18T00:00:00.000","2022-07-19T00:00:00.000"
"17728385","SEMP","1E - act as a monitoring centre operator","Individual","3","3","Muhammad  ALI",,,,,,"2025-07-18T00:00:00.000","2022-07-19T00:00:00.000"
"17710395","SEMP","1A - patrol, guard, watch or protect property (including cash in transit)","Individual","1","3","Dilraj  MUHAMMAD",,,,,,"2025-07-18T00:00:00.000","2007-01-11T00:00:00.000"
"17710395","SEMP","1C - act as a crowd controller","Individual","2","3","Dilraj  MUHAMMAD",,,,,,"2025-07-18T00:00:00.000","2007-01-11T00:00:00.000"
"17710395","SEMP","2A - acts as a security consultant","Individual","3","3","Dilraj  MUHAMMAD",,,,,,"2025-07-18T00:00:00.000","2007-01-11T00:00:00.000"
"17728385","SEMP","1C - act as a crowd controller","Individual","2","3","Muhammad  ALI",,,,,,"2025-07-18T00:00:00.000","2022-07-19T00:00:00.000"
"17723430","SEMP","2B - sell security equipment","Individual","3","8","Yevette Yee Wei HO",,,,,,"2025-07-17T00:00:00.000","2018-07-17T00:00:00.000"
"17723430","SEMP","2C - carry out surveys and inspections of security equipment","Individual","1","8","Yevette Yee Wei HO",,,,,,"2025-07-17T00:00:00.000","2018-07-17T00:00:00.000"
"17723430","SEMP","1B - act as a bodyguard","Individual","5","8","Yevette Yee Wei HO",,,,,,"2025-07-17T00:00:00.000","2018-07-17T00:00:00.000"
"17717563","SEMP","1C - act as a crowd controller","Individual","2","2","Daifalla  SAID",,,,,,"2025-07-17T00:00:00.000","2012-07-03T00:00:00.000"
"17723339","SEMP","1A - patrol, guard, watch or protect property (including cash in transit)","Individual","1","1","Lochlan William CHENEY",,,,,,"2025-07-17T00:00:00.000","2018-06-14T00:00:00.000"
"17717586","SEMP","1E - act as a monitoring centre operator","Individual","2","2","Geoffrey John ROSE",,,,,,"2025-07-17T00:00:00.000","2012-07-13T00:00:00.000"
"17717563","SEMP","1A - patrol, guard, watch or protect property (including cash in transit)","Individual","1","2","Daifalla  SAID",,,,,,"2025-07-17T00:00:00.000","2012-07-03T00:00:00.000"
"17502201","SMAS","Security Master","Company","1","1","SECURITY 1 MANPOWER PTY LTD","SECURITY 1 MANPOWER PTY LTD","44/52 Townshend Street","PHILLIP","ACT","2606","2025-07-17T00:00:00.000","2013-07-08T00:00:00.000"
"17723430","SEMP","1A - patrol, guard, watch or protect property (including cash in transit)","Individual","4","8","Yevette Yee Wei HO",,,,,,"2025-07-17T00:00:00.000","2018-07-17T00:00:00.000"
"17723430","SEMP","2E - install, maintain, monitor, repair or service security equipment","Individual","2","8","Yevette Yee Wei HO",,,,,,"2025-07-17T00:00:00.000","2018-07-17T00:00:00.000"
"17723430","SEMP","1E - act as a monitoring centre operator","Individual","7","8","Yevette Yee Wei HO",,,,,,"2025-07-17T00:00:00.000","2018-07-17T00:00:00.000"
"17727148","SEMP","1A - patrol, guard, watch or protect property (including cash in transit)","Individual","1","1","Samuel Robert  WARBURTON",,,,,,"2025-07-17T00:00:00.000","2021-05-20T00:00:00.000"
"17717599","SEMP","1A - patrol, guard, watch or protect property (including cash in transit)","Individual","1","1","Alistair Colin CLARK",,,,,,"2025-07-17T00:00:00.000","2012-07-18T00:00:00.000"
"17502602","SMAS","Security Master","Company","1","1","Tehnika Pty Ltd","Tehnika Pty Ltd","60 Morley Street","COORPAROO","QLD","4151","2025-07-17T00:00:00.000","2019-06-24T00:00:00.000"
"17717586","SEMP","1A - patrol, guard, watch or protect property (including cash in transit)","Individual","1","2","Geoffrey John ROSE",,,,,,"2025-07-17T00:00:00.000","2012-07-13T00:00:00.000"
"17723430","SEMP","2A - acts as a security consultant","Individual","8","8","Yevette Yee Wei HO",,,,,,"2025-07-17T00:00:00.000","2018-07-17T00:00:00.000"
"17723430","SEMP","1C - act as a crowd controller","Individual","6","8","Yevette Yee Wei HO",,,,,,"2025-07-17T00:00:00.000","2018-07-17T00:00:00.000"
"17721051","SEMP","1C - act as a crowd controller","Individual","1","1","Jared David HALLORAN",,,,,,"2025-07-17T00:00:00.000","2016-05-30T00:00:00.000"
"17724689","SEMP","1C - act as a crowd controller","Individual","2","3","Tanya  AUSTON",,,,,,"2025-07-16T00:00:00.000",
"17724689","SEMP","1E - act as a monitoring centre operator","Individual","3","3","Tanya  AUSTON",,,,,,"2025-07-16T00:00:00.000",
"17724689","SEMP","1A - patrol, guard, watch or protect property (including cash in transit)","Individual","1","3","Tanya  AUSTON",,,,,,"2025-07-16T00:00:00.000",
"17708100","SEMP","1C - act as a crowd controller","Individual","2","3","Craig Mathew WEDD",,,,,,"2025-07-15T00:00:00.000","2004-07-15T00:00:00.000"
"17708100","SEMP","1A - patrol, guard, watch or protect property (including cash in transit)","Individual","1","3","Craig Mathew WEDD",,,,,,"2025-07-15T00:00:00.000","2004-07-15T00:00:00.000"
"17708100","SEMP","1E - act as a monitoring centre operator","Individual","3","3","Craig Mathew WEDD",,,,,,"2025-07-15T00:00:00.000","2004-07-15T00:00:00.000"
"17723357","SEMP","1C - act as a crowd controller","Individual","2","2","Khairul Fahim Ahmad  KHANDAKER",,,,,,"2025-07-15T00:00:00.000","2018-06-21T00:00:00.000"
"17724685","SEMP","1C - act as a crowd controller","Individual","2","3","James David MULHOLLAND",,,,,,"2025-07-15T00:00:00.000","2019-07-16T00:00:00.000"
"17723357","SEMP","1A - patrol, guard, watch or protect property (including cash in transit)","Individual","1","2","Khairul Fahim Ahmad  KHANDAKER",,,,,,"2025-07-15T00:00:00.000","2018-06-21T00:00:00.000"
"17724685","SEMP","1E - act as a monitoring centre operator","Individual","3","3","James David MULHOLLAND",,,,,,"2025-07-15T00:00:00.000","2019-07-16T00:00:00.000"
"17724685","SEMP","1A - patrol, guard, watch or protect property (including cash in transit)","Individual","1","3","James David MULHOLLAND",,,,,,"2025-07-15T00:00:00.000","2019-07-16T00:00:00.000"
"17727324","SEMP","1C - act as a crowd controller","Individual","2","4","Gurteg Singh  MANN",,,,,,"2025-07-14T00:00:00.000","2021-07-15T00:00:00.000"
"17727324","SEMP","2E - install, maintain, monitor, repair or service security equipment","Individual","4","4","Gurteg Singh  MANN",,,,,,"2025-07-14T00:00:00.000","2021-07-15T00:00:00.000"
"17726207","SEMP","1C - act as a crowd controller","Individual","2","2","Sukhpreet Singh DHALIWAL",,,,,,"2025-07-14T00:00:00.000","2020-07-15T00:00:00.000"
"17728376","SEMP","2E - install, maintain, monitor, repair or service security equipment","Individual","1","1","Adam Lee GUILMARTIN",,,,,,"2025-07-14T00:00:00.000","2022-05-20T00:00:00.000"
"17502119","SMAS","Security Master","Company","1","1","SOUTHERN CROSS GROUP SERVICES PTY LTD","Southern Southern Cross Group Services PTY LTD","Unit 3, 73 Collie St","FYSHWICK","ACT","2609","2025-07-14T00:00:00.000","2012-06-13T00:00:00.000"
"17727324","SEMP","1E - act as a monitoring centre operator","Individual","3","4","Gurteg Singh  MANN",,,,,,"2025-07-14T00:00:00.000","2021-07-15T00:00:00.000"
"17726207","SEMP","1A - patrol, guard, watch or protect property (including cash in transit)","Individual","1","2","Sukhpreet Singh DHALIWAL",,,,,,"2025-07-14T00:00:00.000","2020-07-15T00:00:00.000"
"17727324","SEMP","1A - patrol, guard, watch or protect property (including cash in transit)","Individual","1","4","Gurteg Singh  MANN",,,,,,"2025-07-14T00:00:00.000","2021-07-15T00:00:00.000"
"17724460","SEMP","1A - patrol, guard, watch or protect property (including cash in transit)","Individual","1","4","Richard Freddy SALAZAR",,,,,,"2025-07-13T00:00:00.000","2019-05-20T00:00:00.000"
"17720441","SEMP","1A - patrol, guard, watch or protect property (including cash in transit)","Individual","1","2","Sanjeev  KUMAR",,,,,,"2025-07-13T00:00:00.000","2015-08-26T00:00:00.000"
"17724460","SEMP","1C - act as a crowd controller","Individual","2","4","Richard Freddy SALAZAR",,,,,,"2025-07-13T00:00:00.000","2019-05-20T00:00:00.000"
"17720441","SEMP","1C - act as a crowd controller","Individual","2","2","Sanjeev  KUMAR",,,,,,"2025-07-13T00:00:00.000","2015-08-26T00:00:00.000"
"17724460","SEMP","2E - install, maintain, monitor, repair or service security equipment","Individual","4","4","Richard Freddy SALAZAR",,,,,,"2025-07-13T00:00:00.000","2019-05-20T00:00:00.000"
"17501742","SMAS","Security Master","Company","1","1","CERTIS SECURITY AUSTRALIA PTY LTD","BRI Security, Certis Australia, Certis Security Australia","937-941 VICTORIA RD","WEST RYDE","NSW","2114","2025-07-13T00:00:00.000","2007-06-12T00:00:00.000"
"17502468","SMAS","Security Master","Company","1","1","AUTOMATE SMART BUILDING SOLUTIONS PTY LTD","AUTOMATE SMART BUILDING SOLUTIONS PTY LTD","Unit 3, 58 Sheppard St","HUME","ACT","2620","2025-07-13T00:00:00.000","2017-05-23T00:00:00.000"
"17725799","SEMP","1A - patrol, guard, watch or protect property (including cash in transit)","Individual","1","1","Reema  SHARMA",,,,,,"2025-07-13T00:00:00.000","2020-04-08T00:00:00.000"
"17724460","SEMP","1E - act as a monitoring centre operator","Individual","3","4","Richard Freddy SALAZAR",,,,,,"2025-07-13T00:00:00.000","2019-05-20T00:00:00.000"
"17721131","SEMP","1C - act as a crowd controller","Individual","2","2","Ajay Partap Bajwa",,,,,,"2025-07-12T00:00:00.000","2016-07-13T00:00:00.000"
"17721131","SEMP","1A - patrol, guard, watch or protect property (including cash in transit)","Individual","1","2","Ajay Partap Bajwa",,,,,,"2025-07-12T00:00:00.000","2016-07-13T00:00:00.000"
"17728373","SEMP","2E - install, maintain, monitor, repair or service security equipment","Individual","4","4","Jeremy Joseph STILES",,,,,,"2025-07-12T00:00:00.000","2022-07-13T00:00:00.000"
"17728373","SEMP","2C - carry out surveys and inspections of security equipment","Individual","2","4","Jeremy Joseph STILES",,,,,,"2025-07-12T00:00:00.000","2022-07-13T00:00:00.000"
"17728373","SEMP","2D - give advice about security equipment","Individual","3","4","Jeremy Joseph STILES",,,,,,"2025-07-12T00:00:00.000","2022-07-13T00:00:00.000"
"17728373","SEMP","2B - sell security equipment","Individual","1","4","Jeremy Joseph STILES",,,,,,"2025-07-12T00:00:00.000","2022-07-13T00:00:00.000"
"17717588","SEMP","1C - act as a crowd controller","Individual","2","2","Saleem  ASLAM",,,,,,"2025-07-12T00:00:00.000","2012-07-13T00:00:00.000"
"17717588","SEMP","1A - patrol, guard, watch or protect property (including cash in transit)","Individual","1","2","Saleem  ASLAM",,,,,,"2025-07-12T00:00:00.000","2012-07-13T00:00:00.000"
"20000439","SHD","Traders","Company","1","1","A C & R CATERING EQUIPMENT PTY LTD","A C & R CATERING EQUIPMENT PTY LTD","10 Kembla Street","FYSHWICK","ACT","2609","2025-07-12T00:00:00.000","2020-07-13T00:00:00.000"
"17727204","SEMP","1C - act as a crowd controller","Individual","2","3","Mathew  HICKS",,,,,,"2025-07-11T00:00:00.000","2021-06-07T00:00:00.000"
"17724678","SEMP","1B - act as a bodyguard","Individual","3","4","Arsene  FOKOU FOSSO",,,,,,"2025-07-11T00:00:00.000","2019-07-12T00:00:00.000"
"17724678","SEMP","1C - act as a crowd controller","Individual","2","4","Arsene  FOKOU FOSSO",,,,,,"2025-07-11T00:00:00.000","2019-07-12T00:00:00.000"
"17724678","SEMP","1E - act as a monitoring centre operator","Individual","4","4","Arsene  FOKOU FOSSO",,,,,,"2025-07-11T00:00:00.000","2019-07-12T00:00:00.000"
"17724678","SEMP","1A - patrol, guard, watch or protect property (including cash in transit)","Individual","1","4","Arsene  FOKOU FOSSO",,,,,,"2025-07-11T00:00:00.000","2019-07-12T00:00:00.000"
"17727204","SEMP","1A - patrol, guard, watch or protect property (including cash in transit)","Individual","1","3","Mathew  HICKS",,,,,,"2025-07-11T00:00:00.000","2021-06-07T00:00:00.000"
"17727204","SEMP","1E - act as a monitoring centre operator","Individual","3","3","Mathew  HICKS",,,,,,"2025-07-11T00:00:00.000","2021-06-07T00:00:00.000"
"17702798","SEMP","1A - patrol, guard, watch or protect property (including cash in transit)","Individual","1","2","Ross James NESTOR",,,,,,"2025-07-08T00:00:00.000","1999-07-09T00:00:00.000"
"17702798","SEMP","1C - act as a crowd controller","Individual","2","2","Ross James NESTOR",,,,,,"2025-07-08T00:00:00.000","1999-07-09T00:00:00.000"
"17720360","SEMP","1C - act as a crowd controller","Individual","2","2","Parkash Singh  CHAHAL",,,,,,"2025-07-07T00:00:00.000","2015-07-10T00:00:00.000"
"17720360","SEMP","1A - patrol, guard, watch or protect property (including cash in transit)","Individual","1","2","Parkash Singh  CHAHAL",,,,,,"2025-07-07T00:00:00.000","2015-07-10T00:00:00.000"
"20000438","MVD","Traders","Individual","1","1","Bassem  ALI","Bassem ALI","9 Connor Place","KAMBAH","ACT","2902","2025-07-06T00:00:00.000","2020-07-07T00:00:00.000"
"17707630","SEMP","2C - carry out surveys and inspections of security equipment","Individual","2","3","David Anthony EDDLESTON",,,,,,"2025-07-06T00:00:00.000","2003-09-03T00:00:00.000"
"17713159","SEMP","1C - act as a crowd controller","Individual","2","2","Wayne Raymond HAFNER",,,,,,"2025-07-06T00:00:00.000","2009-06-17T00:00:00.000"
"17724604","SEMP","1A - patrol, guard, watch or protect property (including cash in transit)","Individual","1","2","Mitchell Jay FRADGLEY",,,,,,"2025-07-06T00:00:00.000","2019-06-26T00:00:00.000"
"17728361","SEMP","1E - act as a monitoring centre operator","Individual","3","3","Erica Maria HARDING",,,,,,"2025-07-06T00:00:00.000",
"17707630","SEMP","2D - give advice about security equipment","Individual","3","3","David Anthony EDDLESTON",,,,,,"2025-07-06T00:00:00.000","2003-09-03T00:00:00.000"
"17723977","SEMP","1A - patrol, guard, watch or protect property (including cash in transit)","Individual","1","1","Yassin Mohammed Idris HAMD",,,,,,"2025-07-06T00:00:00.000","2019-01-04T00:00:00.000"
"17724604","SEMP","1C - act as a crowd controller","Individual","2","2","Mitchell Jay FRADGLEY",,,,,,"2025-07-06T00:00:00.000","2019-06-26T00:00:00.000"
"17501614","SMAS","Security Master","Company","1","1","FORCEFIELD SERVICES PTY LTD","Forcefield Services Pty Ltd","Unit 7, 1 Elouera Street","BRADDON","ACT","2612","2025-07-06T00:00:00.000","2005-06-23T00:00:00.000"
"17728361","SEMP","1A - patrol, guard, watch or protect property (including cash in transit)","Individual","1","3","Erica Maria HARDING",,,,,,"2025-07-06T00:00:00.000",
"17707630","SEMP","2A - acts as a security consultant","Individual","1","3","David Anthony EDDLESTON",,,,,,"2025-07-06T00:00:00.000","2003-09-03T00:00:00.000"
"17728361","SEMP","1C - act as a crowd controller","Individual","2","3","Erica Maria HARDING",,,,,,"2025-07-06T00:00:00.000",
"17713159","SEMP","1A - patrol, guard, watch or protect property (including cash in transit)","Individual","1","2","Wayne Raymond HAFNER",,,,,,"2025-07-06T00:00:00.000","2009-06-17T00:00:00.000"
"17501687","SMAS","Security Master","Company","1","1","MSS SECURITY PTY LIMITED","MSS Security","Building 1 169 Gladstone Street","FYSHWICK","ACT","2609","2025-07-06T00:00:00.000",
"17728357","SEMP","1C - act as a crowd controller","Individual","2","3","Farroukh Ahmed Sabri SYED",,,,,,"2025-07-05T00:00:00.000","2022-07-06T00:00:00.000"
"17723070","SEMP","1A - patrol, guard, watch or protect property (including cash in transit)","Individual","1","2","Yaser Iqbal PARACHA",,,,,,"2025-07-05T00:00:00.000","2018-04-06T00:00:00.000"
"17723070","SEMP","1C - act as a crowd controller","Individual","2","2","Yaser Iqbal PARACHA",,,,,,"2025-07-05T00:00:00.000","2018-04-06T00:00:00.000"
"17502537","SMAS","Security Master","Company","1","1","INDUSTRY RISK PTY LTD","Industry Risk Pty Ltd","Level 26 1 Bligh Street","SYDNEY","NSW","2000","2025-07-05T00:00:00.000","2018-06-22T00:00:00.000"
"17728354","SEMP","1A - patrol, guard, watch or protect property (including cash in transit)","Individual","1","2","Bilal  BABAR",,,,,,"2025-07-05T00:00:00.000","2022-07-06T00:00:00.000"
"17728354","SEMP","1C - act as a crowd controller","Individual","2","2","Bilal  BABAR",,,,,,"2025-07-05T00:00:00.000","2022-07-06T00:00:00.000"
"17728357","SEMP","1A - patrol, guard, watch or protect property (including cash in transit)","Individual","1","3","Farroukh Ahmed Sabri SYED",,,,,,"2025-07-05T00:00:00.000","2022-07-06T00:00:00.000"
"17728355","SEMP","2E - install, maintain, monitor, repair or service security equipment","Individual","2","2","Ilia  REINIA",,,,,,"2025-07-05T00:00:00.000","2022-07-06T00:00:00.000"
"17728355","SEMP","2B - sell security equipment","Individual","1","2","Ilia  REINIA",,,,,,"2025-07-05T00:00:00.000","2022-07-06T00:00:00.000"
"17728357","SEMP","1E - act as a monitoring centre operator","Individual","3","3","Farroukh Ahmed Sabri SYED",,,,,,"2025-07-05T00:00:00.000","2022-07-06T00:00:00.000"
"17721055","SEMP","2E - install, maintain, monitor, repair or service security equipment","Individual","1","1","Benjamin Waiter Ashley O'CONNELL",,,,,,"2025-07-04T00:00:00.000","2016-06-02T00:00:00.000"
"17713023","SEMP","1A - patrol, guard, watch or protect property (including cash in transit)","Individual","1","1","Steven Gordon BURRIDGE",,,,,,"2025-07-04T00:00:00.000",
"17716409","SEMP","1A - patrol, guard, watch or protect property (including cash in transit)","Individual","1","2","Dejan  TUCO",,,,,,"2025-07-04T00:00:00.000","2011-06-27T00:00:00.000"
"17723168","SEMP","1A - patrol, guard, watch or protect property (including cash in transit)","Individual","1","1","Daniel James WILLIAMS",,,,,,"2025-07-04T00:00:00.000","2018-04-27T00:00:00.000"
"17723405","SEMP","1A - patrol, guard, watch or protect property (including cash in transit)","Individual","1","1","Borce  STEVANOSKI",,,,,,"2025-07-04T00:00:00.000","2018-07-05T00:00:00.000"
"17716409","SEMP","1C - act as a crowd controller","Individual","2","2","Dejan  TUCO",,,,,,"2025-07-04T00:00:00.000","2011-06-27T00:00:00.000"
"17718554","SEMP","1A - patrol, guard, watch or protect property (including cash in transit)","Individual","1","2","Peter John CORBETT",,,,,,"2025-07-03T00:00:00.000","2013-07-04T00:00:00.000"
"17718554","SEMP","1C - act as a crowd controller","Individual","2","2","Peter John CORBETT",,,,,,"2025-07-03T00:00:00.000","2013-07-04T00:00:00.000"
"17716444","SEMP","1A - patrol, guard, watch or protect property (including cash in transit)","Individual","1","1","Robert James BEVERLEY",,,,,,"2025-07-03T00:00:00.000","2011-07-05T00:00:00.000"
"17723400","SEMP","1C - act as a crowd controller","Individual","2","2","Christopher Peter  EDWARDS",,,,,,"2025-07-03T00:00:00.000","2018-07-04T00:00:00.000"
"17723400","SEMP","1A - patrol, guard, watch or protect property (including cash in transit)","Individual","1","2","Christopher Peter  EDWARDS",,,,,,"2025-07-03T00:00:00.000","2018-07-04T00:00:00.000"
"17706080","SEMP","1A - patrol, guard, watch or protect property (including cash in transit)","Individual","1","2","John Lewis HILLIER",,,,,,"2025-07-01T00:00:00.000","2002-07-02T00:00:00.000"
"17706080","SEMP","1C - act as a crowd controller","Individual","2","2","John Lewis HILLIER",,,,,,"2025-07-01T00:00:00.000","2002-07-02T00:00:00.000"
"17720345","SEMP","1C - act as a crowd controller","Individual","2","3","Stephen  TUFF",,,,,,"2025-06-30T00:00:00.000","2015-07-02T00:00:00.000"
"18403399","RA","Licensed Real Estate Agents","Individual","1","1","Megan Louise VAN ARKEL","Megan Louise van Arkel",,,"ACT","2617","2025-06-30T00:00:00.000",
"20000427","SHD","Traders","Company","3","6","NEW SOUTH WALES (NSW) CASHIES PTY LTD","Cash Converters Belconnen, Cash Converters Tuggeranong, Cash Converters Woden","Shop 2, Bonner Court 7 Neptune Street","PHILLIP","ACT","2606","2025-06-30T00:00:00.000","2020-07-01T00:00:00.000"
"17720345","SEMP","1A - patrol, guard, watch or protect property (including cash in transit)","Individual","1","3","Stephen  TUFF",,,,,,"2025-06-30T00:00:00.000","2015-07-02T00:00:00.000"
"20000340","SHD","Traders","Individual","1","1","Belinda Marie REYNOLDS","Metal Mart","53 Collie Street","FYSHWICK","ACT","2609","2025-06-30T00:00:00.000","2020-07-01T00:00:00.000"
"18901288","EA","Licensed Employment Agent","Individual","1","1","Nathan Allan DELBRIDGE","Nathan Allan DELBRIDGE","Level 3, 20 Bradley Street","PHILLIP","ACT","2606","2025-06-30T00:00:00.000","2022-07-27T00:00:00.000"
"20000427","SHD","Traders","Company","1","6","NEW SOUTH WALES (NSW) CASHIES PTY LTD","Cash Converters Belconnen, Cash Converters Tuggeranong, Cash Converters Woden","3/6 Weedon Close","BELCONNEN","ACT","2617","2025-06-30T00:00:00.000","2020-07-01T00:00:00.000"
"20000428","SHD","Traders","Individual","1","1","Christine Cheryl LUND","Down Memory Lane","34 Geelong Street","FYSHWICK","ACT","2609","2025-06-30T00:00:00.000","2020-07-01T00:00:00.000"
"20000421","SHD","Traders","Company","1","6","ALEGRE PTY LTD","Alegre Pty Ltd","Shop 128 Tuggeranong Hyperdone 13 Anketell Street","TUGGERANONG","ACT","2900","2025-06-30T00:00:00.000","2020-07-01T00:00:00.000"
"18402514","RA","Licensed Real Estate Agents","Company","1","1","A.C.T. SMS PTY LTD","A.C.T. SMS Pty Ltd","Unit 43, 2 King Street","DEAKIN","ACT","2600","2025-06-30T00:00:00.000","2019-09-06T00:00:00.000"
"18403497","RA","Licensed Real Estate Agents","Individual","1","1","Molly  UELESE","Molly Uelese",,,"ACT","2617","2025-06-30T00:00:00.000",
"20000417","SHD","Traders","Company","1","1","WILLTURN PTY LTD","Gametraders Hyperdome ACT","Shop 169 Tuggeranong Hyperdome Anketell Street","TUGGERANONG","ACT","2900","2025-06-30T00:00:00.000","2020-07-01T00:00:00.000"
"18402531","RA","Licensed Real Estate Agents","Company","1","1","RELIANCE ESTATE AGENTS PTY LTD","Reliance Residential","130/77 Gozzard Street","GUNGAHLIN","ACT","2912","2025-06-30T00:00:00.000","2019-10-15T00:00:00.000"
"20000427","P","Traders","Company","6","6","NEW SOUTH WALES (NSW) CASHIES PTY LTD","Cash Converters Belconnen, Cash Converters Tuggeranong, Cash Converters Woden","Shop 32B, The Homeworld Centre","GREENWAY","ACT","2900","2025-06-30T00:00:00.000","2020-07-01T00:00:00.000"
"17720345","SEMP","1E - act as a monitoring centre operator","Individual","3","3","Stephen  TUFF",,,,,,"2025-06-30T00:00:00.000","2015-07-02T00:00:00.000"
"20000427","P","Traders","Company","4","6","NEW SOUTH WALES (NSW) CASHIES PTY LTD","Cash Converters Belconnen, Cash Converters Tuggeranong, Cash Converters Woden","Shop 2, Bonner Court 7 Neptune Street","PHILLIP","ACT","2606","2025-06-30T00:00:00.000","2020-07-01T00:00:00.000"
"20000421","SHD","Traders","Company","2","6","ALEGRE PTY LTD","Alegre Pty Ltd","Shop 8 Gungahlin Marketplace 46-50 Hibberson Street","GUNGAHLIN","ACT","2912","2025-06-30T00:00:00.000","2020-07-01T00:00:00.000"
"18402499","RA","Licensed Real Estate Agents","Individual","1","1","Matthew Benjamin AMBER","Matthew Benjamin AMBER",,,"ACT","2600","2025-06-30T00:00:00.000","2019-08-06T00:00:00.000"
"20000426","SHD","Traders","Company","1","1","Fyshwick Superstore Pty Limited","Superstore Fyshwick","Cnr Ipswich Street & Barrier Street","FYSHWICK","ACT","2609","2025-06-30T00:00:00.000","2020-07-01T00:00:00.000"
"20000427","P","Traders","Company","2","6","NEW SOUTH WALES (NSW) CASHIES PTY LTD","Cash Converters Belconnen, Cash Converters Tuggeranong, Cash Converters Woden","3/6 Weedon Close","BELCONNEN","ACT","2617","2025-06-30T00:00:00.000","2020-07-01T00:00:00.000"
"18403421","RA","Licensed Real Estate Agents","Individual","1","1","Therese Ann MCCANN","Therese Ann McCann",,,"ACT","2602","2025-06-30T00:00:00.000",
"20000421","SHD","Traders","Company","5","6","ALEGRE PTY LTD","Alegre Pty Ltd","Shop 12A Canberra Centre, Bunda Street","CANBERRA","ACT","2601","2025-06-30T00:00:00.000","2020-07-01T00:00:00.000"
"20000424","SHD","Traders","Individual","1","1","Charles Ainsley SELKIRK","ACT Seasonal Antique Fairs, Selkirk Antiques & Restoration","29 Summerland Circuit","KAMBAH","ACT","2902","2025-06-30T00:00:00.000","2020-07-01T00:00:00.000"
"20000430","SHD","Traders","Company","1","2","PICKLES AUCTIONS PTY LTD","Pickles Auctions Pty Ltd","179 Gladstone Street","FYSHWICK","ACT","2609","2025-06-30T00:00:00.000","2020-07-01T00:00:00.000"
"20000421","SHD","Traders","Company","6","6","ALEGRE PTY LTD","Alegre Pty Ltd","Shop L59 Westfield Shopping Centre Keltie Street","WODEN","ACT","2606","2025-06-30T00:00:00.000","2020-07-01T00:00:00.000"
"19001152","CC","Charitable Collections","Individual","1","1","John Leo SMITH",,,,,,"2025-06-30T00:00:00.000","2021-04-15T00:00:00.000"
"18403505","RA","Licensed Real Estate Agents","Individual","1","1","Tanja Maarit HUOVINEN","Tanja Maarit HUOVINEN",,,"ACT","2615","2025-06-30T00:00:00.000",
"20000421","SHD","Traders","Company","3","6","ALEGRE PTY LTD","Alegre Pty Ltd","Shop 73 Westfield Shopping Centre Benjamin Way","BELCONNEN","ACT","2617","2025-06-30T00:00:00.000","2020-07-01T00:00:00.000"
"20000421","SHD","Traders","Company","4","6","ALEGRE PTY LTD","Alegre Pty Ltd","51 Wollongong Street","FYSHWICK","ACT","2609","2025-06-30T00:00:00.000","2020-07-01T00:00:00.000"
"18901096","EA","Licensed Employment Agent","Company","1","1","CCENTRIC INTERNATIONAL PTY LTD","CCENTRIC INTERNATIONAL PTY LTD","67-77 Flinders Street","SURRY HILLS","NSW","2010","2025-06-30T00:00:00.000","2019-04-30T00:00:00.000"
"20000430","MVD","Traders","Company","2","2","PICKLES AUCTIONS PTY LTD","Pickles Auctions Pty Ltd","179 Gladstone Street","FYSHWICK","ACT","2609","2025-06-30T00:00:00.000","2020-07-01T00:00:00.000"
"20000419","SHD","Traders","Individual","1","1","Brendan John LEPSCHI","Jet Age Design","5/37 Townsville Street","FYSHWICK","ACT","2609","2025-06-30T00:00:00.000","2020-07-01T00:00:00.000"
"17721004","SEMP","1C - act as a crowd controller","Individual","2","2","Jesse Alan NILON",,,,,,"2025-06-30T00:00:00.000","2016-05-05T00:00:00.000"
"18402517","RA","Licensed Real Estate Agents","Individual","1","1","Shelly  GUPTA","Shelly GUPTA",,,"ACT","2912","2025-06-30T00:00:00.000","2019-09-09T00:00:00.000"
"20000427","SHD","Traders","Company","5","6","NEW SOUTH WALES (NSW) CASHIES PTY LTD","Cash Converters Belconnen, Cash Converters Tuggeranong, Cash Converters Woden","Shop 32B, The Homeworld Centre","GREENWAY","ACT","2900","2025-06-30T00:00:00.000","2020-07-01T00:00:00.000"
"17721004","SEMP","1A - patrol, guard, watch or protect property (including cash in transit)","Individual","1","2","Jesse Alan NILON",,,,,,"2025-06-30T00:00:00.000","2016-05-05T00:00:00.000"
"17716432","SEMP","2A - acts as a security consultant","Individual","1","1","Linda Suryani JUSPANDI",,,,,,"2025-06-29T00:00:00.000",
"17724615","SEMP","1C - act as a crowd controller","Individual","2","3","Barry John  MCHUGH",,,,,,"2025-06-29T00:00:00.000","2019-06-30T00:00:00.000"
"17724615","SEMP","1E - act as a monitoring centre operator","Individual","3","3","Barry John  MCHUGH",,,,,,"2025-06-29T00:00:00.000","2019-06-30T00:00:00.000"
"17724615","SEMP","1A - patrol, guard, watch or protect property (including cash in transit)","Individual","1","3","Barry John  MCHUGH",,,,,,"2025-06-29T00:00:00.000","2019-06-30T00:00:00.000"
"17721104","SEMP","1A - patrol, guard, watch or protect property (including cash in transit)","Individual","1","3","Seth Andrew BOXX",,,,,,"2025-06-28T00:00:00.000","2016-06-29T00:00:00.000"
"17502112","SMAS","Security Master","Company","1","1","CUSTOM DESIGNED SOLUTIONS PTY LIMITED","CDS Security","12 Lucknow Street","WILLOUGHBY","NSW","2068","2025-06-28T00:00:00.000","2012-05-31T00:00:00.000"
"17727277","SEMP","1C - act as a crowd controller","Individual","1","2","Danish  GROVER",,,,,,"2025-06-28T00:00:00.000","2021-06-29T00:00:00.000"
"17701528","SEMP","1A - patrol, guard, watch or protect property (including cash in transit)","Individual","1","1","Frank  PERKOVIC",,,,,,"2025-06-28T00:00:00.000","1998-06-30T00:00:00.000"
"17721104","SEMP","1FC - guard with a firearm for cash in transit","Individual","2","3","Seth Andrew BOXX",,,,,,"2025-06-28T00:00:00.000","2016-06-29T00:00:00.000"
"20000425","MVR","Traders","Company","1","1","CVWCT PTY LTD","Canberra VW Centre Tuggeranong","Unit 7 352 Cnr Reed Street South & Scollay Street","GREENWAY","ACT","2900","2025-06-28T00:00:00.000","2020-06-29T00:00:00.000"
"17721104","SEMP","1FP - guard with a firearm for protecting property","Individual","3","3","Seth Andrew BOXX",,,,,,"2025-06-28T00:00:00.000","2016-06-29T00:00:00.000"
"20000434","MVR","Traders","Company","1","1","JRN PTY LTD","Macgregor Auto Service","103 Osburn Drive","MACGREGOR","ACT","2615","2025-06-28T00:00:00.000","2020-06-29T00:00:00.000"
"17727277","SEMP","1A - patrol, guard, watch or protect property (including cash in transit)","Individual","2","2","Danish  GROVER",,,,,,"2025-06-28T00:00:00.000","2021-06-29T00:00:00.000"
"17728332","SEMP","2D - give advice about security equipment","Individual","2","3","Harjit Sam SINGH",,,,,,"2025-06-27T00:00:00.000","2022-04-20T00:00:00.000"
"17800194","STRN","2B - sell security equipment","Individual","4","5","Richard Edward MYERS",,,,,,"2025-06-27T00:00:00.000","2021-04-16T00:00:00.000"
"17728339","SEMP","2B - sell security equipment","Individual","1","3","Ryan Edward VACCARO",,,,,,"2025-06-27T00:00:00.000","2022-06-28T00:00:00.000"
"17728332","SEMP","2B - sell security equipment","Individual","1","3","Harjit Sam SINGH",,,,,,"2025-06-27T00:00:00.000","2022-04-20T00:00:00.000"
"17501010","SMAS","Security Master","Company","1","1","PROSEGUR AUSTRALIA PTY LIMITED","PROSEGUR AUSTRALIA PTY LIMITED","65 Epping Rd","MACQUARIE PARK","NSW","2113","2025-06-27T00:00:00.000","1998-06-16T00:00:00.000"
"17728332","SEMP","2E - install, maintain, monitor, repair or service security equipment","Individual","3","3","Harjit Sam SINGH",,,,,,"2025-06-27T00:00:00.000","2022-04-20T00:00:00.000"
"17800194","STRN","2A - acts as a security consultant","Individual","3","5","Richard Edward MYERS",,,,,,"2025-06-27T00:00:00.000","2021-04-16T00:00:00.000"
"17728339","SEMP","2E - install, maintain, monitor, repair or service security equipment","Individual","3","3","Ryan Edward VACCARO",,,,,,"2025-06-27T00:00:00.000","2022-06-28T00:00:00.000"
"17800194","STRN","2D - give advice about security equipment","Individual","1","5","Richard Edward MYERS",,,,,,"2025-06-27T00:00:00.000","2021-04-16T00:00:00.000"
"17800194","STRN","2E - install, maintain, monitor, repair or service security equipment","Individual","2","5","Richard Edward MYERS",,,,,,"2025-06-27T00:00:00.000","2021-04-16T00:00:00.000"
"17728339","SEMP","2D - give advice about security equipment","Individual","2","3","Ryan Edward VACCARO",,,,,,"2025-06-27T00:00:00.000","2022-06-28T00:00:00.000"
"17800194","STRN","2C - carry out surveys and inspections of security equipment","Individual","5","5","Richard Edward MYERS",,,,,,"2025-06-27T00:00:00.000","2021-04-16T00:00:00.000"
"17800132","STRN","1FC - guard with a firearm for cash in transit","Individual","2","2","Shaun Patrick CAREY",,,,,,"2025-06-26T00:00:00.000","2013-05-15T00:00:00.000"
"17718422","SEMP","2A - acts as a security consultant","Individual","3","3","Shaun Patrick CAREY",,,,,,"2025-06-26T00:00:00.000","2013-04-24T00:00:00.000"
"17724609","SEMP","2E - install, maintain, monitor, repair or service security equipment","Individual","1","1","Brendan  Lago",,,,,,"2025-06-26T00:00:00.000","2019-06-27T00:00:00.000"
"17724608","SEMP","1A - patrol, guard, watch or protect property (including cash in transit)","Individual","1","2","Rajinder  KUMAR",,,,,,"2025-06-26T00:00:00.000","2019-06-27T00:00:00.000"
"17724608","SEMP","1C - act as a crowd controller","Individual","2","2","Rajinder  KUMAR",,,,,,"2025-06-26T00:00:00.000","2019-06-27T00:00:00.000"
"17800132","STRN","1A - patrol, guard, watch or protect property (including cash in transit)","Individual","1","2","Shaun Patrick CAREY",,,,,,"2025-06-26T00:00:00.000","2013-05-15T00:00:00.000"
"17718422","SEMP","1FC - guard with a firearm for cash in transit","Individual","2","3","Shaun Patrick CAREY",,,,,,"2025-06-26T00:00:00.000","2013-04-24T00:00:00.000"
"17718422","SEMP","1A - patrol, guard, watch or protect property (including cash in transit)","Individual","1","3","Shaun Patrick CAREY",,,,,,"2025-06-26T00:00:00.000","2013-04-24T00:00:00.000"
"17728333","SEMP","2E - install, maintain, monitor, repair or service security equipment","Individual","1","1","Joshua Scott MACKELL",,,,,,"2025-06-26T00:00:00.000","2022-06-27T00:00:00.000"
"19001147","CC","Charitable Collections","Company","1","1","VARIETY AUSTRALIA LTD",,,,,,"2025-06-25T00:00:00.000","2020-06-26T00:00:00.000"
"17706061","SEMP","1A - patrol, guard, watch or protect property (including cash in transit)","Individual","1","1","Nebojsa  JOVIC",,,,,,"2025-06-24T00:00:00.000","2002-06-25T00:00:00.000"
"17723360","SEMP","1C - act as a crowd controller","Individual","2","2","Kelly Anne LEWIS",,,,,,"2025-06-24T00:00:00.000","2018-06-25T00:00:00.000"
"17723360","SEMP","1A - patrol, guard, watch or protect property (including cash in transit)","Individual","1","2","Kelly Anne LEWIS",,,,,,"2025-06-24T00:00:00.000","2018-06-25T00:00:00.000"
"17727266","SEMP","1A - patrol, guard, watch or protect property (including cash in transit)","Individual","1","2","Mujtaba Raza KHAN",,,,,,"2025-06-24T00:00:00.000","2021-06-25T00:00:00.000"
"17701413","SEMP","1A - patrol, guard, watch or protect property (including cash in transit)","Individual","1","1","Paul Kim PERESAN",,,,,,"2025-06-24T00:00:00.000","1998-06-25T00:00:00.000"
"17727266","SEMP","1C - act as a crowd controller","Individual","2","2","Mujtaba Raza KHAN",,,,,,"2025-06-24T00:00:00.000","2021-06-25T00:00:00.000"
"17723362","SEMP","1C - act as a crowd controller","Individual","2","2","Kirrilly Suzanne ALLISON-ALSOP",,,,,,"2025-06-24T00:00:00.000","2018-06-25T00:00:00.000"
"17723362","SEMP","1A - patrol, guard, watch or protect property (including cash in transit)","Individual","1","2","Kirrilly Suzanne ALLISON-ALSOP",,,,,,"2025-06-24T00:00:00.000","2018-06-25T00:00:00.000"
"17728324","SEMP","1A - patrol, guard, watch or protect property (including cash in transit)","Individual","1","2","Jagjeet Singh MAND",,,,,,"2025-06-23T00:00:00.000","2022-06-24T00:00:00.000"
"17716408","SEMP","1A - patrol, guard, watch or protect property (including cash in transit)","Individual","1","2","Luke John COLEMAN",,,,,,"2025-06-23T00:00:00.000","2011-06-24T00:00:00.000"
"17716403","SEMP","1A - patrol, guard, watch or protect property (including cash in transit)","Individual","1","2","Carl Francis TALLAR",,,,,,"2025-06-23T00:00:00.000","2011-06-24T00:00:00.000"
"17728324","SEMP","1C - act as a crowd controller","Individual","2","2","Jagjeet Singh MAND",,,,,,"2025-06-23T00:00:00.000","2022-06-24T00:00:00.000"
"17716403","SEMP","1C - act as a crowd controller","Individual","2","2","Carl Francis TALLAR",,,,,,"2025-06-23T00:00:00.000","2011-06-24T00:00:00.000"
"17716408","SEMP","1C - act as a crowd controller","Individual","2","2","Luke John COLEMAN",,,,,,"2025-06-23T00:00:00.000","2011-06-24T00:00:00.000"
"17727246","SEMP","1C - act as a crowd controller","Individual","2","3","Sunil  MAINALI",,,,,,"2025-06-22T00:00:00.000","2021-06-23T00:00:00.000"
"17701333","SEMP","1A - patrol, guard, watch or protect property (including cash in transit)","Individual","1","2","Mary Leonie MCCALLUM",,,,,,"2025-06-22T00:00:00.000","1998-06-23T00:00:00.000"
"17719440","SEMP","1C - act as a crowd controller","Individual","2","2","Aleksandar  STOJANOV",,,,,,"2025-06-22T00:00:00.000","2014-05-20T00:00:00.000"
"17716396","SEMP","1C - act as a crowd controller","Individual","2","4","Josip  NIKOLOSKI",,,,,,"2025-06-22T00:00:00.000","2011-06-23T00:00:00.000"
"17707678","SEMP","2C - carry out surveys and inspections of security equipment","Individual","2","4","Arthur  PENTES",,,,,,"2025-06-22T00:00:00.000","2003-08-26T00:00:00.000"
"17707678","SEMP","2E - install, maintain, monitor, repair or service security equipment","Individual","4","4","Arthur  PENTES",,,,,,"2025-06-22T00:00:00.000","2003-08-26T00:00:00.000"
"17727246","SEMP","1E - act as a monitoring centre operator","Individual","3","3","Sunil  MAINALI",,,,,,"2025-06-22T00:00:00.000","2021-06-23T00:00:00.000"
"17707678","SEMP","2B - sell security equipment","Individual","1","4","Arthur  PENTES",,,,,,"2025-06-22T00:00:00.000","2003-08-26T00:00:00.000"
"17716396","SEMP","1E - act as a monitoring centre operator","Individual","3","4","Josip  NIKOLOSKI",,,,,,"2025-06-22T00:00:00.000","2011-06-23T00:00:00.000"
"17727245","SEMP","1A - patrol, guard, watch or protect property (including cash in transit)","Individual","1","3","Abdul Mateen  MOHAMMED",,,,,,"2025-06-22T00:00:00.000","2021-06-23T00:00:00.000"
"17707678","SEMP","2D - give advice about security equipment","Individual","3","4","Arthur  PENTES",,,,,,"2025-06-22T00:00:00.000","2003-08-26T00:00:00.000"
"17727246","SEMP","1A - patrol, guard, watch or protect property (including cash in transit)","Individual","1","3","Sunil  MAINALI",,,,,,"2025-06-22T00:00:00.000","2021-06-23T00:00:00.000"
"17719440","SEMP","1A - patrol, guard, watch or protect property (including cash in transit)","Individual","1","2","Aleksandar  STOJANOV",,,,,,"2025-06-22T00:00:00.000","2014-05-20T00:00:00.000"
"17727245","SEMP","1C - act as a crowd controller","Individual","2","3","Abdul Mateen  MOHAMMED",,,,,,"2025-06-22T00:00:00.000","2021-06-23T00:00:00.000"
"17727245","SEMP","1E - act as a monitoring centre operator","Individual","3","3","Abdul Mateen  MOHAMMED",,,,,,"2025-06-22T00:00:00.000","2021-06-23T00:00:00.000"
"17716396","SEMP","1A - patrol, guard, watch or protect property (including cash in transit)","Individual","4","4","Josip  NIKOLOSKI",,,,,,"2025-06-22T00:00:00.000","2011-06-23T00:00:00.000"
"17701333","SEMP","1C - act as a crowd controller","Individual","2","2","Mary Leonie MCCALLUM",,,,,,"2025-06-22T00:00:00.000","1998-06-23T00:00:00.000"
"17716396","SEMP","1B - act as a bodyguard","Individual","1","4","Josip  NIKOLOSKI",,,,,,"2025-06-22T00:00:00.000","2011-06-23T00:00:00.000"
"17721092","SEMP","1D - guard with a dog","Individual","3","3","Tiernan  MOORE",,,,,,"2025-06-21T00:00:00.000","2016-06-22T00:00:00.000"
"17727236","SEMP","1C - act as a crowd controller","Individual","2","3","Mohammed  Ilyas Uddin",,,,,,"2025-06-21T00:00:00.000","2021-06-22T00:00:00.000"
"17727236","SEMP","1A - patrol, guard, watch or protect property (including cash in transit)","Individual","1","3","Mohammed  Ilyas Uddin",,,,,,"2025-06-21T00:00:00.000","2021-06-22T00:00:00.000"
"17721092","SEMP","1A - patrol, guard, watch or protect property (including cash in transit)","Individual","1","3","Tiernan  MOORE",,,,,,"2025-06-21T00:00:00.000","2016-06-22T00:00:00.000"
"17721092","SEMP","1C - act as a crowd controller","Individual","2","3","Tiernan  MOORE",,,,,,"2025-06-21T00:00:00.000","2016-06-22T00:00:00.000"
"17717480","SEMP","2E - install, maintain, monitor, repair or service security equipment","Individual","1","1","Mark Bruce TAYLOR",,,,,,"2025-06-21T00:00:00.000","2012-05-31T00:00:00.000"
"17728309","SEMP","2A - acts as a security consultant","Individual","1","1","Emma Jane ERIKSEN",,,,,,"2025-06-21T00:00:00.000","2022-06-22T00:00:00.000"
"17727236","SEMP","1E - act as a monitoring centre operator","Individual","3","3","Mohammed  Ilyas Uddin",,,,,,"2025-06-21T00:00:00.000","2021-06-22T00:00:00.000"
"17718521","SEMP","1A - patrol, guard, watch or protect property (including cash in transit)","Individual","1","6","Karen Ann CASSELL",,,,,,"2025-06-20T00:00:00.000","2013-06-21T00:00:00.000"
"17718521","SEMP","1C - act as a crowd controller","Individual","2","6","Karen Ann CASSELL",,,,,,"2025-06-20T00:00:00.000","2013-06-21T00:00:00.000"
"17728305","SEMP","1C - act as a crowd controller","Individual","2","3","Thomas Jose GALVIN",,,,,,"2025-06-20T00:00:00.000","2022-06-21T00:00:00.000"
"17728305","SEMP","1A - patrol, guard, watch or protect property (including cash in transit)","Individual","1","3","Thomas Jose GALVIN",,,,,,"2025-06-20T00:00:00.000","2022-06-21T00:00:00.000"
"17718521","SEMP","2C - carry out surveys and inspections of security equipment","Individual","4","6","Karen Ann CASSELL",,,,,,"2025-06-20T00:00:00.000","2013-06-21T00:00:00.000"
"17728305","SEMP","1E - act as a monitoring centre operator","Individual","3","3","Thomas Jose GALVIN",,,,,,"2025-06-20T00:00:00.000","2022-06-21T00:00:00.000"
"17718521","SEMP","2D - give advice about security equipment","Individual","5","6","Karen Ann CASSELL",,,,,,"2025-06-20T00:00:00.000","2013-06-21T00:00:00.000"
"17718521","SEMP","2B - sell security equipment","Individual","3","6","Karen Ann CASSELL",,,,,,"2025-06-20T00:00:00.000","2013-06-21T00:00:00.000"
"17718521","SEMP","2E - install, maintain, monitor, repair or service security equipment","Individual","6","6","Karen Ann CASSELL",,,,,,"2025-06-20T00:00:00.000","2013-06-21T00:00:00.000"
"17721086","SEMP","2B - sell security equipment","Individual","1","4","John  DIMITRIOU",,,,,,"2025-06-19T00:00:00.000","2016-06-20T00:00:00.000"
"17728297","SEMP","2B - sell security equipment","Individual","1","3","Henry James DEN",,,,,,"2025-06-19T00:00:00.000","2022-06-20T00:00:00.000"
"17715163","SEMP","2E - install, maintain, monitor, repair or service security equipment","Individual","3","3","MARK  RISBY",,,,,,"2025-06-19T00:00:00.000","2010-06-21T00:00:00.000"
"17728296","SEMP","2D - give advice about security equipment","Individual","3","3","Mitchell William BUCHOLTZ",,,,,,"2025-06-19T00:00:00.000","2022-06-20T00:00:00.000"
"17715163","SEMP","2C - carry out surveys and inspections of security equipment","Individual","1","3","MARK  RISBY",,,,,,"2025-06-19T00:00:00.000","2010-06-21T00:00:00.000"
"17728296","SEMP","2E - install, maintain, monitor, repair or service security equipment","Individual","1","3","Mitchell William BUCHOLTZ",,,,,,"2025-06-19T00:00:00.000","2022-06-20T00:00:00.000"
"17715163","SEMP","2D - give advice about security equipment","Individual","2","3","MARK  RISBY",,,,,,"2025-06-19T00:00:00.000","2010-06-21T00:00:00.000"
"17721086","SEMP","2D - give advice about security equipment","Individual","4","4","John  DIMITRIOU",,,,,,"2025-06-19T00:00:00.000","2016-06-20T00:00:00.000"
"17728296","SEMP","2B - sell security equipment","Individual","2","3","Mitchell William BUCHOLTZ",,,,,,"2025-06-19T00:00:00.000","2022-06-20T00:00:00.000"
"17728297","SEMP","2D - give advice about security equipment","Individual","3","3","Henry James DEN",,,,,,"2025-06-19T00:00:00.000","2022-06-20T00:00:00.000"
"17713150","SEMP","1A - patrol, guard, watch or protect property (including cash in transit)","Individual","1","1","Neil Francome JONES",,,,,,"2025-06-19T00:00:00.000","2009-06-16T00:00:00.000"
"17717529","SEMP","1A - patrol, guard, watch or protect property (including cash in transit)","Individual","1","1","Damien John RICHTER",,,,,,"2025-06-19T00:00:00.000","2012-06-20T00:00:00.000"
"17721086","SEMP","2E - install, maintain, monitor, repair or service security equipment","Individual","2","4","John  DIMITRIOU",,,,,,"2025-06-19T00:00:00.000","2016-06-20T00:00:00.000"
"17721086","SEMP","2C - carry out surveys and inspections of security equipment","Individual","3","4","John  DIMITRIOU",,,,,,"2025-06-19T00:00:00.000","2016-06-20T00:00:00.000"
"17728297","SEMP","2E - install, maintain, monitor, repair or service security equipment","Individual","2","3","Henry James DEN",,,,,,"2025-06-19T00:00:00.000","2022-06-20T00:00:00.000"
"17723351","SEMP","1C - act as a crowd controller","Individual","3","3","Steven  PAPADOPOULOS",,,,,,"2025-06-17T00:00:00.000","2018-06-19T00:00:00.000"
"17723351","SEMP","1A - patrol, guard, watch or protect property (including cash in transit)","Individual","2","3","Steven  PAPADOPOULOS",,,,,,"2025-06-17T00:00:00.000","2018-06-19T00:00:00.000"
"17723351","SEMP","1E - act as a monitoring centre operator","Individual","1","3","Steven  PAPADOPOULOS",,,,,,"2025-06-17T00:00:00.000","2018-06-19T00:00:00.000"
"17709935","SEMP","1A - patrol, guard, watch or protect property (including cash in transit)","Individual","1","1","Robert  SETNICAR",,,,,,"2025-06-17T00:00:00.000","2006-06-20T00:00:00.000"
"17701268","SEMP","1A - patrol, guard, watch or protect property (including cash in transit)","Individual","1","1","David Joseph GOUGH",,,,,,"2025-06-16T00:00:00.000","1998-06-17T00:00:00.000"
"17712851","SEMP","1C - act as a crowd controller","Individual","2","2","Sumeet  MALIK",,,,,,"2025-06-15T00:00:00.000","2009-04-03T00:00:00.000"
"17728286","SEMP","1C - act as a crowd controller","Individual","2","2","Yannick Emmanuel GOPEE",,,,,,"2025-06-15T00:00:00.000","2022-06-16T00:00:00.000"
"17712851","SEMP","1A - patrol, guard, watch or protect property (including cash in transit)","Individual","1","2","Sumeet  MALIK",,,,,,"2025-06-15T00:00:00.000","2009-04-03T00:00:00.000"
"17728286","SEMP","1A - patrol, guard, watch or protect property (including cash in transit)","Individual","1","2","Yannick Emmanuel GOPEE",,,,,,"2025-06-15T00:00:00.000","2022-06-16T00:00:00.000"
"17722044","SEMP","1A - patrol, guard, watch or protect property (including cash in transit)","Individual","1","1","Muhammad Ali ARIF",,,,,,"2025-06-14T00:00:00.000","2017-05-31T00:00:00.000"
"17701062","SEMP","1A - patrol, guard, watch or protect property (including cash in transit)","Individual","1","2","Mark Anthony POWER",,,,,,"2025-06-14T00:00:00.000","1998-05-27T00:00:00.000"
"17705929","SEMP","1FC - guard with a firearm for cash in transit","Individual","4","5","David Grimshaw CHEATHAM",,,,,,"2025-06-14T00:00:00.000","2002-05-14T00:00:00.000"
"17723164","SEMP","1C - act as a crowd controller","Individual","2","2","Narendar Kumar DINANI",,,,,,"2025-06-14T00:00:00.000","2018-04-27T00:00:00.000"
"17721071","SEMP","2C - carry out surveys and inspections of security equipment","Individual","4","4","Rhys Anthony RYAN",,,,,,"2025-06-14T00:00:00.000",
"17725923","SEMP","1A - patrol, guard, watch or protect property (including cash in transit)","Individual","1","2","Zohaib  BILAL",,,,,,"2025-06-14T00:00:00.000","2020-05-06T00:00:00.000"
"17721071","SEMP","2E - install, maintain, monitor, repair or service security equipment","Individual","2","4","Rhys Anthony RYAN",,,,,,"2025-06-14T00:00:00.000",
"17705929","SEMP","2A - acts as a security consultant","Individual","5","5","David Grimshaw CHEATHAM",,,,,,"2025-06-14T00:00:00.000","2002-05-14T00:00:00.000"
"17705929","SEMP","1C - act as a crowd controller","Individual","3","5","David Grimshaw CHEATHAM",,,,,,"2025-06-14T00:00:00.000","2002-05-14T00:00:00.000"
"17705929","SEMP","1A - patrol, guard, watch or protect property (including cash in transit)","Individual","1","5","David Grimshaw CHEATHAM",,,,,,"2025-06-14T00:00:00.000","2002-05-14T00:00:00.000"
"17721079","SEMP","1C - act as a crowd controller","Individual","2","2","Daniel Joseph SEEARS",,,,,,"2025-06-14T00:00:00.000","2016-06-17T00:00:00.000"
"17728282","SEMP","2B - sell security equipment","Individual","2","4","Shane Vincent CALVI",,,,,,"2025-06-14T00:00:00.000","2022-06-15T00:00:00.000"
"17723164","SEMP","1A - patrol, guard, watch or protect property (including cash in transit)","Individual","1","2","Narendar Kumar DINANI",,,,,,"2025-06-14T00:00:00.000","2018-04-27T00:00:00.000"
"17705929","SEMP","1B - act as a bodyguard","Individual","2","5","David Grimshaw CHEATHAM",,,,,,"2025-06-14T00:00:00.000","2002-05-14T00:00:00.000"
"17721071","SEMP","2D - give advice about security equipment","Individual","1","4","Rhys Anthony RYAN",,,,,,"2025-06-14T00:00:00.000",
"17721079","SEMP","1A - patrol, guard, watch or protect property (including cash in transit)","Individual","1","2","Daniel Joseph SEEARS",,,,,,"2025-06-14T00:00:00.000","2016-06-17T00:00:00.000"
"17701062","SEMP","1FC - guard with a firearm for cash in transit","Individual","2","2","Mark Anthony POWER",,,,,,"2025-06-14T00:00:00.000","1998-05-27T00:00:00.000"
"17728282","SEMP","2E - install, maintain, monitor, repair or service security equipment","Individual","1","4","Shane Vincent CALVI",,,,,,"2025-06-14T00:00:00.000","2022-06-15T00:00:00.000"
"17728282","SEMP","2D - give advice about security equipment","Individual","4","4","Shane Vincent CALVI",,,,,,"2025-06-14T00:00:00.000","2022-06-15T00:00:00.000"
"17728282","SEMP","2C - carry out surveys and inspections of security equipment","Individual","3","4","Shane Vincent CALVI",,,,,,"2025-06-14T00:00:00.000","2022-06-15T00:00:00.000"
"17721071","SEMP","2B - sell security equipment","Individual","3","4","Rhys Anthony RYAN",,,,,,"2025-06-14T00:00:00.000",
"17725923","SEMP","1C - act as a crowd controller","Individual","2","2","Zohaib  BILAL",,,,,,"2025-06-14T00:00:00.000","2020-05-06T00:00:00.000"
"17501928","SMAS","Security Master","Company","1","1","MY OPTIMISM PTY LTD","High Security Locksmiths","4 Welsby Place","FADDEN","ACT","2904","2025-06-13T00:00:00.000","2010-06-01T00:00:00.000"
"17705049","SEMP","1A - patrol, guard, watch or protect property (including cash in transit)","Individual","1","3","Christopher Charles MORROW",,,,,,"2025-06-13T00:00:00.000","2002-06-15T00:00:00.000"
"17705049","SEMP","2A - acts as a security consultant","Individual","3","3","Christopher Charles MORROW",,,,,,"2025-06-13T00:00:00.000","2002-06-15T00:00:00.000"
"17705049","SEMP","1FC - guard with a firearm for cash in transit","Individual","2","3","Christopher Charles MORROW",,,,,,"2025-06-13T00:00:00.000","2002-06-15T00:00:00.000"
"17701327","SEMP","1FC - guard with a firearm for cash in transit","Individual","1","2","Scott Arne JOHANSEN",,,,,,"2025-06-10T00:00:00.000","1998-06-11T00:00:00.000"
"17701327","SEMP","1A - patrol, guard, watch or protect property (including cash in transit)","Individual","2","2","Scott Arne JOHANSEN",,,,,,"2025-06-10T00:00:00.000","1998-06-11T00:00:00.000"
"17701220","SEMP","2D - give advice about security equipment","Individual","3","4","Adrian Donald HART",,,,,,"2025-06-09T00:00:00.000","1998-06-11T00:00:00.000"
"17725709","SEMP","1A - patrol, guard, watch or protect property (including cash in transit)","Individual","1","4","Jodie Lee WOODBRIDGE",,,,,,"2025-06-09T00:00:00.000","2020-03-19T00:00:00.000"
"17725709","SEMP","1C - act as a crowd controller","Individual","2","4","Jodie Lee WOODBRIDGE",,,,,,"2025-06-09T00:00:00.000","2020-03-19T00:00:00.000"
"17724425","SEMP","1A - patrol, guard, watch or protect property (including cash in transit)","Individual","1","2","Fernando  SEPULVEDA",,,,,,"2025-06-09T00:00:00.000","2019-05-06T00:00:00.000"
"17725709","SEMP","2C - carry out surveys and inspections of security equipment","Individual","3","4","Jodie Lee WOODBRIDGE",,,,,,"2025-06-09T00:00:00.000","2020-03-19T00:00:00.000"
"17701220","SEMP","2E - install, maintain, monitor, repair or service security equipment","Individual","4","4","Adrian Donald HART",,,,,,"2025-06-09T00:00:00.000","1998-06-11T00:00:00.000"
"17726121","SEMP","1C - act as a crowd controller","Individual","2","3","Vikas Kumar",,,,,,"2025-06-09T00:00:00.000","2020-06-10T00:00:00.000"
"17725709","SEMP","2D - give advice about security equipment","Individual","4","4","Jodie Lee WOODBRIDGE",,,,,,"2025-06-09T00:00:00.000","2020-03-19T00:00:00.000"
"17701204","SEMP","1A - patrol, guard, watch or protect property (including cash in transit)","Individual","1","1","John William THISTLETON",,,,,,"2025-06-09T00:00:00.000","1998-06-11T00:00:00.000"
"17501114","SMAS","Security Master","Company","1","1","SECOM AUSTRALIA PTY LIMITED","SECOM AUSTRALIA PTY LIMITED","43 Chandos Street","ST LEONARDS","NSW","2065","2025-06-09T00:00:00.000","1999-02-16T00:00:00.000"
"17724425","SEMP","1C - act as a crowd controller","Individual","2","2","Fernando  SEPULVEDA",,,,,,"2025-06-09T00:00:00.000","2019-05-06T00:00:00.000"
"17726121","SEMP","1E - act as a monitoring centre operator","Individual","3","3","Vikas Kumar",,,,,,"2025-06-09T00:00:00.000","2020-06-10T00:00:00.000"
"17701220","SEMP","2C - carry out surveys and inspections of security equipment","Individual","2","4","Adrian Donald HART",,,,,,"2025-06-09T00:00:00.000","1998-06-11T00:00:00.000"
"17701220","SEMP","2B - sell security equipment","Individual","1","4","Adrian Donald HART",,,,,,"2025-06-09T00:00:00.000","1998-06-11T00:00:00.000"
"17701194","SEMP","1A - patrol, guard, watch or protect property (including cash in transit)","Individual","1","1","Timothy John SMALL",,,,,,"2025-06-09T00:00:00.000","1998-06-10T00:00:00.000"
"17711818","SEMP","1A - patrol, guard, watch or protect property (including cash in transit)","Individual","1","1","Vlad  RAKIC",,,,,,"2025-06-09T00:00:00.000","2008-05-21T00:00:00.000"
"17726121","SEMP","1A - patrol, guard, watch or protect property (including cash in transit)","Individual","1","3","Vikas Kumar",,,,,,"2025-06-09T00:00:00.000","2020-06-10T00:00:00.000"
"17721065","SEMP","1E - act as a monitoring centre operator","Individual","1","4","Kevin John PEISLEY",,,,,,"2025-06-08T00:00:00.000","2016-06-09T00:00:00.000"
"17724517","SEMP","2C - carry out surveys and inspections of security equipment","Individual","2","3","Dominic Joseph DEN",,,,,,"2025-06-08T00:00:00.000","2019-06-06T00:00:00.000"
"17723761","SEMP","1C - act as a crowd controller","Individual","1","3","Mark Richard WOODALL",,,,,,"2025-06-08T00:00:00.000","2018-10-25T00:00:00.000"
"17713091","SEMP","1C - act as a crowd controller","Individual","2","2","Jaspreet  SINGH",,,,,,"2025-06-08T00:00:00.000","2009-06-02T00:00:00.000"
"17713091","SEMP","1A - patrol, guard, watch or protect property (including cash in transit)","Individual","1","2","Jaspreet  SINGH",,,,,,"2025-06-08T00:00:00.000","2009-06-02T00:00:00.000"
"17724448","SEMP","1FP - guard with a firearm for protecting property","Individual","1","1","Leslie  PORETTI",,,,,,"2025-06-08T00:00:00.000","2019-05-15T00:00:00.000"
"17723761","SEMP","1E - act as a monitoring centre operator","Individual","2","3","Mark Richard WOODALL",,,,,,"2025-06-08T00:00:00.000","2018-10-25T00:00:00.000"
"17724517","SEMP","2E - install, maintain, monitor, repair or service security equipment","Individual","3","3","Dominic Joseph DEN",,,,,,"2025-06-08T00:00:00.000","2019-06-06T00:00:00.000"
"17724517","SEMP","2B - sell security equipment","Individual","1","3","Dominic Joseph DEN",,,,,,"2025-06-08T00:00:00.000","2019-06-06T00:00:00.000"
"17723761","SEMP","1A - patrol, guard, watch or protect property (including cash in transit)","Individual","3","3","Mark Richard WOODALL",,,,,,"2025-06-08T00:00:00.000","2018-10-25T00:00:00.000"
"17721065","SEMP","1A - patrol, guard, watch or protect property (including cash in transit)","Individual","2","4","Kevin John PEISLEY",,,,,,"2025-06-08T00:00:00.000","2016-06-09T00:00:00.000"
"17721065","SEMP","1B - act as a bodyguard","Individual","3","4","Kevin John PEISLEY",,,,,,"2025-06-08T00:00:00.000","2016-06-09T00:00:00.000"
"17721065","SEMP","1C - act as a crowd controller","Individual","4","4","Kevin John PEISLEY",,,,,,"2025-06-08T00:00:00.000","2016-06-09T00:00:00.000"
"17726094","SEMP","2B - sell security equipment","Individual","3","3","Sunita Soni",,,,,,"2025-06-07T00:00:00.000","2020-06-04T00:00:00.000"
"17721020","SEMP","1A - patrol, guard, watch or protect property (including cash in transit)","Individual","1","2","Glenn Bradley ATKINSON",,,,,,"2025-06-07T00:00:00.000",
"17726094","SEMP","1C - act as a crowd controller","Individual","2","3","Sunita Soni",,,,,,"2025-06-07T00:00:00.000","2020-06-04T00:00:00.000"
"17726094","SEMP","1A - patrol, guard, watch or protect property (including cash in transit)","Individual","1","3","Sunita Soni",,,,,,"2025-06-07T00:00:00.000","2020-06-04T00:00:00.000"
"17721020","SEMP","1C - act as a crowd controller","Individual","2","2","Glenn Bradley ATKINSON",,,,,,"2025-06-07T00:00:00.000",
"17728257","SEMP","2B - sell security equipment","Individual","2","4","Steven  KRONBERGER",,,,,,"2025-06-06T00:00:00.000","2022-06-07T00:00:00.000"
"17717319","SEMP","2C - carry out surveys and inspections of security equipment","Individual","1","3","Simon James DOOLEY",,,,,,"2025-06-06T00:00:00.000","2012-04-11T00:00:00.000"
"17728251","SEMP","1A - patrol, guard, watch or protect property (including cash in transit)","Individual","1","2","Pooja  AHUJA",,,,,,"2025-06-06T00:00:00.000","2022-06-07T00:00:00.000"
"17717319","SEMP","2D - give advice about security equipment","Individual","2","3","Simon James DOOLEY",,,,,,"2025-06-06T00:00:00.000","2012-04-11T00:00:00.000"
"17728254","SEMP","2D - give advice about security equipment","Individual","2","3","Alistair Graeme NINNES",,,,,,"2025-06-06T00:00:00.000","2022-06-07T00:00:00.000"
"17728254","SEMP","2B - sell security equipment","Individual","1","3","Alistair Graeme NINNES",,,,,,"2025-06-06T00:00:00.000","2022-06-07T00:00:00.000"
"17728257","SEMP","2C - carry out surveys and inspections of security equipment","Individual","3","4","Steven  KRONBERGER",,,,,,"2025-06-06T00:00:00.000","2022-06-07T00:00:00.000"
"17717319","SEMP","2E - install, maintain, monitor, repair or service security equipment","Individual","3","3","Simon James DOOLEY",,,,,,"2025-06-06T00:00:00.000","2012-04-11T00:00:00.000"
"17724698","SEMP","1C - act as a crowd controller","Individual","2","2","Marc  BROWN",,,,,,"2025-06-06T00:00:00.000","2019-07-18T00:00:00.000"
"17728257","SEMP","2E - install, maintain, monitor, repair or service security equipment","Individual","1","4","Steven  KRONBERGER",,,,,,"2025-06-06T00:00:00.000","2022-06-07T00:00:00.000"
"17724698","SEMP","1A - patrol, guard, watch or protect property (including cash in transit)","Individual","1","2","Marc  BROWN",,,,,,"2025-06-06T00:00:00.000","2019-07-18T00:00:00.000"
"17728251","SEMP","1C - act as a crowd controller","Individual","2","2","Pooja  AHUJA",,,,,,"2025-06-06T00:00:00.000","2022-06-07T00:00:00.000"
"17728254","SEMP","2E - install, maintain, monitor, repair or service security equipment","Individual","3","3","Alistair Graeme NINNES",,,,,,"2025-06-06T00:00:00.000","2022-06-07T00:00:00.000"
"17728257","SEMP","2D - give advice about security equipment","Individual","4","4","Steven  KRONBERGER",,,,,,"2025-06-06T00:00:00.000","2022-06-07T00:00:00.000"
"17723272","SEMP","2E - install, maintain, monitor, repair or service security equipment","Individual","1","4","Damian Robert Gill",,,,,,"2025-06-05T00:00:00.000","2018-05-24T00:00:00.000"
"17728244","SEMP","1E - act as a monitoring centre operator","Individual","3","3","Ashleigh Ann GATTRINGER",,,,,,"2025-06-05T00:00:00.000","2022-06-06T00:00:00.000"
"17714458","SEMP","2E - install, maintain, monitor, repair or service security equipment","Individual","1","1","Brad Graham MALLIGAN",,,,,,"2025-06-05T00:00:00.000","2010-03-09T00:00:00.000"
"17724521","SEMP","2B - sell security equipment","Individual","5","7","Scott Christopher NELSON",,,,,,"2025-06-05T00:00:00.000","2019-06-06T00:00:00.000"
"17721050","SEMP","1E - act as a monitoring centre operator","Individual","3","3","Penisimani  HAUSIAIMOANA",,,,,,"2025-06-05T00:00:00.000","2016-05-30T00:00:00.000"
"17724521","SEMP","2C - carry out surveys and inspections of security equipment","Individual","6","7","Scott Christopher NELSON",,,,,,"2025-06-05T00:00:00.000","2019-06-06T00:00:00.000"
"17724521","SEMP","1E - act as a monitoring centre operator","Individual","3","7","Scott Christopher NELSON",,,,,,"2025-06-05T00:00:00.000","2019-06-06T00:00:00.000"
"17724521","SEMP","1C - act as a crowd controller","Individual","2","7","Scott Christopher NELSON",,,,,,"2025-06-05T00:00:00.000","2019-06-06T00:00:00.000"
"17725886","SEMP","2E - install, maintain, monitor, repair or service security equipment","Individual","1","1","Paul Digby COLLINS",,,,,,"2025-06-05T00:00:00.000","2020-05-01T00:00:00.000"
"17721050","SEMP","1A - patrol, guard, watch or protect property (including cash in transit)","Individual","1","3","Penisimani  HAUSIAIMOANA",,,,,,"2025-06-05T00:00:00.000","2016-05-30T00:00:00.000"
"17724521","SEMP","2A - acts as a security consultant","Individual","4","7","Scott Christopher NELSON",,,,,,"2025-06-05T00:00:00.000","2019-06-06T00:00:00.000"
"17721050","SEMP","1C - act as a crowd controller","Individual","2","3","Penisimani  HAUSIAIMOANA",,,,,,"2025-06-05T00:00:00.000","2016-05-30T00:00:00.000"
"17724521","SEMP","1A - patrol, guard, watch or protect property (including cash in transit)","Individual","1","7","Scott Christopher NELSON",,,,,,"2025-06-05T00:00:00.000","2019-06-06T00:00:00.000"
"17728242","SEMP","2A - acts as a security consultant","Individual","1","3","Martyn Lloyd ARGYLE",,,,,,"2025-06-05T00:00:00.000","2022-06-06T00:00:00.000"
"17728244","SEMP","1C - act as a crowd controller","Individual","2","3","Ashleigh Ann GATTRINGER",,,,,,"2025-06-05T00:00:00.000","2022-06-06T00:00:00.000"
"17728242","SEMP","2E - install, maintain, monitor, repair or service security equipment","Individual","3","3","Martyn Lloyd ARGYLE",,,,,,"2025-06-05T00:00:00.000","2022-06-06T00:00:00.000"
"17717357","SEMP","1E - act as a monitoring centre operator","Individual","1","1","Sione Moala Ofa TAUFUI",,,,,,"2025-06-05T00:00:00.000","2012-04-23T00:00:00.000"
"17728244","SEMP","1A - patrol, guard, watch or protect property (including cash in transit)","Individual","1","3","Ashleigh Ann GATTRINGER",,,,,,"2025-06-05T00:00:00.000","2022-06-06T00:00:00.000"
"17724521","SEMP","2D - give advice about security equipment","Individual","7","7","Scott Christopher NELSON",,,,,,"2025-06-05T00:00:00.000","2019-06-06T00:00:00.000"
"17723272","SEMP","2C - carry out surveys and inspections of security equipment","Individual","3","4","Damian Robert Gill",,,,,,"2025-06-05T00:00:00.000","2018-05-24T00:00:00.000"
"17728242","SEMP","2D - give advice about security equipment","Individual","2","3","Martyn Lloyd ARGYLE",,,,,,"2025-06-05T00:00:00.000","2022-06-06T00:00:00.000"
"17723272","SEMP","2D - give advice about security equipment","Individual","4","4","Damian Robert Gill",,,,,,"2025-06-05T00:00:00.000","2018-05-24T00:00:00.000"
"17723272","SEMP","2B - sell security equipment","Individual","2","4","Damian Robert Gill",,,,,,"2025-06-05T00:00:00.000","2018-05-24T00:00:00.000"
"17717500","SEMP","1C - act as a crowd controller","Individual","2","2","Christopher Anthony CASSIN",,,,,,"2025-06-04T00:00:00.000",
"17717500","SEMP","1A - patrol, guard, watch or protect property (including cash in transit)","Individual","1","2","Christopher Anthony CASSIN",,,,,,"2025-06-04T00:00:00.000",
"20000415","SHD","Traders","Individual","1","1","Maria Jeanette STAVREAS","Marie Jeanette Designs","35 Chowne Street","CAMPBELL","ACT","2612","2025-06-04T00:00:00.000","2020-06-05T00:00:00.000"
"17701149","SEMP","1C - act as a crowd controller","Individual","1","2","Peter Paul ELBRACHT",,,,,,"2025-06-03T00:00:00.000","1998-06-04T00:00:00.000"
"17711513","SEMP","1A - patrol, guard, watch or protect property (including cash in transit)","Individual","1","1","Peter Bruce HACKETT",,,,,,"2025-06-03T00:00:00.000","2008-02-04T00:00:00.000"
"17723312","SEMP","1C - act as a crowd controller","Individual","2","2","Saad Ahmed KHAN",,,,,,"2025-06-03T00:00:00.000","2018-06-04T00:00:00.000"
"17701147","SEMP","1A - patrol, guard, watch or protect property (including cash in transit)","Individual","1","2","Rodney Albert ANDERSON",,,,,,"2025-06-03T00:00:00.000","1998-06-04T00:00:00.000"
"17701137","SEMP","1A - patrol, guard, watch or protect property (including cash in transit)","Individual","1","1","Peter Raymond COOK",,,,,,"2025-06-03T00:00:00.000","1998-06-04T00:00:00.000"
"17701149","SEMP","1A - patrol, guard, watch or protect property (including cash in transit)","Individual","2","2","Peter Paul ELBRACHT",,,,,,"2025-06-03T00:00:00.000","1998-06-04T00:00:00.000"
"17701147","SEMP","1FC - guard with a firearm for cash in transit","Individual","2","2","Rodney Albert ANDERSON",,,,,,"2025-06-03T00:00:00.000","1998-06-04T00:00:00.000"
"17723312","SEMP","1A - patrol, guard, watch or protect property (including cash in transit)","Individual","1","2","Saad Ahmed KHAN",,,,,,"2025-06-03T00:00:00.000","2018-06-04T00:00:00.000"
"17501220","SMAS","Security Master","Company","1","1","SYDNEY NIGHT PATROL & INQUIRY CO PTY LTD","Certis Security Australia, PSI Corporate, SNP Security","937-941 VICTORIA RD","WEST RYDE","NSW","2114","2025-06-02T00:00:00.000","2003-06-03T00:00:00.000"
"17502191","SMAS","Security Master","Company","1","1","BLACKHAWK LOGISTICS PTY LTD","Blackhawk Logistics","38 Vicars St","MITCHELL","ACT","2911","2025-06-02T00:00:00.000","2013-05-31T00:00:00.000"
"17728240","SEMP","1A - patrol, guard, watch or protect property (including cash in transit)","Individual","1","3","Rupesh  BARTAULA",,,,,,"2025-06-02T00:00:00.000","2022-06-03T00:00:00.000"
"17728240","SEMP","1E - act as a monitoring centre operator","Individual","3","3","Rupesh  BARTAULA",,,,,,"2025-06-02T00:00:00.000","2022-06-03T00:00:00.000"
"17728240","SEMP","1C - act as a crowd controller","Individual","2","3","Rupesh  BARTAULA",,,,,,"2025-06-02T00:00:00.000","2022-06-03T00:00:00.000"
"17728218","SEMP","1A - patrol, guard, watch or protect property (including cash in transit)","Individual","3","3","Stuart John MCKAY",,,,,,"2025-06-01T00:00:00.000","2022-06-02T00:00:00.000"
"17726080","SEMP","1C - act as a crowd controller","Individual","2","2","Ashraful  MOMIN",,,,,,"2025-06-01T00:00:00.000","2020-06-02T00:00:00.000"
"17726080","SEMP","1A - patrol, guard, watch or protect property (including cash in transit)","Individual","1","2","Ashraful  MOMIN",,,,,,"2025-06-01T00:00:00.000","2020-06-02T00:00:00.000"
"17725790","SEMP","1A - patrol, guard, watch or protect property (including cash in transit)","Individual","1","3","Matthew Victor John BRISCOE",,,,,,"2025-06-01T00:00:00.000","2020-04-07T00:00:00.000"
"17725790","SEMP","1D - guard with a dog","Individual","3","3","Matthew Victor John BRISCOE",,,,,,"2025-06-01T00:00:00.000","2020-04-07T00:00:00.000"
"17800071","STRN","1B - act as a bodyguard","Individual","2","4","Phillip Anthony MAHONEY",,,,,,"2025-06-01T00:00:00.000","2009-04-28T00:00:00.000"
"17800071","STRN","2A - acts as a security consultant","Individual","3","4","Phillip Anthony MAHONEY",,,,,,"2025-06-01T00:00:00.000","2009-04-28T00:00:00.000"
"17725790","SEMP","1C - act as a crowd controller","Individual","2","3","Matthew Victor John BRISCOE",,,,,,"2025-06-01T00:00:00.000","2020-04-07T00:00:00.000"
"17728218","SEMP","1E - act as a monitoring centre operator","Individual","2","3","Stuart John MCKAY",,,,,,"2025-06-01T00:00:00.000","2022-06-02T00:00:00.000"
"17502402","SMAS","Security Master","Company","1","1","HABITAT SECURITY PTY LTD","Habitat Security Pty Ltd","C/- Don Burnett MSS Security PTY LTD PO Box 7004","SILVERWATER","NSW","2128","2025-06-01T00:00:00.000","2016-06-02T00:00:00.000"
"17728218","SEMP","1C - act as a crowd controller","Individual","1","3","Stuart John MCKAY",,,,,,"2025-06-01T00:00:00.000","2022-06-02T00:00:00.000"
"17800071","STRN","1A - patrol, guard, watch or protect property (including cash in transit)","Individual","1","4","Phillip Anthony MAHONEY",,,,,,"2025-06-01T00:00:00.000","2009-04-28T00:00:00.000"
"17800071","STRN","1C - act as a crowd controller","Individual","4","4","Phillip Anthony MAHONEY",,,,,,"2025-06-01T00:00:00.000","2009-04-28T00:00:00.000"
"20000402","MVR","Traders","Company","1","8","LENNOCK MOTORS PTY LIMITED","Lennock Motors","150 Melrose Drive","PHILLIP","ACT","2606","2025-05-31T00:00:00.000","2020-06-01T00:00:00.000"
"20000402","MVR","Traders","Company","3","8","LENNOCK MOTORS PTY LIMITED","Lennock Motors","124 Melrose Drive","PHILLIP","ACT","2606","2025-05-31T00:00:00.000","2020-06-01T00:00:00.000"
"20000402","MVR","Traders","Company","4","8","LENNOCK MOTORS PTY LIMITED","Lennock Motors","122 Melrose Drive","PHILLIP","ACT","2606","2025-05-31T00:00:00.000","2020-06-01T00:00:00.000"
"17726070","SEMP","1C - act as a crowd controller","Individual","2","3","Chaudhary Hanzla  AHMED",,,,,,"2025-05-31T00:00:00.000","2020-06-02T00:00:00.000"
"17726070","SEMP","1E - act as a monitoring centre operator","Individual","3","3","Chaudhary Hanzla  AHMED",,,,,,"2025-05-31T00:00:00.000","2020-06-02T00:00:00.000"
"17726070","SEMP","1A - patrol, guard, watch or protect property (including cash in transit)","Individual","1","3","Chaudhary Hanzla  AHMED",,,,,,"2025-05-31T00:00:00.000","2020-06-02T00:00:00.000"
"20000402","MVR","Traders","Company","5","8","LENNOCK MOTORS PTY LIMITED","Lennock Motors","118-120 Melrose Drive","PHILLIP","ACT","2606","2025-05-31T00:00:00.000","2020-06-01T00:00:00.000"
"20000402","MVR","Traders","Company","7","8","LENNOCK MOTORS PTY LIMITED","Lennock Motors","7 Rickerby Street","PHILLIP","ACT","2606","2025-05-31T00:00:00.000","2020-06-01T00:00:00.000"
"20000402","MVR","Traders","Company","6","8","LENNOCK MOTORS PTY LIMITED","Lennock Motors","120 Melrose Drive","PHILLIP","ACT","2606","2025-05-31T00:00:00.000","2020-06-01T00:00:00.000"
"20000402","MVR","Traders","Company","8","8","LENNOCK MOTORS PTY LIMITED","Lennock Motors","7/55 Nettlefold Street","BELCONNEN","ACT","2617","2025-05-31T00:00:00.000","2020-06-01T00:00:00.000"
"17728200","SEMP","1C - act as a crowd controller","Individual","2","3","Vipul Pravinbhai PATEL",,,,,,"2025-05-31T00:00:00.000","2022-06-01T00:00:00.000"
"20000402","MVR","Traders","Company","2","8","LENNOCK MOTORS PTY LIMITED","Lennock Motors","126 Melrose Drive","PHILLIP","ACT","2606","2025-05-31T00:00:00.000","2020-06-01T00:00:00.000"
"17728200","SEMP","1A - patrol, guard, watch or protect property (including cash in transit)","Individual","1","3","Vipul Pravinbhai PATEL",,,,,,"2025-05-31T00:00:00.000","2022-06-01T00:00:00.000"
"17728200","SEMP","1E - act as a monitoring centre operator","Individual","3","3","Vipul Pravinbhai PATEL",,,,,,"2025-05-31T00:00:00.000","2022-06-01T00:00:00.000"
"17502805","SMAS","Security Master","Company","1","1","LONSDALE SERVICES GROUP PTY LTD","Lonsdale Servises Group","SHOP 3, 137 CANBERRA AV","FYSHWICK","ACT","2609","2025-05-30T00:00:00.000","2022-05-31T00:00:00.000"
"17502569","SMAS","Security Master","Company","1","1","Central Coast Locksmiths","Central Coast Locksmiths","4/319 Mann Street","GOSFORD","NSW","2250","2025-05-30T00:00:00.000","2019-01-08T00:00:00.000"
"17723297","SEMP","1A - patrol, guard, watch or protect property (including cash in transit)","Individual","1","1","Graeme Ernest John  SILK",,,,,,"2025-05-30T00:00:00.000","2018-05-31T00:00:00.000"
"17717479","SEMP","2A - acts as a security consultant","Individual","1","1","Guayeng  KANG",,,,,,"2025-05-30T00:00:00.000","2012-05-31T00:00:00.000"
"17710796","SEMP","1C - act as a crowd controller","Individual","2","2","Christopher Allen PERCEVAL",,,,,,"2025-05-30T00:00:00.000","2007-05-09T00:00:00.000"
"17710796","SEMP","1A - patrol, guard, watch or protect property (including cash in transit)","Individual","1","2","Christopher Allen PERCEVAL",,,,,,"2025-05-30T00:00:00.000","2007-05-09T00:00:00.000"
"17501530","SMAS","Security Master","Company","1","1","CAFTOR PTY LTD","Mooseheads Pubs","105 London Circuit","CANBERRA","ACT","2601","2025-05-30T00:00:00.000","2004-03-24T00:00:00.000"
"17710842","SEMP","1A - patrol, guard, watch or protect property (including cash in transit)","Individual","1","2","Stephen Thomas HARTUP",,,,,,"2025-05-29T00:00:00.000","2007-05-30T00:00:00.000"
"17711775","SEMP","1A - patrol, guard, watch or protect property (including cash in transit)","Individual","1","3","Barry John PEISLEY",,,,,,"2025-05-29T00:00:00.000","2008-05-14T00:00:00.000"
"17711775","SEMP","1C - act as a crowd controller","Individual","2","3","Barry John PEISLEY",,,,,,"2025-05-29T00:00:00.000","2008-05-14T00:00:00.000"
"17710842","SEMP","1E - act as a monitoring centre operator","Individual","2","2","Stephen Thomas HARTUP",,,,,,"2025-05-29T00:00:00.000","2007-05-30T00:00:00.000"
"17711775","SEMP","2A - acts as a security consultant","Individual","3","3","Barry John PEISLEY",,,,,,"2025-05-29T00:00:00.000","2008-05-14T00:00:00.000"
"17727900","SEMP","1C - act as a crowd controller","Individual","2","3","Mahboob  MOHAMMED",,,,,,"2025-05-27T00:00:00.000","2022-02-28T00:00:00.000"
"17727900","SEMP","1E - act as a monitoring centre operator","Individual","3","3","Mahboob  MOHAMMED",,,,,,"2025-05-27T00:00:00.000","2022-02-28T00:00:00.000"
"17724480","SEMP","1A - patrol, guard, watch or protect property (including cash in transit)","Individual","1","3","Md Shariful ISLAM",,,,,,"2025-05-27T00:00:00.000","2019-05-28T00:00:00.000"
"17701086","SEMP","1C - act as a crowd controller","Individual","2","2","David Harold BRADLEY",,,,,,"2025-05-27T00:00:00.000","1998-05-28T00:00:00.000"
"17727900","SEMP","1A - patrol, guard, watch or protect property (including cash in transit)","Individual","1","3","Mahboob  MOHAMMED",,,,,,"2025-05-27T00:00:00.000","2022-02-28T00:00:00.000"
"17724480","SEMP","1E - act as a monitoring centre operator","Individual","3","3","Md Shariful ISLAM",,,,,,"2025-05-27T00:00:00.000","2019-05-28T00:00:00.000"
"17724480","SEMP","1C - act as a crowd controller","Individual","2","3","Md Shariful ISLAM",,,,,,"2025-05-27T00:00:00.000","2019-05-28T00:00:00.000"
"17701086","SEMP","1A - patrol, guard, watch or protect property (including cash in transit)","Individual","1","2","David Harold BRADLEY",,,,,,"2025-05-27T00:00:00.000","1998-05-28T00:00:00.000"
"17727110","SEMP","1C - act as a crowd controller","Individual","2","2","Aanchal  PASSI",,,,,,"2025-05-25T00:00:00.000","2021-05-26T00:00:00.000"
"17724140","SEMP","1A - patrol, guard, watch or protect property (including cash in transit)","Individual","1","3","Gaurav  VIG",,,,,,"2025-05-25T00:00:00.000","2019-02-18T00:00:00.000"
"17724140","SEMP","1C - act as a crowd controller","Individual","2","3","Gaurav  VIG",,,,,,"2025-05-25T00:00:00.000","2019-02-18T00:00:00.000"
"17722027","SEMP","1E - act as a monitoring centre operator","Individual","1","2","Linda Trang INGRAM",,,,,,"2025-05-25T00:00:00.000","2017-05-26T00:00:00.000"
"17728168","SEMP","2C - carry out surveys and inspections of security equipment","Individual","1","2","Jessica Claude ACKLAND",,,,,,"2025-05-25T00:00:00.000","2022-05-26T00:00:00.000"
"17726803","SEMP","1E - act as a monitoring centre operator","Individual","1","1","Katrina Ann PENFOLD",,,,,,"2025-05-25T00:00:00.000","2021-02-10T00:00:00.000"
"17722027","SEMP","1A - patrol, guard, watch or protect property (including cash in transit)","Individual","2","2","Linda Trang INGRAM",,,,,,"2025-05-25T00:00:00.000","2017-05-26T00:00:00.000"
"17707965","SEMP","1A - patrol, guard, watch or protect property (including cash in transit)","Individual","1","2","Vladimir  GOLOBOKOV",,,,,,"2025-05-25T00:00:00.000","2004-05-27T00:00:00.000"
"17728169","SEMP","1C - act as a crowd controller","Individual","2","2","Stuart John THOMAS",,,,,,"2025-05-25T00:00:00.000","2022-05-26T00:00:00.000"
"17727110","SEMP","1A - patrol, guard, watch or protect property (including cash in transit)","Individual","1","2","Aanchal  PASSI",,,,,,"2025-05-25T00:00:00.000","2021-05-26T00:00:00.000"
"17728169","SEMP","1A - patrol, guard, watch or protect property (including cash in transit)","Individual","1","2","Stuart John THOMAS",,,,,,"2025-05-25T00:00:00.000","2022-05-26T00:00:00.000"
"17707965","SEMP","1C - act as a crowd controller","Individual","2","2","Vladimir  GOLOBOKOV",,,,,,"2025-05-25T00:00:00.000","2004-05-27T00:00:00.000"
"17727177","SEMP","1C - act as a crowd controller","Individual","2","2","Tanveer  HOSSAIN KHAN",,,,,,"2025-05-25T00:00:00.000","2021-05-27T00:00:00.000"
"17724140","SEMP","1E - act as a monitoring centre operator","Individual","3","3","Gaurav  VIG",,,,,,"2025-05-25T00:00:00.000","2019-02-18T00:00:00.000"
"17727177","SEMP","1A - patrol, guard, watch or protect property (including cash in transit)","Individual","1","2","Tanveer  HOSSAIN KHAN",,,,,,"2025-05-25T00:00:00.000","2021-05-27T00:00:00.000"
"17728168","SEMP","2D - give advice about security equipment","Individual","2","2","Jessica Claude ACKLAND",,,,,,"2025-05-25T00:00:00.000","2022-05-26T00:00:00.000"
"17723130","SEMP","1A - patrol, guard, watch or protect property (including cash in transit)","Individual","1","2","Imran Habib KHAN",,,,,,"2025-05-24T00:00:00.000","2018-04-19T00:00:00.000"
"17723130","SEMP","1C - act as a crowd controller","Individual","2","2","Imran Habib KHAN",,,,,,"2025-05-24T00:00:00.000","2018-04-19T00:00:00.000"
"17728166","SEMP","1A - patrol, guard, watch or protect property (including cash in transit)","Individual","1","2","Nazeeruddin Zakir  MOHAMMED",,,,,,"2025-05-24T00:00:00.000","2022-05-25T00:00:00.000"
"17721010","SEMP","1C - act as a crowd controller","Individual","2","2","Rajinder Singh SYAN",,,,,,"2025-05-24T00:00:00.000","2016-05-09T00:00:00.000"
"17721010","SEMP","1A - patrol, guard, watch or protect property (including cash in transit)","Individual","1","2","Rajinder Singh SYAN",,,,,,"2025-05-24T00:00:00.000","2016-05-09T00:00:00.000"
"17728166","SEMP","1C - act as a crowd controller","Individual","2","2","Nazeeruddin Zakir  MOHAMMED",,,,,,"2025-05-24T00:00:00.000","2022-05-25T00:00:00.000"
"17721039","SEMP","1A - patrol, guard, watch or protect property (including cash in transit)","Individual","1","1","James Stuart MARSHALL",,,,,,"2025-05-23T00:00:00.000","2016-05-24T00:00:00.000"
"17717405","SEMP","2A - acts as a security consultant","Individual","1","1","Scott Darren REEVE",,,,,,"2025-05-23T00:00:00.000",
"17721042","SEMP","1A - patrol, guard, watch or protect property (including cash in transit)","Individual","1","1","Amit  SHARMA",,,,,,"2025-05-23T00:00:00.000","2016-05-25T00:00:00.000"
"17701039","SEMP","1C - act as a crowd controller","Individual","2","2","Adam Laurence WRIGHT",,,,,,"2025-05-23T00:00:00.000","1998-05-26T00:00:00.000"
"17701039","SEMP","1A - patrol, guard, watch or protect property (including cash in transit)","Individual","1","2","Adam Laurence WRIGHT",,,,,,"2025-05-23T00:00:00.000","1998-05-26T00:00:00.000"
"17728160","SEMP","1A - patrol, guard, watch or protect property (including cash in transit)","Individual","1","2","Ian Gregory FARLEY",,,,,,"2025-05-23T00:00:00.000","2022-05-24T00:00:00.000"
"17728160","SEMP","1E - act as a monitoring centre operator","Individual","2","2","Ian Gregory FARLEY",,,,,,"2025-05-23T00:00:00.000","2022-05-24T00:00:00.000"
"17502011","SMAS","Security Master","Company","1","1","E & C SECURITY SYSTEMS PTY LTD","E & C Security Systems Pty Ltd","Unit 13 10-14 Lilian Fowler Place","MARRICKVILLE","NSW","2204","2025-05-23T00:00:00.000","2011-03-24T00:00:00.000"
"17502550","SMAS","Security Master","Company","1","1","Millennium Security Specialist Services Pty Ltd","Millennium Security Specialist Services Pty Ltd","205-211 Forster Road","MOUNT WAVERLEY","VIC","3149","2025-05-22T00:00:00.000","2018-08-23T00:00:00.000"
"17721018","SEMP","2B - sell security equipment","Individual","1","2","Damien Robert KAUFLINE",,,,,,"2025-05-21T00:00:00.000","2016-05-12T00:00:00.000"
"17718443","SEMP","1A - patrol, guard, watch or protect property (including cash in transit)","Individual","1","2","Mason Douglas ARMSTRONG",,,,,,"2025-05-21T00:00:00.000","2013-05-22T00:00:00.000"
"17721018","SEMP","2E - install, maintain, monitor, repair or service security equipment","Individual","2","2","Damien Robert KAUFLINE",,,,,,"2025-05-21T00:00:00.000","2016-05-12T00:00:00.000"
"17718443","SEMP","1C - act as a crowd controller","Individual","2","2","Mason Douglas ARMSTRONG",,,,,,"2025-05-21T00:00:00.000","2013-05-22T00:00:00.000"
"17712752","SEMP","1C - act as a crowd controller","Individual","3","3","Benjamin William NASH SLATTERY",,,,,,"2025-05-20T00:00:00.000","2009-01-27T00:00:00.000"
"17712752","SEMP","2A - acts as a security consultant","Individual","2","3","Benjamin William NASH SLATTERY",,,,,,"2025-05-20T00:00:00.000","2009-01-27T00:00:00.000"
"17712752","SEMP","1A - patrol, guard, watch or protect property (including cash in transit)","Individual","1","3","Benjamin William NASH SLATTERY",,,,,,"2025-05-20T00:00:00.000","2009-01-27T00:00:00.000"
"17728152","SEMP","1E - act as a monitoring centre operator","Individual","3","3","Amrinder Singh SARKARIA",,,,,,"2025-05-19T00:00:00.000","2022-05-20T00:00:00.000"
"17728152","SEMP","1A - patrol, guard, watch or protect property (including cash in transit)","Individual","1","3","Amrinder Singh SARKARIA",,,,,,"2025-05-19T00:00:00.000","2022-05-20T00:00:00.000"
"17727151","SEMP","2E - install, maintain, monitor, repair or service security equipment","Individual","3","3","Daniel Adam  COLE",,,,,,"2025-05-19T00:00:00.000","2021-05-20T00:00:00.000"
"17727151","SEMP","2D - give advice about security equipment","Individual","2","3","Daniel Adam  COLE",,,,,,"2025-05-19T00:00:00.000","2021-05-20T00:00:00.000"
"17728152","SEMP","1C - act as a crowd controller","Individual","2","3","Amrinder Singh SARKARIA",,,,,,"2025-05-19T00:00:00.000","2022-05-20T00:00:00.000"
"17727151","SEMP","2C - carry out surveys and inspections of security equipment","Individual","1","3","Daniel Adam  COLE",,,,,,"2025-05-19T00:00:00.000","2021-05-20T00:00:00.000"
"17713027","SEMP","1A - patrol, guard, watch or protect property (including cash in transit)","Individual","1","1","Dallas John THOROUGHGOOD",,,,,,"2025-05-19T00:00:00.000","2009-05-21T00:00:00.000"
"17725913","SEMP","1A - patrol, guard, watch or protect property (including cash in transit)","Individual","1","2","Muhammad Saad  YOUSAF",,,,,,"2025-05-18T00:00:00.000","2020-05-05T00:00:00.000"
"17726347","SEMP","1C - act as a crowd controller","Individual","2","2","Zarko  PETRESKI",,,,,,"2025-05-18T00:00:00.000","2020-08-19T00:00:00.000"
"17724447","SEMP","1C - act as a crowd controller","Individual","2","3","Wayne Bryan LAWLER",,,,,,"2025-05-18T00:00:00.000","2019-05-13T00:00:00.000"
"17724447","SEMP","1E - act as a monitoring centre operator","Individual","1","3","Wayne Bryan LAWLER",,,,,,"2025-05-18T00:00:00.000","2019-05-13T00:00:00.000"
"17724447","SEMP","1A - patrol, guard, watch or protect property (including cash in transit)","Individual","3","3","Wayne Bryan LAWLER",,,,,,"2025-05-18T00:00:00.000","2019-05-13T00:00:00.000"
"17727143","SEMP","1C - act as a crowd controller","Individual","2","2","Surender  KUMAR",,,,,,"2025-05-18T00:00:00.000","2021-05-19T00:00:00.000"
"17725913","SEMP","1C - act as a crowd controller","Individual","2","2","Muhammad Saad  YOUSAF",,,,,,"2025-05-18T00:00:00.000","2020-05-05T00:00:00.000"
"17727143","SEMP","1A - patrol, guard, watch or protect property (including cash in transit)","Individual","1","2","Surender  KUMAR",,,,,,"2025-05-18T00:00:00.000","2021-05-19T00:00:00.000"
"17726347","SEMP","1A - patrol, guard, watch or protect property (including cash in transit)","Individual","1","2","Zarko  PETRESKI",,,,,,"2025-05-18T00:00:00.000","2020-08-19T00:00:00.000"
"17720244","SEMP","1A - patrol, guard, watch or protect property (including cash in transit)","Individual","1","1","Sukhwinder  SINGH",,,,,,"2025-05-17T00:00:00.000","2015-05-06T00:00:00.000"
"17717934","SEMP","2C - carry out surveys and inspections of security equipment","Individual","2","4","Richard Edward MYERS",,,,,,"2025-05-16T00:00:00.000","2012-11-15T00:00:00.000"
"17721022","SEMP","1A - patrol, guard, watch or protect property (including cash in transit)","Individual","1","2","Simon Peter WESTGARTH",,,,,,"2025-05-16T00:00:00.000","2016-05-12T00:00:00.000"
"17727081","SEMP","1A - patrol, guard, watch or protect property (including cash in transit)","Individual","1","3","Tuttuak Chiok GUEK",,,,,,"2025-05-16T00:00:00.000","2021-04-30T00:00:00.000"
"17718390","SEMP","1C - act as a crowd controller","Individual","2","2","Hamid  WAQAS",,,,,,"2025-05-16T00:00:00.000","2013-04-22T00:00:00.000"
"17710323","SEMP","1A - patrol, guard, watch or protect property (including cash in transit)","Individual","1","1","Ian Gregory ATKINS",,,,,,"2025-05-16T00:00:00.000","2006-12-19T00:00:00.000"
"17721962","SEMP","1C - act as a crowd controller","Individual","1","2","Anthony Craig MARIU",,,,,,"2025-05-16T00:00:00.000","2017-05-04T00:00:00.000"
"17721962","SEMP","1A - patrol, guard, watch or protect property (including cash in transit)","Individual","2","2","Anthony Craig MARIU",,,,,,"2025-05-16T00:00:00.000","2017-05-04T00:00:00.000"
"17717934","SEMP","2A - acts as a security consultant","Individual","1","4","Richard Edward MYERS",,,,,,"2025-05-16T00:00:00.000","2012-11-15T00:00:00.000"
"17703595","SEMP","1A - patrol, guard, watch or protect property (including cash in transit)","Individual","1","3","Daniel  FRADGLEY",,,,,,"2025-05-16T00:00:00.000","2000-05-05T00:00:00.000"
"17502587","SMAS","Security Master","Company","1","1","SELECOM PTY LTD","Selecom Pty Ltd","Unit 5, 31 Maclaurin Avenue","EAST HILLS","NSW","2213","2025-05-16T00:00:00.000","2019-04-04T00:00:00.000"
"17703595","SEMP","1C - act as a crowd controller","Individual","3","3","Daniel  FRADGLEY",,,,,,"2025-05-16T00:00:00.000","2000-05-05T00:00:00.000"
"17721022","SEMP","1E - act as a monitoring centre operator","Individual","2","2","Simon Peter WESTGARTH",,,,,,"2025-05-16T00:00:00.000","2016-05-12T00:00:00.000"
"17728120","SEMP","1C - act as a crowd controller","Individual","1","1","Bhavesh  PATEL",,,,,,"2025-05-16T00:00:00.000","2022-05-17T00:00:00.000"
"17703595","SEMP","1FC - guard with a firearm for cash in transit","Individual","2","3","Daniel  FRADGLEY",,,,,,"2025-05-16T00:00:00.000","2000-05-05T00:00:00.000"
"17718390","SEMP","1A - patrol, guard, watch or protect property (including cash in transit)","Individual","1","2","Hamid  WAQAS",,,,,,"2025-05-16T00:00:00.000","2013-04-22T00:00:00.000"
"17724273","SEMP","2E - install, maintain, monitor, repair or service security equipment","Individual","1","1","Jonathan Andrew RIETDIJK",,,,,,"2025-05-16T00:00:00.000","2019-03-27T00:00:00.000"
"17728119","SEMP","1C - act as a crowd controller","Individual","2","2","Akber  MOHAMMED",,,,,,"2025-05-16T00:00:00.000","2022-05-17T00:00:00.000"
"17717934","SEMP","2B - sell security equipment","Individual","4","4","Richard Edward MYERS",,,,,,"2025-05-16T00:00:00.000","2012-11-15T00:00:00.000"
"17728119","SEMP","1A - patrol, guard, watch or protect property (including cash in transit)","Individual","1","2","Akber  MOHAMMED",,,,,,"2025-05-16T00:00:00.000","2022-05-17T00:00:00.000"
"17727081","SEMP","1C - act as a crowd controller","Individual","2","3","Tuttuak Chiok GUEK",,,,,,"2025-05-16T00:00:00.000","2021-04-30T00:00:00.000"
"17717934","SEMP","2D - give advice about security equipment","Individual","3","4","Richard Edward MYERS",,,,,,"2025-05-16T00:00:00.000","2012-11-15T00:00:00.000"
"17718434","SEMP","1C - act as a crowd controller","Individual","2","2","Yasser Mohammad Hasan GHANNAM",,,,,,"2025-05-16T00:00:00.000","2013-05-20T00:00:00.000"
"17727081","SEMP","1E - act as a monitoring centre operator","Individual","3","3","Tuttuak Chiok GUEK",,,,,,"2025-05-16T00:00:00.000","2021-04-30T00:00:00.000"
"17502803","SMAS","Security Master","Company","1","1","VIEWCO PTY LTD","Viewco Pty Ltd","11 Jones St","EAST WAGGA WAGGA","NSW","2650","2025-05-16T00:00:00.000","2022-03-10T00:00:00.000"
"17718434","SEMP","1A - patrol, guard, watch or protect property (including cash in transit)","Individual","1","2","Yasser Mohammad Hasan GHANNAM",,,,,,"2025-05-16T00:00:00.000","2013-05-20T00:00:00.000"
"17722987","SEMP","1E - act as a monitoring centre operator","Individual","3","3","Dipesh Sudhir THAKUR",,,,,,"2025-05-15T00:00:00.000","2018-03-15T00:00:00.000"
"17726039","SEMP","1E - act as a monitoring centre operator","Individual","3","3","Muhammad Usama Shayan KHALID",,,,,,"2025-05-15T00:00:00.000","2020-05-21T00:00:00.000"
"17720827","SEMP","2E - install, maintain, monitor, repair or service security equipment","Individual","4","4","Gregory Wayne NEIL",,,,,,"2025-05-15T00:00:00.000","2016-02-22T00:00:00.000"
"17720827","SEMP","2C - carry out surveys and inspections of security equipment","Individual","2","4","Gregory Wayne NEIL",,,,,,"2025-05-15T00:00:00.000","2016-02-22T00:00:00.000"
"17726039","SEMP","1C - act as a crowd controller","Individual","2","3","Muhammad Usama Shayan KHALID",,,,,,"2025-05-15T00:00:00.000","2020-05-21T00:00:00.000"
"17720827","SEMP","2D - give advice about security equipment","Individual","3","4","Gregory Wayne NEIL",,,,,,"2025-05-15T00:00:00.000","2016-02-22T00:00:00.000"
"17725620","SEMP","1A - patrol, guard, watch or protect property (including cash in transit)","Individual","1","2","Kulwinder Singh GREWAL",,,,,,"2025-05-15T00:00:00.000","2020-03-02T00:00:00.000"
"17720827","SEMP","2B - sell security equipment","Individual","1","4","Gregory Wayne NEIL",,,,,,"2025-05-15T00:00:00.000","2016-02-22T00:00:00.000"
"17725620","SEMP","1C - act as a crowd controller","Individual","2","2","Kulwinder Singh GREWAL",,,,,,"2025-05-15T00:00:00.000","2020-03-02T00:00:00.000"
"17723245","SEMP","1A - patrol, guard, watch or protect property (including cash in transit)","Individual","1","2","Peter John  MCCOOK",,,,,,"2025-05-15T00:00:00.000","2018-05-17T00:00:00.000"
"17723245","SEMP","1C - act as a crowd controller","Individual","2","2","Peter John  MCCOOK",,,,,,"2025-05-15T00:00:00.000","2018-05-17T00:00:00.000"
"17722987","SEMP","1A - patrol, guard, watch or protect property (including cash in transit)","Individual","1","3","Dipesh Sudhir THAKUR",,,,,,"2025-05-15T00:00:00.000","2018-03-15T00:00:00.000"
"17722987","SEMP","1C - act as a crowd controller","Individual","2","3","Dipesh Sudhir THAKUR",,,,,,"2025-05-15T00:00:00.000","2018-03-15T00:00:00.000"
"17726039","SEMP","1A - patrol, guard, watch or protect property (including cash in transit)","Individual","1","3","Muhammad Usama Shayan KHALID",,,,,,"2025-05-15T00:00:00.000","2020-05-21T00:00:00.000"
"17502188","SMAS","Security Master","Company","1","1","MSS STRATEGIC MEDICAL AND RESCUE PTY LTD","MSS Strategic Medical and Rescue Pty Ltd","Gateway Business Park Level 2, 63-79 Parramatta Road","RYDE","NSW","2112","2025-05-14T00:00:00.000","2013-05-15T00:00:00.000"
"19000408","CC","Charitable Collections","Company","1","1","Macular Disease Foundation Australia",,,,,,"2025-05-14T00:00:00.000","2010-05-14T00:00:00.000"
"17501854","SMAS","Security Master","Company","1","1","DIVERSE TRAINING CONCEPTS PTY LTD","DIVERSE TRAINING CONCEPTS","Unit 5, 21-23 Colbee Court","PHILLIP","ACT","2606","2025-05-13T00:00:00.000","2009-04-28T00:00:00.000"
"17711789","SEMP","1A - patrol, guard, watch or protect property (including cash in transit)","Individual","1","2","Joseph Aklette LAATE",,,,,,"2025-05-13T00:00:00.000","2008-05-12T00:00:00.000"
"17711750","SEMP","1C - act as a crowd controller","Individual","1","2","Duc Huu DO",,,,,,"2025-05-13T00:00:00.000","2008-04-30T00:00:00.000"
"17711789","SEMP","1C - act as a crowd controller","Individual","2","2","Joseph Aklette LAATE",,,,,,"2025-05-13T00:00:00.000","2008-05-12T00:00:00.000"
"17721011","SEMP","2B - sell security equipment","Individual","1","4","Chantell Marie HILL",,,,,,"2025-05-13T00:00:00.000","2016-05-09T00:00:00.000"
"17721011","SEMP","2D - give advice about security equipment","Individual","3","4","Chantell Marie HILL",,,,,,"2025-05-13T00:00:00.000","2016-05-09T00:00:00.000"
"17721011","SEMP","2E - install, maintain, monitor, repair or service security equipment","Individual","4","4","Chantell Marie HILL",,,,,,"2025-05-13T00:00:00.000","2016-05-09T00:00:00.000"
"17711750","SEMP","1A - patrol, guard, watch or protect property (including cash in transit)","Individual","2","2","Duc Huu DO",,,,,,"2025-05-13T00:00:00.000","2008-04-30T00:00:00.000"
"17721011","SEMP","2C - carry out surveys and inspections of security equipment","Individual","2","4","Chantell Marie HILL",,,,,,"2025-05-13T00:00:00.000","2016-05-09T00:00:00.000"
"17720999","SEMP","2B - sell security equipment","Individual","1","4","Andrew Thomas LEIPER",,,,,,"2025-05-12T00:00:00.000","2016-05-04T00:00:00.000"
"17720999","SEMP","2C - carry out surveys and inspections of security equipment","Individual","2","4","Andrew Thomas LEIPER",,,,,,"2025-05-12T00:00:00.000","2016-05-04T00:00:00.000"
"17720908","SEMP","2E - install, maintain, monitor, repair or service security equipment","Individual","1","1","Sean Joseph CROSS",,,,,,"2025-05-12T00:00:00.000","2016-03-23T00:00:00.000"
"17720999","SEMP","2D - give advice about security equipment","Individual","3","4","Andrew Thomas LEIPER",,,,,,"2025-05-12T00:00:00.000","2016-05-04T00:00:00.000"
"17720999","SEMP","2E - install, maintain, monitor, repair or service security equipment","Individual","4","4","Andrew Thomas LEIPER",,,,,,"2025-05-12T00:00:00.000","2016-05-04T00:00:00.000"
"17800175","STRN","2A - acts as a security consultant","Individual","1","2","Cornelius Bradley MCGARRITY",,,,,,"2025-05-11T00:00:00.000",
"17725963","SEMP","1A - patrol, guard, watch or protect property (including cash in transit)","Individual","1","3","Sumodh  PALLIPARAMBIL JOHN",,,,,,"2025-05-11T00:00:00.000","2020-05-11T00:00:00.000"
"17800029","STRN","2D - give advice about security equipment","Individual","7","9","Peter  KATEMIS",,,,,,"2025-05-11T00:00:00.000","2005-03-22T00:00:00.000"
"17723218","SEMP","1C - act as a crowd controller","Individual","2","3","Sina  TAGHAVI",,,,,,"2025-05-11T00:00:00.000","2018-05-11T00:00:00.000"
"17727097","SEMP","1A - patrol, guard, watch or protect property (including cash in transit)","Individual","1","3","Hardeep Singh SAHOTA",,,,,,"2025-05-11T00:00:00.000","2021-05-05T00:00:00.000"
"17703558","SEMP","2E - install, maintain, monitor, repair or service security equipment","Individual","1","1","Carl Richard KRAMER",,,,,,"2025-05-11T00:00:00.000","2000-04-17T00:00:00.000"
"17800175","STRN","2D - give advice about security equipment","Individual","2","2","Cornelius Bradley MCGARRITY",,,,,,"2025-05-11T00:00:00.000",
"17502590","SMAS","Security Master","Company","1","1","OPI HOLDINGS PTY LTD","OZLAND SECURITY SERVICES","Unit 12, 171 Power Street","GLENDENNING","NSW","2761","2025-05-11T00:00:00.000","2019-04-09T00:00:00.000"
"17711782","SEMP","1C - act as a crowd controller","Individual","2","2","Brett Robert SHAW",,,,,,"2025-05-11T00:00:00.000","2008-05-12T00:00:00.000"
"17718355","SEMP","2E - install, maintain, monitor, repair or service security equipment","Individual","1","3","Stephen Michael SHIELDS",,,,,,"2025-05-11T00:00:00.000","2013-04-22T00:00:00.000"
"17717425","SEMP","1C - act as a crowd controller","Individual","2","2","VARINDER  SINGH",,,,,,"2025-05-11T00:00:00.000","2012-05-10T00:00:00.000"
"17724202","SEMP","2D - give advice about security equipment","Individual","5","5","Cornelius Bradley MCGARRITY",,,,,,"2025-05-11T00:00:00.000","2018-08-27T00:00:00.000"
"17702344","SEMP","1C - act as a crowd controller","Individual","1","2","Zoe  MISOSSIOU",,,,,,"2025-05-11T00:00:00.000","1998-12-22T00:00:00.000"
"17723218","SEMP","1E - act as a monitoring centre operator","Individual","3","3","Sina  TAGHAVI",,,,,,"2025-05-11T00:00:00.000","2018-05-11T00:00:00.000"
"17725963","SEMP","1C - act as a crowd controller","Individual","2","3","Sumodh  PALLIPARAMBIL JOHN",,,,,,"2025-05-11T00:00:00.000","2020-05-11T00:00:00.000"
"17725961","SEMP","1A - patrol, guard, watch or protect property (including cash in transit)","Individual","1","2","Qasim  RAHEEM",,,,,,"2025-05-11T00:00:00.000","2020-05-11T00:00:00.000"
"17720870","SEMP","2D - give advice about security equipment","Individual","4","4","Beau William BUNT",,,,,,"2025-05-11T00:00:00.000","2016-04-08T00:00:00.000"
"17725963","SEMP","1E - act as a monitoring centre operator","Individual","3","3","Sumodh  PALLIPARAMBIL JOHN",,,,,,"2025-05-11T00:00:00.000","2020-05-11T00:00:00.000"
"17727092","SEMP","1C - act as a crowd controller","Individual","2","3","Anmol  GUPTA",,,,,,"2025-05-11T00:00:00.000","2021-05-04T00:00:00.000"
"17800029","STRN","1C - act as a crowd controller","Individual","3","9","Peter  KATEMIS",,,,,,"2025-05-11T00:00:00.000","2005-03-22T00:00:00.000"
"17717370","SEMP","2E - install, maintain, monitor, repair or service security equipment","Individual","4","4","Garth Stephen BARBER",,,,,,"2025-05-11T00:00:00.000",
"17800029","STRN","2A - acts as a security consultant","Individual","4","9","Peter  KATEMIS",,,,,,"2025-05-11T00:00:00.000","2005-03-22T00:00:00.000"
"17720368","SEMP","1A - patrol, guard, watch or protect property (including cash in transit)","Individual","1","1","Jamie Kenneth WILSON",,,,,,"2025-05-11T00:00:00.000","2015-07-16T00:00:00.000"
"17727092","SEMP","1A - patrol, guard, watch or protect property (including cash in transit)","Individual","1","3","Anmol  GUPTA",,,,,,"2025-05-11T00:00:00.000","2021-05-04T00:00:00.000"
"17720899","SEMP","1A - patrol, guard, watch or protect property (including cash in transit)","Individual","1","2","Simon Oskar WILSON",,,,,,"2025-05-11T00:00:00.000","2016-03-18T00:00:00.000"
"17711782","SEMP","1A - patrol, guard, watch or protect property (including cash in transit)","Individual","1","2","Brett Robert SHAW",,,,,,"2025-05-11T00:00:00.000","2008-05-12T00:00:00.000"
"17502400","SMAS","Security Master","Company","1","1","OBERIX GROUP PTY LTD","ALERTON AUSTRALIA, OPERATIONAL INTELLIGENCE","22 Mcintyre Street","BURWOOD","VIC","3125","2025-05-11T00:00:00.000","2016-05-12T00:00:00.000"
"17720899","SEMP","1C - act as a crowd controller","Individual","2","2","Simon Oskar WILSON",,,,,,"2025-05-11T00:00:00.000","2016-03-18T00:00:00.000"
"17717370","SEMP","2C - carry out surveys and inspections of security equipment","Individual","2","4","Garth Stephen BARBER",,,,,,"2025-05-11T00:00:00.000",
"17800029","STRN","2E - install, maintain, monitor, repair or service security equipment","Individual","8","9","Peter  KATEMIS",,,,,,"2025-05-11T00:00:00.000","2005-03-22T00:00:00.000"
"17728103","SEMP","1C - act as a crowd controller","Individual","1","3","Bhishup  ABICHANDANI",,,,,,"2025-05-11T00:00:00.000","2022-05-12T00:00:00.000"
"17710787","SEMP","1A - patrol, guard, watch or protect property (including cash in transit)","Individual","1","1","Stephen Terence MCDONALD",,,,,,"2025-05-11T00:00:00.000","2007-05-09T00:00:00.000"
"17717370","SEMP","2D - give advice about security equipment","Individual","3","4","Garth Stephen BARBER",,,,,,"2025-05-11T00:00:00.000",
"17724202","SEMP","1C - act as a crowd controller","Individual","3","5","Cornelius Bradley MCGARRITY",,,,,,"2025-05-11T00:00:00.000","2018-08-27T00:00:00.000"
"17723995","SEMP","2B - sell security equipment","Individual","1","4","Joshua Richard Livermore",,,,,,"2025-05-11T00:00:00.000","2019-01-10T00:00:00.000"
"17502185","SMAS","Security Master","Company","1","1","DORMAKABA AUSTRALIA PTY LTD","DORMAKABA AUSTRALIA PTY LTD","52 Abbott Road","HALLAM","VIC","3803","2025-05-11T00:00:00.000","2013-04-19T00:00:00.000"
"17724202","SEMP","1A - patrol, guard, watch or protect property (including cash in transit)","Individual","1","5","Cornelius Bradley MCGARRITY",,,,,,"2025-05-11T00:00:00.000","2018-08-27T00:00:00.000"
"17717421","SEMP","2D - give advice about security equipment","Individual","3","3","Christopher  LA GRECA",,,,,,"2025-05-11T00:00:00.000","2012-05-09T00:00:00.000"
"17720870","SEMP","2E - install, maintain, monitor, repair or service security equipment","Individual","1","4","Beau William BUNT",,,,,,"2025-05-11T00:00:00.000","2016-04-08T00:00:00.000"
"17720970","SEMP","1A - patrol, guard, watch or protect property (including cash in transit)","Individual","1","2","Kevin James ALLAN",,,,,,"2025-05-11T00:00:00.000","2016-04-20T00:00:00.000"
"17728103","SEMP","1A - patrol, guard, watch or protect property (including cash in transit)","Individual","3","3","Bhishup  ABICHANDANI",,,,,,"2025-05-11T00:00:00.000","2022-05-12T00:00:00.000"
"17800029","STRN","1E - act as a monitoring centre operator","Individual","9","9","Peter  KATEMIS",,,,,,"2025-05-11T00:00:00.000","2005-03-22T00:00:00.000"
"17720970","SEMP","1C - act as a crowd controller","Individual","2","2","Kevin James ALLAN",,,,,,"2025-05-11T00:00:00.000","2016-04-20T00:00:00.000"
"17723995","SEMP","2D - give advice about security equipment","Individual","3","4","Joshua Richard Livermore",,,,,,"2025-05-11T00:00:00.000","2019-01-10T00:00:00.000"
"17728106","SEMP","1C - act as a crowd controller","Individual","2","2","Baljinder  SINGH",,,,,,"2025-05-11T00:00:00.000","2022-05-12T00:00:00.000"
"17800029","STRN","1B - act as a bodyguard","Individual","2","9","Peter  KATEMIS",,,,,,"2025-05-11T00:00:00.000","2005-03-22T00:00:00.000"
"17800029","STRN","2C - carry out surveys and inspections of security equipment","Individual","6","9","Peter  KATEMIS",,,,,,"2025-05-11T00:00:00.000","2005-03-22T00:00:00.000"
"17727097","SEMP","1C - act as a crowd controller","Individual","2","3","Hardeep Singh SAHOTA",,,,,,"2025-05-11T00:00:00.000","2021-05-05T00:00:00.000"
"17502388","SMAS","Security Master","Company","1","1","CAPITAL CROWD CONTROL PTY. LTD.","CAPITAL CROWD CONTROL PTY LTD","84A MCMICHAEL TCE","DENMAN PROSPECT","ACT","2611","2025-05-11T00:00:00.000","2016-04-01T00:00:00.000"
"17720870","SEMP","2B - sell security equipment","Individual","2","4","Beau William BUNT",,,,,,"2025-05-11T00:00:00.000","2016-04-08T00:00:00.000"
"17725961","SEMP","1C - act as a crowd controller","Individual","2","2","Qasim  RAHEEM",,,,,,"2025-05-11T00:00:00.000","2020-05-11T00:00:00.000"
"17717294","SEMP","1A - patrol, guard, watch or protect property (including cash in transit)","Individual","1","2","Sharath Babu VUNGARALA",,,,,,"2025-05-11T00:00:00.000","2012-03-30T00:00:00.000"
"17724202","SEMP","1B - act as a bodyguard","Individual","2","5","Cornelius Bradley MCGARRITY",,,,,,"2025-05-11T00:00:00.000","2018-08-27T00:00:00.000"
