"office","ward","financial_statement_type","candidate_name","donor","address","city","province","donation"
"Mayor",,"Disclosure","Kerry Diotte","Aurum Industrial Development Partnership","777 Heritage Drive SE","Calgary","AB","1000"
"Mayor",,"Disclosure","Kerry Diotte","Named Individual",,"Calgary","AB","1000"
"Mayor",,"Disclosure","Kerry Diotte","Walton Development & Management LP","22nd Floor, 605 5th Ave SW","Calgary","AB","5000"
"Mayor",,"Disclosure","Kerry Diotte","Northern Premier Investments Ltd","305, 1822 10th Ave SW","Calgary","AB","500"
"Mayor",,"Disclosure","Kerry Diotte",,,"Innisfail","AB","5000"
"Mayor",,"Disclosure","Kerry Diotte",,,"Edmonton","AB","120"
"Mayor",,"Disclosure","Kerry Diotte","Filing Store Inc","6633 118 Ave","Edmonton","AB","1000"
"Mayor",,"Disclosure","Kerry Diotte",,,"Edmonton","AB","200"
"Mayor",,"Disclosure","Kerry Diotte",,,"Edmonton","AB","200"
"Mayor",,"Disclosure","Kerry Diotte",,,"Edmonton","AB","300"
"Mayor",,"Disclosure","Kerry Diotte",,,"Edmonton","AB","599"
"Mayor",,"Disclosure","Kerry Diotte","Tellurion Solutions","11849 94 Str NW","Edmonton","AB","150"
"Mayor",,"Disclosure","Kerry Diotte","Airco Aircraft Charters Ltd","Building #6, 11930 109 Str","Edmonton","AB","1000"
"Mayor",,"Disclosure","Kerry Diotte","Chateau Louis","11727 Kingsway","Edmonton","AB","1000"
"Mayor",,"Disclosure","Kerry Diotte","Named Individual",,"Edmonton","AB","500"
"Mayor",,"Disclosure","Kerry Diotte","MLC Group Inc","1000, 10104 103 Ave NW","Edmonton","AB","3500"
"Mayor",,"Disclosure","Kerry Diotte","MLC Land Company Inc","Ste 1000, 10104-103 Ave","Edmonton","AB","2000"
"Mayor",,"Disclosure","Kerry Diotte","Canterra Developments Corp","1820, 10104 103 Ave NW","Edmonton","AB","1000"
"Mayor",,"Disclosure","Kerry Diotte","Palisades Land Company Inc","1000, 10104 103 Ave NW","Edmonton","AB","250"
"Mayor",,"Disclosure","Kerry Diotte","Walker Lakes East Ltd.","1000, 10104 103 Ave NW","Edmonton","AB","250"
"Mayor",,"Disclosure","Kerry Diotte","Brookfield Residential (Alberta) LP","200, 10414 103 Ave NW","Edmonton","AB","1000"
"Mayor",,"Disclosure","Kerry Diotte","Named Individual",,"Edmonton","AB","2000"
"Mayor",,"Disclosure","Kerry Diotte","Named Individual",,"Edmonton","AB","125"
"Mayor",,"Disclosure","Kerry Diotte","ParioPlan Inc","605, 10080 Jasper Ave NW","Edmonton","AB","1000"
"Mayor",,"Disclosure","Kerry Diotte","Melcor Developments Ltd","#900, 10310 Jasper Ave","Edmonton","AB","1000"
"Mayor",,"Disclosure","Kerry Diotte","United Communities LP Edmonton Land","Ste 503, 10109 106 Str","Edmonton","AB","2000"
"Mayor",,"Disclosure","Kerry Diotte","Dundee Realty Corporation","Ste 1550, 10250-101 Str","Edmonton","AB","5000"
"Mayor",,"Disclosure","Kerry Diotte","Chadi & Company Barristers & Solicitors","1901 Tower Two, Scotia Place, 10060 Jasper Ave","Edmonton","AB","1000"
"Mayor",,"Disclosure","Kerry Diotte","Chadi Land Company Inc","Suite 2151, Scotia Place, 10060 Jasper Ave","Edmonton","AB","1000"
"Mayor",,"Disclosure","Kerry Diotte","Canada ICI Capital Corporation","3540, 10180 101 Str","Edmonton","AB","1000"
"Mayor",,"Disclosure","Kerry Diotte","Named Individual",,"Edmonton","AB","1000"
"Mayor",,"Disclosure","Kerry Diotte","Yorkton Group International Ltd","2430 Manulife Place, 10108-101 Str","Edmonton","AB","1000"
"Mayor",,"Disclosure","Kerry Diotte","Parker Ford & MacKay Speciality Opticians Ltd","10665 Jasper Ave","Edmonton","AB","5000"
"Mayor",,"Disclosure","Kerry Diotte","Duncan Craig LLP","2800 Scotia Place, 10060 Jasper Ave NW","Edmonton","AB","500"
"Mayor",,"Disclosure","Kerry Diotte","Atrium Energy Park","300 Manulife Place 10180 101 Str NW","Edmonton","AB","1000"
"Mayor",,"Disclosure","Kerry Diotte","Named Individual",,"Edmonton","AB","500"
"Mayor",,"Disclosure","Kerry Diotte","Miller Thomson","Commerce Place, Ste 2700, 10155 102 Str","Edmonton","AB","300"
"Mayor",,"Disclosure","Kerry Diotte","D.I.A. Holdings Ltd","11219 100 Ave NW","Edmonton","AB","1500"
"Mayor",,"Disclosure","Kerry Diotte","Cameron Heights Joint Venture","11219 100 Ave NW","Edmonton","AB","1000"
"Mayor",,"Disclosure","Kerry Diotte","RGG Management Ltd","Ste 308, 11523 100 Ave","Edmonton","AB","1000"
"Mayor",,"Disclosure","Kerry Diotte","Koester Realty Limited","201, 11209 Jasper Ave","Edmonton","AB","300"
"Mayor",,"Disclosure","Kerry Diotte","Cameron Development Corporation","10180 111 Str NW","Edmonton","AB","5000"
"Mayor",,"Disclosure","Kerry Diotte","Named Individual",,"Edmonton","AB","300"
"Mayor",,"Disclosure","Kerry Diotte","Bernie's Hot Tub","14829 123 Ave NW","Edmonton","AB","200"
"Mayor",,"Disclosure","Kerry Diotte","Scheffer Andrew Ltd","12204 145 Str NW","Edmonton","AB","1000"
"Mayor",,"Disclosure","Kerry Diotte","Named Individual",,"Edmonton","AB","300"
"Mayor",,"Disclosure","Kerry Diotte","WJM Holdings Ltd","16004 114 Ave","Edmonton","AB","5000"
"Mayor",,"Disclosure","Kerry Diotte","Named Individual",,"Edmonton","AB","200"
"Mayor",,"Disclosure","Kerry Diotte","Named Individual",,"Edmonton","AB","198"
"Mayor",,"Disclosure","Kerry Diotte","Kortech Calcium Services Ltd","15548 Stony Plain Road NW","Edmonton","AB","1000"
"Mayor",,"Disclosure","Kerry Diotte","Deford Contracting Inc","16720 109 Ave","Edmonton","AB","5000"
"Mayor",,"Disclosure","Kerry Diotte","Named Individual",,"Edmonton","AB","5000"
"Mayor",,"Disclosure","Kerry Diotte","Named Individual",,"Edmonton","AB","1000"
"Mayor",,"Disclosure","Kerry Diotte","MacLab Enterprises","P.O. Box 3160","Edmonton","AB","2000"
"Mayor",,"Disclosure","Kerry Diotte","Named Individual",,"Edmonton","AB","250"
"Mayor",,"Disclosure","Kerry Diotte","Beaverbrook Charlesworth Ltd","17515 108 Ave NW","Edmonton","AB","250"
"Mayor",,"Disclosure","Kerry Diotte","Beaverbrook Hudson II Ltd","17515 108 Ave NW","Edmonton","AB","250"
"Mayor",,"Disclosure","Kerry Diotte","Beaverbrook Rivers Edge Ltd","17515 108 Ave NW","Edmonton","AB","250"
"Mayor",,"Disclosure","Kerry Diotte","Beaverbrook Windermere Ltd","17515 108 Ave NW","Edmonton","AB","250"
"Mayor",,"Disclosure","Kerry Diotte","Reid Built Homes Ltd","18140 107 Ave","Edmonton","AB","1000"
"Mayor",,"Disclosure","Kerry Diotte","G3 Development Services Inc","Suite 204, 17220 Stony Plain Road","Edmonton","AB","300"
"Mayor",,"Disclosure","Kerry Diotte","All Weather Windows Ltd","18550 118A Ave","Edmonton","AB","1500"
"Mayor",,"Disclosure","Kerry Diotte","Named Individual",,"Edmonton","AB","500"
"Mayor",,"Disclosure","Kerry Diotte","7 Crowns Corporation","3000, 8882 170 Str","Edmonton","AB","5000"
"Mayor",,"Disclosure","Kerry Diotte","Named Individual",,"Edmonton","AB","5000"
"Mayor",,"Disclosure","Kerry Diotte","Named Individual",,"Edmonton","AB","250"
"Mayor",,"Disclosure","Kerry Diotte","Named Individual",,"Edmonton","AB","200"
"Mayor",,"Disclosure","Kerry Diotte","Named Individual",,"Edmonton","AB","200"
"Mayor",,"Disclosure","Kerry Diotte","Named Individual",,"Edmonton","AB","300"
"Mayor",,"Disclosure","Kerry Diotte","Named Individual",,"Edmonton","AB","500"
"Mayor",,"Disclosure","Kerry Diotte","One To One Mailing Inc.","4320 81 Ave","Edmonton","AB","250"
"Mayor",,"Disclosure","Kerry Diotte","Whitemud Dr. Amusement Park Ltd","7411 51 Ave NW","Edmonton","AB","250"
"Mayor",,"Disclosure","Kerry Diotte","DFI Corporation","3403 74 Ave NW","Edmonton","AB","5000"
"Mayor",,"Disclosure","Kerry Diotte","Al-Terra Engineering Ltd","5307 47 Str","Edmonton","AB","500"
"Mayor",,"Disclosure","Kerry Diotte","Named Individual",,"Edmonton","AB","150"
"Mayor",,"Disclosure","Kerry Diotte","Named Individual",,"Edmonton","AB","600"
"Mayor",,"Disclosure","Kerry Diotte","1570382 Alberta Ltd","8728 66 Ave NW","Edmonton","AB","300"
"Mayor",,"Disclosure","Kerry Diotte","Thierman Construction Ltd","10353 71 Ave","Edmonton","AB","1000"
"Mayor",,"Disclosure","Kerry Diotte","1059215 Alberta Ltd O/A Von's Steak House & Oyster Bar","10309 81 Ave","Edmonton","AB","1000"
"Mayor",,"Disclosure","Kerry Diotte","Cook County Saloon","8010 Gateway Blvd","Edmonton","AB","1000"
"Mayor",,"Disclosure","Kerry Diotte","Delcon Development Group Ltd","Suite 400, 10508 82 Ave","Edmonton","AB","5000"
"Mayor",,"Disclosure","Kerry Diotte","Liquor Depot Stores GP","Suite 300, 10508 82 Ave","Edmonton","AB","2500"
"Mayor",,"Disclosure","Kerry Diotte","Sherrick Management Limited","420, 10508 82 Ave NW","Edmonton","AB","2000"
"Mayor",,"Disclosure","Kerry Diotte","Don Wheaton Ltd","10727 82 Ave","Edmonton","AB","5000"
"Mayor",,"Disclosure","Kerry Diotte","Named Individual",,"Edmonton","AB","200"
"Mayor",,"Disclosure","Kerry Diotte","Named Individual",,"Edmonton","AB","200"
"Mayor",,"Disclosure","Kerry Diotte","D.E.S Engineering Ltd","8407A Coronet Road","Edmonton","AB","1000"
"Mayor",,"Disclosure","Kerry Diotte","Stewart's Tire Inc","8405 Wagner Road","Edmonton","AB","500"
"Mayor",,"Disclosure","Kerry Diotte","Christenson Equities Ltd","5410 97 St","Edmonton","AB","3000"
"Mayor",,"Disclosure","Kerry Diotte","Named Individual",,"Edmonton","AB","500"
"Mayor",,"Disclosure","Kerry Diotte","Named Individual",,"Edmonton","AB","200"
"Mayor",,"Disclosure","Kerry Diotte","Crystal Glass Canada Ltd","6424 Gateway Blvd NW","Edmonton","AB","5000"
"Mayor",,"Disclosure","Kerry Diotte","A.H Cetinski Professional Corp","6025 103A Str","Edmonton","AB","500"
"Mayor",,"Disclosure","Kerry Diotte","P.C. Com Ltd","6029 104 Str","Edmonton","AB","1000"
"Mayor",,"Disclosure","Kerry Diotte","Physique Fitness Stores","6304 Calgary Trail South","Edmonton","AB","1000"
"Mayor",,"Disclosure","Kerry Diotte","Named Individual",,"Edmonton","AB","300"
"Mayor",,"Disclosure","Kerry Diotte","Named Individual",,"Edmonton","AB","625"
"Mayor",,"Disclosure","Kerry Diotte","Named Individual",,"Edmonton","AB","200"
"Mayor",,"Disclosure","Kerry Diotte","E. Bean Holdings Ltd","6403 Grandview Drive","Edmonton","AB","5000"
"Mayor",,"Disclosure","Kerry Diotte","Named Individual",,"Edmonton","AB","125"
"Mayor",,"Disclosure","Kerry Diotte","Named Individual",,"Edmonton","AB","500"
"Mayor",,"Disclosure","Kerry Diotte","Named Individual",,"Edmonton","AB","250"
"Mayor",,"Disclosure","Kerry Diotte","Named Individual",,"Edmonton","AB","525"
"Mayor",,"Disclosure","Kerry Diotte","Named Individual",,"Edmonton","AB","5000"
"Mayor",,"Disclosure","Kerry Diotte","Named Individual",,"Edmonton","AB","250"
"Mayor",,"Disclosure","Kerry Diotte","Named Individual",,"Edmonton","AB","200"
"Mayor",,"Disclosure","Kerry Diotte","Named Individual",,"Edmonton","AB","500"
"Mayor",,"Disclosure","Kerry Diotte","Rosenau Transport Ltd","200, 2950 Parsons Road","Edmonton","AB","2000"
"Mayor",,"Disclosure","Kerry Diotte","Named Individual",,"Edmonton","AB","9000"
"Mayor",,"Disclosure","Kerry Diotte","Named Individual",,"Edmonton","AB","250"
"Mayor",,"Disclosure","Kerry Diotte","Named Individual",,"Edmonton","AB","1000"
"Mayor",,"Disclosure","Kerry Diotte","Named Individual",,"Edmonton","AB","500"
"Mayor",,"Disclosure","Kerry Diotte","Kossowan Holdings Inc","1758 Haswell Cove NW","Edmonton","AB","1000"
"Mayor",,"Disclosure","Kerry Diotte","Named Individual",,"Edmonton","AB","198"
"Mayor",,"Disclosure","Kerry Diotte","Named Individual",,"Edmonton","AB","200"
"Mayor",,"Disclosure","Kerry Diotte","Named Individual",,"Edmonton","AB","200"
"Mayor",,"Disclosure","Kerry Diotte","Named Individual",,"Edmonton","AB","1000"
"Mayor",,"Disclosure","Kerry Diotte","Perry Built Homes Inc","101, 1289 91 Str","Edmonton","AB","1000"
"Mayor",,"Disclosure","Kerry Diotte","David Considine",,"Spruce Grove","AB","950"
"Mayor",,"Disclosure","Don Iveson","Cameron Gertz",,"Edmonton","AB","200"
"Mayor",,"Disclosure","Kerry Diotte","Tyler Perozni Professional Corp","202, 636 King Str","Spruce Grove","AB","500"
"Mayor",,"Disclosure","Kerry Diotte","Dean & Raili Ruttan",,"Fort Saskatchewan","AB","200"
"Mayor",,"Disclosure","Kerry Diotte","Werner Harder",,"Edmonton","AB","1000"
"Mayor",,"Disclosure","Don Iveson","1014369 Alberta Ltd O/A Diamond Carpet","6334 Davies Road NW","Edmonton","AB","500"
"Mayor",,"Disclosure","Don Iveson","1014369 Alberta Ltd O/A Diamond Carpet","6334 Davies Road NW","Edmonton","AB","500"
"Mayor",,"Disclosure","Don Iveson","1103805 Alberta Ltd","1700, 10123 99 Str NW","Edmonton","AB","2000"
"Mayor",,"Disclosure","Don Iveson","1306039 Alberta Ltd","9258 34 Ave","Edmonton","AB","5000"
"Mayor",,"Disclosure","Don Iveson","1307106 Alberta Ltd","2722 48 Str NW","Edmonton","AB","140"
"Mayor",,"Disclosure","Don Iveson","1557095 Alberta Ltd","4344 49 Str NW","Edmonton","AB","300"
"Mayor",,"Disclosure","Don Iveson","1743134 Alberta Ltd","2431 Martell Cres NW","Edmonton","AB","1000"
"Mayor",,"Disclosure","Don Iveson","7 Crowns Corporation","3000, 8882 170 Str NW","Edmonton","AB","5000"
"Mayor",,"Disclosure","Don Iveson","726751 Alberta Ltd","2100 Premier Way","Sherwood Park","AB","5000"
"Mayor",,"Disclosure","Don Iveson","A.B.S. Trucking Ltd","16124 76 Str NW","Edmonton","AB","5000"
"Mayor",,"Disclosure","Don Iveson","Abbas Riaz",,"Edmonton","AB","250"
"Mayor",,"Disclosure","Don Iveson","Abbey Lane Homes","200, 10568 109 Str NW","Edmonton","AB","1000"
"Mayor",,"Disclosure","Don Iveson","Active Homes","3606 28A Str NW","Edmonton","AB","1000"
"Mayor",,"Disclosure","Don Iveson","Adam Rozenhart",,"Edmonton","AB","340"
"Mayor",,"Disclosure","Don Iveson","AFL","10654 101 Str NW","Edmonton","AB","1500"
"Mayor",,"Disclosure","Don Iveson","Alberta and NWT Building and Construction Trades Council","11635 160 Str NW","Edmonton","AB","1000"
"Mayor",,"Disclosure","Don Iveson","Alberta Traffic Supply Ltd","9015 14 Str NW","Edmonton","AB","5000"
"Mayor",,"Disclosure","Don Iveson","Alexander D. Pringle Professional Corp","300, 10150 100 Str NW","Edmonton","AB","500"
"Mayor",,"Disclosure","Don Iveson","Alison Faid",,"Edmonton","AB","110"
"Mayor",,"Disclosure","Don Iveson","All Weather Windows Ltd","18550 118A Ave NW","Edmonton","AB","1500"
"Mayor",,"Disclosure","Don Iveson","Allan Wachowich",,"Edmonton","AB","200"
"Mayor",,"Disclosure","Don Iveson","Allen R. Evaniew Professional Corp","2200, 10155 102 Str NW","Edmonton","AB","1000"
"Mayor",,"Disclosure","Don Iveson","Allie Wojtaszek",,"Edmonton","AB","120"
"Mayor",,"Disclosure","Don Iveson","Al-Terra Engineering Ltd","5307 47 Str NW","Edmonton","AB","495"
"Mayor",,"Disclosure","Don Iveson","Altitude Investments Ltd","430 Olsen Close","Edmonton","AB","5000"
"Mayor",,"Disclosure","Don Iveson","Amalgamated Transit Union Local 569","10540 108 Str NW","Edmonton","AB","5000"
"Mayor",,"Disclosure","Don Iveson","Andrew McCready",,"Edmonton","AB","200"
"Mayor",,"Disclosure","Don Iveson","Andrew Prochazka",,"Edmonton","AB","500"
"Mayor",,"Disclosure","Don Iveson","Angela Blais",,"Edmonton","AB","1000"
"Mayor",,"Disclosure","Don Iveson","Angus Watt Enterprises Inc","194 Wolf Willow Cres","Edmonton","AB","2500"
"Mayor",,"Disclosure","Don Iveson","Annie Idicula",,"Edmonton","AB","500"
"Mayor",,"Disclosure","Don Iveson","Arrow Engineering Inc","202, 13167 146 Str","Edmonton","AB","500"
"Mayor",,"Disclosure","Don Iveson","Arttec Advertising Inc","10646 178 Str NW","Edmonton","AB","1000"
"Mayor",,"Disclosure","Don Iveson","Asha Gidwaney",,"Edmonton","AB","1000"
"Mayor",,"Disclosure","Don Iveson","Asima Shahzadi",,"Edmonton","AB","200"
"Mayor",,"Disclosure","Don Iveson","Atb Architecture","10315 109 Str NW","Edmonton","AB","2000"
"Mayor",,"Disclosure","Don Iveson","Aurum Industrial Development Partnership","3400, 10180 101 Str NW","Edmonton","AB","5000"
"Mayor",,"Disclosure","Don Iveson","Avillia Developments Ltd","717 Hollingsworth Green NW","Edmonton","AB","400"
"Mayor",,"Disclosure","Don Iveson","Avison Young Real Estate","2800, 10104 103 Ave NW","Edmonton","AB","1000"
"Mayor",,"Disclosure","Don Iveson","Ayaz Bhanji",,"Edmonton","AB","250"
"Mayor",,"Disclosure","Don Iveson","Baramy Investments","2120, 10060 Jasper Ave NW","Edmonton","AB","2995"
"Mayor",,"Disclosure","Don Iveson","Barry and Maureen Schloss",,"Edmonton","AB","500"
"Mayor",,"Disclosure","Don Iveson","Barry Cavanaugh",,"Edmonton","AB","250"
"Mayor",,"Disclosure","Don Iveson","Barry Cavanaugh",,"Edmonton","AB","157"
"Mayor",,"Disclosure","Don Iveson","Barry L. James Professional Corp","8928 Valleyview Dr NW","Edmonton","AB","250"
"Mayor",,"Disclosure","Don Iveson","Barry Zalmanowitz Professional Corp","2900, 10180 101 Str NW","Edmonton","AB","750"
"Mayor",,"Disclosure","Don Iveson","Battle Lake Design Group Inc","Site 6, Box 7, R.R. 1","Westerose","AB","250"
"Mayor",,"Disclosure","Don Iveson","Beaverbrook Developments","17515 108 Ave NW","Edmonton","AB","4998"
"Mayor",,"Disclosure","Don Iveson","Bennett Jones",,"Edmonton","AB","1000"
"Mayor",,"Disclosure","Don Iveson","Berlin Advertising and Public Relations Inc","Unit B, 10187 104 Str NW","Edmonton","AB","500"
"Mayor",,"Disclosure","Don Iveson","Bildhauer Construction","51524 Range Road 265","Spruce Grove","AB","250"
"Mayor",,"Disclosure","Don Iveson","Bill Bright",,"Edmonton","AB","250"
"Mayor",,"Disclosure","Don Iveson","Bill Grace",,"Edmonton","AB","250"
"Mayor",,"Disclosure","Don Iveson","Bill Winter",,"Edmonton","AB","5000"
"Mayor",,"Disclosure","Don Iveson","Bishop McKenzie",,"Edmonton","AB","2500"
"Mayor",,"Disclosure","Don Iveson","Bob Bessette",,"Edmonton","AB","2500"
"Mayor",,"Disclosure","Don Iveson","Bob Hawkesworth",,"Calgary","AB","250"
"Mayor",,"Disclosure","Don Iveson","Bob Kamp",,"Edmonton","AB","250"
"Mayor",,"Disclosure","Don Iveson","Bob McNally",,"Edmonton","AB","500"
"Mayor",,"Disclosure","Don Iveson","Bonnie Andrais",,"Edmonton","AB","250"
"Mayor",,"Disclosure","Don Iveson","Braden Equities Inc","10340 124 Str NW","Edmonton","AB","500"
"Mayor",,"Disclosure","Don Iveson","Brandon Kot",,"Edmonton","AB","500"
"Mayor",,"Disclosure","Don Iveson","Brian Heidecker",,"Edmonton","AB","500"
"Mayor",,"Disclosure","Don Iveson","Brian Kropf",,"Edmonton","AB","101"
"Mayor",,"Disclosure","Don Iveson","Brian Loewen",,"Edmonton","AB","250"
"Mayor",,"Disclosure","Don Iveson","Brian Stonehocker",,"Edmonton","AB","750"
"Mayor",,"Disclosure","Don Iveson","Brijendra Rawat",,"Edmonton","AB","500"
"Mayor",,"Disclosure","Don Iveson","Brinsmead Kennedy Architecture","10434 122 Str NW","Edmonton","AB","5000"
"Mayor",,"Disclosure","Don Iveson","Brookfield Residential (Alberta)","200, 10414 103 Ave NW","Edmonton","AB","5000"
"Mayor",,"Disclosure","Don Iveson","Bruce Johnson",,"Sherwood Park","AB","5000"
"Mayor",,"Disclosure","Don Iveson","Bruce King",,"Edmonton","AB","150"
"Mayor",,"Disclosure","Don Iveson","Bryan Taylor",,"Edmonton","AB","120"
"Mayor",,"Disclosure","Don Iveson","Bunt & Associates","504, Princeton Place 10339 124 Str NW","Edmonton","AB","495"
"Mayor",,"Disclosure","Don Iveson","Butch Fox",,"Fort McMurray","AB","200"
"Mayor",,"Disclosure","Don Iveson","C.W. Eavestroughing Inc.","8215 Davies Road NW","Edmonton","AB","200"
"Mayor",,"Disclosure","Don Iveson","Callidus Development","6159 Stinson Way NW","Edmonton","AB","200"
"Mayor",,"Disclosure","Don Iveson","Cameron & Laura Schuler",,"Edmonton","AB","500"
"Mayor",,"Disclosure","Don Iveson","Cameron Barr",,"Edmonton","AB","150"
"Mayor",,"Disclosure","Don Iveson","Cameron Development Corp","10180 111 Str NW","Edmonton","AB","5000"
"Mayor",,"Disclosure","Don Iveson","Canada I.C.I Capital Corp","3540, 10180 101 Str NW","Edmonton","AB","2995"
"Mayor",,"Disclosure","Don Iveson","Canadian Union of Public Employees Local 30","102, 10425 Princess Elizabeth Ave","Edmonton","AB","5000"
"Mayor",,"Disclosure","Don Iveson","Cancom Development Ltd","20, 3908 97 Str NW","Edmonton","AB","495"
"Mayor",,"Disclosure","Don Iveson","Canterra Developments Corp","1820, 10104 103 Ave NW","Edmonton","AB","2000"
"Mayor",,"Disclosure","Don Iveson","Carl Amrhein",,"Edmonton","AB","1000"
"Mayor",,"Disclosure","Don Iveson","Carl Wurfel",,"Edmonton","AB","300"
"Mayor",,"Disclosure","Don Iveson","Carla Odishaw",,"Edmonton","AB","150"
"Mayor",,"Disclosure","Don Iveson","Carman R. McNary Professional Corp","2900, 10180 101 Str NW","Edmonton","AB","5000"
"Mayor",,"Disclosure","Don Iveson","Carol Suddards",,"Edmonton","AB","200"
"Mayor",,"Disclosure","Don Iveson","Carolyn Nielsen",,"Edmonton","AB","500"
"Mayor",,"Disclosure","Don Iveson","Carolyn Nutter",,"Edmonton","AB","500"
"Mayor",,"Disclosure","Don Iveson","Carolynn Archibald",,"Edmonton","AB","250"
"Mayor",,"Disclosure","Don Iveson","Catrin Berghoff",,"Edmonton","AB","317"
"Mayor",,"Disclosure","Don Iveson","Catrin Owen",,"Edmonton","AB","500"
"Mayor",,"Disclosure","Don Iveson","Century Hospitality Group","2550, 10155 102 Str NW","Edmonton","AB","1500"
"Mayor",,"Disclosure","Don Iveson","Charlotte Robb",,"Edmonton","AB","1000"
"Mayor",,"Disclosure","Don Iveson","Chester Developments Ltd","Box 41048, Yellowbird RPO","Edmonton","AB","300"
"Mayor",,"Disclosure","Don Iveson","Chivers Carpenter Lawyers","101, 10426 81 Ave NW","Edmonton","AB","1000"
"Mayor",,"Disclosure","Don Iveson","Chris Bolivar",,"Edmonton","AB","500"
"Mayor",,"Disclosure","Don Iveson","Chris Vander Hoek",,"Edmonton","AB","204"
"Mayor",,"Disclosure","Don Iveson","Christenson Equities Ltd","5410 97 Str NW","Edmonton","AB","5000"
"Mayor",,"Disclosure","Don Iveson","Christian Idicula",,"Edmonton","AB","500"
"Mayor",,"Disclosure","Don Iveson","Coalition of Edmonton Civic Unions","102, 10425 Princess Elizabeth Ave","Edmonton","AB","5000"
"Mayor",,"Disclosure","Don Iveson","Cody Lakevold",,"Edmonton","AB","350"
"Mayor",,"Disclosure","Don Iveson","Colin Robertson",,"Edmonton","AB","250"
"Mayor",,"Disclosure","Don Iveson","Colleen Judge",,"Edmonton","AB","3500"
"Mayor",,"Disclosure","Don Iveson","Conroy Ross Partners Limited","720, 10180-101 Str NW","Edmonton","AB","2500"
"Mayor",,"Disclosure","Don Iveson","Context & Contacts Inc","14007 89 Ave NW","Edmonton","AB","1000"
"Mayor",,"Disclosure","Don Iveson","Cory Christopher Designs","10914 105 Ave NW","Edmonton","AB","2000"
"Mayor",,"Disclosure","Don Iveson","Cory Doll",,"Edmonton","AB","125"
"Mayor",,"Disclosure","Don Iveson","Cory Wosnack",,"Edmonton","AB","500"
"Mayor",,"Disclosure","Don Iveson","Cory Wosnack",,"Edmonton","AB","800"
"Mayor",,"Disclosure","Don Iveson","Courtyard by Marriott Edmonton West","205, 10423 178 Str NW","Edmonton","AB","250"
"Mayor",,"Disclosure","Don Iveson","Craig Wallace",,"Edmonton","AB","625"
"Mayor",,"Disclosure","Don Iveson","Cristina Stasia",,"Edmonton","AB","3657"
"Mayor",,"Disclosure","Don Iveson","Cushman & Wakefield","2300, 10123 99 Str NW","Edmonton","AB","990"
"Mayor",,"Disclosure","Don Iveson","D. Bruce Bentley",,"Edmonton","AB","500"
"Mayor",,"Disclosure","Don Iveson","D.E.S Engineering Ltd","8407A Coronet Road","Edmonton","AB","990"
"Mayor",,"Disclosure","Don Iveson","D.I.A. Holdings Ltd","11219 100 Ave NW","Edmonton","AB","5000"
"Mayor",,"Disclosure","Don Iveson","Dane Bullerwell",,"Edmonton","AB","250"
"Mayor",,"Disclosure","Don Iveson","Eden Montgomery",,"Edmonton","AB","750"
"Mayor",,"Disclosure","Don Iveson","Daniel Chivers Professional Corp","300, 10150 100 Str NW","Edmonton","AB","500"
"Mayor",,"Disclosure","Don Iveson","Daniel Eggert",,"Edmonton","AB","600"
"Mayor",,"Disclosure","Don Iveson","Danny Bigioni",,"Edmonton","AB","500"
"Mayor",,"Disclosure","Don Iveson","Daryl Prefontaine",,"Edmonton","AB","250"
"Mayor",,"Disclosure","Don Iveson","Dave Jordan",,"Edmonton","AB","500"
"Mayor",,"Disclosure","Don Iveson","Dave Siever",,"Edmonton","AB","1000"
"Mayor",,"Disclosure","Don Iveson","David Beatty",,"Edmonton","AB","400"
"Mayor",,"Disclosure","Don Iveson","David Finlay",,"Edmonton","AB","500"
"Mayor",,"Disclosure","Don Iveson","David Gibbens",,"Edmonton","AB","331"
"Mayor",,"Disclosure","Don Iveson","David Kahane",,"Edmonton","AB","750"
"Mayor",,"Disclosure","Don Iveson","David Low",,"Edmonton","AB","200"
"Mayor",,"Disclosure","Don Iveson","David Rostrup",,"Edmonton","AB","200"
"Mayor",,"Disclosure","Don Iveson","David Simpson",,"Edmonton","AB","150"
"Mayor",,"Disclosure","Don Iveson","David Sparrow",,"Edmonton","AB","250"
"Mayor",,"Disclosure","Don Iveson","David Ushko Professional Corp","645, 10665 Jasper Ave","Edmonton","AB","125"
"Mayor",,"Disclosure","Don Iveson","David Young",,"Edmonton","AB","1000"
"Mayor",,"Disclosure","Don Iveson","Dawson Wallace Construction","4611 Eleniak Road NW","Edmonton","AB","5000"
"Mayor",,"Disclosure","Don Iveson","Debrah Hubbard",,"St. Albert","AB","500"
"Mayor",,"Disclosure","Don Iveson","Delcon Capital","400, 10508 82 Ave NW","Edmonton","AB","5000"
"Mayor",,"Disclosure","Don Iveson","Delcon Capital","400, 10508 82 Ave NW","Edmonton","AB","2500"
"Mayor",,"Disclosure","Don Iveson","Dennis Mozak",,"Edmonton","AB","2500"
"Mayor",,"Disclosure","Don Iveson","Dialog","100, 10237 104 Str NW","Edmonton","AB","2000"
"Mayor",,"Disclosure","Don Iveson","Dianne Kipnes",,"Edmonton","AB","2500"
"Mayor",,"Disclosure","Don Iveson","DIRK Holdings","400, 10508 82 Ave NW","Edmonton","AB","2500"
"Mayor",,"Disclosure","Don Iveson","Don Carmichael",,"Edmonton","AB","500"
"Mayor",,"Disclosure","Don Iveson","Don McGarvey",,"Edmonton","AB","1000"
"Mayor",,"Disclosure","Don Iveson","Don Wheaton Ltd","10727 82 Ave","Edmonton","AB","5000"
"Mayor",,"Disclosure","Don Iveson","Don Wilson",,"Edmonton","AB","250"
"Mayor",,"Disclosure","Don Iveson","Donald Darnell",,"Edmonton","AB","150"
"Mayor",,"Disclosure","Don Iveson","Donald Macnab",,"Edmonton","AB","500"
"Mayor",,"Disclosure","Don Iveson","Doug Goss",,"Edmonton","AB","500"
"Mayor",,"Disclosure","Don Iveson","Douglas Ramsey",,"Edmonton","AB","150"
"Mayor",,"Disclosure","Don Iveson","Douglas Stollery",,"Edmonton","AB","1500"
"Mayor",,"Disclosure","Don Iveson","Inder Singh",,"Edmonton","AB","1000"
"Mayor",,"Disclosure","Don Iveson","Dr. J.D. DiBattista Engineering Ltd","637 Twin Brooks Bend NW","Edmonton","AB","500"
"Mayor",,"Disclosure","Don Iveson","Dr. Khalida Tariq",,"Edmonton","AB","1000"
"Mayor",,"Disclosure","Don Iveson","Dr. Muba Taher",,"Edmonton","AB","250"
"Mayor",,"Disclosure","Don Iveson","Dr. Ross Tsuyuki",,"Edmonton","AB","250"
"Mayor",,"Disclosure","Don Iveson","Dr. William Colmers",,"Edmonton","AB","200"
"Mayor",,"Disclosure","Don Iveson","DTZ Barnicke","602, 10104 103 Ave NW","Edmonton","AB","2500"
"Mayor",,"Disclosure","Don Iveson","Duncan Wojtaszek",,"Edmonton","AB","150"
"Mayor",,"Disclosure","Don Iveson","Dundee Realty","10250 101 St NW","Edmonton","AB","5000"
"Mayor",,"Disclosure","Don Iveson","Dwayne Pohranychny",,"Edmonton","AB","500"
"Mayor",,"Disclosure","Don Iveson","Ecco Properties Ltd","500 East Tower, 14310 111 Ave","Edmonton","AB","2500"
"Mayor",,"Disclosure","Don Iveson","Edmonton District Labour Council","101, 10425 Princess Elizabeth Ave","Edmonton","AB","720"
"Mayor",,"Disclosure","Don Iveson","Edmonton District Labour Council","101, 10425 Princess Elizabeth Ave","Edmonton","AB","4000"
"Mayor",,"Disclosure","Don Iveson","Edmonton Fire Fighters Union","200, 7024 101 Ave NW","Edmonton","AB","5000"
"Mayor",,"Disclosure","Don Iveson","Effect Home Builders","201, 8815 92 Str NW","Edmonton","AB","400"
"Mayor",,"Disclosure","Don Iveson","Elicia Holdings Ltd","188 Ambleside Dr SW","Edmonton","AB","1000"
"Mayor",,"Disclosure","Don Iveson","Elizabeth Maltby",,"Edmonton","AB","500"
"Mayor",,"Disclosure","Don Iveson","Ellen Schoeck",,"Edmonton","AB","500"
"Mayor",,"Disclosure","Don Iveson","Eng-Con Holdings Ltd","9211 48 Str NW","Edmonton","AB","500"
"Mayor",,"Disclosure","Don Iveson","Entity Homes Inc","200, 9054 51 Ave NW","Edmonton","AB","1000"
"Mayor",,"Disclosure","Don Iveson","Eric Young",,"Edmonton","AB","500"
"Mayor",,"Disclosure","Don Iveson","Erik Backstrom",,"Edmonton","AB","250"
"Mayor",,"Disclosure","Don Iveson","Esther Ondrack",,"Spruce Grove","AB","500"
"Mayor",,"Disclosure","Don Iveson","Feizal Chatur",,"Edmonton","AB","500"
"Mayor",,"Disclosure","Don Iveson","Focus Corp","300, 9925 109 Str NW","Edmonton","AB","4000"
"Mayor",,"Disclosure","Don Iveson","Frances Blondheim",,"Edmonton","AB","500"
"Mayor",,"Disclosure","Don Iveson","Francis Harper",,"Edmonton","AB","600"
"Mayor",,"Disclosure","Don Iveson","Francis Price. B.T.Q.C",,"Edmonton","AB","1000"
"Mayor",,"Disclosure","Don Iveson","FRC Financial Corp","1112 95 Str NW","Edmonton","AB","1000"
"Mayor",,"Disclosure","Don Iveson","Fred Alexandruk",,"Edmonton","AB","150"
"Mayor",,"Disclosure","Don Iveson","Gail Hall",,"Edmonton","AB","400"
"Mayor",,"Disclosure","Don Iveson","General Recycling Industries Ltd","4120 84 Ave NW","Edmonton","AB","3000"
"Mayor",,"Disclosure","Don Iveson","Genstar Development Partnership","202, 17420 Stony Plain Road","Edmonton","AB","1500"
"Mayor",,"Disclosure","Don Iveson","Glenn Isaac",,"Edmonton","AB","250"
"Mayor",,"Disclosure","Don Iveson","Glenn Rollans",,"Edmonton","AB","200"
"Mayor",,"Disclosure","Don Iveson","Godo Stoyke",,"Edmonton","AB","400"
"Mayor",,"Disclosure","Don Iveson","Gordon McIntosh",,"Edmonton","AB","200"
"Mayor",,"Disclosure","Don Iveson","Grant Dunlop",,"Edmonton","AB","500"
"Mayor",,"Disclosure","Don Iveson","Greg Zeschuk",,"Edmonton","AB","1000"
"Mayor",,"Disclosure","Don Iveson","Gregg Kenney",,"Edmonton","AB","250"
"Mayor",,"Disclosure","Don Iveson","Gregory Taylor",,"Edmonton","AB","200"
"Mayor",,"Disclosure","Don Iveson","GS Holdings","PO Box 4057","Spruce Grove","AB","495"
"Mayor",,"Disclosure","Don Iveson","H.L. Booi",,"Edmonton","AB","200"
"Mayor",,"Disclosure","Don Iveson","Habib Malik",,"Edmonton","AB","300"
"Mayor",,"Disclosure","Don Iveson","Harjinder Gill",,"Edmonton","AB","250"
"Mayor",,"Disclosure","Don Iveson","Harold Semunuk",,"Edmonton","AB","200"
"Mayor",,"Disclosure","Don Iveson","Harpreet Singh",,"Edmonton","AB","300"
"Mayor",,"Disclosure","Don Iveson","Hasco Development Corp","201, 9807 34 Ave NW","Edmonton","AB","1000"
"Mayor",,"Disclosure","Don Iveson","HCI Ventures Ltd","1902 College Plaza, 8215 112 Str NW","Edmonton","AB","5000"
"Mayor",,"Disclosure","Don Iveson","HeadCount",,"Edmonton","AB","500"
"Mayor",,"Disclosure","Don Iveson","Heather Kerr",,"Edmonton","AB","200"
"Mayor",,"Disclosure","Don Iveson","Holly Slavik",,"Edmonton","AB","500"
"Mayor",,"Disclosure","Don Iveson","Housedifferent","8709 92A Ave NW","Edmonton","AB","300"
"Mayor",,"Disclosure","Don Iveson","Huges Petroleum","10330 178 Str NW","Edmonton","AB","2500"
"Mayor",,"Disclosure","Don Iveson","I Banks","6315 132 Str NW","Edmonton","AB","250"
"Mayor",,"Disclosure","Don Iveson","Icewerx","3377, 11215 Jasper Ave","Edmonton","AB","1500"
"Mayor",,"Disclosure","Don Iveson","Ilene Fleming",,"Edmonton","AB","2000"
"Mayor",,"Disclosure","Don Iveson","Imran Atiq",,"Edmonton","AB","250"
"Mayor",,"Disclosure","Don Iveson","Integrated Management & Realty Ltd","10558 115 Str NW","Edmonton","AB","5000"
"Mayor",,"Disclosure","Don Iveson","Inter-Pro Property Corp","325, 3699 Millwoods Road NW","Edmonton","AB","2000"
"Mayor",,"Disclosure","Don Iveson","Ione Hooper",,"Edmonton","AB","500"
"Mayor",,"Disclosure","Don Iveson","Irving Kipnes",,"Edmonton","AB","2500"
"Mayor",,"Disclosure","Don Iveson","Jaffer Inc","500, 13055 Jasper Ave NW","Edmonton","AB","1000"
"Mayor",,"Disclosure","Don Iveson","Jagdish Bhatia",,"Edmonton","AB","200"
"Mayor",,"Disclosure","Don Iveson","Jaiman Chin",,"Edmonton","AB","250"
"Mayor",,"Disclosure","Don Iveson","James Cameron Jr",,"Edmonton","AB","360"
"Mayor",,"Disclosure","Don Iveson","James Rudolph",,"Edmonton","AB","300"
"Mayor",,"Disclosure","Don Iveson","James Wachowich",,"Edmonton","AB","200"
"Mayor",,"Disclosure","Don Iveson","Jan Alexander-Smith",,"Edmonton","AB","250"
"Mayor",,"Disclosure","Don Iveson","Janine Andrews",,"Edmonton","AB","2500"
"Mayor",,"Disclosure","Don Iveson","Jatec Electric","7224 50 Str NW","Edmonton","AB","5000"
"Mayor",,"Disclosure","Don Iveson","Jeff Gusdal",,"Edmonton","AB","500"
"Mayor",,"Disclosure","Don Iveson","Jeff Laskoski",,"Edmonton","AB","250"
"Mayor",,"Disclosure","Don Iveson","Jennifer Brown",,"Edmonton","AB","5000"
"Mayor",,"Disclosure","Don Iveson","Jennifer Duguid",,"Edmonton","AB","250"
"Mayor",,"Disclosure","Don Iveson","Jeremy Chorney",,"Edmonton","AB","2000"
"Mayor",,"Disclosure","Don Iveson","Jerry Bouma & Associates Inc","202, 10328 81 Ave NW","Edmonton","AB","300"
"Mayor",,"Disclosure","Don Iveson","Jim Brown",,"Edmonton","AB","2500"
"Mayor",,"Disclosure","Don Iveson","Jim Rands",,"Edmonton","AB","110"
"Mayor",,"Disclosure","Don Iveson","Jim Ward",,"Edmonton","AB","250"
"Mayor",,"Disclosure","Don Iveson","Joan Currie",,"Edmonton","AB","400"
"Mayor",,"Disclosure","Don Iveson","Joan Welch",,"Edmonton","AB","500"
"Mayor",,"Disclosure","Don Iveson","Joe Yurkovich",,"Edmonton","AB","1100"
"Mayor",,"Disclosure","Don Iveson","Johanna Ortlieb",,"Edmonton","AB","150"
"Mayor",,"Disclosure","Don Iveson","John Bilsland",,"Edmonton","AB","250"
"Mayor",,"Disclosure","Don Iveson","John Day",,"Edmonton","AB","5000"
"Mayor",,"Disclosure","Don Iveson","John Estacio",,"Edmonton","AB","250"
"Mayor",,"Disclosure","Don Iveson","John Ferguson",,"Edmonton","AB","500"
"Mayor",,"Disclosure","Don Iveson","John Kolkman",,"Edmonton","AB","250"
"Mayor",,"Disclosure","Don Iveson","John Mitchell",,"Edmonton","AB","500"
"Mayor",,"Disclosure","Don Iveson","John Pinsent",,"Edmonton","AB","1000"
"Mayor",,"Disclosure","Don Iveson","Josh Stock",,"Edmonton","AB","150"
"Mayor",,"Disclosure","Don Iveson","Julie Rohr",,"Edmonton","AB","200"
"Mayor",,"Disclosure","Don Iveson","Justin Damer",,"Edmonton","AB","250"
"Mayor",,"Disclosure","Don Iveson","Karen Platten",,"Edmonton","AB","250"
"Mayor",,"Disclosure","Don Iveson","Kate Freeman",,"Edmonton","AB","250"
"Mayor",,"Disclosure","Don Iveson","Katherine Weaver",,"Edmonton","AB","250"
"Mayor",,"Disclosure","Don Iveson","Kathy Williams",,"Edmonton","AB","250"
"Mayor",,"Disclosure","Don Iveson","KellerDenali Construction","11430 160 Str NW","Edmonton","AB","5000"
"Mayor",,"Disclosure","Don Iveson","Kendall Barber",,"Edmonton","AB","150"
"Mayor",,"Disclosure","Don Iveson","Kennedy Agrios LLP","1325, 10180 101 Str NW","Edmonton","AB","250"
"Mayor",,"Disclosure","Don Iveson","Kenneth Niziol",,"Edmonton","AB","500"
"Mayor",,"Disclosure","Don Iveson","Ken-Pat Holdings Ltd","100, 250 South Ridge","Edmonton","AB","2000"
"Mayor",,"Disclosure","Don Iveson","Kent Hehr",,"Calgary","AB","200"
"Mayor",,"Disclosure","Don Iveson","Kevin Feehan",,"Edmonton","AB","1000"
"Mayor",,"Disclosure","Don Iveson","Kevin Mohan",,"Edmonton","AB","101"
"Mayor",,"Disclosure","Don Iveson","Kevin Taft",,"Edmonton","AB","200"
"Mayor",,"Disclosure","Don Iveson","Kim Franklin",,"Edmonton","AB","500"
"Mayor",,"Disclosure","Don Iveson","Kim Fraser",,"Edmonton","AB","200"
"Mayor",,"Disclosure","Don Iveson","Kim Mackenzie",,"Edmonton","AB","500"
"Mayor",,"Disclosure","Don Iveson","Kimberley Construction Mgmt Ltd","1040 Parsons Road","Edmonton","AB","5000"
"Mayor",,"Disclosure","Don Iveson","Kimberley Kelly",,"Edmonton","AB","200"
"Mayor",,"Disclosure","Don Iveson","Krishna Gupta",,"Edmonton","AB","2500"
"Mayor",,"Disclosure","Don Iveson","Kuldeep Gill",,"Edmonton","AB","720"
"Mayor",,"Disclosure","Don Iveson","Kyla Fisher",,"Edmonton","AB","320"
"Mayor",,"Disclosure","Don Iveson","Lacome Motor Inn","5136 Hwy 2A","Lacombe","AB","250"
"Mayor",,"Disclosure","Don Iveson","Landmark Group of Builders (Services) Inc","9765 54 Ave NW","Edmonton","AB","5000"
"Mayor",,"Disclosure","Don Iveson","Larry Newton",,"Edmonton","AB","500"
"Mayor",,"Disclosure","Don Iveson","Larry Retzlaff",,"Edmonton","AB","200"
"Mayor",,"Disclosure","Don Iveson","Laurie Adkin",,"Edmonton","AB","200"
"Mayor",,"Disclosure","Don Iveson","Lawrence Ksionzyk",,"Edmonton","AB","300"
"Mayor",,"Disclosure","Don Iveson","Ledcor Construction Ltd","7008 Roper Road NW","Edmonton","AB","5000"
"Mayor",,"Disclosure","Don Iveson","Lexus South Pointe","830 100 Str","Edmonton","AB","995"
"Mayor",,"Disclosure","Don Iveson","Limak Investments Inc","802, 10050 112 Str NW","Edmonton","AB","1000"
"Mayor",,"Disclosure","Don Iveson","Linda Banister",,"Edmonton","AB","500"
"Mayor",,"Disclosure","Don Iveson","Linda Ha",,"Edmonton","AB","450"
"Mayor",,"Disclosure","Don Iveson","Liquor Stores GP Inc","300, 10508 82 Ave NW","Edmonton","AB","2500"
"Mayor",,"Disclosure","Don Iveson","Lisa Jordan",,"Edmonton","AB","400"
"Mayor",,"Disclosure","Don Iveson","Lise Gotell",,"Edmonton","AB","300"
"Mayor",,"Disclosure","Don Iveson","Lisi Monro",,"Edmonton","AB","500"
"Mayor",,"Disclosure","Don Iveson","Lloyd Sadd Insurance Brokers","17413 107 Ave NW","Edmonton","AB","5000"
"Mayor",,"Disclosure","Don Iveson","Lorris Williams",,"Edmonton","AB","250"
"Mayor",,"Disclosure","Don Iveson","Lou & Mary Hyndman",,"Edmonton","AB","250"
"Mayor",,"Disclosure","Don Iveson","LTM Investments Ltd","203, 10310 124 Str NW","Edmonton","AB","350"
"Mayor",,"Disclosure","Don Iveson","Maclab Enterprises","P.O. Box 3160","Edmonton","AB","5000"
"Mayor",,"Disclosure","Don Iveson","Maharaja Banquet Hall","9257 34A Ave","Edmonton","AB","3500"
"Mayor",,"Disclosure","Don Iveson","Makami College Inc","672 Lee Ridge Road NW","Edmonton","AB","1000"
"Mayor",,"Disclosure","Don Iveson","Makhan Malhi",,"Edmonton","AB","180"
"Mayor",,"Disclosure","Don Iveson","Malhotra & Company","315, 10909 Jasper Ave NW","Edmonton","AB","2000"
"Mayor",,"Disclosure","Don Iveson","Marc Carnes",,"Edmonton","AB","1050"
"Mayor",,"Disclosure","Don Iveson","Marc Carnes",,"Edmonton","AB","88"
"Mayor",,"Disclosure","Don Iveson","Marc De La Bruyere",,"Edmonton","AB","5000"
"Mayor",,"Disclosure","Don Iveson","Marcus Gurske",,"Edmonton","AB","1000"
"Mayor",,"Disclosure","Don Iveson","Marie Gordon",,"Edmonton","AB","250"
"Mayor",,"Disclosure","Don Iveson","Marilyn Kontz",,"Edmonton","AB","500"
"Mayor",,"Disclosure","Don Iveson","Mark Stephen",,"Edmonton","AB","500"
"Mayor",,"Disclosure","Don Iveson","Marshall Sadd",,"Edmonton","AB","2500"
"Mayor",,"Disclosure","Don Iveson","Mary Liens",,"Edmonton","AB","140"
"Mayor",,"Disclosure","Don Iveson","Mathieu Johnson",,"Red Deer","AB","200"
"Mayor",,"Disclosure","Don Iveson","Maureen Nicholson",,"Edmonton","AB","220"
"Mayor",,"Disclosure","Don Iveson","McLennan Ross",,"Edmonton","AB","1000"
"Mayor",,"Disclosure","Don Iveson","Melcor Developments Ltd","900, 10310 Jasper Ave NW","Edmonton","AB","4990"
"Mayor",,"Disclosure","Don Iveson","Michael Cohen",,"Edmonton","AB","200"
"Mayor",,"Disclosure","Don Iveson","Michael Phair",,"Edmonton","AB","200"
"Mayor",,"Disclosure","Don Iveson","Michael Robb",,"Edmonton","AB","150"
"Mayor",,"Disclosure","Don Iveson","Michael Stevenson",,"Edmonton","AB","250"
"Mayor",,"Disclosure","Don Iveson","Mildred Richardson",,"Edmonton","AB","235"
"Mayor",,"Disclosure","Don Iveson","Mill Creek Picture Framing Inc","9609 82 Ave NW","Edmonton","AB","250"
"Mayor",,"Disclosure","Don Iveson","Miller Thompson LLP","2700 Commerce Place 10155 102 Str NW","Edmonton","AB","300"
"Mayor",,"Disclosure","Don Iveson","Milo Fodchuk",,"Edmonton","AB","250"
"Mayor",,"Disclosure","Don Iveson","MLC Group Inc","1000, 10104 103 Ave NW","Edmonton","AB","5000"
"Mayor",,"Disclosure","Don Iveson","MMM Group Ltd","200, 10576 113 Str NW","Edmonton","AB","990"
"Mayor",,"Disclosure","Don Iveson","Mohammad Kamal",,"Edmonton","AB","500"
"Mayor",,"Disclosure","Don Iveson","Moment Research Corp","7111 Saskatchewan Drive NW","Edmonton","AB","1000"
"Mayor",,"Disclosure","Don Iveson","Monique Nutter",,"Edmonton","AB","250"
"Mayor",,"Disclosure","Don Iveson","Murray Hill Developments","10172 111 Str","Edmonton","AB","5000"
"Mayor",,"Disclosure","Don Iveson","Nancy MacDonald",,"Edmonton","AB","300"
"Mayor",,"Disclosure","Don Iveson","Nate Box",,"Edmonton","AB","500"
"Mayor",,"Disclosure","Don Iveson","Nearctic Management","11604 145 Str NW","Edmonton","AB","995"
"Mayor",,"Disclosure","Don Iveson","Neelam Gupta",,"Edmonton","AB","2500"
"Mayor",,"Disclosure","Don Iveson","Noah Jones",,"Edmonton","AB","250"
"Mayor",,"Disclosure","Don Iveson","Norbest Farms","20415 33 Str NE","Edmonton","AB","2500"
"Mayor",,"Disclosure","Don Iveson","Northern Premier Investments Ltd","305, 1822 10th Ave SW","Calgary","AB","500"
"Mayor",,"Disclosure","Don Iveson","Nunastar Properties Inc","200, 1281 91 Str","Edmonton","AB","500"
"Mayor",,"Disclosure","Don Iveson","Pangman Development Corp","417 LeMarchand Mansion, 11523 100 Ave NW","Edmonton","AB","5000"
"Mayor",,"Disclosure","Don Iveson","Pario Plan","605, 10080 Jasper Ave NW","Edmonton","AB","495"
"Mayor",,"Disclosure","Don Iveson","Paul Greenwood",,"Edmonton","AB","200"
"Mayor",,"Disclosure","Don Iveson","Paul Manuel",,"Edmonton","AB","300"
"Mayor",,"Disclosure","Don Iveson","Paul Precht",,"Edmonton","AB","250"
"Mayor",,"Disclosure","Don Iveson","Paulette Winter",,"Edmonton","AB","5000"
"Mayor",,"Disclosure","Don Iveson","PCL Constructors Inc","5410 99 Str NW","Edmonton","AB","5000"
"Mayor",,"Disclosure","Don Iveson","Peggy Gouin",,"Edmonton","AB","500"
"Mayor",,"Disclosure","Don Iveson","Perry Homes Inc","101, 1289 91 Str NW","Edmonton","AB","1000"
"Mayor",,"Disclosure","Don Iveson","Peter Hooper",,"Edmonton","AB","1000"
"Mayor",,"Disclosure","Don Iveson","Peter Kiss",,"Edmonton","AB","2500"
"Mayor",,"Disclosure","Don Iveson","Peter Poole",,"Banff","AB","1000"
"Mayor",,"Disclosure","Don Iveson","Peter Silverstone",,"Edmonton","AB","1000"
"Mayor",,"Disclosure","Don Iveson","Peter Sinnema",,"Edmonton","AB","250"
"Mayor",,"Disclosure","Don Iveson","Philip and Austin Krysa",,"Edmonton","AB","2500"
"Mayor",,"Disclosure","Don Iveson","Poul Mark",,"Edmonton","AB","250"
"Mayor",,"Disclosure","Don Iveson","Procura Real Estate Services Ltd","2800, 817 15 Ave SW","Calgary","AB","5000"
"Mayor",,"Disclosure","Don Iveson","Qualico Land","3203 930 Str NW","Edmonton","AB","4960"
"Mayor",,"Disclosure","Don Iveson","R.M. Carter Professional Corp","13631 100 Ave NW","Edmonton","AB","500"
"Mayor",,"Disclosure","Don Iveson","Radhe Gupta",,"Edmonton","AB","2500"
"Mayor",,"Disclosure","Don Iveson","Ralph Young",,"Edmonton","AB","495"
"Mayor",,"Disclosure","Don Iveson","Randhawa Group of Companies","2713, 10088 102 Ave NW","Edmonton","AB","2000"
"Mayor",,"Disclosure","Don Iveson","Randolph Haluza-DeLay",,"Edmonton","AB","200"
"Mayor",,"Disclosure","Don Iveson","Randy Reichardt",,"Edmonton","AB","101"
"Mayor",,"Disclosure","Don Iveson","Raquel Feroe",,"Edmonton","AB","250"
"Mayor",,"Disclosure","Don Iveson","Ravi Ramharak",,"Edmonton","AB","2200"
"Mayor",,"Disclosure","Don Iveson","Ray Muzyka",,"Edmonton","AB","5000"
"Mayor",,"Disclosure","Don Iveson","Raymond Guy Miki Professional Corp","13 Keystone Cres","St. Albert","AB","250"
"Mayor",,"Disclosure","Don Iveson","Raywalt Construction Co","506, 53016 Hwy 60","Acheson","AB","5000"
"Mayor",,"Disclosure","Don Iveson","Redbrick Real Estate Services Inc","15229 82 Ave NW","Edmonton","AB","4000"
"Mayor",,"Disclosure","Don Iveson","Refine Renovations","10011 167th Street NW","Edmonton","AB","500"
"Mayor",,"Disclosure","Don Iveson","Reid-Built Homes Ltd","18140 107 Ave","Edmonton","AB","5000"
"Mayor",,"Disclosure","Don Iveson","Rich Groom",,"Edmonton","AB","500"
"Mayor",,"Disclosure","Don Iveson","Richard Anderson",,"Edmonton","AB","1000"
"Mayor",,"Disclosure","Don Iveson","Richard Hooper",,"Edmonton","AB","500"
"Mayor",,"Disclosure","Don Iveson","Richard Kirby",,"Edmonton","AB","5000"
"Mayor",,"Disclosure","Don Iveson","Richard Spencer",,"Edmonton","AB","500"
"Mayor",,"Disclosure","Don Iveson","Robert Duke",,"Edmonton","AB","1000"
"Mayor",,"Disclosure","Don Iveson","Robert Dunseith",,"Edmonton","AB","500"
"Mayor",,"Disclosure","Don Iveson","Robert Higgins",,"Edmonton","AB","250"
"Mayor",,"Disclosure","Don Iveson","Robert Scott",,"Edmonton","AB","3000"
"Mayor",,"Disclosure","Don Iveson","Robert Seal",,"Edmonton","AB","200"
"Mayor",,"Disclosure","Don Iveson","Robert Summers",,"Edmonton","AB","250"
"Mayor",,"Disclosure","Don Iveson","Roger Breault",,"Edmonton","AB","250"
"Mayor",,"Disclosure","Don Iveson","Roger I. Swainson Professional Corp","2200, 10155 102 Str NW","Edmonton","AB","5000"
"Mayor",,"Disclosure","Don Iveson","Roger Newton",,"Edmonton","AB","5000"
"Mayor",,"Disclosure","Don Iveson","Rohit Gupta",,"Edmonton","AB","2500"
"Mayor",,"Disclosure","Don Iveson","RSG Investments","550 91 Str NW","Edmonton","AB","495"
"Mayor",,"Disclosure","Don Iveson","Ruby Swanson",,"Edmonton","AB","150"
"Mayor",,"Disclosure","Don Iveson","Ryan Wright",,"Edmonton","AB","1000"
"Mayor",,"Disclosure","Don Iveson","Salvatore Corea",,"Edmonton","AB","250"
"Mayor",,"Disclosure","Don Iveson","Samuel Prochazka",,"Edmonton","AB","500"
"Mayor",,"Disclosure","Don Iveson","Sandro Torrieri",,"Edmonton","AB","350"
"Mayor",,"Disclosure","Don Iveson","Sandy Slator",,"Edmonton","AB","500"
"Mayor",,"Disclosure","Don Iveson","Sanford Fleming",,"Edmonton","AB","500"
"Mayor",,"Disclosure","Don Iveson","Scheffer Andrew Ltd","12204 145 Str NW","Edmonton","AB","990"
"Mayor",,"Disclosure","Don Iveson","Scott Russill",,"Edmonton","AB","200"
"Mayor",,"Disclosure","Don Iveson","Select Engineering Consultants","201, 17220 Stony Plain Road","Edmonton","AB","990"
"Mayor",,"Disclosure","Don Iveson","Shafraaz Kaba",,"Edmonton","AB","200"
"Mayor",,"Disclosure","Don Iveson","Sharon Brown",,"Edmonton","AB","2500"
"Mayor",,"Disclosure","Don Iveson","Sherrill Johnson",,"Edmonton","AB","200"
"Mayor",,"Disclosure","Don Iveson","Sherry Banack",,"Edmonton","AB","250"
"Mayor",,"Disclosure","Don Iveson","Simon Gokiert",,"Edmonton","AB","200"
"Mayor",,"Disclosure","Don Iveson","Solution 105 Consulting Ltd","230, 10357 109 Str NW","Edmonton","AB","2500"
"Mayor",,"Disclosure","Don Iveson","Solutions Workplace Furnishings Inc","11250 119 Str","Edmonton","AB","1250"
"Mayor",,"Disclosure","Don Iveson","Sorrell Financial Inc","1401, 10088 102 Ave NW","Edmonton","AB","500"
"Mayor",,"Disclosure","Don Iveson","Sprague-Rosser Contracting Co Ltd","201, 1259 91 Str NW","Edmonton","AB","2500"
"Mayor",,"Disclosure","Don Iveson","Stacey Quigley",,"Edmonton","AB","250"
"Mayor",,"Disclosure","Don Iveson","Stan Franklin",,"Edmonton","AB","250"
"Mayor",,"Disclosure","Don Iveson","Stan Milner",,"Edmonton","AB","5000"
"Mayor",,"Disclosure","Don Iveson","Steve Patten",,"Edmonton","AB","600"
"Mayor",,"Disclosure","Don Iveson","Steve Smith",,"Edmonton","AB","250"
"Mayor",,"Disclosure","Don Iveson","Steven Dollansky",,"Edmonton","AB","250"
"Mayor",,"Disclosure","Don Iveson","Steven LePoole",,"Edmonton","AB","500"
"Mayor",,"Disclosure","Don Iveson","Sticks & Stones","200, 10306 112 Str NW","Edmonton","AB","1000"
"Mayor",,"Disclosure","Don Iveson","Strata Development Corp","2nd Floor, 10716 176 Str NW","Edmonton","AB","495"
"Mayor",,"Disclosure","Don Iveson","Strathearn Heights Ltd","8768 96 Ave NW","Edmonton","AB","995"
"Mayor",,"Disclosure","Don Iveson","Strathmore Bottle Depot","35B Spruce Park Dr","Strathmore","AB","500"
"Mayor",,"Disclosure","Don Iveson","Sue Burns",,"Edmonton","AB","500"
"Mayor",,"Disclosure","Don Iveson","Sugarbowl","10922 88 Ave NW","Edmonton","AB","2000"
"Mayor",,"Disclosure","Don Iveson","Sureway Construction","7331 18 Str NW","Edmonton","AB","2500"
"Mayor",,"Disclosure","Don Iveson","Surinder Braich",,"Edmonton","AB","200"
"Mayor",,"Disclosure","Don Iveson","Susan Kamp",,"Edmonton","AB","200"
"Mayor",,"Disclosure","Don Iveson","Susie Sykes",,"Edmonton","AB","150"
"Mayor",,"Disclosure","Don Iveson","Taghi & Mahboubeh Makarechian",,"Edmonton","AB","2500"
"Mayor",,"Disclosure","Don Iveson","Tai Ziola",,"Edmonton","AB","250"
"Mayor",,"Disclosure","Don Iveson","Tariq Chaudary",,"Edmonton","AB","1000"
"Mayor",,"Disclosure","Don Iveson","Tej Brar",,"Edmonton","AB","350"
"Mayor",,"Disclosure","Don Iveson","Teresa Haykowsky",,"Edmonton","AB","1000"
"Mayor",,"Disclosure","Don Iveson","Terry Harris",,"Edmonton","AB","120"
"Mayor",,"Disclosure","Don Iveson","Terry Kirkland",,"Edmonton","AB","250"
"Mayor",,"Disclosure","Don Iveson","Terry Mackey",,"Edmonton","AB","1000"
"Mayor",,"Disclosure","Don Iveson","The Creative Clubhouse Ltd","9510 105 Ave","Edmonton","AB","105"
"Mayor",,"Disclosure","Don Iveson","The Scott Family Trust","200, 12420 104 Ave NW","Edmonton","AB","5000"
"Mayor",,"Disclosure","Don Iveson","Thomas M. Engel Prof Corp","1780, 10123 99 Str NW","Edmonton","AB","200"
"Mayor",,"Disclosure","Don Iveson","Thomas Thorvaldson",,"Edmonton","AB","500"
"Mayor",,"Disclosure","Don Iveson","Tim Melton",,"Edmonton","AB","500"
"Mayor",,"Disclosure","Don Iveson","Tissot Management Ltd","1255, 10180 101 Str","Edmonton","AB","5000"
"Mayor",,"Disclosure","Don Iveson","Todd Babiak",,"Edmonton","AB","150"
"Mayor",,"Disclosure","Don Iveson","Todd Bisch",,"Edmonton","AB","1250"
"Mayor",,"Disclosure","Don Iveson","Todd Janes",,"Edmonton","AB","150"
"Mayor",,"Disclosure","Don Iveson","Tommy Banks Music Ltd","Box 45060","Edmonton","AB","250"
"Mayor",,"Disclosure","Don Iveson","Touch Metric","9741-110 Str","Edmonton","AB","4800"
"Mayor",,"Disclosure","Don Iveson","Tres Carnales","10119 100A Str","Edmonton","AB","675"
"Mayor",,"Disclosure","Don Iveson","Ultra Shine Building Maintenance Inc","8722 51 Ave NW","Edmonton","AB","500"
"Mayor",,"Disclosure","Don Iveson","Union 52 Benevolent Society","11305 95 Str NW","Edmonton","AB","5000"
"Mayor",,"Disclosure","Don Iveson","United Communities LP","503, 10109 106 Str NW","Edmonton","AB","2500"
"Mayor",,"Disclosure","Don Iveson","Urban Town Inc","5011 126 Str NW","Edmonton","AB","300"
"Mayor",,"Disclosure","Don Iveson","Urbanlife Estates Ltd","100, 250 South Ridge","Edmonton","AB","1000"
"Mayor",,"Disclosure","Don Iveson","Vansel Holdings Ltd","PO Box 893, Station Main","Edmonton","AB","250"
"Mayor",,"Disclosure","Don Iveson","Vera Kornelsen",,"Edmonton","AB","2000"
"Mayor",,"Disclosure","Don Iveson","VIP Development Group of Companies","201, 10504 99 Ave NW","Edmonton","AB","495"
"Mayor",,"Disclosure","Don Iveson","Vivian Manasc",,"Edmonton","AB","250"
"Mayor",,"Disclosure","Don Iveson","Vivid Print","10342 Whyte Ave NW","Edmonton","AB","1000"
"Mayor",,"Disclosure","Don Iveson","Wai-Kuen Doyle-Chan Professional Corporation","248 Windermere Dr NW","Edmonton","AB","150"
"Mayor",,"Disclosure","Don Iveson","Walter Hildebrandt",,"Edmonton","AB","200"
"Mayor",,"Disclosure","Don Iveson","Walton Developments and Management LP","22nd Floor, 605 5th Ave SW","Calgary","AB","4950"
"Mayor",,"Disclosure","Don Iveson","Westgate Chevrolet Ltd","10145 178 Str NW","Edmonton","AB","500"
"Mayor",,"Disclosure","Don Iveson","Wharfedale Realty LTD","921 Hampton CRT NW","Edmonton","AB","1000"
"Mayor",,"Disclosure","Don Iveson","William McMillan",,"Edmonton","AB","150"
"Mayor",,"Disclosure","Don Iveson","Witten LLP","2500, 10030 Jasper Ave NW","Edmonton","AB","5000"
"Mayor",,"Disclosure","Don Iveson","Xennex Venture Catalysts Inc","11137 126 Str NW","Edmonton","AB","2500"
"Mayor",,"Disclosure","Don Iveson","Yardstick Software Inc","200, 8616 51 Ave NW","Edmonton","AB","5000"
"Mayor",,"Disclosure","Don Iveson","Yorkton Group International Ltd","2430, 10180 101 Str","Edmonton","AB","3000"
"Mayor",,"Disclosure","Don Iveson","Zaheerali Lakhani Professional Corp","202-11808 St Albert Trail NW","Edmonton","AB","250"
"Mayor",,"Disclosure","Karen Leibovici","James Brown",,"Edmonton","AB","2500"
"Mayor",,"Disclosure","Karen Leibovici","Sharon Brown",,"Edmonton","AB","2500"
"Mayor",,"Disclosure","Karen Leibovici","Delcon Development Group","400, 10508 82A Ave","Edmonton","AB","2500"
"Mayor",,"Disclosure","Karen Leibovici","Dianne Kipnes",,"Edmonton","AB","5000"
"Mayor",,"Disclosure","Karen Leibovici","General Metals Ltd","4120 84 Ave","Edmonton","AB","2500"
"Mayor",,"Disclosure","Karen Leibovici","Price Steel Ltd","13500 156 Str","Edmonton","AB","2500"
"Mayor",,"Disclosure","Karen Leibovici","Bill Winter",,"Edmonton","AB","5000"
"Mayor",,"Disclosure","Karen Leibovici","Paulette Winter",,"Edmonton","AB","5000"
"Mayor",,"Disclosure","Karen Leibovici","The Scott Family Trust","#200, 124020 104 Ave NW","Edmonton","AB","5000"
"Mayor",,"Disclosure","Karen Leibovici","Tissot Management Ltd","1255 Manulife Place, 10180 101 Str","Edmonton","AB","5000"
"Mayor",,"Disclosure","Karen Leibovici","Aurum Industrial Dev Partnership","Suite 3400, 10180 101 Str","Edmonton","AB","5000"
"Mayor",,"Disclosure","Karen Leibovici","Gilbert Brulotte",,"Edmonton","AB","5000"
"Mayor",,"Disclosure","Karen Leibovici","PME Inc","c/o 9903 101 Str","Fort Saskatchewan","AB","5000"
"Mayor",,"Disclosure","Karen Leibovici","Ronald Sorokin",,"Edmonton","AB","250"
"Mayor",,"Disclosure","Karen Leibovici","Daniel Zalmanowitz",,"Edmonton","AB","250"
"Mayor",,"Disclosure","Karen Leibovici","Witten LLP","2500, 10303 Jasper Ave","Edmonton","AB","5000"
"Mayor",,"Disclosure","Karen Leibovici","Len Dolgoy",,"Edmonton","AB","500"
"Mayor",,"Disclosure","Karen Leibovici","Gordon Reekie",,"Edmonton","AB","250"
"Mayor",,"Disclosure","Karen Leibovici","City Lumber & Millwork","15711 128 Ave NW","Edmonton","AB","3004"
"Mayor",,"Disclosure","Karen Leibovici","F.C. Brinsmead Architecture Ltd","10434 122 Str","Edmonton","AB","500"
"Mayor",,"Disclosure","Karen Leibovici","Mr. Harvey Saskiw",,"Edmonton","AB","200"
"Mayor",,"Disclosure","Karen Leibovici","Pagnotta Industries Inc","3269 Parsons Road","Edmonton","AB","700"
"Mayor",,"Disclosure","Karen Leibovici","Philip Bloomfield",,"Sherwood Park","AB","500"
"Mayor",,"Disclosure","Karen Leibovici","Randy Saskiw",,"Edmonton","AB","200"
"Mayor",,"Disclosure","Karen Leibovici","Protostatix Engineering Consultants Inc","#1100, 10117 Jasper Ave","Edmonton","AB","200"
"Mayor",,"Disclosure","Karen Leibovici","Mark B. Korneil",,"Edmonton","AB","5000"
"Mayor",,"Disclosure","Karen Leibovici","D.I.A. Holdings Ltd","11219 100 Ave","Edmonton","AB","5000"
"Mayor",,"Disclosure","Karen Leibovici","Beaverbrook Windermere Ltd","17515 108 Ave","Edmonton","AB","1000"
"Mayor",,"Disclosure","Karen Leibovici","Beaverbrook Rivers Edge Ltd","17515 108 Ave","Edmonton","AB","1000"
"Mayor",,"Disclosure","Karen Leibovici","Beaverbrook Charlesworth Ltd","17515 108 Ave","Edmonton","AB","2000"
"Mayor",,"Disclosure","Karen Leibovici","Beaverbrook Hudson II Ltd","17515 108 Ave","Edmonton","AB","1000"
"Mayor",,"Disclosure","Karen Leibovici","Anderson Capital Corp","1112 95 Str SW","Edmonton","AB","5000"
"Mayor",,"Disclosure","Karen Leibovici","Sureway Construction Mgmt Ltd","7331 18 Str","Edmonton","AB","5000"
"Mayor",,"Disclosure","Karen Leibovici","Raywalt Construction Co Ltd","506, 53016 Hwy 60","Acheson","AB","5000"
"Mayor",,"Disclosure","Karen Leibovici","Remington Dev Corp","300, 200 Quality Park Blvd SE","Calgary","AB","5000"
"Mayor",,"Disclosure","Karen Leibovici","Qualico Developments West Ltd","3203 93 Str","Edmonton","AB","5000"
"Mayor",,"Disclosure","Karen Leibovici","Westley Alexander",,"Edmonton","AB","1000"
"Mayor",,"Disclosure","Karen Leibovici","Reid-Built Homes Ltd","18140 107 Ave","Edmonton","AB","5000"
"Mayor",,"Disclosure","Karen Leibovici","West Edmonton Mall Property Ltd","3000, 8882 170 Str","Edmonton","AB","5000"
"Mayor",,"Disclosure","Karen Leibovici","Architecture Arndt","10315 109 Str","Edmonton","AB","250"
"Mayor",,"Disclosure","Karen Leibovici","1507740 Alberta Ltd","Suite 1200, 11933 Jasper Ave","Edmonton","AB","5000"
"Mayor",,"Disclosure","Karen Leibovici","Denny Andrews","304, 9768 170 Str","Edmonton","AB","5000"
"Mayor",,"Disclosure","Karen Leibovici","Elicia Holdings Ltd","188 Ambleside Dr SW","Edmonton","AB","1000"
"Mayor",,"Disclosure","Karen Leibovici","Dykstra Construction Ltd","311 Livingstone Court","Edmonton","AB","250"
"Mayor",,"Disclosure","Karen Leibovici","MLC Group Inc","Suite 1000, 10104 103 Ave","Edmonton","AB","5000"
"Mayor",,"Disclosure","Karen Leibovici","Daytona Capital Corp","11504 170 Str","Edmonton","AB","2500"
"Mayor",,"Disclosure","Karen Leibovici","Jatec Electric Ltd","7224 50 Str","Edmonton","AB","5000"
"Mayor",,"Disclosure","Karen Leibovici","Clive Oshry",,"Edmonton","AB","1000"
"Mayor",,"Disclosure","Karen Leibovici","Allan Shustack",,"Edmonton","AB","250"
"Mayor",,"Disclosure","Karen Leibovici","1510837 Alberta Ltd","4439 127 Ave","Edmonton","AB","5000"
"Mayor",,"Disclosure","Karen Leibovici","Chadi Land Company Inc","Suite 2151, 10060 Jasper Ave","Edmonton","AB","5000"
"Mayor",,"Disclosure","Karen Leibovici","Michele Perret",,"Edmonton","AB","500"
"Mayor",,"Disclosure","Karen Leibovici","Dub Architects Ltd","10315 109 Str NW","Edmonton","AB","400"
"Mayor",,"Disclosure","Karen Leibovici","Alvin Goldsman",,"Edmonton","AB","500"
"Mayor",,"Disclosure","Karen Leibovici","Esther Ondrack",,"Spruce Grove","AB","1000"
"Mayor",,"Disclosure","Karen Leibovici","Garry & Joanne Appelt",,"Edmonton","AB","250"
"Mayor",,"Disclosure","Karen Leibovici","David & Pamela Margolus",,"Edmonton","AB","300"
"Mayor",,"Disclosure","Karen Leibovici","Gary & Marietta Reist",,"Edmonton","AB","250"
"Mayor",,"Disclosure","Karen Leibovici","EL Parker Professional Corp","Suite 2500, 10303 Jasper Ave","Edmonton","AB","250"
"Mayor",,"Disclosure","Karen Leibovici","Farrel Shadlyn",,"Edmonton","AB","250"
"Mayor",,"Disclosure","Karen Leibovici","Lisa Miller",,"Edmonton","AB","250"
"Mayor",,"Disclosure","Karen Leibovici","Cathton Properties Ltd","210, 5324 Calgary Trail","Edmonton","AB","5000"
"Mayor",,"Disclosure","Karen Leibovici","Brookfield Residential (Alberta) LP","200, 10414 103 Ave","Edmonton","AB","5000"
"Mayor",,"Disclosure","Karen Leibovici","Vivian Manasc",,"Edmonton","AB","250"
"Mayor",,"Disclosure","Karen Leibovici","Barry Zalmanowitz Professional Corp","2900, 10180 101 Str","Edmonton","AB","1000"
"Mayor",,"Disclosure","Karen Leibovici","Eric & Elexis Schloss",,"Edmonton","AB","1000"
"Mayor",,"Disclosure","Karen Leibovici","Kevin & Mona-Lee Feehan",,"Edmonton","AB","1000"
"Mayor",,"Disclosure","Karen Leibovici","Kenneth Munro",,"Edmonton","AB","400"
"Mayor",,"Disclosure","Karen Leibovici","Strathearn Heights Ltd.","8768 96 Ave","Edmonton","AB","2000"
"Mayor",,"Disclosure","Karen Leibovici","Al-Terra Engineering Ltd.","5307 47 Str NW","Edmonton","AB","1500"
"Mayor",,"Disclosure","Karen Leibovici","Wendy Danson & David Bai",,"Edmonton","AB","200"
"Mayor",,"Disclosure","Karen Leibovici","ParioPlan Inc.","Suite 605, 10080 Jasper Ave","Edmonton","AB","300"
"Mayor",,"Disclosure","Karen Leibovici","Cameron Development Corp","10180 111 Str NW","Edmonton","AB","5000"
"Mayor",,"Disclosure","Karen Leibovici","Canterra Developments Corp","1820, 10104 103 Ave NW","Edmonton","AB","2000"
"Mayor",,"Disclosure","Karen Leibovici","G3 Development Services Inc","Suite 204, 17220 Stony Plain Road","Edmonton","AB","1000"
"Mayor",,"Disclosure","Karen Leibovici","Scheffer Andrew Ltd","12204 145 Str","Edmonton","AB","1000"
"Mayor",,"Disclosure","Karen Leibovici","Invistec Consulting Ltd","1500 Baker Centre, 10025 106 Str","Edmonton","AB","1000"
"Mayor",,"Disclosure","Karen Leibovici","United Communities LP Edmonton Land","503, 10109 106 Str","Edmonton","AB","5000"
"Mayor",,"Disclosure","Karen Leibovici","Nearctic Management Ltd","11604 145 Str","Edmonton","AB","4750"
"Mayor",,"Disclosure","Karen Leibovici","Landmark Group of Builders (Services) Inc","9765 54 Ave","Edmonton","AB","5000"
"Mayor",,"Disclosure","Karen Leibovici","Honourable Allan Wachowich & Bette",,"Edmonton","AB","200"
"Mayor",,"Disclosure","Karen Leibovici","Barry Schloss",,"Edmonton","AB","1000"
"Mayor",,"Disclosure","Karen Leibovici","Sorrell Financial Inc","Suite 1401, 10088 102 Ave","Edmonton","AB","2000"
"Mayor",,"Disclosure","Karen Leibovici","Oshry Company","1004 Bell Tower, 10104 103 Ave","Edmonton","AB","500"
"Mayor",,"Disclosure","Karen Leibovici","Bunt & Associates","Suite 504, 10339 124 Str","Edmonton","AB","500"
"Mayor",,"Disclosure","Karen Leibovici","Larry Newton",,"Edmonton","AB","1000"
"Mayor",,"Disclosure","Karen Leibovici","Emeric Holdings Inc","9833 110 Str NW","Edmonton","AB","3000"
"Mayor",,"Disclosure","Karen Leibovici","Jayman MasterBUILT","102, 5083 Windermere Blvd SW","Edmonton","AB","1000"
"Mayor",,"Disclosure","Karen Leibovici","Milroy Investments Inc","14250 85 Ave NW","Edmonton","AB","1000"
"Mayor",,"Disclosure","Karen Leibovici","518157 Alberta Ltd","9104 Valleyview Drive","Edmonton","AB","2500"
"Mayor",,"Disclosure","Karen Leibovici","Frost & Associates Realty Services Inc","106, 17704 103 Ave NW","Edmonton","AB","500"
"Mayor",,"Disclosure","Karen Leibovici","Interbase Consultants Ltd","Suite 300, 10830 Jasper Ave","Edmonton","AB","2000"
"Mayor",,"Disclosure","Karen Leibovici","MMM Group Ltd","200, 10576 113 Str","Edmonton","AB","1000"
"Mayor",,"Disclosure","Karen Leibovici","Nancy Cumming",,"Edmonton","AB","500"
"Mayor",,"Disclosure","Karen Leibovici","John Musgreave Professional Corp","265 Galland Close","Edmonton","AB","250"
"Mayor",,"Disclosure","Karen Leibovici","Avison Young Real Estate Alberta Inc","2800 Bell Tower, 10104 103 Ave","Edmonton","AB","5000"
"Mayor",,"Disclosure","Karen Leibovici","Bentall Kennedy (Canada) LP","100 Sun Life Place 10123 99 Str","Edmonton","AB","1000"
"Mayor",,"Disclosure","Karen Leibovici","Robert Bentley",,"Edmonton","AB","500"
"Mayor",,"Disclosure","Karen Leibovici","Seer Developments Ltd.","1403 Woodward Crescent","Edmonton","AB","2500"
"Mayor",,"Disclosure","Karen Leibovici","Walton Dev and Mgmt LP","22nd Floor, 605 5th Ave SW","Calgary","AB","5000"
"Mayor",,"Disclosure","Karen Leibovici","Angus Watt Enterprises Inc","194 Wolf Willow Crescent","Edmonton","AB","5000"
"Mayor",,"Disclosure","Karen Leibovici","Context & Contacts Inc","14007-89 Avenue NW","Edmonton","AB","5000"
"Mayor",,"Disclosure","Karen Leibovici","DTZ Barnicke","602 Bell Tower, 10104-103 Ave","Edmonton","AB","5000"
"Mayor",,"Disclosure","Karen Leibovici","Kellerdanii Construction","11430-160 Str","Edmonton","AB","5000"
"Mayor",,"Disclosure","Karen Leibovici","Irving Kipnes",,"Edmonton","AB","2500"
"Mayor",,"Disclosure","Karen Leibovici","Melcor Developments Ltd","900, 10310 Jasper Ave","Edmonton","AB","5000"
"Mayor",,"Disclosure","Karen Leibovici","PCL Constructors Inc","5410 99 Str","Edmonton","AB","5000"
"Mayor",,"Disclosure","Karen Leibovici","Robert Seidel",,"Edmonton","AB","5000"
"Mayor",,"Disclosure","Karen Leibovici","Young HC Ltd","804 Romaniuk Place NW","Edmonton","AB","2500"
"Mayor",,"Disclosure","Karen Leibovici","Ralph Young",,"Edmonton","AB","1000"
"Mayor",,"Disclosure","Karen Leibovici","Chadi & Company","1901 Tower Two, 10060 Jasper Ave","Edmonton","AB","3500"
"Mayor",,"Disclosure","Karen Leibovici","Donald Schultz",,"Edmonton","AB","200"
"Mayor",,"Disclosure","Karen Leibovici","Dr Sam Marcushamer & Mrs Michelle",,"Edmonton","AB","150"
"Mayor",,"Disclosure","Karen Leibovici","Bennett Jones",,"Calgary","AB","1000"
"Mayor",,"Disclosure","Karen Leibovici","Barry Slawsky",,"Edmonton","AB","1000"
"Mayor",,"Disclosure","Karen Leibovici","Lawrence & Nora Lyman",,"Edmonton","AB","500"
"Mayor",,"Disclosure","Karen Leibovici","Maclab Enterprises","PO Box 3160","Edmonton","AB","5000"
"Mayor",,"Disclosure","Karen Leibovici","Dr Stephen Shafran & Mrs Beverly",,"Edmonton","AB","250"
"Mayor",,"Disclosure","Karen Leibovici","Rowena Schwartzberg & Jack",,"Edmonton","AB","250"
"Mayor",,"Disclosure","Karen Leibovici","Joseph Doz 1994 Professional Corp","9928 - 104 Str","Edmonton","AB","500"
"Mayor",,"Disclosure","Karen Leibovici","Just for Fun Ltd","10066-156 Str NW","Edmonton","AB","500"
"Mayor",,"Disclosure","Karen Leibovici","John Day",,"Edmonton","AB","5000"
"Mayor",,"Disclosure","Karen Leibovici","Grant Vogel",,"Edmonton","AB","250"
"Mayor",,"Disclosure","Karen Leibovici","Russ Joseph",,"Edmonton","AB","250"
"Mayor",,"Disclosure","Karen Leibovici","West Edmonton Centre Corp","15711-128 Ave NW","Edmonton","AB","5000"
"Mayor",,"Disclosure","Karen Leibovici","Dr. Anne Marie Decore",,"Edmonton","AB","500"
"Mayor",,"Disclosure","Karen Leibovici","Sam & Joyce Galante",,"Edmonton","AB","180"
"Mayor",,"Disclosure","Karen Leibovici","Michel V Lavoie Professional Corp","11202-76 Ave NW","Edmonton","AB","500"
"Mayor",,"Disclosure","Karen Leibovici","Josef & Rachel Ovics",,"Edmonton","AB","180"
"Mayor",,"Disclosure","Karen Leibovici","John Lilley",,"Edmonton","AB","300"
"Mayor",,"Disclosure","Karen Leibovici","Baramy Investments Ltd","#2120, 10060 Jasper Ave","Edmonton","AB","3000"
"Mayor",,"Disclosure","Karen Leibovici","B & B Demolition Ltd","12800-153 Str NW","Edmonton","AB","5000"
"Mayor",,"Disclosure","Karen Leibovici","1306039 AB Ltd","9258-34 Ave","Edmonton","AB","5000"
"Mayor",,"Disclosure","Karen Leibovici","661463 Alberta Inc","15143-121 Str","Edmonton","AB","500"
"Mayor",,"Disclosure","Karen Leibovici","Acme Scrap Iron & Metals Ltd","16405-130 Ave NW","Edmonton","AB","5000"
"Mayor",,"Disclosure","Karen Leibovici","Margot Bolton",,"Edmonton","AB","250"
"Mayor",,"Disclosure","Karen Leibovici","Dundee Realty Corp","Suite 1530, 10250 101 Str NW","Edmonton","AB","5000"
"Mayor",,"Disclosure","Karen Leibovici","Imperial Parking Canada Corp","10239-107 Str","Edmonton","AB","5000"
"Mayor",,"Disclosure","Karen Leibovici","Shelley Miller",,"Edmonton","AB","1000"
"Mayor",,"Disclosure","Karen Leibovici","Miller Thomson LLP","2700, 10155-102 Str","Edmonton","AB","300"
"Mayor",,"Disclosure","Karen Leibovici","Ogilvie LLP","1400, 10303 Jasper Ave","Edmonton","AB","5000"
"Mayor",,"Disclosure","Karen Leibovici","Rojab Developments Ltd","26 Riverside Crescent NW","Edmonton","AB","300"
"Mayor",,"Disclosure","Karen Leibovici","Isidor Gliener",,"Edmonton","AB","200"
"Mayor",,"Disclosure","Karen Leibovici","Don Wheaton Ltd","10727 82 Ave","Edmonton","AB","5000"
"Mayor",,"Disclosure","Karen Leibovici","Ross & Kathy Grieve",,"Edmonton","AB","2000"
"Mayor",,"Disclosure","Karen Leibovici","Hilliard & Nancy MacBeth",,"Edmonton","AB","500"
"Mayor",,"Disclosure","Karen Leibovici","Nancy G. Power",,"Edmonton","AB","1000"
"Mayor",,"Disclosure","Karen Leibovici","Douglas Goss, QC & Joanne",,"Edmonton","AB","1000"
"Mayor",,"Disclosure","Karen Leibovici","Robert Bruggeman/Heather Ferguson",,"Edmonton","AB","500"
"Mayor",,"Disclosure","Karen Leibovici","Michael W. Crozier Professional Corp.","2600, 10180 101 Str NW","Edmonton","AB","500"
"Mayor",,"Disclosure","Karen Leibovici","Rohit Communities Inc","550 91 Str SW","Edmonton","AB","1000"
"Mayor",,"Disclosure","Karen Leibovici","HCI Ventures Ltd","1902, 8215 112 Str NW","Edmonton","AB","5000"
"Mayor",,"Disclosure","Karen Leibovici","Aaron Oshry Professional Corp","1004, 10104 103 Ave NW","Edmonton","AB","250"
"Mayor",,"Disclosure","Karen Leibovici","Aum Hotel Group Inc. o/a The Coast Edmonton East Hotel","2103 Premier Way","Sherwood Park","AB","5000"
"Mayor",,"Disclosure","Karen Leibovici","Alda & Don Grundy",,"Edmonton","AB","2000"
"Mayor",,"Disclosure","Karen Leibovici","AB Punjabi Sports Club & Cultural Assoc","1403-48 Str","Edmonton","AB","1000"
"Mayor",,"Disclosure","Karen Leibovici","Sundeep Furniture Ltd","9908-65 Ave NW","Edmonton","AB","1000"
"Mayor",,"Disclosure","Karen Leibovici","A1 Delivery & Moving Inc","24520 Meridian Str NW","Edmonton","AB","3000"
"Mayor",,"Disclosure","Karen Leibovici","U Tronix Inc","2935 Ellwood Dr SW","Edmonton","AB","300"
"Mayor",,"Disclosure","Karen Leibovici","Kevin L.J. Lynch Professional Corp","15 Kingsford Cres","St. Albert","AB","1500"
"Mayor",,"Disclosure","Karen Leibovici","1144413 Alberta Ltd (Ben Starkman Realty)","14606 95 Ave NW","Edmonton","AB","500"
"Mayor",,"Disclosure","Karen Leibovici","Ayaz & Gulnaz Bhanji",,"Edmonton","AB","250"
"Mayor",,"Disclosure","Karen Leibovici","Century Park Developments Ltd","Suite 2800, 817 15 Ave SW","Calgary","AB","2000"
"Mayor",,"Disclosure","Karen Leibovici","Decore Holdings Inc","10026 164 Str NW","Edmonton","AB","750"
"Mayor",,"Disclosure","Karen Leibovici","Natacha Ineza",,"Edmonton","AB","150"
"Mayor",,"Disclosure","Karen Leibovici","Peter Moore",,"St. Albert","AB","500"
"Mayor",,"Disclosure","Karen Leibovici","Howard & Debbie Sniderman",,"Edmonton","AB","500"
"Mayor",,"Disclosure","Karen Leibovici","Nancy MacDonald",,"Edmonton","AB","500"
"Mayor",,"Disclosure","Karen Leibovici","Assiff Law Office","10339 120 Str NW","Edmonton","AB","500"
"Mayor",,"Disclosure","Karen Leibovici","Carl Amrhein",,"Edmonton","AB","500"
"Mayor",,"Disclosure","Karen Leibovici","Steven LePoole",,"Edmonton","AB","1000"
"Mayor",,"Disclosure","Karen Leibovici","Roger Palmer",,"Edmonton","AB","1000"
"Mayor",,"Disclosure","Karen Leibovici","Maggie Callahan Mitchell",,"Edmonton","AB","500"
"Mayor",,"Disclosure","Karen Leibovici","V. Becker/G. Bouma",,"Edmonton","AB","300"
"Mayor",,"Disclosure","Karen Leibovici","AB & NWT Blg & Construction Trades Council","11635 160 Str NW","Edmonton","AB","2000"
"Mayor",,"Disclosure","Karen Leibovici","Marcia & Ronald Bercov",,"Edmonton","AB","200"
"Mayor",,"Disclosure","Karen Leibovici","Larry Pals",,"Edmonton","AB","1000"
"Mayor",,"Disclosure","Karen Leibovici","Callidus Development","6159 Stinson Way NW","Edmonton","AB","200"
"Mayor",,"Disclosure","Karen Leibovici","D.E.S. Engineering Ltd","8407A Coronet Road NW","Edmonton","AB","2000"
"Mayor",,"Disclosure","Karen Leibovici","Dan Developments Ltd","307 Weaver Pt NW","Edmonton","AB","250"
"Mayor",,"Disclosure","Karen Leibovici","Driving Force","11025 184 Str","Edmonton","AB","500"
"Mayor",,"Disclosure","Karen Leibovici","Genstar Development Partnership","Suite 202, 17420 Stony Plain Road","Edmonton","AB","1500"
"Mayor",,"Disclosure","Karen Leibovici","Mrs. Dianne Germain",,"Edmonton","AB","1000"
"Mayor",,"Disclosure","Karen Leibovici","Howlund International Corp","103, 10025 115 Str","Edmonton","AB","300"
"Mayor",,"Disclosure","Karen Leibovici","Kennedy Agrios LLP","1325, 10180 101 Str NW","Edmonton","AB","500"
"Mayor",,"Disclosure","Karen Leibovici","Kenneth F Cleall Professional Corp","Suite 2500, 10155 102 Str NW","Edmonton","AB","500"
"Mayor",,"Disclosure","Karen Leibovici","Ledcor Construction Ltd","7008 Roper Road NW","Edmonton","AB","5000"
"Mayor",,"Disclosure","Karen Leibovici","Liquor Stores GP Inc  (Liquor Stores Ltd Partnership)","Suite 300, 10508 82 Ave","Edmonton","AB","2500"
"Mayor",,"Disclosure","Karen Leibovici","Marvin Weisler Professional Corp","602, 12303 Jasper Ave NW","Edmonton","AB","150"
"Mayor",,"Disclosure","Karen Leibovici","Northern Premier Investments Ltd","305, 1822 10 Ave SW","Calgary","AB","500"
"Mayor",,"Disclosure","Karen Leibovici","Esther Starkman",,"Edmonton","AB","1000"
"Mayor",,"Disclosure","Karen Leibovici","Linnea & James Ward",,"Edmonton","AB","250"
"Mayor",,"Disclosure","Karen Leibovici","Carole & Bernard West",,"Edmonton","AB","170"
"Mayor",,"Disclosure","Karen Leibovici","Noah G Jones",,"Edmonton","AB","500"
"Mayor",,"Disclosure","Karen Leibovici","Marshall Shoctor",,"Edmonton","AB","250"
"Mayor",,"Disclosure","Karen Leibovici","Salvatore Corea",,"Edmonton","AB","250"
"Mayor",,"Disclosure","Karen Leibovici","Mark Stillman",,"Edmonton","AB","150"
"Mayor",,"Disclosure","Karen Leibovici","David A. Hardy",,"Edmonton","AB","5000"
"Mayor",,"Disclosure","Karen Leibovici","Erin Hardy",,"Edmonton","AB","5000"
"Mayor",,"Disclosure","Karen Leibovici","My Pharmacy Holdings Ltd","11464 Jasper Ave NW","Edmonton","AB","1000"
"Mayor",,"Disclosure","Karen Leibovici","Bruce King",,"Edmonton","AB","150"
"Mayor",,"Disclosure","Karen Leibovici","Deford Contracting Inc","16720-109 Ave","Edmonton","AB","5000"
"Mayor",,"Disclosure","Karen Leibovici","Conroy Ross Partners Ltd","3800, 205 5 Ave SW","Edmonton","AB","1000"
"Mayor",,"Disclosure","Karen Leibovici","O'Ryan Hughes",,"Edmonton","AB","2500"
"Mayor",,"Disclosure","Karen Leibovici","IE & TB Banks",,"Edmonton","AB","500"
"Mayor",,"Disclosure","Karen Leibovici","Jane Batty",,"Edmonton","AB","150"
"Mayor",,"Disclosure","Karen Leibovici","Leighton & Beverley Decore",,"Edmonton","AB","150"
"Mayor",,"Disclosure","Karen Leibovici","Dennis Erker",,"Edmonton","AB","3000"
"Mayor",,"Disclosure","Karen Leibovici","Warner Grant Fairley",,"Edmonton","AB","250"
"Mayor",,"Disclosure","Karen Leibovici","Brian & Ida Kaliel",,"Edmonton","AB","300"
"Mayor",,"Disclosure","Karen Leibovici","Ken-Pat Holdings Ltd","100, 250 Southridge NW","Edmonton","AB","2000"
"Mayor",,"Disclosure","Karen Leibovici","Liberty Palace Services Ltd","856 Drysdale Run","Edmonton","AB","500"
"Mayor",,"Disclosure","Karen Leibovici","Walter & Marcia McKall",,"Edmonton","AB","400"
"Mayor",,"Disclosure","Karen Leibovici","Gaby & Deborah Sonego",,"Edmonton","AB","250"
"Mayor",,"Disclosure","Karen Leibovici","Trace Applications Inc","5, 9353 50 Str NW","Edmonton","AB","1000"
"Mayor",,"Disclosure","Karen Leibovici","Michelle & Jim Trotter",,"Edmonton","AB","250"
"Mayor",,"Disclosure","Karen Leibovici","Lance Turner & Charlotte Wolters",,"Edmonton","AB","500"
"Mayor",,"Disclosure","Karen Leibovici","Union 52 Benevolent Society","11305 95 Str NW","Edmonton","AB","5000"
"Mayor",,"Disclosure","Karen Leibovici","Catherine Vetsch",,"Edmonton","AB","250"
"Mayor",,"Disclosure","Karen Leibovici","Joe & Paula Yurkovich",,"Edmonton","AB","600"
"Mayor",,"Disclosure","Karen Leibovici","Ralph Huizinga",,"Calgary","AB","1000"
"Mayor",,"Disclosure","Karen Leibovici","Thomas McPherson",,"Edmonton","AB","500"
"Mayor",,"Disclosure","Karen Leibovici","Randy Soifer",,"Edmonton","AB","200"
"Mayor",,"Disclosure","Karen Leibovici","M.A.P. Water & Sewer Services Ltd","14303 116 Ave","Edmonton","AB","5000"
"Mayor",,"Disclosure","Karen Leibovici","Barry L. James Professional Corp","8929 Valleyview Dr","Edmonton","AB","300"
"Mayor",,"Disclosure","Karen Leibovici","Daniel Maclennan",,"St. Albert","AB","200"
"Mayor",,"Disclosure","Karen Leibovici","Marshall & Deborah Shoctor",,"Edmonton","AB","500"
"Mayor",,"Disclosure","Karen Leibovici","Satinder & Kulwinder Samra",,"Edmonton","AB","500"
"Mayor",,"Disclosure","Karen Leibovici","All Weather Windows Ltd","18550 118A Ave","Edmonton","AB","1500"
"Mayor",,"Disclosure","Karen Leibovici","Mieczyslaw & Bozena Odyjewska",,"Edmonton","AB","1000"
"Mayor",,"Disclosure","Karen Leibovici","Tina Naqvi-Rota & Tony Rota",,"Edmonton","AB","1000"
"Mayor",,"Disclosure","Karen Leibovici","DCM Management & Consulting Ltd","78 Windermere Dr SW","Edmonton","AB","1000"
"Mayor",,"Disclosure","Karen Leibovici","Nortrux Inc","18110 118 Ave","Edmonton","AB","1000"
"Mayor",,"Disclosure","Karen Leibovici","Pino Holdings Ltd","12545 133 Str NW","Edmonton","AB","1000"
"Mayor",,"Disclosure","Karen Leibovici","Canadian Union Public Employees Local 30","102, 10425 Princess Elizabeth Ave","Edmonton","AB","5000"
"Mayor",,"Disclosure","Karen Leibovici","Pioneer Meadows Golf Course Ltd","Box 32051","Edmonton","AB","1000"
"Mayor",,"Disclosure","Karen Leibovici","Allstar Construction Ltd","8621 177A Str","Edmonton","AB","1000"
"Mayor",,"Disclosure","Karen Leibovici","Benjamin C. Cairo Professional Corp","Suite 1600, 10025 102A Ave NW","Edmonton","AB","1000"
"Mayor",,"Disclosure","Karen Leibovici","Ace Lange Construction Ltd","10335 61 Ave","Edmonton","AB","1000"
"Mayor",,"Disclosure","Karen Leibovici","Urban Town Inc","5011 126 Str NW","Edmonton","AB","1000"
"Mayor",,"Disclosure","Karen Leibovici","Western Living Homes Ltd","9877 62 Ave","Edmonton","AB","1000"
"Mayor",,"Disclosure","Karen Leibovici","Yaremchuk & Annicchiarico LLP","202, 8657 51 Ave","Edmonton","AB","1000"
"Mayor",,"Disclosure","Karen Leibovici","Graham Fletcher",,"Edmonton","AB","400"
"Mayor",,"Disclosure","Karen Leibovici","Brinsmead Kennedy Architecture","10434 122 Str","Edmonton","AB","1000"
"Mayor",,"Disclosure","Karen Leibovici","Manuela or Helder Afonso",,"Edmonton","AB","300"
"Mayor",,"Disclosure","Karen Leibovici","Chinese Freemasons Society Edm Lodge Wild Rose Circle Social Project","9622 102 Ave","Edmonton","AB","3750"
"Mayor",,"Disclosure","Karen Leibovici","Steven Baker",,"Edmonton","AB","500"
"Mayor",,"Disclosure","Karen Leibovici","Christiaan Odinga",,"St. Albert","AB","200"
"Mayor",,"Disclosure","Karen Leibovici","Wild Cards Advertising Inc","12815 Woodbend Place","Edmonton","AB","105"
"Mayor",,"Disclosure","Karen Leibovici","Spencer Environmental Mgmt Services Ltd","402, 9925 109 Str","Edmonton","AB","200"
"Mayor",,"Disclosure","Karen Leibovici","Donald Pearson",,"Edmonton","AB","1000"
"Mayor",,"Disclosure","Karen Leibovici","Joan Kirillo",,"Edmonton","AB","200"
"Mayor",,"Disclosure","Karen Leibovici","Joe Yurkovich",,"Edmonton","AB","200"
"Mayor",,"Disclosure","Karen Leibovici","Stephen Zepp",,"Edmonton","AB","3025"
"Mayor",,"Disclosure","Karen Leibovici","Daye & Partners","900, 10303 Jasper Ave","Edmonton","AB","1000"
"Mayor",,"Disclosure","Karen Leibovici","Douglas Faulder",,"Edmonton","AB","600"
"Mayor",,"Disclosure","Karen Leibovici","Interscape Interior Design Ltd","11625-105 Ave","Edmonton","AB","200"
"Mayor",,"Disclosure","Karen Leibovici","Alberta Blue Cross","10009-108 Str NW","Edmonton","AB","600"
"Mayor",,"Disclosure","Karen Leibovici","EllisDon Construction Services Inc","300, 7330 Fisher Str SE","Calgary","AB","1000"
"Mayor",,"Disclosure","Karen Leibovici","Hal Danchilla Consulting","1720, 10020 101A Ave NW","Edmonton","AB","5000"
"Mayor",,"Disclosure","Karen Leibovici","Amalgamated Transit Union Local 569","10540 108 Str","Edmonton","AB","5000"
"Mayor",,"Disclosure","Karen Leibovici","AB Region Council  Carpenters & Allied Workers","200, 15210 123 Ave","Edmonton","AB","5000"
"Mayor",,"Disclosure","Karen Leibovici","Sun Properties Inc","104 Wolf Ridge Place NW","Edmonton","AB","2500"
"Mayor",,"Disclosure","Karen Leibovici","Caster Town","14219 Yellowhead Trail NW","Edmonton","AB","2500"
"Mayor",,"Disclosure","Karen Leibovici","Dialog","Suite 100, 10237 104 Str","Edmonton","AB","2000"
"Mayor",,"Disclosure","Karen Leibovici","1339744 Alberta Ltd O/A JB's Storage","5248 Mullen Cres","Edmonton","AB","500"
"Mayor",,"Disclosure","Karen Leibovici","1569424 Alberta Inc","2904 Ellwood Dr SW","Edmonton","AB","500"
"Mayor",,"Disclosure","Karen Leibovici","Asian Tribune","PO Box 32135","Edmonton","AB","400"
"Mayor",,"Disclosure","Karen Leibovici","Aida Santos Prasad",,"Edmonton","AB","250"
"Mayor",,"Disclosure","Karen Leibovici","Benlark Management Services Ltd","Box 2038","St. Albert","AB","250"
"Mayor",,"Disclosure","Karen Leibovici","1525983 Alberta Ltd (Gurnam Dodd)","4709 27 Ave","Edmonton","AB","200"
"Mayor",,"Disclosure","Karen Leibovici","Christopher O'Brien",,"Edmonton","AB","200"
"Mayor",,"Disclosure","Karen Leibovici","GR Spooner",,"Edmonton","AB","200"
"Mayor",,"Disclosure","Karen Leibovici","Richard Anderson",,"Edmonton","AB","500"
"Mayor",,"Disclosure","Karen Leibovici","R.A. Sandy Slator",,"Edmonton","AB","500"
"Mayor",,"Disclosure","Karen Leibovici","Rich Grover",,"Edmonton","AB","500"
"Mayor",,"Disclosure","Karen Leibovici","1771354 Alberta Ltd (Larry Hahn)","305, 11523 100 Ave","Edmonton","AB","3000"
"Mayor",,"Disclosure","Karen Leibovici","David Ghermezian",,"Edmonton","AB","4000"
"Mayor",,"Disclosure","Karen Leibovici","Rick Bronson's The Comic Strip","1646, 8882 170 Str NW","Edmonton","AB","5000"
"Mayor",,"Disclosure","Karen Leibovici","901505 Alberta Ltd /Shira Construction Ltd","562 Wolf Willow Road NW","Edmonton","AB","5000"
"Mayor",,"Disclosure","Karen Leibovici","Courtyard by Marriott Edm West","Suite 205, 10423 178 Str NW","Edmonton","AB","1000"
"Councillor","Ward 1","Disclosure","Jamie Kenneth Post","K Post",,"Edmonton","AB","2722"
"Mayor",,"Disclosure","Karen Leibovici","Zaheerali Lakhani Professional Corp","Suite 202, 11808 St Albert Trail","Edmonton","AB","250"
"Mayor",,"Disclosure","Karen Leibovici","Sadru & Nasim Nazarali",,"Edmonton","AB","200"
"Mayor",,"Disclosure","Karen Leibovici","Gulnaz Jiwa Professional Corp","9914 144 Str NW","Edmonton","AB","250"
"Mayor",,"Disclosure","Karen Leibovici","Duncan Craig LLP","2800 Scotia Place, 10060 Jasper Ave","Edmonton","AB","500"
"Mayor",,"Disclosure","Karen Leibovici","Rider Management Inc","15326 Stony Plain Road NW","Edmonton","AB","200"
"Mayor",,"Disclosure","Karen Leibovici","Imperial Equities","Suite 2151, Tower 2, 10060 Jasper Ave","Edmonton","AB","1000"
"Mayor",,"Disclosure","Karen Leibovici","Haya Homes Ltd","802, 10050 112 Str","Edmonton","AB","500"
"Mayor",,"Disclosure","Karen Leibovici","Limak Investments Inc","802, 10050 112 Str","Edmonton","AB","500"
"Mayor",,"Disclosure","Karen Leibovici","Tarrabain Raponi & Company","Suite 2150, Tower 1, 10060 Jasper Ave","Edmonton","AB","1000"
"Mayor",,"Disclosure","Karen Leibovici","Gordon Buchanan Enterprises Ltd","34 Airport Road","Edmonton","AB","1000"
"Mayor",,"Disclosure","Karen Leibovici","Al-Rashid Cultural Assoc","14525 127 Str","Edmonton","AB","1000"
"Mayor",,"Disclosure","Karen Leibovici","Omicron Canada Inc","Suite 500, 833 4 Ave SW","Calgary","AB","300"
"Mayor",,"Disclosure","Karen Leibovici","S & D Property Development Ltd","Unit 300, 2603 Hewes Way","Edmonton","AB","200"
"Mayor",,"Disclosure","Karen Leibovici","Gino Ferri",,"St. Albert","AB","200"
"Mayor",,"Disclosure","Karen Leibovici","Delta Land Surveys Ltd","9809 89 Ave","Edmonton","AB","200"
"Mayor",,"Disclosure","Karen Leibovici","SCL Engineering Ltd","200, 7205 Roper Road","Edmonton","AB","200"
"Mayor",,"Disclosure","Karen Leibovici","Raimond Fund Architect Ltd","200, 11456 Jasper Ave NW","Edmonton","AB","1800"
"Mayor",,"Disclosure","Karen Leibovici","Wines & Spirits Warehouse O/A Vinomania","11452 Jasper Ave","Edmonton","AB","200"
"Mayor",,"Disclosure","Karen Leibovici","KPMG Management Services LP","10125 102 Str NW","Edmonton","AB","600"
"Mayor",,"Disclosure","Karen Leibovici","Chomicki Baril Mah LLP","1201, 10088 102 Ave","Edmonton","AB","1000"
"Mayor",,"Disclosure","Karen Leibovici","West Edmonton Truckland Ltd","16806 118 Ave NW","Edmonton","AB","500"
"Mayor",,"Disclosure","Karen Leibovici","983122 Alberta Ltd","16806 118 Ave NW","Edmonton","AB","500"
"Mayor",,"Disclosure","Karen Leibovici","Ronald K M Lau",,"Edmonton","AB","200"
"Mayor",,"Disclosure","Karen Leibovici","Bill Grace",,"Edmonton","AB","250"
"Mayor",,"Disclosure","Karen Leibovici","Charlotte Robb",,"Edmonton","AB","1000"
"Mayor",,"Disclosure","Karen Leibovici","Prowse Chowne LLP","1300, 10020 101A Ave","Edmonton","AB","750"
"Mayor",,"Disclosure","Karen Leibovici","Yorkton Group International Ltd","2430, 10180 101 Str","Edmonton","AB","3000"
"Mayor",,"Disclosure","Karen Leibovici","Kasian Architecture Interior Design & Planning Ltd","251, 10150 Jasper Ave","Edmonton","AB","400"
"Mayor",,"Disclosure","Karen Leibovici","Christenson Equities Ltd","5410 97 Str","Edmonton","AB","5000"
"Mayor",,"Disclosure","Karen Leibovici","Coalition of Edmonton Civic Unions","11305 95 Str NW","Edmonton","AB","5000"
"Mayor",,"Disclosure","Karen Leibovici","Whitemud Place Properties Inc","5918 Roper Road","Edmonton","AB","5000"
"Mayor",,"Disclosure","Karen Leibovici","Bruce A Saville",,"Edmonton","AB","5000"
"Mayor",,"Disclosure","Karen Leibovici","Pivotal Research","Suite 101, 10155 114 Str NW","Edmonton","AB","1000"
"Mayor",,"Disclosure","Karen Leibovici","Alldritt Land Corp LP","500, East Tower, 14310 111 Ave","Edmonton","AB","2000"
"Mayor",,"Disclosure","Karen Leibovici","Shamrock Property Management Ltd","500, East Tower, 14310 111 Ave","Edmonton","AB","2000"
"Mayor",,"Disclosure","Karen Leibovici","1246153 Alberta Ltd","888, CN Tower, 10004 104 Ave","Edmonton","AB","2000"
"Mayor",,"Disclosure","Karen Leibovici","Ranjit Singh Powar Or",,"Edmonton","AB","500"
"Mayor",,"Disclosure","Karen Leibovici","Hama Investments Ltd","18925 Stony Plain Road NW","Edmonton","AB","500"
"Mayor",,"Disclosure","Karen Leibovici","Terry Kirkland",,"Edmonton","AB","250"
"Mayor",,"Disclosure","Karen Leibovici","Brian Hetherington",,"Edmonton","AB","300"
"Mayor",,"Disclosure","Karen Leibovici","Eliza C De Jongh",,"Edmonton","AB","200"
"Mayor",,"Disclosure","Karen Leibovici","Deb Carlson",,"Edmonton","AB","500"
"Mayor",,"Disclosure","Karen Leibovici","Fred Paasche",,"Edmonton","AB","200"
"Mayor",,"Disclosure","Karen Leibovici","Mohammed Migdady",,"Edmonton","AB","200"
"Mayor",,"Disclosure","Karen Leibovici","Nadia Ababna",,"Edmonton","AB","200"
"Mayor",,"Disclosure","Karen Leibovici","Brian J Geislinger",,"Edmonton","AB","150"
"Mayor",,"Disclosure","Karen Leibovici","Allan & Marianne Scott",,"Edmonton","AB","400"
"Mayor",,"Disclosure","Karen Leibovici","Jeremy Chorney",,"Edmonton","AB","2000"
"Mayor",,"Disclosure","Karen Leibovici","Alliance Ready Mix Concrete Ltd","22235 115 Ave NW","Edmonton","AB","5000"
"Mayor",,"Disclosure","Karen Leibovici","Dennis Mozak",,"St. Albert","AB","2500"
"Mayor",,"Disclosure","Karen Leibovici","Curtis Treen",,"Edmonton","AB","250"
"Mayor",,"Disclosure","Karen Leibovici","Makami College Inc","672 Lee Ridge Road NW","Edmonton","AB","500"
"Mayor",,"Disclosure","Karen Leibovici","Walubay Consulting Inc","10210 133 Str NW","Edmonton","AB","1000"
"Mayor",,"Disclosure","Karen Leibovici","Lorne G Duffield",,"Edmonton","AB","2500"
"Mayor",,"Disclosure","Karen Leibovici","Linda Duffield",,"Edmonton","AB","2500"
"Mayor",,"Disclosure","Karen Leibovici","Edm Fire Fighters Union","200, 7024 101 Ave NW","Edmonton","AB","5000"
"Mayor",,"Disclosure","Karen Leibovici","Dr. Adriana Davies",,"Edmonton","AB","200"
"Mayor",,"Disclosure","Karen Leibovici","D. Bruce Bentley",,"Edmonton","AB","500"
"Mayor",,"Disclosure","Karen Leibovici","Cory Felber",,"Edmonton","AB","1000"
"Mayor",,"Disclosure","Karen Leibovici","Lloyd Sadd Insurance Brokers Ltd","17413 107 Ave NW","Edmonton","AB","1000"
"Mayor",,"Disclosure","Karen Leibovici","Consulting Engineers of AB","Suite 870, 10020 101A Ave NW","Edmonton","AB","1000"
"Mayor",,"Disclosure","Karen Leibovici","Clifton Associates Ltd","4400 94 Str","Edmonton","AB","1000"
"Mayor",,"Disclosure","Karen Leibovici","Urban Systems Ltd","1035 105 Str NW","Edmonton","AB","200"
"Mayor",,"Disclosure","Karen Leibovici","John Chomiak",,"Mundare","AB","500"
"Mayor",,"Disclosure","Karen Leibovici","Elizabeth Lang",,"Edmonton","AB","253"
"Mayor",,"Disclosure","Karen Leibovici","Beyond Vision","5615 23 Ave NW","Edmonton","AB","200"
"Mayor",,"Disclosure","Karen Leibovici","Shourie Bhatia LLP","209, 2920 Calgary Trail","Edmonton","AB","500"
"Mayor",,"Disclosure","Karen Leibovici","Local Union 488 Political Action Fund","16214 118 Ave","Edmonton","AB","750"
"Mayor",,"Disclosure","Karen Leibovici","Durabuilt Windows & Doors Inc","10920 178 Str NW","Edmonton","AB","500"
"Mayor",,"Disclosure","Karen Leibovici","Feel Like Talking Connections Ltd","1808 Bowman Point SW","Edmonton","AB","1100"
"Mayor",,"Disclosure","Karen Leibovici","Giacobbo Holdings Ltd","12611 142 Ave","Edmonton","AB","3000"
"Mayor",,"Disclosure","Karen Leibovici","Century Hospitality Group Ltd","2550, 10155 102 Str NW","Edmonton","AB","1500"
"Mayor",,"Disclosure","Karen Leibovici","Anthony Wong",,"Edmonton","AB","450"
"Mayor",,"Disclosure","Karen Leibovici","541337 Alberta Ltd O/A Tasty Noodle","3203 Calgary Trail South","Edmonton","AB","1000"
"Mayor",,"Disclosure","Karen Leibovici","Canadian Asian Hospitality Industry Association","11904 113 Ave NW","Edmonton","AB","1500"
"Mayor",,"Disclosure","Karen Leibovici","Alberta Chinese Cultural Society","200, 10708 97 Str","Edmonton","AB","500"
"Mayor",,"Disclosure","Karen Leibovici","VSD Developments Corp","11150 149 Street","Edmonton","AB","500"
"Mayor",,"Disclosure","Karen Leibovici","Allan Kwan Consulting Inc","910 Wallbridge Place NW","Edmonton","AB","500"
"Mayor",,"Disclosure","Karen Leibovici","Rick Ewasiuk",,"Edmonton","AB","500"
"Mayor",,"Disclosure","Karen Leibovici","Barbara & Henry Fung",,"Edmonton","AB","500"
"Mayor",,"Disclosure","Karen Leibovici","Collins Barrow Edmonton LLP","2380, 10155 102 Str NW","Edmonton","AB","500"
"Mayor",,"Disclosure","Karen Leibovici","Michael S Lee Professional Corp","404, 11044 51 Ave NW","Edmonton","AB","300"
"Mayor",,"Disclosure","Karen Leibovici","Kenneth V Nhan OR",,"Edmonton","AB","200"
"Mayor",,"Disclosure","Karen Leibovici","BFI Canada Inc","3950 12 Str NE","Calgary","AB","5000"
"Mayor",,"Disclosure","Karen Leibovici","Waiward Steel Fabricators Ltd","10030 34 Str","Edmonton","AB","2500"
"Mayor",,"Disclosure","Karen Leibovici","WAM (Re) Developmente Mgmt Corp","200, 12420 104 Ave","Edmonton","AB","5000"
"Mayor",,"Disclosure","Karen Leibovici","Tim Melton",,"Edmonton","AB","200"
"Mayor",,"Disclosure","Karen Leibovici","Insight Insurance and Risk Mgmt Ltd","204, 12220 Stony Plain Road","Edmonton","AB","1500"
"Mayor",,"Disclosure","Karen Leibovici","Dennis L. Modry Professional Corp","8440 112 Str, 3H2-10 Walter C","Edmonton","AB","2000"
"Mayor",,"Disclosure","Karen Leibovici","Lehigh Hanson Materials Ltd","12640 Inland Way","Edmonton","AB","2000"
"Mayor",,"Disclosure","Karen Leibovici","1175609 Alberta Ltd","304, 9768 170 Str","Edmonton","AB","5000"
"Mayor",,"Disclosure","Karen Leibovici","Jaffer Inc","Suite 500, 10355 Jasper Ave","Edmonton","AB","1000"
"Mayor",,"Disclosure","Karen Leibovici","Jennifer Brown",,"Edmonton","AB","2500"
"Mayor",,"Disclosure","Karen Leibovici","Stewart P Gillespie",,"Edmonton","AB","1000"
"Mayor",,"Disclosure","Karen Leibovici","EBA Engineering Consultants Ltd","14940-123 Ave","Edmonton","AB","200"
"Mayor",,"Disclosure","Karen Leibovici","Wayne Pertman",,"Edmonton","AB","2000"
"Mayor",,"Disclosure","Karen Leibovici","R John Butler",,"Edmonton","AB","5000"
"Mayor",,"Disclosure","Karen Leibovici","Hemisphere Engineering Inc","10950-119 Str NW","Edmonton","AB","1000"
"Mayor",,"Disclosure","Karen Leibovici","Denny Andrews Inc O/A Cholla Sand & Dry Waste","304, 9768-170 Str","Edmonton","AB","2500"
"Mayor",,"Disclosure","Karen Leibovici","1645184 Alberta Ltd O/A Radio Sur Sangam","204, 9131 39 Ave","Edmonton","AB","500"
"Mayor",,"Disclosure","Karen Leibovici","RGO Office Products","11624 120 Str","Edmonton","AB","2500"
"Councillor","Ward 1","Disclosure","Sean Amato","Bigstone Health Commission","16310 100 Ave","Edmonton","AB","2000"
"Councillor","Ward 1","Disclosure","Sean Amato","Treaty 8 FN of Alberta","18178 102 Ave","Edmonton","AB","1500"
"Councillor","Ward 1","Disclosure","Sean Amato","Angelo Décor",,"Edmonton","AB","300"
"Councillor","Ward 1","Disclosure","Sean Amato","Core Chiropractic","127, I5 Erin Ridge Road","St. Albert","AB","300"
"Councillor","Ward 1","Disclosure","Sean Amato","Lori Speakman",,"Edmonton","AB","300"
"Councillor","Ward 1","Disclosure","Sharon Maclise","Deborah Dickson",,"Edmonton","AB","500"
"Councillor","Ward 1","Disclosure","Sharon Maclise","Thoreen Beaupre",,"Edmonton","AB","350"
"Councillor","Ward 1","Disclosure","Sharon Maclise","Danielle Lyda",,"Edmonton","AB","288"
"Councillor","Ward 1","Disclosure","Sharon Maclise","S. Maclise Enterprise Inc",,"Edmonton","AB","4552"
"Councillor","Ward 1","Disclosure","Jamie Kenneth Post","368791 Alberta Ltd","12740 126 Ave","Edmonton","AB","300"
"Councillor","Ward 1","Disclosure","Jamie Kenneth Post","Mr. M. Bencz",,"Edmonton","AB","175"
"Councillor","Ward 1","Disclosure","Jamie Kenneth Post","Shamrock Property Mgmt","14310 111 Ave","Edmonton","AB","500"
"Councillor","Ward 1","Disclosure","Jamie Kenneth Post","CUPE - Local 30","102, 10425 Princess Elizabeth Ave","Edmonton","AB","500"
"Councillor","Ward 1","Disclosure","Jamie Kenneth Post","D Post",,"Edmonton","AB","3412"
"Councillor","Ward 1","Disclosure","Andrew Knack","MLC Group Inc","1000, 10104 103 Ave NW","Edmonton","AB","2300"
"Councillor","Ward 1","Disclosure","Andrew Knack","424202 Alberta Ltd","11219 100 Ave NW","Edmonton","AB","295"
"Councillor","Ward 1","Disclosure","Andrew Knack","493074 Alberta Ltd","11219 100 Ave NW","Edmonton","AB","295"
"Councillor","Ward 1","Disclosure","Andrew Knack","749970 Alberta Ltd","11219 100 Ave NW","Edmonton","AB","295"
"Councillor","Ward 1","Disclosure","Andrew Knack","851713 Alberta Ltd","11219 100 Ave NW","Edmonton","AB","295"
"Councillor","Ward 1","Disclosure","Andrew Knack","Cameron Heights Joint Venture","11219 100 Ave NW","Edmonton","AB","295"
"Councillor","Ward 1","Disclosure","Andrew Knack","Qualico","3203 93 Str","Edmonton","AB","500"
"Councillor","Ward 1","Disclosure","Andrew Knack","Geraldine Baxter","1585 Glastonbury Blvd","Edmonton","AB","1000"
"Councillor","Ward 7","Disclosure","Dave Colburn","Randy Royer",,,,"200"
"Councillor","Ward 1","Disclosure","Andrew Knack","West Edmonton Mall Property Inc","3000, 8882 170 Str NW","Edmonton","AB","900"
"Councillor","Ward 1","Disclosure","Andrew Knack","Standard General Inc","23 Bellerose Dr","St. Albert","AB","300"
"Councillor","Ward 1","Disclosure","Andrew Knack","Brookfield Residential LP","200, 10414 103 Ave NW","Edmonton","AB","1000"
"Councillor","Ward 1","Disclosure","Andrew Knack","Avison Young Real Estate","2800, Bell Tower, 10104 103 Ave","Edmonton","AB","300"
"Councillor","Ward 1","Disclosure","Andrew Knack","Reid-Built Homes Ltd.","181470 107 Ave NW","Edmonton","AB","300"
"Councillor","Ward 1","Disclosure","Andrew Knack","Landmark Group of Builders","9765 54 Ave NW","Edmonton","AB","1000"
"Councillor","Ward 1","Disclosure","Andrew Knack","Arndt Tkalcic Bengert","10315 109 St NW","Edmonton","AB","250"
"Councillor","Ward 1","Disclosure","Andrew Knack","Raywalt Construction","506, 53016 Hwy 60","Acheson","AB","600"
"Councillor","Ward 1","Disclosure","Andrew Knack","Qualico Land","3203 93 Str NW","Edmonton","AB","2400"
"Councillor","Ward 1","Disclosure","Andrew Knack","Cameron Development Corp","10180 111 Str NW","Edmonton","AB","3000"
"Councillor","Ward 1","Disclosure","Andrew Knack","Carton Land Inc","10719 182 Str NW","Edmonton","AB","300"
"Councillor","Ward 1","Disclosure","Andrew Knack","DTZ Barnicke","602, Bell Tower, 10104 103 Ave","Edmonton","AB","300"
"Councillor","Ward 1","Disclosure","Andrew Knack","Metro Edmonton Properties Corp","11219 100 Ave NW","Edmonton","AB","300"
"Councillor","Ward 1","Disclosure","Andrew Knack","Wild Rose Power Centre Inc","11219 100 Ave NW","Edmonton","AB","300"
"Councillor","Ward 1","Disclosure","Andrew Knack","Wolf Willow Shopping Centre Inc","11219 100 Ave NW","Edmonton","AB","300"
"Councillor","Ward 1","Disclosure","Andrew Knack","23rd Avenue Lands Ltd","11219 100 Ave NW","Edmonton","AB","300"
"Councillor","Ward 1","Disclosure","Andrew Knack","D.I.A. Holdings Ltd","11219 100 Ave NW","Edmonton","AB","300"
"Councillor","Ward 1","Disclosure","Andrew Knack","1155557 Alberta Ltd","11219 100 Ave NW","Edmonton","AB","300"
"Councillor","Ward 1","Disclosure","Andrew Knack","620250 Alberta Ltd","11219 100 Ave NW","Edmonton","AB","300"
