"the_geom","x","y","name","address","city_1","state","zip","phone","directions"
"POINT (-77.512111061699 40.338305951385)","-77.512111000000004","40.338306000000003","BLAIN SPORTING GOODS","15 E MAIN ST","BLAIN","PA","17006","7175363264","http://maps.google.com/maps?q=40.338306,-77.512111"
"POINT (-77.298597002924 41.589825001288)","-77.298597000000001","41.589824999999998","NESSMUKS SPORTING GOODS","1803 ROUTE 287","MEADVILLE","PA","16938","5707245323","http://maps.google.com/maps?q=41.589825,-77.298597"
"POINT (-79.146446410374 41.842512217822)","41.84277866","-79.14644758","PENNWILD OUTDOORS","20 CLARK ST STE D","WARREN","PA","16365","8147300092","http://maps.google.com/maps?q=-79.14644758,41.84277866"
"POINT (-79.098833872245 40.952838571116)","-79.098833870000007","40.952838569999997","BEVERLY GUNS & SUPPLY","1798 ST JACOBS CHURCH RD","PUNXSUTAWNEY","PA","15767","8149387831","http://maps.google.com/maps?q=40.95283857,-79.09883387"
"POINT (-78.788171817886 41.247188275234)","-78.788173","41.247186999999997","RPC GUNS AMMO & MORE","1301 MAIN ST","BROCKWAY","PA","15824","8142656389","http://maps.google.com/maps?q=41.247187,-78.788173"
"POINT (-79.112239018903 41.168054078719)","-79.112239020000004","41.168054079999997","LEGACY ARCHERY SHOP","5328 ROUTE 322","BROOKVILLE","PA","15825","8148491200","http://maps.google.com/maps?q=41.16805408,-79.11223902"
"POINT (-77.752710930681 41.326227774928)","-77.752710930000006","41.326227780000004","TONYS HARDWARE","621-627 HURON AVENUE","RENOVO","PA","17764","5709231509","http://maps.google.com/maps?q=41.32622778,-77.75271093"
"POINT (-77.166010840386 39.852035920631)","-77.166010999999997","39.852035999999998","GETTYSBURG TRADING POST","2222 YORK RD","GETTYSBURG","PA","17325","7173343979","http://maps.google.com/maps?q=39.852036,-77.166011"
"POINT (-75.333645001785 40.32359399829)","-75.333645000000004","40.323594","DB FIREARMS","261 W BROAD ST","TELFORD","PA","18969","2674165252","http://maps.google.com/maps?q=40.323594,-75.333645"
"POINT (-75.69081557557 41.377617211863)","-75.690815999999998","41.377617999999998","AUTOBAHN TITLE & TAG","711 DAVIS STREET #3A","SCRANTON","PA","18505","5704683529","http://maps.google.com/maps?q=41.377618,-75.690816"
"POINT (-77.650309000716 39.914476998883)","-77.650308999999993","39.914476999999998","CHAMBERSBURG RURAL KING","1005 WAYNE AVE","CHAMBERSBURG","PA","17201","2232203346","http://maps.google.com/maps?q=39.914477,-77.650309"
"POINT (-76.181033003903 41.937628000581)","-76.181032999999999","41.937627999999997","JONES STORE","5968 JACKSON VALLEY RD","WARREN CENTER","PA","18851","5703950900","http://maps.google.com/maps?q=41.937628,-76.181033"
"POINT (-77.539726003863 41.918830998572)","-77.539726000000002","41.918830999999997","ROBBINS BUCK RUN","108 WEST MAIN ST","WESTFIELD","PA","16950","8143678235","http://maps.google.com/maps?q=41.918831,-77.539726"
"POINT (-77.033822005393 41.145719998998)","-77.033822000000001","41.145719999999997","NATIONAL ARCHERY & OUTDOORS","14325 S ST ROUTE 44","ALLENWOOD","PA","17810","5705470440","http://maps.google.com/maps?q=41.14572,-77.033822"
"POINT (-76.448373990534 41.0012075654)","-76.448374000000001","41.001207999999998","BLOOMSBURG TITLE TAG & NOTARY","550 EAST ST","BLOOMSBURG","PA","17815","5704160878","http://maps.google.com/maps?q=41.001208,-76.448374"
"POINT (-75.845530000485 41.835860997618)","-75.845529999999997","41.835861000000001","THE OUTDOOR INSIDERS","17120 PA 706","MONTROSE","PA","18801","5704320019","http://maps.google.com/maps?q=41.835861,-75.84553"
"POINT (-80.214741687801 41.396801607286)","-80.214749999999995","41.396805999999998","WAGLERS CAMP PERRY","2560 PERRY HWY","CLARKS MILLS","PA","16114","7242533047","http://maps.google.com/maps?q=41.396806,-80.21475"
"POINT (-77.484600999641 41.855916999543)","-77.484600999999998","41.855916999999998","BEECHWOOD TACKLE","89 SHORT HILL RD","WESTFIELD","PA","16950","8143673015","http://maps.google.com/maps?q=41.855917,-77.484601"
"POINT (-79.39453000475 41.198710001745)","-79.394530000000003","41.198709999999998","FAMILY FARM & HOME 70","22631 ROUTE 68 SUITE 100","CLARION","PA","16214","8142970737","http://maps.google.com/maps?q=41.19871,-79.39453"
"POINT (-75.439159138765 41.407013123234)","-75.439159000000004","41.407015999999999","ON THE ROAD AGAIN AUTO SALES","109 MOUNT COBB HWY","LAKE ARIEL","PA","18436","5707955332","http://maps.google.com/maps?q=41.407016,-75.439159"
"POINT (-79.319585799197 41.852127999566)","-79.319585799999999","41.852128","KAMS LOGGING SUPPLIES AND OUTDOOR WEAR","16 W MAIN ST","YOUNGSVILLE","PA","16371","8147301840","http://maps.google.com/maps?q=41.852128,-79.3195858"
"POINT (-76.933802998652 40.050011997445)","-76.933802999999997","40.050012000000002","BOWHUNTERS SUPERSTORE","1045 ZEIGLER RD","WELLSVILLE","PA","17365","7174323710","http://maps.google.com/maps?q=40.050012,-76.933803"
"POINT (-76.862019457037 40.292338547065)","-76.862019459999999","40.292338549999997","PFBC FRONT DESK","1601 ELMERTON AVENUE","HARRISBURG","PA","17110","7177057938","http://maps.google.com/maps?q=40.2941429,-76.862635"
"POINT (-76.308274933407 40.170645021763)","-76.308274929999996","40.170645020000002","BOMBERGERS STORE","555 FURNACE HILLS PIKE","LITITZ","PA","17543","7176263333","http://maps.google.com/maps?q=40.17064502,-76.30827493"
"POINT (-78.24187840272 40.91006285512)","-78.241878400000004","40.910062859999996","PHILIPSBURG TRUE VALUE HARDWRE","1687 PHILIPSBURG BIGLER HIGHWY","PHILIPSBURG","PA","16866","8143423040","http://maps.google.com/maps?q=40.91006286,-78.2418784"
"POINT (-79.890650192746 40.48877645971)","-79.890650190000002","40.488776459999997","DUNHAMS SPORTS 29","972 FREEPORT RD SPACE 127","PITTSBURGH","PA","15238","4127840700","http://maps.google.com/maps?q=40.48877646,-79.89065019"
"POINT (-77.017540658011 40.402390739705)","-77.017540659999995","40.402390740000001","RENT A BOAT-RIVERFRONT CMPGRND","9 NEWPORT RD","DUNCANNON","PA","17020","7178345252","http://maps.google.com/maps?q=40.40239074,-77.01754066"
"POINT (-79.788735660806 40.372147188848)","-79.78873566","40.37214719","DUNHAMS SPORTS 94","1701 LINCOLN HWY","NORTH VERSAILLES","PA","15137","4128298066","http://maps.google.com/maps?q=40.37214719,-79.78873566"
"POINT (-75.45581573939 40.598121063903)","-75.455815740000006","40.598121059999997","ARCHERY THE GLENN","7 AUBURN STREET","ALLENTOWN","PA","18103","6107917665","http://maps.google.com/maps?q=40.59812106,-75.45581574"
"POINT (-77.572068102936 40.63185348026)","-77.572068099999996","40.631853479999997","DUNHAMS SPORTS 209","224 N LOGAN BLVD SUITE 750","BURNHAM","PA","17009","7172420647","http://maps.google.com/maps?q=40.63185348,-77.5720681"
"POINT (-75.3191296102 41.311041633042)","-75.319129610000005","41.311041629999998","ROUNDHOUSE TRUE VALUE HARDWARE","1020 MAIN STREET","NEWFOUNDLAND","PA","18445","5706769560","http://maps.google.com/maps?q=41.31104163,-75.31912961"
"POINT (-76.854662862121 40.296221959198)","-76.854662860000005","40.296221959999997","PA GAME LICENSE DIVISION","2001 ELMERTON AVE","HARRISBURG","PA","17110",,"http://maps.google.com/maps?q=40.29622196,-76.85466286"
"POINT (-77.801609293054 40.832545528709)","-77.801609290000002","40.832545529999997","DUNHAMS SPORTS 234","2901 E COLLEGE AVE STE 800","STATE COLLEGE","PA","16801","8142370764","http://maps.google.com/maps?q=40.83254553,-77.80160929"
"POINT (-77.195979000285 40.075551000211)","-77.195978999999994","40.075550999999997","GREEN MTN GENERAL STORE N DELI","4640 CARLISLE RD","GARDNERS","PA","17324","7174489987","http://maps.google.com/maps?q=40.075551,-77.195979"
"POINT (-76.017030837077 40.985462450963)","-76.017030840000004","40.98546245","DUNHAMS SPORTS 233","230 LAUREL MALL SUITE 61","HAZLE TOWNSHIP","PA","18202","5704550914","http://maps.google.com/maps?q=40.98546245,-76.01703084"
"POINT (-75.278096697927 41.369222713863)","-75.278096700000006","41.369222710000003","IRONWOOD POINT RECREATION AREA","155 BURNS HILL RD","GREENTOWN","PA","18426","5708570880","http://maps.google.com/maps?q=41.36922271,-75.2780967"
"POINT (-79.14757593225 41.897864439095)","-79.147575930000002","41.897864439999999","DUNHAMS SPORTS 242","4000 MARKSET ST STE A","WARREN","PA","16365","8147254959","http://maps.google.com/maps?q=41.89786444,-79.14757593"
"POINT (-76.18999171628 40.705294631694)","-76.189991719999995","40.705294629999997","DUNHAMS SPORTS 255","7165 FAIRLANE VILLAGE MALL","POTTSVILLE","PA","17901","5709555960","http://maps.google.com/maps?q=40.70529463,-76.18999172"
"POINT (-78.619308848193 41.979168703244)","-78.619308849999996","41.979168700000002","DUNHAMS SPORTS 230","1001 EAST MAIN ST UNIT 17","BRADFORD","PA","16701","8143683978","http://maps.google.com/maps?q=41.9791687,-78.61930885"
"POINT (-78.73564650396 41.420794427946)","-78.735646500000001","41.420794430000001","LAZY RIVER CANOE RENTAL","40 WEST MAIN STREET","RIDGWAY","PA","15853",,"http://maps.google.com/maps?q=41.42079443,-78.7356465"
"POINT (-75.57848461977 41.152514384069)","-75.578484619999998","41.15251438","ARROWHEAD LAKE COMMUNITY ASSOC","961 ARROWHEAD DRIVE","POCONO LAKE","PA","18347","5706438131","http://maps.google.com/maps?q=41.15251438,-75.57848462"
"POINT (-79.824918609284 41.801075522888)","-79.824918609999997","41.801075519999998","VANTASSELS TIMBERLAND BAIT SHP","36320 DUTCH HILL ROAD","UNION CITY","PA","16438","8146943474","http://maps.google.com/maps?q=41.80107552,-79.82491861"
"POINT (-78.333668671676 40.599516345318)","-78.333668669999994","40.599516350000002","TANNERS HARDWARE","432 MAIN ST","BELLWOOD","PA","16617","8147428800","http://maps.google.com/maps?q=40.59951635,-78.33366867"
"POINT (-80.01828514956 40.489636797957)","-80.018270000000001","40.489570000000001","FISH ON BAIT AND TACKLE","3868 BAYTREE ST","PITTSBURGH","PA","15214","4122287742","http://maps.google.com/maps?q=40.48957,-80.01827"
"POINT (-75.654648199387 41.459746537744)","-75.64817223","41.461795029999998","FIELD AND STREAM 4618","440 VIEWMONT MALL","N SCRANTON","PA","18508","5704833442","http://maps.google.com/maps?q=41.46179503,-75.64817223"
"POINT (-79.710503594364 40.646295689895)","-79.710503590000002","40.646295690000002","DUNHAM'S SPORTS 111","40 HIGHLANDS MALL PLAZA","NATRONA HEIGHTS","PA","15065","7242300102","http://maps.google.com/maps?q=40.64629569,-79.71050359"
"POINT (-75.392294391515 40.08814127537)","-75.392294390000004","40.088141280000002","DICKS SPORTING GOODS 1110","160 N GULPH RD STE 4000","KING OF PRUSSIA","PA","19406","4847510071","http://maps.google.com/maps?q=40.08814128,-75.39229439"
"POINT (-80.005283774063 40.523443092015)","-80.005283770000005","40.523443090000001","AAA EAST CENTRAL NORTH HLS","4790 MCKNIGHT RD","PITTSBURGH","PA","15237-3426","4123677600","http://maps.google.com/maps?q=40.52344309,-80.00528377"
"POINT (-77.140403859257 40.531470002793)","-77.140401999999995","40.531471000000003","LONGHORN FAMILY CAMPGROUND AND STORE","226 W JUNIATA PKWY","MILLERSTOWN","PA","17062","7175983422","http://maps.google.com/maps?q=40.531471,-77.140402"
"POINT (-77.173182907868 40.200183012063)","-77.173182909999994","40.200183010000003","DUNHAM'S SPORTS 117","800 E HIGH ST SUITE 470","CARLISLE","PA","17013","7172497667","http://maps.google.com/maps?q=40.20018301,-77.17318291"
"POINT (-78.428584999668 40.425022999914)","-78.428584999999998","40.425023000000003","ALLEGHENY TRADE CO","928 3RD AVE","DUNCANSVILLE","PA","16637","8146953131","http://maps.google.com/maps?q=40.425023,-78.428585"
"POINT (-74.869377121725 40.185781930303)","-74.869377119999996","40.185781929999997","DICKS SPORTING GOODS 81","150 COMMERCE BLVD.","FAIRLESS HILLS","PA","19030","2159468750","http://maps.google.com/maps?q=40.18578193,-74.86937712"
"POINT (-79.941598960653 40.635350535789)","-79.941598959999993","40.635350539999997","DUNHAM'S SPORTS 163","200 NORTHTOWNE SQUARE","GIBSONIA","PA","15044","7244440100","http://maps.google.com/maps?q=40.63535054,-79.94159896"
"POINT (-80.519620499752 41.310972000026)","-80.519620500000002","41.310972","FIVE POINTS COUNTRY MART","8430 STATE ROUTE 305","BURGHILL","OH","44404","3307723410","http://maps.google.com/maps?q=41.310972,-80.5196205"
"POINT (-76.982596011999 40.684914469203)","-76.982596009999995","40.684914470000002","ALINE COUNTRY STORE","4959 RTE 104","MOUNT PLEASANT MILLS","PA","17853","5705398340","http://maps.google.com/maps?q=40.68491447,-76.98259601"
"POINT (-75.285378438026 40.114883730127)","-75.285378440000002","40.114883730000003","DICKS SPORTING GOODS 99","500 W GERMANTOWN PIKE","PLYMOUTH MEETING","PA","19462","6102604400","http://maps.google.com/maps?q=40.11488373,-75.28537844"
"POINT (-77.770091746801 40.578604480345)","-77.770091750000006","40.578604480000003","D AND R FIREARMS","2459 STATE ROUTE 655","BELLEVILLE","PA","17004","7174839954","http://maps.google.com/maps?q=40.57860448,-77.77009175"
"POINT (-78.86981176463 40.291629787953)","-78.869812319999994","40.291633560000001","ADVANTAGE AUTO SERVICE","692 SCALP AVE","JOHNSTOWN","PA","15904","8142660872","http://maps.google.com/maps?q=40.29163356,-78.86981232"
"POINT (-75.841324642586 41.241015407157)","-75.841324639999996","41.241015410000003","DICKS SPORTING GOODS 07","479 ARENA HUB PLAZA","WILKES BARRE","PA","18702","5708238288","http://maps.google.com/maps?q=41.24101541,-75.84132464"
"POINT (-76.494086860434 40.333897797536)","-76.494086859999996","40.333897800000003","BOMBERGERS ANNVILLE","1200 E MAIN ST","ANNVILLE","PA","17003","7176857936","http://maps.google.com/maps?q=40.3338978,-76.49408686"
"POINT (-78.405908869172 40.458891276162)","-78.405908870000005","40.458891280000003","SPORTSMANS WAREHOUSE 606","SIERRA N PLAZA 141 SIERRA DR","ALTOONA","PA","16601","8146935000","http://maps.google.com/maps?q=40.45889128,-78.40590887"
"POINT (-79.79181663699 40.572640388007)","-79.791816639999993","40.572640389999997","DICKS SPORTING GOODS 188","329 PITTSBURGH MILLS CIRCLE","TARENTUM","PA","15084","7242733226","http://maps.google.com/maps?q=40.57264039,-79.79181664"
"POINT (-76.3011709178 41.289291859802)","-76.3011585","41.289289500000002","RED ROCK CORNER STORE","121 STATE ROUTE 118","BENTON","PA","17814-7501","5708543622","http://maps.google.com/maps?q=41.2892895,-76.3011585"
"POINT (-75.520908198477 40.810711300664)","-75.520905999999997","40.810713","BLUE MOUNTAIN RESORT","1660 BLUE MOUNTAIN DRIVE","PALMERTON","PA","18071","6108267700","http://maps.google.com/maps?q=40.810713,-75.520906"
"POINT (-80.164475391575 40.452357239158)","-80.164475390000007","40.452357239999998","AAA EAST CENTRAL ROBINSON","1760 PARK MANOR BLVD","PITTSBURGH","PA","15205-4807","4128092800","http://maps.google.com/maps?q=40.45235724,-80.16447539"
"POINT (-80.102877153466 42.064992695545)","-80.102877149999998","42.064992699999998","SPORTSMANS WAREHOUSE 611","2075 INTERCHANGE RD","ERIE",,"16509-8315","8015666681","http://maps.google.com/maps?q=42.0649927,-80.10287715"
"POINT (-78.446827282179 41.809537220143)","-78.446827279999994","41.809537220000003","MCKEAN COUNTY TREASURER","500 W MAIN ST","SMETHPORT","PA","16749","8148873220","http://maps.google.com/maps?q=41.80953722,-78.44682728"
"POINT (-75.680464316399 40.017795973727)","-75.680464319999999","40.017795970000002","DICKS SPORTING GOODS 83","1026 E LANCASTER AVE","DOWNINGTOWN","PA","19335","6105185200","http://maps.google.com/maps?q=40.01779597,-75.68046432"
"POINT (-75.605384839836 40.752673301543)","-75.605384839999999","40.752673299999998","A F BOYER HARDWARE","130 MAIN ST","SLATINGTON",,"18080","6107673162","http://maps.google.com/maps?q=40.7526733,-75.60538484"
"POINT (-76.666328306774 39.983248661829)","-76.666328309999997","39.983248660000001","DICKS SPORTING GOODS 274","2955 CONCORD RD","YORK","PA","17402","7177514450","http://maps.google.com/maps?q=39.98324866,-76.66632831"
"POINT (-77.231780092004 41.191260087825)","-77.231780090000001","41.19126009","PGC-NORTHCENTRAL REGIONAL HDQ","1566 S STATE ROUTE 44","JERSEY SHORE","PA","17740","5703984744","http://maps.google.com/maps?q=41.19126009,-77.23178009"
"POINT (-79.927844842762 40.460069558887)","-79.927844840000006","40.460069560000001","AAA EAST CENTRAL E LIBERTY","5900 BAUM BLVD","PITTSBURGH","PA","15206-3803","4123657196","http://maps.google.com/maps?q=40.46006956,-79.92784484"
"POINT (-75.351403674466 40.634315083157)","-75.351403669999996","40.63431508","AAA EAST CENTRAL BETHLEHEM","1520 STEFKO BLVD","BETHLEHEM","PA","18017-6229","6108677502","http://maps.google.com/maps?q=40.63431508,-75.35140367"
"POINT (-76.802203329128 40.310642231096)","-76.802203329999998","40.310642229999999","DICKS SPORTING GOODS 39","5086 JONESTOWN ROAD","HARRISBURG","PA","17112","7176523174","http://maps.google.com/maps?q=40.31064223,-76.80220333"
"POINT (-78.405737307122 40.470979551701)","-78.405737310000006","40.470979550000003","DUNHAM'S SPORTS 86","241 PARK HILLS PLAZA","ALTOONA","PA","16601","8149423311","http://maps.google.com/maps?q=40.47097955,-78.40573731"
"POINT (-80.053275773145 40.341991643006)","-80.053275769999999","40.341991640000003","DICKS SPORTING GOODS 638","301 SOUTH HILLS VLG SUITE 201","UPPER ST CLAIR","PA","15241","4128315570","http://maps.google.com/maps?q=40.34199164,-80.05327577"
"POINT (-76.975016975354 39.799023492789)","-76.975016980000007","39.799023490000003","W E SELL SPORTING GOODS","401 YORK STREET","HANOVER","PA","17331","7176321293","http://maps.google.com/maps?q=39.79902349,-76.97501698"
"POINT (-75.109935912546 40.210484309197)","-75.109936000000005","40.210487999999998","SPORTSMANS WAREHOUSE 258","970 W STREET RD","WARMINSTER","PA","18974","8015666681","http://maps.google.com/maps?q=40.210488,-75.109936"
"POINT (-75.479451426018 40.571780086449)","-75.479451429999997","40.571780089999997","AAA EAST CENTRAL ALLENTOWN","2072 DOWNYFLAKE LN","ALLENTOWN","PA","18103-4779","6104345141","http://maps.google.com/maps?q=40.57178009,-75.47945143"
"POINT (-79.078528226002 40.008544105356)","-79.078528230000003","40.008544110000003","AAA EAST CENTRAL SOMERSET","110 N CENTER AVE","SOMERSET","PA","15501-2070","8144436526","http://maps.google.com/maps?q=40.00854411,-79.07852823"
"POINT (-79.746576575577 40.587719093624)","-79.746576579999996","40.58771909","AAA EAST CENTRAL LW BURRELL","2501 LEECHBURG RD  XRDS STE E","LOWER BURRELL","PA","15068-3060","7243394440","http://maps.google.com/maps?q=40.58771909,-79.74657658"
"POINT (-80.373512343991 40.774944909346)","-80.373512340000005","40.774944910000002","DUNHAM'S SPORTS 173","2556 CONSTITUTION BLVD","BEAVER FALLS","PA","15010","7248435705","http://maps.google.com/maps?q=40.77494491,-80.37351234"
"POINT (-78.898090499806 40.294827000198)","-78.898090499999995","40.294826999999998","JRS TACKLEBOX","435 OHIO ST","JOHNSTOWN","PA","15902","8142447925","http://maps.google.com/maps?q=40.294827,-78.8980905"
"POINT (-78.819258000326 41.051490000108)","-78.819258000000005","41.051490000000001","814 HOME & HARDWARE LLC","119 E MAIN ST","SYKESVILLE","PA","15865","8148940040","http://maps.google.com/maps?q=41.05149,-78.819258"
"POINT (-76.87930313024 42.151860285955)","-76.879303129999997","42.151860290000002","SPORTSMANS WAREHOUSE 604","830 COUNTY ROAD 64 STE 17","ELMIRA","NY","14903","6077398190","http://maps.google.com/maps?q=42.15186029,-76.87930313"
"POINT (-79.905910532044 40.893880091815)","-79.90591053","40.893880090000003","AAA EAST CENTRAL BUTLER","138 CLEARVIEW CIR","BUTLER","PA","16001-1565","7242872713","http://maps.google.com/maps?q=40.89388009,-79.90591053"
"POINT (-78.385836904378 40.487818769033)","-78.385836900000001","40.487818769999997","DICKS SPORTING GOODS 97","149 FALON LANE LOGAN TOWN CENT","ALTOONA","PA","16602","8149412273","http://maps.google.com/maps?q=40.48781877,-78.3858369"
"POINT (-79.755455130383 39.916928406367)","-79.755455130000001","39.916928409999997","DICKS SPORTING GOODS 1233","320 WALMART DR","UNIONTOWN","PA","15401","7244153460","http://maps.google.com/maps?q=39.91692841,-79.75545513"
"POINT (-76.828407521936 41.243319645919)","-76.828407519999999","41.243319649999997","DICKS SPORTING GOODS 277","300 LYCOMING MALL CIRCLE","MUNCY","PA","17756","5705462625","http://maps.google.com/maps?q=41.24331965,-76.82840752"
"POINT (-76.486452889115 41.016009819207)","-76.486452889999995","41.016009820000001","DUNHAM'S SPORTS 87","225 COLUMBIA MALL DRIVE","BLOOMSBURG","PA","17815","5703899681","http://maps.google.com/maps?q=41.01600982,-76.48645289"
"POINT (-79.905223974825 40.896354993647)","-79.905223969999994","40.896354989999999","DUNHAM'S SPORTS 102","101 CLEARVIEW CIR UNIT 4B","BUTLER","PA","16001","7242877899","http://maps.google.com/maps?q=40.89635499,-79.90522397"
"POINT (-79.51050050828 40.303038949295)","-79.51050051","40.303038950000001","DICKS SPORTING GOODS 252","5280 ROUTE 30 SUITE 1","GREENSBURG","PA","15601","7242734294","http://maps.google.com/maps?q=40.30303895,-79.51050051"
"POINT (-80.053401662151 40.344338603814)","-80.053401660000006","40.3443386","AAA EAST CENTRAL SOUTH HLS","160 FORT COUCH RD","PITTSBURGH","PA","15241-1032","4128335203","http://maps.google.com/maps?q=40.3443386,-80.05340166"
"POINT (-76.322651837115 39.728678851277)","-76.322651840000006","39.728678850000001","DELTA TAGS TITLE AND NOTARY","805 MAIN ST","DELTA",,"17314-8945","7174565008","http://maps.google.com/maps?q=39.72867885,-76.32265184"
"POINT (-79.497257777923 40.300919412672)","-79.497263399999994","40.300930200000003","AAA EAST CENTRAL GREENSBURG","5142 STATE ROUTE 30 STE 135","GREENSBURG","PA","15601-7657","7248348300","http://maps.google.com/maps?q=40.3009302,-79.4972634"
"POINT (-75.264354398271 40.998848899709)","-75.264354400000002","40.998848899999999","DICKS SPORTING GOODS 1127","500 COMMERCE BLVD","STROUDSBURG","PA","18360","5704217501","http://maps.google.com/maps?q=40.9988489,-75.2643544"
"POINT (-78.834345741818 40.299239919776)","-78.834345740000003","40.299239919999998","DUNHAM'S SPORTS 41","594 GALLERIA DRIVE","JOHNSTOWN","PA","15904","8142629990","http://maps.google.com/maps?q=40.29923992,-78.83434574"
"POINT (-77.578337725578 39.960935433872)","-77.578337730000001","39.960935429999999","SPORTSMANS WAREHOUSE 215","3285 BLACK GAP RD","CHAMBERSBURG","PA","17202","7177537800","http://maps.google.com/maps?q=39.96093543,-77.57833773"
"POINT (-79.753854443938 39.915029569346)","-79.753849000000002","39.915034900000002","AAA EAST CENTRAL UNIONTOWN","209 WALMART DR STE C-10","UNIONTOWN","PA","15401-8423","7244388575","http://maps.google.com/maps?q=39.9150349,-79.753849"
"POINT (-75.986367812339 39.772298476736)","-75.986367810000004","39.772298480000003","CAMERONS  HARDWARE & SUPPLY","2195 BALTIMORE PIKE","OXFORD","PA","19363","6109322416","http://maps.google.com/maps?q=39.77229848,-75.98636781"
"POINT (-75.242008208199 40.234087260886)","-75.242008209999995","40.234087260000003","DICKS SPORTING GOODS 341","113 MONTGOMERY MALL","NORTH WALES","PA","19454","2153682186","http://maps.google.com/maps?q=40.23408726,-75.24200821"
"POINT (-76.835885030089 40.841954786856)","-76.83588503","40.841954790000003","DICKS SPORTING GOODS 389","486 MARKETPLACE BLVD.","SELINSGROVE","PA","17870","5707431780","http://maps.google.com/maps?q=40.84195479,-76.83588503"
"POINT (-79.384709873592 40.286410307994)","-79.384709869999995","40.286410310000001","DUNHAM'S SPORTS 195","1020 LATROBE 30 SHOPPES","LATROBE","PA","15650","7245374325","http://maps.google.com/maps?q=40.28641031,-79.38470987"
"POINT (-80.342858137116 41.000909335151)","-80.342858140000004","41.00090934","AAA EAST CENTRAL NEWCASTLE","40 EAST ST","NEW CASTLE","PA","16101-3676","7246588551","http://maps.google.com/maps?q=41.00090934,-80.34285814"
"POINT (-75.368556323894 40.460058525295)","-75.368556319999996","40.460058529999998","AAA EAST CENTRAL QUAKERTOWN","632 N WEST END BLVD","QUAKERTOWN","PA","18951-4100","2155385150","http://maps.google.com/maps?q=40.46005853,-75.36855632"
"POINT (-79.185839814609 41.121087870745)","-79.185839810000004","41.121087869999997","RICHS OUTDOOR WORLD INC","12860 HARRISON STREET","SUMMERVILLE","PA","15864","8148562395","http://maps.google.com/maps?q=41.12108787,-79.18583981"
"POINT (-80.179670227519 40.446811575171)","-80.1796693","40.446814000000003","SPORTSMANS WAREHOUSE 219","120 QUINN DR","PITTSBURG","PA","15275","8015666681","http://maps.google.com/maps?q=40.446814,-80.1796693"
"POINT (-79.718843850804 41.351737051007)","-79.718843849999999","41.351737049999997","DUNHAM'S SPORTS 158","6945 US ROUTE 322 SUITE 2000B","CRANBERRY","PA","16319","8146765705","http://maps.google.com/maps?q=41.35173705,-79.71884385"
"POINT (-77.236711769252 40.351339840863)","-77.236711769999999","40.351339840000001","TRIPLE CREEK ROD AND GUN","914 LANDISBURG RD","LANDISBURG",,"17040","7172150273","http://maps.google.com/maps?q=40.35133984,-77.23671177"
"POINT (-80.220515869801 40.190522340984)","-80.22051587","40.190522340000001","SPORTSMANS WAREHOUSE 608","60 OLD MILL RD","WASHINGTON","PA","15301","7248738740","http://maps.google.com/maps?q=40.19052234,-80.22051587"
"POINT (-75.67888131329 41.405670783786)","-75.678881309999994","41.405670780000001","ONE STOP SPORT SHOP","628 LUZERNE ST","SCRANTON","PA","18504","5703463474","http://maps.google.com/maps?q=41.40567078,-75.67888131"
"POINT (-79.593787782897 40.306376939156)","-79.59378778","40.30637694","DICKS SPORTING GOODS 110","6291 ROUTE 30","HEMPFIELD TWP","PA","15601","7245229777","http://maps.google.com/maps?q=40.30637694,-79.59378778"
"POINT (-80.104077214651 42.069925538253)","-80.10407721","42.06992554","DICKS SPORTING GOODS 30","2088 INTERCHANGE ROAD MILLCREE","ERIE","PA","16565","8148643500","http://maps.google.com/maps?q=42.06992554,-80.10407721"
"POINT (-75.58537945368 41.052185399994)","-75.585378000000006","41.052196000000002","BOULDER LAKE CLUB","127 LAKE HARMONY ROAD","LAKE HARMONY","PA","18624","5704438433","http://maps.google.com/maps?q=41.052196,-75.585378"
"POINT (-76.425362108412 40.336608042148)","-76.425362109999995","40.336608040000002","DUNHAM'S SPORTS 160","829 E WALNUT ST ROUTE 422","LEBANON","PA","17042","7172281683","http://maps.google.com/maps?q=40.33660804,-76.42536211"
"POINT (-80.476968967067 41.233358265457)","-80.476968970000001","41.233358269999997","AAA EAST CENTRAL HERMITAGE","1749 E STATE ST","HERMITAGE","PA","16148-1863","7249819141","http://maps.google.com/maps?q=41.23335827,-80.47696897"
"POINT (-80.311118874972 40.737744799921)","-80.311117899999999","40.737744999999997","FUNTASTIC CARDS BAIT TACKLE","1106 ALLEGHENY ST","NEW BRIGHTON","PA","15066-1549","7216010067","http://maps.google.com/maps?q=40.737745,-80.3111179"
"POINT (-79.153366535453 41.872932759175)","-79.153364999999994","41.872934600000001","AAA EAST CENTRAL WARREN","2285 MARKET ST","WARREN","PA","16365-4668","8147236660","http://maps.google.com/maps?q=41.8729346,-79.153365"
"POINT (-75.286364739699 40.656477888984)","-75.286364739999996","40.656477889999998","DICKS SPORTING GOODS 230","4423 BIRKLAND PLACE","EASTON","PA","18045","6103300383","http://maps.google.com/maps?q=40.65647789,-75.28636474"
"POINT (-80.104208268969 40.691261186599)","-80.104213000000001","40.691262999999999","PUBLIC LANDS","1000 CRANBERRY SQUARE DR","CRANBERRY TWP","PA","16066-6143","7244274427","http://maps.google.com/maps?q=40.691263,-80.104213"
"POINT (-75.120697242763 40.143493261887)","-75.120697239999998","40.14349326","DICKS SPORTING GOODS 98","2510 MORELAND ROAD","WILLOW GROVE","PA","19090","2156578977","http://maps.google.com/maps?q=40.14349326,-75.12069724"
"POINT (-78.389381008804 40.500420228824)","-78.389381400000005","40.500423400000003","AAA EAST CENTRAL ALTOONA","1634 VALLEY VIEW BLVD","ALTOONA","PA","16602-6041","8149461277","http://maps.google.com/maps?q=40.5004234,-78.3893814"
"POINT (-80.01944132984 40.551097834075)","-80.019441330000006","40.551097830000003","DUNHAM'S SPORTS 145","8070 MCKNIGHT RD","PITTSBURGH","PA","15237","4123640315","http://maps.google.com/maps?q=40.55109783,-80.01944133"
"POINT (-79.809868857546 41.401892636083)","-79.809868859999995","41.40189264","AAA EAST CENTRAL FRANKLIN","491 ALLEGHENY BLVD STE 200","FRANKLIN","PA","16323-2975","8144323960","http://maps.google.com/maps?q=41.40189264,-79.80986886"
"POINT (-76.996952240981 39.822337411137)","-76.996952239999999","39.822337410000003","DICKS SPORTING GOODS 382","1155 CARLISLE STREET","HANOVER","PA","17331","7176329362","http://maps.google.com/maps?q=39.82233741,-76.99695224"
"POINT (-78.560403706306 41.40940893497)","-78.560403710000003","41.409408929999998","DUNHAM'S SPORTS 45","863 ST MARYS STREET","SAINT MARYS","PA","15857","8148340080","http://maps.google.com/maps?q=41.40940893,-78.56040371"
"POINT (-77.654679299183 41.017517946955)","-77.654681999999994","41.017522999999997","LAKEWOODS OUTDOOR SUPPLY LLC","263 E MAIN ST","HOWARD","PA","16841-3523","8147776205","http://maps.google.com/maps?q=41.017523,-77.654682"
"POINT (-78.652974305817 41.929771245124)","-78.652974310000005","41.929771250000002","AAA EAST CENTRAL BRADFORD","587 SOUTH AVE","BRADFORD","PA","16701-3975","8143683113","http://maps.google.com/maps?q=41.92977125,-78.65297431"
"POINT (-79.790985052159 40.434873766325)","-79.790985050000003","40.434873770000003","DUNHAM'S SPORTS 17","3700 WILLIAM PENN HWY","MONROEVILLE","PA","15146","4128565078","http://maps.google.com/maps?q=40.43487377,-79.79098505"
"POINT (-75.727004459217 41.875786770251)","-75.7270015","41.8757856","THOMAS AUCTION GROUP LLC","728 MAIN ST","NEW MILFORD",,"18834","5704652019",
"POINT (-77.988292381989 39.928149007953)","-77.988292380000004","39.928149009999998","BUCHANAN TRAIL SPORTERS","182 BUCHANAN TRAIL STE 175","MC CONNELLSBURG","PA","17233","7174855996","http://maps.google.com/maps?q=39.92814901,-77.98829238"
"POINT (-76.785513525871 40.859456049829)","-76.785513530000003","40.859456049999999","AAA EAST CENTRAL SUNBURY","1001 MARKET ST","SUNBURY","PA","17801-2459","5702864507","http://maps.google.com/maps?q=40.85945605,-76.78551353"
"POINT (-79.808732026978 40.337482974505)","-79.808732030000002","40.337482970000003","AAA EAST CENTRAL WHITEOAK","2001 LINCOLN WAY UNIT 160","WHITE OAK","PA","15131-2419","4126753400","http://maps.google.com/maps?q=40.33748297,-79.80873203"
"POINT (-80.393483396537 41.01647205242)","-80.393483399999994","41.016472049999997","DUNHAM'S SPORTS 19","370 DWORMAN LANE","NEW CASTLE","PA","16101","7246578833","http://maps.google.com/maps?q=41.01647205,-80.3934834"
"POINT (-77.631290130032 39.925420468142)","-77.631290129999996","39.925420469999999","DICKS SPORTING GOODS 1197","1320 LINCOLN WAY E","CHAMBERSBURG","PA","17201","7174468115","http://maps.google.com/maps?q=39.92542047,-77.63129013"
"POINT (-77.142782217244 40.535095958539)","-77.142782220000001","40.53509596","LONGHORN FAMILY CAMPGROUND","226 W JUNIATA PKWY","MILLERSTOWN",,"17062","7174055087","http://maps.google.com/maps?q=40.53509596,-77.14278222"
"POINT (-79.947709459319 40.345538408697)","-79.947709459999999","40.345538410000003","DUNHAM'S SPORTS 48","2315 MOUNTAIN VIEW DR","WEST MIFFLIN","PA","15122","4126550499","http://maps.google.com/maps?q=40.34553841,-79.94770946"
"POINT (-80.172146849591 40.453550676781)","-80.172146850000004","40.453550679999999","DICKS SPORTING GOODS 42","5000 ROBINSON TWN CTR","PITTSBURGH","PA","15205","4127871330","http://maps.google.com/maps?q=40.45355068,-80.17214685"
"POINT (-79.258215914631 40.44043179528)","-79.258221000000006","40.440438","AIM FIRST FIREARMS, LLC","2134 ROUTE 22 HWY W,  SUITE A","BLAIRSVILLE","PA","15717","7243887016","http://maps.google.com/maps?q=40.440438,-79.258221"
"POINT (-75.663676927356 40.233374674166)","-75.663676929999994","40.233374670000003","DICKS SPORTING GOODS 229","351 W SCHUYLKILL ROAD","POTTSTOWN","PA","19465","6103237100","http://maps.google.com/maps?q=40.23337467,-75.66367693"
"POINT (-79.686642738722 41.824456164605)","-79.686633999999998","41.824460000000002","SN HAWLEY LLC","341 MAIN STREET","SPARTANSBURG","PA","16434","8146547044","http://maps.google.com/maps?q=41.82446,-79.686634"
"POINT (-77.69565393415 39.866950577333)","-77.695653930000006","39.866950580000001","MOUNTAIN VIEW FARM & GARDEN SUPPLY","4923 MOLLY PITCHER HWY","CHAMBERSBURG","PA","17202","7173754010","http://maps.google.com/maps?q=39.86695058,-77.69565393"
"POINT (-79.994655999972 41.89366999984)","-79.994656000000006","41.89367","BISON BEER","13782 RT 19","WATERFORD","PA","16441","8142734400","http://maps.google.com/maps?q=41.89367,-79.994656"
"POINT (-76.312033888798 40.06747032696)","-76.312033889999995","40.067470329999999","DICKS SPORTING GOODS 1294","1587 FRUITVILLE PIKE","LANCASTER","PA","17601","7174601010","http://maps.google.com/maps?q=40.06747033,-76.31203389"
"POINT (-79.964387742581 40.340657567681)","-79.964387740000006","40.340657569999998","AAA EAST CENTRAL PLEASANT HL","9 CLAIRTON BLVD","PITTSBURGH","PA","15236-3935","4126556100","http://maps.google.com/maps?q=40.34065757,-79.96438774"
"POINT (-79.160583744176 40.609816359025)","-79.160583740000007","40.609816360000003","AAA EAST CENTRAL INDIANA","1169 WAYNE AVE","INDIANA","PA","15701-3549","7243494193","http://maps.google.com/maps?q=40.60981636,-79.16058374"
"POINT (-80.020234284419 40.570509840406)","-80.020234279999997","40.57050984","DICKS SPORTING GOODS 1142","830 PROVIDENCE BLVD","PITTSBURGH","PA","15237","4125480012","http://maps.google.com/maps?q=40.57050984,-80.02023428"
"POINT (-75.273622082597 40.251857747462)","-75.273622079999996","40.251857749999999","AAA EAST CENTRAL LANSDALE","1250 N BROAD ST","LANSDALE","PA","19446-1106","2158558600","http://maps.google.com/maps?q=40.25185775,-75.27362208"
"POINT (-80.090766575252 42.057572702254)","-80.090766579999993","42.057572700000001","AAA EAST CENTRAL ERIE","6660 PEACH ST UNIT 2","ERIE","PA","16509-7718","8148660246","http://maps.google.com/maps?q=42.0575727,-80.09076658"
"POINT (-75.744156869692 41.547957932153)","-75.744156869999998","41.547957930000003","C C ARMORY LLC","1010 N LACKAWANNA TRL SUITE B","DALTON","PA","18414","5702400778","http://maps.google.com/maps?q=41.54795793,-75.74415687"
"POINT (-79.756102813906 40.435526987688)","-79.756102810000002","40.43552699","AAA EAST CENTRAL MONROEVLL","2725 MOSSIDE BLVD","MONROEVILLE","PA","15146-2741","4128584640","http://maps.google.com/maps?q=40.43552699,-79.75610281"
"POINT (-78.356358667669 40.823269678811)","-78.356352000000001","40.823270000000001","TANNERS HARDWARE","813 CENTENNIAL ST","HOUTZDALE","PA","16651","8143788900","http://maps.google.com/maps?q=40.82327,-78.356352"
"POINT (-79.795143359897 40.431050203188)","-79.795143359999997","40.431050200000001","DICKS SPORTING GOODS 1107","501 MONROEVILLE MALL","MONROEVILLE","PA","15146","7179446541","http://maps.google.com/maps?q=40.4310502,-79.79514336"
"POINT (-80.160794409052 41.622884990422)","-80.160794409999994","41.622884990000003","AAA EAST CENTRAL MEADVILLE","18939 PARK AVENUE PLZ UNIT 7","MEADVILLE","PA","16335-4015","8147242247","http://maps.google.com/maps?q=41.62288499,-80.16079441"
"POINT (-75.523048505608 40.198939945687)","-75.523048509999995","40.198939950000003","AAA EAST CENTRAL ROYERSFRD","70 BUCKWALTER RD","ROYERSFORD","PA","19468-1846","6103236300","http://maps.google.com/maps?q=40.19893995,-75.52304851"
"POINT (-75.492741194858 40.644988196726)","-75.492741190000004","40.6449882","DICKS SPORTING GOODS 171","2643 MACAUTHUR ROAD","WHITEHALL","PA","18052","6102310691","http://maps.google.com/maps?q=40.6449882,-75.49274119"
"POINT (-80.103271110532 40.699980029153)","-80.103268999999997","40.699986000000003","AAA EAST CENTRAL CRAN TWP","20510 ROUTE 19 STORE # 103-104","CRANBERRY TWP","PA","16066","7247721122","http://maps.google.com/maps?q=40.699986,-80.103269"
"POINT (-76.931900391135 40.225443444085)","-76.931900389999996","40.225443439999999","SPORTSMANS WAREHOUSE 607","3500 CAPITAL CITY MALL DR","CAMP HILL","PA","17011","7173072055","http://maps.google.com/maps?q=40.22544344,-76.93190039"
"POINT (-80.311819165635 40.674683748066)","-80.311819170000007","40.67468375","DICKS SPORTING GOODS 328","328 BEAVER VALLEY MALL","MONACA","PA","15061","7247709081","http://maps.google.com/maps?q=40.67468375,-80.31181917"
"POINT (-80.467628388948 41.233401629716)","-80.467628390000002","41.233401630000003","DUNHAM'S SPORTS 132","2267 E STATE ST","HERMITAGE","PA","16148","7243466182","http://maps.google.com/maps?q=41.23340163,-80.46762839"
"POINT (-78.734092262211 41.126771237907)","-78.734092000000004","41.126770999999998","DUNHAM'S SPORTS 79","300 COMMONS DR","DU BOIS","PA","15801","8143726241","http://maps.google.com/maps?q=41.126771,-78.734092"
"POINT (-80.23424095055 40.181011984658)","-80.23424095","40.181011980000001","AAA EAST CENTRAL WSH","196 MURTLAND AVE","WASHINGTON","PA","15301-2902","7242223800","http://maps.google.com/maps?q=40.18101198,-80.23424095"
"POINT (-75.561022303097 40.566081686965)","-75.561022300000005","40.566081689999997","DICKS SPORTING GOODS 1169","707 NORTH KROCKS RD, SUITE 101","ALLENTOWN","PA","18106","4848669428","http://maps.google.com/maps?q=40.56608169,-75.5610223"
"POINT (-80.10835393831 40.36632747357)","-80.10627787","40.366528789999997","DUNHAM'S SPORTS 34","1025 WASHINGTON PIKE","BRIDGEVILLE","PA","15017","4122579100","http://maps.google.com/maps?q=40.36652879,-80.10627787"
"POINT (-80.053943800814 40.611446280152)","-80.053943799999999","40.611446280000003","AAA EAST CENTRAL WEXFORD","10548 PERRY HWY","WEXFORD","PA","15090-9244","7249333000","http://maps.google.com/maps?q=40.61144628,-80.0539438"
"POINT (-77.905104625434 40.812136428044)","-77.905104629999997","40.812136430000002","DICKS SPORTING GOODS 112","325 LOWE'S BLVD","STATE COLLEGE","PA","16803","8148611350","http://maps.google.com/maps?q=40.81213643,-77.90510463"
"POINT (-79.911028188403 40.412065557119)","-79.911028189999996","40.412065560000002","DICKS SPORTING GOODS 129","350 EAST WATERFRONT DRIVE","HOMESTEAD","PA","15120","4124769940","http://maps.google.com/maps?q=40.41206556,-79.91102819"
"POINT (-80.16090633734 41.623419663989)","-80.160906339999997","41.623419660000003","DUNHAM'S SPORTS 178","18977 PARK AVENUE PLAZA","MEADVILLE","PA","16335","8143338141","http://maps.google.com/maps?q=41.62341966,-80.16090634"
"POINT (-79.860830869316 41.367788167804)","-79.860830870000001","41.367788169999997","PGC-NORTHWEST REGIONAL HDQ","1509 PITTSBURGH RD","FRANKLIN","PA","16323","8144323187","http://maps.google.com/maps?q=41.36778817,-79.86083087"
"POINT (-75.985984777889 40.358971703065)","-75.985984779999995","40.358971699999998","DICKS SPORTING GOODS 23","2767 PAPER MILL RD SPACE  F","READING","PA","19610","6103737366","http://maps.google.com/maps?q=40.3589717,-75.98598478"
"POINT (-78.28496489158 41.817491403213)","-78.284964889999998","41.817491400000002","BURLESONS TRUE VALUE","512 N MAIN ST","PORT ALLEGANY","PA","16743",,"http://maps.google.com/maps?q=41.8174914,-78.28496489"
"POINT (-80.282707467613 40.70278288998)","-80.282707470000005","40.702782890000002","AAA EAST CENTRAL ROCHESTER","300 ADAMS ST","ROCHESTER","PA","15074-2173","7247758000","http://maps.google.com/maps?q=40.70278289,-80.28270747"
"POINT (-76.237905094809 39.890201584867)","-76.237905089999998","39.890201589999997","PHILLIPS BAIT AND TACKLE","773 LANCASTER PIKE","QUARRYVILLE","PA","17566",,"http://maps.google.com/maps?q=39.89020159,-76.23790509"
"POINT (-80.008662520204 41.131512147641)","-80.008662520000001","41.131512149999999","GUN WORLD","429 SOUTH MAIN ST","HARRISVILLE","PA","16038","7247356500","http://maps.google.com/maps?q=41.13151215,-80.00866252"
"POINT (-76.115769634045 40.343421814379)","-76.115759999999995","40.343420000000002","OPERATION TWO ALPHA","6861 PENN AVE","WERNERSVILLE","PA","19565","6108168021","http://maps.google.com/maps?q=40.34342,-76.11576"
"POINT (-76.165310785021 40.09127274902)","-76.165310790000007","40.091272750000002","WEAVERS STORE  INC","182 E MAIN ST","LEOLA","PA","17540","7175560791","http://maps.google.com/maps?q=40.09127275,-76.16531079"
"POINT (-76.399224558921 40.352801289699)","-76.399224559999993","40.352801290000002","COBLES BAIT SHOP","777 N 8TH AVE","LEBANON","PA","17046","7172721171","http://maps.google.com/maps?q=40.35280129,-76.39922456"
"POINT (-76.821218637094 40.155268206001)","-76.821218639999998","40.155268210000003","CULLEYS SUPPLY RENTAL LLC","15 ROBINHOOD DR","ETTERS","PA","17319",,"http://maps.google.com/maps?q=40.15526821,-76.82121864"
"POINT (-80.359771660405 41.41427576269)","-80.359771660000007","41.414275760000002","WAL MART 2674","45 WILLIAMSON RD","GREENVILLE","PA","16125","7245890211","http://maps.google.com/maps?q=41.41427576,-80.35977166"
"POINT (-77.428215378801 41.134025151114)","-77.428215379999997","41.134025149999999","CLINTON COUNTY TREASURER","2 PIPER WAY STE 124","LOCK HAVEN","PA","17745","5708934004","http://maps.google.com/maps?q=41.13402515,-77.42821538"
"POINT (-79.826492466645 41.397698063717)","-79.826492470000005","41.397698060000003","VENANGO COUNTY TREASURER","1174 ELK ST","FRANKLIN","PA","16323","8144329525","http://maps.google.com/maps?q=41.39769806,-79.82649247"
"POINT (-77.649663002432 41.734585001862)","-77.649663000000004","41.734585000000003","GALETON HARDWARE","16 WEST ST","GALETON","PA","16922","5709808039","http://maps.google.com/maps?q=41.734585,-77.649663"
"POINT (-79.688676843427 40.315816276127)","-79.688676839999999","40.31581628","WAL MART 5241","915 MILLS RD","IRWIN","PA","15642","7243823160","http://maps.google.com/maps?q=40.31581628,-79.68867684"
"POINT (-75.140819011053 40.159098212801)","-75.140819010000001","40.159098210000003","WAL MART 3564","2101 BLAIR MILL ROAD","WILLOW GROVE","PA","19090","2156721300","http://maps.google.com/maps?q=40.15909821,-75.14081901"
"POINT (-77.909861999872 39.917972998864)","-77.909862000000004","39.917973000000003","KEYSTONE OUTDOORS","186 PATH VALLEY RD","FORT LOUDON","PA","17224","7173692970","http://maps.google.com/maps?q=39.917973,-77.909862"
"POINT (-80.288625815741 40.976554481199)","-80.288625819999993","40.976554479999997","DUKES SPORT SHOP INC","2801 NEW BUTLER ROAD","NEW CASTLE","PA","16101","7246526019","http://maps.google.com/maps?q=40.97655448,-80.28862582"
"POINT (-79.596141652809 40.546843646439)","-79.596114999999998","40.546799","PINE RUN GUN SHOP","184 PINE RUN CHURCH RD","APOLLO","PA","15613","7247273364","http://maps.google.com/maps?q=40.546799,-79.596115"
"POINT (-75.93503905527 39.981732880875)","-75.935039059999994","39.981732880000003","WAL MART 2945","100 COMMONS DRIVE","PARKESBURG","PA","19365","6108570500","http://maps.google.com/maps?q=39.98173288,-75.93503906"
"POINT (-76.382209234052 40.171749966747)","-76.382209230000001","40.17174997","LONGENECKERS HARDWARE CO","127 DOE RUN RD","MANHEIM","PA","17545","7176652491","http://maps.google.com/maps?q=40.17174997,-76.38220923"
"POINT (-80.362102447207 40.497052339827)","-80.362102449999995","40.497052340000003","DJS QUICK STOP","345 ROUTE 30","CLINTON","PA","15026","7248993242","http://maps.google.com/maps?q=40.49705234,-80.36210245"
"POINT (-79.013379331156 40.028781671041)","-79.013379330000006","40.028781670000001","LISTIE ECONOMY STORE","121 RAILROAD ST","FRIEDENS","PA","15541","8144458574","http://maps.google.com/maps?q=40.02878167,-79.01337933"
"POINT (-80.136195997036 40.805085998952)","-80.136195999999998","40.805086000000003","T & M HARDWARE & RENTAL","134 PERRY HWY","HARMONY","PA","16037","7247525906","http://maps.google.com/maps?q=40.805086,-80.136196"
"POINT (-77.647066364611 41.940568758995)","-77.647057000000004","41.940567999999999","J & A HUNTING SUPPLY","205 E MAIN ST SUITE 2","HARRISON VALLEY","PA","16927","8147182240","http://maps.google.com/maps?q=41.940568,-77.647057"
"POINT (-79.516474448649 40.816926388798)","-79.516474450000004","40.816926389999999","ARMSTRONG COUNTY TREASURER","450 E MARKET ST","KITTANNING","PA","16201","7245483260","http://maps.google.com/maps?q=40.81692639,-79.51647445"
"POINT (-79.155020117397 40.623008943194)","-79.155020120000003","40.623008939999998","INDIANA COUNTY TREASURER","825 PHILADELPHIA ST","INDIANA","PA","15701","7244653845","http://maps.google.com/maps?q=40.62300894,-79.15502012"
"POINT (-75.740468600037 40.812380149872)","-75.7404686","40.812380150000003","WAL MART 2169","1731 BLAKESLEE BLVD DR E","LEHIGHTON","PA","18235","5703863356","http://maps.google.com/maps?q=40.81238015,-75.7404686"
"POINT (-80.193839561108 42.065673762855)","-80.193839560000001","42.065673760000003","WAL MART 2561","5350 W RIDGE RD","ERIE","PA","16506","8148350556","http://maps.google.com/maps?q=42.06567376,-80.19383956"
"POINT (-80.302646173622 41.603252318108)","-80.302646170000003","41.603252320000003","RALSTONS  HARDWARE","195 WATER ST","CONNEAUT LAKE","PA","16316","8143822695","http://maps.google.com/maps?q=41.60325232,-80.30264617"
"POINT (-80.465546914281 41.495822427972)","-80.46554691","41.495822429999997","RICHTER'S","2936 WILLIAMSFIELD ROAD","JAMESTOWN","PA","16134","7249325372","http://maps.google.com/maps?q=41.49582243,-80.46554691"
"POINT (-78.007991482159 40.483576686752)","-78.007991480000001","40.48357669","HUNTINGDON COUNTY TREASURER","223 PENN ST","HUNTINGDON","PA","16652","8146433523","http://maps.google.com/maps?q=40.48357669,-78.00799148"
"POINT (-77.188240306065 40.419334312844)","-77.188240309999998","40.419334310000004","PERRY COUNTY TREASURER","25 W MAIN ST","NEW BLOOMFIELD","PA","17068","7175822131","http://maps.google.com/maps?q=40.41933431,-77.18824031"
"POINT (-79.519122788108 40.592592111847)","-79.519122789999997","40.592592109999998","SCHULTZ SPORTSMENS","1146 ROUTE 56 EAST","APOLLO","PA","15613","4124782538","http://maps.google.com/maps?q=40.59259211,-79.51912279"
"POINT (-77.5936764348 40.712520702322)","-77.593676430000002","40.712520699999999","THIS THAT & TACK","5383 OLD US HIGHWAY 322","MILROY","PA","17063","7179944265","http://maps.google.com/maps?q=40.7125207,-77.59367643"
"POINT (-77.024962342157 40.246397488257)","-77.024962340000002","40.24639749","WAL MART 1886","6520 CARLISLE PIKE","MECHANICSBURG","PA","17050","7176913150","http://maps.google.com/maps?q=40.24639749,-77.02496234"
"POINT (-78.648285750414 41.94784894116)","-78.648285749999999","41.94784894","SPORTSMAN'S OUTLET","500 CHESTNUT STREET","BRADFORD","PA","16701","8143627700","http://maps.google.com/maps?q=41.94784894,-78.64828575"
"POINT (-79.896170095825 40.858648400128)","-79.896170100000006","40.8586484","BUTLER COUNTY TREASURER","124 W DIAMOND ST STE 108","BUTLER","PA","16003","7242845149","http://maps.google.com/maps?q=40.8586484,-79.8961701"
"POINT (-75.507994165276 40.413085026758)","-75.507994170000003","40.413085029999998","WAL MART 3810","620-A GRAVEL PIKE","EAST GREENVILLE","PA","18041","2156792782","http://maps.google.com/maps?q=40.41308503,-75.50799417"
"POINT (-76.96178549999 40.539509999716)","-76.961785500000005","40.53951","MILLERSBURG HARDWARE COMPANY","235 MARKET ST","MILLERSBURG","PA","17061",,"http://maps.google.com/maps?q=40.53951,-76.9617855"
"POINT (-77.477940962888 41.115717388961)","-77.477940959999998","41.11571739","WAL MART 2528","167 HOGAN BLVD","MILL HALL","PA","17751","5708934627","http://maps.google.com/maps?q=41.11571739,-77.47794096"
"POINT (-78.779807732734 41.651169539804)","-78.779807730000002","41.651169539999998","PAULS TRADING POST","11124 ROUTE 321","KANE","PA","19735","8149456504","http://maps.google.com/maps?q=41.65116954,-78.77980773"
"POINT (-79.547571701029 40.128130740244)","-79.547571700000006","40.128130740000003","WAL MART 2611","900 SUMMIT RIDGE PLAZA","MOUNT PLEASANT","PA","15666","7245427300","http://maps.google.com/maps?q=40.12813074,-79.5475717"
"POINT (-80.496753363172 41.605693963285)","-80.49675336","41.605693960000004","K G M INC","10672 PERRY DRIVE","LINESVILLE","PA","16424",,"http://maps.google.com/maps?q=41.60569396,-80.49675336"
"POINT (-75.61601799753 41.419158000367)","-75.616017999999997","41.419158000000003","DUNMORE MOTOR VEHICLE SERVICES","739 E DRINKER ST SUITE 202","DUNMORE","PA","18512","5702077001","http://maps.google.com/maps?q=41.419158,-75.616018"
"POINT (-75.464791103838 41.244083530692)","-75.464791099999999","41.244083529999997","HOMETOWN HARDWARE","426 MAIN ST","GOULDSBORO","PA","18424",,"http://maps.google.com/maps?q=41.24408353,-75.4647911"
"POINT (-76.259444095597 40.355070617971)","-76.259444099999996","40.355070619999999","RICHLAND SHOOTERS SUPPLIES","207 SOUTH PARK STREET","RICHLAND","PA","17087","7178664246","http://maps.google.com/maps?q=40.35507062,-76.2594441"
"POINT (-75.144738648099 39.926618744893)","-75.144738649999994","39.926618740000002","WAL MART 2141","1675 S COLUMBUS BLVD","PHILADELPHIA","PA","19148","2154684220","http://maps.google.com/maps?q=39.92661874,-75.14473865"
"POINT (-76.183002303245 39.996668285204)","-76.183002299999998","39.996668290000002","ZIMMERMANS HARDWARE","306 HARTMAN BRIDGE RD","STRASBURG","PA","17579","7176878695","http://maps.google.com/maps?q=39.99666829,-76.1830023"
"POINT (-75.198560130369 40.608176066121)","-75.198560130000004","40.608176069999999","MUELLERS GENERAL STORE","3205 S DELAWARE DR","EASTON","PA","18042","6102523760","http://maps.google.com/maps?q=40.60817607,-75.19856013"
"POINT (-77.513170664102 40.338251722959)","-77.51317066","40.338251720000002","BLAIN MARKET","31 E MAIN ST","BLAIN","PA","17006","7175033861","http://maps.google.com/maps?q=40.33825172,-77.51317066"
"POINT (-79.168340534958 40.61506442622)","-79.168340529999995","40.615064429999997","DIMAIOâ€™S FIRE FOOD N FUN","1506 OAKLAND AVE","INDIANA","PA","15701","7247176535","http://maps.google.com/maps?q=40.61506443,-79.16834053"
"POINT (-75.326356230572 40.147041983067)","-75.326356230000002","40.147041979999997","SPORT FISHING OUTLET","230 W GERMANTOWN PIKE","NORRISTOWN","PA","19401",,"http://maps.google.com/maps?q=40.14704198,-75.32635623"
"POINT (-76.371472513183 40.572047289841)","-76.371472510000004","40.57204729","A AND A BAIT SHOP","337 SWEET ARROW LAKE RD","PINE GROVE","PA","17963",,"http://maps.google.com/maps?q=40.57204729,-76.37147251"
"POINT (-79.0986557489 41.163650393921)","-79.098655750000006","41.163650390000001","DSD SPORTS","328B W MAIN ST","BROOKVILLE","PA","15825","8147157098","http://maps.google.com/maps?q=41.16365039,-79.09865575"
"POINT (-77.641716378766 39.960119774816)","-77.641716380000005","39.960119769999999","FRANKLIN HARDWARE & PET CENTER","1975 PHILADELPHIA AVE","CHAMBERSBURG","PA","17201","7172632624","http://maps.google.com/maps?q=39.96011977,-77.64171638"
"POINT (-78.096816613585 40.40100230587)","-78.096816610000005","40.401002310000003","SEVEN POINTS BAIT AND GROCERY","5942 SEVEN POINTS RD","HESSTON","PA","16647",,"http://maps.google.com/maps?q=40.40100231,-78.09681661"
"POINT (-78.589847257266 40.459157875865)","-78.589847259999999","40.459157879999999","THE HUNTING AND FISHING SHOP","7648 ADMIRAL PEARY HWY","CRESSON","PA","16630","8148865060","http://maps.google.com/maps?q=40.45915788,-78.58984726"
"POINT (-76.773025842986 39.968524403823)","-76.773025840000003","39.9685244","WAL MART 2205","1000 TOWN CENTER DR","YORK","PA","17404","7177648874","http://maps.google.com/maps?q=39.9685244,-76.77302584"
"POINT (-80.132983312559 41.875391757988)","-80.13298331","41.875391759999999","EDINBORO OUTDOORS","211 MILL ST","EDINBORO","PA","16412","8147344927","http://maps.google.com/maps?q=41.87539176,-80.13298331"
"POINT (-78.610884373797 41.979001538113)","-78.610884369999994","41.979001539999999","WAL MART 3514","50 FOSTER BROOK BLVD","BRADFORD","PA","16701","8143684600","http://maps.google.com/maps?q=41.97900154,-78.61088437"
"POINT (-80.248106523317 40.170421768)","-80.248106519999993","40.170421769999997","WASHINGTON COUNTY TREASURER","100 W BEAU ST ROOM 102","WASHINGTON","PA","15301","7242286780","http://maps.google.com/maps?q=40.17042177,-80.24810652"
"POINT (-76.129714533442 41.292679115243)","-76.129714530000001","41.292679120000003","PFBC NORTHEAST REGION","5566 MAIN ROAD","SWEET VALLEY","PA","18656",,"http://maps.google.com/maps?q=41.29267912,-76.12971453"
"POINT (-76.789885470052 40.55658250797)","-76.789885470000002","40.556582509999998","WAL MART 3412","200 KOCHER LANE","ELIZABETHVILLE","PA","17023","7173623696","http://maps.google.com/maps?q=40.55658251,-76.78988547"
"POINT (-78.00530760984 40.047053067661)","-78.005307610000003","40.047053069999997","KELLER COUNTRY STORE","8888 WATERFALL RD","HUSTONTOWN","PA","17229","7179873542","http://maps.google.com/maps?q=40.04705307,-78.00530761"
"POINT (-77.52961913945 41.923053690588)","-77.529619999999994","41.923054","RAM ARCHERY","605 E MAIN ST","WESTFIELD","PA","16950","8143024144","http://maps.google.com/maps?q=41.923054,-77.52962"
"POINT (-78.748324229935 40.473099670985)","-78.748324229999994","40.473099670000003","WAL MART 2663","300 WAL-MART DR","EBENSBURG","PA","15931","8144710200","http://maps.google.com/maps?q=40.47309967,-78.74832423"
"POINT (-80.277581322174 40.159431279585)","-80.277581319999996","40.15943128","WASHINGTON RURAL KING SUPPLY","1500 W CHESTNUT ST","WASHINGTON","PA","15301","7242222024","http://maps.google.com/maps?q=40.15943128,-80.27758132"
"POINT (-76.508327893956 40.452563008889)","-76.508327890000004","40.452563009999999","LICKDALE CAMPGROUND","11 LICKDALE ROAD","JONESTOWN","PA","17038",,"http://maps.google.com/maps?q=40.45256301,-76.50832789"
"POINT (-76.009757532158 40.564123643807)","-76.009757530000002","40.564123639999998","WAL MART 4612","1800 TILDEN RIDGE","HAMBURG","PA","19526","4846684001","http://maps.google.com/maps?q=40.56412364,-76.00975753"
"POINT (-79.124406465864 41.468511278731)","-79.124406469999997","41.468511280000001","SHOUPS HARDWARE","116 CHERRY ST","MARIENVILLE","PA","16239","8149276683","http://maps.google.com/maps?q=41.46851128,-79.12440647"
"POINT (-75.630860175555 40.022584351078)","-75.630860179999999","40.022584350000002","WAL MART 2167","270 INDIAN RUN STREET","EXTON","PA","19341","4848759053","http://maps.google.com/maps?q=40.02258435,-75.63086018"
"POINT (-75.988123030573 40.836194844241)","-75.988123029999997","40.836194839999997","WAL MART 3634","35 PLAZA DRIVE ROUTE 309 NORTH","TAMAQUA","PA","18252","5706682054","http://maps.google.com/maps?q=40.83619484,-75.98812303"
"POINT (-75.921861730351 40.435574898041)","-75.921861730000003","40.435574899999999","PGC-SOUTHEAST REGIONAL HDQ","448 SNYDER ROAD","READING","PA","19605","6109263136","http://maps.google.com/maps?q=40.4355749,-75.92186173"
"POINT (-78.679089611226 41.52323663623)","-78.679089610000005","41.52323664","BIONDIS FEEDS NEEDS","2082 OLD STATE RD","JOHNSONBURG","PA","15845",,"http://maps.google.com/maps?q=41.52323664,-78.67908961"
"POINT (-79.880802468037 41.678353857209)","-79.880802470000006","41.678353860000001","HANNA HARDWARE","33416 MAIN ST","TOWNVILLE","PA","16360","8149672111","http://maps.google.com/maps?q=41.67835386,-79.88080247"
"POINT (-79.456325394317 41.496503877859)","-79.456325390000003","41.496503879999999","FOREST COUNTY TREASURER","526 ELM ST","TIONESTA","PA","16353","8147553536","http://maps.google.com/maps?q=41.49650388,-79.45632539"
"POINT (-78.845260075789 40.277014475879)","-78.845260080000003","40.277014479999998","WAL MART 1935","150 TOWN CENTER DRIVE","JOHNSTOWN","PA","15904","8142666996","http://maps.google.com/maps?q=40.27701448,-78.84526008"
"POINT (-79.673598997777 41.455183999851)","-79.673598999999996","41.455184000000003","BRITTON SURPLUS","1164 GRANDVIEW RD","OIL CITY","PA","16301","8146762115","http://maps.google.com/maps?q=41.455184,-79.673599"
"POINT (-79.685480218133 41.627096875894)","-79.685480220000002","41.627096880000003","MORRISION BUILDERS SUPPLY","650 W CENTRAL AVENUE","TITUSVILLE","PA","16354","8148273811","http://maps.google.com/maps?q=41.62709688,-79.68548022"
"POINT (-75.991656987629 40.921888007856)","-75.991656989999996","40.921888010000004","NIGHT STAR INC","318 YORKTOWN DR","HAZLE TOWNSHIP","PA","18201","5704559612","http://maps.google.com/maps?q=40.92188801,-75.99165699"
"POINT (-75.856865993769 41.236551660488)","-75.856865990000003","41.236551660000003","WAL MART 1623","2150 WILKES-BARRE TWP MARKET","WILKES BARRE","PA","18702","5708216180","http://maps.google.com/maps?q=41.23655166,-75.85686599"
"POINT (-79.589760078523 40.228118899415)","-79.589760080000005","40.228118899999998","HEPLERS TOWN COUNTRY","818 STATE RTE 119 N","NEW STANTON","PA","15672","7249252901","http://maps.google.com/maps?q=40.2281189,-79.58976008"
"POINT (-77.078835210756 41.806872481216)","-77.078835209999994","41.806872480000003","COOPERS SPORTING GOODS","15 W WELLSBORO ST","MANSFIELD","PA","16933","5706623429","http://maps.google.com/maps?q=41.80687248,-77.07883521"
"POINT (-76.416060843264 40.557493131696)","-76.41606084","40.557493129999997","DAVID C KEEFER GUNSMITH","138 KEEFER RD","PINE GROVE","PA","17963","5703454490","http://maps.google.com/maps?q=40.55749313,-76.41606084"
"POINT (-75.964534999571 40.794976000165)","-75.964534999999998","40.794975999999998","TOMâ€™S AUTO & MARINE INC","250 S GREENWOOD ST","TAMAQUA","PA","18252","5706685066","http://maps.google.com/maps?q=40.794976,-75.964535"
"POINT (-76.200715148371 40.822587867095)","-76.200715149999994","40.82258787","ABRACHINSKY HARDWARE","29 W COAL STREET","SHENANDOAH","PA","17976","5704620262","http://maps.google.com/maps?q=40.82258787,-76.20071515"
"POINT (-80.145073996683 41.714290004293)","-80.145073999999994","41.714289999999998","MYERS SPORTSMANS CONNECTION","167 S MAIN ST STE 101","SAEGERTOWN","PA","16433","8147633030","http://maps.google.com/maps?q=41.71429,-80.145074"
"POINT (-75.34410751461 40.115468117935)","-75.344107510000001","40.115468120000003","MONTGOMERY COUNTY TREASURER","425 SWEDE ST STE 600, BOX 311","NORRISTOWN","PA","19404","6102783070","http://maps.google.com/maps?q=40.11546812,-75.34410751"
"POINT (-77.493128748854 40.886416564322)","-77.493128749999997","40.886416560000001","WEAVERS STORE INC","108 MARKET DR","SPRING MILLS","PA","16875","8143492650","http://maps.google.com/maps?q=40.88641656,-77.49312875"
"POINT (-75.395558719239 40.285196174295)","-75.395558719999997","40.285196169999999","WAL MART 2236","651 MAIN ST","HARLEYSVILLE","PA","19438","2155130205","http://maps.google.com/maps?q=40.28519617,-75.39555872"
"POINT (-79.592145623032 40.399128228727)","-79.592145619999997","40.399128230000002","WAL MART 3228","6700 HOLLYWOOD BLVD","DELMONT","PA","15626","7244686274","http://maps.google.com/maps?q=40.39912823,-79.59214562"
"POINT (-75.181015081554 41.462405521036)","-75.181015079999995","41.462405519999997","WALLENPAUPACK SPORT SHOP","30 WELLWOOD AVE","HAWLEY","PA","18428","5702264797","http://maps.google.com/maps?q=41.46240552,-75.18101508"
"POINT (-79.903287649942 40.895689720107)","-79.903287649999996","40.89568972","BUTLER RURAL KING SUPPLY","101 CLEARVIEW CIR UNIT 3A","BUTLRT","PA","16001","7242821822","http://maps.google.com/maps?q=40.89568972,-79.90328765"
"POINT (-80.177257727263 40.448368928693)","-80.177257729999994","40.448368930000001","WAL MART 2300","250 SUMMIT PARK DRIVE","PITTSBURGH","PA","15275","4127889079","http://maps.google.com/maps?q=40.44836893,-80.17725773"
"POINT (-79.846787272917 40.1380504387)","-79.846787269999993","40.138050440000001","WAL MART 2420","100 SARA WAY","BELLE VERNON","PA","15012","7249292424","http://maps.google.com/maps?q=40.13805044,-79.84678727"
"POINT (-75.950258116981 41.524730819838)","-75.950258120000001","41.524730820000002","WAL MART 2024","809 HUNTER HWY","TUNKHANNOCK","PA","18657","5708368064","http://maps.google.com/maps?q=41.52473082,-75.95025812"
"POINT (-75.266547899142 40.288200963682)","-75.266547900000006","40.288200959999998","WAL MART 2445","1515 BETHLEHEM PIKE","HATFIELD","PA","19440","2159972929","http://maps.google.com/maps?q=40.28820096,-75.2665479"
"POINT (-77.390835930958 40.561355678075)","-77.390835929999994","40.561355679999998","MK SALES SERVICE REPAIR INC","4158 WILLIAM PENN HWY","MIFFLINTOWN","PA","17059","7174369295","http://maps.google.com/maps?q=40.56135568,-77.39083593"
"POINT (-77.893481580891 40.243164050193)","-77.89348158","40.243164049999997","ORBISONIA HARDWARE  INC","455 RIDGLEY STREET","ORBISONIA","PA","17243","8144473510","http://maps.google.com/maps?q=40.24316405,-77.89348158"
"POINT (-75.692081233533 41.431127436655)","-75.692080000000004","41.431126999999996","ROLL CALL","701 HUDSON AVE","SCRANTON","PA","18504","5704964867","http://maps.google.com/maps?q=41.431127,-75.69208"
"POINT (-74.905354017338 40.08675800901)","-74.905354020000004","40.086758009999997","JOHNSTON AUTO PARTS","715 STATE RD","CROYDON","PA","19021","2157888448","http://maps.google.com/maps?q=40.08675801,-74.90535402"
"POINT (-81.072946137168 41.462593046927)","-81.072946139999999","41.462593050000002","GREAT LAKES OUTDOOR SUPPLY INC","14908 NO STATE AVE","MIDDLEFIELD","OH","44062","2165094800","http://maps.google.com/maps?q=41.46259305,-81.07294614"
"POINT (-76.881672472734 40.96306831599)","-76.881672469999998","40.963068319999998","UNION COUNTY TREASURER","103 S 2ND ST","LEWISBURG","PA","17837","5705248781","http://maps.google.com/maps?q=40.96306832,-76.88167247"
"POINT (-78.730483000283 40.485036000441)","-78.730483000000007","40.485036000000001","DUMMS OUTFITTERS","602 W HIGH ST","EBENSBURG","PA","15931","8144214574","http://maps.google.com/maps?q=40.485036,-78.730483"
"POINT (-75.182672399591 40.99125052617)","-75.182672400000001","40.991250530000002","WAL MART 2368","355 LINCOLN AVE","EAST STROUDSBURG","PA","18301","5704248415","http://maps.google.com/maps?q=40.99125053,-75.1826724"
"POINT (-76.038654241773 40.40486428597)","-76.03865424","40.404864289999999","BLUE MARSH OUTDOORS","5097 BERNVILLE RD","BERNVILLE","PA","19506",,"http://maps.google.com/maps?q=40.40486429,-76.03865424"
"POINT (-75.14690450691 39.928218889262)","-75.146904509999999","39.928218889999997","FIRING LINE INC","1532 S FRONT ST","PHILADELPHIA","PA","19147","2153361710","http://maps.google.com/maps?q=39.92821889,-75.14690451"
"POINT (-78.409832197395 40.455519346225)","-78.409832199999997","40.455519350000003","WAL MART 2049","2600 PLANK ROAD","ALTOONA","PA","16601","8149498980","http://maps.google.com/maps?q=40.45551935,-78.4098322"
"POINT (-79.398857902735 41.255763701314)","-79.398857899999996","41.255763700000003","ROUTE 66 SPORTING GOODS","23066 ROUTE 66","SHIPPENVILLE","PA","16254","8142264055","http://maps.google.com/maps?q=41.2557637,-79.3988579"
"POINT (-74.933348002738 41.283480002018)","-74.933347999999995","41.283479999999997","FLAIR HOME CENTER","1484 RT 739","DINGMANS FERRY","PA","18328","5708287312","http://maps.google.com/maps?q=41.28348,-74.933348"
"POINT (-77.107603334623 41.958357278698)","-77.107603330000003","41.958357280000001","HALLS HOMES AND LUMBER","18759 RT. 287","TIOGA","PA","16946","5708272127","http://maps.google.com/maps?q=41.95835728,-77.10760333"
"POINT (-80.093408425281 40.616367854207)","-80.093408429999997","40.616367850000003","BIG BUCK SPORT SHOP INC","108 VIP DR","WEXFORD","PA","15090","7249357410","http://maps.google.com/maps?q=40.61636785,-80.09340843"
"POINT (-75.688528216921 40.078699337153)","-75.688528219999995","40.07869934","GORDONS SPORTS SUPPLY","129 POTTSTOWN PK","UWCHLAND","PA","19480","6104585153","http://maps.google.com/maps?q=40.07869934,-75.68852822"
"POINT (-80.24110087503 42.058933724197)","-80.241100869999997","42.058933719999999","POOR RICHARDS LLC","6821 W LAKE RD","FAIRVIEW","PA","16415",,"http://maps.google.com/maps?q=42.05893372,-80.24110087"
"POINT (-76.179781000332 41.663794005252)","-76.179781000000006","41.663794009999997","CREEKSIDE OUTDOORS","48000 US-6","LACEYVILLE","PA","18623","5707467400","http://maps.google.com/maps?q=41.66379401,-76.179781"
"POINT (-77.495825300894 40.06047208593)","-77.495825300000007","40.060472089999998","WAL MART 5358","100 S CONESTOGA DRIVE","SHIPPENSBURG","PA","17257","7175324240","http://maps.google.com/maps?q=40.06047209,-77.4958253"
"POINT (-77.182386953742 40.871187744141)","-77.182386949999994","40.871187740000003","NOGLE'S TRADING POST","3380 CREEK ROAD","MILLMONT","PA","17845","5709221322","http://maps.google.com/maps?q=40.87118774,-77.18238695"
"POINT (-79.793448795013 42.254149166133)","-79.793448789999999","42.254149169999998","NORTH EAST MARINE SVC INC","11950 LAKE RD","NORTH EAST","PA","16428",,"http://maps.google.com/maps?q=42.25414917,-79.79344879"
"POINT (-79.084208935601 41.307302705099)","-79.084208939999996","41.307302710000002","CAMPERS PARADISE","37 STEELE DR","SIGEL","PA","15860",,"http://maps.google.com/maps?q=41.30730271,-79.08420894"
"POINT (-76.226639729767 40.039978002621)","-76.226639730000002","40.039977999999998","LANCASTER ARCHERY SUPPLY","2195 OLD PHILADELPHIA PIKE # A","LANCASTER","PA","17602","7173947229","http://maps.google.com/maps?q=40.039978,-76.22663973"
"POINT (-76.959273803269 39.761899361158)","-76.959273800000005","39.761899360000001","WAL MART 5469","1881 BALTIMORE PIKE","HANOVER","PA","17331","7176308211","http://maps.google.com/maps?q=39.76189936,-76.9592738"
"POINT (-78.836425563584 40.466926257162)","-78.836425559999995","40.466926260000001","GOLD CROWN SUPER MARKET","1309 SHOEMAKER ST","NANTY GLO","PA","15943","8147490121","http://maps.google.com/maps?q=40.46692626,-78.83642556"
"POINT (-78.020037598167 41.529437015251)","-78.020037599999995","41.529437020000003","WHARTON GENERAL STORE","27 EAST FORK ROAD","AUSTIN","PA","16720",,"http://maps.google.com/maps?q=41.52943702,-78.0200376"
"POINT (-79.716328164665 41.349933195001)","-79.716328160000003","41.349933200000002","WAL MART 2597","10 KIMBERLY LANE","CRANBERRY","PA","16319","8146780037","http://maps.google.com/maps?q=41.3499332,-79.71632816"
"POINT (-76.504646943773 41.840458398303)","-76.504646940000001","41.840458400000003","BISHOP TRUE VALUE HARDWARE","23449 ROUTE 220","ULSTER","PA","18850","5703583722","http://maps.google.com/maps?q=41.8404584,-76.50464694"
"POINT (-79.755960877396 39.914556724249)","-79.755960880000003","39.91455672","WAL MART 2019","355 WALMART DRIVE","UNIONTOWN","PA","15401","4124383344","http://maps.google.com/maps?q=39.91455672,-79.75596088"
"POINT (-76.223432039924 40.785092861984)","-76.223432040000006","40.785092859999999","THE TACKLE BOX","102 MOREA ROAD","FRACKVILLE","PA","17931",,"http://maps.google.com/maps?q=40.78509286,-76.22343204"
"POINT (-77.167357620711 40.321700970209)","-77.167357620000004","40.321700970000002","CHESTNUTS SPORTING GOODS","5261 SPRING ROAD","SHERMANS DALE","PA","17090","7175822894","http://maps.google.com/maps?q=40.32170097,-77.16735762"
"POINT (-77.129777834187 40.473125891432)","-77.129777829999995","40.473125889999999","BASE CAMP OUTFITTERS LLC","300 S 4TH ST","NEWPORT","PA","17074","7175673300","http://maps.google.com/maps?q=40.47312589,-77.12977783"
"POINT (-75.104554500039 39.986082000336)","-75.104554500000006","39.986082000000003","PATS AUTO TAGS","2536 E ALLEGHENY AVE","PHILADELPHIA","PA","19134",,"http://maps.google.com/maps?q=39.986082,-75.1045545"
"POINT (-75.981592117659 40.553078365151)","-75.981592120000002","40.553078370000001","STATE STREET NOTARY VINYL","112 S 4TH ST","HAMBURG","PA","19526",,"http://maps.google.com/maps?q=40.55307837,-75.98159212"
"POINT (-76.231289495916 40.785745622772)","-76.231289500000003","40.78574562","LARRYS SPORT SHOP","29 N LEHIGH AVE","FRACKVILLE","PA","17931","5708743652","http://maps.google.com/maps?q=40.78574562,-76.2312895"
"POINT (-79.945982612577 40.342764971966)","-79.945982610000002","40.342764969999998","WAL MART 2281","2351 CENTURY DR","WEST MIFFLIN","PA","15122","4126553404","http://maps.google.com/maps?q=40.34276497,-79.94598261"
"POINT (-79.901408987917 40.272656188766)","-79.901408989999993","40.272656189999999","SHADLURE TACKLE","3067 SCOTIA HOLLOW RD S","W ELIZABETH","PA","15088",,"http://maps.google.com/maps?q=40.27265619,-79.90140899"
"POINT (-79.810948999929 41.40426300019)","-79.810948999999994","41.404263","FRANKLIN RURAL KING SUPPLY","491 ALLEGHENY BLVD","FRANKLIN","PA","16323","2172357102","http://maps.google.com/maps?q=41.404263,-79.810949"
"POINT (-80.279728999084 40.861963000211)","-80.279729000000003","40.861963000000003","T & M HARDWARE & RENTAL","4 FOUNTAIN AVE","ELLWOOD CITY","PA","16117","7247525906","http://maps.google.com/maps?q=40.861963,-80.279729"
"POINT (-77.129258813667 40.149792207924)","-77.129258809999996","40.149792210000001","GETTY FOOD MART","101 W 1ST STREET","BOILING SPRINGS","PA","17007",,"http://maps.google.com/maps?q=40.14979221,-77.12925881"
"POINT (-80.158668501017 40.962826592059)","-80.158668500000005","40.962826589999999","ODONNELL SPORTS SUPPLIES","1765 PERRY HWY","PORTERSVILLE","PA","16051","7243683418","http://maps.google.com/maps?q=40.96282659,-80.1586685"
"POINT (-75.101014384133 41.377529009298)","-75.101014379999995","41.377529010000003","BLOOMING GROVE HUNTING AND FISHING","123 OLD FIELD RD","HAWLEY","PA","18428","5707757371","http://maps.google.com/maps?q=41.37752901,-75.10101438"
"POINT (-75.479838481328 40.633917345031)","-75.479838479999998","40.633917349999997","KAYTYON CO ARMY NAVY STORE","1045 GRAPE STREET","WHITEHALL","PA","18052","6102661045","http://maps.google.com/maps?q=40.63391735,-75.47983848"
"POINT (-80.307398565105 40.6942151132)","-80.307398570000004","40.694215110000002","BEAVER COUNTY TREASURER","810 3RD ST","BEAVER","PA","15009","7247704533","http://maps.google.com/maps?q=40.69421511,-80.30739857"
"POINT (-77.026917434643 40.077294184178)","-77.026917429999997","40.077294180000003","THE HUNTERS TRADING POST LLC","10 SOUTH ST","FRANKLINTOWN","PA","17323","7174321091","http://maps.google.com/maps?q=40.07729418,-77.02691743"
"POINT (-79.316552378027 40.799273104237)","-79.316552380000005","40.799273100000001","SHANNOCK HARDWARE","634 WEST MAIN STREET","RURAL VALLEY","PA","16249","7247837241","http://maps.google.com/maps?q=40.7992731,-79.31655238"
"POINT (-78.736130948325 41.127655052717)","-78.736130950000003","41.127655050000001","WAL MART 1769","20 INDUSTRIAL DRIVE","DU BOIS","PA","15801","8143755000","http://maps.google.com/maps?q=41.12765505,-78.73613095"
"POINT (-75.993253114226 40.327206421175)","-75.993253109999998","40.327206420000003","TULPEHOCKEN CREEK OUTFITTERS","2229 PENN AVENUE","READING","PA","19609",,"http://maps.google.com/maps?q=40.32720642,-75.99325311"
"POINT (-75.93866982107 41.538120277844)","-75.938669820000001","41.538120280000001","GAYS TRUE VALUE","189 E TIOGA ST","TUNKHANNOCK","PA","18657","5708362175","http://maps.google.com/maps?q=41.53812028,-75.93866982"
"POINT (-79.114804450149 40.01092383888)","-79.114804449999994","40.010923839999997","RAMBO'S CUSTOM ARMS","4055 GLADES PIKE","SOMERSET","PA","15501","8147012713","http://maps.google.com/maps?q=40.01092384,-79.11480445"
"POINT (-74.925672541829 41.277616384877)","-74.925672539999994","41.277616389999999","INDEPENDENCE HOME CENTER","1543 RTE 739","DINGMANS FERRY","PA","18328",,"http://maps.google.com/maps?q=41.27761639,-74.92567254"
"POINT (-78.944854129992 40.344668434385)","-78.944854129999996","40.344668429999999","FAIRFIELD AVE NOTARY SERVICE","164 FAIRFIELD AVE","JOHNSTOWN","pa","15906","8142544443","http://maps.google.com/maps?q=40.34466843,-78.94485413"
"POINT (-79.532804879979 40.809024022197)","-79.53280488","40.809024020000003","MARK E TRANSUE","321 BUTLER RD","KITTANNING","PA","16201",,"http://maps.google.com/maps?q=40.80902402,-79.53280488"
"POINT (-80.172882776421 41.879509114309)","-80.172882779999995","41.879509110000001","WAL MART 3253","108 WASHINGTON TOWNE BLVD","EDINBORO","PA","16412","8147340900","http://maps.google.com/maps?q=41.87950911,-80.17288278"
"POINT (-77.237161322153 41.138118170016)","-77.237153000000006","41.138117000000001","JACKâ€™S TRADING POST","63 BARGER RD","JERSEY SHORE","PA","17740","5708733243","http://maps.google.com/maps?q=41.138117,-77.237153"
"POINT (-76.169871627839 39.894095741327)","-76.169871630000003","39.894095739999997","GOODS STORE INC","333 WEST 4TH STREET","QUARRYVILLE","PA","17566","7173550571","http://maps.google.com/maps?q=39.89409574,-76.16987163"
"POINT (-75.281986008746 40.713812938282)","-75.281986009999997","40.713812939999997","WAL MART 2252","3722 EASTON NAZARETH HWY","EASTON","PA","18045","6102508603","http://maps.google.com/maps?q=40.71381294,-75.28198601"
"POINT (-79.938977357752 39.856970130932)","-79.938977359999996","39.856970130000001","KJ'S PRO ARCHERY","134 OLD RT 21 ROAD","CARMICHAELS","PA","15320","7249669144","http://maps.google.com/maps?q=39.85697013,-79.93897736"
"POINT (-78.498451170853 40.258223477104)","-78.498451169999996","40.258223479999998","WRIGHT MILLING FEED & SUPPLY","1581 BEAVER DAM RD","CLAYSBURG","PA","16625","8142392818","http://maps.google.com/maps?q=40.25822348,-78.49845117"
"POINT (-75.404111135291 40.128200280986)","-75.404111139999998","40.128200280000001","WAL MART 3475","650 SOUTH TROOPER ROAD","NORRISTOWN","PA","19403","6106316750","http://maps.google.com/maps?q=40.12820028,-75.40411114"
"POINT (-79.635319288899 40.987043134845)","-79.635319289999998","40.987043130000004","STEINERS OUTDOORS AND MORE","798 STATE ROUTE 68","EAST BRADY","PA","16028","7245263442","http://maps.google.com/maps?q=40.98704313,-79.63531929"
"POINT (-75.354212004776 39.937404706695)","-75.354212000000004","39.937404710000003","WAL MART 5881","400 S. STATE ROAD","SPRINGFIELD","PA","19064","6106053154","http://maps.google.com/maps?q=39.93740471,-75.354212"
"POINT (-80.114543661198 41.16880009423)","-80.114543659999995","41.168800089999998","WAL MART 2008","1566 W MAIN S EXT","GROVE CITY","PA","16127","7244585877","http://maps.google.com/maps?q=41.16880009,-80.11454366"
"POINT (-75.773393745255 41.062997357823)","-75.773393749999997","41.062997359999997","G AND A HARDWARE INC","107 SUSQUEHANNA ST","WHITE HAVEN","PA","18661","5704438744","http://maps.google.com/maps?q=41.06299736,-75.77339375"
"POINT (-79.75625850003 40.599926999961)","-79.756258500000001","40.599927000000001","ALLEGHENY BAIT AND TACKLE","200 ROSS ST","TARENTUM","PA","15084",,"http://maps.google.com/maps?q=40.599927,-79.7562585"
"POINT (-76.017228763782 40.191095866659)","-76.017228759999995","40.191095869999998","KERPERS GUN SHOP LLC","1167 READING RD","NARVON","PA","17555","7174455831","http://maps.google.com/maps?q=40.19109587,-76.01722876"
"POINT (-80.314676745182 40.67173044784)","-80.314676750000004","40.671730449999998","MONACA RURAL KING SUPPLY","300 BEAVER VALLEY MALL BLVD","MONACA","PA","15061","7247282068","http://maps.google.com/maps?q=40.67173045,-80.31467675"
"POINT (-79.442362389376 39.756085093976)","-79.44236239","39.756085089999999","AKSHAR GAS & YOUGH LAKE SPORT","5316 NATIONAL PIKE","MARKLEYSBURG","PA","15459","7243295670","http://maps.google.com/maps?q=39.75608509,-79.44236239"
"POINT (-76.10946664977 41.706670799677)","-76.109466650000002","41.706670799999998","SIBLE AND SONS BAIT AND TACKLE","527 STATE ROUTE 367","LACEYVILLE","PA","18623","5708691018","http://maps.google.com/maps?q=41.7066708,-76.10946665"
"POINT (-76.851962419477 41.653977891621)","-76.851962420000007","41.65397789","JIMS SPORTING GOODS","23 W MAIN ST","CANTON","PA","17724","5706733387","http://maps.google.com/maps?q=41.65397789,-76.85196242"
"POINT (-77.015486839777 39.805689376681)","-77.015486839999994","39.805689379999997","POWDER HORN SPORT SHOP","515 MAIN ST","MC SHERRYSTOWN","PA","17344","7176327844","http://maps.google.com/maps?q=39.80568938,-77.01548684"
"POINT (-76.139310617581 41.263136109051)","-76.139310620000003","41.263136109999998","THE BAIT BUDDIES","671 PRICHARDS ROAD","HUNLOCK CREEK","PA","18621","5702567780","http://maps.google.com/maps?q=41.26313611,-76.13931062"
"POINT (-77.069955692058 41.783309837669)","-77.06995569","41.783309840000001","WAL MART 1945","1169 S MAIN STREET","MANSFIELD","PA","16933","5706621115","http://maps.google.com/maps?q=41.78330984,-77.06995569"
"POINT (-76.934035221238 40.434443824836)","-76.934035219999998","40.434443819999998","BAKER'S ARCHERY SUPPLY","3231 PETERS MTN RD","HALIFAX","PA","17032","7178968090","http://maps.google.com/maps?q=40.43444382,-76.93403522"
"POINT (-75.947339360367 41.539305929229)","-75.947339360000001","41.539305929999998","WYOMING COUNTY TREASURER","1 COURTHOUSE SQ","TUNKHANNOCK","PA","18657","5709962287","http://maps.google.com/maps?q=41.53930593,-75.94733936"
"POINT (-75.877364385235 41.834076994816)","-75.877364389999997","41.83407699","SUSQUEHANNA CO TREASURER","105 MAPLE ST","MONTROSE","PA","18801","5702784600","http://maps.google.com/maps?q=41.83407699,-75.87736439"
"POINT (-80.358793363619 42.022772577881)","-80.358793360000007","42.022772580000002","ELK CREEK SPORTS","10543 OLD LAKE RD","LAKE CITY","PA","16423","8147748755","http://maps.google.com/maps?q=42.02277258,-80.35879336"
"POINT (-77.587687168273 40.853427522889)","-77.587687169999995","40.853427519999997","NOLL'S GUN SHOP & GUNSMITHING","3825 PENNS VALLEY ROAD","SPRING MILLS","PA","16875","8144228999","http://maps.google.com/maps?q=40.85342752,-77.58768717"
"POINT (-79.075307937286 40.050253707037)","-79.075307940000002","40.05025371","WAL MART 1765","2028 NORTH CENTER AVENUE","SOMERSET","PA","15501","8144436962","http://maps.google.com/maps?q=40.05025371,-79.07530794"
"POINT (-77.835545943079 40.392353515168)","-77.835545940000003","40.39235352","RIVERFRONT STORE","831 FRONT STREET","NEWTON HAMILTON","PA","17075",,"http://maps.google.com/maps?q=40.39235352,-77.83554594"
"POINT (-76.443585433776 41.776551596063)","-76.443585429999999","41.776551599999998","BRADFORD COUNTY TREASURER","301 MAIN ST","TOWANDA","PA","18848","5702651700","http://maps.google.com/maps?q=41.7765516,-76.44358543"
"POINT (-74.965361703795 40.13658498688)","-74.965361700000003","40.136584990000003","WAL MART 5131","3461 HORIZON BLVD","BENSALEM","PA","19053","2159424005","http://maps.google.com/maps?q=40.13658499,-74.9653617"
"POINT (-79.704082909227 41.372438723693)","-79.704082909999997","41.372438719999998","SENECA OUTPOST","3033 ROUTE 257","SENECA","PA","16346","8146766099","http://maps.google.com/maps?q=41.37243872,-79.70408291"
"POINT (-77.659887590165 39.937348316954)","-77.659887589999997","39.937348319999998","FRANKLIN COUNTY TREASURE","157 LINCOLN WAY EAST","CHAMBERSBURG","PA","17201","7172613120","http://maps.google.com/maps?q=39.93734832,-77.65988759"
"POINT (-78.972069450314 40.945624126026)","-78.972069450000006","40.945624129999999","RAGLEY TRUE VALUE HARDWARE","248 N FINDLEY STREET","PUNXSUTAWNEY","PA","15767","8149384510","http://maps.google.com/maps?q=40.94562413,-78.97206945"
"POINT (-79.612622922054 41.932427253255)","-79.612622920000007","41.932427250000003","C AND H SPORTS CENTER","45490 ROUTE 6","CORRY","PA","16407","8146649693","http://maps.google.com/maps?q=41.93242725,-79.61262292"
"POINT (-76.49414291441 41.425554132709)","-76.494142909999994","41.425554130000002","SULLIVAN COUNTY TREASURER","245 MUNCY ST SUITE 160","LAPORTE","PA","18626","5709467331","http://maps.google.com/maps?q=41.42555413,-76.49414291"
"POINT (-79.615752012904 40.022021665895)","-79.615752009999994","40.022021670000001","SALATINO GUN SHOP","679 VANDERBILT RD","CONNELLSVILLE","PA","15425",,"http://maps.google.com/maps?q=40.02202167,-79.61575201"
"POINT (-80.21159185036 41.62256943963)","-80.211591850000005","41.622569439999999","FAMILY FARM & HOME","16218 CONNEAUT LAKE RD","MEADVILLE","PA","16335","8148131700","http://maps.google.com/maps?q=41.62256944,-80.21159185"
"POINT (-76.993327999645 39.820044000146)","-76.993328000000005","39.820044000000003","HANOVER RURAL KING SUPPLY","1155 CARLISLE ST","HANOVER","PA","17331","2234004213","http://maps.google.com/maps?q=39.820044,-76.993328"
"POINT (-76.433022553083 40.227487341584)","-76.433022550000004","40.227487340000003","WOLFS SPORTING CENTER LLC","2702 LEBANON RD","MANHEIM","PA","17545","7176656089","http://maps.google.com/maps?q=40.22748734,-76.43302255"
"POINT (-76.370255869996 41.045594133043)","-76.370255869999994","41.045594129999998","MAPLE RIDGE SPORTS CENTER","3650 RIDGE RD","BLOOMSBURG","PA","17815","5703875099","http://maps.google.com/maps?q=41.04559413,-76.37025587"
"POINT (-75.311659273298 40.017454518889)","-75.311659270000007","40.017454520000001","TCO FLY SHOP MAIN LINE","895 PENN STREET","BRYN MAWR","PA","19010",,"http://maps.google.com/maps?q=40.01745452,-75.31165927"
"POINT (-76.403673002733 40.571624002142)","-76.403672999999998","40.571624","PINE GROVE GUNS AND AMMO","183 TREMONT RD","PINE GROVE","PA","17963","5703450295","http://maps.google.com/maps?q=40.571624,-76.403673"
"POINT (-77.8041794701 40.831597670964)","-77.804179469999994","40.831597670000001","WAL MART 2230","373 BENNER PIKE","STATE COLLEGE","PA","16801","8142359306","http://maps.google.com/maps?q=40.83159767,-77.80417947"
"POINT (-78.590221409175 40.165916263778)","-78.590221409999998","40.165916260000003","LONG'S OUTPOST INC.","1654 DUNNINGS CREEK ROAD","NEW PARIS","PA","15554","8148394087","http://maps.google.com/maps?q=40.16591626,-78.59022141"
"POINT (-76.798710249909 40.889342780666)","-76.798710249999999","40.88934278","YOUNGS SPORTING GOODS LLC","252 DUKE STREET","NORTHUMBERLAND","PA","17857","5704733100","http://maps.google.com/maps?q=40.88934278,-76.79871025"
"POINT (-75.344153254129 40.67581377531)","-75.344153250000005","40.675813779999999","WAL MART 3563","3926 LINDEN STREET","BETHLEHEM","PA","18020","6108671300","http://maps.google.com/maps?q=40.67581378,-75.34415325"
"POINT (-79.0800138697 40.751421401743)","-79.080013870000002","40.751421399999998","INNOVATIONS OF HOME","7055 US-119","MARION CENTER","PA","15759","7243974900","http://maps.google.com/maps?q=40.7514214,-79.08001387"
"POINT (-76.978117760289 39.825193022847)","-76.978117760000003","39.82519302","WAL MART 1823","495 EISENHOWER DR","HANOVER","PA","17331","7176328444","http://maps.google.com/maps?q=39.82519302,-76.97811776"
"POINT (-80.30767447995 40.96595358582)","-80.307674480000003","40.965953589999998","T M HDWR RNTL NEW CASTLE","2650 ELLWOOD RD","NEW CASTLE","PA","16101",,"http://maps.google.com/maps?q=40.96595359,-80.30767448"
"POINT (-75.610999995776 40.801294552286)","-75.611000000000004","40.801294550000001","SHEAS HARDWARE INC","266 DELAWARE AVE","PALMERTON","PA","18071","6108262412","http://maps.google.com/maps?q=40.80129455,-75.611"
"POINT (-76.539084999254 40.64609899975)","-76.539085","40.646099","MOORE SUPPLY COMPANY","1104 W MAIN ST","VALLEY VIEW","PA","17983","5706823960","http://maps.google.com/maps?q=40.646099,-76.539085"
"POINT (-78.667716516622 40.390397633962)","-78.667716519999999","40.390397630000002","STAGER ENTERPRISES INC","696 DULANCEY DRIVE","PORTAGE","PA","15946","8147363380","http://maps.google.com/maps?q=40.39039763,-78.66771652"
"POINT (-78.030915729134 40.293767948674)","-78.030915730000004","40.293767950000003","CASSVILLE COUNTRY STORE","360 SEMINARY STREET","CASSVILLE","PA","16623","8144482849","http://maps.google.com/maps?q=40.29376795,-78.03091573"
"POINT (-80.102073775735 40.687669405338)","-80.102073779999998","40.687669409999998","WAL MART 1770","20245 ROUTE 19","CRANBERRY TWP","PA","16066","7247724550","http://maps.google.com/maps?q=40.68766941,-80.10207378"
"POINT (-76.877568494206 40.693514465874)","-76.877568490000002","40.693514469999997","HILSHERS GENERAL STORE","5254 S SUSQUEHANNA TRAIL","PORT TREVORTON","PA","17864","5703741550","http://maps.google.com/maps?q=40.69351447,-76.87756849"
"POINT (-78.638796058246 40.048946517341)","-78.638796060000004","40.048946520000001","SHAWNEE COUNTRY STORE","3875 PITT ST","SCHELLSBURG","PA","15559",,"http://maps.google.com/maps?q=40.04894652,-78.63879606"
"POINT (-79.149225626285 40.314396905241)","-79.149225630000004","40.314396909999999","PGC-SOUTHWEST REGIONAL HDQ","4820 RT 711","BOLIVAR","PA","15923","7242389523","http://maps.google.com/maps?q=40.31439691,-79.14922563"
"POINT (-80.1464376842 41.714747046003)","-80.146437680000005","41.71474705","SAEGERTOWN HARDWARE","201 MAIN ST","SAEGERTOWN","PA","16433","8147632795","http://maps.google.com/maps?q=41.71474705,-80.14643768"
"POINT (-76.485758007209 39.872307598921)","-76.485758009999998","39.872307599999999","BROGUE GENERAL STORE","2230 DELTA ROAD","BROGUE","PA","17309","7179271339","http://maps.google.com/maps?q=39.8723076,-76.48575801"
"POINT (-78.80008669542 40.674701303864)","-78.800086699999994","40.674701300000002","LECORCHICK SPORTING SUPPLY","174 SHAWNA RD","BARNESBORO","PA","15714","8149489409","http://maps.google.com/maps?q=40.6747013,-78.8000867"
"POINT (-76.605756000415 40.577139999895)","-76.605756","40.57714","STONY GUN AND ARCHERY LLC","9758 STATE RT 209","WILLIAMSTOWN","PA","17980","7175231102","http://maps.google.com/maps?q=40.57714,-76.605756"
"POINT (-75.476932984746 41.585565221908)","-75.476932980000001","41.585565219999999","WHITES CROSSING SPORT SHOP","298 CANAAN ST","CARBONDALE","PA","18407","5702824699","http://maps.google.com/maps?q=41.58556522,-75.47693298"
"POINT (-74.151787283407 40.787227319828)","-74.151787279999994","40.78722732","BULLET HOLE INC","78 RUTGERS ST","BELLEVILLE","NJ","07109","9737593968","http://maps.google.com/maps?q=40.78722732,-74.15178728"
"POINT (-78.392920134767 40.429808703244)","-78.392920129999993","40.429808700000002","BLAIR COUNTY TREASURER","423 ALLEGHENY ST","HOLLIDAYSBURG","PA","16648","8146933120","http://maps.google.com/maps?q=40.4298087,-78.39292013"
"POINT (-75.054393000375 40.021532999699)","-75.054393000000005","40.021532999999998","SPORT MASTER","6301 DITMAN ST","PHILADELPHIA","PA","19135",,"http://maps.google.com/maps?q=40.021533,-75.054393"
"POINT (-78.960950804413 39.921449361262)","-78.960950800000006","39.921449359999997","CUSTER SPORT SHOP","404  BROADWAY ST","BERLIN","PA","15530","8142674618","http://maps.google.com/maps?q=39.92144936,-78.9609508"
"POINT (-76.534184622903 41.130387609175)","-76.534184620000005","41.13038761","GUMPY'S CREEKSIDE CABIN","2861 ROUTE 42","MILLVILLE","PA","17846","5704585131","http://maps.google.com/maps?q=41.13038761,-76.53418462"
"POINT (-76.468497085637 40.031710010874)","-76.46849709","40.031710009999998","SUSQUEHANNA FISHING TACKLE","3992 LOCUST GROVE RD","COLUMBIA","PA","17512",,"http://maps.google.com/maps?q=40.03171001,-76.46849709"
"POINT (-74.811254413349 41.327585627861)","-74.811254410000004","41.327585630000002","PIKE COUNTY OUTFITTERS","106 ROUTE 6","MILFORD","PA","18337","5702969492","http://maps.google.com/maps?q=41.32758563,-74.81125441"
"POINT (-79.800960723913 39.928239416275)","-79.800960720000006","39.928239419999997","DUNLAP CREEK LAKE OUTDOOR CTR","296 KRULOCK RD","UNIONTOWN","PA","15401",,"http://maps.google.com/maps?q=39.92823942,-79.80096072"
"POINT (-79.544332394979 40.302541912923)","-79.544332389999994","40.302541910000002","WESTMORELAND CO TREASURER","2 N MAIN ST  SUITE 110","GREENSBURG","PA","15601","7248303175","http://maps.google.com/maps?q=40.30254191,-79.54433239"
"POINT (-75.628196438972 40.352811949307)","-75.628196439999996","40.352811950000003","WAL MART 5239","567 ROUTE 100 NORTH","BECHTELSVILLE","PA","19505","6103671005","http://maps.google.com/maps?q=40.35281195,-75.62819644"
"POINT (-75.992068873272 39.965119246823)","-75.992068869999997","39.965119250000001","DUTCH WAY TRUE VALUE","107 PINE CREEK DR","GAP","PA","17527","6105932400","http://maps.google.com/maps?q=39.96511925,-75.99206887"
"POINT (-79.01087899992 40.669172999828)","-79.010879000000003","40.669173000000001","CLYMER HARDWARE","510 FRANKLIN ST","CLYMER","PA","15728","7242544179","http://maps.google.com/maps?q=40.669173,-79.010879"
"POINT (-78.503712765169 40.017339367852)","-78.503712770000007","40.017339370000002","BEDFORD COUNTY TREASURER","200 S JULIANA ST","BEDFORD","PA","15522","8146234846","http://maps.google.com/maps?q=40.01733937,-78.50371277"
"POINT (-78.371623376372 40.011709525045)","-78.371623380000003","40.011709529999997","EVERETT TRUE VALUE HARDWARE","114 E MAIN ST","EVERETT","PA","15537","8146526857","http://maps.google.com/maps?q=40.01170953,-78.37162338"
"POINT (-76.306294600058 40.040863343775)","-76.306294600000001","40.040863340000001","LANCASTER COUNTY TREASURER","150 N. QUEEN ST., SUITE 122","LANCASTER","PA","17608","7172998222","http://maps.google.com/maps?q=40.04086334,-76.3062946"
"POINT (-76.60855404232 40.164218863093)","-76.608554040000001","40.164218859999998","TROP GUN SHOP","910 N HANOVER ST","ELIZABETHTOWN","PA","17022","7173675585","http://maps.google.com/maps?q=40.16421886,-76.60855404"
"POINT (-76.792117821262 40.855525850483)","-76.792117820000001","40.855525849999999","NORTHUMBERLAND COUNTY TREAS","399 STADIUM DR","SUNBURY","PA","17801","5709884161","http://maps.google.com/maps?q=40.85552585,-76.79211782"
"POINT (-79.078542371772 40.010311088945)","-79.078542369999994","40.010311090000002","SOMERSET COUNTY TREASURER","300 N CENTER AVE  STE 300","SOMERSET","PA","15501","8144451482","http://maps.google.com/maps?q=40.01031109,-79.07854237"
"POINT (-79.149382102926 41.881473700724)","-79.149382099999997","41.881473700000001","WAL MART 3429","2901 MARKET STREET","WARREN","PA","16365","8147232640","http://maps.google.com/maps?q=41.8814737,-79.1493821"
"POINT (-79.187577699849 40.211203000107)","-79.187577700000006","40.211202999999998","ROLLING ROCK CLUB","167 CLUBHOUSE LANE","Laughlintown","PA","15655",,"http://maps.google.com/maps?q=40.211203,-79.1875777"
"POINT (-76.488135815426 41.011285629079)","-76.488135819999997","41.011285630000003","WAL MART 1794","100 LUNGER DRIVE","BLOOMSBURG","PA","17815","5703895750","http://maps.google.com/maps?q=41.01128563,-76.48813582"
"POINT (-80.089977548107 42.048870682324)","-80.08997755","42.04887068","WAL MART 2278","1825 DOWNS DR","ERIE","PA","16509","8148647330","http://maps.google.com/maps?q=42.04887068,-80.08997755"
"POINT (-76.311610997895 41.683664999727)","-76.311610999999999","41.683664999999998","RUTTN BUCKS OUTFITTERS","13150 RTE 187","WYALUSING","PA","18853","5707461110","http://maps.google.com/maps?q=41.683665,-76.311611"
"POINT (-80.392889555337 41.011512849783)","-80.39288956","41.011512850000003","WAL MART 2287","2501 W STATE ST","NEW CASTLE","PA","16101","7246579390","http://maps.google.com/maps?q=41.01151285,-80.39288956"
"POINT (-78.649550608877 40.633903133237)","-78.649550610000006","40.63390313","SIMPLE MEN OUTDOORS","447 MAGEE AVENUE","PATTON","PA","16668","8143222632","http://maps.google.com/maps?q=40.63390313,-78.64955061"
"POINT (-76.325045284104 40.076270952941)","-76.325045279999998","40.076270950000001","WAL MART 5200","2030 FRUITVILLE PIKE","LANCASTER","PA","17601","7175810200","http://maps.google.com/maps?q=40.07627095,-76.32504528"
"POINT (-78.041839539433 40.491167567702)","-78.041839539999998","40.491167570000002","WAL MART 5470","6716 TOWN CENTER BLVD","HUNTINGDON","PA","16652","8146446910","http://maps.google.com/maps?q=40.49116757,-78.04183954"
"POINT (-76.671806943944 39.975507623776)","-76.671806939999996","39.975507620000002","WAL MART 1529","2801 EAST MARKET BLDG B","YORK","PA","17402","7177551600","http://maps.google.com/maps?q=39.97550762,-76.67180694"
"POINT (-78.750530372797 40.897386846914)","-78.750530370000007","40.897386849999997","MAHAFFEY HARDWARE & SUPPLY CO","204 MILLER RD","MAHAFFEY","PA","15757","8142777006","http://maps.google.com/maps?q=40.89738685,-78.75053037"
"POINT (-79.814332143324 41.047977884027)","-79.814332140000005","41.047977879999998","LOGANS GUN GALLERY","875 N WASHINGTON ROAD","NORTH WASHINGTON","PA","16048","7248942260","http://maps.google.com/maps?q=41.04797788,-79.81433214"
"POINT (-75.738174048578 40.863530498228)","-75.738174049999998","40.863530500000003","CARBON COUNTY TREASURER","4 BROADWAY","JIM THORPE","PA","18229","5703252251","http://maps.google.com/maps?q=40.8635305,-75.73817405"
"POINT (-79.461344140774 40.488900093943)","-79.461549750000003","40.488810059999999","AGGIES COUNTRY MARKET LLC","2921 STATE ROUTE 286","SALTSBURG","PA","15681","7247020326","http://maps.google.com/maps?q=40.48881006,-79.46154975"
"POINT (-75.188463561547 40.363450003942)","-75.188463560000002","40.36345","QUINBY'S GUN SHOP","ROUTE 313 & APPLEBUTTER RD","DUBLIN","PA","18917","2152491144","http://maps.google.com/maps?q=40.36345,-75.18846356"
"POINT (-75.877854840227 41.833476142111)","-75.877854839999998","41.833476140000002","MONTROSE SPORTING GOODS","51 PUBLIC AVE","MONTROSE","PA","18801","5702783154","http://maps.google.com/maps?q=41.83347614,-75.87785484"
"POINT (-77.949796000363 41.030549999951)","-77.949796000000006","41.030549999999998","LAUREL OPTICS","104 S 4TH ST","SNOW SHOE","PA","16874","8448043040","http://maps.google.com/maps?q=41.03055,-77.949796"
"POINT (-75.91997499876 40.099132996476)","-75.919974999999994","40.099133000000002","HONEY BROOK HARDWARE","5004 HORSESHOE PIKE","HONEY BROOK","PA","19344","6102733724","http://maps.google.com/maps?q=40.099133,-75.919975"
"POINT (-80.236765056598 42.077182230883)","-80.236765059999996","42.077182229999998","PFBC WALNUT CREEK ACCESS","241 MANCHESTER ROAD","FAIRVIEW","PA","16415",,"http://maps.google.com/maps?q=42.07718223,-80.23676506"
"POINT (-76.402931508144 41.522664260864)","-76.402896999999996","41.522660000000002","SINCLAIRS  HARDWARE","221 CENTER ST BOX 386","DUSHORE","PA","18614","5709288870","http://maps.google.com/maps?q=41.52266,-76.402897"
"POINT (-75.087788145947 40.256998885778)","-75.087788149999994","40.256998889999998","TANNER SPORTS CENTER","2301 YORK RD","JAMISON","PA","18929","2153433103","http://maps.google.com/maps?q=40.25699889,-75.08778815"
"POINT (-76.011686934623 41.180358910168)","-76.011686929999996","41.180358910000002","PIESTRAKS GUN SHOP","104 ALDEN MOUNTAIN RD","NANTICOKE","PA","18634","5707353776","http://maps.google.com/maps?q=41.18035891,-76.01168693"
"POINT (-79.193781782307 40.600741146214)","-79.193781779999995","40.600741149999998","WAL MART 2318","3100 OAKLAND AVENUE","INDIANA","PA","15701","4123493565","http://maps.google.com/maps?q=40.60074115,-79.19378178"
"POINT (-75.689853248135 39.858885921693)","-75.689853249999999","39.858885919999999","WAL MART 3541","516 SCHOOL HOUSE ROAD","KENNETT SQUARE","PA","19348","6104442268","http://maps.google.com/maps?q=39.85888592,-75.68985325"
"POINT (-78.238948977714 40.672726894099)","-78.238948980000004","40.67272689","ACE FIX IT HARDWARE OF TYRONE","1112 LOGAN AVE","TYRONE","PA","16686","8146959840","http://maps.google.com/maps?q=40.67272689,-78.23894898"
"POINT (-75.970592999793 40.954338000234)","-75.970592999999994","40.954338","BARRYS LIVE BAIT","139 E GREEN ST","HAZLETON","PA","18201",,"http://maps.google.com/maps?q=40.954338,-75.970593"
"POINT (-77.998190493202 39.934116064104)","-77.998190489999999","39.934116060000001","FULTON COUNTY TREASURER","201 N 2ND ST","MC CONNELLSBURG","PA","17233","7174854454","http://maps.google.com/maps?q=39.93411606,-77.99819049"
"POINT (-79.545464603716 40.814751636795)","-79.545464600000003","40.814751639999997","WAL MART 1820","1 HILLTOP PLAZA","KITTANNING","PA","16201","7245432023","http://maps.google.com/maps?q=40.81475164,-79.5454646"
"POINT (-79.525005626732 40.146268242163)","-79.525005629999995","40.146268239999998","JACK CARUSO AND SONS SUNOCO","291 E MAIN ST","MOUNT PLEASANT","PA","15666",,"http://maps.google.com/maps?q=40.14626824,-79.52500563"
"POINT (-75.072513989661 41.253666536916)","-75.072513990000004","41.253666539999998","PICKEREL INN DELI, LLC","1524 ROUTE 402 RD","DINGMANS FERRY","PA","18328","5707757737","http://maps.google.com/maps?q=41.25366654,-75.07251399"
"POINT (-75.553305254682 41.491096200831)","-75.553305249999994","41.491096200000001","SMOKE RINGS","7 KENNEDY DRIVE","ARCHBALD","PA","18403",,"http://maps.google.com/maps?q=41.4910962,-75.55330525"
"POINT (-76.51182313003 40.412285429295)","-76.511823129999996","40.412285429999997","JONO ACE HARDWARE","10781 ALLENTOWN BLVD","JONESTOWN","PA","17038","7178655060","http://maps.google.com/maps?q=40.41228543,-76.51182313"
"POINT (-76.131231672074 41.989919107258)","-76.131229489999996","41.989910639999998","SKYLINE SERVICES, INC.","891 PENNSYLVANIA AVE","LITTLE MEADOWS","PA","18830","5706233000","http://maps.google.com/maps?q=41.98991064,-76.13122949"
"POINT (-77.203044241012 39.843085898062)","-77.203044239999997","39.843085899999998","WAL MART 1537","1270 YORK ROAD","GETTYSBURG","PA","17325","7173342000","http://maps.google.com/maps?q=39.8430859,-77.20304424"
"POINT (-75.378231766103 40.486852560673)","-75.378231769999999","40.486852560000003","DONLEYS GUN SHOP","1541 N WEST END BLVD","QUAKERTOWN","PA","18951","2155296578","http://maps.google.com/maps?q=40.48685256,-75.37823177"
"POINT (-77.784764628327 40.942026096237)","-77.784764629999998","40.9420261","CONKLINS GUN AND SPORT SHOP","106 MARKET ST","MILESBURG","PA","16853","8143558030","http://maps.google.com/maps?q=40.9420261,-77.78476463"
"POINT (-74.833258538435 40.186051808882)","-74.833258540000003","40.186051810000002","JOHNS DRIVING SCHOOL AND AUTO","914 TRENTON ROAD","FAIRLESS HILLS","PA","19030",,"http://maps.google.com/maps?q=40.18605181,-74.83325854"
"POINT (-75.581349277142 40.553042782782)","-75.581349279999998","40.553042779999998","WAL MART 2641","1091 MILLCREEK ROAD","ALLENTOWN","PA","18106","6105301400","http://maps.google.com/maps?q=40.55304278,-75.58134928"
"POINT (-75.441154782999 40.915509800866)","-75.441154780000005","40.915509800000002","WACKY WORM TACKLE SHOP","1222 INTERCHANGE ROAD","GILBERT","PA","18331","6106816226","http://maps.google.com/maps?q=40.9155098,-75.44115478"
"POINT (-76.862556000095 40.999293000216)","-76.862555999999998","40.999293000000002","BLUE HERON SPORTS INC","5115 ST ROUTE 405","MILTON","PA","17847",,"http://maps.google.com/maps?q=40.999293,-76.862556"
"POINT (-77.252423460777 40.656706570213)","-77.252423460000003","40.656706569999997","KRAMERS SPORTING GOODS","2499 FAIRVIEW ROAD","MC ALISTERVILLE","PA","17049","7174633523","http://maps.google.com/maps?q=40.65670657,-77.25242346"
"POINT (-78.888273723856 41.087002273979)","-78.888273720000001","41.087002269999999","A AND L LIL BAIT SHOP","345 BRADFORD ST","REYNOLDSVILLE","PA","15851",,"http://maps.google.com/maps?q=41.08700227,-78.88827372"
"POINT (-80.214119035833 41.620404271945)","-80.21411904","41.620404270000002","WAL MART 1656","16086 CONNEAUT LAKE RD","MEADVILLE","PA","16335","8147246267","http://maps.google.com/maps?q=41.62040427,-80.21411904"
"POINT (-76.15377344335 40.164067996096)","-76.153773439999995","40.164068","WAL MART 2340","890 E MAIN ST","EPHRATA","PA","17522","7177216680","http://maps.google.com/maps?q=40.164068,-76.15377344"
"POINT (-75.608862698001 39.95775975385)","-75.608862700000003","39.957759750000001","CHESTER COUNTY TREASURER","313 WEST MARKET ST STE 3202","WEST CHESTER","PA","19382","6103446357","http://maps.google.com/maps?q=39.95775975,-75.6088627"
"POINT (-78.236362226751 41.512727919993)","-78.236362229999997","41.512727920000003","CAMERON COUNTY TREASURER","20 E 5TH ST","EMPORIUM","PA","15834","8144863348","http://maps.google.com/maps?q=41.51272792,-78.23636223"
"POINT (-79.696344806098 41.63376391695)","-79.696344809999999","41.63376392","WAL MART 5360","11415 HYDETOWN ROAD","TITUSVILLE","PA","16354","8148270850","http://maps.google.com/maps?q=41.63376392,-79.69634481"
"POINT (-80.597505106825 40.060278865024)","-80.59750511","40.060278869999998","CABELAS WV","ONE CABELA DRIVE","TRIADELPHIA","WV","26059","3042380120","http://maps.google.com/maps?q=40.06027887,-80.59750511"
"POINT (-79.768064464921 40.216669280324)","-79.768064460000005","40.216669279999998","YOUGHIOGHENY CANOE OUTFITTERS","226 1/2 COLLINSBURG RD","WEST NEWTON","PA","15089",,"http://maps.google.com/maps?q=40.21666928,-79.76806446"
"POINT (-79.943188788263 40.87747695929)","-79.943188789999994","40.877476960000003","WAL MART 1885","400 BUTLER COMMONS","BUTLER","PA","16001","7242824060","http://maps.google.com/maps?q=40.87747696,-79.94318879"
"POINT (-79.415804289092 41.678349100229)","-79.415804289999997","41.678349099999998","TRADING POST","15910 ROUTE 62","TIDIOUTE","PA","16351","8144843530","http://maps.google.com/maps?q=41.6783491,-79.41580429"
"POINT (-78.56098568166 41.420168081724)","-78.560985680000002","41.420168080000003","ON THE SPOT NOTARY REG SERV","572B S SAINT MARYS ST","SAINT MARYS","PA","15857",,"http://maps.google.com/maps?q=41.42016808,-78.56098568"
"POINT (-79.803282777294 40.562938050129)","-79.803282780000004","40.56293805","WAL MART 3838","2010 VILLAGE CENTER DRIVE","TARENTUM","PA","15084","4792042224","http://maps.google.com/maps?q=40.56293805,-79.80328278"
"POINT (-77.046616902224 40.791973247751)","-77.046616900000004","40.791973249999998","SNYDER COUNTY TREASURER","9 W MARKET ST","MIDDLEBURG","PA","17842","5708374221","http://maps.google.com/maps?q=40.79197325,-77.0466169"
"POINT (-80.339299167369 40.998873016096)","-80.339299170000004","40.998873019999998","LAWRENCE COUNTY TREASURER","430 COURT ST","NEW CASTLE","PA","16101","7246562484","http://maps.google.com/maps?q=40.99887302,-80.33929917"
"POINT (-77.613198166211 40.582924961068)","-77.613198170000004","40.58292496","WAL MART 1607","10180 US HWY 522 SOUTH","LEWISTOWN","PA","17044","7172426201","http://maps.google.com/maps?q=40.58292496,-77.61319817"
"POINT (-78.371101997775 40.011825999718)","-78.371101999999993","40.011825999999999","ACE FIX IT HARDWARE OF EVERETT","131 E MAIN ST","EVERETT","PA","15537","8146525014","http://maps.google.com/maps?q=40.011826,-78.371102"
"POINT (-77.002222863365 41.240586136221)","-77.002222860000003","41.240586139999998","LYCOMING COUNTY TREASURE","48 W 3RD ST","WILLIAMSPORT","PA","17701","5703272249","http://maps.google.com/maps?q=41.24058614,-77.00222286"
"POINT (-79.542374160186 40.149047513911)","-79.542374159999994","40.149047510000003","SALOOM DEPT. STORE","508 MAIN ST","MOUNT PLEASANT","PA","15666","7245472207","http://maps.google.com/maps?q=40.14904751,-79.54237416"
"POINT (-77.29329269731 41.595076363043)","-77.293292699999995","41.59507636","PIERCES GENERAL STORE","2064 RTE 287","MORRIS","PA","16938","5703537475","http://maps.google.com/maps?q=41.59507636,-77.2932927"
"POINT (-75.665731562158 40.2553030627)","-75.665731559999998","40.255303060000003","WAL MART 2263","233 SHOEMAKER RD","POTTSTOWN","PA","19464","6103273201","http://maps.google.com/maps?q=40.25530306,-75.66573156"
"POINT (-79.825954744997 40.308279335187)","-79.82595474","40.308279339999999","R C WALTER AND SONS","1441 BOSTON HOLLOW RD","BOSTON","PA","15135","4127515500","http://maps.google.com/maps?q=40.30827934,-79.82595474"
"POINT (-74.74206180076 41.350044200498)","-74.742061800000002","41.350044199999999","WAL MART 2064","220 ROUTE 6 & 209","MILFORD","PA","18337","5704914940","http://maps.google.com/maps?q=41.3500442,-74.7420618"
"POINT (-75.428376595731 39.880410481561)","-75.428374500000004","39.880415999999997","SNYDERâ€™S ACE HARDWARE","5400 PENNELL RD","MEDIA","PA","19063","6104590221","http://maps.google.com/maps?q=39.880416,-75.4283745"
"POINT (-78.861800807217 40.071476401694)","-78.861800810000005","40.071476400000002","DUPPSTADTS COUNTRY STORE","6885 LINCOLN HIGHWAY","STOYSTOWN","PA","15563","8147544400","http://maps.google.com/maps?q=40.0714764,-78.86180081"
"POINT (-79.446513745052 39.999061977733)","-79.446513749999994","39.99906198","B & G BAIT & SPORT SHOP LLC","118 INDIAN CREEK VLY RD","NORMALVILLE","PA","15469","7244557282","http://maps.google.com/maps?q=39.99906198,-79.44651375"
"POINT (-78.583839089287 41.201655422752)","-78.583839089999998","41.201655420000002","FEATHERMAN CREATIONS","11484 BENNETTS VALLEY HWY","PENFIELD","PA","15849",,"http://maps.google.com/maps?q=41.20165542,-78.58383909"
"POINT (-79.890239757882 40.486658520971)","-79.89023976","40.486658519999999","WAL MART 5339","877 FREEPORT ROAD","PITTSBURGH","PA","15238","4127824444","http://maps.google.com/maps?q=40.48665852,-79.89023976"
"POINT (-77.485974377285 40.888279458067)","-77.485974380000002","40.88827946","HOSTERMAN AND STOVER CO","190 W MAIN STREET","MILLHEIM","PA","16854","8143498321","http://maps.google.com/maps?q=40.88827946,-77.48597438"
"POINT (-76.304440247343 40.375320561016)","-76.304440249999999","40.375320559999999","LAUCKS SPORTING GOODS","26 W MAIN AVENUE","MYERSTOWN","PA","17067",,"http://maps.google.com/maps?q=40.37532056,-76.30444025"
"POINT (-79.756117434886 40.203914614353)","-79.756117430000003","40.203914609999998","WILLIAMS ACE HARDWARE","200 MT PLEASANT RD","WEST NEWTON","PA","15089","7248727783","http://maps.google.com/maps?q=40.20391461,-79.75611743"
"POINT (-76.766167000976 41.106528001877)","-76.766166999999996","41.106527999999997","CLARKS AG CENTER","4675 PA-54","TURBOTVILLE","PA","17772","5706495158","http://maps.google.com/maps?q=41.106528,-76.766167"
"POINT (-79.710785128171 40.641017881024)","-79.710785130000005","40.64101788","L ARNOLD SONS INC","3025 FREEPORT RD","NATRONA HEIGHTS","PA","15065","7242244664","http://maps.google.com/maps?q=40.64101788,-79.71078513"
"POINT (-79.032362984287 40.160989382141)","-79.032362980000002","40.160989379999997","BOSWELL PRESCRIPTION CENTER","210 OHIO ST","BOSWELL","PA","15531",,"http://maps.google.com/maps?q=40.16098938,-79.03236298"
"POINT (-75.876340901394 41.021586439321)","-75.876340900000002","41.02158644","D AND M GUNS SUPPLY","176 FOSTER AVE","FREELAND","PA","18224","5706361209","http://maps.google.com/maps?q=41.02158644,-75.8763409"
"POINT (-78.729638982768 41.422271486632)","-78.729575999999994","41.422280999999998","BROAD STREET BOOTS","9 N BROAD ST","RIDGWAY","PA","15853","8148379509","http://maps.google.com/maps?q=41.422281,-78.729576"
"POINT (-75.612684227339 40.101165188316)","-75.612684229999999","40.101165190000003","HALLMANS GENERAL STORE","1600 PIKELAND RD","CHESTER SPRINGS","PA","19425","6108277721","http://maps.google.com/maps?q=40.10116519,-75.61268423"
"POINT (-79.9533490683 42.166239646682)","-79.953349070000002","42.166239650000001","MELISSA BOOZEL BUSINESS & NOTARY SERVICES","6484 BUFFALO RD","HARBORCREEK","PA","16421","8144644111","http://maps.google.com/maps?q=42.16623965,-79.95334907"
"POINT (-75.713375506289 41.38158318119)","-75.713375510000006","41.38158318","LONESOME ROAD ARCHERY","401 S MAIN ST","TAYLOR","PA","18517","5705620301","http://maps.google.com/maps?q=41.38158318,-75.71337551"
"POINT (-78.810729458799 41.660776971186)","-78.810729460000005","41.660776970000001","FIELD STREET FEED & BOOTS","18 FIELD ST","KANE","PA","16735","8148379509","http://maps.google.com/maps?q=41.66077697,-78.81072946"
"POINT (-80.63164313039 41.025961378988)","-80.63164313","41.025961379999998","FIN FEATHER FUR OUTFITTERS","1138 BOARDMAN POLAND RD","YOUNGSTOWN","OH","44514","3307291300","http://maps.google.com/maps?q=41.02596138,-80.63164313"
"POINT (-75.514270748065 41.310860487316)","-75.514270749999994","41.310860490000003","BILLS ACE HARDWARE","921 DRINKER TPKE STE 24","COVINGTON TOWNSHIP","PA","18444","5708427645","http://maps.google.com/maps?q=41.31086049,-75.51427075"
"POINT (-79.944831328116 40.621275177179)","-79.94483133","40.621275179999998","WAL MART 2603","300 WAL MART DR","GIBSONIA","PA","15044","7244492700","http://maps.google.com/maps?q=40.62127518,-79.94483133"
"POINT (-75.34152623259 39.854102250743)","-75.341526229999999","39.854102249999997","WAL MART 2830","1570 EDDYSTONE CROSSING","CRUM LYNNE","PA","19022","6104471860","http://maps.google.com/maps?q=39.85410225,-75.34152623"
"POINT (-74.82045813583 40.142620117134)","-74.82045814","40.142620119999997","WAL MART 2068","180 LEVITTOWN CTR","LEVITTOWN","PA","19055","2159496600","http://maps.google.com/maps?q=40.14262012,-74.82045814"
"POINT (-78.759500000603 41.034143002134)","-78.759500000000003","41.034143","M LONDONS GUNS","1532 SHAMOKIN TR","LUTHERSBURG","PA","15848","8145835851","http://maps.google.com/maps?q=41.034143,-78.7595"
"POINT (-78.760470563793 40.658317367189)","-78.760470560000002","40.658317369999999","HI TEC ARCHERY SUPPLIES","152 SHEREDY DRIVE","NORTHERN CAMBRIA","PA","15714","8149486923","http://maps.google.com/maps?q=40.65831737,-78.76047056"
"POINT (-78.431526302199 40.371385468074)","-78.431526300000002","40.37138547","WAL MART 4348","200 COMMERCE DRIVE","DUNCANSVILLE","PA","16635","8146930531","http://maps.google.com/maps?q=40.37138547,-78.4315263"
"POINT (-77.643947807406 40.939254577281)","-77.64394781","40.939254579999997","NITTANY VALLEY FEED  HARDWARE","1169 NITTANY VALLEY DR","BELLEFONTE","PA","16823","8143832809","http://maps.google.com/maps?q=40.93925458,-77.64394781"
"POINT (-79.45654968927 41.492843884771)","-79.456549690000003","41.492843880000002","ARROWHEAD OUTDOORS","217 ELM ST","TIONESTA","PA","16353","8147554569","http://maps.google.com/maps?q=41.49284388,-79.45654969"
"POINT (-75.170718246814 40.082889748921)","-75.170718249999993","40.08288975","WAL MART 5229","1000 EASTON ROAD SUITE 200","WYNCOTE","PA","19095","2158876737","http://maps.google.com/maps?q=40.08288975,-75.17071825"
"POINT (-77.308628171698 40.102223544676)","-77.308628170000006","40.102223549999998","PFBC SOUTHCENTRAL REGION","1704 PINE ROAD","NEWVILLE","PA","17241",,"http://maps.google.com/maps?q=40.10222355,-77.30862817"
"POINT (-78.724974993593 40.483859760668)","-78.724974990000007","40.483859760000001","CAMBRIA COUNTY TREASURER","200 S CENTER ST","EBENSBURG","PA","15931","8144721647","http://maps.google.com/maps?q=40.48385976,-78.72497499"
"POINT (-78.534325952273 40.754743904676)","-78.534325949999996","40.754743900000001","LEYOS ARCHERY & SPORTING GOODS","1564 MAIN STREET","COALPORT","PA","16627","8146723912","http://maps.google.com/maps?q=40.7547439,-78.53432595"
"POINT (-75.131566434594 40.217210167273)","-75.131566430000007","40.217210170000001","WAL MART 5649","299 VALLEY GATE DR","WARRINGTON","PA","18976","2154889026","http://maps.google.com/maps?q=40.21721017,-75.13156643"
"POINT (-76.879400697161 40.989323675922)","-76.879400700000005","40.989323679999998","WAL MART 1644","120 AJK BLVD","LEWISBURG","PA","17837","5705228200","http://maps.google.com/maps?q=40.98932368,-76.8794007"
"POINT (-76.415931635882 41.770931185723)","-76.415931639999997","41.770931189999999","FULMERS SPORTING GOODS","1137 GOLDEN MILE ROAD","WYSOX","PA","18854","5702656639","http://maps.google.com/maps?q=41.77093119,-76.41593164"
"POINT (-75.840308794425 40.296454190006)","-75.840308789999995","40.296454189999999","WAL MART 1777","5900 PERKIOMEN AVE","READING","PA","19606","6105820505","http://maps.google.com/maps?q=40.29645419,-75.84030879"
"POINT (-76.882726598109 40.258679814916)","-76.882726599999998","40.258679809999997","DAUPHIN COUNTY TREASURER","101 MARKET ST   RM 105","HARRISBURG","PA","17101","7177806550","http://maps.google.com/maps?q=40.25867981,-76.8827266"
"POINT (-76.151270786375 41.153507160808)","-76.151270789999998","41.153507159999997","FIVE MOUNTAIN HARDWARE. LLC","26 WEST UNION ST","SHICKSHINNY","PA","18655","5705427112","http://maps.google.com/maps?q=41.15350716,-76.15127079"
"POINT (-75.42877147896 41.404947834091)","-75.428771479999995","41.404947829999998","HUNTERS GALLERY","237 MT COBB HWY","LAKE ARIEL","PA","18436","5706897898","http://maps.google.com/maps?q=41.40494783,-75.42877148"
"POINT (-78.196427489641 40.895202831757)","-78.196427490000005","40.895202830000002","BELDING AND MULL INC","1878 PORT MATILDA HWY","PHILIPSBURG","PA","16866","8143421800","http://maps.google.com/maps?q=40.89520283,-78.19642749"
"POINT (-75.862478564358 40.155367585943)","-75.86247856","40.155367589999997","WAL MART 3501","100 CROSSING BLVD","ELVERSON","PA","19520","6109132000","http://maps.google.com/maps?q=40.15536759,-75.86247856"
"POINT (-80.075128459343 42.130340654035)","-80.075128460000002","42.130340650000001","KRAUS DEPARTMENT STORE","810 PARADE ST","ERIE","PA","16503","8144534314","http://maps.google.com/maps?q=42.13034065,-80.07512846"
"POINT (-80.18484861628 39.896466253104)","-80.184848619999997","39.896466250000003","JOE RIGGS SPORTING","137 EAST HIGH STREET","WAYNESBURG","PA","15370","7246275010","http://maps.google.com/maps?q=39.89646625,-80.18484862"
"POINT (-78.974111423363 40.938180192462)","-78.97411142","40.938180189999997","MAHONING VALLEY MILLING","324 INDIANA ST","PUNXSUTAWNEY","PA","15767","8149388850","http://maps.google.com/maps?q=40.93818019,-78.97411142"
"POINT (-75.76847179766 41.315529298664)","-75.7684718","41.315529300000001","WAL MART 2543","390 PA-315","PITTSTON","PA","18640","5708839400","http://maps.google.com/maps?q=41.3155293,-75.7684718"
"POINT (-77.526987321806 39.739656793829)","-77.526987320000003","39.739656789999998","WAL MART 3633","12751 WASHINGTON TOWNSHIP BLVD","WAYNESBORO","PA","17268","7177622282","http://maps.google.com/maps?q=39.73965679,-77.52698732"
"POINT (-79.709008540813 40.64859313077)","-79.709008539999999","40.648593130000002","WAL MART 3738","100 HIGHLANDS MALL DR","NATRONA HEIGHTS","PA","15065","7242266949","http://maps.google.com/maps?q=40.64859313,-79.70900854"
"POINT (-75.35967534184 40.445888164977)","-75.359675339999995","40.445888160000003","WAL MART 2446","195 NORTH WEST END BLVD","QUAKERTOWN","PA","18951","2155297689","http://maps.google.com/maps?q=40.44588816,-75.35967534"
"POINT (-77.954527234725 40.445823631854)","-77.954527229999997","40.44582363","RAYSTOWN FISHING AND HUNTING","11812 WILLIAM PENN HIGHWAY","HUNTINGDON","PA","16652","8146433584","http://maps.google.com/maps?q=40.44582363,-77.95452723"
"POINT (-77.887775217203 40.077774266325)","-77.887775219999995","40.077774269999999","BURNT CABINS GRIST MILL LLC","582 GRIST MILL RD","BURNT CABINS","PA","17215",,"http://maps.google.com/maps?q=40.07777427,-77.88777522"
"POINT (-77.702537489712 40.263753092997)","-77.702537489999997","40.263753090000002","EAST WATERFORD GENERAL STORE","9697 ROUTE 75 SOUTH","EAST WATERFORD","PA","17021","7177343521","http://maps.google.com/maps?q=40.26375309,-77.70253749"
"POINT (-79.597945244423 40.016672962765)","-79.597945240000001","40.016672960000001","S L SPOTTO COMPANY  INC","805 W CRAWFORD AVE","CONNELLSVILLE","PA","15425","7246288010","http://maps.google.com/maps?q=40.01667296,-79.59794524"
"POINT (-75.879722199649 41.244156876453)","-75.879722200000003","41.244156879999998","LUZERNE COUNTY TREASURER","20 N PENNSYLVANIA AVE","WILKES BARRE","PA","18711","5708251764","http://maps.google.com/maps?q=41.24415688,-75.8797222"
"POINT (-76.84615913835 40.824768365216)","-76.846159139999997","40.824768370000001","WAL MART 2185","980 N. SUSQUEHANNA TRAIL","SELINSGROVE","PA","17870","5703741230","http://maps.google.com/maps?q=40.82476837,-76.84615914"
"POINT (-75.64021125498 41.464037201757)","-75.640211249999993","41.4640372","WAL MART 1884","900 COMMERCE BLVD","DICKSON CITY","PA","18519","5703832354","http://maps.google.com/maps?q=41.4640372,-75.64021125"
"POINT (-76.569017916448 40.32038966216)","-76.569017919999993","40.320389659999996","WAL MART 2888","100 NORTH LONDONDERRY SQUARE","PALMYRA","PA","17078","7178380476","http://maps.google.com/maps?q=40.32038966,-76.56901792"
"POINT (-75.339987835327 40.591714380089)","-75.339987829999998","40.591714379999999","412 AUTO TAGS NOTARY","1558 MAIN STREET","HELLERTOWN","PA","18055",,"http://maps.google.com/maps?q=40.59171438,-75.33998783"
"POINT (-80.149590619032 41.638503381747)","-80.149590619999998","41.638503380000003","CRAWFORD COUNTY TREASURER","903 DIAMOND PARK","MEADVILLE","PA","16335","8143337332","http://maps.google.com/maps?q=41.63850338,-80.14959062"
"POINT (-79.723224982055 39.90140740867)","-79.723224979999998","39.901407409999997","FAYETTE COUNTY TREASURER","61 E MAIN ST  COURTHOUSE","UNIONTOWN","PA","15401","7244301256","http://maps.google.com/maps?q=39.90140741,-79.72322498"
"POINT (-76.520304281833 41.963083846313)","-76.520304280000005","41.963083849999997","ATHENS AGWAY","100 N. MAIN ST","ATHENS","PA","18810","5708882344","http://maps.google.com/maps?q=41.96308385,-76.52030428"
"POINT (-79.35940324328 39.812163368325)","-79.359403240000006","39.81216337","CONFLUENCE HARDWARE","484 HUGHART STREET","CONFLUENCE","PA","15424","8143953511","http://maps.google.com/maps?q=39.81216337,-79.35940324"
"POINT (-78.167410764205 40.991569593323)","-78.167410759999996","40.991569589999997","H & B HARDWARE","111 ROLLING STONE RD","KYLERTOWN","PA","16847","8143456416","http://maps.google.com/maps?q=40.99156959,-78.16741076"
"POINT (-76.842564984288 41.060524125264)","-76.842564980000006","41.060524129999997","FICKS HARDWARE","759 SUSQUEHANNA TRL","WATSONTOWN","PA","17777","5705382685","http://maps.google.com/maps?q=41.06052413,-76.84256498"
"POINT (-79.612932999829 40.989141514364)","-79.612932999999998","40.989141510000003","SPORTS SHACK LLC","309 WATER STREET","EAST BRADY","PA","16028","7245265667","http://maps.google.com/maps?q=40.98914151,-79.612933"
"POINT (-77.81676355569 41.482247385856)","-77.816763559999998","41.482247389999998","KINNEYS COUNTRY STORE AND BAR","25 MAIN STREET","CROSS FORK","PA","17729",,"http://maps.google.com/maps?q=41.48224739,-77.81676356"
"POINT (-79.38461166707 40.284079313948)","-79.384611669999998","40.284079310000003","WAL MART 2502","100  COLONY LANE","LATROBE","PA","15650","7245370928","http://maps.google.com/maps?q=40.28407931,-79.38461167"
"POINT (-79.751542666385 40.841878464751)","-79.751542670000006","40.841878459999997","FENELTON FIREARMS","268 STEIGHNER RD","FENELTON","PA","16034","7242830074","http://maps.google.com/maps?q=40.84187846,-79.75154267"
"POINT (-79.503438584133 41.041003155998)","-79.503438579999994","41.041003160000002","MYERS TIRE AND SERVICE CO","489 MAIN STREET","RIMERSBURG","PA","16248","8144733600","http://maps.google.com/maps?q=41.04100316,-79.50343858"
"POINT (-76.407429620707 40.312988090277)","-76.407429620000002","40.312988089999997","SHYDAS OUTDOOR CENTER","1635 S LINCOLN AVE","LEBANON","PA","17042","7172736572","http://maps.google.com/maps?q=40.31298809,-76.40742962"
"POINT (-75.391766970849 39.91921737633)","-75.391766970000006","39.919217379999999","DELAWARE COUNTY TREASURE","201 W FRONT ST","MEDIA","PA","19063","6108914272","http://maps.google.com/maps?q=39.91921738,-75.39176697"
"POINT (-78.645347955805 40.042789176716)","-78.645347959999995","40.04278918","COACH EDS BAIT TACKLE","1411 SHAWNEE RD","SCHELLSBURG","PA","15559","8147334887","http://maps.google.com/maps?q=40.04278918,-78.64534796"
"POINT (-77.523540731301 39.738247886077)","-77.523540729999993","39.738247889999997","HUNTER'S DEN INC","11779 BUCHANAN TRAIL EAST","WAYNESBORO","PA","17268","7177654606","http://maps.google.com/maps?q=39.73824789,-77.52354073"
"POINT (-77.606448809071 39.923436846291)","-77.606448810000003","39.923436850000002","WAL MART 1850","1730 LINCOLN WAY EAST","CHAMBERSBURG","PA","17201","7172642300","http://maps.google.com/maps?q=39.92343685,-77.60644881"
"POINT (-76.617521864512 40.962362429188)","-76.617521859999997","40.962362429999999","MONTOUR COUNTY TREASURER","253 MILL ST","DANVILLE","PA","17821","5702713016","http://maps.google.com/maps?q=40.96236243,-76.61752186"
"POINT (-80.04304705406 42.121872478223)","-80.043047049999998","42.12187248","WAL MART 5445","2711 ELM STREET","ERIE","PA","16504","8144593625","http://maps.google.com/maps?q=42.12187248,-80.04304705"
"POINT (-78.592623141325 40.001770935768)","-78.592623140000001","40.00177094","MANNS CHOICE GROCERY","223 MAIN ST","MANNS CHOICE","PA","15550","8146235785","http://maps.google.com/maps?q=40.00177094,-78.59262314"
"POINT (-79.38716006536 41.215297684135)","-79.387160059999999","41.215297679999999","SMATHERS INSURANCE","400 MAIN STREET","CLARION","PA","16214",,"http://maps.google.com/maps?q=41.21529768,-79.38716006"
"POINT (-80.185553161364 39.896480699939)","-80.185553159999998","39.896480699999998","GREENE COUNTY TREASURER","93 E HIGH ST","WAYNESBURG","PA","15370","7248525225","http://maps.google.com/maps?q=39.8964807,-80.18555316"
"POINT (-75.23935994869 41.229019581685)","-75.239359949999994","41.229019579999999","SKYTOP LODGE","1 SKYTOP LODGE RD","SKYTOP","PA","18357",,"http://maps.google.com/maps?q=41.22901958,-75.23935995"
"POINT (-78.646180998602 39.830761002705)","-78.646180999999999","39.830761000000003","MOMS CENTERVILLE ONE STOP","4341 BEDFORD VALLEY RD","BEDFORD","PA","15522","8143569983","http://maps.google.com/maps?q=39.830761,-78.646181"
"POINT (-80.148522726077 41.432029270217)","-80.148522729999996","41.432029270000001","BUBBA MAKS BAIT","857 GEORGETOWN RD","SANDY LAKE","PA","16145",,"http://maps.google.com/maps?q=41.43202927,-80.14852273"
"POINT (-75.305446666726 41.039209573839)","-75.305446669999995","41.039209569999997","STEELE HARDWARE","ROUTE 611 BOX 96","TANNERSVILLE","PA","18372",,"http://maps.google.com/maps?q=41.03920957,-75.30544667"
"POINT (-76.915848035099 41.261008423252)","-76.91584804","41.261008420000003","WAL MART 1887","1015 N LOYALSOCK AVE","MONTOURSVILLE","PA","17754","5703685450","http://maps.google.com/maps?q=41.26100842,-76.91584804"
"POINT (-80.087671357177 42.128635104147)","-80.087671360000002","42.128635099999997","ERIE COUNTY TREASURER","140 WEST 6TH STREET","ERIE","PA","16501","8144516203","http://maps.google.com/maps?q=42.1286351,-80.08767136"
"POINT (-79.241909362318 40.880013964006)","-79.241909359999994","40.880013959999999","GEARHARTS COUNTRY MARKET","102 S. STATE ST","DAYTON","PA","16222","8142570134","http://maps.google.com/maps?q=40.88001396,-79.24190936"
"POINT (-79.146804827393 41.848046110888)","-79.146804829999994","41.848046109999999","WARREN COUNTY TREASURER","204 FOURTH AVE","WARREN","PA","16365","8147283417","http://maps.google.com/maps?q=41.84804611,-79.14680483"
"POINT (-78.271135832634 40.233654591163)","-78.271135830000006","40.23365459","SAXTON SURPLUS AND SUPPLY","10520 RAYSTOWN ROAD","SAXTON","PA","16678","8146353828","http://maps.google.com/maps?q=40.23365459,-78.27113583"
"POINT (-75.780696275964 41.626424131006)","-75.780696280000001","41.626424129999997","CROASDALE SPORTING GOODS","54 MAIN STREET","NICHOLSON","PA","18446","5709424868","http://maps.google.com/maps?q=41.62642413,-75.78069628"
"POINT (-76.052016079753 40.180397450053)","-76.052016080000001","40.180397450000001","WEAVERS STORE INC","1011 DRY TAVERN ROAD","DENVER","PA","17517","7174456791","http://maps.google.com/maps?q=40.18039745,-76.05201608"
"POINT (-77.798316000052 40.834289999838)","-77.798316","40.834290000000003","STATE COLLEGE RURAL KING SUPPLY","2999 E COLLEGE AVE","STATE COLLEGE","PA","16801","8146998802","http://maps.google.com/maps?q=40.83429,-77.798316"
"POINT (-80.137360890974 42.091493204048)","-80.137360889999997","42.091493200000002","PRESQUE ISLE GUN SHOP, LLC","2817 W 23RD ST","ERIE","PA","16506","8148354500","http://maps.google.com/maps?q=42.0914932,-80.13736089"
"POINT (-76.119965656652 40.092293959791)","-76.119965660000005","40.092293959999999","J B ZIMMERMAN AND SONS","880 E. MAIN ST","NEW HOLLAND","PA","17557","7173544955","http://maps.google.com/maps?q=40.09229396,-76.11996566"
"POINT (-76.72659299225 39.962774037133)","-76.72659299","39.962774039999999","YORK COUNTY TREASURER","28 EAST MARKET ST ROOM 126","YORK","PA","17401","7177719603","http://maps.google.com/maps?q=39.96277404,-76.72659299"
"POINT (-80.148181270149 40.517152782984)","-80.148181269999995","40.517152780000004","ISLAND FIREARMS INC","7500 GRAND AVE","PITTSBURGH","PA","15225",,"http://maps.google.com/maps?q=40.51715278,-80.14818127"
"POINT (-76.066155932431 41.786133640909)","-76.066155929999994","41.786133640000003","FLYNN'S STONE CASTLE","3626 STATE ROUTE 706","LAWTON","PA","18828","5709341197","http://maps.google.com/maps?q=41.78613364,-76.06615593"
"POINT (-75.691555242985 40.842954973029)","-75.69155524","40.842954970000001","BUCKS SPORTING GOODS INC","47 INDIAN HILL RD","LEHIGHTON","PA","18235","6103773779","http://maps.google.com/maps?q=40.84295497,-75.69155524"
"POINT (-76.844439122398 39.995619246756)","-76.844439120000004","39.995619249999997","SPANGLER HOME CENTER","4072 CARLISLE RD","DOVER","PA","17315",,"http://maps.google.com/maps?q=39.99561925,-76.84443912"
"POINT (-78.43812642222 41.022836999928)","-78.438126420000003","41.022837000000003","JIMS SPORT CENTER INC","26 N SECOND STREET","CLEARFIELD","PA","16830",,"http://maps.google.com/maps?q=41.022837,-78.43812642"
"POINT (-79.525490351371 40.709473176958)","-79.525490349999998","40.709473180000003","GOODMANâ€™S BAIT & TACKLE","1836 STATE ROUTE 66","FORD CITY","PA","16226","7247639519","http://maps.google.com/maps?q=40.70947318,-79.52549035"
"POINT (-76.030798568038 40.121542954967)","-76.030798570000002","40.121542949999998","GOODS STORE INC","1338 MAIN ST","EAST EARL","PA","17519","7173544026","http://maps.google.com/maps?q=40.12154295,-76.03079857"
"POINT (-78.557705569638 41.427742981334)","-78.557705569999996","41.427742979999998","ELK COUNTY AMMO AND ARMS","246 BRUSSELLS ST","SAINT MARYS","PA","15857","8148349318","http://maps.google.com/maps?q=41.42774298,-78.55770557"
"POINT (-80.22186969741 40.183282671042)","-80.221869699999999","40.183282669999997","WAL MART 1739","30 TRINITY POINT DRIVE STORE 1","WASHINGTON","PA","15301","7242294020","http://maps.google.com/maps?q=40.18328267,-80.2218697"
"POINT (-79.158625679165 40.552669116253)","-79.15862568","40.552669119999997","NICKS BULLSEYE FIREARMS","2356 ROUTE 119 HWY S","GRACETON","PA","15748","7244793722","http://maps.google.com/maps?q=40.55266912,-79.15862568"
"POINT (-78.983119986848 40.929085839205)","-78.983119990000006","40.929085839999999","WAL MART 2664","21920 ROUTE 119","PUNXSUTAWNEY","PA","15767","8149383500","http://maps.google.com/maps?q=40.92908584,-78.98311999"
"POINT (-79.783846615804 40.48863056318)","-79.783846620000006","40.488630559999997","R F JACKSON AND SON","3364 UNIVERSAL ROAD","PITTSBURGH","PA","15235","4127933510","http://maps.google.com/maps?q=40.48863056,-79.78384662"
"POINT (-77.817454046632 40.819034547288)","-77.817454049999995","40.819034549999998","TCO FLY SHOP STATE COLLEGE","2030 E COLLEGE AVE","STATE COLLEGE","PA","16801",,"http://maps.google.com/maps?q=40.81903455,-77.81745405"
"POINT (-79.821725503589 40.38653740904)","-79.821725499999999","40.386537410000003","WAL MART 2588","100 WAL MART DR","NORTH VERSAILLES","PA","15137","4128160301","http://maps.google.com/maps?q=40.38653741,-79.8217255"
"POINT (-77.467931345596 41.128247164203)","-77.467931350000001","41.128247160000001","UNKEL JOES WOODSHED","536 HIGH ST","LOCK HAVEN","PA","17745","5707487838","http://maps.google.com/maps?q=41.12824716,-77.46793135"
"POINT (-78.201971587944 40.429192446165)","-78.201971589999999","40.429192450000002","MILL HILL FARM SUPPLY INC","161 MILL HILL ROAD","WILLIAMSBURG","PA","16693","8148323458","http://maps.google.com/maps?q=40.42919245,-78.20197159"
"POINT (-75.471843707065 40.339474315275)","-75.471843710000002","40.339474320000001","SUNOCO OF GREEN LANE","112 GRAVEL PIKE","GREEN LANE","PA","18054",,"http://maps.google.com/maps?q=40.33947432,-75.47184371"
"POINT (-79.447925560709 41.950441870283)","-79.447925560000002","41.950441869999999","LOTTSVILLE MILLING INC","17235 ROUTE 957","BEAR LAKE","PA","16402","8144893977","http://maps.google.com/maps?q=41.95044187,-79.44792556"
"POINT (-76.787762797748 41.785712142206)","-76.787762799999996","41.785712140000001","HOOVER HARDWARE AND GIFT SHOP","816 CANTON ST","TROY","PA","16947","5702973445","http://maps.google.com/maps?q=41.78571214,-76.7877628"
"POINT (-77.012287658776 40.733134661213)","-77.012287659999998","40.733134659999997","MARTINS FAMILY HARDWARE","8687 RT 104 SUITE 2","MOUNT PLEASANT MILLS","PA","17853","5705398080","http://maps.google.com/maps?q=40.73313466,-77.01228766"
"POINT (-79.607089572992 40.003658892251)","-79.607089569999999","40.003658889999997","WAL MART 5379","1450 MORRELL AVE","CONNELLSVILLE","PA","15425","7246264470","http://maps.google.com/maps?q=40.00365889,-79.60708957"
"POINT (-79.711594141034 39.912030597003)","-79.711594140000003","39.912030600000001","MARRA S MOUNTAINEER SPOR","486 N GALLATIN AVE","UNIONTOWN","PA","15401","7244391270","http://maps.google.com/maps?q=39.9120306,-79.71159414"
"POINT (-75.438012686341 40.592122210141)","-75.438012689999994","40.592122209999999","TOMS AUTO TAG NOTARY SRVCS","729 E SUSQUEHANNA STREET","ALLENTOWN","PA","18103",,"http://maps.google.com/maps?q=40.59212221,-75.43801269"
"POINT (-79.619647863459 39.844397445143)","-79.619647860000001","39.844397450000002","S AND S BAIT AND TACKLE","2944 NATIONAL PIKE","CHALK HILL","PA","15421","7244383871","http://maps.google.com/maps?q=39.84439745,-79.61964786"
"POINT (-76.97738342168 40.801743073165)","-76.977383419999995","40.801743070000001","WEAVER'S ARCHERY LLC","5934 ROUTE 522","MIDDLEBURG","PA","17842","5708371418","http://maps.google.com/maps?q=40.80174307,-76.97738342"
"POINT (-75.210405807982 41.315785330196)","-75.210405809999997","41.315785329999997","THE LAKE STORE","1019 ROUTE 390","GREENTOWN","PA","18426",,"http://maps.google.com/maps?q=41.31578533,-75.21040581"
"POINT (-76.386173997966 40.552952000968)","-76.386173999999997","40.552951999999998","WERNER ACE LUMBER","29 S TULPCHOCKEN ST","PINE GROVE","PA","17963","5703452561","http://maps.google.com/maps?q=40.552952,-76.386174"
"POINT (-77.048653876148 41.250638799404)","-77.048652000000004","41.250621000000002","WINNER HARDWARE","1699 DEWEY AVE","WILLIAMSPORT","PA","17701","5703236736","http://maps.google.com/maps?q=41.250621,-77.048652"
"POINT (-79.136673387769 41.957286573173)","-79.136673389999999","41.957286570000001","TALL TALES SPORTING GOOD","8330 MARKET STREET ROUTE 62","RUSSELL","PA","16345","8147571400","http://maps.google.com/maps?q=41.95728657,-79.13667339"
"POINT (-79.687242000356 41.824350657059)","-79.687241999999998","41.82435066","SPARTANSBURG PHARMACY","317 MAIN ST","SPARTANSBURG","PA","16434","8146542333","http://maps.google.com/maps?q=41.82435066,-79.687242"
"POINT (-79.647595608978 39.95903946529)","-79.647595609999996","39.95903947","CONNELLSVILLE RURAL KING SUPPLY","1952 UNIVERSITY DR","CONNELLSVILLE","PA","15425","7246202810","http://maps.google.com/maps?q=39.95903947,-79.64759561"
"POINT (-76.111327500898 40.785121489096)","-76.111327500000002","40.785121490000002","TARCS BAIT AND TACKLE SHOP","151 LOCUST LAKE RD","BARNESVILLE","PA","18214",,"http://maps.google.com/maps?q=40.78512149,-76.1113275"
"POINT (-78.446989278069 40.025188432693)","-78.446989279999997","40.02518843","WAL MART 1684","72 BEDFORD SQUARE","EVERETT","PA","15537","8146233332","http://maps.google.com/maps?q=40.02518843,-78.44698928"
"POINT (-75.919326677433 40.416199181003)","-75.919326679999998","40.41619918","WAL MART 2614","5370 ALLENTOWN PIKE","TEMPLE","PA","19560","6109390601","http://maps.google.com/maps?q=40.41619918,-75.91932668"
"POINT (-75.54397954907 40.240959380809)","-75.543979550000003","40.24095938","LIMERICK HARDWARE CO","712 W RIDGE PIKE","LIMERICK","PA","19468","6104956000","http://maps.google.com/maps?q=40.24095938,-75.54397955"
"POINT (-77.953073904326 40.239233034338)","-77.953073900000007","40.239233030000001","WHITSELS NOTARY TAG SVC","9187 PRICE RD STE 1","THREE SPRINGS","PA","17264",,"http://maps.google.com/maps?q=40.23923303,-77.9530739"
"POINT (-77.897647149712 40.808268355008)","-77.897647149999997","40.80826836","WAL MART 1640","1665 N ATHERTON ST","STATE COLLEGE","PA","16803","8142378401","http://maps.google.com/maps?q=40.80826836,-77.89764715"
"POINT (-79.968680835341 42.161202814209)","-79.968680840000005","42.161202809999999","WAL MART 3281","5741 BUFFALO ROAD","HARBORCREEK","PA","16421","8148996255","http://maps.google.com/maps?q=42.16120281,-79.96868084"
"POINT (-75.645647690196 40.49640235819)","-75.645647690000004","40.496402359999998","CHRIS BAIT AND TACKLE","9611 LONGSWAMP RD","MERTZTOWN","PA","19539",,"http://maps.google.com/maps?q=40.49640236,-75.64564769"
"POINT (-77.364894870866 41.309869653257)","-77.364894870000001","41.309869650000003","MCCONNELLS COUNTRY STORE","10853 HWY 44 N","WATERVILLE","PA","17776","5707538241","http://maps.google.com/maps?q=41.30986965,-77.36489487"
"POINT (-80.130124250793 39.888860727338)","-80.130124249999994","39.888860729999998","WAL MART 5446","405 MURTHA DRIVE","WAYNESBURG","PA","15370","7246273496","http://maps.google.com/maps?q=39.88886073,-80.13012425"
"POINT (-78.385103789275 40.429668257723)","-78.385103790000002","40.42966826","CAMPBELLS SPORTING GOOD","209 JENNIE ST","HOLLIDAYSBURG","PA","16648","8146958552","http://maps.google.com/maps?q=40.42966826,-78.38510379"
"POINT (-80.239053680074 41.226601207871)","-80.239053679999998","41.226601209999998","MERCER COUNTY TREASURER","104 COURTHOUSE","MERCER","PA","16137","7246624440","http://maps.google.com/maps?q=41.22660121,-80.23905368"
"POINT (-80.371509358724 40.131942766796)","-80.371509360000005","40.131942770000002","A R H SPORT SHOP","4174 RT 40","CLAYSVILLE","PA","15323","7249483571","http://maps.google.com/maps?q=40.13194277,-80.37150936"
"POINT (-76.059419407725 39.811716987022)","-76.059419410000004","39.811716990000001","JIM NEARYS BAIT AND TACKLE","212 SPRUCE GROVE ROAD","KIRKWOOD","PA","17536",,"http://maps.google.com/maps?q=39.81171699,-76.05941941"
"POINT (-79.013595981446 40.668116645581)","-79.013595980000005","40.668116650000002","RC INDOOR ARCHERY RANGE","675 SHERMAN ST","CLYMER","PA","15728","7249058053","http://maps.google.com/maps?q=40.66811665,-79.01359598"
"POINT (-78.72010249556 39.819946842722)","-78.720102499999996","39.81994684","GOLDEN RULE HOME CENTER","135 WASHINGTON ST","HYNDMAN","PA","15545","8148423226","http://maps.google.com/maps?q=39.81994684,-78.7201025"
"POINT (-78.402306297896 41.03193580977)","-78.402306300000006","41.03193581","WAL MART 2129","100 SUPERCENTER DR","CLEARFIELD","PA","16830","8147658089","http://maps.google.com/maps?q=41.03193581,-78.4023063"
"POINT (-78.729859499407 41.421854097238)","-78.729859500000003","41.421854099999997","ELK COUNTY TREASURER","250 MAIN ST COURTHOUSE","RIDGWAY","PA","15853","8147765321","http://maps.google.com/maps?q=41.4218541,-78.7298595"
"POINT (-76.229582164175 41.063174160129)","-76.229582160000007","41.063174160000003","C M LAUBACK & SONS INC","547 E 8TH ST","BERWICK","PA","18603","5707523571","http://maps.google.com/maps?q=41.06317416,-76.22958216"
"POINT (-75.977410690878 39.796266544039)","-75.977410689999999","39.796266539999998","WAL MART 5795","800 COMMONS DRIVE","OXFORD","PA","19363","4847027206","http://maps.google.com/maps?q=39.79626654,-75.97741069"
"POINT (-77.051983461986 41.27771855903)","-77.051983460000002","41.277718559999997","TROXELLS GUN SHOP","2715 LYCOMING CREEK RD","WILLIAMSPORT","PA","17701","5704941562","http://maps.google.com/maps?q=41.27771856,-77.05198346"
"POINT (-76.242887234019 40.032653016883)","-76.242887229999994","40.032653019999998","WAL MART 2334","2034 LINCOLN HWY EAST","LANCASTER","PA","17602","7173901738","http://maps.google.com/maps?q=40.03265302,-76.24288723"
"POINT (-76.855641520029 40.295873829027)","-76.855641520000006","40.295873829999998","PGC-HARRISBURG HDQ","2001 ELMERTON AVE","HARRISBURG","PA","17111","7177837507","http://maps.google.com/maps?q=40.29587383,-76.85564152"
"POINT (-77.594260688281 40.591747010705)","-77.594260689999999","40.591747009999999","DAN PIERCE OUTDOOR SHOP","842 W 4TH ST","LEWISTOWN","PA","17044","7172420061","http://maps.google.com/maps?q=40.59174701,-77.59426069"
"POINT (-78.494478612257 40.017855690189)","-78.494478610000002","40.017855689999998","BEDFORD TRUE VALUE HARDWARE","648 E PENN ST","BEDFORD","PA","15522","8146233900","http://maps.google.com/maps?q=40.01785569,-78.49447861"
"POINT (-76.088386179645 40.153320151667)","-76.088386180000001","40.153320149999999","EBYS GENERAL STORE","1009 MARTINDALE RD","MARTINDALE","PA","17549","7174454212","http://maps.google.com/maps?q=40.15332015,-76.08838618"
"POINT (-80.512796001233 41.23431500241)","-80.512795999999994","41.234315000000002","WAREHOUSE SALES","200 W SILVER ST","SHARON","PA","16146","7243474412","http://maps.google.com/maps?q=41.234315,-80.512796"
"POINT (-77.561824283171 41.751923101967)","-77.561824279999996","41.751923099999999","SMITTYS SPORTS","1820 ROUTE 6","GAINES","PA","16921","8144336101","http://maps.google.com/maps?q=41.7519231,-77.56182428"
"POINT (-76.106699358994 40.038470593102)","-76.106699359999993","40.038470590000003","W L ZIMMERMANS AND SONS","3601 OLD PHILADELPHIA PIKE","INTERCOURSE","PA","17534","7177688291","http://maps.google.com/maps?q=40.03847059,-76.10669936"
"POINT (-77.235016192865 39.827062020784)","-77.235016189999996","39.82706202","REDDING HARDWARE","279 S FRANKLIN ST","GETTYSBURG","PA","17325","7173345211","http://maps.google.com/maps?q=39.82706202,-77.23501619"
"POINT (-76.137970582705 41.621017739743)","-76.137970580000001","41.621017739999999","BURKES GUN SHOP","138 TRAIL RD","MESHOPPEN","PA","18630","5708691119","http://maps.google.com/maps?q=41.62101774,-76.13797058"
"POINT (-79.87186608688 41.35670943801)","-79.871866089999997","41.356709440000003","MAURERS TRADING POST","1696 PITTSBURGH RD","FRANKLIN","PA","16323","8144379570","http://maps.google.com/maps?q=41.35670944,-79.87186609"
"POINT (-79.394881778727 41.189992897279)","-79.394881780000006","41.1899929","WAL MART 2540","63 PERKINS ROAD","CLARION","PA","16214","8142260809","http://maps.google.com/maps?q=41.1899929,-79.39488178"
"POINT (-78.438053164609 41.022160959272)","-78.438053159999996","41.022160960000001","CLEARFIELD COUNTY TREASURER","1 NORTH 2ND ST","CLEARFIELD","PA","16830","8147652641","http://maps.google.com/maps?q=41.02216096,-78.43805316"
"POINT (-76.943355339329 41.981424840317)","-76.943355339999997","41.981424840000003","DRAPER SUPPLY INC","5277 MAIN ST","MILLERTON","PA","16936","5705376566","http://maps.google.com/maps?q=41.98142484,-76.94335534"
"POINT (-75.296835360717 40.749673245271)","-75.296835360000003","40.749673250000001","MIKES BAIT AND SPORT SHOP","328 E LAWN RD","NAZARETH","PA","18064","6107592905","http://maps.google.com/maps?q=40.74967325,-75.29683536"
"POINT (-80.093158890363 40.384476754242)","-80.093158889999998","40.384476749999997","WAL MART 5040","2200 WASHINGTON PIKE","CARNEGIE","PA","15106","4124291285","http://maps.google.com/maps?q=40.38447675,-80.09315889"
"POINT (-76.973549728254 39.804684235322)","-76.973549730000002","39.80468424","B AND B LURES","232 FACTORY ST","HANOVER","PA","17331",,"http://maps.google.com/maps?q=39.80468424,-76.97354973"
"POINT (-76.628034910266 41.864274422773)","-76.628034909999997","41.864274420000001","UP IN ARMS SHOOTING SUPPLIES","465 MAIN ST","EAST SMITHFIELD","PA","18817","5705963463","http://maps.google.com/maps?q=41.86427442,-76.62803491"
"POINT (-76.391371923288 40.63129861598)","-76.391371919999997","40.631298620000003","PRIBILLA'S HOME CENTER","200 BRIDGE ST","TREMONT","PA","17981","5706953042","http://maps.google.com/maps?q=40.63129862,-76.39137192"
"POINT (-76.010961608812 41.012668380556)","-76.010961609999995","41.012668380000001","DAVES GUN SHOP","17 N BEISELS RD","DRUMS","PA","18222","5707885518","http://maps.google.com/maps?q=41.01266838,-76.01096161"
"POINT (-80.228475148933 40.583379774291)","-80.228475149999994","40.583379770000001","AMBRIDGE DO IT BEST HOME CENTER","500 OHIO RIVER BLVD.","AMBRIDGE","PA","15003","7242669595","http://maps.google.com/maps?q=40.58337977,-80.22847515"
"POINT (-75.129990508413 40.311501336125)","-75.129990509999999","40.31150134","BUCKS COUNTY TREASURER","55 E COURT ST","DOYLESTOWN","PA","18901","2153486244","http://maps.google.com/maps?q=40.31150134,-75.12999051"
"POINT (-77.063743463677 39.925936531176)","-77.063743459999998","39.925936530000001","NACE SPORTS","3381 HUNTERSTOWN HAMPTON","NEW OXFORD","PA","17350","7176243730","http://maps.google.com/maps?q=39.92593653,-77.06374346"
"POINT (-80.449946869871 41.249235841135)","-80.449946870000005","41.249235839999997","WAL MART 1568","1275 NORTH HERMITAGE ROAD","HERMITAGE","PA","16148","7243465940","http://maps.google.com/maps?q=41.24923584,-80.44994687"
"POINT (-75.976142644295 40.342971882093)","-75.976142640000006","40.34297188","WAL MART 1670","1135 BERKSHIRE BLVD","READING","PA","19610","6103765848","http://maps.google.com/maps?q=40.34297188,-75.97614264"
"POINT (-75.178340455593 40.879480792696)","-75.178340460000001","40.879480790000002","JEWELL'S","251 E CENTRAL AVE","BANGOR","PA","18013","6105889072","http://maps.google.com/maps?q=40.87948079,-75.17834046"
"POINT (-75.482941195844 40.758474410765)","-75.482941199999999","40.758474409999998","KORENS BAIT AND TACKLE","3430 CANNONBALL DR","NORTHAMPTON","PA","18067",,"http://maps.google.com/maps?q=40.75847441,-75.4829412"
"POINT (-76.020014583208 40.985582752819)","-76.020014579999994","40.985582749999999","WAL MART 2255","81 AIRPORT RD","HAZLETON","PA","18201","5704548322","http://maps.google.com/maps?q=40.98558275,-76.02001458"
"POINT (-75.924390028837 40.336218371676)","-75.924390029999998","40.336218369999997","BERKS COUNTY TREASURER","633 COURT ST 2ND FL","READING","PA","19601","6104786640","http://maps.google.com/maps?q=40.33621837,-75.92439003"
"POINT (-78.739618838875 41.18101117121)","-78.739618840000006","41.181011169999998","TREASURE LAKE PROPERTY","13 TREASURE LAKE","DU BOIS","PA","15801",,"http://maps.google.com/maps?q=41.18101117,-78.73961884"
"POINT (-75.419250456249 40.917271491243)","-75.419250460000001","40.917271489999997","DUNKELBERGER'S SPORTS OUTFITTER","1471 US-209","BRODHEADSVILLE","PA","18322","5709923865","http://maps.google.com/maps?q=40.91727149,-75.41925046"
"POINT (-76.172446844433 40.19461510204)","-76.172446840000006","40.1946151","MUSSERS OUTDOORS","438 N READING ROAD","EPHRATA","PA","17522","7173146110","http://maps.google.com/maps?q=40.1946151,-76.17244684"
"POINT (-79.136200407703 39.918836580668)","-79.136200410000001","39.918836579999997","HOOVERS OUTFITTING","2099 GARRETT RD","ROCKWOOD","PA","15557",,"http://maps.google.com/maps?q=39.91883658,-79.13620041"
"POINT (-77.724952027204 39.79665156111)","-77.724952029999997","39.796651560000001","LUMBER DIRECT","10 E WALTER AVE","GREENCASTLE","PA","17225","7175979928","http://maps.google.com/maps?q=39.79665156,-77.72495203"
"POINT (-78.438218567809 41.80997217718)","-78.438218570000004","41.809972180000003","COSTAS HARDWARE","323 EAST WATER STREET","SMETHPORT","PA","16749","8148875542","http://maps.google.com/maps?q=41.80997218,-78.43821857"
"POINT (-77.738597527998 40.132264229776)","-77.738597530000007","40.132264229999997","SCHOENS ARCHERY","16223 AMBERSON RD","SPRING RUN","PA","17262","7173497386","http://maps.google.com/maps?q=40.13226423,-77.73859753"
"POINT (-76.379277999839 41.260092000608)","-76.379277999999999","41.260092","NATURES OUTDOORS & TAXIDERMY","357A CAMP LAVIGNE RD","BENTON","PA","17814","5704416387","http://maps.google.com/maps?q=41.260092,-76.379278"
"POINT (-76.28213110559 40.384174742759)","-76.282131109999995","40.384174739999999","DUTCH COUNTRY HARDWARE INC","711 E LINCOLN AVENUE","MYERSTOWN","PA","17067","7178668882","http://maps.google.com/maps?q=40.38417474,-76.28213111"
"POINT (-75.492245670673 40.644451704018)","-75.492245670000003","40.644451699999998","WAL MART 2145","2601 MAC ARTHUR RD","WHITEHALL","PA","18052","6102669645","http://maps.google.com/maps?q=40.6444517,-75.49224567"
"POINT (-79.53611444686 41.234806663427)","-79.536114449999999","41.234806659999997","SPORTSMEN OUTFITTERS INC","526 E STATE ST","KNOX","PA","16232","8147975253","http://maps.google.com/maps?q=41.23480666,-79.53611445"
"POINT (-77.769206337612 40.88672840297)","-77.769206339999997","40.886728400000003","PFBC CRO","595 E ROLLING RIDGE DR","BELLEFONTE","PA","16823",,"http://maps.google.com/maps?q=40.8867284,-77.76920634"
"POINT (-80.456922164983 41.172790388956)","-80.456922160000005","41.172790390000003","SHOOTERS SUPPLIES","9 SHORT ST","WEST MIDDLESEX","PA","16159","7245288000","http://maps.google.com/maps?q=41.17279039,-80.45692216"
"POINT (-75.254350590384 41.57453633284)","-75.254350590000001","41.574536330000001","WAYNE COUNTY TREASURER","925 COURT ST","HONESDALE","PA","18431","5702535970","http://maps.google.com/maps?q=41.57453633,-75.25435059"
"POINT (-77.782967879181 40.906351679996)","-77.782967880000001","40.90635168","CENTRE COUNTY TREASURER","420 HOLMES ST","BELLEFONTE","PA","16823","8143556810","http://maps.google.com/maps?q=40.90635168,-77.78296788"
"POINT (-79.724294580911 41.622045804321)","-79.724294580000006","41.622045800000002","WAGNERS GUN TECH","41445 STATE HIGHWAY 27","TITUSVILLE","PA","16354","8147750688","http://maps.google.com/maps?q=41.6220458,-79.72429458"
"POINT (-80.32734136833 41.130696617316)","-80.327341369999999","41.130696620000002","MILLERS HARDWARE & RENTAL","2023 MERCER-NEW WILMINGTON RD","NEW WILMINGTON","PA","16142","7249469933","http://maps.google.com/maps?q=41.13069662,-80.32734137"
"POINT (-75.705742101807 40.680083261967)","-75.705742099999995","40.680083260000004","PLAZA HARDWARE","6344 RT 309","NEW TRIPOLI","PA","18066","6102982311","http://maps.google.com/maps?q=40.68008326,-75.7057421"
"POINT (-78.750868210311 39.752055670086)","-78.750868209999993","39.752055669999997","POOR BOBS BAIT & TACKLE","1319 HYNDMAN RD","HYNDMAN","PA","15545","8148420106","http://maps.google.com/maps?q=39.75205567,-78.75086821"
"POINT (-80.302802770637 40.680764297275)","-80.30280277","40.6807643","WAL MART 1883","3942 BRODHEAD RD","MONACA","PA","15061","7247732929","http://maps.google.com/maps?q=40.6807643,-80.30280277"
"POINT (-78.021107409025 41.775224170334)","-78.021107409999999","41.775224170000001","POTTER COUNTY TREASURER","1 N MAIN ST SUITE 202","COUDERSPORT","PA","16915","8142749775","http://maps.google.com/maps?q=41.77522417,-78.02110741"
"POINT (-75.19270275539 40.986607453215)","-75.192702760000003","40.986607450000001","MONROE COUNTY TREASURER","1 QUAKER PLAZA SUITE 103","STROUDSBURG","PA","18360","5705173182","http://maps.google.com/maps?q=40.98660745,-75.19270276"
"POINT (-76.193015544341 40.727939742261)","-76.193015540000005","40.727939739999997","WAL MART 2535","500 TERRY RICH BLVD","SAINT CLAIR","PA","17970","5704291959","http://maps.google.com/maps?q=40.72793974,-76.19301554"
"POINT (-74.964753259581 40.082421203736)","-74.964753259999995","40.082421199999999","WAL MART 2650","4301 BYBERRY RD","PHILADELPHIA","PA","19154","2152813159","http://maps.google.com/maps?q=40.0824212,-74.96475326"
"POINT (-78.401464783087 40.482662483184)","-78.401464779999998","40.482662480000002","UNKEL JOES WOODSHED","3415 PLEASANT VALLEY BLVD","ALTOONA","PA","16602","8149424900","http://maps.google.com/maps?q=40.48266248,-78.40146478"
"POINT (-79.033770700931 41.702196732988)","-79.033770700000005","41.702196729999997","PETERSON HARDWARE","102 S MAIN ST","SHEFFIELD","PA","16347","8149683461","http://maps.google.com/maps?q=41.70219673,-79.0337707"
"POINT (-80.238915000856 42.041410000852)","-80.238915000000006","42.041409999999999","FISHUSA INC","6960 W RIDGE RD","FAIRVIEW","PA","16415",,"http://maps.google.com/maps?q=42.04141,-80.238915"
"POINT (-76.226085200641 39.870147287069)","-76.2260852","39.870147289999998","MUSSERS INC","35 FRIENDLY DR","QUARRYVILLE","PA","17566","7172844147","http://maps.google.com/maps?q=39.87014729,-76.2260852"
"POINT (-75.369874001498 41.8600810016)","-75.369873999999996","41.860081000000001","FRONT LINE ARMORY","1646 CROSSTOWN HWY","LAKEWOOD","PA","18439","5707982701","http://maps.google.com/maps?q=41.860081,-75.369874"
"POINT (-77.760419064215 40.950850216068)","-77.760419060000004","40.95085022","VALLEY ACE HARDWARE","224 OLD 220 RD","MILESBURG","PA","16853","8143555451","http://maps.google.com/maps?q=40.95085022,-77.76041906"
"POINT (-77.576771650323 40.597438714992)","-77.576771649999998","40.597438709999999","MIFFLIN COUNTY TREASURER","20 N WAYNE ST","LEWISTOWN","PA","17044","7172488439","http://maps.google.com/maps?q=40.59743871,-77.57677165"
"POINT (-80.02521980938 40.337273681086)","-80.025219809999996","40.337273680000003","WAL MART 5381","5055 LIBRARY ROAD","BETHEL PARK","PA","15102","4128310459","http://maps.google.com/maps?q=40.33727368,-80.02521981"
"POINT (-79.996883995252 40.439112767697)","-79.996883999999994","40.439112770000001","ALLEGHENY COUNTY TREASURER","436 GRANT ST RM 108 COURTHOUSE","PITTSBURGH","PA","15219","4123504120","http://maps.google.com/maps?q=40.43911277,-79.996884"
"POINT (-76.769908034078 40.262603763659)","-76.769908029999996","40.262603759999998","WAL MART 1591","6535 GRAYSON RD","HARRISBURG","PA","17111","7175618402","http://maps.google.com/maps?q=40.26260376,-76.76990803"
"POINT (-76.508319599811 40.788641757799)","-76.508319599999993","40.788641759999997","WAL MART 2481","3300 ROUTE 61 SOUTH","COAL TOWNSHIP","PA","17866","5706486700","http://maps.google.com/maps?q=40.78864176,-76.5083196"
"POINT (-78.88937884659 41.097462034907)","-78.88937885","41.097462030000003","REYNOLDSVILLE HARDWARE","349 E MAIN STREET","REYNOLDSVILLE","PA","15851","8146538642","http://maps.google.com/maps?q=41.09746203,-78.88937885"
"POINT (-76.30566541105 40.302291059596)","-76.305665410000003","40.302291060000002","GOODS STORE","215 RT 501","SCHAEFFERSTOWN","PA","17088","7179492663","http://maps.google.com/maps?q=40.30229106,-76.30566541"
"POINT (-75.192533346602 40.985756537299)","-75.192533350000005","40.985756539999997","DUNKELBERGER'S SPORTS OUTFITTER","585 MAIN ST","STROUDSBURG","PA","18360","5704217950","http://maps.google.com/maps?q=40.98575654,-75.19253335"
"POINT (-78.785096808312 40.45226563604)","-78.785096809999999","40.45226564","EBENSBURG FISH AND HUNT","3657 ADMIRAL PEARY HWY","EBENSBURG","PA","15931","8144725980","http://maps.google.com/maps?q=40.45226564,-78.78509681"
"POINT (-75.142774998262 40.36411908918)","-75.142775","40.364119090000003","DAVES SPORT CENTER INC","1127 N EASTON RD","DOYLESTOWN","PA","18901",,"http://maps.google.com/maps?q=40.36411909,-75.142775"
"POINT (-76.552569853427 40.144423326994)","-76.552569849999998","40.144423330000002","KINSEYS OUTDOORS","1660 STEEL WAY DRIVE","MOUNT JOY","PA","17552","7176535524","http://maps.google.com/maps?q=40.14442333,-76.55256985"
"POINT (-76.198007037709 40.687449141936)","-76.198007039999993","40.687449139999998","SCHUYLKILL COUNTY TREASURER","401 NORTH SECOND STREET","POTTSVILLE","PA","17901","5706281438","http://maps.google.com/maps?q=40.68744914,-76.19800704"
"POINT (-75.598365569496 40.769129461298)","-75.598365569999999","40.769129460000002","ARCHERY ADDICTIONS LTD","1089 RIVERVIEW DR","WALNUTPORT","PA","18067","4846234900","http://maps.google.com/maps?q=40.76912946,-75.59836557"
"POINT (-78.558046679714 41.390680437307)","-78.558046680000004","41.390680439999997","WAL MART 1792","1102 MILLION DOLLAR HWY","SAINT MARYS","PA","15857","8147811344","http://maps.google.com/maps?q=41.39068044,-78.55804668"
"POINT (-77.501513243728 41.472423710159)","-77.501513239999994","41.472423710000001","WOLFES GENERAL STORE","14167 ROUTE 414","SLATE RUN","PA","17769","5707538551","http://maps.google.com/maps?q=41.47242371,-77.50151324"
"POINT (-75.487714398598 41.77905440378)","-75.487714400000002","41.7790544","LONG JOHNS BAIT BARN","148 BENNETT RD","Union Dale","PA","18470",,"http://maps.google.com/maps?q=41.7790544,-75.4877144"
"POINT (-75.686817599143 41.395622240229)","-75.686817599999998","41.395622240000002","WAL MART 4276","1325 MAIN STREET","TAYLOR","PA","18517","5703093510","http://maps.google.com/maps?q=41.39562224,-75.6868176"
"POINT (-76.42376278022 40.333404964104)","-76.423762780000004","40.333404960000003","LEBANON COUNTY TREASURER","400 S 8TH ST  ROOM 103","LEBANON","PA","17042","7172742801","http://maps.google.com/maps?q=40.33340496,-76.42376278"
"POINT (-75.667783305284 40.840046224673)","-75.667783299999996","40.840046229999999","MARZEN FEED STORE","75 HARRITY RD","LEHIGHTON","PA","18235",,"http://maps.google.com/maps?q=40.84004623,-75.6677833"
"POINT (-74.80010394912 41.324881814138)","-74.800103949999993","41.324881810000001","PIKE COUNTY TREASURER","506 BROAD ST","MILFORD","PA","18337","5702963442","http://maps.google.com/maps?q=41.32488181,-74.80010395"
"POINT (-74.367010906236 40.455396601321)","-74.367010910000005","40.4553966","SAYREVILLE SPORTSMAN","52 WASHINGTON RD","SAYREVILLE","NJ","08872","9082382060","http://maps.google.com/maps?q=40.4553966,-74.36701091"
"POINT (-76.929538564845 40.225519721935)","-76.929538559999997","40.225519720000001","WAL MART 5888","3400 HARTZDALE DR","CAMP HILL","PA","17011","7174093102","http://maps.google.com/maps?q=40.22551972,-76.92953856"
"POINT (-76.456721720957 41.00310728107)","-76.456721720000004","41.003107280000002","COLUMBIA COUNTY TREASURE","11 W MAIN ST","BLOOMSBURG","PA","17815","5703895626","http://maps.google.com/maps?q=41.00310728,-76.45672172"
"POINT (-78.526131357656 40.71817107158)","-78.526131359999994","40.718171069999997","PENNYWRENS","2149 BEAVER VALLEY RD","FLINTON","PA","16640","8146874438","http://maps.google.com/maps?q=40.71817107,-78.52613136"
"POINT (-76.132370301968 40.228471725972)","-76.132370300000005","40.228471730000003","DENVER SUPPLY CO INC","25 MAIN ST","DENVER","PA","17517",,"http://maps.google.com/maps?q=40.22847173,-76.1323703"
"POINT (-79.579921039625 41.591774262002)","-79.579921040000002","41.591774260000001","ANDREWS HILLTOP HARDWARE","123 E STATE ST","PLEASANTVILLE","PA","16341","8147587918","http://maps.google.com/maps?q=41.59177426,-79.57992104"
"POINT (-76.683407050904 39.911168129002)","-76.68340705","39.91116813","ARTISTIC EDGES","385 LEADER HEIGHTS ROAD","YORK","PA","17402","7177411750","http://maps.google.com/maps?q=39.91116813,-76.68340705"
"POINT (-78.319941946113 40.014183394841)","-78.31994195","40.014183389999999","JUNIATA TRADING CO","13921 LINCOLN HIGHWAY","EVERETT","PA","15537","8146966982","http://maps.google.com/maps?q=40.01418339,-78.31994195"
"POINT (-78.452703417574 40.298847456129)","-78.452703420000006","40.298847459999998","NELSONS TRUE VALUE HARDWARE","13198 DUNNINGS HIGHWAY","CLAYSBURG","PA","16625","8142392319","http://maps.google.com/maps?q=40.29884746,-78.45270342"
"POINT (-79.865196131828 40.831667538281)","-79.865196130000001","40.831667539999998","SPORTSMANS SUPPLY COMPANY","245 FREEPORT ROAD","BUTLER","PA","16002","7242874294","http://maps.google.com/maps?q=40.83166754,-79.86519613"
"POINT (-77.231146726728 39.829299370787)","-77.231146730000006","39.829299370000001","ADAMS COUNTY TREASURER","117 BALTIMORE STREET","GETTYSBURG","PA","17325","7173379833","http://maps.google.com/maps?q=39.82929937,-77.23114673"
"POINT (-75.571156982047 41.105830090138)","-75.571156979999998","41.105830089999998","POCONO BOATHOUSE INC","602 RT 940","POCONO LAKE","PA","18347","5706464107","http://maps.google.com/maps?q=41.10583009,-75.57115698"
"POINT (-79.705940256027 40.478832561137)","-79.705940260000006","40.478832560000001","ULTIMATE OUTDOORS LLC","2780 GOLDEN MILE HWY RTE 286","PITTSBURGH","PA","15239","7247332121","http://maps.google.com/maps?q=40.47883256,-79.70594026"
"POINT (-79.4363607782 40.12813435929)","-79.436360780000001","40.128134359999997","REDS BAIT SHOP","2907 STATE ROUTE 31","ACME","PA","15610",,"http://maps.google.com/maps?q=40.12813436,-79.43636078"
"POINT (-79.339027964128 41.877623544935)","-79.339027959999996","41.877623550000003","CONNIE S NOTARY SERVICE","2070 MATTHEWS RUN RD","YOUNGSVILLE","PA","16371",,"http://maps.google.com/maps?q=41.87762355,-79.33902796"
"POINT (-77.521711130765 40.050358374429)","-77.52171113","40.050358369999998","PAGUE AND FEGAN HOME & HARDWARE","35 W KING ST","SHIPPENSBURG","PA","17257","7175326511","http://maps.google.com/maps?q=40.05035837,-77.52171113"
"POINT (-75.398796654459 40.084064065888)","-75.398796649999994","40.084064069999997","WAL MART 4687","275 NORTH GULPH ROAD","KING OF PRUSSIA","PA","19406","6107680530","http://maps.google.com/maps?q=40.08406407,-75.39879665"
"POINT (-79.385170254785 40.316858778269)","-79.385170250000002","40.316858779999997","ARMY AND NAVY STORE","800 LIGONIER ST","LATROBE","PA","15650","7245373861","http://maps.google.com/maps?q=40.31685878,-79.38517025"
"POINT (-75.491360417791 40.672818093131)","-75.491360420000007","40.67281809","COPLAY NEWS AGENCY","2 SOUTH SECOND STREET","COPLAY","PA","18037","6102625987","http://maps.google.com/maps?q=40.67281809,-75.49136042"
"POINT (-79.668567633584 41.752581120312)","-79.668567629999998","41.752581120000002","BUELLS CORNER STORE","44467 BUELLS CORNERS RD","SPARTANSBURG","PA","16434","8146547716","http://maps.google.com/maps?q=41.75258112,-79.66856763"
"POINT (-77.478730334088 41.908300433066)","-77.478730330000005","41.908300429999997","BARBERS FIREARMS","7070 ROUTE 249","WESTFIELD","PA","16950","8143672900","http://maps.google.com/maps?q=41.90830043,-77.47873033"
"POINT (-75.700177678222 41.778405693145)","-75.700177679999996","41.77840569","REELFIELD SPORTS","4990 CREEK RD","HARFORD","PA","18823","5708774331","http://maps.google.com/maps?q=41.77840569,-75.70017768"
"POINT (-78.346050003015 40.321666606888)","-78.346050000000005","40.321666610000001","LONGS OUTPOST INC","3936 COVE MOUNTAIN ROAD","MARTINSBURG","PA","16662","8147934930","http://maps.google.com/maps?q=40.32166661,-78.34605"
"POINT (-79.078544935564 41.160253557075)","-79.07854494","41.160253560000001","JEFFERSON COUNTY TREASURER","155 MAIN ST","BROOKVILLE","PA","15825","8148491609","http://maps.google.com/maps?q=41.16025356,-79.07854494"
"POINT (-78.091212150292 41.630861142134)","-78.091212150000004","41.63086114","PERRYS SPORT SHOP","19 MAIN ST","AUSTIN","PA","16720","8146478856","http://maps.google.com/maps?q=41.63086114,-78.09121215"
"POINT (-76.54116308278 41.975813175398)","-76.541163080000004","41.975813180000003","WAL MART 2208","1887 ELMIRA ST","SAYRE","PA","18840","5708889791","http://maps.google.com/maps?q=41.97581318,-76.54116308"
"POINT (-79.149721731681 39.919858728865)","-79.149721729999996","39.919858730000001","S AND S SPORT SHOP","1010 E MAIN ST","ROCKWOOD","PA","15557","8149262465","http://maps.google.com/maps?q=39.91985873,-79.14972173"
"POINT (-75.845469348932 40.661056384826)","-75.845469350000002","40.661056389999999","WANAMAKERS GENERAL STORE","8888 KINGS HWY","KEMPTON","PA","19529",,"http://maps.google.com/maps?q=40.66105639,-75.84546935"
"POINT (-76.390305762285 40.347252358113)","-76.390305760000004","40.347252359999999","WAL MART 2023","1355 E LEHMAN STREET","LEBANON","PA","17046","7172281221","http://maps.google.com/maps?q=40.34725236,-76.39030576"
"POINT (-76.889036437429 40.086684076125)","-76.889036439999998","40.086684079999998","HAWGHEAD MARINE AND TACKLE","2215 ROSSTOWN RD","WELLSVILLE","PA","17365",,"http://maps.google.com/maps?q=40.08668408,-76.88903644"
"POINT (-75.714973228294 41.733438352306)","-75.714973229999998","41.73343835","ACRE LAKE STORE","10105 STATE ROUTE 106","KINGSLEY","PA","18826",,"http://maps.google.com/maps?q=41.73343835,-75.71497323"
"POINT (-79.070506642417 40.022543813212)","-79.070506640000005","40.022543810000002","PFBC SOUTHWEST REGION","236 LAKE ROAD","SOMERSET","PA","15501",,"http://maps.google.com/maps?q=40.02254381,-79.07050664"
"POINT (-75.972379534196 40.957231045671)","-75.972379529999998","40.957231049999997","BOBS SPORTING GOODS","133 N WYOMING ST","HAZLETON","PA","18201","5704551421","http://maps.google.com/maps?q=40.95723105,-75.97237953"
"POINT (-80.223431992555 40.516239999098)","-80.223431989999995","40.516240000000003","WAL MART 4644","7500 UNIVERSITY BLVD","MOON","PA","15108","4128930143","http://maps.google.com/maps?q=40.51624,-80.22343199"
"POINT (-77.234984213739 40.587940936087)","-77.234984209999993","40.587940940000003","W E SCHLEGEL INC HARDWARE","24015 RT 333","THOMPSONTOWN","PA","17094","7175355197","http://maps.google.com/maps?q=40.58794094,-77.23498421"
"POINT (-75.134552299851 40.187867521182)","-75.134552299999996","40.187867519999998","CLAYTONS RANGE","660 EASTON RD","HORSHAM","PA","19044","2156726060","http://maps.google.com/maps?q=40.18786752,-75.1345523"
"POINT (-80.014603451979 39.944732048327)","-80.014603449999996","39.944732049999999","OZIES SPORT SALE","1020 NORTH RT 88","RICES LANDING","PA","15357","7245925009","http://maps.google.com/maps?q=39.94473205,-80.01460345"
"POINT (-77.397076584729 40.570666321719)","-77.397076580000004","40.570666320000001","JUNIATA COUNTY TREASURER","26 NORTH MAIN ST","MIFFLINTOWN","PA","17059","7174367742","http://maps.google.com/maps?q=40.57066632,-77.39707658"
"POINT (-76.524241356975 40.02014683697)","-76.524241360000005","40.020146840000002","JIM HAKES AUTO & SPORTING GOODS","100 WILLOW STREET","WRIGHTSVILLE","PA","17368","7172521072","http://maps.google.com/maps?q=40.02014684,-76.52424136"
"POINT (-75.024075920446 40.085154761323)","-75.024075920000001","40.085154760000002","WAL MART 5130","9745 ROOSEVELT BLVD A","PHILADELPHIA","PA","19114","2156980350","http://maps.google.com/maps?q=40.08515476,-75.02407592"
"POINT (-75.992587874029 41.342374100131)","-75.992587869999994","41.342374100000001","PGC-NORTHEAST REGIONAL HDQ","ROUTE 415 AND ROUTE 118","DALLAS","PA","18612","5706751143","http://maps.google.com/maps?q=41.3423741,-75.99258787"
"POINT (-77.302767973315 41.74695320188)","-77.302767970000005","41.7469532","TIOGA COUNTY TREASURER","118 MAIN STREET","WELLSBORO","PA","16901","5707249213","http://maps.google.com/maps?q=41.7469532,-77.30276797"
"POINT (-75.372120877569 41.125525453661)","-75.372120879999997","41.125525449999998","WAL MART 2365","3271 ROUTE 940","MOUNT POCONO","PA","18344","5708954700","http://maps.google.com/maps?q=41.12552545,-75.37212088"
"POINT (-76.66977568061 40.781557550753)","-76.669775680000001","40.781557550000002","BAIT BARRELS AND BOWS","229 W SHAMOKIN ST","TREVORTON","PA","17881","5707978615","http://maps.google.com/maps?q=40.78155755,-76.66977568"
"POINT (-75.226163403417 41.556783890525)","-75.226163400000004","41.556783889999998","WAL MART 2480","723A OLD WILLOW AVE","HONESDALE","PA","18431","5702519543","http://maps.google.com/maps?q=41.55678389,-75.2261634"
"POINT (-80.203114749061 41.625972803326)","-80.203114749999997","41.6259728","PFBC NORTHWEST REGION","11528 STATE HWY 98","MEADVILLE","PA","16335",,"http://maps.google.com/maps?q=41.6259728,-80.20311475"
"POINT (-76.306283939751 41.843914889688)","-76.30628394","41.843914890000001","JERRYS GUN SHOP","47 RIDGE ROAD","ROME","PA","18837","5702472054","http://maps.google.com/maps?q=41.84391489,-76.30628394"
"POINT (-75.538945907648 39.85259744185)","-75.538945909999995","39.852597439999997","TARGET MASTER","255 WILMINGTON W CHESTER PK","CHADDS FORD","PA","19317","6104595400","http://maps.google.com/maps?q=39.85259744,-75.53894591"
"POINT (-77.029148000901 40.923540002036)","-77.029148000000006","40.923540000000003","MIFFLINBURG VARIETY STORE LLC","307 E CHESTNUT ST","MIFFLINBURG","PA","17844","5709660225","http://maps.google.com/maps?q=40.92354,-77.029148"
"POINT (-78.444602999636 41.809498514136)","-78.444603000000001","41.809498509999997","MCKEAN COUNTY E-SALES","311 WEST MAIN ST","SMETHPORT","PA","16749","8148874160","http://maps.google.com/maps?q=41.80949851,-78.444603"
"POINT (-77.272944540093 41.202053738982)","-77.272944539999997","41.202053739999997","NATIONAL SPORTING GOODS","1241 ALLEGHENY ST","JERSEY SHORE","PA","17740","5703980271","http://maps.google.com/maps?q=41.20205374,-77.27294454"
"POINT (-79.742532869512 40.948947156847)","-79.742532870000005","40.948947160000003","CHICORA SPORTING GOODS","123 N MAIN ST","CHICORA","PA","16025","7244454530","http://maps.google.com/maps?q=40.94894716,-79.74253287"
"POINT (-77.191893914226 40.190940662789)","-77.191893910000005","40.190940660000003","WAL MART 2574","60 NOBLE BLVD","CARLISLE","PA","17013","7172581250","http://maps.google.com/maps?q=40.19094066,-77.19189391"
"POINT (-75.216762168355 40.687098520006)","-75.216762169999996","40.687098519999999","NORTHAMPTON COUNTY TREASURER","669 WASHINGTON ST","EASTON","PA","18042","6105593116","http://maps.google.com/maps?q=40.68709852,-75.21676217"
"POINT (-76.285762070815 39.988552320927)","-76.285762070000004","39.988552319999997","MORR RANGE LLC","2488 WILLOW STREET PIKE","LANCASTER","PA","17602","7175177135","http://maps.google.com/maps?q=39.98855232,-76.28576207"
"POINT (-75.599499179604 41.008775986886)","-75.599499179999995","41.008775989999997","EASTERN ARMS & OUTFITTERS LLC","2599 STATE ROUTE 903","ALBRIGHTSVILLE","PA","18210","5707220200","http://maps.google.com/maps?q=41.00877599,-75.59949918"
"POINT (-75.863089567872 41.237138574988)","-75.86308957","41.237138569999999","J S SPORTING GOODS","254 WILKESBARRE TWP BLVD","WILKES BARRE","PA","18702","5708244610","http://maps.google.com/maps?q=41.23713857,-75.86308957"
"POINT (-76.26020858526 41.667261490716)","-76.260208590000005","41.667261490000001","DIETZS FAMILY CLOTHING","108 MAIN ST","WYALUSING","PA","18853","5707461105","http://maps.google.com/maps?q=41.66726149,-76.26020859"
"POINT (-76.668720781785 39.767693647834)","-76.668720780000001","39.767693649999998","WAL MART 2519","698 SHREWSBURY COMMONS","SHREWSBURY","PA","17361","7172356363","http://maps.google.com/maps?q=39.76769365,-76.66872078"
"POINT (-76.828583647427 40.253690665213)","-76.828583649999999","40.253690669999997","BASS PRO SHOPS OUTDOOR WORLD","3501 PAXTON STREET CUST SERV","HARRISBURG","PA","17111","7175655200","http://maps.google.com/maps?q=40.25369067,-76.82858365"
"POINT (-79.899136421826 40.028301910203)","-79.899136420000005","40.028301910000003","WAL MART 4501","134 DANIEL KENDALL DRIVE","WEST BROWNSVILLE","PA","15417","7243644076","http://maps.google.com/maps?q=40.02830191,-79.89913642"
"POINT (-77.127683632189 40.150068088689)","-77.127683630000007","40.150068089999998","TCO FLY SHOP","2 E 1ST ST","BOILING SPGS","PA","17007",,"http://maps.google.com/maps?q=40.15006809,-77.12768363"
"POINT (-79.612610604355 41.932427001311)","-79.612610599999996","41.932426999999997","WAL MART 2909","961 EAST COLUMBUS AVENUE","CORRY","PA","16407","8146638070","http://maps.google.com/maps?q=41.932427,-79.6126106"
"POINT (-75.230662499635 39.922245000148)","-75.230662499999994","39.922244999999997","SW BAIT AND TACKLE","6503 ELMWOOD AVENUE","PHILADELPHIA","PA","19142",,"http://maps.google.com/maps?q=39.922245,-75.2306625"
"POINT (-76.003460043775 40.557554269887)","-76.003460039999993","40.557554269999997","CABELAS PA","100 CABELA DRIVE","HAMBURG","PA","19526","6109297000","http://maps.google.com/maps?q=40.55755427,-76.00346004"
"POINT (-76.254693428879 40.293096388272)","-76.254693430000003","40.293096390000002","DARRYL SPITLER'S GUN SHOP","134 CANAAN GROVE RD","NEWMANSTOWN","PA","17073","7179493157","http://maps.google.com/maps?q=40.29309639,-76.25469343"
"POINT (-76.318586999981 40.210047000025)","-76.318586999999994","40.210047000000003","PFBC SOUTHEAST REGION","255 W BRUBAKER VALLEY RD","LITITZ","PA","17543",,"http://maps.google.com/maps?q=40.210047,-76.318587"
"POINT (-78.355715179278 40.827687935113)","-78.355715180000004","40.827687939999997","TRAVIS SUPPLY LLC","938 W. CLARA ST","HOUTZDALE","PA","16651","8143787897","http://maps.google.com/maps?q=40.82768794,-78.35571518"
"POINT (-79.580308643806 40.308467470923)","-79.580308639999998","40.308467469999997","WAL MART 2059","2200 GREENGATE CENTRE BLVD","GREENSBURG","PA","15601","7248302440","http://maps.google.com/maps?q=40.30846747,-79.58030864"
"POINT (-79.388035313704 41.215647961126)","-79.388035310000006","41.215647959999998","CLARION COUNTY TREASURER","330 MAIN ST ROOM 110","CLARION","PA","16214","8142261113","http://maps.google.com/maps?q=41.21564796,-79.38803531"
"POINT (-82.011440999617 41.46761300012)","-82.011441000000005","41.467613","CABELAS OH","35685 CHESTER RD","AVON","OH","44011","4407235600","http://maps.google.com/maps?q=41.467613,-82.011441"
"POINT (-78.046534376754 40.494947505915)","-78.046534379999997","40.494947510000003","PGC-SOUTHCENTRAL REGIONAL HDQ","8627 WILLIAM PENN HIGHWAY","HUNTINGDON","PA","16652","8146431831","http://maps.google.com/maps?q=40.49494751,-78.04653438"
"POINT (-77.48019546296 41.080644085295)","-77.480195460000004","41.08064409","JDâ€™S BAIT AND TACKLE","1309 MACKLEYVILLE RD","MILL HALL","PA","17751","5707268725","http://maps.google.com/maps?q=41.08064409,-77.48019546"
"POINT (-80.229981055031 40.659411385494)","-80.22998106","40.659411390000002","WAL MART 4643","1500 ECONOMY WAY","BADEN","PA","15005","7243909016","http://maps.google.com/maps?q=40.65941139,-80.22998106"
"POINT (-80.384532604606 40.778283303131)","-80.3845326","40.778283299999998","WAL MART 3223","100 CHIPPEWA TOWN CENTER","BEAVER FALLS","PA","15010","7248431100","http://maps.google.com/maps?q=40.7782833,-80.3845326"
"POINT (-75.079913307554 40.195384085717)","-75.079913309999995","40.195384089999997","WAL MART 2096","100 E STREET RD","WARMINSTER","PA","18974","2154425671","http://maps.google.com/maps?q=40.19538409,-75.07991331"
"POINT (-76.040307998889 40.119713001191)","-76.040307999999996","40.119712999999997","THE SPORTSMANS SHOP","1214 MAIN ST","EAST EARL","PA","17519","7173544311","http://maps.google.com/maps?q=40.119713,-76.040308"
"POINT (-79.511251201616 41.030695733094)","-79.511251200000004","41.030695729999998","RANDOLPH'S GUN SHOP","437 MAPLE GROVE RD","RIMERSBURG","PA","16248","8144733771","http://maps.google.com/maps?q=41.03069573,-79.5112512"
"POINT (-76.814547374095 40.148345573007)","-76.81454737","40.148345569999996","WAL MART 4404","50 NEWBERRY PARKWAY","ETTERS","PA","17319","7179324384","http://maps.google.com/maps?q=40.14834557,-76.81454737"
"POINT (-77.6505447968 41.942021383754)","-77.650544800000006","41.94202138","HARRISON VALLEY CORNER HARDWRE","101 W MAIN ST","HARRISON VALLEY","PA","16927","8143345959","http://maps.google.com/maps?q=41.94202138,-77.6505448"
"POINT (-79.701517491455 39.876575523423)","-79.701515319999999","39.87657411","CUNNINGHAM ARCHERY","1190 NATIONAL PIKE","HOPWOOD","PA","15445","7245504715","http://maps.google.com/maps?q=39.87657411,-79.70151532"
"POINT (-79.226905262065 40.443383748708)","-79.226905259999995","40.443383750000002","WAL MART 5356","300 RESORT PLAZA","BLAIRSVILLE","PA","15717","7244593349","http://maps.google.com/maps?q=40.44338375,-79.22690526"
"POINT (-75.518696591163 41.337236324262)","-75.518696590000005","41.337236320000002","T R MATTHEWS HARDWARE","103 N MAIN ST","MOSCOW","PA","18444","5708429288","http://maps.google.com/maps?q=41.33723632,-75.51869659"
"POINT (-75.665778944696 41.408273631592)","-75.665778939999996","41.408273629999997","LACKAWANNA COUNTY TREASURER","123 WYOMING AVENUE","SCRANTON","PA","18503","5709636731","http://maps.google.com/maps?q=41.40827363,-75.66577894"
"POINT (-75.448964187209 39.852007694419)","-75.448964189999998","39.852007690000001","WAL MART 3252","605 CONCHESTER HWY","BOOTHWYN","PA","19061","6104942535","http://maps.google.com/maps?q=39.85200769,-75.44896419"
"POINT (-75.293992776748 39.904266573787)","-75.293992779999996","39.904266569999997","WAL MART 5495","50 NORTH MACDADE BLVD","GLENOLDEN","PA","19036","6105832682","http://maps.google.com/maps?q=39.90426657,-75.29399278"
