"provider_name","city","state","zip","payment","rural_location"
"ADVANCED PAIN CENTERS OF ALASKA, INC","ANCHORAGE","AK","995073449","$   1,364.65","YES"
"ALASKA DENTAL ARTS LLC","WASILLA","AK","996547024","$   16,457.35","YES"
"ALASKA EYE CARE CENTERS, APC","ANCHORAGE","AK","995013236","$   17,380.27","YES"
"ALASKA NEURODIAGNOSTIC AND REHABILITATION MEDICINE INC","ANCHORAGE","AK","995084627","$   500.00","NO"
"ALASKA SPECIALTY HOSPITAL, LLC","ANCHORAGE","AK","995037218","$   279,047.10","YES"
"ALASKA WEIGHT MANAGEMENT AND DIABETES COUNSELING","PALMER","AK","996458278","$   500.00","YES"
"ALEUTIAN PRIBILOF ISLANDS ASSOCIATION INC","ANCHORAGE","AK","995181408","$   9,375.48","YES"
"ALLEN DENTAL GROUP LLC","EAGLE RIVER","AK","995777043","$   2,257.68","NO"
"ALTAIR INTEGRATIVE WELLNESS","WASILLA","AK","996547271","$   772.07","YES"
"ANCHOR ERUPTION ENTERPRISES LLC","ANCHORAGE","AK","995085444","$   1,639.60","YES"
"ANCHORAGE COMMUNITY MENTAL HEALTH SERVICES INC","ANCHORAGE","AK","995085321","$   23,221.86","YES"
"ANCHORAGE MANOR 1","ANCHORAGE","AK","995022102","$   500.00","NO"
"ANCORA HOME HEALTH & HOSPICE, LLC","WASILLA","AK","996547499","$   215,139.20","YES"
"ARCTIC ANESTHESIA LLC","ANCHORAGE","AK","995171132","$   500.00","YES"
"ARCTIC CHIROPRACTIC AND PHYSICAL MEDICINE KETCHIKAN","JUNEAU","AK","998018050","$   1,659.23","YES"
"ARCTIC CHIROPRACTIC AND PHYSICAL MEDICINE KODIAK","PALMER","AK","996456972","$   2,174.69","YES"
"ARCTIC CHIROPRACTIC BETHEL, LLC","PALMER","AK","996456967","$   500.00","YES"
"ARCTIC CHIROPRACTIC DELTA","DELTA JUNCTION","AK","997370096","$   636.59","YES"
"ARCTIC CHIROPRACTIC EAST ANCHORAGE","ANCHORAGE","AK","995043572","$   500.00","YES"
"ARCTIC CHIROPRACTIC EAST MAT-SU LLC","PALMER","AK","996456972","$   5,512.31","YES"
"ARCTIC CHIROPRACTIC FAIRBANKS LLC","FAIRBANKS","AK","997013126","$   553.18","YES"
"ARCTIC CHIROPRACTIC HUFFMAN","ANCHORAGE","AK","995153534","$   500.00","YES"
"ARCTIC CHIROPRACTIC SEWARD","SEWARD","AK","996649710","$   500.00","YES"
"ARCTIC CHIROPRACTIC SITKA LLC","SITKA","AK","998357579","$   854.36","YES"
"ARCTIC CHIROPRACTIC SOUTH, LLC","ANCHORAGE","AK","995021474","$   500.00","YES"
"ARCTIC CHIROPRACTIC VALDEZ LLC","VALDEZ","AK","99686","$   500.00","YES"
"ARCTIC CHIROPRACTIC WRANGELL, LLC","PALMER","AK","996456972","$   646.85","YES"
"ARCTIC MEDICAL CENTER","ANCHORAGE","AK","995036089","$   960.11","YES"
"ARCTIC PHYSICAL THERAPY AND REHABILITATION DELTA JUNCTION LLC","FAIRBANKS","AK","997013126","$   3,916.92","YES"
"ARCTIC REHABILITATION AND PHYSICAL THERAPY ANCHORAGE LLC","PALMER","AK","996456967","$   641.77","YES"
"ARCTIC SLOPE NATIVE ASSOCIATION LTD","BARROW","AK","997230029","$   394,487.81","YES"
"ARCTIC THERAPY AND REHAB BETHEL","BETHEL","AK","99559","$   500.00","YES"
"AUDIOLOGY ASSOCIATES INC","ANCHORAGE","AK","995241185","$   2,027.32","NO"
"AUGUSTA PLASSMANN KING OD LLC","FAIRBANKS","AK","997094610","$   811.15","YES"
"AURORA CHIROPRACTIC CENTER PC","JUNEAU","AK","998019300","$   1,108.89","YES"
"BARANOF CHIROPRACTIC, INC","SITKA","AK","998357336","$   1,121.40","YES"
"BARTLETT REGIONAL HOSPITAL","JUNEAU","AK","998017808","$   1,794,392.42","YES"
"BARTLETT REGIONAL HOSPITAL","JUNEAU","AK","998017808","$   21,625.96","YES"
"BEHAVIOR MATTERS CALIFORNIA LLC","EAGLE RIVER","AK","995777802","$   1,824.48","NO"
"BEHAVIOR MATTERS LLC","EAGLE RIVER","AK","995776711","$   500.00","NO"
"BETHEL FAMILY CLINIC","BETHEL","AK","995591908","$   19,106.23","YES"
"BETTER HEALTH PAIN AND WELLNESS CENTERS, LLC","ANCHORAGE","AK","995152000","$   500.00","YES"
"BINKLEY STREET DENTAL CLINIC PC","SOLDOTNA","AK","996697522","$   2,329.77","YES"
"BRIAN E LARSON DC PC","SOLDOTNA","AK","996697649","$   1,561.16","YES"
"BTY DENTAL GROUP","ANCHORAGE","AK","995071128","$   12,555.03","YES"
"CAMAI COMMUNITY HEALTH CENTER INC","NAKNEK","AK","996330211","$   4,476.33","YES"
"CARE CENTER (ANCHORAGE) INC.","ANCHORAGE","AK","995041480","$   92,260.36","YES"
"CARRIE RANDOLPH D.D.S. INC.","KODIAK","AK","996157311","$   4,460.74","YES"
"CENTER FOR WOMENS HEALTH CARE LLC","WASILLA","AK","996547294","$   36,484.05","YES"
"CHRISTIAN HEALTH ASSOCIATES","ANCHORAGE","AK","995075391","$   1,112.86","YES"
"CHUGACH PHYSICAL THERAPY INC","ANCHORAGE","AK","995084141","$   500.00","YES"
"CHUN PIU MAN, INC.","EAGLE RIVER","AK","995777754","$   1,109.08","NO"
"CINDY AND VICS R & R, INC","ANCHORAGE","AK","995154042","$   2,111.59","NO"
"CITY OF KENAI","KENAI","AK","996117750","$   30,691.03","YES"
"CITY OF SEWARD","SEWARD","AK","996640430","$   170,628.29","YES"
"CITY OF VALDEZ","VALDEZ","AK","996860550","$   175,407.51","YES"
"CLEAR DENTAL, LLC","ANCHORAGE","AK","995043132","$   500.00","NO"
"CODI, INC.","PALMER","AK","996451907","$   31,232.40","YES"
"COMMUNITY CONNECTIONS","KETCHIKAN","AK","999016632","$   82,834.33","YES"
"COMPASSIONATE & EFFECTIVE CARE","ANCHORAGE","AK","995200574","$   500.00","NO"
"COOPER LANDING EMERGENCY SERVICES INC","COOPER LANDING","AK","995720510","$   500.00","YES"
"CORDOVA COMMUNITY HOSPITAL","CORDOVA","AK","995740160","$   84,506.85","YES"
"CREED K MAMIKUNIAN MD","ANCHORAGE","AK","995085228","$   500.00","NO"
"CREED MAMIKUNIAN","ANCHORAGE","AK","995085228","$   500.00","NO"
"CROSS ROAD HEALTH MINISTRIES INC","GLENNALLEN","AK","995880589","$   47,819.18","YES"
"CROSSROADS COUNSELING & TRAINING SERVICES","FAIRBANKS","AK","997082074","$   844.64","NO"
"DAY SPRING ASSISTED LIVING HOME, LLC.","ANCHORAGE","AK","995171632","$   1,689.27","NO"
"DENALI PHYSICAL THERAPY LIMITED PARTNERSHIP","PALMER","AK","996456665","$   804.32","YES"
"DIALYSIS SERVICES OF SOUTHEAST ALASKA, LLC","JUNEAU","AK","998017136","$   22,562.23","YES"
"DIMOND CHIROPRACTIC LLC","ANCHORAGE","AK","995151515","$   500.00","YES"
"DISCOVER CHIROPRACTIC INC","FAIRBANKS","AK","997014007","$   500.00","YES"
"DR MAN'S DENTAL GROUP, INC.","ANCHORAGE","AK","995073848","$   500.00","NO"
"DR PETER LAWRASON PC","FAIRBANKS","AK","997015937","$   500.00","YES"
"DR. JOSEPH WANG","WASILLA","AK","996547184","$   2,560.32","YES"
"DR. MICHAEL P. MORIARTY, P.C.","SEWARD","AK","996640710","$   6,389.85","YES"
"EAGLE RIVER VISION CLINIC INC","EAGLE RIVER","AK","995777753","$   1,604.43","YES"
"EARTHSONG INTEGRATIVE MEDICINE AND MIDWIFERY LLC","JUNEAU","AK","998020176","$   500.00","YES"
"EASTERN ALEUTIAN TRIBES, INC.","ANCHORAGE","AK","995033949","$   14,983.14","YES"
"EDWARD C GODNIG","WASILLA","AK","996547039","$   511.26","YES"
"ELENAS PLACE II CORP.","ANCHORAGE","AK","99515","$   500.00","NO"
"EMPOWER MEDICAL AND WELLNESS","PALMER","AK","996456967","$   500.00","YES"
"EXCEL PHYSICAL THERAPY LIMITED PARTNERSHIP","PALMER","AK","996456665","$   23,947.20","YES"
"FAIRBANKS COMMUNITY MENTAL HEALTH SERVICES LLC","ANCHORAGE","AK","995085321","$   17,897.26","NO"
"FAR NORTH EYE CARE, LLC","ANCHORAGE","AK","995035774","$   13,940.12","NO"
"FOOTHILLS DENTISTRY ALASKA, LLC","ANCHORAGE","AK","995085200","$   5,798.54","YES"
"FOUR CORNERS DENTAL GROUP FAIRBANKS","FAIRBANKS","AK","997094761","$   22,561.71","NO"
"FRANKLIN TODD WORTHAM DDS, LLC","KENAI","AK","996117836","$   4,887.31","YES"
"FRESENIUS MEDICAL CARE SOLDOTNA, LLC","SOLDOTNA","AK","996697570","$   35,723.53","YES"
"FRESENIUS MEDICAL CARE SOUTHWEST ANCHORAGE, LLC","ANCHORAGE","AK","995025348","$   27,262.70","YES"
"GENEVA WOODS SURGICAL CENTER INC","ANCHORAGE","AK","995085054","$   19,200.84","YES"
"'GENTLE DENTISTRY' JENNIFER SPIVEY DDS","KODIAK","AK","99615","$   7,203.45","YES"
"GLACIER DENTAL, LLC","ANCHORAGE","AK","995071128","$   4,382.81","NO"
"GLACIER FAMILY MEDICINE CLINIC LLC","SEWARD","AK","996649708","$   8,278.65","YES"
"GLACIER PEDIATRICS, LLC","JUNEAU","AK","998011430","$   9,766.44","YES"
"GOLDEN AGERS HOMECARE, LLC","WASILLA","AK","996548127","$   844.64","YES"
"GOOD GRACE ASSISTED LIVING HOME,LLC","ANCHORAGE","AK","995083821","$   844.64","NO"
"HAPPY DAY TRANSPORTATION, INC","ANCHORAGE","AK","995044910","$   500.00","NO"
"HAPPY VALLEY ASSISTED LIVING LLC","ANCHOR POINT","AK","995560414","$   2,533.91","YES"
"HEALTH COURT FOODS,INC.","ANCHORAGE","AK","995183141","$   1,689.27","NO"
"HEARTS & HANDS OF CARE INC.","ANCHORAGE","AK","995073754","$   66,726.18","YES"
"HEIDI YOUNG","KETCHIKAN","AK","999016649","$   87,402.69","YES"
"HEIRLOOM WELLNESS & BIRTH LLC","PALMER","AK","996455940","$   1,990.14","YES"
"HERITAGE HOME","ANCHORAGE","AK","995231253","$   844.64","NO"
"HIBISCUS ASSISTED LIVING HOME LLC","ANCHORAGE","AK","995083771","$   844.64","NO"
"HOMER BIRTH AND WELLNESS CENTER","HOMER","AK","996032982","$   3,119.72","YES"
"HOMER EYECARE LLC","HOMER","AK","996037663","$   15,148.84","YES"
"HOPE COMMUNITY RESOURCES INC","ANCHORAGE","AK","995181105","$   81,265.23","YES"
"ICARE ASSISTED LIVING HOME, LLC.","ANCHORAGE","AK","995044319","$   500.00","NO"
"ILIULIUK FAMILY AND HEALTH SERVICES INC","UNALASKA","AK","996850144","$   6,540.43","YES"
"INFINITE CARE OF ALASKA LLC","ANCHORAGE","AK","995110154","$   3,271.39","YES"
"INFINITE OPTIONS CARE COORDINATION SERVICES LLC","FAIRBANKS","AK","997074870","$   21,969.53","NO"
"INTERIOR CARE COORDINATION LLC","NORTH POLE","AK","997050130","$   2,676.19","YES"
"INTERNAL MEDICINE ASSOCIATES LLC","ANCHORAGE","AK","995082945","$   29,106.96","YES"
"ISLAND CARE SERVICES LLC","KETCHIKAN","AK","999500550","$   71,180.79","YES"
"JAMIEZON ALH","ANCHORAGE","AK","995043517","$   500.00","NO"
"JASON M. LANE DDS, LLC","WASILLA","AK","996548561","$   3,346.23","YES"
"JUNEAU EMERGENCY MEDICAL ASSOCIATES INC","JUNEAU","AK","998020150","$   60,445.97","YES"
"JUNEAU MOBILE THERAPY LLC","JUNEAU","AK","998019441","$   1,340.96","YES"
"JUNEAU PEDIATRIC DENTISTRY","JUNEAU","AK","998019304","$   24,663.25","YES"
"JUNEAU SPINE AND PAIN CENTER LLC","JUNEAU","AK","998017808","$   12,808.76","YES"
"JUST KIDS, INC","ANCHORAGE","AK","995042030","$   13,825.22","NO"
"KAMALANI ASSISTED LIVING HOME","ANCHORAGE","AK","995082323","$   500.00","NO"
"K-BEACH MEDICAL INC","SOLDOTNA","AK","996692037","$   8,632.10","YES"
"KEEN EYE CARE ASSISTED LIVING INC","SOLDOTNA","AK","996697831","$   1,266.95","YES"
"KENAI SPINE LLC","SOLDOTNA","AK","996692509","$   14,554.01","YES"
"KENAITZE INDIAN TRIBE","KENAI","AK","996118026","$   86,599.38","YES"
"KETCHIKAN INDIAN CORPORATION","KETCHIKAN","AK","999015742","$   47,479.54","YES"
"KRISTINA M JAMES","SOLDOTNA","AK","996697936","$   1,400.11","YES"
"LACUNA FAMILY MEDICINE, INC.","SEWARD","AK","996642816","$   540.58","YES"
"LEGACY HEALTH CLINIC LLC","KETCHIKAN","AK","999015635","$   3,928.28","YES"
"LIFEMED ALASKA LLC","ANCHORAGE","AK","995020903","$   177,071.39","YES"
"LILY POND ALH, LLC","ANCHORAGE","AK","995072169","$   844.64","NO"
"LLOYD CHIROPRACTIC PC","ANCHORAGE","AK","995163534","$   500.00","YES"
"MANIILAQ ASSOCIATION","KOTZEBUE","AK","997520043","$   993,125.43","YES"
"MAPLE SPRINGS OF WASILLA SNF HOLDINGS LLC","WASILLA","AK","996547294","$   120,273.40","YES"
"MARK E RICHEY MD PC","ANCHORAGE","AK","995082969","$   1,102.94","YES"
"MARY ANN JACOB, M.D., LLC","ANCHORAGE","AK","995082958","$   500.00","NO"
"MARY P DEMERS DO & ASSOCIATES LLC","ANCHORAGE","AK","995084691","$   500.00","YES"
"MAT-SU HEALTH SERVICES INC.","WASILLA","AK","996545327","$   178,676.59","YES"
"MAT-SU SERVICES FOR CHILDREN & ADULTS","WASILLA","AK","996547718","$   72,275.88","YES"
"MAT-SU VALLEY MEDICAL CENTER LLC","PALMER","AK","996458984","$   4,757,372.95","YES"
"MELANIE ANN HANSEN","PALMER","AK","996458971","$   500.00","YES"
"MOOSE CREEK MEDICAL CLINIC LLC","WASILLA","AK","996548627","$   8,760.98","YES"
"MULDOON DEVELOPMENT PARTNERS LLC","ANCHORAGE","AK","995071135","$   19,741.95","YES"
"NATALIE J BEYELER DO","ANCHORAGE","AK","995241769","$   3,981.03","YES"
"NATIVE VILLAGE OF EYAK","CORDOVA","AK","995742290","$   17,350.47","YES"
"NORDIC LIVING","HOMER","AK","996032425","$   1,266.95","YES"
"NORTHBRIDGE LLC","ANCHORAGE","AK","995231430","$   500.00","NO"
"NORTON SOUND HEALTH CORPORATION","NOME","AK","997620966","$   1,154,417.15","YES"
"OPTIMUM HEALTH AND WELLNESS PHYSICAL THERAPY INC","KETCHIKAN","AK","999015559","$   9,718.16","YES"
"PACIFIC PEDIATRICS, LLC","WARD COVE","AK","999289800","$   543.99","YES"
"PCR ALASKA LLC","ANCHORAGE","AK","995241224","$   844.64","NO"
"PENINSULA COMMUNITY HEALTH SERVICES OF ALASKA INC","SOLDOTNA","AK","996692949","$   165,959.56","YES"
"PETERSBURG DENTAL, INC.","PETERSBURG","AK","998330469","$   6,301.90","YES"
"PHILIP J LATTEIER DDS LLC","ANCHORAGE","AK","995084643","$   500.00","NO"
"PM PEDIATRICS OF ALASKA","ANCHORAGE","AK","995034166","$   3,049.53","NO"
"PROVIDENCE HEALTH & SERVICES - WASHINGTON","ANCHORAGE","AK","995084665","$   3,619.74","NO"
"PROVIDENCE HEALTH & SERVICES WASHINGTON","ANCHORAGE","AK","995084683","$   47,163.75","YES"
"PROVIDENCE HEALTH & SERVICES WASHINGTON","KODIAK","AK","996156602","$   630,637.42","YES"
"PROVIDENCE HEALTH & SERVICES WASHINGTON","ANCHORAGE","AK","995084619","$   3,511,296.93","YES"
"PROVIDENCE HEALTH & SERVICES WASHINGTON","ANCHORAGE","AK","995044665","$   68,551.28","YES"
"PROVIDENCE HEALTH & SERVICES WASHINGTON","ANCHORAGE","AK","995084683","$   22,486.54","YES"
"PROVIDENCE HEALTH & SERVICES-WASHINGTON","ANCHORAGE","AK","995085323","$   2,956.22","NO"
"PROVIDENCE IMAGING CENTER","ANCHORAGE","AK","995084663","$   29,255.47","YES"
"REACH INC","JUNEAU","AK","99801","$   61,319.11","YES"
"REAL TIME INC","WASILLA","AK","996546569","$   4,328.36","YES"
"RENAL CARE GROUP ALASKA (FAIRBANKS) LLC","FAIRBANKS","AK","997014007","$   12,221.21","YES"
"RENAL CARE GROUP ALASKA, INC.","ANCHORAGE","AK","995085333","$   42,304.19","YES"
"RENAL CARE GROUP WASILLA LLC","WASILLA","AK","996547270","$   69,566.87","YES"
"RESIDENTIAL YOUTH CARE, INC.","KETCHIKAN","AK","999012475","$   14,676.86","YES"
"RESTORE INCORPORATED","FAIRBANKS","AK","997073004","$   5,334.46","NO"
"RIVER CITY DENTAL, INC.","KENAI","AK","996111510","$   9,263.99","YES"
"RIVER HEALTH & WELLNESS, LLC","SOLDOTNA","AK","996696804","$   2,743.57","YES"
"RUSSELL DEGROOTE MD PC","WARD COVE","AK","999281099","$   1,145.96","YES"
"RYAN P. ERSLAND, D.M.D. LLC","ANCHORAGE","AK","995032838","$   500.00","NO"
"SAINT PIO ASSISTED LIVING HOME LLC","ANCHORAGE","AK","995044729","$   500.00","NO"
"SAMEER KAPIL, DMD, LLC","WASILLA","AK","996547176","$   18,233.07","YES"
"SCOTT INNES MD PC","SOLDOTNA","AK","996697559","$   16,596.49","YES"
"SELDOVIA VILLAGE TRIBE","HOMER","AK","996037201","$   34,886.98","YES"
"SENIOR CITIZENS OF KODIAK, INC.","KODIAK","AK","996156341","$   8,868.67","YES"
"SITKA COUNSELING & PREVENTION SERVICES INC","SITKA","AK","998357666","$   37,628.37","YES"
"SOUTH ANCHORAGE DENTAL CENTER","ANCHORAGE","AK","995025390","$   3,028.21","NO"
"SOUTH PENINSULA BEHAVIORAL HEALTH SERVICES INC","HOMER","AK","996037708","$   77,187.48","YES"
"SOUTH PENINSULA HOSPITAL INC","HOMER","AK","996037005","$   1,464,578.73","YES"
"SOUTHEAST ALASKA REGIONAL HEALTH CONSORTIUM","JUNEAU","AK","998017837","$   2,258,739.32","YES"
"SOUTHEAST URGENT CARE INCORPORATED","JUNEAU","AK","998016921","$   16,844.83","YES"
"SPALDING DENTAL LLC","ANCHORAGE","AK","995085729","$   651.46","NO"
"SUMMIT CHIROPRACTIC LLC","FAIRBANKS","AK","997013126","$   500.00","NO"
"SUNRISE ASSISTED LIVING FACILITY, LLC","KODIAK","AK","996158653","$   2,533.91","YES"
"SUNSHINE COMMUNITY HEALTH CENTER INC","TALKEETNA","AK","996769701","$   60,727.70","YES"
"SURGERY CENTER OF WASILLA, LLC","WASILLA","AK","996547422","$   112,406.39","YES"
"TASHIA AMSTISLAVSKI MA LCSW LLC","ANCHORAGE","AK","995141421","$   500.00","NO"
"TERRY J. PREECE DDS PC","ANCHORAGE","AK","995153507","$   555.42","NO"
"THE PETERSBURG MEDICAL CENTER","PETERSBURG","AK","998330589","$   257,611.77","YES"
"TRUA HEALTH & WELLNESS","ANCHORAGE","AK","995024251","$   500.00","YES"
"TRUE NORTH RECOVERY INC","WASILLA","AK","996875032","$   27,178.30","YES"
"TURNAGAIN SOCIAL CLUB","ANCHORAGE","AK","995171848","$   9,748.59","NO"
"URGENT CARE AT LAKE LUCILLE INC","WASILLA","AK","996547038","$   25,434.17","YES"
"VALLEY CHIROPRACTIC CLINIC, INC","WASILLA","AK","996547018","$   2,232.63","YES"
"VILLAGE EYE WEAR INC","ANCHORAGE","AK","995034019","$   686.62","NO"
"WASILLA PHYSICAL THERAPY INC.","WASILLA","AK","99654","$   10,655.39","YES"
"WENTZ ORTHODONTICS","FAIRBANKS","AK","997093646","$   521.59","NO"
"WILDFLOWER COURT INC","JUNEAU","AK","998017801","$   150,863.47","YES"
"WILLIAM D PFEIFER DC","KETCHIKAN","AK","999015765","$   500.00","YES"
"WISE PHYSICAL THERAPY AND REHABILITATION INC.","ANCHORAGE","AK","995082986","$   761.29","YES"
"YIM CORPORATION","ANCHORAGE","AK","995211925","$   500.00","YES"
"20 20 EYECARE INC","CLANTON","AL","35045","$   13,594.90","YES"
"211 213 ANA DRIVE OPERATIONS LLC","FLORENCE","AL","356301768","$   48,615.11","NO"
"2215 NORTHPORT OPCO LLC","NORTHPORT","AL","354765230","$   94,037.68","NO"
"7TH WELLNESS LLC","CALERA","AL","350401427","$   500.00","NO"
"A NEW DIRECTION BREAKING THE CYCLE OF POVERTY","MONTGOMERY","AL","361174432","$   500.00","NO"
"ADVANCED CARDIOVASCULAR, LLC","ALEXANDER CITY","AL","350104413","$   78,089.56","YES"
"ADVANCED DYSPHAGIA SERVICES, LLC","DOTHAN","AL","363032951","$   4,708.61","YES"
"ADVANCED EMS INC","ANDALUSIA","AL","364201231","$   97,624.50","YES"
"AFFILIATED DERMATOLOGY, PC","DOTHAN","AL","363051051","$   91,105.20","NO"
"AFFINITY GASTROENTEROLOGY ASC LLC","BIRMINGHAM","AL","352433406","$   2,078.75","NO"
"AFFINITY HOSPITAL LLC","BIRMINGHAM","AL","352433326","$   3,109,108.29","NO"
"AFFINITY ORTHOPEDIC SPECIALISTS LLC","VESTAVIA","AL","352432317","$   21,184.30","YES"
"AGAPE MEDICINE LLC","BOAZ","AL","359570720","$   870.54","YES"
"AKINS MEDICAL CLINIC, PC","GADSDEN","AL","359020629","$   500.00","NO"
"ALABAMA ASSOCIATES CHIROPRACTIC CLINIC INC.","FORT PAYNE","AL","35967","$   1,673.15","YES"
"ALABAMA COASTAL RADIOLOGY PC","MOBILE","AL","366910369","$   92,360.18","YES"
"ALABAMA DENTAL PROFESSIONALS, PC","ATHENS","AL","35611","$   1,645.90","YES"
"ALABAMA DEPARTMENT OF MENTAL HEALTH AND MENTAL RETARDATION","MONTGOMERY","AL","361300001","$   3,726,624.32","YES"
"ALABAMA FYZICAL","TUSCALOOSA","AL","354062283","$   500.00","NO"
"ALABAMA HOME RESPIRATORY INC","GREENSBORO","AL","367441502","$   11,857.48","YES"
"ALABAMA MULTI-SPECIALTY GROUP, PC","TUSCALOOSA","AL","354062804","$   7,245.88","NO"
"ALABAMA NEUROLOGY ASSOCIATES","BIRMINGHAM","AL","352094111","$   26,535.93","NO"
"ALABAMA ORTHOPEDIC SPINE & SPORTS MEDICINE ASSOCIATES P C","BIRMINGHAM","AL","352353134","$   66,453.19","YES"
"ALABAMA PATHOLOGY ASSOCIATES","MONTGOMERY","AL","361173507","$   41,074.04","NO"
"ALABAMA VASCULAR SOLUTIONS, LLC","ALABASTER","AL","350078617","$   10,086.14","NO"
"ALABAMA VISION CENTER, LLC","BIRMINGHAM","AL","35213","$   24,699.66","YES"
"ALABAMA WELLNESS AND RECOVERY SERVICES, LLC","BIRMINGHAM","AL","352424654","$   500.00","NO"
"ALAN M. ALLGOOD DMD, P.C.","FAIRHOPE","AL","36532","$   500.00","YES"
"ALBERTVILLE HEALTHCARE CENTER, INC.","ALBERTVILLE","AL","359514014","$   573,930.38","YES"
"ALFRED D TROTTER MD","GUNTERSVILLE","AL","359767366","$   6,455.44","YES"
"ALH HOSPITALIST","ATHENS","AL","356120999","$   26,719.76","YES"
"ALICEVILLE MANOR NURSING HOME, INC","ALICEVILLE","AL","354421426","$   197,905.29","YES"
"ALLSOUTH URGENT CARE CLINIC, INC.","DOTHAN","AL","363031880","$   16,953.32","NO"
"ALPHA & OMEGA HEALTH CARE PROVIDERS","HUNTSVILLE","AL","358146038","$   558.83","YES"
"ALPHA HOSPITALIST SERVICES","GADSDEN","AL","359015306","$   22,309.57","YES"
"ALTAPOINTE HEALTH SYSTEMS INC","MOBILE","AL","366933316","$   175,697.04","YES"
"ALTOONA HEALTH & REHAB, INC.","ALTOONA","AL","359528405","$   14,597.36","YES"
"AM MEDICAL, LLC","FAIRHOPE","AL","365326350","$   2,106.55","NO"
"AMMA HEALTH CARE CLINIC LLC","SCOTTSBORO","AL","357680278","$   4,910.23","YES"
"AMY REBECCA PLAYER","HUNTSVILLE","AL","358083007","$   500.00","NO"
"ANDALUSIA EYE CLINIC LLC","ANDALUSIA","AL","364201226","$   64,337.15","YES"
"ANDALUSIA MANOR LLC","ANDALUSIA","AL","364205299","$   347,303.77","YES"
"ANDERSON PHYSICIAN ALLIANCE INC","BUTLER","AL","369042728","$   145,471.45","YES"
"ANDREA D SIMS OD PC","JASPER","AL","355013965","$   4,066.46","YES"
"ANESTHESIA CONSULTANTS MEDICAL GROUP PC","DOTHAN","AL","363013030","$   92,876.01","YES"
"ANESTHESIOLOGISTS ASSOCIATED PC","BIRMINGHAM","AL","352830550","$   248,035.45","NO"
"ANGELA M. MARTIN, M.D. F.A.A.P","ANNISTON","AL","362076012","$   7,162.94","YES"
"ANNISTON EMERG MED SVCS","ANNISTON","AL","362013836","$   23,129.50","YES"
"ANNISTON HEALTH AND REHAB SERVICES, LLC","BIRMINGHAM","AL","352425451","$   17,989.80","NO"
"ANNISTON PEDIATRICS, INC","ANNISTON","AL","362075782","$   52,780.76","NO"
"ANTHONY DENTAL SERVICES P.C.","DECATUR","AL","356036300","$   500.00","NO"
"APPALACHIAN CARDIOVASCULAR ASSOCIATES","FORT PAYNE","AL","359681613","$   41,105.01","YES"
"ARBOR SPRINGS HEALTH AND REHAB CENTER, LTD","OPELIKA","AL","368030068","$   60,750.33","NO"
"ARBOR WOODS HEALTH AND REHAB LLC","REFORM","AL","354810400","$   130,419.60","YES"
"ARJENNA' PARABASIC TRANSPORT LLC","MONTEVALLO","AL","351159109","$   6,509.98","NO"
"ARLINGTON REHABILITATION & HEALTHCARE CENTER, LLC","BIRMINGHAM","AL","352111619","$   21,331.54","NO"
"ASHFORD AMBULANCE AND RESCUE SQUAD","ASHFORD","AL","363120368","$   1,772.16","NO"
"ASHLAND PHARMACY INC","ASHLAND","AL","362510487","$   1,172.76","YES"
"ASHLAND PLACE HEALTH AND REHABILITATION, LLC","MOBILE","AL","366073408","$   22,284.07","NO"
"ASHVILLE FAMILY DENTISTRY, LLC","ASHVILLE","AL","359530129","$   500.00","NO"
"ASPIRE PHYSICAL RECOVERY CENTER AT CAHABA RIVER, LLC","VESTAVIA","AL","352432331","$   77,460.85","NO"
"ASPIRE PHYSICAL RECOVERY CENTER AT HOOVER, LLC","HOOVER","AL","352263732","$   58,968.38","NO"
"ASPIRE PHYSICAL RECOVERY CENTER OF WEST ALABAMA, LLC","NORTHPORT","AL","354763360","$   151,527.69","YES"
"ATHENS AND LIMESTONE COUNTY HEALTHCARE AUTHORITY","ATHENS","AL","356120999","$   21,561.36","YES"
"ATHENS HEALTH AND REHABILITATION LLC","ATHENS","AL","356112460","$   352,140.18","YES"
"ATHENS LIMESTONE HEALTH SERVICES","ATHENS","AL","356120999","$   128,023.07","YES"
"ATHENS LIMESTONE HEALTH SERVICES","HARVEST","AL","357496211","$   10,824.31","NO"
"ATHENS LIMESTONE PAIN CENTER","ATHENS","AL","356112451","$   3,708.82","YES"
"ATHENS LIMESTONE SLEEP CLINIC","ATHENS","AL","356111419","$   2,986.66","YES"
"ATHENS NEUROLOGICAL","ATHENS","AL","356121047","$   500.00","YES"
"ATHENS-LIMESTONE ER PHYSICIANS","ATHENS","AL","356120999","$   77,269.28","YES"
"ATMORE NURSING CENTER, LLC","ATMORE","AL","365023113","$   244,873.09","YES"
"ATTENTUS MOULTON, LLC","MOULTON","AL","356501256","$   250,665.16","YES"
"AUBURN PRIMARY CARE LLC","AUBURN","AL","368305789","$   2,460.59","NO"
"AXEL K OLSON MD PC","BIRMINGHAM","AL","352131947","$   657.03","NO"
"AZALEA HEALTH AND REHAB LLC","MOBILE","AL","366073508","$   6,595.44","NO"
"AZALEA HEALTH CARE, INC.","MOBILE","AL","366021112","$   2,141.25","NO"
"B & A CHILDRENS CLINIC PC","BOAZ","AL","359575854","$   143,199.71","YES"
"BABI PEDIATRICS,PC DBA PEDS459","BESSEMER","AL","350225655","$   4,159.53","NO"
"BAINBRIDGE ANESTHESIOLOGY, PC","MONTGOMERY","AL","361235019","$   10,392.79","YES"
"BALDWIN COUNTY TRANSITIONAL CARE LLC","FAIRHOPE","AL","365330587","$   1,626.10","YES"
"BALDWIN HEALTH AND REHAB LLC","FAIRHOPE","AL","365328301","$   20,343.79","NO"
"BALL HEALTHCARE DALLAS LLC","SELMA","AL","367032825","$   196,662.70","YES"
"BALL HEALTHCARE EASTVIEW INC","BIRMINGHAM","AL","352064425","$   7,172.51","NO"
"BALL HEALTHCARE LOWNDES INC","HAYNEVILLE","AL","360406033","$   144,867.23","YES"
"BALL HEALTHCARE-JEFFERSON INC","BIRMINGHAM","AL","352144484","$   5,895.24","NO"
"BALLARD PAIN & WELLNESS INC","PELL CITY","AL","351255128","$   14,566.81","YES"
"BALM INTERNATIONAL HEALTH CARE CENTERS, LLC","BIRMINGHAM","AL","352661495","$   5,915.81","YES"
"BANKS FAMILY DENTISTRY","HALEYVILLE","AL","355652136","$   6,155.38","YES"
"BARFIELD HEALTH CARE ACQUISITION CORPORATION","MONTGOMERY","AL","361093630","$   266,001.01","YES"
"BARKLEY COUNSELING CENTER, LLC","ENTERPRISE","AL","363302024","$   500.00","YES"
"BASEL REFAI MD PC","ALEXANDER CITY","AL","350103444","$   77,170.01","YES"
"BASHAR HAKIM MD, PC","SYLACAUGA","AL","351502904","$   30,567.18","YES"
"BAY HEALTH & WELLNESS, LLC","RED BAY","AL","355824192","$   5,060.23","YES"
"BAY HOME MEDICAL SERIVCES, INC.","JASPER","AL","355013400","$   25,663.32","YES"
"BAY MEDICAL FAMILY PRACTICE, P.C.","FARIHOPE","AL","365322613","$   1,877.37","YES"
"BAY TREE FAMILY CARE, P.C.","RED BAY","AL","355823861","$   12,133.51","YES"
"BAYOU PHARMACY LLC","IRVINGTON","AL","365444015","$   500.00","NO"
"BAYSIDE ORTHOPAEDIC & REHABILITATION CENTER, P.C","FAIRHOPE","AL","365331186","$   92,280.28","YES"
"BENNETT FAMILY DENTISTRY, LLC","MONTGOMERY","AL","36106","$   500.00","NO"
"BIO-MEDICAL APPLICATIONS OF ALABAMA, INC.","MOBILE","AL","366097866","$   1,746,692.61","YES"
"BIRMINGHAM ALLERGY & ASHMA SPECIALISTS, PC","HOMEWOOD","AL","352094164","$   500.00","NO"
"BIRMINGHAM HEALTH AND REHAB LLC","BIRMINGHAM","AL","352281103","$   9,993.96","NO"
"BIRMINGHAM NURSING AND REHABILITATION CENTER EAST,LLC","BIRMINGHAM","AL","352155046","$   17,040.31","NO"
"BIRMINGHAM NURSING AND REHABILITATION CENTER, LLC","BIRMINGHAM","AL","352144326","$   17,452.97","NO"
"BIRMINGHAM PEDIATRIC ASSOC","BIRMINGHAM","AL","35205","$   6,821.21","NO"
"BIRMINGHAM RADIOLOGICAL GROUP PC","BIRMINGHAM","AL","352012514","$   394,641.54","YES"
"BIRMINGHAM SURGERY CENTER","BIRMINGHAM","AL","352091913","$   28,633.92","NO"
"BLOUNT EMS INC","ONEONTA","AL","351210008","$   73,302.70","YES"
"BODALIA REHAB SERVICES, INC","ROBERTSDALE","AL","365673703","$   759.77","NO"
"BOOZER EYECARE ASSOCIATES, P.C.","CULLMAN","AL","350557601","$   30,002.37","YES"
"BRADFORD FAMILY HEALTHCARE PC","SCOTTSBORO","AL","357684263","$   31,942.64","YES"
"BRANNON STAND DRUGS, INC.","DOTHAN","AL","363056985","$   500.00","NO"
"BRIGHTSTARTS PEDIATRICS PC","MADISON","AL","357585417","$   4,292.31","NO"
"BROOKWOOD ENDODONTICS TUSCALOOSA, LLC","VESTAVIA","AL","352161258","$   500.00","NO"
"BROOKWOOD ENDODONTICS, P.C.","VESTAVIA","AL","352161258","$   500.00","NO"
"BROWN NURSING HOME, LLC","ALEX CITY","AL","350103569","$   138,819.62","YES"
"BUCKLEY AND BUCKLEY FAMILY DENTISTRY","MOBILE","AL","36608","$   500.00","YES"
"BURNS NURSING HOME, INC.","RUSSELLVILLE","AL","356531358","$   152,703.15","YES"
"BUTLER HEALTH AND REHAB LLC","BUTLER","AL","369042728","$   157,924.39","YES"
"C & G HEALTHCARE SERVICES, INC.","MC CALLA","AL","351113606","$   14,953.22","NO"
"C & H DISCOUNT DRUGS INC","FORT PAYNE","AL","359673418","$   500.00","YES"
"CAHABA MEDICAL CARE FOUNDATION","CENTREVILLE","AL","350422946","$   250,792.29","YES"
"CAHABA REGION MENTAL HEALTH/ MENTAL RETARDATION CENTER","SELMA","AL","367016780","$   6,297.56","YES"
"CAMDEN NURSING FACILITY INC","CAMDEN","AL","367262313","$   142,530.85","YES"
"CAMELLIA IMAGING LLC","BIRMINGHAM","AL","35244","$   1,224.31","NO"
"CAMPBELL VISION CENTER, INC.","RUSSELLVILLE","AL","356532568","$   21,091.98","YES"
"CAPSHAW FAMILY CARE","HARVEST","AL","357497264","$   2,408.86","NO"
"CAPSTONE HEALTH SERVICES FOUNDATION PC","TUSCALOOSA","AL","354017419","$   230,898.83","YES"
"CARDIOLOGY ASSOCIATES OF MOBILE INC","MOBILE","AL","366086758","$   439,932.88","YES"
"CARDIOLOGY ASSOCIATES, PA","DOTHAN","AL","363051051","$   231,893.55","YES"
"CARDIOVASCULAR INSTITUTE OF THE SHOALS PC","FLORENCE","AL","356301023","$   14,629.67","NO"
"CARE TEAM HOSPITALISTS LLC","GADSDEN","AL","359028307","$   500.00","YES"
"CAREGIVERS OF PLEASANT GROVE INC","HALEYVILLE","AL","355657056","$   12,204.18","NO"
"CARING CORPORATION INC","TROY","AL","360810787","$   313,906.51","YES"
"CARLA N THOMAS MD","ANNISTON","AL","362076248","$   1,012.69","YES"
"CAROLE L JOHNSON MD","DOTHAN","AL","363033948","$   1,718.40","NO"
"CATHERINE LOUISE YACK","HUNTSVILLE","AL","358014537","$   1,255.51","NO"
"CAVER GROUP LLC","AUTAUGAVILLE","AL","360030370","$   500.00","NO"
"CENTRAL FAMILY CLINIC, INC","FLORENCE","AL","356332702","$   569.94","NO"
"CENTRAL MOBILITY & REHAB EQUIPMENT INC.","BIRMINGHAM","AL","352550309","$   500.00","NO"
"CENTRAL NORTH ALABAMA HEALTH SERVICES, INC.","HUNTSVILLE","AL","358048488","$   37,605.58","YES"
"CENTRAL PEDIATRICS INC.","ATHENS","AL","356113620","$   95,502.27","YES"
"CHAPMAN HEALTHCARE CENTER, INC.","ALEX CITY","AL","350109075","$   327,644.68","YES"
"CHARLES A. CASARONA, MD","VALLEY","AL","368543549","$   28,204.18","YES"
"CHARLES HENDERSON MEMORIAL ASSOCIATION","TROY","AL","360810928","$   103,165.35","YES"
"CHARLES MURPHY","DAPHNE","AL","365265416","$   500.00","NO"
"CHASE FAMILY DENTISTRY, P.C.","HUNTSVILLE","AL","358118240","$   500.00","NO"
"CHATOM PRIMARY CARE PC","CHATOM","AL","365181237","$   88,594.81","YES"
"CHATTANOOGA EYE CARE, LLC","ATHENS","AL","356121189","$   500.00","YES"
"CHEAHA EYE ASSOCIATES PC","BIRMINGHAM","AL","352010203","$   12,906.30","YES"
"CHILDREN'S DENTISTRY OF CENTRAL ALABAMA, PC","SELMA","AL","367017756","$   98,082.52","YES"
"CHILDRENS MEDICAL GROUP P C","BIRMINGHAM","AL","352333215","$   4,877.07","NO"
"CHILDRENS URGENT CARE, LLC","BIRMINGHAM","AL","352428136","$   16,648.61","YES"
"CHILTON SHELBY SUGERY, LLC","CLANTON","AL","350452368","$   6,186.87","YES"
"CHIROPRACTIC CONNECTION","GULF SHORES","AL","365473211","$   721.53","YES"
"CHRISTA D. SPANN DMD, LLC","PHENIX CITY","AL","368677401","$   500.00","NO"
"CHRISTOPHER D. BORDEN, DMD PC","HALEYVILLE","AL","355650458","$   4,171.62","YES"
"CITY OF HEADLAND","HEADLAND","AL","363451850","$   16,672.78","YES"
"CIVIC CENTER HEALTH AND REHABILITATION, LLC","BIRMINGHAM","AL","352342726","$   13,700.92","NO"
"CLANTON FAMILY DENTISTRY,LLC","CLANTON","AL","350453461","$   500.00","YES"
"CLANTON PEDIATRICS OF ALABAMA PC","CLANTON","AL","350453418","$   37,698.93","YES"
"CLAY COUNTY HEALTHCARE AUTHORITY","ASHLAND","AL","362511270","$   751,368.07","YES"
"CLIFTON CARE INC","BOAZ","AL","359571763","$   27,369.09","YES"
"CLINICAL UROLOGY ASSOCIATES PC","GADSDEN","AL","359031156","$   91,177.60","YES"
"CLOVERDALE HEALTH CARE, INC.","SCOTTSBORO","AL","357684264","$   334,220.13","YES"
"COGITO MENTAL HEALTH SERVICES LLC","DOTHAN","AL","363034542","$   500.00","NO"
"COLE FAMILY DENTAL, P.C.","ATHENS","AL","356132664","$   500.00","NO"
"COLUMBIANA HEALTH AND REHABILITATION, LLC","COLUMBIANA","AL","350513502","$   22,192.06","NO"
"COLUMBUS HOSPICE OF ALABAMA","PHENIX CITY","AL","368674908","$   59,572.47","NO"
"COMMUNITY CARE OF KENTUCKY, INC","ANNISTON","AL","362022369","$   6,801.86","NO"
"COMMUNITY HEALTH, INC.","ROGERSVILLE","AL","356520426","$   34,550.52","NO"
"COMMUNITY HOSPITAL INC","TALLASSEE","AL","360781234","$   723,053.05","YES"
"COMPREHENSIVE PEDIATRICS AND INTERNAL MEDICINE, LLC","HOOVER","AL","352360477","$   500.00","NO"
"CONCENTRIC HOSPITALIST GROUP PC","CALERA","AL","35040","$   8,405.41","NO"
"COOPERS MENTAL HEALH CONSULTATIONS","MONTGOMERY","AL","361178874","$   500.00","NO"
"COOSA EYE ASSOCIATES, P.C.","CHILDERSBURG","AL","350440510","$   5,565.04","YES"
"COOSA FAMILY CARE, LLC","RAINBOW CITY","AL","359063236","$   500.00","NO"
"COOSA VALLEY HEALTHCARE CENTER LLC","SYLACAUGA","AL","351503316","$   281,902.97","YES"
"COOSA VALLEY RESPIRATORY & HOME MEDICAL, INC.","JASPER","AL","355013400","$   59,942.96","YES"
"CORDOVA HEALTH AND REHABILITATION LLC","CORDOVA","AL","355501416","$   296,641.41","YES"
"CORNERSTONE FITNESS AND WELLNESS","CLANTON","AL","350461200","$   14,149.98","YES"
"COTTRELL'S HOMETOWN PHARMACY PC","EAST BREWTON","AL","364262620","$   500.00","YES"
"CRADDOCK HEALTH CENTER P C","SYLACAUGA","AL","351502975","$   79,731.55","YES"
"CRENSHAW COUNTY HEALTH CARE AUTHORITY","LUVERNE","AL","360497329","$   522,925.28","YES"
"CRIMSON HEALTH AND REHAB LLC","MONTGOMERY","AL","361163155","$   8,842.86","NO"
"CRMC MEDICAL GROUP LLC","CULLMAN","AL","350562895","$   49,282.26","YES"
"CRNA SERVICES OF DGH","DECATUR","AL","356092239","$   3,631.36","NO"
"CROSSVILLE HEALTH AND REHABILITATION LLC","CROSSVILLE","AL","359623272","$   372,044.55","YES"
"CROWNE HEALTH CARE OF CITRONELLE, LLC","CITRONELLE","AL","365222051","$   30,305.58","NO"
"CROWNE HEALTH CARE OF EUFAULA, LLC","EUFAULA","AL","360271820","$   379,899.21","YES"
"CROWNE HEALTH CARE OF FORT PAYNE, LLC","FORT PAYNE","AL","359673145","$   292,946.34","YES"
"CROWNE HEALTH CARE OF GREENVILLE, LLC","GREENVILLE","AL","360371310","$   270,517.43","YES"
"CROWNE HEALTH CARE OF MOBILE, LLC","MOBILE","AL","366052498","$   14,109.24","NO"
"CROWNE HEALTH CARE OF MONTGOMERY, LLC","MONTGOMERY","AL","361071333","$   44,899.90","NO"
"CROWNE HEALTH CARE OF SPRINGHILL, LLC","MOBILE","AL","366081725","$   15,522.23","NO"
"CROWNE HEALTH CARE OF THOMASVILLE,LLC","MONROEVILLE","AL","364602615","$   156,567.81","YES"
"CULLMAN PRIMARY CARE, PC","CULLMAN","AL","350551921","$   553,695.67","YES"
"CULLMAN RADIATION THERAPY SERVICES, P.C.","CULLMAN","AL","350583628","$   57,503.41","YES"
"CULLMAN REGIONAL ANESTHESIA SERVICES LLC","CULLMAN","AL","350561108","$   59,594.57","YES"
"CULLMAN REGIONAL MEDICAL CENTER INC.","CULLMAN","AL","350561108","$   4,698,377.53","YES"
"CULLMAN REGIONAL MEDICAL GROUP HOSPITALISTS LLC","CULLMAN","AL","350562895","$   12,363.65","YES"
"CULLMAN REGIONAL PAINSERVICES LLC","CULLMAN","AL","350561108","$   12,063.80","YES"
"CULLMAN SURGICAL ASSOCIATES, P.C.","CULLMAN","AL","350553662","$   19,821.53","YES"
"CUMBERLAND RADIATION ASSOCIATES LLC","MUSCLE SHOALS","AL","356611517","$   32,743.96","YES"
"D.W. MCMILLAN MEMORIAL HOSPITAL","FLOMATON","AL","364414556","$   1,245,859.28","YES"
"DADEVILLE HEALTHCARE CENTER LLC","DADEVILLE","AL","368531415","$   199,311.38","YES"
"DALE MEDICAL CENTER","OZARK","AL","363602018","$   1,270,613.75","YES"
"DALEVILLE DENTAL, LLC","DALEVILLE","AL","363222000","$   1,183.43","YES"
"DANDRIDGE DENTAL PC","DOTHAN","AL","363014744","$   4,327.17","NO"
"DARLENE GUTTRIDGE DDS, LLC","SCOTTSBORO","AL","357682411","$   523.22","YES"
"DARYL G. CUSTRED, O.D., L.L.C.","JASPER","AL","355018955","$   9,032.67","YES"
"DAVID C ALLGOOD","CENTREVILLE","AL","350422332","$   13,576.96","YES"
"DAVID G CHANDLER OD PC","JACKSONVILLE","AL","362653312","$   1,457.50","NO"
"DAVID H. ARNOLD,M.D.P.C.","GENEVA","AL","36340","$   6,940.32","NO"
"DAVID M. MCCALMAN II, M.D., P.C.","ANDALUSIA","AL","364205353","$   6,575.51","YES"
"DAVIS EYE CARE, PC","ATHENS","AL","356120032","$   14,334.91","YES"
"DCH HEALTHCARE AUTHORITY","TUSCALOOSA","AL","354053771","$   41,137.90","YES"
"DCH MEDICAL CENTER CRNA","TUSCALOOSA","AL","354012030","$   31,478.93","NO"
"DECATUR MORGAN GASTROENTEROLOGY","DECATUR","AL","356092239","$   1,189.09","NO"
"DECATUR MORGAN HOSPITALIST GROUP","HUNTSVILLE","AL","358042705","$   8,619.38","NO"
"DECATUR MORGAN INFECTIOUS DISEASES & TRAVEL MEDICINE","DECATUR","AL","35609","$   1,510.74","NO"
"DECATUR MORGAN INTERNAL MEDICINE","DECATUR","AL","356092239","$   976.63","NO"
"DECATUR MORGAN NEUROLOGY","DECATUR","AL","356092239","$   3,718.83","NO"
"DECATUR MORGAN PEDIATRICS","DECATUR","AL","356029011","$   5,546.58","NO"
"DECATUR MORGAN PRIMARY CARE","DECATUR","AL","356092239","$   717.15","NO"
"DECATUR WOMEN'S HEALTHCARE","DECATUR","AL","356013397","$   4,053.72","NO"
"DEKALB RADIOLOGIST GROUP, LLC","BIRMINGHAM","AL","352097718","$   39,489.02","YES"
"DENTAL CARE OF OZARK LLC","OZARK","AL","363603705","$   848.47","NO"
"DENTAL CONCEPTS, LLC","MONTGOMERY","AL","361063634","$   500.00","NO"
"DENTON DENTAL OF ATMORE PC DBA SAVE-ON DENTAL CARE OF ATMORE","ATMORE","AL","365022601","$   1,088.87","YES"
"DENTREMONT DENTAL SERVICES PC","GULF SHORES","AL","365425710","$   500.00","YES"
"DERMATOLOGY AND LASER OF ALABAMA PC","MOUNTAIN BRK","AL","352232424","$   3,094.66","NO"
"DERMATOLOGY OF NORTH ALABAMA, INC.","GUNTERSVILLE","AL","359762205","$   72,937.07","YES"
"DESTINY THERAPEUTIC SOLUTIONS","MOUNTAIN BRK","AL","352232520","$   500.00","NO"
"DHS OF BLOUNT COUNTY, LLC","ONEONTA","AL","351212720","$   179,595.10","YES"
"DIGESTIVE DISEASES ASSOCIATES","DECATUR","AL","356014340","$   1,036.82","NO"
"DIVERSICARE HARTFORD, LLC","HARTFORD","AL","363441459","$   59,896.82","NO"
"DIVERSICARE LEASING CORP.","MOBILE","AL","366935614","$   1,113,590.89","YES"
"DIVERSICARE OF ARAB LLC","ARAB","AL","350161477","$   226,327.12","YES"
"DIVERSICARE OF BESSEMER LLC","BESSEMER","AL","350226024","$   23,521.11","NO"
"DIVERSICARE OF BIG SPRINGS LLC","HUNTSVILLE","AL","358015021","$   59,325.83","NO"
"DIVERSICARE OF BOAZ LLC","BOAZ","AL","359575952","$   305,776.58","YES"
"DIVERSICARE OF FOLEY LLC","FOLEY","AL","365352246","$   322,750.45","YES"
"DIVERSICARE OF HUEYTOWN LLC","HUEYTOWN","AL","350232368","$   4,761.74","NO"
"DIVERSICARE OF LANETT LLC","LANETT","AL","368632834","$   191,259.01","YES"
"DIVERSICARE OF MONTGOMERY LLC","MONTGOMERY","AL","361061614","$   27,800.81","NO"
"DIVERSICARE OF ONEONTA LLC","ONEONTA","AL","351211334","$   220,238.99","YES"
"DIVERSICARE OF OXFORD LLC","OXFORD","AL","362032444","$   96,601.37","NO"
"DIVERSICARE OF PELL CITY LLC","PELL CITY","AL","351252477","$   186,108.61","YES"
"DIVERSICARE OF RIVERCHASE LLC","BIRMINGHAM","AL","352441226","$   24,295.71","NO"
"DIVERSICARE OF SELMA LLC","SELMA","AL","367017743","$   334,849.64","YES"
"DIVERSICARE OF WINFIELD LLC","WINFIELD","AL","355945570","$   312,738.19","YES"
"DIVERSICARE WINDSOR HOUSE, LLC","HUNTSVILLE","AL","358053205","$   12,993.35","NO"
"DONNA WEST","DOTHAN","AL","363013016","$   1,167.41","NO"
"DOTHAN ANESTHESIOLOGY ASSOCIATES PC","MONTGOMERY","AL","361235019","$   63,033.40","NO"
"DOTHAN BEHAVIORAL MEDICINE CLINIC PC","DOTHAN","AL","363032054","$   26,966.24","NO"
"DOTHAN HOUSTON COUNTY MR BOARD INC.","DOTHAN","AL","363040646","$   500.00","NO"
"DOTHAN MEDICAL ASSOCIATES, P.C.","DOTHAN","AL","363013023","$   292,920.29","NO"
"DOTHAN PSYCHIATRY & SLEEP DISORDERS MEDICINE, PC","DOTHAN","AL","363011051","$   4,725.00","NO"
"DR CELESTE REESE WILLIS MEDICAL GROUP LLC","BIRMINGHAM","AL","352428672","$   500.00","NO"
"DR DALE MITCHUM INC","GENEVA","AL","363400900","$   20,265.69","YES"
"DR MARY C BELL AND ASSOCIATES, PC","TUSKEGEE","AL","360831714","$   500.00","YES"
"DR SUMPTER D BLACKMON PA","CAMDEN","AL","367260699","$   7,419.42","YES"
"DR. JAMES NABERS DO PC","RED BAY","AL","355820219","$   10,044.94","YES"
"DR. JAMES P BERETTA PC","PELHAM","AL","351244358","$   1,057.63","NO"
"DR. ROBERT H MEICHNER MD., P.C.","FAIRHOPE","AL","365323854","$   2,793.71","NO"
"DRS. JAMES & KATHRYN MIZE PC","DECATUR","AL","356014306","$   4,768.43","NO"
"E WYATT","SELMA","AL","367016538","$   1,222.03","YES"
"EAMC EYE CLINIC LLC","OPELIKA","AL","368015442","$   8,743.57","NO"
"EARL M WYATT MD","SELMA","AL","367016538","$   22,741.35","YES"
"EAST ALABAMA ALLERGY AND ASTHMA, PLLC","OPELIKA","AL","368015459","$   8,226.74","YES"
"EAST ALABAMA APOTHECARY, LLC","AUBURN","AL","368304069","$   1,929.56","YES"
"EAST ALABAMA EMS LLC","OPELIKA","AL","368015452","$   60,361.96","YES"
"EAST ALABAMA HEALTH SERVICES LLC","OPELIKA","AL","368015452","$   558.53","NO"
"EAST ALABAMA HEART AND VASCULAR, LLC","OPELIKA","AL","368014784","$   138,373.85","YES"
"EAST ALABAMA HOMEMED LLC","OPELIKA","AL","368034043","$   64,729.28","NO"
"EAST ALABAMA MENTAL HEALTH-MENTAL RETARDATION BOARD INCORPOR","OPELIKA","AL","368017237","$   9,967.48","YES"
"EAST ALABAMA ORTHOPAEDICS AND SPORTS MEDICINE, LLC","OPELIKA","AL","368015452","$   54,458.04","YES"
"EAST ALABAMA PHYSICIANS, LLC","OPELIKA","AL","368015452","$   4,634.22","YES"
"EAST ALABAMA WATER, SEWER, & FIRE PROTECTION DISTRICT","VALLEY","AL","368545076","$   34,539.66","YES"
"EAST CENTRAL MENTAL HEALTH MENTAL RETARDATION, INC.","TROY","AL","360812044","$   8,287.12","YES"
"EAST GLEN, LLC","BIRMINGHAM","AL","352425451","$   34,430.40","NO"
"EAST LIMESTONE EYE CARE, P.C.","ATHENS","AL","356137565","$   1,687.86","NO"
"EASTERN SHORE CHILDREN'S CLINIC","FAIRHOPE","AL","365330989","$   34,152.63","NO"
"EASTERN SHORE DEVELOPMENTAL CLINIC","DAPHNE","AL","365265123","$   4,884.87","NO"
"EASTERN SHORE EAR, NOSE & THROAT CLINIC, PC","FAIRHOPE","AL","365322038","$   16,784.44","NO"
"EASTERN SHORE HEART CENTER","FAIRHOPE","AL","365323843","$   22,265.56","NO"
"EASTSIDE FAMILY MEDICINE","ATHENS","AL","356132896","$   2,879.83","YES"
"EASTSIDE P.E.T. CENTER, LLC","JASPER","AL","355013400","$   5,003.80","YES"
"ECM HOME HEALTH SERVICES,INC.","MOBILE","AL","366958539","$   58,093.06","NO"
"EDEMA THERAPY COMPANY","DAPHNE","AL","365264657","$   2,127.74","NO"
"EICH PLASTIC SURGERY PC","BIRMINGHAM","AL","352353445","$   1,563.49","NO"
"EIGHT MILE NURSING AND REHABILITATION CENTER, LLC","EIGHT MILE","AL","366133508","$   35,877.13","NO"
"EL REPOSO NURSING FACILITY","FLORENCE","AL","356344757","$   8,808.70","NO"
"ELBA NURSING AND REHABILITATION CENTER LLC","ELBA","AL","363231402","$   245,916.57","YES"
"ELITE PODIATRY INC","MADISON","AL","357583161","$   2,870.40","YES"
"ELKMONT COMMUNITY CARE","ELKMONT","AL","356206608","$   7,616.41","YES"
"EMERGENCY PHYSICIANS GROUP","BIRMINGHAM","AL","352460314","$   114,064.01","NO"
"ENCORE REHABILITATION INC","DECATUR","AL","356012515","$   355,041.20","YES"
"ENGLEWOOD HEALTH CARE CENTER, LLC","MONROEVILLE","AL","364603044","$   258,503.10","YES"
"ENGLISH DENTAL, LLC","ATHENS","AL","356135994","$   500.00","NO"
"ENTERPRISE RESCUE INC.","ENTERPRISE","AL","363302284","$   101,157.81","YES"
"EPISCOPAL FOUNDATION OF JEFFERSON COUNTY","BIRMINGHAM","AL","352102418","$   7,906.87","NO"
"ERNEST I OKEKE MD","SELMA","AL","367014518","$   2,926.81","YES"
"ESCAMBIA COUNTY ALABAMA COMMUNITY HOSPITALS, INC","ATMORE","AL","365023006","$   860,411.26","YES"
"ESSIE M B SMITH FOOT CLINIC","MONTGOMERY","AL","361092919","$   5,651.08","NO"
"ESTES CHIROPRACTIC LLC","BIRMINGHAM","AL","35242","$   500.00","NO"
"ETAGBO ETA MD PC","GADSDEN","AL","359015212","$   5,216.73","YES"
"ETOWAH FOOT SPECIALISTS, INC.","GADSDEN","AL","359014214","$   9,902.82","YES"
"ETOWAH GASTROENTEROLOGY ASSOCIATES, PC","GADSDEN","AL","359031194","$   15,633.34","YES"
"EVERGREEN MEDICAL CENTER LLC","EVERGREEN","AL","364010706","$   876,017.66","YES"
"EVERGREEN NURSING HOME, LLC","EVERGREEN","AL","364013306","$   152,190.93","YES"
"EXPRESS HEALTHCARE INC","FAIRHOPE","AL","365331982","$   45,823.21","YES"
"EXTENDED CARE MEDICAL ASSOCIATES LLC","DOTHAN","AL","363051168","$   8,405.47","YES"
"EXTENDICARE, INC","DOTHAN","AL","363023684","$   91,909.94","NO"
"EYE CENTER OF ALABAMA PC","JASPER","AL","355013425","$   71,229.94","YES"
"EYE CENTER SURGEONS & ASSOC LLC","HUNTSVILLE","AL","358014719","$   35,128.70","YES"
"EYE PARTNERS PC","DOTHAN","AL","363012040","$   598,724.25","YES"
"EYE SURGERY CENTER OF NORTH ALABAMA, INC.","HUNTSVILLE","AL","358016900","$   68,727.93","NO"
"EYE SURGICAL ASSOCIATES P C","DOTHAN","AL","363054904","$   82,997.75","YES"
"EYECARE PROFESSIONALS, P.C.","RUSSELLVILLE","AL","356531177","$   23,827.51","YES"
"F D C INC","VALLEY","AL","368544903","$   2,062.13","YES"
"FAIRHOPE DENTAL ASSOCIATES LLC","FAIRHOPE","AL","365321922","$   1,344.47","NO"
"FAIRHOPE HEALTH & WELLNESS CENTER","FAIRHOPE","AL","365322949","$   500.00","NO"
"FAIRHOPE PEDIATRICS, INC.","FAIRHOPE","AL","36532","$   13,566.64","NO"
"FALKVILLE MEDICAL CLINIC, LLC","FALKVILLE","AL","356225109","$   7,046.31","YES"
"FAMILY EYE CARE OF SYLACAUGA LLC","SYLACAUGA","AL","35150","$   51,867.89","YES"
"FAMILY HEALTH CLINIC OF UNION SPRINGS, INC.","UNION SPRINGS","AL","360891418","$   21,318.49","YES"
"FAMILY MEDICAL OF MOBILE,LLC","MOBILE","AL","36619","$   2,036.96",
"FAMILY PRACTICE ASSOCIATES LLC","LUVERNE","AL","360497306","$   39,010.75","YES"
"FAMILY PRACTICE CENTER OF ABBEVILLE,P.A.","ABBEVILLE","AL","363102836","$   33,914.88","YES"
"FAMILY VISION AND HEARING COMPANY LLC","FOLEY","AL","365360371","$   6,163.05","YES"
"FAULDS CHIROPRACTIC LLC","HAMPTON COVE","AL","357639271","$   526.19","NO"
"FAYETTE MEDICAL CENTER","FAYETTE","AL","355550710","$   1,098,468.45","YES"
"FAYETTE MEDICAL CENTER-CRNA","FAYETTE","AL","355551314","$   3,974.04","YES"
"FERRELL FAMILY DENTAL, P.C.","GULF SHORES","AL","365423435","$   7,706.89","YES"
"FISCHER FAMILY MEDICINE PC","ASHLAND","AL","362510308","$   31,022.71","YES"
"FLORALA HEALTH AND REHABILITATION, LLC","FLORALA","AL","364423652","$   185,573.35","YES"
"FLORENCE NURSING AND REHABILITATION CENTER, LLC","FLORENCE","AL","356301503","$   66,831.56","NO"
"FLORENCE OPHTHALMOLOGY PC","FLORENCE","AL","356301189","$   36,009.63","NO"
"FMC MEDICAL CLINIC - FAYETTE LLC","TUSCALOOSA","AL","354053771","$   10,451.19","YES"
"FMC MEDICAL CLINIC MILLPORT","TUSCALOOSA","AL","354053771","$   20,000.79","YES"
"FMS ENDEAVOUR DIALYSIS CENTER, LLC","HUNTSVILLE","AL","358161113","$   4,700.47","NO"
"FOCUS PHYSIOTHERAPY, LLC","HUNTSVILLE","AL","35801","$   1,395.72","NO"
"FORT MITCHELL CLINIC PC","PHENIX CITY","AL","368672943","$   2,542.53","YES"
"FORT PAYNE PEDIATRICS, LLC","FORT PAYNE","AL","359683546","$   426,087.71","YES"
"FORUM GREEN, INC.","ATHENS","AL","356112333","$   279,961.79","YES"
"FOUNDATIONS COUNSELING CENTER, INC.","MADISON","AL","357566100","$   535.44","YES"
"FREDERICO FERNANDEZ, MD. PC","FORT PAYNE","AL","35968","$   8,909.00","YES"
"FRESENIUS KIDNEY CARE ATTALLA, LLC","ATTALLA","AL","359543362","$   7,520.74","NO"
"FRESENIUS KIDNEY CARE GADSDEN ACQ, LLC","GADSDEN","AL","359031146","$   22,562.23","NO"
"FRESENIUS KIDNEY CARE PHENIX CITY, LLC","PHENIX CITY","AL","368677425","$   6,580.65","NO"
"FRESENIUS KIDNEY CARE UNION SPRINGS, LLC","UNION SPRINGS","AL","360891303","$   58,285.76","YES"
"FRESENIUS MEDICAL CARE ALBERTVILLE, LLC","ALBERTVILLE","AL","359517247","$   79,907.90","YES"
"FRESENIUS MEDICAL CARE ANNISTON HOME, LLC","ANNISTON","AL","362013219","$   23,502.32","NO"
"FRESENIUS MEDICAL CARE BALDWIN COUNTY, LLC","FAIRHOPE","AL","365321906","$   26,322.60","NO"
"FRESENIUS MEDICAL CARE BIRMINGHAM HOME LLC","BIRMINGHAM","AL","352097254","$   59,225.85","NO"
"FRESENIUS MEDICAL CARE HUNTSVILLE HOME, LLC","HUNTSVILLE","AL","358013827","$   35,723.53","NO"
"FRESENIUS MEDICAL CARE MOBILE AREA, LLC","MOBILE","AL","366023932","$   58,285.76","NO"
"FRESENIUS MEDICAL CARE TRUSSVILLE, LLC","BIRMINGHAM","AL","352353193","$   3,760.37","NO"
"FRESENIUS MEDICAL CARE WEST MADISON, LLC","MADISON","AL","357563639","$   18,801.86","NO"
"FRESH WAVE DENTAL CARE","ENTERPRISE","AL","363302079","$   6,547.32","YES"
"FYFFE PHARMACY, LLC","FYFFE","AL","359710067","$   1,124.40","YES"
"G & G MEDICAL CARE INC.","HELENA","AL","350803395","$   801.19","NO"
"G I ASSOCIATES OF WEST ALABAMA PC","TUSCALOOSA","AL","354062136","$   56,330.17","NO"
"GACEK EAR AND SINUS CENTER LLC","MOBILE","AL","366081183","$   4,033.07","NO"
"GADSDEN FAMILY CHIROPRACTIC","GADSDEN","AL","35901","$   500.00","NO"
"GADSDEN LUNG CENTER, P.C. INC","GADSDEN","AL","359021859","$   4,247.44","NO"
"GADSDEN SURGERY CENTER LP","GADSDEN","AL","359015102","$   57,045.90","NO"
"GANA HOLDINGS, LLC","SNEAD","AL","359526468","$   6,415.34","YES"
"GARRETT COUNSELING AND CONSULTING","JACKSONVILLE","AL","36265","$   10,733.84","YES"
"GARY A. EBERLY, MD PC","FOLEY","AL","365355467","$   63,523.56","YES"
"GENERATIONS OF RED BAY, LLC","RED BAY","AL","355823800","$   136,230.90","YES"
"GENERATIONS OF VERNON, LLC","VERNON","AL","355924823","$   306,308.24","YES"
"GENEVA COUNTY HEALTHCARE AUTHORITY INC","GENEVA","AL","363401642","$   435,148.56","YES"
"GENEVA MEDICAL GROUP INC","GENEVA","AL","363401609","$   16,688.27","YES"
"GENEVA RESCUE SQUAD","GENEVA","AL","363400175","$   8,643.80","YES"
"GEORGIA MEDICAL SUPPLY OF RICHLAND , INC","BIRMINGHAM","AL","352550309","$   7,626.44","YES"
"GEORGIANA HEALTH AND REHABILITATION, LLC","GEORGIANA","AL","360333300","$   237,211.53","YES"
"GERICARE MEDICAL SUPPLY INC","MONROEVILLE","AL","364602615","$   23,798.42","YES"
"GHS JMC CLINICS LLC","JACKSON","AL","365452423","$   107,207.05","YES"
"GIBSON DENTAL LLC","MADISON","AL","357583667","$   500.00","NO"
"GLEN HAVEN HEALTH AND REHABILITATION, LLC","NORTHPORT","AL","354765230","$   63,447.19","NO"
"GLENWOOD, INC.","BIRMINGHAM","AL","352425700","$   6,745.03","NO"
"GLOBAL EYE CARE, P.C.","TUSCALOOSA","AL","354071588","$   5,823.19","NO"
"GO MEDICAL CORPORATION, PC","BOAZ","AL","359575937","$   100,589.15","YES"
"GONZALEZ & CARR PC","BIRMINGHAM","AL","352428008","$   500.00","NO"
"GOODWATER HEALTHCARE CENTER LLC","GOODWATER","AL","350729462","$   119,001.80","YES"
"GRAND BAY CONVALESCENT HOME INC","GRAND BAY","AL","365410328","$   5,553.94","NO"
"GREATER ALABAMA FAMILY FOOT CARE, INC","LANETT","AL","368632840","$   10,331.80","YES"
"GREATER MOBILE PHYSICIANS FOR WOMEN PC","MOBILE","AL","366953921","$   500.00","NO"
"GREEN POND VOLUNTEER FIRE DEPT INC","BIRMINGHAM","AL","352361706","$   6,638.80","YES"
"GREENBRIAR AT THE ALTAMONT, LLC","BIRMINGHAM","AL","352425451","$   6,273.73","NO"
"GREENE COUNTY HOSPITAL & NURSING HOME","EUTAW","AL","354621064","$   364,403.20","YES"
"GREGORY CHAD GREEN OD","DEMOPOLIS","AL","367324127","$   28,876.75","YES"
"GREGORY M. SWEENEY, JR. D.M.D., P.C.","MOBILE","AL","366061482","$   500.00","NO"
"GROWING TOGETHER PEDIATRICS","DECATUR","AL","356092239","$   9,619.68","NO"
"GS PHARMACY LLC","GULF SHORES","AL","365423415","$   500.00","YES"
"GUIDE COUNSELING SERVICES, LLC","GADSDEN","AL","359013708","$   500.00","NO"
"GULF COAST HEALTH AND REHABILITATION LLC","MOBILE","AL","366958976","$   15,760.00","NO"
"GULF HEALTH HOSPITALS INC","FAIRHOPE","AL","365330929","$   2,941,247.68","YES"
"GULF REGIONAL PATHOLOGISTS PA","MOBILE","AL","366911498","$   32,812.73","YES"
"GULF SHORES PEDIATRICS PC","GULF SHORES","AL","36542","$   31,859.30","YES"
"HALE CO HLTH/HALE CO EMS","GREENSBORO","AL","367442516","$   46,889.82","YES"
"HALE COUNTY HOSPITAL","GREENSBORO","AL","367442316","$   673,684.05","YES"
"HALEYVILLE HEALTH CARE CENTER INC","HALEYVILLE","AL","355650160","$   162,028.55","YES"
"HALEYVILLE MEDICAL ASSOCIATES, INC.","HALEYVILLE","AL","355657064","$   142,352.30","YES"
"HANCEVILLE NURSING & REHAB CENTER INC.","HANCEVILLE","AL","350775455","$   515,958.60","YES"
"HANDS OF HOPE HEALTH CARE CENTER","MOBILE","AL","366171539","$   500.00","YES"
"HANNAHAN ENDODONTIC GROUP","MOBILE","AL","36608","$   500.00","NO"
"HARTSELLE FAMILY DENTISTRY, LLC","HARTSELLE","AL","356402818","$   500.00","NO"
"HARTSELLE FAMILY PRACTICE","HARTSELLE","AL","356402339","$   1,797.96","NO"
"HARTSELLE MED-PEDS","DECATUR","AL","356092239","$   1,021.52","NO"
"HASHIM J. HASSAN,D.M.D.,P.C.","DOTHAN","AL","363011361","$   500.00","NO"
"HATLEY HEALTH CARE, INC.","CLANTON","AL","350452321","$   234,634.59","YES"
"HAYNES AMBULANCE OF ALABAMA, INC","WETUMPKA","AL","360920028","$   106,351.94","YES"
"HAYNES AMBULANCE OF ELMORE COUNTY, L.L.C.","WETUMPKA","AL","360920028","$   53,192.34","YES"
"HAYNES AMBULANCE OF TROY LLC","WETUMPKA","AL","360920028","$   186,574.93","YES"
"HAYNES LIFE FLIGHT LLC","WETUMPKA","AL","360920028","$   16,100.30","YES"
"HAZEL GREEN PEDIATRICS","HUNTSVILLE","AL","358042705","$   1,349.87","NO"
"HEALING TOUCH CHIROPRACTIC, PC","MOBILE","AL","366953954","$   500.00","NO"
"HEALTH CARE AUTHORITY OF THE CITY OF HUNTSVILLE","HUNTSVILLE","AL","358042705","$   9,586.05","NO"
"HEALTH CARE, INC.","ASHVILLE","AL","359537338","$   10,929.95","NO"
"HEALTH IMAGING SERVICES LLC","CULLMAN","AL","350556038","$   19,026.59","YES"
"HEALTHCARE AUTHORITY OF THE CITY OF HUNTSVILLE","HUNTSVILLE","AL","358042705","$   64,450.03","YES"
"HEALTHCARE AUTHORITY OF THE CITY OF HUNTSVILLE","HUNTSVILLE","AL","358042705","$   9,318.27","NO"
"HEALTHCARE AUTHORITY OF THE CITY OF HUNTSVILLE","HUNTSVILLE","AL","358042705","$   12,895.37","YES"
"HEALTHCARE AUTHORITY OF THE CITY OF HUNTSVILLE","HUNTSVILLE","AL","358042705","$   2,525.37","NO"
"HEALTHYKIDS OF GARDENDALE","GARDENDALE","AL","350712543","$   2,646.05","NO"
"HEART GROUP OF THE EASTERN SHORE, P.C.","FAIRHOPE","AL","365332038","$   11,036.33","YES"
"HEART HEALTH CENTER PC","FLORENCE","AL","356305767","$   51,457.61","NO"
"HEART SOUTH CARDIOVASCULAR GROUP, P.C.","ALABASTER","AL","35007","$   195,362.48","YES"
"HEARTS SOUTH PC","DOTHAN","AL","363013002","$   91,560.56","YES"
"HELENA FAMILY PODIATRY, PC","HOOVER","AL","352443540","$   4,233.85","YES"
"HELPING HANDS PROFESSIONAL COUNSELING AND CONSULTING, LLC","GREENVILLE","AL","360370098","$   1,209.68","YES"
"HEMANT K SINHA PC","RAINBOW CITY","AL","359067027","$   15,132.18","NO"
"HEMATOLOGY AND ONCOLOGY ASSOCIATES OF ALABAMA, LLC","BIRMINGHAM","AL","352136329","$   170,780.02","YES"
"HENDRIX HEALTH CARE CENTER, INC.","DOUBLE SPRINGS","AL","355534700","$   244,532.71","YES"
"HENRY COUNTY NURSING HOME","ABBEVILLE","AL","363102800","$   215,576.41","YES"
"HENRY R. GRIFFITH, PH.D.","VESTAVIA","AL","352163750","$   500.00","NO"
"HERITAGE EYE CARE","ATHENS","AL","356121189","$   781.42","NO"
"HERITAGE HEALTH CARE & REHAB, INC.","TUSCALOOSA","AL","354062015","$   45,444.82","NO"
"HGA HOME MEDICAL EQUIPMENT LLC","JASPER","AL","355013400","$   173,757.85","YES"
"HH DIGESTIVE DISEASE CENTER","HUNTSVILLE","AL","358013763","$   44,355.45","NO"
"HH HEALTH SYSTEM - CARING FOR LIFE","HUNTSVILLE","AL","358033385","$   48,178.83","NO"
"HH HEALTH SYSTEM - MORGAN LLC","DECATUR","AL","356013337","$   723,372.22","YES"
"HH HEALTH SYSTEM - SHOALS, LLC","SHEFFIELD","AL","35660","$   1,489,864.01","YES"
"HH HEALTH SYSTEM MARSHALL LLC","GUNTERSVILLE","AL","359765766","$   6,420,859.70","YES"
"HH HEALTH SYSTEM-MORGAN INC.","HUNTSVILLE","AL","358014312","$   1,220.66","NO"
"HH HEART CENTER LLC","HUNTSVILLE","AL","358014312","$   379,113.95","YES"
"HH OBSERVATON CENTER","BIRMINGHAM","AL","352462280","$   3,111.01","NO"
"HH OBSTETRICS & GYNECOLOGY","HUNTSVILLE","AL","358042705","$   8,725.07","NO"
"HH PEDIATRIC ENDOCRINOLOGY & DIABETES","HUNTSVILLE","AL","358042705","$   500.00","NO"
"HH PHYSICIAN CARE-ELKTON TENNESSEE","HUNTSVILLE","AL","358042705","$   11,633.10","YES"
"HH SURGICAL ASSOCIATES-ROBERT LANCASTER MD","HUNTSVILLE","AL","358042705","$   4,830.87","NO"
"HH-HEALTH SYSTEM - ATHENS LIMESTONE LLC","ATHENS","AL","356120999","$   2,029,967.98","YES"
"HIGHFIVE PROFESSIONAL SERVICES P.C.","BIRMINGHAM","AL","352331819","$   500.00","NO"
"HIGHLAND HEALTH SYSTEMS","ANNISTON","AL","362075731","$   1,646.73","YES"
"HIGHLANDS FAMILY MEDICINE LLC","SCOTTSBORO","AL","35768","$   32,449.46","YES"
"HIGHLANDS HOSPITALISTS SERVICES LLC","SCOTTSBORO","AL","357682428","$   30,824.64","YES"
"HIGHLANDS SURGICAL SERVICES LLC","SCOTTSBORO","AL","357681050","$   40,331.70","YES"
"HILL HOSPITAL OF YORK","YORK","AL","369252122","$   180,935.72","YES"
"HILLVIEW ACQUISITION CORPORATION","MONTGOMERY","AL","361093630","$   117,041.27","NO"
"HIRENKUMAR JANI MD PC","ALABASTER","AL","350072061","$   4,211.26","YES"
"HODGES CLINIC LLC","SCOTTSBORO","AL","357682111","$   22,393.55","YES"
"HOLLOWELL CHIROPRACTIC, INC","ENTERPRISE","AL","36330","$   770.66","YES"
"HOMETOWN PEDIATRICS LLC","FORT PAYNE","AL","359683347","$   1,087.24","YES"
"HOOVER MEDICINE, INC.","VESTAVIA HILLS","AL","352164509","$   2,063.96","NO"
"HORIZON HEALTHCARE LLC","FORT PAYNE","AL","359672107","$   32,112.85","YES"
"HORIZON IMAGING, P.C.","BIRMINGHAM","AL","352133929","$   59,793.92","YES"
"HORIZON MEDICAL CLINIC, LLC","ONEONTA","AL","351210008","$   44,983.45","YES"
"HOSPICE OF MARSHALL COUNTY, INC.","ALBERTVILLE","AL","359517208","$   243,498.38","YES"
"HOUSTON COUNTY HEALTHCARE AUTHORITY","DOTHAN","AL","363021928","$   7,682,917.21","YES"
"HUBERT H. PARKER IV DMD PC","MOBILE","AL","366093432","$   500.00","NO"
"HUNTER B NELSON MD PC","MOBILE","AL","366910218","$   69,115.20","YES"
"HUNTER CREEK HEALTH AND REHABILITATION LLC","NORTHPORT","AL","354733393","$   35,782.08","NO"
"HUNTER PATTERSON, LLC","OWENS CROSS ROADS","AL","357639226","$   1,007.59","NO"
"HUNTSVILLE CARDIOVASCULAR CLINIC, P. C.","HUNTSVILLE","AL","358021658","$   83,636.32","YES"
"HUNTSVILLE CHIROPRACTIC & NUTRITION CENTER, LLC","HUNTSVILLE","AL","358135157","$   500.00","NO"
"HUNTSVILLE HEALTH AND REHABILITATION, LLC","HUNTSVILLE","AL","358024189","$   38,391.45","NO"
"HUNTSVILLE HEART SPECIALISTS","HUNTSVILLE","AL","358013847","$   9,663.29","NO"
"HUNTSVILLE HOSPITAL ANESTHESIA","BIRMINGHAM","AL","352462290","$   64,102.07","YES"
"HUNTSVILLE HOSPITAL ENDOCRINE AND DIABETES CLINIC","HUNTSVILLE","AL","358042705","$   12,501.27","NO"
"HUNTSVILLE HOSPITAL INTERNAL MEDICINE","HUNTSVILLE","AL","358042705","$   500.00","NO"
"HUNTSVILLE HOSPITAL LUNG CENTER","HUNTSVILLE","AL","358042705","$   39,216.92","YES"
"HUNTSVILLE HOSPITAL MADISON INTERNAL MEDICINE","HUNTSVILLE","AL","358042705","$   3,342.13","NO"
"HUNTSVILLE HOSPITAL MEDICAL CLINIC AT HAMPTON COVE","HUNTSVILLE","AL","358014312","$   4,124.48","NO"
"HUNTSVILLE HOSPITAL PALLIATIVE CARE SERVICES","HUNTSVILLE","AL","358042705","$   8,844.61","NO"
"HUNTSVILLE HOSPITAL PEDIATRIC HOSPITALISTS","HUNTSVILLE","AL","358042705","$   14,588.80","NO"
"HUNTSVILLE HOSPITAL PEDIATRIC NEUROLOGY","HUNTSVILLE","AL","358042705","$   5,224.95","NO"
"HUNTSVILLE HOSPITAL PROFESSIONAL SERVICES","HUNTSVILLE","AL","358042705","$   6,957.80","NO"
"HUNTSVILLE HOSPITAL SPINE AND NEURO CENTER","HUNTSVILLE","AL","358042705","$   59,364.88","YES"
"HUNTSVILLE HOSPITAL SURGICAL ASSOCIATES OF MADISON","HUNTSVILLE","AL","358042705","$   8,676.72","NO"
"HUNTSVILLE SENIOR SERVICES LLC","HUNTSVILLE","AL","358103843","$   36,095.71","NO"
"ICARE EYECARE, LLC","BIRMINGHAM","AL","35203","$   500.00","NO"
"IMC - WOMENS HEALTH ALLIANCE OF MOBILE LLC","MOBILE","AL","366041402","$   4,863.20",
"IMC EASTERN SHORE WOMEN'S HEALTH LLC","MOBILE","AL","366041402","$   1,318.48",
"IMC NORTH BALDWIN PHYSICIAN GROUP LLC","MOBILE","AL","366041402","$   67,123.41",
"IMC RADIATION ONCOLOGY LLC","MOBILE","AL","366041402","$   8,305.65",
"IMC-CANCER SURGERY OF MOBILE, LLC","MOBILE","AL","36607","$   20,988.87",
"IMC-CARDIO-THORACIC AND VASCULAR SURGICAL ASSOCIATES LLC","MOBILE","AL","366041402","$   35,243.03",
"IMC-CENTRAL BALDWIN PHYSICIANS, LLC.","ROBERTSDALE","AL","36567","$   5,102.73",
"IMC-DIAGNOSTIC AND MEDICAL CLINIC LLC","MOBILE","AL","366041416","$   494,520.23",
"IMC-EASTERN SHORE ADULT MEDICINE, LLC","FAIRHOPE","AL","365321905","$   26,969.83",
"IMC-EASTERN SHORE FAMILY PRACTICE LLC","DAPHNE","AL","365264725","$   1,520.67",
"IMC-EMERGENCY PHYSICIANS LLC","MOBILE","AL","366041402","$   31,047.12",
"IMC-GULF COAST GASTROENTEROLOGY LLC","FAIRHOPE","AL","365322018","$   7,443.33",
"IMC-HOSPITALISTS LLC","MOBILE","AL","366041402","$   84,254.67",
"IMC-NEONATOLOGY LLC","MOBILE","AL","366041402","$   7,855.18",
"IMC-NEUROSURGERY LLC","MOBILE","AL","366073514","$   10,028.11",
"IMC-NORTH BALDWIN INTERNAL MEDICINE, .LLC","BAY MINETTE","AL","365074163","$   18,284.73",
"IMC-PEDIATRIC & ADOLESCENT MEDICINE, LLC","MOBILE","AL","366082201","$   5,984.23",
"IMC-REHABILITATION SPECIALISTS LLC","MOBILE","AL","366041402","$   8,016.10",
"IMEDEQUIP LLC","BIRMINGHAM","AL","352550309","$   2,982.69","NO"
"IMPACT FAMILY COUNSELING","BIRMINGHAM","AL","352052308","$   500.00","NO"
"INFANTS & CHILDRENS CLN","FLORENCE","AL","356305520","$   47,399.94","NO"
"INFIRMARY HEALTH URGENT CARE - BAY MINETTE, P.C.","BAY MINETTE","AL","365073130","$   28,372.20",
"INNOVA PRIMARY CARE, PC","HUNTSVILLE","AL","358150398","$   1,731.15","NO"
"INSPIRATIONAL COUNSELING LLC","MERIDIANVILLE","AL","357593002","$   500.00","NO"
"INTEGRATIVE HEALTH SERVICES, LLC","HOOVER","AL","352263622","$   500.00","NO"
"INTERNAL MEDICINE ASSOCIATES OF TUSCALOOSA, P.C.","TUSCALOOSA","AL","354062333","$   13,556.09","NO"
"INTERNAL MEDICINE ASSOCIATES P.C.","OPELIKA","AL","368012527","$   108,272.89","YES"
"IVY CREEK FAMILY CARE OF TROY","TROY","AL","360795895","$   2,990.09","YES"
"IVY CREEK OF ELMORE LLC","WETUMPKA","AL","360920003","$   153,689.55","YES"
"IVY CREEK OF TALLAPOOSA LLC","DADEVILLE","AL","368536244","$   593,294.00","YES"
"J PAUL JONES HOSPITAL","CAMDEN","AL","367261610","$   271,958.36","YES"
"J. SCOTT ROBERTSON,MD,PC","BIRMINGHAM","AL","352424680","$   1,741.44","NO"
"JACKSON COUNTY FAMILY MEDICINE LLC","SCOTTSBORO","AL","357684263","$   11,960.84","YES"
"JACKSON COUNTY HEALTH CARE AUTHORITY","SCOTTSBORO","AL","357681050","$   2,357,730.39","YES"
"JACKSON COUNTY PEDIATRIC EXTENDED CARE LLC","DAPHNE","AL","365266135","$   500.00","NO"
"JACKSON HEALTH CARE FACILITY, LLC","JACKSON","AL","365452469","$   205,382.83","YES"
"JACKSON HOSPITAL & CLINIC, INC.","MONTGOMERY","AL","361061109","$   2,280,395.31","YES"
"JACKSON MEDICAL CENTER, LLC","JACKSON","AL","365452225","$   614,651.96","YES"
"JACKSON SURGERY CENTER, LLC","MONTGOMERY","AL","361061123","$   33,893.97","NO"
"JACKSONVILLE HEALTH AND REHABILITATION, LLC","JACKSONVILLE","AL","362652754","$   55,931.40","NO"
"JAMES LAKE PARKER","ALICEVILLE","AL","35442","$   25,560.58","YES"
"JAMES PAUL DESTA","HUNTSVILLE","AL","358014522","$   500.00","NO"
"JAMES T GARDINER FAMILY DENTISTRY PC","TUSCUMBIA","AL","356742413","$   17,336.85","YES"
"JASPER PEDIATRIC DENTISTRY, LLC","JASPER","AL","355018905","$   59,789.19","YES"
"JAY E HYPES DMD PC","ONEONTA","AL","351211552","$   3,252.45","YES"
"JEFFERSON COUNTY BOARD OF HEALTH","BIRMINGHAM","AL","352022648","$   10,441.43","YES"
"JENIFER DEWALD LEBER LLC","MOBILE","AL","366091736","$   500.00","NO"
"JESSICA PALMER, O.D., LLC","CHELSEA","AL","350430406","$   10,091.07","YES"
"JLBMD CONSULTING PC","REFORM","AL","354811000","$   2,686.20","YES"
"JMS HEALTH SERVICES, LLC","JASPER","AL","355013400","$   29,143.93","YES"
"JOHN F. SIMMONS M.D. P.C","GENEVA","AL","363401645","$   30,291.79","NO"
"JOHN KNOX MANOR INC II","MONTGOMERY","AL","361162908","$   4,800.92","NO"
"JOHN R. GOFF, PHD","TUSCALOOSA","AL","354045715","$   500.00","NO"
"JONATHAN L SKINNER LLC","DOTHAN","AL","363026324","$   14,728.55","NO"
"JOSHUA DRIVER PC","OPP","AL","364671600","$   32,658.78","YES"
"K SPARACINO PC","DECATUR","AL","356013366","$   693.44","NO"
"KARASSI ENDOCRINOLOGY & INTERNAL MEDICINE PC","HOOVER","AL","352361627","$   5,554.21","NO"
"KEILA CARES, LLC","MONTGOMERY","AL","361063076","$   500.00","NO"
"KELLER HOSPITALIST SERVICES","SHEFFIELD","AL","356606334","$   7,139.31","YES"
"KENNETH SULLIVAN","MADISON","AL","357580643","$   500.00","NO"
"KIDS 1ST PEDIATRICS, LLC","FORT PAYNE","AL","359683353","$   194,286.84","YES"
"KING REHABILITATION, LLC","MONTGOMERY","AL","361062864","$   500.00","NO"
"KITTI K OUTLAW MD PC","MOBILE","AL","366081774","$   2,170.24","NO"
"KMKG ANESTHESIA, PC","JASPER","AL","355021427","$   40,223.09","YES"
"KMKG PAIN MANAGEMENT, PC","JASPER","AL","35502","$   37,532.41","YES"
"L.L. BARNETT DENTAL SOLUTIONS, P.C.","MADISON","AL","357586650","$   500.00","NO"
"LABRUCE M HANAHAN JR DMD PA","DOTHAM","AL","36301","$   565.65","NO"
"LAFAYETTE EXTENDED CARE,L.L.C","LAFAYETTE","AL","368620152","$   115,955.55","YES"
"LAFAYETTE NURSING HOME LLC","LAFAYETTE","AL","368620109","$   95,793.65","YES"
"LAKE MARTIN HOSPICE LLC.","DADEVILLE","AL","368536244","$   47,527.76","YES"
"LAKELAND COMMUNITY HOSPITAL INC.","HALEYVILLE","AL","355657054","$   905,429.52","YES"
"LAKESIDE CLINIC LLC","GUNTERSVILLE","AL","359762205","$   91,970.57","YES"
"LARRY T HOWELL DMD PC","ENTERPRISE","AL","36330","$   1,230.27","YES"
"LAUDERDALE CHRISTIAN NURSING HOME","KILLEN","AL","356455525","$   2,984.82","YES"
"LEE OBSTETRICS & GYNECOLOGY, P.A.","OPELIKA","AL","368015409","$   32,035.97","NO"
"LEGACY HEALTH AND REHABILITATION OF PLEASANT GROVE, LLC","PLEASANT GROVE","AL","351271962","$   30,395.61","NO"
"LEWIS COLE DMD PC","NORTHPORT","AL","354735830","$   500.00","NO"
"LHF BILLING","ATHENS","AL","356121047","$   3,434.89","YES"
"LIBERTY MOUNTAIN PEDIATRICS, P.C.","BIRMINGHAM","AL","352425028","$   500.00","NO"
"LIBERTY PEDIATRICS, LLC","VESTAVIA","AL","352422116","$   500.00","NO"
"LIFE MEDICAL SUPPLY, LLC","BIRMINGHAM","AL","352550309","$   1,140.34","NO"
"LIFEHEALTH PC","GADSDEN","AL","359031194","$   28,717.39","YES"
"LILLIAN PHARMACY, INC","LILLIAN","AL","365490059","$   910.51","NO"
"LIMESTONE INTERNAL MEDICINE CENTER","ATHENS","AL","356112484","$   10,640.44","YES"
"LIMESTONE UROLOGY ASSOCIATES","ATHENS","AL","356112454","$   18,272.09","YES"
"LINDEN HOSPITAL BOARD","LINDEN","AL","367481221","$   113,603.55","YES"
"LINEVILLE HEALTH AND REHABILITATION, LLC","LINEVILLE","AL","362666943","$   223,858.74","YES"
"LOBO HOME HEALTH INC","SCOTTSBORO","AL","357682460","$   38,543.47","YES"
"LODUCA PEDIATRICS, LLC","BREWTON","AL","364261500","$   10,625.07","YES"
"LOOK BALDWIN LLC","SEMMES","AL","365757409","$   500.00","NO"
"LOOK BALDWIN VISION LLC","SEMMES","AL","365757409","$   500.00","NO"
"LOUIS K GUINN MD","BUTLER","AL","369040678","$   10,087.74","YES"
"LP HUNTSVILLE, LLC","HUNTSVILLE","AL","35801","$   47,022.62","NO"
"LUMINOUS COUNSELING & CONSULTING LLC","HUNTSVILLE","AL","358031181","$   500.00","NO"
"LUNG CARE &, P.C.","SYLACAUGA","AL","351502433","$   30,830.77","YES"
"LUVERNE HEALTH AND REHABILITATION, LLC","LUVERNE","AL","360491348","$   335,598.82","YES"
"LV STABLER PRIMARY CARE LLC","GREENVILLE","AL","360372025","$   119,810.52","YES"
"LYNNA MORTON","MONTGOMERY","AL","361175185","$   500.00","NO"
"M & S HEALTH CARE INC.","ALBERTVILLE","AL","359500167","$   500.00","YES"
"MADISON CHIROPRACTIC & NUTRITION CENTER, LLC","HUNTSVILLE","AL","358135157","$   500.00","NO"
"MADISON CORE LABORATORIES, LLC","MADISON","AL","357583156","$   128,440.53","YES"
"MADISON MANOR NURSING HOME LLC","MADISON","AL","357581740","$   3,954.96","NO"
"MADISON VALLEY PEDIATRICS","MADISON","AL","35758","$   6,280.94","NO"
"MAGNOLIA COMMONS PEDIATRICS LLC","WETUMPKA","AL","360931259","$   500.00","NO"
"MAGNOLIA HAVEN NURSING HOME LLC","TUSKEGEE","AL","360837274","$   203,942.99","YES"
"MAGNOLIA SPRINGS PEDIATRICS PC","MAGNOLIA SPRINGS","AL","365550307","$   31,536.23","YES"
"MAIN AND ASSOCIATES INC","UNION SPRINGS","AL","360896643","$   228,150.76","YES"
"MAIN STREET CLINIC, LLC","PISGAH","AL","357658166","$   500.00","YES"
"MALLARD EYECARE, INC","CALERA","AL","350405553","$   3,800.08","YES"
"MARSHALL MEDICAL CENTER NORTH","GRANT","AL","357478308","$   9,501.65","YES"
"MARSHALL MEDICAL CENTER NORTH","BIRMINGHAM","AL","352096768","$   2,981.36","YES"
"MARSHALL MEDICAL CENTER NORTH","GUNTERSVILLE","AL","359765766","$   22,692.82","YES"
"MARSHALL MEDICAL CENTER NORTH","BIRMINGHAM","AL","352461621","$   84,862.68","YES"
"MARSHALL MEDICAL CENTER NORTH MEDICAL CENTERS BEHAVIORAL HEALTH CLINIC","BIRMINGHAM","AL","352462606","$   9,880.77","YES"
"MARSHALL MEDICAL CENTER SOUTH","BOAZ","AL","359575952","$   27,066.02","YES"
"MARSHALL MEDICAL CENTER SOUTH","ALBERTVILLE","AL","359500136","$   11,457.98","YES"
"MARSHALL MEDICAL CENTER SOUTH","BIRMINGHAM","AL","352468012","$   51,154.98","YES"
"MARSHALL MEDICAL CENTER SOUTH","BIRMINGHAM","AL","352461557","$   14,070.57","YES"
"MARSHALL MEDICAL CENTER SOUTH","GUNTERSVILLE","AL","359765766","$   37,548.96","YES"
"MARSHALL MEDICAL CENTER SOUTH","BOAZ","AL","359575908","$   12,582.05","YES"
"MARSHALL MEDICAL CENTER SOUTH","BIRMINGHAM","AL","352462316","$   24,069.88","YES"
"MARSHALL MEDICAL CENTER SOUTH BURSON UROLOGY","BIRMINGHAM","AL","352462594","$   14,674.18","YES"
"MARSHALL MEDICAL CENTER SOUTH DIAMOND HOSPITAL SERVICES","BIRMINGHAM","AL","352461572","$   36,481.59","YES"
"MARSHALL MEDICAL CENTER SOUTH MANGANARIS PULMONOLOGY","BIRMINGHAM","AL","35246","$   45,883.64","YES"
"MARSHALL MEDICAL CENTER SOUTH MEDICAL ONCOLOGY SERVICES","ALBERTVILLE","AL","359500136","$   13,077.82","YES"
"MARSHALL MEDICAL CENTER SOUTH MEDICAL SPECIALISTS OF NORTH ALABAMA","BIRMINGHAM","AL","352468011","$   53,751.91","YES"
"MARSHALL MEDICAL CENTER SOUTH MOORE OBGYN SERVICES","BIRMINGHAM","AL","352462051","$   42,789.95","YES"
"MARSHALL MEDICAL CENTER SOUTH PEDIATRIC HOSPITAL SERVICES","GUNTERSVILLE","AL","359765766","$   30,398.05","YES"
"MARSHALL-JACKSON MENTAL HEALTH BD., INC.","GUNTERSVILLE","AL","359762207","$   17,030.67","YES"
"MASDON ENT & FACIAL PLASTIC SURGERY, LLC","BOAZ","AL","359575952","$   9,079.89","YES"
"MATRIX REHABILITATION-GEORGIA INC","MONTGOMERY","AL","36109","$   3,602.00","YES"
"MAURY B BRAY III","BOAZ","AL","359575935","$   7,011.01","YES"
"MAXILLOFACIAL SURGERY CENTER OF HUNTSVILLE, INC.","HUNTSVILLE","AL","358016405","$   500.00","NO"
"MAYNOR & MITCHELL EYE CENTER PC","HUNTSVILLE","AL","358016901","$   76,684.23","YES"
"MCMD LLC","ATHENS","AL","356112492","$   12,571.16","YES"
"MCREYNOLDS ANESTHESIA, PA","MONTGOMERY","AL","361166625","$   68,328.47","YES"
"MED SOUTH, INC.","JASPER","AL","355013400","$   259,240.62","YES"
"MEDCENTER DEMOPOLIS PC","DEMOPOLIS","AL","367324113","$   61,723.89","YES"
"MEDCENTER HOOVER, PC","NORTHPOINT","AL","35476","$   1,290.33","NO"
"MEDCENTER PRIMARY CARE","TUSCALOOSA","AL","354062671","$   1,422.84","NO"
"MEDEXPRESS RED BAY LLC","SHEFFIELD","AL","35660","$   11,351.81","YES"
"MEDICAL AND SURGICAL EYE CARE OF ENTERPRISE","ENTERPRISE","AL","363302280","$   28,932.90","YES"
"MEDICAL ASSET GROUP LLC","ALBERTVILLE","AL","359500203","$   42,476.29","YES"
"MEDICAL EAST","ATHENS","AL","356132899","$   14,096.89","YES"
"MEDICAL EAST OF DECATUR INC","DECATUR","AL","356035716","$   20,524.09","YES"
"MEDICAL FOUNDATION OF CENTRAL MISSISSIPPI INC","BIRMINGHAM","AL","352870001","$   418,832.82","YES"
"MEDICAL WEST HOSPITAL AUTHORITY, AN AFFILIATE OF UAB HEALTH SYSTEM","BESSEMER","AL","350224527","$   584,020.51","NO"
"MEDWEST CLINIC","ATHENS","AL","356118979","$   23,742.13","YES"
"MENTAL HEALTH BD OF BIBB PICKENS AND TUSCALOOSA COUNTIES","TUSCALOOSA","AL","354012300","$   2,150.39","YES"
"MENTAL HEALTH BOARD OF CHILTON AND SHELBY COUNTIES INC","CALERA","AL","350400689","$   7,674.63","YES"
"MENTAL HEALTH CENTER OF NORTH CENTRAL ALABAMA INC.","DECATUR","AL","356014309","$   20,945.60","YES"
"METHODIST HOME FOR THE AGING","DOTHAN","AL","363051104","$   120,029.99","NO"
"MICHAEL COOKSTON","SCOTTSBORO","AL","357682428","$   2,698.09","YES"
"MICHAEL COOKSTON","SCOTTSBORO","AL","357682428","$   3,910.26","YES"
"MICROPHASE CLINICAL LABORATORY","HUNTSVILLE","AL","358031181","$   1,393.12","NO"
"MIDDLE GEORGIA ANESTHESIA SERVICES, LLC","MONTGOMERY","AL","361235019","$   4,702.52","NO"
"MIDWAY MEDICAL CLINIC, LLC","ONEONTA","AL","351213204","$   51,138.62","YES"
"MILESTONE FAMILY DENTISTRY, PC","DAPHNE","AL","365264395","$   500.00","NO"
"MILL STREET PHARMACY, INC.","BOAZ","AL","35957","$   500.00","YES"
"MILLAR CHIROPRACTIC JONES VALLEY, LLC","HUNTSVILLE","AL","358135157","$   500.00","NO"
"MILLBROOK EYE CARE","MILLBROOK","AL","360541838","$   675.37","NO"
"MILLRY PEDIATRIC CLINIC, LLC","MILLRY","AL","365580456","$   52,167.91","YES"
"MISSION MEDICAL, INC","RUSSELLVILLE","AL","356532848","$   17,160.81","YES"
"MISSISSIPPI PROVIDENCE HEALTHCARE SERVICES, INC.","MOBILE","AL","366850489","$   2,906.62","YES"
"MIZELL MEMORIAL HOSPITAL, INC.","OPP","AL","364671010","$   1,132,379.85","YES"
"MOBILE BAY DENTAL, LLC","SEMMES","AL","365757409","$   5,882.69","NO"
"MOBILE BAY OB GYN CENTER P.C.","MOBILE","AL","366073514","$   7,905.76",
"MOBILE BAY VISION, LLC","SEMMES","AL","365757409","$   2,437.61","NO"
"MOBILE COUNTY BOARD OF HEALTH","MOBILE","AL","366522867","$   25,743.34","YES"
"MOBILE INFIRMARY ASSOCIATION","MOBILE","AL","366522144","$   3,045,308.34","NO"
"MOBILE NURSING AND REHABILITATION CENTER, LLC","MOBILE","AL","366954329","$   20,900.22","NO"
"MONROE COUNTY HEALTH CARE AUTHORITY","MONROEVILLE","AL","364610886","$   1,139,344.22","YES"
"MONROE MANOR NURSING HOME LLC","MOBILE","AL","366191210","$   175,970.99","YES"
"MONTGOMERY ANESTHESIA ASSOCIATES, PC","MONTGOMERY","AL","361235019","$   34,454.29","NO"
"MONTGOMERY AREA MENTAL HEALTH AUTHORITY, INC.","MONTGOMERY","AL","361071342","$   1,543.89","YES"
"MONTGOMERY CHILDREN'S SPECIALTY CENTER, LLC","MONTGOMERY","AL","361101307","$   8,197.46","NO"
"MONTGOMERY HEALTH AND REHAB LLC","MONTGOMERY","AL","361163448","$   16,552.21","NO"
"MONTGOMERY PEDIATRIC ASSOC, P.A.","CLANTON","AL","350452305","$   114,432.09","YES"
"MONTGOMERY PULMONARY CONSULTANTS, P.A.","MONTGOMERY","AL","361112654","$   46,272.69","NO"
"MORGAN FAMILY PRACTICE, LLC","ARAB","AL","350165473","$   8,166.35","YES"
"MOULTHROP&PARKER DMD PC","DOTHAN","AL","363011270","$   500.00","NO"
"MOUNDVILLE HEALTH AND REHABILITATION LLC","MOUNDVILLE","AL","354744069","$   89,985.81","YES"
"MOUNTAIN VIEW FAMILY MEDICINE","GURLEY","AL","357480127","$   1,892.59","YES"
"MT CHEAHA DENTAL PC","HEFLIN","AL","362641664","$   6,321.06","YES"
"MTN LAKE UROLOGY PC","SCOTTSBORO","AL","357694051","$   28,947.13","YES"
"MULBERRY MEDICAL ASSOCIATES, P.C","MONTGOMERY","AL","361061132","$   18,088.68","YES"
"NAEINI HEALTH SERVICES PC","FLORENCE","AL","35634","$   1,992.77","NO"
"NAOS PHYSICAL THERAPY AND FITNESS","VESTAVIA","AL","352263527","$   500.00","NO"
"NASH PHYSICIAN BILLING","ATHENS","AL","356120999","$   500.00","YES"
"NATIONAL DME SUPPLY, INC","DOTHAN","AL","363056501","$   1,741.26","NO"
"NEUROLOGICAL SPECIALISTS PC","GADSDEN","AL","359031142","$   7,778.85","NO"
"NEUROLOGY CENTER OF EAST ALABAMA, LLC","OPELIKA","AL","368012380","$   9,451.55","YES"
"NEUROLOGY NEURODIAGNOSTIC LAB LLC","ALABASTER","AL","350078605","$   4,142.89","YES"
"NEW HOPE FAMILY DENTISTRY P.C.","NEW HOPE","AL","357609758","$   1,244.42","NO"
"NEW YOU LLC","GADSDEN","AL","359014238","$   5,252.80","NO"
"NHC HEALTHCARE-ANNISTON LLC","ANNISTON","AL","362076824","$   96,922.42","NO"
"NHC HEALTHCARE-MOULTON LLC","MOULTON","AL","356501268","$   138,921.56","YES"
"NNA OF ALABAMA, INC.","MIDFIELD","AL","352283012","$   354,415.02","YES"
"NOAHS ARK CHILD & FAMILY TREATMENT CENTER INC","BIRMINGHAM","AL","352061828","$   2,532.53","NO"
"NOLAND EASTERN SHORE LLC","BIRMINGHAM","AL","352425451","$   70,801.08","NO"
"NOLAND FAIRHOPE LLC","BIRMINGHAM","AL","352425451","$   21,855.80","NO"
"NOLAND HOSPITAL ANNISTON II, LLC","BIRMINGHAM","AL","352425451","$   129,219.01","NO"
"NOLAND HOSPITAL BIRMINGHAM II, LLC","BIRMINGHAM","AL","352425451","$   100,150.24","NO"
"NOLAND HOSPITAL DOTHAN II, LLC","BIRMINGHAM","AL","352425451","$   321,301.33","NO"
"NOLAND HOSPITAL MONTGOMERY II, LLC","BIRMINGHAM","AL","352425451","$   104,780.43","NO"
"NOLAND HOSPITAL TUSCALOOSA II, LLC","BIRMINGHAM","AL","352425451","$   213,036.74","NO"
"NOLAND MANAGEMENT SERVICES, LLC","BIRMINGHAM","AL","352425451","$   8,251.21","NO"
"NORTH ALABAMA RESPIRATORY EQUIPMENT INC","CULLMAN","AL","350580601","$   107,997.32","YES"
"NORTH ALABAMA SMILES, PC","ARAB","AL","350160726","$   500.00","YES"
"NORTH BALDWIN FAMILY PHARMACY, LLC,","BAY MINETTE","AL","365074115","$   500.00","YES"
"NORTH BALDWIN PEDIATRICS LLC","BAY MINETTE","AL","365074134","$   53,246.76",
"NORTH HILL NURSING AND REHABILITATION CENTER, LLC","BIRMINGHAM","AL","352171215","$   28,072.73","NO"
"NORTH RIVER SURGICAL CENTER, LLC","TUSCALOOSA","AL","354062403","$   19,004.44","NO"
"NORTH SHELBY FAMILY HEALTH","BIRMINGHAM","AL","352442019","$   523.33","NO"
"NORTHCUTT DENTAL PRACTICE","FAIRHOPE","AL","365323336","$   1,145.43","YES"
"NORTHEAST ALABAMA HEALTH SERVICES, INC.","SCOTTSBORO","AL","357682421","$   135,410.46","YES"
"NORTHPORT - CRNA","NORTHPORT","AL","354763360","$   24,224.51","NO"
"NORTHSTAR EMS INC","TUSCALOOSA","AL","354032788","$   261,434.99","YES"
"NORTHWAY HEALTH AND REHABILITATION, LLC","BIRMINGHAM","AL","352342819","$   12,260.97","NO"
"NORTHWEST ALABAMA HEALTH SERVICES, LLC","SHEFFIELD","AL","356600610","$   77,649.56","YES"
"NORTHWEST ALABAMA MENTAL HEALTH CENTER","JASPER","AL","355014377","$   29,326.01","YES"
"NORTHWEST EMERGENCY PHYSICIAN GROUP","BIRMINGHAM","AL","35202","$   24,063.09","YES"
"NORTHWEST EMS INC.","PHIL CAMPBELL","AL","355810488","$   8,462.97","YES"
"NORTHWEST MEDICAL CENTER INC.","WINFIELD","AL","355945056","$   1,111,234.39","YES"
"NORWOOD CLINIC INC","BIRMINGHAM","AL","352830230","$   58,973.03","YES"
"NRA-ROANOKE, ALABAMA, LLC","ROANOKE","AL","362742603","$   55,465.49","YES"
"NRA-TALLADEGA, ALABAMA, LLC","TALLADEGA","AL","351602218","$   86,488.54","YES"
"NW ALABAMA PRACTICE MANAGEMENT, LLC","BIRMINGHAM","AL","352465839","$   17,316.74","YES"
"NWMC WINFIELD PHYSICIANS, LLC","WINFIELD","AL","355940726","$   117,760.49","YES"
"OAK KNOLL HEALTH AND REHABILITATION, LLC","BIRMINGHAM","AL","352043402","$   3,432.69","NO"
"OAKS ON PARKWOOD, LLC","BIRMINGHAM","AL","352425451","$   16,930.70","NO"
"OBSTETRICS & GYNECOLOGY OF DOTHAN INC","DOTHAN","AL","363036902","$   16,965.29","YES"
"OEHRLEIN MEDICAL GROUP LLC","BIRMINGHAM","AL","352443542","$   3,582.77","YES"
"OPELIKA PEDIATRICS & FAMILY CLINIC PC","PHENIX CITY","AL","368672994","$   3,700.10","YES"
"OPEN MRI OF SCOTTSBORO, LLC","SCOTTSBORO","AL","357682411","$   15,154.07","YES"
"OPP FAMILY MEDICINE, P.C.","OPP","AL","364679770","$   30,567.86","YES"
"OPP HEALTH AND REHABILITATION, LLC","OPP","AL","364671630","$   432,226.93","YES"
"OPP IMAGING SERVICES LLC","OPP","AL","364670890","$   3,377.22","YES"
"ORAL SURGERY ASSOCIATES, PC","ALBERTVILLE","AL","35950","$   14,479.22","YES"
"OURMED LLC","MONTGOMERY","AL","361111801","$   3,327.98","NO"
"OXFORD PEDIATRIC DENTAL ASSOCIATES LLC","PELL CITY","AL","351287552","$   14,324.91","YES"
"OXYMED, LLC","FAIRHOPE","AL","365326048","$   35,699.18","YES"
"OZARK FAMILY DENTAL PC","OZARK","AL","36360","$   538.34","YES"
"OZARK HEALTH AND REHABILITATION, LLC","OZARK","AL","363601120","$   326,439.82","YES"
"P & S CLINIC OB-GYN PLLC","HAMILTON","AL","355705003","$   289,100.38","YES"
"P3 CHIROPRACTIC AND SPORTS CARE, INC","HUNTSVILLE","AL","358015479","$   500.00","NO"
"PALM GARDENS HEALTH AND REHABILITATION LLC","MOBILE","AL","366072513","$   16,296.82","NO"
"PALMER & WHITE CHIROPRACTIC LLC","HALEYVILLE","AL","355657052","$   4,626.66","YES"
"PARK MANOR HEALTH AND REHABILITATION, LLC","NORTHPORT","AL","354762943","$   61,183.23","NO"
"PARKWOOD HEALTH CARE FACILITY, LLC","PHENIX CITY","AL","368673115","$   10,250.27","YES"
"PARTNERS IN PEDIATRICS LLC","MONTGOMERY","AL","361167204","$   45,471.08","NO"
"PATHWAY, INC.","ENTERPRISE","AL","363311206","$   18,098.67","YES"
"PAUL D. BUSSMAN, D.M.D. P.C.","CULLMAN","AL","350555230","$   500.00","YES"
"PEAK PHYSICAL THERAPY AND WELLNESS","DECATUR","AL","356012516","$   607.56","NO"
"PEDIATRIC ADOLESCENT MEDICINE, INC.","SELMA","AL","367034301","$   16,404.51","YES"
"PEDIATRIC ASSOCIATES OF ALEXANDER CITY, P.C.","ALEXANDER CITY","AL","350111269","$   151,509.22","YES"
"PEDIATRIC DENTAL ASSOCIATES OF CULLMAN, LLC","CULLMAN","AL","350557207","$   19,636.58","YES"
"PEDIATRIC DENTAL ASSOCIATES, LLC","PELL CITY","AL","351251485","$   29,967.57","YES"
"PEDIATRIC DENTISTRY OF MOBILE","MOBILE","AL","366083134","$   1,357.55","NO"
"PEDIATRIC INTENSIVISTS","HUNTSVILLE","AL","358013738","$   2,568.00","NO"
"PEDIATRIC RADIOLOGY ASSOCIATES, PC","BIRMINGHAM","AL","352097718","$   46,937.51","NO"
"PEDIATRIC RURAL HEALTH CLINICS, INC","GREENVILLE","AL","360373865","$   156,892.39","YES"
"PELL CITY INTERNAL AND FAMILY MEDICINE","PELL CITY","AL","35128","$   70,535.26","YES"
"PHARMACY PARTNERS LLC","RAINSVILLE","AL","359864555","$   500.00","YES"
"PHENIX CITY HEALTH CARE, INC.","PHENIX CITY","AL","368672448","$   2,103.64","NO"
"PICKENS CO AMBULANCE SRVC","TUSCALOOSA","AL","354032788","$   45,132.52","YES"
"PICKENS COUNTY PRIMARY CARE, PC","REFORM","AL","354818018","$   114,937.75","YES"
"PIEDMONT DENTAL GROUP LLC","PIEDMONT","AL","362722018","$   1,308.39","NO"
"PIKE INTERNAL MEDICINE PC","TROY","AL","360813058","$   27,864.05","YES"
"PIKE ROAD DENTAL, LLC","PIKE ROAD","AL","360643843","$   500.00","NO"
"PM HEALTHCARE, LLC","ANNISTON","AL","362075754","$   9,949.37","YES"
"PRACTICE- MONROEVILLE INC","MONROEVILLE","AL","364602840","$   96,440.34","YES"
"PRATTVILLE HEALTH AND REHABILITATION LLC","PRATTVILLE","AL","360663661","$   51,826.58","NO"
"PREFERRED FAMILY HEALTHCARE, LLC","ALBERTVILLE","AL","359502049","$   18,289.77","YES"
"PREFERRED HEALTH HOLDINGS LLC","GUNTERSVILLE","AL","359762962","$   222,628.61","YES"
"PREMIER FAMILY CARE ARAB LLC","ARAB","AL","350161394","$   133,654.19","YES"
"PREMIER FAMILY CARE, LLC","GUNTERSVILLE","AL","359762156","$   135,835.03","YES"
"PREMIER FAMILY DENTISTRY","ALABASTER","AL","350075337","$   500.00","NO"
"PREMIER MEDICAL CLINIC LLC","SCOTTSBORO","AL","357680056","$   56,572.52","YES"
"PREMIER ORTHOPAEDICS & SPORTS MEDICINE LLC","SCOTTSBORO","AL","357682428","$   44,738.60","YES"
"PRICEVILLE PRIMARY CARE","DECATUR","AL","356035425","$   500.00","NO"
"PRIMARY MEDICINE ASSOCIATES, LLC","AUBURN","AL","368301817","$   5,581.03","YES"
"PRIMARY PROVIDERS OF ALABAMA INC","HUNTSVILLE","AL","358061039","$   500.00","NO"
"PRIME HEALTHCARE SERVICES GADSDEN LLC","GADSDEN","AL","359015304","$   722,195.85","NO"
"PRIME HEALTHCARE SERVICES GADSDEN PHYSICIAN MANAGEMENT LLC","GADSDEN","AL","359014107","$   8,938.13","YES"
"PROFESSIONAL RESOURCES MANAGEMENT, INC.","MONTGOMERY","AL","361035013","$   404,019.14","YES"
"PROHEALTH HOSPICE-GADSDEN, LLC","BIRMINGHAM","AL","352223244","$   22,461.75","YES"
"PROHEALTH LTC-TRUSSVILLE LLC","BIRMINGHAM","AL","352223244","$   25,309.14","NO"
"PROHEALTH OF NORTH CENTRAL ALABAMA, LLC","BIRMINGHAM","AL","352223244","$   16,792.97","YES"
"PROHEALTH OF NORTHEAST ALABAMA, LLC","BIRMINGHAM","AL","352223244","$   41,816.87","YES"
"PROHEALTH-GULF COAST, LLC","BIRMINGHAM","AL","352223244","$   19,912.79","NO"
"PRO-MED, P.C.","GREENVILLE","AL","360373128","$   27,983.65","YES"
"PROVIDENCE HOSPITAL","BIRMINGHAM","AL","352052881","$   1,418,115.32","YES"
"PRUITT & EBERHART, DMD, PC","CENTRE","AL","359602809","$   3,125.18","YES"
"PURE DERMATOLOGY & AESTHETICS, PC","HOOVER","AL","352444583","$   4,884.56","NO"
"QHG OF ENTERPRISE INC","ENTERPRISE","AL","363302510","$   2,376,805.55","YES"
"QUALITY OF LIFE HEALTH SERVICES INC","GADSDEN","AL","359020097","$   190,778.09","YES"
"R CHARLES GOODMAN JR OD LLC","MONTGOMERY","AL","361172144","$   1,605.73","NO"
