"branch","address","city","zip","january","february","march","april","may","june","july","august","september","october","november","december","ytd","location"
"Walker","11071 S. Hoyne Ave.","Chicago","60643","290","309","360","428","460","416","482",,,,,,"2745","POINT (-87.67426 41.692473)"
"Albany Park","3401 W. Foster Ave.","Chicago","60625","880","984","1077","1087","1010","1091","1214",,,,,,"7343","POINT (-87.713595 41.975693)"
"Avalon","8148 S. Stony Island Ave.","Chicago","60617","1171","997","1370","1508","1350","1386","1432",,,,,,"9214","POINT (-87.585869 41.746322)"
"Brainerd","1350 W. 89th St.","Chicago","60620","292","270","493","459","456","564","575",,,,,,"3109","POINT (-87.657726 41.732282)"
"Oriole Park","7454 W. Balmoral Ave.","Chicago","60656","612","594","764","699","765","590","564",,,,,,"4588","POINT (-87.813329 41.978015)"
"Little Italy","1336 W. Taylor St.","Chicago","60607","613","554","786","769","798","897","831",,,,,,"5248","POINT (-87.660263 41.869359)"
"Edgebrook","5331 W. Devon Ave.","Chicago","60646","335","323","408","425","393","439","437",,,,,,"2760","POINT (-87.76204 41.997245)"
"Kelly","6151 S. Normal Blvd.","Chicago","60621","491","469","607","656","639","669","578",,,,,,"4109","POINT (-87.637516 41.78199)"
"Edgewater","6000 N. Broadway St.","Chicago","60660","1594","1633","2203","2279","2123","2198","2107",,,,,,"14137","POINT (-87.660306 41.990923)"
"Near North","310 W. Division St.","Chicago","60610","975","902","684","0","0","438","89",,,,,,"3088","POINT (-87.636643 41.903838)"
"Canaryville","642 W. 43rd St.","Chicago","60609","227","205","283","284","1","0","101",,,,,,"1101","POINT (-87.642569 41.81627)"
"Daley, Richard J. -Bridgeport","3400 S. Halsted St.","Chicago","60608","0","0","0","0","0","867","774",,,,,,"1641","POINT (-87.646149 41.8327)"
"Manning","6 S. Hoyne Ave.","Chicago","60612","521","455","694","800","772","733","749",,,,,,"4724","POINT (-87.679091 41.881026)"
"Portage-Cragin","5108 W. Belmont Ave.","Chicago","60641","777","741","918","963","921","869","894",,,,,,"6083","POINT (-87.754876 41.938748)"
"Whitney M. Young, Jr.","415 East 79th St.","Chicago","60619","1284","1249","1569","1541","1600","1504","1614",,,,,,"10361","POINT (-87.61416 41.751132)"
"Greater Grand Crossing","1000 E. 73rd St.","Chicago","60619","470","564","802","773","829","703","705",,,,,,"4846","POINT (-87.600377 41.762277)"
"Scottsdale","4101 W. 79th St.","Chicago","60652","451","450","582","588","553","566","651",,,,,,"3841","POINT (-87.724291 41.749388)"
"Altgeld","955 E. 131st St.","Chicago","60827","530","497","863","901","674","1086","1373",,,,,,"5924","POINT (-87.5989 41.657262)"
"West Lawn","4020 W. 63rd St.","Chicago","60629","136","248","393","492","486","520","575",,,,,,"2850","POINT (-87.723756 41.778629)"
"Back of the Yards","2111 W. 47th St.","Chicago","60609","408","369","476","496","504","478","502",,,,,,"3233","POINT (-87.677601 41.808523)"
"Rogers Park","6907 N. Clark St.","Chicago","60626","1160","1104","1537","1555","1488","1437","1506",,,,,,"9787","POINT (-87.67344 42.006673)"
"Garfield Ridge","6348 S. Archer Ave.","Chicago","60638","473","448","594","544","549","495","585",,,,,,"3688","POINT (-87.780075 41.79286)"
"King","3436 S. King Dr.","Chicago","60616","900","819","1238","1204","1098","1005","1191",,,,,,"7455","POINT (-87.617335 41.832238)"
"Water Works","163 E. Pearson Street","Chicago","60611","58","59","105","137","146","198","275",,,,,,"978","POINT (-87.623234 41.897609)"
"Daley, Richard M. -W. Humboldt","733 N. Kedzie Ave.","Chicago","60612","921","775","1152","964","960","917","972",,,,,,"6661","POINT (-87.706545 41.894322)"
"Humboldt Park","1605 N. Troy St.","Chicago","60647","615","533","784","856","870","848","913",,,,,,"5419","POINT (-87.705655 41.910536)"
"Sulzer Regional Library","4455 N. Lincoln Ave.","Chicago","60625","2032","2039","2742","2855","2872","2886","2979",,,,,,"18405","POINT (-87.684637 41.962677)"
"Blackstone","4904 S. Lake Park Ave.","Chicago","60615","830","753","1124","1232","1161","985","989",,,,,,"7074","POINT (-87.590212 41.807619)"
"North Austin","5724 W. North Ave.","Chicago","60639","525","498","688","752","592","585","595",,,,,,"4235","POINT (-87.768877 41.909401)"
"West Town","1625 W. Chicago Ave.","Chicago","60622","558","534","688","825","820","962","938",,,,,,"5325","POINT (-87.668233 41.89606)"
"Budlong Woods","5630 N. Lincoln Ave.","Chicago","60659","731","689","863","855","794","813","826",,,,,,"5571","POINT (-87.696439 41.983843)"
"Lincoln Park","1150 W. Fullerton Ave.","Chicago","60614","748","757","929","1052","943","831","911",,,,,,"6171","POINT (-87.658126 41.925316)"
"West Englewood","1745 W. 63rd St.","Chicago","60636","531","474","669","556","597","549","687",,,,,,"4063","POINT (-87.66821 41.779364)"
"Archer Heights","5055 S. Archer Ave.","Chicago","60632","742","586","832","756","697","765","654",,,,,,"5032","POINT (-87.726723 41.801206)"
"Hegewisch","3048 E. 130th St.","Chicago","60633","330","240","405","410","351","340","302",,,,,,"2378","POINT (-87.548914 41.659153)"
"Independence","4024 N. Elston Ave.","Chicago","60618","636","568","719","716","707","722","690",,,,,,"4758","POINT (-87.719889 41.954219)"
"Lozano","1805 S. Loomis St.","Chicago","60608","912","895","1116","1214","1192","888","1172",,,,,,"7389","POINT (-87.661298 41.857604)"
"South Shore","2505 E. 73rd St.","Chicago","60649","1067","968","1236","1234","1235","1228","1169",,,,,,"8137","POINT (-87.563672 41.762654)"
"Chinatown","2100 S. Wentworth Ave.","Chicago","60616","1101","1025","1315","1451","1623","1344","1444",,,,,,"9303","POINT (-87.631794 41.854267)"
"Douglass","3353 W. 13th St.","Chicago","60623","767","695","902","913","949","0","611",,,,,,"4837","POINT (-87.709767 41.864527)"
"Logan Square","3030 W. Fullerton Ave.","Chicago","60647","1260","1034","1404","1478","1164","1245","1279",,,,,,"8864","POINT (-87.703483 41.924806)"
"Roden","6083 N. Northwest Hwy.","Chicago","60631","332","361","507","475","401","418","436",,,,,,"2930","POINT (-87.798265 41.991862)"
"Galewood-Mont Clare","6871 W. Belden Ave.","Chicago","60707","0","0","0","0","0","0","0",,,,,,"0","POINT (-87.798468 41.921134)"
"West Belmont","3104 N. Narragansett Ave.","Chicago","60634","492","453","618","583","599","664","739",,,,,,"4148","POINT (-87.785858 41.936833)"
"Bucktown-Wicker Park","1701 N. Milwaukee Ave.","Chicago","60647","652","627","774","816","755","770","826",,,,,,"5220","POINT (-87.680298 41.912224)"
"North Pulaski","4300 W. North Ave.","Chicago","60639","463","455","534","591","486","506","583",,,,,,"3618","POINT (-87.733923 41.909856)"
"McKinley Park","1915 W. 35th St.","Chicago","60609","455","428","613","526","614","562","596",,,,,,"3794","POINT (-87.673442 41.830421)"
"West Pullman","830 W. 119th St.","Chicago","60643","806","769","1031","1129","1187","1006","1146",,,,,,"7074","POINT (-87.643327 41.677819)"
"Beverly","1962 W. 95th St.","Chicago","60643","716","759","398","0","0","432","678",,,,,,"2983","POINT (-87.672288 41.721148)"
"Legler Regional","115 S. Pulaski Rd.","Chicago","60624","746","625","1110","1117","1224","1285","1170",,,,,,"7277","POINT (-87.725593 41.879302)"
"Toman","2708 S. Pulaski Rd.","Chicago","60623","581","499","703","795","768","689","609",,,,,,"4644","POINT (-87.724477 41.842073)"
"Austin","5615 W. Race Ave.","Chicago","60644","540","657","771","861","886","843","1159",,,,,,"5717","POINT (-87.766942 41.889281)"
"Wrightwood-Ashburn","8530 S. Kedzie Ave.","Chicago","60652","443","468","663","622","637","589","310",,,,,,"3732","POINT (-87.702091 41.738331)"
"Jefferson Park","5363 W. Lawrence Ave.","Chicago","60630","773","764","1088","1017","1034","1047","1053",,,,,,"6776","POINT (-87.761964 41.967648)"
"Mayfair","4400 W. Lawrence Ave.","Chicago","60630","296","253","404","433","375","341","282",,,,,,"2384","POINT (-87.738155 41.968148)"
"South Chicago","9055 S. Houston Ave.","Chicago","60617","803","829","1125","1245","1128","1164","1141",,,,,,"7435","POINT (-87.549849 41.730371)"
"Clearing","6423 W. 63rd Pl.","Chicago","60638","389","367","528","496","445","505","538",,,,,,"3268","POINT (-87.782282 41.7768)"
"Merlo","644 W. Belmont Ave.","Chicago","60657","890","971","1376","1320","1293","1224","1284",,,,,,"8358","POINT (-87.646055 41.940054)"
"Uptown","929 W. Buena Ave.","Chicago","60613","1143","1108","1645","1111","1","271","1061",,,,,,"6340","POINT (-87.654217 41.95846)"
"Chicago Lawn","6120 S. Kedzie Ave.","Chicago","60629","845","674","960","958","902","969","1049",,,,,,"6357","POINT (-87.703231 41.781967)"
"Harold Washington Library Center","400 S. State Street","Chicago","60605","8314","8256","10179","10152","9126","9075","9079",,,,,,"64181","POINT (-87.627695 41.876301)"
"Brighton Park","4314 S. Archer Ave.","Chicago","60632","448","471","576","585","450","511","487",,,,,,"3528","POINT (-87.703067 41.814848)"
"West Chicago Avenue","4856 W. Chicago Ave.","Chicago","60651","582","533","811","801","794","706","720",,,,,,"4947","POINT (-87.747411 41.895019)"
"Little Village","2311 S. Kedzie Ave.","Chicago","60623","635","615","806","770","689","857","946",,,,,,"5318","POINT (-87.705179 41.849599)"
"Lincoln Belmont","1659 W. Melrose St.","Chicago","60657","606","108","78","594","551","597","659",,,,,,"3193","POINT (-87.670433 41.940599)"
"Gage Park","2807 W. 55th St.","Chicago","60632","172","188","223","267","201","195","326",,,,,,"1572","POINT (-87.694138 41.793722)"
"Northtown","6800 N. Western Ave.","Chicago","60645","1198","1102","1634","1655","1588","1709","1939",,,,,,"10825","POINT (-87.690175 42.00536)"
"Dunning","7455 W. Cornelia Ave.","Chicago","60634","496","657","800","628","700","596","714",,,,,,"4591","POINT (-87.813908 41.94331)"
"Bezazian","1226 W. Ainslie St.","Chicago","60640","1088","1008","1305","1275","1542","1469","1366",,,,,,"9053","POINT (-87.660739 41.971414)"
"West Loop","122 N. Aberdeen St.","Chicago","60607","271","257","434","403","412","424","430",,,,,,"2631","POINT (-87.654421 41.883595)"
"Pullman","11001 S. Indiana Ave.","Chicago","60628","644","493","753","871","763","794","868",,,,,,"5186","POINT (-87.618295 41.694366)"
"Jeffery Manor","2401 E. 100th St.","Chicago","60617","394","375","608","562","658","616","811",,,,,,"4024","POINT (-87.565489 41.713513)"
"Hall","4801 S. Michigan Ave.","Chicago","60615","498","473","683","775","721","666","706",,,,,,"4522","POINT (-87.622776 41.807273)"
"Mount Greenwood","11010 S. Kedzie Ave.","Chicago","60655","368","335","525","521","560","597","661",,,,,,"3567","POINT (-87.700878 41.692925)"
"Coleman","731 E. 63rd St.","Chicago","60637","994","937","1233","1231","1247","1315","1323",,,,,,"8280","POINT (-87.606849 41.780405)"
"Austin-Irving","6100 W. Irving Park Rd.","Chicago","60634","567","482","621","670","614","613","654",,,,,,"4221","POINT (-87.779388 41.953025)"
"Woodson Regional Library","9525 S. Halsted St.","Chicago","60628","2503","2369","3164","3262","3055","3097","3206",,,,,,"20656","POINT (-87.643122 41.720675)"
"Thurgood Marshall","7506 S. Racine Ave.","Chicago","60620","942","887","979","1116","1006","1009","1085",,,,,,"7024","POINT (-87.65393 41.757373)"
"Chicago Bee","3647 S. State St.","Chicago","60609","589","470","652","638","704","643","591",,,,,,"4287","POINT (-87.626436 41.828152)"
"Vodak-East Side","3710 E. 106th St.","Chicago","60617","565","510","830","913","709","635","745",,,,,,"4907","POINT (-87.533513 41.70272)"
"Sherman Park","5440 S. Racine Ave.","Chicago","60609","400","328","451","528","430","585","527",,,,,,"3249","POINT (-87.65487 41.794843)"
