"pharmacy_name","address","city","state","zip","hours","_24h_store","status","if_closed_reopening_comments","geocoded_column"
"Heritage Pharmacy","2256 W Roscoe St Ste 1","Chicago","IL","606186376",,,"unknown",,"POINT (-87.685569 41.943146)"
"Dr. Z's Pharmacy","4326 N Lincoln Ave","Chicago","IL","606181712",,,"unknown",,"POINT (-87.683022 41.960283)"
"Nimble Pharmacy","811 S Western Ave","Chicago","IL","606124148",,,"unknown",,"POINT (-87.686116 41.871086)"
"RANDOLPHS RX PHARMACY","2751 W. 51st street","CHICAGO","IL","60632",,,"unknown",,"POINT (-87.693567 41.801029)"
"NEW ENGLAND PHARMACY","6918 W ARCHER AVE","CHICAGO","IL","606382320",,,"unknown",,"POINT (-87.794744 41.792143)"
"KOSIROG REXALL DRUGS","1000 N WESTERN AVE","CHICAGO","IL","606223597",,,"unknown",,"POINT (-87.687044 41.899447)"
"WELLS RX PHARMACY","400 E 41st St Ste 103","CHICAGO","IL","606532757",,,"unknown",,"POINT (-87.614527 41.820262)"
"SINAI TOUHY PHARMACY LLC","2907 W TOUHY AVE","CHICAGO","IL","60645",,,"unknown",,"POINT (-87.702424 42.012038)"
"HDK PHARMACY INC","4941 N KEDZIE AVE","CHICAGO","IL","60625",,,"unknown",,"POINT (-87.708562 41.971072)"
"Curexa","5310 N Sheridan Rd","Chicago","IL","606402514",,,"unknown",,"POINT (-87.655057 41.978602)"
"Pharmacy Headquarters LLC","67 W Chicago Ave","Chicago","IL","606543321",,,"unknown",,"POINT (-87.630418 41.896618000000004)"
"Lagom Rx","114 N Aberdeen St Unit 1","Chicago","IL","60607",,,"unknown",,"POINT (-87.654414 41.883359000000006)"
"SOUTH STAR PLUS PHARMACY","4200 W 63rd street","Chicago","IL","60629",,,"unknown",,"POINT (-87.727822 41.778583)"
"SHARDA PHARMACY INC","1301 S ASHLAND AVE","CHICAGO","IL","606081332",,,"unknown",,"POINT (-87.66626 41.865069)"
"Clybourn Park Pharmacy","1333 W Belmont Ave STE 320","Chicago","IL","60657",,,"unknown",,"POINT (-87.662394 41.939813)"
"Local Health Pharmacy","5050 S State St Ste 202","Chicago","IL","606095322",,,"unknown",,"POINT (-87.625954 41.802858)"
"Great Health Pharmacy","5418 W Fullerton Ave","Chicago","IL","606391427",,,"unknown",,"POINT (-87.761784 41.924082)"
"OSCO DRUG","7530 S STONY ISLAND","CHICAGO","IL","60649",,,"unknown",,"POINT (-87.586146 41.758397)"
"A CAALMAD PHARMACY","2839 W MADISON ST","CHICAGO","IL","606121926","10am-5pm M-Sa",,"open",,"POINT (-87.697933 41.881085)"
"WALGREENS #15350","834 W Armitage Ave","Chicago","IL","60614","Mon-Fri: 9am-9pm; Sat-Sun: 9am-5pm",,"open",,"POINT (-87.64982100000002 41.918154)"
"CVS Pharmacy #","4466 N Broadway ST","Chicago","IL","60640","M, Th, Fr: 9:00am-8:00pm; Tu-We: 8:00am-7:00pm; Sat-Sun: 9:00am-6:00pm",,"open",,"POINT (-87.656115 41.963321)"
"CVS PHARMACY","3033 N BROADWAY ST","CHICAGO","IL","60657","M-F: 9:00am-8:00pm; Sat-Sun: 10:00am-5:00pm",,"open",,"POINT (-87.644293 41.937467)"
"WALGREENS #09038","4001 W IRVING PARK RD","CHICAGO","IL","60641","Mon-Fri: 9am-9pm; Sat-Sun: 9am-5pm",,"open",,"POINT (-87.728008 41.953608)"
"WALGREENS #05724","7045 S PULASKI RD","CHICAGO","IL","60629","Mon-Fri: 8am-9pm; Sat-Sun: 9am-5pm",,"open",,"POINT (-87.722329 41.764458)"
"Pharmacy One Plus","4753-55 N KEDZIE","CHICAGO","IL","60625","9am-7pm M-F, 9am-5pm Sa",,"open",,"POINT (-87.708459 41.96753)"
"OSCO DRUG","3630 N Southport Ave","Chicago","IL","606133710","M-Fri: 8:00am-8:00pm; Sat-Sun: 9:00a-5:00pm",,"open",,"POINT (-87.664031 41.94821400000001)"
"WalMart Pharmacy 10-5965","10900 S Doty Ave","Chicago","IL","60628","Mon 9am-7pm; Tues 6am-7pm; Wed-Sat 9am-7pm; Sun 10am-6pm",,"open","Boarded up for looting - 8.11.2020","POINT (-87.596618 41.696117)"
"Community Pharmacy at Mercy Hospital","2525 S MICHIGAN AVE","CHICAGO","IL","60616","M-F 8am-8pm",,"open",,"POINT (-87.623583 41.847053)"
"WALGREENS #10649","3424 W Belmont Ave","CHICAGO","IL","60618","Mon-Fri: 9am-9pm; Sat-Sun: 9am-5pm",,"open",,"POINT (-87.713737 41.939265)"
"GMP PHARMACY SCMS","5140 N CALIFORNIA AVE STE G105","CHICAGO","IL","60625","9:30am-6pm M-F, 9am-3pm Sa",,"open",,"POINT (-87.698915 41.975057)"
"CVS PHARMACY","6315 S PULASKI","CHICAGO","IL","60629","M-F: 8:00am-8:00pm; Sat-Sun: 9:00am-6:00pm",,"open",,"POINT (-87.722682 41.777891)"
"OSCO DRUG","3531 N BROADWAY","CHICAGO","IL","60657","M-Fri: 8:00am-8:00pm; Sat-Sun: 9:00am-5:00pm",,"open",,"POINT (-87.646797 41.946598)"
"The New Roseland Outpatient Pharmacy","45 W 111th St","Chicago","IL","606284200","Mon-Fri 9am-5pm; Sat-Sun Closed",,"open",,"POINT (-87.62473400000002 41.692562)"
"WALGREENS #03074","4700 S Halsted St","CHICAGO","IL","60609","Mon-Fri: 9am-9pm; Sat: 9am-6pm; Sun: 10am-6pm",,"open",,"POINT (-87.645576 41.808643)"
"WALGREENS #01375","1200 N DEARBORN","CHICAGO","IL","60610","Mon-Fri: 8am-10pm; Sat-Sun: 9am-5pm",,"Open","Closed temporarily for looting. 8/10/2020. Open again 8/11","POINT (-87.629978 41.90422)"
"CVS PHARMACY","2427 W CHICAGO AVE","CHICAGO","IL","60622","M-F: 8:00am-8:00pm; Sat: 9:00am-6:00pm; Sun: 10:00am-5:00pm",,"open",,"POINT (-87.68756 41.895758)"
"PETERSON PHARMACY","2517 W PETERSON AVE","CHICAGO","IL","60659","11am-5pm M-F, 9-1pm Sa",,"open",,"POINT (-87.692785 41.990442)"
"WALGREENS #4505","4025 N SHERIDAN ROAD","CHICAGO","IL","60613","Mon-Fri: 9am-6pm; Sat: 9am-3pm; Sun: closed",,"open",,"POINT (-87.654537 41.955216)"
"SHARIF PHARMACY INC","2004 N PULASKI RD","CHICAGO","IL","606393767","9am-6pm M-F, 9am-2pm Sa",,"open",,"POINT (-87.726558 41.917328000000005)"
"MARIANO'S PHARMACY","5201 N Sheridan Rd","CHICAGO","IL","60640","Sun: 10am-5pm; Mon-Fri: 9am-7pm; Sat: 9am-6pm",,"open",,"POINT (-87.655022 41.976906)"
"WALGREENS #02340","342 E ILLINOIS ST","CHICAGO","IL","60611","Mon-Fri: 8am-8pm; Sat-Sun: 9am-5pm",,"CLOSED","Looting. 8/11/2020","POINT (-87.618695 41.891029)"
"Walgreens Prescripton Center #16433","2001 N Milwaukee Ave Ste A","Chicago","IL","606474001","2am-1:30am every day",,"open",,"POINT (-87.68859600000002 41.917601)"
"Walgreens Prescripton Center #16429","3019 W Peterson Ave Ste A","Chicago","IL","606593726","7am-11pm every day",,"open",,"POINT (-87.705301 41.990370000000006)"
"WALGREENS #05089","7111 S WESTERN","CHICAGO","IL","60636","Mon-Fri 9am-9pm; Sat-Sun 9am-5pm",,"Open",,"POINT (-87.683157 41.76425900000001)"
"CVS Pharmacy #","401 E Illinois St","Chicago","IL","60611","M, Th, Fr: 10:00am-7:00pm; Tu-We: 7:00am-6:00pm; Sat: 10:00am-5:00pm; Sun: 12:00pm-5:00pm",,"open",,"POINT (-87.617634 41.891053)"
"WALGREENS #06980","3019 W PETERSON AVE","CHICAGO","IL","60659","7am-11pm everyday",,"open",,"POINT (-87.705301 41.990370000000006)"
"CVS Pharmacy #17698","3204 N Clark St","Chicago","IL","606571602","M-F: 9:00am-8:00pm; Sat-Sun:10:00am-5:00pm",,"open",,"POINT (-87.650766 41.940086)"
"HEALTH RX INC","1952 W CERMAK RD","CHICAGO","IL","60608","9am-6pm M-F, 10am-2:30pm Sa",,"open",,"POINT (-87.674512 41.852229)"
"LAPUJA PHARMACY","3441 W NORTH AVE","CHICAGO","IL","606474841","10:30am-6:30pm M-Th, 10:30am-2pm F, 10:30am-3:30pm Sa",,"open",,"POINT (-87.713538 41.91000400000001)"
"FARMACIA CENTRO MEDICO","3623 W Chicago Ave","CHICAGO","IL","60651",,,"closed","unknown","POINT (-87.717352 41.895485)"
"CVS PHARMACY","1620 WEST 59TH ST","CHICAGO","IL","60636",,,"closed","permanently closed","POINT (-87.665764 41.786759)"
"WALGREENS #00162","1554 E 55TH STREET","CHICAGO","IL","60615","Open 24 hours everyday","x","open",,"POINT (-87.588157 41.795267)"
"WALGREENS #01593","5230 N MILWAUKEE AVE","CHICAGO","IL","60630","Mon-Fri: 9am-9pm; Sat-Sun: 9am-5pm",,"open",,"POINT (-87.767617 41.975417)"
"WALGREENS #04752","316 W CERMAK RD","CHICAGO","IL","60616","Mon: 9am-7pm; Tue-Fri: 9am-9pm; Sat-Sun: 9am-5pm",,"open",,"POINT (-87.635599 41.852916)"
"WALGREENS #05387","79 W MONROE","CHICAGO","IL","60603",,,"CLOSED","scheduled to reopen between 8/10/2020 - 8/21/2020. Still Closed - 8.11.2020","POINT (-87.630177 41.880701)"
"CVS PHARMACY","2545 MARTIN LUTHER KING","CHICAGO","IL","60616",,,"closed","permanently closed",
"Reem Pharmacy","5456 S Kedzie Ave","Chicago","IL","606322620","10am-6pm W-F",,"open",,"POINT (-87.703551 41.793667)"
"WALGREENS #06270","1001 W BELMONT AVE","CHICAGO","IL","60657",,,"Permanently closed",,"POINT (-87.654181 41.93994000000001)"
"WALGREENS #04147","1546 N CENTRAL AVE","CHICAGO","IL","60651","Mon-Fri 9am-9pm; Sat-Sun 9am-5pm",,"Open",,"POINT (-87.765876 41.908886)"
"WALGREENS #12426","315 W Chicago Ave","Chicago","IL","60654","Mon-Fri: 8am-8pm; Sat-Sun: 9am-5pm",,"CLOSED","Looting. 8/11/2020","POINT (-87.636445 41.896586)"
"Komed Holman Pharmacy","4259 S Berkeley Ave","Chicago","IL","606533030","9am-5pm M-F, 9am-1pm Sa",,"open",,"POINT (-87.600625 41.817193)"
"WALGREENS #15992","2500 N Clark St 1st Floor","CHICAGO","IL","60614","Mon-Fri: 9am-9pm, Sat-Sun: 9am-5pm",,"open",,"POINT (-87.641865 41.92793)"
"CVS PHARMACY","11055 S WESTERN AVENUE","CHICAGO","IL","60643","M-F: 9:00am-9:00pm; Sat: 9:00am-6:00pm; Sun: 10:00am-6:00pm",,"open",,"POINT (-87.681121 41.692617)"
"CVS PHARMACY","771 N OGDEN","CHICAGO","IL","60622","M-F: 9:00am-9:00pm; Sat-Sun: 10:00am-5:00pm",,"open",,"POINT (-87.654611 41.896154)"
"WALGREENS #07515","7155 W FOSTER PLACE","CHICAGO","IL","60656","Mon-Fri: 9am-9pm; Sat-Sun: 9am-5pm",,"open",,"POINT (-87.806503 41.974693)"
"WALGREENS #13454","6140 N WESTERN AVE","CHICAGO","IL","60659","Mon-Fri: 9am-9pm; Sat-Sun: 9am-5pm",,"open",,"POINT (-87.689824 41.993469)"
"Madison Pine Pharmacy","5470 W MADISON ST","CHICAGO","IL","606444097","9am-5pm M-F, 9am-1pm Sa",,"open",,"POINT (-87.762754 41.880333)"
"DEVON DISCOUNT PHARMACY","1542 W DEVON AVE","CHICAGO","IL","60660","9am-5pm M-Sa",,"open",,"POINT (-87.66959 41.998032)"
"Life Source Pharmacy, Inc","11238 S Western Ave","Chicago","IL","606434116","9:30am-5pm M-F",,"open",,"POINT (-87.681136 41.688832)"
"WALGREENS #05825","1213 W 79TH ST","CHICAGO","IL","60620",,,"closed","mobile pharmacy on-site starting 6/18/2020, prior pharmacy kiosk on-site, scheduled to reopen between 8/24/2020 - 9/25/2020. Pharmacy services only 8.11.2020","POINT (-87.654532 41.750482)"
"CVS PHARMACY","208 WEST WASHINGTON","CHICAGO","IL","60606","Mon-Fri 7am-7pm; Closed Sat-Sun",,"Open",,"POINT (-87.634235 41.883211)"
"CRX Pharmacy","5941 W Irving Park Rd","Chicago","IL","606342618","Mon-Fri 11am-5pm; Sat 11am-3pm; Sun closed",,"open",,"POINT (-87.775954 41.953078)"
"Vital Rx, LLC","2837 N MILWAUKEE","CHICAGO","IL","60618","9:30am-5pm M-F",,"open",,"POINT (-87.713381 41.932717)"
"WALGREENS #04978","111 S HALSTED ST","CHICAGO","IL","60661","Mon-Fri: 7am-11pm; Sat-Sun: 9am-9pm",,"open",,"POINT (-87.647247 41.879862)"
"CVS PHARMACY #17683","2650 N Clark St","Chicago","IL","606141523","M, Th, Fr: 10:00am-6:00pm; Tu-We: 7:00am-5:00pm; Sat: 11:00am-5:00pm; Sun: 12:00pm-5:00pm",,"open",,"POINT (-87.64393700000001 41.930805)"
"OSCO DRUG","6426 W IRVING PK RD","CHICAGO","IL","60634","M-Fri: 8:00am-10:00pm; Sat: 9:00am-6:00pm; Sun: 9:00am-5:00pm",,"open",,"POINT (-87.787334 41.952923)"
"WALGREENS #00178","740 W DIVERSEY PKWY","CHICAGO","IL","60614","Mon: 9am-7pm Tue-Wed: 8am-9pm; Thu-Fri: 9am-9pm; Sat-Sun: 9am-5pm",,"open",,"POINT (-87.648348 41.932762)"
"WALGREENS #05123","10300 S MICHIGAN AVE","CHICAGO","IL","60628","Mon-Fri 8am-9pm; Sat-Sun 9am-5pm",,"Open",,"POINT (-87.620282 41.706934)"
"WALGREENS #04233","5600 W FULLERTON","CHICAGO","IL","60639","Open 24 hours everyday","x","open",,"POINT (-87.76661 41.924032)"
"Bienestar Pharmacy III, Inc","2359 S Western Ave Suite 100","Chicago","IL","606083837","9am-6pm MTThF, 1pm-8pm W, 9am-1:30pm Sa",,"open",,"POINT (-87.685489 41.848914)"
"ROLET PHARMACY","6032 S HALSTED ST","CHICAGO","IL","60621","1pm-5pm M-Th, 2pm-5pm F",,"open",,"POINT (-87.644991 41.78405800000001)"
"CVS PHARMACY","7858 S HALSTED","CHICAGO","IL","60620",,,"closed","permanently closed","POINT (-87.644067 41.750954)"
"Oak Street Pharmacy","850 W 63rd St suite E","Chicago","IL","606211902","9am-5pm M-F",,"open",,"POINT (-87.646297 41.779755)"
"FARMACIA DE LAWNDALE INC.","2621 S LAWNDALE AVE","CHICAGO","IL","60623","10am-6pm M-F, 10am-3pm Sa",,"open",,"POINT (-87.717213 41.843648)"
"Local Health Pharmacy","5050 S STATE ST","CHICAGO","IL","606095322","Mon-Fri 9am-5:30pm; Sat-Sun Closed",,"open",,"POINT (-87.625954 41.802858)"
"WALGREENS #04862","4343 N CENTRAL","CHICAGO","IL","60634","Everyday 7am-11pm",,"open",,"POINT (-87.767198 41.959985)"
"WALGREENS #16525","5401 S WENTWORTH STE 5A1","CHICAGO","IL","60609","Mon-Fri 8am-5pm; Sat-Sun closed",,"open",,"POINT (-87.630528 41.79692)"
"Midwest Specialty Pharmacy LLC","712 N. Dearborn St. Ste. 3A","Chicago","IL","60654","9am-5pm M-F",,"open",,"POINT (-87.629731 41.895218)"
"PROFESSIONAL OFFICE BUILDING PHARMACY","1725 W HARRISON STE 418","CHICAGO","IL","60612","MTF 8am-5:30pm, WTh 7:30am-5:30pm, Sa 9am-2pm",,"open",,"POINT (-87.67005600000002 41.874116)"
"CVS PHARMACY","1201 N STATE ST","CHICAGO","IL","60610","M-F: 9:00am-7:00pm; Sat-Sun: 10:00am-6:00pm",,"open",,"POINT (-87.628688 41.904095)"
"OSCO DRUG","1763 W Howard St","Chicago","IL","606261626","M-Fri: 8:00am-8:00pm; Sat-Sun: 9:00a-5:00pm",,"open",,"POINT (-87.674817 42.019397)"
"CVS PHARMACY","400 W MADISON ST","CHICAGO","IL","60606","M-F: 9:00am-7:00pm; Sat-Sun: Closed",,"open",,"POINT (-87.639431 41.881887000000006)"
"WALGREENS #09399","2835 N SHEFFIELD STE 505","CHICAGO","IL","60657","Mon-Thurs: 9am-7pm; Fri: 9am-4pm; Sat-Sun: closed",,"open",,"POINT (-87.653881 41.933743)"
"CENTRAL DRUGS","6400 W 63RD ST","CHICAGO","IL","60638","9am-7pm M-F, 9am-2pm Sa",,"open",,"POINT (-87.781256 41.777712)"
"WALGREENS #11492","5414 S Archer Ave","CHICAGO","IL","60638","Mon-Fri: 8am-8pm; Sat-Sun: 9am-5pm",,"open",,"POINT (-87.743617 41.798645)"
"CVS Pharmacy # 08980","6510 N Sheridan Rd","Chicago","IL","606265312","M-F: 8:00am-8:00pm, Sat-Sun: 10:00am-6:00pm",,"open",,"POINT (-87.660686 42.000655)"
"Advanced Care Rx LLC","11422 S Western Ave Suite 101","CHICAGO","IL","60643",,,"unknown",,"POINT (-87.681042 41.685839)"
"VA - JESSE BROWN VA MEDICAL CENTER - WESTSIDE","820 S DAMEN AVE","CHICAGO","IL","60680","Mon-Fri 8am-6pm; Sat-Sun 8am-4:30pm",,"open",,"POINT (-87.676429 41.870597)"
"WALGREENS #09357","833 W 115TH ST","CHICAGO","IL","60643","Mon-Fri 8am-10pm; Sat-Sun 9am-5pm",,"Open",,"POINT (-87.64327 41.685065)"
"OSCO DRUG","5532 N CLARK","CHICAGO","IL","60640","M-Fri: 8:00am-10:00pm; Sat: 9:00am-6:00pm; Sun: 9:00am-5:00pm",,"open",,"POINT (-87.668573 41.98249)"
"WALGREENS #00232","3405 S King Dr","CHICAGO","IL","60616","Everyday 8am-10pm",,"open",,"POINT (-87.616993 41.832627)"
"CVS Pharmacy #","2939 W ADDISON ST","CHICAGO","IL","60618","M, Th, Fr: 9:00am-7:00pm; Tu-We: 8:00am-6:00pm; Sat: 9:00am-5:00pm; Sun: 11:00am-5:00pm",,"open",,"POINT (-87.701338 41.94667)"
"Addison Central Pharmacy","5600 W ADDISON ST","CHICAGO","IL","606344401",,,"unknown",,"POINT (-87.766945 41.946107)"
"Community, A Walgreens Pharmacy #15305","912 W BELMONT","CHICAGO","IL","60657","Mon: 9am-5pm; Tue-Fri: 9am-6:30pm; Sat-Sun: closed",,"open",,"POINT (-87.651999 41.939968)"
"CVS Pharmacy #","4433 S PULASKI RD","CHICAGO","IL","60632","M, Th, Fr: 9:00am-8:00pm; Tu-We: 8:00am-7:00pm; Sat: 9:00am-6:00pm; Sun: 9:00am-3:00pm",,"open",,"POINT (-87.723656 41.812519)"
"CVS PHARMACY","3101 N CLARK","CHICAGO","IL","60657","M-F: 9:00am-8:00pm; Sat-Sun: 10:00am-5:00pm",,"open",,"POINT (-87.649059 41.938005)"
"OSCO DRUG #3443","5345 N BROADWAY","CHICAGO","IL","60640","M-Fri: 8:00am-8:00pm; Sat: 9:00am-6:00pm; Sun: 9:00am-5:00pm",,"open",,"POINT (-87.659902 41.979454000000004)"
"Walmart Pharmacy 10-3110","7535 S Ashland Ave","Chicago","IL","606204246","Sun 10am-4pm; Mon 9am-7pm; Tues 6am-7pm; Wed-Sat 9am-7pm",,"Open","Boarded up for looting - 8.11.2020. Reopened on 7/29 from previous incident.","POINT (-87.663538 41.756362)"
"SAVE RITE PHARMACY DISCOUNT CENTER","3479 N BROADWAY ST","CHICAGO","IL","606572596","9am-5pm M-F,9am-4pm Sa",,"open",,"POINT (-87.645947 41.945204)"
"WALGREENS #03948","5140 WEST DIVERSEY","CHICAGO","IL","60639","Mon-Fri: 9am-9pm; Sat-Sun: 9am-5pm",,"open",,"POINT (-87.755488 41.931436)"
"Armitage Pharmacy, Inc.","3650 W Armitage Ave Suite 100","Chicago","IL","606473611","9am-6pm M-F, 9am-3pm Sa",,"open",,"POINT (-87.718715 41.917276)"
"MARIANO'S PHARMACY","1500 N Clybourn Ave Unit C104","Chicago","IL","60610","Sun: 10am-5pm; Mon-Fri: 9am-7pm; Sat: 9am-6pm",,"open",,"POINT (-87.646261 41.908623)"
"WALGREENS #02903","5222 W MADISON","CHICAGO","IL","60644","Mon-Tue: 8am-7pm; Wed-Fri: 8am-9pm; Sat-Sun: 9am-5pm",,"open",,"POINT (-87.755579 41.880429)"
"WALGREENS #00226","4005 W 26TH ST","CHICAGO","IL","60623","Mon-Fri: 9am-9pm; Sat-Sun: 9am-5pm",,"open",,"POINT (-87.72495 41.844257)"
"Osco Drug","370 N Desplaines St","Chicago","IL","60661","M-Fri: 8:00am-8:00pm; Sat-Sun: 9:00a-5:00pm",,"open",,"POINT (-87.644337 41.888757)"
"WALGREENS #10558","250 S WACKER","CHICAGO","IL","60606","Mon-Fri: 9am-6pm; Sat-Sun: closed",,"open","Closed temporarily for looting. 8/10/2020. Open again 8/11","POINT (-87.63691700000001 41.878217)"
"PHARMACA INTEGRATIVE PHARMACY INC","2338 N Clark St","Chicago","IL","606143423","8am-7pm M-F, 9-5pm Sa, 11-4pm Su",,"open",,"POINT (-87.639992 41.924851)"
"WALGREENS #07267","650 W 63RD ST","CHICAGO","IL","60621","Mon-Fri 9am-9pm; Sat-Sun 9am-5pm",,"Open",,"POINT (-87.641655 41.779811)"
"WALGREENS #6727","4720 N Marine Dr","CHICAGO","IL","60640","Mon: 9am-7pm; Tue-Fri: 9am-9pm; Sat-Sun: 9am-5pm",,"open",,"POINT (-87.649282 41.967817)"
"CVS PHARMACY","741 W 31ST","CHICAGO","IL","60608","M-F: 8:00am-8:00pm; Sat-Sun: 9:00am-6:00pm",,"open",,
"SHREE PHARMACY","1624 W MONTROSE AVE","CHICAGO","IL","606131214","2:30-6:30pm MTThF, 2pm-6pm Sa",,"open",,"POINT (-87.670116 41.961606)"
"CIRCLE MEDICAL MANAGEMENT","1426 W WASHINGTON BLVD","CHICAGO","IL","60607",,,"open",,"POINT (-87.66355400000002 41.882901)"
"MARIANO'S PHARMACY","2021 W CHICAGO AVE","CHICAGO","IL","60622","Sun: 10am-5pm; Mon-Fri: 9am-7pm; Sat: 9am-6pm",,"open",,"POINT (-87.677972 41.895918)"
"WALGREENS PRESCRIPTION CENTER","111 S Halsted St Ste A","Chicago","IL","60661","Mon-Fri: 7am-11pm; Sat-Sun: 9am-9pm",,"open",,"POINT (-87.647247 41.879862)"
"OSCO DRUG","3644 S ARCHER AVE","CHICAGO","IL","60609","M-Fri: 8:00am-8:00pm; Sat-Sun: 9:00am-5:00pm",,"open",,"POINT (-87.68249100000001 41.827526)"
"Walgreens #15493","1333 W Belmont Ave","Chicago","IL","60657","Mon-Fri: 8am-7pm; Sat-Sun: 9am-5pm",,"open",,"POINT (-87.662394 41.939813)"
"CVS PHARMACY","3311 N PULASKI RD","CHICAGO","IL","60641","M-F: 9:00am-8:00pm; Sat-Sun: 10:00am-5:00pm",,"open",,"POINT (-87.727248 41.941271)"
"WALGREENS #05867","3943 W 47TH ST","CHICAGO","IL","60632","Mon-Fri: 9am-7pm; Sat: 9am-5pm; Sun: 11am-3pm",,"open",,"POINT (-87.722773 41.807904)"
"WALGREENS #02025","3000 SOUTH HALSTED","CHICAGO","IL","60608","Mon-Fri: 9am-9pm; Sat-Sun: 9am-5pm",,"open",,"POINT (-87.646321 41.839849)"
"RITEWAY PHARMACY","4913 W Fullerton ave. ste 101","CHICAGO","IL","60639","10:30am-5pm M-F, 10:30am-2pm Sa",,"open",,"POINT (-87.749332 41.924181)"
"WALGREENS #09470","4817 W FULLERTON AVE","CHICAGO","IL","60639","Mon-Fri: 9am-9pm; Sat-Sun: 9am-5pm",,"open",,"POINT (-87.747293 41.924204)"
"CVS PHARMACY","9142 S CHICAGO","CHICAGO","IL","60617",,,"closed","permanently closed",
"WALGREENS #00163","4000 W 59TH ST","CHICAGO","IL","60629",,,"closed","scheduled to reopen between 9/21/2020 and 10/23/2020","POINT (-87.723556 41.78592100000001)"
"ELFMAN PHARMACY INC","3202 W NORTH AVE","CHICAGO","IL","60647","10am-5pm M-F, 9am-2pm Sa",,"open",,"POINT (-87.70708 41.910177)"
"WALGREENS #10771","6460 W FULLERTON AVE","CHICAGO","IL","60707",,,"permanently closed",,"POINT (-87.788113 41.923718)"
"WALGREENS #01308","7410 N CLARK","CHICAGO","IL","60626","Mon: 9am-7pm; Tue,Thu, Fri: 9am-9pm; Wed: 8am-9pm; Sat-Sun: 9am-5pm",,"open",,"POINT (-87.675327 42.016566)"
"Allcare Discount Pharmacy","2750 W North Ave","Chicago","IL","606475247","8:30am-7:30pm MT, 10:30am-7:30pm W,8:30am-5:30pm ThF, 9am-4:30pm Sa",,"open",,"POINT (-87.696515 41.910291)"
"LUNA PHARMACY","5352 N. LINCOLN","CHICAGO","IL","60625","10am-4pm M-F",,"open",,"POINT (-87.692681 41.979128)"
"TARPEY PHARMACY","5933 N Cicero Ave","CHICAGO","IL","606465701","8:30am-7pm M-F, 9am-5pm Sa",,"open",,"POINT (-87.748326 41.988972)"
"WALGREENS #04519","1320 E 47TH ST","CHICAGO","IL","60653",,,"closed","no reopening schedule, is to be determined","POINT (-87.593586 41.809713)"
"CVS Pharmacy #","2112 W PETERSON AVE","CHICAGO","IL","60659","M, Th, Fr: 9:00am-8:00pm; Tu-We: 8:00am-7:00pm; Sat-Sun: 9:00am-6:00pm",,"open",,"POINT (-87.683199 41.990654)"
"FARMACIA SAN JUDAS","3132 W North Ave","CHICAGO","IL","60647","10am-6pm M-F, 10am-3pm Sa",,"open",,"POINT (-87.705807 41.910193)"
"CVS Pharmacy #04688","745 W. 103rd. Street","Chicago","IL","60628",,,"closed","permanently closed","POINT (-87.642381 41.706922)"
"COSTCO WHOLESALE #1107","1430 S Ashland Ave","Chicago","IL","60608","Mon-Fri: 10am-7pm; Sat: 9:30am-6pm; Sun: closed",,"open",,"POINT (-87.666318 41.862387)"
"OSCO DRUG","9402 S ASHLAND AVE","CHICAGO","IL","60620","M-Fri: 8:00am-10:00pm; Sat: 9:00am-6:00pm; Sun: 9:00am-5:00pm",,"open",,"POINT (-87.662809 41.722954)"
"Presence Nazareth Family Center Pharmacy","1127 N OAKLEY BLVD","CHICAGO","IL","60622","9am -5pm M-F",,"open",,"POINT (-87.68461000000002 41.902138)"
"MARIAM PHARMACY","3514 W Lawrence Ave","Chicago","IL","606255612","10am-8pm M-Sa",,"open",,"POINT (-87.716634 41.968365)"
"WALGREENS #1496","6310 N NAGLE","CHICAGO","IL","60646","Mon-Fri: 9am-9pm; Sat-Sun: 9am-6pm",,"open",,"POINT (-87.787508 41.996012)"
"Walmart Pharmacy 10-5646","2551 W Cermak","Chicago","IL","60608","Sun 10am-6pm; Mon 9am-7pm; Tues 6am-7pm; Wed-Sat 9am-7pm",,"Open",,"POINT (-87.689211 41.852013)"
"CVS PHARMACY","3951 W 103RD ST","CHICAGO","IL","60655","Open 24 hours everyday","x","open",,"POINT (-87.720276 41.705847)"
"WALGREENS #05121","5935 W ADDISON ST","CHICAGO","IL","60634","Mon-Fri: 9am-9pm; Sat-Sun: 9am-5pm",,"open",,"POINT (-87.775442 41.945798)"
"WALGREENS #04937","5753 N CANFIELD AVE","CHICAGO","IL","60631","Mon-Fri: 9am-9pm; Sat-Sun: 9am-5pm",,"open",,"POINT (-87.823247 41.984894)"
"WALGREENS  #00259","3358 N WESTERN","CHICAGO","IL","60618","Mon: 9am-7pm; Tue-Fri: 9am-9pm; Sat-Sun: 9am-5pm",,"open",,"POINT (-87.688186 41.943165)"
"OSCO DRUG","101 W 87TH ST","CHICAGO","IL","60620","M-Fri: 9:00am-10:00pm; Sat: 9:00am-6:00pm; Sun: 9:00am-5:00pm",,"open",,"POINT (-87.625986 41.736178)"
"WALGREENS #04461","501 W ROOSEVELT RD","CHICAGO","IL","60607","Everyday 7:30am-10pm",,"open",,"POINT (-87.639319 41.86723)"
"Del-Kar Pharmacy Inc.","3726 W 16TH STREET","CHICAGO","IL","606232026","9am-5pm M-F, 9am-2pm Sa",,"open",,"POINT (-87.718365 41.858958)"
"WALGREENS #00249","1601 N WELLS","CHICAGO","IL","60614","Mon-Fri: 9am-9pm; Sat: 9am-6pm; Sun: 9am-5pm",,"CLOSED","Looting. 8/11/2020","POINT (-87.634715 41.911351)"
"LAWRENCE HOUSE PHARMACY","1001 W Lawrence Ave","CHICAGO","IL","606405017","10am-6pm M-F, 10am-3pm Sa",,"open",,"POINT (-87.65493100000002 41.969065)"
"WALGREENS #06238","2011 E 95TH ST","CHICAGO","IL","60617",,,"Permanently closed",,"POINT (-87.574639 41.722468)"
"WALGREENS #04306","1633 W 95TH ST","CHICAGO","IL","60643","Open 24 Hours Every day","x","Open",,"POINT (-87.66316500000002 41.721135)"
"WALGREENS #13106","11801 S AVENUE O","CHICAGO","IL","60617","Mon-Fri: 9am-9pm; Sat-Sun: 9am-5pm",,"open",,"POINT (-87.540034 41.680504)"
"Fullerton Pharmacy","5305 W Fullerton Ave","Chicago","IL","606391424","10:30am-6pm M-F, 10:30am-2pm Sa",,"open",,"POINT (-87.758804 41.924045)"
"CVS Pharmacy #","1200 N Larrabee St","CHICAGO","IL","60610","M, Th, Fr: 9:00am-7:00pm; Tu-We: 8:00am-6:00pm; Sat: 9:00am-5:00pm; Sun: 11:00am-5:00pm",,"open",,"POINT (-87.643205 41.903741)"
"CVS PHARMACY","4801 N CENTRAL","CHICAGO","IL","60630","M-F: 8:00am-8:00pm; Sat-Sun: 9:00am-6:00pm",,"open",,"POINT (-87.76746 41.968229)"
"WALGREENS #05057","3153 W IRVING PARK","CHICAGO","IL","60618","Mon-Fri: 9am-9pm; Sat-Sun: 9am-5pm",,"open",,"POINT (-87.707383 41.953888)"
"REAL DRUGS INC","1530 W CHICAGO AVE","CHICAGO","IL","606225236","10am-5pm MTThF, 10-3pm Sa",,"open",,"POINT (-87.666121 41.896093)"
"CVS PHARMACY","3940 WEST FULLERTON","CHICAGO","IL","60647","M-F: 9:00am-9:00pm; Sat: 9:00am-6:00pm; Sun: 10:00am-5:00pm",,"open",,"POINT (-87.725929 41.924548)"
"OSCO DRUG","2520 N NARRAGANSETT AVE","CHICAGO","IL","60639","M-Fri: 9:00am-10:00pm; Sat: 9:00am-6:00pm; Sun: 9:00am-5:00pm",,"open",,"POINT (-87.785559 41.926236)"
"WALGREENS #06762","11833 S WESTERN AVE","CHICAGO","IL","60643","Mon-Fri 8am-10pm; Sat-Sun 9am-5pm",,"open",,"POINT (-87.680658 41.677806)"
"BIENESTAR PHARMACY","966 W 21ST ST","CHICAGO","IL","60608","9am-6pm MTThF, 1pm-8pm W, 9am-1:30pm Sa",,"open",,"POINT (-87.65068900000001 41.853905)"
"Luna Pharmacy II","235 w 95th st","chicago","IL","606281321","10am-4pm M-Th, 10am-1pm F",,"open",,"POINT (-87.629999 41.721561)"
"MINI THUONG XA PHARMACY","1069 W ARGYLE ST","CHICAGO","IL","606403707","10am-5pm M-Su",,"open",,"POINT (-87.657251 41.973261)"
"CVS PHARMACY","8639 SOUTH CICERO AVE","CHICAGO","IL","60652","M-F: 9:00am-9:00pm; Sat: 9:00am-9:00pm; Sun:10:00am-7:00pm",,"open",,"POINT (-87.740886 41.735205)"
"WALGREENS #15281","2817 N Clark St","CHICAGO","IL","60657",,,"permanently closed",,"POINT (-87.645256 41.933282)"
"Halsted Pharmacy","1460 N Halsted St Ste 101","Chicago","IL","606422605","9am-6:30pm M-F",,"open",,"POINT (-87.648162 41.907986)"
"WALGREENS #09438","30 N Michigan Ave Lobby 1","CHICAGO","IL","60602","Mon-Fri: 8am-6pm; Sat-Sun: Closed",,"CLOSED","Looting. 8/11/2020","POINT (-87.624475 41.882435)"
"CVS Pharmacy","520 S State Street","Chicago","IL","60605","M-F: 9:00am-8:00pm, Sat-Sun: 10:00am-5:00pm",,"open",,"POINT (-87.627662 41.87514)"
"Walgreens #21160","1051 W Randolph","Chicago","IL","60607",,,"closed","to be determined. UPDATE Still closed - 8.11.2020","POINT (-87.654111 41.884211)"
"WALGREENS #15971","259 E Erie St Ste 250","Chicago","IL","60611","Mon: 8am-5pm; Tue-Fri: 8am-6pm; Sat-Sun: closed",,"open",,"POINT (-87.620648 41.894212)"
"CVS Pharmacy #","1154 S CLARK ST","CHICAGO","IL","60605","M, Th, Fr: 9:00am-8:00pm; Tu-We: 8:00am-7:00pm; Sat: 9:00am-6:00pm; Sun: 8:00am-5:00pm",,"open",,"POINT (-87.630528 41.867843)"
"AMBIKA PHARMACY INC","11309 S MICHIGAN AVE","CHICAGO","IL","606284911","10am-5pm M-F, 10am-3pm Sa",,"open",,"POINT (-87.621027 41.688596)"
"CVS PHARMACY","5205 N BROADWAY STREET","CHICAGO","IL","60640","M-F: 9:00am-8:00pm; Sat-Sun: 10:00am-6:00pm",,"open",,"POINT (-87.659831 41.976745)"
"WALGREENS #07360","3220 W 111TH ST","CHICAGO","IL","60655","Mon-Fri: 9am-9pm; Sat-Sun: 9am-5pm",,"open",,"POINT (-87.70181500000001 41.69155)"
"OSCO DRUG","424 W Division St","Chicago","IL","606101727","M-Fri: 8:00am-8:00pm; Sat-Sun: 9:00a-5:00pm",,"open",,"POINT (-87.639626 41.903827)"
"CVS PHARMACY","3944 N WESTERN AVE","CHICAGO","IL","60618","M-F: 9:00am-8:00pm; Sat-Sun: 10:00am-5:00pm",,"open",,"POINT (-87.688493 41.953538)"
"OSCO DRUG #3455","4355 N SHERIDAN RD","CHICAGO","IL","60613","M-Fri: 8:00am-8:00pm; Sat: 9:00am-6:00pm; Sun: 9:00am-5:00pm",,"open",,"POINT (-87.654722 41.961462)"
"Walmart Pharmacy 10-3166","4720 S Cottage Grove Ave","Chicago","IL","606151612","Sun 10am-4pm; Mon 9am-7pm; Tues 6am-7pm; Wed-Sat 9am-7pm",,"Open","Boarded up for looting - 8.11.2020. Reopened on 7/29 from previous incident.","POINT (-87.606539 41.80867)"
"Scripts Rx Pharmacy","1333 W Belmont Ave STE 320","Chicago","IL","60657","8am-7pm M-F",,"open",,"POINT (-87.662394 41.939813)"
"Walgreens #13975","711 W North Ave Ste 204","Chicago","IL","60610","M,W,F: 10am-5pm; Tu, Th: 10am-7pm; Sat-Sun: closed",,"open",,"POINT (-87.64619 41.910976)"
"MARIANO'S PHARMACY","2112 N ASHLAND AVE","CHICAGO","IL","60614","Sun: 10am-5pm; Mon-Fri: 9am-7pm; Sat: 9am-6pm",,"open",,"POINT (-87.668539 41.920702)"
"WALGREENS #03698","3201 N BROADWAY ST","CHICAGO","IL","60657","Mon-Fri: 7am-11pm; Sat-Sun: 9am-9pm",,"open",,"POINT (-87.644391 41.940147)"
"belmont & western Farmacia,llc","2212 W BELMONT AVE","CHICAGO","IL","606186421",,,"unknown",,"POINT (-87.683756 41.939518)"
"WALGREENS #01310","3110 W ARMITAGE","CHICAGO","IL","60647","Mon-Fri: 9am-9pm; Sat-Sun: 9am-5pm",,"open",,"POINT (-87.70597300000001 41.917418)"
"First Family Pharmacy Plus","2140 W Devon Ave # 1W","Chicago","IL","606592125","12pm-7:30pm M-F, 12pm-4pm Sa",,"open",,"POINT (-87.684109 41.997819)"
"CVS Pharmacy #","11840 S MARSHFIELD AVE","CHICAGO","IL","60643",,,"closed","permanently closed","POINT (-87.662503 41.678451)"
"Walmart Pharmacy 10-5781","8331 S Stewart Ave","Chicago","IL","606201728","Sun 10am-6pm; Mon 9am-7pm; Tues 6am-7pm; Wed-Sat 9am-7pm",,"CLOSED","Reopening in November but no exact data - 8.11.2020","POINT (-87.634052 41.740814)"
"CVS Pharmacy # 17711","3300 N Ashland Ave","Chicago","IL","606572109","M, Th, Fr: 9:00am-8:00pm; Tu-We: 7:00am-7:00pm; Sat: 9:00am-5:00pm; Sun- 11:00am-5:00pm",,"open",,"POINT (-87.66875400000002 41.941143)"
"ROSENS MORSEVIEW PHARMACY","2955 W Devon Ave","CHICAGO","IL","606591585","9am-7pm M-F, 9am-5pm Sa",,"open",,"POINT (-87.704233 41.997474)"
"CVS PHARMACY","105 S WABASH","CHICAGO","IL","60603","Mon-Fri 6:30am-10pm; Sat 8am-8pm Sun 8am-4pm",,"Open",,"POINT (-87.626161 41.880745)"
"ELSDON MEDICAL PHARMACY","4254 W 55TH ST","CHICAGO","IL","606324697","9am-7pm M-Th, 9am-6pm F, 9am-3pm Sa",,"open",,"POINT (-87.73021 41.793167)"
"Uptown Pharmacy, Inc.","4535 N Sheridan Rd","Chicago","IL","606407611","9am-7pm M-F, 9am-3pm Sa",,"open",,"POINT (-87.654771 41.964682)"
"Walmart Pharmacy 10-5645","2844 N Broadway St","Chicago","IL","606576017","Sun 10am-6pm; Mon 9am-7pm; Tues 6am-7pm; Wed-Sat 9am-7pm",,"Open",,"POINT (-87.644278 41.934267000000006)"
"Jackson Park Pharmacy","7531 S STONY ISLAND AVE","CHICAGO","IL","606493913","Mon-Fri 9am-5:30pm; Sat 9am-3pm; Sun closed",,"open",,"POINT (-87.58571 41.757332)"
"WALGREENS #01298","1372 N MILWAUKEE","CHICAGO","IL","60622","Mon-Fri: 9am-9pm; Sat-Sun: 9am-5pm",,"open",,"POINT (-87.671916 41.90684000000001)"
"WALGREENS #16085","100 W RANDOLPH ST STE 101","CHICAGO","IL","60601","Mon-Fri: 7:30 am-5:30 pm; Sat-Sun: closed",,"CLOSED","Looting. 8/11/2020","POINT (-87.631423 41.884501)"
"CVS Pharmacy #04793","1211 W Roosevelt Rd","Chicago","IL","606081413","M-F: 9:00am-8:00pm; Sat: 10:00am-6:00pm; Sun: 10:00am-5:00pm",,"open",,"POINT (-87.657181 41.866968)"
"Walgreens #16501","6500 N Clark St","Chicago","IL","606264097","Mon-Thurs 9am-7pm; Fri 9am-5pm; Sat 9am-3pm; Sun Closed",,"open",,"POINT (-87.671276 41.999881)"
"HEALTHY ZONE PHARMACY","7107 W Belmont Ave Ste 6","Chicago","IL","606344500","Mon-Fri 12pm-6pm; Sat 12pm-3pm; Sun closed",,"open",,"POINT (-87.804222 41.938044)"
"LITTLE VILLAGE PHARMACY, INC","3811 w 26th st","chicago","IL","60623","9:30am-6pm M-F",,"open",,"POINT (-87.72009500000001 41.844319)"
"CVS PHARMACY","175 WEST JACKSON","CHICAGO","IL","60604",,,"closed","permanently closed","POINT (-87.633187 41.878118)"
"SOUTH TOWN PHARMACY","11000 S HALSTED ST","CHICAGO","IL","606283990",,,"closed",,"POINT (-87.64249800000002 41.69401)"
"WALGREENS #00118","5650 W BELMONT AVE","CHICAGO","IL","60634","Mon-Fri: 9am-9pm; Sat-Sun: 9am-5pm",,"open",,"POINT (-87.768653 41.938559)"
"WALGREENS #00211","757 N MICHIGAN AVE","CHICAGO","IL","60611","Mon-Fri: 7am-11pm; Sat-Sun: 9am-9pm",,"open",,"POINT (-87.624189 41.896123)"
"WALGREENS #07179","2 E ROOSEVELT RD","CHICAGO","IL","60605","Mon-Fri 9am-9pm; Sat-Sun 9am-5pm",,"Open",,"POINT (-87.62717 41.867498)"
"CVS PHARMACY","6200 W HIGGINS","CHICAGO","IL","60630","M-F: 9:00am-8:00pm; Sat-Sun: 10:00am-5:00pm",,"open",,"POINT (-87.783716 41.974926)"
"VAISHALI PHARMACY INC","2915 w cermak road","CHICAGO","IL","60623","12pm-4pm M-F",,"open",,"POINT (-87.699326 41.851869)"
"MARIANO'S PHARMACY","1800 W Lawrence Ave","Chicago","IL","60640","Sun: 10am-5pm; Mon-Fri: 9am-7pm; Sat: 9am-6pm",,"open",,"POINT (-87.675062 41.968858)"
"RISHI PHARMACY INC","4909 W DIVISION","CHICAGO","IL","60651","10am-6:30pm M-F, 10am-3pm Sa",,"open",,"POINT (-87.748792 41.902346)"
"CVS PHARMACY","8025 S ASHLAND","CHICAGO","IL","60620",,,"closed","permanently closed","POINT (-87.663311 41.747632)"
"AlphaCare Pharmacy","3207 W Fullerton","Chicago","IL","60647","9am-5pm M-F",,"open",,"POINT (-87.70796 41.924673)"
"WALGREENS #09001","191 N CLARK ST","CHICAGO","IL","60601",,,"permanently closed",,"POINT (-87.630949 41.88547)"
"WALGREENS #07630","933 N STATE ST","CHICAGO","IL","60610","Mon-Fri: 9am-9pm; Sat: 9am-5pm; Sun: 10am-6pm",,"CLOSED","Looting. 8/11/2020","POINT (-87.628321 41.900078)"
"WALGREENS PRESCRIPTION CENTER","5625 N Ridge Ave Ste A","Chicago","IL","606603434","Mon-Fri: 7am-11pm; Sat-Sun: 9am-9pm",,"open",,"POINT (-87.660897 41.984142)"
"WALGREENS #04938","4748 W NORTH AVE","CHICAGO","IL","60639","Mon-Sun 8am-10pm",,"Open",,"POINT (-87.745091 41.909708)"
"WALGREENS #03949","3046 N HALSTED STREET","CHICAGO","IL","60657","Mon-Fri: 9am-9pm; Sat-Sun: 9am-5pm",,"open",,"POINT (-87.649177 41.937783)"
"CVS Pharmacy # 01054","101 N. Clinton St","Chicago","IL","60661","M-F: 7:00am-7:00pm; Sat: 10:00am-2:00pm; Sun: closed",,"open",,"POINT (-87.64124300000002 41.883965)"
"CVS PHARMACY","344 W HUBBARD","CHICAGO","IL","60610","Mon-Fri 8am-8pm; Sat 9am-5pm; Sun 10am-5pm",,"Open",,"POINT (-87.63730600000001 41.889964)"
"WALGREENS #05926","4385 S ARCHER","CHICAGO","IL","60632","Mon-Fri: 9am-9pm; Sat-Sun: 9am-5pm",,"open",,"POINT (-87.705004 41.813665)"
"OSCO DRUG","2550 NORTH CLYBOURN AVE","CHICAGO","IL","60614","M-Fri: 8:00am-8:00pm; Sat-Sun: 9:00a-5:00pm",,"open",,"POINT (-87.67355 41.928315)"
"K AND K PHARMACY","401E 61ST ST","CHICAGO","IL","606372366","9:30am-5:30pm M-F, 9:30am-2:30pm Sa",,"open",,"POINT (-87.615365 41.783875)"
"WALGREENS #09709","4010 W LAWRENCE AVE","CHICAGO","IL","60630","Mon-Fri 8am-12am; Sat-Sun 9am-9pm",,"open",,"POINT (-87.72850700000001 41.96827400000001)"
"COLUMBIA PHARMACY INC","2929 S Wabash Ste 101","CHICAGO","IL","60616","Mon-Fri 8am-5pm; Sat-Sun Closed",,"open",,"POINT (-87.625216 41.841132)"
"Drug Center Pharmacy","4613 N Sheridan Rd","Chicago","IL","606405019","9am -5pm M-F",,"open",,"POINT (-87.654807 41.965811)"
"LAWNDALE CHRISTIAN HEALTH CENTER PHARMACY","3860 W OGDEN AVE","CHICAGO","IL","60623","9am-5pm M-Sa",,"open",,"POINT (-87.721905 41.852254)"
"GSK PHARMACY INC","5140 W CHICAGO AVE","CHICAGO","IL","606512903","1pm-5pm M-Sa",,"open",,"POINT (-87.754791 41.894966)"
"CVS PHARMACY","3637 N SOUTHPORT","CHICAGO","IL","60613","M-F: 8:00am-8:00pm; Sat-Sun: 9:00am-6:00pm",,"open",,"POINT (-87.664022 41.947888)"
"OSCO DRUG","2940 N ASHLAND AVE","CHICAGO","IL","60657","M-Fri: 8:00am-10:00pm; Sat: 9:00am-6:00pm; Sun: 9:00am-5:00pm",,"open",,"POINT (-87.66857 41.93556)"
"Surecare pharmacy inc.","2001 S California Ave Ste 103","Chicago","IL","606082486","9am-4:30pm M-F, 9am-2pm Sa",,"open",,"POINT (-87.695551 41.854768)"
"Carecenter Pharmacy LLC","69 W WASHINGTON STE LL09","CHICAGO","IL","60602","8am-4pm",,"open",,"POINT (-87.629912 41.883221)"
"WALGREENS #215","3045 W 26TH ST","CHICAGO","IL","60623","Mon-Fri: 9am-7pm; Sat: 9am-5pm; Sun: 11am-3pm",,"open",,"POINT (-87.701928 41.844608)"
"OSCO DRUG","4032 W FOSTER AVE","CHICAGO","IL","60630","M-Fri: 8:00am-10:00pm; Sat: 9:00am-6:00pm; Sun: 9:00am-5:00pm",,"open",,"POINT (-87.72908 41.975471)"
"Walgreens #15004","953 W Irving Park Rd","Chicago","IL","60613","Mon-Fri: 9am-9pm; Sat-Sun: 9am-5pm",,"open",,"POINT (-87.654117 41.954503)"
"B&K DRUGS","3758 W CHICAGO AVE","CHICAGO","IL","60651","10am-6pm M-F, 10am-2pm Sa",,"open",,"POINT (-87.720788 41.895453)"
"Walgreens #15196","151 N State St","Chicago","IL","60601","Mon-Fri: 8am-6pm; Sat-Sun: 9am-5pm",,"open","Closed temporarily for looting. 8/10/2020. Open again 8/11","POINT (-87.627827 41.884687)"
"OSCO DRUG #3470","3572 N ELSTON","CHICAGO","IL","60618","M-Fri: 8:00am-8:00pm; Sat: 9:00am-6:00pm; Sun: 9:00am-5:00pm",,"open",,"POINT (-87.708229 41.946241)"
"WALGREENS #04494","1649 W BELMONT","CHICAGO","IL","60657","Mon-Fri: 9am-9pm; Sat-Sun: 9am-5pm",,"open",,"POINT (-87.670252 41.939691)"
"WALGREENS #02211","5036 S Cottage Grove Ave","CHICAGO","IL","60615",,,"closed","scheduled to reopen the week of 11/23/2020","POINT (-87.606428 41.80290500000001)"
"CVS PHARMACY","1930 W103RD ST","CHICAGO","IL","60643","M-Sunday: 8:00am-10:00pm",,"open",,"POINT (-87.669822 41.706575)"
"WALGREENS #02586","2301 W IRVING PARK","CHICAGO","IL","60618","Mon: 9am-7pm; Tue-Fri: 9am-9pm; Sat-Sun: 9am-5pm",,"open",,"POINT (-87.686053 41.954021)"
"SINAI COMMUNITY PHARMACY INC","CALIFORNIA AVE AT 15TH ST","CHICAGO","IL","606081797","9am-7pm M-F, 9am-2pm Sa",,"open",,
"Mercy Community Pharmacy at Oakwood Shores","3753 S Cottage Grove Ave","Chicago","IL","606532006","8am-5pm M-F",,"open",,"POINT (-87.608224 41.826598)"
"Well Future Pharmacy LLC (now capsule pharmacy)","1442 S Michigan Ave","Chicago","IL","606052811","9:30am-6:30pm M-F, 9am-1pm Sa",,"open",,"POINT (-87.624049 41.862739000000005)"
"WALGREENS #07687","3320 W FULLERTON","CHICAGO","IL","60647","Mon-Fri: 9am-9pm; Sat-Sun: 9am-5pm",,"open",,"POINT (-87.711594 41.924715)"
"WALGREENS #15506","3303 W 26th St Ste 101","Chicago","IL","60623","Mon-Fri: 9am-6pm; Sat-Sun: closed",,"open",,"POINT (-87.707755 41.844507)"
"CVS PHARMACY","130 SOUTH CANAL ST","CHICAGO","IL","60606","M-F: 7:00am-7:00pm; Sat-Sun: Closed",,"open",,"POINT (-87.639651 41.879803)"
"WALGREENS #04936","4040 N CICERO AVE","CHICAGO","IL","60641","Mon-Fri: 9am-9pm; Sat-Sun: 9am-5pm",,"open",,"POINT (-87.747386 41.954592)"
"CVS Pharmacy #","1101 W Jackson Blvd","Chicago","IL","60607","M, Th, Fr: 9:00am-8:00pm; Tu-We: 8:00am-7:00pm; Sat-Sun: 9:00am-6:00pm",,"open",,"POINT (-87.654886 41.877858)"
"MONIK PHARMACY","2266 n. lincoln ave LL","CHICAGO","IL","60614","9am-5pm M-F, 9am-1pm Sa",,"open",,"POINT (-87.64575500000001 41.923329)"
"COSTCO WHOLESALE","2746 N CLYBOURN AVE","CHICAGO","IL","60614","Mon-Fri: 10am-7pm; Sat: 9:30am-6pm; Sun: closed",,"open",,"POINT (-87.676224 41.930664)"
"111th Pharma Family","11101 S STATE ST","CHICAGO","IL","60628","10am-7pm M-F",,"open",,"POINT (-87.623104 41.692531)"
"OSCO DRUG #3262","4660 IRVING PARK RD","CHICAGO","IL","60641","M-Fri: 8:00am-8:00pm; Sat: 9:00am-6:00pm; Sun: 9:00am-5:00pm",,"open",,"POINT (-87.744868 41.953468)"
"Presence Apothecary Chicago","7447 W Talcott Ave","CHICAGO","IL","606313760","Mon-Tues 9am-7pm; Wed 9am-5pm; Thurs 8am-7pm; Fri 9am-5pm; Sat-Sun Closed",,"open",,"POINT (-87.812974 41.988665)"
"DEITCH PHARMACY INC","1800 W CHICAGO AVE","CHICAGO","IL","606225591","10am-7pm M-F, 10am-5pm Sa",,"open",,"POINT (-87.672558 41.896003)"
"MARIANOS PHARMACY","3030 N Broadway St SUITE 100","Chicago","IL","60657","Sun: 10am-5pm; Mon-Fri: 9am-7pm; Sat: 9am-6pm",,"open",,"POINT (-87.644291 41.937393)"
"CVS PHARMACY","3343 W MONTROSE AVE","CHICAGO","IL","60618","M-F: 9:00am-9:00pm: Sat-Sun: 10:00am-5:00pm",,"open",,"POINT (-87.712181 41.96116)"
"WALGREENS #05124","8628 S COTTAGE GROVE AVE","CHICAGO","IL","60619","Open 24 hours everyday","x","open",,"POINT (-87.604949 41.737951)"
"CVS Pharmacy #","7100 S CICERO AVE","Chicago","IL","60629","Mo, Th, Fr: 9:00am - 7:00pm; Tu, We: 8:00am- 6:00pm; Sat: 9:00am-5:00pm; Sun: 11:00am-5:00pm",,"open",,"POINT (-87.742015 41.764792)"
"BRIDGEPORT PHARMACY","3201 S WALLACE ST","CHICAGO","IL","60616",,,"unknown",,"POINT (-87.641362 41.836232)"
"Touhy Family Pharmacy","6201 W Touhy Ave Ste 101","Chicago","IL","606461100","10am-6pm MTh, 9am-7pm TW, 9am-6pm F,10am-2pm Sa",,"open",,"POINT (-87.781979 42.011931)"
"OSCO DRUG","5324 S PULASKI","CHICAGO","IL","60632","M-Fri: 8:00am-10:00pm; Sat: 9:00am-6:00pm; Sun: 9:00am-5:00pm",,"open",,"POINT (-87.723313 41.795993)"
"6 CORNER PHARMACY","4211 N Cicero Ave Ste 102","Chicago","IL","606411650",,,"unknown",,"POINT (-87.74736 41.957627)"
"WALGREENS #02877","2440 W NORTH AVE","CHICAGO","IL","60647","Mon-Fri: 8am-8pm; Sat-Sun: 9am-5pm",,"open",,"POINT (-87.688632 41.910356)"
"CVS Pharmacy #","6525 W DIVERSEY AVE","CHICAGO","IL","60707","M-F: 9:00am-8:00pm; Sat-Sun: 9:00am-6:00pm",,"open",,"POINT (-87.787135 41.930987)"
"WALGREENS #01417","1931 W CERMAK","CHICAGO","IL","60608","Mon-Tue: 8am-9pm; Wed-Fri: 8am-10pm; Sat: 9am-6pm; Sun:10am-6pm",,"open",,"POINT (-87.674125 41.852232)"
"OSCO DRUG","11730 S MARSHFIELD AVE","CHICAGO","IL","60643","M-Fri: 8:00am-10:00pm; Sat: 9:00am-6:00pm; Sun: 9:00am-5:00pm",,"open",,"POINT (-87.66251200000002 41.6814)"
"Parkway Drugs, A Walgreen Pharmacy #15044","680 N Lake Shore Dr Ste 108","Chicago","IL","60611","Mon-Fri: 8am-7pm; Sat: 8am-4pm; Sun: 10am-4pm",,"Open","Closed temporarily for looting. 8/10/2020. Open again 8/11","POINT (-87.615806 41.894985)"
"SEELEY PHARMACY INC","2024 W 79TH ST","CHICAGO","IL","606205798","10:30am-3:30pm M-Sa",,"open",,"POINT (-87.674038 41.750211)"
"OSCO DRUG #3296","7342 W FOSTER AVE","CHICAGO","IL","60656","M-Fri: 8:00am-8:00pm; Sat-Sun: 9:00a-5:00pm",,"open",,"POINT (-87.811426 41.974395)"
"BROADWAY PHARMACY INC","4564 N BROADWAY ST","CHICAGO","IL","60640","10am-5pm M-F",,"open",,"POINT (-87.657022 41.964717)"
"FMP PHARMACY-SCMS","5215 N California Ave STE F-103","CHICAGO","IL","60625","10am-6pm M-F, 9am-3pm Sa",,"open",,"POINT (-87.698942 41.976241)"
"WALMART PHARMACY 10-5402","4650 WEST NORTH AVE","CHICAGO","IL","60639",,,"closed","reopening week of 6/22/2020 depending on safety and security of the area. UPDATE: Reopening in Nov - 8.11.2020","POINT (-87.743003 41.909734)"
"VGJ PHARMACY","1631 N Halsted St","Chicago","IL","606145517",,,"unknown",,"POINT (-87.648293 41.911842)"
"ENGLEWOOD RX PHARMACY INC","6508 S Halsted St","CHICAGO","IL","606212616","9am-4pm M-F, 9am-2pm Sa",,"open",,"POINT (-87.644765 41.775802)"
"Walgreens #16441","2826 Martin Luther King","Chicago","IL","606160000","Mon-Fri: 9am-9pm, Sat 9am-6pm; Sun  9am-5pm",,"open",,
"Pulse Pharmacy","2875 W 19th St Ste # 201","Chicago","IL","606233501","9am-6pm M-F, 9am-1pm Sa",,"open",,
"MERZ BROTHERS APOTHECARY","4716 N LINCOLN AVE","CHICAGO","IL","60625","10am-5pm M-F",,"open",,"POINT (-87.687467 41.96697)"
"CVS PHARMACY","2634 S PULASKI","CHICAGO","IL","60623","M-F: 9:00am-8:00pm; Sat: 10:00am-6:00pm; Sun: 10:00am-5:00pm",,"open",,"POINT (-87.72451500000001 41.843454)"
"WALGREENS #07359","3222 N MILWAUKEE AVE","CHICAGO","IL","60618","Mon-Fri: 9am-9pm; Sat-Sun: 9am-5pm",,"open",,"POINT (-87.724725 41.939651)"
"CVS PHARMACY","3156 WEST 103RD STREET","CHICAGO","IL","60655","M-F: 9:00am-8:00pm; Sat-Sun: 10:00am-5:00pm",,"open",,"POINT (-87.700555 41.706242)"
"WALGREENS #12304","2744 N California Ave","Chicago","IL","60647","Mon: 9am-7pm; Tue-Thurs: 9am-9pm; Fri: 9am-8:45pm; Sat-Sun: 9am-5pm",,"open",,"POINT (-87.697589 41.931419)"
"M & R Prescription Center","1959 E 71ST ST","CHICAGO","IL","606492081","9am -3pm M-F",,"open",,"POINT (-87.57661 41.766048)"
"CVS PHARMACY # 05482","3615 N. Central Ave","Chicago","IL","60634","M-F: 9:00am-8:00pm; Sat-Sun: 10:00am-6:00pm",,"open",,"POINT (-87.766752 41.946792)"
"CVS PHARMACY","7855 S WESTERN AVE","CHICAGO","IL","60620","Mon-Fri 9am-9pm; Sat 10am-6pm; Sun 10am-5pm",,"open",,"POINT (-87.682795 41.750401)"
"Walmart Pharmacy 10-5617","4626 W Diversey Ave","Chicago","IL","60639","Sun 10am-6pm; Mon 9am-7pm; Tues 6am-7pm; Wed-Sat 9am-7pm",,"Open",,"POINT (-87.74243 41.931608)"
"WALGREENS #01173","1520 W FULLERTON","CHICAGO","IL","60614","Mon-Fri: 9am-9pm; Sat-Sun: 9am-5pm",,"open",,"POINT (-87.666698 41.925188)"
"WALGREENS #4349","201 W MADISON ST","CHICAGO","IL","60606","Mon-Fri: 8am-6pm; Sat-Sun: 9am-5pm",,"CLOSED","Looting. 8/11/2020","POINT (-87.634594 41.881927)"
"Ethos Pharmacy","4332 N Elston Ave","Chicago","IL","606412144","Mon-Sat 9am-6pm; Sun Closed",,"open",,"POINT (-87.727864 41.959677)"
"CVS PHARMACY #05394","1200 N Ashland Ave Unit C-1","Chicago","IL","606222259","M-F: 9:00am-8:00pm, Sat-Sun: 10:00am-5:00pm",,"open",,"POINT (-87.667591 41.903444)"
"MORGAN PARK PHARMACY","11157 S HALSTED ST","CHICAGO","IL","606283995",,,"unknown",,"POINT (-87.642281 41.691024)"
"CVS PHARMACY","1714 N SHEFFIELD AVE","CHICAGO","IL","60614","M-F: 7:00am-12:00am; Sat-Sun: 7:00am-12:00am",,"open",,"POINT (-87.65314 41.912285)"
"WALGREENS #05034","6315 S KEDZIE AVE","CHICAGO","IL","60629","Mon-Fri: 8am-10pm; Sat-Sun: 9am-5pm",,"open",,"POINT (-87.703131 41.778351)"
"J AND S COMMUNITY PHARMACY","743 S PULASKI","CHICAGO","IL","60624",,,"unknown",,"POINT (-87.725346 41.871263)"
"ROSENBLUM DRUG","2123 E 71ST ST","CHICAGO","IL","606492103","Mon-Fri 10am-6pm; Sat-Sun Closed",,"open",,"POINT (-87.572737 41.766104)"
"WALGREENS #03395","3401 W ROOSEVELT RD","CHICAGO","IL","60624","Mon-Tue: 8am-9pm; Wed-Fri: 8am-10pm; Sat: 9am-6pm; Sun:10am-6pm",,"open",,"POINT (-87.710713 41.866364)"
"CVS PHARMACY #03742","121 W KINZIE ST","CHICAGO","IL","60610","Mon-Fri 9am-8pm Sat-Sun: closed",,"Open",,"POINT (-87.631764 41.889196)"
"200 PHARMACY INC","9133 S STONY ISLAND","CHICAGO","IL","60617","9am-6pm M-F, 9am-3pm Sa",,"open",,"POINT (-87.585035 41.728553)"
"MARIANOS PHARMACY","3857 S DR MARTIN LUTHER KING JR DR","CHICAGO","IL","60653","Sun: 10am-5pm; Mon-Fri: 9am-7pm; Sat: 9am-6pm",,"open",,
"HEINZ DRUGS","559 W 103RD ST","CHICAGO","IL","606282499","8am-8pm M-F",,"open",,"POINT (-87.63769300000001 41.706981)"
"KATSAROS PHARMACY","1521 E 53RD ST","CHICAGO","IL","60615","9:30am-6:30pm M-F, 9am-4pm Sa",,"open",,"POINT (-87.588263 41.799585)"
"WALGREENS #05234","5435 S KEDZIE AVE","CHICAGO","IL","60632","Open 24 hours everyday","x","open",,"POINT (-87.70357 41.794161)"
"WALGREENS #15921","410 N Michigan Ave","CHICAGO","IL","60611","Mon-Fri: 9am-6pm; Sat-Sun: 9am-5pm",,"CLOSED","Looting. 8/11/2020","POINT (-87.62426 41.889807)"
"Walgreens #15678","3245 N Halsted St Ste 101","Chicago","IL","60657","Mon, Wed-Thurs: 9am-6pm; Tues: 10am-6pm; Fri: 9am-5pm; Sat: 9am-3pm; Sun: closed",,"open",,"POINT (-87.649291 41.941217)"
"CVS PHARMACY","2414 N LINCOLN AVE","CHICAGO","IL","60614","M-F: 9:00am-7:00pm; Sat: 10:00am-3:00am; Sun: Closed",,"open",,"POINT (-87.64909200000001 41.925718)"
"WALGREENS #06641","1614 W 47TH ST","CHICAGO","IL","60609","Mon-Fri: 9am-9pm; Sat-Sun: 9am-5pm",,"open",,"POINT (-87.66575 41.808651)"
"Walgreens #13974","225 E Chicago Ave","Chicago","IL","606112991","Mon-Fri 8am-7pm; Sat 9am-4pm; Sun Closed",,"open",,"POINT (-87.621906 41.89674600000001)"
"CVS Pharmacy #","8560 S COTTAGE GROVE AVE","CHICAGO","IL","60619",,,"closed","permanently closed","POINT (-87.604985 41.739156)"
"WALGREENS #06297","6016 W 63RD ST","CHICAGO","IL","60638","Mon-Fri 8am-10pm; Sat-Sun 9am-5pm",,"open",,"POINT (-87.772166 41.777886)"
"CVS/PHARMACY # 05836","1228 EAST 53RD ST","CHICAGO","IL","60615","M,Th, Fr: 10:00am-6:00pm; Tu-We: 7:00am-5:00pm; Sat: 12:00pm-5:00pm; Sun: Closed",,"open",,"POINT (-87.594709 41.799506)"
"WALGREENS #03072","641 N CLARK STREET","CHICAGO","IL","60654","Everyday 9am-9pm",,"CLOSED","Looting. 8/11/2020","POINT (-87.631165 41.893542000000004)"
"AMBER PHARMACY","213 W INSTITUTE PLACE STE 703","CHICAGO","IL","60610","8am-5pm M-F",,"open",,"POINT (-87.635219 41.89741)"
"Healthy Domain Pharmacy","2315 W Belmont Ave Ste A","Chicago","IL","606186422","9am-12pm M-F, 10am-12pm Sa",,"open",,"POINT (-87.686355 41.939484)"
"Walgreens Prescripton Center #16448","1601 N MILWAUKEE AVE STE A","CHICAGO","IL","606475411","Mon-Fri: 9am-9pm, Sat-Sun: 9am-5pm",,"open",,"POINT (-87.67768600000001 41.91053)"
"WALGREENS #03950","4343 NORTH KEDZIE","CHICAGO","IL","60618","Mon-Fri: 9am-9pm; Sat-Sun: 9am-5pm",,"open",,"POINT (-87.708216 41.960546)"
"CVS Pharmacy #","1346 E 53rd St","Chicago","IL","606154046","M, Th, Fr: 10:00am-6:00pm; Tu-We: 7:00am-5:00pm; Sat: 12:00pm-5:00pm; Sun: Closed",,"open",,"POINT (-87.593095 41.799527)"
"ROSELAND PHARMACY","11254 S MICHIGAN AVE","CHICAGO","IL","606284941",,,"closed",,"POINT (-87.621034 41.689085)"
"Pilsen Pharmacy LLC","1868 S Blue Island Ave","Chicago","IL","606083013","9am-6pm M-F, 9am-3pm Sa",,"open",,"POINT (-87.662429 41.856401)"
"OSCO DRUG","1224 S WABASH","CHICAGO","IL","60605","M-Fri: 8:00am-10:00pm; Sat: 9:00am-6:00pm; Sun: 9:00am-5:00pm",,"open",,"POINT (-87.6258 41.866345)"
"CVS PHARMACY","6417 W HIGGINS","CHICAGO","IL","60656","M-F: 8:00am-8:00pm; Sat: 9:00am-6:00pm; Sun: 10:00am-6:00pm",,"open",,"POINT (-87.788495 41.976453)"
"Walgreens #15065","1601 N Milwaukee Ave","Chicago","IL","60647","Mon-Fri: 9am-9pm; Sat-Sun: 9am-5pm",,"open",,"POINT (-87.67768600000001 41.91053)"
"Community Pharmacy","9718 S Halsted St","Chicago","IL","606281007","9am-6pm MTWF, 11am-8pm Th, 8am-12am Sa",,"open",,"POINT (-87.643191 41.716982)"
"MARIANO'S PHARMACY","3145 SOUTH ASHLAND AVE","CHICAGO","IL","60608","Sun: 10am-5pm; Mon-Fri: 9am-7pm; Sat: 9am-6pm",,"open",,"POINT (-87.66563800000002 41.836512)"
"OSCO DRUG","4734 N PUEBLO","CHICAGO","IL","60656","M-Fri: 8:00am-10:00pm; Sat-Sun: 9:00am-5:00pm",,"open",,"POINT (-87.836778 41.965579)"
"CVS PHARMACY","2815 N WESTERN AVE","CHICAGO","IL","60618","M-F: 9:00am-8:00pm; Sat-Sun: 10:00am-5:00pm",,"open",,"POINT (-87.687836 41.932759)"
"Walgreens #15507","3800 W Madison St Ste 101","Chicago","IL","60624","Mon-Fri: 9am-6pm; Sat-Sun: Closed",,"open",,"POINT (-87.72102 41.880796)"
"WALGREENS #04542","5625 N RIDGE","CHICAGO","IL","60660","Mon-Fri: 7am-11pm; Sat-Sun: 9am-9pm",,"open",,"POINT (-87.660897 41.984142)"
"WALGREENS #02432","200 WEST ADAMS","CHICAGO","IL","60606",,,"closed","scheduled to reopen the week of 6/16/2020. UPDATE: Still closed as of 8.11.2020","POINT (-87.633786 41.879371)"
"WALGREENS #02711","7150 W ARCHER AVE","CHICAGO","IL","60638","Mon-Fri: 9am-9pm; Sat-Sun: 9am-5pm",,"open",,"POINT (-87.800485 41.792014)"
"CVS PHARMACY","8444 S PULASKI","CHICAGO","IL","60652",,,"closed","permanently closed","POINT (-87.721681 41.739649)"
"REX PHARMACEUTICALS INC","6853 S HALSTED ST","CHICAGO","IL","606211896","9:30am-6pm M-F, 9:30am-5pm Sa",,"open",,"POINT (-87.644517 41.769378)"
"DREXLER DRUGS","10830 S HALSTED ST","CHICAGO","IL","606283125","9:30am-5:30pm M-F, 9:30am-12:30pm Sa",,"open",,"POINT (-87.642601 41.696805)"
"WALGREENS #10350","7109 S JEFFERY BLVD","CHICAGO","IL","606492425","Mon-Fri 9am-9pm; Sat 9am-6pm; Sun 10am-6pm",,"open",,"POINT (-87.576292 41.765683)"
"WALGREENS #07055","347 E 95TH ST","CHICAGO","IL","606197356",,,"Permanently closed",,"POINT (-87.614781 41.721827)"
"Lavir Pharmacy","4959 W Belmont","Chicago","IL","606414332","9am-5pm M-F, 9am-2pm Sa",,"open",,"POINT (-87.75090200000001 41.938802)"
"WALGREENS #05033","2015 E 79TH ST","CHICAGO","IL","60649","Mon-Fri 9am-9pm; Sat-Sun 9am-5pm",,"Open",,"POINT (-87.575298 41.751614)"
"CVS PHARMACY","1819 N HARLEM AVENUE","CHICAGO","IL","60707","M-F: 9:00am-8:00pm; Sat: 9:00am-6:00pm; Sun: 10:00am-6:00pm",,"open",,"POINT (-87.805885 41.913286)"
"Cermak pharmacy","2735 W Cermak Rd","Chicago","IL","606083565",,,"unknown",,"POINT (-87.694388 41.851937)"
"GORDONO PHARMACY","5501 N CLARK ST","CHICAGO","IL","606401213","7am-7pm M-F, 8am-6pm Sa, 8am-4pm Su",,"open",,"POINT (-87.668445 41.981686)"
"CVS Pharmacy #","1 S State St","Chicago","IL","60603","M-F: 7:00am-7:00pm; Sat-Sun: 9:00am-6:00pm",,"open",,"POINT (-87.62773100000001 41.881754)"
"One Stop Pharmacy","4250 N Marine Dr","Chicago","IL","606131744",,,"unknown",,"POINT (-87.646768 41.96018)"
"CVS PHARMACY","4777 N MILWAUKEE AVE","CHICAGO","IL","60630",,,"closed","permanently closed","POINT (-87.760247 41.96735)"
"WALGREENS #16355","2 N State St","CHICAGO","IL","60602","Mon-Fri: 9am-8pm; Sat: 9am-6pm; Sun: Closed",,"open","Closed temporarily for looting. 8/10/2020. Open again 8/11","POINT (-87.627865 41.882107)"
"Austin Outpatient Pharmacy","645 S Central Ave","Chicago","IL","606445059","9am-6pm M-F, 10-4pm Sa",,"open",,"POINT (-87.764443 41.872042)"
"WALGREENS #00194","4801 N LINCOLN","CHICAGO","IL","60625","Mon-Fri: 9am-9pm; Sat-Sun: 9am-5pm",,"open",,"POINT (-87.689241 41.969836)"
"CVS PHARMACY","1165 N CLARK","CHICAGO","IL","60610","M-F: 8:00am-8:00pm; Sat-Sun: 9:00am-6:00pm",,"open",,"POINT (-87.631426 41.903446)"
"WALGREENS #05192","9148 S. COMMERCIAL AVE","CHICAGO","IL","60617","Mon-Fri 9am-9pm; Sat-Sun 9am-5pm",,"Open",,"POINT (-87.551227 41.72858)"
"WALGREENS #252","7510 N Western Ave","CHICAGO","IL","606451511","Mon-Fri 8am-12am: Sat-Sun 9am-9pm",,"open",,"POINT (-87.690254 42.018614)"
"OSCO DRUG","1340 S CANAL STREET","CHICAGO","IL","60607","M-Fri: 8:00am-10:00pm; Sat: 9:00am-6:00pm; Sun: 9:00am-5:00pm",,"open",,"POINT (-87.639156 41.864386)"
"PEACE PHARMACY","2320 S WENTWORTH AVE","CHICAGO","IL","606162014","9am-5:30pm M-F, 9am-4pm Sa",,"open",,"POINT (-87.631961 41.850333)"
"max care pharmacy","2810 W Devon Ave","Chicago","IL","606591502","9am-7pm M-F, 9am-5pm Sa",,"open",,"POINT (-87.700131 41.997545)"
"SNS PHARMACY","3900 WEST MADISON ST STE 13","CHICAGO","IL","606242336","11am-6pm M-F, 11am-3pm Sa",,"open",,"POINT (-87.723712 41.88076)"
"WALGREENS PRESCRIPTION CENTER #16426","1601 N Wells St Ste A","Chicago","IL","606146001","Mon-Fri: 9am-9pm, Sat 9am-6pm; Sun  9am-5pm",,"open",,"POINT (-87.634714 41.911317)"
"WALGREENS #09000","2001 N MILWAUKEE AVE","CHICAGO","IL","60647","Open 24 hours everyday","x","open",,"POINT (-87.68859600000002 41.917601)"
"CAREPLUS DISCOUNT PHARMACY INC","4255 W 63rd St","Chicago","IL","606295041","9am-6pm M-Th, 9am-3pm F, 9am-2pm Sa",,"open",,"POINT (-87.729873 41.778558)"
"Nathan Pharmacy","6420 N CALIFORNIA AVE","CHICAGO","IL","606455256","9am-6pm M-F",,"open",,"POINT (-87.699681 41.99825400000001)"
"WALGREENS #00147","3611 E 106TH","CHICAGO","IL","60617","Mon-Fri: 9am-9pm; Sat-Sun: 9am-5pm",,"open",,"POINT (-87.535999 41.70273)"
"CVS Pharmacy #11090","678 N Wells St","Chicago","IL","606543717","M-F: 8:00am-8:00pm; Sat: 9:00am-5:00pm; Sun: 10:00am-5:00pm",,"open",,"POINT (-87.634154 41.894668)"
"WALGREENS #01503","1926 W 35TH STREET","CHICAGO","IL","60609","Mon-Fri: 9am-7pm; Sat: 9am-5pm; Sun: 11am-3pm",,"open",,"POINT (-87.673883 41.830417)"
"WALGREENS #03961","2340 W MADISON ST","CHICAGO","IL","60612","Mon-Fri: 9am-9pm; Sat-Sun: 9am-5pm",,"open",,"POINT (-87.684861 41.881226)"
"K & J Global Pharmacy","6237 North Clark Street","Chicago","IL","60660",,,"unknown",,"POINT (-87.670099 41.995523)"
"WALGREENS #01101","1533 E 67th St","CHICAGO","IL","60637",,,"closed","scheduled to reopen between 7/6/2020 and 7/17/2020. UPDATE: Still Closed - 8.11.2020","POINT (-87.587916 41.773303)"
"fullerton kedzie professional pharmacy","3153 W FULLERTON AVE","CHICAGO","IL","606472809","9am-7pm M, 9am-6pm T-Th, 9am-3pm F, 9am-2pm Sa",,"open",,"POINT (-87.706617 41.924687)"
"Roseland Pharmacy One","104 W 111th St","Chicago","IL","606284215","9am-7pm MW, 9am-5pm TThF",,"open",,"POINT (-87.626131 41.692546)"
"CVS Pharmacy # 08910","205 N. Columbus","Chicago","IL","60601","M-F: 9:00am-8:00pm, Sat-Sun: 10:00am-5:00pm",,"open",,"POINT (-87.620546 41.886124)"
"CVS PHARMACY","1550 N KOSTNER AVE","CHICAGO","IL","606511610",,,"closed","permanently closed","POINT (-87.736311 41.908707)"
"WALGREENS #02387","1616 E 87TH ST","CHICAGO","IL","60617","Mon-Fri: 9am-9pm; Sat-Sun: 9am-5pm",,"Open",,"POINT (-87.58418 41.736934)"
"Ephraim Pharmacy Inc.","2215 W 95th Street","Chicago","IL","60643",,,"unknown",,"POINT (-87.677786 41.720924)"
"LINDAS PHARMACY","2347-2349 B S WENTWORTH","CHICAGO","IL","60616","9am-6pm M-F, 9am-3pm Sa",,"open",,"POINT (-87.631935 41.849734)"
"KEDVON PHARMACY INC","2763 W Devon","CHICAGO","IL","60659","10am-3pm M-F",,"open",,"POINT (-87.698949 41.997566)"
"WALGREENS #03539","11 E 75TH ST","CHICAGO","IL","60619","Mobile Pharm Hours: Mon-Fri 8am-7pm; Sat-Sun 9am-5pm",,"OPEN","mobile pharmacy is on-site, and store is scheduled to reopen between 8/10/2020 - 8/21/2020; Mobile Pharm Hours: Mon-Fri 8am-7pm; Sat-Sun 9am-5pm. UPDATE: Open when checked on 8.11.2020","POINT (-87.624302 41.758119)"
"SAPSTEIN DRUGS","8419 S COTTAGE GROVE AVE","CHICAGO","IL","60619",,,"unknown",,"POINT (-87.60489400000002 41.741541)"
"St. Bernard Hospital Ambulatory Care Center Pharmacy","6307 S. Stewart Avenue, Room 101","Chicago","IL","60621","7am-5pm M-F, 8am-1pm Sa",,"open",,"POINT (-87.635037 41.779334)"
"WALGREENS #16299","331 W Surf St","Chicago","IL","60657","Mon: 9am-5pm; Tue-Fri: 9am-6pm; Sat-Sun: closed",,"open",,"POINT (-87.638418 41.934381)"
"WALGREENS #02840","1500 WEST WILSON","CHICAGO","IL","60640","Mon: 9am-7pm; Tue-Fri: 9am-8pm; Sat-Sun: 9am-5pm",,"open",,"POINT (-87.668285 41.965263)"
"MexiCare Pharmacy","3200 W 26th St","Chicago","IL","606234031","9am-7pm M-F, 9am-6pm Sa, 10am-5pm Su",,"open",,"POINT (-87.705282 41.844545)"
"WALGREENS #04986","4745 W BELMONT AVE","CHICAGO","IL","60641","Mon-Fri: 9am-9pm; Sat-Sun: 9am-5pm",,"open",,"POINT (-87.745967 41.938854)"
"CVS PHARMACY","4800 N DAMEN","CHICAGO","IL","60625","M-F: 8:00am-8:00pm; Sat: 9:00am-6:00pm; Sun: 10:00am-6:00pm",,"open",,"POINT (-87.679196 41.968794)"
"OSCO DRUG #3241","1343 N PAULINA","CHICAGO","IL","60622","M-Fri: 8:00am-8:00pm; Sat: 9:00am-6:00pm; Sun: 9:00am-5:00pm",,"open",,"POINT (-87.670004 41.906401)"
"OSCO DRUG #3344","1220 S ASHLAND AVE","CHICAGO","IL","60608","M-Fri: 8:00am-8:00pm; Sat-Sun: 9:00am-5:00pm",,"open",,"POINT (-87.666452 41.866306)"
"WALGREENS #00258","1650 W CHICAGO","CHICAGO","IL","60622","Mon-Fri: 9am-9pm; Sat-Sun: 9am-5pm",,"open","Closed temporarily for looting. 8/10/2020. Open again 8/11",
"WALGREENS #01096","3646 N BROADWAY","CHICAGO","IL","60613","Mon: 9am-7pm; Tue-Fri: 9am-9pm; Sat-Sun: 9am-5pm",,"open",,"POINT (-87.648007 41.948601)"
"CVS PHARMACY","6150 N BROADWAY","CHICAGO","IL","60660","M-F: 8:00am-8:00pm; Sat-Sun: 9:00am-6:00pm",,"open",,"POINT (-87.660418 41.993858)"
"CVS Pharmacy #","1940 W 33RD ST","CHICAGO","IL","60608","M,Th, Fr: 9:00am-8:00pm; Tu-We: 8:00am-7:00pm; Sat-Sun: 9:00pm-6:00pm",,"open",,"POINT (-87.674594 41.834066)"
"WALGREENS #07250","2345 W 103RD ST","CHICAGO","IL","60643","Mon-Fri: 9am-9pm; Sat-Sun: 9am-5pm",,"open",,"POINT (-87.680785 41.706353)"
"SEOUL PHARMACY INC","3757 W LAWRENCE AVE","CHICAGO","IL","606255712","10am-6pm M-F, 10am-2pm Sa",,"open",,"POINT (-87.722954 41.968318)"
"Walgreens #13798","5440 N Clark St","Chicago","IL","60640","Mon: 9am-7pm; Tue-Fri: 9am-9pm; Sat-Sun: 9am-5pm",,"open",,"POINT (-87.668394 41.98112)"
"BRAUN PHARMACARE","2060 NO CLARK STREET","CHICAGO","IL","60614","9am-7pm M-F",,"open",,"POINT (-87.636881 41.919664)"
"M A B PHARMACY INC","2724 W DIVISION ST","CHICAGO","IL","60622","10am-5:30pm M-F",,"open",,"POINT (-87.695332 41.902959)"
"Careplus Discount Pharmacy","1029 E 130th St","Chicago","IL","606286908",,,"unknown",,"POINT (-87.595555 41.659714)"
"CVS PHARMACY","401 WEST ARMITAGE AVE","CHICAGO","IL","60614","M-F: 7:00am-10:00pm; Sat-Sun: 7:00am-10:00pm",,"open",,"POINT (-87.638884 41.918344)"
"VIKOL PHARMACY INC","3752 W 16th St","CHICAGO","IL","60623",,,"open",,"POINT (-87.719723 41.858932)"
"Morse L Drugs","1407 W MORSE AVE","CHICAGO","IL","606263499",,,"unknown",,"POINT (-87.66633000000002 42.007945)"
"A AND D FAMILY MEDICAL CENTER PHARMACY INCORPORATED","732 S PULASKI RD","CHICAGO","IL","606244058",,,"unknown",,"POINT (-87.725353 41.871485)"
"WALGREENS #05356","4710 S WESTERN AVE","CHICAGO","IL","60609","Mon-Fri: 9am-9pm; Sat-Sun: 9am-5pm",,"open",,"POINT (-87.68444600000001 41.807958)"
"VOSS PHARMACY INC","3303 S HALSTED ST","CHICAGO","IL","606086705",,,"unknown",,"POINT (-87.646182 41.834246)"
"CVS Pharmacy #","2656 N ELSTON AVE","CHICAGO","IL","60647","Mo, Th, Fr: 8:00am - 7:00pm; Tu, We: 8:00am- 7:00pm; Sat: 9:00am-6:00pm; Sun: 9:00am-6:00pm",,"open",,"POINT (-87.683798 41.929451)"
"CVS PHARMACY","8712 SOUTH STONY ISLAND AVE","CHICAGO","IL","60617","Mon-Fri 8am-12am; Sat-Sun 8am-8pm",,"Open",,"POINT (-87.58565 41.736314)"
"WALGREENS #15667","122 S Michigan Ave","Chicago","IL","60603","Mon-Fri: 9am-6pm; Sat-Sun: closed",,"CLOSED","Looting. 8/11/2020","POINT (-87.624426 41.880144)"
"Exclusive Rx Inc","6374 Lincoln Ave Ste 101","Chicago","IL","60659","10am-5pm M-F, 10am-3pm Sa",,"open",,"POINT (-87.718031 41.996821)"
"MARIANO'S PHARMACY","5353 N Elston Ave","Chicago","IL","60630","Sun: 10am-5pm; Mon-Fri: 9am-7pm; Sat: 9am-6pm",,"open",,"POINT (-87.757473 41.978765)"
"47TH STREET PHARMACY","1837 W 47TH ST","CHICAGO","IL","606093844","9:30am-7pm M-Th, 9:30am-6pm F, 9:30am-5pm Sa",,"open",,"POINT (-87.671191 41.80857900000001)"
"WALGREENS #11410","1627 N Pulaski Rd","CHICAGO","IL","60639","Mon-Fri 8am-10pm; Sat-Sun 9am-5pm",,"Open",,"POINT (-87.726372 41.910951)"
"HWANG PHARMACY INC","3535 W LAWRENCE AVE","CHICAGO","IL","606255627","10am-7pm M-F, 10am-5pm Sa",,"open",,"POINT (-87.717199 41.968359)"
"Thorek Hospital Outpatient Pharmacy","850 W Irving Park Rd","CHICAGO","IL","60613","Mon-Fri 9am-5pm; Sat 9am-1pm; Sun Closed",,"open",,"POINT (-87.650899 41.954556)"
"WALGREENS #15525","201 E Huron Street Ste 01-210","CHICAGO","IL","60611","Mon: 7am-5pm; Tue-Fri: 7am-8pm; Sat-Sun: 8am-4pm",,"open",,"POINT (-87.622227 41.89498)"
"Community, A Walgreens Pharmacy #16498","2351 E 71st St","Chicago","IL","606492537","Mon-Fri 8:30am-5pm; Sat-Sun Closed",,"open",,"POINT (-87.566838 41.765903)"
"CVS PHARMACY","4051 N LINCOLN","CHICAGO","IL","60618","M-F: 8:00am-8:00pm; Sat-Sun: 9:00am-6:00pm",,"open",,"POINT (-87.679595 41.955406)"
"PROMED PHARMACY INC","3600 Roosevelt Rd","chicago","IL","606244225","10am-6pm M-Th, 10am-2pm FSa",,"open",,"POINT (-87.71566 41.866297)"
"OSCO DRUG","1655 E 95TH ST","CHICAGO","IL","60619","M-Fri: 8:00am-10:00pm; Sat: 9:00am-6:00pm; Sun: 9:00am-5:00pm",,"open",,"POINT (-87.584006 41.722319)"
"WALGREENS #04935","6809 W BELMONT AVE","CHICAGO","IL","60634","Mon-Fri: 9am-9pm; Sat-Sun: 9am-5pm",,"open",,"POINT (-87.796174 41.938159)"
"WALGREENS #06376","8636 S ASHLAND AVE","CHICAGO","IL","60620","Mon-Fri: 9am-9pm; Sat-Sun: 9am-5pm",,"open",,"POINT (-87.663181 41.73671)"
"CVS PHARMACY","137 S STATE ST","CHICAGO","IL","60603","M-F: 7:00am-7:00pm; Sat-Sun: Closed",,"open",,"POINT (-87.627654 41.879717)"
"WALGREENS #12150","5168 N LINCOLN AVE","CHICAGO","IL","60625","Mon: 9am-7pm; Tue-Fri: 9am-9pm; Sat-Sun: 9am-5pm",,"open",,"POINT (-87.692341 41.975494)"
"CARNEGIE SARGENTS PHARMACY","845 N MICHIGAN AVE STE 902 WEST","CHICAGO","IL","606112201","8:30am-6pm M-F",,"open",,"POINT (-87.650022 41.910855)"
"WALGREENS #03321","5874 S ARCHER AVE","CHICAGO","IL","60638","Mon-Fri: 9am-9pm; Sat-Sun: 9am-5pm",,"open",,"POINT (-87.761992 41.795836)"
"North Park Pharmacy","3324 W Foster Ave","Chicago","IL","606254813","10am-6pm M-F, 10am-2pm Sa",,"open",,"POINT (-87.71216400000002 41.97571)"
"OSCO DRUG","6107 S ARCHER AVE","CHICAGO","IL","60638","M-Fri: 8:00am-10:00pm; Sat: 9:00am-6:00pm; Sun: 9:00am-5:00pm",,"open",,"POINT (-87.770696 41.794391)"
"WALGREENS #15197","6121 N BROADWAY","CHICAGO","IL","60660","Mon-Fri: 9am-9pm; Sat-Sun: 9am-5pm",,"open",,"POINT (-87.660288 41.992929000000004)"
"OSCO DRUG","3400 N WESTERN AVE","CHICAGO","IL","60618","M-Fri: 8:00am-8:00pm; Sat-Sun: 9:00a-5:00pm",,"open",,"POINT (-87.688073 41.943389)"
"CVS PHARMACY","205 N MICHIGAN ST","CHICAGO","IL","60601","M-F: 7:00am-7:00pm; Sat: 9:00am-4:00pm; Sun: Closed",,"open",,"POINT (-87.624426 41.886105)"
