SITE TYPE,SITE NAME,HOURS OF OPERATION,ADDRESS,CITY,STATE,ZIP,PHONE,MONDAY-OPEN,MONDAY-CLOSE,TUESDAY-OPEN,TUESDAY-CLOSE,WEDNESDAY-OPEN,WEDNESDAY-CLOSE,THURSDAY-OPEN,THURSDAY-CLOSE,FRIDAY-OPEN,FRIDAY-CLOSE,SATURDAY-OPEN,SATURDAY-CLOSE,SUNDAY-OPEN,SUNDAY-CLOSE,ADDITIONAL NOTES,LOCATION,Community Areas,Zip Codes,Boundaries - ZIP Codes,Census Tracts,Wards,Historical Wards 2003-2015
Library,Chicago Lawn,"M, W: 10am-6pm;  Tu, Th: 12pm-8pm; F, Sa: 9am-5pm; Su: Closed",6120 S Kedzie Ave ,Chicago,IL,60629,(312) 747-0639,10:00AM,6:00PM,12:00PM,8:00PM,10:00AM,6:00PM,12:00PM,8:00PM,9:00AM,5:00PM,9:00AM,5:00PM,CLOSED,CLOSED,,"6120 Kedzie Ave
Chicago, IL 60629
(41.781976295716, -87.703294320756)",64,21867,58,344,6,44
Library,Roosevelt,"M, W: 12pm-8pm; Tu, Th: 10am-6pm; F, Sa: 9am-5pm; Su: Closed",1101 W Taylor St,Chicago,IL,60607,(312) 746-5656,12:00PM,8:00PM,10:00AM,6:00PM,12:00PM,8:00PM,10:00AM,6:00PM,9:00AM,5:00PM,9:00AM,5:00PM,CLOSED,CLOSED,,"1101 Taylor St
Chicago, IL 60607
(41.86943247967, -87.654442529251)",29,14917,44,87,26,8
Library,Avalon,"M, W: 12pm-8pm; Tu, Th: 10am-6pm; F, Sa: 9am-5pm; Su: Closed",8148 S Stony Island Ave ,Chicago,IL,60617,(312) 747-5234,12:00PM,8:00PM,10:00AM,6:00PM,12:00PM,8:00PM,10:00AM,6:00PM,9:00AM,5:00PM,9:00AM,5:00PM,CLOSED,CLOSED,,"8148 Stony Island Ave
Chicago, IL 60617
(41.746342273519, -87.585878217737)",41,21202,61,133,35,9
Police Station,District 4,Open Saturday And Sunday,2255 E 103rd St,Chicago,IL,60617,(312) 747-7581,CLOSED,CLOSED,CLOSED,CLOSED,CLOSED,CLOSED,CLOSED,CLOSED,CLOSED,CLOSED,12:00AM,11:59PM,12:00AM,11:59PM,,"2255 103rd St
Chicago, IL 60617
(41.708010995084, -87.567606260854)",48,21202,25,174,37,47
Community Service Center,King Center,Mon - Fri 9:00 A.M. To 5:00 P.M.,4314 S Cottage Grove Ave,Chicago,IL,60653,311,9:00AM,5:00PM,9:00AM,5:00PM,9:00AM,5:00PM,9:00AM,5:00PM,9:00AM,5:00PM,CLOSED,CLOSED,CLOSED,CLOSED,,"4314 Cottage Grove Ave
Chicago, IL 60653
(41.816273554518, -87.606697522715)",5,4301,36,161,10,1
Library,Little Village,"M, W: 10am-6pm;  Tu, Th: 12pm-8pm; F, Sa: 9am-5pm; Su: Closed",2311 S Kedzie Ave,Chicago,IL,60623,(312) 745-1862,10:00AM,6:00PM,12:00PM,8:00PM,10:00AM,6:00PM,12:00PM,8:00PM,9:00AM,5:00PM,9:00AM,5:00PM,CLOSED,CLOSED,,"2311 Kedzie Ave
Chicago, IL 60623
(41.849672638623, -87.705112913396)",32,21569,57,261,1,36
Library,Clearing,"M, W: 12pm-8pm; Tu, Th: 10am-6pm; F, Sa: 9am-5pm; Su: Closed",6423 W 63rd Place,Chicago,IL,60638,(312) 747-5657,12:00PM,8:00PM,10:00AM,6:00PM,12:00PM,8:00PM,10:00AM,6:00PM,9:00AM,5:00PM,9:00AM,5:00PM,CLOSED,CLOSED,,"6423 63rd Place
Chicago, IL 60638
(41.776696025249, -87.781792934154)",62,22268,7,336,6,35
Police Station,District 12,Open Saturday And Sunday,100 S Racine Ave,Chicago,IL,60607,(312) 746-8309,CLOSED,CLOSED,CLOSED,CLOSED,CLOSED,CLOSED,CLOSED,CLOSED,CLOSED,CLOSED,12:00AM,11:59PM,12:00AM,11:59PM,,"100 Racine Ave
Chicago, IL 60607
(41.880292540229, -87.657186052803)",29,14917,44,91,46,41
Library,Chicago Bee,"M, W: 12pm-8pm; Tu, Th: 10am-6pm; F, Sa: 9am-5pm; Su: Closed",3647 S State St,Chicago,IL,60609,(312) 747-6872,12:00PM,8:00PM,10:00AM,6:00PM,12:00PM,8:00PM,10:00AM,6:00PM,9:00AM,5:00PM,9:00AM,5:00PM,CLOSED,CLOSED,,"3647 State St
Chicago, IL 60609
(41.828144605304, -87.626455627699)",1,14924,36,446,9,12
Library,Harold Washington-HWLC,"M-th: 9am-9pm; F, Sa: 9am-5pm; Su: 1pm-5pm",400 S State St,Chicago,IL,60605,(312) 747-4300,9:00AM,9:00PM,9:00AM,9:00PM,9:00AM,9:00PM,9:00AM,9:00PM,9:00AM,5:00PM,9:00AM,5:00PM,1:00PM,5:00PM,,"400 State St
Chicago, IL 60605
(41.876895532792, -87.627724810386)",38,14913,35,92,10,48
Library,Wrightwood-Ashburn,"M, W: 12pm-8pm; Tu, Th: 10am-6pm; F, Sa: 9am-5pm; Su: Closed",8530 S Kedzie Ave,Chicago,IL,60652,(312) 747-2696,12:00PM,8:00PM,10:00AM,6:00PM,12:00PM,8:00PM,10:00AM,6:00PM,9:00AM,5:00PM,9:00AM,5:00PM,CLOSED,CLOSED,,"8530 Kedzie Ave
Chicago, IL 60652
(41.738365456793, -87.702155026949)",69,4300,8,198,30,6
Library,Edgewater,"M: Closed; Tu-th: 10am-6pm; F, Sa: 9am-5pm; Su: Closed; ",1210 W Elmdale Ave,Chicago,IL,60660,(312) 744-0718,CLOSED,CLOSED,10:00AM,6:00PM,10:00AM,6:00PM,10:00AM,6:00PM,9:00AM,5:00PM,9:00AM,5:00PM,CLOSED,CLOSED,,"1210 Elmdale Ave
Chicago, IL 60660
(41.990942289427, -87.660789876864)",76,4451,14,536,16,40
Library,West Englewood,"M, W: 12pm-8pm; Tu, Th: 10am-6pm; F, Sa: 9am-5pm; Su: Closed",1745 W 63rd St,Chicago,IL,60636,(312) 747-3481,12:00PM,8:00PM,10:00AM,6:00PM,12:00PM,8:00PM,10:00AM,6:00PM,9:00AM,5:00PM,9:00AM,5:00PM,CLOSED,CLOSED,,"1745 63rd St
Chicago, IL 60636
(41.779344520875, -87.668146107172)",65,22257,23,280,3,44
Library,Lozano,"M, W: 10am-6pm;  Tu, Th: 12pm-8pm; F, Sa: 9am-5pm; Su: Closed",1805 S Loomis St,Chicago,IL,60608,(312) 746-4329,10:00AM,6:00PM,12:00PM,8:00PM,10:00AM,6:00PM,12:00PM,8:00PM,9:00AM,5:00PM,9:00AM,5:00PM,CLOSED,CLOSED,,"1805 Loomis St
Chicago, IL 60608
(41.857820778175, -87.66122498708)",33,14920,43,365,26,8
Library,Thurgood Marshall,"M, W: 12pm-8pm; Tu, Th: 10am-6pm; F, Sa: 9am-5pm; Su: Closed",7506 S Racine Ave,Chicago,IL,60620,(312) 747-5927,12:00PM,8:00PM,10:00AM,6:00PM,12:00PM,8:00PM,10:00AM,6:00PM,9:00AM,5:00PM,9:00AM,5:00PM,CLOSED,CLOSED,,"7506 Racine Ave
Chicago, IL 60620
(41.757451722089, -87.653982260573)",70,21554,59,572,31,17
Police Station,District 22,Open Saturday And Sunday,1900 W Monterey Ave,Chicago,IL,60643,(312) 745-0710,CLOSED,CLOSED,CLOSED,CLOSED,CLOSED,CLOSED,CLOSED,CLOSED,CLOSED,CLOSED,12:00AM,11:59PM,12:00AM,11:59PM,,"1900 Monterey Ave
Chicago, IL 60643
(41.691375104539, -87.668498787512)",74,22212,13,378,42,33
Police Station,District 5,Open Saturday And Sunday,727 E 111th St,Chicago,IL,60628,(312) 747-8210,CLOSED,CLOSED,CLOSED,CLOSED,CLOSED,CLOSED,CLOSED,CLOSED,CLOSED,CLOSED,12:00AM,11:59PM,12:00AM,11:59PM,,"727 111th St
Chicago, IL 60628
(41.692768796775, -87.605464619662)",47,21861,19,601,43,30
Library,Logan Square,"M, W: 10am-6pm;  Tu, Th: 12pm-8pm; F, Sa: 9am-5pm; Su: Closed",3030 W Fullerton Ave,Chicago,IL,60647,(312) 744-5295,10:00AM,6:00PM,12:00PM,8:00PM,10:00AM,6:00PM,12:00PM,8:00PM,9:00AM,5:00PM,9:00AM,5:00PM,CLOSED,CLOSED,,"3030 Fullerton Ave
Chicago, IL 60647
(41.924785750573, -87.703419606967)",23,22535,1,549,40,15
Library,Blackstone,"M, W: 12pm-8pm; Tu, Th: 10am-6pm; F, Sa: 9am-5pm; Su: Closed",4904 S Lake Park Ave,Chicago,IL,60615,(312) 747-0511,12:00PM,8:00PM,10:00AM,6:00PM,12:00PM,8:00PM,10:00AM,6:00PM,9:00AM,5:00PM,9:00AM,5:00PM,CLOSED,CLOSED,,"4904 Lake Park Ave
Chicago, IL 60615
(41.805498563171, -87.589114605823)",5,21192,10,400,10,1
Library,Brighton Park,"M, W: 10am-6pm;  Tu, Th: 12pm-8pm; F, Sa: 9am-5pm; Su: Closed",4314 S Archer Ave,Chicago,IL,60632,(312) 747-0666,10:00AM,6:00PM,12:00PM,8:00PM,10:00AM,6:00PM,12:00PM,8:00PM,9:00AM,5:00PM,9:00AM,5:00PM,CLOSED,CLOSED,,"4314 Archer Ave
Chicago, IL 60632
(41.815124935655, -87.702669516901)",55,22248,56,156,3,49
Library,Toman,"M, W: 12pm-8pm; Tu, Th: 10am-6pm; F, Sa: 9am-5pm; Su: Closed",2708 S Pulaski Rd,Chicago,IL,60623,(312) 745-1660,12:00PM,8:00PM,10:00AM,6:00PM,12:00PM,8:00PM,10:00AM,6:00PM,9:00AM,5:00PM,9:00AM,5:00PM,CLOSED,CLOSED,,"2708 Pulaski Rd
Chicago, IL 60623
(41.842057117098, -87.724526694994)",32,21569,57,248,28,14
Library,Kelly,"M, W: 10am-6pm;  Tu, Th: 12pm-8pm; F, Sa: 9am-5pm; Su: Closed",6151 S Normal Blvd,Chicago,IL,60621,(312) 747-8418,10:00AM,6:00PM,12:00PM,8:00PM,10:00AM,6:00PM,12:00PM,8:00PM,9:00AM,5:00PM,9:00AM,5:00PM,CLOSED,CLOSED,,"6151 Normal Blvd
Chicago, IL 60621
(41.78234349533, -87.637468750753)",66,21559,11,166,4,53
Community Service Center,North Area Center,Mon - Fri 9:00 A.M. To 5:00 P.M.,845 W Wilson Ave,Chicago,IL,60640,311,9:00AM,5:00PM,9:00AM,5:00PM,9:00AM,5:00PM,9:00AM,5:00PM,9:00AM,5:00PM,CLOSED,CLOSED,CLOSED,CLOSED,,"4740 Sheridan Rd
Chicago, IL 60640
(41.968003546532, -87.654887232778)",31,22616,15,241,39,37
Library,Sherman Park,"M, W: 12pm-8pm; Tu, Th: 10am-6pm; F, Sa: 9am-5pm; Su: Closed",5440 S Racine Ave,Chicago,IL,60609,(312) 747-0477,12:00PM,8:00PM,10:00AM,6:00PM,12:00PM,8:00PM,10:00AM,6:00PM,9:00AM,5:00PM,9:00AM,5:00PM,CLOSED,CLOSED,,"5440 Racine Ave
Chicago, IL 60609
(41.79522560459, -87.654973222955)",59,14924,37,790,4,19
Library,North Austin,"M, W: 12pm-8pm; Tu, Th: 10am-6pm; F, Sa: 9am-5pm; Su: Closed",5724 W North Ave,Chicago,IL,60639,(312) 746-4233,12:00PM,8:00PM,10:00AM,6:00PM,12:00PM,8:00PM,10:00AM,6:00PM,9:00AM,5:00PM,9:00AM,5:00PM,CLOSED,CLOSED,,"5724 North Ave
Chicago, IL 60639
(41.909385967328, -87.768867460517)",26,22615,2,597,7,52
Library,Woodson Regional,"M-th: 9am-9pm; F, Sa: 9am-5pm; Su: 1pm-5pm",9525 S Halsted St,Chicago,IL,60628,(312) 747-6900,9:00AM,9:00PM,9:00AM,9:00PM,9:00AM,9:00PM,9:00AM,9:00PM,9:00AM,5:00PM,9:00AM,5:00PM,1:00PM,5:00PM,,"9525 Halsted St
Chicago, IL 60628
(41.720961701396, -87.643056534378)",72,21861,19,593,13,18
Police Station,District 19,Open Saturday And Sunday,850 W Addison St,Chicago,IL,60613,(312) 744-8320,CLOSED,CLOSED,CLOSED,CLOSED,CLOSED,CLOSED,CLOSED,CLOSED,CLOSED,CLOSED,12:00AM,11:59PM,12:00AM,11:59PM,,"850 Addison St
Chicago, IL 60613
(41.947345080718, -87.650960732323)",57,21186,53,727,25,38
Library,Scottsdale,"M, W: 10am-6pm;  Tu, Th: 12pm-8pm; F, Sa: 9am-5pm; Su: Closed",4101 W 79th St,Chicago,IL,60652,(312) 747-0193,10:00AM,6:00PM,12:00PM,8:00PM,10:00AM,6:00PM,12:00PM,8:00PM,9:00AM,5:00PM,9:00AM,5:00PM,CLOSED,CLOSED,,"4101 79th St
Chicago, IL 60652
(41.749352804211, -87.724361248113)",69,4300,8,235,30,23
Library,Galewood-Mont Clare,"M-th: 10am-6pm; F: 9am-5pm; Sa, Su: Closed",6871 W Belden Ave,Chicago,IL,60707,(312) 746-0165,10:00AM,6:00PM,10:00AM,6:00PM,10:00AM,6:00PM,10:00AM,6:00PM,9:00AM,5:00PM,CLOSED,CLOSED,CLOSED,CLOSED,,"6871 Belden Ave
Chicago, IL 60707
(41.921096092371, -87.797287844088)",18,4454,3,136,7,39
Police Station,District 3,Open Saturday And Sunday,7040 S Cottage Grove Ave,Chicago,IL,60637,(312) 747-8201,CLOSED,CLOSED,CLOSED,CLOSED,CLOSED,CLOSED,CLOSED,CLOSED,CLOSED,CLOSED,12:00AM,11:59PM,12:00AM,11:59PM,,"7040 Cottage Grove Ave
Chicago, IL 60637
(41.766487809915, -87.605654220377)",9,22260,60,348,32,31
Police Station,District 20,Open Saturday And Sunday,5400 N Lincoln Ave,Chicago,IL,60625,(312) 742-8714,CLOSED,CLOSED,CLOSED,CLOSED,CLOSED,CLOSED,CLOSED,CLOSED,CLOSED,CLOSED,12:00AM,11:59PM,12:00AM,11:59PM,,"5400 Lincoln Ave
Chicago, IL 60625
(41.979680367241, -87.692753647699)",6,21849,20,29,24,46
Police Station,District 15,Open Saturday And Sunday,5701 W Madison St,Chicago,IL,60644,(312) 743-1440,CLOSED,CLOSED,CLOSED,CLOSED,CLOSED,CLOSED,CLOSED,CLOSED,CLOSED,CLOSED,12:00AM,11:59PM,12:00AM,11:59PM,,"5701 Madison St
Chicago, IL 60644
(41.880161391479, -87.768332671042)",26,22216,32,67,7,52
Library,Mount Greenwood,"M, W: 10am-6pm;  Tu, Th: 12pm-8pm; F, Sa: 9am-5pm; Su: Closed",11010 S Kedzie Ave,Chicago,IL,60655,(312) 747-2805,10:00AM,6:00PM,12:00PM,8:00PM,10:00AM,6:00PM,12:00PM,8:00PM,9:00AM,5:00PM,9:00AM,5:00PM,CLOSED,CLOSED,,"11010 Kedzie Ave
Chicago, IL 60655
(41.692985497521, -87.700910498505)",73,4447,33,369,42,33
Regional Senior Center,Central West,Mon - Fri 8:30 A.M. To 4:30 P.M. ,2102 W Ogden Ave,Chicago,IL,60612,(312) 746-5300,8:30AM,4:30PM,8:30AM,4:30PM,8:30AM,4:30PM,8:30AM,4:30PM,8:30AM,4:30PM,CLOSED,CLOSED,CLOSED,CLOSED,Seniors Only At This Location,"2102 Ogden Ave
Chicago, IL 60612
(41.870607218318, -87.679074709073)",29,21184,28,5,23,8
Library,Rogers Park,"M, W: 12pm-8pm; Tu, Th: 10am-6pm; F, Sa: 9am-5pm; Su: Closed",6907 N Clark St,Chicago,IL,60626,(312) 744-0156,12:00PM,8:00PM,10:00AM,6:00PM,12:00PM,8:00PM,10:00AM,6:00PM,9:00AM,5:00PM,9:00AM,5:00PM,CLOSED,CLOSED,,"6907 Clark St
Chicago, IL 60626
(42.006781595899, -87.673362576821)",10,21853,9,49,5,3
Library,Uptown,"M, W: 10am-6pm;  Tu, Th: 12pm-8pm; F, Sa: 9am-5pm; Su: Closed",929 W Buena Ave,Chicago,IL,60613,(312) 744-8400,10:00AM,6:00PM,12:00PM,8:00PM,10:00AM,6:00PM,12:00PM,8:00PM,9:00AM,5:00PM,9:00AM,5:00PM,CLOSED,CLOSED,,"929 Buena Ave
Chicago, IL 60613
(41.958378193684, -87.653499289251)",31,21186,53,577,39,37
Library,McKinley Park,"M, W: 12pm-8pm; Tu, Th: 10am-6pm; F, Sa: 9am-5pm; Su: Closed",1915 W 35th St,Chicago,IL,60609,(312) 747-6082,12:00PM,8:00PM,10:00AM,6:00PM,12:00PM,8:00PM,10:00AM,6:00PM,9:00AM,5:00PM,9:00AM,5:00PM,CLOSED,CLOSED,,"1915 35th St
Chicago, IL 60609
(41.830351580058, -87.673430993183)",56,14924,37,720,1,26
Library,Jefferson Park,"M, W: 10am-6pm;  Tu, Th: 12pm-8pm; F, Sa: 9am-5pm; Su: Closed",5363 W Lawrence Ave,Chicago,IL,60630,(312) 744-1998,10:00AM,6:00PM,12:00PM,8:00PM,10:00AM,6:00PM,12:00PM,8:00PM,9:00AM,5:00PM,9:00AM,5:00PM,CLOSED,CLOSED,,"5363 Lawrence Ave
Chicago, IL 60630
(41.967562324592, -87.761721768496)",15,21869,48,260,50,20
Police Station,District 2,Open Saturday And Sunday,5101 S Wentworth Ave,Chicago,IL,60609,(312) 747-8366,CLOSED,CLOSED,CLOSED,CLOSED,CLOSED,CLOSED,CLOSED,CLOSED,CLOSED,CLOSED,12:00AM,11:59PM,12:00AM,11:59PM,,"5101 Wentworth Ave
Chicago, IL 60609
(41.80181236132, -87.630635163816)",3,14924,37,224,9,12
Library,Jeffery Manor,"M, W: 10am-6pm;  Tu, Th: 12pm-8pm; F, Sa: 9am-5pm; Su: Closed",2401 E 100th St,Chicago,IL,60617,(312) 747-6479,10:00AM,6:00PM,12:00PM,8:00PM,10:00AM,6:00PM,12:00PM,8:00PM,9:00AM,5:00PM,9:00AM,5:00PM,CLOSED,CLOSED,,"2401 100th St
Chicago, IL 60617
(41.713490039789, -87.565418641571)",48,21202,25,252,37,43
Library,Water Works,"M-th: 9am-7pm; F, Sa: 9am-5pm; Su: 1pm-5pm",163 E Pearson St,Chicago,IL,60611,(312) 742-8811,9:00AM,7:00PM,9:00AM,7:00PM,9:00AM,7:00PM,9:00AM,7:00PM,9:00AM,5:00PM,9:00AM,5:00PM,1:00PM,5:00PM,,"163 Pearson St
Chicago, IL 60611
(41.897534902299, -87.622998964466)",37,21182,6,233,11,22
Library,South Shore,"M, W: 10am-6pm;  Tu, Th: 12pm-8pm; F, Sa: 9am-5pm; Su: Closed",2505 E 73rd St,Chicago,IL,60649,(312) 747-5281,10:00AM,6:00PM,12:00PM,8:00PM,10:00AM,6:00PM,12:00PM,8:00PM,9:00AM,5:00PM,9:00AM,5:00PM,CLOSED,CLOSED,,"2505 73rd St
Chicago, IL 60649
(41.761792625983, -87.562136116164)",39,22538,24,421,37,43
Library,Merlo,"M, W: 12pm-8pm; Tu, Th: 10am-6pm; F, Sa: 9am-5pm; Su: Closed",644 W Belmont Ave,Chicago,IL,60657,(312) 744-1139,12:00PM,8:00PM,10:00AM,6:00PM,12:00PM,8:00PM,10:00AM,6:00PM,9:00AM,5:00PM,9:00AM,5:00PM,CLOSED,CLOSED,,"644 Belmont Ave
Chicago, IL 60657
(41.940092802456, -87.645684316254)",57,4449,22,730,25,38
Library,Beverly,"M, W: 12pm-8pm; Tu, Th: 10am-6pm; F, Sa: 9am-5pm; Su: Closed",1962 W 95th St,Chicago,IL,60643,(312) 747-9673,12:00PM,8:00PM,10:00AM,6:00PM,12:00PM,8:00PM,10:00AM,6:00PM,9:00AM,5:00PM,9:00AM,5:00PM,CLOSED,CLOSED,,"1962 95th St
Chicago, IL 60643
(41.721201982995, -87.671825936185)",71,22212,59,627,42,33
Library,Northtown,"M, W: 10am-6pm;  Tu, Th: 12pm-8pm; F, Sa: 9am-5pm; Su: Closed",6435 N California Ave,Chicago,IL,60645,(312) 744-2292,10:00AM,6:00PM,12:00PM,8:00PM,10:00AM,6:00PM,12:00PM,8:00PM,9:00AM,5:00PM,9:00AM,5:00PM,CLOSED,CLOSED,,"6435 California Ave
Chicago, IL 60645
(41.998212242087, -87.699587919718)",20,22528,12,40,27,42
Library,Garfield Ridge,"M, W: 10am-6pm;  Tu, Th: 12pm-8pm; F, Sa: 9am-5pm; Su: Closed",6348 S Archer Ave,Chicago,IL,60638,(312) 747-6094,10:00AM,6:00PM,12:00PM,8:00PM,10:00AM,6:00PM,12:00PM,8:00PM,9:00AM,5:00PM,9:00AM,5:00PM,CLOSED,CLOSED,,"6348 Archer Ave
Chicago, IL 60638
(41.792819235993, -87.780185735388)",53,22268,7,587,6,35
Library,Greater Grand Crossing,"M, W: 12pm-8pm; Tu, Th: 10am-6pm; F, Sa: 9am-5pm; Su: Closed",1000 East 73rd St,Chicago,IL,60619,(312) 745-1608,12:00PM,8:00PM,10:00AM,6:00PM,12:00PM,8:00PM,10:00AM,6:00PM,9:00AM,5:00PM,9:00AM,5:00PM,CLOSED,CLOSED,,"1000 73rd St
Chicago, IL 60619
(41.76231423276, -87.60040226851)",67,21546,61,121,33,32
Library,Altgeld,"M, W: 12pm-8pm; Tu, Th: 10am-6pm; F, Sa: 9am-5pm; Su: Closed",13281 S. Corliss Ave,Chicago,IL,60827,(312) 747-3270,12:00PM,8:00PM,10:00AM,6:00PM,12:00PM,8:00PM,10:00AM,6:00PM,9:00AM,5:00PM,9:00AM,5:00PM,CLOSED,CLOSED,,"13281 Corliss Ave
Chicago, IL 60827
(41.654748194923, -87.602203293403)",51,4460,47,10,43,30
Library,Walker,"M, W: 10am-6pm;  Tu, Th: 12pm-8pm; F, Sa: 9am-5pm; Su: Closed",11071 S Hoyne Ave,Chicago,IL,60643,(312) 747-1920,10:00AM,6:00PM,12:00PM,8:00PM,10:00AM,6:00PM,12:00PM,8:00PM,9:00AM,5:00PM,9:00AM,5:00PM,CLOSED,CLOSED,,"11071 Hoyne Ave
Chicago, IL 60643
(41.692425806406, -87.674134473545)",74,22212,13,380,42,33
Library,Chinatown,"M, W: 12pm-8pm; Tu, Th: 10am-6pm; F, Sa: 9am-5pm; Su: Closed",2353 S Wentworth Ave,Chicago,IL,60616,(312) 747-8013,12:00PM,8:00PM,10:00AM,6:00PM,12:00PM,8:00PM,10:00AM,6:00PM,9:00AM,5:00PM,9:00AM,5:00PM,CLOSED,CLOSED,,"2353 Wentworth Ave
Chicago, IL 60616
(41.849761420501, -87.631870886234)",35,21194,40,3,26,8
Library,West Pullman,"M, W: 12pm-8pm; Tu, Th: 10am-6pm; F, Sa: 9am-5pm; Su: Closed",830 W 119th St,Chicago,IL,60643,(312) 747-1425,12:00PM,8:00PM,10:00AM,6:00PM,12:00PM,8:00PM,10:00AM,6:00PM,9:00AM,5:00PM,9:00AM,5:00PM,CLOSED,CLOSED,,"830 119th St
Chicago, IL 60643
(41.67784254808, -87.643516927175)",50,22212,13,642,22,45
Library,Oriole Park,"M, W: 12pm-8pm; Tu, Th: 10am-6pm; F, Sa: 9am-5pm; Su: Closed",7454 W Balmoral Ave,Chicago,IL,60656,(312) 744-1965,12:00PM,8:00PM,10:00AM,6:00PM,12:00PM,8:00PM,10:00AM,6:00PM,9:00AM,5:00PM,9:00AM,5:00PM,CLOSED,CLOSED,,"7454 Balmoral Ave
Chicago, IL 60656
(41.978060491792, -87.81330682611)",36,4448,31,735,29,34
Library,Gage Park,"M, W: 10am-6pm;  Tu, Th: 12pm-8pm; F, Sa: 9am-5pm; Su: Closed",2807 W 55th St,Chicago,IL,60632,(312) 747-0032,10:00AM,6:00PM,12:00PM,8:00PM,10:00AM,6:00PM,12:00PM,8:00PM,9:00AM,5:00PM,9:00AM,5:00PM,CLOSED,CLOSED,,"2807 55th St
Chicago, IL 60632
(41.793664598701, -87.694129610404)",61,22248,58,764,2,19
Library,"Daley, Richard M.-W Humboldt","M, W: 10am-6pm;  Tu, Th: 12pm-8pm; F, Sa: 9am-5pm; Su: Closed",733 N Kedzie Ave,Chicago,IL,60612,(312) 743-0555,10:00AM,6:00PM,12:00PM,8:00PM,10:00AM,6:00PM,12:00PM,8:00PM,9:00AM,5:00PM,9:00AM,5:00PM,CLOSED,CLOSED,,"733 Kedzie Ave
Chicago, IL 60612
(41.894693625756, -87.706461802397)",24,21184,28,177,46,41
Library,Mayfair,"M, W: 12pm-8pm; Tu, Th: 10am-6pm; F, Sa: 9am-5pm; Su: Closed",4400 W Lawrence Ave,Chicago,IL,60630,(312) 744-1254,12:00PM,8:00PM,10:00AM,6:00PM,12:00PM,8:00PM,10:00AM,6:00PM,9:00AM,5:00PM,9:00AM,5:00PM,CLOSED,CLOSED,,"4400 Lawrence Ave
Chicago, IL 60630
(41.968151058826, -87.738250349161)",14,21869,48,751,38,28
Police Station,District 11,Open Saturday And Sunday,3151 W Harrison St,Chicago,IL,60612,(312) 746-8386,CLOSED,CLOSED,CLOSED,CLOSED,CLOSED,CLOSED,CLOSED,CLOSED,CLOSED,CLOSED,12:00AM,11:59PM,12:00AM,11:59PM,,"3151 Harrison St
Chicago, IL 60612
(41.873635693753, -87.704701391361)",28,21184,28,36,14,36
Police Station,District 6,Open Saturday And Sunday,7808 S Halsted St,Chicago,IL,60620,(312) 745-3617,CLOSED,CLOSED,CLOSED,CLOSED,CLOSED,CLOSED,CLOSED,CLOSED,CLOSED,CLOSED,12:00AM,11:59PM,12:00AM,11:59PM,,"7808 Halsted St
Chicago, IL 60620
(41.752273769729, -87.644135305857)",70,21554,59,487,31,17
Library,Douglass,"M, W: 10am-6pm;  Tu, Th: 12pm-8pm; F, Sa: 9am-5pm; Su: Closed",3353 W 13th St,Chicago,IL,60623,(312) 747-3725,10:00AM,6:00PM,12:00PM,8:00PM,10:00AM,6:00PM,12:00PM,8:00PM,9:00AM,5:00PM,9:00AM,5:00PM,CLOSED,CLOSED,,"3353 13th St
Chicago, IL 60623
(41.864470352773, -87.709657427614)",30,21569,57,34,14,36
Library,Lincoln Park,"M, W: 10am-6pm;  Tu, Th: 12pm-8pm; F, Sa: 9am-5pm; Su: Closed",1150 W Fullerton Ave,Chicago,IL,60614,(312) 744-1926,10:00AM,6:00PM,12:00PM,8:00PM,10:00AM,6:00PM,12:00PM,8:00PM,9:00AM,5:00PM,9:00AM,5:00PM,CLOSED,CLOSED,,"1150 Fullerton Ave
Chicago, IL 60614
(41.92531635057, -87.658066797029)",68,21190,16,795,34,51
Regional Senior Center,Southwest,Mon - Fri 8:30 A.M. To 4:30 P.M. Sat 9:00 A.M. To 4:00 P.M.,6117 S Kedzie Ave,Chicago,IL,60629,(312) 747-0440,8:30AM,4:30PM,8:30AM,4:30PM,8:30AM,4:30PM,8:30AM,4:30PM,8:30AM,4:30PM,9:00AM,4:00PM,CLOSED,CLOSED,Seniors Only At This Location,"6117 Kedzie Ave
Chicago, IL 60629
(41.782294687023, -87.703156609494)",64,21867,58,183,2,44
Library,Coleman,"M, W: 12pm-8pm; Tu, Th: 10am-6pm; F, Sa: 9am-5pm; Su: Closed",731 E 63rd St,Chicago,IL,60637,(312) 747-7760,12:00PM,8:00PM,10:00AM,6:00PM,12:00PM,8:00PM,10:00AM,6:00PM,9:00AM,5:00PM,9:00AM,5:00PM,CLOSED,CLOSED,,"731 63rd St
Chicago, IL 60637
(41.780327339343, -87.607135243381)",9,22260,60,332,4,53
Library,Near North,"M, W: 12pm-8pm; Tu, Th: 10am-6pm; F, Sa: 9am-5pm; Su: Closed",310 W Division St,Chicago,IL,60610,(312) 744-0991,12:00PM,8:00PM,10:00AM,6:00PM,12:00PM,8:00PM,10:00AM,6:00PM,9:00AM,5:00PM,9:00AM,5:00PM,CLOSED,CLOSED,,"310 Division St
Chicago, IL 60610
(41.90383476841, -87.636911055642)",37,14926,54,290,11,51
Library,Hegewisch,"M, W: 10am-6pm;  Tu, Th: 12pm-8pm; F, Sa: 9am-5pm; Su: Closed",3048 E 130th St,Chicago,IL,60633,(312) 747-0046,10:00AM,6:00PM,12:00PM,8:00PM,10:00AM,6:00PM,12:00PM,8:00PM,9:00AM,5:00PM,9:00AM,5:00PM,CLOSED,CLOSED,,"3048 130th St
Chicago, IL 60633
(41.659236250907, -87.549209892972)",52,22250,26,787,47,47
Library,King,"M, W: 10am-6pm;  Tu, Th: 12pm-8pm; F, Sa: 9am-5pm; Su: Closed",3436 S King Drive,Chicago,IL,60616,(312) 747-7543,10:00AM,6:00PM,12:00PM,8:00PM,10:00AM,6:00PM,12:00PM,8:00PM,9:00AM,5:00PM,9:00AM,5:00PM,CLOSED,CLOSED,,"3436 King Drive
Chicago, IL 60616
(41.832255136353, -87.617399311871)",1,21194,40,190,10,48
Police Station,District 24,Open Saturday And Sunday,6464 N Clark St,Chicago,IL,60626,(312) 744-5907,CLOSED,CLOSED,CLOSED,CLOSED,CLOSED,CLOSED,CLOSED,CLOSED,CLOSED,CLOSED,12:00AM,11:59PM,12:00AM,11:59PM,,"6464 Clark St
Chicago, IL 60626
(41.999646075962, -87.671190518094)",10,21853,9,242,24,46
Regional Senior Center,Renaissance Court,Mon - Fri 8:30 A.M. To 4:30 P.M. ,78 E Washington St,Chicago,IL,60602,(312) 744-4550,8:30AM,4:30PM,8:30AM,4:30PM,8:30AM,4:30PM,8:30AM,4:30PM,8:30AM,4:30PM,CLOSED,CLOSED,CLOSED,CLOSED,Seniors Only At This Location,"78 Washington St
Chicago, IL 60602
(41.883274941225, -87.625222190475)",38,14310,41,580,36,22
Library,Legler,"M, W: 12pm-8pm; Tu, Th: 10am-6pm; F, Sa: 9am-5pm; Su: Closed",115 S Pulaski Rd,Chicago,IL,60624,(312) 746-7730,12:00PM,8:00PM,10:00AM,6:00PM,12:00PM,8:00PM,10:00AM,6:00PM,9:00AM,5:00PM,9:00AM,5:00PM,CLOSED,CLOSED,,"115 Pulaski Rd
Chicago, IL 60624
(41.879308259799, -87.725536764567)",27,21572,30,736,23,11
Police Station,District 25,Open Saturday And Sunday,5555 W Grand Ave,Chicago,IL,60639,(312) 746-8605,CLOSED,CLOSED,CLOSED,CLOSED,CLOSED,CLOSED,CLOSED,CLOSED,CLOSED,CLOSED,12:00AM,11:59PM,12:00AM,11:59PM,,"5555 Grand Ave
Chicago, IL 60639
(41.918443447301, -87.764380709661)",19,22615,2,307,45,52
Community Service Center,Garfield Center,Mon - Fri 9:00 A.M. To 5:00 P.M.,10 S Kedzie Ave,Chicago,IL,60612,311,9:00AM,5:00PM,9:00AM,5:00PM,9:00AM,5:00PM,9:00AM,5:00PM,9:00AM,5:00PM,CLOSED,CLOSED,CLOSED,CLOSED,"Emergency shelter requests available 24 hours a day, call 3-1-1 for more information.","10 Kedzie Ave
Chicago, IL 60612
(41.880833513368, -87.706178301057)",28,21572,30,765,23,11
Police Station,District 8,Open Saturday And Sunday,3420 W 63rd St,Chicago,IL,60629,(312) 747-8730,CLOSED,CLOSED,CLOSED,CLOSED,CLOSED,CLOSED,CLOSED,CLOSED,CLOSED,CLOSED,12:00AM,11:59PM,12:00AM,11:59PM,,"3420 63rd St
Chicago, IL 60629
(41.77891571742, -87.708869498464)",64,21867,58,344,6,44
Community Service Center,South Chicago Center,Mon - Fri 9:00 A.M. To 5:00 P.M.,8650 S Commercial Ave,Chicago,IL,60617,311,9:00AM,5:00PM,9:00AM,5:00PM,9:00AM,5:00PM,9:00AM,5:00PM,9:00AM,5:00PM,CLOSED,CLOSED,CLOSED,CLOSED,,"8650 Commercial Ave
Chicago, IL 60617
(41.737672809157, -87.551470156896)",42,21202,25,226,47,47
Police Station,District 18,Open Saturday And Sunday,1160 N Larrabee St,Chicago,IL,60610,(312) 742-5870,CLOSED,CLOSED,CLOSED,CLOSED,CLOSED,CLOSED,CLOSED,CLOSED,CLOSED,CLOSED,12:00AM,11:59PM,12:00AM,11:59PM,,"1160 Larrabee St
Chicago, IL 60610
(41.903246987971, -87.643218990325)",37,14926,54,108,46,41
Library,Lincoln Belmont,"M, W: 10am-6pm;  Tu, Th: 12pm-8pm; F, Sa: 9am-5pm; Su: Closed",1659 W Melrose St,Chicago,IL,60657,(312) 744-0166,10:00AM,6:00PM,12:00PM,8:00PM,10:00AM,6:00PM,12:00PM,8:00PM,9:00AM,5:00PM,9:00AM,5:00PM,CLOSED,CLOSED,,"1659 Melrose St
Chicago, IL 60657
(41.94051995056, -87.670265910762)",57,4449,22,742,18,16
Library,West Chicago Ave,"M, W: 10am-6pm;  Tu, Th: 12pm-8pm; F, Sa: 9am-5pm; Su: Closed",4856 W Chicago Ave,Chicago,IL,60651,(312) 743-0260,10:00AM,6:00PM,12:00PM,8:00PM,10:00AM,6:00PM,12:00PM,8:00PM,9:00AM,5:00PM,9:00AM,5:00PM,CLOSED,CLOSED,,"4856 Chicago Ave
Chicago, IL 60651
(41.895009198183, -87.747891081316)",26,4299,5,578,45,4
Library,Bucktown-Wicker Park,"M, W: 12pm-8pm; Tu, Th: 10am-6pm; F, Sa: 9am-5pm; Su: Closed",1701 N Milwaukee Ave,Chicago,IL,60647,(312) 744-6022,12:00PM,8:00PM,10:00AM,6:00PM,12:00PM,8:00PM,10:00AM,6:00PM,9:00AM,5:00PM,9:00AM,5:00PM,CLOSED,CLOSED,,"1701 Milwaukee Ave
Chicago, IL 60647
(41.912276181145, -87.680343003695)",25,22535,1,179,40,16
Library,Albany Park,"M, W: 10am-6pm;  Tu, Th: 12pm-8pm; F, Sa: 9am-5pm; Su: Closed",5150 N Kimball Ave,Chicago,IL,60625,(312) 744-1933,10:00AM,6:00PM,12:00PM,8:00PM,10:00AM,6:00PM,12:00PM,8:00PM,9:00AM,5:00PM,9:00AM,5:00PM,CLOSED,CLOSED,,"5150 Kimball Ave
Chicago, IL 60625
(41.97484541005, -87.71358529181)",13,21849,20,167,38,28
Library,Archer Heights,"M, W: 12pm-8pm; Tu, Th: 10am-6pm; F, Sa: 9am-5pm; Su: Closed",5055 S Archer Ave,Chicago,IL,60632,(312) 747-9241,12:00PM,8:00PM,10:00AM,6:00PM,12:00PM,8:00PM,10:00AM,6:00PM,9:00AM,5:00PM,9:00AM,5:00PM,CLOSED,CLOSED,,"5055 Archer Ave
Chicago, IL 60632
(41.801151640839, -87.726486375821)",54,22248,56,697,8,49
Library,Austin,"M, W: 12pm-8pm; Tu, Th: 10am-6pm; F, Sa: 9am-5pm; Su: Closed",5615 W. Race Ave,Chicago,IL,60644,(312) 746-5038,12:00PM,8:00PM,10:00AM,6:00PM,12:00PM,8:00PM,10:00AM,6:00PM,9:00AM,5:00PM,9:00AM,5:00PM,CLOSED,CLOSED,,"5615 Race Ave
Chicago, IL 60644
(41.889239714781, -87.765721907108)",26,22216,32,672,7,52
Library,Vodak-East Side,"M, W: 12pm-8pm; Tu, Th: 10am-6pm; F, Sa: 9am-5pm; Su: Closed",3710 E 106th St,Chicago,IL,60617,(312) 747-5500,12:00PM,8:00PM,10:00AM,6:00PM,12:00PM,8:00PM,10:00AM,6:00PM,9:00AM,5:00PM,9:00AM,5:00PM,CLOSED,CLOSED,,"3710 106th St
Chicago, IL 60617
(41.7027701212, -87.533510695971)",49,21202,25,715,47,47
Library,South Chicago,"M, W: 12pm-8pm; Tu, Th: 10am-6pm; F, Sa: 9am-5pm; Su: Closed",9055 S Houston Ave,Chicago,IL,60617,(312) 747-8065,12:00PM,8:00PM,10:00AM,6:00PM,12:00PM,8:00PM,10:00AM,6:00PM,9:00AM,5:00PM,9:00AM,5:00PM,CLOSED,CLOSED,,"9055 Houston Ave
Chicago, IL 60617
(41.730911784724, -87.549776198134)",42,21202,25,175,47,47
Library,Portage-Cragin,"M, W: 12pm-8pm; Tu, Th: 10am-6pm; F, Sa: 9am-5pm; Su: Closed",5108 W Belmont Ave,Chicago,IL,60641,(312) 744-0152,12:00PM,8:00PM,10:00AM,6:00PM,12:00PM,8:00PM,10:00AM,6:00PM,9:00AM,5:00PM,9:00AM,5:00PM,CLOSED,CLOSED,,"5108 Belmont Ave
Chicago, IL 60641
(41.938785132223, -87.754632219387)",15,22618,21,114,17,27
Library,Bezazian,"M, W: 12pm-8pm; Tu, Th: 10am-6pm; F, Sa: 9am-5pm; Su: Closed",1226 W Ainslie St,Chicago,IL,60640,(312) 744-0019,12:00PM,8:00PM,10:00AM,6:00PM,12:00PM,8:00PM,10:00AM,6:00PM,9:00AM,5:00PM,9:00AM,5:00PM,CLOSED,CLOSED,,"1226 Ainslie St
Chicago, IL 60640
(41.971507829063, -87.660109414973)",31,22616,15,633,39,40
Library,Edgebrook,"M, W: 12pm-8pm; Tu, Th: 10am-6pm; F, Sa: 9am-5pm; Su: Closed",5331 W Devon Ave,Chicago,IL,60646,(312) 744-8313,12:00PM,8:00PM,10:00AM,6:00PM,12:00PM,8:00PM,10:00AM,6:00PM,9:00AM,5:00PM,9:00AM,5:00PM,CLOSED,CLOSED,,"5331 Devon Ave
Chicago, IL 60646
(41.997244126474, -87.762118355819)",12,22532,18,782,38,20
Police Station,District 1,Open Saturday And Sunday,1718 S State St,Chicago,IL,60616,(312) 745-4290,CLOSED,CLOSED,CLOSED,CLOSED,CLOSED,CLOSED,CLOSED,CLOSED,CLOSED,CLOSED,12:00AM,11:59PM,12:00AM,11:59PM,,"1718 State St
Chicago, IL 60616
(41.858753483297, -87.627369119791)",34,21194,40,330,9,12
Police Station,District 7,Open Saturday And Sunday,1438 W 63rd St,Chicago,IL,60636,(312) 747-8223,CLOSED,CLOSED,CLOSED,CLOSED,CLOSED,CLOSED,CLOSED,CLOSED,CLOSED,CLOSED,12:00AM,11:59PM,12:00AM,11:59PM,,"1438 63rd St
Chicago, IL 60636
(41.779554236061, -87.66086368854)",65,22257,23,277,2,19
Library,West Belmont,"M, W: 10am-6pm;  Tu, Th: 12pm-8pm; F, Sa: 9am-5pm; Su: Closed",3104 N Narragansett Ave,Chicago,IL,60634,(312) 746-5142,10:00AM,6:00PM,12:00PM,8:00PM,10:00AM,6:00PM,12:00PM,8:00PM,9:00AM,5:00PM,9:00AM,5:00PM,CLOSED,CLOSED,,"3104 Narragansett Ave
Chicago, IL 60634
(41.936611588053, -87.785949733447)",19,22254,52,137,44,39
Police Station,District 16,Open Saturday And Sunday,5151 N Milwaukee Ave,Chicago,IL,60630,(312) 742-4480,CLOSED,CLOSED,CLOSED,CLOSED,CLOSED,CLOSED,CLOSED,CLOSED,CLOSED,CLOSED,12:00AM,11:59PM,12:00AM,11:59PM,,"5151 Milwaukee Ave
Chicago, IL 60630
(41.974068750644, -87.766223255962)",11,21869,48,780,50,20
Library,"Whitney M. Young, Jr.","M, W: 10am-6pm;  Tu, Th: 12pm-8pm; F, Sa: 9am-5pm; Su: Closed",7901 S King Drive,Chicago,IL,60619,(312) 747-0039,10:00AM,6:00PM,12:00PM,8:00PM,10:00AM,6:00PM,12:00PM,8:00PM,9:00AM,5:00PM,9:00AM,5:00PM,CLOSED,CLOSED,,"7901 King Drive
Chicago, IL 60619
(41.751087876725, -87.614879554056)",40,21546,61,11,32,31
Library,Roden,"M, W: 10am-6pm;  Tu, Th: 12pm-8pm; F, Sa: 9am-5pm; Su: Closed",6083 N Northwest Highway,Chicago,IL,60631,(312) 744-1478,10:00AM,6:00PM,12:00PM,8:00PM,10:00AM,6:00PM,12:00PM,8:00PM,9:00AM,5:00PM,9:00AM,5:00PM,CLOSED,CLOSED,,"6083 Northwest Highway
Chicago, IL 60631
(41.991950843185, -87.798216749286)",36,22243,17,657,29,34
Library,Hall,"M, W: 10am-6pm;  Tu, Th: 12pm-8pm; F, Sa: 9am-5pm; Su: Closed",4801 S Michigan Ave,Chicago,IL,60615,(312) 747-2541,10:00AM,6:00PM,12:00PM,8:00PM,10:00AM,6:00PM,12:00PM,8:00PM,9:00AM,5:00PM,9:00AM,5:00PM,CLOSED,CLOSED,,"4801 Michigan Ave
Chicago, IL 60615
(41.807406361742, -87.622729231002)",4,21192,10,448,9,12
Library,Sulzer Regional,"M-th: 9am-9pm; F, Sa: 9am-5pm; Su: 1pm-5pm",4455 N Lincoln Ave,Chicago,IL,60625,(312) 744-7616,9:00AM,9:00PM,9:00AM,9:00PM,9:00AM,9:00PM,9:00AM,9:00PM,9:00AM,5:00PM,9:00AM,5:00PM,1:00PM,5:00PM,,"4455 Lincoln Ave
Chicago, IL 60625
(41.962503821186, -87.684481337649)",6,21849,20,667,18,13
Library,Pullman,"M, W: 10am-6pm;  Tu, Th: 12pm-8pm; F, Sa: 9am-5pm; Su: Closed",11001 S Indiana Ave,Chicago,IL,60628,(312) 747-2033,10:00AM,6:00PM,12:00PM,8:00PM,10:00AM,6:00PM,12:00PM,8:00PM,9:00AM,5:00PM,9:00AM,5:00PM,CLOSED,CLOSED,,"11001 Indiana Ave
Chicago, IL 60628
(41.694399347866, -87.618214239545)",45,21861,19,237,43,30
Police Station,District 9,Open Saturday And Sunday,3120 S Halsted St,Chicago,IL,60608,(312) 747-8227,CLOSED,CLOSED,CLOSED,CLOSED,CLOSED,CLOSED,CLOSED,CLOSED,CLOSED,CLOSED,12:00AM,11:59PM,12:00AM,11:59PM,,"3120 Halsted St
Chicago, IL 60608
(41.837703129896, -87.64635129661)",58,14920,43,676,48,26
Regional Senior Center,Southeast,Mon - Fri 8:30 A.M. To 4:30 P.M. Sat - Sun 9:00 A.M. To 4:00 P.M,1767 E 79th St,Chicago,IL,60649,(312) 747-0189,8:30AM,4:30PM,8:30AM,4:30PM,8:30AM,4:30PM,8:30AM,4:30PM,8:30AM,4:30PM,9:00AM,4:00PM,9:00AM,4:00PM,Seniors Only At This Location,"1767 79th St
Chicago, IL 60649
(41.751485284224, -87.581279114899)",42,22538,25,507,35,9
Library,Dunning,"M, W: 12pm-8pm; Tu, Th: 10am-6pm; F, Sa: 9am-5pm; Su: Closed",7455 W Cornelia Ave,Chicago,IL,60634,(312) 743-0480,12:00PM,8:00PM,10:00AM,6:00PM,12:00PM,8:00PM,10:00AM,6:00PM,9:00AM,5:00PM,9:00AM,5:00PM,CLOSED,CLOSED,,"7455 Cornelia Ave
Chicago, IL 60634
(41.943275230685, -87.813422762481)",17,22254,52,458,19,39
Library,Canaryville,"M, W: 12pm-8pm; Tu, Th: 10am-6pm; F, Sa: 9am-5pm; Su: Closed",642 W 43rd St,Chicago,IL,60609,(312) 747-0644,12:00PM,8:00PM,10:00AM,6:00PM,12:00PM,8:00PM,10:00AM,6:00PM,9:00AM,5:00PM,9:00AM,5:00PM,CLOSED,CLOSED,,"642 43rd St
Chicago, IL 60609
(41.815338259607, -87.642562485244)",59,14924,37,123,48,26
Community Service Center,Englewood Center,Mon - Fri 9:00 A.M. To 5:00 P.M.,1140 W 79th St,Chicago,IL,60620,311,9:00AM,5:00PM,9:00AM,5:00PM,9:00AM,5:00PM,9:00AM,5:00PM,9:00AM,5:00PM,CLOSED,CLOSED,CLOSED,CLOSED,,"1140 79th St
Chicago, IL 60620
(41.750524120955, -87.652931668242)",70,21554,59,487,31,17
Police Station,District 14,Open Saturday And Sunday,2150 N California Ave,Chicago,IL,60647,(312) 744-8250,CLOSED,CLOSED,CLOSED,CLOSED,CLOSED,CLOSED,CLOSED,CLOSED,CLOSED,CLOSED,12:00AM,11:59PM,12:00AM,11:59PM,,"2150 California Ave
Chicago, IL 60647
(41.920943814403, -87.697369446149)",23,22535,1,322,41,15
Regional Senior Center,Northwest,Mon - Fri 8:30 A.M. To 4:30 P.M. Sat - Sun 9:00 A.M. To 4:00 P.M,3160 N Milwaukee Ave,Chicago,IL,60618,(312) 744-6681,8:30AM,4:30PM,8:30AM,4:30PM,8:30AM,4:30PM,8:30AM,4:30PM,8:30AM,4:30PM,9:00AM,4:00PM,9:00AM,4:00PM,Seniors Only At This Location,"3160 Milwaukee Ave
Chicago, IL 60618
(41.938325732152, -87.722655957667)",22,21538,39,215,21,27
Police Station,District 13,Open Saturday And Sunday,937 N Wood St,Chicago,IL,60622,(312) 746-8357,CLOSED,CLOSED,CLOSED,CLOSED,CLOSED,CLOSED,CLOSED,CLOSED,CLOSED,CLOSED,12:00AM,11:59PM,12:00AM,11:59PM,,"937 Wood St
Chicago, IL 60622
(41.898688275176, -87.672171391149)",25,21560,4,518,41,24
Regional Senior Center,Northeast,Mon - Fri 8:30 A.M. To 4:30 P.M. Sat 9:00 A.M. To 4:00 P.M.,2019 W Lawrence Ave,Chicago,IL,60625,(312) 744-0784,8:30AM,4:30PM,8:30AM,4:30PM,8:30AM,4:30PM,8:30AM,4:30PM,8:30AM,4:30PM,9:00AM,4:00PM,CLOSED,CLOSED,Seniors Only At This Location,"2019 Lawrence Ave
Chicago, IL 60625
(41.968694977057, -87.679757685176)",6,21849,20,665,18,13
Library,Budlong Woods,"M, W: 12pm-8pm; Tu, Th: 10am-6pm; F, Sa: 9am-5pm; Su: Closed",5630 N Lincoln Ave,Chicago,IL,60659,(312) 742-9590,12:00PM,8:00PM,10:00AM,6:00PM,12:00PM,8:00PM,10:00AM,6:00PM,9:00AM,5:00PM,9:00AM,5:00PM,CLOSED,CLOSED,,"5630 Lincoln Ave
Chicago, IL 60659
(41.984663209242, -87.697839323351)",20,4450,50,15,24,46
Police Station,District 10,Open Saturday And Sunday,3315 W Ogden Ave,Chicago,IL,60623,(312) 747-7511,CLOSED,CLOSED,CLOSED,CLOSED,CLOSED,CLOSED,CLOSED,CLOSED,CLOSED,CLOSED,12:00AM,11:59PM,12:00AM,11:59PM,,"3315 Ogden Ave
Chicago, IL 60623
(41.856617140752, -87.708617688296)",30,21569,57,202,14,36
Library,Independence,"M, W: 10am-6pm;  Tu, Th: 12pm-8pm; F, Sa: 9am-5pm; Su: Closed",3548 W Irving Park Rd,Chicago,IL,60618,(312) 744-0900,10:00AM,6:00PM,12:00PM,8:00PM,10:00AM,6:00PM,12:00PM,8:00PM,9:00AM,5:00PM,9:00AM,5:00PM,CLOSED,CLOSED,,"3548 Irving Park Rd
Chicago, IL 60618
(41.953843708798, -87.716917711174)",16,21538,39,23,12,2
Library,West Town,"M, W: 10am-6pm;  Tu, Th: 12pm-8pm; F, Sa: 9am-5pm; Su: Closed",1625 W Chicago Ave,Chicago,IL,60622,(312) 743-0450,10:00AM,6:00PM,12:00PM,8:00PM,10:00AM,6:00PM,12:00PM,8:00PM,9:00AM,5:00PM,9:00AM,5:00PM,CLOSED,CLOSED,,"1625 Chicago Ave
Chicago, IL 60622
(41.896034425296, -87.668498932569)",25,21560,4,520,41,24
Library,North Pulaski,"M, W: 10am-6pm;  Tu, Th: 12pm-8pm; F, Sa: 9am-5pm; Su: Closed",4300 W North Ave,Chicago,IL,60639,(312) 744-9573,10:00AM,6:00PM,12:00PM,8:00PM,10:00AM,6:00PM,12:00PM,8:00PM,9:00AM,5:00PM,9:00AM,5:00PM,CLOSED,CLOSED,,"4300 North Ave
Chicago, IL 60639
(41.909821032005, -87.734320311893)",24,22615,2,286,49,27
Police Station,District 17,Open Saturday And Sunday,4650 N Pulaski Rd,Chicago,IL,60630,(312) 742-4410,CLOSED,CLOSED,CLOSED,CLOSED,CLOSED,CLOSED,CLOSED,CLOSED,CLOSED,CLOSED,12:00AM,11:59PM,12:00AM,11:59PM,,"4650 Pulaski Rd
Chicago, IL 60630
(41.966172550361, -87.728016064468)",14,21869,48,257,38,28
Library,"Daley, Richard J.-Bridgeport","M, W: 10am-6pm;  Tu, Th: 12pm-8pm; F, Sa: 9am-5pm; Su: Closed",3400 S Halsted St,Chicago,IL,60608,(312) 747-8990,10:00AM,6:00PM,12:00PM,8:00PM,10:00AM,6:00PM,12:00PM,8:00PM,9:00AM,5:00PM,9:00AM,5:00PM,CLOSED,CLOSED,,"3400 Halsted St
Chicago, IL 60608
(41.832544599344, -87.646223807591)",58,14920,43,171,48,26
Library,Manning,"M, W: 12pm-8pm; Tu, Th: 10am-6pm; F, Sa: 9am-5pm; Su: Closed",6 S Hoyne Ave,Chicago,IL,60612,(312) 746-6800,12:00PM,8:00PM,10:00AM,6:00PM,12:00PM,8:00PM,10:00AM,6:00PM,9:00AM,5:00PM,9:00AM,5:00PM,CLOSED,CLOSED,,"6 Hoyne Ave
Chicago, IL 60612
(41.881177180457, -87.679163444334)",29,21184,28,89,46,48
Library,Brainerd,"M, W: 10am-6pm;  Tu, Th: 12pm-8pm; F, Sa: 9am-5pm; Su: Closed",1350 W 89th St,Chicago,IL,60620,(312) 747-6291,10:00AM,6:00PM,12:00PM,8:00PM,10:00AM,6:00PM,12:00PM,8:00PM,9:00AM,5:00PM,9:00AM,5:00PM,CLOSED,CLOSED,,"1350 89th St
Chicago, IL 60620
(41.732388466473, -87.657295146602)",70,21554,59,533,13,18
Library,Austin-Irving,"M, W: 12pm-8pm; Tu, Th: 10am-6pm; F, Sa: 9am-5pm; Su: Closed",6100 W Irving Park Rd,Chicago,IL,60634,(312) 744-6222,12:00PM,8:00PM,10:00AM,6:00PM,12:00PM,8:00PM,10:00AM,6:00PM,9:00AM,5:00PM,9:00AM,5:00PM,CLOSED,CLOSED,,"6100 Irving Park Rd
Chicago, IL 60634
(41.953033455513, -87.779448291324)",15,22254,52,131,19,25
Library,West Lawn,"M, W: 12pm-8pm; Tu, Th: 10am-6pm; F, Sa: 9am-5pm; Su: Closed",4020 W 63rd St,Chicago,IL,60629,(312) 747-7381,12:00PM,8:00PM,10:00AM,6:00PM,12:00PM,8:00PM,10:00AM,6:00PM,9:00AM,5:00PM,9:00AM,5:00PM,CLOSED,CLOSED,,"4020 63rd St
Chicago, IL 60629
(41.778718730033, -87.72357170492)",63,21867,58,292,6,23
Community Service Center,Trina Davila Center,Mon - Fri 9:00 A.M. To 5:00 P.M.,4312 W North Ave,Chicago,IL,60639,311,9:00AM,5:00PM,9:00AM,5:00PM,9:00AM,5:00PM,9:00AM,5:00PM,9:00AM,5:00PM,CLOSED,CLOSED,CLOSED,CLOSED,,"4312 W North Ave
Chicago, IL 60639
(41.9098432, -87.7364671)",24,22615,2,285,45,4
