"site_name","hours_of_operation","address","city","state","zip","phone","website","services","location"
"Lower West Neighborhood Health Clinic","Mon - Fri: 8:00 am – 4:00 pm.","1713 S. Ashland Ave.","Chicago","IL","60608","312-746-5157","http://www.cityofchicago.org/city/en/depts/cdph/supp_info/clinical_health/community_healthclinics.html","Adults, Children, Family Case Management, Immigration Physicals, Medication Assistance, Pregnancy Testing, Pregnant Women, Women seeking Birth Control","1713 S. Ashland Ave.
Chicago, IL 60608
(41.85859418201153, -87.6660674613758)"
"South Chicago Women & Children Health Center","Mon - Fri: 8:00 am – 4:00 pm.","2938 E. 89th St.","Chicago","IL","60617","312-747-5285","http://www.cityofchicago.org/city/en/depts/cdph/supp_info/clinical_health/community_healthclinics.html","Children, Family Case Management, Pregnancy Testing, Pregnant Women, Women seeking Birth Control","2938 E. 89th St.
Chicago, IL 60617
(41.733735602176786, -87.55257057910126)"
"South Lawndale Women & Children Health Center","Mon - Fri: 8:00 am – 4:00 pm.","3059 W. 26th St.","Chicago","IL","60623","312-747-0066","http://www.cityofchicago.org/city/en/depts/cdph/supp_info/clinical_health/community_healthclinics.html","Children, Family Case Management, Pregnancy Testing, Pregnant Women, Women seeking Birth Control","3059 W. 26th St.
Chicago, IL 60623
(41.84364547069314, -87.7019192211315)"
"Roseland Neighborhood Health Clinic","Mon, Wed, Fri: 8:00 am – 4:00 pm; Tue, and Thurs: 9:00 am - 5:00pm
","200 E. 115th St.","Chicago","IL","60628","312-747-9500","http://www.cityofchicago.org/city/en/depts/cdph/supp_info/clinical_health/community_healthclinics.html","Adults, Family Case Management, Medication Assistance","200 E. 115th St.
Chicago, IL 60628
(41.68540464454324, -87.61804579760663)"
"Englewood Neighborhood Health Clinic","Mon, Wed, Fri: 8:00 am – 4:00 pm; Tue, and Thurs: 10:00 am - 6:00pm","641 W. 63rd St.","Chicago","IL","60621","312-747-7831","http://www.cityofchicago.org/city/en/depts/cdph/supp_info/clinical_health/community_healthclinics.html","Adults, Children, Family Case Management, Medication Assistance, Pregnancy Testing, Pregnant Women, Women seeking Birth Control","641 W. 63rd St.
Chicago, IL 60621
(41.779780316087795, -87.64157740963851)"
"Uptown Neighborhood Health Center","Mon, Wed, Fri: 8:00 am – 4:00 pm; Tue, and Thurs: 10:00 am - 6:00pm","845 W. Wilson Ave.","Chicago","IL","60640","312-744-1938","http://www.cityofchicago.org/city/en/depts/cdph/supp_info/clinical_health/community_healthclinics.html","Adult, Children, Family Case Management, Immigration Physicals, Medication Assistance, Pregnancy Testing, Pregnant Women, Refugee, Women seeking Birth Control","845 W. Wilson Ave.
Chicago, IL 60640
(41.96548927279645, -87.65107031162161)"
"West Town Neighborhood Health Center","Mon, Wed, Fri: 8:00 am – 4:00 pm; Tue, and Thurs: 10:00 am - 6:00pm
","2418 W. Division St.","Chicago","IL","60622","312-744-0943","http://www.cityofchicago.org/city/en/depts/cdph/supp_info/clinical_health/community_healthclinics.html","Adult, Children, Family Case Management, Immigration Physicals, Medication Assistance, Pregnancy Testing, Pregnant Women, Women seeking Birth Control","2418 W. Division St.
Chicago, IL 60622
(41.90336045343866, -87.68771892628885)"
