"name","board","city","province","grades","postsecond","data_source","elem","junior_h","senior_h","postal_cod"
"Palliser Beyond Borders at Calgary","The Palliser School Division","Calgary","AB","Senior High","N","N","N","N","N","T1Y5Z6"
"Westmount Mid/High School","Westmount Charter School Society","Calgary","AB","Elementary/Junior High/Senior High","N","N","Y","Y","Y","T2N4Y3"
"Olympic Heights School","The Calgary School Division","Calgary","AB","Elementary","N","N","Y","N","N","T3H2Z7"
"Sunnyside School","The Calgary School Division","Calgary","AB","Elementary","N","N","Y","N","N","T2N1S2"
"Kids Developmental Services Ltd.","Kids Developmental Services Ltd.","Calgary","AB","ECS","N","N","N","N","N","T2W3Z1"
"St. William School","The Calgary Roman Catholic Separate School Division","Calgary","AB","Elementary","N","N","Y","N","N","T2J0T1"
"Wildwood School","The Calgary School Division","Calgary","AB","Elementary","N","N","Y","N","N","T3C2B3"
"Northern Lights School","The Calgary School Division","Calgary","AB","Unknown","N","N","N","N","N",
"Lake Bonavista School","The Calgary School Division","Calgary","AB","Elementary","N","N","Y","N","N","T2J2L1"
"CLS James Fowler Writing Centre","The Calgary School Division","Calgary","AB","Unknown","N","N","N","N","N","T2K1A1"
"Father Scollen School","The Calgary Roman Catholic Separate School Division","Calgary","AB","Elementary/Junior High","N","N","Y","Y","Y","T1Y5N4"
"North Haven School","The Calgary School Division","Calgary","AB","Elementary","N","N","Y","N","N","T2K2K2"
"Bow Valley College",,"Calgary","AB",,"Y","Y",,,,"T2G4S6"
"Glamorgan Community Kindergarten Society","Glamorgan Community Kindergarten Society","Calgary","AB","ECS","N","N","N","N","N","T3E3W5"
"St. Rupert School","The Calgary Roman Catholic Separate School Division","Calgary","AB","Elementary","N","N","Y","N","N","T1Y2W9"
"Fairview School","The Calgary School Division","Calgary","AB","Elementary/Junior High","N","N","Y","Y","Y","T2H0Y1"
"St. Thomas More School","The Calgary Roman Catholic Separate School Division","Calgary","AB","Elementary","N","N","Y","N","N","T1Y5V4"
"Ranchlands School","The Calgary School Division","Calgary","AB","Elementary","N","N","Y","N","N","T3G2C5"
"Canadian Montessori School","The Canadian Montessori School Ltd.","Calgary","AB","Elementary","N","N","Y","N","N","T2V0P6"
"Ecole de la Rose Sauvage","The Southern Francophone Education Region","Calgary","AB","Junior High/Senior High","N","N","N","Y","Y","T2M2Z9"
"Catherine Nichols Gunn School","The Calgary School Division","Calgary","AB","Elementary","N","N","Y","N","N","T2K5C7"
"Mountain Park School","The Calgary School Division","Calgary","AB","Elementary/Junior High","N","N","Y","Y","Y","T2Z4Y1"
"Citadel Park School","The Calgary School Division","Calgary","AB","Elementary","N","N","Y","N","N","T3G4B8"
"SAIT - Mayland Heights Campus",,"Calgary","AB",,"Y","Y",,,,"T2E0A7"
"St. Angela Elementary","The Calgary Roman Catholic Separate School Division","Calgary","AB","Elementary","N","N","Y","N","N","T2E3Y1"
"South Middle School Campus","Foundations for the Future Charter Academy Charter School Society","Calgary","AB","Elementary/Junior High","N","N","Y","Y","Y","T2H1V2"
"Woodlands School","The Calgary School Division","Calgary","AB","Elementary","N","N","Y","N","N","T2W4W9"
"St. Elizabeth Seton","The Calgary Roman Catholic Separate School Division","Calgary","AB","Elementary/Junior High","N","N","Y","Y","Y","T3A6K3"
"St. Cecilia (Bilingual) Elementary School","The Calgary Roman Catholic Separate School Division","Calgary","AB","Elementary","N","N","Y","N","N","T2J0Z3"
"Janus Academy","Janus Academy Society","Calgary","AB","Elementary/Junior High","N","N","Y","Y","Y","T2G4G9"
"Terrace Road School","The Calgary School Division","Calgary","AB","Elementary","N","N","Y","N","N","T3B1B3"
"Henry Wise Wood High School","The Calgary School Division","Calgary","AB","Senior High","N","N","N","N","N","T2V0S6"
"Mount Royal University - Holy Cross Campus",,"Calgary","AB",,"Y","Y",,,,"T2S3C3"
"St. Andrew School","The Calgary Roman Catholic Separate School Division","Calgary","AB","Elementary","N","N","Y","N","N","T3E1G2"
"St. Catherine Elementary School","The Calgary Roman Catholic Separate School Division","Calgary","AB","Elementary","N","N","Y","N","N","T2W1P6"
"V.I.K. Academy Midnapore","V.I.K. Society of Alberta","Calgary","AB","ECS","N","N","N","N","N","T2X2X7"
"University School","The Calgary School Division","Calgary","AB","Elementary","N","N","Y","N","N","T2N3Z9"
"Access Academy","Access International College (Calgary) Incorporated","Calgary","AB","Senior High","N","N","N","N","N","T3E7K1"
"Guardian Angel School","The Calgary Roman Catholic Separate School Division","Calgary","AB","Elementary","N","N","Y","N","N","T3H0G5"
"McKenzie Highlands School","The Calgary School Division","Calgary","AB","Elementary/Junior High","N","N","Y","Y","Y","T2Z4B7"
"William Aberhart High School","The Calgary School Division","Calgary","AB","Senior High","N","N","N","N","N","T2M4G9"
"Hidden Valley School","The Calgary School Division","Calgary","AB","Elementary","N","N","Y","N","N","T3A6J2"
"Mother Mary Greene School","The Calgary Roman Catholic Separate School Division","Calgary","AB","Elementary","N","N","Y","N","N","T3A3S8"
"Brentwood School","The Calgary School Division","Calgary","AB","Elementary","N","N","Y","N","N","T2L0C9"
"W.H.Cushing Workplace School","The Calgary School Division","Calgary","AB","Unknown","N","N","N","N","N","T2P1M6"
"St. Helena School","The Calgary Roman Catholic Separate School Division","Calgary","AB","Junior High","N","N","N","Y","Y","T2K0L8"
"Pacekids Programs South","Pacekids Society for Kids with Special Needs","Calgary","AB","ECS","N","N","N","N","N","T2H0J3"
"Sunalta School","The Calgary School Division","Calgary","AB","Elementary","N","N","Y","N","N","T3C2J9"
"Alternative High School","The Calgary School Division","Calgary","AB","Senior High","N","N","N","N","N","T2T5A5"
"Crescent Heights High School","The Calgary School Division","Calgary","AB","Senior High","N","N","N","N","N","T2M2S2"
"St. Clare","The Calgary Roman Catholic Separate School Division","Calgary","AB","Elementary","N","N","Y","N","N","T3K5Z4"
"Yufeng Chinese School","Yufeng Chinese School Centre","Calgary","AB","Elementary/Junior High/Senior High","N","N","Y","Y","Y","T3G4V5"
"Providence Children's Centre - Beddington","Providence Child Development Society","Calgary","AB","ECS","N","N","N","N","N","T3K2N9"
"Royal Oak School","The Calgary School Division","Calgary","AB","Elementary","N","N","Y","N","N","T3G5R8"
"St. Henry Elementary School","The Calgary Roman Catholic Separate School Division","Calgary","AB","Elementary","N","N","Y","N","N","T2K1H5"
"Providence Children's Centre - Midnapore","Providence Child Development Society","Calgary","AB","ECS","N","N","N","N","N","T2X1Z2"
"The Holy House of Our Lady and St. John","The Gilbertine Institute of Catholic Studies","Calgary","AB","Unknown","N","N","N","N","N","T2G0N1"
"Sam Livingston School","The Calgary School Division","Calgary","AB","Elementary","N","N","Y","N","N","T2J3G7"
"Nickle School","The Calgary School Division","Calgary","AB","Elementary/Junior High","N","N","Y","Y","Y","T2J2Y6"
"Master's Academy","The Palliser School Division","Calgary","AB","Elementary","N","N","Y","N","N","T2T5J4"
"Montessori Children's House Academy Ltd #1","Montessori Children's House Charity Foundation of Calgary","Calgary","AB","ECS","N","N","N","N","N","T2M2Z8"
"New Heights School and Learning Services","New Heights School and Learning Services Society","Calgary","AB","Elementary/Junior High/Senior High","N","N","Y","Y","Y","T3E7M1"
"Battalion Park School","The Calgary School Division","Calgary","AB","Elementary","N","N","Y","N","N","T3H4S2"
"Fish Creek School","The Calgary School Division","Calgary","AB","Elementary","N","N","Y","N","N","T2X2Z1"
"Stanley Jones School","The Calgary School Division","Calgary","AB","Elementary/Junior High","N","N","Y","Y","Y","T2E8M3"
"St. Anthony","The Calgary Roman Catholic Separate School Division","Calgary","AB","Elementary/Junior High/Senior High","N","N","Y","Y","Y","T2S2N5"
"Elboya School","The Calgary School Division","Calgary","AB","Elementary/Junior High","N","N","Y","Y","Y","T2S2N3"
"Western Canada High School","The Calgary School Division","Calgary","AB","Senior High","N","N","N","N","N","T2S0B5"
"Italian School of Calgary","Centro Linguistico E Culturale Italiano Calgary","Calgary","AB","Junior High/Senior High","N","N","N","Y","Y","T2E0B4"
"St. Alphonsus Elementary Junior High School","The Calgary Roman Catholic Separate School Division","Calgary","AB","Elementary/Junior High","N","N","Y","Y","Y","T2E5H5"
"Connect Charter School","Connect Charter School Society","Calgary","AB","Elementary/Junior High","N","N","Y","Y","Y","T3E5Z4"
"Calgary Waldorf School","Calgary Waldorf School Society","Calgary","AB","Elementary/Junior High","N","N","Y","Y","Y","T3H5G9"
"Westbrook Outreach","The Calgary School Division","Calgary","AB","Senior High","N","N","N","N","N","T3C1S1"
"Bishop McNally High School","The Calgary Roman Catholic Separate School Division","Calgary","AB","Senior High","N","N","N","N","N","T3J3N4"
"Valley Creek School","The Calgary School Division","Calgary","AB","Elementary/Junior High","N","N","Y","Y","Y","T3A6J2"
"Lester B. Pearson High School","The Calgary School Division","Calgary","AB","Senior High","N","N","N","N","N","T1Y5P4"
"Canyon Meadows School","The Calgary School Division","Calgary","AB","Elementary","N","N","Y","N","N","T2W1J1"
"Dr. Gladys McKelvie Egbert","The Calgary School Division","Calgary","AB","Elementary/Junior High","N","N","Y","Y","Y","T2A5G9"
"St. Patrick School","The Calgary Roman Catholic Separate School Division","Calgary","AB","Elementary","N","N","Y","N","N","T1Y2X1"
"MAC Islamic School - Calgary Chapter","Muslim Association of Canada","Calgary","AB","Elementary","N","N","Y","N","N","T3G1B5"
"Chinook Park School","The Calgary School Division","Calgary","AB","Elementary","N","N","Y","N","N","T2V0S6"
"Step By Step Early Intervention Program","Step By Step Early Intervention Society","Calgary","AB","ECS","N","N","N","N","N","T2H1Z9"
"Dr. Oakley School","The Calgary School Division","Calgary","AB","Elementary/Junior High/Senior High","N","N","Y","Y","Y","T2T4Z9"
"Early Discoveries Childhood Services","Early Discoveries Childhood Services Ltd.","Calgary","AB","ECS","N","N","N","N","N","T3A0Z9"
"Panorama Hills School","The Calgary School Division","Calgary","AB","Elementary","N","N","Y","N","N","T3K0S4"
"St. Margaret School","The Calgary Roman Catholic Separate School Division","Calgary","AB","Elementary/Junior High","N","N","Y","Y","Y","T2L0K7"
"North Point School for Boys","North Point School for Boys","Calgary","AB","Unknown","N","N","N","N","N","T2T0W3"
"Senator Patrick Burns School","The Calgary School Division","Calgary","AB","Elementary/Junior High","N","N","Y","Y","Y","T2L0X2"
"Acadia School","The Calgary School Division","Calgary","AB","Elementary","N","N","Y","N","N","T2J1K4"
"John Costello Catholic School","The Calgary Roman Catholic Separate School Division","Calgary","AB","Elementary","N","N","Y","N","N","T3H1N9"
"Manmeet Singh Bhullar School","The Calgary School Division","Calgary","AB","Elementary","N","N","Y","N","N","T3J4Z1"
"St. Mary's High School","The Calgary Roman Catholic Separate School Division","Calgary","AB","Senior High","N","N","N","N","N","T2S0B8"
"Riverside School","The Calgary School Division","Calgary","AB","Elementary/Junior High","N","N","Y","Y","Y","T2E0B7"
"Woodbine School","The Calgary School Division","Calgary","AB","Elementary","N","N","Y","N","N","T2W5E1"
"Rundle College Senior High School","Rundle College Society","Calgary","AB","Senior High","N","N","N","N","N","T3H3W5"
"Alberta Ballet School","The Alberta Ballet Company","Calgary","AB","Junior High/Senior High","N","N","N","Y","Y","T2R1K7"
"Sir John A Macdonald School","The Calgary School Division","Calgary","AB","Junior High","N","N","N","Y","Y","T2K1C2"
"Maria Montessori School - cSPACE King Edward Location","Maria Montessori Education Centre of Calgary, Ltd.","Calgary","AB","Unknown","N","N","N","N","N","T2T6T7"
"John G Diefenbaker High School","The Calgary School Division","Calgary","AB","Senior High","N","N","N","N","N","T2K1C2"
"Nelson Mandela High School","The Calgary School Division","Calgary","AB","Senior High","N","N","N","N","N","T3J4W3"
"Calgary Christian School","The Palliser School Division","Calgary","AB","Elementary","N","N","Y","N","N","T3E3X9"
"Eric Harvie School","The Calgary School Division","Calgary","AB","Elementary","N","N","Y","N","N","T3L3C9"
"St. Luke Bilingual Elementary School","The Calgary Roman Catholic Separate School Division","Calgary","AB","Elementary","N","N","Y","N","N","T2L0E1"
"Queen Elizabeth School","The Calgary School Division","Calgary","AB","Elementary","N","N","Y","N","N","T2N2G5"
"Our Lady of Grace School","The Calgary Roman Catholic Separate School Division","Calgary","AB","Elementary/Junior High","N","N","Y","Y","Y","T3P0N7"
"Sir John Franklin School","The Calgary School Division","Calgary","AB","Elementary/Junior High","N","N","Y","Y","Y","T2E0T7"
"Horizon Leadership Academy","The Palliser School Division","Calgary","AB","Elementary/Junior High","N","N","Y","Y","Y","T3E7K9"
"Thomas B Riley School","The Calgary School Division","Calgary","AB","Elementary/Junior High","N","N","Y","Y","Y","T3B2J9"
"Evergreen School","The Calgary School Division","Calgary","AB","Elementary","N","N","Y","N","N","T2Y0L3"
"Prince of Peace School","The Calgary Roman Catholic Separate School Division","Calgary","AB","Elementary/Junior High","N","N","Y","Y","Y","T3M2C9"
"Providence Children's Centre - Falconridge","Providence Child Development Society","Calgary","AB","ECS","N","N","N","N","N","T3J1C4"
"St. Jerome Elementary School","The Calgary Roman Catholic Separate School Division","Calgary","AB","Elementary","N","N","Y","N","N","T3K5S3"
"Menno Simons Christian School","The Palliser School Division","Calgary","AB","Elementary/Junior High","N","N","Y","Y","Y","T3H4Y7"
"Northeast Elementary Campus","Foundations for the Future Charter Academy Charter School Society","Calgary","AB","Elementary","N","N","Y","N","N","T2E6C8"
"Haysboro Catholic High School","The Calgary Roman Catholic Separate School Division","Calgary","AB","Senior High","N","N","N","N","N","T2V2Y2"
"Niitsitapi Learning Centre","The Calgary School Division","Calgary","AB","Elementary","N","N","Y","N","N","T2B2E1"
"Monsignor A. J. Hetherington Elementary School","The Calgary Roman Catholic Separate School Division","Calgary","AB","Elementary","N","N","Y","N","N","T3J3J3"
"Mount Royal University - City Centre Campus",,"Calgary","AB",,"Y","Y",,,,"T2P3T5"
"Sibylla Kiddle School","The Calgary School Division","Calgary","AB","Unknown","N","N","N","N","N",
"Trinity Christian School","The Palliser School Division","Calgary","AB","Elementary/Junior High","N","N","Y","Y","Y","T2X2A8"
"Varsity Acres School","The Calgary School Division","Calgary","AB","Elementary","N","N","Y","N","N","T3A0H7"
"School of East Indian Languages and Performing Arts","School of East Indian Languages and Performing Arts of Calgary","Calgary","AB","Unknown","N","N","N","N","N","T2X0N9"
"Discovering Choices 2","The Calgary School Division","Calgary","AB","Senior High","N","N","N","N","N","T2A2K2"
"Sherwood School","The Calgary School Division","Calgary","AB","Elementary/Junior High","N","N","Y","Y","Y","T2C1J4"
"Bridlewood School","The Calgary School Division","Calgary","AB","Elementary","N","N","Y","N","N","T2Y0L4"
"McKenzie Lake School","The Calgary School Division","Calgary","AB","Elementary","N","N","Y","N","N","T2Z1L7"
"St. Monica School","The Calgary Roman Catholic Separate School Division","Calgary","AB","Elementary/Junior High","N","N","Y","Y","Y","T2S0C2"
"SAIT - Main Campus",,"Calgary","AB",,"Y","Y",,,,
"Dr. George Stanley School","The Calgary School Division","Calgary","AB","Elementary/Junior High","N","N","Y","Y","Y","T3M0J4"
"Marlborough Day Nursery Ltd.","Marlborough Day Nursery ECS Limited","Calgary","AB","ECS","N","N","N","N","N","T2A3V8"
"St. Gregory School","The Calgary Roman Catholic Separate School Division","Calgary","AB","Junior High","N","N","N","Y","Y","T3E0R6"
"Renfrew Educational Services-Bowness Centre","Renfrew Educational Services Society","Calgary","AB","Unknown","N","N","N","N","N","T3B2B2"
"Calgary German Language School Society","Calgary German Language School Society","Calgary","AB","Junior High/Senior High","N","N","N","Y","Y","T3B2L9"
"Apostles of Jesus","The Calgary Roman Catholic Separate School Division","Calgary","AB","Elementary/Junior High","N","N","Y","Y","Y","T3N1H6"
"Douglasdale School","The Calgary School Division","Calgary","AB","Elementary","N","N","Y","N","N","T2Z4A3"
"Southeast Elementary Campus","Foundations for the Future Charter Academy Charter School Society","Calgary","AB","Elementary","N","N","Y","N","N","T2J1A9"
"F. E. Osborne School","The Calgary School Division","Calgary","AB","Elementary/Junior High","N","N","Y","Y","Y","T3A1A7"
"Ecole St. Pius X School","The Calgary Roman Catholic Separate School Division","Calgary","AB","Elementary","N","N","Y","N","N","T2M3T5"
"Robert Thirsk School","The Calgary School Division","Calgary","AB","Senior High","N","N","N","N","N","T3G5T3"
"Forest Lawn High School","The Calgary School Division","Calgary","AB","Senior High","N","N","N","N","N","T2A1M8"
"Pathway Montessori Inc","Woodpark Montessori Society","Calgary","AB","ECS","N","N","N","N","N","T2W5H7"
"Griffith Woods School","The Calgary School Division","Calgary","AB","Elementary/Junior High","N","N","Y","Y","Y","T3H3X2"
"Cecil Swanson School","The Calgary School Division","Calgary","AB","Elementary","N","N","Y","N","N","T1Y5V9"
"Monterey Park School","The Calgary School Division","Calgary","AB","Elementary","N","N","Y","N","N","T1Y6R2"
"Rosedale School","The Calgary School Division","Calgary","AB","Elementary/Junior High","N","N","Y","Y","Y","T2M0G3"
"Calgary Chinese Private School","The Calgary Chinese Public School Society","Calgary","AB","Senior High","N","N","N","N","N","T2P0B9"
"Bearspaw Christian School & College","Bearspaw Christian School Society","Calgary","AB","Elementary/Junior High/Senior High","N","N","Y","Y","Y","T3R1C5"
"Emily Follensbee School","The Calgary School Division","Calgary","AB","Elementary/Junior High","N","N","Y","Y","Y","T2T3W5"
"St. Matthew School","The Calgary Roman Catholic Separate School Division","Calgary","AB","Elementary/Junior High","N","N","Y","Y","Y","T2H1N3"
"Falconridge School","The Calgary School Division","Calgary","AB","Elementary","N","N","Y","N","N","T3J1T4"
"Chinook Winds Adventist Academy","Alberta Conference of 7th Day Adventist Church","Calgary","AB","Elementary/Junior High/Senior High","N","N","Y","Y","Y","T3B5T2"
"St. Sebastian Elementary School","The Calgary Roman Catholic Separate School Division","Calgary","AB","Elementary","N","N","Y","N","N","T2X0E6"
"Sundance School","The Calgary School Division","Calgary","AB","Elementary","N","N","Y","N","N","T2X2N9"
"St. Cyril School","The Calgary Roman Catholic Separate School Division","Calgary","AB","Elementary/Junior High","N","N","Y","Y","Y","T2W2N9"
"St. John Henry Newman School","The Calgary Roman Catholic Separate School Division","Calgary","AB","Elementary/Junior High","N","N","Y","Y","Y","T2Z2G7"
"Collingwood School","The Calgary School Division","Calgary","AB","Elementary","N","N","Y","N","N","T2L0R6"
"Notre-Dame de la Paix","The Southern Francophone Education Region","Calgary","AB","Elementary","N","N","Y","N","N","T2J2B7"
"Riverbend School","The Calgary School Division","Calgary","AB","Elementary","N","N","Y","N","N","T2C3Z7"
"Maple Ridge School","The Calgary School Division","Calgary","AB","Elementary","N","N","Y","N","N","T2J1W3"
"École La Mosaïque","The Southern Francophone Education Region","Calgary","AB","Elementary","N","N","Y","N","N","T3J3G4"
"West Island College","West Island College Society of Alberta","Calgary","AB","Junior High/Senior High","N","N","N","Y","Y","T2H1M5"
"Light of Christ Catholic School","The Calgary Roman Catholic Separate School Division","Calgary","AB","Elementary/Junior High","N","N","Y","Y","Y","T3J0L8"
"Jack James High School","The Calgary School Division","Calgary","AB","Senior High","N","N","N","N","N","T2A4M1"
"Rundle College Junior High School","Rundle College Society","Calgary","AB","Junior High","N","N","N","Y","Y","T3H3W5"
"Glenbrook School","The Calgary School Division","Calgary","AB","Elementary","N","N","Y","N","N","T3E3V1"
"Elbow Park School","The Calgary School Division","Calgary","AB","Elementary","N","N","Y","N","N","T2T2H8"
"Dr. J. K. Mulloy School","The Calgary School Division","Calgary","AB","Elementary","N","N","Y","N","N","T2K1H6"
"The Heartland Agency","The Heartland Agency","Calgary","AB","ECS","N","N","N","N","N","T2R0P3"
"St. Jude School","The Calgary Roman Catholic Separate School Division","Calgary","AB","Elementary","N","N","Y","N","N","T2W4W4"
"Rundle College Academy","Rundle College Society","Calgary","AB","Elementary/Junior High/Senior High","N","N","Y","Y","Y","T2T4H9"
"Buchanan School","The Calgary School Division","Calgary","AB","Elementary","N","N","Y","N","N","T2E2Y2"
"Lord Beaverbrook High School","The Calgary School Division","Calgary","AB","Senior High","N","N","N","N","N","T2H0Z4"
"St. Peter Elementary School","The Calgary Roman Catholic Separate School Division","Calgary","AB","Elementary","N","N","Y","N","N","T2A5L9"
"North Point School for Boys","North Point School for Boys","Calgary","AB","Elementary/Junior High/Senior High","N","N","Y","Y","Y","T2T0W3"
"St. Thomas Aquinas School","The Calgary Roman Catholic Separate School Division","Calgary","AB","Elementary","N","N","Y","N","N","T3E0R1"
"Saddle Ridge School","The Calgary School Division","Calgary","AB","Elementary","N","N","Y","N","N","T3J5L6"
"Penbrooke Meadows School","The Calgary School Division","Calgary","AB","Elementary","N","N","Y","N","N","T2A2G4"
"Georges P. Vanier School","The Calgary School Division","Calgary","AB","Elementary/Junior High","N","N","Y","Y","Y","T2E2H3"
"James Fowler High School","The Calgary School Division","Calgary","AB","Senior High","N","N","N","N","N","T2K1A1"
"Dr. E. P. Scarlett High School","The Calgary School Division","Calgary","AB","Senior High","N","N","N","N","N","T2W1H4"
"Project Trust","The Calgary School Division","Calgary","AB","Senior High","N","N","N","N","N","T2M4P6"
"Father Lacombe School","The Calgary Roman Catholic Separate School Division","Calgary","AB","Senior High","N","N","N","N","N","T2A6B4"
"University of Calgary - Downtown Campus",,"Calgary","AB",,"Y","Y",,,,"T2P1H9"
"O.S. Geiger School","The Calgary School Division","Calgary","AB","Elementary","N","N","Y","N","N","T3J2J4"
"Our Lady of the Rosary School","The Calgary Roman Catholic Separate School Division","Calgary","AB","Elementary","N","N","Y","N","N","T3M0W7"
"Mountain View Academy","Mountain View Academy Society","Calgary","AB","Elementary/Junior High/Senior High","N","N","Y","Y","Y","T1Y6Z8"
"West Springs School","The Calgary School Division","Calgary","AB","Elementary","N","N","Y","N","N","T3H0P7"
"Hillhurst School","The Calgary School Division","Calgary","AB","Elementary","N","N","Y","N","N","T2N0Z2"
"Marion Carson School","The Calgary School Division","Calgary","AB","Elementary","N","N","Y","N","N","T3A1A7"
"Bishop Carroll High School","The Calgary Roman Catholic Separate School Division","Calgary","AB","Senior High","N","N","N","N","N","T3E6L1"
"Oaks and Acorns Montessori at Auburn Bay","Montessori Projects of Alberta Ltd.","Calgary","AB","ECS","N","N","N","N","N","T2X3S3"
"I'm For Kids Team","I'm For Kids Team Ltd.","Calgary","AB","ECS","N","N","N","N","N","T2Z2V6"
"Marlborough School","The Calgary School Division","Calgary","AB","Elementary","N","N","Y","N","N","T2A3A1"
"St. James Elementary Junior High School","The Calgary Roman Catholic Separate School Division","Calgary","AB","Elementary/Junior High","N","N","Y","Y","Y","T3E1N6"
"Wood's Homes School","The Calgary School Division","Calgary","AB","Elementary/Junior High/Senior High","N","N","Y","Y","Y","T3B2B2"
"Calgary Early Learning Centre","Calgary Early Learning Centre Association","Calgary","AB","ECS","N","N","N","N","N","T2V2Y3"
"Calgary Arts Academy","Calgary Arts Academy Society","Calgary","AB","Elementary/Junior High","N","N","Y","Y","Y","T2G1E8"
"Mount Royal School","The Calgary School Division","Calgary","AB","Junior High","N","N","N","Y","Y","T2T3T3"
"Captain Nichola Goddard School","The Calgary School Division","Calgary","AB","Elementary/Junior High","N","N","Y","Y","Y","T3K0P3"
"Columbia College","Columbia College Corp.","Calgary","AB","Senior High","N","N","N","N","N","T2E7N8"
"Harold Panabaker School","The Calgary School Division","Calgary","AB","Elementary/Junior High","N","N","Y","Y","Y","T2W0W3"
"Divine Mercy School","The Calgary Roman Catholic Separate School Division","Calgary","AB","Elementary","N","N","Y","N","N","T3M1M5"
"Akiva Academy","Congregation House of Jacob-Mikveh Israel","Calgary","AB","Elementary/Junior High","N","N","Y","Y","Y","T2V2Y3"
"West View School","The Calgary School Division","Calgary","AB","Junior High/Senior High","N","N","N","Y","Y","T3R1J3"
"Calgary Islamic School, Akram Jomaa Campus","The Palliser School Division","Calgary","AB","Elementary/Junior High/Senior High","N","N","Y","Y","Y","T1Y5L2"
"Ascension of Our Lord","The Calgary Roman Catholic Separate School Division","Calgary","AB","Elementary/Junior High","N","N","Y","Y","Y","T3K4G9"
"The Chinese Academy","The Chinese Academy Foundation","Calgary","AB","Senior High","N","N","N","N","N","T2K1C2"
"St. Damien School","The Calgary Roman Catholic Separate School Division","Calgary","AB","Elementary","N","N","Y","N","N","T2B2J1"
"Prince of Wales School","The Calgary School Division","Calgary","AB","Elementary","N","N","Y","N","N","T2J3Y9"
"Alpine Children's Centre","Montessori Education Preschool & ECS Institute of Alberta","Calgary","AB","ECS","N","N","N","N","N","T3E3L1"
"Alberta Chung Wah School","Alberta Chung Wah School Society","Calgary","AB","Senior High","N","N","N","N","N","T2G4X6"
"Foothills Academy","Foothills Academy Society","Calgary","AB","Elementary/Junior High/Senior High","N","N","Y","Y","Y","T2N4T1"
"Joane Cardinal-Schubert High School","The Calgary School Division","Calgary","AB","Senior High","N","N","N","N","N","T3M2P9"
"Renfrew Educational Services-Janice McTighe Centre","Renfrew Educational Services Society","Calgary","AB","Elementary","N","N","Y","N","N","T2E6S5"
"Keeler School","The Calgary School Division","Calgary","AB","Elementary","N","N","Y","N","N","T2A2C4"
"The PREP Program","The PREP Program - A Calgary Society to Promote Education for Individuals with Down Syndrome","Calgary","AB","ECS","N","N","N","N","N","T2N1J7"
"The Third Academy","Third Academy International Ltd.","Calgary","AB","Elementary","N","N","Y","N","N","T2H1C3"
"Coventry Hills School","The Calgary School Division","Calgary","AB","Elementary","N","N","Y","N","N","T3K5S9"
"Westgate School","The Calgary School Division","Calgary","AB","Elementary","N","N","Y","N","N","T3C2T3"
"Rundle College Elementary School","Rundle College Society","Calgary","AB","Elementary","N","N","Y","N","N","T3H3W5"
"Nellie McClung School","The Calgary School Division","Calgary","AB","Elementary","N","N","Y","N","N","T2V3S4"
"Mount Royal University - Lincoln Park Campus",,"Calgary","AB",,"Y","Y",,,,"T3E6K6"
"Start Outreach","The Calgary School Division","Calgary","AB","Senior High","N","N","N","N","N","T3B5C2"
"King George School","The Calgary School Division","Calgary","AB","Elementary","N","N","Y","N","N","T2M3M4"
"William D. Pratt School","The Calgary School Division","Calgary","AB","Elementary/Junior High","N","N","Y","Y","Y","T3G0A4"
"CBe - Learn","The Calgary School Division","Calgary","AB","Elementary/Junior High/Senior High","N","N","Y","Y","Y","T3E1L2"
"Valley View School","The Calgary School Division","Calgary","AB","Elementary","N","N","Y","N","N","T2B0C6"
"St. Ambrose School","The Calgary Roman Catholic Separate School Division","Calgary","AB","Elementary/Junior High","N","N","Y","Y","Y","T3G4X9"
"Central Memorial High School","The Calgary School Division","Calgary","AB","Junior High/Senior High","N","N","N","Y","Y","T3E1R9"
"St. Marguerite School","The Calgary Roman Catholic Separate School Division","Calgary","AB","Elementary","N","N","Y","N","N","T2Z0W1"
"St. Augustine Elementary Junior High School","The Calgary Roman Catholic Separate School Division","Calgary","AB","Elementary/Junior High","N","N","Y","Y","Y","T2V1E9"
"Bowcroft School","The Calgary School Division","Calgary","AB","Elementary","N","N","Y","N","N","T3B2L9"
"St. Dominic School","The Calgary Roman Catholic Separate School Division","Calgary","AB","Elementary","N","N","Y","N","N","T3A1C2"
"Tuscany School","The Calgary School Division","Calgary","AB","Elementary","N","N","Y","N","N","T3L2T4"
"Behaviour Therapy and Learning Centre Ltd.","Behaviour Therapy and Learning Centre Ltd.","Calgary","AB","ECS","N","N","N","N","N","T3H5P1"
"Chinook Learning Services","The Calgary School Division","Calgary","AB","Senior High","N","N","N","N","N","T2M0T2"
"W.O. Mitchell School","The Calgary School Division","Calgary","AB","Elementary","N","N","Y","N","N","T3B4R9"
"Somerset School","The Calgary School Division","Calgary","AB","Elementary","N","N","Y","N","N","T2Y4S2"
"Northwest Elementary Campus","Foundations for the Future Charter Academy Charter School Society","Calgary","AB","Elementary","N","N","Y","N","N","T2K0J5"
"Dr. Gordon Townsend School","The Calgary School Division","Calgary","AB","Elementary/Junior High/Senior High","N","N","Y","Y","Y","T3B6A8"
"Dr. Gordon Higgins School","The Calgary School Division","Calgary","AB","Junior High","N","N","N","Y","Y","T1Y2W9"
"Britannia Children's Center","Montessori Education Preschool & ECS Institute of Alberta","Calgary","AB","ECS","N","N","N","N","N","T2V1V4"
"Rosemont School","The Calgary School Division","Calgary","AB","Elementary","N","N","Y","N","N","T2K1N6"
"West Dover School","The Calgary School Division","Calgary","AB","Elementary","N","N","Y","N","N","T2B0G9"
"North Middle School Campus","Foundations for the Future Charter Academy Charter School Society","Calgary","AB","Elementary/Junior High","N","N","Y","Y","Y","T2E5S7"
"St. Wilfrid Elementary School","The Calgary Roman Catholic Separate School Division","Calgary","AB","Elementary","N","N","Y","N","N","T1Y4Y1"
"Deer Run School","The Calgary School Division","Calgary","AB","Elementary","N","N","Y","N","N","T2J6P8"
"Ian Bazalgette School","The Calgary School Division","Calgary","AB","Elementary/Junior High","N","N","Y","Y","Y","T2B0C6"
"Huntington Hills School","The Calgary School Division","Calgary","AB","Elementary","N","N","Y","N","N","T2K0M5"
"Our Lady of the Evergreens Catholic School","The Calgary Roman Catholic Separate School Division","Calgary","AB","Elementary","N","N","Y","N","N","T2Y0L5"
"Grant MacEwan School","The Calgary School Division","Calgary","AB","Elementary","N","N","Y","N","N","T3J3A5"
"St. Philip School","The Calgary Roman Catholic Separate School Division","Calgary","AB","Elementary","N","N","Y","N","N","T2J5A8"
"Thornhill Community Building Early Childhood Society","Thornhill Child Care Society","Calgary","AB","ECS","N","N","N","N","N","T2K4Y5"
"CUPS One World Child Development Centre","Calgary Urban Project Society","Calgary","AB","ECS","N","N","N","N","N","T2R0B7"
"Mount View School","The Calgary School Division","Calgary","AB","Elementary","N","N","Y","N","N","T2E3T8"
"The Hamptons School","The Calgary School Division","Calgary","AB","Elementary","N","N","Y","N","N","T3A6G2"
"Montessori Alberta","2128607 Alberta Ltd.","Calgary","AB","ECS","N","N","N","N","N","T2N0Z3"
"Heritage Christian Academy","The Palliser School Division","Calgary","AB","Elementary/Junior High/Senior High","N","N","Y","Y","Y","T2E6L2"
"Richmond School","The Calgary School Division","Calgary","AB","Elementary","N","N","Y","N","N","T2T5G5"
"Peter Lougheed School","The Calgary School Division","Calgary","AB","Elementary/Junior High","N","N","Y","Y","Y","T3J5J1"
"Braeside School","The Calgary School Division","Calgary","AB","Elementary","N","N","Y","N","N","T2W0C3"
"Bonavista Children's Centre","Montessori Education Preschool & ECS Institute of Alberta","Calgary","AB","ECS","N","N","N","N","N","T2J3L5"
"St. Jean Brebeuf School","The Calgary Roman Catholic Separate School Division","Calgary","AB","Junior High","N","N","N","Y","Y","T2L2J6"
"One World Child Development Centre","Calgary Urban Project Society","Calgary","AB","ECS","N","N","N","N","N","T2R0E2"
"St. Teresa of Calcutta School","The Calgary Roman Catholic Separate School Division","Calgary","AB","Elementary","N","N","Y","N","N","T2X1T7"
"Ranchlands Montessori Children's Centre","Montessori Education Preschool & ECS Institute of Alberta","Calgary","AB","ECS","N","N","N","N","N","T3G1E8"
"Monsignor J. S. Smith School","The Calgary Roman Catholic Separate School Division","Calgary","AB","Elementary/Junior High","N","N","Y","Y","Y","T2Z2H9"
"St. Michael School","The Calgary Roman Catholic Separate School Division","Calgary","AB","Elementary/Junior High","N","N","Y","Y","Y","T3C0G9"
"Foothills Alliance ECS","Foothills Alliance Kindergarten Society","Calgary","AB","ECS","N","N","N","N","N","T3A4K4"
"Haultain Memorial School","The Calgary School Division","Calgary","AB","Elementary","N","N","Y","N","N","T2J4S8"
"Altadore School","The Calgary School Division","Calgary","AB","Elementary","N","N","Y","N","N","T2T4H9"
"Oaks and Acorns Montessori Kindergarten","Montessori Projects of Alberta Ltd.","Calgary","AB","ECS","N","N","N","N","N","T2X3S3"
"Almadina Language Charter Academy, Mountain View Campus","Almadina School Society","Calgary","AB","Elementary","N","N","Y","N","N","T2B1R9"
"St. Isabella School","The Calgary Roman Catholic Separate School Division","Calgary","AB","Elementary/Junior High","N","N","Y","Y","Y","T2Z4W8"
"Dr. Freda Miller School","The Calgary School Division","Calgary","AB","Unknown","N","N","N","N","N","T2Y0E8"
"Scenic Acres School","The Calgary School Division","Calgary","AB","Elementary","N","N","Y","N","N","T3L1T2"
"New Brighton School","The Calgary School Division","Calgary","AB","Elementary","N","N","Y","N","N","T2Z4B2"
"Ted Harrison School","The Calgary School Division","Calgary","AB","Elementary/Junior High","N","N","Y","Y","Y","T3J4L1"
"Greek Community School","Hellenic Society of Calgary and District","Calgary","AB","Senior High","N","N","N","N","N","T3C3B7"
"Dr. Roberta Bondar School","The Calgary School Division","Calgary","AB","Elementary","N","N","Y","N","N","T3H5B1"
"Marshall Springs School","The Calgary School Division","Calgary","AB","Elementary/Junior High","N","N","Y","Y","Y","T2Y4X5"
"Monsignor Neville Anderson School","The Calgary Roman Catholic Separate School Division","Calgary","AB","Elementary","N","N","Y","N","N","T3K4B2"
"Louise Dean School","The Calgary School Division","Calgary","AB","Junior High/Senior High","N","N","N","Y","Y","T2N2P1"
"Southwest Elementary Campus","Foundations for the Future Charter Academy Charter School Society","Calgary","AB","Elementary","N","N","Y","N","N","T2W0R7"
"Hugh A. Bennett School","The Calgary School Division","Calgary","AB","Elementary","N","N","Y","N","N","T3J0V1"
"Colonel Macleod School","The Calgary School Division","Calgary","AB","Elementary/Junior High","N","N","Y","Y","Y","T2E3Y9"
"Holy Family School","The Calgary Roman Catholic Separate School Division","Calgary","AB","Elementary","N","N","Y","N","N","T2A0Z1"
"Horizon Heritage Arabic School","Horizon Academy Institute","Calgary","AB","Senior High","N","N","N","N","N","T3C3P1"
"St. Rose of Lima Junior High School","The Calgary Roman Catholic Separate School Division","Calgary","AB","Elementary/Junior High","N","N","Y","Y","Y","T1Y1Z5"
"Erin Woods School","The Calgary School Division","Calgary","AB","Elementary","N","N","Y","N","N","T2B2Z9"
"Buffalo Rubbing Stone School","The Calgary School Division","Calgary","AB","Elementary","N","N","Y","N","N","T3K0X2"
"Our Lady of Fatima","The Calgary Roman Catholic Separate School Division","Calgary","AB","Elementary","N","N","Y","N","N","T3J5C4"
"Apple Tree Preschool","Trail Kids Ltd.","Calgary","AB","ECS","N","N","N","N","N","T2Y4S6"
"University of Calgary - Main Campus",,"Calgary","AB",,"Y","Y",,,,
"Banff Trail School","The Calgary School Division","Calgary","AB","Elementary","N","N","Y","N","N","T2M4J3"
"Chaparral School","The Calgary School Division","Calgary","AB","Elementary","N","N","Y","N","N","T2X3S2"
"CLS Lord Shaughnessy Writing Centre","The Calgary School Division","Calgary","AB","Unknown","N","N","N","N","N","T3E1L2"
"Calgary Chinese Alliance School","Calgary Chinese Alliance School Society","Calgary","AB","Senior High","N","N","N","N","N","T3K2E2"
"Holy Trinity School","The Calgary Roman Catholic Separate School Division","Calgary","AB","Elementary","N","N","Y","N","N","T2A1L2"
"Calgary Jewish Academy","The Calgary Jewish Academy","Calgary","AB","Elementary/Junior High","N","N","Y","Y","Y","T2V1P7"
"Briar Hill School","The Calgary School Division","Calgary","AB","Elementary","N","N","Y","N","N","T2N2L8"
"James Short Memorial School","The Calgary School Division","Calgary","AB","Elementary","N","N","Y","N","N","T2A3V7"
"Dalhousie School","The Calgary School Division","Calgary","AB","Elementary","N","N","Y","N","N","T3A1K3"
"Madeleine D' Houet Bilingual School","The Calgary Roman Catholic Separate School Division","Calgary","AB","Junior High","N","N","N","Y","Y","T2N2M8"
"St. Anne Academic Centre","The Calgary Roman Catholic Separate School Division","Calgary","AB","Elementary/Junior High/Senior High","N","N","Y","Y","Y","T2G1N2"
"Glenmore Christian Academy Elementary","GCA Educational Society","Calgary","AB","Elementary","N","N","Y","N","N","T2Y4W2"
"Midnapore School","The Calgary School Division","Calgary","AB","Elementary","N","N","Y","N","N","T2X1L7"
"Wilma Hansen School","The Calgary School Division","Calgary","AB","Elementary/Junior High","N","N","Y","Y","Y",
"Calgary Islamic School, Omar Bin Al-Khattab Campus","The Palliser School Division","Calgary","AB","Elementary/Junior High","N","N","Y","Y","Y","T2A5K4"
"Terry Fox School","The Calgary School Division","Calgary","AB","Junior High","N","N","N","Y","Y","T3J1P7"
"Alex Ferguson School","The Calgary School Division","Calgary","AB","Elementary","N","N","Y","N","N","T3C1K5"
"AADAC Youth Services","The Calgary School Division","Calgary","AB","Unknown","N","N","N","N","N","T2N2E5"
"Clear Water Academy","Clear Water Academy Foundation","Calgary","AB","Elementary/Junior High/Senior High","N","N","Y","Y","Y","T3E7J9"
"Blessed Marie-Rose","The Calgary Roman Catholic Separate School Division","Calgary","AB","Elementary/Junior High","N","N","Y","Y","Y","T3R1M9"
"Glenmeadows School","The Calgary School Division","Calgary","AB","Elementary","N","N","Y","N","N","T3E4G4"
"Janus Academy (Holy Cross Site)","Janus Academy Society","Calgary","AB","Junior High/Senior High","N","N","N","Y","Y","T2H1S1"
"William Roper Hull School","The Calgary School Division","Calgary","AB","Elementary/Junior High/Senior High","N","N","Y","Y","Y","T2W2Z8"
"Chief Justice Milvain School","The Calgary School Division","Calgary","AB","Elementary","N","N","Y","N","N","T1Y6A3"
"Project Trust","The Calgary School Division","Calgary","AB","Senior High","N","N","N","N","N","T2M4P6"
"Thorncliffe School","The Calgary School Division","Calgary","AB","Elementary","N","N","Y","N","N","T2K3B9"
"École du Nouveau-Monde","The Southern Francophone Education Region","Calgary","AB","Elementary","N","N","Y","N","N","T3L0E7"
"R. T. Alderman School","The Calgary School Division","Calgary","AB","Elementary/Junior High","N","N","Y","Y","Y","T2J1S1"
"Aspen Hill Montessori School","Aspen Hill Montessori Casa","Calgary","AB","ECS","N","N","N","N","N","T3H4C7"
"St. Joan of Arc Elementary/Junior High School","The Calgary Roman Catholic Separate School Division","Calgary","AB","Elementary/Junior High","N","N","Y","Y","Y","T3H0K2"
"CLS Lord Beaverbrook Writing Centre","The Calgary School Division","Calgary","AB","Unknown","N","N","N","N","N","T2H0Z4"
"Aurora Learning Calgary","Aurora Learning Foundation (Calgary)","Calgary","AB","Elementary/Junior High/Senior High","N","N","Y","Y","Y","T2E7N7"
"St. Joseph Elementary Junior High School","The Calgary Roman Catholic Separate School Division","Calgary","AB","Elementary/Junior High","N","N","Y","Y","Y","T2M3C7"
"Rundle School","The Calgary School Division","Calgary","AB","Elementary","N","N","Y","N","N","T1Y4W9"
"St. Gianna School","The Calgary Roman Catholic Separate School Division","Calgary","AB","Unknown","N","N","N","N","N","T3M0H7"
"Balmoral School","The Calgary School Division","Calgary","AB","Elementary/Junior High","N","N","Y","Y","Y","T2M0H4"
"Notre Dame High School","The Calgary Roman Catholic Separate School Division","Calgary","AB","Senior High","N","N","N","N","N","T3K6E4"
"Highwood School","The Calgary School Division","Calgary","AB","Elementary","N","N","Y","N","N","T2K2G5"
"Colonel J. Fred Scott School","The Calgary School Division","Calgary","AB","Elementary","N","N","Y","N","N","T1Y3C4"
"Pineridge School","The Calgary School Division","Calgary","AB","Elementary","N","N","Y","N","N","T1Y4W6"
"Bowness High School","The Calgary School Division","Calgary","AB","Senior High","N","N","N","N","N","T3B2N6"
"University of Calgary - Foothills Campus",,"Calgary","AB",,"Y","Y",,,,"T2N4N1"
"McKenzie Towne School","The Calgary School Division","Calgary","AB","Elementary","N","N","Y","N","N","T2Z0V3"
"Master's College","The Palliser School Division","Calgary","AB","Junior High/Senior High","N","N","N","Y","Y","T2T5J4"
"Holy Angels School","The Calgary Roman Catholic Separate School Division","Calgary","AB","Elementary","N","N","Y","N","N","T2C3T5"
"Bishop O'Byrne High School","The Calgary Roman Catholic Separate School Division","Calgary","AB","Senior High","N","N","N","N","N","T2Y4H3"
"Branton School","The Calgary School Division","Calgary","AB","Elementary/Junior High","N","N","Y","Y","Y","T2M3W1"
"Renfrew Thomas W. Buchanan Centre","Renfrew Educational Services Society","Calgary","AB","Elementary","N","N","Y","N","N","T2X3V4"
"Connaught School","The Calgary School Division","Calgary","AB","Elementary","N","N","Y","N","N","T2R0J8"
"University Day Care Centre","University Child Care Centre Society","Calgary","AB","ECS","N","N","N","N","N",
"St. Benedict School","The Calgary Roman Catholic Separate School Division","Calgary","AB","Elementary","N","N","Y","N","N","T2V1R2"
"Asasa Academy","Asasa Learning","Calgary","AB","Elementary","N","N","Y","N","N","T2K3J6"
"Sacred Heart Elementary School","The Calgary Roman Catholic Separate School Division","Calgary","AB","Elementary","N","N","Y","N","N","T3C0T6"
"Annie Gale School","The Calgary School Division","Calgary","AB","Elementary/Junior High","N","N","Y","Y","Y","T1Y4S8"
"Calgary Home Education","The Calgary School Division","Calgary","AB","Elementary/Junior High/Senior High","N","N","Y","Y","Y","T2V0Z7"
"Christine Meikle School","The Calgary School Division","Calgary","AB","Elementary/Junior High/Senior High","N","N","Y","Y","Y","T3A2Y5"
"Robert Warren School","The Calgary School Division","Calgary","AB","Elementary/Junior High","N","N","Y","Y","Y","T2W1H2"
"River Valley School ECS","River Valley School Society","Calgary","AB","Unknown","N","N","N","N","N","T3B2E7"
"Providence Children's Centre - Hawkwood","Providence Child Development Society","Calgary","AB","ECS","N","N","N","N","N","T3G3K2"
"Belvedere Parkway School","The Calgary School Division","Calgary","AB","Elementary","N","N","Y","N","N","T3B2R8"
"Rosscarrock School","The Calgary School Division","Calgary","AB","Elementary","N","N","Y","N","N","T3C1W7"
"Big Plans for Little Kids","Big Plans for Little Kids Ltd.","Calgary","AB","ECS","N","N","N","N","N","T3B0L9"
"Mayland Heights School","The Calgary School Division","Calgary","AB","Elementary","N","N","Y","N","N","T2E6A2"
"St. Martha School","The Calgary Roman Catholic Separate School Division","Calgary","AB","Elementary/Junior High","N","N","Y","Y","Y","T2A4B1"
"Abbeydale School","The Calgary School Division","Calgary","AB","Elementary","N","N","Y","N","N","T2A6W2"
"Silver Springs School","The Calgary School Division","Calgary","AB","Elementary","N","N","Y","N","N","T3B3V1"
"Renert School","The Renert School Foundation","Calgary","AB","Elementary/Junior High/Senior High","N","N","Y","Y","Y","T3R0K4"
"Canadian Montessori School West","The Canadian Montessori School Ltd.","Calgary","AB","Unknown","N","N","N","N","N","T2V0P6"
"Playcare ECS","Playcare ECS Ltd.","Calgary","AB","ECS","N","N","N","N","N","T2W2A7"
"Cappy Smart School","The Calgary School Division","Calgary","AB","Elementary","N","N","Y","N","N","T2A4P5"
"Delta West Academy","Delta West Academy Society","Calgary","AB","Elementary/Junior High/Senior High","N","N","Y","Y","Y","T2E4P3"
"Glendale School","The Calgary School Division","Calgary","AB","Elementary","N","N","Y","N","N","T3E3Z8"
"Janet Johnstone School","The Calgary School Division","Calgary","AB","Elementary","N","N","Y","N","N","T2Y1M1"
"Our Lady of the Assumption School","The Calgary Roman Catholic Separate School Division","Calgary","AB","Elementary/Junior High","N","N","Y","Y","Y","T3B1N5"
"Calgary French & International School","Calgary French & International School Society","Calgary","AB","Elementary/Junior High/Senior High","N","N","Y","Y","Y","T3H5R1"
"Le Roi Daniels School","The Calgary School Division","Calgary","AB","Elementary","N","N","Y","N","N","T2H1B9"
"All Saints School","The Calgary Roman Catholic Separate School Division","Calgary","AB","Senior High","N","N","N","N","N","T2X4K9"
"Crossing Park School","The Calgary School Division","Calgary","AB","Elementary/Junior High","N","N","Y","Y","Y","T3J4W8"
"Ernest Morrow School","The Calgary School Division","Calgary","AB","Elementary/Junior High","N","N","Y","Y","Y","T2A1R3"
"Providence Children's Centre","Providence Child Development Society","Calgary","AB","ECS","N","N","N","N","N","T2V0Z4"
"Children's Commons Ecological Society Nature Kindergarten","Children's Commons Ecological Society","Calgary","AB","ECS","N","N","N","N","N","T2N3J7"
"Sir Winston Churchill High School","The Calgary School Division","Calgary","AB","Senior High","N","N","N","N","N","T2L2J6"
"Vincent Massey School","The Calgary School Division","Calgary","AB","Junior High","N","N","N","Y","Y","T3C2B9"
"Ernest Manning High School","The Calgary School Division","Calgary","AB","Senior High","N","N","N","N","N","T3H0N7"
"Tom Baines School","The Calgary School Division","Calgary","AB","Elementary/Junior High","N","N","Y","Y","Y","T3A3S2"
"Our Lady of Lourdes","The Calgary Roman Catholic Separate School Division","Calgary","AB","Elementary/Junior High","N","N","Y","Y","Y","T2S1S3"
"Ron Southern School","The Calgary School Division","Calgary","AB","Elementary","N","N","Y","N","N","T2X2E2"
"Renfrew Educational Services - Park Place Centre","Renfrew Educational Services Society","Calgary","AB","Unknown","N","N","N","N","N","T2E6S5"
"St. Rita School","The Calgary Roman Catholic Separate School Division","Calgary","AB","Elementary","N","N","Y","N","N","T3G2B3"
"Vista Virtual School - Calgary Writing Centre","The Pembina Hills School Division","Calgary","AB","Unknown","N","N","N","N","N",
"All Boys Alternative Program","The Calgary School Division","Calgary","AB","Elementary","N","N","Y","N","N","T3E1C2"
"Holy Name (Bilingual) School","The Calgary Roman Catholic Separate School Division","Calgary","AB","Elementary","N","N","Y","N","N","T3E2Y7"
"Children's Village School","The Calgary School Division","Calgary","AB","Elementary","N","N","Y","N","N","T2E5L5"
"Westmount Elementary School","Westmount Charter School Society","Calgary","AB","Elementary","N","N","Y","N","N","T2N2V9"
"Willow Park School","The Calgary School Division","Calgary","AB","Elementary/Junior High","N","N","Y","Y","Y","T2J0K7"
"Hawkwood School","The Calgary School Division","Calgary","AB","Elementary","N","N","Y","N","N","T3G2V7"
"University of Calgary - Spy Hill Campus",,"Calgary","AB",,"Y","Y",,,,"T3R1J3"
"Carousel Children's Centre","Montessori Education Preschool & ECS Institute of Alberta","Calgary","AB","ECS","N","N","N","N","N","T3J2A1"
"Louis Riel School","The Calgary School Division","Calgary","AB","Elementary/Junior High","N","N","Y","Y","Y","T2V0L1"
"St. Kateri Tekakwitha School","The Calgary Roman Catholic Separate School Division","Calgary","AB","Elementary","N","N","Y","N","N","T2A7N5"
"Jennie Elliott School","The Calgary School Division","Calgary","AB","Elementary","N","N","Y","N","N","T3E6A9"
"Monsignor E. L. Doyle Elementary School","The Calgary Roman Catholic Separate School Division","Calgary","AB","Elementary","N","N","Y","N","N","T3L1H6"
"Copperfield School","The Calgary School Division","Calgary","AB","Elementary","N","N","Y","N","N","T2Z0G7"
"Calgary Academy Collegiate","Calgary Academy Society","Calgary","AB","Elementary/Junior High/Senior High","N","N","Y","Y","Y","T3H0R3"
"Dalhousie Community Kindergarten","Dalhousie Community Kindergarten Society","Calgary","AB","ECS","N","N","N","N","N","T3A1V6"
"Earl Grey School","The Calgary School Division","Calgary","AB","Elementary","N","N","Y","N","N","T2T0Z1"
"Holy Cross Elementary Junior High School","The Calgary Roman Catholic Separate School Division","Calgary","AB","Elementary/Junior High","N","N","Y","Y","Y","T2B0C6"
"Chris Akkerman School","The Calgary School Division","Calgary","AB","Elementary","N","N","Y","N","N","T2A3J6"
"St. Boniface Elementary School","The Calgary Roman Catholic Separate School Division","Calgary","AB","Elementary","N","N","Y","N","N","T2J2P8"
"Ecole Terre des Jeunes","The Southern Francophone Education Region","Calgary","AB","Elementary","N","N","Y","N","N","T3A0C6"
"Colonel Irvine School","The Calgary School Division","Calgary","AB","Elementary/Junior High","N","N","Y","Y","Y","T2K3H6"
"Maria Montessori School","Maria Montessori Education Centre of Calgary, Ltd.","Calgary","AB","Elementary/Junior High","N","N","Y","Y","Y","T2N1K6"
"Bishop Kidd School","The Calgary Roman Catholic Separate School Division","Calgary","AB","Junior High","N","N","N","Y","Y","T2A0Y8"
"John Ware School","The Calgary School Division","Calgary","AB","Junior High","N","N","N","Y","Y","T2V1R2"
"Canadian Montessori School North","The Canadian Montessori School Ltd.","Calgary","AB","Unknown","N","N","N","N","N","T2V0P6"
"Glenmore Christian Academy Junior High","GCA Educational Society","Calgary","AB","Elementary/Junior High","N","N","Y","Y","Y","T2Y4W2"
"Sir Wilfrid Laurier School","The Calgary School Division","Calgary","AB","Elementary/Junior High","N","N","Y","Y","Y","T2A0Y9"
"Calgary Quest School","Calgary Quest Children's Society","Calgary","AB","Elementary/Junior High/Senior High","N","N","Y","Y","Y","T3C0A5"
"Bishop Pinkham School","The Calgary School Division","Calgary","AB","Junior High","N","N","N","Y","Y","T3E5K1"
"Connect Society's Early Childhood Services - Calgary","Connect Society-Deafness, Education, Advocacy & Family Services","Calgary","AB","ECS","N","N","N","N","N","T3B2R8"
"Arbour Lake Middle School","The Calgary School Division","Calgary","AB","Elementary/Junior High","N","N","Y","Y","Y","T3G4H3"
"McKenzie Learning Centre","Marlborough Day Nursery ECS Limited","Calgary","AB","ECS","N","N","N","N","N","T2Z3S7"
"Simon Fraser School","The Calgary School Division","Calgary","AB","Elementary/Junior High","N","N","Y","Y","Y","T2L1V3"
"Providence Children's Centre - McKenzie Towne","Providence Child Development Society","Calgary","AB","ECS","N","N","N","N","N","T2Z1C2"
"H. D. Cartwright School","The Calgary School Division","Calgary","AB","Junior High","N","N","N","Y","Y","T3A1V6"
"Nose Creek School","The Calgary School Division","Calgary","AB","Elementary/Junior High","N","N","Y","Y","Y","T3K5W9"
"Belfast School","The Calgary School Division","Calgary","AB","Elementary","N","N","Y","N","N","T2E4V4"
"St. Vincent De Paul Elementary Junior High School","The Calgary Roman Catholic Separate School Division","Calgary","AB","Elementary/Junior High","N","N","Y","Y","Y","T3A0K4"
"Vista Heights School","The Calgary School Division","Calgary","AB","Elementary","N","N","Y","N","N","T2E6J3"
"Calgary International Academy","Calgary International Academy Ltd","Calgary","AB","Unknown","N","N","N","N","N","T3G5J7"
"Sainte Marguerite Bourgeoys","The Southern Francophone Education Region","Calgary","AB","Elementary/Junior High/Senior High","N","N","Y","Y","Y","T3E6L1"
"Father Doucet School","The Calgary Roman Catholic Separate School Division","Calgary","AB","Elementary","N","N","Y","N","N","T2Y2T5"
"Dr. Martha Cohen School","The Calgary School Division","Calgary","AB","Elementary/Junior High","N","N","Y","Y","Y","T2Z0V1"
"Colonel Walker School","The Calgary School Division","Calgary","AB","Elementary","N","N","Y","N","N","T2G0V3"
"St. Brigid","The Calgary Roman Catholic Separate School Division","Calgary","AB","Elementary/Junior High","N","N","Y","Y","Y","T3G5S6"
"Phoenix Education Foundation","Phoenix Education Foundation","Calgary","AB","Elementary/Junior High/Senior High","N","N","Y","Y","Y","T2E6J6"
"Alberta University of the Arts",,"Calgary","AB",,"Y","Y",,,,
"Renfrew Educational Services - Child Development Centre","Renfrew Educational Services Society","Calgary","AB","Unknown","N","N","N","N","N","T3B2X9"
"Kenneth D. Taylor School","The Calgary School Division","Calgary","AB","Elementary","N","N","Y","N","N","T3P0A1"
"Montessori Children's House Academy Ltd #3","Montessori Children's House Charity Foundation of Calgary","Calgary","AB","ECS","N","N","N","N","N","T2Z3V8"
"Calgary Christian High School","The Palliser School Division","Calgary","AB","Junior High/Senior High","N","N","N","Y","Y","T3E0R5"
"St. Bede Elementary School","The Calgary Roman Catholic Separate School Division","Calgary","AB","Elementary","N","N","Y","N","N","T3K2J5"
"Patrick Airlie School","The Calgary School Division","Calgary","AB","Elementary","N","N","Y","N","N","T2A1H9"
"Dr. E. W. Coffin School","The Calgary School Division","Calgary","AB","Elementary","N","N","Y","N","N","T2L1W4"
"Corpus Christi School","The Calgary Roman Catholic Separate School Division","Calgary","AB","Elementary","N","N","Y","N","N","T2K3C1"
"Ramsay School","The Calgary School Division","Calgary","AB","Elementary","N","N","Y","N","N","T2G4G9"
"Discovering Choices 2","The Calgary School Division","Calgary","AB","Senior High","N","N","N","N","N","T2A5H5"
"St. Francis High School","The Calgary Roman Catholic Separate School Division","Calgary","AB","Senior High","N","N","N","N","N",
"William Reid School","The Calgary School Division","Calgary","AB","Elementary","N","N","Y","N","N","T2T2E9"
"Father James Whelihan","The Calgary Roman Catholic Separate School Division","Calgary","AB","Elementary/Junior High","N","N","Y","Y","Y","T2X2R5"
"Alex Munro School","The Calgary School Division","Calgary","AB","Elementary","N","N","Y","N","N","T2K0R9"
"Montessori Children's House Academy Ltd #2","Montessori Children's House Charity Foundation of Calgary","Calgary","AB","ECS","N","N","N","N","N","T2X3T2"
"A. E. Cross School","The Calgary School Division","Calgary","AB","Junior High","N","N","N","Y","Y","T3E3C2"
"Glamorgan School","The Calgary School Division","Calgary","AB","Elementary/Junior High","N","N","Y","Y","Y","T3E4W3"
"Cranston School","The Calgary School Division","Calgary","AB","Elementary","N","N","Y","N","N","T3M1E8"
"Radisson Park School","The Calgary School Division","Calgary","AB","Elementary","N","N","Y","N","N","T2A0C8"
"St. Bonaventure School","The Calgary Roman Catholic Separate School Division","Calgary","AB","Junior High","N","N","N","Y","Y","T2J3X8"
"West Dalhousie School","The Calgary School Division","Calgary","AB","Elementary","N","N","Y","N","N","T3A2C8"
"St. Mark Elementary School","The Calgary Roman Catholic Separate School Division","Calgary","AB","Elementary","N","N","Y","N","N","T2A3V8"
"St. Basil Elementary/Junior High School","The Calgary Roman Catholic Separate School Division","Calgary","AB","Elementary/Junior High","N","N","Y","Y","Y","T3L2T5"
"Society for Treatment of Autism","Society For Treatment of Autism (Calgary Region)","Calgary","AB","ECS","N","N","N","N","N","T2J0E8"
"Samuel W. Shaw School","The Calgary School Division","Calgary","AB","Elementary/Junior High","N","N","Y","Y","Y","T2Y0K6"
"Edgemont School","The Calgary School Division","Calgary","AB","Elementary","N","N","Y","N","N","T3A4X1"
"Eugene Coste School","The Calgary School Division","Calgary","AB","Elementary","N","N","Y","N","N","T2V3K7"
"Kids at Play Preschool","Trail Kids Ltd.","Calgary","AB","ECS","N","N","N","N","N","T3M0S9"
"Lycee Louis Pasteur","Lycee Louis Pasteur Society","Calgary","AB","Elementary/Junior High/Senior High","N","N","Y","Y","Y","T2T6G2"
"Monsignor J. J. O'Brien","The Calgary Roman Catholic Separate School Division","Calgary","AB","Elementary/Junior High","N","N","Y","Y","Y","T2Y4J5"
"Ethel M. Johnson School","The Calgary School Division","Calgary","AB","Elementary","N","N","Y","N","N","T2W0W7"
"National Sport School","The Calgary School Division","Calgary","AB","Junior High/Senior High","N","N","N","Y","Y","T3B6B7"
"Juno Beach Academy of Canadian Studies","The Calgary School Division","Calgary","AB","Unknown","N","N","N","N","N","T2H1Z2"
"St. Bernadette School","The Calgary Roman Catholic Separate School Division","Calgary","AB","Elementary","N","N","Y","N","N","T2C0T8"
"G.W. Skene School","The Calgary School Division","Calgary","AB","Elementary","N","N","Y","N","N","T2A6M7"
"Rideau Park School","The Calgary School Division","Calgary","AB","Elementary/Junior High","N","N","Y","Y","Y","T2S0S2"
"Taradale School","The Calgary School Division","Calgary","AB","Elementary","N","N","Y","N","N",
"Midsun School","The Calgary School Division","Calgary","AB","Junior High","N","N","N","Y","Y","T2X3R5"
"Beddington Heights School","The Calgary School Division","Calgary","AB","Elementary","N","N","Y","N","N","T3K2J6"
"Pacekids Programs North","Pacekids Society for Kids with Special Needs","Calgary","AB","ECS","N","N","N","N","N","T2E6Y4"
"Killarney School","The Calgary School Division","Calgary","AB","Elementary","N","N","Y","N","N","T3E2T9"
"Young Adult Program","The Calgary School Division","Calgary","AB","Elementary/Junior High/Senior High","N","N","Y","Y","Y","T2N2T9"
"SAIT - Art Smith Aero Centre",,"Calgary","AB",,"Y","Y",,,,"T2E9B5"
"Guy Weadick School","The Calgary School Division","Calgary","AB","Elementary","N","N","Y","N","N","T1Y4W7"
"Lead Foundation","Lead Foundation","Calgary","AB","ECS","N","N","N","N","N","T2A4V1"
"Cedarbrae School","The Calgary School Division","Calgary","AB","Elementary","N","N","Y","N","N","T2W2T3"
"Bob Edwards School","The Calgary School Division","Calgary","AB","Elementary/Junior High","N","N","Y","Y","Y","T2A2Z5"
"Midpark Writing Centre","The East Central Alberta Catholic Separate School Division","Calgary","AB","Unknown","N","N","N","N","N","T2X2A8"
"Capitol Hill School","The Calgary School Division","Calgary","AB","Elementary","N","N","Y","N","N","T2M3T4"
"David Thompson School","The Calgary School Division","Calgary","AB","Elementary/Junior High","N","N","Y","Y","Y","T2J1K4"
"Filipino Language and Cultural School of Calgary","Philippine Cultural Center Foundation (Calgary)","Calgary","AB","Unknown","N","N","N","N","N","T3J3Z5"
"Annie Foote School","The Calgary School Division","Calgary","AB","Elementary","N","N","Y","N","N","T1Y5V5"
"St. Maria Goretti Elementary School","The Calgary Roman Catholic Separate School Division","Calgary","AB","Elementary","N","N","Y","N","N","T3G3T7"
"Holy Child School","The Calgary Roman Catholic Separate School Division","Calgary","AB","Elementary/Junior High","N","N","Y","Y","Y","T2X0K4"
"St. John Paul II School","The Calgary Roman Catholic Separate School Division","Calgary","AB","Elementary","N","N","Y","N","N","T3J1P6"
"Almadina Language Charter Academy, Ogden Campus","Almadina School Society","Calgary","AB","Elementary/Junior High","N","N","Y","Y","Y","T2C0G8"
"Discovering Choices","The Calgary School Division","Calgary","AB","Senior High","N","N","N","N","N","T2G0W2"
"Christ the King Catholic School","The Calgary Roman Catholic Separate School Division","Calgary","AB","Elementary/Junior High","N","N","Y","Y","Y","T3M1K6"
"St. Gerard Bilingual School","The Calgary Roman Catholic Separate School Division","Calgary","AB","Elementary","N","N","Y","N","N","T2V0Y1"
"St. John XXIII School","The Calgary Roman Catholic Separate School Division","Calgary","AB","Elementary/Junior High","N","N","Y","Y","Y","T3J2C3"
"Simons Valley School","The Calgary School Division","Calgary","AB","Elementary","N","N","Y","N","N","T3K4B2"
"St. Hubert Elementary School","The Calgary Roman Catholic Separate School Division","Calgary","AB","Elementary","N","N","Y","N","N","T2K5J3"
"Our Lady of Peace Elementary Junior High School","The Calgary Roman Catholic Separate School Division","Calgary","AB","Elementary/Junior High","N","N","Y","Y","Y","T2Y2B4"
"Cause & Effect Early Intervention Services","Cause and Effect Foundation","Calgary","AB","ECS","N","N","N","N","N","T2Z4C9"
"Webber Academy","Webber Academy Foundation","Calgary","AB","Elementary/Junior High/Senior High","N","N","Y","Y","Y","T3H4A8"
"Montessori School of Calgary","Montessori School of Calgary","Calgary","AB","Elementary","N","N","Y","N","N","T2S2G4"
"Centennial High School","The Calgary School Division","Calgary","AB","Senior High","N","N","N","N","N","T2X3W7"
"Woodman School","The Calgary School Division","Calgary","AB","Elementary/Junior High","N","N","Y","Y","Y","T2V1L2"
"FFCA High School Campus","Foundations for the Future Charter Academy Charter School Society","Calgary","AB","Junior High/Senior High","N","N","N","Y","Y","T3B1C7"
"Tyndale Christian School","The Canadian Reformed School Society of Calgary","Calgary","AB","Elementary/Junior High/Senior High","N","N","Y","Y","Y","T1X0L3"
"Banting and Best School","The Calgary School Division","Calgary","AB","Elementary","N","N","Y","N","N","T2C2K5"
"Douglas Harkness School","The Calgary School Division","Calgary","AB","Elementary","N","N","Y","N","N","T1Y2C5"
"St. Albert the Great","The Calgary Roman Catholic Separate School Division","Calgary","AB","Elementary/Junior High","N","N","Y","Y","Y","T2Z3X3"
"Banbury Crossroads School","Banbury Crossroads School","Calgary","AB","Elementary/Junior High/Senior High","N","N","Y","Y","Y","T3E7K1"
"Twelve Mile Coulee School","The Calgary School Division","Calgary","AB","Elementary/Junior High","N","N","Y","Y","Y","T3L0C7"
"Calgary Girls Charter School","Calgary Girls' School Society","Calgary","AB","Elementary/Junior High","N","N","Y","Y","Y","T3E5P7"
"Eastside Christian Academy","Eastside City Church and Missionary Society","Calgary","AB","Elementary/Junior High/Senior High","N","N","Y","Y","Y","T2A7L8"
"Colonel Sanders School","The Calgary School Division","Calgary","AB","Elementary","N","N","Y","N","N","T2K3G5"
"Cambrian Heights School","The Calgary School Division","Calgary","AB","Elementary","N","N","Y","N","N","T2K3J5"
"Auburn Bay School","The Calgary School Division","Calgary","AB","Elementary","N","N","Y","N","N","T3M0K6"
"River Valley School","River Valley School Society","Calgary","AB","Elementary","N","N","Y","N","N","T3B2E7"
"Andrew Sibbald School","The Calgary School Division","Calgary","AB","Elementary","N","N","Y","N","N","T2J2X9"
"Creekside Campus ECS","Marlborough Day Nursery ECS Limited","Calgary","AB","ECS","N","N","N","N","N","T3P0A3"
"St. Stephen School","The Calgary Roman Catholic Separate School Division","Calgary","AB","Elementary/Junior High","N","N","Y","Y","Y","T2W1G6"
"Haysboro School","The Calgary School Division","Calgary","AB","Elementary","N","N","Y","N","N","T2V0W2"
"Getting Ready For Inclusion To","G.R.I.T. (Getting Ready for Inclusion Today) Calgary Society","Calgary","AB","ECS","N","N","N","N","N","T2C5J3"
"Queen Elizabeth High School","The Calgary School Division","Calgary","AB","Junior High/Senior High","N","N","N","Y","Y","T2N2G5"
"Clarence Sansom School","The Calgary School Division","Calgary","AB","Junior High","N","N","N","Y","Y","T1Y6G4"
"Little Angels","Asasa Learning","Calgary","AB","Unknown","N","N","N","N","N","T2K3J6"
"West Ridge School","The Calgary School Division","Calgary","AB","Elementary/Junior High","N","N","Y","Y","Y","T3H5N9"
"Calgary Academy","Calgary Academy Society","Calgary","AB","Elementary/Junior High/Senior High","N","N","Y","Y","Y","T3H0R3"
"Don Bosco School","The Calgary Roman Catholic Separate School Division","Calgary","AB","Elementary/Junior High","N","N","Y","Y","Y","T2J6S7"
"Roland Michener School","The Calgary School Division","Calgary","AB","Elementary","N","N","Y","N","N","T2A4B1"
"Captain John Palliser School","The Calgary School Division","Calgary","AB","Elementary","N","N","Y","N","N","T2L0G6"
"Ecole de La Source","The Southern Francophone Education Region","Calgary","AB","Elementary/Junior High/Senior High","N","N","Y","Y","Y","T2J0E8"
