"tradename","address","licencetypes","comdistnm","jobstatusdesc","jobcreated","longitude","latitude"
"CAREWELL PHARMACY","#104 580 ACADIA DR SE","RETAIL DEALER - PREMISES","ACADIA","Renewal Licensed","2017-06-06T00:00:00.000","-114.04793605088301","50.964538384801145"
"AMATO GELATO CAFE","602 17 AV SW","OUTDOOR PATIO","BELTLINE","Licensed","2021-10-04T00:00:00.000","-114.07466905817277","51.037988989033636"
"DUCKTOES COMPUTER SERVICES","902 CENTRE ST NE","MANUFACTURER","CRESCENT HEIGHTS","Renewal Licensed","2011-01-04T00:00:00.000","-114.06219133887411","51.05993998616232"
"CDN CONTROLS","#1610 311 6 AV SW","CONTRACTOR (NO PROVINCIAL LICENCE REQUIRED)","DOWNTOWN COMMERCIAL CORE","Renewal Licensed","2018-06-04T00:00:00.000","-114.06844337880806","51.047322952717444"
"INS MARKET","#1121 3800 MEMORIAL DR NE","FOOD SERVICE - PREMISES","MARLBOROUGH","Renewal Licensed","2018-05-24T00:00:00.000","-113.97913796427554","51.054273591844314"
"CONCURE RESTORATION","1325 HASTINGS CR SE","CONTRACTOR","HIGHFIELD","Renewal Licensed","2016-09-07T00:00:00.000","-114.03394134021872","51.01306194995057"
"Q BODY SPA","#102 9705B HORTON RD SW","PERSONAL SERVICE","HAYSBORO","Renewal Licensed","2018-04-02T00:00:00.000","-114.07538169680258","50.96767698149373"
"CLINIC OF DISTINCTIVE THERAPIES","#306 638 11 AV SW","FOOD SERVICE - PREMISES","BELTLINE","Renewal Licensed","2003-03-13T00:00:00.000","-114.07605449144067","51.04301458363954"
"TELEBYTE COMMUNICATIONS","#90 999 57 AV NE","CONTRACTOR (NO PROVINCIAL LICENCE REQUIRED)","DEERFOOT BUSINESS CENTRE","Renewal Licensed","2018-05-18T00:00:00.000","-114.04156993123156","51.104334214920925"
"BOSTON PIZZA","#100 5255 RICHMOND RD SW","TOBACCO RETAILER","GLAMORGAN","Renewal Licensed","2008-07-28T00:00:00.000","-114.16244605895314","51.01727092162761"
"MEDIMAX PHARMACY","#240 520 3 AV SW","FOOD SERVICE - PREMISES","EAU CLAIRE","Renewal Licensed","2019-09-23T00:00:00.000","-114.07211311580654","51.05085990312888"
"RADIOWORLD CENTRAL","#8 711 48 AV SE","RETAIL DEALER - PREMISES","HIGHFIELD","Renewal Licensed","2014-03-07T00:00:00.000","-114.04709605319037","51.010059771657374"
"MCKENZIE TOWNE ANIMAL CLINIC","40 HIGH ST SE","RETAIL DEALER - PREMISES","MCKENZIE TOWNE","Renewal Licensed","2008-04-25T00:00:00.000","-113.96023264792719","50.91539244257684"
"LIQUOR BOSS","#1 5555 STRATHCONA HL SW","LIQUOR STORE","STRATHCONA PARK","Licensed","2022-06-26T00:00:00.000","-114.1684466496561","51.05158651394172"
"LEVILLA RESTAURANT","#404 1851 SIROCCO DR SW","FOOD SERVICE - PREMISES (SEATING)","SIGNAL HILL","Pending Renewal","2005-10-26T00:00:00.000","-114.16738707077927","51.03716316869655"
"INS MARKET","#1121 3800 MEMORIAL DR NE","TOBACCO RETAILER","MARLBOROUGH","Renewal Licensed","2018-05-24T00:00:00.000","-113.97913796427554","51.054273591844314"
"MOC DISTRIBUTORS OF CANADA","4544 14 ST NE","WHOLESALER","MCCALL","Licensed","2022-05-11T00:00:00.000","-114.02804622860491","51.09319398762824"
"QUALITY CHINESE MEDICAL CENTRE","#135 1518 CENTRE ST NE","MASSAGE CENTRE (COMMERCIAL)","CRESCENT HEIGHTS","Renewal Licensed","2006-06-26T00:00:00.000","-114.06168285619546","51.06532136801152"
"HE & SHE HAIRCUTTERS","#100 5858 SIGNAL HILL CE SW","PERSONAL SERVICE","SIGNAL HILL","Renewal Licensed","2016-05-25T00:00:00.000","-114.17435666597208","51.01954039808736"
"GLOBAL ANALYZER SYSTEMS","#5 1411 25 AV NE","MANUFACTURER","SOUTH AIRWAYS","Pending Renewal","2011-11-10T00:00:00.000","-114.02306668968771","51.07464123684037"
"DOT FOODS CANADA","#10 225 42 AV SE","FOOD SERVICE - PREMISES","MANCHESTER INDUSTRIAL","Renewal Licensed","2017-12-07T00:00:00.000","-114.05897618883935","51.015274791719"
"SILK ROAD DANCE","#100 10333 SOUTHPORT RD SW","SCHOOL (PROV. NOT REQUIRED)","SOUTHWOOD","Licensed","2022-03-09T00:00:00.000","-114.07282784777239","50.96266155088486"
"CAKEWORKS","#126 3132 26 ST NE","RETAIL DEALER - PREMISES","SUNRIDGE","Renewal Licensed","1997-05-13T00:00:00.000","-113.99734223189556","51.080375240810916"
"CLINIC OF DISTINCTIVE THERAPIES","#306 638 11 AV SW","PERSONAL SERVICE","BELTLINE","Renewal Licensed","2003-03-13T00:00:00.000","-114.07605449144067","51.04301458363954"
"MEGABOX","#920 999 36 ST NE","RETAIL DEALER - PREMISES","FRANKLIN","Renewal Licensed","2015-05-19T00:00:00.000","-113.98468493624357","51.06157247881525"
"MY DONAIR","#25 1200 37 ST SW","FOOD SERVICE - PREMISES (SEATING)","ROSSCARROCK","Licensed","2022-04-11T00:00:00.000","-114.1403658030017","51.04164348306546"
"Q BODY SPA","#102 9705B HORTON RD SW","MASSAGE CENTRE (COMMERCIAL)","HAYSBORO","Renewal Licensed","2018-04-02T00:00:00.000","-114.07538169680258","50.96767698149373"
"SPROG & SPROCKET","4003 23 ST NE","RETAIL DEALER - PREMISES (MAIL ORDER)","NORTH AIRWAYS","Renewal Licensed","2017-04-06T00:00:00.000","-114.00527265927907","51.08849112657367"
"AVENUE MUSIC","4020 16 ST SW","SCHOOL (PROV. NOT REQUIRED)","ALTADORE","Licensed","2022-03-24T00:00:00.000","-114.10016184960543","51.018554392413755"
"MARLBOROUGH VET CLINIC","#186 1440 52 ST NE","RETAIL DEALER - PREMISES","MARLBOROUGH PARK","Renewal Licensed","2008-04-25T00:00:00.000","-113.9557839064309","51.063521522306715"
"ALBERTA SIDING PROJECTS","3411B 10 ST SE","CONTRACTOR (NO PROVINCIAL LICENCE REQUIRED)","HIGHFIELD","Licensed","2022-04-20T00:00:00.000","-114.03870817859074","51.024335046794704"
"VINT HAUS (THE)","#36 12204 40 ST SE","RETAIL DEALER - PREMISES","EAST SHEPARD INDUSTRIAL","Renewal Licensed","2018-07-09T00:00:00.000","-113.97313712771998","50.94055442552655"
"CALGARY CO-OP CANNABIS HAMPTONS","#614 1000 HAMPTONS DR NW","CANNABIS STORE","HAMPTONS","Pending Renewal","2018-04-24T00:00:00.000","-114.13038335981743","51.14267638314904"
"COACH HILL VETERINARY HOSPITAL","6424 OLD BANFF COACH RD SW","RETAIL DEALER - PREMISES","PATTERSON","Renewal Licensed","1995-05-15T00:00:00.000","-114.17991471309614","51.06088156535256"
"EUROPEAN SPA","#103 1905 CENTRE ST NW","BODY RUB CENTRE (GRANDFATHERED MASSAGE CENTRE COMMERCIAL)","TUXEDO PARK","Pending Renewal","2004-07-21T00:00:00.000","-114.06290701387496","51.06916029716016"
"DUCKTOES COMPUTER SERVICES","902 CENTRE ST NE","RETAIL DEALER - PREMISES","CRESCENT HEIGHTS","Renewal Licensed","2011-01-04T00:00:00.000","-114.06219133887411","51.05993998616232"
"EDIBLE ARRANGEMENTS","35 HIGH ST SE","FOOD SERVICE - PREMISES (NO SEATING)","MCKENZIE TOWNE","Renewal Licensed","2018-07-04T00:00:00.000","-113.9607846795601","50.91578352057066"
"CUSTOM METAL CONTRACTING","#49 5342 72 AV SE","CONTRACTOR","GREAT PLAINS","Renewal Licensed","2006-04-13T00:00:00.000","-113.95620508419906","50.990463439182186"
"SPARKLE LAUNDRY MART","#132 5403 CROWCHILD TR NW","RETAIL DEALER - PREMISES","VARSITY","Renewal Licensed","2014-08-27T00:00:00.000","-114.16577486491884","51.103782837572794"
"SIRENA SALON & SPA","#133 8220 CENTRE ST NE","RETAIL DEALER - PREMISES","BEDDINGTON HEIGHTS","Renewal Licensed","2015-01-13T00:00:00.000","-114.06915589226682","51.12640564264216"
"TASTY BOX (CGY-784)","#104 4655 54 AV NE","FULL SERVICE FOOD VEHICLE","WESTWINDS","Renewal Licensed","2021-07-19T00:00:00.000","-113.96787045952247","51.10200651712385"
"OSP MICROCHECK","#6 820 28 ST NE","MANUFACTURER","FRANKLIN","Renewal Licensed","2018-07-18T00:00:00.000","-113.99183765596788","51.059680566807955"
"CLINIC OF DISTINCTIVE THERAPIES","#306 638 11 AV SW","MASSAGE CENTRE (COMMERCIAL)","BELTLINE","Renewal Licensed","2003-03-13T00:00:00.000","-114.07605449144067","51.04301458363954"
"CANADA RUG","#3 2220 32 AV NE","WHOLESALER","NORTH AIRWAYS","Renewal Licensed","2018-07-05T00:00:00.000","-114.00756072354532","51.08219178623009"
"INS MARKET","#1121 3800 MEMORIAL DR NE","RETAIL DEALER - PREMISES","MARLBOROUGH","Renewal Licensed","2018-05-24T00:00:00.000","-113.97913796427554","51.054273591844314"
"PHOENIX CONTACT","#160 110 QUARRY PARK BV SE","WHOLESALER","DOUGLASDALE/GLEN","Renewal Licensed","2012-11-13T00:00:00.000","-114.00659025112118","50.96389226975325"
"DEANE HOUSE","806 9 AV SE","ENTERTAINMENT ESTABLISHMENT","INGLEWOOD","Renewal Licensed","2016-09-08T00:00:00.000","-114.04202426579526","51.043780438781376"
"SUGAR HAIR SALON","#330 9737 MACLEOD TR SW","PERSONAL SERVICE","HAYSBORO","Renewal Licensed","2017-08-23T00:00:00.000","-114.0735243933808","50.96741648862948"
"SWEET DELIGHTS","#150 1623 CENTRE ST NW","FOOD SERVICE - PREMISES","CRESCENT HEIGHTS","Renewal Licensed","1997-05-30T00:00:00.000","-114.06336675695552","51.066722141567126"
"DAILY LIQUOR","7531 MACLEOD TR SW","LIQUOR STORE","KINGSLAND","Renewal Licensed","2001-09-11T00:00:00.000","-114.07240046306131","50.98609179365569"
"SUBWAY GLENMORE LANDING","#102A 1600 90 AV SW","FOOD SERVICE - PREMISES (SEATING)","BAYVIEW","Renewal Licensed","2013-04-04T00:00:00.000","-114.09886164919202","50.97407360155546"
"F45 SYMONS VALLEY","#110 74 SAGE HILL PZ NW","PERSONAL SERVICE (FITNESS CONDITIONING)","SAGE HILL","Renewal Licensed","2019-08-14T00:00:00.000","-114.14529877043171","51.16958734132022"
"MADE BY MARCUS","#121 1013 17 AV SW","FOOD SERVICE - PREMISES (SEATING)","MOUNT ROYAL LOWER","Renewal Licensed","2016-06-20T00:00:00.000","-114.0849841765183","51.03754780181498"
"MAC'S CONVENIENCE STORE #2063","838 68 ST NE","TOBACCO RETAILER","ABBEYDALE","Renewal Licensed","2018-03-23T00:00:00.000","-113.93438031773817","51.05915751726299"
"MUSTARD SEED SOCIETY (THE)","#1B 102 11 AV SE","FOOD SERVICE - PREMISES","BELTLINE","Renewal Licensed","2003-03-27T00:00:00.000","-114.0629814840712","51.042634434231275"
"OSP MICROCHECK","#6 820 28 ST NE","WHOLESALER","FRANKLIN","Renewal Licensed","2018-07-18T00:00:00.000","-113.99183765596788","51.059680566807955"
"QUALITY CHINESE MEDICAL CENTRE","#135 1518 CENTRE ST NE","PERSONAL SERVICE","CRESCENT HEIGHTS","Renewal Licensed","2006-06-26T00:00:00.000","-114.06168285619546","51.06532136801152"
"END OF THE ROLL CALGARY NORTH","1924 32 AV NE","CONTRACTOR (NO PROVINCIAL LICENCE REQUIRED)","NORTH AIRWAYS","Renewal Licensed","2003-05-02T00:00:00.000","-114.01248908292543","51.08188747665142"
"RESTYLE UNISEX SALON AND SPA","#1520 6004 COUNTRY HILLS BV NE","PERSONAL SERVICE","SKYVIEW RANCH","Licensed","2022-07-11T00:00:00.000","-113.9518613073004","51.15535855554479"
"ERDOS STUDIO SALON","#328 508 24 AV SW","PERSONAL SERVICE (INDEPENDENT CHAIR OPERATOR)","CLIFF BUNGALOW","Move in Progress","2017-06-07T00:00:00.000","-114.07174373811769","51.03198361000476"
"FERGUS & BIX RESTAURANT AND BEER MARKET","#2000 873 85 ST SW","FOOD SERVICE - PREMISES (SEATING)","WEST SPRINGS","Renewal Licensed","2008-06-25T00:00:00.000","-114.21204468661374","51.05990267277056"
"PETRO CANADA","#304 1625 210 AV SE","MOTOR VEHICLE REPAIR AND SERVICE (2-PROV N/R)","LEGACY","Licensed","2022-04-19T00:00:00.000","-114.02474853871742","50.86304898953262"
"QUALITY CHINESE MEDICAL CENTRE","#135 1518 CENTRE ST NE","RETAIL DEALER - PREMISES","CRESCENT HEIGHTS","Renewal Licensed","2006-06-26T00:00:00.000","-114.06168285619546","51.06532136801152"
"BETHLEHEM MASSAGE","3511 17 AV SE","MASSAGE CENTRE (COMMERCIAL)","SOUTHVIEW","Renewal Licensed","2016-11-17T00:00:00.000","-113.98365970558484","51.03750949631849"
"SWEET DELIGHTS","#150 1623 CENTRE ST NW","RETAIL DEALER - PREMISES","CRESCENT HEIGHTS","Renewal Licensed","1997-05-30T00:00:00.000","-114.06336675695552","51.066722141567126"
"PACLEASE EKW CALGARY","7777 66 ST SE","MOTOR VEHICLE DEALER - PREMISES","GREAT PLAINS","Renewal Licensed","2018-08-07T00:00:00.000","-113.93923282526501","50.983428373351096"
"Q BODY SPA","#102 9705B HORTON RD SW","RETAIL DEALER - PREMISES","HAYSBORO","Renewal Licensed","2018-04-02T00:00:00.000","-114.07538169680258","50.96767698149373"
"END OF THE ROLL CALGARY NORTH","1924 32 AV NE","RETAIL DEALER - PREMISES","NORTH AIRWAYS","Renewal Licensed","2003-05-02T00:00:00.000","-114.01248908292543","51.08188747665142"
"BRINDLEBERRY ACRES","#1110 47 LEGACY VW SE","PHOTOGRAPHER","LEGACY","Renewal Licensed","2019-08-30T00:00:00.000","-114.00960232792676","50.862350842200904"
"CHRISTINE KLASSEN GALLERY","#200 321 50 AV SE","RETAIL DEALER - PREMISES","MANCHESTER INDUSTRIAL","Renewal Licensed","2014-06-18T00:00:00.000","-114.05863567520096","51.0083354064606"
"CAREWELL PHARMACY","#104 580 ACADIA DR SE","FOOD SERVICE - PREMISES","ACADIA","Renewal Licensed","2017-06-06T00:00:00.000","-114.04793605088301","50.964538384801145"
"HOT WATER POOLS & SPAS","#8 603 77 AV SE","CLEANING SERVICE (COMMERCIAL & RESIDENTIAL)","FAIRVIEW INDUSTRIAL","Renewal Licensed","2017-08-21T00:00:00.000","-114.0511996542138","50.983911549659915"
"BOSTON PIZZA","#100 5255 RICHMOND RD SW","FOOD SERVICE - PREMISES (SEATING)","GLAMORGAN","Renewal Licensed","2008-07-28T00:00:00.000","-114.16244605895314","51.01727092162761"
"RUNWAY HAIR DESIGN COMPANY","2925 RICHMOND RD SW","PERSONAL SERVICE","RICHMOND","Renewal Licensed","2019-08-20T00:00:00.000","-114.12897523984776","51.025557646707085"
"OSTEOPATHIC WELLNESS CENTER","#212 2120 KENSINGTON RD NW","MASSAGE CENTRE (COMMERCIAL)","WEST HILLHURST","Renewal Licensed","2003-08-01T00:00:00.000","-114.10913972895702","51.052858197854015"
"RADIO BLOCK TATTOO","#100 1215 1 ST SW","PERSONAL SERVICE (TATTOO)","BELTLINE","Renewal Licensed","2018-06-23T00:00:00.000","-114.06610695854407","51.040770411875855"
"FERGUS & BIX RESTAURANT AND BEER MARKET","#2000 873 85 ST SW","OUTDOOR PATIO","WEST SPRINGS","Renewal Licensed","2008-06-25T00:00:00.000","-114.21204468661374","51.05990267277056"
"MAC'S CONVENIENCE STORE #2063","838 68 ST NE","RETAIL DEALER - PREMISES","ABBEYDALE","Renewal Licensed","2018-03-23T00:00:00.000","-113.93438031773817","51.05915751726299"
"STUDIO DAYNE","#205 8855 MACLEOD TR SW","PERSONAL SERVICE (INDEPENDENT CHAIR OPERATOR)","HAYSBORO","Licensed","2022-04-11T00:00:00.000","-114.07288271615975","50.97463743825049"
"APEX LIMITED PARTNERSHIP","#300 1710 14 AV NW","CONTRACTOR","HOUNSFIELD HEIGHTS/BRIAR HILL","Renewal Licensed","2003-10-01T00:00:00.000","-114.10052923194014","51.06544480429998"
"KP TECHNOLOGIES","#2 3521 78 AV SE","ALARM AGENCY","FOOTHILLS","Licensed","2022-02-02T00:00:00.000","-113.9846226172844","50.98192138518755"
"INDIAN DESI TADKA","#307 7 WESTWINDS CR NE","FOOD SERVICE - PREMISES (SEATING)","WESTWINDS","Licensed","2022-04-25T00:00:00.000","-113.97017116904425","51.106511314493616"
"KOODO","#340K 751 3 ST SW","RETAIL DEALER - PREMISES","DOWNTOWN COMMERCIAL CORE","Renewal Licensed","2019-05-22T00:00:00.000","-114.07073134261232","51.04619216564327"
"FIFTH AVENUE PHYSIOTHERAPY*","#250 400 4 AV SW","MASSAGE CENTRE (COMMERCIAL)","DOWNTOWN COMMERCIAL CORE","Pending Renewal","2004-06-15T00:00:00.000","-114.07083813279402","51.05004642041015"
"INDIAN DESI TADKA","#307 7 WESTWINDS CR NE","ALCOHOL BEVERAGE SALES (RESTAURANT)","WESTWINDS","Licensed","2022-04-25T00:00:00.000","-113.97017116904425","51.106511314493616"
"SIRENA SALON & SPA","#133 8220 CENTRE ST NE","PERSONAL SERVICE","BEDDINGTON HEIGHTS","Renewal Licensed","2015-01-13T00:00:00.000","-114.06915589226682","51.12640564264216"
"33 ACRES BREWING CALGARY","#120 224 12 AV SW","ALCOHOL BEVERAGE MANUFACTURER","BELTLINE","Licensed","2022-04-06T00:00:00.000","-114.06739554032833","51.042186692586014"
"TAS ESTHETICS","#300 1918 KENSINGTON RD NW","PERSONAL SERVICE (INDEPENDENT CHAIR OPERATOR)","WEST HILLHURST","Licensed","2022-07-28T00:00:00.000","-114.10444245579468","51.052757911976784"
"CANA ENERGY SERVICES","#100 5720 4 ST SE","CONTRACTOR (NO PROVINCIAL LICENCE REQUIRED)","MANCHESTER INDUSTRIAL","Licensed","2022-04-11T00:00:00.000","-114.05274154801043","51.00287574681926"
"CAKEWORKS","#126 3132 26 ST NE","FOOD SERVICE - PREMISES","SUNRIDGE","Renewal Licensed","1997-05-13T00:00:00.000","-113.99734223189556","51.080375240810916"
"33 ACRES BREWING CALGARY","#120 224 12 AV SW","ALCOHOL BEVERAGE SALES (RESTAURANT)","BELTLINE","Licensed","2022-04-06T00:00:00.000","-114.06739554032833","51.042186692586014"
"LESS STRESS FOR BODY, MIND & SOUL","#220 19 ROYAL VISTA LI NW","MASSAGE CENTRE (COMMERCIAL)","ROYAL VISTA","Renewal Licensed","2019-06-25T00:00:00.000","-114.20491322618157","51.15101734436053"
"SURE-FIT MECHANICAL","#143 3953 112 AV SE","CONTRACTOR (NO PROVINCIAL LICENCE REQUIRED)","EAST SHEPARD INDUSTRIAL","Renewal Licensed","2019-07-18T00:00:00.000","-113.98031332458466","50.951493112676616"
"RESTYLE UNISEX SALON AND SPA","#1520 6004 COUNTRY HILLS BV NE","MASSAGE CENTRE (COMMERCIAL)","SKYVIEW RANCH","Licensed","2022-07-11T00:00:00.000","-113.9518613073004","51.15535855554479"
"EDIBLE ARRANGEMENTS","35 HIGH ST SE","RETAIL DEALER - PREMISES","MCKENZIE TOWNE","Renewal Licensed","2018-07-04T00:00:00.000","-113.9607846795601","50.91578352057066"
"CHONG FAT RESTAURANT","#28 132 3 AV SE","ALCOHOL BEVERAGE SALES (DRINKING ESTABLISHMENT)","CHINATOWN","Renewal Licensed","1996-06-25T00:00:00.000","-114.06083271433397","51.05060133722302"
"COUNTRY LIVING FURNISHINGS","#A 3919 RICHMOND RD SW","RETAIL DEALER - PREMISES","GLAMORGAN","Renewal Licensed","2018-07-11T00:00:00.000","-114.14329142495761","51.02063188874048"
"DAILY KING CONVENIENCE STORE","840 5 AV SW","FOOD SERVICE - PREMISES","DOWNTOWN COMMERCIAL CORE","Renewal Licensed","2007-05-22T00:00:00.000","-114.0805077624049","51.049167221616536"
"MEDICINE SHOPPE PHARMACY","#3105 230 EVERSYDE BV SW","RETAIL DEALER - PREMISES","EVERGREEN","Renewal Licensed","2011-05-20T00:00:00.000","-114.11007503133288","50.908706865114176"
"RUNWAY HAIR DESIGN COMPANY","2925 RICHMOND RD SW","RETAIL DEALER - PREMISES","RICHMOND","Renewal Licensed","2019-08-20T00:00:00.000","-114.12897523984776","51.025557646707085"
"MONDIAL GRANITE AND MARBLE","#12 11133 40 ST SE","WHOLESALER","EAST SHEPARD INDUSTRIAL","Renewal Licensed","2008-06-19T00:00:00.000","-113.97798666256426","50.95490236806441"
"INDEPENDENT ARTISTS*","736 10 AV SW","EXOTIC ENTERTAINMENT AGENCY","BELTLINE","Renewal Licensed","2019-09-23T00:00:00.000","-114.07847172870613","51.044057152603436"
"OGDEN WHISTLE PUB (THE)","7025 OGDEN RD SE","ALCOHOL BEVERAGE SALES (DRINKING EST/RESTAURANT)","OGDEN","Pending Renewal","2011-09-30T00:00:00.000","-114.0006424850347","50.98911306854421"
"HOT WATER POOLS & SPAS","#8 603 77 AV SE","CONTRACTOR (NO PROVINCIAL LICENCE REQUIRED)","FAIRVIEW INDUSTRIAL","Renewal Licensed","2017-08-21T00:00:00.000","-114.0511996542138","50.983911549659915"
"BILL'S PEKING HOUSE","#335 16061 MACLEOD TR SE","ALCOHOL BEVERAGE SALES (RESTAURANT)","SHAWNESSY","Licensed","2022-04-21T00:00:00.000","-114.06482938180793","50.90707599552851"
"LA PREP","511 10 AV SW","FOOD SERVICE - PREMISES (SEATING)","BELTLINE","Renewal Licensed","2015-05-12T00:00:00.000","-114.07222161228495","51.04341416351365"
"A TOUCH OF WOOD CONSTRUCTION","#1 1255 45 AV NE","CONTRACTOR","MCCALL","Renewal Licensed","2014-08-19T00:00:00.000","-114.0339525464758","51.09312148430423"
"BOSTON PIZZA","#100 5255 RICHMOND RD SW","OUTDOOR PATIO","GLAMORGAN","Renewal Licensed","2008-07-28T00:00:00.000","-114.16244605895314","51.01727092162761"
"QUEEN PEOPLES PHARMACY","#32 4604 37 ST SW","RETAIL DEALER - PREMISES","RUTLAND PARK","Pending Renewal","2020-06-08T00:00:00.000","-114.13993430532918","51.013032956985114"
"BURGER KING #10889","11 CROWFOOT TC NW","FOOD SERVICE - PREMISES (SEATING)","ARBOUR LAKE","Renewal Licensed","2008-06-17T00:00:00.000","-114.19863379607658","51.12654980349782"
"DATACO UTILITIES","#1 5918 5 ST SE","CONTRACTOR (NO PROVINCIAL LICENCE REQUIRED)","MANCHESTER INDUSTRIAL","Renewal Licensed","2016-03-30T00:00:00.000","-114.05070638607077","50.99990199457383"
"CALGARY GOLDMART","1506A 14 ST SW","SECONDHAND DEALER","BELTLINE","Renewal Licensed","2012-04-25T00:00:00.000","-114.09429797377389","51.03913963721831"
"LA POSH BEAUTY SUPPLY","#100 222 58 AV SW","PERSONAL SERVICE","MANCHESTER","Licensed","2022-01-07T00:00:00.000","-114.06760303224794","51.001657661713516"
"MODULEX CANADA","#112 2719 7 AV NE","CONTRACTOR (NO PROVINCIAL LICENCE REQUIRED)","MERIDIAN","Licensed","2022-04-20T00:00:00.000","-113.99515464841903","51.05830375238263"
"PHO HOANG VIETNAMESE RESTAURANT","1113 FALCONRIDGE DR NE","FOOD SERVICE - PREMISES (SEATING)","FALCONRIDGE","Renewal Licensed","2014-06-03T00:00:00.000","-113.95569239318202","51.09831394935962"
"K TOWN FRIED CHICKEN","919B CENTRE ST NW","ALCOHOL BEVERAGE SALES (RESTAURANT)","CRESCENT HEIGHTS","Renewal Licensed","2019-06-19T00:00:00.000","-114.0630493265265","51.0603294731979"
"FOREST LAWN PHARMACY","#105 4909 17 AV SE","RETAIL DEALER - PREMISES","FOREST LAWN INDUSTRIAL","Renewal Licensed","2014-05-16T00:00:00.000","-113.96348770005719","51.03653675760129"
"FUEL FOR GOLD","#298D 402 COLLEGIATE BV NW","CHARITABLE ORGANIZATION","UNIVERSITY HEIGHTS","Renewal Licensed","2011-07-06T00:00:00.000","-114.13171442136425","51.07820916619586"
"MIDRISE SHELL","3 MILLRISE BV SW","FUEL SALES/STORAGE","MILLRISE","Renewal Licensed","2019-06-13T00:00:00.000","-114.07590062818737","50.92045401857851"
"HIGH END WHOLESALE VEHICLES","#8 8305 BOWNESS RD NW","MOTOR VEHICLE DEALER - PREMISES","BOWNESS","Renewal Licensed","2011-08-15T00:00:00.000","-114.20614584592947","51.08898905834593"
"HIDDEN CORNER","#B 100 3 AV SE","FOOD SERVICE - PREMISES (SEATING)","CHINATOWN","Licensed","2022-04-18T00:00:00.000","-114.06242023651868","51.050452439439496"
"BREWER'S APPRENTICE (THE)","448 8 AV SE","ALCOHOL BEVERAGE SALES (DRINKING EST/RESTAURANT)","DOWNTOWN EAST VILLAGE","Renewal Licensed","2017-05-18T00:00:00.000","-114.05366419725722","51.045561035134725"
"SUNRISE RESTAURANT","#O 4710 17 AV SE","ALCOHOL BEVERAGE SALES (RESTAURANT)","FOREST LAWN","Renewal Licensed","1997-06-20T00:00:00.000","-113.9661083797894","51.03886811117853"
"MANDEEZ XCLUSIF","#1247 3800 MEMORIAL DR NE","RETAIL DEALER - PREMISES","MARLBOROUGH","Renewal Licensed","2006-06-28T00:00:00.000","-113.97885746700611","51.05569284700412"
"WORKSHOP STUDIOS","#3 2501 ALYTH RD SE","MANUFACTURER","ALYTH/BONNYBROOK","Renewal Licensed","2018-06-07T00:00:00.000","-114.02472530281712","51.031335922124576"
"PACLEASE EKW CALGARY","7777 66 ST SE","MOTOR VEHICLE REPAIR AND SERVICE (1)","GREAT PLAINS","Renewal Licensed","2018-08-07T00:00:00.000","-113.93923282526501","50.983428373351096"
"BIG T'S BBQ & SMOKEHOUSE","2138 CROWCHILD TR NW","ALCOHOL BEVERAGE SALES (RESTAURANT)","BANFF TRAIL","Renewal Licensed","2008-05-13T00:00:00.000","-114.11680095064297","51.07034700008022"
"DEANE HOUSE","806 9 AV SE","FOOD SERVICE - PREMISES (SEATING)","INGLEWOOD","Renewal Licensed","2016-09-08T00:00:00.000","-114.04202426579526","51.043780438781376"
"MIDRISE SHELL","3 MILLRISE BV SW","RETAIL DEALER - PREMISES","MILLRISE","Renewal Licensed","2019-06-13T00:00:00.000","-114.07590062818737","50.92045401857851"
"ISO BLANKET","#43 4511 GLENMORE TR SE","MANUFACTURER","SOUTH FOOTHILLS","Renewal Licensed","2014-07-16T00:00:00.000","-113.96866359412506","50.978802318369425"
"BILL'S PEKING HOUSE","#335 16061 MACLEOD TR SE","FOOD SERVICE - PREMISES (SEATING)","SHAWNESSY","Licensed","2022-04-21T00:00:00.000","-114.06482938180793","50.90707599552851"
"BIG T'S BBQ & SMOKEHOUSE","2138 CROWCHILD TR NW","OUTDOOR PATIO","BANFF TRAIL","Renewal Licensed","2008-05-13T00:00:00.000","-114.11680095064297","51.07034700008022"
"EL FURNITURE WAREHOUSE","107 8 AV SW","ALCOHOL BEVERAGE SALES (RESTAURANT)","DOWNTOWN COMMERCIAL CORE","Renewal Licensed","2018-02-08T00:00:00.000","-114.06351612418689","51.04528671016977"
"ALTADIGITAL COMPUTER SERVICES","#5 3916 64 AV SE","ALARM AGENCY","FOOTHILLS","Renewal Licensed","2016-05-09T00:00:00.000","-113.97747991364983","50.99701768320162"
"BRITCAN DART SUPPLIES","#101 1803 60 ST SE","RETAIL DEALER - PREMISES","FOREST LAWN INDUSTRIAL","Renewal Licensed","2017-07-04T00:00:00.000","-113.94806366529745","51.03756459807127"
"HULA POKE","#215 520 3 AV SW","FOOD SERVICE - PREMISES (NO SEATING)","EAU CLAIRE","Renewal Licensed","2019-08-22T00:00:00.000","-114.07211311580654","51.05085990312888"
"HOT WATER POOLS & SPAS","#8 603 77 AV SE","RETAIL DEALER - PREMISES","FAIRVIEW INDUSTRIAL","Renewal Licensed","2017-08-21T00:00:00.000","-114.0511996542138","50.983911549659915"
"AZZURRI PIZZERIA","#B 2404 EDMONTON TR NE","OUTDOOR PATIO","WINSTON HEIGHTS/MOUNTVIEW","Renewal Licensed","2015-05-12T00:00:00.000","-114.05589791200288","51.07358241862371"
"5 SENSES RAMEN & SUSHI BAR","634A 17 AV SW","OUTDOOR PATIO","BELTLINE","Renewal Licensed","2015-05-08T00:00:00.000","-114.07651641536287","51.038017370438155"
"C CAN STORE","#16 11010 46 ST SE","DISTRIBUTION MANAGER","EAST SHEPARD INDUSTRIAL","Renewal Licensed","2016-08-26T00:00:00.000","-113.96818948667804","50.955770078557634"
"GOGO MEDITERRANEAN","#1125 3800 MEMORIAL DR NE","FOOD SERVICE - PREMISES","MARLBOROUGH","Renewal Licensed","2019-08-29T00:00:00.000","-113.97918388852615","51.054378860643695"
"OPTIMUM WELLNESS CENTRE","#124 13226 MACLEOD TR SE","MASSAGE CENTRE (COMMERCIAL)","LAKE BONAVISTA","Licensed","2021-11-25T00:00:00.000","-114.06659477898246","50.93248114883278"
"FUEL FOR GOLD","#298D 402 COLLEGIATE BV NW","FOOD SERVICE - PREMISES (NO SEATING)","UNIVERSITY HEIGHTS","Renewal Licensed","2011-07-06T00:00:00.000","-114.13171442136425","51.07820916619586"
"BOSTON PIZZA","#100 5255 RICHMOND RD SW","ENTERTAINMENT ESTABLISHMENT","GLAMORGAN","Renewal Licensed","2008-07-28T00:00:00.000","-114.16244605895314","51.01727092162761"
"DENIM & SMITH BARBERSHOPS","#224 16061 MACLEOD TR SE","PERSONAL SERVICE","SHAWNESSY","Renewal Licensed","2019-08-27T00:00:00.000","-114.06617136007263","50.90724999827534"
"LAYALI CAFE","#101 617 11 AV SW","OUTDOOR PATIO","BELTLINE","Licensed","2022-05-09T00:00:00.000","-114.07519164203056","51.04252179411193"
"WESTERN PROPELLER","#Q 1003 55 AV NE","MANUFACTURER","SKYLINE EAST","Renewal Licensed","2007-04-20T00:00:00.000","-114.04027628537679","51.101129158449645"
"CALGARY CO-OP","200 BARLOW SQ SE","FOOD SERVICE - PREMISES","SOUTH FOOTHILLS","Renewal Licensed","2019-05-30T00:00:00.000","-113.9804476105878","50.972777242355164"
"TAIL BLAZERS - LEGACY","#1110 47 LEGACY VW SE","RETAIL DEALER - PREMISES","LEGACY","Renewal Licensed","2019-08-20T00:00:00.000","-114.00960232792676","50.862350842200904"
"SEGO INDUSTRIES","4960 110 AV SE","WHOLESALER","EAST SHEPARD INDUSTRIAL","Renewal Licensed","2019-05-01T00:00:00.000","-113.9633917056137","50.95441986889926"
"SOUTH BLOCK BARBECUE AND BREWING","2437 4 ST SW","FOOD SERVICE - PREMISES (SEATING)","CLIFF BUNGALOW","Renewal Licensed","2021-05-26T00:00:00.000","-114.07174406308629","51.03074435407313"
"DEANE HOUSE","806 9 AV SE","OUTDOOR PATIO","INGLEWOOD","Renewal Licensed","2016-09-08T00:00:00.000","-114.04202426579526","51.043780438781376"
"K TOWN FRIED CHICKEN","919B CENTRE ST NW","FOOD SERVICE - PREMISES (SEATING)","CRESCENT HEIGHTS","Renewal Licensed","2019-06-19T00:00:00.000","-114.0630493265265","51.0603294731979"
"TRUCKCESSORIES","4135 EDMONTON TR NE","MOTOR VEHICLE REPAIR AND SERVICE (1)","GREENVIEW INDUSTRIAL PARK","Renewal Licensed","2016-05-03T00:00:00.000","-114.0528951700265","51.0893410385948"
"SUNGLASS HUT #8953","#Y2 3625 SHAGANAPPI TR NW","RETAIL DEALER - PREMISES","VARSITY","Renewal Licensed","2017-08-30T00:00:00.000","-114.15630765365368","51.08641008517392"
"DOUBLE T TECHNICAL SERVICES","#1 1222 40 AV NE","CONTRACTOR","MCCALL","Renewal Licensed","2013-05-22T00:00:00.000","-114.03294907267991","51.08893489036814"
"CANDOO CARPENTRY","#11 6204 29 ST SE","MANUFACTURER","FOOTHILLS","Renewal Licensed","2015-11-18T00:00:00.000","-113.98818902441577","50.997819619021065"
"HIGH LINE BREWING","#113 1318 9 AV SE","OUTDOOR PATIO","INGLEWOOD","Renewal Licensed","2016-09-13T00:00:00.000","-114.03281667110504","51.04112225381788"
"MICHAELS #3903","#130 350 SHAWVILLE BV SE","RETAIL DEALER - PREMISES","SHAWNESSY","Renewal Licensed","1999-01-07T00:00:00.000","-114.06231151358332","50.89868714154635"
"STARDIP.COM","4801 WESTWINDS DR NE","MANUFACTURER","WESTWINDS","Renewal Licensed","2013-02-01T00:00:00.000","-113.96535420591974","51.09973212824557"
"CALGARY AESTHETIC CLINIC","#100 6005 11 ST SE","PERSONAL SERVICE","BURNS INDUSTRIAL","Licensed","2022-03-31T00:00:00.000","-114.03788040421199","50.99934305234791"
"SYNNEX CANADA","5280 72 AV SE","WHOLESALER","FOOTHILLS","Renewal Licensed","2006-07-07T00:00:00.000","-113.96077446003191","50.99047659661934"
"RUN LOUNGE (THE)","144 2 ST SW","RETAIL DEALER - PREMISES","CHINATOWN","Licensed","2022-02-22T00:00:00.000","-114.06671480441585","51.05252202764359"
"BROWNS SHOES","#167 6455 MACLEOD TR SW","RETAIL DEALER - PREMISES","MEADOWLARK PARK","Renewal Licensed","2020-08-31T00:00:00.000","-114.0740500409654","50.99868242583217"
"BOSTON PIZZA","#100 5255 RICHMOND RD SW","ALCOHOL BEVERAGE SALES (DRINKING EST/RESTAURANT)","GLAMORGAN","Renewal Licensed","2008-07-28T00:00:00.000","-114.16244605895314","51.01727092162761"
"PHO UNCLE TEN","#628 999 36 ST NE","FOOD SERVICE - PREMISES (SEATING)","FRANKLIN","Renewal Licensed","2018-05-15T00:00:00.000","-113.98468493624357","51.06157247881525"
"CINNZEO SOUTHCENTRE MALL","#227 100 ANDERSON RD SE","FOOD SERVICE - PREMISES (NO SEATING)","WILLOW PARK","Renewal Licensed","2021-05-03T00:00:00.000","-114.06524140995941","50.952971656814746"
"ACE MATS","#125 1803 60 ST SE","FABRIC CLEANING","FOREST LAWN INDUSTRIAL","Renewal Licensed","2013-11-06T00:00:00.000","-113.94792552452861","51.03717482215786"
"CALGARY CO-OP","200 BARLOW SQ SE","TOBACCO RETAILER","SOUTH FOOTHILLS","Renewal Licensed","2019-05-30T00:00:00.000","-113.9804476105878","50.972777242355164"
"SMITTY'S RESTAURANT AND LOUNGE","9640 MACLEOD TR SE","ALCOHOL BEVERAGE SALES (DRINKING EST/RESTAURANT)","ACADIA","Renewal Licensed","2020-02-19T00:00:00.000","-114.06991947434851","50.966754711389804"
"LITTLE CAESARS","#5 728 NORTHMOUNT DR NW","FOOD SERVICE - PREMISES (NO SEATING)","ROSEMONT","Renewal Licensed","2020-03-04T00:00:00.000","-114.09243501481811","51.082294002533935"
"EL FURNITURE WAREHOUSE","107 8 AV SW","TOBACCO RETAILER","DOWNTOWN COMMERCIAL CORE","Renewal Licensed","2018-02-08T00:00:00.000","-114.06351612418689","51.04528671016977"
"ALLSOLD.CA","514 42 AV SE","RETAIL DEALER - PREMISES (MAIL ORDER)","MANCHESTER INDUSTRIAL","Renewal Licensed","2011-08-22T00:00:00.000","-114.0517373179613","51.016155812168634"
"UNDERLAND TATTOO","#316 4620 BOW TR SW","PERSONAL SERVICE (TATTOO)","WILDWOOD","Licensed","2022-05-02T00:00:00.000","-114.15320697242866","51.04916784063259"
"THE VARSITY CLINIC","#102 4616 VALIANT DR NW","PERSONAL SERVICE (FITNESS CONDITIONING)","VARSITY","Pending Renewal","2000-09-18T00:00:00.000","-114.15340927756398","51.091438359402595"
"HIDDEN CORNER","#B 100 3 AV SE","RETAIL DEALER - PREMISES","CHINATOWN","Licensed","2022-04-18T00:00:00.000","-114.06242023651868","51.050452439439496"
"HUNTER LOGISTICS","#C 2624 54 AV SE","WHOLESALER","FOOTHILLS","Move in Progress","2019-02-05T00:00:00.000","-113.99543997491585","51.00583694246618"
"SOUTH BLOCK BARBECUE AND BREWING","2437 4 ST SW","RETAIL DEALER - PREMISES","CLIFF BUNGALOW","Renewal Licensed","2021-05-26T00:00:00.000","-114.07174406308629","51.03074435407313"
"GENEIUS RX","#407 1640 16 AV NW","RETAIL DEALER - PREMISES","CAPITOL HILL","Renewal Licensed","2019-04-25T00:00:00.000","-114.09931990850703","51.067200106554964"
"SUNRISE RESTAURANT","#O 4710 17 AV SE","FOOD SERVICE - PREMISES (SEATING)","FOREST LAWN","Renewal Licensed","1997-06-20T00:00:00.000","-113.9661083797894","51.03886811117853"
"EL FURNITURE WAREHOUSE","107 8 AV SW","OUTDOOR PATIO","DOWNTOWN COMMERCIAL CORE","Renewal Licensed","2018-02-08T00:00:00.000","-114.06351612418689","51.04528671016977"
"BREWER'S APPRENTICE (THE)","448 8 AV SE","OUTDOOR PATIO","DOWNTOWN EAST VILLAGE","Renewal Licensed","2017-05-18T00:00:00.000","-114.05366419725722","51.045561035134725"
"DOLLAR TREE","#112 10440 MACLEOD TR SE","RETAIL DEALER - PREMISES","WILLOW PARK","Pending Renewal","2010-10-28T00:00:00.000","-114.07062003217332","50.95924953608792"
"STARDIP.COM","4801 WESTWINDS DR NE","WHOLESALER","WESTWINDS","Renewal Licensed","2013-02-01T00:00:00.000","-113.96535420591974","51.09973212824557"
"TRUEDAN","#18 1015 CENTRE ST NW","FOOD SERVICE - PREMISES (NO SEATING)","CRESCENT HEIGHTS","Pending Renewal","2020-10-22T00:00:00.000","-114.0629898877902","51.06126900178485"
"EUROPEAN THERAPEUTIC MASSAGE","#400 7015 MACLEOD TR SW","MASSAGE CENTRE (COMMERCIAL)","KINGSLAND","Renewal Licensed","2017-07-31T00:00:00.000","-114.0728879914226","50.99087703323313"
"EUROPEAN THERAPEUTIC MASSAGE","#400 7015 MACLEOD TR SW","PERSONAL SERVICE","KINGSLAND","Renewal Licensed","2017-07-31T00:00:00.000","-114.0728879914226","50.99087703323313"
"MAC'S CONVENIENCE STORE #2063","838 68 ST NE","FOOD SERVICE - PREMISES","ABBEYDALE","Renewal Licensed","2018-03-23T00:00:00.000","-113.93438031773817","51.05915751726299"
"GONG CHA - HARVEST HILLS","#222 40 COUNTRY HILLS LD NW","FOOD SERVICE - PREMISES (SEATING)","COUNTRY HILLS","Renewal Licensed","2019-06-20T00:00:00.000","-114.07021790921515","51.142467448730834"
"LA POSH BEAUTY SUPPLY","#100 222 58 AV SW","RETAIL DEALER - PREMISES","MANCHESTER","Licensed","2022-01-07T00:00:00.000","-114.06760303224794","51.001657661713516"
"CHONG FAT RESTAURANT","#28 132 3 AV SE","FOOD SERVICE - PREMISES (SEATING)","CHINATOWN","Renewal Licensed","1996-06-25T00:00:00.000","-114.06083271433397","51.05060133722302"
"BURGER KING #12847","#100 85 SHAWVILLE BV SE","FOOD SERVICE - PREMISES (SEATING)","SHAWNESSY","Renewal Licensed","2008-06-17T00:00:00.000","-114.06764296315602","50.90420426810216"
"KILLEN INK BEAUTY","1331 16 AV SW","PERSONAL SERVICE (TATTOO)","BELTLINE","Renewal Licensed","2021-03-10T00:00:00.000","-114.09350247467754","51.03800187795916"
"GRATITUDE BEAUTY","#202 310 16 AV NW","PERSONAL SERVICE (TATTOO)","MOUNT PLEASANT","Renewal Licensed","2018-06-21T00:00:00.000","-114.06816498340737","51.067221022451726"
"MY SEWING ROOM","#148 8228 MACLEOD TR SE","RETAIL DEALER - PREMISES","FAIRVIEW","Pending Renewal","2006-10-30T00:00:00.000","-114.06995125809419","50.98041808732628"
"SABA HAIR EXTENSIONS","#316 751 3 ST SW","PERSONAL SERVICE","DOWNTOWN COMMERCIAL CORE","Pending Renewal","2021-08-11T00:00:00.000","-114.0709358110056","51.04623431144919"
"SPARKLE LAUNDRY MART","#132 5403 CROWCHILD TR NW","FABRIC CLEANING","VARSITY","Renewal Licensed","2014-08-27T00:00:00.000","-114.16577486491884","51.103782837572794"
"CAFFE ROSSO","425 11 AV SE","OUTDOOR PATIO","BELTLINE","Renewal Licensed","2012-05-28T00:00:00.000","-114.0541220083459","51.04195777405637"
"TUK TUK THAI","#19 275 SHAWVILLE BV SE","FOOD SERVICE - PREMISES (SEATING)","SHAWNESSY","Licensed","2022-06-29T00:00:00.000","-114.06792304267013","50.901521197600644"
"CALGARY CO-OP","200 BARLOW SQ SE","RETAIL DEALER - PREMISES","SOUTH FOOTHILLS","Renewal Licensed","2019-05-30T00:00:00.000","-113.9804476105878","50.972777242355164"
"PETSMART #1200","11694 SARCEE TR NW","KENNEL SERVICE/PET DEALER","SHERWOOD","Renewal Licensed","2006-07-13T00:00:00.000","-114.15655025427837","51.15713152246842"
"GREAT TASTE CHINESE RESTAURANT","#101 123 2 AV SE","FOOD SERVICE - PREMISES (SEATING)","CHINATOWN","Renewal Licensed","2011-06-06T00:00:00.000","-114.06127548249147","51.0509511927965"
"CANADIAN EXPRESS MONEY TRANSFER","#135B 5120 47 ST NE","RETAIL DEALER - PREMISES (MAIL ORDER)","WESTWINDS","Renewal Licensed","2018-06-25T00:00:00.000","-113.96495800144129","51.09909356531914"
"MODULEX ALBERTA","#112 2719 7 AV NE","CONTRACTOR (NO PROVINCIAL LICENCE REQUIRED)","MERIDIAN","Licensed","2022-04-20T00:00:00.000","-113.99515464841903","51.05830375238263"
"FOOTHILLS LOCKSMITHS","#127 11769 40 ST SE","RETAIL DEALER - PREMISES","EAST SHEPARD INDUSTRIAL","Renewal Licensed","2005-12-05T00:00:00.000","-113.97739888310636","50.945441414490595"
"FUNKY PETALS","#412 19489 SETON CR SE","RETAIL DEALER - PREMISES","SETON","Renewal Licensed","2017-06-28T00:00:00.000","-113.95719097144726","50.880573231361176"
"MOC DISTRIBUTORS OF CANADA","4544 14 ST NE","WAREHOUSING","MCCALL","Licensed","2022-05-11T00:00:00.000","-114.02804622860491","51.09319398762824"
"DEANE HOUSE","806 9 AV SE","ALCOHOL BEVERAGE SALES (RESTAURANT)","INGLEWOOD","Renewal Licensed","2016-09-08T00:00:00.000","-114.04202426579526","51.043780438781376"
"HARU SUSHI & GRILL","#150 35 MCKENZIE TOWNE AV SE","FOOD SERVICE - PREMISES (SEATING)","MCKENZIE TOWNE","Renewal Licensed","2011-04-21T00:00:00.000","-113.95923570981142","50.9157493677332"
"SAVINGS EXPRESS","#140 75 CORNER MEADOWS PA NE","FOOD SERVICE - PREMISES","CORNERSTONE","Renewal Licensed","2021-05-11T00:00:00.000","-113.93417709218573","51.150914794905006"
"GIA BEAUTY LAB","#115 9950 MACLEOD TR SE","PERSONAL SERVICE","WILLOW PARK","Licensed","2022-02-24T00:00:00.000","-114.0692776959485","50.96219825133407"
"ALTADIGITAL COMPUTER SERVICES","#5 3916 64 AV SE","WHOLESALER","FOOTHILLS","Renewal Licensed","2016-05-09T00:00:00.000","-113.97747991364983","50.99701768320162"
"RADIOWORLD CENTRAL","#8 711 48 AV SE","WHOLESALER","HIGHFIELD","Renewal Licensed","2014-03-07T00:00:00.000","-114.04709605319037","51.010059771657374"
"A & W - U OF C","#250D 402 COLLEGIATE BV NW","FOOD SERVICE - PREMISES (NO SEATING)","UNIVERSITY HEIGHTS","Renewal Licensed","2013-05-28T00:00:00.000","-114.13171442136425","51.07820916619586"
"GARAGE DOOR FIX","#A 4030 8 ST SE","CONTRACTOR (NO PROVINCIAL LICENCE REQUIRED)","HIGHFIELD","Pending Renewal","2021-10-26T00:00:00.000","-114.04238241277554","51.018284510970155"
"ANTHEM BELMONT TOWNHOMES 1 DEVELOPMENTS","#200 4820 RICHARD RD SW","CONTRACTOR","LINCOLN PARK","Licensed","2022-05-24T00:00:00.000","-114.12354022133245","51.01056280548509"
"CITY DANCEWEAR","#106 5403 CROWCHILD TR NW","RETAIL DEALER - PREMISES","VARSITY","Renewal Licensed","2008-06-24T00:00:00.000","-114.16561339938124","51.103714664127885"
"CELLICON","#Z32 3625 SHAGANAPPI TR NW","RETAIL DEALER - PREMISES","VARSITY","Renewal Licensed","2014-03-26T00:00:00.000","-114.15565301886947","51.0849649240975"
"WILD ROSE TATTOO COMPANY","#212 815 1 ST SW","RETAIL DEALER - PREMISES","DOWNTOWN COMMERCIAL CORE","Renewal Licensed","2017-06-05T00:00:00.000","-114.06577815318701","51.04494104434576"
"SOUTH BLOCK BARBECUE AND BREWING","2437 4 ST SW","ALCOHOL BEVERAGE MANUFACTURER","CLIFF BUNGALOW","Renewal Licensed","2021-05-26T00:00:00.000","-114.07174406308629","51.03074435407313"
"SOUTH BLOCK BARBECUE AND BREWING","2437 4 ST SW","OUTDOOR PATIO","CLIFF BUNGALOW","Renewal Licensed","2021-05-26T00:00:00.000","-114.07174406308629","51.03074435407313"
"EDO JAPAN","#101 5222 130 AV SE","FOOD SERVICE - PREMISES (SEATING)","EAST SHEPARD INDUSTRIAL","Renewal Licensed","2006-09-22T00:00:00.000","-113.96163956873332","50.93240907963094"
"ATOMIC BODY JEWELRY","#134 424 COLLEGIATE BV NW","RETAIL DEALER - PREMISES","UNIVERSITY HEIGHTS","Pending Renewal","2002-08-27T00:00:00.000","-114.13040478554264","51.07860249475677"
"CALGARY CO-OP","200 BARLOW SQ SE","FUEL SALES/STORAGE","SOUTH FOOTHILLS","Renewal Licensed","2019-05-30T00:00:00.000","-113.9804476105878","50.972777242355164"
"NATURAL WAY CHIROPRACTIC","#201 3527 18 ST SW","MASSAGE CENTRE (COMMERCIAL)","ALTADORE","Renewal Licensed","2017-08-17T00:00:00.000","-114.1052018373514","51.02223147391906"
"KONIGTIGER","#380 317 7 AV SW","RETAIL DEALER - PREMISES","DOWNTOWN COMMERCIAL CORE","Pending Renewal","2021-11-02T00:00:00.000","-114.06875447223824","51.046442747380155"
"EL FURNITURE WAREHOUSE","107 8 AV SW","FOOD SERVICE - PREMISES (SEATING)","DOWNTOWN COMMERCIAL CORE","Renewal Licensed","2018-02-08T00:00:00.000","-114.06351612418689","51.04528671016977"
"LEVILLA RESTAURANT","#404 1851 SIROCCO DR SW","ALCOHOL BEVERAGE SALES (DRINKING EST/RESTAURANT)","SIGNAL HILL","Pending Renewal","2005-10-26T00:00:00.000","-114.16738707077927","51.03716316869655"
"SUNRISE RESTAURANT","#O 4710 17 AV SE","TOBACCO RETAILER","FOREST LAWN","Renewal Licensed","1997-06-20T00:00:00.000","-113.9661083797894","51.03886811117853"
"AZZURRI PIZZERIA","#B 2404 EDMONTON TR NE","FOOD SERVICE - PREMISES (SEATING)","WINSTON HEIGHTS/MOUNTVIEW","Renewal Licensed","2015-05-12T00:00:00.000","-114.05589791200288","51.07358241862371"
"MODULEX ALBERTA","#112 2719 7 AV NE","MANUFACTURER","MERIDIAN","Licensed","2022-04-20T00:00:00.000","-113.99515464841903","51.05830375238263"
"KBM GROUP","1245 45 AV NE","WHOLESALER","MCCALL","Renewal Licensed","2010-04-06T00:00:00.000","-114.03468020335696","51.09284299585194"
"CO-OP CANNABIS - BEDDINGTON","#160 8220 CENTRE ST NE","CANNABIS STORE","BEDDINGTON HEIGHTS","Pending Renewal","2021-10-07T00:00:00.000","-114.06977791772451","51.126752937268776"
"LIQUOR PLEX","#13 16 MACEWAN DR NW","RETAIL DEALER - PREMISES","MACEWAN","Renewal Licensed","2017-03-07T00:00:00.000","-114.10895921148241","51.13518678937403"
"LITTLE CAESARS","#5 728 NORTHMOUNT DR NW","RETAIL DEALER - PREMISES","ROSEMONT","Renewal Licensed","2020-03-04T00:00:00.000","-114.09243501481811","51.082294002533935"
"EYE SITE (THE)","#5F 8330 MACLEOD TR SE","RETAIL DEALER - PREMISES","ACADIA","Renewal Licensed","1997-04-10T00:00:00.000","-114.06995422341348","50.977880299826495"
"SAVINGS EXPRESS","#140 75 CORNER MEADOWS PA NE","TOBACCO RETAILER","CORNERSTONE","Renewal Licensed","2021-05-11T00:00:00.000","-113.93417709218573","51.150914794905006"
"VIA CIBO","#2 7929 11 ST SE","ALCOHOL BEVERAGE SALES (RESTAURANT)","EAST FAIRVIEW INDUSTRIAL","Renewal Licensed","2016-09-19T00:00:00.000","-114.04283124508483","50.98400110293149"
"COSMO PROF","#109 2323 32 AV NE","WHOLESALER","SOUTH AIRWAYS","Licensed","2019-11-25T00:00:00.000","-114.00572209442998","51.08086780127777"
"MOLLY MAID","#11 1216 34 AV NE","CLEANING SERVICE (COMMERCIAL & RESIDENTIAL)","MCCALL","Pending Renewal","2020-09-24T00:00:00.000","-114.03289313099532","51.084002895134525"
"ALTADIGITAL COMPUTER SERVICES","#5 3916 64 AV SE","SECURITY CONSULTING AGENCY","FOOTHILLS","Renewal Licensed","2016-05-09T00:00:00.000","-113.97747991364983","50.99701768320162"
"ACE MATS","#125 1803 60 ST SE","RETAIL DEALER - PREMISES","FOREST LAWN INDUSTRIAL","Renewal Licensed","2013-11-06T00:00:00.000","-113.94792552452861","51.03717482215786"
"AMAX AUTO BODY & REPAIR","#149 1807 60 ST SE","MOTOR VEHICLE REPAIR AND SERVICE (1)","FOREST LAWN INDUSTRIAL","Renewal Licensed","2011-03-28T00:00:00.000","-113.94766458961452","51.03677677450395"
"VARSTEEL SPECIALTY METALS","#3 5608 BURBANK CR SE","WHOLESALER","BURNS INDUSTRIAL","Renewal Licensed","2013-08-20T00:00:00.000","-114.04562972154633","51.00575327286798"
"RADIO BLOCK TATTOO","#100 1215 1 ST SW","RETAIL DEALER - PREMISES","BELTLINE","Renewal Licensed","2018-06-23T00:00:00.000","-114.06610695854407","51.040770411875855"
"CALGARY WHOLESALE CASH AND CARRY","#1 2735 37 AV NE","WHOLESALER","HORIZON","Pending Renewal","2021-10-05T00:00:00.000","-113.99565347671782","51.08615129813926"
"MIDRISE SHELL","3 MILLRISE BV SW","FOOD SERVICE - PREMISES (NO SEATING)","MILLRISE","Renewal Licensed","2019-06-13T00:00:00.000","-114.07590062818737","50.92045401857851"
"TOSHIBA","#190 7260 12 ST SE","WHOLESALER","EAST FAIRVIEW INDUSTRIAL","Renewal Licensed","2014-04-29T00:00:00.000","-114.03633031867258","50.989617647718255"
"OGDEN WHISTLE PUB (THE)","7025 OGDEN RD SE","OUTDOOR PATIO","OGDEN","Pending Renewal","2011-09-30T00:00:00.000","-114.0006424850347","50.98911306854421"
"BURGER KING #12847","#100 85 SHAWVILLE BV SE","RETAIL DEALER - PREMISES","SHAWNESSY","Renewal Licensed","2008-06-17T00:00:00.000","-114.06764296315602","50.90420426810216"
"HARU SUSHI & GRILL","#150 35 MCKENZIE TOWNE AV SE","ALCOHOL BEVERAGE SALES (RESTAURANT)","MCKENZIE TOWNE","Renewal Licensed","2011-04-21T00:00:00.000","-113.95923570981142","50.9157493677332"
"KATE HEWKO DESIGN","#112 908 17 AV SW","RETAIL DEALER - PREMISES","BELTLINE","Renewal Licensed","2019-10-01T00:00:00.000","-114.08252297661829","51.037999466379354"
"OGDEN WHISTLE PUB (THE)","7025 OGDEN RD SE","ENTERTAINMENT ESTABLISHMENT","OGDEN","Pending Renewal","2011-09-30T00:00:00.000","-114.0006424850347","50.98911306854421"
"LIQUOR PLEX","#13 16 MACEWAN DR NW","LIQUOR STORE","MACEWAN","Renewal Licensed","2017-03-07T00:00:00.000","-114.10895921148241","51.13518678937403"
"HUNTER LOGISTICS","#C 2624 54 AV SE","WAREHOUSING","FOOTHILLS","Move in Progress","2019-02-05T00:00:00.000","-113.99543997491585","51.00583694246618"
"YYC LASER AND SKINCARE","#20 95 EAST HILLS BV SE","PERSONAL SERVICE","BELVEDERE","Licensed","2022-02-07T00:00:00.000","-113.91487644154745","51.04272577391777"
"FASTENERS & FITTINGS","#O 7803 35 ST SE","WHOLESALER","FOOTHILLS","Renewal Licensed","2005-06-13T00:00:00.000","-113.983924978669","50.98347780826398"
"CALGARY GOLDMART","1506A 14 ST SW","RETAIL DEALER - PREMISES","BELTLINE","Renewal Licensed","2012-04-25T00:00:00.000","-114.09429797377389","51.03913963721831"
"KURVES BEAUTY BAR","#316 100 ANDERSON RD SE","PERSONAL SERVICE","WILLOW PARK","Renewal Licensed","2021-05-17T00:00:00.000","-114.06531215773282","50.95240147030661"
"XIBIT CREATIVE RESOURCE MGMT","7805 FLINT RD SE","WHOLESALER","FAIRVIEW INDUSTRIAL","Renewal Licensed","2019-09-09T00:00:00.000","-114.06936586021818","50.98381332930143"
"SOUTH BLOCK BARBECUE AND BREWING","2437 4 ST SW","ALCOHOL BEVERAGE SALES (DRINKING EST/RESTAURANT)","CLIFF BUNGALOW","Renewal Licensed","2021-05-26T00:00:00.000","-114.07174406308629","51.03074435407313"
"REDLINE GLASS & METAL","#62 4216 54 AV SE","CONTRACTOR (NO PROVINCIAL LICENCE REQUIRED)","FOOTHILLS","Renewal Licensed","2018-01-18T00:00:00.000","-113.9738809082173","51.00411634218231"
"HIGH LINE BREWING","#113 1318 9 AV SE","FOOD SERVICE - PREMISES (SEATING)","INGLEWOOD","Renewal Licensed","2016-09-13T00:00:00.000","-114.03281667110504","51.04112225381788"
"CALMET INDUSTRIAL SUPPLY","#40 3270 46 AV SE","MANUFACTURER","GOLDEN TRIANGLE","Pending Renewal","2015-10-22T00:00:00.000","-113.98694943634649","51.01267734249116"
"CAFFE ROSSO","425 11 AV SE","FOOD SERVICE - PREMISES (SEATING)","BELTLINE","Renewal Licensed","2012-05-28T00:00:00.000","-114.0541220083459","51.04195777405637"
"CALGARY CO-OP WINES & SPIRITS - ROCKY RIDGE","#2002 11595 ROCKYVALLEY DR NW","RETAIL DEALER - PREMISES","ROCKY RIDGE","Pending Renewal","2009-10-20T00:00:00.000","-114.25505017058559","51.14759931014861"
"ADVANPRO FURNACE AND DUCT CLEANING","11985 44 ST SE","CLEANING SERVICE (COMMERCIAL & RESIDENTIAL)","EAST SHEPARD INDUSTRIAL","Renewal Licensed","2017-09-20T00:00:00.000","-113.97255388188645","50.94385819205943"
"SMITTY'S RESTAURANT AND LOUNGE","9640 MACLEOD TR SE","FOOD SERVICE - PREMISES (SEATING)","ACADIA","Renewal Licensed","2020-02-19T00:00:00.000","-114.06991947434851","50.966754711389804"
"MICROSERVE","#117 2611 HOPEWELL PL NE","DISTRIBUTION MANAGER","HORIZON","Licensed","2021-11-19T00:00:00.000","-114.00018427172645","51.09041343322891"
"JSK GROUP CANADA","#340 600 CROWFOOT CR NW","CONTRACTOR (NO PROVINCIAL LICENCE REQUIRED)","ARBOUR LAKE","Renewal Licensed","2018-03-13T00:00:00.000","-114.20411551314034","51.12952263399862"
"MUSTARD SEED SOCIETY (THE)","#1B 102 11 AV SE","CHARITABLE ORGANIZATION","BELTLINE","Renewal Licensed","2003-03-27T00:00:00.000","-114.0629814840712","51.042634434231275"
"ACE MATS","#125 1803 60 ST SE","WHOLESALER","FOREST LAWN INDUSTRIAL","Renewal Licensed","2013-11-06T00:00:00.000","-113.94792552452861","51.03717482215786"
"19 KITCHEN","1161C NORTHMOUNT DR NW","FOOD SERVICE - PREMISES (NO SEATING)","BRENTWOOD","Licensed","2022-03-04T00:00:00.000","-114.11795401853541","51.08913853167608"
"IRIS NAIL & SPA","#620 20 LONGVIEW CM SE","PERSONAL SERVICE","LEGACY","Licensed","2021-08-05T00:00:00.000","-114.02909729284438","50.864363845727844"
"CTR REFRIGERATION AND FOOD STORE EQUIPMENT","4840 52 ST SE","WHOLESALER","STARFIELD","Renewal Licensed","2000-05-10T00:00:00.000","-113.95703578987602","51.01181738377068"
"WILD ROSE TATTOO COMPANY","#212 815 1 ST SW","PERSONAL SERVICE (TATTOO)","DOWNTOWN COMMERCIAL CORE","Renewal Licensed","2017-06-05T00:00:00.000","-114.06577815318701","51.04494104434576"
"PRAIRIE MILL BREAD CO","#129 4820 NORTHLAND DR NW","FOOD SERVICE - PREMISES","BRENTWOOD","Renewal Licensed","1997-04-29T00:00:00.000","-114.14042912218211","51.09459123559984"
"ALFAGOMMA CANADA","4920 52 ST SE","WHOLESALER","STARFIELD","Renewal Licensed","2018-11-27T00:00:00.000","-113.95702313226386","51.01024800525675"
"TAYLOR CONSTRUCTION","#2 314 EXPLORATION AV SE","CONTRACTOR","RESIDUAL WARD 12 - SUB AREA 12A","Renewal Licensed","2014-06-20T00:00:00.000","-113.90204325038293","50.962932545961706"
"TARPON ENERGY SERVICES","7020 81 ST SE","CONTRACTOR","GREAT PLAINS EAST","Renewal Licensed","2006-12-28T00:00:00.000","-113.91631860500327","50.98980376123241"
"INERTIA ENVIRONMENTAL","6865 84 ST SE","CONTRACTOR (NO PROVINCIAL LICENCE REQUIRED)","GREAT PLAINS EAST","Renewal Licensed","2018-03-02T00:00:00.000","-113.91314313267615","50.991584160631064"
"REDLINE GLASS & METAL","#62 4216 54 AV SE","MANUFACTURER","FOOTHILLS","Renewal Licensed","2018-01-18T00:00:00.000","-113.9738809082173","51.00411634218231"
"BENTO SUSHI","#240 540 3 ST SE","FOOD SERVICE - PREMISES","DOWNTOWN EAST VILLAGE","Renewal Licensed","2020-03-03T00:00:00.000","-114.05430040591341","51.04764868722423"
"CRESCENT HEIGHTS BBQ CHICKEN","1115 CENTRE ST NW","ALCOHOL BEVERAGE SALES (RESTAURANT)","CRESCENT HEIGHTS","Licensed","2022-07-20T00:00:00.000","-114.06281143258087","51.061813181919376"
"STARDIP.COM","4801 WESTWINDS DR NE","SECONDHAND DEALER","WESTWINDS","Renewal Licensed","2013-02-01T00:00:00.000","-113.96535420591974","51.09973212824557"
"BIG T'S BBQ & SMOKEHOUSE","2138 CROWCHILD TR NW","FOOD SERVICE - PREMISES (SEATING)","BANFF TRAIL","Renewal Licensed","2008-05-13T00:00:00.000","-114.11680095064297","51.07034700008022"
"K TOWN FRIED CHICKEN","919B CENTRE ST NW","OUTDOOR PATIO","CRESCENT HEIGHTS","Renewal Licensed","2019-06-19T00:00:00.000","-114.0630493265265","51.0603294731979"
"CTR REFRIGERATION AND FOOD STORE EQUIPMENT","4840 52 ST SE","FOOD SERVICE - PREMISES","STARFIELD","Renewal Licensed","2000-05-10T00:00:00.000","-113.95703578987602","51.01181738377068"
"ALTADIGITAL COMPUTER SERVICES","#5 3916 64 AV SE","RETAIL DEALER - PREMISES","FOOTHILLS","Renewal Licensed","2016-05-09T00:00:00.000","-113.97747991364983","50.99701768320162"
"MIDRISE SHELL","3 MILLRISE BV SW","TOBACCO RETAILER","MILLRISE","Renewal Licensed","2019-06-13T00:00:00.000","-114.07590062818737","50.92045401857851"
"BURGER KING #10889","11 CROWFOOT TC NW","RETAIL DEALER - PREMISES","ARBOUR LAKE","Renewal Licensed","2008-06-17T00:00:00.000","-114.19863379607658","51.12654980349782"
"CAFFE ROSSO","425 11 AV SE","ALCOHOL BEVERAGE SALES (RESTAURANT)","BELTLINE","Renewal Licensed","2012-05-28T00:00:00.000","-114.0541220083459","51.04195777405637"
"ACE CAREER COLLEGE","#215 100 4 AV SW","SCHOOL (PROV. APPROVED)","DOWNTOWN COMMERCIAL CORE","Renewal Licensed","2019-02-06T00:00:00.000","-114.06312723342953","51.04963130674952"
"WESTERN RIBBONS","4828 52 ST SE","MANUFACTURER","STARFIELD","Renewal Licensed","2017-12-21T00:00:00.000","-113.95703997742655","51.01218986802881"
"MAXIM TRUCK & TRAILER","6707 84 ST SE","WHOLESALER","GREAT PLAINS EAST","Renewal Licensed","2003-10-01T00:00:00.000","-113.91338664575636","50.993876753385464"
"WORKSHOP STUDIOS","#3 2501 ALYTH RD SE","RETAIL DEALER - PREMISES","ALYTH/BONNYBROOK","Renewal Licensed","2018-06-07T00:00:00.000","-114.02472530281712","51.031335922124576"
"BROKEN SPIRITS DISTILLERY","#4 3320 14 AV NE","FOOD SERVICE - PREMISES (SEATING)","FRANKLIN","Renewal Licensed","2020-01-30T00:00:00.000","-113.98651461062252","51.0656973781163"
"MORMAK EQUIPMENT","6969 84 ST SE","RETAIL DEALER - PREMISES","GREAT PLAINS EAST","Renewal Licensed","2020-07-07T00:00:00.000","-113.9129890561786","50.9905152105343"
"STAR PRODUCE","4956 52 ST SE","FOOD SERVICE - PREMISES","STARFIELD","Renewal Licensed","2001-04-23T00:00:00.000","-113.95702041062158","51.00910689453133"
"SHOPPERS DRUG MART #353","#1000 150 MILLRISE BV SW","RETAIL DEALER - PREMISES","MILLRISE","Renewal Licensed","2015-05-08T00:00:00.000","-114.07323490918583","50.915323009755035"
"HUFF N' PUFF SMOKE & CIGAR","2101B CENTRE ST NW","TOBACCO RETAILER","TUXEDO PARK","Licensed","2022-04-08T00:00:00.000","-114.06308492848613","51.07083296779158"
"MORMAK EQUIPMENT","6969 84 ST SE","MANUFACTURER","GREAT PLAINS EAST","Renewal Licensed","2020-07-07T00:00:00.000","-113.9129890561786","50.9905152105343"
"KEVIN GRAY INTERIORS","#27 5080 12A ST SE","DISTRIBUTION MANAGER","HIGHFIELD","Renewal Licensed","2018-01-25T00:00:00.000","-114.03487845259365","51.00726816988909"
"TARPON ENERGY SERVICES","7020 81 ST SE","MANUFACTURER","GREAT PLAINS EAST","Renewal Licensed","2006-12-28T00:00:00.000","-113.91631860500327","50.98980376123241"
"BELLEVA","#227 1982 KENSINGTON RD NW","PERSONAL SERVICE","WEST HILLHURST","Renewal Licensed","2021-04-01T00:00:00.000","-114.10491483435506","51.05288374960256"
"5 SENSES RAMEN & SUSHI BAR","634A 17 AV SW","ALCOHOL BEVERAGE SALES (RESTAURANT)","BELTLINE","Renewal Licensed","2015-05-08T00:00:00.000","-114.07651641536287","51.038017370438155"
"ALL TRANS TRANSMISSION & AUTO","4809 17 AV SE","MOTOR VEHICLE REPAIR AND SERVICE (1)","FOREST LAWN","Renewal Licensed","2006-05-24T00:00:00.000","-113.9648376042556","51.03736144129153"
"WOW LIQUOR","#7 5269 MEMORIAL DR SE","LIQUOR STORE","FOREST HEIGHTS","Renewal Licensed","2011-06-15T00:00:00.000","-113.95720491766394","51.052651411637704"
"ARGOS BUILDING SOLUTIONS","#7 417 53 AV SE","CONTRACTOR (NO PROVINCIAL LICENCE REQUIRED)","MANCHESTER INDUSTRIAL","Renewal Licensed","2021-03-02T00:00:00.000","-114.05551180988438","51.005519765103315"
"PRINT THREE 34","#210 333 5 AV SW","MANUFACTURER","DOWNTOWN COMMERCIAL CORE","Licensed","2021-11-01T00:00:00.000","-114.06961011027667","51.04827732357213"
"KUNGFU RESTAURANT","#402 19369 SHERIFF KING ST SW","ALCOHOL BEVERAGE SALES (RESTAURANT)","SILVERADO","Renewal Licensed","2018-02-05T00:00:00.000","-114.07199444076551","50.87893638480493"
"DOUCETTE TRUCKING","4816 52 ST SE","FOOD SERVICE - PREMISES","STARFIELD","Renewal Licensed","2011-12-30T00:00:00.000","-113.95705102048794","51.01246887901501"
"HUFF N' PUFF SMOKE & CIGAR","2101B CENTRE ST NW","RETAIL DEALER - PREMISES","TUXEDO PARK","Licensed","2022-04-08T00:00:00.000","-114.06308492848613","51.07083296779158"
"MOBILE DOOR & CARPENTRY SERVICES","#9 7003 30 ST SE","RETAIL DEALER - PREMISES","FOOTHILLS","Renewal Licensed","2011-08-24T00:00:00.000","-113.9849786120809","50.99126753023804"
"MASTER BARBER SHOP","#6 920 NORTHMOUNT DR NW","PERSONAL SERVICE","COLLINGWOOD","Renewal Licensed","2006-03-30T00:00:00.000","-114.1036530133649","51.08668638021385"
"RIDERSONLY","#9 7130 FISHER RD SE","RETAIL DEALER - PREMISES","FAIRVIEW INDUSTRIAL","Renewal Licensed","2020-04-01T00:00:00.000","-114.06743233398855","50.9903440848162"
"CTR REFRIGERATION AND FOOD STORE EQUIPMENT","4840 52 ST SE","CONTRACTOR","STARFIELD","Renewal Licensed","2000-05-10T00:00:00.000","-113.95703578987602","51.01181738377068"
"YYC BEAUTY LOUNGE","10105 HIDDEN VALLEY DR NW","PERSONAL SERVICE (TATTOO)","HIDDEN VALLEY","Renewal Licensed","2019-04-24T00:00:00.000","-114.10541051362513","51.146564458791914"
"SAKALAM AUTOWORKS","#107 3360 26 ST NE","MOTOR VEHICLE REPAIR AND SERVICE (2-PROV N/R)","HORIZON","Licensed","2021-10-15T00:00:00.000","-113.99666802864027","51.08295071175528"
"KEY MECHANICAL","#17 1916B 30 AV NE","CONTRACTOR (NO PROVINCIAL LICENCE REQUIRED)","SOUTH AIRWAYS","Renewal Licensed","2019-04-30T00:00:00.000","-114.01342642565243","51.08000516811297"
"MOBILE DOOR & CARPENTRY SERVICES","#9 7003 30 ST SE","WHOLESALER","FOOTHILLS","Renewal Licensed","2011-08-24T00:00:00.000","-113.9849786120809","50.99126753023804"
"NORMANDEAU INTERIORS","#109 6490 OLD BANFF COACH RD SW","RETAIL DEALER - PREMISES","PATTERSON","Pending Renewal","2012-10-31T00:00:00.000","-114.18074756563136","51.06115952809661"
"OPA! OF GREECE #113 EASTHILLS","#619 409 EAST HILLS BV SE","FOOD SERVICE - PREMISES (SEATING)","BELVEDERE","Renewal Licensed","2016-04-07T00:00:00.000","-113.90918463501315","51.039192027591405"
"LESS STRESS FOR BODY, MIND & SOUL","#220 19 ROYAL VISTA LI NW","RETAIL DEALER - PREMISES","ROYAL VISTA","Renewal Licensed","2019-06-25T00:00:00.000","-114.20491322618157","51.15101734436053"
"INDIAN OCEAN RESTAURANT","2102 GLENMORE CO SE","ALCOHOL BEVERAGE SALES (RESTAURANT)","OGDEN","Licensed","2022-04-28T00:00:00.000","-113.99668328799193","50.9810530514906"
"GLAZIER ELECTRIC","7134 FISHER ST SE","RETAIL DEALER - PREMISES","FAIRVIEW INDUSTRIAL","Renewal Licensed","2001-01-08T00:00:00.000","-114.06924694679834","50.99080627769144"
"ARCHED AND AGELESS","6107 CENTRE ST SW","PERSONAL SERVICE (MICROBLADING)","MANCHESTER INDUSTRIAL","Licensed","2022-03-15T00:00:00.000","-114.06431502912832","50.99737223529616"
"THE VARSITY CLINIC","#102 4616 VALIANT DR NW","MASSAGE CENTRE (COMMERCIAL)","VARSITY","Pending Renewal","2000-09-18T00:00:00.000","-114.15340927756398","51.091438359402595"
"MCLEAN LUMBER SALES ALBERTA","#S 5717 84 ST SE","WHOLESALER","STARFIELD EAST","Renewal Licensed","1994-10-07T00:00:00.000","-113.91436693379866","51.00163146390567"
"PHIL'S RESTAURANTS","#50 5000 64 AV SE","FOOD SERVICE - PREMISES","FOOTHILLS","Renewal Licensed","2005-05-27T00:00:00.000","-113.96172938888454","50.9974599026239"
"KUNGFU RESTAURANT","#402 19369 SHERIFF KING ST SW","FOOD SERVICE - PREMISES (SEATING)","SILVERADO","Renewal Licensed","2018-02-05T00:00:00.000","-114.07199444076551","50.87893638480493"
"ARA AUTO","#2 3916 64 AV SE","MOTOR VEHICLE DEALER - PREMISES","FOOTHILLS","Licensed","2022-01-31T00:00:00.000","-113.97747991364983","50.99701768320162"
"EXCHANGE GIFTS & CONVENIENCE STORE","#250 300 5 AV SW","RETAIL DEALER - PREMISES","DOWNTOWN COMMERCIAL CORE","Renewal Licensed","2013-01-24T00:00:00.000","-114.06831051776395","51.04883440169486"
"MAXIM TRUCK & TRAILER","6707 84 ST SE","MOTOR VEHICLE DEALER - PREMISES","GREAT PLAINS EAST","Renewal Licensed","2003-10-01T00:00:00.000","-113.91338664575636","50.993876753385464"
"DAILY KING CONVENIENCE STORE","840 5 AV SW","TOBACCO RETAILER","DOWNTOWN COMMERCIAL CORE","Renewal Licensed","2007-05-22T00:00:00.000","-114.0805077624049","51.049167221616536"
"INDIAN OCEAN RESTAURANT","2102 GLENMORE CO SE","FOOD SERVICE - PREMISES (SEATING)","OGDEN","Licensed","2022-04-28T00:00:00.000","-113.99668328799193","50.9810530514906"
"INSPIRED A DIV OF WHOLE LEAF","4936 52 ST SE","FOOD SERVICE - PREMISES","STARFIELD","Renewal Licensed","2020-03-05T00:00:00.000","-113.95702739371852","51.00972294031595"
"ZEN CLEANING SERVICES YYC","#3 4750 106 AV SE","CLEANING SERVICE (COMMERCIAL & RESIDENTIAL)","EAST SHEPARD INDUSTRIAL","Licensed","2022-02-10T00:00:00.000","-113.96730365847637","50.95834520666873"
"MODERN TRUCK AND TRAILER REPAIR","6015 84 ST SE","MOTOR VEHICLE REPAIR AND SERVICE (1)","STARFIELD EAST","Renewal Licensed","2018-09-07T00:00:00.000","-113.912940822568","51.0002166196494"
"MCCANN'S BUILDING MOVERS","6017 84 ST SE","CONTRACTOR","STARFIELD EAST","Renewal Licensed","2005-01-26T00:00:00.000","-113.912940822568","51.0002166196494"
"WE-CLEAN CANADA","#214 7 WESTWINDS CR NE","CLEANING SERVICE (COMMERCIAL ONLY)","WESTWINDS","Renewal Licensed","2013-05-31T00:00:00.000","-113.97023975399098","51.10595556556723"
"D&M TREATMENTS","#2 1235 17 AV SW","MASSAGE CENTRE (COMMERCIAL)","MOUNT ROYAL LOWER","Renewal Licensed","2020-04-21T00:00:00.000","-114.09080423817542","51.03760653285728"
"HIGH LINE BREWING","#113 1318 9 AV SE","RETAIL DEALER - PREMISES","INGLEWOOD","Renewal Licensed","2016-09-13T00:00:00.000","-114.03281667110504","51.04112225381788"
"NOODLE KING VIETNAMESE RESTAURANT","#119 2323 32 AV NE","ALCOHOL BEVERAGE SALES (RESTAURANT)","SOUTH AIRWAYS","Pending Renewal","2007-10-01T00:00:00.000","-114.00564304193621","51.08003537893462"
"C B DRIVE-IN","793 NORTHMOUNT DR NW","FOOD SERVICE - PREMISES (NO SEATING)","COLLINGWOOD","Renewal Licensed","1997-04-23T00:00:00.000","-114.0969775799475","51.08259563020525"
"OSTERIA DE MEDICI RESTAURANT","#4 201 10 ST NW","TOBACCO RETAILER","HILLHURST","Renewal Licensed","1997-03-14T00:00:00.000","-114.08636585960392","51.05276284056905"
"MEDICINE SHOPPE PHARMACY","#3105 230 EVERSYDE BV SW","FOOD SERVICE - PREMISES","EVERGREEN","Renewal Licensed","2011-05-20T00:00:00.000","-114.11007503133288","50.908706865114176"
"CANADA RUG","#3 2220 32 AV NE","RETAIL DEALER - PREMISES","NORTH AIRWAYS","Renewal Licensed","2018-07-05T00:00:00.000","-114.00756072354532","51.08219178623009"
"CALGARY CO-OP WINES & SPIRITS - #35 KINGSLAND","6907 MACLEOD TR SW","RETAIL DEALER - PREMISES","KINGSLAND","Renewal Licensed","2010-05-12T00:00:00.000","-114.07283081767787","50.991761244377464"
"KBM GROUP","1245 45 AV NE","CONTRACTOR","MCCALL","Renewal Licensed","2010-04-06T00:00:00.000","-114.03468020335696","51.09284299585194"
"HYRDA RIG CANADA","6771 84 ST SE","MANUFACTURER","GREAT PLAINS EAST","Renewal Licensed","2004-12-14T00:00:00.000","-113.91320112822211","50.99268017024817"
"AIR LIQUIDE CANADA","#100 2331 50 AV SE","RETAIL DEALER - PREMISES","VALLEYFIELD","Renewal Licensed","2014-04-28T00:00:00.000","-114.00610539349132","51.00820485490858"
"SPA BERRY STORE (THE)","4816 52 ST SE","WHOLESALER","STARFIELD","Renewal Licensed","2014-05-14T00:00:00.000","-113.95705102048794","51.01246887901501"
"MAXIM TRUCK & TRAILER","6707 84 ST SE","MOTOR VEHICLE REPAIR AND SERVICE (1)","GREAT PLAINS EAST","Renewal Licensed","2003-10-01T00:00:00.000","-113.91338664575636","50.993876753385464"
"MOBILE DOOR & CARPENTRY SERVICES","#9 7003 30 ST SE","CONTRACTOR","FOOTHILLS","Renewal Licensed","2011-08-24T00:00:00.000","-113.9849786120809","50.99126753023804"
"KP TECHNOLOGIES","#2 3521 78 AV SE","CONTRACTOR (NO PROVINCIAL LICENCE REQUIRED)","FOOTHILLS","Licensed","2022-02-02T00:00:00.000","-113.9846226172844","50.98192138518755"
"INS MARKET - INTACT PLACE","#224 321 6 AV SW","RETAIL DEALER - PREMISES","DOWNTOWN COMMERCIAL CORE","Renewal Licensed","2017-04-19T00:00:00.000","-114.06938006428264","51.04738650622787"
"GREAT TASTE CHINESE RESTAURANT","#101 123 2 AV SE","OUTDOOR PATIO","CHINATOWN","Renewal Licensed","2011-06-06T00:00:00.000","-114.06127548249147","51.0509511927965"
"ENVIROTECH HEATING & COOLING","#1 539 QUEENSLAND DR SE","CONTRACTOR (NO PROVINCIAL LICENCE REQUIRED)","QUEENSLAND","Renewal Licensed","2018-04-04T00:00:00.000","-114.02532265414241","50.93976836059442"
"DAGU RICE NOODLE","#246 40 COUNTRY HILLS LD NW","FOOD SERVICE - PREMISES (SEATING)","COUNTRY HILLS","Renewal Licensed","2019-08-06T00:00:00.000","-114.07020909842758","51.1421514791462"
"MEGA SANJHA PUNJAB GROCERY STORE","#570 6520 FALCONRIDGE BV NE","FOOD SERVICE - PREMISES","TARADALE","Renewal Licensed","2020-05-01T00:00:00.000","-113.94499714789119","51.11161695244579"
"WIKA INSTRUMENTS","4932 52 ST SE","WHOLESALER","STARFIELD","Renewal Licensed","2001-11-06T00:00:00.000","-113.95700463680674","51.009861482551365"
"LA MOLIENDA FOODS","4824 52 ST SE","FOOD SERVICE - PREMISES","STARFIELD","Renewal Licensed","2015-02-26T00:00:00.000","-113.9570421354237","51.012291192675754"
"SAVE ON BOX","5614C BURBANK RD SE","FOOD SERVICE - PREMISES","BURNS INDUSTRIAL","Licensed","2021-11-08T00:00:00.000","-114.04456200857788","51.00482819458156"
"FERGUS & BIX RESTAURANT AND BEER MARKET","#2000 873 85 ST SW","ALCOHOL BEVERAGE SALES (RESTAURANT)","WEST SPRINGS","Renewal Licensed","2008-06-25T00:00:00.000","-114.21204468661374","51.05990267277056"
"MARINA DOSA & TANDOORI GRILL","#301 3132 26 ST NE","FOOD SERVICE - PREMISES (SEATING)","SUNRIDGE","Renewal Licensed","2018-04-12T00:00:00.000","-113.99794712984992","51.079798807851695"
"GWAILO","1214C 9 AV SE","ALCOHOL BEVERAGE SALES (RESTAURANT)","INGLEWOOD","Licensed","2022-02-24T00:00:00.000","-114.03587584164212","51.042014449363926"
"VIA CIBO","#2 7929 11 ST SE","FOOD SERVICE - PREMISES (SEATING)","EAST FAIRVIEW INDUSTRIAL","Renewal Licensed","2016-09-19T00:00:00.000","-114.04283124508483","50.98400110293149"
"RUN LOUNGE (THE)","144 2 ST SW","SCHOOL (PROV. NOT REQUIRED)","CHINATOWN","Licensed","2022-02-22T00:00:00.000","-114.06671480441585","51.05252202764359"
"SPLASH N DASH AUTO CARE","#6 3610 29 ST NE","MOTOR VEHICLE REPAIR AND SERVICE (2-PROV N/R)","HORIZON","Move in Progress","2021-11-16T00:00:00.000","-113.99097042020314","51.085030917384266"
"HONG AN VIETNAMESE CUISINE","#230 4600 130 AV SE","FOOD SERVICE - PREMISES (SEATING)","EAST SHEPARD INDUSTRIAL","Renewal Licensed","2016-04-01T00:00:00.000","-113.96898449450082","50.93299022031412"
"XIBIT CREATIVE RESOURCE MGMT","7805 FLINT RD SE","WAREHOUSING","FAIRVIEW INDUSTRIAL","Renewal Licensed","2019-09-09T00:00:00.000","-114.06936586021818","50.98381332930143"
"SPECTRUM SUPPLY CHAIN SOLUTIONS","#200 6060 90 AV SE","FOOD SERVICE - PREMISES","SECTION 23","Renewal Licensed","2017-09-27T00:00:00.000","-113.94929720742061","50.97334490630172"
"TRUSTORI","#1103 230 EVERSYDE BV SW","RETAIL DEALER - PREMISES","EVERGREEN","Renewal Licensed","2015-03-19T00:00:00.000","-114.11009531766939","50.90935609092938"
"BEST BUY MEDICAL SUPPLIES","#22 10221 15 ST NE","DISTRIBUTION MANAGER","STONEY 2","Pending Renewal","2016-07-12T00:00:00.000","-114.02584085339528","51.14523792981987"
"DOLLAR TREE","#112 10440 MACLEOD TR SE","FOOD SERVICE - PREMISES","WILLOW PARK","Pending Renewal","2010-10-28T00:00:00.000","-114.07062003217332","50.95924953608792"
"GREAT OUTDOORS (THE)","422 MEMORIAL DR NE","RETAIL DEALER - PREMISES","CRESCENT HEIGHTS","Renewal Licensed","2002-01-08T00:00:00.000","-114.05309307818614","51.0515869847209"
"LINDT","1403 4 ST SW","RETAIL DEALER - PREMISES","BELTLINE","Renewal Licensed","2013-03-27T00:00:00.000","-114.07225211433847","51.03949917599494"
"SAVE ON BOX","5614C BURBANK RD SE","RETAIL DEALER - PREMISES","BURNS INDUSTRIAL","Licensed","2021-11-08T00:00:00.000","-114.04456200857788","51.00482819458156"
"SPECTRUM MASSAGE THERAPY & ACUPUNCTURE","#602 5920 1A ST SW","MASSAGE CENTRE (COMMERCIAL)","MANCHESTER INDUSTRIAL","Renewal Licensed","2021-03-15T00:00:00.000","-114.06691744609658","50.99998361580848"
"ALBERTA CHROME & GRINDING","4726 1 ST SE","WHOLESALER","MANCHESTER INDUSTRIAL","Renewal Licensed","2001-08-29T00:00:00.000","-114.06192406914563","51.00976033564991"
"WADEMADE BBQ","#7 4216 64 AV SE","FOOD SERVICE - NO PREMISES","FOOTHILLS","Renewal Licensed","2020-07-08T00:00:00.000","-113.97476164929905","50.99728006151206"
"LESS STRESS FOR BODY, MIND & SOUL","#220 19 ROYAL VISTA LI NW","PERSONAL SERVICE","ROYAL VISTA","Renewal Licensed","2019-06-25T00:00:00.000","-114.20491322618157","51.15101734436053"
"MEGA SANJHA PUNJAB GROCERY STORE","606 CITYSCAPE SQ NE","FOOD SERVICE - PREMISES","CITYSCAPE","Licensed","2022-03-03T00:00:00.000","-113.96884001946066","51.146834387197536"
"PRINT THREE 34","#210 333 5 AV SW","CONTRACTOR (NO PROVINCIAL LICENCE REQUIRED)","DOWNTOWN COMMERCIAL CORE","Licensed","2021-11-01T00:00:00.000","-114.06961011027667","51.04827732357213"
"TAN 2000","#401 8120 BEDDINGTON BV NW","PERSONAL SERVICE","BEDDINGTON HEIGHTS","Renewal Licensed","2013-02-20T00:00:00.000","-114.07464930235531","51.127020300817556"
"LAST BEST BREWING & DISTILLING EATERY & BREWPUB","607 11 AV SW","ENTERTAINMENT ESTABLISHMENT","BELTLINE","Renewal Licensed","2015-04-09T00:00:00.000","-114.0746042807776","51.04259663250798"
"GREAT TASTE CHINESE RESTAURANT","#101 123 2 AV SE","ALCOHOL BEVERAGE SALES (RESTAURANT)","CHINATOWN","Renewal Licensed","2011-06-06T00:00:00.000","-114.06127548249147","51.0509511927965"
"UPPER CANADA FOREST PRODUCTS","4715 52 AV SE","WHOLESALER","FOOTHILLS","Renewal Licensed","2007-09-10T00:00:00.000","-113.96508270860653","51.00733829664095"
"CHICKO CHICKEN","#925 9650 HARVEST HILLS BV NE","FOOD SERVICE - PREMISES (SEATING)","AURORA BUSINESS PARK","Licensed","2022-07-07T00:00:00.000","-114.06780785618813","51.140530131920215"
"MYO LAB","#300 227 10 ST NW","MASSAGE CENTRE (COMMERCIAL)","HILLHURST","Renewal Licensed","2017-11-21T00:00:00.000","-114.08627720046482","51.053714827708355"
"RENAISSANCE CAFE CALGARY","#100 550 11 AV SW","FOOD SERVICE - PREMISES (SEATING)","BELTLINE","Renewal Licensed","2020-03-13T00:00:00.000","-114.07369377968884","51.04295504665179"
"ALLSOLD.CA","514 42 AV SE","SECONDHAND DEALER","MANCHESTER INDUSTRIAL","Renewal Licensed","2011-08-22T00:00:00.000","-114.0517373179613","51.016155812168634"
"PRINT THREE 34","#210 333 5 AV SW","RETAIL DEALER - PREMISES","DOWNTOWN COMMERCIAL CORE","Licensed","2021-11-01T00:00:00.000","-114.06961011027667","51.04827732357213"
"DOMINO'S PIZZA","6544 4 ST NE","RETAIL DEALER - PREMISES","HUNTINGTON HILLS","Pending Renewal","2021-07-16T00:00:00.000","-114.05592701778734","51.111688305296504"
"MRS. CLEAN / GARY'S PAINTING SERVICES","#112 7710 5 ST SE","CLEANING SERVICE (COMMERCIAL & RESIDENTIAL)","FAIRVIEW INDUSTRIAL","Renewal Licensed","2019-07-02T00:00:00.000","-114.04913359958593","50.98492525773827"
"ADVANPRO FURNACE AND DUCT CLEANING","11985 44 ST SE","CONTRACTOR (NO PROVINCIAL LICENCE REQUIRED)","EAST SHEPARD INDUSTRIAL","Renewal Licensed","2017-09-20T00:00:00.000","-113.97255388188645","50.94385819205943"
"DAILY KING CONVENIENCE STORE","840 5 AV SW","RETAIL DEALER - PREMISES","DOWNTOWN COMMERCIAL CORE","Renewal Licensed","2007-05-22T00:00:00.000","-114.0805077624049","51.049167221616536"
"NOODLE KING VIETNAMESE RESTAURANT","#119 2323 32 AV NE","FOOD SERVICE - PREMISES (SEATING)","SOUTH AIRWAYS","Pending Renewal","2007-10-01T00:00:00.000","-114.00564304193621","51.08003537893462"
"MRS. CLEAN / GARY'S PAINTING SERVICES","#112 7710 5 ST SE","CONTRACTOR (NO PROVINCIAL LICENCE REQUIRED)","FAIRVIEW INDUSTRIAL","Renewal Licensed","2019-07-02T00:00:00.000","-114.04913359958593","50.98492525773827"
"MOBILE DOOR & CARPENTRY SERVICES","#9 7003 30 ST SE","MANUFACTURER","FOOTHILLS","Renewal Licensed","2011-08-24T00:00:00.000","-113.9849786120809","50.99126753023804"
"BLACKLINE SAFETY","#100 803 24 AV SE","MANUFACTURER","RAMSAY","Renewal Licensed","2019-02-13T00:00:00.000","-114.04409531914422","51.03151814065861"
"TRUCKCESSORIES","4135 EDMONTON TR NE","RETAIL DEALER - PREMISES","GREENVIEW INDUSTRIAL PARK","Renewal Licensed","2016-05-03T00:00:00.000","-114.0528951700265","51.0893410385948"
"VIA CIBO","#2 7929 11 ST SE","OUTDOOR PATIO","EAST FAIRVIEW INDUSTRIAL","Renewal Licensed","2016-09-19T00:00:00.000","-114.04283124508483","50.98400110293149"
"MYO LAB","#300 227 10 ST NW","PERSONAL SERVICE (FITNESS CONDITIONING)","HILLHURST","Renewal Licensed","2017-11-21T00:00:00.000","-114.08627720046482","51.053714827708355"
"LAST BEST BREWING & DISTILLING EATERY & BREWPUB","607 11 AV SW","ALCOHOL BEVERAGE MANUFACTURER","BELTLINE","Renewal Licensed","2015-04-09T00:00:00.000","-114.0746042807776","51.04259663250798"
"PROMOTION AUTO & TRUCK SALES","#B 4053 OGDEN RD SE","MOTOR VEHICLE DEALER - PREMISES","ALYTH/BONNYBROOK","Renewal Licensed","2014-12-11T00:00:00.000","-114.02597240082163","51.01826612585972"
"AMAX AUTO BODY & REPAIR","#149 1807 60 ST SE","AUTO BODY SHOP","FOREST LAWN INDUSTRIAL","Renewal Licensed","2011-03-28T00:00:00.000","-113.94766458961452","51.03677677450395"
"COUNTRY HILLS FLOWERS","#256 388 COUNTRY HILLS BV NE","RETAIL DEALER - PREMISES","COUNTRY HILLS VILLAGE","Renewal Licensed","2019-04-18T00:00:00.000","-114.06632135986307","51.155462398039724"
"SPECTRUM SUPPLY CHAIN SOLUTIONS","#200 6060 90 AV SE","WAREHOUSING","SECTION 23","Renewal Licensed","2017-09-27T00:00:00.000","-113.94929720742061","50.97334490630172"
"A & W RESTAURANT","3663 12 AV NE","RETAIL DEALER - PREMISES","FRANKLIN","Renewal Licensed","2014-09-16T00:00:00.000","-113.98243838651621","51.06236452461058"
"CHANDA PRECISION MOTORWORKS","#101 519 34 AV SE","MOTOR VEHICLE REPAIR AND SERVICE (1)","MANCHESTER INDUSTRIAL","Renewal Licensed","2012-07-10T00:00:00.000","-114.05209455509554","51.022973227414106"
"FIRE N ICE","854 16 AV SW","ALCOHOL BEVERAGE SALES (DRINKING EST/RESTAURANT)","BELTLINE","Renewal Licensed","2011-01-24T00:00:00.000","-114.08063693488731","51.0383090052754"
"BIOI","#2 1336 9 AV SE","CONTRACTOR","INGLEWOOD","Renewal Licensed","2015-04-17T00:00:00.000","-114.03199943700562","51.040553474872475"
"VALUE BUDS AT RIVERBEND","#424 8338 18 ST SE","RETAIL DEALER - PREMISES","RIVERBEND","Renewal Licensed","2021-04-30T00:00:00.000","-114.01492419410738","50.97672539165003"
"VALUE BUDS AT 4TH AVENUE","#C 526 4 AV SW","CANNABIS STORE","DOWNTOWN COMMERCIAL CORE","Renewal Licensed","2021-04-30T00:00:00.000","-114.07275896924769","51.049970490918724"
"CHAMPION JANITORIAL SERVICES","#1113 3961 52 AV NE","CLEANING SERVICE (COMMERCIAL ONLY)","WESTWINDS","Pending Renewal","2011-09-27T00:00:00.000","-113.97692315854101","51.099695060773264"
"SHEAR ATTITUDE","#201 819 17 AV SW","PERSONAL SERVICE","MOUNT ROYAL LOWER","Pending Renewal","1998-08-06T00:00:00.000","-114.08054622945784","51.037581761461425"
"VALUE BUDS AT RIVERBEND","#424 8338 18 ST SE","CANNABIS STORE","RIVERBEND","Renewal Licensed","2021-04-30T00:00:00.000","-114.01492419410738","50.97672539165003"
"A & W RESTAURANT","3663 12 AV NE","FOOD SERVICE - PREMISES (SEATING)","FRANKLIN","Renewal Licensed","2014-09-16T00:00:00.000","-113.98243838651621","51.06236452461058"
"DRIVERZ AUTO SALES","#7 625 77 AV SE","MOTOR VEHICLE DEALER - PREMISES","FAIRVIEW INDUSTRIAL","Renewal Licensed","2015-04-02T00:00:00.000","-114.04989184547841","50.98403524916714"
"LITTLE SHOP OF PLEASURES","6411A BOWNESS RD NW","RETAIL DEALER - PREMISES","BOWNESS","Renewal Licensed","2007-09-06T00:00:00.000","-114.18071855351268","51.08571423186687"
"SOHO 1","738 14 AV SW","APARTMENT BUILDING OPERATOR (4 OR MORE STOREYS)","BELTLINE","Renewal Licensed","2018-05-07T00:00:00.000","-114.07877952722215","51.04008106269588"
"EUROPEAN SPA","#103 1905 CENTRE ST NW","PERSONAL SERVICE (TATTOO)","TUXEDO PARK","Pending Renewal","2004-07-21T00:00:00.000","-114.06290701387496","51.06916029716016"
"VINT HAUS (THE)","#36 12204 40 ST SE","ALCOHOL BEVERAGE MANUFACTURER","EAST SHEPARD INDUSTRIAL","Renewal Licensed","2018-07-09T00:00:00.000","-113.97313712771998","50.94055442552655"
"VALUE BUDS AT COUNTRY HILLS","#252 388 COUNTRY HILLS BV NE","RETAIL DEALER - PREMISES","COUNTRY HILLS VILLAGE","Renewal Licensed","2021-04-30T00:00:00.000","-114.06617645402206","51.155492298485626"
"QUEEN PEOPLES PHARMACY","#32 4604 37 ST SW","FOOD SERVICE - PREMISES","RUTLAND PARK","Pending Renewal","2020-06-08T00:00:00.000","-114.13993430532918","51.013032956985114"
"ALBERTA CHROME & GRINDING","4726 1 ST SE","RETAIL DEALER - PREMISES","MANCHESTER INDUSTRIAL","Renewal Licensed","2001-08-29T00:00:00.000","-114.06192406914563","51.00976033564991"
"CONUVO CONSTRUCTION MATERIALS","#130 10555 74 ST SE","WHOLESALER","EAST SHEPARD INDUSTRIAL","Licensed","2022-01-04T00:00:00.000","-113.928560494787","50.964166645615805"
"GWAILO","1214C 9 AV SE","FOOD SERVICE - PREMISES (SEATING)","INGLEWOOD","Licensed","2022-02-24T00:00:00.000","-114.03587584164212","51.042014449363926"
"EILEEN FISHER","#1135 6455 MACLEOD TR SW","RETAIL DEALER - PREMISES","MEADOWLARK PARK","Renewal Licensed","2014-07-21T00:00:00.000","-114.07247432044568","51.00003614574507"
"OGDEN WHISTLE PUB (THE)","7025 OGDEN RD SE","FOOD SERVICE - PREMISES (SEATING)","OGDEN","Pending Renewal","2011-09-30T00:00:00.000","-114.0006424850347","50.98911306854421"
"NYSTIL CUSTOM CABINETS","3820 EDMONTON TR NE","MANUFACTURER","GREENVIEW INDUSTRIAL PARK","Renewal Licensed","2008-12-08T00:00:00.000","-114.05086218884108","51.08658117798644"
"KAWA ESPRESSO BAR","#101 1333 8 ST SW","ALCOHOL BEVERAGE SALES (RESTAURANT)","BELTLINE","Renewal Licensed","2008-12-10T00:00:00.000","-114.082052106479","51.04032713464226"
"LASHES & HONEY","#109 535 8 AV SE","PERSONAL SERVICE (INDEPENDENT CHAIR OPERATOR)","DOWNTOWN EAST VILLAGE","Renewal Licensed","2020-08-18T00:00:00.000","-114.05127457927493","51.04503757493831"
"PAPA SHUNDE CHINESE RESTAURANT","246 HAWKSTONE DR NW","FOOD SERVICE - PREMISES (SEATING)","HAWKWOOD","Licensed","2022-02-21T00:00:00.000","-114.17359370736978","51.13548273839605"
"STYLE ENCORE","#227 227 153 AV SE","RETAIL DEALER - PREMISES","MIDNAPORE","Renewal Licensed","2019-05-03T00:00:00.000","-114.06308073392123","50.91541083519531"
"STREET CANDY","#A 6204 30 ST SE","MOTOR VEHICLE REPAIR AND SERVICE (2-PROV N/R)","FOOTHILLS","Licensed","2021-07-26T00:00:00.000","-113.98574980393647","50.99821559962306"
"MEDIMAX PHARMACY","#240 520 3 AV SW","RETAIL DEALER - PREMISES","EAU CLAIRE","Renewal Licensed","2019-09-23T00:00:00.000","-114.07211311580654","51.05085990312888"
"METROVINO","#B 722 11 AV SW","LIQUOR STORE","BELTLINE","Renewal Licensed","1996-08-19T00:00:00.000","-114.07786505882234","51.04303457126698"
"GET SHAPED EYEBROW  AND BEAUTY BAR","#4K 1632 14 AV NW","PERSONAL SERVICE","HOUNSFIELD HEIGHTS/BRIAR HILL","Licensed","2021-11-25T00:00:00.000","-114.09980884609942","51.06592131851892"
"PAPER AND INK BOUTIQUE (THE)","#171 5330 72 AV SE","RETAIL DEALER - PREMISES","GREAT PLAINS","Renewal Licensed","2018-03-27T00:00:00.000","-113.95709622303694","50.99027125288676"
"AZZURRI PIZZERIA","#B 2404 EDMONTON TR NE","ALCOHOL BEVERAGE SALES (RESTAURANT)","WINSTON HEIGHTS/MOUNTVIEW","Renewal Licensed","2015-05-12T00:00:00.000","-114.05589791200288","51.07358241862371"
"COUNTRY MALT GROUP","#105 7007 54 ST SE","FOOD SERVICE - PREMISES","GREAT PLAINS","Renewal Licensed","2018-04-10T00:00:00.000","-113.95731606995675","50.99257854272936"
"TRANSFORMATION FINE ART","#202 815 1 ST SW","RETAIL DEALER - PREMISES","DOWNTOWN COMMERCIAL CORE","Pending Renewal","2017-09-06T00:00:00.000","-114.06577815318701","51.04494104434576"
"EXCEL HOMES LIMITED PARTNERSHIP","#200 1710 14 AV NW","CONTRACTOR","HOUNSFIELD HEIGHTS/BRIAR HILL","Renewal Licensed","2003-10-01T00:00:00.000","-114.10052923194014","51.06544480429998"
"KANPAI SUSHI ON 8TH","#110 1414 8 ST SW","ALCOHOL BEVERAGE SALES (RESTAURANT)","BELTLINE","Renewal Licensed","2012-11-15T00:00:00.000","-114.08129764614958","51.03978825936585"
"SHAWARMA CAIRO AND PIZZA","717 EDMONTON TR NE","FOOD SERVICE - PREMISES (NO SEATING)","CRESCENT HEIGHTS","Licensed","2022-02-16T00:00:00.000","-114.05463314368012","51.058487843317714"
"NORMANDEAU INTERIORS","#109 6490 OLD BANFF COACH RD SW","CONTRACTOR","PATTERSON","Pending Renewal","2012-10-31T00:00:00.000","-114.18074756563136","51.06115952809661"
"VARSTEEL SPECIALTY METALS","#3 5608 BURBANK CR SE","WAREHOUSING","BURNS INDUSTRIAL","Renewal Licensed","2013-08-20T00:00:00.000","-114.04562972154633","51.00575327286798"
"ART SPACE AND DESIGN","#321 751 3 ST SW","RETAIL DEALER - PREMISES","DOWNTOWN COMMERCIAL CORE","Pending Renewal","2018-08-20T00:00:00.000","-114.0709358110056","51.04623431144919"
"MARATHON FASTENERS AND HARDWARE","#40 5251 48 AV SE","WHOLESALER","EASTFIELD","Renewal Licensed","2018-07-10T00:00:00.000","-113.95971640009887","51.00990938458107"
"CALMET INDUSTRIAL SUPPLY","#40 3270 46 AV SE","WHOLESALER","GOLDEN TRIANGLE","Pending Renewal","2015-10-22T00:00:00.000","-113.98694943634649","51.01267734249116"
"CRESCENT HEIGHTS BBQ CHICKEN","1115 CENTRE ST NW","FOOD SERVICE - PREMISES (SEATING)","CRESCENT HEIGHTS","Licensed","2022-07-20T00:00:00.000","-114.06281143258087","51.061813181919376"
"BLACKLINE SAFETY","#100 803 24 AV SE","WHOLESALER","RAMSAY","Renewal Licensed","2019-02-13T00:00:00.000","-114.04409531914422","51.03151814065861"
"PHO-HOLIC","554A NORTHMOUNT DR NW","FOOD SERVICE - PREMISES (NO SEATING)","CAMBRIAN HEIGHTS","Renewal Licensed","2020-03-17T00:00:00.000","-114.08571234661021","51.0883090170785"
"RUSSO STYLE","#301 508 24 AV SW","PERSONAL SERVICE (INDEPENDENT CHAIR OPERATOR)","CLIFF BUNGALOW","Renewal Licensed","2021-04-28T00:00:00.000","-114.07189156594264","51.03176240716225"
"LADYICY BRAIDING & HAIR EXTENSIONS","#101 5810 2 ST SW","PERSONAL SERVICE","MANCHESTER","Licensed","2022-05-31T00:00:00.000","-114.06831908233615","51.00200911501103"
"BEDDINGTON PHYSIOTHERAPY","#206 8120 BEDDINGTON BV NW","MASSAGE CENTRE (COMMERCIAL)","BEDDINGTON HEIGHTS","Pending Renewal","2017-11-08T00:00:00.000","-114.07383863738806","51.12741816506589"
"NORTHWEST FLORIST","#7139 8650 112 AV NW","RETAIL DEALER - PREMISES","ROYAL VISTA","Pending Renewal","2019-11-14T00:00:00.000","-114.21147125835827","51.15215277873166"
"AVENIDA ART & FRAMING GALLERY","#2 625 77 AV SE","MANUFACTURER","FAIRVIEW INDUSTRIAL","Renewal Licensed","2018-04-24T00:00:00.000","-114.04989184547841","50.98403524916714"
"CALGARY CO-OP WINES & SPIRITS - ROCKY RIDGE","#2002 11595 ROCKYVALLEY DR NW","FOOD SERVICE - PREMISES","ROCKY RIDGE","Pending Renewal","2009-10-20T00:00:00.000","-114.25505017058559","51.14759931014861"
"FRESHII","#3107 15 SUNPARK PZ SE","FOOD SERVICE - PREMISES (SEATING)","SUNDANCE","Pending Renewal","2015-09-01T00:00:00.000","-114.05913451292037","50.904500800183435"
"EXCELL AUTO CENTER","323 36 AV SE","MOTOR VEHICLE DEALER - PREMISES","MANCHESTER INDUSTRIAL","Pending Renewal","1994-10-07T00:00:00.000","-114.05851409071275","51.02111434141358"
"GONG KEE BBQ NOODLE HOUSE","#5 4527 8 AV SE","FOOD SERVICE - PREMISES (SEATING)","FOREST LAWN","Renewal Licensed","2013-04-09T00:00:00.000","-113.96919990928664","51.04434929994185"
"REENA FABRIC SAREE CENTER","#533 5075 FALCONRIDGE BV NE","RETAIL DEALER - PREMISES","WESTWINDS","Renewal Licensed","2018-03-27T00:00:00.000","-113.96160453414991","51.096841054104644"
"BETHLEHEM MASSAGE","3511 17 AV SE","PERSONAL SERVICE","SOUTHVIEW","Renewal Licensed","2016-11-17T00:00:00.000","-113.98365970558484","51.03750949631849"
"QUEEN OF HEARTS","#101 510 21 AV SW","MASSAGE CENTRE (COMMERCIAL)","CLIFF BUNGALOW","Licensed","2022-05-24T00:00:00.000","-114.07213079799162","51.03447529513623"
"PAPA SHUNDE CHINESE RESTAURANT","246 HAWKSTONE DR NW","ALCOHOL BEVERAGE SALES (RESTAURANT)","HAWKWOOD","Licensed","2022-02-21T00:00:00.000","-114.17359370736978","51.13548273839605"
"VALUE BUDS SUNRIDGE","2111 36 ST NE","CANNABIS STORE","SUNRIDGE","Renewal Licensed","2021-04-30T00:00:00.000","-113.98258434676941","51.07193397257846"
"PRO BINDERY SERVICES","#152 4925 BARLOW TR NE","MANUFACTURER","CALGARY INTERNATIONAL AIRPORT","Renewal Licensed","2020-08-17T00:00:00.000","-114.00487908749021","51.096701120568014"
"CALGARY CO-OP WINES & SPIRITS - ROCKY RIDGE","#2002 11595 ROCKYVALLEY DR NW","LIQUOR STORE","ROCKY RIDGE","Pending Renewal","2009-10-20T00:00:00.000","-114.25505017058559","51.14759931014861"
"IMAGE360 CALGARY SOUTH","3424 114 AV SE","CONTRACTOR (NO PROVINCIAL LICENCE REQUIRED)","SHEPARD INDUSTRIAL","Renewal Licensed","2020-03-12T00:00:00.000","-113.98748073519575","50.94997579127992"
"DOMINO'S PIZZA","6544 4 ST NE","FOOD SERVICE - PREMISES (NO SEATING)","HUNTINGTON HILLS","Pending Renewal","2021-07-16T00:00:00.000","-114.05592701778734","51.111688305296504"
"ARGOS BUILDING SOLUTIONS","#7 417 53 AV SE","CLEANING SERVICE (COMMERCIAL & RESIDENTIAL)","MANCHESTER INDUSTRIAL","Renewal Licensed","2021-03-02T00:00:00.000","-114.05551180988438","51.005519765103315"
"FRAGMENTS HAIR DESIGN","#2 735 12 AV SW","PERSONAL SERVICE","BELTLINE","Pending Renewal","2019-10-03T00:00:00.000","-114.07862927856162","51.04155563420085"
"HIGH LINE BREWING","#113 1318 9 AV SE","ALCOHOL BEVERAGE MANUFACTURER","INGLEWOOD","Renewal Licensed","2016-09-13T00:00:00.000","-114.03281667110504","51.04112225381788"
"CALGARY CO-OP CANNABIS HAMPTONS","#614 1000 HAMPTONS DR NW","RETAIL DEALER - PREMISES","HAMPTONS","Pending Renewal","2018-04-24T00:00:00.000","-114.13038335981743","51.14267638314904"
"SABA HAIR EXTENSIONS","#316 751 3 ST SW","RETAIL DEALER - PREMISES","DOWNTOWN COMMERCIAL CORE","Pending Renewal","2021-08-11T00:00:00.000","-114.0709358110056","51.04623431144919"
"DAILY LIQUOR","7531 MACLEOD TR SW","FOOD SERVICE - PREMISES","KINGSLAND","Renewal Licensed","2001-09-11T00:00:00.000","-114.07240046306131","50.98609179365569"
"WENDY'S HAIR SALON","#103 1540 NORTHMOUNT DR NW","PERSONAL SERVICE","BRENTWOOD","Renewal Licensed","2010-03-04T00:00:00.000","-114.13947747243076","51.096674604669815"
"REDING INSTRUMENT SERVICES LTD","#1A 3600 21 ST NE","MANUFACTURER","NORTH AIRWAYS","Renewal Licensed","2002-10-07T00:00:00.000","-114.00746888425925","51.08433102876988"
"LANGNER EQUIPMENT SALES","#3 3700 78 AV SE","RETAIL DEALER - PREMISES","FOOTHILLS","Licensed","2022-03-04T00:00:00.000","-113.98088948096127","50.983000503684885"
"BLUELEAF","#201 7211 8 ST NE","WAREHOUSING","DEERFOOT BUSINESS CENTRE","Renewal Licensed","2019-04-23T00:00:00.000","-114.04525790994346","51.11757599282569"
"FRESHGO","#3 3419 12 ST NE","RETAIL DEALER - PREMISES","MCCALL","Renewal Licensed","2021-04-09T00:00:00.000","-114.03081140132089","51.08226327716437"
"LAST BEST BREWING & DISTILLING EATERY & BREWPUB","607 11 AV SW","OUTDOOR PATIO","BELTLINE","Renewal Licensed","2015-04-09T00:00:00.000","-114.0746042807776","51.04259663250798"
"ELEVATE MULTIDISCIPLINARY HEALTH AND REHABILITATION CENTRE","#305 6940 FISHER RD SE","FOOD SERVICE - PREMISES","FAIRVIEW INDUSTRIAL","Renewal Licensed","2018-04-18T00:00:00.000","-114.06742351223856","50.99285762462998"
"27 BOUTIQUE","#125 10836 24 ST SE","RETAIL DEALER - PREMISES","SHEPARD INDUSTRIAL","Licensed","2022-02-23T00:00:00.000","-113.99956687078934","50.95503430038874"
"FISH CREEK SPORTS CLUB","#1 259 MIDPARK WY SE","PERSONAL SERVICE","MIDNAPORE","Renewal Licensed","2003-07-28T00:00:00.000","-114.06364498607854","50.9120555115199"
"BRITISH AUTO SPECIALISTS","423A 38 AV NE","MOTOR VEHICLE REPAIR AND SERVICE (1)","GREENVIEW INDUSTRIAL PARK","Renewal Licensed","2007-03-14T00:00:00.000","-114.05311658521258","51.086542167200435"
"AND SOME FLOWER","#1 540 7 AV NW","RETAIL DEALER - PREMISES","SUNNYSIDE","Licensed","2022-01-14T00:00:00.000","-114.07556832356308","51.05943102615116"
"GLO ANTI-AGING TREATMENT BAR","#100 1601 WESTMOUNT RD NW","PERSONAL SERVICE","HILLHURST","Licensed","2022-05-12T00:00:00.000","-114.09515851658702","51.05178140113824"
"VALUE BUDS AT FOREST LAWN","#11 5147 20 AV SE","RETAIL DEALER - PREMISES","FOREST LAWN INDUSTRIAL","Renewal Licensed","2021-04-30T00:00:00.000","-113.9595379990353","51.035166597100435"
"DOMINO PIZZA","#22 1015 CENTRE ST NW","RETAIL DEALER - PREMISES","CRESCENT HEIGHTS","Renewal Licensed","2021-07-16T00:00:00.000","-114.0629898877902","51.06126900178485"
"TRAILMASTER OFF ROAD","1225 45 AV NE","MANUFACTURER","MCCALL","Renewal Licensed","1994-10-07T00:00:00.000","-114.03538172023222","51.093003781471666"
"CETUS AUTOMOTIVE REPAIR AND SERVICE","3005 23 ST NE","MOTOR VEHICLE REPAIR AND SERVICE (1)","SOUTH AIRWAYS","Renewal Licensed","2020-03-23T00:00:00.000","-114.00559492039415","51.07922266931034"
"GRETA FOOD TRUCK","213 10 AV SW","FULL SERVICE FOOD VEHICLE","BELTLINE","Renewal Licensed","2021-03-26T00:00:00.000","-114.06656205002217","51.043160363256874"
"HOTSHOP YOGA","#128 119 12 AV SW","SCHOOL (PROV. NOT REQUIRED)","BELTLINE","Renewal Licensed","2013-07-22T00:00:00.000","-114.06471548912234","51.04108237947646"
"DOMINOS PIZZA","#140 30 SPRINGBOROUGH BV SW","FOOD SERVICE - PREMISES (NO SEATING)","SPRINGBANK HILL","Renewal Licensed","2009-12-14T00:00:00.000","-114.19179904807957","51.0345617949334"
"AUTOMOTIVE VILLAGE NE","1633 32 AV NE","RETAIL DEALER - PREMISES","SOUTH AIRWAYS","Renewal Licensed","2017-04-03T00:00:00.000","-114.02178973323322","51.081005727192924"
"STARDIP.COM","4801 WESTWINDS DR NE","RETAIL DEALER - PREMISES","WESTWINDS","Renewal Licensed","2013-02-01T00:00:00.000","-113.96535420591974","51.09973212824557"
"LAST BEST BREWING & DISTILLING EATERY & BREWPUB","607 11 AV SW","FOOD SERVICE - PREMISES (SEATING)","BELTLINE","Renewal Licensed","2015-04-09T00:00:00.000","-114.0746042807776","51.04259663250798"
"LAPORTE CUSTOM STONE","#9 7635 44 ST SE","MANUFACTURER","FOOTHILLS","Renewal Licensed","2016-07-05T00:00:00.000","-113.97146939283009","50.986061929210166"
"RICKY'S ALL DAY GRILL","#620 500 COUNTRY HILLS BV NE","ALCOHOL BEVERAGE SALES (RESTAURANT)","COUNTRY HILLS VILLAGE","Renewal Licensed","2017-03-09T00:00:00.000","-114.05482514095874","51.155432042116516"
"HONG AN VIETNAMESE CUISINE","#230 4600 130 AV SE","ALCOHOL BEVERAGE SALES (RESTAURANT)","EAST SHEPARD INDUSTRIAL","Renewal Licensed","2016-04-01T00:00:00.000","-113.96898449450082","50.93299022031412"
"GONG KEE BBQ NOODLE HOUSE","#5 4527 8 AV SE","ALCOHOL BEVERAGE SALES (RESTAURANT)","FOREST LAWN","Renewal Licensed","2013-04-09T00:00:00.000","-113.96919990928664","51.04434929994185"
"OMN AUTO GALLERY","1710 21 ST NE","RETAIL DEALER - PREMISES","SOUTH AIRWAYS","Licensed","2022-02-02T00:00:00.000","-114.00861256254021","51.06741336098553"
"OPTIMUM WELLNESS CENTRES SHAWNESSY VILLAGE","#124 70 SHAWVILLE BV SE","MASSAGE CENTRE (COMMERCIAL)","SHAWNESSY","Renewal Licensed","1997-05-01T00:00:00.000","-114.06568788050629","50.90655935785031"
"JD SPORTS","#200 6455 MACLEOD TR SW","RETAIL DEALER - PREMISES","MEADOWLARK PARK","Licensed","2022-03-28T00:00:00.000","-114.07367018750668","50.99801742927944"
"VALUE BUDS AT 17TH AVENUE","1206 17 AV SW","CANNABIS STORE","BELTLINE","Renewal Licensed","2021-04-30T00:00:00.000","-114.08964839949229","51.03814995633656"
"SUNBIRD MANUFACTURING","#1070 4385 104 AV SE","MANUFACTURER","EAST SHEPARD INDUSTRIAL","Renewal Licensed","2008-06-10T00:00:00.000","-113.97224437927967","50.95982997488494"
"VALUE BUDS AT COUNTRY HILLS","#252 388 COUNTRY HILLS BV NE","CANNABIS STORE","COUNTRY HILLS VILLAGE","Renewal Licensed","2021-04-30T00:00:00.000","-114.06617645402206","51.155492298485626"
"MEGA SANJHA PUNJAB GROCERY STORE","606 CITYSCAPE SQ NE","RETAIL DEALER - PREMISES","CITYSCAPE","Licensed","2022-03-03T00:00:00.000","-113.96884001946066","51.146834387197536"
"RUNDLE BIKE","#10 1431 40 AV NE","RETAIL DEALER - PREMISES","MCCALL","Licensed","2022-06-15T00:00:00.000","-114.02953066621431","51.088100969460065"
"JHT FITNESS CANADA","#9 7130 FISHER RD SE","RETAIL DEALER - PREMISES","FAIRVIEW INDUSTRIAL","Renewal Licensed","2020-03-23T00:00:00.000","-114.06743233398855","50.9903440848162"
"FITHOUSE","245 61 AV SE","FOOD SERVICE - PREMISES","MANCHESTER INDUSTRIAL","Renewal Licensed","2018-04-25T00:00:00.000","-114.06022316551085","50.99750664715101"
"KUNG FU TEA HILLHURST","105 19 ST NW","FOOD SERVICE - PREMISES (SEATING)","WEST HILLHURST","Licensed","2021-09-07T00:00:00.000","-114.10580823248257","51.05318962870602"
"LINDAL CEDAR HOMES","#210 1228 KENSINGTON RD NW","CONTRACTOR","HILLHURST","Licensed","2020-01-31T00:00:00.000","-114.09057445319955","51.05275344322531"
"HULA CHINOOK","#6F 6455 MACLEOD TR SW","FOOD SERVICE - PREMISES","MEADOWLARK PARK","Renewal Licensed","2018-05-22T00:00:00.000","-114.07367018750668","50.99801742927944"
"BENZING CHARLEBOIS FURS","1005 2 ST SW","RETAIL DEALER - PREMISES","BELTLINE","Renewal Licensed","2007-08-10T00:00:00.000","-114.06834426054543","51.04287365883472"
"MR. PRETZELS","#7K 2525 36 ST NE","FOOD SERVICE - PREMISES (NO SEATING)","SUNRIDGE","Licensed","2022-07-11T00:00:00.000","-113.98559185613476","51.07411782465096"
"FLOWER CHIX","#107 1919 SOUTHLAND DR SW","MANUFACTURER","BRAESIDE","Renewal Licensed","2018-08-20T00:00:00.000","-114.10457263524826","50.96082163587894"
"AMBER IS A COLOR","226 RIVERFRONT AV SW","PERSONAL SERVICE (INDEPENDENT CHAIR OPERATOR)","CHINATOWN","Licensed","2021-09-07T00:00:00.000","-114.06671480441585","51.05252202764359"
"MANSOUR'S","#127 5005 DALHOUSIE DR NW","RETAIL DEALER - PREMISES","DALHOUSIE","Renewal Licensed","1999-04-16T00:00:00.000","-114.16097446136855","51.106434685347324"
"PIZZA 73","#2108 380 CANYON MEADOWS DR SE","FOOD SERVICE - PREMISES (NO SEATING)","LAKE BONAVISTA","Renewal Licensed","2008-01-08T00:00:00.000","-114.06460829383863","50.93126998452196"
"MARSHALLS","#100 7337 MACLEOD TR SW","RETAIL DEALER - PREMISES","KINGSLAND","Renewal Licensed","2014-06-23T00:00:00.000","-114.07278357975753","50.988935683905375"
"SON-RISE PLUMBING & GASFITTING","#16 2280 39 AV NE","CONTRACTOR (NO PROVINCIAL LICENCE REQUIRED)","NORTH AIRWAYS","Renewal Licensed","2014-07-31T00:00:00.000","-114.00657448441596","51.088696501436964"
"CSTAR AGENCY","1155A 44 AV SE","DATING SERVICE OR ESCORT SERVICE","HIGHFIELD","Renewal Licensed","2018-06-26T00:00:00.000","-114.03862356982782","51.01343044362858"
"FLASH TATTOO REMOVAL","1530 9 AV SE","PERSONAL SERVICE","INGLEWOOD","Renewal Licensed","2019-04-12T00:00:00.000","-114.0268914218459","51.03862471827917"
"URBAN BARN","80 CROWFOOT TC NW","RETAIL DEALER - PREMISES","ARBOUR LAKE","Renewal Licensed","2004-03-02T00:00:00.000","-114.20115039094257","51.12877732730049"
"PESHAWARI KABAB HUT","#232 55 WESTWINDS CR NE","FOOD SERVICE - PREMISES (SEATING)","WESTWINDS","Renewal Licensed","2020-07-22T00:00:00.000","-113.96984883652607","51.1072990746361"
"ZIEBART","#6 1511 HIGHFIELD CR SE","MOTOR VEHICLE REPAIR AND SERVICE (1)","HIGHFIELD","Licensed","2021-12-20T00:00:00.000","-114.0323267934101","51.007316405752526"
"BELL","#101 751 3 ST SW","RETAIL DEALER - PREMISES","DOWNTOWN COMMERCIAL CORE","Renewal Licensed","2009-08-17T00:00:00.000","-114.0709358110056","51.04623431144919"
"MICHAELS #3903","#130 350 SHAWVILLE BV SE","FOOD SERVICE - PREMISES","SHAWNESSY","Renewal Licensed","1999-01-07T00:00:00.000","-114.06231151358332","50.89868714154635"
"INSTANT CASH","4420C 17 AV SE","RETAIL DEALER - PREMISES","FOREST LAWN","Renewal Licensed","2013-08-08T00:00:00.000","-113.97023230650647","51.0382181162087"
"PABLO CALGARY","602B 16 AV NW","RETAIL DEALER - PREMISES","MOUNT PLEASANT","Renewal Licensed","2021-04-08T00:00:00.000","-114.07435294342385","51.06729238632996"
"ADLITE PLASTICS AND LIGHTING","#1 1236 38 AV NE","RETAIL DEALER - PREMISES","MCCALL","Renewal Licensed","2014-09-17T00:00:00.000","-114.03340743640989","51.08757376980526"
"AUTOMOTIVE VILLAGE NE","1633 32 AV NE","WHOLESALER","SOUTH AIRWAYS","Renewal Licensed","2017-04-03T00:00:00.000","-114.02178973323322","51.081005727192924"
"MARYNA LITOVTSEVA","#305 8180 MACLEOD TR SE","RETAIL DEALER - PREMISES","FAIRVIEW","Renewal Licensed","2021-03-19T00:00:00.000","-114.0704091161515","50.98183873626229"
"SAVINGS EXPRESS","#140 75 CORNER MEADOWS PA NE","RETAIL DEALER - PREMISES","CORNERSTONE","Renewal Licensed","2021-05-11T00:00:00.000","-113.93417709218573","51.150914794905006"
"SAM'S LIQUOR STORE","#12 3304 64 ST NE","LIQUOR STORE","TEMPLE","Renewal Licensed","2015-07-17T00:00:00.000","-113.94035965189667","51.082000216419196"
"TREASURE OF SAIGON","6432 OLD BANFF COACH RD SW","FOOD SERVICE - PREMISES (SEATING)","PATTERSON","Renewal Licensed","2008-12-16T00:00:00.000","-114.1800170504755","51.060799592378466"
"VALUE BUDS AT WOODBINE","#206 2525 WOODVIEW DR SW","CANNABIS STORE","WOODBINE","Renewal Licensed","2021-04-30T00:00:00.000","-114.11961885676851","50.94022272891085"
"COMIC TRADERS","#131 755 LAKE BONAVISTA DR SE","RETAIL DEALER - PREMISES","LAKE BONAVISTA","Renewal Licensed","2018-04-18T00:00:00.000","-114.04708928082678","50.94224791163975"
"NAMSKAR INDIAN CUISINE","#B 202 16 AV NE","ALCOHOL BEVERAGE SALES (RESTAURANT)","TUXEDO PARK","Renewal Licensed","2003-06-06T00:00:00.000","-114.05964901231388","51.0671942859716"
"EXCHANGE GIFTS & CONVENIENCE STORE","#250 300 5 AV SW","TOBACCO RETAILER","DOWNTOWN COMMERCIAL CORE","Renewal Licensed","2013-01-24T00:00:00.000","-114.06831051776395","51.04883440169486"
"VALUE BUDS AT 4TH AVENUE","#C 526 4 AV SW","RETAIL DEALER - PREMISES","DOWNTOWN COMMERCIAL CORE","Renewal Licensed","2021-04-30T00:00:00.000","-114.07275896924769","51.049970490918724"
"LOCAL LAUNDRY","#A 4120 8 ST SE","RETAIL DEALER - PREMISES (MAIL ORDER)","HIGHFIELD","Licensed","2022-03-23T00:00:00.000","-114.0419236631133","51.01744238846452"
"5 SENSES RAMEN & SUSHI BAR","634A 17 AV SW","FOOD SERVICE - PREMISES (SEATING)","BELTLINE","Renewal Licensed","2015-05-08T00:00:00.000","-114.07651641536287","51.038017370438155"
"INS MARKET - INTACT PLACE","#224 321 6 AV SW","TOBACCO RETAILER","DOWNTOWN COMMERCIAL CORE","Renewal Licensed","2017-04-19T00:00:00.000","-114.06938006428264","51.04738650622787"
"MYO LAB","#300 227 10 ST NW","RETAIL DEALER - PREMISES","HILLHURST","Renewal Licensed","2017-11-21T00:00:00.000","-114.08627720046482","51.053714827708355"
"ROCKY MOUNTAIN MILLWORK","3833 12 ST NE","CONTRACTOR","MCCALL","Renewal Licensed","2009-04-16T00:00:00.000","-114.03140904219399","51.08642757472533"
"CORNER FRAMING STUDIO","3713 17 AV SW","MANUFACTURER","KILLARNEY/GLENGARRY","Renewal Licensed","2002-03-25T00:00:00.000","-114.14082617482813","51.037569351435515"
"ICON BUILDING ENVELOPE GROUP","#123 7725 56 ST SE","CONTRACTOR (NO PROVINCIAL LICENCE REQUIRED)","GREAT PLAINS","Renewal Licensed","2021-08-04T00:00:00.000","-113.95284115572112","50.98489328567312"
"CREATIONS BY CASABLANCA","#3 6626 CENTRE ST SE","RETAIL DEALER - PREMISES","MANCHESTER INDUSTRIAL","Renewal Licensed","2002-05-08T00:00:00.000","-114.06329487234594","50.994508045717964"
"HERITAGE WINE & SPIRITS","8419 ELBOW DR SW","RETAIL DEALER - PREMISES","HAYSBORO","Renewal Licensed","2013-01-18T00:00:00.000","-114.0838333781574","50.9787498399792"
"BAR PATRICIA / INFINITY ULTRA LOUNGE / TAQUERIA EL CHEFE / PLEASE DONT TELL","811 1 ST SW","FOOD SERVICE - PREMISES (SEATING)","DOWNTOWN COMMERCIAL CORE","Renewal Licensed","2019-04-30T00:00:00.000","-114.06577815318701","51.04494104434576"
"DIVINE MINE (THE)","#222 11566 24 ST SE","RETAIL DEALER - PREMISES","SHEPARD INDUSTRIAL","Renewal Licensed","2004-06-29T00:00:00.000","-114.0017433535189","50.95098969848315"
"SUNDANCE PLUMBING GAS & HEATING","#102 3506 118 AV SE","CONTRACTOR","SHEPARD INDUSTRIAL","Renewal Licensed","2006-04-13T00:00:00.000","-113.98763913102049","50.94751511573476"
"JOBSITE TWO","#6 5269 MEMORIAL DR SE","ALCOHOL BEVERAGE SALES (DRINKING EST/RESTAURANT)","FOREST HEIGHTS","Renewal Licensed","2003-04-16T00:00:00.000","-113.95720491766394","51.052651411637704"
"RACQUET CENTRAL","2035 26 AV SW","RETAIL DEALER - PREMISES","SOUTH CALGARY","Renewal Licensed","2009-04-09T00:00:00.000","-114.10908016810644","51.030196535778586"
"DOMINO PIZZA","#22 1015 CENTRE ST NW","FOOD SERVICE - PREMISES (NO SEATING)","CRESCENT HEIGHTS","Renewal Licensed","2021-07-16T00:00:00.000","-114.0629898877902","51.06126900178485"
"CALGARY FARMER'S MARKET","#2 510 77 AV SE","OUTDOOR PATIO","FAIRVIEW INDUSTRIAL","Renewal Licensed","2014-08-22T00:00:00.000","-114.051466347153","50.98514584359185"
"MOON TEA HOUSE (THE)","212 14 AV SE","FOOD SERVICE - PREMISES (SEATING)","BELTLINE","Renewal Licensed","2021-04-09T00:00:00.000","-114.06051303088934","51.03960783219828"
"FRANK'S EUROPEAN BAKERY","5570 56 AV SE","FOOD SERVICE - PREMISES","STARFIELD","Renewal Licensed","2001-05-18T00:00:00.000","-113.95147647380455","51.00231028239125"
"SUBWAY (DEERFOOT MALL)","#111 951 64 AV NE","FOOD SERVICE - PREMISES (SEATING)","DEERFOOT BUSINESS CENTRE","Renewal Licensed","2018-03-19T00:00:00.000","-114.04192248419002","51.11008618016116"
"TREASURE OF SAIGON","6432 OLD BANFF COACH RD SW","ALCOHOL BEVERAGE SALES (RESTAURANT)","PATTERSON","Renewal Licensed","2008-12-16T00:00:00.000","-114.1800170504755","51.060799592378466"
"FLOWER CHIX","#4 2333 18 AV NE","WHOLESALER","SOUTH AIRWAYS","Renewal Licensed","2021-03-23T00:00:00.000","-114.00527719660444","51.06852805683517"
"HOME STYLE SUPPLIES","#122 3442 118 AV SE","RETAIL DEALER - PREMISES","SHEPARD INDUSTRIAL","Renewal Licensed","2020-08-21T00:00:00.000","-113.98879224224616","50.947756898125505"
"LIQUOR AROMA","#114 30 CRESTRIDGE CM SW","LIQUOR STORE","CRESTMONT","Licensed","2022-03-17T00:00:00.000","-114.270839482087","51.08598995021373"
"VALUE BUDS SUNRIDGE","2111 36 ST NE","RETAIL DEALER - PREMISES","SUNRIDGE","Renewal Licensed","2021-04-30T00:00:00.000","-113.98258434676941","51.07193397257846"
"BOOSTER JUICE","#23 275 SHAWVILLE BV SE","FOOD SERVICE - PREMISES (NO SEATING)","SHAWNESSY","Renewal Licensed","2020-07-29T00:00:00.000","-114.06789578158683","50.9014672287711"
"ELEVATE MULTIDISCIPLINARY HEALTH AND REHABILITATION CENTRE","#305 6940 FISHER RD SE","RETAIL DEALER - PREMISES","FAIRVIEW INDUSTRIAL","Renewal Licensed","2018-04-18T00:00:00.000","-114.06742351223856","50.99285762462998"
"MADRAS CAFE","175A 52 ST SE","FOOD SERVICE - PREMISES (SEATING)","FOREST HEIGHTS","Renewal Licensed","2015-05-07T00:00:00.000","-113.9561881077912","51.05261730550013"
"BROKEN SPIRITS DISTILLERY","#4 3320 14 AV NE","OUTDOOR PATIO","FRANKLIN","Renewal Licensed","2020-01-30T00:00:00.000","-113.98651461062252","51.0656973781163"
"CRISTY'S ROTISERRIE CHICKEN","2775 32 AV NE","FOOD SERVICE - PREMISES (SEATING)","SUNRIDGE","Renewal Licensed","1997-02-12T00:00:00.000","-113.9956729388335","51.081021998235535"
"LITTLE CAESARS","#112 1625 210 AV SE","FOOD SERVICE - PREMISES (NO SEATING)","LEGACY","Renewal Licensed","2018-04-09T00:00:00.000","-114.02536385080192","50.86355108458011"
"DEVOUR CATERING","538 42 AV SE","FOOD SERVICE - PREMISES (NO SEATING)","MANCHESTER INDUSTRIAL","Renewal Licensed","2019-07-19T00:00:00.000","-114.05098172645381","51.01657120230029"
"BURNIN BIRD","606 17 AV SW","ALCOHOL BEVERAGE SALES (RESTAURANT)","BELTLINE","Licensed","2021-09-01T00:00:00.000","-114.07481600003165","51.037984732809704"
"STRIDES RUNNING STORE","#1119 380 CANYON MEADOWS DR SE","FOOD SERVICE - PREMISES","LAKE BONAVISTA","Renewal Licensed","2015-03-10T00:00:00.000","-114.06493706527948","50.93073624200489"
"AL-HEDAYA ISLAMIC CENTRE","112 SAVANNA AV NE","CHARITABLE ORGANIZATION","SADDLE RIDGE","Renewal Licensed","2019-07-16T00:00:00.000","-113.96469486459529","51.13405395650675"
"SPECTRUM MASSAGE THERAPY & ACUPUNCTURE","#602 5920 1A ST SW","RETAIL DEALER - PREMISES","MANCHESTER INDUSTRIAL","Renewal Licensed","2021-03-15T00:00:00.000","-114.06691744609658","50.99998361580848"
"ANTHONY ASHMAN TATTOOS","1331 9 AV SE","PERSONAL SERVICE (TATTOO)","INGLEWOOD","Renewal Licensed","2021-07-26T00:00:00.000","-114.03251176165313","51.04041179901462"
"HERITAGE WINE & SPIRITS","8419 ELBOW DR SW","LIQUOR STORE","HAYSBORO","Renewal Licensed","2013-01-18T00:00:00.000","-114.0838333781574","50.9787498399792"
"VALUE BUDS AT FOREST LAWN","#11 5147 20 AV SE","CANNABIS STORE","FOREST LAWN INDUSTRIAL","Renewal Licensed","2021-04-30T00:00:00.000","-113.9595379990353","51.035166597100435"
"OPTIMUM ON SITE","#9 5268 MEMORIAL DR NE","BODY RUB CENTRE (GRANDFATHERED MASSAGE CENTRE COMMERCIAL)","MARLBOROUGH","Renewal Licensed","2009-08-13T00:00:00.000","-113.95662028362528","51.053787038315505"
"URBAN AESTHETICS","1014 MACLEOD TR SE","RETAIL DEALER - PREMISES","BELTLINE","Renewal Licensed","2021-08-03T00:00:00.000","-114.05811197801447","51.042800165490014"
"JOBSITE TWO","#6 5269 MEMORIAL DR SE","FOOD SERVICE - PREMISES (SEATING)","FOREST HEIGHTS","Renewal Licensed","2003-04-16T00:00:00.000","-113.95720491766394","51.052651411637704"
"DIAMOND NAILS AND SPA","#24 4604 37 ST SW","PERSONAL SERVICE","RUTLAND PARK","Licensed","2022-04-21T00:00:00.000","-114.13961616079804","51.01337704408406"
"EMCO","6812L 6 ST SE","WHOLESALER","EAST FAIRVIEW INDUSTRIAL","Licensed","2021-09-23T00:00:00.000","-114.04691157177308","50.9931334451311"
"FRUIT BOX (THE)","#115 11929 40 ST SE","FOOD SERVICE - PREMISES","EAST SHEPARD INDUSTRIAL","Renewal Licensed","2015-03-25T00:00:00.000","-113.97686547073353","50.943906241718786"
"LOMANA STUDIO","#8 3304 64 ST NE","PERSONAL SERVICE","TEMPLE","Renewal Licensed","2021-05-12T00:00:00.000","-113.94044246163995","51.08194221229253"
"FLOWER CHIX","#4 2333 18 AV NE","RETAIL DEALER - PREMISES","SOUTH AIRWAYS","Renewal Licensed","2021-03-23T00:00:00.000","-114.00527719660444","51.06852805683517"
"AND SOME FLOWER","#1 540 7 AV NW","FOOD SERVICE - PREMISES (SEATING)","SUNNYSIDE","Licensed","2022-01-14T00:00:00.000","-114.07556832356308","51.05943102615116"
"OHANA CARE","#156 8888 COUNTRY HILLS BV NW","PERSONAL SERVICE","ROYAL VISTA","Renewal Licensed","2018-06-12T00:00:00.000","-114.21284897625213","51.151037828278724"
"KENWOOD CUSTOM WOODWORK","#3 3360 14 AV NE","MANUFACTURER","FRANKLIN","Renewal Licensed","1998-04-28T00:00:00.000","-113.98580979646533","51.06581274940848"
"TV SHOWCASE","#1172 3800 MEMORIAL DR NE","RETAIL DEALER - PREMISES","MARLBOROUGH","Renewal Licensed","2015-05-20T00:00:00.000","-113.97822929795056","51.05498690408264"
"LYNNWOOD AUTO REPAIR","6811 OGDEN RD SE","MOTOR VEHICLE REPAIR AND SERVICE (1)","OGDEN","Renewal Licensed","2019-02-13T00:00:00.000","-114.0023576151903","50.99144243404101"
"FACE SHOP (THE)","#186 6455 MACLEOD TR SW","RETAIL DEALER - PREMISES","MEADOWLARK PARK","Renewal Licensed","2009-06-18T00:00:00.000","-114.07418349399072","50.99702433306774"
"RED SWAN PIZZA","6411B BOWNESS RD NW","FOOD SERVICE - PREMISES (NO SEATING)","BOWNESS","Renewal Licensed","2018-04-18T00:00:00.000","-114.1807712060865","51.08573584256433"
"FASHION ADDITION","#118 10816 MACLEOD TR SE","RETAIL DEALER - PREMISES","WILLOW PARK","Renewal Licensed","2003-07-07T00:00:00.000","-114.06925448789409","50.957378672167486"
"PROACTIVE DRIVING SCHOOL","#160 4039 BRENTWOOD RD NW","SCHOOL (DRIVER EDUCATION)","BRENTWOOD","Renewal Licensed","2019-03-15T00:00:00.000","-114.13307990827305","51.08849696297884"
"MOON TEA HOUSE (THE)","212 14 AV SE","RETAIL DEALER - PREMISES","BELTLINE","Renewal Licensed","2021-04-09T00:00:00.000","-114.06051303088934","51.03960783219828"
"CONUVO CONSTRUCTION MATERIALS","#130 10555 74 ST SE","RETAIL DEALER - PREMISES","EAST SHEPARD INDUSTRIAL","Licensed","2022-01-04T00:00:00.000","-113.928560494787","50.964166645615805"
"CHINESE CULTURAL CENTRE CUISINE","#88 197 1 ST SW","FOOD SERVICE - PREMISES (SEATING)","CHINATOWN","Renewal Licensed","2017-04-04T00:00:00.000","-114.0654761909377","51.05130932217889"
"ROCKY MOUNTAIN MILLWORK","3833 12 ST NE","MANUFACTURER","MCCALL","Renewal Licensed","2009-04-16T00:00:00.000","-114.03140904219399","51.08642757472533"
"PORTUGUESE SOCIETY OF CALGARY","4888 35 ST SE","FOOD SERVICE - PREMISES","EASTFIELD","Renewal Licensed","2003-03-11T00:00:00.000","-113.98109999893552","51.01078265595755"
"VALUE BUDS AT WOODBINE","#206 2525 WOODVIEW DR SW","RETAIL DEALER - PREMISES","WOODBINE","Renewal Licensed","2021-04-30T00:00:00.000","-114.11961885676851","50.94022272891085"
"RUNDLE BIKE","#10 1431 40 AV NE","WHOLESALER","MCCALL","Licensed","2022-06-15T00:00:00.000","-114.02953066621431","51.088100969460065"
"M&M FOOD MARKET - CROWFOOT","#113 150 CROWFOOT CR NW","FOOD SERVICE - PREMISES","ARBOUR LAKE","Renewal Licensed","2019-07-18T00:00:00.000","-114.19680315258985","51.12760516899381"
"VALUE BUDS AT 17TH AVENUE","1206 17 AV SW","RETAIL DEALER - PREMISES","BELTLINE","Renewal Licensed","2021-04-30T00:00:00.000","-114.08964839949229","51.03814995633656"
"EXCHANGE GIFTS & CONVENIENCE STORE","#250 300 5 AV SW","FOOD SERVICE - PREMISES","DOWNTOWN COMMERCIAL CORE","Renewal Licensed","2013-01-24T00:00:00.000","-114.06831051776395","51.04883440169486"
"PARAMOUNT PROJECTS","#310 4723 1 ST SW","CONTRACTOR (NO PROVINCIAL LICENCE REQUIRED)","MANCHESTER","Renewal Licensed","2018-05-08T00:00:00.000","-114.06607140045308","51.0101594851662"
"NAKED ELECTROLYSIS","#120 6108 BOWNESS RD NW","PERSONAL SERVICE","BOWNESS","Licensed","2022-01-19T00:00:00.000","-114.1737798129667","51.08368245786233"
"BOXSMITH MODERN GIFTS","#14 5660 10 ST NE","RETAIL DEALER - PREMISES (MAIL ORDER)","SKYLINE EAST","Renewal Licensed","2021-07-22T00:00:00.000","-114.03718491762486","51.104064114521556"
"EDO JAPAN","#109 391 ASPEN GLEN LD SW","FOOD SERVICE - PREMISES (SEATING)","ASPEN WOODS","Renewal Licensed","2009-08-25T00:00:00.000","-114.21035293526899","51.04134844994511"
"HAPPY HERO (CGY-761)","4305 54 AV SE","FULL SERVICE FOOD VEHICLE","FOOTHILLS","Renewal Licensed","2018-06-07T00:00:00.000","-113.97363609672156","51.00351199307719"
"LOCAL LAUNDRY","#A 4120 8 ST SE","DISTRIBUTION MANAGER","HIGHFIELD","Licensed","2022-03-23T00:00:00.000","-114.0419236631133","51.01744238846452"
"PORTUGUESE SOCIETY OF CALGARY","4888 35 ST SE","CHARITABLE ORGANIZATION","EASTFIELD","Renewal Licensed","2003-03-11T00:00:00.000","-113.98109999893552","51.01078265595755"
"HUNGRY HERO (CGY-415)","4305 54 AV SE","FULL SERVICE FOOD VEHICLE","FOOTHILLS","Renewal Licensed","2018-06-07T00:00:00.000","-113.97363609672156","51.00351199307719"
"BLISS AND CO CUPCAKES AND DESSERTS","#120 30 BRENTWOOD CM NW","RETAIL DEALER - PREMISES","BRENTWOOD","Licensed","2022-01-11T00:00:00.000","-114.1289353204738","51.087144499293"
"SAL'S PIZZA","#6 718 17 AV SW","ALCOHOL BEVERAGE SALES (RESTAURANT)","BELTLINE","Licensed","2022-05-20T00:00:00.000","-114.07792176989315","51.038145795350836"
"BLUELEAF","#201 7211 8 ST NE","WHOLESALER","DEERFOOT BUSINESS CENTRE","Renewal Licensed","2019-04-23T00:00:00.000","-114.04525790994346","51.11757599282569"
"LEROUX STUDIOS - LEROUX LOFT","#B 812 EDMONTON TR NE","SCHOOL (PROV. NOT REQUIRED)","RENFREW","Renewal Licensed","2021-04-21T00:00:00.000","-114.05404355242011","51.058895351362565"
"MAJESTIC HYDROTEST AND FIRE EXTINGUISHER SERVICES","#36 4807 32 ST SE","RETAIL DEALER - PREMISES","GOLDEN TRIANGLE","Move in Progress","2021-11-25T00:00:00.000","-113.98767544281141","51.01068881812363"
"206 MASSAGE","#206 120 16 AV NE","MASSAGE CENTRE (COMMERCIAL)","TUXEDO PARK","Renewal Licensed","2021-07-12T00:00:00.000","-114.06119002076518","51.067195134614195"
"RAPID RESPONSE RESTORATION","7862 10 ST NE","CONTRACTOR","DEERFOOT BUSINESS CENTRE","Renewal Licensed","2015-06-29T00:00:00.000","-114.04136191664551","51.121437667517164"
"BAR PATRICIA / INFINITY ULTRA LOUNGE / TAQUERIA EL CHEFE / PLEASE DONT TELL","811 1 ST SW","OUTDOOR PATIO","DOWNTOWN COMMERCIAL CORE","Renewal Licensed","2019-04-30T00:00:00.000","-114.06577815318701","51.04494104434576"
"K-THI VIET CUISINE","2135 33 AV SW","FOOD SERVICE - PREMISES (SEATING)","SOUTH CALGARY","Renewal Licensed","2013-04-30T00:00:00.000","-114.1114321705153","51.023795276925995"
"EVEREST WINE & SPIRITS","#232 7171 80 AV NE","RETAIL DEALER - PREMISES","TARADALE","Renewal Licensed","2014-10-16T00:00:00.000","-113.93150693932967","51.12465683450042"
"KHAN MEDICAL SUPPLIES","#219 5925 12 ST SE","RETAIL DEALER - PREMISES (MAIL ORDER)","BURNS INDUSTRIAL","Renewal Licensed","2020-05-19T00:00:00.000","-114.0344478219777","51.00050520176015"
"IMAGINE HEALTH CENTRE","#4120 15 SUNPARK PZ SE","MASSAGE CENTRE (COMMERCIAL)","SUNDANCE","Renewal Licensed","2012-11-21T00:00:00.000","-114.05874304907945","50.905399354542425"
"MYO LAB","#300 227 10 ST NW","FOOD SERVICE - PREMISES","HILLHURST","Renewal Licensed","2017-11-21T00:00:00.000","-114.08627720046482","51.053714827708355"
"SEN VIETNAMESE KITCHEN","#31 4307 130 AV SE","FOOD SERVICE - PREMISES (SEATING)","MCKENZIE TOWNE","Renewal Licensed","2018-04-10T00:00:00.000","-113.97192133191474","50.930218044126825"
"CNM CONSTRUCTION","#20 666 GODDARD AV NE","CONTRACTOR (NO PROVINCIAL LICENCE REQUIRED)","SKYLINE WEST","Renewal Licensed","2018-05-18T00:00:00.000","-114.04989856707662","51.09875471605616"
"CALGARY CO-OP WINES & SPIRITS - #35 KINGSLAND","6907 MACLEOD TR SW","FOOD SERVICE - PREMISES","KINGSLAND","Renewal Licensed","2010-05-12T00:00:00.000","-114.07283081767787","50.991761244377464"
"AVENIDA ART & FRAMING GALLERY","#2 625 77 AV SE","RETAIL DEALER - PREMISES","FAIRVIEW INDUSTRIAL","Renewal Licensed","2018-04-24T00:00:00.000","-114.04989184547841","50.98403524916714"
"KAYA WELLNESS CENTRE","#210 435 4 AV SW","MASSAGE CENTRE (COMMERCIAL)","DOWNTOWN COMMERCIAL CORE","Licensed","2022-06-24T00:00:00.000","-114.07103181203958","51.049261715467026"
"LAURA BROWS","#5 7 PARKDALE CR NW","RETAIL DEALER - PREMISES","PARKDALE","Renewal Licensed","2017-03-31T00:00:00.000","-114.1354471431024","51.05819234120783"
"JOBSITE TWO","#6 5269 MEMORIAL DR SE","AMUSEMENT ARCADE","FOREST HEIGHTS","Renewal Licensed","2003-04-16T00:00:00.000","-113.95720491766394","51.052651411637704"
"AL-HEDAYA ISLAMIC CENTRE","112 SAVANNA AV NE","SCHOOL (PROV. NOT REQUIRED)","SADDLE RIDGE","Renewal Licensed","2019-07-16T00:00:00.000","-113.96469486459529","51.13405395650675"
"JC SALON AND SPA","#6 7640 FAIRMOUNT DR SE","PERSONAL SERVICE","FAIRVIEW","Renewal Licensed","2013-03-27T00:00:00.000","-114.05924182001809","50.985389199884594"
"BURNIN BIRD","606 17 AV SW","FOOD SERVICE - PREMISES (SEATING)","BELTLINE","Licensed","2021-09-01T00:00:00.000","-114.07481600003165","51.037984732809704"
"VEGAS NAILS & SPA","#107A 4014 MACLEOD TR SE","PERSONAL SERVICE (INDEPENDENT CHAIR OPERATOR)","MANCHESTER INDUSTRIAL","Renewal Licensed","2019-04-14T00:00:00.000","-114.0626558542157","51.017646807292444"
"UPPER KUTZ","4524A EDMONTON TR NE","PERSONAL SERVICE","GREENVIEW INDUSTRIAL PARK","Renewal Licensed","2016-12-07T00:00:00.000","-114.05276322925819","51.09364132078219"
"JOBSITE TWO","#6 5269 MEMORIAL DR SE","ENTERTAINMENT ESTABLISHMENT","FOREST HEIGHTS","Renewal Licensed","2003-04-16T00:00:00.000","-113.95720491766394","51.052651411637704"
"NICOLE SANDERS HAIR","#300 508 24 AV SW","PERSONAL SERVICE (INDEPENDENT CHAIR OPERATOR)","CLIFF BUNGALOW","Renewal Licensed","2019-03-26T00:00:00.000","-114.07193614216631","51.03180566540066"
"CRIMSON AND CLOVIS","#210 927 10 AV SW","PERSONAL SERVICE","BELTLINE","Licensed","2022-06-13T00:00:00.000","-114.0830442904733","51.04369028640996"
"MACAO IMPERIAL TEA - EVANSTON","#2028 2060 SYMONS VALLEY PY NW","FOOD SERVICE - PREMISES (SEATING)","EVANSTON","Licensed","2022-05-18T00:00:00.000","-114.10829896727047","51.17461489340119"
"IMAGINE HEALTH CENTRE","#4120 15 SUNPARK PZ SE","PERSONAL SERVICE","SUNDANCE","Renewal Licensed","2012-11-21T00:00:00.000","-114.05874304907945","50.905399354542425"
"NAMSKAR INDIAN CUISINE","#B 202 16 AV NE","OUTDOOR PATIO","TUXEDO PARK","Renewal Licensed","2003-06-06T00:00:00.000","-114.05964901231388","51.0671942859716"
"KANPAI SUSHI ON 8TH","#110 1414 8 ST SW","FOOD SERVICE - PREMISES (SEATING)","BELTLINE","Renewal Licensed","2012-11-15T00:00:00.000","-114.08129764614958","51.03978825936585"
"MAXIMUM METAL RECYCLING","530 38A AV SE","SALVAGE YARD/AUTO WRECKER","MANCHESTER INDUSTRIAL","Renewal Licensed","2014-08-11T00:00:00.000","-114.05467746901842","51.019954262598425"
"FINGERS 'N TOES NAIL SALON","#118 4909 17 AV SE","PERSONAL SERVICE (INDEPENDENT CHAIR OPERATOR)","FOREST LAWN INDUSTRIAL","Move in Progress","2021-01-12T00:00:00.000","-113.96348770005719","51.03653675760129"
"U PLUS TRADING","#103 1144 29 AV NE","WHOLESALER","SOUTH AIRWAYS","Renewal Licensed","2021-06-30T00:00:00.000","-114.02906804238184","51.07916597059895"
"37TH STREET BARBER SHOP","#26 4604 37 ST SW","RETAIL DEALER - PREMISES","RUTLAND PARK","Renewal Licensed","2014-03-25T00:00:00.000","-114.13966079627963","51.013330028096284"
"FUJI RAMEN AND SUSHI","#111 12100 MACLEOD TR SE","ALCOHOL BEVERAGE SALES (RESTAURANT)","LAKE BONAVISTA","Renewal Licensed","2020-01-03T00:00:00.000","-114.06896035443044","50.94485318452151"
"REXALL PHARMACIES #9806","#120 4448 FRONT ST SE","FOOD SERVICE - PREMISES","SETON","Renewal Licensed","2016-07-29T00:00:00.000","-113.95279895456788","50.88163177221792"
"MARYNA LITOVTSEVA","#305 8180 MACLEOD TR SE","PERSONAL SERVICE (TATTOO)","FAIRVIEW","Renewal Licensed","2021-03-19T00:00:00.000","-114.0704091161515","50.98183873626229"
"MADIS XL","#27 9510 114 AV SE","MANUFACTURER","RESIDUAL WARD 12 - SUB AREA 12A","Renewal Licensed","2012-09-25T00:00:00.000","-113.89541518036245","50.95107481311222"
"GOOD EARTH COFFEE HOUSE CENTENNIAL PLACE","#110 520 3 AV SW","RETAIL DEALER - PREMISES","EAU CLAIRE","Renewal Licensed","2018-05-22T00:00:00.000","-114.07211311580654","51.05085990312888"
"GO GLASS & ACCESSORIES","#121 10836 24 ST SE","MOTOR VEHICLE REPAIR AND SERVICE (1)","SHEPARD INDUSTRIAL","Renewal Licensed","2014-02-24T00:00:00.000","-113.99957182236263","50.955204658475836"
"SUNDANCE PLUMBING GAS & HEATING","#102 3506 118 AV SE","WAREHOUSING","SHEPARD INDUSTRIAL","Renewal Licensed","2006-04-13T00:00:00.000","-113.98763913102049","50.94751511573476"
"LINDT","1403 4 ST SW","FOOD SERVICE - PREMISES (SEATING)","BELTLINE","Renewal Licensed","2013-03-27T00:00:00.000","-114.07225211433847","51.03949917599494"
"MEGA LIQUOR STORE","#190 495 36 ST NE","LIQUOR STORE","FRANKLIN","Renewal Licensed","2018-04-25T00:00:00.000","-113.98529973863707","51.055975482531935"
"SPIRITS OF DOVER","4028 26 ST SE","LIQUOR STORE","DOVER","Licensed","2022-03-21T00:00:00.000","-113.9984871179965","51.01803967324281"
"WYNN NAILS & SPA","#120 2971 136 AV NW","PERSONAL SERVICE","SAGE HILL","Licensed","2022-01-18T00:00:00.000","-114.13263605609849","51.175640099643275"
"MEGA SANJHA PUNJAB GROCERY STORE","#570 6520 FALCONRIDGE BV NE","RETAIL DEALER - PREMISES","TARADALE","Renewal Licensed","2020-05-01T00:00:00.000","-113.94499714789119","51.11161695244579"
"PROTECTIVE SURFACE ENTERPRISES","#18 666 GODDARD AV NE","CONTRACTOR","SKYLINE WEST","Renewal Licensed","2004-03-02T00:00:00.000","-114.04989856707662","51.09875471605616"
"NAM VIETNAMESE KITCHEN","#1F 6455 MACLEOD TR SW","FOOD SERVICE - PREMISES (NO SEATING)","MEADOWLARK PARK","Renewal Licensed","2017-12-13T00:00:00.000","-114.07367018750668","50.99801742927944"
"37TH STREET BARBER SHOP","#26 4604 37 ST SW","PERSONAL SERVICE","RUTLAND PARK","Renewal Licensed","2014-03-25T00:00:00.000","-114.13966079627963","51.013330028096284"
"BERKSHAW CONDOMINIUM MANAGEMENT CORPORATION","#7 1715 27 AV NE","CONTRACTOR (NO PROVINCIAL LICENCE REQUIRED)","SOUTH AIRWAYS","Renewal Licensed","2018-07-23T00:00:00.000","-114.01823911237925","51.07635240433878"
"STRIVE PHYSIOTHERAPY","#202 11 HIDDEN CREEK DR NW","RETAIL DEALER - PREMISES","HIDDEN VALLEY","Renewal Licensed","2014-01-14T00:00:00.000","-114.10618212345551","51.154985237218355"
"ORIGINAL JOE'S RESTAURANT & BAR","#100 1220 KENSINGTON RD NW","FOOD SERVICE - PREMISES (SEATING)","HILLHURST","Renewal Licensed","2011-05-31T00:00:00.000","-114.08982407038786","51.05272320551324"
"LAST BEST BREWING & DISTILLING EATERY & BREWPUB","607 11 AV SW","RETAIL DEALER - PREMISES","BELTLINE","Renewal Licensed","2015-04-09T00:00:00.000","-114.0746042807776","51.04259663250798"
"TOKAIDO RAMEN & BAR","#327 8888 COUNTRY HILLS BV NW","FOOD SERVICE - PREMISES (SEATING)","ROYAL VISTA","Renewal Licensed","2019-03-14T00:00:00.000","-114.21509189096817","51.152140882333235"
"CALGARY CANVAS PRINTING","#1 1303 45 AV NE","RETAIL DEALER - PREMISES","MCCALL","Renewal Licensed","2020-05-28T00:00:00.000","-114.03287878830835","51.09312500947518"
"APOLLO TAEKWON-DO","11 SAGE HILL PS NW","RETAIL DEALER - PREMISES","SAGE HILL","Renewal Licensed","2018-06-22T00:00:00.000","-114.1471963234475","51.16876660583025"
"LEROUX STUDIOS - LEROUX LOFT","#B 812 EDMONTON TR NE","RETAIL DEALER - PREMISES","RENFREW","Renewal Licensed","2021-04-21T00:00:00.000","-114.05404355242011","51.058895351362565"
"NU-VUE GLASS CO","#24 920 28 ST NE","CONTRACTOR (NO PROVINCIAL LICENCE REQUIRED)","FRANKLIN","Renewal Licensed","2015-02-25T00:00:00.000","-113.99203073528285","51.06068014589298"
"SIPS WINE + BEER","#426 12445 LAKE FRASER DR SE","ALCOHOL BEVERAGE SALES (DRINKING EST/RESTAURANT)","LAKE BONAVISTA","Renewal Licensed","2019-01-22T00:00:00.000","-114.06835805848219","50.94141192042831"
"ACMEI","#117 1803 60 ST SE","MANUFACTURER","FOREST LAWN INDUSTRIAL","Renewal Licensed","2018-04-17T00:00:00.000","-113.94792562141957","51.0373555160829"
"V-CARE PHARMACY","4304A 17 AV SE","RETAIL DEALER - PREMISES","FOREST LAWN","Renewal Licensed","2021-05-26T00:00:00.000","-113.97262172032772","51.03812847930283"
"ONE MASSAGE CENTRE (THE)","1919C 31 ST SE","BODY RUB CENTRE","SOUTHVIEW","Renewal Licensed","2021-07-05T00:00:00.000","-113.99052523067897","51.036595826686224"
"ADLITE PLASTICS AND LIGHTING","#1 1236 38 AV NE","WHOLESALER","MCCALL","Renewal Licensed","2014-09-17T00:00:00.000","-114.03340743640989","51.08757376980526"
"ELEVATE MULTIDISCIPLINARY HEALTH AND REHABILITATION CENTRE","#305 6940 FISHER RD SE","MASSAGE CENTRE (COMMERCIAL)","FAIRVIEW INDUSTRIAL","Renewal Licensed","2018-04-18T00:00:00.000","-114.06742351223856","50.99285762462998"
"LOCAL LAUNDRY","#A 4120 8 ST SE","WAREHOUSING","HIGHFIELD","Licensed","2022-03-23T00:00:00.000","-114.0419236631133","51.01744238846452"
"FUJI RAMEN AND SUSHI","#111 12100 MACLEOD TR SE","FOOD SERVICE - PREMISES (SEATING)","LAKE BONAVISTA","Renewal Licensed","2020-01-03T00:00:00.000","-114.06896035443044","50.94485318452151"
"PAINT UR ART OUT","1510 7 ST SW","RETAIL DEALER - PREMISES","BELTLINE","Licensed","2021-09-13T00:00:00.000","-114.07902047362485","51.0384934372371"
"UPS STORE (THE)","#45 2000 AIRPORT RD NE","RETAIL DEALER - PREMISES","CALGARY INTERNATIONAL AIRPORT","Renewal Licensed","2013-05-09T00:00:00.000","-114.01110744045015","51.13106487117581"
"HAIR KIX","#11 8720 MACLEOD TR SE","PERSONAL SERVICE","ACADIA","Renewal Licensed","2003-03-26T00:00:00.000","-114.06993407997416","50.97560924466435"
"SILVER MOUNTAIN (THE)","#15C 6455 MACLEOD TR SW","RETAIL DEALER - PREMISES","MEADOWLARK PARK","Renewal Licensed","2008-07-22T00:00:00.000","-114.07367018750668","50.99801742927944"
"KAWA ESPRESSO BAR","#101 1333 8 ST SW","OUTDOOR PATIO","BELTLINE","Renewal Licensed","2008-12-10T00:00:00.000","-114.082052106479","51.04032713464226"
"ROYAL KABAB EXPRESS","#B  20 14 ST NW","FOOD SERVICE - PREMISES (SEATING)","HILLHURST","Renewal Licensed","2008-12-22T00:00:00.000",,
"HUMPTY'S FAMILY RESTAURANT","6510 4 ST NE","ALCOHOL BEVERAGE SALES (RESTAURANT)","HUNTINGTON HILLS","Renewal Licensed","2018-06-11T00:00:00.000","-114.05619724269188","51.111425588636855"
"DOLPHIN DRYCLEANERS","37 HIGH ST SE","FABRIC CLEANING","MCKENZIE TOWNE","Renewal Licensed","2018-04-17T00:00:00.000","-113.9607846795601","50.91578352057066"
"HONKY TONK BAR AND RESTAURANT","219 10 AV SW","ALCOHOL BEVERAGE SALES (DRINKING EST/RESTAURANT)","BELTLINE","Licensed","2021-04-26T00:00:00.000","-114.06716013731042","51.043181812237115"
"HERITAGE WINE & SPIRITS","8419 ELBOW DR SW","FOOD SERVICE - PREMISES","HAYSBORO","Renewal Licensed","2013-01-18T00:00:00.000","-114.0838333781574","50.9787498399792"
"FASHION ADDITION 14+","#114 10816 MACLEOD TR SE","RETAIL DEALER - PREMISES","WILLOW PARK","Renewal Licensed","2019-04-17T00:00:00.000","-114.06927643979459","50.9574287327229"
"LAST BEST BREWING & DISTILLING EATERY & BREWPUB","607 11 AV SW","ALCOHOL BEVERAGE SALES (DRINKING EST/RESTAURANT)","BELTLINE","Renewal Licensed","2015-04-09T00:00:00.000","-114.0746042807776","51.04259663250798"
"SHOPPERS DRUG MART #353","#1000 150 MILLRISE BV SW","FOOD SERVICE - PREMISES","MILLRISE","Renewal Licensed","2015-05-08T00:00:00.000","-114.07323490918583","50.915323009755035"
"CHOICE OFFICE FURNITURE","#2 5905 11 ST SE","SECONDHAND DEALER","BURNS INDUSTRIAL","Renewal Licensed","2015-04-01T00:00:00.000","-114.03843188644328","51.000902836714936"
"CAN WEST LEGACY","#34 4216 54 AV SE","MANUFACTURER","FOOTHILLS","Renewal Licensed","2013-12-05T00:00:00.000","-113.97566231923729","51.00394356536398"
"BIOI","#2 1336 9 AV SE","RETAIL DEALER - PREMISES","INGLEWOOD","Renewal Licensed","2015-04-17T00:00:00.000","-114.03199943700562","51.040553474872475"
"KAWA ESPRESSO BAR","#101 1333 8 ST SW","ENTERTAINMENT ESTABLISHMENT","BELTLINE","Renewal Licensed","2008-12-10T00:00:00.000","-114.082052106479","51.04032713464226"
"QUICK PRINT","#1 5508 1 ST SE","MANUFACTURER","MANCHESTER INDUSTRIAL","Renewal Licensed","2016-05-31T00:00:00.000","-114.06178604021576","51.00521998854134"
"WESTCAN BUILDERS","#2 4616 6A ST NE","CONTRACTOR","GREENVIEW INDUSTRIAL PARK","Renewal Licensed","2010-01-06T00:00:00.000","-114.04641662594258","51.09365637331688"
"GLOBAL NEWS & TOBACCO","#178 125 9 AV SE","RETAIL DEALER - PREMISES","DOWNTOWN COMMERCIAL CORE","Renewal Licensed","2002-07-23T00:00:00.000","-114.06152710996729","51.04416443494095"
"ORIGINAL JOE'S RESTAURANT & BAR","#100 1220 KENSINGTON RD NW","OUTDOOR PATIO","HILLHURST","Renewal Licensed","2011-05-31T00:00:00.000","-114.08982407038786","51.05272320551324"
"INGEAR STORE","#100 206 10A ST NW","RETAIL DEALER - PREMISES","HILLHURST","Licensed","2022-03-23T00:00:00.000","-114.08682009620588","51.05282374204782"
"YIFANG TAIWAN FRUIT TEA","#A 1607 CENTRE ST NW","FOOD SERVICE - PREMISES (NO SEATING)","CRESCENT HEIGHTS","Licensed","2022-05-16T00:00:00.000","-114.0628312259642","51.066370888397756"
"RGO TECHNOLOGIES","#100 229 33 ST NE","WHOLESALER","FRANKLIN","Pending Renewal","2017-10-31T00:00:00.000","-113.98772142965149","51.05265957180386"
"MUCHO BURRITO","#102 428 36 ST NE","OUTDOOR PATIO","MARLBOROUGH","Renewal Licensed","2014-05-26T00:00:00.000","-113.98110393613662","51.054560797092655"
"JOBSITE TWO","#6 5269 MEMORIAL DR SE","TOBACCO RETAILER","FOREST HEIGHTS","Renewal Licensed","2003-04-16T00:00:00.000","-113.95720491766394","51.052651411637704"
"QUALICASE","2715 61 AV SE","MANUFACTURER","OGDEN SHOPS","Pending Renewal","2001-11-22T00:00:00.000","-113.99702027451767","50.99797406549326"
"KELLY BROTHERS PRODUCTIONS","#400 119 14 ST NW","PHOTOGRAPHER","HILLHURST","Renewal Licensed","2020-07-02T00:00:00.000","-114.0951549254676","51.05317492809362"
"GO GLASS & ACCESSORIES","#121 10836 24 ST SE","RETAIL DEALER - PREMISES","SHEPARD INDUSTRIAL","Renewal Licensed","2014-02-24T00:00:00.000","-113.99957182236263","50.955204658475836"
"KFC (KENTUCKY FRIED CHICKEN)","#2210 6004 COUNTRY HILLS BV NE","FOOD SERVICE - PREMISES (SEATING)","SKYVIEW RANCH","Renewal Licensed","2020-03-31T00:00:00.000","-113.95054326747055","51.155462572314754"
"ONIGIRI JAPAN","#280 801 7 AV SW","FOOD SERVICE - PREMISES (NO SEATING)","DOWNTOWN COMMERCIAL CORE","Renewal Licensed","2018-05-22T00:00:00.000","-114.07928053609892","51.046487745490104"
"SUNBIRD MANUFACTURING","#1070 4385 104 AV SE","CONTRACTOR","EAST SHEPARD INDUSTRIAL","Renewal Licensed","2008-06-10T00:00:00.000","-113.97224437927967","50.95982997488494"
"STAMPEDE ELECTRIC","#16 4041 74 AV SE","CONTRACTOR (NO PROVINCIAL LICENCE REQUIRED)","FOOTHILLS","Licensed","2022-05-19T00:00:00.000","-113.98098029410697","50.98747709185793"
"POPEYES LOUISIANA KITCHEN","4049 MACLEOD TR SW","FOOD SERVICE - PREMISES (SEATING)","PARKHILL","Licensed","2022-05-25T00:00:00.000","-114.06365938130271","51.017870541838484"
"BOTANECO","#134 2985 23 AV NE","MANUFACTURER","SUNRIDGE","Licensed","2022-06-08T00:00:00.000","-113.99410693070145","51.071202164769225"
"JHT FITNESS CANADA","#9 7130 FISHER RD SE","WHOLESALER","FAIRVIEW INDUSTRIAL","Renewal Licensed","2020-03-23T00:00:00.000","-114.06743233398855","50.9903440848162"
"STAR CHOICE COFFEE SERVICES","#14 2928 18 ST NE","FOOD SERVICE - PREMISES","SOUTH AIRWAYS","Renewal Licensed","2009-08-18T00:00:00.000","-114.01374911946581","51.078758828410685"
"CAL-MED THERAPEUTIC MASSAGE","#107 12018 SYMONS VALLEY RD NW","MASSAGE CENTRE (COMMERCIAL)","EVANSTON","Pending Renewal","2017-10-13T00:00:00.000","-114.12300316773278","51.161876733878984"
"MUCHO BURRITO","160 STEWART GR SW","ALCOHOL BEVERAGE SALES (RESTAURANT)","SIGNAL HILL","Renewal Licensed","2015-03-12T00:00:00.000","-114.16739484563689","51.016314256450876"
"JCI SAND SEPARATORS","2929 15 ST NE","MANUFACTURER","SOUTH AIRWAYS","Renewal Licensed","2015-07-06T00:00:00.000","-114.02360460213312","51.078646923599344"
"DEVILLE COFFEE","#292 10816 MACLEOD TR SE","FOOD SERVICE - PREMISES (SEATING)","WILLOW PARK","Licensed","2022-06-07T00:00:00.000","-114.07007443958811","50.95668450676442"
"AYDIN'S NAILS & SPA","#7143 8650 112 AV NW","PERSONAL SERVICE","ROYAL VISTA","Renewal Licensed","2013-07-31T00:00:00.000","-114.21137882457343","51.152128575048835"
"OSTERIA DE MEDICI RESTAURANT","#4 201 10 ST NW","OUTDOOR PATIO","HILLHURST","Renewal Licensed","1997-03-14T00:00:00.000","-114.08636585960392","51.05276284056905"
"DYNAMITE BOXING & FITNESS CLUB","#5 1715 27 AV NE","SCHOOL (PROV. NOT REQUIRED)","SOUTH AIRWAYS","Renewal Licensed","2019-02-07T00:00:00.000","-114.01823911237925","51.07635240433878"
"SIZZLING GRILL","#2170 4310 104 AV NE","OUTDOOR PATIO","STONEY 3","Renewal Licensed","2021-08-20T00:00:00.000","-113.97082103053391","51.14853149147745"
"TELUS","#263 6455 MACLEOD TR SW","RETAIL DEALER - PREMISES","MEADOWLARK PARK","Pending Renewal","2012-10-31T00:00:00.000","-114.07367018750668","50.99801742927944"
"BATL GLOBAL","#80 2151 32 ST NE","ENTERTAINMENT ESTABLISHMENT","SUNRIDGE","Renewal Licensed","2015-03-10T00:00:00.000","-113.99001195024255","51.070355426136956"
"CALGARY INSTITUTE OF CLINICAL AESTHETICIANS","#1114 12 ROYAL VISTA WY NW","SCHOOL (PROV. NOT REQUIRED)","ROYAL VISTA","Licensed","2021-10-01T00:00:00.000","-114.2063490104958","51.15252691265038"
"TELEPHONE BOOTH (THE)","#156 6455 MACLEOD TR SW","RETAIL DEALER - PREMISES","MEADOWLARK PARK","Renewal Licensed","2009-02-24T00:00:00.000","-114.07421250742657","50.99975368276405"
"FITHOUSE","245 61 AV SE","SCHOOL (PROV. NOT REQUIRED)","MANCHESTER INDUSTRIAL","Renewal Licensed","2018-04-25T00:00:00.000","-114.06022316551085","50.99750664715101"
"BATL GLOBAL","#80 2151 32 ST NE","ALCOHOL BEVERAGE SALES (DRINKING EST/RESTAURANT)","SUNRIDGE","Renewal Licensed","2015-03-10T00:00:00.000","-113.99001195024255","51.070355426136956"
"GOOD SALON","1345 9 AV SE","RETAIL DEALER - PREMISES","INGLEWOOD","Renewal Licensed","2021-07-16T00:00:00.000","-114.03221863598347","51.0402718919538"
"CALGARY CO-OP WINES & SPIRITS - #35 KINGSLAND","6907 MACLEOD TR SW","LIQUOR STORE","KINGSLAND","Renewal Licensed","2010-05-12T00:00:00.000","-114.07283081767787","50.991761244377464"
"STAR JEWELLERS","#1118 4310 104 AV NE","RETAIL DEALER - PREMISES","STONEY 3","Renewal Licensed","2020-08-04T00:00:00.000","-113.97179895044331","51.147512430556354"
"CUBIC HAIR ART","#24 132 3 AV SE","PERSONAL SERVICE","CHINATOWN","Renewal Licensed","2009-07-27T00:00:00.000","-114.06083271433397","51.05060133722302"
"SAFEWAY #874","375 ASPEN GLEN LD SW","RETAIL DEALER - PREMISES","ASPEN WOODS","Pending Renewal","2013-09-20T00:00:00.000","-114.20884884684857","51.041021942644385"
"BROKEN SPIRITS DISTILLERY","#4 3320 14 AV NE","ALCOHOL BEVERAGE MANUFACTURER","FRANKLIN","Renewal Licensed","2020-01-30T00:00:00.000","-113.98651461062252","51.0656973781163"
"2359418 ALBERTA","#115 1925 18 AV NE","CONTRACTOR (NO PROVINCIAL LICENCE REQUIRED)","VISTA HEIGHTS","Renewal Licensed","2021-07-23T00:00:00.000","-114.01585201828603","51.067975529326965"
"COOKBOOK CO","#A 722 11 AV SW","RETAIL DEALER - PREMISES","BELTLINE","Renewal Licensed","1996-10-25T00:00:00.000","-114.07786505882234","51.04303457126698"
"STRIVE PHYSIOTHERAPY","#202 11 HIDDEN CREEK DR NW","MASSAGE CENTRE (COMMERCIAL)","HIDDEN VALLEY","Renewal Licensed","2014-01-14T00:00:00.000","-114.10618212345551","51.154985237218355"
"ALANA RICH","#205 8855 MACLEOD TR SW","PERSONAL SERVICE (INDEPENDENT CHAIR OPERATOR)","HAYSBORO","Pending Renewal","2018-10-04T00:00:00.000","-114.07288271615975","50.97463743825049"
"PET VALU BRAE CENTRE","#43 11440 BRAESIDE DR SW","RETAIL DEALER - PREMISES","BRAESIDE","Pending Renewal","2017-10-02T00:00:00.000","-114.11691788121384","50.95296072932099"
"BLONDE HUSTLER (THE)","#301 4620 BOW TR SW","PERSONAL SERVICE (INDEPENDENT CHAIR OPERATOR)","WILDWOOD","Licensed","2022-03-22T00:00:00.000","-114.15334799043895","51.04936079112329"
"MAJESTIC HYDROTEST AND FIRE EXTINGUISHER SERVICES","#36 4807 32 ST SE","CONTRACTOR (NO PROVINCIAL LICENCE REQUIRED)","GOLDEN TRIANGLE","Move in Progress","2021-11-25T00:00:00.000","-113.98767544281141","51.01068881812363"
"PENBROOKE LIQUOR","#318 5320 8 AV SE","LIQUOR STORE","PENBROOKE MEADOWS","Renewal Licensed","2009-03-10T00:00:00.000","-113.9566207300514","51.04582791288877"
"COOKBOOK CO","#A 722 11 AV SW","ALCOHOL BEVERAGE SALES (RESTAURANT)","BELTLINE","Renewal Licensed","1996-10-25T00:00:00.000","-114.07786505882234","51.04303457126698"
"SHELF LIFE BOOKS","#100 1302 4 ST SW","RETAIL DEALER - PREMISES","BELTLINE","Renewal Licensed","2010-06-09T00:00:00.000","-114.07122242078944","51.04048992919178"
"BLISS AND CO CUPCAKES AND DESSERTS","#120 30 BRENTWOOD CM NW","FOOD SERVICE - PREMISES","BRENTWOOD","Licensed","2022-01-11T00:00:00.000","-114.1289353204738","51.087144499293"
"CALGARY CO-OP GAS BAR #26","#200 100 AUBURN MEADOWS DR SE","TOBACCO RETAILER","AUBURN BAY","Pending Renewal","2016-09-21T00:00:00.000","-113.94469464149034","50.89411724244242"
"FRIENDS AUTO","#160 10990 42 ST NE","MOTOR VEHICLE REPAIR AND SERVICE (1)","STONEY 3","Renewal Licensed","2020-06-11T00:00:00.000","-113.97078692103935","51.152505016613674"
"LOMANA STUDIO","#8 3304 64 ST NE","RETAIL DEALER - PREMISES","TEMPLE","Renewal Licensed","2021-05-12T00:00:00.000","-113.94044246163995","51.08194221229253"
"NORTHMOUNT INDUSTRIES","#110 2800 107 AV SE","MANUFACTURER","SHEPARD INDUSTRIAL","Renewal Licensed","2003-04-28T00:00:00.000","-113.996323155331","50.9572921390917"
"ARTANE WOODWORK","#3 4460 75 AV SE","MANUFACTURER","FOOTHILLS","Renewal Licensed","2003-06-19T00:00:00.000","-113.97055424930417","50.98761008225795"
"DOLLARAMA (#1325)","#42 7740 18 ST SE","RETAIL DEALER - PREMISES","OGDEN","Renewal Licensed","2020-07-27T00:00:00.000","-114.01412049986743","50.98353113679762"
"VAPE DISTRO","#5 6115 4 ST SE","WHOLESALER","MANCHESTER INDUSTRIAL","Renewal Licensed","2019-03-18T00:00:00.000","-114.05441331905287","50.99835006221804"
"AVANICA","#3 7395 11 ST SE","RETAIL DEALER - PREMISES","EAST FAIRVIEW INDUSTRIAL","Renewal Licensed","2018-01-16T00:00:00.000","-114.04036046230112","50.98785280993281"
"OSTERIA DE MEDICI RESTAURANT","#4 201 10 ST NW","FOOD SERVICE - PREMISES (SEATING)","HILLHURST","Renewal Licensed","1997-03-14T00:00:00.000","-114.08636585960392","51.05276284056905"
"PIESZAK CUSTOM CABINETS","#9 1236 38 AV NE","MANUFACTURER","MCCALL","Renewal Licensed","2018-05-16T00:00:00.000","-114.03340743640989","51.08757376980526"
"VALUE BUDS AT BEACON HILL","11662 SARCEE TR NW","CANNABIS STORE","SHERWOOD","Renewal Licensed","2021-05-21T00:00:00.000","-114.15966589573232","51.1568178455712"
"CDE","#9 1435 40 AV NE","WHOLESALER","MCCALL","Licensed","2021-12-10T00:00:00.000","-114.02875638886702","51.08807683642343"
"GLOBAL PET FOODS EDGEMONT","#106 5149 COUNTRY HILLS BV NW","RETAIL DEALER - PREMISES","EDGEMONT","Renewal Licensed","2015-08-06T00:00:00.000","-114.15974840490999","51.13763146590093"
"PORTUGUESE SOCIETY OF CALGARY","4888 35 ST SE","ALCOHOL BEVERAGE SALES (DRINKING EST/RESTAURANT)","EASTFIELD","Renewal Licensed","2003-03-11T00:00:00.000","-113.98109999893552","51.01078265595755"
"STRIDES RUNNING STORE","#1119 380 CANYON MEADOWS DR SE","RETAIL DEALER - PREMISES","LAKE BONAVISTA","Renewal Licensed","2015-03-10T00:00:00.000","-114.06493706527948","50.93073624200489"
"GREAT CLIPS","#4112 15 SUNPARK PZ SE","RETAIL DEALER - PREMISES","SUNDANCE","Renewal Licensed","2012-03-08T00:00:00.000","-114.05874304907945","50.905399354542425"
"DENG'S DUMPLING","#4 6208 RUNDLEHORN DR NE","FOOD SERVICE - PREMISES","PINERIDGE","Licensed","2021-12-06T00:00:00.000","-113.94404795189179","51.07158064927129"
"RICKY'S ALL DAY GRILL","#620 500 COUNTRY HILLS BV NE","FOOD SERVICE - PREMISES (SEATING)","COUNTRY HILLS VILLAGE","Renewal Licensed","2017-03-09T00:00:00.000","-114.05482514095874","51.155432042116516"
"LONDON DRUGS STORE #68","#500 8888 COUNTRY HILLS BV NW","SECONDHAND DEALER","ROYAL VISTA","Renewal Licensed","2004-09-07T00:00:00.000","-114.21504748261647","51.15374974805681"
"TACO TIME - TTC045","#5F 6455 MACLEOD TR SW","FOOD SERVICE - PREMISES (NO SEATING)","MEADOWLARK PARK","Renewal Licensed","2018-05-18T00:00:00.000","-114.07367018750668","50.99801742927944"
"INS MARKET - INTACT PLACE","#224 321 6 AV SW","FOOD SERVICE - PREMISES","DOWNTOWN COMMERCIAL CORE","Renewal Licensed","2017-04-19T00:00:00.000","-114.06938006428264","51.04738650622787"
"GMS MACHINE WORKS","#19 7003 30 ST SE","MANUFACTURER","FOOTHILLS","Renewal Licensed","2013-09-04T00:00:00.000","-113.98456941213534","50.99167151517811"
"VANTAGE MOTORS YYC","#1080 4385 104 AV SE","MOTOR VEHICLE DEALER - PREMISES","EAST SHEPARD INDUSTRIAL","Renewal Licensed","2021-05-25T00:00:00.000","-113.97224423111835","50.95972027153059"
"CHOICE OFFICE FURNITURE","#2 5905 11 ST SE","RETAIL DEALER - PREMISES","BURNS INDUSTRIAL","Renewal Licensed","2015-04-01T00:00:00.000","-114.03843188644328","51.000902836714936"
"MAANES FILIPINO FOOD STUFF","3607 17 AV SE","ALCOHOL BEVERAGE SALES (RESTAURANT)","SOUTHVIEW","Renewal Licensed","2021-06-14T00:00:00.000","-113.9826200856497","51.037423907812226"
"WESTERN STYLE CHICKEN & PIZZA","#308 5320 8 AV SE","FOOD SERVICE - PREMISES (NO SEATING)","PENBROOKE MEADOWS","Renewal Licensed","2000-10-24T00:00:00.000","-113.9570411549434","51.04593864187136"
"FITHOUSE","245 61 AV SE","RETAIL DEALER - PREMISES","MANCHESTER INDUSTRIAL","Renewal Licensed","2018-04-25T00:00:00.000","-114.06022316551085","50.99750664715101"
"EMPIRE BARBER SUPPLY","#105 2750 22 ST NE","WHOLESALER","SOUTH AIRWAYS","Renewal Licensed","2020-07-28T00:00:00.000","-114.00658444764993","51.07632925267354"
"MUCHO BURRITO","#721 388 COUNTRY HILLS BV NE","FOOD SERVICE - PREMISES (SEATING)","COUNTRY HILLS VILLAGE","Renewal Licensed","2018-08-16T00:00:00.000","-114.0668432368569","51.15413998781652"
"TIM HORTONS WOODBINE","#303 2525 WOODVIEW DR SW","RETAIL DEALER - PREMISES","WOODBINE","Renewal Licensed","2017-04-11T00:00:00.000","-114.12048721897177","50.94053198776759"
"BOXSMITH MODERN GIFTS","#14 5660 10 ST NE","FOOD SERVICE - PREMISES","SKYLINE EAST","Renewal Licensed","2021-07-22T00:00:00.000","-114.03718491762486","51.104064114521556"
"VITALITY CHIROPRACTIC AND COUNSELLING","#1 2220 20 AV NW","MASSAGE CENTRE (COMMERCIAL)","BANFF TRAIL","Renewal Licensed","2021-08-23T00:00:00.000","-114.11115551888041","51.07049649229654"
"JCI SAND SEPARATORS","2929 15 ST NE","WHOLESALER","SOUTH AIRWAYS","Renewal Licensed","2015-07-06T00:00:00.000","-114.02360460213312","51.078646923599344"
"TURNER SIGNS","#4 4451 58 AV SE","CONTRACTOR (NO PROVINCIAL LICENCE REQUIRED)","FOOTHILLS","Renewal Licensed","2009-12-15T00:00:00.000","-113.97064459787941","51.000383126237786"
"SIGNATURE PALACE RESTAURANT","#206 1919 SIROCCO DR SW","ALCOHOL BEVERAGE SALES (RESTAURANT)","SIGNAL HILL","Renewal Licensed","2012-06-19T00:00:00.000","-114.16679153450235","51.03638217228719"
"TIM HORTONS WOODBINE","#303 2525 WOODVIEW DR SW","FOOD SERVICE - PREMISES (SEATING)","WOODBINE","Renewal Licensed","2017-04-11T00:00:00.000","-114.12048721897177","50.94053198776759"
"BATL GLOBAL","#80 2151 32 ST NE","RETAIL DEALER - PREMISES","SUNRIDGE","Renewal Licensed","2015-03-10T00:00:00.000","-113.99001195024255","51.070355426136956"
"TURNER SIGNS","#4 4451 58 AV SE","MANUFACTURER","FOOTHILLS","Renewal Licensed","2009-12-15T00:00:00.000","-113.97064459787941","51.000383126237786"
"CALGARY CO-OP CANNABIS OAKRIDGE","#110 125 OAKMOOR PZ SW","CANNABIS STORE","OAKRIDGE","Licensed","2022-07-27T00:00:00.000","-114.12183065903538","50.9624569149932"
"REXALL PHARMACIES #9806","#120 4448 FRONT ST SE","RETAIL DEALER - PREMISES","SETON","Renewal Licensed","2016-07-29T00:00:00.000","-113.95279895456788","50.88163177221792"
"MOUSSE CHILDREN'S ART STUDIO","#202 8408 ELBOW DR SW","SCHOOL (PROV. NOT REQUIRED)","HAYSBORO","Licensed","2021-12-16T00:00:00.000","-114.08259269780696","50.979248131394236"
"MACLEODS PUBLIC HOUSE","#335 12100 MACLEOD TR SE","ALCOHOL BEVERAGE SALES (DRINKING EST/RESTAURANT)","LAKE BONAVISTA","Renewal Licensed","2021-08-03T00:00:00.000","-114.06919167112198","50.943736422486836"
"CRISTY'S ROTISERRIE CHICKEN","2775 32 AV NE","ALCOHOL BEVERAGE SALES (RESTAURANT)","SUNRIDGE","Renewal Licensed","1997-02-12T00:00:00.000","-113.9956729388335","51.081021998235535"
"JONATHAN MORGAN & COMPANY LIMITED","#100 7211 8 ST NE","CONTRACTOR (NO PROVINCIAL LICENCE REQUIRED)","DEERFOOT BUSINESS CENTRE","Pending Renewal","2018-08-22T00:00:00.000","-114.045672293352","51.11759438630119"
"GREAT CLIPS","#4112 15 SUNPARK PZ SE","PERSONAL SERVICE","SUNDANCE","Renewal Licensed","2012-03-08T00:00:00.000","-114.05874304907945","50.905399354542425"
"OSMOWS SHAWARMA","4129 UNIVERSITY AV NW","FOOD SERVICE - PREMISES (SEATING)","UNIVERSITY DISTRICT","Renewal Licensed","2021-08-03T00:00:00.000","-114.14649883337603","51.07777265517656"
"SHAWARMA STATION","#106 227 10 ST NW","FOOD SERVICE - PREMISES (SEATING)","HILLHURST","Renewal Licensed","2019-02-13T00:00:00.000","-114.08627674234987","51.053713920084654"
"FLAWLESS JEWELLERS","#132 8400 BLACKFOOT TR SE","RETAIL DEALER - PREMISES","EAST FAIRVIEW INDUSTRIAL","Renewal Licensed","2019-08-26T00:00:00.000","-114.0471885925496","50.977682268842166"
"LOUNGE ELECTROLYSIS","#200 2120 KENSINGTON RD NW","PERSONAL SERVICE","WEST HILLHURST","Renewal Licensed","2020-06-30T00:00:00.000","-114.10913972895702","51.052858197854015"
"KENSHO TATTOO COMPANY","#202 320 10 ST NW","PERSONAL SERVICE (TATTOO)","SUNNYSIDE","Renewal Licensed","2014-12-11T00:00:00.000","-114.08561312200891","51.05481906487364"
"PIZZA 73","#2108 380 CANYON MEADOWS DR SE","ALCOHOL BEVERAGE SALES (RESTAURANT)","LAKE BONAVISTA","Renewal Licensed","2008-01-08T00:00:00.000","-114.06460829383863","50.93126998452196"
"EVEREST WINE & SPIRITS","#232 7171 80 AV NE","LIQUOR STORE","TARADALE","Renewal Licensed","2014-10-16T00:00:00.000","-113.93150693932967","51.12465683450042"
"EMERALD ASH HAIR STUDIO","#300 1918 KENSINGTON RD NW","RETAIL DEALER - PREMISES","WEST HILLHURST","Renewal Licensed","2021-06-11T00:00:00.000","-114.10444245579468","51.052757911976784"
"PABLO CALGARY","602B 16 AV NW","FOOD SERVICE - PREMISES (SEATING)","MOUNT PLEASANT","Renewal Licensed","2021-04-08T00:00:00.000","-114.07435294342385","51.06729238632996"
"ADRIA INTERNATIONAL","7004K 5 ST SE","MANUFACTURER","FAIRVIEW INDUSTRIAL","Pending Renewal","2012-10-30T00:00:00.000","-114.04957140946425","50.99295024020801"
"LABELS","#234 2525 36 ST NE","RETAIL DEALER - PREMISES","SUNRIDGE","Renewal Licensed","2020-08-10T00:00:00.000","-113.98559185613476","51.07411782465096"
"CLC MASSAGE","4626 16 AV NW","BODY RUB CENTRE","MONTGOMERY","Renewal Licensed","2016-06-27T00:00:00.000","-114.16189826738987","51.07108871466711"
"MUCHO BURRITO","160 STEWART GR SW","FOOD SERVICE - PREMISES (SEATING)","SIGNAL HILL","Renewal Licensed","2015-03-12T00:00:00.000","-114.16739484563689","51.016314256450876"
"CANADIAN PIZZA","#2014 356 CRANSTON RD SE","FOOD SERVICE - PREMISES (NO SEATING)","CRANSTON","Renewal Licensed","2010-06-15T00:00:00.000","-113.97738246154174","50.88080435857423"
"IMAGINE WIRELESS","11644 SARCEE TR NW","RETAIL DEALER - PREMISES","SHERWOOD","Renewal Licensed","2007-06-01T00:00:00.000","-114.16028514133629","51.156795315883926"
"X-TREME HAIR","#1105 9650 HARVEST HILLS BV NE","PERSONAL SERVICE","AURORA BUSINESS PARK","Renewal Licensed","2018-06-07T00:00:00.000","-114.06946955754975","51.140532114355395"
"LEGACY BARBER SHOP","#110 1625 210 AV SE","PERSONAL SERVICE","LEGACY","Renewal Licensed","2018-07-20T00:00:00.000","-114.02529768186129","50.86352350858807"
"SEN VIETNAMESE KITCHEN","#31 4307 130 AV SE","ALCOHOL BEVERAGE SALES (RESTAURANT)","MCKENZIE TOWNE","Renewal Licensed","2018-04-10T00:00:00.000","-113.97192133191474","50.930218044126825"
"PAUL AUTO TRADERS","#136 3132 26 ST NE","MOTOR VEHICLE DEALER - PREMISES","SUNRIDGE","Renewal Licensed","2021-04-15T00:00:00.000","-113.99707578145151","51.0803754771713"
"AUTOLEADER SOUTH","5003 1 ST SW","MOTOR VEHICLE REPAIR AND SERVICE (1)","MANCHESTER","Renewal Licensed","2019-05-22T00:00:00.000","-114.06638170359925","51.00922729297233"
"AVIS AUTO BODY","#6 4101 19 ST NE","AUTO BODY SHOP","NORTH AIRWAYS","Renewal Licensed","2018-08-15T00:00:00.000","-114.0125483991272","51.089542533639374"
"JOYDROP","#P46 3625 SHAGANAPPI TR NW","RETAIL DEALER - PREMISES","VARSITY","Renewal Licensed","2014-06-11T00:00:00.000","-114.15461066379848","51.08398946174889"
"PIESZAK CUSTOM CABINETS","#9 1236 38 AV NE","CONTRACTOR","MCCALL","Renewal Licensed","2018-05-16T00:00:00.000","-114.03340743640989","51.08757376980526"
"SHOPPERS DRUG MART","#4000 873 85 ST SW","FOOD SERVICE - PREMISES","WEST SPRINGS","Renewal Licensed","2010-04-19T00:00:00.000","-114.21273503742069","51.06036862327318"
"REDBLOOM SALON","#2106 8561 8A AV SW","RETAIL DEALER - PREMISES","WEST SPRINGS","Renewal Licensed","2013-05-28T00:00:00.000","-114.20929534355714","51.06130959276963"
"SAIGON REX RESTAURANT","#520 5149 COUNTRY HILLS BV NW","ALCOHOL BEVERAGE SALES (RESTAURANT)","EDGEMONT","Licensed","2022-07-09T00:00:00.000","-114.15749070729086","51.138291451427364"
"OSTERIA DE MEDICI RESTAURANT","#4 201 10 ST NW","ALCOHOL BEVERAGE SALES (RESTAURANT)","HILLHURST","Renewal Licensed","1997-03-14T00:00:00.000","-114.08636585960392","51.05276284056905"
"INDIAN DELIGHTS INDIAN CUISINE","#102 101 SAGE VALLEY CM NW","FOOD SERVICE - PREMISES (SEATING)","SAGE HILL","Licensed","2021-03-03T00:00:00.000","-114.15726861544985","51.181442907435965"
"STYLE ENCORE","#178 8060 SILVER SPRINGS BV NW","RETAIL DEALER - PREMISES","SILVER SPRINGS","Licensed","2021-11-30T00:00:00.000","-114.20441247489747","51.11666278192377"
"BAR PATRICIA / INFINITY ULTRA LOUNGE / TAQUERIA EL CHEFE / PLEASE DONT TELL","811 1 ST SW","ALCOHOL BEVERAGE SALES (DRINKING EST/RESTAURANT)","DOWNTOWN COMMERCIAL CORE","Renewal Licensed","2019-04-30T00:00:00.000","-114.06577815318701","51.04494104434576"
"STYLE ENCORE","#178 8060 SILVER SPRINGS BV NW","SECONDHAND DEALER","SILVER SPRINGS","Licensed","2021-11-30T00:00:00.000","-114.20441247489747","51.11666278192377"
"TECHBROTHERZ -MACLEOD","#6A 9250 MACLEOD TR SE","RETAIL DEALER - PREMISES","ACADIA","Pending Renewal","2019-09-18T00:00:00.000","-114.07026717420925","50.970602123493116"
"BABY FACE SKIN CARE","#291 328 CENTRE ST SE","RETAIL DEALER - PREMISES","CHINATOWN","Renewal Licensed","2004-07-16T00:00:00.000","-114.06173831297018","51.04956495830472"
"YESCO CALGARY","#4 4451 58 AV SE","CONTRACTOR (NO PROVINCIAL LICENCE REQUIRED)","FOOTHILLS","Renewal Licensed","2017-04-28T00:00:00.000","-113.97064459787941","51.000383126237786"
"DECHOSEN AFRICAN MARKET","9667 MACLEOD TR SW","RETAIL DEALER - PREMISES","HAYSBORO","Renewal Licensed","2013-07-19T00:00:00.000","-114.07330050867236","50.96806223567718"
"7TH AVE WINE AND SPIRITS","925A 7 AV SW","LIQUOR STORE","DOWNTOWN COMMERCIAL CORE","Licensed","2022-02-24T00:00:00.000","-114.08307638788662","51.046758396971356"
"FRUIT BOX (THE)","#115 11929 40 ST SE","MANUFACTURER","EAST SHEPARD INDUSTRIAL","Renewal Licensed","2015-03-25T00:00:00.000","-113.97686547073353","50.943906241718786"
"MH CANNABIS","2705A CENTRE ST NW","CANNABIS STORE","TUXEDO PARK","Licensed","2022-06-28T00:00:00.000","-114.06289689368289","51.076420655559446"
"EMERALD ASH HAIR STUDIO","#300 1918 KENSINGTON RD NW","PERSONAL SERVICE (INDEPENDENT CHAIR OPERATOR)","WEST HILLHURST","Renewal Licensed","2021-06-11T00:00:00.000","-114.10444245579468","51.052757911976784"
"LAURA BROWS","#5 7 PARKDALE CR NW","PERSONAL SERVICE","PARKDALE","Renewal Licensed","2017-03-31T00:00:00.000","-114.1354471431024","51.05819234120783"
"BAR PATRICIA / INFINITY ULTRA LOUNGE / TAQUERIA EL CHEFE / PLEASE DONT TELL","811 1 ST SW","ENTERTAINMENT ESTABLISHMENT","DOWNTOWN COMMERCIAL CORE","Renewal Licensed","2019-04-30T00:00:00.000","-114.06577815318701","51.04494104434576"
"TOWER MECHANICAL","5122 80 AV SE","CONTRACTOR","FOOTHILLS","Renewal Licensed","2013-07-26T00:00:00.000","-113.96154806595648","50.98078726092267"
"TECHBROTHERZ","3317 17 AV SE","RETAIL DEALER - PREMISES","SOUTHVIEW","Renewal Licensed","2019-05-17T00:00:00.000","-113.98699126774804","51.03664681820714"
"VAPE DISTRO","#5 6115 4 ST SE","RETAIL DEALER - PREMISES","MANCHESTER INDUSTRIAL","Renewal Licensed","2019-03-18T00:00:00.000","-114.05441331905287","50.99835006221804"
"APPLEWOOD LIQUOR STORE","1288 68 ST SE","LIQUOR STORE","APPLEWOOD PARK","Pending Renewal","2011-10-17T00:00:00.000","-113.93436831136005","51.042846850915105"
"DOLLARAMA (#1325)","#42 7740 18 ST SE","FOOD SERVICE - PREMISES","OGDEN","Renewal Licensed","2020-07-27T00:00:00.000","-114.01412049986743","50.98353113679762"
"M&M FOOD MARKET - CROWFOOT","#113 150 CROWFOOT CR NW","RETAIL DEALER - PREMISES","ARBOUR LAKE","Renewal Licensed","2019-07-18T00:00:00.000","-114.19680315258985","51.12760516899381"
"BITTER SISTERS BREWING COMPANY","510 HERITAGE DR SW","OUTDOOR PATIO","KINGSLAND","Pending Renewal","2014-11-06T00:00:00.000","-114.07559178762975","50.979743113962144"
"MARY'S NAIL BOUTIQUE","#102 6036 3 ST SW","PERSONAL SERVICE","MANCHESTER INDUSTRIAL","Renewal Licensed","2020-05-11T00:00:00.000","-114.06910925962052","50.999282222976504"
"PT KINETICS","#319 5155 130 AV SE","RETAIL DEALER - PREMISES","EAST SHEPARD INDUSTRIAL","Pending Renewal","2018-07-18T00:00:00.000","-113.96073697973337","50.9309274585045"
"YYC CYCLE SPIN STUDIO","4118 UNIVERSITY AV NW","SCHOOL (PROV. NOT REQUIRED)","UNIVERSITY DISTRICT","Renewal Licensed","2021-06-09T00:00:00.000","-114.14663596377561","51.07823843675239"
"BEER WORX","#6 1259 HIGHFIELD CR SE","CONTRACTOR (NO PROVINCIAL LICENCE REQUIRED)","HIGHFIELD","Renewal Licensed","2021-05-17T00:00:00.000","-114.03605282059583","51.010903616555055"
"SANITAS FACIAL AESTHETICS","1123 KENSINGTON RD NW","PERSONAL SERVICE","HILLHURST","Renewal Licensed","2020-06-23T00:00:00.000","-114.08712584512917","51.05234740083283"
"BATL GLOBAL","#80 2151 32 ST NE","FOOD SERVICE - PREMISES (SEATING)","SUNRIDGE","Renewal Licensed","2015-03-10T00:00:00.000","-113.99001195024255","51.070355426136956"
"STRATEUPFITNESS","#125 2985 23 AV NE","PERSONAL SERVICE (FITNESS CONDITIONING)","SUNRIDGE","Renewal Licensed","2021-06-10T00:00:00.000","-113.99410693070145","51.071202164769225"
"VALUE BUDS AT BEACON HILL","11662 SARCEE TR NW","RETAIL DEALER - PREMISES","SHERWOOD","Renewal Licensed","2021-05-21T00:00:00.000","-114.15966589573232","51.1568178455712"
"BEZ MART","#2230 6004 COUNTRY HILLS BV NE","FOOD SERVICE - PREMISES","SKYVIEW RANCH","Renewal Licensed","2021-06-21T00:00:00.000","-113.95072269129167","51.155466028110354"
"SHOP MUSTARD TIGER","#101 6036 3 ST SW","RETAIL DEALER - PREMISES","MANCHESTER INDUSTRIAL","Renewal Licensed","2021-08-24T00:00:00.000","-114.06910925962052","50.999282222976504"
"CHATTERS SALON","#R8 3625 SHAGANAPPI TR NW","PERSONAL SERVICE","VARSITY","Renewal Licensed","2004-08-18T00:00:00.000","-114.15548616648614","51.083666101574906"
"FURR & PURR BOUTIQUE","200E HADDON RD SW","SECONDHAND DEALER","HAYSBORO","Licensed","2022-03-22T00:00:00.000","-114.07847141970015","50.971194563420404"
"SMS APPLIANCES","#105 217 4 ST NE","SECONDHAND DEALER","CRESCENT HEIGHTS","Move in Progress","2020-07-27T00:00:00.000","-114.05224957026718","51.05416397175447"
"FREEDOM MOBILE","1601B CENTRE ST NW","RETAIL DEALER - PREMISES","CRESCENT HEIGHTS","Renewal Licensed","2020-05-11T00:00:00.000","-114.06290587735914","51.06616405816084"
"HARBOUR AUTO 2001","#8 1915 32 AV NE","MOTOR VEHICLE REPAIR AND SERVICE (1)","SOUTH AIRWAYS","Renewal Licensed","2001-04-19T00:00:00.000","-114.01381523590264","51.080958118558335"
"AMIN SAMOSA","#1 132 3 AV SE","TOBACCO RETAILER","CHINATOWN","Renewal Licensed","2019-05-27T00:00:00.000","-114.06083271433397","51.05060133722302"
"SHOPPERS DRUG MART","#4000 873 85 ST SW","RETAIL DEALER - PREMISES","WEST SPRINGS","Renewal Licensed","2010-04-19T00:00:00.000","-114.21273503742069","51.06036862327318"
"VANTAGE MOTORS YYC","#1080 4385 104 AV SE","RETAIL DEALER - PREMISES","EAST SHEPARD INDUSTRIAL","Renewal Licensed","2021-05-25T00:00:00.000","-113.97224423111835","50.95972027153059"
"REAL CANADIAN LIQUOR STORE (THE)","#300 4700 130 AV SE","RETAIL DEALER - PREMISES","EAST SHEPARD INDUSTRIAL","Pending Renewal","2002-09-12T00:00:00.000","-113.96567685957993","50.932687108290494"
"WINKS","#1 4415 MEMORIAL DR SE","TOBACCO RETAILER","FOREST HEIGHTS","Renewal Licensed","2020-02-11T00:00:00.000","-113.97070726201534","51.05239452280426"
"DOLLARAMA","#180 8220 CENTRE ST NE","RETAIL DEALER - PREMISES","BEDDINGTON HEIGHTS","Renewal Licensed","2007-06-14T00:00:00.000","-114.06963665806104","51.127417326459536"
"YOTSUBA DENTAL","#112 7015 MACLEOD TR SW","MANUFACTURER","KINGSLAND","Renewal Licensed","2019-05-29T00:00:00.000","-114.0728879914226","50.99087703323313"
"CHINESE CULTURAL CENTRE CUISINE","#88 197 1 ST SW","ALCOHOL BEVERAGE SALES (RESTAURANT)","CHINATOWN","Renewal Licensed","2017-04-04T00:00:00.000","-114.0654761909377","51.05130932217889"
"KARSON BUILDERS","#13 415 60 AV SE","CONTRACTOR","MANCHESTER INDUSTRIAL","Renewal Licensed","2008-06-20T00:00:00.000","-114.05594340313598","50.99856814249276"
"SAFEWAY GARRISON WOODS","3553 GARRISON GA SW","LIQUOR STORE","GARRISON WOODS","Pending Renewal","2013-09-20T00:00:00.000","-114.114757329473","51.02254009858037"
"KIM'S LIQUOR","2108 14 ST NW","LIQUOR STORE","CAPITOL HILL","Renewal Licensed","2018-08-07T00:00:00.000","-114.09440858106021","51.070868143323494"
"BBQ INN & CATERING","#3 1110 CANTERBURY DR SW","FOOD SERVICE - PREMISES (NO SEATING)","CANYON MEADOWS","Renewal Licensed","2018-06-13T00:00:00.000","-114.08008192739595","50.93662284172126"
"LULU PRODUCE","#8 2915 10 AV NE","RETAIL DEALER - PREMISES","FRANKLIN","Pending Renewal","2021-04-30T00:00:00.000","-113.99146184006482","51.06122479213013"
"MEET THE GREEK","#270 520 3 AV SW","FOOD SERVICE - PREMISES (NO SEATING)","EAU CLAIRE","Renewal Licensed","2020-04-14T00:00:00.000","-114.07211311580654","51.05085990312888"
"MEXICO CITY","4242 6 ST NE","FOOD SERVICE - PREMISES","GREENVIEW INDUSTRIAL PARK","Renewal Licensed","2020-02-27T00:00:00.000","-114.0477119844828","51.09067221060531"
"D&M TREATMENTS","#2 1235 17 AV SW","PERSONAL SERVICE (TATTOO)","MOUNT ROYAL LOWER","Renewal Licensed","2020-04-21T00:00:00.000","-114.09080423817542","51.03760653285728"
"D & M PHARMACY","#2105 1800 194 AV SE","FOOD SERVICE - PREMISES","CHAPARRAL","Renewal Licensed","2013-08-14T00:00:00.000","-114.0237342818753","50.8779963744783"
"4 ST PIZZA","2105 EDMONTON TR NE","FOOD SERVICE - PREMISES (NO SEATING)","TUXEDO PARK","Renewal Licensed","2010-04-09T00:00:00.000","-114.05640522964545","51.07087796789312"
"J-A-Y AUTO TRUCK AND TRAILER REPAIR SHOP","#1 4115 64 AV SE","MOTOR VEHICLE REPAIR AND SERVICE (1)","FOOTHILLS","Renewal Licensed","2020-07-06T00:00:00.000","-113.97571898965477","50.996235199273656"
"KAWA ESPRESSO BAR","#101 1333 8 ST SW","FOOD SERVICE - PREMISES (SEATING)","BELTLINE","Renewal Licensed","2008-12-10T00:00:00.000","-114.082052106479","51.04032713464226"
"GREENHILLS CONVENIENCE STORE / CRAVE & SHOP PHILIPPINES","#1 9620 ELBOW DR SW","RETAIL DEALER - PREMISES","HAYSBORO","Renewal Licensed","2019-04-16T00:00:00.000","-114.08396401566408","50.9689874400891"
"ORIGINAL JOE'S RESTAURANT & BAR","#100 1220 KENSINGTON RD NW","ENTERTAINMENT ESTABLISHMENT","HILLHURST","Renewal Licensed","2011-05-31T00:00:00.000","-114.08982407038786","51.05272320551324"
"STARBUCKS COFFEE #53315","3585 20 AV NE","FOOD SERVICE - PREMISES (SEATING)","SUNRIDGE","Renewal Licensed","2018-03-13T00:00:00.000","-113.98255308094951","51.07065025787113"
"DEVOUR CATERING","538 42 AV SE","ALCOHOL BEVERAGE SALES (RESTAURANT)","MANCHESTER INDUSTRIAL","Renewal Licensed","2019-07-19T00:00:00.000","-114.05098172645381","51.01657120230029"
"SHOPPERS DRUG MART KENSINGTON","1436 KENSINGTON RD NW","RETAIL DEALER - PREMISES","HILLHURST","Licensed","2022-04-13T00:00:00.000","-114.09402284127697","51.052633611098955"
"SEED N SALT","2008 4 ST SW","RETAIL DEALER - PREMISES","MISSION","Renewal Licensed","2017-05-02T00:00:00.000","-114.07124017363036","51.035050322403265"
"FLEURISH FLOWER SHOP","#8 6449 CROWCHILD TR SW","RETAIL DEALER - PREMISES","LAKEVIEW","Renewal Licensed","2013-05-24T00:00:00.000","-114.11942369852335","50.996812735289744"
"MAC'S CONVENIENCE STORE #2117","8286 CENTRE ST NE","FOOD SERVICE - PREMISES","BEDDINGTON HEIGHTS","Renewal Licensed","2019-03-25T00:00:00.000","-114.07083816303754","51.128484012697726"
"RB CANADIAN LIQUOR STORE","#36 20 DOUGLAS WOODS DR SE","FOOD SERVICE - PREMISES","DOUGLASDALE/GLEN","Renewal Licensed","2015-08-19T00:00:00.000","-114.00167065786364","50.943474309419564"
"NU LOOK PROSHOP","#3 6304 BURBANK RD SE","RETAIL DEALER - PREMISES","BURNS INDUSTRIAL","Renewal Licensed","2021-06-03T00:00:00.000","-114.04553230238827","50.9982851156693"
"VAPE EXPRESS","#102 4908 17 AV SE","RETAIL DEALER - PREMISES","FOREST LAWN","Renewal Licensed","2021-07-08T00:00:00.000","-113.96401172674983","51.03819554603529"
"PORT PHYSIOTHERAPY AND MASSAGE (THE)","#3130 4250 109 AV NE","MASSAGE CENTRE (COMMERCIAL)","STONEY 3","Renewal Licensed","2021-06-14T00:00:00.000","-113.97219682672144","51.15368400915094"
"PICK ME LUXE BEAUTY AESTHETICS","#100 1318 CENTRE ST NE","PERSONAL SERVICE","CRESCENT HEIGHTS","Renewal Licensed","2019-05-17T00:00:00.000","-114.06225520624366","51.064004441641416"
"SIGNATURE PALACE RESTAURANT","#206 1919 SIROCCO DR SW","FOOD SERVICE - PREMISES (SEATING)","SIGNAL HILL","Renewal Licensed","2012-06-19T00:00:00.000","-114.16679153450235","51.03638217228719"
"ILLUMINATE SKIN THERAPIES","#102 8445 BROADCAST AV SW","PERSONAL SERVICE","WEST SPRINGS","Renewal Licensed","2020-09-15T00:00:00.000","-114.20883099258008","51.064340722194075"
"ANNA JEWELLERS","3831A BOW TR SW","SECONDHAND DEALER","ROSSCARROCK","Pending Renewal","2012-09-27T00:00:00.000","-114.14317033645017","51.04547720821963"
"CALGARY CO-OP FOOD STORE #26","#700 100 AUBURN MEADOWS DR SE","RETAIL DEALER - PREMISES","AUBURN BAY","Pending Renewal","2016-09-21T00:00:00.000","-113.94443120725542","50.895522878322986"
"AFTERSHAVE BARBERSHOP","#4 1603 62 AV SE","PERSONAL SERVICE","OGDEN","Renewal Licensed","2017-05-11T00:00:00.000","-114.01985622075802","50.997469580437645"
"SALLY BEAUTY SUPPLY","#118 971 64 AV NE","RETAIL DEALER - PREMISES","DEERFOOT BUSINESS CENTRE","Renewal Licensed","2015-08-06T00:00:00.000","-114.0403702934056","51.11008177303728"
"GOJO TAKEOUT & BAKERY","#29 4525 52 ST NE","FOOD SERVICE - PREMISES (NO SEATING)","WHITEHORN","Renewal Licensed","2010-05-11T00:00:00.000","-113.95922533536162","51.09206287540821"
"DIGITAL POST","#406 917 85 ST SW","RETAIL DEALER - PREMISES","WEST SPRINGS","Pending Renewal","2006-09-29T00:00:00.000","-114.2119420645456","51.05941893311586"
"REAL CANADIAN LIQUOR STORE #1642 (WESTWINDS)","#200 3633 WESTWINDS DR NE","RETAIL DEALER - PREMISES","WESTWINDS","Renewal Licensed","2005-04-28T00:00:00.000","-113.9679290439218","51.109124457656385"
"SUBWAY SANDWICH & SALAD","#824 8180 11 ST SE","FOOD SERVICE - PREMISES (SEATING)","EAST FAIRVIEW INDUSTRIAL","Renewal Licensed","2005-04-15T00:00:00.000","-114.04160553427258","50.978120856236295"
"STARBUCKS COFFEE #16971","#210 151 WALDEN GA SE","FOOD SERVICE - PREMISES (SEATING)","WALDEN","Renewal Licensed","2012-03-05T00:00:00.000","-114.03689489148917","50.875248176887794"
"HUE WELLNESS","#1238 12 ROYAL VISTA WY NW","PERSONAL SERVICE (TATTOO)","ROYAL VISTA","Licensed","2022-04-19T00:00:00.000","-114.20670476214322","51.15278430343398"
"007 AIRSOFT","#6 1411 33 ST NE","RETAIL DEALER - PREMISES","FRANKLIN","Renewal Licensed","2021-02-16T00:00:00.000","-113.9874484341629","51.06463800983452"
"ALAIR HOMES","4325 1 ST SE","CONTRACTOR","MANCHESTER INDUSTRIAL","Licensed","2022-02-02T00:00:00.000","-114.06220774384346","51.01494949296915"
"STAR JEWELLERS","#1118 4310 104 AV NE","MANUFACTURER","STONEY 3","Renewal Licensed","2020-08-04T00:00:00.000","-113.97179895044331","51.147512430556354"
"KNEADY KNOTS","#201 1414 KENSINGTON RD NW","MASSAGE CENTRE (COMMERCIAL)","HILLHURST","Renewal Licensed","2021-03-16T00:00:00.000","-114.09269328014311","51.05286853168807"
"BOHO BROW","#300 1918 KENSINGTON RD NW","PERSONAL SERVICE (INDEPENDENT CHAIR OPERATOR)","WEST HILLHURST","Renewal Licensed","2021-06-03T00:00:00.000","-114.10444245579468","51.052757911976784"
"AALIYAS PIZZERIA AND SHAWARMA CAFE","#5 2015 4 ST SW","FOOD SERVICE - PREMISES (SEATING)","CLIFF BUNGALOW","Licensed","2022-05-07T00:00:00.000","-114.07177093820656","51.03464081122104"
"CRAVINGS SMOKE SHOP","#103 715 5 AV SW","FOOD SERVICE - PREMISES","DOWNTOWN COMMERCIAL CORE","Renewal Licensed","2017-05-31T00:00:00.000","-114.07759783039972","51.048526585956125"
"DIGITAL POST","#406 917 85 ST SW","MANUFACTURER","WEST SPRINGS","Pending Renewal","2006-09-29T00:00:00.000","-114.2119420645456","51.05941893311586"
"KENSINGTON PUB (THE)","207 10A ST NW","ENTERTAINMENT ESTABLISHMENT","HILLHURST","Renewal Licensed","1995-05-15T00:00:00.000","-114.08752738476839","51.052896723514884"
"HONKY TONK BAR AND RESTAURANT","219 10 AV SW","ENTERTAINMENT ESTABLISHMENT","BELTLINE","Licensed","2021-04-26T00:00:00.000","-114.06716013731042","51.043181812237115"
"GENERAL PAINT #8856","#161 1829 RANCHLANDS BV NW","WHOLESALER","RANCHLANDS","Renewal Licensed","2011-04-01T00:00:00.000","-114.19747154871811","51.122996125076874"
"ASIAN'S BEST FASTFOOD","#2122 4310 104 AV NE","FOOD SERVICE - PREMISES (SEATING)","STONEY 3","Renewal Licensed","2021-05-26T00:00:00.000","-113.97082334040962","51.147882876361436"
"GRAVITY HAIR","#1105 9650 HARVEST HILLS BV NE","PERSONAL SERVICE (INDEPENDENT CHAIR OPERATOR)","AURORA BUSINESS PARK","Renewal Licensed","2019-05-29T00:00:00.000","-114.06946955754975","51.140532114355395"
"FIRST CLASS ENGRAVING","#110 575 PALMER RD NE","MANUFACTURER","CALGARY INTERNATIONAL AIRPORT","Renewal Licensed","2015-07-28T00:00:00.000","-114.01369734250629","51.1001621904721"
"NATIVE TONGUES TAQUERIA","235 12 AV SW","ALCOHOL BEVERAGE SALES (DRINKING EST/RESTAURANT)","BELTLINE","Renewal Licensed","2015-05-11T00:00:00.000","-114.06758112320756","51.04140617720232"
"HYPERION ELECTRIC","#5A 6120 2 ST SE","CONTRACTOR","MANCHESTER INDUSTRIAL","Renewal Licensed","2018-09-06T00:00:00.000","-114.05924801619238","50.99721541747876"
"ICONIC WHOLESALE EMBROIDERY","#4 3800 19 ST NE","MANUFACTURER","NORTH AIRWAYS","Renewal Licensed","2021-05-26T00:00:00.000","-114.01063640678781","51.08677175757945"
"BANGLA BAZAR","#125 4851 WESTWINDS DR NE","TOBACCO RETAILER","WESTWINDS","Renewal Licensed","2008-02-22T00:00:00.000","-113.96316472659805","51.100312307126465"
"VILLAGE SQUARE BARBER & STYLE SHOP","#111 2640 52 ST NE","PERSONAL SERVICE","PINERIDGE","Renewal Licensed","2003-08-28T00:00:00.000","-113.95617077261807","51.07542128275754"
"ALT VAPE","#25 3616 52 AV NW","RETAIL DEALER - PREMISES","BRENTWOOD","Renewal Licensed","2018-03-19T00:00:00.000","-114.13985622614841","51.10173188465803"
"KENSINGTON PUB (THE)","207 10A ST NW","TOBACCO RETAILER","HILLHURST","Renewal Licensed","1995-05-15T00:00:00.000","-114.08752738476839","51.052896723514884"
"DRIVE SPORTSWEAR","#123 11769 40 ST SE","MANUFACTURER","EAST SHEPARD INDUSTRIAL","Pending Renewal","2016-11-02T00:00:00.000","-113.97762643433292","50.9453911868564"
"REFUEL ENERGY BAR","#114 2000 69 ST SW","FOOD SERVICE - PREMISES (NO SEATING)","SIGNAL HILL","Renewal Licensed","2012-02-22T00:00:00.000","-114.1856262445091","51.03577271302719"
"PT KINETICS","#319 5155 130 AV SE","MASSAGE CENTRE (COMMERCIAL)","EAST SHEPARD INDUSTRIAL","Pending Renewal","2018-07-18T00:00:00.000","-113.96073697973337","50.9309274585045"
"EAU CLAIRE WINE MARKET","#4A 200 BARCLAY PR SW","LIQUOR STORE","EAU CLAIRE","Pending Renewal","2005-10-24T00:00:00.000","-114.06886914300328","51.05248006371114"
"MI-PRIDE PAINTING & DECORATING","#133 2770 3 AV NE","CONTRACTOR","MERIDIAN","Renewal Licensed","2010-05-28T00:00:00.000","-113.99501891735945","51.0552601350281"
"REDBLOOM SALON","#2106 8561 8A AV SW","FOOD SERVICE - PREMISES","WEST SPRINGS","Renewal Licensed","2013-05-28T00:00:00.000","-114.20929534355714","51.06130959276963"
"MASH (THE)","#4 1126 KENSINGTON RD NW","ALCOHOL BEVERAGE SALES (RESTAURANT)","HILLHURST","Renewal Licensed","2019-12-09T00:00:00.000","-114.0877901181568","51.052636067239305"
"LAPORTE CUSTOM STONE","#9 7635 44 ST SE","RETAIL DEALER - PREMISES","FOOTHILLS","Renewal Licensed","2016-07-05T00:00:00.000","-113.97146939283009","50.986061929210166"
"GAUCHO BRAZILIAN BARBECUE","#100 5920 MACLEOD TR SW","RETAIL DEALER - PREMISES","MANCHESTER INDUSTRIAL","Renewal Licensed","2009-06-02T00:00:00.000","-114.07074985156927","51.00060298493953"
"KING EDDY LIVE MUSIC","438 9 AV SE","ENTERTAINMENT ESTABLISHMENT","DOWNTOWN EAST VILLAGE","Renewal Licensed","2018-06-08T00:00:00.000","-114.05348082078467","51.04451198134091"
"JAPAN DREAM CARS","3698 44 AV SE","MOTOR VEHICLE DEALER - PREMISES","EASTFIELD","Renewal Licensed","2013-03-27T00:00:00.000","-113.97801936723825","51.012815848959896"
"CENTRAL DISCOUNT HOUSE","#200 9737 MACLEOD TR SW","RETAIL DEALER - PREMISES","HAYSBORO","Renewal Licensed","2021-08-17T00:00:00.000","-114.07239324796734","50.96768739417955"
"CHAPTERS #909","#212 16061 MACLEOD TR SE","RETAIL DEALER - PREMISES","SHAWNESSY","Renewal Licensed","1998-10-29T00:00:00.000","-114.06657098792532","50.907549325125956"
"ARMAX SECURITY","#B 1240 16 AV NW","RETAIL DEALER - PREMISES","CAPITOL HILL","Pending Renewal","2013-03-26T00:00:00.000","-114.08953968432725","51.067199583558995"
"GOOD EARTH COFFEE HOUSE CENTENNIAL PLACE","#110 520 3 AV SW","FOOD SERVICE - PREMISES (SEATING)","EAU CLAIRE","Renewal Licensed","2018-05-22T00:00:00.000","-114.07211311580654","51.05085990312888"
"REDBLOOM SALON","#2106 8561 8A AV SW","PERSONAL SERVICE","WEST SPRINGS","Renewal Licensed","2013-05-28T00:00:00.000","-114.20929534355714","51.06130959276963"
"SUPPLY KINGS & MAKE IT YYC","#256 2340 PEGASUS WY NE","RETAIL DEALER - PREMISES","PEGASUS","Renewal Licensed","2019-05-27T00:00:00.000","-114.00476433686993","51.095913766517"
"MASSAGE HEIGHTS","#620 9737 MACLEOD TR SW","RETAIL DEALER - PREMISES","HAYSBORO","Pending Renewal","2019-09-30T00:00:00.000","-114.07410065472632","50.96594426042322"
"HU'S GARAGE","#351 3132 26 ST NE","MOTOR VEHICLE REPAIR AND SERVICE (1)","SUNRIDGE","Renewal Licensed","1996-04-15T00:00:00.000","-113.9966633027276","51.07980068407143"
"WAREHOUSE RELOADING & DISTRIBUTION","#25 4216 61 AV SE","WAREHOUSING","FOOTHILLS","Renewal Licensed","2020-03-03T00:00:00.000","-113.97287776129527","50.999578799959835"
"MY MASSAGE THERAPIST","#3103 230 EVERSYDE BV SW","MASSAGE CENTRE (COMMERCIAL)","EVERGREEN","Licensed","2022-03-10T00:00:00.000","-114.11008625810405","50.90875846581478"
"LD FILTRATION","#4 6130 4 ST SE","WHOLESALER","MANCHESTER INDUSTRIAL","Renewal Licensed","2021-04-29T00:00:00.000","-114.05311083022379","50.99775376539357"
"PANDORA","#256 751 3 ST SW","RETAIL DEALER - PREMISES","DOWNTOWN COMMERCIAL CORE","Renewal Licensed","2018-04-06T00:00:00.000","-114.0709358110056","51.04623431144919"
"SAFEWAY #874","375 ASPEN GLEN LD SW","FOOD SERVICE - PREMISES","ASPEN WOODS","Pending Renewal","2013-09-20T00:00:00.000","-114.20884884684857","51.041021942644385"
"GREENHILLS CONVENIENCE STORE / CRAVE & SHOP PHILIPPINES","#1 9620 ELBOW DR SW","TOBACCO RETAILER","HAYSBORO","Renewal Licensed","2019-04-16T00:00:00.000","-114.08396401566408","50.9689874400891"
"TIKI TOWN TATTOO AND SPA","#101 1026 16 AV NW","PERSONAL SERVICE (TATTOO)","MOUNT PLEASANT","Pending Renewal","2009-09-22T00:00:00.000","-114.08440125401991","51.06717228409837"
"TIM HORTONS","240 16 AV NE","FOOD SERVICE - PREMISES (NO SEATING)","TUXEDO PARK","Pending Renewal","2012-09-06T00:00:00.000","-114.05663002096483","51.06710370596932"
"BURWOOD DISTILLERY","#100 2566 FLANDERS AV SW","WAREHOUSING","CURRIE BARRACKS","Licensed","2022-06-24T00:00:00.000","-114.12241358163159","51.01701216633609"
"CNS INSULATION SERVICES","#10 5915 40 ST SE","CONTRACTOR (NO PROVINCIAL LICENCE REQUIRED)","FOOTHILLS","Renewal Licensed","2018-04-11T00:00:00.000","-113.97748841405127","51.000353882170174"
"Q NAILS BEAUTY AND SPA","#240 151 WALDEN GA SE","PERSONAL SERVICE (INDEPENDENT CHAIR OPERATOR)","WALDEN","Renewal Licensed","2021-07-22T00:00:00.000","-114.03713730955448","50.87517793309832"
"MAXIM CONSTRUCTORS","#750 734 7 AV SW","CONTRACTOR","DOWNTOWN COMMERCIAL CORE","Renewal Licensed","2013-05-03T00:00:00.000","-114.078149270453","51.04721754761188"
"DICKENS PUB","#B 1000 9 AV SW","ENTERTAINMENT ESTABLISHMENT","DOWNTOWN WEST END","Renewal Licensed","2008-04-29T00:00:00.000","-114.0841314429195","51.04543997219307"
"CANADIAN CANNABIS CONNOISSEUR CLUB","#140 5335 DUFFERIN BV SE","RETAIL DEALER - PREMISES","EAST SHEPARD INDUSTRIAL","Licensed","2022-01-31T00:00:00.000","-113.95775461359038","50.95284555608582"
"TUMI","#149C 6455 MACLEOD TR SW","RETAIL DEALER - PREMISES","MEADOWLARK PARK","Renewal Licensed","2014-03-19T00:00:00.000","-114.07365599483174","51.000336906820266"
"SKULL AND LOTUS TATTOO","6029 CENTRE ST SW","RETAIL DEALER - PREMISES","MANCHESTER INDUSTRIAL","Licensed","2022-03-10T00:00:00.000","-114.06444348497232","50.999438561297175"
"TOKAIDO RAMEN & BAR","#327 8888 COUNTRY HILLS BV NW","ALCOHOL BEVERAGE SALES (RESTAURANT)","ROYAL VISTA","Renewal Licensed","2019-03-14T00:00:00.000","-114.21509189096817","51.152140882333235"
"UPTEN WINES AND SPIRITS","#1001 201 10 AV SE","RETAIL DEALER - PREMISES","BELTLINE","Renewal Licensed","2021-04-15T00:00:00.000","-114.06015928775831","51.04302866458017"
"WINDOW MART","#112 5050 106 AV SE","WHOLESALER","EAST SHEPARD INDUSTRIAL","Renewal Licensed","2019-05-02T00:00:00.000","-113.96306875840753","50.95835397712667"
"AERO-TECH MACHINING","#43 5335 6 ST NE","MANUFACTURER","SKYLINE WEST","Pending Renewal","2013-08-30T00:00:00.000","-114.0490259731626","51.09955353686322"
"WINDOW MART","#112 5050 106 AV SE","CONTRACTOR","EAST SHEPARD INDUSTRIAL","Renewal Licensed","2019-05-02T00:00:00.000","-113.96306875840753","50.95835397712667"
"CUSTOM WALL-BEDS","#18 7003 30 ST SE","MANUFACTURER","FOOTHILLS","Renewal Licensed","1997-01-10T00:00:00.000","-113.98469562521585","50.99169035645248"
"TIM HORTON'S","#400 12100 MACLEOD TR SE","FOOD SERVICE - PREMISES (SEATING)","LAKE BONAVISTA","Renewal Licensed","2018-01-15T00:00:00.000","-114.06959424621635","50.944195512746695"
"BOW TIE PIZZA","112 MAHOGANY ST SE","FOOD SERVICE - PREMISES (SEATING)","MAHOGANY","Renewal Licensed","2018-02-27T00:00:00.000","-113.93970199709875","50.89689081783935"
"BUY BUY BABY","#520 3630 BRENTWOOD RD NW","RETAIL DEALER - PREMISES","BRENTWOOD","Renewal Licensed","2019-04-12T00:00:00.000","-114.1260116239799","51.085934072137945"
"PANDA NAIL DESIGN AND SPA","416A 16 AV NE","PERSONAL SERVICE","WINSTON HEIGHTS/MOUNTVIEW","Licensed","2022-02-22T00:00:00.000","-114.05514679979667","51.06735564121537"
"CANNA CABANA","2107 EDMONTON TR NE","CANNABIS STORE","TUXEDO PARK","Renewal Licensed","2018-09-13T00:00:00.000","-114.0564068983715","51.070936076466545"
"FRESHGO","#3 3419 12 ST NE","WHOLESALER","MCCALL","Renewal Licensed","2021-04-09T00:00:00.000","-114.03081140132089","51.08226327716437"
"JULZZ CREATIONS","#8 2010 30 AV NE","PERSONAL SERVICE (INDEPENDENT CHAIR OPERATOR)","SOUTH AIRWAYS","Pending Renewal","2018-11-05T00:00:00.000","-114.0109247865393","51.08015390217357"
"TAIKO CANTEEN","#107 3851 MANCHESTER RD SE","OUTDOOR PATIO","MANCHESTER INDUSTRIAL","Renewal Licensed","2019-06-12T00:00:00.000","-114.05860860763593","51.02032515395573"
"TRICO LIVINGWELL","7670 4A ST SW","PERSONAL SERVICE","KINGSLAND","Licensed","2022-08-05T00:00:00.000","-114.0733424158177","50.98438381329078"
"SOUTH STREET BURGER","#410 80 LONGVIEW CM SE","FOOD SERVICE - PREMISES (SEATING)","LEGACY","Licensed","2022-01-31T00:00:00.000","-114.0314783095157","50.86495277489479"
"ACTIVE WORKS MASSAGE AND PHYSIOTHERAPY","#204 3716 61 AV SE","MASSAGE CENTRE (COMMERCIAL)","FOOTHILLS","Licensed","2022-04-21T00:00:00.000","-113.97949882606842","50.99944651590061"
"BALANCED HEALTH AND SPORTS THERAPY","1519 19 ST NW","FOOD SERVICE - PREMISES","HOUNSFIELD HEIGHTS/BRIAR HILL","Renewal Licensed","2006-04-19T00:00:00.000","-114.10687753070265","51.0656986513495"
"EASYHOME","#106 495 36 ST NE","RETAIL DEALER - PREMISES","FRANKLIN","Renewal Licensed","2015-07-17T00:00:00.000","-113.98529451146362","51.055275515597685"
"BOND CONTRACTING AND CONSTRUCTION","#31 777 64 AV SE","CONTRACTOR","BURNS INDUSTRIAL","Renewal Licensed","2011-05-10T00:00:00.000","-114.04686433337098","50.99620001452007"
"CANNA CABANA","#105 330 10 ST NW","RETAIL DEALER - PREMISES","SUNNYSIDE","Licensed","2022-02-24T00:00:00.000","-114.08564624910098","51.05520159810777"
"ROUTE2FREEDOM DRIVER'S EDUCATION","#2234 12 ROYAL VISTA WY NW","SCHOOL (DRIVER EDUCATION)","ROYAL VISTA","Renewal Licensed","2019-02-11T00:00:00.000","-114.20615751569186","51.153004857605595"
"RELAY #7291","2000 AIRPORT RD NE","TOBACCO RETAILER","CALGARY INTERNATIONAL AIRPORT","Renewal Licensed","2014-03-21T00:00:00.000","-114.01040417352488","51.13121958393061"
"REFINERY SALON & SPA (THE)","#215 9825 FAIRMOUNT DR SE","RETAIL DEALER - PREMISES","ACADIA","Renewal Licensed","2018-03-01T00:00:00.000","-114.05920898441907","50.964275718126146"
"TIM HORTON'S","#400 12100 MACLEOD TR SE","RETAIL DEALER - PREMISES","LAKE BONAVISTA","Renewal Licensed","2018-01-15T00:00:00.000","-114.06959424621635","50.944195512746695"
"CUSTOM WALL-BEDS","#18 7003 30 ST SE","RETAIL DEALER - PREMISES","FOOTHILLS","Renewal Licensed","1997-01-10T00:00:00.000","-113.98469562521585","50.99169035645248"
"DIVINE MINE (THE)","#222 11566 24 ST SE","MASSAGE CENTRE (COMMERCIAL)","SHEPARD INDUSTRIAL","Renewal Licensed","2004-06-29T00:00:00.000","-114.0017433535189","50.95098969848315"
"PUNJABI FOLK DANCE SCHOOL CALGARY","#430 10980 38 ST NE","SCHOOL (PROV. NOT REQUIRED)","STONEY 3","Licensed","2021-11-02T00:00:00.000","-113.97658885965805","51.1517307917218"
"VERN'S","622 8 AV SW","ENTERTAINMENT ESTABLISHMENT","DOWNTOWN COMMERCIAL CORE","Renewal Licensed","2006-03-23T00:00:00.000","-114.07518240131232","51.04613374983604"
"THERMAL ALUMINUM AND GLASS","#20 1410 40 AV NE","CONTRACTOR","MCCALL","Renewal Licensed","2017-05-04T00:00:00.000","-114.02974198143151","51.0891524999866"
"PREMIER LIQUOR","9677 MACLEOD TR SW","RETAIL DEALER - PREMISES","HAYSBORO","Renewal Licensed","2016-06-27T00:00:00.000","-114.07288464665952","50.96806534567807"
"REEF KITCHENS EDM-1050","310 MACLEOD TR SE","FOOD SERVICE - NO PREMISES","DOWNTOWN EAST VILLAGE","Renewal Licensed","2021-04-05T00:00:00.000","-114.05755208756517","51.049591294862736"
"CANNA CABANA","#105 330 10 ST NW","CANNABIS STORE","SUNNYSIDE","Licensed","2022-02-24T00:00:00.000","-114.08564624910098","51.05520159810777"
"MTE LOGISTIX","6505 48 ST SE","WAREHOUSING","FOOTHILLS","Renewal Licensed","2011-12-16T00:00:00.000","-113.96585748723373","50.99595057954022"
"QUEEN OF HEARTS","#101 510 21 AV SW","PERSONAL SERVICE","CLIFF BUNGALOW","Licensed","2022-05-24T00:00:00.000","-114.07213079799162","51.03447529513623"
