"the_geom","objectid","businessaddress","businessname","businessstartdate","businesstype","city","locationx","locationy","state","suite","zip"
"POINT (-90.065338332795 29.96422422151)","351","1119 N RAMPART ST","FRENCH QUARTER SUITES","2018-11-14","4701 - HOTELS (EXC CASINO HOTELS) & MOTELS","NEW ORLEANS","3682331.76936","534701.63239","LA",,"70116"
"POINT (-90.067772138144 29.966034493113)","215","1123 MARAIS ST","MARAIS HOUSE","2017-03-28","4703 - BED & BREAKFAST INNS","NEW ORLEANS","3681553.89218","535351.395206","LA",,"70116"
"POINT (-90.071031221943 29.952146463083)","65","226 CARONDELET ST","HAMPTON INN & SUITES-NEW ORLEANS DOWNTOWN","2015-05-29","4701 - HOTELS (EXC CASINO HOTELS) & MOTELS","NEW ORLEANS","3680577.63528","530289.810113","LA",,"70130"
"POINT (-90.052409641888 29.963929343845)","71","2517 CHARTRES ST","LIONS INN","2017-06-30","4703 - BED & BREAKFAST INNS","NEW ORLEANS","3686426.52463","534639.934598","LA",,"70117"
"POINT (-90.057637257826 29.972678953345)","318","1502 ELYSIAN FIELDS AVE","NITEY NITE INN LLC","2021-07-03","4701 - HOTELS (EXC CASINO HOTELS) & MOTELS","NEW ORLEANS","3684735.89961","537803.151368","LA",,"70116"
"POINT (-90.071320560751 29.955675918841)","142","129 BURGUNDY ST","CHH-NOLA LLC","2018-01-16","4701 - HOTELS (EXC CASINO HOTELS) & MOTELS","NEW ORLEANS","3680471.87599","531572.241091","LA",,"70112"
"POINT (-90.066072321146 29.932823135549)","24","1503 TCHOUPITOULAS ST","1503 GUEST HOUSE LLC","2016-02-01","4703 - BED & BREAKFAST INNS","NEW ORLEANS","3682225.65532","523280.484411","LA",,"70130"
"POINT (-90.059220408923 29.963100970542)","85","613 ESPLANADE AVE","JEAN LAFITTE HOUSE","1989-01-01","4704 - TRAVELER ACCOMMODATION, ALL OTH","NEW ORLEANS","3684273.4038","534314.664581","LA",,"70116-2018"
"POINT (-90.05224642016 29.965950412811)","101","2471 DAUPHINE ST","CREOLE INN RUE DAUPHINE","2009-03-17","4703 - BED & BREAKFAST INNS","NEW ORLEANS","3686469.98818","535375.44743","LA",,"70117"
"POINT (-90.054970095174 29.966832767709)","156","2317 BURGUNDY ST","PETER AND PAUL HOTEL","2018-09-13","4701 - HOTELS (EXC CASINO HOTELS) & MOTELS","NEW ORLEANS","3685604.03804","535686.672647","LA",,"70117"
"POINT (-90.06817634301 29.955210999624)","144","730 BIENVILLE ST","HOTEL MAZARIN","2018-12-18","4701 - HOTELS (EXC CASINO HOTELS) & MOTELS","NEW ORLEANS","3681469.36956","531414.158723","LA",,"70130"
"POINT (-90.075243150609 29.97358462261)","239","2306 ESPLANADE AVE","DEGAS HOUSE","2005-01-01","4703 - BED & BREAKFAST INNS","NEW ORLEANS","3679158.27259","538070.858377","LA",,"70119"
"POINT (-90.043980592425 29.9625251481)","342","616  LOUISA ST","NOLA PLACE","2016-01-04","4703 - BED & BREAKFAST INNS","NEW ORLEANS","3689101.12988","534159.251141","LA",,"70117"
"POINT (-90.066112965502 29.969272597879)","212","1447 N VILLERE ST","FLORVILLE MANOR","2016-09-29","4703 - BED & BREAKFAST INNS","NEW ORLEANS","3682066.19778","536534.697031","LA",,"70116"
"POINT (-90.064786315662 29.942493254238)","256","881 CONVENTION CENTER BLVD","HYATT PLACE NEW ORLEANS CONVENTION CENTER","2018-02-07","4701 - HOTELS (EXC CASINO HOTELS) & MOTELS","NEW ORLEANS","3682594.03631","526801.392702","LA",,"70130"
"POINT (-90.059858620463 29.968445905495)","189","1919 ST CLAUDE AVE","NOLA ST CLAUDE","2021-11-01","4701 - HOTELS (EXC CASINO HOTELS) & MOTELS","NEW ORLEANS","3684049.72642","536256.034503","LA",,"70116"
"POINT (-90.057097408273 29.961704187299)","274","405 ESPLANADE AVE","HOTEL DE LA MONNAIE OWNERS  ASSOCIATION INC","1993-05-15","4701 - HOTELS (EXC CASINO HOTELS) & MOTELS","NEW ORLEANS","3684951.26537","533814.223941","LA",,"70116"
"POINT (-90.064902395749 29.967107644203)","147","1227 ESPLANADE AVE","RATHBONE MANSIONS","2019-10-24","4701 - HOTELS (EXC CASINO HOTELS) & MOTELS","NEW ORLEANS","3682458.19132","535751.679879","LA",,"70116"
"POINT (-90.054851653216 29.96547029141)","277","2316 DAUPHINE ST","LA DAUPHINE","1996-11-15","4703 - BED & BREAKFAST INNS","NEW ORLEANS","3685647.06697","535191.64455","LA",,"70117"
"POINT (-90.051163594836 29.967776295863)","213","2532 N RAMPART ST","2532 N RAMPART STREET, LLC","2016-10-12","4703 - BED & BREAKFAST INNS","NEW ORLEANS","3686805.40278","536043.240199","LA",,"70117"
"POINT (-90.063132726708 29.959981358947)","270","915 ROYAL ST","CORNSTALK HOTEL","1982-07-02","4701 - HOTELS (EXC CASINO HOTELS) & MOTELS","NEW ORLEANS","3683047.22428","533166.505668","LA","001","70116"
"POINT (-90.076989294557 29.951922709288)","352","10020 I-10 SERVICE RD","QUALITY INN","2018-12-22","4701 - HOTELS (EXC CASINO HOTELS) & MOTELS","NEW ORLEANS","3678691.8167","530187.70942","LA",,"70127"
"POINT (-90.074331791275 29.95643134643)","169","1300 CANAL ST","HOTEL VINACHE","2021-04-27","4701 - HOTELS (EXC CASINO HOTELS) & MOTELS","NEW ORLEANS","3679515.34165","531836.453187","LA",,"70112"
"POINT (-90.075164747808 29.941778911262)","170","1210 CARONDELET ST","HOSTEEVA, LLC","2021-08-01","4701 - HOTELS (EXC CASINO HOTELS) & MOTELS","NEW ORLEANS","3679310.09013","526505.392382","LA","APT B","70130"
"POINT (-90.072394720726 29.949763203769)","286","820 POYDRAS ST","DRURY INN NEW ORLEANS","2009-02-16","4701 - HOTELS (EXC CASINO HOTELS) & MOTELS","NEW ORLEANS","3680155.40034","529418.415425","LA",,"70112"
"POINT (-90.068735244775 29.949815205142)","210","530 NATCHEZ ST","THE NATCHEZ NEW ORLEANS MT","2016-01-13","4701 - HOTELS (EXC CASINO HOTELS) & MOTELS","NEW ORLEANS","3681314.0454","529450.096385","LA",,"70130"
"POINT (-90.072310244053 29.935318290793)","237","1441 MAGAZINE ST","TERRELL HOUSE","2004-03-26","4703 - BED & BREAKFAST INNS","NEW ORLEANS","3680239.9588","524166.015356","LA",,"70130"
"POINT (-90.071414465823 29.937478601385)","23","1332 MAGAZINE ST","THE TOWNHOUSE","2016-01-08","4703 - BED & BREAKFAST INNS","NEW ORLEANS","3680515.01647","524954.705533","LA",,"70130"
"POINT (-90.067216483252 29.958087296477)","272","828 TOULOUSE ST","OLIVIER HOUSE HOTEL","1983-12-10","4701 - HOTELS (EXC CASINO HOTELS) & MOTELS","NEW ORLEANS","3681761.7565","532463.443396","LA",,"70112-3422"
"POINT (-90.041735588665 29.9623358285)","345","631 DESIRE ST","631 DESIRE LLC","2017-05-31","4703 - BED & BREAKFAST INNS","NEW ORLEANS","3689812.743","534098.413637","LA",,"70117"
"POINT (-90.093971085683 29.927114539085)","78","3626 ST CHARLES AVE","HAMPTON INN NEW ORLEANS-ST.CHARLES AVE./GARDEN DIS","2022-02-01","4701 - HOTELS (EXC CASINO HOTELS) & MOTELS","NEW ORLEANS","3673411.84174","521107.980217","LA",,"70115"
"POINT (-90.06859372777 29.95317636328)","316","623 CANAL ST","SONDER USA","2021-04-06","4701 - HOTELS (EXC CASINO HOTELS) & MOTELS","NEW ORLEANS","3681345.36917","530672.83117","LA",,"70130"
"POINT (-90.055531003336 29.966721328857)","349","2233 BURGUNDY ST","WELCOME ABROAD LLC","2018-05-23","4703 - BED & BREAKFAST INNS","NEW ORLEANS","3685426.8966","535644.168646","LA",,"70117"
"POINT (-90.074643014889 29.974160125824)","114","2257 BAYOU RD","BENACHI HOUSE","2017-05-18","4703 - BED & BREAKFAST INNS","NEW ORLEANS","3679345.97474","538282.219913","LA",,"70119"
"POINT (-90.071031221943 29.952146463083)","188","226  CARONDELET ST","HAMPTON INN FRENCH QUARTER","2021-11-24","4701 - HOTELS (EXC CASINO HOTELS) & MOTELS","NEW ORLEANS","3680577.63528","530289.810113","LA",,"70130"
"POINT (-90.087100591432 29.925409769097)","92","1221 HARMONY ST","MAISON LAFAYETTE","2000-02-08","4703 - BED & BREAKFAST INNS","NEW ORLEANS","3675594.77537","520511.667768","LA",,"70115"
"POINT (-90.105011810141 29.968637975177)","158","4025 TULANE AVE","CRYSTAL INN","2019-02-01","4701 - HOTELS (EXC CASINO HOTELS) & MOTELS","NEW ORLEANS","3669752.88622","536169.809799","LA",,"70119"
"POINT (-90.056185223 29.963710152976)","347","601 ELYSIAN FIELDS AVE","MAISON DES LUNES, LLC","2018-01-31","4703 - BED & BREAKFAST INNS","NEW ORLEANS","3685231.96367","534546.884613","LA",,"70117"
"POINT (-90.067180212506 29.9485129285)","146","501 TCHOUPITOULAS ST","KIMPTON HOTEL RESTAURANT","2019-08-08","4701 - HOTELS (EXC CASINO HOTELS) & MOTELS","NEW ORLEANS","3681811.71298","528981.979328","LA",,"70130"
"POINT (-90.070987854949 29.938929088365)","98","1212 MAGAZINE ST","THE GREEN HOUSE INN","2006-05-26","4703 - BED & BREAKFAST INNS","NEW ORLEANS","3680644.31823","525483.642749","LA",,"70130"
"POINT (-90.073228679477 29.953510906255)","157","210 O'KEEFE AVE","MONARCH NEW ORLEANS, LP","2018-09-14","4701 - HOTELS (EXC CASINO HOTELS) & MOTELS","NEW ORLEANS","3679876.32213","530778.312898","LA",,"70112"
"POINT (-90.063205079217 29.959863194197)","324","905 ROYAL ST","905 ROYAL HOTEL","1999-01-01","4701 - HOTELS (EXC CASINO HOTELS) & MOTELS","NEW ORLEANS","3683024.79112","533123.2825","LA",,"70116"
"POINT (-89.989837336823 30.013715345256)","278","8310 CHEF MENTEUR HWY","ECONOMY INN","1996-11-25","4704 - TRAVELER ACCOMMODATION, ALL OTH","NEW ORLEANS","3706026.2442","552970.789591","LA",,"70126"
"POINT (-90.067190433414 29.946824521229)","73","632 TCHOUPITOULAS ST","CAMBRIA NEW ORLEANS DOWNTOWN","2017-08-24","4701 - HOTELS (EXC CASINO HOTELS) & MOTELS","NEW ORLEANS","3681815.26069","528367.977216","LA",,"70130"
"POINT (-90.098877810743 29.924666104592)","328","4117 PERRIER ST","MAISON PERRIER","2004-08-10","4703 - BED & BREAKFAST INNS","NEW ORLEANS","3671867.25467","520200.862968","LA",,"70115"
"POINT (-90.061449739849 29.965109174601)","308","1419 DAUPHINE ST","MAISON DUBOIS","2018-04-18","4701 - HOTELS (EXC CASINO HOTELS) & MOTELS","NEW ORLEANS","3683559.42645","535037.079878","LA",,"70116"
"POINT (-90.067284209858 29.961011283063)","130","1024 ST ANN ST","MARIE LAVAEAU GUEST HOUSE","2011-07-01","4701 - HOTELS (EXC CASINO HOTELS) & MOTELS","NEW ORLEANS","3681728.56309","533526.476036","LA",,"70116"
"POINT (-90.07011423342 29.95075658391)","311","360 ST CHARLES AVE","RESIDENCE INN BY MARRIOT","2019-07-08","4701 - HOTELS (EXC CASINO HOTELS) & MOTELS","NEW ORLEANS","3680873.58472","529787.599297","LA",,"70130"
"POINT (-90.09112066284 29.944800185207)","117","2309 S CLAIBORNE AVE","MASON MOTEL INC","1993-05-01","4701 - HOTELS (EXC CASINO HOTELS) & MOTELS","NEW ORLEANS","3674244.97697","527548.905535","LA",,"70125"
"POINT (-90.080124023729 29.94020551895)","226","1615 ORETHA CASTLE HALEY BLVD","1615 OCH","2020-09-08","4701 - HOTELS (EXC CASINO HOTELS) & MOTELS","NEW ORLEANS","3677745.75694","525916.038077","LA",,"70113"
"POINT (-90.071341486204 29.953024746703)","121","817 COMMON ST","RENAISSANCE PERE MARQUETTE","2001-10-19","4701 - HOTELS (EXC CASINO HOTELS) & MOTELS","NEW ORLEANS","3680475.86792","530608.104258","LA","B","70112"
"POINT (-90.066102056126 29.950853045913)","30","300 CANAL ST","DOUBLETREE HOTEL","2019-10-21","4701 - HOTELS (EXC CASINO HOTELS) & MOTELS","NEW ORLEANS","3682143.72834","529836.705729","LA",,"70130"
"POINT (-90.066102056126 29.950853045913)","162","300 CANAL ST","DOUBLETREE NEW ORLEANS","2019-10-21","4701 - HOTELS (EXC CASINO HOTELS) & MOTELS","NEW ORLEANS","3682143.72834","529836.705729","LA",,"70130"
"POINT (-90.074630526234 29.937899352946)","81","1525 PRYTANIA ST","PRYTANIA PARK HOTEL","1983-03-02","4701 - HOTELS (EXC CASINO HOTELS) & MOTELS","NEW ORLEANS","3679494.77384","525096.502717","LA",,"70130"
"POINT (-90.066730877996 29.963584911196)","309","1129  ST PHILIP ST","NEW ORLEANS JAZZ QUARTERS","2018-03-01","4701 - HOTELS (EXC CASINO HOTELS) & MOTELS","NEW ORLEANS","3681893.42293","534464.278789","LA",,"70116"
"POINT (-90.063132726708 29.959981358947)","303","915 ROYAL ST","THE CORNSTALK HOTEL","2017-09-06","4701 - HOTELS (EXC CASINO HOTELS) & MOTELS","NEW ORLEANS","3683047.22428","533166.505668","LA",,"70116"
"POINT (-90.076989294557 29.951922709288)","346","2028-30 IBERVILLE ST","2028-30 IBERVILLE LLC","2017-12-04","4701 - HOTELS (EXC CASINO HOTELS) & MOTELS","NEW ORLEANS","3678691.8167","530187.70942","LA",,"70112"
"POINT (-90.06303741383 29.960041277028)","62","919 ROYAL ST","ANDREW JACKSON HOTEL","2013-03-27","4701 - HOTELS (EXC CASINO HOTELS) & MOTELS","NEW ORLEANS","3683077.16258","533188.62842","LA",,"70116"
"POINT (-90.066409495852 29.96809426232)","94","1333 ESPLANADE AVE","ANTEBELLUM GUEST HOUSE","2002-02-08","4703 - BED & BREAKFAST INNS","NEW ORLEANS","3681977.05096","536105.172103","LA",,"70116"
"POINT (-90.068555741174 29.953650780475)","47","124 ROYAL ST","WYNDHAM NEW ORLEANS","2001-08-31","4701 - HOTELS (EXC CASINO HOTELS) & MOTELS","NEW ORLEANS","3681355.49378","530845.47949","LA",,"70130"
"POINT (-90.06761791601 29.952493040037)","276","555 CANAL ST","NEW ORLEANS MARRIOTT HOTEL-[H/P]","1993-11-06","4701 - HOTELS (EXC CASINO HOTELS) & MOTELS","NEW ORLEANS","3681657.1156","530427.761794","LA","A","70130"
"POINT (-90.074462750216 29.940925532513)","141","1225 ST CHARLES AVE","THE QUISBY","2016-11-17","4701 - HOTELS (EXC CASINO HOTELS) & MOTELS","NEW ORLEANS","3679535.82018","526197.515134","LA",,"70130"
"POINT (-90.072633427814 29.952092287359)","220","317 BARONNE ST","NOPSI HOTEL","2018-11-06","4701 - HOTELS (EXC CASINO HOTELS) & MOTELS","NEW ORLEANS","3680070.49019","530264.524289","LA",,"70112"
"POINT (-90.068410553748 29.959366089747)","115","1001 TOULOUSE ST","MAISON DUPUY HOTEL","2017-07-06","4701 - HOTELS (EXC CASINO HOTELS) & MOTELS","NEW ORLEANS","3681378.5261","532924.284036","LA",,"70112"
"POINT (-90.065697388107 29.967126205934)","72","1244 ESPLANADE AVE","RATHB0NE MANSIONS","2017-08-11","4701 - HOTELS (EXC CASINO HOTELS) & MOTELS","NEW ORLEANS","3682206.4084","535755.644103","LA",,"70116"
"POINT (-90.067736931761 29.954573486532)","1","214 ROYAL ST","MONTELEONE HOTEL","1968-01-01","4701 - HOTELS (EXC CASINO HOTELS) & MOTELS","NEW ORLEANS","3681611.07157","531183.872066","LA","A","70130"
"POINT (-90.07249343416 29.952586815965)","217","225 BARONNE ST","ALOFT NEW ORLEANS DOWNTOWN","2017-04-26","4701 - HOTELS (EXC CASINO HOTELS) & MOTELS","NEW ORLEANS","3680112.84251","530444.840962","LA",,"70112"
"POINT (-90.067841006151 29.957929592979)","55","509 DAUPHINE ST","AUDUBON COTTAGES","2011-10-05","4701 - HOTELS (EXC CASINO HOTELS) & MOTELS","NEW ORLEANS","3681564.63752","532403.911875","LA",,"70116"
"POINT (-90.079078614122 29.935382875249)","280","2001 ST CHARLES AVE","ST CHARLES COACH HOUSE","1998-03-01","4701 - HOTELS (EXC CASINO HOTELS) & MOTELS","NEW ORLEANS","3678096.03714","524165.972284","LA",,"70130"
"POINT (-90.058399631176 29.97040066542)","218","1242 FRENCHMEN ST","FRENCHMEN OASIS","2017-05-25","4703 - BED & BREAKFAST INNS","NEW ORLEANS","3684503.75113","536971.994888","LA",,"70116"
"POINT (-90.072951839574 29.969166778903)","108","1100 N PRIEUR ST","THE TREME INN","2015-01-01","4701 - HOTELS (EXC CASINO HOTELS) & MOTELS","NEW ORLEANS","3679901.36463","536472.335559","LA",,"70116"
"POINT (-89.973411541365 30.035524781272)","263","5801 READ BLVD","COUNTRY INN & SUITES,NEW ORLEANS I-10 EAST","2019-02-15","4701 - HOTELS (EXC CASINO HOTELS) & MOTELS","NEW ORLEANS","3711130.32971","560962.831134","LA",,"70127"
"POINT (-90.026143605871 29.92265446943)","37","3350 NEVADA ST","EMANUEL & SHENAâ€™S BED & BREAKFAST","2021-09-24","4703 - BED & BREAKFAST INNS","NEW ORLEANS","3694914.26262","519724.881272","LA",,"70114"
"POINT (-90.052478534789 29.966743931656)","137","2466 BURGUNDY ST","MARIGNY JEWEL","2015-08-06","4703 - BED & BREAKFAST INNS","NEW ORLEANS","3686393.27042","535663.178439","LA",,"70117"
"POINT (-90.079320617108 29.933304017081)","283","2127 PRYTANIA ST","MAGNOLIA MANSION HOTEL","2002-03-08","4701 - HOTELS (EXC CASINO HOTELS) & MOTELS","NEW ORLEANS","3678027.66338","523409.185339","LA",,"70130"
"POINT (-90.072645383603 29.955258058112)","265","1028 CANAL ST","HI-NEW ORLEANS HOSTELLING INTERNATIONAL USA","2019-08-14","4701 - HOTELS (EXC CASINO HOTELS) & MOTELS","NEW ORLEANS","3680054.03842","531415.673411","LA",,"70112"
"POINT (-90.067684365213 29.965381625879)","118","1317 URSULINES AVE","EMPRESS HOTEL","1996-02-18","4701 - HOTELS (EXC CASINO HOTELS) & MOTELS","NEW ORLEANS","3681584.3053","535114.295366","LA",,"70116"
"POINT (-90.069902592915 29.942621917064)","168","1000 MAGAZINE ST","HIGGINS HOTEL & CONFERENCE CENTER","2020-12-23","4701 - HOTELS (EXC CASINO HOTELS) & MOTELS","NEW ORLEANS","3680973.22095","526830.277182","LA",,"70130"
"POINT (-90.060206584225 29.966952941799)","70","1625 PAUGER ST","MARK & RON'S B&B","2016-08-29","8806 - .1(43) BED AND BREAKFAST 1 TO 2 ROOMS","NEW ORLEANS","3683945.58863","535711.913351","LA",,"70116"
"POINT (-90.076989294557 29.951922709288)","125","2111 ST. CHARLES AVE","EXTRA HOLIDAYS","2007-02-06","4701 - HOTELS (EXC CASINO HOTELS) & MOTELS","NEW ORLEANS","3678691.8167","530187.70942","LA",,"70130"
"POINT (-90.065607684599 29.963926857581)","27","1101 N RAMPART ST","NEW ORLEANS COURTYARD HOTEL","2018-11-14","4701 - HOTELS (EXC CASINO HOTELS) & MOTELS","NEW ORLEANS","3682247.68156","534592.556165","LA",,"70116"
"POINT (-89.997007796148 30.012493572035)","135","7700 CHEF MENTEUR HWY","JACKS MOTEL","2014-02-10","4701 - HOTELS (EXC CASINO HOTELS) & MOTELS","NEW ORLEANS","3703762.2145","552499.971542","LA",,"70126"
"POINT (-90.076592487626 29.976939173897)","192","2545 BAYOU RD","2545 BAYOU ROAD","2022-04-22","4703 - BED & BREAKFAST INNS","NEW ORLEANS","3678717.69806","539286.013066","LA",,"70119"
"POINT (-90.057884530043 29.969396371113)","161","2110 MARAIS ST","LE SHACKTEAU","2019-09-23","8806 - .1(43) BED AND BREAKFAST 1 TO 2 ROOMS","NEW ORLEANS","3684670.90044","536608.611079","LA",,"70116"
"POINT (-90.060797719504 29.963117058247)","279","717 BARRACKS ST","ROYAL BARRACKS GUEST HOUSE","1997-04-14","4702 - ROOMING & BOARDING HOUSES","NEW ORLEANS","3683773.91612","534314.965125","LA",,"70116"
"POINT (-90.071211187 29.95235800261)","66","221 CARONDELET ST","AC HOTEL NEW ORLEANS BOURBON/FRENCH QUARTER AREA","2015-08-20","4701 - HOTELS (EXC CASINO HOTELS) & MOTELS","NEW ORLEANS","3680519.79951","530366.105858","LA",,"70130"
"POINT (-90.099045431693 29.929284005624)","329","1816 MARENGO ST","AIRYN MONET","2000-01-01","4703 - BED & BREAKFAST INNS","NEW ORLEANS","3671796.07163","521879.528762","LA",,"70115"
"POINT (-90.079595636253 29.935081032745)","111","2031 SAINT CHARLES AVE","APARIUM HOTEL GROUP","2016-05-24","4701 - HOTELS (EXC CASINO HOTELS) & MOTELS","NEW ORLEANS","3677933.48789","524054.419644","LA","STE #A","70130"
"POINT (-90.085443391513 29.966064105916)","357","2625 IBERVILLE ST","LUCKY INN","2022-02-01","4701 - HOTELS (EXC CASINO HOTELS) & MOTELS","NEW ORLEANS","3675958.69275","535300.798278","LA",,"70119"
"POINT (-90.055085405833 29.964315737923)","338","625 MARIGNY ST","RIVER HOUSE NEW ORLEANS","2014-02-17","4703 - BED & BREAKFAST INNS","NEW ORLEANS","3685577.73929","534770.980742","LA",,"70117"
"POINT (-90.066355594662 29.954500384619)","14","316 CHARTRES ST","W FRENCH QUARTER HOTEL","2013-04-01","4701 - HOTELS (EXC CASINO HOTELS) & MOTELS","NEW ORLEANS","3682048.77532","531162.123394","LA",,"70130"
"POINT (-89.995554445643 30.012686018311)","99","7800 CHEF MENTEUR HWY","ROYAL PALMS MOTEL","2007-07-03","4701 - HOTELS (EXC CASINO HOTELS) & MOTELS","NEW ORLEANS","3704221.34007","552575.31919","LA",,"70126"
"POINT (-90.068887454719 29.952715166542)","49","614 CANAL ST","JW MARRIOT NEW ORLEANS","2003-04-15","4701 - HOTELS (EXC CASINO HOTELS) & MOTELS","NEW ORLEANS","3681254.20789","530504.096514","LA",,"70130"
"POINT (-90.064293532986 29.955276176225)","287","501 DECATUR ST","FRENCH MARKET INN","2011-05-16","4701 - HOTELS (EXC CASINO HOTELS) & MOTELS","NEW ORLEANS","3682698.61692","531451.455555","LA",,"70130"
"POINT (-90.061966708277 29.96715665838)","143","1744 N RAMPART ST","CHEZ PALMIERS BED & BREAKFAST","2018-02-09","4703 - BED & BREAKFAST INNS","NEW ORLEANS","3683387.4813","535779.804743","LA",,"70116"
"POINT (-89.962520002656 30.048633972021)","198","7051 BULLARD AVE","COMFORT SUITES","2002-01-01","4701 - HOTELS (EXC CASINO HOTELS) & MOTELS","NEW ORLEANS","3714519.34565","565770.890339","LA",,"70128-2307"
"POINT (-90.064890944392 29.966608047453)","222","1206 ESPLANADE AVE","ESPLANADE GUEST HOUSE","2019-10-24","4703 - BED & BREAKFAST INNS","NEW ORLEANS","3682463.8278","535570.047878","LA",,"70116"
"POINT (-90.062046621683 29.959956904195)","205","612 ST PHILIP ST","ST. PHILIP FRENCH QUARTER APARTMENTS","2011-08-22","4701 - HOTELS (EXC CASINO HOTELS) & MOTELS","NEW ORLEANS","3683391.22671","533161.426756","LA",,"70116"
"POINT (-90.082634894897 29.934406902019)","5","2253 CARONDELET ST","MARQUETTE HOUSE HOTEL","1991-02-25","4701 - HOTELS (EXC CASINO HOTELS) & MOTELS","NEW ORLEANS","3676973.57262","523798.761339","LA",,"70130"
"POINT (-90.066867052273 29.952389236063)","100","115 DECATUR ST","BLUEGREEN RESORTS MANAGEMENT","2008-07-01","4701 - HOTELS (EXC CASINO HOTELS) & MOTELS","NEW ORLEANS","3681895.3037","530392.642114","LA",,"70130"
"POINT (-90.074994380213 29.939050827809)","77","1430 ST CHARLES AVE","SONDER USA","2021-11-29","4701 - HOTELS (EXC CASINO HOTELS) & MOTELS","NEW ORLEANS","3679374.93954","525513.955069","LA",,"70130"
"POINT (-90.069719624619 29.957409242868)","275","337 BURGUNDY ST","DAUZAT HOUSE","1992-09-01","4702 - ROOMING & BOARDING HOUSES","NEW ORLEANS","3680971.86677","532208.128515","LA",,"70112"
"POINT (-90.065729264635 29.948295370012)","11","228 POYDRAS ST","HARRAH'S POYDRAS HOTEL","2006-09-17","2060 - CASINO HOTELS","NEW ORLEANS","3682272.06844","528907.947328","LA",,"70130"
"POINT (-89.923857602779 30.031871306081)","34","13552 CHEF MENTEUR HWY","RELAX INN","2021-06-01","4701 - HOTELS (EXC CASINO HOTELS) & MOTELS","NEW ORLEANS","3726825.33881","559823.768925","LA",,"70129"
"POINT (-90.104023700944 29.94156635538)","136","3110 NAPOLEON AVE","MARCELIN'S ON NAPOLEON","2015-01-13","4703 - BED & BREAKFAST INNS","NEW ORLEANS","3670171.3483","526328.89491","LA",,"70125"
"POINT (-89.962052189661 30.048485634043)","52","7049 BULLARD AVE","HOLIDAY INN EXPRESS","2007-07-01","4701 - HOTELS (EXC CASINO HOTELS) & MOTELS","NEW ORLEANS","3714667.98623","565718.719714","LA",,"70128"
"POINT (-90.074264422504 29.954517654569)","260","1111 TULANE AVE","HOSTEEVA CALIFORNIA BUILDING BY HOSTEEVA","2018-09-01","4701 - HOTELS (EXC CASINO HOTELS) & MOTELS","NEW ORLEANS","3679544.32066","531140.798274","LA",,"70112"
"POINT (-90.06954853503 29.95238445141)","194","124 ST CHARLES AVE","COURTYARD BY MARRIOTT IMB-[H/P]","1995-09-01","4701 - HOTELS (EXC CASINO HOTELS) & MOTELS","NEW ORLEANS","3681046.1949","530381.527042","LA",,"70130"
"POINT (-90.065966026079 29.941700424411)","127","1001 S PETERS ST","HG NEW ORLEANS CONVENTION CENTER","2010-11-17","4701 - HOTELS (EXC CASINO HOTELS) & MOTELS","NEW ORLEANS","3682223.61666","526508.956862","LA",,"70130"
"POINT (-90.06627177124 29.949800254419)","54","300 GRAVIER ST","WINDSOR COURT HOTEL","2009-10-01","4701 - HOTELS (EXC CASINO HOTELS) & MOTELS","NEW ORLEANS","3682094.21813","529453.277569","LA",,"70130"
"POINT (-90.055356312636 29.967739845506)","132","1001 MARIGNY ST","OLDE TOWN INN","2012-04-01","4701 - HOTELS (EXC CASINO HOTELS) & MOTELS","NEW ORLEANS","3685478.07618","536015.155975","LA",,"70117"
"POINT (-90.070630707945 29.949076172895)","56","500 ST CHARLES AVE","BLAKE HOTEL NEW ORLEANS","2011-10-24","4701 - HOTELS (EXC CASINO HOTELS) & MOTELS","NEW ORLEANS","3680716.76725","529174.737728","LA",,"70130"
"POINT (-90.071030376898 29.95488864286)","282","921 CANAL ST","THE RITZ CARLTON HOTEL CO LLC","2000-10-01","4701 - HOTELS (EXC CASINO HOTELS) & MOTELS","NEW ORLEANS","3680566.91771","531286.97037","LA",,"70112"
"POINT (-90.066226258136 29.946592783879)","320","315 GIROD ST","MINT HOUSE LOUISIANA 01 LLC","2022-05-19","4701 - HOTELS (EXC CASINO HOTELS) & MOTELS","NEW ORLEANS","3682121.52866","528287.084288","LA",,"70130"
"POINT (-90.063523391704 29.949411561302)","229","2 CANAL ST","TWO CANAL MASTER TENANT","2021-07-19","4701 - HOTELS (EXC CASINO HOTELS) & MOTELS","NEW ORLEANS","3682966.11842","529321.569345","LA",,"70130"
"POINT (-90.074982527489 29.940166645069)","271","1319 ST CHARLES AVE","QUALITY INN MAISON ST CHARLES","1983-12-27","4701 - HOTELS (EXC CASINO HOTELS) & MOTELS","NEW ORLEANS","3679374.23752","525919.747901","LA",,"70130"
"POINT (-90.060951362633 29.960008997148)","290","1024 CHARTRES ST","HOTEL PROVINCIAL","2011-09-20","4701 - HOTELS (EXC CASINO HOTELS) & MOTELS","NEW ORLEANS","3683737.81845","533184.219076","LA",,"70116"
"POINT (-90.10366547808 29.977181748119)","216","4333 CANAL ST","HOSTEEVA","2017-04-19","4701 - HOTELS (EXC CASINO HOTELS) & MOTELS","NEW ORLEANS","3670145.81108","539281.230346","LA",,"70119"
"POINT (-90.049846795547 29.965592580446)","128","2711 DAUPHINE ST","ENGINE 24 FIREHOUSE","2011-03-10","4703 - BED & BREAKFAST INNS","NEW ORLEANS","3687231.21481","535253.828806","LA",,"70117"
"POINT (-90.071334523112 29.97099577429)","131","1834 ESPLANADE AVE","LA RUE ESPLANADE","2012-07-23","4703 - BED & BREAKFAST INNS","NEW ORLEANS","3680406.09858","537143.063304","LA",,"70116"
"POINT (-90.068865472196 29.956773021373)","40","335 DAUPHINE ST","TONY'S FRENCH QUARTER ROOMS","1988-09-01","4702 - ROOMING & BOARDING HOUSES","NEW ORLEANS","3681244.88546","531979.758723","LA",,"70112"
"POINT (-90.067909926374 29.950209132108)","254","315 MAGAZINE ST","THE ELIZA JANE HOTEL","2016-11-29","4701 - HOTELS (EXC CASINO HOTELS) & MOTELS","NEW ORLEANS","3681573.81852","529596.227969","LA",,"70130"
"POINT (-90.057465903641 29.963661620412)","259","2109 CHARTRES ST","W.M.COX","2018-09-21","4703 - BED & BREAKFAST INNS","NEW ORLEANS","3684826.66185","534524.719109","LA",,"70116"
"POINT (-90.068402946205 29.957304754669)","51","415 DAUPHINE ST","DAUPHINE ORLEANS HOTEL","2007-03-06","4701 - HOTELS (EXC CASINO HOTELS) & MOTELS","NEW ORLEANS","3681389.20968","532174.732931","LA",,"70112"
"POINT (-90.058462824048 29.964400797417)","241","2036 ROYAL ST","MAISON ROYAL","2006-10-19","4703 - BED & BREAKFAST INNS","NEW ORLEANS","3684508.01865","534789.997894","LA",,"70116"
"POINT (-90.057590382392 29.963109420389)","225","519 FRENCHMEN ST","FRENCHMEN ORLEANS AT 519","2020-04-22","4701 - HOTELS (EXC CASINO HOTELS) & MOTELS","NEW ORLEANS","3684789.48412","534323.479877","LA",,"70116"
"POINT (-90.052431938898 29.952292063418)","326","335 PELICAN AVE","HOUSE OF THE RISING SUN","1999-06-03","4703 - BED & BREAKFAST INNS","NEW ORLEANS","3686466.77052","530408.117378","LA",,"70114"
"POINT (-90.059725621492 29.961903957193)","312","1234 CHARTRES ST","LE RICHELIEU","2019-10-16","4701 - HOTELS (EXC CASINO HOTELS) & MOTELS","NEW ORLEANS","3684118.27682","533877.608325","LA",,"70116"
"POINT (-90.066756287603 29.958408810222)","193","827 TOULOUSE ST","HOTEL ST MARIE","1987-08-01","4701 - HOTELS (EXC CASINO HOTELS) & MOTELS","NEW ORLEANS","3681906.18293","532581.968004","LA",,"70112-3421"
"POINT (-90.076989294557 29.951922709288)","190","705 COMMON STREET","INDIGO ST. CHARLES","2021-12-28","4701 - HOTELS (EXC CASINO HOTELS) & MOTELS","NEW ORLEANS","3678691.8167","530187.70942","LA",,"70130"
"POINT (-90.080990500845 29.934173298944)","60","2203 ST CHARLES AVE","HOTEL INDIGO- MAIN","2012-10-15","4701 - HOTELS (EXC CASINO HOTELS) & MOTELS","NEW ORLEANS","3677495.31573","523719.503355","LA",,"70130"
"POINT (-90.062331094255 29.965314076807)","246","937 ESPLANADE AVE","MELROSE MANSION","2013-07-29","4701 - HOTELS (EXC CASINO HOTELS) & MOTELS","NEW ORLEANS","3683279.54261","535108.493446","LA",,"70116"
"POINT (-90.074731007547 29.973250484952)","41","2232 ESPLANADE AVE","THE ROSE","1992-12-01","4703 - BED & BREAKFAST INNS","NEW ORLEANS","3679321.74991","537951.133769","LA",,"70119-2606"
"POINT (-90.062195198581 29.960284224267)","63","631 ST PHILIP ST","RUFFINO'S GUEST HOUSE","2013-07-29","4702 - ROOMING & BOARDING HOUSES","NEW ORLEANS","3683342.86101","533279.930436","LA",,"70116"
"POINT (-90.064866220121 29.958973022211)","284","717 ORLEANS AVE","BOURBON ORLEANS HOTEL","2003-05-01","4701 - HOTELS (EXC CASINO HOTELS) & MOTELS","NEW ORLEANS","3682502.39119","532793.756676","LA",,"70116"
"POINT (-90.1257975449 29.936034066074)","53","7004 ST CHARLES AVE","PARKVIEW GUEST HOUSE","2010-01-01","4701 - HOTELS (EXC CASINO HOTELS) & MOTELS","NEW ORLEANS","3663296.78605","524243.819068","LA",,"70118"
"POINT (-90.073072435769 29.951785022049)","180","908 UNION ST","SELINA CATAHOULA NEW ORLEANS-HOTEL","2020-02-01","4701 - HOTELS (EXC CASINO HOTELS) & MOTELS","NEW ORLEANS","3679932.70082","530151.262145","LA",,"70112"
"POINT (-90.066650096135 29.957695821063)","321","541 BOURBON ST","FOUR POINTS BY SHERATON FRENCH QUARTER","1989-03-15","4701 - HOTELS (EXC CASINO HOTELS) & MOTELS","NEW ORLEANS","3681942.674","532323.070467","LA",,"70130"
"POINT (-90.072159932624 29.948409584778)","110","600 CARONDELET ST","ACE HOTEL","2016-03-08","4701 - HOTELS (EXC CASINO HOTELS) & MOTELS","NEW ORLEANS","3680235.16879","528927.008512","LA",,"70130"
"POINT (-90.075200831425 29.937195016735)","106","1625 PRYTANIA ST","THE QUEEN ANNE HOTEL","1999-10-01","4701 - HOTELS (EXC CASINO HOTELS) & MOTELS","NEW ORLEANS","3679316.96482","524838.397116","LA",,"70130"
"POINT (-90.048097253989 29.952816343301)","281","317 BELLEVILLE ST","BELLEVILLE COTTAGE BED &      BREAKFAST","2000-06-05","4703 - BED & BREAKFAST INNS","NEW ORLEANS","3687837.26806","530614.13485","LA",,"70114"
"POINT (-90.079595636253 29.935081032745)","298","2031 SAINT CHARLES AVE","PONTCHARTRAIN HOTEL","2016-06-03","4701 - HOTELS (EXC CASINO HOTELS) & MOTELS","NEW ORLEANS","3677933.48789","524054.419644","LA",,"70130"
"POINT (-90.067621256347 29.951096095671)","249","201 MAGAZINE ST","HOSTEVA","2015-08-10","4701 - HOTELS (EXC CASINO HOTELS) & MOTELS","NEW ORLEANS","3681661.66914","529919.769985","LA",,"70130"
"POINT (-90.014476181453 30.009609908912)","46","6322 CHEF MENTEUR HWY","SUPER 8 MOTEL","1999-01-28","4701 - HOTELS (EXC CASINO HOTELS) & MOTELS","NEW ORLEANS","3698246.04771","551387.310997","LA",,"70126-5129"
"POINT (-90.082302577666 29.923620938821)","126","833 6TH ST","THE DUCHESS, LLC","2009-06-11","4703 - BED & BREAKFAST INNS","NEW ORLEANS","3677121.64686","519877.745976","LA",,"70115"
"POINT (-90.065961057967 29.957699336553)","354","727 TOULOUSE ST","MASON DEVILLE","2020-06-17","4701 - HOTELS (EXC CASINO HOTELS) & MOTELS","NEW ORLEANS","3682160.84156","532326.761347","LA",,"70117"
"POINT (-90.070629927046 29.959733261182)","166","501 BASIN ST","THE BRAKEMAN HOTEL","2020-02-04","4701 - HOTELS (EXC CASINO HOTELS) & MOTELS","NEW ORLEANS","3680674.30875","533050.050244","LA",,"70112"
"POINT (-90.060274474985 29.965477253133)","197","1827 DAUPHINE ST","A CREOLE COTTAGE","1992-10-06","4703 - BED & BREAKFAST INNS","NEW ORLEANS","3683930.05525","535175.059398","LA",,"70116"
"POINT (-90.099313705466 29.927248285829)","182","4125 ST CHARLES AVE","THE CHLOE","2020-12-29","4701 - HOTELS (EXC CASINO HOTELS) & MOTELS","NEW ORLEANS","3671719.07156","521138.351225","LA",,"70115"
"POINT (-90.076989294557 29.951922709288)","16","200 SPECTRUM CENTER DR","HILTON NEW ORLEANS/ ST CHARLES AVENUE","2013-04-15","4701 - HOTELS (EXC CASINO HOTELS) & MOTELS","IRVINE","3678691.8167","530187.70942","CA","21ST FL","92618"
"POINT (-90.064847404459 29.956903716049)","184","615 TOULOUSE ST","TOULOUSE THEATRES","2021-05-24","2302 - THEATER CO & DINNER THEATERS","NEW ORLEANS","3682516.67912","532041.346563","LA",,"70115"
"POINT (-90.05411981842 29.966206122856)","234","819 MANDEVILLE ST","SUNBURST INN","2002-08-08","4703 - BED & BREAKFAST INNS","NEW ORLEANS","3685875.79446","535461.806278","LA",,"70117"
"POINT (-90.074406544216 29.973148605114)","333","2216 ESPLANADE AVE","LA BELLE ESPLANADE","2012-06-29","4703 - BED & BREAKFAST INNS","NEW ORLEANS","3679424.8813","537915.214793","LA",,"70119"
"POINT (-90.079374856365 29.971894821573)","25","2552 ST PHILIP ST","INN AT THE OLD JAIL","2017-04-20","4703 - BED & BREAKFAST INNS","NEW ORLEANS","3677856.91298","537442.043656","LA",,"70119"
"POINT (-90.066262057234 29.944508063638)","232","300 JULIA ST","COURTYARD BY MARRIOTT #1MK-[H/P]","1998-12-01","4701 - HOTELS (EXC CASINO HOTELS) & MOTELS","NEW ORLEANS","3682118.57461","527528.878975","LA",,"70130"
"POINT (-90.066177074167 29.94815462667)","18","300 POYDRAS ST","LOEWS NEW ORLEANS HOTEL","2014-02-14","4701 - HOTELS (EXC CASINO HOTELS) & MOTELS","NEW ORLEANS","3682130.82364","528855.199296","LA",,"70130"
"POINT (-90.059335590127 29.963194693063)","244","621 ESPLANADE AVE","LAMOTHE HOUSE","2012-05-27","4701 - HOTELS (EXC CASINO HOTELS) & MOTELS","NEW ORLEANS","3684236.55516","534348.340357","LA",,"70130"
"POINT (-90.067278462076 29.946070399972)","8","700 TCHOUPITOULAS ST","RENAISSANCE ARTS HOTEL","2003-08-18","4701 - HOTELS (EXC CASINO HOTELS) & MOTELS","NEW ORLEANS","3681790.4134","528093.443135","LA",,"70130"
"POINT (-90.066904680096 29.960962357288)","289","1013 ST ANN ST","CREOLE HOUSE","2011-07-01","4701 - HOTELS (EXC CASINO HOTELS) & MOTELS","NEW ORLEANS","3681848.93237","533510.012804","LA",,"70116"
"POINT (-90.061569490579 29.960173558945)","251","1001 CHARTRES ST","CHATEAU HOTEL","2016-05-18","4701 - HOTELS (EXC CASINO HOTELS) & MOTELS","NEW ORLEANS","3683541.43081","533241.886852","LA",,"70130"
"POINT (-89.993591624827 30.012888239644)","305","7930 CHEF MENTEUR HWY","GLENROSE MOTEL","2003-05-05","4701 - HOTELS (EXC CASINO HOTELS) & MOTELS","NEW ORLEANS","3704841.65419","552656.111766","LA",,"70126-5344"
"POINT (-90.064907294634 29.955957877568)","28","508 CHARTRES ST","SONDER","2019-01-30","4701 - HOTELS (EXC CASINO HOTELS) & MOTELS","NEW ORLEANS","3682501.52213","531697.195331","LA",,"70116"
"POINT (-90.070043798091 29.952441459845)","356","705 COMMON ST","INDIGO ST CHARLES","2021-12-30","4701 - HOTELS (EXC CASINO HOTELS) & MOTELS","NEW ORLEANS","3680889.13461","530400.527746","LA",,"70130"
"POINT (-90.092236657555 29.968030521233)","86","124 S LOPEZ ST","INDIA HOUSE BACKPACKERS HOTEL","1991-04-09","4701 - HOTELS (EXC CASINO HOTELS) & MOTELS","NEW ORLEANS","3673800.0578","535992.501319","LA",,"70119"
"POINT (-90.075502681535 29.966105510753)","4","1931 ORLEANS AVE","R & B ROOMS","1988-01-01","4702 - ROOMING & BOARDING HOUSES","NEW ORLEANS","3679105.96098","535350.26855","LA",,"70116"
"POINT (-90.065567895328 29.967504413493)","90","1261 ESPLANADE AVE","CHATEAU ESPLANADE","1994-06-21","4701 - HOTELS (EXC CASINO HOTELS) & MOTELS","NEW ORLEANS","3682245.88655","535893.628039","LA",,"70116"
"POINT (-90.079616651532 29.927674393556)","235","2418 MAGAZINE ST","GARDEN DISTRICT B & B","2003-07-25","4703 - BED & BREAKFAST INNS","NEW ORLEANS","3677956.30075","521361.025849","LA",,"70130"
"POINT (-90.049479354914 29.968208348177)","19","1028 PORT ST","THE BEE HOUSE","2014-04-30","4703 - BED & BREAKFAST INNS","NEW ORLEANS","3687336.89679","536206.321479","LA",,"70117"
"POINT (-90.07721943643 29.958353588649)","348","1600 CANAL ST","SUPREME BRIGHT NOLA II","2018-03-20","4701 - HOTELS (EXC CASINO HOTELS) & MOTELS","NEW ORLEANS","3678593.30325","532525.416708","LA",,"70112"
"POINT (-90.064887965337 29.945617374906)","242","701 CONVENTION CENTER BLVD","OMNI RIVERFRONT HOTEL","2006-02-13","4701 - HOTELS (EXC CASINO HOTELS) & MOTELS","NEW ORLEANS","3682549.2685","527937.079423","LA",,"70130"
"POINT (-90.071372753002 29.95512156642)","317","931 CANAL ST","THE SAINT NOLA HOTEL","2021-05-12","4701 - HOTELS (EXC CASINO HOTELS) & MOTELS","NEW ORLEANS","3680457.56949","531370.476034","LA",,"70112"
"POINT (-90.096705020591 29.971491673283)","206","3620 CANAL ST","CANAL STREET INN","2011-10-24","4701 - HOTELS (EXC CASINO HOTELS) & MOTELS","NEW ORLEANS","3672371.72487","537235.813256","LA",,"70119"
"POINT (-90.057052537667 29.967729541986)","176","1008 ELYSIAN FIELDS AVE","BLUE60 GUEST HOUSE","2018-08-23","4703 - BED & BREAKFAST INNS","NEW ORLEANS","3684941.0685","536005.423239","LA",,"70117"
"POINT (-90.053830936676 29.965622889503)","202","2408 DAUPHINE ST","COLLINWOOD","2008-02-06","4703 - BED & BREAKFAST INNS","NEW ORLEANS","3685969.62825","535250.742214","LA",,"70117"
"POINT (-90.09343586246 29.928021669112)","93","3535 ST CHARLES AVE","HUBBARD MANSION BED & BREAKFAST","2002-01-01","4703 - BED & BREAKFAST INNS","NEW ORLEANS","3673577.80142","521439.679737","LA",,"70115"
"POINT (-90.078685972734 29.93384841463)","297","2041 PRYTANIA ST","HENRY HOWARD HOTEL","2016-02-01","4701 - HOTELS (EXC CASINO HOTELS) & MOTELS","NEW ORLEANS","3678226.50318","523609.348539","LA",,"70130"
"POINT (-90.055273143498 29.96403488155)","199","612 MARIGNY ST","A CRESCENT CITY GUEST","2002-07-29","4703 - BED & BREAKFAST INNS","NEW ORLEANS","3685519.43606","534668.187974","LA",,"70117"
"POINT (-90.097241552995 29.923813544338)","91","1146 CONSTANTINOPLE ST","CHIMES BED & BREAKFAST (THE)","1995-09-19","4703 - BED & BREAKFAST INNS","NEW ORLEANS","3672388.88775","519896.428664","LA",,"70115"
"POINT (-90.051566932677 29.966958934816)","350","2513 BURGUNDY ST","THE BURGUNDY BED AND BREAKFAST","2018-05-29","4703 - BED & BREAKFAST INNS","NEW ORLEANS","3686681.0253","535744.589127","LA",,"70117"
"POINT (-90.069417929215 29.956288057459)","80","301 DAUPHINE ST","CHATEAU LEMOYNE  ATTN: FINANCE DEPT:","1979-01-15","4701 - HOTELS (EXC CASINO HOTELS) & MOTELS","NEW ORLEANS","3681071.89531","531801.477827","LA",,"70112"
"POINT (-90.076989294557 29.951922709288)","148","12340 I -10 SERVICE RD","TRIDENT INN AND SUITES","2019-10-11","4701 - HOTELS (EXC CASINO HOTELS) & MOTELS","NEW ORLEANS","3678691.8167","530187.70942","LA",,"70128"
"POINT (-90.076989294557 29.951922709288)","76","12330 I-10 SERVICE ROAD","NEW ORLEANS PROPERTY HOLDINGS LLC","2021-08-01","4701 - HOTELS (EXC CASINO HOTELS) & MOTELS","NEW ORLEANS","3678691.8167","530187.70942","LA",,"70128"
"POINT (-90.076989294557 29.951922709288)","69","712 PELICAN ST","CASA PELICAN LLC","2016-01-26","4703 - BED & BREAKFAST INNS","NEW ORLEANS","3678691.8167","530187.70942","LA",,"70114"
"POINT (-90.1052858803 29.937272627499)","302","4545 MAGNOLIA ST","ALDER HOTEL UPTOWN","2017-08-03","4701 - HOTELS (EXC CASINO HOTELS) & MOTELS","NEW ORLEANS","3669788.35086","524763.249148","LA",,"70115"
"POINT (-90.05876614998 29.962824379334)","307","547 ESPLANADE AVE","FRENCH QUARTER LANAUX MANSION","2021-11-29","4703 - BED & BREAKFAST INNS","NEW ORLEANS","3684418.35465","534215.685573","LA",,"70116"
"POINT (-90.053119576834 29.964713797121)","9","2438 ROYAL ST","ROYAL STREET COURTYARD","2004-08-02","4701 - HOTELS (EXC CASINO HOTELS) & MOTELS","NEW ORLEANS","3686198.55337","534922.67847","LA",,"70117"
"POINT (-90.101121315955 29.966236841885)","252","3610 TULANE AVE","THE BEN LOUIE","2016-08-01","4701 - HOTELS (EXC CASINO HOTELS) & MOTELS","NEW ORLEANS","3670994.05703","535309.890694","LA",,"70119"
"POINT (-90.069639715778 29.953868047271)","17","739 CANAL ST","ASTOR CROWN PLAZA NEW ORLEANS ATTN: DIR. OF FIN.","2013-09-26","4701 - HOTELS (EXC CASINO HOTELS) & MOTELS","NEW ORLEANS","3681011.37141","530920.698434","LA",,"70130"
"POINT (-90.062328323717 29.966422527418)","293","1021 KERLEREC ST","MAISON DE LAGNIAPPE","2014-10-02","4703 - BED & BREAKFAST INNS","NEW ORLEANS","3683275.94882","535511.576966","LA",,"70116"
"POINT (-90.067532540305 29.959941786002)","288","1005 ST PETER ST","ST. PETER GUEST HOUSE","2011-07-01","4701 - HOTELS (EXC CASINO HOTELS) & MOTELS","NEW ORLEANS","3681654.22882","533136.698692","LA",,"70116"
"POINT (-90.10140584797 29.966991180915)","339","3701 ULLOA ST","SITE 61 HOSTEL","2014-10-31","4702 - ROOMING & BOARDING HOUSES","NEW ORLEANS","3670901.01915","535583.228806","LA",,"70119"
"POINT (-90.075176696821 29.966338048828)","165","1924 ST ANN ST","THE BRASS AT TREME","2020-12-01","4701 - HOTELS (EXC CASINO HOTELS) & MOTELS","NEW ORLEANS","3679208.24578","535435.961286","LA",,"70116"
"POINT (-90.072187980123 29.950827784447)","227","822 PERDIDO ST","SEXTANT STAYS","2021-01-21","4701 - HOTELS (EXC CASINO HOTELS) & MOTELS","NEW ORLEANS","3680216.60872","529806.256705","LA",,"70112"
"POINT (-90.079078600379 29.959572651022)","187","1800 CANAL ST","ORLEANS HOUSE LLC","2021-06-22","4701 - HOTELS (EXC CASINO HOTELS) & MOTELS","NEW ORLEANS","3677999.75579","532962.26458","LA",,"70119"
"POINT (-90.072469550315 29.940824018925)","164","1133 MARGARET PL","MARGARET PLACE","2019-11-02","4703 - BED & BREAKFAST INNS","NEW ORLEANS","3680167.4733","526167.541438","LA",,"70130"
"POINT (-90.064866220121 29.958973022211)","36","717 ORLEANS AVE","BOURBON ORLEANS HOTEL","2021-08-13","4701 - HOTELS (EXC CASINO HOTELS) & MOTELS","NEW ORLEANS","3682502.39119","532793.756676","LA",,"70116"
"POINT (-90.064929227322 29.95202507434)","267","111 IBERVILLE ST","ONE11 HOTEL","2020-12-11","4701 - HOTELS (EXC CASINO HOTELS) & MOTELS","NEW ORLEANS","3682510.40828","530267.007105","LA",,"70130"
"POINT (-90.066592216715 29.966048747773)","119","1303 GOVERNOR NICHOLLS ST","MONROSE ROW B & B","1998-01-07","4703 - BED & BREAKFAST INNS","NEW ORLEANS","3681927.42216","535360.707078","LA",,"70116"
"POINT (-90.067741906956 29.951911435443)","39","500 CANAL ST","SHERATON NEW ORLEANS HOTEL","1982-10-31","4701 - HOTELS (EXC CASINO HOTELS) & MOTELS","NEW ORLEANS","3681620.18831","530215.835265","LA",,"70130"
"POINT (-90.074605028815 29.980502181533)","64","1653 N BROAD ST","NEW ORLEANS FESTIVAL HOUSE","2014-10-20","4703 - BED & BREAKFAST INNS","NEW ORLEANS","3679332.66651","540588.565323","LA","STE 100","70119"
"POINT (-90.058499565185 29.966380290861)","6","2020 BURGUNDY ST","SUN OAK MUSEUM AND GUEST HOUSE","1995-02-22","4703 - BED & BREAKFAST INNS","NEW ORLEANS","3684488.37705","535509.685382","LA",,"70116"
"POINT (-90.05894477137 29.965216509582)","102","735 TOURO ST","BOHEME DE MARIGNY","2011-10-27","4703 - BED & BREAKFAST INNS","NEW ORLEANS","3684352.1229","535084.923526","LA",,"70116"
"POINT (-90.07273828513 29.934189676319)","186","1507 MAGAZINE ST","HOTEL ST VINCENT","2021-05-06","4701 - HOTELS (EXC CASINO HOTELS) & MOTELS","NEW ORLEANS","3680108.90587","523754.118971","LA",,"70130"
"POINT (-90.072656069827 29.951152110944)","299","346 BARONNE ST","FAIRFIELD INN & SUITES","2016-06-08","4701 - HOTELS (EXC CASINO HOTELS) & MOTELS","NEW ORLEANS","3680067.08187","529922.562625","LA",,"70112"
"POINT (-90.057974215463 29.965126382161)","134","726 FRENCHMEN ST","NONI'S NOLA ON FRENCHMAN","2013-12-03","4703 - BED & BREAKFAST INNS","NEW ORLEANS","3684659.78793","535055.56871","LA",,"70116"
"POINT (-90.068000580644 29.955654459927)","291","300 BOURBON ST","ROYAL SONESTA HOTEL","2012-06-01","4701 - HOTELS (EXC CASINO HOTELS) & MOTELS","NEW ORLEANS","3681523.24488","531576.031683","LA",,"70130"
"POINT (-90.069023697038 29.95087409175)","124","301 CAMP ST","LA QUINTA INN & SUITES #983  4701","2006-02-01","4701 - HOTELS (EXC CASINO HOTELS) & MOTELS","NEW ORLEANS","3681218.45218","529834.138049","LA",,"70130"
"POINT (-90.031820598016 30.006635224611)","61","4950 CHEF MENTEUR HWY","ROYAL INN OF NEW ORLEANS","2013-01-05","4701 - HOTELS (EXC CASINO HOTELS) & MOTELS","NEW ORLEANS","3692769.16221","550242.836884","LA",,"70126"
"POINT (-90.076989294557 29.951922709288)","174","2028-2030 ST. CLAUDE AVE","LA FEMME FRANCAISE NATASHA, LLC","2018-01-31","4703 - BED & BREAKFAST INNS","NEW ORLEANS","3678691.8167","530187.70942","LA",,"70116"
"POINT (-90.071875217665 29.952326455971)","223","821 GRAVIER ST","HILTON GARDEN INN FRENCH QUARTER/CBD","2019-10-31","4701 - HOTELS (EXC CASINO HOTELS) & MOTELS","NEW ORLEANS","3680309.65109","530352.318978","LA",,"70112"
"POINT (-90.12226773705 29.972354892217)","109","9301 AIRLINE HWY","LONDON LODGE MOTEL","2015-04-23","4701 - HOTELS (EXC CASINO HOTELS) & MOTELS","NEW ORLEANS","3664275.14247","537463.271368","LA",,"70118"
"POINT (-90.075699938498 29.942302180161)","250","1724  CLIO ST","WG CREOLE HOUSE","2016-05-12","4703 - BED & BREAKFAST INNS","NEW ORLEANS","3679138.50799","526693.81171","LA",,"70113"
"POINT (-90.065211596976 29.953933031404)","268","320 DECATUR ST","BIENVILLE HOUSE MOTOR HOTEL","1974-01-01","4701 - HOTELS (EXC CASINO HOTELS) & MOTELS","NEW ORLEANS","3682413.31324","530959.820226","LA","A","70130"
"POINT (-90.065964303021 29.963579152027)","203","1027 N RAMPART ST","FRENCH QUARTER TOWNHOUSES HOTEL","2009-03-20","4701 - HOTELS (EXC CASINO HOTELS) & MOTELS","NEW ORLEANS","3682136.16533","534464.868485","LA",,"70116"
"POINT (-90.057429987983 29.96760582551)","248","2125 N RAMPART ST","MARIGNY MANOR HOUSE","2015-01-08","4703 - BED & BREAKFAST INNS","NEW ORLEANS","3684822.063","535959.104455","LA",,"70116"
"POINT (-90.085443391513 29.966064105916)","258","2625 IBERVILLE ST","LUCKY INN HOTEL","2018-09-11","4701 - HOTELS (EXC CASINO HOTELS) & MOTELS","NEW ORLEANS","3675958.69275","535300.798278","LA",,"70119"
"POINT (-90.071049069595 29.94774234342)","129","600 ST CHARLES AVE","LAFAYETTE HOTEL","2011-05-16","4701 - HOTELS (EXC CASINO HOTELS) & MOTELS","NEW ORLEANS","3680589.62594","528688.248768","LA",,"70130"
"POINT (-90.083137205751 29.93279525388)","10","2409 ST CHARLES AVE","1851 INN ON ST CHARLES","2005-01-04","4703 - BED & BREAKFAST INNS","NEW ORLEANS","3676820.87445","523210.971707","LA",,"70130"
"POINT (-90.069316363239 29.954718057734)","285","800 IBERVILLE ST","HYATT FRENCH QUARTER","2008-07-01","4701 - HOTELS (EXC CASINO HOTELS) & MOTELS","NEW ORLEANS","3681110.35407","531230.922882","LA",,"70112"
"POINT (-90.066629867051 29.952652800917)","295","131 DECATUR ST","LA GALERIE","2015-10-20","4701 - HOTELS (EXC CASINO HOTELS) & MOTELS","NEW ORLEANS","3681969.35208","530489.314306","LA",,"70130"
"POINT (-90.037349449477 29.963622884509)","301","3820 BURGUNDY ST","MAISON MACARTY","2017-05-22","4703 - BED & BREAKFAST INNS","NEW ORLEANS","3691196.23792","534582.114757","LA",,"70117"
"POINT (-90.076989294557 29.951922709288)","145","1111 GRAVIER","THE TROUBADOUR","2019-06-20","4701 - HOTELS (EXC CASINO HOTELS) & MOTELS","NEW ORLEANS","3678691.8167","530187.70942","LA",,"70112"
"POINT (-90.110689752048 29.930018276951)","228","5200 DANNEEL ST","SYCAMORE HOUSE","2021-07-23","8807 - .1(43) BED AND BREAKFAST 3 TO 5 ROOMS","NEW ORLEANS","3668105.02324","522106.99513","LA",,"70115"
"POINT (-90.055116644496 29.965183431699)","335","723 MARIGNY ST","723 MARIGNY","2012-10-03","4703 - BED & BREAKFAST INNS","NEW ORLEANS","3685564.32834","535086.395846","LA",,"70117"
"POINT (-90.065392147396 29.939467086647)","33","1148 S PETERS ST","SEXTANT STAYS","2021-04-20","4701 - HOTELS (EXC CASINO HOTELS) & MOTELS","NEW ORLEANS","3682414.34952","525698.845693","LA",,"70130"
"POINT (-90.07166079606 29.953942824124)","204","123 BARONNE ST","THE ROOSEVELT HOTEL WAC","2009-07-01","4701 - HOTELS (EXC CASINO HOTELS) & MOTELS","NEW ORLEANS","3680371.07893","530940.837378","LA",,"70112"
"POINT (-90.062264768102 29.961391205476)","59","708 URSULINES AVE","INN ON URSULINES","2012-11-19","4701 - HOTELS (EXC CASINO HOTELS) & MOTELS","NEW ORLEANS","3683316.36706","533682.225413","LA",,"70116"
"POINT (-90.09428843197 29.926995087918)","211","3636 SAINT CHARLES AVE","SUPERIOR RESTAURANT GROUP, LLC","2016-08-18","4701 - HOTELS (EXC CASINO HOTELS) & MOTELS","NEW ORLEANS","3673311.79393","521063.456377","LA",,"70115"
"POINT (-90.085946951612 29.931216189033)","231","2727 ST CHARLES AVE","THE GRAND VICTORIAN BED &     BREAKFAST","1998-10-01","4701 - HOTELS (EXC CASINO HOTELS) & MOTELS","NEW ORLEANS","3675937.20494","522627.067898","LA",,"70130"
"POINT (-90.061433776878 29.961016484614)","123","623 URSULINES AVE","HAUNTED HOTEL ON URSULINES-HOTEL","2006-04-26","4702 - ROOMING & BOARDING HOUSES","NEW ORLEANS","3683581.0006","533548.882693","LA",,"70116"
"POINT (-90.066296307855 29.944808973076)","261","315 JULIA ST","EMBASSY SUITES CONVENTION CENTER","2018-12-14","4701 - HOTELS (EXC CASINO HOTELS) & MOTELS","NEW ORLEANS","3682106.51797","527638.180735","LA",,"70130"
"POINT (-90.069165084396 29.956766903104)","116","329 DAUPHINE ST","GRENOBLE HOUSE","1991-08-07","4701 - HOTELS (EXC CASINO HOTELS) & MOTELS","NEW ORLEANS","3681150.03816","531976.486915","LA",,"70112"
"POINT (-90.060536143871 29.961231668159)","38","1133 CHARTRES ST","SONIAT HOUSE","1982-08-04","4701 - HOTELS (EXC CASINO HOTELS) & MOTELS","NEW ORLEANS","3683864.35426","533630.287429","LA",,"70116"
"POINT (-90.072228029035 29.934764124304)","15","1466 MAGAZINE ST","CARRIE'S COOL PROPERTIES","2013-08-19","4703 - BED & BREAKFAST INNS","NEW ORLEANS","3680268.21583","523964.787068","LA",,"70130"
"POINT (-90.072350191007 29.953189730397)","332","201 BARONNE ST","DELTA PROFICIENT MANAGEMENT, LLC","2008-01-31","4701 - HOTELS (EXC CASINO HOTELS) & MOTELS","NEW ORLEANS","3680155.78946","530664.581762","LA",,"70112"
"POINT (-90.074284852325 29.944247354612)","172","822 HOWARD AVE","SEXTANT STAYS","2021-12-13","4701 - HOTELS (EXC CASINO HOTELS) & MOTELS","NEW ORLEANS","3679578.88789","527406.069311","LA",,"70113"
"POINT (-90.00009731778 30.011894187622)","12","7418 CHEF MENTEUR HWY","A & C CORPORATION","2012-07-09","4701 - HOTELS (EXC CASINO HOTELS) & MOTELS","NEW ORLEANS","3702787.00727","552270.623318","LA",,"70126"
"POINT (-90.060394503769 29.965967249191)","238","1526 PAUGER ST","LITTLE EAZY BED & BREAKFAST","2004-08-17","4703 - BED & BREAKFAST INNS","NEW ORLEANS","3683890.07209","535352.817926","LA",,"70116"
"POINT (-90.06597019845 29.965586088596)","178","1211 GOVERNOR NICHOLLS ST","PENELOPE B B","2019-05-01","4703 - BED & BREAKFAST INNS","NEW ORLEANS","3682126.22677","535194.644486","LA",,"70116"
"POINT (-90.076989294557 29.951922709288)","154","2036-38 IBERVILLE ST","2036-38 IBERVILLE","2017-12-04","4701 - HOTELS (EXC CASINO HOTELS) & MOTELS","NEW ORLEANS","3678691.8167","530187.70942","LA",,"70112"
"POINT (-90.116104108943 29.955590611054)","230","43 FONTAINEBLEAU DR","KATHERINE B SENTER","1995-08-17","4703 - BED & BREAKFAST INNS","NEW ORLEANS","3666291.31751","531387.804931","LA",,"70125"
"POINT (-90.071979806472 29.943710181206)","139","936 SAINT CHARLES AVE","THE HOTEL MODERN","2016-06-22","4701 - HOTELS (EXC CASINO HOTELS) & MOTELS","NEW ORLEANS","3680311.02203","527218.761855","LA",,"70130"
"POINT (-90.061359183222 29.960779726326)","82","616 URSULINES AVE","HOTEL VILLA CONVENTO","1984-01-01","4701 - HOTELS (EXC CASINO HOTELS) & MOTELS","NEW ORLEANS","3683605.57532","533463.050756","LA",,"70116"
"POINT (-90.090818037712 29.980316616753)","7","3626 DELGADO DR","THE LAUREL GUEST HOME","2001-03-02","4703 - BED & BREAKFAST INNS","NEW ORLEANS","3674200.76731","540465.066571","LA",,"70119"
"POINT (-90.070448759559 29.955525345495)","133","910 IBERVILLE ST","COURTYARD NEW ORLEANS DOWNTOWN/IBERVILLE","2012-09-19","4701 - HOTELS (EXC CASINO HOTELS) & MOTELS","NEW ORLEANS","3680748.53819","531520.528643","LA",,"70130"
"POINT (-89.986561309846 30.014255960337)","314","8542 CHEF MENTEUR HWY","BUDGET INN EXPRESS","2020-04-28","4701 - HOTELS (EXC CASINO HOTELS) & MOTELS","NEW ORLEANS","3707060.68638","553179.547799","LA",,"70127"
"POINT (-90.096151786999 29.927383990404)","167","3811 ST CHARLES AVE","COLUMNS HOTEL","2020-04-07","4701 - HOTELS (EXC CASINO HOTELS) & MOTELS","NEW ORLEANS","3672720.05832","521198.497913","LA",,"70115"
"POINT (-90.099774818634 29.973262690926)","96","120 S PIERCE ST","1896 O'MALLEY HOUSE","2005-04-01","4701 - HOTELS (EXC CASINO HOTELS) & MOTELS","NEW ORLEANS","3671392.88167","537869.347913","LA",,"70119-6033"
"POINT (-90.035151775419 29.963496063549)","214","906 MAZANT ST","MAZANT HOLDING","2017-03-08","4703 - BED & BREAKFAST INNS","NEW ORLEANS","3691892.60329","534543.874757","LA",,"70117"
"POINT (-90.065951746785 29.961692416766)","336","911 BURGUNDY ST","HOTEL ST PIERRE","2013-03-27","4701 - HOTELS (EXC CASINO HOTELS) & MOTELS","NEW ORLEANS","3682147.72936","533778.825413","LA",,"70116"
"POINT (-90.074928252848 29.937062593321)","245","1618 PRYTANIA ST","THE PRYTANIA OAKS HOTEL","2007-01-01","4701 - HOTELS (EXC CASINO HOTELS) & MOTELS","NEW ORLEANS","3679403.82242","524791.190844","LA",,"70130"
"POINT (-90.067321926293 29.951344003058)","50","114 MAGAZINE ST","BEST WEST ST CHRIS HOTEL","2004-06-22","4701 - HOTELS (EXC CASINO HOTELS) & MOTELS","NEW ORLEANS","3681755.46101","530010.965505","LA",,"70130"
"POINT (-90.072047361399 29.94877189273)","353","546 CARONDELET ST","MAISON DE LA LUZ","2019-01-01","4701 - HOTELS (EXC CASINO HOTELS) & MOTELS","NEW ORLEANS","3680269.36738","529059.14944","LA",,"70130"
"POINT (-90.032025155602 29.96221617807)","13","833 POLAND AVE","LOOKOUT INN NEW ORLEANS","2013-06-05","4701 - HOTELS (EXC CASINO HOTELS) & MOTELS","NEW ORLEANS","3692887.86205","534089.692165","LA",,"70117"
"POINT (-90.092466916716 29.982864906202)","243","1172 CITY PARK AVE","OAKVIEW BED & BREAKFAST","2009-02-16","4703 - BED & BREAKFAST INNS","NEW ORLEANS","3673668.7371","541386.067468","LA",,"70119"
"POINT (-90.064408146445 29.960117530793)","325","835 BOURBON ST","BON MAISON GUEST HOUSE","1999-01-01","4702 - ROOMING & BOARDING HOUSES","NEW ORLEANS","3682642.82792","533211.5481","LA",,"70116"
"POINT (-90.074005985047 29.971173356974)","151","1210 N GALVEZ ST","TREME BLUE HOUSE EFILE","2021-02-01","4703 - BED & BREAKFAST INNS","NEW ORLEANS","3679559.59151","537198.333448","LA",,"70119"
"POINT (-90.074806737681 29.954144572852)","149","212 LOYOLA AVE","SONESTA ES SUITES NEW OLEANS","2019-12-09","4701 - HOTELS (EXC CASINO HOTELS) & MOTELS","NEW ORLEANS","3679374.08296","531003.245378","LA",,"70112"
"POINT (-90.052607810288 29.967722051008)","191","2460 N RAMPART ST","AULD SWEET OLIVE BED & BREAKFAST","2022-01-24","4703 - BED & BREAKFAST INNS","NEW ORLEANS","3686348.36412","536018.401287","LA",,"70117"
"POINT (-90.11484827792 30.020573735103)","42","7214 PONTCHARTRAIN BLVD","ROSE MANOR","1998-05-20","4701 - HOTELS (EXC CASINO HOTELS) & MOTELS","NEW ORLEANS","3666437.69677","555022.501785","LA",,"70124"
"POINT (-90.063549252453 29.961286309335)","255","1003 BOURBON ST","LAFITTE GUEST HOUSE","2017-08-30","4701 - HOTELS (EXC CASINO HOTELS) & MOTELS","NEW ORLEANS","3682910.07733","533639.572101","LA",,"70116"
"POINT (-90.065324971827 29.967351659245)","209","1247 ESPLANADE AVE","STATELY HOME GUEST HOUSE","2015-05-08","4703 - BED & BREAKFAST INNS","NEW ORLEANS","3682323.41461","535838.931975","LA",,"70116"
"POINT (-90.060376964851 29.965264034992)","120","1830 DAUPHINE ST","1830 DAUPHINE HOUSE","1999-07-21","4703 - BED & BREAKFAST INNS","NEW ORLEANS","3683898.46607","535097.164806","LA",,"70116"
"POINT (-89.977041720886 30.015817209788)","334","9300 CHEF MENTEUR HWY","WEBBER'S MOTEL","2012-08-06","4701 - HOTELS (EXC CASINO HOTELS) & MOTELS","NEW ORLEANS","3710066.57937","553782.809815","LA",,"70127"
"POINT (-90.072842234853 29.950295825755)","294","833 POYDRAS ST","LE PAVILLON HOTEL HOTEL TAX","2015-07-24","4701 - HOTELS (EXC CASINO HOTELS) & MOTELS","NEW ORLEANS","3680011.55458","529610.537345","LA",,"70112"
"POINT (-90.076989294557 29.951922709288)","153","4180 OLD GENTILLY ROAD","DAYS INN","2021-11-10","4701 - HOTELS (EXC CASINO HOTELS) & MOTELS","NEW ORLEANS","3678691.8167","530187.70942","LA",,"70126"
"POINT (-90.070691096182 29.953145256777)","173","131 CARONDELET ST","SONDER USA, INC.","2021-11-29","4701 - HOTELS (EXC CASINO HOTELS) & MOTELS","NEW ORLEANS","3680681.33877","530654.194882","LA",,"70112"
"POINT (-90.053854942016 29.963463640565)","310","527 MANDEVILLE ST","CHATEAU MANAGEMENT","2018-07-10","4703 - BED & BREAKFAST INNS","NEW ORLEANS","3685970.79548","534465.475141","LA",,"70117"
"POINT (-90.0570064503 29.967243655989)","21","930 ELYSIAN FIELDS AVE","ELYSAIN FIELDS INN","2015-08-03","4703 - BED & BREAKFAST INNS","NEW ORLEANS","3684957.62831","535828.899655","LA",,"70117"
"POINT (-90.075070082075 29.95317032065)","79","330 LOYOLA AVE","HOLIDAY INN DTN SUPERDOME HTM","1968-04-01","4701 - HOTELS (EXC CASINO HOTELS) & MOTELS","NEW ORLEANS","3679294.58299","530648.055362","LA",,"70112"
"POINT (-90.018175352561 30.010844644036)","20","6061 CHEF MENTEUR HWY","MONTE CARLO MOTEL","2015-09-02","4701 - HOTELS (EXC CASINO HOTELS) & MOTELS","NEW ORLEANS","3697070.17898","551822.851414","LA",,"70125"
"POINT (-90.07430720618 29.937809986205)","89","1518 PRYTANIA ST","FAIRCHILD HOUSE","1994-04-01","4701 - HOTELS (EXC CASINO HOTELS) & MOTELS","NEW ORLEANS","3679597.52936","525065.130621","LA",,"70130-4416"
"POINT (-90.073981624158 29.938764903539)","327","1415 PRYTANIA ST","1415 CREOLE GARDENS","2001-10-26","4701 - HOTELS (EXC CASINO HOTELS) & MOTELS","NEW ORLEANS","3679696.82831","525413.506301","LA",,"70130"
"POINT (-90.070167028852 29.951453096874)","181","301 ST CHARLES AVE","SONDER USA, INC","2020-01-01","4701 - HOTELS (EXC CASINO HOTELS) & MOTELS","NEW ORLEANS","3680854.07381","530040.692737","LA",,"70130"
"POINT (-90.069007171369 29.950060234587)","22","344 CAMP ST","QUEEN & CRESCENT HOTEL","2015-12-29","4701 - HOTELS (EXC CASINO HOTELS) & MOTELS","NEW ORLEANS","3681226.95074","529538.247873","LA",,"70130"
"POINT (-90.06474426314 29.940016342494)","313","1201 CONVENTION CENTER BLVD","HAMPTON INN & SUITES NEW ORLEANS-CONVENTION CENTER","2020-04-24","4701 - HOTELS (EXC CASINO HOTELS) & MOTELS","NEW ORLEANS","3682617.3261","525900.845757","LA",,"70130"
"POINT (-90.063293825977 29.94773526893)","340","2 POYDRAS ST","HILTON NEW ORLEANS RIVERSIDE","2015-04-01","4701 - HOTELS (EXC CASINO HOTELS) & MOTELS","NEW ORLEANS","3683045.57205","528712.8144","LA",,"70130"
"POINT (-90.068488049798 29.938455963278)","104","1216 ANNUNCIATION ST","FLEUR DE LIS MANSION","2013-02-15","4703 - BED & BREAKFAST INNS","NEW ORLEANS","3681437.92149","525320.328189","LA",,"70130"
"POINT (-90.066551578805 29.962331954846)","240","914 N RAMPART ST","THE VICTORIAN HOUSE","2006-04-11","4703 - BED & BREAKFAST INNS","NEW ORLEANS","3681955.23093","534009.285125","LA",,"70116"
"POINT (-90.072292620639 29.934558485498)","185","1476 MAGAZINE ST","TRAVELERS NEW ORLEANS","2021-04-05","4703 - BED & BREAKFAST INNS","NEW ORLEANS","3680248.58127","523889.78438","LA",,"70130"
"POINT (-90.068224572429 29.950856927403)","330","523 GRAVIER ST","LOFT 523","2002-04-24","4701 - HOTELS (EXC CASINO HOTELS) & MOTELS","NEW ORLEANS","3681471.57871","529830.689857","LA",,"70130"
"POINT (-90.075811565894 29.935892183324)","269","1748 PRYTANIA ST","ST CHARLES GUEST HOUSE","1981-06-15","4703 - BED & BREAKFAST INNS","NEW ORLEANS","3679128.7373","524362.516348","LA",,"70130"
"POINT (-90.067772010578 29.949769669811)","103","330 MAGAZINE ST","VOCO ST. JAMES HOTEL","2012-07-11","4701 - HOTELS (EXC CASINO HOTELS) & MOTELS","NEW ORLEANS","3681619.25736","529436.905921","LA",,"70130"
"POINT (-90.067245405749 29.961203430632)","122","1031 ST ANN ST","THE GENTRY HOUSE","2004-01-01","4703 - BED & BREAKFAST INNS","NEW ORLEANS","3681740.07759","533596.483717","LA",,"70116"
"POINT (-90.072506677991 29.972343207163)","195","2023 ESPLANADE AVE","ASHTON'S BED & BREAKFAST","1998-10-20","4701 - HOTELS (EXC CASINO HOTELS) & MOTELS","NEW ORLEANS","3680029.59739","537628.955528","LA",,"70116"
"POINT (-90.03647228161 29.965177117934)","138","1025 ALVAR ST","BY H20 BEAUTY","2015-09-10","4703 - BED & BREAKFAST INNS","NEW ORLEANS","3691467.57654","535150.43239","LA",,"70117"
"POINT (-90.100213945326 29.965966774467)","343","3522 TULANE AVE","THE DRIFTER HOTEL","2016-10-25","4701 - HOTELS (EXC CASINO HOTELS) & MOTELS","NEW ORLEANS","3671282.40641","535214.774342","LA",,"70119"
"POINT (-90.063535343893 29.963545434334)","97","924 GOVERNOR NICHOLLS ST","BOUGAINVILLEA HOUSE","2006-05-04","4703 - BED & BREAKFAST INNS","NEW ORLEANS","3682905.37749","534461.121989","LA",,"70116"
"POINT (-90.070278403843 29.950244964209)","105","444 ST CHARLES AVE","INTER - CONTINENTAL ROOMS","2013-02-26","4701 - HOTELS (EXC CASINO HOTELS) & MOTELS","NEW ORLEANS","3680823.64776","529600.982337","LA",,"70130"
"POINT (-90.065547194647 29.956227745827)","3","621 ST LOUIS ST","ROYAL ORLEANS HOTEL","1987-12-01","4701 - HOTELS (EXC CASINO HOTELS) & MOTELS","NEW ORLEANS","3682297.81064","531793.086915","LA",,"70130"
"POINT (-90.049282182934 29.964734559496)","196","715 ST FERDINAND ST","KATE & DAVES BED & BREAKFAST","2001-04-18","4703 - BED & BREAKFAST INNS","NEW ORLEANS","3687413.4799","534943.823942","LA",,"70117-7367"
"POINT (-90.038145855578 29.961732566323)","296","3810 ROYAL ST","ROYAL SUNSHINE","2015-11-04","4703 - BED & BREAKFAST INNS","NEW ORLEANS","3690951.844","533891.875653","LA",,"70117"
"POINT (-90.076989294557 29.951922709288)","304","334 O KEEFE AVE","HOLIDAY INN EXPRESS","2017-12-01","4701 - HOTELS (EXC CASINO HOTELS) & MOTELS","NEW ORLEANS","3678691.8167","530187.70942","LA",,"70112"
"POINT (-90.059184708731 29.964351198401)","175","1911 ROYAL ST","MASON D'OR","2018-07-24","4703 - BED & BREAKFAST INNS","NEW ORLEANS","3684279.65218","534769.419334","LA",,"70116"
"POINT (-90.076410588933 29.949541801152)","159","601 LOYOLA AVE","HYATT REGENCY NEW ORLEANS","2019-05-07","4701 - HOTELS (EXC CASINO HOTELS) & MOTELS","NEW ORLEANS","3678884.56987","529323.933185","LA",,"70113"
"POINT (-90.063491708353 29.95865458849)","84","625 ST ANN ST","PLACE D'ARMES HOTEL","1985-01-01","4701 - HOTELS (EXC CASINO HOTELS) & MOTELS","NEW ORLEANS","3682938.90351","532682.783108","LA",,"70116-3212"
"POINT (-90.066265825827 29.943192763607)","48","301 ST JOSEPH ST","SPRINGHILL SUITES BY MARRIOTT H/P","2001-09-04","4701 - HOTELS (EXC CASINO HOTELS) & MOTELS","NEW ORLEANS","3682122.67036","527050.575294","LA",,"70130"
"POINT (-90.030879904079 30.00775986906)","83","5035 CHEF MENTEUR HWY","NEW ORLEANS INN","1986-03-17","4704 - TRAVELER ACCOMMODATION, ALL OTH","NEW ORLEANS","3693062.23427","550655.183572","LA",,"70126"
"POINT (-90.057555478266 29.962324169705)","171","417 FRENCHMEN ST","FRENCHMEN HOTEL","2022-02-15","4701 - HOTELS (EXC CASINO HOTELS) & MOTELS","NEW ORLEANS","3684803.71516","534038.056773","LA",,"70116"
"POINT (-90.067696338741 29.950876130951)","179","209 MAGAZINE ST","WYNDHAM LA BELLE MAISON","2019-07-01","4701 - HOTELS (EXC CASINO HOTELS) & MOTELS","NEW ORLEANS","3681638.77653","529839.520257","LA",,"70130"
"POINT (-90.076862132305 29.950725039864)","341","1250 POYDRAS ST","HYATT HOUSE NEW ORLEANS DOWNTOWN","2015-10-29","4701 - HOTELS (EXC CASINO HOTELS) & MOTELS","NEW ORLEANS","3678736.86037","529752.634305","LA",,"70113"
"POINT (-90.076989294557 29.951922709288)","95","712-14 SPAIN ST","PIERRE COULON GUEST HOUSE","2002-05-13","4703 - BED & BREAKFAST INNS","NEW ORLEANS","3678691.8167","530187.70942","LA",,"70117"
"POINT (-90.068943897336 29.951191437217)","45","221 CAMP ST","INTERNATIONAL HOUSE HOTEL","2002-04-24","4701 - HOTELS (EXC CASINO HOTELS) & MOTELS","NEW ORLEANS","3681242.44879","529949.815745","LA",,"70130"
"POINT (-90.075458867169 29.936345013228)","221","1726 PRYTANIA ST","PARISIAN COURTYARD INN","2018-11-07","4703 - BED & BREAKFAST INNS","NEW ORLEANS","3679238.63496","524528.407612","LA",,"70130"
"POINT (-90.07194136475 29.954729067405)","322","108 UNIVERSITY PL","HOTEL MAISON PIERRE LAFITTE   LTD","1996-06-18","4701 - HOTELS (EXC CASINO HOTELS) & MOTELS","NEW ORLEANS","3680279.08687","531225.76621","LA",,"70112"
"POINT (-90.073004188613 29.953819786659)","224","925  COMMON ST","925 COMMON","2019-11-27","4701 - HOTELS (EXC CASINO HOTELS) & MOTELS","NEW ORLEANS","3679946.17397","530891.414786","LA",,"70112"
"POINT (-90.074979457547 29.928365002148)","67","2125 LAUREL ST","OLD LA LA'S CREOLE COTTAGE","2015-09-30","4703 - BED & BREAKFAST INNS","NEW ORLEANS","3679422.33858","521628.256313","LA",,"70130"
"POINT (-90.095314065257 29.967998037854)","88","300 S NORMAN C FRANCIS PKWY","ENTROPY ROOMS","1992-04-12","4702 - ROOMING & BOARDING HOUSES","NEW ORLEANS","3672825.83284","535970.148551","LA",,"70119-6232"
"POINT (-90.068511035872 29.950972201932)","257","535 GRAVIER ST","ROYAL CRESCENT HOTEL","2018-05-11","4701 - HOTELS (EXC CASINO HOTELS) & MOTELS","NEW ORLEANS","3681380.40188","529871.606401","LA",,"70130"
"POINT (-90.051969783282 29.964942085969)","200","2483 ROYAL ST","SCHIRO'S GUEST HOUSE","2003-01-02","4703 - BED & BREAKFAST INNS","NEW ORLEANS","3686561.67721","535009.762054","LA",,"70117"
"POINT (-90.07721943643 29.958353588649)","74","1600 CANAL ST","SPRINGHILL SUITES BY MARRIOTT","2018-03-02","4701 - HOTELS (EXC CASINO HOTELS) & MOTELS","NEW ORLEANS","3678593.30325","532525.416708","LA",,"70112"
"POINT (-90.076989294557 29.951922709288)","112","1509 SAINT CHARLES AVE","HISTORIC STREETCAR INN","2017-02-03","4701 - HOTELS (EXC CASINO HOTELS) & MOTELS","NEW ORLEANS","3678691.8167","530187.70942","LA",,"70130"
"POINT (-90.075864004842 29.942401267575)","306","1730 CLIO ST","THE SYD","2021-03-19","4701 - HOTELS (EXC CASINO HOTELS) & MOTELS","NEW ORLEANS","3679086.15368","526729.273022","LA",,"70113"
"POINT (-90.038905800909 30.002426282839)","32","4200 OLD GENTILLY RD","MOTEL 6","2020-12-09","4701 - HOTELS (EXC CASINO HOTELS) & MOTELS","NEW ORLEANS","3690544.05321","548686.902995","LA",,"70126"
"POINT (-90.072405222504 29.955106311948)","150","1016 CANAL ST","SONDER USA","2020-10-02","4701 - HOTELS (EXC CASINO HOTELS) & MOTELS","NEW ORLEANS","3680130.69384","531361.329858","LA",,"70112"
"POINT (-90.059725621492 29.961903957193)","266","1234 CHARTRES ST","LE RICHELIEU","2019-11-19","4701 - HOTELS (EXC CASINO HOTELS) & MOTELS","NEW ORLEANS","3684118.27682","533877.608325","LA",,"70116"
"POINT (-90.068396761335 29.956554025357)","273","830 CONTI ST","PRINCE CONTI HOTEL","1987-08-01","4701 - HOTELS (EXC CASINO HOTELS) & MOTELS","NEW ORLEANS","3681394.18178","531901.761859","LA","B","70112-3440"
"POINT (-90.067145256808 29.950388146544)","262","427 GRAVIER ST","GRAVIER","2019-02-04","4701 - HOTELS (EXC CASINO HOTELS) & MOTELS","NEW ORLEANS","3681815.24776","529663.999105","LA",,"70130"
"POINT (-90.03215560337 30.006416353297)","233","4940 CHEF MENTEUR HWY","ECONO LODGE","2001-10-10","4701 - HOTELS (EXC CASINO HOTELS) & MOTELS","NEW ORLEANS","3692664.04035","550162.042772","LA",,"70126-5016"
"POINT (-90.103116106041 29.929717704704)","155","4417 DRYADES ST","BLUE LAGOON NOLA","2018-02-15","4701 - HOTELS (EXC CASINO HOTELS) & MOTELS","NEW ORLEANS","3670505.04142","522023.371578","LA",,"70115"
"POINT (-90.071579680425 29.971695983053)","44","1923 ESPLANADE AVE","H H WHITNEY HOUSE","1998-01-12","4703 - BED & BREAKFAST INNS","NEW ORLEANS","3680325.67701","537396.8306","LA",,"70116"
"POINT (-90.073202680273 29.950427931497)","331","901 POYDRAS ST","HOMEWOOD SUITES - NEW ORLEANS","2006-12-14","4701 - HOTELS (EXC CASINO HOTELS) & MOTELS","NEW ORLEANS","3679896.88411","529657.320385","LA",,"70112"
"POINT (-90.052833571213 29.969713129618)","31","2360 MARAIS ST","MAISON MARAIS","2019-12-02","8806 - .1(43) BED AND BREAKFAST 1 TO 2 ROOMS","NEW ORLEANS","3686268.79369","536741.632007","LA",,"70117"
"POINT (-90.074135917856 29.952934605727)","163","300 S RAMPART ST","SONDER","2019-10-18","4701 - HOTELS (EXC CASINO HOTELS) & MOTELS","NEW ORLEANS","3679591.33845","530565.590402","LA",,"70112"
"POINT (-90.076012485804 29.94290593822)","315","1130 BARONNE ST","1130 BARONNE","2021-02-11","4701 - HOTELS (EXC CASINO HOTELS) & MOTELS","NEW ORLEANS","3679037.1165","526912.273726","LA",,"70113"
"POINT (-90.014990454149 30.011025253479)","29","6303 CHEF MENTEUR HWY","NOLA10LLC","2019-02-19","4701 - HOTELS (EXC CASINO HOTELS) & MOTELS","NEW ORLEANS","3698077.36887","551900.110806","LA",,"70126"
"POINT (-90.055947070016 29.966525689758)","264","2222 BURGUNDY ST","MAISON GRACE","2019-03-27","4701 - HOTELS (EXC CASINO HOTELS) & MOTELS","NEW ORLEANS","3685295.95573","535571.558086","LA",,"70117"
"POINT (-90.066044601603 29.964027748539)","292","1118 URSULINES AVE","NEW ORLEANS GUEST HOUSE","2014-02-03","4701 - HOTELS (EXC CASINO HOTELS) & MOTELS","NEW ORLEANS","3682108.93615","534627.713606","LA",,"70116"
"POINT (-90.07758573091 29.938505008465)","337","1628 CARONDELET ST","AUBERGE NOUVELLE ORLEANS","2013-11-20","4703 - BED & BREAKFAST INNS","NEW ORLEANS","3678556.41762","525306.471549","LA",,"70130"
"POINT (-90.070003145272 29.97060378515)","300","1731 ESPLANADE AVE","FIVE CONTINENTS","2016-07-27","4703 - BED & BREAKFAST INNS","NEW ORLEANS","3680829.19087","537005.166344","LA",,"70116"
"POINT (-90.079398308989 29.973102399781)","43","2624 URSULINES AVE","CKW INC","1993-05-06","4702 - ROOMING & BOARDING HOUSES","NEW ORLEANS","3677844.68245","537881.083721","LA",,"70119"
"POINT (-90.075243150609 29.97358462261)","75","2306 ESPLANADE AVE","DEGAS HOUSE","2021-09-30","4701 - HOTELS (EXC CASINO HOTELS) & MOTELS","NEW ORLEANS","3679158.27259","538070.858377","LA",,"70119"
"POINT (-90.06620206928 29.948956531355)","152","333 POYDRAS ST","LE MERIDIEN","2021-05-12","4701 - HOTELS (EXC CASINO HOTELS) & MOTELS","NEW ORLEANS","3682119.68354","529146.713216","LA","70130","70130"
"POINT (-90.064803889299 29.943255523782)","201","859 CONVENTION CENTER BLVD","NEW ORLEANS MARRIOTT AT THE CONVENTION CENTER-[H/P","2005-07-06","4701 - HOTELS (EXC CASINO HOTELS) & MOTELS","NEW ORLEANS","3682585.40232","527078.519806","LA",,"70130"
"POINT (-90.073301739977 29.948987394393)","35","550 BARONNE ST","VIRGIN HOTELS NEW ORLEANS","2021-07-19","4701 - HOTELS (EXC CASINO HOTELS) & MOTELS","NEW ORLEANS","3679871.27515","529133.143296","LA",,"70113"
"POINT (-90.067224893359 29.950961661234)","183","444 COMMON ST","THE PELHAM HOTEL","2020-12-10","4701 - HOTELS (EXC CASINO HOTELS) & MOTELS","NEW ORLEANS","3681787.72476","529872.271553","LA",,"70130"
"POINT (-90.075691489886 29.957371259234)","160","1500 CANAL ST","THE JUNG HOTELS & RESIDENCES-HOTEL","2019-04-01","4701 - HOTELS (EXC CASINO HOTELS) & MOTELS","NEW ORLEANS","3679081.04053","532173.512067","LA",,"70112"
"POINT (-90.079849838051 29.962266921188)","87","2011 IBERVILLE ST","JEFF DAVIS","1991-04-05","4702 - ROOMING & BOARDING HOUSES","NEW ORLEANS","3677744.83253","533939.329925","LA",,"70112"
"POINT (-90.076989294557 29.951922709288)","57","740 HEBERT DR","FEDERAL CITY INN & SUITES","2011-08-11","4701 - HOTELS (EXC CASINO HOTELS) & MOTELS","NEW ORLEANS","3678691.8167","530187.70942","LA",,"70114"
"POINT (-90.063998189889 29.960033338236)","113","730 DUMAINE ST","FRENCH QUARTER MANSION BOUTIQUE HOTEL","2017-02-03","4701 - HOTELS (EXC CASINO HOTELS) & MOTELS","NEW ORLEANS","3682772.97532","533182.370372","LA",,"70116"
"POINT (-90.057889355726 29.964159031905)","58","628 FRENCHMEN ST","SUITE JAZZ ON FRENCHMEN","2012-10-03","4703 - BED & BREAKFAST INNS","NEW ORLEANS","3684690.57161","534704.103686","LA",,"70116"
"POINT (-90.059064815249 29.966881003432)","68","919 TOURO ST","FLEUR DE MARIGNY","2016-01-01","4703 - BED & BREAKFAST INNS","NEW ORLEANS","3684307.38325","535689.772039","LA",,"70116"
"POINT (-90.076989294557 29.951922709288)","253","634 N. WHITE ST","CAMPECHE","2017-03-30","4703 - BED & BREAKFAST INNS","NEW ORLEANS","3678691.8167","530187.70942","LA",,"70119"
"POINT (-90.063293825977 29.94773526893)","236","2 POYDRAS ST","HILTON N O RIVERSIDE HOTEL","2004-01-01","4701 - HOTELS (EXC CASINO HOTELS) & MOTELS","NEW ORLEANS","3683045.57205","528712.8144","LA","2ND FL","70130"
"POINT (-90.062371823393 29.960555544893)","207","1006 ROYAL ST","HOTEL ROYAL","2013-07-29","4701 - HOTELS (EXC CASINO HOTELS) & MOTELS","NEW ORLEANS","3683285.8404","533377.97242","LA",,"70116"
"POINT (-90.071037002089 29.957912645397)","344","317 N RAMPART ST","HOMEWOOD SUITES NEW ORLEANS FRENCH QUARTER","2017-04-04","4701 - HOTELS (EXC CASINO HOTELS) & MOTELS","NEW ORLEANS","3680552.70562","532386.586755","LA",,"70112"
"POINT (-90.071999254562 29.95685453015)","319","201 N RAMPART ST","SONDER USA, INC.","2021-12-17","4701 - HOTELS (EXC CASINO HOTELS) & MOTELS","NEW ORLEANS","3680252.24763","531998.461507","LA",,"70112"
"POINT (-90.067237009774 29.956051771703)","177","717 CONTI ST","HOTEL LE MARAIS","2018-12-18","4701 - HOTELS (EXC CASINO HOTELS) & MOTELS","NEW ORLEANS","3681763.43541","531723.179843","LA",,"70130"
"POINT (-90.065978482518 29.945567180836)","219","727 S PETERS ST","THE MERCHANTILE HOTEL","2018-05-29","4701 - HOTELS (EXC CASINO HOTELS) & MOTELS","NEW ORLEANS","3682204.11989","527915.005567","LA",,"70130"
"POINT (-90.067318764507 29.947885908781)","208","535 TCHOUPITOULAS ST","THE OLD NO. 77 HOTEL & CHANDLERY - MAIN","2013-07-31","4701 - HOTELS (EXC CASINO HOTELS) & MOTELS","NEW ORLEANS","3681770.35599","528753.487296","LA",,"70130"
"POINT (-90.035045746223 30.02507255295)","140","6001 FRANCE RD","PONTCHARTRAIN LANDING","2016-11-09","4701 - HOTELS (EXC CASINO HOTELS) & MOTELS","NEW ORLEANS","3691672.46832","556935.786202","LA",,"70126"
"POINT (-90.104090820769 29.96743478511)","26","3900 TULANE AVE","TULANE HOTEL GROUP INC","2017-07-26","4701 - HOTELS (EXC CASINO HOTELS) & MOTELS","NEW ORLEANS","3670049.17703","535735.410695","LA",,"70119"
"POINT (-90.069369135422 29.966299058961)","247","1520 URSULINES AVE","HISTORIC URSULINES COTTAGE","2014-10-23","4703 - BED & BREAKFAST INNS","NEW ORLEANS","3681047.18939","535442.019974","LA",,"70116"
"POINT (-90.066382683685 29.962467739016)","2","920 N RAMPART ST","BEST WESTERN FRENCH QUARTER   LANDMARK HOTEL","1981-01-01","4701 - HOTELS (EXC CASINO HOTELS) & MOTELS","NEW ORLEANS","3682008.16271","534059.252613","LA",,"70116-3011"
"POINT (-90.018299176046 30.008809254214)","107","6042 CHEF MENTEUR HWY","BEST WAY INN & SUITES & TRAILOR PARK","2014-04-15","4701 - HOTELS (EXC CASINO HOTELS) & MOTELS","NEW ORLEANS","3697039.48599","551082.256597","LA",,"70126"
"POINT (-90.093834455632 29.930791726449)","355","3435 DRYADES ST","GLADSTONE HOTEL LLC","2020-08-07","4701 - HOTELS (EXC CASINO HOTELS) & MOTELS","NEW ORLEANS","3673440.65396","522445.607482","LA",,"70115"
"POINT (-90.05876614998 29.962824379334)","323","547 ESPLANADE AVE","LANAUX MANSION","1997-06-01","4703 - BED & BREAKFAST INNS","NEW ORLEANS","3684418.35465","534215.685573","LA",,"70116"
