"objectid","store_name","address","address2","city","state","zip5","zip4","county","longitude","latitude","location"
"200647","Andover Deli And Mini Mart 1","144 Jonathan Trumbull Hwy",,"Andover","CT","06232",,"TOLLAND","-72.397461","41.752289","POINT (-72.397461 41.752289)"
"221204","Andover Express","380 Route 6",,"Andover","CT","06232","1312","TOLLAND","-72.371429","41.738678","POINT (-72.371429 41.738678)"
"71717","Andover Farmer's Market","359 Route 6",,"Andover","CT","06232","1319","TOLLAND","-72.374107","41.73922","POINT (-72.374107 41.73922)"
"16263","Andover Xtra Mart 10012","497 Route 6",,"Andover","CT","06232","1320","TOLLAND","-72.357361","41.732826","POINT (-72.357361 41.732826)"
"173632","Ansonia Mini Mart LLC","147 N Main St",,"Ansonia","CT","06401","1629","NEW HAVEN","-73.080978","41.352249","POINT (-73.080978 41.352249)"
"100106","Ansonia Xpressmart","180 Wakelee Ave",,"Ansonia","CT","06401","1146","NEW HAVEN","-73.090736","41.344654","POINT (-73.090736 41.344654)"
"20602","Big Daddy Food Mart Llc n/a","59 Beaver St",,"Ansonia","CT","06401","3202","NEW HAVEN","-73.072815","41.342522","POINT (-73.072815 41.342522)"
"45233","Big Y 47","403 Main St",,"Ansonia","CT","06401",,"NEW HAVEN","-73.078011","41.339928","POINT (-73.078011 41.339928)"
"163465","Cumberland Farms, Inc 4716","5 Pershing Dr",,"Ansonia","CT","06401","2213","NEW HAVEN","-73.084038","41.332973","POINT (-73.084038 41.332973)"
"28465","CVS PHARMACY  718","2436 Pershing Dr",,"Ansonia","CT","06401","2229","NEW HAVEN","-73.082726","41.337082","POINT (-73.082726 41.337082)"
"59310","DAILY MART","131 N Main St",,"Ansonia","CT","06401","1629","NEW HAVEN","-73.080887","41.351475","POINT (-73.080887 41.351475)"
"40716","Daniel's Market Llc","3 Hill St",,"Ansonia","CT","06401","2407","NEW HAVEN","-73.070908","41.34129","POINT (-73.070908 41.34129)"
"144894","Europol Deli Gifts","354 Main St",,"Ansonia","CT","06401","2303","NEW HAVEN","-73.078003","41.341072","POINT (-73.078003 41.341072)"
"213817","Fuel First","575 Main St",,"Ansonia","CT","06401","2310","NEW HAVEN","-73.075867","41.335251","POINT (-73.075867 41.335251)"
"65213","Main Street Shell","694 Main St",,"Ansonia","CT","06401","2311","NEW HAVEN","-73.07737","41.331036","POINT (-73.07737 41.331036)"
"5692","Maple Mini Mart","18 Maple St",,"Ansonia","CT","06401","1222","NEW HAVEN","-73.082726","41.34573","POINT (-73.082726 41.34573)"
"83367","RITE AID 667","404 Main St",,"Ansonia","CT","06401","2307","NEW HAVEN","-73.077988","41.340233","POINT (-73.077988 41.340233)"
"238918","S A Mart & Deli","95 Wakelee Ave",,"Ansonia","CT","06401","1151","NEW HAVEN","-73.090477","41.338589","POINT (-73.090477 41.338589)"
"171467","Ssdj Minimart, Llc","262 Main St",,"Ansonia","CT","06401","1859","NEW HAVEN","-73.07856","41.342541","POINT (-73.07856 41.342541)"
"59377","STOP & SHOP 635","100 Division St","Ste 1","Ansonia","CT","06401","2101","NEW HAVEN","-73.086212","41.333969","POINT (-73.086212 41.333969)"
"91077","Target 2249","20 W Main St",,"Ansonia","CT","06401","1812","NEW HAVEN","-73.079819","41.344257","POINT (-73.079819 41.344257)"
"163481","Cumberland Farms 4693","33 Pompey Hollow Rd",,"Ashford","CT","06278","1530","WINDHAM","-72.162262","41.863506","POINT (-72.162262 41.863506)"
"148842","Dollar General 17740","5 Squaw Hollow Rd",,"Ashford","CT","06278","1546","WINDHAM","-72.178673","41.856419","POINT (-72.178673 41.856419)"
"71997","Squaw Hollow Xtra Mart 10083","9 Nott Hwy",,"Ashford","CT","06278","1316","WINDHAM","-72.17878","41.857044","POINT (-72.17878 41.857044)"
"112924","Big Y Supermarkets 53","255 W Main St",,"Avon","CT","06001","4352","HARTFORD","-72.851646","41.812096","POINT (-72.851646 41.812096)"
"164797","CVS Pharmacy  1180","358 W Main St",,"Avon","CT","06001","3643","HARTFORD","-72.861656","41.815388","POINT (-72.861656 41.815388)"
"54860","The Fresh Market 127","315 W Main St",,"Avon","CT","06001",,"HARTFORD","-72.856483","41.813534","POINT (-72.856483 41.813534)"
"193686","Walmart 2899","255 W Main St","Ste 1","Avon","CT","06001","4352","HARTFORD","-72.851646","41.812096","POINT (-72.851646 41.812096)"
"238101","Whole Foods Market 10770","50 Climax Rd",,"Avon","CT","06001","3625","HARTFORD","-72.839188","41.813976","POINT (-72.839188 41.813976)"
"61828","BALTIC CONVENIENCE STORE","8 W Main St # 821",,"Baltic","CT","06330","1343","NEW LONDON","-72.085297","41.617088","POINT (-72.085297 41.617088)"
"163462","Cumberland Farms, Inc 4698","184 Main St",,"Baltic","CT","06330","1329","NEW LONDON","-72.07515","41.613255","POINT (-72.07515 41.613255)"
"16004","Bantam Market","793 Bantam Rd",,"Bantam","CT","06750","1605","LITCHFIELD","-73.236237","41.72438","POINT (-73.236237 41.72438)"
"42996","Dollar General Store 18060","390 New Hartford Rd",,"Barkhamsted","CT","06063","3228","LITCHFIELD","-73.041016","41.910713","POINT (-73.041016 41.910713)"
"141114","Dollar Tree 6842","380 New Hartford Rd","Ste 1","Barkhamsted","CT","06063","3200","LITCHFIELD","-73.040527","41.910923","POINT (-73.040527 41.910923)"
"52784","Pleasant Valley General Store","111 River Rd",,"Barkhamsted","CT","06063","3311","LITCHFIELD","-72.988541","41.911865","POINT (-72.988541 41.911865)"
"55247","Beacon Falls Xpress Mart LLC","25 N Main St",,"Beacon Falls","CT","06403","1127","NEW HAVEN","-73.062935","41.443348","POINT (-73.062935 41.443348)"
"27122","AMG Retail I 525","109 Berlin Tpke",,"Berlin","CT","06037","1503","HARTFORD","-72.730232","41.646873","POINT (-72.730232 41.646873)"
"206214","AMG Retail I 565","2005 Berlin Tpke",,"Berlin","CT","06037","3617","HARTFORD","-72.754829","41.597652","POINT (-72.754829 41.597652)"
"235104","Berlin Food Mart Llc","164 New Britain Rd",,"Berlin","CT","06037","1354","HARTFORD","-72.77121","41.644028","POINT (-72.77121 41.644028)"
"105227","CVS PHARMACY  1155","308 Berlin Tpke",,"Berlin","CT","06037","1506","HARTFORD","-72.733459","41.641457","POINT (-72.733459 41.641457)"
"202554","Dollar Tree 7150","227 Webster Square Rd",,"Berlin","CT","06037",,"HARTFORD","-72.743515","41.631062","POINT (-72.743515 41.631062)"
"210274","Food Bag Citgo Quik Mart 540","1289 Farmington Ave",,"Berlin","CT","06037","2303","HARTFORD","-72.752548","41.626484","POINT (-72.752548 41.626484)"
"169409","Gulf","301 Berlin Tpke",,"Berlin","CT","06037","1505","HARTFORD","-72.732903","41.641624","POINT (-72.732903 41.641624)"
"31410","Ocean State Job Lot 313","207 Webster Square Rd",,"Berlin","CT","06037","2328","HARTFORD","-72.743835","41.630611","POINT (-72.743835 41.630611)"
"69783","Shayona Grocery Llc","279 Berlin Tpke",,"Berlin","CT","06037","1505","HARTFORD","-72.73246","41.642738","POINT (-72.73246 41.642738)"
"77299","Stop & Shop 614","1135 Farmington Ave","Ste 1","Berlin","CT","06037","5200","HARTFORD","-72.757355","41.629116","POINT (-72.757355 41.629116)"
"184511","The Olive Bazaar Llc","1749 Berlin Tpke",,"Berlin","CT","06037","3676","HARTFORD","-72.751755","41.604134","POINT (-72.751755 41.604134)"
"97636","WALGREENS 10119","980 Farmington Ave",,"Berlin","CT","06037","2219","HARTFORD","-72.762207","41.632256","POINT (-72.762207 41.632256)"
"162624","7 Eleven (25905G) 25905G","17 Stony Hill Rd",,"Bethel","CT","06801","1032","FAIRFIELD","-73.398781","41.416943","POINT (-73.398781 41.416943)"
"92210","Big Y World Class Market 82","83 Stony Hill Rd",,"Bethel","CT","06801","3059","FAIRFIELD","-73.381584","41.414589","POINT (-73.381584 41.414589)"
"59563","Caraluzzis Bethel Market","98 Greenwood Ave",,"Bethel","CT","06801","2506","FAIRFIELD","-73.409294","41.371365","POINT (-73.409294 41.371365)"
"34920","CVS PHARMACY  1109","7 Durant Ave",,"Bethel","CT","06801","1906","FAIRFIELD","-73.417625","41.378002","POINT (-73.417625 41.378002)"
"57202","Dollar Tree 5009","83B Stony Hill Rd",,"Bethel","CT","06801","3038","FAIRFIELD","-73.379517","41.414185","POINT (-73.379517 41.414185)"
"210127","Food Bag Citgo Quik Mart 517","77 Greenwood Ave",,"Bethel","CT","06801","2529","FAIRFIELD","-73.407776","41.371777","POINT (-73.407776 41.371777)"
"121320","Henny Penny - Bethel 88","82 Stony Hill Rd",,"Bethel","CT","06801","3037","FAIRFIELD","-73.377403","41.414154","POINT (-73.377403 41.414154)"
"2026","La Placita Of Bethel Llc","289 Greenwood Ave",,"Bethel","CT","06801","2497","FAIRFIELD","-73.423233","41.375492","POINT (-73.423233 41.375492)"
"243045","M & F Quickmart, Llc","295 Greenwood Ave",,"Bethel","CT","06801","2402","FAIRFIELD","-73.423721","41.374786","POINT (-73.423721 41.374786)"
"149873","Rite Aid 10382","289 Greenwood Ave",,"Bethel","CT","06801","2402","FAIRFIELD","-73.423508","41.374611","POINT (-73.423508 41.374611)"
"82925","TARGET 1528","7 Stony Hill Rd",,"Bethel","CT","06801","1030","FAIRFIELD","-73.402351","41.416325","POINT (-73.402351 41.416325)"
"24413","Sunnyridge Supermarket LLC","82 Main St S",,"Bethlehem","CT","06751","2030","LITCHFIELD","-73.208878","41.63517","POINT (-73.208878 41.63517)"
"82977","Bloomfield Gas","47 Jerome Ave",,"Bloomfield","CT","06002","2420","HARTFORD","-72.734711","41.830029","POINT (-72.734711 41.830029)"
"163894","Cumberland Farms, Inc 4746","6 Old Windsor Rd",,"Bloomfield","CT","06002","1313","HARTFORD","-72.705994","41.855522","POINT (-72.705994 41.855522)"
"105222","CVS PHARMACY  1102","341 Cottage Grove Rd",,"Bloomfield","CT","06002","3148","HARTFORD","-72.713814","41.817665","POINT (-72.713814 41.817665)"
"164321","CVS Pharmacy 1903","796 PARK AVE.",,"Bloomfield","CT","06002",,"HARTFORD","-72.733337","41.829113","POINT (-72.733337 41.829113)"
"191866","Dollar General 19060","1051 Blue Hills Ave",,"Bloomfield","CT","06002","2700","HARTFORD","-72.696289","41.823177","POINT (-72.696289 41.823177)"
"87412","DOLLAR TREE 1128","299 Cottage Grove Rd",,"Bloomfield","CT","06002","3117","HARTFORD","-72.71125","41.817226","POINT (-72.71125 41.817226)"
"174127","Family Dollar 8437","38 Tunxis Ave","Ste 1","Bloomfield","CT","06002","2034","HARTFORD","-72.737305","41.834675","POINT (-72.737305 41.834675)"
"228148","Fresh Farms Market 3","1055 Blue Hills Ave",,"Bloomfield","CT","06002","2726","HARTFORD","-72.69622","41.822765","POINT (-72.69622 41.822765)"
"81458","Geisslers Supermarket","40 Tunxis Ave","Ste 1","Bloomfield","CT","06002","2030","HARTFORD","-72.738274","41.835884","POINT (-72.738274 41.835884)"
"93184","Isaac,s Mini Food Mart 1","18 Mountain Ave",,"Bloomfield","CT","06002","2339","HARTFORD","-72.740265","41.830914","POINT (-72.740265 41.830914)"
"31412","Ocean State Job Lot 322","20 Mountain Ave",,"Bloomfield","CT","06002","2339","HARTFORD","-72.741196","41.830818","POINT (-72.741196 41.830818)"
"1920","Saba Live Poultry Inc","52 Granby St",,"Bloomfield","CT","06002","3512","HARTFORD","-72.708977","41.815205","POINT (-72.708977 41.815205)"
"176822","Safia3","925 Blue Hills Ave",,"Bloomfield","CT","06002","3711","HARTFORD","-72.69548","41.81596","POINT (-72.69548 41.81596)"
"135924","Shell Quick Mart","991 Blue Hills Ave",,"Bloomfield","CT","06002","3714","HARTFORD","-72.695526","41.81847","POINT (-72.695526 41.81847)"
"14007","STOP & SHOP  651","313 Cottage Grove Rd",,"Bloomfield","CT","06002","3148","HARTFORD","-72.712067","41.817287","POINT (-72.712067 41.817287)"
"131053","Tunxis Food Mart","36 Tunxis Ave",,"Bloomfield","CT","06002","2006","HARTFORD","-72.73732","41.835625","POINT (-72.73732 41.835625)"
"193740","Vrunda Llc","818 Park Ave",,"Bloomfield","CT","06002","2417","HARTFORD","-72.734406","41.8297","POINT (-72.734406 41.8297)"
"190959","Walgreens 17398","835 Park Ave",,"Bloomfield","CT","06002","2469","HARTFORD","-72.735077","41.829914","POINT (-72.735077 41.829914)"
"224125","World Fish","1023 Blue Hills Ave",,"Bloomfield","CT","06002","3715","HARTFORD","-72.695824","41.820072","POINT (-72.695824 41.820072)"
"232462","A-1 Food Store No","140B West St",,"Bolton","CT","06043","7714","TOLLAND","-72.438591","41.7505","POINT (-72.438591 41.7505)"
"9787","Dollar General 23232","1100 Boston Tpke",,"Bolton","CT","06043","7439","TOLLAND","-72.424675","41.796864","POINT (-72.424675 41.796864)"
"170834","Best Way","419 Salem Tpke",,"Bozrah","CT","06334","1516","NEW LONDON","-72.14856","41.507198","POINT (-72.14856 41.507198)"
"26112","350 Foxon Food Mart LLC 01","202 E Main St",,"Branford","CT","06405","3766","NEW HAVEN","-72.800995","41.289085","POINT (-72.800995 41.289085)"
"166791","Big Y Supermarkets 12","1060 Main St",,"Branford","CT","06405","3732","NEW HAVEN","-72.810776","41.282475","POINT (-72.810776 41.282475)"
"59916","Caron's Corner,inc","147 Montowese St",,"Branford","CT","06405","3809","NEW HAVEN","-72.807549","41.28009","POINT (-72.807549 41.28009)"
"163899","Cumberland Farms, Inc 4751","227 East Main St",,"Branford","CT","06405","3102","NEW HAVEN","-72.797821","41.290375","POINT (-72.797821 41.290375)"
"14839","CVS PHARMACY 172","2-6 Short Beach Rd",,"Branford","CT","06405","6231","NEW HAVEN","-72.830116","41.275215","POINT (-72.830116 41.275215)"
"107785","DOLLAR TREE 3550","869 W Main St","Ste A","Branford","CT","06405","3402","NEW HAVEN","-72.835991","41.276054","POINT (-72.835991 41.276054)"
"96470","Four Seasons Market","875 W Main St",,"Branford","CT","06405","3425","NEW HAVEN","-72.835808","41.27602","POINT (-72.835808 41.27602)"
"246551","Haris & Ayesha Food Mart","49 Leetes Island Rd",,"Branford","CT","06405","6513","NEW HAVEN","-72.76506","41.296257","POINT (-72.76506 41.296257)"
"41618","Krauszers Food Store","170 Cedar St",,"Branford","CT","06405","6011","NEW HAVEN","-72.819534","41.289867","POINT (-72.819534 41.289867)"
"238540","Nippon Impex Llc N/A","380 E Main St",,"Branford","CT","06405","2938","NEW HAVEN","-72.780876","41.296246","POINT (-72.780876 41.296246)"
"59922","STOP & SHOP 687","22 Leetes Island Rd","Ste 1","Branford","CT","06405","6514","NEW HAVEN","-72.764595","41.29734","POINT (-72.764595 41.29734)"
"16049","TA Express New Haven 171","I-95, Exit 56","Access Road:  3 E Industrial Rd","Branford","CT","06405","6508","NEW HAVEN","-72.755219","41.296585","POINT (-72.755219 41.296585)"
"132043","Walgreens 03944","329 E Main St",,"Branford","CT","06405","3106","NEW HAVEN","-72.78669","41.292515","POINT (-72.78669 41.292515)"
"107029","WALGREENS 10309","1036 W Main St",,"Branford","CT","06405","3428","NEW HAVEN","-72.831444","41.275169","POINT (-72.831444 41.275169)"
"193679","Walmart  2232","120 Commercial Pkwy",,"Branford","CT","06405","2537","NEW HAVEN","-72.831337","41.279774","POINT (-72.831337 41.279774)"
"162524","1 Stop Groceries Llc","938 Connecticut Ave",,"Bridgeport","CT","06607","1205","FAIRFIELD","-73.160759","41.182129","POINT (-73.160759 41.182129)"
"30980","A & H Food Store Inc","233 North Ave",,"Bridgeport","CT","06606","5123","FAIRFIELD","-73.191917","41.200848","POINT (-73.191917 41.200848)"
"42911","Almonte Market","288 Bunnell St",,"Bridgeport","CT","06607","1004","FAIRFIELD","-73.167442","41.182022","POINT (-73.167442 41.182022)"
"5718","Angeles Mini Market Llc","239 Newfield Ave",,"Bridgeport","CT","06607","2205","FAIRFIELD","-73.169212","41.172039","POINT (-73.169212 41.172039)"
"16677","Azteca Market 2","522 Pequonnock St",,"Bridgeport","CT","06604","2614","FAIRFIELD","-73.204346","41.182362","POINT (-73.204346 41.182362)"
"245535","Baghdad Halal Super Market","978 State St",,"Bridgeport","CT","06605","1500","FAIRFIELD","-73.20253","41.172585","POINT (-73.20253 41.172585)"
"243361","Bangla Bazar","1218 State St",,"Bridgeport","CT","06605","1708","FAIRFIELD","-73.207047","41.171326","POINT (-73.207047 41.171326)"
"200913","Big Deli Llc","2489 E Main St",,"Bridgeport","CT","06610","1807","FAIRFIELD","-73.178947","41.208755","POINT (-73.178947 41.208755)"
"131242","Bird Mart","460 Bird St",,"Bridgeport","CT","06605","2410","FAIRFIELD","-73.214447","41.162998","POINT (-73.214447 41.162998)"
"231939","Blissful Awakening's Urban Regenerative Farm","81 Clifford St",,"Bridgeport","CT","06607","1605","FAIRFIELD","-73.168114","41.176987","POINT (-73.168114 41.176987)"
"67542","Bogopa 345 Huntington Inc 43","345 Huntington Turnpike",,"Bridgeport","CT","06610",,"FAIRFIELD","-73.175056","41.213856","POINT (-73.175056 41.213856)"
"239695","Bom Preco Supermarket","821 Madison Ave",,"Bridgeport","CT","06606","5516","FAIRFIELD","-73.204918","41.192436","POINT (-73.204918 41.192436)"
"105929","BOSTON BEEF & PROVISIONS","1805 Boston Ave",,"Bridgeport","CT","06610","2610","FAIRFIELD","-73.160553","41.193516","POINT (-73.160553 41.193516)"
"200442","BRIDGEPORT LIVE POULTRY, INC.","479 Harral Ave",,"Bridgeport","CT","06604","3143","FAIRFIELD","-73.197456","41.18372","POINT (-73.197456 41.18372)"
"77916","Bridgeport Mini Mart","1025 E Main St",,"Bridgeport","CT","06608","1916","FAIRFIELD","-73.180733","41.188702","POINT (-73.180733 41.188702)"
"182676","Bridgeport Variety Plus","1372 Park Ave",,"Bridgeport","CT","06604","3052","FAIRFIELD","-73.202652","41.179138","POINT (-73.202652 41.179138)"
"206057","Brooklawn Grocery & Deli","652 Brooklawn Ave",,"Bridgeport","CT","06604","1528","FAIRFIELD","-73.219795","41.18692","POINT (-73.219795 41.18692)"
"236983","Brother's Grocery Llc","234 Palisade Ave",,"Bridgeport","CT","06610","2225","FAIRFIELD","-73.165314","41.196564","POINT (-73.165314 41.196564)"
"50065","Brother's Supermarket Llc N/A","500 Park Ave","Ste 1","Bridgeport","CT","06604","5858","FAIRFIELD","-73.193947","41.168839","POINT (-73.193947 41.168839)"
"11258","Capitol Exxon LLC","565 Lindley St",,"Bridgeport","CT","06606","5451","FAIRFIELD","-73.19651","41.198517","POINT (-73.19651 41.198517)"
"207058","CAPTAIN'S FOOD MART","321 Main St",,"Bridgeport","CT","06604","5522","FAIRFIELD","-73.186485","41.168999","POINT (-73.186485 41.168999)"
"222239","Chaves Bakery III","865 Madison Ave",,"Bridgeport","CT","06606","5506","FAIRFIELD","-73.205132","41.193039","POINT (-73.205132 41.193039)"
"42327","Collado's Grocery","2351 Main St",,"Bridgeport","CT","06606","5324","FAIRFIELD","-73.199463","41.194935","POINT (-73.199463 41.194935)"
"59053","COMPARE FOOD SUPERMARKET","1050 E Main St",,"Bridgeport","CT","06608","1915","FAIRFIELD","-73.180588","41.18911","POINT (-73.180588 41.18911)"
"95025","Corner Market","1896 Seaview Ave",,"Bridgeport","CT","06610","2731","FAIRFIELD","-73.170113","41.188766","POINT (-73.170113 41.188766)"
"45561","Corner Varietystore","343 Wayne St",,"Bridgeport","CT","06606","4649","FAIRFIELD","-73.20916","41.201969","POINT (-73.20916 41.201969)"
"33939","Ct Gas & Mini Mart Llc","1726 Fairfield Ave",,"Bridgeport","CT","06605","2144","FAIRFIELD","-73.214508","41.169346","POINT (-73.214508 41.169346)"
"132695","Cumberland Farms 4731","2525 E Main St",,"Bridgeport","CT","06610","1810","FAIRFIELD","-73.178993","41.21006","POINT (-73.178993 41.21006)"
"33714","CVS PHARMACY  1139","2610 E Main St",,"Bridgeport","CT","06610","1422","FAIRFIELD","-73.178925","41.2103","POINT (-73.178925 41.2103)"
"13462","CVS PHARMACY  1153","1875 Boston Ave",,"Bridgeport","CT","06610","2623","FAIRFIELD","-73.159431","41.193298","POINT (-73.159431 41.193298)"
"125961","CVS PHARMACY  2143","3710 Main St",,"Bridgeport","CT","06606","3613","FAIRFIELD","-73.210068","41.211769","POINT (-73.210068 41.211769)"
"53431","De Castillo Grocery LLC","1160 State St",,"Bridgeport","CT","06605","1506","FAIRFIELD","-73.205788","41.171558","POINT (-73.205788 41.171558)"
"196821","Deli And Grocery Mini Market","743 Arctic St",,"Bridgeport","CT","06608","2010","FAIRFIELD","-73.175461","41.189022","POINT (-73.175461 41.189022)"
"140170","Deli Grocery, Llc","1212 Park Ave",,"Bridgeport","CT","06604","3413","FAIRFIELD","-73.200951","41.177536","POINT (-73.200951 41.177536)"
"69395","Dino's Market","1226 State St",,"Bridgeport","CT","06605","1708","FAIRFIELD","-73.206696","41.171268","POINT (-73.206696 41.171268)"
"63718","Dollar General 15076","557 Fairfield Ave",,"Bridgeport","CT","06604","3904","FAIRFIELD","-73.196182","41.176331","POINT (-73.196182 41.176331)"
"158159","Dollar Tree 4323","345 Huntington Tpke",,"Bridgeport","CT","06610","1465","FAIRFIELD","-73.175064","41.213894","POINT (-73.175064 41.213894)"
"36639","Dollar Tree 5245","570 Pequonnock St",,"Bridgeport","CT","06604","2614","FAIRFIELD","-73.205414","41.18251","POINT (-73.205414 41.18251)"
"158303","Downtown Bridgeport Farmer's Market","102 Bank St","McLevy Green","Bridgeport","CT","06604",,"FAIRFIELD","-73.189148","41.177307","POINT (-73.189148 41.177307)"
"240768","D.r. Market Retail Centre","730 Maplewood Ave",,"Bridgeport","CT","06605","1603","FAIRFIELD","-73.213387","41.175606","POINT (-73.213387 41.175606)"
"232844","East Side Farmers Market","752 E Main St",,"Bridgeport","CT","06608","2335","FAIRFIELD","-73.180832","41.184956","POINT (-73.180832 41.184956)"
"128863","Edip Variety and Deli LLC","124 Beechmont Ave",,"Bridgeport","CT","06606","4308","FAIRFIELD","-73.205734","41.206917","POINT (-73.205734 41.206917)"
"39755","Ela Discounts LLC","1321 Stratford Ave",,"Bridgeport","CT","06607","1417","FAIRFIELD","-73.164497","41.178841","POINT (-73.164497 41.178841)"
"29825","El Dorado Meat Market Llc","2428 Main St",,"Bridgeport","CT","06606","5323","FAIRFIELD","-73.199677","41.195831","POINT (-73.199677 41.195831)"
"246254","El Lider Mini Market","1728 Barnum Ave",,"Bridgeport","CT","06610","3206","FAIRFIELD","-73.158272","41.188812","POINT (-73.158272 41.188812)"
"232888","El Mercadito Llc 1","4090 Main St",,"Bridgeport","CT","06606","2399","FAIRFIELD","-73.213364","41.216377","POINT (-73.213364 41.216377)"
"11345","Extra Fuel Mart","540 Boston Ave",,"Bridgeport","CT","06610","1705","FAIRFIELD","-73.18129","41.198505","POINT (-73.18129 41.198505)"
"59572","FAIRFIELD MARKET","2268 Fairfield Ave",,"Bridgeport","CT","06605","2644","FAIRFIELD","-73.220459","41.16378","POINT (-73.220459 41.16378)"
"53838","Family Dollar Store 10111","1175 State St",,"Bridgeport","CT","06605","1507","FAIRFIELD","-73.205917","41.171429","POINT (-73.205917 41.171429)"
"5126","Family Market","1587 Capitol Ave",,"Bridgeport","CT","06604","1622","FAIRFIELD","-73.216904","41.188782","POINT (-73.216904 41.188782)"
"232106","Farmers Market Of Black Rock","481 Brewster St",,"Bridgeport","CT","06605","3498","FAIRFIELD","-73.225296","41.15596","POINT (-73.225296 41.15596)"
"232897","Farm Stand At Bridgeport Hospital","200 Mill Hill Ave",,"Bridgeport","CT","06610","2811","FAIRFIELD","-73.164398","41.189213","POINT (-73.164398 41.189213)"
"72549","Feed Mobile Marketplace","1718 Capitol Ave",,"Bridgeport","CT","06604","1531","FAIRFIELD","-73.219742","41.187862","POINT (-73.219742 41.187862)"
"114125","Fine Fare Supermarket","2251 Main St",,"Bridgeport","CT","06606","5314","FAIRFIELD","-73.198418","41.193703","POINT (-73.198418 41.193703)"
"72445","Food Bazaar 36","500 Sylvan Ave",,"Bridgeport","CT","06606","3017","FAIRFIELD","-73.189407","41.209667","POINT (-73.189407 41.209667)"
"149399","Fresh Market Llc","866 North Ave",,"Bridgeport","CT","06606","5708","FAIRFIELD","-73.196625","41.192612","POINT (-73.196625 41.192612)"
"66573","Gala Foods Supermarket","1457 Fairfield Ave",,"Bridgeport","CT","06605","1932","FAIRFIELD","-73.211037","41.172264","POINT (-73.211037 41.172264)"
"48329","Gas Station/small Shop 1","1789 Barnum Ave",,"Bridgeport","CT","06610","3211","FAIRFIELD","-73.15741","41.189209","POINT (-73.15741 41.189209)"
"128712","Getty Gas","1235 Park Ave",,"Bridgeport","CT","06604","3411","FAIRFIELD","-73.201141","41.177608","POINT (-73.201141 41.177608)"
"210355","Gomez Convenience Store","1437 Fairfield Ave",,"Bridgeport","CT","06605","1928","FAIRFIELD","-73.210587","41.172543","POINT (-73.210587 41.172543)"
"115471","Gv Brasil Meat Market","2380 Main St",,"Bridgeport","CT","06606","5339","FAIRFIELD","-73.19944","41.195499","POINT (-73.19944 41.195499)"
"242202","Happys Deli Market","2487 Main St",,"Bridgeport","CT","06606","5325","FAIRFIELD","-73.20034","41.196636","POINT (-73.20034 41.196636)"
"54580","Hidalgo Market","175 Pequonnock St",,"Bridgeport","CT","06604","3520","FAIRFIELD","-73.19812","41.180939","POINT (-73.19812 41.180939)"
"29479","International Farmers Market","2298 Main St",,"Bridgeport","CT","06606","5321","FAIRFIELD","-73.198624","41.194199","POINT (-73.198624 41.194199)"
"94553","International Fish Market","2298A Main St",,"Bridgeport","CT","06606",,"FAIRFIELD","-73.198524","41.194092","POINT (-73.198524 41.194092)"
"19148","J & H Grocery Store Llc","129 Wood Ave",,"Bridgeport","CT","06605","1052","FAIRFIELD","-73.203583","41.177414","POINT (-73.203583 41.177414)"
"109992","Jp Grocery & Deli","320 Palisade Ave",,"Bridgeport","CT","06610","3402","FAIRFIELD","-73.164948","41.197823","POINT (-73.164948 41.197823)"
"174967","Julio R Market Llc","727 E Main St",,"Bridgeport","CT","06608","2334","FAIRFIELD","-73.180977","41.184578","POINT (-73.180977 41.184578)"
"106537","Junco 09","373 Harral Ave",,"Bridgeport","CT","06604","3147","FAIRFIELD","-73.197975","41.182449","POINT (-73.197975 41.182449)"
"213502","Junco4 Castellanos Llc","891 Noble Ave",,"Bridgeport","CT","06608","1020","FAIRFIELD","-73.183937","41.193897","POINT (-73.183937 41.193897)"
"55628","Junco6 Market","701 Hallett St",,"Bridgeport","CT","06608",,"FAIRFIELD","-73.175514","41.191017","POINT (-73.175514 41.191017)"
"93581","Junco 7 Mini Market","1100 Pembroke St",,"Bridgeport","CT","06608","2019","FAIRFIELD","-73.177521","41.189178","POINT (-73.177521 41.189178)"
"57266","Junco & Daughter Market","533 Harral Ave",,"Bridgeport","CT","06604","3107","FAIRFIELD","-73.197159","41.184425","POINT (-73.197159 41.184425)"
"25307","Junco Grocery Deli Llc","1427 Stratford Ave",,"Bridgeport","CT","06607","1419","FAIRFIELD","-73.162926","41.179405","POINT (-73.162926 41.179405)"
"42849","Junco & Son Meat Market LLC","616 William St",,"Bridgeport","CT","06608","1527","FAIRFIELD","-73.185287","41.192707","POINT (-73.185287 41.192707)"
"218132","Junco Supermarket Ii, Llc","27 Highland Ave",,"Bridgeport","CT","06604","3504","FAIRFIELD","-73.194771","41.183109","POINT (-73.194771 41.183109)"
"231747","K & H FOOD STOP","1309 Fairfield Ave",,"Bridgeport","CT","06605","1712","FAIRFIELD","-73.208809","41.173801","POINT (-73.208809 41.173801)"
"34624","Ki Brasil","1173 Madison Ave",,"Bridgeport","CT","06606","4628","FAIRFIELD","-73.207603","41.196854","POINT (-73.207603 41.196854)"
"17939","Krauszers Food","2579 Fairfield Ave",,"Bridgeport","CT","06605","3038","FAIRFIELD","-73.223671","41.160278","POINT (-73.223671 41.160278)"
"224028","La Parada Ct Llc","1132 Norman St",,"Bridgeport","CT","06604","2234","FAIRFIELD","-73.209427","41.182854","POINT (-73.209427 41.182854)"
"31708","La Placita Latina Meat & Deli LLC","2634 Main St",,"Bridgeport","CT","06606","5305","FAIRFIELD","-73.201469","41.198456","POINT (-73.201469 41.198456)"
"105172","Lasowiak Deli","2171 Boston Ave",,"Bridgeport","CT","06610","3030","FAIRFIELD","-73.15435","41.192566","POINT (-73.15435 41.192566)"
"27469","Lias Market Llc","2032 Main St",,"Bridgeport","CT","06604","2720","FAIRFIELD","-73.196495","41.190948","POINT (-73.196495 41.190948)"
"115814","Los Basilio Mini Market Llc","822 Madison Ave",,"Bridgeport","CT","06606","5513","FAIRFIELD","-73.204613","41.192581","POINT (-73.204613 41.192581)"
"216175","Los Muchachos Grocery Store Llc","1325 Pembroke St",,"Bridgeport","CT","06608","1744","FAIRFIELD","-73.177116","41.192238","POINT (-73.177116 41.192238)"
"174453","Los Primos Grocery Store","64 Roosevelt St",,"Bridgeport","CT","06608","1030","FAIRFIELD","-73.185394","41.198074","POINT (-73.185394 41.198074)"
"246276","Maham Service Station Inc","927 Park Ave",,"Bridgeport","CT","06604","3917","FAIRFIELD","-73.198029","41.17403","POINT (-73.198029 41.17403)"
"67613","Mambo Grocery","731 Noble Ave",,"Bridgeport","CT","06608","1502","FAIRFIELD","-73.184143","41.191792","POINT (-73.184143 41.191792)"
"19649","M And S Grocery And Deli","1359 Park Ave",,"Bridgeport","CT","06604","3050","FAIRFIELD","-73.202568","41.17894","POINT (-73.202568 41.17894)"
"214709","Mikes Deli Market","2808 Fairfield Ave",,"Bridgeport","CT","06605","3047","FAIRFIELD","-73.226265","41.157681","POINT (-73.226265 41.157681)"
"24019","Mini Special Market","254 Orchard St",,"Bridgeport","CT","06608","1203","FAIRFIELD","-73.178047","41.19492","POINT (-73.178047 41.19492)"
"13782","MLC MARKET","1377 Stratford Ave",,"Bridgeport","CT","06607","1419","FAIRFIELD","-73.163658","41.179134","POINT (-73.163658 41.179134)"
"75311","North Ave Grocery & Deli","1193 North Ave",,"Bridgeport","CT","06604","2713","FAIRFIELD","-73.19986","41.188831","POINT (-73.19986 41.188831)"
"72814","ORIENTAL SUPERMARKET","320 Coleman St",,"Bridgeport","CT","06604","3014","FAIRFIELD","-73.200981","41.180939","POINT (-73.200981 41.180939)"
"208329","PACI'S MARKET","255 Lindley St",,"Bridgeport","CT","06606","5723","FAIRFIELD","-73.192062","41.19595","POINT (-73.192062 41.19595)"
"14611","PAM'S VARIETY STORE","1375 Madison Ave",,"Bridgeport","CT","06606","4571","FAIRFIELD","-73.21022","41.19854","POINT (-73.21022 41.19854)"
"71506","Papi's Store 2","337 William St",,"Bridgeport","CT","06608","1834","FAIRFIELD","-73.186028","41.189007","POINT (-73.186028 41.189007)"
"101550","Park Avenue Supermarket","375 Park Ave",,"Bridgeport","CT","06604","5449","FAIRFIELD","-73.193092","41.167553","POINT (-73.193092 41.167553)"
"215196","Pembroke Variety Inc","582 Pembroke St",,"Bridgeport","CT","06608","2608","FAIRFIELD","-73.178757","41.18224","POINT (-73.178757 41.18224)"
"228047","Pequonnock Deli Market","477 Pequonnock St",,"Bridgeport","CT","06604","2613","FAIRFIELD","-73.203407","41.182083","POINT (-73.203407 41.182083)"
"92302","Perez Deli & Grocery Llc","1650 Stratford Ave",,"Bridgeport","CT","06607","1514","FAIRFIELD","-73.159271","41.180599","POINT (-73.159271 41.180599)"
"212789","P&M Grocery Store","942 E Main St",,"Bridgeport","CT","06608","1913","FAIRFIELD","-73.180733","41.187412","POINT (-73.180733 41.187412)"
"119883","PRICERITE of Bridgeport 346","164 Boston Ave",,"Bridgeport","CT","06610","1604","FAIRFIELD","-73.186493","41.201786","POINT (-73.186493 41.201786)"
"153130","PriceRite of Main Street 349","4425 Main St",,"Bridgeport","CT","06606","1837","FAIRFIELD","-73.216751","41.220043","POINT (-73.216751 41.220043)"
"30180","Pueblo Supermarket","420 Pembroke St",,"Bridgeport","CT","06608","2603","FAIRFIELD","-73.179146","41.179981","POINT (-73.179146 41.179981)"
"136424","Pursat Supermarket","215 Maplewood Ave",,"Bridgeport","CT","06605","1036","FAIRFIELD","-73.206055","41.180096","POINT (-73.206055 41.180096)"
"105673","Reservoir Deli And Grocery Llc","878 Reservoir Ave",,"Bridgeport","CT","06606","3960","FAIRFIELD","-73.191643","41.212616","POINT (-73.191643 41.212616)"
"62806","Rite Aid 3619","1060 E Main St",,"Bridgeport","CT","06608","1915","FAIRFIELD","-73.180573","41.18927","POINT (-73.180573 41.18927)"
"64365","Rosadel's African Market. Llc","2541 Main St",,"Bridgeport","CT","06606","5303","FAIRFIELD","-73.200737","41.197193","POINT (-73.200737 41.197193)"
"4967","Saba Petroleum","1360 Noble Ave",,"Bridgeport","CT","06608","1065","FAIRFIELD","-73.183884","41.200226","POINT (-73.183884 41.200226)"
"71310","SAMMY'S DOLLAR STORE","500 Park Ave","Ste 6","Bridgeport","CT","06604","5858","FAIRFIELD","-73.194077","41.169075","POINT (-73.194077 41.169075)"
"140240","Sam's Mart LLC","1464 Fairfield Ave",,"Bridgeport","CT","06605","1931","FAIRFIELD","-73.211235","41.17226","POINT (-73.211235 41.17226)"
"65392","Santos Grocery Store 1","189 Newfield Ave",,"Bridgeport","CT","06607","2430","FAIRFIELD","-73.169487","41.171494","POINT (-73.169487 41.171494)"
"98515","Save A Lot 869","540 Pequonnock St",,"Bridgeport","CT","06604","2614","FAIRFIELD","-73.204674","41.182419","POINT (-73.204674 41.182419)"
"1167","Sherif Mart","3751 Madison Ave",,"Bridgeport","CT","06606","1655","FAIRFIELD","-73.230667","41.222374","POINT (-73.230667 41.222374)"
"51027","Sofias Grocery Llc","922 Madison Ave",,"Bridgeport","CT","06606","5219","FAIRFIELD","-73.20546","41.193676","POINT (-73.20546 41.193676)"
"47951","Stop & Shop 0670","4531 Main St","Ste 1","Bridgeport","CT","06606","1846","FAIRFIELD","-73.217873","41.221424","POINT (-73.217873 41.221424)"
"91674","STOP & SHOP 698","2145 Fairfield Ave",,"Bridgeport","CT","06605","2639","FAIRFIELD","-73.219017","41.165051","POINT (-73.219017 41.165051)"
"232920","Stratfield Saturday Market","2100 North Ave",,"Bridgeport","CT","06604","2411","FAIRFIELD","-73.211975","41.1805","POINT (-73.211975 41.1805)"
"232966","St. Vincent's Farm Stand","2800 E Main St",,"Bridgeport","CT","06610","1467","FAIRFIELD","-73.17878","41.212963","POINT (-73.17878 41.212963)"
"170820","SUCCESS CORNER DELI & VARIETY","184 Success Ave",,"Bridgeport","CT","06610","2528","FAIRFIELD","-73.157814","41.195595","POINT (-73.157814 41.195595)"
"207067","SUCCESS SUPERMARKET INC","536 Success Ave",,"Bridgeport","CT","06610","2423","FAIRFIELD","-73.156509","41.200256","POINT (-73.156509 41.200256)"
"378","Titi Groceries","351 Lexington Ave",,"Bridgeport","CT","06604","3122","FAIRFIELD","-73.200417","41.184631","POINT (-73.200417 41.184631)"
"248035","Tonys Market","100 Bishop Ave",,"Bridgeport","CT","06607","1505","FAIRFIELD","-73.156471","41.183594","POINT (-73.156471 41.183594)"
"32185","Torres Food Market Llc","165 Washington Ave",,"Bridgeport","CT","06604","3812","FAIRFIELD","-73.197502","41.177311","POINT (-73.197502 41.177311)"
"224210","Tu Bodeguita","795 Grand St",,"Bridgeport","CT","06604","2616","FAIRFIELD","-73.201401","41.185219","POINT (-73.201401 41.185219)"
"16536","Turind LLC","624 E Main St",,"Bridgeport","CT","06608","2330","FAIRFIELD","-73.180946","41.183167","POINT (-73.180946 41.183167)"
"31420","Vinnys Market LLC","1133 Stratford Ave",,"Bridgeport","CT","06607","1322","FAIRFIELD","-73.167549","41.177876","POINT (-73.167549 41.177876)"
"197283","Walgreens","960 North Ave",,"Bridgeport","CT","06606","5741","FAIRFIELD","-73.19738","41.191463","POINT (-73.19738 41.191463)"
"121739","Walgreens 09521","1000 Park Ave",,"Bridgeport","CT","06604","3406","FAIRFIELD","-73.19825","41.174568","POINT (-73.19825 41.174568)"
"188271","Walgreens 7522","4083 Main St",,"Bridgeport","CT","06606","2302","FAIRFIELD","-73.213409","41.216209","POINT (-73.213409 41.216209)"
"239174","Woods Mart","427 Wood Ave",,"Bridgeport","CT","06605","1435","FAIRFIELD","-73.208221","41.178574","POINT (-73.208221 41.178574)"
"236067","Yesu Mo African Caribbean Market Inc.","2087 E Main St",,"Bridgeport","CT","06610","1946","FAIRFIELD","-73.17939","41.203304","POINT (-73.17939 41.203304)"
"119608","ALDI INC  62","110 Middle St",,"Bristol","CT","06010","7403","HARTFORD","-72.921806","41.665977","POINT (-72.921806 41.665977)"
"141792","Amg Retail I Llc 536","527 Middle St",,"Bristol","CT","06010","7442","HARTFORD","-72.914261","41.656296","POINT (-72.914261 41.656296)"
"221409","Big Lots 1738","1235 Farmington Ave",,"Bristol","CT","06010",,"HARTFORD","-72.900177","41.698303","POINT (-72.900177 41.698303)"
"147286","Bristol Convenience & Deli","342 Lake Ave",,"Bristol","CT","06010","7327","HARTFORD","-72.9235","41.656399","POINT (-72.9235 41.656399)"
"74087","Bristol Farmers Market","111 North Main St",,"Bristol","CT","06010",,"HARTFORD","-72.94651","41.673725","POINT (-72.94651 41.673725)"
"162196","Bristol Grocery LLC","89 Stafford Ave",,"Bristol","CT","06010","4605","HARTFORD","-72.903526","41.679497","POINT (-72.903526 41.679497)"
"217376","Brooklyn Deli Llc","257 Main St",,"Bristol","CT","06010","6300","HARTFORD","-72.942619","41.673485","POINT (-72.942619 41.673485)"
"186540","Cumberland Farms 4770","266 Pine St",,"Bristol","CT","06010","6934","HARTFORD","-72.912628","41.668678","POINT (-72.912628 41.668678)"
"163480","Cumberland Farms, Inc 4685","191 Central St",,"Bristol","CT","06010","6743","HARTFORD","-72.898247","41.673801","POINT (-72.898247 41.673801)"
"13476","CVS PHARMACY  1276","81 North St",,"Bristol","CT","06010","4152","HARTFORD","-72.946228","41.681381","POINT (-72.946228 41.681381)"
"131082","CVS PHARMACY  288","839 Farmington Ave # 6",,"Bristol","CT","06010","3922","HARTFORD","-72.915871","41.693047","POINT (-72.915871 41.693047)"
"19613","CVS Pharmacy 5703","60 Middle St",,"Bristol","CT","06010","5201","HARTFORD","-72.922615","41.667511","POINT (-72.922615 41.667511)"
"27093","Dollar General 14495","354 Divinity St",,"Bristol","CT","06010","6054","HARTFORD","-72.962135","41.670681","POINT (-72.962135 41.670681)"
"1718","Dollar General 22151","15 Memorial Blvd",,"Bristol","CT","06010","6563","HARTFORD","-72.942444","41.670452","POINT (-72.942444 41.670452)"
"50684","Dollar General 23810","106 North St",,"Bristol","CT","06010","4190","HARTFORD","-72.945511","41.680988","POINT (-72.945511 41.680988)"
"130778","Dollar Tree 1786","623 Farmington Ave","Ste 1","Bristol","CT","06010","3979","HARTFORD","-72.922562","41.690807","POINT (-72.922562 41.690807)"
"234314","E's Deli & Grocery 1","259 W Washington St",,"Bristol","CT","06010","5331","HARTFORD","-72.914307","41.677406","POINT (-72.914307 41.677406)"
"141112","Family Dollar Store 2270","59 N Main St",,"Bristol","CT","06010","8105","HARTFORD","-72.945671","41.67202","POINT (-72.945671 41.67202)"
"83757","Family Roots Produce Market Llc","370 Riverside Ave",,"Bristol","CT","06010","6320","HARTFORD","-72.930069","41.670841","POINT (-72.930069 41.670841)"
"179196","Farm Land Llc","180 Riverside Ave",,"Bristol","CT","06010","6318","HARTFORD","-72.936256","41.670391","POINT (-72.936256 41.670391)"
"75316","Fas Mart 301","105 West St",,"Bristol","CT","06010","6268","HARTFORD","-72.948959","41.670532","POINT (-72.948959 41.670532)"
"52811","Food Bag Citgo Quik Mart 503","396 Birch St",,"Bristol","CT","06010","7893","HARTFORD","-72.901314","41.657578","POINT (-72.901314 41.657578)"
"83070","Food Bag Citgo Quik Mart 543","54 Farmington Ave",,"Bristol","CT","06010","4213","HARTFORD","-72.940903","41.683262","POINT (-72.940903 41.683262)"
"168327","H&F Petroleum LLC","201 North St",,"Bristol","CT","06010","4154","HARTFORD","-72.943588","41.68148","POINT (-72.943588 41.68148)"
"113560","Jordan's Market","198 Burlington Ave",,"Bristol","CT","06010","3678","HARTFORD","-72.942696","41.688038","POINT (-72.942696 41.688038)"
"145135","Kwoks Enterprise LLC","57 Middle St",,"Bristol","CT","06010","5202","HARTFORD","-72.922508","41.667618","POINT (-72.922508 41.667618)"
"113212","Lucky Grocery LLC","228 Pine St",,"Bristol","CT","06010","6933","HARTFORD","-72.91375","41.668514","POINT (-72.91375 41.668514)"
"15067","Maria Auxiliadora Multiservice","170 Riverside Ave","Ste 4","Bristol","CT","06010","6398","HARTFORD","-72.937363","41.670216","POINT (-72.937363 41.670216)"
"178961","Middle East Food Market","342 Lake Ave",,"Bristol","CT","06010","7327","HARTFORD","-72.9235","41.656399","POINT (-72.9235 41.656399)"
"222121","Mi Tierra Multiservices Llc","178 Main St",,"Bristol","CT","06010","6308","HARTFORD","-72.942818","41.67186","POINT (-72.942818 41.67186)"
"228397","M & M Market And Deli","1277 Stafford Ave",,"Bristol","CT","06010","2869","HARTFORD","-72.912704","41.710697","POINT (-72.912704 41.710697)"
"125620","Mo's Food Store  Inc.","21 Center St",,"Bristol","CT","06010","4916","HARTFORD","-72.949486","41.675632","POINT (-72.949486 41.675632)"
"20336","My Storz LLC","510 Farmington Ave",,"Bristol","CT","06010","3904","HARTFORD","-72.92646","41.689762","POINT (-72.92646 41.689762)"
"123312","Neighbors Convenience & Food Mart","74 Farmington Ave",,"Bristol","CT","06010","4294","HARTFORD","-72.940323","41.683701","POINT (-72.940323 41.683701)"
"31378","Ocean State Job Lot 327","685 Farmington Ave",,"Bristol","CT","06010","3900","HARTFORD","-72.921265","41.691204","POINT (-72.921265 41.691204)"
"227619","Plaza Oaxaca Deli & Grocery","825 Farmington Ave",,"Bristol","CT","06010","3922","HARTFORD","-72.916374","41.69289","POINT (-72.916374 41.69289)"
"189896","Price Chopper Bristol 204","121 Farmington Ave",,"Bristol","CT","06010","4217","HARTFORD","-72.939156","41.68478","POINT (-72.939156 41.68478)"
"109733","Quick Stop Convenience Store","916 Stafford Ave",,"Bristol","CT","06010","3858","HARTFORD","-72.910652","41.701603","POINT (-72.910652 41.701603)"
"228170","Route 6 Mini Mart","912 Terryville Ave",,"Bristol","CT","06010","4039","HARTFORD","-72.982109","41.68095","POINT (-72.982109 41.68095)"
"201689","Sams Food Store 1019","140 Park St",,"Bristol","CT","06010","6033","HARTFORD","-72.954247","41.672386","POINT (-72.954247 41.672386)"
"46124","Shoprite of Bristol","1200 Farmington Ave",,"Bristol","CT","06010","4714","HARTFORD","-72.903549","41.697456","POINT (-72.903549 41.697456)"
"59297","SOUTHSIDE MEAT MARKET","145 West St",,"Bristol","CT","06010","6270","HARTFORD","-72.949448","41.671646","POINT (-72.949448 41.671646)"
"189414","STOP & SHOP 628","597 Farmington Ave",,"Bristol","CT","06010","3932","HARTFORD","-72.92318","41.690662","POINT (-72.92318 41.690662)"
"137011","STOP & SHOP 642","747 Pine St","Ste 1","Bristol","CT","06010","6959","HARTFORD","-72.8955","41.668922","POINT (-72.8955 41.668922)"
"1766","Violet Foodmart Llc","1462 Farmington Ave",,"Bristol","CT","06010","4763","HARTFORD","-72.89415","41.699444","POINT (-72.89415 41.699444)"
"97638","WALGREENS 10203","25 Main St",,"Bristol","CT","06010","6528","HARTFORD","-72.943298","41.668629","POINT (-72.943298 41.668629)"
"97635","WALGREENS 11825","525 Farmington Ave",,"Bristol","CT","06010","3931","HARTFORD","-72.925362","41.69017","POINT (-72.925362 41.69017)"
"190649","Walmart  2719","1400 Farmington Ave",,"Bristol","CT","06010","4701","HARTFORD","-72.896545","41.698872","POINT (-72.896545 41.698872)"
"111499","Dollar General 14487","115 Main St",,"Broad Brook","CT","06016","5801","HARTFORD","-72.545792","41.916096","POINT (-72.545792 41.916096)"
"16206","Kingsway Super Store","110 Main St",,"Broad Brook","CT","06016","9601","HARTFORD","-72.545898","41.916428","POINT (-72.545898 41.916428)"
"67807","BJ's Wholesale Club 214","106A Federal Rd",,"Brookfield","CT","06804","2515","FAIRFIELD","-73.409431","41.435673","POINT (-73.409431 41.435673)"
"31125","Brookfield Farmer's Market","100 Pocono Rd",,"Brookfield","CT","06804","3322","FAIRFIELD","-73.397652","41.465958","POINT (-73.397652 41.465958)"
"151818","Costco Wholesale 0304","200 Federal Rd",,"Brookfield","CT","06804","2514","FAIRFIELD","-73.404739","41.443501","POINT (-73.404739 41.443501)"
"15577","CVS PHARMACY 00696","14 Candlewood Lake Rd",,"Brookfield","CT","06804","2529","FAIRFIELD","-73.411774","41.434326","POINT (-73.411774 41.434326)"
"63940","GRADE A SHOPRITE BROOKFLD #392","143 Federal Rd",,"Brookfield","CT","06804","2530","FAIRFIELD","-73.407761","41.438023","POINT (-73.407761 41.438023)"
"590","Lucky u llc (mobil Gas Station)","83 Federal Rd",,"Brookfield","CT","06804","2553","FAIRFIELD","-73.409576","41.434578","POINT (-73.409576 41.434578)"
"149851","Rite Aid 10383","215 Federal Rd",,"Brookfield","CT","06804","2630","FAIRFIELD","-73.404808","41.443001","POINT (-73.404808 41.443001)"
"235374","The New Brookfield Market & Deli Llc N/A","277 Whisconier Rd",,"Brookfield","CT","06804","1821","FAIRFIELD","-73.40818","41.482651","POINT (-73.40818 41.482651)"
"233506","Brooklyn Market","107 Hartford Rd",,"Brooklyn","CT","06234","1711","WINDHAM","-71.95768","41.783871","POINT (-71.95768 41.783871)"
"34854","CVS PHARMACY  942","542 Providence Rd",,"Brooklyn","CT","06234","3413","WINDHAM","-71.902534","41.798973","POINT (-71.902534 41.798973)"
"104450","Dollar Tree 5419","564 Providence Rd",,"Brooklyn","CT","06234","3413","WINDHAM","-71.901077","41.799355","POINT (-71.901077 41.799355)"
"93733","Om Mahadev Llc","500 Providence Rd",,"Brooklyn","CT","06234","3413","WINDHAM","-71.907616","41.797707","POINT (-71.907616 41.797707)"
"124422","Walmart 5777","450 Providence Rd",,"Brooklyn","CT","06234","1823","WINDHAM","-71.912193","41.797176","POINT (-71.912193 41.797176)"
"163468","Cumberland Farms, Inc 4573","291 Spielman Hwy",,"Burlington","CT","06013","1703","HARTFORD","-72.970917","41.770561","POINT (-72.970917 41.770561)"
"165778","CVS Pharmacy 7916","292 Spielman Hwy","Ste 1","Burlington","CT","06013","1727","HARTFORD","-72.97123","41.770866","POINT (-72.97123 41.770866)"
"151391","Family Dollar Store 8198","11 E Main St",,"Canaan","CT","06018","2509","LITCHFIELD","-73.322502","42.023945","POINT (-73.322502 42.023945)"
"149854","Walgreens 17219","76 Main St",,"Canaan","CT","06018","2460","LITCHFIELD","-73.328964","42.026657","POINT (-73.328964 42.026657)"
"205568","BETTER VALU #7","4 N Canterbury Rd",,"Canterbury","CT","06331","1208","WINDHAM","-71.971008","41.698944","POINT (-71.971008 41.698944)"
"163895","Cumberland Farms, Inc 4747","2 Knollwood Dr","Ste 2","Canterbury","CT","06331","1461","WINDHAM","-71.995499","41.697666","POINT (-71.995499 41.697666)"
"149859","Walgreens 19836","200 Westminster Rd",,"Canterbury","CT","06331","1450","WINDHAM","-71.999214","41.697647","POINT (-71.999214 41.697647)"
"165676","ALDI 73105","101 Albany Tpke",,"Canton","CT","06019","2507","HARTFORD","-72.88401","41.82481","POINT (-72.88401 41.82481)"
"143093","Canton Mobil","306 Albany Tpke",,"Canton","CT","06019","2521","HARTFORD","-72.908043","41.83102","POINT (-72.908043 41.83102)"
"58482","CVS Pharmacy 2253","111 Albany Tpke",,"Canton","CT","06019","2507","HARTFORD","-72.885033","41.824299","POINT (-72.885033 41.824299)"
"26354","Ocean State Job Lot 302","133 River Rd",,"Canton","CT","06019","3203","HARTFORD","-72.925972","41.829845","POINT (-72.925972 41.829845)"
"154057","Shoprite Of Canton 367","110 Albany Turnpike",,"Canton","CT","06019",,"HARTFORD","-72.884773","41.824165","POINT (-72.884773 41.824165)"
"236604","Valley Indian Market","50 Albany Tpke",,"Canton","CT","06019","2516","HARTFORD","-72.876152","41.82235","POINT (-72.876152 41.82235)"
"176332","Centerbrook Shell 132","23 Main St",,"Centerbrook","CT","06409","1072","MIDDLESEX","-72.409897","41.352257","POINT (-72.409897 41.352257)"
"163486","Cumberland Farms, Inc 4720","82 Main St",,"Centerbrook","CT","06409","1001","MIDDLESEX","-72.416412","41.351524","POINT (-72.416412 41.351524)"
"219062","Village Food Mart","65 East Main Street",,"Central Village","CT","06332",,"WINDHAM","-71.906548","41.72258","POINT (-71.906548 41.72258)"
"11587","Tk4 Chaplin Gas & Market 451","187 Willimantic Rd",,"Chaplin","CT","06235","2516","WINDHAM","-72.143784","41.758633","POINT (-72.143784 41.758633)"
"68541","Big Y Everybody's Market 40","1021 S Main St",,"Cheshire","CT","06410","3437","NEW HAVEN","-72.90609","41.477737","POINT (-72.90609 41.477737)"
"181916","Cheshire Deli & Fresh Juice Llc","197 Main St",,"Cheshire","CT","06410","2408","NEW HAVEN","-72.90406","41.50404","POINT (-72.90406 41.50404)"
"838","Cumberland Farms 4775","626 Maple Ave",,"Cheshire","CT","06410","2151","NEW HAVEN","-72.898857","41.514454","POINT (-72.898857 41.514454)"
"105224","CVS PHARMACY 1148","905 S Main St",,"Cheshire","CT","06410","3418","NEW HAVEN","-72.905716","41.48064","POINT (-72.905716 41.48064)"
"182136","CVS PHARMACY  2502","581 Highland Ave",,"Cheshire","CT","06410","2205","NEW HAVEN","-72.899269","41.513588","POINT (-72.899269 41.513588)"
"141242","Dollar Tree 4198","882 S Main St",,"Cheshire","CT","06410","3417","NEW HAVEN","-72.905647","41.480999","POINT (-72.905647 41.480999)"
"170998","One Stop Convenience Store","914 S Main St",,"Cheshire","CT","06410","3419","NEW HAVEN","-72.905647","41.480831","POINT (-72.905647 41.480831)"
"149865","Rite Aid 10361","922 S Main St",,"Cheshire","CT","06410","3419","NEW HAVEN","-72.905777","41.479504","POINT (-72.905777 41.479504)"
"82190","RITE AID 1087","180 Main St",,"Cheshire","CT","06410","2406","NEW HAVEN","-72.903168","41.502792","POINT (-72.903168 41.502792)"
"182540","STOP & SHOP  695","275 Highland Ave",,"Cheshire","CT","06410","2522","NEW HAVEN","-72.900665","41.504738","POINT (-72.900665 41.504738)"
"240058","Big Y World Class Market 110","23 Killingworth Tpke",,"Clinton","CT","06413","1388","MIDDLESEX","-72.530815","41.293041","POINT (-72.530815 41.293041)"
"35600","Clinton Store 121","31 W Main St",,"Clinton","CT","06413","2076","MIDDLESEX","-72.530006","41.279095","POINT (-72.530006 41.279095)"
"105627","CVS PHARMACY  1284","14 E Main St",,"Clinton","CT","06413","2019","MIDDLESEX","-72.527634","41.271885","POINT (-72.527634 41.271885)"
"205828","Kamile's Latino Mini Market","242 E Main St",,"Clinton","CT","06413","2230","MIDDLESEX","-72.503029","41.271221","POINT (-72.503029 41.271221)"
"26361","Ocean State Job Lot 306","90 W Main St",,"Clinton","CT","06413","1625","MIDDLESEX","-72.537048","41.278172","POINT (-72.537048 41.278172)"
"133595","Shoprite Of Clinton 318","266 E Main St",,"Clinton","CT","06413","2254","MIDDLESEX","-72.499817","41.270992","POINT (-72.499817 41.270992)"
"60428","STOP & SHOP 652","215 E Main St","Ste 1","Clinton","CT","06413","2200","MIDDLESEX","-72.506935","41.272816","POINT (-72.506935 41.272816)"
"132048","Walgreens 07814","218 E Main St",,"Clinton","CT","06413","2230","MIDDLESEX","-72.506752","41.272636","POINT (-72.506752 41.272636)"
"168980","Amg Retail I Llc 504","327 S Main St",,"Colchester","CT","06415","1427","NEW LONDON","-72.327087","41.568348","POINT (-72.327087 41.568348)"
"146997","CVS Pharmacy 5848","119 S Main St","Ste 1","Colchester","CT","06415","1456","NEW LONDON","-72.331612","41.572407","POINT (-72.331612 41.572407)"
"90241","Dollar General 14871","225 Old Hartford Rd",,"Colchester","CT","06415","2716","NEW LONDON","-72.346367","41.580074","POINT (-72.346367 41.580074)"
"79209","Gibbs Oil 3932","299 S Main St",,"Colchester","CT","06415","1441","NEW LONDON","-72.327766","41.569042","POINT (-72.327766 41.569042)"
"66358","Gulf Mart","738 Middletown Rd",,"Colchester","CT","06415","2338","NEW LONDON","-72.413818","41.545765","POINT (-72.413818 41.545765)"
"114","Henny Penny - Colchester 45","723 Middletown Rd",,"Colchester","CT","06415","2236","NEW LONDON","-72.413559","41.54533","POINT (-72.413559 41.54533)"
"59279","NOEL'S SUPERMARKET","15 Broadway St",,"Colchester","CT","06415","1001","NEW LONDON","-72.333298","41.57579","POINT (-72.333298 41.57579)"
"100807","Rishaan, Llc","493 Westchester Rd",,"Colchester","CT","06415","2434","NEW LONDON","-72.41288","41.54689","POINT (-72.41288 41.54689)"
"72290","STOP & SHOP 608","99 Linwood Ave","Ste 1","Colchester","CT","06415","1159","NEW LONDON","-72.335564","41.572277","POINT (-72.335564 41.572277)"
"149866","Walgreens 17216","27 Broadway St",,"Colchester","CT","06415","1001","NEW LONDON","-72.332802","41.57618","POINT (-72.332802 41.57618)"
"155650","7 Eleven 32522","52 Route 66",,"Columbia","CT","06237","1136","TOLLAND","-72.284615","41.713535","POINT (-72.284615 41.713535)"
"164547","CVS Pharmacy 2475","122 E Putnam Rd",,"Cos Cob","CT","06807","2720","FAIRFIELD","-73.600777","41.03738","POINT (-73.600777 41.03738)"
"2312","7-Eleven 32520J","2711 Boston Tpke",,"Coventry","CT","06238","1005","TOLLAND","-72.410866","41.796093","POINT (-72.410866 41.796093)"
"101311","AMG Retail I LLC 563","1381 Main St",,"Coventry","CT","06238","3119","TOLLAND","-72.304855","41.769852","POINT (-72.304855 41.769852)"
"157777","Coventry Food Mart","8 Daly Rd",,"Coventry","CT","06238","2018","TOLLAND","-72.334328","41.784492","POINT (-72.334328 41.784492)"
"232137","Cumberland Farms 4771","2224 Boston Tpke",,"Coventry","CT","06238","1110","TOLLAND","-72.392639","41.798214","POINT (-72.392639 41.798214)"
"164542","CVS Pharmacy  2220","3514 Main St",,"Coventry","CT","06238","1551","TOLLAND","-72.370567","41.797497","POINT (-72.370567 41.797497)"
"237175","Dollar General 21414","1600 Boston Tpke",,"Coventry","CT","06238","1205","TOLLAND","-72.369347","41.798779","POINT (-72.369347 41.798779)"
"42748","Highland Park Market Of Coventry, Inc.","1721 Boston Tpke",,"Coventry","CT","06238","1105","TOLLAND","-72.374077","41.797352","POINT (-72.374077 41.797352)"
"243804","Save N Go","1657 Boston Tpke",,"Coventry","CT","06238","1105","TOLLAND","-72.372726","41.797924","POINT (-72.372726 41.797924)"
"151409","Walgreens 11919","1630 Boston Tpke",,"Coventry","CT","06238","1205","TOLLAND","-72.370888","41.79837","POINT (-72.370888 41.79837)"
"124550","164 Quick Stop","164 West St",,"Cromwell","CT","06416","2425","MIDDLESEX","-72.671501","41.605492","POINT (-72.671501 41.605492)"
"143028","Asia Grocers 1","540 Main St",,"Cromwell","CT","06416","1407","MIDDLESEX","-72.653717","41.61779","POINT (-72.653717 41.61779)"
"60423","Bimbo Bakeries 8808","207 Shunpike Rd",,"Cromwell","CT","06416","1121","MIDDLESEX","-72.676697","41.627743","POINT (-72.676697 41.627743)"
"163487","Cumberland Farms, Inc 4721","38 Berlin Rd",,"Cromwell","CT","06416","1701","MIDDLESEX","-72.684174","41.602383","POINT (-72.684174 41.602383)"
"128601","CVS Pharmacy 3835","72 Berlin Rd",,"Cromwell","CT","06416","2602","MIDDLESEX","-72.692009","41.601849","POINT (-72.692009 41.601849)"
"219828","Dollar General 19813","539 Main St",,"Cromwell","CT","06416","1418","MIDDLESEX","-72.653755","41.617649","POINT (-72.653755 41.617649)"
"89245","DOLLAR TREE 2012","51 Shunpike Rd","Ste. 35","Cromwell","CT","06416",,"MIDDLESEX","-72.678551","41.606113","POINT (-72.678551 41.606113)"
"209651","Food Bag Citgo Quik Mart 534","529 Main St",,"Cromwell","CT","06416","1418","MIDDLESEX","-72.653519","41.616833","POINT (-72.653519 41.616833)"
"219566","Global Montello Group Cromwell 3919","176 West St",,"Cromwell","CT","06416","1880","MIDDLESEX","-72.676773","41.603371","POINT (-72.676773 41.603371)"
"68481","Krausers Food Stores","117 Berlin Rd",,"Cromwell","CT","06416","1022","MIDDLESEX","-72.703178","41.603733","POINT (-72.703178 41.603733)"
"110528","PriceRite of Cromwell 307","136 Berlin Rd",,"Cromwell","CT","06416","2627","MIDDLESEX","-72.707909","41.605396","POINT (-72.707909 41.605396)"
"70492","Shoprite Of Cromwell 331","45 Shunpike Rd",,"Cromwell","CT","06416","2498","MIDDLESEX","-72.676025","41.603634","POINT (-72.676025 41.603634)"
"240762","Skay Line Llc","538 Main St",,"Cromwell","CT","06416","1407","MIDDLESEX","-72.65332","41.617767","POINT (-72.65332 41.617767)"
"60409","Stop & Shop 606","195 West St",,"Cromwell","CT","06416","1881","MIDDLESEX","-72.676552","41.603405","POINT (-72.676552 41.603405)"
"129324","Walgreens 09818","4 Hammerhead Pl",,"Cromwell","CT","06416","1805","MIDDLESEX","-72.681351","41.601971","POINT (-72.681351 41.601971)"
"180912","Walmart 2299","161 Berlin Rd",,"Cromwell","CT","06416","1021","MIDDLESEX","-72.711845","41.606915","POINT (-72.711845 41.606915)"
"162621","7 Eleven (16638A) 16638A","219 Clapboard Ridge Rd",,"Danbury","CT","06811","3637","FAIRFIELD","-73.497902","41.43716","POINT (-73.497902 41.43716)"
"35798","7 ELEVEN 23960a","29 Mill Plain Rd",,"Danbury","CT","06811","5137","FAIRFIELD","-73.497147","41.388859","POINT (-73.497147 41.388859)"
"54540","7-Eleven 41546H","106 Federal Rd",,"Danbury","CT","06810","4020","FAIRFIELD","-73.420311","41.419582","POINT (-73.420311 41.419582)"
"247686","7-Eleven, Inc 41546H","106 Federal Rd",,"Danbury","CT","06810","4020","FAIRFIELD","-73.420311","41.419582","POINT (-73.420311 41.419582)"
"50496","Aldi 55","63 Newtown Rd",,"Danbury","CT","06810","6223","FAIRFIELD","-73.41967","41.405643","POINT (-73.41967 41.405643)"
"209314","Bombay Sweets & Spices","5 Padanaram Rd",,"Danbury","CT","06811",,"FAIRFIELD","-73.457153","41.412563","POINT (-73.457153 41.412563)"
"164549","CVS Pharmacy  2545","35 Padanaram Rd",,"Danbury","CT","06811","3701","FAIRFIELD","-73.463387","41.417732","POINT (-73.463387 41.417732)"
"15569","CVS PHARMACY  629","146 South St",,"Danbury","CT","06810","7951","FAIRFIELD","-73.444679","41.386017","POINT (-73.444679 41.386017)"
"165777","CVS Pharmacy  7093","47 Lake Avenue Ext",,"Danbury","CT","06811","5259","FAIRFIELD","-73.48851","41.386803","POINT (-73.48851 41.386803)"
"46623","CVS PHARMACY  798","299 White St",,"Danbury","CT","06810","6934","FAIRFIELD","-73.433029","41.399441","POINT (-73.433029 41.399441)"
"211328","Danbury Deli & Market LLC","216 White St","Ste 3","Danbury","CT","06810","6877","FAIRFIELD","-73.44072","41.399471","POINT (-73.44072 41.399471)"
"232005","Danbury Farmers Market","120 White St",,"Danbury","CT","06810","6642","FAIRFIELD","-73.450233","41.398209","POINT (-73.450233 41.398209)"
"227495","Danbury Food And Gas Inc","276 White St",,"Danbury","CT","06810","6932","FAIRFIELD","-73.43367","41.399364","POINT (-73.43367 41.399364)"
"68933","DANBURY FOOD CORP.","45 North St",,"Danbury","CT","06810","5617","FAIRFIELD","-73.456482","41.405605","POINT (-73.456482 41.405605)"
"210821","Danbury Noble LLC","58 Padanaram Rd",,"Danbury","CT","06811","3731","FAIRFIELD","-73.466644","41.419365","POINT (-73.466644 41.419365)"
"132412","Dollar Tree 3840","1 Padanaram Rd","Ste 1","Danbury","CT","06811","4820","FAIRFIELD","-73.456985","41.412415","POINT (-73.456985 41.412415)"
"44662","Dollar Tree 5052","61 Newtown Rd","Ste 1","Danbury","CT","06810","6253","FAIRFIELD","-73.419701","41.405605","POINT (-73.419701 41.405605)"
"141125","Family Dollar Store 6535","199 Main St",,"Danbury","CT","06810","6614","FAIRFIELD","-73.451729","41.394096","POINT (-73.451729 41.394096)"
"48291","Family Dr. Llc","79 Lake Ave",,"Danbury","CT","06810","6340","FAIRFIELD","-73.470535","41.388657","POINT (-73.470535 41.388657)"
"217197","Fernandes Food Store","99 Town Hill Ave",,"Danbury","CT","06810","6747","FAIRFIELD","-73.44603","41.39418","POINT (-73.44603 41.39418)"
"50137","Food Bag Citgo Quik Mart 529","90 West St",,"Danbury","CT","06810","6532","FAIRFIELD","-73.459068","41.392139","POINT (-73.459068 41.392139)"
"227956","Grade A Market Of Danbury, Llc. 388","1 Padanaram Rd",,"Danbury","CT","06811","4815","FAIRFIELD","-73.456985","41.412415","POINT (-73.456985 41.412415)"
"48880","Henry Street Deli And Market","18 Henry St",,"Danbury","CT","06810","5456","FAIRFIELD","-73.466385","41.399395","POINT (-73.466385 41.399395)"
"152532","Indian Food & Spice","39A Padanaram Rd",,"Danbury","CT","06811","3701","FAIRFIELD","-73.464455","41.41827","POINT (-73.464455 41.41827)"
"218967","Jimmies Market 1","38 Germantown Rd",,"Danbury","CT","06810","5037","FAIRFIELD","-73.435905","41.411934","POINT (-73.435905 41.411934)"
"224073","Kk Entrepreneur Group Llc","10 Hayestown Ave",,"Danbury","CT","06811","4803","FAIRFIELD","-73.455078","41.412251","POINT (-73.455078 41.412251)"
"23332","La Mexicana","137 White St",,"Danbury","CT","06810","6842","FAIRFIELD","-73.448624","41.398956","POINT (-73.448624 41.398956)"
"225283","Manuel Murillo Grocery & Vanidades","1F Franklin St",,"Danbury","CT","06810","5801","FAIRFIELD","-73.458191","41.399509","POINT (-73.458191 41.399509)"
"247687","Meninos Market","101 White St",,"Danbury","CT","06810","6612","FAIRFIELD","-73.450874","41.397991","POINT (-73.450874 41.397991)"
"239458","Mercado Da Carne & Supermarket","133 South St",,"Danbury","CT","06810","3057","FAIRFIELD","-73.44352","41.386711","POINT (-73.44352 41.386711)"
"244122","M&f Express Mart Inc","64 Newtown Rd",,"Danbury","CT","06810","6237","FAIRFIELD","-73.420036","41.405804","POINT (-73.420036 41.405804)"
"59216","Ocean State Job Lot 335","17 Backus Avenue",,"Danbury","CT","06810",,"FAIRFIELD","-73.486252","41.375542","POINT (-73.486252 41.375542)"
"46686","One Dollar Zone 14","67 Newtown Rd",,"Danbury","CT","06810","6272","FAIRFIELD","-73.418098","41.405872","POINT (-73.418098 41.405872)"
"68432","Pague Menos Supermarket 2","213 White St",,"Danbury","CT","06810","6875","FAIRFIELD","-73.441322","41.399517","POINT (-73.441322 41.399517)"
"157832","Pague Menos Supermarket LLC","107 Triangle St","Ste 1","Danbury","CT","06810","6900","FAIRFIELD","-73.435814","41.394001","POINT (-73.435814 41.394001)"
"52282","Papis Variety Store LLC","68 Lake Ave",,"Danbury","CT","06810","6346","FAIRFIELD","-73.469643","41.388615","POINT (-73.469643 41.388615)"
"206647","POLLA'S SUPERMARKET","399 Main St",,"Danbury","CT","06810","4710","FAIRFIELD","-73.45903","41.402283","POINT (-73.45903 41.402283)"
"57457","PriceRite of Danbury 345","29 Main St",,"Danbury","CT","06810","8011","FAIRFIELD","-73.445648","41.387737","POINT (-73.445648 41.387737)"
"54567","Reina De La Nube Llc","41 South St",,"Danbury","CT","06810","8130","FAIRFIELD","-73.434624","41.38892","POINT (-73.434624 41.38892)"
"236374","Sajoma Deli Market","203 Main St",,"Danbury","CT","06810","6614","FAIRFIELD","-73.451897","41.394245","POINT (-73.451897 41.394245)"
"152260","Sinclair Of Danbury 1","282 White St",,"Danbury","CT","06810","6933","FAIRFIELD","-73.432816","41.399082","POINT (-73.432816 41.399082)"
"235943","State Petroleum","52A Pembroke Rd",,"Danbury","CT","06811","2975","FAIRFIELD","-73.473083","41.442368","POINT (-73.473083 41.442368)"
"206851","STEW LEONARD'S DANBURY LLC 2","99 Federal Rd",,"Danbury","CT","06811","4001","FAIRFIELD","-73.417587","41.427853","POINT (-73.417587 41.427853)"
"71085","Stop & Shop 644","44 Lake Avenue Ext",,"Danbury","CT","06811","5244","FAIRFIELD","-73.486359","41.385464","POINT (-73.486359 41.385464)"
"59580","STOP & SHOP 659","72 Newtown Rd","Ste 1","Danbury","CT","06810","6254","FAIRFIELD","-73.418015","41.40646","POINT (-73.418015 41.40646)"
"10755","Torres Grocery","28 Wildman St",,"Danbury","CT","06810","6836","FAIRFIELD","-73.439751","41.396858","POINT (-73.439751 41.396858)"
"181365","TRADER JOE'S 525","113 Mill Plain Rd",,"Danbury","CT","06811","5277","FAIRFIELD","-73.520325","41.39222","POINT (-73.520325 41.39222)"
"144189","Village Mini Market","2 Division St",,"Danbury","CT","06810","7711","FAIRFIELD","-73.457458","41.386681","POINT (-73.457458 41.386681)"
"132045","Walgreens 06968","101 Federal Rd",,"Danbury","CT","06811","4019","FAIRFIELD","-73.418968","41.426369","POINT (-73.418968 41.426369)"
"111537","Walgreens 3523","75 Main St",,"Danbury","CT","06810","7802","FAIRFIELD","-73.448067","41.390759","POINT (-73.448067 41.390759)"
"27299","Walmart 3543","67 Newtown Rd","Ste 1","Danbury","CT","06810","6238","FAIRFIELD","-73.418129","41.406254","POINT (-73.418129 41.406254)"
"174490","Whole Foods Market 10455","5C Sugar Hollow Rd",,"Danbury","CT","06810","7401","FAIRFIELD","-73.474167","41.377079","POINT (-73.474167 41.377079)"
"51643","Zaytuna Llc","397 Main St",,"Danbury","CT","06810","5525","FAIRFIELD","-73.458969","41.402073","POINT (-73.458969 41.402073)"
"15012","ATLANTIC MARKET","135 MAIN ST",,"DANBURY","CT","06810",,"FAIRFIELD","-73.449821","41.392334","POINT (-73.449821 41.392334)"
"149852","Rite Aid 10384","113/115 Mill Plain Rd",,"DANBURY","CT","06811",,"FAIRFIELD","-73.52153","41.3932","POINT (-73.52153 41.3932)"
"83279","RITE AID 1404","30 GERMANTOWN ROAD",,"DANBURY","CT","06810",,"FAIRFIELD","-73.435684","41.410736","POINT (-73.435684 41.410736)"
"57431","Big Y Supermarkets 31","70 Wauregan Rd",,"Danielson","CT","06239","3712","WINDHAM","-71.884895","41.793129","POINT (-71.884895 41.793129)"
"133813","Cumberland Farms 4632","567 Wauregan Rd",,"Danielson","CT","06239","4237","WINDHAM","-71.900101","41.765404","POINT (-71.900101 41.765404)"
"157153","NK Asian Market","8 Dyer St",,"Danielson","CT","06239","3503","WINDHAM","-71.884735","41.800205","POINT (-71.884735 41.800205)"
"26360","Ocean State Job Lot 305","566 Providence Rd",,"Danielson","CT","06239","3833","WINDHAM","-71.842354","41.789665","POINT (-71.842354 41.789665)"
"60372","Sunny Side","609 N Main St",,"Danielson","CT","06239","2108","WINDHAM","-71.877068","41.81654","POINT (-71.877068 41.81654)"
"46650","CVS PHARMACY  918","964 Post Rd",,"Darien","CT","06820","4508","FAIRFIELD","-73.471123","41.076248","POINT (-73.471123 41.076248)"
"60199","PALMER'S SUPERMARKET","264 Heights Rd",,"Darien","CT","06820","9994","FAIRFIELD","-73.496193","41.069778","POINT (-73.496193 41.069778)"
"159203","Stop & Shop 2610","25 Old Kings Hwy S",,"Darien","CT","06820","4518","FAIRFIELD","-73.469376","41.075466","POINT (-73.469376 41.075466)"
"181361","TRADER JOE'S 522","436 Post Rd",,"Darien","CT","06820","3605","FAIRFIELD","-73.462021","41.085079","POINT (-73.462021 41.085079)"
"224962","Walgreens 21268","76 Heights Rd",,"Darien","CT","06820","4128","FAIRFIELD","-73.492828","41.069206","POINT (-73.492828 41.069206)"
"155676","Whole Food Market 10300","150 Ledge Rd",,"Darien","CT","06820",,"FAIRFIELD","-73.475922","41.072746","POINT (-73.475922 41.072746)"
"159039","Aldi 49","728 Hartford Pike",,"Dayville","CT","06241","1711","WINDHAM","-71.873032","41.839279","POINT (-71.873032 41.839279)"
"231907","Dayville Quick Mart","599 Hartford Pike",,"Dayville","CT","06241","1778","WINDHAM","-71.881302","41.843723","POINT (-71.881302 41.843723)"
"88450","Dollar General 14524","1075 N Main St",,"Dayville","CT","06241","2124","WINDHAM","-71.87632","41.839581","POINT (-71.87632 41.839581)"
"164883","Dollar Tree 4303","730 Hartford Pike","Unit G","Dayville","CT","06241","1711","WINDHAM","-71.875435","41.840687","POINT (-71.875435 41.840687)"
"215632","Smokers Discount World Plus AB123","1094 N Main St",,"Dayville","CT","06241","2157","WINDHAM","-71.876495","41.840733","POINT (-71.876495 41.840733)"
"113564","Target 2432","2100 Killingly Cmns",,"Dayville","CT","06241","2188","WINDHAM","-71.884483","41.840385","POINT (-71.884483 41.840385)"
"151410","Walgreens 12058","1093 N Main St",,"Dayville","CT","06241","2124","WINDHAM","-71.87661","41.840748","POINT (-71.87661 41.840748)"
"39254","Xtra Mart Dayville 10067","439 Hartford Pk",,"Dayville","CT","06241","2116","WINDHAM","-71.88826","41.846134","POINT (-71.88826 41.846134)"
"144589","ADAM'S SUPER FOOD STORE 586","193 Main St",,"Deep River","CT","06417","2021","MIDDLESEX","-72.43525700000001","41.384335","POINT (-72.43525700000001 41.384335)"
"163467","Cumberland Farms, Inc 4565","177 Main St",,"Deep River","CT","06417","2021","MIDDLESEX","-72.435478","41.38517","POINT (-72.435478 41.38517)"
"129329","Walgreens 10261","180 Main St",,"Deep River","CT","06417","2039","MIDDLESEX","-72.435562","41.384949","POINT (-72.435562 41.384949)"
"210526","Aldi 54","74 Pershing Dr",,"Derby","CT","06418","1433","NEW HAVEN","-73.084389","41.331944","POINT (-73.084389 41.331944)"
"10785","Altimaris Little Italy","184 Elizabeth St",,"Derby","CT","06418","1814","NEW HAVEN","-73.089806","41.324043","POINT (-73.089806 41.324043)"
"165723","Big Lots 1783","600 New Haven Ave",,"Derby","CT","06418",,"NEW HAVEN","-73.054214","41.311798","POINT (-73.054214 41.311798)"
"3072","Big Y World Class Market 117","656 New Haven Ave",,"Derby","CT","06418","2528","NEW HAVEN","-73.051727","41.311295","POINT (-73.051727 41.311295)"
"126566","BJ's Wholesale Club 318","20 Division St",,"Derby","CT","06418","1430","NEW HAVEN","-73.080498","41.331184","POINT (-73.080498 41.331184)"
"60037","Checkers Food Store","160 Elizabeth St",,"Derby","CT","06418","1814","NEW HAVEN","-73.089645","41.323154","POINT (-73.089645 41.323154)"
"99445","CVS PHARMACY 1044","656 New Haven Ave","Ste 6","Derby","CT","06418","2528","NEW HAVEN","-73.052025","41.311314","POINT (-73.052025 41.311314)"
"207972","Derby Deli Mini Market","51 Anson St",,"Derby","CT","06418","1726","NEW HAVEN","-73.09153","41.32349","POINT (-73.09153 41.32349)"
"132419","Dollar Tree 3850","492 New Haven Ave",,"Derby","CT","06418","2506","NEW HAVEN","-73.059258","41.311741","POINT (-73.059258 41.311741)"
"57128","Family Dollar 12362","26 Pershing Dr",,"Derby","CT","06418","1433","NEW HAVEN","-73.085106","41.329617","POINT (-73.085106 41.329617)"
"183799","GRADE A MARKET - DERBY LLC","49 Pershing Dr",,"Derby","CT","06418","1406","NEW HAVEN","-73.086357","41.330563","POINT (-73.086357 41.330563)"
"50305","Lasowiak Deli Ii","63 Derby Avenue",,"Derby","CT","06418",,"NEW HAVEN","-73.080864","41.317833","POINT (-73.080864 41.317833)"
"26290","Sarita Deli And Grocery","78 Hawkins St",,"Derby","CT","06418","1531","NEW HAVEN","-73.092026","41.326023","POINT (-73.092026 41.326023)"
"241029","This & That Market And Thrift Llc","196 Elizabeth St",,"Derby","CT","06418","1868","NEW HAVEN","-73.090034","41.324001","POINT (-73.090034 41.324001)"
"93444","UNITED CIGAR","41 Elizabeth St",,"Derby","CT","06418","1801","NEW HAVEN","-73.089172","41.320366","POINT (-73.089172 41.320366)"
"140542","Vahoraone Llc","360 Seymour Ave",,"Derby","CT","06418","1323","NEW HAVEN","-73.090164","41.33773","POINT (-73.090164 41.33773)"
"58100","YOLANDA'SPIZZA DELI & BAKERY","17 Hawthorne Ave",,"Derby","CT","06418","1101","NEW HAVEN","-73.092712","41.324223","POINT (-73.092712 41.324223)"
"200291","Durham Market","238 Main St",,"Durham","CT","06422","1611","MIDDLESEX","-72.681656","41.478786","POINT (-72.681656 41.478786)"
"130995","Fas Mart 313","384 Main St",,"Durham","CT","06422","1306","MIDDLESEX","-72.68174","41.486755","POINT (-72.68174 41.486755)"
"219870","Lino's Market Inc","472 Main St",,"Durham","CT","06422","1321","MIDDLESEX","-72.680656","41.491421","POINT (-72.680656 41.491421)"
"20685","Quick Stop Country Market","1041 New Haven Rd",,"Durham","CT","06422","2413","MIDDLESEX","-72.73278","41.428665","POINT (-72.73278 41.428665)"
"113577","S And F Grocers LLC","24 Main St",,"Durham","CT","06422","2128","MIDDLESEX","-72.679291","41.46711","POINT (-72.679291 41.46711)"
"102439","Corner Market","4B General Lyon Rd",,"Eastford","CT","06242",,"WINDHAM","-72.089691","41.869789","POINT (-72.089691 41.869789)"
"1553","Dollar General 21141","230 Eastford Rd",,"Eastford","CT","06242","9756","WINDHAM","-72.078522","41.906685","POINT (-72.078522 41.906685)"
"237961","CUMBERLAND FARMS 4774","62 Rainbow Rd",,"East Granby","CT","06026","9764","HARTFORD","-72.718338","41.937778","POINT (-72.718338 41.937778)"
"245066","Pride EG","122 Rainbow Rd",,"East Granby","CT","06026","9793","HARTFORD","-72.711761","41.931049","POINT (-72.711761 41.931049)"
"124935","Amg Retail I Llc 513","32 E High St",,"East Hampton","CT","06424","1002","MIDDLESEX","-72.50161","41.584007","POINT (-72.50161 41.584007)"
"130775","CVS Pharmacy 4149","54 E High St",,"East Hampton","CT","06424","1052","MIDDLESEX","-72.497108","41.584888","POINT (-72.497108 41.584888)"
"186046","Dollar General 18915","197 E High St",,"East Hampton","CT","06424","2010","MIDDLESEX","-72.487625","41.600681","POINT (-72.487625 41.600681)"
"53756","Food Bag Citgo Quik Mart 506","1 Colchester Ave",,"East Hampton","CT","06424","1206","MIDDLESEX","-72.497467","41.5672","POINT (-72.497467 41.5672)"
"159205","Stop & Shop 2611","11 E High St","Ste 1","East Hampton","CT","06424","1022","MIDDLESEX","-72.504211","41.583118","POINT (-72.504211 41.583118)"
"67816","Walgreens 17224","25 E High St","Ste 8","East Hampton","CT","06424","1079","MIDDLESEX","-72.502602","41.58374","POINT (-72.502602 41.58374)"
"68836","7-Eleven 15033C","393 Burnside Ave",,"East Hartford","CT","06108","2449","HARTFORD","-72.623787","41.777988","POINT (-72.623787 41.777988)"
"74104","ACCRA MARKET II","168 Burnside Ave",,"East Hartford","CT","06108","2365","HARTFORD","-72.632767","41.775135","POINT (-72.632767 41.775135)"
"45794","Adam Mini Mart Inc","483 Silver Ln",,"East Hartford","CT","06118","1104","HARTFORD","-72.623604","41.762749","POINT (-72.623604 41.762749)"
"108752","ALDI 47","801 Silver Ln",,"East Hartford","CT","06118","1229","HARTFORD","-72.608688","41.764526","POINT (-72.608688 41.764526)"
"40773","B/A Food Store","126 Burnside Ave",,"East Hartford","CT","06108","3420","HARTFORD","-72.634209","41.774937","POINT (-72.634209 41.774937)"
"245475","Big Lots 1603","940 Silver Ln","Ste 3","East Hartford","CT","06118","1235","HARTFORD","-72.6017","41.765606","POINT (-72.6017 41.765606)"
"721","Black Market & Deli","35 Burnside Ave",,"East Hartford","CT","06108","3452","HARTFORD","-72.638428","41.773972","POINT (-72.638428 41.773972)"
"67304","Burnside Fish Market","281 Burnside Ave",,"East Hartford","CT","06108","2314","HARTFORD","-72.62693","41.775833","POINT (-72.62693 41.775833)"
"41900","Burnside Smoke Shop And Convenience","487 Burnside Ave",,"East Hartford","CT","06108","2407","HARTFORD","-72.618423","41.778069","POINT (-72.618423 41.778069)"
"79933","Citgo","451 School St",,"East Hartford","CT","06108","1138","HARTFORD","-72.618446","41.79361","POINT (-72.618446 41.79361)"
"43685","Corner Mart","241 Silver Ln",,"East Hartford","CT","06118","1030","HARTFORD","-72.634048","41.761539","POINT (-72.634048 41.761539)"
"197976","C-TOWN","442 Main St",,"East Hartford","CT","06118","1401","HARTFORD","-72.640808","41.753159","POINT (-72.640808 41.753159)"
"8386","CVS PHARMACY  1089","20 Burnside Ave",,"East Hartford","CT","06108","3403","HARTFORD","-72.639435","41.774277","POINT (-72.639435 41.774277)"
"99453","CVS PHARMACY  1101","16 Main St",,"East Hartford","CT","06118","3208","HARTFORD","-72.61705","41.728302","POINT (-72.61705 41.728302)"
"53074","CVS Pharmacy 85","972 Silver Ln",,"East Hartford","CT","06118","1248","HARTFORD","-72.600616","41.765732","POINT (-72.600616 41.765732)"
"187249","Dnd Foodmart","298 Main St",,"East Hartford","CT","06118","1824","HARTFORD","-72.632706","41.742634","POINT (-72.632706 41.742634)"
"210809","Dollar General 13808","1380 Main St",,"East Hartford","CT","06108","1613","HARTFORD","-72.638237","41.776844","POINT (-72.638237 41.776844)"
"215168","Dollar General 18014","735 Silver Ln",,"East Hartford","CT","06118","1231","HARTFORD","-72.612228","41.764046","POINT (-72.612228 41.764046)"
"126129","Dollar General 22198","1120 Burnside Avenue",,"East Hartford","CT","06108",,"HARTFORD","-72.590065","41.783745","POINT (-72.590065 41.783745)"
"6379","Dollar Smart 2","106 Burnside Ave",,"East Hartford","CT","06108","3418","HARTFORD","-72.634956","41.774887","POINT (-72.634956 41.774887)"
"41209","Dollar Tree 1972","10 School St",,"East Hartford","CT","06108","2637","HARTFORD","-72.610954","41.779816","POINT (-72.610954 41.779816)"
"185714","Easispice Supermarket","1150 Burnside Ave",,"East Hartford","CT","06108","1508","HARTFORD","-72.58934","41.784409","POINT (-72.58934 41.784409)"
"212909","Express Mini Mart","114 Main St",,"East Hartford","CT","06118","3211","HARTFORD","-72.624435","41.732559","POINT (-72.624435 41.732559)"
"93187","Family Dollar 11656","627 Burnside Ave",,"East Hartford","CT","06108","3578","HARTFORD","-72.612358","41.778984","POINT (-72.612358 41.778984)"
"141300","Family Dollar Store 4486","180 Main St",,"East Hartford","CT","06118","3234","HARTFORD","-72.628502","41.736115","POINT (-72.628502 41.736115)"
"141304","Family Dollar Store 5327","265 Ellington Rd","Ste 1","East Hartford","CT","06108","1158","HARTFORD","-72.622337","41.795033","POINT (-72.622337 41.795033)"
"141310","Family Dollar Store 7615","1150 Burnside Ave",,"East Hartford","CT","06108","1508","HARTFORD","-72.588654","41.783661","POINT (-72.588654 41.783661)"
"50123","Food Bag Citgo Quik Mart 527","1259 Burnside Ave",,"East Hartford","CT","06108","1512","HARTFORD","-72.583801","41.783482","POINT (-72.583801 41.783482)"
"16591","Hispana Grocery, Llc 1","205 Burnside Ave","Ste 5","East Hartford","CT","06108","2355","HARTFORD","-72.631058","41.775288","POINT (-72.631058 41.775288)"
"170929","Homestead Dairy","1441 Forbes St",,"East Hartford","CT","06118","3300","HARTFORD","-72.604675","41.732929","POINT (-72.604675 41.732929)"
"140940","JE Mart","818 Silver Ln",,"East Hartford","CT","06118","1228","HARTFORD","-72.607956","41.764687","POINT (-72.607956 41.764687)"
"248075","Kamakhya Llc","611 Main St",,"East Hartford","CT","06108","3305","HARTFORD","-72.64608","41.761902","POINT (-72.64608 41.761902)"
"243781","Key Food Fresh NO","950 Main St",,"East Hartford","CT","06108","2237","HARTFORD","-72.642555","41.770462","POINT (-72.642555 41.770462)"
"173840","KRAUSZERS","468 Main St",,"East Hartford","CT","06118","1406","HARTFORD","-72.642067","41.754875","POINT (-72.642067 41.754875)"
"1395","Mamas","488 Park Ave","Ste 4","East Hartford","CT","06108","1861","HARTFORD","-72.614639","41.783318","POINT (-72.614639 41.783318)"
"54815","Moody LLC","194 Main St",,"East Hartford","CT","06118","3602","HARTFORD","-72.629051","41.736607","POINT (-72.629051 41.736607)"
"27589","Ny Miro Mart","1515 Main St",,"East Hartford","CT","06108","1621","HARTFORD","-72.637245","41.778538","POINT (-72.637245 41.778538)"
"69795","Shell On Silver Lane","1475 Silver Ln",,"East Hartford","CT","06118","1344","HARTFORD","-72.578575","41.765747","POINT (-72.578575 41.765747)"
"158931","ShopRite Of East Hartford 340","31 Main St",,"East Hartford","CT","06118","3209","HARTFORD","-72.618835","41.729404","POINT (-72.618835 41.729404)"
"31166","Star Supermarket And Deli LLC","583 Burnside Ave",,"East Hartford","CT","06108","3537","HARTFORD","-72.614571","41.778652","POINT (-72.614571 41.778652)"
"58085","STOP & SHOP 693","940 Silver Ln","Ste 1","East Hartford","CT","06118","1235","HARTFORD","-72.601669","41.765575","POINT (-72.601669 41.765575)"
"117321","Tim's Market LLC","123 School St",,"East Hartford","CT","06108","1833","HARTFORD","-72.612686","41.783157","POINT (-72.612686 41.783157)"
"62386","Ultra Fuel Quick Mart","58 Ellington Rd",,"East Hartford","CT","06108","1101","HARTFORD","-72.629585","41.790295","POINT (-72.629585 41.790295)"
"166506","Walgreens 07566","922 Silver Ln",,"East Hartford","CT","06118","1285","HARTFORD","-72.603432","41.765301","POINT (-72.603432 41.765301)"
"207664","WALGREENS 09784","20 Connecticut Blvd",,"East Hartford","CT","06108","3007","HARTFORD","-72.644844","41.769501","POINT (-72.644844 41.769501)"
"732","Alam Mini Mart","855 Foxon Rd",,"East Haven","CT","06513","1835","NEW HAVEN","-72.860573","41.321678","POINT (-72.860573 41.321678)"
"86784","Alex Grocery","418 Main St",,"East Haven","CT","06512","2838","NEW HAVEN","-72.877029","41.281548","POINT (-72.877029 41.281548)"
"42112","Big Lots 4671","78 Frontage Rd",,"East Haven","CT","06512","2103","NEW HAVEN","-72.879784","41.286133","POINT (-72.879784 41.286133)"
"238810","Corner Stop Deli and Convenience Store","82 Hemingway Ave",,"East Haven","CT","06512","3406","NEW HAVEN","-72.872284","41.269619","POINT (-72.872284 41.269619)"
"13465","CVS PHARMACY  1968","369 Main St",,"East Haven","CT","06512","2835","NEW HAVEN","-72.87545","41.279877","POINT (-72.87545 41.279877)"
"139086","CVS Pharmacy 857","660 Foxon Rd",,"East Haven","CT","06513","1863","NEW HAVEN","-72.851303","41.321854","POINT (-72.851303 41.321854)"
"242693","Deli Mart","34 Gerrish Ave",,"East Haven","CT","06512","3230","NEW HAVEN","-72.881004","41.278397","POINT (-72.881004 41.278397)"
"19674","Dollar General 16088","650 Coe Ave",,"East Haven","CT","06512","3847","NEW HAVEN","-72.872856","41.265366","POINT (-72.872856 41.265366)"
"144751","Dollar Tree 5246","32 Frontage Rd",,"East Haven","CT","06512","2106","NEW HAVEN","-72.878632","41.285789","POINT (-72.878632 41.285789)"
"211064","East Haven Farmers Market","100 River St",,"East Haven","CT","06512","2518","NEW HAVEN","-72.868431","41.275074","POINT (-72.868431 41.275074)"
"88633","East Haven Markets LLC/Shoprite Of East Haven","745 Foxon Rd",,"East Haven","CT","06513","1873","NEW HAVEN","-72.855324","41.322201","POINT (-72.855324 41.322201)"
"141325","Family Dollar Store 7089","684 Foxon Rd",,"East Haven","CT","06513","1863","NEW HAVEN","-72.85231","41.321926","POINT (-72.85231 41.321926)"
"49028","Haven Deli & Convenience Llc","453 Short Beach Rd",,"East Haven","CT","06512","3823","NEW HAVEN","-72.869972","41.265369","POINT (-72.869972 41.265369)"
"117512","Kraszer's Food Store 636","640 Foxon Rd",,"East Haven","CT","06513","1831","NEW HAVEN","-72.850441","41.321835","POINT (-72.850441 41.321835)"
"38100","My Country Store LLC","677 Main St",,"East Haven","CT","06512","2032","NEW HAVEN","-72.887047","41.285313","POINT (-72.887047 41.285313)"
"52137","Ocean Port","50 Coe Ave",,"East Haven","CT","06512","4714","NEW HAVEN","-72.870956","41.24868","POINT (-72.870956 41.24868)"
"31407","Ocean State Job Lot 319","713 Foxon Rd",,"East Haven","CT","06513","1873","NEW HAVEN","-72.855354","41.322151","POINT (-72.855354 41.322151)"
"82583","RITE AID 3264","10 Hemingway Ave",,"East Haven","CT","06512","3404","NEW HAVEN","-72.872566","41.266815","POINT (-72.872566 41.266815)"
"128877","Rite Aid 4092","645 Foxon Rd",,"East Haven","CT","06513","1951","NEW HAVEN","-72.850754","41.321949","POINT (-72.850754 41.321949)"
"82588","RITE AID 4778","588 Main St",,"East Haven","CT","06512","2001","NEW HAVEN","-72.882652","41.283558","POINT (-72.882652 41.283558)"
"138523","Stop & Go Convenience Store","526 Main St",,"East Haven","CT","06512","2723","NEW HAVEN","-72.881035","41.283207","POINT (-72.881035 41.283207)"
"59421","STOP & SHOP  692","370 Hemingway Ave",,"East Haven","CT","06512","2317","NEW HAVEN","-72.867393","41.277988","POINT (-72.867393 41.277988)"
"101532","T-asian Market 0","692 Foxon Rd",,"East Haven","CT","06513","1863","NEW HAVEN","-72.852646","41.321949","POINT (-72.852646 41.321949)"
"59927","T&J Supermarket Inc","875 N High St",,"East Haven","CT","06512","1029","NEW HAVEN","-72.854218","41.304169","POINT (-72.854218 41.304169)"
"147838","Walgreens 12120","157 Main St",,"East Haven","CT","06512","2525","NEW HAVEN","-72.867599","41.276283","POINT (-72.867599 41.276283)"
"193677","Walmart SUPERCENTER 5439","315 Foxon Rd",,"East Haven","CT","06513","2017","NEW HAVEN","-72.836159","41.324589","POINT (-72.836159 41.324589)"
"55184","Costco Wholesale 1372","284 Flanders Rd",,"East Lyme","CT","06333","1710","NEW LONDON","-72.212654","41.359489","POINT (-72.212654 41.359489)"
"167571","CVS Pharmacy 4473","15 Chesterfield Rd","Ste 1","East Lyme","CT","06333","1737","NEW LONDON","-72.209877","41.366951","POINT (-72.209877 41.366951)"
"222157","Dollar General 21845","144 Boston Post Rd",,"East Lyme","CT","06333","1606","NEW LONDON","-72.213303","41.365589","POINT (-72.213303 41.365589)"
"54963","Intercontinental Holding Company/Tri Town Foods","15 Chesterfield Road",,"East Lyme","CT","06333",,"NEW LONDON","-72.20974","41.366554","POINT (-72.20974 41.366554)"
"198221","Stop & Shop 665","248 Flanders Rd",,"East Lyme","CT","06333",,"NEW LONDON","-72.209778","41.361164","POINT (-72.209778 41.361164)"
"149860","Walgreens 17893","340 Flanders Rd",,"East Lyme","CT","06333","1710","NEW LONDON","-72.209503","41.365841","POINT (-72.209503 41.365841)"
"154039","Stop & Shop 2604","931 Torringford St",,"East Torrington","CT","06790","3541","LITCHFIELD","-73.081596","41.818836","POINT (-73.081596 41.818836)"
"110902","7-Eleven Store 32946B 32946B","183 S Main St",,"East Windsor","CT","06088","9702","HARTFORD","-72.607376","41.885101","POINT (-72.607376 41.885101)"
"126760","A-plus Sunoco 0374556904","163 Bridge St",,"East Windsor","CT","06088","9547","HARTFORD","-72.60994","41.930103","POINT (-72.60994 41.930103)"
"153810","Asia Market","44 S Main St","Ste 10","East Windsor","CT","06088","1702","HARTFORD","-72.61335","41.905773","POINT (-72.61335 41.905773)"
"155782","Big Y Supermarkets 60","67 Prospect Hill Rd",,"East Windsor","CT","06088","3605","HARTFORD","-72.607689","41.921261","POINT (-72.607689 41.921261)"
"183443","Cumberland Farms 4783","9 South Main St",,"East Windsor","CT","06088",,"HARTFORD","-72.612808","41.911743","POINT (-72.612808 41.911743)"
"225368","East Windsor Noble","78 North Rd",,"East Windsor","CT","06088","9678","HARTFORD","-72.594116","41.93214","POINT (-72.594116 41.93214)"
"58260","Geisslers Supermarket","100 Bridge St",,"East Windsor","CT","06088","9585","HARTFORD","-72.61657","41.929543","POINT (-72.61657 41.929543)"
"58707","HARKEN'S MARKET","287 S Main St",,"East Windsor","CT","06088","9746","HARTFORD","-72.60714","41.871258","POINT (-72.60714 41.871258)"
"50337","Krauszer's Food Store","44 S Main St","Ste #1","East Windsor","CT","06088","1702","HARTFORD","-72.614403","41.906284","POINT (-72.614403 41.906284)"
"82906","Mash Mart","148 North Rd",,"East Windsor","CT","06088","9502","HARTFORD","-72.578941","41.935539","POINT (-72.578941 41.935539)"
"17547","Tasneem Gas Llc","168 Bridge St",,"East Windsor","CT","06088","9548","HARTFORD","-72.606766","41.930439","POINT (-72.606766 41.930439)"
"187464","Walmart SuperCenter 2282","44 Prospect Hill Rd",,"East Windsor","CT","06088","9501","HARTFORD","-72.609528","41.918957","POINT (-72.609528 41.918957)"
"85232","Big Y World Class Market 73","135 West Rd",,"Ellington","CT","06029","3719","TOLLAND","-72.463974","41.886482","POINT (-72.463974 41.886482)"
"163479","Cumberland Farms, Inc 4681","5 Wapping Wood Rd",,"Ellington","CT","06029","4007","TOLLAND","-72.493309","41.867191","POINT (-72.493309 41.867191)"
"123971","Dollar Tree 3909","42 Windsor Ave","Ste B","Ellington","CT","06029",,"TOLLAND","-72.49794","41.873108","POINT (-72.49794 41.873108)"
"12447","Ellington Farmers Market","31 Arbor Way",,"Ellington","CT","06029","3354","TOLLAND","-72.464439","41.90358","POINT (-72.464439 41.90358)"
"75320","Fas Mart 309","1 Main St",,"Ellington","CT","06029","3317","TOLLAND","-72.459404","41.900578","POINT (-72.459404 41.900578)"
"140754","Roadrunners","83 West Rd",,"Ellington","CT","06029","4201","TOLLAND","-72.463348","41.877804","POINT (-72.463348 41.877804)"
"161347","7-Eleven 15810B","202 Elm St",,"Enfield","CT","06082","3116","HARTFORD","-72.566948","42.000565","POINT (-72.566948 42.000565)"
"173963","Aldi 44","25 Hazard Ave","Ste 1","Enfield","CT","06082","3725","HARTFORD","-72.580032","41.98988","POINT (-72.580032 41.98988)"
"244471","Alicja Deli Llc","786 Enfield St","Ste 1","Enfield","CT","06082","2975","HARTFORD","-72.594208","42.001633","POINT (-72.594208 42.001633)"
"144542","Amg Retail I Llc 549","559 Hazard Ave",,"Enfield","CT","06082","4234","HARTFORD","-72.513466","41.985226","POINT (-72.513466 41.985226)"
"137019","Big Y Supermarkets 48","65 Palomba Dr",,"Enfield","CT","06082","3801","HARTFORD","-72.571732","41.991093","POINT (-72.571732 41.991093)"
"58903","CARONNA'S MARKET INC","25 Pearl St",,"Enfield","CT","06082","3501","HARTFORD","-72.599831","41.997883","POINT (-72.599831 41.997883)"
"152590","Costco Wholesale 0780","75 Freshwater Blvd",,"Enfield","CT","06082","3854","HARTFORD","-72.576668","41.992359","POINT (-72.576668 41.992359)"
"99452","CVS PHARMACY  1098","47 Hazard Ave",,"Enfield","CT","06082","3813","HARTFORD","-72.576805","41.989731","POINT (-72.576805 41.989731)"
"131077","CVS PHARMACY  750","875 Enfield St",,"Enfield","CT","06082","3617","HARTFORD","-72.594337","41.998219","POINT (-72.594337 41.998219)"
"200356","Dollar General 15366","481 Enfield St",,"Enfield","CT","06082","2426","HARTFORD","-72.593529","42.011196","POINT (-72.593529 42.011196)"
"85277","DOLLAR TREE 1076","136 Elm St","Ste 1","Enfield","CT","06082","3825","HARTFORD","-72.577278","41.998192","POINT (-72.577278 41.998192)"
"173079","Elm Street Mobil","100 Elm St",,"Enfield","CT","06082","3732","HARTFORD","-72.581627","41.997982","POINT (-72.581627 41.997982)"
"220883","Enfield Food Mart","935 Enfield St",,"Enfield","CT","06082","3663","HARTFORD","-72.594414","41.996326","POINT (-72.594414 41.996326)"
"240924","Enfield Produce And Deli","565 Enfield St",,"Enfield","CT","06082","2407","HARTFORD","-72.592636","42.00853","POINT (-72.592636 42.00853)"
"16583","Family Dollar 8924","585 Hazard Ave","Ste 1","Enfield","CT","06082","4241","HARTFORD","-72.511101","41.985607","POINT (-72.511101 41.985607)"
"75326","Fas Mart 305","56 Enfield St",,"Enfield","CT","06082","1910","HARTFORD","-72.585487","42.023182","POINT (-72.585487 42.023182)"
"154339","Jafar Mini Mart","307 Hazard Ave",,"Enfield","CT","06082","4646","HARTFORD","-72.539337","41.986435","POINT (-72.539337 41.986435)"
"222609","King Eddie LLC","1594 King St",,"Enfield","CT","06082","5844","HARTFORD","-72.601364","41.952068","POINT (-72.601364 41.952068)"
"216561","Lil' Buddy's Mini Mart","284 N Maple St",,"Enfield","CT","06082","2362","HARTFORD","-72.540291","42.021641","POINT (-72.540291 42.021641)"
"241820","Lil' Buddy's Mini Mart","284 N Maple St","Ste 3","Enfield","CT","06082","2362","HARTFORD","-72.540504","42.021694","POINT (-72.540504 42.021694)"
"26119","Ocean State Job Lot 311","25 Hazard Ave",,"Enfield","CT","06082","3725","HARTFORD","-72.58017","41.989872","POINT (-72.58017 41.989872)"
"209095","Omi Oriental Grocery","786 Enfield St","Ste 4","Enfield","CT","06082","2975","HARTFORD","-72.593613","42.001434","POINT (-72.593613 42.001434)"
"84899","One Stop Enfield","126 South Rd",,"Enfield","CT","06082","4430","HARTFORD","-72.569054","41.976959","POINT (-72.569054 41.976959)"
"241037","Rivas Meat Market 2 Llc","786 Enfield St","Ste 3","Enfield","CT","06082","2975","HARTFORD","-72.594208","42.001633","POINT (-72.594208 42.001633)"
"70119","Sams Food Store","240 Brainard Rd",,"Enfield","CT","06082","2661","HARTFORD","-72.560493","42.023121","POINT (-72.560493 42.023121)"
"93541","Shoprite Of Enfield 319","40 Hazard Ave",,"Enfield","CT","06082","3713","HARTFORD","-72.578293","41.989677","POINT (-72.578293 41.989677)"
"188582","Smoke N Munch","397 Enfield St",,"Enfield","CT","06082","1920","HARTFORD","-72.593048","42.013996","POINT (-72.593048 42.013996)"
"236790","Stevie's Little Store","1436 Enfield St",,"Enfield","CT","06082","5545","HARTFORD","-72.593582","41.9673","POINT (-72.593582 41.9673)"
"117454","Stop & Save Food Mart","585 Enfield St",,"Enfield","CT","06082","2407","HARTFORD","-72.592857","42.008003","POINT (-72.592857 42.008003)"
"58708","Stop & Shop 2605","54 Hazard Ave","Ste 1","Enfield","CT","06082","3865","HARTFORD","-72.576653","41.989643","POINT (-72.576653 41.989643)"
"85864","TARGET 1255","90 Elm St","Ste A","Enfield","CT","06082","3742","HARTFORD","-72.584885","41.997768","POINT (-72.584885 41.997768)"
"6243","T-ville Food Mart","98 Pearl St",,"Enfield","CT","06082","3546","HARTFORD","-72.598915","41.994991","POINT (-72.598915 41.994991)"
"92292","WALGREENS 09432","2 Shaker Rd",,"Enfield","CT","06082","3112","HARTFORD","-72.565147","42.001453","POINT (-72.565147 42.001453)"
"82584","Walgreens 19944","71 Palomba Dr",,"Enfield","CT","06082","3801","HARTFORD","-72.571617","41.990822","POINT (-72.571617 41.990822)"
"59015","Xiddig Halal Market Llc No","80 Pearl St",,"Enfield","CT","06082","3548","HARTFORD","-72.599464","41.995827","POINT (-72.599464 41.995827)"
"75314","Walgreens 17767","125 Westbrook Rd","Ste 7","Essex","CT","06426","1521","MIDDLESEX","-72.414749","41.340099","POINT (-72.414749 41.340099)"
"19209","ALDI 73118","290 Tunxis Hill Rd",,"Fairfield","CT","06825","4455","FAIRFIELD","-73.228279","41.176788","POINT (-73.228279 41.176788)"
"119157","BJ's Wholesale Club 31","40 Black Rock Tpke",,"Fairfield","CT","06825","5507","FAIRFIELD","-73.230339","41.161076","POINT (-73.230339 41.161076)"
"163463","Cumberland Farms 4739","975 Kings Hwy",,"Fairfield","CT","06825","5450","FAIRFIELD","-73.233757","41.166813","POINT (-73.233757 41.166813)"
"163492","Cumberland Farms, Inc 4740","1101 Post Rd",,"Fairfield","CT","06824","6005","FAIRFIELD","-73.252953","41.144779","POINT (-73.252953 41.144779)"
"14838","CVS PHARMACY 133","698 Post Rd",,"Fairfield","CT","06824","6247","FAIRFIELD","-73.247337","41.147942","POINT (-73.247337 41.147942)"
"105644","CVS PHARMACY  1912","1968 Black Rock Tpke",,"Fairfield","CT","06825","3543","FAIRFIELD","-73.249474","41.180859","POINT (-73.249474 41.180859)"
"24510","CVS Pharmacy 2151","1770 Kings Hwy",,"Fairfield","CT","06824","5317","FAIRFIELD","-73.239822","41.157223","POINT (-73.239822 41.157223)"
"186170","CVS PHARMACY  3373","961 Black Rock Tpke",,"Fairfield","CT","06825","4702","FAIRFIELD","-73.235733","41.171867","POINT (-73.235733 41.171867)"
"113018","Fairfield Deli & Grill","170 Post Rd",,"Fairfield","CT","06824","6262","FAIRFIELD","-73.239532","41.151951","POINT (-73.239532 41.151951)"
"72132","Gopinathji  Llc","2120 Black Rock Tpke",,"Fairfield","CT","06825","3552","FAIRFIELD","-73.251465","41.181557","POINT (-73.251465 41.181557)"
"24191","Grade A Shoprite Of Fairfield LLC 399","1975 Black Rock Tpke",,"Fairfield","CT","06825","3506","FAIRFIELD","-73.249626","41.180813","POINT (-73.249626 41.180813)"
"149875","Rite Aid 10386","1619 Post Rd",,"Fairfield","CT","06824","5910","FAIRFIELD","-73.260033","41.140972","POINT (-73.260033 41.140972)"
"59584","STOP & SHOP  650","1160 Kings Highway Cutoff",,"Fairfield","CT","06824","5271","FAIRFIELD","-73.244217","41.150429","POINT (-73.244217 41.150429)"
"70367","Stop & Shop 673","760A Villa Ave",,"Fairfield","CT","06825","4835","FAIRFIELD","-73.226921","41.175941","POINT (-73.226921 41.175941)"
"181362","TRADER JOE'S  523","2258 Black Rock Tpke",,"Fairfield","CT","06825","3219","FAIRFIELD","-73.253685","41.182419","POINT (-73.253685 41.182419)"
"163944","Walgreens 16080","414 Kings Hwy E",,"Fairfield","CT","06825","4846","FAIRFIELD","-73.228943","41.17337","POINT (-73.228943 41.17337)"
"11028","Whole Foods Market 10317","350 Grasmere Ave",,"Fairfield","CT","06824","6102","FAIRFIELD","-73.241844","41.157192","POINT (-73.241844 41.157192)"
"164011","AMG Retail I LLC 541","286 Main St",,"Farmington","CT","06032","2961","HARTFORD","-72.84201","41.707695","POINT (-72.84201 41.707695)"
"163896","Cumberland Farms, Inc 4748","352 Scott Swamp Rd",,"Farmington","CT","06032","3413","HARTFORD","-72.887779","41.70248","POINT (-72.887779 41.70248)"
"128767","CVS Pharmacy 145","330 Main St",,"Farmington","CT","06032","2961","HARTFORD","-72.843399","41.703884","POINT (-72.843399 41.703884)"
"87301","GG Mart","1387 Farmington Ave",,"Farmington","CT","06032","1240","HARTFORD","-72.859604","41.743351","POINT (-72.859604 41.743351)"
"64931","HIGHLAND PARK MKT OF FARMINGTON","204 Main St",,"Farmington","CT","06032","2959","HARTFORD","-72.838692","41.712105","POINT (-72.838692 41.712105)"
"88635","Bestway Of Gales Ferry","1506 Route 12",,"Gales Ferry","CT","06335","1838","NEW LONDON","-72.073692","41.408928","POINT (-72.073692 41.408928)"
"53077","CVS Pharmacy 556","1657 Route 12",,"Gales Ferry","CT","06335","1533","NEW LONDON","-72.0821","41.427597","POINT (-72.0821 41.427597)"
"5883","Dollar Tree 6353","1666 Route 12",,"Gales Ferry","CT","06335","1534","NEW LONDON","-72.082169","41.428188","POINT (-72.082169 41.428188)"
"220730","Henny Penny- GALES FERRY 22","1673 Route 12",,"Gales Ferry","CT","06335","1536","NEW LONDON","-72.082069","41.430435","POINT (-72.082069 41.430435)"
"28102","Ocean State Job Lot 301","1666 Route 12",,"Gales Ferry","CT","06335","1534","NEW LONDON","-72.082169","41.428188","POINT (-72.082169 41.428188)"
"93513","7-Eleven Store 32960H","3041 Main St",,"Glastonbury","CT","06033","1029","HARTFORD","-72.61647","41.727493","POINT (-72.61647 41.727493)"
"163493","Cumberland Farms, Inc 4741","2875 Main St",,"Glastonbury","CT","06033","1030","HARTFORD","-72.614708","41.721783","POINT (-72.614708 41.721783)"
"15827","CVS PHARMACY  459","2639 Main St",,"Glastonbury","CT","06033","2023","HARTFORD","-72.611198","41.71553","POINT (-72.611198 41.71553)"
"165769","CVS Pharmacy  5450","766 New London Tpke",,"Glastonbury","CT","06033","3076","HARTFORD","-72.59391","41.705139","POINT (-72.59391 41.705139)"
"240702","Highland Park Market 9298037","1320 Manchester Rd",,"Glastonbury","CT","06033","1857","HARTFORD","-72.52594","41.715019","POINT (-72.52594 41.715019)"
"201505","Sams Food Store 1078","952 New London Tpke",,"Glastonbury","CT","06033","3076","HARTFORD","-72.590553","41.703655","POINT (-72.590553 41.703655)"
"177261","Stop & Shop 605","55 Oak St",,"Glastonbury","CT","06033","2315","HARTFORD","-72.593643","41.706375","POINT (-72.593643 41.706375)"
"64109","STOP & SHOP 631","215 Glastonbury Blvd",,"Glastonbury","CT","06033","4408","HARTFORD","-72.622353","41.721207","POINT (-72.622353 41.721207)"
"122378","Walgreens 02228","2900 Main St",,"Glastonbury","CT","06033","1027","HARTFORD","-72.614784","41.722538","POINT (-72.614784 41.722538)"
"164887","Walgreens 11533","1312 Manchester Rd",,"Glastonbury","CT","06033","1824","HARTFORD","-72.526176","41.714752","POINT (-72.526176 41.714752)"
"108981","Whole Foods Market 10336","55 Welles St",,"Glastonbury","CT","06033","2047","HARTFORD","-72.608559","41.713783","POINT (-72.608559 41.713783)"
"163494","Cumberland Farms, Inc 4743","19 Hartford Ave",,"Granby","CT","06035","2308","HARTFORD","-72.786667","41.951515","POINT (-72.786667 41.951515)"
"164801","CVS Pharmacy  1202","20 Bank St",,"Granby","CT","06035","2302","HARTFORD","-72.78524","41.95295","POINT (-72.78524 41.95295)"
"59936","Geisslers Supermarket","9 Bank St",,"Granby","CT","06035","2303","HARTFORD","-72.785156","41.952843","POINT (-72.785156 41.952843)"
"176177","Stop & Shop 611","120 Salmon Brook St",,"Granby","CT","06035","2604","HARTFORD","-72.790588","41.93541","POINT (-72.790588 41.93541)"
"165256","Acme 2494","160 W Putnam Ave",,"Greenwich","CT","06830","5344","FAIRFIELD","-73.631218","41.026863","POINT (-73.631218 41.026863)"
"105253","CVS PHARMACY  1280","99 Greenwich Ave",,"Greenwich","CT","06830","5511","FAIRFIELD","-73.626396","41.029369","POINT (-73.626396 41.029369)"
"31155","CVS Pharmacy 6702","644 W Putnam Ave",,"Greenwich","CT","06830","6008","FAIRFIELD","-73.648911","41.016514","POINT (-73.648911 41.016514)"
"60203","STOP & SHOP 612","11 Glen Ridge Rd",,"Greenwich","CT","06831","3678","FAIRFIELD","-73.667542","41.039135","POINT (-73.667542 41.039135)"
"60198","STOP & SHOP  616","161 West Putnam Ave",,"Greenwich","CT","06830","5329","FAIRFIELD","-73.631752","41.026764","POINT (-73.631752 41.026764)"
"140314","The Corner Market","140 Hamilton Ave",,"Greenwich","CT","06830","6113","FAIRFIELD","-73.638794","41.01873","POINT (-73.638794 41.01873)"
"56535","Whole Foods Market 10057","90 E Putnam Ave",,"Greenwich","CT","06830","5626","FAIRFIELD","-73.62458","41.033146","POINT (-73.62458 41.033146)"
"201126","Dollar General 15458","1151 Voluntown Rd",,"Griswold","CT","06351","1621","NEW LONDON","-71.909882","41.582832","POINT (-71.909882 41.582832)"
"107386","DOLLAR TREE 1593","461 Voluntown Rd","Ocean State Job Lot Plz Ste E","Griswold","CT","06351","2611","NEW LONDON","-71.969528","41.592812","POINT (-71.969528 41.592812)"
"26579","Ocean State Job Lot 320","461 Voluntown Rd",,"Griswold","CT","06351",,"NEW LONDON","-71.969528","41.592812","POINT (-71.969528 41.592812)"
"124894","Aldi 52","688 Long Hill Rd",,"Groton","CT","06340","4210","NEW LONDON","-72.055725","41.349915","POINT (-72.055725 41.349915)"
"33004","Avery Market","2 Shennecossett Rd",,"Groton","CT","06340","5138","NEW LONDON","-72.076393","41.337387","POINT (-72.076393 41.337387)"
"200889","Big Y Supermarkets 61","995 Poquonnock Rd",,"Groton","CT","06340","4257","NEW LONDON","-72.048126","41.346294","POINT (-72.048126 41.346294)"
"233106","City Of Groton Farmers Market At Washington Park","155 Meridian St",,"Groton","CT","06340","4010","NEW LONDON","-72.073723","41.356033","POINT (-72.073723 41.356033)"
"163460","Cumberland Farms 4689","273 Mitchell St",,"Groton","CT","06340","4420","NEW LONDON","-72.076157","41.349693","POINT (-72.076157 41.349693)"
"40019","CVS PHARMACY 377","915 Poquonnock Rd",,"Groton","CT","06340","4257","NEW LONDON","-72.051247","41.346687","POINT (-72.051247 41.346687)"
"15013","Dollar General 19061","756 Long Hill Rd",,"Groton","CT","06340","4273","NEW LONDON","-72.053886","41.348507","POINT (-72.053886 41.348507)"
"31832","Dollar Tree 4816","706 Long Hill Rd",,"Groton","CT","06340","4269","NEW LONDON","-72.054825","41.349258","POINT (-72.054825 41.349258)"
"153084","Fort Hill Citgo, Llc","182 Fort Hill Rd",,"Groton","CT","06340","4334","NEW LONDON","-72.021683","41.347179","POINT (-72.021683 41.347179)"
"246632","Fresh Market","81 Poquonnock Rd",,"Groton","CT","06340","4430","NEW LONDON","-72.075859","41.34676","POINT (-72.075859 41.34676)"
"73120","Groton Mart","1004 Poquonnock Rd",,"Groton","CT","06340","4208","NEW LONDON","-72.047829","41.346409","POINT (-72.047829 41.346409)"
"220897","Henny Penny-639 ROUTE 12 43","639 Route 12",,"Groton","CT","06340","2949","NEW LONDON","-72.075874","41.379276","POINT (-72.075874 41.379276)"
"220227","Henny Penny-CENTER GROTON 36","1270 Gold Star Hwy",,"Groton","CT","06340","2780","NEW LONDON","-72.026764","41.382942","POINT (-72.026764 41.382942)"
"216850","Henny Penny-FORT HILL 39","106 Fort Hill Rd",,"Groton","CT","06340","4335","NEW LONDON","-72.028397","41.346313","POINT (-72.028397 41.346313)"
"44331","Henny Penny-ROUTE 12 54","294 Route 12",,"Groton","CT","06340","2929","NEW LONDON","-72.071251","41.370209","POINT (-72.071251 41.370209)"
"135663","New Asia Inc","505 Long Hill Rd",,"Groton","CT","06340",,"NEW LONDON","-72.059998","41.353924","POINT (-72.059998 41.353924)"
"58097","New London Commissary 2226","40 Crystal Lake Rd","Bldg 617","Groton","CT","06349","2300","NEW LONDON","-72.085815","41.388172","POINT (-72.085815 41.388172)"
"31408","Ocean State Job Lot 318","941 Poquonnock Rd",,"Groton","CT","06340","4257","NEW LONDON","-72.050049","41.346478","POINT (-72.050049 41.346478)"
"173094","Raj Cash & Carry","764 Long Hill Rd",,"Groton","CT","06340","4273","NEW LONDON","-72.053146","41.347923","POINT (-72.053146 41.347923)"
"93918","Shining Sons Llc","33 Fort Hill Rd",,"Groton","CT","06340","4722","NEW LONDON","-72.035065","41.345848","POINT (-72.035065 41.345848)"
"203131","STOP & SHOP 682","220 Route 12","Ste 1","Groton","CT","06340","3414","NEW LONDON","-72.070236","41.368599","POINT (-72.070236 41.368599)"
"104557","WALGREENS 07759","441 Long Hill Rd",,"Groton","CT","06340","4149","NEW LONDON","-72.060501","41.354713","POINT (-72.060501 41.354713)"
"180284","Walmart  2200","150 Gold Star Hwy",,"Groton","CT","06340","3442","NEW LONDON","-72.064812","41.367966","POINT (-72.064812 41.367966)"
"91989","Wasu Market","160 North St",,"Groton","CT","06340","3702","NEW LONDON","-72.076622","41.357594","POINT (-72.076622 41.357594)"
"112925","Big Y Supermarkets 55","830 Boston Post Rd",,"Guilford","CT","06437","2701","NEW HAVEN","-72.678268","41.288624","POINT (-72.678268 41.288624)"
"62763","B .W. Bishop & Sons Inc/Bishop's Orchards","1355 Boston Post Rd",,"Guilford","CT","06437","2399","NEW HAVEN","-72.694862","41.289364","POINT (-72.694862 41.289364)"
"146977","CVS Pharmacy 1966","1057 Boston Post Rd","Ste 1","Guilford","CT","06437","2663","NEW HAVEN","-72.685524","41.287739","POINT (-72.685524 41.287739)"
"3268","Dollar Tree 4521","880 Boston Post Rd",,"Guilford","CT","06437","2701","NEW HAVEN","-72.678513","41.288574","POINT (-72.678513 41.288574)"
"74708","Guilford Xtra Mart 10007","1675 Boston Post Rd",,"Guilford","CT","06437","2387","NEW HAVEN","-72.70295","41.296085","POINT (-72.70295 41.296085)"
"106172","The Fresh Market 213","1919 Boston Post Rd","Ste 305","Guilford","CT","06437","4370","NEW HAVEN","-72.706032","41.299778","POINT (-72.706032 41.299778)"
"161614","Walgreens 01455","1116 Boston Post Rd",,"Guilford","CT","06437","2624","NEW HAVEN","-72.687523","41.287575","POINT (-72.687523 41.287575)"
"27289","Walmart 3544","900 Boston Post Rd",,"Guilford","CT","06437","2750","NEW HAVEN","-72.679153","41.288513","POINT (-72.679153 41.288513)"
"5079","Dollar General 19685","85 Bridge Rd",,"Haddam","CT","06438","1354","MIDDLESEX","-72.472565","41.449337","POINT (-72.472565 41.449337)"
"141244","River Valley Provisions","95 Bridge Rd",,"Haddam","CT","06438","1354","MIDDLESEX","-72.473145","41.448936","POINT (-72.473145 41.448936)"
"59550","#1 FISH MARKET","2239 State St",,"Hamden","CT","06517","3704","NEW HAVEN","-72.895401","41.341862","POINT (-72.895401 41.341862)"
"237691","7-eleven 33307b 33307","1795 Dixwell Ave",,"Hamden","CT","06514","3143","NEW HAVEN","-72.924606","41.360672","POINT (-72.924606 41.360672)"
"10376","Aldi 74","2300 Dixwell Ave",,"Hamden","CT","06514","2108","NEW HAVEN","-72.91748","41.372116","POINT (-72.91748 41.372116)"
"243268","Alltown Fresh Hamden 768","1941 Dixwell Ave",,"Hamden","CT","06514","2402","NEW HAVEN","-72.922668","41.363934","POINT (-72.922668 41.363934)"
"219135","Amin Mini Market Llc","1150 Dixwell Ave",,"Hamden","CT","06514","4732","NEW HAVEN","-72.934311","41.344681","POINT (-72.934311 41.344681)"
"153753","Carana Hill","321 Goodrich St",,"Hamden","CT","06517","3122","NEW HAVEN","-72.931656","41.335506","POINT (-72.931656 41.335506)"
"46615","CVS PHARMACY  775","2045 Dixwell Ave",,"Hamden","CT","06514","2405","NEW HAVEN","-72.920502","41.367413","POINT (-72.920502 41.367413)"
"47246","CVS Pharmacy CVS11081","1245 Dixwell Ave",,"Hamden","CT","06514","4132","NEW HAVEN","-72.93158","41.346962","POINT (-72.93158 41.346962)"
"19706","Dollar General 13331","1926 State St",,"Hamden","CT","06517","3820","NEW HAVEN","-72.90049","41.334885","POINT (-72.90049 41.334885)"
"109923","DOLLAR TREE 3474","2300 Dixwell Ave","Ste B","Hamden","CT","06514","2108","NEW HAVEN","-72.91748","41.37212","POINT (-72.91748 41.37212)"
"101101","E Hampton Grocery","1978 State St",,"Hamden","CT","06517","3829","NEW HAVEN","-72.900177","41.33604","POINT (-72.900177 41.33604)"
"116783","Family Dollar 8061","1245 Dixwell Ave","Ste 1","Hamden","CT","06514","4132","NEW HAVEN","-72.933731","41.346535","POINT (-72.933731 41.346535)"
"42196","Hamden Deli","891 Dixwell Ave",,"Hamden","CT","06514","5040","NEW HAVEN","-72.935188","41.337521","POINT (-72.935188 41.337521)"
"35881","Hamden Variety Store","1555 Dixwell Ave",,"Hamden","CT","06514","3601","NEW HAVEN","-72.929001","41.354881","POINT (-72.929001 41.354881)"
"107006","Ihab Llc","1671 Whitney Ave",,"Hamden","CT","06517","1928","NEW HAVEN","-72.909531","41.360077","POINT (-72.909531 41.360077)"
"24031","Jojo Deli","863 Dixwell Ave",,"Hamden","CT","06514","5013","NEW HAVEN","-72.934845","41.336811","POINT (-72.934845 41.336811)"
"93641","Krausers","1959 State St",,"Hamden","CT","06517","3822","NEW HAVEN","-72.900093","41.335533","POINT (-72.900093 41.335533)"
"51136","Krauszers  (660) 660","3300 Whitney Ave","Ste 1","Hamden","CT","06518","1937","NEW HAVEN","-72.902313","41.414429","POINT (-72.902313 41.414429)"
"95287","Krauszers Food Store","36 Fairview Ave",,"Hamden","CT","06514","4802","NEW HAVEN","-72.941238","41.339298","POINT (-72.941238 41.339298)"
"137741","Lina's Place","119 Sanford St",,"Hamden","CT","06514","1741","NEW HAVEN","-72.916664","41.381985","POINT (-72.916664 41.381985)"
"219770","Minute Mart","280 Circular Ave",,"Hamden","CT","06514","4053","NEW HAVEN","-72.936378","41.353809","POINT (-72.936378 41.353809)"
"44119","Mokbil Food Mart Llc","3394 Whitney Ave",,"Hamden","CT","06518","1909","NEW HAVEN","-72.903534","41.417679","POINT (-72.903534 41.417679)"
"129997","Motherland Market","897 Dixwell Ave",,"Hamden","CT","06514","5040","NEW HAVEN","-72.935143","41.337658","POINT (-72.935143 41.337658)"
"86859","PRICERITE OF HAMDEN 301","1869 Dixwell Ave",,"Hamden","CT","06514","3145","NEW HAVEN","-72.92382","41.362675","POINT (-72.92382 41.362675)"
"149869","Rite Aid 10375","2175 Dixwell Ave",,"Hamden","CT","06514","2405","NEW HAVEN","-72.918694","41.370102","POINT (-72.918694 41.370102)"
"155007","Shoprite Of Hamden 324","2100 Dixwell Ave",,"Hamden","CT","06514",,"NEW HAVEN","-72.919899","41.368408","POINT (-72.919899 41.368408)"
"142851","Snack Plus","75 Putnam Ave",,"Hamden","CT","06517","2827","NEW HAVEN","-72.915001","41.345695","POINT (-72.915001 41.345695)"
"59913","STOP & SHOP 600","2335 Dixwell Ave","Ste 1","Hamden","CT","06514","2100","NEW HAVEN","-72.916351","41.373684","POINT (-72.916351 41.373684)"
"207125","Thyme And Season Llc","3040 Whitney Ave",,"Hamden","CT","06518","2351","NEW HAVEN","-72.899101","41.405804","POINT (-72.899101 41.405804)"
"6103","Us1 Petrol","1290 Dixwell Ave",,"Hamden","CT","06514","4119","NEW HAVEN","-72.932899","41.34827","POINT (-72.932899 41.34827)"
"132041","Walgreens 02410","1697 Whitney Ave",,"Hamden","CT","06517","1928","NEW HAVEN","-72.909363","41.360855","POINT (-72.909363 41.360855)"
"132044","Walgreens 05406","1191 Dixwell Ave",,"Hamden","CT","06514","4733","NEW HAVEN","-72.934036","41.345661","POINT (-72.934036 41.345661)"
"132049","Walgreens 09101","2505 Whitney Ave",,"Hamden","CT","06518","3019","NEW HAVEN","-72.900337","41.38763","POINT (-72.900337 41.38763)"
"177853","Walmart 3545","2300 Dixwell Ave","Ste 1","Hamden","CT","06514","2108","NEW HAVEN","-72.91748","41.37212","POINT (-72.91748 41.37212)"
"177761","Z & Z Food Store Inc","2008 Whitney Ave",,"Hamden","CT","06517","1025","NEW HAVEN","-72.906189","41.371559","POINT (-72.906189 41.371559)"
"236814","1250 Park Food Corp/ Key Food","1250 Park St",,"Hartford","CT","06106","2209","HARTFORD","-72.697716","41.759064","POINT (-72.697716 41.759064)"
"140668","5 Star Farmers Market","475 Flatbush Ave",,"Hartford","CT","06106","3728","HARTFORD","-72.71122","41.742695","POINT (-72.71122 41.742695)"
"63915","704 Meat Center Inc","704 Park St",,"Hartford","CT","06106","4625","HARTFORD","-72.68869","41.758129","POINT (-72.68869 41.758129)"
"55759","7-eleven 32957C","2120 Park St",,"Hartford","CT","06106","2026","HARTFORD","-72.714607","41.75684","POINT (-72.714607 41.75684)"
"94495","Albany Grocery","1160 Albany Ave",,"Hartford","CT","06112","2316","HARTFORD","-72.695786","41.782051","POINT (-72.695786 41.782051)"
"31265","Alexis Super Deli","431 Zion St",,"Hartford","CT","06106","3035","HARTFORD","-72.69352","41.753002","POINT (-72.69352 41.753002)"
"111910","Alia Grocery Llc","80 Main St",,"Hartford","CT","06106","1805","HARTFORD","-72.674911","41.756428","POINT (-72.674911 41.756428)"
"19543","America Grocery","206 1/2 Mather St",,"Hartford","CT","06112","2418","HARTFORD","-72.685341","41.780525","POINT (-72.685341 41.780525)"
"155815","Amigo Market & Deli","527 Farmington Ave",,"Hartford","CT","06105","3048","HARTFORD","-72.709435","41.766384","POINT (-72.709435 41.766384)"
"221946","Asian Family Grocery","442 Franklin Ave",,"Hartford","CT","06114","2569","HARTFORD","-72.675003","41.737453","POINT (-72.675003 41.737453)"
"153173","Baltyk European Deli","731 Wethersfield Ave",,"Hartford","CT","06114","3105","HARTFORD","-72.670761","41.735996","POINT (-72.670761 41.735996)"
"30171","Blue Mini Market","205 Barbour St",,"Hartford","CT","06120","1702","HARTFORD","-72.677963","41.790958","POINT (-72.677963 41.790958)"
"223026","Bmd Grocery 1","594 Broad St",,"Hartford","CT","06106","4664","HARTFORD","-72.686783","41.761311","POINT (-72.686783 41.761311)"
"28576","Bng Inc","131 Buckingham St",,"Hartford","CT","06106","1740","HARTFORD","-72.677559","41.760368","POINT (-72.677559 41.760368)"
"54225","Boricua Market","183 Lawrence St",,"Hartford","CT","06106","4609","HARTFORD","-72.687927","41.761166","POINT (-72.687927 41.761166)"
"81614","BOSNA MARKET","547 Franklin Ave",,"Hartford","CT","06114","3019","HARTFORD","-72.674728","41.733662","POINT (-72.674728 41.733662)"
"194266","Bravo Supermarket","685 Maple Ave",,"Hartford","CT","06114","1856","HARTFORD","-72.683502","41.741776","POINT (-72.683502 41.741776)"
"23969","Bravo Supermarket","1291 Albany Ave","Ste 1","Hartford","CT","06112","2162","HARTFORD","-72.698181","41.782837","POINT (-72.698181 41.782837)"
"213389","Broadstreet Mart","1180 Broad St",,"Hartford","CT","06106","2314","HARTFORD","-72.687073","41.753281","POINT (-72.687073 41.753281)"
"169228","Bueno Grocery","100 Park St",,"Hartford","CT","06106","2524","HARTFORD","-72.677719","41.757366","POINT (-72.677719 41.757366)"
"241546","Capital Mini Market","397 Capitol Ave",,"Hartford","CT","06106","1414","HARTFORD","-72.688774","41.763657","POINT (-72.688774 41.763657)"
"136182","Caribbean Import Products LLC/dba Uptown Foods","3155 Main St","Ste 1","Hartford","CT","06120","1408","HARTFORD","-72.664589","41.794235","POINT (-72.664589 41.794235)"
"50336","Carlas Supermarket","660 Blue Hills Ave",,"Hartford","CT","06112","1207","HARTFORD","-72.695457","41.805119","POINT (-72.695457 41.805119)"
"28786","Center Market","256 Albany Ave",,"Hartford","CT","06120","2806","HARTFORD","-72.680901","41.776432","POINT (-72.680901 41.776432)"
"237081","Christina Grocery 1","227 Sisson Ave",,"Hartford","CT","06105","3109","HARTFORD","-72.707413","41.765015","POINT (-72.707413 41.765015)"
"226405","Ciales Grocery Ii","238 Franklin Ave",,"Hartford","CT","06114","1847","HARTFORD","-72.676231","41.744255","POINT (-72.676231 41.744255)"
"91012","CROSS ROADS SUPERMARKET","1062 Albany Ave",,"Hartford","CT","06112","2314","HARTFORD","-72.693848","41.781307","POINT (-72.693848 41.781307)"
"127154","C Town Supermarket","1744 Park St",,"Hartford","CT","06106","2134","HARTFORD","-72.707489","41.75703","POINT (-72.707489 41.75703)"
"81154","C-TOWN SUPERMARKET","394 New Britain Ave",,"Hartford","CT","06106","3832","HARTFORD","-72.695976","41.740288","POINT (-72.695976 41.740288)"
"64989","C-TOWN SUPERMARKET","165 Wethersfield Ave",,"Hartford","CT","06114","1114","HARTFORD","-72.674026","41.751217","POINT (-72.674026 41.751217)"
"54855","CVS Pharmacy 1183","777 Main St",,"Hartford","CT","06103",,"HARTFORD","-72.673325","41.765961","POINT (-72.673325 41.765961)"
"40370","CVS Pharmacy 1948","690 Wethersfield Ave",,"Hartford","CT","06114","1930","HARTFORD","-72.670975","41.737137","POINT (-72.670975 41.737137)"
"177742","CVS PHARMACY 350","566 Farmington Ave",,"Hartford","CT","06105","3050","HARTFORD","-72.711533","41.766251","POINT (-72.711533 41.766251)"
"210019","CVS Pharmacy 5263","150 Washington St",,"Hartford","CT","06106","4405","HARTFORD","-72.682228","41.758347","POINT (-72.682228 41.758347)"
"105772","CVS PHARMACY  840","908 Maple Ave",,"Hartford","CT","06114","2723","HARTFORD","-72.687141","41.734447","POINT (-72.687141 41.734447)"
"80528","CVS PHARMACY INC. 2099","479 Blue Hills Ave",,"Hartford","CT","06112","1514","HARTFORD","-72.695404","41.799114","POINT (-72.695404 41.799114)"
"23797","Danby's Gulf","1127 Capitol Ave",,"Hartford","CT","06106","1049","HARTFORD","-72.714912","41.759926","POINT (-72.714912 41.759926)"
"217783","Danny's Market Llc","33 Park St",,"Hartford","CT","06106","2520","HARTFORD","-72.676529","41.757053","POINT (-72.676529 41.757053)"
"234369","Davinder Mart Llc n/a","3250 Main St",,"Hartford","CT","06120","1133","HARTFORD","-72.662804","41.795761","POINT (-72.662804 41.795761)"
"244412","DB Mart","894 Maple Ave",,"Hartford","CT","06114","2331","HARTFORD","-72.686501","41.735012","POINT (-72.686501 41.735012)"
"58070","DIBACCO ITALIAN IMPORTS","553 Franklin Ave",,"Hartford","CT","06114","3019","HARTFORD","-72.674675","41.733574","POINT (-72.674675 41.733574)"
"157151","Dollar General 15316","281 Barbour St",,"Hartford","CT","06120","1705","HARTFORD","-72.678162","41.793274","POINT (-72.678162 41.793274)"
"12754","Dollar General Store 16704","649 Wethersfield Ave",,"Hartford","CT","06114","1928","HARTFORD","-72.671394","41.73819","POINT (-72.671394 41.73819)"
"106638","DOLLAR TREE 3583","495 William Shorty Campbell St",,"Hartford","CT","06106","3401","HARTFORD","-72.709801","41.741337","POINT (-72.709801 41.741337)"
"69259","Dollar Tree 7210","1200 Park St","Ste E","Hartford","CT","06106",,"HARTFORD","-72.697601","41.758339","POINT (-72.697601 41.758339)"
"237056","Dollar Tree 9016","315 Franklin Ave",,"Hartford","CT","06114","1851","HARTFORD","-72.676636","41.741692","POINT (-72.676636 41.741692)"
"231511","Edward Grocery Llc","651 Albany Ave",,"Hartford","CT","06112","2334","HARTFORD","-72.687569","41.778465","POINT (-72.687569 41.778465)"
"30000","El Comerio Grocery","307 Zion St",,"Hartford","CT","06106","3032","HARTFORD","-72.693916","41.749722","POINT (-72.693916 41.749722)"
"17283","El Morro Supermarket","158 Hillside Ave",,"Hartford","CT","06106","3526","HARTFORD","-72.698036","41.748547","POINT (-72.698036 41.748547)"
"59517","El Patio Groceries Deli","152 Franklin Ave",,"Hartford","CT","06114","1332","HARTFORD","-72.676826","41.747417","POINT (-72.676826 41.747417)"
"20629","Enax Supermarket","178 Ashley St",,"Hartford","CT","06105","1309","HARTFORD","-72.695045","41.775108","POINT (-72.695045 41.775108)"
"69396","ERNIE'S MARKET, LLC","236 Albany Ave",,"Hartford","CT","06120","2806","HARTFORD","-72.680519","41.776249","POINT (-72.680519 41.776249)"
"176599","Europas Llc","623 Franklin Ave",,"Hartford","CT","06114","3026","HARTFORD","-72.674217","41.730919","POINT (-72.674217 41.730919)"
"2921","Express Food Shop","614 Asylum Ave",,"Hartford","CT","06105","3836","HARTFORD","-72.684639","41.768749","POINT (-72.684639 41.768749)"
"174122","Family Dollar 8282","1200 Park St","Ste 3","Hartford","CT","06106","2262","HARTFORD","-72.697823","41.758377","POINT (-72.697823 41.758377)"
"48283","Family Dollar 8966","426 Park St",,"Hartford","CT","06106","1525","HARTFORD","-72.683479","41.758018","POINT (-72.683479 41.758018)"
"53071","Family Dollar 9207","615 Blue Hills Ave",,"Hartford","CT","06112","1267","HARTFORD","-72.695259","41.803535","POINT (-72.695259 41.803535)"
"141303","Family Dollar Store 5055","190 Farmington Ave",,"Hartford","CT","06105","3602","HARTFORD","-72.694054","41.767849","POINT (-72.694054 41.767849)"
"141307","Family Dollar Store 5565","1870 Main St","Ste 1","Hartford","CT","06120","2360","HARTFORD","-72.676094","41.780193","POINT (-72.676094 41.780193)"
"141309","Family Dollar Store 5589","435 Franklin Ave",,"Hartford","CT","06114","2517","HARTFORD","-72.675415","41.737514","POINT (-72.675415 41.737514)"
"104588","Farmers Market at Billings Forge","563 Broad St",,"Hartford","CT","06106","1402","HARTFORD","-72.686844","41.761795","POINT (-72.686844 41.761795)"
"111966","Farmington Avenue Grocery & Deli","302 Farmington Ave",,"Hartford","CT","06105","3302","HARTFORD","-72.699081","41.76796","POINT (-72.699081 41.76796)"
"161928","Fida's Mini Market","73 Hillside Ave",,"Hartford","CT","06106","3001","HARTFORD","-72.697731","41.751385","POINT (-72.697731 41.751385)"
"39663","Flatbush Market","273 Hillside Ave",,"Hartford","CT","06106","3535","HARTFORD","-72.698357","41.744488","POINT (-72.698357 41.744488)"
"131941","Four Corners Market","139 Brook St",,"Hartford","CT","06120","2501","HARTFORD","-72.682877","41.779751","POINT (-72.682877 41.779751)"
"230280","FreshPoint Connecticut 225","105 Reserve Rd",,"Hartford","CT","06114","1686","HARTFORD","-72.656281","41.747845","POINT (-72.656281 41.747845)"
"123355","Friendly Food Mart","867 Wethersfield Ave",,"Hartford","CT","06114","3126","HARTFORD","-72.66993","41.732254","POINT (-72.66993 41.732254)"
"48590","Green Grocery Llc","57 Fairmount St",,"Hartford","CT","06120","2616","HARTFORD","-72.681511","41.77747","POINT (-72.681511 41.77747)"
"69075","Hartford F.L.  Roberts 06001","140 Weston St",,"Hartford","CT","06120","1512","HARTFORD","-72.661301","41.790405","POINT (-72.661301 41.790405)"
"247526","Hartford Food Mart","901 Main St",,"Hartford","CT","06103","1203","HARTFORD","-72.673592","41.767639","POINT (-72.673592 41.767639)"
"126193","Hartford Mobile Market","190 Wethersfield Ave",,"Hartford","CT","06114","1113","HARTFORD","-72.673874","41.750633","POINT (-72.673874 41.750633)"
"243903","Hartford Xpressmart","519 Farmington Ave",,"Hartford","CT","06105","3105","HARTFORD","-72.709023","41.766068","POINT (-72.709023 41.766068)"
"75669","HC Investments LLC/Alegria Grocery","4 Martin St",,"Hartford","CT","06120","2025","HARTFORD","-72.681129","41.785809","POINT (-72.681129 41.785809)"
"236970","Herrera Grocery","1081 Capitol Ave",,"Hartford","CT","06106","1016","HARTFORD","-72.713264","41.759911","POINT (-72.713264 41.759911)"
"17567","Homestead Farmers Market","255 Homestead Ave",,"Hartford","CT","06112","2392","HARTFORD","-72.697197","41.778404","POINT (-72.697197 41.778404)"
"18287","J & D Grocery Llc","1053 Capitol Ave",,"Hartford","CT","06106","1015","HARTFORD","-72.712227","41.760082","POINT (-72.712227 41.760082)"
"220384","Jr Supermarket 2","224 Capen St",,"Hartford","CT","06112","1901","HARTFORD","-72.683228","41.78616","POINT (-72.683228 41.78616)"
"58257","Jr Supermarket Llc","194 Westland St",,"Hartford","CT","06120","1837","HARTFORD","-72.680725","41.791191","POINT (-72.680725 41.791191)"
"245382","J & S Market","859 Albany Ave",,"Hartford","CT","06112","2308","HARTFORD","-72.690964","41.779812","POINT (-72.690964 41.779812)"
"16599","Julian's Grocery","513 Park St",,"Hartford","CT","06106","1518","HARTFORD","-72.685249","41.757824","POINT (-72.685249 41.757824)"
"207574","KIEN COMPANY, INC","1801 Park St",,"Hartford","CT","06106","2121","HARTFORD","-72.708504","41.756779","POINT (-72.708504 41.756779)"
"194085","La Parada Market Rd","432 New Britain Ave",,"Hartford","CT","06106","3832","HARTFORD","-72.697136","41.739628","POINT (-72.697136 41.739628)"
"177850","LAST STOP MARKET","427 Wethersfield Ave",,"Hartford","CT","06114","1416","HARTFORD","-72.673035","41.744164","POINT (-72.673035 41.744164)"
"199932","Los Primos Grocery","452 Franklin Ave",,"Hartford","CT","06114","2943","HARTFORD","-72.675194","41.736931","POINT (-72.675194 41.736931)"
"21594","M&a Convenience Store","275 High St",,"Hartford","CT","06103","1009","HARTFORD","-72.677376","41.772953","POINT (-72.677376 41.772953)"
"248957","Mania Food Mart","706 Albany Ave",,"Hartford","CT","06112","4503","HARTFORD","-72.688225","41.779045","POINT (-72.688225 41.779045)"
"29036","Mario Grocery","252 Farmington Ave",,"Hartford","CT","06105","3501","HARTFORD","-72.696732","41.767765","POINT (-72.696732 41.767765)"
"184859","MARTINEZ MINI MARKET","110 South St",,"Hartford","CT","06114","2904","HARTFORD","-72.675903","41.735367","POINT (-72.675903 41.735367)"
"166325","Maruti Mart Inc","125 Weston St",,"Hartford","CT","06120","1511","HARTFORD","-72.662598","41.789749","POINT (-72.662598 41.789749)"
"117921","Melo Mini Market","517 Albany Ave",,"Hartford","CT","06120","2507","HARTFORD","-72.68541","41.777794","POINT (-72.68541 41.777794)"
"144786","Melo Mini Market","880 Park St",,"Hartford","CT","06106","2330","HARTFORD","-72.691902","41.758408","POINT (-72.691902 41.758408)"
"44375","Mikes WI American Grocery","451 Wethersfield Ave",,"Hartford","CT","06114","1933","HARTFORD","-72.672882","41.743359","POINT (-72.672882 41.743359)"
"237068","Mini Mart","477 Wethersfield Ave",,"Hartford","CT","06114","1933","HARTFORD","-72.672691","41.742672","POINT (-72.672691 41.742672)"
"96137","Min Min Myanmar Market 001","881A New Britain Ave",,"Hartford","CT","06106","3941","HARTFORD","-72.712852","41.731884","POINT (-72.712852 41.731884)"
"56037","MOBIL ON THE RUN","234 Washington St",,"Hartford","CT","06106","3316","HARTFORD","-72.682625","41.755116","POINT (-72.682625 41.755116)"
"241244","Mori Grocery","463A Franklin Ave",,"Hartford","CT","06114","2909","HARTFORD","-72.675247","41.736591","POINT (-72.675247 41.736591)"
"237035","Msd Supermarket","198 Farmington Ave",,"Hartford","CT","06105","3602","HARTFORD","-72.694321","41.768005","POINT (-72.694321 41.768005)"
"120689","My Food Market 3","65 Madison Ave",,"Hartford","CT","06106","2019","HARTFORD","-72.711365","41.753593","POINT (-72.711365 41.753593)"
"186815","NBA Super Deli 1","99 New Britain Ave",,"Hartford","CT","06106","3308","HARTFORD","-72.68634","41.745617","POINT (-72.68634 41.745617)"
"48237","New York Deli & Market","1 Constitution Plz",,"Hartford","CT","06103","1803","HARTFORD","-72.66954","41.76564","POINT (-72.66954 41.76564)"
"38628","Nicolas Grocery","2 Baldwin St",,"Hartford","CT","06114","3001","HARTFORD","-72.67804","41.734905","POINT (-72.67804 41.734905)"
"158717","NMD LLC","351 Woodland St",,"Hartford","CT","06112","2150","HARTFORD","-72.697693","41.778984","POINT (-72.697693 41.778984)"
"232334","North End Farmers Market","80 Coventry St",,"Hartford","CT","06112","1519","HARTFORD","-72.690018","41.798611","POINT (-72.690018 41.798611)"
"148436","North Family Life Center - PZC Farmers Market","425 Woodland Street",,"Hartford","CT","06112",,"HARTFORD","-72.696571","41.781368","POINT (-72.696571 41.781368)"
"25614","Nunez Mini Market LLC","679 Blue Hills Ave",,"Hartford","CT","06112","1209","HARTFORD","-72.695618","41.805847","POINT (-72.695618 41.805847)"
"189782","On The Go","33 Charter Oak Ave",,"Hartford","CT","06106","1801","HARTFORD","-72.674103","41.759426","POINT (-72.674103 41.759426)"
"17630","Paradise Supermarket","1480 Albany Ave",,"Hartford","CT","06112","2113","HARTFORD","-72.701286","41.783752","POINT (-72.701286 41.783752)"
"248432","Park Gas And Food","1620 Park St",,"Hartford","CT","06106","2131","HARTFORD","-72.705727","41.757637","POINT (-72.705727 41.757637)"
"75915","People's Plaza","1631 Main St",,"Hartford","CT","06120","2722","HARTFORD","-72.676537","41.776646","POINT (-72.676537 41.776646)"
"200884","Pride HF","10 Jennings Rd",,"Hartford","CT","06120","1602","HARTFORD","-72.66127","41.788849","POINT (-72.66127 41.788849)"
"11729","Rainbow Variety Store","1129 Albany Ave",,"Hartford","CT","06112","2315","HARTFORD","-72.695396","41.78178","POINT (-72.695396 41.78178)"
"39512","Ramirez Grocery","1978 Main St",,"Hartford","CT","06120","2314","HARTFORD","-72.675964","41.781715","POINT (-72.675964 41.781715)"
"109622","R & D Service Center Food Mart","550 Albany Ave",,"Hartford","CT","06112","2301","HARTFORD","-72.685982","41.778072","POINT (-72.685982 41.778072)"
"48207","Rodriguez Market","216 Hamilton St",,"Hartford","CT","06106","2957","HARTFORD","-72.702934","41.753929","POINT (-72.702934 41.753929)"
"206017","ROMNY MINI MARKET","1892 Broad St",,"Hartford","CT","06114","1709","HARTFORD","-72.687187","41.74115","POINT (-72.687187 41.74115)"
"197174","Sam's Food Store 1042","472 Farmington Ave",,"Hartford","CT","06105","4423","HARTFORD","-72.706802","41.767345","POINT (-72.706802 41.767345)"
"83192","Sams Food Stores","675 Wethersfield Ave",,"Hartford","CT","06114","1929","HARTFORD","-72.671188","41.737476","POINT (-72.671188 41.737476)"
"39743","Sams Food Stores 1036","106 Sisson Ave",,"Hartford","CT","06106","1158","HARTFORD","-72.706543","41.760925","POINT (-72.706543 41.760925)"
"55086","San Pedro Grocery","177 Albany Ave",,"Hartford","CT","06120","2805","HARTFORD","-72.679901","41.775635","POINT (-72.679901 41.775635)"
"129733","Save A Lot 824","1888 Main St",,"Hartford","CT","06120","2357","HARTFORD","-72.675453","41.780689","POINT (-72.675453 41.780689)"
"150074","Shc Meat Market Corp./Sigourney Market","97 Ashley St",,"Hartford","CT","06105","1460","HARTFORD","-72.69136","41.774223","POINT (-72.69136 41.774223)"
"192378","Sky Grocery","593 Broad St",,"Hartford","CT","06106","4620","HARTFORD","-72.68708","41.761337","POINT (-72.68708 41.761337)"
"143400","SOL DE BORINQUEN","711 Park St",,"Hartford","CT","06106","4613","HARTFORD","-72.688789","41.758072","POINT (-72.688789 41.758072)"
"58905","STOP & SHOP 634","150 New Park Ave",,"Hartford","CT","06106","2159","HARTFORD","-72.709244","41.752628","POINT (-72.709244 41.752628)"
"15576","Tejeda Grocery Store Inc","148 Woodland St",,"Hartford","CT","06105","1215","HARTFORD","-72.698517","41.776928","POINT (-72.698517 41.776928)"
"64654","The Greenway Market","71 Asylum St",,"Hartford","CT","06103","2213","HARTFORD","-72.674484","41.766811","POINT (-72.674484 41.766811)"
"68562","Walgreens 18969","1291 Albany Ave",,"Hartford","CT","06112","2198","HARTFORD","-72.698181","41.782837","POINT (-72.698181 41.782837)"
"21250","WALGREENS 3827","161 Washington St",,"Hartford","CT","06106","2464","HARTFORD","-72.682457","41.757317","POINT (-72.682457 41.757317)"
"247411","Wallys Deli And Grill Llc","795 Park St",,"Hartford","CT","06106","2331","HARTFORD","-72.690422","41.757965","POINT (-72.690422 41.757965)"
"71891","Walmart 5095","495 Flatbush Ave",,"Hartford","CT","06106","3601","HARTFORD","-72.712273","41.742535","POINT (-72.712273 41.742535)"
"231068","West End Farmers Market","385 Farmington Ave","CLEMENS GREEN","Hartford","CT","06105","4419","HARTFORD","-72.704399","41.767075","POINT (-72.704399 41.767075)"
"84576","White Hill Market Convenience","237 White St",,"Hartford","CT","06106","4369","HARTFORD","-72.69696","41.734489","POINT (-72.69696 41.734489)"
"248764","Wichy Grocery","720 Broad St",,"Hartford","CT","06106","4665","HARTFORD","-72.686897","41.759682","POINT (-72.686897 41.759682)"
"86693","WILLIAMS GROCERY & DELI","247 Sigourney St",,"Hartford","CT","06105","1533","HARTFORD","-72.692505","41.774353","POINT (-72.692505 41.774353)"
"105970","WOODLAND FISH MARKET","326 Sargeant St",,"Hartford","CT","06105","1328","HARTFORD","-72.697044","41.77668","POINT (-72.697044 41.77668)"
"247193","Woodlawn 1","888 New Britain Ave",,"Hartford","CT","06106","3921","HARTFORD","-72.713173","41.732159","POINT (-72.713173 41.732159)"
"10429","WORLD FISH OF HARTFORD LLC","3155 Main St",,"Hartford","CT","06120","1400","HARTFORD","-72.664337","41.794418","POINT (-72.664337 41.794418)"
"145399","Rahimllc( Sunoco Gas Station )","207 Birge Park Rd",,"Harwinton","CT","06791","1908","LITCHFIELD","-73.072159","41.784077","POINT (-73.072159 41.784077)"
"19246","Country Farms","41 Main St",,"Hebron","CT","06248","1539","TOLLAND","-72.362648","41.659065","POINT (-72.362648 41.659065)"
"117857","Country Farms","277 Church Street",,"Hebron","CT","06248",,"TOLLAND","-72.355011","41.640972","POINT (-72.355011 41.640972)"
"100531","CVS 10130","110 Main St",,"Hebron","CT","06248","1518","TOLLAND","-72.358749","41.660091","POINT (-72.358749 41.660091)"
"74594","Route 66 Xtra Mart 10057","70 Main St",,"Hebron","CT","06248",,"TOLLAND","-72.360458","41.65963","POINT (-72.360458 41.65963)"
"58930","TED'S MARKET","127 Main St",,"Hebron","CT","06248","1546","TOLLAND","-72.354111","41.661064","POINT (-72.354111 41.661064)"
"31336","Express Food Mart A8","110 Saybrook Rd",,"Higganum","CT","06441","4101","MIDDLESEX","-72.573822","41.503777","POINT (-72.573822 41.503777)"
"113835","Higganum Village Market","311 Saybrook Rd",,"Higganum","CT","06441","4106","MIDDLESEX","-72.557747","41.496513","POINT (-72.557747 41.496513)"
"36967","Higganum Village Market","311 Saybrook Rd",,"Higganum","CT","06441","4106","MIDDLESEX","-72.557907","41.496815","POINT (-72.557907 41.496815)"
"124767","3 Star Enterprise LLC","7 Main St",,"Jewett City","CT","06351","2203","NEW LONDON","-71.984657","41.604752","POINT (-71.984657 41.604752)"
"9485","Aldi 45","175 River Rd",,"Jewett City","CT","06351","3253","NEW LONDON","-71.994186","41.58485","POINT (-71.994186 41.58485)"
"221723","Chuckys","107 River Rd",,"Jewett City","CT","06351","3037","NEW LONDON","-71.991005","41.591003","POINT (-71.991005 41.591003)"
"234539","City Food Mart No","69 N Main St","Ste B","Jewett City","CT","06351","2075","NEW LONDON","-71.980072","41.609081","POINT (-71.980072 41.609081)"
"111539","COUNTRY FARMS / Shankar LLC","66 Main St",,"Jewett City","CT","06351","2226","NEW LONDON","-71.982155","41.606083","POINT (-71.982155 41.606083)"
"44328","Henny Penny-LISBON 56","114 River Rd",,"Jewett City","CT","06351","3025","NEW LONDON","-71.990936","41.59024","POINT (-71.990936 41.59024)"
"232189","Lisbon Quick Mart","102 River Rd",,"Jewett City","CT","06351","3025","NEW LONDON","-71.989021","41.591549","POINT (-71.989021 41.591549)"
"20650","Pcg Market","136 Preston Rd",,"Jewett City","CT","06351","2631","NEW LONDON","-71.975822","41.589314","POINT (-71.975822 41.589314)"
"129167","Target 2433","195 River Rd",,"Jewett City","CT","06351","3253","NEW LONDON","-71.996017","41.583591","POINT (-71.996017 41.583591)"
"149861","Walgreens 19244","27 Main St",,"Jewett City","CT","06351","2203","NEW LONDON","-71.983223","41.605259","POINT (-71.983223 41.605259)"
"125866","CVS PHARMACY  2119","1055 Farmington Ave",,"Kensington","CT","06037","2244","HARTFORD","-72.760101","41.630909","POINT (-72.760101 41.630909)"
"214039","DAVIS IGA, INC","27 Kent Green Blvd",,"Kent","CT","06757","1501","LITCHFIELD","-73.472511","41.727055","POINT (-73.472511 41.727055)"
"103165","STOP & SHOP 697","1094 Killingly Commons",,"Killingly","CT","06241","2187","WINDHAM","-71.882484","41.841343","POINT (-71.882484 41.841343)"
"157708","Killingworth Country Market","256 Route 81","Ste 1","Killingworth","CT","06419","1261","MIDDLESEX","-72.565819","41.35928","POINT (-72.565819 41.35928)"
"216045","Catalina's Asian Groceries","740 Colonel Ledyard Hwy",,"Ledyard","CT","06339","1541","NEW LONDON","-72.014488","41.442051","POINT (-72.014488 41.442051)"
"20603","Ledyard Citgo","1949 Center Groton Rd",,"Ledyard","CT","06339","1644","NEW LONDON","-72.01461","41.43684","POINT (-72.01461 41.43684)"
"90757","LEDYARD VILLAGE MARKET","733 Colonel Ledyard Hwy",,"Ledyard","CT","06339","1511","NEW LONDON","-72.016716","41.441219","POINT (-72.016716 41.441219)"
"32453","Pumpkin Hill Marketplace","126C Gallup Hill Rd",,"Ledyard","CT","06339","1612","NEW LONDON","-71.982773","41.430237","POINT (-71.982773 41.430237)"
"58086","BETTER VALU #1 001","99 River Rd",,"Lisbon","CT","06351","3036","NEW LONDON","-71.991074","41.591991","POINT (-71.991074 41.591991)"
"47615","Walmart SUPERCENTER 2854","180 River Rd",,"Lisbon","CT","06351","3249","NEW LONDON","-71.994408","41.584579","POINT (-71.994408 41.584579)"
"185273","CVS PHARMACY  135","266 West St",,"Litchfield","CT","06759","3404","LITCHFIELD","-73.201111","41.745914","POINT (-73.201111 41.745914)"
"48032","Litchfield Prime Meats & Provisions LLC","205 East St",,"Litchfield","CT","06759","3604","LITCHFIELD","-73.179451","41.747292","POINT (-73.179451 41.747292)"
"137971","Ocean State Job Lot 332","331 West St",,"Litchfield","CT","06759","3406","LITCHFIELD","-73.203102","41.745422","POINT (-73.203102 41.745422)"
"48559","Stop & Shop 2616","55 Village Green Dr",,"Litchfield","CT","06759","3419","LITCHFIELD","-73.20134","41.745445","POINT (-73.20134 41.745445)"
"83370","Walgreens 19134","331 West St",,"Litchfield","CT","06759","3406","LITCHFIELD","-73.203125","41.745457","POINT (-73.203125 41.745457)"
"163489","Cumberland Farms, Inc 4735","633 Boston Post Rd",,"Madison","CT","06443","3080","NEW HAVEN","-72.597496","41.279438","POINT (-72.597496 41.279438)"
"140914","CVS Pharmacy 388","613 Boston Post Rd",,"Madison","CT","06443","3080","NEW HAVEN","-72.598259","41.279385","POINT (-72.598259 41.279385)"
"219107","Henny Penny-MADISON 37","646 Boston Post Rd",,"Madison","CT","06443","3045","NEW HAVEN","-72.597275","41.279408","POINT (-72.597275 41.279408)"
"60431","ROBERTS FOOD CENTER","514 Old Toll Rd",,"Madison","CT","06443","1822","NEW HAVEN","-72.63224","41.360691","POINT (-72.63224 41.360691)"
"27796","STOP & SHOP 624","136 Samson Rock Dr",,"Madison","CT","06443","3018","NEW HAVEN","-72.596062","41.278618","POINT (-72.596062 41.278618)"
"100533","7-ELEVEN 15836-F","253 Main St",,"Manchester","CT","06042","3539","HARTFORD","-72.523445","41.784557","POINT (-72.523445 41.784557)"
"208786","7-Eleven 32514L","706 Main St",,"Manchester","CT","06040","5106","HARTFORD","-72.52182","41.772854","POINT (-72.52182 41.772854)"
"5978","Aiza Llc","436 Center St",,"Manchester","CT","06040","3968","HARTFORD","-72.538361","41.772888","POINT (-72.538361 41.772888)"
"159911","Alltown Manchester 118","1527 Pleasant Valley Rd",,"Manchester","CT","06042","8763","HARTFORD","-72.555862","41.805973","POINT (-72.555862 41.805973)"
"106086","AMG Retail I 566","318 Adams St",,"Manchester","CT","06042","2759","HARTFORD","-72.550217","41.784897","POINT (-72.550217 41.784897)"
"104075","ARH LLC","352 Main St",,"Manchester","CT","06040","4122","HARTFORD","-72.522415","41.781296","POINT (-72.522415 41.781296)"
"16069","Ayaan Food & Fuel","220 Spruce St",,"Manchester","CT","06040","6162","HARTFORD","-72.5159","41.768707","POINT (-72.5159 41.768707)"
"242318","Bd Food Mart","93 Wells St",,"Manchester","CT","06040","6126","HARTFORD","-72.516014","41.766212","POINT (-72.516014 41.766212)"
"101997","Best Gas","134 Tolland Tpke",,"Manchester","CT","06042","1738","HARTFORD","-72.511551","41.812893","POINT (-72.511551 41.812893)"
"48247","Big Lots 5147","1470 Pleasant Valley Rd",,"Manchester","CT","06042","8764","HARTFORD","-72.560555","41.804527","POINT (-72.560555 41.804527)"
"62802","Big Y Supermarkets 45","234 Tolland Tpke",,"Manchester","CT","06042","1744","HARTFORD","-72.516571","41.810493","POINT (-72.516571 41.810493)"
"124735","BJ's Wholesale Club 184","1046 Tolland Tpke",,"Manchester","CT","06042","1655","HARTFORD","-72.547035","41.795944","POINT (-72.547035 41.795944)"
"248679","Bogner Meats Manchester","349 Wetherell St",,"Manchester","CT","06040","6349","HARTFORD","-72.55407","41.759064","POINT (-72.55407 41.759064)"
"118767","Buckland Street Xtra Mart 10006","95 Buckland St",,"Manchester","CT","06042","8792","HARTFORD","-72.550774","41.799126","POINT (-72.550774 41.799126)"
"25326","Citgo","116 Center St",,"Manchester","CT","06040","5005","HARTFORD","-72.523918","41.774612","POINT (-72.523918 41.774612)"
"169904","Country Farm","269 E Center St",,"Manchester","CT","06040","5209","HARTFORD","-72.511269","41.777622","POINT (-72.511269 41.777622)"
"37584","Coventry Farms Dairy Store","793 Main St",,"Manchester","CT","06040","6075","HARTFORD","-72.520958","41.771214","POINT (-72.520958 41.771214)"
"208060","Ct Oil, Llc","270 Middle Tpke W",,"Manchester","CT","06040","3842","HARTFORD","-72.535744","41.781445","POINT (-72.535744 41.781445)"
"219539","Cumberland Farms 4757","3 Middle Tpke E",,"Manchester","CT","06040","4249","HARTFORD","-72.523018","41.783398","POINT (-72.523018 41.783398)"
"60662","CVS Pharmacy 10316","1221 Main St",,"Manchester","CT","06040","6027","HARTFORD","-72.520393","41.76516","POINT (-72.520393 41.76516)"
"105643","CVS PHARMACY  1910","260 N Main St",,"Manchester","CT","06042","2004","HARTFORD","-72.526627","41.794949","POINT (-72.526627 41.794949)"
"141699","CVS Pharmacy 4436","241 Middle Tpke E",,"Manchester","CT","06040","4205","HARTFORD","-72.51194","41.783695","POINT (-72.51194 41.783695)"
"32826","Desi Grocery & Halal Meat","824 Main St",,"Manchester","CT","06040","6046","HARTFORD","-72.521202","41.771091","POINT (-72.521202 41.771091)"
"110872","Dollar General 14622","116 East Center St",,"Manchester","CT","06040",,"HARTFORD","-72.518875","41.776394","POINT (-72.518875 41.776394)"
"160832","Dollar General 21192","335 Center St",,"Manchester","CT","06040","3922","HARTFORD","-72.533783","41.772575","POINT (-72.533783 41.772575)"
"240186","Dollar General 22895","120 Spencer Street",,"Manchester","CT","06040",,"HARTFORD","-72.565849","41.767384","POINT (-72.565849 41.767384)"
"106623","DOLLAR TREE 3168","348 Middle Tpke W",,"Manchester","CT","06040","3838","HARTFORD","-72.539597","41.780804","POINT (-72.539597 41.780804)"
"3249","Dollar Tree 4515","1448 Pleasant Valley Rd",,"Manchester","CT","06042","8761","HARTFORD","-72.560997","41.804409","POINT (-72.560997 41.804409)"
"27474","Ez Mart","460 Oakland St",,"Manchester","CT","06042","2121","HARTFORD","-72.517288","41.808899","POINT (-72.517288 41.808899)"
"141299","Family Dollar Store 4420","261 Broad St",,"Manchester","CT","06040","4037","HARTFORD","-72.534515","41.780209","POINT (-72.534515 41.780209)"
"58927","HIGHLAND PARK MARKET INC 1483","317 Highland St",,"Manchester","CT","06040","5600","HARTFORD","-72.491066","41.766087","POINT (-72.491066 41.766087)"
"42622","Krauszers Food Store","305 Green Rd",,"Manchester","CT","06042","3247","HARTFORD","-72.507637","41.790962","POINT (-72.507637 41.790962)"
"110107","Maganti Oil Energy, Inc 1","240 Middle Tpke W",,"Manchester","CT","06040","4023","HARTFORD","-72.534653","41.781742","POINT (-72.534653 41.781742)"
"975","Majida Foodmart","55 Oakland St",,"Manchester","CT","06042","2363","HARTFORD","-72.521393","41.795597","POINT (-72.521393 41.795597)"
"104072","Manchester Express","385 Main St",,"Manchester","CT","06040","4133","HARTFORD","-72.52108","41.779755","POINT (-72.52108 41.779755)"
"29721","Manchester High Mart","252 Spencer St",,"Manchester","CT","06040","4618","HARTFORD","-72.571777","41.766644","POINT (-72.571777 41.766644)"
"136875","Manchester Quick Mart","262 Oakland St",,"Manchester","CT","06042","2123","HARTFORD","-72.5186","41.802254","POINT (-72.5186 41.802254)"
"126893","Naa Addy Enterprises","4 S Main St",,"Manchester","CT","06040","6563","HARTFORD","-72.520493","41.76442","POINT (-72.520493 41.76442)"
"239379","Northwest Park Farmers Market","448 Tolland Tpke",,"Manchester","CT","06042","1765","HARTFORD","-72.524376","41.805229","POINT (-72.524376 41.805229)"
"25732","Ocean State Job Lot 312","205 Spencer St",,"Manchester","CT","06040","4617","HARTFORD","-72.570267","41.766899","POINT (-72.570267 41.766899)"
"133502","Patel Foods","171 Spencer St","Unit E","Manchester","CT","06040","4602","HARTFORD","-72.568245","41.767147","POINT (-72.568245 41.767147)"
"137293","Pop's Corner Store","129 Spruce St",,"Manchester","CT","06040","5363","HARTFORD","-72.516113","41.772034","POINT (-72.516113 41.772034)"
"94838","Quick Stop","555 Middle Tpke W",,"Manchester","CT","06040","2728","HARTFORD","-72.549896","41.78109","POINT (-72.549896 41.78109)"
"219340","Sai Foods","1137 Tolland Tpke",,"Manchester","CT","06042","1653","HARTFORD","-72.55307","41.796612","POINT (-72.55307 41.796612)"
"13506","Shell Food Mart","161 Tolland Tpke",,"Manchester","CT","06042","1762","HARTFORD","-72.512047","41.812687","POINT (-72.512047 41.812687)"
"15649","SHOPRITE OF MANCHESTER","214 Spencer St",,"Manchester","CT","06040","4618","HARTFORD","-72.569633","41.766899","POINT (-72.569633 41.766899)"
"58262","STOP & SHOP 689","286 Broad St",,"Manchester","CT","06040","4034","HARTFORD","-72.534363","41.779289","POINT (-72.534363 41.779289)"
"85862","TARGET 1249","125 Buckland Hills Dr",,"Manchester","CT","06042","8701","HARTFORD","-72.549301","41.809238","POINT (-72.549301 41.809238)"
"22525","The Essentials Convenience Market","161 Center St",,"Manchester","CT","06040","5049","HARTFORD","-72.526131","41.774105","POINT (-72.526131 41.774105)"
"148228","The Ravians LLC - Ravi Food Mart","208 W Center St",,"Manchester","CT","06040","4855","HARTFORD","-72.544899","41.770512","POINT (-72.544899 41.770512)"
"108042","Trader Joes 563","1510 Pleasant Valley Rd",,"Manchester","CT","06042","1637","HARTFORD","-72.559296","41.804974","POINT (-72.559296 41.804974)"
"93052","WALGREENS 06654","149 Deming St",,"Manchester","CT","06042","1731","HARTFORD","-72.52523","41.813301","POINT (-72.52523 41.813301)"
"40819","WALGREENS 5407","295 Main St",,"Manchester","CT","06040","4128","HARTFORD","-72.523079","41.783115","POINT (-72.523079 41.783115)"
"176661","Walmart 1891","420 Buckland Hills Dr",,"Manchester","CT","06042","8755","HARTFORD","-72.538002","41.807854","POINT (-72.538002 41.807854)"
"78888","Xtra Mart Manchester 10071","404 Hartford Rd",,"Manchester","CT","06040",,"HARTFORD","-72.538597","41.764355","POINT (-72.538597 41.764355)"
"139811","Z Mart Of Manchester","288 Middle Tpke W",,"Manchester","CT","06040","3842","HARTFORD","-72.536217","41.780998","POINT (-72.536217 41.780998)"
"58822","7-Eleven Store 36432J","1 Dog Lane","A 102","Mansfield","CT","06268",,"TOLLAND","-72.243965","41.804844","POINT (-72.243965 41.804844)"
"39515","Cumberland Farms 4754","1660 Storrs",,"Mansfield","CT","06268","1253","TOLLAND","-72.266617","41.827606","POINT (-72.266617 41.827606)"
"159834","Dollar General 15227","591 Middle Turnpike",,"Mansfield","CT","06268",,"TOLLAND","-72.269936","41.82608","POINT (-72.269936 41.82608)"
"15040","Big Y Supermarkets 34","141B Storrs Rd",,"Mansfield Center","CT","06250","1638","TOLLAND","-72.198235","41.738087","POINT (-72.198235 41.738087)"
"240703","Bestway","24 Portland Rd",,"Marlborough","CT","06447","1301","HARTFORD","-72.488884","41.646626","POINT (-72.488884 41.646626)"
"34831","Big Y World Class Market 109","7 E Hampton Rd",,"Marlborough","CT","06447","1402","HARTFORD","-72.46035","41.630386","POINT (-72.46035 41.630386)"
"156352","550 Food Mart Llc","550 Broad St","Unit 2","Meriden","CT","06450","5625","NEW HAVEN","-72.791275","41.534698","POINT (-72.791275 41.534698)"
"226571","7-eleven 33206b 33206","329 Chamberlain Hwy",,"Meriden","CT","06451","2853","NEW HAVEN","-72.814423","41.549465","POINT (-72.814423 41.549465)"
"28558","AB CONVENIENCE STORE","269 Main St",,"Meriden","CT","06451","5058","NEW HAVEN","-72.83532","41.519875","POINT (-72.83532 41.519875)"
"159526","AH Convenience Store","334A Liberty St",,"Meriden","CT","06450","4509","NEW HAVEN","-72.785477","41.534599","POINT (-72.785477 41.534599)"
"248776","Aldi 73141","495 Chamberlain Hwy",,"Meriden","CT","06451","1800","NEW HAVEN","-72.811295","41.552063","POINT (-72.811295 41.552063)"
"18769","Amg Retail I Llc 508","54 S Broad St",,"Meriden","CT","06450","6545","NEW HAVEN","-72.802383","41.52029","POINT (-72.802383 41.52029)"
"160109","Asia Supermarket LLC","2103 N Broad St",,"Meriden","CT","06450","2414","NEW HAVEN","-72.770454","41.572571","POINT (-72.770454 41.572571)"
"16781","Big Y Supermarket 88","533 S Broad St","Ste 1","Meriden","CT","06450","6661","NEW HAVEN","-72.808739","41.508156","POINT (-72.808739 41.508156)"
"181316","Brittania Food Mart","111 Britannia St",,"Meriden","CT","06450","2288","NEW HAVEN","-72.789711","41.548885","POINT (-72.789711 41.548885)"
"57315","Brothers Mini Mart Llc","80 Cook Ave",,"Meriden","CT","06451","5502","NEW HAVEN","-72.807442","41.536015","POINT (-72.807442 41.536015)"
"133863","CARIBBEAN AMERICAN VARIETY STORE","407 Center St",,"Meriden","CT","06450","3301","NEW HAVEN","-72.793465","41.545128","POINT (-72.793465 41.545128)"
"12548","Caroline Meat Market & Seafood","310 E Main St",,"Meriden","CT","06450","5649","NEW HAVEN","-72.793129","41.533749","POINT (-72.793129 41.533749)"
"190608","COLONY MARKET LLC","640 Old Colony Rd",,"Meriden","CT","06451","7931","NEW HAVEN","-72.811729","41.522449","POINT (-72.811729 41.522449)"
"59110","Colony Street Citg 2","182 S Colony St",,"Meriden","CT","06450","5530","NEW HAVEN","-72.803787","41.533298","POINT (-72.803787 41.533298)"
"46044","Crystal Grocery Store","226 W Main St",,"Meriden","CT","06451","4030","NEW HAVEN","-72.810478","41.539013","POINT (-72.810478 41.539013)"
"133814","Cumberland Farms 4687","1087 Old Colony Rd",,"Meriden","CT","06450","2341","NEW HAVEN","-72.777397","41.571209","POINT (-72.777397 41.571209)"
"198061","CUMBERLAND FARMS 4713","937 Broad St",,"Meriden","CT","06450","3409","NEW HAVEN","-72.784706","41.544323","POINT (-72.784706 41.544323)"
"28468","CVS PHARMACY  2018","540 W Main St",,"Meriden","CT","06451","2710","NEW HAVEN","-72.822044","41.540672","POINT (-72.822044 41.540672)"
"25424","CVS Pharmacy 6807","679 Main St",,"Meriden","CT","06451","4934","NEW HAVEN","-72.848915","41.523575","POINT (-72.848915 41.523575)"
"46648","CVS PHARMACY  865","839 E Main St",,"Meriden","CT","06450","6006","NEW HAVEN","-72.775421","41.528385","POINT (-72.775421 41.528385)"
"116225","DB Supermarket Corp/C-Town Supermarket","160 Colony St",,"Meriden","CT","06451","3225","NEW HAVEN","-72.800072","41.542255","POINT (-72.800072 41.542255)"
"16260","Dollar General 19062","311 W Main St",,"Meriden","CT","06451","4046","NEW HAVEN","-72.813644","41.5397","POINT (-72.813644 41.5397)"
"153000","Dollar General 20664","66 Broad St",,"Meriden","CT","06450","6531","NEW HAVEN","-72.800652","41.523563","POINT (-72.800652 41.523563)"
"3066","DOLLAR TREE 4519","495 Chamberlain Hwy","Unit 1A","Meriden","CT","06451",,"NEW HAVEN","-72.811249","41.552052","POINT (-72.811249 41.552052)"
"209728","Express Shop","1440 E Main St",,"Meriden","CT","06450","4808","NEW HAVEN","-72.754478","41.525986","POINT (-72.754478 41.525986)"
"163995","E-Z Mart","271 E Main St",,"Meriden","CT","06450","5612","NEW HAVEN","-72.794662","41.534286","POINT (-72.794662 41.534286)"
"237115","Family 1st Convenience Store","160 W Main St",,"Meriden","CT","06451","4104","NEW HAVEN","-72.808418","41.538467","POINT (-72.808418 41.538467)"
"141311","Family Dollar Store 2265","560 W Main St",,"Meriden","CT","06451","2710","NEW HAVEN","-72.822533","41.54071","POINT (-72.822533 41.54071)"
"141322","Family Dollar Store 6036","1324 E Main St",,"Meriden","CT","06450","4865","NEW HAVEN","-72.758331","41.525692","POINT (-72.758331 41.525692)"
"107450","Fas Mart 314","1101 E Main St",,"Meriden","CT","06450","4819","NEW HAVEN","-72.767036","41.526043","POINT (-72.767036 41.526043)"
"52721","Food Bag Citgo Quik Mart 507","561 W Main St",,"Meriden","CT","06451","2709","NEW HAVEN","-72.822479","41.540787","POINT (-72.822479 41.540787)"
"134733","Fuel Plus","446 Colony St",,"Meriden","CT","06451","2052","NEW HAVEN","-72.793976","41.548382","POINT (-72.793976 41.548382)"
"238592","Gas Man","133 Chamberlain Hwy",,"Meriden","CT","06451","2831","NEW HAVEN","-72.815567","41.543591","POINT (-72.815567 41.543591)"
"159728","Grocery La Paz Llc","22 Olive St",,"Meriden","CT","06450","5762","NEW HAVEN","-72.802872","41.53347","POINT (-72.802872 41.53347)"
