"license_num","dba_indicator","business_name","business_address","note","city","state","zip_code","license_expiration","license_type","geocoded_column"
"U1856",,"TRI CENTRAL MOTORS","ROUTE 17",,"DURHAM","CT","06422","2023-01-31T00:00:00.000","USED DEALER",
"U4503","DBA","BIG JIMS","TOWN DUMP RD",,"ESSEX","CT","06426","2024-05-31T00:00:00.000","USED DEALER",
"O5997",,"ABC BUS LEASING INC","1506 30TH ST NW",,"FARIBAULT","MN","55021","2024-03-31T00:00:00.000","LEASING LICENSE","POINT (-93.288308 44.322362)"
"R7762",,"TOWN FAIR TIRE CENTERS OF CONNECTICUT LLC","1330 EAST PUTNAM AVE",,"GREENWICH","CT","06830","2022-12-31T00:00:00.000","GENERAL REPAIRER",
"U8935",,"POPS EXHAUST 3 LLC","512 AND 516 WASHINGTON ST",,"MIDDLETOWN","CT","06457","2024-03-31T00:00:00.000","USED DEALER",
"R6250","DBA","GILS","7 ROUTE 37",,"NEW FAIRFIELD","CT","06812","2023-04-30T00:00:00.000","GENERAL REPAIRER",
"U0132",,"BENWAY AND SON AUTOBODY","RT 44",,"POMFRET","CT","06258","2024-03-31T00:00:00.000","USED DEALER",
"U0466",,"SKRIPS AUTO BODY INC.","104 CHESHIRE RD RT 68",,"PROSPECT","CT","06712","2024-01-31T00:00:00.000","USED DEALER",
"J2635",,"MITCHELLS AUTO PARTS INC","450 OLD TURNPIKE RD",,"SOUTHINGTON","CT","06489","2024-04-30T00:00:00.000","RECYCLER",
"U4315",,"IMPORT AUTO LTD","805 STONINGTON RD",,"STONINGTON","CT","06378-2519","2024-07-31T00:00:00.000","USED DEALER",
"U5332",,"THOMAS AUTOMOTIVE","54A BROOKS ST",,"TORRINGTON","CT","06790","2023-06-30T00:00:00.000","USED DEALER",
"O6394","DBA","DBA VERNON CHEVROLET","175 HARTFORD TPKE AND 160 HARTFORD TPKE",,"VERNON","CT","06066","2024-03-31T00:00:00.000","LEASING LICENSE",
"U0238",,"CHICKS AUTO PARTS INC","N CHERRY ST EXT",,"WALLINGFORD","CT","06492","2024-03-31T00:00:00.000","USED DEALER",
"U4784",,"WOODYS AUTO BODY INC","GOLF LINKS RD",,"WESTBROOK","CT","06498","2024-08-31T00:00:00.000","USED DEALER",
"O1904",,"LOMBARD FORD INC","RT 44 SOUTHSIDE",,"WINSTED","CT","06098","2024-03-31T00:00:00.000","LEASING LICENSE",
"U1008","DBA","CHESBRO FLOYD E JR","5 FAIRWAY DR",,"LEDYARD","CT","06339","2023-08-31T00:00:00.000","USED DEALER","POINT (-72.011452 41.440852)"
"U8652",,"RAPLEY CLASSIC CARS LLC","500 FEDERAL RD",,"BROOKFIELD","CT","06804-2019","2022-11-30T00:00:00.000","USED DEALER","POINT (-73.407389 41.461701)"
"O6391",,"SANTANDER AUTO LEASE TITLING LTD","1601 ELM ST STE 800",,"DALLAS","TX","75201-7260","2024-03-31T00:00:00.000","LEASING LICENSE","POINT (-96.798002 32.781695)"
"O0679",,"ONEILLS CHEV BUICK INC","5 W MAIN ST",,"AVON","CT","06001","2023-03-31T00:00:00.000","LEASING LICENSE","POINT (-72.830941 41.809788)"
"N2488","DBA","DEVAN CHEVROLET BUICK OF WILTON","190 DANBURY RD",,"WILTON","CT","06897-4002","2024-06-30T00:00:00.000","NEW DEALER","POINT (-73.420387 41.184885)"
"U4437",,"RONS AUTOMOTIVE CENTER INC","22 THOMASTON RD",,"LITCHFIELD","CT","06759-2910","2024-06-30T00:00:00.000","USED DEALER","POINT (-73.116916 41.766692)"
"U7422","DBA","DBA CITY LIGHTS AUTO SALES","185 GRAND AVE",,"NEW HAVEN","CT","06513-3940","2024-07-31T00:00:00.000","USED DEALER","POINT (-72.894635 41.309059)"
"U0674",,"EDDIES BRADLEY AUTOBODY & SALES INC","42 KING SPRING RD",,"WINDSOR LOCKS","CT","06096-1137","2023-11-30T00:00:00.000","USED DEALER","POINT (-72.666933 41.945316)"
"U8390","DBA","DBA SWANSON AUTOMOTIVE","434 SHORT BEACH RD",,"EAST HAVEN","CT","06512-3821","2023-04-30T00:00:00.000","USED DEALER","POINT (-72.869824 41.265094)"
"U5348",,"HACKERS TRUCK AND EQUIPMENT REPAIR INC","225 OAKWOOD DR",,"GLASTONBURY","CT","06033-2433","2023-07-31T00:00:00.000","USED DEALER","POINT (-72.579369 41.711341)"
"R5643",,"MONRO MUFFLER BRAKE INC","201 AMITY RD",,"WOODBRIDGE","CT","06525-2204","2024-07-31T00:00:00.000","GENERAL REPAIRER","POINT (-72.981888 41.340406)"
"U6590",,"NAE INC","2 LEE MAC AVE. BUILDING B",,"DANBURY","CT","06810","2022-10-31T00:00:00.000","USED DEALER","POINT (-73.433593 41.390696)"
"R7143","DBA","SCHALLER AUTO BODY","55 56 VETERANS DR",,"NEW BRITAIN","CT","06051","2023-12-31T00:00:00.000","GENERAL REPAIRER","POINT (-72.770506 41.650858)"
"U4847",,"MAURATI AUTO BODY INC","998 BRIDGEPORT AVE",,"MILFORD","CT","06460-3143","2022-11-30T00:00:00.000","USED DEALER","POINT (-73.071766 41.215672)"
"U4798",,"JIMS MACHINE SHOP INC","475 SCHOOL ST",,"PUTNAM","CT","06260","2024-09-30T00:00:00.000","USED DEALER","POINT (-71.894337 41.924467)"
"R1824",,"FESTIS OIL SERVICE INC","101 EAST ST",,"STAFFORD SPRINGS","CT","06076-0094","2022-10-31T00:00:00.000","GENERAL REPAIRER","POINT (-72.29274 41.96798)"
"U6196",,"FAIRFIELD AUTO UPHOLSTERY INC","462 COMMERCE DR",,"FAIRFIELD","CT","06825-5542","2024-05-31T00:00:00.000","USED DEALER","POINT (-73.231055 41.16496)"
"M0536",,"FERRARI NORTH AMERICA INC","250 SYLVAN AVE",,"ENGLEWOOD CLIFFS","NJ","07632","2024-06-30T00:00:00.000","MANUFACTURER LICENSE","POINT (-73.954762 40.871582)"
"U7639",,"GARYS REPAIR AND SALES LLC","19 CHARTER AVE",,"STAFFORD SPRINGS","CT","06076-1308","2024-04-30T00:00:00.000","USED DEALER","POINT (-72.32601 41.954735)"
"M0960",,"GRAND DESIGN RV LLC","1333 COUNTY RD 2",,"MIDDLEBURY","IN","46540","2024-06-30T00:00:00.000","MANUFACTURER LICENSE",
"U5452",,"DIAMOND SPARKLE CAR WASH LLC","44 AMSTON RD",,"COLCHESTER","CT","06415-1045","2024-03-31T00:00:00.000","USED DEALER","POINT (-72.336458 41.579485)"
"U0364",,"IKES AUTO BODY INC","426 GOSHEN RD",,"TORRINGTON","CT","06790","2024-02-29T00:00:00.000","USED DEALER","POINT (-73.155333 41.821234)"
"R6154","DBA","A.O.K. AUTO REPAIR","338 NORWICH AVE",,"TAFTVILLE","CT","06280","2024-05-31T00:00:00.000","GENERAL REPAIRER","POINT (-72.047868 41.561734)"
"J2589",,"DADDIOS AUTO PARTS INC","728 DERBY AVE","BOX 905","SEYMOUR","CT","06483","2024-04-30T00:00:00.000","RECYCLER","POINT (-73.089119 41.367193)"
"J2532",,"CORONAS AUTO PARTS INC","608 WETHERSFIELD AVE",,"HARTFORD","CT","06114-1967","2024-04-30T00:00:00.000","RECYCLER","POINT (-72.671622 41.739227)"
"O0064","DBA","ENTERPRISE RENT-A-CAR","8 ELLA GRASSO TPKE",,"WINDSOR LOCKS","CT","06096-1015","2023-03-31T00:00:00.000","LEASING LICENSE","POINT (-72.673899 41.916493)"
"R6792",,"SMALL TOWN AUTO REPAIR LLC","8 BRIDGE ST",,"EAST WINDSOR","CT","06088","2023-07-31T00:00:00.000","GENERAL REPAIRER","POINT (-72.621013 41.929074)"
"R5273",,"GREENWICH AUTOMOTIVE ENTERPRISES LT","450 464 W PUTNAM AVE",,"GREENWICH","CT","06830","2023-11-30T00:00:00.000","GENERAL REPAIRER","POINT (-73.643101 41.01995)"
"O5929",,"BMW FINANCIAL SERVICES NA LLC","5550 BRITTON PKWY",,"HILLARD","OH","43026","2024-03-31T00:00:00.000","LEASING LICENSE","POINT (-83.13739 40.067667)"
"N2184","DBA","TOP OF THE HILL RV","1623 WOLCOTT RD",,"WOLCOTT","CT","06716-1326","2023-04-30T00:00:00.000","NEW DEALER","POINT (-72.963275 41.633858)"
"U7982",,"SALEM AUTO LLC","468 OLD COLCHESTER RD",,"SALEM","CT","06420-3705","2023-01-31T00:00:00.000","USED DEALER","POINT (-72.250049 41.512393)"
"U2312","DBA","SIBYLLE M ROGALLA","1 CRYSTAL LAKE RD AND","94 STAFFORD RD","ELLINGTON","CT","06029","2022-10-31T00:00:00.000","USED DEALER","POINT (-72.38433 41.929332)"
"U8537",,"CHARLIES AUTO SALES AND SERVICE LLC","1068B MAIN ST",,"WILLIMANTIC","CT","06226","2023-09-30T00:00:00.000","USED DEALER","POINT (-72.220598 41.71325)"
"R1034",,"GREENTREE MOTORS OF DANBURY INC","45 COMMERCE RD",,"BROOKFIELD","CT","06804","2023-05-31T00:00:00.000","GENERAL REPAIRER","POINT (-73.394168 41.453457)"
"O6358",,"FIRST CITIZENS BANK & TRUST COMPANY","4300 SIX FORKS RD FCC22",,"RALEIGH","NC","27609","2023-03-31T00:00:00.000","LEASING LICENSE","POINT (-78.641923 35.838829)"
"R7446",,"ROLLING MOTORS LLC","250 PORTER ST #94",,"WATERTOWN","CT","06795","2024-02-29T00:00:00.000","GENERAL REPAIRER","POINT (-73.111624 41.605541)"
"R7714","DBA","DBA PRUVEN PERFORMANCE","306R BOSTON POST RD",,"MILFORD","CT","06460-2527","2023-02-28T00:00:00.000","GENERAL REPAIRER","POINT (-73.072042 41.224039)"
"U5158",,"DAY GARAGE TRUCK AND EQUIPMENT SALE","56 MASCOLO RD",,"SOUTH WINDSOR","CT","06074-3312","2024-07-31T00:00:00.000","USED DEALER","POINT (-72.610323 41.825032)"
"U0781","DBA","KOWALKOWSKI EDWARD","86 TAYLOR ST",,"DANBURY","CT","06810-6923","2023-10-31T00:00:00.000","USED DEALER","POINT (-73.439033 41.39637)"
"R7512","DBA","DBA MIDAS ENFIELD","5 PALOMBA DRIVE",,"ENFIELD","CT","06082","2023-08-31T00:00:00.000","GENERAL REPAIRER","POINT (-72.574049 41.99785)"
"R5364",,"GILL PETROLEUM CORP","375 BOSTON AVE",,"BRIDGEPORT","CT","06610-1701","2024-06-30T00:00:00.000","GENERAL REPAIRER","POINT (-73.183478 41.20022)"
"J4149",,"PETER B CURA AND SONS INC","1460 ECHO LAKE RD",,"WATERTOWN","CT","06795-1634","2024-04-30T00:00:00.000","RECYCLER","POINT (-73.068282 41.609779)"
"R7583","DBA","DBA PEP BOYS AUTO SERVICE & TIRE","2400 GOLD STAR HWY",,"MYSTIC","CT","06355-1132","2022-09-30T00:00:00.000","GENERAL REPAIRER","POINT (-71.988776 41.3897)"
"U8394",,"CENTRAL A/S LLC","179 S MAIN ST",,"EAST WINDSOR","CT","06088-9702","2024-05-31T00:00:00.000","USED DEALER","POINT (-72.607478 41.885669)"
"U8374",,"CONTINENTAL GARAGE INC","748 N COLONY RD",,"WALLINGFORD","CT","06492-2475","2023-01-31T00:00:00.000","USED DEALER","POINT (-72.814172 41.473959)"
"U8730",,"BERLIN AUTO SALES LLC","1631 BERLIN TPKE",,"BERLIN","CT","06037-3678","2023-07-31T00:00:00.000","USED DEALER","POINT (-72.749903 41.606748)"
"U8603",,"J'S AUTO SALES AND REPAIR LLC","866 W MAIN ST",,"NEW BRITAIN","CT","06053-3431","2024-06-30T00:00:00.000","USED DEALER","POINT (-72.811851 41.667432)"
"R5988",,"RUSTY BUG RESTORATION","10 CRESTWAY",,"HAMDEN","CT","06514-1141","2023-02-28T00:00:00.000","GENERAL REPAIRER","POINT (-72.918622 41.400203)"
"U5575","DBA","BLAIR J. BINGE","5 BARTON HILL RD",,"EAST HAMPTON","CT","06424","2022-11-30T00:00:00.000","USED DEALER","POINT (-72.503913 41.574925)"
"U4903",,"CARS FOR LESS SALES AND SERVICE INC","108 RAINBOW RD",,"EAST GRANBY","CT","06026-9764","2023-03-31T00:00:00.000","USED DEALER","POINT (-72.713138 41.932659)"
"U5027",,"MAIN STREET TRANSMISSION AND REPAIRS INC","331 MAIN ST",,"MANCHESTER","CT","06040-4127","2023-10-31T00:00:00.000","USED DEALER","POINT (-72.522445 41.781817)"
"U7815",,"MANCHESTER AUTO SALES LLC","270 HARTFORD RD",,"MANCHESTER","CT","06040-5824","2023-08-31T00:00:00.000","USED DEALER","POINT (-72.532991 41.765233)"
"U1090","DBA","LAGANGA THOMAS W","612 S MAIN ST",,"TORRINGTON","CT","06790-6920","2023-07-31T00:00:00.000","USED DEALER","POINT (-73.118232 41.788135)"
"N0676","DBA","DBA THE M.J. SULLIVAN AUTOMOTIVE CORNER","452 BROAD ST",,"NEW LONDON","CT","06320-2546","2024-08-31T00:00:00.000","NEW DEALER","POINT (-72.117049 41.364149)"
"U7527",,"ARROYO AUTOBODY LLC","1546A JOHN FITCH BLVD",,"SOUTH WINDSOR","CT","06074","2023-05-31T00:00:00.000","USED DEALER","POINT (-72.599345 41.849482)"
"U8257",,"AFFORDABLE AUTO CARE LLC","154 NORWICH AVE",,"TAFTVILLE","CT","06380","2023-01-31T00:00:00.000","USED DEALER","POINT (-72.050139 41.556135)"
"U1750",,"SPARAGOS ATLANTIC SERVICE INC","113 117 QUINNIPIAC AVE",,"NORTH HAVEN","CT","06473","2023-02-28T00:00:00.000","USED DEALER","POINT (-72.863863 41.34281)"
"U5689","DBA","MODERN TIRE AND AUTO SERVICE","514 W MAIN ST",,"CHESHIRE","CT","06410-2420","2023-08-31T00:00:00.000","USED DEALER","POINT (-72.913355 41.507936)"
"R5976",,"A AND F MOHEGAN INC","101 MOHEGAN RD",,"SHELTON","CT","06484-2465","2022-12-31T00:00:00.000","GENERAL REPAIRER","POINT (-73.178395 41.304249)"
"U6261",,"P AND T GARAGE LLC","52 MAIN ST",,"TERRYVILLE","CT","06786","2022-11-30T00:00:00.000","USED DEALER","POINT (-73.000895 41.679095)"
"M0619",,"POLARIS SALES INC","2100 HIGHWAY 55",,"MEDINA","MN","55340-9770","2024-06-30T00:00:00.000","MANUFACTURER LICENSE","POINT (-93.576893 45.054922)"
"N2635",,"TASCA AUTOMOTIVE GROUP CT EAST INC","250 WEBSTER SQUARE RD",,"BERLIN","CT","06037-2353","2024-01-31T00:00:00.000","NEW DEALER","POINT (-72.743172 41.631404)"
"M0891",,"NOVAE CORPORATION","ONE NOVAE PARKWAY",,"MARKLE","IN","46770","2024-06-30T00:00:00.000","MANUFACTURER LICENSE",
"U5759",,"BOULEVARD MOTORS LLC","198 - 200 -   ELLA GRASSO BLVD",,"NEW HAVEN","CT","06519","2023-12-31T00:00:00.000","USED DEALER","POINT (-72.937044 41.287107)"
"O6230",,"WELLS FARGO VENDOR FINANCIAL SERVICES LLC","5000 RIVERSIDE DR  SUITE 300  E",,"IRVING","TX","75039","2023-03-31T00:00:00.000","LEASING LICENSE","POINT (-96.929407 32.859466)"
"U7674","DBA","SHIRLEY CORBO-DAGASTINO","21 CENTRAL GRAND AVE","UNIT 11","WALLINGFORD","CT","06492","2023-02-28T00:00:00.000","USED DEALER","POINT (-72.821573 41.469573)"
"U4251",,"RICHS CITGO III","116 MAIN ST",,"KENSINGTON","CT","06037-2639","2024-07-31T00:00:00.000","USED DEALER","POINT (-72.775138 41.631024)"
"R4805",,"ADAMCZYK ENTERPRISES INC","3 PALOMBA DR",,"ENFIELD","CT","06082-3823","2024-04-30T00:00:00.000","GENERAL REPAIRER","POINT (-72.574086 41.997916)"
"R6875",,"ONEILLS MEADOW STREET AUTOMOTIVE LL","184 KUKAS LN",,"WATERBURY","CT","06705-2629","2022-10-31T00:00:00.000","GENERAL REPAIRER","POINT (-73.005045 41.537309)"
"U6830","DBA","MIROSLAW LESZCZNSKI","907 MAPLE AVE",,"HARTFORD","CT","06114","2024-06-30T00:00:00.000","USED DEALER","POINT (-72.686947 41.734836)"
"O5897",,"EWALD FLEET SOLUTIONS LLC","1720 PARAMOUNT DR",,"WAUKESHA","WI","53186","2024-03-31T00:00:00.000","LEASING LICENSE","POINT (-88.198207 43.025436)"
"R5315",,"GEORGES GARAGE","21 2 MARTHA LN","UNITS 14 AND 15","GAYLORDSVILLE","CT","06755","2024-02-29T00:00:00.000","GENERAL REPAIRER","POINT (-73.483111 41.64068)"
"U7847",,"J AND M AUTOMOTIVE SALES AND SERVICE LLC","756 -774 NEW HAVEN RD",,"NAUGATUCK","CT","06770-5706","2024-01-31T00:00:00.000","USED DEALER","POINT (-73.043538 41.475214)"
"U8592",,"EFFECIENT AUTO LLC","45 NEWFIELD AVE",,"HARTFORD","CT","06106-3925","2024-04-30T00:00:00.000","USED DEALER","POINT (-72.713193 41.733294)"
"U7442",,"SPRING STREET AUTO LLC","56-64 SPRING ST",,"WEST HAVEN","CT","06516","2022-09-30T00:00:00.000","USED DEALER","POINT (-72.949829 41.28713)"
"R6128",,"FRANK CORZO AUTO BODY","79 LIBERTY ST",,"STAMFORD","CT","06902","2024-03-31T00:00:00.000","GENERAL REPAIRER","POINT (-73.554085 41.050881)"
"U7970",,"J AND J CAR CARE CENTER INC","1590 POST RD E",,"WESTPORT","CT","06880-5603","2022-12-31T00:00:00.000","USED DEALER","POINT (-73.308415 41.138523)"
"O6327",,"SECOND STREET LEASING LLC","315 RIGGS ST STE 7 BLDG B",,"OXFORD","CT","06478-1176","2023-03-31T00:00:00.000","LEASING LICENSE","POINT (-73.114223 41.466089)"
"U0563",,"VILLAGE VETTES INC","1123 MAIN ST",,"SOUTH GLASTONBURY","CT","06073-2111","2023-12-31T00:00:00.000","USED DEALER","POINT (-72.599176 41.673735)"
"R7698",,"B AND T AUTO LLC","609 LONG HILL RD",,"GROTON","CT","06340-4138","2024-09-30T00:00:00.000","GENERAL REPAIRER","POINT (-72.057458 41.35123)"
"O6332",,"GEORGETOWN SUBARU INC.","10 TINDALL AVE",,"NORWALK","CT","06851-3509","2024-03-31T00:00:00.000","LEASING LICENSE","POINT (-73.423142 41.125849)"
"U1575",,"HP FOREIGN AND SPORTS CAR SPC INC","311 WASHINGTON ST",,"HARTFORD","CT","06106","2023-03-31T00:00:00.000","USED DEALER","POINT (-72.682927 41.752562)"
"U1316",,"PERRY MOTORS INC","4 CENTER ST",,"SCOTLAND","CT","06264","2023-06-30T00:00:00.000","USED DEALER","POINT (-72.081664 41.6982)"
"R6579",,"POPS EXHAUST LLC","53 SLATER ST",,"MANCHESTER","CT","06040","2022-12-31T00:00:00.000","GENERAL REPAIRER","POINT (-72.534331 41.805022)"
"U6782",,"CENTURY AUTO SERVICES LLC","940 CROMWELL AVE",,"ROCKY HILL","CT","06067-3004","2024-03-31T00:00:00.000","USED DEALER","POINT (-72.677808 41.645614)"
"U8746","DBA","DBA WAYNE'S TOWNLINE SERVICE","1262 QUEEN ST",,"SOUTHINGTON","CT","06489-1236","2023-09-30T00:00:00.000","USED DEALER","POINT (-72.870673 41.650443)"
"U7256",,"WESTLUND AUTO SALES LLC","221-225-227 EVERGREEN ST",,"BRIDGEPORT","CT","06606","2023-04-30T00:00:00.000","USED DEALER","POINT (-73.190815 41.197983)"
"R5876",,"NEW ERA AUTOMOTIVE","385A SOUTH LEONARD STREET",,"WATERBURY","CT","06708","2024-02-29T00:00:00.000","GENERAL REPAIRER","POINT (-73.043191 41.534979)"
"U8888",,"PERFORMANCE PLUS DIESEL & AUTO REPAIR LLC","559 MAIN ST",,"PLYMOUTH","CT","06782-2208","2023-06-30T00:00:00.000","USED DEALER","POINT (-73.041472 41.674224)"
"R6824",,"NEW COUNTRY MOTOR CARS OF WESTPORT","80 KINGS HIGHWAY CUTOFF",,"FAIRFIELD","CT","06824-5302","2024-02-29T00:00:00.000","GENERAL REPAIRER","POINT (-73.236649 41.163619)"
"U6174",,"BOB AUDETTE INC","1095 N MAIN ST",,"DAYVILLE","CT","06241","2024-04-30T00:00:00.000","USED DEALER","POINT (-71.876671 41.84112)"
"O6392",,"CARS BY DEVANE GILL AND COMPANY LLC","2065 MAIN ST",,"BRIDGEPORT","CT","06604-2721","2024-03-31T00:00:00.000","LEASING LICENSE","POINT (-73.196748 41.191388)"
"U7211",,"OXFORD AUTOMOTIVE LLC","150 CHRISTIAN ST",,"OXFORD","CT","06478-1221","2022-12-31T00:00:00.000","USED DEALER","POINT (-73.137267 41.463149)"
"J4053",,"CHICKS AUTO PARTS INC","CENTRAL GRAND AVE",,"WALLINGFORD","CT","06492","2024-04-30T00:00:00.000","RECYCLER",
"U4505","DBA","TODD K ANDERSON","31 BRIDGEPORT AVE",,"SHELTON","CT","06484-3254","2024-05-31T00:00:00.000","USED DEALER","POINT (-73.096483 41.313049)"
"R6148",,"EUROPEAN AUTO CENTER REPAIR INC","539 WEST AVE",,"NORWALK","CT","06850-4004","2024-04-30T00:00:00.000","GENERAL REPAIRER","POINT (-73.415978 41.112704)"
"U8596",,"FAUSTOS AUTO BODY AND REPAIRS LLC","12 BRIDGE ST",,"NEW MILFORD","CT","06776-3528","2024-05-31T00:00:00.000","USED DEALER","POINT (-73.414024 41.575519)"
"U7406",,"DANBYS SERVICE STATION INC","41 HIGH ST",,"MERIDEN","CT","06450","2024-09-30T00:00:00.000","USED DEALER","POINT (-72.794558 41.533253)"
"U7299",,"UNIVERSAL MOTORS LLC","1036 W MAIN ST",,"NEW BRITAIN","CT","06053","2023-08-31T00:00:00.000","USED DEALER","POINT (-72.81819 41.668348)"
"R6074",,"MONRO MUFFLER BRAKE INC.","431 MAIN ST",,"EAST HARTFORD","CT","06118-1402","2023-10-31T00:00:00.000","GENERAL REPAIRER","POINT (-72.63998 41.751885)"
"U4368",,"D AND S AUTO BODY","121 RTE 6",,"COLUMBIA","CT","06237","2024-06-30T00:00:00.000","USED DEALER","POINT (-72.307844 41.724986)"
"R0754","DBA","COMPO SERVICE CENTER","485 POST RD E",,"WESTPORT","CT","06880-4435","2023-08-31T00:00:00.000","GENERAL REPAIRER","POINT (-73.348735 41.139803)"
"N2324",,"ED BOLLES ENT INC","121A W STAFFORD RD",,"STAFFORD SPRINGS","CT","06076","2024-07-31T00:00:00.000","NEW DEALER","POINT (-72.339686 41.970501)"
"N2097",,"DAVES RV CENTER","2 INDUSTRIAL PLAZA RD",,"DANBURY","CT","06810-4142","2024-03-31T00:00:00.000","NEW DEALER","POINT (-73.412088 41.411385)"
"J4174",,"SMM NEW ENGLAND CORPORATION","808 WASHINGTON AVE",,"NEW HAVEN","CT","06519-1825","2024-04-30T00:00:00.000","RECYCLER","POINT (-72.942532 41.290407)"
"R7502",,"NEWFIELD SERVICE LLC","62 CAMP AVE",,"STAMFORD","CT","06907","2024-01-31T00:00:00.000","GENERAL REPAIRER","POINT (-73.516319 41.095444)"
"U2189",,"JOHNS AUTO CENTER INC","161 CONNECTICUT AVE",,"NORWALK","CT","06854","2022-10-31T00:00:00.000","USED DEALER","POINT (-73.430768 41.104641)"
"N2441",,"CARTWRIGHT AUTO LLC","96 LATHROP RD",,"PLAINFIELD","CT","06374-2034","2024-04-30T00:00:00.000","NEW DEALER","POINT (-71.911526 41.661644)"
"N2761","DBA","DBA ALLEGIANCE TRUCKS","1001 WORDIN AVE",,"BRIDGEPORT","CT","06605-2429","2023-02-28T00:00:00.000","NEW DEALER","POINT (-73.214145 41.163315)"
"O6339",,"DOERING LEASING CO","15300 W CAPITOL DRIVE",,"BROOKFIELD","WI","53005","2024-03-31T00:00:00.000","LEASING LICENSE","POINT (-88.10274 43.08976)"
"U8171",,"PRESTIGE AUTO SERVICE LLC","749 S MAIN ST",,"SEYMOUR","CT","06438","2024-05-31T00:00:00.000","USED DEALER","POINT (-73.082775 41.367262)"
"U4909",,"MUTUAL MOTORS OF DANBURY LLC","17 MILL PLAIN RD",,"DANBURY","CT","06811","2023-03-31T00:00:00.000","USED DEALER","POINT (-73.495291 41.388082)"
"O6288",,"R J SHORE AUTOMOTIVE LLC","82 SHORE DR",,"BRANFORD","CT","06405-4823","2024-03-31T00:00:00.000","LEASING LICENSE","POINT (-72.84934 41.258149)"
"O6213",,"MCDONNELL LEASING CORP","378 DANBURY RD",,"WILTON","CT","06897","2023-03-31T00:00:00.000","LEASING LICENSE","POINT (-73.430994 41.207984)"
"U7976",,"COUNTY LINE CARRIAGE INC","2160 STRAITS TPKE",,"MIDDLEBURY","CT","06762-1812","2022-12-31T00:00:00.000","USED DEALER","POINT (-73.098017 41.567115)"
"O1753",,"GE CF TRUST","901 MAIN AVE",,"NORWALK","CT","06851","2024-03-31T00:00:00.000","LEASING LICENSE","POINT (-73.422719 41.156567)"
"N2249",,"MAC MOTORS INC","158 WESTON ST, AND 135 WEST SERVICE ROAD",,"HARTFORD","CT","06120","2024-03-31T00:00:00.000","NEW DEALER",
"J2553",,"DELLS AUTO WRECKNG INC","16  PLUMTREES RD",,"DANBURY","CT","06810","2024-04-30T00:00:00.000","RECYCLER","POINT (-73.414755 41.400177)"
"U1521",,"KURTS AUTOMOTIVE","1570 1574 DIXWELL AVE",,"HAMDEN","CT","06514","2023-04-30T00:00:00.000","USED DEALER","POINT (-72.928736 41.355177)"
"R7080",,"SOUNDVIEW NORTH SERVICENTER INC","35 ARCADIA RD",,"OLD GREENWICH","CT","06870","2023-02-28T00:00:00.000","GENERAL REPAIRER","POINT (-73.566684 41.032171)"
"J2550","DBA","TOMS FOREIGN AUTO PRTS","35 S 5TH ST",,"WATERBURY","CT","06708-4202","2024-04-30T00:00:00.000","RECYCLER","POINT (-73.04243 41.540664)"
"U7219","DBA","DBA CARMAX","121 FRONTAGE RD",,"EAST HAVEN","CT","06512-2110","2023-01-31T00:00:00.000","USED DEALER","POINT (-72.884361 41.287994)"
"N2739",,"VACHON CHEVROLET INC","139 POMFRET ST",,"PUTNAM","CT","06260-1803","2024-01-31T00:00:00.000","NEW DEALER","POINT (-71.914844 41.91318)"
"U8350",,"MORIN DIESEL LLC","1587 PORTLAND COBALT RD",,"PORTLAND","CT","06480-1755","2023-05-31T00:00:00.000","USED DEALER","POINT (-72.582801 41.561334)"
"U8860",,"A1 AUTO AND TOWING LLC","592 PROSPECT ST",,"NAUGATUCK","CT","06770-3120","2023-02-28T00:00:00.000","USED DEALER","POINT (-73.027493 41.505713)"
"R6131","DBA","STEVEN J ALFANO","111 ERNA AVE",,"MILFORD","CT","06460","2024-03-31T00:00:00.000","GENERAL REPAIRER","POINT (-73.078554 41.219277)"
"U8670",,"J C AUTO SALES AND SERVICE  LLC","946 NOBLE AVE",,"BRIDGEPORT","CT","06608-1019","2023-01-31T00:00:00.000","USED DEALER","POINT (-73.183817 41.19454)"
"U4377","DBA","DBA JOHN VISCUSO","1091 DIXWELL AVE",,"HAMDEN","CT","06514","2024-06-30T00:00:00.000","USED DEALER","POINT (-72.934652 41.343056)"
"R7605",,"BERGEN DIESEL LLC","157 MILL ST",,"MIDDLETOWN","CT","06457-3767","2024-08-31T00:00:00.000","GENERAL REPAIRER","POINT (-72.640402 41.548326)"
"U8178",,"COLONY STREET AUTOBODY AND  SALES LLC","341 COLONY ST",,"MERIDEN","CT","06451-2051","2024-06-30T00:00:00.000","USED DEALER","POINT (-72.795697 41.545896)"
"O1417",,"MIDDLETOWN TOYOTA RENTAL","634 NEWFIELD ST",,"MIDDLETOWN","CT","06457-1820","2023-03-31T00:00:00.000","LEASING LICENSE","POINT (-72.672159 41.576288)"
"U0682",,"HR ENQUIST INC","768 DERBY AVE",,"SEYMOUR","CT","06483-2412","2023-11-30T00:00:00.000","USED DEALER","POINT (-73.09087 41.365173)"
"N0344",,"FELIX F CALLARI INC","138 142 LEDGE RD",,"DARIEN","CT","06820","2023-02-28T00:00:00.000","NEW DEALER","POINT (-73.476779 41.072444)"
"R5979",,"PUTNAM AUTOMOTIVE GROUP LLC","14 PLUMTREES RD",,"DANBURY","CT","06810-7023","2023-01-31T00:00:00.000","GENERAL REPAIRER","POINT (-73.415309 41.401243)"
"U0227",,"A Z AUTO SOUND SYSTEMS INC","53 59 NEWFIELD AVE",,"HARTFORD","CT","06106","2024-03-31T00:00:00.000","USED DEALER","POINT (-72.713274 41.733508)"
"U6746",,"RAYS AUTO SALES LLC","513 LINDLEY ST",,"BRIDGEPORT","CT","06606-5451","2023-11-30T00:00:00.000","USED DEALER","POINT (-73.195701 41.19808)"
"N0366",,"BRIDGE HAVEN FORD TRUCK SALES INC","401 OLD GATE LN",,"MILFORD","CT","06460-8625","2023-02-28T00:00:00.000","NEW DEALER","POINT (-73.024329 41.236821)"
"R5596",,"FREDS AUTO CENTER LLC","244 PLATT AVE",,"WEST HAVEN","CT","06516-4836","2024-02-29T00:00:00.000","GENERAL REPAIRER","POINT (-72.963826 41.26076)"
"R6868",,"AC AUTO BODY OF NEW CANAAN INC","76 CONNECTICUT AVE",,"NORWALK","CT","06850-3541","2024-09-30T00:00:00.000","GENERAL REPAIRER","POINT (-73.424172 41.106838)"
"U1264",,"CENTER FILLING STATION","150 CENTER ST",,"SHELTON","CT","06484","2023-06-30T00:00:00.000","USED DEALER","POINT (-73.095422 41.314947)"
"N0578",,"BLACK ROCK TRUCK GROUP INC","15 21 E INDUSTRIAL RD",,"BRANFORD","CT","06405","2022-10-31T00:00:00.000","NEW DEALER","POINT (-72.75642 41.297995)"
"U8847",,"BRAKE PRO LLC","169 MAIN STREET EXT",,"MIDDLETOWN","CT","06457-3814","2023-08-31T00:00:00.000","USED DEALER","POINT (-72.643512 41.551726)"
"O5968",,"INVESTMENT FUNDING LLC","1 CORPORATE DR",,"DANBURY","CT","06810-4130","2024-03-31T00:00:00.000","LEASING LICENSE","POINT (-73.420257 41.413108)"
"O6342",,"MAF LEASING TRUST","14131 MIDWAY RD STE 900",,"ADDISON","TX","75001-3855","2024-03-31T00:00:00.000","LEASING LICENSE","POINT (-96.839018 32.942533)"
"R7723","DBA","DBA MEINEKE CAR CARE","2000 SILAS DEANE HWY",,"ROCKY HILL","CT","06067-1310","2023-04-30T00:00:00.000","GENERAL REPAIRER","POINT (-72.645863 41.672951)"
"J2574","DBA","DBABELLTOWN RECYCLING CENTER","24 OLD COACH RD",,"EAST HAMPTON","CT","06424-1751","2024-04-30T00:00:00.000","RECYCLER","POINT (-72.516584 41.56146)"
"U5569",,"COUNTRY AUTOMOTIVE LLC","252 STAFFORD RD",,"MANSFIELD CENTER","CT","06250-1443","2022-11-30T00:00:00.000","USED DEALER","POINT (-72.260122 41.742169)"
"M0988","DBA","DBA WOLF BRAND SCOOTERS AND QUALITY SCOOTER PARTS","13000 AUTOMOBILE BLVD STE 501",,"CLEARWATER","FL","33762-4751","2023-06-30T00:00:00.000","MANUFACTURER LICENSE","POINT (-82.696235 27.890736)"
"U4604",,"EDS COUNTRY SALES INC","601 RT 82",,"OAKDALE","CT","06370","2023-10-31T00:00:00.000","USED DEALER","POINT (-72.200821 41.502228)"
"R1008",,"LEETHER ENTERPRSES INC","185 BROAD ST",,"BRISTOL","CT","06010-7067","2023-05-31T00:00:00.000","GENERAL REPAIRER","POINT (-72.904062 41.671882)"
"U8249",,"WATERBURY AUTO SALES AND SERVICE LLC","56 EAGLE STREET",,"WATERBURY","CT","06708","2022-12-31T00:00:00.000","USED DEALER","POINT (-73.038409 41.536473)"
"J2554",,"CHICKS AUTO PARTS INC","400 N CHERRY ST EXT",,"WALLINGFORD","CT","06492","2024-04-30T00:00:00.000","RECYCLER","POINT (-72.819571 41.468576)"
"U1146","DBA","AGAR ARNOLD C JR","2 N ELM ST",,"CANAAN","CT","06018-2144","2023-07-31T00:00:00.000","USED DEALER","POINT (-73.32377 42.025155)"
"O6350",,"GO 2 RENTALS LLC","40 INDUSTRY LN",,"WATERBURY","CT","06704","2024-03-31T00:00:00.000","LEASING LICENSE","POINT (-73.008264 41.572236)"
"R1593",,"CONN DEPT OF EDUCAT ELI WHITNEY RVT","71 JONES RD",,"HAMDEN","CT","06514-4602","2023-02-28T00:00:00.000","GENERAL REPAIRER","POINT (-72.943363 41.343281)"
"R7538",,"ARDUINI MOTORCARS   LLC","444 SHORT BEACH RD",,"EAST HAVEN","CT","06512-3821","2024-02-29T00:00:00.000","GENERAL REPAIRER","POINT (-72.870198 41.265498)"
"R6301",,"PRECISION FOREIGN CAR SERVICE INC","385 WETHERSFIELD AVE",,"HARTFORD","CT","06114-1415","2023-10-31T00:00:00.000","GENERAL REPAIRER","POINT (-72.673148 41.745351)"
"R0884",,"CONN ST DEPT EDUCATION AI RINCE RVT","500 BROOKFIELD ST",,"HARTFORD","CT","06106-3709","2023-02-28T00:00:00.000","GENERAL REPAIRER","POINT (-72.707771 41.742025)"
"U6726",,"MEADOW STREET AUTOMOTIVE LLC","299 W MAIN ST",,"WATERBURY","CT","06702-1101","2023-09-30T00:00:00.000","USED DEALER","POINT (-73.046217 41.557575)"
"U8555",,"GERMAN AUTO REPAIR  LLC","320 SYLVAN LAKE RD",,"WATERTOWN","CT","06779-1459","2023-02-28T00:00:00.000","USED DEALER","POINT (-73.07556 41.599701)"
"U6170",,"ACE AUTO SALES LLC","201 S MAIN ST",,"BEACON FALLS","CT","06403-1331","2024-04-30T00:00:00.000","USED DEALER","POINT (-73.059919 41.435118)"
"R6325","DBA","STAR TOWING","350 JENNINGS RD",,"FAIRFIELD","CT","06825-4766","2024-01-31T00:00:00.000","GENERAL REPAIRER","POINT (-73.235319 41.171018)"
"R7748",,"TOWN FAIR TIRE CENTERS OF CONNECTICUT LLC","19 PAVILION DR",,"MANCHESTER","CT","06042-8702","2024-05-31T00:00:00.000","GENERAL REPAIRER","POINT (-72.552463 41.803109)"
"R6593",,"GRASMERE INC","500 GRASMERE AVE",,"FAIRFIELD","CT","06824-6146","2023-03-31T00:00:00.000","GENERAL REPAIRER","POINT (-73.243457 41.158702)"
"R6358","DBA","DBA FIRESTONE COMPLETE AUTO CARE","809 WOLCOTT ST",,"WATERBURY","CT","06705-1313","2023-12-31T00:00:00.000","GENERAL REPAIRER","POINT (-73.009863 41.563503)"
"O6120","DBA","LINCOLN AUTOMOTIVE FINANCE","1 AMERICAN RD",,"DEARBORN","MI","48126","2023-03-31T00:00:00.000","LEASING LICENSE","POINT (-83.208853 42.313413)"
"U8846",,"PROPER SOLUTIONS GROUP LLC","180 SUNNY VALLEY RD STE 20",,"NEW MILFORD","CT","06776-3362","2022-12-31T00:00:00.000","USED DEALER","POINT (-73.41936 41.556207)"
"O6037",,"VFS LEASING CO","7025 ALBERT PICK RD STE 105",,"GREENSBORO","NC","27409","2024-03-31T00:00:00.000","LEASING LICENSE","POINT (-79.949182 36.076938)"
"U7297",,"CATARINO AUTO SALES LLC","1980 MAIN ST",,"BRIDGEPORT","CT","06604-2742","2023-08-31T00:00:00.000","USED DEALER","POINT (-73.196111 41.19042)"
"U8123",,"PN AUTO LLC","1125 QUEEN ST",,"SOUTHINGTON","CT","06489-1266","2023-01-31T00:00:00.000","USED DEALER","POINT (-72.872418 41.647296)"
"R0424",,"TRIO TRANSMISSION INC","65 BURR RD",,"BRIDGEPORT","CT","06605-2207","2023-11-30T00:00:00.000","GENERAL REPAIRER","POINT (-73.218824 41.166277)"
"R1443",,"P AND P AUTO REPAIR INC","174 W CENTER ST",,"MANCHESTER","CT","06040-4961","2023-01-31T00:00:00.000","GENERAL REPAIRER","POINT (-72.543253 41.771035)"
"R0027",,"CARABETTA ENTERPRISES INC","34 CAMBRIDGE ST",,"MERIDEN","CT","06450","2024-02-29T00:00:00.000","GENERAL REPAIRER","POINT (-72.786713 41.551497)"
"U5468",,"HAMDEN TRANSMISSION LLC","1029 DIXWELL AVE",,"HAMDEN","CT","06514-4913","2024-04-30T00:00:00.000","USED DEALER","POINT (-72.935038 41.341447)"
"U6230","DBA","ROBERT FLETCHER","132 LIBERTY ST",,"PAWCATUCK","CT","06379","2022-09-30T00:00:00.000","USED DEALER","POINT (-71.842872 41.383421)"
"U8560",,"DMR OFFROAD LLC","259 W HIGH ST",,"EAST HAMPTON","CT","06424-2118","2023-11-30T00:00:00.000","USED DEALER","POINT (-72.542028 41.563642)"
"U7559",,"SALES AUCTION COMPANY LLC","55 KING SPRING RD",,"WINDSOR LOCKS","CT","06096-1136","2023-07-31T00:00:00.000","USED DEALER","POINT (-72.665406 41.945115)"
"U8791",,"UCHOOSE AUTO SALES AND SERVICES LLC","269 TOWER AVE",,"HARTFORD","CT","06120-1040","2024-02-29T00:00:00.000","USED DEALER","POINT (-72.675356 41.798446)"
"M0999",,"SMEAL HOLDING LLC","610 W 4TH ST",,"SNYDER","NE","68664-2429","2023-06-30T00:00:00.000","MANUFACTURER LICENSE","POINT (-96.79027 41.70661)"
"U6393","DBA","MACARA VEHICLE SERVICES INC","207 N MAIN ST",,"NORWICH","CT","06360-4743","2023-10-31T00:00:00.000","USED DEALER","POINT (-72.062276 41.528353)"
"U0204",,"BOP INC","203 HOMER ST",,"WATERBURY","CT","06704","2024-03-31T00:00:00.000","USED DEALER","POINT (-73.043646 41.585466)"
"U8877",,"HEAVYS AUTOMOTIVE INC","2 NORTHGATE DR",,"WINDSOR LOCKS","CT","06096-1205","2023-11-30T00:00:00.000","USED DEALER","POINT (-72.655418 41.939533)"
"O6034",,"C AND C  XPRESS RENT A CAR","375 RT 112",,"GROTON","CT","06340","2024-03-31T00:00:00.000","LEASING LICENSE",
"N2570",,"HO PENN MACHINERY CO INC","225 RICHARD ST",,"NEWINGTON","CT","06111-5046","2024-03-31T00:00:00.000","NEW DEALER","POINT (-72.729782 41.661455)"
"R7624",,"BRIARWOOD AUTOMOTIVES LLC","2596 E MAIN ST",,"BRIDGEPORT","CT","06610-1481","2023-05-31T00:00:00.000","GENERAL REPAIRER","POINT (-73.178958 41.210011)"
"R6860",,"MOHAWK WEST TIRE & AUTO CENTER INC","31 MILL PLAIN RD",,"DANBURY","CT","06811-5107","2024-07-31T00:00:00.000","GENERAL REPAIRER","POINT (-73.497766 41.389015)"
"R7801","DBA","DBA SMITTYS AUTO BODY","14 TURKEY PLAIN RD",,"BETHEL","CT","06801-2840","2023-10-31T00:00:00.000","GENERAL REPAIRER","POINT (-73.415063 41.354184)"
"U7124",,"NEWMAN'S SERVICE CENTER INC","40 LIBERTY ST",,"PAWCATUCK","CT","06379","2024-03-31T00:00:00.000","USED DEALER","POINT (-71.835106 41.379149)"
"N0716","DBA","HOFFMAN PORSCHE","600 CONNECTICUT BLVD",,"EAST HARTFORD","CT","06108-3287","2024-07-31T00:00:00.000","NEW DEALER","POINT (-72.657425 41.769549)"
"N0007","DBA","D'ADDARIO NISSAN","329 BRIDGEPORT AVE",,"SHELTON","CT","06484-3860","2023-11-30T00:00:00.000","NEW DEALER","POINT (-73.105904 41.298864)"
"U8766",,"DIAMOND AUTO CARS LLC","32 HARTFORD TPKE",,"VERNON","CT","06066-5256","2023-12-31T00:00:00.000","USED DEALER","POINT (-72.505019 41.816207)"
"U8869",,"GUARANTEE APPROVAL MOTORS CORP","2178 FAIRFIELD AVE",,"BRIDGEPORT","CT","06605","2023-03-31T00:00:00.000","USED DEALER","POINT (-73.219583 41.164666)"
"R6070",,"LAUREL AUTOMOTIVE SERVICE LLC","8 HERMAN DR D AND E",,"SIMSBURY","CT","06070","2023-10-31T00:00:00.000","GENERAL REPAIRER",
"O0045",,"ADVANCED WHEELS OF TECHNOLOGY INC","33 BRADLEY PARK RD",,"EAST GRANBY","CT","06026-9789","2023-03-31T00:00:00.000","LEASING LICENSE","POINT (-72.707839 41.933024)"
"U8029",,"PREFERRED SALES AND SERVICE INC","155 CENTER STREET",,"MANCHESTER","CT","06040","2023-04-30T00:00:00.000","USED DEALER","POINT (-72.525858 41.774116)"
"U1624",,"STARON ENTERPRISES LTD","1138 - 1158  NEWFIELD ST",,"MIDDLETOWN","CT","06457","2023-03-31T00:00:00.000","USED DEALER","POINT (-72.675558 41.589554)"
"R7719",,"JOES AUTO SERVICE LLC","115 PINE STREET",,"BRISTOL","CT","06010","2023-03-31T00:00:00.000","GENERAL REPAIRER","POINT (-72.917957 41.667747)"
"U1207",,"LYONS AUTO INC","465 ELLA GRASSO BLVD",,"NEW HAVEN","CT","06519","2023-06-30T00:00:00.000","USED DEALER","POINT (-72.943444 41.292628)"
"U6617",,"OLLIES GARAGE AND AUTO BODY INC","333 SANDBANK RD",,"CHESHIRE","CT","06410","2023-01-31T00:00:00.000","USED DEALER","POINT (-72.902792 41.535926)"
"R6362",,"BRIDGESTONE RETAIL OPERATIONS LLC R6362","1197 BARNUM AVE",,"STRATFORD","CT","06614-5401","2023-12-31T00:00:00.000","GENERAL REPAIRER","POINT (-73.135955 41.197536)"
"R5155",,"MONRO MUFFLER BRAKE INC","339 N FRONTAGE RD",,"NEW LONDON","CT","06320","2023-02-28T00:00:00.000","GENERAL REPAIRER","POINT (-72.118795 41.370124)"
"N2790",,"NUTMEG INTERNATIONAL TRUCKS LLC","130 BRAINARD RD",,"HARTFORD","CT","06114-1604","2024-04-30T00:00:00.000","NEW DEALER","POINT (-72.659659 41.736604)"
"R7588",,"SPEED AUTO LLC","133 WHITE ST",,"DANBURY","CT","06810","2022-10-31T00:00:00.000","GENERAL REPAIRER","POINT (-73.449097 41.398766)"
"M0925","DBA","CM TRAILERS","200 COUNTY RD",,"MADILL","OK","73446","2024-06-30T00:00:00.000","MANUFACTURER LICENSE","POINT (-96.770778 34.11273)"
"M1006",,"AMERICAN EMERGENCY VEHICLES","165 AMERICAN WAY",,"JEFFERSON","NC","28640-9195","2023-06-30T00:00:00.000","MANUFACTURER LICENSE","POINT (-81.425821 36.418702)"
"R1579",,"BZ ENTERPRISES INC","1175 WHALLEY AVE",,"NEW HAVEN","CT","06500","2022-12-31T00:00:00.000","GENERAL REPAIRER","POINT (-72.969256 41.329413)"
"U8496",,"FAIRFIELD TIRE AND AUTO CENTER LLC","1370 KINGS HIGHWAY CUTOFF",,"FAIRFIELD","CT","06824-5254","2023-04-30T00:00:00.000","USED DEALER","POINT (-73.245943 41.14872)"
"O2079",,"PLACE LEASING CORP","19 THOMPSON RD",,"WEBSTER","MA","01570","2024-03-31T00:00:00.000","LEASING LICENSE","POINT (-71.863477 42.058562)"
"R7560",,"BENWARE AUTOMOTIVE LLC","408D SOMERS RD",,"ELLINGTON","CT","06029","2024-05-31T00:00:00.000","GENERAL REPAIRER","POINT (-72.455332 41.927635)"
"R6364",,"CONN TIRE INC","96 WEBSTER SQUARE RD",,"BERLIN","CT","06037-2327","2024-07-31T00:00:00.000","GENERAL REPAIRER","POINT (-72.746796 41.628006)"
"O6252",,"QL TITLING TRUST LTD","9830 BAUER DR",,"INDIANAPOLIS","IN","46280-1972","2024-03-31T00:00:00.000","LEASING LICENSE","POINT (-86.101288 39.929393)"
"U1044","DBA","AUTO WORLD","430 ISLAND LN",,"WEST HAVEN","CT","06516-7506","2023-08-31T00:00:00.000","USED DEALER","POINT (-72.978567 41.260228)"
"O6203",,"ACME AUTO LEASING LLC","440 WASHINGTON AVE",,"NORTH HAVEN","CT","06473-1311","2023-03-31T00:00:00.000","LEASING LICENSE","POINT (-72.841994 41.411766)"
"U1748",,"PARAMOUNT GARAGE INC","50 GRASSMERE AVE",,"WEST HARTFORD","CT","06110","2023-02-28T00:00:00.000","USED DEALER","POINT (-72.725145 41.735201)"
"N2630","DBA","DBA PRESTIGE VOLKSWAGEN OF STAMFORD","42 W BROAD ST",,"STAMFORD","CT","06902-3715","2023-06-30T00:00:00.000","NEW DEALER","POINT (-73.546532 41.055641)"
"U2161",,"DICKS CITGO INC","59 MERROW RD",,"TOLLAND","CT","06084-3022","2022-11-30T00:00:00.000","USED DEALER","POINT (-72.363064 41.865605)"
"U8162",,"GLOBAL FLEET LEASING LLC","47 LARKIN ST",,"STAMFORD","CT","06907-2702","2024-04-30T00:00:00.000","USED DEALER","POINT (-73.519258 41.078105)"
"N0467",,"AVON GATEWAY INC","75 ALBANY TPKE",,"CANTON","CT","06019-2507","2022-12-31T00:00:00.000","NEW DEALER","POINT (-72.880259 41.823249)"
"U0339",,"BOOMERS GARAGE","139 BEDLAM ROAD",,"CHAPLIN","CT","06235","2024-02-29T00:00:00.000","USED DEALER","POINT (-72.143641 41.776764)"
"R4836",,"BRIANS MACHINE SERVICE","67 COMMERCE WAY UNIT 1",,"SOUTH WINDSOR","CT","06074","2024-04-30T00:00:00.000","GENERAL REPAIRER","POINT (-72.599296 41.859493)"
"O5895",,"ERNIE AND SONS RENTAL INC","957 FOXON RD",,"EAST HAVEN","CT","06513","2024-03-31T00:00:00.000","LEASING LICENSE","POINT (-72.865635 41.320792)"
"J4123",,"CHARTER OAK AUTO PARTS INC","AMBROSE ST",,"HARTFORD","CT","06120","2024-04-30T00:00:00.000","RECYCLER",
"U1676","DBA","FUSICK CHESTER J","303 BOSTON TPKE",,"BOLTON","CT","06043-7453","2023-03-31T00:00:00.000","USED DEALER","POINT (-72.45877 41.785158)"
"R7485",,"COMMAND PERFORMANCE AUTO REPAIR, LLC","40 NORTHEAST INDUSTRIAL RD",,"BRANFORD","CT","06405","2023-01-31T00:00:00.000","GENERAL REPAIRER","POINT (-72.768319 41.301138)"
"N0152","DBA","SCHALLER ACURA","345 CENTER ST",,"MANCHESTER","CT","06040-3922","2023-07-31T00:00:00.000","NEW DEALER","POINT (-72.534875 41.772432)"
"U0632",,"ROBERTS SERVICE CENTER INC","216 BUCKINGHAM AVE",,"MILFORD","CT","06460-4841","2023-11-30T00:00:00.000","USED DEALER","POINT (-73.045406 41.223303)"
"U8802","DBA","DBA SAFE AUTO FINANCING","233 WHITE ST",,"DANBURY","CT","06810","2022-11-30T00:00:00.000","USED DEALER","POINT (-73.438912 41.399497)"
"N0049",,"CARGILL CHEV CO INC","23 LIVERY ST BUCK MSC","BOX 73","PUTNAM","CT","06260","2023-10-31T00:00:00.000","NEW DEALER","POINT (-71.90856 41.916191)"
"R7812",,"DAGOSTINO BROS FOREIGN CAR SERVICE","316 LONG RIDGE RD",,"STAMFORD","CT","06902-1637","2023-11-30T00:00:00.000","GENERAL REPAIRER","POINT (-73.554026 41.081589)"
"O6400","DBA","DIAMOND BRITE CAR RENTAL","920 WEST MAIN ST",,"NEW BRITAIN","CT","06053","2024-03-31T00:00:00.000","LEASING LICENSE","POINT (-72.813831 41.667802)"
"U6048",,"RIDGEFIELD AUTO PARK LLC","603 DANBURY RD",,"RIDGEFIELD","CT","06877-2705","2023-06-30T00:00:00.000","USED DEALER","POINT (-73.476335 41.32152)"
"N2379","DBA","DEVAN INFINITI OF FAIRFIELD","26 COMMERCE DR",,"FAIRFIELD","CT","06430","2024-04-30T00:00:00.000","NEW DEALER","POINT (-73.224132 41.167388)"
"U5583",,"MILOS AUTO CENTER LLC","342 EAST ST",,"PLAINVILLE","CT","06062","2022-12-31T00:00:00.000","USED DEALER","POINT (-72.86792 41.656127)"
"U7805","DBA","ENTERPRISE CAR SALES","579 BRIDGEPORT AVE",,"MILFORD","CT","06460-4203","2023-06-30T00:00:00.000","USED DEALER","POINT (-73.087554 41.207336)"
"N2263",,"NORTHWEST HILLS CHRYS JEEP LLC","2033 E MAIN ST",,"TORRINGTON","CT","06790-3111","2024-08-31T00:00:00.000","NEW DEALER","POINT (-73.073275 41.821068)"
"R6991",,"FORLINI AUTOMOTIVE LLC","260 FREESTONE AVE STE A",,"PORTLAND","CT","06480-4633","2024-05-31T00:00:00.000","GENERAL REPAIRER","POINT (-72.629685 41.570699)"
"R6947",,"CTL SEVEN LLC","966 WASHINGTON ST",,"MIDDLETOWN","CT","06457-2907","2023-09-30T00:00:00.000","GENERAL REPAIRER","POINT (-72.684637 41.553886)"
"U8767",,"MODZELEWSKIS AUTO AND TRUCK CENTER INC","40 S MAIN ST",,"NEWTOWN","CT","06470-2140","2023-12-31T00:00:00.000","USED DEALER","POINT (-73.298325 41.403115)"
"R7254",,"GCS ENTERPRISES LLC","812 OLD COLONY RD",,"MERIDEN","CT","06451-7929","2023-05-31T00:00:00.000","GENERAL REPAIRER","POINT (-72.814073 41.518524)"
"O6100",,"WESTBROOK GATEWAY, INC","80 FLAT ROCK PL",,"WESTBROOK","CT","06498-1579","2023-03-31T00:00:00.000","LEASING LICENSE","POINT (-72.442443 41.2901)"
"U8944",,"EXCLUSIVE AUTO LLC","1771 THOMASTON AVE",,"WATERBURY","CT","06704-1022","2024-04-30T00:00:00.000","USED DEALER","POINT (-73.054575 41.591997)"
"U1253",,"NORTH END AUTO PARTS INC","963 N COLONY RD",,"MERIDEN","CT","06450-2326","2023-06-30T00:00:00.000","USED DEALER","POINT (-72.785395 41.560399)"
"U8238",,"ALDOS AUTOREPAIR LLC","241 LEDYARD ST STE B4",,"HARTFORD","CT","06114-2029","2022-11-30T00:00:00.000","USED DEALER","POINT (-72.669528 41.742065)"
"U8244",,"FATHER AND SON AUTO SALES INC","80 N MAIN ST",,"NORWICH","CT","06360-5937","2022-12-31T00:00:00.000","USED DEALER","POINT (-72.067627 41.52647)"
"N2795",,"GABRIELLI KENWORTH OF CT LLC","1 DEPOT HILL RD",,"ENFIELD","CT","06082-6031","2024-07-31T00:00:00.000","NEW DEALER","POINT (-72.604369 41.943054)"
"U7165",,"NUTMEG AUTO SALES","88 MULLOY RD",,"WATERBURY","CT","06705","2024-07-31T00:00:00.000","USED DEALER","POINT (-72.983384 41.544203)"
"U7604",,"JAMS AUTOMOTIVE","831 RUBBER AVE",,"NAUGATUCK","CT","06770-3647","2023-11-30T00:00:00.000","USED DEALER","POINT (-73.082378 41.493809)"
"N2768",,"HAMDEN CARS  LLC","200 SKIFF ST",,"HAMDEN","CT","06517-1004","2023-05-31T00:00:00.000","NEW DEALER","POINT (-72.910219 41.3724)"
"U8741","DBA","DBA DR. NICKS TRANSMISSIONS","498 NEW HAVEN AVE",,"MILFORD","CT","06460-3613","2023-09-30T00:00:00.000","USED DEALER","POINT (-73.033918 41.224804)"
"R4887",,"AMERICAN AUTO REPAIR INC","318 STRAWBERRY HILL AVE",,"NORWALK","CT","06851-4317","2024-03-31T00:00:00.000","GENERAL REPAIRER","POINT (-73.391039 41.126531)"
"R0520",,"CONN ST DEPT EDUCATION NORWICH RVTS","590 NEW LONDON TPKE",,"NORWICH","CT","06360","2023-02-28T00:00:00.000","GENERAL REPAIRER","POINT (-72.104198 41.508004)"
"U4565","DBA","MICHAEL PAECHT","87 SPRING ST",,"WEST HAVEN","CT","06516-2832","2024-05-31T00:00:00.000","USED DEALER","POINT (-72.950893 41.286658)"
"M1023",,"REGENCY CONVERSIONS INC","4709 LONE STAR BLVD",,"FORT WORTH","TX","76106-2106","2023-06-30T00:00:00.000","MANUFACTURER LICENSE","POINT (-97.330638 32.826911)"
"R5230",,"ROY KITKAS TIRE SALES SVC INC","258 WILSONVILLE RD",,"NORTH GROSVENORDALE","CT","06255-1226","2023-08-31T00:00:00.000","GENERAL REPAIRER","POINT (-71.864916 42.009385)"
"R6258",,"AUTO TRUCK AND EQUIPMENT INC","1015 MIDDLETOWN AVE",,"NORTHFORD","CT","06472-1397","2023-05-31T00:00:00.000","GENERAL REPAIRER","POINT (-72.815376 41.378832)"
"R7382","DBA","DBA MIDAS AUTO SERVICE EXPERTS","350 MAIN ST",,"DANBURY","CT","06810-5837","2023-03-31T00:00:00.000","GENERAL REPAIRER","POINT (-73.456812 41.398495)"
"U7274","DBA","DBA CENTRAL AUTO AND TRANSPORT","66 THOMAS ST",,"MIDDLETOWN","CT","06457-3006","2024-04-30T00:00:00.000","USED DEALER","POINT (-72.668184 41.552488)"
"U8376",,"TAINO MOTORS LLC","477 FERRY ST",,"NEW HAVEN","CT","06513-3043","2024-02-29T00:00:00.000","USED DEALER","POINT (-72.896383 41.312757)"
"R7804",,"REPASI MOTORWERKS LLC","1701 STRATFORD AVE",,"STRATFORD","CT","06615-6421","2023-11-30T00:00:00.000","GENERAL REPAIRER","POINT (-73.141704 41.185618)"
"U6125","DBA","AFFORDABLE AUTOMOTIVE","32 EXECUTIVE CENTER DR",,"NEW MILFORD","CT","06776","2023-12-31T00:00:00.000","USED DEALER","POINT (-73.42058 41.550371)"
"R6719",,"AUTO CLINIC","286-290 DAVENPORT AVE",,"NEW HAVEN","CT","06519","2024-04-30T00:00:00.000","GENERAL REPAIRER","POINT (-72.943225 41.300496)"
"R5185",,"DULIN AUTOMOTIVE INC","79 BRIDGEPORT AVE",,"MILFORD","CT","06460-3941","2023-04-30T00:00:00.000","GENERAL REPAIRER","POINT (-73.105446 41.200775)"
"R5636","DBA","SUPERIOR AUTO","779 BOSTON POST RD",,"WESTBROOK","CT","06498-1847","2024-06-30T00:00:00.000","GENERAL REPAIRER","POINT (-72.460606 41.279443)"
"N2423",,"LEES AUTO CENTER INC","171 WEST RD",,"ELLINGTON","CT","06029-3719","2023-09-30T00:00:00.000","NEW DEALER","POINT (-72.46199 41.892718)"
"R7420",,"LEEDS WEST CONNECTICUT LLC","377 MAIN AVE",,"NORWALK","CT","06851-1509","2023-08-31T00:00:00.000","GENERAL REPAIRER","POINT (-73.425959 41.140346)"
"U8872",,"BUDGET AUTO REPAIR LLC","360 SOMERS RD","HANGER 2 N","ELLINGTON","CT","06029","2023-03-31T00:00:00.000","USED DEALER","POINT (-72.453257 41.922214)"
"U8626","DBA","DBA SOUND AUTO WHOLESALERS","139 W MAIN ST",,"BRANFORD","CT","06405-4000","2024-08-31T00:00:00.000","USED DEALER","POINT (-72.856641 41.27759)"
"R6507",,"ANTHONYS HIGHTECH AUTO CENTER INC","142 GANDO DR",,"NEW HAVEN","CT","06513","2024-07-31T00:00:00.000","GENERAL REPAIRER","POINT (-72.872906 41.333422)"
"R7601",,"FERNANDES AND PALMER INC","1827 POST RD",,"FAIRFIELD","CT","06824-5719","2022-12-31T00:00:00.000","GENERAL REPAIRER","POINT (-73.263965 41.141153)"
"O6196",,"A AND M TOWING HOLDINGS INC","36 BOND ST",,"HARTFORD","CT","06114-1317","2024-03-31T00:00:00.000","LEASING LICENSE","POINT (-72.674914 41.744591)"
"R7834",,"TEAM CAR CARE EAST LLC","111 TALCOTTVILLE RD",,"VERNON","CT","06066-4703","2024-04-30T00:00:00.000","GENERAL REPAIRER","POINT (-72.495632 41.829882)"
"R1237",,"CONN ST DEPT OF EDUC HOWELL CHENEY","791 MIDDLE TPKE W",,"MANCHESTER","CT","06040-1819","2023-02-28T00:00:00.000","GENERAL REPAIRER","POINT (-72.561326 41.780932)"
"U4299",,"AVERY BROTHERS INC","120 DUDLEY AVE",,"WALLINGFORD","CT","06492","2024-07-31T00:00:00.000","USED DEALER","POINT (-72.831239 41.444011)"
"R7798",,"ELM MOTORS INC","114 E MAIN ST",,"ROCKVILLE","CT","06066-3331","2023-09-30T00:00:00.000","GENERAL REPAIRER","POINT (-72.441485 41.867135)"
"U7356","DBA","CLASSIC MOTORS OF NEW LONDON","82 TRUMAN ST",,"NEW LONDON","CT","06320-5632","2024-02-29T00:00:00.000","USED DEALER","POINT (-72.102586 41.351609)"
"O1486",,"DOWLING FORD INC","1011 S MAIN ST",,"CHESHIRE","CT","06410-3468","2023-03-31T00:00:00.000","LEASING LICENSE","POINT (-72.906077 41.477205)"
"U8942","DBA","DBA BLASIUS OF DANBURY","16 WALNUT ST",,"DANBURY","CT","06811","2024-04-30T00:00:00.000","USED DEALER","POINT (-73.452947 41.411963)"
"R6940","DBA","TRAVEL CENTERS OF AMERICA","1875 MERIDEN & WATERBURY RDS",,"MILLDALE","CT","06467-0548","2023-08-31T00:00:00.000","GENERAL REPAIRER","POINT (-72.90986 41.563688)"
"R6183",,"UAG FAIRFIELD CM LLC","102 LINWOOD AVE",,"FAIRFIELD","CT","06824-4911","2024-09-30T00:00:00.000","GENERAL REPAIRER","POINT (-73.270876 41.141342)"
"M0990",,"ROYAL ENFIELD NORTH AMERICA LIMITED","226 NORTH WATER ST",,"MILWAUKEE","WI","53202","2023-06-30T00:00:00.000","MANUFACTURER LICENSE","POINT (-87.909216 43.033084)"
"U5276",,"BO'S AUTO REPAIR AND USED CARS","28 HUNTLEY PL",,"HARTFORD","CT","06120","2023-02-28T00:00:00.000","USED DEALER","POINT (-72.68077 41.771571)"
"O6390",,"FEATHERLITE CREDIT CORP","1652 GREENVIEW DR SW STE 120",,"ROCHESTER","MN","55902-1333","2024-03-31T00:00:00.000","LEASING LICENSE","POINT (-92.486847 44.000144)"
"U5869",,"INTERNATIONAL AUTO RAD INC","16 SOUTH ST",,"WEST HARTFORD","CT","06110-1923","2024-07-31T00:00:00.000","USED DEALER","POINT (-72.723604 41.729448)"
"U2173",,"SUPERIOR TRANSMISSIONS INC","1201 WOLCOTT RD",,"WATERBURY","CT","06705","2022-11-30T00:00:00.000","USED DEALER","POINT (-72.976619 41.61753)"
"M1026",,"SPARTAN CARGO TRAILERS LLC","140 BUSINESS BLVD",,"ALMA","GA","31510-7667","2023-06-30T00:00:00.000","MANUFACTURER LICENSE","POINT (-82.515631 31.549749)"
"R7629",,"MILLER MOTORCARS INC","468 W PUTNAM AVE",,"GREENWICH","CT","06830-6244","2023-06-30T00:00:00.000","GENERAL REPAIRER","POINT (-73.642421 41.02034)"
"U8638",,"WE DELIVER LLC","154-156 MONTAUK AVE",,"NEW LONDON","CT","06320","2024-09-30T00:00:00.000","USED DEALER","POINT (-72.105094 41.343452)"
"U7741",,"MILL STREET AUTO SALES LLC","122 1/2 E MAIN ST",,"VERNON","CT","06066-3333","2022-11-30T00:00:00.000","USED DEALER","POINT (-72.440721 41.866826)"
"U7746",,"JN AUTO ASSOCIATES LLC","627 S MAIN ST",,"TORRINGTON","CT","06790-6922","2024-08-31T00:00:00.000","USED DEALER","POINT (-73.117948 41.78758)"
"O6315",,"VAULT TRUST","2000 WESTINGHOUSE DR STE 300",,"CRANBERRY TOWNSHIP","PA","16066-5238","2023-03-31T00:00:00.000","LEASING LICENSE",
"U6332",,"ONE STOP AUTOMOTIVE LLC","44B LAURA ST",,"NEW HAVEN","CT","06512-1630","2023-05-31T00:00:00.000","USED DEALER","POINT (-72.897615 41.294904)"
"L2107",,"FOUNDERS PLAZA SVC STATION INC","131 DARLIN STREET",,"EAST HARTFORD","CT","06108","2023-10-31T00:00:00.000","LIMITED REPAIRER","POINT (-72.658716 41.765156)"
"U5726",,"DAVES AUTO SALES AND SER LLC","1564 MADISON AVE",,"BRIDGEPORT","CT","06606-4546","2023-10-31T00:00:00.000","USED DEALER","POINT (-73.212862 41.200213)"
"U1721",,"COLLISION WORLD AUTO BODY INC","51 WOODLAWN RD",,"BERLIN","CT","06037-1535","2023-02-28T00:00:00.000","USED DEALER","POINT (-72.739918 41.632371)"
"O5958",,"LAI TRUST","12600 N FEATHERWOOD 400",,"HOUSTON","TX","77034","2024-03-31T00:00:00.000","LEASING LICENSE",
"U1044",,"JOHN DEGRAND AND SON INC","430 ISLAND LN",,"WEST HAVEN","CT","06516-7506","2023-08-31T00:00:00.000","USED DEALER","POINT (-72.978567 41.260228)"
"R7811",,"T'S AUTO REPAIR LLC","248 SPRUCE ST",,"MANCHESTER","CT","06040-6161","2024-01-31T00:00:00.000","GENERAL REPAIRER","POINT (-72.51576 41.767754)"
"O6144",,"SMEDLEY SERVICES INC","20-2 THOMPSON RD",,"BRANFORD","CT","06405","2023-03-31T00:00:00.000","LEASING LICENSE","POINT (-72.77815 41.303066)"
"U6951",,"SOUND MOTOR SPORTS LLC","264C FAIRCHILD AVE",,"FAIRFIELD","CT","06825","2023-04-30T00:00:00.000","USED DEALER","POINT (-73.22917 41.170174)"
"U7983","DBA","DBA IVORYTON MOTOR GROUP","7 MAIN ST",,"IVORYTON","CT","06442-1002","2023-03-31T00:00:00.000","USED DEALER","POINT (-72.427104 41.348014)"
"R4757",,"MIKES AUTO AND TOWING INC.","160 WINDSOR AVE",,"WINDSOR","CT","06095","2024-05-31T00:00:00.000","GENERAL REPAIRER","POINT (-72.658486 41.806766)"
"U0200",,"CITY ALIGNMENT CO","1351 EAST ST",,"NEW BRITAIN","CT","06053-2523","2024-03-31T00:00:00.000","USED DEALER","POINT (-72.759853 41.689442)"
"O0477",,"FORD MOTOR CREDIT CO LLC","2975 BRECKINRIDGE BLVD",,"DULUTH","GA","30096","2023-03-31T00:00:00.000","LEASING LICENSE","POINT (-84.109709 33.959302)"
"R6594",,"BARNUM GETTY SERVICES","1789 BARNUM AVE",,"BRIDGEPORT","CT","06610-3211","2023-02-28T00:00:00.000","GENERAL REPAIRER","POINT (-73.157384 41.189177)"
"U6078",,"NUTMEG AUTO WHOLESALERS INC","438 MAIN ST",,"EAST HARTFORD","CT","06118","2023-09-30T00:00:00.000","USED DEALER","POINT (-72.640463 41.752789)"
"R7692",,"FIRST LINE EMERGENCY SERVICE LLC","10 PROGRESS DR",,"CROMWELL","CT","06416-1034","2024-07-31T00:00:00.000","GENERAL REPAIRER","POINT (-72.71135 41.612838)"
"U5424",,"COPPOLAS SERVICE LLC","28 GLEASON AVE",,"STAMFORD","CT","06902-5102","2024-01-31T00:00:00.000","USED DEALER","POINT (-73.527638 41.048745)"
"U8058",,"NEW ENGLAND COLLISION LLC","475 DERBY AVE",,"WEST HAVEN","CT","06516","2023-07-31T00:00:00.000","USED DEALER","POINT (-72.971545 41.306337)"
"U2287",,"GUYS AUTOMOTIVE SPECIALTIES INC","987 NORTH AVE",,"BRIDGEPORT","CT","06606-5740","2022-10-31T00:00:00.000","USED DEALER","POINT (-73.197631 41.191123)"
"U7344",,"TOMS AUTO BODY LLC","240 PROVIDENCE RD",,"BROOKLYN","CT","06234-1833","2024-01-31T00:00:00.000","USED DEALER","POINT (-71.931094 41.796306)"
"N2294","DBA","JOHN ANTONINO","691 W THAMES ST",,"NORWICH","CT","06360-7023","2023-11-30T00:00:00.000","NEW DEALER","POINT (-72.097486 41.498349)"
"U8500","DBA","DBA REDLINE RESTORATIONS","2475 FAIRFIELD AVE",,"BRIDGEPORT","CT","06605-2648","2023-04-30T00:00:00.000","USED DEALER","POINT (-73.2226 41.161404)"
"N2461",,"STAMFORD SUBARU LLC","198 BAXTER AVE",,"STAMFORD","CT","06902","2023-03-31T00:00:00.000","NEW DEALER","POINT (-73.560014 41.044257)"
"R7214",,"CHECKERED FLAG AUTO LLC","444 COLONY ST",,"MERIDEN","CT","06451-2052","2023-07-31T00:00:00.000","GENERAL REPAIRER","POINT (-72.793797 41.548394)"
"R7614",,"NEW PARK AVE AUTO BODY LLC","12-14 NEW PARK AVE",,"HARTFORD","CT","06106","2023-03-31T00:00:00.000","GENERAL REPAIRER","POINT (-72.706477 41.756704)"
"R7083",,"A 1 COMPLETE AUTOCARE LLC","655 BOSTON POST RD",,"GUILFORD","CT","06437-2711","2023-02-28T00:00:00.000","GENERAL REPAIRER","POINT (-72.670166 41.28879)"
"U8368","DBA","ANTHONY PUZINSKI","41 BIRDEN ST",,"TORRINGTON","CT","06790","2024-01-31T00:00:00.000","USED DEALER","POINT (-73.138856 41.805066)"
"R0115",,"COTALINGS AUTO BODY INC","130 CONNECTICUT AVE",,"NORWALK","CT","06854","2024-02-29T00:00:00.000","GENERAL REPAIRER","POINT (-73.429244 41.105133)"
"U4923",,"CALVOS AUTO BODY","85 SMALLEY ST",,"NEW BRITAIN","CT","06051-2015","2023-03-31T00:00:00.000","USED DEALER","POINT (-72.769546 41.673396)"
"N2759","DBA","DBA BALISE HYUNDAI OF FAIRFIELD","338 COMMERCE DR",,"FAIRFIELD","CT","06824","2024-09-30T00:00:00.000","NEW DEALER","POINT (-73.229379 41.165961)"
"U2260",,"D AND A MOTORS INC","426 FRONT AVE",,"WEST HAVEN","CT","06516-2041","2022-10-31T00:00:00.000","USED DEALER","POINT (-72.955283 41.294976)"
"U8469",,"CJPD LLC","237 E MAIN ST",,"BRISTOL","CT","06010-7077","2022-12-31T00:00:00.000","USED DEALER","POINT (-72.888933 41.67297)"
"N0163","DBA","DBA APLHA ROMEO OF GREENWICH","338-342 W PUTNAM AVE",,"GREENWICH","CT","06830","2023-07-31T00:00:00.000","NEW DEALER","POINT (-73.63734 41.023448)"
"U8776",,"AW AUTOMOTIVE LLC","35 BAEDER ST",,"TORRINGTON","CT","06790-5421","2023-12-31T00:00:00.000","USED DEALER","POINT (-73.117257 41.801876)"
"U6763",,"HANSEN AUTOBODY LLC","1788 BARNUM AVE",,"STRATFORD","CT","06614","2024-01-31T00:00:00.000","USED DEALER","POINT (-73.144023 41.193988)"
"O6321",,"QUIET CORNER CLASSICS LLC","453 ROSELAND PARK RD",,"WOODSTOCK","CT","06281-2330","2023-03-31T00:00:00.000","LEASING LICENSE","POINT (-71.961085 41.968817)"
"U4548",,"DERIU AND SONS INC","1945 BALDWIN ST",,"WATERBURY","CT","06706-2602","2024-05-31T00:00:00.000","USED DEALER","POINT (-73.038364 41.527026)"
"R6960",,"CHRIS HOOD LLC","322 W MAIN ST",,"BRANFORD","CT","06405","2023-10-31T00:00:00.000","GENERAL REPAIRER","POINT (-72.851626 41.279001)"
"U8201",,"BERGERON LLC","239 S CANTERBURY RD",,"CANTERBURY","CT","06331-1535","2024-07-31T00:00:00.000","USED DEALER","POINT (-71.972461 41.676349)"
"R1348",,"GAMACHE SERVICE STATION","38 BOSTON POST RD",,"WILLIMANTIC","CT","06226-2920","2023-02-28T00:00:00.000","GENERAL REPAIRER","POINT (-72.196617 41.717845)"
"N0380","DBA","DBA BRUCE BENNETT NISSAN","978 DANBURY RD",,"WILTON","CT","06897-4808","2023-02-28T00:00:00.000","NEW DEALER","POINT (-73.43603 41.260278)"
"U4443","DBA","DAVID AND RONALD MATTEI","509 LAUREL ST BLDG 2",,"EAST HAVEN","CT","06512-1538","2024-06-30T00:00:00.000","USED DEALER","POINT (-72.867213 41.300395)"
"U7730",,"WILLIAMS SERVICE CENTER INC","56 TUNXIS AVE",,"BLOOMFIELD","CT","06002-2006","2022-10-31T00:00:00.000","USED DEALER","POINT (-72.739117 41.836606)"
"U4575","DBA","MICHAEL LANGER","578 1/2 TERRYVILLE RD",,"BRISTOL","CT","06010","2023-09-30T00:00:00.000","USED DEALER","POINT (-72.987134 41.670014)"
"N2209","DBA","QUALITY SUBARU","711 N COLONY RD",,"WALLINGFORD","CT","06492-2407","2024-07-31T00:00:00.000","NEW DEALER","POINT (-72.815263 41.472044)"
"N2479",,"S CAMEROTA & SONS INC","239 SHAKER RD",,"ENFIELD","CT","06082","2024-02-29T00:00:00.000","NEW DEALER","POINT (-72.526745 42.013621)"
"U8925",,"CARMINE AUTO SALES LLC","435 S MAIN ST",,"THOMASTON","CT","06787","2023-08-31T00:00:00.000","USED DEALER","POINT (-73.079757 41.662494)"
"U6615","DBA","RONALD DEFRANCESCHI","59 CENTRAL AVE",,"TORRINGTON","CT","06790-5127","2022-12-31T00:00:00.000","USED DEALER","POINT (-73.132041 41.80246)"
"U6683",,"NEW STREET MOTORS LLC","29 1/2 NEW STREET",,"DANBURY","CT","06810","2023-06-30T00:00:00.000","USED DEALER","POINT (-73.456266 41.394372)"
"N0873","DBA","TOYOTA OF GREENWICH","75 E PUTNAM AVE",,"COS COB","CT","06807-2604","2024-05-31T00:00:00.000","NEW DEALER","POINT (-73.602994 41.036628)"
"J4150",,"LAJOIES AUTO PARTS INC","46 MEADOW ST",,"NORWALK","CT","06854","2024-04-30T00:00:00.000","RECYCLER","POINT (-73.417823 41.087939)"
"U6661",,"RICH GRAVELS AUTOMOTIVE COLLSION REPAIR INC","301 MCMAHON DR",,"THOMASTON","CT","06787-1830","2023-04-30T00:00:00.000","USED DEALER","POINT (-73.078928 41.665739)"
"U8705",,"COPART OF CONNECTICUT INC","49 RUSSELL RD",,"EAST GRANBY","CT","06026-9765","2023-05-31T00:00:00.000","USED DEALER","POINT (-72.702264 41.941551)"
"U5641",,"BOSCOS AUTOMOTIVE INC","24 SIMON RD",,"ENFIELD","CT","06082-5904","2023-05-31T00:00:00.000","USED DEALER","POINT (-72.561892 41.950752)"
"O6208",,"NORTHWEST HILLS CHRYSLER JEEP LLC","2033 E MAIN ST",,"TORRINGTON","CT","06790-3111","2023-03-31T00:00:00.000","LEASING LICENSE","POINT (-73.073275 41.821068)"
"U8890","DBA","DBA JILL KULMANN","1411 MERIDEN RD",,"WOLCOTT","CT","06716-3123","2023-06-30T00:00:00.000","USED DEALER","POINT (-72.970906 41.553846)"
"U8204",,"JOHN FITCH AUTOMOTIVE LLC","1265 JOHN FITCH BLVD UNITS 1 AND 2",,"SOUTH WINDSOR","CT","06074","2024-07-31T00:00:00.000","USED DEALER","POINT (-72.601721 41.840216)"
"U0612",,"MURPHYS AUTO SERVICE INC","56 CHESHIRE RD",,"PROSPECT","CT","06712","2023-11-30T00:00:00.000","USED DEALER","POINT (-72.969544 41.500446)"
"U8524",,"NATIONAL FLEET LEASING LLC","157 SOUTH RD",,"ENFIELD","CT","06082-4413","2023-06-30T00:00:00.000","USED DEALER","POINT (-72.578074 41.975997)"
"M0801",,"ISUZU COMMERCIAL TRUCK OF AMERICA","1400 S DOUGLASS RD STE 100",,"ANAHEIM","CA","92806","2023-06-30T00:00:00.000","MANUFACTURER LICENSE","POINT (-117.877687 33.811526)"
"U2093",,"AUTO WORKS","RT 800",,"LITCHFIELD","CT","06791","2022-11-30T00:00:00.000","USED DEALER",
"N2637","DBA","DBA BMW OF GREENWICH","348-355 W PUTNAM AVE",,"GREENWICH","CT","06830","2024-02-29T00:00:00.000","NEW DEALER","POINT (-73.638148 41.023106)"
"U7095","DBA","DENISE MELENDEZ","224 DAVENPORT AVE",,"NEW HAVEN","CT","06519-1360","2024-01-31T00:00:00.000","USED DEALER","POINT (-72.941322 41.301523)"
"R5613","DBA","MICHAEL H MARTEL","901 MIGEON AVE",,"TORRINGTON","CT","06790-4526","2024-04-30T00:00:00.000","GENERAL REPAIRER","POINT (-73.142162 41.817053)"
"R5117",,"PHILS AUTOMOTIVE SERVICE INC","457 SPRING ST",,"WINDSOR LOCKS","CT","06096","2023-01-31T00:00:00.000","GENERAL REPAIRER","POINT (-72.659381 41.931945)"
"R7564",,"DANIELSON AUTO LLC","7 COMMERCE AVE",,"DANIELSON","CT","06239-2804","2024-06-30T00:00:00.000","GENERAL REPAIRER","POINT (-71.884446 41.804881)"
"R4589",,"FOUR CORNERS SERVICE STA INC","1500 ROUTE 80",,"GUILFORD","CT","06437-1448","2024-07-31T00:00:00.000","GENERAL REPAIRER","POINT (-72.728139 41.350318)"
"U1019",,"GOWANS KNIGHT CO INC","49 KNIGHT ST",,"WATERTOWN","CT","06795-3126","2023-08-31T00:00:00.000","USED DEALER","POINT (-73.10676 41.593326)"
"N0503","DBA","ARTIOLI DODGE","517-525 ENFIELD ST",,"ENFIELD","CT","06082","2022-11-30T00:00:00.000","NEW DEALER","POINT (-72.593535 42.010176)"
"U8447",,"BRYON'S AUTO LLC","172 KELSEY ST",,"NEWINGTON","CT","06111","2022-10-31T00:00:00.000","USED DEALER","POINT (-72.747328 41.654094)"
"U5060",,"SULLIVANS SERVICE CENTER LLC","270 HAMILTON AVE",,"NORWICH","CT","06360-4810","2023-12-31T00:00:00.000","USED DEALER","POINT (-72.054686 41.528903)"
"N2793","DBA","DBA HONDA OF STAMFORD","35 MAGEE AVE",,"STAMFORD","CT","06902-5905","2023-01-31T00:00:00.000","NEW DEALER","POINT (-73.528543 41.048353)"
"M1041",,"FOREST RIVER BUS LLC","2367 CENTURY DR",,"GOSHEN","IN","46528-5002","2023-06-30T00:00:00.000","MANUFACTURER LICENSE","POINT (-85.780431 41.559209)"
"U8474",,"NEW ENGLAND PERFORMANCE PRODUCTS LLC","1165 THOMASTON AVE",,"WATERBURY","CT","06704","2023-01-31T00:00:00.000","USED DEALER","POINT (-73.04889 41.580741)"
"U8464",,"AUTO HOUSE OF LUXURY LLC","910 MERIDEN WATERBURY TPKE",,"PLANTSVILLE","CT","06479-2010","2022-12-31T00:00:00.000","USED DEALER","POINT (-72.875171 41.563245)"
"U0876",,"ML RENTAL SYSTEMS INC","1506 NEW BRITAIN AVE",,"FARMINGTON","CT","06032-3126","2023-09-30T00:00:00.000","USED DEALER","POINT (-72.861908 41.714328)"
"O0515",,"HRAL LLC","1 OLYMPIC PLACE SUITE 1010",,"TOWSON","MD","21204","2023-03-31T00:00:00.000","LEASING LICENSE","POINT (-76.602736 39.402493)"
"U5602",,"AUTO BODY AND REPAIR UNLIMITED LLC","785 WOODEND RD",,"STRATFORD","CT","06615-7326","2023-01-31T00:00:00.000","USED DEALER","POINT (-73.138244 41.170644)"
"R6451",,"ATTEMAL LLC","16 LOIS ST",,"NORWALK","CT","06851","2023-06-30T00:00:00.000","GENERAL REPAIRER","POINT (-73.384689 41.128287)"
"R6795",,"CARDINALE AUTO SERVICE INC","405 NORTH AVE",,"BRIDGEPORT","CT","06606-5130","2023-08-31T00:00:00.000","GENERAL REPAIRER","POINT (-73.192377 41.198033)"
"R6770",,"E Z AUTOMOTIVE LLC","643 NORTH AVE",,"BRIDGEPORT","CT","06606-5726","2023-02-28T00:00:00.000","GENERAL REPAIRER","POINT (-73.194475 41.195138)"
"O6299",,"EFFICIENCY ENTERPRISES INC","18 43 43RD ST",,"ASTORIA","NY","11105-1028","2024-03-31T00:00:00.000","LEASING LICENSE",
"U1225","DBA","BOARDWALK AUTO SALES","330 SULLIVAN AVE",,"SOUTH WINDSOR","CT","06074-1917","2023-06-30T00:00:00.000","USED DEALER","POINT (-72.589853 41.854252)"
"R7013",,"BASALS TRANSMISSIONS LLC","711 HEBRON AVE",,"GLASTONBURY","CT","06033","2023-09-30T00:00:00.000","GENERAL REPAIRER","POINT (-72.586214 41.715474)"
"U7768",,"STRIPLING AUTO SALES","75 BRIDGE ST",,"WILLIMANTIC","CT","06226","2023-05-31T00:00:00.000","USED DEALER","POINT (-72.220315 41.711356)"
"N0802",,"RUWET SIBLEY EQUP CORP","194 DANBURY RD",,"NEW MILFORD","CT","06776-4311","2024-06-30T00:00:00.000","NEW DEALER","POINT (-73.419699 41.547886)"
"R6081","DBA","NATIONAL TRANSMISSION","89 MAIN ST AND CROSS ST",,"NORWALK","CT","06851","2022-11-30T00:00:00.000","GENERAL REPAIRER",
"N0618",,"CAR SERVICE INC","543 545 547 COLMAN ST",,"NEW LONDON","CT","06320","2022-09-30T00:00:00.000","NEW DEALER","POINT (-72.116338 41.364335)"
"R7269","DBA","DBA FIRESTONE COMPLETE AUTO CARE","459 FARMINGTON AVE",,"PLAINVILLE","CT","06062-1325","2023-12-31T00:00:00.000","GENERAL REPAIRER","POINT (-72.849038 41.692736)"
"U7688",,"REYS AUTOMOTIVE LLC","981 HONEYSPOT RD",,"STRATFORD","CT","06615","2024-08-31T00:00:00.000","USED DEALER","POINT (-73.149572 41.173223)"
"N0551",,"DIGHELLO BROTHERS AUTO SALES INC","935 N MAIN STREET EXT",,"WALLINGFORD","CT","06492-1824","2022-10-31T00:00:00.000","NEW DEALER","POINT (-72.804412 41.489555)"
"O0355",,"WHEELS INC","666 GARLAND PL",,"DES PLAINES","IL","60016","2023-03-31T00:00:00.000","LEASING LICENSE","POINT (-87.875653 42.040711)"
"R7470",,"DULIN COLLISION CTR LLC","11 WARFIELD ST",,"MILFORD","CT","06461","2024-08-31T00:00:00.000","GENERAL REPAIRER","POINT (-73.103777 41.207557)"
"O6355",,"WELLS FARGO BANK NA","600 SOUTH 4TH ST MAL N9300-100",,"MINNEAPOLIS","MN","55415","2023-03-31T00:00:00.000","LEASING LICENSE","POINT (-93.260964 44.976029)"
"R5094",,"DMA INC","266 BRIDGE ST -BAYS 17-23",,"GROTON","CT","06340","2022-10-31T00:00:00.000","GENERAL REPAIRER","POINT (-72.07441 41.360148)"
"U8438","DBA","DBA THE EUROPEAN CAR","274 276 ALBANY TPK",,"CANTON","CT","06019","2022-10-31T00:00:00.000","USED DEALER",
"U1786",,"ROYALS GARAGE","16 18 CALHOUN ST",,"TORRINGTON","CT","06790","2023-02-28T00:00:00.000","USED DEALER","POINT (-73.120954 41.813472)"
"U6879",,"NERO AUTOBODY LLC","927 FOXON RD",,"EAST HAVEN","CT","06513-1842","2022-11-30T00:00:00.000","USED DEALER","POINT (-72.864326 41.321013)"
"N0299","DBA","DBA STEPHEN CADILLAC","1097 FARMINGTON AVE",,"BRISTOL","CT","06010-4706","2023-03-31T00:00:00.000","NEW DEALER","POINT (-72.906983 41.696324)"
"U5072",,"CAMCO RENTAL SYSTEMS INC","1555 1557 STATE ST",,"NEW HAVEN","CT","06511","2024-02-29T00:00:00.000","USED DEALER","POINT (-72.896734 41.325132)"
"U7104",,"JNI AUTO LLC","892 NEW BRITAIN AVE",,"HARTFORD","CT","06106-3921","2024-02-29T00:00:00.000","USED DEALER","POINT (-72.713434 41.731732)"
"U8583",,"SMART BUY AUTO SALES LLC","809 N COLONY RD",,"WALLINGFORD","CT","06492-2409","2024-02-29T00:00:00.000","USED DEALER","POINT (-72.812371 41.477222)"
"R7530","DBA","DBA NELCON SERVICE CENTER","326 OLD MAPLE AVE",,"NORTH HAVEN","CT","06473-3248","2023-12-31T00:00:00.000","GENERAL REPAIRER","POINT (-72.85297 41.368476)"
"R6537",,"AAA BEST AUTO REPAIR LLC","2230 NORWICH NEW LONDON TPKE",,"UNCASVILLE","CT","06382","2024-08-31T00:00:00.000","GENERAL REPAIRER","POINT (-72.100017 41.485147)"
"N0437","DBA","DBA GATES NISSAN","143 129 107R BOSTON POST RD",,"NORTH WINDHAM","CT","06256","2023-01-31T00:00:00.000","NEW DEALER","POINT (-72.188078 41.728029)"
"R7595",,"AAMCO NORTHEAST LLC","150 BOSTON POST RD",,"ORANGE","CT","06477","2022-11-30T00:00:00.000","GENERAL REPAIRER","POINT (-72.992886 41.273722)"
"R7385",,"L AND G AUTO TECH LLC","568 DANBURY RD",,"NEW MILFORD","CT","06776","2023-04-30T00:00:00.000","GENERAL REPAIRER","POINT (-73.420335 41.508609)"
"U6495",,"RANCO COLLISION LLC","72 COMMERCE WAY",,"SOUTH WINDSOR","CT","06074-1151","2024-05-31T00:00:00.000","USED DEALER","POINT (-72.598726 41.859916)"
"U1535","DBA","DBA SIDS AUTO","243 FORSYTH RD",,"SALEM","CT","06420-4048","2023-04-30T00:00:00.000","USED DEALER","POINT (-72.24148 41.481818)"
"R7627","DBA","CORAM AUTOMOTIVE REPAIR","372 374 CORAM AVE",,"SHELTON","CT","06484","2023-05-31T00:00:00.000","GENERAL REPAIRER","POINT (-73.09495 41.317171)"
"O0855",,"GTA RENTAL CORPORATION","820 STAFFORD AVE APT 50",,"BRISTOL","CT","06010-3862","2024-03-31T00:00:00.000","LEASING LICENSE","POINT (-72.909923 41.698623)"
"R7737",,"TOWN FAIR TIRE CENTERS OF CONN LLC","61 BOSTON POST RD",,"ORANGE","CT","06477","2024-03-31T00:00:00.000","GENERAL REPAIRER","POINT (-72.988014 41.277873)"
"R0274",,"TECHNICAL REPAIR AUTOMOTIVE","14 MONROE AVE",,"WATERBURY","CT","06705-1417","2023-12-31T00:00:00.000","GENERAL REPAIRER","POINT (-73.012209 41.550457)"
"U0748",,"TWIN CEDARS INC","652 NORWICH WESTERLY RD",,"NORTH STONINGTON","CT","06359-1214","2023-10-31T00:00:00.000","USED DEALER","POINT (-71.927763 41.465732)"
"R5841",,"DIGENNARO SERVICE LLC","107 AMITY RD",,"BETHANY","CT","06524-3415","2023-10-31T00:00:00.000","GENERAL REPAIRER","POINT (-73.000973 41.398152)"
"N2634",,"POWER COVER USA LLC","37 COMMONS COURT",,"WATERBURY","CT","06704","2023-10-31T00:00:00.000","NEW DEALER","POINT (-73.057444 41.593385)"
"O1024",,"BRUSTOLON BUICK GMC INC","RTE 1 BOX 68",,"MYSTIC","CT","06355","2023-03-31T00:00:00.000","LEASING LICENSE",
"J2615",,"TARDUCCIS JUNK YARD INC","190 MIDDLETOWN AVE",,"NEW HAVEN","CT","06513-2103","2024-04-30T00:00:00.000","RECYCLER","POINT (-72.886359 41.323038)"
"U7780",,"CENTER MOTORSPORTS LLC","61 CENTER ST",,"SHELTON","CT","06484-3105","2023-03-31T00:00:00.000","USED DEALER","POINT (-73.093502 41.316508)"
"U8836",,"CARBONES AUTOMOTIVE LLC","281 WHALLEY AVE",,"NEW HAVEN","CT","06511-3208","2022-11-30T00:00:00.000","USED DEALER","POINT (-72.941906 41.316468)"
"N2591",,"WESTBROOK GATEWAY INC","80 FLAT ROCK PL",,"WESTBROOK","CT","06498-1579","2024-09-30T00:00:00.000","NEW DEALER","POINT (-72.442443 41.2901)"
"U6081","DBA","FRANK FRECCIA III","246 W PUTNAM AVE",,"GREENWICH","CT","06830-5242","2023-09-30T00:00:00.000","USED DEALER","POINT (-73.634394 41.025189)"
"U8622","DBA","DBA MUSANTE MOTORSPORTS","41 COMMERCE WAY",,"SOUTH WINDSOR","CT","06074-1152","2023-02-28T00:00:00.000","USED DEALER","POINT (-72.599809 41.85854)"
"U7813",,"CALDWELL GROUP INC","399 TREADWELL ST",,"HAMDEN","CT","06514-4112","2023-08-31T00:00:00.000","USED DEALER","POINT (-72.928825 41.353636)"
"U8059",,"AUTO EXPERTS LLC","1141 STATE ST",,"BRIDGEPORT","CT","06605-1505","2023-07-31T00:00:00.000","USED DEALER","POINT (-73.205524 41.171578)"
"N2548",,"STAMFORD FORD LINCOLN MERCURY LLC","212 MAGEE AVE",,"STAMFORD","CT","06902","2022-11-30T00:00:00.000","NEW DEALER","POINT (-73.526995 41.043229)"
"O5887","DBA","SULLIVAN HONDA","2015 E MAIN ST",,"TORRINGTON","CT","06790-3111","2023-03-31T00:00:00.000","LEASING LICENSE","POINT (-73.074355 41.821053)"
"M1001",,"MONROE TOWMASTER LLC","61381 US HIGHWAY 12",,"LITCHFIELD","MN","55355-5228","2023-06-30T00:00:00.000","MANUFACTURER LICENSE","POINT (-94.536903 45.147008)"
"U8941",,"A1 AUTO BODY LLC","26 BRIDGE ST",,"NEW MILFORD","CT","06776-3529","2024-04-30T00:00:00.000","USED DEALER","POINT (-73.412898 41.575994)"
"U0574",,"CONNECTICUT JOBBERS","22 RUSSELL RD",,"EAST GRANBY","CT","06026-9765","2023-12-31T00:00:00.000","USED DEALER","POINT (-72.707606 41.943706)"
"U4591",,"ROGGIS GARAGE INC","278 HUDSON ST",,"HARTFORD","CT","06106-1777","2023-09-30T00:00:00.000","USED DEALER","POINT (-72.67764 41.759653)"
"U8581",,"FILIPPELLIS SPEED SHOP LLC","204 E MAIN ST STE D",,"CLINTON","CT","06413-2257","2024-01-31T00:00:00.000","USED DEALER","POINT (-72.508455 41.273401)"
"U8550",,"CAPITOL AUTOMOTIVE 2 LLC","369 MAIN ST",,"MANCHESTER","CT","06040","2023-10-31T00:00:00.000","USED DEALER","POINT (-72.521692 41.780363)"
"R6736",,"MAGGS AUTO BODY LLC","4 BROAD ST",,"NORWALK","CT","06851-6110","2024-07-31T00:00:00.000","GENERAL REPAIRER","POINT (-73.424996 41.131206)"
"U8952",,"OBSELITE PERFORMANCE LLC","181 HANOVER ST",,"MERIDEN","CT","06451-5463","2024-05-31T00:00:00.000","USED DEALER","POINT (-72.808436 41.535622)"
"U0828","DBA","DBA BARNICK TRUCK AND EQUIPMENT","89 STODDARD AVE",,"NORTH HAVEN","CT","06473-2526","2023-10-31T00:00:00.000","USED DEALER","POINT (-72.868362 41.386123)"
"O0463",,"EQUITY FUND LEASING CORP","299 TERMINAL LN",,"NEW HAVEN","CT","06519-1800","2023-03-31T00:00:00.000","LEASING LICENSE","POINT (-72.948586 41.295124)"
"U7820",,"HOFFMAN OF EAST HARTFORD INC","650 CONNECTICUT BLVD",,"EAST HARTFORD","CT","06108","2023-08-31T00:00:00.000","USED DEALER","POINT (-72.656857 41.769555)"
"R6388","DBA","BULLS BRIDGE BODY SHOP","235 KENT RD",,"KENT","CT","06757-1409","2024-09-30T00:00:00.000","GENERAL REPAIRER","POINT (-73.50512 41.688161)"
"N2656","DBA","DBA ALPHA ROMEO OF WESTPORT","1026 POST RD E",,"WESTPORT","CT","06880-5369","2023-02-28T00:00:00.000","NEW DEALER","POINT (-73.329576 41.138817)"
"U7326",,"A AND S AUTO REPAIR AND BODY SHOP I","401 ELM ST",,"WEST HAVEN","CT","06516-4217","2024-02-29T00:00:00.000","USED DEALER","POINT (-72.956961 41.27375)"
"R5275",,"DUNNS SERVICE OF TRUMBULL INC","6335 MAIN ST",,"TRUMBULL","CT","06611-2030","2023-11-30T00:00:00.000","GENERAL REPAIRER","POINT (-73.226631 41.271692)"
"U8493","DBA","M M MOTORS","2036 N BROAD ST",,"MERIDEN","CT","06450-2412","2023-04-30T00:00:00.000","USED DEALER","POINT (-72.770822 41.572393)"
"O6322",,"PREMIUM AUTO II LLC","932 NEW BRITAIN AVE",,"WEST HARTFORD","CT","06110-2228","2023-03-31T00:00:00.000","LEASING LICENSE","POINT (-72.716199 41.731097)"
"U8667",,"5 M MOTORS INC","2575 STATE ST",,"HAMDEN","CT","06517-3003","2023-01-31T00:00:00.000","USED DEALER","POINT (-72.892225 41.350929)"
"U8899",,"A AND J AUTO LLC","306 RT 163",,"MONTVILLE","CT","06353","2023-07-31T00:00:00.000","USED DEALER","POINT (-72.130523 41.449597)"
"U7008","DBA","VINNIES GARAGE","493 CONNECTICUT AVE",,"BRIDGEPORT","CT","06607-1019","2023-07-31T00:00:00.000","USED DEALER","POINT (-73.168091 41.179391)"
"U5925",,"PA ASSOC INC OF OLD SAYBROOK","820 BOSTON POST RD",,"OLD SAYBROOK","CT","06475","2022-10-31T00:00:00.000","USED DEALER","POINT (-72.381366 41.293582)"
"R5309",,"JOHN ST FOREIGN AND DOM AUTOMOTIVE","48 JOHN ST",,"EAST HARTFORD","CT","06108","2024-02-29T00:00:00.000","GENERAL REPAIRER","POINT (-72.642249 41.77528)"
"R7296",,"UNIVERSAL AUTO BODY LLC","914 E MAIN ST STE 10",,"STAMFORD","CT","06902-4055","2023-12-31T00:00:00.000","GENERAL REPAIRER","POINT (-73.522777 41.056007)"
"U8934",,"MASTER TECH AUTO SALES AND SERVICE LLC","3 HAYDEN AVE UNIT 4",,"PLAINVILLE","CT","06062","2024-07-31T00:00:00.000","USED DEALER","POINT (-72.868056 41.663719)"
"J2660",,"RIVERSIDE AUTO SALVAGE","1215 THOMASTON AVE","RT 8","WATERBURY","CT","06704","2024-04-30T00:00:00.000","RECYCLER","POINT (-73.04882 41.581018)"
"M0943",,"PJ TRAILERS MANUFACTURING INC.","1807 FM 2352",,"SUMNER","TX","75486","2023-06-30T00:00:00.000","MANUFACTURER LICENSE","POINT (-95.834112 33.717945)"
"U5828","DBA","DONALD B HOWELL","7 RIVER RD",,"COLCHESTER","CT","06415-2541","2024-04-30T00:00:00.000","USED DEALER","POINT (-72.402876 41.580914)"
"R7616",,"EAST KILLINGLY AUTOCARE LLC","1260 HARTFORD PIKE",,"EAST KILLINGLY","CT","06243-1806","2023-04-30T00:00:00.000","GENERAL REPAIRER",
"O6338",,"TSC EQUIPMENT FINANCE LLC","301 GRANT ST STE 2700",,"PITTSBURGH","PA","15219-6414","2024-03-31T00:00:00.000","LEASING LICENSE","POINT (-79.998253 40.437326)"
"U0762","DBA","CERUTTI MARIO","913 MIGEON AVE",,"TORRINGTON","CT","06790","2023-10-31T00:00:00.000","USED DEALER","POINT (-73.142347 41.817197)"
"U1975","DBA","DBA SKIS GARAGE","996 NORWICH NEW LONDON TPKE",,"UNCASVILLE","CT","06382-1614","2022-12-31T00:00:00.000","USED DEALER","POINT (-72.106622 41.453542)"
"N2654","DBA","DBA MIDDLETOWN NISSAN","1153 NEWFIELD ST",,"MIDDLETOWN","CT","06457-1817","2022-12-31T00:00:00.000","NEW DEALER","POINT (-72.675748 41.590745)"
"R7790","DBA","VALVOLINE INSTANT OIL CHANGE","1249 FARMINGTON AVE",,"WEST HARTFORD","CT","06107-2682","2023-07-31T00:00:00.000","GENERAL REPAIRER","POINT (-72.768092 41.754136)"
"U4219",,"ROGERS SERVICE CO INC","18 NEW HAVEN AVE",,"MILFORD","CT","06460-3307","2024-08-31T00:00:00.000","USED DEALER","POINT (-73.056332 41.22251)"
"O6377",,"GLOBAL LEASE GROUP INC","3 TIDD CIRCLE STE 1",,"LEXINGTON","MA","02420","2023-03-31T00:00:00.000","LEASING LICENSE","POINT (-71.234805 42.472125)"
"U0307",,"L AND D AUTOMOTIVE INC","200 MAIN ST",,"EAST HARTFORD","CT","06118-3602","2024-02-29T00:00:00.000","USED DEALER","POINT (-72.62953 41.737076)"
"R5377","DBA","TERRY PELCZAR","40 RAMP RD",,"CANTON","CT","06019","2024-06-30T00:00:00.000","GENERAL REPAIRER","POINT (-72.933329 41.83444)"
"U8602",,"FOUR TOWN MOTORS LLC","8 EGYPT RD",,"SOMERS","CT","06071-2023","2024-06-30T00:00:00.000","USED DEALER","POINT (-72.458629 41.964671)"
"N2687","DBA","FIVE STAR FIRE","45 BRAINARD RD",,"HARTFORD","CT","06114-1601","2024-09-30T00:00:00.000","NEW DEALER","POINT (-72.660058 41.739361)"
"R5503","DBA","NICHOLAS PAPPACODA","220 FOXON RD",,"NORTH BRANFORD","CT","06471-1001","2023-06-30T00:00:00.000","GENERAL REPAIRER","POINT (-72.815697 41.328012)"
"U0680",,"HILLSIDE AUTOMOTIVE CENTER INC","54 HILLSIDE AVE",,"HARTFORD","CT","06106-3015","2023-11-30T00:00:00.000","USED DEALER","POINT (-72.697625 41.751958)"
"U6895","DBA","JOZEF BARAN","537 GLASTONBURY TPKE",,"PORTLAND","CT","06480-1033","2022-12-31T00:00:00.000","USED DEALER","POINT (-72.602114 41.608825)"
"R6692",,"1126 MIDDLEBURY ROAD GARAGE LLC","1126 MIDDLEBURY RD",,"MIDDLEBURY","CT","06762-2302","2024-02-29T00:00:00.000","GENERAL REPAIRER","POINT (-73.123793 41.533637)"
"R4566",,"RALLYE TIRE AND AUTO SER INC","22 CROSS ST",,"NORWALK","CT","06851-4613","2024-08-31T00:00:00.000","GENERAL REPAIRER","POINT (-73.415256 41.120258)"
"R6352",,"ATLANTIC AUTO SERVICE LLC","182 FORT HILL RD",,"GROTON","CT","06340-4334","2024-06-30T00:00:00.000","GENERAL REPAIRER","POINT (-72.021649 41.347113)"
"R7705",,"DOUBLE CLUTCH GARAGE LLC","32 NORTH RD UNIT 11",,"EAST WINDSOR","CT","06088","2022-10-31T00:00:00.000","GENERAL REPAIRER","POINT (-72.600186 41.932181)"
"N2542",,"CANDLEWOOD VALLEY MOTORS LLC","514 DANBURY RD",,"NEW MILFORD","CT","06776-4318","2024-07-31T00:00:00.000","NEW DEALER","POINT (-73.422309 41.516572)"
"R7741",,"TOWN FAIR TIRE CENTERS OF CONN LLC","980 NEW BRITAIN AVE",,"WEST HARTFORD","CT","06110","2024-03-31T00:00:00.000","GENERAL REPAIRER","POINT (-72.719716 41.73038)"
"R7562","DBA","DBA HIGH RIDGE SHELL","899 HIGH RIDGE RD",,"STAMFORD","CT","06905-1916","2024-05-31T00:00:00.000","GENERAL REPAIRER","POINT (-73.548043 41.10226)"
"R6891",,"YE OLD STATION AUTO BODY INC.","1322 WATERBURY RD",,"CHESHIRE","CT","06410","2022-12-31T00:00:00.000","GENERAL REPAIRER","POINT (-72.932622 41.527026)"
"N2169",,"HARLEY DAVIDSON OF DANBURY INC","51 FEDERAL RD",,"DANBURY","CT","06810-4001","2022-09-30T00:00:00.000","NEW DEALER","POINT (-73.419762 41.419135)"
"U4995",,"ESPOSITO AUTO BODY","3 GOLD ST",,"NORWALK","CT","06850-1637","2023-08-31T00:00:00.000","USED DEALER","POINT (-73.427691 41.136922)"
"R0959",,"WESTOVER SERVICE INC","10 WEST AVE",,"STAMFORD","CT","06902-4644","2023-06-30T00:00:00.000","GENERAL REPAIRER","POINT (-73.557302 41.053198)"
"U7287",,"594 WEST MAIN AUTO LLC","594 W MAIN ST",,"WATERBURY","CT","06702-1014","2023-07-31T00:00:00.000","USED DEALER","POINT (-73.051274 41.558285)"
"U8940",,"RIDDYS TIRE SERVICE LLC","120 W TOWN ST",,"NORWICH","CT","06360-2239","2024-04-30T00:00:00.000","USED DEALER","POINT (-72.103877 41.552279)"
"L3101","DBA","STEVES AUTOMOTIVE REPAIR AND TIRE","45 SCHOOL ST",,"GLASTONBURY","CT","06033-2240","2024-06-30T00:00:00.000","LIMITED REPAIRER","POINT (-72.606314 41.710872)"
"O5948","DBA","ACURA OF MILFORD","1503 BOSTON POST RD",,"MILFORD","CT","06460","2024-03-31T00:00:00.000","LEASING LICENSE","POINT (-73.030143 41.243464)"
"R7090",,"AC AUTO BODY AND MECHANICAL SERVICE INC","182 MAIN ST",,"NEW CANAAN","CT","06840-5602","2023-04-30T00:00:00.000","GENERAL REPAIRER","POINT (-73.491119 41.144944)"
"O6177",,"BG OF DANBURY LLC","84 FEDERAL RD",,"DANBURY","CT","06810","2024-03-31T00:00:00.000","LEASING LICENSE","POINT (-73.428154 41.409881)"
"O0254",,"REO TRUCK RENTAL INC","120 UNIVERSAL DR",,"NORTH HAVEN","CT","06473-3630","2023-03-31T00:00:00.000","LEASING LICENSE","POINT (-72.869551 41.344635)"
"U7269",,"DIGITAL SOUND AUTO REPAIR LLC","946 NEW BRITAIN AVE",,"WEST HARTFORD","CT","06119","2023-05-31T00:00:00.000","USED DEALER","POINT (-72.716917 41.73095)"
"U8607",,"ADVANCE AUTO SALES LLC","64 FEDERAL RD",,"DANBURY","CT","06810-5034","2024-07-31T00:00:00.000","USED DEALER","POINT (-73.429605 41.407217)"
"R4787",,"GOODYEAR TIRE AND RUBBER CO.","306 MARKET ST -  BZ",,"HARTFORD","CT","06105","2022-10-31T00:00:00.000","GENERAL REPAIRER","POINT (-72.670962 41.771799)"
"U1296",,"ROGERS AUTO BODY","65 ROCKWELL AVE",,"NEW BRITAIN","CT","06051","2023-06-30T00:00:00.000","USED DEALER","POINT (-72.78254 41.65995)"
"O6130",,"M AND F AUTO RENTAL LLC","1015 NORTH AVE",,"BRIDGEPORT","CT","06606-5740","2023-03-31T00:00:00.000","LEASING LICENSE","POINT (-73.198037 41.190754)"
"U1688",,"DOANES ACCENT AUTO INC","1106 EAST ST S",,"SUFFIELD","CT","06078-2408","2023-03-31T00:00:00.000","USED DEALER","POINT (-72.627986 41.94961)"
"L3468",,"TB12 SERVICE LLC","1429 E PUTNAM AVE",,"OLD GREENWICH","CT","06870-1307","2024-08-31T00:00:00.000","LIMITED REPAIRER","POINT (-73.571585 41.045293)"
"U7437",,"KINGSLEYS AUTOMOTIVE CENTER LLC","837 WINDSOR ST",,"HARTFORD","CT","06120-1919","2024-07-31T00:00:00.000","USED DEALER","POINT (-72.668835 41.790639)"
"N2238",,"CROWLEY CHRYSLER PLYMOUTH INC","9 BARBER ST",,"BRISTOL","CT","06010-7027","2023-12-31T00:00:00.000","NEW DEALER","POINT (-72.91102 41.669296)"
"U6714",,"AMERICAN WHOLESALER LLC","8 THOMPSON RD",,"EAST WINDSOR","CT","06088","2023-08-31T00:00:00.000","USED DEALER","POINT (-72.609365 41.912763)"
"O5952",,"LIFT UP INC","32 STONY HILL RD",,"BETHEL","CT","06801","2024-03-31T00:00:00.000","LEASING LICENSE","POINT (-73.390937 41.416294)"
"U8427",,"BULLS BRIDGE GARAGE LLC","337 KENT RD",,"KENT","CT","06757-1425","2024-08-31T00:00:00.000","USED DEALER","POINT (-73.50704 41.674916)"
"U5280",,"HERITAGE AUTO SALES INC","718 W MAIN ST",,"WATERBURY","CT","06702","2023-03-31T00:00:00.000","USED DEALER","POINT (-73.053182 41.557549)"
"R4603","DBA","IVORYTON SERVICE STATION","114 MAIN ST",,"ESSEX","CT","06426","2024-07-31T00:00:00.000","GENERAL REPAIRER","POINT (-72.421159 41.350165)"
"N2743",,"HARTFORD RIDERS LLC","221 GOVERNOR ST",,"EAST HARTFORD","CT","06108-2149","2024-05-31T00:00:00.000","NEW DEALER","POINT (-72.653173 41.771013)"
"N2592","DBA","DANBURY KIA","100A FEDERAL RD",,"DANBURY","CT","06810-5034","2023-01-31T00:00:00.000","NEW DEALER","POINT (-73.424448 41.413768)"
"R4594",,"RIDGEFIELD AUTO BODY INC","721 DANBURY RD",,"RIDGEFIELD","CT","06877","2024-07-31T00:00:00.000","GENERAL REPAIRER","POINT (-73.473302 41.329165)"
"U4684","DBA","THOMAS J MINOR III","695 NORWICH RD",,"PLAINFIELD","CT","06374-1734","2024-02-29T00:00:00.000","USED DEALER","POINT (-71.914778 41.673391)"
"U8543",,"AUTOMAX LLC","988 NEW BRITAIN AVE",,"WEST HARTFORD","CT","06110-2233","2023-09-30T00:00:00.000","USED DEALER","POINT (-72.720307 41.730287)"
"O6175",,"DELLAHAYE LEASING COMPANY INC","401 LIBERTY ST",,"MERIDEN","CT","06450","2024-03-31T00:00:00.000","LEASING LICENSE","POINT (-72.783797 41.534213)"
"O5890","DBA","DBATOYOTA OF WALLINGFORD","859 861 N COLONY RD",,"WALLINGFORD","CT","06492","2024-03-31T00:00:00.000","LEASING LICENSE","POINT (-72.811216 41.479315)"
"R5525",,"WILBRAHAM TIRE AND AUTO SERV INC","65 FRESHWATER BLVD",,"ENFIELD","CT","06082","2023-08-31T00:00:00.000","GENERAL REPAIRER","POINT (-72.577303 41.994155)"
"R7476",,"LENAS AUTOMOTIVE LLC","245A UNIT C EAST BARBER ST",,"WINDSOR","CT","06095","2022-10-31T00:00:00.000","GENERAL REPAIRER","POINT (-72.650111 41.813369)"
"U4820","DBA","DAVID SIMONDS","43 N ELM ST",,"CANAAN","CT","06018-2147","2022-10-31T00:00:00.000","USED DEALER","POINT (-73.323365 42.026572)"
"R7192",,"CONSOLIDATED UTILITY EQUIPMENT SVC INC","53 LEBANON RD",,"NORTH FRANKLIN","CT","06254-1803","2024-05-31T00:00:00.000","GENERAL REPAIRER","POINT (-72.138039 41.575615)"
"N2796",,"GABRIELLI KENWORTH OF CT LLC","312 WOODMONT RD",,"MILFORD","CT","06460-2846","2024-07-31T00:00:00.000","NEW DEALER","POINT (-73.016455 41.236915)"
"U0605",,"EASTWOOD TOWING INC","3080 E MAIN ST",,"WATERBURY","CT","06705-3422","2023-11-30T00:00:00.000","USED DEALER","POINT (-72.985342 41.545807)"
"U1741",,"UNITED MOTOR SALES","30 TORRINGTON  AVE.",,"COLLINSVILLE","CT","06019-3305","2023-02-28T00:00:00.000","USED DEALER","POINT (-72.926194 41.810019)"
"U6748",,"COLUMBIA FORD INC","153 BOSTON POST RD",,"NORTH WINDHAM","CT","06256-1302","2023-11-30T00:00:00.000","USED DEALER","POINT (-72.187064 41.728909)"
"R7837",,"CAM AUTOMOTIVE LLC","69 EAST ST STE 1A",,"BETHLEHEM","CT","06751","2024-05-31T00:00:00.000","GENERAL REPAIRER","POINT (-73.201727 41.639763)"
"R5496",,"GRANTS AUTO BODY INC","469 POST RD",,"DARIEN","CT","06820-3607","2023-05-31T00:00:00.000","GENERAL REPAIRER","POINT (-73.462664 41.084594)"
"R7493","DBA","DBA ULTIMATE AUTOMOTIVE SERVICES","145 MILES STREET",,"BRIDGEPORT","CT","06607","2023-03-31T00:00:00.000","GENERAL REPAIRER","POINT (-73.156664 41.181535)"
"U0432",,"MEROLA MOTORS INC","93 STATE ST",,"NORTH HAVEN","CT","06473-2206","2024-01-31T00:00:00.000","USED DEALER","POINT (-72.874142 41.386432)"
"U7883",,"LAKESIDE AUTOMOTIVE LLC","186 E HIGH ST",,"EAST HAMPTON","CT","06424-2007","2024-04-30T00:00:00.000","USED DEALER","POINT (-72.488134 41.599668)"
"N2744",,"SOMERSVILLE AUTO SALES INC.","15 FIELD RD",,"SOMERS","CT","06071-2035","2024-05-31T00:00:00.000","NEW DEALER","POINT (-72.448519 41.980746)"
"N2608",,"340 GOLD STAR INC","RT 184 340 GOLD STAR HIGHWAY",,"GROTON","CT","06340","2023-12-31T00:00:00.000","NEW DEALER",
"U8011",,"KMP MANAGEMENT LLC","52 TRUMAN ST",,"NEW LONDON","CT","06320-5047","2023-03-31T00:00:00.000","USED DEALER","POINT (-72.103423 41.350806)"
"L3257",,"A AND W AUTOMOTIVE","86 BALL POND RD",,"DANBURY","CT","06811-2851","2022-12-31T00:00:00.000","LIMITED REPAIRER","POINT (-73.518505 41.444064)"
"O6173",,"DINGLE EQUIPMENT LLC","22 PETERS RD",,"BLOOMFIELD","CT","06002-1333","2024-03-31T00:00:00.000","LEASING LICENSE","POINT (-72.734634 41.857393)"
"R7732",,"TOWN FAIR TIRE CENTERS OF CONN LLC","944A N COLONY RD",,"WALLINGFORD","CT","06492","2024-03-31T00:00:00.000","GENERAL REPAIRER","POINT (-72.809636 41.486882)"
"R7675",,"AUTOMOTIVE 7 CORP","991 DIXWELL AVE",,"HAMDEN","CT","06514-4913","2024-01-31T00:00:00.000","GENERAL REPAIRER","POINT (-72.935184 41.340323)"
"J4146",,"KLEEMANN AUTO PARTS LLC","49 LONG SOCIETY RD",,"PRESTON","CT","06365-8410","2024-04-30T00:00:00.000","RECYCLER","POINT (-72.034894 41.534748)"
"R5991","DBA","GEORGE T GERARD","1017 BOSTON POST RD STE A",,"MADISON","CT","06443-3385","2023-02-28T00:00:00.000","GENERAL REPAIRER","POINT (-72.580303 41.276917)"
"U8876",,"AUTO TECH SERVICE INC","64 MAGEE AVE",,"STAMFORD","CT","06902-5907","2023-04-30T00:00:00.000","USED DEALER","POINT (-73.528553 41.047637)"
"U0956",,"GUYS OIL SERVICE STATION INC","86 87 90 W MAIN STREET",,"NIANTIC","CT","06357","2023-09-30T00:00:00.000","USED DEALER","POINT (-72.213967 41.320185)"
"U8676","DBA","DBA SHORELINE QUICK LUBE","2 CENTER RD",,"OLD SAYBROOK","CT","06475-4054","2023-02-28T00:00:00.000","USED DEALER","POINT (-72.41158 41.286601)"
"J2540",,"JC RECYCLING INC","45 HALL AVE",,"MERIDEN","CT","06450-7744","2024-04-30T00:00:00.000","RECYCLER","POINT (-72.80969 41.522113)"
"U4456",,"COMPLETE AUTO REPAIR INC","439 WASHINGTON AVE",,"NORTH HAVEN","CT","06473-1310","2024-06-30T00:00:00.000","USED DEALER","POINT (-72.842152 41.411466)"
"U1114","DBA","DEPALMA LOUIS F","750 BOSTON POST RD",,"WEST HAVEN","CT","06516-1840","2023-07-31T00:00:00.000","USED DEALER","POINT (-72.973253 41.287551)"
"R7486",,"STEAMBOAT MOTORS LLC","1 SWANSON AVE",,"DANBURY","CT","06810-6245","2023-01-31T00:00:00.000","GENERAL REPAIRER","POINT (-73.426015 41.413027)"
"U7845",,"LAUREL HILL AUTOMOTIVE & TIRE LLC","315 LAUREL HILL AVE",,"NORWICH","CT","06360","2024-01-31T00:00:00.000","USED DEALER","POINT (-72.074627 41.512604)"
"U8800",,"SINCLAIR AUTO PALACE LLC","11 MAIN ST",,"MOOSUP","CT","06354-1524","2024-03-31T00:00:00.000","USED DEALER","POINT (-71.880927 41.713529)"
"U0658",,"LEBOV IRON WORKS INC","410 ELLA GRASSO BLVD",,"NEW HAVEN","CT","06519-1804","2023-11-30T00:00:00.000","USED DEALER","POINT (-72.942053 41.291406)"
"O1751",,"GENES RENTAL CENTER INC","304 BOSTON POST RD",,"ORANGE","CT","06477-3505","2024-03-31T00:00:00.000","LEASING LICENSE","POINT (-73.003167 41.265381)"
"R7237",,"CLASSIC AUTO BODY","112A LAZY LANE",,"SOUTHINGTON","CT","06489","2023-02-28T00:00:00.000","GENERAL REPAIRER","POINT (-72.877489 41.62134)"
"U7622",,"MANNYS AUTO REPAIR LLC","722B WETHERSFIELD AVE",,"HARTFORD","CT","06114","2023-09-30T00:00:00.000","USED DEALER","POINT (-72.67086 41.736501)"
"U6450",,"INTERNATIONAL MOTOR SPORT LLC","1123 BOSTON POST RD",,"WEST HAVEN","CT","06516-2221","2024-02-29T00:00:00.000","USED DEALER","POINT (-72.982242 41.28192)"
"U6928",,"NEW ENGLAND AUTO SALES LLC","342 EAST ST",,"PLAINVILLE","CT","06062","2023-03-31T00:00:00.000","USED DEALER","POINT (-72.86792 41.656127)"
"U8431",,"PELLETIERS AUTO CENTER LLC","85 KENSINGTON AVE",,"MERIDEN","CT","06451-2011","2022-09-30T00:00:00.000","USED DEALER","POINT (-72.796265 41.549604)"
"O1973",,"SCHRADE GEORGE M","15 ROYAL CT",,"SHELTON","CT","06484-2936","2024-03-31T00:00:00.000","LEASING LICENSE","POINT (-73.110639 41.315557)"
"N2618",,"EURO PERFORMANCE CARS INC","77 LEIBERT RD",,"HARTFORD","CT","06120-1618","2024-03-31T00:00:00.000","NEW DEALER","POINT (-72.657675 41.784216)"
"R6222","DBA","BOOMER MC CLOUD","195 DEKOVEN DRIVE",,"MIDDLETOWN","CT","06457","2023-01-31T00:00:00.000","GENERAL REPAIRER","POINT (-72.646675 41.560687)"
"R7305",,"GOVERNORS AUTO BODY  INC","400 GOVERNOR ST",,"EAST HARTFORD","CT","06108-3925","2024-03-31T00:00:00.000","GENERAL REPAIRER","POINT (-72.660154 41.770753)"
"U6124",,"WILTON AUTO BODY REPAIR LLC","386 DANBURY RD",,"WILTON","CT","06897-2510","2023-12-31T00:00:00.000","USED DEALER","POINT (-73.431268 41.208917)"
"U6161","DBA","JOHN A MERKOWITZ","5 HAWTHORNE AVE",,"DERBY","CT","06418-1101","2024-03-31T00:00:00.000","USED DEALER","POINT (-73.09243 41.323835)"
"R7786","DBA","VALVOLINE INSTANT OIL CHANGE","648 RUBBER AVE",,"NAUGATUCK","CT","06770","2024-06-30T00:00:00.000","GENERAL REPAIRER","POINT (-73.076606 41.491808)"
"R5644",,"MONRO MUFFLER BRAKE INC","2009 SILAS DEANE HWY",,"ROCKY HILL","CT","06067-1320","2024-07-31T00:00:00.000","GENERAL REPAIRER","POINT (-72.645839 41.67293)"
"J2564",,"MILFORD AUTO RECYCLING CO INC","70 S WASHINGTON ST",,"MILFORD","CT","06460","2024-04-30T00:00:00.000","RECYCLER","POINT (-73.078828 41.212959)"
"U6201","DBA","B & N NATIONAL AUTO CENTER","1495 WOLCOTT RD",,"WOLCOTT","CT","06716-1321","2024-06-30T00:00:00.000","USED DEALER","POINT (-72.961548 41.628173)"
"U7094",,"KARNS AUTOMOTIVE SALES AND SER LLC","331 MITCHELL ST",,"GROTON","CT","06340-4422","2024-01-31T00:00:00.000","USED DEALER","POINT (-72.07585 41.348106)"
"N2508",,"ANTONINO 450 WEST THAMES INC","450 W THAMES ST",,"NORWICH","CT","06360-7141","2023-04-30T00:00:00.000","NEW DEALER","POINT (-72.089964 41.505113)"
"U8894",,"BRANIGANS CAR CARE CENTER AND SALES   LLC","228 AND 230 PERSHING DR",,"ANSONIA","CT","06401","2023-06-30T00:00:00.000","USED DEALER","POINT (-73.082303 41.340323)"
"U1583","DBA","PARKVIEW SERVICE STA","1585 STATE ST",,"NEW HAVEN","CT","06511-2740","2023-03-31T00:00:00.000","USED DEALER","POINT (-72.897085 41.325836)"
"U1024",,"CAR TOWN INC","61 HARTFORD TPKE",,"TOLLAND","CT","06084-2818","2023-08-31T00:00:00.000","USED DEALER","POINT (-72.411319 41.869147)"
"M0919",,"P L CUSTOM BODY & EQUIP CO INC","2201 ATLANTIC AVE",,"MANASQUAN","NJ","08736","2024-06-30T00:00:00.000","MANUFACTURER LICENSE","POINT (-74.082211 40.137106)"
"U6663",,"EASTFORD AUTO SALES LLC","27 CHAPLIN RD",,"EASTFORD","CT","06242-9439","2023-05-31T00:00:00.000","USED DEALER","POINT (-72.087982 41.873694)"
"U0959",,"PULVER MOTORS INC","645 KINGS HWY E",,"FAIRFIELD","CT","06825-4817","2023-09-30T00:00:00.000","USED DEALER","POINT (-73.230018 41.17015)"
"U1578","DBA","ALPLEX AUTOBODY & TOWING","79 COMMERCIAL ST",,"WATERTOWN","CT","06795-3308","2023-03-31T00:00:00.000","USED DEALER","POINT (-73.101782 41.57551)"
"O0496",,"VEHICLE LENDERS GROUP LLC","415 CROSSWAYS PARK DR STE C",,"WOODBURY","NY","11797-2055","2023-03-31T00:00:00.000","LEASING LICENSE","POINT (-73.486024 40.80549)"
"M1020","DBA","DBA KM INTERNATIONAL","6561 BERNIE KOHLER DR",,"NORTH BRANCH","MI","48461-8886","2023-06-30T00:00:00.000","MANUFACTURER LICENSE","POINT (-83.17875 43.225442)"
"R5055",,"MOSTLY MOTORSPORTS","1145 HONEYSPOT RD",,"STRATFORD","CT","06615-7113","2024-05-31T00:00:00.000","GENERAL REPAIRER","POINT (-73.151137 41.172445)"
"R5429",,"GUYS ELECTRIC SERVICE INC","374 STRONG RD",,"SOUTH WINDSOR","CT","06074-1905","2022-10-31T00:00:00.000","GENERAL REPAIRER","POINT (-72.595646 41.840971)"
"R0442","DBA","ROBERT C ARONSON","48 COW HILL RD",,"CLINTON","CT","06413","2023-11-30T00:00:00.000","GENERAL REPAIRER","POINT (-72.535628 41.286726)"
"N2529",,"GARY ROME AUTO GROUP INC","809 ENFIELD ST",,"ENFIELD","CT","06082-2927","2024-03-31T00:00:00.000","NEW DEALER","POINT (-72.593947 42.00048)"
"R6157",,"STAMFORD SHELL AUTO CARE LTD","2666 SUMMER ST",,"STAMFORD","CT","06905-4302","2024-05-31T00:00:00.000","GENERAL REPAIRER","POINT (-73.548773 41.069004)"
"U6512","DBA","DBA VALLEY IMPORTED II","2 CHERYL DR",,"CANTON","CT","06019-2232","2024-06-30T00:00:00.000","USED DEALER","POINT (-72.875882 41.823763)"
"U5888",,"MILTON EARLINGTON","3430 MAIN ST",,"HARTFORD","CT","06120-1138","2024-08-31T00:00:00.000","USED DEALER","POINT (-72.662584 41.798257)"
"N2750","DBA","DBA WILE HYUNDAI","21 RT 66 EAST",,"COLUMBIA","CT","06237","2022-09-30T00:00:00.000","NEW DEALER","POINT (-72.247812 41.718258)"
"R6069",,"GAITANS GARAGE TOWING SERVICE","147 FRANKLIN ST",,"NORWICH","CT","06360-4510","2023-10-31T00:00:00.000","GENERAL REPAIRER","POINT (-72.07369 41.527133)"
"R7802",,"ALEX AUTO SALES AND REPAIR LLC","1905 BARNUM AVE",,"BRIDGEPORT","CT","06610-3022","2023-11-30T00:00:00.000","GENERAL REPAIRER","POINT (-73.155658 41.189779)"
"U1489",,"RE NU AUTO SALES AND SERVICE INC","33 RIGGS ST",,"ANSONIA","CT","06401-1215","2023-04-30T00:00:00.000","USED DEALER","POINT (-73.090253 41.350429)"
"U8732",,"LYONS SERVICE CORP INC","1056 NEW BRITAIN AVE",,"WEST HARTFORD","CT","06110-2417","2023-08-31T00:00:00.000","USED DEALER","POINT (-72.726479 41.730554)"
"O6265",,"AUTO REPAIR RENT A CAR LLC","250 TALCOTTVILLE RD",,"VERNON","CT","06066","2024-03-31T00:00:00.000","LEASING LICENSE","POINT (-72.491504 41.836956)"
"R6686",,"FEDERAL TOWING INC","272 274 WHITE ST",,"DANBURY","CT","06810","2024-02-29T00:00:00.000","GENERAL REPAIRER","POINT (-73.434548 41.399449)"
"U6750",,"CROMWELL AUTOMOTIVE LLC","263 MAIN ST",,"CROMWELL","CT","06416-2302","2023-11-30T00:00:00.000","USED DEALER","POINT (-72.646375 41.590615)"
"U8532","DBA","DBA BLASIUS NORTH","1530 E MAIN ST",,"TORRINGTON","CT","06790-3550","2023-08-31T00:00:00.000","USED DEALER","POINT (-73.087507 41.819328)"
"U4198",,"BERNIES SERVICE STATION","136 JEFFERSON AVE",,"NEW LONDON","CT","06320-5136","2024-08-31T00:00:00.000","USED DEALER","POINT (-72.109888 41.353089)"
"U8597","DBA","DBA THE CAR DOCTOR","3 HAYDEN AVE","UNIT 1","PLAINVILLE","CT","06062","2023-10-31T00:00:00.000","USED DEALER","POINT (-72.868056 41.663719)"
"U7713",,"TECHNOMOTORS, LLC","68-70 ELM STREET",,"DANBURY","CT","06810","2024-09-30T00:00:00.000","USED DEALER","POINT (-73.45737 41.395626)"
"U0707",,"PIRROS AUTO","47 NORTH ST",,"WOLCOTT","CT","06716-1317","2023-11-30T00:00:00.000","USED DEALER","POINT (-72.967512 41.634902)"
"U4453","DBA","JOHN STOYAK JR","42 TABOR DR",,"BRANFORD","CT","06405","2024-06-30T00:00:00.000","USED DEALER","POINT (-72.799816 41.273357)"
"M0550",,"KAWASAKI MOTORS CORP USA","26972 BURBANK",,"FOOTHILL RANCH","CA","92610-2506","2024-06-30T00:00:00.000","MANUFACTURER LICENSE","POINT (-117.6601 33.6786)"
"N2717","DBA","DBA LAND ROVER NORTH HAVEN","525 WASHINGTON AVE",,"NORTH HAVEN","CT","06473-1312","2023-09-30T00:00:00.000","NEW DEALER","POINT (-72.84083 41.416139)"
"U5034","DBA","CAPITOL TOWING","181 211 WALNUT ST",,"HARTFORD","CT","06120","2023-11-30T00:00:00.000","USED DEALER","POINT (-72.684528 41.774172)"
"O6026",,"JAY HARLAND CORP","200 PROSPECT AVE",,"HARTFORD","CT","06106-2928","2024-03-31T00:00:00.000","LEASING LICENSE","POINT (-72.714975 41.752192)"
"O6236",,"AZTEC FINANCIAL LLC","556 W CONFLUENCE AVE",,"SALT LAKE CITY","UT","84123-1385","2023-03-31T00:00:00.000","LEASING LICENSE",
"U4205","DBA","CURTIS V. ADAMO","601 CENTER ST",,"WALLINGFORD","CT","06492","2024-08-31T00:00:00.000","USED DEALER","POINT (-72.811871 41.451335)"
"U6334",,"EDWARD I WINSHIP","970 MAIN ST SOUTH",,"SOUTHBURY","CT","06488","2023-05-31T00:00:00.000","USED DEALER","POINT (-73.237237 41.458566)"
"R4718",,"GLASTONBURY AUTOMOTIVE INC","28 COMMERCE ST",,"GLASTONBURY","CT","06033-2313","2024-06-30T00:00:00.000","GENERAL REPAIRER","POINT (-72.590827 41.709389)"
"U8768","DBA","DBA JOSEPH P GRIFFIN JR","120-122 NORWICH RD",,"PLAINFIELD","CT","06374","2023-12-31T00:00:00.000","USED DEALER","POINT (-71.904549 41.712117)"
"N0966",,"GENE LANGAN VOLKSWAGEN OF CT INC","816 NEW LONDON TPKE",,"GLASTONBURY","CT","06033-3076","2024-04-30T00:00:00.000","NEW DEALER","POINT (-72.592804 41.70477)"
"N2728","DBA","DBA LAND ROVER HARTFORD","77 WESTON ST",,"HARTFORD","CT","06120-1505","2023-12-31T00:00:00.000","NEW DEALER","POINT (-72.664595 41.784579)"
"U8805",,"EXECUTIVE AUTO SALES OF CT LLC","771 LAKEWOOD RD",,"WATERBURY","CT","06704-2424","2022-10-31T00:00:00.000","USED DEALER","POINT (-73.008428 41.571085)"
"U8403",,"SUPREME AUTOMOTIVE LLC","494 S MAIN ST",,"NEW BRITAIN","CT","06051","2024-06-30T00:00:00.000","USED DEALER","POINT (-72.773562 41.651536)"
"R7262",,"STEVE AUTO TECH LLC","794 NORTH MAIN",,"WATERBURY","CT","06704","2023-06-30T00:00:00.000","GENERAL REPAIRER","POINT (-73.031537 41.563872)"
"U7649",,"SHAMROCK MOTORS LLC","186 S MAIN ST",,"EAST WINDSOR","CT","06088-7904","2024-04-30T00:00:00.000","USED DEALER","POINT (-72.607373 41.884442)"
"O1249",,"BOWENS GARAGE INC","184 EASTFORD RD","BOX 8","EASTFORD","CT","06242","2023-03-31T00:00:00.000","LEASING LICENSE","POINT (-72.080001 41.90172)"
"U8094",,"DISCH GROUP INC THE","114A ROUTE 32",,"NORTH FRANKLIN","CT","06254-1811","2023-10-31T00:00:00.000","USED DEALER","POINT (-72.13162 41.576417)"
"R7665",,"BENT AUTOBAHN AUTOMOTIVE REPAIR LLC","14 CROSS ST",,"NORWALK","CT","06851-4613","2023-12-31T00:00:00.000","GENERAL REPAIRER","POINT (-73.414655 41.120646)"
"U6883",,"HYDE ENTERPRISES LLC","14 RIVER RD",,"STAFFORD SPRINGS","CT","06076-1500","2022-11-30T00:00:00.000","USED DEALER","POINT (-72.303701 41.951797)"
"U7898",,"AUTO WORKS USA LLC","11 TIPPING DRIVE UNIT 3",,"BRANFORD","CT","06405","2024-05-31T00:00:00.000","USED DEALER","POINT (-72.767442 41.303933)"
"R4873","DBA","MARIO BUZZEO","242 S SALEM RD",,"RIDGEFIELD","CT","06877","2024-03-31T00:00:00.000","GENERAL REPAIRER","POINT (-73.525223 41.264739)"
"U8838","DBA","DBA QUADIRS AUTO WORLD","244 WALNUT ST",,"HARTFORD","CT","06120-2833","2022-11-30T00:00:00.000","USED DEALER","POINT (-72.685648 41.774692)"
"R7683",,"TOP TIER AUTOMOTIVE LLC","44 OLD STATE STATE RD UNIT 9",,"NEW MILFORD","CT","06776-4338","2024-03-31T00:00:00.000","GENERAL REPAIRER","POINT (-73.423083 41.538475)"
"M0918",,"KZRV LP","0985 N 900 W",,"SHIPSHEWANA","IN","46565","2023-06-30T00:00:00.000","MANUFACTURER LICENSE","POINT (-85.599619 41.653836)"
"O6096",,"BELLEVIEW LEASING CO","109 SUMMER ST",,"SOUTHINGTON","CT","06489-3547","2023-03-31T00:00:00.000","LEASING LICENSE","POINT (-72.88709 41.596759)"
"R6740","DBA","GREENWICH SHELL","83 E PUTNAM AVE",,"GREENWICH","CT","06830-5611","2024-08-31T00:00:00.000","GENERAL REPAIRER","POINT (-73.624408 41.03332)"
"R7730",,"TOWN FAIR TIRE CENTERS OF CT LLC","1 PALOMBA DR",,"ENFIELD","CT","06082-3823","2023-10-31T00:00:00.000","GENERAL REPAIRER","POINT (-72.574323 41.998343)"
"J4179",,"JAXS AUTO RECYCLING LLC","14 RIVER ST",,"BRIDGEPORT","CT","06604-2919","2024-04-30T00:00:00.000","RECYCLER","POINT (-73.187083 41.194481)"
"R5625",,"PORTLAND TRANSMISSIONS LLC","25 SILVER ST",,"PORTLAND","CT","06480-1839","2024-05-31T00:00:00.000","GENERAL REPAIRER","POINT (-72.643066 41.573499)"
"U7629","DBA","LIME ROCK AUTO","105 US ROUTE 7",,"LIME ROCK","CT","06039","2024-03-31T00:00:00.000","USED DEALER",
"R6295",,"A1 AUTOMOTIVE LLC","291 TERRYVILLE RD",,"BRISTOL","CT","06010-4013","2023-10-31T00:00:00.000","GENERAL REPAIRER","POINT (-72.975469 41.671096)"
"U8068",,"1501 EAST MAIN STREET LLC","1501 E MAIN ST",,"TORRINGTON","CT","06790-3518","2023-08-31T00:00:00.000","USED DEALER","POINT (-73.088012 41.819061)"
"U8256",,"FRANKS GARAGE","38 PROSPECT HILL RD",,"EAST WINDSOR","CT","06088","2023-01-31T00:00:00.000","USED DEALER","POINT (-72.610253 41.9181)"
"U5740","DBA","MID-TOWN TIRE TOWING & TRANSPORT","1 JACKSON ST",,"MIDDLETOWN","CT","06457","2023-11-30T00:00:00.000","USED DEALER","POINT (-72.663666 41.559591)"
"U6047",,"ESPOSITOS AUTOMOTIVE LLC","652 W MAIN ST",,"MERIDEN","CT","06451-2634","2023-06-30T00:00:00.000","USED DEALER","POINT (-72.825291 41.541466)"
"O0340","DBA","WALLINGFORD BUICK-GMC","1122 OLD NORTH COLONY RD",,"WALLINGFORD","CT","06492-1771","2023-03-31T00:00:00.000","LEASING LICENSE","POINT (-72.810216 41.498357)"
"U2285",,"KOLMAN LURIA AND SON INC","35 S 5TH ST",,"WATERBURY","CT","06708-4202","2022-10-31T00:00:00.000","USED DEALER","POINT (-73.04243 41.540664)"
"U8472","DBA","DBA SOUTH GREEN AUTOMOTIVE","880 WETHERSFIELD AVE",,"HARTFORD","CT","06114-3180","2023-01-31T00:00:00.000","USED DEALER","POINT (-72.669881 41.732134)"
"R7278",,"GALENA ASSOCIATES LLC","265 EAST MAIN ST",,"NEW BRITAIN","CT","06051","2023-08-31T00:00:00.000","GENERAL REPAIRER","POINT (-72.776307 41.670749)"
"N2675","DBA","DBA MARITIME CHEVROLET","985 POST RD",,"FAIRFIELD","CT","06824-6052","2024-03-31T00:00:00.000","NEW DEALER","POINT (-73.251583 41.145988)"
"R7563",,"STAR TIRES PLUS WHEELS LLC","888/900 WETHERSFIELD AVE",,"HARTFORD","CT","06114-3180","2024-05-31T00:00:00.000","GENERAL REPAIRER",
"M0992",,"DEMERS AMBULANCE USA INC","1170 PRODUCTION DR",,"VAN WERT","OH","45891-9391","2023-06-30T00:00:00.000","MANUFACTURER LICENSE","POINT (-84.602234 40.884419)"
"U1853",,"EAST COAST TOWING LTD","25 TAFF AVE",,"STAMFORD","CT","06902-7616","2023-01-31T00:00:00.000","USED DEALER","POINT (-73.548936 41.038479)"
"R7000",,"NEW BRITAIN MUFFLER LLC","46 WASHINGTON ST",,"NEW BRITAIN","CT","06051-2210","2024-04-30T00:00:00.000","GENERAL REPAIRER","POINT (-72.783678 41.668772)"
"U1471","DBA","CHUCK AND EDDIES AUTO PARTS SOUTHINGTON DIV","OLD TURNPIKE RD",,"SOUTHINGTON","CT","06489","2023-04-30T00:00:00.000","USED DEALER",
"U1903",,"JC BEDNAR MOTORS INC","862 870 BOSTON AVE AND","1541 PEMBROKE ST","BRIDGEPORT","CT","06610","2023-01-31T00:00:00.000","USED DEALER","POINT (-73.176809 41.195699)"
"U8363",,"BRUNEAUS GARAGE INC","235 FRONT AVE",,"WEST HAVEN","CT","06516-2835","2024-01-31T00:00:00.000","USED DEALER","POINT (-72.952642 41.289816)"
"U8921",,"LELA AND MATTS CAR CARE CLINIC LLC","2362 BOSTON POST RD",,"GUILFORD","CT","06437-2310","2024-01-31T00:00:00.000","USED DEALER","POINT (-72.720364 41.30783)"
"J2513",,"LARRY E STRIPLING INC","42 BLOOMINGDALE RD",,"QUAKER HILL","CT","06375-1335","2024-04-30T00:00:00.000","RECYCLER","POINT (-72.119319 41.3777)"
"U8233",,"UNITED AUTO GROUP LLC","515 SCHOOL ST",,"PUTNAM","CT","06260-2400","2022-10-31T00:00:00.000","USED DEALER","POINT (-71.893212 41.924704)"
"U7291",,"KENSINGTON FAMILY AUTO CENTER LLC","1052 FARMINGTON AVE",,"KENSINGTON","CT","06037-2247","2023-07-31T00:00:00.000","USED DEALER","POINT (-72.760003 41.630812)"
"U8400",,"SARDOS AUTOMOTIVE INC","687 MAIN ST",,"ANSONIA","CT","06401-2325","2024-08-31T00:00:00.000","USED DEALER","POINT (-73.076775 41.331176)"
"N2364",,"GABRIELLI TRUCK SALES OF CT LLC","277 NEW PARK AVE",,"HARTFORD","CT","06106-2949","2023-12-31T00:00:00.000","NEW DEALER","POINT (-72.712253 41.748577)"
"N2329","DBA","DBA PORSCHE FAIRFIELD","475 COMMERCE DR",,"FAIRFIELD","CT","06825-5562","2024-09-30T00:00:00.000","NEW DEALER","POINT (-73.231086 41.164942)"
"U4941","DBA","GOVERNORS MOTORSPORTS","400 GOVERNOR ST",,"EAST HARTFORD","CT","06108-3925","2023-04-30T00:00:00.000","USED DEALER","POINT (-72.660154 41.770753)"
"U8355",,"DAN MERLI TRANSPORT LLC","846 S MAIN ST",,"TORRINGTON","CT","06790-6945","2023-12-31T00:00:00.000","USED DEALER","POINT (-73.117141 41.783468)"
"N2624","DBA","DBA MCLAREN  GREENWICH","348 W PUTNAM AVE",,"GREENWICH","CT","06830-5244","2023-02-28T00:00:00.000","NEW DEALER","POINT (-73.638148 41.023106)"
"U1075",,"VALLEY AUTO BODY INC","990 HUNTINGDON AVE",,"WATERBURY","CT","06704-1403","2023-07-31T00:00:00.000","USED DEALER","POINT (-73.052424 41.584844)"
"U7946",,"MASSIRIO ENTERPRISES INC","770 NEWFIELD ST UNIT 2A",,"MIDDLETOWN","CT","06457","2022-10-31T00:00:00.000","USED DEALER","POINT (-72.672585 41.580213)"
"J2654",,"JOHNNYS AUTO PARTS INC","695 FENN RD",,"THOMASTON","CT","06787","2024-04-30T00:00:00.000","RECYCLER","POINT (-73.076341 41.702701)"
"U6626",,"MASTER AUTO LLC","36 40 MAIN ST",,"MERIDEN","CT","06451","2023-02-28T00:00:00.000","USED DEALER","POINT (-72.826919 41.518485)"
"O1795",,"CATARO LEASING COMPANY","77 STERLING RD",,"EAST HARTFORD","CT","06108-1665","2024-03-31T00:00:00.000","LEASING LICENSE","POINT (-72.641774 41.776707)"
"M0542",,"NISSAN NORTH AMERICA INC","ONE NISSAN WAY",,"FRANKLIN","TN","07067","2024-06-30T00:00:00.000","MANUFACTURER LICENSE",
"U4391",,"LONGMEADOW MOTOR CARS INC","5 ENFIELD ST",,"ENFIELD","CT","06082-1907","2024-06-30T00:00:00.000","USED DEALER","POINT (-72.584086 42.024649)"
"N2782",,"MAVERICK SAYBROOK US LLC","255 MIDDLESEX TPKE",,"OLD SAYBROOK","CT","06475-4209","2024-02-29T00:00:00.000","NEW DEALER","POINT (-72.381809 41.307814)"
"U4312",,"RIVERVIEW SUPER SERVICE INC","680 MAIN ST",,"ANSONIA","CT","06401-2311","2024-07-31T00:00:00.000","USED DEALER","POINT (-73.076663 41.331399)"
"R7829",,"TEAM CAR CARE EAST LLC","480 MAIN ST",,"EAST HARTFORD","CT","06118-1408","2024-04-30T00:00:00.000","GENERAL REPAIRER","POINT (-72.642645 41.755996)"
"U5810",,"UNIQUE MOTORSPORTS LLC","153 S RIVERSIDE AVE",,"PEQUABUCK","CT","06781","2024-03-31T00:00:00.000","USED DEALER","POINT (-72.992316 41.67134)"
"R4911",,"MONRO MUFFLER BRAKE INC","918 N COLONY RD",,"WALLINGFORD","CT","06492","2024-03-31T00:00:00.000","GENERAL REPAIRER","POINT (-72.809775 41.484084)"
"U6483","DBA","CLASSIC AUTO SALES AND RESTORATIONS","724 ALLEN ST",,"NEW BRITAIN","CT","06053-3330","2024-04-30T00:00:00.000","USED DEALER","POINT (-72.761597 41.684162)"
"N2092",,"H AND U INC","1472-1476 E MAIN ST",,"TORRINGTON","CT","06790","2024-01-31T00:00:00.000","NEW DEALER","POINT (-73.088408 41.818852)"
"U8022","DBA","MARTIN KENNY III","447 S LEONARD ST",,"WATERBURY","CT","06708-4315","2023-04-30T00:00:00.000","USED DEALER","POINT (-73.043298 41.533269)"
"R1840","DBA","GRANT MICHAEL S","81 HALLOWEEN BLVD",,"STAMFORD","CT","06902","2022-10-31T00:00:00.000","GENERAL REPAIRER","POINT (-73.526803 41.047722)"
"U0029",,"NORTHEAST RECYCLERS OF WINDHAM INC","48 BOSTON POST RD",,"WILLIMANTIC","CT","06226","2024-04-30T00:00:00.000","USED DEALER","POINT (-72.196118 41.718829)"
"L3408",,"FOXY FAST LUBE LLC","1605 MAIN ST",,"WILLIMANTIC","CT","06226-1129","2023-06-30T00:00:00.000","LIMITED REPAIRER","POINT (-72.239589 41.723148)"
"L3277",,"PAULS DEPOT GARAGE LLC","1115 CAPITOL AVE",,"HARTFORD","CT","06106-1049","2023-11-30T00:00:00.000","LIMITED REPAIRER","POINT (-72.714471 41.759971)"
"U8735",,"DOUG WOOTTONS REDLINE CLASSIC CARS LLC","379 DUGG HILL RD",,"WOODSTOCK","CT","06281","2023-11-30T00:00:00.000","USED DEALER","POINT (-71.967287 41.996299)"
"R7481","DBA","MIDAS AUTO EXPERTS","910 BARNUM AVE CUTOFF",,"STRATFORD","CT","06614","2022-12-31T00:00:00.000","GENERAL REPAIRER","POINT (-73.130125 41.198976)"
"U0854","DBA","CURTIS BRADFORD H","RT 6",,"BROOKLYN","CT","06234","2023-09-30T00:00:00.000","USED DEALER",
"R7059",,"WS EDITIONS LLC","25 PEAT MEADOW RD",,"NEW HAVEN","CT","06512-2022","2023-05-31T00:00:00.000","GENERAL REPAIRER","POINT (-72.888305 41.287483)"
"R5181",,"NEW AGE MOTORS","85 LEETES ISLAND RD",,"BRANFORD","CT","06405-3308","2023-04-30T00:00:00.000","GENERAL REPAIRER","POINT (-72.761784 41.294096)"
"U0177",,"MILLDALE AUTO SALES","168 MARLBOROUGH ST",,"PORTLAND","CT","06480","2024-03-31T00:00:00.000","USED DEALER","POINT (-72.633742 41.570311)"
"N0747",,"PAMBY MOTORS INC","665 DANBURY RD","RTE 7","RIDGEFIELD","CT","06877","2024-07-31T00:00:00.000","NEW DEALER","POINT (-73.473736 41.325923)"
"R1642",,"LAKE AND MAIN SERVICE CENTER INC","6149 MAIN ST",,"TRUMBULL","CT","06611","2022-12-31T00:00:00.000","GENERAL REPAIRER","POINT (-73.2245 41.265964)"
"U8530",,"SUPERIOR MOTORS LLC","1080 BRIDGEPORT AVE",,"MILFORD","CT","06460-3159","2023-08-31T00:00:00.000","USED DEALER","POINT (-73.068721 41.216753)"
"R7107","DBA","KOVAC'S MARINE ENGINE SERVICE","85 DAVENPORT ST",,"BRIDGEPORT","CT","06607-2006","2023-06-30T00:00:00.000","GENERAL REPAIRER","POINT (-73.157663 41.177521)"
"O6336",,"NISSAN CV LEASING LLC","1 NISSAN WAY",,"FRANKLIN","TN","37067-6367","2024-03-31T00:00:00.000","LEASING LICENSE","POINT (-86.813736 35.939869)"
"M1020",,"KEIZER MORRIS INTERNATIONAL INC","6561 BERNIE KOHLER DR",,"NORTH BRANCH","MI","48461-8886","2023-06-30T00:00:00.000","MANUFACTURER LICENSE","POINT (-83.17875 43.225442)"
"R0142",,"TERRY'S TRANSMISSIONS INC","164 SQUAW HOLLOW RD","RT 44","ASHFORD","CT","06278","2024-01-31T00:00:00.000","GENERAL REPAIRER","POINT (-72.191468 41.851905)"
"U8099",,"AR'S GENERAL REPAIR AND USED CARS SALES LLC","127 WHITE ST",,"DANBURY","CT","06810-6800","2023-11-30T00:00:00.000","USED DEALER","POINT (-73.449065 41.398778)"
"U2312",,"ELLINGTON FUEL DEPOT AND GARAGE","1 CRYSTAL LAKE RD AND","94 STAFFORD RD","ELLINGTON","CT","06029","2022-10-31T00:00:00.000","USED DEALER","POINT (-72.38433 41.929332)"
"M0980",,"BWISE MANUFACTURING LLC","1002 WAYNE AVE","SUITE 1","CHAMBERSBURG","PA","17201","2024-06-30T00:00:00.000","MANUFACTURER LICENSE","POINT (-77.653042 39.913926)"
"O6246",,"STAMFORD AUTOMOTIVE PARTNERS LLC","909 E MAIN ST",,"STAMFORD","CT","06902-4013","2024-03-31T00:00:00.000","LEASING LICENSE","POINT (-73.523137 41.055965)"
"U5268","DBA","MIKES AUTO SERVICE","54 PANE RD",,"NEWINGTON","CT","06111-5521","2023-02-28T00:00:00.000","USED DEALER","POINT (-72.728494 41.654786)"
"R5140","DBA","DBA MAURICE L MOREAU","410 N ELM ST",,"TORRINGTON","CT","06790-4627","2023-02-28T00:00:00.000","GENERAL REPAIRER","POINT (-73.132209 41.813248)"
"R6479",,"SCIAUDONES GARAGE LLC","28 LEONARD ST",,"NORWALK","CT","06850-4105","2023-12-31T00:00:00.000","GENERAL REPAIRER","POINT (-73.412106 41.11587)"
"U5391","DBA","ANTHONY L BATTISTA","212 FOXON RD",,"NORTH BRANFORD","CT","06471-1001","2023-10-31T00:00:00.000","USED DEALER","POINT (-72.816293 41.327868)"
"M0791",,"LIFE LINE EMERGENCY VEHICLES INC","1 LIFE LINE DR",,"SUMNER","IA","50674","2023-06-30T00:00:00.000","MANUFACTURER LICENSE","POINT (-92.116668 42.846835)"
"N2781",,"EAST HAVEN CARS LLC","655 MAIN ST",,"EAST HAVEN","CT","06512","2024-01-31T00:00:00.000","NEW DEALER","POINT (-72.887014 41.285269)"
"R5081",,"NEWTOWN CAR CARE CENTER INC","3 COMMERCE RD",,"NEWTOWN","CT","06470-1607","2024-08-31T00:00:00.000","GENERAL REPAIRER","POINT (-73.293341 41.416351)"
"R6794","DBA","MERSUDIN SMAJILBASIC","168 SOUTH MAIN ST",,"TORRINGTON","CT","06790","2023-08-31T00:00:00.000","GENERAL REPAIRER","POINT (-73.120805 41.796942)"
"U5236",,"DUBOIS AUTOMOTIVE INC","343 ROUTE 6",,"ANDOVER","CT","06232-1319","2022-12-31T00:00:00.000","USED DEALER","POINT (-72.376289 41.739787)"
"N2748",,"DARCARS OF RAILROAD AVENUE INC","19 RAILROAD AVE",,"GREENWICH","CT","06830-6302","2024-06-30T00:00:00.000","NEW DEALER","POINT (-73.626802 41.02162)"
"R6604","DBA","RUSSELL ROLLINS","68G KING SPRING RD",,"WINDSOR LOCKS","CT","06096-1137","2023-04-30T00:00:00.000","GENERAL REPAIRER","POINT (-72.666385 41.945215)"
"U8010",,"ACI DYNAMIX LLC","132 SILVERMINE RD",,"SEYMOUR","CT","06483","2023-03-31T00:00:00.000","USED DEALER","POINT (-73.056228 41.38281)"
"R7002","DBA","CENTER TOWING AND TRUCK REPAIR","15 RESEARCH DR",,"MILFORD","CT","06460-8525","2024-04-30T00:00:00.000","GENERAL REPAIRER","POINT (-73.019333 41.237277)"
"J2666",,"MANSFIELD AUTO PARTS INC","214 STAFFORD RD",,"MANSFIELD CENTER","CT","06250-1451","2024-04-30T00:00:00.000","RECYCLER","POINT (-72.259573 41.739292)"
"J2506",,"ELM CITY AUTO WRECKING INC","67 73 MIDDLETOWN AVE",,"NEW HAVEN","CT","06513","2024-04-30T00:00:00.000","RECYCLER","POINT (-72.893128 41.32016)"
"N2760","DBA","DBA GENGRAS SUBARU TORRINGTON","45 WINSTED RD",,"TORRINGTON","CT","06790-2925","2023-01-31T00:00:00.000","NEW DEALER","POINT (-73.121387 41.82004)"
"O6207","DBA","DBA TOYOTA COMMERCIAL FINANCE","9750 GOETHE RD",,"SACRAMENTO","CA","95827-3500","2023-03-31T00:00:00.000","LEASING LICENSE","POINT (-121.332833 38.55493)"
"R7408",,"BRIDGESTONE RETAIL OPERATIONS LLC","2897 BERLIN TPKE",,"NEWINGTON","CT","06111-4115","2023-12-31T00:00:00.000","GENERAL REPAIRER","POINT (-72.716541 41.672275)"
"U7863",,"FAIR AUTO LLC","20 FAIR ST",,"NEW HAVEN","CT","06511-5724","2024-02-29T00:00:00.000","USED DEALER","POINT (-72.921201 41.302573)"
"R7718",,"MALS AUTO AND TRUCK REPAIR INC","1 ANGUILLA BROOK RD",,"STONINGTON","CT","06379","2023-03-31T00:00:00.000","GENERAL REPAIRER","POINT (-71.875857 41.383839)"
"R6790","DBA","LEFLEUR TRANSMISION AND AUTO CARE","548 MIDDLE ST",,"BRISTOL","CT","06010-7441","2023-07-31T00:00:00.000","GENERAL REPAIRER","POINT (-72.913803 41.655707)"
"N0740","DBA","EXECUTIVE HONDA","1194 N COLONY RD",,"WALLINGFORD","CT","06492-1730","2024-07-31T00:00:00.000","NEW DEALER","POINT (-72.810527 41.504236)"
"R5932",,"EXPERT AUTOMOTIVE REPAIRS LLC","206 MAIN ST",,"NORWALK","CT","06851-3513","2024-07-31T00:00:00.000","GENERAL REPAIRER","POINT (-73.4223 41.12805)"
"R7735",,"MPH AUTO AND TIRE LLC","190 WESTON RD",,"WESTON","CT","06611","2023-05-31T00:00:00.000","GENERAL REPAIRER","POINT (-73.381741 41.202372)"
"N2525","DBA","LAND N' SEA MARINE","2974 E MAIN ST",,"WATERBURY","CT","06705-3422","2024-02-29T00:00:00.000","NEW DEALER","POINT (-72.987677 41.545072)"
"R5809",,"PEP BOYS MANNY MOE AND JACK DEL INC","699 WOLCOTT ST",,"WATERBURY","CT","06705-1310","2024-03-31T00:00:00.000","GENERAL REPAIRER","POINT (-73.011479 41.56106)"
"R6492",,"MOROSO PERFORMANCE PRODUCTS INC","80 CARTER DR",,"GUILFORD","CT","06437-2125","2024-02-29T00:00:00.000","GENERAL REPAIRER","POINT (-72.670887 41.292706)"
"N0687","DBA","LIA HONDA","20 PALOMBA DR",,"ENFIELD","CT","06082-3802","2024-08-31T00:00:00.000","NEW DEALER","POINT (-72.573536 41.99673)"
"R7190","DBA","SPONGE BROTHERS CAR WASH AND LUBE","79 BOSTON POST RD",,"ORANGE","CT","06477-3203","2024-05-31T00:00:00.000","GENERAL REPAIRER","POINT (-72.988521 41.277438)"
"N0277",,"BOB VALENTI CHEVROLET INC","72 JERRY BROWN RD","BOX 10","MYSTIC","CT","06355","2023-04-30T00:00:00.000","NEW DEALER","POINT (-71.951789 41.376946)"
"R5959",,"MONRO MUFFLER BRAKE INC","615 HARTFORD RD",,"NEW BRITAIN","CT","06053-1526","2022-10-31T00:00:00.000","GENERAL REPAIRER","POINT (-72.763769 41.714734)"
"U0762","DBA","CERUTTI ALDO","913 MIGEON AVE",,"TORRINGTON","CT","06790","2023-10-31T00:00:00.000","USED DEALER","POINT (-73.142347 41.817197)"
"U0414","DBA","ROMANO'S AUTOMOTIVE SERVICE","207 NEW BRITAIN AVE",,"HARTFORD","CT","06106-3124","2024-01-31T00:00:00.000","USED DEALER","POINT (-72.689489 41.743854)"
"U8228",,"AUTO SALES AND SERVICE INC","520 B  SUCCESS AVE.",,"STRATFORD","CT","06615","2022-10-31T00:00:00.000","USED DEALER",
"U7271",,"LEDYARD STREET AUTOMOTIVE INC","65 ELLIOTT ST E",,"HARTFORD","CT","06114-1515","2023-05-31T00:00:00.000","USED DEALER","POINT (-72.670413 41.746847)"
"N2376",,"KAHN TRACTOR & EQUIPMENT INC","520 POND RD",,"NORTH FRANKLIN","CT","06254","2024-03-31T00:00:00.000","NEW DEALER","POINT (-72.164074 41.63448)"
"N2601",,"STREET FLEET MECHANICS LLC","18 PETERS RD",,"BLOOMFIELD","CT","06002-1333","2023-05-31T00:00:00.000","NEW DEALER","POINT (-72.733643 41.857471)"
"U5422",,"MONROE AUTO SALES","163 MAIN ST",,"MONROE","CT","06488","2024-01-31T00:00:00.000","USED DEALER","POINT (-73.255021 41.30518)"
"R6252","DBA","KARNS AUTOMOTIVE CENTER","25 CRYSTAL LAKE RD",,"GROTON","CT","06340-2464","2023-04-30T00:00:00.000","GENERAL REPAIRER","POINT (-72.085123 41.388235)"
"R6776",,"TRI STATE CHOPPERS LLC","30 OLD ROUTE 7 PLZ",,"NEW MILFORD","CT","06776-4340","2023-04-30T00:00:00.000","GENERAL REPAIRER","POINT (-73.420989 41.541927)"
"U1690",,"GEORGE WILLIAMSON AUTO ELECTRIC INC","32 FREIGHT ST",,"WATERBURY","CT","06702-1801","2023-02-28T00:00:00.000","USED DEALER","POINT (-73.047218 41.556364)"
"R7823","DBA","ECONOMY OIL CHANGE","2711 MAIN ST",,"GLASTONBURY","CT","06033-2022","2024-03-31T00:00:00.000","GENERAL REPAIRER","POINT (-72.611908 41.716529)"
"U0669",,"CARBONES AUTO SALES INC","639 MAIN ST",,"EAST HAVEN","CT","06512-2002","2023-11-30T00:00:00.000","USED DEALER","POINT (-72.885351 41.284637)"
"N2663",,"MACTAW CT INC","417 JOHN FITCH BVLD",,"SOUTH WINDSOR","CT","06074","2023-08-31T00:00:00.000","NEW DEALER","POINT (-72.611808 41.813089)"
"J2593",,"BILLS GARAGE INC","407 KENT RD",,"NEW MILFORD","CT","06776-5519","2024-04-30T00:00:00.000","RECYCLER","POINT (-73.457771 41.606211)"
"U8945",,"FONS AUTOMOTIVE LLC","281 WOODMONT RD",,"MILFORD","CT","06460-2847","2024-05-31T00:00:00.000","USED DEALER","POINT (-73.017955 41.236718)"
"U8780","DBA","DBA YORK MOTORS","8 CHERYL DR",,"CANTON","CT","06019-2232","2022-12-31T00:00:00.000","USED DEALER","POINT (-72.877076 41.824022)"
"R7784",,"MAPLE AVENUE REPAIR SERVICE LLC","196 CLARK STREET UNIT D",,"SOUTHINGTON","CT","06489","2024-02-29T00:00:00.000","GENERAL REPAIRER","POINT (-72.90004 41.566304)"
"U8821",,"21 AUSTIN HGB LLC","21 AUSTIN DR",,"MARLBOROUGH","CT","06447-1307","2024-08-31T00:00:00.000","USED DEALER","POINT (-72.478592 41.648685)"
"R7345",,"SECK ENTERPRISES LLC","458 TALCOTTVILLE RD",,"VERNON","CT","06066","2022-09-30T00:00:00.000","GENERAL REPAIRER","POINT (-72.484869 41.847957)"
"N0260",,"CONNECTICUT GATEWAY INC","1 FLAT ROCK PL",,"WESTBROOK","CT","06498-1579","2023-05-31T00:00:00.000","NEW DEALER","POINT (-72.443121 41.290089)"
"R7520",,"RICH AND RAY'S AUTOMOTIVE LLC","112 NOD ROAD",,"CLINTON","CT","06413","2023-10-31T00:00:00.000","GENERAL REPAIRER","POINT (-72.550682 41.28895)"
"U8923",,"D AND L TOWING AND REPAIR LLP","419 QUINNIPIAC AVE",,"NEW HAVEN","CT","06513-4417","2024-02-29T00:00:00.000","USED DEALER","POINT (-72.88958 41.301818)"
"U7927",,"LUDLOW ASSOCIATES, LLC","5 SCHOOL STREET",,"PEQUABUCK","CT","06781","2024-08-31T00:00:00.000","USED DEALER","POINT (-73.33246 41.843655)"
"U7467",,"HONEYSPOT AUTO REPAIRS AND SALES LL","599 HONEYSPOT RD",,"STRATFORD","CT","06615-7105","2022-12-31T00:00:00.000","USED DEALER","POINT (-73.146308 41.177347)"
"U1416","DBA","MEINEKE DISCOUNT MUFFLER","45 STATE ST",,"NORTH HAVEN","CT","06473-2206","2023-05-31T00:00:00.000","USED DEALER","POINT (-72.872633 41.389206)"
"R7111",,"SANDMANS FABRICATING AND DETAILING LLC","122 HILLIARD ST STE C",,"MANCHESTER","CT","06042-7314","2023-06-30T00:00:00.000","GENERAL REPAIRER","POINT (-72.53027 41.792224)"
"R4832",,"RICHS CAR WORKS INC","27 S MAIN ST",,"NAUGATUCK","CT","06770-4634","2024-04-30T00:00:00.000","GENERAL REPAIRER","POINT (-73.052055 41.489225)"
"R6357",,"BRIDGESTONE RETAIL OPERATIONS LLC R6357","300 JOHN ST",,"BRIDGEPORT","CT","06604-4325","2023-12-31T00:00:00.000","GENERAL REPAIRER","POINT (-73.192541 41.176685)"
"N0261",,"FALVEYS MOTORS INC","395 W THAMES ST",,"NORWICH","CT","06360-6751","2023-04-30T00:00:00.000","NEW DEALER","POINT (-72.087856 41.506639)"
"U8181",,"SEASIDE MUFFLER AND BRAKES LLC","401 PARK AVE",,"BRIDGEPORT","CT","06604-5449","2024-06-30T00:00:00.000","USED DEALER","POINT (-73.19327 41.167882)"
"N2605","DBA","DBA KIA OF STAMFORD","263 SELLECK ST",,"STAMFORD","CT","06902","2023-06-30T00:00:00.000","NEW DEALER","POINT (-73.558725 41.041367)"
"U8663",,"DYNAMIC AUTO 2 LLC","1525 DIXWELL AVE",,"HAMDEN","CT","06514-3601","2022-12-31T00:00:00.000","USED DEALER","POINT (-72.929571 41.354158)"
"U8207",,"MY HOOPTY.COM LLC","690 MAIN ST",,"OAKVILLE","CT","06779","2024-07-31T00:00:00.000","USED DEALER","POINT (-73.093555 41.589857)"
"O5890",,"MASSAD ZION MOTOR SALES CO INC","859 861 N COLONY RD",,"WALLINGFORD","CT","06492","2024-03-31T00:00:00.000","LEASING LICENSE","POINT (-72.811216 41.479315)"
"N2060",,"SECOR SUBARU INC","501 BROAD ST",,"NEW LONDON","CT","06320-2556","2024-01-31T00:00:00.000","NEW DEALER","POINT (-72.118371 41.364666)"
"U8175",,"INTEGRITY AUTO AND TOWING LLC","29 GRASSMERE AVE",,"WEST HARTFORD","CT","06110-1216","2024-05-31T00:00:00.000","USED DEALER","POINT (-72.725153 41.736093)"
"O6395",,"SCHALLER SUBARU INC","34 FRONTAGE RD",,"BERLIN","CT","06037-2355","2024-03-31T00:00:00.000","LEASING LICENSE","POINT (-72.74383 41.628699)"
"U0033",,"YALE'S INC","430 MAPLE AVE",,"MONTVILLE","CT","06353","2024-04-30T00:00:00.000","USED DEALER","POINT (-72.143208 41.455506)"
"U0177","DBA","FENN SAMUEL III","168 MARLBOROUGH ST",,"PORTLAND","CT","06480","2024-03-31T00:00:00.000","USED DEALER","POINT (-72.633742 41.570311)"
"N2536",,"LIBERTY AUTOMOTIVE INC","91 W SERVICE ROAD",,"HARTFORD","CT","06120","2024-02-29T00:00:00.000","NEW DEALER","POINT (-72.660027 41.786694)"
"U8920",,"FLEET SERVICES LLC","520 WATERTOWN AVE UNIT D",,"WATERBURY","CT","06708","2023-12-31T00:00:00.000","USED DEALER","POINT (-73.06031 41.567263)"
"R7659","DBA","DBA ADDA","300 SMITH ST",,"MIDDLETOWN","CT","06457-1741","2023-10-31T00:00:00.000","GENERAL REPAIRER","POINT (-72.713343 41.583752)"
"N0224","DBA","DBA HOFFMAN SCION","36 44 ALBANY TPKE",,"WEST SIMSBURY","CT","06092","2023-06-30T00:00:00.000","NEW DEALER","POINT (-72.868051 41.817604)"
"U7264",,"JKS ENTERPRISES LLC","2246 NORWICH NEW LONDON TPKE",,"UNCASVILLE","CT","06382-1224","2023-03-31T00:00:00.000","USED DEALER","POINT (-72.100165 41.485813)"
"U5925","DBA","MEINEKE DISCOUNT MUFFLERS","820 BOSTON POST RD",,"OLD SAYBROOK","CT","06475","2022-10-31T00:00:00.000","USED DEALER","POINT (-72.381366 41.293582)"
"U2263",,"FIRMINS GARAGE INC","309 FLANDERS RD",,"EAST LYME","CT","06333","2022-10-31T00:00:00.000","USED DEALER","POINT (-72.209215 41.364079)"
"U8839",,"BROAD STREET AUTO SALES & SERVICE LLC","256 BROAD ST",,"MERIDEN","CT","06450-5876","2022-11-30T00:00:00.000","USED DEALER","POINT (-72.797439 41.528001)"
"U6848",,"KAE LLC","2619 WHITNEY AVE",,"HAMDEN","CT","06518-3050","2022-09-30T00:00:00.000","USED DEALER","POINT (-72.897889 41.391662)"
"U4941",,"GOVERNORS AUTO BODY INC","400 GOVERNOR ST",,"EAST HARTFORD","CT","06108-3925","2023-04-30T00:00:00.000","USED DEALER","POINT (-72.660154 41.770753)"
"U7512",,"HARBOR VIEW AUTO SALES LLC","115 JEFFERSON ST",,"STAMFORD","CT","06902-5917","2023-04-30T00:00:00.000","USED DEALER","POINT (-73.529856 41.04969)"
"R6796",,"SHORELINE COLLISION AND RESTORATION","18B GARNET PARK RD",,"MADISON","CT","06443-2123","2023-08-31T00:00:00.000","GENERAL REPAIRER","POINT (-72.633436 41.281745)"
"R7827",,"SOWDERS SPEED SHOP LLC","292 RIVERSIDE AVE",,"BRISTOL","CT","06010-6316","2024-03-31T00:00:00.000","GENERAL REPAIRER","POINT (-72.932571 41.67042)"
"U8408",,"XCLUSIVE AUTO LLC","598 MAIN ST",,"EAST HAVEN","CT","06512-2001","2024-06-30T00:00:00.000","USED DEALER","POINT (-72.88364 41.283989)"
"U1772","DBA","SAYBROOK TIRE & AUTO","621 BOSTON POST RD",,"OLD SAYBROOK","CT","06475","2023-02-28T00:00:00.000","USED DEALER","POINT (-72.378206 41.296297)"
"U0952",,"LAYTON USED CARS","26 WEST ST",,"NEW MILFORD","CT","06776","2023-09-30T00:00:00.000","USED DEALER","POINT (-73.411831 41.574418)"
"U6646",,"OVER THE EDGE AUTOMOTIVE LLC","321 INDIAN RIVER RD",,"ORANGE","CT","06477-3609","2023-03-31T00:00:00.000","USED DEALER","POINT (-72.997057 41.269363)"
"U8711",,"SKYTOP MOTORS LLC","359 BROAD ST",,"BRISTOL","CT","06010-6665","2024-03-31T00:00:00.000","USED DEALER","POINT (-72.910137 41.672034)"
"N2496",,"COLUMBIA CYCLE LLC","111 RT 66 E",,"COLUMBIA","CT","06237","2022-09-30T00:00:00.000","NEW DEALER","POINT (-72.262835 41.716957)"
"O4176",,"UNITED LEASING INC","3700 E MORGAN AVE",,"EVANSVILLE","IN","47715-2240","2024-03-31T00:00:00.000","LEASING LICENSE","POINT (-87.505796 37.991363)"
"R7405",,"AXLE AND SPINDLE TRUCK REPAIR LLC","290 BROAD ST STE E",,"MANCHESTER","CT","06040-4062","2023-06-30T00:00:00.000","GENERAL REPAIRER","POINT (-72.53425 41.779119)"
"N2265","DBA","DANBURY KIA","100B FEDERAL RD",,"DANBURY","CT","06810-5014","2024-09-30T00:00:00.000","NEW DEALER","POINT (-73.424448 41.413768)"
"U0124",,"IMPORT TRIM INC","291 ALBANY TPKE",,"CANTON","CT","06019-2537","2024-03-31T00:00:00.000","USED DEALER","POINT (-72.904619 41.830588)"
"U1115",,"ANTHONY STROLLO AND SONS INC","1451 HIGHLAND AVE",,"CHESHIRE","CT","06410-1216","2023-07-31T00:00:00.000","USED DEALER","POINT (-72.892818 41.540814)"
"U7074",,"H AND R LLC","29 NORTH AVE",,"NORWALK","CT","06851-3810","2023-12-31T00:00:00.000","USED DEALER","POINT (-73.409953 41.121548)"
"R5300",,"FRENCHYS AUTO REPAIR INC","508 MAIN ST",,"WALLINGFORD","CT","06492-1722","2024-01-31T00:00:00.000","GENERAL REPAIRER","POINT (-72.814606 41.497257)"
"N2464",,"TROIANO AUTO GROUP LLC","435 S MAIN ST",,"COLCHESTER","CT","06415-1427","2023-04-30T00:00:00.000","NEW DEALER","POINT (-72.3239 41.566484)"
"U5578",,"RONS AUTOMOTIVE REPAIR INC","928 FARMINGTON AVE",,"BERLIN","CT","06037","2022-12-31T00:00:00.000","USED DEALER","POINT (-72.763433 41.633126)"
"O6348","DBA","DBA ALLEGIANCE LEASE AND RENTAL","1001 WORDIN AVE",,"BRIDGEPORT","CT","06605-2429","2024-03-31T00:00:00.000","LEASING LICENSE","POINT (-73.214145 41.163315)"
"U8597",,"THE CAR DOCTOR LLC","3 HAYDEN AVE","UNIT 1","PLAINVILLE","CT","06062","2023-10-31T00:00:00.000","USED DEALER","POINT (-72.868056 41.663719)"
"O6270",,"ALLIED TRUCK LEASING LLC","50 MATHENY LN",,"MINERAL WELLS","WV","26150-8427","2023-03-31T00:00:00.000","LEASING LICENSE","POINT (-81.526445 39.189336)"
"R5128",,"RAC DIESEL SERVICE INC","38-42 OLD STATE RD",,"NEW MILFORD","CT","06776","2023-01-31T00:00:00.000","GENERAL REPAIRER","POINT (-73.422781 41.539809)"
"R6371","DBA","DBA FIRESTONE COMPLETE AUTO CARE","2300 DIXWELL AVE",,"HAMDEN","CT","06514","2023-12-31T00:00:00.000","GENERAL REPAIRER","POINT (-72.917012 41.372753)"
"R5713",,"PEP BOYS MANNY MOE AND JACK DEL INC","996 1000 NEW BRITAIN AVE",,"WEST HARTFORD","CT","06127","2024-03-31T00:00:00.000","GENERAL REPAIRER","POINT (-72.720907 41.730237)"
"U7554",,"SMITH BROTHERS OF NORWICH LLC","191 N MAIN ST",,"NORWICH","CT","06360-4701","2023-07-31T00:00:00.000","USED DEALER","POINT (-72.063322 41.52794)"
"U7219",,"CARMAX AUTO SUPERSTORES INC","121 FRONTAGE RD",,"EAST HAVEN","CT","06512-2110","2023-01-31T00:00:00.000","USED DEALER","POINT (-72.884361 41.287994)"
"U8382","DBA","OZREN JOJIN","1537 MAIN ST",,"EAST HARTFORD","CT","06108-1623","2024-03-31T00:00:00.000","USED DEALER","POINT (-72.636686 41.779174)"
"R7125",,"RV EXPRESS TRANSMISSIONS INC","420 FAIRFIELD AVE",,"STAMFORD","CT","06902","2023-08-31T00:00:00.000","GENERAL REPAIRER","POINT (-73.551323 41.037252)"
"U8513",,"BART'S AUTOMOTIVE SALES  LLC","1401 MAIN ST",,"WATERTOWN","CT","06795-3109","2024-06-30T00:00:00.000","USED DEALER","POINT (-73.102116 41.590222)"
"R1280",,"RED EAGLE INC","640 MAIN AVE",,"NORWALK","CT","06851-1126","2023-03-31T00:00:00.000","GENERAL REPAIRER","POINT (-73.420182 41.15867)"
"N1008",,"EXECUTIVE AUTO SALES INC","439 443 BANTAM RD",,"LITCHFIELD","CT","06759","2024-03-31T00:00:00.000","NEW DEALER","POINT (-73.215835 41.737501)"
"R7676",,"PILLONETTO ENTERPRISES LLC","570 NEW PARK AVE",,"WEST HARTFORD","CT","06110-1317","2024-02-29T00:00:00.000","GENERAL REPAIRER","POINT (-72.721556 41.736442)"
"U4674",,"FAIRFIELD COUNTY MOTORSPORT INC","190 CARTER HENRY DR",,"FAIRFIELD","CT","06824-5701","2024-02-29T00:00:00.000","USED DEALER","POINT (-73.260938 41.141831)"
"R4805","DBA","ENFIELD COLLISION","3 PALOMBA DR",,"ENFIELD","CT","06082-3823","2024-04-30T00:00:00.000","GENERAL REPAIRER","POINT (-72.574086 41.997916)"
"U7249",,"G AND S AUTO SALES LLC","66 ROUTE 32",,"NORTH FRANKLIN","CT","06254-1810","2023-03-31T00:00:00.000","USED DEALER","POINT (-72.132234 41.571112)"
"R7783","DBA","DBA NELCON SERVICE CENTER","193 WHITING STREET",,"PLAINVILLE","CT","06062","2023-05-31T00:00:00.000","GENERAL REPAIRER","POINT (-72.866838 41.658666)"
"U7579","DBA","MEINEKE CAR CARE CENTER","1012 NEW BRITAIN AVE",,"WEST HARTFORD","CT","06110-2233","2023-09-30T00:00:00.000","USED DEALER","POINT (-72.722526 41.73008)"
"R5457",,"DILORETO INC","1 OLD SCHOOLHOUSE RD",,"PROSPECT","CT","06712-1210","2023-02-28T00:00:00.000","GENERAL REPAIRER","POINT (-72.982468 41.50444)"
"N0644","DBA","ACURA OF MILFORD","1503 BOSTON POST RD",,"MILFORD","CT","06460-2705","2022-09-30T00:00:00.000","NEW DEALER","POINT (-73.030143 41.243464)"
"U4853",,"AL PRESTONS GARAGE INC","810 HOWE AVE",,"SHELTON","CT","06484-2320","2022-12-31T00:00:00.000","USED DEALER","POINT (-73.105276 41.324441)"
"U4198","DBA","JEFFREY SUNTUP","136 JEFFERSON AVE",,"NEW LONDON","CT","06320-5136","2024-08-31T00:00:00.000","USED DEALER","POINT (-72.109888 41.353089)"
"R5425",,"PERSONAL AUTO CARE SERVICE CENTER INC","60 DEKOVEN DR",,"MIDDLETOWN","CT","06457-3431","2022-10-31T00:00:00.000","GENERAL REPAIRER","POINT (-72.645027 41.5573)"
"R7178",,"CLEMENTES LLC","31 OVERLOOK DR",,"HAMDEN","CT","06514-1140","2024-03-31T00:00:00.000","GENERAL REPAIRER","POINT (-72.920794 41.400364)"
"R0975",,"NEW CANAAN CHEVRON INC","185 MAIN ST",,"NEW CANAAN","CT","06840-5601","2023-06-30T00:00:00.000","GENERAL REPAIRER","POINT (-73.491027 41.14489)"
"N2672",,"STEAMBOAT MOTORS LLC","100 FEDERAL RD",,"DANBURY","CT","06810-6229","2023-11-30T00:00:00.000","NEW DEALER","POINT (-73.424448 41.413768)"
"R1382",,"CONN DEPT EDUCATION BULLARD HAVENS","500 PALISADE AVE",,"BRIDGEPORT","CT","06610-3458","2023-02-28T00:00:00.000","GENERAL REPAIRER","POINT (-73.165233 41.200958)"
"U6606",,"FLANNERY ENTERPRISE LLC","80 E HIGH ST",,"EAST HAMPTON","CT","06424-1541","2022-09-30T00:00:00.000","USED DEALER","POINT (-72.493944 41.586283)"
"R7269",,"BRIDGESTONE RETAIL OPERATIONS LLC GROUP 1","459 FARMINGTON AVE",,"PLAINVILLE","CT","06062-1325","2023-12-31T00:00:00.000","GENERAL REPAIRER","POINT (-72.849038 41.692736)"
"U0847",,"NUTMEG AUTO SERVICE INC","3490 MAIN ST",,"HARTFORD","CT","06120-1138","2023-09-30T00:00:00.000","USED DEALER","POINT (-72.662164 41.799049)"
"N2591","DBA","WESTBROOK TOYOTA","80 FLAT ROCK PL",,"WESTBROOK","CT","06498-1579","2024-09-30T00:00:00.000","NEW DEALER","POINT (-72.442443 41.2901)"
"U1073",,"GARYS HILLTOP AUTO REPAIR","1294 E MAIN ST",,"TORRINGTON","CT","06790-3514","2023-08-31T00:00:00.000","USED DEALER","POINT (-73.092404 41.816717)"
"U5713",,"RJM II ASSOCIATES LLC","281 WASHINGTON AVE",,"NORTH HAVEN","CT","06473-1305","2023-09-30T00:00:00.000","USED DEALER","POINT (-72.848909 41.401991)"
"U5791",,"VIP AUTO CENTER LLC","245 CHASE AVE",,"WATERBURY","CT","06704-2235","2024-02-29T00:00:00.000","USED DEALER","POINT (-73.033777 41.58107)"
"R6224","DBA","ROBERT P HANLEY JR","19 POMFRET ST",,"POMFRET CENTER","CT","06259","2023-01-31T00:00:00.000","GENERAL REPAIRER","POINT (-71.959177 41.859424)"
"U1095","DBA","SUPREME AUTO CENTER","48 MERIDEN RD RT 66",,"MIDDLEFIELD","CT","06455","2023-07-31T00:00:00.000","USED DEALER","POINT (-72.876198 41.595667)"
"O5946","DBA","DBA HONDA OF WATERTOWN","816 STRAITS TPKE",,"WATERTOWN","CT","06795","2024-03-31T00:00:00.000","LEASING LICENSE","POINT (-73.098673 41.569607)"
"O6330",,"CITIZENS ASSET FINANCE, A DIV OF CITIZENS BANK NA","ONE CITIZENS BANK WAY, MAILSTOP JCB450",,"JOHNSTON","RI","02919","2023-03-31T00:00:00.000","LEASING LICENSE",
"U0474",,"ROBERTSONS SERVICE INC","1301 BLUE HILLS AVE",,"BLOOMFIELD","CT","06002","2024-01-31T00:00:00.000","USED DEALER","POINT (-72.704686 41.854401)"
"O6210",,"UNIVERSAL LEASING LLC","419 SOUTH  CHERRY ST UNIT B",,"WALLINGFORD","CT","06492","2023-03-31T00:00:00.000","LEASING LICENSE","POINT (-72.833684 41.444258)"
"R6230",,"ENFIELD MUFFLER LLC","66 ENFIELD ST",,"ENFIELD","CT","06082","2023-02-28T00:00:00.000","GENERAL REPAIRER","POINT (-72.585963 42.022665)"
"U8595",,"CHAMPION TRANSMISSION & DIESEL PERFORMANCE LLC","1294 STRATFORD AVE",,"STRATFORD","CT","06615-6325","2024-04-30T00:00:00.000","USED DEALER","POINT (-73.135313 41.186949)"
"U8430",,"CARVEL AUTO SALES AND SERVICES LLC","4 FEDERAL RD",,"DANBURY","CT","06810-6129","2024-09-30T00:00:00.000","USED DEALER","POINT (-73.435325 41.399697)"
"U7597",,"RIVERSIDE MOTORCARS OF DERBY LLC","265 ROOSEVELT DR",,"DERBY","CT","06418-1628","2023-11-30T00:00:00.000","USED DEALER","POINT (-73.102961 41.327642)"
"U8726",,"D AND J AUTO SALES SERVICE LLC","235 UNION AVE",,"NEW HAVEN","CT","06519-2330","2023-07-31T00:00:00.000","USED DEALER","POINT (-72.929578 41.294934)"
"U8852",,"PROSPECT AUTOMOTIVE LLC","69 WATERBURY RD",,"PROSPECT","CT","06712-1218","2023-01-31T00:00:00.000","USED DEALER","POINT (-72.985155 41.513793)"
"R1465","DBA","MONTANARI GUY A","82 PAYNE RD",,"DANBURY","CT","06810-4108","2023-01-31T00:00:00.000","GENERAL REPAIRER","POINT (-73.4023 41.406333)"
"R7590",,"M G AUTO INC","32 WILLIAMS AVENUE",,"MYSTIC","CT","06355","2022-10-31T00:00:00.000","GENERAL REPAIRER","POINT (-71.9583 41.349457)"
"N2676","DBA","DBA NAPOLI KIA","241 BOSTON POST RD",,"MILFORD","CT","06460-3104","2024-03-31T00:00:00.000","NEW DEALER","POINT (-73.073683 41.22108)"
"R7581",,"MOBILIZED TRUCK AND TRAILER SERVICE","360 GENDRON RD",,"PLAINFIELD","CT","06374","2024-08-31T00:00:00.000","GENERAL REPAIRER","POINT (-71.881557 41.686323)"
"N2708","DBA","DBA HARTE VOLKSWAGEN OF MERIDEN","375 S BROAD ST",,"MERIDEN","CT","06450-6646","2024-02-29T00:00:00.000","NEW DEALER","POINT (-72.806572 41.512239)"
"N2268","DBA","CROWLEY DODGE LLC","223 BROAD ST",,"BRISTOL","CT","06010-6675","2022-11-30T00:00:00.000","NEW DEALER","POINT (-72.906339 41.67194)"
"U6269",,"SD AND JD ASSOC LLC","195 ASYLUM ST",,"BRIDGEPORT","CT","06610-2103","2022-12-31T00:00:00.000","USED DEALER","POINT (-73.175332 41.198913)"
"N2538","DBA","HOFFMAN NISSAN","46 ALBANY TPKE",,"WEST SIMSBURY","CT","06092-2901","2022-12-31T00:00:00.000","NEW DEALER","POINT (-72.870121 41.81863)"
"R5662",,"MONRO MUFFLER BRAKE INC","200 NEW HARTFORD RD",,"WINSTED","CT","06098","2024-08-31T00:00:00.000","GENERAL REPAIRER","POINT (-73.048905 41.90999)"
"R0541","DBA","J M WRIGHT RVTS","SCALZI PARK","BOX 1416","STAMFORD","CT","06902","2023-02-28T00:00:00.000","GENERAL REPAIRER",
"R0767",,"FERRIS AUTOMOTIVE LLC","153 GRASSY PLN ST UNIT C7",,"BETHEL","CT","06801","2023-08-31T00:00:00.000","GENERAL REPAIRER","POINT (-73.420986 41.362702)"
"U8926",,"ROBS AUTO LLC","256 MAIN ST",,"MONROE","CT","06468-1123","2024-02-29T00:00:00.000","USED DEALER","POINT (-73.258164 41.310954)"
"U1319","DBA","MECHANIX AUTOWORKS","1091 BOSTON POST RD",,"WEST HAVEN","CT","06516-2221","2023-06-30T00:00:00.000","USED DEALER","POINT (-72.981424 41.282544)"
"R6183","DBA","FAIRFIELD AUTO BODY","102 LINWOOD AVE",,"FAIRFIELD","CT","06824-4911","2024-09-30T00:00:00.000","GENERAL REPAIRER","POINT (-73.270876 41.141342)"
"U7677","DBA","DBA NELCON SERVICE CENTER","784 OLD COLONY RD",,"MERIDEN","CT","06451-7930","2024-07-31T00:00:00.000","USED DEALER","POINT (-72.813684 41.51922)"
"N2754",,"TEAM IMPORTS LLC","412 NEW PARK AVE",,"HARTFORD","CT","06106","2022-11-30T00:00:00.000","NEW DEALER","POINT (-72.715091 41.744669)"
"U7591",,"PERFORMANCE TIRE OIL & LUBE LLC","240 OLD HARTFORD RD",,"COLCHESTER","CT","06415-2743","2023-10-31T00:00:00.000","USED DEALER","POINT (-72.346789 41.580168)"
"O6105","DBA","DBA CHASE AUTO FINANCE CORP","700 KANSAS LN LA4 4041",,"MONROE","LA","71203","2023-03-31T00:00:00.000","LEASING LICENSE","POINT (-92.055134 32.512109)"
"L3414",,"ALL TECH AUTO REPAIR LLC","23 CHESTNUT ST UNIT C",,"DANBURY","CT","06810","2024-06-30T00:00:00.000","LIMITED REPAIRER","POINT (-73.440783 41.397052)"
"R4086",,"MONRO MUFFLER BRAKE INC","656 FARMINGTON AVE",,"BRISTOL","CT","06010-3912","2024-08-31T00:00:00.000","GENERAL REPAIRER","POINT (-72.921378 41.6911)"
"U7600",,"1008 BANK ST LLC","1008 BANK ST",,"NEW LONDON","CT","06320","2023-11-30T00:00:00.000","USED DEALER","POINT (-72.11303 41.343987)"
"U5690",,"GUILFORD AUTOMOTIVE LLC","268 BOSTON POST RD",,"GUILFORD","CT","06437","2023-08-31T00:00:00.000","USED DEALER","POINT (-72.656645 41.287637)"
"U7939",,"POP'S EXHAUST II LLC","58 MAPLE ST",,"WETHERSFIELD","CT","06109","2024-04-30T00:00:00.000","USED DEALER","POINT (-72.657472 41.698327)"
"U8936",,"A L D AUTOMOTIVE REPAIR LLC","52 W F  PALMER RD",,"MOODUS","CT","06469","2024-03-31T00:00:00.000","USED DEALER","POINT (-72.445374 41.503674)"
"O6347",,"ALLEGIANCE TRUCKS LEASING LLC","67 MAIN ST S",,"SOUTHBURY","CT","06488-2264","2024-03-31T00:00:00.000","LEASING LICENSE","POINT (-73.216112 41.478355)"
"R6704",,"TOWN FAIR TIRE CENTERS OF CONN LLC","113 SALEM TPKE",,"NORWICH","CT","06360","2024-03-31T00:00:00.000","GENERAL REPAIRER","POINT (-72.115199 41.510509)"
"O6363",,"ABLE INC OF CT","281 BRIDGEPORT AVE",,"SHELTON","CT","06484-3827","2023-03-31T00:00:00.000","LEASING LICENSE","POINT (-73.102152 41.30244)"
"R7319",,"NEW AGE COLLISION CENTER LLC","934 FEDERAL ROAD",,"BROOKFIELD","CT","06804","2024-06-30T00:00:00.000","GENERAL REPAIRER","POINT (-73.413827 41.489305)"
"U8604",,"BIGGINS AUTO REPAIR LLC","35 ROUTE 66 E",,"COLUMBIA","CT","06237-1235","2024-04-30T00:00:00.000","USED DEALER","POINT (-72.249677 41.719291)"
"U8737",,"ROGER MOTOR CAR LLC","308 ROUTE 164",,"PRESTON","CT","06365-8731","2024-07-31T00:00:00.000","USED DEALER","POINT (-71.973256 41.530137)"
"N0156","DBA","HARTE INFINITI","165 W SERVICE RD",,"HARTFORD","CT","06120-1503","2023-07-31T00:00:00.000","NEW DEALER","POINT (-72.656353 41.791128)"
"U5384",,"COUTU AUTO SALES INC","1511-1535-1547 WEST MAIN ST",,"WILLIMANTIC","CT","06226","2023-09-30T00:00:00.000","USED DEALER","POINT (-72.235023 41.718314)"
"R7529",,"LOBALBO AUTO BODY NORTHEAST LLC","259 MAIN AVE",,"NORWALK","CT","06851-6103","2023-12-31T00:00:00.000","GENERAL REPAIRER","POINT (-73.423996 41.132622)"
"U8740",,"A NEW ENGLAND AUTO AND TRUCK SUPER STORE LLC","8 S MAIN ST",,"EAST WINDSOR","CT","06088-9739","2024-04-30T00:00:00.000","USED DEALER","POINT (-72.613361 41.912365)"
"U8492",,"THE TRADE IN COMPANY LLC","82 BOSTON POST RD",,"NORTH WINDHAM","CT","06256","2023-04-30T00:00:00.000","USED DEALER","POINT (-72.191355 41.724828)"
"N2203",,"DEVAN MOTORS OF NORWALK INC","625 WEST AVE",,"NORWALK","CT","06850-4004","2024-01-31T00:00:00.000","NEW DEALER","POINT (-73.415408 41.113851)"
"U7207","DBA","DBA UZUN AUTO","809 1ST AVE",,"WEST HAVEN","CT","06516-2713","2022-11-30T00:00:00.000","USED DEALER","POINT (-72.953169 41.285296)"
"U5439",,"BECKMANS AUTO CENTER LLC","125 EAST ST",,"NEW BRITAIN","CT","06051-3646","2024-02-29T00:00:00.000","USED DEALER","POINT (-72.763929 41.656597)"
"R7017",,"DICKS AUTO CARE LLC","644 MIDDLE TPKE",,"STORRS","CT","06268-1308","2024-06-30T00:00:00.000","GENERAL REPAIRER","POINT (-72.265939 41.827701)"
"R7475",,"CRAFTS MOTORS LLC","1137 BOSTON POST RD",,"WEST HAVEN","CT","06516-2221","2022-09-30T00:00:00.000","GENERAL REPAIRER","POINT (-72.982693 41.281572)"
"J4182",,"DENVER PLACE AUTO SALVAGE LLC","86 DENVER PL",,"WATERBURY","CT","06708-1107","2024-04-30T00:00:00.000","RECYCLER","POINT (-73.0731 41.586292)"
"R7219",,"DARRELLS AUTO SALES AND SERVICE INC","722 NORTH COLONY RD STE B",,"WALLINGFORD","CT","06492","2022-11-30T00:00:00.000","GENERAL REPAIRER","POINT (-72.814419 41.473531)"
"O0358",,"VW CREDIT INC","1401 FRANKLIN BLVD",,"LIBERTYVILLE","IL","60048","2023-03-31T00:00:00.000","LEASING LICENSE","POINT (-88.007688 42.299336)"
"U6406","DBA","DBA BISHOPS AUTO SALES","850 WESTFIELD RD",,"MERIDEN","CT","06450","2023-11-30T00:00:00.000","USED DEALER","POINT (-72.750229 41.559164)"
"R0572",,"ORANGE SHELL INC","249 BULL HILL LN",,"ORANGE","CT","06477-3212","2023-09-30T00:00:00.000","GENERAL REPAIRER","POINT (-72.986693 41.273213)"
"N2652",,"PAG CONNECTICUT LR1 LLC","90 BOSTON POST RD",,"DARIEN","CT","06820-2909","2022-12-31T00:00:00.000","NEW DEALER","POINT (-73.455963 41.090263)"
"N2138",,"SCAP MOTORS INC","360 TUNXIS HILL RD",,"FAIRFIELD","CT","06825-4455","2023-03-31T00:00:00.000","NEW DEALER","POINT (-73.229995 41.176697)"
"R6410",,"UNITED AUTO SERVICES","34 1/2 TUNXIS AVE",,"BLOOMFIELD","CT","06002-2040","2022-12-31T00:00:00.000","GENERAL REPAIRER","POINT (-72.737542 41.835116)"
"U8532",,"LOEHMANN BLASIUS CHEVROLET INC","1530 E MAIN ST",,"TORRINGTON","CT","06790-3550","2023-08-31T00:00:00.000","USED DEALER","POINT (-73.087507 41.819328)"
"R0256",,"MURRAY BROS GARAGE INC","19 BACON POND RD",,"WOODBURY","CT","06798-3512","2023-12-31T00:00:00.000","GENERAL REPAIRER","POINT (-73.19024 41.547958)"
"R4508",,"V AND M INC OF ANSONIA","472 MAIN ST",,"ANSONIA","CT","06401-2338","2024-08-31T00:00:00.000","GENERAL REPAIRER","POINT (-73.077454 41.338201)"
"N2090","DBA","DBA GEORGE HARTE MITSUBISHI","385 426 436 442 DERBY AVE",,"WEST HAVEN","CT","06516","2023-10-31T00:00:00.000","NEW DEALER","POINT (-72.968074 41.30825)"
"O0173",,"AMERICAN LEASING CORP","20 N PARK STREET",,"E ORANGE","NJ","07017","2023-03-31T00:00:00.000","LEASING LICENSE","POINT (-74.221344 40.777733)"
"U1526",,"THE DECICCO GARAGE INC","128 W MAIN ST",,"STAFFORD SPRINGS","CT","06076","2023-04-30T00:00:00.000","USED DEALER","POINT (-72.314725 41.961093)"
"R7578",,"39 PITKIN STREET GARAGE LLC","39 PITKIN ST",,"EAST HARTFORD","CT","06108-3316","2024-08-31T00:00:00.000","GENERAL REPAIRER","POINT (-72.64826 41.763806)"
"L2139","DBA","BUZZS PARADISE GREEN GETTY","4039 MAIN ST",,"STRATFORD","CT","06614-3562","2023-10-31T00:00:00.000","LIMITED REPAIRER","POINT (-73.125891 41.215073)"
"U7857",,"GOOD SHEPHERD AUTO SALES LLC","755 WINDSOR ST",,"HARTFORD","CT","06120-1919","2024-02-29T00:00:00.000","USED DEALER","POINT (-72.669655 41.787989)"
"U7735",,"WATERTOWN AUTO BODY LLC","81 KNIGHT ST",,"WATERTOWN","CT","06795","2022-10-31T00:00:00.000","USED DEALER","POINT (-73.106286 41.59308)"
"N0278",,"STEVENS FORD INC","707 717 BRIDGEPORT AVE",,"MILFORD","CT","06460","2023-04-30T00:00:00.000","NEW DEALER","POINT (-73.082668 41.20998)"
"U8101","DBA","DBA SOUND AUTOMOTIVE","14-10 FRONTAGE RD, 111 KIMBERLY AVE",,"EAST HAVEN","CT","06512","2023-11-30T00:00:00.000","USED DEALER",
"N2637",,"PAG GREENWICH B1 LLC","348-355 W PUTNAM AVE",,"GREENWICH","CT","06830","2024-02-29T00:00:00.000","NEW DEALER","POINT (-73.638148 41.023106)"
"U0378",,"NUNES AUTO SALES INC","118 120 138 CALHOUN AVE",,"BRIDGEPORT","CT","06604","2024-01-31T00:00:00.000","USED DEALER","POINT (-73.198919 41.182903)"
"U8509",,"AUTO DEPOT LLC","215 DEPOT RD",,"COVENTRY","CT","06238-3310","2023-05-31T00:00:00.000","USED DEALER","POINT (-72.270928 41.762752)"
"N0139","DBA","LIBERTY HONDA","71 W SERVICE RD",,"HARTFORD","CT","06120-1524","2023-08-31T00:00:00.000","NEW DEALER","POINT (-72.659961 41.785593)"
"O0023",,"ENTERPRISE FM TRUST","600 CORPORATE PARK DR",,"ST LOUIS","MO","63105","2023-03-31T00:00:00.000","LEASING LICENSE","POINT (-90.345555 38.643185)"
"U8600",,"MODERN TIRE WH, LLC","7 RAYMOND RD",,"WEST HARTFORD","CT","06107-2210","2024-05-31T00:00:00.000","USED DEALER","POINT (-72.73971 41.761746)"
"U8669",,"RONS AUTOMOTIVE UNIONVILLE  LLC","16 NEW BRITAIN AVE",,"UNIONVILLE","CT","06085-1216","2023-01-31T00:00:00.000","USED DEALER","POINT (-72.885882 41.754941)"
"U4517",,"SIBBYS AUTOMOTIVE INC","600 HIGH ST",,"NAUGATUCK","CT","06770-3240","2024-05-31T00:00:00.000","USED DEALER","POINT (-73.04784 41.497484)"
"R7835",,"AAA CLUB ALLIANCE INC","25 HAZARD AVE",,"ENFIELD","CT","06082","2024-05-31T00:00:00.000","GENERAL REPAIRER","POINT (-72.581786 41.989986)"
"O0530","DBA","DBA BUICK GMC FINANCIAL LEASING","4001 EMBARCADERO DR",,"ARLINGTON","TX","76014","2024-03-31T00:00:00.000","LEASING LICENSE","POINT (-97.096965 32.68171)"
"U1998",,"FARMINGTON MOTOR SPORTS INC","146 BRICKYARD RD",,"FARMINGTON","CT","06032-1202","2022-12-31T00:00:00.000","USED DEALER","POINT (-72.855126 41.750328)"
"U0058",,"BILLS SVC STATION & AUTOPARTS INC","RT 74","844 TOLLAND STAGE RD","TOLLAND","CT","06084","2024-04-30T00:00:00.000","USED DEALER",
"U8465","DBA","DBA WILTON AUTO AND TIRE CENTER","658 DANBURY RD",,"WILTON","CT","06897-5001","2022-12-31T00:00:00.000","USED DEALER","POINT (-73.43234 41.239273)"
"R6622",,"FJ AUTO REPAIRS","14 16 WILDMAN ST",,"DANBURY","CT","06810","2023-06-30T00:00:00.000","GENERAL REPAIRER","POINT (-73.439698 41.397872)"
"U8704",,"DEG AUTOMOTIVE LLC","100 N MAIN ST",,"BEACON FALLS","CT","06403-1131","2023-05-31T00:00:00.000","USED DEALER","POINT (-73.06526 41.445434)"
"R6302","DBA","SCOTT BROOKES","213 COLONY ST",,"MERIDEN","CT","06451-3228","2023-10-31T00:00:00.000","GENERAL REPAIRER","POINT (-72.799028 41.543543)"
"U7372",,"EASTCOAST MOTORSPORTS LLC","561 N MAIN ST",,"BRISTOL","CT","06010","2024-03-31T00:00:00.000","USED DEALER","POINT (-72.947389 41.683079)"
"U8706",,"DG AUTO UNLIMITED LLC","835 NEW HARWINTON RD",,"TORRINGTON","CT","06790","2023-05-31T00:00:00.000","USED DEALER","POINT (-73.090431 41.801047)"
"R6260",,"CHRISTIES SERVICE LLC","161 CROSS HWY",,"WESTPORT","CT","06880-2245","2023-05-31T00:00:00.000","GENERAL REPAIRER","POINT (-73.329853 41.16608)"
"R7818",,"HIGH DEFINITION AUTO SHOP LLC","43 INDUSTRY LN",,"WATERBURY","CT","06704-2413","2024-02-29T00:00:00.000","GENERAL REPAIRER","POINT (-73.008036 41.572358)"
"U4479",,"SOUTHERN AUTO SALES INC","161 164 S MAIN ST",,"EAST WINDSOR","CT","06088","2024-05-31T00:00:00.000","USED DEALER","POINT (-72.607933 41.888335)"
"R7738","DBA","DBA GREENFIELD HILL SERVICE","1845 BRONSON RD",,"FAIRFIELD","CT","06824","2023-05-31T00:00:00.000","GENERAL REPAIRER","POINT (-73.282721 41.160715)"
"R7052","DBA","MA CHARTER FOOD STORE","2105 SILAS DEANE HIGHWAY",,"ROCKY HILL","CT","06067","2022-10-31T00:00:00.000","GENERAL REPAIRER","POINT (-72.643499 41.670608)"
"U4492",,"PAULS AUTO SALES","1320 WOLCOTT RD",,"WOLCOTT","CT","06716-1502","2024-05-31T00:00:00.000","USED DEALER","POINT (-72.967688 41.622723)"
"R7722",,"MODZELEWSKIS AUTO AND TIRE CENTER INC","68 FEDERAL RD",,"DANBURY","CT","06810-5034","2023-04-30T00:00:00.000","GENERAL REPAIRER","POINT (-73.435075 41.399822)"
"U8365",,"WHOLESALE MOTORCARS LLC","105 PANE RD STE B",,"NEWINGTON","CT","06111-5563","2024-01-31T00:00:00.000","USED DEALER","POINT (-72.730499 41.654813)"
"U2209",,"AUTOCRAFT CORPORATION","170 N MAIN ST",,"BRANFORD","CT","06405-3021","2022-10-31T00:00:00.000","USED DEALER","POINT (-72.811951 41.288898)"
"R6597",,"PRECISION AUTO REPAIR CENTER OF STAMFORD LLC","967 E MAIN ST",,"STAMFORD","CT","06902-4109","2023-03-31T00:00:00.000","GENERAL REPAIRER","POINT (-73.520509 41.05623)"
"O0039",,"FIRST GROUP LEASING NOMIN","600 VINE ST",,"CINCINNATI","OH","45202","2023-03-31T00:00:00.000","LEASING LICENSE","POINT (-84.513343 39.1027)"
"N0670",,"N E CYCLE WORKS INC","661 GOLD STAR HWY",,"GROTON","CT","06340-6267","2024-08-31T00:00:00.000","NEW DEALER","POINT (-72.046832 41.374346)"
"M1017",,"AMERICAN CARGO GROUP","1503 MCNAUGHTON AVE",,"ELKHART","IN","46514-2243","2023-06-30T00:00:00.000","MANUFACTURER LICENSE","POINT (-85.997154 41.698952)"
"U8311",,"ROAD SERVICE LLC","419 SOUTH CHERRY ST",,"WALLINGFORD","CT","06492","2023-06-30T00:00:00.000","USED DEALER","POINT (-72.833684 41.444258)"
"U0648",,"AJ MANDI AND SON INC","36 MAGEE AVE",,"STAMFORD","CT","06902-5907","2023-11-30T00:00:00.000","USED DEALER","POINT (-73.52854 41.048574)"
"U5638",,"COMPLETE AUTOMOTIVE REPAIR SPECIALS","160 160R SEBETHE DR",,"CROMWELL","CT","06416","2023-04-30T00:00:00.000","USED DEALER","POINT (-72.711349 41.616859)"
"R7782","DBA","DBA VALVOLINE INSTANT OIL CHANGE","426 COLMAN ST",,"NEW LONDON","CT","06320-3739","2023-09-30T00:00:00.000","GENERAL REPAIRER","POINT (-72.116104 41.361178)"
"R7797",,"CARCAMO AUTO REPAIR LLC","2750 NORTH AVE",,"BRIDGEPORT","CT","06604-2357","2023-09-30T00:00:00.000","GENERAL REPAIRER","POINT (-73.222302 41.176526)"
"U1965",,"FREMUT SERVICE INC","333 S MAIN ST",,"DEEP RIVER","CT","06417","2022-12-31T00:00:00.000","USED DEALER","POINT (-72.430881 41.374756)"
"U5570",,"AUTO SPECIALISTS OF MILFORD LLC","199 207 211 NAUGATUCK AVE",,"MILFORD","CT","06460","2022-11-30T00:00:00.000","USED DEALER","POINT (-73.089522 41.195811)"
"U8759",,"HOOK AND GO AUTO LLC","329 WALNUT ST",,"WATERBURY","CT","06704-3704","2023-11-30T00:00:00.000","USED DEALER","POINT (-73.026689 41.561241)"
"N2679",,"BRANDFON IMPORTS LLC","115 PEAT MEADOW RD",,"NEW HAVEN","CT","06513-4633","2024-07-31T00:00:00.000","NEW DEALER","POINT (-72.887699 41.289591)"
"L3426",,"PETE DISCOUNT MUFFLER BRAKE","961 STRATFORD AVE",,"BRIDGEPORT","CT","06607-1315","2024-02-29T00:00:00.000","LIMITED REPAIRER","POINT (-73.170626 41.176893)"
"N2732",,"K AND R MOTORS LLC","167 HARTFORD TPKE",,"VERNON","CT","06066-5258","2023-04-30T00:00:00.000","NEW DEALER","POINT (-72.499529 41.822841)"
"R7767","DBA","VALVOLINE INSTANT OIL CHANGE","449 CONNECTICUT AVE",,"NORWALK","CT","06854","2023-02-28T00:00:00.000","GENERAL REPAIRER","POINT (-73.441423 41.099942)"
"N2792","DBA","ALLEGIANCE TRUCKS NORTH HAVEN","31 LEONARDO DR",,"NORTH HAVEN","CT","06473-2528","2024-04-30T00:00:00.000","NEW DEALER","POINT (-72.868651 41.383894)"
"R7638",,"AMG ENTERPRISES LLC","91 S MAIN ST",,"TORRINGTON","CT","06790-6430","2023-07-31T00:00:00.000","GENERAL REPAIRER","POINT (-73.121034 41.798334)"
"R7275",,"ACE TIRE AND AUTO CENTER INC","861 ETHAN ALLEN HWY",,"RIDGEFIELD","CT","06877-2801","2023-08-31T00:00:00.000","GENERAL REPAIRER","POINT (-73.472045 41.313719)"
"O0158",,"USB LEASING LT","1850 OSBORN AVE",,"OSHKOSH","WI","54902","2023-03-31T00:00:00.000","LEASING LICENSE","POINT (-88.579161 44.001547)"
"O5983","DBA","MAC MOTORS INC","135 WEST SERVICE RD",,"HARTFORD","CT","06120","2024-03-31T00:00:00.000","LEASING LICENSE","POINT (-72.657035 41.789573)"
"N2751","DBA","DBA THOMMEN'S ISUZU TRUCKS","1 TURKEY PLAIN RD",,"BETHEL","CT","06801-2848","2022-11-30T00:00:00.000","NEW DEALER","POINT (-73.417271 41.356398)"
"R7428","DBA","DBA MIDAS AUTO SERVICE EXPERTS","925 POST RD",,"FAIRFIELD","CT","06824-6013","2023-09-30T00:00:00.000","GENERAL REPAIRER","POINT (-73.250604 41.146556)"
"N2730",,"GVWP LLC","245 NEW BRITAIN AVE",,"PLAINVILLE","CT","06062-2066","2023-03-31T00:00:00.000","NEW DEALER","POINT (-72.841547 41.676595)"
"R4825","DBA","POST PARKWAY SERVICE OF STRATFORD","55 BROWNING ST UNIT 7",,"STRATFORD","CT","06497","2024-04-30T00:00:00.000","GENERAL REPAIRER","POINT (-73.147755 41.176313)"
"U6898",,"TONYS LONG WHARF TRANSPORT TOWING LLC","294 KIMBERLY AVE",,"NEW HAVEN","CT","06519","2022-12-31T00:00:00.000","USED DEALER","POINT (-72.937132 41.284659)"
"U6282",,"JOES AUTO ELECTRIC II","770 NEWFIELD ST","BLDG B1","MIDDLETOWN","CT","06457","2023-02-28T00:00:00.000","USED DEALER","POINT (-72.672585 41.580213)"
"R6375","DBA","DBA FIRESTONE COMPLETE AUTO CARE","288 QUEEN ST",,"SOUTHINGTON","CT","06489-1901","2023-12-31T00:00:00.000","GENERAL REPAIRER","POINT (-72.873174 41.624178)"
"U1580",,"FAMILY AUTO CENTER","1485 N MAIN ST",,"WATERBURY","CT","06704-2714","2023-03-31T00:00:00.000","USED DEALER","POINT (-73.026125 41.571328)"
"M1025",,"ROADCLIPPER ENTERPRISES INC","4006 FM ROAD 3417",,"MT PLEASANT","TX","75455-8784","2023-06-30T00:00:00.000","MANUFACTURER LICENSE","POINT (-94.973921 33.097543)"
"U7250",,"BOZRAH COLLISION CENTER LLC","33 STOCKHOUSE RD",,"BOZRAH","CT","06334-1121","2023-03-31T00:00:00.000","USED DEALER","POINT (-72.155377 41.568078)"
"U5965",,"BERKSHIRE MOTORS LLC","25 BERKSHIRE RD",,"SANDY HOOK","CT","06482-1361","2023-02-28T00:00:00.000","USED DEALER","POINT (-73.269096 41.410656)"
"M0864",,"CARRY ON TRAILER INC","101 JOE HARVEY ST",,"LAVONIA","GA","30553","2023-06-30T00:00:00.000","MANUFACTURER LICENSE","POINT (-83.105545 34.42348)"
"U6664",,"ALVES AUTO BODY INC","1645 PARK ST",,"HARTFORD","CT","06106-2133","2023-04-30T00:00:00.000","USED DEALER","POINT (-72.705863 41.757272)"
"U8959",,"OAK AVE AUTO LLC","305 OAK AVE",,"TORRINGTON","CT","06790-6825","2024-08-31T00:00:00.000","USED DEALER","POINT (-73.113126 41.791645)"
"L3363",,"BRIDGESTONE RETAIL OPERATIONS LLC L3363","139 PUTNAM BLVD",,"GLASTONBURY","CT","06033-1064","2023-12-31T00:00:00.000","LIMITED REPAIRER","POINT (-72.622306 41.725099)"
"J4127","DBA","JORDAN'S USED AUTO PARTS","31 NORWICH WESTERLY RD",,"PRESTON","CT","06365-8419","2024-04-30T00:00:00.000","RECYCLER","POINT (-72.048255 41.513446)"
"O6365",,"RYDER TRUCK RENTAL INC","45 CEMETERY RD",,"PLAINFIELD","CT","06374-1604","2023-03-31T00:00:00.000","LEASING LICENSE","POINT (-71.91796 41.687002)"
"R6135","DBA","SCOTTY'S AUTO AND TRUCK SERVICE CENTER","914 E MAIN ST",,"STAMFORD","CT","06902","2024-07-31T00:00:00.000","GENERAL REPAIRER","POINT (-73.522777 41.056007)"
"U4687",,"AFFORDABLE WHEELS INC","704 W MAIN ST",,"BRANFORD","CT","06405-3436","2024-03-31T00:00:00.000","USED DEALER","POINT (-72.839596 41.27789)"
"U0427",,"ROY AND SONS AUTO BODY INC","325 ROGERS RD",,"GROTON","CT","06340-2729","2024-01-31T00:00:00.000","USED DEALER","POINT (-72.01522 41.383668)"
"R7419",,"PASTIR AUTOMOTIVE STRATFORD LLC","1260 BARNUM AVE",,"STRATFORD","CT","06614","2023-08-31T00:00:00.000","GENERAL REPAIRER","POINT (-73.136737 41.197194)"
"U5321",,"CORTIGIANO AUTO SERV LLC","818 822 BOSTON AVE",,"BRIDGEPORT","CT","06610","2023-05-31T00:00:00.000","USED DEALER","POINT (-73.177358 41.196057)"
"U6554",,"JAYS AUTO DEALS ON WHEELS LLC","333 MAIN ST",,"MANCHESTER","CT","06040-4127","2024-08-31T00:00:00.000","USED DEALER","POINT (-72.52229 41.781525)"
"O6097","DBA","A & A AUTO AND TRUCK RENTAL OF CT INC","16 HAMDEN PARK DR",,"HAMDEN","CT","06517","2024-03-31T00:00:00.000","LEASING LICENSE","POINT (-72.932929 41.342238)"
"U0947",,"MPS AUTOMOTIVE INC","452 MAIN ST",,"TERRYVILLE","CT","06786","2023-09-30T00:00:00.000","USED DEALER","POINT (-73.031353 41.677288)"
"U8240",,"CENTRAL TRUCK AND EQUIPMENT CO INC","40 POST OFFICE RD",,"ENFIELD","CT","06082-5626","2022-12-31T00:00:00.000","USED DEALER","POINT (-72.586246 41.968795)"
"M0566",,"TRIUMPH MOTORCYCLES AMERICA LTD","100 HARTSFIELD CENTRE PKWY","SUITE 200","ATLANTA","GA","30354","2024-06-30T00:00:00.000","MANUFACTURER LICENSE","POINT (-84.428766 33.654878)"
"U1915","DBA","RICHARD A. D'URSO","38 TOWNSEND AVE",,"NEW HAVEN","CT","06512-4023","2023-01-31T00:00:00.000","USED DEALER","POINT (-72.891921 41.258512)"
"J2522",,"GEORGES AUTO PARTS INC","71 79 KNOWLTON ST",,"BRIDGEPORT","CT","06608","2024-04-30T00:00:00.000","RECYCLER","POINT (-73.18769 41.184676)"
"R0362",,"SIRECIS AUTOMOTIVE LLC","385 BOSTON POST RD",,"WATERFORD","CT","06385-1507","2023-11-30T00:00:00.000","GENERAL REPAIRER","POINT (-72.165121 41.35468)"
"U8128","DBA","DBA TORO AUTO","52A S MAIN ST",,"EAST WINDSOR","CT","06088","2024-01-31T00:00:00.000","USED DEALER","POINT (-72.612813 41.904438)"
"R7403",,"CECILS AUTO ELECTRIC AND REPAIR LLC","1496 ALBANY AVE",,"HARTFORD","CT","06112-2113","2023-06-30T00:00:00.000","GENERAL REPAIRER","POINT (-72.701946 41.783965)"
"M0750",,"PIAGGIO GROUP AMERICAS INC","257 PARK AVE SOUTH 4TH FL",,"NEW YORK","NY","10010","2023-06-30T00:00:00.000","MANUFACTURER LICENSE","POINT (-73.98741 40.738655)"
"R7761",,"TOWN FAIR TIRE CENTERS OF CONN LLC","355 HAWLEY LA",,"STRATFORD","CT","06616","2023-02-28T00:00:00.000","GENERAL REPAIRER","POINT (-73.149892 41.233066)"
"N0806",,"D L O INC","816 STRAITS TPKE",,"WATERTOWN","CT","06795-3330","2024-06-30T00:00:00.000","NEW DEALER","POINT (-73.098673 41.569607)"
"N2662","DBA","DBA MODERN MAZDA","59 68 WATERBURY RD",,"THOMASTON","CT","06787","2023-07-31T00:00:00.000","NEW DEALER","POINT (-73.08029 41.659183)"
"R7769",,"GALENA ASSOCIATES LLC","720A N COLONY RD",,"WALLINGFORD","CT","06492","2023-02-28T00:00:00.000","GENERAL REPAIRER","POINT (-72.81476 41.47293)"
"J4177",,"LIBERTY RECYCLING NORTH  LLC","1165 S MAIN ST",,"TORRINGTON","CT","06790-6930","2024-04-30T00:00:00.000","RECYCLER","POINT (-73.12008 41.776365)"
"U7860",,"MANNYS AUTO REPAIR AND TOWING LLC","1200 SOUTH MAIN ST",,"WATERBURY","CT","06706","2024-02-29T00:00:00.000","USED DEALER","POINT (-73.03654 41.539723)"
"O6289",,"SAYBROOK LEASING AND RENTAL LLC","375 BOSTON POST RD",,"OLD SAYBROOK","CT","06475-1547","2024-03-31T00:00:00.000","LEASING LICENSE","POINT (-72.37109 41.305854)"
"U8709",,"IDEAL AUTOMOTIVE LLC","93 TAFTVILLE OCCUM RD",,"NORWICH","CT","06360-1346","2023-06-30T00:00:00.000","USED DEALER","POINT (-72.047871 41.590135)"
"U6039",,"FISH MUFFLER LLC","738 BANTAM RD",,"BANTAM","CT","06750","2023-06-30T00:00:00.000","USED DEALER","POINT (-73.233652 41.725086)"
"U5191","DBA","DAVID A CROSBY","734 FERRY BLVD",,"STRATFORD","CT","06614","2024-09-30T00:00:00.000","USED DEALER","POINT (-73.116011 41.199401)"
"U7470","DBA","JOHNS SERVICECENTER","1552 WOLCOTT RD",,"WOLCOTT","CT","06716-1327","2023-02-28T00:00:00.000","USED DEALER","POINT (-72.962473 41.632043)"
"U8793",,"NEW ENGLAND MOTORS LLC","1110 DIXWELL AVE",,"HAMDEN","CT","06514-4730","2024-02-29T00:00:00.000","USED DEALER","POINT (-72.934562 41.343524)"
"U4035","DBA","DOMINIK CERAVOLO","1174 GOLD STAR HWY",,"GROTON","CT","06340-2716","2024-09-30T00:00:00.000","USED DEALER","POINT (-72.030959 41.382349)"
"U4654",,"VICS AUTO SERVICE","359 PARK ST",,"NEW BRITAIN","CT","06051-2728","2024-01-31T00:00:00.000","USED DEALER","POINT (-72.771907 41.665339)"
"R1385",,"TURNPIKE TIRE AND AUTO SERVICE","71B S TURNPIKE RD",,"WALLINGFORD","CT","06492","2023-02-28T00:00:00.000","GENERAL REPAIRER","POINT (-72.842592 41.451187)"
"N2602",,"CREST FORD LLC","218 -222 FLANDERS RD",,"NIANTIC","CT","06357","2023-05-31T00:00:00.000","NEW DEALER","POINT (-72.210488 41.35402)"
"R5966",,"UP COUNTRY TIRE DISTRIBUTORS INC","82 BOSTON POST RD",,"WATERFORD","CT","06385","2022-11-30T00:00:00.000","GENERAL REPAIRER","POINT (-72.120676 41.341743)"
"R7644","DBA","DBA VALVOLINE INSTANT OIL CHANGE","942 E MAIN ST",,"STAMFORD","CT","06902-4033","2023-08-31T00:00:00.000","GENERAL REPAIRER","POINT (-73.521684 41.056116)"
"N2262","DBA","NORTHWEST HILLS CHEV BUICK GMC CADILLAC","2065 E MAIN ST",,"TORRINGTON","CT","06790","2024-08-31T00:00:00.000","NEW DEALER","POINT (-73.078819 41.821053)"
"U0121",,"VALS AUTO SERVICE INC","476 COLONY ST",,"MERIDEN","CT","06450","2024-03-31T00:00:00.000","USED DEALER","POINT (-72.792534 41.54974)"
"R7012",,"DKC AUTO SERVICE LLC","253 KENNEDY DR",,"PUTNAM","CT","06260-1638","2024-06-30T00:00:00.000","GENERAL REPAIRER","POINT (-71.907661 41.920073)"
"U8232",,"MHQ INC","750 NEWFIELD ST",,"MIDDLETOWN","CT","06457-1869","2022-10-31T00:00:00.000","USED DEALER","POINT (-72.672515 41.579452)"
"R6884",,"PREMIERE AUTO SPORT CORPORATION","805 POST RD",,"DARIEN","CT","06820-4602","2022-11-30T00:00:00.000","GENERAL REPAIRER","POINT (-73.468416 41.078962)"
"R6501",,"IMPORT SPECIALIST LLC","540 E MAIN ST UNIT 17",,"BRANFORD","CT","06405","2024-03-31T00:00:00.000","GENERAL REPAIRER","POINT (-72.766694 41.298606)"
"R0971",,"T AND J AUTO BODY INC","36 JENCKS ST",,"EAST HARTFORD","CT","06108-3911","2023-06-30T00:00:00.000","GENERAL REPAIRER","POINT (-72.658135 41.774347)"
"R4563","DBA","DBA OTTAVIO MALLOZZI AND OTTAVIO MA","85 W MAIN ST",,"STAMFORD","CT","06902-5030","2024-08-31T00:00:00.000","GENERAL REPAIRER","POINT (-73.546462 41.05118)"
"U4249",,"CONN USED PARTS AND AUTO WRECKNG INC","40 BREWERY ST",,"WATERBURY","CT","06708","2024-07-31T00:00:00.000","USED DEALER","POINT (-73.037554 41.537274)"
"U7848",,"VOLPE PREOWNED CARS LLC","2395 FOXON RD",,"NORTH BRANFORD","CT","06471-1500","2024-01-31T00:00:00.000","USED DEALER","POINT (-72.749199 41.341638)"
