"credentialid","name","type","businessname","dba","fullcredentialcode","credentialtype","credentialnumber","credentialsubcategory","credential","status","statusreason","active","issuedate","effectivedate","expirationdate","address","city","state","zip","recordrefreshedon"
"1001811","BRONX BREWERY LLC (THE)","CORPORATION","BRONX BREWERY LLC (THE)","BRONX BREWERY","LTR.0000185","LTR","185",,"TRANSPORTER LIQUOR","INACTIVE",,"0","2011-06-21T00:00:00.000","2012-06-21T00:00:00.000","2013-06-20T00:00:00.000","856 E 136TH ST","BRONX","NY","104543509","2014-07-24T00:00:00.000"
"1002500","72ND AND YORK INC","CORPORATION","72ND AND YORK INC","SOTHEBY'S WINE","LTR.0000186","LTR","186",,"TRANSPORTER LIQUOR","ACTIVE","CURRENT","1","2011-06-21T00:00:00.000","2022-06-21T00:00:00.000","2023-06-20T00:00:00.000","1334 YORK AVE STE 190","NEW YORK","NY","100214806","2022-04-27T00:00:00.000"
"1003971","SERVICE WAREHOUSING & LOGISTICS LLC","LIMITED LIABILITY COMPANY","SERVICE WAREHOUSING & LOGISTICS LLC","SERVICE WARHOUSEING & LOGISTICS","LTR.0000187","LTR","187",,"TRANSPORTER LIQUOR","INACTIVE",,"0","2011-07-14T00:00:00.000","2011-07-14T00:00:00.000","2012-07-13T00:00:00.000","130 LENOX AVE","STAMFORD","CT","069062321","2014-07-24T00:00:00.000"
"1032901","DIAMOND FREIGHT DISTRIBUTION CO INC","CORPORATION","DIAMOND FREIGHT DISTRIBUTION CO INC","DIAMOND FREIGHT DISTRIBUTION CO INC","LTR.0000188","LTR","188",,"TRANSPORTER LIQUOR","INACTIVE",,"0","2011-09-28T00:00:00.000","2013-09-28T00:00:00.000","2014-09-27T00:00:00.000","635 DELANCEY ST","NEWARK","NJ","071053845","2017-05-02T00:00:00.000"
"1049043","CARDINAL LOGISTICS MANAGEMENT CORPORATION","CORPORATION","CARDINAL LOGISTICS MANAGEMENT CORPORATION","CARDINAL LOGISTICS MANAGEMENT","LTR.0000189","LTR","189",,"TRANSPORTER LIQUOR","INACTIVE",,"0","2012-02-06T00:00:00.000","2012-02-06T00:00:00.000","2013-02-05T00:00:00.000","5333 DAVIDSON HWY","CONCORD","NC","280278478","2014-07-24T00:00:00.000"
"1051951","GARY C HEISHMAN & EDWARD B SHELLEHAMER","PARTNERSHIP","GARY C HEISHMAN & EDWARD B SHELLEHAMER","ALLEN DISTRIBUTION","LTR.0000190","LTR","190",,"TRANSPORTER LIQUOR","ACTIVE","CURRENT","1","2012-02-23T00:00:00.000","2022-02-23T00:00:00.000","2023-02-22T00:00:00.000","1532 COMMERCE AVE","CARLISLE","PA","170159161","2021-12-29T00:00:00.000"
"1054126","LAIDLAW CARRIERS VAN GP INC","CORPORATION","LAIDLAW CARRIERS VAN GP INC","LAIDLAW CARRIERS VAN GP","LTR.0000191","LTR","191",,"TRANSPORTER LIQUOR","INACTIVE",,"0","2012-05-10T00:00:00.000","2012-05-10T00:00:00.000","2013-05-09T00:00:00.000","21 KERR CRESCENT","PUSLINCH ON",,"N0B2J0","2014-07-24T00:00:00.000"
"1065909","FREIGHTQUOTE.COM","CORPORATION","FREIGHTQUOTE.COM","FREIGHTQUOTE","LTR.0000192","LTR","192",,"TRANSPORTER LIQUOR","INACTIVE",,"0","2012-05-29T00:00:00.000","2014-05-29T00:00:00.000","2015-05-28T00:00:00.000","901 WEST CARONDELET DRIVE","KANSAS CITY","MO","64114","2017-05-02T00:00:00.000"
"1074852","CRANE CARTAGE LLC","LIMITED LIABILITY COMPANY","CRANE CARTAGE LLC","CRANE CARTAGE FREIGHT SERVICES","LTR.0000193","LTR","193",,"TRANSPORTER LIQUOR","ACTIVE","CURRENT","1","2012-06-22T00:00:00.000","2022-06-22T00:00:00.000","2023-06-21T00:00:00.000","1500 RANKIN RD STE 400","HOUSTON","TX","770734807","2022-05-18T00:00:00.000"
"1117617","FORE TRANSPORTATION INC","CORPORATION","FORE TRANSPORTATION INC","FORE TRANSPORTATION","LTR.0000194","LTR","194",,"TRANSPORTER LIQUOR","INACTIVE",,"0","2012-08-29T00:00:00.000","2012-08-29T00:00:00.000","2013-08-28T00:00:00.000","250 E 167TH ST","HARVEY","IL","604266010","2014-07-24T00:00:00.000"
"1137051","S & M TRANSPORT","CORPORATION","S & M TRANSPORT","S & M TRANSPORT","LTR.0000195","LTR","195",,"TRANSPORTER LIQUOR","INACTIVE",,"0","2012-12-18T00:00:00.000","2013-12-19T00:00:00.000","2014-12-18T00:00:00.000","PO BOX 1242","EDISON","NJ","088181242","2017-05-02T00:00:00.000"
"1143991","H & M TERMINALS TRANSPORT CORP","CORPORATION","H & M TERMINALS TRANSPORT CORP","H & M TERMINALS TRANSPORT","LTR.0000196","LTR","196",,"TRANSPORTER LIQUOR","INACTIVE",,"0","2013-01-09T00:00:00.000","2014-01-09T00:00:00.000","2015-01-08T00:00:00.000","485B US HIGHWAY 1 S","ISELIN","NJ","088303013","2017-05-02T00:00:00.000"
"1145527","RTS HOLDINGS LLC","LIMITED LIABILITY COMPANY","RTS HOLDINGS LLC","RTS INTERMODAL LOGISTICS","LTR.0000197","LTR","197",,"TRANSPORTER LIQUOR","INACTIVE",,"0","2013-01-23T00:00:00.000","2013-01-23T00:00:00.000","2014-01-22T00:00:00.000","1 KELLEWAY DR","RANDOLPH","MA","023685074","2014-07-24T00:00:00.000"
"1146471","DDI TRANSPORTATION INC","CORPORATION","DDI TRANSPORTATION INC","DDI TRANSPORTATION","LTR.0000198","LTR","198",,"TRANSPORTER LIQUOR","INACTIVE",,"0","2013-02-01T00:00:00.000","2013-02-01T00:00:00.000","2014-02-01T00:00:00.000","10235 TIMBER RIDGE DR","ASHLAND","VA","230058135","2014-07-24T00:00:00.000"
"1161792","ITZEL DELIVERY SERVICE LLC","LIMITED LIABILITY COMPANY","ITZEL DELIVERY SERVICE LLC",,"LTR.0000199","LTR","199",,"TRANSPORTER LIQUOR","INACTIVE",,"0","2013-05-07T00:00:00.000","2016-06-16T00:00:00.000","2017-05-06T00:00:00.000","623 W 207TH ST APT 26","NEW YORK","NY","100342629","2018-03-02T00:00:00.000"
"1161797","WESTERN CARRIERS INC","CORPORATION","WESTERN CARRIERS INC","WESTERN CARRIERS INC","LTR.0000200","LTR","200",,"TRANSPORTER LIQUOR","ACTIVE","CURRENT","1","2013-05-07T00:00:00.000","2022-05-07T00:00:00.000","2023-05-06T00:00:00.000","2220 91ST ST","NORTH BERGEN","NJ","070474713","2022-03-14T00:00:00.000"
"1170187","WINSTON BROTHERS INC","CORPORATION","WINSTON BROTHERS INC","WINSTON BROTHERS INC","LTR.0000201","LTR","201",,"TRANSPORTER LIQUOR","ACTIVE","CURRENT","1","2013-06-26T00:00:00.000","2022-07-06T00:00:00.000","2023-06-25T00:00:00.000","160 SOUTHAMPTON ST","BOSTON","MA","021182714","2022-07-08T00:00:00.000"
"1191261","SWIFT TRANSPORTATION CO OF ARIZONA LLC","LIMITED LIABILITY COMPANY","SWIFT TRANSPORTATION CO OF ARIZONA LLC","SWIFT TRANSPORTATION CO OF ARIZONA LLC","LTR.0000202","LTR","202",,"TRANSPORTER LIQUOR","ACTIVE","CURRENT","1","2013-11-01T00:00:00.000","2022-11-01T00:00:00.000","2023-10-31T00:00:00.000","2200 S 75TH AVE","PHOENIX","AZ","850437410","2022-08-29T00:00:00.000"
"1209739","E-TRANSPORT GROUP INC","CORPORATION","E-TRANSPORT GROUP INC",,"LTR.0000203","LTR","203",,"TRANSPORTER LIQUOR","INACTIVE",,"0","2014-03-21T00:00:00.000","2015-03-21T00:00:00.000","2016-03-20T00:00:00.000","8720 SOMERS RD S","JACKSONVILLE","FL","322262638","2017-05-02T00:00:00.000"
"1212346","MISTER P EXPRESS INC","CORPORATION","MISTER P EXPRESS INC","MISTER P EXPRESS INC","LTR.0000205","LTR","205",,"TRANSPORTER LIQUOR","ACTIVE","CURRENT","1","2014-03-21T00:00:00.000","2022-03-21T00:00:00.000","2023-03-20T00:00:00.000","801 TREY ST","JEFFERSONVILLE","IN","471307751","2022-01-25T00:00:00.000"
"1216890","VM TRUCKING LLC","LIMITED LIABILITY COMPANY","VM TRUCKING LLC",,"LTR.0000206","LTR","206",,"TRANSPORTER LIQUOR","INACTIVE",,"0","2014-10-31T00:00:00.000","2018-10-31T00:00:00.000","2019-10-30T00:00:00.000","187-189 FOUNDRY ST","NEWARK","NJ","071054217","2020-08-25T00:00:00.000"
"1226144","ABF FREIGHT SYSTEM INC","CORPORATION","ABF FREIGHT SYSTEM INC","ABF FREIGHT SYSTEM INC","LTR.0000207","LTR","207",,"TRANSPORTER LIQUOR","ACTIVE","CURRENT","1","2014-06-06T00:00:00.000","2022-06-06T00:00:00.000","2023-06-05T00:00:00.000","3801 OLD GREENWOOD RD","FORT SMITH","AR","729035937","2022-05-13T00:00:00.000"
"1230500","RADFORD TRANS INC","CORPORATION","RADFORD TRANS INC","RADFORD TRANS INC","LTR.0000208","LTR","208",,"TRANSPORTER LIQUOR","ACTIVE","CURRENT","1","2014-07-01T00:00:00.000","2022-07-01T00:00:00.000","2023-06-30T00:00:00.000","31 PLYMOUTH ST","MANSFIELD","MA","020482034","2022-04-28T00:00:00.000"
"1243430","CORNUCOPIA LOGISTICS LLC","LIMITED LIABILITY COMPANY","CORNUCOPIA LOGISTICS LLC",,"LTR.0000209","LTR","209",,"TRANSPORTER LIQUOR","INACTIVE",,"0","2014-10-15T00:00:00.000","2014-10-15T00:00:00.000","2015-10-14T00:00:00.000","60 E 42ND ST","NEW YORK","NY","101650006","2017-05-02T00:00:00.000"
"1254781","LANCER TRANSPORTATION & LOGISTICS INC","CORPORATION","LANCER TRANSPORTATION & LOGISTICS INC","LANCER TRANSPORTATION & LOGISTICS INC","LTR.0000210","LTR","210",,"TRANSPORTER LIQUOR","ACTIVE","CURRENT","1","2014-11-19T00:00:00.000","2021-11-19T00:00:00.000","2022-11-18T00:00:00.000","311 INDUSTRY AVE","SPRINGFIELD","MA","011043246","2021-10-07T00:00:00.000"
"1254993","VOLPE EXPRESS INC","CORPORATION","VOLPE EXPRESS INC","VOLPE EXPRESS","LTR.0000212","LTR","212",,"TRANSPORTER LIQUOR","INACTIVE",,"0","2014-11-19T00:00:00.000","2016-11-19T00:00:00.000","2017-11-18T00:00:00.000","565 HOLLOW RD","PHOENIXVILLE","PA","194601136","2018-09-14T00:00:00.000"
"1255562","TRIUNFO FOODS IMPORT & EXPORT CORP","CORPORATION","TRIUNFO FOODS IMPORT & EXPORT CORP","TRIUNFO FOODS IMPORT & EXPORT CORP","LTR.0000213","LTR","213",,"TRANSPORTER LIQUOR","ACTIVE","CURRENT","1","2014-12-03T00:00:00.000","2021-12-03T00:00:00.000","2022-12-02T00:00:00.000","574 FERRY ST","NEWARK","NJ","071054402","2021-10-25T00:00:00.000"
"1256306","DOORSTEPCT","LIMITED LIABILITY COMPANY","DOORSTEPCT","VIMANIKA LLC","LTR.0000214","LTR","214",,"TRANSPORTER LIQUOR","INACTIVE",,"0","2015-05-14T00:00:00.000","2015-05-14T00:00:00.000","2016-05-13T00:00:00.000","3 ELMORE WAY","SOUTH WINDSOR","CT","060743756","2017-05-02T00:00:00.000"
"1263804","EXEL INC","CORPORATION","EXEL INC",,"LTR.0000215","LTR","215",,"TRANSPORTER LIQUOR","INACTIVE","DOES NOT WISH TO RENEW","0","2015-01-30T00:00:00.000","2017-01-30T00:00:00.000","2018-01-29T00:00:00.000","570 POLARIS PKWY","WESTERVILLE","OH","430827900","2018-01-17T00:00:00.000"
"1266495","LIQUID CARGO INC","CORPORATION","LIQUID CARGO INC","LIQUID CARGO","LTR.0000216","LTR","216",,"TRANSPORTER LIQUOR","INACTIVE",,"0","2015-02-18T00:00:00.000","2015-02-18T00:00:00.000","2016-02-17T00:00:00.000","7751 N MILITARY TRL STE 1","WEST PALM BEACH","FL","334107432","2017-05-02T00:00:00.000"
"1297562","EAGLE LOGISTICS COMPANY","CORPORATION","EAGLE LOGISTICS COMPANY","EAGLE LOGISTICS CO","LTR.0000217","LTR","217",,"TRANSPORTER LIQUOR","INACTIVE",,"0","2015-07-31T00:00:00.000","2015-07-31T00:00:00.000","2016-07-30T00:00:00.000","2335 W RAYMOND ST","INDIANAPOLIS","IN","462414830","2017-05-26T00:00:00.000"
"1315966","PHILIP A MCENTEE","SOLE PROPRIETOR",,"COMMERCIAL TRANSPORTION","LTR.0000218","LTR","218",,"TRANSPORTER LIQUOR","INACTIVE",,"0","2015-10-14T00:00:00.000","2016-10-14T00:00:00.000","2017-10-13T00:00:00.000","400 DELANCEY ST","NEWARK","NJ","071053846","2018-08-09T00:00:00.000"
"1325512","GORDON LOGISTICS LLC","LIMITED LIABILITY COMPANY","GORDON LOGISTICS LLC","GORDON LOGISTICS LLC","LTR.0000219","LTR","219",,"TRANSPORTER LIQUOR","INACTIVE",,"0","2015-12-23T00:00:00.000","2019-12-23T00:00:00.000","2020-12-22T00:00:00.000","305 FORBES BLVD","MANSFIELD","MA","020481805","2021-10-18T00:00:00.000"
"1328527","C3 TRANSPORTATION SERVICES LLC","LIMITED LIABILITY COMPANY","C3 TRANSPORTATION SERVICES LLC","C3 TRANSPORTATION SERVICES","LTR.0000220","LTR","220",,"TRANSPORTER LIQUOR","INACTIVE",,"0","2016-01-20T00:00:00.000","2016-01-20T00:00:00.000","2017-01-19T00:00:00.000","20 CYPRESS ST","NEW CITY","NY","109566444","2017-11-15T00:00:00.000"
"1331115","TRIUNFO SPECIALTY FOODS CORP","CORPORATION","TRIUNFO SPECIALTY FOODS CORP","TRIUNFO SPECIALTY FOODS CORP","LTR.0000221","LTR","221",,"TRANSPORTER LIQUOR","INACTIVE",,"0","2016-02-19T00:00:00.000","2017-03-28T00:00:00.000","2018-02-18T00:00:00.000","1600 S POWERLINE RD","DEERFIELD BEACH","FL","334428160","2018-12-15T00:00:00.000"
"1340098","CP TRUCKING LLC","LIMITED LIABILITY COMPANY","CP TRUCKING LLC",,"LTR.0000222","LTR","222",,"TRANSPORTER LIQUOR","INACTIVE","INCOMPLETE APPLICATION","0",,,,"102 FAIRVIEW PK DR","ELMSFORD","NY","105231560","2017-09-26T00:00:00.000"
"1341008","L I C TRUCKING CORP","CORPORATION","L I C TRUCKING CORP",,"LTR.0000223","LTR","223",,"TRANSPORTER LIQUOR","INACTIVE",,"0","2016-03-30T00:00:00.000","2019-03-30T00:00:00.000","2020-03-29T00:00:00.000","14 MITCHELL PL","NEWARK","NJ","071141113","2021-01-23T00:00:00.000"
"1355897","STEPHEN A MOROCCO","BUSINESS","STEPHEN A MOROCCO",,"LTR.0000224","LTR","224",,"TRANSPORTER LIQUOR","EXPIRED APPLICATION","ONE YEAR POLICY","0",,,,"1 TRAP FALLS ROAD  SUITE 601","SHELTON","CT","06484","2018-05-06T00:00:00.000"
"1357280","CONRI SERVICES INC","CORPORATION","CONRI SERVICES INC",,"LTR.0000225","LTR","225",,"TRANSPORTER LIQUOR","INACTIVE",,"0","2016-06-03T00:00:00.000","2019-06-03T00:00:00.000","2020-06-02T00:00:00.000","5 SKYLINE DRIVE","HAWTHORNE","NY","10532","2021-03-29T00:00:00.000"
"1367443","PEAPOD","LIMITED LIABILITY COMPANY","PEAPOD","PEAPOD","LTR.0000226","LTR","226",,"TRANSPORTER LIQUOR","INACTIVE","DOES NOT WISH TO RENEW","0","2016-07-27T00:00:00.000","2017-07-28T00:00:00.000","2018-07-27T00:00:00.000","9933 WOODS DRIVE","SKOKIE","IL","60077","2018-06-07T00:00:00.000"
"1378023","EVERLAST TRANSPORT INC","CORPORATION","EVERLAST TRANSPORT INC","EVERLAST LOGISTICS","LTR.0000227","LTR","227",,"TRANSPORTER LIQUOR","ACTIVE IN RENEWAL","CURRENT","1","2016-09-30T00:00:00.000","2021-10-01T00:00:00.000","2022-09-30T00:00:00.000","380 DEANS RHODE HALL ROAD","MONROE TOWNSHIP","NJ","08831","2021-09-23T00:00:00.000"
"1380700","ABEX TRANSPORTATION  LLC","LIMITED LIABILITY COMPANY","ABEX TRANSPORTATION  LLC","ABEX TRANSPORTATION  LLC","LTR.0000228","LTR","228",,"TRANSPORTER LIQUOR","ACTIVE","CURRENT","1","2016-09-30T00:00:00.000","2022-09-30T00:00:00.000","2023-09-29T00:00:00.000","400 FRANKLIN ST STE 302","BRAINTREE","MA","021845530","2022-09-06T00:00:00.000"
"1383551","SEAFRIGO TRANSPORT USA INC","CORPORATION","SEAFRIGO TRANSPORT USA INC","SEAFRIGO TRANSPORT USA","LTR.0000229","LTR","229",,"TRANSPORTER LIQUOR","INACTIVE",,"0","2016-10-14T00:00:00.000","2016-10-14T00:00:00.000","2017-10-13T00:00:00.000","735 DOWD AVE","ELIZABETH","NJ","072012118","2018-08-09T00:00:00.000"
"1386712","LINDEN BULK TRANSPORTATION LLC","LIMITED LIABILITY COMPANY","LINDEN BULK TRANSPORTATION LLC","LINDEN BULK TRANSPORTATION LLC","LTR.0000230","LTR","230",,"TRANSPORTER LIQUOR","ACTIVE","CURRENT","1","2017-01-05T00:00:00.000","2022-01-05T00:00:00.000","2023-01-04T00:00:00.000","39 OLD RIDGEBURY RD","DANBURY","CT","068105103","2021-12-08T00:00:00.000"
"1387080","MARKET TRANSPORT LTD","CORPORATION","MARKET TRANSPORT LTD","DSV ROAD TRANSPORT","LTR.0000231","LTR","231",,"TRANSPORTER LIQUOR","INACTIVE",,"0","2016-11-02T00:00:00.000","2016-11-02T00:00:00.000","2017-11-01T00:00:00.000","110 N MARINE DR","PORTLAND","OR","97217","2018-08-28T00:00:00.000"
"1388000","COIMBRA IMPORTS & EXPORTS INC","CORPORATION","COIMBRA IMPORTS & EXPORTS INC",,"LTR.0000232","LTR","232",,"TRANSPORTER LIQUOR","INACTIVE",,"0","2016-11-23T00:00:00.000","2017-12-26T00:00:00.000","2018-11-23T00:00:00.000","39 BROOK ST","NEW BEDFORD","MA","027461742","2019-09-19T00:00:00.000"
"1391369","VINEYARD BRANDS LLC","BUSINESS","VINEYARD BRANDS LLC",,"LTR.0000233","LTR","233",,"TRANSPORTER LIQUOR","INACTIVE","INCOMPLETE APPLICATION","0",,,,"2000 RESOURCE DR","BIRMINGHAM","AL","352422995","2017-09-26T00:00:00.000"
"1399248","FALCON TRANSPORTATION LLC","LIMITED LIABILITY COMPANY","FALCON TRANSPORTATION LLC","FALCON TRANSPORTATION","LTR.0000234","LTR","234",,"TRANSPORTER LIQUOR","ACTIVE","CURRENT","1","2017-02-01T00:00:00.000","2022-02-01T00:00:00.000","2023-01-31T00:00:00.000","56 PARSONS ST","PRESQUE ISLE","ME","047692157","2021-12-13T00:00:00.000"
"1399249","BLUE DIAMOND TRANSPORTATION LLC","LIMITED LIABILITY COMPANY","BLUE DIAMOND TRANSPORTATION LLC","BLUE DIAMOND TRANSPORTATION","LTR.0000235","LTR","235",,"TRANSPORTER LIQUOR","ACTIVE","CURRENT","1","2017-02-01T00:00:00.000","2022-02-01T00:00:00.000","2023-01-31T00:00:00.000","56 PARSONS ST","PRESQUE ISLE","ME","047692157","2021-12-13T00:00:00.000"
"1401050","BROOK LEDGE INC","CORPORATION","BROOK LEDGE INC","BROOK LEDGE","LTR.0000236","LTR","236",,"TRANSPORTER LIQUOR","INACTIVE",,"0","2017-02-03T00:00:00.000","2018-02-03T00:00:00.000","2019-02-02T00:00:00.000","12 GOTWALS LN","OLEY","PA","195479261","2019-11-29T00:00:00.000"
"1408796","JUSTUS TRUCK LINES INC","CORPORATION","JUSTUS TRUCK LINES INC","JUSTUS TRUCK LINES INC","LTR.0000237","LTR","237",,"TRANSPORTER LIQUOR","ACTIVE","CURRENT","1","2017-03-01T00:00:00.000","2022-03-01T00:00:00.000","2023-02-28T00:00:00.000","2507 SUGARLOAF RD","HENDERSONVILLE","NC","287928851","2021-12-30T00:00:00.000"
"1409014","DOMAINE NEW YORK LLC","LIMITED LIABILITY COMPANY","DOMAINE NEW YORK LLC","DOMAINE NEW YORK","LTR.0000238","LTR","238",,"TRANSPORTER LIQUOR","ACTIVE","CURRENT","1","2017-03-01T00:00:00.000","2022-03-01T00:00:00.000","2023-02-28T00:00:00.000","3300 SAMUEL SHEPARD DR","SAINT LOUIS","MO","631031123","2022-02-22T00:00:00.000"
"1413630","DHL EXPRESS (USA) INC","CORPORATION","DHL EXPRESS (USA) INC","DHL EXPRESS (USA) INC","LTR.0000239","LTR","239",,"TRANSPORTER LIQUOR","ACTIVE","CURRENT","1","2017-03-29T00:00:00.000","2022-05-17T00:00:00.000","2023-03-28T00:00:00.000","1210 S PINE ISLAND RD STE 100","PLANTATION","FL","333244402","2022-05-18T00:00:00.000"
"1416406","NORTH EAST FREIGHTWAYS INC","CORPORATION","NORTH EAST FREIGHTWAYS INC","NORTH EAST FREIGHTWAYS","LTR.0000240","LTR","240",,"TRANSPORTER LIQUOR","INACTIVE",,"0","2017-04-12T00:00:00.000","2019-04-12T00:00:00.000","2020-04-11T00:00:00.000","15 CROSS RD","HOOKSETT","NH","031062502","2021-02-05T00:00:00.000"
"1439350","US 1 INTERMODAL LLC","LIMITED LIABILITY COMPANY","US 1 INTERMODAL LLC",,"LTR.0000241","LTR","241",,"TRANSPORTER LIQUOR","INACTIVE",,"0","2017-08-02T00:00:00.000","2017-08-02T00:00:00.000","2018-08-01T00:00:00.000","601 E LINDEN AVE","LINDEN","NJ","070362413","2019-05-28T00:00:00.000"
"1440708","CR ENGLAND INC","CORPORATION","CR ENGLAND INC","CR ENGLAND INC","LTR.0000242","LTR","242",,"TRANSPORTER LIQUOR","ACTIVE","CURRENT","1","2017-08-09T00:00:00.000","2022-08-09T00:00:00.000","2023-08-08T00:00:00.000","4701 W 2100 S","SALT LAKE CITY","UT","841201223","2022-06-23T00:00:00.000"
"1441708","EXPRESS TRUCKING & COURIER INC","CORPORATION","EXPRESS TRUCKING & COURIER INC",,"LTR.0000243","LTR","243",,"TRANSPORTER LIQUOR","INACTIVE",,"0","2017-08-16T00:00:00.000","2018-08-16T00:00:00.000","2019-08-15T00:00:00.000","7940 GRAYSON RD","HARRISBURG","PA","171115418","2020-06-10T00:00:00.000"
"1453082","MAPLEBEAR DELIVERY LLC","LIMITED LIABILITY COMPANY","MAPLEBEAR DELIVERY LLC","INSTACART","LTR.0000244","LTR","244",,"TRANSPORTER LIQUOR","ACTIVE","CURRENT","1","2017-09-29T00:00:00.000","2022-09-29T00:00:00.000","2023-09-28T00:00:00.000","50 BEALE ST FL 6","SAN FRANCISCO","CA","941051813","2022-09-06T00:00:00.000"
"1453990","MASTER BRANDS DISTRIBUTORS LLC","LIMITED LIABILITY COMPANY","MASTER BRANDS DISTRIBUTORS LLC","MASTER BRANDS DISTRIBUTORS LLC","LTR.0000245","LTR","245",,"TRANSPORTER LIQUOR","ACTIVE IN RENEWAL","CURRENT","1","2017-10-06T00:00:00.000","2021-10-06T00:00:00.000","2022-10-05T00:00:00.000","325 RIGGS ST","OXFORD","CT","06478","2021-09-23T00:00:00.000"
"1455160","COMMERCIAL TRANSPORTATION LLC","LIMITED LIABILITY COMPANY","COMMERCIAL TRANSPORTATION LLC","COMMERCIAL TRANSPORTATION LLC","LTR.0000246","LTR","246",,"TRANSPORTER LIQUOR","ACTIVE","CURRENT","1","2017-10-13T00:00:00.000","2022-10-13T00:00:00.000","2023-10-12T00:00:00.000","100 W COLUMBIA ST # 110","SCHUYLKILL HAVEN","PA","179721934","2022-08-24T00:00:00.000"
"1455792","WORLDWIDE CARGO SERVICES INC","CORPORATION","WORLDWIDE CARGO SERVICES INC","WORLDWIDE CARGO SERVICES INC","LTR.0000247","LTR","247",,"TRANSPORTER LIQUOR","ACTIVE","CURRENT","1","2017-10-18T00:00:00.000","2022-10-18T00:00:00.000","2023-10-17T00:00:00.000","181 E JAMAICA AVE","VALLEY STREAM","NY","115806055","2022-08-29T00:00:00.000"
"1462065","KEYSTONE LINES","CORPORATION","KEYSTONE LINES","KEYSTONE LINES","LTR.0000248","LTR","248",,"TRANSPORTER LIQUOR","ACTIVE","CURRENT","1","2017-11-22T00:00:00.000","2021-11-22T00:00:00.000","2022-11-21T00:00:00.000","336 WEST US HWY 30 SUITE 201","VALPARAISO","IN","46385","2021-10-27T00:00:00.000"
"146284","AL J HORTON","INDIVIDUAL",,"SHILOH COMPANY (THE)","LTR.0000031","LTR","31",,"TRANSPORTER LIQUOR","INACTIVE",,"0",,"2001-12-03T00:00:00.000","2002-12-02T00:00:00.000","300 N JUPITER DR","HARTSHORNE","OK","74547","2022-03-28T00:00:00.000"
"1471624","EASTERN CONNECTION OPERATING INC","CORPORATION","EASTERN CONNECTION OPERATING INC","DICOM TRANSPORTATION GROUP","LTR.0000249","LTR","249",,"TRANSPORTER LIQUOR","INACTIVE",,"0","2018-01-24T00:00:00.000","2019-01-24T00:00:00.000","2020-01-23T00:00:00.000","265 PRESTIGE PARK RD","EAST HARTFORD","CT","061081939","2020-11-18T00:00:00.000"
"1487109","LONGBOW DISTRIBUTION LLC","LIMITED LIABILITY COMPANY","LONGBOW DISTRIBUTION LLC",,"LTR.0000250","LTR","250",,"TRANSPORTER LIQUOR","INACTIVE",,"0","2018-02-23T00:00:00.000","2018-02-23T00:00:00.000","2019-02-22T00:00:00.000","65D ELM ST REAR BLDG","HATFIELD","MA","010387915","2019-12-19T00:00:00.000"
"1497847","NEW PENN MOTOR EXPRESS LLC","LIMITED LIABILITY COMPANY","NEW PENN MOTOR EXPRESS LLC","NEW PENN MOTOR EXPRESS LLC","LTR.0000251","LTR","251",,"TRANSPORTER LIQUOR","ACTIVE","CURRENT","1","2018-03-16T00:00:00.000","2022-03-16T00:00:00.000","2023-03-15T00:00:00.000","625 S 5TH AVE","LEBANON","PA","170427728","2022-01-19T00:00:00.000"
"1499213","BOOM TRANSPORT INC","CORPORATION","BOOM TRANSPORT INC",,"LTR.0000252","LTR","252",,"TRANSPORTER LIQUOR","INACTIVE",,"0","2018-04-06T00:00:00.000","2018-04-06T00:00:00.000","2019-04-06T00:00:00.000","2 BLAZING STAR DRIVE","BRAMPTON","ON","L6R3E5","2020-01-31T00:00:00.000"
"1504144","KL BREEDEN & SONS LLC","LIMITED LIABILITY COMPANY","KL BREEDEN & SONS LLC","KL BREEDEN & SONS LLC","LTR.0000253","LTR","253",,"TRANSPORTER LIQUOR","ACTIVE","CURRENT","1","2018-04-12T00:00:00.000","2022-04-12T00:00:00.000","2023-04-11T00:00:00.000","104 WEST HIGH STREET","TERRELL","TX","75160","2022-03-16T00:00:00.000"
"1505487","RYDER SYSTEM INC","CORPORATION","RYDER SYSTEM INC","RYDER SYSTEM INC","LTR.0000254","LTR","254",,"TRANSPORTER LIQUOR","ACTIVE","CURRENT","1","2018-04-25T00:00:00.000","2022-04-25T00:00:00.000","2023-04-24T00:00:00.000","200 PHOENIX XING","BLOOMFIELD","CT","060021998","2022-04-05T00:00:00.000"
"1516326","SAFEWAY TRUCKING CORPORATION","BUSINESS","SAFEWAY TRUCKING CORPORATION","SAFEWAY TRUCKING CORPORATION","LTR.0000256","LTR","256",,"TRANSPORTER LIQUOR","ACTIVE","CURRENT","1","2018-05-23T00:00:00.000","2022-05-23T00:00:00.000","2023-05-22T00:00:00.000","1140 POLARIS ST","ELIZABETH","NJ","072012905","2022-03-28T00:00:00.000"
"1518267","P E P LOGISTICS CORP","CORPORATION","P E P LOGISTICS CORP","P E P LOGISTICS CORP","LTR.0000257","LTR","257",,"TRANSPORTER LIQUOR","ACTIVE","CURRENT","1","2018-08-29T00:00:00.000","2022-08-29T00:00:00.000","2023-08-28T00:00:00.000","11306 157TH ST","JAMAICA","NY","114333727","2022-07-20T00:00:00.000"
"1594488","OAK LODGE HOLDINGS","BUSINESS","OAK LODGE HOLDINGS","OAK LODGE HOLDINGS","LTR.0000258","LTR","258",,"TRANSPORTER LIQUOR","ACTIVE","CURRENT","1","2018-08-24T00:00:00.000","2022-08-24T00:00:00.000","2023-08-23T00:00:00.000","1540 MCDANIEL DR","WEST CHESTER","PA","193807035","2022-07-20T00:00:00.000"
"1607278","ROAD SCHOLAR TRANSPORT INC","BUSINESS","ROAD SCHOLAR TRANSPORT INC","ROAD SCHOLAR TRANSPORT INC","LTR.0000260","LTR","260",,"TRANSPORTER LIQUOR","ACTIVE IN RENEWAL","CURRENT","1","2018-10-17T00:00:00.000","2021-10-17T00:00:00.000","2022-10-16T00:00:00.000","130 MONAHAN AVE","DUNMORE","PA","185121702","2021-10-18T00:00:00.000"
"1630575","DEMAND TRANSPORT LLC","LIMITED LIABILITY COMPANY","DEMAND TRANSPORT LLC","DEMAND TRANSPORT LLC","LTR.0000261","LTR","261",,"TRANSPORTER LIQUOR","ACTIVE","CURRENT","1","2019-02-08T00:00:00.000","2022-02-08T00:00:00.000","2023-02-07T00:00:00.000","29 ARMORY ROAD","MILFORD","NH","03055","2022-01-12T00:00:00.000"
"1654733","AVANT BUSINESS SERVICES CORP","BUSINESS","AVANT BUSINESS SERVICES CORP",,"LTR.0000262","LTR","262",,"TRANSPORTER LIQUOR","INACTIVE",,"0","2019-05-10T00:00:00.000","2019-05-10T00:00:00.000","2020-05-09T00:00:00.000","110 MURPHY RD","HARTFORD","CT","061142116","2021-03-05T00:00:00.000"
"1655126","ALTERNATIVE MARINE TECHNOLOGIES LLC","LIMITED LIABILITY COMPANY","ALTERNATIVE MARINE TECHNOLOGIES LLC","ALTERNATIVE MARINE TECHNOLOGIES LLC","LTR.0000264","LTR","264",,"TRANSPORTER LIQUOR","ACTIVE","CURRENT","1","2019-08-30T00:00:00.000","2022-08-30T00:00:00.000","2023-08-29T00:00:00.000","132 WATER ST STE 4","NORWALK","CT","068543139","2022-07-29T00:00:00.000"
"1663049","AQUA GULF XPRESS","BUSINESS","AQUA GULF XPRESS","AQUA GULF XPRESS","LTR.0000263","LTR","263",,"TRANSPORTER LIQUOR","ACTIVE","CURRENT","1","2019-06-05T00:00:00.000","2022-06-05T00:00:00.000","2023-06-04T00:00:00.000","1301 W NEWPORT CENTER DR","DEERFIELD BEACH","FL","334427734","2022-04-13T00:00:00.000"
"1667569","ACCURATE TRANSPORTATION INC","BUSINESS","ACCURATE TRANSPORTATION INC",,"LTR.0000265","LTR","265",,"TRANSPORTER LIQUOR","INACTIVE","DOES NOT WISH TO RENEW","0","2019-06-12T00:00:00.000","2019-06-12T00:00:00.000","2020-06-11T00:00:00.000","1655 EASTGATE PKWY","GAHANNA","OH","432308601","2020-03-17T00:00:00.000"
"1684911","DOORDASH INC","CORPORATION","DOORDASH INC","DOORDASH INC","LTR.0000266","LTR","266",,"TRANSPORTER LIQUOR","ACTIVE IN RENEWAL","CURRENT","1","2019-10-16T00:00:00.000","2021-10-16T00:00:00.000","2022-10-15T00:00:00.000","901 MARKET ST","SAN FRANCISCO","CA","941031729","2021-10-13T00:00:00.000"
"1789812","VOLPE DEDICATED INC","BUSINESS","VOLPE DEDICATED INC","VOLPE DEDICATED INC","LTR.0000267","LTR","267",,"TRANSPORTER LIQUOR","INACTIVE",,"0","2019-10-04T00:00:00.000","2019-10-04T00:00:00.000","2020-10-03T00:00:00.000","565 HOLLOW RD","PHOENIXVILLE","PA","194601136","2021-07-30T00:00:00.000"
"1990068","ASCENT GLOBAL LOGISTICS","BUSINESS","ASCENT GLOBAL LOGISTICS","ASCENT GLOBAL LOGISTICS","LTR.0000269","LTR","269",,"TRANSPORTER LIQUOR","LAPSED",,"1","2019-12-11T00:00:00.000","2020-12-11T00:00:00.000","2021-12-10T00:00:00.000","4900 S PENNSYLVANIA AVE","CUDAHY","WI","531101347","2021-12-15T00:00:00.000"
"199143","JACK M HOROVITZ","INDIVIDUAL","CDS LINES INC","CDS LINES INC","LTR.0000032","LTR","32",,"TRANSPORTER LIQUOR","INACTIVE",,"0",,"1999-02-18T00:00:00.000","2000-02-17T00:00:00.000","2170 WASHINGTON RD","CANONSBURG","PA","15317","2008-08-20T00:00:00.000"
"199152","RONALD J GAUDET","INDIVIDUAL","TRANSPORT LOGISTICS CORP","TRANSPORT LOGISTICS CORP","LTR.0000033","LTR","33",,"TRANSPORTER LIQUOR","INACTIVE",,"0",,"2002-02-19T00:00:00.000","2003-02-18T00:00:00.000","776 N MAIN ST","MANCHESTER","CT","060401989","2008-08-20T00:00:00.000"
"1998253","INTERGLOBO LOGISTICS LLC","LIMITED LIABILITY COMPANY","INTERGLOBO LOGISTICS LLC","INTERGLOBO LOGISTICS LLC","LTR.0000271","LTR","271",,"TRANSPORTER LIQUOR","LAPSED",,"1","2020-01-22T00:00:00.000","2021-01-22T00:00:00.000","2022-01-21T00:00:00.000","2 COLONY RD","JERSEY CITY","NJ","073054502","2022-01-26T00:00:00.000"
"2004881","RSD TRANSPORTATION","CORPORATION","RSD TRANSPORTATION","RSD TRANSPORTATION","LTR.0000272","LTR","272",,"TRANSPORTER LIQUOR","ACTIVE","CURRENT","1","2020-02-05T00:00:00.000","2022-02-05T00:00:00.000","2023-02-04T00:00:00.000","601 OLD RIVER RD","WHITE RIVER JUNCTION","VT","050019058","2022-01-25T00:00:00.000"
"2006087","WORLDWIDE LOGISTICS OF NJ LLC","LIMITED LIABILITY COMPANY","WORLDWIDE LOGISTICS OF NJ LLC","WORLDWIDE LOGISTICS OF NJ LLC","LTR.0000273","LTR","273",,"TRANSPORTER LIQUOR","INACTIVE",,"0","2020-02-13T00:00:00.000","2020-02-13T00:00:00.000","2021-02-12T00:00:00.000","130 MOONACHIE AVE","CARLSTADT","NJ","070722500","2021-12-09T00:00:00.000"
"2010932","KEL & JON TRUCKING LLC","LIMITED LIABILITY COMPANY","KEL & JON TRUCKING LLC",,"LTR.0000274","LTR","274",,"TRANSPORTER LIQUOR","INACTIVE","DOES NOT WISH TO RENEW","0","2020-03-13T00:00:00.000","2020-03-13T00:00:00.000","2021-03-12T00:00:00.000","770 RIVER RD UNIT 46","EDGEWATER","NJ","070206602","2021-01-08T00:00:00.000"
"2037005","CEVA FREIGHT LLC","BUSINESS","CEVA FREIGHT LLC","CEVA FREIGHT LLC","LTR.0000275","LTR","275",,"TRANSPORTER LIQUOR","ACTIVE","CURRENT","1","2020-04-29T00:00:00.000","2022-04-29T00:00:00.000","2023-04-28T00:00:00.000","15350 VICKERY DR","HOUSTON","TX","770322530","2022-03-09T00:00:00.000"
"2041125","DDI TRANSPORTATION INC","CORPORATION","DDI TRANSPORTATION INC","DDI TRANSPORTATION","LTR.0000276","LTR","276",,"TRANSPORTER LIQUOR","INACTIVE",,"0","2020-05-08T00:00:00.000","2020-05-08T00:00:00.000","2021-05-07T00:00:00.000","10235 TIMBER RIDGE DR","ASHLAND","VA","230058135","2022-03-03T00:00:00.000"
"2058142","GIO EXPRESS INC","CORPORATION","GIO EXPRESS INC","GIO EXPRESS INC","LTR.0000277","LTR","277",,"TRANSPORTER LIQUOR","ACTIVE","CURRENT","1","2020-06-24T00:00:00.000","2022-06-24T00:00:00.000","2023-06-23T00:00:00.000","2180 5TH AVE STE 1B","RONKONKOMA","NY","117796938","2022-06-06T00:00:00.000"
"2060488","SEI ACQUISITION LLC","LIMITED LIABILITY COMPANY","SEI ACQUISITION LLC","SEI ACQUISITION LLC","LTR.0000278","LTR","278",,"TRANSPORTER LIQUOR","INACTIVE",,"0","2020-07-01T00:00:00.000","2020-07-01T00:00:00.000","2021-06-30T00:00:00.000","6205 W 101ST ST","CHICAGO RIDGE","IL","604151375","2022-04-26T00:00:00.000"
"207070","WESLEY ARMOUR","INDIVIDUAL","POLE STAR TRANSPORT INC","POLE STAR TRANSPORT INC","LTR.0000035","LTR","35",,"TRANSPORTER LIQUOR","INACTIVE",,"0","2005-03-01T00:00:00.000","2006-03-01T00:00:00.000","2007-02-28T00:00:00.000","689 EDINBURGH DRIVE","MONCTON NS CANADA",,"EIE2L4","2008-08-20T00:00:00.000"
"2096294","SMART CHOICE TRUCKING LLC","LIMITED LIABILITY COMPANY","SMART CHOICE TRUCKING LLC","SMART CHOICE TRUCKING","LTR.0000279","LTR","279",,"TRANSPORTER LIQUOR","INACTIVE",,"0","2020-10-30T00:00:00.000","2020-10-30T00:00:00.000","2021-10-29T00:00:00.000","56 STARWOOD TRL","COLCHESTER","CT","064151868","2022-08-25T00:00:00.000"
"2097754","PAEZ EXPRESS INC","CORPORATION","PAEZ EXPRESS INC","PAEZ EXPRESS INC","LTR.0000280","LTR","280",,"TRANSPORTER LIQUOR","INACTIVE",,"0","2020-11-04T00:00:00.000","2020-11-04T00:00:00.000","2021-11-03T00:00:00.000","103 HIGHLAND ST APT 2","PATERSON","NJ","075241963","2022-08-30T00:00:00.000"
"2104771","BUZZ DELIVERY LLC","LIMITED LIABILITY COMPANY","BUZZ DELIVERY LLC","BUZZ DELIVERY LLC","LTR.0000281","LTR","281",,"TRANSPORTER LIQUOR","ACTIVE","CURRENT","1","2020-12-29T00:00:00.000","2021-12-29T00:00:00.000","2022-12-28T00:00:00.000","12 GRAMA RD","EAST HADDAM","CT","064231144","2021-12-08T00:00:00.000"
"211023","MICHELLE LENSING","INDIVIDUAL","TRANS STATES LINES INC.","TRANS STATES LINES INC.","LTR.0000036","LTR","36",,"TRANSPORTER LIQUOR","INACTIVE",,"0",,,,"6815 JENNY LIND","FORT SMITH","AR","72908","2004-04-23T00:00:00.000"
"214824","ROBERT C HANSEN","INDIVIDUAL","ROBERT HANSEN TRUCKING CO","ROBERT HANSEN TRUCKING CO","LTR.0000037","LTR","37",,"TRANSPORTER LIQUOR","INACTIVE",,"0",,,"1999-10-20T00:00:00.000","PO BOX 911","DELAVAN","WI","53115","2008-08-20T00:00:00.000"
"2162202","RTS HOLDINGS LLC","LIMITED LIABILITY COMPANY","RTS HOLDINGS LLC","RTS HOLDINGS LLC","LTR.0000282","LTR","282",,"TRANSPORTER LIQUOR","ACTIVE","CURRENT","1","2021-02-03T00:00:00.000","2022-02-16T00:00:00.000","2023-02-02T00:00:00.000","1 KELLEWAY DR","RANDOLPH","MA","023685074","2022-02-22T00:00:00.000"
"217324","MARK R WARSOFSKY","INDIVIDUAL","M & M TRANSPORT SERVICES INC","M & M TRANSPORT SERVICES INC","LTR.0000039","LTR","39",,"TRANSPORTER LIQUOR","INACTIVE",,"0",,"1998-04-11T00:00:00.000","1999-04-10T00:00:00.000","212 BEACHAM ST","EVERETT","MA","02149","2008-08-20T00:00:00.000"
"217519","WILLIAM M SMARTT","INDIVIDUAL","DHL AIRWAYS INC.","DHL AIRWAYS INC.","LTR.0000038","LTR","38",,"TRANSPORTER LIQUOR","INACTIVE","DOES NOT WISH TO RENEW","0",,"2001-06-30T00:00:00.000","2002-06-29T00:00:00.000","333 TWIN DOLPHIN DR","REDWOOD CITY","CA","94065","2004-04-23T00:00:00.000"
"217985","JEFFREY J NELSON","INDIVIDUAL","D & N TRUCKING INC","D & N TRUCKING INC","LTR.0000041","LTR","41",,"TRANSPORTER LIQUOR","INACTIVE",,"0",,"2000-11-21T00:00:00.000","2001-11-20T00:00:00.000","1502 S 12TH ST","PRINCETON","MN","55371","2008-08-20T00:00:00.000"
"217991","DAVID H ROUSH","INDIVIDUAL","ROCOR INTERNATIONAL","ROCOR INTERNATIONAL","LTR.0000042","LTR","42",,"TRANSPORTER LIQUOR","INACTIVE",,"0",,"2001-07-31T00:00:00.000","2002-07-30T00:00:00.000","4350 WILL ROGERS PKWY","OKLAHOMA CITY","OK","73108","2008-08-20T00:00:00.000"
"217999","MARTEN TRANSPORT LTD","BUSINESS","MARTEN TRANSPORT LTD","MARTEN TRANSPORT LTD","LTR.0000043","LTR","43",,"TRANSPORTER LIQUOR","ACTIVE","CURRENT","1","2005-03-22T00:00:00.000","2022-03-22T00:00:00.000","2023-03-21T00:00:00.000","129 MARTEN ST","MONDOVI","WI","547551733","2022-01-25T00:00:00.000"
"218002","RICHARD C MACKO","INDIVIDUAL","PROLINS SERVICES INC","PROLINKS SERVICES INC","LTR.0000044","LTR","44",,"TRANSPORTER LIQUOR","INACTIVE",,"0","2005-04-01T00:00:00.000","2006-04-01T00:00:00.000","2007-03-31T00:00:00.000","2738 WEST ENTRY RD","BALDWINSVILLE","NY","13027","2008-08-20T00:00:00.000"
"218082","ATF TRUCKING LLC","LIMITED LIABILITY COMPANY","ATF TRUCKING LLC","ATF TRUCKING LLC","LTR.0000047","LTR","47",,"TRANSPORTER LIQUOR","INACTIVE",,"0","2004-08-12T00:00:00.000","2007-08-12T00:00:00.000","2008-08-11T00:00:00.000","1801 S PENNSYLVANIA AVE","MORRISVILLE","PA","19067","2009-04-24T00:00:00.000"
"2187566","HORSE RIDGE CELLARS LLC","BUSINESS","HORSE RIDGE CELLARS LLC","HORSE RIDGE CELLARS LLC","LTR.0000283","LTR","283",,"TRANSPORTER LIQUOR","ACTIVE","CURRENT","1","2021-03-16T00:00:00.000","2022-03-16T00:00:00.000","2023-03-15T00:00:00.000","9 MOULTON HILL RD","STAFFORD SPRINGS","CT","060763312","2022-01-28T00:00:00.000"
"218949","THEODORE C MATUSZKO","INDIVIDUAL","MATUSZKO TRUCKING INC","MATUSZKO TRUCKING INC","LTR.0000048","LTR","48",,"TRANSPORTER LIQUOR","INACTIVE",,"0",,"2003-11-27T00:00:00.000","2004-11-26T00:00:00.000","22 AMHERST ROAD","SUNDERLAND","MA","01375","2008-08-20T00:00:00.000"
"219177","ROBERT A WIERZBICKI","INDIVIDUAL","SUZANNE TRANSPORT, INC.","SUZANNE TRANSPORT, INC.","LTR.0000049","LTR","49",,"TRANSPORTER LIQUOR","INACTIVE",,"0",,"2001-02-19T00:00:00.000","2002-02-18T00:00:00.000","P.O. BOX 668","FLORIDA","NY","10921","2008-08-20T00:00:00.000"
"219370","ROBERT W HAMPTON","INDIVIDUAL","MORGAN SOUTHERN INC","MORGAN SOUTHERN INC","LTR.0000045","LTR","45",,"TRANSPORTER LIQUOR","INACTIVE",,"0",,"1999-07-22T00:00:00.000","2000-07-21T00:00:00.000","1500 CEDAR GROVE ROAD","CONLEY","GA","30288","2008-08-20T00:00:00.000"
"219371","TOM M AHARTZ","INDIVIDUAL","TRANSPORT CORPORATION OF AMER INC","TRANSPORT CORPORATION OF AMER INC","LTR.0000046","LTR","46",,"TRANSPORTER LIQUOR","INACTIVE",,"0",,"2000-07-22T00:00:00.000","2001-07-21T00:00:00.000","1769 YANKEE DOODLE ROAD","EAGAN","MN","55121","2008-08-20T00:00:00.000"
"219821","JOHN PASSAN","INDIVIDUAL","CITY DELIVERY SERVICES, INC.","CITY DELIVERY SERVICES, INC.","LTR.0000050","LTR","50",,"TRANSPORTER LIQUOR","INACTIVE",,"0",,"1999-07-13T00:00:00.000","2000-07-12T00:00:00.000","1 PASSAN DRIVE","WILKES-BARRE","PA","18702","2008-08-20T00:00:00.000"
"2208454","R ROMAN TRUCK LEASING INC","BUSINESS","R ROMAN TRUCK LEASING INC","R ROMAN TRUCK LEASING INC","LTR.0000284","LTR","284",,"TRANSPORTER LIQUOR","ACTIVE","CURRENT","1","2021-05-07T00:00:00.000","2022-05-07T00:00:00.000","2023-05-06T00:00:00.000","435 DIVISION ST","ELIZABETH","NJ","072012059","2022-04-27T00:00:00.000"
"2218587","RCQ LOGISTICS LLC","LIMITED LIABILITY COMPANY","RCQ LOGISTICS LLC","RCQ LOGISTICS LLC","LTR.0000285","LTR","285",,"TRANSPORTER LIQUOR","LAPSED",,"1","2021-06-02T00:00:00.000","2021-06-02T00:00:00.000","2022-06-01T00:00:00.000","46 WEST ST","SIMSBURY","CT","060702444","2022-06-06T00:00:00.000"
"2221751","AMAZON LOGISTICS INC","CORPORATION","AMAZON LOGISTICS INC","AMAZON LOGISTICS INC","LTR.0000286","LTR","286",,"TRANSPORTER LIQUOR","ACTIVE","CURRENT","1","2021-06-15T00:00:00.000","2022-06-15T00:00:00.000","2023-06-14T00:00:00.000","410 TERRY AVE N","SEATTLE","WA","981095210","2022-04-27T00:00:00.000"
"2222015","LEGION TRANSIT LLC","LIMITED LIABILITY COMPANY","LEGION TRANSIT LLC","LEGION TRANSIT LLC","LTR.0000287","LTR","287",,"TRANSPORTER LIQUOR","LAPSED",,"1","2021-06-04T00:00:00.000","2021-06-04T00:00:00.000","2022-06-03T00:00:00.000","7010 WERTZVILLE RD","MECHANICSBURG","PA","170501542","2022-06-08T00:00:00.000"
"2231943","CORNERSTONE SYSTEMS INC","CORPORATION","CORNERSTONE SYSTEMS INC","CORNERSTONE SYSTEMS","LTR.0000288","LTR","288",,"TRANSPORTER LIQUOR","ACTIVE","CURRENT","1","2021-07-20T00:00:00.000","2022-07-20T00:00:00.000","2023-07-19T00:00:00.000","3250 PLAYERS CLUB PKWY","MEMPHIS","TN","381258844","2022-06-08T00:00:00.000"
"2232667","GAMBRINUS TRUCKING II LLC","LIMITED LIABILITY COMPANY","GAMBRINUS TRUCKING II LLC",,"LTR.0000289","LTR","289",,"TRANSPORTER LIQUOR","ACTIVE","CURRENT","1","2021-07-22T00:00:00.000","2022-07-22T00:00:00.000","2023-07-21T00:00:00.000","170 MARKET ST","EVERETT","MA","021495808","2022-06-16T00:00:00.000"
"2237066","CROSS SOUND DELI SERVICES, INC","BUSINESS","CROSS SOUND DELI SERVICES, INC",,"LTR.0000290","LTR","290",,"TRANSPORTER LIQUOR","ACTIVE","CURRENT","1","2021-07-01T00:00:00.000","2022-08-19T00:00:00.000","2023-08-18T00:00:00.000","2 FERRY ST","NEW LONDON","CT","063206418","2022-07-08T00:00:00.000"
"2238076","BAY & BAY TRANSPORTATION SERVICES INC","CORPORATION","BAY & BAY TRANSPORTATION SERVICES INC","BAY & BAY TRANSPORTATION SERVICES","LTR.0000291","LTR","291",,"TRANSPORTER LIQUOR","PENDING","NEW APPLICATION REVIEW REQUIRED","0",,,,"2905 W SERVICE RD STE 2000","SAINT PAUL","MN","551211215","2021-07-27T00:00:00.000"
"2242209","CAPTAIN JOHN'S SPORT FISHING CENTER INC","CORPORATION","CAPTAIN JOHN'S SPORT FISHING CENTER INC","SUNBEAM FLEET","LTR.0000292","LTR","292",,"TRANSPORTER LIQUOR","ACTIVE","CURRENT","1","2021-08-27T00:00:00.000","2022-08-27T00:00:00.000","2023-08-26T00:00:00.000","15 1ST ST","WATERFORD","CT","063853103","2022-07-08T00:00:00.000"
"2242453","A DUIE PYLE INC","CORPORATION","A DUIE PYLE INC",,"LTR.0000293","LTR","293",,"TRANSPORTER LIQUOR","ACTIVE","CURRENT","1","2021-08-24T00:00:00.000","2022-08-24T00:00:00.000","2023-08-23T00:00:00.000","650 WESTTOWN RD","WEST CHESTER","PA","193824900","2022-07-08T00:00:00.000"
"2245556","CLOUDTRUCKS LLC","LIMITED LIABILITY COMPANY","CLOUDTRUCKS LLC",,"LTR.0000294","LTR","294",,"TRANSPORTER LIQUOR","PENDING","NEW APPLICATION REVIEW REQUIRED","0",,,,"2919 COMMERCE ST","DALLAS","TX","752261610","2022-07-18T00:00:00.000"
"2258383","PORTIER LLC","LIMITED LIABILITY COMPANY","PORTIER LLC","UBER EATS","LTR.0000295","LTR","295",,"TRANSPORTER LIQUOR","ACTIVE","CURRENT","1","2022-06-13T00:00:00.000","2022-06-13T00:00:00.000","2023-06-12T00:00:00.000","1515 3RD ST","SAN FRANCISCO","CA","941582211","2022-06-13T00:00:00.000"
"2263631","DEBORAH L HADAWAY","INDIVIDUAL",,"TIKI BAR CRUISES","LTR.0000296","LTR","296",,"TRANSPORTER LIQUOR","ACTIVE","CURRENT","1","2021-07-01T00:00:00.000","2022-04-28T00:00:00.000","2023-06-30T00:00:00.000","145 PEARL ST","GROTON","CT","063405773","2022-05-13T00:00:00.000"
"226645","EUGENE CLARKE MERSHELL","CORPORATION",,"VELOCITY EXPRESS NEW ENGLAND INC","LTR.0000051","LTR","51",,"TRANSPORTER LIQUOR","INACTIVE",,"0",,"2002-04-30T00:00:00.000","2002-12-02T00:00:00.000","11 GREENWAY PLAZA  SUITE 250","HOUSTON","TX","70046","2008-08-20T00:00:00.000"
"226988","MARK B. TUCHMANN","BUSINESS",,"BEAVER EXPRESS","LTR.0000055","LTR","55",,"TRANSPORTER LIQUOR","INACTIVE",,"0",,"2000-02-08T00:00:00.000","2001-02-07T00:00:00.000","1 CORPORATE DRIVE","NORTH HAVEN","CT","06473","2008-08-20T00:00:00.000"
"2276353","CONNECTICUT RIVER EVENTS LLC","LIMITED LIABILITY COMPANY","CONNECTICUT RIVER EVENTS LLC","LADY KATHARINE CRUISES","LTR.0000297","LTR","297",,"TRANSPORTER LIQUOR","ACTIVE","CURRENT","1","2021-07-01T00:00:00.000","2022-06-23T00:00:00.000","2023-06-22T00:00:00.000","1 RAILROAD AVE","ESSEX","CT","064261516","2022-06-16T00:00:00.000"
"2276356","KEVIN L DODD","BUSINESS","KEVIN L DODD","ESSEX STEAM TRAIN & RIVERBOAT","LTR.0000298","LTR","298",,"TRANSPORTER LIQUOR","ACTIVE","CURRENT","1","2021-07-01T00:00:00.000","2022-07-01T00:00:00.000","2023-06-30T00:00:00.000","RIVER ST","DEEP RIVER","CT","06417","2022-06-16T00:00:00.000"
"227984","RSD TRANSPORTATION INC","CORPORATION","RSD TRANSPORTATION INC",,"LTR.0000054","LTR","54",,"TRANSPORTER LIQUOR","INACTIVE",,"0","2005-01-26T00:00:00.000","2018-01-26T00:00:00.000","2019-01-25T00:00:00.000","601 OLD RIVER RD","WHITE RIVER JUNCTION","VT","050019058","2019-11-21T00:00:00.000"
"228162","RICHARD P BRIENZA JR","BUSINESS",,"FLEETWOOD FORWARDING","LTR.0000052","LTR","52",,"TRANSPORTER LIQUOR","INACTIVE",,"0",,"2002-12-28T00:00:00.000","2003-12-27T00:00:00.000","100 CENTRAL AVENUE B#21","S. KEARNY","NJ","07032","2008-08-20T00:00:00.000"
"228168","APPALACHIAN FREIGHT CARRIERS INC","CORPORATION","APPALACHIAN FREIGHT CARRIERS INC","APPALACHIAN FREIGHT CARRIERS INC","LTR.0000053","LTR","53",,"TRANSPORTER LIQUOR","ACTIVE","CURRENT","1","2004-12-28T00:00:00.000","2021-12-28T00:00:00.000","2022-12-27T00:00:00.000","12919 OLD VALLEY PIKE","EDINGBURG","VA","22824","2021-11-05T00:00:00.000"
"2286532","VPV TRANSPORT LLC","LIMITED LIABILITY COMPANY","VPV TRANSPORT LLC","VPV TRANSPORT","LTR.0000299","LTR","299",,"TRANSPORTER LIQUOR","ACTIVE","CURRENT","1","2022-01-14T00:00:00.000","2022-01-14T00:00:00.000","2023-01-13T00:00:00.000","125 PENNSYLVANIA AVE","KEARNY","NJ","070324524","2022-01-19T00:00:00.000"
"2289441","WALGREEN OSHKOSH INC","CORPORATION","WALGREEN OSHKOSH INC","WALGREEN OSHKOSH","LTR.0000300","LTR","300",,"TRANSPORTER LIQUOR","ACTIVE","CURRENT","1","2022-05-11T00:00:00.000","2022-05-11T00:00:00.000","2023-05-10T00:00:00.000","200 WILMOT RD","DEERFIELD","IL","600154620","2022-05-13T00:00:00.000"
"2297904","COWAN SYSTEMS LLC","BUSINESS","COWAN SYSTEMS LLC",,"LTR.0000303","LTR","303",,"TRANSPORTER LIQUOR","ACTIVE","CURRENT","1","2022-02-24T00:00:00.000","2022-02-24T00:00:00.000","2023-02-23T00:00:00.000","4555 HOLLINS FERRY RD","BALTIMORE","MD","212274610","2022-02-25T00:00:00.000"
"2305930","JEFF A NORTHRUP","INDIVIDUAL",,"WESTPORT AQUACULTURE","LTR.0000304","LTR","304",,"TRANSPORTER LIQUOR","ACTIVE","CURRENT","1","2022-03-24T00:00:00.000","2022-03-24T00:00:00.000","2023-03-23T00:00:00.000","100 COMPO MILL COVE","WESTPORT","CT","06880","2022-03-25T00:00:00.000"
"230610","RICHARD BAKER FULLER","BUSINESS",,"CNG, INC.","LTR.0000058","LTR","58",,"TRANSPORTER LIQUOR","INACTIVE",,"0",,"2000-03-20T00:00:00.000","2001-03-19T00:00:00.000","478 TORREY STREET  SUITE 7","BROCKTON","MA","02301","2008-08-20T00:00:00.000"
"2306858","PAVLOV'S DOG LLC","LIMITED LIABILITY COMPANY","PAVLOV'S DOG LLC","PAVLOV'S DOG","LTR.0000305","LTR","305",,"TRANSPORTER LIQUOR","INACTIVE","WITHDRAWN","0",,,,"490 BABBITT RD","THOMASTON","CT","067871076","2022-05-04T00:00:00.000"
"231421","NELLO G ADDUCCHIO","CORPORATION",,"TRANSCON EXPRESS","LTR.0000056","LTR","56",,"TRANSPORTER LIQUOR","INACTIVE",,"0",,"2003-03-06T00:00:00.000","2004-03-05T00:00:00.000","P.O. BOX  1263","DAYTON","OH","45401","2008-08-20T00:00:00.000"
"231424","CHARLES H MARTIN","BUSINESS",,"MAY TRUCKING INC","LTR.0000057","LTR","57",,"TRANSPORTER LIQUOR","INACTIVE",,"0",,"2001-02-28T00:00:00.000","2002-02-27T00:00:00.000","P.O. BOX  1230","GROTTOES","VA","24441","2004-04-23T00:00:00.000"
"232056","KEVIN MICHAEL KELLEHER","BUSINESS",,"COMPLETE DISTRIBUTION SERVICES, INC.","LTR.0000059","LTR","59",,"TRANSPORTER LIQUOR","INACTIVE",,"0",,"2001-03-31T00:00:00.000","2002-03-30T00:00:00.000","8841 OLD US ROUTE 13","MORRISVILLE","PA","19067","2008-08-20T00:00:00.000"
"2320815","MARINE CONTAINER SERVICES LLC","LIMITED LIABILITY COMPANY","MARINE CONTAINER SERVICES LLC","MARINE CONTAINER SERVICES","LTR.0000306","LTR","306",,"TRANSPORTER LIQUOR","ACTIVE","CURRENT","1","2022-04-28T00:00:00.000","2022-04-28T00:00:00.000","2023-04-27T00:00:00.000","414 AVENUE P NEWARK NJ07105","NEWARK","NJ","071054802","2022-04-28T00:00:00.000"
"2328255","BG DISPATCHING & COURIER SERVICES LLC","LIMITED LIABILITY COMPANY","BG DISPATCHING & COURIER SERVICES LLC","BG DISPATCHING & COURIER SERVICES LLC","LTR.0000307","LTR","307",,"TRANSPORTER LIQUOR","ACTIVE","CURRENT","1","2022-06-02T00:00:00.000","2022-06-02T00:00:00.000","2023-06-01T00:00:00.000","45 JEFERSON RD 2-4","BRANFORD","CT","06405","2022-06-06T00:00:00.000"
"232929","FEDEX FREIGHT INC","CORPORATION","FEDEX FREIGHT INC","FEDEX FREIGHT","LTR.0000060","LTR","60",,"TRANSPORTER LIQUOR","ACTIVE","CURRENT","1","2005-04-14T00:00:00.000","2022-04-14T00:00:00.000","2023-04-13T00:00:00.000","2200 FORWARD DR","HARRISON","AR","726012004","2022-02-14T00:00:00.000"
"233872","CLELIA FIORDELISI","BUSINESS",,"WORLDWIDE DEDICATED SERVICES, INC.","LTR.0000063","LTR","63",,"TRANSPORTER LIQUOR","INACTIVE","APPLICATION EXPIRED","0",,,,"990 HAMMOND DRIVE  SUITE 400","ATLANTA","GA","30328","2004-04-23T00:00:00.000"
"234471","MARK S HOPKINS","BUSINESS",,"WORLDWIDE DEDICATED SERVICES, INC.","LTR.0000061","LTR","61",,"TRANSPORTER LIQUOR","INACTIVE","DOES NOT WISH TO RENEW","0",,"2002-04-14T00:00:00.000","2003-04-13T00:00:00.000","990 HAMMOND DRIVE   SUITE 400","ATLANTA","GA","30328","2004-04-23T00:00:00.000"
"235739","WERNER ENTERPRISES INC","CORPORATION","WERNER ENTERPRISES INC","WERNER ENTERPRISES INC","LTR.0000064","LTR","64",,"TRANSPORTER LIQUOR","ACTIVE","CURRENT","1","2004-06-01T00:00:00.000","2022-06-01T00:00:00.000","2023-05-31T00:00:00.000","14507 FRONTIER RD","OMAHA","NE","681383808","2022-05-02T00:00:00.000"
"236302","FEDEX GROUND PACKAGE SYSTEM INC","CORPORATION","FEDEX GROUND PACKAGE SYSTEM INC","FEDEX GROUND PACKAGE SYSTEM INC","LTR.0000062","LTR","62",,"TRANSPORTER LIQUOR","ACTIVE","CURRENT","1","2005-04-27T00:00:00.000","2022-04-27T00:00:00.000","2023-04-26T00:00:00.000","1000 FED EX DR","MOON TWP","PA","151089373","2022-03-01T00:00:00.000"
"236885","JOHN JACOBSON","BUSINESS",,"TRANSAM TRUCKING, INC.","LTR.0000065","LTR","65",,"TRANSPORTER LIQUOR","INACTIVE",,"0","2004-06-26T00:00:00.000","2010-06-26T00:00:00.000","2011-06-25T00:00:00.000","15910 S. 169TH HIGHWAY","OLATHE","KS","66062","2013-09-26T00:00:00.000"
"237474","JOHN PASSAN","BUSINESS",,"CITY DELIVERY SEVICE, INC.","LTR.0000067","LTR","67",,"TRANSPORTER LIQUOR","INACTIVE",,"0",,"1999-07-13T00:00:00.000","2000-07-12T00:00:00.000","1 PASSAN DRIVE","WILKES-BARRE","PA","18702","2008-08-20T00:00:00.000"
"2382167","POINT PICKUP TECHNOLOGIES INC","CORPORATION","POINT PICKUP TECHNOLOGIES INC","POINT PICKUP","LTR.0000308","LTR","308",,"TRANSPORTER LIQUOR","ACTIVE","CURRENT","1","2022-07-22T00:00:00.000","2022-07-22T00:00:00.000","2023-07-21T00:00:00.000","333 LUNDLOW STREET  4 FLOOR","STAMFORD","CT","06902","2022-07-22T00:00:00.000"
"239046","WILLIAM M SCHIFFER","BUSINESS",,"NEWHAVEN DISTRIBUTION SERVICES INC","LTR.0000068","LTR","68",,"TRANSPORTER LIQUOR","INACTIVE",,"0",,"2003-07-29T00:00:00.000","2004-07-25T00:00:00.000","999 E. 149TH STREET","BRONX","NY","10455","2008-08-20T00:00:00.000"
"2400973","SHIPT, INC.","CORPORATION","SHIPT, INC.",,"LTR.0000309","LTR","309",,"TRANSPORTER LIQUOR","PENDING","NEW APPLICATION REVIEW REQUIRED","0",,,,"420 20TH ST N STE 100","BIRMINGHAM","AL","352035213","2022-08-16T00:00:00.000"
"240266","BARBARA SMITH","BUSINESS",,"PRIORITY TRANSPORTATION LLC","LTR.0000066","LTR","66",,"TRANSPORTER LIQUOR","INACTIVE",,"0","2004-06-08T00:00:00.000","2008-06-21T00:00:00.000","2009-06-20T00:00:00.000","7680 UNIVERSAL BLVD. SUITE 650","ORLANDO","FL","32819","2010-01-13T00:00:00.000"
"240743","FEDERAL EXPRESS CORPORATION","CORPORATION","FEDERAL EXPRESS CORPORATION","FEDERAL EXPRESS","LTR.0000071","LTR","71",,"TRANSPORTER LIQUOR","ACTIVE","CURRENT","1","2004-09-26T00:00:00.000","2022-09-26T00:00:00.000","2023-09-25T00:00:00.000","3620 HACKS CROSS ROAD 3RD FL BLDG B","MEMPHIS","TN","38125","2022-08-16T00:00:00.000"
"242122","JAMES L MORSE","BUSINESS",,"REFRIGERATED FOOD EXPRESS INC","LTR.0000072","LTR","72",,"TRANSPORTER LIQUOR","INACTIVE",,"0","2005-02-27T00:00:00.000","2013-02-27T00:00:00.000","2014-02-26T00:00:00.000","57 LITTLEFIELD ST","AVON","MA","023221934","2014-03-13T00:00:00.000"
"243133","BILLY R READY","BUSINESS",,"WSE TRANSPORTATION LLC","LTR.0000070","LTR","70",,"TRANSPORTER LIQUOR","INACTIVE",,"0","2004-09-20T00:00:00.000","2005-09-20T00:00:00.000","2006-09-19T00:00:00.000","201 NORTH ELM STREET","ELM SPRING","AR","72728","2008-08-20T00:00:00.000"
"243472","MINDY HOWARD","BUSINESS",,"DICK SIMON TRUCKING INC","LTR.0000069","LTR","69",,"TRANSPORTER LIQUOR","INACTIVE",,"0",,"2001-08-17T00:00:00.000","2002-08-16T00:00:00.000","5175 W  2100 SOUTH","SALT LAKE CITY","UT","84120","2008-08-20T00:00:00.000"
"259547","JAMES MANNO","BUSINESS",,"KB TRANSPORT INC","LTR.0000074","LTR","74",,"TRANSPORTER LIQUOR","INACTIVE",,"0",,"2001-01-08T00:00:00.000","2002-01-07T00:00:00.000","200 STATE STREET","BROCKPORT","NY","14420","2008-08-20T00:00:00.000"
"259709","LANDSTAR INWAY INC","CORPORATION","LANDSTAR INWAY INC","LANDSTAR INWAY INC","LTR.0000073","LTR","73",,"TRANSPORTER LIQUOR","ACTIVE","CURRENT","1",,"2022-01-24T00:00:00.000","2023-01-23T00:00:00.000","1000 SIMPSON RD","ROCKFORD","IL","611024611","2021-12-08T00:00:00.000"
"260853","CHAPMAN TRUCKING","BUSINESS","CHAPMAN TRUCKING","CHAPMAN TRUCKING","LTR.0000076","LTR","76",,"TRANSPORTER LIQUOR","ACTIVE","CURRENT","1","2005-02-13T00:00:00.000","2022-02-13T00:00:00.000","2023-02-12T00:00:00.000","497 WASHINGTON ST N","AUBURN","ME","04210","2021-12-29T00:00:00.000"
"262719","UNITED PARCEL SERVICE","BUSINESS","UNITED PARCEL SERVICE","UNITED PARCEL SERVICE","LTR.0000077","LTR","77",,"TRANSPORTER LIQUOR","ACTIVE","CURRENT","1","2005-03-22T00:00:00.000","2022-03-22T00:00:00.000","2023-03-21T00:00:00.000","55 GLENLAKE PKWY","ATLANTA","GA","303283474","2022-02-24T00:00:00.000"
"263489","LEFEBVRE TRANSPORTATION INC","CORPORATION","LEFEBVRE TRANSPORTATION INC","LEFEBVRE TRANSPORTATION INC","LTR.0000078","LTR","78",,"TRANSPORTER LIQUOR","INACTIVE",,"0",,"2003-03-19T00:00:00.000","2004-03-18T00:00:00.000","1502 S 12TH ST","PRINCETON","MN","55371","2004-04-23T00:00:00.000"
"277526","HOGAN TRANSPORTS INC","BUSINESS","HOGAN TRANSPORTS INC","HOGAN TRANSPORTS INC","LTR.0000079","LTR","79",,"TRANSPORTER LIQUOR","INACTIVE",,"0",,"2002-05-04T00:00:00.000","2003-05-03T00:00:00.000","100 NORTH 14TH STREET","ST LOUIS","MO","63106","2008-08-20T00:00:00.000"
"287893","ASA APPLE INC","CORPORATION","ASA APPLE INC",,"LTR.0000081","LTR","81",,"TRANSPORTER LIQUOR","INACTIVE",,"0","2004-10-03T00:00:00.000","2018-10-03T00:00:00.000","2019-10-02T00:00:00.000","377 ROOSEVELT AVE","CARTERET","NJ","070083500","2020-07-28T00:00:00.000"
"289102","USA MOTOR EXPRESS INC","BUSINESS","USA MOTOR EXPRESS INC","USA MOTOR EXPRESS INC","LTR.0000080","LTR","80",,"TRANSPORTER LIQUOR","INACTIVE",,"0",,"2001-10-03T00:00:00.000","2002-10-02T00:00:00.000","4050 HELTON DRIVE","FLORENCE","AL","35630","2004-04-23T00:00:00.000"
"291020","DHL WORLDWIDE EXPRESS INC","BUSINESS","DHL WORLDWIDE EXPRESS INC","DHL WORLDWIDE EXPRESS INC","LTR.0000083","LTR","83",,"TRANSPORTER LIQUOR","INACTIVE",,"0","2004-11-28T00:00:00.000","2008-11-28T00:00:00.000","2009-11-27T00:00:00.000","1200 SOUTH PINE ISLAND RD  6TH FLR","PLANTATION","FL","33324","2014-04-30T00:00:00.000"
"291980","WATKINS MOTOR LINES INC","BUSINESS","WATKINS MOTOR LINES INC","WATKINS MOTOR LINES INC","LTR.0000082","LTR","82",,"TRANSPORTER LIQUOR","INACTIVE",,"0","2005-01-02T00:00:00.000","2006-01-02T00:00:00.000","2007-01-01T00:00:00.000","1144 W GRIFFIN ROAD","LAKELAND","FL","33805","2008-08-20T00:00:00.000"
"303930","FOXBORO EXPRESS","BUSINESS","FOXBORO EXPRESS","FOXBORO EXPRESS","LTR.0000084","LTR","84",,"TRANSPORTER LIQUOR","INACTIVE",,"0",,"2002-03-01T00:00:00.000","2003-02-28T00:00:00.000","208 NORTH STREET","FOXBORO","MA","02035","2005-02-07T00:00:00.000"
"303935","A & D EXPRESS INC","BUSINESS","A & D EXPRESS INC","A & D EXPRESS INC","LTR.0000085","LTR","85",,"TRANSPORTER LIQUOR","INACTIVE",,"0",,"2004-03-01T00:00:00.000","2005-02-28T00:00:00.000","891 GEORGES ROAD","SOUTH BRUNSWICK","NJ","08853","2008-08-20T00:00:00.000"
"303939","POULIN LOGISTICS INC","LIMITED LIABILITY COMPANY","POULIN LOGISTICS INC",,"LTR.0000086","LTR","86",,"TRANSPORTER LIQUOR","ACTIVE","CURRENT","1","2004-03-06T00:00:00.000","2022-03-06T00:00:00.000","2023-03-05T00:00:00.000","1005 SOUTH ST","SUFFIELD","CT","060782517","2022-01-24T00:00:00.000"
"305623","SCHNEIDER NATIONAL CARRIERS INC","CORPORATION","SCHNEIDER NATIONAL CARRIERS INC","SCHNEIDER NATIONAL CARRIERS INC","LTR.0000087","LTR","87",,"TRANSPORTER LIQUOR","ACTIVE","CURRENT","1","2005-03-25T00:00:00.000","2022-03-25T00:00:00.000","2023-03-24T00:00:00.000","3101 PACKERLAND DR","GREEN BAY","WI","543136187","2022-03-09T00:00:00.000"
"310130","J & R SCHUGEL TRUCKING INC","CORPORATION","J & R SCHUGEL TRUCKING INC","J & R SCHUGEL TRUCKING INC","LTR.0000088","LTR","88",,"TRANSPORTER LIQUOR","INACTIVE",,"0","2004-06-04T00:00:00.000","2010-06-04T00:00:00.000","2011-06-03T00:00:00.000","P O BOX 278","NEW ULM","MN","56073","2013-09-26T00:00:00.000"
"310807","TRI STAR LOGISTICS INC","LIMITED LIABILITY COMPANY","TRI STAR LOGISTICS INC","TRI STAR LOGISTICS INC","LTR.0000089","LTR","89",,"TRANSPORTER LIQUOR","INACTIVE",,"0",,"2002-06-04T00:00:00.000","2003-06-03T00:00:00.000","740 DRIVING PARK AVENUE","ROCHESTER","NY","14613","2008-08-20T00:00:00.000"
"314348","DICK JONES TRUCKING INC","CORPORATION","DICK JONES TRUCKING INC","DICK JONES TRUCKING INC","LTR.0000090","LTR","90",,"TRANSPORTER LIQUOR","INACTIVE",,"0",,"2002-06-04T00:00:00.000","2003-06-03T00:00:00.000","102 AIRPORT ROAD","SWANSTON","VT","05488","2008-08-20T00:00:00.000"
"323750","RIBEIRO TRUCKING LLC","LIMITED LIABILITY COMPANY","RIBEIRO TRUCKING LLC","RIBEIRO TRUCKING LLC","LTR.0000092","LTR","92",,"TRANSPORTER LIQUOR","INACTIVE",,"0",,"2003-11-04T00:00:00.000","2004-11-03T00:00:00.000","174 OGDEN AVENUE","KEARNY","NJ","07032","2008-08-20T00:00:00.000"
"323801","CENTRAL REFRIGERATED SERVICE INC","CORPORATION","CENTRAL REFRIGERATED SERVICE INC","CENTRAL REFRIGERATED SERVICES INC","LTR.0000091","LTR","91",,"TRANSPORTER LIQUOR","INACTIVE",,"0","2004-10-04T00:00:00.000","2013-10-04T00:00:00.000","2014-10-03T00:00:00.000","5175 W 2100 SOUTH","SALT LAKE CITY","UT","84120","2015-12-04T00:00:00.000"
"330145","STAR LEASING INC","CORPORATION","STAR LEASING INC","STAR TRANSPORTATION","LTR.0000093","LTR","93",,"TRANSPORTER LIQUOR","INACTIVE",,"0","2005-01-09T00:00:00.000","2006-01-09T00:00:00.000","2007-01-08T00:00:00.000","1116 POLK AVENUE","NASHVILLE","TN","37210","2008-08-20T00:00:00.000"
"337867","GYPSUM EXPRESS LTD","CORPORATION","GYPSUM EXPRESS LTD","GYPSUM EXPRESS LTD","LTR.0000094","LTR","94",,"TRANSPORTER LIQUOR","ACTIVE","CURRENT","1","2005-04-29T00:00:00.000","2022-04-29T00:00:00.000","2023-04-28T00:00:00.000","8280 SIXTY RD","BALDWINSVILLE","NY","130271211","2022-03-09T00:00:00.000"
"337917","GASEL TRANSPORTATION LINES INC","CORPORATION","GASEL TRANSPORTATION LINES INC","GASEL TRANSPORTATION LINES INC","LTR.0000096","LTR","96",,"TRANSPORTER LIQUOR","INACTIVE",,"0",,"2003-09-17T00:00:00.000","2004-09-16T00:00:00.000","ROUTE 4","MARIETTA","OH","45750","2008-08-20T00:00:00.000"
"340214","XTL INC","CORPORATION","XTL INC","XTL INC","LTR.0000095","LTR","95",,"TRANSPORTER LIQUOR","INACTIVE",,"0","2005-04-28T00:00:00.000","2018-04-28T00:00:00.000","2019-04-27T00:00:00.000","8201 ENTERPRISE AVE","PHILADELPHIA","PA","191533812","2020-02-21T00:00:00.000"
"343750","RIST TRANSPORT LTD","CORPORATION","RIST TRANSPORT LTD","RIST TRANSPORT LTD","LTR.0000097","LTR","97",,"TRANSPORTER LIQUOR","INACTIVE",,"0","2004-06-26T00:00:00.000","2011-06-26T00:00:00.000","2012-06-25T00:00:00.000","369 BOSTWICK ROAD","PHELPS","NY","14532","2013-09-26T00:00:00.000"
"343808","USF RED STAR INC","CORPORATION","USF RED STAR INC","USF RED STAR INC","LTR.0000098","LTR","98",,"TRANSPORTER LIQUOR","INACTIVE",,"0",,"2003-07-29T00:00:00.000","2004-07-28T00:00:00.000","34 WRIGHT AVENUE","AUBURN","NY","13021","2008-08-20T00:00:00.000"
"344296","ED THAYER INC","CORPORATION","ED THAYER INC","ED THAYER INC","LTR.0000099","LTR","99",,"TRANSPORTER LIQUOR","INACTIVE",,"0",,"2003-08-05T00:00:00.000","2004-08-04T00:00:00.000","502 MAIN STREET","OXFORD","ME","04270","2008-08-20T00:00:00.000"
"348384","KANE FREIGHT LINES LLC","INDIVIDUAL","KANE FREIGHT LINES LLC","KANE FREIGHT LINES LLC","LTR.0000100","LTR","100",,"TRANSPORTER LIQUOR","ACTIVE","CURRENT","1","2004-08-21T00:00:00.000","2022-08-21T00:00:00.000","2023-08-20T00:00:00.000","PO BOX 931","SCRANTON","PA","185010931","2022-07-29T00:00:00.000"
"350437","YANKEE COURIER SERVICES LLC","LIMITED LIABILITY COMPANY","YANKEE COURIER SERVICES LLC","YANKEE COURIER SERVICES LLC","LTR.0000101","LTR","101",,"TRANSPORTER LIQUOR","INACTIVE",,"0",,"2003-10-07T00:00:00.000","2004-10-06T00:00:00.000","5 CRAFTSMAN ROAD UNIT 14","EAST WINDSOR","CT","06088","2008-08-20T00:00:00.000"
"356220","NAPA TRANSPORTATION INC","CORPORATION","NAPA TRANSPORTATION INC","NAPA TRANSPORTATION INC","LTR.0000103","LTR","103",,"TRANSPORTER LIQUOR","INACTIVE",,"0","2004-12-11T00:00:00.000","2006-12-11T00:00:00.000","2007-12-10T00:00:00.000","4800 E TRINDLE ROAD","MECHANICSBURG","PA","17055","2008-08-20T00:00:00.000"
"357647","GUARANTEE WINE STORAGE INC","CORPORATION","GUARANTEE WINE STORAGE INC","MOISHE MANA","LTR.0000105","LTR","105",,"TRANSPORTER LIQUOR","INACTIVE",,"0",,"2004-01-06T00:00:00.000","2005-01-05T00:00:00.000","227 COLES STREET","JERSEY CITY","NJ","07310","2008-08-20T00:00:00.000"
"358124","SARGENT TRUCKING INC","CORPORATION","SARGENT TRUCKING INC","SARGENT TRUCKING INC","LTR.0000104","LTR","104",,"TRANSPORTER LIQUOR","INACTIVE",,"0","2004-12-11T00:00:00.000","2017-12-11T00:00:00.000","2018-12-10T00:00:00.000","64 MAIN STREET","MARS HILL","ME","04758","2019-10-06T00:00:00.000"
"358456","MTC TRANSPORTATION CO","CORPORATION","MTC TRANSPORTATION CO","MTC TRANSPORTATION CO","LTR.0000102","LTR","102",,"TRANSPORTER LIQUOR","INACTIVE",,"0","2004-12-02T00:00:00.000","2019-12-02T00:00:00.000","2020-12-01T00:00:00.000","PIER 8 - RED HOOK CONTAINER TERMINAL","BROOKLYN","NY","11231","2021-09-27T00:00:00.000"
"360963","RPM COURIER SYSTEMS INC","CORPORATION","RPM COURIER SYSTEMS INC","RPM COURIER SYSTEMS INC","LTR.0000107","LTR","107",,"TRANSPORTER LIQUOR","INACTIVE",,"0","2005-04-13T00:00:00.000","2007-04-13T00:00:00.000","2008-04-12T00:00:00.000","99 HOOK ROAD","BAYONNE","NJ","07002","2009-04-24T00:00:00.000"
"361188","621189 ONTARIO INC","CORPORATION","621189 ONTARIO INC","LARWAY TRAFIC SYSTEMS","LTR.0000106","LTR","106",,"TRANSPORTER LIQUOR","INACTIVE",,"0","2005-01-15T00:00:00.000","2006-01-15T00:00:00.000","2007-01-14T00:00:00.000","85 ELLIS DRIVE","BARRIE ON CANADA",,"L428Z3","2008-08-20T00:00:00.000"
"366292","MAY TRUCKING LLC","LIMITED LIABILITY COMPANY","MAY TRUCKING LLC","MAY TRUCKING LLC","LTR.0000108","LTR","108",,"TRANSPORTER LIQUOR","INACTIVE",,"0","2005-03-30T00:00:00.000","2007-03-30T00:00:00.000","2008-03-29T00:00:00.000","26 PINE CREEK LANE","GROTTOES","VA","24441","2009-04-24T00:00:00.000"
"371101","MARINE CONTAINER SERVICES INC","CORPORATION","MARINE CONTAINER SERVICES INC","MARINE CONTAINER SERVICES INC","LTR.0000109","LTR","109",,"TRANSPORTER LIQUOR","LAPSED",,"1","2004-05-28T00:00:00.000","2021-05-28T00:00:00.000","2022-05-27T00:00:00.000","414 AVENUE P","NEWARK","NJ","071054802","2022-06-01T00:00:00.000"
"371692","BAT EXPRESS INC","CORPORATION","BAT EXPRESS INC","BAT EXPRESS INC","LTR.0000110","LTR","110",,"TRANSPORTER LIQUOR","INACTIVE",,"0","2004-06-01T00:00:00.000","2004-06-01T00:00:00.000","2005-05-31T00:00:00.000","OLD CLAREMONT ROAD","CHARLESTOWN","NH","03603","2008-08-20T00:00:00.000"
"374546","COMMERCIAL CARRIER CORPORATION","CORPORATION","COMMERCIAL CARRIER CORPORATION","COMMERCIAL CARRIER CORPORATION","LTR.0000111","LTR","111",,"TRANSPORTER LIQUOR","INACTIVE",,"0","2004-07-13T00:00:00.000","2004-07-13T00:00:00.000","2005-07-12T00:00:00.000","502 E BRIDGERS AVENUE","AUBURNDALE","FL","33823","2008-08-20T00:00:00.000"
"383021","OLD DOMINION FREIGHT LINE INC","CORPORATION","OLD DOMINION FREIGHT LINE INC","OLD DOMINION FREIGHT LINE INC","LTR.0000112","LTR","112",,"TRANSPORTER LIQUOR","ACTIVE","CURRENT","1","2004-09-23T00:00:00.000","2022-09-23T00:00:00.000","2023-09-22T00:00:00.000","500 OLD DOMINION WAY","THOMASVILLE","NC","27360","2022-09-01T00:00:00.000"
"386216","VERBATIM LLC","LIMITED LIABILITY COMPANY","VERBATIM LLC","VERBATIM LLC","LTR.0000113","LTR","113",,"TRANSPORTER LIQUOR","INACTIVE",,"0","2004-10-20T00:00:00.000","2007-10-20T00:00:00.000","2008-10-19T00:00:00.000","537 STEAMBOAT ROAD","GREENWICH","CT","06830","2009-04-24T00:00:00.000"
"395988","FOXBORO EXPRESS","BUSINESS","FOXBORO EXPRESS","FOXBORO EXPRESS","LTR.0000114","LTR","114",,"TRANSPORTER LIQUOR","INACTIVE",,"0","2005-02-16T00:00:00.000","2005-02-16T00:00:00.000","2006-02-15T00:00:00.000","208 NORTH STREET","FOXBORO","MA","02035","2008-08-20T00:00:00.000"
"404681","GARVEY TRANSPORT INC","INDIVIDUAL","GARVEY TRANSPORT INC","GARVEY TRANSPORT INC","LTR.0000115","LTR","115",,"TRANSPORTER LIQUOR","INACTIVE",,"0","2005-05-13T00:00:00.000","2007-05-13T00:00:00.000","2008-05-12T00:00:00.000","2 WATER STREET","HOLBROOK","MA","02343","2009-04-24T00:00:00.000"
"405575","RTL TRANSPORT","CORPORATION","RTL TRANSPORT","RTL TRANSPORT","LTR.0000116","LTR","116",,"TRANSPORTER LIQUOR","DENIED",,"0",,,,"44 HOOK ROAD","BAYONNE","NJ","07002","2007-11-30T00:00:00.000"
"407651","LOGISTICS ONE TRANSPORT INC","CORPORATION","LOGISTICS ONE TRANSPORT INC","LOGISTICS ONE TRANSPORT INC","LTR.0000117","LTR","117",,"TRANSPORTER LIQUOR","ACTIVE","CURRENT","1","2005-06-21T00:00:00.000","2022-06-21T00:00:00.000","2023-06-20T00:00:00.000","33 CADY HILL BLVD","SARATOGA SPRINGS","NY","128669047","2022-04-28T00:00:00.000"
"412029","MARKET TRANSPORT LTD","CORPORATION","MARKET TRANSPORT LTD","MARKET TRANSPORT LTD","LTR.0000118","LTR","118",,"TRANSPORTER LIQUOR","INACTIVE",,"0","2005-08-09T00:00:00.000","2013-08-09T00:00:00.000","2014-08-08T00:00:00.000","110 N MARINE DRIVE","PORTLAND","OR","97217","2015-12-04T00:00:00.000"
"414653","FJK ENTERPRISES LTD CO","LIMITED LIABILITY COMPANY","FJK ENTERPRISES LTD CO","EXPRESS CARRIERS","LTR.0000119","LTR","119",,"TRANSPORTER LIQUOR","INACTIVE",,"0","2005-08-30T00:00:00.000","2008-08-30T00:00:00.000","2009-08-29T00:00:00.000","9311 SAN PEDRO AVENUE STE 1400","SAN ANTONIO","TX","78216","2014-04-30T00:00:00.000"
"415529","EXEL INC","CORPORATION","EXEL INC","EXEL INC","LTR.0000120","LTR","120",,"TRANSPORTER LIQUOR","INACTIVE",,"0","2005-09-23T00:00:00.000","2009-09-23T00:00:00.000","2010-09-22T00:00:00.000","570 POLARIS PARKWAY","WESTERVILLE","OH","43082","2013-09-26T00:00:00.000"
"415999","KNIGHT TRANSPORTATION INC","CORPORATION","KNIGHT TRANSPORTATION INC","KNIGHT TRANSPORTATION INC","LTR.0000121","LTR","121",,"TRANSPORTER LIQUOR","DENIED",,"0",,,,"5601 W BUCKEYE ROAD","PHOENIX","AZ","85043","2007-09-20T00:00:00.000"
"424677","WILLIAM M SCHIFFER","BUSINESS",,"NEWHAVEN DISTRIBUTION SERVICES INC","LTR.0000122","LTR","122",,"TRANSPORTER LIQUOR","INACTIVE",,"0","2005-12-21T00:00:00.000","2011-12-21T00:00:00.000","2012-12-20T00:00:00.000","999 E. 149TH STREET","BRONX","NY","10455","2014-03-13T00:00:00.000"
"425513","HARTT TRANSPORTATION SYSTEMS INC","CORPORATION","HARTT TRANSPORTATION SYSTEMS INC","HARTT TRANSPORTATION SYSTEMS INC","LTR.0000123","LTR","123",,"TRANSPORTER LIQUOR","ACTIVE","CURRENT","1","2006-01-03T00:00:00.000","2022-01-03T00:00:00.000","2023-01-02T00:00:00.000","262 BOMARC RD","BANGOR","ME","044012655","2021-11-30T00:00:00.000"
"428710","R E GARRISON TRUCKING INC","CORPORATION","R E GARRISON TRUCKING INC","R E GARRISON TRUCKING INC","LTR.0000124","LTR","124",,"TRANSPORTER LIQUOR","INACTIVE",,"0","2006-03-07T00:00:00.000","2007-03-07T00:00:00.000","2008-03-06T00:00:00.000","1103 COUNTY ROAD 1194","VINEMONT","AL","35179","2009-04-24T00:00:00.000"
"429608","WESTERN EXPRESS INC","CORPORATION","WESTERN EXPRESS INC","WESTERN EXPRESS INC","LTR.0000125","LTR","125",,"TRANSPORTER LIQUOR","INACTIVE",,"0","2006-02-28T00:00:00.000","2018-02-28T00:00:00.000","2019-02-27T00:00:00.000","7135 CENTENNIAL PLACE","NASHVILLE","TN","37209","2019-12-24T00:00:00.000"
"435701","L E WALKER TRANSPORT LTD","INDIVIDUAL","L E WALKER TRANSPORT LTD","L E WALKER TRANSPORT LTD","LTR.0000126","LTR","126",,"TRANSPORTER LIQUOR","INACTIVE",,"0","2006-05-17T00:00:00.000","2007-05-17T00:00:00.000","2008-05-16T00:00:00.000","389 SOUTH EDGEWARE ROAD",,,,"2009-04-24T00:00:00.000"
"440728","WINEBOW INC","CORPORATION","WINEBOW INC","WINEBOW INC","LTR.0000127","LTR","127",,"TRANSPORTER LIQUOR","INACTIVE","DOES NOT WISH TO RENEW","0","2006-06-20T00:00:00.000","2009-06-20T00:00:00.000","2010-06-19T00:00:00.000","75 CHESTNUT RIDGE ROAD","MONTVALE","NJ","07645","2010-05-17T00:00:00.000"
"443547","PDQ / TL EXPRESS INC","CORPORATION","PDQ / TL EXPRESS INC","PDQ / EXPRESS INC","LTR.0000128","LTR","128",,"TRANSPORTER LIQUOR","INACTIVE",,"0","2006-07-11T00:00:00.000","2006-07-11T00:00:00.000","2007-07-10T00:00:00.000","1605 THRAILKILL ROAD","GROVE CITY","OH","43123","2008-08-20T00:00:00.000"
"448448","ADVANTAGE TRANSPORTATION INC","CORPORATION","ADVANTAGE TRANSPORTATION INC","ADVANTAGE TRANSPORTATION INC","LTR.0000129","LTR","129",,"TRANSPORTER LIQUOR","INACTIVE",,"0","2006-09-15T00:00:00.000","2014-09-15T00:00:00.000","2015-09-14T00:00:00.000","800 LONE OAK ROAD","EGAN","MN","55121","2016-07-13T00:00:00.000"
"451503","LEONARD'S EXPRESS INC","CORPORATION","LEONARD'S EXPRESS INC",,"LTR.0000130","LTR","130",,"TRANSPORTER LIQUOR","ACTIVE","CURRENT","1","2006-10-10T00:00:00.000","2022-10-10T00:00:00.000","2023-10-09T00:00:00.000","6070 COLLETT RD","FARMINGTON","NY","14425","2022-08-16T00:00:00.000"
"454672","SUPPLY CHAIN SOLUTIONS LLC","CORPORATION","SUPPLY CHAIN SOLUTIONS LLC","FOXBORO EXPRESS","LTR.0000131","LTR","131",,"TRANSPORTER LIQUOR","INACTIVE","OUT OF BUSINESS","0","2006-11-16T00:00:00.000","2018-11-16T00:00:00.000","2019-11-15T00:00:00.000","208 NORTH STREET","FOXBORO","MA","02035","2019-09-20T00:00:00.000"
"454744","ROADLINK USA NATIONAL LLC","LIMITED LIABILITY COMPANY","ROADLINK USA NATIONAL LLC","ROADLINK USA NATIONAL LLC","LTR.0000132","LTR","132",,"TRANSPORTER LIQUOR","INACTIVE",,"0","2006-10-31T00:00:00.000","2012-10-31T00:00:00.000","2013-10-30T00:00:00.000","1 KELLEWAY DR","RANDOLPH","MA","023685074","2014-03-13T00:00:00.000"
"460047","ARNOLD TRANSPORTATION SERVICES INC","CORPORATION","ARNOLD TRANSPORTATION SERVICES INC","ARNOLD TRANSPORTATION SERVICES INC","LTR.0000133","LTR","133",,"TRANSPORTER LIQUOR","INACTIVE",,"0","2007-01-10T00:00:00.000","2014-01-10T00:00:00.000","2015-01-09T00:00:00.000","9523 FLORIDA MINING BOULEVARD","JACKSONVILLE","FL","32257","2015-12-04T00:00:00.000"
"460097","FEDEX NATIONAL LTL INC","CORPORATION","FEDEX NATIONAL LTL INC",,"LTR.0000134","LTR","134",,"TRANSPORTER LIQUOR","INACTIVE","DOES NOT WISH TO RENEW","0","2007-01-10T00:00:00.000","2011-01-10T00:00:00.000","2012-01-09T00:00:00.000","PO BOX 95003","LAKELAND","FL","338045003","2012-02-02T00:00:00.000"
"464665","BBX INC","CORPORATION","BBX INC","BOSTON BUFFALO","LTR.0000135","LTR","135",,"TRANSPORTER LIQUOR","INACTIVE",,"0","2007-03-06T00:00:00.000","2015-03-06T00:00:00.000","2016-03-05T00:00:00.000","7310 CHESTNUT RIDGE ROAD","LOCKPORT","NY","14094","2016-12-30T00:00:00.000"
"467526","TITUS TRANSPORTATION LP","LIMITED LIABILITY COMPANY","TITUS TRANSPORTATION LP","TITUS TRANSPORTATION LP","LTR.0000136","LTR","136",,"TRANSPORTER LIQUOR","INACTIVE",,"0","2007-04-10T00:00:00.000","2009-04-10T00:00:00.000","2010-04-09T00:00:00.000","26 PINE CREEK LN","GROTTOES","VA","244414840","2013-09-26T00:00:00.000"
"467939","ESTES EXPRESS LINES","CORPORATION","ESTES EXPRESS LINES","ESTES EXPRESS LINES","LTR.0000137","LTR","137",,"TRANSPORTER LIQUOR","INACTIVE",,"0","2007-04-25T00:00:00.000","2008-05-19T00:00:00.000","2009-04-24T00:00:00.000","3901 W BROAD ST","RICHMOND","VA","232303962","2010-01-13T00:00:00.000"
"468015","EPES TRANSPORT SYSTEM LLC","CORPORATION","EPES TRANSPORT SYSTEM LLC","EPES TRANSPORT SYSTEM","LTR.0000138","LTR","138",,"TRANSPORTER LIQUOR","ACTIVE","CURRENT","1","2007-04-26T00:00:00.000","2022-04-26T00:00:00.000","2023-04-25T00:00:00.000","3400 EDGEFIELD COURT","GREENSBORO","NC","27409","2022-03-07T00:00:00.000"
"468068","TWIN MODAL INC","CORPORATION","TWIN MODAL INC","TWIN MODAL INC","LTR.0000139","LTR","139",,"TRANSPORTER LIQUOR","INACTIVE",,"0","2007-05-03T00:00:00.000","2011-05-24T00:00:00.000","2012-05-02T00:00:00.000","2699 PATTON ROAD","ROSEVILLE","MN","55113","2013-09-26T00:00:00.000"
"474049","CDS TRANSPORTATION","CORPORATION","CDS TRANSPORTATION",,"LTR.0000140","LTR","140",,"TRANSPORTER LIQUOR","INACTIVE",,"0","2007-07-05T00:00:00.000","2007-07-05T00:00:00.000","2008-07-04T00:00:00.000","1 PASSAN DR","WILKES BARRE","PA","18702","2009-04-24T00:00:00.000"
"475175","DALLAS MAVIS SPECIALIZED CARRIER CO LLC","LIMITED LIABILITY COMPANY","DALLAS MAVIS SPECIALIZED CARRIER CO LLC","DALLAS MAVIS SPECIALIZED CARRIER CO LLC","LTR.0000141","LTR","141",,"TRANSPORTER LIQUOR","INACTIVE",,"0","2007-07-03T00:00:00.000","2008-07-03T00:00:00.000","2009-07-02T00:00:00.000","625 55TH STREET","KENOSHA","WI",,"2014-04-30T00:00:00.000"
"478057","R & L TRANSFER INC","INDIVIDUAL","R & L TRANSFER INC","R & L TRANSFER INC","LTR.0000142","LTR","142",,"TRANSPORTER LIQUOR","ACTIVE","CURRENT","1","2007-07-26T00:00:00.000","2022-07-26T00:00:00.000","2023-07-25T00:00:00.000","600 GILLAM ROAD","WILMINGTON","OH","45177","2022-07-13T00:00:00.000"
"481177","KINGS EXPRESS INC","CORPORATION","KINGS EXPRESS INC","KINGS EXPRESS INC","LTR.0000143","LTR","143",,"TRANSPORTER LIQUOR","INACTIVE",,"0","2007-09-20T00:00:00.000","2016-09-20T00:00:00.000","2017-09-19T00:00:00.000","3690 30TH ST S E","St cloud","MN","56304","2018-07-16T00:00:00.000"
"483723","AVERY WORLDWIDE INC","CORPORATION","AVERY WORLDWIDE INC","AVERY WORLDWIDE INC","LTR.0000144","LTR","144",,"TRANSPORTER LIQUOR","ACTIVE","CURRENT","1","2007-10-09T00:00:00.000","2022-10-09T00:00:00.000","2023-10-08T00:00:00.000","35 NUTMEG DRIVE","TRUMBULL","CT","06611","2022-08-24T00:00:00.000"
"483871","GARRISON TRANSPORTATION SERVICES INC","INDIVIDUAL","GARRISON TRANSPORTATION SERVICES INC","GARRISON TRANSPORTATION SERVICES INC","LTR.0000145","LTR","145",,"TRANSPORTER LIQUOR","ACTIVE","CURRENT","1","2007-10-11T00:00:00.000","2022-10-12T00:00:00.000","2023-10-11T00:00:00.000","1510 SOUTH 3600 WEST","SALT LAKE CITY","UT","84104","2022-08-24T00:00:00.000"
"487095","MATTHEW DE GENNARO","INDIVIDUAL",,"MATE TRUCKING INC","LTR.0000146","LTR","146",,"TRANSPORTER LIQUOR","INACTIVE",,"0","2007-11-01T00:00:00.000","2007-11-01T00:00:00.000","2008-10-31T00:00:00.000","629 HENRY STREET","ELIZABETH","NJ","07071","2009-04-24T00:00:00.000"
"496569","VINDEMIA INC","CORPORATION","VINDEMIA INC","WINE CELLARAGE (THE)","LTR.0000147","LTR","147",,"TRANSPORTER LIQUOR","ACTIVE","CURRENT","1","2008-04-10T00:00:00.000","2022-04-11T00:00:00.000","2023-04-10T00:00:00.000","890 GARRISON AVE","BRONX","NY","104745354","2022-03-21T00:00:00.000"
"500018","LYDALL TRANSPORT LTD","CORPORATION","LYDALL TRANSPORT LTD","LYDALL TRANSPORT","LTR.0000148","LTR","148",,"TRANSPORTER LIQUOR","INACTIVE",,"0","2008-04-15T00:00:00.000","2008-04-15T00:00:00.000","2009-04-14T00:00:00.000","11023 WASHINGTON HWY STE 250","GLEN ALLEN","VA","230591978","2010-01-13T00:00:00.000"
"500022","TRANS-CARRIERS INC","CORPORATION","TRANS-CARRIERS INC","TRANS-CARRIERS","LTR.0000149","LTR","149",,"TRANSPORTER LIQUOR","INACTIVE",,"0","2008-04-15T00:00:00.000","2012-04-15T00:00:00.000","2013-04-14T00:00:00.000","5135 LAMAR AVE","MEMPHIS","TN","381187819","2014-03-13T00:00:00.000"
"501949","H & M INTERNATIONAL TRANSPORTATION INC","CORPORATION","H & M INTERNATIONAL TRANSPORTATION INC","H & M INTERNATIONAL TRANSPORTATION","LTR.0000150","LTR","150",,"TRANSPORTER LIQUOR","INACTIVE",,"0","2008-05-06T00:00:00.000","2012-05-06T00:00:00.000","2013-05-05T00:00:00.000","485B US HIGHWAY 1 S STE 110","ISELIN","NJ","088303013","2014-03-13T00:00:00.000"
"509695","US EXPRESS ENTERPRISES INC","INDIVIDUAL","US EXPRESS ENTERPRISES INC","US XPRESS ENTERPRISES","LTR.0000151","LTR","151",,"TRANSPORTER LIQUOR","ACTIVE","CURRENT","1","2008-08-07T00:00:00.000","2022-08-07T00:00:00.000","2023-08-06T00:00:00.000","4080 JENKINS RD","CHATTANOOGA","TN","374211174","2022-07-29T00:00:00.000"
"519217","SDR TRANSPORTATION LLC","LIMITED LIABILITY COMPANY","SDR TRANSPORTATION LLC","SDR TRANSPORTATION","LTR.0000152","LTR","152",,"TRANSPORTER LIQUOR","INACTIVE",,"0","2008-12-02T00:00:00.000","2012-12-02T00:00:00.000","2013-12-01T00:00:00.000","5564 UNIVERSAL DR","MEMPHIS","TN","381187923","2014-03-13T00:00:00.000"
"519425","METROPOLITAN TRANSPORTATION CO LLC","LIMITED LIABILITY COMPANY","METROPOLITAN TRANSPORTATION CO LLC","METROPOLITAN TRANSPORTATION CO","LTR.0000153","LTR","153",,"TRANSPORTER LIQUOR","INACTIVE",,"0","2008-11-18T00:00:00.000","2009-11-18T00:00:00.000","2010-11-17T00:00:00.000","500 OAKPOINT AVE","BRONX","NY","104746626","2013-09-26T00:00:00.000"
"521098","LONG IRELAND BREWING CO LLC","LIMITED LIABILITY COMPANY","LONG IRELAND BREWING CO LLC",,"LTR.0000154","LTR","154",,"TRANSPORTER LIQUOR","INACTIVE",,"0","2008-12-18T00:00:00.000","2009-12-18T00:00:00.000","2010-12-17T00:00:00.000","195 SMITHTOWN BLVD","NESCONSET","NY","117671869","2013-09-26T00:00:00.000"
"522778","YRC INC","CORPORATION","YRC INC",,"LTR.0000155","LTR","155",,"TRANSPORTER LIQUOR","INACTIVE",,"0","2009-01-13T00:00:00.000","2009-01-13T00:00:00.000","2010-01-12T00:00:00.000","10990 ROE AVENUE","OVERLAND PARK","KS","66211","2013-09-26T00:00:00.000"
"526958","GREATWIDE DALLAS MAVIS LLC","LIMITED LIABILITY COMPANY","GREATWIDE DALLAS MAVIS LLC","GREATWIDE DALLAS MAVIS","LTR.0000156","LTR","156",,"TRANSPORTER LIQUOR","INACTIVE",,"0","2009-03-10T00:00:00.000","2011-03-10T00:00:00.000","2012-03-09T00:00:00.000","2150 CABOT BLVD W","LANGHORNE","PA","190471852","2013-09-26T00:00:00.000"
"527218","SALSON LOGISTICS INC","CORPORATION","SALSON LOGISTICS INC",,"LTR.0000157","LTR","157",,"TRANSPORTER LIQUOR","INACTIVE",,"0","2009-03-10T00:00:00.000","2009-03-10T00:00:00.000","2010-03-09T00:00:00.000","888 DOREMUS AVE","NEWARK","NJ","071143026","2013-09-26T00:00:00.000"
"530099","EVANS DELIVERY COMPANY INC","CORPORATION","EVANS DELIVERY COMPANY INC","EVANS DELIVERY COMPANY","LTR.0000158","LTR","158",,"TRANSPORTER LIQUOR","ACTIVE","CURRENT","1","2009-04-14T00:00:00.000","2022-04-14T00:00:00.000","2023-04-13T00:00:00.000","100 W COLUMBIA ST # 110","SCHUYLKILL HAVEN","PA","179721934","2022-03-07T00:00:00.000"
"530483","VINDAGRA USA INC","CORPORATION","VINDAGRA USA INC",,"LTR.0000159","LTR","159",,"TRANSPORTER LIQUOR","INACTIVE",,"0",,,,"433 PLAZA REAL STE 275","BOCA RATON","FL","334323999","2014-07-24T00:00:00.000"
"531123","LANDSTAR RANGER INC","CORPORATION","LANDSTAR RANGER INC",,"LTR.0000160","LTR","160",,"TRANSPORTER LIQUOR","ACTIVE","CURRENT","1","2009-04-21T00:00:00.000","2022-04-21T00:00:00.000","2023-04-20T00:00:00.000","13410 SUTTON PARK DR S","JACKSONVILLE","FL","322245270","2022-03-01T00:00:00.000"
"531576","J RAYL TRANSPORT INC","CORPORATION","J RAYL TRANSPORT INC",,"LTR.0000161","LTR","161",,"TRANSPORTER LIQUOR","INACTIVE",,"0","2009-06-02T00:00:00.000","2010-06-02T00:00:00.000","2011-06-01T00:00:00.000","1016 TRIPLETT BLVD","AKRON","OH","443063007","2013-09-26T00:00:00.000"
"531840","NORTH AMERICAN TRANSPORT SERVICES LLC","LIMITED LIABILITY COMPANY","NORTH AMERICAN TRANSPORT SERVICES LLC",,"LTR.0000162","LTR","162",,"TRANSPORTER LIQUOR","INACTIVE",,"0","2009-05-01T00:00:00.000","2009-05-01T00:00:00.000","2010-04-30T00:00:00.000","11400 NW 32ND AVE","MIAMI","FL","331672901","2013-09-26T00:00:00.000"
"531983","ZAVCOR TRUCKING LTD","CORPORATION","ZAVCOR TRUCKING LTD",,"LTR.0000163","LTR","163",,"TRANSPORTER LIQUOR","INACTIVE",,"0","2009-05-01T00:00:00.000","2011-05-01T00:00:00.000","2012-04-30T00:00:00.000","3650 EAGLE STREET","STEVENSVILLE ON L0S 1S0",,,"2013-09-26T00:00:00.000"
"533634","TFORCE FREIGHT INC","CORPORATION","TFORCE FREIGHT INC","TFORCE FREIGHT","LTR.0000164","LTR","164",,"TRANSPORTER LIQUOR","ACTIVE","CURRENT","1","2009-05-28T00:00:00.000","2022-05-28T00:00:00.000","2023-05-27T00:00:00.000","1000 SEMMES AVE","RICHMOND","VA","232242246","2022-05-13T00:00:00.000"
"535146","ALPHA LOGISTICS INC","CORPORATION","ALPHA LOGISTICS INC","USXL C/O STEVEN M SMITH","LTR.0000165","LTR","165",,"TRANSPORTER LIQUOR","INACTIVE",,"0","2009-06-09T00:00:00.000","2009-06-09T00:00:00.000","2010-06-08T00:00:00.000","3675 NEW TOWN BLVD","SAINT CHARLES","MO","633014355","2013-09-26T00:00:00.000"
"535324","L & A FORWARDING INC","CORPORATION","L & A FORWARDING INC","L & A TRANSPORT","LTR.0000166","LTR","166",,"TRANSPORTER LIQUOR","INACTIVE","INCOMPLETE APPLICATION","0",,,,"1089 HUDSON ST","UNION","NJ","070836812","2017-05-02T00:00:00.000"
"537776","ARL TRANSPORT LLC","LIMITED LIABILITY COMPANY","ARL TRANSPORT LLC","ARL TRANSPORT LLC","LTR.0000167","LTR","167",,"TRANSPORTER LIQUOR","ACTIVE","CURRENT","1","2009-07-28T00:00:00.000","2022-07-28T00:00:00.000","2023-07-27T00:00:00.000","1155 STOOPS FERRY RD","MOON TWP","PA","151088920","2022-06-06T00:00:00.000"
"904380","KNIGHT TRANSPORTATION INC","CORPORATION","KNIGHT TRANSPORTATION INC",,"LTR.0000168","LTR","168",,"TRANSPORTER LIQUOR","ACTIVE","CURRENT","1","2009-11-24T00:00:00.000","2021-11-24T00:00:00.000","2022-11-23T00:00:00.000","5601 W BUCKEYE RD","PHOENIX","AZ","850434603","2021-10-07T00:00:00.000"
"915695","MUSTANG EXPRESS TRUCKING & LOGISTICS INC","CORPORATION","MUSTANG EXPRESS TRUCKING & LOGISTICS INC",,"LTR.0000169","LTR","169",,"TRANSPORTER LIQUOR","INACTIVE",,"0","2010-04-20T00:00:00.000","2010-04-20T00:00:00.000","2011-04-19T00:00:00.000","1559 ROUTE 82 STE 8","HOPEWELL JUNCTION","NY","125333318","2013-09-26T00:00:00.000"
"917105","GREATWIDE DEDICATED TRANSPORT I LLC","LIMITED LIABILITY COMPANY","GREATWIDE DEDICATED TRANSPORT I LLC","GREATWIDE DEDICATED TRANSPORT","LTR.0000170","LTR","170",,"TRANSPORTER LIQUOR","INACTIVE",,"0","2010-03-16T00:00:00.000","2015-03-17T00:00:00.000","2016-03-16T00:00:00.000","5333 DAVIDSON HWY","CONCORD","NC","280278478","2017-01-10T00:00:00.000"
"922032","SQUIRE TRANSPORTATION LLC","LIMITED LIABILITY COMPANY","SQUIRE TRANSPORTATION LLC","SQUIRE TRANSPORTATION","LTR.0000171","LTR","171",,"TRANSPORTER LIQUOR","INACTIVE",,"0","2010-04-08T00:00:00.000","2010-04-08T00:00:00.000","2011-04-07T00:00:00.000","5601 W BUCKEYE RD","PHOENIX","AZ","850434603","2013-09-26T00:00:00.000"
"923908","ESTES EXPRESS LINES INC","CORPORATION","ESTES EXPRESS LINES INC","ESTES EXPRESS LINES","LTR.0000172","LTR","172",,"TRANSPORTER LIQUOR","ACTIVE","CURRENT","1","2010-05-12T00:00:00.000","2022-05-12T00:00:00.000","2023-05-11T00:00:00.000","3901 W BROAD ST","RICHMOND","VA","232303962","2022-05-10T00:00:00.000"
"933739","BIG G EXPRESS INC","CORPORATION","BIG G EXPRESS INC","BIG G EXPRESS","LTR.0000173","LTR","173",,"TRANSPORTER LIQUOR","ACTIVE","CURRENT","1","2010-06-03T00:00:00.000","2022-06-03T00:00:00.000","2023-06-02T00:00:00.000","190 HAWKINS DR","SHELBYVILLE","TN","371603648","2022-04-20T00:00:00.000"
"948270","SALSON LOGISTICS INC","CORPORATION","SALSON LOGISTICS INC",,"LTR.0000174","LTR","174",,"TRANSPORTER LIQUOR","INACTIVE",,"0","2011-03-08T00:00:00.000","2011-03-08T00:00:00.000","2012-03-07T00:00:00.000","888 DOREMUS AVE","NEWARK","NJ","071143026","2014-07-24T00:00:00.000"
"972534","BERKELEY TRANSPORTATION CO INC","CORPORATION","BERKELEY TRANSPORTATION CO INC","BERKELEY TRANSPORTATION","LTR.0000175","LTR","175",,"TRANSPORTER LIQUOR","INACTIVE",,"0","2010-10-28T00:00:00.000","2010-10-28T00:00:00.000","2011-10-27T00:00:00.000","70 INDUSTRIAL RD","CUMBERLAND","RI","028644715","2013-09-26T00:00:00.000"
"980050","ATLANTIC BEVERAGE EXPRESS LLC","LIMITED LIABILITY COMPANY","ATLANTIC BEVERAGE EXPRESS LLC","ATLANTIC BEVERAGE EXPRESS","LTR.0000176","LTR","176",,"TRANSPORTER LIQUOR","INACTIVE",,"0","2011-01-26T00:00:00.000","2012-01-26T00:00:00.000","2013-01-25T00:00:00.000","400 FRANKLIN ST STE 302","BRAINTREE","MA","021845530","2014-03-13T00:00:00.000"
"985770","RIVER VALLEY WINE CELLARS","LIMITED LIABILITY COMPANY","RIVER VALLEY WINE CELLARS","M & S STORAGE LLC","LTR.0000177","LTR","177",,"TRANSPORTER LIQUOR","ACTIVE","CURRENT","1","2011-03-08T00:00:00.000","2022-03-08T00:00:00.000","2023-03-07T00:00:00.000","9 SKYLINE DR","HAWTHORNE","NY","105322100","2022-01-19T00:00:00.000"
"986823","LINDEN BULK TRANSPORTATION COMPANY","CORPORATION","LINDEN BULK TRANSPORTATION COMPANY","LINDEN BULK TRANSPORTATION","LTR.0000178","LTR","178",,"TRANSPORTER LIQUOR","INACTIVE",,"0","2011-03-08T00:00:00.000","2016-03-08T00:00:00.000","2017-03-07T00:00:00.000","4200 TREMLEY POINT RD","LINDEN","NJ","070366536","2018-01-01T00:00:00.000"
"988646","JBS CARRIERS INC","CORPORATION","JBS CARRIERS INC","JBS CARRIERS","LTR.0000179","LTR","179",,"TRANSPORTER LIQUOR","INACTIVE",,"0","2011-04-08T00:00:00.000","2011-04-08T00:00:00.000","2012-04-07T00:00:00.000","2401 2ND AVE","GREELEY","CO","806317205","2014-07-24T00:00:00.000"
"990377","SYNERGISTIKS INC","CORPORATION","SYNERGISTIKS INC","SYNERGISTIKS","LTR.0000180","LTR","180",,"TRANSPORTER LIQUOR","INACTIVE",,"0","2011-04-01T00:00:00.000","2017-04-01T00:00:00.000","2018-03-31T00:00:00.000","265 BRUSH MOUNTAIN RD","ALTOONA","PA","166018913","2019-01-25T00:00:00.000"
"994068","PATRIOT TRANSPORT INC","CORPORATION","PATRIOT TRANSPORT INC","PATRIOT TRANSPORT","LTR.0000181","LTR","181",,"TRANSPORTER LIQUOR","INACTIVE","DOES NOT WISH TO RENEW","0","2011-05-18T00:00:00.000","2019-05-18T00:00:00.000","2020-05-17T00:00:00.000","450 KEHOE BLVD","CAROL STREAM","IL","601885205","2020-05-13T00:00:00.000"
"997766","KEELER TRANSPORT","CORPORATION","KEELER TRANSPORT","KEELER TRANSPORT","LTR.0000182","LTR","182",,"TRANSPORTER LIQUOR","INACTIVE",,"0","2011-06-28T00:00:00.000","2011-06-28T00:00:00.000","2012-06-27T00:00:00.000","710 HIGHLAND AVE","CLARKS GREEN","PA","184112503","2014-07-24T00:00:00.000"
"998173","CLASSIC WINE IMPORTS INC","CORPORATION","CLASSIC WINE IMPORTS INC","CLASSIC WINE IMPORTS","LTR.0000184","LTR","184",,"TRANSPORTER LIQUOR","INACTIVE","INCOMPLETE APPLICATION","0",,,,"975 UNIVERSITY AVE","NORWOOD","MA","020622643","2017-05-02T00:00:00.000"
"1601590","C3 TRANSPORTATION SERVICES LLC","LIMITED LIABILITY COMPANY","C3 TRANSPORTATION SERVICES LLC","C3 TRANSPORTATION SERVICES","LTR.0000259","LTR","259",,"TRANSPORTER LIQUOR","APPROVED","CURRENT","1","2018-09-19T00:00:00.000","2022-09-19T00:00:00.000","2023-09-18T00:00:00.000","20 CYPRESS ST","NEW CITY","NY","109566444","2022-09-12T00:00:00.000"
"1806042","NFI INTERACTIVE LOGISTICS LLC","BUSINESS","NFI INTERACTIVE LOGISTICS LLC","NFI INTERACTIVE LOGISTICS LLC","LTR.0000268","LTR","268",,"TRANSPORTER LIQUOR","APPROVED","CURRENT","1","2019-11-15T00:00:00.000","2022-11-15T00:00:00.000","2023-11-14T00:00:00.000","2 COOPER PLZ","CAMDEN","NJ","081031461","2022-09-12T00:00:00.000"
"1995972","TRIUNFO SPECIALTY FOODS CORP","CORPORATION","TRIUNFO SPECIALTY FOODS CORP","TRIUNFO SPECIALTY FOODS CORP","LTR.0000270","LTR","270",,"TRANSPORTER LIQUOR","ACTIVE IN RENEWAL","CURRENT","1","2020-11-13T00:00:00.000","2021-11-13T00:00:00.000","2022-11-12T00:00:00.000","1600 S POWERLINE RD","DEERFIELD BEACH","FL","334428160","2021-10-27T00:00:00.000"
"217343","USA TRUCK LLC","INDIVIDUAL","USA TRUCK LLC","USA TRUCK LLC","LTR.0000040","LTR","40",,"TRANSPORTER LIQUOR","ACTIVE IN RENEWAL","CURRENT","1","2004-11-10T00:00:00.000","2021-11-10T00:00:00.000","2022-11-09T00:00:00.000","3108 INDUSTRIAL PARK RD","VAN BUREN","AR","72956","2022-05-13T00:00:00.000"
