"credentialid","name","type","businessname","dba","fullcredentialcode","credentialtype","credentialnumber","credentialsubcategory","credential","status","statusreason","active","issuedate","effectivedate","expirationdate","address","city","state","zip","recordrefreshedon"
"929763","BHCARE, INC.","CORPORATION","BHCARE, INC.","BHCARE, INC.","SA.0000354","SA","354",,"Substance Abuse","ACTIVE","CURRENT","1","2009-04-01T00:00:00.000","2021-04-01T00:00:00.000","2023-03-31T00:00:00.000","435 E MAIN ST","ANSONIA","CT","064011964","2022-06-16T00:00:00.000"
"1326607","BRIDGE FAMILY CENTER","NON-PROFIT CORPORATION","BRIDGE FAMILY CENTER","BRIDGE FAMILY CENTER","SA.0000499","SA","499",,"Substance Abuse","ACTIVE","CURRENT","1","2015-12-28T00:00:00.000","2021-10-01T00:00:00.000","2023-09-30T00:00:00.000","45 W MAIN ST","AVON","CT","060013791","2021-11-16T00:00:00.000"
"930312","ANGELUS HOUSE","CORPORATION","ANGELUS HOUSE","ANGELUS HOUSE","SA.0000263","SA","263",,"Substance Abuse","ACTIVE","CURRENT","1","2010-04-01T00:00:00.000","2022-04-01T00:00:00.000","2024-03-31T00:00:00.000","158 FLANDERS RD","BETHLEHEM","CT","067512207","2022-03-07T00:00:00.000"
"935961","NORTH CENTRAL COUNSELING SERVICES","CORPORATION","NORTH CENTRAL COUNSELING SERVICES","NORTH CENTRAL COUNSELING SERVICES","SA.0000397","SA","397",,"Substance Abuse","ACTIVE","CURRENT","1","2010-06-10T00:00:00.000","2021-07-01T00:00:00.000","2023-06-30T00:00:00.000","693 BLOOMFIELD AVE","BLOOMFIELD","CT","060022489","2022-09-08T00:00:00.000"
"2003001","SHORELINE FAMILY HEALTH CARE","CORPORATION","SHORELINE FAMILY HEALTH CARE","SHORELINE FAMILY HEALTH CARE","SA.0000606","SA","606",,"Substance Abuse","ACTIVE","CURRENT","1","2020-01-29T00:00:00.000","2022-01-01T00:00:00.000","2023-12-31T00:00:00.000","221 W MAIN ST","BRANFORD","CT","064054022","2022-08-24T00:00:00.000"
"1046208","BHCARE, INC.-SHORELINE CLINIC","CORPORATION","BHCARE, INC.-SHORELINE CLINIC","BHCARE, INC.-SHORELINE CLINIC","SA.0000426","SA","426",,"Substance Abuse","ACTIVE","CURRENT","1","2011-12-27T00:00:00.000","2022-01-01T00:00:00.000","2023-12-31T00:00:00.000","14 SYCAMORE WAY","BRANFORD","CT","064056551","2022-04-20T00:00:00.000"
"930214","CHILD AND FAMILY GUIDANCE CENTER, INC.","BUSINESS","CHILD AND FAMILY GUIDANCE CENTER, INC.","CHILD AND FAMILY GUIDANCE CENTER, INC.","SA.0000226","SA","226",,"Substance Abuse","ACTIVE","CURRENT","1","2008-07-01T00:00:00.000","2022-07-01T00:00:00.000","2024-06-30T00:00:00.000","180 FAIRFIELD AVE","BRIDGEPORT","CT","066044252","2022-06-10T00:00:00.000"
"2004566","CT RENAISSANCE","BUSINESS","CT RENAISSANCE","CT RENAISSANCE, IInc.","SA.0000607","SA","607",,"Substance Abuse","ACTIVE","CURRENT","1","2020-01-31T00:00:00.000","2022-01-01T00:00:00.000","2023-12-31T00:00:00.000","1126 MAIN ST","BRIDGEPORT","CT","066044404","2022-09-01T00:00:00.000"
"930081","LIBERATION METHADONE CLINIC (BRIDGEPORT)","CORPORATION","LIBERATION METHADONE CLINIC (BRIDGEPORT)","LIBERATION METHADONE CLINIC (BRIDGEPORT)","SA.0000290","SA","290",,"Substance Abuse","ACTIVE","CURRENT","1","2009-10-01T00:00:00.000","2021-10-01T00:00:00.000","2023-09-30T00:00:00.000","399 MILL HILL AVE","BRIDGEPORT","CT","066102865","2022-02-23T00:00:00.000"
"1434001","MCCA/BRIDGEPORT","CORPORATION","MCCA/BRIDGEPORT","MCCA/BRIDGEPORT","SA.0000538","SA","538",,"Substance Abuse","ACTIVE","CURRENT","1","2017-06-27T00:00:00.000","2021-04-01T00:00:00.000","2023-03-31T00:00:00.000","140 JOHN ST","BRIDGEPORT","CT","066044323","2022-05-12T00:00:00.000"
"969635","FIRST STEP","NON-PROFIT CORPORATION","FIRST STEP","FIRST STEP","SA.0000403","SA","403",,"Substance Abuse","ACTIVE","CURRENT","1","2010-10-05T00:00:00.000","2022-10-01T00:00:00.000","2024-09-30T00:00:00.000","425 GRANT ST","BRIDGEPORT","CT","066103222","2022-09-09T00:00:00.000"
"1791296","LIFEBRIDGE COMMUNITY SERVICES, INC.","NON-PROFIT CORPORATION","LIFEBRIDGE COMMUNITY SERVICES, INC.","LIFEBRIDGE COMMUNITY SERVICES, INC.","SA.0000599","SA","599",,"Substance Abuse","ACTIVE","CURRENT","1","2019-10-04T00:00:00.000","2021-10-01T00:00:00.000","2023-09-30T00:00:00.000","475 CLINTON AVE","BRIDGEPORT","CT","066051700","2022-05-19T00:00:00.000"
"930582","HORIZONS","BUSINESS","HORIZONS","HORIZONS","SA.0SA0079","SA","SA0079",,"Substance Abuse","ACTIVE","CURRENT","1","2009-04-01T00:00:00.000","2021-04-01T00:00:00.000","2023-03-31T00:00:00.000","1635 FAIRFIELD AVE","BRIDGEPORT","CT","066051984","2021-07-29T00:00:00.000"
"930504","PROJECT COURAGE","BUSINESS","PROJECT COURAGE","PROJECT COURAGE","SA.0SA0139","SA","SA0139",,"Substance Abuse","ACTIVE","CURRENT","1","2009-10-01T00:00:00.000","2021-10-01T00:00:00.000","2023-09-30T00:00:00.000","592 KOSSUTH ST","BRIDGEPORT","CT","066082204","2021-12-13T00:00:00.000"
"1231442","PARK CITY PRIMARY CARE CENTER","CORPORATION","PARK CITY PRIMARY CARE CENTER","PARK CITY PRIMARY CARE CENTER","SA.0000475","SA","475",,"Substance Abuse","ACTIVE","CURRENT","1","2014-06-26T00:00:00.000","2022-04-01T00:00:00.000","2024-03-31T00:00:00.000","64 BLACK ROCK AVE","BRIDGEPORT","CT","066051200","2022-04-20T00:00:00.000"
"1234052","OPTIMUS HEALTH CARE, INC.","CORPORATION","OPTIMUS HEALTH CARE, INC.","Ludwig M. Spinelli Building","SA.0000476","SA","476",,"Substance Abuse","ACTIVE","CURRENT","1","2014-07-10T00:00:00.000","2022-07-01T00:00:00.000","2024-06-30T00:00:00.000","471 BARNUM AVE","BRIDGEPORT","CT","066082409","2022-07-12T00:00:00.000"
"929854","RECOVERY COUNSELING SERVICES","NON-PROFIT CORPORATION","RECOVERY COUNSELING SERVICES","RECOVERY COUNSELING SERVICES","SA.0000307","SA","307",,"Substance Abuse","ACTIVE","CURRENT","1","2008-07-01T00:00:00.000","2022-07-01T00:00:00.000","2024-06-30T00:00:00.000","1549 FAIRFIELD AVE","BRIDGEPORT","CT","066051935","2022-06-01T00:00:00.000"
"1301300","KINSELLA TREATMENT CENTER","BUSINESS","KINSELLA TREATMENT CENTER","KINSELLA TREATMENT CENTER","SA.0000492","SA","492",,"Substance Abuse","ACTIVE","CURRENT","1","2015-07-23T00:00:00.000","2021-07-01T00:00:00.000","2023-06-30T00:00:00.000","1862 COMMERCE DR","BRIDGEPORT","CT","066052230","2021-09-22T00:00:00.000"
"929685","SOUTHWEST COMMUNITY HEALTH CENTER INC.","NON-PROFIT CORPORATION","SOUTHWEST COMMUNITY HEALTH CENTER INC.","SOUTHWEST COMMUNITY HEALTH CENTER, INC.","SA.0000363","SA","363",,"Substance Abuse","ACTIVE","CURRENT","1","2009-10-01T00:00:00.000","2021-10-01T00:00:00.000","2023-09-30T00:00:00.000","968 FAIRFIELD AVE","BRIDGEPORT","CT","066051116","2022-01-24T00:00:00.000"
"1313676","THE COMMUNITY CENTER FOR INTEGRATED HEALTH","BUSINESS","THE COMMUNITY CENTER FOR INTEGRATED HEALTH","THE COMMUNITY CENTER FOR INTEGRATED HEALTH","SA.0000495","SA","495",,"Substance Abuse","ACTIVE","CURRENT","1","2015-09-28T00:00:00.000","2021-07-01T00:00:00.000","2023-06-30T00:00:00.000","1438 PARK AVE","BRIDGEPORT","CT","066042512","2022-08-26T00:00:00.000"
"1384855","JAY BROTHERS UNIFIED RESOURCE CENTER","NON-PROFIT CORPORATION","JAY BROTHERS UNIFIED RESOURCE CENTER","JAY BROTHERS UNIFIED RESOURCE CENTER","SA.0000521","SA","521",,"Substance Abuse","ACTIVE","CURRENT","1","2016-10-18T00:00:00.000","2022-10-01T00:00:00.000","2024-09-30T00:00:00.000","480 BOND ST","BRIDGEPORT","CT","066102205","2022-08-23T00:00:00.000"
"1191415","SOUTHWEST COMMUNITY HEALTH CENTER, INC.","NON-PROFIT CORPORATION","SOUTHWEST COMMUNITY HEALTH CENTER, INC.","SOUTHWEST COMMUNITY HEALTH CENTER, INC.","SA.0000466","SA","466",,"Substance Abuse","ACTIVE","CURRENT","1","2013-10-29T00:00:00.000","2021-10-01T00:00:00.000","2023-09-30T00:00:00.000","46 ALBION ST","BRIDGEPORT","CT","066052602","2022-01-24T00:00:00.000"
"1358344","OPTIMUS HEALTH CARE, INC.","NON-PROFIT CORPORATION","OPTIMUS HEALTH CARE, INC.","OPTIMUS HEALTH CARE, INC.","SA.0000507","SA","507",,"Substance Abuse","ACTIVE","CURRENT","1","2016-06-03T00:00:00.000","2022-04-01T00:00:00.000","2024-03-31T00:00:00.000","982 E MAIN ST","BRIDGEPORT","CT","066081913","2022-04-07T00:00:00.000"
"930305","HARTFORD DISPENSARY-BRISTOL CLINIC","BUSINESS","HARTFORD DISPENSARY-BRISTOL CLINIC","HARTFORD DISPENSARY-BRISTOL CLINIC","SA.0000258","SA","258",,"Substance Abuse","ACTIVE","CURRENT","1","2010-01-01T00:00:00.000","2022-01-01T00:00:00.000","2023-12-31T00:00:00.000","1098 FARMINGTON AVE","BRISTOL","CT","060104705","2022-05-18T00:00:00.000"
"1436377","COMMUNITY HEALTH CENTER OF BRISTOL","CORPORATION","COMMUNITY HEALTH CENTER OF BRISTOL","COMMUNITY HEALTH CENTER OF BRISTOL","SA.0000542","SA","542",,"Substance Abuse","ACTIVE","CURRENT","1","2017-07-11T00:00:00.000","2021-07-01T00:00:00.000","2023-06-30T00:00:00.000","395 N MAIN ST","BRISTOL","CT","060104924","2021-12-09T00:00:00.000"
"1191249","WHEELER CLINIC: BRISTOL ADULT OUTPATIENT SERVICES","CORPORATION","WHEELER CLINIC: BRISTOL ADULT OUTPATIENT SERVICES","WHEELER CLINIC: BRISTOL ADULT OUTPATIENT SERVICES","SA.0000465","SA","465",,"Substance Abuse","ACTIVE","CURRENT","1","2013-11-01T00:00:00.000","2021-10-01T00:00:00.000","2023-09-30T00:00:00.000","10 N MAIN ST","BRISTOL","CT","060108122","2021-10-21T00:00:00.000"
"929521","MOUNTAINSIDE TREATMENT CENTER","LIMITED LIABILITY COMPANY (SINGLE MEMBER)","MOUNTAINSIDE TREATMENT CENTER","MOUNTAINSIDE TREATMENT CENTER","SA.0000388","SA","388",,"Substance Abuse","ACTIVE","CURRENT","1","2009-10-01T00:00:00.000","2021-10-01T00:00:00.000","2023-09-30T00:00:00.000","187 S CANAAN RD RTE 7","CANAAN","CT","060182544","2022-06-14T00:00:00.000"
"1616506","MCCALL FOUNDATION, INC.","CORPORATION","MCCALL FOUNDATION, INC.","MCCALL FOUNDATION, INC.","SA.0000578","SA","578",,"Substance Abuse","ACTIVE","CURRENT","1","2018-11-26T00:00:00.000","2022-10-01T00:00:00.000","2024-09-30T00:00:00.000","77 S CANAAN RD","CANAAN","CT","060182517","2022-08-23T00:00:00.000"
"1326145","RUSHFORD CENTER INC","NON-PROFIT CORPORATION","RUSHFORD CENTER INC","RUSHFORD CENTER INC","SA.0000497","SA","497",,"Substance Abuse","ACTIVE","CURRENT","1","2015-12-22T00:00:00.000","2021-10-01T00:00:00.000","2023-09-30T00:00:00.000","680 S MAIN ST # LL2","CHESHIRE","CT","064103181","2022-08-11T00:00:00.000"
"1436379","COMMUNITY HEALTH CENTER OF CLINTON","CORPORATION","COMMUNITY HEALTH CENTER OF CLINTON","COMMUNITY HEALTH CENTER OF CLINTON","SA.0000543","SA","543",,"Substance Abuse","ACTIVE","CURRENT","1","2017-07-11T00:00:00.000","2021-07-01T00:00:00.000","2023-06-30T00:00:00.000","114 E MAIN ST","CLINTON","CT","064132112","2021-12-22T00:00:00.000"
"929877","CONNECTICUT COUNSELING CENTERS INC.","CORPORATION","CONNECTICUT COUNSELING CENTERS INC.","CONNECTICUT COUNSELING CENTERS, INC","SA.0000326","SA","326",,"Substance Abuse","ACTIVE","CURRENT","1","2009-07-01T00:00:00.000","2021-07-01T00:00:00.000","2023-06-30T00:00:00.000","60 BEAVER BROOK RD","DANBURY","CT","068106239","2021-08-23T00:00:00.000"
"1236705","FAMILY & CHILDREN'S AID, INC.","NON-PROFIT CORPORATION","FAMILY & CHILDREN'S AID, INC.","Family & Children's Aid, Inc","SA.0000480","SA","480",,"Substance Abuse","ACTIVE","CURRENT","1","2014-07-25T00:00:00.000","2022-07-01T00:00:00.000","2024-06-30T00:00:00.000","80 WEST ST","DANBURY","CT","068106531","2022-06-06T00:00:00.000"
"930962","MCCA","CORPORATION","MCCA","MCCA","SA.0SA0215","SA","SA0215",,"Substance Abuse","ACTIVE","CURRENT","1","2010-01-01T00:00:00.000","2022-01-01T00:00:00.000","2023-12-31T00:00:00.000","38 OLD RIDGEBURY RD","DANBURY","CT","068105128","2021-12-09T00:00:00.000"
"1054181","BLUE SKY BEHAVIORAL CLINIC","LIMITED LIABILITY COMPANY","BLUE SKY BEHAVIORAL CLINIC","BLUE SKY BEHAVIORAL  CLINIC","SA.0000428","SA","428",,"Substance Abuse","ACTIVE","CURRENT","1","2012-02-28T00:00:00.000","2022-01-01T00:00:00.000","2023-12-31T00:00:00.000","52 FEDERAL RD","DANBURY","CT","068106162","2021-12-02T00:00:00.000"
"2383941","TRAVISANO OUTPATIENT CLINIC","NON-PROFIT CORPORATION","TRAVISANO OUTPATIENT CLINIC","TRAVISANO OUTPATIENT CLINIC","SA.0000654","SA","654",,"Substance Abuse","ACTIVE","CURRENT","1","2022-07-01T00:00:00.000","2022-07-01T00:00:00.000","2024-06-30T00:00:00.000","24 SHELTER ROCK RD","DANBURY","CT","068107168","2022-07-01T00:00:00.000"
"2300835","GREATER DANBURY COMMUNITY HEALTH CENTER","NON-PROFIT CORPORATION","GREATER DANBURY COMMUNITY HEALTH CENTER","GREATER DANBURY COMMUNITY HEALTH CENTER","SA.0000650","SA","650",,"Substance Abuse","ACTIVE","CURRENT","1","2022-04-22T00:00:00.000","2022-04-22T00:00:00.000","2024-03-31T00:00:00.000","70 MAIN ST","DANBURY","CT","068107832","2022-04-29T00:00:00.000"
"1431336","CHR OUTPATIENT SERVICES, DANIELSON","CORPORATION","CHR OUTPATIENT SERVICES, DANIELSON","CHR OUTPATIENT SERVICES, DANIELSON","SA.0000532","SA","532",,"Substance Abuse","ACTIVE","CURRENT","1","2017-06-14T00:00:00.000","2021-04-01T00:00:00.000","2023-03-31T00:00:00.000","71 WESTCOTT RD","DANIELSON","CT","062392929","2022-05-12T00:00:00.000"
"1601479","NEWPORT ACADEMY","LIMITED LIABILITY COMPANY","NEWPORT ACADEMY","NEWPORT ACADEMY","SA.0000575","SA","575",,"Substance Abuse","ACTIVE","CURRENT","1","2018-10-30T00:00:00.000","2022-07-01T00:00:00.000","2024-06-30T00:00:00.000","85 OLD KINGS HWY N","DARIEN","CT","068204732","2022-05-17T00:00:00.000"
"930057","UNITED SERVICES INC.","CORPORATION","UNITED SERVICES INC.","UNITED SERVICES, INC.","SA.0000278","SA","278",,"Substance Abuse","ACTIVE","CURRENT","1","2008-07-01T00:00:00.000","2022-07-01T00:00:00.000","2024-06-30T00:00:00.000","1007 N MAIN ST","DAYVILLE","CT","062412170","2022-08-31T00:00:00.000"
"1173586","MCCA/DERBY","CORPORATION","MCCA/DERBY","MCCA/DERBY","SA.0000459","SA","459",,"Substance Abuse","ACTIVE","CURRENT","1","2013-07-08T00:00:00.000","2021-07-01T00:00:00.000","2023-06-30T00:00:00.000","100 ELIZABETH ST","DERBY","CT","064181819","2022-06-03T00:00:00.000"
"929681","INTERCOMMUNITY INC.","SOLE PROPRIETOR","INTERCOMMUNITY INC.","INTERCOMMUNITY, INC.","SA.0000358","SA","358",,"Substance Abuse","ACTIVE","CURRENT","1","2009-07-01T00:00:00.000","2021-04-01T00:00:00.000","2023-03-31T00:00:00.000","281 MAIN ST","EAST HARTFORD","CT","061181823","2021-10-07T00:00:00.000"
"1355035","FIRST CHOICE HEALTH CENTERS, INC","CORPORATION","FIRST CHOICE HEALTH CENTERS, INC","FIRST CHOICE HEALTH CENTERS, INC","SA.0000506","SA","506",,"Substance Abuse","ACTIVE","CURRENT","1","2016-05-18T00:00:00.000","2022-04-01T00:00:00.000","2024-03-31T00:00:00.000","92 CONNECTICUT BLVD","EAST HARTFORD","CT","061083013","2022-07-11T00:00:00.000"
"2234037","FIRST CHOICE HEALTH CENTERS, INC.","NON-PROFIT CORPORATION","FIRST CHOICE HEALTH CENTERS, INC.","FIRST CHOICE HEALTH CENTERS, INC.","SA.0000633","SA","633",,"Substance Abuse","ACTIVE","CURRENT","1","2021-07-13T00:00:00.000","2021-07-12T00:00:00.000","2023-06-30T00:00:00.000","478 BURNSIDE AVE FLR 2","EAST HARTFORD","CT","061082425","2021-07-13T00:00:00.000"
"1591620","CHR OUTPATIENT SERVICES, EAST HARTFORD","CORPORATION","CHR OUTPATIENT SERVICES, EAST HARTFORD","CHR OUTPATIENT SERVICES, EAST HARTFORD","SA.0000571","SA","571",,"Substance Abuse","ACTIVE","CURRENT","1","2018-08-09T00:00:00.000","2022-07-01T00:00:00.000","2024-06-30T00:00:00.000","474R SCHOOL ST","EAST HARTFORD","CT","061081149","2022-05-16T00:00:00.000"
"992679","INTERCOMMUNITY INC.","CORPORATION","INTERCOMMUNITY INC.","INTERCOMMUNITY INC.","SA.0000416","SA","416",,"Substance Abuse","ACTIVE","CURRENT","1","2011-04-08T00:00:00.000","2021-04-01T00:00:00.000","2023-03-31T00:00:00.000","287 MAIN ST","EAST HARTFORD","CT","061181885","2021-10-07T00:00:00.000"
"1436374","COMMUNITY HEALTH CENTER OF ENFIELD","CORPORATION","COMMUNITY HEALTH CENTER OF ENFIELD","COMMUNITY HEALTH CENTER OF ENFIELD","SA.0000540","SA","540",,"Substance Abuse","ACTIVE","CURRENT","1","2017-07-11T00:00:00.000","2021-07-01T00:00:00.000","2023-06-30T00:00:00.000","5 N MAIN ST","ENFIELD","CT","060823372","2021-11-19T00:00:00.000"
"935974","NORTH CENTRAL COUNSELING SERVICES","CORPORATION","NORTH CENTRAL COUNSELING SERVICES","NORTH CENTRAL COUNSELING SERVICES","SA.0000399","SA","399",,"Substance Abuse","ACTIVE","CURRENT","1","2010-06-10T00:00:00.000","2022-04-01T00:00:00.000","2024-03-31T00:00:00.000","153 HAZARD AVE","ENFIELD","CT","060824592","2022-02-24T00:00:00.000"
"1433393","CLAYTON HOUSE","CORPORATION","CLAYTON HOUSE","CLAYTON HOUSE","SA.0000535","SA","535",,"Substance Abuse","ACTIVE","CURRENT","1","2017-06-23T00:00:00.000","2021-07-01T00:00:00.000","2023-06-30T00:00:00.000","203 WILLIAMS ST E","GLASTONBURY","CT","060332301","2021-08-02T00:00:00.000"
"1183872","GREENWICH FAMILY AND YOUTH OPTIONS","CORPORATION","GREENWICH FAMILY AND YOUTH OPTIONS","GREENWICH FAMILY AND YOUTH OPTIONS","SA.0000462","SA","462",,"Substance Abuse","ACTIVE","CURRENT","1","2013-09-10T00:00:00.000","2021-07-01T00:00:00.000","2023-06-30T00:00:00.000","50 E PUTNAM AVE","GREENWICH","CT","068305601","2022-06-20T00:00:00.000"
"2219274","CONNECTICUT CENTER FOR RECOVERY","LIMITED LIABILITY COMPANY","CONNECTICUT CENTER FOR RECOVERY","CONNECTICUT CENTER FOR RECOVERY","SA.0000631","SA","631",,"Substance Abuse","ACTIVE","CURRENT","1","2021-05-27T00:00:00.000","2021-05-26T00:00:00.000","2023-03-31T00:00:00.000","177 W PUTNAM AVE","GREENWICH","CT","068305203","2021-05-27T00:00:00.000"
"1529636","UNITED COMMUNITY & FAMILY SERVICES, INC","CORPORATION","UNITED COMMUNITY & FAMILY SERVICES, INC","UNITED COMMUNITY AND FAMILY SERVICES, INC","SA.0000569","SA","569",,"Substance Abuse","ACTIVE","CURRENT","1","2018-07-11T00:00:00.000","2022-07-01T00:00:00.000","2024-06-30T00:00:00.000","226 E MAIN ST","GRISWOLD","CT","063512110","2022-06-20T00:00:00.000"
"1239932","STONINGTON INSTITUTE","BUSINESS","STONINGTON INSTITUTE","STONINGTON INSTITUTE","SA.0000482","SA","482",,"Substance Abuse","ACTIVE","CURRENT","1","2014-08-13T00:00:00.000","2022-07-01T00:00:00.000","2024-06-30T00:00:00.000","618 POQUONNOCK RD","GROTON","CT","063404515","2022-06-03T00:00:00.000"
"930231","CHILD & FAMILY AGENCY OF SOUTHEASTERN CONNECTICUT, INC. GROTON/MYSTIC CAMPUS","NON-PROFIT CORPORATION","CHILD & FAMILY AGENCY OF SOUTHEASTERN CONNECTICUT, INC. GROTON/MYSTIC CAMPUS","CHILD AND FAMILY AGENCY OF SOUTHEASTERN CONNECTICUT, INC.","SA.0000244","SA","244",,"Substance Abuse","ACTIVE","CURRENT","1","2009-07-01T00:00:00.000","2021-07-01T00:00:00.000","2023-06-30T00:00:00.000","591 POQUONNOCK RD","GROTON","CT","063404571","2022-06-16T00:00:00.000"
"930075","BEHAVIORAL HEALTH SERVICES AT HAMDEN","BUSINESS","BEHAVIORAL HEALTH SERVICES AT HAMDEN","BEHAVIORAL HEALTH SERVICES AT HAMDEN","SA.0000286","SA","286",,"Substance Abuse","ACTIVE","CURRENT","1","2009-04-01T00:00:00.000","2021-04-01T00:00:00.000","2023-03-31T00:00:00.000","95 CIRCULAR AVE","HAMDEN","CT","065144004","2022-05-19T00:00:00.000"
"930489","CHILDREN'S CENTER OF HAMDEN INC.","CORPORATION","CHILDREN'S CENTER OF HAMDEN INC.","CHILDREN'S CENTER OF HAMDEN, INC., THE","SA.0SA0093","SA","SA0093",,"Substance Abuse","ACTIVE","CURRENT","1","2010-01-01T00:00:00.000","2022-01-01T00:00:00.000","2023-12-31T00:00:00.000","1400 WHITNEY AVE","HAMDEN","CT","065172459","2022-04-22T00:00:00.000"
"2248142","INTERCOMMUNITY INTENSIVE AND INTERMEDIATE PROGRAMS","NON-PROFIT CORPORATION","INTERCOMMUNITY INTENSIVE AND INTERMEDIATE PROGRAMS","INTENSIVE AND INTERMEDIATE PROGRAMS, INTERCOMMUNITY","SA.0000636","SA","636",,"Substance Abuse","ACTIVE","CURRENT","1","2021-09-01T00:00:00.000","2021-08-31T00:00:00.000","2023-06-30T00:00:00.000","56 COVENTRY ST","HARTFORD","CT","061121524","2021-09-01T00:00:00.000"
"1469947","WHEELER CLINIC, INC.","NON-PROFIT CORPORATION","WHEELER CLINIC, INC.","WHEELER CLINIC, INC.","SA.0000558","SA","558",,"Substance Abuse","ACTIVE","CURRENT","1","2018-01-09T00:00:00.000","2022-01-01T00:00:00.000","2023-12-31T00:00:00.000","43 WOODLAND ST","HARTFORD","CT","061052363","2022-02-04T00:00:00.000"
"1470012","PATHWAYS HCC","NON-PROFIT CORPORATION","PATHWAYS HCC","PATHWAYS HCC","SA.0000559","SA","559",,"Substance Abuse","ACTIVE","CURRENT","1","2018-01-09T00:00:00.000","2022-01-01T00:00:00.000","2023-12-31T00:00:00.000","177 WESTON ST","HARTFORD","CT","061201514","2022-01-06T00:00:00.000"
"930831","HARTFORD DISPENSARY HENDERSON/JOHNSON CLINIC","CORPORATION","HARTFORD DISPENSARY HENDERSON/JOHNSON CLINIC","HARTFORD DISPENSARY HENDERSON/JOHNSON CLINIC","SA.0SA0036","SA","SA0036",,"Substance Abuse","ACTIVE","CURRENT","1","2009-04-01T00:00:00.000","2021-04-01T00:00:00.000","2023-03-31T00:00:00.000","12-14 WESTON ST","HARTFORD","CT","061201504","2022-05-18T00:00:00.000"
"2297026","CHR HARTFORD - OUTPATIENT SERVICES","NON-PROFIT CORPORATION","CHR HARTFORD - OUTPATIENT SERVICES","CHR HARTFORD - OUTPATIENT SERVICES","SA.0000645","SA","645",,"Substance Abuse","ACTIVE","CURRENT","1","2022-02-07T00:00:00.000","2022-02-07T00:00:00.000","2023-12-31T00:00:00.000","999 ASYLUM AVE STE 502","HARTFORD","CT","061052475","2022-02-08T00:00:00.000"
"930830","HARTFORD DISPENSARY/DOCTORS CLINIC","CORPORATION","HARTFORD DISPENSARY/DOCTORS CLINIC","HARTFORD DISPENSARY/DOCTORS CLINIC","SA.0SA0037","SA","SA0037",,"Substance Abuse","ACTIVE","CURRENT","1","2009-04-01T00:00:00.000","2021-04-01T00:00:00.000","2023-03-31T00:00:00.000","345 MAIN ST","HARTFORD","CT","061061824","2022-05-18T00:00:00.000"
"1050219","COMMUNITY RENEWAL TEAM, INC BEHAVIORAL HEALTH","CORPORATION","COMMUNITY RENEWAL TEAM, INC BEHAVIORAL HEALTH","COMMUNITY RENEWAL TEAM, INC BEHAVIORAL HEALTH","SA.0000427","SA","427",,"Substance Abuse","ACTIVE","CURRENT","1","2012-01-31T00:00:00.000","2022-01-01T00:00:00.000","2023-12-31T00:00:00.000","330 MARKET ST","HARTFORD","CT","061202901","2022-01-07T00:00:00.000"
"930233","HARTFORD DISPENSARY-16-18 WESTON STREET","CORPORATION","HARTFORD DISPENSARY-16-18 WESTON STREET","HARTFORD DISPENSARY-16-18 WESTON STREET","SA.0000246","SA","246",,"Substance Abuse","ACTIVE","CURRENT","1","2009-04-01T00:00:00.000","2021-04-01T00:00:00.000","2023-03-31T00:00:00.000","16-18 WESTON STREET","HARTFORD","CT","06120","2022-05-18T00:00:00.000"
"1433415","COVENTRY HOUSE","CORPORATION","COVENTRY HOUSE","COVENTRY HOUSE","SA.0000537","SA","537",,"Substance Abuse","ACTIVE","CURRENT","1","2017-06-23T00:00:00.000","2021-07-01T00:00:00.000","2023-06-30T00:00:00.000","46 COVENTRY ST","HARTFORD","CT","061121524","2021-09-15T00:00:00.000"
"1433402","DETOXIFICATION CENTER/INTERMEDIATE & INTENSIVE RESIDENTIAL TREATMENT","NON-PROFIT CORPORATION","DETOXIFICATION CENTER/INTERMEDIATE & INTENSIVE RESIDENTIAL TREATMENT","DETOXIFICATION CENTER/INTERMEDIATE & INTENSIVE RESIDENTIAL TREATMENT","SA.0000536","SA","536",,"Substance Abuse","ACTIVE","CURRENT","1","2017-06-23T00:00:00.000","2021-07-01T00:00:00.000","2023-06-30T00:00:00.000","500 BLUE HILLS AVE","HARTFORD","CT","061121500","2021-09-01T00:00:00.000"
"1433380","OUTPATIENT COUNSELING CENTER","CORPORATION","OUTPATIENT COUNSELING CENTER","OUTPATIENT COUNSELING CENTER","SA.0000534","SA","534",,"Substance Abuse","ACTIVE","CURRENT","1","2017-06-23T00:00:00.000","2021-07-01T00:00:00.000","2023-06-30T00:00:00.000","16 COVENTRY ST","HARTFORD","CT","061121524","2021-09-15T00:00:00.000"
"930592","COMMUNITY HEALTH SERVICES INC.","CORPORATION","COMMUNITY HEALTH SERVICES INC.","COMMUNITY HEALTH SERVICES, INC.","SA.0000220","SA","220",,"Substance Abuse","ACTIVE","CURRENT","1","2010-01-01T00:00:00.000","2022-01-01T00:00:00.000","2023-12-31T00:00:00.000","500 ALBANY AVE","HARTFORD","CT","061202508","2022-04-29T00:00:00.000"
"1376114","CHARTER OAK HEALTH CENTER INC.","CORPORATION","CHARTER OAK HEALTH CENTER INC.","CHARTER OAK HEALTH CENTER, INC.","SA.0000512","SA","512",,"Substance Abuse","ACTIVE","CURRENT","1","2016-08-29T00:00:00.000","2022-01-01T00:00:00.000","2023-12-31T00:00:00.000","21 GRAND ST","HARTFORD","CT","061061541","2022-01-07T00:00:00.000"
"930590","VILLAGE FOR FAMILIES & CHILDREN INC.","CORPORATION","VILLAGE FOR FAMILIES & CHILDREN INC.","VILLAGE FOR FAMILIES & CHILDREN, INC.","SA.0000285","SA","285",,"Substance Abuse","ACTIVE","CURRENT","1","2009-04-01T00:00:00.000","2021-04-01T00:00:00.000","2023-03-31T00:00:00.000","331 WETHERSFIELD AVE","HARTFORD","CT","061141420","2021-11-05T00:00:00.000"
"930589","VILLAGE FOR FAMILIES & CHILDREN INC.","CORPORATION","VILLAGE FOR FAMILIES & CHILDREN INC.","VILLAGE FOR FAMILIES & CHILDREN, INC.","SA.0SA0218","SA","SA0218",,"Substance Abuse","ACTIVE","CURRENT","1","2009-10-01T00:00:00.000","2021-10-01T00:00:00.000","2023-09-30T00:00:00.000","1680 ALBANY AVE","HARTFORD","CT","061051001","2021-09-22T00:00:00.000"
"930094","INSTITUTE FOR THE HISPANIC FAMILY","BUSINESS","INSTITUTE FOR THE HISPANIC FAMILY","INSTITUTE FOR THE HISPANIC FAMILY","SA.0000367","SA","367",,"Substance Abuse","ACTIVE","CURRENT","1","2010-04-01T00:00:00.000","2022-04-01T00:00:00.000","2024-03-31T00:00:00.000","45 WADSWORTH ST","HARTFORD","CT","061067108","2022-07-19T00:00:00.000"
"930507","COMMUNITY SUBSTANCE ABUSE CENTERS INC.","CORPORATION","COMMUNITY SUBSTANCE ABUSE CENTERS INC.","COMMUNITY SUBSTANCE ABUSE CENTERS, INC.","SA.0SA0155","SA","SA0155",,"Substance Abuse","ACTIVE","CURRENT","1","2009-07-01T00:00:00.000","2021-07-01T00:00:00.000","2023-06-30T00:00:00.000","55 FISHFRY ST","HARTFORD","CT","061201203","2021-10-20T00:00:00.000"
"1160319","TRINITY GLEN WOMEN'S","CORPORATION","TRINITY GLEN WOMEN'S","TRINITY GLEN WOMEN'S","SA.0000454","SA","454",,"Substance Abuse","ACTIVE","CURRENT","1","2013-04-24T00:00:00.000","2021-04-01T00:00:00.000","2023-03-31T00:00:00.000","62-64 KENT CORNWALL RD","KENT","CT","06757","2021-07-22T00:00:00.000"
"930576","HIGH WATCH RECOVERY CENTER INC.","NON-PROFIT CORPORATION","HIGH WATCH RECOVERY CENTER INC.","HIGH WATCH RECOVERY CENTER","SA.0SA0021","SA","SA0021",,"Substance Abuse","ACTIVE","CURRENT","1","2009-04-01T00:00:00.000","2022-01-01T00:00:00.000","2023-12-31T00:00:00.000","62 CARTER RD","KENT","CT","067570607","2022-07-21T00:00:00.000"
"930875","LEBANON PINES LONG TERM CARE","BUSINESS","LEBANON PINES LONG TERM CARE","LEBANON PINES LONG TERM CARE","SA.0SA0020","SA","SA0020",,"Substance Abuse","ACTIVE","CURRENT","1","2009-07-01T00:00:00.000","2021-07-01T00:00:00.000","2023-06-30T00:00:00.000","37A CAMP MOWEEN RD","LEBANON","CT","062492704","2021-07-30T00:00:00.000"
"929874","CONNECTICUT JUNIOR REPUBLIC ASSOCIATION, INC.","CORPORATION","CONNECTICUT JUNIOR REPUBLIC ASSOCIATION, INC.","CONNECTICUT JUNIOR REPUBLIC ASSOCIATION, INC.","SA.0000321","SA","321",,"Substance Abuse","ACTIVE","CURRENT","1","2009-04-01T00:00:00.000","2021-04-01T00:00:00.000","2023-03-31T00:00:00.000","550 GOSHEN RD","LITCHFIELD","CT","067592405","2022-04-27T00:00:00.000"
"1470490","RECOVERY SERVICES OF CONNECTICUT LLC","LIMITED LIABILITY COMPANY","RECOVERY SERVICES OF CONNECTICUT LLC","RECOVERY SERVICES OF CONNECTICUT LLC","SA.0000560","SA","560",,"Substance Abuse","ACTIVE","CURRENT","1","2018-01-11T00:00:00.000","2022-01-01T00:00:00.000","2023-12-31T00:00:00.000","71 BRADLEY RD UNIT 6","MADISON","CT","064432662","2022-08-17T00:00:00.000"
"2234526","WILDWOOD BEHAVIORAL HEALTH","LIMITED LIABILITY COMPANY","WILDWOOD BEHAVIORAL HEALTH","WILDWOOD BEHAVIORAL HEALTH","SA.0000634","SA","634",,"Substance Abuse","ACTIVE","CURRENT","1","2021-07-14T00:00:00.000","2021-07-12T00:00:00.000","2023-06-30T00:00:00.000","1250 DURHAM RD","MADISON","CT","064438015","2021-07-14T00:00:00.000"
"1367211","CHR MANCHESTER","CORPORATION","CHR MANCHESTER","CHR MANCHESTER","SA.0000510","SA","510",,"Substance Abuse","ACTIVE","CURRENT","1","2016-07-18T00:00:00.000","2022-07-01T00:00:00.000","2024-06-30T00:00:00.000","444 CENTER ST","MANCHESTER","CT","060403926","2022-05-17T00:00:00.000"
"929704","HARTFORD DISPENSARY-MANCHESTER CLINIC","BUSINESS","HARTFORD DISPENSARY-MANCHESTER CLINIC","Root Center for Advanced Recovery","SA.0000366","SA","366",,"Substance Abuse","ACTIVE","CURRENT","1","2010-04-01T00:00:00.000","2022-04-01T00:00:00.000","2024-03-31T00:00:00.000","335 BROAD ST","MANCHESTER","CT","060404036","2022-07-07T00:00:00.000"
"1666009","UNITED SERVICES, INC.","CORPORATION","UNITED SERVICES, INC.","UNITED SERVICES, INC.","SA.0000593","SA","593",,"Substance Abuse","ACTIVE","CURRENT","1","2019-06-04T00:00:00.000","2021-04-01T00:00:00.000","2023-03-31T00:00:00.000","140 N FRONTAGE RD","MANSFIELD CENTER","CT","062501648","2022-04-05T00:00:00.000"
"930603","CHILD GUIDANCE CLINIC FOR CENTRAL CONNECTICUT INC.","BUSINESS","CHILD GUIDANCE CLINIC FOR CENTRAL CONNECTICUT INC.","CHILD GUIDANCE CLINIC FOR CENTRAL CONNECTICUT, INC.","SA.0000384","SA","384",,"Substance Abuse","ACTIVE","CURRENT","1","2009-06-11T00:00:00.000","2021-04-01T00:00:00.000","2023-03-31T00:00:00.000","384 PRATT ST","MERIDEN","CT","064508627","2022-06-16T00:00:00.000"
"1500314","CONNECTICUT COUNSELING CENTERS INC.","CORPORATION","CONNECTICUT COUNSELING CENTERS INC.","CONNECTICUT COUNSELING CENTERS INC.","SA.0000564","SA","564",,"Substance Abuse","ACTIVE","CURRENT","1","2018-03-23T00:00:00.000","2022-01-01T00:00:00.000","2023-12-31T00:00:00.000","290 PRATT ST STE 2312","MERIDEN","CT","064508600","2022-03-24T00:00:00.000"
"1670664","COMMUNITY HEALTH CENTER OF MERIDEN","NON-PROFIT CORPORATION","COMMUNITY HEALTH CENTER OF MERIDEN","COMMUNITY HEALTH CENTER OF MERIDEN","SA.0000596","SA","596",,"Substance Abuse","ACTIVE","CURRENT","1","2019-06-21T00:00:00.000","2021-04-01T00:00:00.000","2023-03-31T00:00:00.000","134 STATE ST","MERIDEN","CT","064503293","2022-04-13T00:00:00.000"
"930082","RUSHFORD CENTER INC.","NON-PROFIT CORPORATION","RUSHFORD CENTER INC.","RUSHFORD CENTER INC","SA.0000292","SA","292",,"Substance Abuse","ACTIVE","CURRENT","1","2009-10-01T00:00:00.000","2021-10-01T00:00:00.000","2023-09-30T00:00:00.000","883 PADDOCK AVE","MERIDEN","CT","064507044","2022-04-08T00:00:00.000"
"2208096","CONNECTICUT COUNSELING CENTERS, INC.","BUSINESS","CONNECTICUT COUNSELING CENTERS, INC.","CONNECTICUT COUNSELING CENTERS, INC.","SA.0000630","SA","630",,"Substance Abuse","ACTIVE","CURRENT","1","2021-04-28T00:00:00.000","2021-04-20T00:00:00.000","2023-03-31T00:00:00.000","285 KENSINGTON AVE","MERIDEN","CT","064512017","2021-04-28T00:00:00.000"
"1806086","ROOT CENTER FOR ADVANCED RECOVERY","CORPORATION","ROOT CENTER FOR ADVANCED RECOVERY","Hartford Dispensary (dba Root Center for Advanced Recovery)","SA.0000600","SA","600",,"Substance Abuse","ACTIVE","CURRENT","1","2019-11-13T00:00:00.000","2021-10-01T00:00:00.000","2023-09-30T00:00:00.000","520 SAYBROOK RD STE 105","MIDDLETOWN","CT","064574700","2021-09-16T00:00:00.000"
"930843","HALLIE HOUSE WOMEN AND CHILDREN'S CENTER","CORPORATION","HALLIE HOUSE WOMEN AND CHILDREN'S CENTER","HALLIE HOUSE WOMEN AND CHILDREN'S CENTER","SA.0SA0105","SA","SA0105",,"Substance Abuse","ACTIVE","CURRENT","1","2010-01-01T00:00:00.000","2022-01-01T00:00:00.000","2023-12-31T00:00:00.000","99 EASTERN DR","MIDDLETOWN","CT","064573947","2022-01-06T00:00:00.000"
"1437743","COMMUNITY HEALTH CENTER OF MIDDLETOWN","CORPORATION","COMMUNITY HEALTH CENTER OF MIDDLETOWN","COMMUNITY HEALTH CENTER OF MIDDLETOWN","SA.0000545","SA","545",,"Substance Abuse","ACTIVE","CURRENT","1","2017-07-18T00:00:00.000","2021-04-01T00:00:00.000","2023-03-31T00:00:00.000","675 MAIN ST","MIDDLETOWN","CT","064572732","2022-08-11T00:00:00.000"
"930584","RUSHFORD CENTER INC.","NON-PROFIT CORPORATION","RUSHFORD CENTER INC.","RUSHFORD CENTER INC","SA.0SA0090","SA","SA0090",,"Substance Abuse","ACTIVE","CURRENT","1","2009-10-01T00:00:00.000","2021-10-01T00:00:00.000","2023-09-30T00:00:00.000","1250 SILVER ST","MIDDLETOWN","CT","064573946","2022-04-08T00:00:00.000"
"2012280","BRIDGE'S RM4 OUTPATIENT PROGRAM","CORPORATION","BRIDGE'S RM4 OUTPATIENT PROGRAM","BRIDGE'S RM4 OUTPATIENT PROGRAM","SA.0000611","SA","611",,"Substance Abuse","ACTIVE","CURRENT","1","2020-02-26T00:00:00.000","2022-01-01T00:00:00.000","2023-12-31T00:00:00.000","570 BOSTON POST RD","MILFORD","CT","064602636","2022-04-29T00:00:00.000"
"1670537","FARRELL TREATMENT CENTER","CORPORATION","FARRELL TREATMENT CENTER","FARRELL TREATMENT CENTER","SA.0000594","SA","594",,"Substance Abuse","ACTIVE","CURRENT","1","2019-06-21T00:00:00.000","2021-04-01T00:00:00.000","2023-03-31T00:00:00.000","19 BASSETT ST","NEW BRITAIN","CT","06051","2021-10-27T00:00:00.000"
"2295789","CONNECTICUT JUNIOR REPUBLIC ASSOCIATION, INC","NON-PROFIT CORPORATION","CONNECTICUT JUNIOR REPUBLIC ASSOCIATION, INC","CONNECTICUT JUNIOR REPUBLIC ASSOCIATION, INC","SA.0000646","SA","646",,"Substance Abuse","ACTIVE","CURRENT","1","2022-03-15T00:00:00.000","2022-03-11T00:00:00.000","2023-12-31T00:00:00.000","55 WINTHROP ST","NEW BRITAIN","CT","060521728","2022-03-15T00:00:00.000"
"1444439","COMMUNITY HEALTH CENTER OF NEW BRITAIN","NON-PROFIT CORPORATION","COMMUNITY HEALTH CENTER OF NEW BRITAIN","COMMUNITY HEALTH CENTER OF NEW BRITAIN","SA.0000549","SA","549",,"Substance Abuse","ACTIVE","CURRENT","1","2017-08-22T00:00:00.000","2021-07-01T00:00:00.000","2023-06-30T00:00:00.000","85 LAFAYETTE ST","NEW BRITAIN","CT","060511803","2021-12-02T00:00:00.000"
"972610","COMMUNITY HEALTH CENTER OF WHEREVER YOU ARE FRIENDSHIP SERVICES CENTER","CORPORATION","COMMUNITY HEALTH CENTER OF WHEREVER YOU ARE FRIENDSHIP SERVICES CENTER","COMMUNITY HEALTH CENTER OF WHEREVER YOU ARE FRIENDSHIP SERVICES CENTER","SA.0000404","SA","404",,"Substance Abuse","ACTIVE","CURRENT","1","2010-10-25T00:00:00.000","2022-10-01T00:00:00.000","2024-09-30T00:00:00.000","241-249 ARCH ST","NEW BRITAIN","CT","060512518","2022-08-23T00:00:00.000"
"2288432","CHR NEW BRITAIN - OUTPATIENT SERVICES","NON-PROFIT CORPORATION","CHR NEW BRITAIN - OUTPATIENT SERVICES","CHR NEW BRITAIN - OUTPATIENT SERVICES","SA.0000642","SA","642",,"Substance Abuse","ACTIVE","CURRENT","1","2022-02-07T00:00:00.000","2022-02-07T00:00:00.000","2023-12-31T00:00:00.000","1 HERALD SQ","NEW BRITAIN","CT","060515009","2022-02-08T00:00:00.000"
"2288863","ROOT CENTER FOR ADVANCED RECOVERY - NEW BRITAIN CLINIC","BUSINESS","ROOT CENTER FOR ADVANCED RECOVERY - NEW BRITAIN CLINIC","ROOT CENTER FOR ADVANCED RECOVERY - NEW BRITAIN CLINIC","SA.0000643","SA","643",,"Substance Abuse","ACTIVE","CURRENT","1","2022-01-14T00:00:00.000","2022-01-14T00:00:00.000","2023-12-31T00:00:00.000","542 E MAIN ST","NEW BRITAIN","CT","060512042","2022-05-18T00:00:00.000"
"1670551","FARRELL TREATMENT CENTER","CORPORATION","FARRELL TREATMENT CENTER","FARRELL TREATMENT CENTER","SA.0000595","SA","595",,"Substance Abuse","ACTIVE","CURRENT","1","2019-06-21T00:00:00.000","2021-04-01T00:00:00.000","2023-03-31T00:00:00.000","586 MAIN ST","NEW BRITAIN","CT","060511812","2021-07-27T00:00:00.000"
"2227283","WHEELER CLINIC, INC.","NON-PROFIT CORPORATION","WHEELER CLINIC, INC.","WHEELER CLINIC, INC.","SA.0000632","SA","632",,"Substance Abuse","ACTIVE","CURRENT","1","2021-06-18T00:00:00.000","2021-06-18T00:00:00.000","2023-03-31T00:00:00.000","40 HART ST","NEW BRITAIN","CT","060521743","2021-06-18T00:00:00.000"
"929081","STATE STREET COUNSELING SERVICES","NON-PROFIT CORPORATION","STATE STREET COUNSELING SERVICES","State State Behavioral Health","SA.0000374","SA","374",,"Substance Abuse","ACTIVE","CURRENT","1","2008-08-19T00:00:00.000","2022-07-01T00:00:00.000","2024-06-30T00:00:00.000","911-913 STATE STREET","NEW HAVEN","CT","06511","2022-07-12T00:00:00.000"
"1395817","FAIR HAVEN COMMUNITY HEALTH CARE AT 50 GRAND","CORPORATION","FAIR HAVEN COMMUNITY HEALTH CARE AT 50 GRAND","Fair Haven Community Health Care at 50 Grand","SA.0000527","SA","527",,"Substance Abuse","ACTIVE","CURRENT","1","2016-12-29T00:00:00.000","2022-10-01T00:00:00.000","2024-09-30T00:00:00.000","50 GRAND AVE","NEW HAVEN","CT","065133949","2022-08-23T00:00:00.000"
"2007993","RETREAT AT SOUTH CONNECTICUT","LIMITED LIABILITY COMPANY","RETREAT AT SOUTH CONNECTICUT","RETREAT AT SOUTH CONNECTICUT","SA.0000609","SA","609",,"Substance Abuse","ACTIVE","CURRENT","1","2020-02-13T00:00:00.000","2022-01-01T00:00:00.000","2023-12-31T00:00:00.000","915 ELLA T. GRASSO BLVD.","NEW HAVEN","CT","06519","2022-08-29T00:00:00.000"
"2355537","FAIR HAVEN COMMUNITY HEALTH CARE AT BELLA VISTA","NON-PROFIT CORPORATION","FAIR HAVEN COMMUNITY HEALTH CARE AT BELLA VISTA","FAIR HAVEN COMMUNITY HEALTH CARE AT BELLA VISTA","SA.0000656","SA","656",,"Substance Abuse","ACTIVE","CURRENT","1","2022-07-14T00:00:00.000","2022-07-14T00:00:00.000","2026-06-30T00:00:00.000","339 EASTERN ST BLDG B","NEW HAVEN","CT","065132463","2022-07-20T00:00:00.000"
"2389844","RETREAT AT SOUTH CONNECTICUT","LIMITED LIABILITY COMPANY","RETREAT AT SOUTH CONNECTICUT","RETREAT AT SOUTH CONNECTICUT","SA.0000661","SA","661",,"Substance Abuse","ACTIVE","CURRENT","1","2022-08-11T00:00:00.000","2022-08-11T00:00:00.000","2024-06-30T00:00:00.000","1 LONG WHARF DR STE 102","NEW HAVEN","CT","065115991","2022-08-29T00:00:00.000"
"929494","PARK STREET INN","NON-PROFIT CORPORATION","PARK STREET INN","PARK STREET INN","SA.0000391","SA","391",,"Substance Abuse","ACTIVE","CURRENT","1","2010-01-01T00:00:00.000","2022-01-01T00:00:00.000","2023-12-31T00:00:00.000","98 PARK ST","NEW HAVEN","CT","065115402","2022-01-05T00:00:00.000"
"929853","ADULT PSYCHIATRIC CLINIC/CHILD AND FAMILY GUIDANCE CLINIC","CORPORATION","ADULT PSYCHIATRIC CLINIC/CHILD AND FAMILY GUIDANCE CLINIC","Columbus Adult Behavioral Health","SA.0000305","SA","305",,"Substance Abuse","ACTIVE","CURRENT","1","2008-07-01T00:00:00.000","2021-04-01T00:00:00.000","2023-03-31T00:00:00.000","400 COLUMBUS AVE","NEW HAVEN","CT","065191233","2021-09-28T00:00:00.000"
"1187333","APT FOUNDATION, INC","CORPORATION","APT FOUNDATION, INC","APT FOUNDATION, INC","SA.0000464","SA","464",,"Substance Abuse","ACTIVE","CURRENT","1","2013-10-01T00:00:00.000","2021-10-01T00:00:00.000","2023-09-30T00:00:00.000","245 WHALLEY AVE","NEW HAVEN","CT","065113254","2021-12-14T00:00:00.000"
"1163357","WEST VILLAGE OUTPATIENT CLINIC","CORPORATION","WEST VILLAGE OUTPATIENT CLINIC","WEST VILLAGE OUTPATIENT CLINIC","SA.0000457","SA","457",,"Substance Abuse","ACTIVE","CURRENT","1","2013-05-13T00:00:00.000","2021-04-01T00:00:00.000","2023-03-31T00:00:00.000","52 HOWE ST APT 123","NEW HAVEN","CT","065114617","2022-08-04T00:00:00.000"
"1162574","MCCA/NEW HAVEN","CORPORATION","MCCA/NEW HAVEN","MCCA/NEW HAVEN","SA.0000456","SA","456",,"Substance Abuse","ACTIVE","CURRENT","1","2013-05-08T00:00:00.000","2021-04-01T00:00:00.000","2023-03-31T00:00:00.000","419 WHALLEY AVE STE 300","NEW HAVEN","CT","065113019","2022-02-08T00:00:00.000"
"930851","NORTHSIDE COMMUNITY OUTPATIENT SERVICES/CHILD AND FAMILY GUIDANCE CLINIC","NON-PROFIT CORPORATION","NORTHSIDE COMMUNITY OUTPATIENT SERVICES/CHILD AND FAMILY GUIDANCE CLINIC","DIXWELL BEHAVIORAL HEALTH","SA.0SA0167","SA","SA0167",,"Substance Abuse","ACTIVE","CURRENT","1","2010-04-01T00:00:00.000","2022-04-01T00:00:00.000","2024-03-31T00:00:00.000","226 DIXWELL AVE","NEW HAVEN","CT","065113456","2022-03-21T00:00:00.000"
"930861","ACCESS CENTER","CORPORATION","ACCESS CENTER","ACCESS CENTER","SA.0SA0190","SA","SA0190",,"Substance Abuse","ACTIVE","CURRENT","1","2010-01-01T00:00:00.000","2022-01-01T00:00:00.000","2023-12-31T00:00:00.000","1 LONG WHARF DR STE 10","NEW HAVEN","CT","065115991","2021-12-10T00:00:00.000"
"930964","LEGION AVENUE CLINIC","CORPORATION","LEGION AVENUE CLINIC","LEGION AVENUE CLINIC","SA.0000230","SA","230",,"Substance Abuse","ACTIVE","CURRENT","1","2010-01-01T00:00:00.000","2022-01-01T00:00:00.000","2023-12-31T00:00:00.000","495 CONGRESS AVE","NEW HAVEN","CT","065191312","2021-12-09T00:00:00.000"
"1126572","FAIR HAVEN COMMUNITY HEALTH CARE","CORPORATION","FAIR HAVEN COMMUNITY HEALTH CARE","FAIR HAVEN COMMUNITY HEALTH CARE","SA.0000441","SA","441",,"Substance Abuse","ACTIVE","CURRENT","1","2012-10-09T00:00:00.000","2020-10-01T00:00:00.000","2022-09-30T00:00:00.000","374 GRAND AVE","NEW HAVEN","CT","065133733","2022-08-16T00:00:00.000"
"1295108","UNITED COMMUNITY & FAMILY SERVICES, INC","CORPORATION","UNITED COMMUNITY & FAMILY SERVICES, INC","UNITED COMMUNITY & FAMILY SERVICES, INC","SA.0000490","SA","490",,"Substance Abuse","ACTIVE","CURRENT","1","2015-06-18T00:00:00.000","2021-04-01T00:00:00.000","2023-03-31T00:00:00.000","351 N FRONTAGE RD STE 24","NEW LONDON","CT","063202628","2022-07-28T00:00:00.000"
"1438337","COMMUNITY HEALTH CENTER OF NEW LONDON","NON-PROFIT CORPORATION","COMMUNITY HEALTH CENTER OF NEW LONDON","COMMUNITY HEALTH CENTER OF NEW LONDON","SA.0000547","SA","547",,"Substance Abuse","ACTIVE","CURRENT","1","2017-07-20T00:00:00.000","2021-07-01T00:00:00.000","2023-06-30T00:00:00.000","1 SHAWS CV","NEW LONDON","CT","063204902","2022-01-20T00:00:00.000"
"930232","CHILD & FAMILY AGENCY OF SOUTHEASTERN CONNECTICUT, INC. SMITH BENT CHILDREN'S CENTER","NON-PROFIT CORPORATION","CHILD & FAMILY AGENCY OF SOUTHEASTERN CONNECTICUT, INC. SMITH BENT CHILDREN'S CENTER","CHILD & FAMILY AGENCY OF SOUTHEASTERN CONNECTICUT, INC. SMITH BENT CHILDREN'S CENTER","SA.0000245","SA","245",,"Substance Abuse","ACTIVE","CURRENT","1","2009-07-01T00:00:00.000","2021-07-01T00:00:00.000","2023-06-30T00:00:00.000","7 VAUXHALL ST","NEW LONDON","CT","063205711","2022-06-16T00:00:00.000"
"1156822","SOUND COMMUNITY SERVICES, INC","CORPORATION","SOUND COMMUNITY SERVICES, INC","SOUND COMMUNITY SERVICES, INC","SA.0000453","SA","453",,"Substance Abuse","ACTIVE","CURRENT","1","2013-04-03T00:00:00.000","2021-04-01T00:00:00.000","2023-03-31T00:00:00.000","21 MONTAUK AVE","NEW LONDON","CT","063204906","2022-08-24T00:00:00.000"
"1186723","OUTPATIENT TREATMENT","NON-PROFIT CORPORATION","OUTPATIENT TREATMENT","OUTPATIENT TREATMENT","SA.0000463","SA","463",,"Substance Abuse","ACTIVE","CURRENT","1","2013-09-25T00:00:00.000","2021-07-01T00:00:00.000","2023-06-30T00:00:00.000","932 BANK ST","NEW LONDON","CT","063202703","2021-10-04T00:00:00.000"
"930828","ALTRUISM HOUSE FOR WOMEN","BUSINESS","ALTRUISM HOUSE FOR WOMEN","ALTRUISM HOUSE FOR WOMEN","SA.0000248","SA","248",,"Substance Abuse","ACTIVE","CURRENT","1","2009-07-01T00:00:00.000","2021-07-01T00:00:00.000","2023-06-30T00:00:00.000","62-64 COIT STREET","NEW LONDON","CT","06320","2022-05-17T00:00:00.000"
"930573","ALTRUISM HOUSE FOR MEN","BUSINESS","ALTRUISM HOUSE FOR MEN","ALTRUISM HOUSE FOR MEN","SA.0SA0026","SA","SA0026",,"Substance Abuse","ACTIVE","CURRENT","1","2009-07-01T00:00:00.000","2021-07-01T00:00:00.000","2023-06-30T00:00:00.000","1000 BANK ST","NEW LONDON","CT","063202737","2022-05-17T00:00:00.000"
"930572","ALTRUISM ACUTE CARE & EVALUATION","BUSINESS","ALTRUISM ACUTE CARE & EVALUATION","ALTRUISM ACUTE CARE & EVALUATION","SA.0SA0018","SA","SA0018",,"Substance Abuse","ACTIVE","CURRENT","1","2009-07-01T00:00:00.000","2021-07-01T00:00:00.000","2023-06-30T00:00:00.000","47 COIT ST","NEW LONDON","CT","063205924","2021-08-23T00:00:00.000"
"930491","HARTFORD DISPENSARY/NEW LONDON CLINIC","CORPORATION","HARTFORD DISPENSARY/NEW LONDON CLINIC","HARTFORD DISPENSARY/NEW LONDON CLINIC","SA.0SA0109","SA","SA0109",,"Substance Abuse","ACTIVE","CURRENT","1","2009-04-01T00:00:00.000","2021-04-01T00:00:00.000","2023-03-31T00:00:00.000","931 BANK ST","NEW LONDON","CT","063202702","2022-08-24T00:00:00.000"
"1181634","MCCA/NEW MILFORD","CORPORATION","MCCA/NEW MILFORD","MCCA/NEW MILFORD","SA.0000460","SA","460",,"Substance Abuse","ACTIVE","CURRENT","1","2013-08-27T00:00:00.000","2021-07-01T00:00:00.000","2023-06-30T00:00:00.000","50 BRIDGE ST","NEW MILFORD","CT","067763531","2022-05-17T00:00:00.000"
"2299103","SOLID GROUND RECOVERY","NON-PROFIT CORPORATION","SOLID GROUND RECOVERY","SOLID GROUND RECOVERY","SA.0000649","SA","649",,"Substance Abuse","ACTIVE","CURRENT","1","2022-03-29T00:00:00.000","2022-03-29T00:00:00.000","2023-12-31T00:00:00.000","50 NUNNAWAUK RD","NEWTOWN","CT","064702319","2022-04-06T00:00:00.000"
"1160481","ORCHARD HILL TREATMENT SERVICES","CORPORATION","ORCHARD HILL TREATMENT SERVICES","ORCHARD HILL TREATMENT SERVICES","SA.0000455","SA","455",,"Substance Abuse","ACTIVE","CURRENT","1","2013-04-26T00:00:00.000","2021-04-01T00:00:00.000","2023-03-31T00:00:00.000","352 STATE ST","NORTH HAVEN","CT","064733108","2021-09-07T00:00:00.000"
"934330","NORTH HAVEN COMMUNITY SERVICES","MUNICIPALITY","NORTH HAVEN COMMUNITY SERVICES","NORTH HAVEN COMMUNITY SERVICES","SA.0000396","SA","396",,"Substance Abuse","ACTIVE","CURRENT","1","2010-06-02T00:00:00.000","2022-04-01T00:00:00.000","2024-03-31T00:00:00.000","5 LINSLEY ST","NORTH HAVEN","CT","064732518","2022-04-26T00:00:00.000"
"930881","CONNECTICUT RENAISSANCE INC.","BUSINESS","CONNECTICUT RENAISSANCE INC.","CONNECTICUT RENAISSANCE, INC.","SA.0000327","SA","327",,"Substance Abuse","ACTIVE","CURRENT","1","2009-10-01T00:00:00.000","2021-10-01T00:00:00.000","2023-09-30T00:00:00.000","4 BYINGTON PL","NORWALK","CT","068503309","2022-08-26T00:00:00.000"
"2242577","HIGH FOCUS CENTERS","LIMITED LIABILITY COMPANY","HIGH FOCUS CENTERS","HIGH FOCUS CENTERS","SA.0000635","SA","635",,"Substance Abuse","ACTIVE","CURRENT","1","2021-08-12T00:00:00.000","2021-08-11T00:00:00.000","2023-06-30T00:00:00.000","17 HIGH ST","NORWALK","CT","068514723","2021-08-12T00:00:00.000"
"930514","CONNECTICUT COUNSELING CENTERS INC.","CORPORATION","CONNECTICUT COUNSELING CENTERS INC.","CONNECTICUT COUNSELING CENTERS, INC.","SA.0SA0181","SA","SA0181",,"Substance Abuse","ACTIVE","CURRENT","1","2009-07-01T00:00:00.000","2021-07-01T00:00:00.000","2023-06-30T00:00:00.000","20 N MAIN ST","NORWALK","CT","068542656","2021-09-30T00:00:00.000"
"2260504","BOYS & GIRLS VILLAGE","NON-PROFIT CORPORATION","BOYS & GIRLS VILLAGE","BOYS & GIRLS VILLAGE","SA.0000638","SA","638",,"Substance Abuse","ACTIVE","CURRENT","1","2021-10-12T00:00:00.000","2021-09-30T00:00:00.000","2023-06-30T00:00:00.000","111 EAST AVE","NORWALK","CT","068515014","2021-11-03T00:00:00.000"
"2314448","THE CHILD AND FAMILY GUIDANCE CENTER, INC.","NON-PROFIT CORPORATION","THE CHILD AND FAMILY GUIDANCE CENTER, INC.","THE CHILD AND FAMILY GUIDANCE CENTER, INC.","SA.0000658","SA","658",,"Substance Abuse","ACTIVE","CURRENT","1","2022-07-29T00:00:00.000","2022-07-29T00:00:00.000","2024-06-30T00:00:00.000","295 WESTPORT AVE","NORWALK","CT","068514333","2022-08-18T00:00:00.000"
"2324425","THE CHILDREN'S CENTER OF HAMDEN","NON-PROFIT CORPORATION","THE CHILDREN'S CENTER OF HAMDEN","THE CHILDREN'S CENTER OF HAMDEN","SA.0000651","SA","651",,"Substance Abuse","ACTIVE","CURRENT","1","2022-06-23T00:00:00.000","2022-06-23T00:00:00.000","2024-03-31T00:00:00.000","2 CLINIC DR","NORWICH","CT","06360","2022-07-07T00:00:00.000"
"929896","ALTRUISM HOUSE FOR MEN","CORPORATION","ALTRUISM HOUSE FOR MEN","ALTRUISM HOUSE FOR MEN","SA.0SA0046","SA","SA0046",,"Substance Abuse","ACTIVE","CURRENT","1","2009-07-01T00:00:00.000","2021-07-01T00:00:00.000","2023-06-30T00:00:00.000","313 MAIN ST","NORWICH","CT","063605835","2022-05-17T00:00:00.000"
"2290304","THE CONNECTION CENTER FOR BEHAVIORAL HEALTH @ NORWICH","BUSINESS","THE CONNECTION CENTER FOR BEHAVIORAL HEALTH @ NORWICH","THE CONNECTION CENTER FOR BEHAVIORAL HEALTH @ NORWICH","SA.0000644","SA","644",,"Substance Abuse","ACTIVE","CURRENT","1","2022-01-12T00:00:00.000","2022-01-12T00:00:00.000","2023-12-31T00:00:00.000","4 BROADWAY","NORWICH","CT","063605744","2022-01-20T00:00:00.000"
"2001217","HARTFORD DISPENSARY-NORWICH CLINIC","BUSINESS","HARTFORD DISPENSARY-NORWICH CLINIC","HARTFORD DISPENSARY-NORWICH CLINIC","SA.0000605","SA","605",,"Substance Abuse","ACTIVE","CURRENT","1","2020-01-22T00:00:00.000","2022-01-01T00:00:00.000","2023-12-31T00:00:00.000","772 W THAMES ST","NORWICH","CT","063607070","2022-05-18T00:00:00.000"
"2005362","RELIANCE HEALTH, INC.","CORPORATION","RELIANCE HEALTH, INC.","RELIANCE HEALTH, INC.","SA.0000608","SA","608",,"Substance Abuse","ACTIVE","CURRENT","1","2020-02-06T00:00:00.000","2022-01-01T00:00:00.000","2023-12-31T00:00:00.000","2 CLIFF STREET","NORWICH","CT","06360","2022-06-20T00:00:00.000"
"1365767","COMMUNITY HEALTH RESOURCES-NORWICH","CORPORATION","COMMUNITY HEALTH RESOURCES-NORWICH","COMMUNITY HEALTH RESOURCES-NORWICH","SA.0000509","SA","509",,"Substance Abuse","ACTIVE","CURRENT","1","2016-07-11T00:00:00.000","2022-07-01T00:00:00.000","2024-06-30T00:00:00.000","55 MAIN ST","NORWICH","CT","063605760","2022-08-19T00:00:00.000"
"930087","WHEELER CLINIC INC.","CORPORATION","WHEELER CLINIC INC.","WHEELER CLINIC","SA.0000295","SA","295",,"Substance Abuse","ACTIVE","CURRENT","1","2009-07-01T00:00:00.000","2021-07-01T00:00:00.000","2023-06-30T00:00:00.000","91 NORTHWEST DR","PLAINVILLE","CT","060621534","2021-12-20T00:00:00.000"
"930876","TRINITY GLEN","CORPORATION","TRINITY GLEN","TRINITY GLEN","SA.0SA0014","SA","SA0014",,"Substance Abuse","ACTIVE","CURRENT","1","2010-01-01T00:00:00.000","2022-01-01T00:00:00.000","2023-12-31T00:00:00.000","149 W CORNWALL RD","SHARON","CT","060692105","2021-12-20T00:00:00.000"
"1495616","PATHWAYS OSBORN","CORPORATION","PATHWAYS OSBORN","PATHWAYS OSBORN","SA.0000563","SA","563",,"Substance Abuse","ACTIVE","CURRENT","1","2018-03-01T00:00:00.000","2022-01-01T00:00:00.000","2023-12-31T00:00:00.000","335 BILTON RD","SOMERS","CT","060711044","2022-01-06T00:00:00.000"
"930486","STAFFORD FAMILY SERVICES","MUNICIPALITY","STAFFORD FAMILY SERVICES","STAFFORD FAMILY SERVICES","SA.0SA0033","SA","SA0033",,"Substance Abuse","ACTIVE","CURRENT","1","2009-07-01T00:00:00.000","2021-07-01T00:00:00.000","2023-06-30T00:00:00.000","21 HYDE PARK RD","STAFFORD SPRINGS","CT","060761507","2022-06-28T00:00:00.000"
"930854","LIBERATION CLINIC","NON-PROFIT CORPORATION","LIBERATION CLINIC","Liberation Clinic","SA.0SA0175","SA","SA0175",,"Substance Abuse","ACTIVE","CURRENT","1","2010-04-01T00:00:00.000","2022-04-01T00:00:00.000","2024-03-31T00:00:00.000","125 MAIN ST","STAMFORD","CT","069012818","2022-04-22T00:00:00.000"
"1619138","COMMUNITY HEALTH CENTER OF STAMFORD AT FIFTH STREET","CORPORATION","COMMUNITY HEALTH CENTER OF STAMFORD AT FIFTH STREET","COMMUNITY HEALTH CENTER OF STAMFORD AT FIFTH STREET","SA.0000579","SA","579",,"Substance Abuse","ACTIVE","CURRENT","1","2018-12-07T00:00:00.000","2022-10-01T00:00:00.000","2024-09-30T00:00:00.000","22 5TH ST","STAMFORD","CT","069055030","2022-08-30T00:00:00.000"
"930852","MAIN STREET CLINIC","NON-PROFIT CORPORATION","MAIN STREET CLINIC","MAIN STREET CLINIC","SA.0SA0173","SA","SA0173",,"Substance Abuse","ACTIVE","CURRENT","1","2010-04-01T00:00:00.000","2022-04-01T00:00:00.000","2024-03-31T00:00:00.000","117 MAIN ST","STAMFORD","CT","069012818","2022-04-20T00:00:00.000"
"930853","LIBERATION HOUSE","NON-PROFIT CORPORATION","LIBERATION HOUSE","LIBERATION HOUSE","SA.0SA0174","SA","SA0174",,"Substance Abuse","ACTIVE","CURRENT","1","2010-04-01T00:00:00.000","2022-04-01T00:00:00.000","2024-03-31T00:00:00.000","119 MAIN ST","STAMFORD","CT","069012818","2022-05-25T00:00:00.000"
"930859","CONNECTICUT RENAISSANCE INC.","BUSINESS","CONNECTICUT RENAISSANCE INC.","CONNECTICUT RENAISSANCE, INC.","SA.0SA0188","SA","SA0188",,"Substance Abuse","ACTIVE","CURRENT","1","2010-01-01T00:00:00.000","2022-01-01T00:00:00.000","2023-12-31T00:00:00.000","141 FRANKLIN ST","STAMFORD","CT","069011014","2022-09-09T00:00:00.000"
"1234295","OPTIMUS PRIMARY CLINICS","CORPORATION","OPTIMUS PRIMARY CLINICS","OPTIMUS PRIMARY CLINICS","SA.0000477","SA","477",,"Substance Abuse","ACTIVE","CURRENT","1","2014-07-14T00:00:00.000","2020-04-01T00:00:00.000","2022-03-31T00:00:00.000","1351 WASHINGTON BLVD","STAMFORD","CT","069022419","2022-04-07T00:00:00.000"
"1451567","PERCEPTION PROGRAMS BEHAVIORAL HEALTH CENTER","CORPORATION","PERCEPTION PROGRAMS BEHAVIORAL HEALTH CENTER","PERCEPTION PROGRAMS BEHAVIORAL HEALTH CENTER","SA.0000551","SA","551",,"Substance Abuse","ACTIVE","CURRENT","1","2017-09-19T00:00:00.000","2021-07-01T00:00:00.000","2023-06-30T00:00:00.000","1244 STORRS RD","STORRS MANSFIELD","CT","062682200","2022-07-11T00:00:00.000"
"929855","FAMILY RESOURCE ASSOCIATES LLC","LIMITED LIABILITY COMPANY","FAMILY RESOURCE ASSOCIATES LLC","FAMILY RESOURCE ASSOCIATES, LLC","SA.0000309","SA","309",,"Substance Abuse","ACTIVE","CURRENT","1","2008-07-01T00:00:00.000","2022-07-01T00:00:00.000","2024-06-30T00:00:00.000","3300 MAIN ST","STRATFORD","CT","066144819","2022-07-12T00:00:00.000"
"930952","CENTER FOR HUMAN SERVICES","BUSINESS","CENTER FOR HUMAN SERVICES","CENTER FOR HUMAN SERVICES","SA.0000302","SA","302",,"Substance Abuse","ACTIVE","CURRENT","1","2010-04-01T00:00:00.000","2022-04-01T00:00:00.000","2024-03-31T00:00:00.000","2 RESEARCH DR","STRATFORD","CT","066157126","2022-03-17T00:00:00.000"
"2280520","BRIDGES HEALTHCARE, INC.","NON-PROFIT CORPORATION","BRIDGES HEALTHCARE, INC.","BRIDGES HEALTHCARE, INC.","SA.0000640","SA","640",,"Substance Abuse","ACTIVE","CURRENT","1","2021-12-15T00:00:00.000","2021-12-15T00:00:00.000","2023-09-30T00:00:00.000","3017 MAIN ST","STRATFORD","CT","06614","2021-12-16T00:00:00.000"
"1672852","MCCA/TORRINGTON","CORPORATION","MCCA/TORRINGTON","MCCA/TORRINGTON","SA.0000597","SA","597",,"Substance Abuse","ACTIVE","CURRENT","1","2019-07-01T00:00:00.000","2021-07-01T00:00:00.000","2023-06-30T00:00:00.000","410 WINSTED RD","TORRINGTON","CT","067902933","2022-05-17T00:00:00.000"
"1502759","MCCA LITCHFIELD JUDICIAL DISTRICT COURTHOUSE AT TORRINGTON","CORPORATION","MCCA LITCHFIELD JUDICIAL DISTRICT COURTHOUSE AT TORRINGTON","MCCA LITCHFIELD JUDICIAL DISTRICT COURTHOUSE AT TORRINGTON","SA.0000565","SA","565",,"Substance Abuse","ACTIVE","CURRENT","1","2018-04-05T00:00:00.000","2022-04-01T00:00:00.000","2024-03-31T00:00:00.000","50 FIELD ST","TORRINGTON","CT","067904901","2022-03-28T00:00:00.000"
"1465047","MCCALL FOUNDATION INC.","NON-PROFIT CORPORATION","MCCALL FOUNDATION INC.","MCCALL FOUNDATION, INC.","SA.0000557","SA","557",,"Substance Abuse","ACTIVE","CURRENT","1","2017-12-08T00:00:00.000","2021-10-01T00:00:00.000","2023-09-30T00:00:00.000","17 PROSPECT PL","TORRINGTON","CT","067904919","2021-10-07T00:00:00.000"
"2306233","CONNECTICUT JUNIOR REPUBLIC ASSOCIATION, INC.","NON-PROFIT CORPORATION","CONNECTICUT JUNIOR REPUBLIC ASSOCIATION, INC.","CONNECTICUT JUNIOR REPUBLIC ASSOCIATION, INC.","SA.0000648","SA","648",,"Substance Abuse","ACTIVE","CURRENT","1","2022-03-22T00:00:00.000","2022-03-22T00:00:00.000","2023-12-31T00:00:00.000","52 PECK RD","TORRINGTON","CT","067906107","2022-03-25T00:00:00.000"
"2013513","MCCALL FOUNDATION, INC. MOBILE MAT VAN","CORPORATION","MCCALL FOUNDATION, INC. MOBILE MAT VAN","MCCALL FOUNDATION, INC. MOBILE MAT VAN","SA.0000612","SA","612",,"Substance Abuse","ACTIVE","CURRENT","1","2020-03-02T00:00:00.000","2022-01-01T00:00:00.000","2023-12-31T00:00:00.000","58 HIGH STREET","TORRINGTON","CT","06790","2022-01-07T00:00:00.000"
"2320977","WATKINS OUTPATIENT CLINIC","NON-PROFIT CORPORATION","WATKINS OUTPATIENT CLINIC","WATKINS OUTPATIENT CLINIC","SA.0000653","SA","653",,"Substance Abuse","ACTIVE","CURRENT","1","2022-07-01T00:00:00.000","2022-07-01T00:00:00.000","2024-06-30T00:00:00.000","21 PROSPECT ST","TORRINGTON","CT","06790","2022-07-06T00:00:00.000"
"929653","CATHOLIC CHARITIES, INC","BUSINESS","CATHOLIC CHARITIES, INC","CATHOLIC CHARITIES, INC.","SA.0000347","SA","347",,"Substance Abuse","ACTIVE","CURRENT","1","2008-10-01T00:00:00.000","2022-04-01T00:00:00.000","2024-03-31T00:00:00.000","132 GROVE ST","TORRINGTON","CT","067905047","2022-07-19T00:00:00.000"
"2310069","COLUMN HEALTH - TORRINGTON","LIMITED LIABILITY COMPANY","COLUMN HEALTH - TORRINGTON","COLUMN HEALTH - TORRINGTON","SA.0000647","SA","647",,"Substance Abuse","ACTIVE","CURRENT","1","2022-03-10T00:00:00.000","2022-03-10T00:00:00.000","2023-12-31T00:00:00.000","100 MIGEON AVE","TORRINGTON","CT","067904861","2022-03-21T00:00:00.000"
"2060929","APEX COMMUNITY CARE, INC.","CORPORATION","APEX COMMUNITY CARE, INC.","APEX COMMUNITY CARE, INC.","SA.0000614","SA","614",,"Substance Abuse","ACTIVE","CURRENT","1","2020-06-26T00:00:00.000","2022-04-01T00:00:00.000","2024-03-31T00:00:00.000","601 SOUTH MAIN ST. UNIT # 3","TORRINGTON","CT","06790","2022-03-28T00:00:00.000"
"1326610","BRIDGE FAMILY CENTER","NON-PROFIT CORPORATION","BRIDGE FAMILY CENTER","BRIDGE FAMILY CENTER","SA.0000500","SA","500",,"Substance Abuse","ACTIVE","CURRENT","1","2015-12-28T00:00:00.000","2021-10-01T00:00:00.000","2023-09-30T00:00:00.000","26 UNION ST STE 2","VERNON ROCKVILLE","CT","060663161","2021-11-16T00:00:00.000"
"992676","HOCKANUM VALLEY COMMUNITY COUNCIL, INC.","CORPORATION","HOCKANUM VALLEY COMMUNITY COUNCIL, INC.","HOCKANUM VALLEY COMMUNITY COUNCIL, INC.","SA.0000415","SA","415",,"Substance Abuse","ACTIVE","CURRENT","1","2011-04-08T00:00:00.000","2021-04-01T00:00:00.000","2023-03-31T00:00:00.000","27 NAEK RD STE 4","VERNON ROCKVILLE","CT","060663965","2022-06-20T00:00:00.000"
"930860","CONNECTICUT JUNIOR REPUBLIC","NON-PROFIT CORPORATION","CONNECTICUT JUNIOR REPUBLIC","CONNECTICUT JUNIOR REPUBLIC ASSOCIATION, INC.","SA.0SA0189","SA","SA0189",,"Substance Abuse","ACTIVE","CURRENT","1","2010-01-01T00:00:00.000","2022-01-01T00:00:00.000","2023-12-31T00:00:00.000","80 PROSPECT ST","WATERBURY","CT","067021327","2021-12-20T00:00:00.000"
"1228026","STAYWELL HEALTH CARE, INC.","NON-PROFIT CORPORATION","STAYWELL HEALTH CARE, INC.","STAYWELL HEALTH CARE, INC.","SA.0000474","SA","474",,"Substance Abuse","ACTIVE","CURRENT","1","2014-06-10T00:00:00.000","2021-10-01T00:00:00.000","2023-09-30T00:00:00.000","1309 S MAIN ST","WATERBURY","CT","067061758","2021-09-28T00:00:00.000"
"929655","CATHOLIC CHARITIES, INC.","BUSINESS","CATHOLIC CHARITIES, INC.","CATHOLIC CHARITIES, INC.","SA.0000349","SA","349",,"Substance Abuse","ACTIVE","CURRENT","1","2008-10-01T00:00:00.000","2022-04-01T00:00:00.000","2024-03-31T00:00:00.000","56 CHURCH ST","WATERBURY","CT","067022103","2022-08-15T00:00:00.000"
"1327788","STAYWELL HEALTH CARE, INC.","NON-PROFIT CORPORATION","STAYWELL HEALTH CARE, INC.","STAYWELL HEALTH CARE, INC.","SA.0000501","SA","501",,"Substance Abuse","ACTIVE","CURRENT","1","2016-01-07T00:00:00.000","2021-10-01T00:00:00.000","2023-09-30T00:00:00.000","80 PHOENIX AVE STE 104","WATERBURY","CT","067021418","2021-10-01T00:00:00.000"
"930227","RENAISSANCE WEST","CORPORATION","RENAISSANCE WEST","RENAISSANCE WEST","SA.0000241","SA","241",,"Substance Abuse","ACTIVE","CURRENT","1","2009-07-01T00:00:00.000","2021-07-01T00:00:00.000","2023-06-30T00:00:00.000","466 W MAIN ST","WATERBURY","CT","067021123","2021-08-02T00:00:00.000"
"2043330","WHEELER  CLINIC","CORPORATION","WHEELER  CLINIC","WHEELER  CLINIC","SA.0000613","SA","613",,"Substance Abuse","ACTIVE","CURRENT","1","2020-05-08T00:00:00.000","2022-04-01T00:00:00.000","2024-03-31T00:00:00.000","855 LAKEWOOD ROAD","WATERBURY","CT","06704","2022-03-11T00:00:00.000"
"1077532","WELLMORE, INC. THERAPEUTIC SHELTER","CORPORATION","WELLMORE, INC. THERAPEUTIC SHELTER","WELLMORE, INC. THERAPEUTIC SHELTER","SA.0000438","SA","438",,"Substance Abuse","ACTIVE","CURRENT","1","2012-06-15T00:00:00.000","2022-07-01T00:00:00.000","2024-06-30T00:00:00.000","142 GRIGGS ST","WATERBURY","CT","067043110","2022-06-01T00:00:00.000"
"2387589","DEMPSEY CENTER","NON-PROFIT CORPORATION","DEMPSEY CENTER","DEMPSEY CENTER","SA.0000652","SA","652",,"Substance Abuse","ACTIVE","CURRENT","1","2022-07-01T00:00:00.000","2022-07-01T00:00:00.000","2024-06-30T00:00:00.000","900 WATERTOWN AVE","WATERBURY","CT","067082011","2022-07-06T00:00:00.000"
"2385863","CT RENAISSANCE, INC.","BUSINESS","CT RENAISSANCE, INC.","CT RENAISSANCE, INC.","SA.0000657","SA","657",,"Substance Abuse","ACTIVE","CURRENT","1","2022-07-21T00:00:00.000","2022-07-21T00:00:00.000","2024-06-30T00:00:00.000","525 WOLCOTT ST","WATERBURY","CT","067051250","2022-07-26T00:00:00.000"
"2385229","CHILD AND FAMILY GUIDANCE CENTER, INC.","NON-PROFIT CORPORATION","CHILD AND FAMILY GUIDANCE CENTER, INC.","CHILD AND FAMILY GUIDANCE CENTER, INC.","SA.0000660","SA","660",,"Substance Abuse","ACTIVE","CURRENT","1","2022-08-11T00:00:00.000","2022-08-11T00:00:00.000","2024-06-30T00:00:00.000","83 PROSPECT ST","WATERBURY","CT","06702","2022-08-24T00:00:00.000"
"1991090","FAMILY INTERVENTION, INC.","NON-PROFIT CORPORATION","FAMILY INTERVENTION, INC.","FAMILY INTERVENTION, INC.","SA.0000602","SA","602",,"Substance Abuse","ACTIVE","CURRENT","1","2019-12-12T00:00:00.000","2021-10-01T00:00:00.000","2023-09-30T00:00:00.000","24 WOOSTER AVE STE 2","WATERBURY","CT","067082971","2021-10-27T00:00:00.000"
"1432875","CONNECTICUT COUNSELING CENTERS INC.","CORPORATION","CONNECTICUT COUNSELING CENTERS INC.","CONNECTICUT COUNSELING CENTERS INC.","SA.0000533","SA","533",,"Substance Abuse","ACTIVE","CURRENT","1","2017-06-21T00:00:00.000","2021-04-01T00:00:00.000","2023-03-31T00:00:00.000","50 BROOKSIDE RD","WATERBURY","CT","067081402","2021-09-22T00:00:00.000"
"2384018","RENATO OUTPATIENT CLINIC","NON-PROFIT CORPORATION","RENATO OUTPATIENT CLINIC","RENATO OUTPATIENT CLINIC","SA.0000655","SA","655",,"Substance Abuse","ACTIVE","CURRENT","1","2022-07-01T00:00:00.000","2022-07-01T00:00:00.000","2024-06-30T00:00:00.000","969 W MAIN ST STE A","WATERBURY","CT","067082653","2022-07-01T00:00:00.000"
"1077524","WELLMORE, INC. WOMEN AND CHILDREN'S PROGRAM","CORPORATION","WELLMORE, INC. WOMEN AND CHILDREN'S PROGRAM","WELLMORE, INC. WOMEN AND CHILDREN'S PROGRAM","SA.0000437","SA","437",,"Substance Abuse","ACTIVE","CURRENT","1","2012-06-15T00:00:00.000","2022-07-01T00:00:00.000","2024-06-30T00:00:00.000","79 BEACON ST","WATERBURY","CT","067043424","2022-08-05T00:00:00.000"
"1458812","MCCA/WATERBURY","CORPORATION","MCCA/WATERBURY","MCCA/WATERBURY","SA.0000554","SA","554",,"Substance Abuse","ACTIVE","CURRENT","1","2017-10-30T00:00:00.000","2021-10-01T00:00:00.000","2023-09-30T00:00:00.000","34 MURRAY ST","WATERBURY","CT","067101920","2021-10-29T00:00:00.000"
"1310074","COMMUNITY HEALTH CENTER OF WATERBURY","CORPORATION","COMMUNITY HEALTH CENTER OF WATERBURY","COMMUNITY HEALTH CENTER OF WATERBURY","SA.0000494","SA","494",,"Substance Abuse","ACTIVE","CURRENT","1","2015-09-11T00:00:00.000","2021-07-01T00:00:00.000","2023-06-30T00:00:00.000","51 N ELM ST","WATERBURY","CT","067021545","2022-08-18T00:00:00.000"
"2392039","CHILD GUIDANCE CLINIC WESTBROOK","NON-PROFIT CORPORATION","CHILD GUIDANCE CLINIC WESTBROOK","CHILD GUIDANCE CLINIC WESTBROOK","SA.0000659","SA","659",,"Substance Abuse","ACTIVE","CURRENT","1","2022-08-10T00:00:00.000","2022-08-10T00:00:00.000","2024-06-30T00:00:00.000","4 GROVE BEACH RD N STE 2D","WESTBROOK","CT","064981656","2022-08-18T00:00:00.000"
"2287138","SHORELINE WELLNESS BEHAVIORAL HEALTH OUTREACH, INC.","NON-PROFIT CORPORATION","SHORELINE WELLNESS BEHAVIORAL HEALTH OUTREACH, INC.","SHORELINE WELLNESS BEHAVIORAL HEALTH OUTREACH, INC.","SA.0000641","SA","641",,"Substance Abuse","ACTIVE","CURRENT","1","2022-01-07T00:00:00.000","2022-01-07T00:00:00.000","2023-12-31T00:00:00.000","415 MAIN ST","WEST HAVEN","CT","065164296","2022-01-10T00:00:00.000"
"2268617","GRANT STREET PARTNERSHIP AT WEST HAVEN","NON-PROFIT CORPORATION","GRANT STREET PARTNERSHIP AT WEST HAVEN","GRANT STREET PARTNERSHIP AT WEST HAVEN","SA.0000639","SA","639",,"Substance Abuse","ACTIVE","CURRENT","1","2021-11-05T00:00:00.000","2021-11-05T00:00:00.000","2023-09-30T00:00:00.000","285 MAIN ST","WEST HAVEN","CT","065167307","2022-03-08T00:00:00.000"
"2252491","WEST HAVEN BEHAVIORAL HEALTH","NON-PROFIT CORPORATION","WEST HAVEN BEHAVIORAL HEALTH","WEST HAVEN BEHAVIORAL HEALTH","SA.0000637","SA","637",,"Substance Abuse","ACTIVE","CURRENT","1","2021-09-16T00:00:00.000","2021-09-15T00:00:00.000","2023-06-30T00:00:00.000","410 CAMPBELL AVE","WEST HAVEN","CT","065165014","2021-09-16T00:00:00.000"
"1379898","APT FOUNDATION, INC.","CORPORATION","APT FOUNDATION, INC.","APT FOUNDATION, INC.","SA.0000515","SA","515",,"Substance Abuse","ACTIVE","CURRENT","1","2016-09-20T00:00:00.000","2022-07-01T00:00:00.000","2024-06-30T00:00:00.000","184 FRONT AVE","WEST HAVEN","CT","065162836","2022-08-26T00:00:00.000"
"2205153","BRIDGES HEALTHCARE, INC.","BUSINESS","BRIDGES HEALTHCARE, INC.","BRIDGES HEALTHCARE, INC.","SA.0000629","SA","629",,"Substance Abuse","ACTIVE","CURRENT","1","2021-04-21T00:00:00.000","2021-04-14T00:00:00.000","2023-03-31T00:00:00.000","98 ELM ST UNIT 2","WEST HAVEN","CT","065163879","2021-04-21T00:00:00.000"
"1991836","TURNBRIDGE","CORPORATION","TURNBRIDGE","TURNBRIDGE","SA.0000603","SA","603",,"Substance Abuse","ACTIVE","CURRENT","1","2019-12-16T00:00:00.000","2021-10-01T00:00:00.000","2023-09-30T00:00:00.000","162 KINGS HWY N","WESTPORT","CT","068802444","2021-10-13T00:00:00.000"
"1430775","POSITIVE DIRECTIONS THE CENTER FOR PREVENTION & COUNSELING","CORPORATION","POSITIVE DIRECTIONS THE CENTER FOR PREVENTION & COUNSELING","POSITIVE DIRECTIONS THE CENTER FOR PREVENTION & COUNSELING","SA.0000531","SA","531",,"Substance Abuse","ACTIVE","CURRENT","1","2017-06-12T00:00:00.000","2021-04-01T00:00:00.000","2023-03-31T00:00:00.000","90 POST RD W","WESTPORT","CT","068804208","2022-09-09T00:00:00.000"
"2067608","GENERATIONS FAMILY HEALTH CENTER, INC.","CORPORATION","GENERATIONS FAMILY HEALTH CENTER, INC.","GENERATIONS FAMILY HEALTH CENTER, INC.","SA.0000615","SA","615",,"Substance Abuse","ACTIVE","CURRENT","1","2020-07-20T00:00:00.000","2020-07-17T00:00:00.000","2022-06-30T00:00:00.000","40 MANSFIELD AVE","WILLIMANTIC","CT","06226","2022-05-17T00:00:00.000"
"930829","HARTFORD DISPENSARY-WILLIMANTIC CLINIC","CORPORATION","HARTFORD DISPENSARY-WILLIMANTIC CLINIC","HARTFORD DISPENSARY-WILLIMANTIC CLINIC","SA.0SA0003","SA","SA0003",,"Substance Abuse","ACTIVE","CURRENT","1","2009-04-01T00:00:00.000","2021-04-01T00:00:00.000","2023-03-31T00:00:00.000","54-56 BOSTON POST ROAD","WILLIMANTIC","CT","06226","2022-05-18T00:00:00.000"
"1511530","GRACE HOUSE","CORPORATION","GRACE HOUSE","GRACE HOUSE","SA.0000566","SA","566",,"Substance Abuse","ACTIVE","CURRENT","1","2018-05-07T00:00:00.000","2022-04-01T00:00:00.000","2024-03-31T00:00:00.000","219 VALLEY ST","WILLIMANTIC","CT","062262333","2022-03-14T00:00:00.000"
