"credentialid","name","type","businessname","dba","fullcredentialcode","credentialtype","credentialnumber","credentialsubcategory","credential","status","statusreason","active","issuedate","effectivedate","expirationdate","address","city","state","zip","recordrefreshedon","geocoded_column"
"2381669","OLD GLORY DAYS","SOLE PROPRIETOR","OLD GLORY DAYS","OLD GLORY DAYS","ALSA","ALSA",,,"Assisted Living Service Agency","PENDING","ABCMS REVIEW","0",,,,"211 WOODBURY RD","WATERTOWN","CT","06795","2022-06-15T00:00:00.000","POINT (-73.126956 41.603705)"
"930102","CEDAR LLC","BUSINESS","CEDAR LLC","LAUREL GARDENS OF TRUMBULL","ALSA.0AL0037","ALSA","AL0037",,"Assisted Living Service Agency","INACTIVE",,"0","2004-10-01T00:00:00.000","2004-10-01T00:00:00.000","2006-09-30T00:00:00.000","2750 RESERVOIR AVENUE","TRUMBULL","CT","06611","2010-05-18T00:00:00.000","POINT (-73.196173 41.237949)"
"2090588","ASSISTED LIVING SERVICES AGENCY AT CREAMERY BROOK","CORPORATION","ASSISTED LIVING SERVICES AGENCY AT CREAMERY BROOK","ASSISTED LIVING SERVICES AGENCY AT CREAMERY BROOK","ALSA.0000226","ALSA","226",,"Assisted Living Service Agency","ACTIVE IN RENEWAL","CURRENT","1","2020-10-08T00:00:00.000","2020-10-01T00:00:00.000","2022-09-30T00:00:00.000","36 VINA LANE","BROOKLYN","CT","06234","2022-09-02T00:00:00.000","POINT (-71.944691 41.782419)"
"929695","ARDEN COURTS  (AVON)","LIMITED LIABILITY COMPANY","ARDEN COURTS  (AVON)","ARDEN COURTS  (AVON)","ALSA.0000124","ALSA","124",,"Assisted Living Service Agency","ACTIVE","CURRENT","1","2009-10-01T00:00:00.000","2021-10-01T00:00:00.000","2023-09-30T00:00:00.000","100 FISHER DIRVE","AVON","CT","06001","2022-07-21T00:00:00.000",
"929118","BAL HAMDEN LLC","LIMITED LIABILITY COMPANY","BAL HAMDEN LLC","Benchmark Senior Living at Hamden","ALSA.0000133","ALSA","133",,"Assisted Living Service Agency","ACTIVE IN RENEWAL","CURRENT","1","2008-12-01T00:00:00.000","2020-10-01T00:00:00.000","2022-09-30T00:00:00.000","35 HAMDEN HILLS DR","HAMDEN","CT","065185322","2022-08-25T00:00:00.000","POINT (-72.910228 41.388808)"
"1003704","ATRIA CROSSROADS PLACE","LIMITED LIABILITY COMPANY","ATRIA CROSSROADS PLACE","ATRIA CROSSROADS PLACE","ALSA.0000157","ALSA","157",,"Assisted Living Service Agency","ACTIVE","CURRENT","1","2011-06-22T00:00:00.000","2021-04-01T00:00:00.000","2023-03-31T00:00:00.000","1 BEECHWOOD DR","WATERFORD","CT","063851227","2021-12-23T00:00:00.000","POINT (-72.157423 41.36639)"
"928945","SENIORS' CHOICE AT CROSS ROAD","BUSINESS","SENIORS' CHOICE AT CROSS ROAD","SENIORS' CHOICE AT CROSS ROAD","ALSA.AL-0051","ALSA","AL-0051",,"Assisted Living Service Agency","INACTIVE",,"0","2000-04-07T00:00:00.000","2000-04-07T00:00:00.000","2002-03-31T00:00:00.000","1 Beechwood Drive","Waterford","CT","06385","2010-05-18T00:00:00.000","POINT (-72.157423 41.36639)"
"929941","BROOKDALE SOUTH WINDSOR","LIMITED LIABILITY COMPANY","BROOKDALE SOUTH WINDSOR","BROOKDALE SOUTH WINDSOR","ALSA.0000100","ALSA","100",,"Assisted Living Service Agency","ACTIVE","CURRENT","1","2008-07-01T00:00:00.000","2022-07-01T00:00:00.000","2024-06-30T00:00:00.000","1715 ELLINGTON RD","SOUTH WINDSOR","CT","060742707","2022-09-08T00:00:00.000","POINT (-72.556214 41.826801)"
"929156","VISITING NURSE ASSOCIATION OF RIDGEFIELD INC.","BUSINESS","VISITING NURSE ASSOCIATION OF RIDGEFIELD INC.","RIDGEFIELD VISITING NURSE ASSOCIATION","ALSA.0000146","ALSA","146",,"Assisted Living Service Agency","INACTIVE","VOLUNTARILY AGREED NOT TO RENEW/REINSTATE","0","2009-06-06T00:00:00.000","2009-06-06T00:00:00.000","2011-03-31T00:00:00.000","90 E RIDGE RD","RIDGEFIELD","CT","068774683","2011-10-03T00:00:00.000","POINT (-73.494114 41.282387)"
"933992","POMPERAUG WOODS","CORPORATION","POMPERAUG WOODS","POMPERAUG WOODS","ALSA.0000151","ALSA","151",,"Assisted Living Service Agency","ACTIVE IN RENEWAL","CURRENT","1","2010-05-28T00:00:00.000","2020-04-01T00:00:00.000","2022-03-31T00:00:00.000","80 HERITAGE RD","SOUTHBURY","CT","064881882","2022-07-29T00:00:00.000","POINT (-73.217481 41.482196)"
"1003930","ATRIA STRATFORD","LIMITED LIABILITY COMPANY","ATRIA STRATFORD","ATRIA STRATFORD","ALSA.0000162","ALSA","162",,"Assisted Living Service Agency","CLOSED","CLOSED","0","2011-06-22T00:00:00.000","2019-04-01T00:00:00.000","2021-03-31T00:00:00.000","6911 MAIN ST","STRATFORD","CT","066141360","2020-01-24T00:00:00.000","POINT (-73.10197 41.247009)"
"929217","CONVERSION DATA","BUSINESS","CONVERSION DATA","NEW ENGLAND ASSISTED LIVING SERVICES INC","ALSA.0AL0009","ALSA","AL0009",,"Assisted Living Service Agency","INACTIVE",,"0",,,"1998-12-31T00:00:00.000","665 FOXON ROAD","EAST HAVEN","CT","06512","2010-05-18T00:00:00.000","POINT (-72.852473 41.32203)"
"930719","UNITED COMMUNITY & FAMILY SERVICES INC.","BUSINESS","UNITED COMMUNITY & FAMILY SERVICES INC.","UNITED COMMUNITY & FAMILY SERVICES, INC.","ALSA.0AL0026","ALSA","AL0026",,"Assisted Living Service Agency","INACTIVE",,"0","2008-07-01T00:00:00.000","2008-07-01T00:00:00.000","2010-06-30T00:00:00.000","34 EAST TOWN STREET","NORWICH","CT","06360","2010-05-18T00:00:00.000","POINT (-72.091557 41.550573)"
"1125452","MAPLEWOOD AT ORANGE","LIMITED LIABILITY COMPANY","MAPLEWOOD AT ORANGE","MAPLEWOOD AT ORANGE ALSA, LLC","ALSA.0000167","ALSA","167",,"Assisted Living Service Agency","ACTIVE IN RENEWAL","CURRENT","1","2012-09-28T00:00:00.000","2020-07-01T00:00:00.000","2022-06-30T00:00:00.000","245 INDIAN RIVER RD","ORANGE","CT","064773668","2022-07-11T00:00:00.000","POINT (-73.000132 41.263913)"
"1692422","SUFFIELD BY THE RIVER","LIMITED LIABILITY COMPANY","SUFFIELD BY THE RIVER","SUFFIELD BY THE RIVER","ALSA.0000213","ALSA","213",,"Assisted Living Service Agency","ACTIVE","CURRENT","1","2019-09-18T00:00:00.000","2021-07-01T00:00:00.000","2023-06-30T00:00:00.000","7 CANAL RD","SUFFIELD","CT","060781970","2022-05-12T00:00:00.000","POINT (-72.613305 41.985924)"
"929715","C.A. MOFFIE INC.","BUSINESS","C.A. MOFFIE INC.","C.A. MOFFIE","ALSA.0AL0019","ALSA","AL0019",,"Assisted Living Service Agency","INACTIVE",,"0","1999-10-01T00:00:00.000","1999-10-01T00:00:00.000","2001-09-30T00:00:00.000","58 MULBERRY STREET","PLANTSVILLE","CT","06479","2010-05-18T00:00:00.000","POINT (-72.892397 41.574041)"
"929799","CAPITAL SENIOR LIVING INC.","BUSINESS","CAPITAL SENIOR LIVING INC.","CAPITAL SENIOR LIVING, INC.","ALSA.AL-0053","ALSA","AL-0053",,"Assisted Living Service Agency","INACTIVE",,"0","2004-04-01T00:00:00.000","2004-04-01T00:00:00.000","2006-03-31T00:00:00.000","6469 Main Street","Trumbull","CT","06611","2010-05-18T00:00:00.000","POINT (-73.227161 41.276361)"
"930013","SUNRISE WEST HARTFORD ASSISTED LIVING L.L.C.","BUSINESS","SUNRISE WEST HARTFORD ASSISTED LIVING L.L.C.","SUNRISE ASSISTED LIVING OF WEST HARTFORD","ALSA.0000074","ALSA","74",,"Assisted Living Service Agency","INACTIVE",,"0","2008-01-01T00:00:00.000","2008-01-01T00:00:00.000","2009-12-31T00:00:00.000","22 Simsbury Road","West Hartford","CT","06107","2010-05-18T00:00:00.000","POINT (-72.722911 41.797413)"
"1525181","ELLINGTON ASSISTED LIVING SERVICES, LLC","LIMITED LIABILITY COMPANY","ELLINGTON ASSISTED LIVING SERVICES, LLC","ELLINGTON ASSISTED LIVING SERVICES, LLC","ALSA.0000199","ALSA","199",,"Assisted Living Service Agency","ACTIVE","CURRENT","1","2018-06-28T00:00:00.000","2022-04-01T00:00:00.000","2024-03-31T00:00:00.000","123 WEST RD","ELLINGTON","CT","060295729","2022-07-19T00:00:00.000","POINT (-72.464218 41.884059)"
"1361748","WATERMARK AT EAST HILL WOODS, THE","LIMITED LIABILITY COMPANY","WATERMARK AT EAST HILL WOODS, THE","WATERMARK AT EAST HILL WOODS, THE","ALSA.0000181","ALSA","181",,"Assisted Living Service Agency","ACTIVE","CURRENT","1","2016-06-20T00:00:00.000","2022-04-01T00:00:00.000","2024-03-31T00:00:00.000","611 EAST HILL ROAD","SOUTHBURY","CT","06488","2022-06-10T00:00:00.000","POINT (-73.241023 41.485028)"
"1518503","ATRIA LITCHFIELD HILLS","LIMITED LIABILITY COMPANY","ATRIA LITCHFIELD HILLS","ATRIA LITCHFIELD HILLS","ALSA.0000194","ALSA","194",,"Assisted Living Service Agency","CLOSED","CLOSED","0","2018-05-29T00:00:00.000","2020-04-01T00:00:00.000","2022-03-31T00:00:00.000","376 GOSHEN RD","TORRINGTON","CT","067902722","2020-09-25T00:00:00.000","POINT (-73.154444 41.820725)"
"1362584","JEWISH SENIOR SERVICES","NON-PROFIT CORPORATION","JEWISH SENIOR SERVICES","JEWISH SENIOR SERVICES","ALSA.0000182","ALSA","182",,"Assisted Living Service Agency","ACTIVE","CURRENT","1","2016-06-23T00:00:00.000","2022-04-01T00:00:00.000","2024-03-31T00:00:00.000","4200 PARK AVENUE","BRIDGEPORT","CT","06604","2022-07-14T00:00:00.000","POINT (-73.231736 41.212276)"
"1640127","THE ROSES AT GUILFORD HOUSE","LIMITED LIABILITY COMPANY","THE ROSES AT GUILFORD HOUSE","THE ROSES AT GUILFORD HOUSE","ALSA.0000209","ALSA","209",,"Assisted Living Service Agency","ACTIVE IN RENEWAL","CURRENT","1","2019-03-21T00:00:00.000","2021-01-01T00:00:00.000","2022-12-31T00:00:00.000","109 W LAKE AVE","GUILFORD","CT","064371352","2022-07-07T00:00:00.000","POINT (-72.725114 41.311472)"
"1248815","MAPLEWOOD AT DARIEN","LIMITED LIABILITY COMPANY","MAPLEWOOD AT DARIEN","MAPLEWOOD AT DARIEN","ALSA.0000171","ALSA","171",,"Assisted Living Service Agency","ACTIVE IN RENEWAL","CURRENT","1","2014-10-06T00:00:00.000","2020-10-01T00:00:00.000","2022-09-30T00:00:00.000","599 POST RD","DARIEN","CT","068203609","2022-08-23T00:00:00.000","POINT (-73.465011 41.082315)"
"930101","VILLAGE RETIREMENT COMMUNITIES LLC","BUSINESS","VILLAGE RETIREMENT COMMUNITIES LLC","VILLAGE AT EAST FARMS","ALSA.0AL0034","ALSA","AL0034",,"Assisted Living Service Agency","INACTIVE",,"0","2004-10-01T00:00:00.000","2004-10-01T00:00:00.000","2006-09-30T00:00:00.000","180 SCOTT ROAD","WATERBURY","CT","06705","2010-05-18T00:00:00.000","POINT (-72.991231 41.538397)"
"929132","BAL ROCKY HILL LLC","LIMITED LIABILITY COMPANY","BAL ROCKY HILL LLC","BAL ROCKY HILL LLC","ALSA.0000142","ALSA","142",,"Assisted Living Service Agency","ACTIVE IN RENEWAL","CURRENT","1","2008-12-02T00:00:00.000","2020-10-01T00:00:00.000","2022-09-30T00:00:00.000","1160 ELM STREET EXT","ROCKY HILL","CT","060671812","2022-08-23T00:00:00.000","POINT (-72.679841 41.658021)"
"929571","INTERIM HEALTHCARE OF HARTFORD INC.","BUSINESS","INTERIM HEALTHCARE OF HARTFORD INC.","INTERIM HEALTHCARE OF HARTFORD, INC.","ALSA.0000075","ALSA","75",,"Assisted Living Service Agency","INACTIVE",,"0","2004-01-01T00:00:00.000","2004-01-01T00:00:00.000","2005-12-31T00:00:00.000","231 Farmington Avenue","Farmington","CT","06032","2010-05-18T00:00:00.000","POINT (-72.793626 41.737713)"
"930333","GREENS AT CANNONDALE, THE","LIMITED LIABILITY COMPANY","GREENS AT CANNONDALE, THE","GREENS AT CANNONDALE, THE","ALSA.0AL0025","ALSA","AL0025",,"Assisted Living Service Agency","ACTIVE","CURRENT","1","2008-04-01T00:00:00.000","2022-04-01T00:00:00.000","2024-03-31T00:00:00.000","435 DANBURY RD","WILTON","CT","068972031","2022-06-28T00:00:00.000","POINT (-73.428331 41.21819)"
"929852","VISITING NURSE AND HEALTH SERVICES OF CT INC.","BUSINESS","VISITING NURSE AND HEALTH SERVICES OF CT INC.","VISITING NURSE AND HEALTH SERVICES OF CT, INC.","ALSA.0000099","ALSA","99",,"Assisted Living Service Agency","INACTIVE","INACTIVE","0","2008-07-01T00:00:00.000","2010-07-01T00:00:00.000","2012-06-30T00:00:00.000","8 Keynote Drive","Vernon","CT","06066","2011-05-17T00:00:00.000","POINT (-72.469004 41.833503)"
"930213","DANBURY ASSISTED LIVING LLC.","LIMITED LIABILITY COMPANY","DANBURY ASSISTED LIVING LLC.","DANBURY ASSISTED LIVING, LLC.","ALSA.0000054","ALSA","54",,"Assisted Living Service Agency","CLOSED","CLOSED","0","2008-07-01T00:00:00.000","2018-07-01T00:00:00.000","2020-06-30T00:00:00.000","8 GLEN HILL RD","DANBURY","CT","068114985","2019-02-15T00:00:00.000","POINT (-73.448186 41.414573)"
"1329552","BRIGHTVIEW ON NEW CANAAN","LIMITED LIABILITY COMPANY","BRIGHTVIEW ON NEW CANAAN","BRIGHTVIEW ON NEW CANAAN","ALSA.0000177","ALSA","177",,"Assisted Living Service Agency","ACTIVE","CURRENT","1","2016-01-22T00:00:00.000","2022-01-01T00:00:00.000","2023-12-31T00:00:00.000","162 NEW CANAAN AVE","NORWALK","CT","068501916","2022-07-19T00:00:00.000","POINT (-73.439401 41.129127)"
"1607006","RESIDENCE AT BROOKSIDE THE","LIMITED LIABILITY COMPANY","RESIDENCE AT BROOKSIDE THE","RESIDENCE AT BROOKSIDE THE","ALSA.0000203","ALSA","203",,"Assisted Living Service Agency","ACTIVE IN RENEWAL","CURRENT","1","2018-10-11T00:00:00.000","2020-10-01T00:00:00.000","2022-09-30T00:00:00.000","117 SIMSBURY ROAD","AVON","CT","06001","2022-08-25T00:00:00.000","POINT (-72.829948 41.817596)"
"929009","DAY KIMBALL HOSPITAL","BUSINESS","DAY KIMBALL HOSPITAL","DAY KIMBALL HOMECARE ALSA","ALSA.0000106","ALSA","106",,"Assisted Living Service Agency","INACTIVE",,"0","2005-06-30T00:00:00.000","2005-06-30T00:00:00.000","2007-06-30T00:00:00.000","320 Pomfret Street","Putnam","CT","06260","2010-05-18T00:00:00.000","POINT (-71.915045 41.907442)"
"929798","AMICUS HEALTHCARE LIVING CENTERS LLC","BUSINESS","AMICUS HEALTHCARE LIVING CENTERS LLC","THE ATRIUM AT ROCKY HILL","ALSA.0000049","ALSA","49",,"Assisted Living Service Agency","INACTIVE",,"0","2004-01-01T00:00:00.000","2004-01-01T00:00:00.000","2005-12-31T00:00:00.000","1160 Elm Street","Rocky Hill","CT","06067","2010-05-18T00:00:00.000","POINT (-72.679841 41.658021)"
"1791336","THE RESIDENCE AT FERRY PARK","LIMITED LIABILITY COMPANY","THE RESIDENCE AT FERRY PARK","THE RESIDENCE AT FERRY PARK","ALSA.0000214","ALSA","214",,"Assisted Living Service Agency","ACTIVE","CURRENT","1","2019-10-04T00:00:00.000","2021-10-01T00:00:00.000","2023-09-30T00:00:00.000","60 COLD SPRING RD","ROCKY HILL","CT","060673175","2022-04-19T00:00:00.000","POINT (-72.681259 41.641657)"
"1390339","BROOKDALE CHATFIELD","LIMITED LIABILITY COMPANY","BROOKDALE CHATFIELD","BROOKDALE CHATFIELD","ALSA.0000186","ALSA","186",,"Assisted Living Service Agency","ACTIVE IN RENEWAL","CURRENT","1","2016-11-21T00:00:00.000","2020-10-01T00:00:00.000","2022-09-30T00:00:00.000","1 CHATFIELD DR","WEST HARTFORD","CT","061102802","2022-08-31T00:00:00.000","POINT (-72.752873 41.727893)"
"931909","MAPLEWOOD AT NEWTOWN","LIMITED LIABILITY COMPANY","MAPLEWOOD AT NEWTOWN","MAPLEWOOD AT NEWTOWN ALSA, LLC","ALSA.0000152","ALSA","152",,"Assisted Living Service Agency","ACTIVE","CURRENT","1","2010-05-15T00:00:00.000","2022-04-01T00:00:00.000","2024-03-31T00:00:00.000","166 MOUNT PLEASANT RD","NEWTOWN","CT","064701456","2022-07-20T00:00:00.000","POINT (-73.366622 41.415915)"
"929882","OLSL LARSON PLACE LLC","BUSINESS","OLSL LARSON PLACE LLC","ATRIA LARSON PLACE","ALSA.0000111","ALSA","111",,"Assisted Living Service Agency","CLOSED","CLOSED","0","2009-10-01T00:00:00.000","2009-10-01T00:00:00.000","2011-09-30T00:00:00.000","1450 Whitney Avenue","Hamden","CT","06517","2012-07-24T00:00:00.000","POINT (-72.913115 41.353404)"
"930073","EVERGREEN WOODS","LIMITED LIABILITY COMPANY","EVERGREEN WOODS","EVERGREEN WOODS","ALSA.0000092","ALSA","92",,"Assisted Living Service Agency","CLOSED","CLOSED","0","2009-04-01T00:00:00.000","2015-04-01T00:00:00.000","2017-03-31T00:00:00.000","88 NOTCH HILL RD","NORTH BRANFORD","CT","064711846","2016-12-05T00:00:00.000","POINT (-72.751087 41.317083)"
"930839","MANCHESTER MANOR ASSISTED LIVING SERVICES AGENCY","LIMITED LIABILITY PARTNERSHIP","MANCHESTER MANOR ASSISTED LIVING SERVICES AGENCY","MANCHESTER MANOR ASSISTED LIVING SERVICES AGENCY","ALSA.0AL0055","ALSA","AL0055",,"Assisted Living Service Agency","CLOSED","CLOSED","0","2009-07-01T00:00:00.000","2020-07-28T00:00:00.000","2023-06-30T00:00:00.000","385 W CENTER ST","MANCHESTER","CT","060404738","2022-07-28T00:00:00.000","POINT (-72.552622 41.769734)"
"929128","BAL MIDDLETOWN LLC","LIMITED LIABILITY COMPANY","BAL MIDDLETOWN LLC","BAL MIDDLETOWN LLC","ALSA.0000137","ALSA","137",,"Assisted Living Service Agency","ACTIVE IN RENEWAL","CURRENT","1","2008-12-02T00:00:00.000","2020-10-01T00:00:00.000","2022-09-30T00:00:00.000","645 SAYBROOK RD","MIDDLETOWN","CT","064574746","2022-08-22T00:00:00.000","POINT (-72.61955 41.538898)"
"929496","PARKSIDE SENIOR SERVICES LLC","BUSINESS","PARKSIDE SENIOR SERVICES LLC","GREAT POND CROSSING AT RIDGEFIELD","ALSA.0000079","ALSA","79",,"Assisted Living Service Agency","INACTIVE",,"0","2002-08-13T00:00:00.000","2002-08-13T00:00:00.000","2004-06-30T00:00:00.000","640 Danbury Road","Ridgefield","CT","06877","2010-05-18T00:00:00.000","POINT (-73.474933 41.324173)"
"2387332","ARBORS OF HOP BROOK","BUSINESS","ARBORS OF HOP BROOK","ARBORS OF HOP BROOK","ALSA.0000236","ALSA","236",,"Assisted Living Service Agency","ACTIVE","CURRENT","1","2022-07-28T00:00:00.000","2022-07-15T00:00:00.000","2024-06-30T00:00:00.000","403 W CENTER  ST.","MANCHESTER","CT","06040","2022-08-25T00:00:00.000","POINT (-72.553849 41.769533)"
"929720","ABBINGTON SERVICES INC.","BUSINESS","ABBINGTON SERVICES INC.","ABBINGTON OF NEWINGTON","ALSA.0AL0042","ALSA","AL0042",,"Assisted Living Service Agency","INACTIVE",,"0","2001-04-01T00:00:00.000","2001-04-01T00:00:00.000","2003-03-31T00:00:00.000","2125 MAIN STREET","NEWINGTON","CT","06111","2010-05-18T00:00:00.000","POINT (-72.718614 41.671272)"
"1995085","SPRING VILLAGE AT STRATFORD","LIMITED LIABILITY COMPANY","SPRING VILLAGE AT STRATFORD","SPRING VILLAGE AT STRATFORD","ALSA.0000218","ALSA","218",,"Assisted Living Service Agency","ACTIVE","CURRENT","1","2019-12-27T00:00:00.000","2021-10-01T00:00:00.000","2023-09-30T00:00:00.000","6911 MAIN ST","STRATFORD","CT","066141360","2022-06-10T00:00:00.000","POINT (-73.10197 41.247009)"
"996312","BROOKDALE MOUNTAIN LAUREL HEBRON","CORPORATION","BROOKDALE MOUNTAIN LAUREL HEBRON","BROOKDALE MOUNTAIN LAUREL HEBRON","ALSA.0000156","ALSA","156",,"Assisted Living Service Agency","CLOSED","CLOSED","0","2011-05-04T00:00:00.000","2017-04-01T00:00:00.000","2019-03-31T00:00:00.000","1177 HEBRON AVE","GLASTONBURY","CT","060335008","2018-05-30T00:00:00.000","POINT (-72.565653 41.718235)"
"929644","MAPLEWOOD AT DANBURY ALSA LLC","LIMITED LIABILITY COMPANY","MAPLEWOOD AT DANBURY ALSA LLC","MAPLEWOOD AT DANBURY ALSA, LLC","ALSA.0000114","ALSA","114",,"Assisted Living Service Agency","ACTIVE IN RENEWAL","CURRENT","1","2008-04-01T00:00:00.000","2020-04-01T00:00:00.000","2022-03-31T00:00:00.000","22 HOSPITAL AVE","DANBURY","CT","068105945","2022-05-16T00:00:00.000","POINT (-73.447611 41.403629)"
"928953","AHC CAPITAL INC.","BUSINESS","AHC CAPITAL INC.","ALTERRA CLARE BRIDGE OF GLASTONBURY","ALSA.0000062","ALSA","62",,"Assisted Living Service Agency","INACTIVE",,"0","2001-03-16T00:00:00.000","2001-03-16T00:00:00.000","2002-12-31T00:00:00.000","1824 Manchester Road","Glastonbury","CT","06033","2010-05-18T00:00:00.000","POINT (-72.520224 41.73007)"
"929658","MERCY COMMUNITY HOME CARE SERVICES INC.","BUSINESS","MERCY COMMUNITY HOME CARE SERVICES INC.","MERCY COMMUNITY HOME CARE SERVICES, INC.","ALSA.0000117","ALSA","117",,"Assisted Living Service Agency","CLOSED","CLOSED","0","2009-01-01T00:00:00.000","2009-01-01T00:00:00.000","2010-12-31T00:00:00.000","275 Steele Road","West Hartford","CT","06107","2012-04-18T00:00:00.000","POINT (-72.724345 41.783696)"
"929164","CONNECTICUT ORANGE LLC","BUSINESS","CONNECTICUT ORANGE LLC","LAUREL ESTATES","ALSA.0000147","ALSA","147",,"Assisted Living Service Agency","CLOSED","CLOSED","0","2009-09-01T00:00:00.000","2009-09-01T00:00:00.000","2011-06-30T00:00:00.000","245 Indian River Road","Orange","CT","06477","2011-02-16T00:00:00.000","POINT (-73.000132 41.263913)"
"1003737","ATRIA DARIEN","LIMITED LIABILITY COMPANY","ATRIA DARIEN","ATRIA DARIEN","ALSA.0000158","ALSA","158",,"Assisted Living Service Agency","ACTIVE","CURRENT","1","2011-06-22T00:00:00.000","2021-04-01T00:00:00.000","2023-03-31T00:00:00.000","50 LEDGE RD","DARIEN","CT","068204439","2022-05-03T00:00:00.000","POINT (-73.483961 41.071538)"
"2290614","CHATHAM PLACE AT MARY WADE","NON-PROFIT CORPORATION","CHATHAM PLACE AT MARY WADE","CHATHAM PLACE AT MARY WADE","ALSA.0000231","ALSA","231",,"Assisted Living Service Agency","ACTIVE","CURRENT","1","2022-01-21T00:00:00.000","2022-01-18T00:00:00.000","2023-12-31T00:00:00.000","138 CLINTON AVE","NEW HAVEN","CT","065133140","2022-01-26T00:00:00.000","POINT (-72.891409 41.313382)"
"930724","SUNRISE SENIOR LIVING SERVICES INC.","BUSINESS","SUNRISE SENIOR LIVING SERVICES INC.","BRIGHTON GARDENS OF WOODBRIDGE ASSISTED LIVING SERVICES AGENCY","ALSA.0AL0033","ALSA","AL0033",,"Assisted Living Service Agency","INACTIVE",,"0","2008-10-01T00:00:00.000","2008-10-01T00:00:00.000","2010-09-30T00:00:00.000","330 AMITY ROAD","WOODBRIDGE","CT","06525","2010-05-18T00:00:00.000","POINT (-72.988123 41.349764)"
"1003943","ATRIA STAMFORD","LIMITED LIABILITY COMPANY","ATRIA STAMFORD","ATRIA STAMFORD","ALSA.0000163","ALSA","163",,"Assisted Living Service Agency","ACTIVE","CURRENT","1","2011-06-23T00:00:00.000","2021-04-01T00:00:00.000","2023-03-31T00:00:00.000","77 3RD ST","STAMFORD","CT","069054722","2022-03-29T00:00:00.000","POINT (-73.538768 41.065308)"
"1799287","LANDING OF NORTH HAVEN, THE","LIMITED LIABILITY COMPANY","LANDING OF NORTH HAVEN, THE","LANDING OF NORTH HAVEN, THE","ALSA.0000217","ALSA","217",,"Assisted Living Service Agency","ACTIVE","CURRENT","1","2019-10-16T00:00:00.000","2021-10-01T00:00:00.000","2023-09-30T00:00:00.000","201 CLINTONVILLE RD","NORTH HAVEN","CT","064732451","2022-07-21T00:00:00.000","POINT (-72.843506 41.390105)"
"929168","THE SAYBROOK AT HADDAM","LIMITED LIABILITY COMPANY","THE SAYBROOK AT HADDAM","THE SAYBROOK AT HADDAM","ALSA.0000148","ALSA","148",,"Assisted Living Service Agency","ACTIVE","CURRENT","1","2009-09-25T00:00:00.000","2021-07-01T00:00:00.000","2023-06-30T00:00:00.000","1556 SAYBROOK RD ROUTE 154","HADDAM","CT","064381370","2022-04-19T00:00:00.000",
"2405914","COLEBROOK VILLAGE AT HEBRON","LIMITED LIABILITY COMPANY","COLEBROOK VILLAGE AT HEBRON","COLEBROOK VILLAGE AT HEBRON","ALSA","ALSA",,,"Assisted Living Service Agency","PENDING","APPLICATION PENDING","0",,,,"55 JOHN E HORTON BOULEVARD","HEBRON","CT","06248","2022-09-01T00:00:00.000",
"930717","AVERY HEIGHTS ASSISTED LIVING SERVICES AGENCY","CORPORATION","AVERY HEIGHTS ASSISTED LIVING SERVICES AGENCY","AVERY HEIGHTS ASSISTED LIVING SERVICES AGENCY","ALSA.0AL0016","ALSA","AL0016",,"Assisted Living Service Agency","ACTIVE","CURRENT","1","2009-04-01T00:00:00.000","2021-04-01T00:00:00.000","2023-03-31T00:00:00.000","705 NEW BRITAIN AVENUE","HARTFORD","CT","061064263","2022-03-21T00:00:00.000","POINT (-72.705383 41.733277)"
"996299","BROOKDALE BUCKINGHAM","CORPORATION","BROOKDALE BUCKINGHAM","BROOKDALE BUCKINGHAM","ALSA.0000155","ALSA","155",,"Assisted Living Service Agency","ACTIVE","CURRENT","1","2011-05-04T00:00:00.000","2021-04-01T00:00:00.000","2023-03-31T00:00:00.000","1824 MANCHESTER RD","GLASTONBURY","CT","060331832","2022-03-29T00:00:00.000","POINT (-72.520224 41.73007)"
"929120","EMERITUS CORPORATION","CORPORATION","EMERITUS CORPORATION","EMERITUS AT WOODBRIDGE","ALSA.0000132","ALSA","132",,"Assisted Living Service Agency","CLOSED","CLOSED","0","2008-12-01T00:00:00.000","2012-10-01T00:00:00.000","2014-09-30T00:00:00.000","330 AMITY RD","WOODBRIDGE","CT","065252131","2014-09-04T00:00:00.000","POINT (-72.988123 41.349764)"
"1388588","MASONICARE HOME HEALTH AND HOSPICE","NON-PROFIT CORPORATION","MASONICARE HOME HEALTH AND HOSPICE","MASONICARE HOME HEALTH AND HOSPICE","ALSA.0000185","ALSA","185",,"Assisted Living Service Agency","ACTIVE IN RENEWAL","CURRENT","1","2016-11-09T00:00:00.000","2020-10-01T00:00:00.000","2022-09-30T00:00:00.000","104 S TURNPIKE RD","WALLINGFORD","CT","064924320","2022-08-26T00:00:00.000","POINT (-72.845337 41.446113)"
"1518513","ATRIA GLASTONBURY","LIMITED LIABILITY COMPANY","ATRIA GLASTONBURY","ATRIA GLASTONBURY","ALSA.0000195","ALSA","195",,"Assisted Living Service Agency","CLOSED","CLOSED","0","2018-05-29T00:00:00.000","2020-04-01T00:00:00.000","2022-03-31T00:00:00.000","1177 HEBRON AVE","GLASTONBURY","CT","060335008","2020-09-25T00:00:00.000","POINT (-72.565653 41.718235)"
"929872","ESSEX MEADOWS","CORPORATION","ESSEX MEADOWS","ESSEX MEADOWS","ALSA.0000105","ALSA","105",,"Assisted Living Service Agency","CLOSED","CLOSED","0","2009-01-01T00:00:00.000","2017-01-01T00:00:00.000","2018-12-31T00:00:00.000","30 BOKUM RD","ESSEX","CT","064261510","2018-12-03T00:00:00.000","POINT (-72.410763 41.338327)"
"2228386","MONARCH AT SPRING MEADOWS","LIMITED LIABILITY COMPANY","MONARCH AT SPRING MEADOWS","MONARCH AT SPRING MEADOWS","ALSA.0000227","ALSA","227",,"Assisted Living Service Agency","ACTIVE","CURRENT","1","2021-06-23T00:00:00.000","2021-06-10T00:00:00.000","2023-03-31T00:00:00.000","6949 MAIN ST","TRUMBULL","CT","066116304","2021-08-03T00:00:00.000","POINT (-73.240184 41.289163)"
"930302","HEARTH MANAGEMENT LLC","LIMITED LIABILITY COMPANY","HEARTH MANAGEMENT LLC","HEARTH MANAGEMENT, LLC","ALSA.0000072","ALSA","72",,"Assisted Living Service Agency","ACTIVE","CURRENT","1","2009-10-01T00:00:00.000","2021-10-01T00:00:00.000","2023-09-30T00:00:00.000","100 BRADLEY RD","MADISON","CT","064432688","2022-04-11T00:00:00.000","POINT (-72.596611 41.283095)"
"1330938","MEADOW MILLS ASSISTED LIVING & MEMORY CARE","LIMITED LIABILITY COMPANY","MEADOW MILLS ASSISTED LIVING & MEMORY CARE","MEADOW MILLS ASSISTED LIVING & MEMORY CARE","ALSA.0000178","ALSA","178",,"Assisted Living Service Agency","ACTIVE IN RENEWAL","CURRENT","1","2016-01-28T00:00:00.000","2020-04-01T00:00:00.000","2022-03-31T00:00:00.000","153 LEEDER HILL DR","HAMDEN","CT","065172731","2022-02-11T00:00:00.000","POINT (-72.921193 41.346437)"
"929691","WATERMARK ALSA II L.L.C.","LIMITED LIABILITY COMPANY","WATERMARK ALSA II L.L.C.","WATERMARK ALSA II, L.L.C.","ALSA.0000122","ALSA","122",,"Assisted Living Service Agency","CLOSED","CLOSED","0","2009-10-01T00:00:00.000","2015-10-01T00:00:00.000","2017-09-30T00:00:00.000","611 EAST HILL ROAD","SOUTHBURY","CT","06487","2016-06-20T00:00:00.000","POINT (-73.241023 41.485028)"
"929883","LUTHER RIDGE AT MIDDLETOWN INC.","NON-PROFIT CORPORATION","LUTHER RIDGE AT MIDDLETOWN INC.","LUTHER RIDGE AT MIDDLETOWN, INC.","ALSA.0000113","ALSA","113",,"Assisted Living Service Agency","ACTIVE","CURRENT","1","2009-10-01T00:00:00.000","2021-10-01T00:00:00.000","2023-09-30T00:00:00.000","628 CONGDON ST W","MIDDLETOWN","CT","064577939","2022-03-24T00:00:00.000","POINT (-72.694591 41.570091)"
"1457198","BRIDGES BY EPOCH AT NORWALK","LIMITED LIABILITY COMPANY","BRIDGES BY EPOCH AT NORWALK","BRIDGES BY EPOCH AT NORWALK","ALSA.0000190","ALSA","190",,"Assisted Living Service Agency","ACTIVE","CURRENT","1","2017-10-19T00:00:00.000","2021-10-01T00:00:00.000","2023-09-30T00:00:00.000","123 RICHARDS AVE","NORWALK","CT","068541611","2022-07-18T00:00:00.000","POINT (-73.451795 41.097298)"
"928987","BENCHMARK NIANTIC SENIOR HOUSING","BUSINESS","BENCHMARK NIANTIC SENIOR HOUSING","BENCHMARK ASSISTED LIVING, LLC","ALSA.0000095","ALSA","95",,"Assisted Living Service Agency","INACTIVE",,"0","2003-11-07T00:00:00.000","2003-11-07T00:00:00.000","2005-09-30T00:00:00.000","417 Main Street","Niantic","CT","06333","2010-05-18T00:00:00.000","POINT (-72.199095 41.322286)"
"930467","SUNRISE OF STAMFORD","LIMITED LIABILITY COMPANY","SUNRISE OF STAMFORD","SUNRISE OF STAMFORD","ALSA.0000068","ALSA","68",,"Assisted Living Service Agency","ACTIVE","CURRENT","1","2009-04-01T00:00:00.000","2021-04-01T00:00:00.000","2023-03-31T00:00:00.000","251 TURN OF RIVER RD","STAMFORD","CT","069051320","2022-03-31T00:00:00.000","POINT (-73.544443 41.110828)"
"2075286","OCEAN MEADOW ASSISTED LIVING AND MEMORY CARE","LIMITED LIABILITY COMPANY","OCEAN MEADOW ASSISTED LIVING AND MEMORY CARE","OCEAN MEADOW ASSISTED LIVING AND MEMORY CARE","ALSA.0000222","ALSA","222",,"Assisted Living Service Agency","CLOSED","CLOSED","0","2020-08-17T00:00:00.000","2020-05-11T00:00:00.000","2022-06-30T00:00:00.000","91 E MAIN ST","CLINTON","CT","064132139","2022-06-28T00:00:00.000","POINT (-72.520003 41.27723)"
"929100","MASONICARE HOME HEALTH AND HOSPICE INC.","CORPORATION","MASONICARE HOME HEALTH AND HOSPICE INC.","MASONICARE HOME HEALTH AND HOSPICE","ALSA.0000128","ALSA","128",,"Assisted Living Service Agency","CLOSED","CLOSED","0","2008-10-30T00:00:00.000","2014-10-01T00:00:00.000","2016-09-30T00:00:00.000","33 N PLAINS INDUSTRIAL RD","WALLINGFORD","CT","064925841","2016-11-09T00:00:00.000","POINT (-72.814045 41.485445)"
"929849","SACRED HEART MANOR INC.","CORPORATION","SACRED HEART MANOR INC.","SACRED HEART MANOR, Inc.","ALSA.0000098","ALSA","98",,"Assisted Living Service Agency","ACTIVE","CURRENT","1","2008-04-01T00:00:00.000","2022-04-01T00:00:00.000","2024-03-31T00:00:00.000","261 BENHAM ST","HAMDEN","CT","065142801","2022-07-20T00:00:00.000","POINT (-72.932229 41.364959)"
"1123803","ASSISTED LIVING SERVICES AGENCY AT CREAMERY BROOK","CORPORATION","ASSISTED LIVING SERVICES AGENCY AT CREAMERY BROOK","ASSISTED LIVING SERVICES AGENCY AT CREAMERY BROOK","ALSA.0000166","ALSA","166",,"Assisted Living Service Agency","CLOSED","CLOSED","0","2012-09-19T00:00:00.000","2018-07-01T00:00:00.000","2020-06-30T00:00:00.000","36 VINA LN","BROOKLYN","CT","062341937","2021-12-15T00:00:00.000","POINT (-71.944691 41.782419)"
"930210","HEBREW COMMUNITY SERVICES INC.","CORPORATION","HEBREW COMMUNITY SERVICES INC.","HEBREW HEALTH CARE ASSISTED LIVING SERVICE AGENCY","ALSA.0AL0052","ALSA","AL0052",,"Assisted Living Service Agency","ACTIVE IN RENEWAL","CURRENT","1","2008-04-01T00:00:00.000","2020-04-01T00:00:00.000","2022-03-31T00:00:00.000","1 ABRAHMS BLVD","WEST HARTFORD","CT","061171508","2020-06-11T00:00:00.000","POINT (-72.728833 41.802723)"
"1642317","THE RESIDENCE AT SELLECK'S WOODS","LIMITED LIABILITY COMPANY","THE RESIDENCE AT SELLECK'S WOODS","THE RESIDENCE AT SELLECK'S WOODS","ALSA.0000210","ALSA","210",,"Assisted Living Service Agency","ACTIVE IN RENEWAL","CURRENT","1","2019-03-27T00:00:00.000","2021-01-01T00:00:00.000","2022-12-31T00:00:00.000","1 PARKLANDS DR","DARIEN","CT","068203656","2022-07-06T00:00:00.000","POINT (-73.459868 41.083331)"
"929940","BROOKDALE LITCHFIELD HILLS","LIMITED LIABILITY COMPANY","BROOKDALE LITCHFIELD HILLS","BROOKDALE LITCHFIELD HILLS","ALSA.0000101","ALSA","101",,"Assisted Living Service Agency","CLOSED","CLOSED","0","2008-07-01T00:00:00.000","2016-07-01T00:00:00.000","2018-06-30T00:00:00.000","376 GOSHEN RD","TORRINGTON","CT","067902722","2018-05-30T00:00:00.000","POINT (-73.154444 41.820725)"
"929714","MILLER MEMORIAL COMMUNITY INC.","BUSINESS","MILLER MEMORIAL COMMUNITY INC.","MILLER MEMORIAL COMMUNITY, INC.","ALSA.AL-0056","ALSA","AL-0056",,"Assisted Living Service Agency","INACTIVE",,"0","2002-07-01T00:00:00.000","2002-07-01T00:00:00.000","2004-06-30T00:00:00.000","360 BROAD STREET","MERIDEN","CT","06450","2010-05-18T00:00:00.000","POINT (-72.795272 41.530336)"
"929131","BAL TRUMBULL LLC","LIMITED LIABILITY COMPANY","BAL TRUMBULL LLC","BAL TRUMBULL LLC","ALSA.0000143","ALSA","143",,"Assisted Living Service Agency","ACTIVE IN RENEWAL","CURRENT","1","2008-12-02T00:00:00.000","2020-10-01T00:00:00.000","2022-09-30T00:00:00.000","2750 RESERVOIR AVE","TRUMBULL","CT","066115715","2022-08-22T00:00:00.000","POINT (-73.196173 41.237949)"
"929528","ATRIA ASSISTED LIVING TOWN CENTER LLC","BUSINESS","ATRIA ASSISTED LIVING TOWN CENTER LLC","ATRIA ASSISTED LIVING, TOWN CENTER","ALSA.0000078","ALSA","78",,"Assisted Living Service Agency","INACTIVE",,"0","2002-07-11T00:00:00.000","2002-07-11T00:00:00.000","2004-06-30T00:00:00.000","26 Mill River Street","STAMFORD","CT","06902","2010-05-18T00:00:00.000","POINT (-73.546297 41.053398)"
"2367148","OCEAN MEADOW SENIOR LIVING & MEMORY CARE","LIMITED LIABILITY COMPANY","OCEAN MEADOW SENIOR LIVING & MEMORY CARE","OCEAN MEADOW SENIOR LIVING & MEMORY CARE","ALSA.0000235","ALSA","235",,"Assisted Living Service Agency","ACTIVE","CURRENT","1","2022-06-27T00:00:00.000","2022-06-23T00:00:00.000","2024-03-31T00:00:00.000","91 EAST MAIN STREET","CLINTON","CT","06413","2022-06-27T00:00:00.000","POINT (-72.520003 41.27723)"
"930304","GREENS AT GREENWICH, THE","LIMITED LIABILITY COMPANY","GREENS AT GREENWICH, THE","GREENS AT GREENWICH, THE","ALSA.0000073","ALSA","73",,"Assisted Living Service Agency","ACTIVE","CURRENT","1","2009-10-01T00:00:00.000","2021-10-01T00:00:00.000","2023-09-30T00:00:00.000","1155 KING ST","GREENWICH","CT","068313246","2022-06-10T00:00:00.000","POINT (-73.693758 41.058795)"
"930922","WHITNEY CENTER INCORPORATED","CORPORATION","WHITNEY CENTER INCORPORATED","WHITNEY CENTER, INC","ALSA.0AL0001","ALSA","AL0001",,"Assisted Living Service Agency","ACTIVE","CURRENT","1","2009-10-01T00:00:00.000","2021-10-01T00:00:00.000","2023-09-30T00:00:00.000","200 LEEDER HILL DR","HAMDEN","CT","065172749","2022-08-15T00:00:00.000","POINT (-72.920883 41.349216)"
"929096","ADEL R. COCCOMO RESIDENTIAL CENTER LLC","BUSINESS","ADEL R. COCCOMO RESIDENTIAL CENTER LLC","ADEL R. COCCOMO RESIDENTIAL CENTER","ALSA.0000127","ALSA","127",,"Assisted Living Service Agency","INACTIVE",,"0","2008-10-15T00:00:00.000","2008-10-15T00:00:00.000","2010-09-30T00:00:00.000","1556 Saybrook Road","Haddam","CT","06438","2010-05-18T00:00:00.000","POINT (-72.478025 41.450939)"
"930007","SUNRISE WILTON ASSISTED LIVING L.L.C.","BUSINESS","SUNRISE WILTON ASSISTED LIVING L.L.C.","SUNRISE ASSISTED LIVING OF WILTON","ALSA.0000070","ALSA","70",,"Assisted Living Service Agency","INACTIVE",,"0","2007-10-01T00:00:00.000","2007-10-01T00:00:00.000","2009-09-30T00:00:00.000","96 Danbury Road","Wilton","CT","06897","2010-05-18T00:00:00.000","POINT (-73.416578 41.173046)"
"1243579","LINDEN AT WOODBRIDGE, THE","LIMITED LIABILITY COMPANY","LINDEN AT WOODBRIDGE, THE","LINDEN AT WOODBRIDGE, THE","ALSA.0000170","ALSA","170",,"Assisted Living Service Agency","ACTIVE IN RENEWAL","CURRENT","1","2014-09-04T00:00:00.000","2020-07-01T00:00:00.000","2022-06-30T00:00:00.000","330 AMITY RD","WOODBRIDGE","CT","065252131","2022-06-07T00:00:00.000","POINT (-72.988123 41.349764)"
"929580","HAMDEN CARE LLC","BUSINESS","HAMDEN CARE LLC","LAUREL GARDENS OF HAMDEN","ALSA.0000084","ALSA","84",,"Assisted Living Service Agency","INACTIVE",,"0","2004-07-01T00:00:00.000","2004-07-01T00:00:00.000","2006-06-30T00:00:00.000","35 Hamden Hills Drive","Hamden","CT","06514","2010-05-18T00:00:00.000","POINT (-72.910228 41.388808)"
"1525116","KSMS CONNECTICUT, INC.","CORPORATION","KSMS CONNECTICUT, INC.","KSMS CONNECTICUT, INC.","ALSA.0000198","ALSA","198",,"Assisted Living Service Agency","ACTIVE IN RENEWAL","CURRENT","1","2018-07-13T00:00:00.000","2020-07-01T00:00:00.000","2022-06-30T00:00:00.000","1058 LITCHFIELD ST","TORRINGTON","CT","067906029","2022-08-15T00:00:00.000","POINT (-73.141988 41.788521)"
"929660","BRANDYWINE SENIOR LIVING AT LITCHFIELD","LIMITED LIABILITY COMPANY","BRANDYWINE SENIOR LIVING AT LITCHFIELD","BRANDYWINE SENIOR LIVING AT LITCHFIELD","ALSA.0000118","ALSA","118",,"Assisted Living Service Agency","CLOSED","CLOSED","0","2009-01-01T00:00:00.000","2017-01-01T00:00:00.000","2018-12-31T00:00:00.000","19 CONSTITUTION WAY","LITCHFIELD","CT","067593428","2018-12-18T00:00:00.000","POINT (-73.2049 41.743708)"
"2289870","PEREGRINE HAMILTON HEIGHTS","LIMITED LIABILITY COMPANY","PEREGRINE HAMILTON HEIGHTS","PEREGRINE HAMILTON HEIGHTS","ALSA.0000230","ALSA","230",,"Assisted Living Service Agency","ACTIVE","CURRENT","1","2022-02-17T00:00:00.000","2022-02-17T00:00:00.000","2023-12-31T00:00:00.000","1 HAMILTON HEIGHTS DR","WEST HARTFORD","CT","06119","2022-02-22T00:00:00.000","POINT (-72.722605 41.768833)"
"929579","MILFORD CARE LLC","BUSINESS","MILFORD CARE LLC","LAUREL GARDENS OF MILFORD","ALSA.0000083","ALSA","83",,"Assisted Living Service Agency","INACTIVE",,"0","2004-07-01T00:00:00.000","2004-07-01T00:00:00.000","2006-06-30T00:00:00.000","77 Plains Road","Milford","CT","06460","2010-05-18T00:00:00.000","POINT (-73.07533 41.222556)"
"929127","BAL EAST HAVEN LLC","LIMITED LIABILITY COMPANY","BAL EAST HAVEN LLC","BAL EAST HAVEN LLC","ALSA.0000136","ALSA","136",,"Assisted Living Service Agency","ACTIVE IN RENEWAL","CURRENT","1","2008-12-01T00:00:00.000","2020-10-01T00:00:00.000","2022-09-30T00:00:00.000","111 S SHORE DR","EAST HAVEN","CT","065124661","2022-08-22T00:00:00.000","POINT (-72.877458 41.245779)"
"1003789","ATRIA GREENRIDGE PLACE","LIMITED LIABILITY COMPANY","ATRIA GREENRIDGE PLACE","ATRIA GREENRIDGE PLACE","ALSA.0000159","ALSA","159",,"Assisted Living Service Agency","ACTIVE","CURRENT","1","2011-06-22T00:00:00.000","2021-04-01T00:00:00.000","2023-03-31T00:00:00.000","1 ELIZABETH CT","ROCKY HILL","CT","060671187","2022-02-18T00:00:00.000","POINT (-72.674275 41.668374)"
"930723","CARE LINK CORPORATION","CORPORATION","CARE LINK CORPORATION","CARE LINK CORPORATION","ALSA.0AL0032","ALSA","AL0032",,"Assisted Living Service Agency","ACTIVE IN RENEWAL","CURRENT","1","2008-10-01T00:00:00.000","2020-10-01T00:00:00.000","2022-09-30T00:00:00.000","580 LONG HILL AVE","SHELTON","CT","064844803","2022-06-03T00:00:00.000","POINT (-73.098429 41.281236)"
"929927","SOUTHBURY SENIOR LIVING LLC","BUSINESS","SOUTHBURY SENIOR LIVING LLC","SOUTHBURY SENIOR LIVING, LLC","ALSA.0000107","ALSA","107",,"Assisted Living Service Agency","INACTIVE","INACTIVE","0","2009-07-01T00:00:00.000","2009-07-01T00:00:00.000","2011-06-30T00:00:00.000","1177 Hebron Avenue","Glastonbury","CT","06025","2010-05-18T00:00:00.000","POINT (-72.565653 41.718235)"
"1422256","ATRIA FARMINGTON","LIMITED LIABILITY COMPANY","ATRIA FARMINGTON","ATRIA FARMINGTON","ALSA.0000189","ALSA","189",,"Assisted Living Service Agency","CLOSED","CLOSED","0","2017-05-05T00:00:00.000","2019-04-01T00:00:00.000","2021-03-31T00:00:00.000","111 SCOTT SWAMP RD","FARMINGTON","CT","060322861","2020-04-06T00:00:00.000","POINT (-72.857734 41.704071)"
"1468423","FAIRFIELD COUNTY HOUSE","CORPORATION","FAIRFIELD COUNTY HOUSE",,"ALSA.0000191","ALSA","191",,"Assisted Living Service Agency","ACTIVE","CURRENT","1","2018-01-10T00:00:00.000","2022-01-01T00:00:00.000","2023-12-31T00:00:00.000","1 DEN RD","STAMFORD","CT","069021113","2022-06-10T00:00:00.000","POINT (-73.575065 41.096419)"
"929757","OLSL STAMFORD LLC","BUSINESS","OLSL STAMFORD LLC","ATRIA STAMFORD","ALSA.0000120","ALSA","120",,"Assisted Living Service Agency","CLOSED","CLOSED","0","2009-07-01T00:00:00.000","2009-07-01T00:00:00.000","2011-06-30T00:00:00.000","77 Third Street","Stamford","CT","06905","2012-07-24T00:00:00.000","POINT (-73.538768 41.065308)"
"1602830","BSL FAIRFIELD LLC","LIMITED LIABILITY COMPANY","BSL FAIRFIELD LLC","BSL FAIRFIELD LLC","ALSA.0000202","ALSA","202",,"Assisted Living Service Agency","ACTIVE","CURRENT","1","2018-09-20T00:00:00.000","2022-07-01T00:00:00.000","2024-06-30T00:00:00.000","448 MILL PLAN ROAD","FAIRFIELD","CT","06824","2022-07-21T00:00:00.000","POINT (-73.266738 41.146441)"
"929879","OLSL CROSSROADS PLACE LLC","BUSINESS","OLSL CROSSROADS PLACE LLC","ATRIA CROSSROADS PLACE","ALSA.0000109","ALSA","109",,"Assisted Living Service Agency","INACTIVE","INACTIVE","0","2009-10-01T00:00:00.000","2009-10-01T00:00:00.000","2011-09-30T00:00:00.000","One Beechwood Drive","Waterford","CT","06385","2012-11-29T00:00:00.000",
"2053225","ATRIA RIDGEFIELD","LIMITED LIABILITY COMPANY","ATRIA RIDGEFIELD","ATRIA RIDGEFIELD","ALSA.0000221","ALSA","221",,"Assisted Living Service Agency","CLOSED","CLOSED","0","2020-06-08T00:00:00.000","2020-06-05T00:00:00.000","2022-03-31T00:00:00.000","55 OLD QUARRY ROAD","RIDGEFIELD","CT","06877","2022-03-09T00:00:00.000","POINT (-73.492039 41.288119)"
"930077","GEER VILLAGE","CORPORATION","GEER VILLAGE","GEER VILLAGE","ALSA.0000093","ALSA","93",,"Assisted Living Service Agency","ACTIVE","CURRENT","1","2009-04-01T00:00:00.000","2021-04-01T00:00:00.000","2023-03-31T00:00:00.000","77 S CANAAN RD","CANAAN","CT","060182517","2021-12-07T00:00:00.000","POINT (-73.332737 42.017975)"
"1286246","RESIDENCE AT BROOKSIDE, THE","LIMITED LIABILITY COMPANY","RESIDENCE AT BROOKSIDE, THE","RESIDENCE AT BROOKSIDE, THE","ALSA.0000174","ALSA","174",,"Assisted Living Service Agency","CLOSED","CLOSED","0","2015-05-21T00:00:00.000","2017-04-01T00:00:00.000","2019-03-31T00:00:00.000","117 SIMSBURY RD","AVON","CT","060013715","2018-10-15T00:00:00.000","POINT (-72.829948 41.817596)"
"929772","WATERMARK HOME CARE OF CONNECTICUT LLC","LIMITED LIABILITY COMPANY","WATERMARK HOME CARE OF CONNECTICUT LLC","WATERMARK AT HOME","ALSA.0000115","ALSA","115",,"Assisted Living Service Agency","CLOSED","CLOSED","0","2008-07-01T00:00:00.000","2014-07-01T00:00:00.000","2016-06-30T00:00:00.000","3030 PARK AVE","BRIDGEPORT","CT","066041138","2016-06-20T00:00:00.000","POINT (-73.219717 41.198599)"
"930028","MASONICARE AT NEWTOWN/LOCKWOOD LODGE","CORPORATION","MASONICARE AT NEWTOWN/LOCKWOOD LODGE","MASONICARE AT NEWTOWN/LOCKWOOD LODGE","ALSA.0000086","ALSA","86",,"Assisted Living Service Agency","CLOSED","CLOSED","0","2008-10-01T00:00:00.000","2016-10-01T00:00:00.000","2018-09-30T00:00:00.000","139 TODDY HILL RD","SANDY HOOK","CT","064821362","2018-06-11T00:00:00.000","POINT (-73.258862 41.382611)"
"930301","ASSISTED LIVING SERVICE AGENCY OF NEW CANAAN","NON-PROFIT CORPORATION","ASSISTED LIVING SERVICE AGENCY OF NEW CANAAN","ASSISTED LIVING SERVICE AGENCY OF NEW CANAAN","ALSA.0000071","ALSA","71",,"Assisted Living Service Agency","ACTIVE","CURRENT","1","2009-10-01T00:00:00.000","2021-10-01T00:00:00.000","2023-09-30T00:00:00.000","3 FARM RD","NEW CANAAN","CT","068406626","2022-05-12T00:00:00.000","POINT (-73.493667 41.128529)"
"1342722","AVALON HEALTH CARE CENTER AT STONERIDGE","LIMITED LIABILITY COMPANY","AVALON HEALTH CARE CENTER AT STONERIDGE","AVALON HEALTH CARE CENTER AT STONERIDGE","ALSA.0000179","ALSA","179",,"Assisted Living Service Agency","ACTIVE","CURRENT","1","2016-03-31T00:00:00.000","2022-01-01T00:00:00.000","2023-12-31T00:00:00.000","186 JERRY BROWNE RD","MYSTIC","CT","063554004","2022-06-17T00:00:00.000","POINT (-71.949571 41.37512)"
"1597359","ROSES AT GUILFORD HOUSE, THE","LIMITED LIABILITY COMPANY","ROSES AT GUILFORD HOUSE, THE","ROSES AT GUILFORD HOUSE, THE","ALSA.0000201","ALSA","201",,"Assisted Living Service Agency","CLOSED","CLOSED","0","2018-09-05T00:00:00.000","2018-09-04T00:00:00.000","2020-06-30T00:00:00.000","109 WEST LAKE AVENUE","GUILFORD","CT","06437","2019-03-22T00:00:00.000","POINT (-72.725114 41.311472)"
"1798927","ANTHOLOGY OF FARMINGTON","LIMITED LIABILITY COMPANY","ANTHOLOGY OF FARMINGTON","ANTHOLOGY OF FARMINGTON","ALSA.0000216","ALSA","216",,"Assisted Living Service Agency","ACTIVE","CURRENT","1","2019-10-18T00:00:00.000","2021-10-01T00:00:00.000","2023-09-30T00:00:00.000","1 BRIDGEWATER RD","FARMINGTON","CT","060322256","2022-02-18T00:00:00.000","POINT (-72.852117 41.73951)"
"929172","BROOKDALE WILTON","LIMITED LIABILITY COMPANY","BROOKDALE WILTON","BROOKDALE WILTON","ALSA.0000149","ALSA","149",,"Assisted Living Service Agency","ACTIVE","CURRENT","1","2009-11-18T00:00:00.000","2021-10-01T00:00:00.000","2023-09-30T00:00:00.000","96 DANBURY RD","WILTON","CT","068974409","2022-06-10T00:00:00.000","POINT (-73.416578 41.173046)"
"930721","ONE MACDONOUGH PLACE","CORPORATION","ONE MACDONOUGH PLACE","ONE MACDONOUGH PLACE","ALSA.0AL0029","ALSA","AL0029",,"Assisted Living Service Agency","CLOSED","CLOSED","0","2008-10-01T00:00:00.000","2018-10-01T00:00:00.000","2020-09-30T00:00:00.000","1 MACDONOUGH PL","MIDDLETOWN","CT","064573607","2021-05-20T00:00:00.000","POINT (-72.646473 41.555899)"
"1380456","STONEBROOK VILLAGE AT WINDSOR LOCKS","LIMITED LIABILITY COMPANY","STONEBROOK VILLAGE AT WINDSOR LOCKS","STONEBROOK VILLAGE AT WINDSOR LOCKS","ALSA.0000184","ALSA","184",,"Assisted Living Service Agency","ACTIVE IN RENEWAL","CURRENT","1","2016-09-22T00:00:00.000","2020-07-01T00:00:00.000","2022-06-30T00:00:00.000","550 OLD COUNTY RD","WINDSOR LOCKS","CT","060962031","2021-10-05T00:00:00.000","POINT (-72.656962 41.909754)"
"2229173","HARBORCHASE OF EVERGREEN WALK","LIMITED LIABILITY COMPANY","HARBORCHASE OF EVERGREEN WALK","HARBORCHASE OF EVERGREEN WALK","ALSA.0000228","ALSA","228",,"Assisted Living Service Agency","ACTIVE","CURRENT","1","2021-06-25T00:00:00.000","2021-06-25T00:00:00.000","2023-03-31T00:00:00.000","1000 EVERGREEN WAY","SOUTH WINDSOR","CT","060745571","2021-06-25T00:00:00.000",
"1223302","BSL SHELTON LLC","LIMITED LIABILITY COMPANY","BSL SHELTON LLC","BSL SHELTON LLC","ALSA.0000169","ALSA","169",,"Assisted Living Service Agency","ACTIVE IN RENEWAL","CURRENT","1","2014-05-19T00:00:00.000","2020-07-01T00:00:00.000","2022-06-30T00:00:00.000","708 BRIDGEPORT AVE # A","SHELTON","CT","064844734","2022-07-12T00:00:00.000","POINT (-73.124392 41.274858)"
"1662864","BRIGHTVIEW SHELTON","LIMITED LIABILITY COMPANY","BRIGHTVIEW SHELTON","BRIGHTVIEW SHELTON","ALSA.0000211","ALSA","211",,"Assisted Living Service Agency","ACTIVE","CURRENT","1","2019-05-28T00:00:00.000","2021-04-01T00:00:00.000","2023-03-31T00:00:00.000","30 BEARD SAWMILL RD","SHELTON","CT","064844757","2022-04-11T00:00:00.000","POINT (-73.118985 41.277889)"
"929717","MASONIC HEALTHCARE CENTER","BUSINESS","MASONIC HEALTHCARE CENTER","MASONIC GERIATRIC HEALTHCARE CENTER ""MGHC""","ALSA.0AL0031","ALSA","AL0031",,"Assisted Living Service Agency","INACTIVE",,"0","2000-10-01T00:00:00.000","2000-10-01T00:00:00.000","2002-09-30T00:00:00.000","22 MASONIC AVENUE","WALLINGFORD","CT","06492","2010-05-18T00:00:00.000","POINT (-72.834129 41.464668)"
"1618070","ESSEX MEADOWS","LIMITED LIABILITY COMPANY","ESSEX MEADOWS","ESSEX MEADOWS","ALSA.0000206","ALSA","206",,"Assisted Living Service Agency","ACTIVE IN RENEWAL","CURRENT","1","2018-12-03T00:00:00.000","2020-10-01T00:00:00.000","2022-09-30T00:00:00.000","30 BOKUM ROAD","ESSEX","CT","06426","2021-11-04T00:00:00.000","POINT (-72.410763 41.338327)"
"930086","CEDAR MOUNTAIN COMMONS","CORPORATION","CEDAR MOUNTAIN COMMONS","CEDAR MOUNTAIN COMMONS","ALSA.0000096","ALSA","96",,"Assisted Living Service Agency","CLOSED","CLOSED","0","2010-01-01T00:00:00.000","2016-01-01T00:00:00.000","2017-12-31T00:00:00.000","3 JOHN H STEWART DR","NEWINGTON","CT","061113165","2017-12-19T00:00:00.000","POINT (-72.714062 41.696009)"
"2405959","STONEBROOK VILLAGE AT WINDSOR LOCKS","LIMITED LIABILITY COMPANY","STONEBROOK VILLAGE AT WINDSOR LOCKS","STONEBROOK VILLAGE AT WINDSOR LOCKS","ALSA","ALSA",,,"Assisted Living Service Agency","PENDING","APPLICATION PENDING","0",,,,"550 OLD COUNTY ROAD","WINDSOR LOCKS","CT","06096","2022-09-01T00:00:00.000","POINT (-72.656962 41.909754)"
"929871","EAGLE POINTE LLC","LIMITED LIABILITY COMPANY","EAGLE POINTE LLC","EAGLE POINTE","ALSA.0000104","ALSA","104",,"Assisted Living Service Agency","ACTIVE IN RENEWAL","CURRENT","1","2009-01-01T00:00:00.000","2021-01-01T00:00:00.000","2022-12-31T00:00:00.000","1 CANAL RD","SUFFIELD","CT","060781921","2022-03-24T00:00:00.000","POINT (-72.612137 41.985928)"
"930202","LIVEWELL CONNECTICUT","CORPORATION","LIVEWELL CONNECTICUT","LIVEWELL CONNECTICUT","ALSA.0000048","ALSA","48",,"Assisted Living Service Agency","ACTIVE IN RENEWAL","CURRENT","1","2008-01-01T00:00:00.000","2020-01-01T00:00:00.000","2021-12-31T00:00:00.000","1261 S MAIN ST","PLANTSVILLE","CT","064791750","2022-07-14T00:00:00.000","POINT (-72.895847 41.573158)"
"929994","ROSEDALE OF GLASTONBURY LIMITED PARTNERSHIP","BUSINESS","ROSEDALE OF GLASTONBURY LIMITED PARTNERSHIP","LAUREL GARDENS OF GLASTONBURY","ALSA.0000069","ALSA","69",,"Assisted Living Service Agency","INACTIVE",,"0","2007-07-01T00:00:00.000","2007-07-01T00:00:00.000","2009-06-30T00:00:00.000","1177 Hebron Avenue","Glastonbury","CT","06033","2010-05-18T00:00:00.000","POINT (-72.565653 41.718235)"
"929135","BAL NIANTIC LLC","LIMITED LIABILITY COMPANY","BAL NIANTIC LLC","Crescent Point at Niantic","ALSA.0000140","ALSA","140",,"Assisted Living Service Agency","ACTIVE IN RENEWAL","CURRENT","1","2008-12-02T00:00:00.000","2020-10-01T00:00:00.000","2022-09-30T00:00:00.000","417 MAIN ST","NIANTIC","CT","063573144","2022-08-30T00:00:00.000","POINT (-72.199095 41.322286)"
"994333","SPRING MEADOWS TRUMBULL","LIMITED LIABILITY COMPANY","SPRING MEADOWS TRUMBULL","SPRING MEADOWS TRUMBULL","ALSA.0000154","ALSA","154",,"Assisted Living Service Agency","CLOSED","CLOSED","0","2011-04-20T00:00:00.000","2019-04-01T00:00:00.000","2021-03-31T00:00:00.000","6949 MAIN ST","TRUMBULL","CT","066116304","2021-06-23T00:00:00.000","POINT (-73.240184 41.289163)"
"2387150","BUCKINGHAM HEIGHTS, LLC","LIMITED LIABILITY COMPANY","BUCKINGHAM HEIGHTS, LLC","BUCKINGHAM HEIGHTS, LLC","ALSA","ALSA",,,"Assisted Living Service Agency","PENDING","APPLICATION PENDING","0",,,,"1824 MANCHESTER RD","GLASTONBURY","CT","060331832","2022-07-27T00:00:00.000","POINT (-72.520224 41.73007)"
"2302092","LINDEN AT BROOKFIELD, THE","LIMITED LIABILITY COMPANY","LINDEN AT BROOKFIELD, THE","LINDEN AT BROOKFIELD, THE","ALSA.0000233","ALSA","233",,"Assisted Living Service Agency","ACTIVE","CURRENT","1","2022-03-09T00:00:00.000","2022-02-15T00:00:00.000","2023-12-31T00:00:00.000","291 FEDERAL ROAD","BROOKFIELD","CT","06804","2022-03-09T00:00:00.000","POINT (-73.403119 41.448145)"
"1026477","MCAULEY CENTER, INC., THE","NON-PROFIT CORPORATION","MCAULEY CENTER, INC., THE","THE MCAULEY CENTER, INC.","ALSA.0000164","ALSA","164",,"Assisted Living Service Agency","ACTIVE","CURRENT","1","2011-07-28T00:00:00.000","2021-07-01T00:00:00.000","2023-06-30T00:00:00.000","275 STEELE RD","WEST HARTFORD","CT","061172765","2022-06-03T00:00:00.000","POINT (-72.724345 41.783696)"
"1519307","COLEBROOK VILLAGE AT HEBRON","CORPORATION","COLEBROOK VILLAGE AT HEBRON","COLEBROOK VILLAGE AT HEBRON","ALSA.0000196","ALSA","196",,"Assisted Living Service Agency","ACTIVE IN RENEWAL","CURRENT","1","2018-06-14T00:00:00.000","2020-04-01T00:00:00.000","2022-03-31T00:00:00.000","55 JOHN E HORTON BLVD","HEBRON","CT","062481564","2020-04-27T00:00:00.000",
"1615219","MAPLEWOOD AT STONY HILL","LIMITED LIABILITY COMPANY","MAPLEWOOD AT STONY HILL","MAPLEWOOD AT STONY HILL","ALSA.0000205","ALSA","205",,"Assisted Living Service Agency","ACTIVE IN RENEWAL","CURRENT","1","2018-11-16T00:00:00.000","2020-10-01T00:00:00.000","2022-09-30T00:00:00.000","46 STONY HILL RD","BETHEL","CT","068013034","2022-08-23T00:00:00.000","POINT (-73.385072 41.415293)"
"929115","BAL RIDGEFIELD LLC","LIMITED LIABILITY COMPANY","BAL RIDGEFIELD LLC","Benchmark Senior Living at Ridgefield Crossings","ALSA.0000129","ALSA","129",,"Assisted Living Service Agency","ACTIVE IN RENEWAL","CURRENT","1","2008-12-01T00:00:00.000","2020-10-01T00:00:00.000","2022-09-30T00:00:00.000","640 DANBURY RD","RIDGEFIELD","CT","068772740","2022-08-30T00:00:00.000","POINT (-73.474933 41.324173)"
"930726","SUFFIELD BY THE RIVER","LIMITED LIABILITY COMPANY","SUFFIELD BY THE RIVER","SUFFIELD BY THE RIVER","ALSA.0AL0036","ALSA","AL0036",,"Assisted Living Service Agency","CLOSED","CLOSED","0","2009-01-01T00:00:00.000","2019-01-01T00:00:00.000","2020-12-31T00:00:00.000","7 CANAL RD","SUFFIELD","CT","060781970","2019-09-26T00:00:00.000","POINT (-72.613305 41.985924)"
"929123","BAL MERIDEN LLC","LIMITED LIABILITY COMPANY","BAL MERIDEN LLC","The Village at Kensington Place","ALSA.0000134","ALSA","134",,"Assisted Living Service Agency","ACTIVE IN RENEWAL","CURRENT","1","2008-12-02T00:00:00.000","2020-10-01T00:00:00.000","2022-09-30T00:00:00.000","511 KENSINGTON AVE","MERIDEN","CT","064512062","2022-08-30T00:00:00.000","POINT (-72.810189 41.553174)"
"929713","MCLEAN FUND","BUSINESS","MCLEAN FUND","MCLEAN ASSISTED LIVING SERVICES","ALSA.0AL0013","ALSA","AL0013",,"Assisted Living Service Agency","INACTIVE",,"0","2001-07-01T00:00:00.000","2001-07-01T00:00:00.000","2003-06-30T00:00:00.000","75 Great Pond Road","SIMSBURY","CT","06070","2010-05-18T00:00:00.000","POINT (-72.824614 41.885118)"
"930923","SHADY OAKS ASSISTED LIVING LLC","LIMITED LIABILITY COMPANY","SHADY OAKS ASSISTED LIVING LLC","SHADY OAKS ASSISTED LIVING LLC","ALSA.0AL0002","ALSA","AL0002",,"Assisted Living Service Agency","ACTIVE","CURRENT","1","2009-10-01T00:00:00.000","2021-10-01T00:00:00.000","2023-09-30T00:00:00.000","344 STEVENS ST","BRISTOL","CT","060102769","2022-03-24T00:00:00.000","POINT (-72.915679 41.714199)"
"928986","BENCHMARK ASSISTED LIVING LLC","BUSINESS","BENCHMARK ASSISTED LIVING LLC","BENCHMARK ASSISTED LIVING, LLC","ALSA.0000094","ALSA","94",,"Assisted Living Service Agency","INACTIVE",,"0","2003-10-06T00:00:00.000","2003-10-06T00:00:00.000","2005-09-30T00:00:00.000","3 John H. Stewart Drive","Newington","CT","06111","2010-05-18T00:00:00.000","POINT (-72.714062 41.696009)"
"2078632","RESIDENCE AT WESTPORT, THE","LIMITED LIABILITY COMPANY","RESIDENCE AT WESTPORT, THE","RESIDENCE AT WESTPORT, THE","ALSA.0000223","ALSA","223",,"Assisted Living Service Agency","ACTIVE IN RENEWAL","CURRENT","1","2020-08-26T00:00:00.000","2020-08-26T00:00:00.000","2022-06-30T00:00:00.000","1141 POST ROAD EAST","WESTPORT","CT","06880","2021-04-26T00:00:00.000","POINT (-73.324667 41.138912)"
"929846","CASCADES, THE","LIMITED LIABILITY COMPANY","CASCADES, THE","CASCADES, THE","ALSA.0000097","ALSA","97",,"Assisted Living Service Agency","ACTIVE IN RENEWAL","CURRENT","1","2008-01-01T00:00:00.000","2020-01-01T00:00:00.000","2021-12-31T00:00:00.000","13 PARK LAWN DR","BETHEL","CT","068011043","2022-05-20T00:00:00.000","POINT (-73.398216 41.425001)"
"930482","CONTINUING CARE RETIREMENT COMMUNITY OF GREATER STAMFORD INC.","BUSINESS","CONTINUING CARE RETIREMENT COMMUNITY OF GREATER STAMFORD INC.","EDGEHILL HEALTH CENTER","ALSA.0000045","ALSA","45",,"Assisted Living Service Agency","INACTIVE","LAPSED DUE TO NON-RENEWAL","0","2009-07-01T00:00:00.000","2011-11-14T00:00:00.000","2013-06-30T00:00:00.000","122 Palmers Hill Road","STAMFORD","CT","06902","2021-10-28T00:00:00.000","POINT (-73.565582 41.059385)"
"929130","BAL BROOKFIELD LLC","LIMITED LIABILITY COMPANY","BAL BROOKFIELD LLC","The Village at Brookfield Common","ALSA.0000138","ALSA","138",,"Assisted Living Service Agency","ACTIVE IN RENEWAL","CURRENT","1","2009-12-01T00:00:00.000","2020-10-01T00:00:00.000","2022-09-30T00:00:00.000","246A FEDERAL RD","BROOKFIELD","CT","068042652","2022-08-30T00:00:00.000","POINT (-73.404067 41.445834)"
"929581","WOODBRIDGE CARE LLC","BUSINESS","WOODBRIDGE CARE LLC","LAUREL GARDENS OF WOODBRIDGE","ALSA.0000085","ALSA","85",,"Assisted Living Service Agency","INACTIVE",,"0","2004-07-01T00:00:00.000","2004-07-01T00:00:00.000","2006-06-30T00:00:00.000","21 Bradley Road","Woodbridge","CT","06525","2010-05-18T00:00:00.000","POINT (-72.982583 41.343606)"
"929682","MCLEAN HEALTH CENTER","CORPORATION","MCLEAN HEALTH CENTER","MCLEAN HEALTH CENTER","ALSA.0000119","ALSA","119",,"Assisted Living Service Agency","ACTIVE","CURRENT","1","2009-07-01T00:00:00.000","2021-07-01T00:00:00.000","2023-06-30T00:00:00.000","75 GREAT POND RD","SIMSBURY","CT","060701980","2022-05-19T00:00:00.000","POINT (-72.824614 41.885118)"
"1003885","ATRIA HAMILTON HEIGHTS","LIMITED LIABILITY COMPANY","ATRIA HAMILTON HEIGHTS","ATRIA HAMILTON HEIGHTS","ALSA.0000160","ALSA","160",,"Assisted Living Service Agency","CLOSED","CLOSED","0","2011-06-22T00:00:00.000","2021-04-01T00:00:00.000","2023-03-31T00:00:00.000","FERN STREET AT ONE HAMILTON HEIGHTS DRIVE","WEST HARTFORD","CT","06119","2022-02-23T00:00:00.000","POINT (-72.721722 41.770222)"
"2384512","SPRING VILLAGE AT STRATFORD","LIMITED LIABILITY COMPANY","SPRING VILLAGE AT STRATFORD","SPRING VILLAGE AT STRATFORD","ALSA","ALSA",,,"Assisted Living Service Agency","PENDING","APPLICATION PENDING","0",,,,"6911 MAIN STREET","STRATFORD","CT","06614","2022-06-20T00:00:00.000","POINT (-73.10197 41.247009)"
"929938","BROOKDALE FARMINGTON","LIMITED LIABILITY COMPANY","BROOKDALE FARMINGTON","BROOKDALE GABLES FARMINGTON","ALSA.0000102","ALSA","102",,"Assisted Living Service Agency","ACTIVE IN RENEWAL","CURRENT","1","2008-10-01T00:00:00.000","2020-10-01T00:00:00.000","2022-09-30T00:00:00.000","20 DEVONWOOD DR","FARMINGTON","CT","060321417","2022-08-31T00:00:00.000","POINT (-72.842081 41.739985)"
"1518501","ATRIA LITCHFIELD HILLS","LIMITED LIABILITY COMPANY","ATRIA LITCHFIELD HILLS","ATRIA LITCHFIELD HILLS","ALSA.0000192","ALSA","192",,"Assisted Living Service Agency","INACTIVE",,"0",,,,"376 GOSHEN RD","TORRINGTON","CT","067902722","2018-05-29T00:00:00.000","POINT (-73.154444 41.820725)"
"929880","OLSL GREENRIDGE PLACE LLC","BUSINESS","OLSL GREENRIDGE PLACE LLC","ATRIA GREENRIDGE PLACE","ALSA.0000110","ALSA","110",,"Assisted Living Service Agency","CLOSED","CLOSED","0","2009-10-01T00:00:00.000","2009-10-01T00:00:00.000","2011-09-30T00:00:00.000","One Elizabeth Court","Rocky Hill","CT","06067","2012-07-24T00:00:00.000",
"930727","ATRIA STRATFORD","BUSINESS","ATRIA STRATFORD","ATRIA STRATFORD","ALSA.0AL0039","ALSA","AL0039",,"Assisted Living Service Agency","CLOSED","CLOSED","0","2009-01-01T00:00:00.000","2011-01-01T00:00:00.000","2012-12-31T00:00:00.000","6911 MAIN ST","STRATFORD","CT","066141360","2012-09-26T00:00:00.000","POINT (-73.10197 41.247009)"
"929134","BAL MYSTIC LLC","LIMITED LIABILITY COMPANY","BAL MYSTIC LLC","BAL MYSTIC LLC","ALSA.0000139","ALSA","139",,"Assisted Living Service Agency","ACTIVE IN RENEWAL","CURRENT","1","2008-12-02T00:00:00.000","2020-10-01T00:00:00.000","2022-09-30T00:00:00.000","20 ACADEMY LN","MYSTIC","CT","063552557","2022-08-16T00:00:00.000","POINT (-71.971559 41.356613)"
"929524","PARAMOUNT SENIOR LIVING AT LITCHFIELD LLC","BUSINESS","PARAMOUNT SENIOR LIVING AT LITCHFIELD LLC","SARAH PIERCE ASSISTED LIVING","ALSA.0000108","ALSA","108",,"Assisted Living Service Agency","INACTIVE",,"0","2005-08-01T00:00:00.000","2005-08-01T00:00:00.000","2007-06-30T00:00:00.000","19 Constitution Way","Litchfield","CT","06759","2010-05-18T00:00:00.000","POINT (-73.2049 41.743708)"
"930331","SEABURY","NON-PROFIT CORPORATION","SEABURY","SEABURY","ALSA.0AL0003","ALSA","AL0003",,"Assisted Living Service Agency","ACTIVE","CURRENT","1","2007-10-01T00:00:00.000","2021-10-01T00:00:00.000","2023-09-30T00:00:00.000","200 SEABURY DR","BLOOMFIELD","CT","060025618","2022-07-19T00:00:00.000","POINT (-72.709332 41.835665)"
"929718","SENIORS' CHOICE AT LAKE WHITNEY","BUSINESS","SENIORS' CHOICE AT LAKE WHITNEY","SENIORS' CHOICE AT LAKE WHITNEY","ALSA.0AL0040","ALSA","AL0040",,"Assisted Living Service Agency","INACTIVE",,"0","2001-01-01T00:00:00.000","2001-01-01T00:00:00.000","2002-12-31T00:00:00.000","1450 WHITNEY AVENUE","HAMDEN","CT","06517","2010-05-18T00:00:00.000","POINT (-72.913115 41.353404)"
"2021202","FARMINGTON STATION A SENIOR LIVING RESIDENCE","LIMITED LIABILITY COMPANY","FARMINGTON STATION A SENIOR LIVING RESIDENCE","FARMINGTON STATION A SENIOR LIVING RESIDENCE","ALSA.0000220","ALSA","220",,"Assisted Living Service Agency","ACTIVE IN RENEWAL","CURRENT","1","2020-04-03T00:00:00.000","2020-03-30T00:00:00.000","2022-03-31T00:00:00.000","111 SCOTT SWAMP RD","FARMINGTON","CT","060322861","2020-04-03T00:00:00.000","POINT (-72.857734 41.704071)"
"1317405","BRIDGES BY EPOCH AT TRUMBULL","LIMITED LIABILITY COMPANY","BRIDGES BY EPOCH AT TRUMBULL","BRIDGES BY EPOCH AT TRUMBULL","ALSA.0000175","ALSA","175",,"Assisted Living Service Agency","ACTIVE","CURRENT","1","2015-10-20T00:00:00.000","2021-10-01T00:00:00.000","2023-09-30T00:00:00.000","2415 RESERVOIR AVE","TRUMBULL","CT","066114752","2022-04-28T00:00:00.000","POINT (-73.195757 41.233874)"
"929773","ARDEN COURTS OF FARMINGTON CT LLC","LIMITED LIABILITY COMPANY","ARDEN COURTS OF FARMINGTON CT LLC","ARDEN COURTS (FARMINGTON)","ALSA.0000123","ALSA","123",,"Assisted Living Service Agency","ACTIVE","CURRENT","1","2009-10-01T00:00:00.000","2021-10-01T00:00:00.000","2023-09-30T00:00:00.000","45 SOUTH RD","FARMINGTON","CT","060322022","2022-07-21T00:00:00.000","POINT (-72.799014 41.725063)"
"929061","PEREGRINE'S LANDING OF CLINTON CT LLC","BUSINESS","PEREGRINE'S LANDING OF CLINTON CT LLC","PEREGRINE'S LANDING ASSISTED LIVING","ALSA.0000126","ALSA","126",,"Assisted Living Service Agency","CLOSED","CLOSED","0","2008-06-23T00:00:00.000","2013-06-03T00:00:00.000","2014-03-31T00:00:00.000","91 East Main Street","Clinton","CT","06413","2013-06-12T00:00:00.000","POINT (-72.520003 41.27723)"
"1620379","BRANDYWINE LIVING AT LITCHFIELD","LIMITED LIABILITY COMPANY","BRANDYWINE LIVING AT LITCHFIELD","BRANDYWINE LIVING AT LITCHFIELD","ALSA.0000207","ALSA","207",,"Assisted Living Service Agency","ACTIVE IN RENEWAL","CURRENT","1","2018-12-13T00:00:00.000","2020-10-01T00:00:00.000","2022-09-30T00:00:00.000","19 CONSTITUTION WAY","LITCHFIELD","CT","067593428","2022-09-01T00:00:00.000","POINT (-73.2049 41.743708)"
"2086492","COTTAGE AT LITCHFIELD HILLS, THE","LIMITED LIABILITY COMPANY","COTTAGE AT LITCHFIELD HILLS, THE","COTTAGE AT LITCHFIELD HILLS, THE","ALSA.0000224","ALSA","224",,"Assisted Living Service Agency","ACTIVE","CURRENT","1","2020-09-24T00:00:00.000","2022-07-01T00:00:00.000","2024-06-30T00:00:00.000","376 GOSHEN ROAD","TORRINGTON","CT","06790","2022-07-25T00:00:00.000","POINT (-73.154444 41.820725)"
"930714","MERRY-GO-ROUND INC.","CORPORATION","MERRY-GO-ROUND INC.","Merry Go Round Inc.(dba ""The Mews"")","ALSA.0AL0008","ALSA","AL0008",,"Assisted Living Service Agency","ACTIVE IN RENEWAL","CURRENT","1","2009-01-01T00:00:00.000","2021-01-01T00:00:00.000","2022-12-31T00:00:00.000","1/2 BOLLING PL","GREENWICH","CT","068306540","2021-11-04T00:00:00.000","POINT (-73.628363 41.023759)"
"930029","MASONICARE AT ASHLAR VILLAGE/POND RIDGE","CORPORATION","MASONICARE AT ASHLAR VILLAGE/POND RIDGE","MASONICARE AT ASHLAR VILLAGE/POND RIDGE","ALSA.0000087","ALSA","87",,"Assisted Living Service Agency","ACTIVE IN RENEWAL","CURRENT","1","2008-10-01T00:00:00.000","2020-10-01T00:00:00.000","2022-09-30T00:00:00.000","CHESHIRE RD","WALLINGFORD","CT","064923065","2022-08-26T00:00:00.000",
"930099","MCAULEY CENTER INC.","BUSINESS","MCAULEY CENTER INC.","MCAULEY CENTER, INC.","ALSA.0AL0011","ALSA","AL0011",,"Assisted Living Service Agency","INACTIVE",,"0","2005-04-01T00:00:00.000","2005-04-01T00:00:00.000","2007-03-31T00:00:00.000","275 STEELE ROAD","WEST HARTFORD","CT","06117","2010-05-18T00:00:00.000","POINT (-72.724345 41.783696)"
"1267944","RESIDENCE AT SOUTH WINDSOR FARMS, THE","LIMITED LIABILITY COMPANY","RESIDENCE AT SOUTH WINDSOR FARMS, THE","RESIDENCE AT SOUTH WINDSOR FARMS, THE","ALSA.0000173","ALSA","173",,"Assisted Living Service Agency","CLOSED","CLOSED","0","2015-02-19T00:00:00.000","2017-01-01T00:00:00.000","2018-12-31T00:00:00.000","200 DEMING ST","SOUTH WINDSOR","CT","060743759","2018-10-15T00:00:00.000","POINT (-72.552788 41.820807)"
"929578","ORANGE CARE LLC","BUSINESS","ORANGE CARE LLC","LAUREL GARDENS OF ORANGE","ALSA.0000082","ALSA","82",,"Assisted Living Service Agency","INACTIVE",,"0","2004-07-01T00:00:00.000","2004-07-01T00:00:00.000","2006-06-30T00:00:00.000","245 Indian River Road","Orange","CT","06477","2010-05-18T00:00:00.000","POINT (-73.000132 41.263913)"
"1394779","ARTIS SENIOR LIVING OF BRANFORD","LIMITED LIABILITY COMPANY","ARTIS SENIOR LIVING OF BRANFORD","ARTIS SENIOR LIVING OF BRANFORD","ALSA.0000188","ALSA","188",,"Assisted Living Service Agency","ACTIVE IN RENEWAL","CURRENT","1","2016-12-21T00:00:00.000","2020-10-01T00:00:00.000","2022-09-30T00:00:00.000","814 E MAIN ST","BRANFORD","CT","064052920","2021-11-05T00:00:00.000","POINT (-72.749485 41.308551)"
"929801","THE HOMESTEADS AT NEWTOWN LLC","BUSINESS","THE HOMESTEADS AT NEWTOWN LLC","THE HOMESTEADS AT NEWTOWN","ALSA.0000061","ALSA","61",,"Assisted Living Service Agency","INACTIVE",,"0","2005-01-01T00:00:00.000","2005-01-01T00:00:00.000","2006-12-31T00:00:00.000","166 Mount Pleasant Road","Newtown","CT","06470","2010-05-18T00:00:00.000","POINT (-73.366622 41.415915)"
"1168935","PEREGRINE'S LANDING AT THE SHORELINE","LIMITED LIABILITY COMPANY","PEREGRINE'S LANDING AT THE SHORELINE","PEREGRINE'S LANDING AT THE SHORELINE","ALSA.0000168","ALSA","168",,"Assisted Living Service Agency","CLOSED","CLOSED","0","2013-06-12T00:00:00.000","2015-04-01T00:00:00.000","2017-03-31T00:00:00.000","91 E MAIN ST","CLINTON","CT","064132139","2016-08-04T00:00:00.000","POINT (-72.520003 41.27723)"
"2233112","WESTVIEW ASSISTED LIVING SERVICES AGENCY","CORPORATION","WESTVIEW ASSISTED LIVING SERVICES AGENCY","WESTVIEW ASSISTED LIVING SERVICES AGENCY","ALSA.0000229","ALSA","229",,"Assisted Living Service Agency","ACTIVE","CURRENT","1","2021-07-09T00:00:00.000","2021-07-08T00:00:00.000","2023-06-30T00:00:00.000","150 WARE RD","DAYVILLE","CT","062411126","2021-07-09T00:00:00.000","POINT (-71.872542 41.880358)"
"930026","DUNCASTER ASSISTED LIVING SERVICES AGENCY","CORPORATION","DUNCASTER ASSISTED LIVING SERVICES AGENCY","DUNCASTER, INC.","ALSA.0000080","ALSA","80",,"Assisted Living Service Agency","ACTIVE IN RENEWAL","CURRENT","1","2008-07-01T00:00:00.000","2020-07-01T00:00:00.000","2022-06-30T00:00:00.000","40 LOEFFLER RD","BLOOMFIELD","CT","060022262","2022-07-22T00:00:00.000","POINT (-72.76466 41.828776)"
"929716","SENIORS' CHOICE AT THE GREEN LLC","BUSINESS","SENIORS' CHOICE AT THE GREEN LLC","SENIORS' CHOICE AT THE GREEN","ALSA.0AL0030","ALSA","AL0030",,"Assisted Living Service Agency","INACTIVE",,"0","2000-10-01T00:00:00.000","2000-10-01T00:00:00.000","2002-09-30T00:00:00.000","1 ELIZABETH COURT","ROCKY HILL","CT","06067","2010-05-18T00:00:00.000","POINT (-72.674275 41.668374)"
"1532874","RESIDENCE AT SUMMER STREET, THE","LIMITED LIABILITY COMPANY","RESIDENCE AT SUMMER STREET, THE","RESIDENCE AT SUMMER STREET, THE","ALSA.0000200","ALSA","200",,"Assisted Living Service Agency","ACTIVE IN RENEWAL","CURRENT","1","2018-07-30T00:00:00.000","2020-07-01T00:00:00.000","2022-06-30T00:00:00.000","14 SECOND STREET","STAMFORD","CT","069055103","2022-05-25T00:00:00.000","POINT (-73.542056 41.063563)"
"929116","BAL WATERBURY LLC","LIMITED LIABILITY COMPANY","BAL WATERBURY LLC","The Village at East Farms","ALSA.0000130","ALSA","130",,"Assisted Living Service Agency","ACTIVE IN RENEWAL","CURRENT","1","2008-12-01T00:00:00.000","2020-10-01T00:00:00.000","2022-09-30T00:00:00.000","180 SCOTT RD","WATERBURY","CT","067053284","2022-08-25T00:00:00.000","POINT (-72.991231 41.538397)"
"2406534","ELMBROOK VILLAGE","LIMITED LIABILITY COMPANY (SINGLE MEMBER)","ELMBROOK VILLAGE","ELMBROOK VILLAGE","ALSA","ALSA",,,"Assisted Living Service Agency","PENDING","APPLICATION PENDING","0",,,,"380 SALEM TURNPIKE","BOZRAH","CT","06334","2022-09-02T00:00:00.000","POINT (-72.141057 41.506123)"
"929719","PRIORITY CARE INC.","BUSINESS","PRIORITY CARE INC.","PRIORITY CARE, INC.","ALSA.0AL0041","ALSA","AL0041",,"Assisted Living Service Agency","INACTIVE",,"0","2001-04-01T00:00:00.000","2001-04-01T00:00:00.000","2003-03-31T00:00:00.000","999 ORONOQUE LANE","STRATFORD","CT","06614","2010-05-18T00:00:00.000","POINT (-73.102683 41.248464)"
"930720","UTOPIA ASSISTED LIVING SERVICES INC.","CORPORATION","UTOPIA ASSISTED LIVING SERVICES INC.","UTOPIA ASSISTED LIVING SERVICES, INC.","ALSA.0000028","ALSA","28",,"Assisted Living Service Agency","ACTIVE IN RENEWAL","CURRENT","1","2008-07-01T00:00:00.000","2020-07-01T00:00:00.000","2022-06-30T00:00:00.000","444 FOXON RD","EAST HAVEN","CT","065132037","2022-05-26T00:00:00.000","POINT (-72.841571 41.323984)"
"983602","OLSL GREENRIDGE PLACE LLC","BUSINESS","OLSL GREENRIDGE PLACE LLC","ATRIA GREENRIDGE PLACE","ALSA.0000153","ALSA","153",,"Assisted Living Service Agency","INACTIVE",,"0",,"2012-11-29T00:00:00.000",,"One Elizabeth Court","Rocky Hill","CT","06067","2012-11-29T00:00:00.000",
"929126","BAL AVON LLC","LIMITED LIABILITY COMPANY","BAL AVON LLC","BAL AVON LLC","ALSA.0000135","ALSA","135",,"Assisted Living Service Agency","ACTIVE IN RENEWAL","CURRENT","1","2008-12-01T00:00:00.000","2020-10-01T00:00:00.000","2022-09-30T00:00:00.000","101 BICKFORD EXT","AVON","CT","060013741","2022-08-16T00:00:00.000","POINT (-72.842521 41.812091)"
"1520434","COMMONS OF NEWTOWN THE","LIMITED LIABILITY COMPANY","COMMONS OF NEWTOWN THE","COMMONS OF NEWTOWN THE","ALSA.0000197","ALSA","197",,"Assisted Living Service Agency","ACTIVE","CURRENT","1","2018-06-11T00:00:00.000","2022-04-01T00:00:00.000","2024-03-31T00:00:00.000","139 TODDY HILL ROAD","NEWTOWN","CT","06470","2022-07-19T00:00:00.000","POINT (-73.258982 41.382079)"
"1370692","SHORELINE OF CLINTON, THE","LIMITED LIABILITY COMPANY","SHORELINE OF CLINTON, THE","SHORELINE OF CLINTON, THE","ALSA.0000183","ALSA","183",,"Assisted Living Service Agency","CLOSED","CLOSED","0","2016-08-04T00:00:00.000","2018-07-01T00:00:00.000","2020-06-30T00:00:00.000",,"CLINTON","CT","06413","2020-08-17T00:00:00.000","POINT (-72.528067 41.278677)"
"929866","SHP II/CSL TRUMBULL LLC","BUSINESS","SHP II/CSL TRUMBULL LLC","SPRING MEADOWS TRUMBULL","ALSA.0000103","ALSA","103",,"Assisted Living Service Agency","CLOSED","CLOSED","0","2008-10-01T00:00:00.000","2008-10-01T00:00:00.000","2010-09-30T00:00:00.000","6949 Main Street","Trumbull","CT","06611","2011-10-20T00:00:00.000","POINT (-73.240184 41.289163)"
"930155","ELIM PARK BAPTIST HOME INC.","NON-PROFIT CORPORATION","ELIM PARK BAPTIST HOME INC.","ELIM PARK BAPTIST HOME","ALSA.0000076","ALSA","76",,"Assisted Living Service Agency","ACTIVE","CURRENT","1","2008-04-01T00:00:00.000","2022-04-01T00:00:00.000","2024-03-31T00:00:00.000","140 COOK HILL RD","CHESHIRE","CT","064103736","2022-06-28T00:00:00.000","POINT (-72.900936 41.466811)"
"1676004","MAPLEWOOD AT SOUTHPORT","LIMITED LIABILITY COMPANY","MAPLEWOOD AT SOUTHPORT","MAPLEWOOD AT SOUTHPORT","ALSA.0000212","ALSA","212",,"Assisted Living Service Agency","ACTIVE IN RENEWAL","CURRENT","1","2019-07-16T00:00:00.000","2019-07-15T00:00:00.000","2021-06-30T00:00:00.000","917 MILL HILL TER","SOUTHPORT","CT","068903200","2021-07-06T00:00:00.000","POINT (-73.286844 41.144245)"
"929149","LCS-WESTMINSTER PARTNERSHIP I LLP","LIMITED LIABILITY PARTNERSHIP","LCS-WESTMINSTER PARTNERSHIP I LLP","AVALON HEALTH CARE CENTER AT STONERIDGE","ALSA.0000145","ALSA","145",,"Assisted Living Service Agency","CLOSED","CLOSED","0","2009-04-06T00:00:00.000","2015-04-01T00:00:00.000","2017-03-31T00:00:00.000","186 JERRY BROWNE ROAD","MYSTIC","CT","06355","2016-04-01T00:00:00.000","POINT (-71.949571 41.37512)"
"929981","BENCHMARK ASSISTED LIVING LLC","BUSINESS","BENCHMARK ASSISTED LIVING LLC","BENCHMARK ASSISTED LIVING","ALSA.0000059","ALSA","59",,"Assisted Living Service Agency","INACTIVE",,"0","2007-01-01T00:00:00.000","2007-01-01T00:00:00.000","2008-12-31T00:00:00.000","20 Academy Lane","Mystic","CT","06355","2010-05-18T00:00:00.000","POINT (-71.971559 41.356613)"
"929696","ARDEN COURTS OF HAMDEN CT LLC","LIMITED LIABILITY COMPANY","ARDEN COURTS OF HAMDEN CT LLC","ARDEN COURTS OF HAMDEN","ALSA.0000125","ALSA","125",,"Assisted Living Service Agency","CLOSED","CLOSED","0","2009-10-01T00:00:00.000","2015-10-01T00:00:00.000","2017-09-30T00:00:00.000","153 LEEDER HILL DR","HAMDEN","CT","065172731","2016-01-29T00:00:00.000","POINT (-72.921193 41.346437)"
"1361714","WATERMARK AT HOME","LIMITED LIABILITY COMPANY","WATERMARK AT HOME","WATERMARK AT HOME","ALSA.0000180","ALSA","180",,"Assisted Living Service Agency","ACTIVE","CURRENT","1","2016-06-20T00:00:00.000","2022-04-01T00:00:00.000","2024-03-31T00:00:00.000","3030 PARK AVE","BRIDGEPORT","CT","066041138","2022-08-15T00:00:00.000","POINT (-73.219717 41.198599)"
"1042086","BAL EDGEHILL, LLC","LIMITED LIABILITY COMPANY","BAL EDGEHILL, LLC","BAL EDGEHILL, LLC","ALSA.0000165","ALSA","165",,"Assisted Living Service Agency","ACTIVE","CURRENT","1","2011-11-22T00:00:00.000","2021-10-01T00:00:00.000","2023-09-30T00:00:00.000","122 PALMERS HILL RD","STAMFORD","CT","069022134","2022-07-20T00:00:00.000","POINT (-73.565582 41.059385)"
"2291666","WATERSTONE ON HIGH RIDGE","LIMITED LIABILITY COMPANY","WATERSTONE ON HIGH RIDGE","WATERSTONE ON HIGH RIDGE","ALSA.0000232","ALSA","232",,"Assisted Living Service Agency","ACTIVE","CURRENT","1","2022-01-25T00:00:00.000","2022-01-25T00:00:00.000","2023-12-31T00:00:00.000","215 HIGH RIDGE ROAD","STAMFORD","CT","06905","2022-03-04T00:00:00.000","POINT (-73.550015 41.078684)"
"929173","BROOKDALE WEST HARTFORD","LIMITED LIABILITY COMPANY","BROOKDALE WEST HARTFORD","BROOKDALE WEST HARTFORD","ALSA.0000150","ALSA","150",,"Assisted Living Service Agency","ACTIVE","CURRENT","1","2009-11-18T00:00:00.000","2021-10-01T00:00:00.000","2023-09-30T00:00:00.000","22 SIMSBURY RD","WEST HARTFORD","CT","061171444","2022-04-11T00:00:00.000","POINT (-72.722911 41.797413)"
"1798836","ANTHOLOGY OF SIMSBURY","LIMITED LIABILITY COMPANY","ANTHOLOGY OF SIMSBURY","ANTHOLOGY OF SIMSBURY","ALSA.0000215","ALSA","215",,"Assisted Living Service Agency","ACTIVE","CURRENT","1","2019-10-17T00:00:00.000","2021-10-01T00:00:00.000","2023-09-30T00:00:00.000","142 COOPER AVE","WEATOGUE","CT","060897957","2022-07-07T00:00:00.000",
"930725","ORCHARDS AT SOUTHINGTON INC.","NON-PROFIT CORPORATION","ORCHARDS AT SOUTHINGTON INC.","ORCHARDS AT SOUTHINGTON, INC. THE","ALSA.0AL0035","ALSA","AL0035",,"Assisted Living Service Agency","ACTIVE IN RENEWAL","CURRENT","1","2008-10-01T00:00:00.000","2020-10-01T00:00:00.000","2022-09-30T00:00:00.000","34 HOBART ST","SOUTHINGTON","CT","064893366","2022-08-30T00:00:00.000","POINT (-72.876442 41.606384)"
"2387234","ALL AMERICAN ASSISTED LIVING AT ENFIELD","LIMITED LIABILITY COMPANY","ALL AMERICAN ASSISTED LIVING AT ENFIELD","ALL AMERICAN ASSISTED LIVING AT ENFIELD","ALSA","ALSA",,,"Assisted Living Service Agency","PENDING","APPLICATION PENDING","0",,,,"118 HAZARD AVENUE","ENFIELD","CT","06082","2022-06-28T00:00:00.000","POINT (-72.563096 41.988452)"
"930924","HOME HEALTH CARE SERVICES LLC","LIMITED LIABILITY COMPANY","HOME HEALTH CARE SERVICES LLC","HOME HEALTH CARE SERVICES ALSA","ALSA.0AL0017","ALSA","AL0017",,"Assisted Living Service Agency","CLOSED",,"0","2011-10-01T00:00:00.000","2015-10-01T00:00:00.000","2017-09-30T00:00:00.000","163 CEDAR ST STE 2A","BRANFORD","CT","064056012","2018-02-02T00:00:00.000","POINT (-72.819522 41.289319)"
"929797","DORAN ASSOCIATES LLC","BUSINESS","DORAN ASSOCIATES LLC","GARDENSIDE TERRACE","ALSA.0000047","ALSA","47",,"Assisted Living Service Agency","INACTIVE",,"0","2003-10-01T00:00:00.000","2003-10-01T00:00:00.000","2005-09-30T00:00:00.000","173 Alps Road","Branford","CT","06405","2010-05-18T00:00:00.000","POINT (-72.845346 41.265411)"
"1518502","ATRIA LITCHFIELD HILLS","LIMITED LIABILITY COMPANY","ATRIA LITCHFIELD HILLS","ATRIA LITCHFIELD HILLS","ALSA.0000193","ALSA","193",,"Assisted Living Service Agency","INACTIVE",,"0",,,,"376 GOSHEN RD","TORRINGTON","CT","067902722","2018-05-29T00:00:00.000","POINT (-73.154444 41.820725)"
"929939","NSL CONNECTICUT LLC","BUSINESS","NSL CONNECTICUT LLC","NSL CONNECTICUT, LLC","ALSA.0000060","ALSA","60",,"Assisted Living Service Agency","INACTIVE",,"0","2005-01-01T00:00:00.000","2005-01-01T00:00:00.000","2006-12-31T00:00:00.000","1 HAMILTON HEIGHTS DRIVE","WEST HARTFORD","CT","06119","2010-05-18T00:00:00.000","POINT (-72.722605 41.768833)"
"1392357","EVERGREEN WOODS","LIMITED LIABILITY COMPANY","EVERGREEN WOODS","EVERGREEN WOODS","ALSA.0000187","ALSA","187",,"Assisted Living Service Agency","ACTIVE IN RENEWAL","CURRENT","1","2016-12-05T00:00:00.000","2020-10-01T00:00:00.000","2022-09-30T00:00:00.000","88 NOTCH HILL RD","NORTH BRANFORD","CT","064711846","2021-11-04T00:00:00.000","POINT (-72.751087 41.317083)"
"1632606","SPRING VILLAGE AT DANBURY, LLC","LIMITED LIABILITY COMPANY","SPRING VILLAGE AT DANBURY, LLC","SPRING VILLAGE AT DANBURY","ALSA.0000208","ALSA","208",,"Assisted Living Service Agency","ACTIVE IN RENEWAL","CURRENT","1","2019-02-15T00:00:00.000","2021-01-01T00:00:00.000","2022-12-31T00:00:00.000","8 GLEN HILL RD","DANBURY","CT","068114985","2021-11-04T00:00:00.000","POINT (-73.448186 41.414573)"
"930222","COVENANT LIVING OF CROMWELL, INC.","CORPORATION","COVENANT LIVING OF CROMWELL, INC.","COVENANT LIVING OF CROMWELL ASSISTED LIVING SERVICES AGENCY","ALSA.0000063","ALSA","63",,"Assisted Living Service Agency","ACTIVE IN RENEWAL","CURRENT","1","2009-01-01T00:00:00.000","2021-01-01T00:00:00.000","2022-12-31T00:00:00.000","52 MISSIONARY RD","CROMWELL","CT","064162170","2021-11-22T00:00:00.000","POINT (-72.660913 41.600429)"
"930100","BELLMARIE INC.","BUSINESS","BELLMARIE INC.","BELLMARIE ASSISTED LIVING SERVICES AGENCY","ALSA.0AL0018","ALSA","AL0018",,"Assisted Living Service Agency","INACTIVE",,"0","2005-07-01T00:00:00.000","2005-07-01T00:00:00.000","2007-06-30T00:00:00.000","122 EAST MAIN STREET","PLAINVILLE","CT","06062","2010-05-18T00:00:00.000","POINT (-72.86006 41.673844)"
"1320361","THE LANDING OF FARMINGTON","LIMITED LIABILITY COMPANY","THE LANDING OF FARMINGTON","THE LANDING OF FARMINGTON","ALSA.0000176","ALSA","176",,"Assisted Living Service Agency","INACTIVE","INACTIVE","0","2015-11-10T00:00:00.000","2015-10-28T00:00:00.000","2017-09-30T00:00:00.000","111 SCOTT SWAMP RD","FARMINGTON","CT","060322805","2017-05-05T00:00:00.000","POINT (-72.857734 41.704071)"
"930729","SENIOR LIVING SERVICES LLC","BUSINESS","SENIOR LIVING SERVICES LLC","SENIOR LIVING SERVICES, LLC","ALSA.0AL0044","ALSA","AL0044",,"Assisted Living Service Agency","CLOSED","CLOSED","0","2009-07-01T00:00:00.000","2009-07-01T00:00:00.000","2011-06-30T00:00:00.000","580 Long Hill Avenue","Shelton","CT","06484","2012-01-23T00:00:00.000","POINT (-73.098429 41.281236)"
"929129","BAL WOODBRIDGE LLC","LIMITED LIABILITY COMPANY","BAL WOODBRIDGE LLC","BAL WOODBRIDGE LLC","ALSA.0000144","ALSA","144",,"Assisted Living Service Agency","ACTIVE IN RENEWAL","CURRENT","1","2008-12-02T00:00:00.000","2020-10-01T00:00:00.000","2022-09-30T00:00:00.000","21 BRADLEY RD","WOODBRIDGE","CT","065252294","2022-08-22T00:00:00.000","POINT (-72.982583 41.343606)"
"1003908","ATRIA LARSON PLACE","LIMITED LIABILITY COMPANY","ATRIA LARSON PLACE","ATRIA LARSON PLACE","ALSA.0000161","ALSA","161",,"Assisted Living Service Agency","ACTIVE","CURRENT","1","2011-06-22T00:00:00.000","2021-04-01T00:00:00.000","2023-03-31T00:00:00.000","1450 WHITNEY AVE","HAMDEN","CT","065172451","2022-04-22T00:00:00.000","POINT (-72.913115 41.353404)"
"929577","AVON CARE LLC","BUSINESS","AVON CARE LLC","LAUREL GARDENS OF AVON","ALSA.0000081","ALSA","81",,"Assisted Living Service Agency","INACTIVE",,"0","2004-07-01T00:00:00.000","2004-07-01T00:00:00.000","2006-06-30T00:00:00.000","101 Bickford Ext.","Avon","CT","06001","2010-05-18T00:00:00.000","POINT (-72.842521 41.812091)"
"929683","OLSL DARIEN LLC","BUSINESS","OLSL DARIEN LLC","ATRIA DARIEN","ALSA.0000121","ALSA","121",,"Assisted Living Service Agency","CLOSED","CLOSED","0","2009-07-01T00:00:00.000","2009-07-01T00:00:00.000","2011-06-30T00:00:00.000","50 Ledge Road","Darien","CT","06820","2012-07-24T00:00:00.000","POINT (-73.483961 41.071538)"
"2382873","RIDGEFIELD STATION","LIMITED LIABILITY COMPANY","RIDGEFIELD STATION","RIDGEFIELD STATION","ALSA.0000234","ALSA","234",,"Assisted Living Service Agency","ACTIVE","CURRENT","1","2022-06-24T00:00:00.000","2022-06-23T00:00:00.000","2024-03-31T00:00:00.000","55 OLD QUARRY ROAD","RIDGEFIELD","CT","06877","2022-06-24T00:00:00.000","POINT (-73.492039 41.288119)"
"930332","EAST HILL WOODS INC.","BUSINESS","EAST HILL WOODS INC.","EAST HILL WOODS, INC.","ALSA.0AL0004","ALSA","AL0004",,"Assisted Living Service Agency","INACTIVE",,"0","2006-01-01T00:00:00.000","2006-01-01T00:00:00.000","2007-12-31T00:00:00.000","611 EAST HILL ROAD","SOUTHBURY","CT","06488","2010-05-18T00:00:00.000","POINT (-73.241023 41.485028)"
"929017","HEARTHSTONE ASSISTED LIVING SERVICES AGENCY INC.","BUSINESS","HEARTHSTONE ASSISTED LIVING SERVICES AGENCY INC.","HEARTHSTONE ASSISTED LIVING SERVICES AGENCY, INC.","ALSA.0000116","ALSA","116",,"Assisted Living Service Agency","INACTIVE",,"0","2006-09-12T00:00:00.000","2006-09-12T00:00:00.000","2008-06-30T00:00:00.000","91 EAST MAIN STREET","Clinton","CT","06413","2010-05-18T00:00:00.000","POINT (-72.520003 41.27723)"
"929590","NEW ENGLAND HOME CARE INC.","BUSINESS","NEW ENGLAND HOME CARE INC.","NEW ENGLAND HOME CARE, INC.","ALSA.0000089","ALSA","89",,"Assisted Living Service Agency","INACTIVE",,"0","2005-01-01T00:00:00.000","2005-01-01T00:00:00.000","2006-12-31T00:00:00.000","57 Plains Road","Milford","CT","06460","2010-05-18T00:00:00.000","POINT (-73.074204 41.22262)"
"1607035","RESIDENCE AT SOUTH WINDSOR FARMS, THE","LIMITED LIABILITY COMPANY","RESIDENCE AT SOUTH WINDSOR FARMS, THE","RESIDENCE AT SOUTH WINDSOR FARMS, THE","ALSA.0000204","ALSA","204",,"Assisted Living Service Agency","ACTIVE IN RENEWAL","CURRENT","1","2018-10-11T00:00:00.000","2020-10-01T00:00:00.000","2022-09-30T00:00:00.000","200 DEMING WAY","SOUTH WINDSOR","CT","06074","2022-08-26T00:00:00.000","POINT (-72.552788 41.820807)"
"1248823","MAPLEWOOD AT STRAWBERRY HILL","LIMITED LIABILITY COMPANY","MAPLEWOOD AT STRAWBERRY HILL","MAPLEWOOD AT STRAWBERRY HILL","ALSA.0000172","ALSA","172",,"Assisted Living Service Agency","ACTIVE IN RENEWAL","CURRENT","1","2014-10-06T00:00:00.000","2020-10-01T00:00:00.000","2022-09-30T00:00:00.000","73 STRAWBERRY HILL AVE","NORWALK","CT","068551476","2022-08-24T00:00:00.000","POINT (-73.39888 41.109302)"
"929881","OLSL HAMILTON HEIGHTS PLACE LLC","BUSINESS","OLSL HAMILTON HEIGHTS PLACE LLC","ATRIA HAMILTON HEIGHTS","ALSA.0000112","ALSA","112",,"Assisted Living Service Agency","CLOSED","CLOSED","0","2009-10-01T00:00:00.000","2009-10-01T00:00:00.000","2011-09-30T00:00:00.000","Fern Street at One Hamilton Heights Drive","West Hartford","CT","06119","2012-07-24T00:00:00.000","POINT (-72.721722 41.770222)"
"930716","BROOKDALE ROCKY HILL","CORPORATION","BROOKDALE ROCKY HILL","BROOKDALE ROCKY HILL","ALSA.0AL0012","ALSA","AL0012",,"Assisted Living Service Agency","CLOSED","CLOSED","0","2009-04-01T00:00:00.000","2019-04-01T00:00:00.000","2021-03-31T00:00:00.000","60 COLD SPRING RD","ROCKY HILL","CT","060673175","2019-10-07T00:00:00.000","POINT (-72.681259 41.641657)"
"2086538","ADDISON PLACE AT GLASTONBURY","LIMITED LIABILITY COMPANY","ADDISON PLACE AT GLASTONBURY","ADDISON PLACE AT GLASTONBURY","ALSA.0000225","ALSA","225",,"Assisted Living Service Agency","ACTIVE IN RENEWAL","CURRENT","1","2020-09-24T00:00:00.000","2020-09-18T00:00:00.000","2022-06-30T00:00:00.000","1177 HEBRON AVENUE","GLASTONBURY","CT","06033","2020-09-24T00:00:00.000","POINT (-72.565653 41.718235)"
"2001797","CHURCH HILL  VILLAGE","LIMITED LIABILITY COMPANY","CHURCH HILL  VILLAGE","CHURCH HILL  VILLAGE","ALSA.0000219","ALSA","219",,"Assisted Living Service Agency","ACTIVE","CURRENT","1","2020-01-23T00:00:00.000","2022-01-01T00:00:00.000","2023-12-31T00:00:00.000","2 BOULEVARD","NEWTOWN","CT","064701621","2022-09-09T00:00:00.000","POINT (-73.30058 41.41495)"
"930030","MEADOW RIDGE","LIMITED LIABILITY COMPANY","MEADOW RIDGE","MEADOW RIDGE","ALSA.0000088","ALSA","88",,"Assisted Living Service Agency","ACTIVE IN RENEWAL","CURRENT","1","2008-10-01T00:00:00.000","2020-10-01T00:00:00.000","2022-09-30T00:00:00.000","100 REDDING RD","REDDING","CT","068963236","2022-08-30T00:00:00.000","POINT (-73.425508 41.263538)"
"928963","LEXINGTON HEALTH CARE GROUP INC.","BUSINESS","LEXINGTON HEALTH CARE GROUP INC.","PROFESSIONAL RELIEF NURSES, INC.","ALSA.0000077","ALSA","77",,"Assisted Living Service Agency","INACTIVE",,"0","2002-06-24T00:00:00.000","2002-06-24T00:00:00.000","2004-03-31T00:00:00.000","1010 Wethersfield Avenue","Hartford","CT","06114","2010-05-18T00:00:00.000","POINT (-72.668393 41.728767)"
"929133","BAL MILFORD LLC","LIMITED LIABILITY COMPANY","BAL MILFORD LLC","Carriage Green at Milford","ALSA.0000141","ALSA","141",,"Assisted Living Service Agency","ACTIVE IN RENEWAL","CURRENT","1","2008-12-02T00:00:00.000","2020-10-01T00:00:00.000","2022-09-30T00:00:00.000","77 PLAINS RD","MILFORD","CT","064612564","2022-08-30T00:00:00.000","POINT (-73.07533 41.222556)"
"929497","ATRIA ASSISTED LIVING STAMFORD LLC","BUSINESS","ATRIA ASSISTED LIVING STAMFORD LLC","ATRIA ASSISTED LIVING, STAMFORD","ALSA.AL-0058","ALSA","AL-0058",,"Assisted Living Service Agency","INACTIVE",,"0","2000-12-20T00:00:00.000","2000-12-20T00:00:00.000","2002-09-30T00:00:00.000","59 COURTLAND AVENUE","STAMFORD","CT","06902","2010-05-13T00:00:00.000","POINT (-73.514066 41.060375)"
"2387301","AVIVA WEST HARTFORD","LIMITED LIABILITY COMPANY","AVIVA WEST HARTFORD","AVIVA WEST HARTFORD","ALSA","ALSA",,,"Assisted Living Service Agency","PENDING","APPLICATION PENDING","0",,,,"1 HAMILTON HEIGHTS DR","WEST HARTFORD","CT","061196320","2022-06-28T00:00:00.000","POINT (-72.722605 41.768833)"
"930925","BRIGHTON GARDENS OF STAMFORD","LIMITED LIABILITY COMPANY","BRIGHTON GARDENS OF STAMFORD","BRIGHTON GARDENS OF STAMFORD","ALSA.0000022","ALSA","22",,"Assisted Living Service Agency","ACTIVE","CURRENT","1","2009-10-01T00:00:00.000","2021-10-01T00:00:00.000","2023-09-30T00:00:00.000","59 ROXBURY RD","STAMFORD","CT","069021283","2022-07-14T00:00:00.000","POINT (-73.563155 41.089697)"
"929117","BAL WINDSOR LLC","LIMITED LIABILITY COMPANY","BAL WINDSOR LLC","BAL WINDSOR LLC","ALSA.0000131","ALSA","131",,"Assisted Living Service Agency","ACTIVE IN RENEWAL","CURRENT","1","2008-12-01T00:00:00.000","2020-10-01T00:00:00.000","2022-09-30T00:00:00.000","432 BUCKLAND RD","SOUTH WINDSOR","CT","060743741","2022-08-22T00:00:00.000","POINT (-72.552781 41.822542)"
