"dbn","district","school_name","boro","zip_code","principal","progressre","school_level","peer_index","_2011_2012_overall_grade","_2011_2012_overall_score","_2011_2012_overall_percentile","_2011_2012_progress_category_score","_2011_2012_progressgrade","_2011_2012_performance_category_score","_2011_2012_performance_grade","_2011_2012_environment_category_score","_2011_2012_environment_grade","_2011_2012_college_and_career_readiness_score","_2011_2012_college_and_career_readiness_grade","_2011_2012_additional_credit","_2010_2011_progress_report_grade","_2009_10_progress_report_grade","handicap_accessibility","website","borough_number","borough_name","phonenumbe","capacity","grades","campus","website2","esl","concentration","location_1"
"10X307","10","P.S. X307  Eames Place","Bronx","10468","Luisa Fuentes","EMS","Elementary","60.666200000000003","A","67.3","81.150000000000006","25.7","C","23.4","A","14.4","A",," ","A","0"," "," "," ","0"," "," ","0"," ",," ","0"," ","124 EAMES PLACE
Bronx, NY 10468
(40.869135, -73.901843)"
"10X503","10","Walton Yabc","Bronx","10468","Keesha Lindsay","YABC","YABC","0","B","64.099999999999994","0","39.799999999999997","B","6.2","F","10.7","B","4.2","D","B","0"," "," "," ","0"," "," ","0"," ",," ","0"," ","2780 Reservoir Avenue
Bronx, NY 10468
(40.870638, -73.897705)"
"11X417","11"," C Columbus Hs Yabc","Bronx","10469","Ruth Colton","YABC","YABC","0","B","53.6","0","22.7","D","9.4","C","11.3","A","5","C","B","0"," "," "," ","0"," "," ","0"," ",," ","0"," ","925 Astor Avenue
Bronx, NY 10469
(40.85964, -73.860743)"
"11X270","11","Academy for Scholarship and Entrepreneurship: A","Bronx","10466","Zenobia White","EMS","Middle","2.4380000000000002"," ","0","0","0"," ","0"," ","0"," ",," ","C","0"," "," "," ","0"," "," ","0"," ",," ","0"," ","921 EAST 228TH STREET
Bronx, NY 10466
(40.887766, -73.852493)"
"07X369","7","Young Leaders Elementary School","Bronx","10454","Karen Collins","EMS","Elementary","69.184399999999997","D","29.5","4.0999999999999996","14","F","4.3","F","8.3000000000000007","B",," ","D","56","X369"," ","http://schools.nyc.gov/SchoolPortals/07/X369/default.htm","2","Bronx","718-292-7391","313","PK,0K,01,02,03,04,05,SE",," ","0"," ","468 EAST 140 STREET
Bronx, NY 10454
(40.809059, -73.919759)"
"11X462","11","CORNERSTONE ACADEMY FOR SOCIAL ACTION MIDDLE SCH","Bronx","10475","Jamaal Bowman","EMS","Middle","2.3552","A","70.5","83.15","38.799999999999997","B","17.7","A","10.4","A",," ",".","0"," "," "," ","0"," "," ","0"," ",," ","0"," ","3441 STEENWICK AVENUE
Bronx, NY 10475
(40.882742, -73.830616)"
"10X207","10","P.S. 207","Bronx","10463","Maria Rosado","EC","K2","63.016399999999997","B","41.2","0","15.8","C","13.2","C","7.9","C",," ","C","249","X207","Not Accessible","http://schools.nyc.gov/SchoolPortals/10/X207/default.htm","2","Bronx","718-796-9645","395","PK,0K,01,02,SE",," ","0"," ","3030 GODWIN TERRACE
Bronx, NY 10463
(40.878261, -73.906473)"
"09X088","9","P.S. X088 - S. Silverstein Little Sparrow School","Bronx","10456","Melinda Hyer","EC","K3","67.299899999999994","B","47.1","0","17","B","16.100000000000001","B","10.1","B",," ","B","136","X088","Not Accessible","http://schools.nyc.gov/SchoolPortals/09/X088/default.htm","2","Bronx","718-681-6220","205","0K,01,02,03,SE",," ","0"," ","1340 SHERIDAN AVENUE
Bronx, NY 10456
(40.83702, -73.913549)"
"11X097","11","P.S. 097 Bronx","Bronx","10469","Katheleen Bornkamp","EMS","Elementary","44.275599999999997","B","59.8","63.77","36.200000000000003","B","14.6","B","6.3","C",," ","B","341","X097","Not Accessible","http://schools.nyc.gov/SchoolPortals/11/X097/default.htm","2","Bronx","718-655-4446","773","PK,0K,01,02,03,04,05,SE",," ","0"," ","1375 MACE AVENUE
Bronx, NY 10469
(40.862847, -73.846795)"
"08X312","8","Millennium Art Academy","Bronx","10473","Maxine Nodel","HS","High School","1.79","B","66.099999999999994","52.8","36","B","10.3","C","10.4","B","4.5","C","A","71","X312","Functionally Accessible","http://schools.nyc.gov/SchoolPortals/08/X312/default.htm","2","Bronx","718-824-0978","504","09,10,11,12,SE",,"http://www.bxmaa.org","-1"," Visual Art & Design","1980 LAFAYETTE AVENUE
Bronx, NY 10473
(40.822326, -73.855957)"
"10X051","10","P.S. 051 Bronx New School","Bronx","10457","Paul Smith","EMS","Elementary","51.9983","A","66.8","80","39.700000000000003","A","16.5","A","7.3","C",," ","B","240","X051","Partially Accessible","http://schools.nyc.gov/SchoolPortals/10/X051/default.htm","2","Bronx","718-733-0347","253","0K,01,02,03,04,05,SE",," ","0"," ","695 EAST 182ND STREET
Bronx, NY 10457
(40.850692, -73.886598)"
"10X054","10","P.S. / I.S. 54","Bronx","10458","Maribelle NunezPardo","EMS","Elementary","68.051699999999997","C","46.2","29.67","28.4","C","8.4","D","5.6","C",," ","C","212","X054","Not Accessible","http://schools.nyc.gov/SchoolPortals/10/X054/default.htm","2","Bronx","718-584-4203","474","PK,0K,01,02,03,04,05,SE",," ","0"," ","2703 WEBSTER AVENUE
Bronx, NY 10458
(40.864875, -73.887921)"
"10X363","10","ACADEMY FOR PERSONAL LEADERSHIP AND EXCELLENCE","Bronx","10468","Angelo Ledda","EMS","Middle","2.1122999999999998","C","37.799999999999997","11.6","18.899999999999999","D","7.2","D","8.6999999999999993","B",," ",".","245","X363"," ","http://schools.nyc.gov/SchoolPortals/10/X363/default.htm","2","Bronx","718-220-3139","390","06,07,08,SE",," ","0"," ","120 EAST 184 STREET
Bronx, NY 10468
(40.859708, -73.899882)"
"09X365","9","Academy for Language and Technology","Bronx","10453","Arisleyda Urena","HS","High School","2.31","A","77.8","84.5","47.9","A","13.4","B","10.3","B","2.5","F"," ","197","X365"," ","http://schools.nyc.gov/SchoolPortals/09/X365/default.htm","2","Bronx","718-731-0219","317","09,10,11,12",,"http://www.alteagles.org","-1"," Communications","1700 MACOMBS ROAD
Bronx, NY 10453
(40.849726, -73.915756)"
"11X169","11","BAYCHESTER ACADEMY","Bronx","10466","Cristine Vaughan","EC","K3","54.065399999999997","C","29.3","0","7.6","F","10","C","10.4","B",," ",".","295","X169"," ","http://schools.nyc.gov/SchoolPortals/11/X169/default.htm","2","Bronx","718-325-1138","359","PK,0K,01,02,03,04,SE",," ","0"," ","3500 EDSON AVENUE
Bronx, NY 10466
(40.88096, -73.839643)"
"09X128","9","Mott Hall III","Bronx","10456","Jorisis Stupart","EMS","Middle","2.8858999999999999","C","50.9","37.57","24.8","C","16.3","A","7.6","C",," ","A","174","X128","Not Accessible","http://schools.nyc.gov/SchoolPortals/09/X128/default.htm","2","Bronx","718-992-9506","357","06,07,08,SE",," ","0"," ","580 CROTONA PARK SOUTH
Bronx, NY 10456
(40.834473, -73.900639)"
"09X329","9","DreamYard Preparatory School","Bronx","10457","Alicia Wargo","HS","High School","1.6","B","58.4","30.7","29.2","C","10.8","C","8.8000000000000007","B","5.4","C","D","144","X329","Functionally Accessible","http://schools.nyc.gov/SchoolPortals/09/X329/default.htm","2","Bronx","718-410-4242","324","09,10,11,12,SE",,"http://www.dyprep.org","-1"," Performing Arts","240 EAST 172 STREET
Bronx, NY 10457
(40.839295, -73.911384)"
"12X190","12","E.S.M.T- I.S. 190","Bronx","10460","Dianajade Santiago","EMS","Middle","2.3323","A","69.099999999999994","80.11","41.6","A","13.9","B","9","B",," ","B","413","X190","Not Accessible","http://schools.nyc.gov/SchoolPortals/12/X190/default.htm","2","Bronx","718-620-9423","249","06,07,08,SE",," ","0"," ","1550 CROTONA PARK EAST
Bronx, NY 10460
(40.836142, -73.892772)"
"12X388","12","Pan American International High School at Monroe","Bronx","10472","Bridgit Claire Bye","HS","High School","1.72","A","79","87","46.5","A","9.9","C","10.4","B","4.5","C"," ","421","X388"," ","http://schools.nyc.gov/SchoolPortals/12/X388/default.htm","2","Bronx","718-991-7238","407","09,10,11,12",," ","-1"," Humanities & Interdisciplinary","1300 BOYNTON AVENUE
Bronx, NY 10472
(40.831291, -73.878833)"
"11X288","11","Collegiate Institute for Math and Science","Bronx","10469","Shadia Alvarez","HS","High School","2.5499999999999998","B","69.7","65.400000000000006","34.799999999999997","B","14.1","A","10.5","A","8.3000000000000007","A","A","309","X288","Functionally Accessible","http://schools.nyc.gov/SchoolPortals/11/X288/default.htm","2","Bronx","718-944-3635","645","09,10,11,12,SE",," ","-1"," Science & Math","925 ASTOR AVENUE
Bronx, NY 10469
(40.85964, -73.860743)"
"09X004","9","P.S./M.S. 004 Crotona Park West","Bronx","10457","Vincent Resto","EMS","K8","63.953899999999997","A","76.5","95","46.1","A","18.100000000000001","A","6.8","C",," ","B","139","X004","Not Accessible","http://schools.nyc.gov/SchoolPortals/09/X004/default.htm","2","Bronx","718-583-6655","551","0K,01,02,03,04,05,06,07,08,SE",," ","0"," ","1701 FULTON AVENUE
Bronx, NY 10457
(40.842105, -73.89747)"
"09X053","9","P.S. 053 Basheer Quisim","Bronx","10456","Dr. Collin Wolfe","EMS","Elementary","66.540599999999998","A","68.2","83.11","37.200000000000003","B","20.100000000000001","A","6.7","C",," ","C","184","X053","Not Accessible","http://schools.nyc.gov/SchoolPortals/09/X053/default.htm","2","Bronx","718-681-7276","1354","PK,0K,01,02,03,04,05,SE",," ","0"," ","360 EAST 168 STREET
Bronx, NY 10456
(40.832565, -73.910467)"
"11X326","11","Bronx Green Middle School","Bronx","10467","Charles Johnson","EMS","Middle","2.4476","B","59.4","59.94","34.1","B","13.9","B","7.6","C",," ","C","301","X326"," ","http://schools.nyc.gov/SchoolPortals/11/X326/default.htm","2","Bronx","718-325-6593","383","06,07,08,SE",," ","0"," ","2441 WALLACE AVENUE
Bronx, NY 10467
(40.86206, -73.864588)"
"10X504","10","Kennedy Yabc","Bronx","10453","Frank Parrino","YABC","YABC","0","C","50.6","0","32.299999999999997","B","4.7","F","5.8","D","4.0999999999999996","D","B","0"," "," "," ","0"," "," ","0"," ",," ","0"," ","99 Terrace View Avenue
Bronx, NY 10453
(40.87707, -73.912617)"
"12X242","12","Mott Hall V","Bronx","10472","Peter Oroszlany","EMS","Middle","2.4104000000000001","A","77.099999999999994","90.06","46.4","A","18.399999999999999","A","7.5","C",," ","A","390","X242","Not Accessible","http://schools.nyc.gov/SchoolPortals/12/X242/default.htm","2","Bronx","718-620-8160","574","06,07,08,09,10,11,SE",,"http://www.MottHallV.org","-1"," Science & Math","1551 EAST 172ND STREET
Bronx, NY 10472
(40.831268, -73.878949)"
"12X248","12","Metropolitan High School, The","Bronx","10459","Carla Theodorou","HS","High School","1.62","A","87.5","96.1","44.9","A","15.5","A","12.6","A","5.6","C","A","393","X248","Not Accessible","http://schools.nyc.gov/SchoolPortals/12/X248/default.htm","2","Bronx","718-991-4634","330","09,10,11,12,SE",," ","-1"," Humanities & Interdisciplinary","1180 REV. J.A. POLITE AVE.
Bronx, NY 10459
(40.827719, -73.897001)"
"12X300","12","The School of Science and Applied Learning","Bronx","10457","Venessa Singleton","EMS","Elementary","68.321100000000001","D","34","7.7","19.3","D","3.1","F","9.1999999999999993","B",," ","C","405","X300","Not Accessible","http://schools.nyc.gov/SchoolPortals/12/X300/default.htm","2","Bronx","718-584-6310","611","PK,0K,01,02,03,04,05,SE",," ","0"," ","2050 PROSPECT AVENUE
Bronx, NY 10457
(40.845931, -73.88764)"
"10X477","10","Marble Hill High School for International Studies","Bronx","10463","Kirsten Larson","HS","High School","2.56","A","90.9","97.8","47.8","A","17.8","A","11","A","7.4","A","A","271","X477","Not Accessible","http://schools.nyc.gov/SchoolPortals/10/X477/default.htm","2","Bronx","718-561-0973","439","09,10,11,12,SE",,"http://www.Marblehillschool.org","-1"," Humanities & Interdisciplinary","99 TERRACE VIEW AVENUE
Bronx, NY 10463
(40.87707, -73.912617)"
"10X475","10","John F. Kennedy High School","Bronx","10463","Lisa Luft","HS","High School","1.49"," ","0","0","0"," ","0"," ","0"," ",," ","D","264","X475","Not Accessible","http://schools.nyc.gov/SchoolPortals/10/X475/default.htm","2","Bronx","718-817-7400","429","09,10,11,12,SE",," ","0"," ","99 TERRACE VIEW AVENUE
Bronx, NY 10463
(40.87707, -73.912617)"
"07X427","7","Community School for Social Justice","Bronx","10451","SueAnn Rosch","HS","High School","1.74","B","62.8","43.5","31.5","C","10.4","C","10.9","A","4.3","D","A","8","X427","Functionally Accessible","http://schools.nyc.gov/SchoolPortals/07/X427/default.htm","2","Bronx","718-402-8481","331","09,10,11,12,SE",,"http://www.cssjbronx.org","-1"," Law & Government","350 GERARD AVENUE
Bronx, NY 10451
(40.815652, -73.930447)"
"10X007","10","P.S. 007 Kingsbridge","Bronx","10463","Frank Patterson","EMS","Elementary","54.4788","A","85.9","97.87","51.2","A","17.5","A","13","A",," ","C","215","X007","Not Accessible","http://schools.nyc.gov/SchoolPortals/10/X007/default.htm","2","Bronx","718-796-8695","613","0K,01,02,03,04,05,SE",," ","0"," ","3201 KINGSBRIDGE AVENUE
Bronx, NY 10463
(40.881546, -73.905683)"
"11X270","11","Academy for Scholarship and Entrepreneurship: A College Board School","Bronx","10466","Zenobia White","HS","High School","1.77","B","59.9","36.4","32.700000000000003","B","12.5","B","6.1","D","4.7","C","C","292","X270"," ","http://schools.nyc.gov/SchoolPortals/11/X270/default.htm","2","Bronx","718-696-3840","541","07,08,09,10,11,12,SE",,"http://asescholars.org","-1"," Business","921 EAST 228TH STREET
Bronx, NY 10466
(40.887766, -73.852493)"
"09X404","9","School for Excellence","Bronx","10456","Carmen Bardeguez Brown","HS","High School","1.34","A","71.7","70.599999999999994","41.6","A","12.2","B","7.7","C","3.8","D","B","194","X404","Functionally Accessible","http://schools.nyc.gov/SchoolPortals/09/X404/default.htm","2","Bronx","718-860-1385","407","09,10,11,12,SE",," ","-1"," Humanities & Interdisciplinary","1110 BOSTON ROAD
Bronx, NY 10456
(40.828015, -73.904023)"
"12X267","12","Bronx Latin","Bronx","10456","Leticia Pineiro","HS","High School","1.91","A","84.4","94.4","42.2","A","16.3","A","12.3","A","8.5","A"," ","369","X267","Functionally Accessible","http://schools.nyc.gov/SchoolPortals/12/X267/default.htm","2","Bronx","718-991-6349","446","06,07,08,09,10,11,12,SE",,"http://BronxLatin.org","-1"," Humanities & Interdisciplinary","800 HOME STREET
Bronx, NY 10456
(40.826916, -73.900597)"
"12X446","12","Arturo A. Schomburg Satellite Academy Bronx","Bronx","10459","Marsha Vernon","HST","High School Transfer","1.19","B","57.4","0","28.6","C","9","D","8.3000000000000007","C","4.0999999999999996","D"," ","397","X446"," ","http://schools.nyc.gov/SchoolPortals/12/X446/default.htm","2","Bronx","718-542-2700","260","09,10,11,12",," ","0"," ","1010 REV. J. A. POLITE AVENUE
Bronx, NY 10459
(40.823299, -73.898739)"
"09X002","9","P.S. 002 Morrisania","Bronx","10456","Lisa Debonis","EMS","Middle","1.6247"," ","0","0","0"," ","0"," ","0"," ",," ",".","0"," "," "," ","0"," "," ","0"," ",," ","0"," ","1365 FULTON AVE
Bronx, NY 10456
(40.833501, -73.902732)"
"07X522","7","Bronx Design and Construction Academy","Bronx","10451","Matthew Williams","HS","High School","1.56"," ","0","0","0"," ","0"," ","0"," ",," "," ","28","X522"," ","http://schools.nyc.gov/SchoolPortals/07/X522/default.htm","2","Bronx","718-402-7690","303","09,10,SE",,"http://www.bxdca.com","-1"," Architecture","333 EAST 151 STREET
Bronx, NY 10451
(40.818396, -73.920081)"
"11X041","11","P.S. 041 Gun Hill Road","Bronx","10467","Erika Tobia","EMS","Elementary","62.015500000000003","C","37.700000000000003","12.46","13.3","F","11.9","C","9.5","B",," ","A","333","X041","Not Accessible","http://schools.nyc.gov/SchoolPortals/11/X041/default.htm","2","Bronx","718-652-3461","887","0K,01,02,03,04,05,SE",," ","0"," ","3352 OLINVILLE AVENUE
Bronx, NY 10467
(40.874754, -73.867851)"
"11X275","11","High School of Computers and Technology","Bronx","10467","Bruce Abramowitz","HS","High School","1.92","A","90.6","97.5","44.7","A","17.8","A","11.1","A","7.8","A","A","317","X275","Not Accessible","http://schools.nyc.gov/SchoolPortals/11/X275/default.htm","2","Bronx","718-696-3930","567","09,10,11,12,SE",,"http://www.hsctbronx.org","-1"," Computer Science & Technology","800 EAST GUN HILL ROAD
Bronx, NY 10467
(40.875163, -73.861653)"
"11X498","11","PS/MS 11X498 - VAN NEST ACADEMY","Bronx","10462","Carol Gilligan","EMS","Middle","2.6796000000000002","B","64.2","71.819999999999993","33.200000000000003","B","15.9","B","12.6","A",," ",".","359","X498"," ","http://schools.nyc.gov/SchoolPortals/11/X498/default.htm","2","Bronx","718-409-3001","470","0K,01,02,03,06,07,08,SE",," ","0"," ","1640 BRONXDALE AVE
Bronx, NY 10462
(40.845061, -73.85835)"
"08X093","8","P.S. 093 Albert G. Oliver","Bronx","10473","Donald Mattson","EMS","Elementary","61.548200000000001","A","65.400000000000006","76.89","39.700000000000003","A","11.6","C","8.5","B",," ","B","124","X093","Not Accessible","http://schools.nyc.gov/SchoolPortals/08/X093/default.htm","2","Bronx","718-842-2655","366","PK,0K,01,02,03,04,05,SE",," ","0"," ","1535 STORY AVENUE
Bronx, NY 10473
(40.822513, -73.877255)"
"07X381","7","Bronx Haven High School","Bronx","10451","Lucinda Mendez","HST","High School Transfer","1.2","C","46.3","0","21.5","D","8.1","D","7.1","C","3.8","D","B","6","X381"," ","http://schools.nyc.gov/SchoolPortals/07/X381/default.htm","2","Bronx","718-292-3638","178","09,10,11,12,SE",," ","0"," ","333 EAST 151 STREET
Bronx, NY 10451
(40.818396, -73.920081)"
"12X067","12","P.S. 067 Mohegan School","Bronx","10460","Emily Grimball","EMS","Elementary","66.255700000000004","B","62.8","71.150000000000006","36.9","B","15.7","B","6","C",," ","C","378","X067","Not Accessible","http://schools.nyc.gov/SchoolPortals/12/X067/default.htm","2","Bronx","718-589-8090","706","PK,0K,01,02,03,04,05,SE",," ","0"," ","2024 MOHEGAN AVENUE
Bronx, NY 10460
(40.84377, -73.884191)"
"09X517","9","Frederick Douglass Academy III Secondary School","Bronx","10456","Rahesha Amon","HS","High School","1.88","B","63.5","44.8","29.5","C","15","A","8.1","C","5.5","C","B","149","X517","Not Accessible","http://schools.nyc.gov/SchoolPortals/09/X517/default.htm","2","Bronx","718-538-9726","465","08,09,10,11,12,SE",," ","-1"," Humanities & Interdisciplinary","3630 THIRD AVENUE
Bronx, NY 10456
(40.8341, -73.904078)"
"12X211","12","P.S. 211","Bronx","10457","Betty GonzalezSoto","EMS","K8","66.065600000000003","C","46.2","29.38","22.2","D","11.2","C","7.7","B",," ","A","366","X211","Functionally Accessible","http://schools.nyc.gov/SchoolPortals/12/X211/default.htm","2","Bronx","718-901-0436","621","PK,0K,01,02,03,04,05,06,07,08,SE",," ","0"," ","1919 PROSPECT AVENUE
Bronx, NY 10457
(40.843401, -73.889878)"
"08X335","8","The Academy of the Arts","Bronx","10459","Erik Wright","EMS","Elementary","70.371399999999994","B","52.3","45.57","23","C","16.600000000000001","A","9.8000000000000007","A",," ","B","69","X335","Not Accessible","http://schools.nyc.gov/SchoolPortals/08/X335/default.htm","2","Bronx","718-860-3401","238","PK,0K,01,02,04,05,SE",," ","0"," ","888 REV J A POLITE AVE
Bronx, NY 10459
(40.820156, -73.898787)"
"08X467","8","MOTT HALL COMMUNITY SCHOOL","Bronx","10465","Geovanti Steward","EMS","Middle","2.3862000000000001","C","43.7","21.55","17.600000000000001","D","15.7","B","7.9","B",," ",".","65","X467"," ","http://schools.nyc.gov/SchoolPortals/08/X467/default.htm","2","Bronx","718-829-3254","276","06,07,08,SE",," ","0"," ","650 HOLLYWOOD AVENUE
Bronx, NY 10465
(40.826777, -73.818075)"
"09X227","9","Bronx Collegiate Academy","Bronx","10457","D White","HS","High School","1.49","A","73.099999999999994","74.400000000000006","40.200000000000003","A","11.6","B","11.3","A","4.4000000000000004","D","C","166","X227","Functionally Accessible","http://schools.nyc.gov/SchoolPortals/09/X227/default.htm","2","Bronx","718-410-4077","337","09,10,11,12,SE",,"https://sites.google.com/site/bronxcollegiateacademy/","-1"," Humanities & Interdisciplinary","240 EAST 172 STREET
Bronx, NY 10457
(40.839295, -73.911384)"
"10X015","10","P.S. X015 Institute for Environmental Learning","Bronx","10453","Tara Edmonds","EMS","K8","59.006799999999998","B","64","74.38","31.1","B","19.3","A","11","A",," ","A","238","X015","Functionally Accessible","http://schools.nyc.gov/SchoolPortals/10/X015/default.htm","2","Bronx","718-563-0473","548","0K,01,02,03,04,05,06,07,08,SE",," ","0"," ","2195 ANDREWS AVENUE
Bronx, NY 10453
(40.859221, -73.909761)"
"11X078","11","P.S. 078 Anne Hutchinson","Bronx","10469","Claudina Skerritt","EMS","Elementary","59.433799999999998","C","40.299999999999997","16.72","22.9","C","7","D","7.8","B",," ","C","336","X078","Not Accessible","http://schools.nyc.gov/SchoolPortals/11/X078/default.htm","2","Bronx","718-652-1244","731","0K,01,02,03,04,05,SE",," ","0"," ","1400 NEEDHAM AVENUE
Bronx, NY 10469
(40.878478, -73.851348)"
"11X144","11","J.H.S. 144 Michelangelo","Bronx","10469","Jeremy Kabinoff","EMS","Middle","2.3687","D","25.7","3.87","7.3","F","8.5","D","7.5","C",," ","C","324","X144","Not Accessible","http://schools.nyc.gov/SchoolPortals/11/X144/default.htm","2","Bronx","718-379-7400","833","06,07,08,SE",," ","0"," ","2545 GUNTHER AVENUE
Bronx, NY 10469
(40.863836, -73.836531)"
"10X268","10","Kingsbridge International High School","Bronx","10468","Ronald Newlon","HS","High School","1.84","B","60","37","34.700000000000003","B","6.1","F","10.8","A","3.8","D","B","258","X268","Functionally Accessible","http://schools.nyc.gov/SchoolPortals/10/X268/default.htm","2","Bronx","718-329-8580","490","09,10,11,12",," ","-1"," Humanities & Interdisciplinary","2780 RESERVOIR AVENUE
Bronx, NY 10468
(40.870638, -73.897705)"
"10X386","10","School for Environmental Citizenship","Bronx","10453","Angelyn Donald","EMS","Elementary","69.961600000000004","A","86.5","98.36","52.7","A","20.7","A","8.9","B",," ","F","250","X386"," ","http://schools.nyc.gov/SchoolPortals/10/X386/default.htm","2","Bronx","718-563-3292","496","PK,0K,01,02,03,04,05,SE",," ","0"," ","125 EAST 181 STREET
Bronx, NY 10453
(40.854903, -73.90342)"
"10X086","10","P.S. 086 Kingsbridge Heights","Bronx","10468","Fiona Tyson","EMS","Elementary","63.1738","A","77.7","94.26","40.299999999999997","A","19.600000000000001","A","13","A",," ","A","210","X086","Functionally Accessible","http://schools.nyc.gov/SchoolPortals/10/X086/default.htm","2","Bronx","718-584-5585","1628","PK,0K,01,02,03,04,05,06,SE",," ","0"," ","2756 RESERVOIR AVENUE
Bronx, NY 10468
(40.869215, -73.897897)"
"09X126","9","P.S. 126 Dr Marjorie H Dunbar","Bronx","10452","Nadine KeeFoster","EMS","Elementary","66.142099999999999","C","44.1","23.44","24","C","11.5","C","5.4","C",," ","B","202","X126","Not Accessible","http://schools.nyc.gov/SchoolPortals/09/X126/default.htm","2","Bronx","718-681-6120","745","PK,0K,01,02,03,04,05,06,SE",," ","0"," ","175 WEST 166 STREET
Bronx, NY 10452
(40.835819, -73.928328)"
"07X203","7","M.S. 203","Bronx","10451","William Hewlett Jr","EMS","Middle","2.0314000000000001","D","34.700000000000003","9.1199999999999992","19.600000000000001","D","5.5","F","6","C",," ","C","35","X203","Functionally Accessible","http://schools.nyc.gov/SchoolPortals/07/X203/default.htm","2","Bronx","718-292-1052","291","06,07,08,SE",," ","0"," ","339 MORRIS AVENUE
Bronx, NY 10451
(40.81366, -73.925999)"
"10X141","10","Riverdale / Kingsbridge Academy (Middle School /","Bronx","10463","Lori O'mara","EMS","Middle","2.8062999999999998","B","55.5","51.1","29.9","C","16.5","A","5.2","D",," ","D","0"," "," "," ","0"," "," ","0"," ",," ","0"," ","660 W 237th St
Bronx, NY 10463
(40.887432, -73.914128)"
"08X123","8","J.H.S. 123 James M. Kieran","Bronx","10472","Tyra Williams","EMS","Middle","2.2732000000000001","C","47.5","29.28","24.4","C","14","B","5.8","C",," ","A","85","X123","Not Accessible","http://schools.nyc.gov/SchoolPortals/08/X123/default.htm","2","Bronx","718-328-2105","508","06,07,08,SE",," ","0"," ","1025 MORRISON AVENUE
Bronx, NY 10472
(40.825158, -73.873656)"
"10X141","10","Riverdale / Kingsbridge Academy (Middle School / High School 141)","Bronx","10463","Lori O'mara","HS","High School","2.38","B","69.2","64.5","35.799999999999997","B","15.2","A","6.9","D","7.5","A","A","277","X141","Functionally Accessible","http://schools.nyc.gov/SchoolPortals/10/X141/default.htm","2","Bronx","718-796-8516","1350","06,07,08,09,10,11,12,SE",,"http://www.rka141.org","-1"," Humanities & Interdisciplinary","660 WEST 237 STREET
Bronx, NY 10463
(40.887432, -73.914128)"
"09X297","9","Morris Academy for Collaborative Studies","Bronx","10456","Charles Osewalt","HS","High School","1.58","B","69.400000000000006","64.099999999999994","36.1","B","14","A","8.6","C","3.8","D","A","171","X297","Functionally Accessible","http://schools.nyc.gov/SchoolPortals/09/X297/default.htm","2","Bronx","718-542-3700","449","09,10,11,12,SE",,"http://morrisacademyhs.com","-1"," Humanities & Interdisciplinary","1110 BOSTON ROAD
Bronx, NY 10456
(40.828015, -73.904023)"
"10X046","10","P.S. 046 Edgar Allan Poe","Bronx","10458","Jennifer AlexanderAde","EMS","Elementary","69.266300000000001","B","52.8","47.38","30.3","B","10.5","C","8.3000000000000007","B",," ","C","235","X046","Not Accessible","http://schools.nyc.gov/SchoolPortals/10/X046/default.htm","2","Bronx","718-584-4450","1255","0K,01,02,03,04,05,06,SE",," ","0"," ","279 EAST 196 STREET
Bronx, NY 10458
(40.866783, -73.890523)"
"11X019","11","P.S. 019 Judith K. Weiss","Bronx","10470","Timothy P. Sullivan","EMS","K8","22.954799999999999","B","54.9","52.5","27.1","C","13.7","B","11.4","A",," ","C","331","X019","Not Accessible","http://schools.nyc.gov/SchoolPortals/11/X019/default.htm","2","Bronx","718-324-1924","501","0K,01,02,03,04,05,06,07,08,SE",," ","0"," ","4318 KATONAH AVENUE
Bronx, NY 10470
(40.899254, -73.867505)"
"07X670","7","Health Opportunities High School","Bronx","10451","Julie Mchedlishvili","HS","High School","1.84","C","53.9","20.6","21","F","13.6","B","8.1","C","6.7","B","B","49","X670","Functionally Accessible","http://schools.nyc.gov/SchoolPortals/07/X670/default.htm","2","Bronx","718-401-1826","567","09,10,11,12,SE",," ","-1"," Health Professions","350 GERARD AVENUE
Bronx, NY 10451
(40.815652, -73.930447)"
"08X131","8","J.H.S. 131 Albert Einstein","Bronx","10473","Edward C. Leotta","EMS","Middle","2.4582999999999999","C","44.4","22.65","26.4","C","10.199999999999999","C","4.9000000000000004","D",," ","C","88","X131","Not Accessible","http://schools.nyc.gov/SchoolPortals/08/X131/default.htm","2","Bronx","718-991-7490","803","06,07,08,SE",," ","0"," ","885 BOLTON AVENUE
Bronx, NY 10473
(40.82391, -73.859961)"
"09X457","9","SHERIDAN ACADEMY FOR YOUNG LEADERS","Bronx","10456","Lisette Febus","EMS","Elementary","63.183300000000003","C","35.9","10.16","20.399999999999999","D","6.2","F","7","C",," ",".","187","X457"," ","http://schools.nyc.gov/SchoolPortals/09/X457/default.htm","2","Bronx","718-538-3411","592","0K,01,02,03,04,05,SE",," ","0"," ","1116 SHERIDAN AVENUE
Bronx, NY 10456
(40.832276, -73.917761)"
"10X667","10","Grace Dodge Yabc","Bronx","10458","Patricia Squire","YABC","YABC","0","B","54.1","0","33.299999999999997","B","1.3","F","10.4","B","5.6","C","D","0"," "," "," ","0"," "," ","0"," ",," ","0"," ","2474 Crotona Avenue
Bronx, NY 10458
(40.856088, -73.882489)"
"07X223","7","M.S. 223 The Laboratory School of Finance and Te","Bronx","10454","Ramon Gonzalez","EMS","Middle","2.6297000000000001","B","61.7","66.849999999999994","30.8","C","16.3","A","11.5","A",," ","A","0"," "," "," ","0"," "," ","0"," ",," ","0"," ","360 EAST 145 STREET
Bronx, NY 10454
(40.813982, -73.921021)"
"10X118","10","J.H.S. 118 William W. Niles","Bronx","10457","Elizabeth Lawrence","EMS","Middle","2.8837000000000002","C","50.4","36.74","26.9","C","15.3","B","5.6","C",," ","C","266","X118","Functionally Accessible","http://schools.nyc.gov/SchoolPortals/10/X118/default.htm","2","Bronx","718-584-2330","1176","06,07,08,SE",," ","0"," ","577 EAST 179 STREET
Bronx, NY 10457
(40.848439, -73.892852)"
"08X302","8","M.S. 302 Luisa Dessus Cruz","Bronx","10455","Liza Ortiz","EMS","Middle","2.0438000000000001","C","51.2","38.950000000000003","24.6","C","16.399999999999999","A","7.4","C",," ","A","81","X302","Not Accessible","http://schools.nyc.gov/SchoolPortals/08/X302/default.htm","2","Bronx","718-292-6070","623","06,07,08,SE",," ","0"," ","681 KELLY STREET
Bronx, NY 10455
(40.815663, -73.901801)"
"12X463","12","URBAN SCHOLARS COMMUNITY SCHOOL","Bronx","10456","Debra ClarkeJones","EMS","Elementary","67.003100000000003","D","32","5.9","15.4","D","4.5999999999999996","F","9.5","B",," ",".","423","X463"," ","http://schools.nyc.gov/SchoolPortals/12/X463/default.htm","2","Bronx","718-842-8133","302","PK,0K,01,02,03,04,05,SE",," ","0"," ","1180 TINTON AVENUE
Bronx, NY 10456
(40.828593, -73.900507)"
"08X182","8","P.S. 182","Bronx","10473","Anne O'grady","EMS","Elementary","51.333500000000001","B","55.5","54.26","29.9","B","15","B","7.6","B",," ","B","111","X182","Not Accessible","http://schools.nyc.gov/SchoolPortals/08/X182/default.htm","2","Bronx","718-828-6607","944","PK,0K,01,02,03,04,05,SE",," ","0"," ","601 STICKBALL BOULEVARD
Bronx, NY 10473
(40.818965, -73.856832)"
"11X175","11","P.S. 175 City Island","Bronx","10464","Amy Lipson","EMS","K8","19.0671","C","42.6","21.25","19","D","14.5","B","6.9","C",," ","C","351","X175","Not Accessible","http://schools.nyc.gov/SchoolPortals/11/X175/default.htm","2","Bronx","718-885-1093","347","0K,01,02,03,04,05,06,07,08,SE",," ","0"," ","200 CITY ISLAND AVENUE
Bronx, NY 10464
(40.844183, -73.784243)"
"12X217","12","School of Performing Arts","Bronx","10459","Seth Litt","EMS","Middle","2.1107999999999998","B","51.9","41.16","29.1","C","12.1","C","8.1","B",," ","A","380","X217","Partially Accessible","http://schools.nyc.gov/SchoolPortals/12/X217/default.htm","2","Bronx","718-589-4844","355","06,07,08,SE",," ","0"," ","977 FOX STREET
Bronx, NY 10459
(40.822371, -73.89386)"
"12X129","12","P.S. 129 Twin Parks Upper","Bronx","10460","Yvette Beasley","EMS","Middle","2.2000999999999999","B","58.3","57.46","30.5","C","15.5","B","8.4","B",," ","B","375","X129","Functionally Accessible","http://schools.nyc.gov/SchoolPortals/12/X129/default.htm","2","Bronx","718-933-5976","528","06,07,08,SE",," ","0"," ","2055 MAPES AVENUE
Bronx, NY 10460
(40.845716, -73.886313)"
"07X500","7","Hostos-Lincoln Academy of Science","Bronx","10455","Nicholas Paarlberg","EMS","Middle","2.8273000000000001","B","57.1","54.7","34.1","B","14","B","6.1","C",," ","A","18","X500","Partially Accessible","http://schools.nyc.gov/SchoolPortals/07/X500/default.htm","2","Bronx","718-402-5640","533","06,07,08,09,10,11,12,SE",," ","-1"," Health Professions","600 SAINT ANN'S AVENUE
Bronx, NY 10455
(40.814554, -73.912403)"
"10X439","10","Bronx High School for Law and Community Service","Bronx","10458","Michael Barakat","HS","High School","1.65","C","51.5","15.8","22.9","D","10","C","7.8","C","5","C","D","288","X439","Functionally Accessible","http://schools.nyc.gov/SchoolPortals/10/X439/default.htm","2","Bronx","718-733-5274","429","09,10,11,12,SE",," ","-1"," Law & Government","500 EAST FORDHAM ROAD
Bronx, NY 10458
(40.859702, -73.887589)"
"10X306","10","P.S. 306","Bronx","10453","Darryl Harrington","EMS","Elementary","65.973299999999995","C","43.7","22.62","24.6","C","9.5","C","6.3","C",," ","C","255","X306","Functionally Accessible","http://schools.nyc.gov/SchoolPortals/10/X306/default.htm","2","Bronx","718-583-5355","731","0K,01,02,03,04,05,SE",," ","0"," ","40 WEST TREMONT AVENUE
Bronx, NY 10453
(40.851798, -73.910363)"
"11X087","11","P.S. 087 Bronx","Bronx","10466","Donna Anaman","EMS","Elementary","52.91","C","41.3","18.36","25.5","C","7.2","D","6.4","C",," ","C","338","X087","Not Accessible","http://schools.nyc.gov/SchoolPortals/11/X087/default.htm","2","Bronx","718-324-5188","610","0K,01,02,03,04,05,SE",," ","0"," ","1935 BUSSING AVENUE
Bronx, NY 10466
(40.895082, -73.846063)"
"09X454","9","SCIENCE AND TECHNOLOGY ACADEMY: A MOTT HALL SCHO","Bronx","10456","Dr. Patrick Awosogba","EMS","Middle","2.3704000000000001","A","65.7","75.69","37.700000000000003","B","14.3","B","9.6","B",," ",".","0"," "," "," ","0"," "," ","0"," ",," ","0"," ","250 E 164th St
Bronx, NY 10456
(40.828356, -73.917243)"
"11X111","11","P.S. 111 Seton Falls","Bronx","10466","Ava Fullenweider","EMS","Elementary","63.010100000000001","D","33.5","6.89","22.1","C","3.4","F","4.0999999999999996","D",," ","C","346","X111","Not Accessible","http://schools.nyc.gov/SchoolPortals/11/X111/default.htm","2","Bronx","718-881-2418","689","PK,0K,01,02,03,04,05,SE",," ","0"," ","3740 BAYCHESTER AVENUE
Bronx, NY 10466
(40.884355, -73.839263)"
"09X313","9","I.S. 313 School of Leadership Development","Bronx","10457","Lauren Wilkins","EMS","Middle","2.21","C","48.5","32.6","31.2","B","9.1","C","4.9000000000000004","D",," ","B","159","X313","Functionally Accessible","http://schools.nyc.gov/SchoolPortals/09/X313/default.htm","2","Bronx","718-583-1736","431","06,07,08,SE",," ","0"," ","1600 WEBSTER AVENUE
Bronx, NY 10457
(40.840523, -73.904343)"
"12X195","12","P.S. 195","Bronx","10472","Andrew Kavanagh","EMS","Elementary","65.204400000000007","C","40.799999999999997","17.54","21.5","C","9.5","C","7.4","B",," ","C","371","X195","Not Accessible","http://schools.nyc.gov/SchoolPortals/12/X195/default.htm","2","Bronx","718-861-4461","885","PK,0K,01,02,03,04,05,SE",," ","0"," ","1250 WARD AVENUE
Bronx, NY 10472
(40.830788, -73.877273)"
"07X527","7","Bronx Leadership Academy II High School","Bronx","10451","Katherine Callaghan","HS","High School","1.71","C","57.2","27.7","28.1","C","11.1","C","7.7","C","4.5","C","B","29","X527","Functionally Accessible","http://schools.nyc.gov/SchoolPortals/07/X527/default.htm","2","Bronx","718-292-7171","514","09,10,11,12,SE",,"http://www.BronxleadershipAcademy2.org","-1"," Science & Math","730 CONCOURSE VILLAGE WEST
Bronx, NY 10451
(40.822772, -73.923439)"
"10X344","10","Ampark Neighborhood","Bronx","10463","Elizabeth LopezTowey","EMS","Elementary","34.627800000000001","C","47.5","33.93","24.1","C","17.100000000000001","A","4.7","D",," ",".","273","X344"," ","http://schools.nyc.gov/SchoolPortals/10/X344/default.htm","2","Bronx","718-548-3451","296","0K,01,02,03,04,05",," ","0"," ","3961 HILLMAN AVENUE
Bronx, NY 10463
(40.883022, -73.891672)"
"12X102","12","P.S. 102 Joseph O. Loretan","Bronx","10460","Tanyua Trezevantte","EMS","Elementary","62.255299999999998"," ","0","0","0"," ","0"," ","0"," ",," ","C","376","X102","Functionally Accessible","http://schools.nyc.gov/SchoolPortals/12/X102/default.htm","2","Bronx","718-792-4003","247","04,05,SE",," ","0"," ","1827 ARCHER STREET
Bronx, NY 10460
(40.838144, -73.866048)"
"10X091","10","P.S. 091 Bronx","Bronx","10453","Meridith Struhl Nasjlett","EMS","Elementary","66.6066","B","53.1","48.2","30.9","B","14.4","B","4.7","D",," ","B","229","X091","Not Accessible","http://schools.nyc.gov/SchoolPortals/10/X091/default.htm","2","Bronx","718-584-5805","681","0K,01,02,03,04,05,SE",," ","0"," ","2200 AQUEDUCT AVENUE
Bronx, NY 10453
(40.85823, -73.907848)"
"09X232","9","I.S. 232","Bronx","10453","Neifi Acosta","EMS","Middle","2.1861999999999999","A","73.900000000000006","87.02","45.6","A","14.6","B","7.9","B",," ","A","158","X232","Not Accessible","http://schools.nyc.gov/SchoolPortals/09/X232/default.htm","2","Bronx","718-583-7007","516","06,07,08,SE",," ","0"," ","1700 MACOMBS ROAD
Bronx, NY 10453
(40.849726, -73.915756)"
"08X140","8","P.S. X140 The Eagle School","Bronx","10456","Paul Cannon","EMS","Elementary","63.734000000000002","C","42","19.670000000000002","24.1","C","9","C","6.3","C",," ","C","101","X140","Not Accessible","http://schools.nyc.gov/SchoolPortals/08/X140/default.htm","2","Bronx","718-585-1205","658","PK,0K,01,02,03,04,05,SE",," ","0"," ","916 EAGLE AVENUE
Bronx, NY 10456
(40.823456, -73.907821)"
"09X414","9","Jonathan Levin High School for Media and Communications","Bronx","10457","Nasib Hoxha","HS","High School","1.35","D","40.299999999999997","3.4","21.7","F","5.6","F","7.8","C","3.3","F","C","168","X414","Functionally Accessible","http://schools.nyc.gov/SchoolPortals/09/X414/default.htm","2","Bronx","718-992-3709","379","09,10,11,12,SE",,"http://www.jonathanlevinhs.org","-1"," Film/Video","240 EAST 172 STREET
Bronx, NY 10457
(40.839295, -73.911384)"
"10X243","10","West Bronx Academy for the Future","Bronx","10458","Wilper Morales","HS","High School","1.85","C","56.2","25.1","28.6","C","10.1","C","6.5","D","5.3","C","C","231","X243","Functionally Accessible","http://schools.nyc.gov/SchoolPortals/10/X243/default.htm","2","Bronx","718-563-7139","616","06,07,08,09,10,11,12,SE",,"http://www.westbronxacademy.org","-1"," Humanities & Interdisciplinary","500 EAST FORDHAM ROAD
Bronx, NY 10458
(40.859702, -73.887589)"
"10X459","10","EAST FORDHAM ACADEMY FOR THE ARTS","Bronx","10468","Tanicia Williams","EMS","Middle","2.1953","C","47.9","31.49","25.1","C","12.5","C","7","C",," ",".","213","X459"," ","http://schools.nyc.gov/SchoolPortals/10/X459/default.htm","2","Bronx","718-220-4185","305","06,07,08,SE",," ","0"," ","120 EAST 184 STREET
Bronx, NY 10468
(40.859708, -73.899882)"
"10X080","10","J.H.S. 080 The Mosholu Parkway","Bronx","10467","Lovey MaziqueRivera","EMS","Middle","2.0825","B","60.4","61.6","33.6","B","16.2","B","6.2","C",," ","B","267","X080","Partially Accessible","http://schools.nyc.gov/SchoolPortals/10/X080/default.htm","2","Bronx","718-405-6300","682","06,07,08,SE",," ","0"," ","149 EAST MOSHOLU PKWY
Bronx, NY 10467
(40.87683, -73.881236)"
"11X272","11","Globe School for Environmental Research","Bronx","10467","Matthew Angell","EMS","Middle","2.3281999999999998","C","39.700000000000003","14.92","21.2","D","10.3","C","5.5","C",," ","D","313","X272","Not Accessible","http://schools.nyc.gov/SchoolPortals/11/X272/default.htm","2","Bronx","718-994-1395","353","06,07,08,SE",," ","0"," ","3710 BARNES AVENUE
Bronx, NY 10467
(40.880634, -73.860155)"
"09X109","9","P.S. 109 Sedgwick","Bronx","10453","Amanda Blatter","EMS","Elementary","67.790999999999997","B","61.8","69.34","32.700000000000003","B","17.399999999999999","A","9.1999999999999993","B",," ","A","198","X109","Not Accessible","http://schools.nyc.gov/SchoolPortals/09/X109/default.htm","2","Bronx","718-583-8878","837","PK,0K,01,02,03,04,05,SE",," ","0"," ","1771 POPHAM AVENUE
Bronx, NY 10453
(40.851707, -73.91892)"
"10X085","10","P.S. 085 Great Expectations","Bronx","10458","Ted Husted","EMS","Elementary","71.307900000000004","B","50.6","41.64","32.700000000000003","B","6","F","7.8","B",," ","C","290","X085","Functionally Accessible","http://schools.nyc.gov/SchoolPortals/10/X085/default.htm","2","Bronx","718-584-5275","1053","0K,01,02,03,04,05,SE",," ","0"," ","2400 MARION AVENUE
Bronx, NY 10458
(40.858659, -73.894685)"
"11X415","11","Christopher Columbus High School","Bronx","10469","Lisa Fuentes","HS","High School","1.24"," ","0","0","0"," ","0"," ","0"," ",," ","D","308","X415","Functionally Accessible","http://schools.nyc.gov/SchoolPortals/11/X415/default.htm","2","Bronx","718-944-3400","478","09,10,11,12,SE",," ","0"," ","925 ASTOR AVENUE
Bronx, NY 10469
(40.85964, -73.860743)"
"12X691","12","Bronx Little School","Bronx","10460","Janice Gordon","EMS","Elementary","56.504800000000003","B","53.4","49.02","32.700000000000003","B","10.8","C","6.5","C",," ","C","424","X691","Functionally Accessible","http://schools.nyc.gov/SchoolPortals/12/X691/default.htm","2","Bronx","718-792-2650","327","PK,0K,01,02,03,04,05,SE",," ","0"," ","1827 ARCHER STREET
Bronx, NY 10460
(40.838144, -73.866048)"
"12X057","12","P.S. 057 Crescent","Bronx","10457","Edsel Philip","EMS","Elementary","66.177800000000005","C","42.6","20.82","19.899999999999999","D","16.3","A","4.2","D",," ","B","383","X057","Not Accessible","http://schools.nyc.gov/SchoolPortals/12/X057/default.htm","2","Bronx","718-367-9446","522","PK,0K,01,02,03,04,05,SE",," ","0"," ","2111 CROTONA AVENUE
Bronx, NY 10457
(40.848616, -73.888445)"
"09X260","9","Bronx Center for Science and Mathematics","Bronx","10456","Edward Tom","HS","High School","2.64","A","80.900000000000006","91","40.5","A","15.9","A","11.1","A","9","A","B","155","X260","Not Accessible","http://schools.nyc.gov/SchoolPortals/09/X260/default.htm","2","Bronx","718-992-7089","469","09,10,11,12,SE",,"http://www.bcsmschool.com","-1"," Science & Math","1363 FULTON AVENUE
Bronx, NY 10456
(40.833875, -73.902818)"
"08X048","8","P.S. 048 Joseph R. Drake","Bronx","10474","Roxanne Cardona","EMS","Elementary","70.779399999999995","A","67.8","81.8","39.700000000000003","A","16.5","A","7.4","B",," ","B","99","X048","Not Accessible","http://schools.nyc.gov/SchoolPortals/08/X048/default.htm","2","Bronx","718-589-4312","830","PK,0K,01,02,03,04,05,SE",," ","0"," ","1290 SPOFFORD AVENUE
Bronx, NY 10474
(40.814391, -73.886875)"
"07X154","7","P.S. 154 Jonathan D. Hyatt","Bronx","10454","Marsha Elliott","EMS","Elementary","64.836699999999993","F","25.5","2.13","15.8","D","4.5","F","2.8","F",," ","C","20","X154","Not Accessible","http://schools.nyc.gov/SchoolPortals/07/X154/default.htm","2","Bronx","718-292-4742","529","PK,0K,01,02,03,04,05,SE",," ","0"," ","333 EAST 135 STREET
Bronx, NY 10454
(40.8081, -73.925956)"
"10X213","10","Bronx Engineering and Technology Academy","Bronx","10463","Karalyne Sperling","HS","High School","1.73","B","66.599999999999994","55.7","28.4","C","14.9","A","7.4","C","7.3","A","A","218","X213","Not Accessible","http://schools.nyc.gov/SchoolPortals/10/X213/default.htm","2","Bronx","718-563-6678","421","09,10,11,12,SE",," ","-1"," Engineering","99 TERRACE VIEW AVENUE
Bronx, NY 10463
(40.87707, -73.912617)"
"09X239","9","Urban Assembly Academy for History and Citizenship for Young Men, The","Bronx","10457","Avis Terrell","HS","High School","1.06"," ","0","0","0"," ","0"," ","0"," ",," ","F","146","X239","Functionally Accessible","http://schools.nyc.gov/SchoolPortals/09/X239/default.htm","2","Bronx","718-293-6768","83","10,11,12,SE",," ","0"," ","240 EAST 172 STREET
Bronx, NY 10457
(40.839295, -73.911384)"
"12X242","12","Mott Hall V","Bronx","10472","Peter Oroszlany","HS","High School","2.25"," ","0","0","0"," ","0"," ","0"," ",," "," ","390","X242","Not Accessible","http://schools.nyc.gov/SchoolPortals/12/X242/default.htm","2","Bronx","718-620-8160","574","06,07,08,09,10,11,SE",,"http://www.MottHallV.org","-1"," Science & Math","1551 EAST 172ND STREET
Bronx, NY 10472
(40.831268, -73.878949)"
"07X029","7","P.S./M.S. 029 Melrose School","Bronx","10451","Meredith Gotlin","EMS","K8","61.360599999999998","C","42","18.13","23.3","C","8.9","D","7.1","C",," ","C","57","X029","Not Accessible","http://schools.nyc.gov/SchoolPortals/07/X029/default.htm","2","Bronx","718-292-3785","724","PK,0K,01,02,03,04,05,06,07,08,SE",," ","0"," ","758 COURTLANDT AVENUE
Bronx, NY 10451
(40.821897, -73.917046)"
"10X225","10","Theatre Arts Production Company School","Bronx","10457","Lynn Passarella","HS","High School","2.38","B","63","43.8","30.2","C","16.899999999999999","A","6.7","D","6.3","B"," ","207","X225","Functionally Accessible","http://schools.nyc.gov/SchoolPortals/10/X225/default.htm","2","Bronx","718-584-0832","575","06,07,08,09,10,11,12,SE",,"http://www.tapconyc.org","-1"," Performing Arts","2225 WEBSTER AVENUE
Bronx, NY 10457
(40.854655, -73.897036)"
"10X284","10","Bronx School of Law and Finance","Bronx","10463","Evan Schwartz","HS","High School","1.97","B","59.6","34.5","32.200000000000003","B","12","B","7.1","C","4.3","D","B","236","X284","Not Accessible","http://schools.nyc.gov/SchoolPortals/10/X284/default.htm","2","Bronx","718-561-0113","426","09,10,11,12,SE",,"http://www.LawandFinance.org","-1"," Law & Government","99 TERRACE VIEW AVENUE
Bronx, NY 10463
(40.87707, -73.912617)"
"10X003","10","P.S. 3 Raul Julia Micro Society","Bronx","10457","Denise Brown","EMS","K8","61.109900000000003","C","44","25","24.2","C","12.4","C","4.0999999999999996","F",," ","A","257","X003","Functionally Accessible","http://schools.nyc.gov/SchoolPortals/10/X003/default.htm","2","Bronx","718-584-1899","367","PK,0K,01,02,03,04,05,06,07,08,SE",," ","0"," ","2100 LAFONTAINE AVENUE
Bronx, NY 10457
(40.849906, -73.892265)"
"11X189","11","Cornerstone Academy for Social Action","Bronx","10475","James Bellon","EMS","Elementary","57.967300000000002","D","35.5","9.67","21.2","D","5.8","F","6.6","C",," ","F","310","X189","Functionally Accessible","http://schools.nyc.gov/SchoolPortals/11/X189/default.htm","2","Bronx","718-794-6160","382","PK,0K,01,02,03,04,05,SE",," ","0"," ","3441 STEENWICK AVENUE
Bronx, NY 10475
(40.882742, -73.830616)"
"09X170","9","P.S. 170","Bronx","10452","Nancy Ramos","EC","K2","59.6252","B","41.5","0","12.1","C","13.5","C","12.9","A",," ","B","129","X170","Functionally Accessible","http://schools.nyc.gov/SchoolPortals/09/X170/default.htm","2","Bronx","718-583-0662","276","0K,01,02,SE",," ","0"," ","1598 TOWNSEND AVENUE
Bronx, NY 10452
(40.844538, -73.913419)"
"08X305","8","Pablo Neruda Academy for Architecture and World Studies","Bronx","10473","Sabrina Cook","HS","High School","1.32","B","67.8","60","33.700000000000003","B","11.3","C","10.1","B","4.2","D","B","68","X305","Functionally Accessible","http://schools.nyc.gov/SchoolPortals/08/X305/default.htm","2","Bronx","718-824-1682","350","09,10,11,12,SE",,"http://www.pablonerudaacademy.org","-1"," Architecture","1980 LAFAYETTE AVENUE
Bronx, NY 10473
(40.822326, -73.855957)"
"11X076","11","P.S. 076 The Bennington School","Bronx","10469","Louise Sedotto","EMS","Elementary","53.614199999999997","C","45.4","26.23","24.1","C","12.1","C","6.6","C",," ","A","335","X076","Not Accessible","http://schools.nyc.gov/SchoolPortals/11/X076/default.htm","2","Bronx","718-882-8865","1066","0K,01,02,03,04,05,SE",," ","0"," ","900 ADEE AVENUE
Bronx, NY 10469
(40.86912, -73.860922)"
"10X008","10","P.S. 008 Issac Varian","Bronx","10458","Rosa Maria Peralta","EMS","Elementary","60.7288","A","65.8","78.03","35.4","B","16.2","A","11.1","A",," ","B","216","X008","Not Accessible","http://schools.nyc.gov/SchoolPortals/10/X008/default.htm","2","Bronx","718-584-3043","1212","0K,01,02,03,04,05,SE",," ","0"," ","3010 BRIGGS AVENUE
Bronx, NY 10458
(40.872244, -73.883336)"
"11X194","11","PS/MS 194","Bronx","10462","Rosa SifuentesRosado","EMS","K8","46.387","A","64.5","76.25","39.700000000000003","A","14","B","7.1","C",," ","B","360","X194","Functionally Accessible","http://schools.nyc.gov/SchoolPortals/11/X194/default.htm","2","Bronx","718-892-5270","1395","0K,01,02,03,04,05,06,07,08,SE",," ","0"," ","2365 WATERBURY AVE
Bronx, NY 10462
(40.834878, -73.846017)"
"07X221","7","South Bronx Preparatory: A College Board School","Bronx","10454","Ellen Reddon Flanagan","HS","High School","2.04","A","84.3","94.4","42.2","A","19.100000000000001","A","10","B","6","B","A","45","X221","Not Accessible","http://schools.nyc.gov/SchoolPortals/07/X221/default.htm","2","Bronx","718-292-2211","639","06,07,08,09,10,11,12,SE",,"http://www.southbronxprep.net","-1"," Humanities & Interdisciplinary","360 EAST 145 STREET
Bronx, NY 10454
(40.813982, -73.921021)"
"09X204","9","P.S. 204 Morris Heights","Bronx","10453","Marcy Glattstein","EMS","Elementary","64.9602","A","79.8","96.07","38.700000000000003","B","22.7","A","13.6","A",," ","A","132","X204","Not Accessible","http://schools.nyc.gov/SchoolPortals/09/X204/default.htm","2","Bronx","718-960-9520","528","PK,0K,01,02,03,04,05,SE",," ","0"," ","1780 DR. MARTIN LUTHER KING JR. BLVD
Bronx, NY 10453
(40.850088, -73.915404)"
"09X042","9","P.S. 042 Claremont","Bronx","10457","Patricia Rigot Kulow","EMS","Elementary","69.742400000000004","C","40.700000000000003","17.21","19","D","10.6","C","7.5","B",," ","A","183","X042","1st Floor Only Accessible","http://schools.nyc.gov/SchoolPortals/09/X042/default.htm","2","Bronx","718-583-7366","468","PK,0K,01,02,03,04,05,SE",," ","0"," ","1537 WASHINGTON AVENUE
Bronx, NY 10457
(40.838416, -73.902905)"
"11X545","11","Bronx Aerospace High School","Bronx","10467","Barbara Kirkweg","HS","High School","1.55","A","78","85.9","36.799999999999997","B","16.899999999999999","A","7.5","C","8.1999999999999993","A"," ","298","X545","Not Accessible","http://schools.nyc.gov/SchoolPortals/11/X545/default.htm","2","Bronx","718-696-6010","410","09,10,11,12,SE",," ","-1"," Communications","800 EAST GUN HILL ROAD
Bronx, NY 10467
(40.875163, -73.861653)"
"09X218","9","P.S./I.S. 218 Rafael Hernandez Dual Language Mag","Bronx","10452","Leticia Rosario","EMS","K8","59.376199999999997","C","46.4","30.63","16.899999999999999","F","15.1","B","10.9","A",," ","A","0"," "," "," ","0"," "," ","0"," ",," ","0"," ","1220 GERARD AVENUE
Bronx, NY 10452
(40.835679, -73.919565)"
"10X549","10","Discovery High School","Bronx","10468","Rolando Rivera","HS","High School","1.67","A","76.599999999999994","82.8","41.2","A","12","B","10.9","A","7.3","A","A","214","X549","Functionally Accessible","http://schools.nyc.gov/SchoolPortals/10/X549/default.htm","2","Bronx","718-733-3872","555","09,10,11,12,SE",,"http://www.discoveryhs.org","-1"," Humanities & Interdisciplinary","2780 RESERVOIR AVENUE
Bronx, NY 10468
(40.870638, -73.897705)"
"12X692","12","Monroe Academy for Visual Arts & Design","Bronx","10472","Richard J. Massel","HS","High School","1.53","C","57.1","27.9","33.200000000000003","B","8.8000000000000007","D","6.6","D","2.9","F","A","391","X692","Not Accessible","http://schools.nyc.gov/SchoolPortals/12/X692/default.htm","2","Bronx","718-860-8160","479","09,10,11,12,SE",," ","-1"," Visual Art & Design","1300 BOYNTON AVENUE
Bronx, NY 10472
(40.831291, -73.878833)"
"09X011","9","P.S. 011 Highbridge","Bronx","10452","Elizabeth Hachar","EMS","Elementary","66.667400000000001","B","55.9","55.57","30.7","B","10.4","C","11.2","A",," ","B","179","X011","Functionally Accessible","http://schools.nyc.gov/SchoolPortals/09/X011/default.htm","2","Bronx","718-681-7553","764","0K,01,02,03,04,05,SE",," ","0"," ","1257 OGDEN AVENUE
Bronx, NY 10452
(40.839148, -73.925881)"
"09X132","9","P.S. 132 Garret A. Morgan","Bronx","10456","Anissa Chalmers","EMS","Elementary","69.203400000000002","D","33.4","6.56","22.2","C","5.6","F","2.2999999999999998","F",," ","B","126","X132","Functionally Accessible","http://schools.nyc.gov/SchoolPortals/09/X132/default.htm","2","Bronx","718-681-6455","508","0K,01,02,03,04,05,SE",," ","0"," ","1245 WASHINGTON AVENUE
Bronx, NY 10456
(40.831892, -73.906565)"
"09X241","9","Urban Assembly School for Applied Math and Scien","Bronx","10457","Kenneth Baum","EMS","Middle","2.5667","B","61","63.81","32.6","B","16.600000000000001","A","8.3000000000000007","B",," ","B","0"," "," "," ","0"," "," ","0"," ",," ","0"," ","1595 BATHGATE AVENUE
Bronx, NY 10457
(40.839491, -73.901765)"
"09X058","9","P.S. 058","Bronx","10457","Velma Gunn","EMS","Elementary","69.627300000000005","C","45.7","28.03","27.9","C","9.3000000000000007","C","4.0999999999999996","D",," ","C","186","X058","Not Accessible","http://schools.nyc.gov/SchoolPortals/09/X058/default.htm","2","Bronx","718-583-6866","466","0K,01,02,03,04,05,06,SE",," ","0"," ","459 EAST 176 STREET
Bronx, NY 10457
(40.846177, -73.899079)"
"10X056","10","P.S. 056 Norwood Heights","Bronx","10467","Priscilla Sheeran","EMS","Elementary","49.166899999999998","A","71.7","88.2","41.7","A","16.100000000000001","A","9.6999999999999993","A",," ","A","243","X056","Not Accessible","http://schools.nyc.gov/SchoolPortals/10/X056/default.htm","2","Bronx","718-405-6330","690","0K,01,02,03,04,05,SE",," ","0"," ","341 EAST 207 STREET
Bronx, NY 10467
(40.875481, -73.874889)"
"10X254","10","I.S. 254","Bronx","10458","Wilford Hemans","EMS","Middle","2.1463999999999999","B","62.8","69.06","37.700000000000003","B","13.5","B","6.4","C",," ","A","274","X254","Functionally Accessible","http://schools.nyc.gov/SchoolPortals/10/X254/default.htm","2","Bronx","718-220-8700","476","06,07,08,SE",," ","0"," ","2452 WASHINGTON AVENUE
Bronx, NY 10458
(40.85897, -73.890081)"
"12X316","12","Kappa III","Bronx","10460","Elisa Alvarez","EMS","Middle","2.4266000000000001","B","64.5","73.2","31.6","B","18.5","A","11.5","A",," ","A","394","X316","Not Accessible","http://schools.nyc.gov/SchoolPortals/12/X316/default.htm","2","Bronx","718-561-3580","325","06,07,08,SE",," ","0"," ","2055 MAPES AVENUE
Bronx, NY 10460
(40.845716, -73.886313)"
"10X209","10","P.S. 209","Bronx","10458","Anne Keegan","EC","K2","67.472200000000001","A","60.8","0","22","B","20.3","A","14.4","A",," ","A","232","X209","Functionally Accessible","http://schools.nyc.gov/SchoolPortals/10/X209/default.htm","2","Bronx","718-364-0085","265","PK,0K,01,02,SE",," ","0"," ","313 EAST 183RD STREET
Bronx, NY 10458
(40.856832, -73.897625)"
"11X153","11","P.S. 153 Helen Keller","Bronx","10475","Veronica Goka","EMS","Elementary","44.0152","A","71.900000000000006","88.69","40.1","A","20.100000000000001","A","8.9","B",," ","B","349","X153","Functionally Accessible","http://schools.nyc.gov/SchoolPortals/11/X153/default.htm","2","Bronx","718-904-5550","651","0K,01,02,03,04,05,SE",," ","0"," ","650 BAYCHESTER AVENUE
Bronx, NY 10475
(40.873444, -73.833767)"
"07X049","7","P.S. 049 Willis Avenue","Bronx","10454","Laura Galloway","EMS","Elementary","69.046800000000005","A","65.3","76.56","33.700000000000003","B","18.3","A","9.1","B",," ","C","32","X049","Not Accessible","http://schools.nyc.gov/SchoolPortals/07/X049/default.htm","2","Bronx","718-292-4623","665","PK,0K,01,02,03,04,05,SE",," ","0"," ","383 EAST 139 STREET
Bronx, NY 10454
(40.81041, -73.922716)"
"09X145","9","J.H.S. 145 Arturo Toscanini","Bronx","10456","Robert Hannibal","EMS","Middle","2.1503000000000001","B","55.2","50","29.8","C","10.9","C","10.6","A",," ","B","167","X145","Not Accessible","http://schools.nyc.gov/SchoolPortals/09/X145/default.htm","2","Bronx","718-681-7219","454","05,06,07,08,SE",," ","0"," ","1000 TELLER AVENUE
Bronx, NY 10456
(40.83264, -73.911875)"
"08X432","8","BRONX BRIDGES HIGH SCHOOL","Bronx","10473","Pablo Villavicencio","HS","High School","1.9"," ","0","0","0"," ","0"," ","0"," ",," "," ","62","X432"," ","http://schools.nyc.gov/SchoolPortals/08/X432/default.htm","2","Bronx","718-829-2984","234","09,10,11,SE",,"http://www.bronxbridges.org","-1"," Humanities & Interdisciplinary","1980 LAFAYETTE AVENUE
Bronx, NY 10473
(40.822326, -73.855957)"
"11X108","11","P.S. 108 Philip J. Abinanti","Bronx","10461","Charles Sperrazza","EMS","Elementary","34.625700000000002","C","47.8","34.590000000000003","23.2","C","16.399999999999999","A","6.4","C",," ","C","345","X108","Not Accessible","http://schools.nyc.gov/SchoolPortals/11/X108/default.htm","2","Bronx","718-863-9829","604","0K,01,02,03,04,05,SE",," ","0"," ","1166 NEILL AVENUE
Bronx, NY 10461
(40.85465, -73.853303)"
"08X337","8","The School for Inquiry and Social Justice","Bronx","10472","Andrea Cyprys","EMS","Middle","2.2572999999999999","A","78.5","91.16","41.5","A","22.1","A","10.6","A",," ","A","116","X337","Not Accessible","http://schools.nyc.gov/SchoolPortals/08/X337/default.htm","2","Bronx","718-860-4181","284","06,07,08,SE",," ","0"," ","1025 MORRISON AVENUE
Bronx, NY 10472
(40.825158, -73.873656)"
"12X511","12","Bronx Envision Academy","Bronx","10460","Emily Shu","HS","High School","1.74"," ","0","0","0"," ","0"," ","0"," ",," "," ","370","X511"," ","http://schools.nyc.gov/SchoolPortals/12/X511/default.htm","2","Bronx","718-589-1590","156","09,10,SE",,"http://www.BronxEnvision.org","-1"," Humanities & Interdisciplinary","1619 BOSTON ROAD
Bronx, NY 10460
(40.835814, -73.891055)"
"08X448","8","SOUNDVIEW ACADEMY FOR CULTURE AND SCHOLARSHIP","Bronx","10473","William Frackelton","EMS","Middle","2.4119000000000002","B","55.8","52.49","35.4","B","11.9","C","5.6","C",," ",".","95","X448"," ","http://schools.nyc.gov/SchoolPortals/08/X448/default.htm","2","Bronx","718-991-4027","294","06,07,08,SE",," ","0"," ","885 BOLTON AVENUE
Bronx, NY 10473
(40.82391, -73.859961)"
"10X447","10","CRESTON ACADEMY","Bronx","10453","Pamela Edwards","EMS","Middle","2.1568000000000001","B","53","45.3","24.4","C","14.2","B","10.199999999999999","A",," ",".","221","X447"," ","http://schools.nyc.gov/SchoolPortals/10/X447/default.htm","2","Bronx","718-367-5035","409","06,07,08,SE",," ","0"," ","125 EAST 181 STREET
Bronx, NY 10453
(40.854903, -73.90342)"
"10X244","10","The New School for Leadership and Journalism","Bronx","10463","Dolores Peterson","EMS","Middle","2.2614000000000001","A","94.8","99.17","55","A","22","A","12.3","A",," ","B","289","X244","Not Accessible","http://schools.nyc.gov/SchoolPortals/10/X244/default.htm","2","Bronx","718-601-2869","697","06,07,08,SE",," ","0"," ","120 WEST 231 STREET
Bronx, NY 10463
(40.875627, -73.901568)"
"08X332","8","Holcombe L. Rucker School of Community Research","Bronx","10459","Sharif Rucker","HS","High School","1.66","D","45.9","7.6","19.100000000000001","F","10.3","C","6.6","D","5.7","C","C","64","X332"," ","http://schools.nyc.gov/SchoolPortals/08/X332/default.htm","2","Bronx","718-860-1053","335","09,10,11,12,SE",,"http://www.holcombelrucker.com","-1"," Humanities & Interdisciplinary","965 LONGWOOD AVENUE
Bronx, NY 10459
(40.817559, -73.898013)"
"11X160","11","P.S. 160 Walt Disney","Bronx","10475","Lori Baker","EMS","Elementary","54.69","C","46.8","32.299999999999997","25.3","C","12","C","6.5","C",," ","C","350","X160","Functionally Accessible","http://schools.nyc.gov/SchoolPortals/11/X160/default.htm","2","Bronx","718-379-5951","391","0K,01,02,03,04,05,SE",," ","0"," ","4140 HUTCHINSON RIVER PKWAY EA
Bronx, NY 10475
(40.864054, -73.82382)"
"09X219","9","I.S. 219 New Venture School","Bronx","10456","Dominic Cipollone","EMS","Middle","2.0423","B","52.7","44.2","33.1","B","10.7","C","5.2","D",," ","B","156","X219","Not Accessible","http://schools.nyc.gov/SchoolPortals/09/X219/default.htm","2","Bronx","718-681-7093","403","06,07,08,SE",," ","0"," ","3630 THIRD AVENUE
Bronx, NY 10456
(40.8341, -73.904078)"
"08X293","8","Renaissance High School for Musical Theater & Technology","Bronx","10461","Maria N Herrera","HS","High School","1.95","B","67.099999999999994","57.3","36.5","B","12.7","B","9.6","B","4.5999999999999996","C","A","113","X293","Functionally Accessible","http://schools.nyc.gov/SchoolPortals/08/X293/default.htm","2","Bronx","718-430-6390","466","09,10,11,12,SE",,"http://www.Renaissancemtt.org","-1"," Performing Arts","3000 EAST TREMONT AVENUE
Bronx, NY 10461
(40.839987, -73.837977)"
"10X033","10","P.S. 033 Timothy Dwight","Bronx","10468","Lynette Santos","EMS","Elementary","65.8887","C","44.7","24.92","23.4","C","9.1999999999999993","C","7.7","B",," ","A","228","X033","Not Accessible","http://schools.nyc.gov/SchoolPortals/10/X033/default.htm","2","Bronx","718-584-3926","1063","PK,0K,01,02,03,04,05,SE",," ","0"," ","2424 JEROME AVENUE
Bronx, NY 10468
(40.862059, -73.901634)"
"07X025","7","P.S. 025 Bilingual School","Bronx","10455","Carmen Toledo","EMS","Elementary","68.645799999999994","A","81.599999999999994","96.56","46.4","A","17.8","A","12.1","A",," ","A","7","X025","Not Accessible","http://schools.nyc.gov/SchoolPortals/07/X025/default.htm","2","Bronx","718-292-2995","435","PK,0K,01,02,03,04,05,SE",," ","0"," ","811 EAST 149 STREET
Bronx, NY 10455
(40.812717, -73.905832)"
"07X321","7","Crotona Academy High School","Bronx","10455","Anthony W. Harris","HST","High School Transfer","1.68","B","62","0","32.299999999999997","B","8.5","D","14.2","A","2.7","F","D","13","X321","Functionally Accessible","http://schools.nyc.gov/SchoolPortals/07/X321/default.htm","2","Bronx","718-402-8378","120","09,10,11,12",," ","0"," ","639-55 ST. ANNS AVENUE
Bronx, NY 10455
(40.816992, -73.911626)"
"08X408","8","Herbert H. Lehman Yabc","Bronx","10461","Martin Smallhorne","YABC","YABC","0","B","71.099999999999994","0","33.4","B","13.9","B","11.6","A","8.3000000000000007","B","A","0"," "," "," ","0"," "," ","0"," ",," ","0"," ","3000 E Tremont Ave
Bronx, NY 10461
(40.839987, -73.837977)"
"08X282","8","Women's Academy of Excellence","Bronx","10473","Arnette Crocker","HS","High School","2.04","C","54.6","22.3","23","D","15.7","A","2.9","F","8.1999999999999993","A","C","63","X282","Not Accessible","http://schools.nyc.gov/SchoolPortals/08/X282/default.htm","2","Bronx","718-542-0740","441","09,10,11,12,SE",,"http://www.thewae.org","-1"," Science & Math","456 WHITE PLAINS ROAD
Bronx, NY 10473
(40.815005, -73.856312)"
"08X424","8","The Hunts Point School","Bronx","10474","John Hughes","EMS","Middle","2.2423999999999999","C","39.200000000000003","13.26","20.100000000000001","D","8","D","7.5","C",," ","B","73","X424"," ","http://schools.nyc.gov/SchoolPortals/08/X424/default.htm","2","Bronx","718-328-1972","411","06,07,08,SE",," ","0"," ","730 BRYANT AVENUE
Bronx, NY 10474
(40.815796, -73.885668)"
"10X291","10","P.S. 291","Bronx","10453","Carlos Velez","EMS","Elementary","69.862799999999993","A","77","93.61","38.299999999999997","B","21.6","A","13.2","A",," ","B","261","X291","Functionally Accessible","http://schools.nyc.gov/SchoolPortals/10/X291/default.htm","2","Bronx","718-563-0776","573","0K,01,02,03,04,SE",," ","0"," ","2195 ANDREWS AVENUE
Bronx, NY 10453
(40.859221, -73.909761)"
"12X251","12","Explorations Academy","Bronx","10460","Susana Hernandez","HS","High School","1.47","A","70.599999999999994","67.3","33.799999999999997","B","13.8","B","8.6999999999999993","B","6.1","B","A","409","X251","Not Accessible","http://schools.nyc.gov/SchoolPortals/12/X251/default.htm","2","Bronx","718-893-6173","369","09,10,11,12,SE",,"http://www.explorationsacademy.org","-1"," Humanities & Interdisciplinary","1619 BOSTON ROAD
Bronx, NY 10460
(40.835814, -73.891055)"
"08X138","8","P.S. 138 Samuel Randall","Bronx","10473","Lorraine CarrolDawkins","EMS","Elementary","62.484099999999998","C","39.9","16.07","16.2","D","13.7","B","8.3000000000000007","B",," ","C","103","X138","Not Accessible","http://schools.nyc.gov/SchoolPortals/08/X138/default.htm","2","Bronx","718-822-5325","973","PK,0K,01,02,03,04,05,SE",," ","0"," ","2060 LAFAYETTE AVENUE
Bronx, NY 10473
(40.822698, -73.853065)"
"07X224","7","P.S. / I.S. 224","Bronx","10454","Sojourner Welch","EMS","Middle","2.1118999999999999","B","52.3","43.09","33.200000000000003","B","9.1","C","6.1","C",," ","B","23","X224","Not Accessible","http://schools.nyc.gov/SchoolPortals/07/X224/default.htm","2","Bronx","718-665-9804","338","06,07,08,SE",," ","0"," ","345 BROOK AVENUE
Bronx, NY 10454
(40.810068, -73.917768)"
"10X433","10","High School for Teaching and the Professions","Bronx","10468","Gary Prince","HS","High School","1.65","B","64.8","48.3","34.6","B","10.9","C","9.5","B","5.2","C","A","283","X433","Functionally Accessible","http://schools.nyc.gov/SchoolPortals/10/X433/default.htm","2","Bronx","718-329-7380","505","09,10,11,12,SE",,"http://hstnp.newvisionsk12.org","-1"," Teaching","2780 RESERVOIR AVENUE
Bronx, NY 10468
(40.870638, -73.897705)"
"08X269","8","Bronx Studio School for Writers and Artists","Bronx","10459","David Vazquez","EMS","Middle","2.3706999999999998","B","58.4","58.01","33.799999999999997","B","15.3","B","6.5","C",," ","C","102","X269","Not Accessible","http://schools.nyc.gov/SchoolPortals/08/X269/default.htm","2","Bronx","718-893-5158","558","06,07,08,09,10,11,12,SE",," ","-1"," Humanities & Interdisciplinary","928 SIMPSON STREET
Bronx, NY 10459
(40.819919, -73.893755)"
"09X022","9","J.H.S. 022 Jordan L. Mott","Bronx","10456","Linda Rosenbury","EMS","Middle","2.258","C","39.299999999999997","13.54","20.9","D","8.1","D","7.6","C",," ","C","164","X022","Not Accessible","http://schools.nyc.gov/SchoolPortals/09/X022/default.htm","2","Bronx","718-681-6850","687","06,07,08,SE",," ","0"," ","270 EAST 167 STREET
Bronx, NY 10456
(40.833248, -73.91406)"
"12X267","12","Bronx Latin","Bronx","10456","Leticia Pineiro","EMS","Middle","2.226","A","69.599999999999994","80.94","32.700000000000003","B","21.8","A","10.8","A",," ","A","369","X267","Functionally Accessible","http://schools.nyc.gov/SchoolPortals/12/X267/default.htm","2","Bronx","718-991-6349","446","06,07,08,09,10,11,12,SE",,"http://BronxLatin.org","-1"," Humanities & Interdisciplinary","800 HOME STREET
Bronx, NY 10456
(40.826916, -73.900597)"
"12X318","12","I.S. X318 Math, Science & Technology Through Art","Bronx","10457","Maria Lopez","EMS","Middle","2.1595","C","39.799999999999997","15.19","18.3","D","11.3","C","6.5","C",," ","C","0"," "," "," ","0"," "," ","0"," ",," ","0"," ","1919 PROSPECT AVENUE
Bronx, NY 10457
(40.843401, -73.889878)"
"07X520","7","Foreign Language Academy of Global Studies","Bronx","10455","Leba Collins Augone","HS","High School","1.5","C","57","27.3","24.1","D","11.4","C","8.6999999999999993","B","7.9","A","C","36","X520","1st Floor Only Accessible","http://schools.nyc.gov/SchoolPortals/07/X520/default.htm","2","Bronx","718-585-4024","235","09,10,11,12,SE",," ","-1"," Humanities & Interdisciplinary","470 JACKSON AVENUE
Bronx, NY 10455
(40.811046, -73.909376)"
"08X100","8","P.S. 100 Isaac Clason","Bronx","10473","Chad Adam Altman","EMS","Elementary","60.657699999999998","C","44.2","23.77","22","C","11.9","C","7.7","B",," ","C","123","X100","Not Accessible","http://schools.nyc.gov/SchoolPortals/08/X100/default.htm","2","Bronx","718-842-1461","627","PK,0K,01,02,03,04,05,SE",," ","0"," ","800 TAYLOR AVENUE
Bronx, NY 10473
(40.821409, -73.862967)"
"08X014","8","P.S. X014 Senator John Calandra","Bronx","10461","Ira Schulman","EMS","Elementary","39.119999999999997","A","72.099999999999994","89.18","41.1","A","15.8","B","9.6999999999999993","A",," ","C","98","X014","Not Accessible","http://schools.nyc.gov/SchoolPortals/08/X014/default.htm","2","Bronx","718-822-5341","615","0K,01,02,03,04,05,SE",," ","0"," ","3041 BRUCKNER BOULEVARD
Bronx, NY 10461
(40.835427, -73.825435)"
"09X070","9","P.S. 070 Max Schoenfeld","Bronx","10457","Kerry Castellano","EMS","Elementary","66.234399999999994","C","43.6","22.46","25.2","C","8.6999999999999993","D","6.8","C",," ","C","191","X070","Not Accessible","http://schools.nyc.gov/SchoolPortals/09/X070/default.htm","2","Bronx","718-583-6000","1354","0K,01,02,03,04,05,SE",," ","0"," ","1691 WEEKS AVENUE
Bronx, NY 10457
(40.844279, -73.907616)"
"09X505","9","Bronx School for Law, Government and Justice","Bronx","10451","Meisha RossPorter","HS","High School","2.23","B","62.9","43.8","30.1","C","13.2","B","8.9","B","7.1","A","B","135","X505","Functionally Accessible","http://schools.nyc.gov/SchoolPortals/09/X505/default.htm","2","Bronx","718-410-3430","780","06,07,08,09,10,11,12,SE",," ","-1"," Law & Government","244 EAST 163 STREET
Bronx, NY 10451
(40.827608, -73.918926)"
"09X236","9","P.S. 236 Langston Hughes","Bronx","10453","Beverly Ellis","EC","K2","67.977099999999993","C","36.299999999999997","0","12.8","C","9.6999999999999993","C","8.9","B",," ","B","134","X236","Functionally Accessible","http://schools.nyc.gov/SchoolPortals/09/X236/default.htm","2","Bronx","718-299-6128","402","PK,0K,01,02,03,SE",," ","0"," ","1871 WALTON AVENUE
Bronx, NY 10453
(40.848897, -73.909547)"
"10X434","10","Belmont Preparatory High School","Bronx","10458","Stephen Joseph Gumbs","HS","High School","1.87","B","64","46.3","33.1","B","12.1","B","7.4","C","5.8","B","A","224","X434","Functionally Accessible","http://schools.nyc.gov/SchoolPortals/10/X434/default.htm","2","Bronx","718-733-4559","408","09,10,11,12,SE",,"http://www.belmontprep.org","-1"," Humanities & Interdisciplinary","500 EAST FORDHAM ROAD
Bronx, NY 10458
(40.859702, -73.887589)"
"07X065","7","P.S. 065 Mother Hale Academy","Bronx","10454","Jasmine Gonzalez","EMS","Elementary","71.018299999999996","B","56.4","56.72","35.799999999999997","B","8.6","D","7.3","C",," ","C","10","X065","Not Accessible","http://schools.nyc.gov/SchoolPortals/07/X065/default.htm","2","Bronx","718-292-4628","408","PK,0K,01,02,03,04,05,SE",," ","0"," ","677 EAST 141 STREET
Bronx, NY 10454
(40.807907, -73.912526)"
"10X045","10","Thomas C. Giordano Middle School 45","Bronx","10458","Annamaria Giordano","EMS","Middle","2.5569999999999999","D","31.3","7.46","12.7","F","11.1","C","4.8","D",," ","C","208","X045","Not Accessible","http://schools.nyc.gov/SchoolPortals/10/X045/default.htm","2","Bronx","718-584-1660","885","06,07,08,SE",," ","0"," ","2502 LORILLARD PLACE
Bronx, NY 10458
(40.858388, -73.88701)"
"12X092","12","P.S. 092 Bronx","Bronx","10457","Manuel Estrella","EMS","Elementary","70.115099999999998","C","38","13.11","28","C","4.2","F","1.4","F",," ","B","377","X092","Not Accessible","http://schools.nyc.gov/SchoolPortals/12/X092/default.htm","2","Bronx","718-731-7900","513","PK,0K,01,02,03,04,05,SE",," ","0"," ","700 EAST 179 STREET
Bronx, NY 10457
(40.846789, -73.8899)"
"08X152","8","P.S. 152 Evergreen","Bronx","10472","Frances Lynch","EMS","Elementary","68.248099999999994","A","77.099999999999994","93.77","42.6","A","20.3","A","9.9","A",," ","A","114","X152","Functionally Accessible","http://schools.nyc.gov/SchoolPortals/08/X152/default.htm","2","Bronx","718-589-4560","954","PK,0K,01,02,03,04,05,SE",," ","0"," ","1007 EVERGREEN AVENUE
Bronx, NY 10472
(40.823907, -73.880465)"
"11X178","11","P.S. 178 - Dr. Selman Waksman","Bronx","10475","Deborah Levine","EMS","Elementary","51.587699999999998","C","45.6","27.54","23.6","C","11.9","C","6.6","C",," ","C","352","X178","Partially Accessible","http://schools.nyc.gov/SchoolPortals/11/X178/default.htm","2","Bronx","718-904-5570","447","0K,01,02,03,04,05,SE",," ","0"," ","850 BAYCHESTER AVENUE
Bronx, NY 10475
(40.876021, -73.833769)"
"10X696","10","High School of American Studies at Lehman College","Bronx","10468","Mr. Alessandro Weiss","HS","High School","3.75","A","88.9","96.3","47.8","A","18","A","13.1","A","9.9","A","A","282","X696","Functionally Accessible","http://schools.nyc.gov/SchoolPortals/10/X696/default.htm","2","Bronx","718-329-2144","395","09,10,11,12",,"http://www.hsas-lehman.org","-1"," Humanities & Interdisciplinary","2925 GOULDEN AVENUE
Bronx, NY 10468
(40.8746, -73.895094)"
"11X542","11","Pelham Preparatory Academy","Bronx","10469","Carlos Santiago","HS","High School","2.3199999999999998","B","68.900000000000006","63.4","30.7","C","16.5","A","10.4","B","7.2","A","A","358","X542","Functionally Accessible","http://schools.nyc.gov/SchoolPortals/11/X542/default.htm","2","Bronx","718-944-3401","512","09,10,11,12,SE",," ","-1"," Humanities & Interdisciplinary","925 ASTOR AVENUE
Bronx, NY 10469
(40.85964, -73.860743)"
"11X253","11","Bronx High School for Writing and Communication Arts","Bronx","10467","Terri Lynn Grey","HS","High School","1.73","C","52.8","18.399999999999999","25.6","D","9.9","C","8.1999999999999993","C","5.0999999999999996","C","C","304","X253","Not Accessible","http://schools.nyc.gov/SchoolPortals/11/X253/default.htm","2","Bronx","718-944-5660","435","09,10,11,12,SE",,"http://www.bhswca.com","-1"," Film/Video","800 EAST GUN HILL ROAD
Bronx, NY 10467
(40.875163, -73.861653)"
"09X252","9","Mott Hall Bronx High School","Bronx","10457","Kathryn Malloy","HS","High School","2.12","B","67","57.5","31.8","C","16.600000000000001","A","9","B","5.6","C","A","172","X252","Functionally Accessible","http://schools.nyc.gov/SchoolPortals/09/X252/default.htm","2","Bronx","718-466-6800","374","09,10,11,12,SE",," ","-1"," Humanities & Interdisciplinary","1595 BATHGATE AVENUE
Bronx, NY 10457
(40.839491, -73.901765)"
"10X024","10","P.S. 024 Spuyten Duyvil","Bronx","10463","Donna Connelly","EMS","Elementary","24.303899999999999","C","48.8","36.89","25","C","18","A","3.6","F",," ","C","223","X024","Not Accessible","http://schools.nyc.gov/SchoolPortals/10/X024/default.htm","2","Bronx","718-796-8845","901","0K,01,02,03,04,05,SE",," ","0"," ","660 WEST 236 STREET
Bronx, NY 10463
(40.887151, -73.913576)"
"08X560","8","Bronx Academy High School","Bronx","10473","Gary Eisinger","HST","High School Transfer","1.44"," ","0","0","0"," ","0"," ","0"," ",," ","F","109","X560","Functionally Accessible","http://schools.nyc.gov/SchoolPortals/08/X560/default.htm","2","Bronx","718-860-5060","108","10,11,12",," ","0"," ","1440 STORY AVENUE
Bronx, NY 10473
(40.821125, -73.881745)"
"09X339","9","I.S. 339","Bronx","10457","Outerbridge, Kim","EMS","Middle","2.1730999999999998","C","48.5","32.6","30.7","C","10.4","C","4.0999999999999996","D",," ","B","160","X339","Functionally Accessible","http://schools.nyc.gov/SchoolPortals/09/X339/default.htm","2","Bronx","718-583-6767","660","06,07,08,SE",," ","0"," ","1600 WEBSTER AVENUE
Bronx, NY 10457
(40.840523, -73.904343)"
"10X280","10","P.S./M.S. 280 Mosholu Parkway","Bronx","10467","James Weeks","EMS","K8","55.7072","A","65.7","78.75","33.6","B","18.899999999999999","A","9.8000000000000007","A",," ","A","233","X280","Partially Accessible","http://schools.nyc.gov/SchoolPortals/10/X280/default.htm","2","Bronx","718-405-6360","842","0K,01,02,03,04,05,06,07,08,SE",," ","0"," ","3202 STEUBEN AVENUE
Bronx, NY 10467
(40.877088, -73.881804)"
"07X551","7","Bronx Academy of Letters","Bronx","10451","Anna Hall","EMS","Middle","2.0270000000000001","B","57.4","55.8","29.2","C","15.8","B","8","B",," ","B","0"," "," "," ","0"," "," ","0"," ",," ","0"," ","339 Morris Ave
Bronx, NY 10451
(40.81366, -73.925999)"
"08X650","8","Jane Addams High School for Academic Careers","Bronx","10456","Dibartolomeo, Joel","HS","High School","1.63"," ","0","0","0"," ","0"," ","0"," ",," ","C","90","X650","Functionally Accessible","http://schools.nyc.gov/SchoolPortals/08/X650/default.htm","2","Bronx","718-292-4513","488","09,10,11,12,SE",," ","0"," ","900 TINTON AVENUE
Bronx, NY 10456
(40.821743, -73.902882)"
"10X308","10","Bronx Dance Academy School","Bronx","10467","Sandra Sanchez","EMS","Middle","2.3683000000000001","A","73.099999999999994","85.64","43.6","A","19.3","A","6.9","C",," ","B","287","X308","Functionally Accessible","http://schools.nyc.gov/SchoolPortals/10/X308/default.htm","2","Bronx","718-515-0410","242","06,07,08,SE",," ","0"," ","3617 BAINBRIDGE AVENUE
Bronx, NY 10467
(40.885412, -73.878047)"
"07X385","7","Performance School","Bronx","10451","Lourdes Estrella","EMS","Elementary","66.487399999999994","D","32.700000000000003","6.07","22.2","C","0.7","F","6","C",," ","C","39","X385"," ","http://schools.nyc.gov/SchoolPortals/07/X385/default.htm","2","Bronx","718-292-5070","578","PK,0K,01,02,03,04,05,SE",," ","0"," ","750 CONCOURSE VILLAGE WEST
Bronx, NY 10451
(40.822839, -73.923308)"
"08X062","8","P.S. 062 Inocensio Casanova","Bronx","10455","Lisa Manfredonia","EMS","Elementary","66.390199999999993","B","60.7","65.900000000000006","35.1","B","12","C","9.1999999999999993","B",," ","B","94","X062","Not Accessible","http://schools.nyc.gov/SchoolPortals/08/X062/default.htm","2","Bronx","718-585-1617","741","PK,0K,01,02,03,04,05,SE",," ","0"," ","660 FOX STREET
Bronx, NY 10455
(40.814102, -73.900309)"
"11X290","11","Bronx Academy of Health Careers","Bronx","10467","Marvia Lindsay","HS","High School","1.79","A","74.599999999999994","77.400000000000006","37.5","B","13.4","B","10.5","A","7","A","A","297","X290","Not Accessible","http://schools.nyc.gov/SchoolPortals/11/X290/default.htm","2","Bronx","718-696-3340","484","09,10,11,12,SE",,"http://schools.nyc.gov/schoolportals/11/X290","-1"," Health Professions","800 EAST GUN HILL ROAD
Bronx, NY 10467
(40.875163, -73.861653)"
"11X021","11","P.S. 021 Philip H. Sheridan","Bronx","10466","Joyce Coleman","EMS","Elementary","59.27","C","42.9","21.8","24.9","C","8.1999999999999993","D","6.9","C",," ","C","332","X021","Not Accessible","http://schools.nyc.gov/SchoolPortals/11/X021/default.htm","2","Bronx","718-652-3903","817","0K,01,02,03,04,05,SE",," ","0"," ","715 EAST 225 STREET
Bronx, NY 10466
(40.887649, -73.859795)"
"10X310","10","P.S. 310 Marble Hill","Bronx","10463","Elizabeth Cardona","EMS","Elementary","64.373199999999997","A","70.099999999999994","86.89","39.4","A","16.8","A","9.8000000000000007","A",," ","A","254","X310","Not Accessible","http://schools.nyc.gov/SchoolPortals/10/X310/default.htm","2","Bronx","718-796-9434","761","PK,0K,01,02,03,04,05,SE",," ","0"," ","260 W KINGSBRIDGE RD
Bronx, NY 10463
(40.871866, -73.904461)"
"08X367","8","Archimedes Academy for Math, Science and Technol","Bronx","10473","Miriam Lazar","EMS","Middle","2.4712999999999998","B","59.6","60.5","36.1","B","15.2","B","4.5999999999999996","D",," ","C","0"," "," "," ","0"," "," ","0"," ",," ","0"," ","456 White Plains Rd
Bronx, NY 10473
(40.815005, -73.856312)"
"12X245","12","New Day Academy","Bronx","10456","Mara Ganeles","HS","High School","1.53"," ","0","0","0"," ","0"," ","0"," ",," ","F","389","X245","Functionally Accessible","http://schools.nyc.gov/SchoolPortals/12/X245/default.htm","2","Bronx","718-542-1155","82","08,09,10,11,12,SE",," ","0"," ","800 HOME STREET
Bronx, NY 10456
(40.826916, -73.900597)"
"10X442","10","Celia Cruz Bronx High School of Music, The","Bronx","10468","William Rodriguez, Ed.D.","HS","High School","2.66","B","65.099999999999994","49.3","32.4","B","13.3","B","7.8","C","6.7","B","B","226","X442","Functionally Accessible","http://schools.nyc.gov/SchoolPortals/10/X442/default.htm","2","Bronx","718-329-8550","439","09,10,11,12",,"http://www.ccbxhsm.org","-1"," Performing Arts","2780 RESERVOIR AVENUE
Bronx, NY 10468
(40.870638, -73.897705)"
"10X159","10","P.S. 159 Luis Munoz Marin Biling","Bronx","10458","Luis Liz","EMS","Elementary","68.927800000000005","C","42.7","20.98","16.899999999999999","D","10.8","C","11.3","A",," ","B","256","X159","Not Accessible","http://schools.nyc.gov/SchoolPortals/10/X159/default.htm","2","Bronx","718-584-6140","196","0K,01,02,03,04,05,SE",," ","0"," ","2315 WASHINGTON AVENUE
Bronx, NY 10458
(40.855526, -73.892921)"
"07X018","7","P.S. 018 John Peter Zenger","Bronx","10451","Jasmin Varela","EMS","Elementary","66.3489","C","47.4","33.44","26.7","C","11","C","6.2","C",," ","C","15","X018","Not Accessible","http://schools.nyc.gov/SchoolPortals/07/X018/default.htm","2","Bronx","718-292-2868","532","PK,0K,01,02,03,04,05,SE",," ","0"," ","502 MORRIS AVENUE
Bronx, NY 10451
(40.816349, -73.922697)"
"11X096","11","P.S. 096 Richard Rodgers","Bronx","10467","Marta Garcia","EMS","Elementary","52.006300000000003","B","55.9","55.57","29.2","C","16.5","A","8","B",," ","B","340","X096","Not Accessible","http://schools.nyc.gov/SchoolPortals/11/X096/default.htm","2","Bronx","718-652-4959","1021","0K,01,02,03,04,05,SE",," ","0"," ","650 WARING AVENUE
Bronx, NY 10467
(40.860701, -73.869005)"
"11X105","11","P.S. 105 Sen Abraham Bernstein","Bronx","10462","Mr. Christopher Eustace","EMS","Elementary","54.133600000000001","B","57.9","60","34.6","B","13","B","6.3","C",," ","B","343","X105","Not Accessible","http://schools.nyc.gov/SchoolPortals/11/X105/default.htm","2","Bronx","718-824-7350","1491","0K,01,02,03,04,05,SE",," ","0"," ","725 BRADY AVENUE
Bronx, NY 10462
(40.853059, -73.86627)"
"09X230","9","P.S. 230 Dr Roland N. Patterson","Bronx","10453","Rowena PennJackson","EMS","Elementary","64.853800000000007","F","20.399999999999999","0.33","13.5","F","0.2","F","3.5","F",," ","C","133","X230","Not Accessible","http://schools.nyc.gov/SchoolPortals/09/X230/default.htm","2","Bronx","718-583-6116","452","0K,01,02,03,04,05,SE",," ","0"," ","275 HARLEM RIVER PARK BRIDGE
Bronx, NY 10453
(40.852392, -73.921127)"
"07X473","7","Mott Haven Village Preparatory High School","Bronx","10455","Flavia Puello Perdomo","HS","High School","1.94","B","59.7","35.299999999999997","28.7","C","11.5","C","10.9","A","4","D","B","43","X473","Not Accessible","http://schools.nyc.gov/SchoolPortals/07/X473/default.htm","2","Bronx","718-402-0571","359","09,10,11,12,SE",," ","-1"," Humanities & Interdisciplinary","701 ST. ANNS AVENUE
Bronx, NY 10455
(40.818023, -73.911633)"
"12X196","12","P.S. 196","Bronx","10472","Lizzette Rivera","EMS","Elementary","62.099699999999999","A","69.400000000000006","85.74","38.6","B","18.5","A","8.5","B",," ","B","367","X196","Not Accessible","http://schools.nyc.gov/SchoolPortals/12/X196/default.htm","2","Bronx","718-328-7187","859","PK,0K,01,02,03,04,05,SE",," ","0"," ","1250 WARD AVENUE
Bronx, NY 10472
(40.830788, -73.877273)"
"10X246","10","P.S. 246 Poe Center","Bronx","10468","Beverly Miller","EMS","Elementary","64.266199999999998","C","38.299999999999997","14.1","19.5","D","7.9","D","7.9","B",," ","C","279","X246","Not Accessible","http://schools.nyc.gov/SchoolPortals/10/X246/default.htm","2","Bronx","718-584-6764","727","0K,01,02,03,04,05,SE",," ","0"," ","2641 GRAND CONCOURSE
Bronx, NY 10468
(40.865975, -73.895314)"
"12X372","12","Urban Assembly School for Wildlife Conservation","Bronx","10460","Mark Ossenheimer","HS","High School","1.95"," ","0","0","0"," ","0"," ","0"," ",," "," ","416","X372"," ","http://schools.nyc.gov/SchoolPortals/12/X372/default.htm","2","Bronx","718-991-2695","473","06,07,08,09,10,11,SE",,"http://www.uawildlifeschool.org","-1"," Science & Math","2024 MOHEGAN AVENUE
Bronx, NY 10460
(40.84377, -73.884191)"
"12X061","12","P.S. 061 Francisco Oller","Bronx","10460","Patricia Quigley","EMS","Elementary","63.280999999999999","A","70","86.72","41.9","A","13.7","B","9.9","A",," ","C","382","X061","Not Accessible","http://schools.nyc.gov/SchoolPortals/12/X061/default.htm","2","Bronx","718-542-7230","371","PK,0K,01,02,03,04,05,SE",," ","0"," ","1550 CROTONA PARK EAST
Bronx, NY 10460
(40.836142, -73.892772)"
"07X221","7","South Bronx Preparatory: A College Board School","Bronx","10454","Ellen Reddon Flanagan","EMS","Middle","2.2078000000000002","D","30.1","6.08","12","F","8","D","7.3","C",," ","C","45","X221","Not Accessible","http://schools.nyc.gov/SchoolPortals/07/X221/default.htm","2","Bronx","718-292-2211","639","06,07,08,09,10,11,12,SE",,"http://www.southbronxprep.net","-1"," Humanities & Interdisciplinary","360 EAST 145 STREET
Bronx, NY 10454
(40.813982, -73.921021)"
"09X035","9","P.S. 035 Franz Siegel","Bronx","10451","Graciela Navarro","EMS","Elementary","61.186500000000002","B","63.9","72.95","32.799999999999997","B","19.899999999999999","A","8.9","B",," ","C","181","X035","Not Accessible","http://schools.nyc.gov/SchoolPortals/09/X035/default.htm","2","Bronx","718-681-7214","646","0K,01,02,03,04,05,SE",," ","0"," ","261 EAST 163 STREET
Bronx, NY 10451
(40.827987, -73.917676)"
"12X044","12","P.S. 044 David C. Farragut","Bronx","10457","Melissa Harrow","EMS","Elementary","68.536100000000005","D","26.3","2.95","13.3","F","10.199999999999999","C","1.2","F",," ","B","387","X044","Not Accessible","http://schools.nyc.gov/SchoolPortals/12/X044/default.htm","2","Bronx","718-583-2360","354","PK,0K,01,02,03,04,05,SE",," ","0"," ","1825 PROSPECT AVENUE
Bronx, NY 10457
(40.842322, -73.890995)"
"10X546","10","Bronx Theatre High School","Bronx","10463","Charles Gallo","HS","High School","2.0499999999999998","B","68.599999999999994","62.3","34","B","13","B","12.6","A","4.3","D","C","230","X546","Functionally Accessible","http://schools.nyc.gov/SchoolPortals/10/X546/default.htm","2","Bronx","718-329-2902","446","09,10,11,12,SE",,"http://www.bxtheatre.org","-1"," Performing Arts","99 TERRACE VIEW AVENUE
Bronx, NY 10463
(40.87707, -73.912617)"
"09X215","9","Kappa","Bronx","10456","Sheri Warren","EMS","Middle","2.8624999999999998","B","58.9","59.39","33.6","B","15","B","8.1","B",," ","B","169","X215","Not Accessible","http://schools.nyc.gov/SchoolPortals/09/X215/default.htm","2","Bronx","718-590-5455","388","05,06,07,08,SE",," ","0"," ","3630 THIRD AVENUE
Bronx, NY 10456
(40.8341, -73.904078)"
"11X370","11","School of Diplomacy","Bronx","10467","John Scalice","EMS","Middle","2.3666","C","47.6","29.83","32","B","8.6","D","4.0999999999999996","D",," ","C","361","X370"," ","http://schools.nyc.gov/SchoolPortals/11/X370/default.htm","2","Bronx","718-994-1028","349","06,07,08,SE",," ","0"," ","3710 BARNES AVENUE
Bronx, NY 10467
(40.880634, -73.860155)"
"10X279","10","P.S. 279 Captain Manuel Rivera, Jr.","Bronx","10453","James Waslawski","EMS","K8","65.508300000000006","A","64.900000000000006","76.88","38.6","A","13","B","7.7","B",," ","B","278","X279","Functionally Accessible","http://schools.nyc.gov/SchoolPortals/10/X279/default.htm","2","Bronx","718-584-6004","997","0K,01,02,03,04,05,06,07,08,SE",," ","0"," ","2100 WALTON AVENUE
Bronx, NY 10453
(40.854804, -73.905231)"
"09X231","9","Eagle Academy for Young Men","Bronx","10457","Jonathan Foy","EMS","Middle","2.4073000000000002","C","39.4","13.81","15.4","D","12.3","C","8.5","B",," ",".","145","X231","Not Accessible","http://schools.nyc.gov/SchoolPortals/09/X231/default.htm","2","Bronx","718-466-8000","606","06,07,09,10,11,12,SE",,"http://www.eagleny.org","-1"," Humanities & Interdisciplinary","4143 THIRD AVENUE
Bronx, NY 10457
(40.845264, -73.897176)"
"08X540","8","School for Community Research and Learning","Bronx","10473","Jacqueline Boswell","HS","High School","1.18"," ","0","0","0"," ","0"," ","0"," ",," ","D","106","X540","Functionally Accessible","http://schools.nyc.gov/SchoolPortals/08/X540/default.htm","2","Bronx","718-892-2054","106","10,11,12,SE",," ","0"," ","1980 LAFAYETTE AVENUE
Bronx, NY 10473
(40.822326, -73.855957)"
"12X271","12","East Bronx Academy for the Future","Bronx","10460","Sarah Scrogin","HS","High School","1.68","B","67.5","59.2","30.4","C","15.8","A","9.1999999999999993","B","4.2","D","B","412","X271","Functionally Accessible","http://schools.nyc.gov/SchoolPortals/12/X271/default.htm","2","Bronx","718-861-8641","636","06,07,08,09,10,11,12,SE",,"http://www.eastbronxacademy.org","-1"," Humanities & Interdisciplinary","1716 SOUTHERN BOULEVARD
Bronx, NY 10460
(40.83702, -73.887782)"
"09X163","9","P.S. 163 Arthur A. Schomburg","Bronx","10457","Dilsia Martinez","EMS","Elementary","69.235299999999995","C","36.1","10.66","17","D","9.3000000000000007","C","7.2","C",," ","C","128","X163","Not Accessible","http://schools.nyc.gov/SchoolPortals/09/X163/default.htm","2","Bronx","718-584-3045","587","0K,01,02,03,04,05,SE",," ","0"," ","2075 WEBSTER AVENUE
Bronx, NY 10457
(40.851697, -73.899012)"
"11X112","11","P.S. 112 Bronxwood","Bronx","10466","Susan Barnes","EMS","Elementary","63.323500000000003","C","46.2","29.67","31.8","B","4.8","F","6.2","C",," ","A","347","X112","Not Accessible","http://schools.nyc.gov/SchoolPortals/11/X112/default.htm","2","Bronx","718-654-6377","446","PK,0K,01,02,03,04,05,SE",," ","0"," ","1925 SCHIEFFELIN AVENUE
Bronx, NY 10466
(40.884924, -73.84393)"
"10X226","10","P.S. 226","Bronx","10453","Gloria Darden","EMS","Elementary","67.853800000000007","C","37.6","12.3","17.399999999999999","D","9.9","C","8","B",," ","D","281","X226","Partially Accessible","http://schools.nyc.gov/SchoolPortals/10/X226/default.htm","2","Bronx","718-583-5560","544","PK,0K,01,02,03,04,05,SE",," ","0"," ","1950 SEDGWICK AVENUE
Bronx, NY 10453
(40.856001, -73.916252)"
"09X525","9","Bronx Leadership Academy High School","Bronx","10457","Kenneth Gaskins,jr.","HS","High School","1.73","B","62.6","42.5","27.3","C","13.7","B","10.1","B","7","A","B","200","X525","Functionally Accessible","http://schools.nyc.gov/SchoolPortals/09/X525/default.htm","2","Bronx","718-299-4274","714","09,10,11,12,SE",,"http://www.bronxleadershipacademy.org","-1"," Law & Government","1710 WEBSTER AVENUE
Bronx, NY 10457
(40.843467, -73.903258)"
"08X530","8","Banana Kelly High School","Bronx","10459","Antonio Arocho","HS","High School","1.45","C","49.3","13.6","29.1","C","8.1999999999999993","D","2.7","F","5.0999999999999996","C","D","100","X530","Functionally Accessible","http://schools.nyc.gov/SchoolPortals/08/X530/default.htm","2","Bronx","718-860-1242","426","09,10,11,12,SE",," ","-1"," Humanities & Interdisciplinary","965 LONGWOOD AVENUE
Bronx, NY 10459
(40.817559, -73.898013)"
"12X479","12","BRONX CAREER AND COLLEGE PREPARATORY HIGH SCHOOL","Bronx","10456","Kizhaya Roberts","HS","High School","1.37"," ","0","0","0"," ","0"," ","0"," ",," "," ","395","X479"," ","http://schools.nyc.gov/SchoolPortals/12/X479/default.htm","2","Bronx","718-542-4011","316","09,10,11,12,SE",,"http://www.bccprep.com","-1"," Humanities & Interdisciplinary","800 HOME STREET
Bronx, NY 10456
(40.826916, -73.900597)"
"09X413","9","Bronx High School for Medical Science","Bronx","10457","William Quintana","HS","High School","2.74","B","60.7","39.6","29.3","C","14.4","A","9.5","B","5.9","B","B","193","X413","Functionally Accessible","http://schools.nyc.gov/SchoolPortals/09/X413/default.htm","2","Bronx","718-410-4040","470","06,07,08,09,10,11,12,SE",,"http://www.bhsms.org","-1"," Health Professions","240 EAST 172 STREET
Bronx, NY 10457
(40.839295, -73.911384)"
"12X690","12","Monroe Academy for Business/Law","Bronx","10472","Charles Ogundimu","HS","High School","1.54"," ","0","0","0"," ","0"," ","0"," ",," ","C","392","X690","Not Accessible","http://schools.nyc.gov/SchoolPortals/12/X690/default.htm","2","Bronx","718-860-8140","151","09,10,11,12,SE",," ","0"," ","1300 BOYNTON AVENUE
Bronx, NY 10472
(40.831291, -73.878833)"
"09X324","9","Bronx Early College Academy for Teaching & Learning","Bronx","10456","Yvette Rivera","HS","High School","2.5099999999999998"," ","0","0","0"," ","0"," ","0"," ",," "," ","178","X324"," ","http://schools.nyc.gov/SchoolPortals/09/X324/default.htm","2","Bronx","718-681-8287","550","06,07,08,09,10,11,12,SE",,"http://www.bronxearlycollegeacademy.com","-1"," Humanities & Interdisciplinary","250 EAST 164 STREET
Bronx, NY 10456
(40.828356, -73.917243)"
"09X063","9","P.S. 063 Author's Academy","Bronx","10456","Reinaldo DiazLens","EMS","Elementary","64.898499999999999","A","65.7","77.540000000000006","29.1","C","22.9","A","10","A",," ","B","188","X063","Not Accessible","http://schools.nyc.gov/SchoolPortals/09/X063/default.htm","2","Bronx","718-589-3058","625","PK,0K,01,02,03,04,05,SE",," ","0"," ","1260 FRANKLIN AVENUE
Bronx, NY 10456
(40.830899, -73.901896)"
"10X440","10","DeWitt Clinton High School","Bronx","10468","Geraldine Ambrosio","HS","High School","1.94","F","37.200000000000003","2","17.399999999999999","F","7.1","F","3.9","F","6","B","C","219","X440","Functionally Accessible","http://schools.nyc.gov/SchoolPortals/10/X440/default.htm","2","Bronx","718-543-1000","3804","09,10,11,12,SE",,"http://www.dwclintonhs.org","-1"," Animal Science","100 WEST MOSHOLU PARKWAY SOUTH
Bronx, NY 10468
(40.879995, -73.887155)"
"11X455","11","Harry S Truman High School","Bronx","10475","Sana Nasser","HS","High School","1.33","A","71","69.3","32.5","B","15.1","A","8.6","C","7.3","A","B","314","X455","Partially Accessible","http://schools.nyc.gov/SchoolPortals/11/X455/default.htm","2","Bronx","718-904-5400","1886","09,10,11,12,SE",,"http://www.bxtrumanhighschool.com","-1"," Communications","750 BAYCHESTER AVENUE
Bronx, NY 10475
(40.87404, -73.831687)"
"07X334","7","International Community High School","Bronx","10454","Berena Cabarcas","HS","High School","1.61","B","64.3","47.6","34.4","B","7.8","F","10.7","A","4.5","C","B","27","X334"," ","http://schools.nyc.gov/SchoolPortals/07/X334/default.htm","2","Bronx","718-665-4128","389","09,10,11,12",,"http://www.ichs.weebly.com","-1"," Humanities & Interdisciplinary","345 BROOK AVENUE
Bronx, NY 10454
(40.810068, -73.917768)"
"09X250","9","Eximius College Preparatory Academy: A College Board School","Bronx","10456","Jonathan Daly","HS","High School","1.98","B","69.900000000000006","65.900000000000006","31","C","16.8","A","9.4","B","5.9","B","B","147","X250","Not Accessible","http://schools.nyc.gov/SchoolPortals/09/X250/default.htm","2","Bronx","718-992-7154","399","09,10,11,12,SE",,"http://www.eximiusacademy.com","-1"," Humanities & Interdisciplinary","1363 FULTON AVENUE
Bronx, NY 10456
(40.833875, -73.902818)"
"12X050","12","P.S. 050 Clara Barton","Bronx","10460","Lori Ferguson","EMS","Elementary","64.482600000000005","F","25.4","1.64","18.100000000000001","D","2.5","F","1.7","F",," ","D","384","X050","Not Accessible","http://schools.nyc.gov/SchoolPortals/12/X050/default.htm","2","Bronx","718-542-2650","439","PK,0K,01,02,03,04,05,SE",," ","0"," ","1550 VYSE AVENUE
Bronx, NY 10460
(40.834167, -73.886971)"
"11X089","11","P.S. 089 Bronx","Bronx","10469","Ralph Martinez","EMS","K8","50.317599999999999","C","41.8","16.88","22.1","D","8.8000000000000007","D","7.4","C",," ","C","339","X089","Not Accessible","http://schools.nyc.gov/SchoolPortals/11/X089/default.htm","2","Bronx","718-653-0835","1358","PK,0K,01,02,03,04,05,06,07,08,SE",," ","0"," ","980 MACE AVENUE
Bronx, NY 10469
(40.863045, -73.85919)"
"07X001","7","P.S. 001 Courtlandt School","Bronx","10451","Jorge Perdomo","EMS","Elementary","67.386600000000001","C","36.9","11.31","18.100000000000001","D","8.5","D","7.8","B",," ","C","22","X001","Not Accessible","http://schools.nyc.gov/SchoolPortals/07/X001/default.htm","2","Bronx","718-292-9191","674","PK,0K,01,02,03,04,05,SE",," ","0"," ","335 EAST 152 STREET
Bronx, NY 10451
(40.819333, -73.91961)"
"09X328","9","New Millennium Business Academy Middle School","Bronx","10456","Dorald Bastian","EMS","Middle","2.13","C","48.2","31.77","27.9","C","12.1","C","4.7","D",," ","C","177","X328","Not Accessible","http://schools.nyc.gov/SchoolPortals/09/X328/default.htm","2","Bronx","718-588-8308","195","06,07,08,SE",," ","0"," ","1000 TELLER AVENUE
Bronx, NY 10456
(40.83264, -73.911875)"
"08X069","8","P.S. 069 The New Vision School","Bronx","10473","Sheila Durant","EMS","Elementary","60.947800000000001","A","85.4","97.38","47.1","A","22.4","A","10.6","A",," ","A","0"," "," "," ","0"," "," ","0"," ",," ","0"," ","560 THERIOT AVENUE
Bronx, NY 10473
(40.816532, -73.860874)"
"12X478","12","THE CINEMA SCHOOL","Bronx","10472","Rex Bobbish","HS","High School","2.79"," ","0","0","0"," ","0"," ","0"," ",," "," ","396","X478"," ","http://schools.nyc.gov/SchoolPortals/12/X478/default.htm","2","Bronx","718-620-2560","304","09,10,11,12,SE",,"http://www.thecinemaschool.org","-1"," Film/Video","1551 EAST 172ND STREET
Bronx, NY 10472
(40.831268, -73.878949)"
"12X150","12","P.S. 150 Charles James Fox","Bronx","10459","Edwin Irizarry","EMS","Elementary","66.212699999999998","B","51.9","43.61","26.9","C","12.4","B","9.8000000000000007","A",," ","A","372","X150","Not Accessible","http://schools.nyc.gov/SchoolPortals/12/X150/default.htm","2","Bronx","718-328-7729","935","PK,0K,01,02,03,04,05,SE",," ","0"," ","920 EAST 167 STREET
Bronx, NY 10459
(40.82635, -73.894368)"
"07X296","7","South Bronx Academy for Applied Media","Bronx","10456","Roshone Ault","EMS","Middle","2.1107","B","55.2","50","27","C","16.100000000000001","B","7.6","C",," ","A","19","X296","Not Accessible","http://schools.nyc.gov/SchoolPortals/07/X296/default.htm","2","Bronx","718-401-0059","405","06,07,08,SE",," ","0"," ","778 FOREST AVENUE
Bronx, NY 10456
(40.818899, -73.905871)"
"11X121","11","P.S. 121 Throop","Bronx","10469","Rachel Donnelly","EMS","Elementary","49.273099999999999","C","48.6","36.56","24.3","C","13.2","B","9","B",," ","B","348","X121","Not Accessible","http://schools.nyc.gov/SchoolPortals/11/X121/default.htm","2","Bronx","718-654-2055","989","PK,0K,01,02,03,04,05,SE",," ","0"," ","2750 THROOP AVENUE
Bronx, NY 10469
(40.866887, -73.850811)"
"11X532","11","Baychester Middle School","Bronx","10466","Shawn Mangar","EMS","Middle","2.1598999999999999"," ","0","0","0"," ","0"," ","0"," ",," ",".","296","X532"," ","http://schools.nyc.gov/SchoolPortals/11/X532/default.htm","2","Bronx","718-547-1890","199","06,07,SE",," ","0"," ","3750 BAYCHESTER AVENUE
Bronx, NY 10466
(40.884467, -73.840309)"
"10X390","10","M.S. 390","Bronx","10453","Robert Mercedes","EMS","Middle","2.3732000000000002","B","53.7","46.41","33.700000000000003","B","9","C","7.1","C",," ","C","269","X390","Not Accessible","http://schools.nyc.gov/SchoolPortals/10/X390/default.htm","2","Bronx","718-583-5501","392","06,07,08,SE",," ","0"," ","1930 ANDREWS AVENUE
Bronx, NY 10453
(40.854332, -73.913004)"
"08X125","8","J.H.S. 125 Henry Hudson","Bronx","10472","Anthony Martin","EMS","Middle","2.5318999999999998","F","21.5","1.93","11.2","F","5.0999999999999996","F","3.1","F",," ","B","86","X125","Not Accessible","http://schools.nyc.gov/SchoolPortals/08/X125/default.htm","2","Bronx","718-822-5186","546","06,07,08,SE",," ","0"," ","1111 PUGSLEY AVENUE
Bronx, NY 10472
(40.829414, -73.856783)"
"08X146","8","P.S. 146 Edward Collins","Bronx","10456","JanetAnn Sanderson","EMS","Elementary","63.193300000000001","C","47.8","34.590000000000003","26.1","C","10.5","C","8.1","B",," ","C","105","X146","Not Accessible","http://schools.nyc.gov/SchoolPortals/08/X146/default.htm","2","Bronx","718-378-9664","482","PK,0K,01,02,03,04,05,SE",," ","0"," ","968 CAULDWELL AVENUE
Bronx, NY 10456
(40.824822, -73.906202)"
"08X269","8","Bronx Studio School for Writers and Artists","Bronx","10459","David Vazquez","HS","High School","2.11"," ","0","0","0"," ","0"," ","0"," ",," "," ","102","X269","Not Accessible","http://schools.nyc.gov/SchoolPortals/08/X269/default.htm","2","Bronx","718-893-5158","558","06,07,08,09,10,11,12,SE",," ","-1"," Humanities & Interdisciplinary","928 SIMPSON STREET
Bronx, NY 10459
(40.819919, -73.893755)"
"09X064","9","P.S. 064 Pura Belpre","Bronx","10452","Tara Obrien","EMS","Elementary","74.494500000000002","D","34.799999999999997","8.85","23.2","C","4.8","F","3.9","D",," ","C","189","X064","Not Accessible","http://schools.nyc.gov/SchoolPortals/09/X064/default.htm","2","Bronx","718-681-8088","875","0K,01,02,03,04,05,SE",," ","0"," ","1425 WALTON AVENUE
Bronx, NY 10452
(40.840246, -73.915636)"
"07X043","7","P.S. 043 Jonas Bronck","Bronx","10454","Giovanna Delucchi","EMS","Elementary","63.880400000000002","A","74.900000000000006","92.3","44.1","A","19","A","9.1","B",," ","A","51","X043","Not Accessible","http://schools.nyc.gov/SchoolPortals/07/X043/default.htm","2","Bronx","718-292-4502","498","PK,0K,01,02,03,04,05,SE",," ","0"," ","165 BROWN PLACE
Bronx, NY 10454
(40.806631, -73.922646)"
"10X438","10","Fordham Leadership Academy for Business and Technology","Bronx","10458","Mary Ann Tucker","HS","High School","1.6","F","39.6","2.8","16.3","F","8","D","5.9","F","5.7","C","C","204","X438","Functionally Accessible","http://schools.nyc.gov/SchoolPortals/10/X438/default.htm","2","Bronx","718-733-5024","445","09,10,11,12,SE",," ","-1"," Business","500 EAST FORDHAM ROAD
Bronx, NY 10458
(40.859702, -73.887589)"
"12X066","12","P.S. 066 School of Higher Expectations","Bronx","10460","Thomas Degrazia","EMS","Elementary","68.543099999999995","A","65.099999999999994","76.069999999999993","35.799999999999997","B","16.8","A","9.5","B",," ","B","381","X066","Not Accessible","http://schools.nyc.gov/SchoolPortals/12/X066/default.htm","2","Bronx","718-542-2974","657","PK,0K,01,02,03,04,05,SE",," ","0"," ","1001 JENNINGS STREET
Bronx, NY 10460
(40.831487, -73.886525)"
"09X028","9","P.S. 028 Mount Hope","Bronx","10457","Marie Barresi","EMS","Elementary","71.651799999999994","C","37.1","11.8","17.100000000000001","D","11.9","C","5","D",," ","B","180","X028","Not Accessible","http://schools.nyc.gov/SchoolPortals/09/X028/default.htm","2","Bronx","718-583-6444","729","PK,0K,01,02,03,04,05,SE",," ","0"," ","1861 ANTHONY AVENUE
Bronx, NY 10457
(40.847812, -73.903611)"
"10X340","10","P.S. 340","Bronx","10468","Nelly Maldonado","EMS","Elementary","63.363900000000001","A","73.099999999999994","90.49","43.8","A","15.9","B","9.4","B",," ","B","251","X340","Functionally Accessible","http://schools.nyc.gov/SchoolPortals/10/X340/default.htm","2","Bronx","718-220-1830","665","PK,0K,01,02,03,04,05,06,SE",," ","0"," ","25 WEST 195 STREET
Bronx, NY 10468
(40.869429, -73.897161)"
"07X162","7","J.H.S. 162 Lola Rodriguez De Tio","Bronx","10455","Maryann Manzolillo","EMS","Middle","2.0139","C","38.799999999999997","12.43","18.7","D","13.6","B","3","F",," ","B","47","X162","Functionally Accessible","http://schools.nyc.gov/SchoolPortals/07/X162/default.htm","2","Bronx","718-292-0880","435","06,07,08,SE",," ","0"," ","600 SAINT ANN'S AVENUE
Bronx, NY 10455
(40.814554, -73.912403)"
"08X377","8","Bronx Community High School","Bronx","10473","Flora Greenaway","HST","High School Transfer","1.42","C","53.4","0","25.7","C","6","F","12","A","3.1","D","C","92","X377"," ","http://schools.nyc.gov/SchoolPortals/08/X377/default.htm","2","Bronx","718-892-1026","177","09,10,11,12",," ","0"," ","1980 LAFAYETTE AVENUE
Bronx, NY 10473
(40.822326, -73.855957)"
"07X005","7","P.S. 005 Port Morris","Bronx","10455","Mary Padilla","EMS","Elementary","65.673400000000001","B","52.8","47.38","26.7","C","11.1","C","11.4","A",," ","C","0"," "," "," ","0"," "," ","0"," ",," ","0"," ","564 JACKSON AVENUE
Bronx, NY 10455
(40.813402, -73.908845)"
"10X020","10","P.S. 20 P.O.George J. Werdan III","Bronx","10467","Carol Carlsen","EMS","K8","54.402799999999999","A","64.2","75.63","38","B","14","B","7.5","C",," ","B","247","X020","Functionally Accessible","http://schools.nyc.gov/SchoolPortals/10/X020/default.htm","2","Bronx","718-515-9370","1090","PK,0K,01,02,03,04,05,06,07,08,SE",," ","0"," ","3050 WEBSTER AVENUE
Bronx, NY 10467
(40.870098, -73.878667)"
"10X228","10","Jonas Bronck Academy","Bronx","10458","Donalda Chumney","EMS","Middle","2.5661999999999998","B","56.9","54.42","22.9","C","17.7","A","12.6","A",," ","A","262","X228","Functionally Accessible","http://schools.nyc.gov/SchoolPortals/10/X228/default.htm","2","Bronx","718-365-2502","252","06,07,08,SE",," ","0"," ","400 EAST FORDHAM ROAD
Bronx, NY 10458
(40.861465, -73.891174)"
"11X508","11","Bronxdale High School","Bronx","10469","John Chase Jr","HS","High School","2.04"," ","0","0","0"," ","0"," ","0"," ",," "," ","307","X508"," ","http://schools.nyc.gov/SchoolPortals/11/X508/default.htm","2","Bronx","718-944-3655","229","09,10,SE",,"http://wwww.bronxdalehigh.org","-1"," Humanities & Interdisciplinary","925 ASTOR AVENUE
Bronx, NY 10469
(40.85964, -73.860743)"
"08X301","8","M.S. 301 Paul L. Dunbar","Bronx","10456","Benjamin Basile","EMS","Middle","2.2725","C","49.5","34.25","30.5","C","9.6999999999999993","C","6.1","C",," ","C","83","X301","Not Accessible","http://schools.nyc.gov/SchoolPortals/08/X301/default.htm","2","Bronx","718-585-2950","275","06,07,08,SE",," ","0"," ","890 CAULDWELL AVENUE
Bronx, NY 10456
(40.822423, -73.907024)"
"11X265","11","Bronx Lab School","Bronx","10467","Christophe Lagares","HS","High School","2.11","B","59.3","33.5","33.6","B","9.6999999999999993","C","9.5","B","3.7","D","B","305","X265","Not Accessible","http://schools.nyc.gov/SchoolPortals/11/X265/default.htm","2","Bronx","718-696-3700","482","09,10,11,12,SE",,"http://www.bronxlabschool.org","-1"," Humanities & Interdisciplinary","800 EAST GUN HILL ROAD
Bronx, NY 10467
(40.875163, -73.861653)"
"12X098","12","J.H.S. 098 Herman Ridder","Bronx","10460","Claralee Irobunda","EMS","Middle","2.1383999999999999","A","84.1","95.3","53.6","A","18","A","7.4","C",," ","A","398","X098","Not Accessible","http://schools.nyc.gov/SchoolPortals/12/X098/default.htm","2","Bronx","718-589-8200","382","06,07,08,SE",," ","0"," ","1619 BOSTON ROAD
Bronx, NY 10460
(40.835814, -73.891055)"
"10X445","10","Bronx High School of Science","Bronx","10468","Valerie Reidy","HS","High School","3.89","A","81","91.6","43.5","A","18.399999999999999","A","9.1","B","10","A","A","252","X445","Functionally Accessible","http://schools.nyc.gov/SchoolPortals/10/X445/default.htm","2","Bronx","718-817-7700","3062","09,10,11,12",,"http://www.bxscience.edu","-1"," Science & Math","75 WEST 205 STREET
Bronx, NY 10468
(40.87766, -73.89107)"
"12X383","12","Emolior Academy","Bronx","10460","Derick Spaulding","EMS","Middle","2.1065","C","41.8","17.68","15.9","D","10.8","C","11.9","A",," ","B","411","X383"," ","http://schools.nyc.gov/SchoolPortals/12/X383/default.htm","2","Bronx","718-842-2670","229","06,07,08,SE",," ","0"," ","1970 WEST FARMS ROAD
Bronx, NY 10460
(40.839932, -73.880168)"
"10X374","10","Knowledge and Power Preparatory Academy International High School (Kappa)","Bronx","10458","Panorea Panagiosoulis","HS","High School","2.36","B","63.2","44.4","32.6","B","11.7","B","9.3000000000000007","B","6.2","B"," ","260","X374"," ","http://schools.nyc.gov/SchoolPortals/10/X374/default.htm","2","Bronx","718-933-1247","444","09,10,11,12,SE",,"http://www.kappainternational.org","-1"," Humanities & Interdisciplinary","500 EAST FORDHAM ROAD
Bronx, NY 10458
(40.859702, -73.887589)"
"07X030","7","P.S. 030 Wilton","Bronx","10454","Debra Michaux","EMS","Elementary","68.060599999999994","B","61.6","68.52","35.1","B","12.6","B","8","B",," ","A","3","X030","Not Accessible","http://schools.nyc.gov/SchoolPortals/07/X030/default.htm","2","Bronx","718-292-8817","521","PK,0K,01,02,03,04,05,08,SE",," ","0"," ","510 EAST 141 STREET
Bronx, NY 10454
(40.809428, -73.91772)"
"09X241","9","Urban Assembly School for Applied Math and Science, The","Bronx","10457","Kenneth Baum","HS","High School","2.2799999999999998","A","74.900000000000006","78.599999999999994","35.799999999999997","B","18.600000000000001","A","9.1999999999999993","B","8.6999999999999993","A"," ","143","X241","Functionally Accessible","http://schools.nyc.gov/SchoolPortals/09/X241/default.htm","2","Bronx","718-466-7800","605","06,07,08,09,10,11,12,SE",,"http://www.urbanassemblymath.org","-1"," Science & Math","1595 BATHGATE AVENUE
Bronx, NY 10457
(40.839491, -73.901765)"
"08X537","8","Bronx Arena High School","Bronx","10473","Ty Cesene","HST","High School Transfer","1.27"," ","0","0","0"," ","0"," ","0"," ",," "," ","61","X537"," ","http://schools.nyc.gov/SchoolPortals/08/X537/default.htm","2","Bronx","718-860-5056","166","09,10,11,12",," ","0"," ","1440 STORY AVENUE
Bronx, NY 10473
(40.821125, -73.881745)"
"10X360","10","P.S. 360","Bronx","10463","Nancy RodriguezLewis","EMS","Elementary","62.754600000000003","B","51.2","42.46","32.200000000000003","B","10.9","C","5.0999999999999996","D",," ","B","248","X360","Functionally Accessible","http://schools.nyc.gov/SchoolPortals/10/X360/default.htm","2","Bronx","718-548-1511","489","PK,0K,01,02,03,04,05,06,SE",," ","0"," ","2880 KINGSBRIDGE TERRACE
Bronx, NY 10463
(40.874718, -73.902209)"
"08X371","8","Urban Institute of Mathematics","Bronx","10465","Jennifer Joynt","EMS","Middle","2.6901999999999999","B","58.4","58.01","30.7","C","16.899999999999999","A","7.7","B",," ","B","107","X371"," ","http://schools.nyc.gov/SchoolPortals/08/X371/default.htm","2","Bronx","718-823-6042","289","06,07,08,SE",," ","0"," ","650 HOLLYWOOD AVENUE
Bronx, NY 10465
(40.826777, -73.818075)"
"12X682","12","Fannie Lou Hamer Freedom High School","Bronx","10460","Nancy Mann","HS","High School","1.55","B","64.400000000000006","47.7","27.9","C","14.4","A","11.1","A","4.2","D","A","406","X682","Functionally Accessible","http://schools.nyc.gov/SchoolPortals/12/X682/default.htm","2","Bronx","718-861-0521","509","09,10,11,12,SE",," ","-1"," Humanities & Interdisciplinary","1021 JENNINGS STREET
Bronx, NY 10460
(40.830778, -73.885733)"
"12X134","12","P.S. 134 George F. Bristow","Bronx","10459","Kenneth Thomas","EMS","Elementary","62.157299999999999","C","43.9","22.95","26.8","C","10.9","C","4.2","D",," ","B","374","X134","Not Accessible","http://schools.nyc.gov/SchoolPortals/12/X134/default.htm","2","Bronx","718-328-3351","730","PK,0K,01,02,03,04,05,SE",," ","0"," ","1330 BRISTOW STREET
Bronx, NY 10459
(40.831595, -73.894227)"
"09X413","9","Bronx High School for Medical Science","Bronx","10457","William Quintana","EMS","Middle","2.7023999999999999","B","54.5","48.34","29.6","C","13.8","B","8.5","B",," ","B","193","X413","Functionally Accessible","http://schools.nyc.gov/SchoolPortals/09/X413/default.htm","2","Bronx","718-410-4040","470","06,07,08,09,10,11,12,SE",,"http://www.bhsms.org","-1"," Health Professions","240 EAST 172 STREET
Bronx, NY 10457
(40.839295, -73.911384)"
"11X514","11","The Bronxwood Preparatory Academy","Bronx","10466","Janet Gallardo","HS","High School","1.57","C","55","23.2","30.5","C","7.2","F","10.199999999999999","B","3.3","F","B","362","X514","Functionally Accessible","http://schools.nyc.gov/SchoolPortals/11/X514/default.htm","2","Bronx","718-696-3820","436","09,10,11,12,SE",," ","-1"," Humanities & Interdisciplinary","921 EAST 228TH STREET
Bronx, NY 10466
(40.887766, -73.852493)"
"10X037","10","P.S. X037 - Multiple Intelligence School","Bronx","10463","Kenneth Petriccione","EMS","K8","61.025300000000001","B","59.6","65","32.5","B","15.2","B","8","B",," ","B","237","X037","Functionally Accessible","http://schools.nyc.gov/SchoolPortals/10/X037/default.htm","2","Bronx","718-796-0360","635","0K,01,02,03,04,05,06,07,08,SE",," ","0"," ","360 WEST 230 STREET
Bronx, NY 10463
(40.879982, -73.910299)"
"08X405","8","Herbert H. Lehman High School.","Bronx","10461","R Lobianco","HS","High School","1.83","D","40.5","3.7","19.2","F","6.3","F","5.9","F","6.1","B","F","60","X405","Functionally Accessible","http://schools.nyc.gov/SchoolPortals/08/X405/default.htm","2","Bronx","718-904-4200","3078","09,10,11,12,SE",,"http://www.LehmanHS.com","-1"," Computer Science & Technology","3000 EAST TREMONT AVENUE
Bronx, NY 10461
(40.839987, -73.837977)"
"10X342","10","International School for Liberal Arts","Bronx","10468","Migdalia Carrillo","EMS","Middle","2.3224999999999998","A","93.3","98.07","59.4","A","15.3","B","10.7","A",," ","B","268","X342","Functionally Accessible","http://schools.nyc.gov/SchoolPortals/10/X342/default.htm","2","Bronx","718-329-8570","548","06,07,08,09,10,11,12,SE",," ","-1"," Humanities & Interdisciplinary","2780 RESERVOIR AVENUE
Bronx, NY 10468
(40.870638, -73.897705)"
"10X081","10","P.S. 081 Robert J. Christen","Bronx","10471","Melodie Mashel","EMS","Elementary","33.703899999999997","B","50.3","40.82","22.8","C","14.7","B","10","A",," ","C","286","X081","Not Accessible","http://schools.nyc.gov/SchoolPortals/10/X081/default.htm","2","Bronx","718-796-8965","626","0K,01,02,03,04,05,SE",," ","0"," ","5550 RIVERDALE AVENUE
Bronx, NY 10471
(40.903658, -73.905023)"
"09X117","9","I.S. 117 Joseph H. Wade","Bronx","10453","Delise Jones","EMS","Middle","2.1255000000000002","B","62.2","67.959999999999994","37.1","B","13.4","B","7.4","C",," ","B","154","X117","Not Accessible","http://schools.nyc.gov/SchoolPortals/09/X117/default.htm","2","Bronx","718-583-7750","668","06,07,08,SE",," ","0"," ","1865 MORRIS AVENUE
Bronx, NY 10453
(40.848459, -73.908585)"
"07X548","7","Urban Assembly School for Careers in Sports","Bronx","10451","Johanny Garcia","HS","High School","2.1","B","59.6","35.5","28.6","C","14.7","A","8.6","C","4.0999999999999996","D","A","4","X548","Not Accessible","http://schools.nyc.gov/SchoolPortals/07/X548/default.htm","2","Bronx","718-292-7110","535","09,10,11,12,SE",,"http://www.urbanassemblyschool.net","-1"," Business","730 CONCOURSE VILLAGE WEST
Bronx, NY 10451
(40.822772, -73.923439)"
"11X103","11","P.S. 103 Hector Fontanez","Bronx","10466","Farid Reyes","EMS","Elementary","57.8581","C","42.1","20","23.8","C","9.1999999999999993","C","6.6","C",," ","B","342","X103","Not Accessible","http://schools.nyc.gov/SchoolPortals/11/X103/default.htm","2","Bronx","718-655-0261","1090","0K,01,02,03,04,05,SE",," ","0"," ","4125 CARPENTER AVENUE
Bronx, NY 10466
(40.891723, -73.861712)"
"07X151","7","J.H.S. 151 Lou Gehrig","Bronx","10451","Socorro Rivera","EMS","Middle","1.8896999999999999","C","45.9","25.69","21.1","D","11.2","C","9.9","A",," ","A","42","X151","Functionally Accessible","http://schools.nyc.gov/SchoolPortals/07/X151/default.htm","2","Bronx","718-292-0260","278","06,07,08,SE",," ","0"," ","250 EAST 156 STREET
Bronx, NY 10451
(40.823074, -73.921343)"
"10X094","10","P.S. 094 Kings College School","Bronx","10467","Diane Daprocida","EMS","Elementary","60.235100000000003","D","27.9","3.44","14.2","F","6.7","D","5.0999999999999996","D",," ","C","241","X094","Not Accessible","http://schools.nyc.gov/SchoolPortals/10/X094/default.htm","2","Bronx","718-405-6345","1112","0K,01,02,03,04,05,SE",," ","0"," ","3530 KINGS COLLEGE PLACE
Bronx, NY 10467
(40.880539, -73.875712)"
"09X403","9","Bronx International High School","Bronx","10456","Joaquin Vega","HS","High School","1.83","A","74.2","76.599999999999994","42.1","A","11.8","B","9.4","B","4.3","D","A","196","X403","Functionally Accessible","http://schools.nyc.gov/SchoolPortals/09/X403/default.htm","2","Bronx","718-620-1053","398","09,10,11,12,SE",,"http://www.Morriscampus.org","-1"," Humanities & Interdisciplinary","1110 BOSTON ROAD
Bronx, NY 10456
(40.828015, -73.904023)"
"11X468","11","PELHAM ACADEMY OF ACADEMICS AND COMMUNITY ENGAGE","Bronx","10467","Anthony Rivera","EMS","Middle","2.5813000000000001","A","66.900000000000006","77.069999999999993","40.200000000000003","A","15.5","B","8.3000000000000007","B",," ",".","0"," "," "," ","0"," "," ","0"," ",," ","0"," ","2441 Wallace Ave
Bronx, NY 10467
(40.86206, -73.864588)"
"08X375","8","The Bronx Mathematics Preparatory School","Bronx","10473","Anya Munce","EMS","Middle","2.2079","F","19.7","1.66","8.1","F","4.8","F","3.5","D",," ","C","79","X375"," ","http://schools.nyc.gov/SchoolPortals/08/X375/default.htm","2","Bronx","718-542-5063","308","06,07,08,SE",," ","0"," ","456 WHITE PLAINS ROAD
Bronx, NY 10473
(40.815005, -73.856312)"
"10X660","10","Grace Dodge Career and Technical Education High School","Bronx","10458","John Tornifolio","HS","High School","1.44"," ","0","0","0"," ","0"," ","0"," ",," ","D","285","X660","Not Accessible","http://schools.nyc.gov/SchoolPortals/10/X660/default.htm","2","Bronx","718-584-2700","752","09,10,11,12,SE",," ","0"," ","2474 CROTONA AVENUE
Bronx, NY 10458
(40.856088, -73.882489)"
"11X509","11","High School for Language and Innovation","Bronx","10469","Julie Nariman","HS","High School","2.08"," ","0","0","0"," ","0"," ","0"," ",," "," ","316","X509"," ","http://schools.nyc.gov/SchoolPortals/11/X509/default.htm","2","Bronx","718-944-3625","179","09,10,SE",,"http://www.languagehs.org","-1"," Humanities & Interdisciplinary","925 ASTOR AVENUE
Bronx, NY 10469
(40.85964, -73.860743)"
"09X231","9","Eagle Academy for Young Men","Bronx","10457","Jonathan Foy","HS","High School","1.74","B","65.400000000000006","50.7","26.1","C","14.6","A","10.6","A","7.8","A","B","145","X231","Not Accessible","http://schools.nyc.gov/SchoolPortals/09/X231/default.htm","2","Bronx","718-466-8000","606","06,07,09,10,11,12,SE",,"http://www.eagleny.org","-1"," Humanities & Interdisciplinary","4143 THIRD AVENUE
Bronx, NY 10457
(40.845264, -73.897176)"
"09X199","9","P.S. 199X - The Shakespeare School","Bronx","10452","Lilia Navarrete","EMS","Elementary","67.141900000000007","C","46.1","29.02","17.8","D","15.6","B","8.6","B",," ","A","131","X199","Not Accessible","http://schools.nyc.gov/SchoolPortals/09/X199/default.htm","2","Bronx","718-681-7172","773","PK,0K,01,02,03,04,05,SE",," ","0"," ","1449 SHAKESPEARE AVENUE
Bronx, NY 10452
(40.841952, -73.92127)"
"10X391","10","The Angelo Patri Middle School","Bronx","10457","Graciela Abadia","EMS","Middle","2.0417000000000001","B","52.1","42.54","31.8","B","9.3000000000000007","C","6.7","C",," ","B","275","X391","Functionally Accessible","http://schools.nyc.gov/SchoolPortals/10/X391/default.htm","2","Bronx","718-584-1295","630","06,07,08,SE",," ","0"," ","2225 WEBSTER AVENUE
Bronx, NY 10457
(40.854655, -73.897036)"
"12X198","12","P.S. 198","Bronx","10456","Ronnie Nelson","EMS","Middle","2.2921"," ","0","0","0"," ","0"," ","0"," ",," ",".","0"," "," "," ","0"," "," ","0"," ",," ","0"," ","1180 Tinton Ave
Bronx, NY 10456
(40.828593, -73.900507)"
"10X009","10","P.S. 9 Ryer Avenue Elementary School","Bronx","10458","Jacqueline Bailey","EMS","Elementary","69.359300000000005","C","44.9","25.25","23.5","C","11.3","C","6.3","C",," ","C","239","X009","Not Accessible","http://schools.nyc.gov/SchoolPortals/10/X009/default.htm","2","Bronx","718-584-3291","787","PK,0K,01,02,03,04,05,SE",," ","0"," ","230 EAST 183 STREET
Bronx, NY 10458
(40.857175, -73.899143)"
"08X452","8","Bronx Guild","Bronx","10473","Sam Decker","HS","High School","1.6","A","71.900000000000006","72","34.799999999999997","B","12.6","B","8.9","B","6.9","B","C","87","X452","Functionally Accessible","http://schools.nyc.gov/SchoolPortals/08/X452/default.htm","2","Bronx","718-597-1587","312","09,10,11,12,SE",,"http://www.bronxguild.org","-1"," Humanities & Interdisciplinary","1980 LAFAYETTE AVENUE
Bronx, NY 10473
(40.822326, -73.855957)"
"08X130","8","P.S. 130 Abram Stevens Hewitt","Bronx","10455","Lourdes Velazquez","EMS","Elementary","65.639700000000005","B","57.8","59.67","32.799999999999997","B","9.6999999999999993","C","10.8","A",," ","C","122","X130","Not Accessible","http://schools.nyc.gov/SchoolPortals/08/X130/default.htm","2","Bronx","718-665-0962","503","PK,0K,01,02,03,04,05,SE",," ","0"," ","750 PROSPECT AVENUE
Bronx, NY 10455
(40.817665, -73.902248)"
"07X298","7","Academy of Public Relations","Bronx","10456","Amy Andino","EMS","Middle","2.2223999999999999","A","66.5","76.52","39.9","A","14.6","B","7.8","B",," ","A","5","X298","Not Accessible","http://schools.nyc.gov/SchoolPortals/07/X298/default.htm","2","Bronx","718-665-8866","313","06,07,08,SE",," ","0"," ","778 FOREST AVENUE
Bronx, NY 10456
(40.818899, -73.905871)"
"10X368","10","In-Tech Academy (M.S. / High School 368)","Bronx","10463","Yvette Allen","HS","High School","2.4700000000000002","C","57.9","29.3","30.2","C","11.8","B","7.9","C","4.7","C","B","272","X368","Functionally Accessible","http://schools.nyc.gov/SchoolPortals/10/X368/default.htm","2","Bronx","718-432-4300","1091","06,07,08,09,10,11,12,SE",,"http://www.intech-academy.org","-1"," Computer Science & Technology","2975 TIBBETT AVENUE
Bronx, NY 10463
(40.879526, -73.909695)"
"11X127","11","J.H.S. 127 The Castle Hill","Bronx","10462","Harry Sherman","EMS","Middle","2.6831999999999998","B","55","49.45","31.6","B","13.9","B","6.8","C",," ","B","323","X127","Not Accessible","http://schools.nyc.gov/SchoolPortals/11/X127/default.htm","2","Bronx","718-892-8600","755","06,07,08,SE",," ","0"," ","1560 PURDY STREET
Bronx, NY 10462
(40.838142, -73.853438)"
"11X181","11","I.S. 181 Pablo Casals","Bronx","10475","Christopher Warnock","EMS","Middle","2.7366999999999999","C","37.4","11.05","9.5","F","16.7","A","8.9","B",," ","B","318","X181","Functionally Accessible","http://schools.nyc.gov/SchoolPortals/11/X181/default.htm","2","Bronx","718-904-5600","788","06,07,08,SE",," ","0"," ","800 BAYCHESTER AVENUE
Bronx, NY 10475
(40.875585, -73.833774)"
"08X376","8","Antonia Pantoja Preparatory Academy, A College Board School","Bronx","10473","Nancy Jacqueline Diaz","HS","High School","1.82"," ","0","0","0"," ","0"," ","0"," ",," "," ","0"," "," "," ","0"," "," ","0"," ",," ","0"," ","1980 Lafayette Ave
Bronx, NY 10473
(40.822326, -73.855957)"
"11X106","11","P.S. 106 Parkchester","Bronx","10462","Eugenia Montalvo","EMS","Elementary","43.880200000000002","B","57.3","58.52","30.6","B","16.100000000000001","A","8.9","B",," ","B","344","X106","Not Accessible","http://schools.nyc.gov/SchoolPortals/11/X106/default.htm","2","Bronx","718-892-1006","1254","PK,0K,01,02,03,04,05,SE",," ","0"," ","2120 ST RAYMOND'S AVENUE
Bronx, NY 10462
(40.837351, -73.855047)"
"10X315","10","P.S. 315 Lab School","Bronx","10453","Gaby Flores","EMS","K8","60.269100000000002","A","77.400000000000006","95.63","39.200000000000003","A","21.4","A","14.1","A",," ","A","253","X315","Not Accessible","http://schools.nyc.gov/SchoolPortals/10/X315/default.htm","2","Bronx","718-584-7441","244","0K,01,02,03,04,05,06,07,08,SE",," ","0"," ","2246 JEROME AVENUE
Bronx, NY 10453
(40.857911, -73.90397)"
"12X341","12","Accion Academy","Bronx","10457","Nikole Booker","EMS","Middle","2.0287999999999999","A","69.099999999999994","80.39","39.700000000000003","A","17.100000000000001","A","7.3","C",," ","A","408","X341","Not Accessible","http://schools.nyc.gov/SchoolPortals/12/X341/default.htm","2","Bronx","718-294-0514","160","06,07,08,SE",," ","0"," ","1825 PROSPECT AVENUE
Bronx, NY 10457
(40.842322, -73.890995)"
"09X505","9","Bronx School for Law, Government and Justice","Bronx","10451","Meisha RossPorter","EMS","Middle","2.7429999999999999","C","46","25.97","23.2","C","13.6","B","6.1","C",," ","C","135","X505","Functionally Accessible","http://schools.nyc.gov/SchoolPortals/09/X505/default.htm","2","Bronx","718-410-3430","780","06,07,08,09,10,11,12,SE",," ","-1"," Law & Government","244 EAST 163 STREET
Bronx, NY 10451
(40.827608, -73.918926)"
"12X245","12","New Day Academy","Bronx","10456","Mara Ganeles","EMS","Middle","2.0562999999999998"," ","0","0","0"," ","0"," ","0"," ",," ","C","389","X245","Functionally Accessible","http://schools.nyc.gov/SchoolPortals/12/X245/default.htm","2","Bronx","718-542-1155","82","08,09,10,11,12,SE",," ","0"," ","800 HOME STREET
Bronx, NY 10456
(40.826916, -73.900597)"
"07X379","7","Jill Chaifetz Transfer High School","Bronx","10456","Anne Fennelly","HST","High School Transfer","1.2","C","52.1","0","21.6","D","10","C","10.7","A","3.6","D","B","58","X379"," ","http://schools.nyc.gov/SchoolPortals/07/X379/default.htm","2","Bronx","718-402-2429","181","09,10,11,12,SE",," ","0"," ","778 FOREST AVENUE
Bronx, NY 10456
(40.818899, -73.905871)"
"11X287","11","The Forward School","Bronx","10467","Adrienne Phifer","EMS","Middle","2.0470000000000002","A","73.099999999999994","85.64","44.3","A","19.5","A","4.9000000000000004","D",," ","B","364","X287","Not Accessible","http://schools.nyc.gov/SchoolPortals/11/X287/default.htm","2","Bronx","718-652-0519","215","06,07,08,SE",," ","0"," ","3710 BARNES AVENUE
Bronx, NY 10467
(40.880634, -73.860155)"
"07X161","7","P.S. 161 Ponce De Leon","Bronx","10455","Eliamarie Soto","EMS","Elementary","68.270499999999998","C","39.700000000000003","15.9","22.5","C","7.8","D","6.3","C",," ","C","40","X161","Not Accessible","http://schools.nyc.gov/SchoolPortals/07/X161/default.htm","2","Bronx","718-292-5478","548","PK,0K,01,02,03,04,05,SE",," ","0"," ","628 TINTON AVENUE
Bronx, NY 10455
(40.814735, -73.90545)"
"08X071","8","P.S. 071 Rose E. Scala","Bronx","10461","Phyllis Calzolaio","EMS","K8","40.009599999999999","B","52.8","44.38","25.5","C","15.6","B","7.8","B",," ","C","78","X071","Not Accessible","http://schools.nyc.gov/SchoolPortals/08/X071/default.htm","2","Bronx","718-822-5351","1680","0K,01,02,03,04,05,06,07,08,SE",," ","0"," ","3040 ROBERTS AVENUE
Bronx, NY 10461
(40.845859, -73.829622)"
"12X286","12","Fannie Lou Hamer Middle School","Bronx","10460","Lorraine Chanon","EMS","Middle","2.1389","B","64.099999999999994","71.55","34.9","B","15.3","B","10.9","A",," ","A","404","X286","Not Accessible","http://schools.nyc.gov/SchoolPortals/12/X286/default.htm","2","Bronx","718-860-2707","249","06,07,08,SE",," ","0"," ","1001 JENNINGS STREET
Bronx, NY 10460
(40.831487, -73.886525)"
"08X075","8","P.S. 075","Bronx","10459","Marines ArrietaCruz","EMS","Elementary","67.058899999999994","B","58.8","61.64","30.9","B","18","A","6.7","C",," ","B","72","X075","Not Accessible","http://schools.nyc.gov/SchoolPortals/08/X075/default.htm","2","Bronx","718-860-1630","587","PK,0K,01,02,03,04,05,SE",," ","0"," ","984 FAILE STREET
Bronx, NY 10459
(40.82229, -73.88896)"
"09X325","9","Urban Science Academy","Bronx","10456","Patrick Kelly","EMS","Middle","2.2547999999999999","B","53.6","46.13","34.299999999999997","B","9.6","C","5.4","C",," ","B","127","X325","Not Accessible","http://schools.nyc.gov/SchoolPortals/09/X325/default.htm","2","Bronx","718-588-8221","413","05,06,07,08,SE",," ","0"," ","1000 TELLER AVENUE
Bronx, NY 10456
(40.83264, -73.911875)"
"08X101","8","M.S. X101 Edward R. Byrne","Bronx","10465","Kim Hampton Hewitt","EMS","Middle","3.2339000000000002","C","51.3","39.229999999999997","22.6","C","16.899999999999999","A","10.1","A",," ","C","80","X101","Not Accessible","http://schools.nyc.gov/SchoolPortals/08/X101/default.htm","2","Bronx","718-829-6372","484","06,07,08,SE",," ","0"," ","2750 LAFAYETTE AVENUE
Bronx, NY 10465
(40.826958, -73.830804)"
"09X327","9","Comprehensive Model School Project M.S. 327","Bronx","10452","Manuel Ramirez","EMS","Middle","2.488","A","91.5","97.79","56","A","21.1","A","9.1","B",," ","A","142","X327","Not Accessible","http://schools.nyc.gov/SchoolPortals/09/X327/default.htm","2","Bronx","718-861-0852","467","06,07,08,09,SE",," ","0"," Science & Math","1501 JEROME AVENUE
Bronx, NY 10452
(40.842532, -73.915843)"
"12X278","12","Peace and Diversity Academy","Bronx","10459","Andrew Turay","HS","High School","1.51","D","44.2","5.7","20.7","F","7","F","10.199999999999999","B","4","D","C","422","X278","Functionally Accessible","http://schools.nyc.gov/SchoolPortals/12/X278/default.htm","2","Bronx","718-991-1855","231","09,10,11,12,SE",,"http://www.peaceanddiversityacademy.org","-1"," Humanities & Interdisciplinary","1180 REV. J.A. POLITE AVE.
Bronx, NY 10459
(40.827719, -73.897001)"
"10X396","10","P.S. 396","Bronx","10453","Nicole Tine","EMS","Elementary","66.807599999999994","C","45.2","26.07","18.3","D","13.5","B","9.9","A",," ","B","244","X396","Not Accessible","http://schools.nyc.gov/SchoolPortals/10/X396/default.htm","2","Bronx","718-294-0862","357","PK,0K,01,02,03,04,05,SE",," ","0"," ","1930 ANDREWS AVENUE
Bronx, NY 10453
(40.854332, -73.913004)"
"11X142","11","MS 142 John Philip Sousa","Bronx","10466","Casimiro Cibelli","EMS","Middle","2.2892000000000001","C","37.299999999999997","10.77","21.9","C","8.9","D","3.6","D",," ","C","327","X142","Not Accessible","http://schools.nyc.gov/SchoolPortals/11/X142/default.htm","2","Bronx","718-231-0100","431","06,07,08,SE",," ","0"," ","3750 BAYCHESTER AVENUE
Bronx, NY 10466
(40.884467, -73.840309)"
"11X083","11","P.S. 083 Donald Hertz","Bronx","10462","Claudia Macek","EMS","K8","39.278500000000001","B","57.8","61.88","30.1","C","16","A","8.9","B",," ","C","337","X083","1st Floor Only Accessible","http://schools.nyc.gov/SchoolPortals/11/X083/default.htm","2","Bronx","718-863-1993","1699","0K,01,02,03,04,05,06,07,08,SE",," ","0"," ","950 RHINELANDER AVENUE
Bronx, NY 10462
(40.849134, -73.858757)"
"08X072","8","P.S. 072 Dr. William Dorney","Bronx","10465","Margarita Colon","EMS","Elementary","54.077300000000001","B","62.2","69.84","38.5","B","11.7","C","8.6","B",," ","C","74","X072","Functionally Accessible","http://schools.nyc.gov/SchoolPortals/08/X072/default.htm","2","Bronx","718-822-5311","886","PK,0K,01,02,03,04,05,SE",," ","0"," ","2951 DEWEY AVENUE
Bronx, NY 10465
(40.823208, -73.818182)"
"07X456","7","Alfred E. Smith Campus YABC","Bronx","10451","David Martin","YABC","YABC","0","B","68.3","0","35.5","B","13.5","B","9.3000000000000007","B","5","C","A","0"," "," "," ","0"," "," ","0"," ",," ","0"," ","333 EAST 151 STREET
Bronx, NY 10451
(40.818396, -73.920081)"
"12X372","12","Urban Assembly School for Wildlife Conservation","Bronx","10460","Mark Ossenheimer","EMS","Middle","2.3942999999999999","A","70.099999999999994","82.32","44.4","A","14.8","B","7.8","B",," ","C","416","X372"," ","http://schools.nyc.gov/SchoolPortals/12/X372/default.htm","2","Bronx","718-991-2695","473","06,07,08,09,10,11,SE",,"http://www.uawildlifeschool.org","-1"," Science & Math","2024 MOHEGAN AVENUE
Bronx, NY 10460
(40.84377, -73.884191)"
"10X382","10","Elementary School for Math, Science, and Technol","Bronx","10453","Avon ConnellCowell","EMS","Elementary","69.110399999999998","A","68.900000000000006","85.08","40.1","A","15.3","B","9.4","B",," ","C","0"," "," "," ","0"," "," ","0"," ",," ","0"," ","125 E 181st St
Bronx, NY 10453
(40.854903, -73.90342)"
"12X006","12","P.S. 006 West Farms","Bronx","10460","Juliet Young","EMS","Elementary","66.3703","C","39.4","15.41","25.7","C","5.6","F","5.0999999999999996","D",," ","C","388","X006","Not Accessible","http://schools.nyc.gov/SchoolPortals/12/X006/default.htm","2","Bronx","718-542-7676","675","PK,0K,01,02,03,04,05,SE",," ","0"," ","1000 EAST TREMONT AVENUE
Bronx, NY 10460
(40.840659, -73.881436)"
"12X480","12","Bronx Regional High School","Bronx","10459","Colin Thomas","HST","High School Transfer","1.56","F","27.3","0","10.4","F","3.9","F","4.4000000000000004","F","3.5","D","B","417","X480","Not Accessible","http://schools.nyc.gov/SchoolPortals/12/X480/default.htm","2","Bronx","718-991-2020","282","10,11,12",," ","0"," ","1010 REV. J. A. POLITE AVENUE
Bronx, NY 10459
(40.823299, -73.898739)"
"09X073","9","P.S. 073 Bronx","Bronx","10452","Jean Mirvil","EMS","Elementary","62.346699999999998","D","23.8","1.48","10.199999999999999","F","3.2","F","8.4","B",," ","B","192","X073","Not Accessible","http://schools.nyc.gov/SchoolPortals/09/X073/default.htm","2","Bronx","718-681-6776","845","PK,0K,01,02,03,04,05,SE",," ","0"," ","1020 ANDERSON AVENUE
Bronx, NY 10452
(40.832585, -73.926397)"
"09X412","9","Bronx High School of Business","Bronx","10457","Enrique Lizardi","HS","High School","1.37","C","55.1","23.5","31.4","C","7.8","F","7.2","C","4.8","C","C","195","X412","Functionally Accessible","http://schools.nyc.gov/SchoolPortals/09/X412/default.htm","2","Bronx","718-410-4060","383","09,10,11,12,SE",," ","-1"," Business","240 EAST 172 STREET
Bronx, NY 10457
(40.839295, -73.911384)"
"09X110","9","P.S. 110 Theodore Schoenfeld","Bronx","10456","Daisy Perez","EMS","Elementary","65.252700000000004","B","53.9","50.66","23.6","C","15.5","B","10.5","A",," ","B","199","X110","Not Accessible","http://schools.nyc.gov/SchoolPortals/09/X110/default.htm","2","Bronx","718-861-0759","455","PK,0K,01,02,03,04,05,SE",," ","0"," ","580 CROTONA PARK SOUTH
Bronx, NY 10456
(40.834473, -73.900639)"
"10X206","10","I.S. 206 Ann Mersereau","Bronx","10468","David Neering","EMS","Middle","2.4317000000000002","C","41.1","16.3","20.5","D","8.8000000000000007","D","8.6","B",," ","B","276","X206","Not Accessible","http://schools.nyc.gov/SchoolPortals/10/X206/default.htm","2","Bronx","718-584-1570","374","05,06,07,08,SE",," ","0"," ","2280 AQUEDUCT AVENUE
Bronx, NY 10468
(40.859868, -73.906317)"
"07X600","7","Alfred E. Smith Career and Technical Education High School","Bronx","10451","Rene Cassanova","HS","High School","1.51","B","61.6","40.700000000000003","35.200000000000003","B","10.199999999999999","C","4.7","F","5.0999999999999996","C","C","48","X600","Partially Accessible","http://schools.nyc.gov/SchoolPortals/07/X600/default.htm","2","Bronx","718-993-5000","533","09,10,11,12,SE",," ","-1"," Engineering","333 EAST 151 STREET
Bronx, NY 10451
(40.818396, -73.920081)"
"10X237","10","The Marie Curie School for Medicine, Nursing, and Health Professions","Bronx","10463","Rodney Fisher","HS","High School","2.17","C","55.8","24.3","27","C","14.1","A","6.7","D","5.3","C","A","280","X237","Not Accessible","http://schools.nyc.gov/SchoolPortals/10/X237/default.htm","2","Bronx","718-432-6491","581","09,10,11,12,SE",," ","-1"," Health Professions","120 WEST 231 STREET
Bronx, NY 10463
(40.875627, -73.901568)"
"07X343","7","Academy of Applied Mathematics and Technology","Bronx","10454","Vincent Gassetto","EMS","Middle","2.1120999999999999","A","70.400000000000006","82.87","35.9","B","18.600000000000001","A","11.9","A",," ","A","2","X343"," ","http://schools.nyc.gov/SchoolPortals/07/X343/default.htm","2","Bronx","718-292-3883","285","06,07,08,SE",," ","0"," ","345 BROOK AVENUE
Bronx, NY 10454
(40.810068, -73.917768)"
"12X047","12","P.S. 047 John Randolph","Bronx","10472","Thomas Guarnieri","EMS","Elementary","58.125799999999998","D","33.299999999999997","6.39","11.1","F","9.8000000000000007","C","10.4","A",," ","C","385","X047","Not Accessible","http://schools.nyc.gov/SchoolPortals/12/X047/default.htm","2","Bronx","718-824-0950","1106","0K,01,02,03,04,05,SE",," ","0"," ","1794 EAST 172 STREET
Bronx, NY 10472
(40.832525, -73.866982)"
"07X495","7","University Heights Secondary School","Bronx","10455","Hazel Joseph Roseboro","HS","High School","2.79","A","70.2","65.5","40","A","12.3","B","8.3000000000000007","C","6","B","A","24","X495","Not Accessible","http://schools.nyc.gov/SchoolPortals/07/X495/default.htm","2","Bronx","718-292-0578","474","09,10,11,12,SE",,"http://www.UniversityHeightsHighSchool.org","-1"," Humanities & Interdisciplinary","701 ST. ANNS AVENUE
Bronx, NY 10455
(40.818023, -73.911633)"
"09X229","9","I.S. 229 Roland Patterson","Bronx","10453","Ezra Matthias","EMS","Middle","1.8077000000000001","B","62.6","68.78","38.9","B","12.1","C","7.2","C",," ","B","157","X229","Functionally Accessible","http://schools.nyc.gov/SchoolPortals/09/X229/default.htm","2","Bronx","718-583-6266","221","06,07,08,SE",," ","0"," ","275 HARLEM RIVER PARK BRIDGE
Bronx, NY 10453
(40.852392, -73.921127)"
"09X114","9","P.S. X114 - Luis Llorens Torres Schools","Bronx","10452","Olivia FrancisWebber","EMS","Elementary","66.055000000000007","B","54.7","52.46","34.5","B","8.6","D","7.8","B",," ","B","137","X114","Not Accessible","http://schools.nyc.gov/SchoolPortals/09/X114/default.htm","2","Bronx","718-681-7507","843","0K,01,02,03,04,05,SE",," ","0"," ","1155 CROMWELL AVENUE
Bronx, NY 10452
(40.835017, -73.923207)"
"12X271","12","East Bronx Academy for the Future","Bronx","10460","Sarah Scrogin","EMS","Middle","2.1","B","55.5","51.1","26.9","C","16.2","B","7.7","B",," ","B","412","X271","Functionally Accessible","http://schools.nyc.gov/SchoolPortals/12/X271/default.htm","2","Bronx","718-861-8641","636","06,07,08,09,10,11,12,SE",,"http://www.eastbronxacademy.org","-1"," Humanities & Interdisciplinary","1716 SOUTHERN BOULEVARD
Bronx, NY 10460
(40.83702, -73.887782)"
"10X205","10","P.S. 205 Fiorello Laguardia","Bronx","10458","Carol Rosado","EMS","Elementary","61.909500000000001","A","70","86.72","36.200000000000003","B","22.1","A","8.4","B",," ","A","217","X205","Not Accessible","http://schools.nyc.gov/SchoolPortals/10/X205/default.htm","2","Bronx","718-584-6390","1020","0K,01,02,03,04,05,SE",," ","0"," ","2475 SOUTHERN BOULEVARD
Bronx, NY 10458
(40.838631, -73.88693)"
"10X023","10","P.S. 023 The New Children's School","Bronx","10457","Shirley Torres","EC","K3","73.195099999999996","C","38.5","0","15.7","C","7.7","F","9.1999999999999993","B",," ","C","222","X023","Functionally Accessible","http://schools.nyc.gov/SchoolPortals/10/X023/default.htm","2","Bronx","718-584-3992","542","PK,0K,01,02,03,04,SE",," ","0"," ","2151 WASHINGTON AVENUE
Bronx, NY 10457
(40.853211, -73.894582)"
"12X428","12","Learning To Work Yabc At Monroe Academy","Bronx","10472","Carmel Belizaire","YABC","YABC","0","B","59.5","0","26.5","C","9.6999999999999993","C","12.1","A","4.7","D","C","0"," "," "," ","0"," "," ","0"," ",," ","0"," ","1300 Boynton Avenue
Bronx, NY 10472
(40.831291, -73.878833)"
"10X397","10","English Language Learners and International Support Preparatory Academy (ELLIS)","Bronx","10463","Norma Vega","HS","High School","1.39","C","49.8","14.1","19.8","F","5.0999999999999996","F","10.1","B","4.7","C"," ","209","X397"," ","http://schools.nyc.gov/SchoolPortals/10/X397/default.htm","2","Bronx","718-220-1889","310","09,10,11,12",," ","0"," ","99 TERRACE VIEW AVENUE
Bronx, NY 10463
(40.87707, -73.912617)"
"08X036","8","P.S. 036 Unionport","Bronx","10472","Elvira Maresca","EMS","Elementary","52.952100000000002","B","64.5","74.75","36.1","B","14.9","B","9.8000000000000007","A",," ","B","104","X036","Not Accessible","http://schools.nyc.gov/SchoolPortals/08/X036/default.htm","2","Bronx","718-822-5345","716","PK,0K,01,02,03,04,05,SE",," ","0"," ","1070 CASTLE HILL AVENUE
Bronx, NY 10472
(40.829446, -73.849749)"
"09X449","9","GRANT AVENUE ELEMENTARY SCHOOL","Bronx","10456","Kristin Erat","EC","K3","65.173299999999998","B","48.5","0","16.399999999999999","C","16.5","B","12.7","A",," ",".","151","X449"," ","http://schools.nyc.gov/SchoolPortals/09/X449/default.htm","2","Bronx","718-681-6288","372","0K,01,02,03,04,SE",," ","0"," ","250 EAST 164 STREET
Bronx, NY 10456
(40.828356, -73.917243)"
"10X319","10","Providing Urban Learners Success In Education High School","Bronx","10457","Carol Wiggins","HST","High School Transfer","1.05","B","61.9","0","35","B","8.1999999999999993","D","9.4","B","5.0999999999999996","C"," ","225","X319","Not Accessible","http://schools.nyc.gov/SchoolPortals/10/X319/default.htm","2","Bronx","718-294-0230","217","09,10,11,12,SE",," ","0"," ","560 EAST 179 STREET
Bronx, NY 10457
(40.848382, -73.893749)"
"08X107","8","P.S. 107","Bronx","10473","Katherine Hamm","EMS","Elementary","64.3947","C","41.3","18.36","28.5","C","3.5","F","5.5","C",," ","D","121","X107","Not Accessible","http://schools.nyc.gov/SchoolPortals/08/X107/default.htm","2","Bronx","718-860-2596","500","PK,0K,01,02,03,04,05,SE",," ","0"," ","1695 SEWARD AVENUE
Bronx, NY 10473
(40.81848, -73.868321)"
"09X543","9","High School for Violin and Dance","Bronx","10456","Franklin Sim","HS","High School","1.73","B","64.400000000000006","47.9","24.4","D","17.2","A","6.3","D","7.9","A","A","153","X543","Functionally Accessible","http://schools.nyc.gov/SchoolPortals/09/X543/default.htm","2","Bronx","718-842-0687","362","09,10,11,12,SE",,"http://www.hsvd.org","-1"," Performing Arts","1110 BOSTON ROAD
Bronx, NY 10456
(40.828015, -73.904023)"
"11X544","11","High School for Contemporary Arts","Bronx","10467","Francisco Sanchez","HS","High School","1.68","B","69.7","64.7","34.299999999999997","B","15.4","A","9.3000000000000007","B","4.8","C","A","315","X544","Functionally Accessible","http://schools.nyc.gov/SchoolPortals/11/X544/default.htm","2","Bronx","718-944-5610","509","09,10,11,12,SE",," ","-1"," Visual Art & Design","800 EAST GUN HILL ROAD
Bronx, NY 10467
(40.875163, -73.861653)"
"11X289","11","The Young Scholars Academy of The Bronx","Bronx","10467","Jeanette Vargas","EMS","Middle","2.2959000000000001","B","60.2","61.05","36.9","B","15.1","B","5.5","C",," ","C","365","X289","Not Accessible","http://schools.nyc.gov/SchoolPortals/11/X289/default.htm","2","Bronx","718-325-5834","330","06,07,08,SE",," ","0"," ","3710 BARNES AVENUE
Bronx, NY 10467
(40.880634, -73.860155)"
"08X519","8","Felisa Rincon de Gautier Institute for Law and Public Policy, The","Bronx","10473","Ms. Grismaldy LaboyWilson","HS","High School","1.68","C","51.8","16.399999999999999","24.9","D","11","C","7.7","C","3.4","F","C","117","X519","Functionally Accessible","http://schools.nyc.gov/SchoolPortals/08/X519/default.htm","2","Bronx","718-860-5110","370","09,10,11,12,SE",," ","-1"," Law & Government","1440 STORY AVENUE
Bronx, NY 10473
(40.821125, -73.881745)"
"09X263","9","Validus Preparatory Academy: An Expeditionary Learning School","Bronx","10457","Javier Fortiche Ocampo","HS","High School","1.99","B","58","29.9","27.7","C","12.3","B","9.1","B","4.3","D","A","201","X263","Functionally Accessible","http://schools.nyc.gov/SchoolPortals/09/X263/default.htm","2","Bronx","718-466-4000","389","09,10,11,12,SE",,"http://www.validusprep.org","-1"," Health Professions","1595 BATHGATE AVENUE
Bronx, NY 10457
(40.839491, -73.901765)"
"10X524","10","Crotona International High School","Bronx","10458","Jesseca Long","HS","High School","1.95"," ","0","0","0"," ","0"," ","0"," ",," "," ","220","X524"," ","http://schools.nyc.gov/SchoolPortals/10/X524/default.htm","2","Bronx","718-561-8701","145","09,10,SE",," ","-1"," Humanities & Interdisciplinary","2474 CROTONA AVENUE
Bronx, NY 10458
(40.856088, -73.882489)"
"09X055","9","P.S. 055 Benjamin Franklin","Bronx","10456","Luis Torres","EMS","Elementary","66.738299999999995","C","38.4","14.26","23.9","C","4.5999999999999996","F","6.3","C",," ","C","185","X055","Not Accessible","http://schools.nyc.gov/SchoolPortals/09/X055/default.htm","2","Bronx","718-681-6227","673","PK,0K,01,02,03,04,05,SE",," ","0"," ","450 SAINT PAUL'S PLACE
Bronx, NY 10456
(40.835911, -73.904993)"
"08X376","8","Antonia Pantoja Preparatory Academy, A College B","Bronx","10473","Nancy Jacqueline Diaz","EMS","Middle","2.4940000000000002","D","27.5","4.7","9.4","F","11.6","C","4","D",," ","C","0"," "," "," ","0"," "," ","0"," ",," ","0"," ","1980 Lafayette Ave
Bronx, NY 10473
(40.822326, -73.855957)"
"09X517","9","Frederick Douglass Academy III Secondary School","Bronx","10456","Rahesha Amon","EMS","Middle","2.4411999999999998"," ","0","0","0"," ","0"," ","0"," ",," ","C","149","X517","Not Accessible","http://schools.nyc.gov/SchoolPortals/09/X517/default.htm","2","Bronx","718-538-9726","465","08,09,10,11,12,SE",," ","-1"," Humanities & Interdisciplinary","3630 THIRD AVENUE
Bronx, NY 10456
(40.8341, -73.904078)"
"08X333","8","P.S. 333 - The Museum School","Bronx","10459","Arthur Brown","EMS","Elementary","71.247699999999995","C","41","17.87","21.9","C","11","C","5.7","C",," ","C","93","X333","Not Accessible","http://schools.nyc.gov/SchoolPortals/08/X333/default.htm","2","Bronx","718-860-3313","457","PK,0K,01,02,03,04,05,SE",," ","0"," ","888 REV J A POLITE AVE
Bronx, NY 10459
(40.820156, -73.898787)"
"07X031","7","P.S./M.S. 031 The William Lloyd Garrison","Bronx","10451","Liza Diaz","EMS","K8","64.260000000000005","C","41.2","15","19.899999999999999","D","10.6","C","7.9","B",," ","C","59","X031","Not Accessible","http://schools.nyc.gov/SchoolPortals/07/X031/default.htm","2","Bronx","718-292-4397","635","PK,0K,01,02,03,04,05,06,07,08,SE",," ","0"," ","250 EAST 156 STREET
Bronx, NY 10451
(40.823074, -73.921343)"
"12X550","12","High School of World Cultures","Bronx","10472","Ramon Namnun","HS","High School","1.99","B","59.2","32.799999999999997","24.5","D","13.1","B","9.6","B","4.0999999999999996","D","A","401","X550","Not Accessible","http://schools.nyc.gov/SchoolPortals/12/X550/default.htm","2","Bronx","718-860-8120","397","09,10,11,12",," ","0"," ","1300 BOYNTON AVENUE
Bronx, NY 10472
(40.831291, -73.878833)"
"08X366","8","Urban Assembly Academy of Civic Engagement","Bronx","10465","Cameron Berube","EMS","Middle","2.0960999999999999","D","31","6.91","8.5","F","13","B","6.2","C",," ","C","112","X366"," ","http://schools.nyc.gov/SchoolPortals/08/X366/default.htm","2","Bronx","718-822-0126","194","06,07,08,SE",," ","0"," ","650 HOLLYWOOD AVENUE
Bronx, NY 10465
(40.826777, -73.818075)"
"11X299","11","Astor Collegiate Academy","Bronx","10469","Sandra Burgos","HS","High School","1.87","B","58.3","31","29.5","C","12.1","B","7.7","C","4.5999999999999996","C","B","294","X299","Functionally Accessible","http://schools.nyc.gov/SchoolPortals/11/X299/default.htm","2","Bronx","718-944-3418","503","09,10,11,12,SE",,"http://www.astorcollegiateacademy.org","-1"," Science & Math","925 ASTOR AVENUE
Bronx, NY 10469
(40.85964, -73.860743)"
"12X384","12","Entrada Academy","Bronx","10459","Socorro Diaz","EMS","Middle","2.2808000000000002","C","45.1","24.59","22.9","C","9.4","C","8.9","B",," ","A","410","X384"," ","http://schools.nyc.gov/SchoolPortals/12/X384/default.htm","2","Bronx","718-378-1649","353","06,07,08,SE",," ","0"," ","977 FOX STREET
Bronx, NY 10459
(40.822371, -73.89386)"
"08X367","8","Archimedes Academy for Math, Science and Technology Applications","Bronx","10473","Miriam Lazar","HS","High School","1.92"," ","0","0","0"," ","0"," ","0"," ",," "," ","70","X367"," ","http://schools.nyc.gov/SchoolPortals/08/X367/default.htm","2","Bronx","718-617-5046","592","06,07,08,09,10,11,SE",,"http://www.archimedesacademy.org","-1"," Science & Math","456 WHITE PLAINS ROAD
Bronx, NY 10473
(40.815005, -73.856312)"
"07X500","7","Hostos-Lincoln Academy of Science","Bronx","10455","Nicholas Paarlberg","HS","High School","2.58","B","66.2","53.2","27.8","C","15.5","A","7.7","C","9.1999999999999993","A","B","18","X500","Partially Accessible","http://schools.nyc.gov/SchoolPortals/07/X500/default.htm","2","Bronx","718-402-5640","533","06,07,08,09,10,11,12,SE",," ","-1"," Health Professions","600 SAINT ANN'S AVENUE
Bronx, NY 10455
(40.814554, -73.912403)"
"10X437","10","Fordham High School for the Arts","Bronx","10458","Iris Blige","HS","High School","1.74","A","73.900000000000006","75.8","33.5","B","15.7","A","12.8","A","5.6","C","A","206","X437","Functionally Accessible","http://schools.nyc.gov/SchoolPortals/10/X437/default.htm","2","Bronx","718-733-4656","390","09,10,11,12,SE",," ","-1"," Performing Arts","500 EAST FORDHAM ROAD
Bronx, NY 10458
(40.859702, -73.887589)"
"10X243","10","West Bronx Academy for the Future","Bronx","10458","Wilper Morales","EMS","Middle","2.3454000000000002","D","25.2","3.59","3.4","F","12","C","6.8","C",," ","C","231","X243","Functionally Accessible","http://schools.nyc.gov/SchoolPortals/10/X243/default.htm","2","Bronx","718-563-7139","616","06,07,08,09,10,11,12,SE",,"http://www.westbronxacademy.org","-1"," Humanities & Interdisciplinary","500 EAST FORDHAM ROAD
Bronx, NY 10458
(40.859702, -73.887589)"
"09X276","9","Leadership Institute","Bronx","10457","Marta Colon","HS","High School","1.5","D","46","7.6","22.6","D","9.5","C","6.5","D","4.5999999999999996","C","D","170","X276","Not Accessible","http://schools.nyc.gov/SchoolPortals/09/X276/default.htm","2","Bronx","718-299-7490","243","09,10,11,12,SE",," ","-1"," Humanities & Interdisciplinary","1701 FULTON AVENUE
Bronx, NY 10457
(40.842105, -73.89747)"
"11X418","11","Bronx High School for the Visual Arts","Bronx","10462","G Jones","HS","High School","1.8","C","52.8","18.399999999999999","19.899999999999999","F","12.6","B","9.4","B","7.5","A","B","303","X418","Functionally Accessible","http://schools.nyc.gov/SchoolPortals/11/X418/default.htm","2","Bronx","718-319-5160","495","09,10,11,12,SE",,"http://www.bhsva.net","-1"," Visual Art & Design","2040 ANTIN PL
Bronx, NY 10462
(40.851697, -73.864674)"
"10X368","10","In-Tech Academy (M.S. / High School 368)","Bronx","10463","Yvette Allen","EMS","Middle","2.5144000000000002","B","51.9","41.71","26.8","C","14.6","B","7.1","C",," ","B","272","X368","Functionally Accessible","http://schools.nyc.gov/SchoolPortals/10/X368/default.htm","2","Bronx","718-432-4300","1091","06,07,08,09,10,11,12,SE",,"http://www.intech-academy.org","-1"," Computer Science & Technology","2975 TIBBETT AVENUE
Bronx, NY 10463
(40.879526, -73.909695)"
"07X655","7","Samuel Gompers Career and Technical Education High School","Bronx","10455","Joyce Mills Kittrell","HS","High School","1.1399999999999999"," ","0","0","0"," ","0"," ","0"," ",," ","C","37","X655","Functionally Accessible","http://schools.nyc.gov/SchoolPortals/07/X655/default.htm","2","Bronx","718-665-0950","429","09,10,11,12,SE",," ","0"," ","455 SOUTHERN BLVD
Bronx, NY 10455
(40.810462, -73.906773)"
"11X513","11","New World High School","Bronx","10466","Fausto Salazar","HS","High School","2.16","A","85.1","94.7","42.6","A","14.6","A","11.6","A","7.3","A","A","328","X513","Functionally Accessible","http://schools.nyc.gov/SchoolPortals/11/X513/default.htm","2","Bronx","718-696-3800","425","09,10,11,12,SE",," ","-1"," Humanities & Interdisciplinary","921 EAST 228TH STREET
Bronx, NY 10466
(40.887766, -73.852493)"
"12X214","12","P.S. 214","Bronx","10460","David Cintron","EMS","K8","59.395699999999998","B","63.5","73.13","35.5","B","14.4","B","8.6999999999999993","B",," ","B","420","X214","Partially Accessible","http://schools.nyc.gov/SchoolPortals/12/X214/default.htm","2","Bronx","718-589-6728","1004","PK,0K,01,02,03,04,05,06,07,08,SE",," ","0"," ","1970 WEST FARMS ROAD
Bronx, NY 10460
(40.839932, -73.880168)"
"11X180","11","M.S. 180 Dr. Daniel Hale Williams","Bronx","10475","Frank Uzzo","EMS","Middle","2.8329","C","50.1","35.64","23.7","C","15.5","B","9.4","B",," ","B","326","X180","Functionally Accessible","http://schools.nyc.gov/SchoolPortals/11/X180/default.htm","2","Bronx","718-904-5650","891","06,07,08,SE",," ","0"," ","700 BAYCHESTER AVENUE
Bronx, NY 10475
(40.873726, -73.83379)"
"09X443","9","THE FAMILY SCHOOL","Bronx","10456","Pamela Lee","EMS","Elementary","68.519800000000004","C","46.8","32.299999999999997","27.5","C","7.7","D","7.6","B",," ",".","165","X443"," ","http://schools.nyc.gov/SchoolPortals/09/X443/default.htm","2","Bronx","718-538-3266","541","0K,01,02,03,04,05,SE",," ","0"," ","1116 SHERIDAN AVENUE
Bronx, NY 10456
(40.832276, -73.917761)"
"10X342","10","International School for Liberal Arts","Bronx","10468","Migdalia Carrillo","HS","High School","2.17","A","70.3","66.2","37.700000000000003","B","9.8000000000000007","C","10.7","A","4.7","C","B","268","X342","Functionally Accessible","http://schools.nyc.gov/SchoolPortals/10/X342/default.htm","2","Bronx","718-329-8570","548","06,07,08,09,10,11,12,SE",," ","-1"," Humanities & Interdisciplinary","2780 RESERVOIR AVENUE
Bronx, NY 10468
(40.870638, -73.897705)"
"09X323","9","Bronx Writing Academy","Bronx","10456","Kamar Samuels","EMS","Middle","2.3399000000000001","C","50.6","37.020000000000003","33.6","B","9.4","C","4.2","D",," ","A","140","X323","Not Accessible","http://schools.nyc.gov/SchoolPortals/09/X323/default.htm","2","Bronx","718-293-9048","495","06,07,08,SE",," ","0"," ","270 EAST 167 STREET
Bronx, NY 10456
(40.833248, -73.91406)"
"12X684","12","Wings Academy","Bronx","10460","Wayne Cox","HS","High School","1.71","C","52.7","17.8","25.4","D","9.8000000000000007","C","8","C","5","C","B","379","X684","Functionally Accessible","http://schools.nyc.gov/SchoolPortals/12/X684/default.htm","2","Bronx","718-597-1751","553","09,10,11,12,SE",,"http://schools.nyc.gov/OurSchools/Region2/X684","-1"," Humanities & Interdisciplinary","1122 EAST 180 STREET
Bronx, NY 10460
(40.841638, -73.87519)"
"08X295","8","Gateway School for Environmental Research and Technology","Bronx","10473","Clifford Siegel","HS","High School","1.41"," ","0","0","0"," ","0"," ","0"," ",," ","B","119","X295","Functionally Accessible","http://schools.nyc.gov/SchoolPortals/08/X295/default.htm","2","Bronx","718-824-9327","329","09,10,11,12,SE",," ","0"," ","1980 LAFAYETTE AVENUE
Bronx, NY 10473
(40.822326, -73.855957)"
"07X157","7","P.S. 157 Grove Hill","Bronx","10456","Ramona Duran","EMS","Elementary","64.896699999999996","D","34.9","9.18","13.4","F","13.9","B","5.6","C",," ","B","30","X157","Not Accessible","http://schools.nyc.gov/SchoolPortals/07/X157/default.htm","2","Bronx","718-292-5255","681","PK,0K,01,02,03,04,05,06,SE",," ","0"," ","757 CAULDWELL AVENUE
Bronx, NY 10456
(40.818759, -73.908282)"
"07X551","7","The Urban Assembly Bronx Academy of Letters","Bronx","10451","Anna Hall","HS","High School","1.87","B","66.5","55.4","31.1","C","14.3","A","8.8000000000000007","B","7.8","A","A","31","X551","Functionally Accessible","http://schools.nyc.gov/SchoolPortals/07/X551/default.htm","2","Bronx","718-401-4891","572","06,07,08,09,10,11,12,SE",,"http://www.uabronxletters.org","-1"," Humanities & Interdisciplinary","339 MORRIS AVENUE
Bronx, NY 10451
(40.81366, -73.925999)"
"08X507","8","Stevenson Yabc","Bronx","10473","Gladys De La Cruz","YABC","YABC","0","C","46.9","0","22.9","D","2.2999999999999998","F","13.5","A","4.0999999999999996","D","F","0"," "," "," ","0"," "," ","0"," ",," ","0"," ","1980 Lafayette Ave
Bronx, NY 10473
(40.822326, -73.855957)"
"10X225","10","Theatre Arts Production Company School","Bronx","10457","Lynn Passarella","EMS","Middle","2.4047000000000001","C","45.9","25.69","20.2","D","16.2","B","6.9","C",," ","B","207","X225","Functionally Accessible","http://schools.nyc.gov/SchoolPortals/10/X225/default.htm","2","Bronx","718-584-0832","575","06,07,08,09,10,11,12,SE",,"http://www.tapconyc.org","-1"," Performing Arts","2225 WEBSTER AVENUE
Bronx, NY 10457
(40.854655, -73.897036)"
"07X179","7","P.S. 179","Bronx","10454","Sherry Font Williams","EMS","Elementary","67.783799999999999","A","64.8","75.41","35","B","14.3","B","10.199999999999999","A",," ","C","17","X179","Functionally Accessible","http://schools.nyc.gov/SchoolPortals/07/X179/default.htm","2","Bronx","718-292-2237","393","PK,0K,01,02,03,04,05,SE",," ","0"," ","468 EAST 140 STREET
Bronx, NY 10454
(40.809059, -73.919759)"
"07X547","7","New Explorers High School","Bronx","10451","Jacob Hobson","HS","High School","1.54","B","58.6","31.3","31.6","C","10.199999999999999","C","9.5","B","2.9","F","D","38","X547","Not Accessible","http://schools.nyc.gov/SchoolPortals/07/X547/default.htm","2","Bronx","718-292-4150","451","09,10,11,12,SE",,"http://www.newexplorers.org","-1"," Visual Art & Design","730 CONCOURSE VILLAGE WEST
Bronx, NY 10451
(40.822772, -73.923439)"
"12X212","12","P.S. 212","Bronx","10456","Donna Pickell Ridley","EMS","K8","63.004800000000003","C","45.4","27.5","22.5","C","10.6","C","9","B",," ","C","427","X212","Functionally Accessible","http://schools.nyc.gov/SchoolPortals/12/X212/default.htm","2","Bronx","718-842-2331","473","PK,0K,01,02,03,04,05,06,07,08,SE",," ","0"," ","1180 TINTON AVENUE
Bronx, NY 10456
(40.828593, -73.900507)"
"12X521","12","The Metropolitan Soundview High School","Bronx","10472","Michael Lanaghan","HS","High School","1.81"," ","0","0","0"," ","0"," ","0"," ",," "," ","402","X521"," ","http://schools.nyc.gov/SchoolPortals/12/X521/default.htm","2","Bronx","718-860-8240","206","09,10,SE",," ","-1"," Humanities & Interdisciplinary","1300 BOYNTON AVENUE
Bronx, NY 10472
(40.831291, -73.878833)"
"11X529","11","One World Middle School at Edenwald","Bronx","10466","Patricia Wynne","EMS","Middle","2.5487000000000002"," ","0","0","0"," ","0"," ","0"," ",," ",".","329","X529"," ","http://schools.nyc.gov/SchoolPortals/11/X529/default.htm","2","Bronx","718-515-6780","233","06,07,SE",," ","0"," ","3750 BAYCHESTER AVENUE
Bronx, NY 10466
(40.884467, -73.840309)"
"09X303","9","I.S. X303 Leadership & Community Service","Bronx","10453","Patricia Bentley","EMS","Middle","2.569","C","44.1","22.1","19.8","D","11.2","C","10.7","A",," ","C","161","X303","Not Accessible","http://schools.nyc.gov/SchoolPortals/09/X303/default.htm","2","Bronx","718-583-5466","337","06,07,08,SE",," ","0"," ","1700 MACOMBS ROAD
Bronx, NY 10453
(40.849726, -73.915756)"
"11X322","11","Aspire Preparatory Middle School","Bronx","10467","Steven Cobb","EMS","Middle","2.5021"," ","0","0","0"," ","0"," ","0"," ",," ","C","293","X322"," ","http://schools.nyc.gov/SchoolPortals/11/X322/default.htm","2","Bronx","718-231-6592","230","06,07,08,SE",," ","0"," ","2441 WALLACE AVENUE
Bronx, NY 10467
(40.86206, -73.864588)"
"10X032","10","P.S. 032 Belmont","Bronx","10458","Adalia Rosamilia","EMS","Elementary","65.9589","A","65.400000000000006","76.89","29.8","B","18.8","A","11.1","A",," ","A","227","X032","Not Accessible","http://schools.nyc.gov/SchoolPortals/10/X032/default.htm","2","Bronx","718-584-3645","784","0K,01,02,03,04,05,SE",," ","0"," ","690 EAST 183 STREET
Bronx, NY 10458
(40.852095, -73.885739)"
"12X262","12","Performance Conservatory High School","Bronx","10460","Eulynis Matthias Fridie","HS","High School","1.19"," ","0","0","0"," ","0"," ","0"," ",," ","F","426","X262","Not Accessible","http://schools.nyc.gov/SchoolPortals/12/X262/default.htm","2","Bronx","718-991-0860","151","09,10,11,12,SE",," ","0"," ","1619 BOSTON ROAD
Bronx, NY 10460
(40.835814, -73.891055)"
"08X119","8","P.S. 119","Bronx","10472","Lydia Tyner","EMS","Elementary","49.424700000000001","B","49.9","40","28.1","C","12.3","C","6.5","C",," ","C","97","X119","Not Accessible","http://schools.nyc.gov/SchoolPortals/08/X119/default.htm","2","Bronx","718-822-5198","1028","PK,0K,01,02,03,04,05,SE",," ","0"," ","1075 PUGSLEY AVENUE
Bronx, NY 10472
(40.828719, -73.856869)"
"11X016","11","P.S. 016 Wakefield","Bronx","10470","Yvonne Williams","EMS","Elementary","54.635100000000001","C","36.9","10.98","21.5","C","7.4","D","5.7","C",," ","C","330","X016","Not Accessible","http://schools.nyc.gov/SchoolPortals/11/X016/default.htm","2","Bronx","718-324-1262","564","PK,0K,01,02,03,04,05,SE",," ","0"," ","4550 CARPENTER AVENUE
Bronx, NY 10470
(40.902305, -73.854742)"
"10X331","10","The Bronx School of Science Inquiry and Investig","Bronx","10453","Serapha Cruz","EMS","Middle","2.2298","B","54.3","47.51","27.6","C","12.4","C","11","A",," ","B","0"," "," "," ","0"," "," ","0"," ",," ","0"," ","40 W Tremont Ave
Bronx, NY 10453
(40.851798, -73.910363)"
"11X068","11","P.S. 068 Bronx","Bronx","10466","Catherine Helfrich","EMS","Elementary","56.044199999999996","C","42.9","21.8","23.4","C","10.8","C","6.2","C",," ","B","334","X068","1st Floor Only Accessible","http://schools.nyc.gov/SchoolPortals/11/X068/default.htm","2","Bronx","718-324-2854","760","PK,0K,01,02,03,04,05,SE",," ","0"," ","4011 MONTICELLO AVENUE
Bronx, NY 10466
(40.891847, -73.838526)"
"09X324","9","Bronx Early College Academy for Teaching & Learn","Bronx","10456","Yvette Rivera","EMS","Middle","2.3321000000000001","D","36.1","9.94","19.8","D","10.9","C","3.2","F",," ","B","0"," "," "," ","0"," "," ","0"," ",," ","0"," ","250 E 164th St
Bronx, NY 10456
(40.828356, -73.917243)"
"11X541","11","Global Enterprise High School","Bronx","10469","Sandra Maldonado","HS","High School","1.66"," ","0","0","0"," ","0"," ","0"," ",," ","C","312","X541","Functionally Accessible","http://schools.nyc.gov/SchoolPortals/11/X541/default.htm","2","Bronx","718-944-3548","171","09,10,11,12,SE",," ","0"," ","925 ASTOR AVENUE
Bronx, NY 10469
(40.85964, -73.860743)"
"10X059","10","P.S. 059 The Community School of Technology","Bronx","10457","Sita Basu","EMS","Elementary","70.247399999999999","B","51.9","43.61","26.2","C","14.2","B","8.1999999999999993","B",," ","B","246","X059","Not Accessible","http://schools.nyc.gov/SchoolPortals/10/X059/default.htm","2","Bronx","718-584-4730","582","PK,0K,01,02,03,04,05,SE",," ","0"," ","2185 BATHGATE AVENUE
Bronx, NY 10457
(40.852729, -73.893571)"
"10X095","10","P.S. 095 Sheila Mencher","Bronx","10463","Serge Marshall Davis","EMS","K8","55.218899999999998","B","55.6","56.25","34.5","B","14.1","B","2.5","F",," ","B","242","X095","Not Accessible","http://schools.nyc.gov/SchoolPortals/10/X095/default.htm","2","Bronx","718-796-9200","1298","PK,0K,01,02,03,04,05,06,07,08,SE",," ","0"," ","3961 HILLMAN AVENUE
Bronx, NY 10463
(40.883022, -73.891672)"
"08X304","8","P.S. 304 Early Childhood School","Bronx","10465","Joseph Nobile","EMS","Elementary","31.617100000000001","B","59.6","63.61","25.2","C","21.4","A","10.9","A",," ","B","82","X304","Not Accessible","http://schools.nyc.gov/SchoolPortals/08/X304/default.htm","2","Bronx","718-822-5307","550","PK,0K,01,02,03,04,05,SE",," ","0"," ","2750 LAFAYETTE AVENUE
Bronx, NY 10465
(40.826958, -73.830804)"
"12X273","12","Frederick Douglass Academy V. Middle School","Bronx","10457","Deborah Cimini","EMS","Middle","2.3220999999999998","B","58.7","58.84","27.8","C","18.8","A","9.1","B",," ","B","403","X273","Not Accessible","http://schools.nyc.gov/SchoolPortals/12/X273/default.htm","2","Bronx","718-561-1617","254","06,07,08,SE",," ","0"," ","2111 CROTONA AVENUE
Bronx, NY 10457
(40.848616, -73.888445)"
"07X277","7","P.S. 277","Bronx","10455","Cheryl Tyler","EMS","Elementary","67.635000000000005","C","49.7","39.020000000000003","27.3","C","10.1","C","8.8000000000000007","B",," ","C","9","X277","Not Accessible","http://schools.nyc.gov/SchoolPortals/07/X277/default.htm","2","Bronx","718-292-3594","473","PK,0K,01,02,03,04,05,SE",," ","0"," ","519 ST ANNS AVENUE
Bronx, NY 10455
(40.81342, -73.913613)"
