"objectid","borough","type","provider","name","location","latitude","longitude","x","y","location_t","remarks","city","ssid","sourceid","activated","borocode","boroname","ntacode","ntaname","coundist","postcode","borocd","ct2010","bctcb2010","bin","bbl","doitt_id","geolocation"
"255","2","Free","NYPL","Mosholu","285 EAST 205 STREET","40.874379814","-73.8783843503","1017883.47176","257861.247122","Library",,"Bronx","NYPL",,,"2","Bronx","BX43","Norwood","11","10467","207","423","423","2018123","2033410076","330","(40.874379814, -73.8783843503)"
"8320","2","Free","LinkNYC - Citybridge","bx-01-146054","601 EAST 138 STREET","40.806385","-73.916245","1007436.49594","233075.875761","Outdoor Kiosk","Tablet Internet -phone , Free 1 GB Wi-FI Service","Bronx","LinkNYC Free Wi-Fi","LINK-020497","2018-07-11T00:00:00.000","2","Bronx","BX39","Mott Haven-Port Morris","8","10454","201","27","27","2003635","2025510070","4598","(40.806385, -73.916245)"
"8318","2","Free","LinkNYC - Citybridge","bx-01-146024","249 WILLIS AVENUE","40.809668","-73.922623","1005669.90761","234270.488858","Outdoor Kiosk","Tablet Internet -phone , Free 1 GB Wi-FI Service","Bronx","LinkNYC Free Wi-Fi","LINK-020495","2018-04-19T00:00:00.000","2","Bronx","BX39","Mott Haven-Port Morris","8","10454","201","39","39","2000591","2023010020","4596","(40.809668, -73.922623)"
"8332","2","Free","LinkNYC - Citybridge","bx-03-146043","871 BROOK AVENUE","40.822519","-73.91069","1008968.40134","238955.563805","Outdoor Kiosk","Tablet Internet -phone , Free 1 GB Wi-FI Service","Bronx","LinkNYC Free Wi-Fi","LINK-020598","2018-04-24T00:00:00.000","2","Bronx","BX35","Morrisania-Melrose","17","10451","203","141","141","2001203","2023650030","4610","(40.822519, -73.91069)"
"7991","2","Free","LinkNYC - Citybridge","bx-05-119638","2493 VALENTINE AVENUE","40.862051","-73.896079","1012995.37786","253363.073704","Outdoor Kiosk","Tablet Internet -phone , Free 1 GB Wi-FI Service","Bronx","LinkNYC Free Wi-Fi","LINK-013196","2018-06-25T00:00:00.000","2","Bronx","BX05","Bedford Park-Fordham North","15","10458","205","237","237","2013601","2031530020","4269","(40.862051, -73.896079)"
"8323","2","Free","LinkNYC - Citybridge","bx-01-146056","520 BROOK AVENUE","40.814394","-73.915181","1007728.42022","235994.240988","Outdoor Kiosk","Tablet Internet -phone , Free 1 GB Wi-FI Service","Bronx","LinkNYC Free Wi-Fi","LINK-020513","2018-05-31T00:00:00.000","2","Bronx","BX39","Mott Haven-Port Morris","8","10455","201","43","43","2000118","2022750000","4601","(40.814394, -73.915181)"
"8333","2","Free","LinkNYC - Citybridge","bx-01-146065","844 ST ANNS AVENUE","40.822338","-73.909427","1009317.93312","238890.024566","Outdoor Kiosk","Tablet Internet -phone , Free 1 GB Wi-FI Service","Bronx","LinkNYC Free Wi-Fi","LINK-020599","2018-04-19T00:00:00.000","2","Bronx","BX34","Melrose South-Mott Haven North","17","10456","201","71","71","2004358","2026190010","4611","(40.822338, -73.909427)"
"7834","2","Free","LinkNYC - Citybridge","bx-01-138788","426 WILLIS AVENUE","40.813367","-73.919625","1006498.60641","235618.842788","Outdoor Kiosk","Tablet Internet -phone , Free 1 GB Wi-FI Service","Bronx","LinkNYC Free Wi-Fi","LINK-012130","2018-04-13T00:00:00.000","2","Bronx","BX39","Mott Haven-Port Morris","8","10454","201","43","43","2098220","2022890000","4112","(40.813367, -73.919625)"
"8321","2","Free","LinkNYC - Citybridge","bx-01-146045","563 ST ANNS AVENUE","40.814471","-73.912954","1008344.64799","236022.766521","Outdoor Kiosk","Tablet Internet -phone , Free 1 GB Wi-FI Service","Bronx","LinkNYC Free Wi-Fi","LINK-020504","2018-06-25T00:00:00.000","2","Bronx","BX34","Melrose South-Mott Haven North","17","10455","201","71","71","2000000","2022760000","4599","(40.814471, -73.912954)"
"7837","2","Free","LinkNYC - Citybridge","bx-01-131467","436 BROOK AVENUE","40.812163","-73.916467","1007373.16339","235180.898782","Outdoor Kiosk","Tablet Internet -phone , Free 1 GB Wi-FI Service","Bronx","LinkNYC Free Wi-Fi","LINK-012172","2018-05-31T00:00:00.000","2","Bronx","BX39","Mott Haven-Port Morris","8","10454","201","43","43","2090996","2022710010","4115","(40.812163, -73.916467)"
"8326","2","Free","LinkNYC - Citybridge","bx-01-146023","374 WILLIS AVENUE","40.812127","-73.920552","1006242.21486","235166.68326","Outdoor Kiosk","Tablet Internet -phone , Free 1 GB Wi-FI Service","Bronx","LinkNYC Free Wi-Fi","LINK-020565","2018-04-19T00:00:00.000","2","Bronx","BX39","Mott Haven-Port Morris","8","10454","201","41","41","2103815","2022870010","4604","(40.812127, -73.920552)"
"8322","2","Free","LinkNYC - Citybridge","bx-01-146053","211 ST ANN'S AVENUE","40.806287","-73.917955","1006963.18225","233039.646503","Outdoor Kiosk","Tablet Internet -phone , Free 1 GB Wi-FI Service","Bronx","LinkNYC Free Wi-Fi","LINK-020509","2018-07-02T00:00:00.000","2","Bronx","BX39","Mott Haven-Port Morris","8","10454","201","25","25","2000051","2022650050","4600","(40.806287, -73.917955)"
"8334","2","Free","LinkNYC - Citybridge","bx-01-146049","289 MORRIS AVENUE","40.812079","-73.92659","1004571.06761","235147.863415","Outdoor Kiosk","Tablet Internet -phone , Free 1 GB Wi-FI Service","Bronx","LinkNYC Free Wi-Fi","LINK-020603","2018-07-02T00:00:00.000","2","Bronx","BX39","Mott Haven-Port Morris","8","10451","201","51","51","2000953","2023330030","4612","(40.812079, -73.92659)"
"7803","2","Free","LinkNYC - Citybridge","bx-01-144892","442 WILLIS AVENUE","40.813575","-73.919491","1006535.50725","235694.669408","Outdoor Kiosk","Tablet Internet -phone , Free 1 GB Wi-FI Service","Bronx","LinkNYC Free Wi-Fi","LINK-011709","2018-04-20T00:00:00.000","2","Bronx","BX39","Mott Haven-Port Morris","8","10455","201","43","43","2000498","2022900000","4081","(40.813575, -73.919491)"
"7704","2","Free","LinkNYC - Citybridge","bx-01-117230","256 ST ANNS AVENUE","40.807378","-73.917","1007227.12103","233437.34059","Outdoor Kiosk","Tablet Internet -phone , Free 1 GB Wi-FI Service","Bronx","LinkNYC Free Wi-Fi","LINK-011029","2018-07-02T00:00:00.000","2","Bronx","BX39","Mott Haven-Port Morris","8","10454","201","27","27","2003623","2025510000","3982","(40.807378, -73.917)"
"8330","2","Free","LinkNYC - Citybridge","bx-01-146066","610 MELROSE AVE","40.81738","-73.917078","1007202.15782","237081.516372","Outdoor Kiosk","Tablet Internet -phone , Free 1 GB Wi-FI Service","Bronx","LinkNYC Free Wi-Fi","LINK-020595","2018-04-30T00:00:00.000","2","Bronx","BX34","Melrose South-Mott Haven North","17","10455","201","65","65","2097082","2023740010","4608","(40.81738, -73.917078)"
"8329","2","Free","LinkNYC - Citybridge","bx-01-146044","3125 3 AVENUE","40.822022","-73.911953","1008619.18222","238774.282016","Outdoor Kiosk","Tablet Internet -phone , Free 1 GB Wi-FI Service","Bronx","LinkNYC Free Wi-Fi","LINK-020576","2018-04-19T00:00:00.000","2","Bronx","BX34","Melrose South-Mott Haven North","17","10451","201","69","69","2000000","2023800050","4607","(40.822022, -73.911953)"
"8335","2","Free","LinkNYC - Citybridge","bx-01-146046","301 MORRIS AVENUE","40.812557","-73.926244","1004666.69767","235322.293185","Outdoor Kiosk","Tablet Internet -phone , Free 1 GB Wi-FI Service","Bronx","LinkNYC Free Wi-Fi","LINK-020604","2018-07-02T00:00:00.000","2","Bronx","BX39","Mott Haven-Port Morris","8","10451","201","51","51","2000956","2023330050","4613","(40.812557, -73.926244)"
"8324","2","Free","LinkNYC - Citybridge","bx-01-146055","468 BROOK AVENUE","40.812841","-73.916074","1007481.58181","235428.091201","Outdoor Kiosk","Tablet Internet -phone , Free 1 GB Wi-FI Service","Bronx","LinkNYC Free Wi-Fi","LINK-020515","2018-05-31T00:00:00.000","2","Bronx","BX39","Mott Haven-Port Morris","8","10455","201","43","43","2090711","2022720010","4602","(40.812841, -73.916074)"
"8162","2","Free","LinkNYC - Citybridge","bx-04-119152","117 E 167th ST","40.834904","-73.918226","1006878.50526","243465.96817","Outdoor Kiosk","Tablet Internet -phone , Free 1 GB Wi-FI Service","Bronx","LinkNYC Free Wi-Fi","LINK-014613","2018-07-02T00:00:00.000","2","Bronx","BX63","West Concourse","16","10452","204","197","197","2002855","2024650050","4440","(40.834904, -73.918226)"
"7587","2","Free","LinkNYC - Citybridge","bx-01-116238","460 WILLIS AVENUE","40.813998","-73.919171","1006623.90242","235848.679271","Outdoor Kiosk","Tablet Internet -phone , Free 1 GB Wi-FI Service","Bronx","LinkNYC Free Wi-Fi","LINK-010332","2018-04-13T00:00:00.000","2","Bronx","BX39","Mott Haven-Port Morris","8","10455","201","43","43","2115556","2022900010","3865","(40.813998, -73.919171)"
"7602","2","Free","LinkNYC - Citybridge","bx-01-111740","652A MELROSE AVENUE","40.818769","-73.91645","1007375.57906","237587.690229","Outdoor Kiosk","Tablet Internet -phone , Free 1 GB Wi-FI Service","Bronx","LinkNYC Free Wi-Fi","LINK-010368","2018-04-20T00:00:00.000","2","Bronx","BX34","Melrose South-Mott Haven North","17","10455","201","67","67","2001356","2023740070","3880","(40.818769, -73.91645)"
"7835","2","Free","LinkNYC - Citybridge","bx-01-138789","312 WILLIS AVENUE","40.810896","-73.921434","1005998.55787","234718.294065","Outdoor Kiosk","Tablet Internet -phone , Free 1 GB Wi-FI Service","Bronx","LinkNYC Free Wi-Fi","LINK-012132","2018-04-20T00:00:00.000","2","Bronx","BX39","Mott Haven-Port Morris","8","10454","201","39","39","2000335","2022850010","4113","(40.810896, -73.921434)"
"8325","2","Free","LinkNYC - Citybridge","bx-01-146060","530 EAST 138 STREET","40.807108","-73.918343","1006855.53778","233338.715459","Outdoor Kiosk","Tablet Internet -phone , Free 1 GB Wi-FI Service","Bronx","LinkNYC Free Wi-Fi","LINK-020548","2018-07-11T00:00:00.000","2","Bronx","BX39","Mott Haven-Port Morris","8","10454","201","25","25","2000040","2022650040","4603","(40.807108, -73.918343)"
"722","2","Limited Free","ALTICEUSA","Macombs Dam Park","PARKING STRUCTURE 3FLR NORTH FACING ON OUTSIDE ( FIRST RADIO IN FROM RIVER ST)","40.825696","-73.927311","1004367.26258","240108.882365","Outdoor","3 free 10 min sessions","Bronx","GuestWiFi",,,"2","Bronx","BX63","West Concourse","8","10451","204","63","63","0","0","218","(40.825696, -73.927311)"
"728","2","Limited Free","ALTICEUSA","Macombs Dam Park","DOT POLE 2 POLES NORTH OF 158 ST ( WEST SIDE OF STREET)","40.82707","-73.926461","1004602.08658","240609.676967","Outdoor","3 free 10 min sessions","Bronx","GuestWiFi",,,"2","Bronx","BX63","West Concourse","16","10451","204","63","63","0","0","224","(40.82707, -73.926461)"
"10","2","Limited Free","ALTICEUSA","Pelham Bay Park","IN PARK POLE 4/P/N/O  STADIUM AV","40.849233","-73.82105","1033758.29762","248726.510143","Outdoor","3 free 10 min sessions","Bronx","GuestWiFi",,,"2","Bronx","BX99","park-cemetery-etc-Bronx","13","10465","228","276","276","0","2043350001","878","(40.849233, -73.82105)"
"6767","2","Free","LinkNYC - Citybridge","bx-05-116218","2461 WEBSTER AVENUE","40.860215","-73.893059","1013831.29844","252695.040263","Outdoor Kiosk","Tablet Internet -phone , Free 1 GB Wi-FI Service","Bronx","LinkNYC Free Wi-Fi","LINK-000067","2016-05-25T00:00:00.000","2","Bronx","BX05","Bedford Park-Fordham North","15","10458","205","399","399","2011078","2030260060","3045","(40.860215, -73.893059)"
"8159","2","Free","LinkNYC - Citybridge","bx-05-119631","1876 JEROME AVENUE","40.849486","-73.910931","1008891.74401","248780.646189","Outdoor Kiosk","Tablet Internet -phone , Free 1 GB Wi-FI Service","Bronx","LinkNYC Free Wi-Fi","LINK-014609","2017-07-13T00:00:00.000","2","Bronx","BX41","Mount Hope","14","10453","205","233","233","2008231","2028520000","4437","(40.849486, -73.910931)"
"1423","2","Limited Free","ALTICEUSA","Crotona Park","CROTONA PARK C/O EAST 173RD ST AND FULTON AVE","40.840664","-73.898372","1012370.03233","245570.243161","Outdoor","3 free 10 min sessions","Bronx","GuestWiFi",,,"2","Bronx","BX01","Claremont-Bathgate","16","10457","203","167","167","0","0","1285","(40.840664, -73.898372)"
"2534","2","Free","Transit Wireless","3 Av-149 St (2,5)","149th St - 3rd Ave","40.816109","-73.917757","1007014.68707","236618.331275","Subway Station","SN 434","Bronx","TransitWirelessWiFi",,,"2","Bronx","BX34","Melrose South-Mott Haven North","17","10455","201","65","65","0","0","1649","(40.816109, -73.917757)"
"1361","2","Limited Free","ALTICEUSA","Bronx Park","NYC Parks Bronx Headquarters","40.85398","-73.870472","1020082.66422","250431.946036","Outdoor","3 free 10 min sessions","Bronx","GuestWiFi",,,"2","Bronx","BX99","park-cemetery-etc-Bronx","15","10462","227","334","334","0","2043330001","1220","(40.85398, -73.870472)"
"2232","2","Free","Transit Wireless","IND - Bedford Park Blvd - Grand Concourse (B) (D)","Bedford Park Blvd - Grand Concourse","40.873244","-73.887138","1015463.13671","257444.185621","Subway Station","SN 211","Bronx","TransitWirelessWiFi",,,"2","Bronx","BX05","Bedford Park-Fordham North","11","10458","207","413","413","0","0","1636","(40.873244, -73.887138)"
"2234","2","Free","Transit Wireless","IND - 170th Street - Grand Concourse (D)","170th Street - Grand Concourse","40.839306","-73.9134","1008212.33986","245071.005643","Subway Station","SN 217","Bronx","TransitWirelessWiFi",,,"2","Bronx","BX14","East Concourse-Concourse Village","14","10456","204","225","225","0","0","1638","(40.839306, -73.9134)"
"9390","2","Free","LinkNYC - Citybridge","bx-01-123210","660 WESTCHESTER AVENUE","40.815998","-73.908242","1009648.40229","236580.399997","Outdoor Kiosk","Tablet Internet -phone , Free 1 GB Wi-FI Service","Bronx","LinkNYC Free Wi-Fi","LINK-013042","2018-06-26T00:00:00.000","2","Bronx","BX34","Melrose South-Mott Haven North","8","10455","201","73","73","2004431","2026230200","4893","(40.815998, -73.908242)"
"1422","2","Limited Free","ALTICEUSA","Crotona Park","CROTONA PARK-CROTONA AV 5/P/S/O CROTONA PARK NORTH","40.840526","-73.895168","1013256.62537","245521.009336","Outdoor","3 free 10 min sessions","Bronx","GuestWiFi",,,"2","Bronx","BX99","park-cemetery-etc-Bronx","17","10457","203","163","163","0","0","1284","(40.840526, -73.895168)"
"305","2","Free","NYPL","Soundview","660 SOUNDVIEW AVENUE","40.8187093522","-73.8628899561","1022200.27514","237584.746993","Library",,"Bronx","NYPL",,,"2","Bronx","BX09","Soundview-Castle Hill-Clason Point-Harding Park","18","10473","209","20","20","2021838","2035580014","386","(40.8187093522, -73.8628899561)"
"6771","2","Free","LinkNYC - Citybridge","bx-05-119628","2366-2370 Grand Concourse","40.859154","-73.898553","1012312.26243","252306.68835","Outdoor Kiosk","Tablet Internet -phone , Free 1 GB Wi-FI Service","Bronx","LinkNYC Free Wi-Fi","LINK-000076","2016-07-15T00:00:00.000","2","Bronx","BX40","Fordham South","15","10458","205","383","383","2013738","2031590040","3049","(40.859154, -73.898553)"
"7582","2","Free","LinkNYC - Citybridge","bx-05-113539","70 WEST BURNSIDE AVENUE","40.854346","-73.910218","1009087.21737","250551.609839","Outdoor Kiosk","Tablet Internet -phone , Free 1 GB Wi-FI Service","Bronx","LinkNYC Free Wi-Fi","LINK-010287","2017-01-17T00:00:00.000","2","Bronx","BX36","University Heights-Morris Heights","14","10453","205","243","243","2008556","2028680140","3860","(40.854346, -73.910218)"
"7815","2","Free","LinkNYC - Citybridge","bx-06-119390","426 EAST TREMONT AVENUE","40.847406","-73.899948","1011931.05781","248026.070927","Outdoor Kiosk","Tablet Internet -phone , Free 1 GB Wi-FI Service","Bronx","LinkNYC Free Wi-Fi","LINK-011851","2018-01-12T00:00:00.000","2","Bronx","BX41","Mount Hope","15","10457","206","231","231","2009458","2029000070","4093","(40.847406, -73.899948)"
"7817","2","Free","LinkNYC - Citybridge","bx-05-123186","1846 JEROME AVENUE","40.84873","-73.91147","1008742.9031","248505.055533","Outdoor Kiosk","Tablet Internet -phone , Free 1 GB Wi-FI Service","Bronx","LinkNYC Free Wi-Fi","LINK-011874","2017-07-13T00:00:00.000","2","Bronx","BX41","Mount Hope","14","10453","205","233","233","2008218","2028510000","4095","(40.84873, -73.91147)"
"9296","2","Free","LinkNYC - Citybridge","bx-05-146095","1750 JEROME AVENUE","40.8478","-73.912137","1008558.72895","248165.875433","Outdoor Kiosk","Tablet Internet -phone , Free 1 GB Wi-FI Service","Bronx","LinkNYC Free Wi-Fi","LINK-019313","2018-07-13T00:00:00.000","2","Bronx","BX41","Mount Hope","14","10453","205","22701","22701","2008207","2028500000","4799","(40.8478, -73.912137)"
"7230","2","Free","LinkNYC - Citybridge","bx-05-102420","126 EAST 183 STREET","40.857756","-73.901091","1011610.66574","251796.642126","Outdoor Kiosk","Tablet Internet -phone , Free 1 GB Wi-FI Service","Bronx","LinkNYC Free Wi-Fi","LINK-001365","2016-06-29T00:00:00.000","2","Bronx","BX40","Fordham South","14","10453","205","237","237","2013867","2031710020","3508","(40.857756, -73.901091)"
"2113","2","Free","NYPL","Francis Martin","2150 UNIVERSITY AVENUE","40.8574218942","-73.9093163503","1009335.45802","251672.452413","Library",,"Bronx","NYPL",,,"2","Bronx","BX36","University Heights-Morris Heights","14","10453","205","251","251","2014579","2032110005","379","(40.8574218942, -73.9093163503)"
"9384","2","Free","LinkNYC - Citybridge","bx-01-142736","613 WESTCHESTER AVENUE","40.816188","-73.909917","1009184.85997","236649.324897","Outdoor Kiosk","Tablet Internet -phone , Free 1 GB Wi-FI Service","Bronx","LinkNYC Free Wi-Fi","LINK-014393","2018-06-26T00:00:00.000","2","Bronx","BX34","Melrose South-Mott Haven North","17","10455","201","75","75","2115751","2026240090","4887","(40.816188, -73.909917)"
"8258","2","Free","LinkNYC - Citybridge","bx-01-145842","261 WALTON AVENUE","40.81431","-73.930217","1003566.30847","235959.898537","Outdoor Kiosk","Tablet Internet -phone , Free 1 GB Wi-FI Service","Bronx","LinkNYC Free Wi-Fi","LINK-018223","2017-06-28T00:00:00.000","2","Bronx","BX63","West Concourse","8","10451","201","63","63","2001024","2023440060","4536","(40.81431, -73.930217)"
"2229","2","Free","Transit Wireless","IRT - Longwood Av (6)","Longwood Av (6)","40.816104","-73.896435","1012916.57094","236622.76893","Subway Station","SN 372","Bronx","TransitWirelessWiFi",,,"2","Bronx","BX33","Longwood","8","10455","202","85","85","0","0","1633","(40.816104, -73.896435)"
"8279","2","Free","LinkNYC - Citybridge","bx-08-145850","119 WEST KINGSBRIDGE ROAD","40.868698","-73.902101","1011326.84708","255783.100032","Outdoor Kiosk","Tablet Internet -phone , Free 1 GB Wi-FI Service","Bronx","LinkNYC Free Wi-Fi","LINK-018402","2017-08-01T00:00:00.000","2","Bronx","BX28","Van Cortlandt Village","14","10468","208","267","267","2015261","2032480060","4557","(40.868698, -73.902101)"
"2106","2","Limited Free","ALTICEUSA","Crotona Park","INSIDE PARK, WEST OF CHARLOTTE ST (BESIDE FLAG POLE)","40.836972","-73.89377","1013645.01666","244226.621505","Outdoor","3 free 10 min sessions","Bronx","GuestWiFi",,,"2","Bronx","BX99","park-cemetery-etc-Bronx","17","10457","203","163","163","0","2029420001","1270","(40.836972, -73.89377)"
"8257","2","Free","LinkNYC - Citybridge","bx-01-145841","301 WALTON AVENUE","40.815039","-73.929885","1003657.89293","236225.685407","Outdoor Kiosk","Tablet Internet -phone , Free 1 GB Wi-FI Service","Bronx","LinkNYC Free Wi-Fi","LINK-018222","2017-06-28T00:00:00.000","2","Bronx","BX63","West Concourse","8","10451","201","63","63","2001025","2023440080","4535","(40.815039, -73.929885)"
"7674","2","Free","LinkNYC - Citybridge","bx-01-116415","522 MORRIS AVENUE","40.816751","-73.922955","1005575.73883","236851.04308","Outdoor Kiosk","Tablet Internet -phone , Free 1 GB Wi-FI Service","Bronx","LinkNYC Free Wi-Fi","LINK-010890","2017-03-06T00:00:00.000","2","Bronx","BX34","Melrose South-Mott Haven North","17","10451","201","65","65","2091151","2023300000","3952","(40.816751, -73.922955)"
"7310","2","Free","LinkNYC - Citybridge","bx-07-119874","56 WEST KINGSBRIDGE ROAD","40.867829","-73.899576","1012025.62751","255466.996005","Outdoor Kiosk","Tablet Internet -phone , Free 1 GB Wi-FI Service","Bronx","LinkNYC Free Wi-Fi","LINK-001774","2016-07-19T00:00:00.000","2","Bronx","BX30","Kingsbridge Heights","14","10468","207","265","265","2014680","2032150030","3588","(40.867829, -73.899576)"
"7781","2","Free","LinkNYC - Citybridge","bx-01-123217","2991 3 AVENUE","40.81886","-73.914242","1007986.52272","237621.682943","Outdoor Kiosk","Tablet Internet -phone , Free 1 GB Wi-FI Service","Bronx","LinkNYC Free Wi-Fi","LINK-011461","2017-03-06T00:00:00.000","2","Bronx","BX34","Melrose South-Mott Haven North","17","10455","201","67","67","2089847","2023750040","4059","(40.81886, -73.914242)"
"9","2","Limited Free","ALTICEUSA","Pelham Bay Park","MIDDLETOWN RD   1/P/W/O STADIUM AV","40.848322","-73.82075","1033841.97462","248394.769008","Outdoor","3 free 10 min sessions","Bronx","GuestWiFi",,,"2","Bronx","BX10","Pelham Bay-Country Club-City Island","13","10465","210","27401","27401","0","0","877","(40.848322, -73.82075)"
"1592","2","Limited Free","ALTICEUSA","Crotona Park","CROTONA PARK-C/O PROSPECT AVE AND CROTONA PARK N","40.8412","-73.8919","1014160.56517","245767.671572","Outdoor","3 free 10 min sessions","Bronx","GuestWiFi",,,"2","Bronx","BX17","East Tremont","17","10460","206","367","367","0","0","1288","(40.8412, -73.8919)"
"7612","2","Free","LinkNYC - Citybridge","bx-01-109413","2939 3 AVENUE","40.817926","-73.915262","1007704.65157","237281.056656","Outdoor Kiosk","Tablet Internet -phone , Free 1 GB Wi-FI Service","Bronx","LinkNYC Free Wi-Fi","LINK-010460","2016-12-22T00:00:00.000","2","Bronx","BX34","Melrose South-Mott Haven North","17","10455","201","67","67","2001360","2023740090","3890","(40.817926, -73.915262)"
"7455","2","Free","LinkNYC - Citybridge","bx-04-113552","875 GERARD AVENUE","40.827825","-73.924833","1005052.45838","240885.027794","Outdoor Kiosk","Tablet Internet -phone , Free 1 GB Wi-FI Service","Bronx","LinkNYC Free Wi-Fi","LINK-005430","2016-07-15T00:00:00.000","2","Bronx","BX63","West Concourse","8","10452","204","195","195","2002991","2024840040","3733","(40.827825, -73.924833)"
"7962","2","Free","LinkNYC - Citybridge","bx-01-123208","2883 3 AVENUE","40.816692","-73.916719","1007301.78197","236831.119563","Outdoor Kiosk","Tablet Internet -phone , Free 1 GB Wi-FI Service","Bronx","LinkNYC Free Wi-Fi","LINK-012921","2017-10-26T00:00:00.000","2","Bronx","BX34","Melrose South-Mott Haven North","17","10455","201","65","65","2001336","2023740000","4240","(40.816692, -73.916719)"
"7459","2","Free","LinkNYC - Citybridge","bx-07-145689","60 EAST KINGSBRIDGE ROAD","40.866588","-73.895654","1013110.91733","255016.32335","Outdoor Kiosk","Tablet Internet -phone , Free 1 GB Wi-FI Service","Bronx","LinkNYC Free Wi-Fi","LINK-005582","2016-11-11T00:00:00.000","2","Bronx","BX05","Bedford Park-Fordham North","14","10468","207","401","401","2094669","2031770030","3737","(40.866588, -73.895654)"
"6774","2","Free","LinkNYC - Citybridge","bx-07-119793","385 EAST FORDHAM ROAD","40.861993","-73.89183","1014170.58975","253343.488441","Outdoor Kiosk","Tablet Internet -phone , Free 1 GB Wi-FI Service","Bronx","LinkNYC Free Wi-Fi","LINK-000090","2017-06-21T00:00:00.000","2","Bronx","BX05","Bedford Park-Fordham North","15","10458","207","399","399","2016327","2032750070","3052","(40.861993, -73.89183)"
"8328","2","Free","LinkNYC - Citybridge","BX-01-GF22143","776 MELROSE AVE","40.822112","-73.914849","1007817.46762","238806.202227","Outdoor Kiosk","Tablet Internet -phone , Free 1 GB Wi-FI Service","Bronx","LinkNYC Free Wi-Fi","LINK-020572","9999-09-09T00:00:00.000","2","Bronx","BX34","Melrose South-Mott Haven North","17","10451","201","69","69","2114613","2023790010","4606","(40.822112, -73.914849)"
"8256","2","Free","LinkNYC - Citybridge","bx-01-145820","140 EAST 144 STREET","40.816752","-73.929243","1003835.24035","236849.692689","Outdoor Kiosk","Tablet Internet -phone , Free 1 GB Wi-FI Service","Bronx","LinkNYC Free Wi-Fi","LINK-018221","2017-07-20T00:00:00.000","2","Bronx","BX63","West Concourse","8","10451","201","63","63","2000000","2023450030","4534","(40.816752, -73.929243)"
"52","2","Limited Free","ALTICEUSA","St. Mary's Park","Lobby  Drop ceiling","40.811544","-73.914138","1008018.04858","234956.100347","Indoor","3 free 10 min sessions","Bronx","GuestWiFi",,,"2","Bronx","BX39","Mott Haven-Port Morris","8","10454","201","37","37","2003692","2025570001","922","(40.811544, -73.914138)"
"8254","2","Free","LinkNYC - Citybridge","bx-01-145916","197 LINCOLN AVENUE","40.810159","-73.927886","1004212.79536","234447.903857","Outdoor Kiosk","Tablet Internet -phone , Free 1 GB Wi-FI Service","Bronx","LinkNYC Free Wi-Fi","LINK-018218","2018-02-22T00:00:00.000","2","Bronx","BX39","Mott Haven-Port Morris","8","10451","201","51","51","2000780","2023180020","4532","(40.810159, -73.927886)"
"7457","2","Free","LinkNYC - Citybridge","bx-07-145924","82 WEST KINGSBRIDGE ROAD","40.8681","-73.900706","1011712.92735","255565.586687","Outdoor Kiosk","Tablet Internet -phone , Free 1 GB Wi-FI Service","Bronx","LinkNYC Free Wi-Fi","LINK-005578","2018-01-22T00:00:00.000","2","Bronx","BX30","Kingsbridge Heights","14","10468","207","265","265","2014676","2032150020","3735","(40.8681, -73.900706)"
"844","2","Limited Free","ALTICEUSA","Owen F. Dolen Park","LOBBY REC ROOM CEILING MOUNT","40.840672","-73.842602","1027801.33382","245595.973097","Indoor","3 free 10 min sessions","Bronx","GuestWiFi",,,"2","Bronx","BX37","Van Nest-Morris Park-Westchester Square","13","10461","210","200","200","2041875","2039840100","851","(40.840672, -73.842602)"
"375","2","Free","NYPL","Clason's Point","1215 MORRISON AVENUE","40.8299928753","-73.8750206002","1018836.80778","241690.718112","Library",,"Bronx","NYPL",,,"2","Bronx","BX08","West Farms-Bronx River","18","10472","209","62","62","2025381","2037770062","460","(40.8299928753, -73.8750206002)"
"39","2","Limited Free","ALTICEUSA","Seton Falls Park","PRATT AV 2/P/S/O SETON AV","40.886622","-73.83497","1029881.53176","262341.201417","Outdoor","3 free 10 min sessions","Bronx","GuestWiFi",,,"2","Bronx","BX03","Eastchester-Edenwald-Baychester","12","10466","212","484","484","0","0","907","(40.886622, -73.83497)"
"9321","2","Free","LinkNYC - Citybridge","bx-07-117868","2415 JEROME AVENUE","40.861762","-73.901965","1011367.33975","253255.975748","Outdoor Kiosk","Tablet Internet -phone , Free 1 GB Wi-FI Service","Bronx","LinkNYC Free Wi-Fi","LINK-011033","2018-06-26T00:00:00.000","2","Bronx","BX30","Kingsbridge Heights","14","10468","207","253","253","2014338","2031990110","4824","(40.861762, -73.901965)"
"725","2","Limited Free","ALTICEUSA","Macombs Dam Park","PARKING STRUCTURE 3FLR NORTH FACING ON OUTSIDE  ( FOURTH RADIO IN FROM RIVER ST)","40.826103","-73.928537","1004027.83642","240256.888302","Outdoor","3 free 10 min sessions","Bronx","GuestWiFi",,,"2","Bronx","BX63","West Concourse","8","10451","204","63","63","2003018","2024900001","221","(40.826103, -73.928537)"
"1607","2","Limited Free","ALTICEUSA","Fox Playground","SPAN BTWH 725 & 737 SOUTHERN BL","40.81469","-73.898502","1012345.02713","236106.928754","Outdoor","3 free 10 min sessions","Bronx","GuestWiFi",,,"2","Bronx","BX33","Longwood","8","10455","202","85","85","2005721","2027200024","1304","(40.81469, -73.898502)"
"842","2","Limited Free","ALTICEUSA","Owen F. Dolen Park","BA ON WEST SIDE OF BLDG","40.840657","-73.842668","1027783.08156","245590.475404","Outdoor","3 free 10 min sessions","Bronx","GuestWiFi",,,"2","Bronx","BX37","Van Nest-Morris Park-Westchester Square","13","10461","210","200","200","0","2039840100","849","(40.840657, -73.842668)"
"7774","2","Free","LinkNYC - Citybridge","bx-06-119388","1948 WEBSTER AVENUE","40.849093","-73.900031","1011907.62512","248640.722584","Outdoor Kiosk","Tablet Internet -phone , Free 1 GB Wi-FI Service","Bronx","LinkNYC Free Wi-Fi","LINK-011383","2017-06-16T00:00:00.000","2","Bronx","BX41","Mount Hope","15","10457","206","379","379","2011085","2030270020","4052","(40.849093, -73.900031)"
"412","2","Free","NYPL","Wakefield","4100 LOWERRE PLACE","40.8910850654","-73.8595812441","1023073.81276","263955.410459","Library",,"Bronx","NYPL",,,"2","Bronx","BX44","Williamsbridge-Olinville","12","10466","212","420","420","2063175","2048320020","500","(40.8910850654, -73.8595812441)"
"423","2","Free","NYPL","Hunt's Point","877 SOUTHERN BOULEVARD","40.8186874033","-73.8941356433","1013551.8902","237564.755891","Library",,"Bronx","NYPL",,,"2","Bronx","BX27","Hunts Point","17","10459","202","89","89","2005755","2027220063","512","(40.8186874033, -73.8941356433)"
"345","2","Free","NYPL","Westchester Square","2521 GLEBE AVENUE","40.8411050877","-73.8466216551","1026688.83768","245751.790042","Library",,"Bronx","NYPL",,,"2","Bronx","BX37","Van Nest-Morris Park-Westchester Square","13","10461","210","200","200","2041911","2039860034","426","(40.8411050877, -73.8466216551)"
"1421","2","Limited Free","ALTICEUSA","Crotona Park","NORTH EAST CORNER OF TENNIS HOUSE ROOFTOP","40.840107","-73.895219","1013242.69627","245368.335428","Outdoor","3 free 10 min sessions","Bronx","GuestWiFi",,,"2","Bronx","BX99","park-cemetery-etc-Bronx","17","10457","203","163","163","0","2029420001","1283","(40.840107, -73.895219)"
"1376","2","Limited Free","ALTICEUSA","Claremont Park","FRNT OF BASKET BALL COURT N/O E 170TH ST","40.8377","-73.90848","1009574.32139","244487.264684","Outdoor","3 free 10 min sessions","Bronx","GuestWiFi",,,"2","Bronx","BX99","park-cemetery-etc-Bronx","16","10457","204","171","171","0","2027880001","1236","(40.8377, -73.90848)"
"8319","2","Free","LinkNYC - Citybridge","BX-01-GF22067","250 BROOK AVE","40.807756","-73.919006","1006671.75009","233574.689068","Outdoor Kiosk","Tablet Internet -phone , Free 1 GB Wi-FI Service","Bronx","LinkNYC Free Wi-Fi","LINK-020496","9999-09-09T00:00:00.000","2","Bronx","BX39","Mott Haven-Port Morris","8","10454","201","39","39","2000054","2022660000","4597","(40.807756, -73.919006)"
"1360","2","Limited Free","ALTICEUSA","Bronx Park","Near Burke Ave","40.87301","-73.871349","1019829.8678","257364.949559","Outdoor","3 free 10 min sessions","Bronx","GuestWiFi",,,"2","Bronx","BX99","park-cemetery-etc-Bronx","15","10467","212","334","334","0","2033570300","1219","(40.87301, -73.871349)"
"723","2","Limited Free","ALTICEUSA","Macombs Dam Park","PARKING STRUCTURE 3FLR NORTH FACING ON OUTSIDE  ( SECOND RADIO IN FROM RIVER ST)","40.825815","-73.927731","1004250.98853","240152.142449","Outdoor","3 free 10 min sessions","Bronx","GuestWiFi",,,"2","Bronx","BX63","West Concourse","8","10451","204","63","63","2003018","2024900001","219","(40.825815, -73.927731)"
"9397","2","Free","LinkNYC - Citybridge","bx-01-119027","718 EAST 149 STREET","40.813128","-73.908991","1009442.11119","235534.762662","Outdoor Kiosk","Tablet Internet -phone , Free 1 GB Wi-FI Service","Bronx","LinkNYC Free Wi-Fi","LINK-011500","2018-06-25T00:00:00.000","2","Bronx","BX39","Mott Haven-Port Morris","8","10455","201","35","35","2003924","2025790020","4900","(40.813128, -73.908991)"
"1602","2","Limited Free","ALTICEUSA","Ferry Point Park","BALCOM AV 2/P/W/O SAMPSON AV","40.817732","-73.82368","1033053.78427","237248.079031","Outdoor","3 free 10 min sessions","Bronx","GuestWiFi",,,"2","Bronx","BX52","Schuylerville-Throgs Neck-Edgewater Park","13","10465","210","110","110","0","0","1299","(40.817732, -73.82368)"
"1415","2","Limited Free","ALTICEUSA","Crotona Park","NORTH WEST CORNER OF INDIAN LAKE HOUSE ROOFTOP","40.838217","-73.893388","1013750.16835","244680.3496","Outdoor","3 free 10 min sessions","Bronx","GuestWiFi",,,"2","Bronx","BX99","park-cemetery-etc-Bronx","17","10457","203","163","163","0","2029420001","1277","(40.838217, -73.893388)"
"7316","2","Free","LinkNYC - Citybridge","bx-05-119592","101 EAST BURNSIDE AVENUE","40.853157","-73.905403","1010419.67009","250119.733734","Outdoor Kiosk","Tablet Internet -phone , Free 1 GB Wi-FI Service","Bronx","LinkNYC Free Wi-Fi","LINK-001788","2016-07-07T00:00:00.000","2","Bronx","BX41","Mount Hope","14","10453","205","241","241","2092406","2031690000","3594","(40.853157, -73.905403)"
"847","2","Limited Free","ALTICEUSA","Van Cortlandt Park","Parade grounds-S/O /Tortoise & Hare statue","40.893739","-73.89622","1012942.57154","264908.226467","Outdoor","3 free 10 min sessions","Bronx","GuestWiFi",,,"2","Bronx","BX99","park-cemetery-etc-Bronx","11","10471","226","435","435","0","2059000150","854","(40.893739, -73.89622)"
"1598","2","Limited Free","ALTICEUSA","Ferry Point Park","BALCOM AV 1/P/E/O SCHLEY AV","40.821599","-73.826654","1032227.82103","238655.321295","Outdoor","3 free 10 min sessions","Bronx","GuestWiFi",,,"2","Bronx","BX52","Schuylerville-Throgs Neck-Edgewater Park","13","10465","210","110","110","0","0","1295","(40.821599, -73.826654)"
"248","2","Free","NYPL","City Island","320 CITY ISLAND AVENUE","40.8476919036","-73.786366589","1043355.15999","248186.534188","Library",,"Bronx","NYPL",,,"2","Bronx","BX10","Pelham Bay-Country Club-City Island","13","10464","210","516","516","2122890","2056440010","322","(40.8476919036, -73.786366589)"
"1412","2","Limited Free","ALTICEUSA","Crotona Park","(PICNIC AREA) INSIDE PARK EAST SIDE OF INDIAN LAKE","40.837539","-73.893658","1013675.75774","244433.238217","Outdoor","3 free 10 min sessions","Bronx","GuestWiFi",,,"2","Bronx","BX99","park-cemetery-etc-Bronx","17","10457","203","163","163","0","2029420001","1274","(40.837539, -73.893658)"
"37","2","Limited Free","ALTICEUSA","Seton Falls Park","C/O  E 233RD ST  & WILDER AV","40.888783","-73.840133","1028452.5041","263125.892433","Outdoor","3 free 10 min sessions","Bronx","GuestWiFi",,,"2","Bronx","BX62","Woodlawn-Wakefield","12","10466","212","426","426","0","0","905","(40.888783, -73.840133)"
"7309","2","Free","LinkNYC - Citybridge","bx-07-119873","26 WEST KINGSBRIDGE ROAD","40.867627","-73.89873","1012259.61851","255393.774367","Outdoor Kiosk","Tablet Internet -phone , Free 1 GB Wi-FI Service","Bronx","LinkNYC Free Wi-Fi","LINK-001773","2016-07-15T00:00:00.000","2","Bronx","BX30","Kingsbridge Heights","14","10468","207","265","265","2014457","2032050030","3587","(40.867627, -73.89873)"
"7957","2","Free","LinkNYC - Citybridge","bx-05-123185","23 WEST BURNSIDE AVENUE","40.853881","-73.908662","1009517.81363","250382.557683","Outdoor Kiosk","Tablet Internet -phone , Free 1 GB Wi-FI Service","Bronx","LinkNYC Free Wi-Fi","LINK-012881","2017-01-12T00:00:00.000","2","Bronx","BX36","University Heights-Morris Heights","14","10453","205","251","251","2014160","2031930030","4235","(40.853881, -73.908662)"
"8261","2","Free","LinkNYC - Citybridge","bx-01-145854","217 EAST 138 STREET","40.812253","-73.928665","1003996.65078","235210.944654","Outdoor Kiosk","Tablet Internet -phone , Free 1 GB Wi-FI Service","Bronx","LinkNYC Free Wi-Fi","LINK-018226","2017-10-19T00:00:00.000","2","Bronx","BX39","Mott Haven-Port Morris","8","10451","201","51","51","2000969","2023400000","4539","(40.812253, -73.928665)"
"410","2","Free","NYPL","Eastchester","1385 EAST GUNHILL ROAD","40.870139703","-73.8450642753","1027101.04421","256330.955892","Library",,"Bronx","NYPL",,,"2","Bronx","BX03","Eastchester-Edenwald-Baychester","12","10469","212","358","358","2061767","2047620022","498","(40.870139703, -73.8450642753)"
"2098","2","Limited Free","ALTICEUSA","Pelham Bay Park","C/O MIDDLETOWN RD /ROBERTSON PL","40.8471","-73.822992","1033222.59496","247948.287618","Outdoor","3 free 10 min sessions","Bronx","GuestWiFi",,,"2","Bronx","BX10","Pelham Bay-Country Club-City Island","13","10465","210","27401","27401","0","0","874","(40.8471, -73.822992)"
"1597","2","Limited Free","ALTICEUSA","Ferry Point Park","ON SCHLEY AVENUE 2/P/E O BRUSH","40.816436","-73.838292","1029010.19098","236768.097052","Outdoor","3 free 10 min sessions","Bronx","GuestWiFi",,,"2","Bronx","BX09","Soundview-Castle Hill-Clason Point-Harding Park","13","10465","210","90","90","0","0","1294","(40.816436, -73.838292)"
"7176","2","Free","LinkNYC - Citybridge","bx-04-140582","597 GRAND CONCOURSE","40.819886","-73.926847","1004497.44604","237992.195981","Outdoor Kiosk","Tablet Internet -phone , Free 1 GB Wi-FI Service","Bronx","LinkNYC Free Wi-Fi","LINK-001006","2016-07-15T00:00:00.000","2","Bronx","BX63","West Concourse","8","10451","204","63","63","2001075","2023480040","3454","(40.819886, -73.926847)"
"8278","2","Free","LinkNYC - Citybridge","bx-07-145840","2495 JEROME AVENUE","40.863665","-73.900512","1011768.42199","253949.86715","Outdoor Kiosk","Tablet Internet -phone , Free 1 GB Wi-FI Service","Bronx","LinkNYC Free Wi-Fi","LINK-018400","2017-06-13T00:00:00.000","2","Bronx","BX30","Kingsbridge Heights","14","10468","207","265","265","2014360","2032000020","4556","(40.863665, -73.900512)"
"957","2","Limited Free","ALTICEUSA","St. Mary's Park","FAN ROOM -3RD FLOOR","40.811544","-73.914138","1008018.04858","234956.100347","Indoor","3 free 10 min sessions","Bronx","GuestWiFi",,,"2","Bronx","BX39","Mott Haven-Port Morris","8","10454","201","37","37","2003692","2025570001","1384","(40.811544, -73.914138)"
"7801","2","Free","LinkNYC - Citybridge","bx-07-144372","148 West Fordham Road","40.862685","-73.907548","1009822.60567","253590.515506","Outdoor Kiosk","Tablet Internet -phone , Free 1 GB Wi-FI Service","Bronx","LinkNYC Free Wi-Fi","LINK-011667","2017-05-11T00:00:00.000","2","Bronx","BX30","Kingsbridge Heights","14","10468","207","255","255","2014947","2032250110","4079","(40.862685, -73.907548)"
"732","2","Limited Free","ALTICEUSA","Macombs Dam Park","SPEAKER POLE EAST OF TRACK AND FIELD( MIDDLE )","40.827799","-73.928565","1004019.58315","240874.796515","Outdoor","3 free 10 min sessions","Bronx","GuestWiFi",,,"2","Bronx","BX63","West Concourse","8","10451","204","63","63","0","2024990001","228","(40.827799, -73.928565)"
"849","2","Limited Free","ALTICEUSA","Vidalia Park","DALY AV 1 P/S/O E 180TH ST","40.844141","-73.881968","1016907.23946","246842.734383","Outdoor","3 free 10 min sessions","Bronx","GuestWiFi",,,"2","Bronx","BX17","East Tremont","17","10460","206","363","363","0","0","856","(40.844141, -73.881968)"
"6769","2","Free","LinkNYC - Citybridge","bx-05-119575","2437 GRAND CONCOURSE","40.861349","-73.898023","1012457.82579","253106.683141","Outdoor Kiosk","Tablet Internet -phone , Free 1 GB Wi-FI Service","Bronx","LinkNYC Free Wi-Fi","LINK-000072","2016-07-19T00:00:00.000","2","Bronx","BX40","Fordham South","14","10468","205","237","237","2013798","2031650030","3047","(40.861349, -73.898023)"
"1618","2","Limited Free","ALTICEUSA","Haffen Park","C/O BURKE AV /BRUNER AV","40.874777","-73.839181","1028725.09608","258023.435774","Outdoor","3 free 10 min sessions","Bronx","GuestWiFi",,,"2","Bronx","BX03","Eastchester-Edenwald-Baychester","12","10469","212","358","358","0","0","1316","(40.874777, -73.839181)"
"1409","2","Limited Free","ALTICEUSA","Crotona Park","INSIDE PARK NE/O CLAIRMONT PKWY EXT (EAST OF POND)","40.83666","-73.894981","1013310.05604","244112.544633","Outdoor","3 free 10 min sessions","Bronx","GuestWiFi",,,"2","Bronx","BX99","park-cemetery-etc-Bronx","17","10457","203","163","163","0","2029420001","1269","(40.83666, -73.894981)"
"6766","2","Free","LinkNYC - Citybridge","bx-07-111540","2408 UNIVERSITY AVENUE","40.863114","-73.904575","1010644.75724","253747.716964","Outdoor Kiosk","Tablet Internet -phone , Free 1 GB Wi-FI Service","Bronx","LinkNYC Free Wi-Fi","LINK-000064","2017-03-30T00:00:00.000","2","Bronx","BX30","Kingsbridge Heights","14","10468","207","263","263","2014623","2032130000","3044","(40.863114, -73.904575)"
"7223","2","Free","LinkNYC - Citybridge","bx-07-119749","2 EAST KINGSBRIDGE ROAD","40.867329","-73.897193","1012684.87389","255285.638428","Outdoor Kiosk","Tablet Internet -phone , Free 1 GB Wi-FI Service","Bronx","LinkNYC Free Wi-Fi","LINK-001353","2017-02-08T00:00:00.000","2","Bronx","BX05","Bedford Park-Fordham North","14","10468","207","401","401","2014134","2031910030","3501","(40.867329, -73.897193)"
"384","2","Free","NYPL","Castle Hill","947 CASTLE HILL AVENUE","40.8266092254","-73.8501814579","1025712.89606","240468.714322","Library",,"Bronx","NYPL",,,"2","Bronx","BX59","Westchester-Unionport","18","10473","209","98","98","2022944","2036880042","469","(40.8266092254, -73.8501814579)"
"1420","2","Limited Free","ALTICEUSA","Crotona Park","SOUTH EAST CORNER OF TENNIS HOUSE ROOFTOP","40.839892","-73.89537","1013201.00836","245289.952711","Outdoor","3 free 10 min sessions","Bronx","GuestWiFi",,,"2","Bronx","BX99","park-cemetery-etc-Bronx","17","10457","203","163","163","0","2029420001","1282","(40.839892, -73.89537)"
"8273","2","Free","LinkNYC - Citybridge","bx-04-145838","1605 WALTON AVENUE","40.843881","-73.91293","1008340.85699","246738.054474","Outdoor Kiosk","Tablet Internet -phone , Free 1 GB Wi-FI Service","Bronx","LinkNYC Free Wi-Fi","LINK-018390","2017-07-05T00:00:00.000","2","Bronx","BX41","Mount Hope","14","10452","204","227","227","2008153","2028470070","4551","(40.843881, -73.91293)"
"971","2","Free","AT&T","Joyce Kilmer Park","North Playground","40.8285","-73.9227","1005642.49198","241131.574217","Outdoor",,"Bronx","attwifi",,,"2","Bronx","BX63","West Concourse","8","10451","204","195","195","0","2024690001","1398","(40.8285, -73.9227)"
"7315","2","Free","LinkNYC - Citybridge","bx-05-119590","104 EAST BURNSIDE AVENUE","40.853043","-73.905552","1010378.43428","250078.147203","Outdoor Kiosk","Tablet Internet -phone , Free 1 GB Wi-FI Service","Bronx","LinkNYC Free Wi-Fi","LINK-001787","2016-07-01T00:00:00.000","2","Bronx","BX41","Mount Hope","14","10453","205","241","241","2007668","2028070060","3593","(40.853043, -73.905552)"
"1371","2","Limited Free","ALTICEUSA","Claremont Park","MORRIS AV 1 P/S/O MT EDEN PKWY","40.842327","-73.909734","1009225.59243","246172.692744","Outdoor","3 free 10 min sessions","Bronx","GuestWiFi",,,"2","Bronx","BX14","East Concourse-Concourse Village","16","10457","204","225","225","0","0","1231","(40.842327, -73.909734)"
"846","2","Limited Free","ALTICEUSA","Van Cortlandt Park","Parade grounds-N/O /Tortoise & Hare statue","40.894246","-73.896288","1012923.55255","265092.924588","Outdoor","3 free 10 min sessions","Bronx","GuestWiFi",,,"2","Bronx","BX99","park-cemetery-etc-Bronx","11","10471","226","435","435","0","2059000150","853","(40.894246, -73.896288)"
"1600","2","Limited Free","ALTICEUSA","Ferry Point Park","BALCOM AV 5/P/E/O SCHLEY AV","40.820619","-73.825839","1032454.10207","238298.719975","Outdoor","3 free 10 min sessions","Bronx","GuestWiFi",,,"2","Bronx","BX52","Schuylerville-Throgs Neck-Edgewater Park","13","10465","210","110","110","0","0","1297","(40.820619, -73.825839)"
"11","2","Limited Free","ALTICEUSA","Pelham Bay Park","IN PARK POLE 4/P/N/O  STADIUM AV","40.849196","-73.821055","1033756.94166","248713.026902","Outdoor","3 free 10 min sessions","Bronx","GuestWiFi",,,"2","Bronx","BX99","park-cemetery-etc-Bronx","13","10465","228","276","276","0","2043350001","879","(40.849196, -73.821055)"
"963","2","Free","AT&T","Hunts Point Riverside Park","Near Performance Stage","40.8177","-73.8811","1017160.47452","237209.638491","Outdoor",,"Bronx","attwifi",,,"2","Bronx","BX27","Hunts Point","17","10474","202","117","117","0","2027700001","1390","(40.8177, -73.8811)"
"843","2","Limited Free","ALTICEUSA","Owen F. Dolen Park","BA ON EAST SIDE OF BLDG","40.840657","-73.842668","1027783.08156","245590.475404","Outdoor","3 free 10 min sessions","Bronx","GuestWiFi",,,"2","Bronx","BX37","Van Nest-Morris Park-Westchester Square","13","10461","210","200","200","0","2039840100","850","(40.840657, -73.842668)"
"1413","2","Limited Free","ALTICEUSA","Crotona Park","FRONT OF HANDBALL COURT INSIDE PARK, CROTONA PK EAST","40.837704","-73.890376","1014583.83991","244494.473331","Outdoor","3 free 10 min sessions","Bronx","GuestWiFi",,,"2","Bronx","BX99","park-cemetery-etc-Bronx","17","10457","203","163","163","0","2029420001","1275","(40.837704, -73.890376)"
"8275","2","Free","LinkNYC - Citybridge","bx-05-145839","69 EAST 176 STREET","40.84833","-73.9099","1009177.4124","248359.763501","Outdoor Kiosk","Tablet Internet -phone , Free 1 GB Wi-FI Service","Bronx","LinkNYC Free Wi-Fi","LINK-018394","2017-06-13T00:00:00.000","2","Bronx","BX41","Mount Hope","14","10453","205","233","233","2008227","2028510040","4553","(40.84833, -73.9099)"
"1599","2","Limited Free","ALTICEUSA","Ferry Point Park","BALCOM AV 3/P/E/O SCHLEY AV","40.821068","-73.82621","1032351.09276","238462.102522","Outdoor","3 free 10 min sessions","Bronx","GuestWiFi",,,"2","Bronx","BX52","Schuylerville-Throgs Neck-Edgewater Park","13","10465","210","110","110","0","0","1296","(40.821068, -73.82621)"
"7454","2","Free","LinkNYC - Citybridge","bx-04-119159","72 EAST 161 STREET","40.827356","-73.925223","1004944.74961","240714.141981","Outdoor Kiosk","Tablet Internet -phone , Free 1 GB Wi-FI Service","Bronx","LinkNYC Free Wi-Fi","LINK-005427","2016-07-19T00:00:00.000","2","Bronx","BX63","West Concourse","8","10451","204","63","63","2002983","2024830050","3732","(40.827356, -73.925223)"
"1417","2","Limited Free","ALTICEUSA","Crotona Park","INSIDE PARK NE/O CLAIRMONT PKWY EXT (WEST OF POND)","40.838989","-73.888714","1015043.13361","244963.226331","Outdoor","3 free 10 min sessions","Bronx","GuestWiFi",,,"2","Bronx","BX99","park-cemetery-etc-Bronx","17","10457","203","163","163","0","0","1279","(40.838989, -73.888714)"
"7453","2","Free","LinkNYC - Citybridge","bx-04-119160","52 EAST 161 STREET","40.827552","-73.925903","1004756.49867","240785.41382","Outdoor Kiosk","Tablet Internet -phone , Free 1 GB Wi-FI Service","Bronx","LinkNYC Free Wi-Fi","LINK-005426","2016-09-13T00:00:00.000","2","Bronx","BX63","West Concourse","8","10451","204","63","63","2002981","2024830040","3731","(40.827552, -73.925903)"
"41","2","Limited Free","ALTICEUSA","St. James Park","W WING CORRIDOR DROP CEILING","40.86473","-73.899037","1012175.92379","254338.186911","Indoor","3 free 10 min sessions","Bronx","GuestWiFi",,,"2","Bronx","BX05","Bedford Park-Fordham North","14","10468","207","401","401","0","2031760001","910","(40.86473, -73.899037)"
"1606","2","Limited Free","ALTICEUSA","Ferry Point Park","BALCOM AV 2/P/N/O SAMPSON AV","40.818752","-73.82456","1032809.46422","237619.212147","Outdoor","3 free 10 min sessions","Bronx","GuestWiFi",,,"2","Bronx","BX52","Schuylerville-Throgs Neck-Edgewater Park","13","10465","210","110","110","0","0","1303","(40.818752, -73.82456)"
"1411","2","Limited Free","ALTICEUSA","Crotona Park","FRONT OF STAGE INSIDE PARK SW/O/ INDIAN LAKE","40.837503","-73.894893","1013334.03828","244419.709701","Outdoor","3 free 10 min sessions","Bronx","GuestWiFi",,,"2","Bronx","BX99","park-cemetery-etc-Bronx","17","10457","203","163","163","0","2029420001","1273","(40.837503, -73.894893)"
"2525","2","Free","NYPL","Belmont Library-Enrico Fermi Cultural Center","610 EAST 186 STREET","40.8543469054","-73.8878894289","1015264.13317","250558.977934","Library",,"Bronx","NYPL",,,"2","Bronx","BX06","Belmont","15","10458","206","391","391","2012129","2030730020","479","(40.8543469054, -73.8878894289)"
"9303","2","Free","LinkNYC - Citybridge","bx-05-146094","2 CLIFFORD PLACE","40.846434","-73.912958","1008332.0612","247668.123746","Outdoor Kiosk","Tablet Internet -phone , Free 1 GB Wi-FI Service","Bronx","LinkNYC Free Wi-Fi","LINK-019312","2018-07-13T00:00:00.000","2","Bronx","BX41","Mount Hope","14","10453","205","22701","22701","2008155","2028480020","4806","(40.846434, -73.912958)"
"295","2","Free","NYPL","Van Cortlandt","3874 SEDGWICK AVENUE","40.8827597562","-73.8939224115","1013582.64113","260908.806972","Library",,"Bronx","NYPL",,,"2","Bronx","BX28","Van Cortlandt Village","11","10463","208","409","409","2015233","2032460074","375","(40.8827597562, -73.8939224115)"
"9300","2","Free","LinkNYC - Citybridge","bx-06-101312","1917 SOUTHERN BOULEVARD","40.841834","-73.885974","1015799.8498","246000.572641","Outdoor Kiosk","Tablet Internet -phone , Free 1 GB Wi-FI Service","Bronx","LinkNYC Free Wi-Fi","LINK-010198","2018-07-12T00:00:00.000","2","Bronx","BX17","East Tremont","17","10460","206","36502","36502","2010153","2029600040","4803","(40.841834, -73.885974)"
"2239","2","Free","Transit Wireless","161 St-Yankee Stadium (B,D,4)","161st St","40.827905","-73.925651","1004825.99755","240914.087119","Subway Station","SN 219","Bronx","TransitWirelessWiFi",,,"2","Bronx","BX63","West Concourse","8","10452","204","195","195","0","0","1644","(40.827905, -73.925651)"
"430","2","Free","NYPL","Bronx Library Center","310 East Kingsbridge Road","40.8629806052","-73.8945028865","1013430.80678","253702.292842","Library",,"Bronx","NYPL",,,"2","Bronx","BX05","Bedford Park-Fordham North","15","10458","207","39901","39901","2116006","2031540083","520","(40.8629806052, -73.8945028865)"
"956","2","Limited Free","ALTICEUSA","St. Mary's Park","FAN ROOM -3RD FLOOR","40.811544","-73.914138","1008018.04858","234956.100347","Indoor","3 free 10 min sessions","Bronx","GuestWiFi",,,"2","Bronx","BX39","Mott Haven-Port Morris","8","10454","201","37","37","2003692","2025570001","1383","(40.811544, -73.914138)"
"2110","2","Limited Free","ALTICEUSA","Pelham Bay Park","C/O MIDDLETOWN RD /DWIGHT PL","40.846606","-73.823952","1032957.355","247767.769934","Outdoor","3 free 10 min sessions","Bronx","GuestWiFi",,,"2","Bronx","BX10","Pelham Bay-Country Club-City Island","13","10465","210","27401","27401","0","0","873","(40.846606, -73.823952)"
"7799","2","Free","LinkNYC - Citybridge","bx-01-144251","3097 3 AVENUE","40.821437","-73.912327","1008515.75625","238560.970434","Outdoor Kiosk","Tablet Internet -phone , Free 1 GB Wi-FI Service","Bronx","LinkNYC Free Wi-Fi","LINK-011660","2017-05-22T00:00:00.000","2","Bronx","BX34","Melrose South-Mott Haven North","17","10451","201","69","69","2001451","2023790050","4077","(40.821437, -73.912327)"
"7818","2","Free","LinkNYC - Citybridge","bx-01-123212","2976A 3 AVENUE","40.81856","-73.9143","1007970.60675","237512.108031","Outdoor Kiosk","Tablet Internet -phone , Free 1 GB Wi-FI Service","Bronx","LinkNYC Free Wi-Fi","LINK-011876","2017-03-30T00:00:00.000","2","Bronx","BX34","Melrose South-Mott Haven North","17","10455","201","71","71","2001180","2023630010","4096","(40.81856, -73.9143)"
"13","2","Limited Free","ALTICEUSA","Pelham Bay Park","IN PARK POLE 6/P/N/O  STADIUM AV","40.850232","-73.821777","1033556.42533","249090.073064","Outdoor","3 free 10 min sessions","Bronx","GuestWiFi",,,"2","Bronx","BX99","park-cemetery-etc-Bronx","13","10465","228","276","276","0","2043350001","881","(40.850232, -73.821777)"
"431","2","Free","NYPL","Morris Park","985 MORRIS PARK AVENUE","40.8480291101","-73.8569578538","1023824.75876","248269.629823","Library",,"Bronx","NYPL",,,"2","Bronx","BX37","Van Nest-Morris Park-Westchester Square","13","10462","211","252","252","2045398","2041260040","521","(40.8480291101, -73.8569578538)"
"8331","2","Free","LinkNYC - Citybridge","BX-01-GF22167","624 MELROSE AVE","40.818017","-73.916791","1007281.42473","237313.572339","Outdoor Kiosk","Tablet Internet -phone , Free 1 GB Wi-FI Service","Bronx","LinkNYC Free Wi-Fi","LINK-020596","9999-09-09T00:00:00.000","2","Bronx","BX34","Melrose South-Mott Haven North","17","10455","201","67","67","2001345","2023740030","4609","(40.818017, -73.916791)"
"7317","2","Free","LinkNYC - Citybridge","bx-01-119075","134 EAST 149 STREET","40.818676","-73.928165","1004133.00878","237551.047585","Outdoor Kiosk","Tablet Internet -phone , Free 1 GB Wi-FI Service","Bronx","LinkNYC Free Wi-Fi","LINK-001791","2017-07-19T00:00:00.000","2","Bronx","BX63","West Concourse","17","10451","201","63","63","2001038","2023460030","3595","(40.818676, -73.928165)"
"2217","2","Free","Transit Wireless","IRT - East 143 St-St Mary's St (6)","East 143 St-St Mary's St (6)","40.808719","-73.907657","1009813.18279","233928.677862","Subway Station","SN 374","Bronx","TransitWirelessWiFi",,,"2","Bronx","BX39","Mott Haven-Port Morris","8","10454","201","31","31","0","0","1621","(40.808719, -73.907657)"
"7816","2","Free","LinkNYC - Citybridge","bx-05-119610","48 WEST BURNSIDE AVENUE","40.853842","-73.909388","1009316.9925","250368.150888","Outdoor Kiosk","Tablet Internet -phone , Free 1 GB Wi-FI Service","Bronx","LinkNYC Free Wi-Fi","LINK-011861","2017-02-08T00:00:00.000","2","Bronx","BX36","University Heights-Morris Heights","14","10453","205","243","243","2008631","2028700030","4094","(40.853842, -73.909388)"
"306","2","Free","NYPL","Van Nest","2147 BARNES AVENUE","40.8548777848","-73.8641435801","1021832.85133","250761.695049","Library",,"Bronx","NYPL",,,"2","Bronx","BX49","Pelham Parkway","13","10462","211","228","228","2049427","2043210070","387","(40.8548777848, -73.8641435801)"
"6772","2","Free","LinkNYC - Citybridge","bx-07-119787","95 WEST FORDHAM ROAD","40.862855","-73.904547","1010652.62402","253653.518333","Outdoor Kiosk","Tablet Internet -phone , Free 1 GB Wi-FI Service","Bronx","LinkNYC Free Wi-Fi","LINK-000077","2017-03-30T00:00:00.000","2","Bronx","BX30","Kingsbridge Heights","14","10468","207","263","263","2014623","2032130000","3050","(40.862855, -73.904547)"
"9354","2","Free","LinkNYC - Citybridge","bx-01-102011","417 EAST 138 STREET","40.80891","-73.922209","1005784.58259","233994.229871","Outdoor Kiosk","Tablet Internet -phone , Free 1 GB Wi-FI Service","Bronx","LinkNYC Free Wi-Fi","LINK-010208","2018-07-16T00:00:00.000","2","Bronx","BX39","Mott Haven-Port Morris","8","10454","201","39","39","2092092","2022830000","4857","(40.80891, -73.922209)"
"33","2","Limited Free","ALTICEUSA","Ranaqua Park","BIRCHAll AV 6/P/E/O SAGAMORE ST","40.84459","-73.8598","1023040.44242","247015.362646","Outdoor","3 free 10 min sessions","Bronx","GuestWiFi",,,"2","Bronx","BX37","Van Nest-Morris Park-Westchester Square","13","10462","211","238","238","0","2040420350","901","(40.84459, -73.8598)"
"9355","2","Free","LinkNYC - Citybridge","bx-06-146096","4201 3 AVENUE","40.846477","-73.896393","1012915.06384","247688.690122","Outdoor Kiosk","Tablet Internet -phone , Free 1 GB Wi-FI Service","Bronx","LinkNYC Free Wi-Fi","LINK-020581","2018-07-26T00:00:00.000","2","Bronx","BX01","Claremont-Bathgate","15","10457","206","395","395","2009606","2029240020","4858","(40.846477, -73.896393)"
"1622","2","Limited Free","ALTICEUSA","Horseshoe Playground","HORSESHOE PLAYGROUND-HALL PL 2/P/N/O E 165TH ST EAST SIDE","40.824255","-73.89791","1012504.83324","239591.991666","Outdoor","3 free 10 min sessions","Bronx","GuestWiFi",,,"2","Bronx","BX33","Longwood","17","10459","202","131","131","0","0","1320","(40.824255, -73.89791)"
"2109","2","Limited Free","ALTICEUSA","Macombs Dam Park","SPEAKER POLE EAST OF TRACK AND FIELD ( SOUTH )","40.827552","-73.929158","1003855.54378","240784.672024","Outdoor","3 free 10 min sessions","Bronx","GuestWiFi",,,"2","Bronx","BX63","West Concourse","8","10451","204","63","63","0","2024990001","229","(40.827552, -73.929158)"
"9281","2","Free","LinkNYC - Citybridge","bx-05-146097","1 EAST 177 STREET","40.850173","-73.910282","1009071.11396","249031.129464","Outdoor Kiosk","Tablet Internet -phone , Free 1 GB Wi-FI Service","Bronx","LinkNYC Free Wi-Fi","LINK-019315","2018-07-13T00:00:00.000","2","Bronx","BX41","Mount Hope","14","10453","205","23301","23301","2008247","2028530000","4784","(40.850173, -73.910282)"
"1414","2","Limited Free","ALTICEUSA","Crotona Park","SOUTH WEST CORNER OF INDIAN LAKE HOUSE ROOFTOP","40.838058","-73.893478","1013725.33507","244622.389742","Outdoor","3 free 10 min sessions","Bronx","GuestWiFi",,,"2","Bronx","BX99","park-cemetery-etc-Bronx","17","10457","203","163","163","2009887","2029420001","1276","(40.838058, -73.893478)"
"8156","2","Free","LinkNYC - Citybridge","bx-04-119141","1391 JEROME AVENUE","40.840248","-73.918194","1006885.51312","245412.936389","Outdoor Kiosk","Tablet Internet -phone , Free 1 GB Wi-FI Service","Bronx","LinkNYC Free Wi-Fi","LINK-014595","2017-07-13T00:00:00.000","2","Bronx","BX26","Highbridge","16","10452","204","219","219","2008289","2028560020","4434","(40.840248, -73.918194)"
"2124","2","Limited Free","ALTICEUSA","Haffen Park","HAMMERSLEY AV 3/P/W/O ELY AV","40.872936","-73.838671","1028867.37335","257352.947286","Outdoor","3 free 10 min sessions","Bronx","GuestWiFi",,,"2","Bronx","BX03","Eastchester-Edenwald-Baychester","12","10469","212","358","358","0","0","1313","(40.872936, -73.838671)"
"294","2","Free","NYPL","Pelham Bay","3060 MIDDLETOWN ROAD","40.8442926727","-73.8278899073","1031869.5081","246922.773921","Library",,"Bronx","NYPL",,,"2","Bronx","BX52","Schuylerville-Throgs Neck-Edgewater Park","13","10461","210","264","264","2074963","2054040002","374","(40.8442926727, -73.8278899073)"
"7791","2","Free","LinkNYC - Citybridge","bx-05-119659","375 EAST 188 STREET","40.860027","-73.893343","1013752.94492","252626.569272","Outdoor Kiosk","Tablet Internet -phone , Free 1 GB Wi-FI Service","Bronx","LinkNYC Free Wi-Fi","LINK-011583","2017-03-30T00:00:00.000","2","Bronx","BX05","Bedford Park-Fordham North","15","10458","205","399","399","2011078","2030260060","4069","(40.860027, -73.893343)"
"9408","2","Free","LinkNYC - Citybridge","bx-03-118929","860 MELROSE AVENUE","40.823646","-73.91403","1008043.63398","239365.427529","Outdoor Kiosk","Tablet Internet -phone , Free 1 GB Wi-FI Service","Bronx","LinkNYC Free Wi-Fi","LINK-011397","2018-07-11T00:00:00.000","2","Bronx","BX35","Morrisania-Melrose","17","10451","203","141","141","2001490","2023820000","4911","(40.823646, -73.91403)"
"7786","2","Free","LinkNYC - Citybridge","bx-05-119597","1966 JEROME AVENUE","40.851878","-73.908976","1009431.80067","249652.811111","Outdoor Kiosk","Tablet Internet -phone , Free 1 GB Wi-FI Service","Bronx","LinkNYC Free Wi-Fi","LINK-011501","2017-08-01T00:00:00.000","2","Bronx","BX41","Mount Hope","14","10453","205","241","241","2008258","2028540000","4064","(40.851878, -73.908976)"
"1601","2","Limited Free","ALTICEUSA","Ferry Point Park","BALCOM AV 1/P/E/O SAMPSON AV","40.818063","-73.82387","1033000.9517","237368.568292","Outdoor","3 free 10 min sessions","Bronx","GuestWiFi",,,"2","Bronx","BX52","Schuylerville-Throgs Neck-Edgewater Park","13","10465","210","110","110","0","0","1298","(40.818063, -73.82387)"
"731","2","Limited Free","ALTICEUSA","Macombs Dam Park","SPEAKER POLE EAST OF TRACK AND FIELD ( NORTH )","40.827902","-73.928356","1004077.39308","240912.370259","Outdoor","3 free 10 min sessions","Bronx","GuestWiFi",,,"2","Bronx","BX63","West Concourse","8","10451","204","63","63","0","2024990001","227","(40.827902, -73.928356)"
"1591","2","Limited Free","ALTICEUSA","Crotona Park","Crotona Park-CROTONA AV 4 P/S/O CRONTA PARK NORTH","40.84071","-73.896045","1013013.88308","245587.758218","Outdoor","3 free 10 min sessions","Bronx","GuestWiFi",,,"2","Bronx","BX99","park-cemetery-etc-Bronx","17","10457","203","163","163","0","2029410001","1287","(40.84071, -73.896045)"
"7778","2","Free","LinkNYC - Citybridge","bx-01-123216","3015 3 AVENUE","40.819488","-73.913668","1008145.29144","237850.674939","Outdoor Kiosk","Tablet Internet -phone , Free 1 GB Wi-FI Service","Bronx","LinkNYC Free Wi-Fi","LINK-011425","2016-12-22T00:00:00.000","2","Bronx","BX34","Melrose South-Mott Haven North","17","10455","201","67","67","2097993","2023760050","4056","(40.819488, -73.913668)"
"2123","2","Limited Free","ALTICEUSA","Crotona Park","SOUTH OF PLAYGROUND INSIDE PARK, CROTONA PK EAST","40.837184","-73.890395","1014578.81958","244305.011768","Outdoor","3 free 10 min sessions","Bronx","GuestWiFi",,,"2","Bronx","BX99","park-cemetery-etc-Bronx","17","10457","203","163","163","0","2029420001","1272","(40.837184, -73.890395)"
"9302","2","Free","LinkNYC - Citybridge","bx-06-119558","1965 HUGHES AVENUE","40.84619","-73.892194","1014076.8887","247585.527118","Outdoor Kiosk","Tablet Internet -phone , Free 1 GB Wi-FI Service","Bronx","LinkNYC Free Wi-Fi","LINK-011542","2018-07-13T00:00:00.000","2","Bronx","BX17","East Tremont","17","10457","206","373","373","2011992","2030680100","4805","(40.84619, -73.892194)"
"1377","2","Limited Free","ALTICEUSA","Claremont Park","FRNT OF HANDBALL COURT N/O E 170TH ST","40.83814","-73.90834","1009612.89283","244647.613445","Outdoor","3 free 10 min sessions","Bronx","GuestWiFi",,,"2","Bronx","BX99","park-cemetery-etc-Bronx","16","10457","204","171","171","0","2027880001","1237","(40.83814, -73.90834)"
"7996","2","Free","LinkNYC - Citybridge","bx-05-119566","1999 UNIVERSITY AVENUE","40.854764","-73.911439","1008749.25709","250703.479286","Outdoor Kiosk","Tablet Internet -phone , Free 1 GB Wi-FI Service","Bronx","LinkNYC Free Wi-Fi","LINK-013237","2017-01-17T00:00:00.000","2","Bronx","BX36","University Heights-Morris Heights","14","10453","205","245","245","2014698","2032160060","4274","(40.854764, -73.911439)"
"1372","2","Limited Free","ALTICEUSA","Claremont Park","MORRIS AV 3 P/S/O MT EDEN PKWY","40.841708","-73.909631","1009254.324","245947.197132","Outdoor","3 free 10 min sessions","Bronx","GuestWiFi",,,"2","Bronx","BX14","East Concourse-Concourse Village","16","10457","204","225","225","0","0","1232","(40.841708, -73.909631)"
"7800","2","Free","LinkNYC - Citybridge","bx-05-119648","2463 VALENTINE AVENUE","40.861174","-73.896444","1012894.79178","253043.574999","Outdoor Kiosk","Tablet Internet -phone , Free 1 GB Wi-FI Service","Bronx","LinkNYC Free Wi-Fi","LINK-011663","2017-04-18T00:00:00.000","2","Bronx","BX05","Bedford Park-Fordham North","15","10458","205","237","237","2013605","2031530040","4078","(40.861174, -73.896444)"
"2079","2","Limited Free","ALTICEUSA","St. James Park","E WING CORRIDOR DROP CEILING","40.86473","-73.899037","1012175.92379","254338.186911","Indoor","3 free 10 min sessions","Bronx","GuestWiFi",,,"2","Bronx","BX05","Bedford Park-Fordham North","14","10468","207","401","401","0","2031760001","909","(40.86473, -73.899037)"
"2112","2","Free","NYPL","Riverdale","5540 MOSHOLU AVENUE","40.9037227771","-73.9027725428","1011126.92097","268543.647017","Library",,"Bronx","NYPL",,,"2","Bronx","BX22","North Riverdale-Fieldston-Riverdale","11","10471","208","337","337","2084790","2058481729","335","(40.9037227771, -73.9027725428)"
"6773","2","Free","LinkNYC - Citybridge","bx-05-119570","100 E Fordham Rd","40.862086","-73.899521","1012043.27544","253374.637985","Outdoor Kiosk","Tablet Internet -phone , Free 1 GB Wi-FI Service","Bronx","LinkNYC Free Wi-Fi","LINK-000087","2017-07-20T00:00:00.000","2","Bronx","BX40","Fordham South","14","10468","205","237","237","2013908","2031730030","3051","(40.862086, -73.899521)"
"8255","2","Free","LinkNYC - Citybridge","bx-01-145819","135 EAST 146 STREET","40.817512","-73.928886","1003933.67027","237126.867003","Outdoor Kiosk","Tablet Internet -phone , Free 1 GB Wi-FI Service","Bronx","LinkNYC Free Wi-Fi","LINK-018220","2017-06-28T00:00:00.000","2","Bronx","BX63","West Concourse","17","10451","201","63","63","2001088","2023500020","4533","(40.817512, -73.928886)"
"7452","2","Free","LinkNYC - Citybridge","bx-01-145688","518 GERARD AVE","40.818886","-73.929213","1003842.89059","237627.31843","Outdoor Kiosk","Tablet Internet -phone , Free 1 GB Wi-FI Service","Bronx","LinkNYC Free Wi-Fi","LINK-005422","2016-11-08T00:00:00.000","2","Bronx","BX63","West Concourse","17","10451","201","63","63","2001091","2023500040","3730","(40.818886, -73.929213)"
"853","2","Limited Free","ALTICEUSA","Williamsbridge Oval","2ND FL COMMUNITY ROOM","40.876643","-73.878542","1017838.72973","258685.754332","Indoor","3 free 10 min sessions","Bronx","GuestWiFi",,,"2","Bronx","BX43","Norwood","11","10467","207","423","423","2018251","2033430400","860","(40.876643, -73.878542)"
"302","2","Free","NYPL","Morrisania","610 EAST 169 STREET","40.8312637226","-73.9017889765","1011428.40987","242144.296929","Library",,"Bronx","NYPL",,,"2","Bronx","BX35","Morrisania-Melrose","16","10456","203","149","149","2004303","2026150023","383","(40.8312637226, -73.9017889765)"
"8109","2","Free","LinkNYC - Citybridge","bx-01-123214","2969 3 AVENUE","40.818461","-73.914684","1007864.52133","237475.968011","Outdoor Kiosk","Tablet Internet -phone , Free 1 GB Wi-FI Service","Bronx","LinkNYC Free Wi-Fi","LINK-014021","2016-12-28T00:00:00.000","2","Bronx","BX34","Melrose South-Mott Haven North","17","10455","201","67","67","2001382","2023750050","4387","(40.818461, -73.914684)"
"7313","2","Free","LinkNYC - Citybridge","bx-04-119048","105 EAST 165 STREET","40.831467","-73.921747","1005905.2654","242212.795152","Outdoor Kiosk","Tablet Internet -phone , Free 1 GB Wi-FI Service","Bronx","LinkNYC Free Wi-Fi","LINK-001785","2016-06-15T00:00:00.000","2","Bronx","BX63","West Concourse","16","10452","204","195","195","2002953","2024780060","3591","(40.831467, -73.921747)"
"729","2","Limited Free","ALTICEUSA","Macombs Dam Park","DOT POLE 161 ST I/P/W/O RIVER AVE","40.827868","-73.926903","1004479.51924","240900.315165","Outdoor","3 free 10 min sessions","Bronx","GuestWiFi",,,"2","Bronx","BX63","West Concourse","16","10451","204","63","63","0","0","225","(40.827868, -73.926903)"
"1373","2","Limited Free","ALTICEUSA","Claremont Park","FRNT OF HANDBALL/BASKET BALL COURTS END OF CLAY AV","40.84112","-73.90548","1010403.1009","245734.178857","Outdoor","3 free 10 min sessions","Bronx","GuestWiFi",,,"2","Bronx","BX99","park-cemetery-etc-Bronx","16","10457","204","171","171","0","2027880001","1233","(40.84112, -73.90548)"
"1419","2","Limited Free","ALTICEUSA","Crotona Park","Crotona Park-e 175th st 1/P/E/O CROTONA PARK NORTH","40.83971","-73.887757","1015307.60126","245226.251067","Outdoor","3 free 10 min sessions","Bronx","GuestWiFi",,,"2","Bronx","BX99","park-cemetery-etc-Bronx","17","10460","203","163","163","0","0","1281","(40.83971, -73.887757)"
"1590","2","Limited Free","ALTICEUSA","Crotona Park","Crotona Park- CROTONA PARK NORTH  2/P/E/O PROSPECT AV","40.840706","-73.891398","1014299.68825","245587.860908","Outdoor","3 free 10 min sessions","Bronx","GuestWiFi",,,"2","Bronx","BX17","East Tremont","17","10460","206","367","367","0","2029520014","1286","(40.840706, -73.891398)"
"1623","2","Limited Free","ALTICEUSA","Joyce Kilmer Park","Top center","40.828468","-73.9227","1005642.50215","241119.915448","Outdoor","3 free 10 min sessions","Bronx","GuestWiFi",,,"2","Bronx","BX63","West Concourse","8","10451","204","195","195","0","2024690001","1321","(40.828468, -73.9227)"
"9311","2","Free","LinkNYC - Citybridge","bx-01-146086","216 WILLIS AVENUE","40.808293","-73.923332","1005473.95435","233769.186441","Outdoor Kiosk","Tablet Internet -phone , Free 1 GB Wi-FI Service","Bronx","LinkNYC Free Wi-Fi","LINK-020541","2018-07-02T00:00:00.000","2","Bronx","BX39","Mott Haven-Port Morris","8","10454","201","25","25","2118034","2022810010","4814","(40.808293, -73.923332)"
"8296","2","Free","LinkNYC - Citybridge","BX-04-GF2061","2 East 172 Street","40.842203","-73.916032","1007482.93417","246125.646906","Outdoor Kiosk","Tablet Internet -phone , Free 1 GB Wi-FI Service","Bronx","LinkNYC Free Wi-Fi","LINK-019378","9999-09-09T00:00:00.000","2","Bronx","BX63","West Concourse","14","10452","204","223","223","2008109","2028440010","4574","(40.842203, -73.916032)"
"8280","2","Free","LinkNYC - Citybridge","bx-07-145933","2616 JEROME AVENUE","40.866765","-73.897803","1012516.43853","255080.081425","Outdoor Kiosk","Tablet Internet -phone , Free 1 GB Wi-FI Service","Bronx","LinkNYC Free Wi-Fi","LINK-018403","2017-11-03T00:00:00.000","2","Bronx","BX05","Bedford Park-Fordham North","14","10468","207","401","401","2014132","2031910020","4558","(40.866765, -73.897803)"
"424","2","Free","NYPL","Allerton","2740 BARNES AVENUE","40.866804429","-73.8632224848","1022080.87479","255107.424218","Library",,"Bronx","NYPL",,,"2","Bronx","BX07","Bronxdale","13","10467","211","340","340","2053752","2045130016","513","(40.866804429, -73.8632224848)"
"1410","2","Limited Free","ALTICEUSA","Crotona Park","(PICNIC AREA) INSIDE PARK WEST OF PLAYGROUND","40.837117","-73.89331","1013772.2395","244279.605322","Outdoor","3 free 10 min sessions","Bronx","GuestWiFi",,,"2","Bronx","BX99","park-cemetery-etc-Bronx","17","10457","203","163","163","0","2029420001","1271","(40.837117, -73.89331)"
"7760","2","Free","LinkNYC - Citybridge","bx-05-119598","51 EAST TREMONT AVENUE","40.851329","-73.908266","1009628.3367","249452.881721","Outdoor Kiosk","Tablet Internet -phone , Free 1 GB Wi-FI Service","Bronx","LinkNYC Free Wi-Fi","LINK-011271","2018-01-12T00:00:00.000","2","Bronx","BX41","Mount Hope","14","10453","205","241","241","2007940","2028290030","4038","(40.851329, -73.908266)"
"385","2","Free","NYPL","Throg's Neck","3025 CROSS BRONX EXPRESSWAY","40.8229035714","-73.8190936365","1034319.35523","239134.854129","Library",,"Bronx","NYPL",,,"2","Bronx","BX52","Schuylerville-Throgs Neck-Edgewater Park","13","10465","210","158","158","2077131","2054390001","471","(40.8229035714, -73.8190936365)"
"333","2","Free","NYPL","Spuyten Duyvil","650 WEST 235 STREET","40.8862733773","-73.9146700146","1007844.25595","262182.691892","Library",,"Bronx","NYPL",,,"2","Bronx","BX22","North Riverdale-Fieldston-Riverdale","11","10463","208","309","309","2085867","2059150070","414","(40.8862733773, -73.9146700146)"
"8154","2","Free","LinkNYC - Citybridge","bx-01-118944","2914 3 AVENUE","40.817235","-73.915829","1007547.88712","237029.080125","Outdoor Kiosk","Tablet Internet -phone , Free 1 GB Wi-FI Service","Bronx","LinkNYC Free Wi-Fi","LINK-014492","2016-12-22T00:00:00.000","2","Bronx","BX34","Melrose South-Mott Haven North","17","10455","201","71","71","2001164","2023620010","4432","(40.817235, -73.915829)"
"417","2","Free","NYPL","Jerome Park","118 EAMES PLACE","40.8690393929","-73.9011937916","1011577.59395","255907.586003","Library",,"Bronx","NYPL",,,"2","Bronx","BX28","Van Cortlandt Village","14","10468","208","26701","26701","2015263","2032480070","505","(40.8690393929, -73.9011937916)"
"8277","2","Free","LinkNYC - Citybridge","bx-07-145853","2620 BRIGGS AVENUE","40.86487","-73.8928","1013900.9876","254391.24422","Outdoor Kiosk","Tablet Internet -phone , Free 1 GB Wi-FI Service","Bronx","LinkNYC Free Wi-Fi","LINK-018398","2017-10-26T00:00:00.000","2","Bronx","BX05","Bedford Park-Fordham North","15","10458","207","399","399","2000000","2032930050","4555","(40.86487, -73.8928)"
"8000","2","Free","LinkNYC - Citybridge","bx-05-119569","2454 CRESTON AVENUE","40.862152","-73.898396","1012354.34404","253399.221926","Outdoor Kiosk","Tablet Internet -phone , Free 1 GB Wi-FI Service","Bronx","LinkNYC Free Wi-Fi","LINK-013324","2017-10-26T00:00:00.000","2","Bronx","BX40","Fordham South","14","10468","205","237","237","2013807","2031660070","4278","(40.862152, -73.898396)"
"9332","2","Free","LinkNYC - Citybridge","bx-04-119077","271 EAST 161 STREET","40.825605","-73.918258","1006872.75814","240077.841657","Outdoor Kiosk","Tablet Internet -phone , Free 1 GB Wi-FI Service","Bronx","LinkNYC Free Wi-Fi","LINK-013218","2018-06-11T00:00:00.000","2","Bronx","BX14","East Concourse-Concourse Village","17","10451","204","173","173","2001921","2024210000","4835","(40.825605, -73.918258)"
"32","2","Limited Free","ALTICEUSA","Ranaqua Park","BIRCHAll AV INDOOR LOBBY","40.84459","-73.8598","1023040.44242","247015.362646","Indoor","3 free 10 min sessions","Bronx","GuestWiFi",,,"2","Bronx","BX37","Van Nest-Morris Park-Westchester Square","13","10462","211","238","238","0","2040420350","900","(40.84459, -73.8598)"
"7833","2","Free","LinkNYC - Citybridge","bx-05-138759","1831 WEBSTER AVENUE","40.846169","-73.901951","1011377.49396","247574.791645","Outdoor Kiosk","Tablet Internet -phone , Free 1 GB Wi-FI Service","Bronx","LinkNYC Free Wi-Fi","LINK-012120","2017-08-01T00:00:00.000","2","Bronx","BX41","Mount Hope","15","10457","205","231","231","2009388","2028920080","4111","(40.846169, -73.901951)"
"1614","2","Limited Free","ALTICEUSA","Gun Hill Playground","HOLLAND AV 1 P/S/O MAGENTA AV","40.874779","-73.865005","1021583.37709","258012.105745","Outdoor","3 free 10 min sessions","Bronx","GuestWiFi",,,"2","Bronx","BX44","Williamsbridge-Olinville","12","10467","212","374","374","0","0","1311","(40.874779, -73.865005)"
"1076","2","Free","Transit Wireless","IRT-6-3RD AVE - 138TH STREET","3 Avenue - 138 St [6]","40.810476","-73.926138","1004696.57524","234563.961696","Subway Station","SN 377","Bronx","TransitWirelessWiFi",,,"2","Bronx","BX39","Mott Haven-Port Morris","8","10454","201","23","23","0","0","1504","(40.810476, -73.926138)"
"2213","2","Free","Transit Wireless","IRT - Cypress Av (6)","Cypress Av (6)","40.805368","-73.914042","1008046.831","232705.991659","Subway Station","SN 375","Bronx","TransitWirelessWiFi",,,"2","Bronx","BX39","Mott Haven-Port Morris","8","10454","201","2702","2702","0","0","1617","(40.805368, -73.914042)"
"1605","2","Limited Free","ALTICEUSA","Ferry Point Park","C/O SCHLEY AV /BRUSH AV","40.816412","-73.833998","1030198.76997","236761.576067","Outdoor","3 free 10 min sessions","Bronx","GuestWiFi",,,"2","Bronx","BX52","Schuylerville-Throgs Neck-Edgewater Park","13","10465","210","110","110","0","2056220001","1302","(40.816412, -73.833998)"
"1615","2","Limited Free","ALTICEUSA","Haffen Park","HAMMERSLEY AV 1/P/W/O ELY AV","40.87322","-73.837825","1029101.15274","257456.851606","Outdoor","3 free 10 min sessions","Bronx","GuestWiFi",,,"2","Bronx","BX03","Eastchester-Edenwald-Baychester","12","10469","212","358","358","0","0","1312","(40.87322, -73.837825)"
"7584","2","Free","LinkNYC - Citybridge","bx-05-111414","8 WEST BURNSIDE AVENUE","40.853764","-73.907899","1009728.93525","250340.150944","Outdoor Kiosk","Tablet Internet -phone , Free 1 GB Wi-FI Service","Bronx","LinkNYC Free Wi-Fi","LINK-010317","2017-01-17T00:00:00.000","2","Bronx","BX36","University Heights-Morris Heights","14","10453","205","243","243","2008401","2028630030","3862","(40.853764, -73.907899)"
"2235","2","Free","Transit Wireless","IRT - Hunts Point Avenue (6)","Hunts Point Avenue (6)","40.820948","-73.890549","1014543.59721","238389.592496","Subway Station","SN 425","Bronx","TransitWirelessWiFi",,,"2","Bronx","BX27","Hunts Point","17","10459","202","119","119","0","0","1640","(40.820948, -73.890549)"
"1077","2","Free","Transit Wireless","IRT-4-5-138TH ST - GRAND CONCOURSE","138 St - Grand Concourse [4,5]","40.813224","-73.929849","1003668.48969","235564.311073","Subway Station","SN 391","Bronx","TransitWirelessWiFi",,,"2","Bronx","BX39","Mott Haven-Port Morris","8","10451","201","51","51","0","0","1505","(40.813224, -73.929849)"
"855","2","Limited Free","ALTICEUSA","Williamsbridge Oval","RESERVOIR OVAL E  1/p/n/o holt pl","40.876788","-73.876273","1018466.13759","258739.461573","Outdoor","3 free 10 min sessions","Bronx","GuestWiFi",,,"2","Bronx","BX43","Norwood","11","10467","207","423","423","0","0","862","(40.876788, -73.876273)"
"2218","2","Free","Transit Wireless","IRT - East 149 St (6)","East 149 St (6)","40.812118","-73.904098","1010797.05975","235168.112391","Subway Station","SN 373","Bronx","TransitWirelessWiFi",,,"2","Bronx","BX33","Longwood","8","10455","202","83","83","0","0","1622","(40.812118, -73.904098)"
"9395","2","Free","LinkNYC - Citybridge","bx-01-119017","710 EAST 138 STREET","40.804706","-73.912933","1008354.1916","232464.930323","Outdoor Kiosk","Tablet Internet -phone , Free 1 GB Wi-FI Service","Bronx","LinkNYC Free Wi-Fi","LINK-013018","2018-07-02T00:00:00.000","2","Bronx","BX39","Mott Haven-Port Morris","8","10454","201","2702","2702","2003792","2025660020","4898","(40.804706, -73.912933)"
"1604","2","Limited Free","ALTICEUSA","Ferry Point Park","HUTCHINSON RVR PK 2 P/S/O SCHLEY AV","40.815346","-73.837671","1029182.81727","236371.289446","Outdoor","3 free 10 min sessions","Bronx","GuestWiFi",,,"2","Bronx","BX52","Schuylerville-Throgs Neck-Edgewater Park","13","10465","210","110","110","0","2056220001","1301","(40.815346, -73.837671)"
"1603","2","Limited Free","ALTICEUSA","Ferry Point Park","SCHLEY AV  2/P/W/O HUTCHINSON RVR PK","40.816357","-73.837449","1029243.58356","236739.746386","Outdoor","3 free 10 min sessions","Bronx","GuestWiFi",,,"2","Bronx","BX09","Soundview-Castle Hill-Clason Point-Harding Park","13","10465","210","90","90","0","0","1300","(40.816357, -73.837449)"
"261","2","Free","NYPL","Mott Haven","321 EAST 140 STREET","40.8115962129","-73.9243663402","1005186.65595","234972.513372","Library",,"Bronx","NYPL",,,"2","Bronx","BX39","Mott Haven-Port Morris","8","10454","201","39","39","2000744","2023150018","337","(40.8115962129, -73.9243663402)"
"8152","2","Free","LinkNYC - Citybridge","bx-01-118942","2922 3 AVENUE","40.817446","-73.915574","1007618.46736","237106.022885","Outdoor Kiosk","Tablet Internet -phone , Free 1 GB Wi-FI Service","Bronx","LinkNYC Free Wi-Fi","LINK-014483","2016-12-28T00:00:00.000","2","Bronx","BX34","Melrose South-Mott Haven North","17","10455","201","71","71","2001166","2023620020","4430","(40.817446, -73.915574)"
"1406","2","Limited Free","ALTICEUSA","Crotona Park","Crotona Park-CROTONA PARK SOUTH 1/P/E/O CROTONA AV","40.83448","-73.897582","1012591.2563","243317.437955","Outdoor","3 free 10 min sessions","Bronx","GuestWiFi",,,"2","Bronx","BX35","Morrisania-Melrose","16","10456","203","151","151","0","0","1266","(40.83448, -73.897582)"
"1418","2","Limited Free","ALTICEUSA","Crotona Park","CROTONA PARK-TRAFALGAR PL 1/P/N/O E 175TH ST","40.839709","-73.887464","1015388.67459","245225.990897","Outdoor","3 free 10 min sessions","Bronx","GuestWiFi",,,"2","Bronx","BX17","East Tremont","17","10460","206","367","367","0","0","1280","(40.839709, -73.887464)"
"9336","2","Free","LinkNYC - Citybridge","bx-01-146083","296 WILLIS AVENUE","40.810255","-73.921923","1005863.38481","234484.528197","Outdoor Kiosk","Tablet Internet -phone , Free 1 GB Wi-FI Service","Bronx","LinkNYC Free Wi-Fi","LINK-020563","2018-06-11T00:00:00.000","2","Bronx","BX39","Mott Haven-Port Morris","8","10454","201","39","39","2127513","2022840010","4839","(40.810255, -73.921923)"
"16","2","Limited Free","ALTICEUSA","Poe Park","Playground area","40.864781","-73.894626","1013395.96401","254358.205244","Outdoor","3 free 10 min sessions","Bronx","GuestWiFi",,,"2","Bronx","BX05","Bedford Park-Fordham North","15","10458","207","39901","39901","0","2031550001","884","(40.864781, -73.894626)"
"2243","2","Free","Transit Wireless","Fordham Rd (B,D)","Fordham Rd","40.861296","-73.897749","1012533.63929","253087.461394","Subway Station","SN 213","Bronx","TransitWirelessWiFi",,,"2","Bronx","BX05","Bedford Park-Fordham North","15","10458","205","23702","23702","0","0","1648","(40.861296, -73.897749)"
"1613","2","Limited Free","ALTICEUSA","Gun Hill Playground","Cruger Av 1/P/S/O Magenta St","40.87455","-73.86554","1021435.54898","257928.444495","Outdoor","3 free 10 min sessions","Bronx","GuestWiFi",,,"2","Bronx","BX44","Williamsbridge-Olinville","12","10467","212","374","374","0","2046300010","1310","(40.87455, -73.86554)"
"36","2","Limited Free","ALTICEUSA","Seton Falls Park","SETON AV 5/P/S/O E 233RD ST","40.887637","-73.835951","1029609.58873","262710.496938","Outdoor","3 free 10 min sessions","Bronx","GuestWiFi",,,"2","Bronx","BX03","Eastchester-Edenwald-Baychester","12","10466","212","484","484","0","0","904","(40.887637, -73.835951)"
"851","2","Limited Free","ALTICEUSA","Williamsbridge Oval","1ST FL SENIOR GAME ROOM","40.876827","-73.878725","1017788.02904","258752.722702","Indoor","3 free 10 min sessions","Bronx","GuestWiFi",,,"2","Bronx","BX43","Norwood","11","10467","207","423","423","2018251","2033430400","858","(40.876827, -73.878725)"
"2209","2","Free","Transit Wireless","IRT - Brook Av (6)","Brook Av (6)","40.807566","-73.91924","1006607.06551","233505.431005","Subway Station","SN 376","Bronx","TransitWirelessWiFi",,,"2","Bronx","BX39","Mott Haven-Port Morris","8","10454","201","39","39","0","0","1613","(40.807566, -73.91924)"
"726","2","Limited Free","ALTICEUSA","Macombs Dam Park","PARKING STRUCTURE 3FLR NORTH FACING ON OUTSIDE  ( FIFTH RADIO IN FROM RIVER ST)","40.826378","-73.929249","1003830.70492","240356.920583","Outdoor","3 free 10 min sessions","Bronx","GuestWiFi",,,"2","Bronx","BX63","West Concourse","8","10451","204","63","63","0","2024900001","222","(40.826378, -73.929249)"
"38","2","Limited Free","ALTICEUSA","Seton Falls Park","C/O EDEN TERR/CRAWFORD AV","40.885284","-73.838521","1028900.56423","261851.885138","Outdoor","3 free 10 min sessions","Bronx","GuestWiFi",,,"2","Bronx","BX03","Eastchester-Edenwald-Baychester","12","10466","212","484","484","0","0","906","(40.885284, -73.838521)"
"854","2","Limited Free","ALTICEUSA","Williamsbridge Oval","RESERVOIR OVAL E  2/P/S/O RESERVOIR PL","40.878445","-73.87548","1018684.57974","259343.482675","Outdoor","3 free 10 min sessions","Bronx","GuestWiFi",,,"2","Bronx","BX43","Norwood","11","10467","207","423","423","0","0","861","(40.878445, -73.87548)"
"857","2","Limited Free","ALTICEUSA","Williamsbridge Oval","RESERVOIR OVAL E  3/p/S/o holt pl","40.876099","-73.877384","1018159.24713","258487.999806","Outdoor","3 free 10 min sessions","Bronx","GuestWiFi",,,"2","Bronx","BX43","Norwood","11","10467","207","423","423","0","0","864","(40.876099, -73.877384)"
"7","2","Limited Free","ALTICEUSA","Pelham Bay Park","MIDDLETOWN RD 1/P/W/O KENNELLWORTH PL","40.847596","-73.82223","1033433.04959","248129.425707","Outdoor","3 free 10 min sessions","Bronx","GuestWiFi",,,"2","Bronx","BX99","park-cemetery-etc-Bronx","13","10465","228","276","276","0","0","875","(40.847596, -73.82223)"
"7573","2","Free","LinkNYC - Citybridge","bx-05-111503","305 EAST BURNSIDE AVENUE","40.850548","-73.900954","1011651.50194","249170.686091","Outdoor Kiosk","Tablet Internet -phone , Free 1 GB Wi-FI Service","Bronx","LinkNYC Free Wi-Fi","LINK-010251","2017-06-13T00:00:00.000","2","Bronx","BX41","Mount Hope","15","10457","205","381","381","2013524","2031490070","3851","(40.850548, -73.900954)"
"1594","2","Limited Free","ALTICEUSA","Crotona Park","Crotona Park-CROTONA AV 2 P/S/O CRONTA PARK NORTH","40.841693","-73.894399","1013468.89201","245946.446477","Outdoor","3 free 10 min sessions","Bronx","GuestWiFi",,,"2","Bronx","BX99","park-cemetery-etc-Bronx","17","10457","203","163","163","0","0","1290","(40.841693, -73.894399)"
"380","2","Free","NYPL","Woodstock","761 EAST 160 STREET","40.8206415647","-73.9046288601","1010646.72902","238273.390957","Library",,"Bronx","NYPL",,,"2","Bronx","BX34","Melrose South-Mott Haven North","17","10456","201","77","77","2004700","2026570030","465","(40.8206415647, -73.9046288601)"
"7228","2","Free","LinkNYC - Citybridge","bx-04-119157","96 EAST 170 STREET","40.839445","-73.915848","1007534.92619","245120.988482","Outdoor Kiosk","Tablet Internet -phone , Free 1 GB Wi-FI Service","Bronx","LinkNYC Free Wi-Fi","LINK-001363","2016-09-15T00:00:00.000","2","Bronx","BX63","West Concourse","16","10452","204","221","221","2008083","2028420040","3506","(40.839445, -73.915848)"
"958","2","Limited Free","ALTICEUSA","St. Mary's Park","ROOF OF RESTROOM BLDG RIGHT","40.811544","-73.914138","1008018.04858","234956.100347","Outdoor","3 free 10 min sessions","Bronx","GuestWiFi",,,"2","Bronx","BX39","Mott Haven-Port Morris","8","10454","201","37","37","2003692","2025570001","1385","(40.811544, -73.914138)"
"2126","2","Free","Transit Wireless","IND - 167th Street - Grand Concourse (D)","167th Street  - Grand Concourse","40.833773","-73.918438","1006820.19566","243053.791173","Subway Station","SN 218","Bronx","TransitWirelessWiFi",,,"2","Bronx","BX63","West Concourse","16","10452","204","197","197","0","0","1639","(40.833773, -73.918438)"
"7811","2","Free","LinkNYC - Citybridge","bx-01-118947","487 EAST 156 STREET","40.820102","-73.912838","1008374.74472","238074.621013","Outdoor Kiosk","Tablet Internet -phone , Free 1 GB Wi-FI Service","Bronx","LinkNYC Free Wi-Fi","LINK-011789","2018-01-12T00:00:00.000","2","Bronx","BX34","Melrose South-Mott Haven North","17","10451","201","71","71","2114919","2023647500","4089","(40.820102, -73.912838)"
"1593","2","Limited Free","ALTICEUSA","Crotona Park","Crotona Park- CROTONA PARK NORTH  1/P/E/O CROTONA AV","40.841626","-73.892961","1013866.80394","245922.518703","Outdoor","3 free 10 min sessions","Bronx","GuestWiFi",,,"2","Bronx","BX17","East Tremont","17","10457","206","36902","36902","2009945","2029480058","1289","(40.841626, -73.892961)"
"9323","2","Free","LinkNYC - Citybridge","bx-04-146078","247 EAST 169 STREET","40.835734","-73.91396","1008058.54894","243769.601373","Outdoor Kiosk","Tablet Internet -phone , Free 1 GB Wi-FI Service","Bronx","LinkNYC Free Wi-Fi","LINK-020557","2018-08-02T00:00:00.000","2","Bronx","BX14","East Concourse-Concourse Village","16","10456","204","17902","17902","2000000","2028300070","4826","(40.835734, -73.91396)"
"1407","2","Limited Free","ALTICEUSA","Crotona Park","Crotona Park-C/O CROTONA PARK SOUTH  /CROTONA AV","40.834623","-73.898171","1012428.20675","243369.348285","Outdoor","3 free 10 min sessions","Bronx","GuestWiFi",,,"2","Bronx","BX35","Morrisania-Melrose","16","10456","203","151","151","0","0","1267","(40.834623, -73.898171)"
"845","2","Limited Free","ALTICEUSA","Pelham Bay Park","C/O MIDDLETOWN RD /MCDONOUGH PL","40.846052","-73.82495","1032681.64131","247565.373685","Outdoor","3 free 10 min sessions","Bronx","GuestWiFi",,,"2","Bronx","BX10","Pelham Bay-Country Club-City Island","13","10465","210","27401","27401","0","0","852","(40.846052, -73.82495)"
"8327","2","Free","LinkNYC - Citybridge","BX-01-GF22140","680 MELROSE AVE","40.819394","-73.916163","1007454.7213","237815.64745","Outdoor Kiosk","Tablet Internet -phone , Free 1 GB Wi-FI Service","Bronx","LinkNYC Free Wi-Fi","LINK-020569","9999-09-09T00:00:00.000","2","Bronx","BX34","Melrose South-Mott Haven North","17","10455","201","67","67","2001366","2023750010","4605","(40.819394, -73.916163)"
"1595","2","Limited Free","ALTICEUSA","Crotona Park","Crotona Park-CROTONA AV 3 P/S/O CRONTA PARK NORTH","40.84182","-73.894281","1013501.48578","245992.756752","Outdoor","3 free 10 min sessions","Bronx","GuestWiFi",,,"2","Bronx","BX99","park-cemetery-etc-Bronx","17","10457","203","163","163","0","0","1291","(40.84182, -73.894281)"
"7318","2","Free","LinkNYC - Citybridge","bx-04-119146","135 EAST 149 STREET","40.818942","-73.92837","1004076.18803","237647.914518","Outdoor Kiosk","Tablet Internet -phone , Free 1 GB Wi-FI Service","Bronx","LinkNYC Free Wi-Fi","LINK-001792","2016-06-15T00:00:00.000","2","Bronx","BX63","West Concourse","8","10451","204","63","63","2001114","2023520050","3596","(40.818942, -73.92837)"
"7819","2","Free","LinkNYC - Citybridge","bx-01-123215","3012 3 AVENUE","40.819568","-73.913388","1008222.77061","237879.734264","Outdoor Kiosk","Tablet Internet -phone , Free 1 GB Wi-FI Service","Bronx","LinkNYC Free Wi-Fi","LINK-011877","2016-12-22T00:00:00.000","2","Bronx","BX34","Melrose South-Mott Haven North","17","10455","201","71","71","2117395","2023630020","4097","(40.819568, -73.913388)"
"1079","2","Free","Transit Wireless","IRT-4-149TH ST - GRAND CONCOURSE","149 St - Grand Concourse [4]","40.818375","-73.927351","1004358.40433","237441.568474","Subway Station","SN 390","Bronx","TransitWirelessWiFi",,,"2","Bronx","BX39","Mott Haven-Port Morris","17","10451","201","51","51","0","0","1507","(40.818375, -73.927351)"
"7456","2","Free","LinkNYC - Citybridge","bx-04-145687","1049 GERARD AVENUE","40.831543","-73.922645","1005656.7367","242240.264257","Outdoor Kiosk","Tablet Internet -phone , Free 1 GB Wi-FI Service","Bronx","LinkNYC Free Wi-Fi","LINK-005435","2017-01-17T00:00:00.000","2","Bronx","BX63","West Concourse","8","10452","204","195","195","2002938","2024770020","3734","(40.831543, -73.922645)"
"2244","2","Free","Transit Wireless","182-183 Sts (B,D)","182-183 Sts (B,D)","40.856093","-73.900741","1011708.17079","251190.857248","Subway Station","SN 214","Bronx","TransitWirelessWiFi",,,"2","Bronx","BX40","Fordham South","15","10457","205","38301","38301","0","0","1650","(40.856093, -73.900741)"
"8297","2","Free","LinkNYC - Citybridge","bx-04-145925","1579 Jerome Avenue","40.844258","-73.914961","1007778.70457","246874.806497","Outdoor Kiosk","Tablet Internet -phone , Free 1 GB Wi-FI Service","Bronx","LinkNYC Free Wi-Fi","LINK-019379","2018-01-12T00:00:00.000","2","Bronx","BX63","West Concourse","14","10452","204","209","209","2008329","2028590040","4575","(40.844258, -73.914961)"
"955","2","Limited Free","ALTICEUSA","St. Mary's Park","HALL CEILING-2ND FL","40.811544","-73.914138","1008018.04858","234956.100347","Indoor","3 free 10 min sessions","Bronx","GuestWiFi",,,"2","Bronx","BX39","Mott Haven-Port Morris","8","10454","201","37","37","2003692","2025570001","1382","(40.811544, -73.914138)"
"7999","2","Free","LinkNYC - Citybridge","bx-01-118955","2901 3 AVENUE","40.817141","-73.916208","1007442.96541","236994.804931","Outdoor Kiosk","Tablet Internet -phone , Free 1 GB Wi-FI Service","Bronx","LinkNYC Free Wi-Fi","LINK-013313","2016-12-22T00:00:00.000","2","Bronx","BX34","Melrose South-Mott Haven North","17","10455","201","65","65","2001339","2023740020","4277","(40.817141, -73.916208)"
"8467","2","Free","LinkNYC - Citybridge","BX-03-GF22180","574 EAST 163 STREET","40.823926","-73.908549","1009560.34602","239468.70812","Outdoor Kiosk","Tablet Internet -phone , Free 1 GB Wi-FI Service","Bronx","LinkNYC Free Wi-Fi","LINK-023349","9999-09-09T00:00:00.000","2","Bronx","BX35","Morrisania-Melrose","17","10456","203","141","141","2004376","2026200030","4745","(40.823926, -73.908549)"
"1624","2","Limited Free","ALTICEUSA","Joyce Kilmer Park","Left center","40.828057","-73.923075","1005538.85374","240970.082086","Outdoor","3 free 10 min sessions","Bronx","GuestWiFi",,,"2","Bronx","BX63","West Concourse","8","10451","204","195","195","0","2024690001","1322","(40.828057, -73.923075)"
"2088","2","Free","NYPL","High Bridge","78 WEST 168 STREET","40.8379589117","-73.9235396129","1005407.12401","244577.600133","Library",,"Bronx","NYPL",,,"2","Bronx","BX26","Highbridge","16","10452","204","199","199","2003163","2025100027","457","(40.8379589117, -73.9235396129)"
"7312","2","Free","LinkNYC - Citybridge","bx-05-119606","2374 JEROME AVENUE","40.86063","-73.902369","1011255.97255","252843.353943","Outdoor Kiosk","Tablet Internet -phone , Free 1 GB Wi-FI Service","Bronx","LinkNYC Free Wi-Fi","LINK-001780","2016-07-01T00:00:00.000","2","Bronx","BX40","Fordham South","14","10468","205","239","239","2014093","2031880000","3590","(40.86063, -73.902369)"
"8140","2","Free","LinkNYC - Citybridge","bx-06-118932","1848 WEBSTER AVENUE","40.846646","-73.901392","1011532.05927","247748.904158","Outdoor Kiosk","Tablet Internet -phone , Free 1 GB Wi-FI Service","Bronx","LinkNYC Free Wi-Fi","LINK-014335","2017-08-01T00:00:00.000","2","Bronx","BX41","Mount Hope","15","10457","206","231","231","2009444","2029000020","4418","(40.846646, -73.901392)"
"7806","2","Free","LinkNYC - Citybridge","bx-06-118922","1901 WASHINGTON AVENUE","40.846926","-73.898221","1012409.2852","247851.836039","Outdoor Kiosk","Tablet Internet -phone , Free 1 GB Wi-FI Service","Bronx","LinkNYC Free Wi-Fi","LINK-011757","2018-01-12T00:00:00.000","2","Bronx","BX01","Claremont-Bathgate","15","10457","206","395","395","2009536","2029090020","4084","(40.846926, -73.898221)"
"12","2","Limited Free","ALTICEUSA","Pelham Bay Park","IN PARK POLE 6/P/N/O  STADIUM AV","40.850208","-73.821752","1033563.35969","249081.343094","Outdoor","3 free 10 min sessions","Bronx","GuestWiFi",,,"2","Bronx","BX99","park-cemetery-etc-Bronx","13","10465","228","276","276","0","2043350001","880","(40.850208, -73.821752)"
"14","2","Limited Free","ALTICEUSA","Poe Park","right side of bandshell","40.864437","-73.894553","1013416.30648","254232.897096","Outdoor","3 free 10 min sessions","Bronx","GuestWiFi",,,"2","Bronx","BX05","Bedford Park-Fordham North","15","10458","207","39901","39901","0","2031550001","882","(40.864437, -73.894553)"
"1616","2","Limited Free","ALTICEUSA","Haffen Park","HAMMERSLEY AV 5/P/W/O ELY AV","40.872676","-73.839478","1028644.36231","257257.809353","Outdoor","3 free 10 min sessions","Bronx","GuestWiFi",,,"2","Bronx","BX03","Eastchester-Edenwald-Baychester","12","10469","212","358","358","0","0","1314","(40.872676, -73.839478)"
"6","2","Limited Free","ALTICEUSA","Pelham Bay Park","MIDDLETOWN RD 1/P/W/O DWIGHT PL","40.846314","-73.824472","1032813.69945","247661.094622","Outdoor","3 free 10 min sessions","Bronx","GuestWiFi",,,"2","Bronx","BX10","Pelham Bay-Country Club-City Island","13","10465","210","27401","27401","0","0","872","(40.846314, -73.824472)"
"1596","2","Limited Free","ALTICEUSA","Crotona Park","Crotona Park-ON SPAN BETWEEN PS 4 & PS 171","40.881477","-73.897951","1012469.19814","260440.124511","Outdoor","3 free 10 min sessions","Bronx","GuestWiFi",,,"2","Bronx","BX28","Van Cortlandt Village","11","10463","208","279","279","2015848","2032580177","1293","(40.881477, -73.897951)"
"269","2","Free","NYPL","Baychester","2049 ASCH LOOP NORTH","40.8705019246","-73.8286579311","1031638.33303","256471.377855","Library",,"Bronx","NYPL",,,"2","Bronx","BX13","Co-op City","12","10475","210","46201","46201","2097466","2051410100","346","(40.8705019246, -73.8286579311)"
"408","2","Free","NYPL","Grand Concourse","155 EAST 173 STREET","40.8440019118","-73.9100871445","1009127.25502","246782.825054","Library",,"Bronx","NYPL",,,"2","Bronx","BX41","Mount Hope","15","10457","204","22703","22703","2007870","2028240034","496","(40.8440019118, -73.9100871445)"
"1374","2","Limited Free","ALTICEUSA","Claremont Park","LEFT SIDE OF GAZEBO IN PARK S/O MT EDEN PKWY","40.8416","-73.9071","1009954.67135","245908.581395","Outdoor","3 free 10 min sessions","Bronx","GuestWiFi",,,"2","Bronx","BX99","park-cemetery-etc-Bronx","16","10457","204","171","171","0","2027880001","1234","(40.8416, -73.9071)"
"727","2","Limited Free","ALTICEUSA","Macombs Dam Park","DOT POLE ON RIVER AVE C/O 158 ST ( WEST SIDE OF STREET)","40.826567","-73.926762","1004518.93714","240426.345969","Outdoor","3 free 10 min sessions","Bronx","GuestWiFi",,,"2","Bronx","BX63","West Concourse","16","10451","204","63","63","0","0","223","(40.826567, -73.926762)"
"9378","2","Free","LinkNYC - Citybridge","bx-01-119011","548 EAST 138 STREET","40.80682","-73.917657","1007045.43765","233233.877255","Outdoor Kiosk","Tablet Internet -phone , Free 1 GB Wi-FI Service","Bronx","LinkNYC Free Wi-Fi","LINK-013019","2018-07-26T00:00:00.000","2","Bronx","BX39","Mott Haven-Port Morris","8","10454","201","25","25","2000047","2022650050","4881","(40.80682, -73.917657)"
"7311","2","Free","LinkNYC - Citybridge","bx-05-119573","2454 WALTON AVENUE","40.862313","-73.900314","1011823.70239","253457.281521","Outdoor Kiosk","Tablet Internet -phone , Free 1 GB Wi-FI Service","Bronx","LinkNYC Free Wi-Fi","LINK-001777","2016-09-15T00:00:00.000","2","Bronx","BX40","Fordham South","14","10468","205","239","239","2014027","2031840040","3589","(40.862313, -73.900314)"
"970","2","Free","AT&T","Devoe Park","Near Tennis Courts","40.8631","-73.9065","1010112.32523","253742.023734","Outdoor",,"Bronx","attwifi",,,"2","Bronx","BX30","Kingsbridge Heights","14","10468","207","263","263","0","2032190001","1397","(40.8631, -73.9065)"
"1375","2","Limited Free","ALTICEUSA","Claremont Park","SOUTH OF RESTROOM LOCATED S/O/MT EDEN PKWY","40.84122","-73.90678","1010043.36015","245770.227341","Outdoor","3 free 10 min sessions","Bronx","GuestWiFi",,,"2","Bronx","BX99","park-cemetery-etc-Bronx","16","10457","204","171","171","0","2027880001","1235","(40.84122, -73.90678)"
"2114","2","Free","NYPL","Sedgwick","1701 MARTIN LUTHER KING JR BOULEVARD","40.8494940806","-73.9175775272","1007052.91993","248781.790216","Library",,"Bronx","NYPL",,,"2","Bronx","BX36","University Heights-Morris Heights","14","10453","205","21501","21501","2100281","2028780224","453","(40.8494940806, -73.9175775272)"
"730","2","Limited Free","ALTICEUSA","Macombs Dam Park","DOT POLE  ACROSS YANKEE STADIUM ON 161 ST","40.828149","-73.927457","1004326.11568","241002.566273","Outdoor","3 free 10 min sessions","Bronx","GuestWiFi",,,"2","Bronx","BX63","West Concourse","16","10451","204","63","63","0","0","226","(40.828149, -73.927457)"
"959","2","Limited Free","ALTICEUSA","St. Mary's Park","ROOF OF RESTROOM BLDG LEFT","40.811544","-73.914138","1008018.04858","234956.100347","Outdoor","3 free 10 min sessions","Bronx","GuestWiFi",,,"2","Bronx","BX39","Mott Haven-Port Morris","8","10454","201","37","37","2003692","2025570001","1386","(40.811544, -73.914138)"
"339","2","Free","NYPL","Edenwald","1255 EAST 233 STREET","40.8888948958","-73.8408371279","1028257.74202","263166.306066","Library",,"Bronx","NYPL",,,"2","Bronx","BX62","Woodlawn-Wakefield","12","10466","212","426","426","2066596","2049560001","420","(40.8888948958, -73.8408371279)"
"6768","2","Free","LinkNYC - Citybridge","bx-07-119564","48 WEST FORDHAM ROAD","40.862644","-73.903244","1011013.1151","253576.735678","Outdoor Kiosk","Tablet Internet -phone , Free 1 GB Wi-FI Service","Bronx","LinkNYC Free Wi-Fi","LINK-000070","2016-09-15T00:00:00.000","2","Bronx","BX30","Kingsbridge Heights","14","10468","207","253","253","2014307","2031990020","3046","(40.862644, -73.903244)"
"2233","2","Free","Transit Wireless","IND - Kingbridge Road - Grand Concourse (B) (D)","Kingbridge Road - Grand Concourse","40.866978","-73.893509","1013703.94797","255159.03107","Subway Station","SN 212","Bronx","TransitWirelessWiFi",,,"2","Bronx","BX05","Bedford Park-Fordham North","15","10458","207","40302","40302","0","0","1637","(40.866978, -73.893509)"
"852","2","Limited Free","ALTICEUSA","Williamsbridge Oval","1ST FL SENIOR LOUNGE","40.876855","-73.878874","1017746.80963","258762.867038","Indoor","3 free 10 min sessions","Bronx","GuestWiFi",,,"2","Bronx","BX43","Norwood","11","10467","207","423","423","0","2033430400","859","(40.876855, -73.878874)"
"272","2","Free","NYPL","Kingsbridge","280 WEST 231 STREET","40.8803222773","-73.9079833715","1009695.43007","260016.339925","Library",,"Bronx","NYPL",,,"2","Bronx","BX29","Spuyten Duyvil-Kingsbridge","11","10463","208","289","289","2083199","2057110030","349","(40.8803222773, -73.9079833715)"
"848","2","Limited Free","ALTICEUSA","Vidalia Park","C/O E 180TH /DALY AV","40.844468","-73.88169","1016983.99587","246961.976598","Outdoor","3 free 10 min sessions","Bronx","GuestWiFi",,,"2","Bronx","BX17","East Tremont","17","10460","206","363","363","0","0","855","(40.844468, -73.88169)"
"1617","2","Limited Free","ALTICEUSA","Haffen Park","GUNTHER AV 2/P/S/O BURKE AV","40.87364","-73.840586","1028337.29206","257608.472365","Outdoor","3 free 10 min sessions","Bronx","GuestWiFi",,,"2","Bronx","BX03","Eastchester-Edenwald-Baychester","12","10469","212","358","358","0","0","1315","(40.87364, -73.840586)"
"7314","2","Free","LinkNYC - Citybridge","bx-04-101603","895 WALTON AVENUE","40.827655","-73.923906","1005309.00577","240823.534479","Outdoor Kiosk","Tablet Internet -phone , Free 1 GB Wi-FI Service","Bronx","LinkNYC Free Wi-Fi","LINK-001786","2017-05-11T00:00:00.000","2","Bronx","BX63","West Concourse","8","10452","204","195","195","2002919","2024760060","3592","(40.827655, -73.923906)"
"858","2","Limited Free","ALTICEUSA","Williamsbridge Oval","RESERVOIR OVAL E  8/p/S/o holt pl","40.8762","-73.878749","1017781.70819","258524.272699","Outdoor","3 free 10 min sessions","Bronx","GuestWiFi",,,"2","Bronx","BX43","Norwood","11","10467","207","423","423","0","0","865","(40.8762, -73.878749)"
"251","2","Free","NYPL","Woodlawn Heights","4355 KATONAH AVENUE","40.9004399098","-73.867942","1020757.04476","267360.164804","Library",,"Bronx","NYPL",,,"2","Bronx","BX62","Woodlawn-Wakefield","11","10470","212","44902","44902","2019288","2033800054","325","(40.9004399098, -73.867942)"
"7458","2","Free","LinkNYC - Citybridge","bx-07-145690","30 EAST KINGSBRIDGE ROAD","40.867038","-73.896537","1012866.41946","255179.887656","Outdoor Kiosk","Tablet Internet -phone , Free 1 GB Wi-FI Service","Bronx","LinkNYC Free Wi-Fi","LINK-005579","2016-11-08T00:00:00.000","2","Bronx","BX05","Bedford Park-Fordham North","14","10468","207","401","401","2014144","2031910040","3736","(40.867038, -73.896537)"
"724","2","Limited Free","ALTICEUSA","Macombs Dam Park","PARKING STRUCTURE 3FLR NORTH FACING ON OUTSIDE ( THIRD RADIO IN FROM RIVER ST)","40.825947","-73.928134","1004139.41559","240200.143009","Outdoor","3 free 10 min sessions","Bronx","GuestWiFi",,,"2","Bronx","BX63","West Concourse","8","10451","204","63","63","2003018","2024900001","220","(40.825947, -73.928134)"
"8274","2","Free","LinkNYC - Citybridge","bx-04-145851","84 EAST 167 STREET","40.835133","-73.919797","1006443.66525","243548.934868","Outdoor Kiosk","Tablet Internet -phone , Free 1 GB Wi-FI Service","Bronx","LinkNYC Free Wi-Fi","LINK-018391","2017-07-20T00:00:00.000","2","Bronx","BX63","West Concourse","16","10452","204","197","197","2117447","2024790020","4552","(40.835133, -73.919797)"
"7997","2","Free","LinkNYC - Citybridge","bx-01-123228","349 EAST 149 STREET","40.816692","-73.919637","1006494.11232","236830.256048","Outdoor Kiosk","Tablet Internet -phone , Free 1 GB Wi-FI Service","Bronx","LinkNYC Free Wi-Fi","LINK-013242","2017-03-30T00:00:00.000","2","Bronx","BX34","Melrose South-Mott Haven North","17","10451","201","65","65","2000933","2023317500","4275","(40.816692, -73.919637)"
"7792","2","Free","LinkNYC - Citybridge","bx-05-119613","1 WEST BURNSIDE AVENUE","40.85393","-73.907502","1009838.74737","250400.878185","Outdoor Kiosk","Tablet Internet -phone , Free 1 GB Wi-FI Service","Bronx","LinkNYC Free Wi-Fi","LINK-011588","2017-01-12T00:00:00.000","2","Bronx","BX36","University Heights-Morris Heights","14","10453","205","251","251","2014153","2031920080","4070","(40.85393, -73.907502)"
"1627","2","Limited Free","ALTICEUSA","Joyce Kilmer Park","bottom left  of fountain","40.827563","-73.923631","1005385.13882","240789.964992","Outdoor","3 free 10 min sessions","Bronx","GuestWiFi",,,"2","Bronx","BX63","West Concourse","8","10451","204","195","195","0","2024690001","1325","(40.827563, -73.923631)"
"2107","2","Limited Free","ALTICEUSA","Crotona Park","CROTONA PARK-CROTONA AV 1/P/S/O CROTONA PARK NORTH","40.842046","-73.894094","1013553.12741","246075.159474","Outdoor","3 free 10 min sessions","Bronx","GuestWiFi",,,"2","Bronx","BX99","park-cemetery-etc-Bronx","17","10457","203","163","163","0","0","1292","(40.842046, -73.894094)"
"1078","2","Free","Transit Wireless","IRT-2-5-149TH ST - GRAND CONCOURSE","149 St - Grand Concourse","40.81841","-73.926718","1004533.60083","237454.466086","Subway Station","SN 435","Bronx","TransitWirelessWiFi",,,"2","Bronx","BX39","Mott Haven-Port Morris","17","10451","201","51","51","0","0","1506","(40.81841, -73.926718)"
"7229","2","Free","LinkNYC - Citybridge","bx-05-111577","111 EAST BURNSIDE AVENUE","40.853028","-73.905076","1010510.18369","250072.831925","Outdoor Kiosk","Tablet Internet -phone , Free 1 GB Wi-FI Service","Bronx","LinkNYC Free Wi-Fi","LINK-001364","2017-06-13T00:00:00.000","2","Bronx","BX41","Mount Hope","14","10453","205","241","241","2013846","2031690060","3507","(40.853028, -73.905076)"
"2231","2","Free","Transit Wireless","IND -Norwood - 205 Street (D) 6 Av Express","Norwood - 205 Street (D)","40.874811","-73.878855","1017753.09374","258018.164788","Subway Station","SN 210","Bronx","TransitWirelessWiFi",,,"2","Bronx","BX43","Norwood","11","10467","207","423","423","2018117","2033410044","1635","(40.874811, -73.878855)"
"8260","2","Free","LinkNYC - Citybridge","bx-01-145917","200 EAST 138 STREET","40.812441","-73.92925","1003834.44901","235279.137103","Outdoor Kiosk","Tablet Internet -phone , Free 1 GB Wi-FI Service","Bronx","LinkNYC Free Wi-Fi","LINK-018225","2017-10-19T00:00:00.000","2","Bronx","BX39","Mott Haven-Port Morris","8","10451","201","51","51","2094027","2023220030","4538","(40.812441, -73.92925)"
"7224","2","Free","LinkNYC - Citybridge","bx-07-119760","2663 JEROME AVENUE","40.867371","-73.897645","1012559.8538","255300.688595","Outdoor Kiosk","Tablet Internet -phone , Free 1 GB Wi-FI Service","Bronx","LinkNYC Free Wi-Fi","LINK-001354","2016-07-19T00:00:00.000","2","Bronx","BX30","Kingsbridge Heights","14","10468","207","265","265","2014396","2032020040","3502","(40.867371, -73.897645)"
"318","2","Free","NYPL","Tremont","1866 WASHINGTON AVENUE","40.8460423249","-73.8983402556","1012376.54183","247529.777956","Library",,"Bronx","NYPL",,,"2","Bronx","BX01","Claremont-Bathgate","15","10457","206","395","395","2009573","2029180001","399","(40.8460423249, -73.8983402556)"
"6770","2","Free","LinkNYC - Citybridge","bx-05-119587","150 EAST 188 STREET","40.861655","-73.898581","1012303.37334","253218.03528","Outdoor Kiosk","Tablet Internet -phone , Free 1 GB Wi-FI Service","Bronx","LinkNYC Free Wi-Fi","LINK-000074","2016-05-25T00:00:00.000","2","Bronx","BX40","Fordham South","14","10468","205","237","237","2013796","2031650030","3048","(40.861655, -73.898581)"
"1626","2","Limited Free","ALTICEUSA","Joyce Kilmer Park","bottom right of fountain","40.827441","-73.923008","1005557.5932","240745.666852","Outdoor","3 free 10 min sessions","Bronx","GuestWiFi",,,"2","Bronx","BX63","West Concourse","8","10451","204","195","195","0","2024690001","1324","(40.827441, -73.923008)"
"2237","2","Free","Transit Wireless","Tremont Ave (B,D)","Tremont Ave","40.85041","-73.905227","1010469.4423","249118.950303","Subway Station","SN 215","Bronx","TransitWirelessWiFi",,,"2","Bronx","BX41","Mount Hope","15","10457","205","23502","23502","0","0","1642","(40.85041, -73.905227)"
"8153","2","Free","LinkNYC - Citybridge","bx-07-119802","319 EAST KINGSBRIDGE ROAD","40.862347","-73.893894","1013599.39536","253471.762135","Outdoor Kiosk","Tablet Internet -phone , Free 1 GB Wi-FI Service","Bronx","LinkNYC Free Wi-Fi","LINK-014485","2017-06-21T00:00:00.000","2","Bronx","BX05","Bedford Park-Fordham North","15","10458","207","399","399","2016776","2032930010","4431","(40.862347, -73.893894)"
"40","2","Limited Free","ALTICEUSA","St. James Park","ON MAST ON ROOF","40.86473","-73.899037","1012175.92379","254338.186911","Outdoor","3 free 10 min sessions","Bronx","GuestWiFi",,,"2","Bronx","BX05","Bedford Park-Fordham North","14","10468","207","401","401","0","2031760001","908","(40.86473, -73.899037)"
"296","2","Free","NYPL","Melrose","910 MORRIS AVENUE","40.8265919268","-73.9175826513","1007059.35299","240437.684857","Library",,"Bronx","NYPL",,,"2","Bronx","BX14","East Concourse-Concourse Village","17","10451","204","173","173","2001950","2024220001","376","(40.8265919268, -73.9175826513)"
"15","2","Limited Free","ALTICEUSA","Poe Park","left side of bandshell","40.864458","-73.895115","1013260.8501","254240.361648","Outdoor","3 free 10 min sessions","Bronx","GuestWiFi",,,"2","Bronx","BX05","Bedford Park-Fordham North","15","10458","207","39901","39901","0","2031550001","883","(40.864458, -73.895115)"
"8262","2","Free","LinkNYC - Citybridge","bx-01-145852","141 LINCOLN AVENUE","40.808544","-73.929074","1003884.45875","233859.488696","Outdoor Kiosk","Tablet Internet -phone , Free 1 GB Wi-FI Service","Bronx","LinkNYC Free Wi-Fi","LINK-018228","2017-10-26T00:00:00.000","2","Bronx","BX39","Mott Haven-Port Morris","8","10454","201","19","19","2091107","2023170040","4540","(40.808544, -73.929074)"
"1625","2","Limited Free","ALTICEUSA","Joyce Kilmer Park","right center","40.827831","-73.922677","1005649.07202","240887.838812","Outdoor","3 free 10 min sessions","Bronx","GuestWiFi",,,"2","Bronx","BX63","West Concourse","8","10451","204","195","195","0","2024690001","1323","(40.827831, -73.922677)"
"17","2","Limited Free","ALTICEUSA","Poe Park","North area facing Poe cottage","40.865167","-73.894227","1013506.15571","254498.973007","Outdoor","3 free 10 min sessions","Bronx","GuestWiFi",,,"2","Bronx","BX05","Bedford Park-Fordham North","15","10458","207","39901","39901","0","2031550001","885","(40.865167, -73.894227)"
"260","2","Free","NYPL","West Farms","2085 HONEYWELL AVENUE","40.8446740907","-73.8830446904","1016609.08028","247036.559782","Library",,"Bronx","NYPL",,,"2","Bronx","BX17","East Tremont","17","10460","206","363","363","2013151","2031230061","336","(40.8446740907, -73.8830446904)"
"9301","2","Free","LinkNYC - Citybridge","bx-06-144410","1961 ARTHUR AVENUE","40.846522","-73.893398","1013743.81","247706.331109","Outdoor Kiosk","Tablet Internet -phone , Free 1 GB Wi-FI Service","Bronx","LinkNYC Free Wi-Fi","LINK-011621","2018-08-24T00:00:00.000","2","Bronx","BX17","East Tremont","17","10457","206","37504","37504","2011973","2030680050","4804","(40.846522, -73.893398)"
"8259","2","Free","LinkNYC - Citybridge","bx-01-145821","250 WALTON AVENUE","40.813595","-73.9304","1003515.78265","235699.263231","Outdoor Kiosk","Tablet Internet -phone , Free 1 GB Wi-FI Service","Bronx","LinkNYC Free Wi-Fi","LINK-018224","2017-05-16T00:00:00.000","2","Bronx","BX63","West Concourse","8","10451","201","63","63","2001020","2023440000","4537","(40.813595, -73.9304)"
"7830","2","Free","LinkNYC - Citybridge","bx-01-118956","2882 3 AVENUE","40.816679","-73.916483","1007367.17095","236826.361699","Outdoor Kiosk","Tablet Internet -phone , Free 1 GB Wi-FI Service","Bronx","LinkNYC Free Wi-Fi","LINK-012080","2016-12-22T00:00:00.000","2","Bronx","BX34","Melrose South-Mott Haven North","17","10455","201","71","71","2001159","2023620000","4108","(40.816679, -73.916483)"
"7969","2","Free","LinkNYC - Citybridge","bx-06-119378","400 EAST TREMONT AVENUE","40.847574","-73.900766","1011704.64948","248086.945805","Outdoor Kiosk","Tablet Internet -phone , Free 1 GB Wi-FI Service","Bronx","LinkNYC Free Wi-Fi","LINK-013014","2017-06-13T00:00:00.000","2","Bronx","BX41","Mount Hope","15","10457","206","231","231","2009453","2029000060","4247","(40.847574, -73.900766)"
"850","2","Limited Free","ALTICEUSA","Williamsbridge Oval","1ST FL RECEPTION","40.876541","-73.87845","1017864.22344","258648.626781","Indoor","3 free 10 min sessions","Bronx","GuestWiFi",,,"2","Bronx","BX43","Norwood","11","10467","207","423","423","2018251","2033430400","857","(40.876541, -73.87845)"
"8","2","Limited Free","ALTICEUSA","Pelham Bay Park","C/O MIDDLETOWN RD  /OHM AV","40.848159","-73.821071","1033753.28681","248335.20023","Outdoor","3 free 10 min sessions","Bronx","GuestWiFi",,,"2","Bronx","BX10","Pelham Bay-Country Club-City Island","13","10465","210","27401","27401","0","0","876","(40.848159, -73.821071)"
"1416","2","Limited Free","ALTICEUSA","Crotona Park","INSIDE PARK NEXT TO PLAYGROUND S/O CROTONA PK NORTH","40.838988","-73.888714","1015043.13394","244962.86183","Outdoor","3 free 10 min sessions","Bronx","GuestWiFi",,,"2","Bronx","BX99","park-cemetery-etc-Bronx","17","10457","203","163","163","0","0","1278","(40.838988, -73.888714)"
"8276","2","Free","LinkNYC - Citybridge","bx-05-145959","2458 Grand Concourse","40.86115","-73.8974","1012630.2385","253034.38112","Outdoor Kiosk","Tablet Internet -phone , Free 1 GB Wi-FI Service","Bronx","LinkNYC Free Wi-Fi","LINK-018397","2018-01-12T00:00:00.000","2","Bronx","BX05","Bedford Park-Fordham North","15","10458","205","237","237","2013592","2031520070","4554","(40.86115, -73.8974)"
"954","2","Limited Free","ALTICEUSA","St. Mary's Park","MULTIPURPOSE RM DROP CEILING-2ND FL","40.811544","-73.914138","1008018.04858","234956.100347","Indoor","3 free 10 min sessions","Bronx","GuestWiFi",,,"2","Bronx","BX39","Mott Haven-Port Morris","8","10454","201","37","37","2003692","2025570001","1381","(40.811544, -73.914138)"
"1408","2","Limited Free","ALTICEUSA","Crotona Park","N/O CROTONA PK SOUTH NEXT TO VICTORY GARDEN INSIDE PARK","40.835691","-73.900089","1011897.01261","243757.84882","Outdoor","3 free 10 min sessions","Bronx","GuestWiFi",,,"2","Bronx","BX99","park-cemetery-etc-Bronx","17","10456","203","163","163","0","2029410101","1268","(40.835691, -73.900089)"
"275","2","Free","NYPL","Parkchester","1985 WESTCHESTER AVENUE","40.8337362974","-73.8583552177","1023446.57776","243061.601853","Library",,"Bronx","NYPL",,,"2","Bronx","BX46","Parkchester","18","10462","209","222","222","2028890","2039300059","352","(40.8337362974, -73.8583552177)"
"2238","2","Free","Transit Wireless","174-175 Sts (B,D)","174th St","40.8459","-73.910136","1009113.02802","247474.355823","Subway Station","SN 216","Bronx","TransitWirelessWiFi",,,"2","Bronx","BX41","Mount Hope","14","10457","205","22701","22701","0","0","1643","(40.8459, -73.910136)"
"856","2","Limited Free","ALTICEUSA","Williamsbridge Oval","RESERVOIR OVAL E  1/p/E O BAINBRIDGE AV","40.877001","-73.879322","1017622.844","258815.88957","Outdoor","3 free 10 min sessions","Bronx","GuestWiFi",,,"2","Bronx","BX43","Norwood","11","10467","207","423","423","0","2033430400","863","(40.877001, -73.879322)"
