ParkingAddressReferenceType,ParkingAddressReference,ParkingAddressType,StreetName,HouseNumber,ZipCode,Place,Province,Country,TelephoneNumber,EmailAddress,FaxNumber
I-O,48,F,Siem Heidenstraat,6,3077MS,Rotterdam,Zuid-Holland,Nederland,14010,,
I-O,7,F,Wilhelminasingel,101,,Weert,Limburg,Nederland,,,
I-O,1446,F,Van Lochemstraat,9,7511EG,Enschede,Overijssel,Nederland,,postbus20@enschede.nl,
I-O,65,F,Siem Heidenstraat,6,3077MS,Rotterdam,Zuid-Holland,Nederland,14010,,
I-O,140,F,Scheldeboulevard,1,4531EJ,Terneuzen,Zeeland,Nederland,,gemeente@terneuzen.nl,
I-O,49,F,Zoomstraat,111,3036RE,Rotterdam,Zuid-Holland,Nederland,14010,,
I-O,41,F,Kralingse Zoom,70,3062SM,Rotterdam,Zuid-Holland,Nederland,14010,,
I-O,38,F,Kipstraat,177,3011ZX,Rotterdam,Zuid-Holland,Nederland,14010,,
I-O,66,F,Siem Heidenstraat,6,3077MS,Rotterdam,Zuid-Holland,Nederland,14010,,
GEB,599,P,Postbus,10902,3004BC,Rotterdam,Zuid-Holland,Nederland,14010,,
I-O,2,F,Walburgpassage,0,,Weert,Limburg,Nederland,,,
I-O,34,F,Polderstraat,10,3074XJ,Rotterdam,Zuid-Holland,Nederland,14010,,
I-O,1866,F,,0,,Gooise Meren,,,,noreplt@gooisemeren.nl,
I-O,45,F,Burg. van Walsumweg,718,3011MZ,Rotterdam,Zuid-Holland,Nederland,14010,,
I-O,43,F,Museumpark,32,3015CX,Rotterdam,Zuid-Holland,Nederland,14010,,
I-O,80,F,Marktstraat,58,8102AC,Raalte,Overijssel,Nederland,,info@raalte.nl,
I-O,22,F,Ir. Van Muijlwijkstraat,175,6828BN,Arnhem,Gelderland,Nederland,,,
GEB,988,P,Postbus,950,6000AZ,Weert,Limburg,Nederland,0495-575000,gemeente@weert.nl,
GEB,268,P,Postbus,9105,6500HG,Nijmegen,Gelderland,Nederland,14024,gemeente@nijmegen.nl,
GEB,268,A,Korte Nieuwstraat,6,6511PP,Nijmegen,Gelderland,Nederland,14024,gemeente@nijmegen.nl,
I-O,56,F,Colosseumweg,13,3074SN,Rotterdam,Zuid-Holland,Nederland,14010,,
I-O,1865,F,Zuidtangent,1,1703SH,Heerhugowaard,Noord-Holland,Nederland,,,
I-O,44,F,Nieuwe Binnenweg,388,3023ET,Rotterdam,Zuid-Holland,Nederland,14010,,
I-O,30,F,Velperplein,13,6811AG,Arnhem,Gelderland,Nederland,,,
I-O,35,F,Colosseumweg,13,3074SN,Rotterdam,Zuid-Holland,Nederland,14010,,
I-O,47,F,Binnenrotte,15,3011HB,Rotterdam,Zuid-Holland,Nederland,14010,,
I-O,307,F,Damplein,6,2265AC,Leidschendam,Zuid-Holland,Nederland,,info@leidschendam-voorburg.nl,
GEB,599,A,Coolsingel,40,3011AD,Rotterdam,Zuid-Holland,Nederland,14010,,
I-O,1397,F,Grotestraat,79,7443BC,Hellendoorn,Overijssel,Nederland,,gemeente@hellendoorn.nl,
I-O,63,F,Binnenrotte,15,3011HB,Rotterdam,Zuid-Holland,Nederland,14010,,
I-O,19,F,Voerweg,2,6511RT,Nijmegen,Gelderland,Nederland,,,
I-O,21,F,Tweede Walstraat,45,6511LP,Nijmegen,Gelderland,Nederland,,,
I-O,5,F,Walburgpassage,0,,Weert,Limburg,Nederland,,,
I-O,32,F,Bloklandstraat,154,3036TS,Rotterdam,Zuid-Holland,Nederland,14010,,
I-O,60,F,Weenatunnel,50,3013AL,Rotterdam,Zuid-Holland,Nederland,14010,,
I-O,37,F,Klencke,74,3191VK,Rotterdam,Zuid-Holland,Nederland,14010,,
I-O,306,F,Koningin Julianalaan,341,2273JJ,Voorburg,Zuid-Holland,Nederland,,info@leidschendam-voorburg.nl,
I-O,40,F,Weenatunnel,50,3013AL,Rotterdam,Zuid-Holland,Nederland,14010,,
I-O,398,F,Anlooërweg,0,,Annen,Drenthe,Nederland,,gemeente@aaenhunze.nl,
I-O,74,F,Verlengde Lodewijkstraat,300,9723AK,Groningen,Groningen,Nederland,,,
I-O,72,F,Professor Uilkensweg,0,9747AW,Groningen,Groningen,Nederland,,,
I-O,71,F,Kardingerplein,1,9735AA,Groningen,Groningen,Nederland,,,
I-O,75,F,Verlengde Lodewijkstraat,300,9723AK,Groningen,Groningen,Nederland,,,
I-O,69,F,Vondellaan,35,9752KS,Haren,Groningen,Nederland,,,
I-O,73,F,Professor Uilkensweg,0,9747AW,Groningen,Groningen,Nederland,,,
I-O,70,F,Groningerweg,0,9738AA,Groningen,Groningen,Nederland,,,
I-O,157,F,Damsterplein,5,9711SX,Groningen,Groningen,Nederland,010-2170970,info@interparking.nl,
I-O,1295,F,Haddingestraat,6,9711KH,Groningen,Groningen,Nederland,010-2170970,info@interparking.nl,
GEB,299,P,Postbus,10,6900AA,Zevenaar,Gelderland,Nederland,0316-595111,gemeente@zevenaar.nl,
GEB,299,A,Raadhuisplein,1,6901GN,Zevenaar,Gelderland,Nederland,0316-595111,gemeente@zevenaar.nl,
GEB,119,P,Postbus,501,7940AM,Meppel,Drenthe,Nederland,140522,postbus@meppel.nl,
I-O,96,F,Costerweg,26,6701BH,Wageningen,Gelderland,Nederland,,,
I-O,108,F,Olmenlaan,157,1404DD,Bussum,Noord-Holland,Nederland,,,
I-O,1398,F,Henri Dunantplein,0,7442NJ,Hellendoorn,Overijssel,Nederland,,gemeente@hellendoorn.nl,
GEB,355,P,Postbus,513,3700AM,Zeist,Utrecht,Nederland,14030,zeist@zeist.nl,
GEB,118,A,Raadhuisplein,1,7901BP,Hoogeveen,Drenthe,Nederland,140528,info@hoogeveen.nl,
I-O,1048,F,Brouwerijplein,49,7523XJ,Enschede,Overijssel,Nederland,,postbus20@enschede.nl,
I-O,101,F,De Molen,100,3995AX,Houten,Utrecht,Nederland,,,
I-O,81,F,Hofstraat,161,7001JD,Doetinchem,Gelderland,Nederland,,,
I-O,402,F,Verlengde Asserstraat,67,9461TV,Gieten,Drenthe,Nederland,,gemeente@aaenhunze.nl,
I-O,1396,F,Máximastraat,6,7443BB,Hellendoorn,Overijssel,Nederland,,gemeente@hellendoorn.nl,
GEB,118,P,Postbus,20000,7900PA,Hoogeveen,Drenthe,Nederland,140528,info@hoogeveen.nl,
GEB,177,A,Zwolsestraat,16,8101AC,Raalte,Overijssel,Nederland,0572-347799,info@raalte.nl,
GEB,119,A,Grote Oever,26,7941BJ,Meppel,Drenthe,Nederland,140522,postbus@meppel.nl,
GEB,228,A,Bergstraat,4,6711DD,Ede,Gelderland,Nederland,140318,info@ede.nl,
I-O,84,F,Bunschoterplein,47,6711CD,Ede,Gelderland,Nederland,,,
GEB,147,P,Postbus,200,7620AE,Borne,Overijssel,Nederland,14074,info@borne.nl,
I-O,109,F,Brinklaan,130,1404GV,Bussum,Noord-Holland,Nederland,,,
I-O,83,F,Burgemeester Van Nispenstraat,19,7001BS,Doetinchem,Gelderland,Nederland,,,
I-O,102,F,Spoorhaag,129,3993AB,Houten,Utrecht,Nederland,,,
I-O,1997,F,Barchman Wuytierslaan,0,3818LE,Amersfoort,,,,,
GEB,345,A,Raadhuisplein,1,3901GA,Veenendaal,Utrecht,Nederland,0318-538911,info@veenendaal.nl,
I-O,111,F,Thierensstraat,2,1404HE,Bussum,Noord-Holland,Nederland,,,
GEB,228,P,Postbus,9022,6710HK,Ede,Gelderland,Nederland,140318,info@ede.nl,
I-O,107,F,Brinklaan,33,1404EP,Bussum,Noord-Holland,Nederland,,,
I-O,1998,F,Stationslaan,0,4811BN,Breda,,,,,
I-O,609,F,Stationssingel,0,2652HR,Berkel en Rodenrijs,Zuid-Holland,Nederland,14010,info@apcoa.nl,
GEB,355,A,Slotlaan,20,3701GK,Zeist,Utrecht,Nederland,14030,zeist@zeist.nl,
GEB,289,P,Postbus,1,6700AA,Wageningen,Gelderland,Nederland,0317-492911,gemeente@wageningen.nl,
GEB,321,P,Postbus,30,3990DA,Houten,Utrecht,Nederland,030-6392611,gemeentehuis@houten.nl,
GEB,147,A,Rheineplein,1,7622DG,Borne,Overijssel,Nederland,14074,info@borne.nl,
I-O,82,F,Burgemeester Van Nispenstraat,19,7001BS,Doetinchem,Gelderland,Nederland,,,
GEB,222,P,Postbus,9020,7000HA,Doetinchem,Gelderland,Nederland,0314-377377,gemeente@doetinchem.nl,
GEB,345,P,Postbus,1100,3900BC,Veenendaal,Utrecht,Nederland,0318-538911,info@veenendaal.nl,
I-O,1999,F,Wijckermolen,0,1941JA,Beverwijk,,,,,
I-O,113,F,Akkerlaan,14,1403PT,Bussum,Noord-Holland,Nederland,,,
I-O,112,F,Thierensstraat,2,1404HE,Bussum,Noord-Holland,Nederland,,,
I-O,399,F,Bareveld,2,9512SB,Nieuwediep,Drenthe,Nederland,,gemeente@aaenhunze.nl,
I-O,98,F,Plantsoen,164,6701AT,Wageningen,Gelderland,Nederland,,,
I-O,403,F,Jan Hugeslaan,14,9462PD,Gasselte,Drenthe,Nederland,,gemeente@aaenhunze.nl,
I-O,401,F,Ingenieur W.I.C. van Veelenweg,0,,Gasselte,Drenthe,Nederland,,gemeente@aaenhunze.nl,
I-O,155,F,Ruiterstraat,12,9711CD,Groningen,Groningen,Nederland,010-2170970,info@interparking.nl,
GEB,177,P,Postbus,140,8100AC,Raalte,Overijssel,Nederland,0572-347799,info@raalte.nl,
GEB,381,P,Postbus,6000,1400HA,Bussum,Noord-Holland,Nederland,14035,info@bussum.nl,
I-O,2003,F,Parallelweg,0,6411NA,Heerlen,,,,,
GEB,381,A,Brinklaan,35,1404EP,Bussum,Noord-Holland,Nederland,14035,info@bussum.nl,
I-O,86,F,Breelaan,1,6711MR,Ede,Gelderland,Nederland,,,
I-O,110,F,Brinklaan,130,1404GV,Bussum,Noord-Holland,Nederland,,,
GEB,321,A,Onderdoor,25,3995DW,Houten,Utrecht,Nederland,030-6392611,gemeentehuis@houten.nl,
GEB,222,A,Raadhuisstraat,2,7001EW,Doetinchem,Gelderland,Nederland,0314-377377,gemeente@doetinchem.nl,
GEB,553,A,Heereweg,254,2161BS,Lisse,Zuid-Holland,Nederland,140252,gemeente@lisse.nl,
GEB,546,P,Postbus,9100,2300PC,Leiden,Zuid-Holland,Nederland,14071,,
I-O,120,F,Blokhuis,53,2161,Lisse,Zuid-Holland,Nederland,,,
GEB,513,P,Postbus,1086,2800BB,Gouda,Zuid-Holland,Nederland,140182,gemeente@gouda.nl,
I-O,2013,F,Kanaalstraat,22,8601GA,Sneek,,,,,
GEB,553,P,Postbus,200,2160AE,Lisse,Zuid-Holland,Nederland,140252,gemeente@lisse.nl,
I-O,2011,F,Provinciale weg,0,1506MJ,Zaandam,,,,,
I-O,114,F,Klein Amerika,30,2806CA,Gouda,Zuid-Holland,Nederland,,,
I-O,117,F,Vosseburchkade,19,2805PA,Gouda,Zuid-Holland,Nederland,,,
I-O,115,F,Schouwburgplein,0,2806AL,Gouda,Zuid-Holland,Nederland,,,
I-O,2807,F,Voorland,0,1261ZR,Blaricum,,,,info@gooivecht.nl,
GEB,513,A,Burgemeester Jamesplein,1,2803PG,Gouda,Zuid-Holland,Nederland,140182,gemeente@gouda.nl,
GEB,546,A,Stadhuisplein,1,2311EJ,Leiden,Zuid-Holland,Nederland,14071,,
I-O,116,F,Vosseburchkade,19,2805PA,Gouda,Zuid-Holland,Nederland,,,
GEB,715,A,Stadhuisplein,1,4531GZ,Terneuzen,Zeeland,Nederland,140115,gemeente@terneuzen.nl,
I-O,136,F,Kanaalweg,0,4337,Middelburg,Zeeland,Nederland,,,
I-O,129,F,Gorsstraat,22,3201DB,Spijkenisse,Zuid-Holland,Nederland,0181-696778,parkeerbeheer@spijkenisse.nl,
I-O,284,F,Laan van Brabant,5,4701BM,Roosendaal,Noord-Brabant,Nederland,,administratie@parkeerbeheer.nl,
I-O,124,F,Karel Doormanstraat,1,3201CP,Spijkenisse,Zuid-Holland,Nederland,0181-696778,parkeerbeheer@spijkenisse.nl,
I-O,148,F,Kloekhorststraat,26,9401BE,Assen,Drenthe,Nederland,0592-366911,info@interparking.nl,
I-O,76,F,Markt,5,7902BK,Hoogeveen,Drenthe,Nederland,,info@hoogeveen.nl,
I-O,138,F,Schuttershofweg,2,4538AA,Terneuzen,Zeeland,Nederland,,,
GEB,612,A,Raadhuislaan,106,3201EL,Spijkenisse,Zuid-Holland,Nederland,140181,gemeente@spijkenisse.nl,
I-O,130,F,Gorsstraat,22,3201DB,Spijkenisse,Zuid-Holland,Nederland,0181-696778,parkeerbeheer@spijkenisse.nl,
I-O,397,F,N34/N33,0,,Gieten,Drenthe,Nederland,,gemeente@aaenhunze.nl,
I-O,128,F,Raadhuislaan,104,3201EL,Spijkenisse,Zuid-Holland,Nederland,0181-696778,parkeerbeheer@spijkenisse.nl,
I-O,404,F,Nieuwediep,7,9512SC,Nieuwediep,Drenthe,Nederland,,gemeente@aaenhunze.nl,
GEB,713,A,Nieuwstraat,22,4501BD,Oostburg,Zeeland,Nederland,140117,info@gemeentesluis.nl,
I-O,1696,F,Parallelweg,0,,Papendrecht,,,,,
GEB,687,P,Postbus,6000,4330LA,Middelburg,Zeeland,Nederland,140118,info@middelburg.nl,
I-O,283,F,Nieuwe Markt,81,4701AE,Roosendaal,Noord-Brabant,Nederland,,administratie@parkeerbeheer.nl,
GEB,606,A,Stadserf,1,3112DZ,Schiedam,Zuid-Holland,Nederland,14010,contact@schiedam.nl,
I-O,405,F,Grolloerstraat,0,,Rolde,Drenthe,Nederland,,gemeente@aaenhunze.nl,
GEB,715,P,Postbus,35,4530AA,Terneuzen,Zeeland,Nederland,140115,gemeente@terneuzen.nl,
I-O,175,F,Geerdinksweg,141,7555DL,Hengelo,Overijssel,Nederland,010-2170970,info@interparking.nl,
I-O,125,F,Dr. J.M. Den Uyllaan,1,3201WR,Spijkenisse,Zuid-Holland,Nederland,0181-696778,parkeerbeheer@spijkenisse.nl,
I-O,143,F,Walplein,14,4524CJ,Sluis,Zeeland,Nederland,,,
I-O,127,F,Sluisstraat,20,3201DJ,Spijkenisse,Zuid-Holland,Nederland,0181-696778,parkeerbeheer@spijkenisse.nl,
I-O,1868,F,Prins Mauritsplein,5832,7902AE,Hoogeveen,Drenthe,Nederland,,info@hoogeveen.nl,
I-O,123,F,Karel Doormanstraat,1,3201CP,Spijkenisse,Zuid-Holland,Nederland,0181-696778,parkeerbeheer@spijkenisse.nl,
I-O,126,F,Dr. J.M. Den Uyllaan,1,3201WR,Spijkenisse,Zuid-Holland,Nederland,0181-696778,parkeerbeheer@spijkenisse.nl,
I-O,149,F,Alteveerstraat,27,9401GA,Assen,Drenthe,Nederland,0592-366911,info@interparking.nl,
I-O,158,F,Sint Jansstraat,4,9712JN,Groningen,Groningen,Nederland,010-2170970,info@interparking.nl,
GEB,687,A,Kanaalweg,3,4337PA,Middelburg,Zeeland,Nederland,140118,info@middelburg.nl,
GEB,606,P,Postbus,1501,3100EA,Schiedam,Zuid-Holland,Nederland,14010,contact@schiedam.nl,
GEB,612,P,Postbus,25,3200AA,Spijkenisse,Zuid-Holland,Nederland,140181,gemeente@spijkenisse.nl,
GEB,713,P,Postbus,27,4500AA,Oostburg,Zeeland,Nederland,140117,info@gemeentesluis.nl,
GEB,748,A,Jacob Obrechtlaan,4,4611AR,Bergen op Zoom,Noord-Brabant,Nederland,140164,stadskantoor@bergenopzoom.nl,
GEB,748,P,Postbus,35,4600AA,Bergen op Zoom,Noord-Brabant,Nederland,140164,stadskantoor@bergenopzoom.nl,
GEB,2449,A,Weena,710,3014DA,Rotterdam,Zuid-Holland,Nederland,0102170970,info@interparking.nl,
I-O,1307,F,Mercuriusplein,211,9401DK,Assen,Drenthe,Nederland,0592-330160,info@interparking.nl,
GEB,2449,P,Postbus,501,3000AM,Rotterdam,Zuid-Holland,Nederland,0102170970,info@interparking.nl,
I-O,1867,F,Uitweg,0,,Hellevoetsluis,Zuid-Holland,Nederland,,gemeente@hellevoetsluis.nl,
I-O,187,F,Jorishof,92,2981GG,Ridderkerk,Zuid-Holland,Nederland,0102170970,,
GEB,664,A,M.A. de Ruijterlaan,2,4461GE,Goes,Zeeland,Nederland,140113,stadskantoor@goes.nl,
I-O,502,F,Parallelweg,6,8152BE,Lemelerveld,Overijssel,Nederland,0529-488388,info@dalfsen.nl,
I-O,280,F,Biggelaar,29,4701RA,Roosendaal,Noord-Brabant,Nederland,,administratie@parkeerbeheer.nl,
I-O,281,F,Laan van Europa,0,,Roosendaal,Noord-Brabant,Nederland,,administratie@parkeerbeheer.nl,
I-O,1884,F,Franciscus Romanusweg,2,6221AE,Maastricht,Limburg,Nederland,,post@maastricht.nl,
I-O,2021,F,Schakelstede,0,3431HC,Nieuwegein,Utrecht,Nederland,,info.nieuwegein@parkeerservice.nl,
I-O,79,F,'t Dijkhuis,23,7622CM,Borne,Overijssel,Nederland,,info@borne.nl,
I-O,2023,F,Nachtwachtstede,0,3431HL,Nieuwegein,Utrecht,Nederland,,info.nieuwegein@parkeerservice.nl,
I-O,2020,F,Markt,54,3431LB,Nieuwegein,Utrecht,Nederland,,info.nieuwegein@parkeerservice.nl,
I-O,2024,F,Tinnegieterstede,1,3431HW,Nieuwegein,Utrecht,Nederland,,info.nieuwegein@parkeerservice.nl,
I-O,2019,F,Koningshof,1,1211RP,Hilversum,,,,noreply@hilversum.nl,
I-O,173,F,Zilvermeeuw,1,7609PP,Almelo,Overijssel,Nederland,010-2170970,info@interparking.nl,
GEB,392,A,Zijlvest,39,2011VB,Haarlem,Noord-Holland,Nederland,14023,antwoord@haarlem.nl,
I-O,222,F,Zuiderzeeweg,8,1095KJ,Amsterdam,Noord-Holland,Nederland,0206937652,,
I-O,2022,F,Weverstede,0,3431JS,Nieuwegein,Utrecht,Nederland,,info.nieuwegein@parkeerservice.nl,
I-O,2016,F,Bisschopsweg,175,3817BT,Amersfoort,Utrecht,Nederland,,centrale@parkeerservice.nl,
GEB,664,P,Postbus,2118,4460MC,Goes,Zeeland,Nederland,140113,stadskantoor@goes.nl,
I-O,1621,F,Seerp van Galemawei,0,,Mantgum,,,,info@waadhoeke.nl,
I-O,1762,F,Oostpad,0,,Papendrecht,,,,,
I-O,2018,F,Brinkweg,1,1211RP,Hilversum,,,,noreply@hilversum.nl,
I-O,2015,F,Oliemolenkwartier,0,3812PB,Amersfoort,,,,info@amersfoort.nl,
I-O,2017,F,Eiteren,13,3401PS,Ijsselstein,Utrecht,Nederland,,info.ijsselstein@parkeerservice.nl,
I-O,1895,F,Schakelstede,0,3431HC,Nieuwegein,Utrecht,Nederland,,info.nieuwegein@parkeerservice.nl,
I-O,1933,F,Koningshof,1,1211RP,Hilversum,,,,noreply@hilversum.nl,
I-O,78,F,Noteboomstraat,13,7941XD,Meppel,Drenthe,Nederland,,postbus@meppel.nl,
I-O,1935,F,Brinkweg,1,1211RP,Hilversum,,,,noreply@hilversum.nl,
I-O,221,F,Zuiderzeeweg,46,1095KJ,Amsterdam,Noord-Holland,Nederland,0204635348,,
I-O,1896,F,Tinnegieterstede,1,3431HW,Nieuwegein,Utrecht,Nederland,,info.nieuwegein@parkeerservice.nl,
I-O,203,F,Lange Herenstraat,11,2011LK,Haarlem,Noord-Holland,Nederland,,,
I-O,625,F,Schuttestraat,5,6131JP,Sittard,Limburg,Nederland,,info@sittard-geleen.nl,
GEB,392,P,Postbus,511,2003PB,Haarlem,Noord-Holland,Nederland,14023,antwoord@haarlem.nl,
I-O,282,F,Vrouwemadestraat,76,4701CG,Roosendaal,Noord-Brabant,Nederland,,administratie@parkeerbeheer.nl,
GEB,758,A,Claudius Prinsenlaan,10,4811DJ,Breda,Noord-Brabant,Nederland,14076,gemeentebreda@breda.nl,
I-O,400,F,De Hilte,19,,Gieterveen,Drenthe,Nederland,,gemeente@aaenhunze.nl,
I-O,1763,F,Berkenwoude,0,2941LA,Lekkerkerk,,,,zuidholland@pzh.nl,
GEB,758,P,Postbus,90156,4800RH,Breda,Noord-Brabant,Nederland,14076,gemeentebreda@breda.nl,
I-O,1274,F,Speenkruid,32,2643KJ,Pijnacker,Zuid-Holland,Nederland,013-5234290,info@goereeoverflakkee.nl,
I-O,239,F,Frans Joseph van Thielpark,1,5707BX,Helmond,Noord-Brabant,Nederland,,,
I-O,1043,F,Markt,48,6161GK,Geleen,Limburg,Nederland,,info@sittard-geleen.nl,
GEB,935,P,Postbus,1992,6201BZ,Maastricht,Limburg,Nederland,14043,post@maastricht.nl,
GEB,935,A,Mosae Forum,10,6211DW,Maastricht,Limburg,Nederland,14043,post@maastricht.nl,
I-O,242,F,Frans Joseph van Thielpark,1,5707BX,Helmond,Noord-Brabant,Nederland,,,
GEB,856,P,Postbus,83,5400AB,Uden,Noord-Brabant,Nederland,140413,postbus83@uden.nl,
I-O,252,F,Maasboulevard,101,6211JW,Maastricht,Limburg,Nederland,,,
GEB,794,P,Postbus,950,5700AZ,Helmond,Noord-Brabant,Nederland,140492,gemeente@helmond.nl,
GEB,856,A,Markt,145,5401EJ,Uden,Noord-Brabant,Nederland,140413,postbus83@uden.nl,
I-O,243,F,Doorneind,1,5701ML,Helmond,Noord-Brabant,Nederland,,,
I-O,244,F,Doorneind,1,5701ML,Helmond,Noord-Brabant,Nederland,,,
GEB,794,A,Frans Joseph van Thielpark,1,5707BX,Helmond,Noord-Brabant,Nederland,140492,gemeente@helmond.nl,
I-O,77,F,Markt,8,7902BK,Hoogeveen,Drenthe,Nederland,,info@hoogeveen.nl,
I-O,245,F,Doorneind,1,5701ML,Helmond,Noord-Brabant,Nederland,,,
I-O,250,F,Franciscus Romanusweg,2,6221AE,Maastricht,Limburg,Nederland,,,
I-O,248,F,Pastoor Spieringsstraat,211,5401GT,Uden,Noord-Brabant,Nederland,,,
I-O,251,F,Maasboulevard,101,6211JW,Maastricht,Limburg,Nederland,,,
I-O,1767,F,Zuidbroekse Opweg,0,,Lekkerkerk,,,,zuidholland@pzh.nl,
I-O,249,F,Franciscus Romanusweg,2,6221AE,Maastricht,Limburg,Nederland,,,
I-O,253,F,Stationstraat,23,6231CK,Meerssen,Limburg,Nederland,,,
GEB,957,P,Postbus,900,6040AX,Roermond,Limburg,Nederland,140475,mail@roermond.nl,
GEB,938,A,Beekstraat,51,6231LE,Meerssen,Limburg,Nederland,14043,info@meerssen.nl,
GEB,938,P,Postbus,90,6230AB,Meerssen,Limburg,Nederland,14043,info@meerssen.nl,
GEB,957,A,Markt,31,6041EM,Roermond,Limburg,Nederland,140475,mail@roermond.nl,
GEB,981,A,Von Clermontplein,15,6291AT,Vaals,Limburg,Nederland,14043,info@vaals.nl,
GEB,981,P,Postbus,450,6290AL,Vaals,Limburg,Nederland,14043,info@vaals.nl,
I-O,261,F,Maaskade,38,5911EX,Venlo,Limburg,Nederland,,,
I-O,258,F,Nassaustraat,59,5911BT,Venlo,Limburg,Nederland,077-3596772,,
GEB,983,P,Postbus,3434,5902RK,Venlo,Limburg,Nederland,14077,info@venlo.nl,
I-O,262,F,Maaskade,38,5911EX,Venlo,Limburg,Nederland,,,
I-O,260,F,Maaskade,6,5911EW,Venlo,Limburg,Nederland,,,
GEB,983,A,Prinsessesingel,30,5911HT,Venlo,Limburg,Nederland,14077,info@venlo.nl,
I-O,257,F,Nassaustraat,59,5911BT,Venlo,Limburg,Nederland,077-3596772,,
I-O,1890,F,Weg door Jonkerbosch,100,6532SZ,Nijmegen,Gelderland,Nederland,,gemeente@nijmegen.nl,
I-O,1892,F,Overtoom,2,3401BK,Ijsselstein,Utrecht,Nederland,,info.ijsselstein@parkeerservice.nl,
I-O,286,F,Nieuwe Markt,81,4701AE,Roosendaal,Noord-Brabant,Nederland,,,
I-O,285,F,Laan van Brabant,48,4701BK,Roosendaal,Noord-Brabant,Nederland,,,
I-O,1889,F,Weg door Jonkerbosch,100,6532SZ,Nijmegen,Gelderland,Nederland,,gemeente@nijmegen.nl,
GEB,1674,P,Postbus,5000,4700KA,Roosendaal,Noord-Brabant,Nederland,0165-579111,info@roosendaal.nl,
I-O,1888,F,Philips van Leydenlaan,15,6525HP,Nijmegen,Gelderland,Nederland,,gemeente@nijmegen.nl,
I-O,289,F,Rijnstraat,8,2515XP,Den Haag,Zuid-Holland,Nederland,0900-4466880,,
I-O,290,F,Rijnstraat,8,2515XP,Den Haag,Zuid-Holland,Nederland,0900-4466880,,
I-O,1887,F,Plesmanlaan,125,6525GA,Nijmegen,Gelderland,Nederland,,gemeente@nijmegen.nl,
GEB,518,A,Spui,70,2511BT,Den Haag,Zuid-Holland,Nederland,14070,,
I-O,1893,F,Nachtwachtstede,0,3431HL,Nieuwegein,Utrecht,Nederland,,info.nieuwegein@parkeerservice.nl,
GEB,518,P,Postbus,12600,2500DJ,Den Haag,Zuid-Holland,Nederland,14070,,
GEB,995,P,Postbus,91,8200AB,Lelystad,Flevoland,Nederland,140320,gemeente@lelystad.nl,
GEB,995,A,Stadhuisplein,2,8232ZX,Lelystad,Flevoland,Nederland,140320,gemeente@lelystad.nl,
I-O,303,F,Hogepad,1,7462TA,Rijssen,Overijssel,Nederland,,,
I-O,302,F,Hogepad,1,7462TA,Rijssen,Overijssel,Nederland,,,
I-O,305,F,Koningin Julianalaan,341,2273JJ,Voorburg,Zuid-Holland,Nederland,,,
GEB,1742,A,Schild,1,7461DD,Rijssen,Overijssel,Nederland,0548-854854,gemeente@rijssen-holten.nl,
I-O,1310,F,Neptunusplein,21,9401CZ,Assen,Drenthe,Nederland,0592-330160,info@interparking.nl,
GEB,1916,P,Postbus,905,2270AX,Leidschendam,Zuid-Holland,Nederland,14070,info@leidschendam-voorburg.nl,
GEB,1684,P,Postbus,10001,5430DA,Cuijk,Noord-Brabant,Nederland,0485-396600,gemeente@cuijk.nl,
GEB,1742,P,Postbus,244,7460AE,Rijssen,Overijssel,Nederland,0548-854854,gemeente@rijssen-holten.nl,
GEB,1916,A,Raadhuisplein,1,2264BP,Leidschendam,Zuid-Holland,Nederland,14070,info@leidschendam-voorburg.nl,
GEB,1684,A,Louis Jansenplein,1,5431BV,Cuijk,Noord-Brabant,Nederland,0485-396600,gemeente@cuijk.nl,
I-O,319,F,Visstraat,18,3311KX,Dordrecht,Zuid-Holland,Nederland,078-6132881,info@apcoa.nl,
I-O,325,F,Schedeldoekshaven,100,2511EX,Den Haag,Zuid-Holland,Nederland,070-3467509,info@apcoa.nl,
I-O,321,F,Koningskade,1,2596AA,Den Haag,Zuid-Holland,Nederland,070-3640676,info@apcoa.nl,
I-O,320,F,Dokter Lelykade,220,2583CP,Den Haag,Zuid-Holland,Nederland,070-3063927,info@apcoa.nl,
I-O,503,F,Den Hulst,58,7711GP,Nieuwleusen,Overijssel,Nederland,0529-488388,info@dalfsen.nl,
I-O,627,F,Walstraat,67,6131CV,Sittard,Limburg,Nederland,,,
I-O,322,F,Heulstraat,21,2514ER,Den Haag,Zuid-Holland,Nederland,070-3630404,info@apcoa.nl,
I-O,314,F,Hoogoorddreef,3,1101BA,Amsterdam,Noord-Holland,Nederland,,info@apcoa.nl,
I-O,354,F,Zwarte Pad,0,2586HZ,Den Haag,Zuid-Holland,Nederland,,,
I-O,150,F,Doevenkamp,2,9401KN,Assen,Drenthe,Nederland,0592-366911,info@interparking.nl,
I-O,318,F,Korte Parallelweg,221,3311JN,Dordrecht,Zuid-Holland,Nederland,010-4041127,info@apcoa.nl,
I-O,327,F,Schedeldoekshaven,100,2511EX,Den Haag,Zuid-Holland,Nederland,070-3467509,info@apcoa.nl,
I-O,309,F,Hertogswetering,183,3543AS,Utrecht,Utrecht,Nederland,,info@apcoa.nl,
I-O,312,F,Hertogswetering,183,3543AS,Utrecht,Utrecht,Nederland,,info@apcoa.nl,
I-O,197,F,Damstraat,12,2011HA,Haarlem,Noord-Holland,Nederland,,centrale1@spaarnelanden.nl,
GEB,2459,P,Westblaak,88,3012KM,Rotterdam,Zuid-Holland,Nederland,010-2331984,info@apcoa.nl,
I-O,317,F,Eerste van der Helststraat,6,1072NV,Amsterdam,Noord-Holland,Nederland,020-4700888,info@apcoa.nl,
I-O,324,F,Schedeldoekshaven,100,2511EX,Den Haag,Zuid-Holland,Nederland,070-3467509,info@apcoa.nl,
I-O,310,F,Hertogswetering,183,3543AS,Utrecht,Utrecht,Nederland,,info@apcoa.nl,
I-O,326,F,Schedeldoekshaven,100,2511EX,Den Haag,Zuid-Holland,Nederland,070-3467509,info@apcoa.nl,
GEB,2459,A,Westblaak,88,3012KM,Rotterdam,Zuid-Holland,Nederland,010-2331984,info@apcoa.nl,
I-O,308,F,Kloosterstraat,35,7571AH,Oldenzaal,Overijssel,Nederland,0541-516645,info@apcoa.nl,
I-O,328,F,Blaak,16,3011TA,Rotterdam,Zuid-Holland,Nederland,,info@apcoa.nl,
I-O,311,F,Hertogswetering,183,3543AS,Utrecht,Utrecht,Nederland,,info@apcoa.nl,
I-O,323,F,Schedeldoekshaven,100,2511EX,Den Haag,Zuid-Holland,Nederland,070-3467509,info@apcoa.nl,
GEB,2460,A,Dr Paul Janssenweg,165,5026RH,Tilburg,Noord-Brabant,Nederland,013-5234290,office@parkking.nl,
I-O,349,F,Maashaven,144,6041TB,Roermond,Limburg,Nederland,0900-2357275,,
GEB,2460,P,Dr Paul Janssenweg,165,5026RH,Tilburg,Noord-Brabant,Nederland,013-5234290,office@parkking.nl,
GEB,2485,A,Ir J.P. van Muijlwijkstraat,175,6828BN,Arnhem,Gelderland,Nederland,,,
GEB,2485,P,Ir J.P. van Muijlwijkstraat,175,6828BN,Arnhem,Gelderland,Nederland,,,
GEB,2486,P,Gedempte Gracht,405,2512AM,Den Haag,Zuid-Holland,Nederland,,,
GEB,2487,A,Prins Hendrikstraat,59,2518HL,Den Haag,Zuid-Holland,Nederland,070-3621272,,
GEB,2487,P,Prins Hendrikstraat,59,2518HL,Den Haag,Zuid-Holland,Nederland,070-3621272,,
GEB,2486,A,Gedempte Gracht,405,2512AM,Den Haag,Zuid-Holland,Nederland,,,
I-O,55,F,Colosseumweg,13,3074SN,Rotterdam,Zuid-Holland,Nederland,14010,,
I-O,50,F,Terwenakker,18,3011XS,Rotterdam,Zuid-Holland,Nederland,14010,,
I-O,58,F,Willemsplein,1,3016DN,Rotterdam,Zuid-Holland,Nederland,14010,,
I-O,59,F,Weenatunnel,50,3013AL,Rotterdam,Zuid-Holland,Nederland,14010,,
I-O,377,F,Aelbrechtskade,67,3022HP,Rotterdam,Zuid-Holland,Nederland,14010,,
I-O,368,F,Klencke,74,3191VK,Rotterdam,Zuid-Holland,Nederland,14010,,
I-O,62,F,Binnenrotte,15,3011HB,Rotterdam,Zuid-Holland,Nederland,14010,,
I-O,57,F,Willemsplein,1,3016DN,Rotterdam,Zuid-Holland,Nederland,14010,,
I-O,198,F,Kleverlaan,12,2023JG,Haarlem,Noord-Holland,Nederland,,centrale1@spaarnelanden.nl,
I-O,1379,F,Bogardeind,2,5664EH,Geldrop,Noord-Brabant,Nederland,040-2864040,noreply@st-anna.nl,
I-O,1891,F,Ingenieur G. Friedhoffplein,0,2042BP,Zandvoort,Noord-Holland,Nederland,,info.zandvoort@parkeerservice.nl,
I-O,380,F,Museumpark,32,3015CX,Rotterdam,Zuid-Holland,Nederland,14010,,
I-O,379,F,Museumpark,32,3015CX,Rotterdam,Zuid-Holland,Nederland,14010,,
I-O,370,F,Kipstraat,177,3011ZX,Rotterdam,Zuid-Holland,Nederland,14010,,
I-O,61,F,Aelbrechtskade,67,3022HP,Rotterdam,Zuid-Holland,Nederland,14010,,
I-O,1900,F,Holiday Avenue,0,1118,Haarlemmermeer,Noord-Holland,Nederland,,noreply@PCH.nl,
I-O,383,F,Burg. van Walsumweg,718,3011MZ,Rotterdam,Zuid-Holland,Nederland,14010,,
I-O,53,F,Terwenakker,18,3011XS,Rotterdam,Zuid-Holland,Nederland,14010,,
I-O,51,F,Terwenakker,18,3011XS,Rotterdam,Zuid-Holland,Nederland,14010,,
I-O,391,F,Schouwburgplein,22,3012CL,Rotterdam,Zuid-Holland,Nederland,14010,,
I-O,54,F,Polderstraat,10,3074XJ,Rotterdam,Zuid-Holland,Nederland,14010,,
I-O,1886,F,Burgemeester Daleslaan,27,6532,Nijmegen,Gelderland,Nederland,,gemeente@nijmegen.nl,
I-O,371,F,Kipstraat,177,3011ZX,Rotterdam,Zuid-Holland,Nederland,14010,,
I-O,52,F,Terwenakker,18,3011XS,Rotterdam,Zuid-Holland,Nederland,14010,,
I-O,1936,F,Weverstede,0,3431JS,Nieuwegein,Utrecht,Nederland,,info.nieuwegein@parkeerservice.nl,
I-O,1897,F,Eiteren,13,3401PS,Ijsselstein,Utrecht,Nederland,,info.ijsselstein@parkeerservice.nl,
I-O,64,F,Siem Heidenstraat,6,3077MS,Rotterdam,Zuid-Holland,Nederland,14010,,
I-O,395,F,Chris Bennekerslaan,25,3061EB,Rotterdam,Zuid-Holland,Nederland,14010,,
I-O,33,F,Terwenakker,18,3011XS,Rotterdam,Zuid-Holland,Nederland,14010,,
I-O,67,F,Bloklandstraat,154,3036TS,Rotterdam,Zuid-Holland,Nederland,14010,,
I-O,392,F,Schouwburgplein,22,3012CL,Rotterdam,Zuid-Holland,Nederland,14010,,
GEB,1680,P,Postbus,93,9460AB,Gieten,Drenthe,Nederland,140592,gemeente@aaenhunze.nl,
GEB,59,P,Postbus,2,9285ZV,Buitenpost,Friesland,Nederland,140511,gemeente@achtkarspelen.nl,
GEB,738,P,Postbus,40,4260AA,Wijk en Aalburg,Noord-Brabant,Nederland,0416-698700,gemeente@aalburg.nl,
GEB,738,A,Grote Kerkstraat,32,4261BE,Wijk en Aalburg,Noord-Brabant,Nederland,0416-698700,gemeente@aalburg.nl,
GEB,59,A,Stationsstraat,18,9285NH,Buitenpost,Friesland,Nederland,140511,gemeente@achtkarspelen.nl,
I-O,407,F,De Koaten,50,9288GH,Kootstertille,Friesland,Nederland,140511,gemeente@achtkarspelen.nl,
I-O,410,F,Hofhoek,46,3176PD,Poortugaal,Zuid-Holland,Nederland,010-5061111,info@albrandswaard.nl,
GEB,197,P,Postbus,119,7120AC,Aalten,Gelderland,Nederland,0543-493333,gemeente@aalten.nl,
I-O,1898,F,Meulmansweg,8,3441AT,Woerden,Utrecht,Nederland,,info.woerden@parkeerservice.nl,
I-O,1899,F,Oliemolenkwartier,0,3812PB,Amersfoort,,,,info@amersfoort.nl,
I-O,2106,F,Rode Kruisplein,0,5961GC,Horst aan de Maas,,,,gemeente@horstaandemaas.nl,
I-O,412,F,De Kromme Nol,5,4261AN,Wijk en Aalburg,Noord-Brabant,Nederland,0416-698700,gemeente@aalburg.nl,
I-O,2112,F,Cobbejennegats,0,6271BA,Gulpen-Wittem,,,,info@gulpen-wittem.nl,
GEB,613,A,Hofhoek,5,3176PD,Poortugaal,Zuid-Holland,Nederland,010-5061111,info@albrandswaard.nl,
GEB,197,A,Hofstraat,8,7121DM,Aalten,Gelderland,Nederland,0543-493333,gemeente@aalten.nl,
I-O,2111,F,Kruinweg,2,6369TZ,Simpelveld,,,,info@simpelveld.nl,
GEB,613,P,Postbus,1000,3160GA,Poortugaal,Zuid-Holland,Nederland,010-5061111,info@albrandswaard.nl,
I-O,411,F,Stationsstraat,53,3161GH,Rhoon,Zuid-Holland,Nederland,010-5061111,info@albrandswaard.nl,
GEB,1680,A,Spiekersteeg,1,9461BH,Gieten,Drenthe,Nederland,140592,gemeente@aaenhunze.nl,
I-O,406,F,Oost,0,,Buitenpost,Friesland,Nederland,140511,gemeente@achtkarspelen.nl,
I-O,409,F,Landbouwstraat,0,7122,Aalten,Gelderland,Nederland,0543-493333,gemeente@aalten.nl,
I-O,408,F,Stationsplein,2,9285VW,Buitenpost,Friesland,Nederland,140511,gemeente@achtkarspelen.nl,
GEB,855,P,Postbus,90155,5000LH,Tilburg,Noord-Brabant,Nederland,14013,gemeente@tilburg.nl,
I-O,416,F,Professor Goossenslaan,16,5022DM,Tilburg,Noord-Brabant,Nederland,14013,gemeente@tilburg.nl,
I-O,414,F,Gasthuisring,60,5041DT,Tilburg,Noord-Brabant,Nederland,14013,gemeente@tilburg.nl,
I-O,415,F,Piusstraat,1,5038WR,Tilburg,Noord-Brabant,Nederland,14013,gemeente@tilburg.nl,
I-O,418,F,Louis Bouwmeesterplein,2,5038TN,Tilburg,Noord-Brabant,Nederland,14013,gemeente@tilburg.nl,
GEB,855,A,Stadhuisplein,130,5038TC,Tilburg,Noord-Brabant,Nederland,14013,gemeente@tilburg.nl,
I-O,420,F,Achter de Heuvel,3,5038WD,Tilburg,Noord-Brabant,Nederland,14013,gemeente@tilburg.nl,
I-O,1641,F,Abram van Rijckevorselplein,0,3065SM,Rotterdam,,,,,
I-O,417,F,Telegraafstraat,20,5038BP,Tilburg,Noord-Brabant,Nederland,14013,gemeente@tilburg.nl,
I-O,413,F,Paleisring,27,5038WD,Tilburg,Noord-Brabant,Nederland,14013,gemeente@tilburg.nl,
I-O,419,F,Achter de Heuvel,3,5038WD,Tilburg,Noord-Brabant,Nederland,14013,gemeente@tilburg.nl,
GEB,362,A,Laan Nieuwer-Amstel,1,1182JR,Amstelveen,Noord-Holland,Nederland,020-5404911,gemeente@amstelveen.nl,
I-O,423,F,Bolscher Landen,0,,Almelo,Overijssel,Nederland,,,
GEB,3,A,Wilhelminaweg,14,9901CM,Appingedam,Groningen,Nederland,140596,info@appingedam.nl,
GEB,362,P,Postbus,4,1180BA,Amstelveen,Noord-Holland,Nederland,020-5404911,gemeente@amstelveen.nl,
GEB,3,P,Postbus,15,9900AA,Appingedam,Groningen,Nederland,140596,info@appingedam.nl,
I-O,422,F,Spinnerij,9,1185ZN,Amstelveen,Noord-Holland,Nederland,020-5404911,gemeente@amstelveen.nl,
I-O,465,F,Chaamsebaan,0,4851,Ulvenhout,Noord-Brabant,Nederland,14076,gemeentebreda@breda.nl,
I-O,457,F,Drentse Mondenweg,0,9523,Drouwenermond,Drenthe,Nederland,140591,gemeente@borger-odoorn.nl,
GEB,1728,A,Markt,21,5531BC,Bladel,Noord-Brabant,Nederland,0497-361636,info@bladel.nl,
I-O,433,F,Nobisweg,1,5721VA,Asten,Noord-Brabant,Nederland,0493-671212,gemeente@asten.nl,
GEB,1728,P,Postbus,11,5530AA,Bladel,Noord-Brabant,Nederland,0497-361636,info@bladel.nl,
I-O,450,F,Reedijk,6,3274KE,Heinenoord,Zuid-Holland,Nederland,078-6764433,gemeente@binnenmaas.nl,
I-O,435,F,Middelweg,11,2992SP,Barendrecht,Zuid-Holland,Nederland,140180,gemeente@barendrecht.nl,
I-O,464,F,Bagven Park,0,4839,Breda,Noord-Brabant,Nederland,14076,gemeentebreda@breda.nl,
GEB,585,A,Sportlaan,22,3299XG,Maasdam,Zuid-Holland,Nederland,078-6764433,gemeente@binnenmaas.nl,
GEB,585,P,Postbus,5455,3299ZH,Maasdam,Zuid-Holland,Nederland,078-6764433,gemeente@binnenmaas.nl,
I-O,440,F,Spaanse Singel,2,6191GK,Neerbeek,Limburg,Nederland,046-4389222,info@gemeentebeek.nl,
I-O,462,F,Soetendaal,9,5821BL,Vierlingsbeek,Noord-Brabant,Nederland,0485-585911,gemeente@boxmeer.nl,
I-O,463,F,Kampspoor,0,5283,Boxtel,Noord-Brabant,Nederland,0411-655911,gemeente@boxtel.nl,
GEB,106,A,Noordersingel,33,9401JW,Assen,Drenthe,Nederland,0592-366911,info@assen.nl,
GEB,753,P,Postbus,50,5680AB,Best,Noord-Brabant,Nederland,0499-360911,gemeente.best@gembest.nl,
GEB,1930,A,Raadhuislaan,106,3201EL,Spijkenisse,Zuid-Holland,Nederland,140181,gemeente@nissewaard.nl,
GEB,743,A,Koningsplein,3,5721GJ,Asten,Noord-Brabant,Nederland,0493-671212,gemeente@asten.nl,
I-O,434,F,Zandheuvelweg,5,3744MN,Baarn,Utrecht,Nederland,035-5481611,gemeente@baarn.nl,
GEB,501,P,Postbus,101,3230AC,Brielle,Zuid-Holland,Nederland,0181-471111,info@brielle.nl,
I-O,455,F,Schoolstraat,6,9536PN,Ees,Drenthe,Nederland,140591,gemeente@borger-odoorn.nl,
GEB,888,A,Raadhuisstraat,9,6191KA,Beek,Limburg,Nederland,046-4389222,info@gemeentebeek.nl,
I-O,470,F,Stikkenweg,2,7021BN,Zelhem,Gelderland,Nederland,0575-750250,info@bronckhorst.nl,
I-O,469,F,Oude Zutphenseweg,1,6998AL,Laag-Keppel,Gelderland,Nederland,0575-750250,info@bronckhorst.nl,
GEB,1681,P,Postbus,3,7875ZG,Exloo,Drenthe,Nederland,140591,gemeente@borger-odoorn.nl,
GEB,889,P,Postbus,4750,5953ZK,Reuver,Limburg,Nederland,077-4749292,info@beesel.nl,
GEB,1876,A,Elderinkweg,2,7255KA,Hengelo,Gelderland,Nederland,0575-750250,info@bronckhorst.nl,
I-O,430,F,Balkendwarsweg,3,9405PT,Assen,Drenthe,Nederland,0592-366911,info@assen.nl,
GEB,489,P,Postbus,501,2990EA,Barendrecht,Zuid-Holland,Nederland,140180,gemeente@barendrecht.nl,
I-O,1769,F,Maaskade,38,5911EX,Venlo,,,,info@venlo.nl,
GEB,1876,P,Postbus,200,7255ZJ,Hengelo,Gelderland,Nederland,0575-750250,info@bronckhorst.nl,
I-O,452,F,Europalaan,1,5531BD,Bladel,Noord-Brabant,Nederland,0497-361636,info@bladel.nl,
GEB,5,A,Schoolstraat,1,9781JL,Bedum,Groningen,Nederland,050-3018911,gemeente@bedum.nl,
GEB,743,P,Postbus,290,5720AG,Asten,Noord-Brabant,Nederland,0493-671212,gemeente@asten.nl,
I-O,1773,F,Noord Brabantlaan,350,5657GA,Eindhoven,,,,gemeente@eindhoven.nl,
GEB,757,A,Markt,1,5281AT,Boxtel,Noord-Brabant,Nederland,0411-655911,gemeente@boxtel.nl,
GEB,5,P,Postbus,38,9780AA,Bedum,Groningen,Nederland,050-3018911,gemeente@bedum.nl,
GEB,1721,P,Postbus,19,5384ZG,Heesch,Noord-Brabant,Nederland,0412-458888,gemeente@bernheze.org,
GEB,376,A,Kerklaan,16,1261JB,Blaricum,Noord-Holland,Nederland,035-7513222,mail@blaricum.nl,
GEB,756,A,Raadhuisplein,1,5831JX,Boxmeer,Noord-Brabant,Nederland,0485-585911,gemeente@boxmeer.nl,
GEB,308,P,Postbus,1003,3740BA,Baarn,Utrecht,Nederland,035-5481611,gemeente@baarn.nl,
I-O,459,F,Azelosestraat,111,7621BA,Borne,Overijssel,Nederland,074-2658686,info@borne.nl,
GEB,1721,A,De Misse,6,5384BZ,Heesch,Noord-Brabant,Nederland,0412-458888,gemeente@bernheze.org,
I-O,460,F,Parallelweg,1,7622NB,Borne,Overijssel,Nederland,074-2658686,info@borne.nl,
I-O,432,F,De Haar,0,9405,Assen,Drenthe,Nederland,0592-366911,info@assen.nl,
I-O,444,F,Cereslaan,18,5384VT,Heesch,Noord-Brabant,Nederland,0412-458888,gemeente@bernheze.org,
I-O,451,F,Oud-Heinenoordseweg,16,3274KD,Heinenoord,Zuid-Holland,Nederland,078-6764433,gemeente@binnenmaas.nl,
I-O,1105,F,Zaanstraat,1,9725EG,Groningen,Groningen,Nederland,,,
I-O,448,F,Molenstraat,44,5683BH,Best,Noord-Brabant,Nederland,0499-360911,gemeente.best@gembest.nl,
GEB,889,A,Raadhuisplein,1,5953AL,Reuver,Limburg,Nederland,077-4749292,info@beesel.nl,
I-O,447,F,Wilg,0,5682,Best,Noord-Brabant,Nederland,0499-360911,gemeente.best@gembest.nl,
I-O,1903,F,Maasboulevard,101,6211JW,Maastricht,Limburg,Nederland,,info@q-park.nl,
I-O,439,F,Parallelweg,0,9781,Bedum,Groningen,Nederland,050-3018911,gemeente@bedum.nl,
I-O,467,F,Kanaaldijk-West,9,3238LM,Zwartewaal,Zuid-Holland,Nederland,0181-471111,info@brielle.nl,
GEB,753,A,Raadhuisplein,1,5683EA,Best,Noord-Brabant,Nederland,0499-360911,gemeente.best@gembest.nl,
GEB,308,A,Stationsweg,18,3743BA,Baarn,Utrecht,Nederland,035-5481611,gemeente@baarn.nl,
I-O,437,F,Zuideinde,84,2991LK,Barendrecht,Zuid-Holland,Nederland,140180,gemeente@barendrecht.nl,
I-O,449,F,Spoorstraat,3,5684AA,Best,Noord-Brabant,Nederland,0499-360911,gemeente.best@gembest.nl,
I-O,456,F,Hoofdstraat,0,7875,Exloo,Drenthe,Nederland,140591,gemeente@borger-odoorn.nl,
GEB,757,P,Postbus,10000,5280DA,Boxtel,Noord-Brabant,Nederland,0411-655911,gemeente@boxtel.nl,
GEB,376,P,Postbus,71,3755ZH,Eemnes,Noord-Holland,Nederland,035-7513222,mail@blaricum.nl,
I-O,461,F,Provincialeweg,9,5835CZ,Beugen,Noord-Brabant,Nederland,0485-585911,gemeente@boxmeer.nl,
GEB,1681,A,Hoofdstraat,50,7875AD,Exloo,Drenthe,Nederland,140591,gemeente@borger-odoorn.nl,
GEB,756,P,Postbus,450,5830AL,Boxmeer,Noord-Brabant,Nederland,0485-585911,gemeente@boxmeer.nl,
I-O,436,F,Zuideinde,84,2991LK,Barendrecht,Zuid-Holland,Nederland,140180,gemeente@barendrecht.nl,
GEB,489,A,Binnenhof,1,2991AA,Barendrecht,Zuid-Holland,Nederland,140180,gemeente@barendrecht.nl,
GEB,888,P,Postbus,20,6190AA,Beek,Limburg,Nederland,046-4389222,info@gemeentebeek.nl,
I-O,453,F,Stichtseweg,2,1261TA,Blaricum,Noord-Holland,Nederland,035-7513222,mail@blaricum.nl,
I-O,438,F,Waldadrift,6,9781KC,Bedum,Groningen,Nederland,050-3018911,gemeente@bedum.nl,
GEB,501,A,Slagveld,36,3231AP,Brielle,Zuid-Holland,Nederland,0181-471111,info@brielle.nl,
I-O,468,F,De Nolle,14,3237KA,Vierpolders,Zuid-Holland,Nederland,0181-471111,info@brielle.nl,
GEB,1930,P,Postbus,25,3200AA,Spijkenisse,Zuid-Holland,Nederland,140181,gemeente@nissewaard.nl,
I-O,443,F,Wilhelminalaan,78,5953HB,Reuver,Limburg,Nederland,077-4749292,info@beesel.nl,
I-O,446,F,Oude Rijksweg,0,5683,Best,Noord-Brabant,Nederland,0499-360911,gemeente.best@gembest.nl,
GEB,106,P,Postbus,30018,9400RA,Assen,Drenthe,Nederland,0592-366911,info@assen.nl,
I-O,492,F,Parallelweg Oost,13,4103NC,Culemborg,Gelderland,Nederland,0345-477700,info@culemborg.nl,
GEB,109,A,Kasteel,1,7741GC,Coevorden,Drenthe,Nederland,140524,info@coevorden.nl,
I-O,480,F,Oude Rijksweg,0,7843,Erm,Drenthe,Nederland,140524,info@coevorden.nl,
I-O,497,F,Postbus,78,2600ME,Delft,Zuid-Holland,Nederland,14015,,
GEB,383,A,Raadhuisplein,1,1902CA,Castricum,Noord-Holland,Nederland,0251-661122,gemeentebestuur@castricum.nl,
GEB,310,P,Postbus,300,3720AH,Bilthoven,Utrecht,Nederland,030-2289411,info@debilt.nl,
GEB,502,P,Postbus,70,2900AB,Capelle aan den Ijssel,Zuid-Holland,Nederland,010-2848484,gemeente@capelleaandenijssel.nl,
GEB,109,P,Postbus,2,7740AA,Coevorden,Drenthe,Nederland,140524,info@coevorden.nl,
I-O,487,F,Groene Kruisweg,16,3281KB,Numansdorp,Zuid-Holland,Nederland,0186-656100,info@cromstrijen.nl,
GEB,148,A,Raadhuisstraat,1,7721AX,Dalfsen,Overijssel,Nederland,0529-488388,gemeente@dalfsen.nl,
GEB,736,A,Croonstadtlaan,111,3641AL,Mijdrecht,Utrecht,Nederland,0297-291616,info@derondevenen.nl,
GEB,213,P,Postbus,5,6970AA,Brummen,Gelderland,Nederland,0575-568233,gemeente@brummen.nl,
I-O,490,F,Rietveldseweg,31,4107LJ,Culemborg,Gelderland,Nederland,0345-477700,info@culemborg.nl,
I-O,482,F,Het Haantje,88,7846TK,Noord-Sleen,Drenthe,Nederland,140524,info@coevorden.nl,
I-O,481,F,Johannes Poststraat,2,7917TT,Geesbrug,Drenthe,Nederland,140524,info@coevorden.nl,
I-O,472,F,IJsselstraat,1,7399RC,Empe,Gelderland,Nederland,0575-568233,gemeente@brummen.nl,
I-O,484,F,Stationsstraat,20,7741EK,Coevorden,Drenthe,Nederland,140524,info@coevorden.nl,
I-O,478,F,Kramersweg,2,1901NP,Castricum,Noord-Holland,Nederland,0251-661122,gemeentebestuur@castricum.nl,
I-O,485,F,Kymmelskampen,1,7751GN,Dalen,Drenthe,Nederland,140524,info@coevorden.nl,
GEB,1706,A,Capucijnerplein,1,6021AB,Budel,Noord-Brabant,Nederland,0495-431222,info@cranendonck.nl,
GEB,736,P,Postbus,250,3640AG,Mijdrecht,Utrecht,Nederland,0297-291616,info@derondevenen.nl,
I-O,474,F,Struiheiweg,3,1406TK,Bussum,Noord-Holland,Nederland,035-6928888,info@bussum.nl,
I-O,486,F,D Aasdonken,1,6026RZ,Maarheze,Noord-Brabant,Nederland,0495-431222,info@cranendonck.nl,
GEB,216,A,Ridderstraat,250,4101BK,Culemborg,Gelderland,Nederland,0345-477700,info@culemborg.nl,
GEB,312,A,Singelpark,1,3984NC,Odijk,Utrecht,Nederland,030-6594848,info@bunnik.nl,
GEB,312,P,Postbus,5,3980CA,Bunnik,Utrecht,Nederland,030-6594848,info@bunnik.nl,
GEB,213,A,Engelenburgerlaan,31,6971BV,Brummen,Gelderland,Nederland,0575-568233,gemeente@brummen.nl,
GEB,1706,P,Postbus,2090,6020AB,Budel,Noord-Brabant,Nederland,0495-431222,info@cranendonck.nl,
I-O,1902,F,Parkweg,1,6212XN,Maastricht,Limburg,Nederland,,info@q-park.nl,
I-O,483,F,Kloosterdwarsweg,0,7851,Zweeloo,Drenthe,Nederland,140524,info@coevorden.nl,
I-O,471,F,Stationsweg,1,6971BX,Brummen,Gelderland,Nederland,0575-568233,gemeente@brummen.nl,
I-O,1901,F,Prins Bisschopsingel,2,6211JX,Maastricht,Limburg,Nederland,,info@q-park.nl,
GEB,148,P,Postbus,35,7720AA,Dalfsen,Overijssel,Nederland,0529-488388,gemeente@dalfsen.nl,
GEB,216,P,Postbus,136,4100AC,Culemborg,Gelderland,Nederland,0345-477700,info@culemborg.nl,
I-O,476,F,Lijstersingel,2,2902JD,Capelle aan den Ijssel,Zuid-Holland,Nederland,010-2848484,gemeente@capelleaandenijssel.nl,
I-O,473,F,Stationsplein,0,3981,Bunnik,Utrecht,Nederland,030-6594848,info@bunnik.nl,
GEB,611,A,Buttervliet,1,3281LK,Numansdorp,Zuid-Holland,Nederland,0186-656100,info@cromstrijen.nl,
I-O,494,F,Burgemeester Des Tombesweg,0,1391,Abcoude,Utrecht,Nederland,0297-291616,info@derondevenen.nl,
I-O,477,F,Hollandsch Diep,6,2904ER,Capelle aan den Ijssel,Zuid-Holland,Nederland,010-2848484,gemeente@capelleaandenijssel.nl,
I-O,493,F,Nieuwe Weteringseweg,1,3737MG,Groenekan,Utrecht,Nederland,030-2289411,info@debilt.nl,
GEB,502,A,Rivierweg,111,2903AR,Capelle aan den Ijssel,Zuid-Holland,Nederland,010-2848484,gemeente@capelleaandenijssel.nl,
I-O,488,F,Groene Kruisweg,20,3281KB,Numansdorp,Zuid-Holland,Nederland,0186-656100,info@cromstrijen.nl,
I-O,489,F,Raamweg,3,5431NH,Cuijk,Noord-Brabant,Nederland,0485-396600,gemeente@cuijk.nl,
I-O,475,F,Spoorstraat,31,2908CK,Capelle aan den Ijssel,Zuid-Holland,Nederland,010-2848484,gemeente@capelleaandenijssel.nl,
GEB,611,P,Postbus,7400,3280AE,Numansdorp,Zuid-Holland,Nederland,0186-656100,info@cromstrijen.nl,
I-O,491,F,Parallelweg Oost,19,4103NC,Culemborg,Gelderland,Nederland,0345-477700,info@culemborg.nl,
GEB,310,A,Soestdijkseweg Zuid,173,3721AB,Bilthoven,Utrecht,Nederland,030-2289411,info@debilt.nl,
I-O,479,F,Europaweg,1,7742PP,Coevorden,Drenthe,Nederland,140524,info@coevorden.nl,
GEB,383,P,Postbus,1301,1900BH,Castricum,Noord-Holland,Nederland,0251-661122,gemeentebestuur@castricum.nl,
I-O,496,F,Phoenixstraat,16,2611AL,Delft,Zuid-Holland,Nederland,14015,,
I-O,524,F,Spoorstraat,68,6114EM,Susteren,Limburg,Nederland,0475-478478,info@echt-susteren.nl,
I-O,508,F,De Marke,1,9203DV,Drachten,Friesland,Nederland,0512-581234,gemeente@smallingerland.nl,
I-O,531,F,Stationsweg,124,6711PZ,Ede,Gelderland,Nederland,140318,info@ede.nl,
I-O,534,F,Eindje,1,5611ZW,Eindhoven,Noord-Brabant,Nederland,,,
GEB,400,P,Postbus,36,1780AA,Den Helder,Noord-Holland,Nederland,0223-671200,info@denhelder.nl,
I-O,735,F,Eerste Oude Heselaan,9,6541PA,Nijmergen,Gelderland,Nederland,0900-4466880,info@q-park.nl,
I-O,686,F,Wilhelminakade,300,3072AR,Rotterdam,Zuid-Holland,Nederland,0900-4466880,info@q-park.nl,
I-O,672,F,Gedempte Gracht,28,2512CB,Den Haag,Zuid-Holland,Nederland,0900-4466880,info@q-park.nl,
GEB,1711,P,Postbus,450,6100AL,Echt,Limburg,Nederland,0475-478478,info@echt-susteren.nl,
I-O,539,F,Groenewoudseweg,399,5621BL,Eindhoven,Noord-Brabant,Nederland,14040,gemeente@eindhoven.nl,
I-O,537,F,Frederik van Eedenplein,1,5611KT,Eindhoven,Noord-Brabant,Nederland,,,
I-O,540,F,Wolvendijk,80,5641AS,Eindhoven,Noord-Brabant,Nederland,14040,gemeente@eindhoven.nl,
I-O,523,F,Stationsweg,3,6101HK,Echt,Limburg,Nederland,0475-478478,info@echt-susteren.nl,
I-O,536,F,Stadhuisplein,10,5611EM,Eindhoven,Noord-Brabant,Nederland,,,
I-O,541,F,Noord Brabantlaan,350,5657GA,Eindhoven,Noord-Brabant,Nederland,14040,gemeente@eindhoven.nl,
I-O,505,F,Van Knobelsdorffplein,129,9203DH,Drachten,Friesland,Nederland,0512-581234,gemeente@smallingerland.nl,
I-O,512,F,Stasjonwei,3,9269PG,Veenwouden,Friesland,Nederland,140511,post@dantumadiel.eu,
I-O,944,F,Veerweg,0,3355,Papendrecht,Zuid-Holland,Nederland,14078,pbgemeentebestuur@papendrecht.nl,
GEB,400,A,Drs. F. Bijlweg,20,1784MC,Den Helder,Noord-Holland,Nederland,0223-671200,info@denhelder.nl,
I-O,528,F,Spoorstraat,17,6741DE,Lunteren,Gelderland,Nederland,140318,info@ede.nl,
I-O,527,F,Telefoonweg,122,6713AL,Ede,Gelderland,Nederland,140318,info@ede.nl,
GEB,1711,A,Nieuwe Markt,55,6101CV,Echt,Limburg,Nederland,0475-478478,info@echt-susteren.nl,
I-O,510,F,Burgemeester Ritmeesterweg,0,1784NV,Den Helder,Noord-Holland,Nederland,0223-671200,info@denhelder.nl,
GEB,772,A,Stadhuisplein,10,5611EM,Eindhoven,Noord-Brabant,Nederland,14040,gemeente@eindhoven.nl,
I-O,509,F,De Marke,1,9203DV,Drachten,Friesland,Nederland,0512-581234,gemeente@smallingerland.nl,
I-O,538,F,Eindje,1,5611ZW,Eindhoven,Noord-Brabant,Nederland,,,
I-O,533,F,Raiffeisenstraat,16,5611CH,Eindhoven,Noord-Brabant,Nederland,,,
GEB,90,P,Postbus,10000,9200HA,Drachten,Friesland,Nederland,0512-581234,gemeente@smallingerland.nl,
GEB,762,P,Postbus,3,5750AA,Deurne,Noord-Brabant,Nederland,0493-387711,info@deurne.nl,
GEB,90,A,Gauke Boelensstraat,2,9203RM,Drachten,Friesland,Nederland,0512-581234,gemeente@smallingerland.nl,
I-O,529,F,Stationsweg,124,6711PZ,Ede,Gelderland,Nederland,140318,info@ede.nl,
I-O,535,F,Sliffertsestraat,304,5657AS,Eindhoven,Noord-Brabant,Nederland,088-1261414,,
GEB,772,P,Postbus,90150,5600RB,Eindhoven,Noord-Brabant,Nederland,14040,gemeente@eindhoven.nl,
I-O,532,F,Eemweg,76,3755LD,Eemnes,Utrecht,Nederland,14035,info@eemnes.nl,
GEB,317,P,Postbus,71,3755ZH,Eemnes,Utrecht,Nederland,14035,info@eemnes.nl,
GEB,317,A,Zuidersingel,1,3755AZ,Eemnes,Utrecht,Nederland,14035,info@eemnes.nl,
GEB,762,A,Markt,1,5751BE,Deurne,Noord-Brabant,Nederland,0493-387711,info@deurne.nl,
I-O,1904,F,Boschplein,0,,Sneek,Friesland,Nederland,,noreply@SĐĐ«dwest-FryslĐ?n.nl,
I-O,526,F,Doctor Hartogsweg,1,6717LR,Ede,Gelderland,Nederland,140318,info@ede.nl,
I-O,525,F,Maanderdijk,5,6721,Bennekom,Gelderland,Nederland,140318,info@ede.nl,
GEB,1891,A,Hynsteblom,4,9104BR,Damwoude,Friesland,Nederland,140511,post@dantumadiel.eu,
I-O,514,F,Helmondsingel,37,5751PA,Deurne,Noord-Brabant,Nederland,0493-387711,info@deurne.nl,
I-O,530,F,Stationsweg,124,6711PZ,Ede,Gelderland,Nederland,140318,info@ede.nl,
I-O,511,F,Waterkeringsweg,0,1785,Den Helder,Noord-Holland,Nederland,0223-671200,info@denhelder.nl,
I-O,506,F,Van Knobelsdorffplein,129,9203DH,Drachten,Friesland,Nederland,0512-581234,gemeente@smallingerland.nl,
GEB,1891,P,Postbus,22,9104ZG,Damwoude,Friesland,Nederland,140511,post@dantumadiel.eu,
I-O,542,F,Stationsplein,3,1601EN,Enkhuizen,Noord-Holland,Nederland,0228-360100,stadhuis@enkhuizen.nl,
GEB,1771,A,Hofstraat,4,5664HT,Geldrop,Noord-Brabant,Nederland,14040,gemeente@geldrop-mierlo.nl,
GEB,388,P,Postbus,11,1600AA,Enkhuizen,Noord-Holland,Nederland,0228-360100,stadhuis@enkhuizen.nl,
I-O,555,F,Baanweg,1,3844KS,Harderwijk,Gelderland,Nederland,0341-411911,gemeente@harderwijk.nl,
I-O,362,F,Ir J.P. van Muijlwijkstraat,175,6828BN,Arnhem,Gelderland,Nederland,,noreply@arnhem.nl,
I-O,554,F,Slingerbos,1,3844AC,Harderwijk,Gelderland,Nederland,0341-411911,gemeente@harderwijk.nl,
GEB,1771,P,Postbus,10101,5660GA,Geldrop,Noord-Brabant,Nederland,14040,gemeente@geldrop-mierlo.nl,
GEB,523,A,Raadhuisplein,1,3371AS,Hardinxveld-Giessendam,Zuid-Holland,Nederland,140184,info@gemhg.nl,
GEB,388,A,Hoogstraat,11,1601KT,Enkhuizen,Noord-Holland,Nederland,0228-360100,stadhuis@enkhuizen.nl,
I-O,561,F,Stationsplein,1,1703WD,Heerhugowaard,Noord-Holland,Nederland,14072,post@heerhugowaard.nl,
GEB,689,A,Groeneweg,33,4223ME,Hoornaar,Zuid-Holland,Nederland,0183-583838,gemeente@giessenlanden.nl,
GEB,236,P,Postbus,112,4190CC,Geldermalsen,Gelderland,Nederland,0345-586611,info@geldermalsen.nl,
GEB,396,A,Maerten van Heemskerckplein,1,1964EZ,Heemskerk,Noord-Holland,Nederland,140251,post@heemskerk.nl,
I-O,551,F,Hinder,0,3251,Stellendam,Zuid-Holland,Nederland,140187,info@goereeoverflakkee.nl,
I-O,560,F,Stationsweg,101,1704AD,Heerhugowaard,Noord-Holland,Nederland,14072,post@heerhugowaard.nl,
I-O,545,F,De Zegge,3,5664EZ,Geldrop,Noord-Brabant,Nederland,14040,gemeente@geldrop-mierlo.nl,
I-O,543,F,Stationsweg,2,4153RD,Beesd,Gelderland,Nederland,0345-586611,info@geldermalsen.nl,
I-O,550,F,Damweg,3,3251LB,Stellendam,Zuid-Holland,Nederland,140187,info@goereeoverflakkee.nl,
I-O,548,F,Langeweg,98,3257KD,Ooltgensplaat,Zuid-Holland,Nederland,140187,info@goereeoverflakkee.nl,
GEB,523,P,Postbus,175,3370AD,Hardinxveld-Giessendam,Zuid-Holland,Nederland,140184,info@gemhg.nl,
GEB,689,P,Postbus,1,4223ZG,Hoornaar,Zuid-Holland,Nederland,0183-583838,gemeente@giessenlanden.nl,
I-O,562,F,Umbriellaan,10,1702AJ,Heerhugowaard,Noord-Holland,Nederland,14072,post@heerhugowaard.nl,
I-O,556,F,Breedeway,2,3371CX,Hardinxveld-Giessendam,Zuid-Holland,Nederland,140184,info@gemhg.nl,
GEB,398,A,Parelhof,1,1703EZ,Heerhugowaard,Noord-Holland,Nederland,14072,post@heerhugowaard.nl,
GEB,1924,P,Postbus,1,3240AA,Middelharnis,Zuid-Holland,Nederland,140187,info@goereeoverflakkee.nl,
I-O,563,F,Oosttangent,4,1705,Heerhugowaard,Noord-Holland,Nederland,14072,post@heerhugowaard.nl,
I-O,557,F,Stationsstraat,25,3371AX,Hardinxveld-Giessendam,Zuid-Holland,Nederland,140184,info@gemhg.nl,
I-O,558,F,Euratomplein,5,1966SP,Heemskerk,Noord-Holland,Nederland,140251,post@heemskerk.nl,
GEB,396,P,Postbus,1,1960AA,Heemskerk,Noord-Holland,Nederland,140251,post@heemskerk.nl,
GEB,398,P,Postbus,390,1700AJ,Heerhugowaard,Noord-Holland,Nederland,14072,post@heerhugowaard.nl,
I-O,544,F,Deilseweg,9,4191NX,Geldermalsen,Gelderland,Nederland,0345-586611,info@geldermalsen.nl,
I-O,553,F,Boekhorstlaan,1,3847LP,Harderwijk,Gelderland,Nederland,0341-411911,gemeente@harderwijk.nl,
I-O,559,F,Stationsweg,101,1704AD,Heerhugowaard,Noord-Holland,Nederland,14072,post@heerhugowaard.nl,
I-O,549,F,Capelleweg,70,3255LB,Oude-Tonge,Zuid-Holland,Nederland,140187,info@goereeoverflakkee.nl,
I-O,552,F,Woudplein,4,2031CZ,Haarlem,Noord-Holland,Nederland,14023,antwoord@haarlem.nl,
GEB,1924,A,Koningin Julianaweg,45,3241XB,Middelharnis,Zuid-Holland,Nederland,140187,info@goereeoverflakkee.nl,
I-O,546,F,Energieweg,116,4231DJ,Meerkerk,Zuid-Holland,Nederland,0183-583838,gemeente@giessenlanden.nl,
GEB,236,A,Kuipershof,2,4191KH,Geldermalsen,Gelderland,Nederland,0345-586611,info@geldermalsen.nl,
GEB,399,A,Raadhuisplein,1,1851JL,Heiloo,Noord-Holland,Nederland,072-5356666,info@heiloo.nl,
I-O,564,F,Prins Clausstraat,114,6433JR,Hoensbroek,Limburg,Nederland,14045,gemeente@heerlen.nl,
I-O,571,F,Deltaweg,6,5709AC,Helmond,Noord-Brabant,Nederland,140492,gemeente@helmond.nl,
GEB,399,P,Postbus,1,1850AA,Heiloo,Noord-Holland,Nederland,072-5356666,info@heiloo.nl,
I-O,572,F,Dr. Dreeslaan,174,5707KE,Helmond,Noord-Brabant,Nederland,140492,gemeente@helmond.nl,
I-O,579,F,Echtenseweg,17,7963PC,Ruinen,Drenthe,Nederland,140528,gemeente@dewolden.nl,
GEB,917,A,Geleenstraat,25,6411HP,Heerlen,Limburg,Nederland,14045,gemeente@heerlen.nl,
GEB,534,A,Hoofdstraat,115,2181EC,Hillegom,Zuid-Holland,Nederland,140252,info@hillegom.nl,
GEB,1911,P,Postbus,8,1760AA,Anna Paulowna,Noord-Holland,Nederland,088-3215000,contact@hollandskroon.nl,
I-O,574,F,Hyacintenlaan,0,2182,Hillegom,Zuid-Holland,Nederland,140252,info@hillegom.nl,
GEB,1690,A,Raadhuisstraat,2,7921GD,Zuidwolde,Drenthe,Nederland,140528,gemeente@dewolden.nl,
GEB,917,P,Postbus,1,6400AA,Heerlen,Limburg,Nederland,14045,gemeente@heerlen.nl,
I-O,577,F,Kruiswijk,12,1761AR,Anna Paulowna,Noord-Holland,Nederland,088-3215000,contact@hollandskroon.nl,
I-O,570,F,Diepenbroeksingel,0,5707,Helmond,Noord-Brabant,Nederland,140492,gemeente@helmond.nl,
GEB,530,P,Postbus,13,3220AA,Hellevoetsluis,Zuid-Holland,Nederland,140181,gemeente@hellevoetsluis.nl,
I-O,1433,F,Vossenburchkade,19,2805PA,Gouda,Zuid-Holland,Nederland,140182,gemeente@gouda.nl,
I-O,568,F,Weg naar Bakel,3,5709JA,Helmond,Noord-Brabant,Nederland,140492,gemeente@helmond.nl,
GEB,1690,P,Postbus,20,7920AA,Zuidwolde,Drenthe,Nederland,140528,gemeente@dewolden.nl,
I-O,566,F,Hoog en Laag,131,1852AX,Heiloo,Noord-Holland,Nederland,072-5356666,info@heiloo.nl,
I-O,569,F,Europaweg,150,5707CL,Helmond,Noord-Brabant,Nederland,140492,gemeente@helmond.nl,
GEB,530,A,Oostzanddijk,26,3221AL,Hellevoetsluis,Zuid-Holland,Nederland,140181,gemeente@hellevoetsluis.nl,
I-O,576,F,Parallelweg,1,2182CP,Hillegom,Zuid-Holland,Nederland,140252,info@hillegom.nl,
I-O,580,F,Weerwille,25,7961LV,Ruinerwold,Drenthe,Nederland,140528,gemeente@dewolden.nl,
I-O,581,F,Nijverheidsweg,43,7921JH,Zuidwolde,Drenthe,Nederland,140528,gemeente@dewolden.nl,
I-O,567,F,Sliklandseweg,4,3222LH,Hellevoetsluis,Zuid-Holland,Nederland,140181,gemeente@hellevoetsluis.nl,
GEB,1911,A,De Verwachting,1,1761VM,Anna Paulowna,Noord-Holland,Nederland,088-3215000,contact@hollandskroon.nl,
GEB,534,P,Postbus,32,2180AA,Hillegom,Zuid-Holland,Nederland,140252,info@hillegom.nl,
I-O,573,F,Dr. Dreeslaan,174,5707KE,Helmond,Noord-Brabant,Nederland,140492,gemeente@helmond.nl,
I-O,578,F,Stationsweg,21,1761EB,Anna Paulowna,Noord-Holland,Nederland,088-3215000,contact@hollandskroon.nl,
I-O,575,F,1e Loosterweg,28,2182BM,Hillegom,Zuid-Holland,Nederland,140252,info@hillegom.nl,
I-O,1165,F,Stadhuisplein,10,5611EM,Eindhoven,Noord-Brabant,Nederland,,gemeente@eindhoven.nl,
GEB,828,A,Raadhuislaan,2,5341GM,Oss,Noord-Brabant,Nederland,0412-629911,gemeente@oss.nl,
I-O,1772,F,Piusstraat,1,5038WR,Tilburg,,,,gemeente@tilburg.nl,
I-O,1771,F,Professor Goossenslaan,16,5022DM,Tilburg,,,,gemeente@tilburg.nl,
I-O,1905,F,Scheldeplein,2,4381RZ,Vlissingen,Zeeland,Nederland,,gemeente@vlissingen.nl.,
GEB,542,P,Postbus,200,2920AE,Krimpen aan den IJssel,Zuid-Holland,Nederland,140180,gemeente@krimpenaandenijssel.nl,
I-O,596,F,Stationsstraat,49,7005AK,Doetinchem,Gelderland,Nederland,0314-377377,gemeente@doetinchem.nl,
I-O,199,F,Wagenmakerslaan,1,2012DJ,Haarlem,Noord-Holland,Nederland,,centrale1@spaarnelanden.nl,
I-O,593,F,Ettenseweg,1,7004GX,Doetinchem,Gelderland,Nederland,0314-377377,gemeente@doetinchem.nl,
I-O,597,F,Jan Willinkstraat,2,7006NA,Doetinchem,Gelderland,Nederland,0314-377377,gemeente@doetinchem.nl,
GEB,1884,A,Westeinde,1,2371AS,Roelofarendsveen,Zuid-Holland,Nederland,071-3327272,info@kaagenbraassem.nl,
GEB,1719,P,Postbus,19,4920AA,Made,Noord-Brabant,Nederland,0162-690190,gemeente@drimmelen.nl,
I-O,604,F,Burg. Van Tuinenplein,0,8265,Kampen,Overijssel,Nederland,038-3392999,info@kampen.nl,
I-O,610,F,Spoorhaven,84,2651AV,Berkel en Rodenrijs,Zuid-Holland,Nederland,14010,info@lansingerland.nl,
GEB,1621,P,Postbus,1,2650AA,Berkel en Rodenrijs,Zuid-Holland,Nederland,14010,info@lansingerland.nl,
GEB,166,A,Burg. Berghuisplein,1,8261DD,Kampen,Overijssel,Nederland,038-3392999,info@kampen.nl,
I-O,600,F,Stationsstraat,31,7031BN,Wehl,Gelderland,Nederland,0314-377377,gemeente@doetinchem.nl,
I-O,599,F,Stationsstraat,31,7031BN,Wehl,Gelderland,Nederland,0314-377377,gemeente@doetinchem.nl,
I-O,589,F,Pastoor van der Plaatstraat,127,2375AL,Rijpwetering,Zuid-Holland,Nederland,071-3327272,info@kaagenbraassem.nl,
I-O,595,F,Stationsstraat,49,7005AK,Doetinchem,Gelderland,Nederland,0314-377377,gemeente@doetinchem.nl,
I-O,587,F,Raaigras,2,3994MB,Houten,Utrecht,Nederland,030-6392611,gemeentehuis@houten.nl,
I-O,591,F,Herenweg,0,2481,Woubrugge,Zuid-Holland,Nederland,071-3327272,info@kaagenbraassem.nl,
GEB,10,A,Johan van den Kornputplein,10,9934EA,Delfzijl,Groningen,Nederland,140596,gemeente@delfzijl.nl,
I-O,598,F,Stationsstraat,31,7031BN,Wehl,Gelderland,Nederland,0314-377377,gemeente@doetinchem.nl,
I-O,2819,F,Bestevaer,2,1271XR,Huizen,,,,gemeente@huizen.nl,
I-O,602,F,Stationsplein,6,8267AB,Kampen,Overijssel,Nederland,038-3392999,info@kampen.nl,
GEB,416,P,Postbus,15,1723ZG,Noord-Scharwoude,Noord-Holland,Nederland,0226-334433,info@gemeentelangedijk.nl,
I-O,603,F,Stationsplein,6,8267AB,Kampen,Overijssel,Nederland,038-3392999,info@kampen.nl,
I-O,588,F,Raaigras,2,3994MB,Houten,Utrecht,Nederland,030-6392611,gemeentehuis@houten.nl,
I-O,594,F,Stationsstraat,49,7005AK,Doetinchem,Gelderland,Nederland,0314-377377,gemeente@doetinchem.nl,
I-O,607,F,Albert Schweitzerlaan,101,2922HC,Krimpen aan den IJssel,Zuid-Holland,Nederland,140180,gemeente@krimpenaandenijssel.nl,
I-O,608,F,Warmenhuizerweg,0,1724,Oudkarspel,Noord-Holland,Nederland,0226-334433,info@gemeentelangedijk.nl,
GEB,166,P,Postbus,5009,8260GA,Kampen,Overijssel,Nederland,038-3392999,info@kampen.nl,
GEB,1621,A,Tobias Asserlaan,1,2662SB,Bergschenhoek,Zuid-Holland,Nederland,14010,info@lansingerland.nl,
I-O,592,F,Doetinchemseweg,71,7007CB,Doetinchem,Gelderland,Nederland,0314-377377,gemeente@doetinchem.nl,
GEB,1598,A,Middenhof,2,1648JG,De Goorn,Noord-Holland,Nederland,0229-548400,info@koggenland.nl,
GEB,416,A,Vroedschap,1,1722GX,Zuid-Scharwoude,Noord-Holland,Nederland,0226-334433,info@gemeentelangedijk.nl,
I-O,605,F,Zesstedenweg,0,1634,Scharwoude,Noord-Holland,Nederland,0229-548400,info@koggenland.nl,
GEB,542,A,Raadhuisplein,2,2922AD,Krimpen aan den IJssel,Zuid-Holland,Nederland,140180,gemeente@krimpenaandenijssel.nl,
I-O,590,F,Ripselaan,20,2376BJ,Nieuwe Wetering,Zuid-Holland,Nederland,071-3327272,info@kaagenbraassem.nl,
I-O,611,F,Zeggelaan,200,4844SK,Terheijden,Noord-Brabant,Nederland,0162-690190,gemeente@drimmelen.nl,
I-O,1907,F,IJsselmeer,36,3331CE,Zwijndrecht,Zuid-Holland,Nederland,,gemeente@zwijndrecht.nl,
I-O,586,F,De Staart,5,3992LK,Houten,Utrecht,Nederland,030-6392611,gemeentehuis@houten.nl,
GEB,1719,A,Park,1,4921BV,Made,Noord-Brabant,Nederland,0162-690190,gemeente@drimmelen.nl,
I-O,601,F,Stationsplein,6,8267AB,Kampen,Overijssel,Nederland,038-3392999,info@kampen.nl,
GEB,10,P,Postbus,20000,9930PA,Delfzijl,Groningen,Nederland,140596,gemeente@delfzijl.nl,
GEB,1598,P,Postbus,21,1633ZG,Avenhorn,Noord-Holland,Nederland,0229-548400,info@koggenland.nl,
I-O,606,F,Kleine Wijzend,2,1647DT,Berkhout,Noord-Holland,Nederland,0229-548400,info@koggenland.nl,
GEB,1884,P,Postbus,1,2370AA,Roelofarendsveen,Zuid-Holland,Nederland,071-3327272,info@kaagenbraassem.nl,
I-O,615,F,Willem van der Madeweg,0,2314,Leiden,Zuid-Holland,Nederland,14071,,
GEB,361,A,,0,,,,,,info.alkmaar@parkeerservice.nl,
I-O,621,F,Zwartsluizerweg,0,8061,Hasselt,Overijssel,Nederland,038-3853000,info@zwartewaterland.nl,
I-O,622,F,Hanzeweg,45,8251PT,Dronten,Flevoland,Nederland,140321,gemeente@dronten.nl,
GEB,303,P,Postbus,100,8250AC,Dronten,Flevoland,Nederland,140321,gemeente@dronten.nl,
GEB,303,A,De Rede,1,8251ER,Dronten,Flevoland,Nederland,140321,gemeente@dronten.nl,
I-O,618,F,Lammenschansweg,122,2313DR,Leiden,Zuid-Holland,Nederland,14071,,
I-O,616,F,Haagweg,8,2311AA,Leiden,Zuid-Holland,Nederland,14071,,
GEB,1896,P,Postbus,23,8060AA,Hasselt,Overijssel,Nederland,038-3853000,info@zwartewaterland.nl,
I-O,620,F,Havendijk,0,8064,Zwartsluis,Overijssel,Nederland,038-3853000,info@zwartewaterland.nl,
GEB,1896,A,Telvorenstraat,2,8061CB,Hasselt,Overijssel,Nederland,038-3853000,info@zwartewaterland.nl,
I-O,619,F,Plesmanlaan,102,2332CB,Leiden,Zuid-Holland,Nederland,14071,,
GEB,1883,A,Hub Dassenplein,1,6131LB,Sittard,Limburg,Nederland,14046,info@sittard-geleen.nl,
I-O,1489,F,Rijssenseweg,42,7468AE,Enter,,,,info@wierden.nl,
GEB,1883,P,Postbus,18,6130AA,Sittard,Limburg,Nederland,14046,info@sittard-geleen.nl,
I-O,634,F,Visserlaan,0,6921,Duiven,Gelderland,Nederland,0316-279111,gemeente@duiven.nl,
I-O,635,F,Visserlaan,0,6921,Duiven,Gelderland,Nederland,0316-279111,gemeente@duiven.nl,
I-O,633,F,Oostsingel,15,6921RV,Duiven,Gelderland,Nederland,0316-279111,gemeente@duiven.nl,
I-O,629,F,Appelgaarde,125,2272TD,Voorburg,Zuid-Holland,Nederland,14070,info@leidschendam-voorburg.nl,
I-O,632,F,Sint Martinuslaan,211,2273AV,Voorburg,Zuid-Holland,Nederland,14070,info@leidschendam-voorburg.nl,
GEB,226,P,Postbus,6,6920AA,Duiven,Gelderland,Nederland,0316-279111,gemeente@duiven.nl,
GEB,226,A,Koning Willem Alexanderplein,1,6921ES,Duiven,Gelderland,Nederland,0316-279111,gemeente@duiven.nl,
I-O,628,F,Wilgendreef,13,2272EL,Voorburg,Zuid-Holland,Nederland,14070,info@leidschendam-voorburg.nl,
I-O,630,F,Appelgaarde,125,2272TD,Voorburg,Zuid-Holland,Nederland,14070,info@leidschendam-voorburg.nl,
I-O,631,F,Zwartelaan,1,2271BP,Voorburg,Zuid-Holland,Nederland,14070,info@leidschendam-voorburg.nl,
I-O,1434,F,Schouwburgplein,0,2806AL,Gouda,Zuid-Holland,Nederland,140182,gemeente@gouda.nl,
I-O,2083,F,Waardsedijk,0,3421CV,Oudewater,,,,stadskantoor@oudewater.nl,
I-O,1432,F,Klein Amerika,30,2806CA,Gouda,Zuid-Holland,Nederland,140182,gemeente@gouda.nl,
I-O,1431,F,Willensplein,1,2807PA,Gouda,Zuid-Holland,Nederland,140182,gemeente@gouda.nl,
I-O,360,F,Dr. Sacharovplaats,3,3131MH,Vlaardingen,Zuid-Holland,Nederland,070-3514811,klantenservice@bksparking.nl,
I-O,355,F,Kornelis Speelmanstraat,4,3131BG,Vlaardingen,Zuid-Holland,Nederland,070-3514811,klantenservice@bksparking.nl,
GEB,2461,A,Gever Deynootweg,970,2586BW,Den Haag,Zuid-Holland,Nederland,070-3514811,klantenservice@bksparking.nl,
I-O,1760,F,Maassluissedijk,142,3131KB,Vlaardingen,Zuid-Holland,Nederland,070-3514811,klantenservice@bksparking.nl,
I-O,1248,F,Gedempte Biersloot,7,3131HJ,Vlaardingen,Zuid-Holland,Nederland,,klantenservice@bksparking.nl,
I-O,1761,F,Badhuisstraat,410,2584HH,Den Haag,Zuid-Holland,Nederland,,klantenservice@bksparking.nl,
I-O,353,F,Nieuwe Parklaan,248,2587BZ,Den Haag,Zuid-Holland,Nederland,070-3514811,klantenservice@bksparking.nl,
GEB,2461,P,Gever Deynootweg,970,2586BW,Den Haag,Zuid-Holland,Nederland,070-3514811,klantenservice@bksparking.nl,
I-O,357,F,Van Riebeeckstraat,30,3131VV,Vlaardingen,Zuid-Holland,Nederland,070-3514811,klantenservice@bksparking.nl,
I-O,352,F,Strandweg,1,2586JK,Den Haag,Zuid-Holland,Nederland,070-3514811,klantenservice@bksparking.nl,
I-O,1247,F,Liesveldviaduct,0,3131,Vlaardingen,Zuid-Holland,Nederland,070-3514811,klantenservice@bksparking.nl,
I-O,361,F,Zwarte Pad,1,2586HZ,Den Haag,Zuid-Holland,Nederland,070-3514811,klantenservice@bksparking.nl,
I-O,1246,F,Strandweg,1,2586JK,Den Haag,Zuid-Holland,Nederland,070-3514811,klantenservice@bksparking.nl,
I-O,351,F,Gevers Deynootplein,189,2586CS,Den Haag,Zuid-Holland,Nederland,070-3514811,klantenservice@bksparking.nl,
I-O,359,F,Joubertstraat,30,3131WP,Vlaardingen,Zuid-Holland,Nederland,070-3514811,klantenservice@bksparking.nl,
I-O,358,F,Schepenstraat,18,3131VW,Vlaardingen,Zuid-Holland,Nederland,070-3514811,klantenservice@bksparking.nl,
I-O,350,F,Zwolsestraat,426,2587VK,Den Haag,Zuid-Holland,Nederland,070-3514811,klantenservice@bksparking.nl,
I-O,356,F,Achterstraat,0,3131BG,Vlaardingen,Zuid-Holland,Nederland,070-3514811,klantenservice@bksparking.nl,
I-O,196,F,Damstraat,12,2011HA,Haarlem,Noord-Holland,Nederland,,centrale1@spaarnelanden.nl,
I-O,121,F,Westerdreef,41,2161EN,Lisse,Zuid-Holland,Nederland,,gemeente@lisse.nl,
I-O,1839,F,Aelbrechtskade,67,3022HP,Rotterdam,Zuid-Holland,Nederland,14010,noreply@rotterdam.nl,
I-O,1848,F,Burg. van Walsumweg,718,3011MZ,Rotterdam,Zuid-Holland,Nederland,14010,noreply@rotterdam.nl,
I-O,636,F,Ermerweg,28,7812BG,Emmen,Drenthe,Nederland,0900-4466880,info@q-park.nl,
I-O,1613,F,Rotterdam Airportbaan,0,3045AN,Rotterdam,Zuid-Holland,Nederland,010-4463 455,parking@rtha.com,
I-O,1861,F,Zoomstraat,111,3036RE,Rotterdam,Zuid-Holland,Nederland,14010,noreply@rotterdam.nl,
I-O,1842,F,Museumpark,32,3015CX,Rotterdam,Zuid-Holland,Nederland,14010,noreply@rotterdam.nl,
I-O,1820,F,Terwenakker,18,3011XS,Rotterdam,Zuid-Holland,Nederland,14010,noreply@rotterdam.nl,
I-O,1821,F,Terwenakker,18,3011XS,Rotterdam,Zuid-Holland,Nederland,14010,noreply@rotterdam.nl,
I-O,1852,F,Schouwburgplein,22,3012CL,Rotterdam,Zuid-Holland,Nederland,14010,noreply@rotterdam.nl,
I-O,46,F,Plein 1953,35,3086ED,Rotterdam,Zuid-Holland,Nederland,14010,noreply@rotterdam.nl,
I-O,1199,F,Beukenlaan,0,5651,Eindhoven,Noord-Brabant,Nederland,,noreply@pch-dienstengroep.nl,
I-O,1824,F,Polderstraat,10,3074XJ,Rotterdam,Zuid-Holland,Nederland,14010,noreply@rotterdam.nl,
I-O,1200,F,Torenallee,30,5617,Eindhoven,Noord-Brabant,Nederland,,noreply@pch-dienstengroep.nl,
I-O,1829,F,Kipstraat,177,3011ZX,Rotterdam,Zuid-Holland,Nederland,14010,noreply@rotterdam.nl,
I-O,1823,F,Polderstraat,10,3074XJ,Rotterdam,Zuid-Holland,Nederland,14010,noreply@rotterdam.nl,
I-O,1243,F,Hanzeplein,1,9713GZ,Groningen,Groningen,Nederland,050-3616161,noreply@umcg.nl,
I-O,1575,F,Rotterdam Airportplein,0,3045AP,Rotterdam,Zuid-Holland,Nederland,010-4463 455,parking@rtha.com,
I-O,1197,F,Philitelaan,0,5617,Eindhoven,Noord-Brabant,Nederland,,noreply@pch-dienstengroep.nl,
I-O,1844,F,Museumpark,32,3015CX,Rotterdam,Zuid-Holland,Nederland,14010,noreply@rotterdam.nl,
I-O,1859,F,Siem Heidenstraat,6,3077MS,Rotterdam,Zuid-Holland,Nederland,14010,noreply@rotterdam.nl,
I-O,1851,F,Schouwburgplein,22,3012CL,Rotterdam,Zuid-Holland,Nederland,14010,noreply@rotterdam.nl,
I-O,1570,F,Fairoaksbaan,0,3045AS,Rotterdam,Zuid-Holland,Nederland,010-4463 455,parking@rtha.com,
I-O,1846,F,Nieuwe Binnenweg,388,3023ET,Rotterdam,Zuid-Holland,Nederland,14010,noreply@rotterdam.nl,
I-O,2801,F,Noordersingel,4,3755EZ,Eemnes,,,,info@eemnes.nl,
I-O,1100,F,J.G. Sandbrinkstraat,53,3901EX,Veenendaal,Utrecht,Nederland,088-1261414,info@veenendaal.nl,
I-O,1914,F,Burcht,0,1501AA,Zaandam,Noord-Holland,Nederland,,noreply@zaanstad.nl,
GEB,2582,P,Rotterdam Airportplein,60,3045AP,Rotterdam,Zuid-Holland,Nederland,010-4463455,parking@rtha.com,
I-O,1909,F,Croeselaan,14,3521CA,Utrecht,Utrecht,Nederland,,info@p1.nl,
I-O,1234,F,Groene Balkon,1,6511VL,Nijmegen,Gelderland,Nederland,024-3816381,noreply@hollandcasino.nl,
I-O,1235,F,Vleeshouwerstraat,0,6511,Nijmegen,Gelderland,Nederland,024-3816381,noreply@hollandcasino.nl,
I-O,1236,F,Thorbeckestraat,0,2042JB,Zandvoort,Noord-Holland,Nederland,023-5740574,noreply@hollandcasino.nl,
I-O,624,F,Haspelsestraat,41,6131GD,Sittard,Limburg,Nederland,,noreply@interparking.nl,
I-O,1016,F,Bruchterweg,0,7772BE,Hardenberg,Overijssel,Nederland,140523,gemeente@hardenberg.nl,
I-O,1913,F,Baden Powellweg,103,3523CA,Utrecht,Utrecht,Nederland,,info@p1.nl,
GEB,2582,A,Rotterdam Airportplein,60,3045AP,Rotterdam,Zuid-Holland,Nederland,010-4463455,parking@rtha.com,
I-O,861,F,Bagijnenstraat,13,1811KA,Alkmaar,Noord-Holland,Nederland,,info@apcoa.nl,
I-O,860,F,Prinsengracht,927,1017HL,Amsterdam,Noord-Holland,Nederland,020-4222009,info@apcoa.nl,
I-O,1461,F,Ritsumastraat,2,8911KM,Leeuwarden,Friesland,Nederland,,gemeente@leeuwarden.nl,
I-O,1730,F,Nieuwe Doelenstraat,19,6901AR,Zevenaar,Gelderland,Nederland,,gemeente@zevenaar.nl,
I-O,1910,F,Vleutenseweg,44,3532HL,Utrecht,Utrecht,Nederland,,info@p1.nl,
I-O,1908,F,Wittevrouwensingel,96,3514AL,Utrecht,Utrecht,Nederland,,info@p1.nl,
I-O,1444,F,Boulevard 1945,105,7511AM,Enschede,Overijssel,Nederland,,postbus20@enschede.nl,
I-O,1915,F,Kruisstraat,2,3581GK,Utrecht,Utrecht,Nederland,,info@p1.nl,
I-O,1238,F,Magalhaesweg,4,5928LN,Venlo,Limburg,Nederland,077-7502600,noreply@hollandcasino.nl,
I-O,1101,F,Wolweg,197,3901TD,Veenendaal,Utrecht,Nederland,088-1261414,info@p1.nl,
I-O,1493,F,Gedempte Zuiderdiep,78,9711HL,Groningen,Groningen,Nederland,,,
I-O,1526,F,Santiagostraat,3,1334HH,Almere,,,,info@p1.nl,
I-O,763,F,Torenstraat,4,3811DJ,Amersfoort,Utrecht,Nederland,0900-4466880,noreply@qpark.nl,
I-O,429,F,Willemstunnel,1,6811KZ,Arnhem,Gelderland,Nederland,026-3775925,parkeerservicearnhem@p1.nl,
I-O,653,F,St. Jorisplein,34,3811DC,Amersfoort,Utrecht,Nederland,0900-4466880,noreply@qpark.nl,
I-O,1510,F,New Yorkweg,202,,Almere,,,,info@p1.nl,
I-O,1003,F,Hanzelaan,0,8017JJ,Zwolle,,,,postbus@zwolle.nl,
I-O,1464,F,Emmawijk,15,8025BK,Zwolle,,,,postbus@zwolle.nl,
I-O,23,F,Stationsplein-West,33,6811KM,Arnhem,Gelderland,Nederland,026-3775925,parkeerservicearnhem@p1.nl,
I-O,1470,F,Katerdijk,2,8011BT,Zwolle,,,,postbus@zwolle.nl,
I-O,1512,F,Regisseurstraat,3,1315LT,Almere,,,,info@p1.nl,
I-O,1525,F,Straat van Florida,8,1334Pa,Almere,,,,info@p1.nl,
I-O,1521,F,Muntmeesterhof,2,1315HL,Almere,,,,info@p1.nl,
I-O,1522,F,Leerlinghof,18,1315GS,Almere,,,,info@p1.nl,
I-O,1050,F,Brammelerdwarsstraat,6,7511JL,Enschede,Overijssel,Nederland,,postbus20@enschede.nl,
I-O,1477,F,Zuiderkerkstraat,8,8011GG,Zwolle,,,,postbus@zwolle.nl,
I-O,1524,F,Straat van Florida,10,1334PA,Almere,,,,info@p1.nl,
I-O,1515,F,Landdroststraat,0,,Almere,,,,info@p1.nl,
I-O,1523,F,Schoutstraat,108,1315EZ,Almere,,,,info@p1.nl,
I-O,1518,F,Brouwersstraat,3,1315BL,Almere,Flevoland,Nederland,,info@p1.nl,
I-O,90,F,Vitringasingel,2,3841ET,Harderwijk,Gelderland,Nederland,,gemeente@harderwijk.nl,
I-O,89,F,Vitringasingel,2,3841ET,Harderwijk,Gelderland,Nederland,,gemeente@harderwijk.nl,
I-O,1516,F,Hospitaalweg,7,1315RB,Almere,,,,info@p1.nl,
I-O,25,F,Langstraat,10,6811JA,Arnhem,Gelderland,Nederland,026-3775900,parkeerservicearnhem@p1.nl,
I-O,1145,F,Sint Jorissteeg,21,2311JA,Leiden,Zuid-Holland,Nederland,071-5135971,parkeermanagement@leiden.nl,
I-O,28,F,Walstraat,3,6811BC,Arnhem,Gelderland,Nederland,026-3775927,parkeerservicearnhem@p1.nl,
I-O,26,F,Velperbinnensingel,2,6811BP,Arnhem,Gelderland,Nederland,026-3775927,parkeerservicearnhem@p1.nl,
I-O,1544,F,Assiesstraat,126,8011XV,Zwolle,Overijssel,Nederland,,postbus@zwolle.nl,
GEB,828,P,Postbus,5,5340BA,Oss,Noord-Brabant,Nederland,0412-629911,gemeente@oss.nl,
I-O,1559,F,Kloosterraderstraat,19,6461CA,Kerkrade,Limburg,Nederland,,gemeentehuis@kerkrade.nl,
I-O,1435,F,Aan de Potmarge,0,8933AB,Leeuwarden,,,,gemeente@leeuwarden.nl,
I-O,1664,F,Groene Kruisweg,0,,Geervliet,,,,zuidholland@pzh.nl,
I-O,1712,F,Kanaaldijk-West,9,3238LM,Zwartewaal,,,,zuidholland@pzh.nl,
I-O,1671,F,Oud-Heinenoordseweg,0,3274KD,Heinenoord,,,,zuidholland@pzh.nl,
I-O,1669,F,Gemeneweg,24,2391NB,Hazerswoude-Rijndijk,,,,zuidholland@pzh.nl,
I-O,1702,F,Oostkanaalweg,0,,Aarlanderveen,,,,zuidholland@pzh.nl,
I-O,1395,F,Nieuwe Steeg,0,,Zevenaar,,,,gemeente@zevenaar.nl,
I-O,100,F,Masiusplein,3,6901,Zevenaar,Gelderland,Nederland,,gemeente@zevenaar.nl,
I-O,865,F,Lockhorsterweg,1,3832RA,Leusden,Utrecht,Nederland,14033,gemeente@leusden.nl,
GEB,327,P,Postbus,150,3830AD,Leusden,Utrecht,Nederland,14033,gemeente@leusden.nl,
I-O,873,F,Stationsstraat,2,9988RP,Usquert,Groningen,Nederland,0595-437555,algemeen@eemsmond.nl,
GEB,1651,P,Postbus,11,9980AA,Uithuizen,Groningen,Nederland,0595-437555,algemeen@eemsmond.nl,
GEB,556,P,Postbus,55,3140AB,Maassluis,Zuid-Holland,Nederland,14010,gemeente@maassluis.nl,
GEB,733,A,Raadhuisplein,3,4147AN,Asperen,Gelderland,Nederland,0345-634000,info@lingewaal.nl,
I-O,871,F,Stationsplein,1,9981BH,Uithuizen,Groningen,Nederland,0595-437555,algemeen@eemsmond.nl,
GEB,733,P,Postbus,1014,4147ZG,Asperen,Gelderland,Nederland,0345-634000,info@lingewaal.nl,
I-O,863,F,Spieghelweg,2,3833AH,Leusden,Utrecht,Nederland,14033,gemeente@leusden.nl,
GEB,327,A,t Erf,1,3831NA,Leusden,Utrecht,Nederland,14033,gemeente@leusden.nl,
I-O,867,F,Prinses Beatrixlaan,5,3143LA,Maassluis,Zuid-Holland,Nederland,14010,gemeente@maassluis.nl,
I-O,872,F,Stationsstraat,20,9982HA,Uithuizermeeden,Groningen,Nederland,0595-437555,algemeen@eemsmond.nl,
I-O,869,F,Prinses Beatrixlaan,5,3143LA,Maassluis,Zuid-Holland,Nederland,14010,gemeente@maassluis.nl,
I-O,868,F,Prinses Beatrixlaan,5,3143LA,Maassluis,Zuid-Holland,Nederland,14010,gemeente@maassluis.nl,
I-O,864,F,Spieghelweg,2,3833AH,Leusden,Utrecht,Nederland,14033,gemeente@leusden.nl,
I-O,874,F,Stationsweg,15,9989BT,Warffum,Groningen,Nederland,0595-437555,algemeen@eemsmond.nl,
GEB,556,A,Koningshoek,93050,3144BA,Maassluis,Zuid-Holland,Nederland,14010,gemeente@maassluis.nl,
I-O,870,F,Koningshoek,0,3144,Maassluis,Zuid-Holland,Nederland,14010,gemeente@maassluis.nl,
GEB,1651,A,Hoofdstraat-West,1,9981AA,Uithuizen,Groningen,Nederland,0595-437555,algemeen@eemsmond.nl,
I-O,866,F,Zeiving,1,4214KT,Asperen,Gelderland,Nederland,0345-634000,info@lingewaal.nl,
GEB,2093,A,Prinsengracht,540,1017KJ,Amsterdam,Noord-Holland,Nederland,020-4287522,,
GEB,2093,P,Prinsengracht,540,1017KJ,Amsterdam,Noord-Holland,Nederland,020-4287522,,
GEB,2092,A,Meibergdreef,9,1105AZ,Amsterdam,Noord-Holland,Nederland,020-5669111,Info@amc.nl,
I-O,1492,F,Ruiterstraat,12,9711CD,Groningen,Groningen,Nederland,,,
I-O,876,F,Meibergdreef,9,1105AZ,Amsterdam,Noord-Holland,Nederland,020-5669111,Info@amc.nl,
GEB,2091,A,Maatweg,3,3813TZ,Amersfoort,Utrecht,Nederland,033-8505050,info@meandermc.nl,
I-O,875,F,Maatweg,3,3813TZ,Amersfoort,Utrecht,Nederland,033-8505050,info@meandermc.nl,
GEB,2092,P,Postbus,22660,1100DD,Amsterdam,Noord-Holland,Nederland,020-5669111,Info@amc.nl,
GEB,2091,P,Postbus,1502,3800BM,Amersfoort,Utrecht,Nederland,033-8505050,info@meandermc.nl,
I-O,941,F,Bijdorpplein,1,3118JE,Schiedam,Zuid-Holland,Nederland,14010,contact@schiedam.nl,
GEB,420,P,Postbus,45,1687ZG,Wognum,Noord-Holland,Nederland,0229-856000,info@medemblik.nl,
I-O,915,F,Nieuwe Rijksweg,17,4472AA,s-Heer Hendrikskinderen,Zeeland,Nederland,0113-249600,stadskantoor@goes.nl,
GEB,1927,A,Postbus,5,2970AA,Bleskensgraaf,Zuid-Holland,Nederland,140184,,
GEB,425,P,Postbus,5000,1410AA,Naarden,Noord-Holland,Nederland,035-6957811,info@naarden.nl,
GEB,424,P,Postbus,3,1398ZG,Muiden,Noord-Holland,Nederland,0294-210210,info@muiden.nl,
I-O,914,F,Nieuwe Rijksweg,17,4472AA,s-Heer Hendrikskinderen,Zeeland,Nederland,0113-249600,stadskantoor@goes.nl,
GEB,244,A,Markt,1,8051EZ,Hattem,Gelderland,Nederland,038-4431616,gemeente@hattem.nl,
I-O,885,F,Nieuweweg,0,1654,Wognum,Noord-Holland,Nederland,0229-856000,info@medemblik.nl,
GEB,1931,A,Dorpsplein,8,2821AS,Stolwijk,Zuid-Holland,Nederland,140182,info@krimpenerwaard.nl,
I-O,886,F,Eperweg,94,8084HK,t Harde,Gelderland,Nederland,0525-688688,gemeente@elburg.nl,
GEB,603,A,Bogaardplein,15,2284DP,Rijswijk,Zuid-Holland,Nederland,14070,stadhuis@rijswijk.nl,
GEB,340,P,Postbus,201,3910AE,Rhenen,Utrecht,Nederland,0317-681681,info@rhenen.nl,
I-O,936,F,Rijksweg,59,1751EE,Schagerbrug,Noord-Holland,Nederland,0224-210400,postbus8@schagen.nl,
I-O,1705,F,Papeweg,0,,,,,,zuidholland@pzh.nl,
GEB,158,P,Postbus,102,7480AC,Haaksbergen,Overijssel,Nederland,053-5734567,gemeente@haaksbergen.nl,
GEB,441,A,Laan,19,1741EA,Schagen,Noord-Holland,Nederland,0224-210400,postbus8@schagen.nl,
GEB,406,A,Graaf Wichman,10,1276KB,Huizen,Noord-Holland,Nederland,035-5281911,gemeente@huizen.nl,
GEB,1926,P,Postbus,1,2640AA,Pijnacker,Zuid-Holland,Nederland,14015,info@pijnacker-nootdorp.nl,
I-O,879,F,Buivensedreef,40,5525,Duizel,Noord-Brabant,Nederland,0497-531300,gemeente@eersel.nl,
I-O,927,F,De Schans,10,2983GT,Ridderkerk,Zuid-Holland,Nederland,0180-451234,info@ridderkerk.nl,
I-O,883,F,Reigerweg,0,1657,Abbekerk,Noord-Holland,Nederland,0229-856000,info@medemblik.nl,
I-O,939,F,Stationsweg,20,1741GX,Schagen,Noord-Holland,Nederland,0224-210400,postbus8@schagen.nl,
I-O,882,F,Universiteitssingel,40,6229ER,Maastricht,Limburg,Nederland,14043,post@maastricht.nl,
GEB,575,A,Voorstraat,42,2201HW,Noordwijk,Zuid-Holland,Nederland,071-3660000,gemeente@noordwijk.nl,
I-O,881,F,Bechlaan,0,6227,Maastricht,Limburg,Nederland,14043,post@maastricht.nl,
I-O,931,F,Papyruspad,0,2283,Rijswijk,Zuid-Holland,Nederland,14070,stadhuis@rijswijk.nl,
I-O,925,F,Stationsplein,1,3911BK,Rhenen,Utrecht,Nederland,0317-681681,info@rhenen.nl,
GEB,230,P,Postbus,70,8080AB,Elburg,Gelderland,Nederland,0525-688688,gemeente@elburg.nl,
GEB,788,A,Mgr Bekkersplein,2,5076AV,Haaren,Noord-Brabant,Nederland,0411-627282,gemeente@haaren.nl,
GEB,779,A,Vrijheidstraat,2,4941DX,Raamsdonkveer,Noord-Brabant,Nederland,140162,info@geertruidenberg.nl,
I-O,905,F,Griftdijk,3,6515,Nijmegen,Gelderland,Nederland,14024,gemeente@nijmegen.nl,
GEB,770,A,Dijk,15,5521AW,Eersel,Noord-Brabant,Nederland,0497-531300,gemeente@eersel.nl,
I-O,929,F,Holstraat,6,5076NL,Haaren,Noord-Brabant,Nederland,0411-627282,gemeente@haaren.nl,
I-O,895,F,Zuidbroekse Opweg,0,2941,Lekkerkerk,Zuid-Holland,Nederland,140182,info@krimpenerwaard.nl,
GEB,244,P,Postbus,93,8050AB,Hattem,Gelderland,Nederland,038-4431616,gemeente@hattem.nl,
GEB,356,P,Postbus,1,3430AA,Nieuwegein,Utrecht,Nederland,14030,gemeente@nieuwegein.nl,
GEB,603,P,Postbus,5305,2280HH,Rijswijk,Zuid-Holland,Nederland,14070,stadhuis@rijswijk.nl,
GEB,569,P,Postbus,1,2460AA,Nieuwveen,Zuid-Holland,Nederland,140172,info@nieuwkoop.nl,
I-O,940,F,Eperweg,55,8181EV,Heerde,Gelderland,Nederland,0578-699494,gemeente@heerde.nl,
GEB,335,A,Kasteelplein,5,3417JG,Montfoort,Utrecht,Nederland,0348-476400,info@montfoort.nl,
GEB,779,P,Postbus,10001,4940GA,Raamsdonkveer,Noord-Brabant,Nederland,140162,info@geertruidenberg.nl,
I-O,909,F,Nerhoven,25,5126TB,Gilze,Noord-Brabant,Nederland,140161,info@gilzerijen.nl,
GEB,784,A,Raadhuisplein,1,5121JX,Rijen,Noord-Brabant,Nederland,140161,info@gilzerijen.nl,
GEB,246,P,Postbus,175,8180AD,Heerde,Gelderland,Nederland,0578-699494,gemeente@heerde.nl,
GEB,406,P,Postbus,5,1270AA,Huizen,Noord-Holland,Nederland,035-5281911,gemeente@huizen.nl,
I-O,926,F,Schaapherderweg,4,2988CK,Ridderkerk,Zuid-Holland,Nederland,0180-451234,info@ridderkerk.nl,
GEB,425,A,Raadhuisstraat,2,1411EC,Naarden,Noord-Holland,Nederland,035-6957811,info@naarden.nl,
I-O,884,F,Reigerweg,0,1657,Abbekerk,Noord-Holland,Nederland,0229-856000,info@medemblik.nl,
GEB,441,P,Postbus,8,1740AA,Schagen,Noord-Holland,Nederland,0224-210400,postbus8@schagen.nl,
GEB,246,A,Eperweg,5,8181ET,Heerde,Gelderland,Nederland,0578-699494,gemeente@heerde.nl,
I-O,888,F,Klaas Engelbrechtsweg,5,2636DM,Schipluiden,Zuid-Holland,Nederland,015-3804111,gemeente@middendelfland.nl,
I-O,890,F,Geerstraat,14,8171LJ,Vaassen,Gelderland,Nederland,140578,gemeente@epe.nl,
I-O,934,F,Bergsebaan,74,4726SH,Heerle,Noord-Brabant,Nederland,0165-579111,info@roosendaal.nl,
GEB,232,P,Postbus,600,8160AP,Epe,Gelderland,Nederland,140578,gemeente@epe.nl,
I-O,933,F,Stationsstraat,54,6071KD,Swalmen,Limburg,Nederland,140475,mail@roermond.nl,
I-O,920,F,Da Vinciplein,1,4462GX,Goes,Zeeland,Nederland,0113-249600,stadskantoor@goes.nl,
I-O,922,F,Klapwijkseweg,2,2642RB,Pijnacker,Zuid-Holland,Nederland,14015,info@pijnacker-nootdorp.nl,
I-O,910,F,Venneweg,28,5121RA,Rijen,Noord-Brabant,Nederland,140161,info@gilzerijen.nl,
I-O,913,F,Leeweg,20,2203LD,Noordwijk,Zuid-Holland,Nederland,071-3660000,gemeente@noordwijk.nl,
I-O,892,F,Maxisweg,0,1398,Muiden,Noord-Holland,Nederland,0294-210210,info@muiden.nl,
I-O,1690,F,Groene Kruisweg,0,,,,,,zuidholland@pzh.nl,
I-O,1676,F,Herenweg,0,,Katwijk,,,,zuidholland@pzh.nl,
I-O,921,F,Oostlaan,38,2641DL,Pijnacker,Zuid-Holland,Nederland,14015,info@pijnacker-nootdorp.nl,
GEB,770,P,Postbus,12,5520AA,Eersel,Noord-Brabant,Nederland,0497-531300,gemeente@eersel.nl,
I-O,935,F,Hessenweg,0,8051,Hattem,Gelderland,Nederland,038-4431616,gemeente@hattem.nl,
GEB,569,A,Teylersplein,1,2441LE,Nieuwveen,Zuid-Holland,Nederland,140172,info@nieuwkoop.nl,
I-O,928,F,Rotterdamseweg,0,2986,Ridderkerk,Zuid-Holland,Nederland,0180-451234,info@ridderkerk.nl,
GEB,340,A,Nieuwe Veenendaalseweg,75,3911MG,Rhenen,Utrecht,Nederland,0317-681681,info@rhenen.nl,
I-O,919,F,Lijnbaan,42,4461HK,Goes,Zeeland,Nederland,0113-249600,stadskantoor@goes.nl,
I-O,896,F,Parallelweg,0,2931,Krimpen aan de Lek,Zuid-Holland,Nederland,140182,info@krimpenerwaard.nl,
GEB,424,A,Het Anker,2,1398ES,Muiden,Noord-Holland,Nederland,0294-210210,info@muiden.nl,
GEB,788,P,Postbus,44,5076ZG,Haaren,Noord-Brabant,Nederland,0411-627282,gemeente@haaren.nl,
I-O,942,F,Karel Doormanweg,60,3115JD,Schiedam,Zuid-Holland,Nederland,14010,contact@schiedam.nl,
I-O,924,F,Goorsestraat,74,7482CL,Haaksbergen,Overijssel,Nederland,053-5734567,gemeente@haaksbergen.nl,
GEB,230,A,Zuiderzeestraatweg Oost,19,8081LA,Elburg,Gelderland,Nederland,0525-688688,gemeente@elburg.nl,
GEB,232,A,Marktplein,1,8161EE,Epe,Gelderland,Nederland,140578,gemeente@epe.nl,
GEB,1927,P,Postbus,5,2970AA,Bleskensgraaf,Zuid-Holland,Nederland,140184,,
I-O,893,F,IJsselmeerweg,0,1411,Naarden,Noord-Holland,Nederland,035-6957811,info@naarden.nl,
I-O,899,F,Zandveldseweg,0,3434,Nieuwegein,Utrecht,Nederland,14030,gemeente@nieuwegein.nl,
I-O,891,F,M.A. Reinaldaweg,19,3461CC,Linschoten,Utrecht,Nederland,0348-476400,info@montfoort.nl,
I-O,945,F,Veerweg,0,3355,Papendrecht,Zuid-Holland,Nederland,14078,pbgemeentebestuur@papendrecht.nl,
I-O,1450,F,Binnensingel,8,7411PM,Deventer,,,,parkeren@deventer.nl,
I-O,918,F,Lijnbaan,42,4461HK,Goes,Zeeland,Nederland,0113-249600,stadskantoor@goes.nl,
I-O,903,F,Oosterhoutseweg,18,4941WZ,Raamsdonkveer,Noord-Brabant,Nederland,140162,info@geertruidenberg.nl,
I-O,916,F,Katseveerweg,3,4475PB,Wilhelminadorp,Zeeland,Nederland,0113-249600,stadskantoor@goes.nl,
I-O,917,F,Lijnbaan,42,4461HK,Goes,Zeeland,Nederland,0113-249600,stadskantoor@goes.nl,
I-O,902,F,Kloosterweg,2,4941EG,Raamsdonkveer,Noord-Brabant,Nederland,140162,info@geertruidenberg.nl,
I-O,938,F,De Boog,2,1741MN,Schagen,Noord-Holland,Nederland,0224-210400,postbus8@schagen.nl,
I-O,887,F,Eperweg,129,8084HE,t Harde,Gelderland,Nederland,0525-688688,gemeente@elburg.nl,
I-O,930,F,Holstraat,0,4751,Oud Gastel,Noord-Brabant,Nederland,0165-390500,gemeente@halderberge.nl,
GEB,590,A,Markt,22,3351PB,Papendrecht,Zuid-Holland,Nederland,14078,pbgemeentebestuur@papendrecht.nl,
I-O,904,F,Oosterhoutseweg,18,4941WZ,Raamsdonkveer,Noord-Brabant,Nederland,140162,info@geertruidenberg.nl,
GEB,1655,A,Parklaan,15,4731GJ,Oudenbosch,Noord-Brabant,Nederland,0165-390500,gemeente@halderberge.nl,
I-O,923,F,Klapwijkseweg,2,2642RB,Pijnacker,Zuid-Holland,Nederland,14015,info@pijnacker-nootdorp.nl,
I-O,889,F,Veerweg,0,2969,Oud-Alblas,Zuid-Holland,Nederland,140184,,
I-O,912,F,Herenweg,0,2201,Noordwijk,Zuid-Holland,Nederland,071-3660000,gemeente@noordwijk.nl,
GEB,784,P,Postbus,73,5120AB,Rijen,Noord-Brabant,Nederland,140161,info@gilzerijen.nl,
I-O,932,F,Rijksweg,13,6049GV,Herten,Limburg,Nederland,140475,mail@roermond.nl,
GEB,356,A,Stadsplein,1,3431LZ,Nieuwegein,Utrecht,Nederland,14030,gemeente@nieuwegein.nl,
I-O,1710,F,Silklandseweg,0,3222LH,Hellevoetsluis,,,,zuidholland@pzh.nl,
GEB,420,A,Dick Ketlaan,21,1687CD,Wognum,Noord-Holland,Nederland,0229-856000,info@medemblik.nl,
GEB,1926,A,Oranjeplein,1,2641EX,Pijnacker,Zuid-Holland,Nederland,14015,info@pijnacker-nootdorp.nl,
I-O,900,F,Schoterweg,0,2441,Nieuwveen,Zuid-Holland,Nederland,140172,info@nieuwkoop.nl,
GEB,1931,P,Postbus,51,2820AB,Stolwijk,Zuid-Holland,Nederland,140182,info@krimpenerwaard.nl,
I-O,897,F,Parallelweg,0,2941,Lekkerkerk,Zuid-Holland,Nederland,140182,info@krimpenerwaard.nl,
GEB,335,P,Postbus,41,3417ZG,Montfoort,Utrecht,Nederland,0348-476400,info@montfoort.nl,
I-O,911,F,Venneweg,28,5121RA,Rijen,Noord-Brabant,Nederland,140161,info@gilzerijen.nl,
GEB,575,P,Postbus,298,2200AG,Noordwijk,Zuid-Holland,Nederland,071-3660000,gemeente@noordwijk.nl,
I-O,901,F,Keizersveer,1,4941TA,Raamsdonkveer,Noord-Brabant,Nederland,140162,info@geertruidenberg.nl,
I-O,24,F,Langstraat,10,6811JA,Arnhem,Gelderland,Nederland,026-3775900,parkeerservicearnhem@p1.nl,
GEB,590,P,Postbus,11,3350AA,Papendrecht,Zuid-Holland,Nederland,14078,pbgemeentebestuur@papendrecht.nl,
I-O,626,F,De Wieër,2,6131CV,Sittard,Limburg,Nederland,,info@sittard-geleen.nl,
GEB,1655,P,Postbus,5,4730AA,Oudenbosch,Noord-Brabant,Nederland,0165-390500,gemeente@halderberge.nl,
GEB,158,A,Markt,3,7481HS,Haaksbergen,Overijssel,Nederland,053-5734567,gemeente@haaksbergen.nl,
I-O,898,F,Zandveldseweg,0,3434,Nieuwegein,Utrecht,Nederland,14030,gemeente@nieuwegein.nl,
I-O,946,F,Bunschoterstraat,0,3751LJ,Hoogland,Utrecht,Nederland,14033,info_gemeente@amersfoort.nl,
I-O,948,F,Coulissen,0,,Amersfoort,Utrecht,Nederland,14033,info_gemeente@amersfoort.nl,
GEB,307,P,Postbus,4000,3800EA,Amersfoort,Utrecht,Nederland,14033,info_gemeente@amersfoort.nl,
GEB,307,A,Stadhuisplein,1,3811LM,Amersfoort,Utrecht,Nederland,14033,info_gemeente@amersfoort.nl,
I-O,947,F,Inputplein,0,,Amersfoort,Utrecht,Nederland,14033,info_gemeente@amersfoort.nl,
GEB,610,A,Industrieweg,11,3361HJ,Sliedrecht,Zuid-Holland,Nederland,0184-495900,gemeente@sliedrecht.nl,
GEB,797,A,Julianastraat,34,5251ED,Vlijmen,Noord-Brabant,Nederland,14073,info@heusden.nl,
I-O,966,F,De Leuren,19,5591ND,Heeze,Noord-Brabant,Nederland,040-2241400,postbus@heeze-leende.nl,
I-O,971,F,Carpoolplaats Vinkeveen,0,,Loenersloot,Utrecht,Nederland,0346-254000,info@stichtsevecht.nl,
GEB,252,A,Kerkplein,6,6581AC,Malden,Gelderland,Nederland,14024,heumen@heumen.nl,
GEB,1904,A,Endelhovenlaan,1,3601GR,Maarssen,Utrecht,Nederland,0346-254000,info@stichtsevecht.nl,
GEB,450,A,Middelweg,28,1911EG,Uitgeest,Noord-Holland,Nederland,140251,gemeentebestuur@uitgeest.nl,
I-O,981,F,Jan J. Ludenlaan,2,6582AG,Heumen,Gelderland,Nederland,14024,heumen@heumen.nl,
GEB,342,P,Postbus,2000,3760CA,Soest,Utrecht,Nederland,035-6093411,postbus2000@soest.nl,
I-O,958,F,P.J. Bliekstraat,5,3201PL,Spijkenisse,Zuid-Holland,Nederland,140181,gemeente@nissewaard.nl,
I-O,963,F,Valkenswaardseweg,42,5595XB,Leende,Noord-Brabant,Nederland,040-2241400,postbus@heeze-leende.nl,
GEB,610,P,Postbus,16,3360AA,Sliedrecht,Zuid-Holland,Nederland,0184-495900,gemeente@sliedrecht.nl,
I-O,960,F,P.J. Bliekstraat,5,3201PL,Spijkenisse,Zuid-Holland,Nederland,140181,gemeente@nissewaard.nl,
GEB,1904,P,Postbus,1212,3600BE,Maarssen,Utrecht,Nederland,0346-254000,info@stichtsevecht.nl,
I-O,974,F,Amerlandseweg,0,3621,Breukelen,Utrecht,Nederland,0346-254000,info@stichtsevecht.nl,
I-O,978,F,Hellegatspolder,2,2172JZ,Sassenheim,Zuid-Holland,Nederland,0252-783300,gemeente@teylingen.nl,
I-O,976,F,Provincialeweg,0,3621,Breukelen,Utrecht,Nederland,0346-254000,info@stichtsevecht.nl,
I-O,953,F,Bosstraat,3,3766AB,Soest,Utrecht,Nederland,035-6093411,postbus2000@soest.nl,
I-O,982,F,Stationsplein,9,1911MV,Uitgeest,Noord-Holland,Nederland,140251,gemeentebestuur@uitgeest.nl,
GEB,450,P,Postbus,7,1910AA,Uitgeest,Noord-Holland,Nederland,140251,gemeentebestuur@uitgeest.nl,
GEB,532,P,Postbus,20,1610AA,Bovenkarspel,Noord-Holland,Nederland,0228-510111,gemeente@stedebrouc.nl,
I-O,977,F,Safariweg,6,3605MA,Maarssen,Utrecht,Nederland,0346-254000,info@stichtsevecht.nl,
GEB,1525,P,Postbus,149,2215ZJ,Voorhout,Zuid-Holland,Nederland,0252-783300,gemeente@teylingen.nl,
I-O,973,F,Amerlandseweg,0,3621,Breukelen,Utrecht,Nederland,0346-254000,info@stichtsevecht.nl,
I-O,954,F,Eikenlaan,65,3768ET,Soest,Utrecht,Nederland,035-6093411,postbus2000@soest.nl,
GEB,1525,A,Wilhelminalaan,25,2171CS,Sassenheim,Zuid-Holland,Nederland,0252-783300,gemeente@teylingen.nl,
I-O,959,F,P.J. Bliekstraat,5,3201PL,Spijkenisse,Zuid-Holland,Nederland,140181,gemeente@nissewaard.nl,
I-O,952,F,Spoorstraat,3,3761AJ,Soest,Utrecht,Nederland,035-6093411,postbus2000@soest.nl,
I-O,950,F,Stationsplein,4,3364AM,Sliedrecht,Zuid-Holland,Nederland,0184-495900,gemeente@sliedrecht.nl,
I-O,980,F,De Gaasbak,0,2215,Voorhout,Zuid-Holland,Nederland,0252-783300,gemeente@teylingen.nl,
I-O,970,F,Floraweg,16,3608BW,Maarssen,Utrecht,Nederland,0346-254000,info@stichtsevecht.nl,
GEB,342,A,Raadhuisplein,1,3762AV,Soest,Utrecht,Nederland,035-6093411,postbus2000@soest.nl,
I-O,969,F,Middenweg,4,1611KP,Bovenkarspel,Noord-Holland,Nederland,0228-510111,gemeente@stedebrouc.nl,
GEB,252,P,Postbus,200,6580AZ,Malden,Gelderland,Nederland,14024,heumen@heumen.nl,
GEB,1658,P,Postbus,10000,5590GA,Heeze,Noord-Brabant,Nederland,040-2241400,postbus@heeze-leende.nl,
I-O,965,F,De Laarstukken,3,5591EZ,Heeze,Noord-Brabant,Nederland,040-2241400,postbus@heeze-leende.nl,
GEB,797,P,Postbus,41,5250AA,Vlijmen,Noord-Brabant,Nederland,14073,info@heusden.nl,
I-O,951,F,Richelleweg,0,3769,Soesterberg,Utrecht,Nederland,035-6093411,postbus2000@soest.nl,
I-O,972,F,Broekdijk West,4,3621LV,Breukelen,Utrecht,Nederland,0346-254000,info@stichtsevecht.nl,
I-O,964,F,De Laarstukken,3,5591EZ,Heeze,Noord-Brabant,Nederland,040-2241400,postbus@heeze-leende.nl,
I-O,968,F,De Middend,96,1611KT,Bovenkarspel,Noord-Holland,Nederland,0228-510111,gemeente@stedebrouc.nl,
GEB,1658,A,Jan Deckersstraat,2,5591HS,Heeze,Noord-Brabant,Nederland,040-2241400,postbus@heeze-leende.nl,
I-O,967,F,De Middend,96,1611KT,Bovenkarspel,Noord-Holland,Nederland,0228-510111,gemeente@stedebrouc.nl,
I-O,2839,F,Schapendrift,64,1251XH,Laren,,,,info@laren.nl,
I-O,949,F,Stationsplein,48,3364AM,Sliedrecht,Zuid-Holland,Nederland,0184-495900,gemeente@sliedrecht.nl,
GEB,532,A,De Middend,2,1611KW,Bovenkarspel,Noord-Holland,Nederland,0228-510111,gemeente@stedebrouc.nl,
I-O,979,F,Stationsplein,0,2361,Warmond,Zuid-Holland,Nederland,0252-783300,gemeente@teylingen.nl,
I-O,975,F,Stationsweg,107,3621LK,Breukelen,Utrecht,Nederland,0346-254000,info@stichtsevecht.nl,
I-O,983,F,Spoorlaan,2,5151DE,Drunen,Noord-Brabant,Nederland,14073,info@heusden.nl,
GEB,164,A,Burgemeester Jansenplein,1,7551EC,Hengelo,Overijssel,Nederland,074-2459876,gemeente@hengelo.nl,
GEB,164,P,Postbus,18,7550AA,Hengelo,Overijssel,Nederland,074-2459876,gemeente@hengelo.nl,
I-O,985,F,Olde Meulenweg,16,7554RL,Hengelo,Overijssel,Nederland,074-2459876,gemeente@hengelo.nl,
I-O,984,F,Kamphorstweg,25,7555SB,Hengelo,Overijssel,Nederland,074-2459876,gemeente@hengelo.nl,
I-O,987,F,Borstwering,20,1628KR,Hoorn,Noord-Holland,Nederland,0229-252200,gemeente@hoorn.nl,
GEB,405,A,Nieuwe Steen,1,1625HV,Hoorn,Noord-Holland,Nederland,0229-252200,gemeente@hoorn.nl,
I-O,988,F,Keern,229,1689PB,Zwaag,Noord-Holland,Nederland,0229-252200,gemeente@hoorn.nl,
GEB,405,P,Postbus,603,1620AR,Hoorn,Noord-Holland,Nederland,0229-252200,gemeente@hoorn.nl,
I-O,989,F,Keern,229,1689PB,Zwaag,Noord-Holland,Nederland,0229-252200,gemeente@hoorn.nl,
GEB,200,P,Postbus,9033,7300ES,Apeldoorn,Gelderland,Nederland,14055,gemeente@apeldoorn.nl,
I-O,990,F,Van Heeckerensweg,16,7339EN,Ugchelen,Gelderland,Nederland,14055,gemeente@apeldoorn.nl,
GEB,200,A,Marktplein,1,7311LG,Apeldoorn,Gelderland,Nederland,14055,gemeente@apeldoorn.nl,
I-O,992,F,Kayersdijk,0,7361,Beekbergen,Gelderland,Nederland,14055,gemeente@apeldoorn.nl,
I-O,991,F,De Kar,2,7325WX,Apeldoorn,Gelderland,Nederland,14055,gemeente@apeldoorn.nl,
I-O,1797,F,Zijdehoenderlaan,45,3772WW,Barneveld,,,,info@barneveld.nl,
GEB,537,P,Postbus,589,2220AN,Katwijk,Zuid-Holland,Nederland,071-4065000,info@katwijk.nl,
I-O,1700,F,Hoge Poeldonk,0,5212,s-Hertogenbosch,,,,,
GEB,537,A,Koningin Julianalaan,3,2224EW,Katwijk,Zuid-Holland,Nederland,071-4065000,info@katwijk.nl,
I-O,1799,F,Parallelweg,20,5664AD,Geldrop,,,,gemeente@geldrop-mierlo.nl,
I-O,1001,F,Stationsplein,69,7811GB,Emmen,Drenthe,Nederland,140591,gemeente@emmen.nl,
I-O,999,F,Boerdijk,66,7844TD,Emmen,Drenthe,Nederland,140591,gemeente@emmen.nl,
I-O,1000,F,Limietweg,0,7894,Emmen,Drenthe,Nederland,140591,gemeente@emmen.nl,
I-O,1002,F,Stationsplein,69,7811GB,Emmen,Drenthe,Nederland,140591,gemeente@emmen.nl,
GEB,114,P,Postbus,30001,7800RA,Emmen,Drenthe,Nederland,140591,gemeente@emmen.nl,
GEB,114,A,Raadhuisplein,1,7811AP,Emmen,Drenthe,Nederland,140591,gemeente@emmen.nl,
I-O,1451,F,Binnensingel,8,7411PM,Deventer,,,,parkeren@deventer.nl,
GEB,70,P,Postbus,58,8800AB,Franeker,Friesland,Nederland,0517-380380,info@franekeradeel.nl,
I-O,1007,F,Anna Maria van Schurmansingel,59,8801JR,Franeker,Friesland,Nederland,0517-380380,info@franekeradeel.nl,
I-O,1006,F,Getswerderdyk,2,8802PL,Franeker,Friesland,Nederland,0517-380380,info@franekeradeel.nl,
GEB,70,A,Harlingerweg,18,8801PA,Franeker,Friesland,Nederland,0517-380380,info@franekeradeel.nl,
I-O,1014,F,Burgemeester Kuntzelaan,25,3771EP,Barneveld,Gelderland,Nederland,140342,info@barneveld.nl,
GEB,203,A,Raadhuisplein,2,3771ER,Barneveld,Gelderland,Nederland,140342,info@barneveld.nl,
GEB,203,P,Postbus,63,3770AB,Barneveld,Gelderland,Nederland,140342,info@barneveld.nl,
I-O,1009,F,Zelderseweg,63,3784LN,Terschuur,Gelderland,Nederland,140342,info@barneveld.nl,
I-O,1010,F,Binnenveld,5,3771PL,Barneveld,Gelderland,Nederland,140342,info@barneveld.nl,
I-O,1015,F,Baron van Nagellstraat,129,3771LK,Barneveld,Gelderland,Nederland,140342,info@barneveld.nl,
I-O,1013,F,Provincialeweg,0,3776,Stroe,Gelderland,Nederland,140342,info@barneveld.nl,
I-O,1011,F,Scherpenzeelseweg,56,3772MD,Barneveld,Gelderland,Nederland,140342,info@barneveld.nl,
I-O,1012,F,Zeumerseweg,38,3781PC,Voorthuizen,Gelderland,Nederland,140342,info@barneveld.nl,
I-O,1800,F,Defensie-eiland,93,3441VG,WOERDEN,,,,woerden@parkeerservice.nl,
I-O,1448,F,Leeuwenbrug,1,7411TE,Deventer,,,,parkeren@deventer.nl,
I-O,2109,F,,0,5975RA,Sevenum,,,,gemeente@horstaandemaas.nl,
I-O,1659,F,Maagdenburgstraat,0,7421ZA,Deventer,,,,gemeente@deventer.nl,
I-O,1801,F,Werkhorst,0,7944AV,Meppel,,,,postbus@meppel.nl,
I-O,1453,F,Deventerweg,119,7214DD,Epse,,,,gemeente@deventer.nl,
I-O,1452,F,Baarhorsterdijk,0,7437RH,Bathmen,,,,gemeente@deventer.nl,
I-O,1449,F,Piet van Donkplein,0,7423EM,Deventer,,,,gemeente@deventer.nl,
I-O,1803,F,Bremenbergweg,0,,Meppel,,,,postbus@meppel.nl,
I-O,1802,F,Blankenstein,0,7943PA,Meppel,,,,postbus@meppel.nl,
I-O,1805,F,Rijksomweg,0,,Meppel,,,,postbus@meppel.nl,
I-O,1804,F,Hessenweg,3,7949AC,Rogat,,,,postbus@meppel.nl,
I-O,1144,F,Kaardesteeg,11,2311KN,Leiden,Zuid-Holland,Nederland,071-5135971,parkeermanagement@leiden.nl,
I-O,27,F,Velperplein,10,6811AG,Arnhem,Gelderland,Nederland,026-3775927,parkeerservicearnhem@p1.nl,
I-O,1857,F,Siem Heidenstraat,6,3077MS,Rotterdam,Zuid-Holland,Nederland,14010,noreply@rotterdam.nl,
I-O,1834,F,Weenatunnel,50,3013AL,Rotterdam,Zuid-Holland,Nederland,14010,noreply@rotterdam.nl,
I-O,1827,F,Willemsplein,1,3016DN,Rotterdam,Zuid-Holland,Nederland,14010,noreply@rotterdam.nl,
I-O,1196,F,Kastanjelaan,21,5616LH,Eindhoven,Noord-Brabant,Nederland,,noreply@pch-dienstengroep.nl,
I-O,1194,F,Klokgebouw,50,5617AB,Eindhoven,Noord-Brabant,Nederland,,noreply@pch-dienstengroep.nl,
I-O,1752,F,Fairoaksbaan,0,3045AS,Rotterdam,Zuid-Holland,Nederland,010-4463 455,parking@rtha.com,
I-O,1606,F,Rotterdam Airportbaan,0,3045AN,Rotterdam,Zuid-Holland,Nederland,010-4463 455,parking@rtha.com,
I-O,1742,F,Rotterdam Airportplein,0,3045AP,Rotterdam,Zuid-Holland,Nederland,010-4463 455,parking@rtha.com,
I-O,1830,F,Kipstraat,177,3011ZX,Rotterdam,Zuid-Holland,Nederland,14010,noreply@rotterdam.nl,
I-O,1833,F,Weenatunnel,50,3013AL,Rotterdam,Zuid-Holland,Nederland,14010,noreply@rotterdam.nl,
I-O,1754,F,Meamerterdyk,0,8831XZ,Winsum,,,,info@waadhoeke.nl,
I-O,1817,F,Bloklandstraat,154,3036TS,Rotterdam,Zuid-Holland,Nederland,14010,noreply@rotterdam.nl,
I-O,1813,F,Colosseumweg,13,3074SN,Rotterdam,Zuid-Holland,Nederland,14010,noreply@rotterdam.nl,
I-O,1843,F,Museumpark,32,3015CX,Rotterdam,Zuid-Holland,Nederland,14010,noreply@rotterdam.nl,
I-O,1814,F,Colosseumweg,13,3074SN,Rotterdam,Zuid-Holland,Nederland,14010,noreply@rotterdam.nl,
I-O,1574,F,Rotterdam Airportplein,0,3045AP,Rotterdam,Zuid-Holland,Nederland,010-4463 455,parking@rtha.com,
I-O,1849,F,Burg. van Walsumweg,718,3011MZ,Rotterdam,Zuid-Holland,Nederland,14010,noreply@rotterdam.nl,
I-O,1831,F,Kipstraat,177,3011ZX,Rotterdam,Zuid-Holland,Nederland,14010,noreply@rotterdam.nl,
I-O,1819,F,Terwenakker,18,3011XS,Rotterdam,Zuid-Holland,Nederland,14010,noreply@rotterdam.nl,
I-O,1569,F,Fairoaksbaan,0,3045AS,Rotterdam,Zuid-Holland,Nederland,010-4463 455,parking@rtha.com,
I-O,1244,F,Vrydemalaan,0,9713,Groningen,Groningen,Nederland,050-3616161,noreply@umcg.nl,
I-O,1816,F,Bloklandstraat,154,3036TS,Rotterdam,Zuid-Holland,Nederland,14010,noreply@rotterdam.nl,
I-O,1858,F,Siem Heidenstraat,6,3077MS,Rotterdam,Zuid-Holland,Nederland,14010,noreply@rotterdam.nl,
I-O,216,F,Herikerbergweg,288,1101CT,Amsterdam,Noord-Holland,Nederland,0203652300,noreply@amsterdam.nl,
I-O,1683,F,Pasop,0,9355,Leek,Groningen,Nederland,,info@westerkwartier.nl,
I-O,1439,F,Hoeksterpad,3,8911JV,Leeuwarden,Friesland,Nederland,,gemeente@leeuwarden.nl,
I-O,1020,F,Gedempte Haven,2,7772VD,Hardenberg,Overijssel,Nederland,140523,gemeente@hardenberg.nl,
I-O,1021,F,Van Wevelinckhovenplein,2,7772VJ,Hardenberg,Overijssel,Nederland,140523,gemeente@hardenberg.nl,
I-O,1025,F,Ommerweg,26,7797RB,Rheezerveen,Overijssel,Nederland,140523,gemeente@hardenberg.nl,
I-O,1017,F,Parkweg,1,7772XP,Hardenberg,Overijssel,Nederland,140523,gemeente@hardenberg.nl,
GEB,160,P,Postbus,500,7770BA,Hardenberg,Overijssel,Nederland,140523,gemeente@hardenberg.nl,
I-O,1022,F,Coevorderweg,50,7707AR,Balkbrug,Overijssel,Nederland,140523,gemeente@hardenberg.nl,
I-O,1019,F,Gedempte Haven,2,7772VD,Hardenberg,Overijssel,Nederland,140523,gemeente@hardenberg.nl,
GEB,160,A,Stephanuspark,1,7772HZ,Hardenberg,Overijssel,Nederland,140523,gemeente@hardenberg.nl,
I-O,1023,F,Noord Stegeren,2,7701RT,Dedemsvaart,Overijssel,Nederland,140523,gemeente@hardenberg.nl,
I-O,1018,F,Gedempte Haven,2,7772VD,Hardenberg,Overijssel,Nederland,140523,gemeente@hardenberg.nl,
I-O,1024,F,Stobbeplasweg,11,7776BX,Slagharen,Overijssel,Nederland,140523,gemeente@hardenberg.nl,
GEB,777,P,Postbus,10100,4870GA,Etten-Leur,Noord-Brabant,Nederland,14076,info@etten-leur.nl,
GEB,777,A,Roosendaalseweg,4,4875AA,Etten-Leur,Noord-Brabant,Nederland,14076,info@etten-leur.nl,
I-O,1027,F,Transferium,0,4878,Etten-Leur,Noord-Brabant,Nederland,14076,info@etten-leur.nl,
I-O,1026,F,Couperuslaan,0,4873,Etten-Leur,Noord-Brabant,Nederland,14076,info@etten-leur.nl,
I-O,1005,F,Beukenallee,0,8041AX,Zwolle,Overijssel,Nederland,14038,postbus@zwolle.nl,
GEB,193,A,Lubeckplein,2,8017JZ,Zwolle,Overijssel,Nederland,14038,postbus@zwolle.nl,
GEB,193,P,Postbus,10007,8000GA,Zwolle,Overijssel,Nederland,14038,postbus@zwolle.nl,
GEB,394,A,Raadhuisplein,1,2132TZ,Hoofddorp,Noord-Holland,Nederland,0900-1852,info@haarlemmermeer.nl,
GEB,394,P,Postbus,250,2130AG,Hoofddorp,Noord-Holland,Nederland,0900-1852,info@haarlemmermeer.nl,
I-O,1028,F,Getsewoudweg,0,2151,Nieuw-Vennep,Noord-Holland,Nederland,0900-1852,info@haarlemmermeer.nl,
I-O,1739,F,Koddeweg,1,3194DH,Rotterdam,,,,noreply@rotterdam.nl,
I-O,384,F,Langs de Baan,94,3191TP,Rotterdam,Zuid-Holland,Nederland,14010,noreply@rotterdam.nl,
I-O,1918,F,De Velduil,2,3815XT,Amersfoort,,,033 - 2473000,,
I-O,1624,F,Corsicalaan,0,,Rotterdam,,,,noreply@rotterdam.nl,
I-O,1035,F,Stichtse Pad,1358,,Almere,Flevoland,Nederland,14036,info@almere.nl,
GEB,34,P,Postbus,200,1300AE,Almere,Flevoland,Nederland,14036,info@almere.nl,
I-O,1036,F,Tussenring,0,,Almere,Flevoland,Nederland,14036,info@almere.nl,
I-O,1034,F,Oostvaardersplein,0,,Almere,Flevoland,Nederland,14036,info@almere.nl,
I-O,1041,F,Oorweg,1324,,Almere,Flevoland,Nederland,14036,info@almere.nl,
I-O,1039,F,Haagbeukweg,145,1318MA,Almere,Flevoland,Nederland,14036,info@almere.nl,
GEB,34,A,Stadhuisplein,1,1315HR,Almere,Flevoland,Nederland,14036,info@almere.nl,
I-O,1038,F,Brasiliaplaats,1,1334HD,Almere,Flevoland,Nederland,14036,info@almere.nl,
I-O,1037,F,Carpoolplaats Stichtse Brug,0,1358,Almere,Flevoland,Nederland,14036,info@almere.nl,
I-O,1040,F,Bartokweg,161,1311ZX,Almere,Flevoland,Nederland,14036,info@almere.nl,
I-O,1921,F,Meulmansweg,8,3441AT,Woerden,Utrecht,Nederland,,woerden@parkeerservice.nl,
GEB,545,A,Dokter Reilinghplein,1,4141DA,Leerdam,Zuid-Holland,Nederland,0345636363,info@leerdam.nl,
GEB,545,P,Dokter Reilinghplein,1,4140AA,Leerdam,Zuid-Holland,Nederland,0345636363,info@leerdam.nl,
GEB,512,A,Stadhuisplein,1,4205AZ,Gorinchem,Zuid-Holland,Nederland,0183-659595,gemeente@gorinchem.nl,
I-O,1045,F,Nieuwe Wolpherensedijk,0,4202,Gorinchem,Zuid-Holland,Nederland,0183-659595,gemeente@gorinchem.nl,
GEB,512,P,Postbus,108,4200AC,Gorinchem,Zuid-Holland,Nederland,0183-659595,gemeente@gorinchem.nl,
I-O,1044,F,Nieuwe Wolpherensedijk,0,4202,Gorinchem,Zuid-Holland,Nederland,0183-659595,gemeente@gorinchem.nl,
I-O,1052,F,Zuidermolenweg,50,1069CG,Amsterdam,Noord-Holland,Nederland,020-3670468,info@akerpoort.nl,
I-O,1056,F,Willem Naghelstraat,1,2612XD,Delft,Zuid-Holland,Nederland,,,
I-O,39,F,Kralingse Zoom,70,3062SM,Rotterdam,Zuid-Holland,Nederland,14010,noreply@rotterdam.nl,
I-O,1060,F,Vesteplein,5,2611WG,Delft,Zuid-Holland,Nederland,,,
I-O,1058,F,Phoenixstraat,29,2611AL,Delft,Zuid-Holland,Nederland,,,
I-O,1053,F,Zuidermolenweg,50,1069CG,Amsterdam,Noord-Holland,Nederland,020-3670468,info@akerpoort.nl,
I-O,365,F,Prins Hendrikstraat,59,2518HL,Den Haag,Zuid-Holland,Nederland,070-3621271,info@parkingzeeheld.nl,
I-O,1057,F,Willem Naghelstraat,1,2612XD,Delft,Zuid-Holland,Nederland,,,
I-O,1059,F,Vesteplein,13,2611WG,Delft,Zuid-Holland,Nederland,,,
I-O,2037,F,Burgemeester Banninglaan,0,,Leidschendam,,,,,
I-O,2082,F,Reijersteeg,1,3421SZ,Oudewater,,,,stadskantoor@oudewater.nl,
I-O,1061,F,De Elzas,401,5701RZ,Helmond,Noord-Brabant,Nederland,0492-537892,,
I-O,1068,F,Boegstraat,2,1131ZB,Volendam,Noord-Holland,Nederland,020-6369023,info@allroundparkingservices.nl,020-6340040
I-O,2035,F,Burgemeester Banninglaan,0,,Leidschendam,,,,,
I-O,1067,F,Bataviaplein,62,8242PN,Lelystad,Flevoland,Nederland,,,
I-O,1070,F,P.J. Oudweg,4,1314CH,Almere,Flevoland,Nederland,020-6369023,info@allroundparkingservices.nl,020-6340040
I-O,1071,F,Koemarkt,10,3111JH,Schiedam,Zuid-Holland,Nederland,010-4730254,management@passageschiedam.nl,010-4734310
I-O,1069,F,P.J. Oudweg,53,1314CJ,Almere,Flevoland,Nederland,020-6369023,info@allroundparkingservices.nl,020-6340040
I-O,2033,F,Weigelia,0,,Leidschendam,,,,,
I-O,1072,F,Broersveld,22,3111LH,Schiedam,Zuid-Holland,Nederland,010-4730254,management@passageschiedam.nl,010-4734310
I-O,1156,F,Winterdijk,0,5154,Waalwijk,Noord-Brabant,Nederland,,,
I-O,1207,F,Frans Joseph van Thielpark,1,5707BX,Helmond,Noord-Brabant,Nederland,,,
I-O,1203,F,Doorneind,1,5701ML,Helmond,Noord-Brabant,Nederland,,,
I-O,1193,F,Masiusplein,3,6901CC,Zevenaar,Gelderland,Nederland,,info@pch-dienstengroep.nl,
I-O,1152,F,Kalverstraat,4,5051NK,Goirle,Noord-Brabant,Nederland,,,
I-O,1168,F,Langeweg,25,5801XX,Venray,Limburg,Nederland,,,
I-O,2070,F,Leenhoeve,0,3992XN,Houten,,,,gemeentehuis@houten.nl,
I-O,2038,F,Burgemeester Banninglaan,0,,Leidschendam,,,,,
I-O,1125,F,Hospitaalpromenade,2,1315XN,Almere Stad,Flevoland,Nederland,,,
I-O,2054,F,Grotestraat,204,7622GM,Borne,,,,info@borne.nl,
I-O,2064,F,M.W. van de Waalstraat,0,3911MK,Rhenen,,,,info@rhenen.nl,
I-O,1133,F,Festivalplein,3,1315KL,Almere Stad,Flevoland,Nederland,,,
I-O,1139,F,Straat van Florida,8,1334PA,Almere Buiten,Flevoland,Nederland,,,
I-O,2071,F,Oranje Nassauweg,12,3991DG,Houten,,,,gemeentehuis@houten.nl,
I-O,1088,F,Westeind,70,7811ME,Emmen,Drenthe,Nederland,,,
I-O,1093,F,Zwanenveld,66,6538RZ,Nijmegen,Gelderland,Nederland,024-3446961,,
I-O,1166,F,Frederik van Eedenplein,1,5611KT,Eindhoven,Noord-Brabant,Nederland,088-1261414,,
I-O,1183,F,Mercatorlaan,0,3528BL,Utrecht,Utrecht,Nederland,030-2860000,,
I-O,1177,F,Verlengde Vleutenseweg,0,3541,Utrecht,Utrecht,Nederland,030-2860000,,
I-O,1080,F,Op de Keizer,1,7411TC,Deventer,Overijssel,Nederland,0570-616099,,
I-O,2029,F,St. Annastraat,15,4524JB,Sluis,Zeeland,Nederland,,,
I-O,1107,F,Beekstraat,33,7311LE,Apeldoorn,Gelderland,Nederland,,,
I-O,1140,F,Straat van Florida,10,1334PA,Almere Buiten,Flevoland,Nederland,,,
I-O,1131,F,Leerlinghof,18,1315GS,Almere Stad,Flevoland,Nederland,,,
I-O,1162,F,Kennedyplein,400,5611ZV,Eindhoven,Noord-Brabant,Nederland,088-1261414,,
I-O,1098,F,Meander,720,1181WC,Amstelveen,Noord-Holland,Nederland,020-4539919,,
I-O,1074,F,Westerdijk,2,1621LE,Hoorn,Noord-Holland,Nederland,,,
I-O,2061,F,De Brakken,0,3911MV,Rhenen,,,,info@rhenen.nl,
I-O,1172,F,Ebbehout,1,1507EA,Zaandam,Noord-Holland,Nederland,088-1261414,,
I-O,1230,F,Weteringsingel,8,3353GZ,Papendrecht,Zuid-Holland,Nederland,,,
I-O,1186,F,Sliffertsestraat,304,5657AS,Eindhoven,Noord-Brabant,Nederland,088-1261414,,
I-O,1122,F,Regisseurstraat,3,1315LT,Almere Stad,Flevoland,Nederland,,,
I-O,1150,F,Leidsewallen,80,2722PC,Zoetermeer,Zuid-Holland,Nederland,088-1261414,,
I-O,1191,F,Nieuwe Doelenstraat,19,6901AR,Zevenaar,Gelderland,Nederland,,info@pch-dienstengroep.nl,
I-O,1158,F,Generaal Bradleylaan,2,5623KM,Eindhoven,Noord-Brabant,Nederland,088-1261414,,
I-O,1137,F,Tegelzetterhof,2,1315HN,Almere Stad,Flevoland,Nederland,,,
I-O,1181,F,Universiteitsweg thv A28 afrit 2,0,3526,Utrecht,Utrecht,Nederland,030-2513290,,
I-O,1163,F,Kennedyplein,400,5611ZV,Eindhoven,Noord-Brabant,Nederland,088-1261414,,
I-O,1091,F,Zwanenveld,66,6538RZ,Nijmegen,Gelderland,Nederland,024-3446961,,
I-O,1113,F,Hengelolaan,170,2545JS,Den Haag,Zuid-Holland,Nederland,070-3097510,,
I-O,1084,F,Boterdiep,45,9712LL,Groningen,Groningen,Nederland,,,
I-O,1927,F,Velperbinnensingel,2,6811BP,Arnhem,Gelderland,Nederland,026-3775927,parkeerservicearnhem@p1.nl,
I-O,1174,F,Geer,60,5501LB,Veldhoven,Noord-Brabant,Nederland,040-2547641,info@p1.nl,
I-O,1073,F,Vollerswaal,61,1621GX,Hoorn,Noord-Holland,Nederland,,,
I-O,1112,F,Leyweg,791,2545GM,Den Haag,Zuid-Holland,Nederland,070-4044038,,
I-O,1117,F,Smallepad,15,3811LP,Amersfoort,Utrecht,Nederland,088-1261414,,
I-O,1085,F,Trompsingel,23,9724DA,Groningen,Groningen,Nederland,,,
I-O,1189,F,Grotestraat,79,7443BC,Nijverdal,Overijssel,Nederland,,info@pch-dienstengroep.nl,
I-O,1154,F,Taxandriaweg,4,5141PA,Waalwijk,Noord-Brabant,Nederland,,,
I-O,1147,F,Wilhelminakade,901,3072AP,Rotterdam,Zuid-Holland,Nederland,010-4854556,,
I-O,1099,F,Verlaat,12,3901TP,Veenendaal,Utrecht,Nederland,088-1261414,,
I-O,1141,F,Santiagostraat,3,1334HH,Almere Buiten,Flevoland,Nederland,,,
I-O,1096,F,Baden Powellweg,103,3523CA,Utrecht,Utrecht,Nederland,030 - 286 00 00,,
I-O,1083,F,Boterdiep,85,9712LL,Groningen,Groningen,Nederland,,,
I-O,1192,F,Geer,60,5501LB,Veldhoven,Noord-Brabant,Nederland,,info@pch-dienstengroep.nl,
I-O,1132,F,Schoutstraat,110,1315EV,Almere Stad,Flevoland,Nederland,,,
I-O,1922,F,Stationsplein-West,33,6811KM,Arnhem,Gelderland,Nederland,026-3775925,parkeerservicearnhem@p1.nl,
I-O,1195,F,Kastanjelaan,21,5616LH,Eindhoven,Noord-Brabant,Nederland,,,
I-O,1208,F,Watermolenwal,15,5701RV,Helmond,Noord-Brabant,Nederland,,,
I-O,1159,F,Keizersgracht,9,5611GC,Eindhoven,Noord-Brabant,Nederland,088-1261414,,
I-O,1108,F,Sluisdijkstraat,14,1781EH,Den Helder,Noord-Holland,Nederland,088-1261414,,
I-O,1078,F,Kleine Kerkstraat,42,8441GA,Heerenveen,Friesland,Nederland,,,
I-O,1149,F,Engeland,183,2711DR,Zoetermeer,Zuid-Holland,Nederland,088-1261414,,
I-O,1205,F,Doorneind,1,5701ML,Helmond,Noord-Brabant,Nederland,,,
I-O,1924,F,Langstraat,10,6811JA,Arnhem,Gelderland,Nederland,026-3775900,parkeerservicearnhem@p1.nl,
I-O,1109,F,Koningdwarsstraat,6,1781LC,Den Helder,Noord-Holland,Nederland,088-1261414,,
I-O,1184,F,Taurusavenue,12,2132LS,Hoofddorp,Noord-Holland,Nederland,070-3705070,,
I-O,1094,F,Kruisstraat,2,3581GK,Utrecht,Utrecht,Nederland,030-2310480,,
I-O,1115,F,Ammunitiehaven,93,2511XH,Den Haag,Zuid-Holland,Nederland,070-3609977,,
I-O,1164,F,Emmasingel,2,5611AZ,Eindhoven,Noord-Brabant,Nederland,088-1261414,,
I-O,1126,F,Wandellaan,0,1315,Almere Stad,Flevoland,Nederland,,,
I-O,1923,F,Velperplein,10,6811AG,Arnhem,Gelderland,Nederland,026-3775927,parkeerservicearnhem@p1.nl,
I-O,943,F,Bloemsingel,10,9712LP,Groningen,Groningen,Nederland,,,
I-O,1136,F,Hospitaalweg,7,1315AB,Almere Stad,Flevoland,Nederland,,,
I-O,1206,F,Frans Joseph van Thielpark,1,5707BX,Helmond,Noord-Brabant,Nederland,,,
I-O,1135,F,Slapstickpad,0,1315,Almere Stad,Flevoland,Nederland,,,
I-O,1929,F,Langstraat,10,6811JA,Arnhem,Gelderland,Nederland,026-3775900,parkeerservicearnhem@p1.nl,
I-O,1171,F,Hoenderstraat,8,5801CK,Venray,Limburg,Nederland,,,
I-O,1161,F,Kennedyplein,400,5611ZV,Eindhoven,Noord-Brabant,Nederland,088-1261414,,
I-O,1169,F,Raadhuisstraat,4,5801MA,Venray,Limburg,Nederland,,,
I-O,1123,F,Regisseurstraat,7,1315LT,Almere Stad,Flevoland,Nederland,,,
I-O,1092,F,Zwanenveld,66,6538RZ,Nijmegen,Gelderland,Nederland,024-3446961,,
I-O,1079,F,Op de Keizer,1,7411TC,Deventer,Overijssel,Nederland,0570-616099,,
I-O,1086,F,Korreweg,9,9714AA,Groningen,Groningen,Nederland,,,
I-O,1130,F,Muntmeesterhof,82,1315HL,Almere Stad,Flevoland,Nederland,,,
I-O,1089,F,Kanaalstraat,8,7311MP,Apeldoorn,Gelderland,Nederland,070-3705070,,
I-O,1202,F,Doorneind,1,5701ML,Helmond,Noord-Brabant,Nederland,,,
I-O,1157,F,Mathildelaan,2,5611BL,Eindhoven,Noord-Brabant,Nederland,088-1261414,,
I-O,1155,F,Heulstraat,0,5154,Waalwijk,Noord-Brabant,Nederland,,,
I-O,1095,F,Vleutenseweg,44,3532HL,Utrecht,Utrecht,Nederland,030 - 286 00 00,,
I-O,1178,F,Ring A12 afrit 17,0,3526LA,Utrecht,Utrecht,Nederland,030-2860000,,
I-O,1097,F,Wittevrouwensingel,96,3514AL,Utrecht,Utrecht,Nederland,030 - 286 00 00,,
I-O,1185,F,Scorpius,131,2132LR,Hoofddorp,Noord-Holland,Nederland,070-3705070,,
I-O,1926,F,Willemstunnel,1,6811KZ,Arnhem,Gelderland,Nederland,026-3775925,parkeerservicearnhem@p1.nl,
I-O,1179,F,Griffioenlaan,1,3526LA,Utrecht,Utrecht,Nederland,030-2860000,,
I-O,1146,F,Wilhelminastraat,23,3262SV,Oud-Beijerland,Zuid-Holland,Nederland,0186-622943,,
I-O,1182,F,Mercatorlaan,0,3528BL,Utrecht,Utrecht,Nederland,030-2860000,,
I-O,1187,F,Noord-Brabantlaan,350,5657GA,Eindhoven,Noord-Brabant,Nederland,088-1261414,,
I-O,1928,F,Walstraat,3,6811BC,Arnhem,Gelderland,Nederland,026-3775927,parkeerservicearnhem@p1.nl,
I-O,2073,F,Randhoeve,223,3995GB,Houten,,,,gemeentehuis@houten.nl,
I-O,2032,F,Heuvelweg,0,,Leidschendam,,,,,
I-O,1201,F,Geer,100,5501LB,Veldhoven,Noord-Brabant,Nederland,,info@pch-dienstengroep.nl,
I-O,1090,F,Zwanenveld,66,6538RZ,Nijmegen,Gelderland,Nederland,024-3446961,,
I-O,1180,F,Griffioenlaan,1,3526LA,Utrecht,Utrecht,Nederland,030-2860000,,
I-O,1148,F,Frankrijklaan,6,2271CX,Zoetermeer,Zuid-Holland,Nederland,088-1261414,,
I-O,1160,F,Keizersgracht,9,5611GC,Eindhoven,Noord-Brabant,Nederland,088-1261414,,
I-O,1110,F,Schoolplein,9,1441GV,Purmerend,Noord-Holland,Nederland,0299-427754,,
I-O,1129,F,Wagenmakerbaan,1,1315BA,Almere Stad,Flevoland,Nederland,,,
I-O,2079,F,Doctor Plesmanplantsoen,5,,Oudewater,,,,stadskantoor@oudewater.nl,
I-O,1128,F,Blekerstraat,4,1315CC,Almere Stad,Flevoland,Nederland,,,
I-O,1127,F,Flevostraat,32,1315BL,Almere Stad,Flevoland,Nederland,,,
I-O,1142,F,Santiagostraat,3,1334HH,Almere Buiten,Flevoland,Nederland,,,
I-O,1175,F,Geer,100,5501LB,Veldhoven,Noord-Brabant,Nederland,040-2547641,info@p1.nl,
I-O,1198,F,Glaslaan,31,5616LD,Eindhoven,Noord-Brabant,Nederland,,,
I-O,2026,F,Hoekerweg,0,6222NP,Maastricht,,,,parkeren@maastricht.nl,
I-O,1106,F,Zaanstraat,1,9725EG,Groningen,Groningen,Nederland,,,
I-O,1167,F,Laan der Hesperiden,66,1076DE,Amsterdam,Noord-Holland,Nederland,020-6707381,,
I-O,1138,F,New Yorkweg,122,1335KB,Almere Buiten,Flevoland,Nederland,,,
I-O,1102,F,Laan der Hesperiden,66,1076DE,Amsterdam,Noord-Holland,Nederland,020-6707381,,
I-O,1124,F,Stadhuisplein,1,1315HR,Almere Stad,Flevoland,Nederland,,,
I-O,1190,F,Henri Dunantplein,0,7442NJ,Nijverdal,Overijssel,Nederland,,info@pch-dienstengroep.nl,
I-O,1114,F,Schedeldoekshaven,90,2511BT,Den Haag,Zuid-Holland,Nederland,070-3609977,,
I-O,2057,F,Grotestraat,167,7622GE,Borne,,,,info@borne.nl,
I-O,1104,F,Prins Hendrikkade,11,1012TK,Amsterdam,Noord-Holland,Nederland,020-6385330,,
I-O,1151,F,Osijlaan,10,2722CV,Zoetermeer,Zuid-Holland,Nederland,088-1261414,,
I-O,1204,F,Doorneind,1,5701ML,Helmond,Noord-Brabant,Nederland,,,
I-O,1134,F,Festivalplein/Landdrost,0,1315,Almere Stad,Flevoland,Nederland,,,
I-O,1116,F,Spui,170,2511BW,Den Haag,Zuid-Holland,Nederland,,,
I-O,2062,F,Buitenomme,8,3911AE,Rhenen,,,,info@rhenen.nl,
I-O,1170,F,Deken Thielenstraat,16,5801CG,Venray,Limburg,Nederland,,,
I-O,1118,F,Emmy Belinfantedreef,51,2492JT,Den Haag,Zuid-Holland,Nederland,,,
I-O,1176,F,J.C. Verthorenpad,100,3541MV,Utrecht,Utrecht,Nederland,030-2860000,,
I-O,1143,F,Rio de Janeirostraat,3,1334HG,Almere Buiten,Flevoland,Nederland,,,
I-O,1111,F,Korte Kolfstraat,235,3311XK,Dordrecht,Zuid-Holland,Nederland,078-6316568,,
I-O,2059,F,Inudatiekanaal,6,3961MA,Wijk bij Duurstede,,,,info@wijkbijduurstede.nl,
I-O,1173,F,Grenehout,22,1507EB,Zaandam,Noord-Holland,Nederland,088-1261414,,
I-O,1087,F,Paradeplein,4,2632GR,Nootdorp,Zuid_Holland,Nederland,070-370 50 70,,
I-O,1119,F,Zeehosplein,25,2225JJ,Katwijk aan Zee,Zuid-Holland,Nederland,070-3705070,,
I-O,1103,F,Prins Hendrikkade,20,1012TL,Amsterdam,Noord-Holland,Nederland,020-6385330,,
I-O,877,F,Meibergdreef,45,1105BA,Amsterdam,Noord-Holland,Nederland,020-5669111,Info@amc.nl,
I-O,1930,F,Europaweg,38,2711PT,Zoetermeer,,,,info@p1.nl,
I-O,1239,F,Meibergdreef,45,1105BA,Amsterdam,Noord-Holland,Nederland,020-5669111,Info@amc.nl,
I-O,1931,F,Kerkwijk,8,3901EG,Veenendaal,,,,info@p1.nl,
I-O,1932,F,Torenallee,86,5617BE,Eindhoven,,,,office@parkking.nl,
I-O,1934,F,Spuistraat,78,4381HS,Vlissingen,,,,gemeente@vlissingen.nl,
I-O,1233,F,Gedempte Kattendiep,148,9711PV,Groningen,Groningen,Nederland,050-3172317,,
GEB,363,A,Daniël Goedkoopstraat,7,1096BD,Amsterdam,Noord-Holland,Nederland,14020,p.van.marle@amsterdam.nl,
GEB,363,P,Postbus,95089,1090HB,Amsterdam,Noord-Holland,Nederland,14020,p.van.marle@amsterdam.nl,
I-O,1245,F,Maatweg,3,3813TZ,Amersfoort,Utrecht,Nederland,033-8505050,,
I-O,267,F,Prinsessesingel,28,5911HT,Venlo,Limburg,Nederland,077-3596167,,
I-O,264,F,Mgr. Nolensplein,50,5911GG,Venlo,Limburg,Nederland,077-3596786,,
I-O,1689,F,Bolnesserkade,0,,Rotterdam,,,,noreply@rotterdam.nl,
I-O,265,F,Mgr. Nolensplein,50,5911GG,Venlo,Limburg,Nederland,077-3596786,,
I-O,1254,F,Stadionplein,115,1076CM,Amsterdam,Noord-Holland,Nederland,0900-4466880,info@q-park.nl,
I-O,1251,F,Prinsessesingel,0,5911HT,Venlo,Limburg,Nederland,077-3597282,,
I-O,263,F,Mgr. Nolensplein,50,5911GG,Venlo,Limburg,Nederland,077-3596786,,
I-O,1252,F,Mgr. Nolensplein,50,5911GG,Venlo,Limburg,Nederland,,,
I-O,1253,F,Mgr. Nolensplein,50,5911GG,Venlo,Limburg,Nederland,,,
I-O,266,F,Prinsessesingel,28,5911HT,Venlo,Limburg,Nederland,077-3596167,,
I-O,1268,F,Wagenweg,31,1442BT,Purmerend,Noord-Holland,Nederland,088-0021400,info@parking-protection.nl,
I-O,1256,F,Koningin Julianaplein,58,1502DV,Zaandam,Noord-Holland,Nederland,088-0021400,info@parking-protection.nl,
I-O,1315,F,Spoorhaag,129,3995ED,Houten,Utrecht,Nederland,010-2170970,,
I-O,156,F,Pelsterstraat,4,9711KL,Groningen,Groningen,Nederland,010-2170970,,
I-O,1354,F,Vierhavensstraat,147,3029BB,Rotterdam,Zuid-Holland,Nederland,010-2170970,,
I-O,1328,F,Daguerrestraat,51,1087BR,Amsterdam,Noord-Holland,Nederland,010-2170970,,
I-O,1281,F,Bargelaan,180,2333CW,Leiden,Zuid-Holland,Nederland,0900-2357275,office@parkking.nl,
I-O,1746,F,Melanchtonweg,1,3045PN,Rotterdam,,,,noreply@rotterdam.nl,
I-O,375,F,Kralingse Zoom,70,3062SM,Rotterdam,Zuid-Holland,Nederland,14010,noreply@rotterdam.nl,
I-O,993,F,Aesopusviaduct,0,,Rotterdam,,,,noreply@rotterdam.nl,
I-O,386,F,Prins Alexanderlaan,35,3068PN,Rotterdam,Zuid-Holland,Nederland,14010,noreply@rotterdam.nl,
I-O,373,F,Kralingse Zoom,70,3062SM,Rotterdam,Zuid-Holland,Nederland,14010,noreply@rotterdam.nl,
I-O,385,F,Fairoaksbaan,300,3045AS,Rotterdam,Zuid-Holland,Nederland,14010,noreply@rotterdam.nl,
I-O,1656,F,Schalekampplein,1,3195XW,Pernis,,,,noreply@rotterdam.nl,
I-O,372,F,Kralingse Zoom,70,3062SM,Rotterdam,Zuid-Holland,Nederland,14010,noreply@rotterdam.nl,
I-O,387,F,Prins Alexanderlaan,35,3068PN,Rotterdam,Zuid-Holland,Nederland,14010,noreply@rotterdam.nl,
I-O,1681,F,Prins Hendrikstraat,1,3151AK,Rotterdam,,,,noreply@rotterdam.nl,
I-O,858,F,Noorderhelling,0,3077AP,Rotterdam,,,,noreply@rotterdam.nl,
I-O,389,F,Slinge,763,3086EZ,Rotterdam,Zuid-Holland,Nederland,14010,noreply@rotterdam.nl,
I-O,1357,F,Grotemarkt,92,3011PA,Rotterdam,Zuid-Holland,Nederland,010-2170970,,
I-O,1610,F,Zuidkreek,0,,Rotterdam,,,,noreply@rotterdam.nl,
I-O,1341,F,Victoriberg,29,2211DL,Noordwijkerhout,Zuid-Holland,Nederland,010-2170970,,
I-O,162,F,Amstelveenseweg,585,1081JC,Amsterdam,Noord-Holland,Nederland,010-2170970,,
I-O,1312,F,Wagnerlaan,55,6815AD,Arnhem,Gelderland,Nederland,010-2170970,,
I-O,1278,F,Nicolaas Maesstraat,2,1071RA,Amsterdam,Noord-Holland,Nederland,0900-2357275,office@parkking.nl,
I-O,374,F,Kralingse Zoom,70,3062SM,Rotterdam,Zuid-Holland,Nederland,14010,noreply@rotterdam.nl,
I-O,1317,F,Stellingmolen,2,3995AV,Houten,Utrecht,Nederland,010-2170970,,
I-O,388,F,Ooltgensplaatweg,0,3086NJ,Rotterdam,Zuid-Holland,Nederland,14010,noreply@rotterdam.nl,
I-O,1277,F,Singel,451,1012WP,Amsterdam,Noord-Holland,Nederland,0900-2357275,office@parkking.nl,
I-O,1289,F,Onderlangs,2,2711HW,Zoetermeer,Zuid-Holland,Nederland,010-2170970,,
I-O,1342,F,Zeestraat,14,2211XG,Noordwijkerhout,Zuid-Holland,Nederland,010-2170970,,
I-O,345,F,Koornstraat,20,1211CT,Hilversum,Noord-Holland,Nederland,0900-2357275,office@parkking.nl,
I-O,1284,F,Bergsingel,203,3037GG,Rotterdam,Zuid-Holland,Nederland,0900-2357275,office@parkking.nl,
I-O,2189,F,Horvathweg,3,3112HB,Schiedam,,,,autoparkeren@ns.nl,
I-O,1279,F,Parnassusweg,220,1076AV,Amsterdam,Noord-Holland,Nederland,0900-2357275,office@parkking.nl,
I-O,186,F,Henri Faasdreef,200,2492JP,Den Haag,Zuid-Holland,Nederland,010-2170970,,
I-O,1297,F,Zaanstraat,1,9725EG,Groningen,Groningen,Nederland,010-2170970,,
I-O,152,F,Apollopad,72,9401ZA,Assen,Drenthe,Nederland,0592-330160,,
I-O,161,F,Czaar Peterstraat,213,1018PL,Amsterdam,Noord-Holland,Nederland,010-2170970,,
I-O,1321,F,Beren,10,9714DV,Groningen,Groningen,Nederland,010-2170970,,
I-O,2167,F,Barchman Wuytierslaan,0,3818LE,Amersfoort,,,,autoparkeren@ns.nl,
I-O,1351,F,Vierhavensstraat,79,3029BB,Rotterdam,Zuid-Holland,Nederland,010-2170970,,
I-O,1648,F,Endenhout,0,3191TN,Hoogvliet Rotterdam,,,,noreply@rotterdam.nl,
I-O,1360,F,Groningerstraat,20,3812EG,Amersfoort,Utrecht,Nederland,010-2170970,,
I-O,862,F,Dierenriemstraat,106,9742AK,Groningen,Groningen,Nederland,050-5772862,info@apcoa.nl,
I-O,1269,F,Langendijk,75,4819EV,Breda,Noord-Brabant,Nederland,088-0021400,info@parking-protection.nl,
I-O,1275,F,Molukkenstraat,190,1098TW,Amsterdam,Noord-Holland,Nederland,0900-2357275,office@parkking.nl,
I-O,1708,F,Schieveensedijk,1,3046NN,Rotterdam,,,,zuidholland@pzh.nl,
I-O,340,F,Molukkenstraat,190,1098TW,Amsterdam,Noord-Holland,Nederland,0900-2357275,office@parkking.nl,
I-O,1305,F,Onder de Beuken,9,9401KN,Assen,Drenthe,Nederland,0592-366911,,
I-O,1258,F,Rijnhaven Zuidzijde,5,3072AJ,Rotterdam,Zuid-Holland,Nederland,088-0021400,info@parking-protection.nl,
I-O,1350,F,Vierhavensstraat,63,3029BB,Rotterdam,Zuid-Holland,Nederland,010-2170970,,
I-O,1280,F,Marktplein,212,2132CW,Hoofddorp,Noord-Holland,Nederland,0900-2357275,office@parkking.nl,
I-O,2199,F,Geinplein,0,1391TA,Abcoude,,,,autoparkeren@ns.nl,
I-O,1334,F,Middenwaard,41,1703SC,Heerhugowaard,Noord-Holland,Nederland,010-2170970,,
I-O,1263,F,Akerendamlaan,6,1942LZ,Beverwijk,Noord-Holland,Nederland,088-0021400,info@parking-protection.nl,
I-O,1320,F,Rijnkade,16,3511LC,Utrecht,Utrecht,Nederland,030-2399001,,
I-O,1335,F,Parelhof,102,1703DT,Heerhugowaard,Noord-Holland,Nederland,010-2170970,,
I-O,814,F,Kralingseweg,461,2906XD,Rotterdam,,,,noreply@rotterdam.nl,
I-O,1314,F,Stellingmolen,44,3995AV,Houten,Utrecht,Nederland,010-2170970,,
I-O,1311,F,Korenmolen,0,9401DT,Assen,Drenthe,Nederland,0592-330160,,
I-O,182,F,Strosteeg,11,3511NE,Utrecht,Utrecht,Nederland,030-2399000,,
I-O,1285,F,Vetkamp,1,2862JM,Nijkerk,Gelderland,Nederland,,office@parkking.nl,
I-O,153,F,Torenlaan,18,9401HR,Assen,Drenthe,Nederland,0592-330160,,
I-O,1308,F,Minervalaan,5,9401EB,Assen,Drenthe,Nederland,0592-330160,,
I-O,316,F,Reguliersdwarsstraat,59,1017BK,Amsterdam,Noord-Holland,Nederland,020-4205875,info@apcoa.nl,
I-O,1294,F,Amsterdamsestraat,5,2711EE,Zoetermeer,Zuid-Holland,Nederland,010-2170970,,
I-O,1467,F,Hanzelaan,338,8017JJ,Zwolle,,,,postbus@zwolle.nl,
I-O,1514,F,Regisseurstraat,7,1315LT,Almere,,,,info@p1.nl,
I-O,1468,F,Hanzelaan,300,8017JJ,Zwolle,,,,postbus@zwolle.nl,
I-O,1271,F,Molengracht,21,4818CK,Breda,Noord-Brabant,Nederland,088-0021400,info@parking-protection.nl,
I-O,329,F,Hartmansstraat,35,3012VA,Rotterdam,Zuid-Holland,Nederland,010-4041127,info@apcoa.nl,
I-O,337,F,Van Leijenberghlaan,43,1082GC,Amsterdam,Noord-Holland,Nederland,0900-2357275,office@parkking.nl,
I-O,1319,F,Rijnkade,16,3511LC,Utrecht,Utrecht,Nederland,030-2399001,,
I-O,342,F,Valkenburgerstraat,238,1011ND,Amsterdam,Noord-Holland,Nederland,0900-2357275,office@parkking.nl,
I-O,1300,F,Boterdiep,85,9712LL,Groningen,Groningen,Nederland,010-2170970,,
I-O,1366,F,Gelrestraat,2,1079MZ,Amsterdam,Noord-Holland,Nederland,,info@apcoa.nl,
I-O,1369,F,Koningswaard,3,3078AA,Rotterdam,Zuid-Holland,Nederland,,info@apcoa.nl,
I-O,396,F,Schieveensedijk,1,3046NN,Rotterdam,Zuid-Holland,Nederland,14010,,
I-O,1291,F,Bovenlangs,1,2711HW,Zoetermeer,Zuid-Holland,Nederland,010-2170970,,
I-O,1333,F,Middenwaard,67,1703SC,Heerhugowaard,Noord-Holland,Nederland,010-2170970,,
I-O,1301,F,Boterdiep,45,9712LJ,Groningen,Groningen,Nederland,010-2170970,,
I-O,331,F,Jonkerbosplein,52,6534AB,Nijmegen,Gelderland,Nederland,0900-2357275,office@parkking.nl,
I-O,1329,F,Carnapstraat/Fregelaan,0,1062,Amsterdam,Noord-Holland,Nederland,010-2170970,,
I-O,2060,F,Walplantsoen,1,3961CA,Wijk bij Duurstede,,,,info@wijkbijduurstede.nl,
I-O,1364,F,Keizersgracht,648,1017ES,Amsterdam,Noord-Holland,Nederland,020-4222009,info@apcoa.nl,
I-O,338,F,Nolensstraat,352,1067KP,Amsterdam,Noord-Holland,Nederland,0900-2357275,office@parkking.nl,
I-O,1272,F,Pasteurlaan,9,4901DH,Oosterhout,Noord-Brabant,Nederland,088-0021400,info@parking-protection.nl,
I-O,347,F,Harmoniestraat,5,5751KW,Deurne,Noord-Brabant,Nederland,0900-2357275,office@parkking.nl,
I-O,174,F,Wagnerlaan,55,6815AD,Arnhem,Gelderland,Nederland,010-2170970,,
I-O,2052,F,Markt,0,8161CP,Epe,,,,gemeente@epe.nl,
I-O,1347,F,Van Bijlandtplaats,17,3012GA,Rotterdam,Zuid-Holland,Nederland,010-2170970,,
I-O,1261,F,Basisveenstraat,11,1441ML,Purmerend,Noord-Holland,Nederland,088-0021400,info@parking-protection.nl,
I-O,1270,F,Molengracht,21,4818CK,Breda,Noord-Brabant,Nederland,088-0021400,info@parking-protection.nl,
I-O,2027,F,Burg. Aernoudtseweg,0,4524KX,Sluis,Zeeland,Nederland,,,
I-O,1490,F,Zuidbroeksweg,0,7642GP,Wierden,,,,info@wierden.nl,
I-O,1304,F,Menning,1,9401AK,Assen,Drenthe,Nederland,0592-366911,,
I-O,315,F,Reguliersdwarsstraat,59,1017BK,Amsterdam,Noord-Holland,Nederland,020-4205875,info@apcoa.nl,
I-O,2028,F,Mariahavenpolder,0,4524CJ,Sluis,Zeeland,Nederland,,,
I-O,1368,F,Koningswaard,3,3078AA,Rotterdam,Zuid-Holland,Nederland,,info@apcoa.nl,
I-O,193,F,Wijnbrugstraat,22,3011XW,Rotterdam,Zuid-Holland,Nederland,010-2170970,,
I-O,1298,F,Zaanstraat,1,9725EG,Groningen,Groningen,Nederland,010-2170970,,
I-O,1292,F,Nederlandlaan,44,2711JD,Zoetermeer,Zuid-Holland,Nederland,010-2170970,,
I-O,1265,F,Rijksstraatweg,1,1261AN,Blaricum,Noord-Holland,Nederland,088-0021400,info@parking-protection.nl,
I-O,2068,F,De Poort,77,3991DX,Houten,,,,gemeentehuis@houten.nl,
I-O,336,F,Amstelstraat,12,1017DA,Amsterdam,Noord-Holland,Nederland,0900-2357275,office@parkking.nl,
I-O,1302,F,Korreweg,9,9714AA,Groningen,Groningen,Nederland,010-2170970,,
I-O,1348,F,Vierhavensstraat,139,3029BB,Rotterdam,Zuid-Holland,Nederland,010-2170970,,
I-O,1327,F,Gustav Mahlerlaan,2970,1081LA,Amsterdam,Noord-Holland,Nederland,010-2170970,,
I-O,189,F,Abraham van Stolkweg,74,3041JA,Rotterdam,Zuid-Holland,Nederland,010-2170970,,
I-O,191,F,Crispijnstraat,6,3012GB,Rotterdam,Zuid-Holland,Nederland,010-2170970,,
I-O,151,F,Mercuriusplein,211,9401DK,Assen,Drenthe,Nederland,0592-330160,,
I-O,1290,F,Onderlangs,2,2711HW,Zoetermeer,Zuid-Holland,Nederland,010-2170970,,
I-O,1326,F,Czaar Peterstraat,213,1018PL,Amsterdam,Noord-Holland,Nederland,010-2170970,,
I-O,2069,F,Kamillehof,33,3991GX,Houten,,,,gemeentehuis@houten.nl,
I-O,341,F,Osdorpplein,249,1068ER,Amsterdam,Noord-Holland,Nederland,0900-2357275,office@parkking.nl,
I-O,339,F,Middenweg,69,1097BR,Amsterdam,Noord-Holland,Nederland,0900-2357275,office@parkking.nl,
I-O,1309,F,Neptunusplein,141,9401CR,Assen,Drenthe,Nederland,0592-330160,,
I-O,183,F,Papsouwselaan,474,2624EP,Delft,Zuid-Holland,Nederland,010-2170970,,
I-O,1303,F,Trompsingel,23,9724DA,Groningen,Groningen,Nederland,010-2170970,,
I-O,1358,F,Sportlaan,2,3118JC,Schiedam,Zuid-Holland,Nederland,010-2170970,,
I-O,1257,F,Brede Hilledijk,95,3072KD,Rotterdam,Zuid-Holland,Nederland,088-0021400,info@parking-protection.nl,
I-O,167,F,Zuidtangent,1,1703EZ,Heerhugowaard,Noord-Holland,Nederland,010-2170970,,
I-O,1812,F,Colosseumweg,13,3074SN,Rotterdam,Zuid-Holland,Nederland,14010,noreply@rotterdam.nl,
I-O,1345,F,Kruisplein,19,3014DB,Rotterdam,Zuid-Holland,Nederland,010-2170970,,
I-O,1283,F,Landstraat,126,1401ET,Bussum,Noord-Holland,Nederland,0900-2357275,office@parkking.nl,
I-O,1838,F,Aelbrechtskade,67,3022HP,Rotterdam,Zuid-Holland,Nederland,14010,noreply@rotterdam.nl,
I-O,1264,F,Beatrixpark,1,7101BN,Winterswijk,Gelderland,Nederland,088-0021400,info@parking-protection.nl,
I-O,1346,F,Weena-Zuid,26,3012NA,Rotterdam,Zuid-Holland,Nederland,010-2170970,,
I-O,334,F,Noorderkade,100,1823CK,Alkmaar,Noord-Holland,Nederland,0900-2357275,office@parkking.nl,
I-O,1299,F,Bloemsingel,10,9712KZ,Groningen,Groningen,Nederland,010-2170970,,
I-O,1365,F,Gelrestraat,2,1079MZ,Amsterdam,Noord-Holland,Nederland,,info@apcoa.nl,
I-O,1330,F,Czaar Peterstraat,213,1018PL,Amsterdam,Noord-Holland,Nederland,010-2170970,,
I-O,1862,F,Klencke,74,3191VK,Rotterdam,,,,noreply@rotterdam.nl,
I-O,1296,F,Turfsingel,81,9712KL,Groningen,Groningen,Nederland,010-2170970,,
I-O,1273,F,Oude Vest,3,4811HT,Breda,Noord-Brabant,Nederland,088-0021400,info@parking-protection.nl,
I-O,1349,F,Vierhavensstraat,75,3029BB,Rotterdam,Zuid-Holland,Nederland,010-2170970,,
I-O,1359,F,Kreupelstraat,46,3111NL,Schiedam,Zuid-Holland,Nederland,010-2170970,,
I-O,1847,F,Burg. van Walsumweg,718,3011MZ,Rotterdam,Zuid-Holland,Nederland,14010,noreply@rotterdam.nl,
I-O,1336,F,Zuidtangent,124,1703SH,Heerhugowaard,Noord-Holland,Nederland,010-2170970,,
I-O,164,F,Van der Boechorststraat,7,1081BT,Amsterdam,Noord-Holland,Nederland,010-2170970,,
I-O,1340,F,Henri Faasdreef,226,2492JP,Den Haag,Zuid-Holland,Nederland,010-2170970,,
I-O,1282,F,Bargelaan,180,2333CW,Leiden,Zuid-Holland,Nederland,0900-2357275,office@parkking.nl,
I-O,1288,F,Duitslandlaan,15,2711BJ,Zoetermeer,Zuid-Holland,Nederland,010-2170970,,
I-O,1826,F,Willemsplein,1,3016DN,Rotterdam,Zuid-Holland,Nederland,14010,noreply@rotterdam.nl,
I-O,346,F,Voorburgstraat,200,3037BS,Rotterdam,Zuid-Holland,Nederland,0900-2357275,office@parkking.nl,
I-O,1331,F,Burgemeester van Stamplein,292,2132BH,Hoofddorp,Noord-Holland,Nederland,010-2170970,,
I-O,1266,F,Veenweidestraat,24,1441NH,Purmerend,Noord-Holland,Nederland,088-0021400,info@parking-protection.nl,
I-O,1361,F,De Nieuwe Poort,0,3812PA,Amersfoort,Utrecht,Nederland,010-2170970,,
I-O,1367,F,Korte Breestraat,14,3311ND,Dordrecht,Zuid-Holland,Nederland,078-6132881,info@apcoa.nl,
I-O,1325,F,Willem Fenengastraat,58,1096BP,Amsterdam,Noord-Holland,Nederland,010-2170970,,
I-O,1850,F,Schouwburgplein,22,3012CL,Rotterdam,Zuid-Holland,Nederland,14010,noreply@rotterdam.nl,
I-O,1355,F,Vierhavensstraat,169,3029BB,Rotterdam,Zuid-Holland,Nederland,010-2170970,,
I-O,1815,F,Bloklandstraat,154,3036TS,Rotterdam,Zuid-Holland,Nederland,14010,noreply@rotterdam.nl,
I-O,859,F,Withoedenveem,8,1019HE,Amsterdam,Noord-Holland,Nederland,,info@apcoa.nl,
I-O,1287,F,Luxemburglaan,1,2711BD,Zoetermeer,Zuid-Holland,Nederland,010-2170970,,
I-O,1860,F,Zoomstraat,111,3036RE,Rotterdam,Zuid-Holland,Nederland,14010,noreply@rotterdam.nl,
I-O,163,F,Gutav Mahlerlaan,3004,1081LA,Amsterdam,Noord-Holland,Nederland,010-2170970,,
I-O,1835,F,Chris Bennekerslaan,25,3061EB,Rotterdam,Zuid-Holland,Nederland,14010,noreply@rotterdam.nl,
I-O,1356,F,Vierhavensstraat,39,3029BB,Rotterdam,Zuid-Holland,Nederland,010-2170970,,
I-O,1259,F,Henri Dunantstraat,3,5223GZ,'s Hertogenbosch,Noord-Brabant,Nederland,088-0021400,info@parking-protection.nl,
I-O,333,F,Soeverein,36,3817HV,Amersfoort,Utrecht,Nederland,0900-2357275,office@parkking.nl,
I-O,348,F,Wolfsberg,9,5751GX,Deurne,Noord-Brabant,Nederland,0900-2357275,office@parkking.nl,
I-O,1856,F,Siem Heidenstraat,6,3077MS,Rotterdam,Zuid-Holland,Nederland,14010,noreply@rotterdam.nl,
I-O,1343,F,Dorpsstraat,4,2211GC,Noordwijkerhout,Zuid-Holland,Nederland,010-2170970,,
I-O,1260,F,Henri Dunantstraat,3,5223GZ,'s Hertogenbosch,Noord-Brabant,Nederland,088-0021400,info@parking-protection.nl,
I-O,1306,F,Weiersstraat,1,9401ET,Assen,Drenthe,Nederland,0592-366911,,
I-O,1338,F,Henri Faasdreef,226,2492JP,Den Haag,Zuid-Holland,Nederland,010-2170970,,
I-O,1316,F,Spoorhaag,109,3995ED,Houten,Utrecht,Nederland,010-2170970,,
I-O,1811,F,Terwenakker,18,3011XS,Rotterdam,Zuid-Holland,Nederland,14010,noreply@rotterdam.nl,
I-O,2826,F,Phohistraat,20,1276EH,Huizen,,,,gemeente@huizen.nl,
I-O,1755,F,Weenatunnel,50,3013AL,Rotterdam,Zuid-Holland,Nederland,14010,noreply@rotterdam.nl,
I-O,1837,F,Allard Piersonstraat,43,3022HD,Rotterdam,Zuid-Holland,Nederland,14010,noreply@rotterdam.nl,
I-O,1353,F,Vierhavensstraat,113,3029BB,Rotterdam,Zuid-Holland,Nederland,010-2170970,,
I-O,1845,F,Nieuwe Binnenweg,388,3023ET,Rotterdam,Zuid-Holland,Nederland,14010,noreply@rotterdam.nl,
I-O,190,F,Kruiskade,21,3012EE,Rotterdam,Zuid-Holland,Nederland,010-2170970,,
I-O,1822,F,Polderstraat,10,3074XJ,Rotterdam,Zuid-Holland,Nederland,14010,noreply@rotterdam.nl,
I-O,154,F,Triade,16,9401ZH,Assen,Drenthe,Nederland,0592-330160,,
I-O,1352,F,Vierhavensstraat,91,3029BB,Rotterdam,Zuid-Holland,Nederland,010-2170970,,
I-O,1818,F,Terwenakker,18,3011XS,Rotterdam,Zuid-Holland,Nederland,14010,noreply@rotterdam.nl,
I-O,1362,F,Pleiadenlaan,4,9742NG,Groningen,Groningen,Nederland,050-5772862,info@apcoa.nl,
I-O,1344,F,Koningsplein,1,2981EA,Ridderkerk,Zuid-Holland,Nederland,010-2170970,,
I-O,1262,F,Vondellaan,13,1942LE,Beverwijk,Noord-Holland,Nederland,088-0021400,info@parking-protection.nl,
I-O,1322,F,Aletta Jacobslaan,47,7555PJ,Hengelo,Overijssel,Nederland,010-2170970,,
I-O,1313,F,Wagnerlaan,55,6815AD,Arnhem,Gelderland,Nederland,010-2170970,,
I-O,343,F,Zeestraat,42,2418AB,Alphen aan den Rijn,Zuid-Holland,Nederland,0900-2357275,office@parkking.nl,
I-O,1832,F,Weenatunnel,50,3013AL,Rotterdam,Zuid-Holland,Nederland,14010,noreply@rotterdam.nl,
I-O,1286,F,Cella Asia,28,3995XP,Houten,Utrecht,Nederland,010-2170970,,
I-O,194,F,Westerlaan,10,3016CK,Rotterdam,Zuid-Holland,Nederland,010-2170970,,
I-O,1267,F,Wagenweg,31,1442BT,Purmerend,Noord-Holland,Nederland,088-0021400,info@parking-protection.nl,
I-O,1370,F,'s Gravenpolderseweg,114,4462RA,Goes,Zeeland,Nederland,088-0021400,info@parking-protection.nl,
I-O,1828,F,Kipstraat,177,3011ZX,Rotterdam,Zuid-Holland,Nederland,14010,noreply@rotterdam.nl,
I-O,1371,F,Willy Brandtlaan,10,6716RP,Ede,Gelderland,Nederland,088-0021400,info@parking-protection.nl,
I-O,1373,F,Willy Brandtlaan,10,6716RP,Ede,Gelderland,Nederland,088-0021400,info@parking-protection.nl,
I-O,1375,F,Hofstraat,12,7001CD,Doetinchem,Gelderland,Nederland,088-0021400,info@parking-protection.nl,
I-O,1377,F,Rustenburg,20,6701DV,Wageningen,Gelderland,Nederland,088-0021400,info@parking-protection.nl,
I-O,1841,F,Museumpark,32,3015CX,Rotterdam,Zuid-Holland,Nederland,14010,noreply@rotterdam.nl,
I-O,1836,F,Chris Bennekerslaan,25,3061EB,Rotterdam,Zuid-Holland,Nederland,14010,noreply@rotterdam.nl,
I-O,1376,F,Burgemeester van Nispenstraat,21,7001BS,Doetinchem,Gelderland,Nederland,088-0021400,info@parking-protection.nl,
I-O,1372,F,Willy Brandtlaan,10,6716RP,Ede,Gelderland,Nederland,088-0021400,info@parking-protection.nl,
I-O,1374,F,Willy Brandtlaan,10,6716RP,Ede,Gelderland,Nederland,088-0021400,info@parking-protection.nl,
I-O,1853,F,Binnenrotte,15,3011HB,Rotterdam,Zuid-Holland,Nederland,14010,noreply@rotterdam.nl,
I-O,1825,F,Gedempte Zalmhaven,0,3016DR,Rotterdam,Zuid-Holland,Nederland,14010,noreply@rotterdam.nl,
I-O,2056,F,De Hofte,0,7622GV,Borne,,,,info@borne.nl,
I-O,1381,F,Plantsoenstraat,0,7001AA,Doetinchem,Gelderland,Nederland,,,
I-O,2074,F,Schans,0,3931EH,Woudenberg,,,,info@woudenberg.nl,
I-O,2076,F,Kerkplein,0,3931HH,Woudenberg,,,,info@woudenberg.nl,
I-O,1382,F,Walstraat,104,7001BV,Doetinchem,Gelderland,Nederland,,,
I-O,2081,F,Oude Huijgensteeg,5,3421SB,Oudewater,,,,stadskantoor@oudewater.nl,
I-O,29,F,Spoorwegstraat,7,6828AM,Arnhem,Gelderland,Nederland,,,
GEB,353,A,Overtoom,1,3401BK,IJsselstein,Utrecht,Nederland,14030,info@ijsselstein.nl,
GEB,353,P,Postbus,26,3400AA,IJsselstein,Utrecht,Nederland,14030,info@ijsselstein.nl,
I-O,1383,F,Nelson Mandelaplein,0,3401,IJsselstein,Utrecht,Nederland,14030,info@ijsselstein.nl,
I-O,1389,F,Weidemeesterlaan,1,3844DC,Harderwijk,Gelderland,Nederland,,,
GEB,2585,A,De Ruijterkade,7,1013AA,Amsterdam,Noord-Holland,Nederland,+31 6 4090 5886,,
I-O,1942,F,Heijning,1047,1047,Amsterdam,Noord-Holland,Nederland,,,
I-O,1384,F,Scheepssingel,0,3841KR,Harderwijk,Gelderland,Nederland,,,
GEB,2579,A,Smallepad,32,3811 M,Amersfoort,,,,,
I-O,1390,F,Kruithuis,2,3844DH,Harderwijk,Gelderland,Nederland,,,
I-O,1387,F,Kruithuis/Westeinde,0,3844DH,Harderwijk,Gelderland,Nederland,,,
I-O,1388,F,Harmonielaan,13,3844DB,Harderwijk,Gelderland,Nederland,,,
I-O,12,F,Van Schaeck Mathonsingel,99,6512AL,Nijmegen,Gelderland,Nederland,,,
I-O,11,F,Van Schaeck Mathonsingel,101,6512AL,Nijmegen,Gelderland,Nederland,,,
I-O,17,F,Kelfkensbos,45,6511TB,Nijmegen,Gelderland,Nederland,,,
GEB,58,A,Koningstraat,13,9101LP,Dokkum,Friesland,Nederland,140519,gemeente@dongeradeel.nl,
I-O,16,F,Van Schaeck Mathonsingel,22,6512AR,Nijmegen,Gelderland,Nederland,,,
GEB,58,P,Postbus,1,9100AA,Dokkum,Friesland,Nederland,140519,gemeente@dongeradeel.nl,
I-O,20,F,Kelfkensbos,24,6511TB,Nijmegen,Gelderland,Nederland,,,
I-O,1391,F,Lauwersseewei,0,9103,Dokkum,Friesland,Nederland,140519,gemeente@dongeradeel.nl,
I-O,15,F,Van Schaeck Mathonsingel,22,6512AR,Nijmegen,Gelderland,Nederland,,,
I-O,908,F,De Meeuwse Acker,20,6546DZ,Nijmegen,Gelderland,Nederland,14024,gemeente@nijmegen.nl,
I-O,1943,F,Stationsweg,4,3862CG,Nijkerk,Gelderland,Nederland,14033,gemeente@nijkerk.eu,
I-O,1945,F,Wheemplein,87,3861BA,Nijkerk,Gelderland,Nederland,,,
I-O,9,F,Van Schaeck Mathonsingel,1,6512AH,Nijmegen,Gelderland,Nederland,,,
I-O,13,F,Van Schaeck Mathonsingel,53,6512AJ,Nijmegen,Gelderland,Nederland,,,
I-O,1946,F,vrijheidslaan,29,3861JC,Nijkerk,Gelderland,Nederland,,,
I-O,1392,F,Eiermarkt,20,6511TP,Nijmegen,Gelderland,Nederland,,,
I-O,14,F,Van Schaeck Mathonsingel,22,6512AR,Nijmegen,Gelderland,Nederland,,,
I-O,1394,F,Willem van Arenbergstraat,0,6515AT,Nijmegen,Gelderland,Nederland,14024,gemeente@nijmegen.nl,
I-O,1944,F,Berkenlaan,2,3862HA,Nijkerk,Gelderland,Nederland,14033,gemeente@nijkerk.eu,
GEB,267,P,Postbus,1000,3860BA,Nijkerk,Gelderland,Nederland,14033,gemeente@nijkerk.eu,
I-O,1400,F,Het Rond,1,3701HS,Zeist,Utrecht,Nederland,,,
I-O,1948,F,Frieswijkstraat,0,3861BD,Nijkerk,Gelderland,Nederland,,,
I-O,1399,F,Korte Steynlaan,2,3701EX,Zeist,Utrecht,Nederland,,,
GEB,267,A,Kolkstraat,27,3861AK,Nijkerk,Gelderland,Nederland,14033,gemeente@nijkerk.eu,
I-O,1401,F,In de Cramer,78,6412PM,Heerlen,Limburg,Nederland,,,
I-O,1402,F,In de Cramer,78,6412PM,Heerlen,Limburg,Nederland,,,
GEB,74,P,Postbus,15000,8440GA,Heerenveen,Friesland,Nederland,0513-617617,gemeente@heerenveen.nl,
I-O,1405,F,Schrans,65,8441AC,Heerenveen,Friesland,Nederland,0513-617617,gemeente@heerenveen.nl,
I-O,1407,F,Schoterlandseweg,48,8451KC,Oudeschoot,Friesland,Nederland,0513-617617,gemeente@heerenveen.nl,
I-O,1408,F,Galemaleane,32,8491BB,Akkrum,Friesland,Nederland,0513-617617,gemeente@heerenveen.nl,
I-O,1406,F,Pastoriesingel,44,8458CP,Tjalleberd,Friesland,Nederland,0513-617617,gemeente@heerenveen.nl,
I-O,1409,F,Beugel,13,8447AK,Heerenveen,Friesland,Nederland,0513-617617,gemeente@heerenveen.nl,
I-O,1404,F,Weinmakker,0,8448,Heerenveen,Friesland,Nederland,0513-617617,gemeente@heerenveen.nl,
GEB,74,A,Crackstraat,2,8441ES,Heerenveen,Friesland,Nederland,0513-617617,gemeente@heerenveen.nl,
I-O,1403,F,Alde Rykswei,0,8491,Akkrum,Friesland,Nederland,0513-617617,gemeente@heerenveen.nl,
I-O,1418,F,Oostkanaalweg,2,2445BA,Aarlanderveen,Zuid-Holland,Nederland,140172,gemeente@alphenaandenrijn.nl,
I-O,1421,F,Van Boetzelaerstraat,69,2406BD,Alphen aan den Rijn,,,,,
I-O,1417,F,Gemeneweg,24,2391NB,Hazerswoude-Dorp,Zuid-Holland,Nederland,140172,gemeente@alphenaandenrijn.nl,
I-O,1423,F,Laan der Continen,0,2404WE,Alphen aan den Rijn,,,,,
GEB,484,A,Stadhuisplein,1,2405SH,Alphen aan den Rijn,Zuid-Holland,Nederland,140172,gemeente@alphenaandenrijn.nl,
GEB,484,P,Postbus,13,2400AA,Alphen aan den Rijn,Zuid-Holland,Nederland,140172,gemeente@alphenaandenrijn.nl,
I-O,1947,F,Bagijnenstraat,24,3861KZ,Nijkerk,Gelderland,Nederland,,,
I-O,1894,F,Markt,54,3431LB,Nieuwegein,Utrecht,Nederland,,info.nieuwegein@parkeerservice.nl,
I-O,1445,F,Mooienhof,70,7511HN,Enschede,Overijssel,Nederland,,postbus20@enschede.nl,
I-O,1420,F,Raoul Wallenbergplein,0,2505CZ,Alphen aan den Rijn,,,,,
I-O,2086,F,Taxandriaweg,4,5141PA,Waalwijk,,,,info@waalwijk.nl,
I-O,2078,F,Burgemeester Banninglaan,0,,Leidschendam,,,,,
I-O,2066,F,De Fuik,0,3995EN,Houten,,,,gemeentehuis@houten.nl,
I-O,2039,F,Noordsingel,0,,Leidschendam,,,,,
I-O,2036,F,Burgemeester Banninglaan,0,,Leidschendam,,,,,
I-O,2034,F,Weigelia,0,,Leidschendam,,,,,
I-O,2031,F,Geerts Willigenplein,1,8441GV,Heerenveen,Friesland,Nederland,,heerenveen@digitaalparkeerloket.nl,
I-O,2084,F,De Els,46,5141HH,Waalwijk,,,,info@waalwijk.nl,
I-O,369,F,Kipstraat,177,3011ZX,Rotterdam,Zuid-Holland,Nederland,14010,,
I-O,2055,F,De Haven,0,7622GR,Borne,,,,info@borne.nl,
I-O,2077,F,Weigelia,0,,Leidschendam,,,,,
I-O,118,F,Bloklandstraat,154,3036TS,Rotterdam,Zuid-Holland,Nederland,14010,,
I-O,393,F,Zoomstraat,111,3036RE,Rotterdam,Zuid-Holland,Nederland,14010,,
I-O,2053,F,De Bolshoek,0,7622DG,Borne,,,,info@borne.nl,
I-O,376,F,Aelbrechtskade,67,3022HP,Rotterdam,Zuid-Holland,Nederland,14010,,
I-O,2043,F,Festivalplein,3,1315KL,Almere,,,,info@almere.nl,
I-O,367,F,Klencke,74,3191VK,Rotterdam,Zuid-Holland,Nederland,14010,,
I-O,394,F,Chris Bennekerslaan,25,3061EB,Rotterdam,Zuid-Holland,Nederland,14010,,
I-O,2085,F,Unnaplein,0,5141GK,Waalwijk,,,,info@waalwijk.nl,
I-O,378,F,Museumpark,32,3015CX,Rotterdam,Zuid-Holland,Nederland,14010,,
I-O,390,F,Schouwburgplein,22,3012CL,Rotterdam,Zuid-Holland,Nederland,14010,,
I-O,382,F,Burg. van Walsumweg,718,3011MZ,Rotterdam,Zuid-Holland,Nederland,14010,,
I-O,381,F,Nieuwe Binnenweg,388,3023ET,Rotterdam,Zuid-Holland,Nederland,14010,,
I-O,366,F,Polderstraat,10,3074XJ,Rotterdam,Zuid-Holland,Nederland,14010,,
I-O,2065,F,Achterom,25,3995EN,Houten,,,,gemeentehuis@houten.nl,
I-O,2025,F,Philitelaan,59,5617AB,Eindhoven,,,,beheer@mobility-s.nl,
I-O,1441,F,Stationsstraat,11,7607GX,Almelo,,,,info@stadstoezicht-almelo.nl,
I-O,270,F,Rosa Luxemburgstraat,1,7607SM,Almelo,Overijssel,Nederland,,info@stadstoezicht-almelo.nl,
I-O,1442,F,Hermandad,4,7511JN,Enschede,Overijssel,Nederland,,postbus20@enschede.nl,
I-O,2063,F,Veerweg,0,3911TM,Rhenen,,,,info@rhenen.nl,
I-O,1051,F,Spaansland,20,7543BG,Enschede,Overijssel,Nederland,,postbus20@enschede.nl,
I-O,1429,F,Houtribweg,0,8219,Lelystad,Flevoland,Nederland,140320,gemeente@lelystad.nl,
I-O,2040,F,Noordsingel,0,,Leidschendam,,,,,
I-O,2075,F,Kon. Julianaplein,0,3931CJ,Woudenberg,,,,info@woudenberg.nl,
I-O,300,F,Larserplein,10,8226PB,Lelystad,Flevoland,Nederland,140320,gemeente@lelystad.nl,
I-O,1949,F,Nijverheidstraat,30,7511JM,Enschede,Overijssel,Nederland,,postbus20@enschede.nl,
GEB,141,A,Stadhuisplein,8,7607EK,Almelo,Overijssel,Nederland,0546-542700,info@stadstoezicht-almelo.nl,
I-O,298,F,Museumweg,0,8242PD,Lelystad,Flevoland,Nederland,,info.lelystad@parkeerservice.nl,
I-O,1066,F,Bataviaplein,62,8242PN,Lelystad,Flevoland,Nederland,,info@bataviastad.nl,
I-O,1049,F,Boulevard 1945,105,7511AM,Enschede,Overijssel,Nederland,,postbus20@enschede.nl,
I-O,1440,F,,0,,,,,,gemeente@leeuwarden.nl,
I-O,1062,F,Vocweg,100,8242KC,Lelystad,Flevoland,Nederland,,info@bataviastad.nl,
I-O,1443,F,Boulevard 1945,105,7511AM,Enschede,Overijssel,Nederland,,postbus20@enschede.nl,
I-O,1064,F,Bataviaplein,48,8242PN,Lelystad,Flevoland,Nederland,,info@bataviastad.nl,
I-O,295,F,Neringweg,157,8224KA,Lelystad,Flevoland,Nederland,033 - 4611803,info.lelystad@parkeerservice.nl,
I-O,1462,F,Beukenallee,0,8041AX,Zwolle,Overijssel,Nederland,14038,postbus@zwolle.nl,
I-O,1463,F,Van Wevelinkhovenstraat,0,,,,,,postbus@zwolle.nl,
I-O,1063,F,Lelybaan,56,8242,Lelystad,Flevoland,Nederland,,info@bataviastad.nl,
I-O,1004,F,Vechtdijk - N340,0,8028,Zwolle,Overijssel,Nederland,14038,postbus@zwolle.nl,
I-O,297,F,Ziekenhuisweg,100,8233AA,Lelystad,Flevoland,Nederland,033 - 4611803,info.lelystad@parkeerservice.nl,
I-O,1465,F,Hanzelaan,242,,Zwolle,,,,postbus@zwolle.nl,
I-O,1469,F,,0,,,,,,postbus20@enschede.nl,
GEB,243,A,Havendam,56,3841AA,Harderwijk,Gelderland,Nederland,0341-411911,h.vanderveen@harderwijk.nl,
GEB,243,P,Postbus,149,3840AC,Harderwijk,Gelderland,Nederland,0341-411911,h.vanderveen@harderwijk.nl,
I-O,296,F,Waagstraat,1,8232DZ,Lelystad,Flevoland,Nederland,033 - 4611803,info.lelystad@parkeerservice.nl,
I-O,1065,F,Bataviaplein,58,8242PN,Lelystad,Flevoland,Nederland,,info@bataviastad.nl,
I-O,1430,F,Reaalhof,101,8232VW,Lelystad,Flevoland,Nederland,033 - 4611803,info.lelystad@parkeerservice.nl,
I-O,1543,F,Emmawijk,23,8011CN,Zwolle,,,,postbus@zwolle.nl,
I-O,1447,F,Binnensingel,8,7411PM,Deventer,,,,gemeente@deventer.nl,
I-O,1457,F,Korte Vondelstraat,4,1811AE,Alkmaar,,,,info.alkmaar@parkeerservice.nl,
I-O,1454,F,Mallegatsplein,1,1811AG,Alkmaar,,,,info.alkmaar@parkeerservice.nl,
I-O,1456,F,Dijk,0,1811MB,Alkmaar,,,,info.alkmaar@parkeerservice.nl,
GEB,2085,A,Olieweg 6,6,1951NH,Velsen-Noord,Noord-Holland,Nederland,088 - 3136000,klantenservice@dekamarkt.nl,
GEB,2085,P,Postbus,86,1940AB,Beverwijk,Noord-Holland,Nederland,088 - 3136000,klantenservice@dekamarkt.nl,
I-O,1476,F,Boumaboulevard,115,9723ZS,Groningen,Groningen,Nederland,010-2170970,,
GEB,2557,P,Postbus,364,6500AJ,Nijmegen,Gelderland,Nederland,024-3228344,secretariaat@stadsschouwburgendevereeniging.nl,
GEB,2557,A,Keizer Karelplein,2,6511NC,Nijmegen,Gelderland,Nederland,024-3228344,secretariaat@stadsschouwburgendevereeniging.nl,
GEB,1773,A,Raadhuisplein,1,8131BN,Wijhe,Overijssel,Nederland,14 0570,gemeente@olst-wijhe.nl,
GEB,1773,P,Postbus,23,8130AA,Wijhe,Overijssel,Nederland,14 0570,gemeente@olst-wijhe.nl,
I-O,1483,F,Gorsstraat,22,3201DB,Spijkenisse,Zuid-Holland,Nederland,0181-696778,parkeerbeheer@spijkenisse.nl,
I-O,962,F,Hekelingseweg,13,3206LA,Spijkenisse,Zuid-Holland,Nederland,140181,gemeente@nissewaard.nl,
GEB,2001,A,Zuid-Hollandplein,1,2596AW,Den Haag,Zuid-Holland,Nederland,070-4416611,zuidholland@pzh.nl,
I-O,1482,F,Raadhuislaan,37,3201EM,Spijkenisse,Zuid-Holland,Nederland,0181-696778,parkeerbeheer@spijkenisse.nl,
I-O,1487,F,Damstraat,21,3201DA,Spijkenisse,Zuid-Holland,Nederland,0181-696778,parkeerbeheer@spijkenisse.nl,
I-O,1481,F,Sluisstraat,20,3201DJ,Spijkenisse,Zuid-Holland,Nederland,0181-696778,parkeerbeheer@spijkenisse.nl,
I-O,1480,F,Dr. J.M. Den Uyllaan,1,3201WR,Spijkenisse,Zuid-Holland,Nederland,0181-696778,parkeerbeheer@spijkenisse.nl,
I-O,1479,F,Hekelingseweg,0,,Spijkenisse,Zuid-Holland,Nederland,140181,gemeente@nissewaard.nl,
I-O,1486,F,Noordkade,77,3201AZ,Spijkenisse,Zuid-Holland,Nederland,0181-696778,parkeerbeheer@spijkenisse.nl,
I-O,1488,F,H. de Lintweg,59,3201EK,Spijkenisse,Zuid-Holland,Nederland,0181-696778,parkeerbeheer@spijkenisse.nl,
GEB,2001,P,Postbus,90602,2509LP,Den Haag,Zuid-Holland,Nederland,070-441662,zuidholland@pzh.nl,
I-O,445,F,Karel Doormanstraat,1,3201CE,Spijkenisse,Zuid-Holland,Nederland,0181-696778,parkeerbeheer@spijkenisse.nl,
I-O,957,F,Akkersweg,0,3206,Spijkenisse,Zuid-Holland,Nederland,140181,gemeente@nissewaard.nl,
I-O,956,F,Borgtweg,2,3202LJ,Spijkenisse,Zuid-Holland,Nederland,140181,gemeente@nissewaard.nl,
I-O,961,F,P.J. Bliekstraat,5,3201PL,Spijkenisse,Zuid-Holland,Nederland,140181,gemeente@nissewaard.nl,
I-O,1484,F,Eerste Heulbrugstraat,0,3201BE,Spijkenisse,Zuid-Holland,Nederland,0181-696778,parkeerbeheer@spijkenisse.nl,
I-O,955,F,Stationspad,0,3218,Heenvliet,Zuid-Holland,Nederland,140181,gemeente@nissewaard.nl,
I-O,1485,F,D. Losstraat,19,3201EJ,Spijkenisse,Zuid-Holland,Nederland,0181-696778,parkeerbeheer@spijkenisse.nl,
I-O,299,F,Museumweg,0,8242PD,Lelystad,Flevoland,Nederland,033 - 4611803,info.lelystad@parkeerservice.nl,
I-O,1491,F,Rijssenseweg,0,7642NK,Wierden,,,,info@wierden.nl,
I-O,2067,F,Dijkhoeve,0,3992XZ,Houten,,,,gemeentehuis@houten.nl,
I-O,2072,F,De Passage,1,3991DZ,Houten,,,,gemeentehuis@houten.nl,
I-O,2058,F,De Loods,0,,Borne,,,,info@borne.nl,
I-O,2080,F,Gasplein,0,3421CR,Oudewater,,,,stadskantoor@oudewater.nl,
I-O,2041,F,Noordsingel,0,,Leidschendam,,,,,
I-O,1505,F,Stadionlaan,9,5213JH,'s-Hertogenbosch,Noord-Brabant,Nederland,073-6480375,,
I-O,2122,F,Schoolstraat,1,6271JD,Gulpen-Wittem,,,,info@gulpen-wittem.nl,
I-O,1506,F,Vlijmenseweg,10,5223GW,'s-Hertogenbosch,Noord-Brabant,Nederland,073-6218796,,
I-O,1504,F,Pettelaarpark,59,5216PP,'s-Hertogenbosch,Noord-Brabant,Nederland,073-6142777,,
I-O,2116,F,Looiersplein,0,6271HD,Gulpen-Wittem,,,,info@gulpen-wittem.nl,
I-O,1511,F,Festivalplein,3,1315KL,Almere,,,,info@p1.nl,
I-O,1520,F,Krakeling,2,,Almere,,,,info@p1.nl,
I-O,2110,F,,0,,Horst aan de Maas,,,,gemeente@horstaandemaas.nl,
I-O,2120,F,Tramweg,2,6271JM,Gulpen-Wittem,,,,info@gulpen-wittem.nl,
I-O,293,F,Plein,25,2511CS,Den Haag,Zuid-Holland,Nederland,0900-4466880,noreply@denhaag.nl,
I-O,212,F,De Entree,228,1101EE,Amsterdam,Noord-Holland,Nederland,0204095029,noreply@amsterdam.nl,
GEB,289,A,Markt,22,6701CZ,Wageningen,Gelderland,Nederland,0317-492911,gemeente@wageningen.nl,
I-O,231,F,Borchlandweg,10,1115RN,Amsterdam,Noord-Holland,Nederland,,noreply@amsterdam.nl,
I-O,213,F,De Entree,228,1101EE,Amsterdam,Noord-Holland,Nederland,0203658905,noreply@amsterdam.nl,
I-O,228,F,Waterlooplein,28,1011PG,Amsterdam,Noord-Holland,Nederland,0206249919,noreply@amsterdam.nl,
I-O,223,F,Borchlandweg,10,1115RN,Amsterdam,Noord-Holland,Nederland,,noreply@amsterdam.nl,
I-O,215,F,De Corridor,15,1101BC,Amsterdam,Noord-Holland,Nederland,0203632782,noreply@amsterdam.nl,
I-O,498,F,Laan van Zuid Hoorn,38,2289DE,Rijswijk,Zuid-Holland,Nederland,,,
I-O,500,F,Jaap Edenweg,10,2544NL,Den Haag,Zuid-Holland,Nederland,,,
I-O,291,F,Plein,25,2511CS,Den Haag,Zuid-Holland,Nederland,0900-4466880,noreply@denhaag.nl,
I-O,218,F,Burgemeester Stramanweg,130,1101EP,Amsterdam,Noord-Holland,Nederland,0206960485,noreply@amsterdam.nl,
I-O,294,F,Plein,25,2511CS,Den Haag,Zuid-Holland,Nederland,0900-4466880,noreply@denhaag.nl,
I-O,2825,F,Plecht,1,1276AZ,Huizen,,,,gemeente@huizen.nl,
I-O,1188,F,Máximastraat,6,7443BB,Nijverdal,Overijssel,Nederland,,info@pch-dienstengroep.nl,
I-O,1585,F,Hertendijk,0,,Peize,,,,postbus@gemeentenoordenveld.nl,
I-O,1032,F,Aamsestraat,11,6662ND,Elst,,,,info@overbetuwe.nl,
I-O,1030,F,Pastoor van der Plaatstraat,0,2375AL,Rijpwetering,,,,zuidholland@pzh.nl,
I-O,995,F,Domineesweg,0,,Nagele,,,,,
I-O,856,F,Brugstraat,2,5741PB,Beek en Donk,,,,gemeente@laarbeek.nl,
I-O,994,F,Herenweg,0,,Woubrugge,,,,zuidholland@pzh.nl,
I-O,1579,F,Geer,60,5501LB,Veldhoven,Noord-Brabant,Nederland,088 - 126 14 14,parkeerbedrijf@veldhoven.nl,
I-O,623,F,De Wieër,26,6131DA,Sittard,Limburg,Nederland,,,
I-O,1620,F,Ijsselmeerweg,0,1411,Naarden,,,,noreply@gooisemeren.nl,
I-O,428,F,Batavierenweg,25,6841HN,Arnhem,Gelderland,Nederland,0900-1809,noreply@arnhem.nl,
I-O,1503,F,Hugo de Grootlaan,84,5223LC,'s-Hertogenbosch,Noord-Brabant,Nederland,073-6233567,parkeerbeheer@s-hertogenbosch.nl,
I-O,1751,F,Deilseweg,9,4191NX,Geldermalsen,,,,gemeente@westbetuwe.nl,
I-O,1552,F,Hegedyk,0,9034XD,Marsum,,,,info@waadhoeke.nl,
I-O,426,F,Metamorfosenallee,75,6843TZ,Arnhem,Gelderland,Nederland,0900-1809,noreply@arnhem.nl,
I-O,1872,F,Blankertseweg,8,4194NL,Meteren,,,,gemeente@westbetuwe.nl,
I-O,1293,F,Belgiëlaan,2,2711BR,Zoetermeer,Zuid-Holland,Nederland,010-2170970,,
I-O,1764,F,Stationsweg,2,4153RD,Beesd,,,,gemeente@westbetuwe.nl,
I-O,583,F,Oostwal,177,5341KM,Oss,Noord-Brabant,Nederland,,parkeerbedrijf@oss.nl,
I-O,585,F,Oostwal-Oost,291,5341KS,Oss,Noord-Brabant,Nederland,,parkeerbedrijf@oss.nl,
I-O,1502,F,Sint Josephstraat,1,5211NH,'s-Hertogenbosch,Noord-Brabant,Nederland,073-6890059,parkeerbeheer@s-hertogenbosch.nl,
I-O,584,F,Boterstraat,192,5341GH,Oss,Noord-Brabant,Nederland,,parkeerbedrijf@oss.nl,
I-O,1337,F,Henriëtte van der Meydreef,82,2492JG,Den Haag,Zuid-Holland,Nederland,010-2170970,,
I-O,1587,F,Struikheiweg,0,1406NZ,Bussum,,,,noreply@gooisemeren.nl,
I-O,1276,F,Daniël Goedkoopstraat,21,1096BD,Amsterdam,Noord-Holland,Nederland,0900-2357275,office@parkking.nl,
I-O,1869,F,Litouwenplein,0,4871,Etten-Leur,,,,info@etten-leur.nl,
I-O,1870,F,Spoorlaan,37,4872,Etten-Leur,,,,info@etten-leur.nl,
I-O,1916,F,Olmenlaan,157,1404DD,Bussum,Noord-Holland,Nederland,,noreply@gooisemeren.nl,
I-O,31,F,Apeldoornseweg,450,6816SN,Arnhem,Gelderland,Nederland,0900-1809,noreply@arnhem.nl,
I-O,582,F,Oostwal,177,5341KM,Oss,Noord-Brabant,Nederland,,parkeerbedrijf@oss.nl,
I-O,427,F,Eleonorastraat,5,6824EX,Arnhem,Gelderland,Nederland,0900-1809,noreply@arnhem.nl,
I-O,1871,F,Zeiving,1,4214KT,Vuren,,,,gemeente@westbetuwe.nl,
I-O,1770,F,Akkerlaan,18,1403PT,Bussum,,,,noreply@gooisemeren.nl,
I-O,1911,F,Thierensstraat,2,1404HE,Bussum,Noord-Holland,Nederland,,noreply@gooisemeren.nl,
I-O,1873,F,T.G. Gibsonstraat,4,7411RR,Deventer,,,,parkeren@deventer.nl,
I-O,1950,F,Normandiaplein,7,8603CS,Sneek,Friesland,Nederland,,garageboschplein@sudwestfryslan.nl,
I-O,1674,F,Stockholmstraat,1,3543KG,Utrecht,,,,noreply@utrecht.nl,
I-O,880,F,Hoekerweg,0,6222NP,Maastricht,Limburg,Nederland,14043,parkeren@maastricht.nl,
I-O,1658,F,Universiteitsweg,0,3584CT,Utrecht,,,,noreply@utrecht.nl,
I-O,1878,F,Afinkstraat,0,,Enschede,,,,postbus20@enschede.nl,
I-O,1877,F,Stationsweg,12,4001CH,Tiel,,,,gemeente@tiel.nl,
I-O,501,F,Prinses Máximaplein,0,2496ZD,Den Haag,Zuid-Holland,Nederland,,,
I-O,1875,F,Stationsingel,123,,Oss,,,,noreply@oss.nl,
I-O,499,F,Prins Willem-Alexanderweg,99,2595BT,Den Haag,Zuid Holland,Nederland,,opendata@denhaag.nl,
I-O,1876,F,Buitenhaven,1,4531BX,Terneuzen,,,,noreply@terneuzen.nl,
I-O,513,F,Bûterwei,2,9271EN,De Westereen,Friesland,Nederland,140511,post@dantumadiel.eu,
I-O,1735,F,Harmonielaan,0,1111PD,Diemen,,,,info@diemen.nl,
I-O,1677,F,Krakelingweg,0,4737WH,Zeist,,,,zeist@zeist.nl,
I-O,1874,F,Noorderweg,20,3119XX,Schiedam,,,,schiedam@euroscoop.eu,
I-O,1952,F,Bergweg,0,,,,,,,
I-O,1882,F,Stoofweg,0,4327,Serooskerke,,,,noreply@schouwen-duiveland.nl,
I-O,103,F,Scheepjeshof,126,3901CX,Veenendaal,Utrecht,Nederland,06-51233959,info@descheepjeshof.nl,
I-O,1959,F,Agoradek,118,,Lelystad,,,,info.lelystad@parkeerservice.nl,
I-O,1958,F,Ingang Jagerlaan,0,,,,,,,
I-O,1509,F,Deutersestraat,2,5223GW,'s-Hertogenbosch,Noord-Brabant,Nederland,073-6155354,,
I-O,1221,F,Deventerstraat,22,,,,,,,
I-O,1880,F,Kazernestraat,0,5928NL,Blerick,,,,info@venlo.nl,
I-O,1561,F,Hambosweg,56,6466XZ,Kerkrade,Limburg,Nederland,,gemeentehuis@kerkrade.nl,
GEB,377,P,Postbus,201,2050AE,Overveen,Noord-Holland,Nederland,14023,gemeente@bloemendaal.nl,
I-O,1557,F,Zuider Stationsweg,20,2061HE,Bloemendaal,Noord-Holland,Nederland,14023,gemeente@bloemendaal.nl,
I-O,1558,F,Tetterodeweg,2,2051EE,Overveen,Noord-Holland,Nederland,14023,gemeente@bloemendaal.nl,
GEB,377,A,Brouwerskolkweg,5,2051ED,Overveen,Noord-Holland,Nederland,14023,gemeente@bloemendaal.nl,
I-O,1563,F,Mensheggerweg,0,6468XZ,Kerkrade,Limburg,Nederland,,,
I-O,1562,F,Nieuwenhagerweg,51,6471VK,Eygelshoven,Limburg,Nederland,,,
GEB,202,A,Koningstraat,38,6811DG,Arnhem,Gelderland,Nederland,0900-1809,gemeente@arnhem.nl,
GEB,202,P,Postbus,9029,6800EL,Arnhem,Gelderland,Nederland,0900-1809,gemeente@arnhem.nl,
GEB,597,P,Postbus,271,2980AG,Ridderkerk,Zuid-Holland,Nederland,0180-451234,m.burger@bar-organisatie.nl,
GEB,597,A,Koningsplein,1,2981EA,Ridderkerk,Zuid-Holland,Nederland,0180-451234,m.burger@bar-organisatie.nl,
I-O,1881,F,Weg naar de Val,168,4675RB,Zierikzee,,,,noreply@schouwen-duiveland.nl,
I-O,1528,F,Bloemfontijnstraat,2,2312ZD,Leiden,Zuid-Holland,Nederland,088 - 126 14 16,,
I-O,1513,F,Lammermarkt,20,2312CW,Leiden,Zuid-Holland,Nederland,,,
I-O,119,F,Middelstegracht,50,2312TX,Leiden,Zuid-Holland,Nederland,088 - 126 14 16,,
I-O,1883,F,Roelandsweg,0,4325,Renesse,,,,noreply@schouwen-duiveland.nl,
I-O,441,F,Op het Veldje,53,6176BL,Spaubeek,Limburg,Nederland,046-4389222,info@gemeentebeek.nl,
I-O,364,F,Gedempte Gracht,605,2512AM,Den Haag,Zuid-Holland,Nederland,070-3601751,,
I-O,210,F,Piet Heinkade,59,1019GM,Amsterdam,Noord-Holland,Nederland,0204191689,noreply@amsterdam.nl,
I-O,233,F,Piet Heinkade,59,1019GM,Amsterdam,Noord-Holland,Nederland,0204191689,noreply@amsterdam.nl,
I-O,1855,F,Binnenrotte,15,3011HB,Rotterdam,Zuid-Holland,Nederland,14010,noreply@rotterdam.nl,
I-O,1568,F,Egelantierstraat,0,8924JP,Leeuwarden,,,,noreply@leeuwarden.nl,
I-O,1548,F,Wergeasterdyk,1,9005XK,Wergea,,,,noreply@leeuwarden.nl,
I-O,363,F,Gedempte Gracht,605,2512AM,Den Haag,Zuid-Holland,Nederland,070-3601751,,
I-O,208,F,Anne Frankstraat,220,1011MP,Amsterdam,Noord-Holland,Nederland,0204278398,noreply@amsterdam.nl,
I-O,1854,F,Binnenrotte,15,3011HB,Rotterdam,Zuid-Holland,Nederland,14010,noreply@rotterdam.nl,
I-O,516,F,De Vinkebuorren,4,8563AR,Wijckel,Friesland,Nederland,140514,noreply@De Fryske Marren.nl,
I-O,519,F,Herenweg,0,8535,Follega,Friesland,Nederland,140514,noreply@De Fryske Marren.nl,
I-O,517,F,Sewei,4,8501SP,Joure,Friesland,Nederland,140514,noreply@De Fryske Marren.nl,
I-O,2089,F,Stationsweg,4,1431EH,Aalsmeer,,,,info@aalsmeer.nl,
I-O,518,F,Transveer,1,8531DM,Lemmer,Friesland,Nederland,140514,noreply@De Fryske Marren.nl,
I-O,2088,F,Praamplein,0,,Aalsmeer,,,,info@aalsmeer.nl,
I-O,1766,F,Parklaan,0,9791AE,Ten Boer,Groningen,,,info@groningen.nl,
GEB,1960,P,Kuypershof,2,4191KH,Geldermalsen,Gelderland,Nederland,0345-728800,gemeente@westbetuwe.nl,nvt
I-O,1573,F,Jeustraat,0,,Voerendaal,Limburg,Nederland,,parkeren@maastricht.nl,
I-O,1571,F,Kerkeveld,0,,Schin op Geul,,,,parkeren@maastricht.nl,
I-O,1566,F,Spoorstraat,0,,Susteren,Limburg,Nederland,,parkeren@maastricht.nl,
I-O,1255,F,Spoorstraat,0,6241CI,Bunde,,,,parkeren@maastricht.nl,
I-O,1564,F,Stationsweg,0,,Echt,Limburg,Nederland,,parkeren@maastricht.nl,
I-O,1572,F,Spoorstraat,0,,Klimmen,Limburg,Nederland,,parkeren@maastricht.nl,
I-O,442,F,Aan de Drie Heren,0,6191BH,Beek,Limburg,Nederland,,parkeren@maastricht.nl,
I-O,1567,F,Stationsstraat,0,,Susteren,Limburg,Nederland,,parkeren@maastricht.nl,
I-O,1565,F,Stationsweg,0,,Echt,Limburg,Nederland,,parkeren@maastricht.nl,
I-O,808,F,Tramstraat,52,2225CL,Katwijk,Zuid-Holland,Nederland,071-4065000,parkeren@katwijk.nl,
I-O,565,F,Spoordamstraat,0,6415AR,Heerlen,Limburg,Nederland,,parkeren@maastricht.nl,
I-O,1584,F,Wilhelminalaan,58,1441EM,Purmerend,Noord-Holland,Nederland,0299-452452,info@purmerend.nl,
I-O,1578,F,Rembrandtlaan,33,5462CJ,Veghel,Noord-Brabant,Nederland,,,
GEB,826,A,Slotjesveld,1,4902ZP,Oosterhout,Noord Brabant,Nederland,0642220060,b.van.der.burgt@oosterhout.nl,
I-O,807,F,Tramstraat,110,2225CM,Katwijk,Zuid-Holland,Nederland,071-4065000,parkeren@katwijk.nl,
I-O,2796,F,De Braadkamp,0,,Eemnes,,,,info@eemnes.nl,
I-O,805,F,Boulevard Zeezijde,13,2225AG,Katwijk,Zuid-Holland,Nederland,071-4065000,parkeren@katwijk.nl,
I-O,1556,F,Wolvenhoek,12,5211HH,'s-Hertogenbosch,Noord-Brabant,Nederland,073-6233567,parkeerbeheer@s-hertogenbosch.nl,
GEB,2587,P,Postbus,15,1440AA,Purmerend,Noord-Holland,Nederland,0299-452452,parkerencentrum@purmerend.nl,
GEB,2587,A,Purmersteenweg,42,1441DM,Purmerend,Noord-Holland,Nederland,0299-452452,parkerencentrum@purmerend.nl,
I-O,1960,F,Schoolplein,9,1441GV,Purmerend,Noord-Holland,Nederland,0299 427 754,parkerencentrum@purmerend.nl,
I-O,1508,F,Hekellaan,25,5211LZ,'s-Hertogenbosch,Noord-Brabant,Nederland,073-6153040,parkeerbeheer@s-hertogenbosch.nl,
I-O,1533,F,Maasboulevard,0,6211,Maastricht,Limburg,Nederland,,parkeren@maastricht.nl,
I-O,1534,F,Maasboulevard,0,6211,Maastricht,Limburg,Nederland,,parkeren@maastricht.nl,
I-O,1532,F,Maasboulevard,0,6211,Maastricht,Limburg,Nederland,,parkeren@maastricht.nl,
I-O,1507,F,Colvenierstraat,20,5211AV,'s-Hertogenbosch,Noord-Brabant,Nederland,073-6901050,parkeerbeheer@s-hertogenbosch.nl,
I-O,146,F,Wassenaarstraat,66,4611BW,Bergen op Zoom,Noord-Brabant,Nederland,0164-660900,info@parkerenbergenopzoom.nl,
I-O,1517,F,Hospitaalpromenade,2,1315XN,Almere,,,,info@almere.nl,
I-O,547,F,Burgemeester Jamesplein,1,2803PG,Gouda,Zuid-Holland,Nederland,,info.gouda@parkeerservice.nl,
I-O,1458,F,Ritsevoort,70,1811DP,Alkmaar,,,,info.alkmaar@parkeerservice.nl,
I-O,1963,F,Pelikaanweg,50,,Lelystad,,,,info@aviodrome.nl,
I-O,1962,F,Weeshuislaan,32,3701JX,Zeist,,,,,
I-O,1455,F,Helderseweg,8,1811AG,Alkmaar,,,,info.alkmaar@parkeerservice.nl,
I-O,1576,F,In de Cramer,0,6411RS,Heerlen,Limburg,Nederland,,parkeren@maastricht.nl,
I-O,1577,F,Verzetslaan,2,1447XX,Purmerend,Noord-Holland,Nederland,0299-452452,info@purmerend.nl,
GEB,439,A,Purmersteenweg,42,1441DM,Purmerend,Noord-Holland,Nederland,0299-452452,info@purmerend.nl,
I-O,1583,F,Beatrixplein,59,1441JR,Purmerend,Noord-Holland,Nederland,0299-452452,info@purmerend.nl,
I-O,1580,F,Verzetslaan,2,1447XX,Purmerend,Noord-Holland,Nederland,0299-452452,info@purmerend.nl,
GEB,439,P,Postbus,15,1440AA,Purmerend,Noord-Holland,Nederland,0299-452452,info@purmerend.nl,
I-O,1582,F,Boeierstraat,26,1443EN,Purmerend,Noord-Holland,Nederland,0299-452452,info@purmerend.nl,
I-O,1581,F,Boeierstraat,26,1443EN,Purmerend,Noord-Holland,Nederland,0299-452452,info@purmerend.nl,
I-O,683,F,Verlengde Kerkweg,17,2981AZ,Ridderkerk,Zuid-Holland,Nederland,0900-4466880,info@q-park.nl,
I-O,745,F,Kaldenkerkerweg,11,5913AB,Venlo,Limburg,Nederland,0900-4466880,info@q-park.nl,
I-O,662,F,Marnixstraat,250,1016TL,Amsterdam,Noord-Holland,Nederland,0900-4466880,info@q-park.nl,
I-O,657,F,Handelsweg,55,1181ZA,Amstelveen,Noord-Holland,Nederland,0900-4466880,info@q-park.nl,
I-O,668,F,Schapenkamp ,12,1211PA,Hilversum,Noord-Holland,Nederland,0900-4466880,info@q-park.nl,
I-O,695,F,Arendsplein,93,4901KX,Oosterhout,Noord-Brabant,Nederland,0900-4466880,info@q-park.nl,
I-O,675,F,De Heemstraat,346,2525ET,Den Haag,Zuid-Holland,Nederland,0900-4466880,info@q-park.nl,
I-O,651,F,Van Rosenburgweg,1,6537TM,Nijmegen,Gelderland,Nederland,0900-4466880,info@q-park.nl,
I-O,694,F,Tolbrugstraat,8,5211RW,'s-Hertogenbosch,Noord-Brabant,Nederland,0900-4466880,info@q-park.nl,
I-O,717,F,Parallelweg,37,4621CB,Bergen op Zoom,Noord-Brabant,Nederland,0900-4466880,info@q-park.nl,
I-O,650,F,Brouwerstraat,21,6711AS,Ede,Gelderland,Nederland,0900-4466880,info@q-park.nl,
I-O,646,F,Roggestraat ,133,7311CC,Apeldoorn,Gelderland,Nederland,0900-4466880,info@q-park.nl,
I-O,685,F,Stieltjesstraat,31,3071JV,Rotterdam,Zuid-Holland,Nederland,0900-4466880,info@q-park.nl,
I-O,648,F,Broerenstraat,51,6811EB,Arnhem,Gelderland,Nederland,0900-4466880,info@q-park.nl,
I-O,783,F,Lardinoisstraat,1,5611ZZ,Eindhoven,Noord-Brabant,Nederland,0900-4466880,info@q-park.nl,
I-O,730,F,Comeniusstraat,10,1065BH,Amsterdam,Noord-Holland,Nederland,0900-4466880,info@q-park.nl,
I-O,709,F,Maasboulevard,80,6211JW,Maastricht,Limburg,Nederland,0900-4466880,info@q-park.nl,
I-O,711,F,Prinsessesingel,5,5911HS,Venlo,Limburg,Nederland,0900-4466880,info@q-park.nl,
I-O,652,F,Den Elterweg,77,7207AE,Zutphen,Gelderland,Nederland,0900-4466880,info@q-park.nl,
I-O,771,F,Nieuwezijds Voorburgwal,42,1012SB,Amsterdam,Noord-Holland,Nederland,0900-4466880,info@q-park.nl,
I-O,669,F,Nieuwstraat,67,1441CL,Purmerend,Noord-Holland,Nederland,0900-4466880,info@q-park.nl,
I-O,736,F,Spoorlaan,92,5061HD,Oisterwijk,Noord-Brabant,Nederland,0900-4466880,info@q-park.nl,
I-O,679,F,Fluwelen Burgwal,46,2511CJ,Den Haag,Zuid-Holland,Nederland,0900-4466880,info@q-park.nl,
I-O,712,F,Kruseman van Eltenweg,1,1817BC,Alkmaar,Noord-Holland,Nederland,0900-4466880,info@q-park.nl,
I-O,718,F,Van Salmstraat,66,5281RS,Boxtel,Noord-Brabant,Nederland,0900-4466880,info@q-park.nl,
I-O,722,F,Handelskade,75,7417DH,Deventer,Overijssel,Nederland,0900-4466880,info@q-park.nl,
I-O,750,F,Tweede Drift Gedempte Zuiderdiep,2,9711CR,Groningen,Groningen,Nederland,0900-4466880,info@q-park.nl,
I-O,726,F,Cascadeplein,6,9726AD,Groningen,Groningen,Nederland,0900-4466880,info@q-park.nl,
I-O,700,F,Putgraaf,1,6411GT,Heerlen,Limburg,Nederland,0900-4466880,info@q-park.nl,
I-O,725,F,Stationsweg,21,4205AA,Gorinchem,Zuid-Holland,Nederland,0900-4466880,info@q-park.nl,
I-O,701,F,Klompstraat,5,6411KR,Heerlen,Limburg,Nederland,0900-4466880,info@q-park.nl,
I-O,737,F,Godsweerdersingel,32,6041GL,Roermond,Limburg,Nederland,0900-4466880,info@q-park.nl,
I-O,762,F,Molenstraat,136,6711AX,Ede,Gelderland,Nederland,0900-4466880,info@q-park.nl,
I-O,779,F,De Heemstraat,296,2525ES,Den Haag,Zuid-Holland,Nederland,0900-4466880,info@q-park.nl,
I-O,698,F,Homerusstraat,0,6411,Heerlen,Limburg,Nederland,0900-4466880,info@q-park.nl,
I-O,776,F,Conventstraat,148,2801EZ,Gouda,Zuid-Holland,Nederland,0900-4466880,info@q-park.nl,
I-O,799,F,Parallelweg Noord,0,2841LA,Moordrecht,,,,Gemeente@zuidplas.nl,
I-O,702,F,Serpentilunet,1,6221KW,Maastricht,Limburg,Nederland,0900-4466880,info@q-park.nl,
I-O,721,F,Van Alphenstraat,102,2274NE,Voorburg,Zuid-Holland,Nederland,0900-4466880,info@q-park.nl,
I-O,766,F,Bos en Lommerplein,200,1055EK,Amsterdam,Noord-Holland,Nederland,0900-4466880,info@q-park.nl,
I-O,787,F,Limburglaan,4,6229GA,Maastricht,Limburg,Nederland,0900-4466880,info@q-park.nl,
I-O,784,F,Burgemeester Van Grunsvenplein,0,6411AS,Heerlen,Limburg,Nederland,0900-4466880,info@q-park.nl,
I-O,720,F,Parallelweg,11,1405AE,Bussum,Noord-Holland,Nederland,0900-4466880,info@q-park.nl,
I-O,643,F,Dorpsmatenstraat,0,7551,Hengelo,Overijssel,Nederland,0900-4466880,info@q-park.nl,
I-O,684,F,Casimirstraat ,9,3083AB,Rotterdam,Zuid-Holland,Nederland,0900-4466880,info@q-park.nl,
I-O,699,F,Muzenlaan,1,6411AC,Heerlen,Limburg,Nederland,0900-4466880,info@q-park.nl,
I-O,654,F,Herculesplein,114,3584AA,Utrecht,Utrecht,Nederland,0900-4466880,info@q-park.nl,
I-O,790,F,Vrijthof,100,6211LE,Maastricht,Limburg,Nederland,0900-4466880,info@q-park.nl,
I-O,767,F,Haarlemmerweg,325,1051LH,Amsterdam,Noord-Holland,Nederland,0900-4466880,info@q-park.nl,
I-O,680,F,Prinses Irenestraat,1,2595BD,Den Haag,Zuid-Holland,Nederland,0900-4466880,info@q-park.nl,
I-O,656,F,Doorslag,1,3435DG,Nieuwegein,Utrecht,Nederland,0900-4466880,info@q-park.nl,
I-O,794,F,Eijkelboomweg,0,6537TM,Nijmegen,Gelderland,Nederland,0900-4466880,info@q-park.nl,
I-O,1077,F,Kerkstraat,26,8441GV,Heerenveen,Friesland,Nederland,,gemeente@heerenveen.nl,
I-O,145,F,Koepelstraat,50,4611LV,Bergen op Zoom,Noord-Brabant,Nederland,0164-660900,info@parkerenbergenopzoom.nl,
I-O,638,F,Spilsluizen,25,9712NR,Groningen,Groningen,Nederland,0900-4466880,info@q-park.nl,
I-O,719,F,Stationsweg,61,4811AX,Breda,Noord-Brabant,Nederland,0900-4466880,info@q-park.nl,
I-O,772,F,Groest,100,1211EE,Hilversum,Noord-Holland,Nederland,0900-4466880,info@q-park.nl,
I-O,749,F,Ossenmarkt,4,9712NZ,Groningen,Groningen,Nederland,0900-4466880,info@q-park.nl,
I-O,782,F,Snellenshof,60,4811LN,Breda,Noord-Brabant,Nederland,0900-4466880,info@q-park.nl,
I-O,768,F,Barbara Strozzilaan,342,1083HN,Amsterdam,Noord-Holland,Nederland,0900-4466880,info@q-park.nl,
I-O,637,F,Herepoortenmolendrift,2,9711DG,Groningen,Groningen,Nederland,0900-4466880,info@q-park.nl,
I-O,789,F,Vrijthof,100,6211LE,Maastricht,Limburg,Nederland,0900-4466880,info@q-park.nl,
I-O,639,F,Rademarkt,27,9711CS,Groningen,Groningen,Nederland,0900-4466880,info@q-park.nl,
I-O,689,F,Twentestraat,10,3083BD,Rotterdam,Zuid-Holland,Nederland,0900-4466880,info@q-park.nl,
I-O,742,F,Horvathweg,3,3112HB,Schiedam,Zuid-Holland,Nederland,0900-4466880,info@q-park.nl,
I-O,761,F,Molenstraat,23,6711AW,Ede,Gelderland,Nederland,0900-4466880,info@q-park.nl,
I-O,748,F,Kleine Raamstraat,11,9711CG,Groningen,Groningen,Nederland,0900-4466880,info@q-park.nl,
I-O,1459,F,Canadaplein,2,1811KG,Alkmaar,,,,info.alkmaar@parkeerservice.nl,
I-O,759,F,Koningstraat,36,6811DG,Arnhem,Gelderland,Nederland,0900-4466880,info@q-park.nl,
I-O,649,F,Achterdoelen,37,6711AV,Ede,Gelderland,Nederland,0900-4466880,info@q-park.nl,
I-O,729,F,Wijnhorsterstraat,14,8932EX,Leeuwarden,Friesland,Nederland,0900-4466880,info@q-park.nl,
I-O,774,F,Hoge Gouwe,189,2801LE,Gouda,Zuid-Holland,Nederland,0900-4466880,info@q-park.nl,
I-O,2837,F,Brink,33,1251KT,Laren,,,,info@laren.nl,
I-O,681,F,Geest,1,2513VA,Den Haag,Zuid-Holland,Nederland,0900-4466880,info@q-park.nl,
I-O,673,F,Laan,5,2512GM,Den Haag,Zuid-Holland,Nederland,0900-4466880,info@q-park.nl,
I-O,676,F,Zwarteweg,40,2511VS,Den Haag,Zuid-Holland,Nederland,0900-4466880,info@q-park.nl,
I-O,688,F,Karel Doormanstraat,10,3012GJ,Rotterdam,Zuid-Holland,Nederland,0900-4466880,info@q-park.nl,
I-O,757,F,Pletterstraat,41,8011VG,Zwolle,Overijssel,Nederland,0900-4466880,info@q-park.nl,
I-O,798,F,Eerste Tochtweg,10,2913LP,Nieuwerkerk aan de IJssel,,,,zuidholland@pzh.nl,
I-O,705,F,Maasboulevard,40,6211JW,Maastricht,Limburg,Nederland,0900-4466880,info@q-park.nl,
I-O,803,F,Damweg,3,3251LB,Stellendam,,,,zuidholland@pzh.nl,
I-O,692,F,Schimmelt,50,5611ZX,Eindhoven,Noord-Brabant,Nederland,0900-4466880,info@q-park.nl,
I-O,693,F,Ten Hagestraat,6,5611EG,Eindhoven,Noord-Brabant,Nederland,0900-4466880,info@q-park.nl,
I-O,670,F,Sint Mariewal,3,2801WS,Gouda,Zuid-Holland,Nederland,0900-4466880,info@q-park.nl,
I-O,769,F,Spaarnepoort,2,2134TM,Hoofddorp,Noord-Holland,Nederland,0900-4466880,info@q-park.nl,
I-O,666,F,Spaarnepoort,2,2134TM,Hoofddorp,Noord-Holland,Nederland,0900-4466880,info@q-park.nl,
I-O,661,F,Tesselschadestraat,1,1054ET,Amsterdam,Noord-Holland,Nederland,0900-4466880,info@q-park.nl,
GEB,2448,A,,0,,,,,,,
I-O,677,F,Rijswijkseweg,27,2516ED,Den Haag,Zuid-Holland,Nederland,0900-4466880,info@q-park.nl,
I-O,715,F,Laan van de Mensenrechten,500,7331VZ,Apeldoorn,Gelderland,Nederland,0900-4466880,info@q-park.nl,
I-O,760,F,Arnhemseweg,7,6711GP,Ede,Gelderland,Nederland,0900-4466880,info@q-park.nl,
I-O,728,F,Smalstraat,2,5701NX,Helmond,Noord-Brabant,Nederland,0900-4466880,info@q-park.nl,
I-O,724,F,Fuutlaan,12,5613AB,Eindhoven,Noord-Brabant,Nederland,0900-4466880,info@q-park.nl,
I-O,751,F,Roggestraat,145,7311CC,Apeldoorn,Gelderland,Nederland,0900-4466880,info@q-park.nl,
I-O,780,F,Laan,5,2512GM,Den Haag,Zuid-Holland,Nederland,0900-4466880,info@q-park.nl,
I-O,738,F,Veeladingstraat,18,6041HW,Roermond,Limburg,Nederland,0900-4466880,info@q-park.nl,
I-O,674,F,Kalvermarkt,32,2511CB,Den Haag,Zuid-Holland,Nederland,0900-4466880,info@q-park.nl,
I-O,793,F,Tegelpoort,2,5911DM,Venlo,Limburg,Nederland,0900-4466880,info@q-park.nl,
I-O,706,F,Sonnevillelunet,11,6221KT,Maastricht,Limburg,Nederland,0900-4466880,info@q-park.nl,
I-O,703,F,Duitsepoort,2,6221VA,Maastricht,Limburg,Nederland,0900-4466880,info@q-park.nl,
I-O,741,F,Proveniersplein,13,3033EB,Rotterdam,Zuid-Holland,Nederland,0900-4466880,info@q-park.nl,
I-O,658,F,Stadsplein,101,1181ZM,Amstelveen,Noord-Holland,Nederland,0900-4466880,info@q-park.nl,
I-O,687,F,Sint-Jobsweg,116,3024EJ,Rotterdam,Zuid-Holland,Nederland,0900-4466880,info@q-park.nl,
I-O,732,F,Maijweg,6,5211AA,s-Hertogenbosch,Noord-Brabant,Nederland,0900-4466880,info@q-park.nl,
I-O,522,F,Strjitwei,6,8522ML,Tjerkgaast,Friesland,Nederland,140514,noreply@De Fryske Marren.nl,
I-O,740,F,Stationsstraat,54,4701NC,Roosendaal,Noord-Brabant,Nederland,0900-4466880,info@q-park.nl,
I-O,678,F,Lutherse Burgwal,13,2512CB,Den Haag,Zuid-Holland,Nederland,0900-4466880,info@q-park.nl,
I-O,753,F,Twentestraat,10,3083BD,Rotterdam,Zuid-Holland,Nederland,0900-4466880,info@q-park.nl,
I-O,773,F,Koestraat,12,1441CV,Purmerend,Noord-Holland,Nederland,0900-4466880,info@q-park.nl,
I-O,645,F,Maagjesbolwerk,54,8011LL,Zwolle,Overijssel,Nederland,0900-4466880,info@q-park.nl,
I-O,647,F,Oranjerie,1,7311WB,Apeldoorn,Gelderland,Nederland,0900-4466880,info@q-park.nl,
I-O,752,F,Sallandweg,30,3083BC,Rotterdam,Zuid-Holland,Nederland,0900-4466880,info@q-park.nl,
I-O,747,F,Kleine Raamstraat,29,9711CG,Groningen,Groningen,Nederland,0900-4466880,info@q-park.nl,
I-O,714,F,Piet Mondriaanplein,0,3818LG,Amersfoort,Utrecht,Nederland,0900-4466880,info@q-park.nl,
I-O,697,F,Klompstraat,11,6411KR,Heerlen,Limburg,Nederland,0900-4466880,info@q-park.nl,
I-O,775,F,Lazarussteeg,0,2801WV,Gouda,Zuid-Holland,Nederland,0900-4466880,info@q-park.nl,
I-O,770,F,Spaarnepoort,2,2134TM,Hoofddorp,Noord-Holland,Nederland,0900-4466880,info@q-park.nl,
I-O,713,F,Dr. A.D. Sacharovlaan,0,2405ZW,Alphen aan den Rijn,Zuid-Holland,Nederland,0900-4466880,info@q-park.nl,
I-O,716,F,Stationsplein,0,9404RT,Assen,Drenthe,Nederland,0900-4466880,info@q-park.nl,
I-O,690,F,Prinses Beatrixlaan,969,2284BK,Rijswijk,Zuid-Holland,Nederland,0900-4466880,info@q-park.nl,
I-O,682,F,Kranestraat,16,2512AE,Den Haag,Zuid-Holland,Nederland,0900-4466880,info@q-park.nl,075868
I-O,723,F,Markettenweg,50,3314JE,Dordrecht,Zuid-Holland,Nederland,0900-4466880,info@q-park.nl,
I-O,660,F,Leeuwendalersweg,23,1055JE,Amsterdam,Noord-Holland,Nederland,0900-4466880,info@q-park.nl,
GEB,2448,P,Stationsplein,12,6221BT,Maastricht,,,,,
I-O,792,F,Achter de Oranjerie,1,6041JX,Roermond,Limburg,Nederland,0900-4466880,info@q-park.nl,
I-O,727,F,Roemer Visscherplein,0,2106AZ,Heemstede,,NL,088 329 5100,,
I-O,765,F,Bos en Lommerplein,200,1055EK,Amsterdam,Noord-Holland,Nederland,0900-4466880,info@q-park.nl,
I-O,691,F,Jan van Polanenkade,30,4811KM,Breda,Noord-Brabant,Nederland,0900-4466880,info@q-park.nl,
I-O,655,F,Sint Jacobsstraat,1,3511BR,Utrecht,Utrecht,Nederland,0900-4466880,info@q-park.nl,
I-O,788,F,Vrijthof,100,6211LE,Maastricht,Limburg,Nederland,0900-4466880,info@q-park.nl,
I-O,786,F,Maasboulevard,40,6211JW,Maastricht,Limburg,Nederland,0900-4466880,info@q-park.nl,
I-O,758,F,Maagjesbolwerk,54,8011LL,Zwolle,Overijssel,Nederland,0900-4466880,info@q-park.nl,
I-O,739,F,Spoorstraat,24,4702VK,Roosendaal,Noord-Brabant,Nederland,0900-4466880,info@q-park.nl,
I-O,640,F,Westerhaven,17,9718AC,Groningen,Groningen,Nederland,0900-4466880,info@q-park.nl,
I-O,665,F,Van Bleiswijkstraat,8,1051DG,Amsterdam,Noord-Holland,Nederland,0900-4466880,info@q-park.nl,
I-O,696,F,Stationstraat,28,6411NK,Heerlen,,NL,088 329 5100,,
I-O,707,F,Frontensingel,0,6211SC,Maastricht,,NL,088 329 5100,,
I-O,710,F,Achter de Oranjerie,1,6041JX,Roermond,Limburg,Nederland,0900-4466880,info@q-park.nl,
I-O,800,F,Dr. Stapenseastraat,0,2451AA,Leimuiden,,,,zuidholland@pzh.nl,
I-O,764,F,Stadsplein,89,1181ZM,Amstelveen,Noord-Holland,Nederland,0900-4466880,info@q-park.nl,
I-O,731,F,Magistratenlaan,260,5223MA,s-Hertogenbosch,Noord-Brabant,Nederland,0900-4466880,info@q-park.nl,
I-O,744,F,Spoorlaan,1,6301GB,Valkenburg,Limburg,Nederland,0900-4466880,info@q-park.nl,
I-O,704,F,Griend,4,6221AJ,Maastricht,Limburg,Nederland,0900-4466880,info@q-park.nl,
I-O,746,F,Stationsplein-Noord,0,3445AD,Woerden,Utrecht,Nederland,0900-4466880,info@q-park.nl,
I-O,734,F,Segeerssingel,6,4337LG,Middelburg,Zeeland,Nederland,0900-4466880,info@q-park.nl,
I-O,664,F,Leo Smitstraat,4,1082MP,Amsterdam,Noord-Holland,Nederland,0900-4466880,info@q-park.nl,
I-O,663,F,Nieuwezijds Voorburgwal,76,1012SE,Amsterdam,Noord-Holland,Nederland,0900-4466880,info@q-park.nl,
I-O,754,F,Weena-Zuid,174,3012NC,Rotterdam,Zuid-Holland,Nederland,0900-4466880,info@q-park.nl,
I-O,778,F,Muzenplein,135,2511GK,Den Haag,Zuid-Holland,Nederland,0900-4466880,info@q-park.nl,
I-O,644,F,Pletterstraat ,41,8011VG,Zwolle,Overijssel,Nederland,0900-4466880,info@q-park.nl,
I-O,785,F,Parallelweg,1,6411NA,Heerlen,Limburg,Nederland,0900-4466880,info@q-park.nl,
I-O,659,F,Beursplein,15,1012JW,Amsterdam,Noord-Holland,Nederland,0900-4466880,info@q-park.nl,
I-O,667,F,Groest,86,1211ED,Hilversum,Noord-Holland,Nederland,0900-4466880,info@q-park.nl,
I-O,708,F,Vrijthof,45,6211LE,Maastricht,Limburg,Nederland,0900-4466880,info@q-park.nl,
I-O,777,F,Wagenstraat,61,2512AP,Den Haag,Zuid-Holland,Nederland,0900-4466880,info@q-park.nl,
I-O,743,F,Geerweg,4,6135KC,Sittard,Limburg,Nederland,0900-4466880,info@q-park.nl,
I-O,671,F,Conventstraat,44,2801EW,Gouda,Zuid-Holland,Nederland,0900-4466880,info@q-park.nl,
I-O,781,F,Markendaalseweg,52,4811KC,Breda,Noord-Brabant,Nederland,0900-4466880,info@q-park.nl,
I-O,802,F,Het Hoge Heem,4,9951BW,Winsum,,,,gemeente@hethogeland.nl,
I-O,733,F,Stationsplein,12,8441AT,Heerenveen,Friesland,Nederland,0900-4466880,info@q-park.nl,
I-O,641,F,Boreelplein ,45,7411EH,Deventer,Overijssel,Nederland,0900-4466880,info@q-park.nl,
I-O,791,F,Vrijthof,20,6211LD,Maastricht,Limburg,Nederland,0900-4466880,info@q-park.nl,
I-O,806,F,Boulevard Zeezijde,13,2225AG,Katwijk,Zuid-Holland,Nederland,071-4065000,info@katwijk.nl,
I-O,832,F,Tol,13,4251PX,Werkendam,,,,info@gemeentealtena.nl,
I-O,812,F,Hellegatspolder,3,2172JZ,Sassenheim,,,,zuidholland@pzh.nl,
I-O,843,F,Wessemerdijk,0,,Kelpen-Oler,,,,,
I-O,826,F,Hyacintenlaan,0,2182DT,Hillegom,,,,zuidholland@pzh.nl,
I-O,837,F,Woldmeentherand,0,8332JZ,Steenwijk,,,,info@steenwijkerland.nl,
I-O,815,F,Krimpen aan de Lek,0,2931LB,Krimpen aan de Lek,,,,zuidholland@pzh.nl,
I-O,1964,F,Stephanuspark,1,7772HZ,Hardenberg,,,,gemeente@hardenberg.nl,
I-O,809,F,Engweg,0,3953BD,Maarsbergen,,,,,
I-O,1965,F,Burgemeester Bramerstraat,0,,Hardenberg,,,,gemeente@hardenberg.nl,
I-O,830,F,Tweede Bloksweg,0,,Waddinxveen,,,,zuidholland@pzh.nl,
I-O,1966,F,Parklaan,12,,Etten-Leur,,,,pg-ettenleur@parkeerbeheer.nl,
I-O,818,F,Plesmanlaan,102,2332CD,Leiden,,,,zuidholland@pzh.nl,
I-O,810,F,President Kennedylaan,0,6883AZ,Velp,,,,,
I-O,834,F,Graafsebaan,91,5248JT,Rosmalen,,,,,
I-O,838,F,Kaffebergseweg,9,6468AE,Kerkrade,,,,gemeentehuis@kerkrade.nl,
I-O,835,F,Parallelweg,0,4793AZ,Fijnaart,,,,info@moerdijk.nl,
I-O,829,F,Rondweg Oost,0,4651RC,Steenbergen,,,,info@gemeente-steenbergen.nl,
I-O,828,F,Domoweg,0,,Beilen,,,,gemeente@middendrenthe.nl,
I-O,821,F,van Harinxmaweg,0,,Garyp,,,,gemeente@t-diel.nl?,
I-O,813,F,Stationsweg,2,9953RG,Baflo,,,,gemeente@hethogeland.nl,
I-O,811,F,Weerbroek,3,6666ML,Heteren,,,,info@overbetuwe.nl,
I-O,1640,F,Groningerstraat,0,,De Punt,,,,noreply@tynaarlo.nl,
I-O,817,F,De Weeme N353,0,,Oldeberkoop,,,,gemeente@ooststellingwerf.nl,
I-O,2087,F,Kolenhaven,3339,1431LC,Aalsmeer,,,,info@aalsmeer.nl,
I-O,845,F,Garmingerstukken,10,9434TJ,Eursinge,,,,gemeente@middendrenthe.nl,
I-O,521,F,Tsjûkemarwei,0,8535,Sint Nicolaasga,Friesland,Nederland,140514,noreply@De Fryske Marren.nl,
I-O,823,F,Sint Joosterweg,5,6051HE,Maasbracht,,,,info@gemeentemaasgouw.nl,
I-O,1682,F,Groningerstraat,0,,De Punt,,,,noreply@tynaarlo.nl,
I-O,841,F,Butenskilwei,0,,Stiens,,,,,
I-O,819,F,Het Rister,11,8314RC,Bant,,,,info@noordoostpolder.nl,
I-O,833,F,Heereweg,0,9831TD,Aduard,,,,info@westerkwartier.nl,
I-O,840,F,Kalversteeg-N283,0,,Hank,,,,info@gemeentealtena.nl,
I-O,2101,F,Cuppenpedje,2,5961TM,Horst aan de Maas,,,,gemeente@horstaandemaas.nl,
I-O,2098,F,Gerrit van Assendelftstraat,32,1964NL,Heemskerk,,,,post@heemskerk.nl,
I-O,2113,F,Looierstraat,0,,Gulpen-Wittem,,,,info@gulpen-wittem.nl,
I-O,2107,F,,0,,Horst aan de Maas,,,,gemeente@horstaandemaas.nl,
I-O,2117,F,Ringweg,0,,Gulpen-Wittem,,,,info@gulpen-wittem.nl,
I-O,2114,F,Landsladerweg,0,6271NT,Gulpen-Wittem,,,,info@gulpen-wittem.nl,
I-O,2105,F,Torenstraat,0,5961TS,Horst aan de Maas,,,,gemeente@horstaandemaas.nl,
I-O,1473,F,Willem Naghelstraat,1,2612XD,Delft,,,,klantenservice@parkerendelft.com,
I-O,2119,F,,0,,Gulpen-Wittem,,,,info@gulpen-wittem.nl,
I-O,1972,F,Kromme Elleboog,2,,Meppel,,,,postbus@meppel.nl,
I-O,996,F,Industriestraat,94,5932CP,Tegelen,,,,info@venlo.nl,
I-O,2092,F,Bernhardplein,0,1782EH,Den Helder,,,,info@denhelder.nl,
I-O,1598,F,De Beerten,0,,Hilvarenbeek,,,,gemeente@hilvarenbeek.nl,
I-O,1589,F,Bonegraafseweg,0,,Dodewaard,,,,info@nederbetuwe.nl,
I-O,1599,F,Westelijke Schelderijnweg,0,4675RB,Rilland,,,,gemeente@reimerswaal.nl,
I-O,1560,F,Kloosterraderplein,0,6461CE,Kerkrade,Limburg,Nederland,,gemeentehuis@kerkrade.nl,
I-O,1607,F,Molenheide,0,,,,,,,
I-O,1603,F,Fliertweg,0,7384AN,Wilp,,,,gemeente@voorst.nl,
