FID,GML_ID,ID,CODE,NAAM,LAT,LON,ACTIEF,PLAATSNAAM,RDX,RDY,GEMEENTE,WIJK,PLAATS,HUISNUMMERS,POSTCODE,STRAAT,AANDUIDING,BOUWJAAR,LEVENSDUUR,VERVANGJAAR,FOTO,DD_BIJGEWERKT,GEOMETRIE
SPL_SPEELPLEKKEN.75877,Speelplekken.fid--26bbd5c6_18613012ba5_5255,75877,11.06,School de Hazensprong 2 sportplaats (MV),51.82555752,5.84607438,true,Nijmegen Midden,186633.89,426428.01,Nijmegen,11 Hazenkamp,Nijmegen Midden,4,6531VD,Pandastraat,Schoolplein de Hazensprong 2 Dingostraat,2007,15,2022,https://www.absweb.nu/Fotos/gemeentenijmegen/75877/JPEG_20220120_125710_8994415852827377885.jpg,2023-02-03,POINT (186633.89 426428.01)
SPL_SPEELPLEKKEN.75833,Speelplekken.fid--26bbd5c6_18613012ba5_5256,75833,12.06,Sportpark Vossendijk (van acomodaties),51.81612978,5.81455732,true,Nijmegen Midden,184467.33,425365.89,Nijmegen,12 Goffert,Nijmegen Midden,206,6534AP,Winkelsteegseweg,Oostkanaaldijk,1998,20,2018,https://www.absweb.nu/Fotos/gemeentenijmegen/75833/JPEG_20220621_075611_7963859138879684538.jpg,2023-02-03,POINT (184467.33 425365.89)
SPL_SPEELPLEKKEN.75793,Speelplekken.fid--26bbd5c6_18613012ba5_5257,75793,12.09,Jaap van Leeuwenlaan sportplaats Jeu de Boules,51.81774608,5.83660007,true,Nijmegen Midden,185986.12,425554.88,Nijmegen,12 Goffert,Nijmegen Midden,37,6532CP,Antoinette van Pixterenlaan,Jeu de Boulebaan in bossage bij appartem,2007,15,2022,https://www.absweb.nu/Fotos/gemeentenijmegen/75793/JPEG_20220621_103819_7918524475760632016.jpg,2023-02-03,POINT (185986.12 425554.88)
SPL_SPEELPLEKKEN.75623,Speelplekken.fid--26bbd5c6_18613012ba5_5258,75623,12.11,Toermalijnstraat deels sportplaats (EV),51.81081275,5.81718678,true,Nijmegen Midden,184652.13,424775.42,Nijmegen,12 Goffert,Nijmegen Midden,27,6534SH,Toermalijnstraat,Steegerpark,2008,15,2023,https://www.absweb.nu/Fotos/gemeentenijmegen/75623/JPEG_20220621_080828_6376841917197018890.jpg,2023-02-03,POINT (184652.13 424775.42)
SPL_SPEELPLEKKEN.75624,Speelplekken.fid--26bbd5c6_18613012ba5_5259,75624,12.10,Goffertpark sportplaats (EV),51.82871817,5.83332304,true,Nijmegen Midden,185752.68,426774.17,Nijmegen,12 Goffert,Nijmegen Midden,438,6532TP,Muntweg,Paralel aan Muntweg in het park,2009,10,2019,https://www.absweb.nu/Fotos/gemeentenijmegen/75624/JPEG_20220705_132157_49847510697320790.jpg,2023-02-03,POINT (185752.68 426774.17)
SPL_SPEELPLEKKEN.75625,Speelplekken.fid--26bbd5c6_18613012ba5_525a,75625,12.02,Marga Klompélaan,51.81433816,5.83085309,true,Nijmegen Midden,185592.18,425173.3,Nijmegen,12 Goffert,Nijmegen Midden,48,6532SB,Harriët Freezerlaan,Harriët Freezerlaan 88,2006,15,2021,https://www.absweb.nu/Fotos/gemeentenijmegen/75625/JPEG_20220621_101401_8486899319508383562.jpg,2023-02-03,POINT (185592.18 425173.3)
SPL_SPEELPLEKKEN.75627,Speelplekken.fid--26bbd5c6_18613012ba5_525c,75627,12.01,Joke Smitlaan,51.81535322,5.8324115,true,Nijmegen Midden,185698.95,425286.89,Nijmegen,12 Goffert,Nijmegen Midden,30,6532SJ,Joke Smitlaan,Achter huisnummer 32,2006,15,2021,https://www.absweb.nu/Fotos/gemeentenijmegen/75627/JPEG_20220621_102959_6610794062478383882.jpg,2023-02-03,POINT (185698.95 425286.89)
SPL_SPEELPLEKKEN.75628,Speelplekken.fid--26bbd5c6_18613012ba5_525d,75628,12.04,Kolpingstraat / Manningstraat,51.8289439,5.83119258,true,Nijmegen Midden,185605.66,426798.38,Nijmegen,12 Goffert,Nijmegen Midden,37,6532VT,Kolpingstraat,Hoek Manningstraat,2019,20,2039,https://www.absweb.nu/Fotos/gemeentenijmegen/75628/JPEG_20220705_131608_2668866908524886500.jpg,2023-02-03,POINT (185605.66 426798.38)
SPL_SPEELPLEKKEN.75629,Speelplekken.fid--26bbd5c6_18613012ba5_525e,75629,12.05,Leo XIII e straat deels sportplaats,51.82795852,5.82945323,true,Nijmegen Midden,185486.43,426688.03,Nijmegen,12 Goffert,Nijmegen Midden,11,6532WB,Leo XIII e straat,LEO Xlll e straat op pleintje,2019,20,2039,https://www.absweb.nu/Fotos/gemeentenijmegen/75629/JPEG_20220705_130653_7397151406433281996.jpg,2023-02-03,POINT (185486.43 426688.03)
SPL_SPEELPLEKKEN.75630,Speelplekken.fid--26bbd5c6_18613012ba5_525f,75630,12.08,Goffertweg sportplaats (MV),51.82789595,5.83747937,true,Nijmegen Midden,186039.75,426684.46,Nijmegen,12 Goffert,Nijmegen Midden,,6532AA,Goffertweg ,Goffertweg,2005,15,2020,https://www.absweb.nu/Fotos/gemeentenijmegen/75630/JPEG_20220711_142154_7231025897364635605.jpg,2023-02-03,POINT (186039.75 426684.46)
SPL_SPEELPLEKKEN.330927,Speelplekken.fid--26bbd5c6_18613012ba5_5260,330927,12.03,Engelstraat.,51.82749373,5.82826551,true,Nijmegen Midden,185404.87,426635.82,Nijmegen,12 Goffert,Nijmegen Midden,12,,Engelstraat,Engelstraat.,,0,,https://www.absweb.nu/Fotos/gemeentenijmegen/330927/JPEG_20220705_130509_5457238986260316493.jpg,2023-02-03,POINT (185404.87 426635.82)
SPL_SPEELPLEKKEN.75631,Speelplekken.fid--26bbd5c6_18613012ba5_5261,75631,13.05,Kastanjehof deels sportplaats (EV),51.82371967,5.8551122,true,Nijmegen Midden,187258.25,426227.51,Nijmegen,13 St. Anna,Nijmegen Midden,37,6533 BX,Kastanjehof,Kastanjehof,2005,15,2020,https://www.absweb.nu/Fotos/gemeentenijmegen/75631/JPEG_20220711_123806_3773856197602219619.jpg,2023-02-03,POINT (187258.25 426227.51)
SPL_SPEELPLEKKEN.75632,Speelplekken.fid--26bbd5c6_18613012ba5_5262,75632,13.06,Zebrastraat,51.82160372,5.84661867,true,Nijmegen Midden,186674.19,425988.37,Nijmegen,13 St. Anna,Nijmegen Midden,33,6531TW,Zebrastraat,Zebrastraat in groenvoorziening,2004,15,2019,https://www.absweb.nu/Fotos/gemeentenijmegen/75632/JPEG_20220711_133154_6404143390414120678.jpg,2023-02-03,POINT (186674.19 425988.37)
SPL_SPEELPLEKKEN.75864,Speelplekken.fid--26bbd5c6_18613012ba5_5263,75864,13.01,Kastanjelaan / Knollenpad deels sportplaats (EV),51.82473428,5.85439452,true,Nijmegen Midden,187208.05,426340.07,Nijmegen,13 St. Anna,Nijmegen Midden,56,6533BD,Kastanjelaan,Kastanjelaa Knollenpad,2007,10,2017,https://www.absweb.nu/Fotos/gemeentenijmegen/75864/JPEG_20220711_123254_8643702660929637384.jpg,2023-02-03,POINT (187208.05 426340.07)
SPL_SPEELPLEKKEN.75865,Speelplekken.fid--26bbd5c6_18613012ba5_5264,75865,13.03,Schoolplein de Akker deels sportplaats (EV),51.82258053,5.85368617,true,Nijmegen Midden,187160.75,426100.15,Nijmegen,13 St. Anna,Nijmegen Midden,30,6533BL,Akkerlaan,Akkerlaan,2007,10,2017,https://www.absweb.nu/Fotos/gemeentenijmegen/75865/JPEG_20221103_133128_4149567433174155951.jpg,2023-02-03,POINT (187160.75 426100.15)
SPL_SPEELPLEKKEN.75857,Speelplekken.fid--26bbd5c6_18613012ba5_5265,75857,13.02,St. Annamolen,51.82812272,5.8557967,true,Nijmegen Midden,187302.29,426717.67,Nijmegen,13 St. Anna,Nijmegen Midden,1,6531NJ,Vossenlaan,Vossenlaan / Hatertseweg,2008,10,2018,https://www.absweb.nu/Fotos/gemeentenijmegen/75857/JPEG_20220711_115820_8884140317360153481.jpg,2023-02-03,POINT (187302.29 426717.67)
SPL_SPEELPLEKKEN.75903,Speelplekken.fid--26bbd5c6_18613012ba5_5266,75903,13.04,Enkstraat,51.82034718,5.84888233,true,Nijmegen Midden,186831.14,425849.57,Nijmegen,13 St. Anna,Nijmegen Midden,2,6533CL,Enkstraat,Enkstraat 1,2008,15,2023,https://www.absweb.nu/Fotos/gemeentenijmegen/75903/JPEG_20220711_132253_5269289643656575143.jpg,2023-02-03,POINT (186831.14 425849.57)
SPL_SPEELPLEKKEN.75822,Speelplekken.fid--26bbd5c6_18613012ba5_5267,75822,14.02,Krekel- Heidebloemstraat JOP sportplaats (EV),51.81596452,5.84662368,true,Nijmegen Zuid,186678.5,425360.99,Nijmegen,14 Hatertse hei,Nijmegen Zuid,16,6533RS,Honingpot,Plantsoen Krekelstaat bij torenflat,2004,15,2019,https://www.absweb.nu/Fotos/gemeentenijmegen/75822/JPEG_20220712_093133_6824654089115190754.jpg,2023-02-03,POINT (186678.5 425360.99)
SPL_SPEELPLEKKEN.75633,Speelplekken.fid--26bbd5c6_18613012ba5_5268,75633,14.01,Heidebloem-Hommelstr.gedeetelijk sportplaats (EV),51.8162201,5.84697853,true,Nijmegen Zuid,186702.79,425389.58,Nijmegen,14 Hatertse hei,Nijmegen Zuid,9,6533RX,Honingpot,Hoek Heidebloemstraat.,1996,25,2021,https://www.absweb.nu/Fotos/gemeentenijmegen/75633/JPEG_20220712_093348_5947765550604117215.jpg,2023-02-03,POINT (186702.79 425389.58)
SPL_SPEELPLEKKEN.75634,Speelplekken.fid--26bbd5c6_18613012ba5_5269,75634,14.14,Libellenstraat deels sportplaats (EV),51.81786992,5.844622,true,Nijmegen Zuid,186539.15,425572.11,Nijmegen,14 Hatertse hei,Nijmegen Zuid,6,6533RR,Libellenstraat,Goudetorrenstraat,2008,15,2023,https://www.absweb.nu/Fotos/gemeentenijmegen/75634/JPEG_20220712_095049_6249564236100168272.jpg,2023-02-03,POINT (186539.15 425572.11)
SPL_SPEELPLEKKEN.406928,Speelplekken.fid--26bbd5c6_18613012ba5_51ff,406928,50.19,Lavinia Fontanahof,51.869299,5.852693,true,Lent,187059,431297.31,Nijmegen,,Lent,10,,Lavinia Fontanahof,Lavinia Fontanahof,2021,20,2041,https://www.absweb.nu/Fotos/gemeentenijmegen/406928/JPEG_20220718_094408_5685504265810997911.jpg,2023-02-03,POINT (187052.18 431287.27)
SPL_SPEELPLEKKEN.75575,Speelplekken.fid--26bbd5c6_18613012ba5_5201,75575,00.10,Spinthuisplaats,51.84806553,5.865806,true,Nijmegen Centrum,187977.66,428940.88,Nijmegen,00 Benedenstad,Nijmegen Centrum,24,6511VD,Spinthuisplaats,Binnenterrein 2 niveau's,2005,15,2020,https://www.absweb.nu/Fotos/gemeentenijmegen/75575/JPEG_20220706_084615_2915516634889769965.jpg,2023-02-03,POINT (187977.66 428940.88)
SPL_SPEELPLEKKEN.75576,Speelplekken.fid--26bbd5c6_18613012ba5_5202,75576,00.07,Muchterplaats,51.84820722,5.86664543,true,Nijmegen Centrum,188035.39,428957.02,Nijmegen,00 Benedenstad,Nijmegen Centrum,41,6511TX,Muchterplaats,Binnenterrein,2009,10,2019,https://www.absweb.nu/Fotos/gemeentenijmegen/75576/JPEG_20220706_082950_5248343617641037639.jpg,2023-02-03,POINT (188035.39 428957.02)
SPL_SPEELPLEKKEN.75577,Speelplekken.fid--26bbd5c6_18613012ba5_5203,75577,00.08,Karthuizerhof,51.84932903,5.8568181,true,Nijmegen Centrum,187357.45,429077.4,Nijmegen,00 Benedenstad,Nijmegen Centrum,4,6511ZD,Karthuizerhof,Voormalige veemarkt,2009,10,2019,https://www.absweb.nu/Fotos/gemeentenijmegen/75577/JPEG_20230102_095359_2451887377665646924.jpg,2023-02-03,POINT (187357.45 429077.4)
SPL_SPEELPLEKKEN.75578,Speelplekken.fid--26bbd5c6_18613012ba5_5204,75578,00.09,Vinkengas,51.849213,5.86214777,true,Nijmegen Centrum,187724.76,429066.88,Nijmegen,00 Benedenstad,Nijmegen Centrum,7,6511WC,Vinkengas,Oude Haven 112 achterkant,2005,15,2020,https://www.absweb.nu/Fotos/gemeentenijmegen/75578/JPEG_20220706_081119_4954902168337271073.jpg,2023-02-03,POINT (187724.76 429066.88)
SPL_SPEELPLEKKEN.75579,Speelplekken.fid--26bbd5c6_18613012ba5_5205,75579,00.11,Lutherseplaats,51.849404,5.864182,true,Nijmegen Centrum,187864.78,429089.05,Nijmegen,00 Benedenstad,Nijmegen Centrum,10,6511VN,Lutherseplaats,Ingang Vischmarkt,2007,15,2022,https://www.absweb.nu/Fotos/gemeentenijmegen/75579/JPEG_20220706_082045_1428018404279533782.jpg,2023-02-03,POINT (187864.78 429089.05)
SPL_SPEELPLEKKEN.75580,Speelplekken.fid--26bbd5c6_18613012ba5_5206,75580,00.12,Oude Haven sportplaats (MV),51.849787,5.861032,true,Nijmegen Centrum,187647.46,429130.24,Nijmegen,00 Benedenstad,Nijmegen Centrum,88,6511XE,Oude Haven,Achter keermuur ,2010,15,2025,https://www.absweb.nu/Fotos/gemeentenijmegen/75580/JPEG_20220706_072021_8906457026115955216.jpg,2023-02-03,POINT (187647.46 429130.24)
SPL_SPEELPLEKKEN.75571,Speelplekken.fid--26bbd5c6_18613012ba5_5207,75571,00.05,Kloosterhof,51.848848,5.859257,true,Nijmegen Centrum,187525.84,429024.98,Nijmegen,00 Benedenstad,Nijmegen Centrum,13,6511WZ,Kloosterhof,Ingang Observantenplaats,2009,10,2019,https://www.absweb.nu/Fotos/gemeentenijmegen/75571/JPEG_20220706_071323_7338341712552396500.jpg,2023-02-03,POINT (187525.84 429024.98)
SPL_SPEELPLEKKEN.75804,Speelplekken.fid--26bbd5c6_18613012ba5_5208,75804,00.13,Eiermarkt sportplaats (EV),51.847454,5.866844,true,Nijmegen Centrum,188049.63,428873.31,Nijmegen,00 Benedenstad,Nijmegen Centrum,14,6511TL,Eiermarkt,Dak Parkeergarage,2003,20,2023,https://www.absweb.nu/Fotos/gemeentenijmegen/75804/JPEG_20220706_084117_7094771348672205868.jpg,2023-02-03,POINT (188049.63 428873.31)
SPL_SPEELPLEKKEN.75859,Speelplekken.fid--26bbd5c6_18613012ba5_5209,75859,00.00,Papengas zwembadje sportplaats (EV),51.848434,5.860041,true,Nijmegen Centrum,187580.16,428979.27,Nijmegen,00 Benedenstad,Nijmegen Centrum,10,6511WT,Papengas,Oude Weeshuis,2006,12,2018,https://www.absweb.nu/Fotos/gemeentenijmegen/75859/JPEG_20220706_071156_9049733220663182103.jpg,2023-02-03,POINT (187580.16 428979.27)
SPL_SPEELPLEKKEN.75572,Speelplekken.fid--26bbd5c6_18613012ba5_520a,75572,01.02,Kronenburgerpark,51.845756,5.858543,true,Nijmegen Centrum,187478.88,428680.66,Nijmegen,01 Centrum,Nijmegen Centrum,,6511BE,Kronenburgerpark,Naast dierenweide,2006,20,2026,https://www.absweb.nu/Fotos/gemeentenijmegen/75572/JPEG_20220706_065546_3958044268756905328.jpg,2023-02-03,POINT (187478.88 428680.66)
SPL_SPEELPLEKKEN.189667,Speelplekken.fid--26bbd5c6_18613012ba5_520b,189667,01.13,Gedeputeerdenplaats Stadhuis informatietafel,51.84694345,5.86561922,true,Nijmegen Centrum,187965.61,428815.95,Nijmegen,01 Centrum,Nijmegen Centrum,,,Burgstraat,,,0,,https://www.absweb.nu/Fotos/gemeentenijmegen/189667/3.JPG,2023-02-03,POINT (187965.61 428815.95)
SPL_SPEELPLEKKEN.166146,Speelplekken.fid--26bbd5c6_18613012ba5_520c,166146,01.02,Hunnerpark,51.8469057,5.8730574,true,Nijmegen Centrum,188478.17,428815.15,Nijmegen,01 Centrum,Nijmegen Centrum,,,Hunnerpark,,,0,,,2023-02-03,POINT (188478.17 428815.15)
SPL_SPEELPLEKKEN.75573,Speelplekken.fid--26bbd5c6_18613012ba5_520d,75573,02.11,Ir. Weverstraat Sportplaats (EV),51.83416443,5.85745067,true,Nijmegen Oost,187411.95,427390.57,Nijmegen,02 Bottendaal,Nijmegen Oost,2,6512JS,Ir. Weverstraat,Semmelinckstraat,2008,15,2023,https://www.absweb.nu/Fotos/gemeentenijmegen/75573/JPEG_20220621_135638_4846972506784723918.jpg,2023-02-03,POINT (187411.95 427390.57)
SPL_SPEELPLEKKEN.75790,Speelplekken.fid--26bbd5c6_18613012ba5_520e,75790,02.12,Stephanustuin / het Kraaiennest Stichting,51.83707815,5.85487615,true,Nijmegen Oost,187232.42,427713.59,Nijmegen,02 Bottendaal,Nijmegen Oost,94,6512HX,St. Stephanusstraat,St. Stephanusstraat ,2005,15,2020,https://www.absweb.nu/Fotos/gemeentenijmegen/75790/JPEG_20221005_073129_5090105657370010062.jpg,2023-02-03,POINT (187232.42 427713.59)
SPL_SPEELPLEKKEN.75581,Speelplekken.fid--26bbd5c6_18613012ba5_520f,75581,02.01,Dulckenstraat van,51.83893335,5.85786642,true,Nijmegen Oost,187437.17,427921.31,Nijmegen,02 Bottendaal,Nijmegen Oost,29,6512DS,van Dulckenstraat ,van Dulckenstraat 29 binnenterrein,2004,14,2018,https://www.absweb.nu/Fotos/gemeentenijmegen/75581/JPEG_20220621_144058_6304082234489583630.jpg,2023-02-03,POINT (187437.17 427921.31)
SPL_SPEELPLEKKEN.75582,Speelplekken.fid--26bbd5c6_18613012ba5_5210,75582,02.02,Willem Barentzstraat,51.83724925,5.85712287,true,Nijmegen Oost,187387.14,427733.62,Nijmegen,02 Bottendaal,Nijmegen Oost,15,6512HN,Willem Barentzstraat,Ingang Stephanusstraat,2004,14,2018,https://www.absweb.nu/Fotos/gemeentenijmegen/75582/JPEG_20220621_142922_6585252785621022786.jpg,2023-02-03,POINT (187387.14 427733.62)
SPL_SPEELPLEKKEN.75583,Speelplekken.fid--26bbd5c6_18613012ba5_5211,75583,02.04,Karel Doormanstraat 1,51.83580912,5.85705082,true,Nijmegen Oost,187383.21,427573.37,Nijmegen,02 Bottendaal,Nijmegen Oost,1,6512JJ,Karel Doormanstraat,Achter huisnummer 1,2009,10,2019,https://www.absweb.nu/Fotos/gemeentenijmegen/75583/JPEG_20220621_140511_8968581252896674705.jpg,2023-02-03,POINT (187383.21 427573.37)
SPL_SPEELPLEKKEN.75585,Speelplekken.fid--26bbd5c6_18613012ba5_5213,75585,02.06,Willem Barentzstraat 14,51.83775673,5.85729433,true,Nijmegen Oost,187398.59,427790.16,Nijmegen,02 Bottendaal,Nijmegen Oost,14,6512GA,Willem Barentzstraat,Achter huisnummer 14 ,2004,20,2024,https://www.absweb.nu/Fotos/gemeentenijmegen/75585/JPEG_20220621_143538_5354979201537714883.jpg,2023-02-03,POINT (187398.59 427790.16)
SPL_SPEELPLEKKEN.75586,Speelplekken.fid--26bbd5c6_18613012ba5_5214,75586,02.09,Karel Doormanstraat 2,51.8364045,5.8572137,true,Nijmegen Oost,187394.01,427639.68,Nijmegen,02 Bottendaal,Nijmegen Oost,2,6512JJ,Karel Doormanstraat,Achter huisnummer 2,2004,20,2024,https://www.absweb.nu/Fotos/gemeentenijmegen/75586/JPEG_20220621_140948_6628769647939033606.jpg,2023-02-03,POINT (187394.01 427639.68)
SPL_SPEELPLEKKEN.75587,Speelplekken.fid--26bbd5c6_18613012ba5_5215,75587,03.04,Palembangstraat deels sportplaats (EV),51.83515545,5.86555013,true,Nijmegen Oost,187969.48,427504.47,Nijmegen,03 Galgenveld,Nijmegen Oost,22,6524LD,Palembangstraat,Palembangstraat / Atjehstraat,2004,20,2024,https://www.absweb.nu/Fotos/gemeentenijmegen/75587/JPEG_20220629_144122_4737249335587981489.jpg,2023-02-03,POINT (187969.48 427504.47)
SPL_SPEELPLEKKEN.75588,Speelplekken.fid--26bbd5c6_18613012ba5_5216,75588,03.05,Prof. de Langen Wendelsstraat,51.8328086,5.8682587,true,Nijmegen Oost,188157.89,427244.6,Nijmegen,03 Galgenveld,Nijmegen Oost,1,6524PZ,Professor de Langen Wendelsstraat,Wendelsstraat,2006,18,2024,https://www.absweb.nu/Fotos/gemeentenijmegen/75588/JPEG_20220623_143048_1901752517170500641.jpg,2023-02-03,POINT (188157.89 427244.6)
SPL_SPEELPLEKKEN.75850,Speelplekken.fid--26bbd5c6_18613012ba5_5217,75850,03.02,Oude Groenewoudseweg,51.83173407,5.8607776,true,Nijmegen Oost,187643.02,427121.67,Nijmegen,03 Galgenveld,Nijmegen Oost,276,6524WZ,Oude Groenewoudseweg,Langs spoorlijn,2006,15,2021,https://www.absweb.nu/Fotos/gemeentenijmegen/75850/JPEG_20230126_085417_5778898809532689197.jpg,2023-02-03,POINT (187643.02 427121.67)
SPL_SPEELPLEKKEN.75846,Speelplekken.fid--26bbd5c6_18613012ba5_5218,75846,03.01,Klein Heijendaal basisschool,51.83111182,5.86931203,true,Nijmegen Oost,188231.75,427056.31,Nijmegen,03 Galgenveld,Nijmegen Oost,1-3,6524NP,Prof. Huijbersstraat,Klein Heijendaal schoolplein,2006,15,2021,https://www.absweb.nu/Fotos/gemeentenijmegen/75846/JPEG_20220623_140705_1296039630517067150.jpg,2023-02-03,POINT (188231.75 427056.31)
SPL_SPEELPLEKKEN.75891,Speelplekken.fid--26bbd5c6_18613012ba5_5219,75891,03.03,Montessorischool deels sportplaats (MV),51.83478753,5.8691466,true,Nijmegen Oost,188217.63,427465.17,Nijmegen,03 Galgenveld,Nijmegen Oost,6,6524SL,Heijendaalseweg,Heijendaalseweg 6,2008,10,2018,https://www.absweb.nu/Fotos/gemeentenijmegen/75891/JPEG_20220121_133431_1997821107531296896.jpg,2023-02-03,POINT (188217.63 427465.17)
SPL_SPEELPLEKKEN.75901,Speelplekken.fid--26bbd5c6_18613012ba5_521a,75901,03.06,Javaplein Jeu de boulesbaan,51.83257588,5.8610753,true,Nijmegen Oost,187662.93,427215.46,Nijmegen,03 Galgenveld,Nijmegen Oost,10,6524MP,Javaplein,Javaplein,2008,10,2018,https://www.absweb.nu/Fotos/gemeentenijmegen/75901/JPEG_20220712_134009_4508310941713368347.jpg,2023-02-03,POINT (187662.93 427215.46)
SPL_SPEELPLEKKEN.112180,Speelplekken.fid--26bbd5c6_18613012ba5_521b,112180,03.07,Molukkenstraat Jeu de Boulesbaan,51.83349963,5.86507237,true,Nijmegen Oost,187937.76,427320.03,Nijmegen,03 Galgenveld,Nijmegen Oost,3,6524NN,Molukkenstraat,Achter appartementen bij vijver,2017,20,2037,https://www.absweb.nu/Fotos/gemeentenijmegen/112180/JPEG_20220712_133536_8480586734364152366.jpg,2023-02-03,POINT (187937.76 427320.03)
SPL_SPEELPLEKKEN.75892,Speelplekken.fid--26bbd5c6_18613012ba5_521c,75892,04.16,Daalseweg,51.83512252,5.87944767,true,Nijmegen Oost,188927.37,427507.2,Nijmegen,04 Altrade,Nijmegen Oost,366,6523CB,Daalseweg,Daalseweg,2008,10,2018,https://www.absweb.nu/Fotos/gemeentenijmegen/75892/JPEG_20220623_082741_9095021635995980808.jpg,2023-02-03,POINT (188927.37 427507.2)
SPL_SPEELPLEKKEN.75843,Speelplekken.fid--26bbd5c6_18613012ba5_521d,75843,04.07,Hobbemaplein sportplaats (EV),51.839157,5.8751877,true,Nijmegen Oost,188630.75,427954.07,Nijmegen,04 Altrade,Nijmegen Oost,14,6521LJ,Hobbemastraat,Hobbemaplein,2005,15,2020,https://www.absweb.nu/Fotos/gemeentenijmegen/75843/JPEG_20220713_100820_3997697327465079353.jpg,2023-02-03,POINT (188630.75 427954.07)
SPL_SPEELPLEKKEN.75825,Speelplekken.fid--26bbd5c6_18613012ba5_521e,75825,04.02,Truus Mastpark (EV),51.83681595,5.87389567,true,Nijmegen Oost,188543.45,427693.02,Nijmegen,04 Altrade,Nijmegen Oost,40,6521EH,Bachstraat,Bachstraat op terrein voormalig zwembad,2005,15,2020,https://www.absweb.nu/Fotos/gemeentenijmegen/75825/JPEG_20220713_083819_5143476313979845139.jpg,2023-02-03,POINT (188543.45 427693.02)
SPL_SPEELPLEKKEN.75826,Speelplekken.fid--26bbd5c6_18613012ba5_521f,75826,04.03,Julianapark skatepark sportplaats (EV),51.83827482,5.86884323,true,Nijmegen Oost,188194.15,427853.01,Nijmegen,04 Altrade,Nijmegen Oost,5,6521AD,Julianapark,Julianapark,2004,15,2019,https://www.absweb.nu/Fotos/gemeentenijmegen/75826/JPEG_20220713_085740_5290350258446093724.jpg,2023-02-03,POINT (188194.15 427853.01)
SPL_SPEELPLEKKEN.75829,Speelplekken.fid--26bbd5c6_18613012ba5_5220,75829,04.06,Beijensstraat sportplaats (EV) Jeu de Boules,51.8400796,5.87196253,true,Nijmegen Oost,188407.79,428055.22,Nijmegen,04 Altrade,Nijmegen Oost,53,6521EB,Beijensstraat,Ingang Daalseweg 100,2005,20,2025,https://www.absweb.nu/Fotos/gemeentenijmegen/75829/JPEG_20220713_093642_234143757094023843.jpg,2023-02-03,POINT (188407.79 428055.22)
SPL_SPEELPLEKKEN.75799,Speelplekken.fid--26bbd5c6_18613012ba5_5221,75799,04.08,Gorisstraat sportplaats (EV),51.83710133,5.87043072,true,Nijmegen Oost,188304.43,427723.18,Nijmegen,04 Altrade,Nijmegen Oost,46,6521CK,Gorisstraat,Pingpong plaats,2005,15,2020,https://www.absweb.nu/Fotos/gemeentenijmegen/75799/JPEG_20220713_085437_7679455576089036332.jpg,2023-02-03,POINT (188304.43 427723.18)
SPL_SPEELPLEKKEN.75805,Speelplekken.fid--26bbd5c6_18613012ba5_5222,75805,04.14,Jozef Israelstraat,51.83850975,5.8798892,true,Nijmegen Oost,188955.25,427884.25,Nijmegen,04 Altrade,Nijmegen Oost,12,6521MS,Jozef Israelstraat,Jozef Israelstraat,2003,15,2018,https://www.absweb.nu/Fotos/gemeentenijmegen/75805/JPEG_20230116_110937_2107170261501364897.jpg,2023-02-03,POINT (188955.25 427884.25)
SPL_SPEELPLEKKEN.75589,Speelplekken.fid--26bbd5c6_18613012ba5_5223,75589,04.01,"Daalseweg, bij kerkhof",51.83973683,5.87270878,true,Nijmegen Oost,188459.47,428017.43,Nijmegen,04 Altrade,Nijmegen Oost,108 A,6521GP,Daalseweg,"Daalseweg,bij kerkhof",2021,10,2031,https://www.absweb.nu/Fotos/gemeentenijmegen/75589/JPEG_20220713_093904_7681924726872389804.jpg,2023-02-03,POINT (188459.47 428017.43)
SPL_SPEELPLEKKEN.75591,Speelplekken.fid--26bbd5c6_18613012ba5_5224,75591,04.10,Poeyenstraat,51.840843,5.87272882,true,Nijmegen Oost,188460.03,428140.51,Nijmegen,04 Altrade,Nijmegen Oost,8,6521GW,Poeyenstraat,Naast huisnummer 8 ingang Daalsehof,2004,15,2019,https://www.absweb.nu/Fotos/gemeentenijmegen/75591/JPEG_20220713_094453_1230325278066136242.jpg,2023-02-03,POINT (188460.03 428140.51)
SPL_SPEELPLEKKEN.75592,Speelplekken.fid--26bbd5c6_18613012ba5_5225,75592,04.04,Stenenkruisstraat/ park,51.84066335,5.86846417,true,Nijmegen Oost,188166.27,428118.57,Nijmegen,04 Altrade,Nijmegen Oost,13,6521AC,Stenenkruisstraat/ park,Stenenkruisstraat/park,2005,15,2020,https://www.absweb.nu/Fotos/gemeentenijmegen/75592/JPEG_20220713_092530_5896917574603937147.jpg,2023-02-03,POINT (188166.27 428118.57)
SPL_SPEELPLEKKEN.75593,Speelplekken.fid--26bbd5c6_18613012ba5_5226,75593,04.05,Fort kijk in de Potstraat,51.83867245,5.86863058,true,Nijmegen Oost,188179.2,427897.15,Nijmegen,04 Altrade,Nijmegen Oost,118,6524BE,Fort kijk in de Potstraat,Julianapark,2005,20,2025,https://www.absweb.nu/Fotos/gemeentenijmegen/75593/JPEG_20220713_091023_4402830426451850309.jpg,2023-02-03,POINT (188179.2 427897.15)
SPL_SPEELPLEKKEN.75594,Speelplekken.fid--26bbd5c6_18613012ba5_5227,75594,04.12,van Heutszstraat,51.83575102,5.87217612,true,Nijmegen Oost,188425.72,427573.75,Nijmegen,04 Altrade,Nijmegen Oost,49,6521CT,van Heutszstraat,van Heutszstraat,2005,20,2025,https://www.absweb.nu/Fotos/gemeentenijmegen/75594/JPEG_20220713_084755_4358135225574173454.jpg,2023-02-03,POINT (188425.72 427573.75)
SPL_SPEELPLEKKEN.75595,Speelplekken.fid--26bbd5c6_18613012ba5_5228,75595,05.02,Klokkenberg sportplaats (EV),51.83745843,5.89133268,true,Nijmegen Oost,189744.72,427772.69,Nijmegen,05 Hunnerberg,Nijmegen Oost,7,6522JL,Kopseweg,Voor school in groenvoorziening,2008,10,2018,https://www.absweb.nu/Fotos/gemeentenijmegen/75595/JPEG_20220713_080632_293536883775380636.jpg,2023-02-03,POINT (189744.72 427772.69)
SPL_SPEELPLEKKEN.75597,Speelplekken.fid--26bbd5c6_18613012ba5_522a,75597,05.06,Kruisweg Kopsehof deels sportplaats (Jeu de Boules),51.83489887,5.89128717,true,Nijmegen Oost,189743.56,427487.91,Nijmegen,05 Hunnerberg,Nijmegen Oost,35,6522CH,Caesarstraat,Kruisweg kopsehof,2005,15,2020,https://www.absweb.nu/Fotos/gemeentenijmegen/75597/JPEG_20220713_075636_8413960750064076889.jpg,2023-02-03,POINT (189743.56 427487.91)
SPL_SPEELPLEKKEN.428859,Speelplekken.fid--26bbd5c6_18613012ba5_522b,428859,05.01,Reinaldstraat,51.84470563,5.87605275,true,Nijmegen Oost,188686.21,428571.77,Nijmegen,05 Hunnerberg,Nijmegen Oost,1,,Reinaldstraat,Reinaldstraat,2021,20,2041,https://www.absweb.nu/Fotos/gemeentenijmegen/428859/JPEG_20220712_141321_3049757463922949428.jpg,2023-02-03,POINT (188686.21 428571.77)
SPL_SPEELPLEKKEN.75598,Speelplekken.fid--26bbd5c6_18613012ba5_522c,75598,06.16,Eikstraat,51.83750617,5.88867692,true,Nijmegen Oost,189561.65,427776.73,Nijmegen,06 Hengstdal,Nijmegen Oost,6,6522JL,Eikstraat,Eikstraat,2001,20,2021,https://www.absweb.nu/Fotos/gemeentenijmegen/75598/JPEG_20220623_070006_900257792423050959.jpg,2023-02-03,POINT (189561.65 427776.73)
SPL_SPEELPLEKKEN.75599,Speelplekken.fid--26bbd5c6_18613012ba5_522d,75599,06.15,Dunklerstraat / Wachterslaan,51.83367532,5.87669602,true,Nijmegen Oost,188738.8,427344.91,Nijmegen,06 Hengstdal,Nijmegen Oost,7,6523RV,Dunklerstraat,Dunklerstraat / Wachterslaan,2009,10,2019,https://www.absweb.nu/Fotos/gemeentenijmegen/75599/JPEG_20230112_095509_7945093014845345621.jpg,2023-02-03,POINT (188738.8 427344.91)
SPL_SPEELPLEKKEN.75600,Speelplekken.fid--26bbd5c6_18613012ba5_522e,75600,06.02,Pijnboomstraat deels sportplaats (MV),51.83520107,5.8855208,true,Nijmegen Oost,189345.89,427518.79,Nijmegen,06 Hengstdal,Nijmegen Oost,5,6523DS,Pijnboomstraat,Sleutel Pijnboomstraat 1,2006,14,2020,https://www.absweb.nu/Fotos/gemeentenijmegen/75600/25.jpg,2023-02-03,POINT (189345.89 427518.79)
SPL_SPEELPLEKKEN.75601,Speelplekken.fid--26bbd5c6_18613012ba5_522f,75601,06.04,Beukstraat / Hengstdalseweg deels sportplaats,51.833075,5.89076282,true,Nijmegen Oost,189708.83,427284.75,Nijmegen,06 Hengstdal,Nijmegen Oost,177,6523EG,Hengstdalseweg,Tegen over 177 Hengstdalseweg,2006,14,2020,https://www.absweb.nu/Fotos/gemeentenijmegen/75601/JPEG_20211222_140405_19139510312984233.jpg,2023-02-03,POINT (189708.83 427284.75)
SPL_SPEELPLEKKEN.75602,Speelplekken.fid--26bbd5c6_18613012ba5_5230,75602,06.05,Dommerplein,51.83400612,5.88123568,true,Nijmegen Oost,189051.45,427383.83,Nijmegen,06 Hengstdal,Nijmegen Oost,112,6523DC,Dommer van Polderveldweg,Poldersveldweg t.o.winkel,2007,15,2022,https://www.absweb.nu/Fotos/gemeentenijmegen/75602/JPEG_20220623_081826_8212303796055625615.jpg,2023-02-03,POINT (189051.45 427383.83)
SPL_SPEELPLEKKEN.75603,Speelplekken.fid--26bbd5c6_18613012ba5_5231,75603,06.06,Acaciastraat deels sportplaats (EV),51.83451075,5.88332025,true,Nijmegen Oost,189194.75,427440.95,Nijmegen,06 Hengstdal,Nijmegen Oost,63,6523BE,Acaciastraat,Speelgedeelte,2007,20,2027,https://www.absweb.nu/Fotos/gemeentenijmegen/75603/JPEG_20220623_080112_7001209930927172550.jpg,2023-02-03,POINT (189194.75 427440.95)
SPL_SPEELPLEKKEN.75816,Speelplekken.fid--26bbd5c6_18613012ba5_5234,75816,06.01,Esdoornplein sportplaats (MV),51.83729853,5.88679975,true,Nijmegen Oost,189432.44,427752.74,Nijmegen,06 Hengstdal,Nijmegen Oost,16,6522HM,Esdoornplein,Sportplaats,2004,15,2019,https://www.absweb.nu/Fotos/gemeentenijmegen/75816/JPEG_20220623_073936_5194072461413254529.jpg,2023-02-03,POINT (189432.44 427752.74)
SPL_SPEELPLEKKEN.75853,Speelplekken.fid--26bbd5c6_18613012ba5_5235,75853,06.07,Gelderselaan (Limos) deels sportplaats Jeu de Boulesbaan,51.83166568,5.87605712,true,Nijmegen Oost,188696.27,427121.04,Nijmegen,06 Hengstdal,Nijmegen Oost,70,6523RL,Gelderselaan,Gelderselaan Limos,2006,20,2026,https://www.absweb.nu/Fotos/gemeentenijmegen/75853/JPEG_20220623_085230_6776519471863296443.jpg,2023-02-03,POINT (188696.27 427121.04)
SPL_SPEELPLEKKEN.75908,Speelplekken.fid--26bbd5c6_18613012ba5_5236,75908,06.03,Verhulststraat (Limos) sportplaats (EV),51.83392363,5.87422388,true,Nijmegen Oost,188568.22,427371.39,Nijmegen,06 Hengstdal,Nijmegen Oost,16,6523AA,Verhulststraat,Verhulststraat Limosterrein,2009,10,2019,https://www.absweb.nu/Fotos/gemeentenijmegen/75908/JPEG_20220623_084538_913007939594470221.jpg,2023-02-03,POINT (188568.22 427371.39)
SPL_SPEELPLEKKEN.75917,Speelplekken.fid--26bbd5c6_18613012ba5_5237,75917,07.03,Leemkuil de Stedelijke speeltuin,51.82652834,5.8911031,true,Nijmegen Oost,189737.33,426556.57,Nijmegen,07 Kwakkenberg,Nijmegen Oost,2,6523NK,Luciaweg,Luciaweg,2009,10,2019,https://www.absweb.nu/Fotos/gemeentenijmegen/75917/JPEG_20221103_101405_9106207924732617002.jpg,2023-02-03,POINT (189737.33 426556.57)
SPL_SPEELPLEKKEN.75851,Speelplekken.fid--26bbd5c6_18613012ba5_5238,75851,07.02,Herman Oolbekkinkstraat sportplaats,51.82991292,5.87616158,true,Nijmegen Oost,188704.78,426926.08,Nijmegen,07 Kwakkenberg,Nijmegen Oost,4,6523RA,Herman Oolbekkinkstraat,Herman Oolbekkinkstraat sportplaats,2006,15,2021,https://www.absweb.nu/Fotos/gemeentenijmegen/75851/JPEG_20220623_090107_7460162557454413014.jpg,2023-02-03,POINT (188704.78 426926.08)
SPL_SPEELPLEKKEN.75606,Speelplekken.fid--26bbd5c6_18613012ba5_5239,75606,07.01,Bart Hendriksstraat,51.82916123,5.87810853,true,Nijmegen Oost,188839.55,426843.36,Nijmegen,07 Kwakkenberg,Nijmegen Oost,9,6523RE,Bart Hendriksstraat,Bart Hendriksstraat,2010,10,2020,https://www.absweb.nu/Fotos/gemeentenijmegen/75606/JPEG_20221004_084959_6081287849094174742.jpg,2023-02-03,POINT (188839.55 426843.36)
SPL_SPEELPLEKKEN.379755,Speelplekken.fid--26bbd5c6_18613012ba5_523a,379755,07.04,Montessori College Nijmegen,51.83028494,5.88931301,true,Nijmegen Oost,189611.04,426973.65,Nijmegen,07 Kwakkenberg,Nijmegen Oost,27,,Kwakkenbergweg,Montessori College Nijmegen,2021,10,2031,https://www.absweb.nu/Fotos/gemeentenijmegen/379755/JPEG_20220713_065511_2515267098654232032.jpg,2023-02-03,POINT (189611.04 426973.65)
SPL_SPEELPLEKKEN.75607,Speelplekken.fid--26bbd5c6_18613012ba5_523b,75607,08.01,Van Haapsstraat,51.8228032,5.8764824,true,Nijmegen Centrum,188732.22,426135.25,Nijmegen,08 Groenewoud,Nijmegen Centrum,41,6525CA,Van Haapsstraat,Ingang tussen huisnummer 41 en 43.,2003,15,2018,https://www.absweb.nu/Fotos/gemeentenijmegen/75607/JPEG_20220712_121503_514013273376020142.jpg,2023-02-03,POINT (188732.22 426135.25)
SPL_SPEELPLEKKEN.75801,Speelplekken.fid--26bbd5c6_18613012ba5_523c,75801,08.02,Valkenburgseweg / van Haapstraat deels sport (EV) Jeu de Boules,51.82419652,5.87590153,true,Nijmegen Centrum,188691.13,426289.99,Nijmegen,08 Groenewoud,Nijmegen Centrum,31,6525BZ,van den Boenhoffstraat,Tegen over huisnummer 31.,2003,15,2018,https://www.absweb.nu/Fotos/gemeentenijmegen/75801/JPEG_20220712_120111_1046935964987359634.jpg,2023-02-03,POINT (188691.13 426289.99)
SPL_SPEELPLEKKEN.75868,Speelplekken.fid--26bbd5c6_18613012ba5_523d,75868,08.03,sv Orion,51.8188509,5.87924957,true,Nijmegen Centrum,188925.97,425696.83,Nijmegen,08 Groenewoud,Nijmegen Centrum,140,6525DX,Nijmeegsebaan,Groesbeekseweg,2007,10,2017,https://www.absweb.nu/Fotos/gemeentenijmegen/75868/JPEG_20220712_114011_8198989103189973405.jpg,2023-02-03,POINT (188925.97 425696.83)
SPL_SPEELPLEKKEN.75914,Speelplekken.fid--26bbd5c6_18613012ba5_523e,75914,10.03,Brederostraat,51.8319201,5.85131687,true,Nijmegen Midden,186990.77,427138.16,Nijmegen,10 Nijeveld,Nijmegen Midden,84,6531CH,Brederostraat,Brederostraat,2010,10,2020,https://www.absweb.nu/Fotos/gemeentenijmegen/75914/JPEG_20220711_103958_9161814991361856781.jpg,2023-02-03,POINT (186990.77 427138.16)
SPL_SPEELPLEKKEN.75941,Speelplekken.fid--26bbd5c6_18613012ba5_523f,75941,10.04,Spieghellhof,51.83401608,5.8507619,true,Nijmegen Midden,186951.03,427371.1,Nijmegen,10 Nijeveld,Nijmegen Midden,24,6531BM,Spieghelhof,Spieghelhof,2015,15,2030,https://www.absweb.nu/Fotos/gemeentenijmegen/75941/JPEG_20220628_131400_8627335222532380713.jpg,2023-02-03,POINT (186951.03 427371.1)
SPL_SPEELPLEKKEN.75942,Speelplekken.fid--26bbd5c6_18613012ba5_5240,75942,10.10,Thijmstraat waterspeelplaats,51.83289907,5.85376615,true,Nijmegen Midden,187158.9,427248.16,Nijmegen,10 Nijeveld,Nijmegen Midden,67,6531AA,Thijmstraat,Parkje hoek Tollenstraat / Thijmstaat,2015,10,2025,https://www.absweb.nu/Fotos/gemeentenijmegen/75942/JPEG_20220711_104443_5062266846569919715.jpg,2023-02-03,POINT (187158.9 427248.16)
SPL_SPEELPLEKKEN.75800,Speelplekken.fid--26bbd5c6_18613012ba5_5241,75800,10.21,Landbouwstraat deels sportplaats,51.83113885,5.83606557,true,Nijmegen Midden,185940.06,427044.64,Nijmegen,10 Nijeveld,Nijmegen Midden,107,6532TN,Landbouwstraat,Landbouwstraat langs Muntweg,2008,15,2023,https://www.absweb.nu/Fotos/gemeentenijmegen/75800/JPEG_20220628_095740_1610715907997437993.jpg,2023-02-03,POINT (185940.06 427044.64)
SPL_SPEELPLEKKEN.75608,Speelplekken.fid--26bbd5c6_18613012ba5_5242,75608,10.02,Jacob van Lennepplaats,51.83652113,5.85062362,true,Nijmegen Midden,186939.73,427649.74,Nijmegen,10 Nijeveld,Nijmegen Midden,35,6531AZ,Jacob van Lennepplaats,Lennepplaats,2006,14,2020,https://www.absweb.nu/Fotos/gemeentenijmegen/75608/JPEG_20220628_135157_1659301411413318997.jpg,2023-02-03,POINT (186939.73 427649.74)
SPL_SPEELPLEKKEN.75609,Speelplekken.fid--26bbd5c6_18613012ba5_5243,75609,10.06,Genestetje wijkspeeltuin,51.83570792,5.84698195,true,Nijmegen Midden,186689.31,427557.67,Nijmegen,10 Nijeveld,Nijmegen Midden,34,6531ED,De Genestetlaan,Genestetlaan,2004,15,2019,https://www.absweb.nu/Fotos/gemeentenijmegen/75609/JPEG_20220628_140855_4049256151615188765.jpg,2023-02-03,POINT (186689.31 427557.67)
SPL_SPEELPLEKKEN.75610,Speelplekken.fid--26bbd5c6_18613012ba5_5244,75610,10.16,Genestetlaan Cruiff Court sportplaats,51.83551647,5.84746782,true,Nijmegen Midden,186722.93,427536.58,Nijmegen,10 Nijeveld,Nijmegen Midden,31,6531ED,De Genestetlaan,Genestedlaan,2010,10,2020,https://www.absweb.nu/Fotos/gemeentenijmegen/75610/JPEG_20220628_140339_6114244959387608071.jpg,2023-02-03,POINT (186722.93 427536.58)
SPL_SPEELPLEKKEN.75611,Speelplekken.fid--26bbd5c6_18613012ba5_5245,75611,10.05,Beetsplein wijkspeeltuin,51.83216093,5.8494768,true,Nijmegen Midden,186863.77,427164.15,Nijmegen,10 Nijeveld,Nijmegen Midden,52,6531BG,Beetsplein,Beetsplein,2006,20,2026,https://www.absweb.nu/Fotos/gemeentenijmegen/75611/JPEG_20220711_100015_6704667576047274417.jpg,2023-02-03,POINT (186863.77 427164.15)
SPL_SPEELPLEKKEN.75612,Speelplekken.fid--26bbd5c6_18613012ba5_5246,75612,10.12,Dukaatstraat / Ploegstraat,51.8304526,5.84006512,true,Nijmegen Midden,186216.23,426970.01,Nijmegen,10 Nijeveld,Nijmegen Midden,6,6532RK,Ploegstraat,Achter huisnummer 6,2006,15,2021,https://www.absweb.nu/Fotos/gemeentenijmegen/75612/JPEG_20220628_093450_4384102249527786062.jpg,2023-02-03,POINT (186216.23 426970.01)
SPL_SPEELPLEKKEN.75613,Speelplekken.fid--26bbd5c6_18613012ba5_5247,75613,10.07,Dukaatstraat 69 deels sportplaats,51.82997982,5.83813148,true,Nijmegen Midden,186083.27,426916.58,Nijmegen,10 Nijeveld,Nijmegen Midden,69 (ingang,6532RE,Dukaatstraat,Samen met plaats in de straat,2007,15,2022,https://www.absweb.nu/Fotos/gemeentenijmegen/75613/JPEG_20220628_091340_5832195832143592811.jpg,2023-02-03,POINT (186083.27 426916.58)
SPL_SPEELPLEKKEN.75614,Speelplekken.fid--26bbd5c6_18613012ba5_5248,75614,10.08,Tollenstraat deels sportplaats,51.83304108,5.85453243,true,Nijmegen Midden,187211.62,427264.3,Nijmegen,10 Nijeveld,Nijmegen Midden,,6531AD,Tollenstraat,Hoek Thijmstraat en bij Graafseweg,2006,15,2021,https://www.absweb.nu/Fotos/gemeentenijmegen/75614/29.jpg,2023-02-03,POINT (187211.62 427264.3)
SPL_SPEELPLEKKEN.75615,Speelplekken.fid--26bbd5c6_18613012ba5_5249,75615,10.09,Dukaatstraat  plein sportplaats (MV),51.83023518,5.83853872,true,Nijmegen Midden,186111.16,426945.16,Nijmegen,10 Nijeveld,Nijmegen Midden,11,6532RE,Dukaatstraat (plein),Plein,2007,15,2022,https://www.absweb.nu/Fotos/gemeentenijmegen/75615/JPEG_20220628_092852_313104965132961624.jpg,2023-02-03,POINT (186111.16 426945.16)
SPL_SPEELPLEKKEN.181396,Speelplekken.fid--26bbd5c6_18613012ba5_524a,181396,10.11,Spiegelhofpark,51.834271,5.851988,true,Nijmegen Midden,187035.36,427400,Nijmegen,10 Nijeveld,Nijmegen Midden,,6531BZ,Spiegelhof,Spiegelhof.,,0,,https://www.absweb.nu/Fotos/gemeentenijmegen/181396/JPEG_20220628_133539_2611024906674966039.jpg,2023-02-03,POINT (187035.36 427400)
SPL_SPEELPLEKKEN.75616,Speelplekken.fid--26bbd5c6_18613012ba5_524b,75616,11.01,Hubertusstraat,51.82872575,5.84560553,true,Nijmegen Midden,186599.34,426780.28,Nijmegen,11 Hazenkamp,Nijmegen Midden,10,6531LA,Hubertusstraat,Hoek Nimrodstraat,2012,10,2022,https://www.absweb.nu/Fotos/gemeentenijmegen/75616/JPEG_20220711_143802_4155366596215219326.jpg,2023-02-03,POINT (186599.34 426780.28)
SPL_SPEELPLEKKEN.75617,Speelplekken.fid--26bbd5c6_18613012ba5_524c,75617,11.05,Okapistraat,51.82297133,5.84553038,true,Nijmegen Midden,186598.2,426140.05,Nijmegen,11 Hazenkamp,Nijmegen Midden,3,6531RP,Neushoornstraat,Okapistraat / Neushoornstraat,2006,15,2021,https://www.absweb.nu/Fotos/gemeentenijmegen/75617/JPEG_20220711_133749_6994151638471839336.jpg,2023-02-03,POINT (186598.2 426140.05)
SPL_SPEELPLEKKEN.75618,Speelplekken.fid--26bbd5c6_18613012ba5_524d,75618,11.08,Dingostraat,51.82699928,5.85150973,true,Nijmegen Midden,187007.57,426590.79,Nijmegen,11 Hazenkamp,Nijmegen Midden,34,6531PC,Dingostraat,Dingostraat,2004,20,2024,https://www.absweb.nu/Fotos/gemeentenijmegen/75618/JPEG_20220121_111402_3419617605147052399.jpg,2023-02-03,POINT (187007.57 426590.79)
SPL_SPEELPLEKKEN.75620,Speelplekken.fid--26bbd5c6_18613012ba5_524e,75620,11.07,Karbouwstraat  deels sportplaats (MV),51.82105745,5.84162758,true,Nijmegen Midden,186330.46,425925.43,Nijmegen,11 Hazenkamp,Nijmegen Midden,8,6532AX,Karbouwstraat,Karbouwstraat.,2006,15,2021,https://www.absweb.nu/Fotos/gemeentenijmegen/75620/JPEG_20220712_070156_3473941485946698265.jpg,2023-02-03,POINT (186330.46 425925.43)
SPL_SPEELPLEKKEN.75621,Speelplekken.fid--26bbd5c6_18613012ba5_524f,75621,11.09,Bisonstraat / Jagerspad,51.82507443,5.84364973,true,Nijmegen Midden,186467.07,426373.21,Nijmegen,11 Hazenkamp,Nijmegen Midden,22,6531PL,Bisonstraat,Jagerspad,2006,15,2021,https://www.absweb.nu/Fotos/gemeentenijmegen/75621/JPEG_20220711_134905_8583780706152809972.jpg,2023-02-03,POINT (186467.07 426373.21)
SPL_SPEELPLEKKEN.75622,Speelplekken.fid--26bbd5c6_18613012ba5_5250,75622,11.10,Dromedarisstraat,51.8256752,5.84993043,true,Nijmegen Midden,186899.63,426442.79,Nijmegen,11 Hazenkamp,Nijmegen Midden,30,6531NV,Dromedarisstraat,Dromedarisstraat,2008,10,2018,https://www.absweb.nu/Fotos/gemeentenijmegen/75622/JPEG_20220711_122206_7565793354708611071.jpg,2023-02-03,POINT (186899.63 426442.79)
SPL_SPEELPLEKKEN.75792,Speelplekken.fid--26bbd5c6_18613012ba5_5251,75792,11.11,Moeflonstraat,51.82999712,5.8541155,true,Nijmegen Midden,187185.05,426925.46,Nijmegen,11 Hazenkamp,Nijmegen Midden,46,6531JP,Moeflonstraat,In bossage,2005,12,2017,https://www.absweb.nu/Fotos/gemeentenijmegen/75792/JPEG_20220711_115043_8821661622764988412.jpg,2023-02-03,POINT (187185.05 426925.46)
SPL_SPEELPLEKKEN.75807,Speelplekken.fid--26bbd5c6_18613012ba5_5252,75807,11.02,Groen- en speelpark het Veldje deels sportplaats (EV),51.8301148,5.84985515,true,Nijmegen Midden,186891.3,426936.67,Nijmegen,11 Hazenkamp,Nijmegen Midden,20,6531KJ,Hindestraat,Het Veldje Hindestraat,2004,15,2019,https://www.absweb.nu/Fotos/gemeentenijmegen/75807/JPEG_20220121_113356_9075324149636990567.jpg,2023-02-03,POINT (186891.3 426936.67)
SPL_SPEELPLEKKEN.75861,Speelplekken.fid--26bbd5c6_18613012ba5_5253,75861,11.04,Wezenlaan Goffert sportplaats (EV),51.82484712,5.840755,true,Nijmegen Midden,186267.67,426346.67,Nijmegen,11 Hazenkamp,Nijmegen Midden,219,6531MR,Wezenlaan,Tussen Ijsbeerstraat en Hazenkampseweg,2006,15,2021,https://www.absweb.nu/Fotos/gemeentenijmegen/75861/JPEG_20220711_141443_4310128633339073127.jpg,2023-02-03,POINT (186267.67 426346.67)
SPL_SPEELPLEKKEN.75930,Speelplekken.fid--26bbd5c6_18613012ba5_5254,75930,11.12,Martinus van Beekschool deels sportplaats (EV),51.82388357,5.84345138,true,Nijmegen Midden,186454.23,426240.64,Nijmegen,11 Hazenkamp,Nijmegen Midden,31,6531PL,Ijsbeerstraat,Ijsbeerstraat,2012,10,2022,https://www.absweb.nu/Fotos/gemeentenijmegen/75930/JPEG_20220711_135818_2103495906368058637.jpg,2023-02-03,POINT (186454.23 426240.64)
SPL_SPEELPLEKKEN.75939,Speelplekken.fid--26bbd5c6_18613012ba5_52fa,75939,33.01,Meijhorst 91e / 93e straat,51.81440098,5.79022432,true,Nijmegen Dukenburg,182790.57,425163.98,Nijmegen,33 Meijhorst,Nijmegen Dukenburg,93.19,6537KM,Meijhorst,Groenvoorziening langs Meijhorst 16e str,2014,10,2024,https://www.absweb.nu/Fotos/gemeentenijmegen/75939/JPEG_20220629_115034_8091816784341045885.jpg,2023-02-03,POINT (182790.57 425163.98)
SPL_SPEELPLEKKEN.75808,Speelplekken.fid--26bbd5c6_18613012ba5_52fb,75808,33.20,Meijhorst 55e straat,51.8126805,5.7979389,true,Nijmegen Dukenburg,183323.61,424975.54,Nijmegen,33 Meijhorst,Nijmegen Dukenburg,63 01a,6537JM,Meijhorst,In groenvoorziening,2004,15,2019,https://www.absweb.nu/Fotos/gemeentenijmegen/75808/JPEG_20220629_094125_8005974492808561929.jpg,2023-02-03,POINT (183323.61 424975.54)
SPL_SPEELPLEKKEN.75832,Speelplekken.fid--26bbd5c6_18613012ba5_52fc,75832,33.02,Meijhorst  22e - 23e straat,51.80972917,5.79767783,true,Nijmegen Dukenburg,183307.46,424647.1,Nijmegen,33 Meijhorst,Nijmegen Dukenburg,23 02,6537GC,Meijhorst,Tegelplateau,2006,15,2021,https://www.absweb.nu/Fotos/gemeentenijmegen/75832/JPEG_20220629_080533_1698309473794852986.jpg,2023-02-03,POINT (183307.46 424647.1)
SPL_SPEELPLEKKEN.75855,Speelplekken.fid--26bbd5c6_18613012ba5_52fd,75855,33.03,De Meiboom deels sportplaats (MV),51.81024167,5.79517525,true,Nijmegen Dukenburg,183134.56,424703.14,Nijmegen,33 Meijhorst,Nijmegen Dukenburg,29 58,6537GV,Meijhorst 29e straat,Meijhorst Schoolplein,2006,15,2021,https://www.absweb.nu/Fotos/gemeentenijmegen/75855/JPEG_20220629_083246_204020175653735621.jpg,2023-02-03,POINT (183134.56 424703.14)
SPL_SPEELPLEKKEN.75718,Speelplekken.fid--26bbd5c6_18613012ba5_52fe,75718,33.19,Meijhorst 62e straat,51.8134478,5.79990903,true,Nijmegen Dukenburg,183458.98,425061.68,Nijmegen,33 Meijhorst,Nijmegen Dukenburg,62 13,6537LL,Meijhorst 62e straat,In groenvoorziening,2003,18,2021,https://www.absweb.nu/Fotos/gemeentenijmegen/75718/JPEG_20220629_094834_1940174094978340397.jpg,2023-02-03,POINT (183458.98 425061.68)
SPL_SPEELPLEKKEN.75719,Speelplekken.fid--26bbd5c6_18613012ba5_52ff,75719,33.15,Meijhorst 25e straat,51.80973347,5.79637757,true,Nijmegen Dukenburg,183217.79,424647.07,Nijmegen,33 Meijhorst,Nijmegen Dukenburg,25-01,6537GH,Meijhorst,In groenvoorziening,2004,15,2019,https://www.absweb.nu/Fotos/gemeentenijmegen/75719/JPEG_20220629_081638_8549842345747294199.jpg,2023-02-03,POINT (183217.79 424647.07)
SPL_SPEELPLEKKEN.75720,Speelplekken.fid--26bbd5c6_18613012ba5_5300,75720,33.08,Meijhorst 33e straat,51.81223922,5.79198173,true,Nijmegen Dukenburg,182913.09,424924.14,Nijmegen,33 Meijhorst,Nijmegen Dukenburg,33 44,6537JA,Meijhorst 33e straat,Meijhorst 33e straat groenvoorziening,2004,15,2019,https://www.absweb.nu/Fotos/gemeentenijmegen/75720/JPEG_20220629_115956_7138792142669050423.jpg,2023-02-03,POINT (182913.09 424924.14)
SPL_SPEELPLEKKEN.75721,Speelplekken.fid--26bbd5c6_18613012ba5_5301,75721,33.13,Meijhorst 13e straat sportplaats (EV),51.81357508,5.79512238,true,Nijmegen Dukenburg,183128.83,425073.98,Nijmegen,33 Meijhorst,Nijmegen Dukenburg,14 89,6537KW,Meijhorst,Trapveld bij 13-14 straat,2001,20,2021,https://www.absweb.nu/Fotos/gemeentenijmegen/75721/JPEG_20220629_120749_8554927249735399007.jpg,2023-02-03,POINT (183128.83 425073.98)
SPL_SPEELPLEKKEN.75722,Speelplekken.fid--26bbd5c6_18613012ba5_5302,75722,33.18,Meijhorst 22e -23e -24e straat sportplaats (EV),51.80894003,5.79706707,true,Nijmegen Dukenburg,183265.84,424559.06,Nijmegen,33 Meijhorst,Nijmegen Dukenburg,22 46,6537GG,Meijhorst,Groenvorziening tussen flats,2014,10,2024,https://www.absweb.nu/Fotos/gemeentenijmegen/75722/JPEG_20220629_081010_647514190340655773.jpg,2023-02-03,POINT (183265.84 424559.06)
SPL_SPEELPLEKKEN.143625,Speelplekken.fid--26bbd5c6_18613012ba5_5304,143625,33.04,Meijhorst 60e straat Sportplaats EV,51.81402277,5.80037775,true,Nijmegen Dukenburg,183490.94,425125.83,Nijmegen,33 Meijhorst,Nijmegen Dukenburg,,6537KV,Meijhorst 60e straat,Groenstrook,2017,20,2037,https://www.absweb.nu/Fotos/gemeentenijmegen/143625/JPEG_20220629_095523_2538809757290582043.jpg,2023-02-03,POINT (183490.94 425125.83)
SPL_SPEELPLEKKEN.75724,Speelplekken.fid--26bbd5c6_18613012ba5_5305,75724,34.13,Lankforst 34e straat,51.8165554,5.81023215,true,Nijmegen Dukenburg,184168.82,425411.5,Nijmegen,34 Lankforst,Nijmegen Dukenburg,34 05,6538JN,Lankforst 35e straat,Bij huisnummer 35-22,2007,15,2022,https://www.absweb.nu/Fotos/gemeentenijmegen/75724/JPEG_20220622_102654_2414757166188791267.jpg,2023-02-03,POINT (184168.82 425411.5)
SPL_SPEELPLEKKEN.75725,Speelplekken.fid--26bbd5c6_18613012ba5_5306,75725,34.14,Lankforst de Wollewei,51.81087945,5.80966655,true,Nijmegen Dukenburg,184133.49,424779.8,Nijmegen,34 Lankforst,Nijmegen Dukenburg,24 31,6538GJ,Lankforst 24e straat,Lankforsrt  22e / 24e straat,2007,20,2027,https://www.absweb.nu/Fotos/gemeentenijmegen/75725/JPEG_20220622_095458_1073409491737441505.jpg,2023-02-03,POINT (184133.49 424779.8)
SPL_SPEELPLEKKEN.75726,Speelplekken.fid--26bbd5c6_18613012ba5_5307,75726,34.06,Lankforst 43e straat,51.81521873,5.80728777,true,Nijmegen Dukenburg,183966.66,425261.61,Nijmegen,34 Lankforst,Nijmegen Dukenburg,43 04,6538JW,Lankforst 46e straat,Lankfortst 43e straat,2008,12,2020,https://www.absweb.nu/Fotos/gemeentenijmegen/75726/JPEG_20220622_101746_1292189818366140284.jpg,2023-02-03,POINT (183966.66 425261.61)
SPL_SPEELPLEKKEN.75727,Speelplekken.fid--26bbd5c6_18613012ba5_5308,75727,34.15,Lankforst 27e straat,51.81395015,5.81146142,true,Nijmegen Dukenburg,184255.27,425122.15,Nijmegen,34 Lankforst,Nijmegen Dukenburg,27-08,6538HA,Lankforst 27e straat,Lankforst 27e straat,2007,15,2022,https://www.absweb.nu/Fotos/gemeentenijmegen/75727/JPEG_20220622_103723_1595358366713876191.jpg,2023-02-03,POINT (184255.27 425122.15)
SPL_SPEELPLEKKEN.75728,Speelplekken.fid--26bbd5c6_18613012ba5_5309,75728,34.17,Lankforst 42e straat,51.81410703,5.80777692,true,Nijmegen Dukenburg,184001.1,425138.13,Nijmegen,34 Lankforst,Nijmegen Dukenburg,42-10,6538HW,Lankforst 42e straat,In tegelplateau,1999,25,2024,https://www.absweb.nu/Fotos/gemeentenijmegen/75728/JPEG_20220622_101111_8902150035235110695.jpg,2023-02-03,POINT (184001.1 425138.13)
SPL_SPEELPLEKKEN.75729,Speelplekken.fid--26bbd5c6_18613012ba5_530a,75729,34.10,Lankforst 13e straat sportplaats (EV),51.81301475,5.8100856,true,Nijmegen Dukenburg,184161,425017.53,Nijmegen,34 Lankforst,Nijmegen Dukenburg,27 51,6538GW,Lankforst 13e straat,14 e - 27e straat Nutsschool,2011,10,2021,https://www.absweb.nu/Fotos/gemeentenijmegen/75729/JPEG_20220622_100444_3316233921972132792.jpg,2023-02-03,POINT (184161 425017.53)
SPL_SPEELPLEKKEN.75943,Speelplekken.fid--26bbd5c6_18613012ba5_530b,75943,34.01,Lankforst 32e straat Sportplaats (EV),51.8155186,5.81082345,true,Nijmegen Dukenburg,184210.26,425296.39,Nijmegen,34 Lankforst,Nijmegen Dukenburg,32.10,6538JE,Lankforst 32e straat,Lankforst 32e straat langs M-W Kanaal,2015,15,2030,https://www.absweb.nu/Fotos/gemeentenijmegen/75943/JPEG_20220622_103355_3101943645242047668.jpg,2023-02-03,POINT (184210.26 425296.39)
SPL_SPEELPLEKKEN.75856,Speelplekken.fid--26bbd5c6_18613012ba5_530d,75856,35.06,Aldenhof 13e straat deels sport,51.80522075,5.79800862,true,Nijmegen Dukenburg,183333.11,424145.65,Nijmegen,35 Aldenhof,Nijmegen Dukenburg,13 50,6537CD,Aldenhof 13,Aldenhof 13.20 in groenvoorziening,2008,15,2023,https://www.absweb.nu/Fotos/gemeentenijmegen/75856/JPEG_20220629_065157_861769031101483878.jpg,2023-02-03,POINT (183333.11 424145.65)
SPL_SPEELPLEKKEN.75837,Speelplekken.fid--26bbd5c6_18613012ba5_530e,75837,35.05,Aldenhof 84 e straat sportplaats (EV),51.80683073,5.7962494,true,Nijmegen Dukenburg,183210.77,424324.08,Nijmegen,35 Aldenhof,Nijmegen Dukenburg,84 02,6537CJ,Aldenhof 84,Teerplein,2005,15,2020,https://www.absweb.nu/Fotos/gemeentenijmegen/75837/JPEG_20220629_090122_5367822384957415630.jpg,2023-02-03,POINT (183210.77 424324.08)
SPL_SPEELPLEKKEN.75635,Speelplekken.fid--26bbd5c6_18613012ba5_526a,75635,14.16,Bongerdstraat,51.81933533,5.84830065,true,Nijmegen Zuid,186791.75,425736.74,Nijmegen,14 Hatertse hei,Nijmegen Zuid,2 en 40,6533XE,Bongerdstraat,Bongerdstraat 2 plaatsen bij elkaar,2006,15,2021,https://www.absweb.nu/Fotos/gemeentenijmegen/75635/JPEG_20220711_131058_361378784056248912.jpg,2023-02-03,POINT (186791.75 425736.74)
SPL_SPEELPLEKKEN.75636,Speelplekken.fid--26bbd5c6_18613012ba5_526b,75636,14.04,Akkerhommelhof / Moshommelhof,51.81544383,5.84529247,true,Nijmegen Zuid,186587.07,425302.49,Nijmegen,14 Hatertse hei,Nijmegen Zuid,9,6533PL,Akkerhommelhof,In groenvoorziening,2006,14,2020,https://www.absweb.nu/Fotos/gemeentenijmegen/75636/JPEG_20220825_110224_217710284749401266.jpg,2023-02-03,POINT (186587.07 425302.49)
SPL_SPEELPLEKKEN.75637,Speelplekken.fid--26bbd5c6_18613012ba5_526c,75637,14.03,Honingraat,51.81689872,5.84573588,true,Nijmegen Zuid,186616.63,425464.54,Nijmegen,14 Hatertse hei,Nijmegen Zuid,15,6533RV,Bijenkorf,Honingraat / Bijenkorf,2006,15,2021,https://www.absweb.nu/Fotos/gemeentenijmegen/75637/JPEG_20220712_094334_6774244321998417125.jpg,2023-02-03,POINT (186616.63 425464.54)
SPL_SPEELPLEKKEN.75638,Speelplekken.fid--26bbd5c6_18613012ba5_526d,75638,14.17,Polderstraat deels sportplaats (EV),51.81925205,5.85243743,true,Nijmegen Zuid,187077.03,425729.29,Nijmegen,14 Hatertse hei,Nijmegen Zuid,4,6533XN,Polderstraat,Langs Slotemaker de Bruïneweg,2006,20,2026,https://www.absweb.nu/Fotos/gemeentenijmegen/75638/23.jpg,2023-02-03,POINT (187077.03 425729.29)
SPL_SPEELPLEKKEN.75639,Speelplekken.fid--26bbd5c6_18613012ba5_526e,75639,15.12,Daltonstraat deels sportplaats (EV),51.81150092,5.85075045,true,Nijmegen Zuid,186966.22,424866.21,Nijmegen,15 Grootstal,Nijmegen Zuid,1,6533ML,Daltonstraat,Daltonstraat,2007,20,2027,https://www.absweb.nu/Fotos/gemeentenijmegen/75639/JPEG_20220712_082857_7278494225089338847.jpg,2023-02-03,POINT (186966.22 424866.21)
SPL_SPEELPLEKKEN.75640,Speelplekken.fid--26bbd5c6_18613012ba5_526f,75640,15.06,van Musschenbroekstraat deels sportplaats Jeu de Boules,51.81310115,5.84944912,true,Nijmegen Zuid,186875.35,425043.67,Nijmegen,15 Grootstal,Nijmegen Zuid,14,6533NS,van Musschenbroekstraat,van Mussch3nbroekstraat,2003,16,2019,https://www.absweb.nu/Fotos/gemeentenijmegen/75640/JPEG_20220712_084058_4178450133809055193.jpg,2023-02-03,POINT (186875.35 425043.67)
SPL_SPEELPLEKKEN.75641,Speelplekken.fid--26bbd5c6_18613012ba5_5270,75641,15.15,Galvanistraat,51.81079497,5.83789,true,Nijmegen Zuid,186079.85,424782.09,Nijmegen,15 Grootstal,Nijmegen Zuid,20,6533DV,Galvanistraat,Galvanistraat in groenvoorziening,2013,10,2023,https://www.absweb.nu/Fotos/gemeentenijmegen/75641/JPEG_20220623_105931_1215057074844775081.jpg,2023-02-03,POINT (186079.85 424782.09)
SPL_SPEELPLEKKEN.75643,Speelplekken.fid--26bbd5c6_18613012ba5_5272,75643,15.16,Fresnelstraat,51.8103623,5.83559473,true,Nijmegen Zuid,185921.87,424732.98,Nijmegen,15 Grootstal,Nijmegen Zuid,2,6533DN,Fresnelstraat,Fresnelstraat in groenvoorziening,2010,10,2020,https://www.absweb.nu/Fotos/gemeentenijmegen/75643/JPEG_20220623_111120_4549554646689016625.jpg,2023-02-03,POINT (185921.87 424732.98)
SPL_SPEELPLEKKEN.75644,Speelplekken.fid--26bbd5c6_18613012ba5_5273,75644,15.17,Marie Curiestraat / Marconistraat,51.81133507,5.84458563,true,Nijmegen Zuid,186541.21,424845.07,Nijmegen,15 Grootstal,Nijmegen Zuid,28,6533KJ,Marconistraat,Marie Curiiestraat,2003,16,2019,https://www.absweb.nu/Fotos/gemeentenijmegen/75644/JPEG_20220712_081512_5477309927007191316.jpg,2023-02-03,POINT (186541.21 424845.07)
SPL_SPEELPLEKKEN.75645,Speelplekken.fid--26bbd5c6_18613012ba5_5274,75645,15.18,Bunsenstraat,51.80966103,5.84146978,true,Nijmegen Zuid,186327.51,424657.48,Nijmegen,15 Grootstal,Nijmegen Zuid,9,6533JJ,Bunsenstraat,Bunsenstraat,2003,15,2018,https://www.absweb.nu/Fotos/gemeentenijmegen/75645/JPEG_20220623_105409_5492011207165948620.jpg,2023-02-03,POINT (186327.51 424657.48)
SPL_SPEELPLEKKEN.75646,Speelplekken.fid--26bbd5c6_18613012ba5_5275,75646,15.21,Von Fraunhoferhof,51.81050003,5.8337194,true,Nijmegen Zuid,185792.45,424747.51,Nijmegen,15 Grootstal,Nijmegen Zuid,6,6533DX,Von Frauenhoferhof,Nieuw Grootstal,2010,10,2020,https://www.absweb.nu/Fotos/gemeentenijmegen/75646/JPEG_20220623_112751_349338779470893053.jpg,2023-02-03,POINT (185792.45 424747.51)
SPL_SPEELPLEKKEN.75647,Speelplekken.fid--26bbd5c6_18613012ba5_5276,75647,15.22,Keplerstraat deels sportplaats (EV),51.80964522,5.83392777,true,Nijmegen Zuid,185807.4,424652.49,Nijmegen,15 Grootstal,Nijmegen Zuid,197,6533DZ,Keplerstraat,Grootstal nieuwbouw,2003,16,2019,https://www.absweb.nu/Fotos/gemeentenijmegen/75647/JPEG_20220623_111752_931508150245416961.jpg,2023-02-03,POINT (185807.4 424652.49)
SPL_SPEELPLEKKEN.75648,Speelplekken.fid--26bbd5c6_18613012ba5_5277,75648,15.19,Wattstraat / Keesomstraat,51.81243193,5.84256102,true,Nijmegen Zuid,186400.83,424966.22,Nijmegen,15 Grootstal,Nijmegen Zuid,17,6533HS,Keesomstraat,Achter Keesomstraat 1,2003,16,2019,https://www.absweb.nu/Fotos/gemeentenijmegen/75648/JPEG_20220712_075836_3765031385850135937.jpg,2023-02-03,POINT (186400.83 424966.22)
SPL_SPEELPLEKKEN.75649,Speelplekken.fid--26bbd5c6_18613012ba5_5278,75649,15.23,Joulestraat,51.81189617,5.83370085,true,Nijmegen Zuid,185790.21,424902.82,Nijmegen,15 Grootstal,Nijmegen Zuid,86,6533DH,Joulestraat,Joulestraat in groenvoorziening,2009,10,2019,https://www.absweb.nu/Fotos/gemeentenijmegen/75649/JPEG_20220623_113610_1484092336918892097.jpg,2023-02-03,POINT (185790.21 424902.82)
SPL_SPEELPLEKKEN.75650,Speelplekken.fid--26bbd5c6_18613012ba5_5279,75650,15.13,Archimedesstraat deels sportplaats (EV),51.80938992,5.8488435,true,Nijmegen Zuid,186836.21,424630.52,Nijmegen,15 Grootstal,Nijmegen Zuid,20,6533MC,Archimedesstraat,Archimedesstraat. in groenvoorziening,2010,10,2020,https://www.absweb.nu/Fotos/gemeentenijmegen/75650/JPEG_20220623_104130_128076459599603138.jpg,2023-02-03,POINT (186836.21 424630.52)
SPL_SPEELPLEKKEN.75878,Speelplekken.fid--26bbd5c6_18613012ba5_527a,75878,15.02,Einsteinstraat sportplaats (EV),51.8130912,5.84482725,true,Nijmegen Zuid,186556.64,425040.55,Nijmegen,15 Grootstal,Nijmegen Zuid,177,6533NK,Einsteinstraat,Einsteinstraat in groenvoorziening,2007,15,2022,https://www.absweb.nu/Fotos/gemeentenijmegen/75878/JPEG_20220825_101659_9069521382633966468.jpg,2023-02-03,POINT (186556.64 425040.55)
SPL_SPEELPLEKKEN.315328,Speelplekken.fid--26bbd5c6_18613012ba5_527b,315328,15.14,Edisonstaat,51.8102168,5.84514643,true,Nijmegen Zuid,186580.67,424720.9,Nijmegen,15 Grootstal,Nijmegen Zuid,70,,Edisonstraat,Edisonstaat De schakel.,2020,20,2040,https://www.absweb.nu/Fotos/gemeentenijmegen/315328/JPEG_20220623_105012_4723370829796698842.jpg,2023-02-03,POINT (186580.67 424720.9)
SPL_SPEELPLEKKEN.173502,Speelplekken.fid--26bbd5c6_18613012ba5_527c,173502,15.07,Basisschool Hidaya,51.81352312,5.84959672,true,Nijmegen Zuid,186885.23,425090.68,Nijmegen,15 Grootstal,Nijmegen Zuid,naast 16,6533PA,snelliusstraat ,Basisschool Hidaya,,0,,https://www.absweb.nu/Fotos/gemeentenijmegen/173502/JPEG_20220712_084831_242366987045281464.jpg,2023-02-03,POINT (186885.23 425090.68)
SPL_SPEELPLEKKEN.175788,Speelplekken.fid--26bbd5c6_18613012ba5_527d,175788,15.01,Einsteinstraat,51.81360693,5.84191768,true,Nijmegen Zuid,186355.65,425096.66,Nijmegen,15 Grootstal,Nijmegen Zuid,205,6533NM,Einseinstraat,Ensteinstraat in groenvoorziening,2018,0,2018,https://www.absweb.nu/Fotos/gemeentenijmegen/175788/JPEG_20220929_101158_523267004308305402.jpg,2023-02-03,POINT (186355.65 425096.66)
SPL_SPEELPLEKKEN.139198,Speelplekken.fid--26bbd5c6_18613012ba5_527e,139198,16.12,Aldenhaagstraaat,51.80157102,5.82621692,true,Nijmegen Zuid,185281.07,423750.97,Nijmegen,16 Hatert,Nijmegen Zuid,10,6535MZ,Aldenhaagstraat,Aldenhaagstraat in groenvoorziening,2017,20,2037,https://www.absweb.nu/Fotos/gemeentenijmegen/139198/JPEG_20220621_121514_8657200120054844723.jpg,2023-02-03,POINT (185281.07 423750.97)
SPL_SPEELPLEKKEN.214345,Speelplekken.fid--26bbd5c6_18613012ba5_527f,214345,16.13,Couwenbergstraat.,51.8044107,5.82843038,true,Nijmegen Zuid,185431.82,424067.82,Nijmegen,16 Hatert,Nijmegen Zuid,10,6535SG,Couwebergstraat.,Nijenrodestraat hoek Couwenbergstraat.,2019,20,2039,https://www.absweb.nu/Fotos/gemeentenijmegen/214345/JPEG_20220621_124222_2435679190686291827.jpg,2023-02-03,POINT (185431.82 424067.82)
SPL_SPEELPLEKKEN.444268,Speelplekken.fid--26bbd5c6_18613012ba5_5280,444268,16.14,Malderburchtstraat.,51.79911994,5.82549001,true,Nijmegen Zuid,185232.57,423477.98,Nijmegen,16 Hatert,Nijmegen Zuid,656,,Malderburchtstraat.,Malderburchtstraat.,2021,20,2041,https://www.absweb.nu/Fotos/gemeentenijmegen/444268/JPEG_20220621_121109_5718317694246004953.jpg,2023-02-03,POINT (185232.57 423477.98)
SPL_SPEELPLEKKEN.75881,Speelplekken.fid--26bbd5c6_18613012ba5_5281,75881,16.07,Park Vossendijk deels sportplaats,51.80931205,5.82085533,true,Nijmegen Zuid,184906.12,424609.97,Nijmegen,16 Hatert,Nijmegen Zuid,41,6534WD,Vossendijk,Vossendijk,2007,15,2022,https://www.absweb.nu/Fotos/gemeentenijmegen/75881/JPEG_20220621_082806_5270188883180921605.jpg,2023-02-03,POINT (184906.12 424609.97)
SPL_SPEELPLEKKEN.75885,Speelplekken.fid--26bbd5c6_18613012ba5_5282,75885,16.08,Zijpendaalstraat Sportplaats (MV),51.80358448,5.8253577,true,Nijmegen Zuid,185220.45,423974.62,Nijmegen,16 Hatert,Nijmegen Zuid,56,6535PS,Zijpendaalstraat,Zijpendaalstraat Muiderslotstraat,2007,15,2022,https://www.absweb.nu/Fotos/gemeentenijmegen/75885/JPEG_20220621_123605_3284645737596179565.jpg,2023-02-03,POINT (185220.45 423974.62)
SPL_SPEELPLEKKEN.75872,Speelplekken.fid--26bbd5c6_18613012ba5_5283,75872,16.05,Van Bronckhorstdreef sportplaats,51.80910538,5.81875992,true,Nijmegen Zuid,184761.75,424586.12,Nijmegen,16 Hatert,Nijmegen Zuid,13,6534VB,Van Bronckhorstdreef,Middenterrein,2002,17,2019,https://www.absweb.nu/Fotos/gemeentenijmegen/75872/JPEG_20220621_085910_1712292232400255317.jpg,2023-02-03,POINT (184761.75 424586.12)
SPL_SPEELPLEKKEN.75875,Speelplekken.fid--26bbd5c6_18613012ba5_5284,75875,16.04,Cruijffcourt Couwenbergstraat sportplaats (MV),51.8060863,5.8264717,true,Nijmegen Zuid,185295.61,424253.42,Nijmegen,16 Hatert,Nijmegen Zuid,77,6535RZ,Couwenbergstraat,Couwenbergstraat,2006,20,2026,https://www.absweb.nu/Fotos/gemeentenijmegen/75875/JPEG_20220621_130203_6653472913333549327.jpg,2023-02-03,POINT (185295.61 424253.42)
SPL_SPEELPLEKKEN.75911,Speelplekken.fid--26bbd5c6_18613012ba5_5285,75911,16.06,Middachtenstraat Kanaalzone Hatert,51.8010573,5.82272328,true,Nijmegen Zuid,185040.44,423692.37,Nijmegen,16 Hatert,Nijmegen Zuid,337a,6535LH,Middachtenstraat,Middachtenstraat / Maas-Waalkanaal,2010,10,2020,https://www.absweb.nu/Fotos/gemeentenijmegen/75911/JPEG_20220621_120304_8216526156250696268.jpg,2023-02-03,POINT (185040.44 423692.37)
SPL_SPEELPLEKKEN.75921,Speelplekken.fid--26bbd5c6_18613012ba5_5286,75921,16.11,Winkelsteegseweg sportplaats (EV),51.81061278,5.82621865,true,Nijmegen Zuid,185275.11,424756.9,Nijmegen,16 Hatert,Nijmegen Zuid,30,6534XB,Winkelsteegseweg,Winkelsteegseweg gazon trapveld,2011,15,2026,https://www.absweb.nu/Fotos/gemeentenijmegen/75921/JPEG_20220621_092243_5913022896861849873.jpg,2023-02-03,POINT (185275.11 424756.9)
SPL_SPEELPLEKKEN.75794,Speelplekken.fid--26bbd5c6_18613012ba5_5287,75794,16.10,Middachtenstraat sportplaats (EV),51.80202868,5.82225322,true,Nijmegen Zuid,185007.37,423800.25,Nijmegen,16 Hatert,Nijmegen Zuid,145a,6535LJ,Middachtenstraat,Trapveld,2008,15,2023,https://www.absweb.nu/Fotos/gemeentenijmegen/75794/JPEG_20220621_115301_5729313648465817748.jpg,2023-02-03,POINT (185007.37 423800.25)
SPL_SPEELPLEKKEN.75795,Speelplekken.fid--26bbd5c6_18613012ba5_5288,75795,16.38,Muiderslotstraat,51.80241112,5.82655793,true,Nijmegen Zuid,185304.02,423844.58,Nijmegen,16 Hatert,Nijmegen Zuid,19,6535KE,Hackforststraat,Muiderslotsstraat / Hackforststraat,2008,15,2023,https://www.absweb.nu/Fotos/gemeentenijmegen/75795/JPEG_20220621_121742_2261980132527804513.jpg,2023-02-03,POINT (185304.02 423844.58)
SPL_SPEELPLEKKEN.75796,Speelplekken.fid--26bbd5c6_18613012ba5_5289,75796,16.09,Wijkcentrum Hatert sportplaats (EV),51.80516853,5.82761387,true,Nijmegen Zuid,185375,424151.79,Nijmegen,16 Hatert,Nijmegen Zuid,14,6535RT,Couwenbergstraat,De Kempenaerstraat,2010,20,2030,https://www.absweb.nu/Fotos/gemeentenijmegen/75796/JPEG_20220621_130045_4254752290748632493.jpg,2023-02-03,POINT (185375 424151.79)
SPL_SPEELPLEKKEN.75835,Speelplekken.fid--26bbd5c6_18613012ba5_528a,75835,16.02,Opaalstraat JOP en sportplaats Jeu de Boules,51.81218552,5.82506167,true,Nijmegen Zuid,185194.27,424931.39,Nijmegen,16 Hatert,Nijmegen Zuid,21,6534AR,Opaalstaat,Opaalstraat / Winkelsteegseweg,2006,15,2021,https://www.absweb.nu/Fotos/gemeentenijmegen/75835/JPEG_20220223_130921_2216531302046857316.jpg,2023-02-03,POINT (185194.27 424931.39)
SPL_SPEELPLEKKEN.75836,Speelplekken.fid--26bbd5c6_18613012ba5_528b,75836,16.03,Treubstraat,51.80877817,5.82817143,true,Nijmegen Zuid,185411.02,424553.61,Nijmegen,16 Hatert,Nijmegen Zuid,52,6535TK,Treubstraat / van Hoogendorpstraat,Bij basisschool de Vossenburcht,2006,15,2021,https://www.absweb.nu/Fotos/gemeentenijmegen/75836/JPEG_20220628_113238_2544269008647274729.jpg,2023-02-03,POINT (185411.02 424553.61)
SPL_SPEELPLEKKEN.75651,Speelplekken.fid--26bbd5c6_18613012ba5_528c,75651,16.01,Angerensteinstraat Mualketen,51.80684812,5.8197831,true,Nijmegen Zuid,184833.8,424335.41,Nijmegen,16 Hatert,Nijmegen Zuid,61,6535JP,Angerensteinstraat,Angerensteinstraat.,2011,10,2021,https://www.absweb.nu/Fotos/gemeentenijmegen/75651/JPEG_20220621_112115_492708739531032764.jpg,2023-02-03,POINT (184833.8 424335.41)
SPL_SPEELPLEKKEN.75652,Speelplekken.fid--26bbd5c6_18613012ba5_528d,75652,16.16,Wildenborgstraat,51.80447477,5.82233167,true,Nijmegen Zuid,185011.15,424072.41,Nijmegen,16 Hatert,Nijmegen Zuid,67,6535KR,Loevesteinstraat,Wildenborgstraat. / Loevesteinstraat,2008,15,2023,https://www.absweb.nu/Fotos/gemeentenijmegen/75652/JPEG_20220621_113055_7314056501558564372.jpg,2023-02-03,POINT (185011.15 424072.41)
SPL_SPEELPLEKKEN.75653,Speelplekken.fid--26bbd5c6_18613012ba5_528e,75653,16.21,Agaatstraat,51.8106961,5.82380797,true,Nijmegen Zuid,185108.81,424765.17,Nijmegen,16 Hatert,Nijmegen Zuid,21,6534WX,Diamantstraat,Agaatstraat / Diamantstraat,2004,15,2019,https://www.absweb.nu/Fotos/gemeentenijmegen/75653/JPEG_20220621_090850_8206285290229470708.jpg,2023-02-03,POINT (185108.81 424765.17)
SPL_SPEELPLEKKEN.75654,Speelplekken.fid--26bbd5c6_18613012ba5_528f,75654,16.24,Granaatstraat,51.81235488,5.82770732,true,Nijmegen Zuid,185376.6,424951.34,Nijmegen,16 Hatert,Nijmegen Zuid,37,6534ZE,Azurietstraat,Granaatstraat. / Azurietstraat,2003,18,2021,https://www.absweb.nu/Fotos/gemeentenijmegen/75654/JPEG_20220621_100416_1599830333074303560.jpg,2023-02-03,POINT (185376.6 424951.34)
SPL_SPEELPLEKKEN.75655,Speelplekken.fid--26bbd5c6_18613012ba5_5290,75655,16.36,Schouwenburgstraat,51.80370315,5.82187418,true,Nijmegen Zuid,184980.11,423986.38,Nijmegen,16 Hatert,Nijmegen Zuid,19,6535ME,Schouwenburgstraat,Schouwenburgstraat.,2008,15,2023,https://www.absweb.nu/Fotos/gemeentenijmegen/75655/JPEG_20220621_114206_1511660782676875717.jpg,2023-02-03,POINT (184980.11 423986.38)
SPL_SPEELPLEKKEN.75656,Speelplekken.fid--26bbd5c6_18613012ba5_5291,75656,16.37,Goselingstraat,51.8077665,5.83324887,true,Nijmegen Zuid,185761.87,424443.19,Nijmegen,16 Hatert,Nijmegen Zuid,23,6535XC,Goselingstraat,Goselingstraat.,2008,12,2020,https://www.absweb.nu/Fotos/gemeentenijmegen/75656/JPEG_20220628_110813_137698479806145791.jpg,2023-02-03,POINT (185761.87 424443.19)
SPL_SPEELPLEKKEN.75657,Speelplekken.fid--26bbd5c6_18613012ba5_5292,75657,16.33,Albardastraat,51.80574103,5.831815,true,Nijmegen Zuid,185664.36,424217.25,Nijmegen,16 Hatert,Nijmegen Zuid,32,6535VK,Albardastraat,Albadastraat.,2008,15,2023,https://www.absweb.nu/Fotos/gemeentenijmegen/75657/JPEG_20220628_111746_6342434618227043303.jpg,2023-02-03,POINT (185664.36 424217.25)
SPL_SPEELPLEKKEN.75658,Speelplekken.fid--26bbd5c6_18613012ba5_5293,75658,16.43,Lazuursteenstraat / Robijnstraat,51.81130442,5.82707373,true,Nijmegen Zuid,185333.61,424834.2,Nijmegen,16 Hatert,Nijmegen Zuid,2,6534XS,Robijnstraat,Lazuursteenstraat.,2008,15,2023,https://www.absweb.nu/Fotos/gemeentenijmegen/75658/JPEG_20220621_095228_524622734875754738.jpg,2023-02-03,POINT (185333.61 424834.2)
SPL_SPEELPLEKKEN.75659,Speelplekken.fid--26bbd5c6_18613012ba5_5294,75659,16.34,Marchantstraat,51.80773752,5.83065085,true,Nijmegen Zuid,185582.71,424438.87,Nijmegen,16 Hatert,Nijmegen Zuid,45,6535TT,Marchantstraat,Marchantstraat.,2008,15,2023,https://www.absweb.nu/Fotos/gemeentenijmegen/75659/JPEG_20220628_105829_5641397437369096384.jpg,2023-02-03,POINT (185582.71 424438.87)
SPL_SPEELPLEKKEN.75660,Speelplekken.fid--26bbd5c6_18613012ba5_5295,75660,16.35,Groen van Prinstererstraat,51.80682675,5.82899595,true,Nijmegen Zuid,185469.2,424336.85,Nijmegen,16 Hatert,Nijmegen Zuid,16,6535TG,Groen van Prinstererstraat,Groen van Prinstererstraat,2008,15,2023,https://www.absweb.nu/Fotos/gemeentenijmegen/75660/JPEG_20220628_112518_7655000261711923384.jpg,2023-02-03,POINT (185469.2 424336.85)
SPL_SPEELPLEKKEN.75661,Speelplekken.fid--26bbd5c6_18613012ba5_5296,75661,17.01,Albert Schweitzerlaan deels sportplaats Jeu de Boules,51.828025,5.86120265,true,Nijmegen Midden,187675.01,426709.22,Nijmegen,17 Heijendaal,Nijmegen Midden,64,6525JP,Albert Schweitzerlaan,Albert Schweitzerlaan 64,2006,20,2026,https://www.absweb.nu/Fotos/gemeentenijmegen/75661/JPEG_20220712_123034_7917555779656883143.jpg,2023-02-03,POINT (187675.01 426709.22)
SPL_SPEELPLEKKEN.189175,Speelplekken.fid--26bbd5c6_18613012ba5_5297,189175,17.02,Verlengde Groenestraat.,51.826961,5.867099,true,Nijmegen Midden,188082.25,426593.51,Nijmegen,17 Heijendaal,Nijmegen Midden,23,6525EG,Verlengde Groenestraat,Verlengde Groenestraat.,2018,20,2038,https://www.absweb.nu/Fotos/gemeentenijmegen/189175/JPEG_20220712_124943_5006463973975484887.jpg,2023-02-03,POINT (188082.25 426593.51)
SPL_SPEELPLEKKEN.317007,Speelplekken.fid--26bbd5c6_18613012ba5_5298,317007,18.09,Kan.van Osstraat,51.815035,5.865532,true,Nijmegen Zuid,187982.96,425265.99,Nijmegen,18 Brakkenstein,Nijmegen Zuid,16,,Kanunnik van Osstraat,Kan.van Osstraat,2020,20,2040,https://www.absweb.nu/Fotos/gemeentenijmegen/317007/JPEG_20220728_124223_8564433481211340555.jpg,2023-02-03,POINT (187982.96 425265.99)
SPL_SPEELPLEKKEN.75663,Speelplekken.fid--26bbd5c6_18613012ba5_529a,75663,18.03,Deken Gruenwaltstraat,51.81319912,5.86440552,true,Nijmegen Zuid,187906.63,425061.23,Nijmegen,18 Brakkenstein,Nijmegen Zuid,16,6525VD,Deken Gruenwaltstraat,Deken Gruenwaltstraat,2004,15,2019,https://www.absweb.nu/Fotos/gemeentenijmegen/75663/JPEG_20230126_090921_4113513933655637506.jpg,2023-02-03,POINT (187906.63 425061.23)
SPL_SPEELPLEKKEN.75806,Speelplekken.fid--26bbd5c6_18613012ba5_529d,75806,18.02,Baljuwstraat sportplaats (EV),51.81452395,5.85823673,true,Nijmegen Zuid,187480.29,425205.85,Nijmegen,18 Brakkenstein,Nijmegen Zuid,15,6525XG,Baljuwstraat,sportplek,2004,15,2019,https://www.absweb.nu/Fotos/gemeentenijmegen/75806/JPEG_20220712_104350_5389088285428869163.jpg,2023-02-03,POINT (187480.29 425205.85)
SPL_SPEELPLEKKEN.75809,Speelplekken.fid--26bbd5c6_18613012ba5_529e,75809,18.06,Lindanusstraat,51.81057363,5.86842528,true,Nijmegen Zuid,188185.75,424770.97,Nijmegen,18 Brakkenstein,Nijmegen Zuid,41,6525PT,Lindanusstraat,Ingang scheidingsweg tussen 44/40,2004,15,2019,https://www.absweb.nu/Fotos/gemeentenijmegen/75809/JPEG_20220712_105849_3060848326538716566.jpg,2023-02-03,POINT (188185.75 424770.97)
SPL_SPEELPLEKKEN.75918,Speelplekken.fid--26bbd5c6_18613012ba5_529f,75918,18.10,Brakkefort stedelijke speeltuin,51.81380825,5.86094312,true,Nijmegen Zuid,187667.43,425127.44,Nijmegen,18 Brakkenstein,Nijmegen Zuid,72,6525XG,Kan. Meijlinckstraat,Kan. Mijlinckstraat,2010,15,2025,https://www.absweb.nu/Fotos/gemeentenijmegen/75918/JPEG_20211109_094618_5033221601737474978.jpg,2023-02-03,POINT (187667.43 425127.44)
SPL_SPEELPLEKKEN.75927,Speelplekken.fid--26bbd5c6_18613012ba5_52a0,75927,18.11,Natuurspeeltuin Brakkestein,51.81410902,5.87216027,true,Nijmegen Zuid,188440.69,425166,Nijmegen,18 Brakkenstein,Nijmegen Zuid,329,6525PM,Driehuizerweg,Driehuizerweg,2011,10,2021,https://www.absweb.nu/Fotos/gemeentenijmegen/75927/JPEG_20220712_112122_3737812414126022267.jpg,2023-02-03,POINT (188440.69 425166)
SPL_SPEELPLEKKEN.75898,Speelplekken.fid--26bbd5c6_18613012ba5_52a1,75898,18.07,Scheidingsweg sportplaats (EV),51.80954452,5.86707057,true,Nijmegen Zuid,188093.08,424655.86,Nijmegen,18 Brakkenstein,Nijmegen Zuid,60,,Scheidingsweg,Scheidingsweg  tegenover Heijendaalseweg,2009,10,2019,https://www.absweb.nu/Fotos/gemeentenijmegen/75898/JPEG_20220712_110132_8943737849333959460.jpg,2023-02-03,POINT (188093.08 424655.86)
SPL_SPEELPLEKKEN.75893,Speelplekken.fid--26bbd5c6_18613012ba5_52a3,75893,20.02,Kwikstaarthof en Spechtstraat,51.84416893,5.84800692,true,Nijmegen Oud-West,186753.99,428499.44,Nijmegen,20 Biezen,Nijmegen Oud-West,13,6541MA,Kwikstaarthof en Spechtstraat,2 plaatsen Kwikstaarthof in groenvoorzieningen,2008,15,2023,https://www.absweb.nu/Fotos/gemeentenijmegen/75893/JPEG_20220706_101304_3630240317715784474.jpg,2023-02-03,POINT (186753.99 428499.44)
SPL_SPEELPLEKKEN.75882,Speelplekken.fid--26bbd5c6_18613012ba5_52a4,75882,20.01,Havenstraat Weurtsewweg Flavus deels sportplaats  (EV),51.84930332,5.84678608,true,Nijmegen Oud-West,186666.25,429070.13,Nijmegen,20 Biezen,Nijmegen Oud-West,53,6541LJ,Havenstraat Flavus,Weurtseweg Flavus locaties,2007,15,2022,https://www.absweb.nu/Fotos/gemeentenijmegen/75882/JPEG_20220706_111903_5843080065292619842.jpg,2023-02-03,POINT (186666.25 429070.13)
SPL_SPEELPLEKKEN.75932,Speelplekken.fid--26bbd5c6_18613012ba5_52a5,75932,20.03,Rijnstraat,51.85013962,5.8423353,true,Nijmegen Oud-West,186359,429161.24,Nijmegen,20 Biezen,Nijmegen Oud-West,56,6541XE,Rijnstraat,Rijnstraat in verhoging,2013,15,2028,https://www.absweb.nu/Fotos/gemeentenijmegen/75932/JPEG_20220120_140834_9038575881657141730.jpg,2023-02-03,POINT (186359 429161.24)
SPL_SPEELPLEKKEN.75666,Speelplekken.fid--26bbd5c6_18613012ba5_52a6,75666,20.27,Westerpark deels natuurspeel- en sportplaats (MV),51.85161667,5.84029412,true,Nijmegen Oud-West,186217.33,429324.69,Nijmegen,20 Biezen,Nijmegen Oud-West,47,6541VG,Rivierstraat,Westerpark Rivierstraat.,2007,15,2022,https://www.absweb.nu/Fotos/gemeentenijmegen/75666/JPEG_20220706_132430_2689485671707353446.jpg,2023-02-03,POINT (186217.33 429324.69)
SPL_SPEELPLEKKEN.75667,Speelplekken.fid--26bbd5c6_18613012ba5_52a7,75667,20.24,Teerplein deels sportplaats (MV),51.84593235,5.84703412,true,Nijmegen Oud-West,186685.71,428695.2,Nijmegen,20 Biezen,Nijmegen Oud-West,86N,6541SH,Sperwerstraat,Teerveldje,2012,15,2027,https://www.absweb.nu/Fotos/gemeentenijmegen/75667/JPEG_20220706_105147_6237594825625508052.jpg,2023-02-03,POINT (186685.71 428695.2)
SPL_SPEELPLEKKEN.75668,Speelplekken.fid--26bbd5c6_18613012ba5_52a8,75668,20.29,Kwetternest,51.8467082,5.84879562,true,Nijmegen Oud-West,186806.54,428782.29,Nijmegen,20 Biezen,Nijmegen Oud-West,65 / 67,6541PT,Scholekstrstraat,Speeltuin met gedeeltelijk buurtbeheer,2007,15,2022,https://www.absweb.nu/Fotos/gemeentenijmegen/75668/JPEG_20220706_110230_8913155820368069955.jpg,2023-02-03,POINT (186806.54 428782.29)
SPL_SPEELPLEKKEN.75669,Speelplekken.fid--26bbd5c6_18613012ba5_52a9,75669,20.26,Ijsselstraat,51.85020248,5.84579155,true,Nijmegen Oud-West,186597.09,429169.73,Nijmegen,20 Biezen,Nijmegen Oud-West,2,6541XZ,Ijselstraat,Hoek Ijsselstraat.,2008,15,2023,https://www.absweb.nu/Fotos/gemeentenijmegen/75669/JPEG_20220706_112907_4434111564278828818.jpg,2023-02-03,POINT (186597.09 429169.73)
SPL_SPEELPLEKKEN.75670,Speelplekken.fid--26bbd5c6_18613012ba5_52aa,75670,20.18,Reigerplaats en Uiverplaats,51.84757523,5.85209163,true,Nijmegen Oud-West,187033.04,428880.19,Nijmegen,20 Biezen,Nijmegen Oud-West,21 en 17,6541ME,Reigerstraat / Uiverstraat,Reigerplaats en Uiverplaats,2007,20,2027,https://www.absweb.nu/Fotos/gemeentenijmegen/75670/JPEG_20220706_094633_7069642369856681349.jpg,2023-02-03,POINT (187033.04 428880.19)
SPL_SPEELPLEKKEN.75671,Speelplekken.fid--26bbd5c6_18613012ba5_52ab,75671,20.09,Sperwerstraat,51.84483107,5.85090672,true,Nijmegen Oud-West,186953.34,428574.37,Nijmegen,20 Biezen,Nijmegen Oud-West,1,6541SB,Sperwerstraat,Oude Heselaan,2006,15,2021,https://www.absweb.nu/Fotos/gemeentenijmegen/75671/JPEG_20220706_100615_5359697473316074747.jpg,2023-02-03,POINT (186953.34 428574.37)
SPL_SPEELPLEKKEN.75672,Speelplekken.fid--26bbd5c6_18613012ba5_52ac,75672,20.14,Lijnbaanstraat deels sportplaats,51.85259172,5.8457638,true,Nijmegen Oud-West,186593.5,429435.53,Nijmegen,20 Biezen,Nijmegen Oud-West,99,6541GX,Lijnbaanstraat,Lijnbaanstraat tegen de dijk,2003,20,2023,https://www.absweb.nu/Fotos/gemeentenijmegen/75672/JPEG_20220706_092906_5788665521068193208.jpg,2023-02-03,POINT (186593.5 429435.53)
SPL_SPEELPLEKKEN.75673,Speelplekken.fid--26bbd5c6_18613012ba5_52ad,75673,20.20,Heselaan / Oude Weurtseweg,51.84692192,5.85162663,true,Nijmegen Oud-West,187001.46,428807.31,Nijmegen,20 Biezen,Nijmegen Oud-West,90,6541PK,Oude Heselaan,O.Weurtseweg /  Heselaan,2007,20,2027,https://www.absweb.nu/Fotos/gemeentenijmegen/75673/JPEG_20220706_095608_6232868013702928187.jpg,2023-02-03,POINT (187001.46 428807.31)
SPL_SPEELPLEKKEN.75674,Speelplekken.fid--26bbd5c6_18613012ba5_52ae,75674,20.21,Oude Weurtseweg sportplaats (EV),51.8469754,5.8518976,true,Nijmegen Oud-West,187020.1,428813.38,Nijmegen,20 Biezen,Nijmegen Oud-West,5,6541PC,Oude Weurtseweg,Heselaan,2007,20,2027,https://www.absweb.nu/Fotos/gemeentenijmegen/75674/JPEG_20220706_095246_1003053389222822982.jpg,2023-02-03,POINT (187020.1 428813.38)
SPL_SPEELPLEKKEN.75675,Speelplekken.fid--26bbd5c6_18613012ba5_52af,75675,20.22,Basisschool Aquamarijn,51.84808473,5.84328422,true,Nijmegen Oud-West,186425.81,428933.03,Nijmegen,20 Biezen,Nijmegen Oud-West,146A,6541TN,Waterstraat ,Aquamarijn Waterstraat,2014,10,2024,https://www.absweb.nu/Fotos/gemeentenijmegen/75675/JPEG_20220706_113930_8557173919617929757.jpg,2023-02-03,POINT (186425.81 428933.03)
SPL_SPEELPLEKKEN.75676,Speelplekken.fid--26bbd5c6_18613012ba5_52b0,75676,20.32,Zwaluwstraat,51.84563967,5.84453882,true,Nijmegen Oud-West,186513.97,428661.55,Nijmegen,20 Biezen,Nijmegen Oud-West,69,6541NX,Zwaluwstraat,Zwaluwstaart in groenvoorziening,2008,15,2023,https://www.absweb.nu/Fotos/gemeentenijmegen/75676/JPEG_20220706_104328_4322996899674373513.jpg,2023-02-03,POINT (186513.97 428661.55)
SPL_SPEELPLEKKEN.191543,Speelplekken.fid--26bbd5c6_18613012ba5_52b1,191543,20.28,Westerpark.,51.84999407,5.84011983,true,Nijmegen Oud-West,186206.45,429144.09,Nijmegen,20 Biezen,Nijmegen Oud-West,185,6541BN,Biezenstraat.,Rivierstraat hoek Biezenstraat.,2018,20,2038,https://www.absweb.nu/Fotos/gemeentenijmegen/191543/JPEG_20220706_120302_1713157014801435382.jpg,2023-02-03,POINT (186206.45 429144.09)
SPL_SPEELPLEKKEN.444271,Speelplekken.fid--26bbd5c6_18613012ba5_52b2,444271,20.25,Winselingseweg.,51.85533523,5.83980286,true,Nijmegen Oud-West,186180.91,429738.18,Nijmegen,20 Biezen,Nijmegen Oud-West,10,,Winselingseweg.,Winselingseweg.,2021,20,2041,https://www.absweb.nu/Fotos/gemeentenijmegen/444271/JPEG_20220706_135856_5399622880028738876.jpg,2023-02-03,POINT (186180.91 429738.18)
SPL_SPEELPLEKKEN.191542,Speelplekken.fid--26bbd5c6_18613012ba5_52b3,191542,21.06,Zonnebloemstraat.,51.83967282,5.84318425,true,Nijmegen Oud-West,186424.8,427997.13,Nijmegen,21 Wolfskuil,Nijmegen Oud-West,27,6542NG,Zonnebloemstraat,Zonnebloemstraat.,2018,20,2038,https://www.absweb.nu/Fotos/gemeentenijmegen/191542/JPEG_20220708_071559_8990708602578777558.jpg,2023-02-03,POINT (186424.8 427997.13)
SPL_SPEELPLEKKEN.75677,Speelplekken.fid--26bbd5c6_18613012ba5_52b4,75677,21.13,Koninginnelaan,51.84103593,5.84802158,true,Nijmegen Oud-West,186757.21,428150.89,Nijmegen,21 Wolfskuil,Nijmegen Oud-West,78,6542ZB,Koniginnelaan / Begoniastraat,Ingang Koninginnenlaan 78,2012,10,2022,https://www.absweb.nu/Fotos/gemeentenijmegen/75677/JPEG_20220708_084545_8283656967574267316.jpg,2023-02-03,POINT (186757.21 428150.89)
SPL_SPEELPLEKKEN.75678,Speelplekken.fid--26bbd5c6_18613012ba5_52b5,75678,21.11,Ridderspoor sportplaats (EV),51.84061308,5.84902872,true,Nijmegen Oud-West,186826.91,428104.28,Nijmegen,21 Wolfskuil,Nijmegen Oud-West,134,6542HG,Ridderspoor,Bij huisnummer 134,2002,20,2022,https://www.absweb.nu/Fotos/gemeentenijmegen/75678/JPEG_20220708_083230_8708836992932274468.jpg,2023-02-03,POINT (186826.91 428104.28)
SPL_SPEELPLEKKEN.75679,Speelplekken.fid--26bbd5c6_18613012ba5_52b6,75679,21.04,Veldje wijkspeeltuin,51.8405282,5.841193,true,Nijmegen Oud-West,186286.97,428091.44,Nijmegen,21 Wolfskuil,Nijmegen Oud-West,22,6542NA,Clematisstraat,Clematisstraat,2007,15,2022,https://www.absweb.nu/Fotos/gemeentenijmegen/75679/JPEG_20220708_100635_2296111763145015310.jpg,2023-02-03,POINT (186286.97 428091.44)
SPL_SPEELPLEKKEN.75680,Speelplekken.fid--26bbd5c6_18613012ba5_52b7,75680,21.21,Floraweg Kobus,51.83738778,5.8427818,true,Nijmegen Oud-West,186398.65,427742.74,Nijmegen,21 Wolfskuil,Nijmegen Oud-West,51,6542KB,Floraweg,Bij kinderboerderij Kobus,2008,15,2023,https://www.absweb.nu/Fotos/gemeentenijmegen/75680/JPEG_20220708_075624_3203606187671025679.jpg,2023-02-03,POINT (186398.65 427742.74)
SPL_SPEELPLEKKEN.75681,Speelplekken.fid--26bbd5c6_18613012ba5_52b8,75681,21.10,Ridderspoor,51.83900785,5.8481181,true,Nijmegen Oud-West,186765.29,427925.3,Nijmegen,21 Wolfskuil,Nijmegen Oud-West,58,6542HE,Ridderspoor,Bij huisnummer 58,2007,15,2022,https://www.absweb.nu/Fotos/gemeentenijmegen/75681/JPEG_20220708_082051_4142291972448231471.jpg,2023-02-03,POINT (186765.29 427925.3)
SPL_SPEELPLEKKEN.75682,Speelplekken.fid--26bbd5c6_18613012ba5_52b9,75682,21.14,Nw. Nonnendaalseweg,51.83914697,5.84653395,true,Nijmegen Oud-West,186656.02,427940.08,Nijmegen,21 Wolfskuil,Nijmegen Oud-West,2,6542ZS,Nw. Nonnendaalseweg,Hoek Koninginnelaan,2007,15,2022,https://www.absweb.nu/Fotos/gemeentenijmegen/75682/JPEG_20220708_081320_3571000195389962763.jpg,2023-02-03,POINT (186656.02 427940.08)
SPL_SPEELPLEKKEN.75683,Speelplekken.fid--26bbd5c6_18613012ba5_52ba,75683,21.03,Boerenlandje Wijkspeeltuin,51.84340821,5.84446299,true,Nijmegen Oud-West,186510.31,428413.26,Nijmegen,21 Wolfskuil,Nijmegen Oud-West,10,6542TZ,Pluvierstraat,Pluvierstraat,2004,15,2019,https://www.absweb.nu/Fotos/gemeentenijmegen/75683/JPEG_20220708_110519_340842283177472182.jpg,2023-02-03,POINT (186510.31 428413.26)
SPL_SPEELPLEKKEN.75684,Speelplekken.fid--26bbd5c6_18613012ba5_52bb,75684,21.07,Oude Azaleastraat. sportplaats,51.83780037,5.84448487,true,Nijmegen Oud-West,186515.74,427789.38,Nijmegen,21 Wolfskuil,Nijmegen Oud-West,42,6542JA,Oude Azaleastraat,Oude Azaleastraat,2002,17,2019,https://www.absweb.nu/Fotos/gemeentenijmegen/75684/JPEG_20220708_080302_1802450524003591501.jpg,2023-02-03,POINT (186515.74 427789.38)
SPL_SPEELPLEKKEN.75925,Speelplekken.fid--26bbd5c6_18613012ba5_52be,75925,21.20,Floraweg sportplaats (EV),51.83704028,5.84194768,true,Nijmegen Oud-West,186341.41,427703.72,Nijmegen,21 Wolfskuil,Nijmegen Oud-West,,6542JN,Floraweg,Naast de school,2011,15,2026,https://www.absweb.nu/Fotos/gemeentenijmegen/75925/JPEG_20220708_075243_5184844028159250445.jpg,2023-02-03,POINT (186341.41 427703.72)
SPL_SPEELPLEKKEN.114011,Speelplekken.fid--26bbd5c6_18613012ba5_52bf,114011,21.05,Parkje Rozenbuurt,51.8349987,5.84324642,true,Nijmegen Oud-West,186432.34,427477.15,Nijmegen,21 Wolfskuil,Nijmegen Oud-West,,6531XV,Hatertseveldweg,Hatertseveldweg (noord),2017,15,2032,https://www.absweb.nu/Fotos/gemeentenijmegen/114011/JPEG_20220708_121849_7200050727672151578.jpg,2023-02-03,POINT (186432.34 427477.15)
SPL_SPEELPLEKKEN.75821,Speelplekken.fid--26bbd5c6_18613012ba5_52c0,75821,21.02,Begoniastraat,51.84149513,5.84881898,true,Nijmegen Oud-West,186811.83,428202.32,Nijmegen,21 Wolfskuil,Nijmegen Oud-West,19,6542ZA,Begoniastraat,Begoniastraat Anjelierenweg,2007,15,2022,https://www.absweb.nu/Fotos/gemeentenijmegen/75821/JPEG_20230123_095326_93529875141018885.jpg,2023-02-03,POINT (186811.83 428202.32)
SPL_SPEELPLEKKEN.75797,Speelplekken.fid--26bbd5c6_18613012ba5_52c1,75797,21.22,De Wieken deels sportplaats,51.83631917,5.84069745,true,Nijmegen Oud-West,186255.74,427622.95,Nijmegen,21 Wolfskuil,Nijmegen Oud-West,69,6542JK,Floraweg,OWS De Wieken Floraweg,2006,15,2021,https://www.absweb.nu/Fotos/gemeentenijmegen/75797/JPEG_20220117_132854_7910326710415950122.jpg,2023-02-03,POINT (186255.74 427622.95)
SPL_SPEELPLEKKEN.75830,Speelplekken.fid--26bbd5c6_18613012ba5_52c2,75830,21.01,Bosbesstraat,51.83853408,5.83870852,true,Nijmegen Oud-West,186117.13,427868.52,Nijmegen,21 Wolfskuil,Nijmegen Oud-West,81,6542NR,Bosbesstraat,Bosbesstraat,2006,15,2021,https://www.absweb.nu/Fotos/gemeentenijmegen/75830/JPEG_20220708_072218_5689679155585599243.jpg,2023-02-03,POINT (186117.13 427868.52)
SPL_SPEELPLEKKEN.75824,Speelplekken.fid--26bbd5c6_18613012ba5_52c3,75824,22.02,Distelpark deels sportplaats (EV) Jeu de Boules,51.84117103,5.83541985,true,Nijmegen Nieuw-West,185888.67,428160.49,Nijmegen,22 Hees,Nijmegen Nieuw-West,46,6542RC,Schependomlaan,Oscar Carstraat / Wolskuilseweg,2005,15,2020,https://www.absweb.nu/Fotos/gemeentenijmegen/75824/JPEG_20220711_073128_3367033373775406028.jpg,2023-02-03,POINT (185888.67 428160.49)
SPL_SPEELPLEKKEN.75890,Speelplekken.fid--26bbd5c6_18613012ba5_52c4,75890,22.03,Bredestraat Park West deels sportplaats (EV),51.84480643,5.83303245,true,Nijmegen Nieuw-West,185721.67,428563.93,Nijmegen,22 Hees,Nijmegen Nieuw-West,62,6542SW,Bredestraat,Bredestraat bij Sportvelden,2008,12,2020,https://www.absweb.nu/Fotos/gemeentenijmegen/75890/JPEG_20220708_063452_3106642160588153365.jpg,2023-02-03,POINT (185721.67 428563.93)
SPL_SPEELPLEKKEN.75688,Speelplekken.fid--26bbd5c6_18613012ba5_52c5,75688,22.01,Pomonastraat deels sportplaats (EV),51.84175848,5.83061553,true,Nijmegen Nieuw-West,185557.19,428223.81,Nijmegen,22 Hees,Nijmegen Nieuw-West,19,6543ZJ,Pomonastraat,Pomonastraat,2006,15,2021,https://www.absweb.nu/Fotos/gemeentenijmegen/75688/JPEG_20220117_150553_1772577212041969084.jpg,2023-02-03,POINT (185557.19 428223.81)
SPL_SPEELPLEKKEN.75689,Speelplekken.fid--26bbd5c6_18613012ba5_52c6,75689,23.25,Park West Planetenpark,51.83732816,5.82957301,true,Nijmegen Nieuw-West,185488.34,427730.48,Nijmegen,23 Heseveld,Nijmegen Nieuw-West,41,6543ZS,Venusstraat,Bij zwembad / Venusstraat 41,2006,15,2021,https://www.absweb.nu/Fotos/gemeentenijmegen/75689/JPEG_20220711_083909_6315032215813001437.jpg,2023-02-03,POINT (185488.34 427730.48)
SPL_SPEELPLEKKEN.75690,Speelplekken.fid--26bbd5c6_18613012ba5_52c7,75690,23.05,Simon Stevinstraat,51.83645597,5.8261051,true,Nijmegen Nieuw-West,185249.92,427632,Nijmegen,23 Heseveld,Nijmegen Nieuw-West,16,6543LR,Simon Stevinstraat,Simon stevinstraat.,2012,20,2032,https://www.absweb.nu/Fotos/gemeentenijmegen/75690/JPEG_20220711_085248_2081891758536388327.jpg,2023-02-03,POINT (185249.92 427632)
SPL_SPEELPLEKKEN.75691,Speelplekken.fid--26bbd5c6_18613012ba5_52c8,75691,23.06,Pieter Postplein,51.83481035,5.82481698,true,Nijmegen Nieuw-West,185162.24,427448.38,Nijmegen,23 Heseveld,Nijmegen Nieuw-West,56,6543LW,Pieter Postplein,Pieter Postplein,2005,15,2020,https://www.absweb.nu/Fotos/gemeentenijmegen/75691/JPEG_20220711_091606_6329035958406395840.jpg,2023-02-03,POINT (185162.24 427448.38)
SPL_SPEELPLEKKEN.75692,Speelplekken.fid--26bbd5c6_18613012ba5_52c9,75692,23.09,Daniëlsplein sportplaats,51.83500816,5.82813302,true,Nijmegen Nieuw-West,185390.67,427471.77,Nijmegen,23 Heseveld,Nijmegen Nieuw-West,4,6543NA,Daniëlsplein,Marktplein,2007,15,2022,https://www.absweb.nu/Fotos/gemeentenijmegen/75692/JPEG_20220711_092506_1355455386285036812.jpg,2023-02-03,POINT (185390.67 427471.77)
SPL_SPEELPLEKKEN.75693,Speelplekken.fid--26bbd5c6_18613012ba5_52ca,75693,23.15,Liguster de Wijkspeeltuin,51.8364231,5.83497928,true,Nijmegen Nieuw-West,185861.57,427632.07,Nijmegen,23 Heseveld,Nijmegen Nieuw-West,11,6543SB,Seringenstraat,Seringenstraat,2005,15,2020,https://www.absweb.nu/Fotos/gemeentenijmegen/75693/JPEG_20220708_131204_1525737262984768394.jpg,2023-02-03,POINT (185861.57 427632.07)
SPL_SPEELPLEKKEN.75694,Speelplekken.fid--26bbd5c6_18613012ba5_52cb,75694,23.22,Neptunusstraat,51.83900038,5.83264175,true,Nijmegen Nieuw-West,185698.7,427917.82,Nijmegen,23 Heseveld,Nijmegen Nieuw-West,39.,6543WX,Neptunusstraat,In park bij huisnummer 39,2007,12,2019,https://www.absweb.nu/Fotos/gemeentenijmegen/75694/JPEG_20220711_082807_7236306422796119042.jpg,2023-02-03,POINT (185698.7 427917.82)
SPL_SPEELPLEKKEN.75695,Speelplekken.fid--26bbd5c6_18613012ba5_52cc,75695,23.18,Hatertseveldweg,51.83072992,5.83116978,true,Nijmegen Nieuw-West,185602.88,426997.08,Nijmegen,23 Heseveld,Nijmegen Nieuw-West,297,6532ZR,Hatertseveldweg,Hatertseveldweg,2006,13,2019,https://www.absweb.nu/Fotos/gemeentenijmegen/75695/JPEG_20220708_124631_2954736095569586784.jpg,2023-02-03,POINT (185602.88 426997.08)
SPL_SPEELPLEKKEN.75696,Speelplekken.fid--26bbd5c6_18613012ba5_52cd,75696,23.01,Boksdoorstraat / Klimopstraat sportplaats (EV),51.83672225,5.83635823,true,Nijmegen Nieuw-West,185956.4,427665.94,Nijmegen,23 Heseveld,Nijmegen Nieuw-West,39,6543SB,Klimopstraat,Boksdoorstraat,2006,15,2021,https://www.absweb.nu/Fotos/gemeentenijmegen/75696/JPEG_20220708_141441_5986483778341815927.jpg,2023-02-03,POINT (185956.4 427665.94)
SPL_SPEELPLEKKEN.75697,Speelplekken.fid--26bbd5c6_18613012ba5_52ce,75697,23.23,Hatertseveldweg sportplaats,51.8307373,5.83040153,true,Nijmegen Nieuw-West,185549.92,426997.57,Nijmegen,23 Heseveld,Nijmegen Nieuw-West,321,6532ZR,Hatertseveldweg,In park thv huisnummer 297,2007,15,2022,https://www.absweb.nu/Fotos/gemeentenijmegen/75697/JPEG_20220708_125555_4407337969729641154.jpg,2023-02-03,POINT (185549.92 426997.57)
SPL_SPEELPLEKKEN.75884,Speelplekken.fid--26bbd5c6_18613012ba5_52cf,75884,23.03,Een Slingertouw deels sportplaats (EV),51.8352164,5.82256605,true,Nijmegen Nieuw-West,185006.83,427492.63,Nijmegen,23 Heseveld,Nijmegen Nieuw-West,1,6543KT,Jacob van Campenstraat,Jacob van Campenstraat,2013,10,2023,https://www.absweb.nu/Fotos/gemeentenijmegen/75884/JPEG_20220711_085831_6824295478238635602.jpg,2023-02-03,POINT (185006.83 427492.63)
SPL_SPEELPLEKKEN.135087,Speelplekken.fid--26bbd5c6_18613012ba5_52d0,135087,23.04,Kaaplandstraat.,51.83190159,5.82784229,true,Nijmegen Nieuw-West,185372.72,427126.03,Nijmegen,23 Heseveld,Nijmegen Nieuw-West,,6543PC,Kaaplandstraat.,Kaaplandstraat in groenvoorziening.,2017,12,2029,https://www.absweb.nu/Fotos/gemeentenijmegen/135087/JPEG_20220712_062815_5766035135508908201.jpg,2023-02-03,POINT (185372.72 427126.03)
SPL_SPEELPLEKKEN.75912,Speelplekken.fid--26bbd5c6_18613012ba5_52d1,75912,23.02,Venusstraat sportplaats (EV),51.83760822,5.83135343,true,Nijmegen Nieuw-West,185610.86,427762.39,Nijmegen,23 Heseveld,Nijmegen Nieuw-West,27,6543WR,Venusstraat,Venusstraat,2013,10,2023,https://www.absweb.nu/Fotos/gemeentenijmegen/75912/JPEG_20220711_083642_7231932609701938210.jpg,2023-02-03,POINT (185610.86 427762.39)
SPL_SPEELPLEKKEN.75924,Speelplekken.fid--26bbd5c6_18613012ba5_52d2,75924,22.05,Rosa de Lima,51.83481058,5.81862403,true,Nijmegen Nieuw-West,184735.4,427445.86,Nijmegen,24 Neerbosch-oost,Nijmegen Nieuw-West,33,6543JD,Godfried Bomansstraat,Nieuwbouw Rosa de Lima,2012,10,2022,https://www.absweb.nu/Fotos/gemeentenijmegen/75924/JPEG_20220705_134628_6823842355060854826.jpg,2023-02-03,POINT (184735.4 427445.86)
SPL_SPEELPLEKKEN.75876,Speelplekken.fid--26bbd5c6_18613012ba5_52d3,75876,24.07,Trompetstraat,51.83399408,5.81035898,true,Nijmegen Nieuw-West,184166.27,427351.67,Nijmegen,24 Neerbosch-oost,Nijmegen Nieuw-West,16,6544ND,Trompetstraat,Trompetstraat,2008,15,2023,https://www.absweb.nu/Fotos/gemeentenijmegen/75876/JPEG_20220705_105839_242773240368230613.jpg,2023-02-03,POINT (184166.27 427351.67)
SPL_SPEELPLEKKEN.75798,Speelplekken.fid--26bbd5c6_18613012ba5_52d4,75798,24.14,Kinderboerderij Het Boerke,51.82806727,5.80905078,true,Nijmegen Nieuw-West,184079.93,426691.77,Nijmegen,24 Neerbosch-oost,Nijmegen Nieuw-West,200,6544SN,Oostkanaaldijk,Oostkanaaldijk 200 / Tangostraat 68,2007,15,2022,https://www.absweb.nu/Fotos/gemeentenijmegen/75798/JPEG_20220705_102649_6782994880943769109.jpg,2023-02-03,POINT (184079.93 426691.77)
SPL_SPEELPLEKKEN.75847,Speelplekken.fid--26bbd5c6_18613012ba5_52d5,75847,24.01,Harpstraat,51.82901112,5.81759403,true,Nijmegen Nieuw-West,184668.23,426800.22,Nijmegen,24 Neerbosch-oost,Nijmegen Nieuw-West,25,6544XP,Harpstraat,Harpstraat 25,2006,15,2021,https://www.absweb.nu/Fotos/gemeentenijmegen/75847/JPEG_20220705_092240_128341610547819873.jpg,2023-02-03,POINT (184668.23 426800.22)
SPL_SPEELPLEKKEN.75858,Speelplekken.fid--26bbd5c6_18613012ba5_52d6,75858,24.04,Nocturnestraat sportplaats,51.82676127,5.81027775,true,Nijmegen Nieuw-West,184165.35,426546.96,Nijmegen,24 Neerbosch-oost,Nijmegen Nieuw-West,230,6544SK,Triangelstraat,Nocturnestraat  Triangelstraat,2007,15,2022,https://www.absweb.nu/Fotos/gemeentenijmegen/75858/JPEG_20220705_091049_3560314769887719910.jpg,2023-02-03,POINT (184165.35 426546.96)
SPL_SPEELPLEKKEN.75698,Speelplekken.fid--26bbd5c6_18613012ba5_52d7,75698,22.04,Jan Brinkhofplantsoen,51.83643452,5.81897525,true,Nijmegen Nieuw-West,184758.54,427626.67,Nijmegen,24 Neerbosch-oost,Nijmegen Nieuw-West,14,6543KA,Jan Brinkhofplantsoen,vrm.Dom.coll,2008,17,2025,https://www.absweb.nu/Fotos/gemeentenijmegen/75698/JPEG_20220705_133742_1299148990234214664.jpg,2023-02-03,POINT (184758.54 427626.67)
SPL_SPEELPLEKKEN.75699,Speelplekken.fid--26bbd5c6_18613012ba5_52d8,75699,24.03,Tubastraat pleintje,51.83414583,5.81257313,true,Nijmegen Nieuw-West,184318.78,427369.44,Nijmegen,24 Neerbosch-oost,Nijmegen Nieuw-West,10,6544NJ,Tubastraat,Tubastraat,2009,10,2019,https://www.absweb.nu/Fotos/gemeentenijmegen/75699/JPEG_20220705_105050_1486220553039189032.jpg,2023-02-03,POINT (184318.78 427369.44)
SPL_SPEELPLEKKEN.75700,Speelplekken.fid--26bbd5c6_18613012ba5_52d9,75700,24.05,Symfoniestraat sportplaats,51.83225162,5.81143158,true,Nijmegen Nieuw-West,184241.33,427158.25,Nijmegen,24 Neerbosch-oost,Nijmegen Nieuw-West,220,6544NK,Symfoniestraat,Cruiff court,2009,22,2031,https://www.absweb.nu/Fotos/gemeentenijmegen/75700/JPEG_20220705_101406_6545385086898799320.jpg,2023-02-03,POINT (184241.33 427158.25)
SPL_SPEELPLEKKEN.75701,Speelplekken.fid--26bbd5c6_18613012ba5_52da,75701,24.08,Menuetstraat,51.82989002,5.8099946,true,Nijmegen Nieuw-West,184143.81,426894.93,Nijmegen,24 Neerbosch-oost,Nijmegen Nieuw-West,3,6544SH,Menuetstraat,Mazurkastraat,2005,15,2020,https://www.absweb.nu/Fotos/gemeentenijmegen/75701/JPEG_20220705_084230_7697963829928004982.jpg,2023-02-03,POINT (184143.81 426894.93)
SPL_SPEELPLEKKEN.75702,Speelplekken.fid--26bbd5c6_18613012ba5_52db,75702,24.13,Banjoveld deels sportplaats (EV),51.8303041,5.81668388,true,Nijmegen Nieuw-West,184604.64,426943.7,Nijmegen,24 Neerbosch-oost,Nijmegen Nieuw-West,5,6544WZ,Banjostraat,O.C. Huismanstraat  / Banjostraat,2008,15,2023,https://www.absweb.nu/Fotos/gemeentenijmegen/75702/JPEG_20220705_093135_7082989196777728646.jpg,2023-02-03,POINT (184604.64 426943.7)
SPL_SPEELPLEKKEN.75703,Speelplekken.fid--26bbd5c6_18613012ba5_52dc,75703,24.17,Klaroenstraat  deels sportplaats (EV),51.83140312,5.80848927,true,Nijmegen Nieuw-West,184039.07,427062.67,Nijmegen,24 Neerbosch-oost,Nijmegen Nieuw-West,90,6544RC,Rapsodistraat,Rapsodiestraat / Klaroenstraat 96,2008,12,2020,https://www.absweb.nu/Fotos/gemeentenijmegen/75703/JPEG_20220705_083147_6487539188033046763.jpg,2023-02-03,POINT (184039.07 427062.67)
SPL_SPEELPLEKKEN.75704,Speelplekken.fid--26bbd5c6_18613012ba5_52dd,75704,24.15,O. C. Huismanstraat deels sportplaats (EV),51.8276958,5.81038608,true,Nijmegen Nieuw-West,184172.22,426650.97,Nijmegen,24 Neerbosch-oost,Nijmegen Nieuw-West,98,6544ZW,Triangelstraat,O.C. Huismanstraat / Triangelstraat,2007,15,2022,https://www.absweb.nu/Fotos/gemeentenijmegen/75704/JPEG_20220705_085919_1257196518843071755.jpg,2023-02-03,POINT (184172.22 426650.97)
SPL_SPEELPLEKKEN.75705,Speelplekken.fid--26bbd5c6_18613012ba5_52de,75705,24.19,Sonatestraat,51.8335006,5.8173823,true,Nijmegen Nieuw-West,184650.68,427299.61,Nijmegen,24 Neerbosch-oost,Nijmegen Nieuw-West,41,6544PP,Sonatestraat,Sonatestraat,2001,20,2021,https://www.absweb.nu/Fotos/gemeentenijmegen/75705/JPEG_20220705_104333_2119696326796795479.jpg,2023-02-03,POINT (184650.68 427299.61)
SPL_SPEELPLEKKEN.448499,Speelplekken.fid--26bbd5c6_18613012ba5_52df,448499,24.18,Symfoniestraat ,51.83138486,5.81286879,true,Nijmegen Nieuw-West,184340.96,427062.39,Nijmegen,24 Neerbosch-oost,Nijmegen Nieuw-West,202,,Symfoniestraat,Symfoniestraat bij wijkcentrum,2021,20,2041,https://www.absweb.nu/Fotos/gemeentenijmegen/448499/JPEG_20220705_094457_919374459557526685.jpg,2023-02-03,POINT (184340.96 427062.39)
SPL_SPEELPLEKKEN.329237,Speelplekken.fid--26bbd5c6_18613012ba5_52e0,329237,24.20,Kindcentrum Het Octaaf,51.831817,5.812362,true,Nijmegen Nieuw-West,184305.74,427110.27,Nijmegen,24 Neerbosch-oost,Nijmegen Nieuw-West,210,,Symfoniestraat,Symfoniestraat,2020,0,2020,https://www.absweb.nu/Fotos/gemeentenijmegen/329237/JPEG_20220705_095033_5261911383620942370.jpg,2023-02-03,POINT (184305.74 427110.27)
SPL_SPEELPLEKKEN.75706,Speelplekken.fid--26bbd5c6_18613012ba5_52e1,75706,31.13,De Dukendonck Tolhuis 43e straat sportplaats,51.81846995,5.79050035,true,Nijmegen Dukenburg,182807.09,425616.77,Nijmegen,31 Tolhuis,Nijmegen Dukenburg,43-55,6537PR,Tolhuis 43e straat,Bij School de Dukendonck,2002,20,2022,https://www.absweb.nu/Fotos/gemeentenijmegen/75706/JPEG_20220104_140837_1831645089652819805.jpg,2023-02-03,POINT (182807.09 425616.77)
SPL_SPEELPLEKKEN.75707,Speelplekken.fid--26bbd5c6_18613012ba5_52e2,75707,31.05,Tolhuis 43e straat bij garageboxen,51.81724592,5.7919485,true,Nijmegen Dukenburg,182907.7,425481.15,Nijmegen,31 Tolhuis,Nijmegen Dukenburg,43 58,6537PS,Tolhuis 43e straat,Achter garageboxen,2005,15,2020,https://www.absweb.nu/Fotos/gemeentenijmegen/75707/JPEG_20220629_112325_4020460030903648065.jpg,2023-02-03,POINT (182907.7 425481.15)
SPL_SPEELPLEKKEN.75708,Speelplekken.fid--26bbd5c6_18613012ba5_52e3,75708,31.16,Tolhuis 75e straat bij NUON huisje,51.81949925,5.78614065,true,Nijmegen Dukenburg,182505.86,425729.62,Nijmegen,31 Tolhuis,Nijmegen Dukenburg,78 27,6537SB,Tolhuis 75,Tolhuis 75e straat,2009,10,2019,https://www.absweb.nu/Fotos/gemeentenijmegen/75708/JPEG_20220629_102751_3043487158693731603.jpg,2023-02-03,POINT (182505.86 425729.62)
SPL_SPEELPLEKKEN.75709,Speelplekken.fid--26bbd5c6_18613012ba5_52e4,75709,31.19,Tolhuis 31e straat,51.81641253,5.79290773,true,Nijmegen Dukenburg,182974.35,425388.8,Nijmegen,31 Tolhuis,Nijmegen Dukenburg,31-08,6537NB,Tolhuis 31e straat,In Groenvoorziening,2009,10,2019,https://www.absweb.nu/Fotos/gemeentenijmegen/75709/JPEG_20220629_112930_3762511492562561035.jpg,2023-02-03,POINT (182974.35 425388.8)
SPL_SPEELPLEKKEN.75710,Speelplekken.fid--26bbd5c6_18613012ba5_52e5,75710,31.18,Tolhuis 35e straat,51.81554997,5.78755162,true,Nijmegen Dukenburg,182605.56,425290.79,Nijmegen,31 Tolhuis,Nijmegen Dukenburg,35 18,6537NR,Tolhuis 34e straat,Tolhuis 35e straat,2010,10,2020,https://www.absweb.nu/Fotos/gemeentenijmegen/75710/JPEG_20220629_113648_3242729912717266007.jpg,2023-02-03,POINT (182605.56 425290.79)
SPL_SPEELPLEKKEN.75711,Speelplekken.fid--26bbd5c6_18613012ba5_52e6,75711,31.17,Tolhuis 43e straat,51.81835803,5.78991304,true,Nijmegen Dukenburg,182766.66,425604.09,Nijmegen,31 Tolhuis,Nijmegen Dukenburg,44 44,6537PN,Tolhuis 44e straat,44e str.75/27,2009,10,2019,https://www.absweb.nu/Fotos/gemeentenijmegen/75711/JPEG_20220629_103738_6588264764765521210.jpg,2023-02-03,POINT (182766.66 425604.09)
SPL_SPEELPLEKKEN.75712,Speelplekken.fid--26bbd5c6_18613012ba5_52e7,75712,31.15,Tolhuis 61e straat,51.81994063,5.79437722,true,Nijmegen Dukenburg,183073.48,425781.88,Nijmegen,31 Tolhuis,Nijmegen Dukenburg,61-46,6537TK,Tolhuis 61e straat,61e straat,2010,10,2020,https://www.absweb.nu/Fotos/gemeentenijmegen/75712/JPEG_20220629_101415_633177375929784384.jpg,2023-02-03,POINT (183073.48 425781.88)
SPL_SPEELPLEKKEN.75842,Speelplekken.fid--26bbd5c6_18613012ba5_52e8,75842,31.04,Tolhuis Steve Bikoplein sportplaats (EV),51.8162233,5.80180148,true,Nijmegen Dukenburg,183587.72,425371.2,Nijmegen,31 Tolhuis,Nijmegen Dukenburg,,6537KT,Steve Bikoplein Tolhuis,Steve Bikoplein / Tolhuis,2006,15,2021,https://www.absweb.nu/Fotos/gemeentenijmegen/75842/JPEG_20220629_100041_5870164208532925364.jpg,2023-02-03,POINT (183587.72 425371.2)
SPL_SPEELPLEKKEN.75834,Speelplekken.fid--26bbd5c6_18613012ba5_52e9,75834,31.03,Tolhuis 44e straat sportplaats,51.81844118,5.78888265,true,Nijmegen Dukenburg,182695.57,425612.95,Nijmegen,31 Tolhuis,Nijmegen Dukenburg,44 46,6537PN,Tolhuis 44e straat,Tussen school en gymzaal,2006,15,2021,https://www.absweb.nu/Fotos/gemeentenijmegen/75834/JPEG_20220629_103551_6101172647385805337.jpg,2023-02-03,POINT (182695.57 425612.95)
SPL_SPEELPLEKKEN.75869,Speelplekken.fid--26bbd5c6_18613012ba5_52ea,75869,31.06,Tolhuis 63e straat sportplaats (JB),51.82069947,5.79268502,true,Nijmegen Dukenburg,182956.34,425865.65,Nijmegen,31 Tolhuis,Nijmegen Dukenburg,63-62,6537SW,Tolhuis 63e straat,In Tolhuis 62 straat,2006,15,2021,https://www.absweb.nu/Fotos/gemeentenijmegen/75869/JPEG_20220629_102105_3227146422209647281.jpg,2023-02-03,POINT (182956.34 425865.65)
SPL_SPEELPLEKKEN.75870,Speelplekken.fid--26bbd5c6_18613012ba5_52eb,75870,31.02,Tolhuis 33e straat sportplaats (JB),51.81526262,5.7896793,true,Nijmegen Dukenburg,182752.45,425259.63,Nijmegen,31 Tolhuis,Nijmegen Dukenburg,33-27,6537NL,Tolhuis,Tegen over 33-27,2007,15,2022,https://www.absweb.nu/Fotos/gemeentenijmegen/75870/JPEG_20220629_114737_4609324953975330522.jpg,2023-02-03,POINT (182752.45 425259.63)
SPL_SPEELPLEKKEN.75919,Speelplekken.fid--26bbd5c6_18613012ba5_52ec,75919,38.04,Speeldijk,51.8078674,5.79345942,true,Nijmegen Dukenburg,183017.71,424438.33,Nijmegen,38 Teersdijk / staddijk,Nijmegen Dukenburg,47,6537TW,Staddijk,Staddijk wijkspeeltuin,2010,10,2020,https://www.absweb.nu/Fotos/gemeentenijmegen/75919/JPEG_20220622_125244_3332207763841773582.jpg,2023-02-03,POINT (183017.71 424438.33)
SPL_SPEELPLEKKEN.75845,Speelplekken.fid--26bbd5c6_18613012ba5_52ed,75845,38.02,Staddijk (eigendom acomodaties),51.80911765,5.78994247,true,Nijmegen Dukenburg,182774.39,424576.08,Nijmegen,38 Teersdijk / staddijk,Nijmegen Dukenburg,109,6537TW,Staddijk,Stadspark bij scouting de Bevers,2006,15,2021,https://www.absweb.nu/Fotos/gemeentenijmegen/75845/JPEG_20220622_125958_219837811745199373.jpg,2023-02-03,POINT (182774.39 424576.08)
SPL_SPEELPLEKKEN.75713,Speelplekken.fid--26bbd5c6_18613012ba5_52ee,75713,38.01,Woonwagencentrum Teersdijk deels sportplaats (EV),51.81732832,5.78214272,true,Nijmegen Dukenburg,182231.53,425486.59,Nijmegen,38 Teersdijk / staddijk,Nijmegen Dukenburg,6,6537TR,Tolhekstraat,In groenvoorziening bij nieuwbouw,2007,15,2022,https://www.absweb.nu/Fotos/gemeentenijmegen/75713/JPEG_20220629_130644_3960976971103903946.jpg,2023-02-03,POINT (182231.53 425486.59)
SPL_SPEELPLEKKEN.75714,Speelplekken.fid--26bbd5c6_18613012ba5_52ef,75714,32.18,Zwanenveld 34e straat,51.8203974,5.80747062,true,Nijmegen Dukenburg,183975.93,425837.83,Nijmegen,32 Zwanenveld,Nijmegen Dukenburg,34-17,6538ZD,Zwanenveld 34e straat,Zwanenveld 34e straat,2003,20,2023,https://www.absweb.nu/Fotos/gemeentenijmegen/75714/JPEG_20220701_073224_1602521939876565882.jpg,2023-02-03,POINT (183975.93 425837.83)
SPL_SPEELPLEKKEN.75715,Speelplekken.fid--26bbd5c6_18613012ba5_52f0,75715,32.08,Zwanenveld 51e straat,51.82460857,5.8030954,true,Nijmegen Dukenburg,183671.6,426304.61,Nijmegen,32 Zwanenveld,Nijmegen Dukenburg,51-44,6538VH,Zwanenveld 51e straat,Bij huisnummer 51-26,2001,20,2021,https://www.absweb.nu/Fotos/gemeentenijmegen/75715/JPEG_20220701_082349_2480581125744808458.jpg,2023-02-03,POINT (183671.6 426304.61)
SPL_SPEELPLEKKEN.75716,Speelplekken.fid--26bbd5c6_18613012ba5_52f1,75716,32.06,Zwanenveld 63e straat,51.82085417,5.79636332,true,Nijmegen Dukenburg,183209.84,425884.28,Nijmegen,32 Zwanenveld,Nijmegen Dukenburg,63-59,6538RP,Zwanenveld 63e straat,Bij huisnummer 63-57,2001,18,2019,https://www.absweb.nu/Fotos/gemeentenijmegen/75716/JPEG_20220629_142152_4986729426597915952.jpg,2023-02-03,POINT (183209.84 425884.28)
SPL_SPEELPLEKKEN.75717,Speelplekken.fid--26bbd5c6_18613012ba5_52f2,75717,32.14,Zwanenveld 38e straat,51.82133417,5.80298312,true,Nijmegen Dukenburg,183665.94,425940.27,Nijmegen,32 Zwanenveld,Nijmegen Dukenburg,38.52,6538XX,Zwanenveld 38e straat,Achter huisnummer 38.15,2008,15,2023,https://www.absweb.nu/Fotos/gemeentenijmegen/75717/JPEG_20220701_081144_4336800787696510382.jpg,2023-02-03,POINT (183665.94 425940.27)
SPL_SPEELPLEKKEN.75827,Speelplekken.fid--26bbd5c6_18613012ba5_52f3,75827,32.03,Schuilenburgweg sportplaats (EV),51.82057265,5.79518683,true,Nijmegen Dukenburg,183128.9,425852.51,Nijmegen,32 Zwanenveld,Nijmegen Dukenburg,63 79,6538RP,Zwanenveld,Bij politiebureau,2004,15,2019,https://www.absweb.nu/Fotos/gemeentenijmegen/75827/JPEG_20220629_140103_1726816237282392245.jpg,2023-02-03,POINT (183128.9 425852.51)
SPL_SPEELPLEKKEN.75817,Speelplekken.fid--26bbd5c6_18613012ba5_52f4,75817,32.01,Zwanenveld 44e straat deels sportplaats,51.82278738,5.80510207,true,Nijmegen Dukenburg,183811.1,426102.79,Nijmegen,32 Zwanenveld,Nijmegen Dukenburg,44 28,6538XB,Zwanenveld 44e straat,In groenvoorziening,2009,10,2019,https://www.absweb.nu/Fotos/gemeentenijmegen/75817/JPEG_20220701_065942_5060028039125042736.jpg,2023-02-03,POINT (183811.1 426102.79)
SPL_SPEELPLEKKEN.75819,Speelplekken.fid--26bbd5c6_18613012ba5_52f5,75819,32.02,Zwanenveld 16e straat,51.81827112,5.80409267,true,Nijmegen Dukenburg,183744.39,425599.94,Nijmegen,32 Zwanenveld,Nijmegen Dukenburg,1607,6538LR,Zwanenveld,Zwanenveld 16e straat in groenvoorzienin,2006,15,2021,https://www.absweb.nu/Fotos/gemeentenijmegen/75819/JPEG_20220701_075731_8199597012962464784.jpg,2023-02-03,POINT (183744.39 425599.94)
SPL_SPEELPLEKKEN.91201,Speelplekken.fid--26bbd5c6_18613012ba5_52f6,91201,32.04,Zwanenveld 70e straten,51.8207121,5.798881,true,Nijmegen Dukenburg,183383.51,425869.46,Nijmegen,32 Zwanenveld,Nijmegen Dukenburg,,6538TN,Zwanenveld,In groenvoorziening langs 60e straat ,2016,12,2028,https://www.absweb.nu/Fotos/gemeentenijmegen/91201/JPEG_20220629_140919_5215191181234302193.jpg,2023-02-03,POINT (183383.51 425869.46)
SPL_SPEELPLEKKEN.75944,Speelplekken.fid--26bbd5c6_18613012ba5_52f7,75944,32.07,Zwanenved Playground,51.82418672,5.80749892,true,Nijmegen Dukenburg,183975.45,426259.42,Nijmegen,32 Zwanenveld,Nijmegen Dukenburg,4364,6538WR,Zwanenveld,Langs Maas-Waal kanaal,2015,10,2025,https://www.absweb.nu/Fotos/gemeentenijmegen/75944/JPEG_20220701_083357_5888635014437280598.jpg,2023-02-03,POINT (183975.45 426259.42)
SPL_SPEELPLEKKEN.75888,Speelplekken.fid--26bbd5c6_18613012ba5_52f8,75888,32.05,Zwanenveld 25e straat sportplaats (EV),51.81952807,5.80333305,true,Nijmegen Dukenburg,183691.22,425739.48,Nijmegen,32 Zwanenveld,Nijmegen Dukenburg,26 15,6538NK,Zwanenveld,Zwanenveld 25 en 26e straat groenvoorzie,2008,15,2023,https://www.absweb.nu/Fotos/gemeentenijmegen/75888/JPEG_20220701_080409_4307294717690719778.jpg,2023-02-03,POINT (183691.22 425739.48)
SPL_SPEELPLEKKEN.75910,Speelplekken.fid--26bbd5c6_18613012ba5_52f9,75910,32.09,Zwanenveld 61e straat sportplaats (JB),51.82020597,5.79855532,true,Nijmegen Dukenburg,183361.38,425813.02,Nijmegen,32 Zwanenveld,Nijmegen Dukenburg,70 06,6538PW,Zwanenveld,Voor flat naast archiologenstrook,2010,10,2020,https://www.absweb.nu/Fotos/gemeentenijmegen/75910/JPEG_20220629_141851_4018549345454745915.jpg,2023-02-03,POINT (183361.38 425813.02)
SPL_SPEELPLEKKEN.75841,Speelplekken.fid--26bbd5c6_18613012ba5_536f,75841,70.07,Dr. Huijgenhof,51.86477182,5.87252188,true,Nijmegen Waalsprong,188428,430802.58,Nijmegen,70 Lent,Nijmegen Waalsprong,1,6663DV,Dr. Huijgenhof,Dr. Huijgenhof in groenvoorziening,2006,15,2021,https://www.absweb.nu/Fotos/gemeentenijmegen/75841/JPEG_20220628_082425_7956448724938904321.jpg,2023-02-03,POINT (188428 430802.58)
SPL_SPEELPLEKKEN.75785,Speelplekken.fid--26bbd5c6_18613012ba5_5370,75785,70.04,Petuniastraat,51.86364826,5.87270292,true,Nijmegen Waalsprong,188441.3,430677.66,Nijmegen,70 Lent,Nijmegen Waalsprong,32,6663DS,Petuniastraat,Pleintje Petuniastraat,2003,15,2018,https://www.absweb.nu/Fotos/gemeentenijmegen/75785/JPEG_20220628_081142_1325834636959730886.jpg,2023-02-03,POINT (188441.3 430677.66)
SPL_SPEELPLEKKEN.75786,Speelplekken.fid--26bbd5c6_18613012ba5_5371,75786,70.05,Begoniastraat Lent deels sportplaats,51.86341633,5.86809415,true,Nijmegen Waalsprong,188124.02,430649.75,Nijmegen,70 Lent,Nijmegen Waalsprong,1,6663DA,Begoniastraat,To huisnummer 18,2008,10,2018,https://www.absweb.nu/Fotos/gemeentenijmegen/75786/JPEG_20220628_075249_3569265844186869166.jpg,2023-02-03,POINT (188124.02 430649.75)
SPL_SPEELPLEKKEN.75787,Speelplekken.fid--26bbd5c6_18613012ba5_5372,75787,70.06,Boterbloem,51.86903824,5.86814289,true,Nijmegen Waalsprong,188123.24,431275.23,Nijmegen,70 Lent,Nijmegen Waalsprong,12,6663GJ,Boterbloem,Boterbloem,2009,10,2019,https://www.absweb.nu/Fotos/gemeentenijmegen/75787/JPEG_20220713_133318_5839206915050803183.jpg,2023-02-03,POINT (188123.24 431275.23)
SPL_SPEELPLEKKEN.75788,Speelplekken.fid--26bbd5c6_18613012ba5_5373,75788,70.02,Goudenregenstraat Lent,51.86749817,5.86797268,true,Nijmegen Waalsprong,188112.65,431103.81,Nijmegen,70 Lent,Nijmegen Waalsprong,12,6663EB,Goudenregenstraat Lent,In groenvoorziening,2006,20,2026,https://www.absweb.nu/Fotos/gemeentenijmegen/75788/JPEG_20220713_132559_7259359422234918435.jpg,2023-02-03,POINT (188112.65 431103.81)
SPL_SPEELPLEKKEN.75789,Speelplekken.fid--26bbd5c6_18613012ba5_5374,75789,70.01,Radmakerstraat ,51.86088824,5.86266293,true,Nijmegen Waalsprong,187751.76,430366.03,Nijmegen,70 Lent,Nijmegen Waalsprong,9,6663AJ,Radmakerstraat,Achter huis nummer 9,2006,20,2026,https://www.absweb.nu/Fotos/gemeentenijmegen/75789/JPEG_20220628_065032_8394650925031843561.jpg,2023-02-03,POINT (187751.76 430366.03)
SPL_SPEELPLEKKEN.241533,Speelplekken.fid--26bbd5c6_18613012ba5_5375,241533,70.31,Edith Steinstraat.,51.86522388,5.87501257,true,Nijmegen Waalsprong,188599.21,430854.02,Nijmegen,70 Lent,Nijmegen Waalsprong,,6663LC,Edith Steinstraat.,Edith Steinstraat.,,0,,https://www.absweb.nu/Fotos/gemeentenijmegen/241533/JPEG_20220713_125052_7181797171853800745.jpg,2023-02-03,POINT (188599.21 430854.02)
SPL_SPEELPLEKKEN.237910,Speelplekken.fid--26bbd5c6_18613012ba5_5376,237910,70.30,Rosa Luxemburgstraat.,51.86505423,5.87704017,true,Nijmegen Waalsprong,188738.99,430836.09,Nijmegen,70 Lent,Nijmegen Waalsprong,17,6663LE,Rosa Luxemburgstraat.,Rosa Luxemburgstraat.,2019,20,2039,https://www.absweb.nu/Fotos/gemeentenijmegen/237910/JPEG_20220713_124432_104651849447278668.jpg,2023-02-03,POINT (188738.99 430836.09)
SPL_SPEELPLEKKEN.181399,Speelplekken.fid--26bbd5c6_18613012ba5_5377,181399,70.23,Serge Gainsbourgstraat,51.86980813,5.86238312,true,Nijmegen Waalsprong,187725.99,431358.28,Nijmegen,70 Lent,Nijmegen Waalsprong,,6663MA,Serge Gainsbourgstraat,Serge Gainsbourgstraat.,,0,,https://www.absweb.nu/Fotos/gemeentenijmegen/181399/JPEG_20220718_082312_2630773425605628117.jpg,2023-02-03,POINT (187725.99 431358.28)
SPL_SPEELPLEKKEN.181565,Speelplekken.fid--26bbd5c6_18613012ba5_5378,181565,70.24,Baumgartenstraat,51.86779275,5.87606633,true,Nijmegen Waalsprong,188669.87,431140.31,Nijmegen,70 Lent,Nijmegen Waalsprong,,6663LK,Baumgartenstraat.,Baumgartenstraat,2018,20,2038,https://www.absweb.nu/Fotos/gemeentenijmegen/181565/JPEG_20220713_122521_6333132855593548031.jpg,2023-02-03,POINT (188669.87 431140.31)
SPL_SPEELPLEKKEN.186024,Speelplekken.fid--26bbd5c6_18613012ba5_5379,186024,70.25,Jan van Moockstraat,51.859117,5.86962,true,Nijmegen Waalsprong,188232.3,430172.13,Nijmegen,70 Lent,Nijmegen Waalsprong,,6663GV,Jan van Moockstraat,Jan van Moockstraat,2018,20,2038,https://www.absweb.nu/Fotos/gemeentenijmegen/186024/JPEG_20220713_121242_140536338239525688.jpg,2023-02-03,POINT (188232.3 430172.13)
SPL_SPEELPLEKKEN.186026,Speelplekken.fid--26bbd5c6_18613012ba5_537a,186026,70.29,Schouwmoldestraat.,51.86260803,5.87361957,true,Nijmegen Waalsprong,188505.21,430562.36,Nijmegen,70 Lent,Nijmegen Waalsprong,,6663BZ,Schouwmoldestraat.,Schouwmoldestraat.,2018,20,2038,https://www.absweb.nu/Fotos/gemeentenijmegen/186026/JPEG_20220713_115303_1735379736714901767.jpg,2023-02-03,POINT (188505.21 430562.36)
SPL_SPEELPLEKKEN.186029,Speelplekken.fid--26bbd5c6_18613012ba5_537b,186029,70.26,Jan van Ruitenbeekstraat.,51.8601306,5.86861068,true,Nijmegen Waalsprong,188162.02,430284.44,Nijmegen,70 Lent,Nijmegen Waalsprong,,6663BT,Jan van Ruitenbeekstraat.,Jan van Ruitenbeekstraat.,2018,20,2038,https://www.absweb.nu/Fotos/gemeentenijmegen/186029/JPEG_20220713_120819_6431150600903809037.jpg,2023-02-03,POINT (188162.02 430284.44)
SPL_SPEELPLEKKEN.186033,Speelplekken.fid--26bbd5c6_18613012ba5_537c,186033,70.27,Jan Anne Beijerinckstraat.,51.86076755,5.86789733,true,Nijmegen Waalsprong,188112.41,430354.97,Nijmegen,70 Lent,Nijmegen Waalsprong,1,6663BT,Jan Anne Beijerinckstraat.,Jan Anne Beijerinckstraat.,2018,20,2038,https://www.absweb.nu/Fotos/gemeentenijmegen/186033/JPEG_20220713_120253_5915142062919890729.jpg,2023-02-03,POINT (188112.41 430354.97)
SPL_SPEELPLEKKEN.186037,Speelplekken.fid--26bbd5c6_18613012ba5_537d,186037,70.28,Reijershofstraat,51.86209875,5.87236173,true,Nijmegen Waalsprong,188418.95,430505.12,Nijmegen,70 Lent,Nijmegen Waalsprong,,6663GV,Reijershofstraat,Reijershofstraat,2018,20,2038,https://www.absweb.nu/Fotos/gemeentenijmegen/186037/JPEG_20220713_115644_3086147411637020264.jpg,2023-02-03,POINT (188418.95 430505.12)
SPL_SPEELPLEKKEN.444120,Speelplekken.fid--26bbd5c6_18613012ba5_537e,444120,70.32,Georges Brassenstraat.,51.87146209,5.86383864,true,Nijmegen Waalsprong,187825.03,431542.94,Nijmegen,70 Lent,Nijmegen Waalsprong,1,,Georges Brassenstraat.,Georges Brassenstraat.,2019,0,2019,https://www.absweb.nu/Fotos/gemeentenijmegen/444120/JPEG_20220718_101152_7573682939453111110.jpg,2023-02-03,POINT (187825.03 431542.94)
SPL_SPEELPLEKKEN.490281,Speelplekken.fid--26bbd5c6_18613012ba5_537f,490281,70.22,Basisschool De Boomgaard,51.8673166,5.8513316,true,Nijmegen Waalsprong,186966.64,431076.16,Nijmegen,70 Lent,Nijmegen Waalsprong,100,,Titiaanstraat,Titiaanstraat,2020,0,2020,https://www.absweb.nu/Fotos/gemeentenijmegen/490281/JPEG_20220718_084901_5866681920466354945.jpg,2023-02-03,POINT (186966.64 431076.16)
SPL_SPEELPLEKKEN.481307,Speelplekken.fid--26bbd5c6_18613012ba5_5380,481307,50.21,Leonardo da Vincistraat,51.86883172,5.85031587,true,Nijmegen Waalsprong,186895.61,431244.28,Nijmegen,50 Oosterhout,Nijmegen Waalsprong,20,,Leonardo da Vincistraat,Leonarda da Vincistraat,2022,20,2042,https://www.absweb.nu/Fotos/gemeentenijmegen/481307/JPEG_20220718_093723_9116229619435696851.jpg,2023-02-03,POINT (186895.61 431244.28)
SPL_SPEELPLEKKEN.430912,Speelplekken.fid--26bbd5c6_18613012ba5_5381,430912,50.20,Dick Brunastraat,51.88179241,5.85069892,true,Nijmegen Waalsprong,186912.79,432686.38,Nijmegen,50 Oosterhout,Nijmegen Waalsprong,,,Dick Brunastraat,Bij school,2021,20,2041,https://www.absweb.nu/Fotos/gemeentenijmegen/430912/JPEG_20220718_110159_8255866855557357520.jpg,2023-02-03,POINT (186912.79 432686.38)
SPL_SPEELPLEKKEN.141305,Speelplekken.fid--26bbd5c6_18613012ba5_5382,141305,50.14,Kleine Boel ,51.87730003,5.85310615,true,Nijmegen Waalsprong,187081.74,432187.64,Nijmegen,50 Oosterhout,Nijmegen Waalsprong,,6515XL,Kleine Boel,Speelplaats bij wadi ,2017,15,2032,https://www.absweb.nu/Fotos/gemeentenijmegen/141305/JPEG_20220718_130601_50973242977550414.jpg,2023-02-03,POINT (187081.74 432187.64)
SPL_SPEELPLEKKEN.141306,Speelplekken.fid--26bbd5c6_18613012ba5_5383,141306,50.15,Annie M.G. Schmidthof ,51.87551023,5.8519031,true,Nijmegen Waalsprong,187000.17,431987.99,Nijmegen,50 Oosterhout,Nijmegen Waalsprong,3,6515XB,Annie M.G. Schidthof,Speelplaats bij Wadi,2017,15,2032,https://www.absweb.nu/Fotos/gemeentenijmegen/141306/JPEG_20220718_125902_3270613590509898614.jpg,2023-02-03,POINT (187000.17 431987.99)
SPL_SPEELPLEKKEN.207248,Speelplekken.fid--26bbd5c6_18613012ba5_5384,207248,50.16,Heinrich Bollstraat,51.87936535,5.8537661,true,Nijmegen Waalsprong,187125.71,432417.71,Nijmegen,50 Oosterhout,Nijmegen Waalsprong,39,6515ZL,Heinrich Bollstraat,Heinrich Bollstraat,,0,,https://www.absweb.nu/Fotos/gemeentenijmegen/207248/JPEG_20220112_134516_3176427097550146523.jpg,2023-02-03,POINT (187125.71 432417.71)
SPL_SPEELPLEKKEN.244849,Speelplekken.fid--26bbd5c6_18613012ba5_5385,244849,50.17,De Brink.,51.87895105,5.85201237,true,Nijmegen Waalsprong,187005.25,432370.84,Nijmegen,50 Oosterhout,Nijmegen Waalsprong,9,6515XM,De Brink.,De Brink.,2019,20,2039,https://www.absweb.nu/Fotos/gemeentenijmegen/244849/JPEG_20220718_103409_7845859547779322255.jpg,2023-02-03,POINT (187005.25 432370.84)
SPL_SPEELPLEKKEN.340917,Speelplekken.fid--26bbd5c6_18613012ba5_5386,340917,50.18,Dick Brunastraat.,51.88209198,5.85289649,true,Nijmegen Waalsprong,187063.89,432720.67,Nijmegen,50 Oosterhout,Nijmegen Waalsprong,,,Dick Brunastraat.,t.o Simon Carmiggeltstraat,2020,20,2040,https://www.absweb.nu/Fotos/gemeentenijmegen/340917/JPEG_20220718_104600_2822268694301924236.jpg,2023-02-03,POINT (187063.89 432720.67)
SPL_SPEELPLEKKEN.75863,Speelplekken.fid--26bbd5c6_18613012ba5_5387,75863,50.07,Denariusstraat,51.87778142,5.8480492,true,Nijmegen Waalsprong,186733.19,432238.98,Nijmegen,50 Oosterhout,Nijmegen Waalsprong,6,6515DC,Denariusstraat,Denariusstraat,2008,15,2023,https://www.absweb.nu/Fotos/gemeentenijmegen/75863/JPEG_20220718_123825_5372166519313274297.jpg,2023-02-03,POINT (186733.19 432238.98)
SPL_SPEELPLEKKEN.75852,Speelplekken.fid--26bbd5c6_18613012ba5_5388,75852,50.05,Claustrum,51.87929617,5.84605275,true,Nijmegen Waalsprong,186594.65,432406.63,Nijmegen,50 Oosterhout,Nijmegen Waalsprong,28,6515GH,Claustrum,Clausstrum in wadi,2006,15,2021,https://www.absweb.nu/Fotos/gemeentenijmegen/75852/JPEG_20220718_123101_2894833425759247197.jpg,2023-02-03,POINT (186594.65 432406.63)
SPL_SPEELPLEKKEN.75812,Speelplekken.fid--26bbd5c6_18613012ba5_5389,75812,50.03,De Rietgraaf deels sportplaats (EV) Jeu de Boules,51.87672863,5.84152595,true,Nijmegen Waalsprong,186284.74,432119.02,Nijmegen,50 Oosterhout,Nijmegen Waalsprong,53,6515CH,Annabellastraat,Park de Rietgraaf dubbelle plaats,2004,15,2019,https://www.absweb.nu/Fotos/gemeentenijmegen/75812/JPEG_20210728_091112_6316080957552663585.jpg,2023-02-03,POINT (186284.74 432119.02)
SPL_SPEELPLEKKEN.75813,Speelplekken.fid--26bbd5c6_18613012ba5_538a,75813,50.04,De Klif,51.87790478,5.84362297,true,Nijmegen Waalsprong,186428.32,432250.78,Nijmegen,50 Oosterhout,Nijmegen Waalsprong,46,6515DJ,Pijlpuntstraat,Dubbelle plaats Multifunctioneelcentrum,2004,15,2019,https://www.absweb.nu/Fotos/gemeentenijmegen/75813/JPEG_20220718_122106_2185738040826210304.jpg,2023-02-03,POINT (186428.32 432250.78)
SPL_SPEELPLEKKEN.75802,Speelplekken.fid--26bbd5c6_18613012ba5_538b,75802,50.01,Golden Deliciousstraat,51.8792471,5.84131072,true,Nijmegen Waalsprong,186268.17,432399.12,Nijmegen,50 Oosterhout,Nijmegen Waalsprong,27,6515BL,Golden Deliciousstr.,Golden Deliciouustraat,2014,10,2024,https://www.absweb.nu/Fotos/gemeentenijmegen/75802/JPEG_20220718_115015_4711151433864986276.jpg,2023-02-03,POINT (186268.17 432399.12)
SPL_SPEELPLEKKEN.75803,Speelplekken.fid--26bbd5c6_18613012ba5_538c,75803,50.02.,Colmarstraat / Ewartstraat,51.88096819,5.84455282,true,Nijmegen Waalsprong,186490.2,432592,Nijmegen,50 Oosterhout,Nijmegen Waalsprong,54,6515BG,Colmarstraat,Colmarstraat en Ewartstraat 12,2008,15,2023,https://www.absweb.nu/Fotos/gemeentenijmegen/75803/JPEG_20220718_114211_8760075920152698985.jpg,2023-02-03,POINT (186490.2 432592)
SPL_SPEELPLEKKEN.75915,Speelplekken.fid--26bbd5c6_18613012ba5_538d,75915,50.12,Dillestraat,51.87974722,5.8350722,true,Nijmegen Waalsprong,185838.27,432452.09,Nijmegen,50 Oosterhout,Nijmegen Waalsprong,37,6515HK,Dillestraat,Dillestraat Oosterhout,2010,10,2020,https://www.absweb.nu/Fotos/gemeentenijmegen/75915/JPEG_20220718_134533_6828554963372548402.jpg,2023-02-03,POINT (185838.27 432452.09)
SPL_SPEELPLEKKEN.81009,Speelplekken.fid--26bbd5c6_18613012ba5_538e,81009,50.13,Kruidenstraat ,51.88110118,5.83714692,true,Nijmegen Waalsprong,185980.19,432603.61,Nijmegen,50 Oosterhout,Nijmegen Waalsprong,197,6515HL,Kruidenstraat,In de Wadi Basilicumpad / Kruidenstraat,2016,10,2026,https://www.absweb.nu/Fotos/gemeentenijmegen/81009/JPEG_20220718_134129_5284936720253475861.jpg,2023-02-03,POINT (185980.19 432603.61)
SPL_SPEELPLEKKEN.94334,Speelplekken.fid--26bbd5c6_18613012ba5_538f,94334,50.06,Fibulastraat,51.87509345,5.8466307,true,Nijmegen Waalsprong,186637.4,431939.31,Nijmegen,50 Oosterhout,Nijmegen Waalsprong,27,6515JN,Fibulastraat,Naast wadi fubulastraat,2016,10,2026,https://www.absweb.nu/Fotos/gemeentenijmegen/94334/JPEG_20220718_124609_6327452892195840978.jpg,2023-02-03,POINT (186637.4 431939.31)
SPL_SPEELPLEKKEN.75894,Speelplekken.fid--26bbd5c6_18613012ba5_5391,75894,50.08,Aquilastraat deels sportplaats (EV),51.87485097,5.8497353,true,Nijmegen Waalsprong,186851.36,431913.69,Nijmegen,50 Oosterhout,Nijmegen Waalsprong,11,6515DV,Aquilastraat,Aquilastraat / Griftdijk,2010,10,2020,https://www.absweb.nu/Fotos/gemeentenijmegen/75894/JPEG_20220718_125003_4351399861735621968.jpg,2023-02-03,POINT (186851.36 431913.69)
SPL_SPEELPLEKKEN.75895,Speelplekken.fid--26bbd5c6_18613012ba5_5392,75895,50.09,Balveren deels sportplaats (MV),51.88233742,5.8430019,true,Nijmegen Waalsprong,186382.46,432743.66,Nijmegen,50 Oosterhout,Nijmegen Waalsprong,,6515HR,Oude Groenestraat / Griftdijk,Spoertplaats,2009,10,2019,https://www.absweb.nu/Fotos/gemeentenijmegen/75895/JPEG_20220718_111552_5124836067652395309.jpg,2023-02-03,POINT (186382.46 432743.66)
SPL_SPEELPLEKKEN.75896,Speelplekken.fid--26bbd5c6_18613012ba5_5393,75896,50.10,De Oversteek basisschool,51.88329768,5.84422405,true,Nijmegen Waalsprong,186465.93,432851.02,Nijmegen,50 Oosterhout,Nijmegen Waalsprong,93,6515HR,Griftdijk,Griftdijk / Groenestraat,2009,10,2019,https://www.absweb.nu/Fotos/gemeentenijmegen/75896/JPEG_20220113_133125_2171109492856063335.jpg,2023-02-03,POINT (186465.93 432851.02)
SPL_SPEELPLEKKEN.75838,Speelplekken.fid--26bbd5c6_18613012ba5_530f,75838,35.04,Aldenhof 85e straat,51.80630763,5.79600908,true,Nijmegen Dukenburg,183194.52,424265.79,Nijmegen,35 Aldenhof,Nijmegen Dukenburg,84 02,6537CL,Aldenhof 84,Aldenhof 85e straat op gazon,2010,10,2020,https://www.absweb.nu/Fotos/gemeentenijmegen/75838/JPEG_20220629_090202_8341243462967119856.jpg,2023-02-03,POINT (183194.52 424265.79)
SPL_SPEELPLEKKEN.75839,Speelplekken.fid--26bbd5c6_18613012ba5_5310,75839,35.01,Aldenhof 31e straat deels sportplaats (EV),51.80579715,5.8039686,true,Nijmegen Dukenburg,183743.8,424212.11,Nijmegen,35 Aldenhof,Nijmegen Dukenburg,31 34,6537AH,Aldenhof 31,Bij 30e straat in groenvoorziening,2005,15,2020,https://www.absweb.nu/Fotos/gemeentenijmegen/75839/JPEG_20220622_142421_6265130649667154445.jpg,2023-02-03,POINT (183743.8 424212.11)
SPL_SPEELPLEKKEN.75840,Speelplekken.fid--26bbd5c6_18613012ba5_5311,75840,35.02,Aldenhof 35e straat deels sportplaats (EV),51.8025898,5.79964832,true,Nijmegen Dukenburg,183447.86,423853.58,Nijmegen,35 Aldenhof,Nijmegen Dukenburg,36 01,6537AX,Aldenhof 36,Bij 36e straat in groenvoorziening,2005,15,2020,https://www.absweb.nu/Fotos/gemeentenijmegen/75840/JPEG_20220629_072446_9151258762788403131.jpg,2023-02-03,POINT (183447.86 423853.58)
SPL_SPEELPLEKKEN.75848,Speelplekken.fid--26bbd5c6_18613012ba5_5312,75848,35.03,Aldenhove deels sportplaats (EV),51.80670402,5.80074235,true,Nijmegen Dukenburg,183520.71,424311.73,Nijmegen,35 Aldenhof,Nijmegen Dukenburg,60 08,6537DJ,Aldenhof 60,Schoolplein,2006,15,2021,https://www.absweb.nu/Fotos/gemeentenijmegen/75848/JPEG_20220629_073755_8258419652881908222.jpg,2023-02-03,POINT (183520.71 424311.73)
SPL_SPEELPLEKKEN.75730,Speelplekken.fid--26bbd5c6_18613012ba5_5313,75730,35.07,Aldenhof 71e straat,51.8083939,5.79878655,true,Nijmegen Dukenburg,183384.76,424498.97,Nijmegen,35 Aldenhof,Nijmegen Dukenburg,71 03,6537DT,Aldenhof 71,In groenvoorziening,2008,15,2023,https://www.absweb.nu/Fotos/gemeentenijmegen/75730/JPEG_20220629_080040_349730847970615772.jpg,2023-02-03,POINT (183384.76 424498.97)
SPL_SPEELPLEKKEN.75731,Speelplekken.fid--26bbd5c6_18613012ba5_5314,75731,36.22,Malvert 73e straat,51.80855285,5.80876447,true,Nijmegen Dukenburg,184072.78,424520.6,Nijmegen,36 Malvert,Nijmegen Dukenburg,73-88,6538DG,Malvert 73,Bij schoolplein,1998,25,2023,https://www.absweb.nu/Fotos/gemeentenijmegen/75731/JPEG_20220622_115211_3424719113878923883.jpg,2023-02-03,POINT (184072.78 424520.6)
SPL_SPEELPLEKKEN.75732,Speelplekken.fid--26bbd5c6_18613012ba5_5315,75732,36.20,Malvert 30e straat,51.80687758,5.8087374,true,Nijmegen Dukenburg,184072,424334.21,Nijmegen,36 Malvert,Nijmegen Dukenburg,30-33,6538BN,Malvert 30,Malvert 30e straat,2009,10,2019,https://www.absweb.nu/Fotos/gemeentenijmegen/75732/JPEG_20220622_111636_3085452345012661236.jpg,2023-02-03,POINT (184072 424334.21)
SPL_SPEELPLEKKEN.75733,Speelplekken.fid--26bbd5c6_18613012ba5_5316,75733,36.04,Malvert 83e straat,51.80873408,5.81299658,true,Nijmegen Dukenburg,184364.53,424542.47,Nijmegen,36 Malvert,Nijmegen Dukenburg,83-14,6538CX,Malvert 83,Op grasveld 83e straat,2014,10,2024,https://www.absweb.nu/Fotos/gemeentenijmegen/75733/JPEG_20220622_105310_5125348964187203312.jpg,2023-02-03,POINT (184364.53 424542.47)
SPL_SPEELPLEKKEN.75734,Speelplekken.fid--26bbd5c6_18613012ba5_5317,75734,36.07,Malvert 81e straat sportplaats (MV),51.80939027,5.81336338,true,Nijmegen Dukenburg,184389.4,424615.62,Nijmegen,36 Malvert,Nijmegen Dukenburg,81-80,6538CX,Malvert 81,In groenvoorziening,2009,10,2019,https://www.absweb.nu/Fotos/gemeentenijmegen/75734/JPEG_20220622_105048_5804294783984542014.jpg,2023-02-03,POINT (184389.4 424615.62)
SPL_SPEELPLEKKEN.75735,Speelplekken.fid--26bbd5c6_18613012ba5_5318,75735,36.14,Malvert 10e 11e straat sportplaats (EV),51.80830527,5.80813132,true,Nijmegen Dukenburg,184029.28,424492.8,Nijmegen,36 Malvert,Nijmegen Dukenburg,3340,6538BT,Malvert 71,In groenvoorziening,2016,15,2031,https://www.absweb.nu/Fotos/gemeentenijmegen/75735/JPEG_20220622_114139_7041013704604526011.jpg,2023-02-03,POINT (184029.28 424492.8)
SPL_SPEELPLEKKEN.75736,Speelplekken.fid--26bbd5c6_18613012ba5_5319,75736,36.19,Malvert 21e straat,51.80742747,5.80466665,true,Nijmegen Dukenburg,183790.9,424393.77,Nijmegen,36 Malvert,Nijmegen Dukenburg,21-18,6538AM,Malvert 21,Tegenover huisnummer 21-16,2009,10,2019,https://www.absweb.nu/Fotos/gemeentenijmegen/75736/JPEG_20220622_113434_7832215578672955738.jpg,2023-02-03,POINT (183790.9 424393.77)
SPL_SPEELPLEKKEN.75866,Speelplekken.fid--26bbd5c6_18613012ba5_531a,75866,36.05,Malvert 27e straat,51.80595207,5.8094323,true,Nijmegen Dukenburg,184120.52,424231.52,Nijmegen,36 Malvert,Nijmegen Dukenburg,2709,6538BJ,Malvert 27,Malvert 27e straat,2007,15,2022,https://www.absweb.nu/Fotos/gemeentenijmegen/75866/JPEG_20220622_112259_8989408873410684130.jpg,2023-02-03,POINT (184120.52 424231.52)
SPL_SPEELPLEKKEN.75871,Speelplekken.fid--26bbd5c6_18613012ba5_531b,75871,36.02,Malvert 25-47 sportplaats (EV),51.80463295,5.80751867,true,Nijmegen Dukenburg,183989.39,424084,Nijmegen,36 Malvert,Nijmegen Dukenburg,25 84,6538BA,Malvert 25,Achter huisn 25-47,2007,15,2022,https://www.absweb.nu/Fotos/gemeentenijmegen/75871/JPEG_20220622_112816_1089167580065688799.jpg,2023-02-03,POINT (183989.39 424084)
SPL_SPEELPLEKKEN.464550,Speelplekken.fid--26bbd5c6_18613012ba5_531c,464550,36.03,Malvert 89 straat,51.80677123,5.81289939,true,Nijmegen Dukenburg,184359.1,424324.05,Nijmegen,36 Malvert,Nijmegen Dukenburg,8932,,Malvert,Malvert bij flat,2022,20,2042,https://www.absweb.nu/Fotos/gemeentenijmegen/464550/JPEG_20220622_111206_6400618135196309041.jpg,2023-02-03,POINT (184359.1 424324.05)
SPL_SPEELPLEKKEN.75880,Speelplekken.fid--26bbd5c6_18613012ba5_531d,75880,37.06,Weezenhof 34e straat sportplaats (JB),51.79930808,5.80844311,true,Nijmegen Dukenburg,184056.58,423491.96,Nijmegen,37 Weezenhof,Nijmegen Dukenburg,36 04,6536GT,Weezenhof 36,Weezenhof 34e 36e straat,2007,15,2022,https://www.absweb.nu/Fotos/gemeentenijmegen/75880/JPEG_20220622_070623_6302442378730495912.jpg,2023-02-03,POINT (184056.58 423491.96)
SPL_SPEELPLEKKEN.75909,Speelplekken.fid--26bbd5c6_18613012ba5_531e,75909,37.07,Weezenhof 81e straat sportplaats (EV),51.80168602,5.80930287,true,Nijmegen Dukenburg,184114.35,423756.86,Nijmegen,37 Weezenhof,Nijmegen Dukenburg,81 55,6536EA,Weezenhof,In groenvoorziening,2009,10,2019,https://www.absweb.nu/Fotos/gemeentenijmegen/75909/JPEG_20220622_085227_7472684645823136073.jpg,2023-02-03,POINT (184114.35 423756.86)
SPL_SPEELPLEKKEN.75844,Speelplekken.fid--26bbd5c6_18613012ba5_531f,75844,37.03,Weezenhof 26e straat sportplaats Jeu de Boulesbaan,51.79908607,5.80312473,true,Nijmegen Dukenburg,183689.87,423465.15,Nijmegen,37 Weezenhof,Nijmegen Dukenburg,26 40,6536JA,Weezenhof 26e,Weezenhof 26e straat in park,2010,10,2020,https://www.absweb.nu/Fotos/gemeentenijmegen/75844/JPEG_20220622_081027_7057811451136252279.jpg,2023-02-03,POINT (183689.87 423465.15)
SPL_SPEELPLEKKEN.75737,Speelplekken.fid--26bbd5c6_18613012ba5_5320,75737,37.11,Weezenhof 35e straat Vogelzang deels sportplaats Jeu de Boules,51.7976616,5.80742827,true,Nijmegen Dukenburg,183987.64,423308.38,Nijmegen,37 Weezenhof,Nijmegen Dukenburg,35-40,6536HD,Weezenhof 35e straat,Vogelzang Weezenhof 35e straat,2004,15,2019,https://www.absweb.nu/Fotos/gemeentenijmegen/75737/JPEG_20220622_074321_7309448891420853206.jpg,2023-02-03,POINT (183987.64 423308.38)
SPL_SPEELPLEKKEN.75738,Speelplekken.fid--26bbd5c6_18613012ba5_5321,75738,37.01,Weezenhof 25e straat,51.80124732,5.80401013,true,Nijmegen Dukenburg,183749.56,423705.94,Nijmegen,37 Weezenhof,Nijmegen Dukenburg,25-31,6536JH,Weezenhof 25e,Groenvoorziening 25e straat,2004,15,2019,https://www.absweb.nu/Fotos/gemeentenijmegen/75738/JPEG_20220622_081400_3486986032974558536.jpg,2023-02-03,POINT (183749.56 423705.94)
SPL_SPEELPLEKKEN.75739,Speelplekken.fid--26bbd5c6_18613012ba5_5322,75739,37.02,Weezenhof 55e straat sportplaats (EV),51.80201665,5.80583062,true,Nijmegen Dukenburg,183874.64,423792.26,Nijmegen,37 Weezenhof,Nijmegen Dukenburg,55e straat,6536EE,Weezenhof 55e straat,Asfaltplateau voor school,1995,25,2020,https://www.absweb.nu/Fotos/gemeentenijmegen/75739/JPEG_20220622_083018_6320539435532118865.jpg,2023-02-03,POINT (183874.64 423792.26)
SPL_SPEELPLEKKEN.75740,Speelplekken.fid--26bbd5c6_18613012ba5_5323,75740,37.04,Weezenhof 29e straat,51.7955637,5.80829855,true,Nijmegen Dukenburg,184049.02,423075.33,Nijmegen,37 Weezenhof,Nijmegen Dukenburg,29 56,6536HN,Weezenhof 29e straat,Weezenhof 29-56,2004,15,2019,https://www.absweb.nu/Fotos/gemeentenijmegen/75740/JPEG_20220622_075650_4814770819477140583.jpg,2023-02-03,POINT (184049.02 423075.33)
SPL_SPEELPLEKKEN.75741,Speelplekken.fid--26bbd5c6_18613012ba5_5324,75741,37.05,Weezenhof 30e straat,51.80057392,5.80695663,true,Nijmegen Dukenburg,183953.23,423632.2,Nijmegen,37 Weezenhof,Nijmegen Dukenburg,30.32,6536EV,Weezenhof 30,Achter 30-30 in groenvoorziening,2004,15,2019,https://www.absweb.nu/Fotos/gemeentenijmegen/75741/JPEG_20220622_083652_873999253184139395.jpg,2023-02-03,POINT (183953.23 423632.2)
SPL_SPEELPLEKKEN.75742,Speelplekken.fid--26bbd5c6_18613012ba5_5325,75742,37.08,Weezenhof 82e straat sportplaats (EV),51.79891847,5.8094982,true,Nijmegen Dukenburg,184129.61,423449.04,Nijmegen,37 Weezenhof,Nijmegen Dukenburg,82 43,6536CB,Weezenhof,82e str.via 36e straat,2001,20,2021,https://www.absweb.nu/Fotos/gemeentenijmegen/75742/JPEG_20220622_073957_9063091500234549144.jpg,2023-02-03,POINT (184129.61 423449.04)
SPL_SPEELPLEKKEN.75743,Speelplekken.fid--26bbd5c6_18613012ba5_5326,75743,37.09,Weezenhof 67e straat deels sportplaats,51.8024181,5.81429311,true,Nijmegen Dukenburg,184458.07,423840.32,Nijmegen,37 Weezenhof,Nijmegen Dukenburg,67 02,6536BD,Weezenhof 65e straat,In park 65e 67e straat,2004,15,2019,https://www.absweb.nu/Fotos/gemeentenijmegen/75743/JPEG_20220622_090107_1400358103510840025.jpg,2023-02-03,POINT (184458.07 423840.32)
SPL_SPEELPLEKKEN.75744,Speelplekken.fid--26bbd5c6_18613012ba5_5327,75744,40.11,Hilllekensacker 14e straat,51.835422,5.776664,true,Nijmegen Lindenholt,181842.98,427497.55,Nijmegen,40 Acker,Nijmegen Lindenholt,14 09,6546KL,Hilllekensacker 14,Bij huisnummer 14 11,2007,12,2019,https://www.absweb.nu/Fotos/gemeentenijmegen/75744/JPEG_20220627_125906_5496199990325819743.jpg,2023-02-03,POINT (181842.98 427497.55)
SPL_SPEELPLEKKEN.75745,Speelplekken.fid--26bbd5c6_18613012ba5_5328,75745,40.10,Hilllekensacker 22e straat deels sportplaats Jeu de Boules,51.836202,5.778874,true,Nijmegen Lindenholt,181994.83,427585.15,Nijmegen,40 Acker,Nijmegen Lindenholt,22.33,6546LE,Hilllekensacker 22,Bij 22-05 in groenvoorziening,2006,15,2021,https://www.absweb.nu/Fotos/gemeentenijmegen/75745/JPEG_20220627_130709_491664157333354847.jpg,2023-02-03,POINT (181994.83 427585.15)
SPL_SPEELPLEKKEN.75746,Speelplekken.fid--26bbd5c6_18613012ba5_5329,75746,40.12,Hillekensacker \ Broekstraat sportplaats (EV),51.83586592,5.78482322,true,Nijmegen Lindenholt,182405.07,427549.98,Nijmegen,40 Acker,Nijmegen Lindenholt,33 28,6546LV,Hilllekensacker 33,Broekstraat \ Ackerbroekweg,2007,15,2022,https://www.absweb.nu/Fotos/gemeentenijmegen/75746/JPEG_20220627_105200_5715348376579727065.jpg,2023-02-03,POINT (182405.07 427549.98)
SPL_SPEELPLEKKEN.75747,Speelplekken.fid--26bbd5c6_18613012ba5_532a,75747,40.13,Waterspeelplaats de Omloop deels sportplaats (MV),51.83289803,5.78980299,true,Nijmegen Lindenholt,182750.12,427221.68,Nijmegen,40 Acker,Nijmegen Lindenholt,13 75,6546ED,Zellersacker 13,Bij basisschool,2008,15,2023,https://www.absweb.nu/Fotos/gemeentenijmegen/75747/JPEG_20220627_084107_6170017892652731329.jpg,2023-02-03,POINT (182750.12 427221.68)
SPL_SPEELPLEKKEN.75748,Speelplekken.fid--26bbd5c6_18613012ba5_532b,75748,40.06,Zellersacker 20.15 deels sportplaats (EV),51.83427558,5.78638455,true,Nijmegen Lindenholt,182513.65,427373.64,Nijmegen,40 Acker,Nijmegen Lindenholt,12 33,6546HK,Zellersacker 12,In groenvoorziening,2007,15,2022,https://www.absweb.nu/Fotos/gemeentenijmegen/75748/JPEG_20220627_105803_4951146062312367277.jpg,2023-02-03,POINT (182513.65 427373.64)
SPL_SPEELPLEKKEN.75749,Speelplekken.fid--26bbd5c6_18613012ba5_532c,75749,40.03,De Meeuwse Acker 11e / 12e straat,51.83549855,5.79755498,true,Nijmegen Lindenholt,183282.8,427513.99,Nijmegen,40 Acker,Nijmegen Lindenholt,12 20,6546DN,De Meeuwse Acker 12,Bij 11-32 in groenvoorziening,2004,15,2019,https://www.absweb.nu/Fotos/gemeentenijmegen/75749/JPEG_20220627_091033_1963502922279115096.jpg,2023-02-03,POINT (183282.8 427513.99)
SPL_SPEELPLEKKEN.75750,Speelplekken.fid--26bbd5c6_18613012ba5_532d,75750,40.02,Jaap Edenpad deels sportplaats (EV),51.83171805,5.793583,true,Nijmegen Lindenholt,183011.39,427091.85,Nijmegen,40 Acker,Nijmegen Lindenholt,20 34,6546GC,Horstacker 20,Speelpl.bosje ing.Horstacker 20.34,2009,10,2019,https://www.absweb.nu/Fotos/gemeentenijmegen/75750/JPEG_20220627_072643_6540007016980466120.jpg,2023-02-03,POINT (183011.39 427091.85)
SPL_SPEELPLEKKEN.75751,Speelplekken.fid--26bbd5c6_18613012ba5_532e,75751,40.01,Horstacker 13e / 15e straat,51.83314482,5.7951788,true,Nijmegen Lindenholt,183120.5,427251.2,Nijmegen,40 Acker,Nijmegen Lindenholt,15 20,6546EA,Horstacker 15,16e straat ingang bij 13 16,2006,15,2021,https://www.absweb.nu/Fotos/gemeentenijmegen/75751/JPEG_20220627_065156_886112497350925723.jpg,2023-02-03,POINT (183120.5 427251.2)
SPL_SPEELPLEKKEN.75752,Speelplekken.fid--26bbd5c6_18613012ba5_532f,75752,40.04,De Steekse Acker 11e straat deels sportplaats (EV),51.83696895,5.7934829,true,Nijmegen Lindenholt,183001.23,427676,Nijmegen,40 Acker,Nijmegen Lindenholt,11 60,6546DC,De Steekse Acker 11,Achter 11.60 in groenvoorziening,2005,15,2020,https://www.absweb.nu/Fotos/gemeentenijmegen/75752/JPEG_20220627_092425_1152829094353295017.jpg,2023-02-03,POINT (183001.23 427676)
SPL_SPEELPLEKKEN.75753,Speelplekken.fid--26bbd5c6_18613012ba5_5330,75753,40.25,Zellersacker 20e straat sportplaats (EV),51.83272202,5.78504713,true,Nijmegen Lindenholt,182422.42,427200.29,Nijmegen,40 Acker,Nijmegen Lindenholt,20-15,6546HL,Zellersacker 20e straat,Bij 20-15 in groenvoorziening,2007,15,2022,https://www.absweb.nu/Fotos/gemeentenijmegen/75753/JPEG_20220627_135511_496201798238231412.jpg,2023-02-03,POINT (182422.42 427200.29)
SPL_SPEELPLEKKEN.75754,Speelplekken.fid--26bbd5c6_18613012ba5_5331,75754,40.16,Drieskensacker De Sprok deels sportplaats (MV),51.83878233,5.78396927,true,Nijmegen Lindenholt,182344.44,427874.12,Nijmegen,40 Acker,Nijmegen Lindenholt,10 22,6546JZ,Drieskensacker 10,11e straat  / Weteringweg,2011,10,2021,https://www.absweb.nu/Fotos/gemeentenijmegen/75754/JPEG_20220627_101151_7287990498328617603.jpg,2023-02-03,POINT (182344.44 427874.12)
SPL_SPEELPLEKKEN.75815,Speelplekken.fid--26bbd5c6_18613012ba5_5332,75815,40.07,Hilllekensacker 20e straat deels sportplaats (EV),51.835363,5.78129157,true,Nijmegen Lindenholt,182161.96,427492.7,Nijmegen,40 Acker,Nijmegen Lindenholt,20 28,6546LA,Hilllekensacker 20,Hiillekensacker 20e straat in park,2010,10,2020,https://www.absweb.nu/Fotos/gemeentenijmegen/75815/JPEG_20220627_133550_5472108775521080672.jpg,2023-02-03,POINT (182161.96 427492.7)
SPL_SPEELPLEKKEN.75811,Speelplekken.fid--26bbd5c6_18613012ba5_5333,75811,40.14,Heeskesacker 12e / 20e straat deels sportplaats,51.83661803,5.78879298,true,Nijmegen Lindenholt,182678.21,427635.16,Nijmegen,40 Acker,Nijmegen Lindenholt,12 86,6546JT,Heeskesacker 12,Heeskesacker 20e straat op gazon,2007,15,2022,https://www.absweb.nu/Fotos/gemeentenijmegen/75811/JPEG_20220728_132943_7969986766043072412.jpg,2023-02-03,POINT (182678.21 427635.16)
SPL_SPEELPLEKKEN.75818,Speelplekken.fid--26bbd5c6_18613012ba5_5334,75818,40.08,Zellersacker 21e straat,51.83456187,5.78761177,true,Nijmegen Lindenholt,182598.06,427405.96,Nijmegen,40 Acker,Nijmegen Lindenholt,21 91,6546HS,Zellersacker 21,Zellersacker 21.48,2005,14,2019,https://www.absweb.nu/Fotos/gemeentenijmegen/75818/JPEG_20220627_111621_2746478602339388247.jpg,2023-02-03,POINT (182598.06 427405.96)
SPL_SPEELPLEKKEN.75931,Speelplekken.fid--26bbd5c6_18613012ba5_5335,75931,40.15,Drieskensacker 15e straat,51.83925178,5.7800324,true,Nijmegen Lindenholt,182072.84,427924.88,Nijmegen,40 Acker,Nijmegen Lindenholt,15 08,6546ML,Drieskensacker 15,Drieskensacker 15e straat,2013,15,2028,https://www.absweb.nu/Fotos/gemeentenijmegen/75931/JPEG_20220627_103442_1025388048681043157.jpg,2023-02-03,POINT (182072.84 427924.88)
SPL_SPEELPLEKKEN.448620,Speelplekken.fid--26bbd5c6_18613012ba5_5336,448620,40.17,Heeskesacker,51.83796247,5.78744103,true,Nijmegen Lindenholt,182584.21,427784.22,Nijmegen,40 Acker,Nijmegen Lindenholt,2218,,,Heeskesacker achter huisnummer 2218,2021,20,2041,https://www.absweb.nu/Fotos/gemeentenijmegen/448620/JPEG_20220627_100302_470464468388257446.jpg,2023-02-03,POINT (182584.21 427784.22)
SPL_SPEELPLEKKEN.137032,Speelplekken.fid--26bbd5c6_18613012ba5_5338,137032,41.08,Beweegroute Lindenholt,51.82812483,5.80656337,true,Nijmegen Lindenholt,183908.42,426697.18,Nijmegen,41 Kamp,Nijmegen Lindenholt,,6545JK,Nog invullen,Beweegroute langs MW Kanaal Kampwijken,2017,10,2027,https://www.absweb.nu/Fotos/gemeentenijmegen/137032/JPEG_20210804_134134_9010996871920076498.jpg,2023-02-03,POINT (183908.42 426697.18)
SPL_SPEELPLEKKEN.75902,Speelplekken.fid--26bbd5c6_18613012ba5_5339,75902,41.06,De Kluijskamp 12e straat sportplaats (EV),51.82723832,5.80466332,true,Nijmegen Lindenholt,183778.01,426597.8,Nijmegen,41 Kamp,Nijmegen Lindenholt,12 89,6545JK,De Kluiskamp 12,Naast De Kluiskamp 12 89 in groenvoorz.,2009,10,2019,https://www.absweb.nu/Fotos/gemeentenijmegen/75902/JPEG_20220701_103044_8642443194113102789.jpg,2023-02-03,POINT (183778.01 426597.8)
SPL_SPEELPLEKKEN.75874,Speelplekken.fid--26bbd5c6_18613012ba5_533a,75874,41.05,De Wellenkamp  ouderenontmoetingsplaats sport (JB),51.83534013,5.80452993,true,Nijmegen Lindenholt,183763.64,427499.1,Nijmegen,41 Kamp,Nijmegen Lindenholt,15 41,6545NL,De Wellenkamp 15,De Wellenkamp15 41 groenvoorziening,2007,15,2022,https://www.absweb.nu/Fotos/gemeentenijmegen/75874/JPEG_20220701_094929_284930102734945066.jpg,2023-02-03,POINT (183763.64 427499.1)
SPL_SPEELPLEKKEN.75820,Speelplekken.fid--26bbd5c6_18613012ba5_533b,75820,41.15,De Kluijskamp Johannushof,51.83029417,5.80346082,true,Nijmegen Lindenholt,183693.17,426937.29,Nijmegen,41 Kamp,Nijmegen Lindenholt,14,6545BA,Johanneshof,Johannushof groenvoorziening,2003,17,2020,https://www.absweb.nu/Fotos/gemeentenijmegen/75820/JPEG_20220701_104808_386319776204920667.jpg,2023-02-03,POINT (183693.17 426937.29)
SPL_SPEELPLEKKEN.75823,Speelplekken.fid--26bbd5c6_18613012ba5_533c,75823,41.10,De Wellenkamp 12e-15e straat sportplaats (EV),51.83485475,5.80439135,true,Nijmegen Lindenholt,183754.4,427445.05,Nijmegen,41 Kamp,Nijmegen Lindenholt,15 41,6545NK,De Wellenkamp 15,De Wellenkamp 12e / 15e str. voetbalveld,2005,15,2020,https://www.absweb.nu/Fotos/gemeentenijmegen/75823/JPEG_20220701_093030_2244253717513275097.jpg,2023-02-03,POINT (183754.4 427445.05)
SPL_SPEELPLEKKEN.75814,Speelplekken.fid--26bbd5c6_18613012ba5_533d,75814,41.18,De Wellenkamp sportplaats Kees Pellenaarspad (EV),51.83620602,5.80461037,true,Nijmegen Lindenholt,183768.63,427595.47,Nijmegen,41 Kamp,Nijmegen Lindenholt,15 82,6545NP,De Wellekamp 15,De Wellenkamp naast tennisvelden,2009,20,2029,https://www.absweb.nu/Fotos/gemeentenijmegen/75814/JPEG_20220701_095557_1064028891455380502.jpg,2023-02-03,POINT (183768.63 427595.47)
SPL_SPEELPLEKKEN.75755,Speelplekken.fid--26bbd5c6_18613012ba5_533e,75755,41.25,De Gildekamp 50e straat,51.8333093,5.80157633,true,Nijmegen Lindenholt,183561.36,427272,Nijmegen,41 Kamp,Nijmegen Lindenholt,40 40,6545LL,De Gildekamp 40,Achter huisnummer 50 81.,1995,25,2020,https://www.absweb.nu/Fotos/gemeentenijmegen/75755/JPEG_20220701_140350_395122350420910596.jpg,2023-02-03,POINT (183561.36 427272)
SPL_SPEELPLEKKEN.75756,Speelplekken.fid--26bbd5c6_18613012ba5_533f,75756,41.20,De Wellenkamp 14e straat,51.83487107,5.80411838,true,Nijmegen Lindenholt,183735.57,427446.75,Nijmegen,41 Kamp,Nijmegen Lindenholt,14 39,6545NG,De Wellenkamp 14,In groenvoorziening,2005,15,2020,https://www.absweb.nu/Fotos/gemeentenijmegen/75756/JPEG_20220701_093335_5557049981894685606.jpg,2023-02-03,POINT (183735.57 427446.75)
SPL_SPEELPLEKKEN.75757,Speelplekken.fid--26bbd5c6_18613012ba5_5340,75757,41.09,De Geerkamp 11e straat,51.82747012,5.80085165,true,Nijmegen Lindenholt,183515.1,426622.08,Nijmegen,41 Kamp,Nijmegen Lindenholt,11 29,6545HD,De Geerkamp 11,Ingang 14e straat,2006,15,2021,https://www.absweb.nu/Fotos/gemeentenijmegen/75757/JPEG_20220701_105747_7208198489746426158.jpg,2023-02-03,POINT (183515.1 426622.08)
SPL_SPEELPLEKKEN.75758,Speelplekken.fid--26bbd5c6_18613012ba5_5341,75758,41.03,De Gildekamp 40e straat,51.8333673,5.79932465,true,Nijmegen Lindenholt,183406.12,427277.57,Nijmegen,41 Kamp,Nijmegen Lindenholt,40 52,6545LE,De Gildekamp 40,In groenvoorziening,2006,15,2021,https://www.absweb.nu/Fotos/gemeentenijmegen/75758/JPEG_20220701_133346_2268767709577959908.jpg,2023-02-03,POINT (183406.12 427277.57)
SPL_SPEELPLEKKEN.75759,Speelplekken.fid--26bbd5c6_18613012ba5_5342,75759,41.02,De Gildekamp 30e straat sportplaats (MV),51.83124398,5.80071562,true,Nijmegen Lindenholt,183503.34,427041.89,Nijmegen,41 Kamp,Nijmegen Lindenholt,60 22,6545LX,De Gildekamp 60,Bij scholen,2002,18,2020,https://www.absweb.nu/Fotos/gemeentenijmegen/75759/JPEG_20220701_115605_6300914572758920861.jpg,2023-02-03,POINT (183503.34 427041.89)
SPL_SPEELPLEKKEN.75760,Speelplekken.fid--26bbd5c6_18613012ba5_5343,75760,41.01,De Gildekamp 20e straat,51.8296009,5.79849792,true,Nijmegen Lindenholt,183351.51,426858.22,Nijmegen,41 Kamp,Nijmegen Lindenholt,20 09,6545KC,De Gildekamp 20,Bij 20-40,2006,15,2021,https://www.absweb.nu/Fotos/gemeentenijmegen/75760/JPEG_20220701_114822_2793929496761920986.jpg,2023-02-03,POINT (183351.51 426858.22)
SPL_SPEELPLEKKEN.75761,Speelplekken.fid--26bbd5c6_18613012ba5_5344,75761,41.23,De Voorstenkamp 12e straat,51.82710825,5.79837823,true,Nijmegen Lindenholt,183344.83,426580.86,Nijmegen,41 Kamp,Nijmegen Lindenholt,11 67,6545EK,De Voorstenkamp 12,Bij huisnummer 12 09 in groenvoorziening,2008,15,2023,https://www.absweb.nu/Fotos/gemeentenijmegen/75761/JPEG_20220701_111116_5368270853634230300.jpg,2023-02-03,POINT (183344.83 426580.86)
SPL_SPEELPLEKKEN.75762,Speelplekken.fid--26bbd5c6_18613012ba5_5345,75762,41.24,De Hoefkamp 10-11e straat,51.83306978,5.803549,true,Nijmegen Lindenholt,183697.48,427246.13,Nijmegen,41 Kamp,Nijmegen Lindenholt,11 09,6545MA,De Hoefkamp 11,In groenvoorziening,2014,10,2024,https://www.absweb.nu/Fotos/gemeentenijmegen/75762/JPEG_20220701_141431_7472324443448011880.jpg,2023-02-03,POINT (183697.48 427246.13)
SPL_SPEELPLEKKEN.75763,Speelplekken.fid--26bbd5c6_18613012ba5_5346,75763,41.21,De Voorstenkamp.17e straat sport en JOP (MV),51.82677878,5.79584452,true,Nijmegen Lindenholt,183170.37,426543.22,Nijmegen,41 Kamp,Nijmegen Lindenholt,17 58,6545GN,De Voorstenkamp 17,De Voorstenkamp.17e straat.,2002,40,2042,https://www.absweb.nu/Fotos/gemeentenijmegen/75763/JPEG_20220701_111959_7668144743095174283.jpg,2023-02-03,POINT (183170.37 426543.22)
SPL_SPEELPLEKKEN.75764,Speelplekken.fid--26bbd5c6_18613012ba5_5347,75764,41.28,De Voorstenkamp 17e straat,51.8263709,5.79483373,true,Nijmegen Lindenholt,183100.94,426497.45,Nijmegen,41 Kamp,Nijmegen Lindenholt,17 01,6545GM,De Voorstenkamp 17,Bij huisnummer 17.02,2007,15,2022,https://www.absweb.nu/Fotos/gemeentenijmegen/75764/21.jpg,2023-02-03,POINT (183100.94 426497.45)
SPL_SPEELPLEKKEN.75765,Speelplekken.fid--26bbd5c6_18613012ba5_5348,75765,41.04,De Gildekamp 31e straat deels sportplaats Jeu de Boules,51.83136806,5.79970301,true,Nijmegen Lindenholt,183433.46,427055.29,Nijmegen,41 Kamp,Nijmegen Lindenholt,31 22,6545LX,De Gildekamp 31,De Gildekamp bij scholen,2006,15,2021,https://www.absweb.nu/Fotos/gemeentenijmegen/75765/JPEG_20220701_120610_7615649040191214908.jpg,2023-02-03,POINT (183433.46 427055.29)
SPL_SPEELPLEKKEN.75766,Speelplekken.fid--26bbd5c6_18613012ba5_5349,75766,41.16,De Kluijskamp  11e en 13e straat,51.82892808,5.80389302,true,Nijmegen Lindenholt,183723.83,426785.48,Nijmegen,41 Kamp,Nijmegen Lindenholt,13 17,6545JD,De Kluijskamp 13,Bij huisnummer 11 10,2015,10,2025,https://www.absweb.nu/Fotos/gemeentenijmegen/75766/JPEG_20220701_103814_4991672529794117901.jpg,2023-02-03,POINT (183723.83 426785.48)
SPL_SPEELPLEKKEN.75767,Speelplekken.fid--26bbd5c6_18613012ba5_534a,75767,41.19,De Kluijskamp 11e straat sportplaats (EV),51.83091373,5.80578747,true,Nijmegen Lindenholt,183853.15,427007.15,Nijmegen,41 Kamp,Nijmegen Lindenholt,11 53,6545JG,De Kluijskamp 11,11e straat achter huisnummers 51 t/m 65,2008,15,2023,https://www.absweb.nu/Fotos/gemeentenijmegen/75767/JPEG_20220701_101737_7671113086451767265.jpg,2023-02-03,POINT (183853.15 427007.15)
SPL_SPEELPLEKKEN.75768,Speelplekken.fid--26bbd5c6_18613012ba5_534b,75768,41.22,De Voorstenkamp 14e straat,51.82786523,5.79573193,true,Nijmegen Lindenholt,183161.93,426664.04,Nijmegen,41 Kamp,Nijmegen Lindenholt,14 12,6545EX,De Voorstenkamp 14,De Voorstenkamp 14e straat,2010,10,2020,https://www.absweb.nu/Fotos/gemeentenijmegen/75768/JPEG_20220701_113719_8157651257474004837.jpg,2023-02-03,POINT (183161.93 426664.04)
SPL_SPEELPLEKKEN.75769,Speelplekken.fid--26bbd5c6_18613012ba5_534c,75769,41.26,De Geerkamp 14e straat sportplaats (EV),51.82619806,5.79897302,true,Nijmegen Lindenholt,183386.4,426479.83,Nijmegen,41 Kamp,Nijmegen Lindenholt,14.02,6545EM,De Geerkamp,De Geerkamp achter 14.02,2005,15,2020,https://www.absweb.nu/Fotos/gemeentenijmegen/75769/JPEG_20220701_110608_7191237673080343047.jpg,2023-02-03,POINT (183386.4 426479.83)
SPL_SPEELPLEKKEN.75770,Speelplekken.fid--26bbd5c6_18613012ba5_534d,75770,41.29,De Gildekamp 23e straat,51.83312903,5.7973872,true,Nijmegen Lindenholt,183272.73,427250.3,Nijmegen,41 Kamp,Nijmegen Lindenholt,23 41,6545KP,De Gildekamp 23,De Gildekamp 23/41 en 23/47,2002,20,2022,https://www.absweb.nu/Fotos/gemeentenijmegen/75770/JPEG_20220701_132813_472090292389231220.jpg,2023-02-03,POINT (183272.73 427250.3)
SPL_SPEELPLEKKEN.75771,Speelplekken.fid--26bbd5c6_18613012ba5_534e,75771,42.21,Holtgesbroek 14e straat,51.82835133,5.77570813,true,Nijmegen Lindenholt,181781.3,426710.56,Nijmegen,42 Broek,Nijmegen Lindenholt,14 19,6546PH,Holtgesbroek 14,In groenvoorziening,2014,15,2029,https://www.absweb.nu/Fotos/gemeentenijmegen/75771/JPEG_20220627_122843_2115371015974818303.jpg,2023-02-03,POINT (181781.3 426710.56)
SPL_SPEELPLEKKEN.75772,Speelplekken.fid--26bbd5c6_18613012ba5_534f,75772,42.18,Holtgesbroek Mondial College sportplaats (EV),51.8303657,5.77677452,true,Nijmegen Lindenholt,181853.61,426935.06,Nijmegen,42 Broek,Nijmegen Lindenholt,11 19,6546TD,Holtgesbroek 11,Ingang Leuvensbroek 33.19,2008,15,2023,https://www.absweb.nu/Fotos/gemeentenijmegen/75772/JPEG_20220627_124008_1301715893400376904.jpg,2023-02-03,POINT (181853.61 426935.06)
SPL_SPEELPLEKKEN.75773,Speelplekken.fid--26bbd5c6_18613012ba5_5350,75773,42.02,Hegdambroek 11e straat,51.83164982,5.78912315,true,Nijmegen Lindenholt,182704.02,427082.55,Nijmegen,42 Broek,Nijmegen Lindenholt,11 18,6546VE,Hegdambroek 11,Bij huisnummer 13.21 in park,2003,17,2020,https://www.absweb.nu/Fotos/gemeentenijmegen/75773/JPEG_20220627_083352_2184816410164472522.jpg,2023-02-03,POINT (182704.02 427082.55)
SPL_SPEELPLEKKEN.75774,Speelplekken.fid--26bbd5c6_18613012ba5_5351,75774,42.01,Bert Oosterbospad sportplaats (MV),51.83067028,5.79189063,true,Nijmegen Lindenholt,182895.39,426974.64,Nijmegen,42 Broek,Nijmegen Lindenholt,17 48,6546VZ,Hegdambroek 17,In het park,2005,15,2020,https://www.absweb.nu/Fotos/gemeentenijmegen/75774/JPEG_20220627_074047_2590054938975742677.jpg,2023-02-03,POINT (182895.39 426974.64)
SPL_SPEELPLEKKEN.75775,Speelplekken.fid--26bbd5c6_18613012ba5_5352,75775,42.16,Wedesteinbroek 14e str. deels sportplaats,51.82993967,5.78258353,true,Nijmegen Lindenholt,182254.29,426889.82,Nijmegen,42 Broek,Nijmegen Lindenholt,15 02,6546RN,Wedesteinbroek 15,Achter 14e straat in groenvoorziening,2002,17,2019,https://www.absweb.nu/Fotos/gemeentenijmegen/75775/JPEG_20220627_141832_3869691672583425714.jpg,2023-02-03,POINT (182254.29 426889.82)
SPL_SPEELPLEKKEN.75776,Speelplekken.fid--26bbd5c6_18613012ba5_5353,75776,42.13,Hegdambroek 17e straat,51.83013905,5.78986192,true,Nijmegen Lindenholt,182755.88,426914.76,Nijmegen,42 Broek,Nijmegen Lindenholt,10 58,6546VV,Hegdambroek 10,Bij 17-23 in groenvoorziening,2003,14,2017,https://www.absweb.nu/Fotos/gemeentenijmegen/75776/JPEG_20220627_075002_1968554449690551636.jpg,2023-02-03,POINT (182755.88 426914.76)
SPL_SPEELPLEKKEN.75777,Speelplekken.fid--26bbd5c6_18613012ba5_5354,75777,42.03,Leuvensbroek 15e straat,51.83189267,5.78338203,true,Nijmegen Lindenholt,182308.15,427107.4,Nijmegen,42 Broek,Nijmegen Lindenholt,15 26,6546XV,Leuvensbroek 15,Leuvensbroek 15e straat,2006,15,2021,https://www.absweb.nu/Fotos/gemeentenijmegen/75777/JPEG_20220627_135751_4161524333214715227.jpg,2023-02-03,POINT (182308.15 427107.4)
SPL_SPEELPLEKKEN.75778,Speelplekken.fid--26bbd5c6_18613012ba5_5355,75778,42.04,Hegdambroek 21e straat,51.82796913,5.7842457,true,Nijmegen Lindenholt,182370.06,426671.22,Nijmegen,42 Broek,Nijmegen Lindenholt,21 22,6546WD,Hegdambroek 21,In groenvoorziening,2006,12,2018,https://www.absweb.nu/Fotos/gemeentenijmegen/75778/22.jpg,2023-02-03,POINT (182370.06 426671.22)
SPL_SPEELPLEKKEN.75779,Speelplekken.fid--26bbd5c6_18613012ba5_5356,75779,42.05,Leuvensbroek 21e straat,51.83261372,5.77869127,true,Nijmegen Lindenholt,181984.39,427185.87,Nijmegen,42 Broek,Nijmegen Lindenholt,21 01,6546XN,Leuvensbroek 21,Hoek 20e en 21e straat,2006,15,2021,https://www.absweb.nu/Fotos/gemeentenijmegen/75779/JPEG_20220627_124644_5593284457435517111.jpg,2023-02-03,POINT (181984.39 427185.87)
SPL_SPEELPLEKKEN.75780,Speelplekken.fid--26bbd5c6_18613012ba5_5357,75780,42.17,Wedesteinbroek 21 e straat,51.82940587,5.7797075,true,Nijmegen Lindenholt,182056.36,426829.36,Nijmegen,42 Broek,Nijmegen Lindenholt,21 43,6546RV,Wedesteinbroek 21,ingang naast huisnr 1449,2005,15,2020,https://www.absweb.nu/Fotos/gemeentenijmegen/75780/JPEG_20220627_143428_674255645695416946.jpg,2023-02-03,POINT (182056.36 426829.36)
SPL_SPEELPLEKKEN.75781,Speelplekken.fid--26bbd5c6_18613012ba5_5358,75781,42.06,Hegdambroek 23e /  24e straat deels sportplaats (EV),51.82944078,5.78584742,true,Nijmegen Lindenholt,182479.58,426835.55,Nijmegen,42 Broek,Nijmegen Lindenholt,23 03,6546WE,Hegdambroek 23,Bij 24-02,2006,15,2021,https://www.absweb.nu/Fotos/gemeentenijmegen/75781/JPEG_20220627_080626_5595976768087943125.jpg,2023-02-03,POINT (182479.58 426835.55)
SPL_SPEELPLEKKEN.75782,Speelplekken.fid--26bbd5c6_18613012ba5_5359,75782,42.08,Hegdambroek 25e straat,51.83079108,5.78824448,true,Nijmegen Lindenholt,182643.99,426986.68,Nijmegen,42 Broek,Nijmegen Lindenholt,11 09,6546VE,Hegdambroek 11,Ingang voor auto bij 11.09,2005,15,2020,https://www.absweb.nu/Fotos/gemeentenijmegen/75782/JPEG_20220627_082751_2959439867752725184.jpg,2023-02-03,POINT (182643.99 426986.68)
SPL_SPEELPLEKKEN.75783,Speelplekken.fid--26bbd5c6_18613012ba5_535a,75783,42.14,Hegdambroek 15e straat deels sport (EV),51.8294238,5.78821037,true,Nijmegen Lindenholt,182642.47,426834.55,Nijmegen,42 Broek,Nijmegen Lindenholt,10 44,6546VD,Hegdambroek 10,Hegdambroek voor 15-20,2007,15,2022,https://www.absweb.nu/Fotos/gemeentenijmegen/75783/JPEG_20220627_075808_8138916991457296993.jpg,2023-02-03,POINT (182642.47 426834.55)
SPL_SPEELPLEKKEN.75784,Speelplekken.fid--26bbd5c6_18613012ba5_535b,75784,42.19,Leuvensbroek / Ackerbroekweg sportplaats (EV),51.83376217,5.78022812,true,Nijmegen Lindenholt,182089.63,427314.21,Nijmegen,42 Broek,Nijmegen Lindenholt,20 02,6546KD,Leuvensbroek 20,Leuvensbroek bij sporthal,2011,10,2021,https://www.absweb.nu/Fotos/gemeentenijmegen/75784/JPEG_20220627_125429_1811647933892406165.jpg,2023-02-03,POINT (182089.63 427314.21)
SPL_SPEELPLEKKEN.75862,Speelplekken.fid--26bbd5c6_18613012ba5_535c,75862,42.07,Kinderboerderij Lindenholt,51.83212997,5.78936028,true,Nijmegen Lindenholt,182720.07,427136.06,Nijmegen,42 Broek,Nijmegen Lindenholt,13e straat,6546VJ,Hegdambroek 13,Kinderboerderij Lindenholt,2007,15,2022,https://www.absweb.nu/Fotos/gemeentenijmegen/75862/JPEG_20220627_113230_3238080419040167536.jpg,2023-02-03,POINT (182720.07 427136.06)
SPL_SPEELPLEKKEN.75873,Speelplekken.fid--26bbd5c6_18613012ba5_535d,75873,42.09,Holtgesbroek 16-32 sportplaats (JB),51.82868512,5.7746514,true,Nijmegen Lindenholt,181708.26,426747.3,Nijmegen,42 Broek,Nijmegen Lindenholt,16 30,6546PK,Holtgesbroek 16,Tegen over 16-32,2007,15,2022,https://www.absweb.nu/Fotos/gemeentenijmegen/75873/17.jpg,2023-02-03,POINT (181708.26 426747.3)
SPL_SPEELPLEKKEN.75897,Speelplekken.fid--26bbd5c6_18613012ba5_535e,75897,42.10,Leuvensbroek Seniorenplaats,51.83142801,5.78133299,true,Nijmegen Lindenholt,182167.19,427054.94,Nijmegen,42 Broek,Nijmegen Lindenholt,13 02,6546RS,Leuvensbroek 13,Bij wijkcentrum de Brack,2009,10,2019,https://www.absweb.nu/Fotos/gemeentenijmegen/75897/JPEG_20220627_141408_7220884028368396501.jpg,2023-02-03,POINT (182167.19 427054.94)
SPL_SPEELPLEKKEN.75906,Speelplekken.fid--26bbd5c6_18613012ba5_535f,75906,70.10,Beatlesstraat deels sportplaats (MV),51.87159143,5.86661363,true,Nijmegen Waalsprong,188016.04,431558.59,Nijmegen,70 Lent,Nijmegen Waalsprong,5,6663GS,Beatlesstraat,Beatlesstraat in park,2009,10,2019,https://www.absweb.nu/Fotos/gemeentenijmegen/75906/JPEG_20220718_064754_5785452448064239723.jpg,2023-02-03,POINT (188016.04 431558.59)
SPL_SPEELPLEKKEN.75940,Speelplekken.fid--26bbd5c6_18613012ba5_5360,75940,70.21,Cantrabriestraat / Lentseveld,51.86692483,5.86417475,true,Nijmegen Waalsprong,187851.49,431038.31,Nijmegen,70 Lent,Nijmegen Waalsprong,25,6663NL,Cantrabriestraat,Cantrabriestraat,2015,12,2027,https://www.absweb.nu/Fotos/gemeentenijmegen/75940/JPEG_20220713_141034_6097259494764434892.jpg,2023-02-03,POINT (187851.49 431038.31)
SPL_SPEELPLEKKEN.75945,Speelplekken.fid--26bbd5c6_18613012ba5_5361,75945,70.13,Speelbos Vossenpelssestraat,51.86676105,5.87938716,true,Nijmegen Waalsprong,188899.36,431027.07,Nijmegen,70 Lent,Nijmegen Waalsprong,16,6663KC,Vossenpelssestraat,Vossenpelssestraat,2015,10,2025,https://www.absweb.nu/Fotos/gemeentenijmegen/75945/JPEG_20220713_123330_8517809223163808859.jpg,2023-02-03,POINT (188899.36 431027.07)
SPL_SPEELPLEKKEN.75923,Speelplekken.fid--26bbd5c6_18613012ba5_5363,75923,70.12,De vieze broek,51.8702564,5.86805813,true,Nijmegen Waalsprong,188116.5,431410.72,Nijmegen,70 Lent,Nijmegen Waalsprong,40,6663GP,John Lennenstraat,John Lennonstraat,2011,10,2021,https://www.absweb.nu/Fotos/gemeentenijmegen/75923/JPEG_20220718_073604_1283862643020298478.jpg,2023-02-03,POINT (188116.5 431410.72)
SPL_SPEELPLEKKEN.75913,Speelplekken.fid--26bbd5c6_18613012ba5_5364,75913,70.11,Visveldsestraat sportplaats (EV),51.86774588,5.86641297,true,Nijmegen Waalsprong,188005.04,431130.66,Nijmegen,70 Lent,Nijmegen Waalsprong,25,6663KK,Visveldsestraat,Visveldsestraat / Kastanjelaan sport,2010,10,2020,https://www.absweb.nu/Fotos/gemeentenijmegen/75913/JPEG_20220713_132142_7384770175115878795.jpg,2023-02-03,POINT (188005.04 431130.66)
SPL_SPEELPLEKKEN.75928,Speelplekken.fid--26bbd5c6_18613012ba5_5365,75928,70.14,Thermionpark,51.87163568,5.86137077,true,Nijmegen Waalsprong,187654.95,431561.14,Nijmegen,70 Lent,Nijmegen Waalsprong,60,6663MD,Yves Montandstraat,Thermionpark Lawick,2013,10,2023,https://www.absweb.nu/Fotos/gemeentenijmegen/75928/JPEG_20220718_100551_9012400573466612520.jpg,2023-02-03,POINT (187654.95 431561.14)
SPL_SPEELPLEKKEN.75929,Speelplekken.fid--26bbd5c6_18613012ba5_5366,75929,70.15,Jo Eversstraat skate sportplaats (JOP),51.87137132,5.87340877,true,Nijmegen Waalsprong,188484.17,431537.21,Nijmegen,70 Lent,Nijmegen Waalsprong,1,6663JA,Jo Eversstraat,Jo Eversstraat JOP,2012,15,2027,https://www.absweb.nu/Fotos/gemeentenijmegen/75929/JPEG_20220713_131222_703651420941487473.jpg,2023-02-03,POINT (188484.17 431537.21)
SPL_SPEELPLEKKEN.75933,Speelplekken.fid--26bbd5c6_18613012ba5_5367,75933,70.17,Yves Mountainstraat,51.87027558,5.86108745,true,Nijmegen Waalsprong,187636.42,431409.7,Nijmegen,70 Lent,Nijmegen Waalsprong,,6663MD,Yves Mountainstraat,Yves Mountainstraat in groenvoorziening,2014,10,2024,https://www.absweb.nu/Fotos/gemeentenijmegen/75933/JPEG_20220718_100016_4631644855638371994.jpg,2023-02-03,POINT (187636.42 431409.7)
SPL_SPEELPLEKKEN.75935,Speelplekken.fid--26bbd5c6_18613012ba5_5368,75935,70.16,Pleintje Floralaan Lent,51.85941127,5.86684253,true,Nijmegen Waalsprong,188040.75,430203.6,Nijmegen,70 Lent,Nijmegen Waalsprong,,6663BK,Floralaan,Natuurspleelplaats in groenvoorziening,2014,10,2024,https://www.absweb.nu/Fotos/gemeentenijmegen/75935/JPEG_20220628_071228_5504012362027291680.jpg,2023-02-03,POINT (188040.75 430203.6)
SPL_SPEELPLEKKEN.75936,Speelplekken.fid--26bbd5c6_18613012ba5_5369,75936,70.18,Het Eiland Nootenlaantje sport (MV) en JOP,51.87512923,5.8631717,true,Nijmegen Waalsprong,187776.43,431950.62,Nijmegen,70 Lent,Nijmegen Waalsprong,8,6663MJ,Genesisstraat,Nootenlaantje,2014,15,2029,https://www.absweb.nu/Fotos/gemeentenijmegen/75936/JPEG_20220718_080914_3127991030834378677.jpg,2023-02-03,POINT (187776.43 431950.62)
SPL_SPEELPLEKKEN.75937,Speelplekken.fid--26bbd5c6_18613012ba5_536a,75937,70.19,Extremadurastraat,51.86555967,5.8617294,true,Nijmegen Waalsprong,187684.06,430885.32,Nijmegen,70 Lent,Nijmegen Waalsprong,27,6663NC,Extremadurastraat,Extremadurastraat in groenvoorziening,2014,10,2024,https://www.absweb.nu/Fotos/gemeentenijmegen/75937/JPEG_20220713_135803_6465711227757952879.jpg,2023-02-03,POINT (187684.06 430885.32)
SPL_SPEELPLEKKEN.75938,Speelplekken.fid--26bbd5c6_18613012ba5_536b,75938,70.20,Navarrastraat,51.86652497,5.86149913,true,Nijmegen Waalsprong,187667.5,430992.61,Nijmegen,70 Lent,Nijmegen Waalsprong,10,6663CC,Navarrastraat,Navarrastraat in groenvoorziening,2014,10,2024,https://www.absweb.nu/Fotos/gemeentenijmegen/75938/JPEG_20220713_134745_1941723697350240.jpg,2023-02-03,POINT (187667.5 430992.61)
SPL_SPEELPLEKKEN.75860,Speelplekken.fid--26bbd5c6_18613012ba5_536c,75860,70.08,Rollingstonesstraat,51.87372737,5.8675294,true,Nijmegen Waalsprong,188077.54,431796.64,Nijmegen,70 Lent,Nijmegen Waalsprong,91,6663HP,Rollingstonesstraat,Rollingstonesstraat,2007,20,2027,https://www.absweb.nu/Fotos/gemeentenijmegen/75860/JPEG_20220718_075158_4334558463567289325.jpg,2023-02-03,POINT (188077.54 431796.64)
SPL_SPEELPLEKKEN.75867,Speelplekken.fid--26bbd5c6_18613012ba5_536d,75867,70.09,Voorziengenhart de Ster,51.87138545,5.86876802,true,Nijmegen Waalsprong,188164.56,431536.65,Nijmegen,70 Lent,Nijmegen Waalsprong,58,6663GN,Queenstraat,Beatelstraat,2007,10,2017,https://www.absweb.nu/Fotos/gemeentenijmegen/75867/JPEG_20220718_071433_5095733021294967086.jpg,2023-02-03,POINT (188164.56 431536.65)
SPL_SPEELPLEKKEN.75849,Speelplekken.fid--26bbd5c6_18613012ba5_536e,75849,70.03,Petuniastraat Lent sportplaats Jeu de Boulesbaan,51.8632956,5.87201707,true,Nijmegen Waalsprong,188394.32,430638.11,Nijmegen,70 Lent,Nijmegen Waalsprong,15,6663DN,Petuniastraat,Jeu de Boulesbaan naast huisnummer 23,2006,15,2021,https://www.absweb.nu/Fotos/gemeentenijmegen/75849/JPEG_20220628_080912_3821635891698730052.jpg,2023-02-03,POINT (188394.32 430638.11)
