GEMEENTE,CBS_GEMEENTECODE,BETREFT,WIJKNAAM,CBS_WIJKCODE,BUURTNAAM,CBS_BUURTCODE,BAGREFNUMMER,STRAATNAAM,HUISNUMMER,HUISLETTER,HUISNUMMERTOEVOEGING,POSTCODE,WOONPLAATS,longitude,latitude,X,Y,GEOMETRIE
Stichtse Vecht,G1904,StichtseVecht-ligplaats,Breukelen,WK190402,Scheendijk,WK19040211,0311020000000001,Scheendijk,11,,51,3621VC,Breukelen,5.024362,52.17824,130182.13,465628.52,"POLYGON ((130177.993 465630.813,130177.814 465626.466,130186.271 465626.227,130186.45 465630.575,130177.993 465630.813))"
Stichtse Vecht,G1904,StichtseVecht-ligplaats,Breukelen,WK190402,Scheendijk,WK19040211,0311020000000013,Scheendijk,11,,38,3621VC,Breukelen,5.023061,52.178046,130093.03,465607.38,"POLYGON ((130101.123 465609.542,130084.936 465609.542,130084.936 465605.265,130101.123 465605.211,130101.123 465609.542))"
Stichtse Vecht,G1904,StichtseVecht-ligplaats,Breukelen,WK190402,Scheendijk,WK19040211,0311020000000027,Scheendijk,11,,53,3621VC,Breukelen,5.024502,52.178374,130191.79,465643.35,"POLYGON ((130183.43 465645.225,130183.555 465641.004,130200.147 465641.533,130200.147 465645.701,130183.43 465645.225))"
Stichtse Vecht,G1904,StichtseVecht-ligplaats,Breukelen,WK190402,Kievitsbuurt,WK19040204,0311020000000043,De Plassen Noord,110,,,3621PN,Breukelen,5.033303,52.181005,130795.21,465933.11,"POLYGON ((130785.253 465935.734,130785.161 465932.535,130786.828 465932.241,130787.416 465930.574,130791.044 465930.476,130790.946 465932.143,130805.261 465931.751,130805.065 465932.437,130799.672 465932.535,130799.476 465935.281,130785.253 465935.734))"
Stichtse Vecht,G1904,StichtseVecht-ligplaats,Breukelen,WK190402,Kievitsbuurt,WK19040204,0311020000000056,Scheendijk,12,,31,3621VC,Breukelen,5.026869,52.178728,130353.87,465681.95,"POLYGON ((130345.79 465683.974,130345.814 465679.852,130361.946 465679.951,130361.921 465684.053,130345.79 465683.974))"
Stichtse Vecht,G1904,StichtseVecht-ligplaats,Breukelen,WK190402,Scheendijk,WK19040211,0311020000000061,Scheendijk,24,,16,3621VC,Breukelen,5.021243,52.183321,129971.63,466194.91,"POLYGON ((129962.974 466193.207,129980.339 466191.897,129980.713 466196.223,129963.468 466197.655,129962.974 466193.207))"
Stichtse Vecht,G1904,StichtseVecht-ligplaats,Vreeland,WK190406,Hoeker Polder,WK19040601,0329020000000076,Nigtevechtseweg,166,,ws,3633XX,Vreeland,5.038595,52.247046,131192.5,473279.1,"POLYGON ((131177.56 473280.477,131180.063 473270.891,131207.45 473277.275,131205.872 473287.3,131177.56 473280.477))"
Stichtse Vecht,G1904,StichtseVecht-ligplaats,Nieuwersluis,WK190409,Polder Mijnden,WK19040901,0329020000000046,Mijndensedijk,29,,ws04,3631NN,Nieuwersluis,5.018372,52.198936,129784.18,467933.23,"POLYGON ((129797.757 467942.141,129789.162 467949.509,129770.392 467924.424,129780.415 467916.961,129792.247 467932.852,129792.415 467933.078,129797.968 467940.536,129797.757 467942.141))"
Stichtse Vecht,G1904,StichtseVecht-ligplaats,Vreeland,WK190406,Hoeker Polder,WK19040601,0329020000000071,Nigtevechtseweg,156,,ws,3633XX,Vreeland,5.038947,52.24685,131216.41,473257.2,"POLYGON ((131205.596 473259.772,131203.537 473258.742,131206.008 473250.094,131229.277 473256.271,131226.6 473264.302,131205.596 473259.772))"
Stichtse Vecht,G1904,StichtseVecht-ligplaats,Nigtevecht,WK190408,Polder Aetsveld,WK19040801,0329020000000104,Klompweg,7,,,1393PH,Nigtevecht,5.056957,52.284093,132465.22,477395.2,"POLYGON ((132451.714 477389.156,132460.324 477381.524,132478.719 477400.898,132470.333 477408.877,132451.714 477389.156))"
Stichtse Vecht,G1904,StichtseVecht-ligplaats,Nigtevecht,WK190408,Polder Garsten Noord,WK19040802,0329020000000131,Vreelandseweg,87,,,1393PE,Nigtevecht,5.031833,52.258954,130737.23,474606.2,"POLYGON ((130722.856 474597.037,130745.865 474596.433,130746.798 474599.651,130749.608 474608.979,130751.605 474613.357,130751.459 474615.977,130722.952 474615.813,130722.856 474597.037))"
Stichtse Vecht,G1904,StichtseVecht-ligplaats,Loenen aan de Vecht,WK190403,Hoefijzer,WK19040307,0329020000000023,Vreelandseweg,15,,ws04,3632EP,Loenen aan de Vecht,5.029414,52.212546,130546.53,469443.69,"POLYGON ((130536.073 469430.729,130548.595 469426.862,130556.986 469457.264,130543.022 469460.521,130536.073 469430.729))"
Stichtse Vecht,G1904,StichtseVecht-ligplaats,Nieuwersluis,WK190409,Polder Sticht,WK19040903,0329020000000044,Jaagpad,45,,ws05,3631AG,Nieuwersluis,5.012697,52.196568,129394.85,467671.75,"POLYGON ((129376.058 467675.159,129377.772 467662.978,129413.635 467669.656,129411.041 467680.518,129396.886 467677.71,129383.508 467675.955,129376.058 467675.159))"
Stichtse Vecht,G1904,StichtseVecht-ligplaats,Nieuwersluis,WK190409,Polder Het Honderd,WK19040904,0329020000000095,Stationsweg,45,,ws,3631AJ,Nieuwersluis,5.002111,52.198926,128672.45,467937.86,"POLYGON ((128660.034 467940.878,128677.569 467926.57,128684.864 467935.267,128667.048 467949.155,128660.034 467940.878))"
Stichtse Vecht,G1904,StichtseVecht-ligplaats,Vreeland,WK190406,Hoeker Polder,WK19040601,0329020000000059,Nigtevechtseweg,132,,ws,3633XX,Vreeland,5.036076,52.246207,131019.99,473186.6,"POLYGON ((131009.136 473181.078,131022.243 473174.454,131030.84 473190.944,131020.125 473198.742,131009.136 473181.078))"
Stichtse Vecht,G1904,StichtseVecht-ligplaats,Nieuwersluis,WK190409,Polder Het Honderd,WK19040904,0329020000000091,Stationsweg,37,,ws,3631AJ,Nieuwersluis,5.003267,52.198333,128751.15,467871.44,"POLYGON ((128738.031 467875.366,128757.25 467859.233,128764.264 467867.65,128744.765 467883.643,128738.031 467875.366))"
Stichtse Vecht,G1904,StichtseVecht-ligplaats,Nigtevecht,WK190408,Nigtevecht Garsten,WK19040805,0329020000000100,Vreelandseweg,7,,,1393PC,Nigtevecht,5.022246,52.27268,130090.36,476136.64,"POLYGON ((130078.403 476141.811,130080.429 476138.51,130082.455 476135.209,130084.149 476132.056,130085.727 476128.716,130088.324 476123.185,130102.326 476132.497,130092.376 476150.092,130078.403 476141.811))"
Stichtse Vecht,G1904,StichtseVecht-ligplaats,Nigtevecht,WK190408,Polder Aetsveld,WK19040801,0329020000000108,Klompweg,17,,,1393PJ,Nigtevecht,5.057162,52.284883,132479.61,477483,"POLYGON ((132472.451 477475.28,132480.301 477473.409,132486.762 477489.502,132478.445 477492.587,132472.451 477475.28))"
Stichtse Vecht,G1904,StichtseVecht-ligplaats,Loenen aan de Vecht,WK190403,Oudover,WK19040309,0329020000000003,Oud Over,99,,ws,3632VC,Loenen aan de Vecht,5.030286,52.212413,130606.07,469428.61,"POLYGON ((130594.794 469419.591,130608.509 469414.261,130612.368 469425.545,130617.344 469437.654,130604.425 469442.959,130594.794 469419.591))"
Stichtse Vecht,G1904,StichtseVecht-ligplaats,Loenen aan de Vecht,WK190403,Hoefijzer,WK19040307,0329020000000024,Vreelandseweg,18,,ws05,3632EP,Loenen aan de Vecht,5.0296,52.212968,130559.52,469490.59,"POLYGON ((130549.855 469482.23,130557.095 469476.551,130569.19 469499.979,130556.964 469504.638,130557.075 469497.531,130553.487 469493.374,130553.442 469493.533,130549.919 469482.427,130549.855 469482.23))"
Stichtse Vecht,G1904,StichtseVecht-ligplaats,Nieuwersluis,WK190409,Polder Sticht,WK19040903,0329020000000045,Mijndensedijk,27,,ws03,3631NN,Loenen aan de Vecht,5.019136,52.199566,129836.72,468002.98,"POLYGON ((129821.263 467991.609,129831.87 467986.282,129852.177 468012.627,129841.611 468019.675,129821.263 467991.609))"
Stichtse Vecht,G1904,StichtseVecht-ligplaats,Nieuwersluis,WK190409,Polder Het Honderd,WK19040904,0329020000000101,Stationsweg,47,,ws,3631AJ,Nieuwersluis,5.001833,52.199068,128653.51,467953.78,"POLYGON ((128639.973 467957.993,128660.034 467940.878,128667.048 467949.155,128647.127 467966.691,128639.973 467957.993))"
Stichtse Vecht,G1904,StichtseVecht-ligplaats,Vreeland,WK190406,Hoeker Polder,WK19040601,0329020000000056,Nigtevechtseweg,126,,ws,3633XX,Vreeland,5.035997,52.245456,131014.22,473103.1,"POLYGON ((131004.51 473113.278,131011.486 473100.367,131016.773 473091.915,131018.899 473089.113,131023.934 473092.711,131011.532 473117.093,131004.51 473113.278))"
Stichtse Vecht,G1904,StichtseVecht-ligplaats,Nieuwersluis,WK190409,Polder Het Honderd,WK19040904,0329020000000092,Stationsweg,39,,ws,3631AJ,Nieuwersluis,5.002974,52.198485,128731.16,467888.48,"POLYGON ((128717.55 467893.042,128738.031 467875.366,128744.765 467883.643,128724.704 467901.599,128717.55 467893.042))"
Stichtse Vecht,G1904,StichtseVecht-ligplaats,Vreeland,WK190406,Vreeland Dorp,WK19040603,0329020000000145,Nigtevechtseweg,20,,ws,3633XS,Vreeland,5.030879,52.233407,130658.07,471764.16,"POLYGON ((130651.273 471758.418,130659.263 471756.332,130664.87 471768.481,130657.277 471771.986,130651.273 471758.418))"
Stichtse Vecht,G1904,StichtseVecht-ligplaats,Vreeland,WK190406,Hoeker Polder,WK19040601,0329020000000138,IJsvogelpad,1,,ws,3633DB,Vreeland,5.032715,52.2252,130779.03,470850.48,"POLYGON ((130765.281 470858.101,130773.804 470848.271,130779.092 470841.129,130782.46 470835.233,130792.775 470845.266,130773.993 470865.734,130765.281 470858.101))"
Stichtse Vecht,G1904,StichtseVecht-ligplaats,Vreeland,WK190406,Hoeker Polder,WK19040601,0329020000000158,Nigtevechtseweg,90,,ws,3633XW,Vreeland,5.038446,52.240917,131179.06,472597.22,"POLYGON ((131165.158 472593.558,131175.287 472584.075,131175.934 472584.506,131192.959 472599.161,131183.692 472610.367,131165.158 472593.558))"
Stichtse Vecht,G1904,StichtseVecht-ligplaats,Vreeland,WK190406,Hoeker Polder,WK19040601,0329020000000141,IJsvogelpad,9,,ws,3633DB,Vreeland,5.033115,52.224098,130805.76,470727.67,"POLYGON ((130800.315 470741.102,130801.743 470714.247,130801.76 470713.908,130811.205 470715.4,130810.873 470741.431,130800.315 470741.102))"
Stichtse Vecht,G1904,StichtseVecht-ligplaats,Loenen aan de Vecht,WK190403,Oudover,WK19040309,0329020000000004,Oud Over,101,,ws,3632VC,Loenen aan de Vecht,5.030407,52.212637,130614.47,469453.45,"POLYGON ((130602.3 469443.809,130617.666 469438.456,130626.64 469463.078,130611.648 469468.453,130602.3 469443.809))"
Stichtse Vecht,G1904,StichtseVecht-ligplaats,Loenen aan de Vecht,WK190403,Hoefijzer,WK19040307,0329020000000025,Vreelandseweg,22,,ws06,3632ER,Loenen aan de Vecht,5.030047,52.213712,130590.46,469573.18,"POLYGON ((130579.803 469558.934,130593.49 469555.988,130601.118 469586.717,130588.395 469590.375,130584.579 469578.833,130582.761 469572.681,130579.803 469558.934))"
Stichtse Vecht,G1904,StichtseVecht-ligplaats,Vreeland,WK190406,Hoeker Polder,WK19040601,0329020000000064,Nigtevechtseweg,142,,ws,3633XX,Vreeland,5.037124,52.2466,131091.83,473230.02,"POLYGON ((131079.782 473229.502,131083.694 473221.677,131103.874 473229.708,131100.579 473238.357,131079.782 473229.502))"
Stichtse Vecht,G1904,StichtseVecht-ligplaats,Nieuwersluis,WK190409,Polder Het Honderd,WK19040904,0329020000000093,Stationsweg,41,,ws,3631AJ,Nieuwersluis,5.002672,52.198645,128710.61,467906.37,"POLYGON ((128696.507 467911.138,128717.55 467893.042,128724.704 467901.599,128703.802 467919.696,128697.128 467911.867,128696.507 467911.138))"
Stichtse Vecht,G1904,StichtseVecht-ligplaats,Nigtevecht,WK190408,Polder Aetsveld,WK19040801,0329020000000105,Klompweg,11,,,1393PH,Nigtevecht,5.057312,52.28444,132489.62,477433.7,"POLYGON ((132480.844 477442.475,132492.401 477421.838,132498.392 477428.887,132487.819 477445.568,132480.844 477442.475))"
Stichtse Vecht,G1904,StichtseVecht-ligplaats,Nigtevecht,WK190408,Polder Aetsveld,WK19040801,0329020000000107,Klompweg,15,,,1393PH,Nigtevecht,5.057133,52.284734,132477.61,477466.44,"POLYGON ((132472.451 477475.28,132475.688 477457.597,132482.768 477459.899,132480.301 477473.409,132472.451 477475.28))"
Stichtse Vecht,G1904,StichtseVecht-ligplaats,Nigtevecht,WK190408,Polder Aetsveld,WK19040801,0329020000000113,Klompweg,27,,,1393PJ,Nigtevecht,5.058496,52.284849,132570.64,477478.76,"POLYGON ((132558.667 477479.601,132563.119 477469.18,132579.447 477476.815,132582.619 477478.342,132579.642 477484.078,132577.433 477488.333,132565.094 477481.002,132561.627 477478.942,132558.667 477479.601))"
Stichtse Vecht,G1904,StichtseVecht-ligplaats,Vreeland,WK190406,Polder Dorssewaard,WK19040602,0329020000000146,Nigtevechtseweg,22,,ws,3633XS,Vreeland,5.030987,52.233539,130665.57,471778.82,"POLYGON ((130657.277 471771.986,130658.269 471771.528,130664.87 471768.481,130673.865 471786.472,130666.272 471789.159,130657.277 471771.986))"
Stichtse Vecht,G1904,StichtseVecht-ligplaats,Vreeland,WK190406,Hoeker Polder,WK19040601,0329020000000140,IJsvogelpad,3,,ws,3633DB,Vreeland,5.033004,52.224862,130798.63,470812.72,"POLYGON ((130789.563 470821.67,130792.747 470814.062,130794.898 470807.271,130796.265 470798.707,130807.705 470800.237,130807.223 470806.016,130801.444 470826.725,130789.563 470821.67))"
Stichtse Vecht,G1904,StichtseVecht-ligplaats,Vreeland,WK190406,Hoeker Polder,WK19040601,0329020000000159,Nigtevechtseweg,92,,ws,3633XW,Vreeland,5.038863,52.241107,131207.61,472618.23,"POLYGON ((131190.804 472614.893,131191.02 472614.893,131202.442 472603.04,131224.424 472623.729,131214.51 472633.427,131195.867 472618.852,131190.804 472614.893))"
Stichtse Vecht,G1904,StichtseVecht-ligplaats,Loenen aan de Vecht,WK190403,Oudover,WK19040309,0329020000000005,Oud Over,103,,ws,3632VC,Loenen aan de Vecht,5.030664,52.213105,130632.29,469505.48,"POLYGON ((130619.862 469496.637,130634.496 469489.823,130637.914 469500,130644.721 469516.297,130631.051 469521.139,130619.862 469496.637))"
Stichtse Vecht,G1904,StichtseVecht-ligplaats,Loenen aan de Vecht,WK190403,Polder Holland,WK19040301,0329020000000026,Vreelandseweg,27,,ws07,3632ER,Loenen aan de Vecht,5.032247,52.220086,130744.28,470281.63,"POLYGON ((130729.992 470279.949,130735.384 470269.786,130735.475 470269.616,130758.576 470283.673,130752.964 470293.639,130729.992 470279.949))"
Stichtse Vecht,G1904,StichtseVecht-ligplaats,Loenersloot,WK190410,Poldergebied Loenersloot,WK19041001,0329020000000034,Angstelpad,14,,ws,3634AM,Loenersloot,4.995959,52.225089,128267.61,470851.03,"POLYGON ((128254.402 470848.812,128259.253 470840.861,128280.814 470853.258,128275.828 470861.209,128254.402 470848.812))"
Stichtse Vecht,G1904,StichtseVecht-ligplaats,Nieuwersluis,WK190409,Polder Het Honderd,WK19040904,0329020000000102,Stationsweg,49,,ws,3631AJ,Nieuwersluis,5.001453,52.199259,128627.63,467975.11,"POLYGON ((128614.02 467979.176,128633.941 467962.342,128641.236 467971.18,128621.736 467987.874,128614.02 467979.176))"
Stichtse Vecht,G1904,StichtseVecht-ligplaats,Vreeland,WK190406,Hoeker Polder,WK19040601,0329020000000069,Nigtevechtseweg,152,,ws,3633XX,Vreeland,5.038179,52.246705,131163.9,473241.34,"POLYGON ((131151.646 473242.681,131154.941 473234.238,131176.15 473241.445,131173.679 473248.446,131151.646 473242.681))"
Stichtse Vecht,G1904,StichtseVecht-ligplaats,Nieuwersluis,WK190409,Polder Het Honderd,WK19040904,0329020000000094,Stationsweg,43,,ws,3631AJ,Nieuwersluis,5.002379,52.198795,128690.69,467923.2,"POLYGON ((128677.569 467926.57,128696.507 467911.138,128697.128 467911.867,128703.802 467919.696,128684.864 467935.267,128677.569 467926.57))"
Stichtse Vecht,G1904,StichtseVecht-ligplaats,Nigtevecht,WK190408,Polder Aetsveld,WK19040801,0329020000000114,Klompweg,29,,,1393PJ,Nigtevecht,5.058808,52.284948,132591.95,477489.72,"POLYGON ((132577.433 477488.333,132579.642 477484.078,132582.619 477478.342,132606.466 477490.442,132600.599 477501.1,132589.729 477495.111,132583.581 477491.722,132579.531 477489.49,132577.433 477488.333))"
Stichtse Vecht,G1904,StichtseVecht-ligplaats,Vreeland,WK190406,Polder Dorssewaard,WK19040602,0329020000000147,Nigtevechtseweg,66,,ws,3633XW,Vreeland,5.032721,52.236345,130785.54,472090.49,"POLYGON ((130772.93 472080.428,130786.076 472075.04,130798.145 472100.039,130798.145 472100.255,130785.742 472105.945,130783.921 472105.643,130772.93 472080.428))"
Stichtse Vecht,G1904,StichtseVecht-ligplaats,Nigtevecht,WK190408,Polder Aetsveld,WK19040801,0329020000000122,Klompweg,45,,,1393PJ,Nigtevecht,5.06452,52.284695,132981.59,477459.87,"POLYGON ((132966.796 477455.853,132975.701 477445.798,132996.384 477464.758,132987.622 477473.95,132966.796 477455.853))"
Stichtse Vecht,G1904,StichtseVecht-ligplaats,Vreeland,WK190406,Hoeker Polder,WK19040601,0329020000000139,IJsvogelpad,5,,ws,3633DB,Vreeland,5.033062,52.224643,130802.47,470788.39,"POLYGON ((130796.265 470798.707,130798.289 470776.543,130808.668 470777.12,130807.705 470800.237,130796.265 470798.707))"
Stichtse Vecht,G1904,StichtseVecht-ligplaats,Vreeland,WK190406,Hoeker Polder,WK19040601,0329020000000137,IJsvogelpad,7,,ws,3633DB,Vreeland,5.033081,52.224376,130803.62,470758.64,"POLYGON ((130798.517 470772.442,130800.141 470744.846,130808.718 470745.245,130808.552 470772.437,130798.517 470772.442))"
Stichtse Vecht,G1904,StichtseVecht-ligplaats,Vreeland,WK190406,Hoeker Polder,WK19040601,0329020000000160,Nigtevechtseweg,96,,ws,3633XW,Vreeland,5.040116,52.242529,131293.94,472776,"POLYGON ((131283.741 472775.663,131300.935 472768.868,131304.137 472776.265,131287.663 472783.139,131283.741 472775.663))"
Stichtse Vecht,G1904,StichtseVecht-ligplaats,Loenen aan de Vecht,WK190403,Oudover,WK19040309,0329020000000006,Oud Over,105,,ws,3632VC,Loenen aan de Vecht,5.030825,52.213359,130643.42,469533.59,"POLYGON ((130632.892 469524.679,130646.389 469520.414,130650.297 469530.902,130653.948 469541.595,130642.381 469546.774,130632.892 469524.679))"
Stichtse Vecht,G1904,StichtseVecht-ligplaats,Loenen aan de Vecht,WK190403,Polder Holland,WK19040301,0329020000000027,Vreelandseweg,27,,ws08,3632ER,Loenen aan de Vecht,5.03293,52.220552,130791.2,470333.26,"POLYGON ((130776.539 470325.402,130787.452 470316.69,130805.868 470341.099,130794.955 470349.822,130791.805 470346.392,130782.479 470333.836,130776.591 470325.474,130776.539 470325.402))"
Stichtse Vecht,G1904,StichtseVecht-ligplaats,Vreeland,WK190406,Hoeker Polder,WK19040601,0329020000000070,Nigtevechtseweg,154,,ws,3633XX,Vreeland,5.038597,52.246792,131192.52,473250.81,"POLYGON ((131181.092 473251.535,131183.769 473243.71,131203.949 473249.064,131200.86 473257.919,131181.092 473251.535))"
Stichtse Vecht,G1904,StichtseVecht-ligplaats,Nieuwersluis,WK190409,Kanaalzone sector Nieuwersluis,WK19040907,0329020000000103,Stationsweg,51,,ws,3631AJ,Nieuwersluis,5.00106,52.199466,128600.9,467998.32,"POLYGON ((128582.877 468005.69,128611.495 467981.561,128618.93 467990.539,128591.014 468015.089,128582.877 468005.69))"
Stichtse Vecht,G1904,StichtseVecht-ligplaats,Vreeland,WK190406,Hoeker Polder,WK19040601,0329020000000072,Nigtevechtseweg,158,,ws,3633XX,Vreeland,5.038861,52.24696,131210.64,473269.45,"POLYGON ((131196.742 473270.479,131198.801 473262.243,131224.541 473269.45,131221.864 473276.657,131196.742 473270.479))"
Stichtse Vecht,G1904,StichtseVecht-ligplaats,Nieuwersluis,WK190409,Polder Het Honderd,WK19040904,0329020000000089,Stationsweg,33,,ws,3631AJ,Nieuwersluis,5.003987,52.197973,128800.11,467831.11,"POLYGON ((128781.8 467838.612,128810.558 467814.904,128818.414 467823.461,128789.095 467847.309,128781.8 467838.612))"
Stichtse Vecht,G1904,StichtseVecht-ligplaats,Nigtevecht,WK190408,Polder Aetsveld,WK19040801,0329020000000115,Klompweg,31,,,1393PJ,Nigtevecht,5.059133,52.285056,132614.22,477501.68,"POLYGON ((132600.599 477501.1,132606.466 477490.442,132627.846 477502.424,132622.057 477512.922,132600.599 477501.1))"
Stichtse Vecht,G1904,StichtseVecht-ligplaats,Vreeland,WK190406,Polder Dorssewaard,WK19040602,0329020000000148,Nigtevechtseweg,68,,ws,3633XW,Vreeland,5.032839,52.236714,130793.77,472131.48,"POLYGON ((130783.357 472124.852,130795.99 472119.651,130804.179 472139.262,130793.146 472143.311,130792.508 472142.108,130783.357 472124.852))"
Stichtse Vecht,G1904,StichtseVecht-ligplaats,Nigtevecht,WK190408,Polder Aetsveld,WK19040801,0329020000000117,Klompweg,35,,,1393PJ,Nigtevecht,5.059943,52.285321,132669.59,477530.9,"POLYGON ((132655.191 477529.958,132660.386 477519.81,132683.998 477531.675,132678.861 477541.99,132660.348 477532.59,132655.191 477529.958))"
Stichtse Vecht,G1904,StichtseVecht-ligplaats,Vreeland,WK190406,Hoeker Polder,WK19040601,0329020000000136,IJsvogelpad,11,,ws,3633DB,Vreeland,5.033131,52.22387,130806.73,470702.32,"POLYGON ((130801.76 470713.908,130802.324 470704.95,130803.39 470692.431,130803.984 470689.243,130811.702 470690.695,130811.205 470715.4,130801.76 470713.908))"
Stichtse Vecht,G1904,StichtseVecht-ligplaats,Vreeland,WK190406,Hoeker Polder,WK19040601,0329020000000134,IJsvogelpad,13,,ws,3633DB,Vreeland,5.033259,52.223445,130815.25,470654.97,"POLYGON ((130809.008 470664.287,130814.462 470643.947,130821.485 470645.595,130816.013 470665.989,130809.008 470664.287))"
Stichtse Vecht,G1904,StichtseVecht-ligplaats,Vreeland,WK190406,Hoeker Polder,WK19040601,0329020000000162,Nigtevechtseweg,100,,ws,3633XW,Vreeland,5.040586,52.242414,131326.03,472763.14,"POLYGON ((131316.276 472762.794,131333.161 472756.513,131335.776 472761.82,131318.473 472769.758,131316.276 472762.794))"
Stichtse Vecht,G1904,StichtseVecht-ligplaats,Vreeland,WK190406,Hoeker Polder,WK19040601,0329020000000165,Nigtevechtseweg,108,,ws,3633XW,Vreeland,5.042029,52.242381,131424.55,472758.92,"POLYGON ((131409.179 472760.81,131415.837 472745.806,131439.929 472756.513,131433.604 472772.026,131409.179 472760.81))"
Stichtse Vecht,G1904,StichtseVecht-ligplaats,Loenen aan de Vecht,WK190403,Oudover,WK19040309,0329020000000008,Oud Over,109,,ws,3632VC,Loenen aan de Vecht,5.031067,52.213744,130660.16,469576.44,"POLYGON ((130652.154 469568.443,130662.081 469565.606,130668.157 469583.833,130658.385 469587.28,130652.154 469568.443))"
Stichtse Vecht,G1904,StichtseVecht-ligplaats,Loenersloot,WK190410,Poldergebied Loenersloot,WK19041001,0329020000000030,Angstelpad,6,,ws,3634AM,Loenersloot,4.997403,52.225653,128366.59,470913.22,"POLYGON ((128355.873 470911.877,128359.511 470905.005,128368.405 470909.721,128377.299 470914.437,128373.661 470921.445,128355.873 470911.877))"
Stichtse Vecht,G1904,StichtseVecht-ligplaats,Vreeland,WK190406,Hoeker Polder,WK19040601,0329020000000073,Nigtevechtseweg,160,,ws,3633XX,Vreeland,5.038488,52.246892,131185.11,473262.04,"POLYGON ((131173.474 473263.478,131176.15 473254.212,131196.742 473261.213,131194.065 473269.862,131173.474 473263.478))"
Stichtse Vecht,G1904,StichtseVecht-ligplaats,Nigtevecht,WK190408,Polder Aetsveld,WK19040801,0329020000000096,Klompweg,5,,,1393PH,Nigtevecht,5.032977,52.275586,130824.33,476456.33,"POLYGON ((130811.477 476454.306,130816.929 476445.544,130837.183 476458.753,130832.098 476467.118,130812.032 476454.651,130811.477 476454.306))"
Stichtse Vecht,G1904,StichtseVecht-ligplaats,Nigtevecht,WK190408,Polder Aetsveld,WK19040801,0329020000000116,Klompweg,33,,,1393PJ,Nigtevecht,5.059482,52.285171,132638.11,477514.36,"POLYGON ((132622.057 477512.922,132627.846 477502.424,132654.16 477516.521,132648.034 477526.304,132628.425 477516.293,132622.057 477512.922))"
Stichtse Vecht,G1904,StichtseVecht-ligplaats,Vreeland,WK190406,Polder Dorssewaard,WK19040602,0329020000000149,Nigtevechtseweg,70,,ws,3633XW,Vreeland,5.033005,52.236939,130805.24,472156.4,"POLYGON ((130795.53 472147.376,130796.818 472146.925,130810.429 472142.279,130814.954 472164.477,130801.808 472170.511,130795.53 472147.376))"
Stichtse Vecht,G1904,StichtseVecht-ligplaats,Nigtevecht,WK190408,Polder Aetsveld,WK19040801,0329020000000118,Klompweg,37,,,1393PJ,Nigtevecht,5.060335,52.285442,132696.45,477544.18,"POLYGON ((132681.653 477543.408,132686.347 477532.379,132711.251 477544.127,132710.048 477555.973,132702.551 477553.851,132681.653 477543.408))"
Stichtse Vecht,G1904,StichtseVecht-ligplaats,Vreeland,WK190406,Hoeker Polder,WK19040601,0329020000000135,IJsvogelpad,15,,ws,3633DB,Vreeland,5.033369,52.223228,130822.67,470630.77,"POLYGON ((130815.065 470641.676,130822.753 470617.77,130830.273 470620.558,130822.148 470643.771,130815.065 470641.676))"
Stichtse Vecht,G1904,StichtseVecht-ligplaats,Vreeland,WK190406,Hoeker Polder,WK19040601,0329020000000164,Nigtevechtseweg,104,,ws,3633XW,Vreeland,5.04113,52.242275,131363.07,472747.47,"POLYGON ((131351.9 472748.277,131372.491 472740.761,131374.242 472746.423,131354.209 472754.182,131351.9 472748.277))"
Stichtse Vecht,G1904,StichtseVecht-ligplaats,Loenen aan de Vecht,WK190403,Oudover,WK19040309,0329020000000007,Oud Over,107,,ws,3632VC,Loenen aan de Vecht,5.030964,52.213552,130653.06,469555.1,"POLYGON ((130644.506 469547.198,130654.479 469543.165,130661.612 469564.199,130651.729 469567.027,130644.506 469547.198))"
Stichtse Vecht,G1904,StichtseVecht-ligplaats,Loenen aan de Vecht,WK190403,Oudover,WK19040309,0329020000000009,Oud Over,111,,ws,3632VC,Loenen aan de Vecht,5.031162,52.213958,130666.79,469600.14,"POLYGON ((130655.978 469588.979,130668.157 469583.833,130677.593 469611.752,130664.617 469616.455,130655.978 469588.979))"
Stichtse Vecht,G1904,StichtseVecht-ligplaats,Loenen aan de Vecht,WK190403,Polder Oud Over,WK19040303,0329020000000014,Oud Over,121,,ws,3632VC,Loenen aan de Vecht,5.032132,52.216847,130734.63,469921.32,"POLYGON ((130723.676 469933.138,130732.174 469903.962,130745.579 469907.697,130744.566 469918.271,130738.578 469938.676,130723.676 469933.138))"
Stichtse Vecht,G1904,StichtseVecht-ligplaats,Loenersloot,WK190410,Poldergebied Loenersloot,WK19041001,0329020000000028,Angstelpad,2,,ws,3634AM,Loenersloot,4.997946,52.225846,128403.78,470934.45,"POLYGON ((128390.64 470933.438,128395.222 470924.14,128416.917 470935.19,128412.336 470944.758,128390.64 470933.438))"
Stichtse Vecht,G1904,StichtseVecht-ligplaats,Loenen aan de Vecht,WK190403,Hoefijzer,WK19040307,0329020000000020,Vreelandseweg,6,,,3632EP,Loenen aan de Vecht,5.028733,52.211284,130499.31,469303.5,"POLYGON ((130488.535 469294.163,130499.658 469288.119,130510.093 469314.592,130498.113 469318.878,130498.081 469318.779,130496.403 469313.193,130491.528 469301.237,130488.535 469294.163))"
Stichtse Vecht,G1904,StichtseVecht-ligplaats,Loenersloot,WK190410,Poldergebied Loenersloot,WK19041001,0329020000000031,Angstelpad,8,,ws,3634AM,Loenersloot,4.997049,52.225539,128342.33,470900.63,"POLYGON ((128331.617 470898.536,128335.39 470891.933,128353.043 470902.444,128349.135 470909.317,128331.617 470898.536))"
Stichtse Vecht,G1904,StichtseVecht-ligplaats,Nigtevecht,WK190408,Nigtevecht Garsten,WK19040805,0329020000000097,Vreelandseweg,1,,,1393PC,Nigtevecht,5.021893,52.273501,130066.73,476228.12,"POLYGON ((130059.728 476240.829,130060.344 476223.145,130061.126 476215.404,130073.734 476217.853,130072.268 476240.789,130059.728 476240.829))"
Stichtse Vecht,G1904,StichtseVecht-ligplaats,Loenersloot,WK190410,Poldergebied Loenersloot,WK19041001,0329020000000039,Angstelpad,24,,ws,3634AM,Loenersloot,4.993723,52.220796,128112.24,470374.22,"POLYGON ((128104.732 470383.839,128108.601 470362.332,128119.752 470364.836,128115.77 470386.115,128104.732 470383.839))"
Stichtse Vecht,G1904,StichtseVecht-ligplaats,Vreeland,WK190406,Hoeker Polder,WK19040601,0329020000000074,Nigtevechtseweg,162,,ws,3633XX,Vreeland,5.03813,52.246828,131160.6,473255.04,"POLYGON ((131148.558 473256.271,131150.571 473247.612,131150.617 473247.417,131172.65 473255.036,131170.179 473262.655,131148.558 473256.271))"
Stichtse Vecht,G1904,StichtseVecht-ligplaats,Nigtevecht,WK190408,Nigtevecht Garsten,WK19040805,0329020000000098,Vreelandseweg,3,,,1393PC,Nigtevecht,5.022038,52.273102,130076.4,476183.69,"POLYGON ((130064.089 476199.233,130066.915 476183.545,130067.013 476183.017,130068.552 476175.217,130071.015 476164.707,130088.711 476168.001,130081.589 476202.667,130064.089 476199.233))"
Stichtse Vecht,G1904,StichtseVecht-ligplaats,Nigtevecht,WK190408,Polder Aetsveld,WK19040801,0329020000000119,Klompweg,39,,,1393PJ,Nigtevecht,5.060771,52.285517,132726.19,477552.43,"POLYGON ((132710.048 477555.973,132711.251 477544.127,132740.502 477548.943,132742.324 477559.878,132737.156 477560.739,132729.641 477560.658,132712.617 477556.663,132710.048 477555.973))"
Stichtse Vecht,G1904,StichtseVecht-ligplaats,Vreeland,WK190406,Polder Dorssewaard,WK19040602,0329020000000150,Nigtevechtseweg,72,,ws,3633XW,Vreeland,5.033128,52.23714,130813.77,472178.81,"POLYGON ((130801.808 472170.511,130814.954 472164.477,130825.73 472188.829,130814.092 472193.14,130801.808 472170.511))"
Stichtse Vecht,G1904,StichtseVecht-ligplaats,Nigtevecht,WK190408,Polder Garsten Noord,WK19040802,0329020000000120,Vreelandseweg,39,,,1393PD,Nigtevecht,5.025652,52.268439,130320.48,475663.67,"POLYGON ((130307.02 475662.291,130311.813 475653.628,130333.93 475664.134,130328.585 475673.719,130307.02 475662.291))"
Stichtse Vecht,G1904,StichtseVecht-ligplaats,Nigtevecht,WK190408,Polder Garsten Noord,WK19040802,0329020000000125,Vreelandseweg,57,,,1393PD,Nigtevecht,5.026465,52.265063,130374.08,475287.71,"POLYGON ((130356.403 475275.17,130366.876 475266.163,130391.759 475303.489,130381.998 475309.255,130356.403 475275.17))"
Stichtse Vecht,G1904,StichtseVecht-ligplaats,Vreeland,WK190406,Hoeker Polder,WK19040601,0329020000000133,IJsvogelpad,17,,ws,3633DB,Vreeland,5.033496,52.223021,130831.22,470607.77,"POLYGON ((130823.549 470615.625,130830.514 470597.299,130838.895 470599.998,130831.765 470618.237,130823.549 470615.625))"
Stichtse Vecht,G1904,StichtseVecht-ligplaats,Loenersloot,WK190410,Poldergebied Loenersloot,WK19041001,0329020000000035,Angstelpad,16,,ws,3634AM,Loenersloot,4.995546,52.224958,128239.31,470836.55,"POLYGON ((128230.849 470838.733,128235.142 470829.219,128254.671 470836.818,128250.629 470846.925,128230.849 470838.733))"
Stichtse Vecht,G1904,StichtseVecht-ligplaats,Loenen aan de Vecht,WK190403,Polder Oud Over,WK19040303,0329020000000010,Oud Over,113,,ws,3632VC,Loenen aan de Vecht,5.031406,52.214663,130683.82,469678.53,"POLYGON ((130671.84 469662.626,130688.531 469658.744,130695.792 469694.963,130682.887 469698.317,130671.84 469662.626))"
Stichtse Vecht,G1904,StichtseVecht-ligplaats,Loenen aan de Vecht,WK190403,Hoefijzer,WK19040307,0329020000000022,Vreelandseweg,12,,ws12,3632EP,Loenen aan de Vecht,5.029274,52.212255,130536.82,469411.32,"POLYGON ((130525.475 469396.525,130538.243 469393.409,130548.159 469425.118,130535.607 469429.232,130525.506 469396.624,130525.475 469396.525))"
Stichtse Vecht,G1904,StichtseVecht-ligplaats,Loenersloot,WK190410,Poldergebied Loenersloot,WK19041001,0329020000000029,Angstelpad,4,,ws,3634AM,Loenersloot,4.997669,52.225744,128384.78,470923.26,"POLYGON ((128375.412 470922.792,128379.186 470915.785,128394.144 470923.601,128390.505 470930.743,128375.412 470922.792))"
Stichtse Vecht,G1904,StichtseVecht-ligplaats,Loenersloot,WK190410,Poldergebied Loenersloot,WK19041001,0329020000000036,Angstelpad,18,,ws,3634AM,Loenersloot,4.99514,52.224847,128211.48,470824.35,"POLYGON ((128199.017 470824.825,128202.521 470815.662,128223.947 470823.343,128220.309 470833.045,128199.017 470824.825))"
Stichtse Vecht,G1904,StichtseVecht-ligplaats,Nigtevecht,WK190408,Nigtevecht Garsten,WK19040805,0329020000000099,Vreelandseweg,5,,,1393PC,Nigtevecht,5.022118,52.272843,130081.7,476154.91,"POLYGON ((130071.015 476164.707,130074.093 476153.306,130076.556 476145.916,130078.403 476141.811,130092.376 476150.092,130088.711 476168.001,130071.015 476164.707))"
Stichtse Vecht,G1904,StichtseVecht-ligplaats,Loenersloot,WK190410,Poldergebied Loenersloot,WK19041001,0329020000000037,Angstelpad,20,,ws,3634AM,Loenersloot,4.994573,52.224313,128172.4,470765.2,"POLYGON ((128166.541 470748.553,128178.265 470748.284,128177.995 470782.107,128166.541 470782.107,128166.541 470748.553))"
Stichtse Vecht,G1904,StichtseVecht-ligplaats,Nieuwersluis,WK190409,Nieuwersluis,WK19040905,0329020000000085,Stationsweg,25,,ws,3631AJ,Nieuwersluis,5.005931,52.197242,128932.62,467749.13,"POLYGON ((128919.351 467749.74,128936.271 467737.023,128945.892 467748.081,128939.256 467756.043,128926.097 467761.241,128924.327 467756.486,128919.351 467749.74))"
Stichtse Vecht,G1904,StichtseVecht-ligplaats,Nigtevecht,WK190408,Polder Aetsveld,WK19040801,0329020000000121,Klompweg,43,,,1393PJ,Nigtevecht,5.062916,52.284738,132872.21,477465.12,"POLYGON ((132850.452 477465.045,132859.214 477448.384,132893.973 477463.609,132885.499 477481.85,132850.452 477465.045))"
Stichtse Vecht,G1904,StichtseVecht-ligplaats,Vreeland,WK190406,Hoeker Polder,WK19040601,0329020000000151,Nigtevechtseweg,76,,ws,3633XW,Vreeland,5.034353,52.238321,130898.04,472309.76,"POLYGON ((130881.248 472297.525,130887.334 472291.37,130914.838 472319.723,130906.223 472328.155,130894.019 472313.642,130881.248 472297.525))"
Stichtse Vecht,G1904,StichtseVecht-ligplaats,Nigtevecht,WK190408,Polder Garsten Noord,WK19040802,0329020000000124,Vreelandseweg,55,,,1393PD,Nigtevecht,5.026824,52.265376,130398.79,475322.47,"POLYGON ((130381.998 475309.255,130392.66 475302.936,130400.151 475311.051,130409.797 475323.82,130415.588 475334.175,130398.898 475342.007,130394.882 475333.391,130388.026 475319.82,130381.998 475309.255))"
Stichtse Vecht,G1904,StichtseVecht-ligplaats,Vreeland,WK190406,Hoeker Polder,WK19040601,0329020000000132,IJsvogelpad,19,,ws,3633DB,Vreeland,5.033629,52.222813,130840.19,470584.58,"POLYGON ((130831.71 470594.107,130838.994 470571.971,130848.676 470573.48,130840.884 470597.18,130831.71 470594.107))"
Stichtse Vecht,G1904,StichtseVecht-ligplaats,Vreeland,WK190406,Hoeker Polder,WK19040601,0329020000000157,Nigtevechtseweg,88,,ws,3633XW,Vreeland,5.038186,52.240755,131161.17,472579.33,"POLYGON ((131150.497 472578.071,131158.478 472568.558,131171.839 472581.058,131163.219 472590.109,131150.497 472578.071))"
Stichtse Vecht,G1904,StichtseVecht-ligplaats,Loenen aan de Vecht,WK190403,Polder Oud Over,WK19040303,0329020000000011,Oud Over,115,,ws,3632VC,Loenen aan de Vecht,5.031621,52.215134,130698.77,469730.91,"POLYGON ((130687.703 469717.295,130699.574 469713.368,130709.838 469744.805,130698.183 469748.454,130687.703 469717.295))"
Stichtse Vecht,G1904,StichtseVecht-ligplaats,Loenen aan de Vecht,WK190403,Polder Oud Over,WK19040303,0329020000000019,Oud Over,131,,ws,3632VC,Loenen aan de Vecht,5.033681,52.224108,130844.47,470728.58,"POLYGON ((130838.396 470708.982,130850.549 470709.838,130849.775 470748.171,130839.529 470747.506,130838.396 470708.982))"
Stichtse Vecht,G1904,StichtseVecht-ligplaats,Loenersloot,WK190410,Poldergebied Loenersloot,WK19041001,0329020000000032,Angstelpad,10,,ws,3634AM,Loenersloot,4.996733,52.225418,128320.63,470887.35,"POLYGON ((128308.978 470885.33,128313.694 470877.649,128332.291 470888.969,128327.574 470897.054,128308.978 470885.33))"
Stichtse Vecht,G1904,StichtseVecht-ligplaats,Loenen aan de Vecht,WK190403,Hoefijzer,WK19040307,0329020000000021,Vreelandseweg,10,,ws02,3632EP,Loenen aan de Vecht,5.029073,52.211893,130522.88,469371.15,"POLYGON ((130512.971 469361.256,130524.404 469357.231,130532.795 469381.095,130519.98 469385.061,130515.681 469370.152,130512.971 469361.256))"
Stichtse Vecht,G1904,StichtseVecht-ligplaats,Nigtevecht,WK190408,Polder Aetsveld,WK19040801,0329020000000106,Klompweg,13,,,1393PH,Nigtevecht,5.057212,52.284597,132482.93,477451.19,"POLYGON ((132475.688 477457.597,132480.844 477442.475,132487.819 477445.568,132490.169 477446.977,132482.768 477459.899,132475.688 477457.597))"
Stichtse Vecht,G1904,StichtseVecht-ligplaats,Loenersloot,WK190410,Poldergebied Loenersloot,WK19041001,0329020000000038,Angstelpad,22,,ws,3634AM,Loenersloot,4.993621,52.221022,128105.36,470399.37,"POLYGON ((128097.107 470411.833,128100.863 470385.205,128113.607 470386.912,128109.511 470413.539,128097.107 470411.833))"
Stichtse Vecht,G1904,StichtseVecht-ligplaats,Nieuwersluis,WK190409,Polder Het Honderd,WK19040904,0329020000000086,Stationsweg,27,,ws,3631AJ,Nieuwersluis,5.005545,52.19734,128906.3,467760.19,"POLYGON ((128886.507 467759.693,128919.351 467749.74,128924.327 467756.486,128926.097 467761.241,128918.024 467764.227,128889.272 467770.641,128886.507 467759.693))"
Stichtse Vecht,G1904,StichtseVecht-ligplaats,Nigtevecht,WK190408,Polder Garsten Noord,WK19040802,0329020000000123,Vreelandseweg,51,,,1393PD,Nigtevecht,5.027017,52.265615,130412.1,475349,"POLYGON ((130398.898 475342.007,130415.588 475334.175,130420.274 475344.041,130425.299 475357.794,130406.803 475363.825,130398.898 475342.007))"
Stichtse Vecht,G1904,StichtseVecht-ligplaats,Vreeland,WK190406,Hoeker Polder,WK19040601,0329020000000152,Nigtevechtseweg,78,,ws,3633XW,Vreeland,5.036331,52.239479,131033.78,472437.96,"POLYGON ((131023.944 472437.4,131032.189 472428.692,131043.611 472439.037,131034.92 472447.229,131023.944 472437.4))"
Stichtse Vecht,G1904,StichtseVecht-ligplaats,Nigtevecht,WK190408,Polder Garsten Noord,WK19040802,0329020000000142,Vreelandseweg,105,,,1393PE,Nigtevecht,5.031578,52.254769,130717.48,474140.72,"POLYGON ((130704.462 474145.503,130715.735 474124.177,130730.502 474132.765,130716.135 474157.253,130704.462 474145.503))"
Stichtse Vecht,G1904,StichtseVecht-ligplaats,Loenersloot,WK190410,Poldergebied Loenersloot,WK19041001,0329020000000033,Angstelpad,12,,ws,3634AM,Loenersloot,4.996356,52.22526,128294.83,470869.9,"POLYGON ((128278.388 470866.599,128284.587 470856.762,128311.269 470873.337,128305.07 470883.039,128278.388 470866.599))"
Stichtse Vecht,G1904,StichtseVecht-ligplaats,Nieuwersluis,WK190409,Polder Sticht,WK19040903,0329020000000041,Jaagpad,45,,ws01,3631AG,Nieuwersluis,5.010798,52.196594,129265.02,467675.22,"POLYGON ((129251.136 467671.635,129277.601 467668.172,129278.908 467677.59,129253.362 467682.27,129251.136 467671.635))"
Stichtse Vecht,G1904,StichtseVecht-ligplaats,Nigtevecht,WK190408,Polder Aetsveld,WK19040801,0329020000000109,Klompweg,19,,,1393PJ,Nigtevecht,5.057295,52.285019,132488.77,477498.11,"POLYGON ((132478.445 477492.587,132486.762 477489.502,132499.097 477500.78,132493.948 477506.727,132493.048 477506.351,132492.252 477505.788,132490.26 477504.198,132485.377 477500,132482.834 477497.281,132478.445 477492.587))"
Stichtse Vecht,G1904,StichtseVecht-ligplaats,Nieuwersluis,WK190409,Polder Het Honderd,WK19040904,0329020000000087,Stationsweg,29,,ws,3631AJ,Nieuwersluis,5.004687,52.197606,128847.8,467790.07,"POLYGON ((128833.144 467795.685,128854.747 467775.905,128862.463 467785.304,128840.438 467804.242,128833.144 467795.685))"
Stichtse Vecht,G1904,StichtseVecht-ligplaats,Nigtevecht,WK190408,Polder Garsten Noord,WK19040802,0329020000000127,Vreelandseweg,65,,,1393PD,Nigtevecht,5.026313,52.263581,130362.91,475122.9,"POLYGON ((130346.683 475119.964,130354.465 475108.276,130354.941 475108.632,130379.145 475126.713,130376.213 475131.593,130372.856 475137.53,130346.683 475119.964))"
Stichtse Vecht,G1904,StichtseVecht-ligplaats,Vreeland,WK190406,Hoeker Polder,WK19040601,0329020000000153,Nigtevechtseweg,80,,ws,3633XW,Vreeland,5.036715,52.239729,131060.15,472465.57,"POLYGON ((131048.682 472460.257,131057.188 472451.967,131071.627 472470.286,131060.791 472479.167,131054.925 472471.336,131048.682 472460.257))"
Stichtse Vecht,G1904,StichtseVecht-ligplaats,Vreeland,WK190406,Vreeland Dorp,WK19040603,0329020000000143,Nigtevechtseweg,16,,ws,3633XS,Vreeland,5.030736,52.233154,130648.16,471736.02,"POLYGON ((130642.731 471728.05,130650.007 471727.642,130653.583 471742.224,130644.771 471744.401,130643.751 471736.225,130642.731 471728.05))"
Stichtse Vecht,G1904,StichtseVecht-ligplaats,Vreeland,WK190406,Hoeker Polder,WK19040601,0329020000000155,Nigtevechtseweg,84,,ws,3633XW,Vreeland,5.037479,52.240309,131112.68,472529.88,"POLYGON ((131096.411 472518.776,131103.954 472511.879,131128.953 472541.835,131128.953 472542.051,131122.627 472547.873,131096.411 472518.776))"
Stichtse Vecht,G1904,StichtseVecht-ligplaats,Loenersloot,WK190410,Poldergebied Loenersloot,WK19041001,0329020000000040,Angstelpad,26,,ws,3634AM,Loenersloot,4.993673,52.220173,128108.43,470304.92,"POLYGON ((128099.156 470292.804,128109.852 470289.618,128117.704 470317.156,128107.121 470320.229,128099.156 470292.804))"
Stichtse Vecht,G1904,StichtseVecht-ligplaats,Nieuwersluis,WK190409,Polder Het Honderd,WK19040904,0329020000000088,Stationsweg,31,,ws,3631AJ,Nieuwersluis,5.00436,52.19778,128825.5,467809.57,"POLYGON ((128810.558 467814.904,128833.144 467795.685,128840.438 467804.242,128818.414 467823.461,128810.558 467814.904))"
Stichtse Vecht,G1904,StichtseVecht-ligplaats,Nigtevecht,WK190408,Polder Aetsveld,WK19040801,0329020000000110,Klompweg,21,,,1393PJ,Nigtevecht,5.057542,52.285084,132505.69,477505.28,"POLYGON ((132493.948 477506.727,132499.097 477500.78,132517.422 477501.367,132517.048 477509.383,132509.873 477509.783,132507.031 477509.73,132501.368 477509.25,132497.128 477507.854,132493.948 477506.727))"
Stichtse Vecht,G1904,StichtseVecht-ligplaats,Nigtevecht,WK190408,Polder Garsten Noord,WK19040802,0329020000000128,Vreelandseweg,79,,,1393PE,Nigtevecht,5.030736,52.261187,130663.54,474855.1,"POLYGON ((130647.046 474849.468,130651.011 474842.551,130680.028 474859.12,130673.917 474867.653,130647.118 474849.516,130647.046 474849.468))"
Stichtse Vecht,G1904,StichtseVecht-ligplaats,Vreeland,WK190406,Hoeker Polder,WK19040601,0329020000000154,Nigtevechtseweg,82,,ws,3633XW,Vreeland,5.037029,52.23999,131081.76,472494.57,"POLYGON ((131069.554 472490.303,131077.573 472480.452,131093.976 472498.613,131084.218 472508.68,131069.554 472490.303))"
Stichtse Vecht,G1904,StichtseVecht-ligplaats,Vreeland,WK190406,Vreeland Dorp,WK19040603,0329020000000144,Nigtevechtseweg,18,,ws,3633XS,Vreeland,5.030788,52.233282,130651.79,471750.32,"POLYGON ((130644.771 471744.401,130653.583 471742.224,130658.81 471755.704,130651.273 471758.418,130644.771 471744.401))"
Stichtse Vecht,G1904,StichtseVecht-ligplaats,Vreeland,WK190406,Hoeker Polder,WK19040601,0329020000000161,Nigtevechtseweg,98,,ws,3633XW,Vreeland,5.040347,52.242471,131309.7,472769.53,"POLYGON ((131300.935 472768.868,131316.276 472762.794,131318.473 472769.758,131304.137 472776.265,131300.935 472768.868))"
Stichtse Vecht,G1904,StichtseVecht-ligplaats,Nigtevecht,WK190408,Polder Aetsveld,WK19040801,0329020000000111,Klompweg,23,,,1393PJ,Nigtevecht,5.057891,52.285002,132529.42,477495.97,"POLYGON ((132517.422 477501.367,132534.221 477484.451,132541.424 477490.666,132534.701 477496.002,132525.888 477503.149,132520.979 477507.499,132517.422 477501.367))"
Stichtse Vecht,G1904,StichtseVecht-ligplaats,Breukelen,WK190402,Scheendijk,WK19040211,0311020000000002,Scheendijk,14,,41,3621VC,Breukelen,5.023961,52.179283,130155.28,465744.71,"POLYGON ((130146.826 465746.487,130147.03 465742.325,130163.73 465742.922,130163.67 465747.091,130146.826 465746.487))"
Stichtse Vecht,G1904,StichtseVecht-ligplaats,Breukelen,WK190402,Scheendijk,WK19040211,0311020000000003,Scheendijk,14,,45,3621VC,Breukelen,5.02496,52.179324,130223.64,465748.85,"POLYGON ((130215.482 465751.974,130215.184 465746.138,130231.799 465745.721,130232.097 465751.557,130215.482 465751.974))"
Stichtse Vecht,G1904,StichtseVecht-ligplaats,Breukelen,WK190402,Scheendijk,WK19040211,0311020000000004,Scheendijk,15,,31,3621VC,Breukelen,5.024444,52.179653,130188.53,465785.68,"POLYGON ((130180.465 465787.855,130180.465 465783.448,130196.603 465783.508,130196.603 465787.914,130180.465 465787.855))"
Stichtse Vecht,G1904,StichtseVecht-ligplaats,Breukelen,WK190402,Scheendijk,WK19040211,0311020000000005,Scheendijk,16,,47,3621VC,Breukelen,5.023944,52.180479,130154.77,465877.76,"POLYGON ((130147.057 465874.998,130162.487 465874.917,130162.487 465880.52,130147.139 465880.601,130147.057 465874.998))"
Stichtse Vecht,G1904,StichtseVecht-ligplaats,Breukelen,WK190402,Scheendijk,WK19040211,0311020000000006,Scheendijk,9,,9,3621VB,Breukelen,5.022121,52.177397,130028.4,465535.43,"POLYGON ((130024.43 465536.882,130024.376 465534.022,130032.416 465533.968,130032.362 465536.882,130024.43 465536.882))"
Stichtse Vecht,G1904,StichtseVecht-ligplaats,Breukelen,WK190402,Scheendijk,WK19040211,0311020000000007,Scheendijk,10,,9,3621VB,Breukelen,5.024732,52.177459,130207.02,465541.46,"POLYGON ((130199.413 465543.275,130199.467 465539.215,130214.626 465539.594,130214.572 465543.708,130199.413 465543.275))"
Stichtse Vecht,G1904,StichtseVecht-ligplaats,Breukelen,WK190402,Scheendijk,WK19040211,0311020000000008,Scheendijk,9,,11,3621VB,Breukelen,5.022609,52.177405,130061.77,465536.13,"POLYGON ((130054 465538.177,130054.108 465533.807,130069.486 465534.076,130069.54 465538.447,130054 465538.177))"
Stichtse Vecht,G1904,StichtseVecht-ligplaats,Breukelen,WK190402,Scheendijk,WK19040211,0311020000000009,Scheendijk,9,,12,3621VB,Breukelen,5.022839,52.177408,130077.5,465536.48,"POLYGON ((130070.943 465538.447,130071.051 465534.346,130084.056 465534.508,130083.948 465538.609,130070.943 465538.447))"
Stichtse Vecht,G1904,StichtseVecht-ligplaats,Breukelen,WK190402,Scheendijk,WK19040211,0311020000000010,Scheendijk,13,,12,3621VC,Breukelen,5.024178,52.178877,130169.89,465699.42,"POLYGON ((130161.437 465702.217,130161.437 465696.619,130178.291 465696.679,130178.35 465702.158,130161.437 465702.217))"
Stichtse Vecht,G1904,StichtseVecht-ligplaats,Breukelen,WK190402,Scheendijk,WK19040211,0311020000000011,Scheendijk,9,,14,3621VB,Breukelen,5.023456,52.177415,130119.69,465537.01,"POLYGON ((130113.051 465538.32,130113.001 465534.98,130126.322 465535.807,130126.377 465539.047,130113.051 465538.32))"
Stichtse Vecht,G1904,StichtseVecht-ligplaats,Breukelen,WK190402,Scheendijk,WK19040211,0311020000000012,Scheendijk,9,,15,3621VB,Breukelen,5.023754,52.177429,130140.07,465538.51,"POLYGON ((130132.835 465539.984,130133.091 465536.277,130147.305 465536.906,130146.938 465540.737,130132.835 465539.984))"
Stichtse Vecht,G1904,StichtseVecht-ligplaats,Breukelen,WK190402,Scheendijk,WK19040211,0311020000000014,Scheendijk,11,,44,3621VC,Breukelen,5.023283,52.178064,130108.23,465609.32,"POLYGON ((130102.14 465611.22,130102.38 465606.9,130114.32 465607.46,130114.122 465611.737,130102.14 465611.22))"
Stichtse Vecht,G1904,StichtseVecht-ligplaats,Breukelen,WK190402,Scheendijk,WK19040211,0311020000000015,Scheendijk,11,,48,3621VC,Breukelen,5.023507,52.178051,130123.54,465607.7,"POLYGON ((130115.14 465610.02,130115.18 465605.34,130131.94 465605.38,130131.9 465610.06,130115.14 465610.02))"
Stichtse Vecht,G1904,StichtseVecht-ligplaats,Breukelen,WK190402,Scheendijk,WK19040211,0311020000000016,Scheendijk,11,,43,3621VC,Breukelen,5.02352,52.178237,130124.57,465628.49,"POLYGON ((130116.415 465630.098,130116.594 465626.168,130132.733 465626.763,130132.554 465630.813,130116.415 465630.098))"
Stichtse Vecht,G1904,StichtseVecht-ligplaats,Breukelen,WK190402,Scheendijk,WK19040211,0311020000000017,Scheendijk,13,,14,3621VC,Breukelen,5.024729,52.178858,130207.62,465697.13,"POLYGON ((130200.266 465699.359,130200.206 465694.892,130214.976 465694.833,130215.035 465699.418,130200.266 465699.359))"
Stichtse Vecht,G1904,StichtseVecht-ligplaats,Breukelen,WK190402,Scheendijk,WK19040211,0311020000000018,Scheendijk,13,,29,3621VC,Breukelen,5.024886,52.178996,130218.43,465712.4,"POLYGON ((130210.272 465714.3,130210.211 465710.555,130226.648 465710.495,130226.588 465714.307,130210.272 465714.3))"
Stichtse Vecht,G1904,StichtseVecht-ligplaats,Breukelen,WK190402,Scheendijk,WK19040211,0311020000000019,Scheendijk,16,,39,3621VC,Breukelen,5.023114,52.180498,130098.04,465880.13,"POLYGON ((130088.276 465882.485,130088.395 465878.376,130107.69 465877.78,130107.81 465881.889,130088.276 465882.485))"
Stichtse Vecht,G1904,StichtseVecht-ligplaats,Breukelen,WK190402,Scheendijk,WK19040211,0311020000000020,Scheendijk,6,,2,3621VB,Breukelen,5.024554,52.176308,130194.18,465413.43,"POLYGON ((130191.38 465417.9,130192.26 465408.52,130196.98 465408.96,130196.1 465418.34,130191.38 465417.9))"
Stichtse Vecht,G1904,StichtseVecht-ligplaats,Breukelen,WK190402,Scheendijk,WK19040211,0311020000000021,Scheendijk,11,,43a,3621VC,Breukelen,5.023831,52.17824,130145.8,465628.64,"POLYGON ((130139.638 465630.574,130139.681 465626.643,130151.968 465626.704,130151.968 465630.634,130139.638 465630.574))"
Stichtse Vecht,G1904,StichtseVecht-ligplaats,Breukelen,WK190402,Scheendijk,WK19040211,0311020000000022,Scheendijk,11,,12,3621VC,Breukelen,5.021902,52.178041,130013.78,465607.17,"POLYGON ((130005.553 465609.464,130005.498 465604.87,130022.007 465604.924,130022.061 465609.403,130005.553 465609.464))"
Stichtse Vecht,G1904,StichtseVecht-ligplaats,Breukelen,WK190402,Scheendijk,WK19040211,0311020000000023,Scheendijk,12,,29,3621VC,Breukelen,5.026261,52.17872,130312.3,465681.19,"POLYGON ((130305.794 465683.815,130305.688 465678.565,130318.906 465678.853,130318.777 465683.696,130305.794 465683.815))"
Stichtse Vecht,G1904,StichtseVecht-ligplaats,Breukelen,WK190402,Scheendijk,WK19040211,0311020000000024,Scheendijk,11,,37,3621VC,Breukelen,5.02274,52.178237,130071.21,465628.76,"POLYGON ((130062.996 465630.932,130062.936 465626.704,130079.432 465626.585,130079.492 465630.813,130062.996 465630.932))"
Stichtse Vecht,G1904,StichtseVecht-ligplaats,Breukelen,WK190402,Scheendijk,WK19040211,0311020000000025,Scheendijk,11,,39,3621VC,Breukelen,5.023016,52.178235,130090.06,465628.34,"POLYGON ((130081.695 465630.932,130081.517 465626.347,130098.609 465625.751,130098.43 465630.575,130081.695 465630.932))"
Stichtse Vecht,G1904,StichtseVecht-ligplaats,Breukelen,WK190402,Scheendijk,WK19040211,0311020000000026,Scheendijk,11,,41,3621VC,Breukelen,5.023253,52.178327,130106.33,465638.53,"POLYGON ((130102.92 465640.16,130103.06 465636.64,130109.74 465636.9,130109.58 465640.42,130102.92 465640.16))"
Stichtse Vecht,G1904,StichtseVecht-ligplaats,Loenen aan de Vecht,WK190403,Polder Oud Over,WK19040303,0329020000000012,Oud Over,117,,ws,3632VC,Loenen aan de Vecht,5.031823,52.215439,130712.76,469764.69,"POLYGON ((130701.582 469752.986,130713.757 469748.345,130717.311 469751.041,130723.928 469777.721,130710.93 469781.028,130701.582 469752.986))"
Stichtse Vecht,G1904,StichtseVecht-ligplaats,Loenen aan de Vecht,WK190403,Polder Oud Over,WK19040303,0329020000000017,Oud Over,127,,ws,3632VC,Loenen aan de Vecht,5.031481,52.217879,130690.76,470036.32,"POLYGON ((130676.656 470047.008,130690.819 470020.098,130704.868 470026.6,130690.475 470052.543,130676.656 470047.008))"
Stichtse Vecht,G1904,StichtseVecht-ligplaats,Breukelen,WK190402,Scheendijk,WK19040211,0311020000000028,Scheendijk,11,,59,3621VC,Breukelen,5.02516,52.17827,130236.71,465631.59,"POLYGON ((130232.425 465633.374,130232.425 465629.801,130241 465629.801,130241 465633.314,130232.425 465633.374))"
Stichtse Vecht,G1904,StichtseVecht-ligplaats,Breukelen,WK190402,Scheendijk,WK19040211,0311020000000029,Scheendijk,11,,61,3621VC,Breukelen,5.025245,52.178371,130242.58,465642.75,"POLYGON ((130235.337 465644.697,130235.414 465640.528,130249.814 465640.794,130249.737 465644.963,130235.337 465644.697))"
Stichtse Vecht,G1904,StichtseVecht-ligplaats,Kockengen,WK190405,Polder Groot Oud Aa,WK19040502,0311020000000030,Portengen,45,a,ws,3628EC,Kockengen,4.958286,52.159758,125650.54,463596.79,"POLYGON ((125638.258 463595.389,125639.24 463591.53,125662.815 463598.195,125661.762 463602.054,125638.258 463595.389))"
Stichtse Vecht,G1904,StichtseVecht-ligplaats,Breukelen,WK190402,Kievitsbuurt,WK19040204,0311020000000031,De Meent,12,,,3621VS,Breukelen,5.038602,52.174933,131154.37,465255.74,"POLYGON ((131146.101 465257.234,131146.519 465252.755,131162.641 465254.189,131162.283 465258.727,131146.101 465257.234))"
Stichtse Vecht,G1904,StichtseVecht-ligplaats,Breukelen,WK190402,Kievitsbuurt,WK19040204,0311020000000032,De Meent,14,,,3621VS,Breukelen,5.039026,52.174952,131183.4,465257.78,"POLYGON ((131187.143 465259.831,131179.402 465259.116,131179.662 465255.733,131187.403 465256.449,131187.143 465259.831))"
Stichtse Vecht,G1904,StichtseVecht-ligplaats,Breukelen,WK190402,Kievitsbuurt,WK19040204,0311020000000033,De Meent,15,,,3621VS,Breukelen,5.036385,52.174373,131002.4,465194.23,"POLYGON ((130996.746 465196.149,130996.616 465192.506,131007.999 465192.311,131008.194 465196.084,130996.746 465196.149))"
Stichtse Vecht,G1904,StichtseVecht-ligplaats,Breukelen,WK190402,Kievitsbuurt,WK19040204,0311020000000034,De Meent,17,,,3621VS,Breukelen,5.03811,52.174482,131120.45,465205.76,"POLYGON ((131113.8 465207.46,131114.302 465202.723,131127.1 465204.26,131126.48 465208.8,131113.8 465207.46))"
Stichtse Vecht,G1904,StichtseVecht-ligplaats,Breukelen,WK190402,Kievitsbuurt,WK19040204,0311020000000035,De Meent,19,,,3621VS,Breukelen,5.040665,52.174695,131295.35,465228.58,"POLYGON ((131288.683 465230.234,131288.813 465226.266,131302.018 465226.786,131301.758 465230.885,131288.683 465230.234))"
Stichtse Vecht,G1904,StichtseVecht-ligplaats,Breukelen,WK190402,Kievitsbuurt,WK19040204,0311020000000036,Nieuweweg,9,,,3621AZ,Breukelen,5.045718,52.166136,131636.53,464274.7,"POLYGON ((131638.63 464267.858,131639.051 464281.399,131634.35 464281.54,131634 464267.858,131638.63 464267.858))"
Stichtse Vecht,G1904,StichtseVecht-ligplaats,Breukelen,WK190402,Polder Breukelerwaard,WK19040205,0311020000000037,Oud Aa,10,,ws1,3621LB,Breukelen,4.983162,52.170329,127359.21,464763.25,"POLYGON ((127353.478 464755.45,127357.122 464753.798,127364.944 464771.047,127361.106 464772.699,127353.478 464755.45))"
Stichtse Vecht,G1904,StichtseVecht-ligplaats,Breukelen,WK190402,Polder Breukelerwaard,WK19040205,0311020000000038,Oud Aa,10,,ws2,3621LB,Breukelen,4.982912,52.170206,127342.05,464749.58,"POLYGON ((127334.387 464752.312,127347.146 464743.204,127349.713 464746.855,127336.915 464755.963,127334.387 464752.312))"
Stichtse Vecht,G1904,StichtseVecht-ligplaats,Breukelen,WK190402,Polder Breukelen Proosdij,WK19040202,0311020000000039,Straatweg,42,,ws,3621BP,Breukelen,5.01614,52.159477,129609.08,463543.78,"POLYGON ((129619.855 463539.68,129600.35 463551.397,129598.315 463547.959,129617.82 463536.172,129619.855 463539.68))"
Stichtse Vecht,G1904,StichtseVecht-ligplaats,Breukelen,WK190402,Landgoed Nijenrode,WK19040209,0311020000000040,Straatweg,60,,ws,3621BR,Breukelen,5.011357,52.161364,129282.86,463755.42,"POLYGON ((129277.132 463761.46,129283.043 463747.097,129288.591 463749.38,129282.68 463763.743,129277.132 463761.46))"
Stichtse Vecht,G1904,StichtseVecht-ligplaats,Breukelen,WK190402,Kievitsbuurt,WK19040204,0311020000000041,De Plassen Noord,8,,,3621PN,Breukelen,5.039678,52.183415,131232.47,466199.09,"POLYGON ((131220.486 466197.848,131238.177 466195.357,131238.52 466195.872,131243.673 466195.185,131244.446 466199.995,131221.173 466203,131220.486 466197.848))"
Stichtse Vecht,G1904,StichtseVecht-ligplaats,Breukelen,WK190402,Kievitsbuurt,WK19040204,0311020000000042,De Plassen Noord,105,,,3621PN,Breukelen,5.033285,52.181347,130794.14,465971.15,"POLYGON ((130783.603 465969.312,130800.773 465969.116,130800.838 465969.051,130800.903 465967.876,130804.668 465967.571,130804.494 465974.731,130783.603 465974.6,130783.603 465969.312))"
Stichtse Vecht,G1904,StichtseVecht-ligplaats,Breukelen,WK190402,Kievitsbuurt,WK19040204,0311020000000044,De Plassen Noord,114,,,3621PN,Breukelen,5.028138,52.181137,130441.98,465949.55,"POLYGON ((130440.119 465956.271,130439.629 465943.23,130443.943 465942.838,130444.335 465955.976,130440.119 465956.271))"
Stichtse Vecht,G1904,StichtseVecht-ligplaats,Breukelen,WK190402,Kievitsbuurt,WK19040204,0311020000000045,De Plassen Noord,185,,,3621PN,Breukelen,5.041156,52.178455,131330.96,465646.81,"POLYGON ((131325.583 465648.955,131325.514 465644.656,131336.121 465644.656,131336.398 465648.539,131325.583 465648.955))"
Stichtse Vecht,G1904,StichtseVecht-ligplaats,Breukelen,WK190402,Kievitsbuurt,WK19040204,0311020000000046,De Plassen Noord,224,,,3621PN,Breukelen,5.038526,52.177161,131150.38,465503.64,"POLYGON ((131142.543 465505.508,131142.543 465501.279,131144.693 465501.14,131144.762 465501.972,131158.212 465502.18,131157.657 465506.132,131142.543 465505.508))"
Stichtse Vecht,G1904,StichtseVecht-ligplaats,Breukelen,WK190402,Kievitsbuurt,WK19040204,0311020000000047,De Plassen Noord,273,,,3621PN,Breukelen,5.033009,52.175307,130771.99,465299.25,"POLYGON ((130767.409 465300.48,130767.802 465296.999,130776.577 465298.029,130775.988 465301.509,130767.409 465300.48))"
Stichtse Vecht,G1904,StichtseVecht-ligplaats,Breukelen,WK190402,Kievitsbuurt,WK19040204,0311020000000048,De Plassen Zuid,309,,,3621PZ,Breukelen,5.039897,52.173562,131242.2,465102.78,"POLYGON ((131238.093 465104.496,131238.509 465100.545,131239.964 465100.614,131239.86 465100.025,131246.308 465100.683,131245.753 465105.536,131238.093 465104.496))"
Stichtse Vecht,G1904,StichtseVecht-ligplaats,Breukelen,WK190402,Kievitsbuurt,WK19040204,0311020000000049,De Plassen Noord,31,,,3621PN,Breukelen,5.029043,52.183468,130505.19,466208.58,"POLYGON ((130497.489 466211.323,130496.959 466207.479,130512.968 466205.837,130513.414 466209.715,130497.489 466211.323))"
Stichtse Vecht,G1904,StichtseVecht-ligplaats,Breukelen,WK190402,Kievitsbuurt,WK19040204,0311020000000050,De Plassen Noord,103,,,3621PN,Breukelen,5.030798,52.181434,130624.11,465981.65,"POLYGON ((130618.398 465984.277,130618.226 465979.869,130629.739 465979.013,130629.995 465983.55,130618.398 465984.277))"
Stichtse Vecht,G1904,StichtseVecht-ligplaats,Breukelen,WK190402,Kievitsbuurt,WK19040204,0311020000000051,De Plassen Zuid,310,,,3621PZ,Breukelen,5.039262,52.173504,131198.74,465096.52,"POLYGON ((131194.901 465098.071,131195.125 465094.974,131202.571 465095.112,131202.199 465098.054,131194.901 465098.071))"
Stichtse Vecht,G1904,StichtseVecht-ligplaats,Breukelen,WK190402,Scheendijk,WK19040211,0311020000000053,Scheendijk,12,,26,3621VC,Breukelen,5.02557,52.178719,130265.06,465681.31,"POLYGON ((130256.722 465683.577,130256.842 465679.17,130273.397 465679.051,130273.397 465683.458,130256.722 465683.577))"
Stichtse Vecht,G1904,StichtseVecht-ligplaats,Breukelen,WK190402,Scheendijk,WK19040211,0311020000000054,Scheendijk,12,,27,3621VC,Breukelen,5.025907,52.178614,130288.05,465669.52,"POLYGON ((130279.591 465672.024,130279.591 465667.26,130296.504 465667.021,130296.385 465671.786,130279.591 465672.024))"
Stichtse Vecht,G1904,StichtseVecht-ligplaats,Breukelen,WK190402,Scheendijk,WK19040211,0311020000000055,Scheendijk,12,,28,3621VC,Breukelen,5.026522,52.178628,130330.11,465670.91,"POLYGON ((130322.144 465672.978,130322.361 465668.847,130337.963 465669.52,130338.072 465672.858,130322.144 465672.978))"
Stichtse Vecht,G1904,StichtseVecht-ligplaats,Loenen aan de Vecht,WK190403,Polder Oud Over,WK19040303,0329020000000013,Oud Over,119,,ws,3632VC,Loenen aan de Vecht,5.031946,52.215721,130721.35,469796.02,"POLYGON ((130712.346 469784.711,130724.748 469781.551,130730.353 469809.669,130719.428 469810.487,130712.346 469784.711))"
Stichtse Vecht,G1904,StichtseVecht-ligplaats,Vreeland,WK190406,Hoeker Polder,WK19040601,0329020000000156,Nigtevechtseweg,86,,ws,3633XW,Vreeland,5.037874,52.240565,131139.76,472558.28,"POLYGON ((131126.869 472553.062,131134.771 472545.068,131152.659 472561.878,131145.215 472571.498,131126.869 472553.062))"
Stichtse Vecht,G1904,StichtseVecht-ligplaats,Breukelen,WK190402,Kievitsbuurt,WK19040204,0311020000000057,Scheendijk,13,,22,3621VC,Breukelen,5.026532,52.178989,130330.95,465711.08,"POLYGON ((130324.702 465708.455,130337.269 465708.754,130337.203 465713.695,130324.636 465713.33,130324.702 465708.455))"
Stichtse Vecht,G1904,StichtseVecht-ligplaats,Breukelen,WK190402,Scheendijk,WK19040211,0311020000000058,Scheendijk,19,,8,3621VC,Breukelen,5.024184,52.181349,130171.7,465974.49,"POLYGON ((130165.902 465972.591,130177.44 465972.249,130177.497 465976.399,130166.072 465976.74,130165.902 465972.591))"
Stichtse Vecht,G1904,StichtseVecht-ligplaats,Breukelen,WK190402,Scheendijk,WK19040211,0311020000000059,Scheendijk,19,,9,3621VC,Breukelen,5.024546,52.181345,130196.45,465973.87,"POLYGON ((130188.354 465971.965,130204.497 465971.624,130204.554 465975.774,130188.354 465976.115,130188.354 465971.965))"
Stichtse Vecht,G1904,StichtseVecht-ligplaats,Breukelen,WK190402,Kievitsbuurt,WK19040204,0311020000000060,De Meent,2,a,,3621VS,Breukelen,5.031353,52.174935,130658.54,465258.41,"POLYGON ((130666.78 465256.237,130666.384 465261.465,130650.301 465260.738,130650.628 465255.355,130666.78 465256.237))"
Stichtse Vecht,G1904,StichtseVecht-ligplaats,Nieuwer Ter Aa,WK190404,Polder Oukoop,WK19040401,0311020000000062,Oukoop,2,a,ws,3626AW,Nieuwer Ter Aa,4.98464,52.222648,127492.68,470583.61,"POLYGON ((127483.558 470576.804,127503.976 470585.025,127501.659 470590.415,127481.383 470582.346,127483.558 470576.804))"
Stichtse Vecht,G1904,StichtseVecht-ligplaats,Nieuwer Ter Aa,WK190404,Polder Oukoop,WK19040401,0311020000000063,Oukoop,2,b,ws,3626AW,Nieuwer Ter Aa,4.985022,52.222735,127518.86,470593.21,"POLYGON ((127512.032 470592.604,127513.585 470588.942,127515.46 470589.72,127517.03 470590.44,127519.69 470591.69,127521.41 470592.35,127522.52 470592.81,127524.38 470593.65,127525.689 470594.202,127524.42 470597.473,127512.032 470592.604))"
Stichtse Vecht,G1904,StichtseVecht-ligplaats,Nieuwersluis,WK190409,Polder Sticht,WK19040903,0329020000000001,Mijndensedijk,27,,ws01,3631NN,Loenen aan de Vecht,5.020433,52.200983,129926.19,468160.25,"POLYGON ((129935.869 468171.644,129918.435 468174.616,129916.52 468145.892,129927.797 468145.892,129929.939 468147.243,129935.869 468171.644))"
Stichtse Vecht,G1904,StichtseVecht-ligplaats,Nieuwersluis,WK190409,Polder Sticht,WK19040903,0329020000000002,Mijndensedijk,27,,ws02,3631NN,Loenen aan de Vecht,5.019944,52.200448,129892.48,468100.89,"POLYGON ((129894.18 468082.488,129894.393 468082.701,129908.648 468109.935,129891.839 468119.297,129876.307 468091.424,129894.18 468082.488))"
Stichtse Vecht,G1904,StichtseVecht-ligplaats,Nigtevecht,WK190408,Polder Aetsveld,WK19040801,0329020000000112,Klompweg,25,,,1393PJ,Nigtevecht,5.058124,52.284855,132545.26,477479.57,"POLYGON ((132534.221 477484.451,132547.848 477468.475,132556.306 477477.403,132555.707 477480.26,132549.592 477484.152,132541.424 477490.666,132534.221 477484.451))"
Stichtse Vecht,G1904,StichtseVecht-ligplaats,Vreeland,WK190406,Hoeker Polder,WK19040601,0329020000000077,Nigtevechtseweg,168,,ws,3633XX,Vreeland,5.0391,52.2471,131227.03,473284.99,"POLYGON ((131214.274 473288.623,131216.098 473277.481,131239.778 473280.569,131239.356 473292.496,131214.274 473288.623))"
Stichtse Vecht,G1904,StichtseVecht-ligplaats,Nieuwersluis,WK190409,Polder Sticht,WK19040903,0329020000000042,Jaagpad,45,,ws02,3631AG,Nieuwersluis,5.011269,52.196546,129297.19,467669.81,"POLYGON ((129282.548 467664.462,129310.744 467662.731,129311.842 467676.056,129308.531 467676.15,129303.454 467676.241,129293.787 467676.46,129292.009 467676.511,129286.584 467676.864,129284.295 467676.88,129282.548 467664.462))"
Stichtse Vecht,G1904,StichtseVecht-ligplaats,Loenen aan de Vecht,WK190403,Polder Oud Over,WK19040303,0329020000000015,Oud Over,123,,ws,3632VC,Loenen aan de Vecht,5.031946,52.217227,130722.14,469963.57,"POLYGON ((130710.647 469975.06,130721.977 469946.168,130732.174 469950.7,130733.638 469951.63,130727.901 469962.713,130726.057 469970.539,130724.015 469980.967,130710.647 469975.06))"
Stichtse Vecht,G1904,StichtseVecht-ligplaats,Loenen aan de Vecht,WK190403,Polder Oud Over,WK19040303,0329020000000018,Oud Over,129,,ws,3632VC,Loenen aan de Vecht,5.031769,52.219408,130711.21,470206.37,"POLYGON ((130688.552 470210.165,130696.884 470190.956,130717.929 470199.216,130725.074 470200.891,130733.868 470203.385,130721.977 470221.778,130688.552 470210.165))"
Stichtse Vecht,G1904,StichtseVecht-ligplaats,Nieuwersluis,WK190409,Polder Mijnden,WK19040901,0329020000000047,Mijndensedijk,31,,ws05,3631NN,Nieuwersluis,5.017998,52.19864,129758.45,467900.41,"POLYGON ((129771.238 467906.382,129762.323 467914.25,129762.147 467914.25,129745.658 467893.901,129754.163 467886.571,129754.356 467886.796,129762.42 467896.152,129771.238 467906.382))"
Stichtse Vecht,G1904,StichtseVecht-ligplaats,Nieuwersluis,WK190409,Polder Mijnden,WK19040901,0329020000000048,Mijndensedijk,31,,ws11,3631NN,Nieuwersluis,5.017704,52.198421,129738.17,467876.06,"POLYGON ((129750.145 467881.91,129740.22 467890.042,129726.187 467869.694,129734.166 467862.072,129734.97 467863.093,129750.145 467881.91))"
Stichtse Vecht,G1904,StichtseVecht-ligplaats,Nieuwersluis,WK190409,Polder Mijnden,WK19040901,0329020000000049,Mijndensedijk,33,,ws06,3631NN,Nieuwersluis,5.017423,52.198182,129718.82,467849.6,"POLYGON ((129719.872 467863.379,129705.137 467845.486,129717.376 467835.818,129726.501 467849.203,129732.502 467854.783,129720.398 467863.203,129719.872 467863.379))"
Stichtse Vecht,G1904,StichtseVecht-ligplaats,Nieuwersluis,WK190409,Polder Mijnden,WK19040901,0329020000000050,Mijndensedijk,37,,ws07,3631NN,Nieuwersluis,5.016921,52.197748,129684.27,467801.54,"POLYGON ((129697.717 467810.499,129685.817 467817.11,129670.833 467793.091,129681.059 467785.975,129697.717 467810.499))"
Stichtse Vecht,G1904,StichtseVecht-ligplaats,Nieuwersluis,WK190409,Polder Mijnden,WK19040901,0329020000000051,Mijndensedijk,39,,ws08,3631NN,Nieuwersluis,5.016635,52.197492,129664.56,467773.08,"POLYGON ((129676.357 467781.29,129666.647 467787.141,129652.764 467765.987,129660.949 467759.012,129676.357 467781.29))"
Stichtse Vecht,G1904,StichtseVecht-ligplaats,Nieuwersluis,WK190409,Polder Mijnden,WK19040901,0329020000000052,Mijndensedijk,41,,ws09,3631NN,Nieuwersluis,5.015586,52.19685,129592.49,467702.08,"POLYGON ((129605.168 467711.119,129576.742 467704.729,129580.047 467693.05,129608.24 467699.383,129605.168 467711.119))"
Stichtse Vecht,G1904,StichtseVecht-ligplaats,Vreeland,WK190406,Hoeker Polder,WK19040601,0329020000000053,Nigtevechtseweg,120,,ws,3633XX,Vreeland,5.037185,52.244914,131095.08,473042.31,"POLYGON ((131078.001 473045.524,131106.127 473030.528,131112.161 473037.181,131083.128 473054.094,131078.909 473047.041,131078.001 473045.524))"
Stichtse Vecht,G1904,StichtseVecht-ligplaats,Vreeland,WK190406,Hoeker Polder,WK19040601,0329020000000054,Nigtevechtseweg,122,,ws,3633XX,Vreeland,5.036749,52.245071,131065.36,473059.96,"POLYGON ((131078.001 473045.524,131083.128 473054.094,131050.43 473074.389,131047.587 473065.826,131078.001 473045.524))"
Stichtse Vecht,G1904,StichtseVecht-ligplaats,Vreeland,WK190406,Hoeker Polder,WK19040601,0329020000000055,Nigtevechtseweg,124,,ws,3633XX,Vreeland,5.03626,52.245263,131032.07,473081.52,"POLYGON ((131039.74 473071.598,131043.665 473077.348,131024.78 473091.442,131020.466 473087.047,131023.184 473083.466,131039.74 473071.598))"
Stichtse Vecht,G1904,StichtseVecht-ligplaats,Vreeland,WK190406,Hoeker Polder,WK19040601,0329020000000057,Nigtevechtseweg,128,,ws,3633XX,Vreeland,5.035834,52.245725,131003.21,473133.02,"POLYGON ((131003.673 473114.818,131012.236 473119.066,131003.216 473147.253,130994.176 473151.214,130994.903 473145.129,131003.673 473114.818))"
Stichtse Vecht,G1904,StichtseVecht-ligplaats,Vreeland,WK190406,Hoeker Polder,WK19040601,0329020000000060,Nigtevechtseweg,134,,ws,3633XX,Vreeland,5.036426,52.246474,131044.05,473216.15,"POLYGON ((131031.753 473211.363,131036.618 473205.601,131056.35 473218.849,131049.648 473226.695,131038.178 473217.391,131031.753 473211.363))"
Stichtse Vecht,G1904,StichtseVecht-ligplaats,Vreeland,WK190406,Hoeker Polder,WK19040601,0329020000000061,Nigtevechtseweg,136,,ws,3633XX,Vreeland,5.03711,52.246715,131090.91,473242.78,"POLYGON ((131079.53 473242.848,131081.859 473235.057,131102.295 473242.245,131099.287 473250.508,131079.53 473242.848))"
Stichtse Vecht,G1904,StichtseVecht-ligplaats,Vreeland,WK190406,Hoeker Polder,WK19040601,0329020000000062,Nigtevechtseweg,138,,ws,3633XX,Vreeland,5.037516,52.246805,131118.66,473252.6,"POLYGON ((131105.982 473253.007,131109.483 473244.218,131109.624 473244.218,131131.328 473252.392,131127.474 473260.991,131105.982 473253.007))"
Stichtse Vecht,G1904,StichtseVecht-ligplaats,Vreeland,WK190406,Hoeker Polder,WK19040601,0329020000000063,Nigtevechtseweg,140,,ws,3633XX,Vreeland,5.037496,52.246691,131117.26,473240,"POLYGON ((131105.109 473240.416,131108.816 473231.561,131129.408 473240.827,131125.907 473248.446,131105.109 473240.416))"
Stichtse Vecht,G1904,StichtseVecht-ligplaats,Vreeland,WK190406,Hoeker Polder,WK19040601,0329020000000065,Nigtevechtseweg,144,,ws,3633XX,Vreeland,5.036795,52.246513,131069.28,473220.44,"POLYGON ((131060.838 473212.411,131081.017 473220.236,131077.517 473228.473,131057.543 473219.824,131060.838 473212.411))"
Stichtse Vecht,G1904,StichtseVecht-ligplaats,Vreeland,WK190406,Hoeker Polder,WK19040601,0329020000000066,Nigtevechtseweg,146,,ws,3633XX,Vreeland,5.036865,52.246391,131074.02,473206.75,"POLYGON ((131085.753 473216.323,131058.984 473205.41,131060.838 473197.173,131089.048 473208.705,131085.753 473216.323))"
Stichtse Vecht,G1904,StichtseVecht-ligplaats,Vreeland,WK190406,Hoeker Polder,WK19040601,0329020000000067,Nigtevechtseweg,148,,ws,3633XX,Vreeland,5.03725,52.246499,131100.37,473218.69,"POLYGON ((131108.61 473226.413,131088.636 473218.177,131091.519 473210.97,131112.111 473217.971,131108.61 473226.413))"
Stichtse Vecht,G1904,StichtseVecht-ligplaats,Vreeland,WK190406,Hoeker Polder,WK19040601,0329020000000068,Nigtevechtseweg,150,,ws,3633XX,Vreeland,5.037603,52.246587,131124.47,473228.37,"POLYGON ((131134.349 473236.915,131111.699 473228.473,131115.611 473219.824,131137.232 473229.296,131134.349 473236.915))"
Stichtse Vecht,G1904,StichtseVecht-ligplaats,Loenen aan de Vecht,WK190403,Polder Oud Over,WK19040303,0329020000000016,Oud Over,125,,ws,3632VC,Loenen aan de Vecht,5.031687,52.217639,130704.68,470009.59,"POLYGON ((130692.518 470019.248,130704.132 469994.322,130716.849 470000,130705.733 470024.863,130692.518 470019.248))"
Stichtse Vecht,G1904,StichtseVecht-ligplaats,Nieuwersluis,WK190409,Polder Sticht,WK19040903,0329020000000043,Jaagpad,45,,ws04,3631AG,Nieuwersluis,5.012184,52.196537,129359.74,467668.47,"POLYGON ((129346.113 467661.989,129373.32 467661.989,129373.364 467674.948,129369.043 467674.716,129360.97 467674.425,129357.556 467674.272,129354.535 467674.39,129352.153 467674.415,129349.808 467674.482,129348.389 467674.538,129346.97 467674.594,129346.113 467661.989))"
Stichtse Vecht,G1904,StichtseVecht-ligplaats,Vreeland,WK190406,Hoeker Polder,WK19040601,0329020000000075,Nigtevechtseweg,164,,ws,3633XX,Vreeland,5.038073,52.246951,131156.8,473268.74,"POLYGON ((131143.619 473268.3,131147.116 473260.39,131169.973 473268.42,131166.922 473277.097,131143.619 473268.3))"
Stichtse Vecht,G1904,StichtseVecht-ligplaats,Vreeland,WK190406,Hoeker Polder,WK19040601,0329020000000078,Nigtevechtseweg,170,,ws,3633XX,Vreeland,5.039518,52.247135,131255.55,473288.71,"POLYGON ((131243.545 473293.074,131242.455 473281.187,131266.753 473281.187,131268.641 473296.242,131243.545 473293.074))"
Stichtse Vecht,G1904,StichtseVecht-ligplaats,Vreeland,WK190406,Hoeker Polder,WK19040601,0329020000000079,Nigtevechtseweg,172,,ws,3633XX,Vreeland,5.040104,52.247148,131295.62,473289.93,"POLYGON ((131279.387 473297.583,131282.197 473278.304,131311.849 473285.099,131309.382 473301.556,131297.913 473299.883,131279.387 473297.583))"
Stichtse Vecht,G1904,StichtseVecht-ligplaats,Vreeland,WK190406,Hoeker Polder,WK19040601,0329020000000080,Nigtevechtseweg,174,,ws,3633XX,Vreeland,5.040786,52.247207,131342.22,473296.3,"POLYGON ((131327.505 473302.047,131330.176 473289.63,131356.945 473294.16,131355.496 473302.978,131327.505 473302.047))"
Stichtse Vecht,G1904,StichtseVecht-ligplaats,Vreeland,WK190406,Hoeker Polder,WK19040601,0329020000000081,Nigtevechtseweg,176,,ws,3633XX,Vreeland,5.041585,52.247261,131396.82,473302.07,"POLYGON ((131385.629 473311.01,131380.625 473300.749,131409.453 473293.13,131413.011 473305.135,131385.629 473311.01))"
Stichtse Vecht,G1904,StichtseVecht-ligplaats,Vreeland,WK190406,Hoeker Polder,WK19040601,0329020000000082,Nigtevechtseweg,178,,ws,3633XX,Vreeland,5.042146,52.247236,131435.11,473299.04,"POLYGON ((131415.822 473305.241,131413.983 473292.718,131455.99 473290.865,131456.243 473307.214,131434.558 473304.967,131415.822 473305.241))"
Stichtse Vecht,G1904,StichtseVecht-ligplaats,Vreeland,WK190406,Hoeker Polder,WK19040601,0329020000000083,Nigtevechtseweg,180,,ws,3633XX,Vreeland,5.042758,52.247267,131476.89,473302.3,"POLYGON ((131459.401 473307.702,131459.285 473290.453,131494.496 473296.219,131490.503 473314.142,131459.401 473307.702))"
Stichtse Vecht,G1904,StichtseVecht-ligplaats,Vreeland,WK190406,Hoeker Polder,WK19040601,0329020000000084,Nigtevechtseweg,182,,ws,3633XX,Vreeland,5.043211,52.247327,131507.9,473308.9,"POLYGON ((131520.351 473321.587,131491.034 473314.266,131494.496 473296.219,131524.766 473304.25,131520.351 473321.587))"
Stichtse Vecht,G1904,StichtseVecht-ligplaats,Nieuwersluis,WK190409,Polder Het Honderd,WK19040904,0329020000000090,Stationsweg,35,,ws,3631AJ,Nieuwersluis,5.003591,52.198169,128773.17,467853.13,"POLYGON ((128757.25 467859.233,128781.8 467838.612,128789.095 467847.309,128764.264 467867.65,128757.25 467859.233))"
Stichtse Vecht,G1904,StichtseVecht-ligplaats,Nigtevecht,WK190408,Polder Garsten Noord,WK19040802,0329020000000126,Vreelandseweg,63,,,1393PD,Nigtevecht,5.026122,52.263939,130350.07,475162.77,"POLYGON ((130356.616 475169.005,130338.723 475166.482,130340.197 475156.529,130361.412 475159.599,130356.616 475169.005))"
Stichtse Vecht,G1904,StichtseVecht-ligplaats,Nigtevecht,WK190408,Polder Garsten Noord,WK19040802,0329020000000129,Vreelandseweg,83,,,1393PE,Nigtevecht,5.031481,52.26055,130714.02,474783.99,"POLYGON ((130726.092 474801.174,130693.471 474780.848,130702.84 474766.806,130734.568 474787.076,130726.092 474801.174))"
Stichtse Vecht,G1904,StichtseVecht-ligplaats,Nigtevecht,WK190408,Polder Garsten Noord,WK19040802,0329020000000130,Vreelandseweg,85,,,1393PE,Nigtevecht,5.03208,52.259447,130754.35,474661,"POLYGON ((130764.676 474673.068,130749.01 474676.939,130744.033 474649.845,130759.331 474645.052,130764.676 474673.068))"
Stichtse Vecht,G1904,StichtseVecht-ligplaats,Vreeland,WK190406,Hoeker Polder,WK19040601,0329020000000163,Nigtevechtseweg,102,,ws,3633XW,Vreeland,5.040846,52.242342,131343.69,472755.05,"POLYGON ((131333.161 472756.513,131351.9 472748.277,131354.209 472754.182,131335.776 472761.82,131333.161 472756.513))"
Stichtse Vecht,G1904,StichtseVecht-ligplaats,Maarssen,WK190401,Op Buuren,WK19040104,0333020000000001,Molenweg,5,,,3604AV,Maarssen,5.058956,52.131045,132524.59,460366.37,"POLYGON ((132518.183 460354.102,132552.904 460349.354,132555.951 460372.199,132519.073 460379.322,132518.183 460354.102))"
Stichtse Vecht,G1904,StichtseVecht-ligplaats,Maarssen,WK190401,Op Buuren,WK19040104,0333020000000002,Molenweg,1,,,3604AV,Maarssen,5.058922,52.130282,132521.87,460281.42,"POLYGON ((132517.114 460293.808,132516.723 460269.98,132536.873 460267.304,132541.384 460293.122,132517.114 460293.808))"
Stichtse Vecht,G1904,StichtseVecht-ligplaats,Maarssen,WK190401,Op Buuren,WK19040104,0333020000000003,Molenweg,3,,,3604AV,Maarssen,5.058952,52.130691,132524.12,460326.94,"POLYGON ((132517.505 460315.878,132544.653 460313.339,132550.908 460334.511,132517.949 460334.905,132517.505 460315.878))"
Stichtse Vecht,G1904,StichtseVecht-ligplaats,Maarssen,WK190401,Op Buuren,WK19040104,0333020000000004,Molenweg,4,,,3604AV,Maarssen,5.058954,52.130856,132524.3,460345.3,"POLYGON ((132517.949 460334.905,132550.908 460334.511,132552.904 460349.354,132518.183 460354.102,132517.949 460334.905))"
Stichtse Vecht,G1904,StichtseVecht-ligplaats,Maarssen,WK190401,Op Buuren,WK19040104,0333020000000005,Molenweg,2,,,3604AV,Maarssen,5.058937,52.130477,132522.99,460303.15,"POLYGON ((132517.114 460293.808,132541.384 460293.122,132544.653 460313.339,132517.505 460315.878,132517.114 460293.808))"
Stichtse Vecht,G1904,StichtseVecht-ligplaats,Maarssen,WK190401,Otterspoorbroek,WK19040103,1904020000000306,Zandpad,6,,ws,3601AN,Maarssen,5.034221,52.148873,130840.55,462357.79,"POLYGON ((130853.78 462368.3,130840.73 462373.728,130829.207 462346.775,130841.682 462341.016,130853.78 462368.3))"
Stichtse Vecht,G1904,StichtseVecht-ligplaats,Breukelen,WK190402,Scheendijk,WK19040211,1904020000000307,Scheendijk,24,,17,3621VC,Breukelen,5.022198,52.183392,130037.03,466202.43,"POLYGON ((130032.144 466206.047,130031.782 466201.401,130031.42 466201.401,130031.299 466198.987,130032.506 466198.806,130032.687 466201.22,130042.341 466200.435,130042.763 466205.142,130032.144 466206.047))"
Stichtse Vecht,G1904,StichtseVecht-ligplaats,Maarssen,WK190401,Componistenbuurt,WK19040108,1904020000000308,Zandweg,1,,ws,3602AC,Maarssen,5.046364,52.136269,131665.12,460951.56,"POLYGON ((131664.466 460963.729,131657.698 460961.383,131666.135 460939.395,131672.532 460941.868,131664.466 460963.729))"
Stichtse Vecht,G1904,StichtseVecht-ligplaats,Maarssen,WK190401,Otterspoorbroek,WK19040103,1904020000000309,Straatweg,172,,ws,3603CT,Maarssen,5.02849,52.152669,130450.4,462782.06,"POLYGON ((130428.339 462800.283,130423.105 462780.897,130471.079 462763.831,130477.689 462782.365,130428.339 462800.283))"
Stichtse Vecht,G1904,StichtseVecht-ligplaats,Breukelen,WK190402,Scheendijk,WK19040211,1904020000000310,Scheendijk,19,,5a,3621VC,Breukelen,5.022506,52.18141,130056.99,465981.86,"POLYGON ((130050.977 465986.805,130050.175 465977.447,130063.277 465976.912,130063.812 465986.271,130050.977 465986.805))"
Stichtse Vecht,G1904,StichtseVecht-ligplaats,Breukelen,WK190402,Scheendijk,WK19040211,1904020000000311,Scheendijk,24,,36,3621VC,Breukelen,5.023596,52.18322,130132.56,466182.85,"POLYGON ((130122.946 466187.674,130122.281 466179.674,130142.162 466178.019,130142.838 466186.052,130122.946 466187.674))"
Stichtse Vecht,G1904,StichtseVecht-ligplaats,Breukelen,WK190402,Scheendijk,WK19040211,1904020000000312,Scheendijk,24,,21,3621VC,Breukelen,5.023709,52.183342,130140.31,466196.39,"POLYGON ((130133.014 466192.816,130147.216 466191.85,130147.614 466199.917,130133.468 466200.94,130133.014 466192.816))"
Stichtse Vecht,G1904,StichtseVecht-ligplaats,Breukelen,WK190402,Scheendijk,WK19040211,1904020000000313,Scheendijk,16,,56,3621VC,Breukelen,5.024339,52.180067,130181.59,465831.74,"POLYGON ((130170.533 465828.501,130192.689 465828.457,130192.829 465834.772,130170.36 465835.02,130170.533 465828.501))"
Stichtse Vecht,G1904,StichtseVecht-ligplaats,Breukelen,WK190402,Scheendijk,WK19040211,1904020000000314,Scheendijk,16,,58,3621VC,Breukelen,5.024613,52.179933,130200.28,465816.75,"POLYGON ((130191.1 465819.881,130190.96 465813.94,130209.56 465813.62,130209.605 465819.354,130191.1 465819.881))"
Stichtse Vecht,G1904,StichtseVecht-ligplaats,Maarssen,WK190401,Op Buuren,WK19040104,1904020000000315,Oostwaard,36,,ms,3602AA,Maarssen,5.04968,52.130922,131889.34,460355.59,"POLYGON ((131884.442 460367.889,131878.664 460363.652,131894.241 460343.3,131900.015 460347.538,131884.442 460367.889))"
Stichtse Vecht,G1904,StichtseVecht-ligplaats,Maarssen,WK190401,Op Buuren,WK19040104,1904020000000316,Oostwaard,35,,ms,3602AA,Maarssen,5.049958,52.130698,131908.31,460330.55,"POLYGON ((131903.664 460341.667,131899.141 460337.898,131913.086 460319.43,131917.483 460322.948,131903.664 460341.667))"
Stichtse Vecht,G1904,StichtseVecht-ligplaats,Maarssen,WK190401,Op Buuren,WK19040104,1904020000000317,Oostwaard,34,,ms,3602AA,Maarssen,5.050152,52.13053,131921.5,460311.77,"POLYGON ((131918.362 460321.566,131913.211 460317.169,131924.643 460301.968,131929.794 460306.616,131918.362 460321.566))"
Stichtse Vecht,G1904,StichtseVecht-ligplaats,Breukelen,WK190402,Kievitsbuurt,WK19040204,1904020000000318,De Plassen Noord,34,,,3621PN,Breukelen,5.035971,52.183209,130978.88,466177.44,"POLYGON ((130969.704 466175.118,130987.669 466173.485,130988.046 466179.641,130969.956 466181.4,130969.704 466175.118))"
Stichtse Vecht,G1904,StichtseVecht-ligplaats,Nigtevecht,WK190408,Polder Garsten Noord,WK19040802,1904020000000319,Vreelandseweg,67,a,,1393PD,Nigtevecht,5.026854,52.263227,130399.61,475083.31,"POLYGON ((130410.957 475083.812,130405.353 475092.055,130388.268 475082.507,130393.634 475074.573,130410.957 475083.812))"
Stichtse Vecht,G1904,StichtseVecht-ligplaats,Nieuwersluis,WK190409,Polder Sticht,WK19040903,1904020000000320,Jaagpad,45,,ws03,3631AG,Nieuwersluis,5.011745,52.196542,129329.71,467669.18,"POLYGON ((129315.937 467676.032,129314.931 467663.579,129343.862 467662.321,129344.491 467674.522,129315.937 467676.032))"
