PLAATSINGSDATUM;POSTCODE;OPMERKINGEN;HUISNR;OMSCHRIJVING;WEBSITE;LOCATIEOMSCHRIJVING;WEBSITE_2;TITEL;FOTO_1;ORGANISATIE;FACEBOOKPAGINA;TWITTER;PLATINAPRIJS;DATUM_PLATINAPRIJS;CROWNIESPROJECT;STRAAT_OMSC;DOELGROEP_OMSC;X;Y;LONG;LAT;ID;GUID
;2592 TA;;5;;https://www.denhaag.nl/nl/in-de-stad/natuur-en-milieu/gulden-klinker.htm;;;Dr. M.M. den Hartogschool;http://www.denhaag.nl/webgis_static/afbeeldingen/kunstobjecten/Geen;;;;Nee;;Nee;Amalia van Solmsstraat;;82985.419;455389.574999999;4.3365789574228915;52.08208728730094;195304;{4145EF96-9C14-4281-B726-3D64FF2A384F}
;2593 NK;;54;;https://www.denhaag.nl/nl/in-de-stad/natuur-en-milieu/gulden-klinker.htm;;;Lichtopgroenengeel;http://www.denhaag.nl/webgis_static/afbeeldingen/kunstobjecten/Geen;;;;Nee;;Nee;Cornelis van der Lijnstraat;;83442.156;456267.088500001;4.3430571492752685;52.09003255566864;195305;{40241D35-6736-4688-BCB0-7EDAA98170C2}
;2592 RR;;34;;https://www.denhaag.nl/nl/in-de-stad/natuur-en-milieu/gulden-klinker.htm;;;Vlindertuin Reigersbergen;http://www.denhaag.nl/webgis_static/afbeeldingen/kunstobjecten/Geen;;;;Nee;;Nee;Smaragdhorst;;84406.5348;457021.879700001;4.356970541602312;52.09693956131448;195306;{956B4786-DBDC-4E13-85F6-186F584325AC}
;2591 BR;;25;;https://www.denhaag.nl/nl/in-de-stad/natuur-en-milieu/gulden-klinker.htm;;;OBS Leeuwerickhoeve;http://www.denhaag.nl/webgis_static/afbeeldingen/kunstobjecten/Geen;;;;Nee;;Nee;Walenburg;;84773.0659;456451.1756;4.362436391998286;52.09185735689286;195307;{5E487DCC-F511-4BCE-8DED-F004902AD9EC}
;2593 HH;;5;;https://www.denhaag.nl/nl/in-de-stad/natuur-en-milieu/gulden-klinker.htm;;;Amateur tuindersvereniging Loolaan;http://www.denhaag.nl/webgis_static/afbeeldingen/kunstobjecten/Geen;;;;Nee;;Nee;IJsclubweg;;83843.1857;455562.1129;4.349054991592461;52.08374875201516;195308;{DFB555D3-599F-47C2-81D1-4424C1020B7E}
;2592 GD;;183;;https://www.denhaag.nl/nl/in-de-stad/natuur-en-milieu/gulden-klinker.htm;;;Tuinen van Mariahoeve;http://www.denhaag.nl/webgis_static/afbeeldingen/kunstobjecten/Geen;;;;Nee;;Nee;Diamanthorst;;84404.4874;456763.246599998;4.356994225830361;52.094615006822856;195309;{0C479213-1B4D-49FE-9C34-0C8B75CD39AF}
;2492 MJ;;17;;https://www.denhaag.nl/nl/in-de-stad/natuur-en-milieu/gulden-klinker.htm;;;Goudvisplein;http://www.denhaag.nl/webgis_static/afbeeldingen/kunstobjecten/Geen;;;;Nee;;Nee;Goudvisplein;;88161.5216;452804.1512;4.412588773955532;52.05950109795463;195310;{EB51C286-4723-46F6-A2D8-C5041A269B3E}
;2497 WJ;;18;;https://www.denhaag.nl/nl/in-de-stad/natuur-en-milieu/gulden-klinker.htm;;;Waterrijk/ 't Woudje;http://www.denhaag.nl/webgis_static/afbeeldingen/kunstobjecten/Geen;;;;Nee;;Nee;Van Essendijk;;84702.3981;449934.5458;4.362746857319904;52.0332841163763;195311;{FC16E756-367B-4B1F-A79E-7FE5470D8CE9}
;2496 PH;;28;;https://www.denhaag.nl/nl/in-de-stad/natuur-en-milieu/gulden-klinker.htm;;;Wulpplantsoen;http://www.denhaag.nl/webgis_static/afbeeldingen/kunstobjecten/Geen;;;;Nee;;Nee;Wulpplantsoen;;85374.6073;450999.329300001;4.372324748541839;52.042938089119396;195312;{D9EF0DEA-7A83-4F11-A748-1CA0F9D8250C}
;2497 DJ;;16;;https://www.denhaag.nl/nl/in-de-stad/natuur-en-milieu/gulden-klinker.htm;;;Green Court;http://www.denhaag.nl/webgis_static/afbeeldingen/kunstobjecten/Geen;;;;Nee;;Nee;Wethouder Fischerplantsoen;;84786.56;450590.229200002;4.363838538513338;52.03918736486022;195313;{F565EAAA-1756-49B8-AFEF-C83327C537D5}
;2552 TM;;23;;https://www.denhaag.nl/nl/in-de-stad/natuur-en-milieu/gulden-klinker.htm;;;Jongeren tuinniergroep Escamp;http://www.denhaag.nl/webgis_static/afbeeldingen/kunstobjecten/Geen;;;;Nee;;Nee;Burgemeester Hooftstraat;;76606.468;452461.2643;4.244205575116389;52.05490535469996;195314;{23078EEE-FD34-465A-9325-F211ABFE930D}
;2512 AS;;0;;https://www.denhaag.nl/nl/in-de-stad/natuur-en-milieu/gulden-klinker.htm;;;De Oorden;http://www.denhaag.nl/webgis_static/afbeeldingen/kunstobjecten/Geen;;;;Nee;;Nee;Wagenstraat;;77458.172;451126.359000001;4.256924223339586;52.043028845412;195315;{4ECDE2DA-7508-45C2-BDB0-D12612A9EB13}
;2574 KJ;;86;;https://www.denhaag.nl/nl/in-de-stad/natuur-en-milieu/gulden-klinker.htm;;;Bunschotensestraat;http://www.denhaag.nl/webgis_static/afbeeldingen/kunstobjecten/Geen;;;;Nee;;Nee;Bunschotensestraat;;78624.2374;453495.098900001;4.273388586729099;52.06447788057738;195316;{53834BE4-5675-491C-8029-84BCFF449808}
;2542 TC;;25;;https://www.denhaag.nl/nl/in-de-stad/natuur-en-milieu/gulden-klinker.htm;;;Koetsveldschool;http://www.denhaag.nl/webgis_static/afbeeldingen/kunstobjecten/Geen;;;;Nee;;Nee;Zwaardvegersgaarde;;78441.5141;450706.417800002;4.271349217717968;52.039391635925334;195317;{DE14B398-1D7F-4578-8EC9-BF13E3697EE3}
;2531 JV;;189;;https://www.denhaag.nl/nl/in-de-stad/natuur-en-milieu/gulden-klinker.htm;;;Stadspark Overvoorde;http://www.denhaag.nl/webgis_static/afbeeldingen/kunstobjecten/Geen;;;;Nee;;Nee;Guntersteinweg;;80602.5275;451555.349800002;4.3026561383367445;52.04731501502853;195318;{26F5688A-0E7E-4D18-BE59-54AEB52DFD26}
;2544 RW;;99;;https://www.denhaag.nl/nl/in-de-stad/natuur-en-milieu/gulden-klinker.htm;;;Venenkids;http://www.denhaag.nl/webgis_static/afbeeldingen/kunstobjecten/Geen;;;;Nee;;Nee;Mosveen;;77029.5359;450855.220100001;4.250739276996985;52.0405320888265;195319;{2A1C1E4B-ADDF-4E06-85CF-90019D1C5210}
;2585 SL;;115;;https://www.denhaag.nl/nl/in-de-stad/natuur-en-milieu/gulden-klinker.htm;;;BS Archipelschool;http://www.denhaag.nl/webgis_static/afbeeldingen/kunstobjecten/Geen;;;;Nee;;Nee;Malakkastraat;;80379.2494;456357.042100001;4.298352201973298;52.09043655195004;195320;{402D5EBE-4D03-4D23-B708-A989BCF9DB67}
;2526 MS;;83;;https://www.denhaag.nl/nl/in-de-stad/natuur-en-milieu/gulden-klinker.htm;;;Stadsboerderij Schildershoeve;http://www.denhaag.nl/webgis_static/afbeeldingen/kunstobjecten/Geen;;;;Nee;;Nee;Teniersplantsoen;;80855.323;453955.438000001;4.305819695134002;52.06891793171734;195321;{A59DCEAB-4908-4878-924C-9F126FDFE452}
;2571 PB;;80;;https://www.denhaag.nl/nl/in-de-stad/natuur-en-milieu/gulden-klinker.htm;;;Stadsboerderij De Woelige Stal;http://www.denhaag.nl/webgis_static/afbeeldingen/kunstobjecten/Geen;;;;Nee;;Nee;Herman Costerstraat;;80105.1717;453893.899900001;4.294894299123971;52.0682639870805;195322;{18EBEEB6-4C91-4ECF-8744-7C227D8AF68B}
;2512 ET;;136;;https://www.denhaag.nl/nl/in-de-stad/natuur-en-milieu/gulden-klinker.htm;;;Waterspin;http://www.denhaag.nl/webgis_static/afbeeldingen/kunstobjecten/Geen;;;;Nee;;Nee;Spijkermakersstraat;;80683.3182;454355.447700001;4.3032243820683815;52.07248966722373;195323;{1274BD87-C000-46CD-98DB-66FC95A0E2BE}
;2512 XJ;;128;;https://www.denhaag.nl/nl/in-de-stad/natuur-en-milieu/gulden-klinker.htm;;;Houtzagerssingel;http://www.denhaag.nl/webgis_static/afbeeldingen/kunstobjecten/Geen;;;;Nee;;Nee;Houtzagerssingel;;80665.7421;454164.612100001;4.3030096226523655;52.07077231787564;195324;{46B1E7F3-4F4F-4B6E-A5A9-4AE38E496B34}
;2513 VC;;150;;https://www.denhaag.nl/nl/in-de-stad/natuur-en-milieu/gulden-klinker.htm;;;2e De Riemerstraat;http://www.denhaag.nl/webgis_static/afbeeldingen/kunstobjecten/Geen;;;;Nee;;Nee;2e De Riemerstraat;;80412.935;455292.5823;4.299076428090833;52.08087509538036;195325;{9504B013-6168-4BA1-B533-066A587B049C}
;2525 VN;;144;;https://www.denhaag.nl/nl/in-de-stad/natuur-en-milieu/gulden-klinker.htm;;;Vermeerstraat;http://www.denhaag.nl/webgis_static/afbeeldingen/kunstobjecten/Geen;;;;Nee;;Nee;Vermeerstraat;;81090.5905;453287.5002;4.309395028744501;52.062946771432074;195326;{45A8D989-28CE-4888-802A-28FFB58F97B0}
;2525 TX;;98;;https://www.denhaag.nl/nl/in-de-stad/natuur-en-milieu/gulden-klinker.htm;;;Speeltuin Vermeerpark;http://www.denhaag.nl/webgis_static/afbeeldingen/kunstobjecten/Geen;;;;Nee;;Nee;Mijtensstraat;;80883.3448;453203.748199999;4.306391491803477;52.0621664253076;195327;{289D2C39-68D3-41EF-9833-12BC92F6F778}
;2515 KW;;49;;https://www.denhaag.nl/nl/in-de-stad/natuur-en-milieu/gulden-klinker.htm;;;St.Fakonahof;http://www.denhaag.nl/webgis_static/afbeeldingen/kunstobjecten/Geen;;;;Nee;;Nee;Naaldwijksestraat;;81666.6842;453949.045400001;4.317652607221247;52.06896849243847;195328;{375B1F6D-A4D5-4C06-9C41-D76CC8CA0FB7}
;2514 KL;;6;;https://www.denhaag.nl/nl/in-de-stad/natuur-en-milieu/gulden-klinker.htm;;;Speeltuinver. Cantaloup;http://www.denhaag.nl/webgis_static/afbeeldingen/kunstobjecten/Geen;;;;Nee;;Nee;Cantaloupenburg;;81090.8856;456031.761799999;4.308804985757674;52.087608814028;195329;{703DF914-4476-43A4-A1CB-8522264D99A1}
;2525 CX;;238;;https://www.denhaag.nl/nl/in-de-stad/natuur-en-milieu/gulden-klinker.htm;;;Van der Vennepark;http://www.denhaag.nl/webgis_static/afbeeldingen/kunstobjecten/Geen;;;;Nee;;Nee;Van der Neerstraat;;80608.7838;453733.853;4.302272876646383;52.06689354815048;195330;{C49AC6EE-CFF6-456C-A86A-A6CAC34680AF}
;2542 HH;;294;;https://www.denhaag.nl/nl/in-de-stad/natuur-en-milieu/gulden-klinker.htm;;;Bon-Bon Kids,;http://www.denhaag.nl/webgis_static/afbeeldingen/kunstobjecten/Geen;;;;Nee;;Nee;Wantsnijdersgaarde;;78134.0344;450187.989799999;4.266985005002154;52.034690130495356;195331;{1D194498-59CA-4CB9-867C-A230CE968EFB}
;2542 HH;;294;;https://www.denhaag.nl/nl/in-de-stad/natuur-en-milieu/gulden-klinker.htm;;;Jenny kids;http://www.denhaag.nl/webgis_static/afbeeldingen/kunstobjecten/Geen;;;;Nee;;Nee;Wantsnijdersgaarde;;78134.0344;450187.989799999;4.266985005002154;52.034690130495356;195332;{A8BFB497-2452-45DC-B0E6-570871421A9F}
;2513 XK;;217;;https://www.denhaag.nl/nl/in-de-stad/natuur-en-milieu/gulden-klinker.htm;;;Bewonersgroep Sirtemastraat;http://www.denhaag.nl/webgis_static/afbeeldingen/kunstobjecten/Geen;;;;Nee;;Nee;Sirtemastraat;;80259.1121;454718.415600002;4.296958513897878;52.075694478796805;195333;{7EFC4541-91DA-4206-BFDD-495C5009B0D8}
;2547 TG;;55;;http://denhaag.nl/home/bewoners/actueel/to/Gulden-Klinker-voor-bewoners-Nieuwediepstraat.htm;;;Nieuwediepveegteam;http://www.denhaag.nl/webgis_static/afbeeldingen/kunstobjecten/https://gdh70wggisib.blob.core.windows.net/guldenklinkers/GK2014_Nieuwediepstraat.jpg;;;;Nee;;Nee;Nieuwediepstraat;;78409.3805;453506.338799998;4.2702533003103165;52.06454922718483;195334;{41654F28-3387-48B6-9667-9304AFAD81BA}
;2525 SE;;201;;https://www.denhaag.nl/nl/in-de-stad/natuur-en-milieu/gulden-klinker.htm;Buurtcentrum De Burcht;;Jongeren: Batterijophaal, Broodophaal en onderhouden ""Rode Plein"";http://www.denhaag.nl/webgis_static/afbeeldingen/kunstobjecten/https://gdh70wggisib.blob.core.windows.net/guldenklinkers/GK2014_DeBurcht.jpg;;;;Nee;;Nee;Stortenbekerstraat;;80744.0104;453522.551899999;4.304290656067751;52.06501278005473;195335;{BEA4D4A4-88F3-415A-8498-3EAF9B1ABB19}
;2593 RV;;0;;https://www.denhaag.nl/nl/in-de-stad/natuur-en-milieu/gulden-klinker.htm;Haagse Hout;;Jeu de Boulesbaan - Boulodrome sous les plantanes;http://www.denhaag.nl/webgis_static/afbeeldingen/kunstobjecten/https://gdh70wggisib.blob.core.windows.net/guldenklinkers/GK2014_Heutszstraat.jpg;;;;Nee;;Nee;Van Heutszstraat;;83653.148;455793.502999999;4.346234457714564;52.08580375976508;195336;{9AD57844-35A1-4734-8B8D-7F13579163F8}
;2564 KB;;51;;https://www.denhaag.nl/nl/in-de-stad/natuur-en-milieu/gulden-klinker.htm;Segbroek;;Bewonerscommissie Moerbeiplein;http://www.denhaag.nl/webgis_static/afbeeldingen/kunstobjecten/https://gdh70wggisib.blob.core.windows.net/guldenklinkers/GK2014_Moerbeiplein.jpg;;;;Nee;;Nee;Moerbeiplein;;77883.4524;454151.6776;4.262439127991362;52.07027570140444;195337;{71981998-A1DE-4351-AC02-DCFB6B296F15}
;3565 AT;;278;;https://www.denhaag.nl/nl/in-de-stad/natuur-en-milieu/gulden-klinker.htm;Loosduinen;;Vrijwilligers Natuurpark Wapendal;http://www.denhaag.nl/webgis_static/afbeeldingen/kunstobjecten/Geen;;;;Nee;;Nee;Ridderspoorweg;;76684.7031;454152.628800001;4.24495814942076;52.07011605699167;195338;{B05336FC-F2FB-486D-92AC-25A2202EDF27}
;2553 PC;;109;;https://www.denhaag.nl/nl/in-de-stad/natuur-en-milieu/gulden-klinker.htm;;;Bewonersgroep Kraayestein;http://www.denhaag.nl/webgis_static/afbeeldingen/kunstobjecten/https://gdh70wggisib.blob.core.windows.net/guldenklinkers/GK2014_Karperdaal.jpg;;;;Nee;;Nee;Karperdaal;;75977.2302;451437.801399998;4.2352695860783705;52.04561852317626;195339;{FA21764F-79A1-480A-BB44-10A6EEAFBC82}
;2531 RH;;14;;https://www.denhaag.nl/nl/in-de-stad/natuur-en-milieu/gulden-klinker.htm;;;Wijktuin Moerwijk;http://www.denhaag.nl/webgis_static/afbeeldingen/kunstobjecten/https://gdh70wggisib.blob.core.windows.net/guldenklinkers/GK2014_Openlucht_Buurthuis_Moerwijk.jpg;;;;Nee;;Nee;Guntersteinweg;;81057.0414;451705.910500001;4.309248221783142;52.04872889412719;195340;{18ED987B-B015-4F8E-8854-51B65AE0F659}
;2533 SG;;51;;https://www.denhaag.nl/nl/in-de-stad/natuur-en-milieu/gulden-klinker.htm;;;Jongeren schoonmaakploeg Moerwijk;http://www.denhaag.nl/webgis_static/afbeeldingen/kunstobjecten/https://gdh70wggisib.blob.core.windows.net/guldenklinkers/GK2014_Aagje_ Dekenlaan.jpg;;;;Nee;;Nee;Aagje Dekenlaan;;80062.4144;451797.964600001;4.294730671229896;52.049422574939534;195341;{22758415-408B-42FB-B670-9B57648619A8}
;2591 HB;;5;;https://www.denhaag.nl/nl/in-de-stad/natuur-en-milieu/gulden-klinker.htm;;;JF Kennedy Montessorishool;http://www.denhaag.nl/webgis_static/afbeeldingen/kunstobjecten/https://gdh70wggisib.blob.core.windows.net/guldenklinkers/GK2014_Gradaland_JFK.jpg;;;;Nee;;Nee;Gradaland;;84845.4997;457055.156399999;4.363368914037242;52.09729442803354;195342;{EE5A9B8A-C1A7-411D-B75F-87885A44C46F}
;2581 VN;;0;;https://www.denhaag.nl/nl/in-de-stad/natuur-en-milieu/gulden-klinker.htm;;;Geveltuinen;http://www.denhaag.nl/webgis_static/afbeeldingen/kunstobjecten/https://gdh70wggisib.blob.core.windows.net/guldenklinkers/GK2014_Sonoystraat.jpg;;;;Nee;;Nee;Sonoystraat;;78401.2946;456368.3682;4.269492921434067;52.09026817959271;195343;{26315010-A0A0-4157-A2FD-08003171C200}
;2555 XP;;0;;https://www.denhaag.nl/nl/in-de-stad/natuur-en-milieu/gulden-klinker.htm;;;Jongeren schoonhouden RAS e.o;http://www.denhaag.nl/webgis_static/afbeeldingen/kunstobjecten/https://gdh70wggisib.blob.core.windows.net/guldenklinkers/GK2014_Alberdastraat.jpg;;;;Nee;;Nee;Albardastraat;;77011.0418;453319.193999998;4.24990735021192;52.0626723392305;195344;{08DEE640-1CC7-4C04-B77D-6542B854A96F}
;2552 XP;;0;;https://www.denhaag.nl/nl/in-de-stad/natuur-en-milieu/gulden-klinker.htm;;;Jongeren schoonmaak groep Houtwijk;http://www.denhaag.nl/webgis_static/afbeeldingen/kunstobjecten/https://gdh70wggisib.blob.core.windows.net/guldenklinkers/GK2014_Houtwijk.jpg;;;;Nee;;Nee;Hildo Kroplaan;;77002.1173;452425.793400001;4.249981251672557;52.054642420852964;195345;{7A5ACF2D-5F04-45DB-BC97-A905D71DC085}
;2596 AK;;5;;https://www.denhaag.nl/nl/in-de-stad/natuur-en-milieu/gulden-klinker.htm;;;Haags Montessori Lyceum;http://www.denhaag.nl/webgis_static/afbeeldingen/kunstobjecten/https://gdh70wggisib.blob.core.windows.net/guldenklinkers/GK_2014_Montessori_Lyceum.jpg;;;;Nee;;Nee;Nassau Odijckstraat;;81637.3693;456140.2689;4.316753980613832;52.08865662691105;195346;{2AD2C7AB-0DEE-47E6-8C14-C30F668E8D61}
;2543 VP;;0;;https://www.denhaag.nl/nl/in-de-stad/natuur-en-milieu/gulden-klinker.htm;;;Grondige Vlinders;http://www.denhaag.nl/webgis_static/afbeeldingen/kunstobjecten/https://gdh70wggisib.blob.core.windows.net/guldenklinkers/GK_2014_Grondige_Vlinders.jpg;;;;Nee;;Nee;Woonstede;;77752.5447;450762.489100002;4.261296539498561;52.03979996088509;195347;{D21899EC-AFAC-45D9-82B1-ED4F9F243F65}
;2553 NK;;0;;https://www.denhaag.nl/nl/in-de-stad/natuur-en-milieu/gulden-klinker.htm;;;Speeltuin Rietvoorndaal;http://www.denhaag.nl/webgis_static/afbeeldingen/kunstobjecten/https://gdh70wggisib.blob.core.windows.net/guldenklinkers/GK_2014_Rietvoorndaal.jpg;;;;Nee;;Nee;Rietvoorndaal;;76301.4884;451302.259199999;4.240026675726535;52.044446589107416;195348;{608C9415-43D2-43E3-8B0D-60BE4E336FDD}
;2551 xc;;24;;https://www.denhaag.nl/nl/in-de-stad/natuur-en-milieu/gulden-klinker.htm;;;Ons Hof;http://www.denhaag.nl/webgis_static/afbeeldingen/kunstobjecten/https://gdh70wggisib.blob.core.windows.net/guldenklinkers/GK_2014_Jules_Massenethof.jpg;;;;Nee;;Nee;Jules Massenethof;;76648.6102;452720.929499999;4.244760343093178;52.057244827916016;195349;{FFB90A2C-0930-4CE4-8590-FEBA7413DA52}
;;;0;;https://www.denhaag.nl/nl/in-de-stad/natuur-en-milieu/gulden-klinker.htm;;;Opruimploeg Noorderbeekdwarsstraat;http://www.denhaag.nl/webgis_static/afbeeldingen/kunstobjecten/https://gdh70wggisib.blob.core.windows.net/guldenklinkers/GK_2014_Noorderbeekdwarsstraat.jpg;;;;Nee;;Nee;Noorderbeekdwarsstraat;;78971.9665;454506.978100002;4.278233370690718;52.073619153374636;195350;{A463921B-6A04-4A6C-B721-BF999D50BF1E}
;2491 EC;;42;;https://www.denhaag.nl/nl/in-de-stad/natuur-en-milieu/gulden-klinker.htm;;;Wellantcollege;http://www.denhaag.nl/webgis_static/afbeeldingen/kunstobjecten/https://gdh70wggisib.blob.core.windows.net/guldenklinkers/GK_2014_Wellantcollege.jpg;;;;Nee;;Nee;Westvlietweg;;85443.2406;453860.112100001;4.372742508115714;52.06865635985042;195351;{F6765D73-50CD-4209-8792-BFB6D201D64E}
;2562 AL;;0;;https://www.denhaag.nl/nl/in-de-stad/natuur-en-milieu/gulden-klinker.htm;;;Groenproject;http://www.denhaag.nl/webgis_static/afbeeldingen/kunstobjecten/https://gdh70wggisib.blob.core.windows.net/guldenklinkers/GK_2014_Groenproject_De_Gheijnstraat.jpg;;;;Nee;;Nee;De Gheijnstraat;;79263.819;454270.3303;4.282542181312786;52.07153245873673;195352;{E9C0CCAA-23E3-44D8-B7BB-22FCC473C99B}
;2517 KJ;;2;;https://www.denhaag.nl/nl/in-de-stad/natuur-en-milieu/gulden-klinker.htm;;;World Peace Flame;http://www.denhaag.nl/webgis_static/afbeeldingen/kunstobjecten/https://gdh70wggisib.blob.core.windows.net/guldenklinkers/GK_2014_Carnegieplein.jpg;;;;Nee;;Nee;Carnegieplein;;80325.0258;455989.631499998;4.297641572290115;52.08712742881162;195353;{941E8359-5E8A-4888-944A-CCE26C901D60}
;2496 MT;;201;;http://www.nldata.nl/paradijsvogel;;;Basisschool De Paradijsvogel;http://www.denhaag.nl/webgis_static/afbeeldingen/kunstobjecten/https://gdh70wggisib.blob.core.windows.net/guldenklinkers/GK_2015_RKBS_Paradijsvogel.jpg;;;;Nee;;Nee;Weidevogellaan;;85653.5246;451499.521299999;4.376288230592668;52.04746825249179;195354;{B20AD601-9762-42FE-86F7-7307F7F61A02}
;2582 SG;;43;;https://www.denhaag.nl/nl/in-de-stad/natuur-en-milieu/gulden-klinker.htm;;;Frankenstraat;http://www.denhaag.nl/webgis_static/afbeeldingen/kunstobjecten/Geen;;;;Nee;;Nee;Frankenstraat;;78790.64;457159.623100001;4.2749962608909415;52.097432642648336;195218;{00E73526-D0C7-47E7-93F5-A0F1BD95612B}
;2582 SL;;26;;https://www.denhaag.nl/nl/in-de-stad/natuur-en-milieu/gulden-klinker.htm;;;Frankenstraat;http://www.denhaag.nl/webgis_static/afbeeldingen/kunstobjecten/Geen;;;;Nee;;Nee;Frankenstraat;;78877.2714;457231.619199999;4.276244262369063;52.09809156772866;195219;{D24AA2A7-BD21-446D-9E1D-99D5AC0F2731}
;2586 AW;;127;;https://www.denhaag.nl/nl/in-de-stad/natuur-en-milieu/gulden-klinker.htm;;;Werfstraat;http://www.denhaag.nl/webgis_static/afbeeldingen/kunstobjecten/Geen;;;;Nee;;Nee;Werfstraat;;78831.686;458071.773600001;4.275391316422466;52.10563545565449;195220;{8BB06C2A-5AA1-4260-812D-3E8E257739A8}
;2586 RV;;151;;https://www.denhaag.nl/nl/in-de-stad/natuur-en-milieu/gulden-klinker.htm;;;Marcelisstraat 141t/m161;http://www.denhaag.nl/webgis_static/afbeeldingen/kunstobjecten/Geen;;;;Nee;;Nee;Marcelisstraat;;79157.1804;458094.988299999;4.280136468474613;52.10588878760137;195221;{708386F3-DBD6-4C8E-A6B4-ECFBDB9424E9}
;2583 AR;;1071;;https://www.denhaag.nl/nl/in-de-stad/natuur-en-milieu/gulden-klinker.htm;;;Lindoduin flats;http://www.denhaag.nl/webgis_static/afbeeldingen/kunstobjecten/Geen;;;;Nee;;Nee;Westduinweg;;78686.8137;457425.546799999;4.273421744932967;52.09980809528727;195222;{DB33EB3E-6E66-4C60-AD7E-0B8610AA0BAF}
;2586 TW;;75;;https://www.denhaag.nl/nl/in-de-stad/natuur-en-milieu/gulden-klinker.htm;;;Stadsboerderij t’Waaygat;http://www.denhaag.nl/webgis_static/afbeeldingen/kunstobjecten/Geen;;;;Nee;;Nee;Havenkade;;79171.2879;458208.2425;4.280317151074581;52.106908495673245;195223;{D920DE68-336A-42EA-AB83-3B2578600B8F}
;2517 CD;;154;;https://www.denhaag.nl/nl/in-de-stad/natuur-en-milieu/gulden-klinker.htm;;;Suezkade Mooi;http://www.denhaag.nl/webgis_static/afbeeldingen/kunstobjecten/Geen;;;;Nee;;Nee;Suezkade;;79046.2712;455356.434700001;4.279127925341266;52.08126314141636;195224;{838C9E50-5189-4F74-9727-2913BA3976FE}
;2555 EL;;40;;https://www.denhaag.nl/nl/in-de-stad/natuur-en-milieu/gulden-klinker.htm;;;Artaban;http://www.denhaag.nl/webgis_static/afbeeldingen/kunstobjecten/Geen;;;;Nee;;Nee;Rusthoekstraat;;79254.1474;457657.312899999;4.281648919819715;52.10196883635421;195225;{72D61438-9B7F-412B-B47D-7B1D0360BEA7}
;2532 CP;;68;;https://www.denhaag.nl/nl/in-de-stad/natuur-en-milieu/gulden-klinker.htm;;;Ds. Van der Boschschool;http://www.denhaag.nl/webgis_static/afbeeldingen/kunstobjecten/Geen;;;;Nee;;Nee;Nannie van Wehlstraat;;80722.6733;452106.9049;4.304287400895358;52.05228783212744;195226;{CD5C75ED-32DD-4EEB-9208-37AE5631C227}
;2543 BH;;2;;https://www.denhaag.nl/nl/in-de-stad/natuur-en-milieu/gulden-klinker.htm;;;Prof. Mr. A. Anemaschool;http://www.denhaag.nl/webgis_static/afbeeldingen/kunstobjecten/Geen;;;;Nee;;Nee;Eindstede;;77988.0112;450890.7207;4.264699022774729;52.04098509852023;195227;{8BF22168-FC78-4B37-971F-B66FF4DD4D0F}
;2547 JZ;;520;;https://www.denhaag.nl/nl/in-de-stad/natuur-en-milieu/gulden-klinker.htm;;;Nieuwendamlaan/prikploeg/bew.ver.Westerhaeghe;http://www.denhaag.nl/webgis_static/afbeeldingen/kunstobjecten/Geen;;;;Nee;;Nee;Nieuwendamlaan;;78054.7699;453188.4767;4.265154451376428;52.06164356823689;195228;{D16A05F5-6B59-49CD-BD49-03CA01AB7E81}
;2544 LR;;1295;;https://www.denhaag.nl/nl/in-de-stad/natuur-en-milieu/gulden-klinker.htm;;;Cirkelflat Lozerlaan;http://www.denhaag.nl/webgis_static/afbeeldingen/kunstobjecten/Geen;;;;Nee;;Nee;Lozerlaan;;77209.2202;450199.8785;4.2535068847163355;52.034667992884906;195229;{C6291257-1983-415D-A0F3-2F044BA6D3F5}
;2574 HP;;106;;https://www.denhaag.nl/nl/in-de-stad/natuur-en-milieu/gulden-klinker.htm;;;BORO, Werkgroep V.V.L.;http://www.denhaag.nl/webgis_static/afbeeldingen/kunstobjecten/Geen;;;;Nee;;Nee;Zuiderparklaan;;78947.7568;453774.528099999;4.278043494197371;52.06703353197711;195230;{735A34B8-8CBA-4D78-8624-5D5614E63917}
;2542 WZ;;31;;https://www.denhaag.nl/nl/in-de-stad/natuur-en-milieu/gulden-klinker.htm;;;VVE Millenniumhof;http://www.denhaag.nl/webgis_static/afbeeldingen/kunstobjecten/Geen;;;;Nee;;Nee;Gravinnendreef;;77782.243;450154.186099999;4.261866694544029;52.03433746675125;195231;{CC9D3E94-11AF-4E27-80A0-943A24E44CF0}
;2574 EJ;;920;;https://www.denhaag.nl/nl/in-de-stad/natuur-en-milieu/gulden-klinker.htm;;;Soestdijksekade;http://www.denhaag.nl/webgis_static/afbeeldingen/kunstobjecten/Geen;;;;Nee;;Nee;Soestdijksekade;;79715.2917;453033.267200001;4.289398819029689;52.06047686961935;195232;{E39676CA-3EC8-416E-B53B-1AD840BF3EBA}
;2544 LG;;665;;https://www.denhaag.nl/nl/in-de-stad/natuur-en-milieu/gulden-klinker.htm;;;Lozerlaan (Vierkant);http://www.denhaag.nl/webgis_static/afbeeldingen/kunstobjecten/Geen;;;;Nee;;Nee;Lozerlaan;;77007.6068;450509.766600002;4.250498511945728;52.03742453086514;195233;{63DD2EF3-23D8-4246-A036-4437658C3A3A}
;2548 TA;;58;;https://www.denhaag.nl/nl/in-de-stad/natuur-en-milieu/gulden-klinker.htm;;;Bew. Gr. Kievhof en Berlijnstraat;http://www.denhaag.nl/webgis_static/afbeeldingen/kunstobjecten/Geen;;;;Nee;;Nee;Berlijnstraat;;80020.3537;448601.490400001;4.2948184593741034;52.0206908925095;195234;{BC94447E-D601-4D36-88E3-66442C15598B}
;2544 JK;;128;;https://www.denhaag.nl/nl/in-de-stad/natuur-en-milieu/gulden-klinker.htm;;;De rades 120 t/m 150;http://www.denhaag.nl/webgis_static/afbeeldingen/kunstobjecten/Geen;;;;Nee;;Nee;De Rade;;77686.632;451524.566500001;4.260163651260942;52.04663931794191;195235;{AC83F550-DEC7-400B-B575-CDB03FAA8CD3}
2016-06-08;2547 HG;Er lag al een Gulden Klinker, maar een aantal jaren geleden is de boerderij overgegaan naar een particuliere Stichting;1750;Vrienden van de Nijkamphoeve;http://www.nijkamphoeve.nl;;;Stadsboerderij Nijkamphoeve;http://www.denhaag.nl/webgis_static/afbeeldingen/kunstobjecten/https://gdh70wggisib.blob.core.windows.net/guldenklinkers/GK2016_Nijkamphoeve6.jpg;Stichting;;;Nee;;Nee;Escamplaan;;77586.0579;452369.234299999;4.258506432263057;52.05421602687945;195236;{B486D12B-0879-42B4-A3B4-3ED6C3C173B9}
;2531 XD;;43;;https://www.denhaag.nl/nl/in-de-stad/natuur-en-milieu/gulden-klinker.htm;;;Speeltuinproject Grutkids - onderhoud en vegen speeltuin door kinderen uit de buurt;http://www.denhaag.nl/webgis_static/afbeeldingen/kunstobjecten/Geen;;;;Nee;;Nee;Beatrijsstraat;;80319.931;452583.8818;4.298312419735812;52.05652018254509;195237;{F1C76CCF-CB54-43E2-B1D9-202F32B8B172}
;2552 ZE;;125;;https://www.denhaag.nl/nl/in-de-stad/natuur-en-milieu/gulden-klinker.htm;;;Montessorischool Houtwijk;http://www.denhaag.nl/webgis_static/afbeeldingen/kunstobjecten/Geen;;;;Nee;;Nee;Architect Berlagelaan;;77390.8713;452763.422699999;4.255571580485779;52.0577311586922;195238;{DA3C8073-5332-4EC6-BC70-308FF4AE9B41}
;2551 KG;;41;;https://www.denhaag.nl/nl/in-de-stad/natuur-en-milieu/gulden-klinker.htm;;;Winkelcentrum Alphons Diepenbrockhof;http://www.denhaag.nl/webgis_static/afbeeldingen/kunstobjecten/Geen;;;;Nee;;Nee;Alphons Diepenbrockhof;;75655.3032;453005.0002;4.23021373310484;52.059656307924136;195239;{07A37006-307F-4138-BAAF-53AE91A5F697}
;2551 WR;;39;;https://www.denhaag.nl/nl/in-de-stad/natuur-en-milieu/gulden-klinker.htm;;;Louis Armstrongkade 15t/m 53;http://www.denhaag.nl/webgis_static/afbeeldingen/kunstobjecten/Geen;;;;Nee;;Nee;Louis Armstrongkade;;76279.3482;452619.713100001;4.239400485010368;52.05628289885437;195240;{C4134325-A6A3-4D66-825D-7EAF95165B82}
;2552 CS;;94;;https://www.denhaag.nl/nl/in-de-stad/natuur-en-milieu/gulden-klinker.htm;;;Ru de Parestraat (2);http://www.denhaag.nl/webgis_static/afbeeldingen/kunstobjecten/Geen;;;;Nee;;Nee;Ru Paréstraat;;76394.094;452247.704999998;4.241158837439465;52.052956094595494;195241;{A89BC0A7-F59B-483E-95EE-82F392A3B524}
;2555 NK;;30;;https://www.denhaag.nl/nl/in-de-stad/natuur-en-milieu/gulden-klinker.htm;;;Speelplaats Petuniapln./Bohemen;http://www.denhaag.nl/webgis_static/afbeeldingen/kunstobjecten/Geen;;;;Nee;;Nee;Zilverschoonstraat;;76021.7237;453575.894400001;4.235423738058107;52.06483905157115;195242;{9B194561-8742-4808-B08C-728DD2BD8B15}
;2554 BB;;186;;https://www.denhaag.nl/nl/in-de-stad/natuur-en-milieu/gulden-klinker.htm;;;HV.Westkapellelaan;http://www.denhaag.nl/webgis_static/afbeeldingen/kunstobjecten/Geen;;;;Nee;;Nee;Westkapellelaan;;75115.4508;453894.776299998;4.222135096121604;52.0675747570261;195243;{DF1E1E6E-E453-4347-8101-3D0D5C2FA774}
;2552 WE;;37;;https://www.denhaag.nl/nl/in-de-stad/natuur-en-milieu/gulden-klinker.htm;;;Bewonersvereniging Houtwijk;http://www.denhaag.nl/webgis_static/afbeeldingen/kunstobjecten/Geen;;;;Nee;;Nee;Gerrit van der Veenlaan;;76982.6209;452461.779300001;4.249688826202728;52.05496306854947;195244;{150186AA-6A38-4B0A-B6AB-16031C072093}
;2553 NL;;74;;https://www.denhaag.nl/nl/in-de-stad/natuur-en-milieu/gulden-klinker.htm;;;Rietvoorndaal;http://www.denhaag.nl/webgis_static/afbeeldingen/kunstobjecten/Geen;;;;Nee;;Nee;Rietvoorndaal;;76302.0095;451197.9078;4.240058296177222;52.04350889597145;195245;{CB9D54F3-F5CD-4DB6-A79E-EDB502D1E731}
;2552 XM;;41;;https://www.denhaag.nl/nl/in-de-stad/natuur-en-milieu/gulden-klinker.htm;;;Buurtcommissie Houtwijk;http://www.denhaag.nl/webgis_static/afbeeldingen/kunstobjecten/Geen;;;;Nee;;Nee;Hildo Kroplaan;;77020.0519;452491.5451;4.250227682815769;52.05523583160252;195246;{058E9DFE-5D2F-495E-91CF-6FA7B6EE0E99}
;2551 XL;;60;;https://www.denhaag.nl/nl/in-de-stad/natuur-en-milieu/gulden-klinker.htm;;;Hector Berliozstraat;http://www.denhaag.nl/webgis_static/afbeeldingen/kunstobjecten/Geen;;;;Nee;;Nee;Hector Berliozstraat;;76515.2868;452699.063299999;4.242821747246191;52.05702945669212;195247;{985E6AC3-81EE-4383-8DD7-B072E8FCFB41}
;2553 GL;;7;;https://www.denhaag.nl/nl/in-de-stad/natuur-en-milieu/gulden-klinker.htm;;;Hurdersvereniging ""De Brinken;http://www.denhaag.nl/webgis_static/afbeeldingen/kunstobjecten/Geen;;;;Nee;;Nee;Molenbrink;;75864.1027;451806.171399999;4.233535519175605;52.04891277971028;195248;{87536AB3-EE75-4DE6-8F72-4C96137090D5}
;2552 CW;;126;;https://www.denhaag.nl/nl/in-de-stad/natuur-en-milieu/gulden-klinker.htm;;;Ver.Wijktuin Houtwijk;http://www.denhaag.nl/webgis_static/afbeeldingen/kunstobjecten/Geen;;;;Nee;;Nee;Jan Le Griepstraat;;76438.194;452181.113000002;4.241816988320133;52.05236391113696;195249;{50B7CA73-5AC3-4F42-BAAA-FF2BAF13F1C8}
;2551 XL;;60;;https://www.denhaag.nl/nl/in-de-stad/natuur-en-milieu/gulden-klinker.htm;;;Hector Berliozstraat;http://www.denhaag.nl/webgis_static/afbeeldingen/kunstobjecten/Geen;;;;Nee;;Nee;Hector Berliozstraat;;76515.2868;452699.063299999;4.242821747246191;52.05702945669212;195250;{4F4E6F06-AD76-4FE9-A5F3-FC80F8F59CD0}
;2565 MK;;109;;https://www.denhaag.nl/nl/in-de-stad/natuur-en-milieu/gulden-klinker.htm;;;Populierstraat: Chr. College ""De Populier"";http://www.denhaag.nl/webgis_static/afbeeldingen/kunstobjecten/Geen;;;;Nee;;Nee;Populierstraat;;78447.6931;455302.235300001;4.270409118936471;52.080693640507235;195251;{4138E214-85B7-4AA0-91BB-40D8A49A5391}
;2561 XW;;79;;https://www.denhaag.nl/nl/in-de-stad/natuur-en-milieu/gulden-klinker.htm;;;Bew. Groep Stephensonstraat;http://www.denhaag.nl/webgis_static/afbeeldingen/kunstobjecten/Geen;;;;Nee;;Nee;Stephensonstraat;;78977.1191;455044.590399999;4.278188745031096;52.078451209135046;195252;{0BCE9C4A-D869-4F50-B565-4326DC74934F}
;2564 TR;;30;;https://www.denhaag.nl/nl/in-de-stad/natuur-en-milieu/gulden-klinker.htm;;;Mispelstraat;http://www.denhaag.nl/webgis_static/afbeeldingen/kunstobjecten/Geen;;;;Nee;;Nee;Mispelstraat;;77338.9629;454041.843899999;4.254524079698383;52.06921259285289;195253;{B3D571DA-07FF-4A00-AF38-4F18924A5A32}
;2564 TP;;29;;https://www.denhaag.nl/nl/in-de-stad/natuur-en-milieu/gulden-klinker.htm;;;Mispelstraat;http://www.denhaag.nl/webgis_static/afbeeldingen/kunstobjecten/Geen;;;;Nee;;Nee;Mispelstraat;;77364.6069;454044.246100001;4.254897478913044;52.06923777532014;195254;{E3C8F474-5E4E-4492-8F74-A66B45B9BFA1}
;2565 JX;;121;;https://www.denhaag.nl/nl/in-de-stad/natuur-en-milieu/gulden-klinker.htm;;;Buurtcomitee Acaciastraat SBOB;http://www.denhaag.nl/webgis_static/afbeeldingen/kunstobjecten/Geen;;;;Nee;;Nee;Acaciastraat;;78509.9247;454941.502099998;4.271397699708422;52.07746045510397;195255;{5B670A9B-B0CC-43BE-B936-5192043CC7BC}
;2562 VW;;252;;https://www.denhaag.nl/nl/in-de-stad/natuur-en-milieu/gulden-klinker.htm;;;Kepplerstraat;http://www.denhaag.nl/webgis_static/afbeeldingen/kunstobjecten/Geen;;;;Nee;;Nee;Kepplerstraat;;79105.7958;454592.639800001;4.280166050524379;52.07440732306939;195256;{999C0EE6-AA93-4F98-85DC-212C18AF2D20}
;2562 ND;;96;;https://www.denhaag.nl/nl/in-de-stad/natuur-en-milieu/gulden-klinker.htm;;;Hondiusstraat;http://www.denhaag.nl/webgis_static/afbeeldingen/kunstobjecten/Geen;;;;Nee;;Nee;Hondiusstraat;;79426.208;454478.916000001;4.284864124011347;52.0734291365209;195257;{21F0F046-FD13-4676-BEC6-C654AB7D992A}
;2562 CK;;152;;https://www.denhaag.nl/nl/in-de-stad/natuur-en-milieu/gulden-klinker.htm;;;Bewonersgroep Franklinstraat;http://www.denhaag.nl/webgis_static/afbeeldingen/kunstobjecten/Geen;;;;Nee;;Nee;Franklinstraat;;79323.4847;455084.691300001;4.283231699920395;52.07885902504012;195258;{1D4E0FA4-5856-4570-8A5D-41522505ABE9}
;2506 HL;;3;;https://www.denhaag.nl/nl/in-de-stad/natuur-en-milieu/gulden-klinker.htm;;;De Bonte Vlinder - Aucubastraat 3;http://www.denhaag.nl/webgis_static/afbeeldingen/kunstobjecten/Geen;;;;Nee;;Nee;Aucubastraat;;78153.8089;454759.653099999;4.266244731038593;52.07577694025489;195259;{B0DED3F8-5116-4D58-B7BC-EEAF145BDA9F}
;2561 DN;;17;;https://www.denhaag.nl/nl/in-de-stad/natuur-en-milieu/gulden-klinker.htm;;;St4R, De Groene Slof;http://www.denhaag.nl/webgis_static/afbeeldingen/kunstobjecten/Geen;;;;Nee;;Nee;Fahrenheitstraat;;79031.1612;454098.901700001;4.279187476651672;52.06996002157479;195260;{4BFC8083-B0D1-4CB7-90AB-60942F9D4397}
;2561 TG;;44;;https://www.denhaag.nl/nl/in-de-stad/natuur-en-milieu/gulden-klinker.htm;;;Stadstuin Emma’Hof;http://www.denhaag.nl/webgis_static/afbeeldingen/kunstobjecten/Geen;;;;Nee;;Nee;Galileïstraat;;79132.1872;454817.3948;4.28050097482839;52.076430741172686;195261;{DF781C9B-0B7E-491B-BD93-0F786ACC0B9C}
;2565 KJ;;192;;https://www.denhaag.nl/nl/in-de-stad/natuur-en-milieu/gulden-klinker.htm;;;Speeltuin Acaciastraat;http://www.denhaag.nl/webgis_static/afbeeldingen/kunstobjecten/Geen;;;;Nee;;Nee;Acaciastraat;;78354.6237;454835.833299998;4.2691563800398615;52.07648937385165;195262;{B498DD40-F20F-4D40-8EA4-3A68BF2132BE}
;2586 AP;;28;;https://www.denhaag.nl/nl/in-de-stad/natuur-en-milieu/gulden-klinker.htm;;;Wassenaarsestraat 12-42;http://www.denhaag.nl/webgis_static/afbeeldingen/kunstobjecten/Geen;;;;Nee;;Nee;Wassenaarsestraat;;78680.8676;458269.823199999;4.273145888098991;52.10739447107107;195263;{B8966BD8-DBFA-4775-B2FE-B5F335A48D32}
;2517 VE;;318;;https://www.denhaag.nl/nl/in-de-stad/natuur-en-milieu/gulden-klinker.htm;;;WerkgroepObrechtstraat;http://www.denhaag.nl/webgis_static/afbeeldingen/kunstobjecten/Geen;;;;Nee;;Nee;Obrechtstraat;;79113.1618;455455.118999999;4.280081653953985;52.08215915633536;195264;{200D3E30-5D75-4E7D-AC34-D82CD798A764}
;2517 VE;;318;;https://www.denhaag.nl/nl/in-de-stad/natuur-en-milieu/gulden-klinker.htm;;;Werkgroep Sunny Court, ln v. Meerdervoortbij Conradkade;http://www.denhaag.nl/webgis_static/afbeeldingen/kunstobjecten/Geen;;;;Nee;;Nee;Obrechtstraat;;79113.1618;455455.118999999;4.280081653953985;52.08215915633536;195265;{81A2A48D-D4B7-4C59-8CCD-64F09CAF5D09}
;2582 SG;;19;;https://www.denhaag.nl/nl/in-de-stad/natuur-en-milieu/gulden-klinker.htm;;;Speelplaats Frankenstraat/Frankenparkje;http://www.denhaag.nl/webgis_static/afbeeldingen/kunstobjecten/Geen;;;;Nee;;Nee;Frankenstraat;;78864.9157;457247.874499999;4.276060340978222;52.09823594870667;195266;{D06D562E-0BED-41D2-BA41-0706C829751D}
;2531 XD;;43;;https://www.denhaag.nl/nl/in-de-stad/natuur-en-milieu/gulden-klinker.htm;;;Buurtpanel Triangel;http://www.denhaag.nl/webgis_static/afbeeldingen/kunstobjecten/Geen;;;;Nee;;Nee;Beatrijsstraat;;80319.931;452583.8818;4.298312419735812;52.05652018254509;195267;{CB3956E2-D37E-45AB-8C2C-3F9307E221F6}
;2547 JL;;68;;https://www.denhaag.nl/nl/in-de-stad/natuur-en-milieu/gulden-klinker.htm;;;Milieuploeg Noorderhaghe;http://www.denhaag.nl/webgis_static/afbeeldingen/kunstobjecten/Geen;;;;Nee;;Nee;Nieuwendamlaan;;78058.8677;453305.6153;4.265187803700555;52.06269682269141;195268;{98CBB55A-B30D-4E32-9EBE-05E3810D54C7}
;2544 LD;;399;;https://www.denhaag.nl/nl/in-de-stad/natuur-en-milieu/gulden-klinker.htm;;;Ouderensoos de Inloop;http://www.denhaag.nl/webgis_static/afbeeldingen/kunstobjecten/Geen;;;;Nee;;Nee;Lozerlaan;;76635.5642;450789.213799998;4.245013133687167;52.039883363421666;195269;{76B45A8E-CBE7-4D23-976D-91809C550965}
;2542 NP;;28;;https://www.denhaag.nl/nl/in-de-stad/natuur-en-milieu/gulden-klinker.htm;;;Kids op dreef;http://www.denhaag.nl/webgis_static/afbeeldingen/kunstobjecten/Geen;;;;Nee;;Nee;Gravendreef;;77669.4593;450013.712000001;4.260255104043628;52.033059351232865;195270;{4FB219E5-DC28-4B50-B27E-1DA6CA0A7421}
;2574 XS;;72;;https://www.denhaag.nl/nl/in-de-stad/natuur-en-milieu/gulden-klinker.htm;;;Gooilaan;http://www.denhaag.nl/webgis_static/afbeeldingen/kunstobjecten/Geen;;;;Nee;;Nee;Gooilaan;;78750.8334;453763.200800002;4.275174574070373;52.06690466646135;195271;{DB8246EE-FD59-4BDD-B8AB-7C556DB0C177}
;2541 RT;;290;;https://www.denhaag.nl/nl/in-de-stad/natuur-en-milieu/gulden-klinker.htm;;;De Binnentuin;http://www.denhaag.nl/webgis_static/afbeeldingen/kunstobjecten/Geen;;;;Nee;;Nee;Steenwijklaan;;79019.1263;451060.091699999;4.279687905004328;52.042649471673016;195272;{A208E485-95C4-4743-8FD7-5DAF248AC82D}
;2543 vr;;96;;https://www.denhaag.nl/nl/in-de-stad/natuur-en-milieu/gulden-klinker.htm;;;Nutsschool Woonstede;http://www.denhaag.nl/webgis_static/afbeeldingen/kunstobjecten/Geen;;;;Nee;;Nee;Woonstede;;77686.9013;450719.775600001;4.26034960174725;52.039406957629204;195273;{2B42B051-6E3B-4254-9BFB-85B1B2DB66E4}
;2543 XV;;3;;https://www.denhaag.nl/nl/in-de-stad/natuur-en-milieu/gulden-klinker.htm;;;Zijdekids;http://www.denhaag.nl/webgis_static/afbeeldingen/kunstobjecten/Geen;;;;Nee;;Nee;Schoolzijde;;77364.3521;450550.123599999;4.255687781711488;52.03783727552449;195274;{3F7D8BBA-E51D-479B-97C8-8BF5320E16BD}
;2544 LV;;1681;;https://www.denhaag.nl/nl/in-de-stad/natuur-en-milieu/gulden-klinker.htm;;;Lozerlaan Sterflat;http://www.denhaag.nl/webgis_static/afbeeldingen/kunstobjecten/Geen;;;;Nee;;Nee;Lozerlaan;;77433.4263;449806.9608;4.2568628930088765;52.03116837556786;195275;{9D30A681-4BCD-45CD-81DD-4B98B4DFE028}
;2542 XH;;3;;https://www.denhaag.nl/nl/in-de-stad/natuur-en-milieu/gulden-klinker.htm;;;SBO de Springplank;http://www.denhaag.nl/webgis_static/afbeeldingen/kunstobjecten/Geen;;;;Nee;;Nee;Pachtersdreef;;77946.7151;450164.366;4.264260901658611;52.03445183087385;195276;{A01AF44A-F179-4B10-AD29-8D7F8A2F0A0E}
;2545 JN;;9;;https://www.denhaag.nl/nl/in-de-stad/natuur-en-milieu/gulden-klinker.htm;;;Baltimorehof;http://www.denhaag.nl/webgis_static/afbeeldingen/kunstobjecten/Geen;;;;Nee;;Nee;Baltimorehof;;79203.3327;449943.2267;4.282620049361545;52.03263771158592;195277;{46B388FD-D30D-4E1A-A0BD-9DFE09F8BAD2}
;2572 EC;;131;;https://www.denhaag.nl/nl/in-de-stad/natuur-en-milieu/gulden-klinker.htm;;;Wolmaransstraat;http://www.denhaag.nl/webgis_static/afbeeldingen/kunstobjecten/Geen;;;;Nee;;Nee;Wolmaransstraat;;80103.9799;453555.336599998;4.294951192024832;52.065221248397165;195278;{65E9F0FB-BFD4-4F7E-8F21-9110633D1B8F}
;2571 TT;;0;;https://www.denhaag.nl/nl/in-de-stad/natuur-en-milieu/gulden-klinker.htm;;;Ruth Firstplein;http://www.denhaag.nl/webgis_static/afbeeldingen/kunstobjecten/Geen;;;;Nee;;Nee;Ruth Firstplein;;79549.4904;453968.060800001;4.286774959251455;52.06885503968283;195279;{BC87114C-1853-452F-B588-6C96B62BD282}
;2571 WG;;0;;https://www.denhaag.nl/nl/in-de-stad/natuur-en-milieu/gulden-klinker.htm;;;Broodophaalproject;http://www.denhaag.nl/webgis_static/afbeeldingen/kunstobjecten/Geen;;;;Nee;;Nee;Joubertplantsoen;;79821.1695;454238.284800001;4.290677126922509;52.07132040532106;195280;{8C0DAD81-9698-4A27-AC49-4918BD605057}
;2513 RP;;40;;https://www.denhaag.nl/nl/in-de-stad/natuur-en-milieu/gulden-klinker.htm;;;OBS Max Veldhuis;http://www.denhaag.nl/webgis_static/afbeeldingen/kunstobjecten/Geen;;;;Nee;;Nee;Da Costastraat;;80177.0114;455017.105599999;4.295695623953486;52.07836763578463;195281;{4DF4BDDE-AD82-4C51-8A53-79BC221D799B}
;2526 EV;;245;;https://www.denhaag.nl/nl/in-de-stad/natuur-en-milieu/gulden-klinker.htm;;;Van Ostadeschool;http://www.denhaag.nl/webgis_static/afbeeldingen/kunstobjecten/Geen;;;;Nee;;Nee;Van Ostadestraat;;80833.8434;453668.5277;4.305568803265561;52.06633666328066;195282;{FEA8BFC5-F0C0-4764-A975-9E19F74876DF}
;2512 EL;;27;;https://www.denhaag.nl/nl/in-de-stad/natuur-en-milieu/gulden-klinker.htm;;;Kloostertuin;http://www.denhaag.nl/webgis_static/afbeeldingen/kunstobjecten/Geen;;;;Nee;;Nee;Hoge Zand;;80964.8805549148;454436.891857107;4.307312868566676;52.073259293711885;195283;{614C47BE-FD73-4DFC-8A6E-098C3414B31B}
;2512 GG;;182;;https://www.denhaag.nl/nl/in-de-stad/natuur-en-milieu/gulden-klinker.htm;;;Prinsehaghe SCOH;http://www.denhaag.nl/webgis_static/afbeeldingen/kunstobjecten/Geen;;;;Nee;;Nee;Prinsegracht;;80580.2752;454310.289799999;4.301731506818116;52.07207000919671;195284;{6718F8CC-3322-4850-BD9B-EEB3C7DE409B}
;2572 WR;;18;;https://www.denhaag.nl/nl/in-de-stad/natuur-en-milieu/gulden-klinker.htm;;;Speeltuin Witbankstraat/Bloemhofstraat;http://www.denhaag.nl/webgis_static/afbeeldingen/kunstobjecten/Geen;;;;Nee;;Nee;Witbankstraat;;79952.5862;453419.675299998;4.292773532231092;52.06398160851633;195285;{7F99E6AB-FDA8-4017-8C95-8267B90A99C6}
;2516 PV;;68;;https://www.denhaag.nl/nl/in-de-stad/natuur-en-milieu/gulden-klinker.htm;;;O.B.S. Baanbreker/bewoners Elboogstraat;http://www.denhaag.nl/webgis_static/afbeeldingen/kunstobjecten/Geen;;;;Nee;;Nee;Elboogstraat;;82662.8838;453710.698100001;4.332230095626068;52.066957498715844;195286;{83C80C47-C000-49FD-AA9E-574C114163ED}
;2516 TA;;31;;https://www.denhaag.nl/nl/in-de-stad/natuur-en-milieu/gulden-klinker.htm;;;Stadsboerderij Molenweide;http://www.denhaag.nl/webgis_static/afbeeldingen/kunstobjecten/Geen;;;;Nee;;Nee;Stuwstraat;;82786.4374;453485.498599999;4.334079355974776;52.0649497901673;195287;{1BD8FC31-3EF8-4898-BD54-CA150E97888C}
;2497 CM;;38;;https://www.denhaag.nl/nl/in-de-stad/natuur-en-milieu/gulden-klinker.htm;;;Wrightlaan;http://www.denhaag.nl/webgis_static/afbeeldingen/kunstobjecten/Geen;;;;Nee;;Nee;Wrightlaan;;84688.1628;450398.790800001;4.362443981473949;52.03745445087921;195288;{DA44BAB2-64BD-4D03-889B-F16F42A59C4F}
;2498 EV;;13;;https://www.denhaag.nl/nl/in-de-stad/natuur-en-milieu/gulden-klinker.htm;;;Bewonersvereniging Biesland;http://www.denhaag.nl/webgis_static/afbeeldingen/kunstobjecten/Geen;;;;Nee;;Nee;Ribbelzegge;;86626.2838;450040.147599999;4.390758673904121;52.03447372720236;195289;{FC89A784-2DEB-42C7-B5DA-8C76028C1936}
;2493 ZV;;73;;https://www.denhaag.nl/nl/in-de-stad/natuur-en-milieu/gulden-klinker.htm;;;Smulhoeve;http://www.denhaag.nl/webgis_static/afbeeldingen/kunstobjecten/Geen;;;;Nee;;Nee;Socrateslaan;;87214.5979;453060.592799999;4.398732128987168;52.06169069750318;195290;{9F96332E-ED23-4A04-B5E6-213721260F1F}
;2493 ZS;;9;;https://www.denhaag.nl/nl/in-de-stad/natuur-en-milieu/gulden-klinker.htm;;;Pythagorasplein;http://www.denhaag.nl/webgis_static/afbeeldingen/kunstobjecten/Geen;;;;Nee;;Nee;Pythagorasplantsoen;;87124.6842;452968.5057;4.397439464566829;52.06085210495405;195291;{7B3A0C25-CC33-4BF0-BCDA-870753FF1DFF}
;2498 EV;;8;;https://www.denhaag.nl/nl/in-de-stad/natuur-en-milieu/gulden-klinker.htm;;;Hofje Ribbelzegge;http://www.denhaag.nl/webgis_static/afbeeldingen/kunstobjecten/Geen;;;;Nee;;Nee;Ribbelzegge;;86583.8155;450032.5713;4.39014136737223;52.0344004005619;195292;{689E7649-2340-4A91-B32D-D9B8B83F08DA}
;2497 GA;;9;;https://www.denhaag.nl/nl/in-de-stad/natuur-en-milieu/gulden-klinker.htm;;;Scoutinggroep van Weerden Poelkman;http://www.denhaag.nl/webgis_static/afbeeldingen/kunstobjecten/Geen;;;;Nee;;Nee;ILSY-plantsoen;;84139.8555;450634.2216;4.354405126177163;52.03950044038518;195293;{825BC2A0-F88A-4DB7-829E-745462FF2943}
;2521 SH;;27;;https://www.denhaag.nl/nl/in-de-stad/natuur-en-milieu/gulden-klinker.htm;;;Slachthuisplein, bew.ver. Laakhaven (Haags Hopje),;http://www.denhaag.nl/webgis_static/afbeeldingen/kunstobjecten/Geen;;;;Nee;;Nee;Slachthuisstraat;;82065.2157;453411.798999999;4.323578912887359;52.06419298412499;195294;{26ECA056-97C9-4B8B-82F7-F1A2434F1F80}
;2521 SH;;27;;https://www.denhaag.nl/nl/in-de-stad/natuur-en-milieu/gulden-klinker.htm;;;Thijssestr. Bew. Org Laakhaven;http://www.denhaag.nl/webgis_static/afbeeldingen/kunstobjecten/Geen;;;;Nee;;Nee;Slachthuisstraat;;82065.2157;453411.798999999;4.323578912887359;52.06419298412499;195295;{4008A6A8-84EE-4C9B-8D85-C1C2A75D21D6}
;2522 KX;;13;;https://www.denhaag.nl/nl/in-de-stad/natuur-en-milieu/gulden-klinker.htm;;;Suringarstraat;http://www.denhaag.nl/webgis_static/afbeeldingen/kunstobjecten/Geen;;;;Nee;;Nee;Suringarstraat;;82485.8938;452909.768300001;4.329819356885291;52.05973654687347;195296;{039B1AE8-171A-4794-8DA7-821138F4596F}
;2523 JL;;0;;https://www.denhaag.nl/nl/in-de-stad/natuur-en-milieu/gulden-klinker.htm;;;Rodenbachstraat;http://www.denhaag.nl/webgis_static/afbeeldingen/kunstobjecten/Geen;;;;Nee;;Nee;Rodenbachstraat;;81703.0793;452445.120000001;4.318506134763436;52.05545784123165;195297;{8C577D7D-6EFE-454F-B60A-1A146BCCE6C6}
;2554 HX;;45;;https://www.denhaag.nl/nl/in-de-stad/natuur-en-milieu/gulden-klinker.htm;;;Potgieterstraat;http://www.denhaag.nl/webgis_static/afbeeldingen/kunstobjecten/Geen;;;;Nee;;Nee;Potgieterstraat;;81465.7939;452237.517999999;4.3150916875239185;52.05356072720478;195298;{AEFFF503-CDD3-4209-9C34-F92666104FCD}
;2516 SE;;0;;https://www.denhaag.nl/nl/in-de-stad/natuur-en-milieu/gulden-klinker.htm;;;Molenwijk Schoon strijders;http://www.denhaag.nl/webgis_static/afbeeldingen/kunstobjecten/Geen;;;;Nee;;Nee;Trekweg;;82733.352;453748.333299998;4.333249679430449;52.06730491703823;195299;{A7D879CB-A3C4-4E4D-8C9D-7F3EB8F487F1}
;2516 SE;;0;;https://www.denhaag.nl/nl/in-de-stad/natuur-en-milieu/gulden-klinker.htm;;;Molenwijk Schoon strijders;http://www.denhaag.nl/webgis_static/afbeeldingen/kunstobjecten/Geen;;;;Nee;;Nee;Stuwstraat;;82788.0939;453515.5601;4.33409715178957;52.06522016360765;195300;{C1884526-8C93-49D5-AA24-4F41AE5A137D}
;2591 VC;;419;;https://www.denhaag.nl/nl/in-de-stad/natuur-en-milieu/gulden-klinker.htm;;;Margarethaland VVE;http://www.denhaag.nl/webgis_static/afbeeldingen/kunstobjecten/Geen;;;;Nee;;Nee;Margarethaland;;85323.0987;456551.480900001;4.370440880443989;52.092828294311545;195301;{65432BF8-5B3A-48CD-9476-C61FDD0EC300}
;2593 TV;;105;;https://www.denhaag.nl/nl/in-de-stad/natuur-en-milieu/gulden-klinker.htm;;;Bewonersgroep Silleplein;http://www.denhaag.nl/webgis_static/afbeeldingen/kunstobjecten/Geen;;;;Nee;;Nee;De Sillestraat;;83369.2272;455893.835099999;4.3420715668313035;52.08666876551671;195302;{9AD64ED4-7DE5-4882-A091-847C28CE83FC}
;2593 CH;;25;;https://www.denhaag.nl/nl/in-de-stad/natuur-en-milieu/gulden-klinker.htm;;;Speeltuinvereniging de Wijckplaats;http://www.denhaag.nl/webgis_static/afbeeldingen/kunstobjecten/Geen;;;;Nee;;Nee;Johannes Camphuijsstraat;;83127.001;455824.098400001;4.338552616479249;52.0860106626423;195303;{EC65103C-A5B4-4A61-8949-D5148931E0F9}
2019-10-10;;;63;Educatie, groen, milieu, participatie;https://www.bernarduszml.nl/;;;Bernardusschool;http://www.denhaag.nl/webgis_static/afbeeldingen/kunstobjecten/https://gdh70wggisib.blob.core.windows.net/guldenklinkers/GK2019_Bernardusschool.jpg;;;;Nee;;Nee;Theo Mann-Bouwmeesterlaan;;82292.3290725456;458016.368855276;4.325908893282235;52.105603098141685;3707661;{DC5AAD4D-56BF-45E2-9A0C-2A2380C51151}
2020-08-28;;;;Onderhoud moestuin;;T- kruising Catharinaland/Dignaland ;;Catharinahof;http://www.denhaag.nl/webgis_static/afbeeldingen/kunstobjecten/https://gdh70wggisib.blob.core.windows.net/guldenklinkers/GK2020_Catharinahof.jpg;;;;Nee;;Nee;Catharinaland;;84929.8726320043;456664.487557277;4.364680363143153;52.09379423226047;4155064;{81511996-4D98-4DA7-AFE0-987D0623DCED}
2020-05-15;;;21;Beheer van het speelplein;www.bshetlichtbaken.nl ;;;Kinderraad Het Lichtbaken;http://www.denhaag.nl/webgis_static/afbeeldingen/kunstobjecten/https://gdh70wggisib.blob.core.windows.net/guldenklinkers/GK2020_Lichtbaken.jpg;;;;Nee;;Nee;Georges Bizetstraat;;76456.5744464509;452921.993518833;4.241914565242844;52.05902452497336;4155069;{5EED2F60-B52F-4AF9-A056-1C6370C23A8B}
2020-05-20;;;25;Groenonderhoud;;;;Groenstrook Biesland;http://www.denhaag.nl/webgis_static/afbeeldingen/kunstobjecten/https://gdh70wggisib.blob.core.windows.net/guldenklinkers/GK2020_GroenstrookBiesland.jpg;;;;Nee;;Nee;Biesvaren;;86368.2978290282;449814.993613776;4.387044645475063;52.03241839745481;4155072;{11A1EECB-96C7-4DCB-A38E-A418FD5A14AE}
2020-05-29;;;;Onderhoud plantenbakken;;;;Bloembakken Prins Mauritsplein/Vivienstraat;http://www.denhaag.nl/webgis_static/afbeeldingen/kunstobjecten/https://gdh70wggisib.blob.core.windows.net/guldenklinkers/GK2020_BloembakkenPrinsMauritsplein.jpg;;;;Nee;;Nee;Prins Mauritsplein;;78994.5725072436;456911.056025293;4.278027359362587;52.09522690086284;4155073;{5857F6C7-5D44-49C4-A145-8CFBC0C936F8}
2020-06-05;;;;Onderhoud moestuin; www.geloveninmoerwijk.nl ;Ingang Joan Blasiustraat om de hoek van Jan Luykenlaan 92a;;Marcustuin;http://www.denhaag.nl/webgis_static/afbeeldingen/kunstobjecten/https://gdh70wggisib.blob.core.windows.net/guldenklinkers/GK2020_Marcustuin.jpg;;;;Nee;;Nee;Joan Blasiusstraat;;80151.3331341222;452014.402775899;4.295979331138834;52.051379667776615;4155084;{7B871722-2F4A-45B9-8A3A-48268F915C40}
2020-06-19;;;264;Onderhoud binnentuin;www.uitvindershof.nl ;;;Stichting Uitvindershof;http://www.denhaag.nl/webgis_static/afbeeldingen/kunstobjecten/https://gdh70wggisib.blob.core.windows.net/guldenklinkers/GK2020_StichtingUitvindershof.jpg;;;;Nee;;Nee;Newtonstraat;;79264.5817916058;454652.480955984;4.282468503416098;52.07496683334815;4155093;{0A0298E9-34F5-433E-8945-F1A3750775E2}
2020-06-26;;;154;Onderhoud tuinen;;;;Groencommissie Blok 5;http://www.denhaag.nl/webgis_static/afbeeldingen/kunstobjecten/https://gdh70wggisib.blob.core.windows.net/guldenklinkers/GK2020_GroencommissieBlok5.jpg;;;;Nee;;Nee;Bevelandsestraat;;77498.3406834528;456414.808033548;4.256309114955083;52.0905598379691;4155094;{8AA30A5C-3F10-4BF5-AC3D-34F4BA3F805B}
2020-07-03;;;11;Geveltuinen en boomspiegels;;;;Bloeien Beeklaan;http://www.denhaag.nl/webgis_static/afbeeldingen/kunstobjecten/https://gdh70wggisib.blob.core.windows.net/guldenklinkers/GK2020_BloeiendBeeklaan.jpg;;;;Nee;;Nee;Beeklaan;;79363.7876062729;454220.466154683;4.284011078829818;52.07109800512931;4155095;{3F2D4E1E-F584-468A-ACE3-8458EEECD8B4}
2020-07-09;;;35;Buurttuin;www.mensentuin.nl;;;Mens en tuin;http://www.denhaag.nl/webgis_static/afbeeldingen/kunstobjecten/https://gdh70wggisib.blob.core.windows.net/guldenklinkers/GK2020_MensEnTuin.jpg;;;;Nee;;Nee;Hillenraadweg;;79800.7841079906;450984.051976796;4.291096258165142;52.042072707809766;4155096;{EA2A85FD-195F-4B41-BE92-3EF255078CC6}
;;;182;Boerderij;www.jacobahof.org;;;Jacobahof;http://www.denhaag.nl/webgis_static/afbeeldingen/kunstobjecten/Geen;;;;Nee;;Nee;Jacobastraat;;80229.3146149404;454295.176302724;4.296616659204964;52.07188692115282;4155103;{42508038-349F-4E9B-9DC8-6AC5552B8BF6}
;;;;Het -op welke manier dan ook- bevorderen en stimuleren van de participatie van de burgers binnen de maatschappij op een zo duurzame manier mogelijk.;www.stichtingzoenen.nl;Henriette Roland Holstweg 100 , 2533 ST;;Stichting Zoenen;http://www.denhaag.nl/webgis_static/afbeeldingen/kunstobjecten/https://gdh70wggisib.blob.core.windows.net/guldenklinkers/GK2021_StichtingZoenen.jpg;Stichting Zoenen;;;Nee;;Nee;Zuiderpark;;79431.291199163;452261.125584078;4.285429067246299;52.05349918503346;4642157;{28D9CA1B-6209-48A5-953E-3E101AF0E365}
;2591 CZ;;2320;;http:/www.vtvmariahoeve.nl;;;Volkstuindersvereniging Mariahoeve;http://www.denhaag.nl/webgis_static/afbeeldingen/kunstobjecten/https://gdh70wggisib.blob.core.windows.net/guldenklinkers/GK_2015_volkstuin_Mariahoeve.jpg;;;;Nee;;Nee;Isabellaland;;85380.6424;456638.979200002;4.371262595721193;52.09362187068224;195355;{2840B419-E7C0-45D6-9A54-AE23520DCFF1}
;;;0;;https://www.denhaag.nl/nl/in-de-stad/natuur-en-milieu/gulden-klinker.htm;;;Binnentuin Kleine Loo;http://www.denhaag.nl/webgis_static/afbeeldingen/kunstobjecten/https://gdh70wggisib.blob.core.windows.net/guldenklinkers/GK_2015_Binnentuinen.jpg;;;;Nee;;Nee;Denenburg;;84400.1061;456326.006700002;4.357020835867788;52.09068504257739;195356;{5ACD6942-C28A-4ECA-9987-556866435844}
;2595 TA;;157;;http:/www.facebook.com/LiduinaGroeneSchoolplein;;;Groenproject Liduinaschool;http://www.denhaag.nl/webgis_static/afbeeldingen/kunstobjecten/https://gdh70wggisib.blob.core.windows.net/guldenklinkers/GK_2015_Liduina_basisschool.jpg;;;;Nee;;Nee;Amalia van Solmsstraat;;83126.6207;455189.0044;4.338680881186193;52.0803031427422;195357;{C69CBA18-AD59-4926-94F1-92369D539F3B}
;;;0;;https://www.denhaag.nl/nl/in-de-stad/natuur-en-milieu/gulden-klinker.htm;;;Bewonersgroep Oog in het Zeilstraat;http://www.denhaag.nl/webgis_static/afbeeldingen/kunstobjecten/https://gdh70wggisib.blob.core.windows.net/guldenklinkers/GK_2015_Oog_in_het_Zeilstraat.jpg;;;;Nee;;Nee;Oog in 't Zeilstraat;;81195.8793;454513.437899999;4.310665137399939;52.073978024697674;195358;{40A2777F-E9F6-4B7D-A84E-9CACEEB1DCB1}
;;;0;;http://www.tgrasvdburen.nl;;;'t Gras van de Buren;http://www.denhaag.nl/webgis_static/afbeeldingen/kunstobjecten/https://gdh70wggisib.blob.core.windows.net/guldenklinkers/GK_2015_Gras_van_de_buren.jpg;;;;Nee;;Nee;;;79878.4853;454877.561000001;4.291372247825284;52.077073173366415;195359;{863ED821-7E6C-441E-95CB-B4D582E10929}
;2595 WR;;90;;http://www.voorwelzijn.nl;;;Jongeren Jan van Riebeekstraat;http://www.denhaag.nl/webgis_static/afbeeldingen/kunstobjecten/https://gdh70wggisib.blob.core.windows.net/guldenklinkers/GK2015_JongerenJanVanRiebeekstraat.jpg;;;;Nee;;Nee;Jan van Riebeekplein;;82565.6596;455062.229800001;4.3305255597792085;52.079090750489996;195360;{36FDA79D-9F17-4BC8-BCC1-7AB1F457B44E}
;2571 TT;;178;;https://www.denhaag.nl/nl/in-de-stad/natuur-en-milieu/gulden-klinker.htm;;;Christiaanhof;http://www.denhaag.nl/webgis_static/afbeeldingen/kunstobjecten/https://gdh70wggisib.blob.core.windows.net/guldenklinkers/GK2015_Christaanhof.jpg;;;;Nee;;Nee;Christiaan de Wetstraat;;79497.8657;453963.034699999;4.286023269504123;52.06880283733104;195361;{D2986C47-BC50-4924-AB59-29075C6E236E}
;2593 PJ;;12;;http://www.bptbezuidenhout.nl;;;Buurt Preventie Team Bezuidenhout;http://www.denhaag.nl/webgis_static/afbeeldingen/kunstobjecten/https://gdh70wggisib.blob.core.windows.net/guldenklinkers/GK2015_BPTvanHeutzstraat.jpg;;;;Nee;;Nee;Van Heutszstraat;;83681.5817;455765.818100002;4.346655036058071;52.08555862374172;195362;{2E4527B5-627C-4C09-AE88-EEA67990CE7D}
;;;133;;http://www.zeeheldentuin.nl;;;Zeeheldentuin;http://www.denhaag.nl/webgis_static/afbeeldingen/kunstobjecten/https://gdh70wggisib.blob.core.windows.net/guldenklinkers/GK2015_ZeeheldentuinTasmanstraat.jpg;;;;Nee;;Nee;Tasmanstraat;;79907.3366;455416.794199999;4.291674359059589;52.08192301639478;195363;{F968ACA4-2F08-4C75-A2FC-A2FDDA6A0B8C}
;2525 ZN;;232;;https://www.denhaag.nl/nl/in-de-stad/natuur-en-milieu/gulden-klinker.htm;;;Buurtmoeders Transvaal;http://www.denhaag.nl/webgis_static/afbeeldingen/kunstobjecten/https://gdh70wggisib.blob.core.windows.net/guldenklinkers/GK2015_BuurtmoedersTransvaal.jpg;;;;Nee;;Nee;Lau Mazirellaan;;80450.888;452959.623;4.300139531147434;52.05991451107025;195364;{0C4C336F-40B3-4DE6-ACB3-3309395C4D44}
;2509 ED;;0;;http://www.eigenarbeid.nl;;;Volkstuindersvereniging Eigen Arbeid;http://www.denhaag.nl/webgis_static/afbeeldingen/kunstobjecten/https://gdh70wggisib.blob.core.windows.net/guldenklinkers/GK2015_VolkstuidersEigenArbeid.jpg;;;;Nee;;Nee;;;84969.6742;457553.959100001;4.365078352397879;52.10179281848714;195365;{9A6EA8D0-EC46-49E2-83E5-1B3BDABFE30E}
2015-11-12;2492LM;;55;;;Vier flats;;Korenbloem I - IV;http://www.denhaag.nl/webgis_static/afbeeldingen/kunstobjecten/https://gdh70wggisib.blob.core.windows.net/guldenklinkers/GK2016_F53A3388.jpg;Bewonersgroep;;;Nee;;Nee;Kattestaartveld;Bewonersgroep;87607.8248307367;453720.48178854;4.404335252904659;52.067669081770426;195371;{5A031E67-9FBB-4181-B1F7-FF9A1B5BED71}
2015-10-16;2542 TC;;3a;zie boven;;;;Geveltuinen Zwaardvegersgaarde;http://www.denhaag.nl/webgis_static/afbeeldingen/kunstobjecten/https://gdh70wggisib.blob.core.windows.net/guldenklinkers/GK2016_Zwaardvegersgaarde.jpg;Bewonersgroep die Geveltuinen onderhouden;;;Nee;;Nee;Zwaardvegersgaarde;Bewonersgroep;78305.0917474773;450807.88492865;4.2693384362436255;52.04028463540636;207657;{6880848E-E4EE-4479-94B0-9B04860B3D5E}
2015-10-02;2555 SH;;203;Zorgflat waar bewoners het groen onderhouden;http://www.woonzorg.nl/de componist den haag;Zorgflat - Gulden Klinker ligt voor de liftingang;http://www.decomponist.nl;De Componist;http://www.denhaag.nl/webgis_static/afbeeldingen/kunstobjecten/https://gdh70wggisib.blob.core.windows.net/guldenklinkers/GK2016_Robert_Stolzplantsoen.jpg;Onderhoudsgroep (is een onderdeel van de bewonerscommissie);;;Nee;;Nee;Robert Stolzplantsoen;Bewonersgroep;75956.8812164658;453340.335413932;4.234532819414211;52.06271293269291;207658;{DA6C8B3F-CC02-401E-97EC-F82819FD758F}
2015-10-08;2492 JZ;;997;Skaters onderhouden en beheren de skatebaan (ondersteuning vanuit het welzijnswerk);;Buurthuis met skatebaan;;Skatepark Ut Plekkie;http://www.denhaag.nl/webgis_static/afbeeldingen/kunstobjecten/https://gdh70wggisib.blob.core.windows.net/guldenklinkers/GK2016_F53A3047.jpg;Welzijnsorganisatie;Ut plekkie;;Nee;;Nee;Noordelijke Verbindingsweg;Bewonersgroep;87705.0874820014;453046.420530363;4.405886409934763;52.061623124049554;207659;{0A21B5E7-22DF-479C-A648-9C3C139CDAED}
2015-11-06;2551 LW;;205;Bewoners en kinderen die de speeltuin hebben geadopteerd;;Speeltuin ligt achter de woniningen in de Toscaninistraat;;Speeltuin Toscamini;http://www.denhaag.nl/webgis_static/afbeeldingen/kunstobjecten/https://gdh70wggisib.blob.core.windows.net/guldenklinkers/GK2016_Toscamini.jpg;;;;Nee;;Nee;Toscaninistraat;Bewonersgroep;76660.0226965648;453096.545541167;4.244840562425379;52.06062195960099;207661;{BD68ECF2-F587-4F8F-927D-15C472063107}
2015-09-09;2509 ED;;204;Vrouwen en kinderen onderhouden een moestuin;;Moestuin staat op de hoek van Magarethaland/Isabellaland;;Moestuin Magarethaland;http://www.denhaag.nl/webgis_static/afbeeldingen/kunstobjecten/https://gdh70wggisib.blob.core.windows.net/guldenklinkers/GK2016_Margarethaland.jpg;;Urban Green;;Nee;;Nee;Isabellaland;Bewonersgroep;85317.8180697862;456652.217886967;4.37034324569941;52.09373293984219;207662;{007808BE-8E11-45CA-8602-E86F1E4CB3C8}
;;;;;http://www.bb45.nl/;;;Stichting 3 maart '45;http://www.denhaag.nl/webgis_static/afbeeldingen/kunstobjecten/https://gdh70wggisib.blob.core.windows.net/guldenklinkers/GK2016_BvV__Zandvliet.jpg;Stichting 3 maart '45;;;Nee;;Nee;Emmapark;;82520.2238418772;455737.570839227;4.329719361954247;52.08515395560827;346849;{9F194048-94ED-4826-A119-A5A5963A0E32}
2016-03-11;;;78/80;Moestuin op voormalig speeltuin;;;;Biologische Moestuin het Welpje;http://www.denhaag.nl/webgis_static/afbeeldingen/kunstobjecten/https://gdh70wggisib.blob.core.windows.net/guldenklinkers/GK2016_nominatie_Het_Welpje.jpg;;https://nl-nl.facebook.com/BiologischeMoestuinhetWelpje/;;Nee;;Nee;Roggeveenstraat;;79872.4813496224;455229.149976429;4.291207265710734;52.08023198559944;346850;{46FC6D11-E8E2-4ABF-B820-962BCA347234}
2016-07-06;2522 VC;;4A;Beheer Groenbakken;;;;Leve Laak;http://www.denhaag.nl/webgis_static/afbeeldingen/kunstobjecten/https://gdh70wggisib.blob.core.windows.net/guldenklinkers/GK2016_LeveLaak1.jpg;Leve Laak (bewonersgroep);;@levelaak;Nee;;Nee;Drebbelstraat;;82436.3176906583;453353.472749883;4.329002286288407;52.063717548576065;1136225;{3A6DA2AD-69EE-4087-A2C8-D7AC0FD0F11F}
2016-07-04;;;46;Rijswijkse bewoners onderhouden een Haagse groenstrook langs de Trekvliet;;Zie boven;;Genieten aan de Trekvliet;http://www.denhaag.nl/webgis_static/afbeeldingen/kunstobjecten/https://gdh70wggisib.blob.core.windows.net/guldenklinkers/GK2016_Trekvliet1.jpg;Bewonersgroep;;;Nee;;Nee;Cromvlietkade;;83388.6492229226;452933.529058976;4.342976040503193;52.06006749418105;1136236;{75C4D2DA-798C-41EF-AD21-6197F18DC510}
2016-06-30;2526 ED;;4;Kinderen onderhouden Hannemanplantsoen en moestuin;http://www.paletnet.nl ;;;Basiisschool 't Palet;http://www.denhaag.nl/webgis_static/afbeeldingen/kunstobjecten/https://gdh70wggisib.blob.core.windows.net/guldenklinkers/GK2016_Palet2.jpg;Basisschool;;;Nee;;Nee;Doedijnstraat;;81204.691523484;453854.410193053;4.310936134107145;52.06805667240734;1136242;{20958459-46D3-4854-BA22-674E0C8CED2D}
2016-06-15;2562 LZ;;45;;http://www.krajicek.nl;Richard Krajicek Playground;;Jongeren onderhouden Hondiusterrein en omgeving;http://www.denhaag.nl/webgis_static/afbeeldingen/kunstobjecten/https://gdh70wggisib.blob.core.windows.net/guldenklinkers/GK2016_Hondiusstraat.jpg;Voor Welzijn;;;Nee;;Nee;Hondiusstraat;;79427.2268569494;454527.090273992;4.284868315250838;52.07386220316789;1136243;{836667EB-C487-4246-952B-F7CAA45CBA48}
2016-06-01;2526 NW;;225;Jongeren maken omgeving schoon en verdienen daarmee crownies;http://www.jeugdwerk.nl;;;Samson Tieners;http://www.denhaag.nl/webgis_static/afbeeldingen/kunstobjecten/https://gdh70wggisib.blob.core.windows.net/guldenklinkers/GK2016_SamsonTieners4.jpg;Stichting Jeugdwerk;;;Nee;;Ja;Van Ostadestraat;;80889.8406391339;453680.994187798;4.306382618279373;52.0664561908346;1136244;{9C99CCC6-F736-4D0D-B9B4-EBB017E21324}
2016-03-23;2516 RJ;;16;Mensen met een beperking houden de omgeving schoon;http://www.middin.nl;;;Mosaico;http://www.denhaag.nl/webgis_static/afbeeldingen/kunstobjecten/https://gdh70wggisib.blob.core.windows.net/guldenklinkers/GK2016_Mosaico4.jpg;http://www.middin.nl;;;Nee;;Nee;Pompstraat;;82804.1513728081;453604.756321136;4.334312428272211;52.06602384750013;1136245;{33064E70-C227-4150-84C5-EEFD1CE4E26D}
2016-04-13;;;229;Bewoners en kinderen onderhouden en beheren speeltuin;;;;Speeltuinbeheer Trekweg;http://www.denhaag.nl/webgis_static/afbeeldingen/kunstobjecten/https://gdh70wggisib.blob.core.windows.net/guldenklinkers/GK2016_Trekweg4.jpg;Bewonersgroep;;;Nee;;Nee;Trekweg;;82964.5958088193;453455.158856851;4.3366835053086055;52.06470032663458;1136246;{9D413628-F9F4-4794-84DA-CA754409D507}
2016-02-22;2551 HJ;;134;Bewoners onderhouden het pleintje in de Rossinilaan;;;;Rossiniplein;http://www.denhaag.nl/webgis_static/afbeeldingen/kunstobjecten/https://gdh70wggisib.blob.core.windows.net/guldenklinkers/GK2016_Rosinilaan5.jpg;bewonersgroep;;;Nee;;Nee;Rossinilaan;;76559.6949295364;453174.837251578;4.243359867313105;52.06131134196917;1136247;{80C3C858-E639-45B3-B0CD-7B9E1CF3FD20}
2016-04-11;2544 MJ;;7;;;;;Bewonersgroep Dassenrade;http://www.denhaag.nl/webgis_static/afbeeldingen/kunstobjecten/https://gdh70wggisib.blob.core.windows.net/guldenklinkers/GK2016_Dassenrade4.jpg;Bewonersgroep;;;Nee;;Nee;Dassenrade;;77717.2655160581;451687.461678953;4.260573293335033;52.04810747591485;1136248;{7851848B-9F4A-469C-AF94-4A0A8870751F}
2016-04-01;2497 WG;;289;Bewoners onderhouden groenstrook langs het water;;;;Bewonersgroep van Essendijk;http://www.denhaag.nl/webgis_static/afbeeldingen/kunstobjecten/https://gdh70wggisib.blob.core.windows.net/guldenklinkers/GK2016_VanEssendijk4.jpg;Bewonersgroep;;;Nee;;Nee;Van Essendijk;;84993.562612773;449860.242143724;4.367004601275877;52.03265318982334;1136249;{DB046E86-4BE2-441E-AD0E-146D36B9F686}
2016-03-22;2531 JZ;;70;Mensen met een beperking maken de Jan Luykenlaan schoon en de omgeving Guntersteinweg;http://www.middin.nl;;;Schoonmaakploeg Middin;http://www.denhaag.nl/webgis_static/afbeeldingen/kunstobjecten/https://gdh70wggisib.blob.core.windows.net/guldenklinkers/GK2016_Middin4.jpg;Middin;;;Nee;;Nee;Guntersteinweg;;80215.5795954959;451249.772769122;4.29708315004274;52.04451679215485;1136250;{C09BD7CD-6CC6-494E-814F-E23C72DEF999}
;2512 AV;;151 W;;;Tuingroep Wagenstraat;;Tuingroep Wagenstraat;http://www.denhaag.nl/webgis_static/afbeeldingen/kunstobjecten/https://gdh70wggisib.blob.core.windows.net/guldenklinkers/GK2016_Wagenstraat_151.jpg;Bewonersgroep;;;Nee;;Nee;Wagenstraat;;81497.840378415;454512.352803956;4.315069163995691;52.07400842974664;1199088;{94FB1D7F-E804-4BF7-8F7F-85B2E07486F5}
2016-10-14;2515 BJ;;75;;http://www.lusthofxl.nl;Vrienden van het Huijgenspark;;Vrienden van het Huijgenspark;http://www.denhaag.nl/webgis_static/afbeeldingen/kunstobjecten/https://gdh70wggisib.blob.core.windows.net/guldenklinkers/GK2016_Vrienden_Huygenspark.jpg;Bewonersgroep;https://facebook.com/LUSTHOFxl;https://twitter.com/LUSTHOFxl;Nee;;Nee;Stationsweg;;81771.9002774962;454411.449647546;4.3190877038849065;52.073137938875014;1199090;{738EEB03-2428-4ED4-A63B-E08B2ACF73E1}
2016-09-14;2545 NK;;65;;;Groenproject Fluitenbergstraat;;Groenproject Fluitenbergstraat;http://www.denhaag.nl/webgis_static/afbeeldingen/kunstobjecten/https://gdh70wggisib.blob.core.windows.net/guldenklinkers/GK2016_nominatie_Fluitenbergstraat.jpg;Bewonersgroep;;;Nee;;Nee;Fluitenbergstraat;;78995.8263170163;451971.582062246;4.2791456329219875;52.05083758760117;1199094;{FE406FCA-FB49-4FE9-B9FD-7C6D78309929}
2016-09-25;2544 EB;;175;;http://www.zebrawelzijn.nl;Jongerengroep Bario;;Barriojongeren;http://www.denhaag.nl/webgis_static/afbeeldingen/kunstobjecten/https://gdh70wggisib.blob.core.windows.net/guldenklinkers/GK2016_nominatie_Bariogroep.jpg;Stichting Mooi;;;Nee;;Ja;Kockstraat;;79689.212726491;454047.930822525;4.288794798013256;52.06959182279296;1199095;{DD4A8D0F-2563-4E55-9A48-7324E15CCF51}
2016-09-30;;;;;;;;;http://www.denhaag.nl/webgis_static/afbeeldingen/kunstobjecten/https://gdh70wggisib.blob.core.windows.net/guldenklinkers/GK2016_Burgemeester_Francoisplein.jpg;Bewonersgroep;;;Nee;;Nee;Burgemeester Françoisplein;;76534.2201016753;452395.718374248;4.243167438150409;52.054306092929444;1199098;{F1ADB315-AB2B-49F4-AB69-C474DF92B8C7}
;2571GH;;212;;;;;De la Reyschool;http://www.denhaag.nl/webgis_static/afbeeldingen/kunstobjecten/https://gdh70wggisib.blob.core.windows.net/guldenklinkers/GK2016_De_La_reyschool.jpg;;;;Nee;;Nee;De la Reyweg;;79616.6559072624;453699.79596716;4.287813616010114;52.06645336522778;1199881;{3B3C8FFA-F96B-4C6C-9D05-8069BC3290EE}
2017-03-13;2526 LL;;5;;;;;P.H. Schreuderschool;http://www.denhaag.nl/webgis_static/afbeeldingen/kunstobjecten/https://gdh70wggisib.blob.core.windows.net/guldenklinkers/GK-2017_Schreuderschool.jpg;School;;;Nee;;Nee;Hendrick Goltziusstraat;;81073.4165732953;453855.765265894;4.3090215861213546;52.06805134617212;2393842;{61CB49F1-AC5C-4D52-B799-D3AE7DE0A0A4}
2017-07-05;2518 VT;;194;Speeltuinbeheer;;Speeltuin;;Stichting Klein Tasmania;http://www.denhaag.nl/webgis_static/afbeeldingen/kunstobjecten/https://gdh70wggisib.blob.core.windows.net/guldenklinkers/GK_2017_Tasmania.jpg;Stichting;https://nl-nl.facebook.com/klein.tasmania;;Nee;;Nee;Tasmanstraat;;79784.820407451;455595.461805074;4.289847885944426;52.08351201920255;2393843;{045C78E4-AE1F-4B2D-9C50-A14A9349599C}
2017-06-12;2545 NZ;;212;;;Morgensterkerk;;Groenproject Morgensterkerk;http://www.denhaag.nl/webgis_static/afbeeldingen/kunstobjecten/https://gdh70wggisib.blob.core.windows.net/guldenklinkers/GK_2017_Morgensterkerk.jpg;Kerk;;;Nee;;Nee;Genemuidenstraat;;79188.2298621175;451667.249123592;4.282017684922313;52.04812898402367;2393844;{D13D9030-53D9-4729-B078-CECD3675627A}
2017-06-01;2542 TP;;3;Praktijk voor zelfredzaam vrouwen;;Gehuisvest in het karel van der Oeverhuis;;Anna's Gedoe;http://www.denhaag.nl/webgis_static/afbeeldingen/kunstobjecten/https://gdh70wggisib.blob.core.windows.net/guldenklinkers/GK_2017_AnnaGedoe.jpg;;https://nl-nl.facebook.com/Annas-Gedoe-1430302953853678/;;Nee;;Nee;Sterrenoord;;77558.6739098839;451132.970535673;4.258387407163172;52.043102310449584;2393845;{919FF174-668D-4B81-B7A7-FF68C40ED259}
2017-05-17;2551 WC;;64;Bewoners onderhouden groen en speeltuin;;;;Bewonersgroep Duke Ellingtonstraat;http://www.denhaag.nl/webgis_static/afbeeldingen/kunstobjecten/https://gdh70wggisib.blob.core.windows.net/guldenklinkers/GK_2017_DukeEllington.jpg;;;;Nee;;Nee;Duke Ellingtonstraat;;76131.5983623137;452603.142519217;4.237250428464605;52.056112976087064;2393849;{C8ED69DF-2FB8-4345-8195-83A38783E25E}
2017-05-10;2544 XM;;34;;;Speeltuin;;Speeltuinbeheer Meppelrade;http://www.denhaag.nl/webgis_static/afbeeldingen/kunstobjecten/https://gdh70wggisib.blob.core.windows.net/guldenklinkers/GK_2017_Meppelrade.jpg;;;;Nee;;Nee;Meppelrade;;77800.5766061389;451979.628522108;4.261721574455966;52.05074469442728;2393850;{31135838-4098-4E7B-BEAA-392DB2B7DF88}
2017-04-21;;;;Groenproject - tuinencomplex;http://www.lusthofxl.nl;Hoek Spinozastraat;;Spinozahof;http://www.denhaag.nl/webgis_static/afbeeldingen/kunstobjecten/https://gdh70wggisib.blob.core.windows.net/guldenklinkers/GK_2017_Spinozahof.jpg;Stichting Lusthof Xl;https://facebook.com/LUSTHOFxl;https://twitter.comLUSTHOFxl;Nee;;Nee;Repelaerstraat;;81500.9020885705;454337.180316855;4.3151515398958;52.072434601017875;2393853;{7979B25C-2759-4303-AB78-C1E63FBD0296}
2017-04-18;2495 AL;;5e ;Leden houden de omgeving schoon;http://www.tvronline.nl;;;Tennis Vereniging Residentie;http://www.denhaag.nl/webgis_static/afbeeldingen/kunstobjecten/https://gdh70wggisib.blob.core.windows.net/guldenklinkers/GK_2017_TennisVerenigingResidentie.jpg;Tennis vereniging;;;Nee;;Nee;Spoorlaan;;85269.649602923;453148.818664555;4.3703563917746955;52.06224220468658;2393858;{20ED25AC-C516-4960-B636-349EAD4455DA}
2017-04-03;2587 VS;;11;Onderhoud gemeenschappelijke tuin door kerkleden;http://ichthuskerkdenhaag.nl/;Kerk;;Tuinproject Ichtuskerk;http://www.denhaag.nl/webgis_static/afbeeldingen/kunstobjecten/https://gdh70wggisib.blob.core.windows.net/guldenklinkers/GK_2017_Ichtuskerk.jpg;;;;Nee;;Nee;Duinkerksestraat;;80253.2383418773;458631.558194957;4.296014948187983;52.11085991392334;2393861;{2C15B8FF-9F07-421E-8806-B5A02C78A2BF}
2017-03-31;;;;;;tegenover nummer 261;;Tuinvereniging Kruidenring;http://www.denhaag.nl/webgis_static/afbeeldingen/kunstobjecten/https://gdh70wggisib.blob.core.windows.net/guldenklinkers/GK_2017_DeKruidenring.jpg;Tuinvereniging;;;Nee;;Nee;Mient;;77948.9170683231;454013.003110943;4.263425072404281;52.069038592747205;2393888;{621F2CF1-542A-4F76-9312-3C957A8A069A}
2017-05-24;;;;Kinderen houden het plantsoen schoon;;Groenstrook achter de flats aan de Vrederustlaan (ingang naast Middenstede nummer 4);;SuperNatuurStedeKids;http://www.denhaag.nl/webgis_static/afbeeldingen/kunstobjecten/https://gdh70wggisib.blob.core.windows.net/guldenklinkers/GK-2017_ SuperNatuurStedeKids.jpg;;;;Nee;;Nee;Middenstede;;77900.8649721359;450985.629828254;4.263407633368135;52.04182590436649;2393891;{EE0CBF25-E39A-41CE-9D99-D1746D592C6E}
2017-10-06;2552 AV;;1184;Stadsboerderij;http://www.plukdenhaag.nl;;;Pluk Den Haag (Stichting Team Terra);http://www.denhaag.nl/webgis_static/afbeeldingen/kunstobjecten/https://gdh70wggisib.blob.core.windows.net/guldenklinkers/_91A0228.jpg;Stichting;;;Nee;;Nee;Madestein Recreatiegebied noordoost;;75544.3143980411;451975.044529289;4.228835188169726;52.0503846210272;2574142;{D3F8AA33-FAC5-47E2-B110-ED8369A5168E}
2017-09-22;2565 AB;;3;Tennis Vereniging;http://www.hanenburg.com;;;HTV Hanenburg;http://www.denhaag.nl/webgis_static/afbeeldingen/kunstobjecten/https://gdh70wggisib.blob.core.windows.net/guldenklinkers/_91A0386.jpg;Vereniging;https://nl-nl.facebook.com/htv.hanenburg;;Nee;;Nee;Daal en Bergselaan;;77212.7861017371;454550.116752214;4.25256831298099;52.07376254319667;2574147;{DE9B5D96-D488-4908-8192-BD88170ED489}
2017-09-15;2573 AH;;245;Basisschool;http://www.delareyschool.nl;;;Dependance DelaReyschool ;http://www.denhaag.nl/webgis_static/afbeeldingen/kunstobjecten/https://gdh70wggisib.blob.core.windows.net/guldenklinkers/BvV_20170915_Gulden_Klinker_Voorthuizenstraat_04.jpg;School;;;Nee;;Nee;Voorthuizenstraat;;79181.4150303144;453563.916406899;4.281497370660251;52.06517285765815;2574164;{841EC1B4-39C7-4A18-9B5C-07086592988D}
2017-09-27;;;;Kinderen hebben het plein geadopteerd;http://www.stichtingmooi.nl;p/a Thijssestraat 47, 2521 ZE Den Haag;;Kids van het Slachthuisplein;http://www.denhaag.nl/webgis_static/afbeeldingen/kunstobjecten/https://gdh70wggisib.blob.core.windows.net/guldenklinkers/20170927_BvV_Gulden_Klinker_Slachthuisplein_05.jpg;Welzijnsorganisatie;;;Nee;;Ja;Slachthuisplein;;82058.5578681424;453360.457192522;4.323492803732314;52.063730708806496;2574172;{D3E48CC3-3109-4543-99C1-1CEBCC5C3A5F}
2018-07-26;;;43;;http://www.pcbsdevlieger.nl;Schoolplein;;Basisschool de Vlieger;http://www.denhaag.nl/webgis_static/afbeeldingen/kunstobjecten/https://gdh70wggisib.blob.core.windows.net/guldenklinkers/GK2018_BvV_20180626_Gulden_Klinker_De_Vlieger_13.jpg;Basisschool;;;Nee;;Nee;Frits Diepenlaan;;84941.4199860133;450729.54194044;4.366066740000431;52.0404589505208;3056886;{EBC38ABA-185A-4226-8F7F-3BCB00E1237B}
2018-06-20;;;;;;;;Stichting Vader en Zoon;http://www.denhaag.nl/webgis_static/afbeeldingen/kunstobjecten/https://gdh70wggisib.blob.core.windows.net/guldenklinkers/GK2018_laak_91A9943VaderZoon.jpg;Stichting ;;;Nee;;Ja;Boerhaavestraat;;82292.6800673232;454043.527684111;4.326760996191174;52.06990010755904;3056898;{9D4B121B-C24C-4279-A40A-54C40A00CAC5}
2018-06-11;;;163;;;;;VVE Fluitschiplaan;http://www.denhaag.nl/webgis_static/afbeeldingen/kunstobjecten/https://gdh70wggisib.blob.core.windows.net/guldenklinkers/GK2018_91A9364FluitschipVVE.jpg;VVE;;;Nee;;Nee;Fluitschiplaan;;86365.1069503091;452150.180741619;4.386529278738616;52.05340427940746;3056903;{0BEB78B9-22B7-4154-8D10-A11FC4E46EE3}
1994-06-01;;;189B;;;;;Sunny Court ;http://www.denhaag.nl/webgis_static/afbeeldingen/kunstobjecten/https://gdh70wggisib.blob.core.windows.net/guldenklinkers/GK2018_gulden_klinker_sunnycourt_91A9466.jpg;;;;Ja;;Nee;Laan van Meerdervoort;;79462.005085703;455353.12334067;4.285192649744689;52.081290253024214;3056904;{5BD54BED-1D98-4C05-BD0C-562363CAAED3}
2018-05-25;;;198;Bewonersgroep;;Waterpartij;;Watertuin Puccinistraat;http://www.denhaag.nl/webgis_static/afbeeldingen/kunstobjecten/https://gdh70wggisib.blob.core.windows.net/guldenklinkers/GK2018_91A7662WatertuinPuccini.jpg;;;;Nee;;Nee;Puccinistraat;;76428.106009081;453280.693324745;4.241417003736929;52.06224398303452;3056910;{071D2129-9D33-445D-BE88-D0AC1B23DFA6}
2018-04-13;;;;;;Wijktuin;;Stadstuin De Groene Geest;http://www.denhaag.nl/webgis_static/afbeeldingen/kunstobjecten/https://gdh70wggisib.blob.core.windows.net/guldenklinkers/GK2018_91A5507GroenGeest.jpg;Tuingroep;;;Nee;;Nee;Georges Bizetstraat;;76412.4086593427;452977.139801148;4.241257991580304;52.05951384056849;3056913;{30E96E17-E39A-4F53-A4FB-7886AA7FBAFC}
2018-05-16;;;208;Tuinproject;;;;Tuin met Keu's;http://www.denhaag.nl/webgis_static/afbeeldingen/kunstobjecten/https://gdh70wggisib.blob.core.windows.net/guldenklinkers/GK2018_BvV_20180516_Gulden_Klinker_Genemuidenstraat_09.jpg;Bewonersgroep;;;Nee;;Nee;Genemuidenstraat;;79106.0992148295;451709.068071585;4.2808113086933846;52.048493559320846;3056914;{60E5873A-798E-41DD-8A6D-03A2ADEA4AA1}
2018-03-28;;;;Tuinproject;;Tuinproject achter flatgebouw;;De Verborgen Tuin;http://www.denhaag.nl/webgis_static/afbeeldingen/kunstobjecten/https://gdh70wggisib.blob.core.windows.net/guldenklinkers/GK2018_BvV_20180328_GDH_Gulden_Klinker_08VerborgenTuin.jpg;;;;Nee;;Nee;Loenensestraat;;79171.5381510742;453257.529257584;4.281421395844758;52.06241809554472;3056915;{92DE8069-39FF-4EA7-B40A-34CE1880EE46}
2018-05-03;;;87-89;Schoonmaakproject ;http://www.middin.nl;;;Participatiecentrum Middin;http://www.denhaag.nl/webgis_static/afbeeldingen/kunstobjecten/https://gdh70wggisib.blob.core.windows.net/guldenklinkers/GK2018_gulden klinker middin_91A9891.jpg;Middin ;;;Nee;;Nee;Weesperstraat;;78904.9094947875;453584.449972808;4.277461077863993;52.06531947464388;3056916;{3CA5FA63-73AD-42BA-8472-E236417B3C1C}
2018-04-20;;;9;;;;;Praktijkschool de Einder;http://www.denhaag.nl/webgis_static/afbeeldingen/kunstobjecten/https://gdh70wggisib.blob.core.windows.net/guldenklinkers/GK2018_BvV_20180420_Gulden_Klinker_De_Einder_07.jpg;School;https://www.facebook.com/SportNaSchool;;Nee;;Nee;Spionkopstraat;;80156.7870193049;453113.061206885;4.29581811268129;52.061253771771035;3056921;{BDFA6B98-9560-4AB5-84CC-65CD5070DE0D}
2018-04-11;;;;Gulden Klinker ligt op stadsdboerderij OpdenDijk;;Stadsboerderij;;Het Op den Schone Dijk Team;http://www.denhaag.nl/webgis_static/afbeeldingen/kunstobjecten/https://gdh70wggisib.blob.core.windows.net/guldenklinkers/GK2018_BvV_20180411_Gulden_Klinker_OpDenDijk_05.jpg;Bewonersgroep (en kinderen);;;Nee;;Nee;Rijner Wateringkade;;80358.5638583563;449276.41088485;4.299597790085185;52.02680188342891;3056922;{CD4C7A8E-DC3D-4EC6-B16D-C88199DEDC30}
2018-04-06;;;;Groep vrijwilligers die het duingebied beheren en onderhouden;;;;Werkgroep Ecologisch Beheer Westduinpark;http://www.denhaag.nl/webgis_static/afbeeldingen/kunstobjecten/https://gdh70wggisib.blob.core.windows.net/guldenklinkers/GK2018_Gulden Klinker Westduinpark009.jpg;Vrijwilligersgroep;;;Nee;;Nee;Laan van Poot;;77085.475650873;455400.932698045;4.250517384191577;52.08139059598394;3056931;{0786CE93-B8AD-4ABE-901D-58D371A51059}
;;;4;;http://www.buitenplaatsockenburgh.nl;Op het landgoed Ockenburgh achter het grote witte gebouw – buitenhuis;;Tuin van Ock;http://www.denhaag.nl/webgis_static/afbeeldingen/kunstobjecten/https://gdh70wggisib.blob.core.windows.net/guldenklinkers/GK2018_BvV_20180907_Gulden_Klinker_Ockenburgh__10.jpg;;;;Nee;;Nee;Monsterseweg;;74815.4946716452;452335.055289928;4.218127492316302;52.053514912571615;3258910;{C2C6CADB-57DF-4424-9DDA-5375CD00E0AE}
2019-07-05;;;;Vrijwilligers maken 95 dagen het strand schoon;https://www.trashurehunt.org;;;TrashUre Hunt;http://www.denhaag.nl/webgis_static/afbeeldingen/kunstobjecten/https://gdh70wggisib.blob.core.windows.net/guldenklinkers/BvV_20190705_Gulden_Klinker_Thrashurehunt_10.jpg;;https://www.facebook.com/trashurehunt/;;Nee;;Nee;Strandweg;;78686.715720412;458345.133057618;4.273214370541641;52.108072058709496;3618115;{C86FA962-991B-4991-B1D7-6E88CA408238}
;;;86;groen, milieu, educatie, participatie;http://waldecktuin.nl/;;;Waanzinnige Waldecktuin;http://www.denhaag.nl/webgis_static/afbeeldingen/kunstobjecten/https://gdh70wggisib.blob.core.windows.net/guldenklinkers/BvV_20190509_Gulden_Klinker_Waldeck_Tuin_05.jpg;;https://nl-nl.facebook.com/WaanzinnigeWaldeckTuin/;;Nee;;Nee;Hector Berliozkade;;76388.257353218;452636.59695502;4.240984267733103;52.05645008881693;3618116;{991E2110-3929-42D1-BC03-667EFFF0A146}
;;;1;Groen schoolplein;http://www.montessorileidschenveen.nl/;;;Montessorischool	;http://www.denhaag.nl/webgis_static/afbeeldingen/kunstobjecten/https://gdh70wggisib.blob.core.windows.net/guldenklinkers/BvV_20190314_Cicerostrook_Leidschenveen_10.jpg;;;;Nee;20190314000000;Nee;Cicerostrook;;87006.9916768015;452924.092513698;4.395732349749298;52.06043853428089;3618117;{5F12DA2E-73A5-4E95-807E-53619B40536A}
2019-03-25;;;;Groen schoolplein;http://www.eloutdenhaag.nl;;;Groene schoolplein de Elout;http://www.denhaag.nl/webgis_static/afbeeldingen/kunstobjecten/https://gdh70wggisib.blob.core.windows.net/guldenklinkers/BvV_20190324_Gulden_Klinker_Elout_07.jpg;;;;Nee;;Nee;Copernicusstraat;;78888.4362491597;454850.642360389;4.276938542010602;52.076696079954054;3618118;{C2C90420-BC97-4B2A-9A53-A0BA5A1986F5}
2019-04-03;;;;schoon, milieu sport en bewegen;https://www.youtube.com/watch?v=ueFBvYmdxN4;;;Skatebaan de Reef Ypenburg;http://www.denhaag.nl/webgis_static/afbeeldingen/kunstobjecten/https://gdh70wggisib.blob.core.windows.net/guldenklinkers/BvV_20190403_GDH_Gulden_Klinker_Skatebaan_11.jpg;;;;Nee;;Nee;Kiekendiefstraat;;86326.2804927024;451941.036865876;4.386005322156832;52.05151990096445;3618121;{834FF551-29BC-4F35-BD25-697930805680}
2019-04-08;;;12;schoon, heel, veilig en participatie;http://www.buurtvaderswest.nl;;;Buurtvaders Schilderswijk West (BSW);http://www.denhaag.nl/webgis_static/afbeeldingen/kunstobjecten/https://gdh70wggisib.blob.core.windows.net/guldenklinkers/GK2019_BuurtvadersSchilderswijk .jpg;;;;Nee;;Nee;Delftselaan;;80429.9255206646;454099.841208288;4.299584889183559;52.07015854132161;3618122;{1796512F-7D0D-4B74-84C9-01B3BB847048}
2019-04-12;;;31;groen, milieu, participatie, samen;;Voor de speeltuin;;Het Beemsterhof – groenproject;http://www.denhaag.nl/webgis_static/afbeeldingen/kunstobjecten/https://gdh70wggisib.blob.core.windows.net/guldenklinkers/GK2019_Beemsterhof.jpg;;;;Nee;;Nee;Beemsterhof;;87503.0282991044;453113.906771596;4.402926992270492;52.062205042928184;3618156;{A584C8A3-7C25-41F0-8CDE-CEB38658A50D}
2019-04-17;;;86;groene wijk, boomspiegels;http://www.meergroenzelfdoen.nl;;;Meer groen/Zelf doen	;http://www.denhaag.nl/webgis_static/afbeeldingen/kunstobjecten/https://gdh70wggisib.blob.core.windows.net/guldenklinkers/GK2019_MeergroenZelfdoen.jpg;;;;Nee;;Nee;Valeriusstraat;;79028.896911286;455892.480266285;4.27875511404998;52.08607802154655;3618157;{D8F0DB82-A85D-41F9-A9BA-723AD485FDA2}
2019-05-29;;;18;groen, milieu, duurzaamheid, ontspanning;https://www.greensinthepark.nl/#tuin;;;Stichting Tuinen van Greens ;http://www.denhaag.nl/webgis_static/afbeeldingen/kunstobjecten/https://gdh70wggisib.blob.core.windows.net/guldenklinkers/BvV_20190529_Gulden_Klinker_Tuinen_van_Greens_11.jpg;;;;Nee;;Nee;Kapelweg;;79747.7197600166;458180.223684486;4.288736140658849;52.10673539706865;3618158;{B3798855-2EA2-4EE4-B7D2-BD64D762D6D3}
2019-06-07;;;106;participatie, schoon, heel en veilig;;;;Bewonersgroep Middenweg/Osloweg  - ;http://www.denhaag.nl/webgis_static/afbeeldingen/kunstobjecten/https://gdh70wggisib.blob.core.windows.net/guldenklinkers/GK2019_BewonersgroepMiddenwegOsloweg.jpg;;;;Nee;;Nee;Middenweg;;80288.3872267154;448602.94166;4.298722470006314;52.02074010065797;3618159;{1BFA2401-B85A-4489-AB84-EB40E0C3533B}
2019-06-17;;;49;participatie, groen, schoon, heel en veilig;https://haagsehanden.nl/iedereen-ging-iedere-dag-met-gieters-en-keukentrapjes-de-straat-op-4bfda40a3868;;;Meidoorn Plein Commissie ;http://www.denhaag.nl/webgis_static/afbeeldingen/kunstobjecten/https://gdh70wggisib.blob.core.windows.net/guldenklinkers/GK2019_MeidoornPleinCommissie.jpg;;;;Nee;;Nee;Hulststraat;;78668.7436380647;454034.342165884;4.27391695595764;52.06933002136304;3618160;{75052B4B-2052-4E5B-B791-9FDA36D8733E}
2019-09-18;;;;Onderhoud speeltuin en het hofje;;Damloperhof hoek Fregatsingel;;Bewonersgroep Damloperhof	;http://www.denhaag.nl/webgis_static/afbeeldingen/kunstobjecten/https://gdh70wggisib.blob.core.windows.net/guldenklinkers/GK2019_Damloperhof.jpg;;;;Nee;;Nee;Fregatsingel;;86695.1573667881;452078.666338671;4.391354904703601;52.05280235985473;3707647;{DDC701EA-68B6-4C06-AD5D-BAD1372C08FD}
2019-09-13;;;;Beheer van het Doornduin;;Eind van Dorpstraat voor opgang naar het Doornduin;;Het Doornduin;http://www.denhaag.nl/webgis_static/afbeeldingen/kunstobjecten/https://gdh70wggisib.blob.core.windows.net/guldenklinkers/GK2019_Doornduin.jpg;;;;Nee;;Nee;Van Dorpstraat;;79010.487465063;457407.400784639;4.2781489211512955;52.099689561011445;3707648;{009BD7FB-1E6B-4F4F-9E47-DF67202B2DF8}
2019-09-23;;;41;Onderhoud groen;https://stichtingantonconstandse.nl/;;;Bewoners Mieogvaart;http://www.denhaag.nl/webgis_static/afbeeldingen/kunstobjecten/https://gdh70wggisib.blob.core.windows.net/guldenklinkers/GK2019_Mieogvaart.jpg;;;;Nee;;Nee;Mieogvaart;;85069.674515741;450011.051208096;4.3680827696417355;52.03401810721582;3707655;{85383B75-5992-45BB-8CF6-40563D698F1A}
2019-10-07;;;24;Onderhoud plantenbakken en schoonhouden van de wijk;https://haagsevaders.nl/;;;Vadercentrum Adam;http://www.denhaag.nl/webgis_static/afbeeldingen/kunstobjecten/https://gdh70wggisib.blob.core.windows.net/guldenklinkers/GK2019_BuurtvadersLaak.jpg;;;;Nee;;Nee;Jonckbloetplein;;81919.9349680651;452824.255887107;4.321586333792451;52.05889370453954;3707660;{D48D5093-7A60-4404-AF0B-91B2DD20CA83}
