POLE_NUMBE,STREETNAME,lat,lon
0371-0020,Charlotte de Bourbonlaan,52.08118905350,5.25619581060
0371-0022,Charlotte de Bourbonlaan,52.08140816460,5.25687052766
1151-0014,Heideweg,52.07488310210,5.25535925443
1151-0015,Heideweg,52.07504469730,5.25569081659
1151-0012,Heideweg,52.07462843780,5.25461798402
1151-0013,Heideweg,52.07474833680,5.25497365048
0411-0006,Breullaan,52.06791919770,5.26110876923
1201-0010,Hertenlaan,52.13715770050,5.25355040323
1201-0015,Hertenlaan,52.13616547500,5.25492812170
2632-0011,Prinses Beatrixlaan,52.08090309760,5.25270513715
2632-0014,Prinses Beatrixlaan,52.08055645410,5.25369689447
0051-0017,Anna Paulownalaan,52.07295305120,5.26239225953
0051-0019,Anna Paulownalaan,52.07255758050,5.26289805242
2501-0029,Burgemeester Patijnlaan,52.09729286390,5.23888026975
2501-0027,Burgemeester Patijnlaan,52.09717733030,5.23825334357
2501-0026,Burgemeester Patijnlaan,52.09711356680,5.23792145754
2501-0024,Burgemeester Patijnlaan,52.09694476390,5.23715932590
2501-0022,Burgemeester Patijnlaan,52.09675212020,5.23645170388
0931-0003,Jan Willem Frisolaan,52.08141841870,5.25783791767
0931-0009,Jan Willem Frisolaan,52.08019795010,5.25902311543
0931-0012,Jan Willem Frisolaan,52.07963475200,5.25957377552
0531-0001,Louise de Colignyplein,52.07926253930,5.25111565829
0531-0006,Louise de Colignyplein,52.07825366430,5.25242423781
0861-0001,Ernst Casimirlaan,52.07895382200,5.25217846946
2935-0001,Schermerslaan,52.09485579440,5.22749979982
2935-0002,Schermerslaan,52.09477820310,5.22797704727
2935-0015,Schermerslaan,52.09553400730,5.22973788840
2935-0025,Schermerslaan,52.09620097710,5.23141519083
2935-0031,Schermerslaan,52.09638816980,5.23284902073
2935-0033,Schermerslaan,52.09657437740,5.23296986453
2251-0007,Nepveulaan,52.10024610980,5.24469593518
2251-0010,Nepveulaan,52.10026950780,5.24608878847
2251-0012,Nepveulaan,52.10043078790,5.24692470218
2251-0013,Nepveulaan,52.10060725810,5.24729514776
2251-0018,Nepveulaan,52.10109087080,5.24893118386
2251-0020,Nepveulaan,52.10125707640,5.24964565890
2131-0006,Van der Merschlaan,52.09559044810,5.23807621529
2131-0005,Van der Merschlaan,52.09532070710,5.23795869744
2541-0003,Van de Polllaan,52.09704838240,5.24041319912
0802-0007,Egelinglaan,52.09603953060,5.23809191852
0802-0015,Egelinglaan,52.09530506400,5.24088526336
1221-0024,Van der Heijdenlaan,52.09716388590,5.24256968950
1221-0022,Van der Heijdenlaan,52.09697969760,5.24184979996
2131-0007,Van der Merschlaan,52.09586428120,5.23820160418
2131-0008,Van der Merschlaan,52.09610842280,5.23836162839
2131-0010,Van der Merschlaan,52.09659529080,5.23889764063
1221-0010,Van der Heijdenlaan,52.09602268470,5.24004940115
1221-0015,Van der Heijdenlaan,52.09617673890,5.24126971429
2231-0007,Ds. Nahuyslaan,52.09514181950,5.23656993319
3551-0009,Joost van den Vondellaan,52.09478476110,5.23541082891
3551-0017,Joost van den Vondellaan,52.09619019800,5.23417738188
1371-0005,Constantijn Huygenslaan,52.09291157270,5.23458757738
1371-0013,Constantijn Huygenslaan,52.09493027630,5.23372533752
0962-0002,De Genestetlaan,52.09298396150,5.23061588577
0962-0006,De Genestetlaan,52.09365618070,5.23174035156
0291-0008,Borneolaan,52.10027606780,5.25086197703
1696-0002,Burg Korthals Altesln,52.09667514260,5.24987340133
1696-0003,Burg Korthals Altesln,52.09692827610,5.24967287388
3442-0002,Valckenboschlaan,52.09774030900,5.25006274662
2391-0050,Oude Arnhemseweg,52.09437763930,5.22893513529
0501-0019,Jacob Catslaan,52.09433442270,5.22954440410
2881-0038,Schaerweijdelaan,52.09365092910,5.23909085810
2881-0039,Schaerweijdelaan,52.09379400170,5.23940704267
2881-0047,Schaerweijdelaan,52.09446096700,5.24060246748
1761-0007,Mw. Kuipers-Rietberglaan,52.10360801560,5.24656902737
1111-0004,Walraven van Halllaan,52.10327883690,5.24622874310
0781-0003,Leendert Edelmanlaan,52.10309007990,5.24716577924
1761-0010,Mw. Kuipers-Rietberglaan,52.10357963670,5.24689049991
3451-0002,Gerrit Jan vd Veenln,52.10251445680,5.24388922158
3451-0003,Gerrit Jan vd Veenln,52.10270262090,5.24377226261
3451-0005,Gerrit Jan vd Veenln,52.10311647080,5.24353307193
2891-0005,Hannie Schaftlaan,52.10284225230,5.24162616580
1431-0002,Javalaan,52.09970738200,5.24752046237
3211-0004,Sumatralaan,52.10001497790,5.24795674084
2901-0001,Schaperlaan,52.10040683910,5.24131727720
1691-0023,Korte Bergweg,52.10733112450,5.25521548124
1691-0021,Korte Bergweg,52.10783483640,5.25503041916
1691-0008,Korte Bergweg,52.11054401900,5.25329185207
1691-0011,Korte Bergweg,52.10992820410,5.25375772716
2651-0014,Prinses Margrietlaan,52.07402545010,5.26644886921
2661-0024,Prinses Marijkelaan,52.07348676230,5.26484707814
2486-0002,Parmentiersvak,52.09689289170,5.22180618163
2486-0007,Parmentiersvak,52.09718610740,5.22246146469
2391-0070,Oude Arnhemseweg,52.09666992110,5.22450207846
1421-0029,Jagersingel,52.08681965960,5.26479855017
1421-0036,Jagersingel,52.08547623410,5.26613979189
1421-0040,Jagersingel,52.08471197180,5.26700894655
1421-0040,Jagersingel,52.08453033820,5.26729460200
1701-0017,Kouwenhovenselaan,52.08101950750,5.21740628581
2351-0017,Oranje Nassaulaan,52.07643108730,5.25971954584
1701-0020,Kouwenhovenselaan,52.08093877170,5.21727980469
1701-0018,Kouwenhovenselaan,52.08099418950,5.21736788751
1701-0019,Kouwenhovenselaan,52.08096469220,5.21732023422
1701-0021,Kouwenhovenselaan,52.08091553320,5.21724370652
0861-0015,Ernst Casimirlaan,52.08059845160,5.25722693174
2501-0014,Burgemeester Patijnlaan,52.09567403330,5.23408313117
2501-0001,Burgemeester Patijnlaan,52.09434804130,5.22930846336
1951-0008,Lievendaallaan,52.09531315600,5.24128742231
0371-0014,Charlotte de Bourbonlaan,52.08051138320,5.25411026581
0551-0031,Comeniuslaan,52.10091362540,5.21736076989
0711-0025,De Dreef,52.10059193180,5.22461193834
0711-0071,De Dreef,52.10045112120,5.22513862154
0711-0029,De Dreef,52.10066170910,5.22648377205
0711-0076,De Dreef,52.10066828380,5.22818445228
2051-0011,Marmontweg,52.07687140210,5.31622356482
0111-0004,Austerlitzseweg,52.08775802390,5.29430176476
2961-0004,Schooldwarsweg,52.07923581840,5.31454287697
2961-0005,Schooldwarsweg,52.07906362190,5.31497807709
2401-0007,Oude Postweg,52.08607858360,5.30511422168
2401-0008,Oude Postweg,52.08577472290,5.30523268083
2401-0016,Oude Postweg,52.08397645820,5.30679640727
0111-0032,Austerlitzseweg,52.08348896280,5.30643756001
0111-0030,Austerlitzseweg,52.08380450780,5.30566374002
0111-0021,Austerlitzseweg,52.08516273510,5.30194477754
2401-0022,Oude Postweg,52.08258398640,5.30823724648
2401-0024,Oude Postweg,52.08211965360,5.30889059580
2401-0026,Oude Postweg,52.08170879190,5.30963606351
2401-0027,Oude Postweg,52.08157136460,5.31006255200
2401-0032,Oude Postweg,52.08027699390,5.31089760909
2401-0035,Oude Postweg,52.07970509450,5.31191664321
1041-0018,Gramserweg,52.07842283070,5.31178587402
1041-0017,Gramserweg,52.07857259750,5.31209453391
1041-0016,Gramserweg,52.07881532560,5.31223411305
3652-0011,Waterlooweg,52.07699101550,5.31369163461
1041-0008,Gramserweg,52.08046244670,5.31407062886
1041-0004,Gramserweg,52.08136366350,5.31517088514
1041-0001,Gramserweg,52.08190077100,5.31601319140
0091-0085,Arnhemse Bovenweg,52.07607706600,5.25381671629
2191-0016,Molenweg,52.07906152540,5.24953194147
1201-0031,Hertenlaan,52.13139791940,5.25675781896
2091-0003,Jan Meerdinklaan,52.08912991940,5.23133631058
0091-0078,Arnhemse Bovenweg,52.08194023550,5.24667934544
0711-0033,De Dreef,52.10091859960,5.22870091123
0711-0079,De Dreef,52.10083618450,5.23005999278
0711-0037,De Dreef,52.10108738610,5.23099524183
0711-0045,De Dreef,52.10170582540,5.23460477529
0711-0047,De Dreef,52.10194916480,5.23570854074
0711-0052,De Dreef,52.10251364700,5.23809230040
2381-0005,P J Oudlaan,52.10123700780,5.23865617224
3301-0002,Tilanuslaan,52.10155535510,5.23920813867
1451-0002,Jordanlaan,52.09801708320,5.21290736709
1451-0007,Jordanlaan,52.09809332410,5.21356981190
2361-0001,Oranje Nassauplein,52.08075136790,5.26439141094
2361-0003,Oranje Nassauplein,52.08049226530,5.26512267608
0125-0004,Bachlaan,52.09862776910,5.21897876360
0125-0009,Bachlaan,52.09860382450,5.21772373516
0125-0013,Bachlaan,52.09886612440,5.21671047783
0125-0019,Bachlaan,52.09894335090,5.21552890958
0125-0024,Bachlaan,52.09921371120,5.21393690245
0514-0002,Chopinlaan,52.09901022390,5.21838280871
0514-0010,Chopinlaan,52.09894458380,5.21959332174
0514-0020,Chopinlaan,52.09989928930,5.21768478059
0514-0021,Chopinlaan,52.09983336220,5.21741606807
0514-0030,Chopinlaan,52.09988043910,5.21454107353
0514-0032,Chopinlaan,52.09951770740,5.21402470736
2994-0002,Schubertlaan,52.09952174130,5.21490744942
3205-0006,Strausslaan,52.09961151650,5.21623760604
2216-0002,Mozartlaan,52.09929461570,5.21642311423
3121-0002,Stationslaan,52.08876903370,5.24925164580
3121-0003,Stationslaan,52.08857356100,5.24958265456
3011-0086,Slotlaan,52.08939707210,5.24972082930
1691-0016,Korte Bergweg,52.10884721980,5.25441484674
1354-0006,Hubertweg,52.07828827190,5.31898511436
0138-0007,Dirkje van Barneveldweg,52.07859130470,5.31834560880
0138-0010,Dirkje van Barneveldweg,52.07840296630,5.31951277386
3196-0001,Johannes Stoopweg,52.07843217270,5.31731341507
1151-0003,Heideweg,52.07351612580,5.25115427714
1151-0009,Heideweg,52.07427991600,5.25347385003
2341-0014,Johan v Oldenbarneveltln,52.09788350210,5.23803680332
2341-0010,Johan v Oldenbarneveltln,52.09760031040,5.23680727279
2341-0001,Johan v Oldenbarneveltln,52.09672477750,5.23384677273
2039-0011,Nelson Mandelalaan,52.09138003450,5.25012220347
0985-0015,Gandhilaan,52.09070248880,5.24977383362
0985-0017,Gandhilaan,52.09114918510,5.24976614406
0061-0034,Antonlaan,52.09031166020,5.24920245246
0061-0035,Antonlaan,52.09030018500,5.24960472876
0091-0036,Arnhemse Bovenweg,52.07504669980,5.25632756462
0091-0037,Arnhemse Bovenweg,52.07521311640,5.25659850044
3808-0001,Zeyster Zand,52.09635553050,5.22263326273
3808-0004,Zeyster Zand,52.09579300350,5.22336141578
2651-0052,Prinses Margrietlaan,52.07870034870,5.27374424625
2651-0048,Prinses Margrietlaan,52.07856882810,5.27322364305
2651-0028,Prinses Margrietlaan,52.07545283870,5.26867806078
0953-0009,Galgeveld,52.09539472450,5.22495313109
2896-0003,Schapendrift,52.09661832650,5.22330626030
2896-0006,Schapendrift,52.09602957250,5.22415579530
0091-0009,Arnhemse Bovenweg,52.07146948240,5.26295433711
0091-0013,Arnhemse Bovenweg,52.07215525690,5.26154910850
0091-0014,Arnhemse Bovenweg,52.07249235370,5.26115536445
0091-0020,Arnhemse Bovenweg,52.07339173200,5.25941270378
0091-0028,Arnhemse Bovenweg,52.07405857150,5.25821306431
0311-0001,Boskant,52.08193465030,5.26342376075
2621-0001,Prins Mauritslaan,52.07939752110,5.25711805009
2621-0002,Prins Mauritslaan,52.07919979050,5.25729769661
2621-0007,Prins Mauritslaan,52.07791140930,5.25839118017
0921-0005,Frederik Hendriklaan,52.07770673200,5.25445233464
0921-0012,Frederik Hendriklaan,52.07855507010,5.25705595159
0921-0006,Frederik Hendriklaan,52.07780466230,5.25475705052
3401-0003,Tussen de Dennen,52.08136030570,5.25993277006
3401-0007,Tussen de Dennen,52.08055560370,5.26071806460
2651-0031,Prinses Margrietlaan,52.07600173140,5.26953232393
2651-0034,Prinses Margrietlaan,52.07657369410,5.26929722662
2651-0018,Prinses Margrietlaan,52.07420888400,5.26673572167
0181-0047,Bergweg,52.09632319470,5.24455817884
3431-0073,Utrechtseweg,52.09298745370,5.22195947837
3431-0093,Utrechtseweg,52.09635798500,5.21534112323
3431-0094,Utrechtseweg,52.09654310040,5.21495140657
3431-0098,Utrechtseweg,52.09709678620,5.21372936075
0726-0003,Duifhuis,52.09490302200,5.21483731076
3496-0004,Vinkenlaag,52.09489691970,5.21563917051
1841-0006,Laan van Eikenstein,52.09503773360,5.22371963887
1841-0008,Laan van Eikenstein,52.09565225400,5.22304877821
0711-0056,De Dreef,52.10248815910,5.23909739217
1871-0036,Laan van Vollenhove,52.10239151480,5.23076191417
1871-0040,Laan van Vollenhove,52.10187252490,5.23123098745
1871-0051,Laan van Vollenhove,52.10289089450,5.22702527668
1871-0063,Laan van Vollenhove,52.10208030700,5.22699808463
1961-0015,Jan Ligthartplein,52.10153682880,5.21925600988
1871-0081,Laan van Vollenhove,52.09971061510,5.22055812853
2212-0006,Montessorilaan,52.10079318320,5.21826845031
2212-0007,Montessorilaan,52.10088229960,5.21789301727
2212-0010,Montessorilaan,52.10071739000,5.21678122545
2212-0012,Montessorilaan,52.10050965780,5.21619115760
0551-0013,Comeniuslaan,52.10239365250,5.22217430949
0891-0005,Fornheselaan,52.13988105740,5.24337674867
0891-0006,Fornheselaan,52.14004255190,5.24354633509
0181-0038,Bergweg,52.09535248600,5.24334566186
0181-0041,Bergweg,52.09567131010,5.24375154219
1291-0015,1e Hogeweg,52.08565075290,5.24051636632
1291-0030,1e Hogeweg,52.08528865450,5.24235538099
1291-0022,1e Hogeweg,52.08525092370,5.24170613968
1291-0024,1e Hogeweg,52.08511730510,5.24195733008
1581-0009,Kerkweg,52.08504921320,5.24157072310
1581-0001,Kerkweg,52.08374441310,5.23853932391
1613-0001,M L KINGLAAN,52.09069899860,5.24830554316
2291-0002,Nooitgedacht,52.08218225740,5.24145787637
2291-0007,Nooitgedacht,52.08273825730,5.24323953512
0606-1807,Crosestein,52.09045068950,5.21976434903
0606-1703,Crosestein,52.09049669810,5.21950792451
0606-1706,Crosestein,52.09041442130,5.21934463795
1671-0021,Koppelweg,52.08884281930,5.21945661099
2301-0007,Noordweg,52.08948486170,5.21866758634
2681-0010,Willem Pijperplein,52.08725814100,5.23411739351
2681-0004,Willem Pijperplein,52.08780189820,5.23500680837
2521-0018,Platolaan,52.09488498410,5.26275454560
2521-0031,Platolaan,52.09696987560,5.26635342863
0091-0070,Arnhemse Bovenweg,52.08036028710,5.24832051650
1591-0015,Kersbergenlaan,52.08407103570,5.23614716082
1131-0001,Harmonielaan,52.09110005410,5.22332875799
1131-0005,Harmonielaan,52.09046538150,5.22420497128
1131-0008,Harmonielaan,52.09020115450,5.22450695345
1131-0009,Harmonielaan,52.09007517290,5.22419066288
2331-0005,Oirschotlaan,52.09127562460,5.22319227353
2331-0007,Oirschotlaan,52.09089865160,5.22270410692
2711-0001,Van Reenenweg,52.08694924170,5.23148603514
0791-0018,Eekhoornlaan,52.13865320030,5.24253622834
0225-13,Beukbergenlaan,52.12111155000,5.27039806475
0161-0001,Nicolaas Beetslaan,52.09149364280,5.23192212831
0161-0003,Nicolaas Beetslaan,52.09177703140,5.23257653502
0161-0006,Nicolaas Beetslaan,52.09222563610,5.23353347992
0551-0016,Comeniuslaan,52.10223611320,5.22110156410
0551-0025,Comeniuslaan,52.10202738340,5.21831220836
2002-0056,Prof. Lorentzlaan,52.09504936690,5.26549049525
1801-0034,Laan van Beek en Royen,52.08422339790,5.25226542960
0201-0002,Bethanielaan,52.08818727200,5.24951311943
2471-0002,Parklaan,52.08679403360,5.25166100796
3741-0013,Wilhelminalaan,52.08633425290,5.25121485886
3121-0008,Stationslaan,52.08759176940,5.25134657334
2611-0003,Prins Hendriklaan,52.08664390780,5.24899952435
1481-0011,Julianalaan,52.07754310230,5.25847847042
1481-0006,Julianalaan,52.07678036800,5.25689680979
1481-0003,Julianalaan,52.07633068360,5.25596322899
1481-0001,Julianalaan,52.07601956910,5.25531756914
0081-0025,Aristoteleslaan,52.09287846300,5.25825726876
0081-0028,Aristoteleslaan,52.09366298990,5.25834160806
1321-0006,Homeruslaan,52.09441219120,5.25987053688
1321-0017,Homeruslaan,52.09611323050,5.26273103162
1321-0019,Homeruslaan,52.09656616960,5.26324263943
1321-0020,Homeruslaan,52.09674155530,5.26349846508
1321-0024,Homeruslaan,52.09754929980,5.26443649387
1321-0026,Homeruslaan,52.09806390830,5.26422950081
3471-0009,Verlengde Slotlaan ZEIST,52.09181048410,5.25299301479
1982-0018,Lindenlaan,52.09295669950,5.25531286132
1982-0008,Lindenlaan,52.09407681410,5.25353921308
3471-0013,Verlengde Slotlaan ZEIST,52.09249125850,5.25396621968
3471-0023,Verlengde Slotlaan ZEIST,52.09432349870,5.25673531770
3041-0012,Socrateslaan,52.09685357090,5.26122628901
2997-0002,Senecalaan,52.09733795960,5.26653554335
2997-0005,Senecalaan,52.09787037490,5.26731236947
2997-0007,Senecalaan,52.09821654870,5.26797348180
3631-0004,Wallenburg,52.10324171110,5.25943207525
3631-0005,Wallenburg,52.10314932910,5.25976831185
3631-0009,Wallenburg,52.10307906560,5.26114700724
1341-0022,Hoog Kanje,52.07702511630,5.26394099234
1341-0043,Hoog Kanje,52.07788507570,5.27078233363
1402-0005,Dr. s'Jacoblaan,52.09849222570,5.25027114004
1011-0001,Graaf Adolflaan,52.07504371190,5.26314392387
0051-0010,Anna Paulownalaan,52.07377968930,5.26153474982
0051-0001,Anna Paulownalaan,52.07211302470,5.26328495469
3071-0008,Sophialaan,52.07481104170,5.26201571856
3071-0005,Sophialaan,52.07427975090,5.26118962098
1031-0013,Graaf Lodewijklaan,52.07976432170,5.26876541466
1031-0001,Graaf Lodewijklaan,52.07753966310,5.26596351302
0191-0018,Berkenlaan,52.09561464960,5.24850080927
0191-0014,Berkenlaan,52.09500308930,5.24726272726
0191-0012,Berkenlaan,52.09466964280,5.24658196407
1311-0003,Burgemeester v Holtheln,52.10021444860,5.25366396559
1021-0003,Graaf Janlaan,52.07749061050,5.26295680170
1021-0004,Graaf Janlaan,52.07779518800,5.26318008787
1021-0006,Graaf Janlaan,52.07819276640,5.26365903329
1341-0004,Hoog Kanje,52.07632581030,5.26102957810
1341-0010,Hoog Kanje,52.07664140020,5.26160026202
1241-0008,Hezer Enghweg,52.13741660160,5.23622636935
1241-0009,Hezer Enghweg,52.13757665290,5.23653651778
3011-0002,Slotlaan,52.08264826320,5.23981635570
2751-0024,Van Renesselaan,52.08485754940,5.23473076253
2751-0025,Van Renesselaan,52.08505585740,5.23498775409
3431-0015,Utrechtseweg,52.08455421610,5.23601819169
3431-0014,Utrechtseweg,52.08445007420,5.23639796197
0606-0009,Crosestein,52.09203875750,5.22276482586
0721-0068,Driebergseweg,52.07759120180,5.24257996662
0721-0064,Driebergseweg,52.07716049250,5.24332817380
1613-0003,M L KINGLAAN,52.09039911610,5.24904312173
1772-0009,Dr. A. Kuyperlaan,52.09828963010,5.23614676658
2861-0006,De Savornin Lohmanlaan,52.09864820000,5.23857546275
0332-0001,Dr. D. Bosplein,52.09927583490,5.23822004958
2941-0001,R J Schimmelpennincklaan,52.09991784800,5.23848967698
3478-0008,Willem Versteeghstraat,52.10993022170,5.25287496584
0019-0002,Kardinaal Alfrinkhof,52.10955375250,5.25337548268
3478-0005,Willem Versteeghstraat,52.10926628550,5.25321392979
2601-0002,Prins Bernhardlaan,52.08382246610,5.25317028318
0721-0028,Driebergseweg,52.07180000760,5.25322247627
0721-0030,Driebergseweg,52.07209977480,5.25273044357
2181-0003,Minckelerslaan,52.09306511870,5.24518867767
2761-0009,de la Reylaan,52.09294240110,5.24789400575
0606-4610,Crosestein,52.09306476920,5.21858593095
0606-4401,Crosestein,52.09322736020,5.21678411946
0606-4207,Crosestein,52.09281570940,5.21766949423
0721-0006,Driebergseweg,52.06761904470,5.25848585896
0847-0006,Erasmuslaan,52.10074416190,5.25942338021
3079-0001,Spinozalaan,52.10095605870,5.25996215780
0847-0011,Erasmuslaan,52.09992816030,5.25780168713
0847-0012,Erasmuslaan,52.09975537290,5.25771823635
3041-0001,Socrateslaan,52.09886575280,5.25788933055
3079-0006,Spinozalaan,52.10036954110,5.26170730238
0559-0002,Coornhertlaan,52.10043863610,5.25978696434
0559-0004,Coornhertlaan,52.10007073660,5.26034073467
0559-0009,Coornhertlaan,52.09954963600,5.26227485730
3681-0008,Weideweg,52.07827858900,5.31596640069
3691-0003,Wellingtonweg,52.07844300030,5.31514010996
1202-0007,Hertenlaan West,52.13664750290,5.24957041778
0361-0006,Boulevard,52.09179292900,5.25127779349
2021-0011,Lyceumlaan,52.09083769270,5.25491702629
0911-0003,Fransen van de Puttelaan,52.09005381030,5.25346126060
1201-0039,Hertenlaan,52.13017112950,5.25351915309
1201-0036,Hertenlaan,52.13050523080,5.25501608929
0817-0005,Elandlaan,52.13068525330,5.25432722991
0817-0017,Elandlaan,52.13013781480,5.25231900274
0817-0018,Elandlaan,52.12995153620,5.25227874843
0661-0068,Dolderseweg,52.12929757450,5.24897297058
0111-0007,Austerlitzseweg,52.08727466390,5.29581973060
2401-0055,Oude Postweg,52.07706259880,5.31816785297
1861-0005,Laan van Rijnwijk,52.07021105810,5.25210012276
1861-0011,Laan van Rijnwijk,52.06966840660,5.25219600555
1631-0010,Koepellaan,52.09713344870,5.22055665847
1631-0011,Koepellaan,52.09686474030,5.22021122158
3633-0010,Warande,52.09773520530,5.22065523449
3633-0024,Warande,52.09817282620,5.22152401924
3633-0028,Warande,52.09855058160,5.22126777118
0711-0058,De Dreef,52.09595749770,5.21764822105
0711-0059,De Dreef,52.09627298040,5.21786977711
0711-0012,De Dreef,52.09895018830,5.22018616049
0711-0020,De Dreef,52.09994670200,5.22212836274
0711-0068,De Dreef,52.10012563290,5.22382193515
0181-0028,Bergweg,52.09326293640,5.24304766440
0159-0003,Beethovenlaan,52.09790911490,5.21824850795
0159-0010,Beethovenlaan,52.09771196690,5.21739209447
0159-0006,Beethovenlaan,52.09733046860,5.21762173513
0159-0015,Beethovenlaan,52.09778848700,5.21546032744
0159-0018,Beethovenlaan,52.09814862420,5.21511204660
0159-0020,Beethovenlaan,52.09818495260,5.21441643092
0321-0003,Boslaan,52.08820824900,5.25326382295
2002-0075,Prof. Lorentzlaan,52.08684876720,5.25379479700
2002-0077,Prof. Lorentzlaan,52.08638668620,5.25439901404
2002-0078,Prof. Lorentzlaan,52.08612309410,5.25472938172
2002-0064,Prof. Lorentzlaan,52.09652555920,5.26760478807
2521-0012,Platolaan,52.09378135840,5.26116903332
2521-0015,Platolaan,52.09432809340,5.26195880968
2521-0022,Platolaan,52.09565017930,5.26384219718
1801-0033,Laan van Beek en Royen,52.08405981960,5.25250498376
1881-0008,Laantje zonder Eind,52.08463143540,5.25204416333
1881-0009,Laantje zonder Eind,52.08460475400,5.25136608003
1881-0006,Laantje zonder Eind,52.08409652260,5.25038157320
1881-0005,Laantje zonder Eind,52.08390818120,5.25000430756
2002-0018,Prof. Lorentzlaan,52.08803530800,5.25519731435
2002-0019,Prof. Lorentzlaan,52.08823103300,5.25561946969
2002-0026,Prof. Lorentzlaan,52.08959222810,5.25743580661
2002-0029,Prof. Lorentzlaan,52.09014960100,5.25823480625
2002-0031,Prof. Lorentzlaan,52.09044431290,5.25885023538
1982-0031,Lindenlaan,52.09140016980,5.25816571292
2521-0001,Platolaan,52.09168722410,5.25816569391
0911-0009,Fransen van de Puttelaan,52.08921712100,5.25592662227
2002-0053,Prof. Lorentzlaan,52.09447640140,5.26462951341
2531-0024,Pleineslaan,52.14281424870,5.23746498286
2531-0022,Pleineslaan,52.14284315900,5.23666247105
3442-0020,Valckenboschlaan,52.09581226640,5.25627912798
1711-0209,Krakelingweg,52.09446557820,5.28067249341
1261-0001,Hobbemalaan,52.12432737500,5.24698531485
1261-0003,Hobbemalaan,52.12306156720,5.24765810620
0851-0001,Ericaweg,52.11274424420,5.26061540596
2991-0007,Schroeder van de Kolkln,52.14071329110,5.23249192840
0741-0005,Joh van Duurenlaan,52.14044932080,5.23376319349
0741-0003,Joh van Duurenlaan,52.14083640900,5.23349853799
0521-0005,Churchilllaan,52.10198811550,5.24258221465
3241-0005,Anton O. H. Tellegenlaan,52.10175652660,5.24247883851
0492-0004,Cornelis M J M Burgerln,52.10111481420,5.24350534626
3661-0001,Van Weerden Poelmanlaan,52.12460160130,5.25279209015
2701-0002,Reelaan,52.13604697290,5.24572752009
2701-0003,Reelaan,52.13559832860,5.24525728253
3075-0004,Sparrenlaan,52.11660350250,5.24206060490
0851-0011,Ericaweg,52.11476374800,5.26508363025
2701-0010,Reelaan,52.13214363830,5.24375911686
1202-0002,Hertenlaan West,52.13659615130,5.24742773377
3731-0008,Johannes Wierlaan,52.14167992480,5.23462168864
0841-0004,Dr. Engelhardlaan,52.14069690950,5.23469682029
3581-0009,Vrijheidsplein,52.10174286270,5.24519644328
3581-0013,Vrijheidsplein,52.10259264970,5.24527744825
3481-0002,Verzetslaan,52.10233801630,5.24621983227
3331-0011,Tolhuislaan,52.13123077620,5.23275831161
3232-0010,Taveernelaan,52.13173663870,5.23534736828
2935-0011,Schermerslaan,52.09540319050,5.22857218921
0332-0002,Dr. D. Bosplein,52.09904780200,5.23854963183
1941-0001,Jacob van Lennepplein,52.09358797360,5.23857225018
1941-0002,Jacob van Lennepplein,52.09365534120,5.23863965829
1941-0004,Jacob van Lennepplein,52.09390826770,5.23797285747
1941-0009,Jacob van Lennepplein,52.09341200420,5.23659501847
1941-0012,Jacob van Lennepplein,52.09340691100,5.23755088225
2861-0002,De Savornin Lohmanlaan,52.09795054670,5.23910213834
0021-0005,Alpaccalaan,52.09652167440,5.24665502849
0981-0003,Gerolaan,52.09738815210,5.24818346310
0981-0004,Gerolaan,52.09720194750,5.24815474328
0811-0011,Eikenlaan,52.09635985160,5.24703081541
0981-0013,Gerolaan,52.09573716280,5.24587424750
0981-0016,Gerolaan,52.09571234490,5.24458413289
0811-0012,Eikenlaan,52.09645227380,5.24647290041
3251-0003,Tesselschadelaan,52.09227374800,5.22761149339
3251-0010,Tesselschadelaan,52.09125452550,5.22592186033
2881-0020,Schaerweijdelaan,52.09118073590,5.23379957467
2881-0021,Schaerweijdelaan,52.09119612990,5.23432457175
0606-3301,Crosestein,52.09188888740,5.21484778601
0606-1303,Crosestein,52.09040119820,5.21771616232
2751-0010,Van Renesselaan,52.08305092360,5.23197399632
2751-0008,Van Renesselaan,52.08262898640,5.23134861388
2201-0018,Montaubanstraat,52.08617792870,5.23886265865
2201-0016,Montaubanstraat,52.08591639150,5.23858380500
2201-0013,Montaubanstraat,52.08555601900,5.23837884972
2201-0012,Montaubanstraat,52.08551370550,5.23807454723
0181-0024,Bergweg,52.09250804440,5.24264317259
1991-0002,Lommerlust,52.08529801280,5.23617744529
1991-0003,Lommerlust,52.08544345910,5.23641071258
1991-0011,Lommerlust,52.08619423280,5.23759846965
3161-0012,Steynlaan,52.09006594270,5.24568734461
3161-0026,Steynlaan,52.09155596040,5.24311005520
0721-0062,Driebergseweg,52.07687579240,5.24387906564
3141-0002,Steniahof,52.08653843110,5.23482574609
2121-0003,Johan de Meesterstraat,52.08963228910,5.23477288070
1171-0004,Herenlaan,52.08291099180,5.24175103322
1471-0006,Jufferstraat,52.08141228170,5.24147886634
1471-0009,Jufferstraat,52.08098628600,5.24079373349
3711-0012,De Wetlaan,52.09238391540,5.24300543942
3711-0007,De Wetlaan,52.09154934850,5.24434773561
0721-0061,Driebergseweg,52.07674420480,5.24420657775
0721-0053,Driebergseweg,52.07557486970,5.24653055232
0721-0044,Driebergseweg,52.07419137780,5.24881089413
2121-0006,Johan de Meesterstraat,52.08999806310,5.23566333849
2061-0007,Mr. H Marsmanstraat,52.09135312030,5.23526026494
3171-0001,Melis Stokestraat,52.09009967950,5.23523532255
3171-0010,Melis Stokestraat,52.09055476100,5.23372816293
3011-0024,Slotlaan,52.08393199750,5.24166623634
2181-0005,Minckelerslaan,52.09274989970,5.24579198952
1721-0010,Kritzingerlaan,52.09228344430,5.24677110945
1721-0002,Kritzingerlaan,52.09092881480,5.24480588583
1051-0064,Griffensteijnselaan,52.09077559050,5.21359467804
0703-0008,Doudart de la Greehof,52.08912206450,5.23521821414
0703-0009,Doudart de la Greehof,52.08904818160,5.23541272942
2711-0009,Van Reenenweg,52.08861770670,5.23538909435
2711-0015,Van Reenenweg,52.08974241620,5.23720688930
2711-0017,Van Reenenweg,52.09005625060,5.23781177124
2711-0019,Van Reenenweg,52.09033387120,5.23838135264
2711-0020,Van Reenenweg,52.09042949990,5.23876840965
3011-0028,Slotlaan,52.08430674760,5.24198187158
3011-0034,Slotlaan,52.08450461570,5.24274381290
1801-0018,Laan van Beek en Royen,52.08252569040,5.24632858925
1721-0006,Kritzingerlaan,52.09156239070,5.24572435937
2711-0022,Van Reenenweg,52.09075495020,5.23924977063
2711-0029,Van Reenenweg,52.09191727220,5.24164064118
2711-0031,Van Reenenweg,52.09221552750,5.24230941869
1301-0008,2e Hogeweg,52.08293287420,5.24559825107
3621-0014,Walkartweg,52.08338412280,5.23925860499
0955-0017,Geiserlaan,52.09082664450,5.24784631534
0955-0016,Geiserlaan,52.09092155320,5.24787262035
2911-0005,Scheeperslaan,52.09071649630,5.24709593866
1901-0001,Lageweg,52.08227831630,5.23607048514
1901-0017,Lageweg,52.08023610240,5.24008765647
2241-0019,Nassau Odijklaan,52.07987197700,5.23561663350
2241-0023,Nassau Odijklaan,52.07958187620,5.23519577442
0581-0002,Costerlaan,52.08891450200,5.24355192333
1411-0014,Jagerlaan,52.08922531040,5.24219160388
1371-0004,Constantijn Huygenslaan,52.09270887310,5.23484789851
1331-0009,P C Hooftlaan,52.09247596170,5.22863053602
2792-0004,Het Rond,52.08151514380,5.23845686060
0606-4204,Crosestein,52.09253910230,5.21726898264
0606-4002,Crosestein,52.09217920130,5.21679157499
3011-0051,Slotlaan,52.08603833540,5.24463286965
3011-0053,Slotlaan,52.08624629870,5.24492751626
3011-0061,Slotlaan,52.08699515170,5.24621966211
3011-0066,Slotlaan,52.08746444400,5.24667900957
3011-0074,Slotlaan,52.08828259820,5.24785350517
3561-0023,Voorheuvel,52.08796485500,5.24068095452
3561-0030,Voorheuvel,52.08911336830,5.24175379272
3561-0041,Voorheuvel,52.08774019990,5.24098229476
3561-0033,Voorheuvel,52.08752934160,5.24066160458
3501-0002,Roemer Visscherlaan,52.09152113550,5.23159683870
3501-0004,Roemer Visscherlaan,52.09172142750,5.23137484218
1728-0004,Kromme-Rijnlaan,52.08823777710,5.20866070804
3561-0005,Voorheuvel,52.08658931350,5.23964330895
0386-0002,Ter Braaklaan,52.09200223690,5.23505361938
3101-0004,Prof. Sproncklaan,52.08948757930,5.22891558096
3101-0006,Prof. Sproncklaan,52.08993678670,5.22919552967
3101-0009,Prof. Sproncklaan,52.09068875120,5.22951054716
3101-0011,Prof. Sproncklaan,52.09102052880,5.23004087557
0606-3005,Crosestein,52.09086967500,5.21544162721
0606-3502,Crosestein,52.09191350400,5.21582929759
1291-0014,1e Hogeweg,52.08580051130,5.24055655380
0891-0008,Fornheselaan,52.14008297380,5.24369806789
0891-0029,Fornheselaan,52.14113762190,5.24900202882
0891-0037,Fornheselaan,52.14218506110,5.25115079556
1251-0013,Hindelaan,52.13864244320,5.25300617028
0181-0078,Bergweg,52.10079544120,5.25352961180
3261-0015,Van Tetslaan,52.09944993310,5.25096556864
3261-0016,Van Tetslaan,52.09852082000,5.25170043718
3261-0008,Van Tetslaan,52.09782484070,5.25113666344
3261-0004,Van Tetslaan,52.09718725000,5.25037261954
1982-0001,Lindenlaan,52.09637972410,5.25031107439
3411-0012,Burgemeester v Tuijllln,52.09852902400,5.25283198898
3411-0010,Burgemeester v Tuijllln,52.09803633600,5.25266980321
3442-0010,Valckenboschlaan,52.09729039200,5.25321639961
0181-0067,Bergweg,52.09916832830,5.25025884229
0181-0066,Bergweg,52.09903884830,5.24995843650
0181-0057,Bergweg,52.09775144750,5.24736992265
0181-0053,Bergweg,52.09716325130,5.24619015766
0181-0050,Bergweg,52.09679622440,5.24526823635
0361-0047,Boulevard,52.10163395650,5.25602268388
1356-0014,Huis Ter Heideweg,52.10287788550,5.25416727184
2881-0012,Schaerweijdelaan,52.09033118620,5.23191156535
2881-0003,Schaerweijdelaan,52.08919564750,5.22964719390
0606-1204,Crosestein,52.09095414290,5.21658495450
0606-1103,Crosestein,52.09038121630,5.21568438152
0606-1802,Crosestein,52.09035441020,5.22027332961
0091-0027,Arnhemse Bovenweg,52.07340253820,5.25797376438
2531-0002,Pleineslaan,52.14144231300,5.22938737560
2531-0003,Pleineslaan,52.14155042280,5.22973661497
2531-0020,Pleineslaan,52.14278393990,5.23579569269
2422-0020,Paduaweg,52.13885369970,5.23772545982
2071-0003,Marterlaan,52.13870403430,5.23953775559
0791-0003,Eekhoornlaan,52.13721172200,5.23784891309
3066-0001,Haya van Somerenlaan,52.09796782720,5.23496138340
0225-0048,Beukbergenlaan,52.11949480620,5.27052375688
2591-0002,Prins Alexanderweg,52.11200746340,5.25459386778
0122-0013,Baarnseweg,52.13608859290,5.24103899393
0122-0010,Baarnseweg,52.13645423430,5.24160854785
0661-0014,Dolderseweg,52.14222182870,5.23938564754
0361-0051,Boulevard,52.10230295120,5.25655290875
0811-0008,Eikenlaan,52.09566059670,5.24822381454
0811-0005,Eikenlaan,52.09495578100,5.24856024639
0811-0003,Eikenlaan,52.09445152460,5.24868790570
3121-0006,Stationslaan,52.08792932790,5.25073299543
2511-0008,Pauw van Wieldrechtlaan,52.08918558120,5.25332158453
3631-0025,Wallenburg,52.10442766980,5.26236076762
0361-0073,Boulevard,52.10258763830,5.25726420043
0559-0007,Coornhertlaan,52.09958978590,5.26140119466
3291-0011,Tiendweg,52.07171226540,5.22946233753
3291-0008,Tiendweg,52.07237102700,5.22890045562
3291-0017,Tiendweg,52.07077255040,5.23077531590
1631-0017,Koepellaan,52.09720940260,5.21912908681
3232-0024,Taveernelaan,52.12932805850,5.24441753611
3232-0025,Taveernelaan,52.12885603390,5.24456606619
3232-0026,Taveernelaan,52.12832937270,5.24473444442
3232-0033,Taveernelaan,52.12467484800,5.24666658768
3571-0013,Vossenlaan,52.12533088650,5.24796207260
3041-0023,Socrateslaan,52.09491426990,5.26410778009
3571-0016,Vossenlaan,52.12656707530,5.24971699518
3331-0009,Tolhuislaan,52.13213064530,5.23303402660
1621-0014,Koelaan,52.07056161440,5.22238923624
1621-0019,Koelaan,52.07174177170,5.22408328205
1621-0021,Koelaan,52.07220814430,5.22475710186
1621-0024,Koelaan,52.07291794940,5.22577138571
1871-0026,Laan van Vollenhove,52.10190527760,5.23304834610
2641-0055,Prinses Irenelaan,52.08389643090,5.26749237369
0631-0009,Dalweg,52.09396586930,5.24672303527
0011-0002,Acacialaan,52.09338882380,5.25376491346
2441-0019,Paltzerweg,52.13622589360,5.23659868117
1181-0003,Hermelijnlaan,52.13747694670,5.23888876797
2441-0024,Paltzerweg,52.13643649860,5.23873436357
1772-0013,Dr. A. Kuyperlaan,52.09882983840,5.23772121671
2591-0006,Prins Alexanderweg,52.11115325200,5.25511115845
1125-0001,Handelsweg,52.10482673500,5.25563344849
0361-0011,Boulevard,52.09339309560,5.25187624710
0011-0008,Acacialaan,52.09376211190,5.25147883652
0011-0010,Acacialaan,52.09421169970,5.25106794318
0011-0013,Acacialaan,52.09485692330,5.25092390160
0011-0016,Acacialaan,52.09562545670,5.25108386936
2441-0028,Paltzerweg,52.13661449910,5.24055953136
3442-0013,Valckenboschlaan,52.09687247250,5.25422895503
3442-0018,Valckenboschlaan,52.09611427260,5.25575082858
3442-0019,Valckenboschlaan,52.09596868020,5.25601422927
1356-0011,Huis Ter Heideweg,52.10342533800,5.25501636793
1356-0008,Huis Ter Heideweg,52.10449275120,5.25554485902
1356-0002,Huis Ter Heideweg,52.10728528990,5.25453548823
1356-0005,Huis Ter Heideweg,52.10628311420,5.25478358478
2951-0003,Willem Schmidtlaan,52.10211994560,5.25072129347
0731-0011,Duinweg,52.11630862650,5.23894878670
0731-0005,Duinweg,52.11848075280,5.23719025352
0122-0047,Baarnseweg,52.12049615040,5.23896559276
0581-0018,Costerlaan,52.09005367130,5.24480737983
1741-0014,Krugerlaan,52.09104481520,5.24342302778
1921-0008,Leliestraat,52.08850011230,5.23916384210
3431-0026,Utrechtseweg,52.08571117070,5.23377113417
3431-0027,Utrechtseweg,52.08584608370,5.23332525391
3431-0031,Utrechtseweg,52.08647484020,5.23159161248
3431-0038,Utrechtseweg,52.08784207820,5.23004610425
3431-0043,Utrechtseweg,52.08857390410,5.22918408066
3431-0044,Utrechtseweg,52.08863501410,5.22870999042
3431-0052,Utrechtseweg,52.08985174880,5.22744161843
3431-0060,Utrechtseweg,52.09163801140,5.22480197039
1731-0003,Kroostweg,52.08751763980,5.22937650243
0431-0001,Brinkweg,52.08757587830,5.22896964208
0017-0006,Achterheuvel,52.08809555420,5.24348260318
1207-0028,De Heuvel,52.08815598390,5.24138095662
1207-0004,De Heuvel,52.08792433630,5.24197203453
2667-0023,Promenade,52.08688138040,5.24202329747
2667-0035,Promenade,52.08749345520,5.24192986521
2667-0002,Promenade,52.08790396570,5.24227895725
2667-0012,Promenade,52.08782053370,5.24210448028
2667-0009,Promenade,52.08764592920,5.24242476847
2667-0004,Promenade,52.08779585450,5.24243381708
3351-0004,Torenlaan,52.08698708090,5.24264708161
3351-0009,Torenlaan,52.08777160520,5.24378447301
3771-0006,Woudenbergseweg,52.08527720370,5.24571533653
0511-0001,Choisyweg,52.08378814210,5.24463241799
2367-0002,Oranjerie,52.08428490150,5.24607278984
3676-0008,Weeshuisplein,52.08657711020,5.24158373664
3676-0009,Weeshuisplein,52.08645968630,5.24182008057
3676-0011,Weeshuisplein,52.08612097290,5.24267961126
3671-0011,Weeshuislaan,52.08657214430,5.24247175918
3671-0009,Weeshuislaan,52.08684518270,5.24180272539
0061-0015,Antonlaan,52.08753447220,5.24483692263
0061-0003,Antonlaan,52.08646904490,5.24345073518
0061-0021,Antonlaan,52.08814413570,5.24606009840
3011-0054,Slotlaan,52.08623368010,5.24546560885
1871-0019,Laan van Vollenhove,52.10245518380,5.23549921136
2881-0027,Schaerweijdelaan,52.09216962500,5.23597029807
2935-0023,Schermerslaan,52.09581494450,5.23103625635
0711-0077,De Dreef,52.10072399970,5.22869814306
0361-0008,Boulevard,52.09247447050,5.25159543548
0361-0022,Boulevard,52.09504080180,5.25245744347
2535-0011,Albert Plesmanring,52.11154801270,5.25184634370
3201-0008,Arnoldus Stramroodlaan,52.10181205100,5.24823147371
3633-0021,Warande,52.09811849550,5.22220903726
3731-0011,Johannes Wierlaan,52.14176593780,5.23592575661
0721-0001,Driebergseweg,52.06666363080,5.25938637832
2926-0005,Badmeester Schenkpad,52.10658828540,5.24051706799
2261-0004,Nieuwe Dolderseweg,52.12283606670,5.25355256729
2261-0007,Nieuwe Dolderseweg,52.12446650870,5.25248729699
2261-0010,Nieuwe Dolderseweg,52.12625977940,5.25131335181
2391-0007,Oude Arnhemseweg,52.08674880960,5.23813540020
2391-0008,Oude Arnhemseweg,52.08685702790,5.23771811260
2391-0009,Oude Arnhemseweg,52.08702605270,5.23745250029
2391-0016,Oude Arnhemseweg,52.08820453150,5.23575794667
2391-0018,Oude Arnhemseweg,52.08848253240,5.23519954989
3481-0007,Verzetslaan,52.10215549760,5.24688342488
0031-0009,Amersfoortseweg,52.10747090850,5.23070635916
2691-0004,Dr. Ramaerlaan,52.14153208780,5.23841514804
3731-0013,Johannes Wierlaan,52.14179541740,5.23635839916
3481-0013,Verzetslaan,52.10267588880,5.24872103804
3481-0017,Verzetslaan,52.10283194200,5.24953804669
0282-0002,Jacobus C Boogaardlaan,52.10209377230,5.24968451560
2151-0001,Johan C Meijerlaan,52.10182689220,5.24856328789
3781-0001,Wouter van Wijklaan,52.10208949800,5.24826000253
3201-0001,Arnoldus Stramroodlaan,52.10115196310,5.24623370506
1391-0003,Jozef Israelslaan,52.11668140490,5.23678820800
2141-0013,Mesdaglaan,52.11350816530,5.23879103277
1201-0025,Hertenlaan,52.13325747720,5.25642817096
1201-0022,Hertenlaan,52.13413683660,5.25624872376
0661-0006,Dolderseweg,52.14362420830,5.23893190487
0341-0005,Dokter J.C.Boswijklaan,52.14179396910,5.23709013141
3111-0003,Dr. Starckelaan,52.14122260140,5.23610352754
3201-0004,Arnoldus Stramroodlaan,52.10147801660,5.24669751982
3201-0007,Arnoldus Stramroodlaan,52.10211857340,5.24801909499
0761-0047,Dijnselburgerlaan,52.10303049580,5.25381937116
2931-0005,Jan Scheplaan,52.10094414590,5.24770706507
2931-0006,Jan Scheplaan,52.10100174940,5.24815579356
2561-0010,Johannes Postlaan,52.10227541820,5.25069692534
1291-0018,1e Hogeweg,52.08560103340,5.24100267071
3811-0025,Zinzendorflaan,52.08128704510,5.23173596246
2422-0016,Paduaweg,52.13864021620,5.23693149289
0591-0009,Couwenhoven,52.07544410650,5.22516328167
0591-0017,Couwenhoven,52.07607770110,5.22281049717
0591-0019,Couwenhoven,52.07634670660,5.22219077332
0591-5603,Couwenhoven,52.07679237180,5.22324143224
0591-5502,Couwenhoven,52.07670416210,5.22239547643
0591-5606,Couwenhoven,52.07700766530,5.22350984374
0606-1503,Crosestein,52.09118412820,5.21802222892
0249-0002,Blanckenhagenweg,52.10895995290,5.26036145668
0249-0003,Blanckenhagenweg,52.10886843870,5.25995888334
0249-0006,Blanckenhagenweg,52.10828233760,5.25910606138
3771-0037,Woudenbergseweg,52.09192066020,5.28036955676
3771-0043,Woudenbergseweg,52.09223113600,5.28131769686
3771-0045,Woudenbergseweg,52.09225557820,5.28172447197
3771-0053,Woudenbergseweg,52.09170571210,5.28313880774
3771-0054,Woudenbergseweg,52.09153453300,5.28318843093
0361-0062,Boulevard,52.10439759870,5.26121225788
0606-0007,Crosestein,52.09042016330,5.21906985521
0381-0010,Filips van Bourgondieln,52.08261820910,5.22166513370
0381-0014,Filips van Bourgondieln,52.08256591740,5.22253382335
0381-0015,Filips van Bourgondieln,52.08299535570,5.22224563663
0454-5705,Brugakker,52.08343648970,5.20820885220
2391-0019,Oude Arnhemseweg,52.08863200140,5.23510723669
2391-0021,Oude Arnhemseweg,52.08900040030,5.23447197799
1071-0012,Griftlaan,52.08473600790,5.22380021598
0761-0020,Dijnselburgerlaan,52.10415074810,5.24729652185
0761-0013,Dijnselburgerlaan,52.10385124690,5.24425569429
0891-0045,Fornheselaan,52.14318669120,5.25460163471
0891-0049,Fornheselaan,52.14226088130,5.25526676995
0761-0042,Dijnselburgerlaan,52.10198533360,5.25485264509
2301-0015,Noordweg,52.08920490110,5.21631737831
2301-0017,Noordweg,52.08920179820,5.21556387508
2301-0022,Noordweg,52.08932202130,5.21362058494
2301-0032,Noordweg,52.09055678200,5.21011640982
2311-1104,Nijenheim,52.08740414730,5.22584395110
2311-1112,Nijenheim,52.08667579260,5.22451669588
2311-3313,Nijenheim,52.08582140190,5.22194622337
2311-2201,Nijenheim,52.08608643280,5.22307691879
2311-2205,Nijenheim,52.08620191300,5.22303166886
2311-2218,Nijenheim,52.08684513720,5.22300530727
2311-2407,Nijenheim,52.08725270790,5.22281604241
2311-1402,Nijenheim,52.08835955920,5.22225128479
2311-1409,Nijenheim,52.08851200070,5.22125659809
2311-1206,Nijenheim,52.08854889790,5.22297930700
2311-2506,Nijenheim,52.08822977460,5.22107162145
2311-2411,Nijenheim,52.08702511200,5.22195557303
2311-2403,Nijenheim,52.08679870790,5.22170769748
2311-6203,Nijenheim,52.08656492570,5.21871219211
2311-6204,Nijenheim,52.08664533710,5.21837645760
2311-6208,Nijenheim,52.08623723820,5.21788216039
2311-6209,Nijenheim,52.08603220570,5.21789229401
2311-6211,Nijenheim,52.08580414340,5.21844071399
2311-6213,Nijenheim,52.08595329410,5.21868105854
2311-6214,Nijenheim,52.08612916800,5.21834440526
2311-6215,Nijenheim,52.08647882540,5.21883099411
2311-5222,Nijenheim,52.08640564320,5.22013454449
2311-5004,Nijenheim,52.08728067760,5.22026316265
2311-5008,Nijenheim,52.08680322610,5.22058146883
2311-6008,Nijenheim,52.08771634790,5.21926087056
1731-0016,Kroostweg,52.08890855890,5.22435559739
1731-0023,Kroostweg,52.08982164140,5.22226355471
1731-0038,Kroostweg,52.09076847180,5.21935344390
0525-3010,De Clomp,52.08369528050,5.22151929229
3081-0001,Spoorlaan,52.11979708690,5.23878407851
0031-0027,Amersfoortseweg,52.10679000690,5.22093141283
1931-0007,Jacob van Lenneplaan,52.09297660020,5.24030935808
1931-0012,Jacob van Lenneplaan,52.09343893210,5.23903654622
0122-0001,Baarnseweg,52.13840222130,5.24352179803
0901-0016,Andreas Foxlaan,52.13911645280,5.24493959469
0771-0011,Dijnselweg,52.09959648530,5.24478756985
3581-0017,Vrijheidsplein,52.10233249690,5.24533504040
3571-0001,Vossenlaan,52.12269985660,5.23777239704
0241-0030,Biltseweg,52.13128372160,5.23136043312
2321-0015,Odijkerweg,52.06084929020,5.25060134022
0901-0009,Andreas Foxlaan,52.13974371450,5.24532261390
0901-0006,Andreas Foxlaan,52.14000298910,5.24480050434
0901-0004,Andreas Foxlaan,52.14020980650,5.24508388200
0901-0001,Andreas Foxlaan,52.14048045070,5.24420965671
0661-0031,Dolderseweg,52.13940988220,5.24245738098
0661-0039,Dolderseweg,52.13773183100,5.24496287922
0661-0042,Dolderseweg,52.13699158640,5.24611783217
2451-0013,Panweg,52.09874751120,5.24270397187
2451-0007,Panweg,52.09728795120,5.24392811879
2451-0005,Panweg,52.09671801340,5.24391565338
2451-0027,Panweg,52.10217888010,5.24047907613
3447-0003,Ester Vas Nuneslaan,52.09967388090,5.25660058099
3411-0004,Burgemeester v Tuijllln,52.09638183550,5.25222178611
3341-0006,Tollenslaan,52.09429081840,5.24141720100
2321-0031,Odijkerweg,52.06352023800,5.25655744098
2321-0060,Odijkerweg,52.06515904390,5.25706080322
2321-0053,Odijkerweg,52.06632423610,5.25814505970
2321-0054,Odijkerweg,52.06651145630,5.25785271356
2321-0055,Odijkerweg,52.06603493510,5.25770369436
0661-0047,Dolderseweg,52.13584757770,5.24785966671
0661-0065,Dolderseweg,52.13021219500,5.24897715611
0661-0059,Dolderseweg,52.13209193370,5.24914754740
3271-0006,Thorbeckelaan,52.09780063120,5.23386427614
3271-0010,Thorbeckelaan,52.09869719970,5.23433827173
2571-0002,Potgieterlaan,52.09422747900,5.24253528659
0225-0102,Beukbergenlaan,52.11835532280,5.26919050827
0225-0011,Beukbergenlaan,52.11942481750,5.26790121634
3951-0003,Beukbergenlaan,52.11987999170,5.26822888670
2321-0043,Odijkerweg,52.06500627280,5.25531233453
0401-0002,Bremlaan,52.13485238850,5.23404304574
0951-0001,Gagellaan,52.13498746180,5.23729491920
3951-0010,Beukbergenlaan,52.12115956100,5.26915633144
3951-0013,Beukbergenlaan,52.12146230170,5.27026100100
3951-0014,Beukbergenlaan,52.12156342750,5.27063741845
0225-0034,Beukbergenlaan,52.11981580930,5.26954544222
0225-0040,Beukbergenlaan,52.11933404760,5.26923371333
3571-0008,Vossenlaan,52.12384830000,5.24363039200
0122-0038,Baarnseweg,52.12465686470,5.24198902180
0122-0036,Baarnseweg,52.12565994740,5.24177237447
0122-0031,Baarnseweg,52.12806014580,5.24104961308
0122-0027,Baarnseweg,52.12948053730,5.23915796215
0122-0025,Baarnseweg,52.13031214950,5.23811987738
3331-0007,Tolhuislaan,52.13314348830,5.23319971961
3232-0006,Taveernelaan,52.13200970970,5.23282725241
2422-0010,Paduaweg,52.13821093700,5.23532761680
2422-0012,Paduaweg,52.13825182910,5.23572956214
2422-0014,Paduaweg,52.13847430020,5.23655707087
0591-5604,Couwenhoven,52.07693824820,5.22297025008
0591-5401,Couwenhoven,52.07678255390,5.22184373690
0591-5404,Couwenhoven,52.07712321500,5.22224497047
0591-5302,Couwenhoven,52.07736929780,5.22205328538
0591-5402,Couwenhoven,52.07700263600,5.22178956463
0591-6504,Couwenhoven,52.07794825630,5.22241826875
2391-0031,Oude Arnhemseweg,52.09037426870,5.23262543542
3471-0044,Verlengde Slotlaan ZEIST,52.09631186640,5.25930220176
3471-0046,Verlengde Slotlaan ZEIST,52.09639913160,5.25957158701
3471-0049,Verlengde Slotlaan ZEIST,52.09657909750,5.25998984283
3471-0051,Verlengde Slotlaan ZEIST,52.09661884300,5.26021146862
3471-0055,Verlengde Slotlaan ZEIST,52.09701692530,5.26061546000
3471-0069,Verlengde Slotlaan ZEIST,52.09812091850,5.26237533856
1385-0007,Mevrouw Inden-Reisslaan,52.14469456350,5.23688051745
3755-0009,Meester Willemsenlaan,52.14453706760,5.23656886053
1385-0002,Mevrouw Inden-Reisslaan,52.14473092180,5.23519589484
2413-0004,Zuster van Overeenlaan,52.14364243700,5.23524407663
0606-3509,Crosestein,52.14345714400,5.23629734872
0454-5810,Brugakker,52.08238042540,5.20941008926
0454-1504,Brugakker,52.08165082780,5.21209027197
0591-0028,Couwenhoven,52.07762140520,5.21942635021
0591-0029,Couwenhoven,52.07777640310,5.21909097736
0591-4603,Couwenhoven,52.07790894590,5.21972172577
0591-0030,Couwenhoven,52.07796056040,5.21876413549
0591-6109,Couwenhoven,52.07763220610,5.22716677488
0591-6103,Couwenhoven,52.07758576740,5.22590264044
3471-0075,Verlengde Slotlaan ZEIST,52.09855391910,5.26300488438
1356-0007,Huis Ter Heideweg,52.10503388790,5.25543515431
1125-0008,Handelsweg,52.10552754000,5.25926126088
2561-0005,Johannes Postlaan,52.10152283870,5.25158934712
2561-0003,Johannes Postlaan,52.10097002700,5.25201466045
2561-0001,Johannes Postlaan,52.10059057850,5.25249063813
1711-0157,Krakelingweg,52.09473722850,5.27737935647
1711-0161,Krakelingweg,52.09448410820,5.27753634742
1711-0164,Krakelingweg,52.09433633640,5.27782049221
0591-5601,Couwenhoven,52.07651413140,5.22384267154
0591-0007,Couwenhoven,52.07579422590,5.22553748130
0591-5902,Couwenhoven,52.07570742850,5.22469341351
1612-0005,Kievitlaan,52.08838846250,5.21554383124
2731-0006,Reigerlaan,52.08866562880,5.21603498390
1711-0173,Krakelingweg,52.09381148510,5.27846054350
1711-0182,Krakelingweg,52.09312797130,5.27999949587
1711-0183,Krakelingweg,52.09333122080,5.27991503452
3771-0033,Woudenbergseweg,52.09176843200,5.27938937728
3676-79,Weeshuisplein,52.08653684290,5.24251580138
1061-0001,Griffensteijnseplein,52.07923820620,5.22632699355
1061-0004,Griffensteijnseplein,52.08010611820,5.22763919687
0381-0007,Filips van Bourgondieln,52.08214428810,5.22151098794
0381-0005,Filips van Bourgondieln,52.08224001860,5.22109665391
0381-0012,Filips van Bourgondieln,52.08251892640,5.22209106377
2851-0002,Sanatoriumlaan,52.09281391580,5.22422681778
0726-0001,Duifhuis,52.09466365570,5.21412302661
0726-0002,Duifhuis,52.09479127160,5.21448558609
1841-0002,Laan van Eikenstein,52.09410954370,5.22530050603
1841-0012,Laan van Eikenstein,52.09658202100,5.22189607781
0091-0043,Arnhemse Bovenweg,52.07582228000,5.25511883495
0091-0051,Arnhemse Bovenweg,52.07736581610,5.25252709890
0091-0060,Arnhemse Bovenweg,52.07888345630,5.25018763275
0091-0064,Arnhemse Bovenweg,52.07954639350,5.24930379155
3808-0007,Zeyster Zand,52.09522777200,5.22416897258
2651-0057,Prinses Margrietlaan,52.07957168170,5.27510330776
1691-0003,Korte Bergweg,52.11118897190,5.25421457242
1691-0004,Korte Bergweg,52.11098853620,5.25418779668
1691-0007,Korte Bergweg,52.11071475980,5.25320097906
1691-0010,Korte Bergweg,52.11011785930,5.25364425434
1691-0013,Korte Bergweg,52.10948960280,5.25402505133
0661-0010,Dolderseweg,52.14299509860,5.23955782369
1354-0001,Hubertweg,52.07732852690,5.31790185971
1354-0002,Hubertweg,52.07749855180,5.31809782395
1354-0010,Hubertweg,52.07787070520,5.31762902642
3471-0116,Verlengde Slotlaan ZEIST,52.10309252060,5.26936280546
3471-0136,Verlengde Slotlaan ZEIST,52.10664939660,5.27070848462
3471-0128,Verlengde Slotlaan ZEIST,52.10502230830,5.27184439474
3471-0135,Verlengde Slotlaan ZEIST,52.10644904290,5.27084769484
2831-0013,Ruysdaellaan,52.11561952870,5.25330274844
2831-0016,Ruysdaellaan,52.11633728880,5.25293976503
2831-0030,Ruysdaellaan,52.11900401900,5.25124940032
2171-0001,Frans van Mierislaan,52.11919752420,5.25148144280
2831-0039,Ruysdaellaan,52.12064571180,5.25203061440
1071-0010,Griftlaan,52.08408338230,5.22262967252
0591-3307,Couwenhoven,52.08000174640,5.22241221902
3471-0140,Verlengde Slotlaan ZEIST,52.10743100310,5.27027885488
3471-0144,Verlengde Slotlaan ZEIST,52.10901598830,5.26915076469
3471-0145,Verlengde Slotlaan ZEIST,52.10910872190,5.26950530423
3471-0146,Verlengde Slotlaan ZEIST,52.10915816730,5.26990492065
3471-0151,Verlengde Slotlaan ZEIST,52.10932841360,5.27162802036
0361-0063,Boulevard,52.10423007380,5.26133437789
0361-0064,Boulevard,52.10438091870,5.26145994764
2741-0037,Rembrandtlaan,52.12159879640,5.25367397832
2741-0007,Rembrandtlaan,52.11503638540,5.25763437805
3131-0005,Jan Steenlaan,52.11631718370,5.25508569057
0591-3301,Couwenhoven,52.08029858850,5.22319558744
0591-3321,Couwenhoven,52.07992319470,5.22108813081
0591-3315,Couwenhoven,52.08018854400,5.22162269006
0591-3202,Couwenhoven,52.08070007460,5.22183783513
1711-0025,Krakelingweg,52.10351873170,5.26359969504
2741-0015,Rembrandtlaan,52.11680450420,5.25668653339
2741-0025,Rembrandtlaan,52.11882701310,5.25462985770
2831-0002,Ruysdaellaan,52.11328537540,5.25441929906
1161-0001,Van der Helstlaan,52.11815647810,5.25219531836
1161-0003,Van der Helstlaan,52.11849960880,5.25274145629
1562-0002,Karpervijver,52.08006206930,5.23926609800
1562-0003,Karpervijver,52.07987625480,5.23900907481
1562-0008,Karpervijver,52.07901143300,5.23776140244
2311-2105,Nijenheim,52.08553320270,5.22375677391
2311-2002,Nijenheim,52.08541518670,5.22354006619
0525-2007,De Clomp,52.08298211110,5.21773452754
0525-2008,De Clomp,52.08280528570,5.21755956779
0454-5004,Brugakker,52.08529389490,5.21050189298
0454-5819,Brugakker,52.08298862540,5.20883147881
0454-4118,Brugakker,52.08447533920,5.21296886399
0454-4108,Brugakker,52.08414669990,5.21166007524
0691-0016,1e Dorpsstraat,52.08230769270,5.23833417349
0701-0011,2e Dorpsstraat,52.08156145380,5.23939998161
1051-0017,Griffensteijnselaan,52.08402352780,5.22569967752
1051-0033,Griffensteijnselaan,52.08451124090,5.22506620090
1051-0028,Griffensteijnselaan,52.08389310260,5.22385678736
0454-1004,Brugakker,52.08150584390,5.21623603683
0454-1016,Brugakker,52.08058164100,5.21479503228
3702-0038,Weteringlaan,52.08213756940,5.21632605261
3702-0039,Weteringlaan,52.08225941410,5.21602171784
0251-0014,Blikkenburgerlaan,52.07758785270,5.24130922103
3811-0001,Zinzendorflaan,52.07689741590,5.23994043620
3811-0005,Zinzendorflaan,52.07754922770,5.23872296729
1411-0016,Jagerlaan,52.08811065360,5.24666177912
1411-0019,Jagerlaan,52.08860816480,5.24752290801
2667-0056,Promenade,52.08715737570,5.24158684050
3471-0083,Verlengde Slotlaan ZEIST,52.09914685230,5.26370523699
3471-0089,Verlengde Slotlaan ZEIST,52.09959241190,5.26434246983
3471-0098,Verlengde Slotlaan ZEIST,52.10029690410,5.26518765490
3471-0100,Verlengde Slotlaan ZEIST,52.10030438560,5.26552358448
3471-0101,Verlengde Slotlaan ZEIST,52.10045070600,5.26558979838
3811-0003,Zinzendorflaan,52.07719268920,5.23921836550
0606-1604,Crosestein,52.09026975800,5.21803673247
2831-0007,Ruysdaellaan,52.11432841630,5.25433441971
2831-0010,Ruysdaellaan,52.11497868400,5.25378809967
0761-0049,Dijnselburgerlaan,52.10341645410,5.25323088211
2561-0018,Johannes Postlaan,52.10404330620,5.25016260107
3281-0003,Jan Thijssenlaan,52.10349547180,5.24925040696
0591-6404,Couwenhoven,52.07801346530,5.22489067919
0591-6405,Couwenhoven,52.07815057890,5.22464851499
0591-6206,Couwenhoven,52.07774199630,5.22371157820
0591-6208,Couwenhoven,52.07769917440,5.22321173188
0591-6508,Couwenhoven,52.07826624060,5.22150816016
1321-0029,Homeruslaan,52.09876735050,5.26394536985
3471-0107,Verlengde Slotlaan ZEIST,52.10162490460,5.26727849650
3471-0121,Verlengde Slotlaan ZEIST,52.10389627780,5.27052502750
3471-0117,Verlengde Slotlaan ZEIST,52.10325505790,5.26959698017
1671-0006,Koppelweg,52.08548594320,5.21533849748
0454-3510,Brugakker,52.08241554490,5.21228344778
3291-0002,Tiendweg,52.07322794890,5.22695051710
3291-0001,Tiendweg,52.07337041350,5.22668499648
1801-0023,Laan van Beek en Royen,52.08301189210,5.24809525399
1621-0035,Koelaan,52.07552738600,5.22939915212
1051-0004,Griffensteijnselaan,52.08092959320,5.23036209649
0301-0002,Frank van Borselenlaan,52.07899908550,5.22950494700
2751-0001,Van Renesselaan,52.08097001860,5.22891608266
3641-0021,Waterigeweg,52.07767698790,5.22931853775
3641-0027,Waterigeweg,52.07631675680,5.22811722425
3008-0001,Petronella van Seijstpl.,52.07929896030,5.22526582422
1071-0001,Griftlaan,52.08076952060,5.21840723515
0454-1115,Brugakker,52.08079913570,5.21472616504
1701-0005,Kouwenhovenselaan,52.08149440030,5.21819594002
1701-0011,Kouwenhovenselaan,52.08178443430,5.21812093618
1701-0012,Kouwenhovenselaan,52.08182113910,5.21831750050
0525-1004,De Clomp,52.08203604610,5.21706859971
0761-0043,Dijnselburgerlaan,52.10206372930,5.25499252893
0454-1610,Brugakker,52.08217944090,5.21216261116
0454-4202,Brugakker,52.08383363770,5.21154276786
0454-4206,Brugakker,52.08330630330,5.21142028989
2669-0003,Pijlstaartlaan,52.08880826430,5.21038126652
1945-0001,Lepelaarlaan,52.08914052270,5.21270054848
0008-0004,Aalscholverlaan,52.08892679150,5.21290116409
0008-0005,Aalscholverlaan,52.08915536880,5.21309137116
3676-93,Weeshuisplein,52.08616388070,5.24271250168
2921-0018,Cornelis Schellingerlaan,52.08305699390,5.22570068281
2921-0007,Cornelis Schellingerlaan,52.08066674760,5.22928168764
1061-0008,Griffensteijnseplein,52.08097583440,5.22864077251
0454-5101,Brugakker,52.08490140140,5.21162386132
0454-5104,Brugakker,52.08462577410,5.21098222600
0454-5501,Brugakker,52.08400285320,5.20986002182
0454-5613,Brugakker,52.08320998420,5.21011085954
1005-0003,De Gooyertiend,52.08983653250,5.21419478483
1671-0017,Koppelweg,52.08798257520,5.21846714583
0454-3202,Brugakker,52.08234801670,5.21518170558
0454-3206,Brugakker,52.08253457180,5.21463166379
0454-3101,Brugakker,52.08257683670,5.21440237078
1791-0008,Kwikstaartlaan,52.08762785600,5.21335216467
3676-107,Weeshuisplein,52.08604253980,5.24226290545
3676-108,Weeshuisplein,52.08604478040,5.24244138357
3676-106,Weeshuisplein,52.08643540510,5.24215816613
1851-0002,Laan van Henegouwen,52.08064008890,5.22637157662
1811-0001,Laan van Bergen,52.08099327560,5.22744246351
0454-3103,Brugakker,52.08267007460,5.21409243995
0454-3504,Brugakker,52.08311998940,5.21284155988
0454-6801,Brugakker,52.08446858280,5.20845396622
0454-6206,Brugakker,52.08530200380,5.20996336118
1671-0016,Koppelweg,52.08773064510,5.21822878407
1911-0001,Leeuweriklaan,52.08693334940,5.21463974283
1614-4,Meester de Klerkstraat,52.08573837930,5.24122006408
1614-3,Meester de Klerkstraat,52.08571736950,5.24119301580
0381-0025,Filips van Bourgondieln,52.08346208500,5.22405475948
0525-3116,De Clomp,52.08347208080,5.22007549116
0454-6401,Brugakker,52.08490079590,5.20766765732
0454-6502,Brugakker,52.08447750540,5.20728430452
0454-6504,Brugakker,52.08449262890,5.20667627110
0454-6506,Brugakker,52.08488419260,5.20622944379
0454-6507,Brugakker,52.08508441060,5.20643937671
3702-0054,Weteringlaan,52.08385549730,5.21353871000
3702-0049,Weteringlaan,52.08334179390,5.21449457255
0752-0004,Dwarsweg,52.09088307770,5.23706104696
0454-3509,Brugakker,52.08251779130,5.21197234774
0454-5801,Brugakker,52.08245837980,5.21071344622
0454-5805,Brugakker,52.08202975730,5.20999049319
2651-0012,Prinses Margrietlaan,52.07366694420,5.26588884492
2651-0009,Prinses Margrietlaan,52.07314742430,5.26507757521
2651-0008,Prinses Margrietlaan,52.07293543070,5.26474685302
2651-0005,Prinses Margrietlaan,52.07242146030,5.26394685460
2651-0037,Prinses Margrietlaan,52.07653718810,5.27036681948
1421-0037,Jagersingel,52.08534189820,5.26645572743
2351-0058,Oranje Nassaulaan,52.08081958190,5.26409314123
0861-0005,Ernst Casimirlaan,52.07942668700,5.25363030515
0861-0006,Ernst Casimirlaan,52.07953473080,5.25395958289
0861-0007,Ernst Casimirlaan,52.07964775140,5.25430975630
0861-0008,Ernst Casimirlaan,52.07978159830,5.25471204222
0861-0010,Ernst Casimirlaan,52.07999909940,5.25538942266
2501-0011,Burgemeester Patijnlaan,52.09538019630,5.23296372696
2501-0005,Burgemeester Patijnlaan,52.09489268060,5.23065360483
2501-0002,Burgemeester Patijnlaan,52.09453352970,5.22954745595
0371-0015,Charlotte de Bourbonlaan,52.08061444880,5.25443057380
0481-0003,Anna van Burenlaan,52.07958496240,5.25469459335
0051-0012,Anna Paulownalaan,52.07374642400,5.26086115128
0051-0014,Anna Paulownalaan,52.07348328040,5.26147839007
0161-0012,Nicolaas Beetslaan,52.09311109240,5.23542478043
2501-0035,Burgemeester Patijnlaan,52.09791355420,5.24113862222
2501-0030,Burgemeester Patijnlaan,52.09739303550,5.23927405988
2501-0023,Burgemeester Patijnlaan,52.09677385060,5.23686306403
0931-0005,Jan Willem Frisolaan,52.08104466070,5.25820073939
0931-0011,Jan Willem Frisolaan,52.07978329890,5.25942650395
3061-0007,Amalia van Solmslaan,52.07885924670,5.25481955417
2311-8009,Nijenheim,52.08422356970,5.21872467279
2311-8111,Nijenheim,52.08490713280,5.21843326595
2311-6305,Nijenheim,52.08518182960,5.21828165547
2311-9004,Nijenheim,52.08512518630,5.21941591304
2311-3202,Nijenheim,52.08440459420,5.22207123341
0591-4601,Couwenhoven,52.07826199430,5.21913740940
0591-4303,Couwenhoven,52.07912752890,5.21720530286
1711-0040,Krakelingweg,52.10226834430,5.26426321321
2411-0022,Oude Woudenbergse Zandwg,52.10219511100,5.26324254953
2411-0014,Oude Woudenbergse Zandwg,52.10203467490,5.26036318181
2411-0016,Oude Woudenbergse Zandwg,52.10206487720,5.26110447115
2411-0009,Oude Woudenbergse Zandwg,52.10201404470,5.25862398117
2422-0034,Paduaweg,52.13977120250,5.24113542313
2422-0031,Paduaweg,52.13949585880,5.24011241084
2582-0001,Potterlaan,52.11608858260,5.25672158997
2582-0003,Potterlaan,52.11620047390,5.25597379515
2582-0007,Potterlaan,52.11595843810,5.25455232842
3131-0004,Jan Steenlaan,52.11648959310,5.25536208245
2311-4107,Nijenheim,52.08483607060,5.22087109294
2311-3302,Nijenheim,52.08500340010,5.22158577365
2311-3309,Nijenheim,52.08543580770,5.22170155761
2311-3310,Nijenheim,52.08556567050,5.22146077670
0591-4208,Couwenhoven,52.07897903860,5.21933970563
0591-4207,Couwenhoven,52.07935606180,5.21919789435
0591-1001,Couwenhoven,52.07961742030,5.21990239833
1711-0058,Krakelingweg,52.10116597560,5.26612439979
1711-0059,Krakelingweg,52.10103304340,5.26606973081
1711-0060,Krakelingweg,52.10121083420,5.26638783113
1711-0063,Krakelingweg,52.10105947930,5.26663007134
1711-0067,Krakelingweg,52.10061422990,5.26677967313
1711-0068,Krakelingweg,52.10059410170,5.26714803890
1421-0022,Jagersingel,52.08783625200,5.26352940170
1221-0018,Van der Heijdenlaan,52.09627608730,5.24149088960
2311-4106,Nijenheim,52.08465239360,5.22059154504
0591-1005,Couwenhoven,52.08029156770,5.22068872379
0591-1102,Couwenhoven,52.08020378750,5.22023021929
0591-3003,Couwenhoven,52.08062192350,5.22096829687
0591-3006,Couwenhoven,52.08086870170,5.22050757845
1711-0084,Krakelingweg,52.09932024870,5.26942436951
1711-0095,Krakelingweg,52.09874374010,5.27080150117
1711-0099,Krakelingweg,52.09839862190,5.27105438495
2311-7001,Nijenheim,52.08482551390,5.21617873979
2311-7004,Nijenheim,52.08488988960,5.21645335968
2311-8104,Nijenheim,52.08500616870,5.21718365458
1711-0108,Krakelingweg,52.09754148220,5.27227565989
1711-0135,Krakelingweg,52.09575868400,5.27492413632
3001-0020,Godfried van Seijstlaan,52.08105230760,5.22164444591
2002-0016,Prof. Lorentzlaan,52.08767584980,5.25469339723
2002-0002,Prof. Lorentzlaan,52.08510668500,5.25096700695
2587-0003,Gerhard Pranglaan,52.14108222700,5.23025620702
2587-0006,Gerhard Pranglaan,52.14082467220,5.23108376858
2587-0009,Gerhard Pranglaan,52.14121234270,5.23211541422
1711-0149,Krakelingweg,52.09512688000,5.27636493120
1711-0156,Krakelingweg,52.09479927680,5.27697675086
3676-67,Weeshuisplein,52.08653645220,5.24181345683
0418-0024,De Brink,52.08489083200,5.22829361276
0418-0022,De Brink,52.08475229340,5.22845480740
0418-0002,De Brink,52.08426851290,5.22616490412
2088-0006,Meent,52.08474088230,5.22646724304
0454-5607,Brugakker,52.08277011950,5.21050508471
3636-0005,Waterhoenlaan,52.08523455630,5.21383016470
1671-0001,Koppelweg,52.08459389110,5.21353584525
2651-0051,Prinses Margrietlaan,52.07851799480,5.27345972591
0953-0006,Galgeveld,52.09568731940,5.22501867488
0091-0004,Arnhemse Bovenweg,52.07062668560,5.26417647423
0091-0012,Arnhemse Bovenweg,52.07193279780,5.26215372407
0091-0018,Arnhemse Bovenweg,52.07319351110,5.25999645373
0091-0023,Arnhemse Bovenweg,52.07395264350,5.25867900009
0311-0004,Boskant,52.08261039220,5.26301663868
0311-0002,Boskant,52.08213787790,5.26329683148
1491-0004,Julianaplein,52.07933239380,5.26163732168
1491-0008,Julianaplein,52.07969184720,5.26127282936
1491-0010,Julianaplein,52.07944929190,5.26199631454
2621-0004,Prins Mauritslaan,52.07857791250,5.25780288093
2621-0005,Prins Mauritslaan,52.07830245070,5.25802629923
0921-0011,Frederik Hendriklaan,52.07843099060,5.25667492587
3401-0005,Tussen de Dennen,52.08090995690,5.26037005562
2651-0026,Prinses Margrietlaan,52.07565802220,5.26808428037
2651-0016,Prinses Margrietlaan,52.07425344810,5.26621009186
3001-0003,Godfried van Seijstlaan,52.07811680900,5.22842038398
2771-0003,Ridderschapslaan,52.08164467900,5.22253190166
3702-0041,Weteringlaan,52.08261388020,5.21586990710
0454-3601,Brugakker,52.08106999160,5.21578030860
0454-3609,Brugakker,52.08207697520,5.21466334345
0454-3612,Brugakker,52.08188586110,5.21386941835
0454-3614,Brugakker,52.08200905850,5.21395868371
3811-0015,Zinzendorflaan,52.07913607330,5.23562461571
1191-0019,Hernhuttersingel,52.07770668990,5.23449473552
3811-0020,Zinzendorflaan,52.08034451640,5.23360037240
1621-0029,Koelaan,52.07411799190,5.22749187992
1621-0048,Koelaan,52.07735120810,5.23216371710
0721-0081,Driebergseweg,52.08046515720,5.24091627875
2771-0006,Ridderschapslaan,52.08230326060,5.22354576354
2771-0004,Ridderschapslaan,52.08183987940,5.22283325604
1822-0014,Laan van Cattenbroeck,52.08068944480,5.22472743326
1822-0013,Laan van Cattenbroeck,52.08049417710,5.22516358509
1822-0012,Laan van Cattenbroeck,52.08030032500,5.22559100430
1822-0003,Laan van Cattenbroeck,52.07866354820,5.22896893159
0454-1503,Brugakker,52.08180169890,5.21303310668
0454-3704,Brugakker,52.08184974810,5.21609324712
0454-3710,Brugakker,52.08233539190,5.21561534503
0811-0013,Eikenlaan,52.09653276230,5.24594027616
0191-0002,Berkenlaan,52.09308110890,5.24334700112
0191-0007,Berkenlaan,52.09388748080,5.24498604963
0631-0004,Dalweg,52.09418288410,5.24462185299
0865-0004,Wilhelmina van Essenlaan,52.14198482160,5.24016736108
1241-0020,Hezer Enghweg,52.13863468250,5.24057424786
1241-0003,Hezer Enghweg,52.13691222510,5.23435265221
3251-0005,Tesselschadelaan,52.09182373410,5.22709546658
1841-0013,Laan van Eikenstein,52.09678386040,5.22161003330
1631-0001,Koepellaan,52.09799587530,5.22252804823
1631-0008,Koepellaan,52.09722128330,5.22097008206
1871-0001,Laan van Vollenhove,52.10259874820,5.23739612514
1871-0039,Laan van Vollenhove,52.10203196940,5.23086743666
1871-0035,Laan van Vollenhove,52.10255213520,5.23128673726
1871-0056,Laan van Vollenhove,52.10321561730,5.22940450424
1871-0055,Laan van Vollenhove,52.10284388050,5.22897269986
1871-0064,Laan van Vollenhove,52.10172450160,5.22689274995
1961-0017,Jan Ligthartplein,52.10128277990,5.21895281712
1871-0068,Laan van Vollenhove,52.10122286070,5.22489401102
1871-0069,Laan van Vollenhove,52.10119090910,5.22436369226
1871-0085,Laan van Vollenhove,52.09965185040,5.22093770833
2212-0004,Montessorilaan,52.10068143060,5.21867320196
2212-0009,Montessorilaan,52.10081727450,5.21714291366
3801-0001,Zamenhoflaan,52.10182351380,5.22431598582
0551-0006,Comeniuslaan,52.10229597900,5.22425864594
0551-0014,Comeniuslaan,52.10228758330,5.22182977989
0551-0017,Comeniuslaan,52.10204458550,5.22097005837
0711-0070,De Dreef,52.10032433140,5.22483126163
0711-0028,De Dreef,52.10063213250,5.22605112870
0711-0042,De Dreef,52.10133219150,5.23279749131
0711-0083,De Dreef,52.10102556510,5.23303259610
0711-0043,De Dreef,52.10147656420,5.23356856458
0711-0048,De Dreef,52.10207217280,5.23625603832
3221-0003,Talmalaan,52.10164303130,5.24026880140
2721-0007,Regentesselaan,52.08222029800,5.26802375457
2721-0009,Regentesselaan,52.08260330640,5.26835339659
2641-0049,Prinses Irenelaan,52.08269803510,5.26855180089
3610-0003,Waldeck Pyrmontlaan,52.07969066060,5.26662826956
3801-0002,Zamenhoflaan,52.10187822460,5.22375365622
0125-0005,Bachlaan,52.09861340630,5.21855958996
0125-0008,Bachlaan,52.09889424880,5.21787114285
0125-0007,Bachlaan,52.09865132460,5.21800065979
0125-0010,Bachlaan,52.09848951150,5.21725609090
0125-0014,Bachlaan,52.09844683920,5.21634332876
0125-0015,Bachlaan,52.09857049600,5.21608879514
0514-0001,Chopinlaan,52.09871948430,5.21850957005
0514-0013,Chopinlaan,52.09960653470,5.21978303773
0514-0028,Chopinlaan,52.10000792740,5.21532414952
3205-0003,Strausslaan,52.09959400660,5.21718828154
3205-0005,Strausslaan,52.09955127730,5.21669620323
1985-0001,Lisztplein,52.09912945160,5.21835248145
1985-0004,Lisztplein,52.09910434360,5.21765378768
0291-0001,Borneolaan,52.09900769920,5.24896724780
1691-0019,Korte Bergweg,52.10825397540,5.25477491150
1691-0018,Korte Bergweg,52.10845565310,5.25465346485
1354-0011,Hubertweg,52.07798964130,5.31730491487
1354-0005,Hubertweg,52.07808647520,5.31875715784
1354-0007,Hubertweg,52.07849141630,5.31919759352
0138-0003,Dirkje van Barneveldweg,52.07834752650,5.31715201986
0138-0006,Dirkje van Barneveldweg,52.07838118010,5.31810180256
1151-0008,Heideweg,52.07418138690,5.25309207795
3061-0014,Amalia van Solmslaan,52.07964648600,5.25723343357
3061-0015,Amalia van Solmslaan,52.07974394530,5.25753405338
0531-0009,Louise de Colignyplein,52.07749484580,5.25282574731
2935-0005,Schermerslaan,52.09508807000,5.22824963869
2935-0017,Schermerslaan,52.09564867150,5.22956316837
2935-0019,Schermerslaan,52.09589187640,5.23030719941
2935-0030,Schermerslaan,52.09646056960,5.23256856007
1331-0004,P C Hooftlaan,52.09328178920,5.22710189954
3501-0017,Roemer Visscherlaan,52.09380600530,5.22788111199
3501-0019,Roemer Visscherlaan,52.09367939260,5.22714273706
2801-0006,Rooseveltlaan,52.10335506830,5.24332783530
2131-0004,Van der Merschlaan,52.09504023820,5.23784708610
0802-0002,Egelinglaan,52.09617582660,5.23609257151
0802-0016,Egelinglaan,52.09496233540,5.24119017185
1221-0007,Van der Heijdenlaan,52.09542927660,5.23955120836
1951-0005,Lievendaallaan,52.09580607080,5.24225398015
1221-0014,Van der Heijdenlaan,52.09637716500,5.24111229576
1221-0019,Van der Heijdenlaan,52.09654201660,5.24139885132
2231-0004,Ds. Nahuyslaan,52.09463391250,5.23528532577
2231-0006,Ds. Nahuyslaan,52.09501655580,5.23627788317
2231-0008,Ds. Nahuyslaan,52.09529712940,5.23690276189
3551-0003,Joost van den Vondellaan,52.09436594520,5.23651526371
3551-0015,Joost van den Vondellaan,52.09582077290,5.23463613309
3551-0016,Joost van den Vondellaan,52.09601179720,5.23439993350
3551-0019,Joost van den Vondellaan,52.09657757850,5.23368833701
1371-0007,Constantijn Huygenslaan,52.09337445950,5.23410088777
1371-0011,Constantijn Huygenslaan,52.09448763960,5.23377273365
0962-0007,De Genestetlaan,52.09381585530,5.23203833412
0962-0012,De Genestetlaan,52.09508351900,5.23224526696
0231-0006,Bilderdijklaan,52.09347533790,5.23379875074
0571-0001,Da Costalaan,52.09370957460,5.22876077375
0291-0005,Borneolaan,52.09970373460,5.25000943817
0291-0007,Borneolaan,52.10008601250,5.25057830311
2281-0006,Mgr. Nolenslaan,52.09952306660,5.24205114826
0067-0003,Archipel,52.09991880650,5.25073672786
2391-0046,Oude Arnhemseweg,52.09373460050,5.23028292714
2391-0047,Oude Arnhemseweg,52.09389072020,5.23000830356
2341-0024,Johan v Oldenbarneveltln,52.09857945340,5.24024232246
2341-0017,Johan v Oldenbarneveltln,52.09808614050,5.23850938008
0501-0016,Jacob Catslaan,52.09421283350,5.23074883466
0501-0008,Jacob Catslaan,52.09403964840,5.23380122056
0501-0007,Jacob Catslaan,52.09399584550,5.23415504870
0501-0005,Jacob Catslaan,52.09386319350,5.23491812116
2881-0059,Schaerweijdelaan,52.09571531900,5.24334107061
2881-0058,Schaerweijdelaan,52.09551666580,5.24318655534
2881-0037,Schaerweijdelaan,52.09352660090,5.23881446537
2881-0043,Schaerweijdelaan,52.09420423790,5.24006504318
0391-0004,Titus Brandsmalaan,52.10261117340,5.24422198352
0391-0009,Titus Brandsmalaan,52.10335876760,5.24456108200
0781-0004,Leendert Edelmanlaan,52.10336763560,5.24696167921
1696-0001,Burg Korthals Altesln,52.09651581050,5.25002829444
3451-0004,Gerrit Jan vd Veenln,52.10291305350,5.24365088321
1571-0007,Albert C Kerkhofflaan,52.10120539060,5.24468262591
1571-0001,Albert C Kerkhofflaan,52.10215089100,5.24412063791
1431-0006,Javalaan,52.10015387120,5.24881897706
0131-0002,Balilaan,52.10070848380,5.25087026449
2871-0007,Dr. Schaepmanlaan,52.09226517480,5.23911518379
0996-0002,Guido Gezellelaan,52.09206288820,5.22672733104
3011-0100,Slotlaan,52.08933366300,5.24880345392
2401-0053,Oude Postweg,52.07730001270,5.31760441514
1861-0006,Laan van Rijnwijk,52.07013120160,5.25217991794
1631-0013,Koepellaan,52.09675744850,5.21944418728
3633-0012,Warande,52.09710130730,5.22030409984
3633-0025,Warande,52.09832771480,5.22132362149
3633-0027,Warande,52.09846593270,5.22089714770
3633-0029,Warande,52.09862160820,5.22116334811
0711-0088,De Dreef,52.09704282180,5.21846025871
0711-0010,De Dreef,52.09853067550,5.21961753242
0711-0014,De Dreef,52.09923004000,5.22093927571
0711-0066,De Dreef,52.09981372450,5.22269359358
0181-0034,Bergweg,52.09445691980,5.24315210437
0181-0042,Bergweg,52.09585047580,5.24389071247
0181-0048,Bergweg,52.09652613050,5.24472749584
3431-0077,Utrechtseweg,52.09377826870,5.22017325560
3431-0085,Utrechtseweg,52.09538180710,5.21728227489
3431-0088,Utrechtseweg,52.09583182630,5.21684238018
3431-0096,Utrechtseweg,52.09690439790,5.21416118283
3431-0101,Utrechtseweg,52.09748472550,5.21329938575
3431-0103,Utrechtseweg,52.09764186130,5.21302393000
0191-0017,Berkenlaan,52.09547156130,5.24822143620
1021-0013,Graaf Janlaan,52.07948639590,5.26592619225
1021-0014,Graaf Janlaan,52.07973170200,5.26621055156
1021-0018,Graaf Janlaan,52.08043523260,5.26747945559
1341-0005,Hoog Kanje,52.07629939940,5.26128914186
1341-0012,Hoog Kanje,52.07661187630,5.26208668015
1341-0015,Hoog Kanje,52.07618645990,5.26260791075
1341-0019,Hoog Kanje,52.07675439540,5.26245669481
0891-0015,Fornheselaan,52.14049257210,5.24390959865
1221-0021,Van der Heijdenlaan,52.09685333320,5.24149065780
1631-0017,Koepellaan,52.09720940260,5.21912908681
0891-0019,Fornheselaan,52.14091298700,5.24610693460
0891-0032,Fornheselaan,52.14158733060,5.24864369404
0891-0038,Fornheselaan,52.14230804790,5.25161193230
1251-0004,Hindelaan,52.14091583480,5.25099982629
3261-0009,Van Tetslaan,52.09795953110,5.25087535165
3411-0009,Burgemeester v Tuijllln,52.09806472110,5.25235096465
3411-0008,Burgemeester v Tuijllln,52.09768366510,5.25249991586
3442-0023,Valckenboschlaan,52.09522699470,5.25711933895
0181-0056,Bergweg,52.09764899950,5.24698152250
0181-0052,Bergweg,52.09708291890,5.24583928857
0981-0014,Gerolaan,52.09568013320,5.24547812725
0011-0001,Acacialaan,52.09363684050,5.25398371508
0011-0004,Acacialaan,52.09325840920,5.25294243920
2441-0016,Paltzerweg,52.13610321900,5.23532914583
2441-0015,Paltzerweg,52.13607220040,5.23495917009
1241-0016,Hezer Enghweg,52.13827216460,5.23918052905
0061-0001,Antonlaan,52.08628238130,5.24340579161
0061-0025,Antonlaan,52.08856448640,5.24664728681
1751-0007,Krullelaan,52.08410880230,5.24808934682
1751-0004,Krullelaan,52.08356814200,5.24710600787
1361-0011,Huydecoperweg,52.08620998520,5.24769926721
1361-0009,Huydecoperweg,52.08637867070,5.24735590310
2881-0029,Schaerweijdelaan,52.09244621160,5.23654462774
2881-0031,Schaerweijdelaan,52.09275216740,5.23718184596
2881-0001,Schaerweijdelaan,52.08885597430,5.22913606706
0606-1401,Crosestein,52.09112056230,5.21679046534
0606-1202,Crosestein,52.09066541970,5.21635987785
0606-1203,Crosestein,52.09077412970,5.21638694024
1291-0026,1e Hogeweg,52.08500183650,5.24220346616
1614-0001,Meester de Klerkstraat,52.08554869820,5.24122866470
1581-0008,Kerkweg,52.08486323280,5.24117469464
1581-0006,Kerkweg,52.08451152150,5.24036079759
2002-0010,Prof. Lorentzlaan,52.08651394870,5.25299865126
2002-0011,Prof. Lorentzlaan,52.08666702860,5.25341184663
2002-0012,Prof. Lorentzlaan,52.08690831660,5.25358989160
2002-0065,Prof. Lorentzlaan,52.09670103500,5.26785420045
2002-0060,Prof. Lorentzlaan,52.09574723540,5.26648056979
2002-0039,Prof. Lorentzlaan,52.09197651740,5.26102801409
0061-0031,Antonlaan,52.08972250290,5.24811516656
2641-0030,Prinses Irenelaan,52.08317062710,5.27277495155
2002-0071,Prof. Lorentzlaan,52.09780962900,5.26948336719
0081-0023,Aristoteleslaan,52.09237038250,5.25809559002
0081-0030,Aristoteleslaan,52.09414672480,5.25821337190
0081-0013,Aristoteleslaan,52.09015565760,5.25632197456
1321-0001,Homeruslaan,52.09348227760,5.25851133769
1321-0005,Homeruslaan,52.09421629040,5.25958802991
1321-0013,Homeruslaan,52.09569732460,5.26171825742
1321-0014,Homeruslaan,52.09594494300,5.26195102289
1982-0016,Lindenlaan,52.09319243100,5.25530703028
2341-0009,Johan v Oldenbarneveltln,52.09750353790,5.23647042407
3271-0001,Thorbeckelaan,52.09679176590,5.23360539992
2039-0001,Nelson Mandelalaan,52.09070614660,5.25010579418
2039-0008,Nelson Mandelalaan,52.09276917730,5.25104367846
0985-0016,Gandhilaan,52.09092206870,5.24968317314
0985-0007,Gandhilaan,52.09176479640,5.25006214702
0985-0010,Gandhilaan,52.09258106330,5.25023308836
3121-0001,Stationslaan,52.08892631740,5.24911898760
3121-0004,Stationslaan,52.08834144700,5.25001584240
1381-0001,Idenburglaan,52.09924020300,5.23670181955
1281-0002,Van Hogendorplaan,52.09897112160,5.23962788904
3381-0003,Troelstralaan,52.09989995960,5.23829546865
3721-0002,Dr. Wibautlaan,52.10026887820,5.23932155841
3721-0001,Dr. Wibautlaan,52.09995940820,5.23949106057
2535-0005,Albert Plesmanring,52.11074861750,5.25234075946
0019-0004,Kardinaal Alfrinkhof,52.10975266260,5.25315860756
2601-0001,Prins Bernhardlaan,52.08401315120,5.25275096621
0721-0032,Driebergseweg,52.07241345310,5.25219496157
0721-0041,Driebergseweg,52.07356399030,5.24988491927
0721-0042,Driebergseweg,52.07382205740,5.24974150742
1721-0018,Kritzingerlaan,52.09370714490,5.24883188202
0606-4606,Crosestein,52.09332928260,5.21807113625
0606-4102,Crosestein,52.09320829690,5.21614418318
1728-0022,Kromme-Rijnlaan,52.09434702180,5.21598246829
0721-0002,Driebergseweg,52.06685617760,5.25916252416
0721-0009,Driebergseweg,52.06809420480,5.25767927519
0721-0015,Driebergseweg,52.06929110430,5.25624286031
0721-0016,Driebergseweg,52.06953930940,5.25616418135
0847-0009,Erasmuslaan,52.10016754640,5.25850283382
3079-0010,Spinozalaan,52.09948964910,5.26281008568
2971-0008,Schoolweg,52.07963084040,5.31528021660
2971-0009,Schoolweg,52.07942865450,5.31506387520
3691-0001,Wellingtonweg,52.07866945710,5.31530731061
2961-0007,Schooldwarsweg,52.07882125830,5.31549116164
3681-0005,Weideweg,52.07885916580,5.31671753261
3361-0004,Traayweg,52.07715170730,5.32283251815
1861-0013,Laan van Rijnwijk,52.07038777580,5.25348494348
1861-0003,Laan van Rijnwijk,52.07087459540,5.25288539646
0136-0003,Barendrechtweg,52.08729309710,5.30415949152
2401-0005,Oude Postweg,52.08664978400,5.30492328972
2401-0014,Oude Postweg,52.08442554030,5.30623131456
0111-0033,Austerlitzseweg,52.08323352800,5.30674797257
0111-0029,Austerlitzseweg,52.08386266760,5.30516415559
0111-0027,Austerlitzseweg,52.08418699080,5.30441058025
0111-0019,Austerlitzseweg,52.08556895540,5.30108391174
2401-0025,Oude Postweg,52.08198051730,5.30933007885
2401-0036,Oude Postweg,52.07948482450,5.31220478042
2271-0001,D.J. v. Nieuwenhuizenweg,52.07954933980,5.31177299545
2271-0002,D.J. v. Nieuwenhuizenweg,52.07935092740,5.31141994845
2271-0006,D.J. v. Nieuwenhuizenweg,52.07854236160,5.31043684585
3652-0004,Waterlooweg,52.07787593440,5.31123794596
3652-0007,Waterlooweg,52.07740227690,5.31226173391
3652-0009,Waterlooweg,52.07711050410,5.31296001201
0141-0005,de Beaufortweg,52.07752513540,5.31247162813
0141-0003,de Beaufortweg,52.07789502290,5.31287842257
1041-0002,Gramserweg,52.08172234120,5.31573310558
1914-0005,Pater de Leeuwweg,52.08016313040,5.31522742322
0091-0094,Arnhemse Bovenweg,52.07745355410,5.25081963509
0091-0093,Arnhemse Bovenweg,52.07777481630,5.25161283195
0211-0003,Den Dolder Noord,52.08890892380,5.25064645426
1201-0004,Hertenlaan,52.13668470320,5.25085792156
1201-0011,Hertenlaan,52.13718391320,5.25398322394
0361-0007,Boulevard,52.09216146770,5.25130242785
2021-0013,Lyceumlaan,52.09114482480,5.25563741983
2021-0007,Lyceumlaan,52.09044215500,5.25356797055
2021-0005,Lyceumlaan,52.09040935980,5.25278732932
0911-0006,Fransen van de Puttelaan,52.08972598690,5.25464468049
0081-0010,Aristoteleslaan,52.08954239430,5.25559340625
2401-0049,Oude Postweg,52.07775020400,5.31637666452
3431-0064,Utrechtseweg,52.09213669470,5.22392103375
1731-0005,Kroostweg,52.08752701340,5.22844881017
1147-0004,Het Hazepad,52.08854790230,5.24201517303
0017-0004,Achterheuvel,52.08817663970,5.24391852458
0017-0005,Achterheuvel,52.08810500550,5.24376573996
0017-0007,Achterheuvel,52.08816487700,5.24335569981
0017-0009,Achterheuvel,52.08782282620,5.24361741304
1207-0019,De Heuvel,52.08787513340,5.24155169150
1207-0015,De Heuvel,52.08819948770,5.24160572047
1207-0025,De Heuvel,52.08815360180,5.24158085397
2667-0020,Promenade,52.08718793550,5.24180798961
2667-0028,Promenade,52.08732985320,5.24273207288
2667-0008,Promenade,52.08773929110,5.24256432725
3676-0002,Weeshuisplein,52.08688814320,5.24111189652
3676-0006,Weeshuisplein,52.08681055150,5.24110636032
1614-0002,Meester de Klerkstraat,52.08662062550,5.24209402282
3351-0001,Torenlaan,52.08672370510,5.24239927810
2162-0003,Middellaan,52.08729850910,5.24425336630
2162-0009,Middellaan,52.08671489950,5.24532549716
3771-0009,Woudenbergseweg,52.08531705680,5.24687504166
0511-0004,Choisyweg,52.08428012510,5.24548483630
3311-0005,Timmermanlaan,52.08341173260,5.24655662070
3676-0010,Weeshuisplein,52.08610938410,5.24232970249
3671-0003,Weeshuislaan,52.08714791590,5.24141956500
0061-0008,Antonlaan,52.08695417990,5.24400430775
0061-0006,Antonlaan,52.08675333340,5.24371897134
0061-0005,Antonlaan,52.08660642370,5.24366417017
0051-0004,Anna Paulownalaan,52.07277472840,5.26325516054
1341-0046,Hoog Kanje,52.07805022840,5.27171877081
0191-0021,Berkenlaan,52.09609125490,5.24948979592
2201-0005,Montaubanstraat,52.08470620510,5.23728171885
0181-0026,Bergweg,52.09283114050,5.24295722475
1991-0015,Lommerlust,52.08658452730,5.23792658249
1991-0006,Lommerlust,52.08580334720,5.23643713367
3161-0014,Steynlaan,52.09030593980,5.24527461243
3161-0027,Steynlaan,52.09159195830,5.24282404187
0581-0020,Costerlaan,52.09000560570,5.24509190983
0581-0014,Costerlaan,52.08978505640,5.24462859004
0581-0009,Costerlaan,52.08931828630,5.24440431337
0581-0005,Costerlaan,52.08923661760,5.24400486091
1741-0011,Krugerlaan,52.09045881540,5.24342401265
1741-0005,Krugerlaan,52.08966565430,5.24478137966
1741-0004,Krugerlaan,52.08954800120,5.24488744204
1921-0004,Leliestraat,52.08773044820,5.23845629415
3011-0079,Slotlaan,52.08889669690,5.24871600439
0955-0005,Geiserlaan,52.09003833140,5.24705761409
2291-0004,Nooitgedacht,52.08240022040,5.24215725648
2291-0006,Nooitgedacht,52.08262285300,5.24286986339
0606-1705,Crosestein,52.09027597940,5.21919314404
1671-0025,Koppelweg,52.08962142270,5.22066745576
3151-0005,Steniaweg,52.08646684850,5.23543717242
2671-0004,Willem Pijperlaan,52.08733241730,5.23485120875
2021-0009,Lyceumlaan,52.09057499650,5.25427541405
2021-0017,Lyceumlaan,52.09185392230,5.25670997806
2521-0013,Platolaan,52.09396339860,5.26143800645
2291-0009,Nooitgedacht,52.08291935440,5.24403899677
2031-0003,Henriette v Lijndenlaan,52.08311817020,5.23590842365
1591-0016,Kersbergenlaan,52.08414481190,5.23642224865
1601-0001,Kersbergenplein,52.08313958960,5.23443355483
1601-0002,Kersbergenplein,52.08339233070,5.23414640672
1131-0004,Harmonielaan,52.09061031160,5.22431411319
2331-0002,Oirschotlaan,52.09197480960,5.22316587826
0261-0001,Bloemenheuvellaan,52.08733112110,5.23262649239
0261-0004,Bloemenheuvellaan,52.08706273760,5.23336519579
2091-0005,Jan Meerdinklaan,52.08876075490,5.23179028006
0161-0009,Nicolaas Beetslaan,52.09269624280,5.23453898860
0161-0010,Nicolaas Beetslaan,52.09281877370,5.23479180256
3011-0004,Slotlaan,52.08265702530,5.24013077166
3431-0006,Utrechtseweg,52.08387862870,5.23699820140
3431-0004,Utrechtseweg,52.08356639930,5.23701445818
0606-0006,Crosestein,52.09148709760,5.22193566511
0606-0008,Crosestein,52.09187782270,5.22243923241
0721-0071,Driebergseweg,52.07823678090,5.24187314831
0721-0078,Driebergseweg,52.07993769150,5.24107576847
3141-0001,Steniahof,52.08639150410,5.23509083660
3471-0103,Verlengde Slotlaan ZEIST,52.10064686990,5.26556320060
3755-0005,Meester Willemsenlaan,52.14414428090,5.23666513123
0591-6205,Couwenhoven,52.07762947150,5.22402913230
0591-6306,Couwenhoven,52.07833356460,5.22540644856
0591-6406,Couwenhoven,52.07825718220,5.22427426274
0591-6209,Couwenhoven,52.07790483920,5.22306318971
1321-0028,Homeruslaan,52.09854650530,5.26403438017
3471-0108,Verlengde Slotlaan ZEIST,52.10178208770,5.26750398033
3471-0126,Verlengde Slotlaan ZEIST,52.10471359760,5.27168588720
2582-0010,Potterlaan,52.11535577590,5.25388156130
2831-0012,Ruysdaellaan,52.11540105620,5.25349117206
2831-0015,Ruysdaellaan,52.11612690220,5.25303218121
2831-0018,Ruysdaellaan,52.11637034350,5.25217901513
2831-0022,Ruysdaellaan,52.11718591100,5.25213851257
1161-0002,Van der Helstlaan,52.11833987710,5.25244220178
1982-0012,Lindenlaan,52.09339921150,5.25473911217
3471-0014,Verlengde Slotlaan ZEIST,52.09260395970,5.25426370842
3471-0015,Verlengde Slotlaan ZEIST,52.09276729790,5.25437108303
3471-0019,Verlengde Slotlaan ZEIST,52.09362868000,5.25574088964
3471-0027,Verlengde Slotlaan ZEIST,52.09489200110,5.25772493235
3041-0008,Socrateslaan,52.09759992130,5.25978749724
2997-0009,Senecalaan,52.09861828820,5.26840681544
2997-0010,Senecalaan,52.09879868660,5.26866408418
3631-0002,Wallenburg,52.10318736400,5.25865891334
3631-0013,Wallenburg,52.10282385450,5.26229496713
1341-0023,Hoog Kanje,52.07709059930,5.26437937705
1341-0041,Hoog Kanje,52.07782548920,5.26995336286
1011-0009,Graaf Adolflaan,52.07638665270,5.26471162954
1402-0003,Dr. s'Jacoblaan,52.09810236070,5.24987164457
1402-0007,Dr. s'Jacoblaan,52.09883531080,5.25097360125
1402-0011,Dr. s'Jacoblaan,52.09939654980,5.25226105514
1011-0008,Graaf Adolflaan,52.07624902040,5.26509740098
1011-0003,Graaf Adolflaan,52.07541546090,5.26372939832
2661-0002,Prinses Marijkelaan,52.07588953150,5.26072199816
0454-5307,Brugakker,52.08428084990,5.21051747317
0454-5107,Brugakker,52.08473586600,5.21065464293
0525-2101,De Clomp,52.08253089940,5.21697881816
0454-6508,Brugakker,52.08528085960,5.20660650282
0454-6503,Brugakker,52.08436646550,5.20698366067
0454-6607,Brugakker,52.08423123320,5.20719265157
3641-0035,Waterigeweg,52.08246909100,5.23601773126
1291-0028,1e Hogeweg,52.08485949320,5.24248185942
3621-0003,Walkartweg,52.08404345500,5.24129250329
3621-0002,Walkartweg,52.08426233570,5.24153559383
3702-0012,Weteringlaan,52.07734399370,5.22314483045
1051-0007,Griffensteijnselaan,52.08162233950,5.22947395399
3702-0067,Weteringlaan,52.08587008260,5.20883292851
0454-6302,Brugakker,52.08554547460,5.20704940003
3641-0011,Waterigeweg,52.08019955140,5.23276522970
3641-0014,Waterigeweg,52.07950922340,5.23178015743
1191-0002,Hernhuttersingel,52.07898376740,5.23209146543
1931-0002,Jacob van Lenneplaan,52.09264139040,5.24223551856
1985-0008,Lisztplein,52.09916638560,5.21732097776
1985-0006,Lisztplein,52.09881522260,5.21735355863
0159-0004,Beethovenlaan,52.09781536820,5.21806363088
0159-0013,Beethovenlaan,52.09781923390,5.21625776370
0321-0004,Boslaan,52.08785650050,5.25320531939
2002-0005,Prof. Lorentzlaan,52.08557246450,5.25181835906
2521-0009,Platolaan,52.09320031990,5.26034775914
2521-0030,Platolaan,52.09675859700,5.26605210189
2521-0032,Platolaan,52.09698318830,5.26667659356
3771-0027,Woudenbergseweg,52.08419472560,5.25282415871
1881-0008,Laantje zonder Eind,52.08444248120,5.25103554869
2002-0020,Prof. Lorentzlaan,52.08846553980,5.25581058664
2002-0022,Prof. Lorentzlaan,52.08883166010,5.25635141424
2002-0040,Prof. Lorentzlaan,52.09215482690,5.26130529205
1982-0035,Lindenlaan,52.09087345670,5.25915240186
1982-0033,Lindenlaan,52.09108350420,5.25878431922
2002-0041,Prof. Lorentzlaan,52.09234528560,5.26159678728
2002-0045,Prof. Lorentzlaan,52.09309015220,5.26267011632
2002-0049,Prof. Lorentzlaan,52.09376263190,5.26364647558
2002-0052,Prof. Lorentzlaan,52.09429084750,5.26436969660
2002-0057,Prof. Lorentzlaan,52.09521877250,5.26574194769
3741-0019,Wilhelminalaan,52.08582908220,5.24961901581
1751-0013,Krullelaan,52.08517776640,5.24995307496
1751-0012,Krullelaan,52.08498011610,5.24961926111
2611-0007,Prins Hendriklaan,52.08718192330,5.25042744451
2611-0014,Prins Hendriklaan,52.08800491140,5.25291717398
3471-0032,Verlengde Slotlaan ZEIST,52.09547348030,5.25808391542
3471-0033,Verlengde Slotlaan ZEIST,52.09530594380,5.25831524427
3471-0037,Verlengde Slotlaan ZEIST,52.09569523470,5.25872539922
1481-0020,Julianalaan,52.07903345490,5.26109979439
1481-0017,Julianalaan,52.07850105310,5.26022657056
1481-0012,Julianalaan,52.07769070390,5.25879421082
2641-0043,Prinses Irenelaan,52.08168924880,5.27036150525
3211-0009,Sumatralaan,52.09888289050,5.24876936388
2661-0006,Prinses Marijkelaan,52.07570847210,5.26103041862
2661-0009,Prinses Marijkelaan,52.07566042720,5.26160133400
2391-0030,Oude Arnhemseweg,52.09029794590,5.23290138301
2391-0029,Oude Arnhemseweg,52.09010584350,5.23313442683
2881-0018,Schaerweijdelaan,52.09099889020,5.23340631303
0606-3303,Crosestein,52.09175740950,5.21397527485
2751-0011,Van Renesselaan,52.08330423000,5.23209614657
2201-0009,Montaubanstraat,52.08520651160,5.23791069779
2201-0008,Montaubanstraat,52.08511955840,5.23751627640
2191-0002,Molenweg,52.07685046430,5.24505725460
2121-0005,Johan de Meesterstraat,52.08986828120,5.23536699173
2061-0004,Mr. H Marsmanstraat,52.09071401410,5.23601351895
3171-0005,Melis Stokestraat,52.09014122800,5.23414139968
3171-0008,Melis Stokestraat,52.09070121990,5.23439881995
3011-0010,Slotlaan,52.08316321540,5.24033307714
3711-0004,De Wetlaan,52.09106910260,5.24521300755
3711-0001,De Wetlaan,52.09056411790,5.24612243432
2191-0011,Molenweg,52.07828251590,5.24799205544
2191-0012,Molenweg,52.07845292300,5.24834426379
1051-0053,Griffensteijnselaan,52.08866365990,5.21889268445
1051-0049,Griffensteijnselaan,52.08800860590,5.21968124981
3171-0013,Melis Stokestraat,52.09102516000,5.23469232060
0703-0002,Doudart de la Greehof,52.08928402320,5.23580092746
2711-0011,Van Reenenweg,52.08900682870,5.23593138911
2711-0013,Van Reenenweg,52.08939804230,5.23651439688
1801-0017,Laan van Beek en Royen,52.08242669810,5.24595821618
0091-0079,Arnhemse Bovenweg,52.08217638840,5.24654814154
1301-0003,2e Hogeweg,52.08397466730,5.24383729348
1721-0009,Kritzingerlaan,52.09211109010,5.24652540897
2761-0001,de la Reylaan,52.09125264050,5.24678812078
0351-0003,Bothalaan,52.09122373200,5.24644394230
1051-0044,Griffensteijnselaan,52.08700898140,5.22121259392
1051-0043,Griffensteijnselaan,52.08664467500,5.22142203920
1051-0067,Griffensteijnselaan,52.07996745120,5.23182362773
2241-0005,Nassau Odijklaan,52.08081927840,5.23697481403
2241-0008,Nassau Odijklaan,52.08052569790,5.23706078266
1231-0001,Jan Pieter Heijelaan,52.09067040110,5.23887145861
3392-0002,Tulpstraat,52.09028003620,5.23907241931
3392-0001,Tulpstraat,52.09044660910,5.23892885149
1301-0009,2e Hogeweg,52.08269543590,5.24585743000
2081-0003,Maurikstraat,52.08399402890,5.23775319473
2081-0004,Maurikstraat,52.08381610920,5.23811223998
0955-0013,Geiserlaan,52.09106790290,5.24730848964
1901-0006,Lageweg,52.08156492200,5.23736371262
1901-0009,Lageweg,52.08118993700,5.23804523450
1901-0011,Lageweg,52.08097790830,5.23842696094
1801-0001,Laan van Beek en Royen,52.08081223020,5.24113268699
2241-0020,Nassau Odijklaan,52.07972178790,5.23590464994
2811-0003,Rozenstraat,52.08840758280,5.23984703006
2811-0010,Rozenstraat,52.08960083160,5.23739750125
0611-0003,Dahliastraat,52.08893844850,5.23731914676
1921-0005,Leliestraat,52.08790585270,5.23851567873
3431-0033,Utrechtseweg,52.08685457510,5.23109226365
3431-0035,Utrechtseweg,52.08728574320,5.23076463066
3431-0048,Utrechtseweg,52.08925081310,5.22822877095
3431-0049,Utrechtseweg,52.08924712290,5.22791520623
0706-0003,Douglaslaan,52.11072780690,5.24111708663
1261-0013,Hobbemalaan,52.11632298740,5.25176388756
1261-0012,Hobbemalaan,52.11702391730,5.25134169941
1261-0011,Hobbemalaan,52.11772676310,5.25091041951
1261-0015,Hobbemalaan,52.11547220310,5.25229428470
0851-0002,Ericaweg,52.11296829280,5.26050000949
2531-0026,Pleineslaan,52.14289641310,5.23835708896
0741-0006,Joh van Duurenlaan,52.14022760940,5.23404564244
0741-0004,Joh van Duurenlaan,52.14064289600,5.23361840790
0741-0001,Joh van Duurenlaan,52.14127370550,5.23320036059
0521-0006,Churchilllaan,52.10200029650,5.24308720909
3241-0001,Anton O. H. Tellegenlaan,52.10145656470,5.24132835220
0151-0002,Karel J C Beckmanlaan,52.10129997770,5.24236702879
2831-0031,Ruysdaellaan,52.11923459480,5.25108613809
2831-0036,Ruysdaellaan,52.12035971250,5.25088441210
0761-0026,Dijnselburgerlaan,52.10423451550,5.25005279698
2991-0023,Schroeder van de Kolkln,52.13914565580,5.23256647815
2587-0007,Gerhard Pranglaan,52.14100389170,5.23139016839
2587-0008,Gerhard Pranglaan,52.14113532080,5.23182725220
1711-0150,Krakelingweg,52.09519482700,5.27654719863
1711-0153,Krakelingweg,52.09497020670,5.27666358501
1711-0154,Krakelingweg,52.09488145360,5.27711844097
2341-0008,Johan v Oldenbarneveltln,52.09739252630,5.23608367059
2341-0007,Johan v Oldenbarneveltln,52.09729580130,5.23575744904
2341-0005,Johan v Oldenbarneveltln,52.09711002550,5.23512683072
2341-0004,Johan v Oldenbarneveltln,52.09701418790,5.23480082917
2039-0002,Nelson Mandelalaan,52.09100593780,5.25021782980
2039-0004,Nelson Mandelalaan,52.09159393050,5.25049296851
2039-0005,Nelson Mandelalaan,52.09188749360,5.25062137089
2039-0010,Nelson Mandelalaan,52.09313039690,5.25108228539
0985-0009,Gandhilaan,52.09231647640,5.25025870445
3011-0082,Slotlaan,52.08919838560,5.24944678371
3011-0089,Slotlaan,52.09008724990,5.25043999235
3371-0001,Prof. M. W. F. Treublaan,52.09903691410,5.23634540680
0715-0007,Dr Willem Dreeslaan,52.09756538920,5.23571969037
1772-0008,Dr. A. Kuyperlaan,52.09808276760,5.23580072750
2341-0037,Johan v Oldenbarneveltln,52.09792895710,5.23734374869
0111-0001,Austerlitzseweg,52.08810895200,5.29375092210
1201-0041,Hertenlaan,52.12992814430,5.25264199968
1201-0038,Hertenlaan,52.13023271500,5.25401848305
3461-0005,Veldheimlaan,52.08897528460,5.23297190385
3461-0004,Veldheimlaan,52.08877397430,5.23322046768
2101-0004,Jan Meerdinkplein,52.08836498630,5.23228088838
2121-0004,Johan de Meesterstraat,52.08974872190,5.23506667231
1471-0001,Jufferstraat,52.08261035460,5.24049145866
1941-0008,Jacob van Lennepplein,52.09359759240,5.23682869508
2231-0003,Ds. Nahuyslaan,52.09449740290,5.23497062624
2861-0003,De Savornin Lohmanlaan,52.09813331550,5.23907853341
0361-0009,Boulevard,52.09279139090,5.25159988180
2451-0028,Panweg,52.10243221300,5.24031958810
3071-0001,Sophialaan,52.07351499170,5.25995749339
3011-0095,Slotlaan,52.09022727560,5.25068148946
3442-0005,Valckenboschlaan,52.09807723620,5.25169990775
1201-0045,Hertenlaan,52.12935664850,5.25084990624
1621-0001,Koelaan,52.06856747470,5.21734902723
1621-0005,Koelaan,52.06855484810,5.21927788943
1621-0007,Koelaan,52.06889181540,5.22014228556
1621-0011,Koelaan,52.06985829370,5.22138147597
1871-0041,Laan van Vollenhove,52.10287395340,5.23142308064
1871-0060,Laan van Vollenhove,52.10259210880,5.22702560051
2926-0013,Badmeester Schenkpad,52.10508136380,5.23898062549
0225-2,Beukbergenlaan,52.12014113850,5.26935610785
0225-1,Beukbergenlaan,52.12008149310,5.26893615880
2817-0001,Ruusbroeclaan,52.09987525870,5.25645229246
1621-0015,Koelaan,52.07079640660,5.22272945056
1621-0017,Koelaan,52.07127367600,5.22342001600
1871-0002,Laan van Vollenhove,52.10268896360,5.23776472577
1251-0016,Hindelaan,52.13776800670,5.25337265312
2641-0052,Prinses Irenelaan,52.08325267060,5.26785535976
0631-0018,Dalweg,52.09357300480,5.25081102269
0631-0015,Dalweg,52.09370796350,5.24953167328
0591-0024,Couwenhoven,52.07704837040,5.22067673859
0591-5203,Couwenhoven,52.07727733850,5.22119120003
3471-0047,Verlengde Slotlaan ZEIST,52.09638247280,5.25986740721
3471-0061,Verlengde Slotlaan ZEIST,52.09743620890,5.26138908980
2441-0021,Paltzerweg,52.13630295740,5.23738847876
2933-0001,J H Schepsplantsoen,52.09746170430,5.23437885965
1772-0012,Dr. A. Kuyperlaan,52.09871368150,5.23737741647
1772-0014,Dr. A. Kuyperlaan,52.09882393040,5.23808118726
2591-0007,Prins Alexanderweg,52.11094864490,5.25524076769
2591-0015,Prins Alexanderweg,52.10928085630,5.25628155186
2591-0017,Prins Alexanderweg,52.10883037100,5.25655312262
2591-0020,Prins Alexanderweg,52.10822147100,5.25693014891
2591-0024,Prins Alexanderweg,52.10722396820,5.25754961943
0361-0025,Boulevard,52.09533037130,5.25295065247
0361-0024,Boulevard,52.09512020770,5.25264432418
0361-0016,Boulevard,52.09445855530,5.25263132352
0361-0017,Boulevard,52.09453596980,5.25230908662
2441-0027,Paltzerweg,52.13656691460,5.24007013415
0361-0042,Boulevard,52.10027248330,5.25528125581
0361-0046,Boulevard,52.10133061970,5.25571401469
2021-0014,Lyceumlaan,52.09138644220,5.25586107242
1982-0037,Lindenlaan,52.09537966220,5.25168447876
3442-0015,Valckenboschlaan,52.09657946610,5.25484738491
0005-0001,Prof. Aalberselaan,52.09941619190,5.23918409511
1356-0010,Huis Ter Heideweg,52.10378653730,5.25531820167
1356-0004,Huis Ter Heideweg,52.10663501260,5.25465693275
0091-0026,Arnhemse Bovenweg,52.07349106310,5.25814677205
0651-0023,Dennenweg,52.11615015800,5.24357505698
2531-0004,Pleineslaan,52.14166977100,5.23011561138
2531-0010,Pleineslaan,52.14228088300,5.23247579242
2531-0017,Pleineslaan,52.14283559200,5.23498072503
3442-0021,Valckenboschlaan,52.09562564550,5.25655752992
1711-0207,Krakelingweg,52.09407764150,5.27967728630
3541-0001,Cornelis Vlotlaan,52.10312894530,5.24742678131
0706-0006,Douglaslaan,52.11070343020,5.24249485783
0706-0004,Douglaslaan,52.11062431440,5.24147685730
3011-0009,Slotlaan,52.08300454520,5.24032970238
1171-0003,Herenlaan,52.08266528090,5.24154113851
2792-0016,Het Rond,52.08193185530,5.23903845676
2792-0019,Het Rond,52.08209875220,5.23928883335
3431-0007,Utrechtseweg,52.08401217900,5.23729108523
3702-0071,Weteringlaan,52.08693157940,5.20811418906
0721-0050,Driebergseweg,52.07504988300,5.24720994470
1352-0006,Hortensialaan,52.08964882440,5.23974905998
3561-0025,Voorheuvel,52.08830171180,5.24091365401
1331-0014,P C Hooftlaan,52.09156379780,5.22999541137
3501-0008,Roemer Visscherlaan,52.09250953640,5.23053618142
3501-0009,Roemer Visscherlaan,52.09268039870,5.23021959415
1728-0016,Kromme-Rijnlaan,52.09209298790,5.21415784663
1728-0003,Kromme-Rijnlaan,52.08795017850,5.20810409899
0606-3002,Crosestein,52.09055488640,5.21512436154
3011-0074,Slotlaan,52.08840826240,5.24825179237
3561-0010,Voorheuvel,52.08683040350,5.23989005851
3561-0011,Voorheuvel,52.08685552940,5.24001447315
3561-0016,Voorheuvel,52.08703125500,5.24050691426
3561-0015,Voorheuvel,52.08708367800,5.24035184407
3561-0014,Voorheuvel,52.08699524910,5.24023777087
3561-0038,Voorheuvel,52.08718303030,5.24096923391
0181-0007,Bergweg,52.08945867050,5.24173756602
0181-0017,Bergweg,52.09133194820,5.24196386623
0181-0020,Bergweg,52.09177459890,5.24217196344
0386-0005,Ter Braaklaan,52.09171134950,5.23467880220
3101-0008,Prof. Sproncklaan,52.09045366990,5.22923773320
3101-0013,Prof. Sproncklaan,52.09136199820,5.23068204453
3101-0014,Prof. Sproncklaan,52.09150789960,5.23091346938
0386-0010,Ter Braaklaan,52.09120825180,5.23368280372
0606-3009,Crosestein,52.09120096670,5.21598304138
0606-3402,Crosestein,52.09163100630,5.21550050024
0606-3201,Crosestein,52.09125632430,5.21493992617
0606-3202,Crosestein,52.09142049160,5.21499095934
0606-3105,Crosestein,52.09093730110,5.21440480006
1291-0012,1e Hogeweg,52.08593044410,5.24034188324
1291-0011,1e Hogeweg,52.08587482790,5.24008004913
3811-0024,Zinzendorflaan,52.08111271410,5.23205225204
2422-0015,Paduaweg,52.13846177990,5.23671201149
2422-0018,Paduaweg,52.13874945400,5.23733158568
2422-0027,Paduaweg,52.13925325540,5.23921388910
2071-0001,Marterlaan,52.13911792500,5.23925590529
0791-0005,Eekhoornlaan,52.13729355500,5.23877199662
0791-0004,Eekhoornlaan,52.13722411280,5.23845115381
2901-0005,Schaperlaan,52.10007035300,5.23977577038
0561-0005,Cort van der Lindenlaan,52.09981769400,5.23742341438
3066-0004,Haya van Somerenlaan,52.09842391400,5.23478611882
0225-0057,Beukbergenlaan,52.11965485870,5.27275848576
0225-0056,Beukbergenlaan,52.11944689870,5.27291123219
0122-0006,Baarnseweg,52.13718247330,5.24185632467
2441-0031,Paltzerweg,52.13672656180,5.24185747986
0981-0009,Gerolaan,52.09616637490,5.24737211379
0811-0007,Eikenlaan,52.09543852080,5.24852354092
2511-0001,Pauw van Wieldrechtlaan,52.08787147700,5.25115141716
2511-0007,Pauw van Wieldrechtlaan,52.08901243190,5.25295758922
2511-0009,Pauw van Wieldrechtlaan,52.08946553320,5.25344670078
3631-0019,Wallenburg,52.10351271610,5.26099173106
3631-0023,Wallenburg,52.10425135660,5.26155626980
3631-0024,Wallenburg,52.10434753560,5.26195042973
0361-0052,Boulevard,52.10248521620,5.25686227719
0361-0060,Boulevard,52.10419905690,5.26068277887
3291-0004,Tiendweg,52.07294806810,5.22761686175
3291-0010,Tiendweg,52.07193381510,5.22926307747
3232-0019,Taveernelaan,52.13030766200,5.24179567842
3232-0020,Taveernelaan,52.13018205710,5.24250395745
3232-0028,Taveernelaan,52.12722557770,5.24524480338
3232-0030,Taveernelaan,52.12615303590,5.24588639461
1261-0020,Hobbemalaan,52.11333586120,5.25373018999
3075-0003,Sparrenlaan,52.11665779150,5.24248632540
2141-0003,Mesdaglaan,52.10878215320,5.23723798213
0851-0007,Ericaweg,52.11388701740,5.26115063379
2701-0007,Reelaan,52.13366906010,5.24436702518
2701-0009,Reelaan,52.13264705020,5.24393679402
2701-0011,Reelaan,52.13170659480,5.24368772813
3731-0005,Johannes Wierlaan,52.14163268870,5.23372590302
0101-0008,Willem Arntszlaan,52.14034243160,5.23622770797
0101-0009,Willem Arntszlaan,52.14043036840,5.23657139486
0101-0011,Willem Arntszlaan,52.14060372300,5.23723800881
3581-0006,Vrijheidsplein,52.10159866250,5.24541990935
3581-0010,Vrijheidsplein,52.10187501270,5.24491522155
0391-0002,Titus Brandsmalaan,52.10261648740,5.24567155684
3481-0006,Verzetslaan,52.10205209470,5.24641769424
2141-0009,Mesdaglaan,52.11146346220,5.23810415309
1391-0021,Jozef Israelslaan,52.11153088490,5.23784050154
1391-0019,Jozef Israelslaan,52.11169244980,5.23651921735
1391-0015,Jozef Israelslaan,52.11255323330,5.23483042766
1001-0005,Vincent van Goghlaan,52.11409762630,5.23563417660
1202-0001,Hertenlaan West,52.13638934640,5.24732836708
3081-0007,Spoorlaan,52.11791188620,5.24347376123
3081-0005,Spoorlaan,52.11854929850,5.24188089796
0031-0013,Amersfoortseweg,52.10744629270,5.22856044305
0101-0017,Willem Arntszlaan,52.14125693860,5.23936185760
3781-0002,Wouter van Wijklaan,52.10235310420,5.24796208011
0396-0003,Breitnerlaan,52.11334039960,5.23659453962
1001-0006,Vincent van Goghlaan,52.11446058500,5.23575373533
1001-0010,Vincent van Goghlaan,52.11578949920,5.23532392676
1391-0008,Jozef Israelslaan,52.11530974480,5.23378477627
1391-0004,Jozef Israelslaan,52.11652228500,5.23629677850
0731-0029,Duinweg,52.11116049350,5.24765466090
1711-0091,Krakelingweg,52.09881460150,5.27031478242
1711-0098,Krakelingweg,52.09831400540,5.27090687378
2311-7003,Nijenheim,52.08510124250,5.21627514117
2311-7010,Nijenheim,52.08444251620,5.21572022561
3702-0014,Weteringlaan,52.07775915850,5.22239001765
0591-1013,Couwenhoven,52.08182266610,5.22028345927
0591-0001,Couwenhoven,52.07689135440,5.22612216777
2991-0031,Schroeder van de Kolkln,52.13948289140,5.23275861640
2991-0014,Schroeder van de Kolkln,52.13955614640,5.23328817262
2991-0024,Schroeder van de Kolkln,52.13943975950,5.23309464924
1711-0112,Krakelingweg,52.09723164070,5.27278903537
1711-0120,Krakelingweg,52.09653147540,5.27368792029
1711-0121,Krakelingweg,52.09656382440,5.27394267752
1711-0123,Krakelingweg,52.09639067290,5.27416209353
3001-0017,Godfried van Seijstlaan,52.08047673830,5.22291487940
0731-0002,Duinweg,52.11956216300,5.23791090353
0241-0006,Biltseweg,52.12351823370,5.23743208178
0731-0020,Duinweg,52.11383393600,5.24276201989
3841-0004,Willem de Zwijgerlaan,52.08107796920,5.26186084055
1491-0002,Julianaplein,52.07895569400,5.26187160287
1491-0007,Julianaplein,52.07959700050,5.26101684067
1491-0009,Julianaplein,52.07958108250,5.26173723565
1491-0011,Julianaplein,52.07932484410,5.26234897700
0921-0018,Frederik Hendriklaan,52.07925075960,5.25916274595
0921-0017,Frederik Hendriklaan,52.07913745070,5.25883349765
3401-0006,Tussen de Dennen,52.08072171450,5.26043748033
2651-0033,Prinses Margrietlaan,52.07643918020,5.26929849966
0731-0026,Duinweg,52.11207612880,5.24592726596
3201-0006,Arnoldus Stramroodlaan,52.10171113020,5.24775101372
2561-0012,Johannes Postlaan,52.10253429650,5.25049278836
2561-0011,Johannes Postlaan,52.10245343400,5.25074982907
0731-0007,Duinweg,52.11773922940,5.23781359163
0611-0006,Dahliastraat,52.08940840230,5.23811201797
1352-0017,Hortensialaan,52.08787189240,5.23696291943
1352-0013,Hortensialaan,52.08855830480,5.23803539496
0581-0003,Costerlaan,52.08900440830,5.24374093808
1411-0012,Jagerlaan,52.08891944150,5.24278384165
1411-0004,Jagerlaan,52.08817467640,5.24568440831
1331-0010,P C Hooftlaan,52.09231614870,5.22891001627
2792-0002,Het Rond,52.08146635540,5.23794645972
2792-0006,Het Rond,52.08191587500,5.23853096286
0606-4201,Crosestein,52.09281251950,5.21686281763
0606-4203,Crosestein,52.09252940080,5.21705025718
0606-4005,Crosestein,52.09241026240,5.21616329505
3011-0047,Slotlaan,52.08562739590,5.24403921800
3011-0052,Slotlaan,52.08618017950,5.24505163967
3011-0059,Slotlaan,52.08679048450,5.24592626935
3011-0064,Slotlaan,52.08725304210,5.24637479216
1352-0010,Hortensialaan,52.08906808430,5.23866748665
0661-0036,Dolderseweg,52.13841744480,5.24390901734
0661-0043,Dolderseweg,52.13678734520,5.24642768788
0661-0045,Dolderseweg,52.13634689200,5.24710722844
2451-0022,Panweg,52.10087561280,5.24123136739
2451-0006,Panweg,52.09705272570,5.24402675546
2451-0029,Panweg,52.10226043290,5.24008491662
2451-0030,Panweg,52.10247777540,5.23988291144
3447-0002,Ester Vas Nuneslaan,52.09977136650,5.25694509262
3411-0002,Burgemeester v Tuijllln,52.09603744440,5.25152545781
3341-0001,Tollenslaan,52.09289531310,5.24119685798
3341-0004,Tollenslaan,52.09373936370,5.24126427710
2321-0030,Odijkerweg,52.06317269260,5.25654931552
0411-0003,Breullaan,52.06738388020,5.26016728283
0661-0049,Dolderseweg,52.13538330810,5.24842232483
0661-0056,Dolderseweg,52.13305646230,5.24902189868
0661-0054,Dolderseweg,52.13371900380,5.24888482386
2451-0034,Panweg,52.10437685600,5.23884889223
3271-0003,Thorbeckelaan,52.09715789120,5.23352794991
1385-0005,Mevrouw Inden-Reisslaan,52.14467238460,5.23617961072
1385-0001,Mevrouw Inden-Reisslaan,52.14470716820,5.23485331009
3095-0003,Ab van Sprakelaarlaan,52.14416856340,5.23571344837
0454-1304,Brugakker,52.08113953860,5.21204841775
0454-3110,Brugakker,52.08303498520,5.21361069947
0591-0027,Couwenhoven,52.07748193510,5.21973327010
0591-6112,Couwenhoven,52.07713506910,5.22732090237
0591-6107,Couwenhoven,52.07795302200,5.22659206443
0591-6402,Couwenhoven,52.07758119140,5.22505436310
3471-0082,Verlengde Slotlaan ZEIST,52.09912263790,5.26335633586
3471-0084,Verlengde Slotlaan ZEIST,52.09935169400,5.26368910403
3471-0086,Verlengde Slotlaan ZEIST,52.09941873660,5.26394187586
3471-0092,Verlengde Slotlaan ZEIST,52.09985481870,5.26455750891
3471-0099,Verlengde Slotlaan ZEIST,52.10047180940,5.26530012656
0591-9007,Couwenhoven,52.07687431230,5.22438319084
0591-5608,Couwenhoven,52.07696252140,5.22375315738
0591-5903,Couwenhoven,52.07576921560,5.22448188400
2731-0003,Reigerlaan,52.08810659690,5.21550148310
1612-0008,Kievitlaan,52.08852279540,5.21499830503
2731-0005,Reigerlaan,52.08846380900,5.21584466143
0606-4007,Crosestein,52.09272207250,5.21659632322
0606-0000,Crosestein,52.09219459200,5.22306746377
1711-0171,Krakelingweg,52.09395498930,5.27818338981
1711-0181,Krakelingweg,52.09330602890,5.27967185764
1711-0185,Krakelingweg,52.09297128780,5.28029812360
1711-0188,Krakelingweg,52.09289140200,5.28071239222
1711-0195,Krakelingweg,52.09235087160,5.28059061413
3771-0034,Woudenbergseweg,52.09172044900,5.27968145674
0591-0016,Couwenhoven,52.07597633300,5.22310621848
0591-0015,Couwenhoven,52.07578860170,5.22341951770
0591-0014,Couwenhoven,52.07565345440,5.22371091305
0591-0011,Couwenhoven,52.07521610030,5.22472703605
0591-0010,Couwenhoven,52.07518538040,5.22508461957
0721-0083,Driebergseweg,52.08044044110,5.24191341479
0249-0005,Blanckenhagenweg,52.10851862280,5.25929862160
2881-0061,Schaerweijdelaan,52.09066262590,5.23264758610
2881-0013,Schaerweijdelaan,52.09038491450,5.23228719861
3771-0038,Woudenbergseweg,52.09206544860,5.28029735467
3771-0050,Woudenbergseweg,52.09179274030,5.28272453779
3771-0055,Woudenbergseweg,52.09145781210,5.28315675677
1221-0017,Van der Heijdenlaan,52.09621628770,5.24173889501
3571-0012,Vossenlaan,52.12489393910,5.24738558265
3571-0014,Vossenlaan,52.12572716640,5.24848776771
3571-0015,Vossenlaan,52.12617728140,5.24908369277
3571-0017,Vossenlaan,52.12688287400,5.25001721965
3571-0004,Vossenlaan,52.12322797990,5.24030482962
3571-0009,Vossenlaan,52.12398649390,5.24434308413
0661-0024,Dolderseweg,52.14085054170,5.24027921152
3331-0012,Tolhuislaan,52.13068036440,5.23266647497
3331-0013,Tolhuislaan,52.13009723550,5.23257348901
0661-0072,Dolderseweg,52.12826288580,5.24932907273
2935-0007,Schermerslaan,52.09516560390,5.22798933671
2935-0016,Schermerslaan,52.09569952210,5.22934595101
2501-0019,Burgemeester Patijnlaan,52.09638450710,5.23554765777
0591-7109,Couwenhoven,52.07898766370,5.22232476669
3471-0133,Verlengde Slotlaan ZEIST,52.10604129670,5.27112628451
3471-0131,Verlengde Slotlaan ZEIST,52.10561130740,5.27143268312
2741-0030,Rembrandtlaan,52.11988988860,5.25365512695
2741-0017,Rembrandtlaan,52.11716368220,5.25622132434
2741-0004,Rembrandtlaan,52.11438994010,5.25712636977
3131-0003,Jan Steenlaan,52.11676002800,5.25555257065
0525-3012,De Clomp,52.08382620670,5.22203702507
0525-0008,De Clomp,52.08404852530,5.21811085393
2311-3308,Nijenheim,52.08559394690,5.22127538072
2311-4109,Nijenheim,52.08416573590,5.22098859340
0591-3314,Couwenhoven,52.08010448000,5.22190235238
1711-0001,Krakelingweg,52.10453529850,5.26280933199
1711-0004,Krakelingweg,52.10450119840,5.26326423309
1711-0007,Krakelingweg,52.10432768160,5.26295082877
1711-0014,Krakelingweg,52.10389969380,5.26316084684
2831-0017,Ruysdaellaan,52.11646182150,5.25254408633
2311-8113,Nijenheim,52.08455664180,5.21862733111
0591-4403,Couwenhoven,52.07847728330,5.21850463817
