Nummer;Naam locatie;Adres;Toevoeging;Postcode;Mobiel stembureau;Stadsdeel;Wijk;Buurt;Rolstoel toegankelijkheid;Aangepaste openingstijden;X;Y;LONG;LAT;COUNTER
138;HV & CV Quick;DE SAVORNIN LOHMANLAAN 215;;2566 BZ;Nee;Loosduinen;Bohemen en Meer en Bos;Bosjes van Pex;ja, er is een oprit nodig;;76556.553;454397.74;4.243033078526539;52.07230063867542;1
101;Duinhage Florence;DE SAVORNIN LOHMANLAAN 202;;2566 AW;Nee;Loosduinen;Bohemen en Meer en Bos;Bohemen en Meer en Bos;ja;;76503.003;454125.586;4.242314739420264;52.069847314166324;2
102;Dalton Den Haag;ARONSKELKWEG 1;;2555 GA;Nee;Loosduinen;Bohemen en Meer en Bos;Bohemen en Meer en Bos;ja, er is een oprit nodig;;76338.574;453929.587;4.239962145216646;52.06806262463807;3
103;Inspecteur S. de Vriesschool;HELIOTROOPLAAN 35;;2555 MA;Nee;Loosduinen;Bohemen en Meer en Bos;Bohemen en Meer en Bos;ja, er is een oprit nodig;;75439.355;453786.629;4.226883318662339;52.066649500661754;4
139;Scoutinggroep Ferguson;MUURBLOEMWEG 41;;2555 NB;Nee;Loosduinen;Bohemen en Meer en Bos;Bohemen en Meer en Bos;ja, er is een oprit nodig;;75917.685;453748.864;4.2338667200728155;52.06637861498949;5
141;Honk- en softbalclub Storks;SCHAPENATJESDUIN 9;;2554 BW;Nee;Loosduinen;Kijkduin en Ockenburgh;Ockenburgh;ja;;74998.301;453409.64;4.220540548903555;52.06319815027344;6
104;Haags Centrum voor Onderwijsbegeleiding;ZANDVOORTSELAAN 146;;2554 EM;Nee;Loosduinen;Kijkduin en Ockenburgh;Kijkduin;ja, er is een oprit nodig;;75286.722;453995.778;4.2246089074011515;52.06850708697414;7
107;Parnassia;MONSTERSEWEG 75;;2553 RH;Nee;Loosduinen;Kraayenstein en Vroondaal;Kraayenstein en Vroondaal;ja;;74216.631;451345.2;4.209631929616687;52.04453256185927;8
142;SV Loosduinen;MADESTEINWEG 17;;2553 EC;Nee;Loosduinen;Kraayenstein en Vroondaal;Kraayenstein en Vroondaal;ja;;75175.276;451665.154;4.223528501998059;52.047546735512526;9
148;Stichting de Madelief;BOOMAWEG 100;;2553 ED;Nee;Loosduinen;Kraayenstein en Vroondaal;Kraayenstein en Vroondaal;;;75247.897;450436.514;4.22487359642608;52.036515905079746;10
110;HFCC Racing;DE WERF 64;;2544 EK;Nee;Loosduinen;Loosduinen;Kerketuinen en Zichtenburg;nee;;76432.041;451096.245;4.241976711019921;52.04261373499323;11
111;Parnassiagroep/Reakt;PLATINAWEG 20;;2544 EZ;Nee;Loosduinen;Loosduinen;Kerketuinen en Zichtenburg;ja;;77293.083;452013.832;4.254316482949076;52.05098114532592;12
287;SBS ('s-Gravenhaagsche Bridgeschool);KERKETUINENWEG 45;;2544 CV;Nee;Loosduinen;Loosduinen;Kerketuinen en Zichtenburg;ja, er is een oprit nodig;;77335.229;451893.435;4.254958178785032;52.04990508670955;13
850;Stemtram (lijn 9);MEPPELWEG 1391;;2544 CX;Ja;Loosduinen;Loosduinen;Kerketuinen en Zichtenburg;ja;09.00 - 17.00;76929.195;451120.513;4.249216439688928;52.042902062667174;14
112;Koos Meindertsschool;C.A. VAN BEVERENSTRAAT 40;ingang gymlokaal;2552 HW;Nee;Loosduinen;Loosduinen;Houtwijk;ja, er is een oprit nodig;;76636.308;451909.912;4.24476702646562;52.049954777725425;15
113;Koos Meindertsschool;C.A. VAN BEVERENSTRAAT 40;ingang gymlokaal;2552 HW;Nee;Loosduinen;Loosduinen;Houtwijk;ja, er is een oprit nodig;;76636.308;451909.912;4.24476702646562;52.049954777725425;16
114;WZH Nieuw Berkendael;BURGEMEESTER WALDECKSTRAAT 80;;2552 TX;Nee;Loosduinen;Loosduinen;Houtwijk;ja;;76740.876;452375.778;4.246184489219478;52.05415611917864;17
117;Florence Woonzorgcentrum Houthaghe;TOON DUPUISSTRAAT 10;;2552 SB;Nee;Loosduinen;Loosduinen;Houtwijk;ja;;77121.184;452515.685;4.251696444516676;52.055466990531;18
118;Verpleeghuis Houtwijk;ARCHITECT DUIKERSTRAAT 19;;2552 ZV;Nee;Loosduinen;Loosduinen;Houtwijk;ja;;77483.394;452466.353;4.256987831906517;52.05507444782557;19
132;Centrum Bokkefort;DR. H.E. VAN GELDERLAAN 260;-262, ingang achterzijde gebouw;2552 KW;Nee;Loosduinen;Loosduinen;Houtwijk;ja, er is een oprit nodig;;77056.847;452327.076;4.250801592093604;52.05376298373576;20
106;WoonZorgPark Loosduinen;WILLEM III STRAAT 36;;2552 BR;Nee;Loosduinen;Loosduinen;Kom Loosduinen;ja;;75942.942;452087.486;4.234619554140374;52.05145209406213;21
136;Wijkcentrum Het Eiland;MELODIESTRAAT 6;;2553 VK;Nee;Loosduinen;Loosduinen;Kom Loosduinen;ja, er is een oprit nodig;;75626.164;452469.597;4.22991332874545;52.05484068931215;22
140;Hofstad Lyceum;COLIJNPLEIN 9;;2555 HA;Nee;Loosduinen;Waldeck;Rosenburg;ja, er is een oprit nodig;;76764.384;453673.725;4.246229842184323;52.06582359602636;23
317;Sporthal Loosduinen;GROEN VAN PRINSTERERLAAN 500;;2555 LZ;Nee;Loosduinen;Waldeck;Rosenburg;ja, er is een oprit nodig;;76754.531;453319.778;4.246167283941539;52.0626414192992;24
345;Verpleeghuis Quintus;NECTARINESTRAAT 11;;2552 LZ;Nee;Loosduinen;Waldeck;Rosenburg;ja;;76912.847;452998.683;4.248548954061388;52.05977819575568;25
349;Hvv RAS;ALBARDASTRAAT 15;;2555 XP;Nee;Loosduinen;Waldeck;Rosenburg;ja, er is een oprit nodig;;77009.605;453340.642;4.249881503092856;52.06286488212122;26
351;Verpleeghuis Dorestad;PASSIEVRUCHTSTRAAT 2;;2552 BJ;Nee;Loosduinen;Waldeck;Rosenburg;;09:00-17:00;77130.948;453250.399;4.251671274716134;52.062070970058066;27
352;Verpleeghuis Nolenshaghe;MGR. NOLENSLAAN 22;;2555 XZ;Nee;Loosduinen;Waldeck;Rosenburg;ja;09:00-17:00;76740.727;453407.813;4.245945845535231;52.06343060625346;28
127;Cardia Woonzorgcentrum Tabitha;MOZARTLAAN 280;;2555 KZ;Nee;Loosduinen;Waldeck;Waldeck-noord;ja;;75622.434;453037.706;4.229726932702287;52.05994551320075;29
131;Serviceflat Dekkershaghe;AALTJE NOORDEWIERSTRAAT 12;ingang Mozartlaan;2551 GA;Nee;Loosduinen;Waldeck;Waldeck-noord;ja, er is een oprit nodig;;75824.966;453093.693;4.232666681860591;52.060477623739665;30
122;Tuincentrum Onings;MOZARTLAAN 10;;2555 JL;Nee;Loosduinen;Waldeck;Nieuw Waldeck;ja;;76413.851;453432.603;4.241174207620696;52.0636071132313;31
125;Wijkcentrum De Geest;GEORGES BIZETSTRAAT 25;;2551 ZC;Nee;Loosduinen;Waldeck;Nieuw Waldeck;ja;;76389.731;452941.375;4.240935606561038;52.05918921934051;32
126;Florence WZC Wijndaelercentrum;CATHARINA VAN RENNESSTRAAT 8;;2551 GM;Nee;Loosduinen;Waldeck;Nieuw Waldeck;ja;;76163.453;453186.392;4.237580174186102;52.06135893900841;33
134;Middin AC Waldeck;BILLIE HOLIDAYSTRAAT 100;;2551 WK;Nee;Loosduinen;Waldeck;Nieuw Waldeck;ja;;76174.796;452898.156;4.237812075993333;52.05877029163145;34
204;OBS De Gelderlandschool;NIJKERKLAAN 9;;2573 BA;Nee;Escamp;Rustenburg en Oostbroek;Oostbroek-zuid;ja, er is een oprit nodig;;79265.167;453426.557;4.282749023531495;52.06394990523514;35
212;OBS De la Reyschool Voorthuizenstraat;VOORTHUIZENSTRAAT 245;;2573 AH;Nee;Escamp;Rustenburg en Oostbroek;Oostbroek-zuid;ja, er is een oprit nodig;;79185.347;453560.341;4.281555496520213;52.06514126466377;36
206;Middin Steinmetz de Compaan;WEESPERSTRAAT 87;;2574 VS;Nee;Escamp;Rustenburg en Oostbroek;Rustenburg;ja;;78861.968;453648.882;4.2768205794713605;52.065892605095264;37
211;Musicon;SOESTDIJKSEKADE 345;;2574 AL;Nee;Escamp;Leyenburg;Leyenburg;ja, er is een oprit nodig;;78600.39600000001;453262.503;4.273093002977504;52.062384327609436;38
213;Sportzaal Andre Castens;RENSWOUDELAAN 47;;2546 XE;Nee;Escamp;Leyenburg;Leyenburg;ja, er is een oprit nodig;;78894.03;453033.183;4.2774253063325665;52.060363912368835;39
215;CBS De Ark;MAARSBERGENSTRAAT 169C;;2546 SP;Nee;Escamp;Leyenburg;Leyenburg;ja, er is een oprit nodig;;78438.734;452613.257;4.270881506578039;52.056527443137405;40
219;WoonZorgPark Swaenesteijn;NIEUWENDAMLAAN 1;;2547 JG;Nee;Escamp;Leyenburg;Leyenburg;ja;;77916.057;453366.729;4.263091814309806;52.06322617905089;41
221;WoonZorgPark Swaenehove;HEILOOSTRAAT 296;;2547 KX;Nee;Escamp;Leyenburg;Leyenburg;ja;;78270.114;453157.556;4.268301066494441;52.06139555930188;42
278;Haga Ziekenhuis;ELS BORST-EILERSPLEIN 275;;2545 AA;Nee;Escamp;Leyenburg;Leyenburg;ja;;77955.889;452631.558;4.263838420294533;52.05662498453168;43
292;Centrum Rumoer;HOOGKARSPELSTRAAT 68A;;2547 LP;Nee;Escamp;Leyenburg;Leyenburg;ja;;78229.548;453439.62;4.267646214073271;52.063924756031014;44
299;Wijkberaad Leyenburg;HOOGKARSPELSTRAAT 85;;2547 LK;Nee;Escamp;Leyenburg;Leyenburg;ja, er is een oprit nodig;;78192.834;453454.035;4.2671076626737445;52.06404921000256;45
225;Wijkcentrum Bouwlust;EEKHOORNRADE 215;;2544 VS;Nee;Escamp;Bouwlust;Venen, Oorden en Raden;ja;;77559.914;451258.01;4.258377151372999;52.044226172583905;46
227;RKBS De Zuidwester;MARTERRADE 312;;2544 ME;Nee;Escamp;Bouwlust;Venen, Oorden en Raden;ja, er is een oprit nodig;;77516.077;451375.41000000003;4.257711654124778;52.04527508181618;47
228;Verpleeghuis De Lozerhof;RANDVEEN 64;;2544 RP;Nee;Escamp;Bouwlust;Venen, Oorden en Raden;ja;;77052.64600000001;450705.601;4.251110169058885;52.03919076256794;48
229;Florence Expertisecentrum Gulden Huis;STEENHOUWERSGAARDE 1;;2542 AA;Nee;Escamp;Bouwlust;Dreven en Gaarden;ja, er is een oprit nodig;;78447.605;450933.194;4.2713871974934206;52.04143044915549;49
231;Centrum Carel van den Oever;SCHRIJNWERKERSGAARDE 3;;2542 TP;Nee;Escamp;Bouwlust;Dreven en Gaarden;ja;;78615.303;450661.515;4.27389179696622;52.03901207899259;50
232;SBO De Springplank;PACHTERSDREEF 3;ingang Beresteinlaan;2542 XH;Nee;Escamp;Bouwlust;Dreven en Gaarden;ja, er is een oprit nodig;;77946.719;450164.362;4.264260959386406;52.034451795469025;51
235;Verpleeghuis Vrederust-West;SCHUTTERSDREEF 125;;2542 XA;Nee;Escamp;Bouwlust;Dreven en Gaarden;ja;;77727.789;450251.744;4.261051208911295;52.035206603567445;52
234;Blokpoelschool;HAARDSTEDE 1;;2543 VS;Nee;Escamp;Bouwlust;Zijden, Steden en Zichten;ja, er is een oprit nodig;;77600.005;450724.166;4.259082311860612;52.03943428783324;53
281;ISV Kameleon;VELDZICHT 20;;2543 RT;Nee;Escamp;Bouwlust;Zijden, Steden en Zichten;ja;;78190.773;451060.302;4.2676157759628275;52.04253720493345;54
239;Stadsdeelkantoor Escamp;LEYWEG 813;;2545 HA;Nee;Escamp;Morgenstond;Morgenstond-zuid;ja;;79085.097;451308.585;4.280594148830037;52.044891651936055;55
242;Ontmoetingscentrum Morgenstond;1E EELDEPAD 3;;2541 JG;Nee;Escamp;Morgenstond;Morgenstond-zuid;ja;;78740.566;451129.436;4.275612803089638;52.04323439861299;56
244;AC Sparring - Gemiva SVG Groep;LEYWEG 1452;;2545 HP;Nee;Escamp;Morgenstond;Morgenstond-zuid;ja;;79329.852;451115.257;4.28420410042329;52.04318773023905;57
280;OBS De Wissel;STEENWIJKLAAN 10;;2541 RL;Nee;Escamp;Morgenstond;Morgenstond-zuid;ja, er is een oprit nodig;;79442.759;451365.675;4.285794231918144;52.04545357294175;58
246;ROC Mondriaan;ZUIDLARENSTRAAT 10;;2545 VX;Nee;Escamp;Morgenstond;Morgenstond-west;ja;;78287.987;451945.509;4.268833836476311;52.05050575268139;59
277;OBS De Drentse Hoek;OOSTERHESSELENSTRAAT 586;;2545 SL;Nee;Escamp;Morgenstond;Morgenstond-west;ja;;78465.112;451519.094;4.271511140208066;52.04669817762609;60
217;Tamarschool;FLUITENBERGSTRAAT 6;;2545 NL;Nee;Escamp;Morgenstond;Morgenstond-oost;ja;;78994.73300000001;451942.277;4.2791362149965515;52.05057408140111;61
236;Parkoers Stichting VTV;MARIE HEINENWEG 3;;2533 SX;Nee;Escamp;Zuiderpark;Zuiderpark;ja;;79098.713;452366.433;4.2805576215448315;52.05440010132436;62
291;Vereniging Jeugd en Paard de Eendenkooi;MARIE HEINENWEG 6;;2533 SX;Nee;Escamp;Zuiderpark;Zuiderpark;ja;;79119.44;452166.363;4.280904205367045;52.05260496757906;63
564;Sportcampus Zuiderpark;MR. P. DROOGLEEVER FORTUYNWEG 22;;2533 SR;Nee;Escamp;Zuiderpark;Zuiderpark;ja;;79654.735;452579.503;4.288616032281834;52.056390782502724;64
254;Woonzorgcentrum Moerwijk;TWICKELSTRAAT 120;;2531 RB;Nee;Escamp;Moerwijk;Moerwijk-oost;ja;;80899.789;451799.852;4.306935783910138;52.04955212465795;65
259;Wijkcentrum Moerwijk;PIETER LANGENDIJKSTRAAT 77;;2533 TG;Nee;Escamp;Moerwijk;Moerwijk-west;ja;;80058.148;451794.74;4.294669191813692;52.049393019376055;66
275;Roemer Visscher College;ROEMER VISSCHERSTRAAT 106;;2533 VG;Nee;Escamp;Moerwijk;Moerwijk-west;ja;;79850.944;452020.486;4.291599363571169;52.0513936853798;67
233;PartyCentrum Ons Huis;BEATRIJSSTRAAT 120;;2531 XE;Nee;Escamp;Moerwijk;Moerwijk-noord;ja, er is een oprit nodig;;80399.334;452537.564;4.299480090099803;52.056114631319886;68
276;SCSV De Ster;BRINCKERINCKSTRAAT 71;;2531 VE;Nee;Escamp;Moerwijk;Moerwijk-noord;nee;;80643.148;452411.225;4.303061936980775;52.05501202248323;69
296;Hart van Moerwijk;GUNTERSTEINWEG 377;;2531 KA;Nee;Escamp;Moerwijk;Moerwijk-zuid;ja;;80156.683;451201.575;4.296235326646796;52.04407570099754;70
293;S.V. Wateringse Veld Kranenburg;GUIDO DE MOORSTRAAT 35;;2548 ZS;Nee;Escamp;Wateringse Veld;Zonne Veld;;;80053.994;448097.988;4.295418736894043;52.01617056350867;71
261;Verzorgingshuis Waterhof;POLANENHOF 130;;2548 MC;Nee;Escamp;Wateringse Veld;Erasmus Veld;ja;;79634.198;451127.467;4.288636898831419;52.04333892000933;72
262;Maria Montessorischool;ZEVENWOUDENLAAN 197;;2548 NT;Nee;Escamp;Wateringse Veld;Hoge Veld;ja, er is een oprit nodig;;79921.554;450081.887;4.293054397987022;52.033981530833145;73
265;RKBS De Fontein;LAAN VAN WATERINGSE VELD 462;;2548 CK;Nee;Escamp;Wateringse Veld;Hoge Veld;ja, er is een oprit nodig;;79505.481;449837.209;4.287045873439479;52.03172617502264;74
266;RKBS De Fontein;LAAN VAN WATERINGSE VELD 462;;2548 CK;Nee;Escamp;Wateringse Veld;Hoge Veld;ja;;79505.481;449837.209;4.287045873439479;52.03172617502264;75
268;WZH Hoge Veld;LAAN VAN WATERINGSE VELD 222;;2548 CG;Nee;Escamp;Wateringse Veld;Hoge Veld;ja;;79413.003;450013.277;4.285659547027025;52.0332958573032;76
270;CBS De Gantel;LAAN VAN WATERINGSE VELD 925;;2548 BR;Nee;Escamp;Wateringse Veld;Parkbuurt Oosteinde;ja, er is een oprit nodig;;79686.02;449215.758;4.289813172227765;52.026165886676665;77
286;Stadsboerderij Op den Dijk;BOVENDIJK 141;-143;2548 AX;Nee;Escamp;Wateringse Veld;Parkbuurt Oosteinde;ja, er is een oprit nodig;;80349.307;449268.041;4.29946475738342;52.026725419038094;78
307;OBS De Zonnebloem;HYACINTHWEG 5;;2565 RE;Nee;Segbroek;Bomen- en Bloemenbuurt;Bloemenbuurt-west;ja, er is een oprit nodig;;77226.792;454435.782;4.25279862457326;52.07273702738048;79
316;Florence Woonzorgcentrum Uitzicht;ZONNEBLOEMSTRAAT 383;;2565 RW;Nee;Segbroek;Bomen- en Bloemenbuurt;Bloemenbuurt-west;ja;;77253.662;454642.319;4.253143428609134;52.07459686906511;80
304;SBO De Bonte Vlinder;AUCUBASTRAAT 3;;2565 XD;Nee;Segbroek;Bomen- en Bloemenbuurt;Bloemenbuurt-oost;ja, er is een oprit nodig;;78153.813;454759.651;4.266244791307411;52.07577692195183;81
305;Wijkcentrum Eltheto;AZALEAPLEIN 2;;2565 CE;Nee;Segbroek;Bomen- en Bloemenbuurt;Bloemenbuurt-oost;ja;;77867.33;454551.551;4.2621136558788955;52.07386697619305;82
308;Wijkcentrum De Hyacint;ANEMOONSTRAAT 25;;2565 DD;Nee;Segbroek;Bomen- en Bloemenbuurt;Bloemenbuurt-oost;ja;;77687.818;454774.463;4.259445203116205;52.07584517503736;83
301;Zorghuis Dr. W. Drees;MORSESTRAAT 19;;2517 PM;Nee;Segbroek;Bomen- en Bloemenbuurt;Bomenbuurt;ja;;78732.734;455438.282;4.274536312693535;52.08195557899998;84
310;Christelijk College De Populier;POPULIERSTRAAT 109;ingang Cypresstraat, naast nr. 1;2565 MK;Nee;Segbroek;Bomen- en Bloemenbuurt;Bomenbuurt;nee;;78447.696;455302.231;4.2704091622007025;52.08069360226557;85
311;OBS Houtrust;NACHTEGAALPLEIN 19A;;2566 JP;Nee;Segbroek;Vogelwijk;Vogelwijk;ja, er is een oprit nodig;;77950.652;455625.938;4.26308618369275;52.08353369953652;86
343;O.G. Heldringschool;IJSVOGELPLEIN 10;ingang Fazantplein;2566 VS;Nee;Segbroek;Vogelwijk;Vogelwijk;ja;;77483.455;455400.254;4.256322528091094;52.08144035381809;87
348;Svv Scheveningen;LAAN VAN POOT 38C;;2566 EC;Nee;Segbroek;Vogelwijk;Vogelwijk;ja;;78267.478;455846.607;4.267658052511775;52.08556077014716;88
314;Huize Eykenburg;KRUISBESSENSTRAAT 12;;2564 VD;Nee;Segbroek;Vruchtenbuurt;Vruchtenbuurt;ja;;77823.175;454336.618;4.261518313287245;52.071929299416276;89
323;CBS De Vliermeent;VLIERBOOMSTRAAT 362;;2564 HT;Nee;Segbroek;Vruchtenbuurt;Vruchtenbuurt;ja, er is een oprit nodig;;77794.603;454089.305;4.261157583709697;52.06970280389737;90
340;Stichting Wijkberaad Vruchtenbuurt;ABRIKOZENSTRAAT 207;;2564 VP;Nee;Segbroek;Vruchtenbuurt;Vruchtenbuurt;nee;;77347.154;453915.331;4.254672301854952;52.06807681665696;91
328;De Goede Herder Kapel;MEIDOORNSTRAAT 9;;2563 GD;Nee;Segbroek;Valkenboskwartier;Heesterbuurt;ja, er is een oprit nodig;;78647.587;453989.459;4.273618482420378;52.06892375503286;92
341;Wijkcentrum 't Lindenkwadrant;2E BRAAMSTRAAT 9;;2563 HJ;Nee;Segbroek;Valkenboskwartier;Heesterbuurt;ja;;78331.83;454394.189;4.2689231599881605;52.072517313051335;93
325;Florence Woonzorgcentrum Jonker Frans;NEWTONPLEIN 100;;2562 JZ;Nee;Segbroek;Valkenboskwartier;Valkenboskwartier;ja;;79036.478;454417.89;4.27919401701339;52.0728273986847;94
326;Stichting Federatie Eekta;BOYLESTRAAT 20;;2563 EK;Nee;Segbroek;Valkenboskwartier;Valkenboskwartier;ja, er is een oprit nodig;;78731.348;454294.223;4.2747718046273935;52.0716741100419;95
327;Bibliotheek Segbroek;WEIMARSTRAAT 353;;2562 HL;Nee;Segbroek;Valkenboskwartier;Valkenboskwartier;ja;;78726.64600000001;454367.271;4.274686911121539;52.07232992117222;96
306;Partycentrum Het Drieluik;KEPPLERSTRAAT 59;;2562 VG;Nee;Segbroek;Regentessekwartier;Koningsplein e.o.;ja;;79388.992;454864.127;4.28424;52.07689;97
333;Dienstencentrum Copernicus;DAGUERRESTRAAT 16;;2561 TT;Nee;Segbroek;Regentessekwartier;Koningsplein e.o.;ja;;79338.018;455008.831;4.283460496697176;52.078179278184486;98
303;OBS De Klimop;CARTESIUSSTRAAT 2;-4;2562 SK;Nee;Segbroek;Regentessekwartier;Rond de Energiecentrale;ja, er is een oprit nodig;;79466.95300000001;454557.304;4.28544098732678;52.07413914408149;99
339;Verpleeghuis Het Zamen;ESPERANTOSTRAAT 12;;2518 LH;Nee;Segbroek;Regentessekwartier;Rond de Energiecentrale;ja;;79942.413;454607.856;4.292363948353434;52.07465808015377;100
555;D'ROEM;JOSEPH LEDELSTRAAT 52;;2518 KM;Nee;Segbroek;Regentessekwartier;Rond de Energiecentrale;ja;;79808.141;454948.843;4.290330576190406;52.077704217070554;101
402;Bewonersver. Noordelijk Scheveningen;GENTSESTRAAT 22A;;2587 HT;Nee;Scheveningen;Belgisch Park;Belgisch Park;ja;;79767.148;458726.985;4.288898939231559;52.11165159477382;102
403;Verpleeghuis De Eshoeve;DOORNIKSESTRAAT 150;;2587 AZ;Nee;Scheveningen;Belgisch Park;Belgisch Park;ja;;80610.818;458240.056;4.30131965564283;52.10738980195833;103
420;Willem de Zwijgerschool;GENTSESTRAAT 124;;2587 HZ;Nee;Scheveningen;Belgisch Park;Belgisch Park;nee;;80259.713;458548.855;4.296127597894228;52.11011756221265;104
436;Bowling Scheveningen;GEVERS DEYNOOTWEG 990;/2;2586 BZ;Nee;Scheveningen;Belgisch Park;Belgisch Park;ja;;79377.507;458978.429;4.283155854040316;52.11385810739893;105
443;Brasserie Palace;GEVERS DEYNOOTWEG 990;/31;2586 BZ;Nee;Scheveningen;Belgisch Park;Belgisch Park;ja;;79377.507;458978.429;4.283155854040316;52.11385810739893;106
450;De Pier;STRANDWEG 150;-154;2586 JW;Nee;Scheveningen;Belgisch Park;Belgisch Park;ja;;79126.389;459350.905;4.27940733527295;52.11717102407837;107
449;Korfbalvereniging KVS;CREMERWEG 2;;2597 LS;Nee;Scheveningen;Westbroekpark en Duttendel;Westbroekpark;ja;;80138.435;457659.503;4.294552867994575;52.1021088491638;108
455;Rudolf Steiner Zorg;NIEUWE PARKLAAN 58;;2597 LD;Nee;Scheveningen;Westbroekpark en Duttendel;Westbroekpark;;09:00 - 17:00;80216.229;457648.408;4.295690556670823;52.10201966028021;109
405;Woonzorgcentrum Oldeslo;MAURITS DE BRAUWWEG 18;, ingang Gerrit Kasteinweg;2597 KE;Nee;Scheveningen;Westbroekpark en Duttendel;Duttendel;ja;;80953.908;458165.45;4.306343214773536;52.106765360542845;110
408;OBS Het Volle Leven;RIJSLAG 21;;2587 BB;Nee;Scheveningen;Scheveningen;Rijslag;ja, er is een oprit nodig;;79486.276;458148.898;4.284927429865693;52.106418265358755;111
411;Stichting Cardia-Duinrust, Thuishaven;NEPTUNUSSTRAAT 1;;2586 GP;Nee;Scheveningen;Scheveningen;Rijslag;ja;;79230.427;458167.225;4.281189383765768;52.106547987710485;112
441;De Nieuwe Haven;ZWAARDSTRAAT 53;;2584 TP;Nee;Scheveningen;Scheveningen;Oud Scheveningen;nee;;78870.34;457645.014;4.276050782058917;52.10180564367346;113
456;Blauwe Loods;KRANENBURGWEG 203;;2583ER;Nee;Scheveningen;Scheveningen;Vissershaven;;;77880.091;457027.112;4.261740034191117;52.09611569044064;114
410;Muzee Scheveningen;NEPTUNUSSTRAAT 90;-92;2586 GT;Nee;Scheveningen;Scheveningen;Scheveningen Badplaats;ja, er is een oprit nodig;;79349.217;458333.296;4.2828861860012495;52.10805666259147;115
445;Stadsboerderij 't Waaygat;HAVENKADE 75;;2586 TW;Nee;Scheveningen;Scheveningen;Scheveningen Badplaats;ja, er is een oprit nodig;;79171.29000000001;458208.239;4.280317182502188;52.106908464507804;116
452;Kurhaus;GEVERS DEYNOOTPLEIN 30;, ingang aan de boulevard;2586 CK;Nee;Scheveningen;Scheveningen;Scheveningen Badplaats;;;79304.166;458881.436;4.282106862223653;52.11297643636202;117
407;Buurtcentrum Kommunika;JURRIAAN KOKSTRAAT 177;;2586 SH;Nee;Scheveningen;Scheveningen;Visserijbuurt;ja;;78915.757;457947.252;4.27664606655417;52.104527992212525;118
412;Wijkcentrum Het Kalhuis;BADHUISSTRAAT 177;;2584 HH;Nee;Scheveningen;Scheveningen;Visserijbuurt;ja;;79077.14199999999;457831.435;4.279027092259053;52.10350935312811;119
453;Huize Royal / Royal Rustique;RUSTHOEKSTRAAT 38;;2584 CV;Nee;Scheveningen;Scheveningen;Visserijbuurt;ja;09:00-17:00;79205.745;457629.831;4.280948696943748;52.10171523899344;120
457;Respect, Prins Willemhof;HOGE PRINS WILLEMSTRAAT 12;;2584 HZ;Nee;Scheveningen;Scheveningen;Visserijbuurt;;09:00-17:00;78990.522;457828.016;4.277763768893098;52.10346673663067;121
418;CBS De Meerpaal;TESSELSESTRAAT 75;;2583 JH;Nee;Scheveningen;Duindorp;Duindorp;ja, er is een oprit nodig;;77736.44;456386.136;4.259789281655244;52.09033545683841;122
419;Wijkcentrum Het Trefpunt;TESSELSESTRAAT 71;;2583 JH;Nee;Scheveningen;Duindorp;Duindorp;ja;;77738.768;456472.943;4.259803576212492;52.09111588247355;123
425;Deutsche Internationale Schule;VAN BLEISWIJKSTRAAT 125;;2582 LB;Nee;Scheveningen;Geuzen- en Statenkwartier;Statenkwartier;ja;;79176.661;456839.385;4.280700111547935;52.094607792047604;124
427;SBO Het Mozaïek;VAN DEN EYNDESTRAAT 24;;2582 EC;Nee;Scheveningen;Geuzen- en Statenkwartier;Statenkwartier;ja, er is een oprit nodig;;78855.344;456260.059;4.276141293875455;52.089357483076874;125
433;Revalidatie en behandelcentrum Mechropa;SCHEVENINGSEWEG 96;;2584 AC;Nee;Scheveningen;Geuzen- en Statenkwartier;Statenkwartier;ja;;79174.437;457450.857;4.28053164219069;52.10010257388491;126
447;Het Couvéehuis;FRANKENSLAG 137;;2582 HJ;Nee;Scheveningen;Geuzen- en Statenkwartier;Statenkwartier;ja;;78828.976;457031.898;4.275584180330565;52.09629010038119;127
454;Respect, Bosch en Duin;SCHEVENINGSEWEG 76;;2517 KZ;Nee;Scheveningen;Geuzen- en Statenkwartier;Statenkwartier;;09:00-17:00;79310.143;457267.251;4.282552688003812;52.098471146933356;128
805;Boekhandel Paagman;FREDERIK HENDRIKLAAN 217;;2582 CB;Nee;Scheveningen;Geuzen- en Statenkwartier;Statenkwartier;ja;09:00-21:00;78730.499;456447.514;4.274278023586183;52.091024889087166;129
822;Boekhandel Paagman;FREDERIK HENDRIKLAAN 217;;2582 CB;Nee;Scheveningen;Geuzen- en Statenkwartier;Statenkwartier;ja;09:00-21:00;78730.499;456447.514;4.274278023586183;52.091024889087166;130
423;Wijkgebouw Thabor;VAN BOETZELAERLAAN 286;;2581 BC;Nee;Scheveningen;Geuzen- en Statenkwartier;Geuzenkwartier;ja;;78463.353;456930.907;4.270272019581771;52.09533209341767;131
430;De Oranjeschool;WESTDUINWEG 127;ingang Burgemeester van der Werffstraat;2583 AA;Nee;Scheveningen;Geuzen- en Statenkwartier;Geuzenkwartier;ja, er is een oprit nodig;;78395.331;456897.638;4.269287002544763;52.09502370715837;132
426;Gemeentemuseum;STADHOUDERSLAAN 41;;2517 HV;Nee;Scheveningen;Zorgvliet;Zorgvliet;ja;;79109.157;456238.842;4.279848856124598;52.089201665867066;133
437;Arubahuis;R. J. SCHIMMELPENNINCKLAAN 1;;2517 JN;Nee;Scheveningen;Zorgvliet;Zorgvliet;ja, er is een oprit nodig;;79324.806;455854.326;4.283080240811223;52.085775666979714;134
421;Nutsschool M. M. Boldingh;VERHULSTPLEIN 21;;2517 SC;Nee;Scheveningen;Duinoord;Stadhoudersplantsoen;nee;;78835.305;455702.725;4.275973412407392;52.08434615727337;135
344;Bewonersoverleg Duinoord;SWEELINCKPLEIN 42;;2517 GP;Nee;Scheveningen;Duinoord;Sweelinckplein e.o.;ja, er is een oprit nodig;;79282.009;455534.826;4.282526854450028;52.08289857261343;136
435;Woonzorgcentrum Groot Hertoginneduin;VOLTASTRAAT 107;;2517 PW;Nee;Scheveningen;Duinoord;Sweelinckplein e.o.;ja;;78884.524;455276.233;4.2767865414779305;52.08052018511901;137
510;Da Costaschool;HOLLANDERSTRAAT 21;ingang nummer 19;2517 HH;Nee;Scheveningen;Duinoord;Sweelinckplein e.o.;ja;;79266.938;455683.982;4.282273902177113;52.08423692822543;138
573;Première Parterre Culturele Salon;GROOT HERTOGINNELAAN 52;;2517 EJ;Nee;Scheveningen;Duinoord;Sweelinckplein e.o.;ja, er is een oprit nodig;;79457.395;455770.472;4.2850329821332265;52.085040204734824;139
501;Wijk- en dienstencentrum het Klokhuis;CELEBESSTRAAT 4;;2585 TJ;Nee;Centrum;Archipelbuurt;Archipelbuurt;ja, er is een oprit nodig;;80579.254;456511.385;4.301236440921242;52.091850511110216;140
508;Cultureel Centrum Vreedehuis;RIOUWSTRAAT 1;;2585 GP;Nee;Centrum;Archipelbuurt;Archipelbuurt;nee;09:00 - 21:00;80251.864;456394.895;4.296485443832523;52.09075953879356;141
550;Het Schakelpunt;BURGEMEESTER PATIJNLAAN 1900;;2585 CB;Nee;Centrum;Archipelbuurt;Archipelbuurt;ja, er is een oprit nodig;;80727.219;456362.398;4.303427667405213;52.0905314799422;142
505;Institute of Social Studies;KORTENAERKADE 12;;2518 AX;Nee;Centrum;Zeeheldenkwartier;Zeeheldenkwartier;nee;;80709.662;455618.4;4.303333586403588;52.08384302040479;143
507;Wijk- en dienstencentrum De Heldenhoek;ELANDSTRAAT 88;;2513 GV;Nee;Centrum;Zeeheldenkwartier;Zeeheldenkwartier;ja;;80257.469;455232.298;4.2968219838465025;52.08031237450804;144
509;Woonzorgcentrum Op de Laan;LAAN VAN MEERDERVOORT 110;-112;2517 AS;Nee;Centrum;Zeeheldenkwartier;Zeeheldenkwartier;ja;;79835.21;455531.592;4.29059699199139;52.08294488340444;145
558;COMM (Museum voor Communicatie);ZEESTRAAT 82;;2518 AD;Nee;Centrum;Zeeheldenkwartier;Zeeheldenkwartier;ja;;80593.768;455857.528;4.301590860108566;52.08597643508069;146
532;Nationaal Toneel "Oefenruimte";KERKSTRAAT 13;;2514 KP;Nee;Centrum;Willemspark;Willemspark;ja;;81089.544;456110.835;4.308768276974781;52.088319244797674;147
562;Clubhuis Cantaloup;CANTALOUPENBURG 26;;2514 KL;Nee;Centrum;Willemspark;Willemspark;ja, er is een oprit nodig;;81116.876;455989.084;4.309193389681752;52.087228749011004;148
551;Stayokay;SCHEEPMAKERSSTRAAT 25;;2515 VA;Nee;Centrum;Stationsbuurt;Rivierenbuurt-zuid;ja;;82200.197;454340.129;4.3253490846864455;52.07255345648791;149
584;Jan van Nassauschool;ZAANSTRAAT 25;;2515TM;Nee;Centrum;Stationsbuurt;Rivierenbuurt-noord;;;82299.526;454589.372;4.326744561572498;52.074806399840554;150
806;Centraal Station;KONINGIN JULIANAPLEIN 10;;2595 AA;Nee;Centrum;Stationsbuurt;Rivierenbuurt-noord;ja;06.30-21.00;82081.606;455335.575;4.323406887189288;52.08148371603891;151
820;Centraal Station;KONINGIN JULIANAPLEIN 10;;2595 AA;Nee;Centrum;Stationsbuurt;Rivierenbuurt-noord;ja;06.30-21.00;82081.606;455335.575;4.323406887189288;52.08148371603891;152
283;The Student Hotel;HOEFKADE 9;;2526 BN;Nee;Centrum;Stationsbuurt;Huygenspark;ja;;81813.011;454224.56;4.319727325658142;52.07146383604007;153
560;Wooncentrum De Croissant;ZIEKEN 3;;2515 SB;Nee;Centrum;Stationsbuurt;Huygenspark;ja;;81834.994;454575.844;4.31998;52.07463;154
817;Station Hollands Spoor;STATIONSPLEIN 41;wachtruimte perron 3 & 4;2515 BW;Nee;Centrum;Stationsbuurt;Huygenspark;nee;06.30-21.00;81964.1;454054.569;4.32196705690631;52.06995610592598;155
522;Wijk- en Dienstencentrum De Kronkel;WESTEINDE 425;;2512 KD;Nee;Centrum;Centrum;Kortenbos;ja;;80479.496;454647.651;4.300188150818805;52.07508823473069;156
524;PEP Den Haag;RIVIERVISMARKT 2;;2513 AM;Nee;Centrum;Centrum;Kortenbos;ja;;80972.437;454852.076;4.307333006594024;52.07699145979208;157
578;Meester Schabergschool;SIRTEMASTRAAT 400;;2513 XX;Nee;Centrum;Centrum;Kortenbos;ja, er is een oprit nodig;;80341.592;454669.253;4.298172195143444;52.07526379299723;158
809;HMC Westeinde;LIJNBAAN 32;;2512 VA;Nee;Centrum;Centrum;Kortenbos;ja;;80468.991;454510.546;4.300064885452339;52.07385469506744;159
833;KunstHONK;NOORDWAL 18;;2513 EB;Nee;Centrum;Centrum;Kortenbos;ja;;80600.227;455099.08;4.301850498486075;52.07916133895512;160
770;Edith Stein College;LOUIS COUPERUSPLEIN 33;;2514 HP;Nee;Centrum;Centrum;Voorhout;ja, er is een oprit nodig;;81172.473;455653.253;4.310077146488039;52.08421813954227;161
802;Huis van Europa;KORTE VIJVERBERG 5;-6;2513 AB;Nee;Centrum;Centrum;Voorhout;ja;;81445.586;455296.055;4.314138149715333;52.081044438183206;162
804;Tweede Kamer;BINNENHOF 1A;;2513 AA;Nee;Centrum;Centrum;Voorhout;ja;;81314.835;455082.304;4.312277144943558;52.07910612672167;163
828;Pulchri Studio;LANGE VOORHOUT 15;;2514 EA;Nee;Centrum;Centrum;Voorhout;ja;;81289.23300000001;455400.513;4.3118349728832746;52.08196238508829;164
829;ProDemos;HOFWEG 1;;2511 AA;Nee;Centrum;Centrum;Voorhout;ja;;81267.802;455034.928;4.311601376641495;52.07867410986853;165
516;Stadhuis;SPUI 70;;2511 BT;Nee;Centrum;Centrum;Uilebomen;ja;;81611.373;454909.349;4.316639545670037;52.07759119935163;166
517;Stadhuis;SPUI 70;;2511 BT;Nee;Centrum;Centrum;Uilebomen;ja;;81611.373;454909.349;4.316639545670037;52.07759119935163;167
830;Boekhandel Paagman Centrum;LANGE POTEN 41;;2511 CM;Nee;Centrum;Centrum;Uilebomen;ja;09:00-19:00;81531.258;455072.059;4.315436020959191;52.079042813026234;168
831;Ministerie van Binnenlandse Zaken;TURFMARKT 147;;2511 DP;Nee;Centrum;Centrum;Uilebomen;ja;;81966.579;455087.852;4.321782080873625;52.07924232518047;169
521;Opvoedpoli;PRINSEGRACHT 126;;2512 GD;Nee;Centrum;Centrum;Zuidwal;ja, er is een oprit nodig;;80644.554;454413.837;4.302646345997006;52.073009194126286;170
556;Grote Markt (Boterwaag);GROTE MARKT 8;;2511 BG;Nee;Centrum;Centrum;Zuidwal;ja;;81059.945;454709.419;4.308640215977241;52.0757211274363;171
559;Paard;PRINSEGRACHT 12;;2512 GA;Nee;Centrum;Centrum;Zuidwal;ja;09:00 - 19:00;80989.324;454602.034;4.307633531887494;52.07474665209887;172
801;Wijk- en dienstencentrum De Sprong;PAVILJOENSGRACHT 33;;2512 BL;Nee;Centrum;Centrum;Zuidwal;ja;;81292.58;454531.948;4.312071419340866;52.07415724831497;173
835;Haagsche Bluf;HAAGSCHE BLUF 46;;2511 CN;Nee;Centrum;Centrum;Zuidwal;nee;;81131.578;454832.063;4.30965840050764;52.07683285799392;174
531;CBS Koningin Beatrixschool;SAENREDAMSTRAAT 4;;2525 TN;Nee;Centrum;Schildersbuurt;Schildersbuurt-west;ja, er is een oprit nodig;;80822.382;453449.789;4.305449201173878;52.064369376683786;175
533;Shri Vishnu School;ABRAHAM VAN BEYERENSTRAAT 58;;2525 TH;Nee;Centrum;Schildersbuurt;Schildersbuurt-west;ja, er is een oprit nodig;;80764.462;453356.164;4.304625035688428;52.06352023310243;176
535;Buurtcentrum Octopus;DELFTSELAAN 12;;2512 RE;Nee;Centrum;Schildersbuurt;Schildersbuurt-west;ja;;80422.188;454092.457;4.299473668758102;52.07009113964644;177
579;‘t Haagse Huis;S-GRAVENZANDELAAN 185;;2512 JL;Nee;Centrum;Schildersbuurt;Schildersbuurt-west;ja, er is een oprit nodig;;80127.122;454162.169;4.29516;52.07068;178
528;Sporthal Oranjeplein;SLICHERSTRAAT 11;;2515 GE;Nee;Centrum;Schildersbuurt;Schildersbuurt-noord;ja;;81395.768;454095.154;4.313670510787209;52.07024560465989;179
566;Stadsboerderij Schildershoeve;TENIERSPLANTSOEN 83;;2526 MS;Nee;Centrum;Schildersbuurt;Schildersbuurt-noord;ja, er is een oprit nodig;;80855.323;453955.438;4.305819695134002;52.068917931717344;180
568;Buurthuis Sam Sam;VAN MIERISSTRAAT 226;ingang Van Ostadestraat;2526 NW;Nee;Centrum;Schildersbuurt;Schildersbuurt-noord;ja, er is een oprit nodig;;80878.283;453687.35000000003;4.306212710803938;52.06651176266622;181
576;Theater de Vaillant;HOBBEMASTRAAT 120;;2526 JS;Nee;Centrum;Schildersbuurt;Schildersbuurt-noord;ja, er is een oprit nodig;;80681.175;453948.987;4.303281624110788;52.068836620468296;182
527;Verpleeghuis De Schildershoek;JACOB CATSSTRAAT 325;;2515 GK;Nee;Centrum;Schildersbuurt;Schildersbuurt-oost;ja, er is een oprit nodig;;81403.321;453620.335;4.313883016977855;52.06597951661571;183
824;Clubhuis De Mussen;HOEFKADE 602;;2526 CM;Nee;Centrum;Schildersbuurt;Schildersbuurt-oost;ja;;81368.402;453861.431;4.3133218524298655;52.06814155207891;184
539;Buurthuis Mandelaplein;MANDELAPLEIN 1;;2572 HT;Nee;Centrum;Transvaalkwartier;Transvaalkwartier-zuid;ja;;80145.769;453471.258;4.295578953361239;52.064471304351265;185
541;Sportcafé Transvaal;COLENSOSTRAAT 2;;2572 NR;Nee;Centrum;Transvaalkwartier;Transvaalkwartier-zuid;ja;;80056.868;453169.267;4.294348983856904;52.06174537193466;186
569;Kessler Stichting;DE LA REYWEG 530;;2571 GN;Nee;Centrum;Transvaalkwartier;Transvaalkwartier-zuid;ja;;79827.401;453231.41000000003;4.2909896988718135;52.06227274735972;187
537;OBS De Springbok;PRETORIUSSTRAAT 123;;2571 VD;Nee;Centrum;Transvaalkwartier;Transvaalkwartier-noord;ja, er is een oprit nodig;;79652.175;454106.411;4.288241789032937;52.07011233029864;188
202;OBS De la Reyschool;DE LA REYWEG 212;ingang Heilbronstraat;2571 GH;Nee;Centrum;Transvaalkwartier;Transvaalkwartier-midden;ja, er is een oprit nodig;;79613.129;453714.303;4.287758985423633;52.06658325583756;189
567;Stadsboerderij de Woelige Stal;HERMAN COSTERSTRAAT 80;;2571 PB;Nee;Centrum;Transvaalkwartier;Transvaalkwartier-midden;ja, er is een oprit nodig;;80105.174;453893.896;4.294894333518263;52.0682639523432;190
808;Bibliotheek Transvaal;HOBBEMAPLEIN 30;;2526 JB;Nee;Centrum;Transvaalkwartier;Transvaalkwartier-midden;ja;;80225.644;453763.046;4.296679691898329;52.067104313233884;191
209;OBS Het Galjoen;ANNA BLAMANPLEIN 15;;2525 ZV;Nee;Centrum;Groente- en Fruitmarkt;Groente- en Fruitmarkt;ja, er is een oprit nodig;;80457.701;452956.448;4.3002395531424815;52.05988689476471;192
601;De Haagse Hogeschool;JOHANNA WESTERDIJKPLEIN 75;;2521 EN;Nee;Laak;Laakkwartier en Spoorwijk;Laakhaven-oost;ja;;82095.294;453746.527;4.323946005171696;52.067205077688406;193
602;De Haagse Hogeschool;JOHANNA WESTERDIJKPLEIN 75;;2521 EN;Nee;Laak;Laakkwartier en Spoorwijk;Laakhaven-oost;ja;;82095.294;453746.527;4.323946005171696;52.067205077688406;194
627;Middin Neherkade;RIJSWIJKSEWEG 320;;2516 HM;Nee;Laak;Laakkwartier en Spoorwijk;Laakhaven-oost;ja;;82462.544;453728.60000000003;4.329304988197015;52.06709218259181;195
603;Stadsdeelkantoor Laak;SLACHTHUISPLEIN 25;;2521 EC;Nee;Laak;Laakkwartier en Spoorwijk;Laakhaven-west;ja;;81989.261;453364.273;4.322481593324641;52.063755872646105;196
625;Buurtcentrum de Stiel;STIELTJESSTRAAT 848;;2521 TD;Nee;Laak;Laakkwartier en Spoorwijk;Laakhaven-west;ja, er is een oprit nodig;;81501.772;452899.794;4.315473652876247;52.05951723917567;197
613;OBS De Spoorzoeker;BUSKEN HUETSTRAAT 22;-24;2524 TT;Nee;Laak;Laakkwartier en Spoorwijk;Spoorwijk;ja, er is een oprit nodig;;81267.059;451916.65;4.312263910794262;52.05065074631773;198
615;Laaktheater;FERRANDWEG 4T;;2523 XT;Nee;Laak;Laakkwartier en Spoorwijk;Laakkwartier-west;ja;;81292.352;452579.45;4.312489593980391;52.056610556900466;199
621;De Oase;VAN MEURSSTRAAT 1;;2524 XN;Nee;Laak;Laakkwartier en Spoorwijk;Laakkwartier-west;ja;;81586.191;452169.807;4.316861305769823;52.05296818447642;200
626;HVV Laakkwartier;JAN VAN BEERSSTRAAT 69;;2523 JS;Nee;Laak;Laakkwartier en Spoorwijk;Laakkwartier-west;ja;;81845.515;452434.592;4.320584811634621;52.05538204999359;201
632;OBS Dr. Willem Drees;BRESTERSTRAAT 15;;2523 XC;Nee;Laak;Laakkwartier en Spoorwijk;Laakkwartier-west;ja;;81764.172;452889.986;4.319301358897431;52.05946384199781;202
610;SBO Merlijn;PAETS VAN TROOSTWIJKSTRAAT 87;;2522 DM;Nee;Laak;Laakkwartier en Spoorwijk;Laakkwartier-oost;ja;;82588.827;452753.551;4.3313531806699626;52.05834611045176;203
629;Centrum Jonckbloetplein;JONCKBLOETPLEIN 24;;2523 AR;Nee;Laak;Laakkwartier en Spoorwijk;Laakkwartier-oost;ja;;81916.841;452826.642;4.321540715991932;52.058914739992375;204
605;Esloo College;NOORDPOLDERKADE 167;;2516 JE;Nee;Laak;Laakkwartier en Spoorwijk;Noordpolderbuurt;ja, er is een oprit nodig;;82820.086;453158.31;4.334639151547378;52.06201378668547;205
619;Wijkcentrum Cromvlietplein;CROMVLIETPLEIN 120;;2516 KV;Nee;Laak;Laakkwartier en Spoorwijk;Noordpolderbuurt;ja;;82739.522;453587.853;4.33337361545841;52.06586351377277;206
628;Stadsboerderij Molenweide;STUWSTRAAT 31;;2516 TA;Nee;Laak;Laakkwartier en Spoorwijk;Noordpolderbuurt;ja;;82786.441;453485.493;4.334079409651141;52.06494974031035;207
624;Caballero Fabriek;SATURNUSSTRAAT 60;;2516AH;Nee;Laak;Binckhorst;Binckhorst;ja;;83510.676;453444.888;4.344648085239788;52.06467876147458;208
703;Het Huis Nebo;FLORIS ARNTZENIUSPLEIN 65;;2597 SP;Nee;Haagse Hout;Benoordenhout;Uilennest;ja;;83229.562;457071.538;4.339786205834884;52.0972344612385;209
701;Woonzorgcentr. Maison Gaspard de Coligny;THEO MANN-BOUWMEESTERLAAN 10;;2597 GW;Nee;Haagse Hout;Benoordenhout;Duinzigt;ja;;82152.29000000001;457996.869;4.323869285842482;52.1054094392093;210
787;Pro Senectute Waalsdorp;JAN MUSCHLAAN 157;;2597 TS;Nee;Haagse Hout;Benoordenhout;Duinzigt;;;82412.761;457894.995;4.3276923745081115;52.10452815259506;211
708;Schoolvereniging Wolters;UTENBROEKESTRAAT 2;;2597 PH;Nee;Haagse Hout;Benoordenhout;Waalsdorp;ja;;81437.35;457277.434;4.313590583777642;52.09884948975123;212
759;Muziekacademie Den Haag;RAAMWEG 36;;2596 HN;Nee;Haagse Hout;Benoordenhout;Waalsdorp;nee;;81151.696;456735.484;4.309539705587847;52.09394109223139;213
788;HMC Bronovo;BRONOVOLAAN 5;;2597 AX;Nee;Haagse Hout;Benoordenhout;Waalsdorp;;09:00-17:00;81744.31;457585.023;4.318003661937621;52.10165442726224;214
707;Florence Woonzorgcentrum Oostduin;GOETLIJFSTRAAT 5;ingang bibliotheek;2596 RH;Nee;Haagse Hout;Benoordenhout;Arendsdorp;ja, er is een oprit nodig;;81625.748;456928.403;4.3164148355797165;52.09573784858624;215
704;CBS Oranje Nassau;WEISSENBRUCHSTRAAT 119;;2596 GD;Nee;Haagse Hout;Benoordenhout;Van Hoytemastraat e.o.;ja, er is een oprit nodig;;82061.879;456392.997;4.322893007680235;52.09098392740895;216
706;Wijkcentrum 't Benoordenhuis;BISSCHOPSTRAAT 5;;2596 XH;Nee;Haagse Hout;Benoordenhout;Van Hoytemastraat e.o.;ja, er is een oprit nodig;;82033.66;456485.005;4.322461616097889;52.0918070626029;217
718;Woonzorgcentrum Bezuidenhout;BEZUIDENHOUTSEWEG 150;;2594 AT;Nee;Haagse Hout;Haagse Bos;Haagse Bos;ja;;82785.375;455970.828;4.333537917298313;52.08728483743077;218
713;Sportcentrum Mariahoeve;HET KLEINE LOO 12;;2592 CE;Nee;Haagse Hout;Mariahoeve en Marlot;Kampen;ja;;83864.744;456160.322;4.349244701314039;52.08912752701269;219
775;Sporthal Overbosch;VLASKAMP 3;;2592 AA;Nee;Haagse Hout;Mariahoeve en Marlot;Kampen;ja;;83656.905;456182.96;4.346207794187819;52.089304225268826;220
777;Sportpark Het Kleine Loo (VUC);HET KLEINE LOO 1;;2592 BW;Nee;Haagse Hout;Mariahoeve en Marlot;Kampen;ja, er is een oprit nodig;;83880.457;455939.486;4.349519992309193;52.08714493018711;221
721;Wijkcentrum Mariahoeve;IVOORHORST 155;;2592 TH;Nee;Haagse Hout;Mariahoeve en Marlot;Burgen en Hosten;ja;;84190.986;456299.548;4.353975356723918;52.09042055309513;222
722;Florence Verpleeghuis Mariahoeve;HOFZICHTLAAN 115;;2594 XZ;Nee;Haagse Hout;Mariahoeve en Marlot;Burgen en Hosten;ja;;84897.066;456509.805;4.364233498388544;52.09239996835079;223
723;RKBS De Vuurvlinder;DIAMANTHORST 10;;2592 GH;Nee;Haagse Hout;Mariahoeve en Marlot;Burgen en Hosten;ja, er is een oprit nodig;;84207.228;456670.901;4.354135217173824;52.093759918646015;224
726;Woonzorgcentrum Ametisthorst;AMETISTHORST 9;;2592 HD;Nee;Haagse Hout;Mariahoeve en Marlot;Burgen en Hosten;ja;;84527.806;456688.862;4.358808927808405;52.09396223854;225
782;KunstPost LOOkatie364;HET KLEINE LOO 364;;2592 CK;Nee;Haagse Hout;Mariahoeve en Marlot;Burgen en Hosten;ja, er is een oprit nodig;;84427.26;456442.495;4.357392890477984;52.091735367143144;226
818;François Vatelschool;GRANAATHORST 20;;2592 TD;Nee;Haagse Hout;Mariahoeve en Marlot;Burgen en Hosten;ja, er is een oprit nodig;;84281.468;456454.187;4.355263371546192;52.09182183518231;227
719;Cardia Woonzorgcentrum Landscheiding;ISABELLALAND 150;;2591 SL;Nee;Haagse Hout;Mariahoeve en Marlot;Landen;ja;;84857.842;457390.555;4.363479989184683;52.10031016820121;228
724;Buurthuis De Landen;ISABELLALAND 259;;2591 SG;Nee;Haagse Hout;Mariahoeve en Marlot;Landen;ja;;85134.939;456891.136;4.36762596465563;52.09585701162223;229
717;Wijkcentrum Bezuidenhout-West;JAN VAN RIEBEEKPLEIN 90;;2595 WS;Nee;Haagse Hout;Bezuidenhout;Bezuidenhout-west;ja;;82566.116;455028.106;4.3305394609833945;52.07878414644359;230
803;Hogeschool InHolland;THERESIASTRAAT 8;;2593 AN;Nee;Haagse Hout;Bezuidenhout;Bezuidenhout-west;ja;;82522.041;455574.824;4.329780451095758;52.08369162187008;231
714;RKBS Liduinaschool;AMALIA VAN SOLMSSTRAAT 157;;2595 TA;Nee;Haagse Hout;Bezuidenhout;Bezuidenhout-midden;ja, er is een oprit nodig;;83157.688;455152.493;4.3391417212377235;52.079979052977436;232
715;Wijkcentrum Bezuidenhout;JOHANNES CAMPHUIJSSTRAAT 25;;2593 CH;Nee;Haagse Hout;Bezuidenhout;Bezuidenhout-oost;ja;;83127.004;455824.093;4.338552661381149;52.08601061450298;233
765;Bibliotheek Haagse Hout;THERESIASTRAAT 195;;2593 AJ;Nee;Haagse Hout;Bezuidenhout;Bezuidenhout-oost;ja;;83238.291;455986.369;4.340141971445509;52.08748339390559;234
778;ATV Loolaan (Trefpunt);IJSCLUBWEG 5;;2593 HH;Nee;Haagse Hout;Bezuidenhout;Bezuidenhout-oost;ja, er is een oprit nodig;;83843.19;455562.109;4.349055055131372;52.08374871751913;235
784;V.V. Wilhelmus;GROENE ZOOM 2;;2491 EH;Nee;Leidschenveen-Ypenburg;Forepark;Westvliet;;;85359.391;453628.813;4.371566957230341;52.0665671603638;236
792;Omroep West;LAAN VAN 'S-GRAVENMADE 2;;2495 AJ;Nee;Leidschenveen-Ypenburg;Hoornwijk;Vlietbuurt;ja;;84250.432;451625.533;4.355811360632987;52.04842338658514;237
785;Hornbach;SINGEL 115;;2497 GS;Nee;Leidschenveen-Ypenburg;Hoornwijk;Vliegeniersbuurt;ja;;84495.921;449489.65;4.3598300081429695;52.02925965222224;238
786;Kringloopwinkel RataPlan;LAAN VAN WAALHAVEN 213A;;2497 GL;Nee;Leidschenveen-Ypenburg;Hoornwijk;Vliegeniersbuurt;ja, er is een oprit nodig;;84294.641;450609.632;4.3566658856885825;52.03929921797622;239
744;Buurthuis De Yp;OEVERWALLAAN 130;;2498 BK;Nee;Leidschenveen-Ypenburg;Ypenburg;De Bras;ja, er is een oprit nodig;;86169.808;449802.196;4.3841550847136315;52.0322787829964;240
763;CBS De Zonnestraal;OEVERWALLAAN 108;;2498 BZ;Nee;Leidschenveen-Ypenburg;Ypenburg;De Bras;ja, er is een oprit nodig;;85973.796;449720.002;4.38131565120535;52.03151574204638;241
768;Zwembad het Hofbad;YPENBURGSE BOSLAAN 30;;2496 ZA;Nee;Leidschenveen-Ypenburg;Ypenburg;De Reef;ja;;86106.765;452092.817;4.382774858846002;52.052856698072205;242
789;Gezondheidscentrum Reinier de Graaf;KIEKENDIEFSTRAAT 17;;2496 RP;Nee;Leidschenveen-Ypenburg;Ypenburg;De Venen;;09:00-17:00;86286.805;451947.522;4.3854285867394145;52.05157328967314;243
729;OBS De Notenkraker;EKSTERHOF 2;;2496 HS;Nee;Leidschenveen-Ypenburg;Ypenburg;Morgenweide;ja, er is een oprit nodig;;86171.712;451738.05;4.3837930778954135;52.04967649115276;244
739;RKBS De Christoffel;MADUROLAAN 25;;2496 RH;Nee;Leidschenveen-Ypenburg;Ypenburg;Morgenweide;ja;;85039.366;451007.775;4.367437191289747;52.042971782503926;245
760;RKBS De Paradijsvogel;WEIDEVOGELLAAN 201;;2496 MT;Nee;Leidschenveen-Ypenburg;Ypenburg;Morgenweide;ja;;85638.432;451516.877;4.3760647248224105;52.04762233878601;246
766;Gemiva SVG Groep;KNOBBELZWAANSINGEL 171;;2496 LN;Nee;Leidschenveen-Ypenburg;Ypenburg;Morgenweide;ja;;85575.338;451605.72000000003;4.375127042371709;52.04841286677344;247
812;Bibliotheek Ypenburg;SCHRABBER 8;;2496 SR;Nee;Leidschenveen-Ypenburg;Ypenburg;Morgenweide;ja;;85258.786;450851.123;4.370666996589591;52.04159160825426;248
728;PCBS De Vlieger;FRITS DIEPENLAAN 43;;2497 DN;Nee;Leidschenveen-Ypenburg;Ypenburg;Singels;ja;;84953.666;450739.881;4.366243085877142;52.040553414406965;249
742;OBS De Startbaan;BOTTGERWATER 21;;2497 ZJ;Nee;Leidschenveen-Ypenburg;Ypenburg;Waterbuurt;ja, er is een oprit nodig;;85279.742;450438.571;4.371056532822924;52.03788666092199;250
741;OBS Prinses Catharina-Amalia;CICEROSTROOK 9;;2493 ZL;Nee;Leidschenveen-Ypenburg;Leidschenveen;De Lanen;ja;;87041.321;452854.166;4.396246780956191;52.05981431813198;251
743;OBS Prinses Catharina-Amalia;CICEROSTROOK 9;;2493 ZL;Nee;Leidschenveen-Ypenburg;Leidschenveen;De Lanen;ja;;87041.321;452854.166;4.396246780956191;52.05981431813198;252
772;Stadsboerderij Landzigt;ARISTOTELESLAAN 143;;2493 ZN;Nee;Leidschenveen-Ypenburg;Leidschenveen;De Lanen;ja;;87179.431;453152.961;4.398201041368892;52.06251650474186;253
790;ROC Mondriaan;ASPASIALAAN 19;;2493 WN;Nee;Leidschenveen-Ypenburg;Leidschenveen;De Lanen;;;87319.77100000001;453259.493;4.4002261623316645;52.06349106740431;254
730;Samenwerkingsschool Balans;KLAVERVELD 5;ingang gymlokaal;2492 MA;Nee;Leidschenveen-Ypenburg;Leidschenveen;De Velden;ja;;87743.431;453950.406;4.40626739848163;52.0697518882896;255
732;Samenwerkingsschool Balans;KLAVERVELD 5;ingang gymlokaal;2492 MA;Nee;Leidschenveen-Ypenburg;Leidschenveen;De Velden;ja;;87743.431;453950.406;4.40626739848163;52.0697518882896;256
774;Sporthal Leidschenveen;VAZ DIASDREEF 20;;2492 JL;Nee;Leidschenveen-Ypenburg;Leidschenveen;De Velden;ja;;87203.238;453701.651;4.39843921295853;52.067450481135246;257
813;Bibliotheek Leidschenveen;EMMY BELINFANTEDREEF 7;;2492 JT;Nee;Leidschenveen-Ypenburg;Leidschenveen;De Velden;ja;;87460.196;453486.307;4.402228818372406;52.065546577845794;258
779;Fonteynenburg;IJSDUIKERSTRAAT 1;;2492 PM;Nee;Leidschenveen-Ypenburg;Leidschenveen;De Vissen;ja, er is een oprit nodig;;88366.246;453269.443;4.415482792330911;52.06370734063722;259
791;WZH Leilinde;HARRIET FREEZERHOF 32;;2492 JD;Nee;Leidschenveen-Ypenburg;Leidschenveen;De Vissen;;09:00-17:00;87583.667;453255.683;4.404074752450022;52.063489002501086;260
