x;y;Locatienaam;Organisatie;Straat;Nummer;Letter;Toevoeging;Adres;Postcode;Woonplaats;PCPlaats;Wijknaam;Buurtnaam;Domein;Hoofdfunctie;Functie;Kaart;Doelgroep;Telefoon;Email;Website1;Website2;Toegankelijkheid
137956;457969;Verzorgingshuis Tuindorp Oost;Careyn;Winklerlaan;365;;;Winklerlaan 365;3571 KE;Utrecht;3571 KE Utrecht;Noordoost;Tuindorp-oost;Zorg;Verpleging en verzorging ouderen;Beschut wonen;Verpleging en verzorging ouderen;Ouderen;030-258880;;https://www.careyn.nl/locaties/utrecht/utrecht/careyn-tuindorp-oost/;http://www.careyn.nl;http://www.toegankelijkutrecht.nl/toegankelijk/toe_view.asp?ac=info&toe_permanent_guid={083F85DA-2EF7-4D0C-8D35-5AF2F4D8607B}&lan_id=1
137757;457105;Woonzorgcentrum Nieuw Bleyenburg;Careyn;Jan van Galenstraat;8 - 70;;;Jan van Galenstraat 8 - 70;3572 LA;Utrecht;3572 LA Utrecht;Noordoost;Huizingalaan, Karel Doormanlaan e.o.;Zorg;Verstandelijke beperking;Woonzorgcentrum;Verstandelijke beperking;Mensen met een verstandelijke beperking;0900-2111222 / 030-2724745;;https://www.careyn.nl/locaties/utrecht/utrecht/nieuw-bleyenburg/;http://www.careyn.nl;
136557;457403;Samuel Muller;Stichting Sociale Huisvesting (SSH);Willem van Abcoudeplein;15;;;Willem van Abcoudeplein 15;3515 BX;Utrecht;3515 BX Utrecht;Noordoost;Tuinwijk-west;Zorg;Verpleging en verzorging ouderen;Beschut wonen;Verpleging en verzorging ouderen;Ouderen;;;;;
138120;457209;Leger des Heils hostel De Hoek;Leger des Heils;Kögllaan;25;;;Kögllaan 25;3571 PZ;Utrecht;3571 PZ Utrecht;Noordoost;Voordorp/Voorveldsepolder;Zorg;Verslavingszorg;Beschermd wonen, activering, hostel;Verslavingszorg;Drugsverslaafden;030-2721218;middennederland@legerdesheils.nl;http://www.legerdesheils.nl/midden-nederland;;
136712;456973;De Kade;Lijn5;Willem van Noortstraat;25;;;Willem van Noortstraat 25;3514 GA;Utrecht;3514 GA Utrecht;Noordoost;Tuinwijk-oost;Zorg;Maatschappelijke opvang;Kamertrainingscentrum;Maatschappelijke opvang;Meiden;088-513 16 26;info@ln5.nl;http://www.ln5.nl;;
137861;457421;Hamakerlaan;Lijn5;Hamakerlaan;5;;;Hamakerlaan 5;3571 ZE;Utrecht;3571 ZE Utrecht;Noordoost;Tuindorp-oost;Zorg;Maatschappelijke opvang;Kamertrainingscentrum;Maatschappelijke opvang;Meiden;088-513 16 26;info@ln5.nl;http://www.ln5.nl;;
137410;457205;Corporatiehotel 1;De Tussenvoorziening;Blauwkapelseweg;135;;;Blauwkapelseweg 135;3572 KE;Utrecht;3572 KE Utrecht;Noordoost;Zeeheldenbuurt, Hengeveldstraat e.o.;Zorg;Maatschappelijke opvang;Begeleid wonen;Maatschappelijke opvang;Dreigend daklozen;030-2711122;medewerkerscorporatiehotel@tussenvoorziening.nl;http://www.tussenvoorziening.nl;;
136671;456541;Nachtopvang Weerdsingel;De Tussenvoorziening;Weerdsingel Oostzijde;34;;;Weerdsingel Oostzijde 34;3514 AC;Utrecht;3514 AC Utrecht;Noordoost;Vogelenbuurt;Zorg;Maatschappelijke opvang;Nachtopvang;Maatschappelijke opvang;Mensen die niet rechtmatig in Nederland verblijven, ongedocumenteerden;030-2730407;nachtopvang@tussenvoorziening.nl;http://www.tussenvoorziening.nl;;
134798;459268;Youké Regiokantoor;Youké;Orinocodreef;21;;;Orinocodreef 21;3563 ST;Utrecht;3563 ST Utrecht;Overvecht;Vechtzoom-noord, Klopvaart;Zorg;Maatschappelijke opvang;Jeugd- en opvoedhulp, crisisopvang, ambulante spoedhulp;Maatschappelijke opvang;Kinderen en jongeren van 0 tot 23 jaar, kinderen en jongeren met jeugdzorgindicatie;030-2620014 / 0800-4005000;start@youke.nl;http://www.youke.nl;;
138399;458124;Voordorp;Reinaerde;Samora Machelstraat;6 t/m 10;;;Samora Machelstraat 6 t/m 10;3573 XK;Utrecht;3573 XK Utrecht;Noordoost;Voordorp/Voorveldsepolder;Zorg;Verstandelijke beperking;Beschermd wonen, groepswonen;Verstandelijke beperking;Mensen met een verstandelijke beperking;030-2721970;voordorp@reinaerde.nl;http://www.reinaerde.nl;;
137574;457076;Utrecht Wittevrouwen;Stichting Fokus;Vermeulenstraat;12;A;;Vermeulenstraat 12A;3572 WP;Utrecht;3572 WP Utrecht;Noordoost;Zeeheldenbuurt, Hengeveldstraat e.o.;Zorg;Lichamelijke beperking;Zelfstandig wonen met een lichamelijke handicap, 24-uurs assistentie;Lichamelijke beperking;Mensen met een lichamelijke beperking;050-5217272;servicepunt@fokuswonen.nl;http://www.fokuswonen.nl/Home/Fokuswonen/Fokusprojecten/Utrecht/Utrecht-Wittevrouwen;http://www.fokuswonen.nl;
137206;454164;Woonzorgcentrum Tolsteeg;AxionContinu;Saffierlaan;10;;;Saffierlaan 10;3523 RC;Utrecht;3523 RC Utrecht;Zuid;Tolsteeg, Rotsoord;Zorg;Verpleging en verzorging ouderen;Woonzorgcentrum, beschut wonen, beschermd wonen, langdurige zorg, verpleging, kortdurende opname, zelfstandig wonen;Verpleging en verzorging ouderen;Ouderen, dementerenden, mensen met geheugenproblemen, mensen met een lichamelijke beperking, mensen met een chronische ziekte;030-2567567;servicebureau@axioncontinu.nl;http://www.axioncontinu.nl/tolsteeg;http://www.axioncontinu.nl;http://www.toegankelijkutrecht.nl/toegankelijk/toe_view.asp?ac=info&toe_permanent_guid={4BE2E99C-D73E-4D03-8EDC-218F5541BBB9}&lan_id=1
137971;452906;Wooncentrum De Koppel;Careyn;Hondsrug;461-463;;;Hondsrug 461-463;3524 BX;Utrecht;3524 BX Utrecht;Zuid;Lunetten-noord;Zorg;Verpleging en verzorging ouderen;Beschut wonen;Verpleging en verzorging ouderen;Ouderen;030-2806170;;https://www.careyn.nl/locaties/utrecht/utrecht/careyn-de-koppel/;http://www.careyn.nl;http://www.toegankelijkutrecht.nl/toegankelijk/toe_view.asp?ac=info&toe_permanent_guid={7F495676-5385-4CC3-A8D3-721BCDA01E14}&lan_id=1
131189;457038;Youké Hof ter Weydeweg;Youké;Hof ter Weydeweg;20;;;Hof ter Weydeweg 20;3543 BC;Utrecht;3543 BC Utrecht;Leidsche Rijn;Terwijde-west;Zorg;Maatschappelijke opvang;Jeugd- en opvoedhulp, crisisopvang, ambulante spoedhulp;Maatschappelijke opvang;Kinderen en jongeren van 0 tot 23 jaar, kinderen en jongeren met jeugdzorgindicatie;030-7601060 / 0800-4005000;start@youke.nl;http://www.youke.nl;;
134845;458268;Youké Stautonstraat;Youké;Stautonstraat;9;;;Stautonstraat 9;3505 AB;Utrecht;3505 AB Utrecht;Noordwest;Schaakbuurt e.o.;Zorg;Maatschappelijke opvang;Jeugd- en opvoedhulp, crisisopvang, ambulante spoedhulp;Maatschappelijke opvang;Kinderen en jongeren van 0 tot 23 jaar, kinderen en jongeren met jeugdzorgindicatie;030-2620014 / 0800-4005000;start@youke.nl;http://www.youke.nl;;
137847;453434;Ameland;Amerpoort;Ameland;3-5;;;Ameland 3-5;3524 AM;Utrecht;3524 AM Utrecht;Zuid;Lunetten-noord;Zorg;Verstandelijke beperking;Begeleid zelfstandig wonen, groepswonen, crisisopvang;Verstandelijke beperking;Jongeren met jeugdzorgindicatie;035-6475555;info@amerpoort.nl;http://www.amerpoort.nl/locaties/wonen/ameland.html;http://www.amerpoort.nl/;
137863;452848;Utrecht Lunetten;Stichting Fokus;Twente;110;;;Twente 110;3524 TW;Utrecht;3524 TW Utrecht;Zuid;Lunetten-noord;Zorg;Lichamelijke beperking;Zelfstandig wonen met een lichamelijke handicap, 24-uurs assistentie;Lichamelijke beperking;Mensen met een lichamelijke beperking;050-5217272;servicepunt@fokuswonen.nl;http://www.fokuswonen.nl/Home/Fokuswonen/Fokusprojecten/Utrecht/Utrecht-Lunetten;http://www.fokuswonen.nl;
134894;459073;Woonzorgcentrum 't Huis aan de Vecht;AxionContinu;Costa Ricadreef;9;;;Costa Ricadreef 9;3563 TA;Utrecht;3563 TA Utrecht;Overvecht;Vechtzoom-noord, Klopvaart;Zorg;Verpleging en verzorging ouderen;Woonzorgcentrum, verzorgd wonen, beschermd wonen, beschut wonen, langdurige zorg, verpleging, kortdurende opname, zelfstandig wonen;Verpleging en verzorging ouderen;Ouderen, dementerenden, mensen met geheugenproblemen, mensen met een lichamelijke beperking, mensen met een chronische ziekte;030-2646668;servicebureau@axioncontinu.nl;http://www.axioncontinu.nl/t-huis-aan-de-vecht;http://www.axioncontinu.nl;
135482;459546;Zorgcentrum Rosendael;Careyn;Indusdreef;5;;;Indusdreef 5;3564 GV;Utrecht;3564 GV Utrecht;Overvecht;Tigrisdreef e.o.;Zorg;Verpleging en verzorging ouderen;Beschermd wonen;Verpleging en verzorging ouderen;Ouderen;030-2588788;;https://www.careyn.nl/locaties/utrecht/utrecht/careyn-rosendael/;http://www.careyn.nl;
135118;458809;Woonzorgcentrum Zuylenstede;Vecht en IJssel;Perudreef;8;;;Perudreef 8;3563 VA;Utrecht;3563 VA Utrecht;Overvecht;Vechtzoom-zuid;Zorg;Verpleging en verzorging ouderen;Verzorgd Wonen, Zelfstandig Zorgwonen en Gekoesterd Wonen. Zorg Thuis.;Verpleging en verzorging ouderen;Ouderen, ouderen met dementie, mensen met een beperking;030-2647100;info@vechtenijssel.nl;http://www.vechtenijssel.nl/welkom/zuylenstede;http://www.vechtenijssel.nl;http://www.toegankelijkutrecht.nl/toegankelijk/toe_view.asp?ac=info&toe_permanent_guid={8EDBDC95-9FBF-4906-A3A6-2CE5B4750A52}&lan_id=1
136880;458538;Zorgcentrum Tamarinde;Careyn;Neckardreef;6;;;Neckardreef 6;3562 CN;Utrecht;3562 CN Utrecht;Overvecht;Neckardreef e.o.;Zorg;Verpleging en verzorging ouderen;Beschut wonen;Verpleging en verzorging ouderen;Ouderen;030-2588700;;https://www.careyn.nl/locaties/utrecht/utrecht/careyn-nieuw-tamarinde/;http://www.careyn.nl;http://www.toegankelijkutrecht.nl/toegankelijk/toe_view.asp?ac=info&toe_permanent_guid={2F56BEED-E4B6-4828-95EF-7FC0BA2A95AA}&lan_id=1
136861;458610;Warande;Careyn;Werradreef;96;;;Werradreef 96;3562 CW;Utrecht;3562 CW Utrecht;Overvecht;Neckardreef e.o.;Zorg;Verpleging en verzorging ouderen;Verzorgd wonen, beschermd wonen;Verpleging en verzorging ouderen;Ouderen;088-1239988;;https://www.careyn.nl/locaties/utrecht/utrecht/warande/;http://www.careyn.nl;
136791;459018;Brandenburchdreef;naar keuze;Brandenburchdreef en Dommeringdreef;;;;Brandenburchdreef en Dommeringdreef ;;Utrecht; Utrecht;Overvecht;Neckardreef e.o.;Zorg;Verpleging en verzorging ouderen;Verzorgd wonen;Verpleging en verzorging ouderen;Ouderen, mensen met een verstandelijke beperking;;;http://www.abrona.nl;;
137727;458484;Vulcanusdreef;naar keuze, Reinaerde, Mitros;Vulcanusdreef;47;;;Vulcanusdreef 47;3561 CB;Utrecht;3561 CB Utrecht;Overvecht;Donaudreef, Wolgadreef e.o.;Zorg;Verpleging en verzorging ouderen;Verzorgd wonen;Verpleging en verzorging ouderen;Ouderen, mensen met een verstandelijke beperking;;;http://www.reinaerde.nl;http://www.mitros.nl;http://www.toegankelijkutrecht.nl/toegankelijk/toe_view.asp?ac=info&toe_permanent_guid={8BE5006E-8B4E-4D65-909D-FC8739A3ECF9}&lan_id=1
135865;459276;Gagelstaete en Oeroeboeroe;naar keuze en Reinaerde;Marokkodreef;11 t/m 65;;;Marokkodreef 11 t/m 65;3564 EV;Utrecht;3564 EV Utrecht;Overvecht;Zambesidreef e.o.;Zorg;Verpleging en verzorging ouderen;Verzorgd wonen;Verpleging en verzorging ouderen;Ouderen, mensen met een verstandelijke beperking;;;http://www.portaal.nl;;
135253;459071;Grasboom Utrecht Clophaemer;De Grasboom;Victoria Regiadreef;70;C,D,E,G,H,J,K,M,L;;Victoria Regiadreef 70C,D,E,G,H,J,K,M,L;3563 GJ;Utrecht;3563 GJ Utrecht;Overvecht;Vechtzoom-zuid;Zorg;Geestelijke gezondheidszorg;Ggz, begeleid zelfstandig wonen, beschermd wonen;Geestelijke gezondheidszorg;Autistische jongvolwassenen  ;;secretariaat@grasboomclophaemer.nl, info@degrasboom.org;;http://www.degrasboom.nl;
134867;459517;De Kiezel;Amerpoort;Bahamadreef;1-13;;;Bahamadreef 1-13;3563 HV;Utrecht;3563 HV Utrecht;Overvecht;Vechtzoom-noord, Klopvaart;Zorg;Verstandelijke beperking;Begeleid zelfstandig wonen, groepswonen;Verstandelijke beperking;Mensen met een verstandelijke beperking, jongvolwassenen en volwassenen;035-6475555;info@amerpoort.nl;http://www.amerpoort.nl/locaties/wonen/de-kiezel.html;http://www.amerpoort.nl;
137249;458476;Jeanne d'Arcdreef;Philadelphia;Jeanne d'Arcdreef;71;;;Jeanne d'Arcdreef 71;3561 SB;Utrecht;3561 SB Utrecht;Overvecht;Donaudreef, Wolgadreef e.o.;Zorg;Verstandelijke beperking;Beschermd wonen, groepswonen;Verstandelijke beperking;Mensen met een verstandelijke beperking;0800-0830;;http://www.philadelphia.nl;;
136203;459138;Loevenhout;Reinaarde;Grote Trekdreef;141;;;Grote Trekdreef 141;3563 CA;Utrecht;3563 CA Utrecht;Overvecht;Zambesidreef e.o.;Zorg;Verstandelijke beperking;Beschermd wonen, groepswonen;Verstandelijke beperking;Mensen met niet-aangeboren hersenletsel;;info@reinaerde.nl;http://www.reinaerde.nl;;
131178;457154;Woonzorgcentrum De Componist;AxionContinu;George Jarnostraat;14-20;;;George Jarnostraat 14-20;3543 BX;Utrecht;3543 BX Utrecht;Leidsche Rijn;Terwijde-west;Zorg;Verpleging en verzorging ouderen;Woonzorgcentrum, beschermd wonen, langdurige zorg, verpleging;Verpleging en verzorging ouderen;Ouderen, dementerenden, mensen met geheugenproblemen;030-6866330;servicebureau@axioncontinu.nl;http://www.axioncontinu.nl/de-componist;http://www.axioncontinu.nl;http://www.toegankelijkutrecht.nl/toegankelijk/toe_view.asp?ac=info&toe_permanent_guid={EE077E82-3C65-4014-9087-52B5F980F84D}&lan_id=1
132098;455629;Parkwijk;Careyn;Eerste Oosterparklaan;72;;;Eerste Oosterparklaan 72;3544 AK;Utrecht;3544 AK Utrecht;Leidsche Rijn;Parkwijk-zuid;Zorg;Verpleging en verzorging ouderen;Beschermd wonen;Verpleging en verzorging ouderen;Ouderen;030-6702340;;https://www.careyn.nl/locaties/utrecht/utrecht/careyn-parkwijk/;http://www.careyn.nl;
130862;456854;Woonzorgcentrum De Drie Ringen;AxionContinu, Reinaerde;Kandinskystraat;40;;;Kandinskystraat 40;3544 NW;Utrecht;3544 NW Utrecht;Leidsche Rijn;Het Zand-west;Zorg;Verpleging en verzorging ouderen;Woonzorgcentrum, zelfstandig wonen, verzorgd wonen, beschermd wonen, beschut wonen, langdurige zorg, verpleging, thuiszorg;Verpleging en verzorging ouderen;Ouderen, dementerenden, mensen met geheugenproblemen, mensen met een lichamelijke beperking, mensen met een chronische ziekte, ouderen met een verstandelijke beperking en dementie;030-6866950;servicebureau@axioncontinu.nl;http://www.axioncontinu.nl/de-drie-ringen;http://www.axioncontinu.nl;http://www.toegankelijkutrecht.nl/toegankelijk/toe_view.asp?ac=info&toe_permanent_guid={9E0C30CF-C635-4875-A54E-E6C864CFFBE6}&lan_id=1
132567;456926;Woonzorgcentrum De Ingelanden;AxionContinu;Louis Armstronglaan;800;;;Louis Armstronglaan 800;3543 EB;Utrecht;3543 EB Utrecht;Leidsche Rijn;Terwijde-oost;Zorg;Verpleging en verzorging ouderen;Woonzorgcentrum, verzorgd wonen, beschermd wonen, beschut wonen, langdurige zorg, verpleging;Verpleging en verzorging ouderen;Ouderen, dementerenden, mensen met geheugenproblemen, mensen met een lichamelijke beperking, mensen met een chronische ziekte, ouderen met een verstandelijke beperking en dementie, ouderen met niet-aangeboren hersenletsel;030-6867800;servicebureau@axioncontinu.nl;http://www.axioncontinu.nl/de-ingelanden;http://www.axioncontinu.nl;http://www.toegankelijkutrecht.nl/toegankelijk/toe_view.asp?ac=info&toe_permanent_guid={5C5930B7-886C-4508-82EA-98E576E5EA78}&lan_id=1
132309;455526;NoiZ 't Groene Sticht;De Tussenvoorziening;Ab Harrewijnstraat;47;;;Ab Harrewijnstraat 47;3544 AL;Utrecht;3544 AL Utrecht;Leidsche Rijn;Parkwijk-zuid;Zorg;Maatschappelijke opvang;24 uurs opvang (beschermd);Maatschappelijke opvang;Daklozen en ex-daklozen;030-2380365 ;medewerkersgroenesticht@tussenvoorziening.nl;http://www.tussenvoorziening.nl;;
131929;456816;Leger des Heils hostel Leidsche Maan;Leger des Heils;Willem Frederik Hermansstraat;200;;;Willem Frederik Hermansstraat 200;3544 KP;Utrecht;3544 KP Utrecht;Leidsche Rijn;Het Zand-oost;Zorg;Verslavingszorg;Behandeling, activering, beschermd wonen, hostel;Verslavingszorg;Drugsverslaafden;030-2144691;middennederland@legerdesheils.nl;http://www.legerdesheils.nl/midden-nederland;;
130910;457974;Emmerich Kalmalaan;Stichting Umah Hai;Emmerich Kalmalaan;10 t/m 36;;;Emmerich Kalmalaan 10 t/m 36;3543 HB;Utrecht;3543 HB Utrecht;Leidsche Rijn;Terwijde-west;Zorg;Geestelijke gezondheidszorg;Beschermd wonen, groepswonen, ggz;Geestelijke gezondheidszorg;Psychiatrische cliënten;0343-522964;;http://www.umah-hai.nl;;
132621;455871;Parkwijk;Amerpoort;Mierikswortelstraat;110 t/m 122;;;Mierikswortelstraat 110 t/m 122;3544 CR;Utrecht;3544 CR Utrecht;Leidsche Rijn;Parkwijk-zuid;Zorg;Verstandelijke beperking;Beschermd wonen, appartementen;Verstandelijke beperking;Mensen met een verstandelijke beperking;030-6702340;info@amerpoort.nl;https://www.careyn.nl/locaties/utrecht/utrecht/careyn-parkwijk/;http://www.amerpoort.nl;
132168;455522;Verlengde Houtrakgracht;'s Heeren Loo;Verlengde Houtrakstraat;311-331;;;Verlengde Houtrakstraat 311-331;3544 EB;Utrecht;3544 EB Utrecht;Leidsche Rijn;Parkwijk-zuid;Zorg;Verstandelijke beperking;Begeleid wonen, groepswonen;Verstandelijke beperking;Mensen met niet-aangeboren hersenletsel, volwassenen, senioren;0800-3555555;;http://www.sheerenloo.nl/contact/waar-zitten-wij/-/locatie/21335/de+meern/verlengde+houtrakgracht+311-313-321-323-325+en+331;http://www.sheerenloo.nl;
131444;457356;Nieuw Batestein;Reinaerde;Musicallaan;479;;;Musicallaan 479;3543 ED;Utrecht;3543 ED Utrecht;Leidsche Rijn;Terwijde-oost;Zorg;Verstandelijke beperking;Beschermd wonen, appartementen;Verstandelijke beperking;Mensen met een verstandelijke beperking;030-2299922;info@reinaerde.nl;http://www.reinaerde.nl;;
130989;457514;Terwijde;Amerpoort;Edmund Eylerstraat;1-7;;;Edmund Eylerstraat 1-7;3543 JP;Utrecht;3543 JP Utrecht;Leidsche Rijn;Terwijde-west;Zorg;Verstandelijke beperking;Begeleid zelfstandig wonen, appartementen;Verstandelijke beperking;Mensen met een verstandelijke beperking;035-647555;info@amerpoort.nl;http://www.amerpoort.nl/locaties/wonen/terwijde.html;http://www.amerpoort.nl;
131904;455109;Slingeraklaan;'s Heeren Loo;Slingeraklaan;140-146;;;Slingeraklaan 140-146;3544 WE;Utrecht;3544 WE Utrecht;Leidsche Rijn;Langerak;Zorg;Verstandelijke beperking;Begeleid wonen, groepswonen;Verstandelijke beperking;Mensen met een verstandelijke beperking, jongvolwassenen;0800-3555555;;http://www.sheerenloo.nl/contact/waar-zitten-wij/-/locatie/21310/utrecht/begeleid+wonen+utrecht+-+slingeraklaan+140-146;http://www.sheerenloo.nl;
132459;456276;Heivlinder;Reinaerde;Heivlinder;12;;;Heivlinder 12;3544 DM;Utrecht;3544 DM Utrecht;Leidsche Rijn;Parkwijk-noord;Zorg;Verstandelijke beperking;Beschermd wonen, groepswonen;Verstandelijke beperking;Mensen met een verstandelijke beperking;030-2299922;info@reinaerde.nl;http://www.reinaerde.nl;;
132420;456319;Heivlinder;Reinaerde;Heivlinder;30;;;Heivlinder 30;3544 DM;Utrecht;3544 DM Utrecht;Leidsche Rijn;Parkwijk-noord;Zorg;Verstandelijke beperking;Beschermd wonen, groepswonen;Verstandelijke beperking;Mensen met een verstandelijke beperking;030-2299922;info@reinaerde.nl;http://www.reinaerde.nl;;
132833;455630;Korianderstraat;Reinaerde;Korianderstraat;1 en 5;;;Korianderstraat 1 en 5;3544 BN;Utrecht;3544 BN Utrecht;Leidsche Rijn;Parkwijk-zuid;Zorg;Verstandelijke beperking;Beschermd wonen, groepswonen;Verstandelijke beperking;Mensen met een verstandelijke beperking;030-2299922;info@reinaerde.nl;http://www.reinaerde.nl;;
131974;457016;Utrecht Terwijde;Stichting Fokus;Duke Ellingtonestraat;102-130;;;Duke Ellingtonestraat 102-130;3543 GK;Utrecht;3543 GK Utrecht;Leidsche Rijn;Terwijde-oost;Zorg;Lichamelijke beperking;Zelfstandig wonen met een lichamelijke handicap, 24-uurs assistentie;Lichamelijke beperking;Mensen met een lichamelijke beperking;050-5217272;servicepunt@fokuswonen.nl;http://www.fokuswonen.nl/Home/Fokuswonen/Fokusprojecten/Utrecht/Utrecht-Terwijde;http://www.fokuswonen.nl;
136658;455278;Bartholomeus Gasthuis;Stichting Bartholomeus Gasthuis;Lange Smeestraat;40;;;Lange Smeestraat 40;3511PZ;Utrecht;3511PZ Utrecht;Binnenstad;Springweg e.o., Geertebuurt;Zorg;Verpleging en verzorging ouderen;Verzorgd wonen, beschermd wonen, beschut wonen;Verpleging en verzorging ouderen;Ouderen, dementerenden;030-2310254;info@bartholomeusgasthuis.nl;http://www.bartholomeusgasthuis.nl;;http://www.toegankelijkutrecht.nl/toegankelijk/toe_view.asp?ac=info&toe_permanent_guid={BF04A5A9-8854-41AC-A706-FD682683459B}&lan_id=1
136902;456011;De Kei;Altrecht;Keistraat;1 en 3;;;Keistraat 1 en 3;3512 HV;Utrecht;3512 HV Utrecht;Binnenstad;Domplein, Neude, Janskerkhof;Zorg;Maatschappelijke opvang;24 uurs opvang (beschermd);Maatschappelijke opvang;Daklozen;030-2308888;;http://www.altrecht.nl;;
137146;455390;Leger des Heils Verpleegafdeling Meerzorg;Leger des Heils;Nieuwegracht;92;;;Nieuwegracht 92;3512 LX;Utrecht;3512 LX Utrecht;Binnenstad;Nieuwegracht-oost;Zorg;Maatschappelijke opvang;Verpleegafdeling (kortdurend);Maatschappelijke opvang;Daklozen;06-12579818;middennederland@legerdesheils.nl;http://www.legerdesheils.nl/midden-nederland;;
136758;456323;Sleep Inn;De Tussenvoorziening;Jansveld;51;;;Jansveld 51;3512 BE;Utrecht;3512 BE Utrecht;Binnenstad;Domplein, Neude, Janskerkhof;Zorg;Maatschappelijke opvang;Nachtopvang;Maatschappelijke opvang;Daklozen, thuislozen;030-2315326;sleepinn@tussenvoorziening.nl;http://www.tussenvoorziening.nl;;
137087;456368;Pension Singelzicht;Stichting Singelzicht;Wittevrouwenkade;1;;;Wittevrouwenkade 1;3512 CR;Utrecht;3512 CR Utrecht;Binnenstad;Breedstraat, Plompetorengracht e.o.;Zorg;Maatschappelijke opvang;Nachtopvang;Maatschappelijke opvang;Daklozen, thuislozen;030-2303760;;http://www.singelzicht.nl;;
136372;456389;Wegloophuis;Stichting Wegloophuis;Waterstraat;11 en 13;;;Waterstraat 11 en 13;3511 BW;Utrecht;3511 BW Utrecht;Binnenstad;Wijk C;Zorg;Geestelijke gezondheidszorg;Beschermd wonen, ggz;Geestelijke gezondheidszorg;Psychiatrische cliënten;030-2316627;wegloophuis@wlh.demon.nl;http://www.wegloophuis-utrecht.nl;;
137053;455369;ABC straat;Vectra;A.B.C.-straat;5;;;A.B.C.-straat 5;3512 PX;Utrecht;3512 PX Utrecht;Binnenstad;Lange Nieuwstraat e.o.;Zorg;Verslavingszorg;Behandeling, informatie en advies;Verslavingszorg;Verslaafden;;;http://www.victas.nl;;
134705;458231;De Prinses;Careyn;Prinses Margrietstraat;7 t/m 57;;;Prinses Margrietstraat 7 t/m 57;3554 GA;Utrecht;3554 GA Utrecht;Noordwest;Schaakbuurt e.o.;Zorg;Verpleging en verzorging ouderen;Verzorgd wonen, beschermd wonen;Verpleging en verzorging ouderen;Ouderen;030-2588954;;https://www.careyn.nl/locaties/utrecht/utrecht/careyn-de-prinses/;http://www.careyn.nl;
133585;458690;Woonzorgcentrum Lieven de Key;Vecht en IJssel, Altrecht;Lieven van Keylaan;2-4;;;Lieven van Keylaan 2-4;3555 VZ;Utrecht;3555 VZ Utrecht;Noordwest;Zuilen-noord;Zorg;Verpleging en verzorging ouderen;Gekoesterd Wonen en Beschermd Wonen;Verpleging en verzorging ouderen;Ouderen, ouderen met dementie, psychiatrische cliënten;030-3033642;info@vechtenijssel.nl;http://www.vechtenijssel.nl/welkom/lieven-de-key;http://www.vechtenijssel.nl;
135585;457568;Nieuw Chartreuse;Careyn;Laan van Chartroise;62-66;;;Laan van Chartroise 62-66;3552 EX;Utrecht;3552 EX Utrecht;Noordwest;Ondiep;Zorg;Verpleging en verzorging ouderen;Verzorgd wonen, beschermd wonen;Verpleging en verzorging ouderen;Ouderen;030-2588930;;https://www.careyn.nl/locaties/utrecht/utrecht/careyn-nieuw-chartreuse/;http://www.careyn.nl;
135159;457932;De Geuzenveste;Careyn;Van Hoomekade;9 t/m 23;;;Van Hoomekade 9 t/m 23;3554 AR;Utrecht;3554 AR Utrecht;Noordwest;Geuzenwijk, De Driehoek;Zorg;Verpleging en verzorging ouderen;Verzorgd wonen, beschermd wonen;Verpleging en verzorging ouderen;Ouderen;030-2588942;;https://www.careyn.nl/locaties/utrecht/utrecht/careyn-de-geuzenveste/;http://www.careyn.nl;
135972;456615;Vevolghuis;Stichting Wegloophuis;Kruisweg;11-13;;;Kruisweg 11-13;3513 CS;Utrecht;3513 CS Utrecht;Noordwest;Pijlsweerd-zuid;Zorg;Geestelijke gezondheidszorg;Beschermd wonen, ggz;Geestelijke gezondheidszorg;Psychiatrische cliënten;030-2316627;wegloophuis@wlh.demon.nl;http://www.wegloophuis-utrecht.nl;;
135235;457312;Royaards van den Hamkade;Amerpoort;Royaards van den Hamkade;8-12;;;Royaards van den Hamkade 8-12;3552 CM;Utrecht;3552 CM Utrecht;Noordwest;Egelantierstraat, Mariendaalstraat e.o.;Zorg;Verstandelijke beperking;Begeleid zelfstandig wonen, groepswonen;Verstandelijke beperking;Mensen met een verstandelijke beperking;035-647555;info@amerpoort.nl;http://www.amerpoort.nl/locaties/wonen/royaards-van-den-hamkade.html;http://www.amerpoort.nl/;
133681;459136;Zuylendael;Philadelphia;Daalseweg;187;D;;Daalseweg 187D;3555 ST;Utrecht;3555 ST Utrecht;Noordwest;Zuilen-noord;Zorg;Verstandelijke beperking;Beschermd wonen, groepswonen;Verstandelijke beperking;Mensen met een verstandelijke beperking;;;http://www.philadelphia.nl;;
133811;458521;C. van Maasdijkstraat;Reinaerde;C. van Maasdijkstraat;55 t/m 95;;;C. van Maasdijkstraat 55 t/m 95;3555 VM;Utrecht;3555 VM Utrecht;Noordwest;Pr. Bernhardplein e.o., Demkagebied;Zorg;Verstandelijke beperking;Beschermd wonen, appartementen;Verstandelijke beperking;Mensen met een verstandelijke beperking;030-2299922;info@reinaerde.nl;http://www.reinaerde.nl;;
137925;454693;Verpleeghuis Swellengrebel;Careyn;Burgemeester Fockema Andreaelaan;100;;;Burgemeester Fockema Andreaelaan 100;3582 KV;Utrecht;3582 KV Utrecht;Oost;Rubenslaan e.o.;Zorg;Verpleging en verzorging ouderen;Verzorgd wonen, beschermd wonen;Verpleging en verzorging ouderen;Ouderen;030-2588511;;https://www.careyn.nl/locaties/utrecht/utrecht/careyn-swellengrebel/;http://www.careyn.nl;http://www.toegankelijkutrecht.nl/toegankelijk/toe_view.asp?ac=info&toe_permanent_guid={A565D448-B09C-41C0-98E0-6EE411C4BF3B}&lan_id=1
138335;455282;Meidenhuis;De Rading;Jan van Scorelstraat;34;;;Jan van Scorelstraat 34;3583 CR;Utrecht;3583 CR Utrecht;Oost;Schildersbuurt;Zorg;Maatschappelijke opvang;24 uurs opvang (beschermd);Maatschappelijke opvang;Vrouwen;030-2724353;info@rading.nl;http://www.rading.nl;;
137370;454505;Exodus Eendstraat;Stichting Exodus Utrecht;Eendstraat;1;;;Eendstraat 1;3582 EZ;Utrecht;3582 EZ Utrecht;Oost;Watervogelbuurt;Zorg;Maatschappelijke opvang;24 uurs opvang, beschermd wonen, begeleid wonen, ambulante begeleiding;Maatschappelijke opvang;Ex-gedetineerden en gedetineerden in de laatste fase van hun straf;030-7440666;utrecht@exodus.nl;http://www.exodus.nl/Utrecht_247.html;http://www.exodus.nl;
138656;453836;Klein Amelisweerd;Stichting ARM;Koningsweg;358;;;Koningsweg 358;3585 LE;Utrecht;3585 LE Utrecht;Oost;Maarschalkerweerd, Mereveld;Zorg;Maatschappelijke opvang;;Maatschappelijke opvang;;030-2545422 / 06-14153157;zorgvoorelkaarhuis@kleinarmelisweerd.nl;http://www.armelisweerd.nl;;
138200;456779;Youké Cornelis Houtmanstraat;Youké;Cornelis Houtmanstraat;21;;;Cornelis Houtmanstraat 21;3572 LT;Utrecht;3572 LT Utrecht;Noordoost;Huizingalaan, Karel Doormanlaan e.o.;Zorg;Maatschappelijke opvang;Jeugd- en opvoedhulp, crisisopvang, ambulante spoedhulp;Maatschappelijke opvang;Kinderen en jongeren van 0 tot 23 jaar, kinderen en jongeren met jeugdzorgindicatie;030-6936800 / 0800-4005000;start@youke.nl;http://www.youke.nl;;
137827;455142;Youké Abstederdijk;Youké;Abstederdijk;208;;;Abstederdijk 208;3582 BW;Utrecht;3582 BW Utrecht;Oost;Abstede, Tolsteegsingel e.o.;Zorg;Maatschappelijke opvang;Jeugd- en opvoedhulp, crisisopvang, ambulante spoedhulp;Maatschappelijke opvang;Kinderen en jongeren van 0 tot 23 jaar, kinderen en jongeren met jeugdzorgindicatie;030-2518434 / 0800-4005000;start@youke.nl;http://www.youke.nl;;
137754;455115;Youké Abstederdijk;Youké;Abstederdijk;301;;;Abstederdijk 301;3582 BK;Utrecht;3582 BK Utrecht;Oost;Abstede, Tolsteegsingel e.o.;Zorg;Maatschappelijke opvang;Jeugd- en opvoedhulp, crisisopvang, ambulante spoedhulp;Maatschappelijke opvang;Kinderen en jongeren van 0 tot 23 jaar, kinderen en jongeren met jeugdzorgindicatie;030-2518434 / 0800-4005000;start@youke.nl;http://www.youke.nl;;
138542;455277;Utrecht Antonius;Stichting Fokus;Rietveldhof;61;;;Rietveldhof 61;3583 EV;Utrecht;3583 EV Utrecht;Oost;Schildersbuurt;Zorg;Lichamelijke beperking;Zelfstandig wonen met een lichamelijke handicap, 24-uurs assistentie;Lichamelijke beperking;Mensen met een lichamelijke beperking;050-5217272;servicepunt@fokuswonen.nl;http://www.fokuswonen.nl/Home/Fokuswonen/Fokusprojecten/Utrecht/Utrecht-Antonius;http://www.fokuswonen.nl;
129342;455275;Woonvoorziening Veldhof;De Rijnhoven;Bovenpolder;126;;;Bovenpolder 126;3453 NP;De Meern;3453 NP De Meern;Vleuten - De Meern;Veldhuizen;Zorg;Verpleging en verzorging ouderen;Woonzorgcentrum, beschermd wonen, 24 uurs opvang, langdurige zorg, verpleging, revalidatie;Verpleging en verzorging ouderen;Ouderen, dementerenden, mensen met geheugenproblemen, mensen met een chronische ziekte, mensen met een ondertoezichtstelling, mensen met een psychiatrische achtergrond, mensen met niet-aangeboren hersenletsel, multiprobleem, sociaal kwetsbare bewoners;030-6662430, 0800-7456468;info@rijnhoven.nl;http://www.derijnhoven.nl/locaties/veldhof/;http://www.derijnhoven.nl;
129374;456297;Coninckshof;De Rijnhoven;Utrechtse Heuvelrug;180;;;Utrechtse Heuvelrug 180;3452 LM;Vleuten;3452 LM Vleuten;Vleuten - De Meern;Vleuterweide-noord/oost/centrum;Zorg;Verpleging en verzorging ouderen;Woonzorgcentrum, beschermd wonen, 24 uurs opvang, langdurige zorg, verpleging, revalidatie;Verpleging en verzorging ouderen;Ouderen, dementerenden, mensen met geheugenproblemen, mensen met een chronische ziekte, mensen met een ondertoezichtstelling, mensen met een psychiatrische achtergrond, mensen met niet-aangeboren hersenletsel, multiprobleem, sociaal kwetsbare bewoners;030-6582666 / 0800-7456468;info@rijnhoven.nl;http://www.rijnhoven.nl;;
129576;457450;Woonzorgcentrum Parkhof, Hinderstein en Bottenstein;De Rijnhoven;Alenveltpark;1;;;Alenveltpark 1;3451 CE;Vleuten;3451 CE Vleuten;Vleuten - De Meern;Vleuten;Zorg;Verpleging en verzorging ouderen;Woonzorgcentrum, beschermd wonen, 24 uurs opvang, langdurige zorg, verpleging, revalidatie;Verpleging en verzorging ouderen;Ouderen, dementerenden, mensen met geheugenproblemen, mensen met een chronische ziekte, mensen met een ondertoezichtstelling, mensen met een psychiatrische achtergrond, mensen met niet-aangeboren hersenletsel, multiprobleem, sociaal kwetsbare bewoners;030-6778600 / 0800-7456468;info@rijnhoven.nl;http://www.rijnhoven.nl;;
130565;455001;Woonzorgcomplex Nijevelt en Zonnewijzer;De Rijnhoven;Touwslagerslaan;11;;;Touwslagerslaan 11;3454 GV;Vleuten;3454 GV Vleuten;Vleuten - De Meern;De Meern-zuid;Zorg;Verpleging en verzorging ouderen;Woonzorgcentrum, beschermd wonen, 24 uurs opvang, langdurige zorg, verpleging, revalidatie;Verpleging en verzorging ouderen;Ouderen, dementerenden, mensen met geheugenproblemen, mensen met een chronische ziekte, mensen met een ondertoezichtstelling, mensen met een psychiatrische achtergrond, mensen met niet-aangeboren hersenletsel, multiprobleem, sociaal kwetsbare bewoners;030-6695959 / 0800-7456468;info@rijnhoven.nl;http://www.rijnhoven.nl;;http://www.toegankelijkutrecht.nl/toegankelijk/toe_view.asp?ac=info&toe_permanent_guid={629750EF-60A8-4208-9495-CAED66835C9C}&lan_id=1
128087;459238;Emmaus Haarzuilens;Emmaus;Eikstraat;14;;;Eikstraat 14;3455 SJ;Haarzuilens;3455 SJ Haarzuilens;Vleuten - De Meern;Haarzuilens e.o., Parkweg-zuid;Zorg;Maatschappelijke opvang;Woon-werk gemeenschap;Maatschappelijke opvang;Daklozen;030-6771540;haarzuilens@emmaus-utrecht.nl;http://www.emmaus-utrecht.nl;;
129740;457756;Hofland;Amerpoort;Hofland;3;;;Hofland 3;3451 VG;Vleuten;3451 VG Vleuten;Vleuten - De Meern;Vleuten;Zorg;Verstandelijke beperking;Trainingshuis, begeleid zelfstandig wonen, groepswonen;Verstandelijke beperking;Mensen met een verstandelijke beperking, jongeren van 18 tot 25 jaar;035-6475555;info@amerpoort.nl;http://www.amerpoort.nl/locaties/wonen/hofland-3.html;http://www.amerpoort.nl;
128503;456172;Trevouxperenlaan;'s Heeren Loo;Trevouxperenlaan;3-5;;;Trevouxperenlaan 3-5;3452 DS;Vleuten;3452 DS Vleuten;Vleuten - De Meern;Vleuterweide-zuid;Zorg;Verstandelijke beperking;Begeleid wonen, groepswonen;Verstandelijke beperking;Mensen met een verstandelijke beperking;0800-3555555;;http://www.sheerenloo.nl/contact/waar-zitten-wij/-/locatie/21330/vleuten/begeleid+wonen+utrecht+-trevouxperenlaan+3-5;http://www.sheerenloo.nl;
128471;456038;Trevouxperenlaan;'s Heeren Loo;Trevouxperenlaan;48-50;;;Trevouxperenlaan 48-50;3452 DW;Vleuten;3452 DW Vleuten;Vleuten - De Meern;Vleuterweide-zuid;Zorg;Verstandelijke beperking;Begeleid wonen, groepswonen;Verstandelijke beperking;Mensen met een verstandelijke beperking;0800-3555555;;http://www.sheerenloo.nl/contact/waar-zitten-wij/-/locatie/21334/vleuten/begeleid+wonen+utrecht+-+trevouxperenlaan+48-50;http://www.sheerenloo.nl;
129019;456845;Vleuterweide;Reinaerde;De Vuursche;156;;;De Vuursche 156;3452 JV;Vleuten;3452 JV Vleuten;Vleuten - De Meern;Vleuterweide-noord/oost/centrum;Zorg;Verstandelijke beperking;Beschermd wonen, groepswonen;Verstandelijke beperking;Mensen met een verstandelijke beperking;030-2299922;info@reinaerde.nl;http://www.reinaerde.nl;;
130339;454221;Marketensterlaan;Amerpoort;Marketensterlaan;18;;;Marketensterlaan 18;3454 WR;De Meern;3454 WR De Meern;Vleuten - De Meern;De Meern-zuid;Zorg;Verstandelijke beperking;Begeleid zelfstandig wonen, beschermd wonen, groepswonen;Verstandelijke beperking;Mensen met een verstandelijke beperking;035-6475555;info@amerpoort.nl;http://www.amerpoort.nl/locaties/wonen/marketentsterlaan.html;http://www.amerpoort.nl;
130339;454221;Marketensterlaan;Amerpoort;Marketensterlaan;26;;;Marketensterlaan 26;3454 WR;De Meern;3454 WR De Meern;Vleuten - De Meern;De Meern-zuid;Zorg;Verstandelijke beperking;Begeleid zelfstandig wonen, beschermd wonen, groepswonen;Verstandelijke beperking;Mensen met een verstandelijke beperking;035-6475555;info@amerpoort.nl;http://www.amerpoort.nl/locaties/wonen/marketentsterlaan.html;http://www.amerpoort.nl;
130432;454299;Gouvernantelaan;Amerpoort;Gouvernantelaan;15-19;;;Gouvernantelaan 15-19;3454 WE;De Meern;3454 WE De Meern;Vleuten - De Meern;De Meern-zuid;Zorg;Verstandelijke beperking;Begeleid zelfstandig wonen, beschermd wonen, groepswonen;Verstandelijke beperking;Mensen met een verstandelijke beperking, volwassenen;035-6475555;info@amerpoort.nl;http://www.amerpoort.nl/locaties/wonen/gouvernantelaan.html;http://www.amerpoort.nl;
129388;454972;Gulperberg;'s Heeren Loo;Gulperberg;18-22;;;Gulperberg 18-22;3453 RX;De Meern;3453 RX De Meern;Vleuten - De Meern;Veldhuizen;Zorg;Verstandelijke beperking;Begeleid wonen, groepswonen;Verstandelijke beperking;Mensen met een verstandelijke beperking, volwassenen;0800-3555555;;http://www.sheerenloo.nl/contact/waar-zitten-wij/-/locatie/21312/de+meern/gulperberg+18-20-22;http://www.sheerenloo.nl;
129085;456804;Zijpenberg;'s Heeren Loo;Zijpenberg;15-19;;;Zijpenberg 15-19;3453 RS;Vleuten;3453 RS Vleuten;Vleuten - De Meern;Vleuterweide-noord/oost/centrum;Zorg;Verstandelijke beperking;Begeleid wonen, groepswonen;Verstandelijke beperking;Mensen met een verstandelijke beperking, volwassenen, senioren;0800-3555555;;http://www.sheerenloo.nl/contact/waar-zitten-wij/-/locatie/21311/de+meern/zijpenberg+15-17-19;http://www.sheerenloo.nl;
129939;454583;Vadinushof;Amerpoort;Vadinushof;50-72;;;Vadinushof 50-72;3453 JK;De Meern;3453 JK De Meern;Vleuten - De Meern;Veldhuizen;Zorg;Verstandelijke beperking;Beschermd wonen, appartementen;Verstandelijke beperking;Mensen met een verstandelijke beperking, volwassenen;035-6475555;info@amerpoort.nl;http://www.amerpoort.nl/locaties/wonen/vadinushof.html;http://www.amerpoort.nl;
129485;455679;Sculpturentuinlaan;Amerpoort;Sculpturentuinlaan;52 t/m 70;;;Sculpturentuinlaan 52 t/m 70;3452 RG;Vleuten;3452 RG Vleuten;Vleuten - De Meern;Vleuterweide-zuid;Zorg;Verstandelijke beperking;Begeleid zelfstandig wonen, beschermd wonen, appartementen;Verstandelijke beperking;Mensen met een verstandelijke beperking, jongvolwassenen;035-6475555;info@amerpoort.nl;http://www.amerpoort.nl/locaties/wonen/sculpturentuinlaan.html;http://www.amerpoort.nl/;
134376;454722;Woonzorgcentrum De Wartburg;AxionContinu;Kennedylaan;16;;;Kennedylaan 16;3533 KJ;Utrecht;3533 KJ Utrecht;West;Welgelegen, Den Hommel;Zorg;Verpleging en verzorging ouderen;Woonzorgcentrum, verzorgd wonen, beschermd wonen, beschut wonen, langdurige zorg, verpleging, zelfstandig wonen, thuiszorg;Verpleging en verzorging ouderen;Ouderen, dementerenden, mensen met geheugenproblemen, mensen met een lichamelijke beperking, mensen met een chronische ziekte;030-2940041;servicebureau@axioncontinu.nl;http://www.axioncontinu.nl/de-wartburg;http://www.axioncontinu.nl;http://www.toegankelijkutrecht.nl/toegankelijk/toe_view.asp?ac=info&toe_permanent_guid={FDD9FED1-CD93-4B60-896D-8671FB1C8153}&lan_id=1
134350;454768;Zorghotel De Wartburg;AxionContinu;Kennedylaan;300;;;Kennedylaan 300;3533 KN;Utrecht;3533 KN Utrecht;West;Welgelegen, Den Hommel;Zorg;Lichamelijke gezondheidszorg;Revalidatie, hostel, behandeling, intensieve kortdurende zorg, herstelzorg, kortdurende opname;Revalidatiezorg;Revaliderenden, ouderen, mensen met lichamelijke beperkingen, volwassenen, mensen met kanker;030-2958660;info@zorghoteldewartburg.nl;http://www.zorghoteldewartburg.nl;http://www.axioncontinu.nl;
135049;456463;Corporatiehotel 2;De Tussenvoorziening;Cremerplein;1-46;;;Cremerplein 1-46;3532 BW;Utrecht;3532 BW Utrecht;West;Nw Engeland, Th. à Kempisplantsoen e.o.;Zorg;Maatschappelijke opvang;Begeleid wonen   ;Maatschappelijke opvang;Dreigend daklozen;030-2340819;medewerkerscorporatiehotel@tussenvoorziening.nl;http://www.tussenvoorziening.nl;;
134536;455917;NoiZ Opvang;De Tussenvoorziening;Keulsekade;37;;;Keulsekade 37;3531 JX;Utrecht;3531 JX Utrecht;West;Laan van Nieuw-Guinea, Spinozaplantsoen e.o.;Zorg;Maatschappelijke opvang;Nachtopvang;Maatschappelijke opvang;Daklozen;030-2517280;MedewerkersNOIZ@tusenvoorziening.nl;http://www.tussenvoorziening.nl;;
135702;453253;Woonzorgcentrum Koningsbruggen;AxionContinu;Beneluxlaan;924;;;Beneluxlaan 924;3526 KJ;Utrecht;3526 KJ Utrecht;Zuidwest;Transwijk-zuid;Zorg;Verpleging en verzorging ouderen;Woonzorgcentrum, beschermd wonen, langdurige zorg, verpleging, dagbehandeling, crisisopvang;Verpleging en verzorging ouderen;Ouderen, dementerenden, mensen met geheugenproblemen;030-2822300;servicebureau@axioncontinu.nl;http://www.axioncontinu.nl/koningsbruggen;http://www.axioncontinu.nl;http://www.toegankelijkutrecht.nl/toegankelijk/toe_view.asp?ac=info&toe_permanent_guid={B4788C8A-3543-4954-88E6-8AFFE18467CE}&lan_id=1
135368;454026;Woonzorgcentrum Transwijk;Vecht en IJssel;Hof van Transwijk;16;;;Hof van Transwijk 16;3526 XB;Utrecht;3526 XB Utrecht;Zuidwest;Transwijk-zuid;Zorg;Verpleging en verzorging ouderen;Verzorgd Wonen, Gekoesterd Wonen en Beschermd Wonen. Zorg Thuis.;Verpleging en verzorging ouderen;Ouderen, ouderen met dementie, psychiatrische cliënten;030-2856200;info@vechtenijssel.nl;http://www.vechtenijssel.nl/welkom/transwijk;http://www.vechtenijssel.nl;http://www.toegankelijkutrecht.nl/toegankelijk/toe_view.asp?ac=info&toe_permanent_guid={3D9ADA31-D844-47E1-965F-5841E04C7A52}&lan_id=1
135174;454493;Woonzorgcentrum De Bijnkershoek;AxionContinu;Van Bijnkershoeklaan;250;;;Van Bijnkershoeklaan 250;3527 XL;Utrecht;3527 XL Utrecht;Zuidwest;Transwijk-noord;Zorg;Verpleging en verzorging ouderen;Woonzorgcentrum, zelfstandig wonen, verzorgd wonen, beschermd wonen, beschut wonen, dagbesteding, dagopvang, langdurige zorg, verpleging, thuiszorg, kortdurende opname;Verpleging en verzorging ouderen;Ouderen, dementerenden, mensen met geheugenproblemen, mensen met een lichamelijke beperking, mensen met een chronische ziekte;030-2968500;servicebureau@axioncontinu.nl;http://www.axioncontinu.nl/de-bijnkershoek;http://www.axioncontinu.nl;http://www.toegankelijkutrecht.nl/toegankelijk/toe_view.asp?ac=info&toe_permanent_guid={65A33ADE-3F72-4A99-ACC8-5BCE7524BA3A}&lan_id=1
134560;454667;Woonzorgcentrum Voorhoeve;AxionContinu;Van Heuven Goedhartlaan;3;;;Van Heuven Goedhartlaan 3;3527 CE;Utrecht;3527 CE Utrecht;Zuidwest;Kanaleneiland-noord;Zorg;Verpleging en verzorging ouderen;Woonzorgcentrum, beschermd wonen, langdurige zorg, verpleging;Verpleging en verzorging ouderen;Ouderen, dementerenden, mensen met geheugenproblemen, mensen met een lichamelijke beperking, mensen met een chronische ziekte, ouderen met niet-aangeboren hersenletsel;030-2953853;servicebureau@axioncontinu.nl;http://www.axioncontinu.nl/voorhoeve;http://www.axioncontinu.nl;http://www.toegankelijkutrecht.nl/toegankelijk/toe_view.asp?ac=info&toe_permanent_guid={FD84045E-E907-44CA-BFF4-FAFBE078439F}&lan_id=1
135083;454169;Woonzorgcentrum ECR De Keizershof;European Care Residences;Van Vollenhovenlaan;451;;;Van Vollenhovenlaan 451;3527 JK;Utrecht;3527 JK Utrecht;Zuidwest;Transwijk-noord;Zorg;Verpleging en verzorging ouderen;Verzorgd wonen;Verpleging en verzorging ouderen;Cliënten van alle leeftijden en met een verschillende behoefte aan zorg;088-3280010;dekeizershof@ecr.nl;http://www.ecr.eu;;http://www.toegankelijkutrecht.nl/toegankelijk/toe_view.asp?ac=info&toe_permanent_guid={FFF36D3F-2E2E-4BC6-AF5D-8B5EB13D3110}&lan_id=1
136417;454019;Exodus Waalstraat;Stichting Exodus Utrecht;Waalstraat;91;;;Waalstraat 91;3522 SE;Utrecht;3522 SE Utrecht;Zuidwest;Rivierenwijk;Zorg;Maatschappelijke opvang;24 uurs opvang, beschermd wonen, begeleid wonen, ambulante begeleiding;Maatschappelijke opvang;Ex-gedetineerden en gedetineerden in de laatste fase van hun straf;030-7440660;utrecht@exodus.nl;http://www.exodus.nl/Utrecht_247.html;http://www.exodus.nl;
135862;453255;Grasboom Utrecht Max;De Grasboom;Europaplein;453-468;;;Europaplein 453-468;3526 WJ;Utrecht;3526 WJ Utrecht;Zuidwest;Transwijk-zuid;Zorg;Geestelijke gezondheidszorg;Ggz, begeleid zelfstandig wonen, beschermd wonen;Geestelijke gezondheidszorg;Autistische jongvolwassenen  ;;secretaris@grasboommax.nl, info@degrasboom.org;https://www.degrasboom.org/grasboom-utrecht-max.html;http://www.degrasboom.nl;
136291;454519;Hostel De Bolkstreek;De Tussenvoorziening;Croeselaan;391;A;;Croeselaan 391A;3521 BX;Utrecht;3521 BX Utrecht;Zuidwest;Dichterswijk;Zorg;Maatschappelijke opvang;24 uurs opvang (beschermd), begeleiding, hostel;Maatschappelijke opvang;Daklozen, thuislozen;030-2950222;medewerkersbolksbeek@tussenvoorziening.nl;http://www.tussenvoorziening.nl;;
135006;458015;Youké Koppestokstraat;Youké;Koppestokstraat;38;;;Koppestokstraat 38;3554 BD;Utrecht;3554 BD Utrecht;Noordwest;Geuzenwijk, De Driehoek;Zorg;Maatschappelijke opvang;Jeugd- en opvoedhulp, crisisopvang, ambulante spoedhulp;Maatschappelijke opvang;Kinderen en jongeren van 0 tot 23 jaar, kinderen en jongeren met jeugdzorgindicatie;030-2328022 / 0800-4005000;start@youke.nl;http://www.youke.nl;;
137053;455369;Victas, centrum voor verslavingszorg en polikliniek;Victas;A.B.C.-straat;5;;;A.B.C.-straat 5;3512 PX;Utrecht;3512 PX Utrecht;Binnenstad;Lange Nieuwstraat e.o.;Zorg;Verslavingszorg;;Verslavingszorg;Verslaafden;088-1616200;werving@victas.nl;http://www.victas.nl;;
137045;455221;Altrecht Acute Psychiatrie Utrecht;Altrecht;Lange Nieuwstraat;119;;;Lange Nieuwstraat 119;3512 PG;Utrecht;3512 PG Utrecht;Binnenstad;Lange Nieuwstraat e.o.;Zorg;Geestelijke gezondheidszorg;ggz;Geestelijke gezondheidszorg;Psychiatrische cliënten;030-2308888;;http://www.altrecht.nl;;
137045;455221;Altrecht Aventurijn, ACT Jeugd;Altrecht;Lange Nieuwstraat;119;;;Lange Nieuwstraat 119;3513 PG;Utrecht;3513 PG Utrecht;Binnenstad;Lange Nieuwstraat e.o.;Zorg;Geestelijke gezondheidszorg;ggz;Geestelijke gezondheidszorg;Psychiatrische cliënten;030-2308888;;http://www.altrecht.nl;;
137045;455221;Altrecht Aventurijn, Kade 17;Altrecht;Lange Nieuwstraat;119;;;Lange Nieuwstraat 119;3514 PG;Utrecht;3514 PG Utrecht;Binnenstad;Lange Nieuwstraat e.o.;Zorg;Geestelijke gezondheidszorg;ggz;Geestelijke gezondheidszorg;Psychiatrische cliënten;030-2308888;;http://www.altrecht.nl;;
137045;455221;Altrecht Aventurijn, Poli Barentsz;Altrecht;Lange Nieuwstraat;119;;;Lange Nieuwstraat 119;3515 PG;Utrecht;3515 PG Utrecht;Binnenstad;Lange Nieuwstraat e.o.;Zorg;Geestelijke gezondheidszorg;ggz;Geestelijke gezondheidszorg;Psychiatrische cliënten;030-2308888;;http://www.altrecht.nl;;
137045;455221;Altrecht Aventurijn, Poli Wier;Altrecht;Lange Nieuwstraat;119;;;Lange Nieuwstraat 119;3516 PG;Utrecht;3516 PG Utrecht;Binnenstad;Lange Nieuwstraat e.o.;Zorg;Geestelijke gezondheidszorg;ggz;Geestelijke gezondheidszorg;Psychiatrische cliënten;030-2308888;;http://www.altrecht.nl;;
137045;455221;Altrecht P en V;Altrecht;Lange Nieuwstraat;119;;;Lange Nieuwstraat 119;3517 PG;Utrecht;3517 PG Utrecht;Binnenstad;Lange Nieuwstraat e.o.;Zorg;Geestelijke gezondheidszorg;ggz;Geestelijke gezondheidszorg;Psychiatrische cliënten;030-2308888;;http://www.altrecht.nl;;
137045;455221;Altrecht Voortgezette Klinische Behandeling, Mariënburg;Altrecht;Lange Nieuwstraat;119;;;Lange Nieuwstraat 119;3518 PG;Utrecht;3518 PG Utrecht;Binnenstad;Lange Nieuwstraat e.o.;Zorg;Geestelijke gezondheidszorg;ggz;Geestelijke gezondheidszorg;Psychiatrische cliënten;030-2308888;;http://www.altrecht.nl;;
137045;455221;Altrecht FACT Utrecht;Altrecht;Lange Nieuwstraat;119;;;Lange Nieuwstraat 119;3519 PG;Utrecht;3519 PG Utrecht;Binnenstad;Lange Nieuwstraat e.o.;Zorg;Geestelijke gezondheidszorg;ggz;Geestelijke gezondheidszorg;Psychiatrische cliënten;030-2308888;;http://www.altrecht.nl;;
136984;455371;Altrecht ABC;Altrecht;Lange Nieuwstraat;52;A;;Lange Nieuwstraat 52A;3512 PK;Utrecht;3512 PK Utrecht;Binnenstad;Lange Nieuwstraat e.o.;Zorg;Geestelijke gezondheidszorg;ggz;Geestelijke gezondheidszorg;Psychiatrische cliënten;030-2308888;;http://www.altrecht.nl;;
138288;453014;Altrecht Jeugd;Altrecht;Nieuwe Houtenseweg;2;;;Nieuwe Houtenseweg 2;3524 SH;Utrecht;3524 SH Utrecht;Zuid;Lunetten-zuid;Zorg;Geestelijke gezondheidszorg;ggz;Geestelijke gezondheidszorg;Psychiatrische cliënten;030-2308888;;http://www.altrecht.nl;;
138288;453014;Altrecht Centrum Jongvolwassenen;Altrecht;Nieuwe Houtenseweg;2;;;Nieuwe Houtenseweg 2;3524 SH;Utrecht;3524 SH Utrecht;Zuid;Lunetten-zuid;Zorg;Geestelijke gezondheidszorg;ggz;Geestelijke gezondheidszorg;Psychiatrische cliënten;030-2308888;;http://www.altrecht.nl;;
138288;453014;Altrecht Centrum Psychiatrische Gezinsbehandeling;Altrecht;Nieuwe Houtenseweg;2;;;Nieuwe Houtenseweg 2;3524 SH;Utrecht;3524 SH Utrecht;Zuid;Lunetten-zuid;Zorg;Geestelijke gezondheidszorg;ggz;Geestelijke gezondheidszorg;Psychiatrische cliënten;030-2308888;;http://www.altrecht.nl;;
138288;453014;Altrecht IMH Centrum Utrecht;Altrecht;Nieuwe Houtenseweg;2;;;Nieuwe Houtenseweg 2;3524 SH;Utrecht;3524 SH Utrecht;Zuid;Lunetten-zuid;Zorg;Geestelijke gezondheidszorg;ggz;Geestelijke gezondheidszorg;Psychiatrische cliënten;030-2308888;;http://www.altrecht.nl;;
138320;452988;Altrecht Polikliniek Utrecht-Zuid;Altrecht;Nieuwe Houtenseweg;12;;;Nieuwe Houtenseweg 12;3524 SH;Utrecht;3524 SH Utrecht;Zuid;Lunetten-zuid;Zorg;Geestelijke gezondheidszorg;ggz;Geestelijke gezondheidszorg;Psychiatrische cliënten;030-2308888;;http://www.altrecht.nl;;
138320;452988;Altrecht Bipolair;Altrecht;Nieuwe Houtenseweg;12;;;Nieuwe Houtenseweg 12;3524 SH;Utrecht;3524 SH Utrecht;Zuid;Lunetten-zuid;Zorg;Geestelijke gezondheidszorg;ggz;Geestelijke gezondheidszorg;Psychiatrische cliënten;030-2308888;;http://www.altrecht.nl;;
132391;457327;Altrecht Senior, Ambulant Utrecht;Altrecht;Soestwetering;1;;;Soestwetering 1;3543 AZ;Utrecht;3543 AZ Utrecht;Leidsche Rijn;Bedrijvengebied De Wetering;Zorg;Geestelijke gezondheidszorg;ggz;Geestelijke gezondheidszorg;Psychiatrische cliënten;030-2297600;geheugenpoli@antonius.net;http://www.altrecht.nl;;
132391;457327;Altrecht Senior, Kliniek Utrecht;Altrecht;Soestwetering;1;;;Soestwetering 1;3543 AZ;Utrecht;3543 AZ Utrecht;Leidsche Rijn;Bedrijvengebied De Wetering;Zorg;Geestelijke gezondheidszorg;ggz;Geestelijke gezondheidszorg;Psychiatrische cliënten;030-2308888;;http://www.altrecht.nl;;
135283;457060;Altrecht Polikliniek Utrecht Noord;Altrecht;Mimosastraat;2-4;;;Mimosastraat 2-4;3551 DC;Utrecht;3551 DC Utrecht;Noordwest;2e Daalsebuurt e.o.;Zorg;Geestelijke gezondheidszorg;ggz;Geestelijke gezondheidszorg;Psychiatrische cliënten;030-2308888;;http://www.altrecht.nl;;
135283;457060;Altrecht Academisch Angstcentrum;Altrecht;Mimosastraat;2-4;;;Mimosastraat 2-4;3551 DC;Utrecht;3551 DC Utrecht;Noordwest;2e Daalsebuurt e.o.;Zorg;Geestelijke gezondheidszorg;ggz;Geestelijke gezondheidszorg;Psychiatrische cliënten;030-2308888;;http://www.altrecht.nl;;
136905;456032;Altrecht Aventurijn, Wier, De Kei;Altrecht;Keistraat;3;;;Keistraat 3;3512 HV;Utrecht;3512 HV Utrecht;Binnenstad;Domplein, Neude, Janskerkhof;Zorg;Geestelijke gezondheidszorg;ggz;Geestelijke gezondheidszorg;Psychiatrische cliënten;030-2347333;;http://www.altrecht.nl/wier;;
135817;458618;Altrecht Centrum Psychodiagnostiek, Gezond werken;Altrecht;Kaap Hoorndreef;26;;;Kaap Hoorndreef 26;3563 AT;Utrecht;3563 AT Utrecht;Overvecht;Vechtzoom-zuid;Zorg;Geestelijke gezondheidszorg;ggz;Geestelijke gezondheidszorg;Psychiatrische cliënten;030-2308888;;http://www.altrecht.nl;;
134717;454113;Marhaban (Marokkaanse oudere vrouwen);AxionContinu;De Gasperilaan;116-118;;;De Gasperilaan 116-118;3527 GH;Utrecht;3527 GH Utrecht;Zuidwest;Kanaleneiland-noord;Zorg;Verpleging en verzorging ouderen;Advisering, dagopvang, dagbesteding, ondersteuning, ontmoeting;Verpleging en verzorging ouderen;Ouderen, mensen met geheugenproblemen, mensen met een chronische ziekte, Marokkaanse ouderen;030-2934581;servicebureau@axioncontinu.nl;http://www.axioncontinu.nl;;
138214;458096;Huisartspraktijk Voordorp;;Kartinistraat;40;;;Kartinistraat 40;3573 XC;Utrecht;3573 XC Utrecht;Noordoost;Voordorp/Voorveldsepolder;Zorg;Lichamelijke gezondheidszorg;Huisarts;Huisarts;;030-2722040;;http://www.dokterroland.nl;;
137722;457642;Huisartsenpraktijk De Gaard;;Troosterhof;15;;;Troosterhof 15;3571 NC;Utrecht;3571 NC Utrecht;Noordoost;Tuindorp-oost;Zorg;Lichamelijke gezondheidszorg;Huisarts;Huisarts;;030-2722006;;http://praktijkdegaard.praktijkinfo.nl;;http://www.toegankelijkutrecht.nl/toegankelijk/toe_view.asp?ac=info&toe_permanent_guid={6F200449-C0F8-4BF4-B0B4-7A5ACA26CB20}&lan_id=1
137026;457575;Huisartstenpraktijk Tuindorp;;Prof. Ritzema Boslaan;15;;;Prof. Ritzema Boslaan 15;3571 CL;Utrecht;3571 CL Utrecht;Noordoost;Tuindorp, Van Lieflandlaan-west;Zorg;Lichamelijke gezondheidszorg;Huisarts;Huisarts;;030-2712882;huisa057@planet.nl;http://tuindorp.praktijkinfo.nl;;http://www.toegankelijkutrecht.nl/toegankelijk/toe_view.asp?ac=info&toe_permanent_guid={8F69872F-D29C-4E97-90A6-3002E0A142AB}&lan_id=1
137481;457319;Huisartsenpraktijk Eykmanplein;;Prof. Jordanlaan;2;;;Prof. Jordanlaan 2;3571 KA;Utrecht;3571 KA Utrecht;Noordoost;Tuindorp, Van Lieflandlaan-west;Zorg;Lichamelijke gezondheidszorg;Huisarts;Huisarts;;030 2715121;assistenten@eykmanplein.nl  ;http://www.eykmanplein.nl;;http://www.toegankelijkutrecht.nl/toegankelijk/toe_view.asp?ac=info&toe_permanent_guid={99B5E35F-4ECE-44A2-B49B-E384B06D015F}&lan_id=1
137673;457078;Huisartsenpraktijk Therapeuticum Utrecht;;Dekhuyzenstraat;60;;;Dekhuyzenstraat 60;3572 WN;Utrecht;3572 WN Utrecht;Noordoost;Zeeheldenbuurt, Hengeveldstraat e.o.;Zorg;Lichamelijke gezondheidszorg;Huisarts;Huisarts;;030-2759500;info@therapeuticumutrecht.nl;http://www.therapeuticumutrecht.nl;;http://www.toegankelijkutrecht.nl/toegankelijk/toe_view.asp?ac=info&toe_permanent_guid={C6ED3C5B-5750-40B7-8E01-C7483AA9235B}&lan_id=1
136876;457253;Huisartsenpraktijk Tuinwijk;;Antonius Matthaeuslaan;1;;;Antonius Matthaeuslaan 1;3512 AN;Utrecht;3512 AN Utrecht;Noordoost;Tuinwijk-west;Zorg;Lichamelijke gezondheidszorg;Huisarts;Huisarts;;030-2734039 28;;http://hap-tuinwijk.praktijkinfo.nl;;
136837;456855;Huisartsenpraktijk Van Humboldtstraat;;Van Humboldtstraat;34;;;Van Humboldtstraat 34;3514 GP;Utrecht;3514 GP Utrecht;Noordoost;Vogelenbuurt;Zorg;Lichamelijke gezondheidszorg;Huisarts;Huisarts;;030-2714196 71;;http://vanhumboldt.praktijkinfo.nl;;
137470;456387;Huisartsenpraktijk Biltstraat;;Biltstraat;102;;;Biltstraat 102;3572 BJ;Utrecht;3572 BJ Utrecht;Noordoost;Wittevrouwen;Zorg;Lichamelijke gezondheidszorg;Huisarts;Huisarts;;030-2715739;;http://www.gezondheidscentrumwittevrouwen.nl;;http://www.toegankelijkutrecht.nl/toegankelijk/toe_view.asp?ac=info&toe_permanent_guid={8F031F4C-6DDE-41D2-93A0-5ED59976F58F}&lan_id=1
136382;454694;Huisartspraktijk De Kaap;;Da Costakade;58;;;Da Costakade 58;3521 VV;Utrecht;3521 VV Utrecht;Zuidwest;Dichterswijk;Zorg;Lichamelijke gezondheidszorg;Huisarts;Huisarts;;030-2938441;dekaap.praktijkinfo.nl;http://dekaap.praktijkinfo.nl;;http://www.toegankelijkutrecht.nl/toegankelijk/toe_view.asp?ac=info&toe_permanent_guid={B69CE3A1-7159-4169-AF01-768BBEE293D5}&lan_id=1
136283;454536;Huisartspraktijk Karaya;;Croeselaan;387;;;Croeselaan 387;3521 BX;Utrecht;3521 BX Utrecht;Zuidwest;Dichterswijk;Zorg;Lichamelijke gezondheidszorg;Huisarts;Huisarts;;030-2940177;;;;http://www.toegankelijkutrecht.nl/toegankelijk/toe_view.asp?ac=info&toe_permanent_guid={945A49FC-7961-479F-9F02-2C8648210E18}&lan_id=1
136401;454209;Huisartsenpraktijk De Greev;;Grevelingenstraat;10;;;Grevelingenstraat 10;3522 PR;Utrecht;3522 PR Utrecht;Zuidwest;Rivierenwijk;Zorg;Lichamelijke gezondheidszorg;Huisarts;Huisarts;;030-2881507;assistente@degreev.nl;http://www.degreev.nl;;http://www.toegankelijkutrecht.nl/toegankelijk/toe_view.asp?ac=info&toe_permanent_guid={F46E9ABB-6DD5-4392-B9C1-B843D717B0C8}&lan_id=1
134956;454180;Huisartsenpraktijk Kanaleneiland;;Bernadottelaan;6;A;;Bernadottelaan 6A;3527 GB;Utrecht;3527 GB Utrecht;Zuidwest;Kanaleneiland-noord;Zorg;Lichamelijke gezondheidszorg;Huisarts;Huisarts;;030-2932090;;http://www.gezondheidscentrum-kanaleneiland.nl;;http://www.toegankelijkutrecht.nl/toegankelijk/toe_view.asp?ac=info&toe_permanent_guid={6EADB0E2-04C8-4E55-905E-9366CFD07905}&lan_id=1
135078;453513;Huisartsenpraktijk Marco Polo;;Marco Pololaan;111;;;Marco Pololaan 111;3526 GB;Utrecht;3526 GB Utrecht;Zuidwest;Kanaleneiland-zuid;Zorg;Lichamelijke gezondheidszorg;Huisarts;Huisarts;;030-2883222;info@gezondheidscentrummarcopolo.nl;http://www.gezondheidscentrummarcopolo.nl;;http://www.toegankelijkutrecht.nl/toegankelijk/toe_view.asp?ac=info&toe_permanent_guid={83DDE32F-1BD3-4127-8E33-A730B578A63A}&lan_id=1
137080;453643;Huisartsenpraktijk Detmoldstraat;;Detmoldstraat;46;;;Detmoldstraat 46;3523 GD;Utrecht;3523 GD Utrecht;Zuid;Tolsteeg, Rotsoord;Zorg;Lichamelijke gezondheidszorg;Huisarts;Huisarts;;030-2890444;;http://www.praktijkdetmoldstraat.nl;;http://www.toegankelijkutrecht.nl/toegankelijk/toe_view.asp?ac=info&toe_permanent_guid={3EB095E7-5618-4865-8ED2-276841614B8E}&lan_id=1
136948;453367;Huisartsenpraktijk Gezond Hoograven;;Oud-Wulvenlaan;6;;;Oud-Wulvenlaan 6;3523 XZ;Utrecht;3523 XZ Utrecht;Zuid;Nieuw Hoograven-noord;Zorg;Lichamelijke gezondheidszorg;Huisarts;Huisarts;;030-2880292;info@gezondhoograven.nl;http://www.gezondhoograven.nl;;http://www.toegankelijkutrecht.nl/toegankelijk/toe_view.asp?ac=info&toe_permanent_guid={A5C44F46-C125-4D4C-9D57-421D564690A8}&lan_id=1
137684;452952;Huisartsen Lunetten;;Oeral;1;;;Oeral 1;3524 DS;Utrecht;3524 DS Utrecht;Zuid;Lunetten-noord;Zorg;Lichamelijke gezondheidszorg;Huisarts;Huisarts;;030-2884084;info@gezondlunetten.nl;http://www.gezondlunetten.nl;;
137883;452936;Huisartsenpraktijk Nieuwesteeg;;Hondsrug;287;;;Hondsrug 287;3524 BW;Utrecht;3524 BW Utrecht;Zuid;Lunetten-noord;Zorg;Lichamelijke gezondheidszorg;Huisarts;Huisarts;;030-2895864;;http://www.docvadis.nl/nieuwesteeg-huisarts;;http://www.toegankelijkutrecht.nl/toegankelijk/toe_view.asp?ac=info&toe_permanent_guid={A80CA605-03A2-436C-BCB8-8F9233F9F0A3}&lan_id=1
136015;459225;Huisartsenpraktijk Gagelhof;;Nigerdreef;401;;;Nigerdreef 401;3564 EG;Utrecht;3564 EG Utrecht;Overvecht;Zambesidreef e.o.;Zorg;Lichamelijke gezondheidszorg;Huisarts;Huisarts;;030-2613802;;http://gagelhof.praktijkinfo.nl;;http://www.toegankelijkutrecht.nl/toegankelijk/toe_view.asp?ac=info&toe_permanent_guid={2A8EDB26-944E-4F6A-85AF-C837B089F8EC}&lan_id=1
135595;458714;Huisartsenpraktijk Gezondheidscentrum Overvecht;;Amazonedreef;41;A;;Amazonedreef 41A;3563 CA;Utrecht;3563 CA Utrecht;Overvecht;Vechtzoom-zuid;Zorg;Lichamelijke gezondheidszorg;Huisarts;Huisarts;;030-2616072 / 030-2625350;;http://gezondheidscentrumovervecht.praktijkinfo.nl;;
135914;458835;Huisartsenpraktijk Carnegiedreef;;Carnegiedreef;18;;;Carnegiedreef 18;3563 AA;Utrecht;3563 AA Utrecht;Overvecht;Zambesidreef e.o.;Zorg;Lichamelijke gezondheidszorg;Huisarts;Huisarts;;030-2617656;;http://huisartscarnegiedreef.praktijkinfo.nl;;http://www.toegankelijkutrecht.nl/toegankelijk/toe_view.asp?ac=info&toe_permanent_guid={569BB1A3-9E31-42D1-B9CC-37D47FA84D24}&lan_id=1
136598;458920;Huisartsenpraktijk de Lichtenberch;;Lichtenberchdreef;1;;;Lichtenberchdreef 1;3562 RA;Utrecht;3562 RA Utrecht;Overvecht;Neckardreef e.o.;Zorg;Lichamelijke gezondheidszorg;Huisarts;Huisarts;;030-2627200;;http://www.lichtenberch.nl;;
136879;458571;Huisartsenpraktijk De Neckar;;Werradreef;3;;;Werradreef 3;3562 CW;Utrecht;3562 CW Utrecht;Overvecht;Neckardreef e.o.;Zorg;Lichamelijke gezondheidszorg;Huisarts;Huisarts;;030-2642630;;http://www.deneckar.nl;;http://www.toegankelijkutrecht.nl/toegankelijk/toe_view.asp?ac=info&toe_permanent_guid={3E161C92-C777-4216-AC84-91FB91D6B056}&lan_id=1
137440;458436;Huisartsenkliniek Overvecht;;Kastordreef;1;;;Kastordreef 1;3561 EJ;Utrecht;3561 EJ Utrecht;Overvecht;Donaudreef, Wolgadreef e.o.;Zorg;Lichamelijke gezondheidszorg;Huisarts;Huisarts;;030-2611126;;http://huisartsenkliniek.praktijkinfo.nl;;http://www.toegankelijkutrecht.nl/toegankelijk/toe_view.asp?ac=info&toe_permanent_guid={9A8B0443-6F5E-4AE7-8ED1-A925A8363318}&lan_id=1
131189;457104;Julius Gezondheidscentrum Terwijde;;Emile Hullebroeckstraat;60;;;Emile Hullebroeckstraat 60;3543 BZ;Utrecht;3543 BZ Utrecht;Leidsche Rijn;Terwijde-west;Zorg;Lichamelijke gezondheidszorg;Huisarts;Huisarts;;030-6866100;;http://www.lrjg.nl;;http://www.toegankelijkutrecht.nl/toegankelijk/toe_view.asp?ac=info&toe_permanent_guid={7CB5B085-25D5-4D7F-9D00-4E0044EA754E}&lan_id=1
131697;456249;Huisartsenpraktijk Gezond Leidsche Rijn;;Vogelvlinderweg;56;;;Vogelvlinderweg 56;3544 NJ;Utrecht;3544 NJ Utrecht;Leidsche Rijn;Het Zand-oost;Zorg;Lichamelijke gezondheidszorg;Huisarts;Huisarts;;030-6700979 ;info@hetzandgezond.nl;http://www.hetzandgezond.nl;;http://www.toegankelijkutrecht.nl/toegankelijk/toe_view.asp?ac=info&toe_permanent_guid={7553B87C-A8D6-4FF3-9B4A-E3ECB778DB3D}&lan_id=1
132098;455619;Julius Gezondheidscentrum Parkwijk;;Eerste Oosterparklaan;78;;;Eerste Oosterparklaan 78;3544 AK;Utrecht;3544 AK Utrecht;Leidsche Rijn;Parkwijk-zuid;Zorg;Lichamelijke gezondheidszorg;Huisarts;Huisarts;;030-6702130;;http://www.lrjg.nl;;http://www.toegankelijkutrecht.nl/toegankelijk/toe_view.asp?ac=info&toe_permanent_guid={E0EA37AA-FFD5-4B1C-841A-99488575E226}&lan_id=1
132391;457327;Huisartsenpost Leidsche Rijn;;Soestwetering;1;;;Soestwetering 1;3543 AZ;Utrecht;3543 AZ Utrecht;Leidsche Rijn;Bedrijvengebied De Wetering;Zorg;Lichamelijke gezondheidszorg;Huisarts;Huisarts;;0900-4701470;;http://www.primair-hap.nl;;
137873;454897;Huisartsenpost Stad Utrecht en Dienstapotheek Utrecht;;Fockema Andreaelaan;60;;;Fockema Andreaelaan 60;3582 KT;Utrecht;3582 KT Utrecht;Oost;Rubenslaan e.o.;Zorg;Lichamelijke gezondheidszorg;Huisarts;Huisarts;;0900-4501450;;http://www.primair-hap.nl;;
137212;456038;Huisartsenpraktijk Van den Berg;;Maliesingel;7;;;Maliesingel 7;3581 BB;Utrecht;3581 BB Utrecht;Oost;Buiten Wittevrouwen;Zorg;Lichamelijke gezondheidszorg;Huisarts;Huisarts;;030-2311052;;;;http://www.toegankelijkutrecht.nl/toegankelijk/toe_view.asp?ac=info&toe_permanent_guid={1CF3B892-4CF8-48A9-A94A-2A919E8B662A}&lan_id=1
137762;455595;Huisartsenpraktijk Aletta;;Bloemstraat;65;;;Bloemstraat 65;3581 WD;Utrecht;3581 WD Utrecht;Oost;Oudwijk;Zorg;Lichamelijke gezondheidszorg;Huisarts;Huisarts;;030-2312765;;http://aletta.praktijkinfo.nl;;http://www.toegankelijkutrecht.nl/toegankelijk/toe_view.asp?ac=info&toe_permanent_guid={7B976CD9-B5B4-4547-9E08-08EE235D961B}&lan_id=1
138237;455479;Huisartsenpraktijk Koningslaan;;Koningslaan;61;;;Koningslaan 61;3583 GN;Utrecht;3583 GN Utrecht;Oost;Wilhelminapark e.o.;Zorg;Lichamelijke gezondheidszorg;Huisarts;Huisarts;;030-2514454;assistente@koningslaan61.nl;http://www.koningslaan61.nl;;http://www.toegankelijkutrecht.nl/toegankelijk/toe_view.asp?ac=info&toe_permanent_guid={783406AE-1090-49B7-B9B6-0880F671883F}&lan_id=1
137576;455402;Praktijk Oudwijkerdwarsstraat;;Oudwijkerdwarsstraat;50;;;Oudwijkerdwarsstraat 50;3581 LG;Utrecht;3581 LG Utrecht;Oost;Oudwijk;Zorg;Lichamelijke gezondheidszorg;Huisarts;Huisarts;;030-2515645;;;;http://www.toegankelijkutrecht.nl/toegankelijk/toe_view.asp?ac=info&toe_permanent_guid={1CF3B892-4CF8-48A9-A94A-2A919E8B662A}&lan_id=1
137843;455263;Huisartsenpraktijk Homeruslaan;;Homeruslaan;66;;;Homeruslaan 66;3581 MJ;Utrecht;3581 MJ Utrecht;Oost;Oudwijk;Zorg;Lichamelijke gezondheidszorg;Huisarts;Huisarts;;030-2513007;;http://homeruslaan.praktijkinfo.nl;;
138057;454910;Huisartsenpraktijk Bosboomstraat;;Bosboomstraat;3;;;Bosboomstraat 3;3582 KE;Utrecht;3582 KE Utrecht;Oost;Rubenslaan e.o.;Zorg;Lichamelijke gezondheidszorg;Huisarts;Huisarts;;030-2519005;;http://hapbosboomstraat.praktijkinfo.nl;;http://www.toegankelijkutrecht.nl/toegankelijk/toe_view.asp?ac=info&toe_permanent_guid={FBB758A2-5B78-472F-9B90-7D107ED07572}&lan_id=1
138360;454517;Huisartsen Galgenwaard;;Herculesplein;379;;;Herculesplein 379;3584 AA;Utrecht;3584 AA Utrecht;Oost;Galgenwaard e.o.;Zorg;Lichamelijke gezondheidszorg;Huisarts;Huisarts;;030-7539461;;http://www.zorgingalgenwaard.nl;;http://www.toegankelijkutrecht.nl/toegankelijk/toe_view.asp?ac=info&toe_permanent_guid={8A46A1DA-6255-435D-A65B-055D7952E71D}&lan_id=1
136906;456543;Huisartsenpraktijk Gezondheidscentrum Binnenstad;;Van Asch van Wijckskade;28;;;Van Asch van Wijckskade 28;3512 VS;Utrecht;3512 VS Utrecht;Binnenstad;Breedstraat, Plompetorengracht e.o.;Zorg;Lichamelijke gezondheidszorg;Huisarts;Huisarts;;030-2333888 / 0900-4501450;info@gzcbinnenstad.nl;http://www.gezondheidscentrumbinnenstad.nl;;
136561;455256;Huisartsenpraktijk Mariahoek aan de singel;;Catharijnesingel;64;;;Catharijnesingel 64;3511 GK;Utrecht;3511 GK Utrecht;Binnenstad;Hooch Boulandt;Zorg;Lichamelijke gezondheidszorg;Huisarts;Huisarts;;030-2318110;info@mariahoek.nl;http://www.mariahoek.nl;;http://www.toegankelijkutrecht.nl/toegankelijk/toe_view.asp?ac=info&toe_permanent_guid={45AB56C1-E035-486B-BA3F-E56498438AA0}&lan_id=1
137238;455476;Huisartsenpraktijk Den Hertog;;Servaasbolwerk;9;;;Servaasbolwerk 9;3512 NK;Utrecht;3512 NK Utrecht;Binnenstad;Nieuwegracht-oost;Zorg;Lichamelijke gezondheidszorg;Huisarts;Huisarts;;030-2313381;;http://www.hpdenhertog.nl;;http://www.toegankelijkutrecht.nl/toegankelijk/toe_view.asp?ac=info&toe_permanent_guid={1C4D100B-0C42-4A37-B8FE-E3365BCE6583}&lan_id=1
136746;454734;Huisartsenpraktijk Catharijnesingel;;Catharijnesingel;106;;;Catharijnesingel 106;3511 GV;Utrecht;3511 GV Utrecht;Binnenstad;Bleekstraat e.o.;Zorg;Lichamelijke gezondheidszorg;Huisarts;Huisarts;;030-2316859;;http://www.praktijkcatharijnesingel.nl;;
134685;458488;Huisartsenpraktijk De Dame;;Dr. Max Euwestraat;64;;;Dr. Max Euwestraat 64;3554 EZ;Utrecht;3554 EZ Utrecht;Noordwest;Schaakbuurt e.o.;Zorg;Lichamelijke gezondheidszorg;Huisarts;Huisarts;;030-2437707;praktijk@huisartsenpraktijkdedame.nl;http://huisartsenpraktijkdedame.praktijkinfo.nl;;http://www.toegankelijkutrecht.nl/toegankelijk/toe_view.asp?ac=info&toe_permanent_guid={7A58B080-9E53-41A3-A69D-9F69021035CE}&lan_id=1
133925;458276;Huisartsen Gezondheidscentrum De Brug;;Amsterdamsestraatweg;652;;;Amsterdamsestraatweg 652;3555 HX;Utrecht;3555 HX Utrecht;Noordwest;Pr. Bernhardplein e.o., Demkagebied;Zorg;Lichamelijke gezondheidszorg;Huisarts;Huisarts;;030-2452000;;http://www.gezondheidscentrumdebrug.nl;;http://www.toegankelijkutrecht.nl/toegankelijk/toe_view.asp?ac=info&toe_permanent_guid={CB6FAB3E-50CE-4A2F-8960-9325A4059DE1}&lan_id=1
134176;458042;Huisartsenpraktijk Elinkwijk;;Amsterdamsestraatweg;554;;;Amsterdamsestraatweg 554;3553 EN;Utrecht;3553 EN Utrecht;Noordwest;Elinkwijk e.o.;Zorg;Lichamelijke gezondheidszorg;Huisarts;Huisarts;;030-2441939;;http://elinkwijk.praktijkinfo.nl;;
134995;457226;Huisartsenpraktijk De Watertoren;;Korenbloemstraat;2;A;;Korenbloemstraat 2A;3551 GN;Utrecht;3551 GN Utrecht;Noordwest;Egelantierstraat, Mariendaalstraat e.o.;Zorg;Lichamelijke gezondheidszorg;Huisarts;Huisarts;;030-2442529;info@praktijkdewatertoren.nl;http://www.praktijkdewatertoren.nl;;http://www.toegankelijkutrecht.nl/toegankelijk/toe_view.asp?ac=info&toe_permanent_guid={FC50B453-B6FF-46B9-A303-B84EDD697EC1}&lan_id=1
135545;457327;Gezondheidscentrum Ondiep Huisartsen;;Boerhaaveplein;100;;;Boerhaaveplein 100;3552 CT;Utrecht;3552 CT Utrecht;Noordwest;Ondiep;Zorg;Lichamelijke gezondheidszorg;Huisarts;Huisarts;;030-2622431;info@gezondheidscentrumondiep.nl;http://www.gezondheidscentrumondiep.nl/;;http://www.toegankelijkutrecht.nl/toegankelijk/toe_view.asp?ac=info&toe_permanent_guid={3DDC7947-7437-4C7A-9D63-CDCCA7A781C3}&lan_id=1
136193;456529;Huisartsenpraktijk Weerdsingel;;Weerdsingel W.Z.;40;;;Weerdsingel W.Z. 40;3513 BD;Utrecht;3513 BD Utrecht;Noordwest;Pijlsweerd-zuid;Zorg;Lichamelijke gezondheidszorg;Huisarts;Huisarts;;030-2313477;;http://hapweerdsingel.praktijkinfo.nl;;http://www.toegankelijkutrecht.nl/toegankelijk/toe_view.asp?ac=info&toe_permanent_guid={2E4DB96F-C7E2-460B-92F4-E4E601C36381}&lan_id=1
129587;457701;Huisartsenpraktijk Scheele;;Professor Bronkhorstlaan;5;;;Professor Bronkhorstlaan 5;3451 ER;Vleuten;3451 ER Vleuten;Vleuten - De Meern;Vleuten;Zorg;Lichamelijke gezondheidszorg;Huisarts;Huisarts;;030-6771202;;http://www.huisartsscheele.nl;;
129215;457617;Huisartsenpraktijk F. Drost;;Wetering;8;;;Wetering 8;3451 BM;Vleuten;3451 BM Vleuten;Vleuten - De Meern;Vleuten;Zorg;Lichamelijke gezondheidszorg;Huisarts;Huisarts;;030-6772300;;http://www.huisartsdrost.nl;;
129427;457288;Huisartsenpraktijk Puntenburg;;Puntenburg;1;;;Puntenburg 1;3451 CD;Vleuten;3451 CD Vleuten;Vleuten - De Meern;Vleuten;Zorg;Lichamelijke gezondheidszorg;Huisarts;Huisarts;;030-6771500;;http://www.praktijkpuntenburg.nl;;
129386;457024;Huisartsenpraktijk Van der Willigen;;Wilhelminalaan;11;A;;Wilhelminalaan 11A;3451 HJ;Vleuten;3451 HJ Vleuten;Vleuten - De Meern;Vleuterweide-noord/oost/centrum;Zorg;Lichamelijke gezondheidszorg;Huisarts;Huisarts;;030-6774531;;http://www.amvdwilligenhuisarts.nl;;
129211;456480;Huisartsenpraktijk Vleuterweide;;Utrechtse Heuvelrug;130-132;;;Utrechtse Heuvelrug 130-132;3452 JA;Vleuten;3452 JA Vleuten;Vleuten - De Meern;Vleuterweide-noord/oost/centrum;Zorg;Lichamelijke gezondheidszorg;Huisarts;Huisarts;;030-6695030;;http://www.huisartsenpraktijkvleuterweide.nl;;http://www.toegankelijkutrecht.nl/toegankelijk/toe_view.asp?ac=info&toe_permanent_guid={8D17AEE4-2180-4428-BF2E-25F2992B0E46}&lan_id=1
129285;455216;Julius Gezondheidscentrum Veldhuizen;;Molenpolder;20;;;Molenpolder 20;3453 NZ;De Meern;3453 NZ De Meern;Vleuten - De Meern;Veldhuizen;Zorg;Lichamelijke gezondheidszorg;Huisarts;Huisarts;;030-6690800;;http://www.lrjg.nl;;http://www.toegankelijkutrecht.nl/toegankelijk/toe_view.asp?ac=info&toe_permanent_guid={3154589C-89DB-4AE1-B79C-B20597BBA43E}&lan_id=1
130579;455069;Huisartsenpraktijk Marepark;;Touwslagerslaan;247;;;Touwslagerslaan 247;3454 GX;De Meern;3454 GX De Meern;Vleuten - De Meern;De Meern-zuid;Zorg;Lichamelijke gezondheidszorg;Huisarts;Huisarts;;030-6661268;;http://marepark.praktijkinfo.nl;;
130825;455091;Huisartsenpraktijk De Weerark;;Zandweg;147;;;Zandweg 147;3454 HA;De Meern;3454 HA De Meern;Vleuten - De Meern;De Meern-noord;Zorg;Lichamelijke gezondheidszorg;Huisarts;Huisarts;;030-6661239;;http://weerark.praktijkinfo.nl;;
131221;454022;Huisartsenpraktijk De Meent;;Meentweg;166;A;;Meentweg 166A;3454 AZ;De Meern;3454 AZ De Meern;Vleuten - De Meern;De Meern-zuid;Zorg;Lichamelijke gezondheidszorg;Huisarts;Huisarts;;030-6662174;;http://www.demeent.net;;
134576;456446;Huisartsenpraktijk Boutens en Panfilova;;Majellapark;34;;;Majellapark 34;3532 CT;Utrecht;3532 CT Utrecht;West;Nw Engeland, Th. à Kempisplantsoen e.o.;Zorg;Lichamelijke gezondheidszorg;Huisarts;Huisarts;;030-2931309;;;;http://www.toegankelijkutrecht.nl/toegankelijk/toe_view.asp?ac=info&toe_permanent_guid={E197626C-9BA9-4453-9868-289EC6710CF1}&lan_id=1
135124;455948;Gezondheidscentrum Lombok Huisartsen;;Jan Pieterszoon Coenhof;200;;;Jan Pieterszoon Coenhof 200;3531 HX;Utrecht;3531 HX Utrecht;West;Lombok-west;Zorg;Lichamelijke gezondheidszorg;Huisarts;Huisarts;;030-8802828;;http://www.gclombok.nl;;http://www.toegankelijkutrecht.nl/toegankelijk/toe_view.asp?ac=info&toe_permanent_guid={E21C82A6-AF28-42B3-BD71-B4107B1DCD5E}&lan_id=1
134353;455374;Huisartsen Oog in Al;;Händelstraat;55;A;;Händelstraat 55A;3533 GH;Utrecht;3533 GH Utrecht;West;Oog in Al;Zorg;Lichamelijke gezondheidszorg;Huisarts;Huisarts;;030-2988555;;;;http://www.toegankelijkutrecht.nl/toegankelijk/toe_view.asp?ac=info&toe_permanent_guid={77F1C5F2-C544-4313-9052-7700A09FD2AA}&lan_id=1
137722;457642;Apotheek De Gaard;;Troosterhof;15;;;Troosterhof 15;3571 NC;Utrecht;3571 NC Utrecht;Noordoost;Tuindorp-oost;Zorg;Lichamelijke gezondheidszorg;Apotheek;Apotheek;;030-2714005;info@apotheekdegaard.nl;http://www.apotheekdegaard.nl;;http://www.toegankelijkutrecht.nl/toegankelijk/toe_view.asp?ac=info&toe_permanent_guid={6F200449-C0F8-4BF4-B0B4-7A5ACA26CB20}&lan_id=1
136834;457117;Van den Bergh's Apotheek;;Willem van Noortstraat;170-172;;;Willem van Noortstraat 170-172;3514 GJ;Utrecht;3514 GJ Utrecht;Noordoost;Tuinwijk-oost;Zorg;Lichamelijke gezondheidszorg;Apotheek;Apotheek;;030-2719010;info@vandenberghsapotheek.nl;http://www.vandenberghsapotheek.nl;;
137469;456387;Apotheek Koert Biltstraat;Koert;Biltstraat;100;;;Biltstraat 100;3572 BJ;Utrecht;3572 BJ Utrecht;Noordoost;Wittevrouwen;Zorg;Lichamelijke gezondheidszorg;Apotheek;Apotheek;;030-2718585;info@apotheekkoert.nl;http://www.apotheekkoert.nl;;
134956;454181;Apotheek Kanaleneiland;;Bernadottelaan;6;;;Bernadottelaan 6;3527 GB;Utrecht;3527 GB Utrecht;Zuidwest;Kanaleneiland-noord;Zorg;Lichamelijke gezondheidszorg;Apotheek;Apotheek;;030-2935545;vragen@apotheekkanaleneiland.nl;http://www.apotheekkanaleneiland.nl;;
135078;453513;Apotheek Marco Polo;;Marco Pololaan;111;;;Marco Pololaan 111;3526 GB;Utrecht;3526 GB Utrecht;Zuidwest;Kanaleneiland-zuid;Zorg;Lichamelijke gezondheidszorg;Apotheek;Apotheek;;030-2883344;info@apotheekmarcopolo.nl;http://marcopolo.benuapotheek.nl;;
136347;454402;Apotheek Buijs;;Balijelaan;6-8;;;Balijelaan 6-8;3521 GR;Utrecht;3521 GR Utrecht;Zuidwest;Rivierenwijk;Zorg;Lichamelijke gezondheidszorg;Apotheek;Apotheek;;030-2881585;info@apotheekbuijs.nl;http://www.apotheekbuijs.nl/;;
136291;454099;Apotheek Pluymaekers;;Rijnlaan;90;;;Rijnlaan 90;3522 BR;Utrecht;3522 BR Utrecht;Zuidwest;Rivierenwijk;Zorg;Lichamelijke gezondheidszorg;Apotheek;Apotheek;;030-2882806;info@apotheekpluymaekers.nl;http://pluymaekers.benuapotheek.nl;;
136997;453826;Hoogravense Apotheek;;Smaragdplein;254;;;Smaragdplein 254;3523 EJ;Utrecht;3523 EJ Utrecht;Zuid;Tolsteeg, Rotsoord;Zorg;Lichamelijke gezondheidszorg;Apotheek;Apotheek;;030-2881440;;http://www.hoogravenseapotheken.nl;;http://www.toegankelijkutrecht.nl/toegankelijk/toe_view.asp?ac=info&toe_permanent_guid={DF4C601F-4BC5-44A6-9E7A-FCABC4EB8BCC}&lan_id=1
136802;453166;Apotheek 't Goy;;Oud-Wulvenplantsoen;23;;;Oud-Wulvenplantsoen 23;3523 XS;Utrecht;3523 XS Utrecht;Zuid;Nieuw Hoograven-noord;Zorg;Lichamelijke gezondheidszorg;Apotheek;Apotheek;;030-2880468;;http://www.hoogravenseapotheken.nl;;
137684;452952;Apotheek Lunetten;;Oeral;1;;;Oeral 1;3524 DS;Utrecht;3524 DS Utrecht;Zuid;Lunetten-noord;Zorg;Lichamelijke gezondheidszorg;Apotheek;Apotheek;;030-2884084;huisartsen@gezondlunetten.nl;http://www.gezondlunetten.nl/;;
136024;459212;Apotheek Medisina;;Nigerdreef;405;;;Nigerdreef 405;3564 EG;Utrecht;3564 EG Utrecht;Overvecht;Zambesidreef e.o.;Zorg;Lichamelijke gezondheidszorg;Apotheek;Apotheek;;030-2612516;team@apotheekmedisina.nl;http://www.apotheekmedisina.nl/;;
135929;458822;Mediq Apotheek Lusse;Mediq;Carnegiedreef;20;;;Carnegiedreef 20;3563 AA;Utrecht;3563 AA Utrecht;Overvecht;Zambesidreef e.o.;Zorg;Lichamelijke gezondheidszorg;Apotheek;Apotheek;;030-2617341;;http://lusse.mediq-apotheek.nl;;
136215;458283;Mediq Apotheek Overvecht;Mediq;Roelantdreef;232;;;Roelantdreef 232;3562 KH;Utrecht;3562 KH Utrecht;Overvecht;Zamenhofdreef e.o.;Zorg;Lichamelijke gezondheidszorg;Apotheek;Apotheek;;030-2611643;;http://overvecht.mediq-apotheek.nl;;
137477;458478;Mediq Apotheek Overkapel;Mediq;Wolgadreef;120;;;Wolgadreef 120;3561 CS;Utrecht;3561 CS Utrecht;Overvecht;Donaudreef, Wolgadreef e.o.;Zorg;Lichamelijke gezondheidszorg;Apotheek;Apotheek;;030-2614811;;http://overkapel.mediq-apotheek.nl;;
131197;457103;FLeiR Apotheek Terwijde;FLeiR;Emile Hullebroeckstraat;62;;;Emile Hullebroeckstraat 62;3543 BZ;Utrecht;3543 BZ Utrecht;Leidsche Rijn;Terwijde-west;Zorg;Lichamelijke gezondheidszorg;Apotheek;Apotheek;;030-6866900;apotheekterwijde@ezorg.nl;http://www.apotheekterwijde.nl;;
131691;456248;FLeiR Apotheek Het Zand;FLeiR;Vogelvlinderweg;54;;;Vogelvlinderweg 54;3544 NJ;Utrecht;3544 NJ Utrecht;Leidsche Rijn;Het Zand-oost;Zorg;Lichamelijke gezondheidszorg;Apotheek;Apotheek;;030-6664266;fleirapotheekhetzand@ezorg.nl;http://www.fleir.nl;;http://www.toegankelijkutrecht.nl/toegankelijk/toe_view.asp?ac=info&toe_permanent_guid={7553B87C-A8D6-4FF3-9B4A-E3ECB778DB3D}&lan_id=1
132060;455619;FLeiR Apotheek Parkwijk;FLeiR;Eerste Oosterparklaan;46;;;Eerste Oosterparklaan 46;3544 AK;Utrecht;3544 AK Utrecht;Leidsche Rijn;Parkwijk-zuid;Zorg;Lichamelijke gezondheidszorg;Apotheek;Apotheek;;030-6702070;apotheekparkwijk@ezorg.nl;http://www.fleir.nl;;
136298;455716;Apotheek Ziekenzorg;;Catharijnesingel;57;;;Catharijnesingel 57;3511 GE;Utrecht;3511 GE Utrecht;Binnenstad;Hoog Catharijne, NS, Jaarbeurs;Zorg;Lichamelijke gezondheidszorg;Apotheek;Apotheek;;030-2308080;apotheek.ziekenzorg@nl.boots.com;http://nl.boots.com/apotheken/boots-apotheek-ziekenzorg;;
136928;454998;Apotheek Boswijk;;Twijnstraat;28;;;Twijnstraat 28;3511 ZL;Utrecht;3511 ZL Utrecht;Binnenstad;Lange Nieuwstraat e.o.;Zorg;Lichamelijke gezondheidszorg;Apotheek;Apotheek;;030-2310506;apotheek.boswijk@planet.nl;http://boswijk.benuapotheek.nl;;http://www.toegankelijkutrecht.nl/toegankelijk/toe_view.asp?ac=info&toe_permanent_guid={7488DF49-253F-4328-A341-A1E2EA6C2398}&lan_id=1
136930;456554;Apotheek Koert Binnenstad;Koert;Van Asch van Wijckskade;30;;;Van Asch van Wijckskade 30;3512 VS;Utrecht;3512 VS Utrecht;Binnenstad;Breedstraat, Plompetorengracht e.o.;Zorg;Lichamelijke gezondheidszorg;Apotheek;Apotheek;;030-2326010;info@apotheekbinnenstad.nl;http://www.apotheekkoert.nl;;
134671;458501;Apotheek De Dame;;Dr. Max Euwestraat;62;;;Dr. Max Euwestraat 62;3554 EZ;Utrecht;3554 EZ Utrecht;Noordwest;Schaakbuurt e.o.;Zorg;Lichamelijke gezondheidszorg;Apotheek;Apotheek;;030-2444472;;http://apotheek.zuilense-ring.nl;;http://www.toegankelijkutrecht.nl/toegankelijk/toe_view.asp?ac=info&toe_permanent_guid={7A58B080-9E53-41A3-A69D-9F69021035CE}&lan_id=1
133925;458276;Zuilense Apotheek;;Amsterdamsestraatweg;652;;;Amsterdamsestraatweg 652;3555 HX;Utrecht;3555 HX Utrecht;Noordwest;Pr. Bernhardplein e.o., Demkagebied;Zorg;Lichamelijke gezondheidszorg;Apotheek;Apotheek;;030-2452008;;http://www.gezondheidscentrumdebrug.nl;;
134161;458050;Apotheek Elinkwijk;;Amsterdamsestraatweg;560;;;Amsterdamsestraatweg 560;3553 EN;Utrecht;3553 EN Utrecht;Noordwest;Elinkwijk e.o.;Zorg;Lichamelijke gezondheidszorg;Apotheek;Apotheek;;030-2441504;;http://www.apotheekelinkwijk.nl;;
134700;457959;Apotheek Sweder van Zuylen;;Sweder van Zuylenweg;89;;;Sweder van Zuylenweg 89;3553 HD;Utrecht;3553 HD Utrecht;Noordwest;Julianapark e.o.;Zorg;Lichamelijke gezondheidszorg;Apotheek;Apotheek;;030-2422226;;;;
134910;457387;Apotheek Deli-Bergema;;Amsterdamsestraatweg;373;;;Amsterdamsestraatweg 373;3551 CK;Utrecht;3551 CK Utrecht;Noordwest;Egelantierstraat, Mariendaalstraat e.o.;Zorg;Lichamelijke gezondheidszorg;Apotheek;Apotheek;;030-2441228;info@apotheekdelibergema.nl;http://www.apotheekdelibergema.nl;;
135545;457327;Apotheek Ondiep;;Boerhaaveplein;100;;;Boerhaaveplein 100;3552 CT;Utrecht;3552 CT Utrecht;Noordwest;Ondiep;Zorg;Lichamelijke gezondheidszorg;Apotheek;Apotheek;;030-2444659;;http://www.gezondheidscentrumondiep.nl;;http://www.toegankelijkutrecht.nl/toegankelijk/toe_view.asp?ac=info&toe_permanent_guid={3DDC7947-7437-4C7A-9D63-CDCCA7A781C3}&lan_id=1
135880;456430;Apotheek 't Gouden Hert;;Amsterdamsestraatweg;44;;;Amsterdamsestraatweg 44;3513 AG;Utrecht;3513 AG Utrecht;Noordwest;Pijlsweerd-zuid;Zorg;Lichamelijke gezondheidszorg;Apotheek;Apotheek;;030-2311158;Apotheekhetgoudenhert@ezorg.nl;http://www.apotheekhetgoudenhert.nl;;http://www.toegankelijkutrecht.nl/toegankelijk/toe_view.asp?ac=info&toe_permanent_guid={F08FC46B-5005-4BEF-8051-13FFFCC088AD}&lan_id=1
137750;455717;Wilhelmina apotheek;;Burgemeester Reigerstraat;47;;;Burgemeester Reigerstraat 47;3581 KL;Utrecht;3581 KL Utrecht;Oost;Oudwijk;Zorg;Lichamelijke gezondheidszorg;Apotheek;Apotheek;;030-2513712;info@wilhelminaapotheek.nl;http://www.alphega-apotheek.nl;;
138023;455046;Apotheek van Keule;;Adriaen van Ostadelaan;33;;;Adriaen van Ostadelaan 33;3583 AA;Utrecht;3583 AA Utrecht;Oost;Abstede, Tolsteegsingel e.o.;Zorg;Lichamelijke gezondheidszorg;Apotheek;Apotheek;;030-2512421;;http://www.alphega-apotheek.nl;;
137874;454890;Dienstapotheek Utrecht;;Burgemeester Fockema Andrealaan;60;;;Burgemeester Fockema Andrealaan 60;3582 KT;Utrecht;3582 KT Utrecht;Oost;Rubenslaan e.o.;Zorg;Lichamelijke gezondheidszorg;Apotheek;Apotheek;;030-2144583;info@dienstapotheekutrecht.nl;http://www.dienstapotheekutrecht.nl;;
138360;454517;Apotheek Koert Galgenwaard;Koert;Herculesplein;379;;;Herculesplein 379;3584 AA;Utrecht;3584 AA Utrecht;Oost;Galgenwaard e.o.;Zorg;Lichamelijke gezondheidszorg;Apotheek;Apotheek;;030-2736160;galgenwaard@apotheekkoert.nl;http://www.apotheekkoert.nl;;
129278;457475;Apotheek Vleuten;;Stationsstraat;13;C;;Stationsstraat 13C;3451 BV;Vleuten;3451 BV Vleuten;Vleuten - De Meern;Vleuten;Zorg;Lichamelijke gezondheidszorg;Apotheek;Apotheek;;030-6771516;info@apotheek-vleuten.nl;http://www.alphega-apotheek.nl;;
129217;456481;FLeiR Apotheek Vleuterweide;FLeiR;Utrechtse Heuvelrug;132;;;Utrechtse Heuvelrug 132;3452 JA;Vleuten;3452 JA Vleuten;Vleuten - De Meern;Vleuterweide-noord/oost/centrum;Zorg;Lichamelijke gezondheidszorg;Apotheek;Apotheek;;030-2409880;apotheekvleuterweide@ezorg.nl;http://www.kring-apotheek.nl/web/apotheek-vleuterweide;;
129285;455216;FLeiR Apotheek Veldhuizen;FLeiR;Molenpolder;26;;;Molenpolder 26;3453 NZ;De Meern;3453 NZ De Meern;Vleuten - De Meern;Veldhuizen;Zorg;Lichamelijke gezondheidszorg;Apotheek;Apotheek;;030-6629160;apotheekveldhuizen@ezorg.nl;http://www.kring-apotheek.nl/web/apotheek-veldhuizen;;
130957;455051;Mediq Apotheek De Meern;Mediq;Zandweg;135;;;Zandweg 135;3454 HA;De Meern;3454 HA De Meern;Vleuten - De Meern;De Meern-noord;Zorg;Lichamelijke gezondheidszorg;Apotheek;Apotheek;;030-6661507;demeern@mediq-apotheek.nl;http://demeern.mediq-apotheek.nl/modules/home/welkom-bij-mediq-apotheek.aspx;;
135130;455916;Lombok Apotheek;;Jan Pieterszoon Coenhof;212;;;Jan Pieterszoon Coenhof 212;3531 HX;Utrecht;3531 HX Utrecht;West;Lombok-west;Zorg;Lichamelijke gezondheidszorg;Apotheek;Apotheek;;030-8802828;;http://www.gclombok.nl;;http://www.toegankelijkutrecht.nl/toegankelijk/toe_view.asp?ac=info&toe_permanent_guid={E21C82A6-AF28-42B3-BD71-B4107B1DCD5E}&lan_id=1
134353;455374;Apotheek Oog in Al;;Händelstraat;55;;;Händelstraat 55;3533 GH;Utrecht;3533 GH Utrecht;West;Oog in Al;Zorg;Lichamelijke gezondheidszorg;Apotheek;Apotheek;;030-2988565;;http://www.apotheekooginal.nl;;http://www.toegankelijkutrecht.nl/toegankelijk/toe_view.asp?ac=info&toe_permanent_guid={77F1C5F2-C544-4313-9052-7700A09FD2AA}&lan_id=1
137026;457575;Gezondheidscentrum Tuindorp;;Prof. Ritzema Boslaan;15;;;Prof. Ritzema Boslaan 15;3571 CL;Utrecht;3571 CL Utrecht;Noordoost;Tuindorp, Van Lieflandlaan-west;Zorg;Lichamelijke gezondheidszorg;Gezondheidscentrum;Gezondheidscentrum;;030-2712882;huisa057@planet.nl;http://tuindorp.praktijkinfo.nl;;
137673;457078;Gezondheidscentrum Therapeuticum Utrecht;;Dekhuyzenstraat;60;;;Dekhuyzenstraat 60;3572 WN;Utrecht;3572 WN Utrecht;Noordoost;Zeeheldenbuurt, Hengeveldstraat e.o.;Zorg;Lichamelijke gezondheidszorg;Gezondheidscentrum;Gezondheidscentrum;;030-2759500;info@therapeuticumutrecht.nl;http://www.therapeuticumutrecht.nl;;http://www.toegankelijkutrecht.nl/toegankelijk/toe_view.asp?ac=info&toe_permanent_guid={C6ED3C5B-5750-40B7-8E01-C7483AA9235B}&lan_id=1
137470;456387;Gezondheidscentrum Wittevrouwen;;Biltstraat;102;;;Biltstraat 102;3572 BJ;Utrecht;3572 BJ Utrecht;Noordoost;Wittevrouwen;Zorg;Lichamelijke gezondheidszorg;Gezondheidscentrum;Gezondheidscentrum;;;;http://www.gezondheidscentrumwittevrouwen.nl;;
134956;454181;Gezondheidscentrum Kanaleneiland;;Bernadottelaan;6;;;Bernadottelaan 6;3527 GB;Utrecht;3527 GB Utrecht;Zuidwest;Kanaleneiland-noord;Zorg;Lichamelijke gezondheidszorg;Gezondheidscentrum;Gezondheidscentrum;;;;http://www.gezondheidscentrum-kanaleneiland.nl;;http://www.toegankelijkutrecht.nl/toegankelijk/toe_view.asp?ac=info&toe_permanent_guid={6EADB0E2-04C8-4E55-905E-9366CFD07905}&lan_id=1
135078;453513;Gezondheidscentrum Marco Polo;;Marco Pololaan;111;;;Marco Pololaan 111;3526 GB;Utrecht;3526 GB Utrecht;Zuidwest;Kanaleneiland-zuid;Zorg;Lichamelijke gezondheidszorg;Gezondheidscentrum;Gezondheidscentrum;;;info@gezondheidscentrummarcopolo.nl;http://www.gezondheidscentrummarcopolo.nl;;http://www.toegankelijkutrecht.nl/toegankelijk/toe_view.asp?ac=info&toe_permanent_guid={83DDE32F-1BD3-4127-8E33-A730B578A63A}&lan_id=1
136401;454209;Praktijkcentrum De Greev;;Grevelingenstraat;10;;;Grevelingenstraat 10;3522 PR;Utrecht;3522 PR Utrecht;Zuidwest;Rivierenwijk;Zorg;Lichamelijke gezondheidszorg;Gezondheidscentrum;Gezondheidscentrum;;030-2881507;assistente@degreev.nl;http://www.degreev.nl;;http://www.toegankelijkutrecht.nl/toegankelijk/toe_view.asp?ac=info&toe_permanent_guid={F46E9ABB-6DD5-4392-B9C1-B843D717B0C8}&lan_id=1
137080;453643;Gezondheidscentrum Detmoldstraat;;Detmoldstraat;46;;;Detmoldstraat 46;3523 GD;Utrecht;3523 GD Utrecht;Zuid;Tolsteeg, Rotsoord;Zorg;Lichamelijke gezondheidszorg;Gezondheidscentrum;Gezondheidscentrum;;030-2890444;;http://www.praktijkdetmoldstraat.nl;;http://www.toegankelijkutrecht.nl/toegankelijk/toe_view.asp?ac=info&toe_permanent_guid={3EB095E7-5618-4865-8ED2-276841614B8E}&lan_id=1
136948;453367;Gezondheidscentrum Hoograven;;Oud-Wulvenlaan;6;;;Oud-Wulvenlaan 6;3523 XC;Utrecht;3523 XC Utrecht;Zuid;Nieuw Hoograven-noord;Zorg;Lichamelijke gezondheidszorg;Gezondheidscentrum;Gezondheidscentrum;;030-2880292;info@gezondhoograven.nl;http://www.gezondhoograven.nl;;http://www.toegankelijkutrecht.nl/toegankelijk/toe_view.asp?ac=info&toe_permanent_guid={A5C44F46-C125-4D4C-9D57-421D564690A8}&lan_id=1
137684;452952;Wijkgezondheidscentrum Lunetten;;Oeral;1;;;Oeral 1;3524 DS;Utrecht;3524 DS Utrecht;Zuid;Lunetten-noord;Zorg;Lichamelijke gezondheidszorg;Gezondheidscentrum;Gezondheidscentrum;;030-2884084;info@gezondlunetten.nl;http://www.gezondlunetten.nl;;
136015;459225;Gezondheidscentrum Gagelhof;;Nigerdreef;401;;;Nigerdreef 401;3564 EG;Utrecht;3564 EG Utrecht;Overvecht;Zambesidreef e.o.;Zorg;Lichamelijke gezondheidszorg;Gezondheidscentrum;Gezondheidscentrum;;030-2613802;;http://gagelhof.praktijkinfo.nl;;http://www.toegankelijkutrecht.nl/toegankelijk/toe_view.asp?ac=info&toe_permanent_guid={2A8EDB26-944E-4F6A-85AF-C837B089F8EC}&lan_id=1
135914;458835;Eerstelijns Centrum Carnegiedreef;;Carnegiedreef;18;;;Carnegiedreef 18;3563 AA;Utrecht;3563 AA Utrecht;Overvecht;Zambesidreef e.o.;Zorg;Lichamelijke gezondheidszorg;Gezondheidscentrum;Gezondheidscentrum;;;;http://huisartscarnegiedreef.praktijkinfo.nl;;http://www.toegankelijkutrecht.nl/toegankelijk/toe_view.asp?ac=info&toe_permanent_guid={569BB1A3-9E31-42D1-B9CC-37D47FA84D24}&lan_id=1
135595;458714;Gezondheidscentrum Overvecht;;Amazonedreef;41;A;;Amazonedreef 41A;3563 CA;Utrecht;3563 CA Utrecht;Overvecht;Vechtzoom-zuid;Zorg;Lichamelijke gezondheidszorg;Gezondheidscentrum;Gezondheidscentrum;;;;http://gezondheidscentrumovervecht.praktijkinfo.nl;;http://www.toegankelijkutrecht.nl/toegankelijk/toe_view.asp?ac=info&toe_permanent_guid={CB778EBE-2A79-47D0-BB9C-EDC7FF2BED13}&lan_id=1
136879;458571;Gezondheidscentrum De Neckar;;Werradreef;3;;;Werradreef 3;3562 CW;Utrecht;3562 CW Utrecht;Overvecht;Neckardreef e.o.;Zorg;Lichamelijke gezondheidszorg;Gezondheidscentrum;Gezondheidscentrum;;;;http://www.deneckar.nl;;http://www.toegankelijkutrecht.nl/toegankelijk/toe_view.asp?ac=info&toe_permanent_guid={3E161C92-C777-4216-AC84-91FB91D6B056}&lan_id=1
131189;457104;Julius Gezondheidscentrum Terwijde;;Emile Hullebroeckstraat;60;;;Emile Hullebroeckstraat 60;3543 BZ;Utrecht;3543 BZ Utrecht;Leidsche Rijn;Terwijde-west;Zorg;Lichamelijke gezondheidszorg;Gezondheidscentrum;Gezondheidscentrum;;030-6866100;;http://www.lrjg.nl;;http://www.toegankelijkutrecht.nl/toegankelijk/toe_view.asp?ac=info&toe_permanent_guid={7CB5B085-25D5-4D7F-9D00-4E0044EA754E}&lan_id=1
132098;455619;Julius Gezondheidscentrum Parkwijk;;Eerste Oosterparklaan;78;;;Eerste Oosterparklaan 78;3544 AK;Utrecht;3544 AK Utrecht;Leidsche Rijn;Parkwijk-zuid;Zorg;Lichamelijke gezondheidszorg;Gezondheidscentrum;Gezondheidscentrum;;030-6702130;;http://www.lrjg.nl;;http://www.toegankelijkutrecht.nl/toegankelijk/toe_view.asp?ac=info&toe_permanent_guid={E0EA37AA-FFD5-4B1C-841A-99488575E226}&lan_id=1
131697;456249;Gezondheidscentrum Het Zand;;Vogelvlinderweg;56;;;Vogelvlinderweg 56;3544 NJ;Utrecht;3544 NJ Utrecht;Leidsche Rijn;Het Zand-oost;Zorg;Lichamelijke gezondheidszorg;Gezondheidscentrum;Gezondheidscentrum;;030-6700979 ;info@hetzandgezond.nl;http://www.hetzandgezond.nl;;http://www.toegankelijkutrecht.nl/toegankelijk/toe_view.asp?ac=info&toe_permanent_guid={7553B87C-A8D6-4FF3-9B4A-E3ECB778DB3D}&lan_id=1
136906;456543;Gezondheidscentrum Binnenstad;;Van Asch van Wijckskade;28;;;Van Asch van Wijckskade 28;3512 VS;Utrecht;3512 VS Utrecht;Binnenstad;Breedstraat, Plompetorengracht e.o.;Zorg;Lichamelijke gezondheidszorg;Gezondheidscentrum;Gezondheidscentrum;;;info@gzcbinnenstad.nl;http://www.gezondheidscentrumbinnenstad.nl;;
133925;458276;Gezondheidscentrum De Brug;;Amsterdamsestraatweg;652;;;Amsterdamsestraatweg 652;3555 HX;Utrecht;3555 HX Utrecht;Noordwest;Pr. Bernhardplein e.o., Demkagebied;Zorg;Lichamelijke gezondheidszorg;Gezondheidscentrum;Gezondheidscentrum;;030-2452000;;http://www.gezondheidscentrumdebrug.nl;;http://www.toegankelijkutrecht.nl/toegankelijk/toe_view.asp?ac=info&toe_permanent_guid={CB6FAB3E-50CE-4A2F-8960-9325A4059DE1}&lan_id=1
135545;457327;Gezondheidscentrum Ondiep;;Boerhaaveplein;100;;;Boerhaaveplein 100;3552 CT;Utrecht;3552 CT Utrecht;Noordwest;Ondiep;Zorg;Lichamelijke gezondheidszorg;Gezondheidscentrum;Gezondheidscentrum;;;info@gezondheidscentrumondiep.nl;http://www.gezondheidscentrumondiep.nl;;http://www.toegankelijkutrecht.nl/toegankelijk/toe_view.asp?ac=info&toe_permanent_guid={3DDC7947-7437-4C7A-9D63-CDCCA7A781C3}&lan_id=1
137762;455595;Gezondheidscentrum Utrecht Oost;;Bloemstraat;65;;;Bloemstraat 65;3581 WD;Utrecht;3581 WD Utrecht;Oost;Oudwijk;Zorg;Lichamelijke gezondheidszorg;Gezondheidscentrum;Gezondheidscentrum;;;;http://www.gcutrechtoost.nl;;
138360;454517;Gezondheidscentrum Galgenwaard;;Herculesplein;379;;;Herculesplein 379;3584 AA;Utrecht;3584 AA Utrecht;Oost;Galgenwaard e.o.;Zorg;Lichamelijke gezondheidszorg;Gezondheidscentrum;Gezondheidscentrum;;030-7539461;;http://www.zorgingalgenwaard.nl;;http://www.toegankelijkutrecht.nl/toegankelijk/toe_view.asp?ac=info&toe_permanent_guid={8A46A1DA-6255-435D-A65B-055D7952E71D}&lan_id=1
138237;455479;Gezondheidscentrum Koningslaan;;Koningslaan;61;;;Koningslaan 61;3583 GN;Utrecht;3583 GN Utrecht;Oost;Wilhelminapark e.o.;Zorg;Lichamelijke gezondheidszorg;Gezondheidscentrum;Gezondheidscentrum;;;assistente@koningslaan61.nl;http://www.koningslaan61.nl;;http://www.toegankelijkutrecht.nl/toegankelijk/toe_view.asp?ac=info&toe_permanent_guid={783406AE-1090-49B7-B9B6-0880F671883F}&lan_id=1
129211;456480;Julius Gezondheidscentrum Vleuterweide;;Utrechtse Heuvelrug;130;;;Utrechtse Heuvelrug 130;3452 JA;Vleuten;3452 JA Vleuten;Vleuten - De Meern;Vleuterweide-noord/oost/centrum;Zorg;Lichamelijke gezondheidszorg;Gezondheidscentrum;Gezondheidscentrum;;030-6582140;;http://www.lrjg.nl;;http://www.toegankelijkutrecht.nl/toegankelijk/toe_view.asp?ac=info&toe_permanent_guid={8D17AEE4-2180-4428-BF2E-25F2992B0E46}&lan_id=1
129401;456169;Zorgpoort Leidsche Rijn;;Middenburcht;116;;;Middenburcht 116;3452 MT;Vleuten;3452 MT Vleuten;Vleuten - De Meern;Vleuterweide-noord/oost/centrum;Zorg;Lichamelijke gezondheidszorg;Gezondheidscentrum;Gezondheidscentrum;;030-6668408;;http://www.zuwehofpoort.nl/patienten/zorgpoort-leidsche-rijn;;
129285;455216;Julius Gezondheidscentrum Veldhuizen;;Molenpolder;20;;;Molenpolder 20;3453 NZ;De Meern;3453 NZ De Meern;Vleuten - De Meern;Veldhuizen;Zorg;Lichamelijke gezondheidszorg;Gezondheidscentrum;Gezondheidscentrum;;030-6690800;;http://www.lrjg.nl;;http://www.toegankelijkutrecht.nl/toegankelijk/toe_view.asp?ac=info&toe_permanent_guid={3154589C-89DB-4AE1-B79C-B20597BBA43E}&lan_id=1
130825;455091;Weerark;;Zandweg;147;;;Zandweg 147;3454 HA;De Meern;3454 HA De Meern;Vleuten - De Meern;De Meern-noord;Zorg;Lichamelijke gezondheidszorg;Gezondheidscentrum;Gezondheidscentrum;;;;http://weerark.praktijkinfo.nl;;
135124;455948;Gezondheidscentrum Lombok;;Jan Pieterszoon Coenhof;200;;;Jan Pieterszoon Coenhof 200;3531 HX;Utrecht;3531 HX Utrecht;West;Lombok-west;Zorg;Lichamelijke gezondheidszorg;Gezondheidscentrum;Gezondheidscentrum;;;;http://www.gclombok.nl;;http://www.toegankelijkutrecht.nl/toegankelijk/toe_view.asp?ac=info&toe_permanent_guid={E21C82A6-AF28-42B3-BD71-B4107B1DCD5E}&lan_id=1
134353;455374;Gezondheidscentrum Oog in Al;;Händelstraat;55;A-C;;Händelstraat 55A-C;3533 GH;Utrecht;3533 GH Utrecht;West;Oog in Al;Zorg;Lichamelijke gezondheidszorg;Gezondheidscentrum;Gezondheidscentrum;;;;http://www.gzcooginal.nl;;http://www.toegankelijkutrecht.nl/toegankelijk/toe_view.asp?ac=info&toe_permanent_guid={40D77257-BE6C-4EF4-BCEA-849676641661}&lan_id=1
132391;457327;St. Antoniusziekenhuis;;Soestwetering;1;;;Soestwetering 1;3543 AZ;Utrecht;3543 AZ Utrecht;Leidsche Rijn;Bedrijvengebied De Wetering;Zorg;Lichamelijke gezondheidszorg;Ziekenhuis;Ziekenhuis;;088-3203000;;http://www.antoniusziekenhuis.nl;;
136881;458539;St. Antoniusziekenhuis, Polikliniek Overvecht;;Neckardreef;6;;;Neckardreef 6;3562 CN;Utrecht;3562 CN Utrecht;Overvecht;Neckardreef e.o.;Zorg;Lichamelijke gezondheidszorg;Ziekenhuis;Ziekenhuis;;088-3203007;;http://www.antoniusziekenhuis.nl;;
129767;455000;St. Antoniusziekenhuis, Spatadercentrum De Meern;;Van Lawick van Pabstlaan;12;;;Van Lawick van Pabstlaan 12;3453 RB;De Meern;3453 RB De Meern;Vleuten - De Meern;Veldhuizen;Zorg;Lichamelijke gezondheidszorg;Ziekenhuis;Ziekenhuis;;088-3203550;;http://www.antoniusziekenhuis.nl;;
140771;455327;UMC Utrecht;UMC Utrecht;Heidelberglaan;100;;;Heidelberglaan 100;3584 CX;Utrecht;3584 CX Utrecht;Oost;De Uithof;Zorg;Lichamelijke gezondheidszorg;Ziekenhuis;Ziekenhuis;;088-7555555;;http://www.umcutrecht.nl;;
140870;455759;Wilhelmina Kinderziekenhuis;UMC Utrecht;Lundlaan;6;;;Lundlaan 6;3584 EA;Utrecht;3584 EA Utrecht;Oost;De Uithof;Zorg;Lichamelijke gezondheidszorg;Ziekenhuis;Ziekenhuis;;088-7555555;;http://www.umcutrecht.nl;;
137936;454839;Diakonessenhuis;;Bosboomstraat;1;;;Bosboomstraat 1;3582 KT;Utrecht;3582 KT Utrecht;Oost;Rubenslaan e.o.;Zorg;Lichamelijke gezondheidszorg;Ziekenhuis;Ziekenhuis;;088-2505000;info@diakhuis.nl;http://www.diakonessenhuis.nl;;
129401;456169;Zorgpoort Leidsche Rijn;;Middenburcht;116;;;Middenburcht 116;3452 MT;Vleuten;3452 MT Vleuten;Vleuten - De Meern;Vleuterweide-noord/oost/centrum;Zorg;Lichamelijke gezondheidszorg;Ziekenhuis;Ziekenhuis;;030-6668408;receptie@zuwehofpoort.nl;http://www.zuwehofpoort.nl;;
131568;456416;Zuwe Hofpoort Ziekenhuis | Polikliniek Leidsche Rijn;;t Zand;19;;;t Zand 19;3544 NC;Utrecht;3544 NC Utrecht;Leidsche Rijn;Het Zand-west;Zorg;Lichamelijke gezondheidszorg;Ziekenhuis;Ziekenhuis;;0348-427880;receptie@zuwehofpoort.nl;http://www.zuwehofpoort.nl;;
135597;458692;Centrum voor Jeugd en Gezin Overvecht;Centrum voor Jeugd en Gezin (CJG);Amazonedreef;43;;;Amazonedreef 43;3563 CA;Utrecht;3563 CA Utrecht;Overvecht;Vechtzoom-zuid;Zorg;Lichamelijke gezondheidszorg;CJG, Consultatiebureau, JGZ, Jeugdgezondheidszorg;Centrum voor Jeugd en Gezin;Kinderen van 0 to 18 jaar. Voor de wijken Overvecht, Overvecht Zuid.;030-2616072;;http://www.jeugdengezinutrecht.nl;;http://www.toegankelijkutrecht.nl/toegankelijk/toe_view.asp?ac=info&toe_permanent_guid={39C0789F-3164-4460-A032-2F762E457AE7}&lan_id=1
135159;457932;Centrum voor Jeugd en Gezin Geuzenveste;Centrum voor Jeugd en Gezin (CJG);Van Hoornekade;25;;;Van Hoornekade 25;3554 AR;Utrecht;3554 AR Utrecht;Noordwest;Geuzenwijk, De Driehoek;Zorg;Lichamelijke gezondheidszorg;CJG, Consultatiebureau, JGZ, Jeugdgezondheidszorg;Centrum voor Jeugd en Gezin;Kinderen van 0 to 18 jaar. Voor de wijken Zuilen, Ondiep, Pijlsweerd.;030-2863300;;http://www.jeugdengezinutrecht.nl;;
137881;455596;Centrum voor Jeugd en Gezin Baanstraat;Centrum voor Jeugd en Gezin (CJG);Baanstraat;10;;;Baanstraat 10;3581 VV;Utrecht;3581 VV Utrecht;Oost;Oudwijk;Zorg;Lichamelijke gezondheidszorg;CJG, Consultatiebureau, JGZ, Jeugdgezondheidszorg;Centrum voor Jeugd en Gezin;Kinderen van 0 to 18 jaar. Voor de wijken Oudwijk, Wilhelminapark, Sterrenwijk, Watervogelenbuurt, Rijnsweerd, Zuidelijke Binnenstad.;030-2863575;;http://www.jeugdengezinutrecht.nl;;
134936;453788;Centrum voor Jeugd en Gezin Marco Pololaan;Centrum voor Jeugd en Gezin (CJG);Marco Pololaan;8;;;Marco Pololaan 8;3526 GJ;Utrecht;3526 GJ Utrecht;Zuidwest;Kanaleneiland-zuid;Zorg;Lichamelijke gezondheidszorg;JGZ, Jeugdgezondheidszorg;Centrum voor Jeugd en Gezin;Kinderen van 4 to 18 jaar;030-2863300;;http://www.jeugdengezinutrecht.nl;;http://www.toegankelijkutrecht.nl/toegankelijk/toe_view.asp?ac=info&toe_permanent_guid={83DDE32F-1BD3-4127-8E33-A730B578A63A}&lan_id=1
136688;453092;Centrum voor Jeugd en Gezin De Gravin;Centrum voor Jeugd en Gezin (CJG);t Goylaan;75;;;t Goylaan 75;3525 AA;Utrecht;3525 AA Utrecht;Zuid;Nieuw Hoograven-zuid;Zorg;Lichamelijke gezondheidszorg;CJG, Consultatiebureau, JGZ, Jeugdgezondheidszorg;Centrum voor Jeugd en Gezin;Kinderen van 0 to 18 jaar. Voor de wijken Tolsteeg, Hoograven, Rivierenwijk, Dichterswijk, Lunetten.;030-2863300;;http://www.jeugdengezinutrecht.nl;;
135124;455948;Centrum voor Jeugd en Gezin Coenhof (Hart van Lombok);Centrum voor Jeugd en Gezin (CJG);Jan Pieterszoon Coenhof;216;;;Jan Pieterszoon Coenhof 216;3531 HX;Utrecht;3531 HX Utrecht;West;Lombok-west;Zorg;Lichamelijke gezondheidszorg;CJG, Consultatiebureau, JGZ, Jeugdgezondheidszorg;Centrum voor Jeugd en Gezin;Kinderen van 0 to 18 jaar. Voor de wijken Lombok, Oog in Al, Welgelegen.;030-2863300;;http://www.jeugdengezinutrecht.nl;;
131706;456247;Centrum voor Jeugd en Gezin Het Zand;Centrum voor Jeugd en Gezin (CJG);Vogelvlinderweg;58;;;Vogelvlinderweg 58;3544 NJ;Utrecht;3544 NJ Utrecht;Leidsche Rijn;Het Zand-oost;Zorg;Lichamelijke gezondheidszorg;CJG, Consultatiebureau, JGZ, Jeugdgezondheidszorg;Centrum voor Jeugd en Gezin;Kinderen van 0 to 18 jaar. Voor de wijken Langerak, Parkwijk, Het Zand, Terwijde in Leidsche Rijn, De Meern.;030-2863300;;http://www.jeugdengezinutrecht.nl;;http://www.toegankelijkutrecht.nl/toegankelijk/toe_view.asp?ac=info&toe_permanent_guid={7553B87C-A8D6-4FF3-9B4A-E3ECB778DB3D}&lan_id=1
129211;456481;Centrum voor Jeugd en Gezin Vleuterweide;Centrum voor Jeugd en Gezin (CJG);Utrechtse Heuvelrug;130-132;;;Utrechtse Heuvelrug 130-132;3452 JA;Vleuten;3452 JA Vleuten;Vleuten - De Meern;Vleuterweide-noord/oost/centrum;Zorg;Lichamelijke gezondheidszorg;CJG, Consultatiebureau, JGZ, Jeugdgezondheidszorg;Centrum voor Jeugd en Gezin;Kinderen van 0 to 18 jaar. Voor de wijk Vleuten.;030-2863300;;http://www.jeugdengezinutrecht.nl;;
135790;456920;Buurtteam Ondiep - Pijlsweerd;;Balkstraat;31;;;Balkstraat 31;3513 XL;Utrecht;3513 XL Utrecht;Noordwest;Ondiep;Zorg;Buurtteam;Informatie, ondersteuning, advisering, activering;Buurtteam;Iedereen die woont in de buurten Pijlsweerd, Nijenoord en omgeving, Ondiep, 2e Daalsebuurt en Egelantierstraat en omgeving;030-7210505;ondieppijlsweerd@buurtteamsutrecht.nl;http://www.buurtteamsutrecht.nl/buurtteam-ondiep-pijlsweerd;http://www.buurtteamsutrecht.nl;
134422;458024;Buurtteam Zuilen;;Sint Ludgerusstraat;251;;;Sint Ludgerusstraat 251;3553 CX;Utrecht;3553 CX Utrecht;Noordwest;Elinkwijk e.o.;Zorg;Buurtteam;Informatie, ondersteuning, advisering, activering;Buurtteam;Iedereen die woont in de buurten Julianapark en omgeving, Elinkwijk en omgeving, Prins Bernhardplein en omgeving, Geuzenwijk, Schaakbuurt en omgeving, Queeckhovenplein en omgeving en Zuilen-noord;030-7210525;zuilen@buurtteamsutrecht.nl;http://www.buurtteamsutrecht.nl/buurtteam-zuilen;http://www.buurtteamsutrecht.nl;
136408;458095;Buurtteam Overvecht Spoorzoom (in Buurthuis De Bram);;Rhonedreef;40;;;Rhonedreef 40;3561 VA;Utrecht;3561 VA Utrecht;Overvecht;Taagdreef, Rubicondreef e.o.;Zorg;Buurtteam;Informatie, ondersteuning, advisering, activering;Buurtteam;Iedereen die woont in de buurten Taagdreef en omgeving en Donaudreef en omgeving;030-7210565;overvechtspoorzoom@buurtteamsutrecht.nl;http://www.buurtteamsutrecht.nl/buurtteam-overvecht-spoorzoom;http://www.buurtteamsutrecht.nl;
135877;459235;Buurtteam Overvecht De Gagel (in Buurthuis De Boog);;Gambiadreef;60;;;Gambiadreef 60;3564 ES;Utrecht;3564 ES Utrecht;Overvecht;Zambesidreef e.o.;Zorg;Buurtteam;Informatie, ondersteuning, advisering, activering;Buurtteam;Iedereen die woont in de buurten Zambesidreef en omgeving, Tigrisdreef en omgeving en het Poldergebied Overvecht;030-7210515;overvechtdegagel@buurtteamsutrecht.nl;http://www.buurtteamsutrecht.nl/buurtteam-overvecht-de-gagel;http://www.buurtteamsutrecht.nl;
136046;458588;Buurtteam Overvecht Centrum;;Gloriantdreef;25;;;Gloriantdreef 25;3562 KW;Utrecht;3562 KW Utrecht;Overvecht;Zamenhofdreef e.o.;Zorg;Buurtteam;Informatie, ondersteuning, advisering, activering;Buurtteam;Iedereen die woont in de buurten Zamenhofdreef en omgeving, en Neckardreef en omgeving;030-7400505;overvechtcentrum@buurtteamsutrecht.nl;http://www.buurtteamsutrecht.nl/buurtteam-overvecht-centrum;http://www.buurtteamsutrecht.nl;
135777;458584;Buurtteam Overvecht Vechtzoom;;Kaap Hoorndreef;38-50;;;Kaap Hoorndreef 38-50;3563 AV;Utrecht;3563 AV Utrecht;Overvecht;Vechtzoom-zuid;Zorg;Buurtteam;Informatie, ondersteuning, advisering, activering;Buurtteam;Iedereen die woont in de buurten Vechtzoom en Klopvaart;030-7400507;overvechtvechtzoom@buurtteamsutrecht;http://www.buurtteamsutrecht.nl/buurtteam-overvecht-vechtzoom;http://www.buurtteamsutrecht.nl;
132302;455578;Buurtteam Leidsche Rijn;;Ab Harrewijnstraat;17;;;Ab Harrewijnstraat 17;3544 AL;Utrecht;3544 AL Utrecht;Leidsche Rijn;Parkwijk-zuid;Zorg;Buurtteam;Informatie, ondersteuning, advisering, activering;Buurtteam;Iedereen die woont in de buurten Terwijde, De Wetering, Het Zand, Leidsche Rijn Centrum, Grauwaart, Hoge Weide, Leeuwesteyn, Parkwijk, Langerak en Rijnvliet;030-6703965;leidscherijn@buurtteamsutrecht.nl;http://www.buurtteamsutrecht.nl/buurtteam-leidsche-rijn;http://www.buurtteamsutrecht.nl;
134969;453690;Buurtteam Kanaleneiland Noord;;Marco Pololaan;71;;;Marco Pololaan 71;3526 GA;Utrecht;3526 GA Utrecht;Zuidwest;Kanaleneiland-zuid;Zorg;Buurtteam;Informatie, ondersteuning, advisering, activering;Buurtteam;Iedereen die woont in Kanaleneiland Noord;030-7400514;kanaleneilandnoord@buurtteamsutrecht.nl;http://www.buurtteamsutrecht.nl/buurtteam-kanaleiland-noord;http://www.buurtteamsutrecht.nl;
135005;455809;Buurtteam West;;Malakkastraat;6;;;Malakkastraat 6;3513 XL;Utrecht;3513 XL Utrecht;West;Lombok-west;Zorg;Buurtteam;Informatie, ondersteuning, advisering, activering;Buurtteam;Iedereen die woont in de buurten Lombok, Schepenbuurt, Oog in Al, Nieuw Engeland, Welgelegen en Leidseweg en omgeving;030-7400501;west@buurtteamsutrecht.nl;http://www.buurtteamsutrecht.nl/buurtteam-west;http://www.buurtteamsutrecht.nl;
136446;457384;Buurtteam Noordoost;;Samuel van Houtenstraat;1;;;Samuel van Houtenstraat 1;3515 EA;Utrecht;3515 EA Utrecht;Noordoost;Staatsliedenbuurt;Zorg;Buurtteam;Informatie, ondersteuning, advisering, activering;Buurtteam;Iedereen die woont in de buurten Votulast, Vogelenbuurt, Lauwerecht, Staatsliedenbuurt, Tuinwijk, Tuindorp, Wittevrouwen, Zeeheldenbuurt en Voordorp;030-7400508;noordoost@buurtteamsutrecht.nl;http://www.buurtteamsutrecht.nl/buurtteam-noordoost;http://www.buurtteamsutrecht.nl;
137754;455292;Buurtteam Oost;;Homeruslaan;59;A;;Homeruslaan 59A;3581 MD;Utrecht;3581 MD Utrecht;Oost;Oudwijk;Zorg;Buurtteam;Informatie, ondersteuning, advisering, activering;Buurtteam;Iedereen die woont in de buurten Buiten Wittevrouwen, Oudwijk, Abstede, Schildersbuurt, Rubenslaan en omgeving, Maarschalkerweerd, Mereveld, Galgenwaard en omgeving, Wilhelminapark en omgeving, Rijnsweerd en De Uithof;030-7400509;oost@buurtteamsutrecht.nl;http://www.buurtteamsutrecht.nl/buurtteam-oost;http://www.buurtteamsutrecht.nl;
136927;456147;Buurtteam Binnenstad;;Nobelstraat;2;A;;Nobelstraat 2A;3512 EN;Utrecht;3512 EN Utrecht;Binnenstad;Nobelstraat e.o.;Zorg;Buurtteam;Informatie, ondersteuning, advisering, activering;Buurtteam;Iedereen die woont in de buurten Wijk C, Breedstraat, Plompetorengracht en omgeving, Nobelstraat, Neude, Mariaplaats en omgeving, Lange Elisabethstraat, Domplein, Janskerkhof, Hoog Catharijne, Jaarbeurs, Springweg en omgeving, Geertebuurt, Lange Nieuwstraat en omgeving, Bleekstraat en omgeving en Hoogh Boulandt.;030-7400510;binnenstad@buurtteamsutrecht.nl;http://www.buurtteamsutrecht.nl/buurtteam-binnenstad;http://www.buurtteamsutrecht.nl;
137750;452917;Buurtteam Lunetten;;Hondsrug;17;;;Hondsrug 17;3524 BP;Utrecht;3524 BP Utrecht;Zuid;Lunetten-noord;Zorg;Buurtteam;Informatie, ondersteuning, advisering, activering;Buurtteam;Iedereen die woont in Lunetten;030-7400511;lunetten@buurtteamsutrecht.nl;http://www.buurtteamsutrecht.nl/buurtteam-lunetten;http://www.buurtteamsutrecht.nl;
136724;453092;Buurtteam Hoograven/Tolsteeg;;Goylaan;77;;;Goylaan 77;3525 AA;Utrecht;3525 AA Utrecht;Zuid;Nieuw Hoograven-zuid;Zorg;Buurtteam;Informatie, ondersteuning, advisering, activering;Buurtteam;Iedereen die woont in Hoograven/Tolsteeg;030-7400512;hoograventolsteeg@buurtteamsutrecht.nl;http://www.buurtteamsutrecht.nl/buurtteam-hoograventolsteeg;http://www.buurtteamsutrecht.nl;
136357;454256;Buurtteam Dichters- en Rivierenwijk;;Noordzeestraat;20;;;Noordzeestraat 20;3522 PK;Utrecht;3522 PK Utrecht;Zuidwest;Rivierenwijk;Zorg;Buurtteam;Informatie, ondersteuning, advisering, activering;Buurtteam;Iedereen die woont in Dichters- en Rivierenwijk;030-7400513;dichtersenrivierenwijk@buurtteamsutrecht.;http://www.buurtteamsutrecht.nl/buurtteam-dichters-en-rivierenwijk;http://www.buurtteamsutrecht.nl;
129340;455275;Buurtteam De Meern;;Bovenpolder;80;;;Bovenpolder 80;3453 NP;De Meern;3453 NP De Meern;Vleuten - De Meern;Veldhuizen;Zorg;Buurtteam;Informatie, ondersteuning, advisering, activering;Buurtteam;Iedereen die woont in de buurten De Meern, Oudenrijn, Veldhuizen en Rijnenburg;030-7400516;demeern@buurtteamsutrecht.nl;http://www.buurtteamsutrecht.nl/buurtteam-de-meern;http://www.buurtteamsutrecht.nl;
129275;456259;Buurtteam Vleuten;;Burchtpoort (Cultuurcampus);16;;;Burchtpoort (Cultuurcampus) 16;3452 MD;Vleuten;3452 MD Vleuten;Vleuten - De Meern;Vleuten;Zorg;Buurtteam;Informatie, ondersteuning, advisering, activering;Buurtteam;Iedereen die woont in de buurten Vleuten, Vleuterweide, Haarzuilens en omgeving;030-7400517;vleuten@buurtteamsutrecht.nl;http://www.buurtteamsutrecht.nl/buurtteam-vleuten;http://www.buurtteamsutrecht.nl;
136623;454557;Jeugdteam MBO;;Vondellaan;174;;;Vondellaan 174;3521 GH;Utrecht;3521 GH Utrecht;Zuidwest;Rivierenwijk;Zorg;Buurtteam;Informatie, ondersteuning, advisering, activering;Buurtteam;Alle studenten van het ROC Midden Nederland, het Grafisch Lyceum Utrecht en het MBO Utrecht;06-20980706;jeugdteam.mbo@buurtteamsutrecht.nl;http://www.buurtteamsutrecht.nl/jeugdteam-mbo;http://www.buurtteamsutrecht.nl;
137096;458071;Leger des Heils Ambulante hulpverlening;Leger des Heils;Aidadreef;8;;;Aidadreef 8;3561 GE;Utrecht;3561 GE Utrecht;Overvecht;Taagdreef, Rubicondreef e.o.;Zorg;Advisering en ondersteuning;Ontmoeting, begeleiding;Advisering en ondersteuning;Multiproblem, zorgmijdend, psychiatrisch;030-2749121;middennederland@legerdesheils.nl;http://www.legerdesheils.nl/midden-nederland;;
134703;458184;Buurtsteunpunt Bij Bosshardt;Leger des Heils;Prinses Margrietstraat;22;;;Prinses Margrietstraat 22;3554 GE ;Utrecht;3554 GE  Utrecht;Noordwest;Schaakbuurt e.o.;Zorg;Advisering en ondersteuning;Ontmoeting;Advisering en ondersteuning;;030-2440676;middennederland@legerdesheils.nl;http://www.legerdesheils.nl/midden-nederland;;
134476;455794;Leger des Heils Zelfstandigheidstraining;Leger des Heils;Kanaalweg;96-98;;;Kanaalweg 96-98;3533 HH ;Utrecht;3533 HH  Utrecht;West;Oog in Al;Zorg;Maatschappelijke opvang;Activering, beschermd wonen;Maatschappelijke opvang;Jongeren en jong volwassenen;030-2840560;middennederland@legerdesheils.nl;http://www.legerdesheils.nl/midden-nederland;;
138024;455862;Leger des Heils Laagdrempelige Opvang;Leger des Heils;Oudwijkerveldstraat;120;;;Oudwijkerveldstraat 120;3581 JP;Utrecht;3581 JP Utrecht;Oost;Oudwijk;Zorg;Maatschappelijke opvang;24 uurs opvang (beschermd), activering;Maatschappelijke opvang;Daklozen;030-2513604;middennederland@legerdesheils.nl;http://www.legerdesheils.nl/midden-nederland;;
137793;452542;Leger des Heils Behandelgroepen en Gezinshuizen;Leger des Heils;Tholen;25;;;Tholen 25;3524 ZN ;Utrecht;3524 ZN  Utrecht;Zuid;Lunetten-zuid;Zorg;Maatschappelijke opvang;Activering, behandeling, crisisopvang, beschermd wonen;Maatschappelijke opvang;Jongeren en jong volwassenen, kinderen;030-2874041;middennederland@legerdesheils.nl;http://www.legerdesheils.nl/midden-nederland;;
135439;457150;Leger des Heils Sociaal Pension Adelante 1;Leger des Heils;Royaards van de Hamkade;4;;;Royaards van de Hamkade 4;3552 CM;Utrecht;3552 CM Utrecht;Noordwest;2e Daalsebuurt e.o.;Zorg;Maatschappelijke opvang;Beschermd wonen;Maatschappelijke opvang;Daklozen, psychiatrische cliënten;030-2422809;middennederland@legerdesheils.nl;http://www.legerdesheils.nl/midden-nederland;;
135675;456694;Leger des Heils Sociaal Pension Adelante 2;Leger des Heils;Harpstraat;5-13;;;Harpstraat 5-13;3513 XA ;Utrecht;3513 XA  Utrecht;Noordwest;Pijlsweerd-noord;Zorg;Maatschappelijke opvang;Beschermd wonen, activering;Maatschappelijke opvang;Daklozen, psychiatrische cliënten;030-2342126;middennederland@legerdesheils.nl;http://www.legerdesheils.nl/midden-nederland;;
137735;458373;MEE Utrecht;MEE;Pallas Athendedreef;10;;;Pallas Athendedreef 10;3561 PE;Utrecht;3561 PE Utrecht;Overvecht;Donaudreef, Wolgadreef e.o.;Zorg;Lichamelijke beperking;Activering, ontmoeting;Lichamelijke beperking;Mensen met een lichamelijke beperking of chronische ziekte;0900-6336363;info@mee-ugv.nl;http://www.mee-uvg.nl;;http://www.toegankelijkutrecht.nl/toegankelijk/toe_view.asp?ac=info&toe_permanent_guid={7D7551EC-A8B3-41AE-B9F2-AAD32BC16106}&lan_id=1
137735;458373;MEE Utrecht;MEE;Pallas Athendedreef;10;;;Pallas Athendedreef 10;3561 PE;Utrecht;3561 PE Utrecht;Overvecht;Donaudreef, Wolgadreef e.o.;Zorg;Verstandelijke beperking;Activering, ontmoeting;Verstandelijke beperking;Mensen met een lichamelijke beperking of chronische ziekte;0900-6336363;info@mee-ugv.nl;http://www.mee-uvg.nl;;http://www.toegankelijkutrecht.nl/toegankelijk/toe_view.asp?ac=info&toe_permanent_guid={7D7551EC-A8B3-41AE-B9F2-AAD32BC16106}&lan_id=1
135097;454625;De Paraplu;;Van Bijnkershoeklaan;10;;;Van Bijnkershoeklaan 10;3527 XL;Utrecht;3527 XL Utrecht;Zuidwest;Transwijk-noord;Zorg;Lichamelijke beperking;Ontmoeting;Lichamelijke beperking;Mensen met een lichamelijke beperking of chronische ziekte;030-2946384;mail@deparaplu.nl;http://www.deparaplu.nl;;
136764;457856;Bartiméus;;Christiaan Krammlaan;2;;;Christiaan Krammlaan 2;3571 AX;Utrecht;3571 AX Utrecht;Noordoost;Tuindorp, Van Lieflandlaan-west;Zorg;Lichamelijke beperking;Beschermd wonen;Lichamelijke beperking;Mensen met een lichamelijke beperking;0900-7788899 / 030-2398238;info@bartimeus.nl;http://www.bartimeus.nl;;
134509;455760;GGMD voor Doven en Slechthorenden;;Kanaalweg;93;;;Kanaalweg 93;3533 HH;Utrecht;3533 HH Utrecht;West;Oog in Al;Zorg;Geestelijke gezondheidszorg;ggz;Geestelijke gezondheidszorg;Doven en slechthorenden;0800-3374667;utrecht@ggmd.nl;http://www.ggmd.nl;;
137905;455151;Stichting De Wilg;;Mecklenburglaan;3-5;;;Mecklenburglaan 3-5;3581 NV;Utrecht;3581 NV Utrecht;Oost;Oudwijk;Zorg;Verstandelijke beperking;;Verstandelijke beperking;Mensen met een verstandelijke beperking;030-2513672;info@dewilg.nl;http://www.dewilg.nl;;
137685;456285;Wegwijs;De Tussenvoorziening;Adriaanstraat;26;AA;;Adriaanstraat 26AA;3581 SG;Utrecht;3581 SG Utrecht;Oost;Buiten Wittevrouwen;Zorg;Geestelijke gezondheidszorg;Activering, dagopvang, dagbesteding, ggz;Geestelijke gezondheidszorg;Psychiatrische cliënten, daklozen;030-2759645;medewerkerswegwijs@tussenvoorziening.nl;http://www.tussenvoorziening.nl;;
135097;454625;Boogh Afasiecentrum;;Van Bijnkershoeklaan;10;;;Van Bijnkershoeklaan 10;3527 XL;Utrecht;3527 XL Utrecht;Zuidwest;Transwijk-noord;Zorg;Lichamelijke beperking;;Lichamelijke beperking;Mensen met niet-aangeboren hersenletsel, mensen met een lichamelijke beperking;030-2946384;afasiecentrum@boogh.nl;http://www.afasiecentrum.nl/utrecht/;;
134412;459632;Saltro;;Mississippidreef;81;B;;Mississippidreef 81B;3565 CE;Utrecht;3565 CE Utrecht;Overvecht;Bedrijvengebied Overvecht;Zorg;Lichamelijke gezondheidszorg;Gezondheidscentrum (diagnostiek);Gezondheidscentrum;Trombosedienstpatiënten;030-2361136;;http://www.saltro.nl;;
135891;452919;CIZ Utrecht (aanvragen AWBZ-zorg);;Europalaan;100;;;Europalaan 100;3526 KS;Utrecht;3526 KS Utrecht;Zuidwest;Bedrijvengebied Kanaleneiland-zuid;Zorg;Advisering en ondersteuning;Advisering, ondersteuning, ontmoeting;Advisering en ondersteuning;Mensen met een lichamelijke beperking;088-7891500;info.utrecht@ciz.nl;http://www.ciz.nl;;
136764;457856;Humanitas Utrecht-Stad, Lek en Weide;;Christiaan Krammlaan;2;;;Christiaan Krammlaan 2;3571 AX;Utrecht;3571 AX Utrecht;Noordoost;Tuindorp, Van Lieflandlaan-west;Zorg;Advisering en ondersteuning;Advisering, ondersteuning, ontmoeting;Advisering en ondersteuning;;030-2524030;vhb.utrecht@humanitas.nl / sbr.utrecht@humanitas.nl;http://www.humanitas.nl;;
137735;458373;Handjehelpen;;Pallas Athendedreef;12;;;Pallas Athendedreef 12;3561 PE;Utrecht;3561 PE Utrecht;Overvecht;Donaudreef, Wolgadreef e.o.;Zorg;Advisering en ondersteuning;Advisering, ondersteuning, ontmoeting;Advisering en ondersteuning;Vrijwilligers, mensen met een beperking ;030-2632950;info@handjehelpen.nl;http://www.handjehelpen.nl;;
137680;456280;Maatjes;De Tussenvoorziening;Adriaanstraat;26;;;Adriaanstraat 26;3581 SG;Utrecht;3581 SG Utrecht;Oost;Buiten Wittevrouwen;Zorg;Advisering en ondersteuning;Advisering, ondersteuning, ontmoeting;Advisering en ondersteuning;Vrijwilligers, ex-daklozen, mensen met een psychiatrische achtergrond;030-2759640;maatjes@tussenvoorziening.nl;http://www.tussenvoorziening.nl;;
137004;458077;Zorg en Zo;;Tiberdreef;28;;;Tiberdreef 28;3561 GG;Utrecht;3561 GG Utrecht;Overvecht;Taagdreef, Rubicondreef e.o.;Zorg;Advisering en ondersteuning;Advisering, ondersteuning, ontmoeting;Advisering en ondersteuning;;030-8794879;info@zorgenzo.nl;http://www.zorgenzo.nl;;
135390;456932;Wasservice;;Amsterdamsestraatweg;237;;;Amsterdamsestraatweg 237;3551 CC;Utrecht;3551 CC Utrecht;Noordwest;2e Daalsebuurt e.o.;Zorg;Advisering en ondersteuning;Advisering, ondersteuning, ontmoeting;Advisering en ondersteuning;;06-47689413;info@wasservice.nl;http://www.wasservice.nl;;
136204;458431;Medipoint/Careyn Winkel;Careyn;Zamenhofdreef;95;;;Zamenhofdreef 95;3562 JV;Utrecht;3562 JV Utrecht;Overvecht;Zamenhofdreef e.o.;Zorg;Advisering en ondersteuning;Advisering, ondersteuning, ontmoeting;Advisering en ondersteuning;;088-0300500;;http://www.medipoint.nl;http://www.careyn.nl;
131678;458575;Harting Bank Utrecht;;Reactorweg;160;;;Reactorweg 160;3542 AD;Utrecht;3542 AD Utrecht;West;Bedrijvengebied Lage Weide;Zorg;Advisering en ondersteuning;Advisering, ondersteuning, ontmoeting;Advisering en ondersteuning;;030-2950555;hb.utrecht@harting-bank.nl;http://www.harting-bank.nl;;
136658;455278;Informatieloket senioren De Smederij;;Lange Smeestraat;40;;;Lange Smeestraat 40;3511 PZ;Utrecht;3511 PZ Utrecht;Binnenstad;Springweg e.o., Geertebuurt;Zorg;Advisering en ondersteuning;Advisering, ondersteuning, ontmoeting;Advisering en ondersteuning;Ouderen;030-2310254;;;;
135482;459546;Middelhoek Centrum voor Deeltijdzorg (Zorgcentrum Rosendael);Careyn;Indusdreef;5;;;Indusdreef 5;3564 GV;Utrecht;3564 GV Utrecht;Overvecht;Tigrisdreef e.o.;Zorg;Verpleging en verzorging ouderen;Activering, dagopvang, dagbehandeling, dagverzorging;Verpleging en verzorging ouderen;;0900-2111222 / 030-2588788;;https://www.careyn.nl/locaties/utrecht/utrecht/middelhoek-centrum-voor-deeltijdzorg/;http://www.careyn.nl;
130831;455322;Dagopvang/dagbesteding Marem Zorg (voor Hindoestaanse ouderen);;Dampkring;35;;;Dampkring 35;3454 RD;De Meern;3454 RD De Meern;Vleuten - De Meern;De Meern-noord;Zorg;Verpleging en verzorging ouderen;Activering, dagopvang, dagbesteding;Verpleging en verzorging ouderen;Ouderen;06-33689625;info@marem.nl;http://www.marem.nl;;
138064;453866;Dagcentrum Utrecht Oost (D.U.O.);DUO;Rijndijk;11;;;Rijndijk 11;3585 LG;Utrecht;3585 LG Utrecht;Oost;Maarschalkerweerd, Mereveld;Zorg;Verpleging en verzorging ouderen;Activering, dagopvang, dagbesteding;Verpleging en verzorging ouderen;Ouderen;06-19252633 / 06-30493506;info@dagcentrumutrechtoost.nl;http://www.dagcentrumutrechtoost.nl;;
136844;453581;Dagopvang/dagbesteding De Barkel - Soos;;Jan van Arkelstraat;55;;;Jan van Arkelstraat 55;3523 VE;Utrecht;3523 VE Utrecht;Zuid;Oud Hoograven-noord;Zorg;Verpleging en verzorging ouderen;Activering, dagopvang, dagbesteding;Verpleging en verzorging ouderen;Ouderen;030-2886060;;;;
135097;454625;(Multiculturele) Dagopvang/dagbesteding Karma Zorg;Karma Zorg;Van Bijnkershoeklaan;10;;;Van Bijnkershoeklaan 10;3527 XL;Utrecht;3527 XL Utrecht;Zuidwest;Transwijk-noord;Zorg;Verpleging en verzorging ouderen;Activering, dagopvang, dagbesteding;Verpleging en verzorging ouderen;Ouderen;06-21163743;info@karmazorg.nl;http://www.karmazorg.nl;;
136373;456496;Care Express Utrecht;;Nieuwekade;287;;;Nieuwekade 287;3511 RW;Utrecht;3511 RW Utrecht;Binnenstad;Wijk C;Zorg;Geestelijke gezondheidszorg;Activering, dagopvang, dagbesteding, ggz;Geestelijke gezondheidszorg;Jeugdigen van 12-25 jaar;030-3030609;utrecht@care-express.nl;http://www.care-express.nl;;
132417;456721;Zorgboerderij Den Hoet;;Dirck Hoetweg;3;;;Dirck Hoetweg 3;3541 BH;Utrecht;3541 BH Utrecht;Leidsche Rijn;Grauwaart;Zorg;Lichamelijke beperking;Activering, dagopvang, dagbesteding, revalidatie;Lichamelijke beperking;Mensen met niet-aangeboren hersenletsel, mensen met een lichamelijke beperking;030-6773898;info@zorgboerderijdenhoet.nl;http://www.zorgboerderijdenhoet.nl;;
136263;457449;Bijzonder welkom;;Oudlaan;4;;;Oudlaan 4;3525 GA;Utrecht;3525 GA Utrecht;Noordoost;Lauwerecht;Zorg;Lichamelijke beperking;Activering, dagopvang, dagbesteding, revalidatie;Lichamelijke beperking;Mensen met een lichamelijke beperking;030-2739741;;http://www.bijzonderwelkom.nl;;
133971;458223;Stichting Baantraject Care & preventie;;Amsterdamsestraatweg;634;;;Amsterdamsestraatweg 634;3555 HX;Utrecht;3555 HX Utrecht;Noordwest;Pr. Bernhardplein e.o., Demkagebied;Zorg;Geestelijke gezondheidszorg;Activering, dagopvang, dagbesteding, ggz;Geestelijke gezondheidszorg;Jongeren en jong volwassenen;030-8509561;carlos@baantraject.nl;http://www.baantrajectcare.nl;;
137811;456344;Steunpunt GGZ Utrecht;;Monseigneur van de Weteringstraat;132;A;;Monseigneur van de Weteringstraat 132A;3581 EN;Utrecht;3581 EN Utrecht;Oost;Buiten Wittevrouwen;Zorg;Geestelijke gezondheidszorg;Activering, informatie, ggz;Geestelijke gezondheidszorg;Psychiatrische cliënten;030-2369320;steunpunt@ggzutrecht.nl;http://www.ggzutrecht.nl;;
135778;458584;Indigo;;Kaap Hoorndreef;48;;;Kaap Hoorndreef 48;3563 AV;Utrecht;3563 AV Utrecht;Overvecht;Vechtzoom-zuid;Zorg;Geestelijke gezondheidszorg;Informatie, behandeling, ggz;Geestelijke gezondheidszorg;Psychiatrische cliënten;030-2308510;info@indigo.nl;http://www.indigo.nl;;
134508;455298;Alzheimer Nederland - Afdeling Stad Utrecht;;Mendelssohnstraat;30;;;Mendelssohnstraat 30;3533 XH;Utrecht;3533 XH Utrecht;West;Oog in Al;Zorg;Geestelijke gezondheidszorg;Belangenvereniging, ggz;Geestelijke gezondheidszorg;Dementerenden, mensen met geheugenproblemen;06-22511416;info@alzheimer-nederland.nl;http://www.alzheimer-nederland.nl/stadutrecht;;
136658;455278;Alzheimer Café Binnenstad Utrecht;;Lange Smeestraat;40;;;Lange Smeestraat 40;3511 PZ;Utrecht;3511 PZ Utrecht;Binnenstad;Springweg e.o., Geertebuurt;Zorg;Geestelijke gezondheidszorg;Ontmoeting, ggz;Geestelijke gezondheidszorg;Dementerenden, mensen met geheugenproblemen;06-22511416;acbinnenstad@gmail.com;http://www.alzheimer-nederland.nl/stadutrecht;;
134560;454667;Alzheimer Café Theehuis Voorhoeve;;Van Heuven Goedhartlaan;3;;;Van Heuven Goedhartlaan 3;3527 CE;Utrecht;3527 CE Utrecht;Zuidwest;Kanaleneiland-noord;Zorg;Geestelijke gezondheidszorg;Ontmoeting, ggz;Geestelijke gezondheidszorg;Dementerenden, mensen met geheugenproblemen;030-2953869 / 06-10904602;hvviegen@axioncontinu.nl;http://www.alzheimer-nederland.nl/stadutrecht;;
129239;457734;Alzheimer Café Vleuten-De Meern, Leidsche Rijn;;Dorpsplein;1;;;Dorpsplein 1;3451 BK;Vleuten;3451 BK Vleuten;Vleuten - De Meern;Vleuten;Zorg;Geestelijke gezondheidszorg;Ontmoeting, ggz;Geestelijke gezondheidszorg;Dementerenden, mensen met geheugenproblemen;030-2869370;;http://www.alzheimer-nederland.nl/stadutrecht;;
132567;456926;Ontmoetingsgroep voor mensen met geheugenproblemen - woonzorgcentrum De Ingelanden;;Louis Armstronglaan;800;;;Louis Armstronglaan 800;3543 EB;Utrecht;3543 EB Utrecht;Leidsche Rijn;Terwijde-oost;Zorg;Geestelijke gezondheidszorg;Ontmoeting, ggz;Geestelijke gezondheidszorg;Mensen met geheugenproblemen;030-6867800;;;;
132391;457327;Specialistische ouderenpsychiatrie, St. Antoniusziekenhuis/Altrecht Senior;;Soestwetering;1;;;Soestwetering 1;3543 AZ;Utrecht;3543 AZ Utrecht;Leidsche Rijn;Bedrijvengebied De Wetering;Zorg;Geestelijke gezondheidszorg;Behandeling, ggz;Geestelijke gezondheidszorg;Psychiatrische cliënten, ouderen;030-2297600;geheugenpoli@antonius.net;http://www.antoniusziekenhuis.nl;;
140771;455327;UMC Utrecht, Polikliniek geriatrie, receptie 37;UMC Utrecht;Heidelberglaan;100;;;Heidelberglaan 100;3584 CX;Utrecht;3584 CX Utrecht;Oost;De Uithof;Zorg;Geestelijke gezondheidszorg;Behandeling, ggz;Geestelijke gezondheidszorg;Psychiatrische cliënten;088-7558378;;http://www.umcutrecht.nl/nl/Ziekenhuis;;
135381;454048;Centrum Cabane;;Hof van Transwijk;2;;;Hof van Transwijk 2;3526 XB;Utrecht;3526 XB Utrecht;Zuidwest;Transwijk-zuid;Zorg;Advisering en ondersteuning;Ontmoeting, informatie en advies;Advisering en ondersteuning;Mensen met kanker;030-2803738;info@centrumcabane.nl;http://www.centrumcabane.nl;;
137005;455553;Het Catharijnehuis;Stichting Dagopvang Utrecht;Catharijnesteeg;7;;;Catharijnesteeg 7;3512 NZ;Utrecht;3512 NZ Utrecht;Binnenstad;Lange Nieuwstraat e.o.;Zorg;Maatschappelijke opvang;Dagopvang;Maatschappelijke opvang;Daklozen, thuislozen;030-2310293;hkm@catharijnehuis.nl, secretariaat@catharijnehuis.nl;http://www.catharijnehuis.nl/;;
134969;453690;Buurtteam Kanaleneiland Zuid;;Marco Pololaan;71;;;Marco Pololaan 71;3526 GA;Utrecht;3526 GA Utrecht;Zuidwest;Kanaleneiland-zuid;Zorg;Buurtteam;Informatie, ondersteuning, advisering, activering;Buurtteam;Iedereen die woont in Kanaleneiland Zuid;030-7210535;kanaleneilandzuid@buurtteamsutrecht.nl;http://www.buurtteamsutrecht.nl/buurtteam-kanaleiland-zuid;http://www.buurtteamsutrecht.nl;
136110;452651;Leger des Heils Werk en Dagbesteding;Leger des Heils;Zeehaenkade;30;;;Zeehaenkade 30;3526 LC;Utrecht;3526 LC Utrecht;Zuidwest;Bedrijvengebied Kanaleneiland-zuid;Zorg;Advisering en ondersteuning;Begeleiding, vak leren;Advisering en ondersteuning;Mensen met grote afstand tot de arbeidsmarkt;088-0901122;middennederland@legerdesheils.nl;http://www.legerdesheils.nl/midden-nederland;;
136110;452651;Leger des Heils Jeugdbescherming en Reclassering;Leger des Heils;Zeehaenkade;30;;;Zeehaenkade 30;3526 LC;Utrecht;3526 LC Utrecht;Zuidwest;Bedrijvengebied Kanaleneiland-zuid;Zorg;Advisering en ondersteuning;Advies, toezicht, begeleiding, gedragsinterventie, nazorg, ondersteuning bij resocialisatie;Advisering en ondersteuning;Mensen met een ondertoezichtstelling;088-0901000;;http://www.legerdesheils.nl/ljr;;
135742;458726;Parana Kort Verblijf;De Tussenvoorziening;Paranadreef;353;;;Paranadreef 353;3563 WK;Utrecht;3563 WK Utrecht;Overvecht;Vechtzoom-zuid;Zorg;Maatschappelijke opvang;Crisisopvang, begeleid wonen;Maatschappelijke opvang;Sociaal kwetsbare bewoners;030-2300822 ;info@tussenvoorziening.nl;http://www.tussenvoorziening.nl;;
136204;453204;I-psy Utrecht;I-psy;Giessenplein;59;H;;Giessenplein 59H;3522 KE;Utrecht;3522 KE Utrecht;Zuidwest;Rivierenwijk;Zorg;Geestelijke gezondheidszorg;GGZ, diagnostiek, behandeling;Geestelijke gezondheidszorg;"Psychiatrische cliënten; ouderen, volwassenen, jongeren en kinderen met verschillende sociale en culturele achtergronden en uiteenlopende psychische problemen";088-3589292 ;info@i-psy.nl;https://www.i-psy.nl/home;;
135778;458585;Dokter Bosman;Dokter Bosman;Kaap Hoorndreef;38;A;;Kaap Hoorndreef 38A;3563 AV;Utrecht;3563 AV Utrecht;Overvecht;Vechtzoom-zuid;Zorg;Geestelijke gezondheidszorg;Ggz, diagnostiek, psychische hulp, behandeling, begeleiding;Geestelijke gezondheidszorg;Psychiatrische cliënten, volwassenen met psychische klachten of psychiatrische stoornissen;030-7539080;;http://www.bosmanggz.nl/utrechtovervecht/;https://dokterbosman.nl/;
135817;458618;NOAGG Utrecht Hoofdvestiging;NOAGG;Kaap Hoorndreef;26;;;Kaap Hoorndreef 26;3563 AT;Utrecht;3563 AT Utrecht;Overvecht;Vechtzoom-zuid;Zorg;Geestelijke gezondheidszorg;GGZ;Geestelijke gezondheidszorg;Psychiatrische cliënten;030-2990038;;http://www.noagg.nl;;
136412;453180;NOAGG Dependance;NOAGG;'t Goylaan;1-7;;;'t Goylaan 1-7;3525 AA;Utrecht;3525 AA Utrecht;Zuid;Oud Hoograven-zuid;Zorg;Geestelijke gezondheidszorg;GGZ;Geestelijke gezondheidszorg;Psychiatrische cliënten;030-2990038;;http://www.noagg.nl;;
136204;453204;PsyQ;PsyQ;Giessenplein;59;C, D;;Giessenplein 59C, D;3522 KE;Utrecht;3522 KE Utrecht;Zuidwest;Rivierenwijk;Zorg;Geestelijke gezondheidszorg;GGZ;Geestelijke gezondheidszorg;Psychiatrische cliënten;088-3572267;;http://www.psyq.nl/ ;;
135852;455758;Meld- en actiepunt OGGZ;;Stadsplateau;1;;;Stadsplateau 1;3521 AZ;Utrecht;3521 AZ Utrecht;Binnenstad;Hoog Catharijne, NS, Jaarbeurs;Zorg;Geestelijke gezondheidszorg;GGZ, OGGZ;Geestelijke gezondheidszorg;Burgers of medewerkers van hulpverleningsinstanties, psychiatrische cliënten;030-2863040 ;meldenactiepuntoggz@utrecht.nl;http://www.utrecht.nl/volksgezondheid/zorg-voor-sociaal-kwetsbaren/meld-en-actiepunt-oggz/;;http://www.toegankelijkutrecht.nl/toegankelijk/toe_view.asp?ac=info&toe_permanent_guid={7705D0A4-5DB2-4A64-A6F9-153459281CEA}&lan_id=1
133244;455326;Mentaal Beter Utrecht;Mentaal Beter;Burgemeester Verderlaan;17;;;Burgemeester Verderlaan 17;3544 AD;Utrecht;3544 AD Utrecht;Leidsche Rijn;Langerak;Zorg;Geestelijke gezondheidszorg;GGZ, behandeling;Geestelijke gezondheidszorg;Kinderen, jeugdigen en (jong) volwassenen met psychologische of psychische klachten en problemen;088-0104480;info@mentaalbeter.nl;https://www.mentaalbeter.nl/Items/nl-NL/Praktijken/Algemeen/Mentaal-Beter-Utrecht;https://www.mentaalbeter.nl;
129401;456169;Mentaal Beter Vleuten;Mentaal Beter;Middenburcht;116;;;Middenburcht 116;3452 MT;Vleuten;3452 MT Vleuten;Vleuten - De Meern;Vleuterweide-noord/oost/centrum;Zorg;Geestelijke gezondheidszorg;GGZ, behandeling;Geestelijke gezondheidszorg;Kinderen, jeugdigen en (jong) volwassenen met psychologische of psychische klachten en problemen;088-0104480;info@mentaalbeter.nl;https://www.mentaalbeter.nl/Items/nl-NL/Praktijken/Jong/Mentaal-Beter-Vleuten-Psycholoog-Vleuten-GZ-praktijk;https://www.mentaalbeter.nl;
134747;455273;Praktijk Smeltink (Mentaal Beter);Mentaal Beter;Leidseweg;115;;;Leidseweg 115;3533 HB;Utrecht;3533 HB Utrecht;West;Welgelegen, Den Hommel;Zorg;Geestelijke gezondheidszorg;GGZ, behandeling;Geestelijke gezondheidszorg;Volwassenen met psychologische of psychische klachten en problemen;06-55567791;info@mentaalbeter.nl;https://www.mentaalbeter.nl/Items/nl-NL/Praktijken/Volwassen/Praktijk-Smeltink;https://www.mentaalbeter.nl;
130801;454295;De Psychotherapiepraktijk (Mentaal Beter);Mentaal Beter;De dompelaar;1;B;;De dompelaar 1B;3454 XZ;De Meern;3454 XZ De Meern;Vleuten - De Meern;De Meern-zuid;Zorg;Geestelijke gezondheidszorg;GGZ, behandeling;Geestelijke gezondheidszorg;Volwassenen met psychologische of psychische klachten en problemen;030-6669000;info@mentaalbeter.nl;https://www.mentaalbeter.nl/Items/nl-NL/Praktijken/Volwassen/De-Psychotherapiepraktijk;https://www.mentaalbeter.nl;
137673;457078;Lievegoed GGZ Jongvolwassenen;Lievegoed;Dekhuyzenstraat;60;;;Dekhuyzenstraat 60;3572 WN;Utrecht;3572 WN Utrecht;Noordoost;Zeeheldenbuurt, Hengeveldstraat e.o.;Zorg;Geestelijke gezondheidszorg;GGZ, psychiatrie, verslavingszorg;Geestelijke gezondheidszorg;Psychiatrische cliënten, verslaafden, jongvolwassenen;030-2255555;aanmelden@lievegoed.nl;http://www.lievegoed.nl/jongvolwassenen/;http://www.lievegoed.nl;
131689;456385;(Multiculturele) Dagopvang/dagbesteding Karma Zorg;Karma Zorg;Pauwoogvlinder;18;;;Pauwoogvlinder 18;3544 DB;Utrecht;3544 DB Utrecht;Leidsche Rijn;Het Zand-oost;Zorg;Verpleging en verzorging ouderen;Activering, dagopvang, dagbesteding;Verpleging en verzorging ouderen;Ouderen;06-21163743;info@karmazorg.nl;http://www.karmazorg.nl;;
135852;455758;GGD locatie Utrecht;GGD regio Utrecht;Stadsplateau;1;;;Stadsplateau 1;3521 AZ;Utrecht;3521 AZ Utrecht;Binnenstad;Hoog Catharijne, NS, Jaarbeurs;Zorg;Lichamelijke gezondheidszorg;GGD, advisering, ondersteuning, vaccinaties;Gezondheidsdienst;;030-6086086;info@ggdru.nl;http://www.ggdru.nl;;http://www.toegankelijkutrecht.nl/toegankelijk/toe_view.asp?ac=info&toe_permanent_guid={7705D0A4-5DB2-4A64-A6F9-153459281CEA}&lan_id=1
135044;455877;Hospice Utrecht;Stichting Hospice Utrecht;Kanaalstraat;200;A;;Kanaalstraat 200A;3531 CR;Utrecht;3531 CR Utrecht;West;Lombok-west;Zorg;Palliatieve zorg;Hospice, palliatieve zorg, intensieve kortdurende zorg, ondersteuning;Palliatieve zorg;Ernstig zieken met een korte levensverwachting;030-2916040;info@hospiceutrecht.nl;http://www.hospiceutrecht.nl;;
135044;455877;Stichting Thuis Sterven Utrecht;Stichting Thuis Sterven Utrecht;Kanaalstraat;200;A;;Kanaalstraat 200A;3531 CR;Utrecht;3531 CR Utrecht;West;Lombok-west;Zorg;Palliatieve zorg;Hospice, palliatieve zorg, intensieve kortdurende zorg, ondersteuning;Palliatieve zorg;Ernstig zieken met een korte levensverwachting;030-2938003;info@hospiceutrecht.nl;http://www.hospiceutrecht.nl;;
129704;457595;Johannes Hospitium Vleuten;Stichting Johannes Hospitium Vleuten;Kloosterweide;2;;;Kloosterweide 2;3451 VN;Vleuten;3451 VN Vleuten;Vleuten - De Meern;Vleuten;Zorg;Palliatieve zorg;Hospice, palliatieve zorg, intensieve kortdurende zorg, ondersteuning;Palliatieve zorg;Mensen met een levensverwachting < 3 maanden;030-6775013;info@hospitiumvleuten.nl;http://www.hospitiumvleuten.nl;;
135482;459546;Palliatieve unit Careyn;Careyn;Indusdreef;5;;;Indusdreef 5;3564 CV;Utrecht;3564 CV Utrecht;Overvecht;Tigrisdreef e.o.;Zorg;Palliatieve zorg;Hospice, palliatieve zorg, intensieve kortdurende zorg, ondersteuning;Palliatieve zorg;Ernstig zieken met een korte levensverwachting;0900-2111222;;http://www.careyn.nl;http://www.careyn.nl;
136927;456147;Medisch Centrum Janskerkhof;;Nobelstraat;2;A;;Nobelstraat 2A;3512 EN;Utrecht;3512 EN Utrecht;Binnenstad;Nobelstraat e.o.;Zorg;Lichamelijke gezondheidszorg;Gezondheidscentrum;Gezondheidscentrum;;030-7601300;info@medischcentrumjanskerkhof.nl;http://www.medischcentrumjanskerkhof.nl;;
140354;455224;Medisch Centrum de Uithof;;Leuvenplein;10-11;;;Leuvenplein 10-11;3584 LA;Utrecht;3584 LA Utrecht;Oost;De Uithof;Zorg;Lichamelijke gezondheidszorg;Gezondheidscentrum;Gezondheidscentrum;;030-2040550;info@medischcentrumdeuithof.nl;http://www.medischcentrumdeuithof.nl;;
136927;456147;Huisartsenpraktijk Janskerkhof;;Nobelstraat;2;A;;Nobelstraat 2A;3512 EN;Utrecht;3512 EN Utrecht;Binnenstad;Nobelstraat e.o.;Zorg;Lichamelijke gezondheidszorg;Huisarts;Huisarts;;030-7601301;info@huisartsjanskerkhof.nl;http://www.huisartsjanskerkhof.nl;;
140354;455224;Huisartsenpraktijk de Uithof;;Leuvenplein;10-11;;;Leuvenplein 10-11;3584 LA;Utrecht;3584 LA Utrecht;Oost;De Uithof;Zorg;Lichamelijke gezondheidszorg;Huisarts;Huisarts;;030-2040550;info@huisartsendeuithof.nl;http://www.huisartsdeuithof.nl;;
138448;455464;De Hoogstraat Revalidatie;De Hoogstraat;Rembrandtkade;10;;;Rembrandtkade 10;3583 TM;Utrecht;3583 TM Utrecht;Oost;Schildersbuurt;Zorg;Lichamelijke gezondheidszorg;Klinische en poliklinische revalidatiebehandeling, advisering, ondersteuning;Revalidatiezorg;Kinderen, jongeren en volwassenen met veel verschillende aandoeningen. Bij de meeste aandoeningen staan beperkingen in het bewegen voorop.;030-2561211;info@dehoogstraat.nl;http://www.dehoogstraat.nl/;;
135163;457194;Joost Zorgt (hoofdkantoor);Joost Zorgt;Ondiep Zuidzijde;6;;;Ondiep Zuidzijde 6;3551 BW;Utrecht;3551 BW Utrecht;Noordwest;Egelantierstraat, Mariendaalstraat e.o.;Zorg;Thuiszorg;Thuiszorg, wijkverpleging, huishoudelijk hulp, verpleging, persoonlijke verzorging en begeleiding;Thuiszorg;Mensen met een lichamelijke beperking, chronisch zieken, terminale patiënten;030-2731300;info@joostzorgt.nl;http://www.joostzorgt.nl/;http://www.utrecht.nl/wmo-in-utrecht/belangrijke-organisaties/organisaties-hulp-bij-het-huishouden/;
134815;457482;Joost Zorgt (hoofdkantoor en inloop);Joost Zorgt;Amsterdamsestraatweg;421;;;Amsterdamsestraatweg 421;3551 CL;Utrecht;3551 CL Utrecht;Noordwest;Egelantierstraat, Mariendaalstraat e.o.;Zorg;Thuiszorg;Thuiszorg, wijkverpleging, huishoudelijk hulp, verpleging, persoonlijke verzorging en begeleiding;Thuiszorg;Mensen met een lichamelijke beperking, chronisch zieken, terminale patiënten;030-2731300;info@joostzorgt.nl;http://www.joostzorgt.nl/;http://www.utrecht.nl/wmo-in-utrecht/belangrijke-organisaties/organisaties-hulp-bij-het-huishouden/;
137129;457339;Joost Zorgt;Joost Zorgt;Juliusstraat;9;;;Juliusstraat 9;3514 HX;Utrecht;3514 HX Utrecht;Noordoost;Tuinwijk-oost;Zorg;Thuiszorg;Thuiszorg, wijkverpleging, huishoudelijk hulp, verpleging, persoonlijke verzorging en begeleiding;Thuiszorg;Mensen met een lichamelijke beperking, chronisch zieken, terminale patiënten;030-2731300;info@utrecht.joostzorgt.nl;http://www.joostzorgt.nl/;http://www.utrecht.nl/wmo-in-utrecht/belangrijke-organisaties/organisaties-hulp-bij-het-huishouden/;
135252;454350;Thuiszorg Hart voor Nederland;Thuiszorg Warm Hart voor Nederland B.V.;Van Bijnkershoeklaan;328;C;;Van Bijnkershoeklaan 328C;3527 XL;Utrecht;3527 XL Utrecht;Zuidwest;Transwijk-noord;Zorg;Thuiszorg;Thuiszorg, wijkverpleging, huishoudelijk hulp, verpleging, persoonlijke verzorging en begeleiding;Thuiszorg;;030-2676717;afd.clienten@thuiszorghvn.nl;http://www.thuiszorghvn.nl;http://www.utrecht.nl/wmo-in-utrecht/belangrijke-organisaties/organisaties-hulp-bij-het-huishouden/;
134156;460146;Thuiszorg Good4life;Stichting Good4life;Tennesseedreef;3;;;Tennesseedreef 3;3565 CK;Utrecht;3565 CK Utrecht;Overvecht;Bedrijvengebied Overvecht;Zorg;Thuiszorg;Thuiszorg, wijkverpleging, huishoudelijk hulp, verpleging, persoonlijke verzorging en begeleiding;Thuiszorg;;030-2656540;info@goodforlife.nl;http://www.goodforlife.nl;http://www.utrecht.nl/wmo-in-utrecht/belangrijke-organisaties/organisaties-hulp-bij-het-huishouden/;
131661;458027;Thuishulp Zorgzaam;;Proostwetering;24;J;;Proostwetering 24J;3543 AE;Utrecht;3543 AE Utrecht;Leidsche Rijn;Bedrijvengebied De Wetering;Zorg;Thuiszorg;Thuiszorg, wijkverpleging, huishoudelijk hulp, verpleging, persoonlijke verzorging en begeleiding;Thuiszorg;;030-2640059;info@thuishulp-zorgzaam.nl;http://www.thuishulp-zorgzaam.nl;http://www.utrecht.nl/wmo-in-utrecht/belangrijke-organisaties/organisaties-hulp-bij-het-huishouden/;
136906;456543;Buurtzorgteam Utrecht Griftpark;Buurtzorg;Van Asch van Wijckskade;28;;;Van Asch van Wijckskade 28;3512 VS;Utrecht;3512 VS Utrecht;Binnenstad;Breedstraat, Plompetorengracht e.o.;Zorg;Thuiszorg;Thuiszorg, wijkverpleging, verpleging inclusief alle technische handelingen thuis, persoonlijke verzorging en begeleiding, palliatieve zorg incl. nachtzorg;Thuiszorg;Alle clienten woonachting in de postcodes 3512 (noord), 3514, 3515, 3571, 3572, 3573;06-12683768;utrecht-griftpark@buurtzorgnederland.com;http://www.utrecht.buurtzorg.net/;http://www.buurtzorgnederland.com;
134956;454181;Buurtzorgteam Utrecht Kanaleneiland;Buurtzorg;Bernadottelaan;6;;;Bernadottelaan 6;3527 GB;Utrecht;3527 GB Utrecht;Zuidwest;Kanaleneiland-noord;Zorg;Thuiszorg;Thuiszorg, wijkverpleging, verpleging inclusief alle technische handelingen thuis, persoonlijke verzorging en begeleiding, palliatieve zorg incl. nachtzorg;Thuiszorg;Alle clienten woonachting in de postcodes 3521, 3526, 3527;06-10356104;utrechtkanaleneiland@buurtzorgnederland.com;http://www.utrecht.buurtzorg.net/;http://www.buurtzorgnederland.com;
135630;458684;Buurtzorgteam Utrecht Overvecht, team Noord en team Zuid;Buurtzorg;Amazonedreef;45;;;Amazonedreef 45;3563 CA;Utrecht;3563 CA Utrecht;Overvecht;Vechtzoom-zuid;Zorg;Thuiszorg;Thuiszorg, wijkverpleging, verpleging inclusief alle technische handelingen thuis, persoonlijke verzorging en begeleiding, palliatieve zorg incl. nachtzorg;Thuiszorg;Alle cliënten woonachtig in de wijk Overvecht met de postcodes 3561, 3562, 3566, 3552 TJ en 3552 TL, 3563, 3564 en 3565;team Noord: 06-53643505 / team Zuid: 06-10893630;team Noord: overvechtnoord@buurtzorgnederland.com / team Zuid: overvechtzuid@buurtzorgnederland.com;https://gezondheidscentrumovervecht.praktijkinfo.nl/pagina/42/buurtzorg/;http://www.buurtzorgnederland.com;
134508;455760;Buurtzorgteam Utrecht West;Buurtzorg;Kanaalweg;93;B;;Kanaalweg 93B;3533 HH;Utrecht;3533 HH Utrecht;West;Oog in Al;Zorg;Thuiszorg;Thuiszorg, wijkverpleging, verpleging inclusief alle technische handelingen thuis, persoonlijke verzorging en begeleiding, palliatieve zorg incl. nachtzorg;Thuiszorg;Alle clienten woonachting in West met de postcodes 3531, 3532, 3533, 3534;06-23733722;utrechtwest@buurtzorgnederland.com;http://www.utrecht.buurtzorg.net/;http://www.buurtzorgnederland.com;
136542;455247;Buurtzorgteam Utrecht Wilhelminapark;Buurtzorg;Nicolaas Beetstraat;2;A;;Nicolaas Beetstraat 2A;3511 HE;Utrecht;3511 HE Utrecht;Binnenstad;Hooch Boulandt;Zorg;Thuiszorg;Thuiszorg, wijkverpleging, verpleging inclusief alle technische handelingen thuis, persoonlijke verzorging en begeleiding, palliatieve zorg incl. nachtzorg;Thuiszorg;Alle clienten woonachtig in de postcodes 3511, 3512 (zuid), 3581, 3582, 3583, 3584;06-10356893;utrecht-wilhelminapark@buurtzorgnederland.com    ;http://www.utrecht.buurtzorg.net/;http://www.buurtzorgnederland.com;
136871;453500;Buurtzorgteam Utrecht Zuid;Buurtzorg;Oranje-Nassaulaan;2;;;Oranje-Nassaulaan 2;3523 VR;Utrecht;3523 VR Utrecht;Zuid;Nieuw Hoograven-noord;Zorg;Thuiszorg;Thuiszorg, wijkverpleging, persoonlijke verzorging en verpleging inclusief alle technische handelingen, palliatieve zorg incl. nachtzorg;Thuiszorg;Alle cliënten woonachting in Zuid met de postcodes 3523, 3525 en cliënten woonachtig in Rivierenwijk;06-51180955;utrechtzuid@buurtzorgnederland.com;http://www.utrecht.buurtzorg.net/;http://www.buurtzorgnederland.com;
136883;458821;DC Zorg op Tijd;;Broekhuysendreef;29;;;Broekhuysendreef 29;3562 BJ;Utrecht;3562 BJ Utrecht;Overvecht;Neckardreef e.o.;Zorg;Thuiszorg;Thuiszorg, wijkverpleging, huishoudelijk hulp, verpleging, persoonlijke verzorging en begeleiding;Thuiszorg;;030-2618836, 06-39453777;;http://www.dczorgoptijd.nl;;
135817;458618;Leven en Zorg, locatie Utrecht;Leven en Zorg B.V.;Kaap Hoorndreef;24;;;Kaap Hoorndreef 24;3563 AT;Utrecht;3563 AT Utrecht;Overvecht;Vechtzoom-zuid;Zorg;Thuiszorg;Thuiszorg, wijkverpleging, huishoudelijk hulp, verpleging, persoonlijke verzorging en begeleiding;Thuiszorg;;030-2887700;;http://www.levenenzorg.nl;;
136839;457422;PrivaZorg Baarn/Soest;PrivaZorg;P.C. Borstraat;21;B;;P.C. Borstraat 21B;3515 XX;Utrecht;3515 XX Utrecht;Noordoost;Tuinwijk-west;Zorg;Thuiszorg;Thuiszorg, wijkverpleging, huishoudelijk hulp, verpleging, persoonlijke verzorging en begeleiding;Thuiszorg;;030 -6365302;info@privathuiszorg.nl;http://www.privazorg.nl;http://www.utrecht.nl/wmo-in-utrecht/belangrijke-organisaties/organisaties-hulp-bij-het-huishouden/;
137735;455608;TSN Thuiszorg, locatie Utrecht;;Oudwijkerdwarsstraat;148;;;Oudwijkerdwarsstraat 148;3581 LJ;Utrecht;3581 LJ Utrecht;Oost;Oudwijk;Zorg;Thuiszorg;Thuiszorg, wijkverpleging, huishoudelijk hulp, verpleging, persoonlijke verzorging en begeleiding;Thuiszorg;;030-2803071;utrecht@tsn-thuiszorg.nl;http://www.tsn-thuiszorg.nl/thuiszorg/Utrecht/#vestiginggegevens;http://www.utrecht.nl/wmo-in-utrecht/belangrijke-organisaties/organisaties-hulp-bij-het-huishouden/;
136298;459238;Thuiszorg Multicare Utrecht B.V.;;Pretoriadreef;48;;;Pretoriadreef 48;3564 BX;Utrecht;3564 BX Utrecht;Overvecht;Zambesidreef e.o.;Zorg;Thuiszorg;Thuiszorg, wijkverpleging, huishoudelijk hulp, verpleging, persoonlijke verzorging en begeleiding;Thuiszorg;;;;http://www.multicareutrecht.nl;;
136289;454040;Thuiszorg Oosten Utrecht;;Waalstraat;158;;;Waalstraat 158;3522 SV;Utrecht;3522 SV Utrecht;Zuidwest;Rivierenwijk;Zorg;Thuiszorg;Thuiszorg, wijkverpleging, huishoudelijk hulp, verpleging, persoonlijke verzorging en begeleiding;Thuiszorg;;030-2667848;info@thuiszorg-oosten-utrecht.nl;http://www.thuiszorg-oosten-utrecht.nl;;
135713;452791;Thuiszorg Het Centrum;Stichting Thuiszorg Het Centrum;Nieuw-Amsterdamlaan;6;;;Nieuw-Amsterdamlaan 6;3526 AG;Utrecht;3526 AG Utrecht;Zuidwest;Bedrijvengebied Kanaleneiland-zuid;Zorg;Thuiszorg;Thuiszorg, wijkverpleging, huishoudelijk hulp, verpleging, persoonlijke verzorging en begeleiding;Thuiszorg;;0302850085;info@thuiszorghetcentrum.nl;http://www.thuiszorghetcentrum.nl;http://www.utrecht.nl/wmo-in-utrecht/belangrijke-organisaties/organisaties-hulp-bij-het-huishouden/;
135264;454253;Stichting CúramZorg;Stichting CúramZorg;Van Bijnkershoeklaan;387;;;Van Bijnkershoeklaan 387;3527 XK;Utrecht;3527 XK Utrecht;Zuidwest;Transwijk-noord;Zorg;Thuiszorg;Thuiszorg, wijkverpleging, huishoudelijk hulp, verpleging, persoonlijke verzorging en begeleiding;Thuiszorg;;088-444-8777;info@curamzorg.nl;http://www.curamzorg.nl;http://www.utrecht.nl/wmo-in-utrecht/belangrijke-organisaties/organisaties-hulp-bij-het-huishouden/;
135633;458682;Kleurrijk Zorg;Kleurrijk Zorg;Amazonedreef;47;A;;Amazonedreef 47A;3563 CA;Utrecht;3563 CA Utrecht;Overvecht;Vechtzoom-zuid;Zorg;Thuiszorg;Thuiszorg, wijkverpleging, huishoudelijk hulp, verpleging, persoonlijke verzorging en begeleiding;Thuiszorg;;030-2900339;zorgvraag@kleurrijkzorg.nl;http://www.kleurrijkzorg.nl;http://www.utrecht.nl/wmo-in-utrecht/belangrijke-organisaties/organisaties-hulp-bij-het-huishouden/;
135545;453378;AxionContinu Centraal bureau;AxionContinu;Beneluxlaan;922;;;Beneluxlaan 922;3526 KJ;Utrecht;3526 KJ Utrecht;Zuidwest;Transwijk-zuid;Zorg;Verpleging en verzorging ouderen;Centraal bureau, voor alle wijken en buurten in Utrecht;Verpleging en verzorging ouderen;Revaliderenden, ouderen, mensen met geheugenproblemen, dementerenden, mensen met lichamelijke beperkingen, volwassenen, mensen met een chronische ziekte, mensen met niet-aangeboren hersenletsel, mensen met kanker, terminal patiënten;030-2822200;info@axioncontinu.nl;http://www.axioncontinu.nl;http://www.axioncontinu.nl;
135630;453003;Tzorg;Tzorg;Australielaan;13;;;Australielaan 13;3526 AB;Utrecht;3526 AB Utrecht;Zuidwest;Bedrijvengebied Kanaleneiland-zuid;Zorg;Thuiszorg;Thuiszorg, wijkverpleging, huishoudelijk hulp, verpleging, persoonlijke verzorging en begeleiding;Thuiszorg;;030-2482903;utrecht@tzorg.nl;http://www.tzorg.nl/;http://www.utrecht.nl/wmo-in-utrecht/belangrijke-organisaties/organisaties-hulp-bij-het-huishouden/;
134894;459073;Costa Ricadreef;Amerpoort;Costa Ricadreef;101-137;;;Costa Ricadreef 101-137;3563 TD;Utrecht;3563 TD Utrecht;Overvecht;Vechtzoom-noord, Klopvaart;Zorg;Verstandelijke beperking;Begeleid zelfstandig wonen, groepswonen;Verstandelijke beperking;Mensen met een verstandelijke beperking, ouderen;035-6475555;info@amerpoort.nl;http://www.amerpoort.nl/locaties/wonen/costa-ricadreef.html;http://www.amerpoort.nl/;
134454;458436;Prinses Margrietstraat;Amerpoort;Prinses Margrietstraat;116;;;Prinses Margrietstraat 116;3554 GJ;Utrecht;3554 GJ Utrecht;Noordwest;Schaakbuurt e.o.;Zorg;Verstandelijke beperking;Begeleid zelfstandig wonen, groepswonen;Verstandelijke beperking;Mensen met een verstandelijke beperking, jongvolwassenen en volwassenen;035-6475555;info@amerpoort.nl;http://www.amerpoort.nl/locaties/wonen/prinses-margrietstraat.html;http://www.amerpoort.nl/;
132023;456974;Ingelanden;Amerpoort;Louis Armstronglaan;800;;;Louis Armstronglaan 800;3543 EB;Utrecht;3543 EB Utrecht;Leidsche Rijn;Terwijde-oost;Zorg;Verstandelijke beperking;Begeleid zelfstandig wonen, groepswonen;Verstandelijke beperking;Mensen met een verstandelijke beperking, ouderen, dementerenden;035-6475555;info@amerpoort.nl;http://www.amerpoort.nl/locaties/wonen/ingelanden-louis-armstronglaan.html;http://www.amerpoort.nl/;
129648;456066;Hardenbroek;Amerpoort;Hardenbroek;135-193;;;Hardenbroek 135-193;3452 NH;Vleuten;3452 NH Vleuten;Vleuten - De Meern;Vleuterweide-noord/oost/centrum;Zorg;Verstandelijke beperking;Begeleid zelfstandig wonen, groepswonen;Verstandelijke beperking;Mensen met een verstandelijke beperking;035-6475555;info@amerpoort.nl;http://www.amerpoort.nl/locaties/wonen/hardenbroek.html;http://www.amerpoort.nl/;
136717;456741;Huisartsenpraktijk Vogelenbuurt;;Nieuwe Koekoekstraat;85;;;Nieuwe Koekoekstraat 85;3514 EC;Utrecht;3514 EC Utrecht;Noordoost;Vogelenbuurt;Zorg;Lichamelijke gezondheidszorg;Huisarts;Huisarts;;030-2714196;;https://vogelenbuurt.praktijkinfo.nl/;;http://www.toegankelijkutrecht.nl/toegankelijk/toe_view.asp?ac=info&toe_permanent_guid={D03BEE40-78DD-4000-912F-6F1C32448AB0}&lan_id=1
137440;458436;Huisartsenkliniek Overvecht, Centrum voor gezondheidsbevordering;;Kastordreef;1;;;Kastordreef 1;3561 EJ;Utrecht;3561 EJ Utrecht;Overvecht;Donaudreef, Wolgadreef e.o.;Zorg;Lichamelijke gezondheidszorg;Gezondheidscentrum;Gezondheidscentrum;;030-2611126;;http://huisartsenkliniek.praktijkinfo.nl;;
128503;456184;Trevouxperenlaan;'s Heeren Loo;Trevouxperenlaan;1A;;;Trevouxperenlaan 1A;3452 DS;Vleuten;3452 DS Vleuten;Vleuten - De Meern;Vleuterweide-zuid;Zorg;Verstandelijke beperking;Begeleid wonen, groepswonen;Verstandelijke beperking;Mensen met een verstandelijke beperking, volwassenen;0800-3555555;;http://www.sheerenloo.nl/contact/waar-zitten-wij/-/locatie/21331/vleuten/begeleid+wonen+utrecht+-+trevouxperenlaan+1-1a;http://www.sheerenloo.nl;
138169;457233;Kögllaan;'s Heeren Loo;Kögllaan;26;;;Kögllaan 26;3571 PZ;Utrecht;3571 PZ Utrecht;Noordoost;Voordorp/Voorveldsepolder;Zorg;Verstandelijke beperking;Begeleid wonen, groepswonen, onderzoek, behandeling, opvang, leren, vrije tijd;Verstandelijke beperking;Mensen met een verstandelijke beperking, kinderen in een leeftijd van 6 t/m 12 jaar;0800-3555555;;http://www.sheerenloo.nl/contact/waar-zitten-wij/-/locatie/00043/utrecht/kogllaan+26+bsb+utrecht;http://www.sheerenloo.nl;
131905;455117;Slingeraklaan;'s Heeren Loo;Slingeraklaan;136-138;;;Slingeraklaan 136-138;3544 WE;Utrecht;3544 WE Utrecht;Leidsche Rijn;Langerak;Zorg;Verstandelijke beperking;Begeleid wonen, groepswonen;Verstandelijke beperking;Mensen met een verstandelijke beperking, jongvolwassenen;0800-3555555;;http://www.sheerenloo.nl/contact/waar-zitten-wij/-/locatie/21310/utrecht/begeleid+wonen+utrecht+-+slingeraklaan+136-138;http://www.sheerenloo.nl;
129701;455427;Het Gastenhuis Vleuten (open begin 2017);Het Gastenhuis;Zandweg;200;A;;Zandweg 200A;;Vleuten; Vleuten;Vleuten - De Meern;;Zorg;Verpleging en verzorging ouderen;Beschermd wonen;Verpleging en verzorging ouderen;Mensen met dementie;06-23057978;vleuten@hetgastenhuis.nl;http://hetgastenhuis.nl/vleuten/;;
136040;453456;Dokter Bosman;Dokter Bosman;Kanaalweg;17;A;;Kanaalweg 17A;3526 KL;Utrecht;3526 KL Utrecht;Zuidwest;Transwijk-zuid;Zorg;Geestelijke gezondheidszorg;Ggz, diagnostiek, psychische hulp, behandeling, begeleiding;Geestelijke gezondheidszorg;Kinderen en jeugd met psychische klachten of psychiatrische stoornissen;030-7519820;utrecht@dokterbosman.nl;https://dokterbosman.nl/utrecht/;https://dokterbosman.nl/;
138162;453047;Lister Centraal Bureau;Lister;Furkaplateau;15;;;Furkaplateau 15;3524 ZH;Utrecht;3524 ZH Utrecht;Zuid;Lunetten-noord;Zorg;Geestelijke gezondheidszorg;Centraal bureau;Geestelijke gezondheidszorg;Mensen met ernstige psychiatrische aandoeningen en verslavingsproblemen;030-2361070;info@lister.nl;http://www.lister.nl/lister/locaties/centraal-bureau/;http://www.Lister.nl;
138769;452184;Lister De Boerderij;Lister;Nieuwe Houtenseweg ;55;;;Nieuwe Houtenseweg  55;3524 SE;Utrecht;3524 SE Utrecht;Zuid;Lunetten;Zorg;Geestelijke gezondheidszorg;Ggz, beschermd wonen, dagbesteding, begeleiding;Geestelijke gezondheidszorg;Mensen met een psychiatrische- en/of verslavingsachtergrond;030-2800223;info@lister.nl;http://www.lister.nl/lister/locaties/ggz-utrecht/lister-de-boerderij/;http://www.Lister.nl;
135779;457630;Lister Hogelanden;Lister;Hogelanden W.Z.;32;;;Hogelanden W.Z. 32;3552 AC;Utrecht;3552 AC Utrecht;Noordwest;Ondiep;Zorg;Geestelijke gezondheidszorg;Oggz, beschermd wonen, hostel;Geestelijke gezondheidszorg;Verslaafden;030-2468919;hogelanden@lister.nl;http://www.lister.nl/lister/locaties/oggz/lister-hogelanden/;http://www.Lister.nl;
137036;453087;Lister Hoograven;Lister;Wickenburglaan  ;82;;;Wickenburglaan   82;3523 JV;Utrecht;3523 JV Utrecht;Zuid;Hoograven;Zorg;Geestelijke gezondheidszorg;Beschermd wonen, 24 uurs zorg,  ggz  ;Geestelijke gezondheidszorg;Psychiatrische cliënten;030-2880252;info@lister.nl;http://www.Lister.nl/Lister/locaties/ggz-utrecht/Lister-bw-hoograven/;http://www.Lister.nl;
136985;458851;Lister Jaap Eden;Lister;Jaap Edendreef;7;;;Jaap Edendreef 7;3562 AT;Utrecht;3562 AT Utrecht;Overvecht;Neckardreef e.o.;Zorg;Geestelijke gezondheidszorg;Oggz, beschermd wonen;Geestelijke gezondheidszorg;Psychiatrische cliënten;030-2642040;jaapedendreef@lister.nl;http://www.lister.nl/lister/locaties/oggz/lister-jaap-edendreef/;http://www.Lister.nl;
130889;456832;Lister Leidsche Rijn Oost;Lister;Kandinskystraat;55;;;Kandinskystraat 55;3544 NW;Utrecht;3544 NW Utrecht;Leidsche Rijn;Leidsche Rijn Oost;Zorg;Geestelijke gezondheidszorg;Ggz, beschermd wonen, begeleiding, ambulante begeleiding;Geestelijke gezondheidszorg;Autistische cliënten;030-8796258;zand@lister.nl;http://www.lister.nl/lister/locaties/ggz-utrecht/lister-leidsche-rijn-oost/;http://www.Lister.nl;
132700;456144;Lister Leidsche Rijn Oost;Lister;Wessel Couzijnstraat;33;;;Wessel Couzijnstraat 33;3541 AN;Utrecht;3541 AN Utrecht;Leidsche Rijn;Grauwaart;Zorg;Geestelijke gezondheidszorg;Ggz, beschermd wonen, begeleiding, ambulante begeleiding;Geestelijke gezondheidszorg;Psychiatrische cliënten;030-6700005;zand@lister.nl;http://www.lister.nl/lister/locaties/ggz-utrecht/lister-leidsche-rijn-oost/;http://www.Lister.nl;
128351;456565;Lister Leidsche Rijn West;Lister;Dwergbieslaan;82;;;Dwergbieslaan 82;3452 AK;Vleuten;3452 AK Vleuten;Vleuten - De Meern;Vleuterweide-west;Zorg;Geestelijke gezondheidszorg;Ggz, beschermd wonen, langdurige zorg, ondersteuning, begeleiding;Geestelijke gezondheidszorg;Ouderen;030-6668060;leidscherijnwest@lister.nl;http://www.lister.nl/lister/locaties/ggz-utrecht/lister-leidsche-rijn-west/;http://www.Lister.nl;
135646;456691;Lister Leidsche Rijne Oost;Lister;Amsterdamsestraatweg ;141;;;Amsterdamsestraatweg  141;3513 AE;Utrecht;3513 AE Utrecht;Noordwest;Pijlsweerd-noord;Zorg;Geestelijke gezondheidszorg;Ggz, beschermd wonen, begeleiding, ambulante begeleiding;Geestelijke gezondheidszorg;Autistische cliënten;030-6356081;zand@lister.nl;http://www.lister.nl/lister/locaties/ggz-utrecht/lister-leidsche-rijn-oost/;http://www.Lister.nl;
136982;455029;Lister Nicolaasstraat;Lister;Nicolaaskerkhof;1;;;Nicolaaskerkhof 1;3512ÿXC;Utrecht;3512ÿXC Utrecht;Binnenstad;Lange Nieuwstraat e.o.;Zorg;Geestelijke gezondheidszorg;Ggz, beschermd wonen;Geestelijke gezondheidszorg;Psychiatrische cliënten;030-2145050;nicolaasstraat@lister.nl;http://www.lister.nl/lister/locaties/ggz-utrecht/lister-nicolaasstraat/;http://www.Lister.nl;
135988;454551;Lister Noordzeestraat;Lister;Heycopstraat;11;;;Heycopstraat 11;3521 EN;Utrecht;3521 EN Utrecht;Zuidwest;Dichterswijk;Zorg;Geestelijke gezondheidszorg;Ggz, beschermd wonen, activering, ontmoeting;Geestelijke gezondheidszorg;Psychiatrische cliënten;030-2673078;noordzeestraat@lister.nl;http://www.lister.nl/lister/locaties/ggz-utrecht/lister-noordzeestraat/;http://www.Lister.nl;
136334;454077;Lister Noordzeestraat;Lister;Noordzeestraat;114;;;Noordzeestraat 114;3522 PL;Utrecht;3522 PL Utrecht;Zuidwest;Rivierenwijk;Zorg;Geestelijke gezondheidszorg;Ggz, beschermd wonen, activering, ontmoeting;Geestelijke gezondheidszorg;Psychiatrische cliënten;030-2673078;noordzeestraat@lister.nl;http://www.lister.nl/lister/locaties/ggz-utrecht/lister-noordzeestraat/;http://www.Lister.nl;
136589;453936;Lister Rivierenwijk;Lister;Waalstraat;5;;;Waalstraat 5;3522 SB;Utrecht;3522 SB Utrecht;Zuidwest;Rivierenwijk;Zorg;Geestelijke gezondheidszorg;Ggz, beschermd wonen;Geestelijke gezondheidszorg;Psychiatrische cliënten;030-2710354;rivierenwijk@lister.nl;http://www.lister.nl/lister/locaties/ggz-utrecht/sbwu-rivierenwijk/;http://www.Lister.nl;
136590;453936;Lister Rivierenwijk;Lister;Waalstraat;1;;;Waalstraat 1;3522 SB;Utrecht;3522 SB Utrecht;Zuidwest;Rivierenwijk;Zorg;Geestelijke gezondheidszorg;Ggz, beschermd wonen;Geestelijke gezondheidszorg;Psychiatrische cliënten;030-2672467;rivierenwijk@lister.nl;http://www.lister.nl/lister/locaties/ggz-utrecht/sbwu-rivierenwijk/;http://www.Lister.nl;
136148;458608;Lister Utrecht Noordoost;Lister;Zamenhofdreef;16-18;;;Zamenhofdreef 16-18;3562 JW;Utrecht;3562 JW Utrecht;Overvecht;Zamenhofdreef e.o.;Zorg;Geestelijke gezondheidszorg;Ggz, ambulante begeleiding, beschermd wonen;Geestelijke gezondheidszorg;Psychiatrische cliënten;030-2920498;utrechtnoord@lister.nl;http://www.lister.nl/lister/locaties/ggz-utrecht/lister-noordoost/;http://www.Lister.nl;
137727;458484;Lister Utrecht Noordoost;Lister;Vulcanusdreef;223;;;Vulcanusdreef 223;3561 CJ;Utrecht;3561 CJ Utrecht;Overvecht;Donaudreef, Wolgadreef e.o.;Zorg;Geestelijke gezondheidszorg;Ggz, ambulante begeleiding, beschermd wonen;Geestelijke gezondheidszorg;Psychiatrische cliënten;030-2806058;utrechtnoord@lister.nl;http://www.lister.nl/lister/locaties/ggz-utrecht/lister-noordoost/;http://www.Lister.nl;http://www.toegankelijkutrecht.nl/toegankelijk/toe_view.asp?ac=info&toe_permanent_guid={8BE5006E-8B4E-4D65-909D-FC8739A3ECF9}&lan_id=1
135646;456691;Lister Utrecht Noordwest;Lister;Amsterdamsestraatweg;141;;;Amsterdamsestraatweg 141;3513 AE;Utrecht;3513 AE Utrecht;Noordwest;Pijlsweerd-noord;Zorg;Geestelijke gezondheidszorg;Oggz, ambulante begeleiding, gezinsbegeleiding;Geestelijke gezondheidszorg;Psychiatrische cliënten, drugsverslaafden;030-6356080;noordwest-amb1@lister.nl, iaz@lister.nl;http://www.lister.nl/lister/locaties/oggz/lister-utrecht-noordwest/;http://www.Lister.nl;
137954;452458;Lister Utrecht Zuidoost;Lister;Lotharingen;50;;;Lotharingen 50;3524 RD;Utrecht;3524 RD Utrecht;Zuid;Lunetten;Zorg;Geestelijke gezondheidszorg;Ggz, beschermd wonen;Geestelijke gezondheidszorg;Psychiatrische cliënten;030-2672762;lunetten@lister.nl;http://www.lister.nl/lister/locaties/ggz-utrecht/lister_utrecht_zuidoost/;http://www.Lister.nl;
138011;452964;Lister Utrecht Zuidoost;Lister;Hondsrug;655;;;Hondsrug 655;3524 BZ;Utrecht;3524 BZ Utrecht;Zuid;Lunetten;Zorg;Geestelijke gezondheidszorg;Ggz, ambulante begeleiding ;Geestelijke gezondheidszorg;Psychiatrische cliënten;030-2898082;lunetten@lister.nl;http://www.lister.nl/lister/locaties/ggz-utrecht/lister_utrecht_zuidoost/;http://www.Lister.nl;
134528;454006;Lister Utrecht Zuidwest;Lister;Nansenlaan;122;;;Nansenlaan 122;3527 EL;Utrecht;3527 EL Utrecht;Zuidwest;Kanaleneiland-noord;Zorg;Geestelijke gezondheidszorg;Ggz, beschermd wonen;Geestelijke gezondheidszorg;Psychiatrische cliënten;030-2926793;utrechtwest@lister.nl;http://www.lister.nl/lister/locaties/ggz-utrecht/lister-utrecht_zuidwest/;http://www.Lister.nl;
137193;456705;Lister Wittevrouwen;Lister;Witte Vrouwensingel ;88;;;Witte Vrouwensingel  88;3514 AL;Utrecht;3514 AL Utrecht;Noordoost;Tuinwijk-oost;Zorg;Geestelijke gezondheidszorg;Oggz, beschermd wonen, begeleiding, activering, hostel;Geestelijke gezondheidszorg;Aan harddrugs verslaafde dak- en thuislozen;030-2761454;wittevrouwen@lister.nl;http://www.lister.nl/lister/locaties/oggz/lister-wittevrouwen/;http://www.Lister.nl;
130600;455570;Woonvoorziening Noorderbreedte;Abrona;Noorderbreedte;17;;;Noorderbreedte 17;3454 KB;De Meern;3454 KB De Meern;Vleuten - De Meern;De Meern-noord;Zorg;Verstandelijke beperking;Beschermd wonen, begeleid wonen, groepswonen, 24 uurszorg, langdurige zorg;Verstandelijke beperking;Mensen met een verstandelijke beperking, lichamelijke beperking, NAH, autisme, clienten van alle leeftijden;088-2017380;noorderbreedte@abona.nl;http://abrona.nl/woonondersteuning/locaties/demeern/noorderbreedte-de-meern;http://www.abrona.nl;
131045;455514;Woonvoorziening Zuiderbreedte;Abrona;Zuiderbreedte;4;;;Zuiderbreedte 4;3454 KA;De Meern;3454 KA De Meern;Vleuten - De Meern;De Meern-noord;Zorg;Verstandelijke beperking;Beschermd wonen, begeleid wonen, groepswonen, 24 uurszorg, langdurige zorg;Verstandelijke beperking;Mensen met een verstandelijke beperking, lichamelijke beperking, NAH, autisme, clienten van alle leeftijden;088-2017360;zuiderbreedte@abrona.nl;http://abrona.nl/woonondersteuning/locaties/demeern/zuiderbreedte-de-meern;http://www.abrona.nl;
129688;454857;Woonlocatie Koetshuis Nijevelt/Haarlerberg;Abrona;Haarlerberg;56;A;;Haarlerberg 56A;3453 RG;De Meern;3453 RG De Meern;Vleuten - De Meern;Veldhuizen;Zorg;Verstandelijke beperking;Beschermd wonen, appartementen;Verstandelijke beperking;Mensen met een verstandelijke beperking;088-2017310;KoetshuisNijevelt@abrona.nl;http://abrona.nl/woonondersteuning/locaties/demeern/meridiaan-de-meern;http://www.abrona.nl;
130641;455150;Woonvoorziening Meridiaan;Abrona;Meridiaan;1;;;Meridiaan 1;3454 SB;De Meern;3454 SB De Meern;Vleuten - De Meern;De Meern-noord;Zorg;Verstandelijke beperking;Begeleid wonen, appartementen, kamertraining 24 uurszorg oproepbaar;Verstandelijke beperking;Mensen met een verstandelijke beperking, jong volwassenen, ASS lichte psyhiatrie (GGZ);088-2017400;info@abrona.nl;http://abrona.nl/woonondersteuning/locaties/demeern/meridiaan-de-meern;http://www.abrona.nl;
129677;455328;Woonvoorziening Oirschot;Abrona;Rijksstraatweg;131;;;Rijksstraatweg 131;3454 HL;De Meern;3454 HL De Meern;Vleuten - De Meern;Veldhuizen;Zorg;Verstandelijke beperking;Beschermd wonen, groepswonen;Verstandelijke beperking;Mensen met een verstandelijke beperking;088-2017340;oirschotwoonvoorziening@abrona.nl;http://abrona.nl/woonondersteuning/locaties/demeern/oirschot-de-meern;http://www.abrona.nl;
129342;455275;Woonvoorziening Veldhof;Abrona;Bovenpolder;126;;;Bovenpolder 126;3453 NP;De Meern;3453 NP De Meern;Vleuten - De Meern;Veldhuizen;Zorg;Verstandelijke beperking;Verzorgd wonen, beschernd wonen, appartementen, 24 uurszorg;Verstandelijke beperking;Ouderen, mensen met een verstandelijke beperking, lichte psychiatrie(GGZ),;Abrona: 088-2017260;info@abrona.nl;http://abrona.nl/woonondersteuning/locaties/demeern/veldhof-de-meern;http://www.abrona.nl;
138530;458212;Woonvoorziening De Biltse Grift;Abrona;Steve Bikostraat ;334 t/m 338;;;Steve Bikostraat  334 t/m 338;3573 BH;Utrecht;3573 BH Utrecht;Noordoost;Voordorp/Voorveldsepolder;Zorg;Verstandelijke beperking;Begeleid wonen, kamertraining, groepswonen 24 uurs zorg;Verstandelijke beperking;LVB jongeren, GGZ beschermd wonen, ASS, lichte psychiatrie.  trainingshuis;088-2017520;biltse.grift@abrona.nl;http://abrona.nl/woonondersteuning/locaties/utrecht16/de-biltse-grift;http://www.abrona.nl;
137549;454619;Woonvoorziening IBB;Abrona;Ina Boudier Bakkerlaan ;155;;;Ina Boudier Bakkerlaan  155;3582 ZA;Utrecht;3582 ZA Utrecht;Oost;Rubenslaan e.o.;Zorg;Verstandelijke beperking;Beschermd wonen, groepswonen;Verstandelijke beperking;Mensen met een verstandelijke beperking;088-2017020;IBBUtrecht@abrona.nl ;http://abrona.nl/woonondersteuning/locaties/utrecht16/ina-boudier-bakkerlaan;http://www.abrona.nl;
136738;458968;Woonvoorziening Faros;Abrona;Brandenburchdreef;5;A, B;;Brandenburchdreef 5A, B;3562 CS;Utrecht;3562 CS Utrecht;Overvecht;Neckardreef e.o.;Zorg;Verstandelijke beperking;Beschermd wonen, begeleid wonen, 24 uurszorg, groepswonen, landurige zorg;Verstandelijke beperking;Mensen met een verstandelijke beperking, alle leeftijden, verschillende behoefte aan zorg, VG GGZ ASS lichte psychiatrie;088-2017460;faros@abrona.nl;http://www.abrona.nl/woonondersteuning/locaties/utrecht16/faros;http://www.abrona.nl;
137689;457162;Woonvoorziening Nieuw Bleyenberg;Abrona;van Esveldstraat;33 - 159;;;van Esveldstraat 33 - 159;3572 KM;Utrecht;3572 KM Utrecht;Noordoost;Huizingalaan, Karel Doormanlaan e.o.;Zorg;Verstandelijke beperking;Verzorgd wonen, beschernd wonen, appartementen, 24 uurszorg;Verstandelijke beperking;Ouderen, mensen met een verstandelijke beperking, lichte psychiatrie (GGZ) ASS;088-2017480;info@abrona.nl;http://abrona.nl/woonondersteuning/locaties/utrecht16/nieuw-bleyenburg;http://www.abrona.nl;
129682;454838;Restaurant Brazzerie Abrona dagbesteding participatie;Abrona;Haarlerberg;56;C;;Haarlerberg 56C;3453 RG;De Meern;3453 RG De Meern;Vleuten - De Meern;Veldhuizen;Zorg;Verstandelijke beperking, GGZ ZG;Dagbesteding arbeid, ontwikkeling horeca en dienstverlening (schoonmaak/bediening/tuin/bakkerij) participatie traject;Verstandelijke beperking;Mensen met een verstandelijke beperking, lichte psychiatrie (GGZ) ASS, LG,ZG;030-6668867;brazzerie@abrona.nl;http://www.brazzerieabrona.nl/;http://www.abrona.nl;
129292;456314;Cultuur Campus dagbesteding participatie;Abrona;Burchtpoort ;2;;;Burchtpoort  2;3452 MD;Vleuten;3452 MD Vleuten;Vleuten - De Meern;Vleuterweide-noord/oost/centrum;Zorg;Verstandelijke beperking, GGZ ZG LG;Dagbesteding, arbeid, beleving en ontwikkeling (leren/kunst/wijkgericht) participatie traject;Verstandelijke beperking;Mensen met een verstandelijke beperking, lichte psychiatrie (GGZ) ASS, LG, ZG;088-2017237;info@abrona.nl;http://www.abrona.nl/werk-en-dagbesteding/aanbod-werk-dagbesteding/dagactiviteiten/cultuurcampus;http://www.abrona.nl;
129229;456288;DB Amadeus College;Abrona;Burchtpoort;3;;;Burchtpoort 3;3452 MD;Vleuten;3452 MD Vleuten;Vleuten - De Meern;Vleuterweide-noord/oost/centrum;Zorg;Verstandelijke beperking, GGZ ZG LG;Catering middelbare school, arbeid, ontwikkeling, participatie traject;Verstandelijke beperking;Mensen met een verstandelijke beperking, sociaal kwetsbare bewoners;088-2019911;info@abrona.nl;http://abrona.nl/nieuws/wmo/1232-horeca-op-school;http://www.abrona.nl;
135676;453331;De Parkgraaf, centrum voor revalidatie en herstel ;AxionContinu;Beneluxlaan;926;;;Beneluxlaan 926;3526 KJ;Utrecht;3526 KJ Utrecht;Zuidwest;Transwijk-zuid;Zorg;Lichamelijke gezondheidszorg;Revalidatie, behandeling, intensieve kortdurende zorg, herstelzorg, kortdurende opname;Revalidatiezorg;Revaliderenden, ouderen, mensen met lichamelijke beperkingen, volwassenen, mensen met een chronische ziekte, mensen met niet-aangeboren hersenletsel, mensen met kanker;030-2822311;deparkgraaf@axioncontinu.nl;http://www.deparkgraaf.nl;http://www.axioncontinu.nl;
135676;453331;Eerstelijns behandeling;AxionContinu;Beneluxlaan;926;;;Beneluxlaan 926;3526 KJ;Utrecht;3526 KJ Utrecht;Zuidwest;Transwijk-zuid;Zorg;Lichamelijke gezondheidszorg;Revalidatie, behandeling, activering, advisering, ondersteuning (fysiotherapie, logotherapie, dietetiek, ergotherapie);Revalidatiezorg;Revaliderenden, ouderen, mensen met lichamelijke beperkingen, volwassenen, mensen met een chronische ziekte, mensen met niet-aangeboren hersenletsel, mensen met kanker;030-2822311;deparkgraaf@axioncontinu.nl;http://www.deparkgraaf.nl;http://www.axioncontinu.nl;
135702;453253;Dagbehandeling Koningsbruggen;AxionContinu;Beneluxlaan;924;;;Beneluxlaan 924;3526 KJ;Utrecht;3526 KJ Utrecht;Zuidwest;Transwijk-zuid;Zorg;Verpleging en verzorging ouderen;Advisering, dagopvang, dagbesteding, ondersteuning, ontmoeting;Verpleging en verzorging ouderen;Ouderen, dementerenden, mensen met geheugenproblemen;030-2822300;servicebureau@axioncontinu.nl;http://www.axioncontinu.nl/koningsbruggen;http://www.axioncontinu.nl;
135174;454493;Dagactiviteitencentrum De Bijnkershoek (ook voor Turkse ouderen);AxionContinu;Van Bijnkershoeklaan;250;;;Van Bijnkershoeklaan 250;3527 XL;Utrecht;3527 XL Utrecht;Zuidwest;Transwijk-zuid;Zorg;Verpleging en verzorging ouderen;Advisering, dagopvang, dagbesteding, ondersteuning, ontmoeting;Verpleging en verzorging ouderen;Ouderen, mensen met geheugenproblemen, mensen met een chronische ziekte, Turkse en Marokkaanse ouderen;030-2968500;servicebureau@axioncontinu.nl;http://www.axioncontinu.nl/de-bijnkershoek;http://www.axioncontinu.nl;
137206;454164;Thuiszorg AxionContinu;AxionContinu;Saffierlaan;10;;;Saffierlaan 10;3523 RC;Utrecht;3523 RC Utrecht;Zuid;Tolsteeg, Rotsoord;Zorg;Thuiszorg;Thuiszorg, wijkverpleging, huishoudelijk hulp, verpleging, persoonlijke verzorging en begeleiding, wijkverpleging;Thuiszorg;Revaliderenden, ouderen, volwassenen, mensen met geheugenproblemen, dementerenden, mensen met lichamelijke beperkingen, mensen met een chronische ziekte, mensen met niet-aangeboren hersenletsel;030-2822277;servicebureau@axioncontinu.nl;http://www.utrecht.nl/wmo-in-utrecht/belangrijke-organisaties/organisaties-hulp-bij-het-huishouden/;http://www.axioncontinu.nl;
135613;457352;Team Gezinsbegeleiding;De Tussenvoorziening;Boerhaaveplein;50;;;Boerhaaveplein 50;3552 CT;Utrecht;3552 CT Utrecht;Noordwest;Ondiep;Zorg;Maatschappelijke opvang;Ambulante begeleiding, begeleid wonen, beschermd wonen;Maatschappelijke opvang;Daklozen;030-2340819;TeamGezinsbegeleiding@tussenvoorziening.nl;http://www.tussenvoorziening.nl;;
135774;453545;HAP Europalaan;De Tussenvoorziening;Europalaan;32;;;Europalaan 32;3526 KS;Utrecht;3526 KS Utrecht;Zuidwest;Transwijk-zuid;Zorg;Maatschappelijke opvang;Opvang en hulpverlening aan prostituees ;Maatschappelijke opvang;Prostituees;06-30185915 ;medewerkershap@tussenvoorziening.nl;http://www.tussenvoorziening.nl;;
134537;455916;Begeleidingsteam Centraal;De Tussenvoorziening;Keulsekade;36;;;Keulsekade 36;3531 JX;Utrecht;3531 JX Utrecht;West;Laan van Nieuw-Guinea, Spinozaplantsoen e.o.;Zorg;Maatschappelijke opvang;Ambulante begeleiding, begeleid wonen, beschermd wonen;Maatschappelijke opvang;Daklozen en ex-daklozen;030-2332286;centraleaanmelding@tussenvoorziening.nl;http://www.tussenvoorziening.nl;;
135613;457352;Begeleidingsteam Noord-West;De Tussenvoorziening;Boerhaaveplein;50;;;Boerhaaveplein 50;3552 CT;Utrecht;3552 CT Utrecht;Noordwest;Ondiep;Zorg;Maatschappelijke opvang;Ambulante begeleiding, begeleid wonen, beschermd wonen;Maatschappelijke opvang;Daklozen en ex-daklozen;030-2332286;centraleaanmelding@tussenvoorziening.nl;http://www.tussenvoorziening.nl;;
135936;459119;Begeleidingsteam Overvecht;De Tussenvoorziening;Ghanadreef;2;A;;Ghanadreef 2A;3564 EK;Utrecht;3564 EK Utrecht;Overvecht;Zambesidreef e.o.;Zorg;Maatschappelijke opvang;Ambulante begeleiding, begeleid wonen, beschermd wonen;Maatschappelijke opvang;Daklozen en ex-daklozen;06-83563140;centraleaanmelding@tussenvoorziening.nl;http://www.tussenvoorziening.nl;;
137541;456396;Begeleidingsteam Housing First;De Tussenvoorziening;Biltstraat ;118;;;Biltstraat  118;3572 BK;Utrecht;3572 BK Utrecht;Oost;Wittevrouwen;Zorg;Maatschappelijke opvang;Ambulante begeleiding, begeleid wonen, beschermd wonen;Maatschappelijke opvang;Daklozen en ex-daklozen;030-2736060;housingfirst@tussenvoorziening.nl;http://www.tussenvoorziening.nl;;
137685;456285;Vrouweninloop;De Tussenvoorziening;Adriaanstraat;26;AA;;Adriaanstraat 26AA;3581 SG ;Utrecht;3581 SG  Utrecht;Oost;Buiten Wittevrouwen;Zorg;Maatschappelijke opvang;Inloop, activering, advisering, ontmoeting, vrijwilligerswerk en dagbesteding;Maatschappelijke opvang;Vrouwen ;030-2759645;medewerkerswegwijs@tussenvoorziening.nl;http://www.tussenvoorziening.nl;;
137685;456285;Vrouweninloop;De Tussenvoorziening;Adriaanstraat;26;AA;;Adriaanstraat 26AA;3581 SG ;Utrecht;3581 SG  Utrecht;Oost;Buiten Wittevrouwen;Zorg;Geestelijke gezondheidszorg;Inloop, activering, advisering, ontmoeting, vrijwilligerswerk en dagbesteding;Geestelijke gezondheidszorg;Vrouwen ;030-2759645;medewerkerswegwijs@tussenvoorziening.nl;http://www.tussenvoorziening.nl;;
134537;455916;Inloop Keulsekade;De Tussenvoorziening;Keulsekade;36;;;Keulsekade 36;3531 JX;Utrecht;3531 JX Utrecht;West;Laan van Nieuw-Guinea, Spinozaplantsoen e.o.;Zorg;Maatschappelijke opvang;Inloop, activering, advisering, ontmoeting, vrijwilligerswerk en dagbesteding;Maatschappelijke opvang;Buurtbewoners;030-2340819;info@tussenvoorziening.nl;http://www.tussenvoorziening.nl;;
135936;459119;Inloop Ghanadreef;De Tussenvoorziening;Ghanadreef;2;A;;Ghanadreef 2A;3564 EK;Utrecht;3564 EK Utrecht;Overvecht;Zambesidreef e.o.;Zorg;Maatschappelijke opvang;Inloop, activering, advisering, ontmoeting, vrijwilligerswerk en dagbesteding;Maatschappelijke opvang;Buurtbewoners;06-83563140;info@tussenvoorziening.nl;http://www.tussenvoorziening.nl;;
135308;457421;Inloop Noord-West;De Tussenvoorziening;Ondiep;54;A;;Ondiep 54A;3552 EH;Utrecht;3552 EH Utrecht;Noordwest;Ondiep;Zorg;Maatschappelijke opvang;Inloop, activering, advisering, ontmoeting, vrijwilligerswerk en dagbesteding;Maatschappelijke opvang;Buurtbewoners;030-2340819;info@tussenvoorziening.nl;http://www.tussenvoorziening.nl;;
137685;456285;SJD;De Tussenvoorziening;Adriaanstraat;26;AA;;Adriaanstraat 26AA;3581 SG;Utrecht;3581 SG Utrecht;Oost;Buiten Wittevrouwen;Zorg;Maatschappelijke opvang;Informatie, advisering, ondersteuning, belangenbeharting;Maatschappelijke opvang;Ex-daklozen, mensen met een psychiatrische achtergrond;030-2759645;infoSJD@tussenvoorziening.nl;http://www.tussenvoorziening.nl;;
137503;456360;SGB Biltstraat;De Tussenvoorziening;Biltstraat ;101;C;;Biltstraat  101C;3572 AL;Utrecht;3572 AL Utrecht;Oost;Wittevrouwen;Zorg;Maatschappelijke opvang;Budgetbeheer en schuldhulpverlening;Maatschappelijke opvang;Clienten van MO instellingen;030-2302987;MedewerkersStadsgeldbeheer@tussenvoorziening.nl;http://www.tussenvoorziening.nl;;
135766;458755;SGB Paranadreef;De Tussenvoorziening;Paranadreef;361;;;Paranadreef 361;3563 WK;Utrecht;3563 WK Utrecht;Overvecht;Vechtzoom-zuid;Zorg;Maatschappelijke opvang;Budgetbeheer en schuldhulpverlening;Maatschappelijke opvang;Clienten van MO instellingen;030-2302987;MedewerkersStadsgeldbeheer@tussenvoorziening.nl;http://www.tussenvoorziening.nl;;
137976;456433;Centrum voor Jeugd en Gezin F.C. Dondersstraat;Centrum voor Jeugd en Gezin (CJG);F.C. Donderstraat;1;;;F.C. Donderstraat 1;3571 JA;Utrecht;3571 JA Utrecht;Noordoost;Zeeheldenbuurt, Hengeveldstraat e.o.;Zorg;Lichamelijke gezondheidszorg;CJG, Consultatiebureau, JGZ, Jeugdgezondheidszorg;Centrum voor Jeugd en Gezin;Kinderen van 0 to 18 jaar. Voor de wijken Oudwijk, Wilhelminapark, Sterrenwijk, Watervogelenbuurt, Rijnsweerd, Binnenstad, Wittevrouwen, Vogelenbuurt, Tuinwijk, Tuindorp, Voordorp.;030-2863300;;http://www.jeugdengezinutrecht.nl;;
135057;453943;Centrum voor Jeugd en Gezin Al-Masoedilaan;Centrum voor Jeugd en Gezin (CJG);Al-Masoedilaan;118;;;Al-Masoedilaan 118;3526 GZ;Utrecht;3526 GZ Utrecht;Zuidwest;Kanaleneiland-zuid;Zorg;Lichamelijke gezondheidszorg;CJG, Consultatiebureau, JGZ, Jeugdgezondheidszorg;Centrum voor Jeugd en Gezin;Kinderen van 0 to 18 jaar. Voor de wijken Kanaleneiland, Transwijk.;030-2863300;;http://www.jeugdengezinutrecht.nl;;
137936;454839;Poliklinische Apotheek Diakonessenhuis;'';Bosboomstraat;1;;;Bosboomstraat 1;3582 KT;Utrecht;3582 KT Utrecht;Oost;Rubenslaan e.o.;Zorg;Lichamelijke gezondheidszorg;Apotheek;Apotheek;;088-2505000;info@diakhuis.nl;http://www.diakonessenhuis.nl/apotheek;;
132391;457327;St. Antonius Apotheek;'';Soestwetering;1;;;Soestwetering 1;3543 AZ;Utrecht;3543 AZ Utrecht;Leidsche Rijn;Bedrijvengebied De Wetering;Zorg;Lichamelijke gezondheidszorg;Apotheek;Apotheek;;088-3207350;info@apotheekantonius.nl;www@apotheekantonius.nl;;
140771;455327;Apotheek UMC;UMC Utrecht;Heidelberglaan;100;;;Heidelberglaan 100;3584 CX;Utrecht;3584 CX Utrecht;Oost;De Uithof;Zorg;Lichamelijke gezondheidszorg;Apotheek;Apotheek;;088-7558635;apotheekumcutrecht@umcutrecht.nl;http://www.umcutrecht.nl/nl/Ziekenhuis/Afdelingen/Apotheek;;
129342;455275;Woonvoorziening Veldhof;De Rijnhoven;Bovenpolder;126;;;Bovenpolder 126;3453 NP;De Meern;3453 NP De Meern;Vleuten - De Meern;Veldhuizen;Zorg;Advisering en ondersteuning;Advisering, ondersteuning, informatie, diagnostiek, behandeling, ergotherapie;Advisering en ondersteuning;Ouderen, dementerenden, mensen met geheugenproblemen, mensen met een chronische ziekte, mensen met een ondertoezichtstelling, mensen met een psychiatrische achtergrond, mensen met niet-aangeboren hersenletsel, multiprobleem, sociaal kwetsbare bewoners;030-6662430 / 0800-7456468;info@rijnhoven.nl;http://www.derijnhoven.nl/locaties/veldhof/;http://www.rijnhoven.nl;
129374;456297;Coninckshof;De Rijnhoven;Utrechtse Heuvelrug;180;;;Utrechtse Heuvelrug 180;3452 LM;Vleuten;3452 LM Vleuten;Vleuten - De Meern;Vleuterweide-noord/oost/centrum;Zorg;Advisering en ondersteuning;Advisering, ondersteuning, informatie, diagnostiek, behandeling, ergotherapie;Advisering en ondersteuning;Ouderen, dementerenden, mensen met geheugenproblemen, mensen met een chronische ziekte, mensen met een ondertoezichtstelling, mensen met een psychiatrische achtergrond, mensen met niet-aangeboren hersenletsel, multiprobleem, sociaal kwetsbare bewoners;030-6582666 / 0800-7456468;info@rijnhoven.nl;http://www.rijnhoven.nl;;
129576;457450;Woonzorgcentrum Parkhof, Hinderstein en Bottenstein;De Rijnhoven;Alenveltpark;1;;;Alenveltpark 1;3451 CE;Vleuten;3451 CE Vleuten;Vleuten - De Meern;Vleuten;Zorg;Advisering en ondersteuning;Advisering, ondersteuning, informatie, diagnostiek, behandeling, ergotherapie;Advisering en ondersteuning;Ouderen, dementerenden, mensen met geheugenproblemen, mensen met een chronische ziekte, mensen met een ondertoezichtstelling, mensen met een psychiatrische achtergrond, mensen met niet-aangeboren hersenletsel, multiprobleem, sociaal kwetsbare bewoners;030-6778600 / 0800-7456468;info@rijnhoven.nl;http://www.rijnhoven.nl;;
130565;455001;Woonzorgcomplex Nijevelt en Zonnewijzer;De Rijnhoven;Touwslagerslaan;11;;;Touwslagerslaan 11;3454 GV;Vleuten;3454 GV Vleuten;Vleuten - De Meern;De Meern-zuid;Zorg;Advisering en ondersteuning;Advisering, ondersteuning, informatie, diagnostiek, behandeling, ergotherapie;Advisering en ondersteuning;Ouderen, dementerenden, mensen met geheugenproblemen, mensen met een chronische ziekte, mensen met een ondertoezichtstelling, mensen met een psychiatrische achtergrond, mensen met niet-aangeboren hersenletsel, multiprobleem, sociaal kwetsbare bewoners;030-6695959 / 0800-7456468;info@rijnhoven.nl;http://www.rijnhoven.nl;;http://www.toegankelijkutrecht.nl/toegankelijk/toe_view.asp?ac=info&toe_permanent_guid={629750EF-60A8-4208-9495-CAED66835C9C}&lan_id=1
129342;455275;Woonvoorziening Veldhof;De Rijnhoven;Bovenpolder;126;;;Bovenpolder 126;3453 NP;De Meern;3453 NP De Meern;Vleuten - De Meern;Veldhuizen;Zorg;Thuiszorg;Beschut wonen, dagbehandeling, dagopvang, dagbesteding, intensieve kortdurende zorg, nachtopvang, nachtzorg;Thuiszorg;Ouderen, dementerenden, mensen met geheugenproblemen, mensen met een chronische ziekte, mensen met een ondertoezichtstelling, mensen met een psychiatrische achtergrond, mensen met niet-aangeboren hersenletsel, multiprobleem, sociaal kwetsbare bewoners;030-6662430 / 0800-7456468;info@rijnhoven.nl;http://www.derijnhoven.nl/locaties/veldhof/;http://www.rijnhoven.nl;
129374;456297;Coninckshof;De Rijnhoven;Utrechtse Heuvelrug;180;;;Utrechtse Heuvelrug 180;3452 LM;Vleuten;3452 LM Vleuten;Vleuten - De Meern;Vleuterweide-noord/oost/centrum;Zorg;Thuiszorg;Beschut wonen, dagbehandeling, dagopvang, dagbesteding, intensieve kortdurende zorg, nachtopvang, nachtzorg;Thuiszorg;Ouderen, dementerenden, mensen met geheugenproblemen, mensen met een chronische ziekte, mensen met een ondertoezichtstelling, mensen met een psychiatrische achtergrond, mensen met niet-aangeboren hersenletsel, multiprobleem, sociaal kwetsbare bewoners;030-6582666 / 0800-7456468;info@rijnhoven.nl;http://www.rijnhoven.nl;;
129576;457450;Woonzorgcentrum Parkhof, Hinderstein en Bottenstein;De Rijnhoven;Alenveltpark;1;;;Alenveltpark 1;3451 CE;Vleuten;3451 CE Vleuten;Vleuten - De Meern;Vleuten;Zorg;Thuiszorg;Beschut wonen, dagbehandeling, dagopvang, dagbesteding, intensieve kortdurende zorg, nachtopvang, nachtzorg;Thuiszorg;Ouderen, dementerenden, mensen met geheugenproblemen, mensen met een chronische ziekte, mensen met een ondertoezichtstelling, mensen met een psychiatrische achtergrond, mensen met niet-aangeboren hersenletsel, multiprobleem, sociaal kwetsbare bewoners;030-6778600 / 0800-7456468;info@rijnhoven.nl;http://www.rijnhoven.nl;;
130565;455001;Woonzorgcomplex Nijevelt en Zonnewijzer;De Rijnhoven;Touwslagerslaan;11;;;Touwslagerslaan 11;3454 GV;Vleuten;3454 GV Vleuten;Vleuten - De Meern;De Meern-zuid;Zorg;Thuiszorg;Beschut wonen, dagbehandeling, dagopvang, dagbesteding, intensieve kortdurende zorg, nachtopvang, nachtzorg;Thuiszorg;Ouderen, dementerenden, mensen met geheugenproblemen, mensen met een chronische ziekte, mensen met een ondertoezichtstelling, mensen met een psychiatrische achtergrond, mensen met niet-aangeboren hersenletsel, multiprobleem, sociaal kwetsbare bewoners;030-6695959 / 0800-7456468;info@rijnhoven.nl;http://www.rijnhoven.nl;;http://www.toegankelijkutrecht.nl/toegankelijk/toe_view.asp?ac=info&toe_permanent_guid={629750EF-60A8-4208-9495-CAED66835C9C}&lan_id=1
135005;455809;Careyn Wijkteam Oog in Al;Careyn;Malakkastraat;6;;;Malakkastraat 6;3531 HM;Utrecht;3531 HM Utrecht;West;Lombok-west;Zorg;Verpleging en verzorging ouderen;Thuiszorg, huishoudelijk hulp, verpleging, persoonlijke verzorging en begeleiding, wijkverpleging;Verpleging en verzorging ouderen;Werkgebied: postcodegebied 3533;06-13647342;wijkteamwestzuid@careyn.nl;https://www.careyn.nl/locaties/utrecht/utrecht/wijkteam-oog-in-al/;http://www.careyn.nl;
135005;455809;Careyn Wijkteam Oog in Al;Careyn;Malakkastraat;6;;;Malakkastraat 6;3531 HM;Utrecht;3531 HM Utrecht;West;Lombok-west;Zorg;Thuiszorg;Thuiszorg, huishoudelijk hulp, verpleging, persoonlijke verzorging en begeleiding, wijkverpleging;Thuiszorg;Werkgebied: postcodegebied 3533;06-13647342;wijkteamwestzuid@careyn.nl;https://www.careyn.nl/locaties/utrecht/utrecht/wijkteam-oog-in-al/;http://www.careyn.nl;
135005;455809;Careyn Wijkteam Oog in Al;Careyn;Malakkastraat;6;;;Malakkastraat 6;3531 HM;Utrecht;3531 HM Utrecht;West;Lombok-west;Zorg;Palliatieve zorg;Palliatieve zorg, intensieve kortdurende zorg, ondersteuning;Palliatieve zorg;Werkgebied: postcodegebied 3533;06-13647342;wijkteamwestzuid@careyn.nl;https://www.careyn.nl/locaties/utrecht/utrecht/wijkteam-oog-in-al/;http://www.careyn.nl;
136948;453367;Careyn Wijkteam Lunetten;Careyn;Oud Wulvenlaan;6;;;Oud Wulvenlaan 6;3524 XZ;Utrecht;3524 XZ Utrecht;Zuid;Nieuw Hoograven-noord;Zorg;Verpleging en verzorging ouderen;Thuiszorg, huishoudelijk hulp, verpleging, persoonlijke verzorging en begeleiding, wijkverpleging;Verpleging en verzorging ouderen;;06-13600402;wijkteamwestzuid@careyn.nl;https://www.careyn.nl/locaties/utrecht/utrecht/wijkteam-lunetten/;http://www.careyn.nl;
136948;453367;Careyn Wijkteam Lunetten;Careyn;Oud Wulvenlaan;6;;;Oud Wulvenlaan 6;3524 XZ;Utrecht;3524 XZ Utrecht;Zuid;Nieuw Hoograven-noord;Zorg;Thuiszorg;Thuiszorg, huishoudelijk hulp, verpleging, persoonlijke verzorging en begeleiding, wijkverpleging;Thuiszorg;;06-13600402;wijkteamwestzuid@careyn.nl;https://www.careyn.nl/locaties/utrecht/utrecht/wijkteam-lunetten/;http://www.careyn.nl;
136948;453367;Careyn Wijkteam Lunetten;Careyn;Oud Wulvenlaan;6;;;Oud Wulvenlaan 6;3524 XZ;Utrecht;3524 XZ Utrecht;Zuid;Nieuw Hoograven-noord;Zorg;Palliatieve zorg;Palliatieve zorg, intensieve kortdurende zorg, ondersteuning;Palliatieve zorg;;06-13600402;wijkteamwestzuid@careyn.nl;https://www.careyn.nl/locaties/utrecht/utrecht/wijkteam-lunetten/;http://www.careyn.nl;
137925;454693;Careyn Wijkteam Oost;Careyn;Burgemeester Fockema Andreaelaan;100;;;Burgemeester Fockema Andreaelaan 100;3582 KV;Utrecht;3582 KV Utrecht;Oost;Rubenslaan e.o.;Zorg;Verpleging en verzorging ouderen;Thuiszorg, huishoudelijk hulp, verpleging, persoonlijke verzorging en begeleiding, wijkverpleging;Verpleging en verzorging ouderen;Ouderen. Werkgebied: postcodes 3581, 3582, 3583, 3584;06-13616543;wijkteamoost@careyn.nl;http://www.careyn.nl;;http://www.toegankelijkutrecht.nl/toegankelijk/toe_view.asp?ac=info&toe_permanent_guid={A565D448-B09C-41C0-98E0-6EE411C4BF3B}&lan_id=1
137925;454693;Careyn Wijkteam Oost;Careyn;Burgemeester Fockema Andreaelaan;100;;;Burgemeester Fockema Andreaelaan 100;3582 KV;Utrecht;3582 KV Utrecht;Oost;Rubenslaan e.o.;Zorg;Thuiszorg;Thuiszorg, huishoudelijk hulp, verpleging, persoonlijke verzorging en begeleiding, wijkverpleging;Thuiszorg;Werkgebied: postcodes 3581, 3582, 3583, 3584;06-13616543;wijkteamoost@careyn.nl;http://www.careyn.nl;;http://www.toegankelijkutrecht.nl/toegankelijk/toe_view.asp?ac=info&toe_permanent_guid={A565D448-B09C-41C0-98E0-6EE411C4BF3B}&lan_id=1
137925;454693;Careyn Wijkteam Oost;Careyn;Burgemeester Fockema Andreaelaan;100;;;Burgemeester Fockema Andreaelaan 100;3582 KV;Utrecht;3582 KV Utrecht;Oost;Rubenslaan e.o.;Zorg;Palliatieve zorg;Palliatieve zorg, intensieve kortdurende zorg, ondersteuning;Palliatieve zorg;Werkgebied: postcodes 3581, 3582, 3583, 3584;06-13616543;wijkteamoost@careyn.nl;http://www.careyn.nl;;http://www.toegankelijkutrecht.nl/toegankelijk/toe_view.asp?ac=info&toe_permanent_guid={A565D448-B09C-41C0-98E0-6EE411C4BF3B}&lan_id=1
135790;456920;Careyn Wijkteam Ondiep-Pijlsweerd 2, gedeelte Pijlsweerd;Careyn;Balkstraat;31;;;Balkstraat 31;3513 XL;Utrecht;3513 XL Utrecht;Noordwest;Ondiep;Zorg;Verpleging en verzorging ouderen;Thuiszorg, huishoudelijk hulp, verpleging, persoonlijke verzorging en begeleiding, wijkverpleging;Verpleging en verzorging ouderen;Ouderen. Werkgebied: Pijlsweerd, 3513 geheel, 3551 behalve 3551 VE, 3552 HD, 3552 HM, 3552 TJ, 3552 TL;06-52417534 / 06-30390432;j.korver@careyn.nl;http://www.careyn.nl;;
135790;456920;Careyn Wijkteam Ondiep-Pijlsweerd 2, gedeelte Pijlsweerd;Careyn;Balkstraat;31;;;Balkstraat 31;3513 XL;Utrecht;3513 XL Utrecht;Noordwest;Ondiep;Zorg;Thuiszorg;Thuiszorg, huishoudelijk hulp, verpleging, persoonlijke verzorging en begeleiding, wijkverpleging;Thuiszorg;Werkgebied: Pijlsweerd, 3513 geheel, 3551 behalve 3551 VE, 3552 HD, 3552 HM, 3552 TJ, 3552 TL;06-52417534 / 06-30390432;j.korver@careyn.nl;http://www.careyn.nl;;
135790;456920;Careyn Wijkteam Ondiep-Pijlsweerd 2, gedeelte Pijlsweerd;Careyn;Balkstraat;31;;;Balkstraat 31;3513 XL;Utrecht;3513 XL Utrecht;Noordwest;Ondiep;Zorg;Palliatieve zorg;Palliatieve zorg, intensieve kortdurende zorg, ondersteuning;Palliatieve zorg;Werkgebied: Pijlsweerd, 3513 geheel, 3551 behalve 3551 VE, 3552 HD, 3552 HM, 3552 TJ, 3552 TL;06-52417534 / 06-30390432;j.korver@careyn.nl;http://www.careyn.nl;;
132098;455629;Careyn Wijkteam Vleuten-Haarzuilens;Careyn;Eerste Oosterparklaan;72;;;Eerste Oosterparklaan 72;3544 AK;Utrecht;3544 AK Utrecht;Leidsche Rijn;Parkwijk-zuid;Zorg;Verpleging en verzorging ouderen;Thuiszorg, huishoudelijk hulp, verpleging, persoonlijke verzorging en begeleiding, wijkverpleging;Verpleging en verzorging ouderen;Ouderen. Werkgebied: postcodes 3455 (Haarzuilens), 3450 en 3451 behalve (3451 HJ, HG, RA, CV, CX, CK, CL, CS, CT, CR, HB);06-46441396;wijkteamvleutennoord@careyn.nl;http://www.careyn.nl;;
132098;455629;Careyn Wijkteam Vleuten-Haarzuilens;Careyn;Eerste Oosterparklaan;72;;;Eerste Oosterparklaan 72;3544 AK;Utrecht;3544 AK Utrecht;Leidsche Rijn;Parkwijk-zuid;Zorg;Thuiszorg;Thuiszorg, huishoudelijk hulp, verpleging, persoonlijke verzorging en begeleiding, wijkverpleging;Thuiszorg;Werkgebied: postcodes 3455 (Haarzuilens), 3450 en 3451 behalve (3451 HJ, HG, RA, CV, CX, CK, CL, CS, CT, CR, HB);06-46441396;wijkteamvleutennoord@careyn.nl;http://www.careyn.nl;;
132098;455629;Careyn Wijkteam Vleuten-Haarzuilens;Careyn;Eerste Oosterparklaan;72;;;Eerste Oosterparklaan 72;3544 AK;Utrecht;3544 AK Utrecht;Leidsche Rijn;Parkwijk-zuid;Zorg;Palliatieve zorg;Palliatieve zorg, intensieve kortdurende zorg, ondersteuning;Palliatieve zorg;Werkgebied: postcodes 3455 (Haarzuilens), 3450 en 3451 behalve (3451 HJ, HG, RA, CV, CX, CK, CL, CS, CT, CR, HB);06-46441396;wijkteamvleutennoord@careyn.nl;http://www.careyn.nl;;
135482;459546;Careyn Wijkteam Overvecht Vechtzoom;Careyn;Indusdreef;5;;;Indusdreef 5;3564 GV;Utrecht;3564 GV Utrecht;Overvecht;Tigrisdreef e.o.;Zorg;Verpleging en verzorging ouderen;Thuiszorg, huishoudelijk hulp, verpleging, persoonlijke verzorging en begeleiding, wijkverpleging;Verpleging en verzorging ouderen;Ouderen. Werkgebied: postcode 3563;06-13154173;wijkteamovervechtvechtzoom@careyn.nl;http://www.careyn.nl;;
135482;459546;Careyn Wijkteam Overvecht Vechtzoom;Careyn;Indusdreef;5;;;Indusdreef 5;3564 GV;Utrecht;3564 GV Utrecht;Overvecht;Tigrisdreef e.o.;Zorg;Thuiszorg;Thuiszorg, huishoudelijk hulp, verpleging, persoonlijke verzorging en begeleiding, wijkverpleging;Thuiszorg;Werkgebied: postcode 3563;06-13154173;wijkteamovervechtvechtzoom@careyn.nl;http://www.careyn.nl;;
135482;459546;Careyn Wijkteam Overvecht Vechtzoom;Careyn;Indusdreef;5;;;Indusdreef 5;3564 GV;Utrecht;3564 GV Utrecht;Overvecht;Tigrisdreef e.o.;Zorg;Palliatieve zorg;Palliatieve zorg, intensieve kortdurende zorg, ondersteuning;Palliatieve zorg;Werkgebied: postcode 3563;06-13154173;wijkteamovervechtvechtzoom@careyn.nl;http://www.careyn.nl;;
135482;459546;Careyn Wijkteam Overvecht De Gagel;Careyn;Indusdreef;5;;;Indusdreef 5;3564 GV;Utrecht;3564 GV Utrecht;Overvecht;Tigrisdreef e.o.;Zorg;Verpleging en verzorging ouderen;Thuiszorg, huishoudelijk hulp, verpleging, persoonlijke verzorging en begeleiding, wijkverpleging;Verpleging en verzorging ouderen;Ouderen. Werkgebied: postcode 3564, 3566;06-10470438;wijkteamovervechtdegagel@careyn.nl;http://www.careyn.nl;;
135482;459546;Careyn Wijkteam Overvecht De Gagel;Careyn;Indusdreef;5;;;Indusdreef 5;3564 GV;Utrecht;3564 GV Utrecht;Overvecht;Tigrisdreef e.o.;Zorg;Thuiszorg;Thuiszorg, huishoudelijk hulp, verpleging, persoonlijke verzorging en begeleiding, wijkverpleging;Thuiszorg;Werkgebied: postcode 3564, 3566;06-10470438;wijkteamovervechtdegagel@careyn.nl;http://www.careyn.nl;;
135482;459546;Careyn Wijkteam Overvecht De Gagel;Careyn;Indusdreef;5;;;Indusdreef 5;3564 GV;Utrecht;3564 GV Utrecht;Overvecht;Tigrisdreef e.o.;Zorg;Palliatieve zorg;Palliatieve zorg, intensieve kortdurende zorg, ondersteuning;Palliatieve zorg;Werkgebied: postcode 3564, 3566;06-10470438;wijkteamovervechtdegagel@careyn.nl;http://www.careyn.nl;;
129285;455216;Careyn Wijkteam Veldhuizen/Vleuterweide;Careyn;Molenpolder;20;;;Molenpolder 20;3453 NZ;De Meern;3453 NZ De Meern;Vleuten - De Meern;Veldhuizen;Zorg;Verpleging en verzorging ouderen;Thuiszorg, huishoudelijk hulp, verpleging, persoonlijke verzorging en begeleiding, wijkverpleging;Verpleging en verzorging ouderen;Ouderen. Werkgebied: Veldweide;06-13793266;wijkteamdemeernwest@careyn.nl;http://www.careyn.nl;;
129285;455216;Careyn Wijkteam Veldhuizen/Vleuterweide;Careyn;Molenpolder;20;;;Molenpolder 20;3453 NZ;De Meern;3453 NZ De Meern;Vleuten - De Meern;Veldhuizen;Zorg;Thuiszorg;Thuiszorg, huishoudelijk hulp, verpleging, persoonlijke verzorging en begeleiding, wijkverpleging;Thuiszorg;Werkgebied: Veldweide;06-13793266;wijkteamdemeernwest@careyn.nl;http://www.careyn.nl;;
129285;455216;Careyn Wijkteam Veldhuizen/Vleuterweide;Careyn;Molenpolder;20;;;Molenpolder 20;3453 NZ;De Meern;3453 NZ De Meern;Vleuten - De Meern;Veldhuizen;Zorg;Palliatieve zorg;Palliatieve zorg, intensieve kortdurende zorg, ondersteuning;Palliatieve zorg;Werkgebied: Veldweide;06-13793266;wijkteamdemeernwest@careyn.nl;http://www.careyn.nl;;
136948;453367;Careyn Wijkteam Plettenburgh;Careyn;Oud Wulvenlaan;6;;;Oud Wulvenlaan 6;3523 XZ;Utrecht;3523 XZ Utrecht;Zuid;Nieuw Hoograven-noord;Zorg;Verpleging en verzorging ouderen;Thuiszorg, huishoudelijk hulp, verpleging, persoonlijke verzorging en begeleiding, wijkverpleging;Verpleging en verzorging ouderen;Ouderen. Werkgebied: Hoograven;06-13475473;wijkteamplettenburgh@careyn.nl;http://www.careyn.nl;;
136948;453367;Careyn Wijkteam Plettenburgh;Careyn;Oud Wulvenlaan;6;;;Oud Wulvenlaan 6;3523 XZ;Utrecht;3523 XZ Utrecht;Zuid;Nieuw Hoograven-noord;Zorg;Thuiszorg;Thuiszorg, huishoudelijk hulp, verpleging, persoonlijke verzorging en begeleiding, wijkverpleging;Thuiszorg;Werkgebied: Hoograven;06-13475473;wijkteamplettenburgh@careyn.nl;http://www.careyn.nl;;
136948;453367;Careyn Wijkteam Plettenburgh;Careyn;Oud Wulvenlaan;6;;;Oud Wulvenlaan 6;3523 XZ;Utrecht;3523 XZ Utrecht;Zuid;Nieuw Hoograven-noord;Zorg;Palliatieve zorg;Palliatieve zorg, intensieve kortdurende zorg, ondersteuning;Palliatieve zorg;Werkgebied: Hoograven;06-13475473;wijkteamplettenburgh@careyn.nl;http://www.careyn.nl;;
135820;455961;De Stek;De Tussenvoorziening;Sijpesteijnkade;42;;;Sijpesteijnkade 42;3521 AJ;Utrecht;3521 AJ Utrecht;Binnenstad;Hoog Catharijne, NS, Jaarbeurs;Zorg ;Maatschappelijke opvang;24 uurs opvang;Maatschappelijke opvang;Daklozen met een harddrugs- of alcoholverslaving;030-2302987;MedewerkersDeStek@tussenvoorziening.nl;http://www.tussenvoorziening.nl;;
135820;455961;De Stek;De Tussenvoorziening;Sijpesteijnkade;42;;;Sijpesteijnkade 42;3521 AJ;Utrecht;3521 AJ Utrecht;Binnenstad;Hoog Catharijne, NS, Jaarbeurs;Zorg ;Verslavingszorg;24 uurs opvang;Verslavingszorg;Daklozen met een harddrugs- of alcoholverslaving;030-2302987;MedewerkersDeStek@tussenvoorziening.nl;http://www.tussenvoorziening.nl;;
137685;456285;Atelier SPAT;De Tussenvoorziening;Adriaanstraat;26;AA;;Adriaanstraat 26AA;3581 SG;Utrecht;3581 SG Utrecht;Oost;Buiten Wittevrouwen;Zorg ;Maatschappelijke opvang;Activering ontmoeting dagbesteding ondersteuning;Maatschappelijke opvang;Ex-daklozen, mensen met een psychiatrische achtergrond;030 2759645 of  030- 3034430;"medewerkerswegwijs@tussenvoorziening.nl;info@spatlab.com";http://www.tussenvoorziening.nl;;
137685;456285;Atelier SPAT;De Tussenvoorziening;Adriaanstraat;26;AA;;Adriaanstraat 26AA;3581 SG;Utrecht;3581 SG Utrecht;Oost;Buiten Wittevrouwen;Zorg ;Geestelijke gezondheidszorg;Activering ontmoeting dagbesteding ondersteuning;Geestelijke gezondheidszorg;Ex-daklozen, mensen met een psychiatrische achtergrond;030 2759645 of  030- 3034430;"medewerkerswegwijs@tussenvoorziening.nl;info@spatlab.com";http://www.tussenvoorziening.nl;;
