VERSIE,SUBTYPE,GEOCODE,SUBCODE,GEOCODE_NR,GEOSUBCODE,GEOCODE_NAAM,KMLINT,KMLINT_OMSCHRIJVING,KM_GEOCODE_VLAKPUNT,KM_GEOCODE_VLAKPUNT_T,OFFSET_VLAKPUNT,OFFSET_VLAKPUNT_T,REGIO_NAAM,REGIO_AFKORTING,BEHEERDER,X_VLAKPUNT,Y_VLAKPUNT,LATITUDE_VLAKPUNT,LONGITUDE_VLAKPUNT,STRAAT,HUISNUMMER,HUISLETTER,POSTCODE,WOONPLAATS,GEBWBAGID,NAAM,BGTBRONHOUDER,BGTBRONHOUDERCODE,BGTSTATUS,DOCUMENT,NUMAANDUIDINGVISUALISATIE,OPPERVLAKTE,POSITIONELE_NAUWKEURIGHEID_MM,RELATIEVEHOOGTELIGGING,STATUS,OBJECTID
01,autotransformatorstation,950,e,950,950_e,Barendrecht Vork - Rotterdam Maasvlakte,Bot-Mvt,"Rotterdam, Botlek - Rotterdam, Emplacement Maasvlakte",39.904654,"39,904654",58.016551,"58,016551",Randstad Zuid,RZ,ProRail,62289.527192,438723.7705,51.92924811,4.03922819,Europaweg,805,,3199LD,Maasvlakte Rotterdam,0599100000336806,,Rotterdam,G0599,bestaand,,,113.356,283,0,gerealiseerd,42
01,autotransformatorstation,152,b,152,152_b,Kijfhoek - Meteren Aansl.,Brgnd-Brech,Betuweroute Giessendam - Betuweroute Echteld ,41.031125,"41,031125",-31.575573,"-31,575573",Randstad Zuid,RZ,ProRail,141186.5135,428935.678045,51.84882649,5.18672624,,,,,,0236100000013568,,West Betuwe,G1960,bestaand,,,31.041,283,0,gerealiseerd,43
01,autotransformatorstation,152,a,152,152_a,Kijfhoek - Meteren Aansl.,Brppd-Brgnd,Betuweroute Papendrecht - Betuweroute Giessendam ,17.506031,"17,506031",15.979387,"15,979387",Randstad Zuid,RZ,ProRail,118424.89,427730.206,51.83696326,4.85652208,,,,,,0689100000004347,,Molenlanden,G1978,bestaand,,,29.993,283,0,gerealiseerd,44
01,autotransformatorstation,155,b,155,155_b,Meteren Aansl. - Ressen = Bemmel,Brech-Brzv,Betuweroute Echteld - Betuweroute Zevenaar ,80.365188,"80,365188",29.519928,"29,519928",Randstad Zuid,RZ,ProRail,178125.284057,436534.817,51.91681952,5.72332979,Leigraafseweg,9,,6671MC,Zetten,1734101000029799,,Overbetuwe,G1734,bestaand,,,32.216,283,0,gerealiseerd,45
01,autotransformatorstation,155,b,155,155_b,Meteren Aansl. - Ressen = Bemmel,Brech-Brzv,Betuweroute Echteld - Betuweroute Zevenaar ,87.981044,"87,981044",-20.921512,"-20,921512",Randstad Zuid,RZ,ProRail,185087.777,434104.183326,51.89463969,5.82431492,De Hoge Brugstraat,3,,6675CH,Valburg,1734101000023112,,Overbetuwe,G1734,bestaand,,,33.396,283,0,gerealiseerd,46
01,autotransformatorstation,152,b,152,152_b,Kijfhoek - Meteren Aansl.,Brgnd-Brech,Betuweroute Giessendam - Betuweroute Echteld ,25.603995,"25,603995",22.30019,"22,300190",Randstad Zuid,RZ,ProRail,125880.5805,428829.850181,51.84728611,4.96460328,,,,,,0512100000042079,,Gorinchem,G0512,bestaand,,,32.195,283,0,gerealiseerd,47
01,niet-bgt: autotransformatorstation,158,,158,158__,Ressen = Bemmel - Zevenaar,Brech-Brzv,Betuweroute Echteld - Betuweroute Zevenaar ,103.852337,"103,852337",28.836868,"28,836868",Randstad Zuid,RZ,ProRail,200221.672041,437895.787,51.92769372,6.04466563,,,,,,,,Prorail,L0004,bestaand,,,76.414,283,1,,48
01,onderstation,139,,139,139__,Zaandam - Amsterdam Sloterdijk,Zd-Sgra,Zaandam - Amsterdam Singelgracht Aansl. ,177.020008,"177,020008",-107.056495,"-107,056495",Randstad Noord,RN,ProRail,115968.7475,489239.532771,52.38961877,4.81383831,Theemsweg,20,,1043BD,Amsterdam,0363100012085889,Amsterdam Sloterdijk,Amsterdam,G0363,bestaand,,,124.16,283,0,gerealiseerd,5091
01,onderstation,216,,216,216__,Heerhugowaard - Hoorn,Hwd-Hn,Heerhugowaard - Hoorn ,12.622835,"12,622835",19.264673,"19,264673",Randstad Noord,RN,ProRail,122470.680014,521343.4885,52.67856055,4.90621436,Stationsweg,12,A,1713HE,Obdam,1598100000018764,Obdam,Koggenland,G1598,bestaand,,,78.243,283,0,gerealiseerd,5092
01,onderstation,158,,158,158__,Ressen = Bemmel - Zevenaar,Brech-Brzv,Betuweroute Echteld - Betuweroute Zevenaar ,103.868027,"103,868027",28.84384,"28,843840",Randstad Zuid,RZ,ProRail,200237.351399,437896.7545,51.92770114,6.0448937,,,,,,0299100000400852,,Rijnwaarden,G0299,bestaand,,,76.079,283,0,,5093
01,onderstation,621,,621,621__,Nieuwersluis=Loenen,Asa-Zvg,Amsterdam Amstel - Zevenaar Grens ,18.616514,"18,616514",24.659088,"24,659088",Randstad Noord,RN,ProRail,128504.639,468802.382438,52.20668768,4.9995893,Westkanaaldijk,12,,3631ND,Nieuwersluis,0329100000006145,Nieuwersluis,Stichtse Vecht,G1904,bestaand,,,285.374,283,0,gerealiseerd,5094
01,onderstation,098,,98,098__,Breukelen - Utrecht Centraal,Asa-Zvg,Amsterdam Amstel - Zevenaar Grens ,30.607614,"30,607614",27.686209,"27,686209",Randstad Noord,RN,ProRail,132883.395396,458911.969,52.11798748,5.06429099,,,,,,0344100000126899,,Utrecht,G0344,bestaand,,,63.184,283,0,gerealiseerd,5095
01,onderstation,085,,85,085__,Haarlem - Warmond,Ass-Rtd,Amsterdam Sloterdijk - Rotterdam ,38.190068,"38,190068",-9.613881,"-9,613881",Randstad Noord,RN,ProRail,93202.5705,471605.698473,52.22905645,4.48266963,,,,,,1525100000020379,Voorhout,Teylingen,G1525,bestaand,,,45.071,283,0,gerealiseerd,5096
01,onderstation,609,,609,609__,Zutphen,Ah-Zl,Arnhem - Zwolle ,29.847538,"29,847538",-30.323956,"-30,323956",Noord-Oost,NO,ProRail,211667.3845,463947.245197,52.16077795,6.21537682,Mettrayweg,10,,7202LD,Zutphen,0301100000013232,Zutphen,Zutphen,G0301,bestaand,,,75.3,283,0,gerealiseerd,5097
01,onderstation,132,,132,132__,Moordrecht Aansl. - Rotterdam Kleiweg,Ut-Rtd,Utrecht Centraal - Rotterdam Centraal ,46.627031,"46,627031",-16.38643,"-16,386430",Randstad Zuid,RZ,ProRail,97037.196052,440574.016,51.95058419,4.54406593,Aluminiumstraat,7,B,3067GS,Rotterdam,0599100010021451,Rotterdam Noord,Rotterdam,G0599,bestaand,,,64.806,283,0,gerealiseerd,5098
01,onderstation,118,,118,118__,Geldermalsen - Dordrecht,Gdm-Ddr,Geldermalsen - Dordrecht ,56.964922,"56,964922",23.806142,"23,806142",Randstad Zuid,RZ,ProRail,136116.834635,434173.8845,51.89576006,5.11286359,Industrieweg,36,x,4143HR,Leerdam,0545100000343243,Leerdam,Vijfheerenlanden,G1961,bestaand,,,59.339,283,0,gerealiseerd,5099
01,onderstation,751,,751,751__,Mariënberg,Hea-Emn,Herfte Aansl. - Emmen ,33.861689,"33,861689",-29.696772,"-29,696772",Noord-Oost,NO,ProRail,235579.839003,502969.815,52.50846638,6.57412911,,,,,,0160100001409270,,Hardenberg,G0160,bestaand,,,75.22,283,0,gerealiseerd,5100
01,onderstation,041,,41,041__,Arnhem - Elst,Ah-Vl,Arnhem - Venlo ,5.652904,"5,652904",15.264789,"15,264789",Noord-Oost,NO,ProRail,187024.8595,439710.903,51.94492482,5.85297805,,,,,,0202100000234417,Laarstraat,Arnhem,G0202,bestaand,,,48.539,283,0,gerealiseerd,5101
01,onderstation,062,,62,062__,Sittard - Roermond,Mt-Vl,Maastricht - Venlo ,38.899462,"38,899462",21.679114,"21,679114",Zuid,Z,ProRail,192813.490545,350434.9495,51.14212691,5.92753322,,,,,,1641100001094207,,Maasgouw,G1641,bestaand,,,45.173,283,0,,5102
01,onderstation,009,,9,009__,Meppel - Leeuwarden,Zl-Lw,Zwolle - Leeuwarden ,131.860015,"131,860015",-21.237181,"-21,237181",Noord-Oost,NO,ProRail,193917.6375,547707.7105,52.91505626,5.96577539,Kooiweg,5,,8477AE,Oldeholtwolde,0098100000025232,Tjonger,Weststellingwerf,G0098,bestaand,,,45.849,283,0,gerealiseerd,5103
01,onderstation,817,e,817,817_e,Vlissingen Sloehaven,Sloe-Qh,Sloehaven Emplacement - Quarleshaven ,201.351144,"201,351144",-25.457928,"-25,457928",Zuid,Z,ProRail,39723.7845,387230.335166,51.46234012,3.72831006,,,,,,0654100000093067,,Borsele,G0654,bestaand,,,64.717,283,0,gerealiseerd,5104
01,onderstation,073,,73,073__,Den Helder - Heerhugowaard,Hdr-Zd,Den Helder - Zaandam ,11.941787,"11,941787",50.69676,"50,696760",Randstad Noord,RN,ProRail,116195.886134,542614.6755,52.86929971,4.81092913,Kruiswijk,1,t,1761AR,Anna Paulowna,0366100000006688,Anna Paulowna,Hollands Kroon,G1911,bestaand,,,83.104,283,0,gerealiseerd,5105
01,onderstation,015,,15,015__,Zwolle - Kampen,Zl-Kpn,Zwolle - Kampen ,100.535931,"100,535931",-7.393963,"-7,393963",Noord-Oost,NO,ProRail,191619.553467,508014.3815,52.55851389,5.92720201,,,,,,0166100000032555,,Kampen,G0166,bestaand,,,48.997,283,0,,5106
01,onderstation,525,b,525,525_b,Amsterdam Singelgracht Aansl.,Awhv-Asd,Amsterdam Westhaven (gebied) - Amsterdam Centraal ,78.781867,"78,781867",-102.136412,"-102,136412",Randstad Noord,RN,ProRail,120122.543743,489013.6675,52.38786854,4.87487824,,,,,,0363100012208417,,Amsterdam,G0363,bestaand,,,144.98,283,0,gerealiseerd,5158
01,onderstation,543,c,543,543_c,Hengelo,Zp-Esg,Zutphen - Enschede Grens ,45.591107,"45,591107",75.208614,"75,208614",Noord-Oost,NO,ProRail,251520.692908,475765.895,52.26144929,6.80105098,,,,,,0164100000013542,Hengelo,Hengelo (O),G0164,bestaand,,,156.263,283,0,gerealiseerd,5159
01,onderstation,121,a,121,121_a,Breda - Lage Zwaluwe,Bd-Rtd,Breda - Rotterdam Centraal ,9.21505,"9,215050",27.875701,"27,875701",Zuid,Z,ProRail,107153.8175,406253.693448,51.64308119,4.69595605,Bredeweg,22,,4844PZ,Terheijden,1719100000002777,Langeweg,Drimmelen,G1719,bestaand,,,48.759,283,0,gerealiseerd,5160
01,onderstation,619,,619,619__,Heerhugowaard,Hdr-Zd,Den Helder - Zaandam ,35.080018,"35,080018",29.269318,"29,269318",Randstad Noord,RN,ProRail,116955.2806,520551.2345,52.67108329,4.82475614,,,,,,0398100000004235,Heerhugowaard,Dijk en Waard,G1980,bestaand,,,101.49,283,0,gerealiseerd,5161
01,onderstation,057,,57,057__,Eindhoven - Weert,Ehv-Wt,Eindhoven - Weert ,7.180434,"7,180434",21.771261,"21,771261",Zuid,Z,ProRail,166808.9105,380282.554636,51.41155338,5.55693852,Emopad,41,T,5663PA,Geldrop,1771100000001048,Geldrop,Geldrop-Mierlo,G1771,bestaand,,,48.878,283,0,gerealiseerd,5162
01,onderstation,100,,100,100__,Utrecht Centraal - Harmelen Aansl.,Ut-Rtd,Utrecht Centraal - Rotterdam Centraal ,3.982486,"3,982486",-70.938067,"-70,938067",Randstad Noord,RN,ProRail,132294.244,456805.0695,52.09902706,5.05582963,Belcampostraat,2,,3544NG,Utrecht,0344100000053762,,Utrecht,G0344,bestaand,,,136.433,283,0,gerealiseerd,5163
01,onderstation,100,,100,100__,Utrecht Centraal - Harmelen Aansl.,Ut-Rtd,Utrecht Centraal - Rotterdam Centraal ,8.106118,"8,106118",-39.840253,"-39,840253",Randstad Noord,RN,ProRail,128206.0985,457332.3525,52.10358343,4.99612596,,,,,,0344100000094756,Vleuten,Utrecht,G0344,bestaand,,,135.72,283,0,gerealiseerd,5164
01,onderstation,017,,17,017__,Amersfoort Aansl. - Hattemerbroek,Ama-Htba,Amersfoort Aansluiting - Hattemerbroek Aansluiting ,55.216637,"55,216637",13.916657,"13,916657",Noord-Oost,NO,ProRail,176885.085925,484162.785,52.34494228,5.70836912,,,,,,0302100000105715,Hulshorst,Nunspeet,G0302,bestaand,,,265.728,283,0,gerealiseerd,5165
01,onderstation,120,a,120,120_a,Lage Zwaluwe - Roosendaal,Zlw-Np,Lage Zwaluwe - Nispen ,9.793694,"9,793694",-35.837836,"-35,837836",Zuid,Z,ProRail,100023.695438,404179.7185,51.62378699,4.59328085,De Hoop,5,,,Hoeven,1655100000493431,Hoeven,Halderberge,G1655,bestaand,,,100.835,283,0,gerealiseerd,5166
01,onderstation,547,c,547,547_c,Lunetten Aansl.,Asa-Zvg,Amsterdam Amstel - Zevenaar Grens ,37.759837,"37,759837",-67.986743,"-67,986743",Randstad Noord,RN,ProRail,137774.85,453844.580876,52.07261595,5.1359636,Houtensepad,1000,,3524SB,Utrecht,0344100000082782,,Utrecht,G0344,bestaand,,,142.952,283,0,gerealiseerd,5167
01,onderstation,012,,12,012__,Meppel - Assen,Mp-Gn,Meppel - Groningen ,14.4816,"14,481600",20.378897,"20,378897",Noord-Oost,NO,ProRail,223401.513,525949.615,52.71662093,6.39951179,Fluitenbergseweg,99,,7932PA,Echten,1690100000011082,Echten,De Wolden,G1690,bestaand,,,44.808,283,0,gerealiseerd,5168
01,onderstation,203,,203,203__,Mariënberg - Emmen,Hea-Emn,Herfte Aansl. - Emmen ,47.249645,"47,249645",-22.541276,"-22,541276",Noord-Oost,NO,ProRail,242162.4845,513773.189502,52.60452885,6.67389729,,,,,,0160100001382097,Gramsbergen,Hardenberg,G0160,bestaand,,,100.635,283,0,gerealiseerd,5169
01,onderstation,108,,108,108__,De Haar Aansl. - Ede=Wageningen,Asa-Zvg,Amsterdam Amstel - Zevenaar Grens ,68.582264,"68,582264",20.708661,"20,708661",Noord-Oost,NO,ProRail,168030.761329,450807.116,52.0454291,5.57714938,,,,,,0228100000070278,Veenendaal-De Klomp,Ede,G0228,bestaand,,,77.761,283,0,gerealiseerd,5170
01,onderstation,118,,118,118__,Geldermalsen - Dordrecht,Gdm-Ddr,Geldermalsen - Dordrecht ,69.345706,"69,345706",-27.200976,"-27,200976",Randstad Zuid,RZ,ProRail,126709.325877,428187.646,51.84155655,4.97668285,Handelskade,9,,4205AC,Gorinchem,0512100000048448,Gorinchem,Gorinchem,G0512,bestaand,,,76.864,283,0,gerealiseerd,5171
01,onderstation,078,,78,078__,Uitgeest - Zaandam,Hdr-Zd,Den Helder - Zaandam ,67.8446,"67,844600",24.142,"24,142000",Randstad Noord,RN,ProRail,115425.658,497943.622071,52.46780424,4.80483288,,,,,,0479100000037027,Koog-Zaandijk,Zaanstad,G0479,bestaand,,,47.019,283,0,,5172
01,onderstation,613,,613,613__,Ede=Wageningen,Asa-Zvg,Amsterdam Amstel - Zevenaar Grens ,75.115431,"75,115431",12.881195,"12,881195",Noord-Oost,NO,ProRail,174300.665354,448955.7515,52.02860599,5.6684388,,,,,,0228100000071139,Ede-Wageningen,Ede,G0228,bestaand,,,240.664,283,0,gerealiseerd,5173
01,onderstation,102,,102,102__,Woerden - Alphen a/d Rijn,Wd-Ledn,Woerden - Leiden Centraal ,12.5,"12,500000",17.870384,"17,870384",Randstad Zuid,RZ,ProRail,109116.030138,457523.121,52.10404453,4.71748064,Spoorlaan,49,,2471PD,Zwammerdam,0484100000000181,Zwammerdam,Alphen aan den Rijn,G0484,bestaand,,,59.718,283,0,gerealiseerd,5226
01,onderstation,203,,203,203__,Mariënberg - Emmen,Hea-Emn,Herfte Aansl. - Emmen ,60.220615,"60,220615",37.867443,"37,867443",Noord-Oost,NO,ProRail,248416.9555,524588.54234,52.70066769,6.7692522,,,,,,0109100000005629,Dalen,Coevorden,G0109,bestaand,,,70.538,283,0,gerealiseerd,5227
01,onderstation,036,,36,036__,Ede=Wageningen - Arnhem,Asa-Zvg,Amsterdam Amstel - Zevenaar Grens ,82.829592,"82,829592",-15.339877,"-15,339877",Noord-Oost,NO,ProRail,181700.651268,446750.297,52.00847635,5.776092,,,,,,0274100000003837,Wolfheze,Renkum,G0274,bestaand,,,96.211,283,0,gerealiseerd,5228
01,onderstation,161,,161,161__,Lelystad Industrieterrein - Hattemerbroek,Llsoa-Zl,Lelystad Opstelterrein Aansl. - Zwolle ,27.291553,"27,291553",17.404358,"17,404358",Randstad Noord,RN,ProRail,184227.606974,504159.765,52.52431824,5.81786429,Oudebosweg,19,,,Dronten,0303100000643923,Drontermeer West OS,Dronten,G0303,bestaand,,,141.588,283,0,,5229
01,onderstation,606,b,606,606_b,Almelo,Dv-Aml,Deventer - Almelo ,37.459258,"37,459258",20.465781,"20,465781",Noord-Oost,NO,ProRail,240708.4,486853.778,52.36287299,6.64552985,,,,,,0141100000047485,Almelo,Almelo,G0141,bestaand,,,149.568,283,0,gerealiseerd,5230
01,onderstation,073,,73,073__,Den Helder - Heerhugowaard,Hdr-Zd,Den Helder - Zaandam ,21.553613,"21,553613",29.321326,"29,321326",Randstad Noord,RN,ProRail,115779.629,533041.896248,52.78324662,4.80589148,,,,,,0441100000002443,Schagen,Harenkarspel,G0441,bestaand,,,168.967,283,0,gerealiseerd,5231
01,onderstation,127,a,127,127_a,Roosendaal - Vlissingen,Rsd-Vs,Roosendaal - Vlissingen ,34.518728,"34,518728",-35.577001,"-35,577001",Zuid,Z,ProRail,64128.198192,385113.04,51.44777523,4.07995117,Nieuwlandse Binnendijk,10,B,4415AB,Oostdijk,0703100000011590,Oostdijk,Reimerswaal,G0703,bestaand,,,159.173,283,0,gerealiseerd,5232
01,onderstation,542,b,542,542_b,Dordrecht,Gdm-Ddr,Geldermalsen - Dordrecht ,93.564913,"93,564913",-17.50262,"-17,502620",Randstad Zuid,RZ,ProRail,105947.267356,424425.536,51.80630367,4.67596063,,,,,,0505100000073029,,Dordrecht,G0505,bestaand,,,86.754,283,0,,5233
01,onderstation,024,,24,024__,Deventer - Wierden,Dv-Aml,Deventer - Almelo ,26.767954,"26,767954",12.954339,"12,954339",Noord-Oost,NO,ProRail,232663.968,481471.060962,52.31569978,6.52620711,Molendijk Noord,49,B,7461JG,Rijssen,1742100000013198,Rijssen,Rijssen-Holten,G1742,bestaand,,,199.798,283,0,,5234
01,onderstation,203,,203,203__,Mariënberg - Emmen,Hea-Emn,Herfte Aansl. - Emmen ,73.112436,"73,112436",-23.958441,"-23,958441",Noord-Oost,NO,ProRail,257031.49,532581.770976,52.77093264,6.89913192,Westerbracht,21,,7821CD,Emmen,0114100000264863,Emmen,Emmen,G0114,bestaand,,,86.597,283,0,gerealiseerd,5235
01,onderstation,532,,532,532__,Harmelen Aansl.,Ut-Rtd,Utrecht Centraal - Rotterdam Centraal ,11.190623,"11,190623",-84.549586,"-84,549586",Randstad Noord,RN,ProRail,125213.6185,457347.611735,52.10356762,4.95244825,Breudijk,23,,3481LM,Harmelen,0632100000025726,Harmelen Aansluiting,Woerden,G0632,bestaand,,,110.844,283,0,gerealiseerd,5236
01,onderstation,152,a,152,152_a,Kijfhoek - Meteren Aansl.,Brppd-Brgnd,Betuweroute Papendrecht - Betuweroute Giessendam ,5.926417,"5,926417",-29.192831,"-29,192831",Randstad Zuid,RZ,ProRail,107423.803906,428629.2825,51.84421403,4.69678966,,,,,,1927100000023072,,Molenlanden,G1978,bestaand,,,147.938,283,0,,5237
01,onderstation,028,,28,028__,Hengelo - Enschede Grens,Zp-Esg,Zutphen - Enschede Grens ,52.765465,"52,765465",42.690985,"42,690985",Noord-Oost,NO,ProRail,256964.124422,471463.6105,52.22181098,6.87946496,Tubantiasingel,6,,,Enschede,0153100000270865,Enschede,Enschede,G0153,bestaand,,,101.93,283,0,gerealiseerd,5238
01,onderstation,085,,85,085__,Haarlem - Warmond,Ass-Rtd,Amsterdam Sloterdijk - Rotterdam ,23.106216,"23,106216",-25.531085,"-25,531085",Randstad Noord,RN,ProRail,101232.043106,484165.2295,52.34277073,4.59818584,,,,,,0397100000010656,Iepenrode,,G0397,bestaand,,,48.911,283,0,gerealiseerd,5239
01,onderstation,011,,11,011__,Assen - Haren,Mp-Gn,Meppel - Groningen ,67.431785,"67,431785",24.119526,"24,119526",Noord-Oost,NO,ProRail,238351.475,573673.132516,53.14331086,6.632908,,,,,,0017100000006649,Glimmen,Groningen,G0014,bestaand,,,64.477,283,0,gerealiseerd,5240
01,onderstation,514,a,514,514_a,Nijmegen,Ah-Vl,Arnhem - Venlo ,16.762967,"16,762967",81.573063,"81,573063",Noord-Oost,NO,ProRail,187063.217938,428676.300905,51.84574319,5.85250815,Eerste Oude Heselaan,5,,6541PA,Nijmegen,0268100000049209,Nijmegen,Nijmegen,G0268,bestaand,,,228.952,283,0,gerealiseerd,5241
01,onderstation,117,,117,117__,Lunetten - Geldermalsen,Ut-Btl,Utrecht Centraal - Boxtel ,7.964862,"7,964862",-20.919566,"-20,919566",Randstad Noord,RN,ProRail,140168.8275,448997.542531,52.02911988,5.17109127,Stationserf,151,,3991KX,Houten,0321100000004520,Houten,Houten,G0321,bestaand,,,73.148,283,0,gerealiseerd,5290
01,onderstation,139,,139,139__,Zaandam - Amsterdam Sloterdijk,Zd-Sgra,Zaandam - Amsterdam Singelgracht Aansl. ,171.672588,"171,672588",31.607422,"31,607422",Randstad Noord,RN,ProRail,116141.8895,494213.719203,52.4343347,4.81580536,Albert Heijnweg,10,,1507EH,Zaandam,0479100000011308,Zaandam,Zaanstad,G0479,bestaand,,,80.846,283,0,gerealiseerd,5291
01,onderstation,021,,21,021__,Barneveld Noord - Apeldoorn,Asd-Zp,Amsterdam Centraal - Zutphen ,81.663754,"81,663754",-24.436173,"-24,436173",Noord-Oost,NO,ProRail,189111.488138,467253.8975,52.19235091,5.88607891,Willemsbos,9,,,Ugchelen,0200100003910044,Assel,Apeldoorn,G0200,bestaand,,,47.572,283,0,gerealiseerd,5292
01,onderstation,125,,125,125__,Tilburg - Boxtel,Bd-Ehv,Breda - Eindhoven ,28.565195,"28,565195",27.829722,"27,829722",Zuid,Z,ProRail,140025.578711,398717.1375,51.57717973,5.17117847,,,,,,0824100000020345,Oisterwijk,Oisterwijk,G0824,bestaand,,,78.109,283,0,gerealiseerd,5293
01,onderstation,063,,63,063__,Maastricht - Sittard,Mt-Vl,Maastricht - Venlo ,11.93051,"11,930510",9.053115,"9,053115",Zuid,Z,ProRail,181178.432818,328219.01,50.94309065,5.75966088,Terhagen,5,a,,Elsloo,0971100000002466,,Stein,G0971,bestaand,,,46.168,283,0,gerealiseerd,5294
01,onderstation,107,,107,107__,Moordrecht Aansl. - Den Haag Binckhorst,Gd-Gvc,Gouda - Den Haag Centraal ,13.765624,"13,765624",106.47018,"106,470180",Randstad Zuid,RZ,ProRail,92729.884211,451510.5095,52.04840718,4.47943048,Kinderen van Versteegplein,87,,2713HE,Zoetermeer,0637100000297357,Driemanspolder,Zoetermeer,G0637,bestaand,,,132.72,283,0,gerealiseerd,5295
01,onderstation,097,,97,097__,Nieuwersluis=Loenen - Breukelen,Asa-Zvg,Amsterdam Amstel - Zevenaar Grens ,22.102442,"22,102442",-25.612591,"-25,612591",Randstad Noord,RN,ProRail,127943.7395,465351.630355,52.17564615,4.99165896,,,,,,1904100000040782,Breukelen,Stichtse Vecht,G1904,bestaand,,,72.446,283,0,gerealiseerd,5296
01,onderstation,073,,73,073__,Den Helder - Heerhugowaard,Hdr-Zd,Den Helder - Zaandam ,7.158836,"7,158836",31.41943,"31,419430",Randstad Noord,RN,ProRail,114620.831,546365.087075,52.90288586,4.78707648,,,,,,0400100000040038,Koegras,,G0400,bestaand,,,45.107,283,0,,5297
01,onderstation,017,,17,017__,Amersfoort Aansl. - Hattemerbroek,Ama-Htba,Amersfoort Aansluiting - Hattemerbroek Aansluiting ,32.769402,"32,769402",19.603004,"19,603004",Noord-Oost,NO,ProRail,162518.689,470766.985247,52.22492956,5.49724329,,,,,,0267100000011352,Nijkerk,Nijkerk,G0267,bestaand,,,101.549,283,0,,5298
01,onderstation,017,,17,017__,Amersfoort Aansl. - Hattemerbroek,Ama-Htba,Amersfoort Aansluiting - Hattemerbroek Aansluiting ,37.726201,"37,726201",-12.668819,"-12,668819",Noord-Oost,NO,ProRail,166513.1135,473655.739805,52.25082398,5.55580175,,,,,,0273100000009455,,Putten,G0273,bestaand,,,76.213,283,0,,5299
01,onderstation,135,,135,135__,Weesp Aansl. - Lelystad Industrieterrein,Wp-Llso,Weesp - Lelystad Opstel. ,17.492959,"17,492959",23.801951,"23,801951",Randstad Noord,RN,ProRail,145792.880846,487829.7435,52.37825868,5.25198806,Vincent van Goghstraat,15,,,Almere,0034100000049140,Hoge Vaart,Almere,G0034,bestaand,,,57.897,283,0,,5300
01,onderstation,135,,135,135__,Weesp Aansl. - Lelystad Industrieterrein,Wp-Llso,Weesp - Lelystad Opstel. ,22.797849,"22,797849",22.862277,"22,862277",Randstad Noord,RN,ProRail,149848.923069,491116.493,52.40785138,5.31150493,,,,,,0034100000001767,Almere Oost,Almere,G0034,bestaand,,,105.846,283,0,,5301
01,onderstation,217,,217,217__,Hoorn - Enkhuizen,Zd-Ekz,Zaandam - Enkhuizen ,49.081966,"49,081966",-15.556645,"-15,556645",Randstad Noord,RN,ProRail,147433.166345,523414.044,52.69808774,5.27527021,Flevolaan,3,,1601MA,Enkhuizen,0388100000232064,Enkhuizen,Enkhuizen,G0388,bestaand,,,54.332,283,0,,5302
01,onderstation,123,,123,123__,Breda - Tilburg,Bd-Ehv,Breda - Eindhoven ,5.59794,"5,597940",32.411982,"32,411982",Zuid,Z,ProRail,117833.586346,400834.6215,51.59518276,4.85081842,Parallelweg,8,,,Dorst,0826100000011758,Dorst,Oosterhout,G0826,bestaand,,,58.085,283,0,,5303
01,onderstation,206,,206,206__,Zwolle - Wierden,Zl-Wdn,Zwolle - Wierden ,32.966684,"32,966684",26.660156,"26,660156",Noord-Oost,NO,ProRail,230103.672026,486904.1745,52.3648789,6.4898777,Baron van Sternbachlaan,1,,,Nijverdal,0163100000585411,,Hellendoorn,G0163,bestaand,,,98.555,283,0,Nijverdal,5304
01,onderstation,620,,620,620__,Alkmaar,Hdr-Zd,Den Helder - Zaandam ,42.18317,"42,183170",-38.020245,"-38,020245",Randstad Noord,RN,ProRail,111000.94843,516822.1725,52.63712326,4.73722837,,,,,,0361100000023223,Alkmaar,Alkmaar,G0361,bestaand,,,289.34,283,0,,5305
01,onderstation,123,,123,123__,Breda - Tilburg,Bd-Ehv,Breda - Eindhoven ,19.610478,"19,610478",-19.521194,"-19,521194",Zuid,Z,ProRail,131462.83491,397437.34,51.56538297,5.04773891,Hogeschoollaan,1,a,5037BE,Tilburg,0855100000574821,,Tilburg,G0855,bestaand,,,198.465,283,0,,5350
01,onderstation,206,,206,206__,Zwolle - Wierden,Zl-Wdn,Zwolle - Wierden ,21.609914,"21,609914",11.47344,"11,473440",Noord-Oost,NO,ProRail,218829.271245,488282.5695,52.37869255,6.32463176,de Jongstraat,8,a,8106AM,Mariënheem,0177100000247782,Raalte,Raalte,G0177,bestaand,,,98.179,283,0,,5351
01,onderstation,054,a,54,054_a,Boxtel - Eindhoven,Bd-Ehv,Breda - Eindhoven ,44.274914,"44,274914",32.364424,"32,364424",Zuid,Z,ProRail,152922.2345,395148.857377,51.54530138,5.35724824,,,,,,0757100001445616,,Boxtel,G0757,bestaand,,,63.998,283,0,gerealiseerd,5352
01,onderstation,127,a,127,127_a,Roosendaal - Vlissingen,Rsd-Vs,Roosendaal - Vlissingen ,62.854234,"62,854234",14.899551,"14,899551",Zuid,Z,ProRail,37391.720311,391888.4315,51.5037136,3.69320667,,,,,,0687100006587410,Arnemuiden,Middelburg,G0687,bestaand,,,61.561,283,0,,5353
01,onderstation,057,,57,057__,Eindhoven - Weert,Ehv-Wt,Eindhoven - Weert ,23.217464,"23,217464",27.007936,"27,007936",Zuid,Z,ProRail,173297.427,365678.707439,51.28011139,5.64944672,,,,,,0988100000005353,Boshoven,Weert,G0988,bestaand,,,55.572,283,0,gerealiseerd,5354
01,onderstation,059,,59,059__,Weert - Roermond,Bdl-Rm,Budel - Roermond ,87.090617,"87,090617",-13.306877,"-13,306877",Zuid,Z,ProRail,198094.4045,357339.510853,51.20381188,6.00382371,,,,,,0957100000224224,,Roermond,G0957,bestaand,,,157.799,283,0,,5355
01,onderstation,206,,206,206__,Zwolle - Wierden,Zl-Wdn,Zwolle - Wierden ,12.274049,"12,274049",12.075599,"12,075599",Noord-Oost,NO,ProRail,211615.007189,493750.6915,52.42862482,6.21961404,Stationsweg,33,a,8141SK,Heino,0177100000247854,Heino,Raalte,G0177,bestaand,,,98.667,283,0,gerealiseerd,5356
01,onderstation,505,a,505,505_a,Amersfoort Aansl.,Ama-Htba,Amersfoort Aansluiting - Hattemerbroek Aansluiting ,23.624948,"23,624948",30.608095,"30,608095",Randstad Noord,RN,ProRail,155714.427,464749.48858,52.17089608,5.39764687,Zielhorsterweg,2,,3813ZX,Amersfoort,0307100000522335,Amersfoort aansluiting,Amersfoort,G0307,bestaand,,,85.576,283,0,,5357
01,onderstation,109,,109,109__,Rhenen - De Haar Aansl.,Rhn-Har,Rhenen - De Haar Aansl. ,26.876907,"26,876907",25.982515,"25,982515",Randstad Noord,RN,ProRail,167717.16554,443872.58,51.98310815,5.57232031,Zuidelijke Meentsteeg,4,N,,Rhenen,0340100000333629,Achterberg,Rhenen,G0340,bestaand,,,78.042,283,0,,5358
01,onderstation,116,c,116,116_c,Dordrecht - Rotterdam Barendrecht,Brda-Bdgr,Barendrecht Aansl. - Breda Grens ,212.35104,"212,351040",21.454072,"21,454072",Randstad Zuid,RZ,ProRail,99045.390085,428414.8555,51.84150899,4.57524994,,,,,,0642100000024460,,Zwijndrecht,G0642,bestaand,,,118.917,283,0,,5359
01,onderstation,528,a,528,528_a,Hilversum,Hvs-Utm,Hilversum - Utrecht Maliebaan ,0.723542,"0,723542",19.376441,"19,376441",Randstad Noord,RN,ProRail,141296.156,470303.893295,52.22064878,5.18666075,Oude Amersfoortseweg,77,,,Hilversum,0402100001526416,,,G0402,bestaand,,,463.598,283,0,,5360
01,onderstation,103,,103,103__,Alphen a/d Rijn - Leiden Centraal,Wd-Ledn,Woerden - Leiden Centraal ,22.339389,"22,339389",-8.420587,"-8,420587",Randstad Zuid,RZ,ProRail,100368.151716,459857.312,52.1242281,4.58943303,,,,,,1672100000007392,,Alphen aan den Rijn,G0484,bestaand,,,58.295,283,0,,5361
01,niet-bgt: onderstation,121,a,121,121_a,Breda - Lage Zwaluwe,Bd-Rtd,Breda - Rotterdam Centraal ,2.777254,"2,777254",-37.744863,"-37,744863",Zuid,Z,ProRail,110227.715658,400777.83318,51.59411749,4.74106439,,,,,,,Breda Prinsenbeek,Prorail,L0004,bestaand,,,64.89,283,0,,5362
01,niet-bgt: onderstation,020,,20,020__,Amersfoort Aansl. - Barneveld Noord,Asd-Zp,Amsterdam Centraal - Zutphen ,53.771085,"53,771085",-10.112194,"-10,112194",Noord-Oost,NO,ProRail,162232.225145,463962.5725,52.16377633,5.49290542,,,,,,,Terschuur,Prorail,L0004,bestaand,,,47.774,283,0,,5363
01,niet-bgt: onderstation,135,,135,135__,Weesp Aansl. - Lelystad Industrieterrein,Wp-Llso,Weesp - Lelystad Opstel. ,37.212877,"37,212877",-25.770908,"-25,770908",Randstad Noord,RN,ProRail,160342.405,499606.204889,52.48414992,5.46585148,,,,,,,Lelystad Zuid,Prorail,L0004,bestaand,,,75.669,283,0,,5364
01,niet-bgt: onderstation,118,,118,118__,Geldermalsen - Dordrecht,Gdm-Ddr,Geldermalsen - Dordrecht ,81.301914,"81,301914",22.264158,"22,264158",Randstad Zuid,RZ,ProRail,115510.411744,426952.993,51.82977894,4.81432572,,,,,,,Hardinxveld,Prorail,L0004,bestaand,,,67.709,283,0,,5365
01,niet-bgt: onderstation,095,,95,095__,Hilversum - Blauwkapel,Hvs-Utm,Hilversum - Utrecht Maliebaan ,7.514183,"7,514183",-11.784993,"-11,784993",Randstad Noord,RN,ProRail,140084.4135,463704.894134,52.16130675,5.16921813,,,,,,,Maartensdijk,Prorail,L0004,bestaand,,,46.58,283,0,,5410
01,niet-bgt: onderstation,039,,39,039__,Zevenaar - Zevenaar Grens,Asa-Zvg,Amsterdam Amstel - Zevenaar Grens ,107.577778,"107,577778",-19.21237,"-19,212370",Randstad Zuid,RZ,ProRail,203695.955,436758.7925,51.91718131,6.09501249,,,,,,,,Prorail,L0004,bestaand,,,24.394,283,0,,5411
01,niet-bgt: onderstation,133,a,133,133_a,Amsterdam Riekerpolder - Warmond,Asra-Wmd,Amsterdam Riekerpolder Aansl. - Warmond ,11.438406,"11,438406",-120.469621,"-120,469621",Randstad Noord,RN,ProRail,114257.489378,482161.7565,52.32588507,4.7895587,,,,,,,Schipholweg,Prorail,L0004,bestaand,,,90.861,283,0,,5412
01,niet-bgt: onderstation,133,a,133,133_a,Amsterdam Riekerpolder - Warmond,Asra-Wmd,Amsterdam Riekerpolder Aansl. - Warmond ,24.666728,"24,666728",-15.353682,"-15,353682",Randstad Noord,RN,ProRail,104106.181,474498.110274,52.25616532,4.6418173,,,,,,,Nieuw-Vennep,Prorail,L0004,bestaand,,,57.132,283,0,,5413
01,niet-bgt: onderstation,011,,11,011__,Assen - Haren,Mp-Gn,Meppel - Groningen ,69.672223,"69,672223",87.356417,"87,356417",Noord-Oost,NO,Derden - Overig,237922.463,575858.259658,53.16300853,6.62705965,,,,,,,,Prorail,L0004,bestaand,,,145.936,283,1,,5414
01,niet-bgt: onderstation,009,,9,009__,Meppel - Leeuwarden,Zl-Lw,Zwolle - Leeuwarden ,143.708967,"143,708967",-14.129837,"-14,129837",Noord-Oost,NO,ProRail,187069.9595,557425.9723,53.00283458,5.86493495,,,,,,,Stobbega,Prorail,L0004,bestaand,,,193.333,283,0,,5415
01,niet-bgt: onderstation,079,,79,079__,Zaandam - Hoorn,Zd-Ekz,Zaandam - Enkhuizen ,17.80051,"17,800510",-8.943435,"-8,943435",Randstad Noord,RN,ProRail,128599.3215,504879.6535,52.53093296,4.99814139,,,,,,,Kwadijk,Prorail,L0004,bestaand,,,21.024,283,0,,5416
01,niet-bgt: onderstation,079,,79,079__,Zaandam - Hoorn,Zd-Ekz,Zaandam - Enkhuizen ,5.781682,"5,781682",-14.61387,"-14,613870",Randstad Noord,RN,ProRail,119846.5605,497343.637,52.46271376,4.86995076,,,,,,,Oostzaan,Prorail,L0004,bestaand,,,50.344,283,0,,5417
01,onderstation,011,,11,011__,Assen - Haren,Mp-Gn,Meppel - Groningen ,54.085968,"54,085968",-13.850078,"-13,850078",Noord-Oost,NO,ProRail,236987.8105,560502.7655,53.02519508,6.60919627,,,,,,0106100000046780,,Assen,G0106,bestaand,,,137.056,283,0,,5465
01,onderstation,161,,161,161__,Lelystad Industrieterrein - Hattemerbroek,Llsoa-Zl,Lelystad Opstelterrein Aansl. - Zwolle ,17.751452,"17,751452",21.456859,"21,456859",Randstad Noord,RN,ProRail,174995.75882,506245.7595,52.54348131,5.68196336,Elandweg,37,,,Swifterbant,0303100000645481,,Dronten,G0303,bestaand,,,146.599,283,0,gerealiseerd,5466
01,onderstation,046,,46,046__,Meteren Aansl. - s Hertogenbosch,Ut-Btl,Utrecht Centraal - Boxtel ,33.495618,"33,495618",27.818265,"27,818265",Zuid,Z,ProRail,146389.2735,425256.733574,51.81586347,5.26232563,Waalbandijk,1,,,Zaltbommel,0297100000002522,,Zaltbommel,G0297,bestaand,,,74.242,283,0,gerealiseerd,5467
01,onderstation,112,,112,112__,Den Haag HS - Schiedam Centrum,Ass-Rtd,Amsterdam Sloterdijk - Rotterdam ,62.616335,"62,616335",-15.283411,"-15,283411",Randstad Zuid,RZ,ProRail,81103.0885,452839.585824,52.05892313,4.30967417,Waldorpstraat,511,,,'s-Gravenhage,0518100000209570,Laakkanaal,'s-Gravenhage,G0518,bestaand,,,63.241,283,0,gerealiseerd,5511
01,onderstation,035,,35,035__,Lunetten - De Haar Aansl.,Asa-Zvg,Amsterdam Amstel - Zevenaar Grens ,50.869096,"50,869096",-11.32107,"-11,321070",Randstad Noord,RN,ProRail,150622.59256,453052.846,52.06575013,5.32336583,,,,,,1581100000326217,Driebergen Austerlitz,Utrechtse Heuvelrug,G1581,bestaand,,,128.562,283,0,gerealiseerd,5512
01,onderstation,626,c,626,626_c,Hoorn,Zd-Ekz,Zaandam - Enkhuizen ,32.230938,"32,230938",76.976067,"76,976067",Randstad Noord,RN,ProRail,132243.381212,517690.085,52.64622428,5.05096547,,,,,,0000000000000000,Hoorn,,G0405,bestaand,,,99.662,283,0,gerealiseerd,5513
01,onderstation,950,a,950,950_a,Barendrecht Vork - Rotterdam Maasvlakte,Whz-Bot,"Rotterdam, Emplacement Waalhaven Zuid - Rotterdam, Botlek",12.874936,"12,874936",66.204676,"66,204676",Randstad Zuid,RZ,ProRail,84161.0515,432588.982,51.8773302,4.35843742,Petroleumweg,126,,3196KD,Vondelingenplaat Rotterdam,0599100000085151,,Rotterdam,G0599,bestaand,,,56.868,283,0,gerealiseerd,5514
01,onderstation,128,,128,128__,Diemen Aansl. - Weesp Aansl.,Asd-Zp,Amsterdam Centraal - Zutphen ,13.376665,"13,376665",-27.520929,"-27,520929",Randstad Noord,RN,ProRail,131782.9427,480307.286,52.31023718,5.04675853,Stationsweg,30,a,1382AB,Weesp,0457100000057609,Weesp,Amsterdam,G0363,bestaand,,,96.513,283,0,gerealiseerd,5515
01,onderstation,087,,87,087__,Weesp Aansl. - Hilversum,Asd-Zp,Amsterdam Centraal - Zutphen ,16.423078,"16,423078",-26.295681,"-26,295681",Randstad Noord,RN,ProRail,134379.468969,478806.6455,52.29685348,5.08492412,Keverdijk,1,b,1381HL,Weesp,0457100000059960,Keverdijk,Amsterdam,G0363,bestaand,,,62.749,283,0,gerealiseerd,5516
01,onderstation,085,,85,085__,Haarlem - Warmond,Ass-Rtd,Amsterdam Sloterdijk - Rotterdam ,31.647978,"31,647978",51.683576,"51,683576",Randstad Noord,RN,ProRail,96931.198242,476838.9525,52.27649283,4.53634127,Stationsweg,61,,,Lisse,0553100000005918,Lisse,Lisse,G0553,bestaand,,,528.454,283,0,gerealiseerd,5517
01,onderstation,585,,585,585__,Diemen Aansl.,Asd-Zp,Amsterdam Centraal - Zutphen ,9.619242,"9,619242",-31.653959,"-31,653959",Randstad Noord,RN,ProRail,128750.136444,482524.941,52.33003201,5.00211488,,,,,,0384100000000573,Gaasperdam,Diemen,G0384,bestaand,,,60.942,283,0,gerealiseerd,5518
01,onderstation,135,,135,135__,Weesp Aansl. - Lelystad Industrieterrein,Wp-Llso,Weesp - Lelystad Opstel. ,42.878869,"42,878869",-29.288294,"-29,288294",Randstad Noord,RN,ProRail,161065.851,505095.688382,52.53347796,5.47660148,Zuigerplasdreef,190,,8223EX,Lelystad,0995100000817680,Lelystad Noord,Lelystad,G0995,bestaand,,,361.736,283,0,gerealiseerd,5519
01,onderstation,161,,161,161__,Lelystad Industrieterrein - Hattemerbroek,Llsoa-Zl,Lelystad Opstelterrein Aansl. - Zwolle ,7.541794,"7,541794",17.264916,"17,264916",Randstad Noord,RN,ProRail,164868.758492,506660.8825,52.54748916,5.5326938,,,,,,0995100000817941,,Lelystad,G0995,bestaand,,,142.412,283,0,gerealiseerd,5520
01,onderstation,135,,135,135__,Weesp Aansl. - Lelystad Industrieterrein,Wp-Llso,Weesp - Lelystad Opstel. ,12.719295,"12,719295",21.293221,"21,293221",Randstad Noord,RN,ProRail,141324.011798,486471.5315,52.36595866,5.18641356,,,,,,0034100000070629,Almere West,Almere,G0034,bestaand,,,72.608,283,0,gerealiseerd,5521
01,onderstation,204,,204,204__,Herfte Aansl. - Mariënberg,Hea-Emn,Herfte Aansl. - Emmen ,12.341071,"12,341071",-20.351516,"-20,351516",Noord-Oost,NO,ProRail,214403.792183,501441.022,52.49743906,6.26197931,Millingersteeg,1,C,7722JK,Dalfsen,0148100000002662,Dalfsen,Dalfsen,G0148,bestaand,,,77.106,283,0,gerealiseerd,5522
01,onderstation,118,,118,118__,Geldermalsen - Dordrecht,Gdm-Ddr,Geldermalsen - Dordrecht ,87.776211,"87,776211",13.25281,"13,252810",Randstad Zuid,RZ,ProRail,110526.644,425666.383235,51.81783994,4.7421957,Baanhoekweg,50,T,,Dordrecht,0505100000001548,Sliedrecht,Dordrecht,G0505,bestaand,,,63.41,283,0,gerealiseerd,5523
01,onderstation,107,,107,107__,Moordrecht Aansl. - Den Haag Binckhorst,Gd-Gvc,Gouda - Den Haag Centraal ,20.068542,"20,068542",-18.573009,"-18,573009",Randstad Zuid,RZ,ProRail,86531.6125,452466.388,52.05626662,4.38889315,Monarchielaan,4,T,,'s-Gravenhage,0518100000344377,Voorburg,'s-Gravenhage,G0518,bestaand,,,64.424,283,0,gerealiseerd,5524
01,onderstation,017,,17,017__,Amersfoort Aansl. - Hattemerbroek,Ama-Htba,Amersfoort Aansluiting - Hattemerbroek Aansluiting ,49.87719,"49,877190",23.032357,"23,032357",Noord-Oost,NO,ProRail,171601.687556,483553.0775,52.33964767,5.63080562,Hoofdweg,20,,3842GZ,Harderwijk,0243100001324009,Harderwijk,Harderwijk,G0243,bestaand,,,46.907,283,0,gerealiseerd,5525
01,onderstation,017,,17,017__,Amersfoort Aansl. - Hattemerbroek,Ama-Htba,Amersfoort Aansluiting - Hattemerbroek Aansluiting ,43.584713,"43,584713",-19.93593,"-19,935930",Noord-Oost,NO,ProRail,170030.7155,478322.385601,52.29268151,5.60752097,,,,,,0233100000007411,Ermelo,Ermelo,G0233,bestaand,,,99.095,283,0,gerealiseerd,5569
01,onderstation,608,b,608,608_b,Apeldoorn,Asd-Zp,Amsterdam Centraal - Zutphen ,89.078928,"89,078928",12.573003,"12,573003",Noord-Oost,NO,ProRail,195767.891502,469154.2905,52.20897888,5.98365175,De Voorwaarts,516,Z,,Apeldoorn,0200100000961621,Apeldoorn,Apeldoorn,G0200,bestaand,,,226.453,283,0,gerealiseerd,5570
01,onderstation,079,,79,079__,Zaandam - Hoorn,Zd-Ekz,Zaandam - Enkhuizen ,13.481201,"13,481201",22.159372,"22,159372",Randstad Noord,RN,ProRail,125702.445,502105.75093,52.5058561,4.9556952,,,,,,0439100000009094,Purmerend,Purmerend,G0439,bestaand,,,94.481,283,0,gerealiseerd,5571
01,onderstation,217,,217,217__,Hoorn - Enkhuizen,Zd-Ekz,Zaandam - Enkhuizen ,45.107844,"45,107844",-15.476225,"-15,476225",Randstad Noord,RN,ProRail,143480.556071,523106.1005,52.69525101,5.21681062,Molenbuurt,2,a,1613KS,Grootebroek,0532100000001775,Bovenkarspel,Stede Broec,G0532,bestaand,,,94.197,283,0,gerealiseerd,5572
01,onderstation,034,,34,034__,Velperbroek Aansl. - Dieren,Ah-Zl,Arnhem - Zwolle ,9.627534,"9,627534",-20.330816,"-20,330816",Noord-Oost,NO,ProRail,200649.481979,447733.918,52.01608087,6.05219461,Hoofdstraat,10,,6994AE,De Steeg,0275100000017945,De Steeg,Rheden,G0275,bestaand,,,48.924,283,0,gerealiseerd,5573
01,onderstation,021,,21,021__,Barneveld Noord - Apeldoorn,Asd-Zp,Amsterdam Centraal - Zutphen ,67.203358,"67,203358",-14.10599,"-14,105990",Noord-Oost,NO,ProRail,175038.635519,466417.4665,52.185524,5.68021965,,,,,,0203100000443775,,Barneveld,G0203,bestaand,,,47.812,283,0,gerealiseerd,5574
01,onderstation,017,,17,017__,Amersfoort Aansl. - Hattemerbroek,Ama-Htba,Amersfoort Aansluiting - Hattemerbroek Aansluiting ,69.439866,"69,439866",-33.705354,"-33,705354",Noord-Oost,NO,ProRail,189157.063245,491130.113,52.40693344,5.88916431,,,,,,0230100000018138,,Elburg,G0230,bestaand,,,136.807,283,0,gerealiseerd,5575
01,onderstation,009,,9,009__,Meppel - Leeuwarden,Zl-Lw,Zwolle - Leeuwarden ,155.437967,"155,437967",-12.040798,"-12,040798",Noord-Oost,NO,ProRail,183633.0985,568750.095509,53.10478455,5.81473984,Ienswei,5,,,Reduzum,0055100000259144,Grouw,Leeuwarden,G0080,bestaand,,,48.466,283,0,gerealiseerd,5576
01,onderstation,155,b,155,155_b,Meteren Aansl. - Ressen = Bemmel,Brech-Brzv,Betuweroute Echteld - Betuweroute Zevenaar ,60.42006,"60,420060",27.788057,"27,788057",Randstad Zuid,RZ,ProRail,158796.053756,434873.916,51.90235904,5.44236053,Grotebrugse Grintweg,229,,4003BZ,Tiel,0281100000020341,,Tiel,G0281,bestaand,,,161.802,283,0,gerealiseerd,5577
01,onderstation,217,,217,217__,Hoorn - Enkhuizen,Zd-Ekz,Zaandam - Enkhuizen ,36.627042,"36,627042",22.184188,"22,184188",Randstad Noord,RN,ProRail,135858.299,519691.641,52.66435105,5.10426127,,,,,,0498100000004362,Blokker,Drechterland,G0498,bestaand,,,20.18,283,0,gerealiseerd,5578
01,onderstation,017,,17,017__,Amersfoort Aansl. - Hattemerbroek,Ama-Htba,Amersfoort Aansluiting - Hattemerbroek Aansluiting ,82.338725,"82,338725",-19.794095,"-19,794095",Noord-Oost,NO,ProRail,198970.992,499230.490149,52.479032,6.03444265,Groeneweg,18,A,8051KJ,Hattem,0244100000000121,Hattemerbroek,Hattem,G0244,bestaand,,,56.436,283,0,gerealiseerd,5579
01,onderstation,033,,33,033__,Dieren - Zutphen,Ah-Zl,Arnhem - Zwolle ,19.778892,"19,778892",14.543844,"14,543844",Noord-Oost,NO,ProRail,206936.5385,455589.219525,52.08612676,6.14496761,Oude Eerbeekseweg,21,A,6971BL,Brummen,0213100000084739,Brummen,Brummen,G0213,bestaand,,,48.513,283,0,gerealiseerd,5580
01,onderstation,516,a,516,516_a,Blerick,Vl-Ehv,Venlo - Eindhoven ,1.149225,"1,149225",25.380373,"25,380373",Zuid,Z,ProRail,208640.652,376073.306,51.37129433,6.15754463,,,,,,0983100000066246,Blerick,Venlo,G0983,bestaand,,,134.857,283,0,gerealiseerd,5581
01,onderstation,612,b,612,612_b,Barneveld Noord,Asd-Zp,Amsterdam Centraal - Zutphen ,61.017285,"61,017285",-21.551639,"-21,551639",Noord-Oost,NO,ProRail,169473.064786,463771.3255,52.161915,5.59872452,,,,,,0203100000324073,Barneveld Noord,Barneveld,G0203,bestaand,,,196.791,283,0,gerealiseerd,5582
01,onderstation,610,,610,610__,Dieren,Ah-Zl,Arnhem - Zwolle ,14.98586,"14,985860",15.319314,"15,319314",Noord-Oost,NO,ProRail,204472.5815,451499.817355,52.0495991,6.10842793,Enkweg,2,,6951BV,Dieren,0275100000029949,Dieren,Rheden,G0275,bestaand,,,171.702,283,0,gerealiseerd,5583
01,onderstation,080,,80,080__,Amsterdam Bijlmer - Nieuwersluis=Loenen,Asa-Zvg,Amsterdam Amstel - Zevenaar Grens ,12.203475,"12,203475",17.225599,"17,225599",Randstad Noord,RN,ProRail,128045.282,474915.66747,52.26160937,4.99238256,Indijkweg,6,A,,Baambrugge,0305100000001010,Abcoude,De Ronde Venen,G0736,bestaand,,,99.443,283,0,gerealiseerd,5629
01,onderstation,055,,55,055__,Blerick - Eindhoven,Vl-Ehv,Venlo - Eindhoven ,16.249922,"16,249922",23.504304,"23,504304",Zuid,Z,ProRail,195731.02152,383214.1525,51.43655679,5.9729815,Pastoor Jeukenstraat,29,,5966NL,America,1507100000010862,America,Horst aan de Maas,G1507,bestaand,,,157.161,283,0,gerealiseerd,5630
01,onderstation,544,b,544,544_b,Breda,Rsd-Bd,Roosendaal - Breda ,22.289971,"22,289971",-29.419847,"-29,419847",Zuid,Z,ProRail,111216.9625,400550.198,51.59214947,4.75536849,,,,,,0758100000104411,Breda,Breda,G0758,bestaand,,,156.801,283,0,gerealiseerd,5631
01,onderstation,204,,204,204__,Herfte Aansl. - Mariënberg,Hea-Emn,Herfte Aansl. - Emmen ,22.712745,"22,712745",22.293232,"22,293232",Noord-Oost,NO,ProRail,224540.18072,502881.9705,52.50919267,6.41152586,Stationsweg,34,b,,Ommen,0175100000005652,Ommen,Ommen,G0175,bestaand,,,85.131,283,0,gerealiseerd,5632
01,onderstation,,,,,,,,,,,,Randstad Zuid,RZ,ProRail,70378.396172,442469.254365,51.96419661,4.15588741,Slachthuisweg,15,,3151XN,Hoek van Holland,0599100000674297,,Rotterdam,G0599,bestaand,,,282.471,283,0,gerealiseerd,5633
01,onderstation,924,a,924,924_a,Kijfhoek,Kfhz-Kfhn,Kijfhoek Zuid - Kijfhoek Noord ,34.10033,"34,100330",-76.287832,"-76,287832",Randstad Zuid,RZ,ProRail,101297.838086,426719.616,51.82649421,4.60819555,,,,,,0642100000022007,Kijfhoek Zuid,Zwijndrecht,G0642,bestaand,,,119.741,283,0,gerealiseerd,5634
01,onderstation,062,,62,062__,Sittard - Roermond,Mt-Vl,Maastricht - Venlo ,33.2,"33,200000",30.528111,"30,528111",Zuid,Z,ProRail,189452.7235,345956.150456,51.10208271,5.87908055,Stationsweg,1,A,6101HK,Echt,1711100000005435,Echt,Echt-Susteren,G1711,bestaand,,,157.695,283,0,gerealiseerd,5635
01,onderstation,107,,107,107__,Moordrecht Aansl. - Den Haag Binckhorst,Gd-Gvc,Gouda - Den Haag Centraal ,6.607503,"6,607503",23.185319,"23,185319",Randstad Zuid,RZ,ProRail,99433.872416,448996.3755,52.02652437,4.57755976,Noordeinde,53,a,2761BP,Zevenhuizen,1892100000650335,Zevenhuizen-Moerkapellle,Zuidplas,G1892,bestaand,,,59.398,283,0,gerealiseerd,5636
01,onderstation,024,,24,024__,Deventer - Wierden,Dv-Aml,Deventer - Almelo ,17.009602,"17,009602",-24.458079,"-24,458079",Noord-Oost,NO,ProRail,223931.9355,477330.804261,52.27965728,6.39731907,,,,,,1742100000015161,Holterbroek,Rijssen-Holten,G1742,bestaand,,,67.841,283,0,,5637
01,onderstation,664,a,664,664_a,Rotterdam Lombardijen,IJsma-Brdv,IJsselmonde Aansl. - Barendrecht Vork ,99.105593,"99,105593",-11.384072,"-11,384072",Randstad Zuid,RZ,ProRail,96215.542,432316.826463,51.87628685,4.53352581,,,,,,0599100010011612,,Rotterdam,G0599,bestaand,,,63.935,283,0,gerealiseerd,5638
01,onderstation,163,,163,163__,Rotterdam Lombardijen - Rotterdam Centraal,Bd-Rtd,Breda - Rotterdam Centraal ,44.863034,"44,863034",-54.610528,"-54,610528",Randstad Zuid,RZ,ProRail,94798.46,435070.828903,51.90088693,4.51246781,2e Rosestraat,10,,3074JK,Rotterdam,0599100000315818,Rotterdam Zuid,Rotterdam,G0599,bestaand,,,203.165,283,0,gerealiseerd,5639
01,onderstation,105,,105,105__,Woerden - Gouda,Ut-Rtd,Utrecht Centraal - Rotterdam Centraal ,30.563516,"30,563516",22.073284,"22,073284",Randstad Zuid,RZ,ProRail,109789.488617,447729.4245,52.01607829,4.72860619,Gloriantplantsoen,63,b,2805XD,Gouda,0513100011140768,Gouda Oost,Gouda,G0513,bestaand,,,61.159,283,0,gerealiseerd,5640
01,onderstation,537,a,537,537_a,Moordrecht Aansl.,Gd-Apn,Gouda - Alphen a/d Rijn ,3.040008,"3,040008",14.300016,"14,300016",Randstad Zuid,RZ,ProRail,105481.480317,447342.0775,52.01222921,4.66591055,Noord Ringdijk,15,a,2841LJ,Moordrecht,1892100000647218,Moordrecht,Zuidplas,G1892,bestaand,,,200.859,283,0,gerealiseerd,5641
01,onderstation,054,a,54,054_a,Boxtel - Eindhoven,Bd-Ehv,Breda - Eindhoven ,55.489976,"55,489976",25.229511,"25,229511",Zuid,Z,ProRail,158944.7835,385726.854997,51.46060033,5.44396313,,,,,,0772100000313296,Woensel,Eindhoven,G0772,bestaand,,,346.249,283,0,gerealiseerd,5642
01,onderstation,120,a,120,120_a,Lage Zwaluwe - Roosendaal,Zlw-Np,Lage Zwaluwe - Nispen ,15.180586,"15,180586",11.689944,"11,689944",Zuid,Z,ProRail,96096.770112,400491.5615,51.59024023,4.53719881,De Baarlebossche,2,,,Oudenbosch,1655100000496213,Oudenbosch,Halderberge,G1655,bestaand,,,47.583,283,0,gerealiseerd,5643
01,onderstation,035,,35,035__,Lunetten - De Haar Aansl.,Asa-Zvg,Amsterdam Amstel - Zevenaar Grens ,46.175436,"46,175436",-28.590164,"-28,590164",Randstad Noord,RN,ProRail,145928.613387,452975.608,52.06499902,5.25491398,Odijkerweg,9000,,,Zeist,0355100000821186,Driebergen,Zeist,G0355,bestaand,,,74.869,283,0,gerealiseerd,5678
01,onderstation,133,a,133,133_a,Amsterdam Riekerpolder - Warmond,Asra-Wmd,Amsterdam Riekerpolder Aansl. - Warmond ,19.463707,"19,463707",34.107554,"34,107554",Randstad Noord,RN,ProRail,107640.115886,478316.703,52.29079889,4.69303588,van Heuven Goedhartlaan,201,A,,Hoofddorp,0394100001021448,Hoofddorp,Haarlemmermeer,G0394,bestaand,,,98.229,283,0,gerealiseerd,5679
01,onderstation,133,a,133,133_a,Amsterdam Riekerpolder - Warmond,Asra-Wmd,Amsterdam Riekerpolder Aansl. - Warmond ,30.848794,"30,848794",-26.325951,"-26,325951",Randstad Noord,RN,ProRail,99195.497477,471271.85,52.22669525,4.57043464,,,,,,0394100000264322,Buitenkaag,Haarlemmermeer,G0394,bestaand,,,99.768,283,0,gerealiseerd,5680
01,onderstation,515,b,515,515_b,Vught Aansl.,Ut-Btl,Utrecht Centraal - Boxtel ,51.206325,"51,206325",16.332106,"16,332106",Zuid,Z,ProRail,148361.9735,408055.099219,51.6612746,5.29126294,,,,,,0865100000019665,Vught,Vught,G0865,bestaand,,,115.232,283,0,gerealiseerd,5681
01,onderstation,545,b,545,545_b,Roosendaal,Zlw-Np,Lage Zwaluwe - Nispen ,22.179649,"22,179649",-44.189881,"-44,189881",Zuid,Z,ProRail,91192.004666,395552.8385,51.54531688,4.46732872,,,,,,1674100000958450,,Roosendaal,G1674,bestaand,,,197.687,283,0,gerealiseerd,5682
01,onderstation,508,,508,508__,Arnhem,Asa-Zvg,Amsterdam Amstel - Zevenaar Grens ,90.145172,"90,145172",20.96845,"20,968450",Noord-Oost,NO,ProRail,188559.130318,444417.8805,51.98714024,5.87575253,Diependalseweg,13,,6813GE,Arnhem,0202100000237734,,Arnhem,G0202,bestaand,,,268.129,283,0,,5683
01,onderstation,075,,75,075__,Alkmaar - Uitgeest,Hdr-Zd,Den Helder - Zaandam ,49.798478,"49,798478",29.163327,"29,163327",Randstad Noord,RN,ProRail,107107.9955,510308.049541,52.57825558,4.68066338,Westerweg,35,a,,Limmen,0383100000043328,Limmen,Castricum,G0383,bestaand,,,72.895,283,0,gerealiseerd,5684
01,onderstation,105,,105,105__,Woerden - Gouda,Ut-Rtd,Utrecht Centraal - Rotterdam Centraal ,25.05712,"25,057120",24.241653,"24,241653",Randstad Zuid,RZ,ProRail,114939.350276,448654.058,52.0247844,4.80351378,,,,,,0595100000007313,Hekendorp,Bodegraven-Reeuwijk,G1901,bestaand,,,100.355,283,0,gerealiseerd,5685
01,onderstation,533,,533,533__,Woerden,Ut-Rtd,Utrecht Centraal - Rotterdam Centraal ,15.271851,"15,271851",18.47997,"18,479970",Randstad Noord,RN,ProRail,121552.843186,455549.956,52.08720161,4.89919453,,,,,,0632100000014876,Woerden,Woerden,G0632,bestaand,,,103.098,283,0,gerealiseerd,5686
01,onderstation,105,,105,105__,Woerden - Gouda,Ut-Rtd,Utrecht Centraal - Rotterdam Centraal ,21.112476,"21,112476",-22.545206,"-22,545206",Randstad Noord,RN,ProRail,118183.9735,450887.278595,52.04508094,4.85054593,,,,,,0589100000249879,Oudewater,Oudewater,G0589,bestaand,,,56.335,283,0,gerealiseerd,5687
01,onderstation,618,a,618,618_a,Eindhoven,Ehv-Wt,Eindhoven - Weert ,1.825212,"1,825212",-23.599385,"-23,599385",Zuid,Z,ProRail,163230.694134,383949.427,51.44457727,5.50559214,,,,,,0772100000297637,Eindhoven Zuid,Eindhoven,G0772,bestaand,,,97.707,283,0,gerealiseerd,5688
01,onderstation,035,,35,035__,Lunetten - De Haar Aansl.,Asa-Zvg,Amsterdam Amstel - Zevenaar Grens ,42.76611,"42,766110",-13.619354,"-13,619354",Randstad Noord,RN,ProRail,142517.563923,452806.938,52.06341671,5.20517657,Anton van Dampad,8001,,,Bunnik,0312100000011866,Bunnik,Bunnik,G0312,bestaand,,,47.423,283,0,gerealiseerd,5689
01,onderstation,132,,132,132__,Moordrecht Aansl. - Rotterdam Kleiweg,Ut-Rtd,Utrecht Centraal - Rotterdam Centraal ,39.920574,"39,920574",-24.268431,"-24,268431",Randstad Zuid,RZ,ProRail,102829.911,443208.127273,51.97483229,4.62791994,Schielandweg,98,b,2914LP,Nieuwerkerk aan den IJssel,1892100000640651,,Zuidplas,G1892,bestaand,,,62.424,283,0,gerealiseerd,5690
01,onderstation,109,,109,109__,Rhenen - De Haar Aansl.,Rhn-Har,Rhenen - De Haar Aansl. ,32.523469,"32,523469",9.189304,"9,189304",Randstad Noord,RN,ProRail,165180.458448,448746.613,52.02696889,5.53553993,Edelvalk,46,,,Veenendaal,0345100002004605,Veenendaal,Veenendaal,G0345,bestaand,,,46.778,283,0,gerealiseerd,5691
01,onderstation,059,,59,059__,Weert - Roermond,Bdl-Rm,Budel - Roermond ,76.850058,"76,850058",15.279304,"15,279304",Zuid,Z,ProRail,189482.308205,360510.856,51.23290602,5.88090786,Ganzenweg,3,,6095PA,Baexem,1640100000000429,,Leudal,G1640,bestaand,,,61.93,283,0,,5692
01,onderstation,163,,163,163__,Rotterdam Lombardijen - Rotterdam Centraal,Bd-Rtd,Breda - Rotterdam Centraal ,48.696141,"48,696141",-20.886565,"-20,886565",Randstad Zuid,RZ,ProRail,92348.450089,437890.517,51.92595805,4.47635975,Schiestraat,3,,3013AH,Rotterdam,0599100010041052,Schiekade,Rotterdam,G0599,bestaand,,,75.508,283,0,gerealiseerd,5718
01,onderstation,057,,57,057__,Eindhoven - Weert,Ehv-Wt,Eindhoven - Weert ,14.219157,"14,219157",16.681597,"16,681597",Zuid,Z,ProRail,169338.052,373758.765633,51.35285463,5.59302661,,,,,,1658100000043994,Sterksel,Heeze-Leende,G1658,bestaand,,,157.276,283,0,gerealiseerd,5719
01,onderstation,055,,55,055__,Blerick - Eindhoven,Vl-Ehv,Venlo - Eindhoven ,25.659508,"25,659508",-12.327799,"-12,327799",Zuid,Z,ProRail,186414.915507,384620.47,51.44979343,5.83913019,Griendtsveenseweg,41,,5754AA,Deurne,0762100000003694,Deurne Oost,Deurne,G0762,bestaand,,,47.453,283,0,gerealiseerd,5720
01,onderstation,104,,104,104__,Leiden Centraal - Den Haag Mariahoeve,Ass-Rtd,Amsterdam Sloterdijk - Rotterdam ,51.717389,"51,717389",26.867641,"26,867641",Randstad Zuid,RZ,ProRail,89333.4965,459811.564235,52.12261687,4.4283263,Papelaan-West,97,a,2254AH,Voorschoten,0626100000000116,Voorschoten,Voorschoten,G0626,bestaand,,,73.753,283,0,gerealiseerd,5721
01,onderstation,540,d,540,540_d,Rotterdam Westelijke Splitsing,Ass-Rtd,Amsterdam Sloterdijk - Rotterdam ,82.488,"82,488000",34.885016,"34,885016",Randstad Zuid,RZ,ProRail,90448.360044,437626.334,51.9233665,4.44878887,,,,,,0599100010038447,,Rotterdam,G0599,bestaand,,,105.41,283,0,gerealiseerd,5722
01,onderstation,055,,55,055__,Blerick - Eindhoven,Vl-Ehv,Venlo - Eindhoven ,9.620502,"9,620502",-23.542254,"-23,542254",Zuid,Z,ProRail,201846.92011,381123.7265,51.41729272,6.06065527,Grubbenvorsterweg,44,b,5975RB,Sevenum,1507100000023853,Gekkegraaf,Horst aan de Maas,G1507,bestaand,,,51.5,283,0,gerealiseerd,5723
01,onderstation,084,,84,084__,Amsterdam Sloterdijk - Haarlem,Ass-Rtd,Amsterdam Sloterdijk - Rotterdam ,9.585992,"9,585992",19.138604,"19,138604",Randstad Noord,RN,ProRail,111071.670553,488986.409,52.38697382,4.74193788,,,,,,0393100000001158,Halfweg,Haarlemmermeer,G0394,bestaand,,,46.97,283,0,gerealiseerd,5724
01,onderstation,589,b,589,589_b,Duivendrecht,Asa-Zvg,Amsterdam Amstel - Zevenaar Grens ,5.036945,"5,036945",-87.499977,"-87,499977",Randstad Noord,RN,ProRail,124551.740604,481178.387,52.31771349,4.94064715,,,,,,0363100012186429,,Amsterdam,G0363,bestaand,,,343.164,283,0,gerealiseerd,5725
01,onderstation,927,,927,927__,Watergraafsmeer,Wgm-Dmn,Watergraafsmeer - Diemen ,905.224773,"905,224773",-98.089899,"-98,089899",Randstad Noord,RN,ProRail,125128.974681,485121.145,52.35318035,4.94876296,Kruislaan,261,,1098SM,Amsterdam,0363100012155627,Watergraafsmeer,Amsterdam,G0363,bestaand,,,175.472,283,0,gerealiseerd,5726
01,onderstation,055,,55,055__,Blerick - Eindhoven,Vl-Ehv,Venlo - Eindhoven ,42.966506,"42,966506",-15.447872,"-15,447872",Zuid,Z,ProRail,169791.563263,385694.7695,51.46013142,5.60003728,,,,,,0794100000360143,Mierlo,Helmond,G0794,bestaand,,,63.576,283,0,gerealiseerd,5727
01,onderstation,039,,39,039__,Zevenaar - Zevenaar Grens,Asa-Zvg,Amsterdam Amstel - Zevenaar Grens ,110.931332,"110,931332",25.088184,"25,088184",Randstad Zuid,RZ,ProRail,206601.0785,435106.590379,51.90206996,6.13698814,Kwartiersedijk,2,,6909DJ,Babberich,0299100000406174,,Rijnwaarden,G0299,bestaand,,,91.742,283,0,gerealiseerd,5728
01,onderstation,133,a,133,133_a,Amsterdam Riekerpolder - Warmond,Asra-Wmd,Amsterdam Riekerpolder Aansl. - Warmond ,14.836479,"14,836479",9.102005,"9,102005",Randstad Noord,RN,ProRail,111909.24855,479899.017,52.30537033,4.75540393,Handelskade,18,,,Schiphol,0394100001022466,Schiphol-luchthaven,Haarlemmermeer,G0394,bestaand,,,350.078,283,0,gerealiseerd,5729
01,onderstation,043,,43,043__,Kesteren - Geldermalsen,Est-Gdm,Elst - Geldermalsen ,32.466424,"32,466424",-16.551089,"-16,551089",Zuid,Z,ProRail,157767.73,433696.311486,51.89178049,5.42740913,Lingedijk,56,a,4001XK,Tiel,0281100000001616,Tiel,Tiel,G0281,bestaand,,,76.268,283,0,gerealiseerd,5730
01,onderstation,102,,102,102__,Woerden - Alphen a/d Rijn,Wd-Ledn,Woerden - Leiden Centraal ,9.402721,"9,402721",17.510724,"17,510724",Randstad Zuid,RZ,ProRail,110912.634884,455065.734,52.08210466,4.74402002,Stationsweg,9002,,,Bodegraven,0497100000001811,Bodegraven,Bodegraven-Reeuwijk,G1901,bestaand,,,70.304,283,0,gerealiseerd,5731
01,onderstation,013,,13,013__,Herfte Aansl. - Meppel,Zl-Lw,Zwolle - Leeuwarden ,88.155256,"88,155256",33.596088,"33,596088",Noord-Oost,NO,ProRail,211679.985,511479.126999,52.58793513,6.2235817,Dedemsvaartweg,37,a,7715RJ,Punthorst,0180100000002646,Dedemsvaart,Staphorst,G0180,bestaand,,,101.119,283,0,gerealiseerd,5732
01,onderstation,507,b,507,507_b,Velperbroek Aansl.,Asa-Zvg,Amsterdam Amstel - Zevenaar Grens ,93.843554,"93,843554",14.609135,"14,609135",Noord-Oost,NO,ProRail,192178.069,444003.416196,51.98318446,5.92838948,,,,,,0202100000260222,,Arnhem,G0202,bestaand,,,85.663,283,0,,5776
01,onderstation,012,,12,012__,Meppel - Assen,Mp-Gn,Meppel - Groningen ,27.614285,"27,614285",36.591761,"36,591761",Noord-Oost,NO,ProRail,230125.865,535440.9705,52.8010163,6.50117698,Grondselweg,8,T,9418TP,Wijster,1731100000017054,Wijster,Midden-Drenthe,G1731,bestaand,,,70.049,283,0,gerealiseerd,5777
01,onderstation,012,,12,012__,Meppel - Assen,Mp-Gn,Meppel - Groningen ,7.721375,"7,721375",-24.925254,"-24,925254",Noord-Oost,NO,ProRail,216861.94427,524420.578,52.70366496,6.30245559,,,,,,1690100000002234,Koekange,De Wolden,G1690,bestaand,,,71.738,283,0,gerealiseerd,5778
01,onderstation,012,,12,012__,Meppel - Assen,Mp-Gn,Meppel - Groningen ,20.707429,"20,707429",12.419242,"12,419242",Noord-Oost,NO,ProRail,228772.3855,528650.413381,52.74018635,6.47958864,,,,,,0118100000018389,Hoogeveen,Hoogeveen,G0118,bestaand,,,101.372,283,0,gerealiseerd,5779
01,onderstation,009,,9,009__,Meppel - Leeuwarden,Zl-Lw,Zwolle - Leeuwarden ,122.335915,"122,335915",-24.57784,"-24,577840",Noord-Oost,NO,ProRail,199442.5795,539945.73745,52.84488104,6.04685251,,,,,,0098100000029421,Peperga,Weststellingwerf,G0098,bestaand,,,101.992,283,0,gerealiseerd,5780
01,onderstation,009,,9,009__,Meppel - Leeuwarden,Zl-Lw,Zwolle - Leeuwarden ,165.807335,"165,807335",12.520332,"12,520332",Noord-Oost,NO,ProRail,180968.621773,578646.701,53.19384662,5.77575336,Edisonstraat,2,k,8912AW,Leeuwarden,0080100000349350,,Leeuwarden,G0080,bestaand,,,185.618,283,0,gerealiseerd,5781
01,onderstation,035,,35,035__,Lunetten - De Haar Aansl.,Asa-Zvg,Amsterdam Amstel - Zevenaar Grens ,57.318299,"57,318299",-14.939942,"-14,939942",Randstad Noord,RN,ProRail,156829.708499,451705.4755,52.05365403,5.41387923,,,,,,1581100000011213,Maarsbergen,Utrechtse Heuvelrug,G1581,bestaand,,,286.971,283,0,gerealiseerd,5782
01,onderstation,013,,13,013__,Herfte Aansl. - Meppel,Zl-Lw,Zwolle - Leeuwarden ,95.396574,"95,396574",-13.466611,"-13,466611",Noord-Oost,NO,ProRail,211232.7505,518030.846251,52.64685718,6.2180937,Westerparallelweg,1,a,,Staphorst,0180100000002765,Staphorst,Staphorst,G0180,bestaand,,,76.112,283,0,gerealiseerd,5783
01,onderstation,161,,161,161__,Lelystad Industrieterrein - Hattemerbroek,Llsoa-Zl,Lelystad Opstelterrein Aansl. - Zwolle ,37.3572,"37,357200",18.386049,"18,386049",Noord-Oost,NO,ProRail,192770.504796,502796.9615,52.51154701,5.94358168,Jules van Hasseltweg,1,,8278AE,Kamperveen,0166100000029747,Kamperveen (Hanzelijn),Kampen,G0166,bestaand,,,142.422,283,0,gerealiseerd,5784
01,onderstation,531,d,531,531_d,Utrecht Centraal,Ut-Rtd,Utrecht Centraal - Rotterdam Centraal ,1.029348,"1,029348",-23.989423,"-23,989423",Randstad Noord,RN,ProRail,135236.674162,456480.1975,52.09622,5.09879049,,,,,,0344100000105533,Utrecht Noord,Utrecht,G0344,bestaand,,,452.824,283,0,gerealiseerd,5785
01,onderstation,115,a,115,115_a,Schiedam Centrum - Vlaardingen Vulcaanhaven,Sdm-Sdmga,Schiedam Centrum - Schiedam Goederenoverdrachtspoor Aansluiting ,0.746034,"0,746034",-32.021008,"-32,021008",Randstad Zuid,RZ,ProRail,87104.469379,437908.7815,51.92550682,4.40012831,Willem Passtoorsstraat,1,,3119HG,Schiedam,0606100000015242,Schiedam,Schiedam,G0606,bestaand,,,276.676,283,0,gerealiseerd,5786
01,onderstation,127,a,127,127_a,Roosendaal - Vlissingen,Rsd-Vs,Roosendaal - Vlissingen ,43.861644,"43,861644",-16.770699,"-16,770699",Zuid,Z,ProRail,55819.752019,388785.452,51.47937701,3.95942811,,,,,,0678100000000632,Kapelle-Biezelinge,Kapelle,G0678,bestaand,,,60.993,283,0,gerealiseerd,5787
01,onderstation,047,,47,047__,s Hertogenbosch - Nijmegen,Ht-Nm,s-Hertogenbosch - Nijmegen ,56.541375,"56,541375",18.345311,"18,345311",Noord-Oost,NO,ProRail,178847.475134,424896.026,51.81217745,5.73302159,Kraanvogelstraat,16,,6601DH,Wijchen,0296100000019931,Uilenboom,Wijchen,G0296,bestaand,,,72.931,283,0,gerealiseerd,5788
01,onderstation,117,,117,117__,Lunetten - Geldermalsen,Ut-Btl,Utrecht Centraal - Boxtel ,18.369035,"18,369035",22.921142,"22,921142",Zuid,Z,ProRail,144189.694,439507.857021,51.94391816,5.22997989,,,,,,0216100000001818,Culemborg,Culemborg,G0216,bestaand,,,59.22,283,0,gerealiseerd,5789
01,onderstation,127,a,127,127_a,Roosendaal - Vlissingen,Rsd-Vs,Roosendaal - Vlissingen ,15.75063,"15,750630",22.220833,"22,220833",Zuid,Z,ProRail,79259.0225,386886.267738,51.46594711,4.29719537,Fianestraat,13,,4625DN,Bergen op Zoom,0748100000003928,Bergen op Zoom,Bergen op Zoom,G0748,bestaand,,,201.025,283,0,gerealiseerd,5839
01,onderstation,127,a,127,127_a,Roosendaal - Vlissingen,Rsd-Vs,Roosendaal - Vlissingen ,53.998977,"53,998977",-23.394736,"-23,394736",Zuid,Z,ProRail,46245.247662,391218.157,51.49947038,3.82089048,Noordweegseweg,1,A,4458AT,'s-Heer Arendskerke,0664100000000045,s Heer Arendskerke,Goes,G0664,bestaand,,,197.901,283,0,gerealiseerd,5840
01,onderstation,127,a,127,127_a,Roosendaal - Vlissingen,Rsd-Vs,Roosendaal - Vlissingen ,25.461253,"25,461253",-17.44687,"-17,446870",Zuid,Z,ProRail,72352.266423,382495.5355,51.42551671,4.19884788,Oude Rijksweg,102,,4411NK,Rilland,0703100000024507,Reimerswaal,Reimerswaal,G0703,bestaand,,,62.355,283,0,gerealiseerd,5841
01,onderstation,504,b,504,504_b,Heerlen,Std-Hz,Sittard - Herzogenrath (D) ,17.296379,"17,296379",-16.478558,"-16,478558",Zuid,Z,ProRail,195287.215,322973.582,50.89512258,5.95980589,,,,,,0917100000030830,Heerlen,Heerlen,G0917,bestaand,,,172.477,283,0,gerealiseerd,5842
01,onderstation,026,,26,026__,Hengelo - Oldenzaal Grens,Hgl-Odzg,Hengelo - Oldenzaal Grens ,26.051059,"26,051059",26.005949,"26,005949",Noord-Oost,NO,ProRail,260335.606913,480936.0275,52.30628781,6.93174338,Stationsstraat,18,,7573AT,Oldenzaal,0173100000132078,Oldenzaal,Oldenzaal,G0173,bestaand,,,133.434,283,0,gerealiseerd,5843
01,onderstation,024,,24,024__,Deventer - Wierden,Dv-Aml,Deventer - Almelo ,8.799969,"8,799969",-12.532435,"-12,532435",Noord-Oost,NO,ProRail,216467.421798,474195.8945,52.25236863,6.28737883,Koekendijk,17,T,7437CJ,Bathmen,0150100000046072,Bathmen,Deventer,G0150,bestaand,,,128.729,283,0,gerealiseerd,5844
01,onderstation,145,,145,145__,Amsterdam Sloterdijk - Amsterdam Riekerpolder,Sgra-Asra,Amsterdam Singelgracht Aansl. - Amsterdam Riekerpolder Aansl. ,54.541813,"54,541813",34.551588,"34,551588",Randstad Noord,RN,ProRail,117317.861,487133.752957,52.37078797,4.83389197,,,,,,0363100012218288,Sloterplas,Amsterdam,G0363,bestaand,,,50.017,283,0,gerealiseerd,5845
01,onderstation,064,,64,064__,Sittard - Heerlen,Std-Hz,Sittard - Herzogenrath (D) ,9.360027,"9,360027",-17.71005,"-17,710050",Zuid,Z,ProRail,189514.440486,327727.56,50.93823084,5.87821343,Breinder,2,,,Schinnen,0962100000206337,Nagelbeek,Beekdaelen,G1954,bestaand,,,46.709,283,0,gerealiseerd,5846
01,onderstation,530,a,530,530_a,Den Dolder,Dld-Brn,Den Dolder - Baarn ,1.585071,"1,585071",-9.614291,"-9,614291",Randstad Noord,RN,ProRail,146470.50614,461960.7225,52.14576569,5.26259178,Stapelplaats den Dolder,2,,3768MT,Soest,0342100000020122,,Soest,G0342,bestaand,,,98.916,283,0,gerealiseerd,5847
01,onderstation,538,,538,538__,Rotterdam Kleiweg,Ut-Rtd,Utrecht Centraal - Rotterdam Centraal ,52.430913,"52,430913",21.068723,"21,068723",Randstad Zuid,RZ,ProRail,91349.4565,439432.835,51.93970588,4.46155238,,,,,,0599100010057356,Schie,Rotterdam,G0599,bestaand,,,79.101,283,0,gerealiseerd,5848
01,onderstation,513,a,513,513_a,Geldermalsen,Ut-Btl,Utrecht Centraal - Boxtel ,26.213278,"26,213278",-21.82777,"-21,827770",Zuid,Z,ProRail,147107.26,432264.795259,51.87886477,5.27257817,,,,,,0236100000003952,Geldermalsen,West Betuwe,G1960,bestaand,,,285.138,283,0,gerealiseerd,5849
01,onderstation,046,,46,046__,Meteren Aansl. - s Hertogenbosch,Ut-Btl,Utrecht Centraal - Boxtel ,45.763078,"45,763078",13.779326,"13,779326",Zuid,Z,ProRail,148746.412,413388.158985,51.70921516,5.29672355,Orthen,71,,5231XP,'s-Hertogenbosch,0796100000204222,Orthen,'s-Hertogenbosch,G0796,bestaand,,,345.085,283,0,gerealiseerd,5850
01,onderstation,117,,117,117__,Lunetten - Geldermalsen,Ut-Btl,Utrecht Centraal - Boxtel ,14.405771,"14,405771",-32.258849,"-32,258849",Randstad Noord,RN,ProRail,142120.0225,442886.492099,51.97424182,5.19975248,Achterdijk,29,,3998NE,Schalkwijk,0321100000001978,Schalkwijk,Houten,G0321,bestaand,,,91.722,283,0,gerealiseerd,5851
01,onderstation,047,,47,047__,s Hertogenbosch - Nijmegen,Ht-Nm,s-Hertogenbosch - Nijmegen ,33.482019,"33,482019",30.722757,"30,722757",Zuid,Z,ProRail,158015.256003,416133.0855,51.73391445,5.43085121,Kerkdijk,1,,,Nuland,1671100000000488,Maasdonk,'s-Hertogenbosch,G0796,bestaand,,,96.404,283,0,gerealiseerd,5852
01,onderstation,509,a,509,509_a,Baarn,Asd-Zp,Amsterdam Centraal - Zutphen ,36.589826,"36,589826",-36.375725,"-36,375725",Randstad Noord,RN,ProRail,148399.227558,468218.7035,52.20203809,5.29064793,Torenlaan,75,,,Baarn,0308100000021687,Baarn,Baarn,G0308,bestaand,,,57.312,283,0,gerealiseerd,5903
01,onderstation,127,a,127,127_a,Roosendaal - Vlissingen,Rsd-Vs,Roosendaal - Vlissingen ,6.402747,"6,402747",18.86075,"18,860750",Zuid,Z,ProRail,84639.912414,391979.3465,51.5124186,4.37360195,,,,,,1674100000964355,Wouw,Roosendaal,G1674,bestaand,,,57.392,283,0,gerealiseerd,5904
01,onderstation,018,,18,018__,Deventer - Zwolle,Ah-Zl,Arnhem - Zwolle ,58.680689,"58,680689",-13.100771,"-13,100771",Noord-Oost,NO,ProRail,205910.3705,488604.8075,52.3829391,6.13496489,Noorder Koeslag,2,t,8131VN,Wijhe,1773100000000735,Wijhe,Olst-Wijhe,G1773,bestaand,,,193.561,283,0,gerealiseerd,5905
01,onderstation,604,b,604,604_b,Hattemerbroek,Ama-Htba,Amersfoort Aansluiting - Hattemerbroek Aansluiting ,83.571768,"83,571768",51.060683,"51,060683",Noord-Oost,NO,ProRail,199835.954758,500120.151,52.48695706,6.04729324,de Netelhorst,28,,8051KE,Hattem,0244100000007917,,Hattem,G0244,bestaand,,,97.597,283,0,gerealiseerd,5906
01,onderstation,546,b,546,546_b,Blauwkapel,Ut-Amf,Utrecht - Amersfoort ,4.004425,"4,004425",-67.392637,"-67,392637",Randstad Noord,RN,ProRail,137987.348,458268.787092,52.11238707,5.13884234,,,,,,0344100000100690,Blauwkapel,Utrecht,G0344,bestaand,,,470.757,283,0,gerealiseerd,5907
01,onderstation,093,,93,093__,Blauwkapel - Den Dolder,Ut-Amf,Utrecht - Amersfoort ,9.205258,"9,205258",-11.09241,"-11,092410",Randstad Noord,RN,ProRail,142762.612981,460331.1285,52.13104944,5.20848009,,,,,,0310100000669359,Bilthoven,De Bilt,G0310,bestaand,,,45.079,283,0,gerealiseerd,5908
01,onderstation,090,,90,090__,Den Dolder - Amersfoort,Ut-Amf,Utrecht - Amersfoort ,17.083095,"17,083095",-25.27254,"-25,272540",Randstad Noord,RN,ProRail,150290.308406,461776.515,52.14415573,5.3183997,Heezerspoor Oostzijde,2,,3768MX,Soest,0342100000023508,Soestduinen,Soest,G0342,bestaand,,,55.997,283,0,gerealiseerd,5909
01,onderstation,603,f,603,603_f,Zwolle,Zl-Lw,Zwolle - Leeuwarden ,74.831293,"74,831293",-23.971924,"-23,971924",Noord-Oost,NO,ProRail,204019.283827,501423.6875,52.49831274,6.10906839,,,,,,0193100000063424,,Zwolle,G0193,bestaand,,,241.627,283,0,gerealiseerd,5910
01,onderstation,553,c,553,553_c,Sittard,Mt-Vl,Maastricht - Venlo ,21.00018,"21,000180",17.045064,"17,045064",Zuid,Z,ProRail,187653.682,334118.221848,50.99578291,5.85232081,,,,,,1883100000006465,Sittard,Sittard-Geleen,G1883,bestaand,,,201.621,283,0,gerealiseerd,5911
01,onderstation,070,,70,070__,Schin op Geul - Maastricht,Vet-Mtn,Verschau (D) - Maastricht Noord ,26.075978,"26,075978",11.817071,"11,817071",Zuid,Z,ProRail,185673.378011,320402.1985,50.87260521,5.82294994,,,,,,0994100002018856,Valkenburg,Valkenburg aan de Geul,G0994,bestaand,,,50.036,283,0,gerealiseerd,5912
01,onderstation,073,,73,073__,Den Helder - Heerhugowaard,Hdr-Zd,Den Helder - Zaandam ,28.061256,"28,061256",-23.216968,"-23,216968",Randstad Noord,RN,ProRail,118137.4875,527146.094503,52.73042973,4.84149721,,,,,,0395100000012197,Waarland,Harenkarspel,G0441,bestaand,,,59.224,283,0,gerealiseerd,5913
01,onderstation,073,,73,073__,Den Helder - Heerhugowaard,Hdr-Zd,Den Helder - Zaandam ,1.522686,"1,522686",-8.952496,"-8,952496",Randstad Noord,RN,ProRail,113025.059,551479.005905,52.94871755,4.76270345,,,,,,0400100000014320,,,G0400,bestaand,,,160.043,283,0,gerealiseerd,5914
01,onderstation,950,a,950,950_a,Barendrecht Vork - Rotterdam Maasvlakte,Whz-Bot,"Rotterdam, Emplacement Waalhaven Zuid - Rotterdam, Botlek",7.389734,"7,389734",81.849014,"81,849014",Randstad Zuid,RZ,ProRail,89536.265,431879.976916,51.87161583,4.43662338,,,,,,0599100010053594,,Rotterdam,G0599,bestaand,,,111.879,283,0,gerealiseerd,5915
01,onderstation,135,,135,135__,Weesp Aansl. - Lelystad Industrieterrein,Wp-Llso,Weesp - Lelystad Opstel. ,8.402006,"8,402006",29.339927,"29,339927",Randstad Noord,RN,ProRail,138836.1245,483165.171064,52.33617506,5.15004547,,,,,,0034100000107067,Pampuspad,Almere,G0034,bestaand,,,155.857,283,0,,5916
01,onderstation,112,,112,112__,Den Haag HS - Schiedam Centrum,Ass-Rtd,Amsterdam Sloterdijk - Rotterdam ,70.362215,"70,362215",-49.281577,"-49,281577",Randstad Zuid,RZ,ProRail,84444.228026,446098.6485,51.99877829,4.35977575,Jupiterstraat,1,,2624GZ,Delft,0503100000034229,Delft (nieuw os),Delft,G0503,bestaand,,,86.98,283,0,gerealiseerd,5917
01,straatkast,208,,208,208__,Apeldoorn - Zutphen,Asd-Zp,Amsterdam Centraal - Zutphen ,101.44072,"101,440720",8.276588,"8,276588",Noord-Oost,NO,ProRail,206760.908621,463554.434,52.15772933,6.14361686,IJsselstraat,2,,7399RC,Empe,0213100000087967,,Brummen,G0213,bestaand,,,8.871,283,0,gerealiseerd,6007
01,straatkast,517,b,517,517_b,Venlo,Mt-Vl,Maastricht - Venlo ,69.493682,"69,493682",15.328165,"15,328165",Zuid,Z,ProRail,209879.7845,375055.959521,51.36203138,6.17518062,,,,,,0983100000036266,,Venlo,G0983,bestaand,,,14.366,283,0,gerealiseerd,6008
01,niet-bgt: straatkast,042,,42,042__,Vork - Kesteren,Est-Gdm,Elst - Geldermalsen ,2.903704,"2,903704",11.3723,"11,372300",Noord-Oost,NO,ProRail,185989.130941,435088.889,51.9034408,5.83749798,,,,,,,,Prorail,L0004,bestaand,,,18.203,283,0,,6009
01,niet-bgt: straatkast,950,a,950,950_a,Barendrecht Vork - Rotterdam Maasvlakte,Whz-Bot,"Rotterdam, Emplacement Waalhaven Zuid - Rotterdam, Botlek",7.468159,"7,468159",71.690259,"71,690259",Randstad Zuid,RZ,ProRail,89458.259492,431878.7135,51.87159531,4.43549108,,,,,,,,Prorail,L0004,bestaand,,,1.354,283,0,,6010
01,niet-bgt: straatkast,015,,15,015__,Zwolle - Kampen,Zl-Kpn,Zwolle - Kampen ,99.798982,"99,798982",-9.372383,"-9,372383",Noord-Oost,NO,ProRail,192332.987935,507829.377,52.55680295,5.93770119,,,,,,,,Prorail,L0004,bestaand,,,13.704,283,0,,6011
01,niet-bgt: straatkast,026,,26,026__,Hengelo - Oldenzaal Grens,Hgl-Odzg,Hengelo - Oldenzaal Grens ,17.377768,"17,377768",6.480817,"6,480817",Noord-Oost,NO,ProRail,252787.085313,476643.6605,52.26911301,6.8198498,,,,,,,,Prorail,L0004,bestaand,,,4.143,283,0,,6012
01,niet-bgt: straatkast,127,a,127,127_a,Roosendaal - Vlissingen,Rsd-Vs,Roosendaal - Vlissingen ,64.424209,"64,424209",11.624187,"11,624187",Zuid,Z,ProRail,35824.1025,391705.295,51.50173841,3.67069886,,,,,,,,Prorail,L0004,bestaand,,,6.91,283,0,,6013
01,niet-bgt: straatkast,212,,212,212__,Winterswijk - Zevenaar,Ww-Zv,Winterswijk-Zevenaar ,11.859937,"11,859937",5.07643,"5,076430",Noord-Oost,NO,ProRail,237053.956229,437661.522,51.92137306,6.58001613,,,,,,,,Prorail,L0004,bestaand,,,9.396,283,0,,6014
01,niet-bgt: straatkast,309,,309,309__,Landgraaf - Simpelveld,Lg-Spv,Landgraaf - Simpelveld ,2.020185,"2,020185",9.659353,"9,659353",Zuid,Z,ProRail,201323.9705,322477.627,50.89020828,6.04553856,,,,,,,,Prorail,L0004,bestaand,,,4.572,283,1,,6015
01,niet-bgt: straatkast,212,,212,212__,Winterswijk - Zevenaar,Ww-Zv,Winterswijk-Zevenaar ,27.476368,"27,476368",-6.731546,"-6,731546",Noord-Oost,NO,ProRail,222103.6565,437682.505626,51.9235666,6.36272206,,,,,,,,Prorail,L0004,bestaand,,,16.52,283,0,,6016
01,niet-bgt: straatkast,211,,211,211__,Barneveld Noord - Ede=Wageningen,Bnn-Ed,Barneveld Noord - Ede=Wageningen ,27.781128,"27,781128",-7.147964,"-7,147964",Noord-Oost,NO,ProRail,174215.458,450486.144714,52.04236415,5.6672833,,,,,,,,Prorail,L0004,bestaand,,,9.49,283,0,,6017
01,niet-bgt: straatkast,009,,9,009__,Meppel - Leeuwarden,Zl-Lw,Zwolle - Leeuwarden ,137.753533,"137,753533",7.900931,"7,900931",Noord-Oost,NO,ProRail,190608.9215,552610.726,52.95934303,5.91712384,,,,,,,,Prorail,L0004,bestaand,,,1.762,283,0,,6018
01,niet-bgt: straatkast,009,,9,009__,Meppel - Leeuwarden,Zl-Lw,Zwolle - Leeuwarden ,137.618421,"137,618421",6.955683,"6,955683",Noord-Oost,NO,ProRail,190686.090356,552499.7415,52.95834063,5.91826002,,,,,,,,Prorail,L0004,bestaand,,,2.031,283,0,,6019
01,niet-bgt: straatkast,555,,555,555__,Rotterdam Centraal,Ass-Rtd,Amsterdam Sloterdijk - Rotterdam ,83.72158,"83,721580",71.706793,"71,706793",Randstad Zuid,RZ,ProRail,91649.558453,437788.295,51.92496019,4.46621918,,,,,,,,Prorail,L0004,bestaand,,,5.572,283,0,,6020
01,niet-bgt: straatkast,042,,42,042__,Vork - Kesteren,Est-Gdm,Elst - Geldermalsen ,21.126211,"21,126211",13.485124,"13,485124",Noord-Oost,NO,ProRail,168148.304194,438129.3645,51.93147714,5.57837598,,,,,,,,Prorail,L0004,bestaand,,,30.709,283,0,gerealiseerd,6021
01,niet-bgt: straatkast,127,a,127,127_a,Roosendaal - Vlissingen,Rsd-Vs,Roosendaal - Vlissingen ,31.427334,"31,427334",-11.003941,"-11,003941",Zuid,Z,ProRail,66721.41,383420.772494,51.43297892,4.11767116,,,,,,,,Prorail,L0004,bestaand,,,1.989,283,0,,6022
01,niet-bgt: straatkast,079,,79,079__,Zaandam - Hoorn,Zd-Ekz,Zaandam - Enkhuizen ,13.298323,"13,298323",-12.739486,"-12,739486",Randstad Noord,RN,ProRail,125646.306,501929.059431,52.50426515,4.95488392,,,,,,,,Prorail,L0004,bestaand,,,9.816,283,0,,6023
01,niet-bgt: straatkast,008,,8,008__,Leeuwarden - Stavoren,Lw-Stv,Leeuwarden - Stavoren ,9.762125,"9,762125",-10.951949,"-10,951949",Noord-Oost,NO,ProRail,176928.031,571765.376723,53.13219459,5.71483023,,,,,,,,Prorail,L0004,bestaand,,,27.622,283,0,,6024
01,niet-bgt: straatkast,600,b,600,600_b,Sauwerd,Gn-Dz,Groningen - Delfzijl ,11.095576,"11,095576",10.004287,"10,004287",Noord-Oost,NO,ProRail,231890.3805,590151.059323,53.29231411,6.54030777,,,,,,,,Prorail,L0004,bestaand,,,3.327,283,0,,6025
01,schakelstation,203,,203,203__,Mariënberg - Emmen,Hea-Emn,Herfte Aansl. - Emmen ,67.127496,"67,127496",-15.432516,"-15,432516",Noord-Oost,NO,ProRail,254030.0485,527603.799,52.72676477,6.85317377,,,,,,0114100000263512,,Emmen,G0114,bestaand,,,10.499,283,0,gerealiseerd,6042
01,schakelstation,118,,118,118__,Geldermalsen - Dordrecht,Gdm-Ddr,Geldermalsen - Dordrecht ,63.162294,"63,162294",10.754157,"10,754157",Randstad Zuid,RZ,ProRail,130169.641008,432644.1915,51.88177755,5.02657304,,,,,,0689100000001258,,Molenlanden,G1978,bestaand,,,16.689,283,0,gerealiseerd,6082
01,schakelstation,118,,118,118__,Geldermalsen - Dordrecht,Gdm-Ddr,Geldermalsen - Dordrecht ,50.696294,"50,696294",-22.740059,"-22,740059",Zuid,Z,ProRail,142389.173,434587.125129,51.89965169,5.20397388,,,,,,0236100000003609,Beesd,West Betuwe,G1960,bestaand,,,16.459,283,0,gerealiseerd,6083
01,onderstation,055,,55,055__,Blerick - Eindhoven,Vl-Ehv,Venlo - Eindhoven ,35.94601,"35,946010",26.878973,"26,878973",Zuid,Z,ProRail,176420.836978,387027.432,51.47189704,5.69550616,,,,,,0794100000351033,Helmond,Helmond,G0794,bestaand,,,156.39,283,0,gerealiseerd,6100
01,transformatorgebouw,079,,79,079__,Zaandam - Hoorn,Zd-Ekz,Zaandam - Enkhuizen ,13.612062,"13,612062",-24.656191,"-24,656191",Randstad Noord,RN,ProRail,125806.117611,502198.851,52.50669835,4.95721396,De Oeverlanden,23,,,Purmerend,0439100000046749,,Purmerend,G0439,bestaand,,,33.428,283,0,gerealiseerd,6179
01,transformatorgebouw,028,,28,028__,Hengelo - Enschede Grens,Zp-Esg,Zutphen - Enschede Grens ,53.650493,"53,650493",-11.040294,"-11,040294",Noord-Oost,NO,ProRail,257840.713,471577.9545,52.22267558,6.89232448,Stationsplein,40,,,Enschede,0153100000287520,,Enschede,G0153,bestaand,,,17.186,283,0,gerealiseerd,6180
01,transformatorgebouw,028,,28,028__,Hengelo - Enschede Grens,Zp-Esg,Zutphen - Enschede Grens ,54.151116,"54,151116",-6.090289,"-6,090289",Noord-Oost,NO,ProRail,258332.59216,471669.329,52.22340464,6.89954884,Oldenzaalsestraat,104,H,,Enschede,0153100000281624,,Enschede,G0153,bestaand,,,19.907,283,0,gerealiseerd,6181
01,transformatorgebouw,522,b,522,522_b,Uitgeest,Hdr-Zd,Den Helder - Zaandam ,57.676103,"57,676103",34.718277,"34,718277",Randstad Noord,RN,ProRail,108446.359712,504113.5565,52.52270337,4.70127267,Provincialeweg,1,,1911MZ,Uitgeest,0450100000001665,,Uitgeest,G0450,bestaand,,,952.936,283,0,gerealiseerd,6182
01,transformatorgebouw,028,,28,028__,Hengelo - Enschede Grens,Zp-Esg,Zutphen - Enschede Grens ,53.150196,"53,150196",184.868084,"184,868084",Noord-Oost,NO,ProRail,257312.1905,471673.362072,52.22363118,6.88462067,Fortuinstraat,10,,,Enschede,0153100000225142,,Enschede,G0153,bestaand,,,10.912,283,0,gerealiseerd,6183
01,niet-bgt: transformatorgebouw,561,,561,561__,Den Haag Laan van NOI,Ass-Rtd,Amsterdam Sloterdijk - Rotterdam ,57.99878,"57,998780",-18.641991,"-18,641991",Randstad Zuid,RZ,ProRail,84538.71836,455778.713,52.08578426,4.35915621,,,,,,,,Prorail,L0004,bestaand,,,51.082,283,0,,6184
01,niet-bgt: schakelstation,122,,122,122__,Roosendaal - Breda,Rsd-Bd,Roosendaal - Breda ,8.399481,"8,399481",-23.105222,"-23,105222",Zuid,Z,ProRail,97850.3325,397222.286,51.56103769,4.5630347,,,,,,,Seppe,Prorail,L0004,bestaand,,,43.316,283,0,,6190
01,onderstation,206,,206,206__,Zwolle - Wierden,Zl-Wdn,Zwolle - Wierden ,17.204209,"17,204209",-13.829609,"-13,829609",Noord-Oost,NO,ProRail,215067.3665,490224.03983,52.39656457,6.26973652,Zwolsestraat,80,,8101AE,Raalte,0177100010093737,Raalte West,Raalte,G0177,bestaand,,,98.767,283,0,,6195
01,onderstation,152,a,152,152_a,Kijfhoek - Meteren Aansl.,Brppd-Brgnd,Betuweroute Papendrecht - Betuweroute Giessendam ,1.13947,"1,139470",-0.424634,"-0,424634",Randstad Zuid,RZ,ProRail,103330.4765,427123.131221,51.83031287,4.63761834,Ambachtsezoom,3,,,Hendrik-Ido-Ambacht,0531100000001690,Sophiatunnel,Hendrik-Ido-Ambacht,G0531,bestaand,,,666.689,283,0,gerealiseerd,6200
01,verdeelstation,152,a,152,152_a,Kijfhoek - Meteren Aansl.,Brppd-Brgnd,Betuweroute Papendrecht - Betuweroute Giessendam ,17.51156,"17,511560",17.5602,"17,560200",Randstad Zuid,RZ,ProRail,118430.6365,427730.443802,51.83696578,4.85660543,,,,,,0689100000004166,,Molenlanden,G1978,bestaand,,,16.917,283,0,gerealiseerd,6202
01,onderstation,013,,13,013__,Herfte Aansl. - Meppel,Zl-Lw,Zwolle - Leeuwarden ,81.535241,"81,535241",-25.758545,"-25,758545",Noord-Oost,NO,ProRail,209276.94,505270.793501,52.53238848,6.18711256,Berkummerbroekweg,19,T,8028PD,Zwolle,0193100000063882,Vechtbrug,Zwolle,G0193,bestaand,,,61.978,283,0,gerealiseerd,6247
01,onderstation,009,,9,009__,Meppel - Leeuwarden,Zl-Lw,Zwolle - Leeuwarden ,112.746701,"112,746701",18.890523,"18,890523",Noord-Oost,NO,ProRail,205994.921849,533569.7525,52.78700894,6.14310856,,,,,,1708100000023106,Havelterberg,Steenwijkerland,G1708,bestaand,,,46.343,283,0,,6248
01,onderstation,502,b,502,502_b,Meppel,Zl-Lw,Zwolle - Leeuwarden ,101.485172,"101,485172",-15.974796,"-15,974796",Noord-Oost,NO,ProRail,209949.8455,523709.022602,52.6980135,6.20008293,Burgemeester Mackaystraat,10,,,Meppel,0119100000001954,Meppel,Meppel,G0119,bestaand,,,157.575,283,0,gerealiseerd,6252
01,niet-bgt: straatkast,009,,9,009__,Meppel - Leeuwarden,Zl-Lw,Zwolle - Leeuwarden ,145.391703,"145,391703",-16.508848,"-16,508848",Noord-Oost,NO,ProRail,186569.6545,559065.308856,53.01759501,5.85764173,,,,,,,,Prorail,L0004,bestaand,,,8.836,283,0,,6253
01,autotransformatorstation,155,a,155,155_a,Meteren Aansl. - Ressen = Bemmel,Brgnd-Brech,Betuweroute Giessendam - Betuweroute Echteld ,49.324696,"49,324696",23.458871,"23,458871",Randstad Zuid,RZ,ProRail,149176.775,430242.579338,51.86071393,5.30266728,Blankertseweg,17,f,,Meteren,0236100000012497,,West Betuwe,G1960,bestaand,,,31.052,283,0,gerealiseerd,6255
01,autotransformatorstation,152,b,152,152_b,Kijfhoek - Meteren Aansl.,Brgnd-Brech,Betuweroute Giessendam - Betuweroute Echteld ,33.137262,"33,137262",28.566212,"28,566212",Randstad Zuid,RZ,ProRail,133446.9595,428007.620976,51.84023951,5.07446073,,,,,,0733100000008660,,West Betuwe,G1960,bestaand,,,32.156,283,0,,6256
01,schakelstation,161,,161,161__,Lelystad Industrieterrein - Hattemerbroek,Llsoa-Zl,Lelystad Opstelterrein Aansl. - Zwolle ,23.1,"23,100000",-13.94271,"-13,942710",Randstad Noord,RN,ProRail,180092.41,504755.7345,52.52987987,5.75697969,Boudewijnlaan,6,,,Dronten,0303100000645478,Boudewijnlaan,Dronten,G0303,bestaand,,,45.595,283,0,gerealiseerd,6274
01,schakelstation,161,,161,161__,Lelystad Industrieterrein - Hattemerbroek,Llsoa-Zl,Lelystad Opstelterrein Aansl. - Zwolle ,12.269944,"12,269944",-14.714139,"-14,714139",Randstad Noord,RN,ProRail,169591.795666,506823.908,52.54884844,5.60232928,Vuursteenweg,34,,,Swifterbant,0303100000645475,Swifterband,Dronten,G0303,bestaand,,,53.089,283,0,gerealiseerd,6275
01,schakelstation,087,,87,087__,Weesp Aansl. - Hilversum,Asd-Zp,Amsterdam Centraal - Zutphen ,23.497986,"23,497986",8.669437,"8,669437",Randstad Noord,RN,ProRail,139629.002,475624.487615,52.26842492,5.16202206,Brinklaan,162,,1404GX,Bussum,0381100000114545,Bussum,Bussum,G1942,bestaand,,,44.965,283,0,gerealiseerd,6276
01,schakelstation,135,,135,135__,Weesp Aansl. - Lelystad Industrieterrein,Wp-Llso,Weesp - Lelystad Opstel. ,27.000805,"27,000805",-16.823129,"-16,823129",Randstad Noord,RN,ProRail,153821.505503,492090.695,52.41662985,5.36988205,,,,,,0995100000723755,Lage Vaart,Lelystad,G0995,bestaand,,,28.604,283,0,gerealiseerd,6277
01,schakelstation,017,,17,017__,Amersfoort Aansl. - Hattemerbroek,Ama-Htba,Amersfoort Aansluiting - Hattemerbroek Aansluiting ,75.158771,"75,158771",10.789557,"10,789557",Noord-Oost,NO,ProRail,193769.491317,494498.3015,52.43689695,5.95733362,,,,,,0269100000007709,Wezep,Oldebroek,G0269,bestaand,,,41.626,283,0,gerealiseerd,6278
01,schakelstation,517,b,517,517_b,Venlo,Mt-Vl,Maastricht - Venlo ,68.638936,"68,638936",-28.530001,"-28,530001",Zuid,Z,ProRail,209961.2275,374231.7565,51.35461551,6.17622188,,,,,,0983100000035749,Venlo,Venlo,G0983,bestaand,,,22.797,283,0,gerealiseerd,6279
01,schakelstation,009,,9,009__,Meppel - Leeuwarden,Zl-Lw,Zwolle - Leeuwarden ,158.117523,"158,117523",7.953476,"7,953476",Noord-Oost,NO,ProRail,182867.407,571339.721618,53.12809426,5.80353068,,,,,,0080100000350349,Idaard-Roordahuizum,Leeuwarden,G0080,bestaand,,,38.247,283,0,gerealiseerd,6280
01,schakelstation,079,,79,079__,Zaandam - Hoorn,Zd-Ekz,Zaandam - Enkhuizen ,27.546823,"27,546823",7.09421,"7,094210",Randstad Noord,RN,ProRail,129528.931,514577.152252,52.61812857,5.01109805,,,,,,1598100000000632,,Koggenland,G1598,bestaand,,,25.673,283,0,,6281
01,schakelstation,079,,79,079__,Zaandam - Hoorn,Zd-Ekz,Zaandam - Enkhuizen ,10.069603,"10,069603",12.312849,"12,312849",Randstad Noord,RN,ProRail,123129.725,500064.2545,52.48736517,4.91799884,Wormerpad,3,A,,Purmerland,0415100000006696,Ilpendam,,G0415,bestaand,,,26.118,283,0,gerealiseerd,6282
01,schakelstation,009,,9,009__,Meppel - Leeuwarden,Zl-Lw,Zwolle - Leeuwarden ,129.308262,"129,308262",33.666462,"33,666462",Noord-Oost,NO,ProRail,195321.746224,545584.5985,52.89587499,5.98638644,Stadburen,2,,8488BH,Nijeholtwolde,0098100000080788,Wolvega,Weststellingwerf,G0098,bestaand,,,34.196,283,0,gerealiseerd,6289
01,straatkast,200,,200,200__,Winsum - Roodeschool,Swd-Rd,Sauwerd - Roodeschool ,8.234149,"8,234149",15.303678,"15,303678",Noord-Oost,NO,ProRail,230335.29,597907.148563,53.36221461,6.51881966,Stationsweg,6,T,,Baflo,0053100000004303,,Het Hogeland,G1966,bestaand,,,9.485,283,0,gerealiseerd,6299
01,straatkast,007,,7,007__,Sauwerd - Winsum,Swd-Rd,Sauwerd - Roodeschool ,4.700354,"4,700354",-15.830355,"-15,830355",Noord-Oost,NO,ProRail,230466.484,594391.252469,53.33061027,6.51995873,,,,,,0053100000003939,,Het Hogeland,G1966,bestaand,,,9.53,283,0,gerealiseerd,6300
01,onderstation,623,,623,623__,Alphen a/d Rijn,Wd-Ledn,Woerden - Leiden Centraal ,16.940783,"16,940783",-14.267014,"-14,267014",Randstad Zuid,RZ,ProRail,105229.995,459485.666664,52.12134687,4.66047748,Aziëlaan,385,A,,Alphen aan den Rijn,0484100000007864,,Alphen aan den Rijn,G0484,bestaand,,,180.433,283,0,gerealiseerd,6304
01,schakelstation,103,,103,103__,Alphen a/d Rijn - Leiden Centraal,Wd-Ledn,Woerden - Leiden Centraal ,28.778119,"28,778119",13.817774,"13,817774",Randstad Zuid,RZ,ProRail,94463.8965,462065.409476,52.14345773,4.50283167,Zaalbergweg,18,,2314XS,Leiden,0546100000017679,Zoeterwoude-West,Leiden,G0546,bestaand,,,72.777,283,0,gerealiseerd,6306
01,schakelstation,079,,79,079__,Zaandam - Hoorn,Zd-Ekz,Zaandam - Enkhuizen ,22.892803,"22,892803",18.701019,"18,701019",Randstad Noord,RN,ProRail,128926.811,509961.8885,52.57662295,5.00256951,,,,,,0478100000003818,Oosthuizen,Edam-Volendam,G0385,bestaand,,,27.629,283,0,gerealiseerd,6315
01,schakelstation,033,,33,033__,Dieren - Zutphen,Ah-Zl,Arnhem - Zwolle ,23.999402,"23,999402",18.09172,"18,091720",Noord-Oost,NO,ProRail,208075.3625,459673.704329,52.12272736,6.16221828,Windheuvelstraat,20,,6971JV,Brummen,0213100000080179,Voorstonden,Brummen,G0213,bestaand,,,25.492,283,0,gerealiseerd,6316
01,schakelstation,211,,211,211__,Barneveld Noord - Ede=Wageningen,Bnn-Ed,Barneveld Noord - Ede=Wageningen ,17.266925,"17,266925",23.54578,"23,545780",Noord-Oost,NO,ProRail,170384.1475,459331.007578,52.12198126,5.61183868,,,,,,0228100000069192,Barneveld Centrum (dorp),Ede,G0228,bestaand,,,27.368,283,0,gerealiseerd,6317
01,schakelstation,055,,55,055__,Blerick - Eindhoven,Vl-Ehv,Venlo - Eindhoven ,23.094281,"23,094281",-30.016353,"-30,016353",Zuid,Z,ProRail,188947.524941,384210.7095,51.44596347,5.87552314,Deurneseweg,20,,5766PJ,Griendtsveen,1507100000010182,Helenaveen,Horst aan de Maas,G1507,bestaand,,,30.037,283,0,gerealiseerd,6318
01,schakelstation,204,,204,204__,Herfte Aansl. - Mariënberg,Hea-Emn,Herfte Aansl. - Emmen ,18.272916,"18,272916",15.048524,"15,048524",Noord-Oost,NO,ProRail,220152.40862,502222.311,52.50380531,6.34677452,Vilsterse Allee,9,b,7734PB,Vilsteren,0175100000013592,Vilsteren,Ommen,G0175,bestaand,,,8.65,283,0,gerealiseerd,6319
01,schakelstation,203,,203,203__,Mariënberg - Emmen,Hea-Emn,Herfte Aansl. - Emmen ,41.108158,"41,108158",-16.630705,"-16,630705",Noord-Oost,NO,ProRail,238896.6595,508921.407798,52.56144578,6.6244733,Energieweg,6,t,,Hardenberg,0160100001399779,Hardenberg,Hardenberg,G0160,bestaand,,,28.001,283,0,gerealiseerd,6320
01,schakelstation,062,,62,062__,Sittard - Roermond,Mt-Vl,Maastricht - Venlo ,27.933177,"27,933177",-7.56259,"-7,562590",Zuid,Z,ProRail,188224.1015,340827.242643,51.05605433,5.86106521,IJsstraat,1,A,6114RM,Susteren,1711100000015365,,Echt-Susteren,G1711,bestaand,,,38.396,283,0,gerealiseerd,6321
01,schakelstation,119,a,119,119_a,Lage Zwaluwe - Dordrecht,Bd-Rtd,Breda - Rotterdam Centraal ,25.349904,"25,349904",23.676199,"23,676199",Randstad Zuid,RZ,ProRail,104822.948,421265.001336,51.77779746,4.66011774,Kilweg,1,A,3317LX,Dordrecht,0505100000042229,Dubbeldam,Dordrecht,G0505,bestaand,,,31.888,283,0,gerealiseerd,6322
01,schakelstation,122,,122,122__,Roosendaal - Breda,Rsd-Bd,Roosendaal - Breda ,15.299601,"15,299601",-25.313028,"-25,313028",Zuid,Z,ProRail,104434.711948,399290.43,51.58025703,4.65768292,Liesbosweg,13,,4872NE,Etten-Leur,0777100000129762,Etten-leur,Etten-Leur,G0777,bestaand,,,35.925,283,0,gerealiseerd,6323
01,schakelstation,125,,125,125__,Tilburg - Boxtel,Bd-Ehv,Breda - Eindhoven ,33.38161,"33,381610",11.813626,"11,813626",Zuid,Z,ProRail,144692.43021,399758.441,51.58664447,5.23847217,,,,,,0824100000008383,Haaren,Oisterwijk,G0824,bestaand,,,27.096,283,0,gerealiseerd,6324
01,schakelstation,043,,43,043__,Kesteren - Geldermalsen,Est-Gdm,Elst - Geldermalsen ,37.669936,"37,669936",24.359414,"24,359414",Zuid,Z,ProRail,153427.182613,431105.685,51.86849992,5.36436608,,,,,,0281100000000455,Wadenoijen,Tiel,G0281,bestaand,,,23.794,283,0,gerealiseerd,6325
01,schakelstation,112,,112,112__,Den Haag HS - Schiedam Centrum,Ass-Rtd,Amsterdam Sloterdijk - Rotterdam ,75.054103,"75,054103",-13.294673,"-13,294673",Randstad Zuid,RZ,ProRail,85895.4335,441632.741,51.95882552,4.38180479,Kandelaarweg,124,,3047EW,Rotterdam,0599100100005869,Kethel,Rotterdam,G0599,bestaand,,,27.942,283,0,gerealiseerd,6326
01,schakelstation,057,,57,057__,Eindhoven - Weert,Ehv-Wt,Eindhoven - Weert ,20.256533,"20,256533",23.102737,"23,102737",Zuid,Z,ProRail,171993.3105,368337.791072,51.30405368,5.63088308,,,,,,1706100000029209,Maarheeze,Cranendonck,G1706,bestaand,,,31.501,283,0,gerealiseerd,6327
01,schakelstation,085,,85,085__,Haarlem - Warmond,Ass-Rtd,Amsterdam Sloterdijk - Rotterdam ,24.575238,"24,575238",-6.168956,"-6,168956",Randstad Noord,RN,ProRail,100742.267,482779.121832,52.33026576,4.59122264,Leidsevaartweg,1,,2106NA,Heemstede,0397100000003897,Vogelenzang-Bennebroek,,G0397,bestaand,,,30.09,283,0,gerealiseerd,6328
01,schakelstation,586,,586,586__,Amsterdam Centraal,Awhv-Asd,Amsterdam Westhaven (gebied) - Amsterdam Centraal ,81.420035,"81,420035",36.411871,"36,411871",Randstad Noord,RN,ProRail,122421.093952,487802.1115,52.37712117,4.9087587,,,,,,0363100012181376,Amsterdam Oostelijk eiland,Amsterdam,G0363,bestaand,,,58.65,283,0,gerealiseerd,6329
01,schakelstation,059,,59,059__,Weert - Roermond,Bdl-Rm,Budel - Roermond ,73.579957,"73,579957",-17.745112,"-17,745112",Zuid,Z,ProRail,186271.131,361125.598,51.23861781,5.83498656,,,,,,1640100000065793,Kelpen,Leudal,G1640,bestaand,,,33.639,283,0,gerealiseerd,6330
01,schakelstation,518,,518,518__,Weert,Bdl-Rm,Budel - Roermond ,62.637939,"62,637939",24.776028,"24,776028",Zuid,Z,ProRail,175391.044936,362380.397,51.25039248,5.67926373,,,,,,0988100000296448,,Weert,G0988,bestaand,,,31.001,283,0,gerealiseerd,6331
01,schakelstation,055,,55,055__,Blerick - Eindhoven,Vl-Ehv,Venlo - Eindhoven ,29.826014,"29,826014",-16.097964,"-16,097964",Zuid,Z,ProRail,182330.934769,385424.8995,51.45723689,5.78044265,,,,,,0762100000007322,Deurne,Deurne,G0762,bestaand,,,37.129,283,0,gerealiseerd,6371
01,schakelstation,059,,59,059__,Weert - Roermond,Bdl-Rm,Budel - Roermond ,80.718074,"80,718074",-7.452677,"-7,452677",Zuid,Z,ProRail,193316.390447,360041.2705,51.22843911,5.93575034,Belebosweg,1,a,6081NH,Haelen,1640100000035885,,Leudal,G1640,bestaand,,,39.295,283,0,,6372
01,schakelstation,602,b,602,602_b,Herfte Aansl.,Zl-Lw,Zwolle - Leeuwarden ,77.474063,"77,474063",-24.933418,"-24,933418",Noord-Oost,NO,ProRail,206335.75359,502503.9215,52.50780789,6.1433444,Herfterlaan,16,T,8026RA,Zwolle,0193100000063768,Herfte-aansluiting,Zwolle,G0193,bestaand,,,30.28,283,0,gerealiseerd,6373
01,schakelstation,009,,9,009__,Meppel - Leeuwarden,Zl-Lw,Zwolle - Leeuwarden ,115.398931,"115,398931",-10.207168,"-10,207168",Noord-Oost,NO,ProRail,203462.469519,534308.4045,52.7938788,6.1056816,,,,,,1708100000021938,Steenwijk,Steenwijkerland,G1708,bestaand,,,37.718,283,0,gerealiseerd,6374
01,schakelstation,009,,9,009__,Meppel - Leeuwarden,Zl-Lw,Zwolle - Leeuwarden ,107.796647,"107,796647",23.547058,"23,547058",Noord-Oost,NO,ProRail,208551.9395,529685.902458,52.75186204,6.18037598,,,,,,0119100000012319,Nijeveen,Meppel,G0119,bestaand,,,34.982,283,0,gerealiseerd,6375
01,schakelstation,558,a,558,558_a,Amsterdam Riekerpolder,Sgra-Asra,Amsterdam Singelgracht Aansl. - Amsterdam Riekerpolder Aansl. ,58.144017,"58,144017",37.142061,"37,142061",Randstad Noord,RN,ProRail,117057.3085,483638.720734,52.33935931,4.83046048,,,,,,0363100012216425,Riekerpolder,Amsterdam,G0363,bestaand,,,71.973,283,0,gerealiseerd,6376
01,schakelstation,161,,161,161__,Lelystad Industrieterrein - Hattemerbroek,Llsoa-Zl,Lelystad Opstelterrein Aansl. - Zwolle ,31.900551,"31,900551",-17.081891,"-17,081891",Noord-Oost,NO,ProRail,188595.459298,505295.1845,52.53427111,5.88233553,Buitendijksweg,12,,8265PN,Kampen,0166100000029746,Kampen,Kampen,G0166,bestaand,,,54.828,283,0,gerealiseerd,6377
01,schakelstation,028,,28,028__,Hengelo - Enschede Grens,Zp-Esg,Zutphen - Enschede Grens ,49.000184,"49,000184",-11.722682,"-11,722682",Noord-Oost,NO,ProRail,253953.945928,473320.5425,52.23904488,6.83596711,Elsbeekweg,100,,,Enschede,0153100000246759,Elsbeek,Enschede,G0153,bestaand,,,27.938,283,0,gerealiseerd,6378
01,schakelstation,024,,24,024__,Deventer - Wierden,Dv-Aml,Deventer - Almelo ,14.180883,"14,180883",18.281111,"18,281111",Noord-Oost,NO,ProRail,221254.961548,476444.38,52.27202004,6.35792278,,,,,,1742100000015087,Dijkerhoek,Rijssen-Holten,G1742,bestaand,,,41.678,283,0,gerealiseerd,6379
01,schakelstation,127,a,127,127_a,Roosendaal - Vlissingen,Rsd-Vs,Roosendaal - Vlissingen ,47.699845,"47,699845",18.690839,"18,690839",Zuid,Z,ProRail,52506.1445,390730.9295,51.49626648,3.91117408,Patijnweg,99,,,Kloetinge,0664100000004986,Goes,Goes,G0664,bestaand,,,37.839,283,0,gerealiseerd,6380
01,schakelstation,127,a,127,127_a,Roosendaal - Vlissingen,Rsd-Vs,Roosendaal - Vlissingen ,21.97051,"21,970510",-36.229349,"-36,229349",Zuid,Z,ProRail,75821.168175,382863.2685,51.42931902,4.24863348,Oostelijke Schelderijnweg,25,,4411SX,Rilland,0703100000025541,Woensdrecht,Reimerswaal,G0703,bestaand,,,36.354,283,0,gerealiseerd,6381
01,schakelstation,047,,47,047__,s Hertogenbosch - Nijmegen,Ht-Nm,s-Hertogenbosch - Nijmegen ,58.609744,"58,609744",-23.791699,"-23,791699",Noord-Oost,NO,ProRail,180821.202,425516.222,51.81766401,5.76168896,Nieuweweg,279,,6603BN,Wijchen,0296100000021544,Wijchen,Wijchen,G0296,bestaand,,,50.747,283,0,gerealiseerd,6382
01,schakelstation,046,,46,046__,Meteren Aansl. - s Hertogenbosch,Ut-Btl,Utrecht Centraal - Boxtel ,40.148338,"40,148338",11.817583,"11,817583",Zuid,Z,ProRail,147083.9315,418641.050283,51.75640943,5.27255086,,,,,,0263100000018884,,Maasdriel,G0263,bestaand,,,23.182,283,0,gerealiseerd,6383
01,schakelstation,117,,117,117__,Lunetten - Geldermalsen,Ut-Btl,Utrecht Centraal - Boxtel ,22.254665,"22,254665",-11.34369,"-11,343690",Zuid,Z,ProRail,145846.0175,435994.8815,51.91237248,5.25416247,,,,,,0236100000005251,Broeksteeg,West Betuwe,G1960,bestaand,,,27.881,283,0,gerealiseerd,6384
01,schakelstation,127,a,127,127_a,Roosendaal - Vlissingen,Rsd-Vs,Roosendaal - Vlissingen ,59.286804,"59,286804",21.54469,"21,544690",Zuid,Z,ProRail,40961.3545,391650.314,51.5023083,3.74467948,Toldijk,1,,4458NN,'s-Heer Arendskerke,0664100000021128,Lewedorp,Goes,G0664,bestaand,,,46.645,283,0,gerealiseerd,6385
01,schakelstation,024,,24,024__,Deventer - Wierden,Dv-Aml,Deventer - Almelo ,33.163503,"33,163503",8.760433,"8,760433",Noord-Oost,NO,ProRail,236453.643739,486568.908,52.36096084,6.58300813,Looweg,1,,7641BG,Wierden,0189100000002413,Wierden,Wierden,G0189,bestaand,,,42.928,283,0,,6386
01,schakelstation,026,,26,026__,Hengelo - Oldenzaal Grens,Hgl-Odzg,Hengelo - Oldenzaal Grens ,32.761851,"32,761851",13.793254,"13,793254",Noord-Oost,NO,ProRail,267014.892742,481365.3595,52.30882548,7.02978718,Bentheimerstraat,76,,7587NJ,de Lutte,0168100000206598,De Poppe,Losser,G0168,bestaand,,,24.727,283,0,gerealiseerd,6387
01,niet-bgt: onderstation,561,,561,561__,Den Haag Laan van NOI,Ass-Rtd,Amsterdam Sloterdijk - Rotterdam ,58.166717,"58,166717",62.153519,"62,153519",Randstad Zuid,RZ,ProRail,84353.95432,455747.399,52.0854793,4.35646736,,,,,,,Den Haag Noord,Prorail,L0004,bestaand,,,297.074,283,0,,6394
01,onderstation,534,b,534,534_b,Leiden Centraal,Ass-Rtd,Amsterdam Sloterdijk - Rotterdam ,45.002931,"45,002931",32.36698,"32,366980",Randstad Zuid,RZ,ProRail,93425.596,465118.933698,52.17078514,4.48711164,,,,,,0546100000001493,Leiden,Leiden,G0546,bestaand,,,235.5,283,0,gerealiseerd,6395
01,onderstation,527,c,527,527_c,Haarlem,Ass-Rtd,Amsterdam Sloterdijk - Rotterdam ,17.815042,"17,815042",-25.656954,"-25,656954",Randstad Noord,RN,"ProRail, Besluit bijzondere spoorwegen",103103.667333,489061.631,52.38695429,4.62489283,Kinderhuissingel,1,B,2013AS,Haarlem,0392100000029457,Haarlem,Haarlem,G0392,bestaand,,,601.246,283,0,gerealiseerd,6397
01,onderstation,012,,12,012__,Meppel - Assen,Mp-Gn,Meppel - Groningen ,40.403189,"40,403189",14.886349,"14,886349",Noord-Oost,NO,ProRail,232697.9845,548001.238655,52.91350817,6.54228848,Stationsstraat,30,T,9414TH,Hooghalen,1731100000030936,,Midden-Drenthe,G1731,bestaand,,,199.765,283,0,gerealiseerd,6414
01,straatkast,012,,12,012__,Meppel - Assen,Mp-Gn,Meppel - Groningen ,8.351602,"8,351602",-16.811345,"-16,811345",Noord-Oost,NO,ProRail,217491.832652,524459.95,52.7039467,6.3117811,Stationsweg,8,,7958RX,Koekange,1690100000001793,,De Wolden,G1690,bestaand,,,9.742,283,0,gerealiseerd,6415
01,schakelstation,024,,24,024__,Deventer - Wierden,Dv-Aml,Deventer - Almelo ,20.441733,"20,441733",-14.530651,"-14,530651",Noord-Oost,NO,ProRail,227218.8835,478333.6855,52.28824815,6.44569226,,,,,,1742100000012041,Holten,Rijssen-Holten,G1742,bestaand,,,39.08,283,0,gerealiseerd,6424
01,schakelstation,102,,102,102__,Woerden - Alphen a/d Rijn,Wd-Ledn,Woerden - Leiden Centraal ,3.499181,"3,499181",19.622767,"19,622767",Randstad Zuid,RZ,ProRail,116691.1665,454041.97,52.07333328,4.82843285,,,,,,0497100000008418,Waarder,Bodegraven-Reeuwijk,G1901,bestaand,,,13.348,283,0,gerealiseerd,6425
01,schakelstation,661,b,661,661_b,Landgraaf,Std-Hz,Sittard - Herzogenrath (D) ,21.602335,"21,602335",-38.678635,"-38,678635",Zuid,Z,ProRail,199341.4485,323095.6705,50.89592038,6.01744098,Stationsplein,69,,,Landgraaf,0882100000027056,,Landgraaf,G0882,bestaand,,,35.496,283,0,gerealiseerd,6426
01,schakelstation,663,a,663,663_a,Rotterdam Barendrecht,Bd-Rtd,Breda - Rotterdam Centraal ,40.543033,"40,543033",-52.559558,"-52,559558",Randstad Zuid,RZ,ProRail,96774.392012,431210.7745,51.86640489,4.54182741,Fennaweg,28,g,2991ZA,Barendrecht,0489100000261293,,Barendrecht,G0489,bestaand,,,31.345,283,0,gerealiseerd,6427
01,schakelstation,062,,62,062__,Sittard - Roermond,Mt-Vl,Maastricht - Venlo ,42.873199,"42,873199",-9.787532,"-9,787532",Zuid,Z,ProRail,195658.652621,353233.768,51.16708751,5.96850539,,,,,,0957100000200560,Linne,Roermond,G0957,bestaand,,,27.841,283,0,gerealiseerd,6428
01,schakelstation,018,,18,018__,Deventer - Zwolle,Ah-Zl,Arnhem - Zwolle ,65.500084,"65,500084",-8.040182,"-8,040182",Noord-Oost,NO,ProRail,205532.419,495081.2275,52.44117682,6.1303903,Herxen,44,t,8131PH,Wijhe,1773100000004833,Windesheim,Olst-Wijhe,G1773,bestaand,,,38.3,283,0,gerealiseerd,6429
01,schakelstation,064,,64,064__,Sittard - Heerlen,Std-Hz,Sittard - Herzogenrath (D) ,12.70116,"12,701160",-13.385769,"-13,385769",Zuid,Z,ProRail,191240.563321,325154.5975,50.91499702,5.90251104,,,,,,0951100000000765,Nuth,Beekdaelen,G1954,bestaand,,,32.599,283,0,gerealiseerd,6430
01,schakelstation,063,,63,063__,Maastricht - Sittard,Mt-Vl,Maastricht - Venlo ,14.691854,"14,691854",-18.349228,"-18,349228",Zuid,Z,ProRail,183600.402,329278.954,50.95250205,5.79420334,,,,,,1883100000035744,Beek-Elsloo,Sittard-Geleen,G1883,bestaand,,,35.965,283,0,gerealiseerd,6431
01,schakelstation,204,,204,204__,Herfte Aansl. - Mariënberg,Hea-Emn,Herfte Aansl. - Emmen ,8.161932,"8,161932",-30.702897,"-30,702897",Noord-Oost,NO,ProRail,210338.3445,502219.4625,52.50486108,6.20224705,Herfterweg,2,T,7722KS,Dalfsen,0148100000000352,Marshoek,Dalfsen,G0148,bestaand,,,29.232,283,0,gerealiseerd,6432
01,schakelstation,609,,609,609__,Zutphen,Ah-Zl,Arnhem - Zwolle ,28.90866,"28,908660",19.752092,"19,752092",Noord-Oost,NO,ProRail,211091.43998,463202.775,52.15414607,6.2068375,Industrieweg,65,T,,Zutphen,0301100000030232,,Zutphen,G0301,bestaand,,,38.296,283,0,gerealiseerd,6433
01,schakelstation,075,,75,075__,Alkmaar - Uitgeest,Hdr-Zd,Den Helder - Zaandam ,53.330495,"53,330495",17.676256,"17,676256",Randstad Noord,RN,ProRail,105474.66,507179.065792,52.54999091,4.65703466,,,,,,0383100000037325,Castricum,Castricum,G0383,bestaand,,,26.594,283,0,gerealiseerd,6434
01,schakelstation,076,,76,076__,Santpoort Noord - Uitgeest,Hlm-Utg,Haarlem - Uitgeest ,11.491279,"11,491279",-11.361311,"-11,361311",Randstad Noord,RN,ProRail,105255.0095,499081.331685,52.47719909,4.65500395,,,,,,0375100000019099,,Beverwijk,G0375,bestaand,,,56.671,283,0,gerealiseerd,6435
01,schakelstation,216,,216,216__,Heerhugowaard - Hoorn,Hwd-Hn,Heerhugowaard - Hoorn ,17.725505,"17,725505",5.481387,"5,481387",Randstad Noord,RN,ProRail,127166.277048,519336.7785,52.66078708,4.97581217,,,,,,1598100000016952,L17,Koggenland,G1598,bestaand,,,9.443,283,0,gerealiseerd,6436
01,schakelstation,204,,204,204__,Herfte Aansl. - Mariënberg,Hea-Emn,Herfte Aansl. - Emmen ,28.597113,"28,597113",16.683421,"16,683421",Noord-Oost,NO,ProRail,230389.915067,502646.94,52.50630534,6.49762391,Beerzerweg,6,t,7731PA,Ommen,0175100001425701,Junne,Ommen,G0175,bestaand,,,12.142,283,0,gerealiseerd,6437
01,schakelstation,075,,75,075__,Alkmaar - Uitgeest,Hdr-Zd,Den Helder - Zaandam ,47.372831,"47,372831",22.535592,"22,535592",Randstad Noord,RN,ProRail,108315.2195,512415.682692,52.59730065,4.69817601,De Elba,9001,,1852GZ,Heiloo,0399100000012390,Heilo,,G0399,bestaand,,,24.799,283,0,gerealiseerd,6438
01,schakelstation,030,,30,030__,Zutphen - Deventer,Ah-Zl,Arnhem - Zwolle ,35.552649,"35,552649",-8.393056,"-8,393056",Noord-Oost,NO,ProRail,212420.286,469294.583454,52.20875723,6.22728424,Spoorpad,2,,7215AK,Joppe,0262100000020564,Gorssel,Lochem,G0262,bestaand,,,40.702,283,0,gerealiseerd,6439
01,schakelstation,503,a,503,503_a,Deventer,Dv-Aml,Deventer - Almelo ,2.619126,"2,619126",-8.558816,"-8,558816",Noord-Oost,NO,ProRail,210311.278345,473998.11,52.25124376,6.19720041,,,,,,0150100000040922,Snippeling aansluiting,Deventer,G0150,bestaand,,,51.935,283,0,gerealiseerd,6440
01,onderstation,023,,23,023__,Apeldoorn - Deventer,Apd-Dv,Apeldoorn - Deventer ,7.57268,"7,572680",-19.888679,"-19,888679",Noord-Oost,NO,ProRail,201618.508759,471952.7615,52.23366603,6.06962815,Hartelaar,10,T,,Twello,0285100000119265,Twello,Voorst,G0285,bestaand,,,60.135,283,0,gerealiseerd,6450
01,straatkast,023,,23,023__,Apeldoorn - Deventer,Apd-Dv,Apeldoorn - Deventer ,2.774931,"2,774931",-8.74588,"-8,745880",Noord-Oost,NO,ProRail,197331.7515,469926.85156,52.21580437,6.00662685,,,,,,0200100003930519,,Apeldoorn,G0200,bestaand,,,7.678,283,0,gerealiseerd,6451
01,onderstation,228,,228,228__,Lage Zwaluwe - s Hertogenbosch,Zlw-Hzl,Lage Zwaluwe - Hooge Zwaluwe ,1.223984,"1,223984",-22.042636,"-22,042636",Zuid,Z,ProRail,105452.492,410340.348935,51.67966412,4.67079752,,,,,,1709100000028688,Lage Zwaluwe,Moerdijk,G1709,bestaand,,,173.717,283,0,gerealiseerd,6463
01,onderstation,017,,17,017__,Amersfoort Aansl. - Hattemerbroek,Ama-Htba,Amersfoort Aansluiting - Hattemerbroek Aansluiting ,63.418603,"63,418603",-27.489544,"-27,489544",Noord-Oost,NO,ProRail,184189.484559,487779.838,52.37711044,5.81587324,Eperweg,101,,8072PL,Nunspeet,0302100000100486,Vossenberg,Nunspeet,G0302,bestaand,,,44.94,283,0,gerealiseerd,6470
01,onderstation,017,,17,017__,Amersfoort Aansl. - Hattemerbroek,Ama-Htba,Amersfoort Aansluiting - Hattemerbroek Aansluiting ,78.033596,"78,033596",17.270098,"17,270098",Noord-Oost,NO,ProRail,196217.637291,496007.0945,52.45027776,5.99351904,,,,,,0269100000009733,Hattem,Oldebroek,G0269,bestaand,,,98.943,283,0,gerealiseerd,6475
01,schakelstation,017,,17,017__,Amersfoort Aansl. - Hattemerbroek,Ama-Htba,Amersfoort Aansluiting - Hattemerbroek Aansluiting ,60.9,"60,900000",9.446627,"9,446627",Noord-Oost,NO,ProRail,181795.919386,486992.267,52.37015435,5.78065998,,,,,,0302100000109692,Nunspeet,Nunspeet,G0302,bestaand,,,32.784,283,0,gerealiseerd,6480
01,schakelstation,562,b,562,562_b,De Haar Aansl.,Asa-Zvg,Amsterdam Amstel - Zevenaar Grens ,61.199413,"61,199413",35.500608,"35,500608",Randstad Noord,RN,ProRail,160709.224989,451514.7145,52.05191298,5.47043713,Laagerfseweg,100,,3931PG,Woudenberg,0351100000000747,De Haar,Woudenberg,G0351,bestaand,,,32.5,283,0,gerealiseerd,6481
01,schakelstation,120,a,120,120_a,Lage Zwaluwe - Roosendaal,Zlw-Np,Lage Zwaluwe - Nispen ,7.239342,"7,239342",-10.706964,"-10,706964",Zuid,Z,ProRail,101365.62,406349.095,51.64341496,4.61232476,,,,,,1709100000034872,Zevenbergen,Moerdijk,G1709,bestaand,,,32.287,283,0,gerealiseerd,6482
01,schakelstation,127,a,127,127_a,Roosendaal - Vlissingen,Rsd-Vs,Roosendaal - Vlissingen ,9.501825,"9,501825",-21.61197,"-21,611970",Zuid,Z,ProRail,81578.11,391483.975,51.50757546,4.32960452,Bergsebaan,28,,4622RN,Bergen op Zoom,0748100000025933,Zanderijen,Bergen op Zoom,G0748,bestaand,,,35.887,283,0,gerealiseerd,6483
01,schakelstation,026,,26,026__,Hengelo - Oldenzaal Grens,Hgl-Odzg,Hengelo - Oldenzaal Grens ,20.813478,"20,813478",-8.883053,"-8,883053",Noord-Oost,NO,ProRail,255786.818427,478337.6025,52.28379265,6.86428973,,,,,,1774100011080696,,Dinkelland,G1774,bestaand,,,29.354,283,0,,6484
01,schakelstation,211,,211,211__,Barneveld Noord - Ede=Wageningen,Bnn-Ed,Barneveld Noord - Ede=Wageningen ,23.513118,"23,513118",18.778183,"18,778183",Noord-Oost,NO,ProRail,172167.5545,453966.804875,52.07371558,5.6376089,,,,,,0228100000024459,Lunteren,Ede,G0228,bestaand,,,22.272,283,0,gerealiseerd,6485
01,schakelstation,055,,55,055__,Blerick - Eindhoven,Vl-Ehv,Venlo - Eindhoven ,6.443044,"6,443044",-20.632898,"-20,632898",Zuid,Z,ProRail,204377.781445,379198.2315,51.39977029,6.09676604,,,,,,0983100000051145,Heijerhoeven,Venlo,G0983,bestaand,,,28.69,283,0,gerealiseerd,6486
01,schakelstation,203,,203,203__,Mariënberg - Emmen,Hea-Emn,Herfte Aansl. - Emmen ,42.507759,"42,507759",-12.800176,"-12,800176",Noord-Oost,NO,ProRail,239218.354,510247.608093,52.57331277,6.62955226,Parallelweg,9,t,7772SB,Hardenberg,0160100001420429,,Hardenberg,G0160,bestaand,,,49.22,283,0,,6487
01,schakelstation,012,,12,012__,Meppel - Assen,Mp-Gn,Meppel - Groningen ,34.028836,"34,028836",21.021033,"21,021033",Noord-Oost,NO,ProRail,231419.454,541737.524163,52.85741098,6.52182161,Paltz,21,T,,Beilen,1731100000008856,Beilen,Midden-Drenthe,G1731,bestaand,,,35.328,283,0,gerealiseerd,6488
01,schakelstation,017,,17,017__,Amersfoort Aansl. - Hattemerbroek,Ama-Htba,Amersfoort Aansluiting - Hattemerbroek Aansluiting ,27.50663,"27,506630",-19.252317,"-19,252317",Randstad Noord,RN,ProRail,158509.274167,467447.441,52.19513421,5.43852917,,,,,,0307100000523051,Hooglanderveen,Amersfoort,G0307,bestaand,,,43.269,283,0,,6489
01,schakelstation,102,,102,102__,Woerden - Alphen a/d Rijn,Wd-Ledn,Woerden - Leiden Centraal ,1.333517,"1,333517",15.049909,"15,049909",Randstad Noord,RN,ProRail,118843.345,453793.7815,52.07124729,4.85984938,Waardsedijk,45,A,3448HV,Woerden,0632100000000021,Waardse dijk,Woerden,G0632,bestaand,,,10.051,283,0,,6490
01,schakelstation,064,,64,064__,Sittard - Heerlen,Std-Hz,Sittard - Herzogenrath (D) ,6.949538,"6,949538",7.510027,"7,510027",Zuid,Z,ProRail,187222.5335,328448.32,50.94484316,5.84567328,,,,,,0888100000010365,Spaubeek,Beek,G0888,bestaand,,,37.526,283,0,,6491
01,schakelstation,018,,18,018__,Deventer - Zwolle,Ah-Zl,Arnhem - Zwolle ,51.580545,"51,580545",-8.498858,"-8,498858",Noord-Oost,NO,ProRail,204866.266,481866.1645,52.32247479,6.11863123,Diepenveenseweg,6,t,8121DV,Olst,1773100000005282,Olst,Olst-Wijhe,G1773,bestaand,,,38.223,283,0,,6492
01,schakelstation,551,b,551,551_b,Tilburg,Bd-Ehv,Breda - Eindhoven ,24.110026,"24,110026",10.04257,"10,042570",Zuid,Z,ProRail,135853.172038,397132.869,51.56281288,5.11107397,Spoordijk,11,,,Tilburg,0855100000541804,,Tilburg,G0855,bestaand,,,55.087,283,0,,6493
01,schakelstation,217,,217,217__,Hoorn - Enkhuizen,Zd-Ekz,Zaandam - Enkhuizen ,39.989855,"39,989855",-7.21765,"-7,217650",Randstad Noord,RN,ProRail,138695.0725,521480.088,52.68051594,5.14610471,,,,,,0498100000014897,L40,Drechterland,G0498,bestaand,,,9.36,283,0,,6494
01,schakelstation,661,b,661,661_b,Landgraaf,Std-Hz,Sittard - Herzogenrath (D) ,21.599267,"21,599267",-20.714567,"-20,714567",Zuid,Z,ProRail,199335.253286,323112.7985,50.89607481,6.01735503,Stationsstraat,70,,,Landgraaf,0882100013087831,,Landgraaf,G0882,bestaand,,,27.217,283,0,,6495
01,schakelstation,084,,84,084__,Amsterdam Sloterdijk - Haarlem,Ass-Rtd,Amsterdam Sloterdijk - Rotterdam ,11.901243,"11,901243",10.599969,"10,599969",Randstad Noord,RN,ProRail,108762.958868,488859.273,52.38564162,4.70804477,,,,,,0393100000004164,,Haarlemmermeer,G0394,bestaand,,,39.106,283,0,,6496
01,straatkast,042,,42,042__,Vork - Kesteren,Est-Gdm,Elst - Geldermalsen ,11.495429,"11,495429",16.353456,"16,353456",Noord-Oost,NO,ProRail,177698.088712,436899.543,51.92011533,5.71714466,Leigraafseweg,4,a,6671MC,Zetten,1734101000023250,,Overbetuwe,G1734,bestaand,,,26.552,283,0,gerealiseerd,6514
01,onderstation,083,,83,083__,Haarlem - Zandvoort aan Zee,Hlmjl-Zvt,Haarlem Julianalaan - Zandvoort aan Zee ,7.794474,"7,794474",-19.516318,"-19,516318",Randstad Noord,RN,ProRail,97051.083,487723.802,52.37432589,4.53622538,Haltestraat,98,,,Zandvoort,0473100000004521,Zandvoort aan Zee,Zandvoort,G0473,bestaand,,,45.519,283,0,gerealiseerd,6526
01,niet-bgt: schakelstation,118,,118,118__,Geldermalsen - Dordrecht,Gdm-Ddr,Geldermalsen - Dordrecht ,75.099653,"75,099653",-6.405045,"-6,405045",Randstad Zuid,RZ,ProRail,121612.744618,427775.6195,51.83757139,4.90276967,,,,,,,Giessenburg,Prorail,L0004,bestaand,,,15.852,283,0,,6535
01,niet-bgt: schakelstation,098,,98,098__,Breukelen - Utrecht Centraal,Asa-Zvg,Amsterdam Amstel - Zevenaar Grens ,28.010192,"28,010192",20.168959,"20,168959",Randstad Noord,RN,ProRail,131005.403491,460703.1885,52.13400841,5.0367457,,,,,,,,Prorail,L0004,bestaand,,,40.266,283,0,,6536
01,niet-bgt: schakelstation,135,,135,135__,Weesp Aansl. - Lelystad Industrieterrein,Wp-Llso,Weesp - Lelystad Opstel. ,31.401111,"31,401111",-16.629854,"-16,629854",Randstad Noord,RN,ProRail,156506.9635,495324.044636,52.44568857,5.40936965,,,,,,,Knardijk,Prorail,L0004,bestaand,,,26.659,283,0,,6537
01,niet-bgt: schakelstation,586,,586,586__,Amsterdam Centraal,Awhv-Asd,Amsterdam Westhaven (gebied) - Amsterdam Centraal ,80.139266,"80,139266",51.594128,"51,594128",Randstad Noord,RN,ProRail,121321.670261,488393.5145,52.38236994,4.89255413,,,,,,,Amsterdam Westelijk eiland,Prorail,L0004,bestaand,,,26.359,283,0,,6538
01,niet-bgt: schakelstation,073,,73,073__,Den Helder - Heerhugowaard,Hdr-Zd,Den Helder - Zaandam ,14.781417,"14,781417",-6.090826,"-6,090826",Randstad Noord,RN,ProRail,115786.2785,539805.368129,52.84402534,4.80518254,,,,,,,Zijperdijk,Prorail,L0004,bestaand,,,39.306,283,0,,6539
01,niet-bgt: schakelstation,025,,25,025__,Almelo - Hengelo,Aml-Hgl,Almelo - Hengelo ,5.41892,"5,418920",-13.226768,"-13,226768",Noord-Oost,NO,ProRail,244277.800925,482791.506,52.32580184,6.69684314,,,,,,,Zenderen,Prorail,L0004,bestaand,,,53.673,283,0,,6540
01,niet-bgt: schakelstation,009,,9,009__,Meppel - Leeuwarden,Zl-Lw,Zwolle - Leeuwarden ,150.871228,"150,871228",9.085763,"9,085763",Noord-Oost,NO,ProRail,184990.151,564353.104637,53.06520046,5.83459445,,,,,,,Akkrum,Prorail,L0004,bestaand,,,37.575,283,0,,6541
01,omvormergebouw,071,,71,071__,Eijsden - Maastricht,Fvs-Mt,Visé (B) - Maastricht ,18.47508,"18,475080",10.740837,"10,740837",Zuid,Z,ProRail,177366.26,307966.795,50.76121221,5.70417453,Beeldjesweg-Zuid,1,,,Eijsden,0905100000007746,,Eijsden-Margraten,G1903,bestaand,,,27.048,283,0,gerealiseerd,6568
01,onderstation,047,,47,047__,s Hertogenbosch - Nijmegen,Ht-Nm,s-Hertogenbosch - Nijmegen ,44.277976,"44,277976",-25.796014,"-25,796014",Zuid,Z,ProRail,167907.515,420079.102,51.76924178,5.57419938,Ploeg,39,,,Berghem,0828100001454894,Berghem,Oss,G0828,bestaand,,,203.471,283,0,gerealiseerd,6578
01,schakelstation,047,,47,047__,s Hertogenbosch - Nijmegen,Ht-Nm,s-Hertogenbosch - Nijmegen ,36.977161,"36,977161",-19.323728,"-19,323728",Zuid,Z,ProRail,161075.232514,417818.689,51.74904046,5.47517736,De Kouwe Noord,11,,5386JZ,Geffen,1671100000009012,Geffen,Oss,G0828,bestaand,,,45.272,283,0,gerealiseerd,6579
01,schakelstation,047,,47,047__,s Hertogenbosch - Nijmegen,Ht-Nm,s-Hertogenbosch - Nijmegen ,29.708503,"29,708503",-26.894022,"-26,894022",Zuid,Z,ProRail,154641.847222,414430.95,51.71862296,5.382019,,,,,,0796100000216119,Rosmalen,'s-Hertogenbosch,G0796,bestaand,,,36.015,283,0,gerealiseerd,6580
01,straatkast,047,,47,047__,s Hertogenbosch - Nijmegen,Ht-Nm,s-Hertogenbosch - Nijmegen ,56.384394,"56,384394",-11.933784,"-11,933784",Noord-Oost,NO,ProRail,178707.619691,424817.857,51.81148081,5.73098818,Stationslaan,14,,6602BP,Wijchen,0296100000019364,,Wijchen,G0296,bestaand,,,8.654,283,0,gerealiseerd,6581
01,onderstation,078,,78,078__,Uitgeest - Zaandam,Hdr-Zd,Den Helder - Zaandam ,63.547968,"63,547968",14.271984,"14,271984",Randstad Noord,RN,ProRail,113141.179311,500825.461,52.49353327,4.7708556,,,,,,0479100000002563,Krommenie-Assendelft,Zaanstad,G0479,bestaand,,,275.531,283,0,gerealiseerd,6605
01,straatkast,205,,205,205__,Mariënberg - Almelo,Mrb-Aml,Mariënberg - Almelo ,6.01854,"6,018540",31.789518,"31,789518",Noord-Oost,NO,ProRail,235406.062144,497204.167,52.45668304,6.57018212,,,,,,1700100000004717,,Twenterand,G1700,bestaand,,,7.005,283,0,gerealiseerd,6677
01,straatkast,042,,42,042__,Vork - Kesteren,Est-Gdm,Elst - Geldermalsen ,14.664253,"14,664253",-14.487563,"-14,487563",Noord-Oost,NO,ProRail,174533.597761,437136.0925,51.92236167,5.67115928,,,,,,1740100000007390,,Neder-Betuwe,G1740,bestaand,,,10.411,283,0,gerealiseerd,6678
01,straatkast,060,,60,060__,Roermond - Venlo,Mt-Vl,Maastricht - Venlo ,65.386242,"65,386242",22.920354,"22,920354",Zuid,Z,ProRail,207377.859294,372241.1195,51.33696877,6.13884378,,,,,,0983100000047362,,Venlo,G0983,bestaand,,,17.661,283,0,gerealiseerd,6679
01,straatkast,002,,2,002__,Leeuwarden - Groningen,Hlg-Nscg,Harlingen - Nieuweschans Grens ,29.564493,"29,564493",4.296864,"4,296864",Noord-Oost,NO,ProRail,185339.236949,579579.56,53.201999,5.84123322,,,,,,0080100000351024,,Leeuwarden,G0080,bestaand,,,8.715,283,0,gerealiseerd,6680
01,straatkast,021,,21,021__,Barneveld Noord - Apeldoorn,Asd-Zp,Amsterdam Centraal - Zutphen ,74.32035,"74,320350",-22.61894,"-22,618940",Noord-Oost,NO,ProRail,182028.394015,467646.2055,52.19626937,5.7825237,,,,,,0200100000960917,,Apeldoorn,G0200,bestaand,,,40.152,283,0,gerealiseerd,6681
01,straatkast,200,,200,200__,Winsum - Roodeschool,Swd-Rd,Sauwerd - Roodeschool ,20.740717,"20,740717",-14.579127,"-14,579127",Noord-Oost,NO,ProRail,240677.3125,603342.3075,53.40947804,6.67559337,Oosterstationsstraat,28,,,Uithuizen,1651100000008037,,Het Hogeland,G1966,bestaand,,,7.718,283,0,gerealiseerd,6682
01,niet-bgt: autotransformatorstation,158,,158,158__,Ressen = Bemmel - Zevenaar,Brech-Brzv,Betuweroute Echteld - Betuweroute Zevenaar ,95.678032,"95,678032",32.664891,"32,664891",Randstad Zuid,RZ,ProRail,192684.883,435173.409207,51.90378718,5.93479768,,,,,,,,Prorail,L0004,bestaand,,,30.004,283,0,,6696
01,straatkast,002,,2,002__,Leeuwarden - Groningen,Hlg-Nscg,Harlingen - Nieuweschans Grens ,50.983461,"50,983461",23.24046,"23,240460",Noord-Oost,NO,ProRail,205584.59,585826.8955,53.25660114,6.1451678,,,,,,0059100000825586,,Achtkarspelen,G0059,bestaand,,,10.4,283,0,gerealiseerd,6718
01,straatkast,120,a,120,120_a,Lage Zwaluwe - Roosendaal,Zlw-Np,Lage Zwaluwe - Nispen ,9.77044,"9,770440",-12.57506,"-12,575060",Zuid,Z,ProRail,100016.491406,404211.764,51.62407431,4.59317178,De Hoop,7,,,Hoeven,1655100000504444,,Halderberge,G1655,bestaand,,,7.711,283,0,gerealiseerd,6719
01,straatkast,043,,43,043__,Kesteren - Geldermalsen,Est-Gdm,Elst - Geldermalsen ,36.990482,"36,990482",-17.86296,"-17,862960",Zuid,Z,ProRail,154104.015921,431093.999,51.86839637,5.37419333,Dreef,50,,4014ML,Wadenoijen,0281100000000463,,Tiel,G0281,bestaand,,,9.247,283,0,gerealiseerd,6720
01,straatkast,210,,210,210__,Zutphen - Winterswijk,Zp-Ww,Zutphen - Winterswijk ,11.967703,"11,967703",-9.471537,"-9,471537",Noord-Oost,NO,ProRail,218921.07614,458003.4255,52.10656896,6.32025712,,,,,,1876100000015489,,Bronckhorst,G1876,bestaand,,,6.132,283,0,gerealiseerd,6721
01,straatkast,212,,212,212__,Winterswijk - Zevenaar,Ww-Zv,Winterswijk-Zevenaar ,28.779856,"28,779856",-5.53709,"-5,537090",Noord-Oost,NO,ProRail,221088.94222,438488.837,51.9309348,6.34812767,,,,,,0222100000602516,,Doetinchem,G0222,bestaand,,,14.17,283,0,gerealiseerd,6722
01,straatkast,008,,8,008__,Leeuwarden - Stavoren,Lw-Stv,Leeuwarden - Stavoren ,21.592131,"21,592131",-10.653059,"-10,653059",Noord-Oost,NO,ProRail,172843.4275,560736.606,53.03324313,5.6531953,,,,,,1900100010077887,,Súdwest Fryslân,G1900,bestaand,,,26.809,283,0,gerealiseerd,6723
01,straatkast,009,,9,009__,Meppel - Leeuwarden,Zl-Lw,Zwolle - Leeuwarden ,134.486337,"134,486337",-10.936874,"-10,936874",Noord-Oost,NO,ProRail,192466.742939,549900.9045,52.93486689,5.94445847,Uraniumweg,1,,8445PH,Heerenveen,0074100000404964,,Heerenveen,G0074,bestaand,,,6.09,283,0,gerealiseerd,6724
01,straatkast,013,,13,013__,Herfte Aansl. - Meppel,Zl-Lw,Zwolle - Leeuwarden ,88.196812,"88,196812",6.776599,"6,776599",Noord-Oost,NO,ProRail,211719.829,511508.536558,52.58819527,6.22417461,,,,,,0180100000000587,,Staphorst,G0180,bestaand,,,9.531,283,0,gerealiseerd,6725
01,straatkast,200,,200,200__,Winsum - Roodeschool,Swd-Rd,Sauwerd - Roodeschool ,26.947322,"26,947322",-12.458604,"-12,458604",Noord-Oost,NO,Strukton Rail Short Line,246343.847528,604552.716,53.41940897,6.76112935,,,,,,1651100000003245,,Het Hogeland,G1966,bestaand,,,9.889,283,0,gerealiseerd,6726
01,straatkast,028,,28,028__,Hengelo - Enschede Grens,Zp-Esg,Zutphen - Enschede Grens ,53.067224,"53,067224",-41.318756,"-41,318756",Noord-Oost,NO,ProRail,257275.014866,471435.2925,52.22149895,6.88400485,,,,,,0153100000261520,,Enschede,G0153,bestaand,,,56.318,283,0,gerealiseerd,6727
01,straatkast,071,,71,071__,Eijsden - Maastricht,Fvs-Mt,Visé (B) - Maastricht ,19.699045,"19,699045",12.009934,"12,009934",Zuid,Z,ProRail,177749.6465,309129.477504,50.77164809,5.70968041,Stationsplein,8,C,6245AE,Eijsden,0905100000009051,,Eijsden-Margraten,G1903,bestaand,,,6.143,283,0,gerealiseerd,6728
01,straatkast,091,,91,091__,Den Dolder - Baarn,Dld-Brn,Den Dolder - Baarn ,5.120839,"5,120839",-9.414661,"-9,414661",Randstad Noord,RN,ProRail,149249.9675,464130.627598,52.16530448,5.30316164,Eikenlaan,44,,,Soest,0342100000026491,,Soest,G0342,bestaand,,,9.451,283,0,gerealiseerd,6729
01,straatkast,018,,18,018__,Deventer - Zwolle,Ah-Zl,Arnhem - Zwolle ,59.695358,"59,695358",13.600024,"13,600024",Noord-Oost,NO,ProRail,206314.9085,489538.4785,52.39129223,6.1410489,Stationsweg,50,t,8131DH,Wijhe,1773100000003874,,Olst-Wijhe,G1773,bestaand,,,6.253,283,0,gerealiseerd,6730
01,straatkast,200,,200,200__,Winsum - Roodeschool,Swd-Rd,Sauwerd - Roodeschool ,23.855989,"23,855989",10.748775,"10,748775",Noord-Oost,NO,ProRail,243670.577404,603899.155,53.41399011,6.72074864,Stationsstraat,1,A,,Uithuizermeeden,1651100000003105,,Het Hogeland,G1966,bestaand,,,10.34,283,0,gerealiseerd,6731
01,straatkast,026,,26,026__,Hengelo - Oldenzaal Grens,Hgl-Odzg,Hengelo - Oldenzaal Grens ,17.313223,"17,313223",-10.912071,"-10,912071",Noord-Oost,NO,ProRail,252742.720607,476593.805,52.26867291,6.8191856,,,,,,0164100000060712,,Hengelo (O),G0164,bestaand,,,8.793,283,0,gerealiseerd,6732
01,straatkast,001,a,1,001_a,Harlingen Haven - Leeuwarden,Hlg-Nscg,Harlingen - Nieuweschans Grens ,15.525518,"15,525518",14.655339,"14,655339",Noord-Oost,NO,ProRail,171555.23,576826.06,53.17786081,5.63481691,Hatzum,15,,9035VK,Dronryp,1908100000008833,,het Bildt,G1949,bestaand,,,27.702,283,0,gerealiseerd,6733
01,straatkast,005,,5,005__,Zuidbroek - Nieuweschans Grens,Hlg-Nscg,Harlingen - Nieuweschans Grens ,127.014946,"127,014946",-13.241369,"-13,241369",Noord-Oost,NO,ProRail,276304.6955,579126.6505,53.18505873,7.20194541,Verlengde Hoofdstraat,19,T,,Bad Nieuweschans,1895100000027558,,Oldambt,G1895,bestaand,,,5.19,283,0,gerealiseerd,6734
01,onderstation,127,a,127,127_a,Roosendaal - Vlissingen,Rsd-Vs,Roosendaal - Vlissingen ,72.8004,"72,800400",9.705794,"9,705794",Zuid,Z,ProRail,30299.3575,386951.162556,51.4578257,3.59284687,Energieweg,6,,,Vlissingen,0718100000006459,Vlissingen,Vlissingen,G0718,bestaand,,,160.653,283,0,gerealiseerd,6745
01,schakelstation,127,a,127,127_a,Roosendaal - Vlissingen,Rsd-Vs,Roosendaal - Vlissingen ,3.285442,"3,285442",-19.70277,"-19,702770",Zuid,Z,ProRail,87731.017132,392400.5465,51.51658207,4.41804516,Oostlaarsestraat,2,,,Roosendaal,1674100001262308,Bulkenaar,Roosendaal,G1674,bestaand,,,38.444,283,0,gerealiseerd,6746
01,schakelstation,127,a,127,127_a,Roosendaal - Vlissingen,Rsd-Vs,Roosendaal - Vlissingen ,28.519413,"28,519413",13.873416,"13,873416",Zuid,Z,ProRail,69309.42,382207.167,51.42247127,4.15517571,Haltestraat,66,,,Rilland,0703100000024539,Rilland-bath,Reimerswaal,G0703,bestaand,,,38.55,283,0,gerealiseerd,6747
01,schakelstation,127,a,127,127_a,Roosendaal - Vlissingen,Rsd-Vs,Roosendaal - Vlissingen ,40.750399,"40,750399",-13.999203,"-13,999203",Zuid,Z,ProRail,58638.208226,387608.099,51.46928579,4.0003128,,,,,,0678100000002900,Vlakebrug,Kapelle,G0678,bestaand,,,27.982,283,0,gerealiseerd,6748
01,straatkast,200,,200,200__,Winsum - Roodeschool,Swd-Rd,Sauwerd - Roodeschool ,12.984942,"12,984942",18.668485,"18,668485",Noord-Oost,NO,ProRail,233546.2795,601166.684,53.39103326,6.56784559,Stationsweg,17,A,,Warffum,1651100000003802,,Het Hogeland,G1966,bestaand,,,9.038,283,0,gerealiseerd,6778
01,straatkast,200,,200,200__,Winsum - Roodeschool,Swd-Rd,Sauwerd - Roodeschool ,16.022993,"16,022993",15.308724,"15,308724",Noord-Oost,NO,ProRail,236264.1725,602334.1215,53.40111306,6.60898767,Stationsstraat,1,A,,Usquert,1651100000007023,,Het Hogeland,G1966,bestaand,,,10.142,283,0,gerealiseerd,6779
01,straatkast,004,,4,004__,Waterhuizen Aansl. - Zuidbroek,Hlg-Nscg,Harlingen - Nieuweschans Grens ,92.533032,"92,533032",-15.836027,"-15,836027",Noord-Oost,NO,ProRail,244421.92,575782.509,53.16128378,6.72419355,Woldweg,27,,9602CV,Hoogezand,0018100000052780,,Hoogezand-Sappemeer,G1952,bestaand,,,6.199,283,0,gerealiseerd,6780
01,straatkast,017,,17,017__,Amersfoort Aansl. - Hattemerbroek,Ama-Htba,Amersfoort Aansluiting - Hattemerbroek Aansluiting ,55.275322,"55,275322",16.145956,"16,145956",Noord-Oost,NO,ProRail,176939.513142,484185.982,52.3451486,5.70916934,,,,,,0302100000105717,,Nunspeet,G0302,bestaand,,,8.242,283,0,gerealiseerd,6781
01,straatkast,004,,4,004__,Waterhuizen Aansl. - Zuidbroek,Hlg-Nscg,Harlingen - Nieuweschans Grens ,93.662039,"93,662039",-12.078046,"-12,078046",Noord-Oost,NO,ProRail,245554.097759,575736.3385,53.16067905,6.74110373,Spoorstraat Zuid,34,,9602AA,Hoogezand,0018100000137864,,Hoogezand-Sappemeer,G1952,bestaand,,,7.219,283,0,gerealiseerd,6782
01,straatkast,009,,9,009__,Meppel - Leeuwarden,Zl-Lw,Zwolle - Leeuwarden ,104.247486,"104,247486",22.388852,"22,388852",Noord-Oost,NO,ProRail,209844.228488,526375.08,52.72198172,6.19896366,,,,,,0119100000023377,,Meppel,G0119,bestaand,,,6.609,283,0,gerealiseerd,6783
01,straatkast,210,,210,210__,Zutphen - Winterswijk,Zp-Ww,Zutphen - Winterswijk ,42.448616,"42,448616",19.683351,"19,683351",Noord-Oost,NO,ProRail,245451.343046,443757.6815,51.9748526,6.70366479,Rondweg West,7,,,Winterswijk,0294100000397351,,Winterswijk,G0294,bestaand,,,8.458,283,0,gerealiseerd,6784
01,straatkast,036,,36,036__,Ede=Wageningen - Arnhem,Asa-Zvg,Amsterdam Amstel - Zevenaar Grens ,87.330919,"87,330919",-13.807164,"-13,807164",Noord-Oost,NO,ProRail,185964.8005,445340.211735,51.99558092,5.83806913,,,,,,0274100000020256,,Renkum,G0274,bestaand,,,8.896,283,0,gerealiseerd,6785
01,straatkast,008,,8,008__,Leeuwarden - Stavoren,Lw-Stv,Leeuwarden - Stavoren ,40.938291,"40,938291",13.420142,"13,420142",Noord-Oost,NO,ProRail,157442.34,551099.13137,52.94692952,5.4235418,Stationsweg,4,A,8713LP,Hindeloopen,1900100000314881,,Súdwest Fryslân,G1900,bestaand,,,2.614,283,0,gerealiseerd,6786
01,straatkast,001,a,1,001_a,Harlingen Haven - Leeuwarden,Hlg-Nscg,Harlingen - Nieuweschans Grens ,1.141262,"1,141262",-14.16354,"-14,163540",Noord-Oost,NO,ProRail,157592.557,575958.1345,53.17031154,5.4259763,Koningin Julianastraat,3,A,8862TA,Harlingen,0072100000288876,,Harlingen,G0072,bestaand,,,27.06,283,0,gerealiseerd,6787
01,straatkast,034,,34,034__,Velperbroek Aansl. - Dieren,Ah-Zl,Arnhem - Zwolle ,4.156641,"4,156641",12.166529,"12,166529",Noord-Oost,NO,ProRail,195732.8235,445329.246018,51.99485123,5.98028974,,,,,,0275100000102987,,Rheden,G0275,bestaand,,,9.291,283,0,gerealiseerd,6788
01,straatkast,203,,203,203__,Mariënberg - Emmen,Hea-Emn,Herfte Aansl. - Emmen ,66.200262,"66,200262",-17.252055,"-17,252055",Noord-Oost,NO,ProRail,253774.550838,526712.737,52.71880557,6.84912596,Veilingstraat,31,,7833HN,Nieuw-Amsterdam,0114100000391701,,Emmen,G0114,bestaand,,,6.585,283,0,gerealiseerd,6789
01,straatkast,082,,82,082__,Haarlem - Santpoort Noord,Hlm-Utg,Haarlem - Uitgeest ,2.636827,"2,636827",16.968617,"16,968617",Randstad Noord,RN,ProRail,103315.3505,491057.8945,52.40491444,4.62769463,Zuider Stationsweg,20,b,2061HE,Bloemendaal,0377100000020218,,Bloemendaal,G0377,bestaand,,,9.368,283,0,gerealiseerd,6790
01,straatkast,047,,47,047__,s Hertogenbosch - Nijmegen,Ht-Nm,s-Hertogenbosch - Nijmegen ,61.164139,"61,164139",-17.261858,"-17,261858",Noord-Oost,NO,ProRail,183263.444608,426248.308,51.82412569,5.79716803,Zwanenveld,8028,,6538TA,Nijmegen,0268100000067795,,Nijmegen,G0268,bestaand,,,8.751,283,0,gerealiseerd,6791
01,straatkast,002,,2,002__,Leeuwarden - Groningen,Hlg-Nscg,Harlingen - Nieuweschans Grens ,57.864421,"57,864421",11.823567,"11,823567",Noord-Oost,NO,ProRail,212473.225,585853.4,53.25614335,6.24838135,,,,,,0056100000002650,,Westerkwartier,G1969,bestaand,,,7.142,283,0,gerealiseerd,6792
01,straatkast,023,,23,023__,Apeldoorn - Deventer,Apd-Dv,Apeldoorn - Deventer ,9.730038,"9,730038",-9.359423,"-9,359423",Noord-Oost,NO,ProRail,203711.0795,472467.232071,52.23810869,6.10033207,Raccordement,4,,7391BT,Twello,0285100000123283,,Voorst,G0285,bestaand,,,6.64,283,0,gerealiseerd,6793
01,straatkast,208,,208,208__,Apeldoorn - Zutphen,Asd-Zp,Amsterdam Centraal - Zutphen ,90.413387,"90,413387",14.11593,"14,115930",Noord-Oost,NO,ProRail,197015.318816,468708.7125,52.20488065,6.00184578,Laan van Zonnehoeve,60,T,,Apeldoorn,0200100003910362,,Apeldoorn,G0200,bestaand,,,10.916,283,0,gerealiseerd,6794
01,schakelstation,127,a,127,127_a,Roosendaal - Vlissingen,Rsd-Vs,Roosendaal - Vlissingen ,66.668329,"66,668329",-25.351916,"-25,351916",Zuid,Z,ProRail,33593.976,391403.076,51.49854646,3.63869663,,,,,,0687100000011029,Middelburg,Middelburg,G0687,bestaand,,,44.748,283,0,gerealiseerd,6795
01,straatkast,127,a,127,127_a,Roosendaal - Vlissingen,Rsd-Vs,Roosendaal - Vlissingen ,31.696882,"31,696882",-14.73557,"-14,735570",Zuid,Z,ProRail,66495.1525,383566.35425,51.4342518,4.11438158,Spoorlaan,5,B,4413AS,Krabbendijke,0703100000023995,,Reimerswaal,G0703,bestaand,,,6.784,283,0,gerealiseerd,6796
01,onderstation,119,a,119,119_a,Lage Zwaluwe - Dordrecht,Bd-Rtd,Breda - Rotterdam Centraal ,19.970634,"19,970634",-13.189085,"-13,189085",Randstad Zuid,RZ,ProRail,103121.09,416215.787,51.73226065,4.63621422,Beerpolderweg,200,,,Dordrecht,0505100000050623,Willemsdorp,Dordrecht,G0505,bestaand,,,74.195,283,0,gerealiseerd,6820
01,onderstation,116,a,116,116_a,Dordrecht - Rotterdam Barendrecht,Bd-Rtd,Breda - Rotterdam Centraal ,33.01872,"33,018720",24.643865,"24,643865",Randstad Zuid,RZ,ProRail,102327.061893,426318.6,51.82298812,4.62318535,,,,,,0642100000023695,Oud-Zwijndrecht,Zwijndrecht,G0642,bestaand,,,77.839,283,0,gerealiseerd,6825
01,onderstation,611,b,611,611_b,Zevenaar,Asa-Zvg,Amsterdam Amstel - Zevenaar Grens ,106.236668,"106,236668",60.437061,"60,437061",Noord-Oost,NO,ProRail,202477.071326,437329.289,51.92241417,6.07737567,,,,,,0299100000397946,Zevenaar,Rijnwaarden,G0299,bestaand,,,119.553,283,0,gerealiseerd,6895
01,onderstation,098,,98,098__,Breukelen - Utrecht Centraal,Asa-Zvg,Amsterdam Amstel - Zevenaar Grens ,25.739508,"25,739508",-32.242492,"-32,242492",Randstad Noord,RN,ProRail,129324.556125,462228.2465,52.14763983,5.01208115,,,,,,1904100000038931,Nijenrodeweg,Stichtse Vecht,G1904,bestaand,,,100.97,283,0,gerealiseerd,6898
01,schakelstation,070,,70,070__,Schin op Geul - Maastricht,Vet-Mtn,Verschau (D) - Maastricht Noord ,28.268496,"28,268496",7.571487,"7,571487",Zuid,Z,ProRail,183488.1045,320539.819,50.87395504,5.79191717,,,,,,0994100002011240,Houthem St. Gerlach,Valkenburg aan de Geul,G0994,bestaand,,,36.028,283,0,gerealiseerd,6907
01,onderstation,080,,80,080__,Amsterdam Bijlmer - Nieuwersluis=Loenen,Asa-Zvg,Amsterdam Amstel - Zevenaar Grens ,8.459124,"8,459124",-41.542721,"-41,542721",Randstad Noord,RN,ProRail,126238.7055,478202.762591,52.2910609,4.96564139,,,,,,0363100012220000,Holendrecht,Amsterdam,G0363,bestaand,,,81.503,283,0,gerealiseerd,6930
01,niet-bgt: straatkast,201,,201,201__,Sauwerd - Delfzijl,Gn-Dz,Groningen - Delfzijl ,36.738545,"36,738545",-6.18063,"-6,180630",Noord-Oost,NO,ProRail,256272.175861,595019.972,53.33198517,6.90738599,,,,,,,,Prorail,L0004,bestaand,,,9.68,283,0,,6963
01,transformatorgebouw,006,,6,006__,Groningen - Sauwerd,Gn-Dz,Groningen - Delfzijl ,3.894822,"3,894822",-19.346369,"-19,346369",Noord-Oost,NO,ProRail,233067.182326,583181.146,53.2295266,6.55625549,Parallelweg,1,,,Groningen,0014100010960514,,Groningen,G0014,bestaand,,,7.442,283,0,gerealiseerd,6964
01,straatkast,028,,28,028__,Hengelo - Enschede Grens,Zp-Esg,Zutphen - Enschede Grens ,59.317005,"59,317005",12.248169,"12,248169",Noord-Oost,NO,ProRail,263432.048,471265.3475,52.21879551,6.97402683,Kerkstraat,70,A,,Enschede,0153100000293780,,Enschede,G0153,bestaand,,,8.752,283,0,gerealiseerd,6973
01,schakelstation,038,,38,038__,Velperbroek Aansl. - Zevenaar,Asa-Zvg,Amsterdam Amstel - Zevenaar Grens ,99.929118,"99,929118",8.801659,"8,801659",Noord-Oost,NO,ProRail,196978.590974,440366.7545,51.95015665,5.99782017,Welleveldsestraat,6,,6921AZ,Duiven,0226100000100174,Duiven,Duiven,G0226,bestaand,,,26.685,283,0,gerealiseerd,6982
01,schakelstation,039,,39,039__,Zevenaar - Zevenaar Grens,Asa-Zvg,Amsterdam Amstel - Zevenaar Grens ,108.694189,"108,694189",-37.581109,"-37,581109",Randstad Zuid,RZ,ProRail,204689.165,436262.133369,51.91262965,6.10937625,Maatjesweg,2,,6905BP,Zevenaar,0299100000414693,Maatjesweg onderposthuis,Rijnwaarden,G0299,bestaand,,,21.756,283,0,gerealiseerd,6983
01,onderstation,132,,132,132__,Moordrecht Aansl. - Rotterdam Kleiweg,Ut-Rtd,Utrecht Centraal - Rotterdam Centraal ,44.207365,"44,207365",47.193795,"47,193795",Randstad Zuid,RZ,ProRail,99429.12,440936.369096,51.95408512,4.57879725,Spoorlaan,14,,2908BG,Capelle aan den IJssel,0502100000023962,,Capelle aan den IJssel,G0502,bestaand,,,202.921,283,0,gerealiseerd,6995
01,niet-bgt: straatkast,212,,212,212__,Winterswijk - Zevenaar,Ww-Zv,Winterswijk-Zevenaar ,20.449034,"20,449034",11.819718,"11,819718",Noord-Oost,NO,ProRail,228676.4175,439307.681,51.93734001,6.45860669,,,,,,,,Oude IJsselstreek,G1509,bestaand,,,8.842,283,0,,7000
01,onderstation,063,,63,063__,Maastricht - Sittard,Mt-Vl,Maastricht - Venlo ,1.612193,"1,612193",-17.013891,"-17,013891",Zuid,Z,ProRail,177630.9585,319068.139906,50.86098793,5.70861675,Kasteel Terwormstraat,3,,,Maastricht,0935100000110436,Maastricht,Maastricht,G0935,bestaand,,,174.378,283,0,gerealiseerd,7035
01,onderstation,123,,123,123__,Breda - Tilburg,Bd-Ehv,Breda - Eindhoven ,12.108226,"12,108226",-27.692052,"-27,692052",Zuid,Z,ProRail,124155.98672,399219.1295,51.58104494,4.94220236,Kempenbaan,17,,5121DM,Rijen,0784100000003430,Gilze-Rijen,Gilze en Rijen,G0784,bestaand,,,101.338,283,0,gerealiseerd,7037
01,onderstation,564,b,564,564_b,Den Haag Binckhorst,Gd-Gvc,Gouda - Den Haag Centraal ,24.400691,"24,400691",35.009895,"35,009895",Randstad Zuid,RZ,ProRail,82795.774919,454663.8715,52.07554083,4.33396625,Von Geusaustraat,234,B,2516ZZ,'s-Gravenhage,0518100001669521,Den Haag Oost,'s-Gravenhage,G0518,bestaand,,,469.506,283,0,gerealiseerd,7040
01,onderstation,011,,11,011__,Assen - Haren,Mp-Gn,Meppel - Groningen ,60.034679,"60,034679",-18.325536,"-18,325536",Noord-Oost,NO,ProRail,238130.264,566310.15087,53.07719521,6.62770909,Stationsstraat,2,,,Tynaarlo,1730100000018088,Vries-Zuidlaren,Tynaarlo,G1730,bestaand,,,138.266,283,0,gerealiseerd,7041
01,onderstation,503,c,503,503_c,Deventer,Ah-Zl,Arnhem - Zwolle ,43.880853,"43,880853",34.577792,"34,577792",Noord-Oost,NO,ProRail,207593.65421,474831.0165,52.25899538,6.15753578,,,,,,0150100000017039,Deventer,Deventer,G0150,bestaand,,,155.399,283,0,gerealiseerd,7050
01,schakelstation,034,,34,034__,Velperbroek Aansl. - Dieren,Ah-Zl,Arnhem - Zwolle ,5.145261,"5,145261",12.134013,"12,134013",Noord-Oost,NO,ProRail,196541.746399,445909.399,52.00000553,5.99213774,Zutphensestraatweg,5,a,6881WN,Velp,0275100000011670,Velp,Rheden,G0275,bestaand,,,25.578,283,0,gerealiseerd,7052
01,straatkast,033,,33,033__,Dieren - Zutphen,Ah-Zl,Arnhem - Zwolle ,20.433192,"20,433192",12.421754,"12,421754",Noord-Oost,NO,ProRail,207080.373,456229.577872,52.09186839,6.14716384,Hazenberg,1,A,6971LC,Brummen,0213100000109888,,Brummen,G0213,bestaand,,,10.337,283,0,gerealiseerd,7053
01,straatkast,034,,34,034__,Velperbroek Aansl. - Dieren,Ah-Zl,Arnhem - Zwolle ,1.40456,"1,404560",14.014539,"14,014539",Noord-Oost,NO,ProRail,193227.3595,444561.068128,51.98812526,5.94372512,Eleonorastraat,10,,6824EX,Arnhem,0202100000237969,,Arnhem,G0202,bestaand,,,9.901,283,0,gerealiseerd,7054
01,onderstation,819,,819,819__,Etten=Leur Gem. Industrieterrein,Etnva-Etnv,Etten-Leur Racc. Vossendaal Aansl. - Etten-Leur Racc. Vossendaal ,0.117079,"0,117079",11.567549,"11,567549",Zuid,Z,ProRail,100642.520099,397972.961,51.56806163,4.60318123,Oude Kerkstraat,24,,4878AA,Etten-Leur,0777100000143684,St. Willebrord,Etten-Leur,G0777,bestaand,,,58.785,283,0,gerealiseerd,7056
01,onderstation,025,,25,025__,Almelo - Hengelo,Aml-Hgl,Almelo - Hengelo ,8.70342,"8,703420",18.614057,"18,614057",Noord-Oost,NO,ProRail,246918.2545,480822.158589,52.30767079,6.73502926,Oonksweg,36,c,7622AW,Borne,0147100000017898,,Borne,G0147,bestaand,,,48.437,283,0,gerealiseerd,7069
01,straatkast,004,,4,004__,Waterhuizen Aansl. - Zuidbroek,Hlg-Nscg,Harlingen - Nieuweschans Grens ,97.304095,"97,304095",17.745814,"17,745814",Noord-Oost,NO,ProRail,249201.552264,575629.089,53.15908741,6.79559077,Borgercompagniesterstr,70,b,9611KC,Sappemeer,0018100000045629,,Hoogezand-Sappemeer,G1952,bestaand,,,6.24,283,0,gerealiseerd,7078
01,straatkast,625,b,625,625_b,Lage Zwaluwe,Bd-Rtd,Breda - Rotterdam Centraal ,15.647197,"15,647197",-28.135787,"-28,135787",Zuid,Z,ProRail,104660.983,412201.220292,51.69631889,4.65908493,Westelijke Parallelweg,3,,,Zevenbergschen Hoek,1709100000238682,,Moerdijk,G1709,bestaand,,,40.148,283,0,gerealiseerd,7079
01,onderstation,512,a,512,512_a,Ressen = Bemmel,Ah-Vl,Arnhem - Venlo ,11.089152,"11,089152",-20.676189,"-20,676189",Noord-Oost,NO,ProRail,187305.333,434279.575269,51.89609179,5.85654682,Mermsestraat,10,a,,Elst,1734101000001635,Ressen-Bemmel,Overbetuwe,G1734,bestaand,,,50.568,283,0,gerealiseerd,7116
01,onderstation,,,,,,,,,,,,Randstad Zuid,RZ,ProRail,76788.410982,437182.3925,51.91762404,4.25034357,Deltaweg,1,,,Maassluis,0556100000013306,,Maassluis,G0556,bestaand,,,287.777,283,0,gerealiseerd,7149
01,onderstation,663,a,663,663_a,Rotterdam Barendrecht,Bd-Rtd,Breda - Rotterdam Centraal ,40.466242,"40,466242",-33.690447,"-33,690447",Randstad Zuid,RZ,ProRail,96826.3785,431150.425866,51.86586793,4.5425923,Fennaweg,28,b,2991ZA,Barendrecht,0489100000217185,,Barendrecht,G0489,bestaand,,,35.349,283,0,gerealiseerd,7150
01,schakelstation,047,,47,047__,s Hertogenbosch - Nijmegen,Ht-Nm,s-Hertogenbosch - Nijmegen ,51.36178,"51,361780",17.946169,"17,946169",Noord-Oost,NO,ProRail,173783.4531,423898.394,51.803404,5.65953339,Maasbandijk,68,,6606KE,Niftrik,0296100000025028,Ravensteijn,Wijchen,G0296,bestaand,,,36.897,283,0,gerealiseerd,7156
01,niet-bgt: schakelstation,161,,161,161__,Lelystad Industrieterrein - Hattemerbroek,Llsoa-Zl,Lelystad Opstelterrein Aansl. - Zwolle ,41.324867,"41,324867",45.296201,"45,296201",Noord-Oost,NO,ProRail,196594.712983,501742.359,52.50179178,5.99977957,,,,,,,Zalk,Prorail,L0004,bestaand,,,48.46,283,1,,7160
01,onderstation,087,,87,087__,Weesp Aansl. - Hilversum,Asd-Zp,Amsterdam Centraal - Zutphen ,20.873746,"20,873746",16.237061,"16,237061",Randstad Noord,RN,ProRail,138605.057817,477932.1365,52.28913578,5.14690963,Johan Willem Frisolaan,38,A,1412AJ,Naarden,0425100000001000,Naarden-Bussum,Bussum,G1942,bestaand,,,88.222,283,0,gerealiseerd,7183
01,onderstation,021,,21,021__,Barneveld Noord - Apeldoorn,Asd-Zp,Amsterdam Centraal - Zutphen ,74.299021,"74,299021",-23.407161,"-23,407161",Noord-Oost,NO,ProRail,182007.411804,467642.806,52.19623985,5.78221655,,,,,,0200100000960916,Kootwijk,Apeldoorn,G0200,bestaand,,,134.262,283,0,gerealiseerd,7184
01,onderstation,092,,92,092__,Baarn - Amersfoort,Asd-Zp,Amsterdam Centraal - Zutphen ,39.792872,"39,792872",-16.629928,"-16,629928",Randstad Noord,RN,ProRail,150498.509605,465785.4125,52.18018907,5.32138831,Eemweg,2,,3764DG,Soest,0342100000013516,Eemweg,Soest,G0342,bestaand,,,57.239,283,0,gerealiseerd,7186
01,onderstation,124,a,124,124_a,Tilburg - Vught Aansl.,Tb-Vga,Tilburg - Vught Aansluiting ,7.893258,"7,893258",-31.380891,"-31,380891",Zuid,Z,ProRail,139058.540733,402128.005,51.60781177,5.1570726,Spoorakkerweg,23,,5071NC,Udenhout,0855100000466137,Udenhout,Tilburg,G0855,bestaand,,,159.187,283,0,gerealiseerd,7198
01,schakelstation,124,a,124,124_a,Tilburg - Vught Aansl.,Tb-Vga,Tilburg - Vught Aansluiting ,13.436052,"13,436052",21.246605,"21,246605",Zuid,Z,ProRail,143800.226221,404998.9015,51.63373145,5.22543069,,,,,,0788100000008101,Helvoirt,Vught,G0865,bestaand,,,51.606,283,0,gerealiseerd,7201
01,transformatorgebouw,528,b,528,528_b,Hilversum,Asd-Zp,Amsterdam Centraal - Zutphen ,29.000468,"29,000468",-18.687317,"-18,687317",Randstad Noord,RN,ProRail,141304.505207,470416.097,52.22165745,5.1867784,Oude Amersfoortseweg,77,,,Hilversum,0402100001625348,,,G0402,bestaand,,,12.756,283,0,gerealiseerd,7211
01,schakelstation,088,,88,088__,Hilversum - Baarn,Asd-Zp,Amsterdam Centraal - Zutphen ,32.929421,"32,929421",11.464972,"11,464972",Randstad Noord,RN,ProRail,145100.640611,469350.302,52.21215944,5.24236348,Groeneveld,5,,,Baarn,0308100000021843,Hooge Vuursche,Baarn,G0308,bestaand,,,24.56,283,0,gerealiseerd,7213
01,onderstation,090,,90,090__,Den Dolder - Amersfoort,Ut-Amf,Utrecht - Amersfoort ,20.11086,"20,110860",14.701212,"14,701212",Randstad Noord,RN,ProRail,153115.470547,462755.4805,52.1529714,5.35966702,Sportpark Bokkeduinen,2,A,3819BD,Amersfoort,0307100000524789,Amersfoort,Amersfoort,G0307,bestaand,,,374.111,283,0,,7244
01,onderstation,054,a,54,054_a,Boxtel - Eindhoven,Bd-Ehv,Breda - Eindhoven ,50.695635,"50,695635",-49.916905,"-49,916905",Zuid,Z,ProRail,156024.754,389520.008208,51.49470861,5.40195751,de Dieze,1,B,5684PR,Best,0753100000017360,Best,Best,G0753,bestaand,,,70.78,283,0,gerealiseerd,7269
01,onderstation,617,a,617,617_a,Boxtel,Bd-Ehv,Breda - Eindhoven ,38.768625,"38,768625",24.079984,"24,079984",Zuid,Z,ProRail,150016.591952,399814.284,51.5872188,5.31529431,,,,,,0757100001429589,,Boxtel,G0757,bestaand,,,101.215,283,0,gerealiseerd,7270
01,niet-bgt: onderstation,922,,922,922__,Leidschendam Lijnwerkplaats,Ldvn-Ldvwpl,Leidschenveen - Leidschendam werkplaats ,17.899403,"17,899403",16.831453,"16,831453",Randstad Zuid,RZ,ProRail,86568.193223,454230.656,52.07212654,4.38907286,,,,,,,Leidschendam,Prorail,L0004,bestaand,,,42.528,283,0,,7311
01,onderstation,059,,59,059__,Weert - Roermond,Bdl-Rm,Budel - Roermond ,68.427645,"68,427645",-12.787708,"-12,787708",Zuid,Z,ProRail,181156.952548,361785.18,51.24480553,5.76180429,Zwartewaterweg,2,T,,Weert,0988100000004837,Nederweert,Weert,G0988,bestaand,,,166.912,283,0,gerealiseerd,7356
