stembureau;straatnaam;postcode;gemeente;foto;openingsti;x;y;lat;lon;geopunt
Activiteitencentrum Orka;Broekakkerseweg 1;5641 PC;Eindhoven;https://data.eindhoven.nl/api/v2/catalog/datasets/stembureaus-eindhoven/files/b3b225da48f6fc1a893bbc626aca8852;Stemlokaal is open van 07.30 tot 21.00 uur.;164281.215;384117.1312;51.446068023;5.52070627853;51.446068023, 5.52070627853
Basisschool Atalanta;Barrierweg 1;5622 CL;Eindhoven;https://data.eindhoven.nl/api/v2/catalog/datasets/stembureaus-eindhoven/files/ca9f08fbbbaf206ad8a8982566dabbc2;Stemlokaal is open van 07.30 tot 21.00 uur.;160685.1608;385846.5495;51.4616609724;5.4690062795;51.4616609724, 5.4690062795
Ontmoetingsruimte Pieter Eiffhuis;Herodotusplein 1;5624 DH;Eindhoven;https://data.eindhoven.nl/api/v2/catalog/datasets/stembureaus-eindhoven/files/fe4a04dacf9023f3cc75bb65fe0f00d0;Stemlokaal is open van 07.30 tot 21.00 uur.;159671.6276;386965.4061;51.4717273174;5.45443682975;51.4717273174, 5.45443682975
Jurriaan Pels Wooncentrum;Geestakker 46;5625XA;Eindhoven;https://data.eindhoven.nl/api/v2/catalog/datasets/stembureaus-eindhoven/files/bbda285cbd297a1f2c8ca0dddeeddbc9;Stemlokaal is open van 07.30 tot 21.00 uur.;161398.9875;386628.2457;51.4686796897;5.47929211779;51.4686796897, 5.47929211779
Wijkcentrum 't Trefpunt;Belgieplein 20;5628PM;Eindhoven;https://data.eindhoven.nl/api/v2/catalog/datasets/stembureaus-eindhoven/files/caf3f70f5220ff3fffaa1ceb7fffa01b;Stemlokaal is open van 07.30 tot 21.00 uur.;161416.1167;387796.0345;51.479176324;5.47955992096;51.479176324, 5.47955992096
Archipel Dommelhoef;Parklaan 97;5613BC;Eindhoven;https://data.eindhoven.nl/api/v2/catalog/datasets/stembureaus-eindhoven/files/e12372fdf9e674a13b052954398eee11;Stemlokaal is open van 07.30 tot 21.00 uur.;161990.9103;383532.2072;51.440843449;5.48774953827;51.440843449, 5.48774953827
Basisschool Beppino Sarto;St. Petrus Canisiuslaan 47;5645 GC;Eindhoven;https://data.eindhoven.nl/api/v2/catalog/datasets/stembureaus-eindhoven/files/ca9f08fbbbaf206ad8a8982566dabbc2;Stemlokaal is open van 07.30 tot 21.00 uur.;163483.8805;382010.1757;51.4271419145;5.509186256;51.4271419145, 5.509186256
Basisschool Cornelis Jetses;Samarialaan 1A;5625 RA;Eindhoven;https://data.eindhoven.nl/api/v2/catalog/datasets/stembureaus-eindhoven/files/37b3b8112d9b6a56abf862b231b76d45;Stemlokaal is open van 07.30 tot 21.00 uur.;161447.4563;386844.461;51.4706226173;5.47999362755;51.4706226173, 5.47999362755
Basisschool De Korenaar;Vitruviusweg 41;5624 AD;Eindhoven;https://data.eindhoven.nl/api/v2/catalog/datasets/stembureaus-eindhoven/files/773447b1d9f436b5165adc2e7c7928e0;Stemlokaal is open van 07.30 tot 21.00 uur.;159692.723;386538.0477;51.4678857689;5.45473475768;51.4678857689, 5.45473475768
Basisschool 't Slingertouw;Grasland 1;5658 GA;Eindhoven;https://data.eindhoven.nl/api/v2/catalog/datasets/stembureaus-eindhoven/files/a503cb6ab76e9b3478e247012ff92187;Stemlokaal is open van 07.30 tot 21.00 uur.;157012.8933;383461.0132;51.4402433772;5.41615047678;51.4402433772, 5.41615047678
Voormalige Internationale School;Humperdincklaan 4;5654PA;Eindhoven;https://data.eindhoven.nl/api/v2/catalog/datasets/stembureaus-eindhoven/files/c869d7f82b49e63ce8f59fed27f9ad8f;Stemlokaal is open van 07.30 tot 21.00 uur.;159951.1525;381883.7646;51.4260477922;5.4583886404;51.4260477922, 5.4583886404
Vrijetijdsaccommodatie Blixems;Ouverture 2;5629PV;Eindhoven;https://data.eindhoven.nl/api/v2/catalog/datasets/stembureaus-eindhoven/files/e12d2605b704106fa17a13e936873f39;Stemlokaal is open van 07.30 tot 21.00 uur.;161008.334;388844.7971;51.4886077747;5.47370777738;51.4886077747, 5.47370777738
Grand Cafe de Zwarte Doos;De Wielen 6;5612AZ;Eindhoven;https://data.eindhoven.nl/api/v2/catalog/datasets/stembureaus-eindhoven/files/b40e53954f854b2d791fcd5fd737b3ba;Stemlokaal is open van 07.30 tot 21.00 uur.;161748.1449;384144.2071;51.4463474667;5.48426955685;51.4463474667, 5.48426955685
Basisschool de Schelp;Zuiderzeelaan 3;5628KC;Eindhoven;https://data.eindhoven.nl/api/v2/catalog/datasets/stembureaus-eindhoven/files/12b12fbe34257af6fb5de003f2e7d223;Stemlokaal is open van 07.30 tot 21.00 uur.;160330.7346;387610.1146;51.4775165021;5.46393293704;51.4775165021, 5.46393293704
Station NS Noordzijde;Neckerspoel 5;5611AD;Eindhoven;https://data.eindhoven.nl/api/v2/catalog/datasets/stembureaus-eindhoven/files/535cc4fe3228a04ac683e412c4fabff5;Stemlokaal is open van 07.30 tot 21.00 uur.;161378.8008;383813.3733;51.4433780246;5.47895067001;51.4433780246, 5.47895067001
Eindhoven Airport;Luchthavenweg 13;5657EA;Eindhoven;https://data.eindhoven.nl/api/v2/catalog/datasets/stembureaus-eindhoven/files/a5f1572eb24fc70f4a9eb5f9cc1377aa;Stemlokaal is open van 05.30 tot 17.00 uur.;155228.018;385279.8716;51.4565961006;5.39048024154;51.4565961006, 5.39048024154
Vitalis Wilgenhof;Schalmstraat 2;5614AD;Eindhoven;https://data.eindhoven.nl/api/v2/catalog/datasets/stembureaus-eindhoven/files/81f8f6d9e6f35d08c12804ea824a5030;Stemlokaal is open van 07.30 tot 21.00 uur.;162165.114;382296.9561;51.4297380089;5.49023001761;51.4297380089, 5.49023001761
Kantine sportpark Meerhoven;Het Schaapsdijk 109;5657 AW;Eindhoven;https://data.eindhoven.nl/api/v2/catalog/datasets/stembureaus-eindhoven/files/0a7486d4658a096ffd9cd01d11391653;Stemlokaal is open van 07.30 tot 21.00 uur.;156452.3812;382971.5368;51.4358453722;5.40808676237;51.4358453722, 5.40808676237
Stadhuis;Stadhuisplein 10;5611 EM;Eindhoven;https://data.eindhoven.nl/api/v2/catalog/datasets/stembureaus-eindhoven/files/212c98044727bef5633bb973df0ed377;Stemlokaal is open van 07.30 tot 21.00 uur.;161424.9511;382871.6758;51.4349129028;5.47959733842;51.4349129028, 5.47959733842
Basisschool de Hobitstee;Schelluinen 2;5653JM;Eindhoven;https://data.eindhoven.nl/api/v2/catalog/datasets/stembureaus-eindhoven/files/e24a60d5567dcb46e68bd84f3d81dcea;Stemlokaal is open van 07.30 tot 21.00 uur;158731.5961;381595.3347;51.4234646011;5.44085044961;51.4234646011, 5.44085044961
Vrijetijdsaccommodatie De Mortel;Savoiepad 14;5627DX;Eindhoven;https://data.eindhoven.nl/api/v2/catalog/datasets/stembureaus-eindhoven/files/ebe3a69493e0cb56e5912f97b8613003;Stemlokaal is open van 07.30 tot 21.00 uur.;158890.1649;388754.4334;51.4878142039;5.44320924918;51.4878142039, 5.44320924918
Vitalis Vonderhof;Bernhardplaats 1;5616 TG;Eindhoven;https://data.eindhoven.nl/api/v2/catalog/datasets/stembureaus-eindhoven/files/2fa21809c6ac835da75d07d1ec22e4c2;Stemlokaal is open van 07.30 tot 21.00 uur.;160661.2993;383253.2435;51.4383508862;5.4686213089399995;51.4383508862, 5.4686213089399995
B&O gebouw;Pieter Poststraat 13A;5624 BE;Eindhoven;https://data.eindhoven.nl/api/v2/catalog/datasets/stembureaus-eindhoven/files/c72fa5ac42cedf2dcc939daad310c5be;Stemlokaal is open van 07.30 tot 21.00 uur.;159842.4983;386026.4171;51.4632856312;5.45688322059;51.4632856312, 5.45688322059
Archipel Landrijt;Drosserstraat 1;5623ME;Eindhoven;https://data.eindhoven.nl/api/v2/catalog/datasets/stembureaus-eindhoven/files/143de800711a1ac9a95c6f1271dd1779;Stemlokaal is open van 07.30 tot 21.00 uur.;161704.608;385688.0209;51.4602247854;5.4836726451;51.4602247854, 5.4836726451
Vitalis Theresia;Bredalaan 77;5652 JB;Eindhoven;https://data.eindhoven.nl/api/v2/catalog/datasets/stembureaus-eindhoven/files/e53901da6fd81a338af8012de0861bc3;Stemlokaal is open van 07.30 tot 21.00 uur.;158661.0522;383327.6532;51.43903631;5.43985416617;51.43903631, 5.43985416617
Summa Campus Sterrenlaan;Sterrenlaan 10;5631KA;Eindhoven;https://data.eindhoven.nl/api/v2/catalog/datasets/stembureaus-eindhoven/files/9225cd9ae921c499b06f81b753aa02dc;Stemlokaal is open van 07.30 tot 21.00 uur.;162470.8534;386407.5174;51.4666824249;5.49471347477;51.4666824249, 5.49471347477
Basisschool Karel de Grote;Mendelssohnln 217 (ingang Schubertlaan);5653BC;Eindhoven;https://data.eindhoven.nl/api/v2/catalog/datasets/stembureaus-eindhoven/files/540edf1f5c8c078d07e432e86bd4fb39;Stemlokaal is open van 07.30 tot 21.00 uur.;159477.6517;381685.0336;51.4242654309;5.45157798502;51.4242654309, 5.45157798502
Gemeenschapshuis de Lievendaal;Lievendaalseweg 3;5652 SB;Eindhoven;https://data.eindhoven.nl/api/v2/catalog/datasets/stembureaus-eindhoven/files/aba81ac877f877cc7d906e652a15123a;Stemlokaal is open van 07.30 tot 21.00 uur.;158314.0378;383705.9314;51.4424386824;5.43486682035;51.4424386824, 5.43486682035
Ontmoetingscentrum de Cabine;Tarwelaan 54;5632 KE;Eindhoven;https://data.eindhoven.nl/api/v2/catalog/datasets/stembureaus-eindhoven/files/f84244dde217e2506c6592608fd6aa89;Stemlokaal is open van 07.30 tot 21.00 uur.;162450.3134;387563.4883;51.4770732983;5.49444234366;51.4770732983, 5.49444234366
Gymzaal Elf13;St Philomenastraat 11;5622 CG;Eindhoven;https://data.eindhoven.nl/api/v2/catalog/datasets/stembureaus-eindhoven/files/1d40775f360e8721a15a1b8c3dc8c4ab;Stemlokaal is open van 07.30 tot 21.00 uur.;160104.7898;385514.5567;51.4586823767;5.46065019894;51.4586823767, 5.46065019894
Basisschool De reis van Brandaan;Kanunnikensven 1;5646 JD;Eindhoven;https://data.eindhoven.nl/api/v2/catalog/datasets/stembureaus-eindhoven/files/162c6edf58fc5a4883772c20a1454f13;Stemlokaal is open van 07.30 tot 21.00 uur.;163510.33;380924.1501;51.4173795952;5.50954035646;51.4173795952, 5.50954035646
Basisschool de Vuurvlinder;Opera 60A;5629 NC;Eindhoven;https://data.eindhoven.nl/api/v2/catalog/datasets/stembureaus-eindhoven/files/beebfb40e8338d4f910e14c4837e39bb;Stemlokaal is open van 07.30 tot 21.00 uur.;161395.7257;389275.437;51.4924743612;5.47929330871;51.4924743612, 5.47929330871
Buurtinfowinkel Woensel-West;Wenckenbachstraat 52;5621 HB;Eindhoven;https://data.eindhoven.nl/api/v2/catalog/datasets/stembureaus-eindhoven/files/048686b6edcfbbad09ddeefa78fed1fa;Stemlokaal is open van 07.30 tot 21.00 uur.;160191.5875;384987.9424;51.4539480301;5.46189134622;51.4539480301, 5.46189134622
Vitalis Peppelrode;Ds Theodor Fliednerstraat 5;5631 BM;Eindhoven;https://data.eindhoven.nl/api/v2/catalog/datasets/stembureaus-eindhoven/files/b8e83cc0ba7393c1fed7db1c10e0bb0b;Stemlokaal is open van 07.30 tot 21.00 uur.;162037.4531;385299.1687;51.4567254654;5.48845421934;51.4567254654, 5.48845421934
Vitalis Engelsbergen;Maria van Bourgondielaan 8;5616 EE;Eindhoven;https://data.eindhoven.nl/api/v2/catalog/datasets/stembureaus-eindhoven/files/dc4325f2baaa143275d5d9cf54361686;Stemlokaal is open van 07.30 tot 21.00 uur.;159895.1141;382433.0732;51.4309858372;5.45759052058;51.4309858372, 5.45759052058
Vitalis Brunswijck;Generaal Bradleylaan 1;5623 KM;Eindhoven;https://data.eindhoven.nl/api/v2/catalog/datasets/stembureaus-eindhoven/files/5cca16428413ded05ad058893635462a;Stemlokaal is open van 07.30 tot 21.00 uur.;161415.565;386408.6439;51.4667055793;5.47952669748;51.4667055793, 5.47952669748
Gymzaal Bordeauxlaan;Bordeauxlaan 139;5627 GT;Eindhoven;https://data.eindhoven.nl/api/v2/catalog/datasets/stembureaus-eindhoven/files/40257383e8785ee01721dd725b6f950a;Stemlokaal is open van 07.30 tot 21.00 uur.;159114.0666;388087.7796;51.4818202947;5.44642513174;51.4818202947, 5.44642513174
Vitalis De Horst;Imkerstraat 6;5623 DC;Eindhoven;https://data.eindhoven.nl/api/v2/catalog/datasets/stembureaus-eindhoven/files/58d5a0235545f7f4af3f81aea4750d3b;Stemlokaal is open van 07.30 tot 21.00 uur.;160961.8965;385084.4906;51.454808228;5.47297549489;51.454808228, 5.47297549489
Eindhovens Studenten Corps;Ten Hagestraat 13;5611EG;Eindhoven;https://data.eindhoven.nl/api/v2/catalog/datasets/stembureaus-eindhoven/files/e19a5853b0364337a9c4ad7f885f2f58;Stemlokaal is open van 07.30 tot 21.00 uur.;161518.3713;383194.7168;51.4378155344;5.4809467904;51.4378155344, 5.4809467904
Wijkcentrum De Dommel;Bennekelstraat 131;5654DD;Eindhoven;https://data.eindhoven.nl/api/v2/catalog/datasets/stembureaus-eindhoven/files/a0aa001300bd690d28c1e435ff25926e;Stemlokaal is open van 07.30 tot 21.00 uur.;160078.8567;381212.9679;51.4200170798;5.46021515605;51.4200170798, 5.46021515605
Basisschool Louis Buelens;Mirabelweg 96;5632 PD;Eindhoven;https://data.eindhoven.nl/api/v2/catalog/datasets/stembureaus-eindhoven/files/00c931deb3dd9e5791f97cde93a8b663;Stemlokaal is open van 07.30 tot 21.00 uur.;162555.4781;388140.9135;51.4822621566;5.49596852782;51.4822621566, 5.49596852782
Basisschool De Boschuil;Kiplinglaan 1;5629 MK;Eindhoven;https://data.eindhoven.nl/api/v2/catalog/datasets/stembureaus-eindhoven/files/209d227432106c579a8f230bdec0eda7;Stemlokaal is open van 07.30 tot 21.00 uur.;161072.0724;388714.2994;51.4874340935;5.47462323193;51.4874340935, 5.47462323193
Basisschool Strijp Dorp;Apeldoornstraat 1;5651EN;Eindhoven;https://data.eindhoven.nl/api/v2/catalog/datasets/stembureaus-eindhoven/files/ba91df98b6cc210cc53dd4466b773971;Stemlokaal is open van 07.30 tot 21.00 uur.;158690.2303;384156.9107;51.4464900364;5.44028248147;51.4464900364, 5.44028248147
Wijkcentrum 't Akkertje;Heezerweg 452;5645KZ;Eindhoven;https://data.eindhoven.nl/api/v2/catalog/datasets/stembureaus-eindhoven/files/432499ed24eb5aab1c91421baba41f7a;Stemlokaal is open van 07.30 tot 21.00 uur.;163190.9892;381146.2487;51.4193807;5.50495481789;51.4193807, 5.50495481789
Jean Sibelius;Sibeliuslaan 101;5654CT;Eindhoven;https://data.eindhoven.nl/api/v2/catalog/datasets/stembureaus-eindhoven/files/b6ff720156e9f976b56b8b7d333b4ea2;Stemlokaal is open van 07.30 tot 21.00 uur.;160408.2147;381453.184;51.4221732373;5.46495381855;51.4221732373, 5.46495381855
Soci├½teit Het Struikske;Struyckenstraat 10;5652 GM;Eindhoven;https://data.eindhoven.nl/api/v2/catalog/datasets/stembureaus-eindhoven/files/5d8bf75bfdeee32eac411d41de45a87f;Stemlokaal is open van 07.30 tot 21.00 uur.;158800.2429;383415.2858;51.4398230857;5.44185700391;51.4398230857, 5.44185700391
Basisschool Wethouder van Eupen;Odysseuslaan 6;5631 JM;Eindhoven;https://data.eindhoven.nl/api/v2/catalog/datasets/stembureaus-eindhoven/files/4d51288623b6a408a329a99fa5d81483;Stemlokaal is open van 07.30 tot 21.00 uur.;162334.7149;386102.4569;51.463942138;5.49274793623;51.463942138, 5.49274793623
Vitalis Berckelhof;Generaal Cronjestraat 3;5642 MH;Eindhoven;https://data.eindhoven.nl/api/v2/catalog/datasets/stembureaus-eindhoven/files/a5161a71ef2de4f2cb97741118fd5cd0;Stemlokaal is open van 07.30 tot 21.00 uur.;164093.1888;383307.3046;51.4387918468;5.51798071154;51.4387918468, 5.51798071154
De Hangar;Meerbos 4;5658 LA;Eindhoven;https://data.eindhoven.nl/api/v2/catalog/datasets/stembureaus-eindhoven/files/dc4c71b78711b8cbdb67144ac2924fea;Stemlokaal is open van 07.30 tot 21.00 uur.;156635.0937;383747.2005;51.4428170545;5.4107180037;51.4428170545, 5.4107180037
Popei;Klokgebouw 300;5617AD;Eindhoven;https://data.eindhoven.nl/api/v2/catalog/datasets/stembureaus-eindhoven/files/5719e3a2dbe60068bdf59b39e37d178d;Stemlokaal is open van 07.30 tot 21.00 uur.;159891.1395;384472.1745;51.449314666;5.45756162113;51.449314666, 5.45756162113
Vitalis Wissehaege;Herman Gorterlaan 4;5644SX;Eindhoven;https://data.eindhoven.nl/api/v2/catalog/datasets/stembureaus-eindhoven/files/71854f438b7da275920b8aa9671a215f;Stemlokaal is open van 07.30 tot 21.00 uur.;161611.257;380922.5517;51.4173907176;5.4822401014699995;51.4173907176, 5.4822401014699995
De Bibliotheek;Emmasingel 22;5611AZ;Eindhoven;https://data.eindhoven.nl/api/v2/catalog/datasets/stembureaus-eindhoven/files/87bb7760c958c09c393dcb0b0ffb6f7c;Stemlokaal is open van 07.30 tot 21.00 uur.;161083.0469;383372.6178;51.4394194997;5.47468901702;51.4394194997, 5.47468901702
Mobiel Stembureau GGZE;Grote Beekstraat 26;5626NE;Eindhoven;https://data.eindhoven.nl/api/v2/catalog/datasets/stembureaus-eindhoven/files/27239cc1d7f99986e635b845e432e0ba;Stemlokaal is open van 09.00 tot 11.00 uur.;158976.1888;386460.0983;51.4671906414;5.44442187313;51.4671906414, 5.44442187313
Station NS Zuidzijde;Stationsplein 22;5611AC;Eindhoven;https://data.eindhoven.nl/api/v2/catalog/datasets/stembureaus-eindhoven/files/63242c458442ca85dad966e171eb9cb2;Stemlokaal is open van 06.30 tot 19.30 uur.;161432.0087;383693.9401;51.4423038752;5.47971382301;51.4423038752, 5.47971382301
Basisschool Trudo;St Trudostraat 10;5616GB;Eindhoven;https://data.eindhoven.nl/api/v2/catalog/datasets/stembureaus-eindhoven/files/99be73edbaa1d82a24f9a08c3c3e97e9;Stemlokaal is open van 07.30 tot 21.00 uur.;159652.4701;383441.0482;51.4400482482;5.45411461952;51.4400482482, 5.45411461952
Archipel Den Eerdbrand/De Bevelanden;Waddenzeelaan 2;5628 HB;Eindhoven;https://data.eindhoven.nl/api/v2/catalog/datasets/stembureaus-eindhoven/files/7d389386e1a3ef1341d74bf8b7866ae5;Stemlokaal is open van 07.30 tot 21.00 uur.;160405.4015;387887.4895;51.4800090112;5.46501199506;51.4800090112, 5.46501199506
Basisschool De Regenboog;Mimosaplein 1;5643 CJ;Eindhoven;https://data.eindhoven.nl/api/v2/catalog/datasets/stembureaus-eindhoven/files/23d5079eeaa2bd077ac26a054c2c6b5c;Stemlokaal is open van 07.30 tot 21.00 uur.;162598.8972;381401.3897;51.4216823769;5.4964482941;51.4216823769, 5.4964482941
Basisschool De Wilakkers;Piuslaan 68;5614CM;Eindhoven;https://data.eindhoven.nl/api/v2/catalog/datasets/stembureaus-eindhoven/files/5c01a60775f2db52ea912f69e2ede022;Stemlokaal is open van 07.30 tot 21.00 uur.;162619.3163;381947.4076;51.4265900736;5.49675365117;51.4265900736, 5.49675365117
Basisschool De Driestam;Schoenmakerstraat 2;5612 AD;Eindhoven;https://data.eindhoven.nl/api/v2/catalog/datasets/stembureaus-eindhoven/files/6a96ea27cf06ed854fc4d8da27bf290f;Stemlokaal is open van 07.30 tot 21.00 uur.;161222.4214;384780.8085;51.4520757143;5.47671840791;51.4520757143, 5.47671840791
Basisschool Gunterslaer;Normandielaan 50;5627 HT;Eindhoven;https://data.eindhoven.nl/api/v2/catalog/datasets/stembureaus-eindhoven/files/17861a94f75d252c3a12b777dd7db2d1;Stemlokaal is open van 07.30 tot 21.00 uur.;159420.2239;387965.1389;51.4807155931;5.45083100222;51.4807155931, 5.45083100222
Basisschool De Korenaar;Elegaststraat 1;5625 CV;Eindhoven;https://data.eindhoven.nl/api/v2/catalog/datasets/stembureaus-eindhoven/files/698874596fa84b6d62e2fcbebfd07346;Stemlokaal is open van 07.30 tot 21.00 uur.;160650.135;386805.5464;51.4702814069;5.46851765155;51.4702814069, 5.46851765155
Sporthal Eckart;Weegschaalstraat 1;5632CW;Eindhoven;https://data.eindhoven.nl/api/v2/catalog/datasets/stembureaus-eindhoven/files/eedf1bb7fbe2c7e68295a1af47b0d412;Stemlokaal is open van 07.30 tot 21.00 uur.;162919.6342;387280.4283;51.4745225624;5.50119157173;51.4745225624, 5.50119157173
Buurtcentrum de Rondweg;Camphuysenstraat 1;5615KS;Eindhoven;https://data.eindhoven.nl/api/v2/catalog/datasets/stembureaus-eindhoven/files/9da2b0b6158491f660ace43fb0b7f111;Stemlokaal is open van 07.30 tot 21.00 uur.;160652.1248;382023.8275;51.427300169;5.46846967147;51.427300169, 5.46846967147
Bibliotheek MetaForum;Groene Loper 5;5612AZ;Eindhoven;https://data.eindhoven.nl/api/v2/catalog/datasets/stembureaus-eindhoven/files/e23b40f10f66668d411baed4d9320405;Stemlokaal is open van 07.30 tot 21.00 uur.;161943.8793;384312.1943;51.4478550634;5.4870884454799995;51.4478550634, 5.4870884454799995
Basisschool De Driesprong;Tafelbergplein 8;5642 GP;Eindhoven;https://data.eindhoven.nl/api/v2/catalog/datasets/stembureaus-eindhoven/files/4275225f20b1c3ebf2da4114c5f3c019;Stemlokaal is open van 07.30 tot 21.00 uur.;163514.4045;383577.2185;51.4412270585;5.50966297773;51.4412270585, 5.50966297773
Basisschool De Talisman;Seringenstraat 9;5644 PK;Eindhoven;https://data.eindhoven.nl/api/v2/catalog/datasets/stembureaus-eindhoven/files/e72219f05772c6635e747cc33e0ecc98;Stemlokaal is open van 07.30 tot 21.00 uur.;162141.9615;381330.3912;51.4210501743;5.48987753172;51.4210501743, 5.48987753172
Basisschool Fellenoord;Hemelrijken 310;5612 WS;Eindhoven;https://data.eindhoven.nl/api/v2/catalog/datasets/stembureaus-eindhoven/files/eb76cbdee49d658611a5b6abcd304a60;Stemlokaal is open van 07.30 tot 21.00 uur.;160916.6686;384099.4553;51.4459545666;5.47230826416;51.4459545666, 5.47230826416
Spilcentrum de Boog;Koudenhovenseweg Zuid 202;5641 AC;Eindhoven;https://data.eindhoven.nl/api/v2/catalog/datasets/stembureaus-eindhoven/files/dc421e5ff2f73d78401817221cebb4e4;Stemlokaal is open van 07.30 tot 21.00 uur.;163991.8247;384442.8488;51.4490004793;5.51655182215;51.4490004793, 5.51655182215
Recreatieruimte Hof van Eden;Hof van Eden 47;5615 GJ;Eindhoven;https://data.eindhoven.nl/api/v2/catalog/datasets/stembureaus-eindhoven/files/ae452cb3c72ca2482204e264454be4f3;Stemlokaal is open van 07.30 tot 21.00 uur.;161027.243;382688.2279;51.4332683512;5.47387472802;51.4332683512, 5.47387472802
Parktheater;Elzentlaan 50;5615 CN;Eindhoven;https://data.eindhoven.nl/api/v2/catalog/datasets/stembureaus-eindhoven/files/8815e6c9af4cee0e39f95e6d501340d0;Stemlokaal is open van 07.30 tot 21.00 uur.;161761.5663;382220.9428;51.4290597409;5.48442576282;51.4290597409, 5.48442576282
Nat Lab;Kastanjelaan 500;5616 LZ;Eindhoven;https://data.eindhoven.nl/api/v2/catalog/datasets/stembureaus-eindhoven/files/e82ad230de83ca089faebf5c6d7b851b;Stemlokaal is open van 07.30 tot 21.00 uur.;159671.8883;384080.8868;51.4457993795;5.45440237329;51.4457993795, 5.45440237329
Basisschool De Spaaihoeve;Heraultlaan 4;5627DP;Eindhoven;https://data.eindhoven.nl/api/v2/catalog/datasets/stembureaus-eindhoven/files/1779a96bae4cd527d81b99bb8e49714b;Stemlokaal is open van 07.30 tot 21.00 uur.;158601.2949;388480.2045;51.4853511894;5.43904734535;51.4853511894, 5.43904734535
Eindhovens Dagblad;Torenallee 45;5617BA;Eindhoven;https://data.eindhoven.nl/api/v2/catalog/datasets/stembureaus-eindhoven/files/8e7f55522e28046c7da1a5273625c9f0;Stemlokaal is open van 07.30 tot 21.00 uur.;159997.8432;384071.5028;51.4457122271;5.4590909481;51.4457122271, 5.4590909481
Summa College Welzijn;Willem de Rijkelaan 3;5616 EA;Eindhoven;https://data.eindhoven.nl/api/v2/catalog/datasets/stembureaus-eindhoven/files/c9d7b6ada8b06ea38bf568a454704440;Stemlokaal is open van 07.30 tot 21.00 uur.;160210.408;382903.899;51.4352151025;5.46213135152;51.4352151025, 5.46213135152
Rode Kruis;Willem van Konijnenburglaan 6;5613DW;Eindhoven;https://data.eindhoven.nl/api/v2/catalog/datasets/stembureaus-eindhoven/files/3f5ccfcb50a99ecb04a8f3f8ee72e34d;Stemlokaal is open van 07.30 tot 21.00 uur.;162503.1962;383312.9812;51.438866307;5.49511306501;51.438866307, 5.49511306501
Wijkgebouw 't Slot;Kastelenplein 167;5653LX;Eindhoven;https://data.eindhoven.nl/api/v2/catalog/datasets/stembureaus-eindhoven/files/36694b5ce294fa4454bf427b6d08e946;Stemlokaal is open van 07.30 tot 21.00 uur.;158798.906;381088.9848;51.418912732;5.44181274498;51.418912732, 5.44181274498
Service/verzorgingscentrum Antonius;Amstelstraat 112;5626 BH;Eindhoven;https://data.eindhoven.nl/api/v2/catalog/datasets/stembureaus-eindhoven/files/471caca055c7e9107d1f51cba11b3f34;Stemlokaal is open van 07.30 tot 21.00 uur.;157966.5186;388019.4505;51.4812133584;5.42990457441;51.4812133584, 5.42990457441
Archipel Gagelbosch;Gagelboschplein 200;5654 KS;Eindhoven;https://data.eindhoven.nl/api/v2/catalog/datasets/stembureaus-eindhoven/files/c317a9245352366a86b80430c476f55c;Stemlokaal is open van 07.30 tot 21.00 uur.;159206.9077;381174.3513;51.4196771606;5.44767921213;51.4196771606, 5.44767921213
