GEMEENTE,CBS_GEMEENTECODE,BETREFT,WIJKNAAM,CBS_WIJKCODE,BUURTNAAM,CBS_BUURTCODE,BAGREFNUMMER,STRAATNAAM,HUISNUMMER,HUISLETTER,HUISNUMMERTOEVOEGING,POSTCODE,WOONPLAATS,longitude,latitude,X,Y,GEOMETRIE
Stichtse Vecht,G1904,StichtseVecht-logiesfunctie,Breukelen,WK190402,Kievitsbuurt,WK19040204,0311010000003754,De Meent,24,,,3621VS,Breukelen,5.043114,52.175457,131463.26,465312.63,"POLYGON Z ((131457.327 465310.425 0,131464.797 465311.02 0,131465.016 465308.268 0,131469.691 465308.64 0,131469.026 465316.983 0,131464.36 465316.611 0,131464.433 465315.683 0,131456.956 465315.087 0,131457.327 465310.425 0))"
Stichtse Vecht,G1904,StichtseVecht-logiesfunctie,Breukelen,WK190402,Polder Klein Oud Aa,WK19040203,0311010000004458,Oud Aa,37,,,3621LA,Breukelen,4.97147,52.180431,126565.82,465891.63,"POLYGON Z ((126552.071 465897.368 0,126551.586 465886.82 0,126571.61 465885.899 0,126571.702 465887.907 0,126573.96 465887.803 0,126573.914 465886.804 0,126579.589 465886.543 0,126580.006 465895.613 0,126574.331 465895.874 0,126574.261 465894.345 0,126572.263 465894.437 0,126572.354 465896.435 0,126552.071 465897.368 0))"
Stichtse Vecht,G1904,StichtseVecht-logiesfunctie,Breukelen,WK190402,Polder Nijenrode,WK19040206,0311010000005993,Straatweg,30,,,3621BN,Breukelen,5.019836,52.157133,129860.69,463281.71,"POLYGON ((129850.795 463287.905,129851.852 463286.202,129851.337 463285.885,129859.224 463273.393,129859.74 463273.712,129861.743 463270.372,129862.957 463270.103,129870.31 463274.633,129870.591 463275.83,129868.505 463279.193,129868.844 463279.402,129867.006 463282.357,129871.112 463284.885,129871.647 463287.168,129869.428 463290.737,129867.135 463291.281,129863 463288.741,129861.345 463291.397,129860.961 463291.162,129859.615 463293.325,129850.795 463287.905))"
Stichtse Vecht,G1904,StichtseVecht-logiesfunctie,Breukelen,WK190402,Corridor,WK19040208,0311010000006557,Stationsweg,91,,,3621LK,Breukelen,4.989674,52.168781,127803.77,464588.54,"POLYGON ((127776.162 464620.833,127777.225 464598.374,127778.235 464577.387,127779.292 464554.957,127780.966 464555.043,127783.017 464555.148,127785.298 464555.316,127786.035 464544.917,127787.528 464545.073,127787.809 464533.28,127788.207 464526.319,127793.799 464526.609,127803.922 464527.118,127823.659 464527.55,127823.435 464538.621,127823.015 464546.872,127824.455 464547.084,127824.132 464557.041,127827.953 464557.219,127831.342 464557.387,127830.532 464574.455,127829.417 464597.273,127828.159 464623.325,127823.193 464623.09,127822.181 464645.895,127825.424 464646.071,127822.567 464704.696,127800.105 464703.526,127802.853 464644.842,127813.326 464645.413,127813.676 464639.545,127787.878 464638.271,127788.956 464621.44,127787.529 464621.373,127776.162 464620.833))"
Stichtse Vecht,G1904,StichtseVecht-logiesfunctie,Breukelen,WK190402,Scheendijk,WK19040211,0311010000006725,Scheendijk,16,,49,3621VC,Breukelen,5.024244,52.180397,130175.24,465868.46,"POLYGON ((130174.902 465863.207,130181.043 465863.078,130181.126 465867.043,130184.581 465866.97,130184.71 465873.123,130175.114 465873.325,130174.902 465863.207))"
Stichtse Vecht,G1904,StichtseVecht-logiesfunctie,Breukelen,WK190402,Kievitsbuurt,WK19040204,0311010000007650,De Plassen Noord,75,,,3621PN,Breukelen,5.025846,52.182209,130285.85,466069.58,"POLYGON Z ((130283.498 466071.987 0,130282.875 466067.809 0,130289.83 466067.113 0,130290.406 466071.168 0,130283.498 466071.987 0))"
Stichtse Vecht,G1904,StichtseVecht-logiesfunctie,Breukelen,WK190402,Corridor,WK19040208,0311010000008021,Stationsweg,91,a,,3621LK,Breukelen,4.989605,52.168099,127798.64,464512.65,"POLYGON Z ((127793.799 464526.609 0,127795.663 464488.495 0,127805.798 464488.985 0,127805.646 464492.185 0,127809.901 464492.388 0,127810.648 464476.695 0,127802.658 464476.315 0,127804.923 464428.783 0,127812.804 464429.159 0,127812.852 464428.16 0,127815.768 464428.299 0,127815.721 464429.298 0,127823.412 464429.664 0,127821.023 464477.174 0,127813.063 464476.773 0,127812.541 464487.15 0,127822.488 464487.651 0,127822.241 464492.553 0,127824.359 464492.66 0,127823.898 464502.677 0,127809.431 464502.389 0,127809.847 464494.124 0,127805.593 464493.91 0,127803.922 464527.118 0,127793.799 464526.609 0))"
Stichtse Vecht,G1904,StichtseVecht-logiesfunctie,Loenen aan de Vecht,WK190403,Mijnden,WK19040306,0329010000001167,Mijndensedijk,2,,,3632NV,Loenen aan de Vecht,5.021339,52.204465,129990.14,468547.26,"POLYGON ((129985.919 468543.704,129999.756 468540.544,130000 468541.728,130000.406 468543.698,130000 468543.791,129994.547 468545.047,129993.341 468545.325,129993.734 468547.256,129992.667 468547.619,129993.252 468551.061,129993.563 468552.889,129989.368 468553.986,129988.144 468549.162,129986.934 468549.205,129985.919 468543.704))"
Stichtse Vecht,G1904,StichtseVecht-logiesfunctie,Loenen aan de Vecht,WK190403,Loenen Dorpskern,WK19040310,0329010000001196,Molendijk,3,,,3632EM,Loenen aan de Vecht,5.022714,52.209725,130087.05,469132.08,"POLYGON ((130082.452 469132.855,130085.037 469127.664,130092.222 469131.242,130089.637 469136.433,130082.452 469132.855))"
Stichtse Vecht,G1904,StichtseVecht-logiesfunctie,Loenen aan de Vecht,WK190403,Oudover,WK19040309,0329010000001336,Oud Over,3,,,3632VA,Loenen aan de Vecht,5.022094,52.206467,130042.83,468769.78,"POLYGON Z ((130036.884 468774.694 0,130035.285 468768.185 0,130048.795 468764.867 0,130049.316 468766.989 0,130050.393 468771.376 0,130044.933 468772.717 0,130036.884 468774.694 0))"
Stichtse Vecht,G1904,StichtseVecht-logiesfunctie,Nieuwersluis,WK190409,Nieuwersluis,WK19040905,0329010000002257,Rijksstraatweg,37,,,3631AA,Nieuwersluis,5.007609,52.196428,129046.88,467657.98,"POLYGON ((129039.617 467661.347,129043.154 467656.537,129044.891 467657.815,129048.244 467653.255,129048.429 467653.392,129049.565 467651.878,129051.932 467653.572,129053.676 467654.852,129047.496 467663.589,129047.072 467664.21,129042.568 467660.911,129041.324 467662.603,129039.617 467661.347))"
Stichtse Vecht,G1904,StichtseVecht-logiesfunctie,Vreeland,WK190406,Hoeker Polder,WK19040601,0329010000002825,Nigtevechtseweg,186,,,3633XX,Vreeland,5.043167,52.252216,131507.49,473852.84,"POLYGON Z ((131515.186 473857.381 0,131499.299 473856.513 0,131499.882 473848.306 0,131513.824 473849.06 0,131513.84 473848.757 0,131515.647 473848.855 0,131515.186 473857.381 0))"
Stichtse Vecht,G1904,StichtseVecht-logiesfunctie,Vreeland,WK190406,Hoeker Polder,WK19040601,0329010000002829,Nigtevechtseweg,194,,,3633XX,Vreeland,5.043306,52.253194,131517.46,473961.58,"POLYGON ((131505.051 473971.026,131505.925 473951.887,131511.583 473952.145,131511.209 473960.47,131529.456 473961.338,131529.193 473967.087,131510.908 473966.252,131510.678 473971.284,131505.051 473971.026))"
Stichtse Vecht,G1904,StichtseVecht-logiesfunctie,Nigtevecht,WK190408,Nigtevecht Garsten,WK19040805,0329010000003293,Vreelandseweg,25,,,1393PC,Nigtevecht,5.023134,52.270699,130149.86,475915.96,"POLYGON ((130147.1 475916.548,130148.933 475912.982,130153.415 475915.286,130151.542 475918.87,130147.1 475916.548))"
Stichtse Vecht,G1904,StichtseVecht-logiesfunctie,Vreeland,WK190406,Polder Dorssewaard,WK19040602,0329010000003310,Kleizuwe,129,,,3633AG,Vreeland,5.048085,52.234083,131833.85,471833.77,"POLYGON Z ((131834.632 471845.699 0,131822.941 471838.515 0,131823.356 471837.84 0,131830.536 471826.194 0,131827.603 471824.512 0,131830.314 471820.099 0,131833.176 471821.858 0,131844.761 471828.976 0,131841.994 471833.481 0,131842.099 471833.546 0,131834.632 471845.699 0))"
Stichtse Vecht,G1904,StichtseVecht-logiesfunctie,Vreeland,WK190406,Vreeland Dorp,WK19040603,0329010000003901,Duinkerken,3,,,3633EM,Vreeland,5.032434,52.229508,130762.19,471329.85,"POLYGON ((130752.703 471323.29,130767.109 471323.175,130767.127 471325.251,130770.201 471325.198,130771.566 471326.525,130771.674 471332.66,130770.408 471333.961,130767.201 471334.017,130767.22 471336.199,130764.335 471336.222,130752.816 471336.528,130752.703 471323.29))"
Stichtse Vecht,G1904,StichtseVecht-logiesfunctie,Nieuwersluis,WK190409,Polder Sticht,WK19040903,0329010000004001,Rijksstraatweg,68,a,,3631AD,Nieuwersluis,5.014032,52.1978,129486.82,467808.32,"POLYGON ((129478.508 467807.801,129486.593 467798.703,129495.907 467807.292,129487.791 467816.191,129478.508 467807.801))"
Stichtse Vecht,G1904,StichtseVecht-logiesfunctie,Maarssen,WK190401,Omgeving Goudestein,WK19040107,0333010000002254,Diependaalsedijk,17,,,3601GH,Maarssen,5.036491,52.1423,130992.43,461625.75,"POLYGON Z ((131000 461618.75 0,131001.829 461621.076 0,131001.742 461621.145 0,131005.24 461625.594 0,131000 461629.714 0,130985.587 461641.045 0,130983.733 461638.687 0,130988.449 461634.978 0,130980.211 461624.499 0,130995.148 461612.756 0,130998.621 461617.175 0,130998.708 461617.107 0,131000 461618.75 0))"
Stichtse Vecht,G1904,StichtseVecht-logiesfunctie,Maarssen,WK190401,Zandweg-Oostwaard,WK19040105,0333010000002562,Buitenweg,310,,,3602ZK,Maarssen,5.053166,52.136162,132130.73,460937.46,"POLYGON ((132120.86 460937.82,132124.36 460930.868,132125.17 460929.26,132123.083 460928.208,132122.77 460928.05,132126.2 460921.25,132128.6 460922.47,132129.439 460920.811,132132.93 460913.91,132183.551 460939.505,132192.076 460922.645,132192.396 460922.808,132194.109 460923.682,132206.809 460930.162,132198.956 460945.555,132197.411 460948.583,132193.693 460955.87,132186.534 460952.217,132187.529 460950.267,132182.83 460947.87,132181.83 460949.83,132179.32 460948.56,132175.713 460955.693,132175.427 460956.258,132171.76 460963.51,132149.662 460952.357,132147.777 460951.406,132146.245 460950.633,132139.321 460947.138,132120.86 460937.82))"
Stichtse Vecht,G1904,StichtseVecht-logiesfunctie,Tienhoven,WK190407,Molenpolder,WK19040701,0333010000004372,Nedereindsevaart,22,a,,3612AL,Tienhoven,5.090709,52.150496,134707.58,462521.1,"POLYGON Z ((134702.931 462519.676 0,134706.982 462516.162 0,134711.993 462522.108 0,134707.854 462525.49 0,134702.931 462519.676 0))"
Stichtse Vecht,G1904,StichtseVecht-logiesfunctie,Maarssen,WK190401,Maarsseveen,WK19040101,0333010000005804,Gageldijk,77,,C1,3602AJ,Maarssen,5.08754,52.136498,134484.21,460964.61,"POLYGON ((134478.913 460967.237,134491.812 460957.394,134494.35 460960.72,134492.049 460962.476,134481.451 460970.564,134478.913 460967.237))"
Stichtse Vecht,G1904,StichtseVecht-logiesfunctie,Maarssen,WK190401,Maarsseveen,WK19040101,0333010000007293,Gageldijk,77,,C2,3602AJ,Maarssen,5.087618,52.136553,134489.63,460970.7,"POLYGON ((134484.51 460973.788,134490.312 460969.339,134489.208 460967.736,134493.513 460964.395,134492.049 460962.476,134494.35 460960.72,134498.891 460966.67,134486.37 460976.225,134484.51 460973.788))"
Stichtse Vecht,G1904,StichtseVecht-logiesfunctie,Maarssen,WK190401,Maarsseveen,WK19040101,0333010000007294,Gageldijk,77,,C3,3602AJ,Maarssen,5.087685,52.136619,134494.2,460977.98,"POLYGON Z ((134492.28 460981.977 0,134491.721 460982.445 0,134489.538 460979.747 0,134490.087 460979.279 0,134490.149 460977.18 0,134495.486 460972.888 0,134496.575 460974.288 0,134501.333 460970.63 0,134503.479 460973.451 0,134492.28 460981.977 0))"
Stichtse Vecht,G1904,StichtseVecht-logiesfunctie,Maarssen,WK190401,Maarsseveen,WK19040101,0333010000007490,Gageldijk,77,,C4,3602AJ,Maarssen,5.087741,52.136675,134498.09,460984.25,"POLYGON Z ((134492.509 460985.972 0,134499.97 460979.828 0,134498.36 460977.826 0,134503.527 460973.61 0,134508.003 460979.385 0,134495.554 460989.663 0,134492.509 460985.972 0))"
Stichtse Vecht,G1904,StichtseVecht-logiesfunctie,Maarssen,WK190401,Maarsseveen,WK19040101,0333010000007491,Gageldijk,77,,C6,3602AJ,Maarssen,5.087906,52.136791,134509.43,460997.11,"POLYGON ((134504.29 460998.441,134511.25 460993.05,134508.828 460990,134513.752 460986.091,134518.257 460991.766,134513.334 460995.675,134506.342 461001.09,134504.29 460998.441))"
Stichtse Vecht,G1904,StichtseVecht-logiesfunctie,Maarssen,WK190401,Maarsseveen,WK19040101,0333010000007492,Gageldijk,77,,C7,3602AJ,Maarssen,5.087977,52.136843,134514.34,461002.87,"POLYGON Z ((134511.406 461007.255 0,134509.423 461004.766 0,134518.371 460997.634 0,134515.808 460994.418 0,134518.471 460992.295 0,134523.018 460997.999 0,134511.406 461007.255 0))"
Stichtse Vecht,G1904,StichtseVecht-logiesfunctie,Maarssen,WK190401,Maarsseveen,WK19040101,0333010000007493,Gageldijk,77,,C8,3602AJ,Maarssen,5.088051,52.136892,134519.42,461008.28,"POLYGON Z ((134515.966 461014.187 0,134513.622 461011.29 0,134522.348 461004.23 0,134520.204 461001.581 0,134523.434 460998.968 0,134527.921 461004.514 0,134515.966 461014.187 0))"
Stichtse Vecht,G1904,StichtseVecht-logiesfunctie,Maarssen,WK190401,Maarsseveen,WK19040101,0333010000007494,Gageldijk,77,,C9,3602AJ,Maarssen,5.088135,52.136949,134525.18,461014.55,"POLYGON Z ((134521.48 461019.859 0,134519.601 461017.468 0,134526.266 461012.23 0,134525.852 461011.704 0,134529.953 461008.481 0,134532.246 461011.399 0,134521.48 461019.859 0))"
Stichtse Vecht,G1904,StichtseVecht-logiesfunctie,Maarssen,WK190401,Maarsseveen,WK19040101,0333010000007495,Gageldijk,77,,C10,3602AJ,Maarssen,5.088196,52.137011,134529.41,461021.49,"POLYGON ((134523.529 461024.791,134523.979 461022.541,134530.089 461017.729,134528.254 461015.444,134533.617 461011.324,134538.241 461017.092,134525.301 461027.157,134523.529 461024.791))"
Stichtse Vecht,G1904,StichtseVecht-logiesfunctie,Maarssen,WK190401,Maarsseveen,WK19040101,0333010000007496,Gageldijk,77,,C12,3602AJ,Maarssen,5.088308,52.1371,134537.08,461031.36,"POLYGON ((134529.726 461034.617,134542.783 461024.084,134543.143 461023.805,134545.868 461027.135,134532.406 461037.82,134529.726 461034.617))"
Stichtse Vecht,G1904,StichtseVecht-logiesfunctie,Maarssen,WK190401,Maarsseveen,WK19040101,0333010000007497,Gageldijk,77,,C13,3602AJ,Maarssen,5.088405,52.137185,134543.8,461040.79,"POLYGON Z ((134541.015 461044.948 0,134537.57 461040.655 0,134543.68 461035.843 0,134542.628 461034.44 0,134549.035 461029.43 0,134553.545 461035.411 0,134541.015 461044.948 0))"
Stichtse Vecht,G1904,StichtseVecht-logiesfunctie,Maarssen,WK190401,Maarsseveen,WK19040101,0333010000007498,Gageldijk,77,,C14,3602AJ,Maarssen,5.088489,52.137251,134549.55,461048.07,"POLYGON Z ((134544.576 461053.51 0,134542.408 461050.862 0,134552.702 461042.695 0,134550.081 461039.076 0,134552.835 461036.953 0,134557.522 461043.358 0,134555.004 461045.281 0,134554.852 461045.122 0,134544.576 461053.51 0))"
Stichtse Vecht,G1904,StichtseVecht-logiesfunctie,Maarssen,WK190401,Maarsseveen,WK19040101,0333010000007499,Gageldijk,77,,C15,3602AJ,Maarssen,5.08857,52.13729,134555.14,461052.47,"POLYGON Z ((134549.882 461059.381 0,134547.89 461056.814 0,134559.458 461047.841 0,134561.449 461050.409 0,134549.882 461059.381 0))"
Stichtse Vecht,G1904,StichtseVecht-logiesfunctie,Maarssen,WK190401,Maarsseveen,WK19040101,0333010000007500,Gageldijk,77,,C16,3602AJ,Maarssen,5.088606,52.137357,134557.59,461059.83,"POLYGON Z ((134555.557 461065.13 0,134553.179 461062.241 0,134564.434 461052.977 0,134566.812 461055.867 0,134555.557 461065.13 0))"
Stichtse Vecht,G1904,StichtseVecht-logiesfunctie,Maarssen,WK190401,Maarsseveen,WK19040101,0333010000007501,Gageldijk,77,,C19,3602AJ,Maarssen,5.088238,52.137476,134532.45,461073.16,"POLYGON Z ((134528.193 461083.728 0,134523.401 461077.445 0,134537.721 461066.525 0,134540.021 461069.54 0,134527.776 461078.878 0,134530.268 461082.146 0,134528.193 461083.728 0))"
Stichtse Vecht,G1904,StichtseVecht-logiesfunctie,Maarssen,WK190401,Maarsseveen,WK19040101,0333010000007502,Gageldijk,77,,C20,3602AJ,Maarssen,5.088312,52.137534,134537.58,461079.59,"POLYGON ((134529.539 461083.537,134543.001 461073.243,134544.872 461075.689,134534.033 461083.978,134537.123 461088.018,134534.73 461089.847,134531.642 461085.809,134531.411 461085.986,134529.539 461083.537))"
Stichtse Vecht,G1904,StichtseVecht-logiesfunctie,Maarssen,WK190401,Maarsseveen,WK19040101,0333010000007503,Gageldijk,77,,C21,3602AJ,Maarssen,5.0884,52.137596,134543.59,461086.53,"POLYGON Z ((134540.564 461091.153 0,134537.953 461087.92 0,134547.675 461080.071 0,134550.286 461083.305 0,134540.564 461091.153 0))"
Stichtse Vecht,G1904,StichtseVecht-logiesfunctie,Maarssen,WK190401,Maarsseveen,WK19040101,0333010000007504,Gageldijk,77,,C22,3602AJ,Maarssen,5.088465,52.137653,134548.07,461092.88,"POLYGON ((134538.73 461097.05,134553.817 461084.831,134556.706 461088.421,134541.439 461100.377,134538.73 461097.05))"
Stichtse Vecht,G1904,StichtseVecht-logiesfunctie,Maarssen,WK190401,Maarsseveen,WK19040101,0333010000007505,Gageldijk,77,,C23,3602AJ,Maarssen,5.088536,52.137714,134552.98,461099.65,"POLYGON Z ((134544.68 461107.66 0,134542.4 461104.922 0,134557.429 461093.172 0,134559.792 461096.204 0,134544.68 461107.66 0))"
Stichtse Vecht,G1904,StichtseVecht-logiesfunctie,Maarssen,WK190401,Maarsseveen,WK19040101,0333010000007506,Gageldijk,77,,C25,3602AJ,Maarssen,5.088674,52.137818,134562.46,461111.16,"POLYGON ((134550.299 461118.133,134550.897 461117.738,134554.005 461115.231,134559.772 461110.574,134559.995 461110.862,134569.93 461103.069,134572.803 461106.846,134562.906 461114.766,134562.458 461114.212,134556.548 461118.809,134556.328 461118.791,134553.064 461121.409,134550.299 461118.133))"
Stichtse Vecht,G1904,StichtseVecht-logiesfunctie,Maarssen,WK190401,Maarsseveen,WK19040101,0333010000007524,Gageldijk,95,a,C11,3602AJ,Maarssen,5.092075,52.134694,134793.91,460762.56,"POLYGON Z ((134799.205 460761.209 0,134791.42 460767.662 0,134789.341 460765.156 0,134797.134 460758.701 0,134799.205 460761.209 0))"
Stichtse Vecht,G1904,StichtseVecht-logiesfunctie,Maarssen,WK190401,Maarsseveen,WK19040101,0333010000007526,Gageldijk,95,a,C6,3602AJ,Maarssen,5.092707,52.13517,134837.41,460815.43,"POLYGON Z ((134842.116 460817.444 0,134834.551 460823.296 0,134831.377 460819.213 0,134835.589 460815.953 0,134832.176 460811.548 0,134835.527 460808.947 0,134842.116 460817.444 0))"
Stichtse Vecht,G1904,StichtseVecht-logiesfunctie,Maarssen,WK190401,Maarsseveen,WK19040101,0333010000007527,Gageldijk,95,a,C5,3602AJ,Maarssen,5.092494,52.13526,134822.85,460825.42,"POLYGON Z ((134823.882 460822.285 0,134831.047 460831.48 0,134825.882 460835.504 0,134818.717 460826.309 0,134823.882 460822.285 0))"
Stichtse Vecht,G1904,StichtseVecht-logiesfunctie,Maarssen,WK190401,Maarsseveen,WK19040101,0333010000007528,Gageldijk,95,a,C3,3602AJ,Maarssen,5.092236,52.135079,134805.08,460805.45,"POLYGON Z ((134813.072 460811.886 0,134810.153 460814.195 0,134802.114 460804.031 0,134798.99 460800.128 0,134801.955 460797.755 0,134810.037 460807.877 0,134813.875 460804.842 0,134816.994 460808.784 0,134813.072 460811.886 0))"
Stichtse Vecht,G1904,StichtseVecht-logiesfunctie,Maarssen,WK190401,Maarsseveen,WK19040101,0333010000007529,Gageldijk,95,a,C2,3602AJ,Maarssen,5.092091,52.134962,134795.09,460792.41,"POLYGON ((134792.34 460792.663,134792.507 460792.532,134800.303 460786.442,134803.083 460790.036,134798.072 460793.948,134801.169 460797.903,134798.309 460800.138,134798.228 460800.201,134792.34 460792.663))"
Stichtse Vecht,G1904,StichtseVecht-logiesfunctie,Maarssen,WK190401,Maarsseveen,WK19040101,0333010000007953,Gageldijk,95,a,C12,3602AJ,Maarssen,5.091915,52.13454,134782.9,460745.52,"POLYGON Z ((134778.084 460742.249 0,134782.452 460738.934 0,134792.697 460752.428 0,134787.609 460756.291 0,134782.019 460748.928 0,134780.866 460749.803 0,134778.673 460746.914 0,134776.983 460748.197 0,134775.158 460745.794 0,134778.721 460743.089 0,134778.084 460742.249 0))"
Stichtse Vecht,G1904,StichtseVecht-logiesfunctie,Maarssen,WK190401,Maarsseveen,WK19040101,0333010000007954,Gageldijk,95,a,C13,3602AJ,Maarssen,5.092719,52.135335,134838.26,460833.72,"POLYGON Z ((134836.084 460837.656 0,134833.65 460834.419 0,134835.382 460833.116 0,134833.674 460830.845 0,134837.162 460828.222 0,134846.042 460840.031 0,134842.729 460842.522 0,134837.992 460836.222 0,134836.084 460837.656 0))"
Stichtse Vecht,G1904,StichtseVecht-logiesfunctie,Oud Zuilen,WK190411,Oud-Zuilen,WK19041101,0333010000008090,Laan van Zuilenveld,54,,,3611AJ,Oud Zuilen,5.068505,52.128977,133177.38,460133.32,"POLYGON Z ((133168.709 460143.658 0,133170.19 460128.347 0,133171.115 460128.439 0,133171.669 460123.818 0,133166.809 460122.15 0,133168.493 460116.841 0,133180.272 460120.978 0,133179.411 460123.43 0,133179.182 460123.402 0,133179.046 460124.544 0,133183.027 460125.019 0,133180.623 460145.176 0,133168.709 460143.658 0))"
Stichtse Vecht,G1904,StichtseVecht-logiesfunctie,Maarssenbroek,WK190412,Verbindingswegen,WK19041201,0333010000009844,Het Kwadrant,1,,,3606AZ,Maarssen,5.036976,52.124728,131016.21,459670.51,"POLYGON ((130983.318 459670.732,130989.813 459661.085,130990.077 459661.249,130996.27 459652.051,130993.497 459637.769,131002.319 459636.044,131002.256 459635.725,131007.88 459634.616,131007.637 459633.269,131007.334 459633.134,131007.058 459632.95,131006.816 459632.722,131006.616 459632.457,131006.464 459632.163,131006.363 459631.847,131006.316 459631.518,131006.326 459631.186,131006.391 459630.861,131006.509 459630.551,131006.671 459630.27,131006.878 459630.019,131007.124 459629.807,131007.403 459629.64,131007.705 459629.522,131008.023 459629.456,131008.348 459629.444,131008.67 459629.488,131008.98 459629.584,131009.269 459629.732,131009.53 459629.926,131009.764 459630.164,131009.954 459630.439,131010.095 459630.742,131010.181 459631.064,131010.211 459631.397,131010.184 459631.73,131010.1 459632.053,131009.962 459632.357,131009.774 459632.633,131009.542 459632.873,131009.802 459634.229,131015.459 459633.142,131015.522 459633.462,131024.344 459631.7,131027.156 459645.961,131036.345 459652.133,131036.554 459651.876,131046.206 459658.382,131039.185 459668.834,131041.673 459670.514,131038.432 459675.33,131037.617 459676.024,131036.667 459676.183,131035.768 459675.87,131034.865 459675.276,131027.509 459686.212,131026.966 459687.019,131025.084 459685.781,131023.653 459687.268,131021.937 459688.443,131022.05 459689.123,131021.971 459689.808,131021.705 459690.444,131021.273 459690.981,131020.709 459691.378,131020.057 459691.603,131019.368 459691.639,131018.697 459691.482,131018.095 459691.145,131017.61 459690.655,131017.28 459690.05,131017.13 459689.377,131015.101 459688.933,131013.237 459688.117,131011.958 459689.971,131000.205 459682.067,130999.609 459682.956,130998.877 459683.598,130997.935 459683.798,130996.928 459683.485,130992.104 459680.238,130993.776 459677.744,130983.318 459670.732))"
Stichtse Vecht,G1904,StichtseVecht-logiesfunctie,Tienhoven,WK190407,Molenpolder,WK19040701,0333010000010556,Westbroekse Binnenweg,80,a,C1,3612AK,Tienhoven,5.10105,52.140165,135410.76,461368.81,"POLYGON ((135402.565 461368.055,135411.774 461361.094,135413.35 461363.366,135414.354 461362.67,135417.012 461366.498,135406.042 461374.113,135403.497 461370.446,135404.087 461370.026,135402.565 461368.055))"
Stichtse Vecht,G1904,StichtseVecht-logiesfunctie,Tienhoven,WK190407,Molenpolder,WK19040701,0333010000010557,Westbroekse Binnenweg,80,a,C3,3612AK,Tienhoven,5.100845,52.14002,135396.71,461352.72,"POLYGON Z ((135391.235 461353.479 0,135402.022 461345.616 0,135404.612 461349.09 0,135393.912 461357.069 0,135391.235 461353.479 0))"
Stichtse Vecht,G1904,StichtseVecht-logiesfunctie,Tienhoven,WK190407,Molenpolder,WK19040701,0333010000010558,Westbroekse Binnenweg,80,a,C4,3612AK,Tienhoven,5.100728,52.139924,135388.61,461342.14,"POLYGON Z ((135379.899 461343.127 0,135393.152 461333.651 0,135398.515 461340.772 0,135385.262 461350.249 0,135379.899 461343.127 0))"
Stichtse Vecht,G1904,StichtseVecht-logiesfunctie,Tienhoven,WK190407,Molenpolder,WK19040701,0333010000010559,Westbroekse Binnenweg,80,a,C5,3612AK,Tienhoven,5.10066,52.139853,135383.93,461334.27,"POLYGON Z ((135378.812 461336.024 0,135389.267 461328.014 0,135392.197 461331.839 0,135381.742 461339.849 0,135378.812 461336.024 0))"
Stichtse Vecht,G1904,StichtseVecht-logiesfunctie,Tienhoven,WK190407,Molenpolder,WK19040701,0333010000010560,Westbroekse Binnenweg,80,a,C7,3612AK,Tienhoven,5.100501,52.139714,135373.01,461318.87,"POLYGON Z ((135377.018 461311.598 0,135379.507 461314.729 0,135369.167 461322.948 0,135366.678 461319.816 0,135377.018 461311.598 0))"
Stichtse Vecht,G1904,StichtseVecht-logiesfunctie,Tienhoven,WK190407,Molenpolder,WK19040701,0333010000010561,Westbroekse Binnenweg,80,a,C8,3612AK,Tienhoven,5.10041,52.139638,135366.75,461310.4,"POLYGON Z ((135357.723 461312.897 0,135370.809 461303.338 0,135373.53 461307.063 0,135360.444 461316.621 0,135357.723 461312.897 0))"
Stichtse Vecht,G1904,StichtseVecht-logiesfunctie,Tienhoven,WK190407,Molenpolder,WK19040701,0333010000010562,Westbroekse Binnenweg,80,a,C10,3612AK,Tienhoven,5.100182,52.139467,135351.08,461291.47,"POLYGON Z ((135344.379 461291.675 0,135356.3 461283.326 0,135360.828 461289.791 0,135348.906 461298.139 0,135344.379 461291.675 0))"
Stichtse Vecht,G1904,StichtseVecht-logiesfunctie,Tienhoven,WK190407,Molenpolder,WK19040701,0333010000010563,Westbroekse Binnenweg,80,a,C11,3612AK,Tienhoven,5.100145,52.139412,135348.46,461285.35,"POLYGON Z ((135343.98 461289.45 0,135341.652 461286.197 0,135352.216 461278.637 0,135354.544 461281.889 0,135343.98 461289.45 0))"
Stichtse Vecht,G1904,StichtseVecht-logiesfunctie,Tienhoven,WK190407,Molenpolder,WK19040701,0333010000010564,Westbroekse Binnenweg,80,a,C12,3612AK,Tienhoven,5.100056,52.139328,135342.37,461276.04,"POLYGON Z ((135335.452 461270.499 0,135338.606 461274.972 0,135346.314 461269.536 0,135348.77 461273.019 0,135335.081 461282.672 0,135329.471 461274.717 0,135335.452 461270.499 0))"
Stichtse Vecht,G1904,StichtseVecht-logiesfunctie,Tienhoven,WK190407,Molenpolder,WK19040701,0333010000010565,Westbroekse Binnenweg,80,a,C13,3612AK,Tienhoven,5.099955,52.139237,135335.43,461265.88,"POLYGON Z ((135327.223 461265.042 0,135326.814 461265.323 0,135325.878 461263.962 0,135328.923 461261.87 0,135329.788 461263.129 0,135337.765 461257.648 0,135342.647 461264.753 0,135332.034 461272.044 0,135327.223 461265.042 0))"
Stichtse Vecht,G1904,StichtseVecht-logiesfunctie,Tienhoven,WK190407,Molenpolder,WK19040701,0333010000010566,Westbroekse Binnenweg,80,a,C14,3612AK,Tienhoven,5.099839,52.139149,135327.46,461256.1,"POLYGON Z ((135323.652 461261.895 0,135321.3 461263.476 0,135319.069 461260.155 0,135318.561 461260.496 0,135316.641 461257.638 0,135319.591 461255.656 0,135320.065 461256.362 0,135328.243 461250.868 0,135331.167 461255.22 0,135333.815 461253.441 0,135335.969 461256.647 0,135325.053 461263.98 0,135323.652 461261.895 0))"
Stichtse Vecht,G1904,StichtseVecht-logiesfunctie,Tienhoven,WK190407,Molenpolder,WK19040701,0333010000010567,Westbroekse Binnenweg,80,a,C15,3612AK,Tienhoven,5.099715,52.139079,135318.92,461248.39,"POLYGON Z ((135322.043 461247.818 0,135327.236 461244.263 0,135329.794 461248.073 0,135316.835 461256.772 0,135311.309 461248.54 0,135318.886 461243.454 0,135322.043 461247.818 0))"
Stichtse Vecht,G1904,StichtseVecht-logiesfunctie,Tienhoven,WK190407,Molenpolder,WK19040701,0333010000010568,Westbroekse Binnenweg,80,a,C16,3612AK,Tienhoven,5.099618,52.138993,135312.23,461238.86,"POLYGON ((135304.206 461239.53,135317.972 461230.224,135321.418 461235.311,135318.534 461237.265,135321.151 461241.129,135310.277 461248.494,135304.48 461239.934,135304.206 461239.53))"
Stichtse Vecht,G1904,StichtseVecht-logiesfunctie,Tienhoven,WK190407,Molenpolder,WK19040701,0333010000010569,Westbroekse Binnenweg,80,a,C18,3612AK,Tienhoven,5.100138,52.13889,135347.79,461227.29,"POLYGON Z ((135348.348 461234.984 0,135339.173 461220.964 0,135345.307 461216.943 0,135354.585 461230.912 0,135348.348 461234.984 0))"
Stichtse Vecht,G1904,StichtseVecht-logiesfunctie,Tienhoven,WK190407,Molenpolder,WK19040701,0333010000010570,Westbroekse Binnenweg,80,a,C19,3612AK,Tienhoven,5.100324,52.13881,135360.48,461218.32,"POLYGON ((135352.244 461216.189,135360.881 461210.028,135356.176 461203.433,135356.74 461203.04,135359.74 461201.52,135360.74 461202.16,135362.38 461204.32,135365.94 461209.16,135368.859 461213.488,135369.668 461214.688,135357.411 461223.432,135352.244 461216.189))"
Stichtse Vecht,G1904,StichtseVecht-logiesfunctie,Tienhoven,WK190407,Molenpolder,WK19040701,0333010000010571,Westbroekse Binnenweg,80,a,C29,3612AK,Tienhoven,5.100624,52.139038,135381.13,461243.54,"POLYGON ((135370.797 461244.391,135383.764 461234.765,135384.73 461235.629,135385.339 461235.19,135387.579 461238.277,135389.479 461240.737,135382.192 461246.368,135375.668 461250.861,135370.797 461244.391))"
Stichtse Vecht,G1904,StichtseVecht-logiesfunctie,Tienhoven,WK190407,Molenpolder,WK19040701,0333010000010572,Westbroekse Binnenweg,80,a,C30,3612AK,Tienhoven,5.100747,52.139117,135389.6,461252.34,"POLYGON Z ((135397.885 461251.618 0,135397.621 461251.823 0,135386.943 461260.101 0,135384.362 461256.773 0,135387.86 461254.175 0,135382.192 461246.368 0,135389.479 461240.737 0,135397.885 461251.618 0))"
Stichtse Vecht,G1904,StichtseVecht-logiesfunctie,Tienhoven,WK190407,Molenpolder,WK19040701,0333010000010574,Westbroekse Binnenweg,80,a,C35,3612AK,Tienhoven,5.101487,52.139764,135440.55,461324.12,"POLYGON ((135430.266 461323.997,135438.261 461319.051,135436.786 461316.799,135441.652 461313.752,135443.193 461316.153,135444.022 461315.606,135448.615 461323.38,135435.034 461331.686,135430.266 461323.997))"
Stichtse Vecht,G1904,StichtseVecht-logiesfunctie,Tienhoven,WK190407,Molenpolder,WK19040701,0333010000010575,Westbroekse Binnenweg,80,a,C37,3612AK,Tienhoven,5.101753,52.139987,135458.83,461348.83,"POLYGON Z ((135454.938 461354.404 0,135449.468 461345.446 0,135455.88 461341.423 0,135454.099 461338.682 0,135457.893 461336.392 0,135465.265 461348.32 0,135454.938 461354.404 0))"
Stichtse Vecht,G1904,StichtseVecht-logiesfunctie,Tienhoven,WK190407,Molenpolder,WK19040701,0333010000010576,Westbroekse Binnenweg,80,a,C38,3612AK,Tienhoven,5.101908,52.140086,135469.5,461359.83,"POLYGON ((135458.222 461365.653,135458.52 461364.187,135460.327 461363.027,135460.206 461362.8,135467.569 461358.457,135465.415 461355.078,135469.328 461352.625,135473.396 461359.711,135462.444 461366.355,135462.222 461366.041,135460.25 461367.357,135458.991 461366.796,135458.222 461365.653))"
Stichtse Vecht,G1904,StichtseVecht-logiesfunctie,Tienhoven,WK190407,Molenpolder,WK19040701,0333010000010577,Westbroekse Binnenweg,80,a,C39,3612AK,Tienhoven,5.101915,52.140167,135470.01,461368.81,"POLYGON ((135461.083 461369.2,135475.074 461361.584,135479.058 461368.219,135464.884 461375.964,135461.083 461369.2))"
Stichtse Vecht,G1904,StichtseVecht-logiesfunctie,Maarssen,WK190401,Bethunepolder-zuid,WK19040102,0333010000012313,Zandpad,23,,,3601NA,Maarssen,5.035445,52.151734,130925.9,462675.74,"POLYGON ((130920.818 462671.016,130929.119 462666.736,130935.746 462679.493,130933.832 462680.48,130934.819 462682.395,130930.709 462684.57,130929.819 462682.768,130927.554 462683.941,130920.818 462671.016))"
Stichtse Vecht,G1904,StichtseVecht-logiesfunctie,Tienhoven,WK190407,Molenpolder,WK19040701,0333010000014393,Westbroekse Binnenweg,56,a,C1,3612AJ,Tienhoven,5.09483,52.142777,134986.12,461661.15,"POLYGON ((134975.205 461654.11,134983.571 461647.849,134990.837 461657.759,134994.46 461655.051,134996.165 461657.381,134992.527 461660.087,134998.825 461668.662,135001.043 461667.064,135003.056 461669.74,135002.259 461670.375,135002.822 461671.151,135001.149 461672.436,135000.451 461672.972,135003.84 461677.429,135006.832 461675.152,135011.069 461680.723,135004.535 461685.692,135000.298 461680.121,135000.513 461679.958,134999.702 461678.884,134995.801 461681.749,134975.205 461654.11))"
Stichtse Vecht,G1904,StichtseVecht-logiesfunctie,Tienhoven,WK190407,Molenpolder,WK19040701,0333010000014408,Westbroekse Binnenweg,56,a,C28,3612AJ,Tienhoven,5.094917,52.142846,134992.13,461668.85,"POLYGON ((134975.205 461654.11,134983.571 461647.849,134990.837 461657.759,134994.46 461655.051,134996.165 461657.381,134992.527 461660.087,134998.825 461668.662,135001.043 461667.064,135003.056 461669.74,135002.259 461670.375,135002.822 461671.151,135001.149 461672.436,135000.451 461672.972,135003.84 461677.429,135006.832 461675.152,135011.069 461680.723,135004.535 461685.692,135000.298 461680.121,135000.513 461679.958,134999.702 461678.884,134995.801 461681.749,134975.205 461654.11))"
Stichtse Vecht,G1904,StichtseVecht-logiesfunctie,Tienhoven,WK190407,Molenpolder,WK19040701,0333010000014564,Westbroekse Binnenweg,80,a,C20,3612AK,Tienhoven,5.100533,52.138945,135374.87,461233.21,"POLYGON ((135366.217 461219.131,135371.099 461215.562,135372.357 461214.643,135376.233 461219.946,135374.883 461220.777,135377.473 461225.193,135377.571 461225.352,135376.205 461226.193,135379.885 461232.174,135371.551 461237.301,135367.751 461230.319,135371.265 461228.407,135366.217 461219.131))"
Stichtse Vecht,G1904,StichtseVecht-logiesfunctie,Tienhoven,WK190407,Molenpolder,WK19040701,0333010000014565,Westbroekse Binnenweg,80,a,C31,3612AK,Tienhoven,5.10088,52.139194,135398.7,461260.9,"POLYGON ((135389.993 461263.803,135400.746 461256.007,135401.086 461255.76,135406.014 461262.557,135405.77 461262.734,135394.921 461270.6,135389.993 461263.803))"
Stichtse Vecht,G1904,StichtseVecht-logiesfunctie,Tienhoven,WK190407,Molenpolder,WK19040701,0333010000014566,Westbroekse Binnenweg,80,a,C36,3612AK,Tienhoven,5.101635,52.139874,135450.71,461336.3,"POLYGON Z ((135441.428 461335.914 0,135449.621 461330.824 0,135448.285 461328.541 0,135451.933 461326.213 0,135453.307 461328.574 0,135457.39 461335.571 0,135445.549 461342.843 0,135441.428 461335.914 0))"
Stichtse Vecht,G1904,StichtseVecht-logiesfunctie,Oud Zuilen,WK190411,Oud-Zuilen,WK19041101,0333010000014686,Dorpsstraat,16,,,3611AE,Oud Zuilen,5.070678,52.127381,133325.42,459955.09,"POLYGON Z ((133313.062 459957.374 0,133313.194 459957.203 0,133313.352 459957.327 0,133314.304 459956.103 0,133314.146 459955.98 0,133314.564 459955.443 0,133314.721 459955.566 0,133315.906 459954.042 0,133315.748 459953.92 0,133317.398 459951.798 0,133317.547 459951.92 0,133320.829 459947.735 0,133323.754 459945.13 0,133333.533 459951.554 0,133329.689 459958.059 0,133329.789 459958.089 0,133328.179 459960.719 0,133328.079 459960.679 0,133325.439 459965.129 0,133313.062 459957.374 0))"
Stichtse Vecht,G1904,StichtseVecht-logiesfunctie,Maarssen,WK190401,Maarsseveen,WK19040101,0333010000015567,Gageldijk,77,,C5,3602AJ,Maarssen,5.087817,52.136724,134503.34,460989.66,"POLYGON Z ((134501.133 460995.836 0,134497.233 460991.297 0,134502.138 460986.763 0,134504.55 460986.316 0,134505.071 460987.033 0,134510.513 460982.169 0,134513.153 460985.229 0,134501.133 460995.836 0))"
Stichtse Vecht,G1904,StichtseVecht-logiesfunctie,Maarssen,WK190401,Maarsseveen,WK19040101,0333010000015568,Gageldijk,77,,C11,3602AJ,Maarssen,5.08828,52.137063,134535.16,461027.24,"POLYGON Z ((134531.11 461032.439 0,134529.19 461030.027 0,134536.298 461024.366 0,134534.596 461022.228 0,134538.678 461018.977 0,134540.458 461021.211 0,134539.838 461021.705 0,134541.681 461024.02 0,134531.11 461032.439 0))"
Stichtse Vecht,G1904,StichtseVecht-logiesfunctie,Maarssen,WK190401,Maarsseveen,WK19040101,0333010000015569,Gageldijk,77,,C18,3602AJ,Maarssen,5.088713,52.137518,134565.04,461077.73,"POLYGON Z ((134564.39 461083.596 0,134560.293 461078.371 0,134573.366 461068.12 0,134575.611 461070.983 0,134568.623 461076.463 0,134570.475 461078.825 0,134564.39 461083.596 0))"
Stichtse Vecht,G1904,StichtseVecht-logiesfunctie,Maarssen,WK190401,Maarsseveen,WK19040101,0333010000015573,Gageldijk,95,a,C8,3602AJ,Maarssen,5.092392,52.134944,134815.74,460790.38,"POLYGON Z ((134808.505 460790.242 0,134816.736 460783.935 0,134818.228 460785.803 0,134816.309 460787.332 0,134823.136 460796.31 0,134820.158 460798.46 0,134815.574 460792.702 0,134812.338 460795.032 0,134808.505 460790.242 0))"
Stichtse Vecht,G1904,StichtseVecht-logiesfunctie,Tienhoven,WK190407,Molenpolder,WK19040701,0333010000015982,Westbroekse Binnenweg,80,a,C9,3612AK,Tienhoven,5.10029,52.139553,135358.49,461300.91,"POLYGON Z ((135354.901 461296.296 0,135357.702 461300.33 0,135364.972 461295.281 0,135367.37 461298.735 0,135354.164 461307.906 0,135348.965 461300.418 0,135354.901 461296.296 0))"
Stichtse Vecht,G1904,StichtseVecht-logiesfunctie,Tienhoven,WK190407,Molenpolder,WK19040701,0333010000015983,Westbroekse Binnenweg,80,a,C17,3612AK,Tienhoven,5.099989,52.138959,135337.63,461234.91,"POLYGON Z ((135336.589 461240.687 0,135326.383 461225.48 0,135333.007 461220.893 0,135343.406 461236.112 0,135336.589 461240.687 0))"
Stichtse Vecht,G1904,StichtseVecht-logiesfunctie,Tienhoven,WK190407,Molenpolder,WK19040701,0333010000016486,Westbroekse Binnenweg,80,a,C2,3612AK,Tienhoven,5.100951,52.140087,135403.99,461360.17,"POLYGON Z ((135407.886 461353.95 0,135410.708 461358.01 0,135399.954 461365.484 0,135397.132 461361.425 0,135407.886 461353.95 0))"
Stichtse Vecht,G1904,StichtseVecht-logiesfunctie,Tienhoven,WK190407,Molenpolder,WK19040701,0333010000016487,Westbroekse Binnenweg,80,a,C33,3612AK,Tienhoven,5.101188,52.139468,135419.9,461291.28,"POLYGON Z ((135413.622 461298.178 0,135409.292 461291.353 0,135419.531 461284.341 0,135424.094 461290.963 0,135413.622 461298.178 0))"
Stichtse Vecht,G1904,StichtseVecht-logiesfunctie,Maarssen,WK190401,Maarsseveen,WK19040101,0333010000017249,Gageldijk,95,a,C10,3602AJ,Maarssen,5.092179,52.13476,134801.04,460769.94,"POLYGON Z ((134805.786 460769.765 0,134797.687 460775.83 0,134795.229 460772.557 0,134800.43 460768.658 0,134798.957 460766.722 0,134801.844 460764.54 0,134805.786 460769.765 0))"
Stichtse Vecht,G1904,StichtseVecht-logiesfunctie,Tienhoven,WK190407,Molenpolder,WK19040701,0333010000017261,Westbroekse Binnenweg,56,a,C2,3612AJ,Tienhoven,5.094798,52.142746,134983.92,461657.68,"POLYGON ((134975.205 461654.11,134983.571 461647.849,134990.837 461657.759,134994.46 461655.051,134996.165 461657.381,134992.527 461660.087,134998.825 461668.662,135001.043 461667.064,135003.056 461669.74,135002.259 461670.375,135002.822 461671.151,135001.149 461672.436,135000.451 461672.972,135003.84 461677.429,135006.832 461675.152,135011.069 461680.723,135004.535 461685.692,135000.298 461680.121,135000.513 461679.958,134999.702 461678.884,134995.801 461681.749,134975.205 461654.11))"
Stichtse Vecht,G1904,StichtseVecht-logiesfunctie,Tienhoven,WK190407,Molenpolder,WK19040701,0333010000017317,Westbroekse Binnenweg,56,a,C50,3612AJ,Tienhoven,5.095028,52.142889,134999.75,461673.59,"POLYGON ((134975.205 461654.11,134983.571 461647.849,134990.837 461657.759,134994.46 461655.051,134996.165 461657.381,134992.527 461660.087,134998.825 461668.662,135001.043 461667.064,135003.056 461669.74,135002.259 461670.375,135002.822 461671.151,135001.149 461672.436,135000.451 461672.972,135003.84 461677.429,135006.832 461675.152,135011.069 461680.723,135004.535 461685.692,135000.298 461680.121,135000.513 461679.958,134999.702 461678.884,134995.801 461681.749,134975.205 461654.11))"
Stichtse Vecht,G1904,StichtseVecht-logiesfunctie,Maarssen,WK190401,Maarsseveen,WK19040101,0333010000017348,Gageldijk,77,,C24,3602AJ,Maarssen,5.08861,52.137763,134558.06,461105.07,"POLYGON ((134546.245 461111.602,134564.831 461097.29,134567.497 461100.878,134551.915 461112.748,134554.005 461115.231,134550.897 461117.738,134546.245 461111.602))"
Stichtse Vecht,G1904,StichtseVecht-logiesfunctie,Maarssen,WK190401,Maarsseveen,WK19040101,0333010000017349,Gageldijk,95,a,C1,3602AJ,Maarssen,5.092033,52.134895,134791.14,460784.99,"POLYGON Z ((134796.754 460788.062 0,134792.814 460791.041 0,134786.924 460783.256 0,134790.864 460780.277 0,134796.754 460788.062 0))"
Stichtse Vecht,G1904,StichtseVecht-logiesfunctie,Maarssen,WK190401,Maarsseveen,WK19040101,0333010000017529,Gageldijk,77,,C17,3602AJ,Maarssen,5.088692,52.137417,134563.52,461066.52,"POLYGON Z ((134559.16 461072.277 0,134556.613 461069.056 0,134568.066 461059.999 0,134570.614 461063.22 0,134559.16 461072.277 0))"
Stichtse Vecht,G1904,StichtseVecht-logiesfunctie,Maarssen,WK190401,Maarsseveen,WK19040101,0333010000017531,Gageldijk,95,a,C9,3602AJ,Maarssen,5.09224,52.134824,134805.25,460777.01,"POLYGON Z ((134798.86 460776.41 0,134806.767 460770.508 0,134808.654 460773.047 0,134806.544 460774.673 0,134810.868 460780.703 0,134812.871 460779.305 0,134815.588 460782.869 0,134810.62 460786.527 0,134805.74 460779.702 0,134803.05 460781.809 0,134798.86 460776.41 0))"
Stichtse Vecht,G1904,StichtseVecht-logiesfunctie,Tienhoven,WK190407,Molenpolder,WK19040701,0333010000017596,Westbroekse Binnenweg,80,a,C6,3612AK,Tienhoven,5.100563,52.139785,135377.26,461326.73,"POLYGON Z ((135377.779 461323.028 0,135379.324 461321.898 0,135379.807 461322.552 0,135383.326 461319.949 0,135386.031 461323.532 0,135372.665 461333.552 0,135366.49 461325.314 0,135374.814 461319.073 0,135377.779 461323.028 0))"
Stichtse Vecht,G1904,StichtseVecht-logiesfunctie,Tienhoven,WK190407,Molenpolder,WK19040701,0333010000017597,Westbroekse Binnenweg,80,a,C34,3612AK,Tienhoven,5.10131,52.139615,135428.36,461307.53,"POLYGON Z ((135431.682 461298.483 0,135436.891 461306.018 0,135423.422 461315.148 0,135418.287 461307.718 0,135426.678 461301.974 0,135424.98 461299.584 0,135429.911 461296.139 0,135431.682 461298.483 0))"
Stichtse Vecht,G1904,StichtseVecht-logiesfunctie,Tienhoven,WK190407,Tienhoven-Oud Maarsseveen,WK19040703,0333010000018051,Dwarsdijk,10,,,3612AP,Tienhoven,5.092182,52.172307,134818.24,464947.4,"POLYGON Z ((134816.263 464950.458 0,134819.514 464940.17 0,134824.181 464941.748 0,134821.023 464951.742 0,134816.263 464950.458 0))"
Stichtse Vecht,G1904,StichtseVecht-logiesfunctie,Maarssen,WK190401,Maarsseveen,WK19040101,0333010000018229,Gageldijk,95,a,C14,3602AJ,Maarssen,5.091939,52.134788,134784.61,460773.14,"POLYGON Z ((134791.642 460776 0,134785.263 460780.909 0,134777.298 460770.551 0,134783.688 460765.641 0,134791.642 460776 0))"
Stichtse Vecht,G1904,StichtseVecht-logiesfunctie,Maarssen,WK190401,Maarsseveen,WK19040101,1904010000030531,Gageldijk,71,a,,3602AJ,Maarssen,5.086336,52.136453,134401.79,460959.9,"POLYGON Z ((134413.584 460977.674 0,134397.479 460957.19 0,134403.765 460952.248 0,134419.87 460972.732 0,134413.584 460977.674 0))"
Stichtse Vecht,G1904,StichtseVecht-logiesfunctie,Maarssen,WK190401,Maarsseveen,WK19040101,1904010000030974,Gageldijk,71,a,C1,3602AJ,Maarssen,5.086683,52.137009,134425.79,461021.64,"POLYGON Z ((134420.691 461023.113 0,134429.104 461016.632 0,134431.272 461019.446 0,134422.859 461025.927 0,134420.691 461023.113 0))"
Stichtse Vecht,G1904,StichtseVecht-logiesfunctie,Maarssen,WK190401,Maarsseveen,WK19040101,1904010000030975,Gageldijk,71,a,C2,3602AJ,Maarssen,5.086766,52.13707,134431.5,461028.45,"POLYGON Z ((134426.213 461030.28 0,134434.626 461023.799 0,134436.794 461026.613 0,134428.381 461033.094 0,134426.213 461030.28 0))"
Stichtse Vecht,G1904,StichtseVecht-logiesfunctie,Maarssen,WK190401,Maarsseveen,WK19040101,1904010000030976,Gageldijk,71,a,C3,3602AJ,Maarssen,5.086835,52.137141,134436.26,461036.3,"POLYGON ((134431.613 461037.331,134440.057 461030.85,134442.194 461033.664,134433.781 461040.145,134431.613 461037.331))"
Stichtse Vecht,G1904,StichtseVecht-logiesfunctie,Maarssen,WK190401,Maarsseveen,WK19040101,1904010000030977,Gageldijk,71,a,C4,3602AJ,Maarssen,5.086927,52.1372,134442.61,461042.91,"POLYGON ((134437.323 461044.739,134445.736 461038.258,134447.904 461041.072,134439.529 461047.533,134437.323 461044.739))"
Stichtse Vecht,G1904,StichtseVecht-logiesfunctie,Maarssen,WK190401,Maarsseveen,WK19040101,1904010000030978,Gageldijk,71,a,C5,3602AJ,Maarssen,5.087007,52.137265,134448.07,461050.04,"POLYGON ((134442.781 461051.876,134451.194 461045.397,134453.362 461048.209,134444.929 461054.614,134442.781 461051.876))"
Stichtse Vecht,G1904,StichtseVecht-logiesfunctie,Maarssen,WK190401,Maarsseveen,WK19040101,1904010000030979,Gageldijk,71,a,C6,3602AJ,Maarssen,5.087078,52.13733,134453.02,461057.31,"POLYGON Z ((134448.292 461058.997 0,134456.705 461052.516 0,134458.873 461055.33 0,134450.46 461061.811 0,134448.292 461058.997 0))"
Stichtse Vecht,G1904,StichtseVecht-logiesfunctie,Maarssen,WK190401,Maarsseveen,WK19040101,1904010000030980,Gageldijk,71,a,C7,3602AJ,Maarssen,5.087165,52.137391,134458.95,461064.09,"POLYGON Z ((134453.656 461065.924 0,134462.069 461059.443 0,134464.237 461062.257 0,134455.824 461068.738 0,134453.656 461065.924 0))"
Stichtse Vecht,G1904,StichtseVecht-logiesfunctie,Maarssen,WK190401,Maarsseveen,WK19040101,1904010000030981,Gageldijk,71,a,C8,3602AJ,Maarssen,5.087245,52.137456,134464.5,461071.26,"POLYGON Z ((134459.212 461073.094 0,134467.625 461066.613 0,134469.793 461069.427 0,134461.38 461075.908 0,134459.212 461073.094 0))"
Stichtse Vecht,G1904,StichtseVecht-logiesfunctie,Maarssen,WK190401,Maarsseveen,WK19040101,1904010000030982,Gageldijk,71,a,C9,3602AJ,Maarssen,5.087326,52.137521,134470.06,461078.45,"POLYGON Z ((134464.773 461080.285 0,134473.186 461073.804 0,134475.354 461076.618 0,134466.941 461083.099 0,134464.773 461080.285 0))"
Stichtse Vecht,G1904,StichtseVecht-logiesfunctie,Maarssen,WK190401,Maarsseveen,WK19040101,1904010000030983,Gageldijk,71,a,C10,3602AJ,Maarssen,5.087405,52.137584,134475.48,461085.48,"POLYGON ((134470.189 461087.318,134478.607 461080.851,134480.77 461083.651,134472.357 461090.132,134470.189 461087.318))"
Stichtse Vecht,G1904,StichtseVecht-logiesfunctie,Maarssen,WK190401,Maarsseveen,WK19040101,1904010000030984,Gageldijk,71,a,C11,3602AJ,Maarssen,5.087489,52.137644,134481.24,461092.09,"POLYGON ((134475.502 461094.205,134483.915 461087.724,134486.072 461090.548,134477.719 461096.981,134475.502 461094.205))"
Stichtse Vecht,G1904,StichtseVecht-logiesfunctie,Maarssen,WK190401,Maarsseveen,WK19040101,1904010000030985,Gageldijk,71,a,C12,3602AJ,Maarssen,5.087554,52.137713,134485.77,461099.73,"POLYGON ((134481.142 461101.49,134489.601 461095.013,134491.723 461097.823,134483.31 461104.304,134481.142 461101.49))"
Stichtse Vecht,G1904,StichtseVecht-logiesfunctie,Maarssen,WK190401,Maarsseveen,WK19040101,1904010000030986,Gageldijk,71,a,C13,3602AJ,Maarssen,5.087644,52.137778,134491.95,461106.94,"POLYGON Z ((134486.658 461108.769 0,134495.071 461102.288 0,134497.239 461105.102 0,134488.826 461111.583 0,134486.658 461108.769 0))"
Stichtse Vecht,G1904,StichtseVecht-logiesfunctie,Maarssen,WK190401,Maarsseveen,WK19040101,1904010000030987,Gageldijk,71,a,C14,3602AJ,Maarssen,5.087721,52.13784,134497.28,461113.89,"POLYGON ((134491.989 461115.726,134500.402 461109.245,134502.563 461112.056,134494.157 461118.54,134491.989 461115.726))"
Stichtse Vecht,G1904,StichtseVecht-logiesfunctie,Maarssen,WK190401,Maarsseveen,WK19040101,1904010000030988,Gageldijk,71,a,C15,3602AJ,Maarssen,5.087802,52.137906,134502.83,461121.2,"POLYGON Z ((134497.538 461123.036 0,134505.951 461116.555 0,134508.119 461119.369 0,134499.706 461125.85 0,134497.538 461123.036 0))"
Stichtse Vecht,G1904,StichtseVecht-logiesfunctie,Maarssen,WK190401,Maarsseveen,WK19040101,1904010000030989,Gageldijk,71,a,C16,3602AJ,Maarssen,5.087885,52.13797,134508.53,461128.28,"POLYGON ((134502.931 461130.194,134511.344 461123.713,134513.485 461126.506,134505.099 461133.008,134502.931 461130.194))"
Stichtse Vecht,G1904,StichtseVecht-logiesfunctie,Maarssen,WK190401,Maarsseveen,WK19040101,1904010000030990,Gageldijk,71,a,C17,3602AJ,Maarssen,5.08796,52.138038,134513.67,461135.78,"POLYGON ((134508.448 461137.325,134516.861 461130.844,134518.982 461133.683,134510.616 461140.139,134508.448 461137.325))"
Stichtse Vecht,G1904,StichtseVecht-logiesfunctie,Maarssen,WK190401,Maarsseveen,WK19040101,1904010000030991,Gageldijk,71,a,C18,3602AJ,Maarssen,5.088034,52.138108,134518.79,461143.55,"POLYGON ((134513.978 461144.614,134522.391 461138.133,134524.559 461140.947,134516.233 461147.361,134513.978 461144.614))"
Stichtse Vecht,G1904,StichtseVecht-logiesfunctie,Maarssen,WK190401,Maarsseveen,WK19040101,1904010000030992,Gageldijk,71,a,C19,3602AJ,Maarssen,5.088374,52.137948,134541.99,461125.7,"POLYGON Z ((134539.361 461129.975 0,134537.19 461127.172 0,134544.622 461121.416 0,134546.793 461124.219 0,134539.361 461129.975 0))"
Stichtse Vecht,G1904,StichtseVecht-logiesfunctie,Maarssen,WK190401,Maarsseveen,WK19040101,1904010000030993,Gageldijk,71,a,C20,3602AJ,Maarssen,5.088293,52.137884,134536.42,461118.55,"POLYGON ((134531.617 461120.03,134539.049 461114.274,134541.245 461117.061,134533.756 461122.797,134531.617 461120.03))"
Stichtse Vecht,G1904,StichtseVecht-logiesfunctie,Maarssen,WK190401,Maarsseveen,WK19040101,1904010000030994,Gageldijk,71,a,C21,3602AJ,Maarssen,5.08821,52.137821,134530.69,461111.62,"POLYGON ((134526.001 461112.902,134533.433 461107.146,134535.604 461109.949,134528.139 461115.692,134526.001 461112.902))"
Stichtse Vecht,G1904,StichtseVecht-logiesfunctie,Maarssen,WK190401,Maarsseveen,WK19040101,1904010000030996,Gageldijk,71,a,C22,3602AJ,Maarssen,5.088129,52.137754,134525.14,461104.17,"POLYGON Z ((134522.509 461108.45 0,134520.338 461105.647 0,134527.77 461099.891 0,134529.941 461102.694 0,134522.509 461108.45 0))"
Stichtse Vecht,G1904,StichtseVecht-logiesfunctie,Maarssen,WK190401,Maarsseveen,WK19040101,1904010000030997,Gageldijk,71,a,C23,3602AJ,Maarssen,5.088047,52.137696,134519.5,461097.72,"POLYGON ((134514.674 461098.393,134522.106 461092.637,134524.277 461095.44,134516.809 461101.17,134514.674 461098.393))"
Stichtse Vecht,G1904,StichtseVecht-logiesfunctie,Maarssen,WK190401,Maarsseveen,WK19040101,1904010000030998,Gageldijk,71,a,C24,3602AJ,Maarssen,5.087968,52.137627,134514.09,461090.04,"POLYGON ((134509.369 461091.544,134516.801 461085.788,134518.972 461088.591,134511.528 461094.401,134509.369 461091.544))"
Stichtse Vecht,G1904,StichtseVecht-logiesfunctie,Maarssen,WK190401,Maarsseveen,WK19040101,1904010000030999,Gageldijk,71,a,C25,3602AJ,Maarssen,5.087886,52.137559,134508.43,461082.57,"POLYGON Z ((134505.802 461086.851 0,134503.631 461084.048 0,134511.063 461078.292 0,134513.234 461081.095 0,134505.802 461086.851 0))"
Stichtse Vecht,G1904,StichtseVecht-logiesfunctie,Maarssen,WK190401,Maarsseveen,WK19040101,1904010000031000,Gageldijk,71,a,C26,3602AJ,Maarssen,5.087806,52.137498,134502.92,461075.73,"POLYGON ((134498.203 461077.03,134505.635 461071.274,134507.808 461074.069,134500.374 461079.833,134498.203 461077.03))"
Stichtse Vecht,G1904,StichtseVecht-logiesfunctie,Maarssen,WK190401,Maarsseveen,WK19040101,1904010000031001,Gageldijk,71,a,C27,3602AJ,Maarssen,5.087712,52.137433,134496.47,461068.58,"POLYGON Z ((134494.644 461072.434 0,134492.473 461069.631 0,134499.905 461063.875 0,134502.076 461066.678 0,134494.644 461072.434 0))"
Stichtse Vecht,G1904,StichtseVecht-logiesfunctie,Maarssen,WK190401,Maarsseveen,WK19040101,1904010000031002,Gageldijk,71,a,C28,3602AJ,Maarssen,5.087644,52.137369,134491.75,461061.42,"POLYGON Z ((134489.418 461065.591 0,134487.247 461062.788 0,134494.679 461057.032 0,134496.85 461059.835 0,134489.418 461065.591 0))"
Stichtse Vecht,G1904,StichtseVecht-logiesfunctie,Maarssen,WK190401,Maarsseveen,WK19040101,1904010000031003,Gageldijk,71,a,C29,3602AJ,Maarssen,5.08755,52.137309,134485.3,461054.79,"POLYGON Z ((134483.829 461058.429 0,134481.658 461055.626 0,134489.09 461049.87 0,134491.261 461052.673 0,134483.829 461058.429 0))"
Stichtse Vecht,G1904,StichtseVecht-logiesfunctie,Maarssen,WK190401,Maarsseveen,WK19040101,1904010000031004,Gageldijk,71,a,C30,3602AJ,Maarssen,5.087489,52.137243,134481.11,461047.46,"POLYGON Z ((134478.321 461051.228 0,134476.15 461048.425 0,134483.582 461042.669 0,134485.753 461045.472 0,134478.321 461051.228 0))"
Stichtse Vecht,G1904,StichtseVecht-logiesfunctie,Maarssen,WK190401,Maarsseveen,WK19040101,1904010000031005,Gageldijk,71,a,C31,3602AJ,Maarssen,5.087403,52.137175,134475.18,461039.96,"POLYGON ((134470.557 461041.268,134478.951 461034.746,134481.124 461037.543,134472.714 461043.993,134470.557 461041.268))"
Stichtse Vecht,G1904,StichtseVecht-logiesfunctie,Maarssen,WK190401,Maarsseveen,WK19040101,1904010000031006,Gageldijk,71,a,C32,3602AJ,Maarssen,5.087335,52.137111,134470.46,461032.8,"POLYGON ((134465.099 461034.353,134473.493 461027.831,134475.666 461030.628,134467.272 461037.15,134465.099 461034.353))"
Stichtse Vecht,G1904,StichtseVecht-logiesfunctie,Maarssen,WK190401,Maarsseveen,WK19040101,1904010000031007,Gageldijk,71,a,C33,3602AJ,Maarssen,5.087253,52.137043,134464.81,461025.33,"POLYGON Z ((134461.696 461029.986 0,134459.523 461027.189 0,134467.917 461020.667 0,134470.09 461023.464 0,134461.696 461029.986 0))"
Stichtse Vecht,G1904,StichtseVecht-logiesfunctie,Maarssen,WK190401,Maarsseveen,WK19040101,1904010000031008,Gageldijk,71,a,C34,3602AJ,Maarssen,5.087165,52.136983,134458.77,461018.66,"POLYGON ((134453.954 461020.06,134462.348 461013.538,134462.427 461013.64,134464.521 461016.335,134456.127 461022.857,134453.954 461020.06))"
Stichtse Vecht,G1904,StichtseVecht-logiesfunctie,Maarssen,WK190401,Maarsseveen,WK19040101,1904010000031009,Gageldijk,71,a,C35,3602AJ,Maarssen,5.087094,52.136917,134453.88,461011.33,"POLYGON Z ((134450.699 461015.849 0,134448.526 461013.052 0,134456.92 461006.53 0,134459.093 461009.327 0,134450.699 461015.849 0))"
Stichtse Vecht,G1904,StichtseVecht-logiesfunctie,Maarssen,WK190401,Maarsseveen,WK19040101,1904010000031010,Gageldijk,71,a,C36,3602AJ,Maarssen,5.08702,52.136853,134448.82,461004.18,"POLYGON ((134442.99 461005.849,134451.414 460999.366,134453.579 461002.179,134445.122 461008.599,134442.99 461005.849))"
Stichtse Vecht,G1904,StichtseVecht-logiesfunctie,Breukelen,WK190402,Polder Breukelen Proosdij,WK19040202,1904010000031256,Zandpad,53,a,,3621NE,Breukelen,5.010432,52.168946,129223.96,464599.32,"POLYGON ((129208.695 464599.251,129210.078 464593.361,129238.4 464600.007,129237.069 464605.681,129224.205 464602.766,129210.687 464599.702,129208.695 464599.251))"
Stichtse Vecht,G1904,StichtseVecht-logiesfunctie,Breukelen,WK190402,Scheendijk,WK19040211,1904010000031263,Scheendijk,16,,25,3621VC,Breukelen,5.022311,52.180417,130043.1,465871.4,"POLYGON Z ((130045.1 465875.1 0,130042.14 465875.396 0,130041.844 465874.73 0,130039.846 465874.878 0,130039.698 465869.92 0,130041.696 465869.846 0,130041.77 465866.516 0,130045.1 465866.294 0,130045.1 465875.1 0))"
Stichtse Vecht,G1904,StichtseVecht-logiesfunctie,Breukelen,WK190402,Scheendijk,WK19040211,1904010000031264,Scheendijk,16,,27,3621VC,Breukelen,5.022437,52.180408,130051.71,465870.41,"POLYGON Z ((130051.659 465874.546 0,130049.357 465866.749 0,130052.235 465865.754 0,130054.38 465873.761 0,130051.659 465874.546 0))"
Stichtse Vecht,G1904,StichtseVecht-logiesfunctie,Breukelen,WK190402,Scheendijk,WK19040211,1904010000031265,Scheendijk,16,,29,3621VC,Breukelen,5.022502,52.180399,130056.11,465869.36,"POLYGON Z ((130055.531 465873.97 0,130053.02 465864.969 0,130056.787 465863.766 0,130059.142 465872.923 0,130055.531 465873.97 0))"
Stichtse Vecht,G1904,StichtseVecht-logiesfunctie,Breukelen,WK190402,Scheendijk,WK19040211,1904010000031266,Scheendijk,16,,31,3621VC,Breukelen,5.022654,52.180381,130066.52,465867.27,"POLYGON Z ((130065.683 465870.621 0,130065.16 465862.091 0,130068.928 465861.83 0,130069.294 465870.359 0,130065.683 465870.621 0))"
Stichtse Vecht,G1904,StichtseVecht-logiesfunctie,Breukelen,WK190402,Scheendijk,WK19040211,1904010000031267,Scheendijk,27,,1,3621VC,Breukelen,5.019406,52.184492,129846.71,466325.73,"POLYGON Z ((129843.074 466328.119 0,129842.616 466323.584 0,129853.82 466322.523 0,129854.279 466327.063 0,129843.074 466328.119 0))"
Stichtse Vecht,G1904,StichtseVecht-logiesfunctie,Breukelen,WK190402,Scheendijk,WK19040211,1904010000031268,Scheendijk,20,,1,3621VC,Breukelen,5.019622,52.181881,129859.99,466035.17,"POLYGON Z ((129858.064 466040.48 0,129859.17 466028.728 0,129862.35 466029.143 0,129861.382 466040.895 0,129858.064 466040.48 0))"
Stichtse Vecht,G1904,StichtseVecht-logiesfunctie,Breukelen,WK190402,Scheendijk,WK19040211,1904010000031269,Scheendijk,20,,3,3621VC,Breukelen,5.019702,52.181874,129865.45,466034.37,"POLYGON Z ((129863.577 466041.194 0,129864.185 466031.274 0,129867.351 466031.417 0,129866.799 466041.417 0,129863.577 466041.194 0))"
Stichtse Vecht,G1904,StichtseVecht-logiesfunctie,Breukelen,WK190402,Scheendijk,WK19040211,1904010000031270,Scheendijk,20,,2,3621VC,Breukelen,5.019612,52.181706,129859.18,466015.75,"POLYGON ((129856.265 466019.956,129857.614 466011.053,129858.416 466011.171,129861.653 466011.649,129860.374 466020.572,129856.947 466020.058,129856.265 466019.956))"
Stichtse Vecht,G1904,StichtseVecht-logiesfunctie,Breukelen,WK190402,Scheendijk,WK19040211,1904010000031271,Scheendijk,20,,4,3621VC,Breukelen,5.019752,52.181721,129868.78,466017.4,"POLYGON Z ((129867.002 466021.636 0,129867.486 466013.414 0,129870.637 466013.597 0,129870.036 466021.799 0,129867.002 466021.636 0))"
Stichtse Vecht,G1904,StichtseVecht-logiesfunctie,Breukelen,WK190402,Scheendijk,WK19040211,1904010000031272,Scheendijk,20,,5,3621VC,Breukelen,5.019812,52.18188,129873,466034.99,"POLYGON ((129871.161 466040.575,129872.061 466030.542,129875.756 466030.864,129874.73 466040.93,129871.161 466040.575))"
Stichtse Vecht,G1904,StichtseVecht-logiesfunctie,Breukelen,WK190402,Scheendijk,WK19040211,1904010000031273,Scheendijk,20,,6,3621VC,Breukelen,5.019872,52.181728,129876.97,466018.11,"POLYGON Z ((129874.955 466022.461 0,129875.29 466012.539 0,129878.862 466012.691 0,129878.557 466022.568 0,129874.955 466022.461 0))"
Stichtse Vecht,G1904,StichtseVecht-logiesfunctie,Breukelen,WK190402,Scheendijk,WK19040211,1904010000031274,Scheendijk,20,,7,3621VC,Breukelen,5.019939,52.181879,129881.67,466034.87,"POLYGON Z ((129880.053 466039.151 0,129880.013 466030.305 0,129883.039 466030.374 0,129883.147 466039.027 0,129880.053 466039.151 0))"
Stichtse Vecht,G1904,StichtseVecht-logiesfunctie,Breukelen,WK190402,Scheendijk,WK19040211,1904010000031275,Scheendijk,20,,8,3621VC,Breukelen,5.019978,52.181728,129884.25,466018.07,"POLYGON Z ((129882.785 466022.641 0,129882.871 466013.625 0,129885.892 466013.686 0,129885.818 466022.672 0,129882.785 466022.641 0))"
Stichtse Vecht,G1904,StichtseVecht-logiesfunctie,Breukelen,WK190402,Scheendijk,WK19040211,1904010000031277,Scheendijk,20,,11,3621VC,Breukelen,5.020194,52.181875,129899.11,466034.38,"POLYGON ((129897.375 466030.029,129900.395 466029.833,129900.925 466038.445,129897.947 466038.55,129897.375 466030.029))"
Stichtse Vecht,G1904,StichtseVecht-logiesfunctie,Breukelen,WK190402,Scheendijk,WK19040211,1904010000031278,Scheendijk,20,,13,3621VC,Breukelen,5.020343,52.181848,129909.31,466031.31,"POLYGON ((129906.812 466027.52,129909.909 466027.346,129910.448 466037.563,129907.291 466037.732,129906.812 466027.52))"
Stichtse Vecht,G1904,StichtseVecht-logiesfunctie,Breukelen,WK190402,Scheendijk,WK19040211,1904010000031279,Scheendijk,20,,14,3621VC,Breukelen,5.020389,52.181729,129912.34,466017.99,"POLYGON Z ((129910.762 466022.847 0,129910.643 466013.115 0,129913.852 466013.11 0,129914.068 466022.763 0,129910.762 466022.847 0))"
Stichtse Vecht,G1904,StichtseVecht-logiesfunctie,Breukelen,WK190402,Scheendijk,WK19040211,1904010000031280,Scheendijk,20,,15,3621VC,Breukelen,5.020466,52.181855,129917.69,466032.01,"POLYGON Z ((129915.906 466037.653 0,129915.484 466027.265 0,129918.688 466027.108 0,129919.165 466037.588 0,129915.906 466037.653 0))"
Stichtse Vecht,G1904,StichtseVecht-logiesfunctie,Breukelen,WK190402,Scheendijk,WK19040211,1904010000031281,Scheendijk,20,,16,3621VC,Breukelen,5.020562,52.181729,129924.19,466018,"POLYGON Z ((129921.721 466022.628 0,129921.202 466012.096 0,129925.127 466011.902 0,129925.416 466018.582 0,129928.578 466018.37 0,129928.771 466022.28 0,129921.721 466022.628 0))"
Stichtse Vecht,G1904,StichtseVecht-logiesfunctie,Breukelen,WK190402,Scheendijk,WK19040211,1904010000031282,Scheendijk,20,,17,3621VC,Breukelen,5.020568,52.181849,129924.7,466031.33,"POLYGON Z ((129922.844 466036.517 0,129922.413 466026.694 0,129925.542 466026.556 0,129926.047 466036.385 0,129922.844 466036.517 0))"
Stichtse Vecht,G1904,StichtseVecht-logiesfunctie,Breukelen,WK190402,Scheendijk,WK19040211,1904010000031283,Scheendijk,20,,19,3621VC,Breukelen,5.020677,52.181845,129932.12,466030.89,"POLYGON ((129929.964 466026.483,129932.966 466026.433,129933.489 466036.141,129931.984 466036.284,129930.428 466036.431,129930.372 466035.237,129929.964 466026.483))"
Stichtse Vecht,G1904,StichtseVecht-logiesfunctie,Breukelen,WK190402,Scheendijk,WK19040211,1904010000031284,Scheendijk,20,,20,3621VC,Breukelen,5.02098,52.181728,129952.76,466017.68,"POLYGON Z ((129947.233 466020.507 0,129946.92 466011.683 0,129951.41 466011.426 0,129951.665 466015.62 0,129957.32 466015.285 0,129957.38 466020.002 0,129947.233 466020.507 0))"
Stichtse Vecht,G1904,StichtseVecht-logiesfunctie,Breukelen,WK190402,Scheendijk,WK19040211,1904010000031286,Scheendijk,20,,23,3621VC,Breukelen,5.021062,52.181823,129958.44,466028.25,"POLYGON ((129954.039 466024.855,129961.095 466024.696,129961.41 466033.503,129957.582 466033.741,129957.554 466033.488,129957.318 466033.497,129955.379 466033.568,129954.367 466033.605,129954.039 466024.855))"
Stichtse Vecht,G1904,StichtseVecht-logiesfunctie,Breukelen,WK190402,Scheendijk,WK19040211,1904010000031287,Scheendijk,20,,24,3621VC,Breukelen,5.02146,52.181803,129985.67,466025.85,"POLYGON Z ((129983.407 466030.396 0,129982.177 466020.826 0,129986.265 466020.381 0,129987.413 466029.854 0,129983.407 466030.396 0))"
Stichtse Vecht,G1904,StichtseVecht-logiesfunctie,Breukelen,WK190402,Scheendijk,WK19040211,1904010000031288,Scheendijk,20,,26,3621VC,Breukelen,5.021626,52.181786,129996.97,466023.97,"POLYGON Z ((129994.04 466028.531 0,129993.354 466018.253 0,129997.603 466018.083 0,129998.173 466028.3 0,129994.04 466028.531 0))"
Stichtse Vecht,G1904,StichtseVecht-logiesfunctie,Breukelen,WK190402,Scheendijk,WK19040211,1904010000031289,Scheendijk,20,,27,3621VC,Breukelen,5.021751,52.18177,130005.53,466022.08,"POLYGON Z ((130004.483 466025.181 0,130004.271 466022.247 0,130002.656 466022.383 0,130002.431 466019.794 0,130003.373 466019.771 0,130003.351 466019.161 0,130005.637 466018.939 0,130006.152 466018.985 0,130006.487 466021.764 0,130012.469 466021.466 0,130012.718 466024.691 0,130004.483 466025.181 0))"
Stichtse Vecht,G1904,StichtseVecht-logiesfunctie,Breukelen,WK190402,Scheendijk,WK19040211,1904010000031290,Scheendijk,20,,28,3621VC,Breukelen,5.021936,52.181758,130018.2,466020.71,"POLYGON Z ((130015.78 466026.414 0,130015.516 466017.081 0,130019.615 466016.994 0,130019.939 466026.3 0,130015.78 466026.414 0))"
Stichtse Vecht,G1904,StichtseVecht-logiesfunctie,Breukelen,WK190402,Scheendijk,WK19040211,1904010000031294,Scheendijk,20,,29,3621VC,Breukelen,5.022084,52.181758,130028.3,466020.71,"POLYGON Z ((130026.227 466026.192 0,130025.618 466016.098 0,130029.852 466015.837 0,130030.379 466025.961 0,130026.227 466026.192 0))"
Stichtse Vecht,G1904,StichtseVecht-logiesfunctie,Breukelen,WK190402,Scheendijk,WK19040211,1904010000031297,Scheendijk,20,,30,3621VC,Breukelen,5.022254,52.181745,130039.95,466019.17,"POLYGON Z ((130037.505 466024.287 0,130037.074 466016.717 0,130040.585 466016.527 0,130041.076 466024.132 0,130037.505 466024.287 0))"
Stichtse Vecht,G1904,StichtseVecht-logiesfunctie,Breukelen,WK190402,Scheendijk,WK19040211,1904010000031298,Scheendijk,20,,31,3621VC,Breukelen,5.022387,52.181767,130049.02,466021.57,"POLYGON Z ((130048.669 466024.616 0,130047.959 466015.501 0,130050.979 466015.272 0,130051.758 466024.379 0,130048.669 466024.616 0))"
Stichtse Vecht,G1904,StichtseVecht-logiesfunctie,Breukelen,WK190402,Scheendijk,WK19040211,1904010000031299,Scheendijk,20,,32,3621VC,Breukelen,5.022555,52.181758,130060.49,466020.54,"POLYGON Z ((130060.118 466023.694 0,130059.363 466014.118 0,130063.519 466013.894 0,130064.171 466023.322 0,130060.118 466023.694 0))"
Stichtse Vecht,G1904,StichtseVecht-logiesfunctie,Breukelen,WK190402,Scheendijk,WK19040211,1904010000031300,Scheendijk,20,,33,3621VC,Breukelen,5.02272,52.181749,130071.79,466019.51,"POLYGON Z ((130071.512 466023.164 0,130070.883 466013.727 0,130074.905 466013.432 0,130075.555 466022.852 0,130071.512 466023.164 0))"
Stichtse Vecht,G1904,StichtseVecht-logiesfunctie,Breukelen,WK190402,Scheendijk,WK19040211,1904010000031304,Scheendijk,20,,35,3621VC,Breukelen,5.023071,52.181732,130095.77,466017.46,"POLYGON Z ((130094.45 466021.477 0,130093.59 466012.019 0,130097.711 466011.686 0,130098.503 466021.115 0,130094.45 466021.477 0))"
Stichtse Vecht,G1904,StichtseVecht-logiesfunctie,Breukelen,WK190402,Scheendijk,WK19040211,1904010000031305,Scheendijk,20,,36,3621VC,Breukelen,5.023213,52.181725,130105.53,466016.6,"POLYGON Z ((130105.211 466020.068 0,130104.663 466011.441 0,130107.77 466011.344 0,130108.276 466019.968 0,130105.211 466020.068 0))"
Stichtse Vecht,G1904,StichtseVecht-logiesfunctie,Breukelen,WK190402,Scheendijk,WK19040211,1904010000031308,Scheendijk,20,,39,3621VC,Breukelen,5.023707,52.181714,130139.26,466015.23,"POLYGON Z ((130137.753 466018.431 0,130137.243 466009.046 0,130141.09 466008.94 0,130141.715 466018.317 0,130137.753 466018.431 0))"
Stichtse Vecht,G1904,StichtseVecht-logiesfunctie,Breukelen,WK190402,Scheendijk,WK19040211,1904010000031309,Scheendijk,20,,40,3621VC,Breukelen,5.023851,52.18171,130149.1,466014.77,"POLYGON Z ((130148.38 466018.337 0,130147.909 466008.558 0,130151.111 466008.361 0,130151.702 466018.239 0,130148.38 466018.337 0))"
Stichtse Vecht,G1904,StichtseVecht-logiesfunctie,Maarssen,WK190401,Bethunepolder-zuid,WK19040102,1904010000031349,Maarsseveensevaart,3,,10,3601CC,Maarssen,5.056314,52.145898,132351.17,462019.73,"POLYGON ((132347.761 462020.931,132350.696 462014.576,132355.87 462016.966,132355.598 462017.556,132356.569 462018.004,132354.179 462023.179,132353.208 462022.73,132352.935 462023.321,132347.761 462020.931))"
Stichtse Vecht,G1904,StichtseVecht-logiesfunctie,Maarssen,WK190401,Bethunepolder-zuid,WK19040102,1904010000031350,Maarsseveensevaart,3,,11,3601CC,Maarssen,5.056485,52.145944,132362.9,462024.77,"POLYGON ((132358.803 462026.005,132361.722 462019.643,132366.903 462022.02,132366.627 462022.619,132367.627 462023.078,132368.627 462023.537,132368.902 462022.937,132374.083 462025.314,132371.164 462031.676,132365.983 462029.299,132366.258 462028.699,132365.259 462028.241,132364.259 462027.782,132363.984 462028.382,132358.803 462026.005))"
Stichtse Vecht,G1904,StichtseVecht-logiesfunctie,Maarssen,WK190401,Bethunepolder-zuid,WK19040102,1904010000031351,Maarsseveensevaart,3,,12,3601CC,Maarssen,5.05657,52.145966,132368.74,462027.2,"POLYGON ((132358.803 462026.005,132361.722 462019.643,132366.903 462022.02,132366.627 462022.619,132367.627 462023.078,132368.627 462023.537,132368.902 462022.937,132374.083 462025.314,132371.164 462031.676,132365.983 462029.299,132366.258 462028.699,132365.259 462028.241,132364.259 462027.782,132363.984 462028.382,132358.803 462026.005))"
Stichtse Vecht,G1904,StichtseVecht-logiesfunctie,Maarssen,WK190401,Bethunepolder-zuid,WK19040102,1904010000031352,Maarsseveensevaart,3,,65,3601CC,Maarssen,5.056974,52.144957,132395.88,461914.82,"POLYGON ((132387.04 461918.756,132389.102 461915.736,132391.834 461917.602,132396.245 461911.142,132392.333 461908.47,132395.062 461904.474,132401.619 461908.952,132392.069 461922.937,132389.443 461921.144,132389.791 461920.634,132387.04 461918.756))"
Stichtse Vecht,G1904,StichtseVecht-logiesfunctie,Maarssen,WK190401,Bethunepolder-zuid,WK19040102,1904010000031353,Maarsseveensevaart,3,,67,3601CC,Maarssen,5.056293,52.144795,132349.19,461896.97,"POLYGON Z ((132343.286 461897.071 0,132348.238 461889.574 0,132352.617 461892.466 0,132354.347 461889.846 0,132356.456 461891.239 0,132354.746 461893.828 0,132359.519 461896.98 0,132354.58 461904.459 0,132349.432 461901.059 0,132349.803 461900.497 0,132348.469 461899.616 0,132348.065 461900.227 0,132343.286 461897.071 0))"
Stichtse Vecht,G1904,StichtseVecht-logiesfunctie,Maarssen,WK190401,Bethunepolder-zuid,WK19040102,1904010000031354,Maarsseveensevaart,3,,64,3601CC,Maarssen,5.057199,52.145088,132411.33,461929.3,"POLYGON ((132404.761 461930.787,132406.637 461928.18,132409.073 461929.933,132416.329 461919.848,132418.925 461921.717,132409.453 461934.882,132406.882 461933.032,132407.223 461932.559,132404.761 461930.787))"
Stichtse Vecht,G1904,StichtseVecht-logiesfunctie,Maarssen,WK190401,Bethunepolder-zuid,WK19040102,1904010000031355,Maarsseveensevaart,3,,13,3601CC,Maarssen,5.056755,52.146035,132381.44,462034.8,"POLYGON Z ((132376.994 462036.04 0,132379.362 462030.855 0,132379.953 462031.125 0,132380.398 462030.151 0,132385.582 462032.519 0,132385.138 462033.493 0,132385.729 462033.763 0,132383.361 462038.947 0,132376.994 462036.04 0))"
Stichtse Vecht,G1904,StichtseVecht-logiesfunctie,Maarssen,WK190401,Bethunepolder-zuid,WK19040102,1904010000031356,Maarsseveensevaart,3,,14,3601CC,Maarssen,5.056952,52.146058,132394.95,462037.35,"POLYGON Z ((132390.532 462040.546 0,132390.802 462039.955 0,132389.829 462039.51 0,132392.198 462034.326 0,132393.171 462034.771 0,132393.441 462034.18 0,132398.626 462036.549 0,132395.716 462042.915 0,132390.532 462040.546 0))"
Stichtse Vecht,G1904,StichtseVecht-logiesfunctie,Maarssen,WK190401,Bethunepolder-zuid,WK19040102,1904010000031357,Maarsseveensevaart,3,,15,3601CC,Maarssen,5.057105,52.146099,132405.45,462041.83,"POLYGON ((132401.16 462045.403,132404.05 462039.027,132409.241 462041.38,132408.973 462041.972,132409.947 462042.414,132407.594 462047.605,132406.62 462047.164,132406.352 462047.756,132401.16 462045.403))"
Stichtse Vecht,G1904,StichtseVecht-logiesfunctie,Maarssen,WK190401,Bethunepolder-zuid,WK19040102,1904010000031358,Maarsseveensevaart,3,,16,3601CC,Maarssen,5.057272,52.146172,132416.93,462049.86,"POLYGON ((132413.582 462050.98,132415.62 462044.283,132421.073 462045.943,132420.881 462046.574,132421.933 462046.894,132422.985 462047.214,132423.177 462046.583,132428.63 462048.242,132426.593 462054.939,132421.14 462053.28,132421.332 462052.648,132420.279 462052.328,132419.227 462052.008,132419.035 462052.639,132413.582 462050.98))"
Stichtse Vecht,G1904,StichtseVecht-logiesfunctie,Maarssen,WK190401,Bethunepolder-zuid,WK19040102,1904010000031359,Maarsseveensevaart,3,,17,3601CC,Maarssen,5.057349,52.146168,132422.18,462049.42,"POLYGON ((132413.582 462050.98,132415.62 462044.283,132421.073 462045.943,132420.881 462046.574,132421.933 462046.894,132422.985 462047.214,132423.177 462046.583,132428.63 462048.242,132426.593 462054.939,132421.14 462053.28,132421.332 462052.648,132420.279 462052.328,132419.227 462052.008,132419.035 462052.639,132413.582 462050.98))"
Stichtse Vecht,G1904,StichtseVecht-logiesfunctie,Maarssen,WK190401,Bethunepolder-zuid,WK19040102,1904010000031376,Machinekade,13,b,,3601AR,Maarssen,5.043511,52.156215,131480.3,463171.66,"POLYGON Z ((131478.186 463164.355 0,131486.46 463167.153 0,131483.672 463175.395 0,131481.919 463174.802 0,131480.98 463177.633 0,131474.555 463175.354 0,131478.186 463164.355 0))"
Stichtse Vecht,G1904,StichtseVecht-logiesfunctie,Breukelen,WK190402,Polder Klein Oud Aa,WK19040203,1904010000031377,Oud Aa,25,a,,3621LA,Breukelen,4.978061,52.173525,127012.26,465120.72,"POLYGON ((126998.178 465124.157,126998.903 465114.464,127000 465114.56,127014.918 465115.763,127014.758 465118.198,127014.409 465122.795,127014.217 465125.307,127000 465124.282,126998.178 465124.157))"
Stichtse Vecht,G1904,StichtseVecht-logiesfunctie,Breukelen,WK190402,Polder Klein Oud Aa,WK19040203,1904010000031378,Oud Aa,25,b,,3621LA,Breukelen,4.977968,52.173526,127005.92,465120.92,"POLYGON ((126998.178 465124.157,126998.903 465114.464,127000 465114.56,127014.918 465115.763,127014.758 465118.198,127014.409 465122.795,127014.217 465125.307,127000 465124.282,126998.178 465124.157))"
Stichtse Vecht,G1904,StichtseVecht-logiesfunctie,Breukelen,WK190402,Polder Klein Oud Aa,WK19040203,1904010000031379,Oud Aa,25,c,,3621LA,Breukelen,4.977892,52.173514,127000.68,465119.54,"POLYGON ((126998.178 465124.157,126998.903 465114.464,127000 465114.56,127014.918 465115.763,127014.758 465118.198,127014.409 465122.795,127014.217 465125.307,127000 465124.282,126998.178 465124.157))"
Stichtse Vecht,G1904,StichtseVecht-logiesfunctie,Tienhoven,WK190407,Molenpolder,WK19040701,1904010000031384,Oudedijk,13,a,,3612AD,Tienhoven,5.082303,52.150009,134132.04,462469.32,"POLYGON ((134125.378 462468.925,134125.628 462468.682,134131.703 462462.766,134138.743 462470.235,134132.391 462476.497,134129.034 462472.872,134125.378 462468.925))"
Stichtse Vecht,G1904,StichtseVecht-logiesfunctie,Maarssen,WK190401,Maarsseveen,WK19040101,1904010000031400,Maarsseveensevaart,7,,1,3601CC,Maarssen,5.058587,52.1457,132506.66,461996.91,"POLYGON Z ((132502.079 461997.816 0,132506.834 461991.136 0,132511.722 461994.615 0,132507.286 462000.848 0,132503.457 461998.122 0,132503.138 461998.57 0,132502.079 461997.816 0))"
Stichtse Vecht,G1904,StichtseVecht-logiesfunctie,Breukelen,WK190402,Polder Kortrijk,WK19040201,1904010000031414,Kortrijk,7,a,,3621LZ,Breukelen,4.983352,52.158726,127365.02,463472.15,"POLYGON ((127359.391 463477.191,127366.195 463467.149,127371.245 463470.571,127371.791 463470.941,127364.098 463482.314,127361.457 463480.524,127362.355 463479.199,127359.391 463477.191))"
Stichtse Vecht,G1904,StichtseVecht-logiesfunctie,Breukelen,WK190402,Scheendijk,WK19040211,1904010000031417,Scheendijk,16,,54,3621VC,Breukelen,5.023985,52.180001,130157.37,465824.49,"POLYGON ((130153.756 465817.302,130160.996 465817.221,130161.124 465828.515,130153.883 465828.597,130153.756 465817.302))"
Stichtse Vecht,G1904,StichtseVecht-logiesfunctie,Breukelen,WK190402,Scheendijk,WK19040211,1904010000031418,Scheendijk,16,,38,3621VC,Breukelen,5.022725,52.180018,130071.15,465826.89,"POLYGON Z ((130069.957 465830.062 0,130069.474 465821.96 0,130072.574 465821.775 0,130072.862 465826.609 0,130075.821 465826.433 0,130076.016 465829.701 0,130069.957 465830.062 0))"
Stichtse Vecht,G1904,StichtseVecht-logiesfunctie,Breukelen,WK190402,Scheendijk,WK19040211,1904010000031419,Scheendijk,16,,13,3621VC,Breukelen,5.021143,52.180113,129963.04,465837.96,"POLYGON Z ((129967.432 465833.49 0,129967.158 465841.653 0,129962.768 465841.504 0,129962.885 465838.027 0,129957.254 465837.836 0,129957.371 465833.555 0,129963.026 465833.727 0,129963.016 465833.329 0,129967.432 465833.49 0))"
Stichtse Vecht,G1904,StichtseVecht-logiesfunctie,Breukelen,WK190402,Scheendijk,WK19040211,1904010000031420,Scheendijk,16,,16,3621VC,Breukelen,5.021384,52.17992,129979.43,465816.46,"POLYGON Z ((129973.75 465818.576 0,129973.546 465813.371 0,129986.037 465812.896 0,129986.216 465818.073 0,129973.75 465818.576 0))"
Stichtse Vecht,G1904,StichtseVecht-logiesfunctie,Breukelen,WK190402,Scheendijk,WK19040211,1904010000031422,Scheendijk,16,,9,3621VC,Breukelen,5.020938,52.180094,129948.96,465835.93,"POLYGON ((129946.116 465833.218,129952.101 465833.177,129952.15 465840.364,129949.159 465840.384,129949.133 465836.604,129946.139 465836.624,129946.116 465833.218))"
Stichtse Vecht,G1904,StichtseVecht-logiesfunctie,Breukelen,WK190402,Scheendijk,WK19040211,1904010000031423,Scheendijk,16,,7,3621VC,Breukelen,5.020839,52.180101,129942.19,465836.77,"POLYGON Z ((129941.347 465839.494 0,129941.518 465832.185 0,129944.486 465832.254 0,129944.315 465839.563 0,129941.347 465839.494 0))"
Stichtse Vecht,G1904,StichtseVecht-logiesfunctie,Breukelen,WK190402,Scheendijk,WK19040211,1904010000031424,Scheendijk,16,,20,3621VC,Breukelen,5.021558,52.180023,129991.33,465827.78,"POLYGON ((129990.505 465824.206,129995.388 465824.065,129995.455 465830.542,129990.564 465830.629,129990.505 465824.206))"
Stichtse Vecht,G1904,StichtseVecht-logiesfunctie,Breukelen,WK190402,Scheendijk,WK19040211,1904010000031425,Scheendijk,16,,22,3621VC,Breukelen,5.021681,52.180034,129999.8,465829,"POLYGON Z ((129999.652 465833.214 0,129999.364 465822.533 0,130003.6 465822.419 0,130003.774 465828.873 0,130008.294 465828.751 0,130008.408 465832.978 0,129999.652 465833.214 0))"
Stichtse Vecht,G1904,StichtseVecht-logiesfunctie,Breukelen,WK190402,Scheendijk,WK19040211,1904010000031426,Scheendijk,16,,24,3621VC,Breukelen,5.021832,52.180034,130010.08,465828.93,"POLYGON ((130008.565 465822.573,130012.211 465822.442,130012.437 465828.738,130016.21 465828.603,130016.351 465832.53,130008.931 465832.796,130008.565 465822.573))"
Stichtse Vecht,G1904,StichtseVecht-logiesfunctie,Breukelen,WK190402,Scheendijk,WK19040211,1904010000031427,Scheendijk,16,,26,3621VC,Breukelen,5.021951,52.180039,130018.26,465829.42,"POLYGON Z ((130016.945 465832.491 0,130016.774 465822.868 0,130019.994 465822.811 0,130020.103 465828.975 0,130024.575 465828.895 0,130024.637 465832.354 0,130016.945 465832.491 0))"
Stichtse Vecht,G1904,StichtseVecht-logiesfunctie,Breukelen,WK190402,Scheendijk,WK19040211,1904010000031428,Scheendijk,16,,28,3621VC,Breukelen,5.022089,52.180038,130027.71,465829.26,"POLYGON Z ((130025.232 465832.363 0,130025.036 465822.712 0,130029.622 465822.618 0,130029.725 465827.704 0,130033.301 465827.631 0,130033.394 465832.197 0,130025.232 465832.363 0))"
Stichtse Vecht,G1904,StichtseVecht-logiesfunctie,Breukelen,WK190402,Scheendijk,WK19040211,1904010000031429,Scheendijk,16,,30,3621VC,Breukelen,5.022221,52.180025,130036.67,465827.83,"POLYGON Z ((130037.958 465822.357 0,130038.115 465827.373 0,130041.389 465827.256 0,130041.544 465831.359 0,130034.423 465831.58 0,130034.104 465822.453 0,130037.958 465822.357 0))"
Stichtse Vecht,G1904,StichtseVecht-logiesfunctie,Breukelen,WK190402,Scheendijk,WK19040211,1904010000031430,Scheendijk,16,,32,3621VC,Breukelen,5.022329,52.180031,130044.06,465828.45,"POLYGON Z ((130042.741 465831.582 0,130042.408 465822.583 0,130045.409 465822.472 0,130045.667 465829.458 0,130049.27 465829.324 0,130049.345 465831.337 0,130042.741 465831.582 0))"
Stichtse Vecht,G1904,StichtseVecht-logiesfunctie,Breukelen,WK190402,Scheendijk,WK19040211,1904010000031431,Scheendijk,16,,34,3621VC,Breukelen,5.022451,52.180031,130052.44,465828.4,"POLYGON Z ((130050.342 465831.15 0,130050.196 465822.29 0,130054.753 465822.215 0,130054.798 465824.898 0,130056.512 465824.87 0,130057.461 465825.758 0,130057.478 465826.766 0,130058.141 465826.755 0,130058.212 465831.019 0,130050.342 465831.15 0))"
Stichtse Vecht,G1904,StichtseVecht-logiesfunctie,Breukelen,WK190402,Scheendijk,WK19040211,1904010000031432,Scheendijk,16,,5,3621VC,Breukelen,5.020718,52.180103,129933.97,465837.03,"POLYGON Z ((129933.133 465839.585 0,129933.251 465830.854 0,129937.294 465830.908 0,129937.177 465839.64 0,129933.133 465839.585 0))"
Stichtse Vecht,G1904,StichtseVecht-logiesfunctie,Breukelen,WK190402,Scheendijk,WK19040211,1904010000031433,Scheendijk,16,,40,3621VC,Breukelen,5.022949,52.180025,130086.52,465827.61,"POLYGON Z ((130081.307 465829.308 0,130080.973 465820.856 0,130085.433 465820.679 0,130085.589 465824.621 0,130090.136 465824.441 0,130090.315 465828.951 0,130081.307 465829.308 0))"
Stichtse Vecht,G1904,StichtseVecht-logiesfunctie,Breukelen,WK190402,Scheendijk,WK19040211,1904010000031435,Scheendijk,16,,48,3621VC,Breukelen,5.02344,52.180013,130120.08,465826.07,"POLYGON ((130116.199 465828.861,130116.227 465819.178,130117.567 465819.057,130120.988 465819.119,130121.027 465822.461,130121.145 465823.92,130125.873 465823.937,130125.856 465828.895,130116.199 465828.861))"
Stichtse Vecht,G1904,StichtseVecht-logiesfunctie,Breukelen,WK190402,Scheendijk,WK19040211,1904010000031436,Scheendijk,16,,36,3621VC,Breukelen,5.02258,52.180021,130061.22,465827.23,"POLYGON ((130058.739 465822.016,130063.447 465821.78,130063.645 465825.738,130068.527 465825.493,130068.755 465830.054,130059.166 465830.535,130058.739 465822.016))"
Stichtse Vecht,G1904,StichtseVecht-logiesfunctie,Breukelen,WK190402,Scheendijk,WK19040211,1904010000031437,Scheendijk,16,,3,3621VC,Breukelen,5.020604,52.180089,129926.16,465835.5,"POLYGON Z ((129925.66 465840.93 0,129925.661 465836.063 0,129923.733 465836.063 0,129923.735 465829.424 0,129929.644 465829.426 0,129929.641 465840.931 0,129925.66 465840.93 0))"
Stichtse Vecht,G1904,StichtseVecht-logiesfunctie,Breukelen,WK190402,Scheendijk,WK19040211,1904010000031438,Scheendijk,16,,44,3621VC,Breukelen,5.023187,52.180004,130102.76,465825.1,"POLYGON ((130098.9 465822.062,130098.907 465819.727,130101.959 465819.661,130106.872 465819.526,130106.905 465827.298,130102.295 465827.285,130102.299 465828.991,130098.946 465829.004,130098.9 465822.062))"
Stichtse Vecht,G1904,StichtseVecht-logiesfunctie,Nigtevecht,WK190408,Polder Aetsveld,WK19040801,1904010000031446,Klompweg,30,a,,1393PJ,Nigtevecht,5.040034,52.278188,131307.38,476743.54,"POLYGON ((131293.359 476771.397,131294.458 476767.936,131304.541 476736.193,131304.776 476736.268,131315.059 476739.534,131304.976 476771.277,131303.381 476770.77,131302.282 476774.231,131293.359 476771.397))"
Stichtse Vecht,G1904,StichtseVecht-logiesfunctie,Maarssen,WK190401,Maarsseveen,WK19040101,1904010000031460,Gageldijk,95,,1,3602AJ,Maarssen,5.091493,52.134653,134754.07,460758.23,"POLYGON Z ((134751.958 460764.664 0,134747.427 460758.55 0,134752.01 460755.154 0,134749.732 460752.08 0,134755.317 460747.941 0,134757.771 460751.252 0,134755.911 460752.631 0,134760.265 460758.508 0,134751.958 460764.664 0))"
Stichtse Vecht,G1904,StichtseVecht-logiesfunctie,Tienhoven,WK190407,Molenpolder,WK19040701,1904010000031463,Westbroekse Binnenweg,1,a,,3612AE,Tienhoven,5.08641,52.146293,134411.36,462054.65,"POLYGON ((134405.717 462053.606,134413.874 462047.432,134417.773 462052.583,134412.51 462056.566,134412.425 462056.455,134410.783 462057.698,134409.294 462055.759,134408.052 462056.691,134405.717 462053.606))"
Stichtse Vecht,G1904,StichtseVecht-logiesfunctie,Maarssen,WK190401,Maarsseveen,WK19040101,1904010000031464,Herenweg,19,c,,3602AM,Maarssen,5.067276,52.144606,133100.91,461872.63,"POLYGON ((133093.905 461871.815,133094.293 461871.39,133098.3 461866.999,133104.229 461872.41,133108.335 461876.151,133103.815 461880.859,133093.905 461871.815))"
Stichtse Vecht,G1904,StichtseVecht-logiesfunctie,Breukelen,WK190402,Scheendijk,WK19040211,1904010000031468,Scheendijk,16,,37,3621VC,Breukelen,5.02306,52.180396,130094.28,465868.86,"POLYGON ((130089.937 465866.469,130099.699 465866.137,130099.881 465871.505,130090.144 465871.835,130090.115 465870.991,130089.943 465866.653,130089.937 465866.469))"
Stichtse Vecht,G1904,StichtseVecht-logiesfunctie,Tienhoven,WK190407,Molenpolder,WK19040701,1904010000031495,Westbroekse Binnenweg,56,a,C10,3612AJ,Tienhoven,5.09445,52.142259,134959.88,461603.63,"POLYGON Z ((134958.682 461607.997 0,134954.878 461603.099 0,134960.886 461598.376 0,134964.669 461603.53 0,134958.682 461607.997 0))"
Stichtse Vecht,G1904,StichtseVecht-logiesfunctie,Kockengen,WK190405,Polder Groot Oud Aa,WK19040502,1904010000031496,Portengen,89,,sw,3628EC,Kockengen,4.946632,52.16892,124859.28,464620.96,"POLYGON ((124854.376 464627.711,124857.382 464621.555,124855.144 464620.431,124856.969 464616.708,124863.92 464620.114,124862.539 464622.918,124860.435 464621.891,124856.973 464628.98,124854.376 464627.711))"
Stichtse Vecht,G1904,StichtseVecht-logiesfunctie,Vreeland,WK190406,Hoeker Polder,WK19040601,1904010000031550,Nigtevechtseweg,188,b,,3633XX,Vreeland,5.043111,52.252364,131503.73,473869.36,"POLYGON ((131488.432 473874.308,131489.029 473864.136,131500 473864.754,131504.002 473864.944,131504.103 473863.227,131508.801 473863.502,131508.701 473865.217,131514.82 473865.575,131514.221 473875.821,131506.96 473875.396,131505.522 473875.314,131488.432 473874.308))"
Stichtse Vecht,G1904,StichtseVecht-logiesfunctie,Vreeland,WK190406,Hoeker Polder,WK19040601,1904010000031551,Nigtevechtseweg,188,c,,3633XX,Vreeland,5.043163,52.252366,131507.26,473869.52,"POLYGON ((131488.432 473874.308,131489.029 473864.136,131500 473864.754,131504.002 473864.944,131504.103 473863.227,131508.801 473863.502,131508.701 473865.217,131514.82 473865.575,131514.221 473875.821,131506.96 473875.396,131505.522 473875.314,131488.432 473874.308))"
Stichtse Vecht,G1904,StichtseVecht-logiesfunctie,Vreeland,WK190406,Hoeker Polder,WK19040601,1904010000031552,Nigtevechtseweg,188,d,,3633XX,Vreeland,5.043212,52.252369,131510.62,473869.84,"POLYGON ((131488.432 473874.308,131489.029 473864.136,131500 473864.754,131504.002 473864.944,131504.103 473863.227,131508.801 473863.502,131508.701 473865.217,131514.82 473865.575,131514.221 473875.821,131506.96 473875.396,131505.522 473875.314,131488.432 473874.308))"
Stichtse Vecht,G1904,StichtseVecht-logiesfunctie,Breukelen,WK190402,Kievitsbuurt,WK19040204,1904010000031555,De Plassen Zuid,464,,,3621PZ,Breukelen,5.039518,52.164729,131211.57,464120.17,"POLYGON Z ((131208.192 464122.143 0,131209.933 464116.591 0,131213.446 464117.692 0,131211.706 464123.245 0,131208.192 464122.143 0))"
Stichtse Vecht,G1904,StichtseVecht-logiesfunctie,Breukelen,WK190402,Kievitsbuurt,WK19040204,1904010000031556,De Plassen Zuid,308,,,3621PZ,Breukelen,5.043908,52.173774,131516.68,465125.1,"POLYGON ((131508.65 465128.632,131509.38 465122.6,131513.831 465123.056,131516.632 465117.616,131511.968 465115.269,131514.19 465110.746,131521.153 465114.121,131520.529 465115.913,131523.921 465117.595,131522.961 465120.028,131519.58 465126.87,131519.95 465127.123,131518.717 465129.662,131508.65 465128.632))"
Stichtse Vecht,G1904,StichtseVecht-logiesfunctie,Breukelen,WK190402,Kievitsbuurt,WK19040204,1904010000031557,De Plassen Zuid,302,,,3621PZ,Breukelen,5.039772,52.174192,131234.02,465172.95,"POLYGON ((131225.56 465173.1,131225.78 465168.98,131231.14 465169.26,131231.1 465170.42,131232.54 465170.54,131234.22 465169.2,131237.64 465172.82,131233.82 465175.84,131231.6 465173.42,131225.56 465173.1))"
Stichtse Vecht,G1904,StichtseVecht-logiesfunctie,Breukelen,WK190402,Kievitsbuurt,WK19040204,1904010000031558,De Plassen Zuid,458,,,3621PZ,Breukelen,5.032907,52.163822,130758.78,464021.5,"POLYGON Z ((130754.646 464024.312 0,130756.867 464017.871 0,130763.214 464020.06 0,130760.994 464026.501 0,130754.646 464024.312 0))"
Stichtse Vecht,G1904,StichtseVecht-logiesfunctie,Breukelen,WK190402,Kievitsbuurt,WK19040204,1904010000031559,De Plassen Zuid,439,,,3621PZ,Breukelen,5.030072,52.165092,130565.47,464163.74,"POLYGON Z ((130562.2 464164.94 0,130563.28 464160.44 0,130569.02 464161.82 0,130567.94 464166.32 0,130562.2 464164.94 0))"
Stichtse Vecht,G1904,StichtseVecht-logiesfunctie,Breukelen,WK190402,Kievitsbuurt,WK19040204,1904010000031560,De Plassen Noord,106,,,3621PN,Breukelen,5.042493,52.180525,131423.51,465876.64,"POLYGON ((131418.292 465879.905,131419.185 465872.991,131427.966 465874.126,131427.087 465880.932,131423.62 465880.484,131423.237 465883.449,131418.364 465882.819,131418.733 465879.962,131418.292 465879.905))"
Stichtse Vecht,G1904,StichtseVecht-logiesfunctie,Breukelen,WK190402,Kievitsbuurt,WK19040204,1904010000031561,De Plassen Noord,184,,,3621PN,Breukelen,5.042804,52.178549,131443.71,465656.72,"POLYGON ((131433.429 465658.817,131439.37 465657.118,131439.195 465656.44,131439.556 465654.662,131441.227 465652.448,131446.144 465650.853,131447.75 465655.498,131446.904 465657.656,131441.439 465659.781,131434.341 465661.858,131433.429 465658.817))"
Stichtse Vecht,G1904,StichtseVecht-logiesfunctie,Breukelen,WK190402,Kievitsbuurt,WK19040204,1904010000031562,De Plassen Noord,122,,,3621PN,Breukelen,5.03104,52.180743,130640.27,465904.76,"POLYGON ((130634.712 465901.522,130640.877 465901.381,130640.96 465902.25,130646.673 465902.283,130646.621 465908.044,130638.26 465907.886,130634.884 465907.64,130634.712 465901.522))"
Stichtse Vecht,G1904,StichtseVecht-logiesfunctie,Breukelen,WK190402,Kievitsbuurt,WK19040204,1904010000031563,De Plassen Noord,86,,,3621PN,Breukelen,5.042375,52.180981,131415.63,465927.45,"POLYGON Z ((131411.98 465929.94 0,131412.84 465920.22 0,131419.7 465920.82 0,131418.84 465930.54 0,131411.98 465929.94 0))"
Stichtse Vecht,G1904,StichtseVecht-logiesfunctie,Breukelen,WK190402,Kievitsbuurt,WK19040204,1904010000031564,De Plassen Noord,112,,,3621PN,Breukelen,5.029208,52.181131,130515.22,465948.46,"POLYGON Z ((130512.841 465950.181 0,130512.985 465945.889 0,130519.022 465946.199 0,130518.979 465950.5 0,130512.841 465950.181 0))"
Stichtse Vecht,G1904,StichtseVecht-logiesfunctie,Breukelen,WK190402,Kievitsbuurt,WK19040204,1904010000031565,De Plassen Noord,131,,,3621PN,Breukelen,5.04101,52.180558,131322.04,465880.84,"POLYGON Z ((131318.28 465884.322 0,131318.122 465878.84 0,131328.298 465878.548 0,131328.455 465884.029 0,131318.28 465884.322 0))"
Stichtse Vecht,G1904,StichtseVecht-logiesfunctie,Breukelen,WK190402,Kievitsbuurt,WK19040204,1904010000031629,Nieuweweg,7,,,3621AZ,Breukelen,5.04391,52.165439,131512.44,464197.73,"POLYGON ((131497.984 464192.793,131499.853 464187.748,131508.321 464190.885,131507.623 464192.771,131510.118 464193.696,131510.82 464191.802,131517.868 464194.413,131514.28 464204.097,131514.047 464204.726,131507.27 464202.152,131507.459 464201.642,131509.199 464196.948,131497.984 464192.793))"
Stichtse Vecht,G1904,StichtseVecht-logiesfunctie,Breukelen,WK190402,Kievitsbuurt,WK19040204,1904010000031643,Nieuweweg,5,a,,3621AZ,Breukelen,5.036118,52.163858,130978.51,464024.38,"POLYGON ((130975.509 464025.644,130975.535 464025.553,130977.572 464020.122,130982.148 464021.849,130980.036 464027.274,130975.509 464025.644))"
Stichtse Vecht,G1904,StichtseVecht-logiesfunctie,Maarssen,WK190401,Maarsseveen,WK19040101,1904010000031645,Gageldijk,53,a,,3602AH,Maarssen,5.083871,52.138133,134233.8,461147.49,"POLYGON Z ((134240.983 461148.551 0,134235.202 461152.62 0,134229.388 461144.361 0,134232.667 461142.053 0,134237.099 461148.35 0,134239.602 461146.589 0,134240.983 461148.551 0))"
Stichtse Vecht,G1904,StichtseVecht-logiesfunctie,Maarssen,WK190401,Maarsseveen,WK19040101,1904010000031646,Gageldijk,57,a,,3602AH,Maarssen,5.084717,52.137452,134291.38,461071.53,"POLYGON ((134284.616 461065.564,134288.759 461062.185,134299.452 461075.35,134298.81 461075.883,134299.434 461076.571,134299.184 461076.796,134296.332 461079.179,134293.795 461076.198,134293.44 461076.495,134284.616 461065.564))"
Stichtse Vecht,G1904,StichtseVecht-logiesfunctie,Loenen aan de Vecht,WK190403,Polder Garsten,WK19040302,1904010000031648,Oostkanaaldijk,11,a,,3632GA,Loenen aan de Vecht,5.012524,52.241282,129408.76,472646.7,"POLYGON ((129399.551 472662.574,129402.139 472654.775,129403.097 472651.89,129405.707 472644.024,129416.005 472647.442,129409.849 472665.992,129399.551 472662.574))"
Stichtse Vecht,G1904,StichtseVecht-logiesfunctie,Loenen aan de Vecht,WK190403,Polder Garsten,WK19040302,1904010000031649,Oostkanaaldijk,11,b,,3632GA,Loenen aan de Vecht,5.012615,52.241306,129414.93,472649.3,"POLYGON ((129399.551 472662.574,129402.139 472654.775,129403.097 472651.89,129405.707 472644.024,129416.005 472647.442,129409.849 472665.992,129399.551 472662.574))"
Stichtse Vecht,G1904,StichtseVecht-logiesfunctie,Loenen aan de Vecht,WK190403,Polder Garsten,WK19040302,1904010000031650,Oostkanaaldijk,11,c,,3632GA,Loenen aan de Vecht,5.012574,52.241294,129412.17,472648,"POLYGON ((129399.551 472662.574,129402.139 472654.775,129403.097 472651.89,129405.707 472644.024,129416.005 472647.442,129409.849 472665.992,129399.551 472662.574))"
Stichtse Vecht,G1904,StichtseVecht-logiesfunctie,Loenen aan de Vecht,WK190403,Polder Garsten,WK19040302,1904010000031651,Oostkanaaldijk,11,d,,3632GA,Loenen aan de Vecht,5.012484,52.241291,129406,472647.7,"POLYGON ((129399.551 472662.574,129402.139 472654.775,129403.097 472651.89,129405.707 472644.024,129416.005 472647.442,129409.849 472665.992,129399.551 472662.574))"
Stichtse Vecht,G1904,StichtseVecht-logiesfunctie,Maarssen,WK190401,Maarsseveen,WK19040101,1904010000031749,Maarsseveensevaart,7,,2,3601CC,Maarssen,5.057623,52.145021,132440.32,461921.72,"POLYGON Z ((132447.138 461922.354 0,132442.668 461927.61 0,132434.167 461920.38 0,132438.637 461915.124 0,132447.138 461922.354 0))"
Stichtse Vecht,G1904,StichtseVecht-logiesfunctie,Nieuwersluis,WK190409,Polder Mijnden,WK19040901,1904010000031758,Zandpad,28,c,,3631NL,Nieuwersluis,5.017555,52.185137,129720.46,466398.18,"POLYGON ((129715.771 466395.609,129726.087 466394.529,129726.658 466399.679,129721.234 466400.281,129721.514 466402.803,129718.381 466403.151,129718.097 466400.588,129716.345 466400.782,129715.771 466395.609))"
Stichtse Vecht,G1904,StichtseVecht-logiesfunctie,Breukelen,WK190402,Scheendijk,WK19040211,1904010000031760,Scheendijk,22,,23,3621VC,Breukelen,5.022051,52.182288,130026.34,466079.7,"POLYGON Z ((130020.754 466085.557 0,130020.49 466081.565 0,130019.891 466081.605 0,130019.858 466081.106 0,130020.108 466081.09 0,130019.876 466077.597 0,130023.568 466077.353 0,130023.55 466077.073 0,130025.246 466076.961 0,130025.265 466077.24 0,130028.966 466076.995 0,130029.198 466080.488 0,130029.447 466080.471 0,130029.48 466080.97 0,130028.882 466081.01 0,130029.146 466085.001 0,130025.783 466085.224 0,130025.803 466085.523 0,130024.137 466085.633 0,130024.117 466085.334 0,130020.754 466085.557 0))"
Stichtse Vecht,G1904,StichtseVecht-logiesfunctie,Breukelen,WK190402,Kievitsbuurt,WK19040204,1904010000031761,De Plassen Noord,10,,,3621PN,Breukelen,5.042085,52.182683,131396.71,466116.95,"POLYGON Z ((131392.529 466124.239 0,131393.208 466114.799 0,131400.456 466115.32 0,131399.777 466124.76 0,131392.529 466124.239 0))"
Stichtse Vecht,G1904,StichtseVecht-logiesfunctie,Breukelen,WK190402,Scheendijk,WK19040211,1904010000031770,Scheendijk,22,,13,3621VC,Breukelen,5.020758,52.182349,129937.98,466086.84,"POLYGON ((129933.648 466086.596,129933.897 466086.579,129933.662 466083.087,129937.354 466082.839,129937.335 466082.56,129939.032 466082.446,129939.05 466082.725,129942.752 466082.477,129942.987 466085.969,129943.236 466085.952,129943.27 466086.451,129942.671 466086.491,129942.939 466090.482,129939.577 466090.708,129939.597 466091.007,129937.93 466091.119,129937.91 466090.82,129934.548 466091.046,129934.28 466087.055,129933.681 466087.095,129933.648 466086.596))"
Stichtse Vecht,G1904,StichtseVecht-logiesfunctie,Breukelen,WK190402,Kievitsbuurt,WK19040204,1904010000031784,De Plassen Noord,130,a,,3621PN,Breukelen,5.039141,52.180177,131194.05,465839.04,"POLYGON Z ((131187.545 465842.317 0,131187.353 465836.754 0,131200.865 465836.257 0,131201.056 465841.82 0,131187.545 465842.317 0))"
Stichtse Vecht,G1904,StichtseVecht-logiesfunctie,Breukelen,WK190402,Polder Klein Oud Aa,WK19040203,1904010000031785,Oud Aa,25,d,,3621LA,Breukelen,4.978097,52.173394,127014.69,465106.14,"POLYGON Z ((127010.227 465103.72 0,127014.751 465101.178 0,127019.498 465104.431 0,127019.05 465110.337 0,127014.153 465112.169 0,127009.629 465109.253 0,127010.227 465103.72 0))"
Stichtse Vecht,G1904,StichtseVecht-logiesfunctie,Breukelen,WK190402,Scheendijk,WK19040211,1904010000031811,Scheendijk,22,,9,3621VC,Breukelen,5.020244,52.182371,129902.83,466089.52,"POLYGON Z ((129896.088 466092.639 0,129895.479 466084.662 0,129897.114 466084.537 0,129897.5 466084.077 0,129899.734 466083.906 0,129900.642 466084.629 0,129900.843 466087.271 0,129903.266 466087.087 0,129903.671 466086.614 0,129905.785 466086.453 0,129906.483 466087.182 0,129906.837 466091.819 0,129896.088 466092.639 0))"
Stichtse Vecht,G1904,StichtseVecht-logiesfunctie,Kockengen,WK190405,Polder Kockengen,WK19040504,1904010000031813,Wagendijk,9,a,,3628EP,Kockengen,4.95409,52.141049,125350.95,461517.01,"POLYGON Z ((125357.966 461525.012 0,125339.247 461519.732 0,125342.2 461509.164 0,125360.877 461514.41 0,125357.966 461525.012 0))"
Stichtse Vecht,G1904,StichtseVecht-logiesfunctie,Maarssen,WK190401,Maarsseveen,WK19040101,1904010000031862,Gageldijk,71,,C38,3602AJ,Maarssen,5.086909,52.136745,134441.16,460992.3,"POLYGON ((134435.333 460990.387,134440.993 460985.939,134447.122 460993.726,134441.377 460998.133,134435.333 460990.387))"
Stichtse Vecht,G1904,StichtseVecht-logiesfunctie,Breukelen,WK190402,Scheendijk,WK19040211,1904010000031866,Scheendijk,22,,4,3621VC,Breukelen,5.019971,52.182575,129884.28,466112.29,"POLYGON Z ((129882.074 466114.854 0,129881.842 466106.859 0,129886.84 466106.713 0,129886.927 466109.712 0,129892.924 466109.538 0,129893.069 466114.535 0,129882.074 466114.854 0))"
Stichtse Vecht,G1904,StichtseVecht-logiesfunctie,Tienhoven,WK190407,Molenpolder,WK19040701,1904010000031992,Westbroekse Binnenweg,11,a,,3612AE,Tienhoven,5.09057,52.144853,134695.48,461893.33,"POLYGON Z ((134699.395 461888.314 0,134700.897 461890.679 0,134697.164 461893.052 0,134698.344 461894.909 0,134694.825 461897.146 0,134692.159 461892.952 0,134699.395 461888.314 0))"
Stichtse Vecht,G1904,StichtseVecht-logiesfunctie,Tienhoven,WK190407,Molenpolder,WK19040701,1904010000031998,Oudedijk,2,a,,3612AB,Tienhoven,5.075855,52.152534,133691.9,462752.15,"POLYGON ((133685.634 462751.365,133690.299 462746.233,133697.417 462752.703,133692.869 462757.942,133689.654 462755.019,133685.634 462751.365))"
Stichtse Vecht,G1904,StichtseVecht-logiesfunctie,Tienhoven,WK190407,Molenpolder,WK19040701,1904010000032097,Oudedijk,24,a,,3612AB,Tienhoven,5.076919,52.150881,133763.96,462567.88,"POLYGON Z ((133763.096 462569.709 0,133759.054 462564.02 0,133762.022 462561.951 0,133765.967 462567.67 0,133763.096 462569.709 0))"
Stichtse Vecht,G1904,StichtseVecht-logiesfunctie,Nieuwersluis,WK190409,Polder Mijnden,WK19040901,1904010000032098,Mijndensedijk,59,a,,3631NN,Nieuwersluis,5.011772,52.194244,129330.23,467413.5,"POLYGON Z ((129326.206 467416.802 0,129327.266 467410.671 0,129335.138 467412.032 0,129335.361 467410.707 0,129339.991 467411.485 0,129338.526 467420.203 0,129333.881 467419.422 0,129334.092 467418.165 0,129326.206 467416.802 0))"
Stichtse Vecht,G1904,StichtseVecht-logiesfunctie,Tienhoven,WK190407,Molenpolder,WK19040701,1904010000032110,Oudedijk,6,c,,3612AB,Tienhoven,5.074242,52.15129,133580.93,462614.22,"POLYGON Z ((133578.605 462613.576 0,133579.276 462612.848 0,133580.026 462613.54 0,133586.344 462606.687 0,133590.769 462610.768 0,133583.971 462618.167 0,133584.707 462618.843 0,133584.538 462619.027 0,133578.605 462613.576 0))"
Stichtse Vecht,G1904,StichtseVecht-logiesfunctie,Breukelen,WK190402,Kievitsbuurt,WK19040204,1904010000032223,De Plassen Zuid,346,,,3621PZ,Breukelen,5.040897,52.17188,131309.75,464915.37,"POLYGON ((131306.086 464917.419,131306.125 464917.146,131306.718 464913.04,131314.486 464914.161,131313.868 464918.439,131313.854 464918.541,131306.086 464917.419))"
Stichtse Vecht,G1904,StichtseVecht-logiesfunctie,Breukelen,WK190402,Scheendijk,WK19040211,1904010000032252,Scheendijk,25,,4,3621VC,Breukelen,5.02128,52.183724,129974.41,466239.65,"POLYGON Z ((129972.796 466242.185 0,129972.455 466236.583 0,129985.846 466235.462 0,129986.148 466241.37 0,129972.796 466242.185 0))"
Stichtse Vecht,G1904,StichtseVecht-logiesfunctie,Nigtevecht,WK190408,Polder Garsten Noord,WK19040802,1904010000032320,Vreelandseweg,83,a,,1393PE,Nigtevecht,5.031792,52.260047,130734.97,474727.86,"POLYGON Z ((130734.623 474737.784 0,130730.012 474736.447 0,130735.949 474713.836 0,130736.191 474713.899 0,130735.937 474714.866 0,130740.096 474715.958 0,130740.35 474714.991 0,130740.591 474715.055 0,130734.623 474737.784 0))"
Stichtse Vecht,G1904,StichtseVecht-logiesfunctie,Loenen aan de Vecht,WK190403,Driehoven,WK19040308,1904010000032384,Driehovenlaan,10,f,,3632BJ,Loenen aan de Vecht,5.019496,52.208356,129866.33,468980.86,"POLYGON Z ((129877.257 469091.419 0,129874.011 469088.981 0,129867.491 469097.097 0,129857.51 469090.46 0,129863.305 469081.482 0,129860.573 469079.666 0,129883.617 469045.076 0,129884.08 469045.373 0,129886.772 469041.28 0,129890.659 469043.023 0,129895.937 469041.211 0,129883.286 469009.092 0,129853.214 469020.794 0,129854.602 469024.361 0,129848.176 469026.862 0,129846.426 469022.364 0,129844.388 469023.157 0,129840.001 469011.884 0,129841.956 469011.123 0,129840.225 469006.675 0,129846.69 469004.159 0,129847.753 469006.892 0,129877.812 468995.194 0,129873.138 468983.324 0,129864.456 468986.776 0,129861.28 468978.917 0,129882.815 468970.608 0,129907.189 469032.308 0,129917.773 469028.263 0,129924.638 469045.717 0,129901.177 469054.81 0,129898.44 469047.995 0,129895.225 469049.14 0,129876.233 469077.597 0,129883.439 469082.736 0,129877.257 469091.419 0))"
Stichtse Vecht,G1904,StichtseVecht-logiesfunctie,Loenen aan de Vecht,WK190403,Driehoven,WK19040308,1904010000032385,Driehovenlaan,10,g,,3632BJ,Loenen aan de Vecht,5.019593,52.208359,129872.98,468981.12,"POLYGON Z ((129877.257 469091.419 0,129874.011 469088.981 0,129867.491 469097.097 0,129857.51 469090.46 0,129863.305 469081.482 0,129860.573 469079.666 0,129883.617 469045.076 0,129884.08 469045.373 0,129886.772 469041.28 0,129890.659 469043.023 0,129895.937 469041.211 0,129883.286 469009.092 0,129853.214 469020.794 0,129854.602 469024.361 0,129848.176 469026.862 0,129846.426 469022.364 0,129844.388 469023.157 0,129840.001 469011.884 0,129841.956 469011.123 0,129840.225 469006.675 0,129846.69 469004.159 0,129847.753 469006.892 0,129877.812 468995.194 0,129873.138 468983.324 0,129864.456 468986.776 0,129861.28 468978.917 0,129882.815 468970.608 0,129907.189 469032.308 0,129917.773 469028.263 0,129924.638 469045.717 0,129901.177 469054.81 0,129898.44 469047.995 0,129895.225 469049.14 0,129876.233 469077.597 0,129883.439 469082.736 0,129877.257 469091.419 0))"
Stichtse Vecht,G1904,StichtseVecht-logiesfunctie,Loenen aan de Vecht,WK190403,Driehoven,WK19040308,1904010000032390,Driehovenlaan,10,n,,3632BJ,Loenen aan de Vecht,5.019234,52.208637,129848.57,469012.19,"POLYGON Z ((129877.257 469091.419 0,129874.011 469088.981 0,129867.491 469097.097 0,129857.51 469090.46 0,129863.305 469081.482 0,129860.573 469079.666 0,129883.617 469045.076 0,129884.08 469045.373 0,129886.772 469041.28 0,129890.659 469043.023 0,129895.937 469041.211 0,129883.286 469009.092 0,129853.214 469020.794 0,129854.602 469024.361 0,129848.176 469026.862 0,129846.426 469022.364 0,129844.388 469023.157 0,129840.001 469011.884 0,129841.956 469011.123 0,129840.225 469006.675 0,129846.69 469004.159 0,129847.753 469006.892 0,129877.812 468995.194 0,129873.138 468983.324 0,129864.456 468986.776 0,129861.28 468978.917 0,129882.815 468970.608 0,129907.189 469032.308 0,129917.773 469028.263 0,129924.638 469045.717 0,129901.177 469054.81 0,129898.44 469047.995 0,129895.225 469049.14 0,129876.233 469077.597 0,129883.439 469082.736 0,129877.257 469091.419 0))"
Stichtse Vecht,G1904,StichtseVecht-logiesfunctie,Loenen aan de Vecht,WK190403,Driehoven,WK19040308,1904010000032392,Driehovenlaan,10,r,,3632BJ,Loenen aan de Vecht,5.019339,52.208648,129855.75,469013.37,"POLYGON Z ((129877.257 469091.419 0,129874.011 469088.981 0,129867.491 469097.097 0,129857.51 469090.46 0,129863.305 469081.482 0,129860.573 469079.666 0,129883.617 469045.076 0,129884.08 469045.373 0,129886.772 469041.28 0,129890.659 469043.023 0,129895.937 469041.211 0,129883.286 469009.092 0,129853.214 469020.794 0,129854.602 469024.361 0,129848.176 469026.862 0,129846.426 469022.364 0,129844.388 469023.157 0,129840.001 469011.884 0,129841.956 469011.123 0,129840.225 469006.675 0,129846.69 469004.159 0,129847.753 469006.892 0,129877.812 468995.194 0,129873.138 468983.324 0,129864.456 468986.776 0,129861.28 468978.917 0,129882.815 468970.608 0,129907.189 469032.308 0,129917.773 469028.263 0,129924.638 469045.717 0,129901.177 469054.81 0,129898.44 469047.995 0,129895.225 469049.14 0,129876.233 469077.597 0,129883.439 469082.736 0,129877.257 469091.419 0))"
Stichtse Vecht,G1904,StichtseVecht-logiesfunctie,Breukelen,WK190402,Kievitsbuurt,WK19040204,1904010000032406,Scheendijk,4,b,,3621VB,Breukelen,5.027953,52.175501,130426.24,465322.53,"POLYGON Z ((130414.451 465324.834 0,130414.864 465318.506 0,130419.375 465318.678 0,130419.534 465316.802 0,130430.117 465317.412 0,130430.01 465319.251 0,130431.486 465319.342 0,130431.121 465325.793 0,130414.451 465324.834 0))"
Stichtse Vecht,G1904,StichtseVecht-logiesfunctie,Breukelen,WK190402,Kievitsbuurt,WK19040204,1904010000032425,De Plassen Noord,3,,,3621PN,Breukelen,5.03374,52.183715,130826.57,466234.48,"POLYGON ((130818.992 466229.038,130819.941 466229.006,130826.059 466228.803,130826.133 466230.584,130829.703 466230.526,130829.735 466236.064,130826.76 466236.09,130826.742 466237.295,130826.198 466237.312,130826.186 466239.05,130819.138 466239.14,130818.992 466229.038))"
Stichtse Vecht,G1904,StichtseVecht-logiesfunctie,Loenen aan de Vecht,WK190403,Polder Garsten,WK19040302,1904010000032429,Oostkanaaldijk,11,e,,3632GA,Loenen aan de Vecht,5.013106,52.241433,129448.58,472663.24,"POLYGON Z ((129443.903 472664.936 0,129445.988 472658.674 0,129452.25 472660.759 0,129450.165 472667.021 0,129443.903 472664.936 0))"
Stichtse Vecht,G1904,StichtseVecht-logiesfunctie,Loenen aan de Vecht,WK190403,Polder Garsten,WK19040302,1904010000032430,Oostkanaaldijk,11,f,,3632GA,Loenen aan de Vecht,5.012924,52.241498,129436.18,472670.55,"POLYGON Z ((129433.628 472673.814 0,129432.631 472667.29 0,129439.155 472666.293 0,129440.151 472672.817 0,129433.628 472673.814 0))"
Stichtse Vecht,G1904,StichtseVecht-logiesfunctie,Loenen aan de Vecht,WK190403,Polder Garsten,WK19040302,1904010000032431,Oostkanaaldijk,11,g,,3632GA,Loenen aan de Vecht,5.013179,52.241531,129453.59,472674.09,"POLYGON Z ((129450.706 472679.444 0,129449.687 472672.923 0,129456.208 472671.905 0,129457.227 472678.426 0,129450.706 472679.444 0))"
Stichtse Vecht,G1904,StichtseVecht-logiesfunctie,Loenen aan de Vecht,WK190403,Polder Garsten,WK19040302,1904010000032432,Oostkanaaldijk,11,h,,3632GA,Loenen aan de Vecht,5.013427,52.241596,129470.59,472681.24,"POLYGON Z ((129467.827 472685.001 0,129466.823 472678.478 0,129473.347 472677.475 0,129474.35 472683.998 0,129467.827 472685.001 0))"
Stichtse Vecht,G1904,StichtseVecht-logiesfunctie,Breukelen,WK190402,Kievitsbuurt,WK19040204,1904010000032471,De Plassen Noord,64,,,3621PN,Breukelen,5.035742,52.182281,130962.69,466074.3,"POLYGON Z ((130959.933 466076.787 0,130959.78 466072.16 0,130965.52 466072 0,130965.627 466076.531 0,130959.933 466076.787 0))"
Stichtse Vecht,G1904,StichtseVecht-logiesfunctie,Tienhoven,WK190407,Molenpolder,WK19040701,1904010000032501,Westbroekse Binnenweg,23,d,,3612AG,Tienhoven,5.099295,52.143593,135292.17,461750.75,"POLYGON Z ((135292.105 461746.189 0,135296.787 461752.28 0,135291.611 461756.26 0,135286.928 461750.169 0,135292.105 461746.189 0))"
Stichtse Vecht,G1904,StichtseVecht-logiesfunctie,Breukelen,WK190402,Kievitsbuurt,WK19040204,1904010000032520,De Plassen Noord,211,,,3621PN,Breukelen,5.028536,52.177314,130467.13,465524.03,"POLYGON Z ((130463.268 465526.395 0,130463.145 465521.355 0,130470.449 465521.177 0,130470.572 465526.217 0,130463.268 465526.395 0))"
Stichtse Vecht,G1904,StichtseVecht-logiesfunctie,Breukelen,WK190402,Kievitsbuurt,WK19040204,1904010000032526,De Plassen Noord,103,a,,3621PN,Breukelen,5.030595,52.181508,130610.27,465990.02,"POLYGON Z ((130606.151 465986.564 0,130612.257 465986.136 0,130612.669 465990.843 0,130606.546 465991.238 0,130606.151 465986.564 0))"
Stichtse Vecht,G1904,StichtseVecht-logiesfunctie,Kockengen,WK190405,Kockengen Dorp,WK19040505,1904010000032532,Wagendijk,65,e,,3628ET,Kockengen,4.941034,52.150941,124464.02,462623.04,"POLYGON ((124453.506 462621.927,124456.067 462615.872,124475.424 462624.057,124472.853 462630.116,124453.506 462621.927))"
Stichtse Vecht,G1904,StichtseVecht-logiesfunctie,Breukelen,WK190402,Scheendijk,WK19040211,1904010000032599,Scheendijk,23,,4,3621VC,Breukelen,5.020023,52.182803,129887.92,466137.64,"POLYGON Z ((129892.308 466140.158 0,129883.831 466140.624 0,129883.519 466135.135 0,129892.001 466134.661 0,129892.308 466140.158 0))"
Stichtse Vecht,G1904,StichtseVecht-logiesfunctie,Breukelen,WK190402,Scheendijk,WK19040211,1904010000032600,Scheendijk,23,,6,3621VC,Breukelen,5.020645,52.182792,129930.46,466136.23,"POLYGON Z ((129935.912 466137.647 0,129927.435 466138.109 0,129927.137 466132.623 0,129935.624 466132.154 0,129935.748 466134.467 0,129935.912 466137.647 0))"
Stichtse Vecht,G1904,StichtseVecht-logiesfunctie,Breukelen,WK190402,Scheendijk,WK19040211,1904010000032601,Scheendijk,23,,8,3621VC,Breukelen,5.020902,52.182775,129948.01,466134.22,"POLYGON Z ((129943.743 466134.011 0,129943.626 466131.711 0,129944.69 466131.65 0,129952.091 466131.23 0,129952.396 466136.732 0,129943.921 466137.195 0,129943.743 466134.011 0))"
Stichtse Vecht,G1904,StichtseVecht-logiesfunctie,Breukelen,WK190402,Scheendijk,WK19040211,1904010000032602,Scheendijk,23,,10,3621VC,Breukelen,5.021577,52.182719,129994.19,466127.73,"POLYGON Z ((129991.948 466130.477 0,129991.497 466124.979 0,129999.976 466124.265 0,130000.426 466129.763 0,129991.948 466130.477 0))"
Stichtse Vecht,G1904,StichtseVecht-logiesfunctie,Breukelen,WK190402,Scheendijk,WK19040211,1904010000032603,Scheendijk,23,,12,3621VC,Breukelen,5.022309,52.18269,130044.19,466124.28,"POLYGON Z ((130048.29 466120.187 0,130048.762 466125.658 0,130040.298 466126.384 0,130039.829 466120.914 0,130048.29 466120.187 0))"
Stichtse Vecht,G1904,StichtseVecht-logiesfunctie,Breukelen,WK190402,Scheendijk,WK19040211,1904010000032604,Scheendijk,23,,14,3621VC,Breukelen,5.022986,52.182652,130090.52,466119.83,"POLYGON Z ((130095.845 466116.162 0,130096.308 466121.643 0,130087.843 466122.359 0,130087.377 466116.876 0,130095.845 466116.162 0))"
Stichtse Vecht,G1904,StichtseVecht-logiesfunctie,Tienhoven,WK190407,Molenpolder,WK19040701,1904010000032786,Westbroekse Binnenweg,21,a,,3612AE,Tienhoven,5.096963,52.143009,135132.27,461686.42,"POLYGON Z ((135134.846 461693.387 0,135131.662 461690.097 0,135132.29 461689.47 0,135128.175 461685.262 0,135132.122 461681.173 0,135136.079 461685.244 0,135134.565 461686.745 0,135138.014 461690.327 0,135134.846 461693.387 0))"
Stichtse Vecht,G1904,StichtseVecht-logiesfunctie,Tienhoven,WK190407,Tienhoven-Oud Maarsseveen,WK19040703,1904010000032874,Laan van Niftarlake,69,a,,3612BM,Tienhoven,5.081838,52.167848,134108.56,464454.22,"POLYGON Z ((134103.017 464449.551 0,134111.771 464452.892 0,134109.81 464458.03 0,134106.689 464456.84 0,134107.142 464455.653 0,134101.509 464453.503 0,134103.017 464449.551 0))"
Stichtse Vecht,G1904,StichtseVecht-logiesfunctie,Kockengen,WK190405,Kockengen Dorp,WK19040505,1904010000032875,Wagendijk,51,a,,3628ET,Kockengen,4.946648,52.147639,124845.98,462253.25,"POLYGON ((124840.49 462254.888,124843.801 462248.771,124845.618 462249.755,124851.244 462252.83,124846.605 462261.315,124840.979 462258.239,124842.277 462255.865,124840.49 462254.888))"
Stichtse Vecht,G1904,StichtseVecht-logiesfunctie,Kockengen,WK190405,Kockengen Dorp,WK19040505,1904010000032876,Wagendijk,51,b,,3628ET,Kockengen,4.946627,52.14766,124844.56,462255.57,"POLYGON ((124840.49 462254.888,124843.801 462248.771,124845.618 462249.755,124851.244 462252.83,124846.605 462261.315,124840.979 462258.239,124842.277 462255.865,124840.49 462254.888))"
Stichtse Vecht,G1904,StichtseVecht-logiesfunctie,Breukelen,WK190402,Kievitsbuurt,WK19040204,1904010000032880,De Plassen Noord,50,,,3621PN,Breukelen,5.025975,52.182863,130295.05,466142.34,"POLYGON Z ((130288.412 466144.634 0,130288.016 466138.909 0,130291.101 466138.696 0,130291.177 466139.79 0,130299.641 466139.205 0,130299.961 466143.836 0,130288.412 466144.634 0))"
Stichtse Vecht,G1904,StichtseVecht-logiesfunctie,Nieuwersluis,WK190409,Polder Mijnden,WK19040901,1904010000032900,Zandpad,18,a,,3631NK,Nieuwersluis,5.007125,52.191318,129010.79,467089.58,"POLYGON ((129004.317 467086.84,129014.31 467085.766,129014.957 467091.783,129004.963 467092.857,129004.317 467086.84))"
Stichtse Vecht,G1904,StichtseVecht-logiesfunctie,Breukelen,WK190402,Kievitsbuurt,WK19040204,1904010000032929,De Plassen Zuid,352,,,3621PZ,Breukelen,5.033428,52.170857,130798.22,464804.01,"POLYGON Z ((130794.334 464805.699 0,130795.559 464800.455 0,130801.32 464801.82 0,130800.1 464807.04 0,130794.334 464805.699 0))"
Stichtse Vecht,G1904,StichtseVecht-logiesfunctie,Nieuwersluis,WK190409,Polder Mijnden,WK19040901,1904010000032936,Zandpad,31,a,,3631NL,Nieuwersluis,5.009705,52.18546,129183.84,466436.9,"POLYGON ((129177.201 466433.342,129188.882 466432.855,129189.174 466439.483,129177.494 466439.998,129177.201 466433.342))"
Stichtse Vecht,G1904,StichtseVecht-logiesfunctie,Tienhoven,WK190407,Molenpolder,WK19040701,1904010000032953,Oudedijk,7,a,,3612AD,Tienhoven,5.08402,52.153551,134251.2,462862.88,"POLYGON Z ((134245.828 462863.984 0,134254.836 462853.919 0,134259.094 462857.747 0,134252.635 462864.965 0,134253.511 462865.749 0,134250.128 462869.529 0,134246.858 462866.602 0,134247.701 462865.66 0,134245.828 462863.984 0))"
Stichtse Vecht,G1904,StichtseVecht-logiesfunctie,Maarssen,WK190401,Maarsseveen,WK19040101,1904010000033282,Gageldijk,71,b,,3602AJ,Maarssen,5.086409,52.136447,134406.76,460959.24,"POLYGON Z ((134413.584 460977.674 0,134397.479 460957.19 0,134403.765 460952.248 0,134419.87 460972.732 0,134413.584 460977.674 0))"
Stichtse Vecht,G1904,StichtseVecht-logiesfunctie,Maarssen,WK190401,Maarsseveen,WK19040101,1904010000033283,Gageldijk,71,c,,3602AJ,Maarssen,5.086419,52.136479,134407.49,460962.82,"POLYGON Z ((134413.584 460977.674 0,134397.479 460957.19 0,134403.765 460952.248 0,134419.87 460972.732 0,134413.584 460977.674 0))"
Stichtse Vecht,G1904,StichtseVecht-logiesfunctie,Maarssen,WK190401,Maarsseveen,WK19040101,1904010000033284,Gageldijk,71,d,,3602AJ,Maarssen,5.086457,52.13651,134410.07,460966.2,"POLYGON Z ((134413.584 460977.674 0,134397.479 460957.19 0,134403.765 460952.248 0,134419.87 460972.732 0,134413.584 460977.674 0))"
Stichtse Vecht,G1904,StichtseVecht-logiesfunctie,Maarssen,WK190401,Maarsseveen,WK19040101,1904010000033285,Gageldijk,71,e,,3602AJ,Maarssen,5.086496,52.136541,134412.79,460969.71,"POLYGON Z ((134413.584 460977.674 0,134397.479 460957.19 0,134403.765 460952.248 0,134419.87 460972.732 0,134413.584 460977.674 0))"
Stichtse Vecht,G1904,StichtseVecht-logiesfunctie,Maarssen,WK190401,Maarsseveen,WK19040101,1904010000033286,Gageldijk,71,f,,3602AJ,Maarssen,5.086531,52.136571,134415.17,460973.02,"POLYGON Z ((134413.584 460977.674 0,134397.479 460957.19 0,134403.765 460952.248 0,134419.87 460972.732 0,134413.584 460977.674 0))"
Stichtse Vecht,G1904,StichtseVecht-logiesfunctie,Breukelen,WK190402,Kievitsbuurt,WK19040204,1904010000033291,De Plassen Noord,214,,,3621PN,Breukelen,5.032883,52.177332,130764.48,465524.58,"POLYGON Z ((130762.749 465526.803 0,130762.887 465522.217 0,130772.891 465522.518 0,130772.753 465527.104 0,130762.749 465526.803 0))"
Stichtse Vecht,G1904,StichtseVecht-logiesfunctie,Loenen aan de Vecht,WK190403,Polder Garsten,WK19040302,1904010000033312,Oostkanaaldijk,11,r,,3632GA,Loenen aan de Vecht,5.013849,52.240781,129498.95,472590.49,"POLYGON ((129456.296 472644.379,129469.945 472600.169,129477.775 472574.625,129504.627 472582.966,129480.858 472657.881,129473.788 472655.686,129475.597 472650.396,129456.296 472644.379))"
Stichtse Vecht,G1904,StichtseVecht-logiesfunctie,Loenen aan de Vecht,WK190403,Polder Garsten,WK19040302,1904010000033313,Oostkanaaldijk,11,p,,3632GA,Loenen aan de Vecht,5.013858,52.240739,129499.51,472585.74,"POLYGON ((129456.296 472644.379,129469.945 472600.169,129477.775 472574.625,129504.627 472582.966,129480.858 472657.881,129473.788 472655.686,129475.597 472650.396,129456.296 472644.379))"
Stichtse Vecht,G1904,StichtseVecht-logiesfunctie,Loenen aan de Vecht,WK190403,Polder Garsten,WK19040302,1904010000033314,Oostkanaaldijk,11,n,,3632GA,Loenen aan de Vecht,5.013781,52.240723,129494.26,472584.07,"POLYGON ((129456.296 472644.379,129469.945 472600.169,129477.775 472574.625,129504.627 472582.966,129480.858 472657.881,129473.788 472655.686,129475.597 472650.396,129456.296 472644.379))"
Stichtse Vecht,G1904,StichtseVecht-logiesfunctie,Loenen aan de Vecht,WK190403,Polder Garsten,WK19040302,1904010000033315,Oostkanaaldijk,11,m,,3632GA,Loenen aan de Vecht,5.013706,52.240711,129489.13,472582.71,"POLYGON ((129456.296 472644.379,129469.945 472600.169,129477.775 472574.625,129504.627 472582.966,129480.858 472657.881,129473.788 472655.686,129475.597 472650.396,129456.296 472644.379))"
Stichtse Vecht,G1904,StichtseVecht-logiesfunctie,Loenen aan de Vecht,WK190403,Polder Garsten,WK19040302,1904010000033316,Oostkanaaldijk,11,l,,3632GA,Loenen aan de Vecht,5.013639,52.240695,129484.52,472580.97,"POLYGON ((129456.296 472644.379,129469.945 472600.169,129477.775 472574.625,129504.627 472582.966,129480.858 472657.881,129473.788 472655.686,129475.597 472650.396,129456.296 472644.379))"
Stichtse Vecht,G1904,StichtseVecht-logiesfunctie,Loenen aan de Vecht,WK190403,Polder Garsten,WK19040302,1904010000033317,Oostkanaaldijk,11,k,,3632GA,Loenen aan de Vecht,5.013572,52.240681,129479.99,472579.39,"POLYGON ((129456.296 472644.379,129469.945 472600.169,129477.775 472574.625,129504.627 472582.966,129480.858 472657.881,129473.788 472655.686,129475.597 472650.396,129456.296 472644.379))"
Stichtse Vecht,G1904,StichtseVecht-logiesfunctie,Tienhoven,WK190407,Tienhoven-Oud Maarsseveen,WK19040703,1904010000033319,Westbroekse Binnenweg,23,e,,3612AG,Tienhoven,5.100216,52.144472,135355.57,461848.3,"POLYGON ((135350.07 461848.394,135357.912 461842.902,135361.346 461848.145,135353.573 461853.483,135350.07 461848.394))"
Stichtse Vecht,G1904,StichtseVecht-logiesfunctie,Breukelen,WK190402,Kievitsbuurt,WK19040204,1904010000033350,De Plassen Zuid,313,,,3621PZ,Breukelen,5.040154,52.173143,131259.57,465056.1,"POLYGON Z ((131256.583 465057.71 0,131256.957 465053.922 0,131262.613 465054.509 0,131262.133 465058.297 0,131256.583 465057.71 0))"
Stichtse Vecht,G1904,StichtseVecht-logiesfunctie,Loenen aan de Vecht,WK190403,Polder Holland,WK19040301,1904010000033354,Rijksstraatweg,177,a,,3632AC,Loenen aan de Vecht,5.010407,52.21481,129248.79,469702.11,"POLYGON Z ((129253.27 469708.426 0,129241.23 469705.435 0,129243.591 469695.613 0,129256.48 469698.898 0,129253.855 469708.571 0,129253.27 469708.426 0))"
Stichtse Vecht,G1904,StichtseVecht-logiesfunctie,Kockengen,WK190405,Portengense Brug,WK19040506,1904010000033471,Portengen,62,a,,3628EG,Kockengen,4.958993,52.160913,125699.67,463725.1,"POLYGON Z ((125697.269 463722.804 0,125700.942 463717.433 0,125707.405 463721.336 0,125699.854 463732.341 0,125690.589 463726.115 0,125694.237 463720.935 0,125697.269 463722.804 0))"
Stichtse Vecht,G1904,StichtseVecht-logiesfunctie,Tienhoven,WK190407,Molenpolder,WK19040701,1904010000033318,Westbroekse Binnenweg,10,,C2,3612AH,Tienhoven,5.084193,52.146721,134259.83,462102.89,"POLYGON ((134251.754 462099.523,134253.464 462098.185,134254.079 462099.12,134256.87 462096.94,134259.991 462101.386,134262.54 462099.36,134265.471 462103.628,134260.413 462107.549,134261.607 462108.883,134259.69 462110.344,134251.754 462099.523))"
Stichtse Vecht,G1904,StichtseVecht-logiesfunctie,Breukelen,WK190402,Scheendijk,WK19040211,1904010000032903,Scheendijk,18,,19,3621VC,Breukelen,5.02228,52.180917,130041.21,465927.05,"POLYGON ((130036.946 465927.448,130038.156 465927.35,130037.874 465922.753,130044.576 465922.429,130044.764 465928.985,130039.179 465929.113,130039.225 465930.439,130037.025 465930.477,130036.946 465927.448))"
Stichtse Vecht,G1904,StichtseVecht-logiesfunctie,Breukelen,WK190402,Scheendijk,WK19040211,1904010000032904,Scheendijk,18,,20,3621VC,Breukelen,5.022541,52.18091,130059.07,465926.17,"POLYGON ((130053.316 465922.652,130060.486 465922.487,130060.549 465926.603,130061.376 465926.61,130061.38 465929.754,130059.556 465929.854,130059.516 465928.363,130053.642 465928.742,130053.316 465922.652))"
Stichtse Vecht,G1904,StichtseVecht-logiesfunctie,Breukelen,WK190402,Scheendijk,WK19040211,1904010000031301,Scheendijk,20,,34,3621VC,Breukelen,5.022893,52.181739,130083.61,466018.32,"POLYGON Z ((130082.8 466022.868 0,130081.912 466012.798 0,130086.062 466012.437 0,130086.909 466022.578 0,130082.8 466022.868 0))"
Stichtse Vecht,G1904,StichtseVecht-logiesfunctie,Nigtevecht,WK190408,Polder Garsten Noord,WK19040802,1904010000033788,Vreelandseweg,44,a,,1393PG,Nigtevecht,5.032513,52.253368,130780.59,473984.5,"POLYGON ((130768.865 473977.747,130773.712 473972.726,130785.538 473984.207,130780.69 473989.228,130768.865 473977.747))"
Stichtse Vecht,G1904,StichtseVecht-logiesfunctie,Nigtevecht,WK190408,Polder Garsten Noord,WK19040802,1904010000033789,Vreelandseweg,44,b,,1393PG,Nigtevecht,5.032445,52.253321,130775.91,473979.35,"POLYGON ((130768.865 473977.747,130773.712 473972.726,130785.538 473984.207,130780.69 473989.228,130768.865 473977.747))"
Stichtse Vecht,G1904,StichtseVecht-logiesfunctie,Breukelen,WK190402,Scheendijk,WK19040211,1904010000033790,Scheendijk,20,,37,3621VC,Breukelen,5.023452,52.181725,130121.83,466016.5,"POLYGON ((130116.509 466010.934,130120.995 466010.778,130121.176 466015.976,130124.5 466015.861,130124.616 466019.189,130116.807 466019.461,130116.509 466010.934))"
Stichtse Vecht,G1904,StichtseVecht-logiesfunctie,Breukelen,WK190402,Kievitsbuurt,WK19040204,1904010000033548,De Plassen Noord,66,,,3621PN,Breukelen,5.033765,52.182319,130827.52,466079.15,"POLYGON ((130819.952 466078.174,130829.901 466077.19,130829.99 466079.652,130831.798 466079.55,130831.858 466082.19,130828.816 466082.341,130828.853 466082.909,130820.305 466083.591,130819.952 466078.174))"
Stichtse Vecht,G1904,StichtseVecht-logiesfunctie,Breukelen,WK190402,Kievitsbuurt,WK19040204,1904010000033331,De Plassen Noord,7,,,3621PN,Breukelen,5.036151,52.183554,130991.35,466215.73,"POLYGON Z ((130983.647 466215.364 0,130992.644 466214.488 0,130993.186 466219.709 0,130987.415 466220.289 0,130987.28 466221.183 0,130984.101 466221.39 0,130983.647 466215.364 0))"
Stichtse Vecht,G1904,StichtseVecht-logiesfunctie,Nieuwer Ter Aa,WK190404,Polder Oukoop,WK19040401,1904010000031626,Demmeriksekade,12,,,3626AZ,Nieuwer Ter Aa,4.973132,52.219146,126704.08,470198.41,"POLYGON Z ((126700.503 470193.713 0,126706.331 470192.171 0,126709.759 470203.484 0,126703.588 470205.198 0,126700.503 470193.713 0))"
Stichtse Vecht,G1904,StichtseVecht-logiesfunctie,Maarssen,WK190401,Centrum ten zuiden van de Vecht,WK19040110,0333010000013752,Wilhelminaweg,9,,,3603CR,Maarssen,5.033565,52.14098,130791.38,461479.92,"POLYGON ((130787.394 461480.425,130791.833 461476.425,130794.583 461479.477,130794.718 461479.627,130794.6 461482.17,130794.191 461482.535,130792.736 461483.821,130790.217 461483.683,130790.123 461483.574,130787.394 461480.425))"
Stichtse Vecht,G1904,StichtseVecht-logiesfunctie,Maarssenbroek,WK190412,Duivenkamp,WK19041208,0333010000011558,Duivenkamp,580,,,3607BM,Maarssen,5.026244,52.134478,130286.66,460758.94,"POLYGON Z ((130281.998 460757.503 0,130284.371 460753.98 0,130292.209 460759.258 0,130291.506 460760.301 0,130289.836 460762.782 0,130281.998 460757.503 0))"
Stichtse Vecht,G1904,StichtseVecht-logiesfunctie,Vreeland,WK190406,Vreeland Dorp,WK19040603,1904010000033850,Ruiterstraat,11,,,3633AV,Vreeland,5.033971,52.228831,130866.85,471254.02,"POLYGON Z ((130862.093 471255.458 0,130863.77 471250.819 0,130867.054 471252.028 0,130868.264 471248.744 0,130870.178 471249.449 0,130868.969 471252.733 0,130869.409 471252.895 0,130867.705 471257.524 0,130862.093 471255.458 0))"
Stichtse Vecht,G1904,StichtseVecht-logiesfunctie,Breukelen,WK190402,Kievitsbuurt,WK19040204,1904010000033851,De Plassen Zuid,439,a,,3621PZ,Breukelen,5.03044,52.165202,130590.73,464175.79,"POLYGON Z ((130588.155 464177.375 0,130589.472 464173.44 0,130592.934 464174.599 0,130591.616 464178.534 0,130588.155 464177.375 0))"
Stichtse Vecht,G1904,StichtseVecht-logiesfunctie,Breukelen,WK190402,Kievitsbuurt,WK19040204,1904010000033852,Scheendijk,2,a,,3621VB,Breukelen,5.030113,52.165742,130568.63,464236.06,"POLYGON Z ((130560.567 464239.269 0,130562.383 464232.673 0,130574.484 464236.001 0,130572.548 464242.657 0,130560.567 464239.269 0))"
Stichtse Vecht,G1904,StichtseVecht-logiesfunctie,Breukelen,WK190402,Kievitsbuurt,WK19040204,1904010000033513,De Plassen Zuid,310,,,3621PZ,Breukelen,5.039192,52.173462,131193.96,465091.93,"POLYGON ((131193.439 465094.429,131194.153 465087.701,131201.71 465088.509,131201.251 465095.077,131193.439 465094.429))"
Stichtse Vecht,G1904,StichtseVecht-logiesfunctie,Breukelen,WK190402,Scheendijk,WK19040211,1904010000032426,Port Broclede,46,a,,3621VP,Breukelen,5.020728,52.179379,129934.23,465756.48,"POLYGON Z ((129928.819 465734.038 0,129928.891 465731.355 0,129928.494 465731.28 0,129928.109 465731.155 0,129927.744 465730.982 0,129927.403 465730.764 0,129927.094 465730.504 0,129926.82 465730.207 0,129926.586 465729.877 0,129926.396 465729.521 0,129926.253 465729.142 0,129926.159 465728.749 0,129926.117 465728.347 0,129926.126 465727.943 0,129926.187 465727.543 0,129926.298 465727.154 0,129926.458 465726.783 0,129926.663 465726.435 0,129926.912 465726.116 0,129927.199 465725.832 0,129927.52 465725.586 0,129927.87 465725.384 0,129928.243 465725.227 0,129928.633 465725.12 0,129929.033 465725.063 0,129929.102 465723.191 0,129929.189 465723.193 0,129944.09 465723.52 0,129944.05 465725.3 0,129980.017 465726.131 0,129979.897 465731.503 0,129979.78 465736.731 0,129941.505 465735.84 0,129940.619 465776.686 0,129928.513 465776.426 0,129929.353 465739.825 0,129932.434 465739.933 0,129932.578 465735.629 0,129928.779 465735.508 0,129928.819 465734.038 0))"
Stichtse Vecht,G1904,StichtseVecht-logiesfunctie,Breukelen,WK190402,Scheendijk,WK19040211,1904010000032427,Port Broclede,46,b,,3621VP,Breukelen,5.020723,52.179442,129933.93,465763.46,"POLYGON Z ((129928.819 465734.038 0,129928.891 465731.355 0,129928.494 465731.28 0,129928.109 465731.155 0,129927.744 465730.982 0,129927.403 465730.764 0,129927.094 465730.504 0,129926.82 465730.207 0,129926.586 465729.877 0,129926.396 465729.521 0,129926.253 465729.142 0,129926.159 465728.749 0,129926.117 465728.347 0,129926.126 465727.943 0,129926.187 465727.543 0,129926.298 465727.154 0,129926.458 465726.783 0,129926.663 465726.435 0,129926.912 465726.116 0,129927.199 465725.832 0,129927.52 465725.586 0,129927.87 465725.384 0,129928.243 465725.227 0,129928.633 465725.12 0,129929.033 465725.063 0,129929.102 465723.191 0,129929.189 465723.193 0,129944.09 465723.52 0,129944.05 465725.3 0,129980.017 465726.131 0,129979.897 465731.503 0,129979.78 465736.731 0,129941.505 465735.84 0,129940.619 465776.686 0,129928.513 465776.426 0,129929.353 465739.825 0,129932.434 465739.933 0,129932.578 465735.629 0,129928.779 465735.508 0,129928.819 465734.038 0))"
Stichtse Vecht,G1904,StichtseVecht-logiesfunctie,Breukelen,WK190402,Kievitsbuurt,WK19040204,1904010000033298,De Plassen Zuid,448,,,3621PZ,Breukelen,5.03425,52.164477,130851.02,464093.86,"POLYGON ((130848.379 464095.148,130849.957 464089.493,130855.76 464091.219,130854.272 464096.755,130848.379 464095.148))"
Stichtse Vecht,G1904,StichtseVecht-logiesfunctie,Breukelen,WK190402,Scheendijk,WK19040211,1904010000031276,Scheendijk,20,,9,3621VC,Breukelen,5.020074,52.181862,129890.88,466032.93,"POLYGON Z ((129889.109 466037.869 0,129888.507 466029.594 0,129891.653 466029.568 0,129892.12 466037.721 0,129889.109 466037.869 0))"
Stichtse Vecht,G1904,StichtseVecht-logiesfunctie,Nieuwer Ter Aa,WK190404,Polder Oukoop,WK19040401,0311010000000147,Oukoop,4,b,,3626AW,Nieuwer Ter Aa,4.992197,52.219552,128007.16,470236.32,"POLYGON Z ((128006.304 470241.15 0,128006.233 470240.753 0,128004.24 470241.11 0,128003.353 470236.119 0,128005.308 470235.764 0,128004.708 470232.463 0,128010.041 470231.485 0,128011.628 470240.154 0,128006.304 470241.15 0))"
Stichtse Vecht,G1904,StichtseVecht-logiesfunctie,Breukelen,WK190402,Scheendijk,WK19040211,1904010000032428,Port Broclede,46,c,,3621VP,Breukelen,5.020723,52.179505,129933.93,465770.45,"POLYGON Z ((129928.819 465734.038 0,129928.891 465731.355 0,129928.494 465731.28 0,129928.109 465731.155 0,129927.744 465730.982 0,129927.403 465730.764 0,129927.094 465730.504 0,129926.82 465730.207 0,129926.586 465729.877 0,129926.396 465729.521 0,129926.253 465729.142 0,129926.159 465728.749 0,129926.117 465728.347 0,129926.126 465727.943 0,129926.187 465727.543 0,129926.298 465727.154 0,129926.458 465726.783 0,129926.663 465726.435 0,129926.912 465726.116 0,129927.199 465725.832 0,129927.52 465725.586 0,129927.87 465725.384 0,129928.243 465725.227 0,129928.633 465725.12 0,129929.033 465725.063 0,129929.102 465723.191 0,129929.189 465723.193 0,129944.09 465723.52 0,129944.05 465725.3 0,129980.017 465726.131 0,129979.897 465731.503 0,129979.78 465736.731 0,129941.505 465735.84 0,129940.619 465776.686 0,129928.513 465776.426 0,129929.353 465739.825 0,129932.434 465739.933 0,129932.578 465735.629 0,129928.779 465735.508 0,129928.819 465734.038 0))"
Stichtse Vecht,G1904,StichtseVecht-logiesfunctie,Nieuwersluis,WK190409,Polder Sticht,WK19040903,0329010000003189,Stationsweg,26,,,3631AK,Nieuwersluis,5.000797,52.200698,128583.64,468135.5,"POLYGON ((128577.652 468132.907,128588.389 468131.026,128589.413 468136.873,128588.504 468137.031,128588.684 468138.059,128578.862 468139.788,128577.652 468132.907))"
Stichtse Vecht,G1904,StichtseVecht-logiesfunctie,Breukelen,WK190402,Kievitsbuurt,WK19040204,1904010000033458,De Plassen Noord,216,,,3621PN,Breukelen,5.035651,52.177352,130953.83,465525.92,"POLYGON ((130948.084 465529.339,130948.155 465523.227,130956.569 465523.379,130956.468 465529.591,130948.084 465529.339))"
Stichtse Vecht,G1904,StichtseVecht-logiesfunctie,Breukelen,WK190402,Scheendijk,WK19040211,1904010000031421,Scheendijk,16,,18,3621VC,Breukelen,5.021356,52.180028,129977.53,465828.41,"POLYGON ((129971.22 465827.577,129971.334 465824.645,129973.453 465824.725,129973.456 465824.635,129973.473 465824.315,129983.684 465824.837,129983.308 465830.723,129973.239 465830.249,129973.267 465829.651,129973.342 465827.657,129971.22 465827.577))"
Stichtse Vecht,G1904,StichtseVecht-logiesfunctie,Breukelen,WK190402,Kievitsbuurt,WK19040204,1904010000033643,De Plassen Noord,65,,,3621PN,Breukelen,5.03523,52.182284,130927.66,466074.8,"POLYGON ((130922.322 466073.325,130931.147 466072.835,130931.192 466076.311,130934.891 466076.211,130935.092 466080.055,130922.601 466080.501,130922.322 466073.325))"
Stichtse Vecht,G1904,StichtseVecht-logiesfunctie,Breukelen,WK190402,Kievitsbuurt,WK19040204,1904010000033809,De Plassen Noord,22,,,3621PN,Breukelen,5.027684,52.183716,130412.37,466236.64,"POLYGON ((130410.16 466234.755,130420.825 466234.077,130420.938 466236.338,130425.574 466236.036,130425.762 466238.75,130410.537 466239.805,130410.16 466234.755))"
Stichtse Vecht,G1904,StichtseVecht-logiesfunctie,Breukelen,WK190402,Scheendijk,WK19040211,1904010000033797,Scheendijk,11,,40,3621VC,Breukelen,5.023068,52.177896,130093.47,465590.7,"POLYGON ((130087.502 465590.423,130090.659 465590.449,130090.684 465588.352,130095.129 465588.403,130095.129 465590.474,130098.16 465590.499,130098.185 465595.803,130087.527 465595.828,130087.502 465590.423))"
Stichtse Vecht,G1904,StichtseVecht-logiesfunctie,Breukelen,WK190402,Kievitsbuurt,WK19040204,1904010000033786,De Plassen Noord,167,,,3621PN,Breukelen,5.042858,52.178781,131447.53,465682.52,"POLYGON ((131442.348 465688.607,131443.66 465678.983,131449.07 465679.668,131447.9 465689.385,131442.348 465688.607))"
Stichtse Vecht,G1904,StichtseVecht-logiesfunctie,Maarssen,WK190401,Bethunepolder-zuid,WK19040102,1904010000031360,Maarsseveensevaart,3,,18,3601CC,Maarssen,5.057598,52.14619,132439.2,462051.78,"POLYGON ((132434.467 462056.598,132436.691 462049.201,132437.313 462049.392,132437.626 462048.369,132443.076 462050.038,132442.763 462051.061,132443.384 462051.252,132441.111 462058.528,132434.467 462056.598))"
Stichtse Vecht,G1904,StichtseVecht-logiesfunctie,Nieuwersluis,WK190409,Polder Het Honderd,WK19040904,0329010000002372,Rijksstraatweg,6,a,,3631AC,Nieuwersluis,5.006408,52.186899,128959.16,466598.2,"POLYGON ((128945.447 466601.133,128948.105 466589.821,128973.075 466595.719,128972.404 466598.561,128972.674 466598.608,128972.704 466598.482,128975.85 466599.228,128975.995 466598.733,128987.244 466600.554,128987.151 466601.064,128986.791 466603.288,128987.857 466603.436,128987.653 466604.85,128987.623 466604.998,128987.587 466605.145,128987.547 466605.29,128987.502 466605.435,128987.451 466605.577,128987.396 466605.718,128987.335 466605.856,128987.27 466605.993,128987.201 466606.127,128987.126 466606.258,128987.047 466606.387,128986.964 466606.513,128986.876 466606.636,128986.784 466606.756,128986.688 466606.873,128986.588 466606.986,128986.484 466607.096,128986.377 466607.202,128986.265 466607.304,128986.151 466607.402,128986.032 466607.496,128985.911 466607.586,128985.789 466607.67,128985.664 466607.75,128985.536 466607.826,128985.406 466607.897,128985.273 466607.964,128985.139 466608.026,128985.002 466608.084,128984.863 466608.137,128984.723 466608.185,128984.581 466608.228,128984.437 466608.266,128984.293 466608.3,128984.147 466608.328,128984.001 466608.352,128983.853 466608.37,128983.706 466608.384,128983.557 466608.392,128983.409 466608.395,128983.261 466608.393,128983.112 466608.386,128982.965 466608.374,128982.817 466608.357,128981.479 466608.157,128980.379 466614.757,128973.515 466613.676,128973.19 466615.409,128973.147 466615.548,128968.617 466614.738,128968.606 466614.639,128967.864 466614.528,128967.84 466614.666,128967.419 466614.6,128967.293 466615.375,128979.939 466617.37,128980.086 466616.359,128993.487 466618.314,128993.488 466618.309,128995.493 466606.107,129011.169 466608.66,129008.059 466627.756,129002.929 466626.921,129001.638 466633.947,128965.305 466627.876,128966.164 466622.291,128963.705 466621.89,128965.25 466612.342,128969.931 466613.109,128970.477 466609.951,128973.996 466610.505,128974.558 466607.265,128970.556 466606.337,128970.39 466607.038,128945.447 466601.133))"
Stichtse Vecht,G1904,StichtseVecht-logiesfunctie,Nieuwersluis,WK190409,Polder Het Honderd,WK19040904,1904010000033320,Rijksstraatweg,6,b,,3631AC,Nieuwersluis,5.006614,52.187127,128973.38,466623.42,"POLYGON ((128963.705 466621.89,128965.25 466612.342,128969.931 466613.109,128970.477 466609.951,128973.996 466610.505,128974.558 466607.265,128970.556 466606.337,128972.404 466598.561,128972.674 466598.608,128972.704 466598.482,128975.85 466599.228,128975.995 466598.733,128987.244 466600.554,128987.151 466601.064,128986.791 466603.288,128987.857 466603.436,128987.653 466604.85,128987.623 466604.998,128987.587 466605.145,128987.547 466605.29,128987.502 466605.435,128987.451 466605.577,128987.396 466605.718,128987.335 466605.856,128987.27 466605.993,128987.201 466606.127,128987.126 466606.258,128987.047 466606.387,128986.964 466606.513,128986.876 466606.636,128986.784 466606.756,128986.688 466606.873,128986.588 466606.986,128986.484 466607.096,128986.377 466607.202,128986.265 466607.304,128986.151 466607.402,128986.032 466607.496,128985.911 466607.586,128985.789 466607.67,128985.664 466607.75,128985.536 466607.826,128985.406 466607.897,128985.273 466607.964,128985.139 466608.026,128985.002 466608.084,128984.863 466608.137,128984.723 466608.185,128984.581 466608.228,128984.437 466608.266,128984.293 466608.3,128984.147 466608.328,128984.001 466608.352,128983.853 466608.37,128983.706 466608.384,128983.557 466608.392,128983.409 466608.395,128983.261 466608.393,128983.112 466608.386,128982.965 466608.374,128982.817 466608.357,128981.479 466608.157,128980.379 466614.757,128973.515 466613.676,128973.19 466615.409,128973.147 466615.548,128968.617 466614.738,128968.606 466614.639,128967.864 466614.528,128967.84 466614.666,128967.419 466614.6,128967.293 466615.375,128979.939 466617.37,128980.086 466616.359,128993.487 466618.314,128993.488 466618.309,128995.493 466606.107,129011.169 466608.66,129008.059 466627.756,129002.929 466626.921,129001.638 466633.947,128965.305 466627.876,128966.164 466622.291,128963.705 466621.89))"
Stichtse Vecht,G1904,StichtseVecht-logiesfunctie,Nieuwersluis,WK190409,Polder Het Honderd,WK19040904,0329010000002371,Rijksstraatweg,6,,,3631AC,Nieuwersluis,5.006212,52.187501,128946.16,466665.21,"POLYGON ((128937.822 466671.811,128939.971 466658.82,128940.678 466658.937,128941.569 466653.549,128954.361 466655.665,128954.005 466657.817,128953.685 466659.753,128953.467 466661.068,128954.102 466661.173,128951.956 466674.154,128948.169 466673.528,128947.75 466676.045,128943.364 466675.321,128941.824 466675.067,128942.241 466672.542,128937.822 466671.811))"
Stichtse Vecht,G1904,StichtseVecht-logiesfunctie,Tienhoven,WK190407,Molenpolder,WK19040701,1904010000032873,Nedereindsevaart,22,b,,3612AL,Tienhoven,5.092062,52.150005,134799.91,462466.07,"POLYGON ((134794.48 462464.925,134798.357 462461.747,134803.187 462467.599,134799.456 462470.504,134798.326 462468.964,134798.006 462469.227,134794.48 462464.925))"
Stichtse Vecht,G1904,StichtseVecht-logiesfunctie,Tienhoven,WK190407,Molenpolder,WK19040701,0333010000010573,Westbroekse Binnenweg,80,a,C32,3612AK,Tienhoven,5.101026,52.139311,135408.73,461273.84,"POLYGON ((135401.093 461278.159,135404.521 461275.945,135402.231 461272.399,135403.045 461271.885,135401.833 461270.025,135404.494 461268.367,135407.138 461266.719,135408.286 461268.416,135409.458 461267.731,135409.591 461267.645,135412.297 461271.637,135414.426 461274.777,135403.477 461281.849,135401.093 461278.159))"
Stichtse Vecht,G1904,StichtseVecht-logiesfunctie,Breukelen,WK190402,Kievitsbuurt,WK19040204,1904010000033609,De Plassen Noord,68,,,3621PN,Breukelen,5.030846,52.182416,130627.9,466090.94,"POLYGON ((130612.484 466089.692,130618.122 466088.897,130618.339 466090.993,130622.845 466090.415,130622.749 466088.584,130630.796 466087.668,130631.543 466093.402,130622.893 466094.27,130622.965 466095.956,130618.243 466096.318,130618.074 466094.487,130613.352 466094.993,130612.484 466089.692))"
