OBJECTID,Match_addr,X,Y,Hoofdcategorie,Categorie,Naam,Internet,Adres,Postcode,Plaats,GlobalID
7,"Suurhoffstraat 5, 8015 AH Zwolle",6.12007650000001,52.47387,Gezondheidsvoorzieningen,Algemeen maatschappelijk werk,Brenda ten Have - Straatman,http://www.kinderwensbegeleiding.nl,Suurhoffstraat 5,8015 AH,Zwolle,f7d46180-6f90-49c1-a3bc-3cd8c8fcaa47
8,"Telvorenstraat 2, 8061 CB Hasselt",6.09585300000001,52.592058,Gezondheidsvoorzieningen,Algemeen maatschappelijk werk,De Kern maatschappelijke dienstverlening,http://www.stdekern.nl,Telvorenstraat 2,8061 CB,Hasselt,0b7a87d8-725b-403e-ae6d-ecd0f5816fb2
9,"Bolwerk 13, 8261 EE Kampen",5.90996699999999,52.560936,Gezondheidsvoorzieningen,Ambulante begeleiding,Ambulante begeleiding gemeente Zwartewaterland,https://www.persoonsgebonden-vraaggerichte-zorg.nl/ambulante-begeleiding/,Bolwerk 13,8261 EE,Kampen,24573817-a112-458d-8d7c-f9357d21b999
10,"Prinses Julianastraat 23, 8281 CK Genemuiden",6.04228950000001,52.623387,Gezondheidsvoorzieningen,Apotheken,Apotheek De Muiden,http://www.apotheek-demuiden.nl,Prinses Julianastraat 23,8281 CK,Genemuiden,a73ab402-9c03-4c2a-b177-9ff55f269548
11,"Burgemeester Royerplein 1, 8061 GE Hasselt",6.08905799999999,52.590825,Gezondheidsvoorzieningen,Apotheken,Apotheek Hasselt,http://www.apotheek-hasselt.nl,Burgemeester Royerplein 1,8061 GE,Hasselt,7dd15a37-cfca-4e64-befa-513ae467ef67
12,"Bolwerk 13, 8261 EE Kampen",5.90996699999999,52.560936,Gezondheidsvoorzieningen,Begeleid wonen,PGVZ,http://www.pgvz.nl,Bolwerk 13,8261 EE,Kampen,9f899f34-dcd8-4680-b9fd-e08e8bed36be
13,"Koningin Julianastraat 39, 8302 CD Emmeloord",5.75325000000001,52.712019,Gezondheidsvoorzieningen,Begeleid wonen,PGVZ,,Koningin Julianastraat 39,8302 CD,Emmeloord,3e468de5-67fe-4f9a-ab82-a8892905e0ae
14,"Lage Vlakte 12, 8281 Genemuiden",6.04225192205924,52.6192438475204,Gezondheidsvoorzieningen,Begeleid wonen,PGVZ,,Lage vlakte 12,,Genemuiden,87095fb1-3ab5-4147-9db4-436d82ea70dc
15,"Lage Vlakte 14, 8281 Genemuiden",6.04225192205924,52.6192438475204,Gezondheidsvoorzieningen,Begeleid wonen,PGVZ,,Lage vlakte 14,,Genemuiden,148961e0-147c-4c70-97c1-7ce03731e0a0
16,"Willemsvaart 16, 8019 AB Zwolle",6.08085,52.506891,Gezondheidsvoorzieningen,Begeleid wonen,PGVZ,,Willemsvaart 16,8019 AB,Zwolle,291a9395-2d07-46dd-96b9-f4f8052628f9
17,"Purperreigerlaan 222, 8064 DC Zwartsluis",6.07518899999999,52.643601,Gezondheidsvoorzieningen,Begeleid wonen,Stichting Philadelphia Zorg,https://www.philadelphia.nl,Locatie De Klampe: Purperreigerlaan 222,8064 DC,Zwartsluis,18a72df2-0dcf-410a-ba06-1cc7f928f6ad
18,"Rosmolenstraat 31a, 8061 GV Hasselt",6.0906645,52.59141,Gezondheidsvoorzieningen,Cesar,Praktijk Oefentherapie Cesar,http://www.cesarhasselt.nl,Rosmolenstraat 31-A,8061 GV,Hasselt,142bef72-b954-434c-b1a8-b58c1460cb40
19,"Lage Vlakte 14, 8281 Genemuiden",6.04225192205924,52.6192438475204,Gezondheidsvoorzieningen,Dagbesteding,geWOON! (onderdeel van PGVZ),https://www.persoonsgebonden-vraaggerichte-zorg.nl/gewoon-werk-en-dagbesteding/,Lage vlakte 14,,Genemuiden,6f455e49-79d5-4087-ba73-1b83274f6d4c
20,"Langestraat 109, 8281 AH Genemuiden",6.04096200000001,52.621263,Gezondheidsvoorzieningen,Dierenartsen,Dierenarts Veterinair Centrum Genemuiden,http://www.veterinair-centrum.nl,Langestraat 109,8281 AH,Genemuiden,2458eb84-9489-4a32-8d06-8fe71c3bc232
21,"Belvédèrelaan 101, 8043 LW Zwolle",6.05554649999999,52.534755,Gezondheidsvoorzieningen,Dierenartsen,Dierenartsenpraktijk Zwolle/Zwartewaterland,,Belvederelaan 101,8043 LW,Zwolle,0fcb7252-1dc2-4379-aa24-b301a8804d72
22,"Burg Malcorpslaan 1, 8061 AG Hasselt",6.09642450000001,52.593615,Gezondheidsvoorzieningen,Dierenartsen,Dierenartsenpraktijk Zwolle/Zwartewaterland,,Burg Malcorpslaan 1,8061 AG,Hasselt,d1194815-8663-4bc6-823f-6a74a7b84638
23,"Pottenbakkersstraat 3, 8064 DS Zwartsluis",6.07221900000002,52.640163,Gezondheidsvoorzieningen,Dierenartsen,Dierenartsenpraktijk Zwolle/Zwartewaterland,,Pottenbakkersstraat 3,8064 DS,Zwartsluis,d5f512f0-e048-4ae7-af41-c13e57477a7c
24,"De Zwanebloem 41, 8064 HK Zwartsluis",6.07217400000002,52.646562,Gezondheidsvoorzieningen,Diëtisten / voedingsdeskundigen,Diëtistenpraktijk van Asselt,http://www.dietistvanasselt.nl,De Zwanebloem 41,8064 HK,Zwartsluis,c38cc6cd-bb4e-4463-b141-d628a5beea3a
25,"Keppelstraat 3, 8061 GZ Hasselt",6.089643,52.59294,Gezondheidsvoorzieningen,Diëtisten / voedingsdeskundigen,Slimme Eter Gewichtsconsulent,http://www.slimmeeter.nl,Keppelstraat 3,8061 GZ,Hasselt,845c2b86-f13f-4bd7-bfec-1259f6dd23ff
26,"De Marke 68, 8061 BC Hasselt",6.09782849999999,52.593993,Gezondheidsvoorzieningen,EHBO- / Reanimatieverenigingen,"LOTUS®, Landelijke Opleiding tot Uitbeelding Slachtoffers",http://www.lotuskringdeblauwvinger.nl,De Marke 68,8061 BC,Hasselt,4e34b814-e19d-479f-9e7a-60caad79c487
27,"Industrieweg 42, 8061 RB Hasselt",6.08823900000002,52.585227,Gezondheidsvoorzieningen,Fysiotherapeuten,Fysio & Manueel Therapie van den Bosch,http://www.fysiovdbosch.nl,Industrieweg 42,8061 RB,Hasselt,2cf64575-4ffb-4069-8aa2-76fa2294a3cc
28,"Kerkstraat 22, 8064 DP Zwartsluis",6.07224150000002,52.640397,Gezondheidsvoorzieningen,Fysiotherapeuten,FysioMobilis,http://www.fysiomobilis.nl,Kerkstraat 22,8064 DP,Zwartsluis,c3e28f10-9cba-4341-8d37-5afa21740d4e
29,"Buzenland 2, 8281 XD Genemuiden",6.042429,52.619067,Gezondheidsvoorzieningen,Fysiotherapeuten,"Fysiotherapie De Meente - F. Bol, N. van Ek, S. Terpstra, E. Nijboer en E. Everts",http://www.fysiotherapiedemeente.nl,Buzenland 2,8281 XD,Genemuiden,b26ee2a4-d758-4fe7-a64c-25beef407a1f
30,"De Zwanebloem 41, 8064 HK Zwartsluis",6.07217400000002,52.646562,Gezondheidsvoorzieningen,Fysiotherapeuten,Fysiotherapie Zwartsluis,http://www.fysiotherapiezwartsluis.nl/,De Zwanebloem 41,8064 HK,Zwartsluis,e15b7150-b3bb-474f-9342-540d3ac9f30b
31,"Havenplein 2, 8281 EV Genemuiden",6.04147499999999,52.62399,Gezondheidsvoorzieningen,Fysiotherapeuten,Fytac fysio-manuele therapie,http://www.fytacfysiotherapie.nl,Havenplein 2,8281 EV,Genemuiden,18b03390-38dd-48a6-ab1a-756cf9a3dcba
32,"Burg Malcorpslaan 101a, 8061 AJ Hasselt",6.103251,52.593012,Gezondheidsvoorzieningen,Fysiotherapeuten,Kinderfysio Zwartewaterland,http://www.kinderfysiozwl.nl,Burg Malcorpslaan 101-A,8061 AJ,Hasselt,72ddce25-da44-47fb-be23-5d0f59e0dc31
33,"De Zwanebloem 41, 8064 HK Zwartsluis",6.07217400000002,52.646562,Gezondheidsvoorzieningen,Fysiotherapeuten,Kinderfysio Zwartewaterland,,De Zwanebloem 41,8064 HK,Zwartsluis,5a6d5b3d-4d5b-4104-ac65-13f4c4c69fa6
34,"Jan van Arkelstraat 5, 8281 AA Genemuiden",6.04300050000001,52.621425,Gezondheidsvoorzieningen,Fysiotherapeuten,Kinderfysio Zwartewaterland,,Jan van Arkelstraat 5,8281 AA,Genemuiden,140af997-89b0-4344-9afa-870e0350138d
35,"van Haersoltelaan 7, 8061 EG Hasselt",6.1059645,52.590402,Gezondheidsvoorzieningen,Fysiotherapeuten,"Therafit, centrum voor fysiotherapie, training en advies .",http://www.therafit.nl,Van Haersoltelaan 7,8061 EG,Hasselt,5dea0476-4d3a-4379-9d55-41e3ae07e7f3
36,"Zeven Alleetjes 1, 8011 CV Zwolle",6.0933105,52.507701,Gezondheidsvoorzieningen,GGD,Gemeenschappelijke Gezondheidsdienst - GGD IJsselland,http://www.ggdijsselland.nl,Zeven Alleetjes 1,8011 CV,Zwolle,8c0267ca-3ad6-4a23-9a51-bb4973c8237b
37,"Burgemeester Roelenweg 9, 8021 EV Zwolle",6.087132,52.515765,Gezondheidsvoorzieningen,Geestelijke Gezondheidszorg Algemeen,"Dimence, instelling voor geestelijke gezondheidszorg en welzijn in Oost-Nederland",http://www.dimence.nl,Burgemeester Roelenweg 9,8021 EV,Zwolle,a06fb7ff-0c96-4575-88da-7604e536fb0d
38,"Krommesteeg 2, 8281 PV Genemuiden",6.04512450000001,52.61589,Gezondheidsvoorzieningen,Gehandicapten - Organisaties en -verenigingen,Stichting Adullam voor Gehandicaptenzorg,,"Instelling Muiderheim, Krommesteeg 2",8281 PV,Genemuiden,429ff487-0378-4f35-85ae-bbd78c58033e
39,"Krabbescheer 26, 8281 KV Genemuiden",6.034662,52.627248,Gezondheidsvoorzieningen,Gehandicapten - Organisaties en -verenigingen,Stuurgroep Verstandelijk Gehandicapten Zwartewaterland,,Krabbescheer 26,8281 KV,Genemuiden,0dc79682-be18-4d5e-80e6-28a7df08709f
40,"Zuiderlaan 142, 7944 EJ Meppel",6.18496200000001,52.692111,Gezondheidsvoorzieningen,Haptotherapeuten,Praktijk voor Haptonomie E.P. Luning,http://www.evertluning.nl,Zuiderlaan 142,7944 EJ,Meppel,2e314883-4f21-4d7b-bb15-36809867ce8d
41,"Sportlaan 10, 8064 BS Zwartsluis",6.07054500000001,52.642395,Gezondheidsvoorzieningen,Huisartsen,"Boender, A J",http://www.huisartsenpraktijkboender.nl,Sportlaan 10,8064 BS,Zwartsluis,69aebb41-a21c-4c31-bded-d7a137697305
42,"van Haersoltelaan 4, 8061 EG Hasselt",6.10434900000001,52.589259,Gezondheidsvoorzieningen,Huisartsen,"Gijssel, E.A. van",http://www.huisartspraktijk-vangijssel.nl,Van Haersoltelaan 4,8061 EG,Hasselt,f8f09644-e71e-4bb7-a3c6-e8a23cda716d
43,"Kerkstraat 24, 8064 DP Zwartsluis",6.07235400000002,52.640433,Gezondheidsvoorzieningen,Huisartsen,"Maat, J.H.A. de en Trum, mw. E.M.J.",https://www.huisartsenpraktijkdemaat-trum.nl,Kerkstraat 24,8064 DP,Zwartsluis,a51377df-d84d-4c4c-9543-161db650052b
44,"Prinses Julianastraat 25, 8281 CK Genemuiden",6.042384,52.623243,Gezondheidsvoorzieningen,Huisartsen,Medisch Centrum De Steenpoort,http://www.huisartsen-genemuiden.nl,Prinses Julianastraat 25,8281 CK,Genemuiden,165c0f8f-c056-4f2d-900e-0b30a2d91739
45,"Hoogstraat 47, 8061 HB Hasselt",6.088842,52.592274,Gezondheidsvoorzieningen,Huisartsen,"Tuinstra, N.H.P.",http://www.huisartshoogstraat.nl,Hoogstraat 47,8061 HB,Hasselt,274828a3-9d66-46c9-94f6-4fd4fabae8cd
46,"Het Ambt 72, 8061 AN Hasselt",6.10114949999999,52.593354,Gezondheidsvoorzieningen,Huisartsen,"Wallinga, T Y",,Het Ambt 72,8061 AN,Hasselt,8e420ad4-64a1-413a-b97a-5220d54ad6cb
47,"Dokter van Heesweg 2, 8025 AB Zwolle",6.123762,52.513407,Gezondheidsvoorzieningen,Huisartsenpost,Avond- en weekenddiensten huisartsen,http://www.dehuisartsenpost.nl,Dokter van Heesweg 2,8025 AB,Zwolle,8c30462c-aff6-41b4-9bab-615b0c2ac4cc
48,"De Bovenkruier 47, 7323 AJ Apeldoorn",5.98679100000001,52.23537,Gezondheidsvoorzieningen,"Jeugd en Jongeren Advies, hulp en begeleiding",Agathos ambulante hulpverlening,http://www.agathos-thuiszorg.nl,De Bovenkruier 47,7323 AJ,Apeldoorn,d2088fc0-c472-4f51-99ca-7fbb63cf18e0
49,"Telvorenstraat 2, 8061 CB Hasselt",6.09585300000001,52.592058,Gezondheidsvoorzieningen,"Jeugd en Jongeren Advies, hulp en begeleiding",Centrum Jeugd & Gezin,https://www.zwartewaterland.nl/sociaaldomein,Telvorenstraat 2,8061 CB,Hasselt,6aac9267-2a50-48f6-aa1a-27216bd81570
50,"Burgemeester Drijbersingel 39, 8021 JB Zwolle",6.09953849999999,52.51635,Gezondheidsvoorzieningen,"Jeugd en Jongeren Advies, hulp en begeleiding",Jeugdbescherming Overijssel - Regiokantoor Zwolle,http://www.jbov.nl,Burg Drijbersingel 39,8021 JB,Zwolle,eca519fa-d471-4cab-bf2a-04aac6d73950
51,"Grote Voort 293A, 8041 BL Zwolle",6.0652935,52.509105,Gezondheidsvoorzieningen,"Jeugd en Jongeren Advies, hulp en begeleiding",Klaver4you,http://www.klaver4you.nl,Grote Voort 293-A,8041 BL,Zwolle,e1b163c4-e944-4e11-8915-0a287d40455a
52,"Schuurmanstraat 2, 8011 KP Zwolle",6.10144650000001,52.510419,Gezondheidsvoorzieningen,"Jeugd en Jongeren Advies, hulp en begeleiding",Raad voor de Kinderbescherming Zwolle,http://www.kinderbescherming.nl,Schuurmanstraat 2,8011 KP,Zwolle,6f1a1bd2-6667-4e46-b2a6-98d5da57de2d
53,"Kamperzeedijk 44, 8281 PH Genemuiden",6.0007545,52.597944,Gezondheidsvoorzieningen,Jeugd- en jongerenwerk,Christelijk Jeugdwerk Kamperzeedijk,http://www.cjk-online.nl,Kamperzeedijk 44,8281 PH,Genemuiden,c0615a0a-c2af-4ea4-9c63-08ab8bd8b8a6
54,"Gareel 2, 8061 MZ Hasselt",6.106041,52.597161,Gezondheidsvoorzieningen,Lactatiekundige,Lactatiekundigepraktijk Samen Groeien,http://www.praktijksamengroeien.nl,Gareel 2,8061 MZ,Hasselt,a47cb848-50ba-420b-a82c-17f9d041ec82
55,"Dokter Stolteweg 76, 8025 AZ Zwolle",6.1212195,52.514892,Gezondheidsvoorzieningen,"Leven zorg en welzijn Advies, hulp en begeleiding",'k Voel me fijn,http://www.voelmefijn.nl,Dr. Stolteweg 76,8025 AZ,Zwolle,caf45247-36e0-40cd-91ac-a17842bb94ba
56,"De Zegge 33, 8064 HV Zwartsluis",6.07057650000002,52.64469,Gezondheidsvoorzieningen,"Leven zorg en welzijn Advies, hulp en begeleiding",Hulpdienst Kleine Noden,,De Zegge 33,8064 HV,Zwartsluis,ece27811-b826-48c3-a5fe-b9adf426a357
57,"Dokter van Deenweg 2, 8025 BG Zwolle",6.123942,52.510446,Gezondheidsvoorzieningen,"Leven zorg en welzijn Advies, hulp en begeleiding",MEE IJsseloevers,http://www.meeijsseloevers.nl,Dr van Deenweg 2,8025 BG,Zwolle,b6e62eed-2789-4207-a982-f758de31e730
58,"Herman Buismanlaan 19, 8064 BA Zwartsluis",6.0650685,52.642107,Gezondheidsvoorzieningen,"Leven zorg en welzijn Advies, hulp en begeleiding",Ziekendienst,,Herman Buismanlaan 19,8064 BA,Zwartsluis,7db8c448-1813-4f5a-9017-15bdc21d3a66
59,"Jan van Arkelstraat 5, 8281 AA Genemuiden",6.04300050000001,52.621425,Gezondheidsvoorzieningen,Logopedie,Centrum voor Logopedie,,Jan van Arkelstraat 5,8281 AA,Genemuiden,46c4b870-d881-4e8d-99be-d283696613a0
60,"Lamoen 1, 8061 MK Hasselt",6.1060545,52.598196,Gezondheidsvoorzieningen,Logopedie,Centrum voor Logopedie,http://www.logopediehasselt.nl,Lamoen 1,8061 MK,Hasselt,f847d972-83b0-4b79-8b43-cd03ab4a26ac
61,"Erasmuslaan 50, 8024 CS Zwolle",6.13962000000001,52.524585,Gezondheidsvoorzieningen,Logopedie,Logopediepraktijk Zwartewaterland,,Erasmuslaan 50,8024 CS,Zwolle,4f6b0ce5-fef2-47b5-acca-d22647aa740f
62,"Prinses Julianastraat 23a, 8281 CK Genemuiden",6.042528,52.623369,Gezondheidsvoorzieningen,Logopedie,Logopediepraktijk Zwartewaterland,http://www.logopediepraktijkzwartewaterland.uwlogopedistonline.nl,Prinses Julianastraat 23-A,8281 CK,Genemuiden,daef8dbd-e8ac-42ae-bff5-45643b84b0a7
63,"Purperreigerlaan 226, 8064 DC Zwartsluis",6.07536000000002,52.643511,Gezondheidsvoorzieningen,Logopedie,Logopediepraktijk Zwartewaterland,,Purperreigerlaan 226,8064 DC,Zwartsluis,5f1006fd-f405-4d0e-bc9f-68a58155b2ce
64,"Voorsterweg 36, 8042 AD Zwolle",6.05425049999999,52.52481,Gezondheidsvoorzieningen,Logopedie,Logopediepraktijk Zwartewaterland,,Voorsterweg 36,8042 AD,Zwolle,210b1132-ca7a-4c40-9284-93b9527bfc76
65,"Westenbergstraat 28, 8274 AR Wilsum",5.96601900000002,52.529067,Gezondheidsvoorzieningen,Logopedie,Logopediepraktijk Zwartewaterland,,Westenbergstraat 28,8274 AR,Wilsum,e6998c96-ec33-4178-8acb-5da6a6102972
66,"Winde 37, 8265 ED Kampen",5.90252850000002,52.555437,Gezondheidsvoorzieningen,Logopedie,Logopediepraktijk Zwartewaterland,,Winde 37,8265 ED,Kampen,3f933ac1-1f5d-4386-a765-5ae5c6347ab8
67,"Karel Doormanstraat 30, 8061 JR Hasselt",6.100146,52.589187,Gezondheidsvoorzieningen,Mantelzorg,Steunpunt Mantelzorg Zwartewaterland,http://www.welzijnzwartewaterland.nl,karel doormanstraat 30,8061 JR,Hasselt,e38da4ec-fc6b-47f5-8246-1438d9cf5b9b
68,"Havenplein 2, 8281 EV Genemuiden",6.04147499999999,52.62399,Gezondheidsvoorzieningen,Mensendieck,Felix Praktijk Oefentherapie Cesar,http://www.felixoefentherapie.nl,Havenplein 2,8281 EV,Genemuiden,959f7428-5096-4009-976b-d4358b7b34cc
69,"Aalshorsterpad 8, 7722 JL Dalfsen",6.24886649999999,52.485804,Gezondheidsvoorzieningen,Natuur- en alternatieve geneeswijzen,Acupunctuur en Bioresonantie Praktijk Truus Buter,http://www.truusbuter.nl,Aalshorsterpad 8,7722 JL,Dalfsen,655546c6-cd79-42c8-8959-cb8d12aa82f3
70,"De Zwanebloem 37, 8064 HK Zwartsluis",6.0726645,52.646454,Gezondheidsvoorzieningen,Natuur- en alternatieve geneeswijzen,"Therapie, EMDR en Coaching Jacqueline Klein",http://www.jacquelineklein.nl,De Zwanebloem 37,8064 HK,Zwartsluis,5c06f4cc-1810-4360-be27-ad16ca7a7aa9
71,"Lijster 25, 8281 GS Genemuiden",6.05061449999999,52.618572,Gezondheidsvoorzieningen,Patiëntenbelangen,"Nederlandse Hartstichting, Patiëntenvereniging",,Lijster 25,8281 GS,Genemuiden,8f185461-3307-4477-9cf6-05f2f0e26b3d
72,"Otterbeek 10, 8064 JL Zwartsluis",6.058683,52.643772,Gezondheidsvoorzieningen,Patiëntenbelangen,"Nederlandse Hartstichting, Patiëntenvereniging",,Otterbeek 10,8064 JL,Zwartsluis,5c97928a-3e57-49b0-bb37-4b250247ac1f
73,"Tijlswegje 1, 8061 JH Hasselt",6.0976125,52.589421,Gezondheidsvoorzieningen,Patiëntenbelangen,"Nederlandse Hartstichting, Patiëntenvereniging",,Tijlswegje 1,8061 JH,Hasselt,ef2c04aa-89e9-423d-9747-0b0832ce0026
74,"Kabel 14, 8281 NG Genemuiden",6.03153449999999,52.618455,Gezondheidsvoorzieningen,Patiëntenbelangen,"Nederlandse Patiëntenvereniging, afd. Genemuiden",http://www.npvzorg.nl,Kabel 14,8281 NG,Genemuiden,8f7a4ba1-47dc-431e-a5f0-d3b71af015a0
75,"Nijverheidstraat 51, 8281 JD Genemuiden",6.0578505,52.617141,Gezondheidsvoorzieningen,Patiëntenbelangen,Stichting Fonds van Camen en Stichting Provisoorfonds,,Nijverheidstraat 51,8281 JD,Genemuiden,172bf611-d16e-4eb9-af1f-e2e0f09d9240
76,"Weesboom 7, 8061 LR Hasselt",6.1054785,52.596918,Gezondheidsvoorzieningen,Pedicure,Medisch Pedicure Corine Monsma,http://www.medischpedicure-hasselt.nl,Weesboom 7,8061 LR,Hasselt,33598aa9-7a6e-488a-ae64-26795f0db968
77,"Havenplein 2, 8281 EV Genemuiden",6.04147499999999,52.62399,Gezondheidsvoorzieningen,Podotherapie,"Innofeet Fytac, Genemuiden",http://www.innofeet.nl,Havenplein 2,8281 CL,Genemuiden,b1bf0f71-5601-4b4c-8577-e611f3c5f5c3
78,"Prinses Julianastraat 23a, 8281 CK Genemuiden",6.042528,52.623369,Gezondheidsvoorzieningen,Podotherapie,"Innofeet, Genemuiden",http://www.innofeet.nl,Prinses Julianastraat 23-A,8281 CK,Genemuiden,28b2f416-83db-45be-8ca7-ac8777506f6f
79,"De Meent 5, 8061 BT Hasselt",6.106302,52.592823,Gezondheidsvoorzieningen,Psychotherapie,Praktijk Xpansion voor psychosociale begeleiding,http://www.xpansion.nl,De Meent 5,8061 BT,Hasselt,fad60781-1b22-495f-b310-d8a2901b4e66
80,"Langestraat 100, 8281 AN Genemuiden",6.04105200000001,52.621767,Gezondheidsvoorzieningen,Tandartsen,Centrum Tandheelkunde Genemuiden,http://www.centrumtandheelkundegenemuiden.nl,Langestraat 100,8281 AN,Genemuiden,df4c818a-51ab-4a4e-8202-fe4118a7bea7
81,"Kerkstraat 36, 8064 DP Zwartsluis",6.07288500000001,52.640649,Gezondheidsvoorzieningen,Tandartsen,"Geelen, G. van",,Kerkstraat 36,8064 DP,Zwartsluis,0f7d5615-cc78-42b0-b4e7-7c4e5b4b64bb
82,"Prinses Irenestraat 2a, 8281 DX Genemuiden",6.04449450000001,52.620678,Gezondheidsvoorzieningen,Tandartsen,Tandarts Rooker,http://www.tandartsrooker.nl,Prinses Irenestraat 2-A,8281 DX,Genemuiden,ebde5ec9-a832-4cad-b65f-7d243c0dd381
83,"Het Kerspel 78, 8061 BD Hasselt",6.09946200000002,52.59366,Gezondheidsvoorzieningen,Tandartsen,"Tandarts, R. Neijboer",,Het Kerspel 78,8061 BD,Hasselt,63241f4c-75de-41ce-bfa0-7e7f1d29eae5
84,"Julianastraat 20, 8064 CD Zwartsluis",6.06823199999999,52.643898,Gezondheidsvoorzieningen,Tandartsen,Tandartsenpraktijk G C Muller BV,http://www.tandartsgcmuller.nl,Julianastraat 20,8064 CD,Zwartsluis,2e088ee0-bd96-47b6-bfa5-4ae363e14650
85,"Telvorenstraat 5, 8061 CB Hasselt",6.096384,52.591914,Gezondheidsvoorzieningen,Tandartsen,Tandartspraktijk Dental Clinics,,Telvorenstraat 5,8061 CB,Hasselt,cbf1796f-402e-4120-8536-9a2cac229c23
86,"Noordweg 2, 8262 BS Kampen",5.910876,52.562358,Gezondheidsvoorzieningen,Thuiszorg,Curadomi thuiszorg,http://www.curadomi.nl/kampen,Noordweg 2,8262 BS,Kampen,228134ae-5668-47a0-8bb4-5ffd93120138
87,"Stationsweg 44, 7941 HE Meppel",6.19460549999999,52.692084,Gezondheidsvoorzieningen,Thuiszorg,De Nieuwe Zorg Thuis,http://www.dnzt.nl,Stationsweg 44,7941 HE,Meppel,e129c33a-396c-4d85-a1b3-2524e69d9505
88,"Fortresselaan 2, 8064 EE Zwartsluis",6.073317,52.641126,Gezondheidsvoorzieningen,Thuiszorg,Icare Verpleging en Verzorging,http://www.icare.nl,"Wijkteam Zwartsluis, Fortresselaan 2",8064 EE,Zwartsluis,5fe19211-eed2-4f8c-b5eb-73f31482e103
89,"Fortresselaan 2, 8064 EE Zwartsluis",6.073317,52.641126,Gezondheidsvoorzieningen,Thuiszorg,Icare Verpleging en verzorging,http://www.icare.nl,Fortresselaan 2,8064 EE,Zwartsluis,da9c839b-8e73-4564-9e5d-f70aa906dd75
90,"Burgemeester Kuntzelaan 27A, 3771 EP Barneveld",5.59064700000002,52.138386,Gezondheidsvoorzieningen,Thuiszorg,RST Zorgverleners,http://www.rstzorg.nl,Burgemeester Kuntzelaan 27A,3771EP,Barneveld,fbd2c907-b420-448c-9a79-0b8e7dc72587
91,"Vechtstraat 104, 8021 AZ Zwolle",6.108057,52.514919,Gezondheidsvoorzieningen,Thuiszorg,Vegro Thuiszorgwinkel Zwolle,http://www.vegro.info,Vechtstraat 104/106,8021 AZ,Zwolle,b430f8c4-bab9-41c6-8be8-a7f6e6334176
92,"Vloeddijk 79, 8261 GE Kampen",5.91460649999999,52.556823,Gezondheidsvoorzieningen,Thuiszorg,Vrijwillige Terminale Thuiszorg Kampen e.o.,http://www.terminalethuiszorgkampen.nl,Vloeddijk 79,8261 GE,Kampen,f46628c8-5b3b-4c41-a045-1c006eae6f75
93,"Purperreigerlaan 2, 8064 DC Zwartsluis",6.07235850000001,52.643124,Gezondheidsvoorzieningen,Uitvaartcentra,Uitvaartcentrum Mooiweer,http://www.uitvaartverzorging-gertmooiweer.nl,Purperreigerlaan 2,8064 DC,Zwartsluis,6b3aca73-e4b7-4543-9c97-bd6a16af3fff
94,"Jan van Nassaustraat 14, 8281 ZD Genemuiden",6.04434600000002,52.622082,Gezondheidsvoorzieningen,Uitvaartverzorgers,Dinant van Dijk begrafenisverzorging,http://www.delaatstezorg.nl,Jan van Nassaustraat 14,8281 ZD,Genemuiden,e0896b02-8238-4233-9c34-5c63b5766008
95,"Doctor H.A.W. van de Vechtlaan 80, 8061 HJ Hasselt",6.10213386433833,52.5892536392518,Gezondheidsvoorzieningen,Uitvaartverzorgers,L Aarten Uitvaartverzorging,,Dr H A W van de Vechtlaan 80,8061 HM,Hasselt,584a42d5-635c-436f-9ee0-3abd0209dbb2
96,"Rietbeek 26, 8064 JC Zwartsluis",6.05858850000001,52.639776,Gezondheidsvoorzieningen,Uitvaartverzorgers,Uitvaart- en overledenenverzorging Gert Mooiweer,http://www.uitvaartverzorging-gertmooiweer.nl,Rietbeek 26,8064 JC,Zwartsluis,3a4bbbcf-da1c-4242-a682-a8c06b190668
97,"Gaffel 88, 8061 LC Hasselt",6.10179300000001,52.596261,Gezondheidsvoorzieningen,Uitvaartverzorgers,Uitvaartverzorging Van Dijk,http://www.uitvaartvandijk.nl,Gaffel 88,8061 LC,Hasselt,f89cfb65-2452-4612-bf2e-92da33cfbb1f
98,"Willemsvaart 2, 8019 AB Zwolle",6.08246550000001,52.507476,Gezondheidsvoorzieningen,Uitvaartverzorgers,Yarden Uitvaartzorg Zwolle,http://www.yarden.nl,Willemsvaart 2,8019 AB,Zwolle,3d2570c1-3c39-4509-8c1b-809be032d3b8
99,"Jan van Nassaustraat 14, 8281 ZD Genemuiden",6.04434600000002,52.622082,Gezondheidsvoorzieningen,Uitvaartverzorging,Dinant van Dijk Begrafenisverzorging,,Jan van Nassaustraat 14,8281 ZD,Genemuiden,85f63b3c-2ce2-4d0c-a920-f9367bb5f8b6
100,"Groenendael 233B, 8271 EM IJsselmuiden",5.94214650000001,52.564824,Gezondheidsvoorzieningen,Verloskundigen,Verloskundige Praktijk Sifra,http://www.verloskundigepraktijksifra.nl,Groenendael 233-B,8271 EM,IJsselmuiden,4c0bfce0-efa6-473e-b221-ceaed14fed6b
101,"Langestraat 68, 8281 AM Genemuiden",6.0407291846224,52.622667,Gezondheidsvoorzieningen,Verloskundigen,Verloskundige Praktijk Sifra,,Langestraat 68-70,8281 AM,Genemuiden,509d2be2-4b16-49d9-ba91-1008b6ed9cd4
102,"Prinsenstraat 22c, 8061 ZC Hasselt",6.10379550000002,52.588305,Gezondheidsvoorzieningen,Verloskundigen,Verloskundige Praktijk Sifra,,Prinsenstraat 22-C,8061 ZC,Hasselt,ea818cf8-a4ca-4e13-8fbc-7f7ef9a5e323
103,"Dorus Rijkersstraat 2, 8281 DG Genemuiden",6.041943,52.619139,Gezondheidsvoorzieningen,Verpleeg- en verzorgingshuizen,Woonzorgconcern IJsselheem,,Dorus Rijkersstraat 2,8281 DG,Genemuiden,630d384d-1f26-499f-a842-0ec06a93a83f
104,"Het Gasthuysland 300, 8061 KL Hasselt",6.0988725,52.589322,Gezondheidsvoorzieningen,Verpleeg- en verzorgingshuizen,Woonzorgconcern IJsselheem,,Het Gasthuysland 300,8061 KL,Hasselt,1eee41ef-410f-4f4b-ab05-653858c16044
105,"Purperreigerlaan 34, 8064 DC Zwartsluis",6.0740505,52.643304,Gezondheidsvoorzieningen,Verpleeg- en verzorgingshuizen,Woonzorgconcern IJsselheem,,Purperreigerlaan 34,8064 DC,Zwartsluis,6010a9ad-efb3-4eaf-b6cd-cbe6a27dd49f
106,"Burgtstraat 2, 3841 ED Harderwijk",5.61504150000002,52.348842,Gezondheidsvoorzieningen,Verslavingszorg,Tactus verslavingszorg,http://www.tactus.nl,Burgtstraat 2,3841 ED,Harderwijk,2baad70f-5312-442d-8741-da42d3e03118
107,"Dokter Stolteweg 58, 8025 AX Zwolle",6.12103500000001,52.51527,Gezondheidsvoorzieningen,Verslavingszorg,Tactus verslavingszorg,http://www.tactus.nl,Dokter Stolteweg 58,8025 AX,Zwolle,6e6d4af5-ede5-4255-9e37-f59081bf781d
108,"Neringstraat 1, 8263 BG Kampen",5.886414,52.560072,Gezondheidsvoorzieningen,Verslavingszorg,Tactus verslavingszorg,http://www.tactus.nl,Neringstraat 1,8263 BG,Kampen,aa013a67-8379-465a-b46d-2d2491a83ede
109,"Röpcke Zweerslaan 2, 7772 RV Hardenberg",6.632451,52.573491,Gezondheidsvoorzieningen,Verslavingszorg,Tactus verslavingszorg,http://www.tactus.nl,Röpcke Zweerslaan 2,7772 RV,Hardenberg,aa6617f0-21c4-4bae-bc7f-5287529e275b
110,"Dokter van Heesweg 2, 8025 AB Zwolle",6.123762,52.513407,Gezondheidsvoorzieningen,Ziekenhuizen / Klinieken,Isala,http://www.isala.nl,Dokter van Heesweg 2,8025 AB,Zwolle,09749fc1-d4f1-491e-a59b-a895dea8f298
111,"Engelenbergplantsoen 7, 8266 AB Kampen",5.9193315,52.551612,Gezondheidsvoorzieningen,Ziekenhuizen / Klinieken,Isala,,Engelenbergplantsoen 7,8266 AB,Kampen,881f389e-19ad-4d15-a124-c552b6313c99
112,"Groteweg 5, 8191 JS Wapenveld",6.05360250000001,52.412526,Gezondheidsvoorzieningen,Ziekenhuizen / Klinieken,Isala,,Groteweg 5,8191 JS,Wapenveld,f4a6054b-fadd-435a-b2d2-5b2cef4c05f0
113,"Hoogeveenseweg 38, 7943 KA Meppel",6.21741600000001,52.690932,Gezondheidsvoorzieningen,Ziekenhuizen / Klinieken,Isala,,Hoogeveenseweg 38,7943 KA,Meppel,7fc8b1d3-a1c9-473e-b8a5-d8a7b515c711
114,"Sluisweg 2, 8332 JC Steenwijk",6.12078750000001,52.793415,Gezondheidsvoorzieningen,Ziekenhuizen / Klinieken,Isala,,Sluisweg 2,8332 JC,Steenwijk,c09da270-56f0-4f35-9477-f236e7edefec
115,"Hoogeveenseweg 38, 7943 KA Meppel",6.21741600000001,52.690932,Gezondheidsvoorzieningen,Ziekenhuizen / Klinieken,Isala Diaconessenhuis Meppel,http://www.isla.nl,Hoogeveenseweg 38,7943 KA,Meppel,1de70651-10fe-4f4b-9b05-f976e3c1f2c1
116,"Kalkovenwegje 11, 8061 CZ Hasselt",6.09367950000001,52.592724,Gezondheidsvoorzieningen,Zonnebloem,"De Zonnebloem, afdeling Hasselt",,Kalkovenwegje 11,8061 CZ,Hasselt,e897da97-c5fb-4299-8b8c-60188867442b
117,"Nieuweweg 28, 9301 GS Roden",6.41929050000002,53.135055,Gezondheidsvoorzieningen,Zorg en welzijn,Helping Hands,http://www.helpinghands.nl,Nieuweweg 28,9301 GS,Roden,0d113cee-0523-4834-9a63-b5b9e62eee5d
118,"Lage Vlakte 12, 8281 Genemuiden",6.04225192205924,52.6192438475204,Gezondheidsvoorzieningen,Zorg en welzijn,Stichting Akkerwinde,http://www.woonvormakkerwinde.nl,Lage Vlakte 12,8281 DE,Genemuiden,21e42f4e-bf43-420b-b32d-9dea17125116
119,"Wijersstraat 1, 3811 MZ Amersfoort",5.37865650000001,52.154019,Gezondheidsvoorzieningen,Zorg en welzijn,Stichting Philadelphia Zorg,http://www.philadelphia.nl,Wijersstraat 1,2711 MZ,Amersfoort,194b7463-f1e0-47bb-a5b2-addaea995f1e
120,"Polleboersweg 1, 8281 RA Genemuiden",6.0441075,52.607583,Gezondheidsvoorzieningen,Zwangerschap Algemeen,VBOK  team Genemuiden,http://www.vbok.nl,Polleboersweg 1,8281 RA,Genemuiden,c78aac79-ae5f-4e32-989e-53b9d27da46b
