UNIEKNUMMER;REGISTRATIENR;DOSSIERNR;TYPEKODE;TYPE_OMSCHRIJVING;AARDAANVRKODE;AARDAANVRAAG_OMSCHRIJVING;OMSCHRIJVING;STADSDEELKANTOOR;STATUS;DATUM_INDIENING;DATUM_INGETROKKEN;DATUM_BESCHIKKING;DATUM_EINDE;ADRESNR;ID;STRAATNAAM;STRAATCODE;HUISNUMMER;HUISLETTER;TOEVOEGING;POSTCODE;GELDIG_VANAF;GELDIG_TM;X;Y;LONG;LAT
520987187;4132410;00891GGB13;GGB;Grondgebruik;GGO;Overig op/in straat;Uilenbomen 2, het plaatsen van een vetvangput;Handhavingsorganisatie;Verleend;2013-08-05;;2013-08-15;2050-12-15;1012028;963522;Uilebomen;18280;2;;;2511 VM;2012-09-19;;81897.458;454659.465;4.320865638210328;52.07538379686306
328526922;673369;01080GGB08;GGB;Grondgebruik;GSN;Standplaats;Verkoop ijs en hotdogs;DECO;Verleend;2008-06-10;;2008-10-30;;146093;964470;Gevers Deynootstraat;05760;25;;;2586 HR;2010-10-26;;79629.649;458894.401;4.2868547590662605;52.11313780395255
405749082;284113;01025GGB07;GGB;Grondgebruik;GGI;Inrit;inrit Slangenwortel 18;Stadsdeel Leidschenveen-Ypenburg;Verleend;2007-04-17;;2007-06-26;;305460;938239;Slangenwortel;21587;18;;;2498 CK;2010-10-26;;86485.979;450207.537;4.388680557722753;52.03596094199328
659482257;4093027;00805GGB12;GGB;Grondgebruik;GSN;Standplaats;Theresiastraat 32 K, standplaats normaal;Handhavingsorganisatie;Verleend;2012-06-22;;2012-08-16;;1003320;970290;Theresiastraat;17840;32;K;;2593 AP;2013-07-03;;82726.798;455648.007;4.3327516984559065;52.08437649569963
848982369;676306;01280GGB08;GGB;Grondgebruik;GGI;Inrit;uitritvergunning Metropole;Stadsdeel Scheveningen;Verleend;2008-07-15;;2008-11-10;;74913;976556;Carnegielaan;02860;3;;;2517 KH;2014-02-10;;79994.882;456081.154;4.292805184578802;52.08790568538731
412709849;676306;01280GGB08;GGB;Grondgebruik;GGI;Inrit;uitritvergunning Metropole;Stadsdeel Scheveningen;Verleend;2008-07-15;;2008-11-10;;74912;976557;Carnegielaan;02860;5;;;2517 KH;2014-02-10;;79994.882;456081.154;4.292805184578802;52.08790568538731
728698382;4127433;00679GGB13;GGB;Grondgebruik;GTN;terrasvergunning;aanvraag Terras locatie Kazernestraat 148;Handhavingsorganisatie;Verleend;2013-06-14;;2013-08-05;2029-08-05;1013473;969782;Kazernestraat;08920;148;;;2514 CW;2013-07-03;;81392.015;455656.763;4.313278857333833;52.084279334303204
340686651;291324;00121GGB08;GGB;Grondgebruik;GGI;Inrit;inrit;Stadsdeel Laak;Verleend;2008-01-25;;2008-02-20;;312581;855709;Waldorpstraat;19310;128;;;2521 CD;2010-10-26;;81783.835;453730.504;4.319407796736556;52.067020398111005
75428127;4162682;00690GGB14;GGB;Grondgebruik;GTN;terrasvergunning;aanvraag Terras locatie Almeloplein 70;Handhavingsorganisatie;Verleend;2014-07-03;;2014-09-11;2050-12-31;95310;946301;Almeloplein;00390;70;;;2533 AD;2010-10-26;;78756.309;452467.372;4.275543750245427;52.055260493028854
28947489;4016918;00546GGB10;GGB;Grondgebruik;GGI;Inrit;Poeldijkseweg 53, inritvergunning;Handhavingsorganisatie;Verleend;2010-04-20;;2010-07-22;;213768;931133;Poeldijkseweg;14295;53;;;2544 NS;2010-10-26;;76821;449212.245;4.248075899729782;52.025737936728525
523453566;278136;02067GGB06;GGB;Grondgebruik;GGI;Inrit;;Stadsdeel Segbroek;Verleend;2006-09-01;;2006-10-03;;18503;920749;Mezenlaan;11870;16;;;2566 ZG;2010-10-26;;78088.165;455622.08;4.26509288824961;52.08351847991776
114172017;672755;01012GGB08;GGB;Grondgebruik;GGI;Inrit;inrit van 5,25 m x 3,00 m;Stadsdeel Segbroek;Verleend;2008-06-02;;2008-06-26;;18504;920750;Mezenlaan;11870;17;;;2566 ZB;2010-10-26;;77983.743;455588.884;4.263577191814422;52.083205640331514
666921357;4164891;00788GGB14;GGB;Grondgebruik;GTN;terrasvergunning;aanvraag Terras locatie Stationsplein 3C;Handhavingsorganisatie;Verleend;2014-07-24;;2014-09-12;2050-09-12;223017;835086;Stationsplein;17130;3;C;;2515 BT;2010-10-26;;81892.794;454067.637;4.320924399229618;52.070064539138606
458511198;281775;00307GGB07;GGB;Grondgebruik;GGI;Inrit;;Stadsdeel Leidschenveen-Ypenburg;Verleend;2007-02-08;;2007-10-09;;313774;971468;Moezel;21376;14;;;2491 CT;2013-08-23;;86491.347;453345.675;4.388129568156877;52.06416406580049
635137837;289640;01927GGB07;GGB;Grondgebruik;GGI;Inrit;inrit;Stadsdeel Segbroek;Verleend;2007-11-07;;2007-12-05;;312736;842262;Sijzenlaan;17550;35;D;;2566 WC;2010-10-26;;77416.626;455147.366;4.255405211918617;52.079158684120834
887966164;289641;01928GGB07;GGB;Grondgebruik;GGI;Inrit;inrit;Stadsdeel Segbroek;Verleend;2007-11-07;;2007-12-05;;312737;842263;Sijzenlaan;17550;35;E;;2566 WC;2010-10-26;;77405.953;455140.443;4.255251116136744;52.07909497376073
76141645;4002435;01724GGB09;GGB;Grondgebruik;GGI;Inrit;inrit;Handhavingsorganisatie;Verleend;2009-08-12;;2009-09-15;;179111;841363;Sijzenlaan;17550;56;;;2566 WK;2010-10-26;;77493.637;455167.594;4.256523856203383;52.07935125335937
614694843;265522;V1020740;GGB;Grondgebruik;GGI;Inrit;;Stadsdeel Segbroek;Verleend;2005-05-02;;2005-05-30;;179128;841936;Sijzenlaan;17550;42;;;2566 WJ;2010-10-26;;77590.867;455230.455;4.257927741754207;52.07992976705653
325073642;700218;01103GGB09;GGB;Grondgebruik;GGI;Inrit;uitritvergunning;Handhavingsorganisatie;Verleend;2009-06-29;;2009-08-03;;317197;845779;Senecastraat;21679;9;;;2493 ZM;2010-10-26;;86906.743;452731.38;4.39430894970422;52.05869459639827
568460609;4176287;01264GGB14;GGB;Grondgebruik;GTN;terrasvergunning;aanvraag Zomerterras locatie Badhuisweg 2;Handhavingsorganisatie;Verleend;2014-12-04;;2015-01-21;2080-01-21;89291;867346;Badhuisweg;01070;2;;;2587 CG;2010-10-26;;79471.013;458754.555;4.284570223461176;52.111859417897946
33299193;262147;V1017840;GGB;Grondgebruik;GGI;Inrit;INRIT;Stadsdeel Scheveningen;Verleend;2005-01-20;;2005-02-17;;289022;867887;Van Bleiswijkstraat;01850;130;;;2582 LJ;2010-10-26;;79188.612;456790.883;4.280885180171244;52.0941739453605
81958871;288201;01725GGB07;GGB;Grondgebruik;GGI;Inrit;;Stadsdeel Segbroek;Verleend;2007-09-12;;2007-10-09;;18508;920754;Mezenlaan;11870;21;;;2566 ZB;2010-10-26;;77966.189;455578.877;4.26332339551142;52.08311326833126
95596165;696287;00735GGB09;GGB;Grondgebruik;GGI;Inrit;inrit wagenaarweg 5;Handhavingsorganisatie;Verleend;2009-05-06;;2009-08-07;;162336;888244;Wagenaarweg;19260;5;;;2597 LL;2010-10-26;;80494.173;457635.85;4.299749237975851;52.10194472847887
73335318;686797;02064GGB08;GGB;Grondgebruik;GGI;Inrit;Westvlietweg 12;Stadsdeel Leidschenveen-Ypenburg;Verleend;2008-12-16;;2009-02-20;;316709;971880;Westvlietweg;21358;12;A;;2491 EB;2010-10-26;;85671.612;454199.853;4.376003576255712;52.071738566820784
793542738;4081003;00258GGB12;GGB;Grondgebruik;GSN;Standplaats;"Theresiastraat t.o. 84K, standplaatsvergunning  (belegde broodjes en
niet-alcoholische dranken)";Handhavingsorganisatie;Verleend;2012-03-08;;2012-03-29;;1003318;972163;Theresiastraat;17840;84;K;;2593 AR;2013-07-03;;82843.594;455727.644;4.334438602642813;52.08510741243115
233592431;293918;00839GGB08;GGB;Grondgebruik;GGI;Inrit;Badhuisweg 108;Stadsdeel Scheveningen;Verleend;2008-04-21;;2008-06-13;;215208;869224;Badhuisweg;01070;108;;;2587 CM;2010-10-26;;79955.024;458302.027;4.291734679319154;52.10785858000471
314112932;4150959;00190GGB14;GGB;Grondgebruik;GTN;terrasvergunning;aanvraag Terras locatie Werkhovenstraat 42;DECO;Verleend;2014-03-04;;2014-04-29;2099-12-31;158167;855518;Werkhovenstraat;19550;42;;;2546 VH;2010-10-26;;78707.679;452923.999;4.274732838759171;52.05935737967855
362695296;4176165;01262GGB14;GGB;Grondgebruik;GTN;terrasvergunning;aanvraag Zomerterras locatie Van der Vennestraat 31;Handhavingsorganisatie;Verleend;2014-12-02;;2015-01-21;2080-01-21;314212;885471;Van der Vennestraat;18560;31;;;2525 CA;2010-10-26;;80390.012;453717.934;4.299086316127947;52.06672143709296
274086572;674802;01177GGB08;GGB;Grondgebruik;GGI;Inrit;Oprit/uitweg voor garage;Stadsdeel Segbroek;Verleend;2008-06-30;;2008-08-07;;36822;395387;Perenstraat;13940;4;;;2564 SE;2010-10-26;;77599.277;453862.119;4.258360776467422;52.06763418430686
717732359;4134717;01013GGB13;GGB;Grondgebruik;GTN;terrasvergunning;aanvraag Terras locatie Zeestraat 35;Handhavingsorganisatie;Verleend;2013-09-02;;2013-09-05;2100-09-05;321850;380950;Zeestraat;20490;35;;;2518 AA;2010-10-26;;80741.326;455671.817;4.303783792959887;52.08432772348611
880583073;4175462;01233GGB14;GGB;Grondgebruik;GTN;terrasvergunning;aanvraag Zomer- en winterterras locatie Van Zeggelenlaan 102;Handhavingsorganisatie;Verleend;2014-11-24;;2015-01-21;2080-01-21;200283;381553;Van Zeggelenlaan;20530;102;;;2524 AT;2010-10-26;;81544.571;452537.203;4.31617562076844;52.05626474754262
633510875;4011374;00148GGB10;GGB;Grondgebruik;GGI;Inrit;Ko van Dijkplein 56, uitwegvergunning;Handhavingsorganisatie;Verleend;2010-02-10;;2010-06-21;;287426;375155;Ko van Dijkplein;21151;56;;;2548 ZT;2010-10-26;;80162.278;448093.126;4.296996986995597;52.01614162763076
683050562;4175881;01247GGB14;GGB;Grondgebruik;GTN;terrasvergunning;aanvraag Zomer- en winterterras locatie Paletplein 86;Handhavingsorganisatie;Verleend;2014-11-28;;2015-01-12;2070-01-15;252412;383411;Paletplein;20932;86;;;2526 GZ;2010-10-26;;80635.849;453972.834;4.3026154699286225;52.06904522483968
711826469;273440;01048GGB06;GGB;Grondgebruik;GGI;Inrit;;Stadsdeel Leidschenveen-Ypenburg;Verleend;2006-03-14;;2006-06-08;;290452;384358;Frits Diepenlaan;21265;54;;;2497 DK;2010-10-26;;84936.216;450694.908;4.365997930357899;52.04014730886475
781343306;291937;00276GGB08;GGB;Grondgebruik;GGG;Goederen op straat;Uitstalling 5 m bij 0.8 m en 1 bord 1 m bij 0,5m;Stadsdeel Laak;Verleend;2008-02-15;;2008-02-19;2117-02-20;200248;384457;Van Zeggelenlaan;20530;128;;;2524 AV;2010-10-26;;81567.894;452496.004;4.316524485216305;52.05589759098479
804287687;263763;V1019191;GGB;Grondgebruik;GTN;terrasvergunning;aanvraag Terras locatie Visafslagweg 60;Stadsdeel Scheveningen;Verleend;2005-03-08;;2005-03-30;;167432;852549;Visafslagweg;18780;60;;;2583 DM;2010-10-26;;78205.633;457705.562;4.266337021758257;52.10225828283795
704803954;680000;01692GGB08;GGB;Grondgebruik;GGI;Inrit;inrit voor winkelpand;Stadsdeel Segbroek;Verleend;2008-09-01;;2008-11-17;;86392;390568;Begoniastraat;01380;246;A;;2565 SV;2010-10-26;;77614.399;454755.072;4.258378803458122;52.07566096005547
969825626;289082;01860GGB07;GGB;Grondgebruik;GGI;Inrit;;Stadsdeel Leidschenveen-Ypenburg;Verleend;2007-10-22;;2007-11-15;;301908;849880;Gele Lis;21592;24;;;2498 BC;2010-10-26;;85936.998;449468.232;4.380830235841812;52.02924869828411
324896735;268916;V1023641;GGB;Grondgebruik;GGI;Inrit;inritten Dr. Lelykade 242;Stadsdeel Scheveningen;Verleend;2005-09-26;;2005-10-18;;62295;412422;Dr. Lelykade;04040;242;;;2583 CP;2010-10-26;;78117.733;456823.01;4.265253399232292;52.0943149132051
276486446;4062117;01035GGB11;GGB;Grondgebruik;GSN;Standplaats;Bij de Westermolens tegenover 576, standplaats patat, vis en snacks;Handhavingsorganisatie;Verleend;2011-09-06;;2011-09-09;;326556;390085;Bij de Westermolens;02710;210;;;2513 PL;2010-10-26;;80133.151;454800.416;4.29510342703964;52.07641476387571
771115128;4138566;01184GGB13;GGB;Grondgebruik;GTN;terrasvergunning;aanvraag Terras locatie Prinsestraat 99;Handhavingsorganisatie;Verleend;2013-10-14;;2013-11-05;2100-11-05;41330;398161;Prinsestraat;14520;99;;;2513 CC;2010-10-26;;80765.953;455183.994;4.304249202077256;52.07994708372082
137739821;4130041;00797GGB13;GGB;Grondgebruik;GTN;terrasvergunning;aanvraag Terras locatie Prinsestraat 42A;Handhavingsorganisatie;Verleend;2013-07-11;;2013-08-15;2100-08-01;207775;398179;Prinsestraat;14520;42;A;;2513 CE;2010-10-26;;80861.097;455053.777;4.305665259942352;52.078789603426344
881206081;266023;V1021174;GGB;Grondgebruik;GGO;Overig op/in straat;fietsbeugels;Stadsdeel Scheveningen;Verleend;2005-05-20;;2005-06-17;;304186;413355;Dr. Lelykade;04040;220;;;2583 CP;2010-10-26;;78194.357;456914.178;4.266350832985756;52.09514484703945
716466423;4027906;01228GGB10;GGB;Grondgebruik;GGI;Inrit;Tomatenlaan 31, in-/uitrit;Handhavingsorganisatie;Verleend;2010-09-17;;2010-10-26;;237670;385199;Tomatenlaan;20954;31;;;2548 AJ;2010-10-26;;79555.256;450409.197;4.287644961493892;52.0368735095269
730770767;287305;01608GGB07;GGB;Grondgebruik;GGI;Inrit;inrit 6.00 m x 2.40 m;Stadsdeel Segbroek;Verleend;2007-07-31;;2007-08-28;;53420;419017;Fahrenheitstraat;05130;20;;;2561 EC;2010-10-26;;78999.15;454112.199;4.27871771147403;52.07007546735861
668176409;287305;01608GGB07;GGB;Grondgebruik;GGI;Inrit;inrit 6.00 m x 2.40 m;Stadsdeel Segbroek;Verleend;2007-07-31;;2007-08-28;;53423;419019;Fahrenheitstraat;05130;16;;;2561 EC;2010-10-26;;79002.975;454106.275;4.278774808844432;52.070022755050616
562740911;4124876;00565GGB13;GGB;Grondgebruik;GTN;terrasvergunning;aanvraag Terras locatie Fahrenheitstraat 558;Handhavingsorganisatie;Verleend;2013-05-21;;2013-07-30;2028-07-31;52875;417139;Fahrenheitstraat;05130;558;;;2561 DJ;2010-10-26;;78331.692;455124.243;4.268757091977092;52.079078369869436
896753295;274740;01523GGB06;GGB;Grondgebruik;GGI;Inrit;aanleg inrit;Stadsdeel Segbroek;Verleend;2006-04-21;;2006-06-06;;111278;429878;Kiplaan;09120;8;;;2566 SL;2010-10-26;;77317.03;455230.175;4.2539337029924615;52.079888890778754
755880358;4017747;00611GGB10;GGB;Grondgebruik;GGI;Inrit;Kornoeljestraat 2, uitwegvergunning;Handhavingsorganisatie;Verleend;2010-05-03;;2010-09-03;;108340;431168;Kornoeljestraat;09520;2;;;2564 LP;2010-10-26;;77695.244;453552.125;4.259830336755549;52.06486177582441
159449412;290303;02079GGB07;GGB;Grondgebruik;GGI;Inrit;inrit 2.50 bij 2.50 meter;Stadsdeel Segbroek;Verleend;2007-12-04;;2008-05-09;;34325;437856;Papegaailaan;13620;40;;;2566 XS;2010-10-26;;77733.146;455511.125;4.259939404934766;52.0824719252048
452552224;290978;00036GGB08;GGB;Grondgebruik;GGI;Inrit;inrit 5.50 m x 3.50m;Stadsdeel Segbroek;Verleend;2008-01-14;;2008-02-18;;52994;415399;Fahrenheitstraat;05130;403;;;2561 DZ;2010-10-26;;78636.236;454646.957;4.273305840168611;52.07483124497076
838036575;271282;00210GGB06;GGB;Grondgebruik;GGI;Inrit;inrit;Stadsdeel Laak;Verleend;2006-01-18;;2006-02-16;;8605;432248;Lyonnetstraat;11100;107;;;2522 NC;2010-10-26;;82345.339;453479.246;4.327648967658818;52.06483631416989
849340392;4143659;01373GGB13;GGB;Grondgebruik;GSN;Standplaats;Kerkhoflaan tegenover nummer 12, standplaats;Handhavingsorganisatie;Verleend;2013-12-06;;2014-03-07;;207255;434407;Kerkhoflaan;09000;12;;;2585 JB;2010-10-26;;80742.775;456908.525;4.303535581695819;52.09544188295815
554092888;4131573;00857GGB13;GGB;Grondgebruik;GTN;terrasvergunning;aanvraag Terras locatie Kaapseplein 78;Handhavingsorganisatie;Verleend;2013-07-26;;2013-09-02;2100-09-02;231488;428491;Kaapseplein;08730;78;;;2572 NG;2010-10-26;;80297.732;453084.664;4.297879288931347;52.061017950600345
488239908;4020362;00780GGB10;GGB;Grondgebruik;GGI;Inrit;Laurierstraat 163,  uitwegvergunning;Handhavingsorganisatie;Verleend;2010-06-10;;2010-07-19;;100392;435517;Laurierstraat;10380;163;;;2563 SG;2010-10-26;;78512.795;454136.046;4.271620074653109;52.07022280844358
137175548;4197855;00777GGB15;GGB;Grondgebruik;GTN;terrasvergunning;aanvraag Terras locatie Johanna Westerdijkplein 70;Handhavingsorganisatie;Advies aangevraagd;2015-06-26;;2015-08-28;;264610;470510;Johanna Westerdijkplein;20975;70;;;2521 EN;2010-10-26;;82074.595;453696.47;4.323654846435503;52.06675289414456
219709588;4109638;01388GGB12;GGB;Grondgebruik;GSN;Standplaats;standplaats;Handhavingsorganisatie;Verleend;2012-11-28;;2013-01-02;;1003314;954797;Thomsonplein;17880;15;K;;;2011-12-15;;78485.15;455162.993;4.270986657951695;52.07944783424996
624115368;703611;02285GGB09;GGB;Grondgebruik;GSN;Standplaats;standplaats bloemen en planten;Handhavingsorganisatie;Verleend;2009-11-02;;2010-01-27;;231118;455395;St. Barbaraweg;16450;6;;;2516 BT;2010-10-26;;83271.717;453823.417;4.341084229529109;52.06805004674792
591012952;681855;01785GGB08;GGB;Grondgebruik;GGI;Inrit;in-en uitrit;Stadsdeel Leidschenveen-Ypenburg;Verleend;2008-09-01;;2009-02-27;;311780;466435;Veenwortel;21690;25;;;2498 EM;2010-10-26;;86446.766;449695.714;4.388211765191209;52.031356325326165
760272374;278154;02068GGB06;GGB;Grondgebruik;GGI;Inrit;;Stadsdeel Segbroek;Verleend;2006-09-04;;2006-10-03;;180791;461421;Suezkade;17420;45;;;2517 BV;2010-10-26;;79540.164;455016.512;4.286407117450507;52.078276258685406
804007612;685760;02005GGB08;GGB;Grondgebruik;GGI;Inrit;"uitweg 2.20 m bij 5.70 m vanaf 2009/2010; bestrating kan beter worden meegenomen met de geplande herinrichting van het Weteringplein na vervanging van het riool ?";Stadsdeel Centrum;Verleend;2008-11-26;;2009-02-27;;155780;455004;Weteringplein;19700;12;;;2515 AJ;2010-10-26;;82409.711;454633.026;4.328342195390783;52.07521357309744
139592825;283490;00801GGB07;GGB;Grondgebruik;GGI;Inrit;inrit;Stadsdeel Loosduinen;Verleend;2007-03-28;;2007-03-28;;150671;463798;IJzerwerf;20330;17;;;2544 EP;2010-10-26;;77019.54;451340.478;4.250482931206204;52.04489170446255
170376684;4156720;00467GGB14;GGB;Grondgebruik;GGK;Kadegebruik;kadegebruik 14x3 meter voor woonschip Mallorca t.b.v. plaatsen berging en erfafscheiding.;Riolen en Water;In behandeling;2014-04-29;;2014-08-20;2030-08-20;323780;471261;Veenkade;18470;195;;;2513 EM;2009-05-12;;80200.452;454871.89;4.296069322011148;52.0770661778482
570383102;693831;00350GGB09;GGB;Grondgebruik;GGI;Inrit;aanleggen inrit;Handhavingsorganisatie;Verleend;2009-04-03;;2009-05-14;;317539;468422;De Rhijenhof;20950;6;D;;2548 AA;2010-10-26;;78774.053;450121.109;4.276325681955948;52.034177645737465
148265166;4156710;00464GGB14;GGB;Grondgebruik;GGK;Kadegebruik;kadegebruik t.b.v. plaatsen berging en erfafscheiding;Riolen en Water;In behandeling;2014-04-29;;2014-08-20;2030-08-20;323778;471281;Veenkade;18470;197;;;2513 EM;2009-05-12;;80251.771;454906.111;4.296810307550094;52.07738064357161
192055979;4133681;00967GGB13;GGB;Grondgebruik;GTN;terrasvergunning;aanvraag Terras locatie Laan van Eik en Duinen 157;Handhavingsorganisatie;Verleend;2013-08-19;;2013-10-04;2101-10-04;105463;706303;Laan van Eik en Duinen;10030;157;;;2564 GN;2010-10-26;;77964.387;454252.261;4.263596651423899;52.071191173461074
766609224;696121;00720GGB09;GGB;Grondgebruik;GGI;Inrit;uitritvergunning, Van Speijkstaat 49;Handhavingsorganisatie;Verleend;2009-05-04;;2009-06-08;;187404;692351;Van Speijkstraat;16880;49;;;2518 EW;2010-10-26;;80003.281;455564.21;4.29304139608579;52.083261194963725
279262286;697460;00875GGB09;GGB;Grondgebruik;GGI;Inrit;inritvergunning;Handhavingsorganisatie;Verleend;2009-05-25;;2009-08-28;;41872;690704;Professor Kaiserstraat;14640;55;;;2562 KA;2010-10-26;;78877.93;454457.481;4.276872999640904;52.07316176366451
825761801;4130749;00830GGB13;GGB;Grondgebruik;GTN;terrasvergunning;aanvraag Terras locatie Prins Willemstraat 1A;Handhavingsorganisatie;Verleend;2013-07-18;;2013-09-09;2032-12-09;41779;674315;Prins Willemstraat;14610;1;A;;2584 HR;2010-10-26;;78907.211;457847.804;4.276543420990046;52.10363350144463
43321829;4007293;02388GGB09;GGB;Grondgebruik;GGI;Inrit;2e Uitweg;Handhavingsorganisatie;Verleend;2009-11-20;;2010-01-06;;232229;670124;Minckelersstraat;11980;10;;;2522 CE;2010-10-26;;82430.512;453132.963;4.328964476561766;52.06173548877533
988437201;280744;00017GGB07;GGB;Grondgebruik;GGI;Inrit;;Stadsdeel Leidschenveen-Ypenburg;Verleend;2007-01-08;;2007-04-19;;307641;374793;Wartnalaan;21620;26;;;2493 BG;2010-10-26;;86880.55;452884.415;4.39389655244146;52.06006670358758
939245756;4102314;01154GGB12;GGB;Grondgebruik;GSN;Standplaats;Ockenburg indidentele standplaatsvergunning (koek en zopie) tijdens periodes dat het vriest;Handhavingsorganisatie;Verleend;2012-09-26;;2012-10-18;;151067;374806;Wijndaelerduin;20199;25;;;2554 BX;2010-10-26;;75042.328;453176.171;4.221237085864023;52.0611065715728
65314291;4126852;00656GGB13;GGB;Grondgebruik;GTN;terrasvergunning;aanvraag Terras locatie Mauritskade 79;Handhavingsorganisatie;Verleend;2013-06-11;;2013-08-01;2035-08-01;13247;374435;Mauritskade;11560;79;;;2514 HH;2010-10-26;;81246.996;455872.133;4.311116844435743;52.08619551234892
808142447;683178;01850GGB08;GGB;Grondgebruik;GGI;Inrit;inrit;Stadsdeel Haagse Hout;Verleend;2008-10-20;;2008-12-29;;23366;379174;Nassau Odijckstraat;12390;65;;;2596 AG;2010-10-26;;81602.494;456204.411;4.316231311202924;52.08922886560779
917016945;4133974;00983GGB13;GGB;Grondgebruik;GTN;terrasvergunning;aanvraag Terras locatie Heelsumstraat 27;Handhavingsorganisatie;Verleend;2013-08-22;;2013-09-24;2100-09-01;136645;543086;Heelsumstraat;06710;27;;;2573 NE;2010-10-26;;79085.393;453986.291;4.280003359794811;52.06895579804399
650486109;285810;01356GGB07;GGB;Grondgebruik;GGI;Inrit;Het maken van een tijdelijke uitrit;Stadsdeel Centrum;Verleend;2007-02-20;;2007-06-15;;13185;374395;Mauritskade;11560;4;;;2514 HC;2010-10-26;;80824.163;455664.022;4.30499385660424;52.084268776906995
62838555;4180729;00060GGB15;GGB;Grondgebruik;GTN;terrasvergunning;aanvraag Zomer- en winterterras locatie Thomsonlaan 90E;Handhavingsorganisatie;Verleend;2015-01-26;;2015-03-17;2061-03-18;309102;568360;Thomsonlaan;17870;90;E;;2565 JE;2010-10-26;;78387.917;455094.196;4.269583907636559;52.07881613106913
991014438;4005771;02131GGB09;GGB;Grondgebruik;GGI;Inrit;Schokkerweg 5, inrit;Handhavingsorganisatie;Verleend;2009-09-28;;2009-11-19;;204606;563850;Schokkerweg;16170;5;;;2583 BH;2010-10-26;;78458.421;457560.599;4.270058530181415;52.10099058612561
583841596;4011006;00126GGB10;GGB;Grondgebruik;GGI;Inrit;inrit;Handhavingsorganisatie;Verleend;2010-02-04;;2010-03-31;;8667;545859;Lijsterbesstraat;11120;4;;;2563 KW;2010-10-26;;78025.253;454648.376;4.264394904216229;52.07475939251062
147790153;4163016;00707GGB14;GGB;Grondgebruik;GTN;terrasvergunning;aanvraag Terras locatie Laan van Meerdervoort 52V;Handhavingsorganisatie;Verleend;2014-07-08;;2014-09-24;2050-12-31;282110;551933;Laan van Meerdervoort;10040;52;V;;2517 AM;2010-10-26;;80207.352;455774.127;4.29597213038013;52.08517527043566
176787228;696724;00794GGB09;GGB;Grondgebruik;GGI;Inrit;uitrit;Handhavingsorganisatie;Verleend;2009-05-12;;2009-09-17;;149878;550513;Leeuweriklaan;10480;13;;;2566 JB;2010-10-26;;77948.602;455715.339;4.263036028950807;52.08433715624872
95545171;4154460;00350GGB14;GGB;Grondgebruik;GTN;terrasvergunning;aanvraag Terras locatie Hoefkade 890;Handhavingsorganisatie;Verleend;2014-04-01;;2014-04-23;2099-12-31;315524;538511;Hoefkade;07220;890;;;2526 CW;2010-10-26;;81021.714;453611.79;4.308320523194846;52.06585227538748
627967331;697133;00841GGB09;GGB;Grondgebruik;GGI;Inrit;uitrit;Handhavingsorganisatie;Verleend;2009-05-18;;2009-07-06;;16467;548938;Meppelrade;11755;2;;;2544 XV;2010-10-26;;77734.854;451890.524;4.260783770900619;52.04993501027385
772775179;4132371;00886GGB13;GGB;Grondgebruik;GTN;terrasvergunning;aanvraag Terras locatie Vreeswijkstraat 240;Handhavingsorganisatie;Verleend;2013-08-05;;2013-08-29;2030-12-29;163342;600122;Vreeswijkstraat;19160;240;;;2546 CE;2010-10-26;;78527.451;452484.227;4.272203749613405;52.05538041941581
770822206;4152365;00260GGB14;GGB;Grondgebruik;GTN;terrasvergunning;aanvraag Terras locatie Boekhorststraat 5;DECO;Verleend;2014-03-14;;2014-04-29;2099-12-31;226091;577789;Boekhorststraat;01970;5;;;2512 CL;2010-10-26;;81062.801;454614.962;4.308702308600652;52.07487304623788
464497106;4018428;00657GGB10;GGB;Grondgebruik;GGI;Inrit;Duinstraat 4, tijdelijke inrit;Handhavingsorganisatie;Verleend;2010-05-12;;2010-07-19;;59931;579692;Duinstraat;04400;4;;;2584 AZ;2010-10-26;;78989.095;457647.764;4.2777830245624955;52.10184706998769
15976069;693115;00308GGB09;GGB;Grondgebruik;GGI;Inrit;uitritvergunning;Handhavingsorganisatie;Verleend;2009-03-25;;2009-04-24;;288533;557903;Madepolderweg;11225;51;D;;2553 EG;2010-10-26;;74835.42;450269.193;4.218902422454795;52.03495282445873
205777296;288000;01706GGB07;GGB;Grondgebruik;GGI;Inrit;het maken van een uitrit;Stadsdeel Centrum;Verleend;2007-08-30;;2007-09-26;;63986;579843;Van Diemenstraat;03870;165;;;2518 VA;2010-10-26;;79879.984;455370.805;4.291285468886874;52.08150640154988
585751069;278963;02186GGB06;GGB;Grondgebruik;GSN;Standplaats;de verkoop van bewerkte vis, vissnacks etc.;Stadsdeel Loosduinen;Verleend;2006-10-09;;2006-10-20;;130359;621436;Hildo Kroplaan;07155;97;;;2552 XP;2010-10-26;;77015.744;452403.276;4.250185048441982;52.05444219535358
59938111;4028453;01274GGB10;GGB;Grondgebruik;GGI;Inrit;van Boetzelaerlaan 31 /Hoek 2e Antonius Heinsiusstraat, uitweg;Handhavingsorganisatie;Verleend;2010-09-24;;2010-11-25;;81446;609978;Van Boetzelaerlaan;02030;31;;;2581 AB;2010-10-26;;78637.286;456017.138;4.273014414976804;52.08714476040387
880977473;4173971;01167GGB14;GGB;Grondgebruik;GGK;Kadegebruik;een berging 2,40mx2,50m;Riolen en Water;Verleend;2014-11-10;;2015-02-10;2030-02-10;310450;590338;Troelstrakade;18140;42;;;2531 AV;2010-10-26;;80371.694;452705.32;4.2990405267365785;52.057618839378215
979906392;271029;00076GGB06;GGB;Grondgebruik;GGI;Inrit;uitweg;Stadsdeel Escamp;Verleend;2006-01-12;;2010-02-03;;310682;576748;Hans Lodeizenstraat;21222;5;;;2548 EN;2010-10-26;;79120.285;450204.469;4.281352094277913;52.03497428776561
518278116;4013664;00333GGB10;GGB;Grondgebruik;GGI;Inrit;Theo Mann Bouwmeesterlaan 75, plaatsen van een in/uitrit;Handhavingsorganisatie;Verleend;2010-03-10;;2010-04-12;;324190;593727;Theo Mann-Bouwmeesterlaan;17810;75;;;2597 GV;2009-07-06;;82337.506;458039.492;4.326563149775041;52.10581729642302
44799897;687869;00023GGB09;GGB;Grondgebruik;GGI;Inrit;Marcus Aureliuslaan 6;Handhavingsorganisatie;Verleend;2009-01-15;;2009-02-20;;317240;598203;Marcus Aureliuslaan;21680;6;;;2493 ZW;2010-10-26;;86898.69;452670.701;4.394203641933399;52.05814828452547
649707621;4164971;00796GGB14;GGB;Grondgebruik;GGO;Overig op/in straat;Vuursteen 5, verzoek tot het plaatsen van een vetput;Handhavingsorganisatie;Verleend;2014-07-28;;2014-10-01;2035-10-02;339740;596597;Vuursteen;21644;5;;;2497 CZ;2010-10-26;;85106.558;450721.068;4.368474993615696;52.04040390495851
31688201;4005277;02085GGB09;GGB;Grondgebruik;GGI;Inrit;Trompstraat 8, uitwegvergunning;Handhavingsorganisatie;Verleend;2009-09-21;;2010-01-07;;232981;592272;Trompstraat;18150;8;;;2518 BN;2010-10-26;;80474.482;455497.409;4.299929373009787;52.082724507489
484410431;4174898;01214GGB14;GGB;Grondgebruik;GTN;terrasvergunning;aanvraag Zomerterras locatie Abdis Aleydishof 3;Handhavingsorganisatie;Verleend;2014-11-18;;2014-11-18;;318218;597020;Abdis Aleydishof;21713;3;;;2544 NR;2010-10-26;;76839.947;449953.906;4.248182466625098;52.03240570245998
445587458;689409;00080GGB09;GGB;Grondgebruik;GSN;Standplaats;standplaatsvergunning;Handhavingsorganisatie;Verleend;2009-02-06;;2009-03-16;;233025;593454;Theo Mann-Bouwmeesterlaan;17810;1;;;2597 GT;2010-10-26;;82085.384;457975.285;4.3228973246555435;52.105207116955256
401082194;289238;01882GGB07;GGB;Grondgebruik;GGI;Inrit;inrit Ketelstraat 1;Stadsdeel Laak;Verleend;2007-10-26;;2007-12-14;;111748;653815;Ketelstraat;09050;1;;;2516 VT;2010-10-26;;82883.863;453155.564;4.335569576380266;52.061997795368875
452295764;293560;00755GGB08;GGB;Grondgebruik;GGI;Inrit;[<Vul de omschrijving in];Stadsdeel Laak;Verleend;2008-04-08;;2008-05-30;;2460;655802;Linnaeusstraat;10660;311;;;2522 GP;2010-10-26;;81990.209;452570.685;4.322665068635384;52.05662454355543
78957043;267933;V1022832;GGB;Grondgebruik;GGI;Inrit;;Stadsdeel Leidschenveen-Ypenburg;Verleend;2005-08-04;;2005-09-05;;295043;738784;Weidevogellaan;21329;76;;;2496 LL;2010-10-26;;85866.785;451741.087;4.379347615138996;52.049666111643646
123730949;272270;00543GGB06;GGB;Grondgebruik;GSN;Standplaats;verkoop van bloemen en planten;Stadsdeel Escamp;Verleend;2006-02-20;;2006-02-28;;305691;656017;Leyweg;10580;539;W;;2545 GG;2010-10-26;;78645.75;451882.69;4.274062726423793;52.04999088622646
540890523;283262;00716GGB07;GGB;Grondgebruik;GSN;Standplaats;het verkopen van patat, (vis ) snacks, donee , shoarma en alcoholvrije dranken;Stadsdeel Centrum;Verleend;2007-02-16;;2007-03-26;;36329;716589;Paul Krugerplein;13850;25;;;2571 HV;2010-10-26;;79776.887;453910.519;4.290103585835855;52.06836921226166
902602905;287250;01598GGB07;GGB;Grondgebruik;GGI;Inrit;inrit 8,50 m bij 4.00 m;Stadsdeel Segbroek;Verleend;2007-07-30;;2007-08-28;;166388;739122;Vliegenvangerlaan;18920;10;;;2566 RN;2010-10-26;;76936.85;454847.908;4.248475997575689;52.07640012218654
315453701;4089541;00692GGB12;GGB;Grondgebruik;GGO;Overig op/in straat;Noordwijkselaan 9, het plaatsen van 2 monumentjes;Handhavingsorganisatie;Verleend;2012-05-23;;2012-07-16;2099-12-31;28123;713274;Noordwijkselaan;12940;9;;;2554 GB;2010-10-26;;75566.079;454079.565;4.228662898153208;52.06930036647759
630290663;693254;00318GGB09;GGB;Grondgebruik;GSN;Standplaats;bloemen en planten;Handhavingsorganisatie;Verleend;2008-05-28;;2009-04-20;;305694;655989;Leyweg;10580;657;W;;2545 GK;2010-10-26;;78923.378;451577.619;4.278177356564875;52.04728747871956
33633721;4067473;01267GGB11;GGB;Grondgebruik;GSN;Standplaats;Melis Stokelaan t.o. 582, standplaatsvergunning;Handhavingsorganisatie;Verleend;2011-11-01;;2011-11-28;;14657;664240;Melis Stokelaan;11710;582;;;2533 EP;2010-10-26;;79737.532;452023.715;4.2899455387321845;52.05140762182341
592122563;691469;00207GGB09;GGB;Grondgebruik;GGI;Inrit;uitwegvergunning;Handhavingsorganisatie;Verleend;2009-03-06;;2009-03-09;;57827;899749;Elandstraat;04720;1;A;;2513 GL;2010-10-26;;80523.759;455453.531;4.300657745658933;52.08233681834999
523797799;689699;00105GGB09;GGB;Grondgebruik;GGI;Inrit;uitwegvergunning;Handhavingsorganisatie;Verleend;2009-02-11;;2009-03-05;;235042;715229;Piet Heinstraat;14100;52;;;2518 CJ;2010-10-26;;80451.926;455438.077;4.299613321691681;52.082188269592855
744076529;4135011;01032GGB13;GGB;Grondgebruik;GTN;terrasvergunning;aanvraag Terras locatie Van Hogenhoucklaan 168;Handhavingsorganisatie;Verleend;2013-09-04;;2013-10-17;2100-10-17;127803;620227;Van Hogenhoucklaan;07370;168;;;2596 TJ;2010-10-26;;81483.285;457579.281;4.314195641732175;52.10156865922891
628749852;4022537;00884GGB10;GGB;Grondgebruik;GGI;Inrit;Kraaienlaan 45, uitritvergunning;Handhavingsorganisatie;Verleend;2010-07-09;;2010-08-23;;107650;625902;Kraaienlaan;09710;45;;;2566 RC;2010-10-26;;76651.512;454672.449;4.24435477459073;52.07478303346988
456477347;4005744;02125GGB09;GGB;Grondgebruik;GGI;Inrit;van Hoytemastraat 6, uitwegvergunning;Handhavingsorganisatie;Verleend;2009-09-25;;2009-12-16;;125078;625414;Van Hoytemastraat;07770;6;;;2596 ER;2010-10-26;;82260.5;456418.565;4.325785256037859;52.091240275583424
685968286;283400;00774GGB07;GGB;Grondgebruik;GGI;Inrit;uitrit;Stadsdeel Loosduinen;Verleend;2007-03-27;;2007-04-23;;65589;632164;Dekkershoek;03735;41;;;2552 DB;2010-10-26;;76434.074;451529.385;4.241906789269828;52.046506650544764
236327315;676306;01280GGB08;GGB;Grondgebruik;GGI;Inrit;uitritvergunning Metropole;Stadsdeel Scheveningen;Verleend;2008-07-15;;2008-11-10;;74911;631439;Carnegielaan;02860;1;;;2517 KH;2010-10-26;;80045.27;456075.359;4.2935415404603665;52.08786043312252
482884286;700549;01149GGB09;GGB;Grondgebruik;GGI;Inrit;inritvergunning;Handhavingsorganisatie;Verleend;2009-07-01;;2009-08-25;;32529;814233;Oude Haagweg;13425;329;;;2552 ER;2010-10-26;;76914.488;452756.907;4.248628161422819;52.057605894923974
620138634;696028;00703GGB09;GGB;Grondgebruik;GGI;Inrit;inrit Jan ten Brinkstraat;Handhavingsorganisatie;Verleend;2009-05-01;;2009-06-08;;33079;815036;Oudemansstraat;13430;309;;;2522 SV;2010-10-26;;82330.161;452949.411;4.327540419482445;52.06007278270092
753735493;671826;00959GGB08;GGB;Grondgebruik;GGI;Inrit;inrit Leeghwaterplein 72;Stadsdeel Laak;Verleend;2008-05-19;;2008-09-25;;312584;804840;Leeghwaterplein;10420;72;;;2521 DB;2010-10-26;;81845.666;453704.929;4.320314878825635;52.06679872945036
388268941;4131241;00844GGB13;GGB;Grondgebruik;GTN;terrasvergunning;aanvraag Terras locatie Tarwekamp 69;Handhavingsorganisatie;Verleend;2013-07-24;;2013-09-04;2100-09-04;178904;729936;Tarwekamp;17630;69;;;2592 XH;2010-10-26;;84177.703;456095.476;4.35382383074998;52.08858531915193
434487385;4042426;00209GGB11;GGB;Grondgebruik;GGC;Container op straat;Stuyvesantstraat 243, plaatsen container vanaf 19 april tot 30 mei 2011;Handhavingsorganisatie;In behandeling;2011-02-23;;2011-04-06;;180934;728890;Stuyvesantstraat;17410;243;;;2593 GH;2010-10-26;;83489.076;455929.827;4.343812300942593;52.087008142125725
801627318;691224;00191GGB09;GGB;Grondgebruik;GGI;Inrit;in-en uitrit, Elandstraat 73;Handhavingsorganisatie;Verleend;2009-02-16;;2009-03-03;;57763;899130;Elandstraat;04720;73;;;2513 GM;2010-10-26;;80334.999;455326.677;4.297932140819889;52.08117138961042
859863141;676306;01280GGB08;GGB;Grondgebruik;GGI;Inrit;uitritvergunning Metropole;Stadsdeel Scheveningen;Verleend;2008-07-15;;2008-11-10;;74914;631442;Carnegielaan;02860;7;;;2517 KH;2010-10-26;;79947.185;455947.069;4.29213887264725;52.08669423724778
949753653;676306;01280GGB08;GGB;Grondgebruik;GGI;Inrit;uitritvergunning Metropole;Stadsdeel Scheveningen;Verleend;2008-07-15;;2008-11-10;;74915;631443;Carnegielaan;02860;9;;;2517 KH;2010-10-26;;79941.448;455915.405;4.292062150605804;52.086408904141
904811725;676306;01280GGB08;GGB;Grondgebruik;GGI;Inrit;uitritvergunning Metropole;Stadsdeel Scheveningen;Verleend;2008-07-15;;2008-11-10;;74916;631444;Carnegielaan;02860;11;;;2517 KH;2010-10-26;;79956.698;455842.701;4.292300615566331;52.085757601769274
869603967;676306;01280GGB08;GGB;Grondgebruik;GGI;Inrit;uitritvergunning Metropole;Stadsdeel Scheveningen;Verleend;2008-07-15;;2008-11-10;;211983;631451;Carnegielaan;02860;8;;;2517 KH;2010-10-26;;80055.398;455796.753;4.293750522356475;52.0853580519348
430069009;676306;01280GGB08;GGB;Grondgebruik;GGI;Inrit;uitritvergunning Metropole;Stadsdeel Scheveningen;Verleend;2008-07-15;;2008-11-10;;211984;631452;Carnegielaan;02860;10;;;2517 KH;2010-10-26;;80055.398;455796.753;4.293750522356475;52.0853580519348
57824916;676306;01280GGB08;GGB;Grondgebruik;GGI;Inrit;uitritvergunning Metropole;Stadsdeel Scheveningen;Verleend;2008-07-15;;2008-11-10;;211985;631453;Carnegielaan;02860;14;;;2517 KH;2010-10-26;;80055.398;455796.753;4.293750522356475;52.0853580519348
806330424;676306;01280GGB08;GGB;Grondgebruik;GGI;Inrit;uitritvergunning Metropole;Stadsdeel Scheveningen;Verleend;2008-07-15;;2008-11-10;;211982;631458;Carnegielaan;02860;6;;;2517 KH;2010-10-26;;80055.398;455796.753;4.293750522356475;52.0853580519348
297176047;288934;01834GGB07;GGB;Grondgebruik;GGC;Container op straat;vetvangput;Stadsdeel Loosduinen;Verleend;2007-10-15;;2007-10-15;2035-10-15;65847;631577;De Werf;03725;13;;;2544 EH;2010-10-26;;76645.632;451102.059;4.245088158454318;52.042696365698156
285867591;277592;01993GGB06;GGB;Grondgebruik;GGI;Inrit;inrit;Stadsdeel Loosduinen;Verleend;2006-08-03;;2006-08-30;;65847;631577;De Werf;03725;13;;;2544 EH;2010-10-26;;76645.632;451102.059;4.245088158454318;52.042696365698156
798084041;4002232;01712GGB09;GGB;Grondgebruik;GGI;Inrit;inrit;Handhavingsorganisatie;Verleend;2009-08-10;;2009-09-17;;118056;629260;Jan van Rodestraat;08380;23;;;2531 XP;2010-10-26;;80199.63;452664.006;4.296541127290768;52.05722435353445
942541831;678118;01578GGB08;GGB;Grondgebruik;GGI;Inrit;in-en uitrit;Stadsdeel Haagse Hout;Verleend;2008-08-01;;2008-11-07;;83728;480351;Bezuidenhoutseweg;01670;157;;;2594 AG;2010-10-26;;82740.458;455874.708;4.332902930381711;52.0864155981557
476503108;676306;01280GGB08;GGB;Grondgebruik;GGI;Inrit;uitritvergunning Metropole;Stadsdeel Scheveningen;Verleend;2008-07-15;;2008-11-10;;317082;631490;Carnegielaan;02860;20;;;2517 KH;2010-10-26;;80057.028;455776.617;4.29377872506071;52.08517731604918
769392059;682248;01804GGB08;GGB;Grondgebruik;GGI;Inrit;inrit 3.50x2.60 1-11-08 tegels en stenen;Stadsdeel Scheveningen;Verleend;2008-10-03;;2008-11-17;;316237;738151;Violenweg;18760;12;;;2597 KL;2010-10-26;;80663.273;457759.276;4.302189993460733;52.10307666543635
981989883;263427;V1018927;GGB;Grondgebruik;GGI;Inrit;;Stadsdeel Leidschenveen-Ypenburg;Verleend;2005-03-01;;2005-04-28;;290146;736547;Boswinde;21316;143;;;2496 WH;2010-10-26;;84848.42;451317.631;4.364590660006955;52.04573259874529
303801598;288820;01823GGB07;GGB;Grondgebruik;GGI;Inrit;inrit 2 meter lengte 1 meter breedte/diepte;Stadsdeel Leidschenveen-Ypenburg;Verleend;2007-10-09;;2007-10-09;;307372;746684;Oude Middenweg;21563;88;;;2491 AD;2010-10-26;;87663.784;454589.109;4.404979683932265;52.07548253291593
655714059;271989;00455GGB06;GGB;Grondgebruik;GGI;Inrit;;Stadsdeel Leidschenveen-Ypenburg;Verleend;2006-02-09;;2006-03-07;;305222;747727;Melkeppe;21575;32;;;2498 CW;2010-10-26;;86158.1;450192.124;4.383905876157212;52.03578182153099
681337002;275918;01770GGB06;GGB;Grondgebruik;GGI;Inrit;;Stadsdeel Leidschenveen-Ypenburg;Verleend;2006-06-01;;2006-06-29;;305244;747744;Melkeppe;21575;76;;;2498 CW;2010-10-26;;86029.463;450103.592;4.382049271510299;52.03497019973568
211909248;676306;01280GGB08;GGB;Grondgebruik;GGI;Inrit;uitritvergunning Metropole;Stadsdeel Scheveningen;Verleend;2008-07-15;;2008-11-10;;317110;631499;Carnegielaan;02860;50;;;2517 KH;2010-10-26;;80056.865;455770.816;4.293777622062695;52.08512516202504
857191051;676306;01280GGB08;GGB;Grondgebruik;GGI;Inrit;uitritvergunning Metropole;Stadsdeel Scheveningen;Verleend;2008-07-15;;2008-11-10;;317111;631500;Carnegielaan;02860;84;;;2517 KH;2010-10-26;;80070.497;455756.778;4.293979563531451;52.08500085186955
321944889;676306;01280GGB08;GGB;Grondgebruik;GGI;Inrit;uitritvergunning Metropole;Stadsdeel Scheveningen;Verleend;2008-07-15;;2008-11-10;;317112;631501;Carnegielaan;02860;52;;;2517 KH;2010-10-26;;80062.974;455762.753;4.2938685089689725;52.085053529146954
954649428;676306;01280GGB08;GGB;Grondgebruik;GGI;Inrit;uitritvergunning Metropole;Stadsdeel Scheveningen;Verleend;2008-07-15;;2008-11-10;;317113;631502;Carnegielaan;02860;54;;;2517 KH;2010-10-26;;80056.865;455770.816;4.293777622062695;52.08512516202504
54445182;676306;01280GGB08;GGB;Grondgebruik;GGI;Inrit;uitritvergunning Metropole;Stadsdeel Scheveningen;Verleend;2008-07-15;;2008-11-10;;317114;631503;Carnegielaan;02860;56;;;2517 KH;2010-10-26;;80056.865;455770.816;4.293777622062695;52.08512516202504
304976445;676306;01280GGB08;GGB;Grondgebruik;GGI;Inrit;uitritvergunning Metropole;Stadsdeel Scheveningen;Verleend;2008-07-15;;2008-11-10;;317085;631504;Carnegielaan;02860;24;;;2517 KH;2010-10-26;;80062.974;455762.753;4.2938685089689725;52.085053529146954
716501703;676306;01280GGB08;GGB;Grondgebruik;GGI;Inrit;uitritvergunning Metropole;Stadsdeel Scheveningen;Verleend;2008-07-15;;2008-11-10;;317086;631505;Carnegielaan;02860;26;;;2517 KH;2010-10-26;;80056.865;455770.816;4.293777622062695;52.08512516202504
851500214;676306;01280GGB08;GGB;Grondgebruik;GGI;Inrit;uitritvergunning Metropole;Stadsdeel Scheveningen;Verleend;2008-07-15;;2008-11-10;;317087;631506;Carnegielaan;02860;60;;;2517 KH;2010-10-26;;80070.497;455756.778;4.293979563531451;52.08500085186955
848023567;676306;01280GGB08;GGB;Grondgebruik;GGI;Inrit;uitritvergunning Metropole;Stadsdeel Scheveningen;Verleend;2008-07-15;;2008-11-10;;317088;631507;Carnegielaan;02860;62;;;2517 KH;2010-10-26;;80078.773;455752.571;4.294101213797277;52.084964164922944
342631346;676306;01280GGB08;GGB;Grondgebruik;GGI;Inrit;uitritvergunning Metropole;Stadsdeel Scheveningen;Verleend;2008-07-15;;2008-11-10;;317089;631508;Carnegielaan;02860;28;;;2517 KH;2010-10-26;;80062.974;455762.753;4.2938685089689725;52.085053529146954
62543213;676306;01280GGB08;GGB;Grondgebruik;GGI;Inrit;uitritvergunning Metropole;Stadsdeel Scheveningen;Verleend;2008-07-15;;2008-11-10;;317090;631509;Carnegielaan;02860;30;;;2517 KH;2010-10-26;;80056.865;455770.816;4.293777622062695;52.08512516202504
531099176;676306;01280GGB08;GGB;Grondgebruik;GGI;Inrit;uitritvergunning Metropole;Stadsdeel Scheveningen;Verleend;2008-07-15;;2008-11-10;;317091;631510;Carnegielaan;02860;64;;;2517 KH;2010-10-26;;80070.497;455756.778;4.293979563531451;52.08500085186955
184761747;676306;01280GGB08;GGB;Grondgebruik;GGI;Inrit;uitritvergunning Metropole;Stadsdeel Scheveningen;Verleend;2008-07-15;;2008-11-10;;317092;631511;Carnegielaan;02860;66;;;2517 KH;2010-10-26;;80078.773;455752.571;4.294101213797277;52.084964164922944
17993632;676306;01280GGB08;GGB;Grondgebruik;GGI;Inrit;uitritvergunning Metropole;Stadsdeel Scheveningen;Verleend;2008-07-15;;2008-11-10;;317093;631512;Carnegielaan;02860;32;;;2517 KH;2010-10-26;;80062.974;455762.753;4.2938685089689725;52.085053529146954
888819728;676306;01280GGB08;GGB;Grondgebruik;GGI;Inrit;uitritvergunning Metropole;Stadsdeel Scheveningen;Verleend;2008-07-15;;2008-11-10;;317094;631513;Carnegielaan;02860;34;;;2517 KH;2010-10-26;;80056.865;455770.816;4.293777622062695;52.08512516202504
416181783;271494;00296GGB06;GGB;Grondgebruik;GGI;Inrit;;Stadsdeel Segbroek;Verleend;2006-01-25;;2006-02-22;;142642;635769;Govert Bidloostraat;06030;143;;;2563 XE;2010-10-26;;78580.209;454630.147;4.2724925019424065;52.07467244869846
435388515;4158942;00561GGB14;GGB;Grondgebruik;GTN;terrasvergunning;aanvraag Terras locatie Nunspeetlaan 110;DECO;Verleend;2014-05-23;;2014-06-24;2050-12-31;28756;822766;Nunspeetlaan;13010;110;;;2573 HK;2010-10-26;;79377.904;453841.342;4.284300930219451;52.0676932009826
798893078;4132397;00890GGB13;GGB;Grondgebruik;GTN;terrasvergunning;aanvraag Terras locatie Prins Hendrikstraat 113;Handhavingsorganisatie;Verleend;2013-08-05;;2013-08-06;2039-08-06;41519;823124;Prins Hendrikstraat;14560;113;;;2518 HM;2010-10-26;;79905.912;455343.591;4.291669654643002;52.08126535457218
773268891;271515;00310GGB06;GGB;Grondgebruik;GGI;Inrit;;Stadsdeel Leidschenveen-Ypenburg;Verleend;2006-01-25;;2006-03-07;;293282;735278;Boswinde;21316;96;;;2496 WJ;2010-10-26;;84994.911;451455.198;4.366697573090171;52.04698742468474
248627337;4020200;00771GGB10;GGB;Grondgebruik;GGI;Inrit;Escamplaan 61 E, inritvergunning;Handhavingsorganisatie;Verleend;2010-06-09;;2010-07-08;;336881;758313;Escamplaan;05010;61;E;;2547 GA;2010-04-15;;78856.654;453531.455;4.2767692957697845;52.06483691491265
291867194;4021116;00812GGB10;GGB;Grondgebruik;GGI;Inrit;Tasmanstraat tussen 143-145, uitwegvergunning.;Handhavingsorganisatie;Verleend;2010-06-21;;2010-07-29;;178649;771808;Tasmanstraat;17640;143;;;2518 VM;2010-10-26;;79793.659;455575.777;4.289981109156268;52.083336705950394
824016513;280823;00028GGB07;GGB;Grondgebruik;GGI;Inrit;;Stadsdeel Segbroek;Verleend;2007-01-10;;2007-02-12;;139609;784867;Hanenburglaan;06460;204;;;2565 HA;2010-10-26;;78109.885;455158.882;4.265514129183529;52.07935889668488
772670074;4163604;00731GGB14;GGB;Grondgebruik;GSN;Standplaats;Thomsonplein ter hoogte van nummer 15, standplaats vergunning;Handhavingsorganisatie;Verleend;2014-07-14;;2014-12-02;;339094;718715;Thomsonplein;17880;15;;;2565 KT;2010-08-10;;78473.789;455174.171;4.2708184434823995;52.07954671691251
743794795;672851;01019GGB08;GGB;Grondgebruik;GGI;Inrit;inrit van 4.00 m x 2.00 m;Stadsdeel Segbroek;Verleend;2008-06-03;;2008-06-26;;201521;736061;Zwanenlaan;20850;16;;;2566 EM;2010-10-26;;77422.61;455527.836;4.255405961876677;52.082578666221075
196601776;4042074;00198GGB11;GGB;Grondgebruik;GGK;Kadegebruik;27,50 x 3,00 meter;Riolen en Water;Verleend;2011-02-21;;2011-03-14;2060-03-14;317707;717386;Soestdijksekade;16710;863;;;2574 AX;2010-10-26;;78461.434;453613.174;4.270988338363885;52.06551682115783
140055475;676306;01280GGB08;GGB;Grondgebruik;GGI;Inrit;uitritvergunning Metropole;Stadsdeel Scheveningen;Verleend;2008-07-15;;2008-11-10;;317095;631758;Carnegielaan;02860;68;;;2517 KH;2010-10-26;;80070.497;455756.778;4.293979563531451;52.08500085186955
160079042;676306;01280GGB08;GGB;Grondgebruik;GGI;Inrit;uitritvergunning Metropole;Stadsdeel Scheveningen;Verleend;2008-07-15;;2008-11-10;;317096;631759;Carnegielaan;02860;70;;;2517 KH;2010-10-26;;80078.773;455752.571;4.294101213797277;52.084964164922944
145555173;676306;01280GGB08;GGB;Grondgebruik;GGI;Inrit;uitritvergunning Metropole;Stadsdeel Scheveningen;Verleend;2008-07-15;;2008-11-10;;317097;631760;Carnegielaan;02860;36;;;2517 KH;2010-10-26;;80062.974;455762.753;4.2938685089689725;52.085053529146954
790425732;676306;01280GGB08;GGB;Grondgebruik;GGI;Inrit;uitritvergunning Metropole;Stadsdeel Scheveningen;Verleend;2008-07-15;;2008-11-10;;317098;631761;Carnegielaan;02860;38;;;2517 KH;2010-10-26;;80056.865;455770.816;4.293777622062695;52.08512516202504
960079349;676306;01280GGB08;GGB;Grondgebruik;GGI;Inrit;uitritvergunning Metropole;Stadsdeel Scheveningen;Verleend;2008-07-15;;2008-11-10;;317099;631762;Carnegielaan;02860;72;;;2517 KH;2010-10-26;;80070.497;455756.778;4.293979563531451;52.08500085186955
895487108;676306;01280GGB08;GGB;Grondgebruik;GGI;Inrit;uitritvergunning Metropole;Stadsdeel Scheveningen;Verleend;2008-07-15;;2008-11-10;;317100;631763;Carnegielaan;02860;74;;;2517 KH;2010-10-26;;80078.773;455752.571;4.294101213797277;52.084964164922944
222944479;676306;01280GGB08;GGB;Grondgebruik;GGI;Inrit;uitritvergunning Metropole;Stadsdeel Scheveningen;Verleend;2008-07-15;;2008-11-10;;317101;631764;Carnegielaan;02860;40;;;2517 KH;2010-10-26;;80062.974;455762.753;4.2938685089689725;52.085053529146954
366910635;676306;01280GGB08;GGB;Grondgebruik;GGI;Inrit;uitritvergunning Metropole;Stadsdeel Scheveningen;Verleend;2008-07-15;;2008-11-10;;317102;631765;Carnegielaan;02860;42;;;2517 KH;2010-10-26;;80056.865;455770.816;4.293777622062695;52.08512516202504
967113223;676306;01280GGB08;GGB;Grondgebruik;GGI;Inrit;uitritvergunning Metropole;Stadsdeel Scheveningen;Verleend;2008-07-15;;2008-11-10;;317103;631766;Carnegielaan;02860;76;;;2517 KH;2010-10-26;;80070.497;455756.778;4.293979563531451;52.08500085186955
347202104;676306;01280GGB08;GGB;Grondgebruik;GGI;Inrit;uitritvergunning Metropole;Stadsdeel Scheveningen;Verleend;2008-07-15;;2008-11-10;;317104;631767;Carnegielaan;02860;78;;;2517 KH;2010-10-26;;80078.773;455752.571;4.294101213797277;52.084964164922944
25750035;676306;01280GGB08;GGB;Grondgebruik;GGI;Inrit;uitritvergunning Metropole;Stadsdeel Scheveningen;Verleend;2008-07-15;;2008-11-10;;317105;631768;Carnegielaan;02860;44;;;2517 KH;2010-10-26;;80062.974;455762.753;4.2938685089689725;52.085053529146954
503096163;676306;01280GGB08;GGB;Grondgebruik;GGI;Inrit;uitritvergunning Metropole;Stadsdeel Scheveningen;Verleend;2008-07-15;;2008-11-10;;317106;631769;Carnegielaan;02860;46;;;2517 KH;2010-10-26;;80056.865;455770.816;4.293777622062695;52.08512516202504
889797466;676306;01280GGB08;GGB;Grondgebruik;GGI;Inrit;uitritvergunning Metropole;Stadsdeel Scheveningen;Verleend;2008-07-15;;2008-11-10;;317107;631770;Carnegielaan;02860;80;;;2517 KH;2010-10-26;;80070.497;455756.778;4.293979563531451;52.08500085186955
697410511;676306;01280GGB08;GGB;Grondgebruik;GGI;Inrit;uitritvergunning Metropole;Stadsdeel Scheveningen;Verleend;2008-07-15;;2008-11-10;;317108;631771;Carnegielaan;02860;82;;;2517 KH;2010-10-26;;80078.773;455752.571;4.294101213797277;52.084964164922944
725238489;676306;01280GGB08;GGB;Grondgebruik;GGI;Inrit;uitritvergunning Metropole;Stadsdeel Scheveningen;Verleend;2008-07-15;;2008-11-10;;317109;631772;Carnegielaan;02860;48;;;2517 KH;2010-10-26;;80062.974;455762.753;4.2938685089689725;52.085053529146954
494104696;4126403;00626GGB13;GGB;Grondgebruik;GTN;terrasvergunning;aanvraag Terras locatie Galileïstraat 160;Handhavingsorganisatie;Verleend;2013-06-06;;2013-07-29;2029-07-29;148755;766663;Galileistraat;05520;160;;;2561 TL;2010-10-26;;78825.424;454651.979;4.27606385699632;52.07490243686521
173553725;4049548;00534GGB11;GGB;Grondgebruik;GGO;Overig op/in straat;Kapelweg 35, plaatsen van een electrakastje;Handhavingsorganisatie;Verleend;2011-05-03;;2011-05-04;2030-01-01;289505;769492;Kapelweg;08850;55;;;2587 BK;2010-10-26;;79846.886;457801.041;4.290266934143748;52.103341702662725
379701124;280741;00016GGB07;GGB;Grondgebruik;GGI;Inrit;;Stadsdeel Leidschenveen-Ypenburg;Verleend;2007-01-08;;2007-10-23;;289639;834515;Jan Thijssenweg;21525;13;;;2495 AH;2010-10-26;;83647.23;452356.504;4.346866527696314;52.05491555849255
816262096;694356;00382GGB09;GGB;Grondgebruik;GGI;Inrit;uitritvergunning;Handhavingsorganisatie;Verleend;2009-04-09;;2009-04-16;;57636;899727;Elandstraat;04720;115;;;2513 GN;2010-10-26;;80185.342;455221.601;4.29577225252389;52.080206895776136
140403299;4089581;00696GGB12;GGB;Grondgebruik;GSN;Standplaats;Bankastraat t.o. nr. 40,  standplaats;Handhavingsorganisatie;Verleend;2012-05-23;;2012-06-21;;204366;485907;Bankastraat;01190;40;;;2585 EN;2010-10-26;;80787.587;456464.425;4.304286112765037;52.09145688747759
724566199;686527;02050GGB08;GGB;Grondgebruik;GGI;Inrit;inrit;Stadsdeel Scheveningen;Verleend;2008-12-10;;2009-04-09;;319464;783794;Hellingweg;06860;180;;;2583 DX;2010-10-26;;77917.296;456997.711;4.262289432472145;52.09585700086392
331532114;280185;02422GGB06;GGB;Grondgebruik;GGI;Inrit;;Stadsdeel Segbroek;Verleend;2006-12-04;;2007-01-09;2044-01-09;99379;766012;Frederik Ruyschstraat;05370;15;;;2563 VV;2010-10-26;;78666.845;454487.04;4.2737880178720635;52.07339834148577
134311503;689132;00073GGB09;GGB;Grondgebruik;GGI;Inrit;uitweg;Handhavingsorganisatie;Verleend;2009-02-04;;2009-04-02;;321376;828973;Westvlietweg;21358;72;;;2495 AA;2010-10-26;;84888.279;453217.034;4.364781761559815;52.062807467940786
869071057;4159076;00568GGB14;GGB;Grondgebruik;GTN;terrasvergunning;aanvraag Terras locatie Prinsegracht 2;Handhavingsorganisatie;Verleend;2014-05-26;;2014-07-14;2050-12-31;226013;829086;Prinsegracht;14450;2;;;2512 GA;2010-10-26;;81046.851;454633.59;4.308465652875127;52.07503832193502
264347615;4135370;01060GGB13;GGB;Grondgebruik;GTN;terrasvergunning;aanvraag Terras locatie Frederik Hendriklaan 178;Handhavingsorganisatie;Verleend;2013-09-09;;2013-10-11;2100-10-11;50138;643985;Frederik Hendriklaan;05350;178;;;2582 BK;2010-10-26;;78800.367;456529.239;4.275279009581523;52.091769315323205
302724115;289646;01930GGB07;GGB;Grondgebruik;GGI;Inrit;inrit;Stadsdeel Segbroek;Verleend;2007-11-07;;2007-12-05;;312738;908657;Haviklaan;06680;34;;;2566 XJ;2010-10-26;;77398.162;455175.32;4.255129547268335;52.07940730844831
790412632;289643;01929GGB07;GGB;Grondgebruik;GGI;Inrit;inrit;Stadsdeel Segbroek;Verleend;2007-11-07;;2007-12-05;;312739;908658;Haviklaan;06680;36;;;2566 XJ;2010-10-26;;77387.944;455168.693;4.25498202008918;52.07934632156314
73108999;284576;01138GGB07;GGB;Grondgebruik;GGI;Inrit;;Stadsdeel Segbroek;Verleend;2007-05-02;;2007-10-16;;12897;662113;Marnixstraat;11500;55;A;;2518 PW;2010-10-26;;79819.82;454990.349;4.290491743427162;52.07807918354298
769475862;687940;00025GGB09;GGB;Grondgebruik;GGI;Inrit;Hugo Verrieststraat 51;Handhavingsorganisatie;Verleend;2009-01-16;;2009-03-02;;124827;646638;Hugo Verrieststraat;07790;51;;;2524 CB;2010-10-26;;81552.143;452359.459;4.316324226184902;52.05466839719998
447786065;4130539;00820GGB13;GGB;Grondgebruik;GTN;terrasvergunning;aanvraag Terras locatie Hadewichstraat 2;Handhavingsorganisatie;Verleend;2013-07-17;;2013-09-12;2037-09-12;238728;899251;Hadewichstraat;06390;2;;;2531 XW;2010-10-26;;80158.968;452724.885;4.295934998702221;52.05776596759547
731052918;4030959;01401GGB10;GGB;Grondgebruik;GGK;Kadegebruik;Het plaatsen van een berging en plantenbakken;Riolen en Water;Verleend;2010-10-25;;2010-10-27;2030-10-27;318594;733642;Veenendaalkade;18460;615;;;2547 XJ;2010-10-26;;78537.775;453138.391;4.272207796946685;52.061260632206604
609013217;4025446;01059GGB10;GGB;Grondgebruik;GGK;Kadegebruik;plaatsen van een berging;Riolen en Water;Verleend;2010-08-10;;2010-09-28;2030-09-28;318578;733657;Veenendaalkade;18460;583;;;2547 XJ;2010-10-26;;78298.979;452924.596;4.268774251498905;52.05930630260682
477102372;4022679;00902GGB10;GGB;Grondgebruik;GGK;Kadegebruik;2 bloempotten;Riolen en Water;Verleend;2010-07-12;;2010-10-27;2030-10-27;318587;733666;Veenendaalkade;18460;601;;;2547 XJ;2010-10-26;;78435.598;453046.912;4.270738600791433;52.06042442220668
716030559;4023024;00936GGB10;GGB;Grondgebruik;GGI;Inrit;Hertzogstraat 50 A, uitwegvergunning;Handhavingsorganisatie;Verleend;2010-07-15;;2010-11-19;;216103;902099;Hertzogstraat;07080;50;A;;2572 VZ;2010-10-26;;79951.992;453752.303;4.292691761223835;52.066971121813786
1460524;4026267;01110GGB10;GGB;Grondgebruik;GGI;Inrit;Kerketuinenweg 12, inrit;Handhavingsorganisatie;Verleend;2010-08-20;;2010-10-07;;214751;912024;Kerketuinenweg;08990;12;;;2544 CW;2010-10-26;;77496.331;452008.225;4.257280377461322;52.05095943880428
405638164;4027048;01162GGB10;GGB;Grondgebruik;GGI;Inrit;Zilverstraat/hoek Kerketuinenweg 28, inritvergunning;Handhavingsorganisatie;Verleend;2010-09-03;;2010-10-07;;262446;912060;Kerketuinenweg;08990;28;;;2544 CW;2010-10-26;;77238.005;451747.616;4.2535742621940615;52.04858123039611
415170173;686653;02058GGB08;GGB;Grondgebruik;GGI;Inrit;uitweg;Handhavingsorganisatie;Verleend;2008-12-15;;2009-03-02;;314152;508629;Willemstraat;19910;45;;;2514 HK;2010-10-26;;81146.585;455587.117;4.30971377575203;52.083620755976305
4213338;4127839;00701GGB13;GGB;Grondgebruik;GTN;terrasvergunning;aanvraag Terras locatie Leyweg 299K;Handhavingsorganisatie;Verleend;2013-06-19;;2013-08-01;2029-08-01;253993;659848;Leyweg;10580;299;K;;2545 CJ;2010-10-26;;78311.474;452388.464;4.269076791256334;52.05448996840349
898791071;4018315;00646GGB10;GGB;Grondgebruik;GGI;Inrit;Haviklaan 24, uitwegvergunning;Handhavingsorganisatie;Verleend;2010-05-11;;2010-06-11;;137033;908335;Haviklaan;06680;24;;;2566 XJ;2010-10-26;;77458.474;455213.717;4.256000501781437;52.079760819622976
700744242;671590;00933GGB08;GGB;Grondgebruik;GGI;Inrit;inrit van 4,00 m x 2,70 m;Stadsdeel Segbroek;Verleend;2008-05-15;;2008-06-27;;137046;908346;Haviklaan;06680;37;;;2566 XE;2010-10-26;;77373.719;455189.189;4.254769877335786;52.0795285170263
616481836;4004930;02037GGB09;GGB;Grondgebruik;GGI;Inrit;Elandstraat 301, uitwegvergunning;Handhavingsorganisatie;Verleend;2009-09-22;;2010-01-04;;224050;900372;Elandstraat;04720;301;;;2513 HW;2010-10-26;;80114.661;455173.761;4.294751806556162;52.07976741470818
633686854;4006111;02160GGB09;GGB;Grondgebruik;GGI;Inrit;Capadosestraat 13 A en 15,  in/uitritvergunning;Handhavingsorganisatie;Verleend;2009-10-02;;2010-01-04;;75358;496501;Capadosestraat;02810;13;;;2523 AB;2010-10-26;;81725.517;452773.884;4.318762711396463;52.058415718764735
817333723;4004399;01993GGB09;GGB;Grondgebruik;GSN;Standplaats;uitbreiding reeds bestaande standplaats;Handhavingsorganisatie;Verleend;2009-09-08;;2010-04-12;;130152;793879;Hobbemaplein;07190;50;;;2526 JB;2010-10-26;;80220.263;453677.113;4.296620056736971;52.06633169509627
908097577;4130941;00838GGB13;GGB;Grondgebruik;GTN;terrasvergunning;aanvraag Terras locatie Frederik Hendriklaan 250;Handhavingsorganisatie;Verleend;2013-07-22;;2013-08-28;2032-12-31;50073;643658;Frederik Hendriklaan;05350;250;;;2582 BM;2010-10-26;;78764.788;456335.309;4.274803290506103;52.090021632396905
843150735;4075758;00048GGB12;GGB;Grondgebruik;GSN;Standplaats;Frederik Hendriklaan 228 C, standplaatsvergunning;Handhavingsorganisatie;Verleend;2012-01-23;;2012-02-28;;50101;643674;Frederik Hendriklaan;05350;228;;;2582 BL;2010-10-26;;78764.126;456459.387;4.274765887247669;52.091136587975974
68618673;4038816;00079GGB11;GGB;Grondgebruik;GSN;Standplaats;Frederik Hendriklaan t.o. 228, standplaatsvergunning (aardappelen, groente en fruit);Handhavingsorganisatie;Verleend;2011-01-21;;2011-02-02;;50101;643674;Frederik Hendriklaan;05350;228;;;2582 BL;2010-10-26;;78764.126;456459.387;4.274765887247669;52.091136587975974
464295445;4177698;01311GGB14;GGB;Grondgebruik;GTN;terrasvergunning;aanvraag Zomer- en winterterras locatie Frederik Hendriklaan 230;Handhavingsorganisatie;Verleend;2014-12-23;;2015-02-17;2100-02-17;50105;643681;Frederik Hendriklaan;05350;230;;;2582 BM;2010-10-26;;78751.292;456377.61;4.274596936160474;52.0903999178671
165275421;4018280;00640GGB10;GGB;Grondgebruik;GGI;Inrit;inrit Jasmijnstraat 34;Handhavingsorganisatie;Verleend;2010-05-11;;2010-07-08;;117638;909025;Jasmijnstraat;08420;34;;;2563 RX;2010-10-26;;78502.378;454065.154;4.271484056613037;52.06958428489315
342811244;683075;01844GGB08;GGB;Grondgebruik;GGI;Inrit;in-en uitrit;Handhavingsorganisatie;Verleend;2008-10-16;;2009-01-30;;124330;911317;Hulststraat;07820;2;;;2563 GC;2010-10-26;;78678.018;454036.068;4.2740518111060695;52.0693471333172
252882571;4028751;01292GGB10;GGB;Grondgebruik;GGI;Inrit;Uitwegvergunning;Handhavingsorganisatie;Verleend;2010-09-29;;2010-10-28;;310715;495558;Bleriotlaan;21254;128;;;2497 EA;2010-10-26;;84829.324;450912.833;4.364395447250373;52.042092277454735
452818591;280114;02409GGB06;GGB;Grondgebruik;GGI;Inrit;;Stadsdeel Leidschenveen-Ypenburg;Verleend;2006-11-29;;2006-12-19;;302317;504874;Judostraat;21434;1;;;2492 VA;2010-10-26;;87701.236;454644.238;4.405515042678985;52.0759825290032
983530761;4015648;00460GGB10;GGB;Grondgebruik;GGI;Inrit;IJsvogelhof 1, uitwegvergunning;Handhavingsorganisatie;Verleend;2010-04-01;;2010-05-27;;293759;497614;IJsvogelhof;21323;1;;;2496 PE;2010-10-26;;85255.988;451054.184;4.370584696574955;52.043416426502525
74108901;674289;01109GGB08;GGB;Grondgebruik;GGI;Inrit;inrit van 2,5 m x 4,7 m;Stadsdeel Centrum;Verleend;2008-06-23;;2008-07-17;;293535;505894;Graspieperlaan;21354;25;;;2496 HJ;2010-10-26;;85900.184;451854.896;4.379811431069955;52.05069307524034
447967713;264209;V1019583;GGB;Grondgebruik;GGI;Inrit;een betonnen hellingbaan;Stadsdeel Loosduinen;Verleend;2005-03-21;;2005-03-21;;307587;803871;Loosduinse Uitleg;10815;208;;;2553 AV;2010-10-26;;75855.583;452161.308;4.233329074207298;52.05210318823352
824888387;4050903;00607GGB11;GGB;Grondgebruik;GSN;Standplaats;Frederik Hendriklaan/hoek Willem de Zwijgerlaan, standplaatsvergunning (bloemen en planten);Handhavingsorganisatie;Verleend;2011-05-17;;2011-05-25;;327821;640871;Frederik Hendriklaan;05350;217;;;2582 CB;2010-10-26;;78730.499;456447.514;4.274277944967286;52.091025256082226
80613931;682837;01836GGB08;GGB;Grondgebruik;GGI;Inrit;in-en uitrit;Stadsdeel Centrum;Verleend;2008-09-19;;2009-02-09;;57749;899402;Elandstraat;04720;49;A;;2513 GL;2010-10-26;;80404.81;455375.406;4.2989397656253505;52.08161871518101
946050526;267369;V1022343;GGB;Grondgebruik;GGI;Inrit;;Stadsdeel Segbroek;Verleend;2005-07-11;;2006-09-04;;58292;525405;Eendenlaan;04620;8;;;2566 VZ;2010-10-26;;77611.968;455534.577;4.258166516399309;52.08266575144187
458228417;4154439;00348GGB14;GGB;Grondgebruik;GTN;terrasvergunning;aanvraag Terras locatie Wagenstraat 117;DECO;Verleend;2014-04-01;;2014-06-02;2050-12-31;162052;506093;Wagenstraat;19270;117;;;2512 AS;2010-10-26;;81431.414;454621.31;4.314076883627073;52.074979187943576
935476145;4132207;00882GGB13;GGB;Grondgebruik;GTN;terrasvergunning;aanvraag Terras locatie Wagenstraat 187;Handhavingsorganisatie;Verleend;2013-08-01;;2013-09-05;2100-09-05;236827;502882;Wagenstraat;19270;187;;;2512 AW;2010-10-26;;81586.091;454505.546;4.316357644269444;52.07395936893903
530601164;4125295;00586GGB13;GGB;Grondgebruik;GTN;terrasvergunning;aanvraag Terras locatie Gedempte Gracht 263;Handhavingsorganisatie;Verleend;2013-05-23;;2013-08-01;2023-08-01;314153;785716;Gedempte Gracht;05580;263;;;2512 AM;2010-10-26;;81404.684;454742.409;4.313660926159118;52.07606392628714
324594072;684212;01914GGB08;GGB;Grondgebruik;GGI;Inrit;2 x uitweg;Stadsdeel Centrum;Verleend;2008-10-17;;2008-11-28;;107767;911754;Korte Voorhout;09670;7;;;2511 CW;2010-10-26;;81648.58;455469.272;4.317061777904301;52.082628447661435
410527766;4027045;01161GGB10;GGB;Grondgebruik;GGI;Inrit;Platinaweg/hoek Kerketuinenweg 16, uitritvergunning;Handhavingsorganisatie;Verleend;2010-09-03;;2010-10-07;;210430;911765;Kerketuinenweg;08990;16;;;2544 CW;2010-10-26;;77460.846;451968.491;4.2567721561105785;52.05059739651541
287550634;4389223;01057GGB19;GGB;Grondgebruik;GGS;Stolpersteine;het plaatsen van 2 stolpersteine ter hoogte van de Van Imhoffstraat 39 in Den Haag.;Handhavingsorganisatie;Verleend;2019-10-06;;2019-10-15;;123901;772097;Van Imhoffstraat;07910;39;;;2595 SC;2010-10-26;;83154.677;455395.356;4.339046573772689;52.082161651269836
590386551;4172667;01121GGB14;GGB;Grondgebruik;GGO;Overig op/in straat;Van Meerkerkestraat 9, het plaatsen van een gedenksteen;Handhavingsorganisatie;Verleend;2014-10-24;;2014-11-18;2023-11-18;13949;807194;Van Meerkerkestraat;11660;9;;;2596 TN;2010-10-26;;82153.899;456833.624;4.324141294806396;52.09495630100297
196430215;263486;V1018975;GGB;Grondgebruik;GGI;Inrit;uitweg;Stadsdeel Laak;Verleend;2005-03-01;;2005-04-11;;268118;818444;Neherkade;12454;2756;;;2521 RX;2010-10-26;;81671.149;453173.615;4.317884251679038;52.062000836328465
932507958;278749;02147GGB06;GGB;Grondgebruik;GGI;Inrit;;Stadsdeel Segbroek;Verleend;2006-10-02;;2006-10-30;;123612;650141;Irisstraat;07960;164;;;2565 TP;2010-10-26;;77625.376;454599.252;4.258574229886583;52.07426219489759
964055519;693938;00356GGB09;GGB;Grondgebruik;GGI;Inrit;uitritvergunning;Handhavingsorganisatie;Verleend;2009-04-06;;2009-04-22;;47377;716047;Rietzangerlaan;15200;30;;;2566 SW;2010-10-26;;77032.528;454988.015;4.249839397453573;52.07767269351046
242875929;274591;01468GGB06;GGB;Grondgebruik;GGI;Inrit;uitwegvergunning;Stadsdeel Segbroek;Verleend;2006-04-18;;2006-06-06;;159732;742274;Watervlierstraat;19430;77;;;2563 PW;2010-10-26;;78526.214;453964.229;4.271854254247147;52.0686805950342
