bestemming;brinnummer;school;bestuursnummer;gebouwnummer;postcode;adres;economisch_eigenaar;juridisch_eigenaar;stadsdeel;wijk;bouwaard;bouwjaar;bvo;xcoord;ycoord;ozb;opstal;verzekerd;lesruimte;gymruimte;kadastraal;archief;long;lat
SO/VSO;16VG;De Opperd (SO-ZMOK);20281;242;2285 SE;van Vredenburchweg 168;Gemeente;20281;603;603;Permanent;1952;1172;0;0;0;0;0;8;;RIJSWIJK B 678;1;;
GYM;17PB;De Ark Chr. Basisschool;70176;999;2546 SK;Baambruggestraat 6;Gemeente;70176;2;32;Permanent;1955;393;0;4;0;0;0;;1;GVH N 4200 A1;0;;
SO/VSO;16VG;De Opperd (SO-ZMOK);20281;341;2285 SE;van Vredenburchweg 168A;Gemeente;20281;603;603;Nood;1976;198;0;0;0;0;0;2;;RIJSWIJK B 678;1;;
BO;15VU;'t Palet;20281;361;2526 ED;Doedijnsstraat 4;Gemeente;20281;5;29;Permanent;2002;1506;0;0;0;0;0;12;;GVH AE 5134;0;;
VO;20KD00;Praktijkschool De Einder;41360;408;2572 NK;Spionkopstraat 11;Juridisch eigenaar;;5;30;Permanent;1994;1202;0;0;0;0;0;19;;GVH AB 6566;0;;
GYM;07MZ01;Praktijkschool De Poort;70176;260;2551 CT;Landrepad 7000;Gemeente;70176;1;18;Permanent;1976;244;0;0;0;0;0;;1;;1;;
BO;08QB;Grote Beer;20281;400;2531 JZ;Guntersteinweg 60-62;Gemeente;20281;2;36;Permanent;2005;2289;0;0;0;0;0;20;;GVH AI 9548;0;;
GYM;08QB;Grote Beer;20281;400;2531 JZ;Guntersteinweg 60-62;Gemeente;20281;2;36;Permanent;2005;449;0;0;0;0;0;;1;GVH AI 9548;0;;
BO;05HD;De Zuidwester;40928;374;2544 ME;Marterrade 312a;Gemeente;;2;33;Nood;2002;250;0;0;0;0;0;3;;GVH AW 795;1;;
BO;26AW;De Vlieger;20281;434;2497 DN;Frits Diepenlaan 41;Juridisch eigenaar;;8;42;Permanent;2006;920;0;0;0;0;0;10;;GVH BK 3313 A4;1;;
BO;19ZF;Prinses Marijkeschool;41572;461;2525 TA;Abraham van Beyerenstraat 1C;Gemeente;41572;5;29;Permanent;2009;2237;0;0;0;0;0;17;;GVH L 13290 A1;0;;
GYM;07AK;De Buutplaats;40928;461;2525 TA;Abraham van Beyerenstraat 1C;Gemeente;41572;5;29;Permanent;2009;410;0;0;0;0;0;;2;GVH L 13290 A1;0;;
GYM;27PC;AL-QOEBA Basisscholen (IQRA);40389;466;2525 GB;Honthorststraat 66;Gemeente;40389;5;29;Permanent;1988;383;0;0;0;0;0;;1;GVH L 13284 A1;0;;
VO;04NF00;Hofstede College;20281;467;2542 BK;Droogscheerdersgaarde 70 - 74;Gemeente;20281;2;33;Permanent;2009;3035;0;0;0;0;0;44;;;0;;
GYM;04NF00;Hofstede College;20281;467;2542 BK;Droogscheerdersgaarde 70 - 74;Gemeente;20281;2;33;Permanent;2009;488;0;0;0;0;0;;1;;0;;
SO/VSO;02GA;Koetsveldschool (SO/VSO-ZMLK);70176;478;2542 TC;Zwaardvegersgaarde 25 - 29;Gemeente;70176;2;33;Permanent;2010;1921;0;0;0;0;0;18;;;0;;
GYM;02GA;Koetsveldschool (SO/VSO-ZMLK);70176;478;2542 TC;Zwaardvegersgaarde 25 - 29;Gemeente;70176;2;33;Permanent;2010;455;0;0;0;0;0;;1;;0;;
BO-Voorschool;19ZF/VPZ;Dikkie Dik;;461;2525 TA;Abraham van Beyerenstraat 1C;Gemeente;41572;5;29;Permanent;2009;173;0;0;0;0;0;2;;GVH L 13290 A1;1;;
BO-Voorschool;17FV/VPZ;Voorschool Dr. Willem Dreesschool;41572;498;2523 XC;Bresterstraat 7 - 23;Gemeente;41572;6;38;Permanent;0;258;0;0;0;0;0;;;;1;;
GYM;05VY;Montessorischool Waalsdorp;95746;497;2597 PH;Utenbroekestraat 6-10;Gemeente;95746;7;4;Permanent;2014;455;0;0;0;0;0;;1;;0;;
BO;05VY;Montessorischool Waalsdorp;95746;482;2597 PH;Utenbroekestraat 6-10;Gemeente;95746;7;4;Permanent;2014;1735;0;0;0;0;0;15;;;0;;
BO-Voorschool;17MR/MFC;MFC OBS Benoordenhout;41572;512;2596 XG;Dreibholtzstraat 4;Gemeente;41572;7;4;Permanent;0;115;0;0;0;0;0;1;;;1;;
BO;27VA;Prinses Catharina Amalia school;41572;490;2493 ZL;Cicerostrook 7;Gemeente;41572;8;42;Permanent;2013;1171;0;0;0;0;0;26;;;0;;
BO;19VU;Woonstede Nutsbasisschool;20281;520;2543 VR;Woonstede 96-98;Gemeente;20281;2;33;Permanent;2014;1492;0;0;0;0;0;12;;;0;;
SO/VSO;03HW;Tyltylschool De Witte Vogel (SO/VSO-MG);24572;530;2541 GA;Melis Stokelaan 1189A;Gemeente;24572;2;33;Permanent;2017;2648;0;0;0;0;0;18;;;0;;
GYM;03HW;Tyltylschool De Witte Vogel (SO/VSO-MG);24572;530;2541 GA;Melis Stokelaan 1189A;Gemeente;24572;2;33;Permanent;2017;505;0;0;0;0;0;;1;;0;;
GYM;20JM00;Haagse Mytylschool De Piramide (SO/LG/LZ;41572;530;2541 GA;Melis Stokelaan 1189B;Gemeente;41572;2;33;Permanent;2017;470;0;0;0;0;0;;1;;0;;
SO/VSO;20JM00;Haagse Mytylschool De Piramide (SO/LG/LZ;41572;530;2541 GA;Melis Stokelaan 1189B;Gemeente;41572;2;33;Permanent;2017;1707;0;0;0;0;0;12;;;0;;
BO;17TD;Da Costaschool voor Christelijk Basisond;70176;;2518 CR;Witte de Withstraat 83-85;Gemeente;;5;22;Permanent;0;145;0;0;0;0;0;2;;;1;;
GYM;05VX00;Eerste Nederlandse Montessorischool;46879;546;2566 DA;Laan van Poot 353B;Gemeente;46879;3;13;Permanent;2018;455;0;0;0;0;0;;1;;0;;
BO;31DE;Yunus Emre Islamitische Basisschool;40272;31;2542 JR;Beresteinlaan 629a;Gemeente;40272;2;33;Nood;2007;50;0;0;0;0;0;2;;;0;;
BO;19TO;Het Volle Leven;41572;548;2587 BB;Rijslag 17-19;Gemeente;41572;4;7;Permanent;2005;0;;;;;;2;;;0;;
BO;19MZ;Houtwijk;41572;139;2552 KN;Mari Andriessenstraat 40-42;Gemeente;41572;1;17;Permanent;2004;413;;;;;;3;;;0;;
BO;17VA;De Vliermeent Chr. Basisschool;70176;138;2552 KL;Mari Andriessenerf 15-17;Gemeente;;1;17;Permanent;2004;370;;;;;;3;;;0;;
BO;17FE;Helen Parkhurst Daltonbasisschool;41572;282;2546 SK;Baambruggestraat 2-4;Gemeente;41572;2;32;Permanent;2019;2155;0;0;;;;17;;;0;;
BO-Voorschool;17FE;Helen Parkhurst Daltonbasisschool;41572;282;2546 SK;Baambruggestraat 2-4;Gemeente;41572;2;32;Permanent;2019;235;0;0;;;;2;;;0;;
GYM;17FE;Helen Parkhurst Daltonbasisschool;41572;282;2546 SK;Baambruggestraat 2-4;Gemeente;41572;2;32;Permanent;2019;456;0;0;;;;;1;;0;;
BO;17YY;Jan van Nassauschool voor Chr. BO;70176;;2515 TM;Zaanstraat 13;;;5;27;Permanent;0;99;;;;;;1;;;0;;
BO;19NN;Houtrust;41572;;2566 JP;Nachtegaalplein 19A;Gemeente;41572;3;13;Permanent;2004;124;;;;;;2;;;0;;
VO;20MJ02;Johan de Witt Scholengroep, locatie Nieu;41360;;2587 AC;Nieuwe Duinweg 6 - 14;Gemeente;41360;4;7;Permanent;2020;6270;;;;;;33;;;0;;
Overig;99VG;Onderwijs, Vastgoed;99VG;;2511 BZ;Spui 70 70;;;5;28;Permanent;0;0;;;;;;0;;;0;;
GYM;15XZ;Basisschool Cosmicus;20281;2;2512 JT;'s-Gravenzandelaan 262;Schoolbestuur;20281;5;29;Permanent;1921;284;80117;454109;0;0;0;;1;GVH L 12443;0;4.295019591310251;52.070199003348456
BO;15XZ;Basisschool Cosmicus;20281;2;2512 JT;'s-Gravenzandelaan 262;Schoolbestuur;20281;5;29;Permanent;1921;1732;80113;454104;0;0;0;11;;GVH L 12444;0;4.294962357706134;52.070153528719295
BO;07CQ;Koos Meindertsschool;20281;4;2552 JC;A. Kortekaasplantsoen 125;Gemeente;20281;1;17;Permanent;1983;1120;76603;451961;0;0;0;8;;LSD M 4280;0;4.244269825550914;52.050409356731976
GYM;05WB;De Vrije school;95785;5;2597 NT;Abbenbroekweg 7;Gemeente;95785;4;3;Permanent;1983;455;80836;458052;0;0;0;;1;GVH V 7177;0;4.304646948977956;52.105730470086876
BO;05WB;De Vrije school;95785;5;2597 NT;Abbenbroekweg 7;Gemeente;95785;4;3;Permanent;1982;2895;80836;458052;0;0;0;20;;GVH V 7177;0;4.304646948977956;52.105730470086876
VO;03PY;De Oase;20281;11;2555 XP;Albardastraat 23-25;Gemeente;20281;1;18;Permanent;1971;5879;76852;453226;0;0;0;68;;LSD I 6523;0;4.247609843996133;52.06181265960942
GYM;17HR00;Hofstad MAVO HAVO;20281;11;2555 XP;Albardastraat 23-25;Gemeente;20281;1;18;Permanent;1971;910;76852;453226;0;0;0;;2;LSD I 6523;0;4.247609843996133;52.06181265960942
GYM;17EK00;De Kleine Keizer;41572;12;2551 KK;Alphons Diepenbrockhof 79;Gemeente;41572;1;18;Permanent;1969;455;75763;452914;0;0;0;;1;LSD H 5125;0;4.231804933226159;52.05885411135316
BO;17EK00;De Kleine Keizer;41572;12;2551 KK;Alphons Diepenbrockhof 79;Gemeente;41572;1;18;Permanent;1969;1249;75763;452914;0;0;0;10;;LSD H 5125;0;4.231804933226159;52.05885411135316
BO;16DA;Liduinabasisschool;20281;13;2595 TA;Amalia van Solmsstraat 155;Gemeente;20281;7;26;Permanent;1963;446;83102;455216;0;0;0;3;;GVH R 12081;0;4.338315992060962;52.08054297155656
BO;17ZS;Dr. M.M. den Hertogschool voor Chr. BO;70176;14;2595 TA;Amalia van Solmsstraat 5;Gemeente;70176;7;26;Permanent;1964;1171;82966;455383;0;0;0;7;;;0;4.336297006857995;52.08202609662767
GYM;16DA;Liduinabasisschool;20281;16;2595 TA;Amalia van Solmsstraat 157;Gemeente;20281;7;26;Permanent;1920;284;83141;455160;0;0;0;;1;GVH R 10659;0;4.338896649346429;52.08004477122813
BO;16DA;Liduinabasisschool;20281;16;2595 TA;Amalia van Solmsstraat 157;Gemeente;20281;7;26;Permanent;1920;1767;83141;455160;0;0;0;12;;GVH R 10659;0;4.338896649346429;52.08004477122813
BO;19NZ;Erasmus;41572;17;2542 ED;Ambachtsgaarde 1;Gemeente;41572;2;33;Permanent;1976;1843;78013;450335;0;0;0;13;;GVH AW 3769;0;4.265188354321501;52.03599465307581
GYM;19NZ;Erasmus;41572;17;2542 ED;Ambachtsgaarde 1;Gemeente;41572;2;33;Permanent;1976;455;78013;450335;0;0;0;;1;GVH AW 3769;0;4.265188354321501;52.03599465307581
BO;07UO;Petrus Donders;40928;18;2542 ED;Ambachtsgaarde 5;Gemeente;40928;2;33;Permanent;1964;1677;77949;450292;0;0;0;12;;GVH AW 1527;0;4.264265472181627;52.03559933002783
GYM;07UO;Petrus Donders;40928;18;2542 ED;Ambachtsgaarde 5;Gemeente;40928;2;33;Permanent;1964;455;77949;450292;0;0;0;;1;GVH AW 1527;0;4.264265472181627;52.03559933002783
GYM;17QF;Waalse Louise de Colignyschool voor Chr.;70176;19;2592 HN;Ametisthorst 421;Gemeente;70176;7;25;Permanent;1972;455;84724;456692;0;0;0;;1;GVH AW 1527;1;4.361670752821152;52.09401581757088
VO;19ZP04;Maris College Statenkwartier;41360;20;2582 TR;Antonie Duyckstraat 126;Gemeente;41360;4;9;Permanent;1910;2268;78718;456587;0;0;0;27;;GVH AK 10640;0;4.274064380945248;52.09227704615072
GYM;19ZP04;Maris College Statenkwartier;41360;20;2582 TR;Antonie Duyckstraat 126;Gemeente;41360;4;9;Permanent;1910;455;78718;456587;0;0;0;;1;GVH AK 10640;0;4.274064380945248;52.09227704615072
BO;04EN;Houtwijk Montessori-basisschool;41324;21;2552 ZE;Architect Berlagelaan 125;Gemeente;41324;1;17;Permanent;1987;1107;77269;452617;0;0;0;8;;LSD M 6165;0;4.253828223462824;52.05639845715433
VO;20MF00;Dalton Den Haag;41360;22;2555 GA;Aronskelkweg 1;Gemeente;41360;1;14;Permanent;1932;7881;76315;453966;0;0;0;61;;LSD H 7940;0;4.239609974466109;52.06838672932773
GYM;20MF00;Dalton Den Haag;41360;22;2555 GA;Aronskelkweg 1;Gemeente;41360;1;14;Permanent;1932;910;76315;453966;0;0;0;;2;LSD H 7940;0;4.239609974466109;52.06838672932773
BO;17EU;Archipel;41572;23;2585 VG;Atjehstraat 31;Gemeente;41572;5;5;Permanent;1995;1106;80830;456608;0;0;0;8;;GVH P 6151;0;4.30487366596592;52.09275284268606
GYM;13EK;Onze Wereld;20281;28;2572 BH;Beijersstraat 70;Gemeente;20281;5;30;Permanent;1993;455;79794;453748;0;0;0;;1;GVH AB 5372;0;4.290388933969723;52.066911020439576
GYM;19LY01;A.M.G. Schmidtschool;41572;29;2582 SR;Bentinckstraat 1;Gemeente;31227;4;9;Permanent;1993;455;79080;456737;0;0;0;;2;GVH AK 10393;0;4.279312485628533;52.09367482705498
GYM;31DE;Yunus Emre Islamitische Basisschool;40272;31;2542 JR;Beresteinlaan 629;Gemeente;40272;2;33;Permanent;1963;393;77787;450355;0;0;0;;1;GVH AW 1379;0;4.26189070038378;52.036142951670456
BO;31DE;Yunus Emre Islamitische Basisschool;40272;31;2542 JR;Beresteinlaan 629;Gemeente;40272;2;33;Permanent;1963;1290;77787;450355;0;0;0;8;;GVH AW 1379;0;4.26189070038378;52.036142951670456
BO;13OW;Basisschool Statenkwartier;20281;32;2582 VB;Van Beverningkstraat 29;Gemeente;20281;4;9;Permanent;1910;1836;78618;456524;0;0;0;15;;GVH AK 3260;0;4.272619517805904;52.091697093736485
GYM;13OW;Basisschool Statenkwartier;20281;32;2582 VB;Van Beverningkstraat 29;Gemeente;20281;4;9;Permanent;1958;284;78618;456524;0;0;0;;1;GVH AK 3260;0;4.272619517805904;52.091697093736485
VO;21GU00;Edith Stein College;20281;34;2516 BB;Binckhorstlaan 251;Gemeente;;6;39;Permanent;1965;8178;83196;453567;0;0;0;27;;GVH-AP-1419;1;4.340034050036649;52.06573585489663
GYM;21GU00;Edith Stein College;20281;34;2516 BB;Binckhorstlaan 251;Gemeente;20281;6;39;Permanent;1965;455;83196;453567;0;0;0;;1;GVH_AP_1419;1;4.340034050036649;52.06573585489663
BO;13EK;Onze Wereld;20281;37;2572 CC;Brandtstraat 87;Gemeente;20281;5;30;Permanent;1992;2150;79804;453736;0;0;0;16;;GVH AB 5373;0;4.290537393044616;52.06680453736593
BO;17FN;De Spoorzoeker;41572;41;2524 TT;Busken HuÃ«tstraat 22 - 24;Gemeente;41572;6;38;Permanent;1992;1498;81264;451911;0;0;0;11;;GVH AI 2133;0;4.312220568603747;52.050599906633416
BO;07CQ;Koos Meindertsschool;20281;42;2552 HW;C.A. van Beverenstraat 40;Gemeente;20281;1;17;Permanent;1983;1312;76618;451934;0;0;0;11;;LSD M 4281;0;4.244494659963992;52.05016883918019
GYM;07CQ;Koos Meindertsschool;20281;42;2552 HW;C.A. van Beverenstraat 40;Gemeente;20281;1;17;Permanent;1983;455;76618;451934;0;818839;49221;;2;LSD M 4281;0;4.244494659963992;52.05016883918019
VO;19ZP07;Maris College Waldeck;41360;44;2553 VD;Cantateplein 27;Gemeente;;1;17;Permanent;1954;941;75516;452556;0;0;0;8;;LSD G 2878;0;4.2282872975380865;52.055601517238124
BO;19MH;De Klimop;41572;47;2562 SK;Cartesiusstraat 2 - 4;Gemeente;41572;3;20;Permanent;1992;1120;79469;454518;0;0;0;8;;GVH Y 2197;0;4.285479527826904;52.073786571179845
GYM;19MH;De Klimop;41572;47;2562 SK;Cartesiusstraat 2 - 4;Gemeente;41572;3;20;Permanent;1992;455;79469;454518;0;0;0;;1;GVH Y 2197;0;4.285479527826904;52.073786571179845
VO;17HR02;Hofstad Lyceum;20281;50;2555 HA;Colijnplein 9;Gemeente;20281;1;18;Permanent;1959;5147;76815;453646;0;0;0;44;;LSD I 7220;0;4.246974214129402;52.0655818268972
GYM;17HR02;Hofstad Lyceum;20281;50;2555 HA;Colijnplein 9;Gemeente;20281;1;18;Permanent;1959;1340;76815;453646;0;0;0;;2;LSD I 7220;0;4.246974214129402;52.0655818268972
GYM;05OL;De Elout;70176;51;2561 VT;Copernicusstraat 159;Gemeente;70176;3;20;Permanent;2007;253;78891;454860;0;0;0;;1;;0;4.276973824275476;52.07678087546208
BO;19MU;Max Velthuijs;41572;52;2513 RP;Da Costastraat 40;Gemeente;41572;5;22;Permanent;1992;986;80165;455014;0;0;0;7;;GVH O 7847;0;4.295521086275946;52.07833849205449
GYM;17ZM;Meester Schabergschool;70176;52;2513 RP;Da Costastraat 40;Gemeente;41572;5;22;Permanent;1994;345;80165;455014;0;0;0;;2;GVH O 7847;0;4.295521086275946;52.07833849205449
BO;23GV;Yunus Emre Islamitische Basisschool;40272;55;2512 PG;Van Damstraat 7;Gemeente;40272;5;29;Permanent;1983;1580;80051;454217;0;0;0;24;;GVH L 13271;0;4.294033419219375;52.07116064323564
GYM;31PG;Yunus Emre;40272;55;2512 PG;Van Damstraat 7;Gemeente;40272;5;29;Permanent;1983;495;80051;454217;0;0;0;;1;GVH L 13271;0;4.294033419219375;52.07116064323564
BO;19WO;Het Galjoen;41572;56;2525 ZV;Anna Blamanplein 15;Gemeente;41572;5;37;Permanent;1997;1531;80454;452974;0;0;0;12;;GVH AC 3235;0;4.30018178504317;52.06004448939324
GYM;19WO;Het Galjoen;41572;56;2525 ZV;Anna Blamanplein 15;Gemeente;41572;5;37;Permanent;1997;428;80454;452974;0;0;0;;1;GVH AC 3235;0;4.30018178504317;52.06004448939324
BO;15ZZ;De Vuurvlinder;20281;57;2592 GH;Diamanthorst 10;Gemeente;20281;7;25;Permanent;1962;842;84201;456655;0;0;0;6;;GVH AS 1861;0;4.354047525606222;52.09361666091107
GYM;15ZZ;De Vuurvlinder;20281;57;2592 GH;Diamanthorst 10;Gemeente;20281;7;25;Permanent;1962;393;84201;456655;0;0;0;;1;GVH AS 1861;0;4.354047525606222;52.09361666091107
GYM;05VW;De Haagsche Schoolvereeniging;95694;58;2597 RM;Van Nijenrodestraat 16;Gemeente;95694;7;4;Permanent;1930;284;81376;457225;0;0;0;;2;GVH X 5862;0;4.3127065787201975;52.09837056448194
BO;05VW;De Haagsche Schoolvereeniging;95694;58;2597 RM;Van Nijenrodestraat 16;Gemeente;95694;7;4;Permanent;1931;1769;81392;457238;0;0;0;16;;GVH X 5862;0;4.3129372416664715;52.098489520605746
GYM;20JE;Eerste Nederlandse Buitenschool (SO-LZ);41572;60;2587 XM;Doorniksestraat 28a;Gemeente;41572;4;2;Permanent;1931;284;80488;458390;0;0;0;;2;GVH V 3809;1;4.299494204580855;52.10872121362998
SO/VSO;20JE;Eerste Nederlandse Buitenschool (SO-LZ);41572;60;2587 XM;Doorniksestraat 28;Gemeente;41572;4;2;Permanent;1933;1187;80488;458390;0;0;0;6;;GVH V 3809 & 8177;0;4.299494204580855;52.10872121362998
BO;17MR;Benoordenhout;41572;64;2596 XG;Dreibholtzstraat 2-4;Gemeente;41572;7;4;Permanent;1922;890;81963;456586;0;0;0;;;GVH X 5954;1;4.32140897410512;52.092705803482076
BO;17TN;Leyenburg Christelijke Basisschool;70176;66;2547 VR;Edamstraat 2;Gemeente;70176;2;32;Permanent;1969;2730;78050;453038;0;0;0;21;;LSD N 3225-4226;0;4.265118832459266;52.06029089808707
GYM;17TN;Leyenburg Christelijke Basisschool;70176;66;2547 VR;Edamstraat 2;Gemeente;70176;2;32;Permanent;1975;516;78050;453038;0;0;0;;1;LSD N 3225;0;4.265118832459266;52.06029089808707
BO;16XN;Prof. Mr. A. Anemaschool;70176;67;2543 BL;Eindstede 4;Gemeente;70176;2;33;Permanent;2014;2279;77958;450884;0;0;0;19;;GVH AW 930;0;4.264263220090773;52.040920729495525
GYM;16XN;Prof. Mr. A. Anemaschool;70176;67;2543 BH;Eindstede 4;Gemeente;70176;2;33;Permanent;2014;445;77919;450843;0;0;0;;1;GVH AW 929 930;0;4.263704116846355;52.04054685062602
BO;17NF;De Baanbreker;41572;69;2516 PV;Elboogstraat 68;Gemeente;41572;6;38;Permanent;1921;1605;82679;453727;0;0;0;12;;GVH AI 895;0;4.332461605379674;52.06710649818852
GYM;17NF;De Baanbreker;41572;69;2516 PV;Elboogstraat 68;Gemeente;41572;6;38;Permanent;1919;284;82679;453727;0;0;0;;1;GVH AI 895;0;4.332461605379674;52.06710649818852
GYM;17TT;Ds. D.A. van den Boschschool voor Chr. B;70176;70;2532 CR;Erasmusweg 6800;Gemeente;70176;2;36;Permanent;1959;455;80739;452096;0;0;0;;2;GVH AI 6843;1;4.304527794805915;52.05219235844969
BO;19SG;Nutsschool Morgenstond;20281;72;2545 XT;Exloostraat 12;Gemeente;;2;34;Permanent;1955;1929;78327;451825;0;0;0;14;;GVH_AW_4306;1;4.2694295746511886;52.04942842399687
GYM;16RC;Het MozaÃ¯ek;70176;73;2582 EC;Van den Eyndestraat 24;Gemeente;70176;4;9;Permanent;1931;241;78865;456282;0;0;0;;1;GVH AK 7558;0;4.276277194069857;52.0895563573478
SO/VSO;16RC;Het MozaÃ¯ek;70176;73;2582 EC;Van den Eyndestraat 24;Gemeente;70176;4;9;Permanent;1931;927;78865;456282;0;0;0;9;;GVH AK 7558;0;4.276277194069857;52.0895563573478
BO;17PJ;Het Startpunt;41572;74;2525 XH;Ferdinand Bolstraat 33;Gemeente;41572;5;29;Permanent;1911;1625;31020;453340;0;0;0;;;GVH L 12232;1;3.5794820852201177;52.05447661922982
BO;19LY00;A.M.G. Schmidtschool;41572;76;2584 SJ;Gaffelstraat 83 - 85;Gemeente;;4;7;Permanent;1909;1337;78617;457847;0;0;0;9;;GVH AH 3653;0;4.272308408354911;52.10358628250698
GYM;19LY00;A.M.G. Schmidtschool;41572;76;2584 SJ;Gaffelstraat 83 - 85;Gemeente;41572;4;7;Permanent;1920;284;78617;457847;0;0;0;;1;GVH AH 3652;0;4.272308408354911;52.10358628250698
GYM;17PY;Galvanischool;41572;77;2517 RA;Galvanistraat 43;Gemeente;41572;4;11;Permanent;1914;284;78981;455222;0;0;0;;1;GVH N 6517;1;4.278205787742398;52.08004642241798
BO;06UW;Willem de Zwijgerschool voor Chr. Basiso;72100;78;2587 HZ;Gentsestraat 124;Gemeente;72100;4;2;Permanent;1954;1948;80267;458569;0;0;0;16;;GVH V 5978;0;4.296229378906071;52.1103000164471
GYM;06UW;Willem de Zwijgerschool voor Chr. Basiso;72100;78;2587 HZ;Gentsestraat 124;Gemeente;72100;4;2;Permanent;1986;469;80267;458569;0;0;0;;1;GVH V 5977 5978 6227 6788;0;4.296229378906071;52.1103000164471
GYM;15TL;Het Lichtbaken;20281;79;2551 ZC;Georges Bizetstraat 21;Gemeente;20281;1;18;Permanent;1983;455;76447;452958;0;0;0;;1;LSD H 6666;0;4.241766697125634;52.05934694834598
BO;15TL;Het Lichtbaken;20281;79;2551 ZC;Georges Bizetstraat 21;Gemeente;20281;1;18;Permanent;1983;1121;76447;452958;0;0;0;8;;LSD H 6666;0;4.241766697125634;52.05934694834598
BO;15VU;'t Palet;20281;80;2526 NL;Gerard Doustraat 192;Juridisch eigenaar;;5;29;Permanent;1996;650;80737;453847;0;0;0;8;;GVH AE 5004;0;4.304117862023804;52.06792795547313
GYM;20MJ12;Johan de Witt Scholengroep, locatie Glas;41360;81;2512 XW;Glasblazerslaan 25;Gemeente;41360;5;28;Permanent;1991;1365;80986;454366;0;0;0;;3;GVH K 3221;0;4.3076362235520635;52.07262542231052
VO;20MJ12;Johan de Witt Scholengroep, locatie Glas;41360;81;2512 XW;Glasblazerslaan 25;Gemeente;41360;5;28;Permanent;1991;2054;80986;454366;0;0;0;12;;GVH K 2195 2196 2198 2200;0;4.3076362235520635;52.07262542231052
GYM;17YY;Jan van Nassauschool voor Chr. BO;70176;83;2515 SM;Gouwestraat 11-13;Gemeente;70176;5;27;Permanent;1923;284;82017;454592;0;0;0;;2;GVH R 13141;1;4.3226235210466735;52.074793268432025
BO;17YY;Jan van Nassauschool voor Chr. BO;70176;83;2515 SM;Gouwestraat 11-13;Gemeente;70176;5;27;Permanent;1923;1730;82017;454592;0;0;0;24;;GVH R 13141;1;4.3226235210466735;52.074793268432025
BO;05HC;Montessori-basisschool John F. Kennedy;20281;84;2591 HB;Gradaland 5;Gemeente;20281;7;25;Permanent;1964;1443;84857;457043;0;0;0;10;;GVH AS 1111;0;4.363539091727213;52.09718707857833
SO/VSO;20IX;Insp. W.P. Blokpoelschool (SO-ZMOK);41572;89;2543 VS;Haardstede 1;Gemeente;;2;33;Permanent;1965;1413;77623;450653;0;0;0;10;;GVH AW 1786;0;4.259433546469706;52.03879812609325
BO;31DE;Yunus Emre Islamitische Basisschool;40272;90;2543 VS;Haardstede 5;Gemeente;CVDH;2;33;Permanent;1965;1692;77623;450653;0;0;0;2;;GVH AW 1786;0;4.259433546469706;52.03879812609325
GYM;20IX;Insp. W.P. Blokpoelschool (SO-ZMOK);41572;89;2543 VS;Haardstede 3;Gemeente;;2;33;Permanent;1965;393;77623;450653;0;0;0;;1;GVH AW 1786;0;4.259433546469706;52.03879812609325
SO/VSO;18CQ;Pastoor van Arsschool;20281;91;2566 XA;Haviklaan 1;Gemeente;20281;3;13;Permanent;1930;1046;77617;455353;0;0;0;8;;GVH AO 1733;0;4.258281110380724;52.08103468841712
GYM;18CQ;Pastoor van Arsschool;20281;91;2566 XA;Haviklaan 1;Gemeente;20281;3;13;Permanent;1930;244;77617;455353;0;0;0;;1;GVH AO 1733;0;4.258281110380724;52.08103468841712
VO;20MJ00;Johan de Witt Scholengroep, locatie Zust;41360;93;2512 ZB;Helena van Doeverenplantsoen 3;Gemeente;CVDH;5;28;Permanent;1991;8189;81046;454337;0;0;0;27;;GVH K 3248;0;4.308517517658934;52.07237282143172
SO/VSO;20JG;Insp. S. de Vriesschool (SO-ZMLK);41572;94;2555 MA;Heliotrooplaan 35;Gemeente;41572;1;14;Permanent;1974;1692;75475;453798;0;0;0;10;;LSD H 7218;0;4.227400369646203;52.06675698622185
GYM;20JG;Insp. S. de Vriesschool (SO-ZMLK);41572;94;2555 MA;Heliotrooplaan 35;Gemeente;41572;1;14;Permanent;1974;244;75475;453798;0;0;0;;1;LSD H 7218;0;4.227400369646203;52.06675698622185
SO/VSO;20JJ;P.H. Schreuderschool;41572;95;2526 LL;Hendrick Goltziusstraat 5;Gemeente;41572;5;29;Permanent;1983;966;81053;453862;0;0;0;9;;GVH AE 4763;0;4.308722513058346;52.06810503614575
GYM;20JJ;P.H. Schreuderschool;41572;95;2526 LL;Hendrick Goltziusstraat 5;Gemeente;41572;5;29;Permanent;1983;393;81053;453862;0;0;0;;1;GVH AE 4763;0;4.308722513058346;52.06810503614575
VO;20MJ05;Johan de Witt Scholengroep, locatie Hoof;41360;101;2526 KB;Hooftskade 127-129;Gemeente;41360;5;29;Permanent;1996;5082;81040;454137;0;0;0;39;;GVH AE 5158 & 5157;0;4.308473358707971;52.07057466482959
BO;19LY01;A.M.G. Schmidtschool;41572;102;2582 RA;Van Hoornbeekstraat 5;Gemeente;41572;4;9;Permanent;1905;1285;79281;456984;0;0;0;9;;GVH AK 916;1;4.28219026119616;52.09592207308392
GYM;19LI;De Zonnebloem;41572;103;2565 RE;Hyacinthweg 3 en 5;Gemeente;41572;3;12;Permanent;1926;300;77220;454431;0;0;0;;1;GVH AV 1934;0;4.252700639914168;52.07269337468777
BO;19LI;De Zonnebloem;41572;103;2565 RE;Hyacinthweg 3 en 5;Gemeente;41572;3;12;Permanent;1926;2108;77220;454431;0;0;0;16;;GVH AV 1934;0;4.252700639914168;52.07269337468777
GYM;19LY00;A.M.G. Schmidtschool;41572;107;2517 JM;Jacob de Graefflaan 10;Gemeente;41572;4;10;Permanent;1955;335;79279;455980;0;0;0;;1;GVH N 7711;0;4.282384077832006;52.08689917529989
BO;19LY00;A.M.G. Schmidtschool;41572;107;2517 JM;Jacob de Graefflaan 10;Gemeente;41572;4;10;Permanent;1955;1008;79279;455980;0;0;0;8;;GVH N 7711;0;4.282384077832006;52.08689917529989
BO;19LY00;A.M.G. Schmidtschool;41572;108;2517 JM;Jacob de Graefflaan 14;Gemeente;41572;4;10;Permanent;1954;555;79260;456026;0;0;0;3;;GVH N 7593;0;4.2820966873150645;52.08730996323823
VO;02DQ00;Christelijk Gymnasium Sorghvliet;33944;110;2517 JR;Johan de Wittlaan 22;Gemeente;33944;4;10;Permanent;1965;5284;79433;456130;0;0;0;40;;GVH N 7664;0;4.28459739835342;52.08826822410633
GYM;02DQ00;Christelijk Gymnasium Sorghvliet;33944;110;2517 JR;Johan de Wittlaan 22;Gemeente;33944;4;10;Permanent;1965;401;79433;456130;0;0;0;;1;GVH N 7664;0;4.28459739835342;52.08826822410633
VO;20MD00;Het Maerlant Lyceum;41360;111;2596 ED;Johannes Bildersstraat 11;Gemeente;41360;7;4;Permanent;1926;7762;81970;456508;0;0;0;57;;GVH X 2899;0;4.321527813813386;52.092005758751526
GYM;20MD00;Het Maerlant Lyceum;41360;111;2596 ED;Johannes Bildersstraat 11;Gemeente;41360;7;4;Permanent;2010;930;81970;456508;0;0;0;;2;GVH X 2899;0;4.321527813813386;52.092005758751526
VO;20MA00;Segbroek College;41360;116;2565 BT;Klaverstraat 7-9;Gemeente;41360;3;12;Permanent;1955;10501;77523;454466;0;0;0;68;;GVH AV 3218;0;4.257111446701338;52.073050389109895
GYM;20MA00;Segbroek College;41360;116;2565 BT;Klaverstraat 7-9;Gemeente;41360;3;12;Permanent;1955;1820;77471;454450;0;0;0;;4;GVH AV 3218;0;4.256356741806969;52.072899323842066
GYM;19OQ;De Springbok;41572;117;2571 VD;Pretoriusstraat 156;Gemeente;41572;5;30;Permanent;1990;455;79678;454061;0;0;0;;1;GVH AB 6449;0;4.288628404480331;52.06970810456061
BO;05VW;De Haagsche Schoolvereeniging;95694;119;2595 TG;Koningin Sophiestraat 24A;Gemeente;95694;7;26;Permanent;1930;1291;83059;455223;0;0;0;7;;GVH R 10754;0;4.337687309986626;52.08060029454047
GYM;05VW;De Haagsche Schoolvereeniging;95694;119;2595 TG;Koningin Sophiestraat 24A;Gemeente;95694;7;26;Permanent;1930;284;83059;455223;0;0;0;;2;GVH R 10754;0;4.337687309986626;52.08060029454047
SO/VSO;23GJ13;Pleysier College Westerbeek;30815;120;2573 XJ;Kootwijkstraat 35;Gemeente;CVDH;2;31;Permanent;1931;690;79293;453757;0;0;0;6;;GVH AL 4082;0;4.283081582441318;52.06692364298184
BO;18PQ;Anne Frank;41572;122;2544 RZ;Laagveen 22;Gemeente;41572;2;33;Permanent;1959;1815;77070;450842;0;0;0;8;;GVH AW 1158;0;4.251331990564654;52.04041913276284
BO;19OC;Prins Willem Alexander;41572;123;2521 SG;Laakweg 199;Gemeente;41572;6;38;Permanent;1994;1336;82011;453330;0;0;0;9;;GVH AC 3623;0;4.322805876012737;52.0634511188116
VO;20LU00;Gymnasium Haganum;41360;124;2517 AG;Laan van Meerdervoort 57;Gemeente;41360;4;11;Permanent;1907;5645;79854;455626;0;0;0;46;;GVH N 8639;0;4.29085023372295;52.083796239998875
GYM;20LU00;Gymnasium Haganum;41360;124;2517 AG;Laan van Meerdervoort 57;Gemeente;41360;4;11;Permanent;1907;539;79854;455626;0;0;0;;1;GVH N 8639;0;4.29085023372295;52.083796239998875
GYM;00WO;Instituut voor Individueel Onderwijs;95694;126;2566 EA;Laan van Poot 91;Gemeente;95694;3;13;Permanent;1918;244;77873;455962;0;0;0;;1;GVH AO 108;0;4.261877426194469;52.086543280971455
SO/VSO;00WO;Instituut voor Individueel Onderwijs;95694;126;2566 EA;Laan van Poot 91;Gemeente;95694;3;13;Permanent;1908;820;77873;455962;0;0;0;6;;GVH AO 108;0;4.261877426194469;52.086543280971455
BO;05VX00;Eerste Nederlandse Montessorischool;46879;127;2566 DA;Laan van Poot 353;Gemeente;46879;3;13;Permanent;1925;1662;76598;454967;0;0;0;11;;GVH AO 3011;0;4.243506672625458;52.07742247257709
GYM;05VX00;Eerste Nederlandse Montessorischool;46879;127;2566 DA;Laan van Poot 353;Gemeente;46879;3;13;Permanent;1925;284;76598;454967;0;0;0;;1;GVH AO 3011;0;4.243506672625458;52.07742247257709
GYM;19UJ;Laan van Poot Nutsschool;20281;128;2566 DA;Laan van Poot 355;Gemeente;20281;3;13;Permanent;1932;284;76598;454967;0;0;0;;1;GVH AO 3011;0;4.243506672625458;52.07742247257709
BO;19UJ;Laan van Poot Nutsschool;20281;128;2566 DA;Laan van Poot 355;Gemeente;20281;3;13;Permanent;1930;1566;76598;454967;0;0;0;12;;GVH AO 3011;0;4.243506672625458;52.07742247257709
BO;13ZY;De Regenboog;20281;132;2522 GR;Linnaeusstraat 12;Gemeente;20281;6;38;Permanent;1994;2558;82458;452815;0;0;0;22;;GVH AI 9536;0;4.329432795735529;52.05888160325112
BO;17PB;De Ark Chr. Basisschool;70176;136;2546 SR;Maarsbergenstraat 30-32;Gemeente;70176;2;32;Permanent;1957;1103;78587;452978;0;0;0;8;;LSD_N_2637;1;4.272961370449612;52.059826036855576
BO;04EN;Houtwijk Montessori-basisschool;41324;138;2552 KL;Mari Andriessenerf 15-17;Gemeente;70176;1;17;Permanent;1983;1095;76985;452556;0;0;0;16;;LSD M 6047;0;4.2497020016732625;52.05581034640297
BO;19MZ;Houtwijk;41572;139;2552 KN;Mari Andriessenstraat 40-42;Gemeente;41572;1;17;Permanent;1983;1023;76785;452556;0;0;0;7;;LSD M 6047;0;4.246786441014754;52.055782143930585
GYM;04EN;Houtwijk Montessori-basisschool;41324;139;2552 KN;Mari Andriessenstraat 40-42;Gemeente;41572;1;17;Permanent;1983;455;76912;452332;0;0;0;;2;LSD M 6047;0;4.24868902717382;52.053787047920494
BO;05HD;De Zuidwester;40928;140;2544 ME;Marterrade 312;Gemeente;40928;2;33;Permanent;1959;2812;77523;451366;0;0;0;20;;GVH AW 3033;0;4.2578147175555365;52.045191683576704
GYM;05HD;De Zuidwester;40928;140;2544 ME;Marterrade 312;Gemeente;40928;2;33;Permanent;1962;352;77523;451366;0;0;0;;1;GVH AW 3033;0;4.2578147175555365;52.045191683576704
BO;16FS;De Triangel;20281;143;2515 BZ;Meester de Bruinplein 3;Gemeente;20281;5;29;Permanent;2001;2259;81456;453842;0;0;0;17;;GVH L 12900;0;4.314603385634334;52.06797895792717
GYM;20JM00;Haagse Mytylschool De Piramide (SO/LG/LZ;41572;145;2541 GA;Melis Stokelaan 1185;Gemeente;41572;2;33;Permanent;1993;393;78292;450932;0;0;0;;1;GVH AW 1977;1;4.269119843166904;52.041398423112376
BO;19VA;Bezuidenhout Nutsbasisschool;20281;147;2593 TL;Merkusstraat 19;Gemeente;20281;7;26;Permanent;1929;1581;83366;455987;0;0;0;12;;GVH AU 1377;0;4.342004820357325;52.08750603650118
GYM;19VA;Bezuidenhout Nutsbasisschool;20281;147;2593 TL;Merkusstraat 19;Gemeente;20281;7;26;Permanent;1929;284;83366;455987;0;0;0;;1;GVH AU 1377;0;4.342004820357325;52.08750603650118
BO;05WB;De Vrije school;95785;149;2586 XA;2e Messstraat 31;Gemeente;95785;4;7;Permanent;1923;850;79322;458544;0;0;0;18;;GVH AF 2662;0;4.282441985479296;52.10994686711657
BO;24RU;Wonnebald De Vrije School;61960;152;2555 JK;Mozartlaan 189;Gemeente;61960;1;18;Permanent;1959;1742;76025;453320;0;0;0;14;;LSD H 6674;0;4.235530673554404;52.06254009671578
GYM;24RU;Wonnebald De Vrije School;61960;152;2555 JK;Mozartlaan 189;Gemeente;61960;1;18;Permanent;1969;393;76025;453320;0;0;0;;1;LSD H 6674;0;4.235530673554404;52.06254009671578
BO;19NN;Houtrust;41572;154;2566 JP;Nachtegaalplein 19A;Gemeente;41572;3;13;Permanent;1926;1190;77941;455621;0;0;0;9;;GVH AO 1801;0;4.262946452605088;52.08348830685007
GYM;19NN;Houtrust;41572;154;2566 JP;Nachtegaalplein 19A;Gemeente;41572;3;13;Permanent;1924;284;77941;455621;0;0;0;;1;GVH AO 1801;0;4.262946452605088;52.08348830685007
VO;02US00;Haags Montessori Lyceum;41360;156;2596 AK;Nassau Bredastraat 1-5;Gemeente;41360;7;4;Permanent;1956;6742;81619;456105;0;0;0;62;;GVH P 9313;0;4.31649351061808;52.08833767064068
GYM;02US00;Haags Montessori Lyceum;41360;156;2596 AK;Nassau Bredastraat 1-5;Gemeente;41360;7;4;Permanent;1956;910;81619;456105;0;0;0;;2;GVH P 9313;0;4.31649351061808;52.08833767064068
BO;05VW;De Haagsche Schoolvereeniging;95694;157;2514 JT;Nassaulaan 26;Schoolbestuur;95694;5;23;Permanent;1901;1499;81025;455822;0;0;0;14;;GVH P 9224;0;4.307889258189539;52.08571535886803
GYM;05VW;De Haagsche Schoolvereeniging;95694;157;2514 JT;Nassaulaan 26;Juridisch eigenaar;95694;5;23;Permanent;1901;284;81025;455822;0;0;0;;2;GVH P 9224;0;4.307889258189539;52.08571535886803
VO;20MJ02;Johan de Witt Scholengroep, locatie Nieu;41360;158;2587 AC;Nieuwe Duinweg 6 - 14;Gemeente;41360;4;7;Permanent;1924;5599;79607;458130;0;0;0;40;;GVH V 7464;0;4.286693369166131;52.106265308975935
GYM;20MJ02;Johan de Witt Scholengroep, locatie Nieu;41360;158;2587 AC;Nieuwe Duinweg 6 - 14;Gemeente;41360;4;7;Permanent;1924;455;79607;458130;0;0;0;;1;GVH V 7464;0;4.286693369166131;52.106265308975935
BO;19NQ;De Gelderlandschool;41572;160;2573 BA;Nijkerklaan 9;Gemeente;41572;2;31;Permanent;1930;1567;79228;453495;0;0;0;12;;GVH_AL_4301;0;4.282191933575209;52.064560232346054
GYM;19NQ;De Gelderlandschool;41572;160;2573 BA;Nijkerklaan 9;Gemeente;41572;2;31;Permanent;1933;335;79228;453495;0;0;0;;1;GVH AL 6583;0;4.282191933575209;52.064560232346054
BO;06MV;Rosa-Basisschool;40928;161;2573 BA;Nijkerklaan 7;Gemeente;40928;2;31;Permanent;1933;1953;79308;453451;0;0;0;13;;GVH AL 4302;0;4.283368150809491;52.064175754883316
GYM;06MV;Rosa-Basisschool;40928;161;2573 BA;Nijkerklaan 7;Gemeente;40928;2;31;Permanent;1933;390;79308;453451;0;0;0;;1;GVH AL 4302;0;4.283368150809491;52.064175754883316
VO;21GU09;Esloo College;20281;162;2516 JE;Noordpolderkade 167;Gemeente;20281;6;38;Permanent;2008;2952;82791;453133;0;0;0;47;;GVH AI 9762;0;4.334220394469837;52.061782920924074
GYM;19MP;De Kameleon;41572;162;2516 JE;Noordpolderkade 167;Gemeente;20281;6;38;Permanent;2008;460;82791;453133;0;0;0;;2;GVH AI 7276;0;4.334220394469837;52.061782920924074
VO;02GP06;Europese School Rijnlands Lyceum VO;46879;164;2596 JP;Oostduinlaan 50;Gemeente;46879;7;4;Permanent;1925;8706;81165;457090;0;0;0;63;;GVH X 5786;0;4.309656932582679;52.097129242741104
GYM;04ON01;Tamarschool;33932;165;2545 NA;Dalerveenstraat 5;Gemeente;33932;2;34;Permanent;1962;252;79006;451904;0;0;0;;1;;0;4.279309000219955;52.05023192226
GYM;19NT;De Drentse Hoek;41572;167;2545 SL;Oosterhesselenstraat 586;Gemeente;41572;2;34;Permanent;1962;393;78486;451499;0;0;0;;1;GVH AW 491;0;4.27182012047946;52.04652072673021
BO;19NW;Van Ostadeschool;41572;168;2526 EV;Van Ostadestraat 245;Gemeente;41572;5;29;Permanent;1993;2034;80817;453693;0;0;0;16;;GVH AE 5425;0;4.305317884508548;52.06655471265518
GYM;19NW;Van Ostadeschool;41572;168;2526 EV;Van Ostadestraat 245;Gemeente;41572;5;29;Permanent;1993;361;80817;453693;0;0;0;;1;GVH AE 5425;0;4.305317884508548;52.06655471265518
SO/VSO;18XS;De Springplank;70176;170;2542 XH;Pachtersdreef 3;Gemeente;70176;2;33;Permanent;1963;951;77916;450169;0;0;0;8;;GVH AW 1404;0;4.2638123441466345;52.034489371951736
GYM;18XS;De Springplank;70176;170;2542 XH;Pachtersdreef 3;Gemeente;70176;2;33;Permanent;1978;326;77929;450172;0;0;0;;1;GVH AW 1404;0;4.264001090100484;52.034518139863145
GYM;20KP;De Strandwacht (SO-PI);41572;172;2554 HZ;Paddepad 6;Gemeente;41572;1;15;Permanent;1979;393;76226;454456;0;0;0;;1;LSD H 7893 H 7995;0;4.238199093259752;52.0727775138556
SO/VSO;20KP;De Strandwacht (SO-PI);41572;172;2554 HZ;Paddepad 6;Gemeente;41572;1;15;Permanent;1979;1672;76226;454456;0;0;0;12;;LSD H 7893 H 7995;0;4.238199093259752;52.0727775138556
GYM;20KP;De Strandwacht (SO-PI);41572;173;2554 HZ;Paddepad 8;Gemeente;41572;1;15;Permanent;1979;393;76226;454456;0;0;0;;1;LSD H 7893 H 7995;0;4.238199093259752;52.0727775138556
SO/VSO;20KP;De Strandwacht (SO-PI);41572;173;2554 HZ;Paddepad 8;Gemeente;41572;1;15;Permanent;1979;1594;76226;454456;0;0;0;8;;LSD H 7015;0;4.238199093259752;52.0727775138556
BO;17ZZ;De Horizon Chr. school voor BO;70176;174;2522 DM;Paets van Troostwijkstraat 93;Gemeente;70176;6;38;Permanent;1950;1350;82549;452753;0;0;0;12;;GVH AI 10140;0;4.330772645582838;52.058336324548044
SO/VSO;19HE;Merlijn;20281;175;2522 DM;Paets van Troostwijkstraat 87;Gemeente;20281;6;38;Permanent;1992;1300;82588;452775;0;0;0;11;;GVH AI 10139;0;4.331336558660004;52.058539133405056
BO;17ZZ;De Horizon Chr. school voor BO;70176;177;2522 DM;Paets van Troostwijkstraat 83;Gemeente;70176;6;38;Permanent;1926;1235;82574;452811;0;0;0;8;;GVH AI 9539;0;4.331124818457924;52.05886083043046
BO;06KA;De Parkiet;20281;178;2566 XT;Parkietlaan 1;Gemeente;20281;3;13;Permanent;1925;968;77837;455446;0;0;0;8;;GVH AO 1506;0;4.261469008613204;52.08190115649148
GYM;06KA;De Parkiet;20281;178;2566 XT;Parkietlaan 1;Gemeente;20281;3;13;Permanent;1926;284;77837;455446;0;0;0;;1;GVH AO 1506;0;4.261469008613204;52.08190115649148
BO;17TY;P. Oosterleeschool voor Chr. Basisonderw;70176;179;2533 TG;Pieter Langendijkstraat 81;Gemeente;70176;2;36;Permanent;1953;2645;79932;451851;0;0;0;23;;GVH AL 6455;0;4.29281815525673;52.04988185220131
GYM;17TY;P. Oosterleeschool voor Chr. Basisonderw;70176;179;2533 TG;Pieter Langendijkstraat 85;Gemeente;70176;2;36;Permanent;1963;393;79932;451851;0;0;0;;1;GVH AL 6455;0;4.29281815525673;52.04988185220131
VO;02GJ00;Christelijk College De Populier;20281;180;2565 MK;Populierstraat 109;Schoolbestuur;20281;3;12;Permanent;1923;5432;78482;455288;0;0;0;50;;GVH AN 4988;0;4.2709126729033615;52.08057079561132
BO;19OQ;De Springbok;41572;181;2571 VD;Pretoriusstraat 123;Gemeente;41572;5;30;Permanent;1903;2296;79654;454104;0;0;0;18;;GVH AB 934;0;4.2882689326985135;52.070091269243036
BO;04MG;Duinoordschool;31227;182;2582 LR;Prins Mauritslaan 8;Gemeente;31227;4;9;Permanent;1993;1085;79076;456765;0;0;0;8;;GVH AK 10393;0;4.279247888008341;52.09392590491802
BO;19QD;De Kleine Wereld;41572;187;2531 VP;Rederijkerstraat 120;Gemeente;41572;2;36;Permanent;1980;1235;80647;452449;0;0;0;9;;GVH AC 3625;1;4.303109895561362;52.05535236058075
GYM;19QD;De Kleine Wereld;41572;187;2531 VP;Rederijkerstraat 120;Gemeente;41572;2;36;Permanent;1980;455;8064;452449;0;0;0;;3;GVH AC 3625;1;3.2453562629235164;52.04086246572894
GYM;19SI;De La Reyschool;41572;188;2571 GH;De la Reyweg 212;Gemeente;41572;5;30;Permanent;1955;284;79638;453710;0;0;0;;1;GVH AB 3187;0;4.288122598707459;52.06654831906854
BO;19SI;De La Reyschool;41572;188;2571 GH;De la Reyweg 212;Gemeente;41572;5;30;Permanent;1917;1612;79638;453710;0;0;0;12;;GVH AB 3187;0;4.288122598707459;52.06654831906854
GYM;19YL00;De Voorsprong;41572;194;2525 AA;Ruijsdaelstraat 11;Gemeente;41572;5;29;Permanent;1994;455;80464;454094;0;0;0;;1;GVH L 9160;0;4.300083057148283;52.070111014376614
BO;19YL00;De Voorsprong;41572;194;2525 AA;Ruijsdaelstraat 11;Gemeente;41572;5;29;Permanent;1994;2938;80464;454094;0;0;0;20;;GVH L 9160;0;4.300083057148283;52.070111014376614
SO/VSO;02DE00;Bernardusschool (SO/VSO-ZMLK);20281;195;2597 EE;Ruychrocklaan 340;Gemeente;20281;7;4;Permanent;1983;1315;82400;457802;0;0;0;10;;GVH X 5127;0;4.327525821415614;52.10369121463735
GYM;02DE00;Bernardusschool (SO/VSO-ZMLK);20281;195;2597 EE;Ruychrocklaan 340;Gemeente;20281;7;4;Permanent;1983;244;82400;457802;0;0;0;;1;GVH X 5127;0;4.327525821415614;52.10369121463735
BO;20JC;De Bonte Vlinder;41572;199;2562 TW;De RÃ©aumurstraat 43;Gemeente;41572;3;20;Permanent;1917;1086;79065;454250;0;0;0;8;;GVH AM 4281;0;4.279647314856553;52.071322878912376
BO;17ZM;Meester Schabergschool;70176;203;2513 XX;Sirtemastraat 400;Gemeente;70176;5;28;Permanent;1992;1231;80346;454672;0;0;0;8;;GVH C 6362;0;4.298235863298786;52.075289461641816
BO;19UK;Jan Ligthart;41572;204;2515 GE;Slicherstraat 5, 7 en 9;Gemeente;41572;5;29;Permanent;1983;1935;81405;454132;0;0;0;15;;GVH AE 4709;0;4.3137971755935975;52.07057835355471
BO;17ZH;Prinses Ireneschool voor Chr. BO;70176;206;2515 GE;Slicherstraat 6;Gemeente;70176;5;29;Permanent;1983;1695;81470;45084;0;0;0;15;;GVH AE 4731 A2;0;4.395230407195351;48.39470355999511
GYM;17SI;Van Hoogstratenschool voor Chr. Basisond;70176;208;2593 RM;Spaarwaterstraat 21;Gemeente;70176;7;26;Permanent;1963;393;83278;456142;0;0;0;;1;GVH AU 4027;0;4.340688434296494;52.088887602176904
BO;17SI;Van Hoogstratenschool voor Chr. Basisond;70176;208;2593 RM;Spaarwaterstraat 21;Gemeente;70176;7;26;Permanent;1954;1045;83278;456142;0;0;0;9;;GVH AU 4027;0;4.340688434296494;52.088887602176904
VO;20KD00;Praktijkschool De Einder;41360;210;2572 NK;Spionkopstraat 9;Gemeente;41360;5;30;Permanent;1988;1533;80132;453135;0;0;0;21;;GVH-AB_6686;0;4.295451934411953;52.061447933155
GYM;20KD00;Praktijkschool De Einder;41360;210;2572 NK;Spionkopstraat 9;Gemeente;41360;5;30;Permanent;1988;469;80132;453135;0;0;0;;2;GVH AB 6686 D2;0;4.295451934411953;52.061447933155
VO;02UT00;Het Vrijzinnig Christelijk Lyceum;79496;547;2585 JN;Van Stolkweg 35;Gemeente;79496;4;6;Permanent;2018;5163;79545;457648;0;0;0;24;;GVH AK 9119;0;4.285895269319048;52.1019252844766
GYM;02UT00;Het Vrijzinnig Christelijk Lyceum;79496;547;2585 JN;Van Stolkweg 35;Gemeente;79496;4;6;Permanent;2018;914;79545;457648;0;0;0;;2;GVH AK 9119;0;4.285895269319048;52.1019252844766
BO;07AK;De Buutplaats;40928;216;2525 SR;Stortenbekerstraat 264;Gemeente;40928;5;29;Permanent;1927;1011;80623;453385;0;0;0;7;;GVH L 9626;0;4.302556174990761;52.063760770676396
GYM;17PJ;Het Startpunt;41572;219;2526 WS;Suze Robertsonstraat 103;Gemeente;41572;5;29;Permanent;1989;455;81231;453553;0;0;0;;1;GVH L 12908;0;4.31138488822192;52.06535185403745
BO;17PJ;Het Startpunt;41572;219;2526 WS;Suze Robertsonstraat 103;Gemeente;41572;5;29;Permanent;1989;1988;81231;453553;0;0;0;15;;GVH L 12908;0;4.31138488822192;52.06535185403745
VO;19ZP06;Maris College Waldeck Loosduinen;41360;228;2551 LW;Toscaninistraat 187;Gemeente;41360;1;18;Permanent;1984;1093;76588;453099;0;0;0;14;;LSD H 7618;0;4.243789953222463;52.060634043673296
GYM;15VU;'t Palet;20281;233;2526 HR;Vaillantlaan 230;Gemeente;20281;5;29;Permanent;1993;423;80723;453803;0;0;0;;1;GVH L 12059 A1;0;4.303923288935068;52.06753066024891
BO;15VU;'t Palet;20281;233;2526 HR;Vaillantlaan 230;Gemeente;20281;5;29;Permanent;1993;2408;80723;453803;0;0;0;18;;GVH L 12059 A1;0;4.303923288935068;52.06753066024891
GYM;04ZT;Basisschool De Drie Linden;20281;236;2563 HJ;2e Braamstraat 5;Schoolbestuur;20281;3;20;Permanent;1923;284;78386;454394;0;0;0;;1;GVH AM 5032;0;4.269713169648336;52.072523431808264
BO;04ZT;Basisschool De Drie Linden;20281;236;2563 HJ;2e Braamstraat 5;Schoolbestuur;20281;3;19;Permanent;1923;1262;78386;454394;0;0;0;9;;GVH AM 5032;0;4.269713169648336;52.072523431808264
BO;17SU;Comenius Chr. Basisschool;70176;238;2572 PD;Viljoenstraat 8;Gemeente;70176;5;30;Permanent;1922;526;80112;453248;0;0;0;4;;GVH AB 3816;0;4.295135555079153;52.0624607333944
GYM;19YS;De Vlierboom;41572;240;2564 JJ;Vlierboomstraat 366;Gemeente;41572;3;19;Permanent;2014;311;77720;453969;0;0;0;;1;GVH-AV-3223 A1;0;4.260096925977939;52.06861154862248
GYM;17VA;De Vliermeent Chr. Basisschool;70176;239;2564 HT;Vlierboomstraat 362;Gemeente;70176;3;19;Permanent;1960;284;77811;454059;0;0;0;;1;GVH AV 3140;1;4.261403537094169;52.06943304060266
BO;19SI;De La Reyschool;41572;241;2573 AH;Voorthuizenstraat 245;Gemeente;41572;2;31;Permanent;1977;1044;79224;453507;0;0;0;8;;GVH AL 6582;0;4.282130947058845;52.06466752581516
GYM;31PG;Yunus Emre;40272;243;2572 HB;Vrijstaathof 50;Gemeente;40272;5;30;Permanent;1963;244;79951;453209;0;0;0;;1;GVH AB 6891;0;4.292796725551638;52.062088459329516
BO;31PG;Yunus Emre;40272;243;2572 HB;Vrijstaathof 50;Gemeente;40272;5;30;Permanent;1987;1580;79951;453209;0;0;0;27;;GVH AB 6891;0;4.292796725551638;52.062088459329516
VO;16TV00;De Vrije school Den Haag;95785;244;2597 JB;Waalsdorperweg 12;Gemeente;95785;7;4;Permanent;1928;4939;81186;457334;0;0;0;49;;GVH_X_4809;0;4.309910506727344;52.09932480763442
GYM;16TV00;De Vrije school Den Haag;95785;244;2597 JB;Waalsdorperweg 12;Gemeente;95785;7;4;Permanent;1928;313;81186;457334;0;0;0;;1;;0;4.309910506727344;52.09932480763442
GYM;19YX;De Leeuwerikhoeve;41572;245;2591 BR;Walenburg 25;Gemeente;41572;7;25;Permanent;1960;323;84740;456416;0;0;0;;1;GVH AS 423;0;4.36196108071863;52.09153747115237
BO;19YX;De Leeuwerikhoeve;41572;245;2591 BR;Walenburg 25;Gemeente;41572;7;25;Permanent;1960;1739;84740;456416;0;0;0;13;;GVH AS 423;0;4.36196108071863;52.09153747115237
BO;09WY;Basisschool Toermalijn;20281;246;2562 HS;Weimarstraat 300;Gemeente;;3;20;Permanent;1922;1485;78928;454502;0;0;0;9;;GVH AM 7609;0;4.277593274824663;52.07356872392639
GYM;09WY;Basisschool Toermalijn;20281;246;2562 HS;Weimarstraat 300;Gemeente;20281;3;20;Permanent;1920;335;78928;454502;0;0;0;;1;GVH AM 7609;0;4.277593274824663;52.07356872392639
GYM;17RI;Oranje Nassauschool voor Chr. Basisonder;70176;247;2596 GD;Weissenbruchstraat 119;Gemeente;70176;7;4;Permanent;1927;284;82050;456370;0;0;0;;1;GVH X 1850;0;4.3227245317490235;52.09077613219194
BO;17RI;Oranje Nassauschool voor Chr. Basisonder;70176;247;2596 GD;Weissenbruchstraat 119;Gemeente;70176;7;4;Permanent;1927;1559;82050;456370;0;0;0;13;;GVH X 1850;0;4.3227245317490235;52.09077613219194
BO;08ZU;Carolusschool;20281;249;2512 GW;Westeinde 107;Schoolbestuur;20281;5;28;Permanent;1957;540;80594;454776;0;0;0;2;;GVH C 6267;0;4.301830101001079;52.07625746330922
GYM;08ZU;Carolusschool;20281;250;2512 GW;Westeinde 103;Gemeente;20281;5;28;Permanent;1933;372;80615;454787;0;0;0;;1;GVH C 6267;0;4.3021339806384695;52.07635913894042
BO;08ZU;Carolusschool;20281;250;2512 GW;Westeinde 103;Gemeente;20281;5;28;Permanent;1892;1859;80615;454787;0;0;0;13;;GVH C 6267;0;4.3021339806384695;52.07635913894042
GYM;05YX18;School 2 Care;62077;255;2531 SX;Willem Dreespark 307;Gemeente;62077;2;36;Permanent;1929;284;80980;452644;0;0;0;;1;GVH AC 1666;0;4.3079220663025435;52.05714937414009
SO/VSO;02EJ04;Het Palmhuis;62077;255;2531 SX;Willem Dreespark 307;Gemeente;62077;2;36;Permanent;1974;2417;80974;452648;0;0;0;36;;GVH AC 1666;0;4.307833728657575;52.05718451971912
GYM;17YA;Paul Krugerschool voor Chr. BO;70176;259;2572 EM;Wolmaransstraat 100;Gemeente;41572;5;30;Permanent;1994;476;80154;453555;0;0;0;;2;GVH AB 6829;0;4.295680621098952;52.065225344770184
BO;17YA;Paul Krugerschool voor Chr. BO;70176;259;2572 EM;Wolmaransstraat 100;Gemeente;41572;5;30;Permanent;1994;2037;80154;453555;0;0;0;34;;GVH AB 6829;0;4.295680621098952;52.065225344770184
VO;07MZ01;Praktijkschool De Poort;70176;260;2551 CT;Landrepad 7000;Gemeente;70176;1;18;Permanent;1976;1089;75495;453028;0;0;0;25;;LSD H 4905;1;4.227871294538235;52.059840181608436
GYM;19VU;Woonstede Nutsbasisschool;20281;262;2543 VR;Woonstede 94;Gemeente;20281;2;33;Permanent;1959;393;77694;450706;0;0;0;;1;GVH AW 788;0;4.260456196901419;52.03928433024883
SO/VSO;20JC;De Bonte Vlinder;41572;272;2565 XD;Aucubastraat 3;Gemeente;41572;3;12;Permanent;1969;1332;78148;454787;0;0;0;10;;GVH AN 2456;0;4.2661538286171785;52.07602221126723
GYM;20JC;De Bonte Vlinder;41572;272;2565 XD;Aucubastraat 3;Gemeente;41572;3;12;Permanent;1969;284;78148;454787;0;0;0;;1;GVH AN 2456;0;4.2661538286171785;52.07602221126723
VO;20MA00;Segbroek College;41360;276;2565 CR;Goudsbloemlaan 131;Gemeente;41360;3;12;Permanent;1956;6049;77670;454955;0;0;0;40;;GVH AN 4835;0;4.259144392183474;52.07746541122933
GYM;20MA00;Segbroek College;41360;276;2565 CR;Goudsbloemlaan 131;Gemeente;41360;3;12;Permanent;1956;910;77670;454955;0;0;0;;2;GVH AN 4835;0;4.259144392183474;52.07746541122933
VO;20MM00;Zuid-West College;20281;278;2542 JR;Beresteinlaan 627;Gemeente;20281;2;33;Permanent;1998;8531;77662;450454;0;0;0;67;;GVH AW 2968;0;4.260046878673941;52.03701521107697
GYM;07MZ00;Praktijkschool de Poort;70176;286;2584 AW;Duinstraat 55;Gemeente;70176;4;7;Permanent;1966;244;78647;457708;0;439114;63039;;1;GVH AH 3458;1;4.272777363094101;52.10234128209336
BO;19MP;De Kameleon;41572;318;2516 VN;Ketelstraat 101;Gemeente;41572;6;38;Permanent;1999;949;83033;453228;0;0;0;7;;GVH AI 9661;0;4.337728746236337;52.062668159603994
BO;13EK;Onze Wereld;20281;325;2572 CH;Brandtstraat 80;Gemeente;20281;5;30;Permanent;2000;1865;79842;453743;0;0;0;18;;GVH AB 5067;0;4.2910899504545705;52.0668726026284
BO;26AX;Daltonschool De Vijver;41572;331;2548 WJ;Kikkerbeetlaan 27;Gemeente;41572;2;40;Permanent;2001;2408;80457;448550;0;0;0;18;;GVH AY 4261;0;4.301190147474309;52.0202871833269
BO;19NQ;De Gelderlandschool;41572;0337A;2573 AH;Voorthuizenstraat 245A;Gemeente;41572;2;31;Nood;1993;206;79224;453307;0;0;0;2;;;1;4.282175335423493;52.0628701805429
BO;26AW;De Vlieger;20281;350;2497 DN;Frits Diepenlaan 43;Gemeente;20281;8;42;Permanent;1999;1659;84997;450752;0;0;0;11;;GVH BK 3314;0;4.366872050164955;52.04066806997238
BO;26PJ;Daltonschool Waterland;41572;351;2492 NZ;Eendenplein 1;Gemeente;41572;8;42;Permanent;2001;1219;88114;453464;0;0;0;8;;GVH BD 6093;0;4.411766422707366;52.065425690809086
BO;26PX;RK Basisschool De Walvis;41447;352;2492 NZ;Eendenplein 5;Gemeente;41447;8;42;Permanent;2001;2677;881810;453434;0;0;0;22;;GVH BD 6095;0;15.901988883551256;51.59627156794949
BO;26PP;De Notenkraker;41572;353;2496 HS;Eksterhof 2;Gemeente;41572;8;42;Permanent;2000;1964;86152;451735;0;0;0;15;;GVH BF 4192;0;4.383506206706811;52.049646901915025
GYM;26PP;De Notenkraker;41572;353;2496 HS;Eksterhof 2;Gemeente;41572;8;42;Permanent;2000;338;86139;451728;0;0;0;;1;GVH BF 4153;0;4.383318126228634;52.04958237836111
BO;27CH;De Paradijsvogel;20281;354;2496 HT;Eksterhof 3;Gemeente;20281;8;42;Permanent;2000;1204;86124;451706;0;0;0;12;;GVH BF 4223 A1;0;4.383103917441827;52.049382801158764
GYM;26PJ;Daltonschool Waterland;41572;357;2492 NZ;Eendenplein 3;Gemeente;41572;8;42;Permanent;2001;506;88184;453464;0;0;0;;2;GVH BD 6094;0;4.412787128135952;52.06543413586495
BO;26PT;Balans, Samenwerkingsschool;20281;358;2492 MA;Klaverveld 5;Gemeente;20281;8;42;Permanent;1998;2531;87700;453964;0;0;0;19;;GVH BD 6107;0;4.405631132319814;52.06986907246311
GYM;26PT;Balans, Samenwerkingsschool;20281;358;2492 MA;Klaverveld 5;Gemeente;20281;8;42;Permanent;1998;414;87700;453964;0;0;0;;1;GVH BD 6107;0;4.405631132319814;52.06986907246311
BO;26AV;Christoffel;40928;363;2496 RH;Madurolaan 25;Gemeente;40928;8;42;Permanent;2002;1461;85046;451000;0;0;0;10;;GVH BK 2957;0;4.367535385961216;52.042903023118555
BO;26PJ;Daltonschool Waterland;41572;364;2492 NZ;Eendenplein 4;Gemeente;41572;8;42;Permanent;2001;1470;88184;453464;0;0;0;24;;GVH BD 6094;0;4.412787128135952;52.06543413586495
GYM;27CF;Fontein;78782;365;2496 PN;Steenuillaan 2;Gemeente;78782;8;42;Permanent;2002;410;85479;451187;0;0;0;;1;GVH BG 4718;0;4.373807899052256;52.044638048706325
BO;06ES;Eben-HaÃ«zerschool;42570;372;2582 CH;Paulus Buijsstraat 51;Gemeente;42570;4;9;Permanent;2002;769;78937;457033;0;0;0;5;;GVH AK 10969;0;4.277160024179843;52.096315240967925
BO;17QF;Waalse Louise de Colignyschool voor Chr.;70176;447;2593 PB;Rooseboomstraat 10;Gemeente;70176;7;26;Permanent;1957;1716;83768;455830;0;0;0;14;;GVH AU 4051;0;4.347902187009419;52.08614696665908
GYM;17QF;Waalse Louise de Colignyschool voor Chr.;70176;447;2593 PB;Rooseboomstraat 10;Gemeente;70176;7;26;Permanent;1957;455;83768;455830;0;0;0;;1;GVH AU 4051;0;4.347902187009419;52.08614696665908
BO;17YA;Paul Krugerschool voor Chr. BO;70176;448;2572 PV;Fischerstraat 133;Gemeente;70176;5;30;Permanent;1994;1218;80138;453588;0;0;0;10;;GVH AB 6831;0;4.2954400880702535;52.06551974528362
BO;19TA;Basisschool De Vuurtoren;70176;373;2587 EB;Stevinstraat 65E;Gemeente;70176;4;7;Permanent;2003;1428;79466;458364;0;0;0;11;;GVH V 3536;0;4.284583670098864;52.108348952242864
GYM;19TA;Basisschool De Vuurtoren;70176;373;2587 ED;Stevinstraat 65E;Gemeente;70176;4;7;Permanent;2003;367;79466;458364;0;0;0;;1;GVH V 3536;0;4.284583670098864;52.108348952242864
BO;19OC;Prins Willem Alexander;41572;376;2521 EC;Slachthuisplein 15;Gemeente;41572;6;38;Permanent;2003;1228;82022;453367;0;0;0;8;;GVH AC 3627;0;4.322958353572017;52.06378508032186
GYM;19OC;Prins Willem Alexander;41572;376;2521 EC;Slachthuisplein 15;Gemeente;41572;6;38;Permanent;2003;440;82022;453367;0;0;0;;1;GVH AC 3627;0;4.322958353572017;52.06378508032186
VO;20MM00;Zuid-West College;20281;378;2548 AE;Leyweg 1479a;Gemeente;;2;40;Nood;2003;1330;79443;450566;0;0;0;14;;GVH AX 3899;1;4.285974541186533;52.03826737470113
BO;08NF;De Jonge Wereld;20281;383;2547 ST;Den Helderstraat 250;Gemeente;20281;2;32;Permanent;2003;1988;78059;453422;0;0;0;15;;LSD N 2867;0;4.265163519637933;52.063743037763636
BO;17VA;De Vliermeent Chr. Basisschool;70176;384;2547 ST;Den Helderstraat 248;Gemeente;70176;2;32;Permanent;2003;958;78059;453422;0;0;0;7;;LSD N 2867;0;4.265163519637933;52.063743037763636
VO;20MM00;Zuid-West College;20281;382;2548 AE;Leyweg 1479;Juridisch eigenaar;;2;40;Nood;2003;2031;79443;450566;0;0;0;18;;GVH AX 3899;1;4.285974541186533;52.03826737470113
SO/VSO;23GJ00;Pleysier College Zefier;30815;393;2566 ER;Dr. van Welylaan 4;Gemeente;30815;3;13;Permanent;2002;1694;77525;455718;0;0;0;13;;GVH AO 3172 A4;0;4.2568562832867896;52.08430194047535
GYM;20KP;De Strandwacht (SO-PI);41572;393;2566 ER;Dr. van Welylaan 4;Gemeente;30815;3;13;Permanent;2002;455;77525;455718;0;0;0;;2;GVH AO 3172 A4;0;4.2568562832867896;52.08430194047535
SO/VSO;20KP;De Strandwacht (SO-PI);41572;394;2566 ER;Dr. van Welylaan 6;Gemeente;41572;3;13;Permanent;2002;391;77525;455718;0;0;0;3;;GVH AO 3172 A4;0;4.2568562832867896;52.08430194047535
BO;27CH;De Paradijsvogel;20281;402;2496 MT;Weidevogellaan 201;Gemeente;20281;8;42;Permanent;2004;2037;85652;451487;0;0;0;15;;GVH BG 4755;0;4.376268425840582;52.047355809857045
GYM;27CH;De Paradijsvogel;20281;402;2496 MT;Weidevogellaan 201;Gemeente;20281;8;42;Permanent;2004;425;85652;451487;0;0;0;;1;GVH BG 4755;0;4.376268425840582;52.047355809857045
BO;13JV;St. Paschalis;20281;404;2596 XH;Bisschopstraat 3;Gemeente;20281;7;4;Permanent;2004;2298;82016;456429;0;0;0;17;;GVH X 5973;0;4.322215859780688;52.09130187039346
GYM;13JV;St. Paschalis;20281;404;2596 XH;Bisschopstraat 3;Gemeente;20281;7;4;Permanent;2004;455;82016;456429;0;0;0;;1;GVH X 5973;0;4.322215859780688;52.09130187039346
BO;07AK;De Buutplaats;40928;398;2525 LE;Hoefkade 677;Gemeente;40928;5;29;Permanent;2004;1184;80623;453385;0;0;0;8;;GVH L 13075 A1;0;4.302556174990761;52.063760770676396
BO;17TD;Da Costaschool voor Christelijk Basisond;70176;399;2517 HH;Hollanderstraat 21;Gemeente;70176;4;11;Permanent;2004;1172;79272;455693;0;0;0;9;;GVH N 5212;0;4.282345692338915;52.084319037679116
GYM;17TD;Da Costaschool voor Christelijk Basisond;70176;399;2517 HH;Hollanderstraat 21;Gemeente;70176;4;11;Permanent;2004;204;79272;455693;0;0;0;;1;GVH N 5212;0;4.282345692338915;52.084319037679116
BO;26AU;OBS Ypenburg;41572;392;2497 ZJ;BÃ¶ttgerwater 21;Gemeente;41572;8;42;Permanent;2004;2228;85272;450444;0;0;0;17;;GVH BK 3317;0;4.370942525474346;52.03793472761639
BO;22MH;Shri Vishnu Hindoe Basisschool;30709;403;2525 TH;Abraham van Beyerenstraat 56;Gemeente;30709;5;29;Permanent;2004;3099;80775;453340;0;0;0;26;;GVH L 100060;0;4.304782207628404;52.06337675368347
GYM;22MH;Shri Vishnu Hindoe Basisschool;30709;403;2525 TH;Abraham van Beyerenstraat 56;Gemeente;30709;5;29;Permanent;2004;351;80775;453340;0;0;0;;1;GVH L 10060;0;4.304782207628404;52.06337675368347
BO;17PQ;Prinsehaghe Prot. Chr. Basisschool;70176;409;2512 GG;Prinsegracht 182;Gemeente;70176;5;28;Permanent;2004;1580;80554;454297;0;0;0;13;;GVH K 2797;0;4.301351215676964;52.07194743171836
GYM;17PQ;Prinsehaghe Prot. Chr. Basisschool;70176;409;2512 GG;Prinsegracht 182;Gemeente;70176;5;28;Permanent;2004;455;80554;454297;0;0;0;;1;GVH K 2797;0;4.301351215676964;52.07194743171836
BO;27CF;Fontein;78782;421;2496 PN;Steenuillaan 4;Juridisch eigenaar;;8;42;Nood;2004;1220;85442;451146;0;0;0;15;;GVH BG 4717;0;4.3732769839223256;52.044264941844304
BO;19VL;Zorgvliet Nutsschool;20281;10;2517 JX;Adriaan Goekooplaan 13;Gemeente;20281;4;10;Permanent;1929;1813;79472;456573;0;0;0;11;;GVH N 7173;0;4.285068212581844;52.09225464919544
VO;17HR05;Heldring College;20281;381;2517 RZ;Morsestraat 1;Gemeente;20281;3;12;Permanent;1973;5917;78817;455436;0;0;0;46;;GVH N 8111;0;4.275765920335848;52.08194702757057
BO;19ZJ;Zuidwalschool;41572;266;2512 XT;Zuidwal 47;Gemeente;41572;5;28;Permanent;2005;1827;81178;454294;0;0;0;14;;GVH K 3314;0;4.310451830574859;52.07200400120241
GYM;19ZJ;Zuidwalschool;41572;266;2512 XT;Zuidwal 47;Gemeente;41572;5;28;Permanent;2005;368;81178;454294;0;0;0;;1;GVH K 3314;0;4.310451830574859;52.07200400120241
BO;27PC;AL-QOEBA Basisscholen (IQRA);40389;223;2525 GG;Terwestenstraat 105;Gemeente;40389;5;29;Permanent;2005;2375;80476;45356;0;0;0;21;;GVH L 13284;0;4.381773156065204;48.39702718010777
BO;27PX;De Bras R.K. Basisschool;20281;423;2498 BZ;Oeverwallaan 104 en 106;Gemeente;20281;8;42;Permanent;2006;1683;85972;449711;0;0;0;12;;GVH BH 2724;0;4.381291202023808;52.0314348176363
GYM;27PX;De Bras R.K. Basisschool;20281;425;2498 BK;Oeverwallaan 136;Gemeente;78782;8;42;Permanent;2006;455;86168;449824;0;0;0;;2;GVH BH 3484;0;4.384124240285733;52.03247471037656
BO;13EK;Onze Wereld;20281;1055;2572 BH;Beijersstraat 72A;Gemeente;20281;5;30;Permanent;1992;115;79789;453689;0;0;0;1;;GVH AB 4104;0;4.29032902494418;52.06638012373253
Sport;16XN;Prof. Mr. A. Anemaschool;70176;1060;2542 JR;Beresteinlaan 625H;Gemeente;;2;33;Permanent;1965;2443;77567;450389;0;0;0;;;GVH AW 1688;0;4.258677283530012;52.03641781030713
Welzijn;13WM;Jeroen;20281;1067;2524 XN;Van Meursstraat 1a;Gemeente;;6;38;Permanent;1993;541;81593;452190;0;0;0;2;;GVH AI 9516 A1;0;4.316956241046671;52.05315091268158
BO;04ON01;Tamarschool;33932;539;2545 NL;Fluitenbergstraat 6-8;Gemeente;33932;2;34;Permanent;1962;2061;79897;451909;0;0;0;10;;GVH AW 431;0;4.292295245172186;52.050398342378806
Sport;15VU;'t Palet;20281;1410;2526 JG;Hobbemastraat 93;Gemeente;;5;29;Permanent;1994;2617;80686;454097;0;0;0;;3;GVH AE 5046;0;4.3033197533347645;52.070167807096915
Sport;13ZY;De Regenboog;20281;1780;2522 DM;Paets van Troostwijkstraat 93A;Gemeente;;6;38;Permanent;1992;3064;82574;452811;0;0;0;;;GVH AI 9539;1;4.331124818457924;52.05886083043046
Sport;16FS;De Triangel;20281;1935;2515 GE;Slicherstraat 11;Gemeente;;5;29;Permanent;1982;2989;81405;454132;0;0;0;;;GVH AE 4709;0;4.3137971755935975;52.07057835355471
VO;20MJ14;Johan de Witt Scholengroep, locatie Verm;41360;2035;2525 VM;Vermeerstraat 56;Gemeente;41360;5;29;Permanent;1923;860;80775;453308;0;0;0;5;;GVH L 10061;0;4.304789164173959;52.06308917673326
SO/VSO;23GJ14;Pleysier College Oosterbeek;30815;426;2572 AP;Scheepersstraat 160;Gemeente;30815;5;30;Permanent;2006;2549;79728;453760;0;0;0;27;;GVH AB 7175;0;4.289423904314949;52.067009895147685
GYM;23GJ14;Pleysier College Oosterbeek;30815;426;2572 AP;Scheepersstraat 160;Gemeente;30815;5;30;Permanent;2006;910;79717;453755;0;0;0;;2;GVH AB 6807;0;4.289264609369803;52.06696346632834
BO;17EK01;De Kleine Keizer;41572;256;2553 AZ;Loosduinse Uitleg 10;Gemeente;41572;1;17;Permanent;2007;1058;75917;452164;0;0;0;8;;LSD O 637 638 639;0;4.234223699373133;52.052136150535084
BO;05VX01;The International School Primary School;46879;430;2554 BZ;Wijndaelerduin 1A;Gemeente;46879;1;15;Permanent;2006;5029;75206;452974;0;0;0;33;;LSD H 6668;0;4.223670570827207;52.05931334744271
VO;21GU07;Montaigne Lyceum;20281;435;2496 RP;Kiekendiefstraat 25;Gemeente;20281;8;42;Permanent;2006;9293;86298;452013;0;0;0;71;;GVH BF 4214;0;4.385578440598133;52.05216339897463
BO;26PT;Balans, Samenwerkingsschool;20281;437;2492 MA;Klaverveld 5B;Gemeente;20281;8;42;Nood;2006;513;87700;453964;0;0;0;6;;GVH BD 6107;0;4.405631132319814;52.06986907246311
VO;20CQ01;Lyceum Ypenburg;41360;436;2496 VB;Laan van Kans 3;Gemeente;41360;8;42;Permanent;2007;9005;84643;451297;0;0;0;60;;GVH BK 3323;0;4.36160093144837;52.0455211590749
BO;27CH;De Paradijsvogel;20281;401;2496 MT;Weidevogellaan 203;Juridisch eigenaar;;8;42;Permanent;2005;685;85630;451499;0;0;0;7;;GVH BG 4754;0;4.37594532920974;52.04746090135005
GYM;17UD;Dr. J.A. Gerth van Wijkschool voor Chr.;70176;258;2523 GW;Withuysstraat 2 - 4;Gemeente;70176;6;38;Permanent;1932;284;81579;452763;0;0;0;;1;GVH AI 6724;1;4.316628994816591;52.05829850865018
BO;17PB;De Ark Chr. Basisschool;70176;438;2546 SP;Maarsbergenstraat 169C;Gemeente;70176;2;32;Permanent;2007;2499;78426;45262;0;0;0;20;;LSD N 24218;0;4.354137912182343;48.395930702721124
GYM;13WM;Jeroen;20281;451;2524 HV;Guido Gezellestraat 51;Gemeente;20281;6;38;Permanent;1928;298;84535;452255;0;0;0;;1;;0;4.359829279602801;52.05411693182127
Welzijn;02GP05;The International School of The Hague;46879;2119;2554 BZ;Wijndaelerduin 1 en 3;Gemeente;;1;15;Terrein;2006;12015;74962;453350;0;0;0;1;;LSD H 6669 D1;0;4.220025204105978;52.06265709662456
BO;27PD;Zonnestraal;78782;443;2498 BZ;Oeverwallaan 116;Gemeente;CVDH;8;42;Permanent;2006;723;86056;449748;0;0;0;7;;GVH BH 2726;0;4.382507649213415;52.03177778543836
BO;19LY00;A.M.G. Schmidtschool;41572;253;2584 XJ;Willem Beukelszoonplein 7;Gemeente;;4;7;Permanent;1904;760;79309;457792;0;0;0;6;;GVH AG 2991;0;4.282419337824674;52.10318712745021
VO;02GP05;The International School of The Hague;46879;431;2554 BX;Wijndaelerduin 1;Gemeente;46879;1;15;Permanent;2007;12427;75206;452974;0;0;0;85;;LSD H 6669;0;4.223670570827207;52.05931334744271
GYM;02GP05;The International School of The Hague;46879;431;2554 BZ;Wijndaelerduin 1;Gemeente;46879;1;15;Permanent;2007;910;75206;452974;0;0;0;;4;LSD H 6669;0;4.223670570827207;52.05931334744271
BO;05OL;De Elout;70176;444;2561 VT;Copernicusstraat 159;Gemeente;70176;3;20;Permanent;2007;1309;78906;454867;0;0;0;10;;GVH AM 784;0;4.2771910342831125;52.076845844124875
SO/VSO;20KP;De Strandwacht (SO-PI);41572;442;2554 HZ;Paddepad 8A;Gemeente;41572;1;15;Nood;2007;188;76165;454339;0;0;0;3;;LSD H 7015;0;4.237336539029108;52.07171739910428
BO;13WM;Jeroen;20281;451;2524 CK;Guido Gezellestraat 51;Gemeente;20281;6;38;Permanent;2008;2085;81523;452269;0;0;0;16;;GVH AI 9529;0;4.315918846423152;52.0538515940466
BO;19SG;Nutsschool Morgenstond;20281;455;2545 VC;Zweeloostraat 61;Gemeente;20281;2;34;Permanent;2008;1237;78361;451830;0;0;0;10;;GVH AW 4307;0;4.26992403064338;52.04947806155676
VO;20MM01;Wateringse Veld College, VMBO/HAVO;20281;454;2548 HT;Missouri 1;Gemeente;20281;2;40;Permanent;2008;8421;6041;449520;0;0;0;61;;GVH AX 8206;0;3.2171629520341964;52.01401174890751
BO;23GV;Yunus Emre Islamitische Basisschool;40272;457;2572 HT;Mandelaplein 2;Gemeente;40272;5;30;Permanent;2008;1854;80176;453414;0;0;0;14;;GVH AB 5836 5837;0;4.2960323060060706;52.06396118455314
GYM;19SG;Nutsschool Morgenstond;20281;455;2545 VC;Zweeloostraat 61;Gemeente;20281;2;34;Permanent;2008;455;78361;451830;0;0;0;;1;GVH AW 4307;0;4.26992403064338;52.04947806155676
SO/VSO;05YX17;Midgaard College;62077;458;2553 RM;Monsterseweg 216;Juridisch eigenaar;;1;15;Permanent;2008;1020;74099;451633;0;0;0;10;;LSD H 2856;0;4.207849388005169;52.04710179648317
BO-Voorschool;17TY/VPZ;Voorschool Pippeloentje;;179;2533 TG;Pieter Langendijkstraat 81;Gemeente;70176;2;36;Permanent;2010;115;79932;451851;0;0;0;1;;GVH AL 6455;1;4.29281815525673;52.04988185220131
BO;19XU;De Tweemaster;41572;462;2583 JH;Tesselsestraat 75A;Gemeente;41572;4;8;Permanent;2009;775;77722;456426;0;0;0;4;;GVH AO 1238;0;4.2595694947069624;52.090692012751504
BO-Voorschool;19XU/VPZ;Voorschool De Driemaster;41572;462;2583 JH;Tesselsestraat 75A;Gemeente;41572;4;8;Permanent;2009;115;77722;456426;0;0;0;1;;GVH AO 1238;1;4.2595694947069624;52.090692012751504
GYM;19VH;De Oranjeschool;70176;463;2583 JH;Tesselsestraat 75;Gemeente;70176;4;8;Permanent;2009;455;77722;456426;0;0;0;;2;GVH AO 1238;0;4.2595694947069624;52.090692012751504
BO-Voorschool;17ZS/VPZ;Voorschool den Hertogschool;;14;2595 TA;Amalia van Solmsstraat 5;Gemeente;70176;7;26;Permanent;2007;86;82966;455383;0;0;0;1;;GVH R 11886;1;4.336297006857995;52.08202609662767
SO/VSO;02DE01;Bernardusschool (SO/VSO-ZMLK);20281;452;2597 GV;Theo Mann-Bouwmeesterlaan 63;Gemeente;20281;7;4;Permanent;2011;900;82294;457996;0;0;0;10;;GVH X 6007;0;4.325937487663946;52.10542072912791
SO/VSO;20JG03;Insp S De Vriesschool (VSO);41572;453;2597 TJ;Esther de Boer - Van Rijklaan 80;Gemeente;41572;7;4;Permanent;2011;1834;82294;457996;0;0;0;17;;GVH X 6007;0;4.325937487663946;52.10542072912791
GYM;20JG03;Insp S De Vriesschool (VSO);41572;453;2597 TJ;Esther de Boer - Van Rijklaan 80;Gemeente;41572;7;4;Permanent;2011;340;82294;457996;0;0;0;;1;GVH X 6007;0;4.325937487663946;52.10542072912791
VO;21GU06;Diamant College;20281;456;2592 GD;Diamanthorst 183;Gemeente;20281;7;25;Permanent;1968;5400;84389;456759;0;0;0;47;;GVH AS 1282;0;4.356769003748238;52.09457530705825
GYM;27CH;De Paradijsvogel;20281;435;2496 RP;Kiekendiefstraat 25;Gemeente;20281;8;42;Permanent;2005;1365;86298;452013;0;0;0;;6;GVH BF 4214;0;4.385578440598133;52.05216339897463
BO-Voorschool;23GV/VPZ;Voorschool Yunus Emre;;457;2572 HT;Mandelaplein 2;Gemeente;40272;5;30;Permanent;2008;84;80176;453414;0;0;0;1;;GVH AB 5836 5837;1;4.2960323060060706;52.06396118455314
GYM;20MM01;Wateringse Veld College, VMBO/HAVO;20281;454;2548 HT;Missouri 1;Gemeente;41402;2;40;Permanent;2008;1387;79208;449520;0;0;0;;3;GVH AX 806;0;4.282781873840097;52.02883510191313
GYM;21GU06;Diamant College;20281;456;2592 GD;Diamanthorst 183;Gemeente;20281;7;25;Permanent;1968;455;84389;456759;0;0;0;;1;GVH AS 1282;0;4.356769003748238;52.09457530705825
BO-Voorschool;05HD/VPZ;Voorschool De Zuidwestertjes;59083;140;2544 ME;Marterrade 312;Gemeente;59083;2;33;Permanent;2008;199;77523;451366;0;0;0;2;;GVH AW 3033;1;4.2578147175555365;52.045191683576704
BO;19VH;De Oranjeschool;70176;463;2583 JH;Tesselsestraat 75;Gemeente;70176;4;8;Permanent;2009;823;77722;456426;0;0;0;6;;GVH AO 1238;0;4.2595694947069624;52.090692012751504
BO-Voorschool;17RV/VPZ;Voorschool De Meerpaal;70176;463;2583 JH;Tesselsestraat 75;Gemeente;70176;4;8;Permanent;2009;115;77722;456426;0;0;0;1;;GVH AO 1238;1;4.2595694947069624;52.090692012751504
BO-Voorschool;19VA/VPZ;Voorschool Bezuidenhout - 2Bootjes;;147;2593 TL;Merkusstraat 19;Gemeente;20281;7;26;Permanent;1929;207;83366;455987;0;0;0;2;;GVH AU 1377;1;4.342004820357325;52.08750603650118
BO;19LY01;A.M.G. Schmidtschool;41572;484;2582 RA;Van Hoornbeekstraat 5;Gemeente;41572;4;9;Permanent;2011;1257;79284;456981;0;0;0;9;;GVH AK 916;0;4.282234700660424;52.09589552355604
BO-Voorschool;06MV/VPZ;Voorschool Pinky;59083;161;2573 BA;Nijkerklaan 7;Gemeente;59083;2;31;Permanent;1933;115;79308;453451;0;0;0;1;;GVH AL 4302;1;4.283368150809491;52.064175754883316
BO-Voorschool;06MV/VPZ;Voorschool Pinky;59083;120;2573 XJ;Kootwijkstraat 35;Gemeente;59083;2;31;Permanent;1931;230;79293;453757;0;0;0;2;;GVH AL 4082;1;4.283081582441318;52.06692364298184
BO-Voorschool;13WM/VPZ;Voorschool Dikkie Dik;;451;2524 CK;Guido Gezellestraat 51;Gemeente;20281;6;38;Permanent;2009;98;81523;452269;0;0;0;1;;GVH AI 9529;1;4.315918846423152;52.0538515940466
BO;19VH;De Oranjeschool;70176;1992;2583 JH;Tesselsestraat 61b;Juridisch eigenaar;70176;4;8;Permanent;2011;264;77792;456460;0;0;0;2;;GVH AO 3167;0;4.2605830403133025;52.09100732812861
BO;19WO;Het Galjoen;41572;488;2525 ZX;Arnold Aletrinoplantsoen 8;Gemeente;41572;5;37;Permanent;2011;909;80665;453055;0;0;0;8;;GVH AC 2867;0;4.303240401207601;52.06080077126062
BO;19NT;De Drentse Hoek;41572;489;2545 SL;Oosterhesselenstraat 586;Gemeente;41572;2;34;Permanent;2011;1361;78486;451499;0;0;0;12;;GVH AW 491;0;4.27182012047946;52.04652072673021
BO-Voorschool;15ZZ/VPZ;Voorschool De Vuurvlinder;;57;2592 GH;Diamanthorst 10;Gemeente;20281;7;25;Permanent;1962;66;84201;456655;0;0;0;1;;GVH AS 1861;1;4.354047525606222;52.09361666091107
BO-Voorschool;19SG/VPZ;Voorschool Zweeloostraat;20281;455;2545 VC;Zweeloostraat 61;Gemeente;20281;2;34;Permanent;2008;115;78361;451830;0;0;0;1;;GVH AW 4307;1;4.26992403064338;52.04947806155676
BO-Voorschool;18PQ/VPZ;Voorschool Anne Frank;41572;122;2544 RZ;Laagveen 22;Gemeente;41572;2;33;Permanent;2011;237;77070;450842;0;0;0;2;;GVH AW 1158;1;4.251331990564654;52.04041913276284
BO-Voorschool;19MH/VPZ;Voorschool De Reamurstraat;41572;199;2562 TW;De RÃ©aumurstraat 43;Gemeente;41572;3;20;Permanent;2005;92;79065;454250;0;0;0;1;;GVH AM 4281;1;4.279647314856553;52.071322878912376
BO-Voorschool;19VV/VPZ;Voorschool Het Spectrum;41572;223;2525 GG;Terwestenstraat 105;Gemeente;41572;5;29;Permanent;2008;138;80476;453560;0;0;0;2;;GVH L 13284;1;4.300374630892549;52.06531369790253
BO-Voorschool;05OL/VPZ;Voorschool De Elout;;444;2561 VT;Copernicusstraat 159;Gemeente;70176;3;20;Permanent;2007;122;78906;454867;0;0;0;1;;GVH AM 784;1;4.2771910342831125;52.076845844124875
BO-Voorschool;17PQ/VPZ;Voorschool Prinsehaghe;70176;409;2512 GG;Prinsegracht 182;Gemeente;70176;5;28;Permanent;2004;94;80554;454297;0;0;0;1;;GVH K 2797;1;4.301351215676964;52.07194743171836
BO-Voorschool;17TT/VPZ;Voorschool Erasmusweg;;469;2532 CR;Erasmusweg 6800;Gemeente;70176;2;36;Nood;2009;113;80739;452096;0;0;0;1;;GVH AI 6843;1;4.304527794805915;52.05219235844969
BO-Voorschool;17TY/VPZ;Voorschool Pippeloentje;;470;2533 TG;Pieter Langendijkstraat 81;Gemeente;70176;2;36;Nood;2009;82;79932;451851;0;0;0;1;;GVH AL 6455;1;4.29281815525673;52.04988185220131
BO-Voorschool;17UD/VPZ;Voorschool Withuysstraat;;468;2523 GW;Withuysstraat 2;Gemeente;70176;6;38;Nood;2009;75;81579;452763;0;0;0;1;;GVH AI 6724;1;4.316628994816591;52.05829850865018
BO-Voorschool;17ZH/VPZ;Voorschool Prinses Irene;;206;2515 GE;Slicherstraat 6;Gemeente;70176;5;29;Permanent;2010;115;81470;45084;0;0;0;1;;GVh AE 4731 A2;1;4.395230407195351;48.39470355999511
BO-Voorschool;17ZM/VPZ;Voorschool Sirtemastraat;;203;2513 XX;Sirtemastraat 400;Gemeente;70176;5;28;Permanent;2008;80;80346;454672;0;0;0;1;;GVH C 6362;1;4.298235863298786;52.075289461641816
BO-Voorschool;17ZZ/VPZ;Voorschool De Horizon;;174;2522 DM;Paets van Troostwijkstraat 93;Gemeente;70176;6;38;Permanent;2009;75;82549;452753;0;0;0;1;;GVH AI 10140;1;4.330772645582838;52.058336324548044
BO;19VH;De Oranjeschool;70176;487;2583 AA;Westduinweg 127;Gemeente;70176;4;9;Permanent;2011;1136;78404;456865;0;0;0;12;;GVH AK 5803;0;4.269420724102485;52.09473196096407
GYM;19VH;De Oranjeschool;70176;487;2583 AA;Westduinweg 127;Gemeente;70176;4;9;Permanent;2011;433;78404;456865;0;0;0;;1;GVH 5803;0;4.269420724102485;52.09473196096407
BO-Voorschool;19VH/VPZ;Voorschool De Oranjeschool;;487;2583 AA;Westduinweg 125;Gemeente;70176;4;9;Permanent;2011;196;78404;456865;0;0;0;2;;GVH AK 5803;1;4.269420724102485;52.09473196096407
VO;19ZP00;Maris College Bohemen;41360;150;2555 XZ;Mgr. Nolenslaan 16;Gemeente;41360;1;18;Permanent;2011;5491;76875;453421;0;0;0;44;;LSD 7250 I;0;4.247900560621625;52.06356830001934
BO;03PY;De Oase;20281;494;2565 DC;Resedastraat 50;Gemeente;20281;3;12;Permanent;2011;2180;77444;454760;0;0;0;19;;GVH AN 4975;0;4.255892531718318;52.07568140225125
BO;17PY;Galvanischool;41572;499;2565 BM;Stokroosstraat 185;Gemeente;41572;3;12;Permanent;2011;2577;77444;454760;0;0;0;22;;GVH AN 4975;0;4.255892531718318;52.07568140225125
BO;05VX02;Europese School Den Haag, elementary edu;46879;496;2566 HA;Houtrustweg 2;Gemeente;46879;3;12;Permanent;1960;2459;78616;455641;0;0;0;19;;GVH AN 5953;0;4.272788140542422;52.08376159650515
BO-Voorschool;19NT/VPZ;Voorschool De Drentse Hoek;41572;489;2545 SL;Oosterhesselenstraat 586;Gemeente;41572;2;34;Permanent;2011;115;78786;451499;0;0;0;1;;GVH AW 491;1;4.276192586018872;52.046562070533156
BO;13ZY;De Regenboog;20281;134;2522 GR;Linnaeusstraat 4 + 6;Gemeente;20281;6;38;Permanent;1992;369;82597;452867;0;0;0;3;;GVH AI 9627;0;4.33144826505524;52.0593671001908
BO-Voorschool;19NW/VPZ;Voorschool Van Ostadeschool;;168;2526 EV;Van Ostadestraat 245;Gemeente;41572;5;29;Permanent;2012;83;80817;453693;0;0;0;1;;GVH AE 5425;0;4.305317884508548;52.06655471265518
BO;05VV;Schoolvereniging Wolters;95681;481;2597 PH;Utenbroekestraat 2;Gemeente;95681;7;4;Permanent;2012;2423;81436;457262;0;0;0;18;;GVH X 5783;0;4.3135741074503064;52.09871105338063
GYM;05VV;Schoolvereniging Wolters;95681;481;2597 PH;Utenbroekestraat 2;Gemeente;95681;7;4;Permanent;2012;430;81436;457262;0;0;0;;1;GVH X 5783;0;4.3135741074503064;52.09871105338063
GYM;19YS;De Vlierboom;41572;151;2564 LA;Mient 351;Gemeente;CVDH;3;19;Permanent;1927;282;77710;453964;0;0;0;;1;GVH AV 3194;1;4.259952237986722;52.06856521968216
GYM;17HR05;Heldring College;20281;381;2517 RZ;Morsestraat 1;Gemeente;20281;3;12;Permanent;2012;1933;78817;455436;0;0;0;;1;GVH N 8111;0;4.275765920335848;52.08194702757057
VO;21GU08;College St. Paul;20281;508;2591 SG;Isabellaland 259;Gemeente;20281;7;25;Permanent;2012;2628;850780;456923;0;0;0;39;;GVH AS 1752;0;15.466746690333634;51.666455567105054
GYM;05HC;Montessori-basisschool John F. Kennedy;20281;508;2591 SG;Isabellaland 259;Gemeente;20281;7;25;Permanent;2012;910;85078;456923;0;0;0;;4;GVH AS 1752;0;4.36678848011691;52.096136613911504
GYM;17SU;Comenius Chr. Basisschool;70176;1150;2572 NR;Colensostraat 2;Gemeente;99990;5;30;Permanent;1984;756;80105;453122;0;0;0;;3;GVH AB 6687;0;4.295061130727352;52.06132745517553
GYM;26AW;De Vlieger;20281;1564;2496 VB;Laan van Kans 9 t/m 13;Gemeente;99990;8;42;Permanent;2005;756;84570;451308;0;0;0;;6;GVH BK 3430;0;4.360534702157039;52.0456107470678
GYM;19VB;De Wissel;41572;1099;2541 RL;Steenwijklaan 16;Juridisch eigenaar;;2;34;Permanent;1957;756;793950;451325;0;0;0;;3;GVH AW 2064;0;14.643886623014982;51.684242639014464
BO;00WO;Instituut voor Individueel Onderwijs;95694;97;2593 PJ;Van Heutszstraat 12;Gemeente;95694;7;26;Permanent;1932;2618;83710;45576;0;0;0;30;;GVH AU 2544;0;4.425359513381657;48.399387231596215
BO-Voorschool;19WO/VPZ;Voorschool Het Galjoen;41572;488;2525 ZW;Arnold Aletrinoplantsoen 8;Gemeente;41572;5;37;Permanent;2011;230;80665;453055;0;0;0;2;;GVH AC 2867;1;4.303240401207601;52.06080077126062
GYM;14DG;Willemspark;95694;533;2514 LK;Frederikstraat 28;Gemeente;95694;5;23;Permanent;2015;463;81172;455970;0;0;0;;1;GVH P 10120;0;4.31000161996925;52.0870650223498
BO;26AZ;De Gantel;70176;305;2548 BR;Laan van Wateringse Veld 925;Gemeente;70176;2;40;Permanent;1999;2040;0;0;0;0;0;16;;GVH AY 4288 A1;0;4.289813210470348;52.02616607365006
GYM;26AZ;De Gantel;70176;305;2548 BR;Laan van Wateringse Veld 925;Gemeente;70176;2;40;Permanent;1999;463;0;0;0;0;0;;1;GVH AY 4288 A1;0;4.289813210470348;52.02616607365006
BO;18PQ;Anne Frank;41572;321;2542 JG;Beresteinlaan 267;Gemeente;41572;2;33;Permanent;2000;2005;0;0;0;0;0;18;;GVH AW 2826;0;4.254661176027876;52.0407153748215
GYM;18PQ;Anne Frank;41572;321;2542 JG;Beresteinlaan 267;Gemeente;41572;2;33;Permanent;2000;430;0;0;0;0;0;;1;GVH AW 3766;0;4.254661176027876;52.0407153748215
BO;17MC;Bohemen - Kijkduin;41572;323;2555 SB;Daltonplantsoen 6;Gemeente;41572;1;14;Permanent;2000;2360;0;0;0;0;0;18;;LSD H 7937;0;4.240475278825328;52.06920541395739
GYM;17MC;Bohemen - Kijkduin;41572;323;2555 SB;Daltonplantsoen 6;Gemeente;41572;1;14;Permanent;2000;386;0;0;0;0;0;;1;LSD H 7937;0;4.240475278825328;52.06920541395739
VO;00HI03;FranÃ§ois Vatelschool;41298;330;2592 TD;Granaathorst 20;Gemeente;41298;7;25;Permanent;2001;5040;0;0;0;0;0;30;;GVH AS 1257;0;4.355263249345778;52.09182226891043
GYM;00HI03;FranÃ§ois Vatelschool;41298;330;2592 TD;Granaathorst 20;Gemeente;41298;7;25;Permanent;2001;410;0;0;0;0;0;;1;GVH AS 1257;0;4.355263249345778;52.09182226891043
GYM;26AX;Daltonschool De Vijver;41572;331;2548 WJ;Kikkerbeetlaan 27;Gemeente;41572;2;40;Permanent;2001;337;0;0;0;0;0;;1;GVH AY 4261;0;4.3010492672588345;52.02018883941131
BO;27CF;Fontein;78782;365;2496 PN;Steenuillaan 2;Gemeente;78782;8;42;Permanent;2002;2130;0;0;0;0;0;16;;GVH BG 4772 A2;0;4.374295572164642;52.04471859353512
GYM;08NF;De Jonge Wereld;20281;375;2547 ST;Den Helderstraat 260;Gemeente;20281;2;32;Permanent;2003;483;0;0;0;0;0;;1;;0;4.264597443228451;52.06356578537929
BO;26AY;De Fontein;20281;396;2548 CJ;Laan van Wateringse Veld 394;Gemeente;20281;2;40;Permanent;2004;2141;0;0;0;0;0;16;;GVH AX 6555 A65;1;4.2867395227131055;52.03214525373824
BO;26AY;De Fontein;20281;397;2548 CK;Laan van Wateringse Veld 462;Gemeente;20281;2;40;Permanent;2004;5792;0;0;0;0;0;46;;GVH AX 6555 A65;0;4.287045916584919;52.03172638681991
BO;27VA;Prinses Catharina Amalia school;41572;416;2493 ZL;Cicerostrook 9;Gemeente;41572;8;42;Permanent;2005;1572;0;0;0;0;0;11;;GVH BE 4941 A3;0;4.396246562909861;52.059814592993085
GYM;27VA;Prinses Catharina Amalia school;41572;417;2493 ZL;Cicerostrook 5;Gemeente;41572;8;42;Permanent;2005;525;0;0;0;0;0;;2;GVH BE 4931 A3;0;4.396142530439682;52.06011102757679
BO;26PZ;Montessorischool Leidschenveen;41081;418;2493 ZL;Cicerostrook 1;Gemeente;41081;8;42;Permanent;2005;2171;0;0;0;0;0;17;;GVH BE 4931;0;4.395672204487938;52.06021301118079
BO;27PD;Zonnestraal;78782;424;2498 BZ;Oeverwallaan 108;Gemeente;78782;8;42;Permanent;2005;1782;0;0;0;0;0;13;;GVH BH 2725;0;4.381315553328884;52.031515942347774
VO;19ZP05;Maris College Houtrust;41360;441;2566 HD;Tjalie Robinsonduin 74;Gemeente;41360;3;13;Permanent;2009;3859;0;0;0;0;0;37;;;0;4.26925255421634;52.08638833861617
BO;26AX;Daltonschool De Vijver;41572;450;2548 VG;Moskousingel 34;Juridisch eigenaar;;2;40;Permanent;2001;788;0;0;0;0;0;8;;GVH AY 5325 A1;0;4.300429865357754;52.0201107973447
SO/VSO;23GJ13;Pleysier College Westerbeek;30815;429;2571 BK;Asmansweg 16;Gemeente;30815;3;20;Permanent;2008;2638;0;0;0;0;0;28;;GVH Y 2931 A1;0;4.2901897340664;52.07466742331874
GYM;23GJ13;Pleysier College Westerbeek;30815;429;2571 BK;Asmansweg 16;Gemeente;30815;3;21;Permanent;2008;745;0;0;0;0;0;;2;GVH 2931 A1;0;4.2901897340664;52.07466742331874
VO;31EW00;'s Gravendreef College;41298;459;2492 JJ;Klaas Voskuildreef 135;Gemeente;41298;8;42;Permanent;2009;5193;0;0;0;0;0;40;;GVH BD 6030 A1;0;4.399034737797004;52.0666880256204
BO;04ON;Koningin Beatrixschool;33932;460;2525 TN;Saenredamstraat 4;Gemeente;33932;5;29;Permanent;2009;2316;0;0;0;0;0;17;;GVH L 13290 A2;0;4.305449206613688;52.06436975016064
GYM;04ON;Koningin Beatrixschool;33932;460;2525 TN;Saenredamstraat 4;Gemeente;33932;5;29;Permanent;2009;422;0;0;0;0;0;;2;GVH L 13290 A2;0;4.305449206613688;52.06436975016064
BO;25GH;Algemene Hindoe basisschool (VAHON);40740;428;2571 AR;Mackaystraat 6;Gemeente;40740;3;21;Permanent;2009;2939;0;0;0;0;0;23;;GVH U 4250 A1;0;4.290929687999847;52.07356187880217
GYM;02DE00;Bernardusschool (SO/VSO-ZMLK);20281;452;2597 GV;Theo Mann-Bouwmeesterlaan 63;Gemeente;20281;7;4;Permanent;2011;455;0;0;0;0;0;;1;GVH X 6007;0;4.325899576086496;52.10549642305387
Sport;27VA;Prinses Catharina Amalia school;41572;2028;2492 JL;Vaz Diasdreef 20;Gemeente;99990;8;42;Permanent;2009;3570;0;0;0;0;0;;;GVH BD 6030 A2;1;4.398438994255634;52.06745077735469
BO;18AR;Maria Montessorischool;41572;479;2548 NT;Zevenwoudenlaan 197;Gemeente;41572;2;40;Permanent;2011;2271;0;0;0;0;0;17;;;0;4.293054444730234;52.033981769299196
BO;18AR;Maria Montessorischool;41572;480;2548 NT;Zevenwoudenlaan 193;Gemeente;41572;2;40;Permanent;2011;320;0;0;0;0;0;4;;;0;4.293443390031208;52.03388908623905
BO;26AZ;De Gantel;70176;481;2548 NP;Laantje van Salland 32;Gemeente;CVDH;2;40;Permanent;2011;1621;0;0;0;0;0;30;;;0;4.2935242079503855;52.034392674144854
BO-Voorschool;04ON/VPZ;Voorschool Koningin Beatrixschool;33932;460;2525 TN;Saenredamstraat 4;Gemeente;;5;29;Permanent;2009;171;0;0;0;0;0;2;;GVH L 13290 A2;1;4.305449206613688;52.06436975016064
BO;17NQ;P.C. Hooftschool;41572;473;2547 GA;Escamplaan 65;Gemeente;CVDH;2;31;Permanent;2011;1465;0;0;0;0;0;11;;;0;4.275731685220761;52.064476364963056
GYM;17NQ;P.C. Hooftschool;41572;474;2574 PK;Naarderstraat 170;Gemeente;70176;2;31;Permanent;2011;455;0;0;0;0;0;;2;;0;4.275283541236;52.06440426895193
BO-Voorschool;17NQ/VPZ;Voorschool P.C. Hooftschool;41572;473;2547 GA;Escamplaan 65;Gemeente;CVDH;2;31;Permanent;2011;230;0;0;0;0;0;2;;;1;4.275731685220761;52.064476364963056
BO;17SU;Comenius Chr. Basisschool;70176;491;2572 NR;Colensostraat 6;Gemeente;70176;5;30;Permanent;2012;1140;0;0;443000;0;0;8;;;0;4.294382712110671;52.061443283602
BO-Voorschool;17SU/VPZ;Voorschool basisschool Comenius;;491;2572 NR;Colensostraat 6;Gemeente;70176;5;30;Permanent;2012;115;0;0;0;0;0;1;;;1;4.294382712110671;52.061443283602
VO;20MJ00;Johan de Witt Scholengroep, locatie Zust;41360;485;2512 TP;Zusterstraat 120;Gemeente;41360;5;28;Permanent;2011;5604;0;0;0;0;0;46;;;0;4.295605537052408;52.07194635272231
BO;27PX;De Bras R.K. Basisschool;20281;492;2498 BL;Hennegras 70;Juridisch eigenaar;;8;42;Nood;2011;772;0;0;0;0;0;14;;;0;4.380675698939917;52.0312782420006
GYM;20MJ00;Johan de Witt Scholengroep, locatie Zust;41360;485;2512 TP;Zusterstraat 120;Gemeente;41360;5;28;Permanent;2011;946;0;0;0;0;0;;2;;0;4.295605537052408;52.07194635272231
BO;17XC;Ds. D.J. Karresschool voor Chr. Basisond;70176;474;2574 PK;Naarderstraat 170;Gemeente;70176;2;31;Permanent;2011;1465;0;0;0;0;0;12;;;0;4.275283541236;52.06440426895193
BO-Voorschool;17XC/VPZ;Voorschool Karreschool;;474;2574 PK;Naarderstraat 170;Gemeente;70176;2;31;Permanent;2011;230;0;0;0;0;0;2;;;1;4.275283541236;52.06440426895193
VO;20MJ04;Johan de Witt Scholengroep, locatie Capa;41360;498;2523 AC;Capadosestraat 25;Gemeente;41360;6;38;Permanent;2012;2923;0;0;0;0;0;37;;;0;4.317736864772861;52.05817217840229
GYM;20MJ04;Johan de Witt Scholengroep, locatie Capa;41360;498;2523 AC;Capadosestraat 25;Gemeente;41360;6;38;Permanent;2012;455;0;0;0;0;0;;1;;0;4.317736864772861;52.05817217840229
BO;17FV;Dr. Willem Dreesschool;41572;498;2523 XC;Bresterstraat 15;Gemeente;41572;6;38;Permanent;2013;2043;0;0;0;0;0;16;;;0;4.319301361852465;52.059464218436304
GYM;17FV;Dr. Willem Dreesschool;41572;498;2523 XC;Bresterstraat 15;Gemeente;41572;6;38;Permanent;2013;453;0;0;0;0;0;;1;;0;4.319301361852465;52.059464218436304
BO-Voorschool;17PJ/VPZ;Voorschool Het Startpunt;;219;2526 WS;Suze Robertsonstraat 103;Gemeente;41572;5;29;Permanent;1989;52;0;0;0;0;0;1;;;1;4.3114634069449105;52.06546482287172
GYM;17FN;De Spoorzoeker;41572;500;2524 PB;Max Havelaarstraat 75;Gemeente;41572;6;38;Permanent;2012;449;0;0;0;0;0;;1;GVH AI 7797;0;4.311978986185473;52.05153766801121
GYM;05VX02;Europese School Den Haag, elementary edu;46879;496;2566 HA;Houtrustweg 2;Gemeente;46879;3;12;Permanent;1960;910;0;0;0;0;0;;3;;0;4.273275388947291;52.0833222935631
GYM;18AR;Maria Montessorischool;41572;1787;2548 HJ;Panamaplein 30;Gemeente;99990;2;40;Permanent;2004;756;0;0;0;0;0;;9;GVH BK 2607 A1;0;4.287698721358882;52.032608011594846
GYM;26PT;Balans, Samenwerkingsschool;20281;2028;2492 JL;Vaz Diasdreef 20;Gemeente;99990;8;42;Permanent;2009;756;0;0;0;0;0;;3;GVH BD 6030 A2;0;4.398438994255634;52.06745077735469
GYM;26AU;OBS Ypenburg;41572;1816;2497 CH;Plesmanlaan 217;Gemeente;99990;8;42;Permanent;2004;756;0;0;0;0;0;;15;;0;4.367884158514785;52.04047730099813
VO;20MM06;Het Roemer Visscher College;20281;483;2533 VG;Roemer Visscherstraat 106;Gemeente;20281;2;36;Permanent;2013;7364;0;0;0;0;0;43;;;0;4.291599402215177;52.05139399734382
SO/VSO;27ZD;Het Avontuur;20281;513;2496 ZC;Windjammersingel 80;Juridisch eigenaar;;8;42;Permanent;2013;1714;0;0;0;0;0;13;;;0;4.3901977719059415;52.05406769163308
GYM;27ZD;Het Avontuur;20281;513;2496 ZC;Windjammersingel 80;Juridisch eigenaar;;8;42;Permanent;2013;252;0;0;0;0;0;;1;;0;4.3901977719059415;52.05406769163308
SO/VSO;16VG;De Opperd (SO-ZMOK);20281;507;2544 GJ;Hengelolaan 602;Gemeente;20281;2;33;Permanent;2013;1359;0;0;0;0;0;13;;;0;4.265089589568981;52.04526717219677
GYM;16VG;De Opperd (SO-ZMOK);20281;507;2544 GJ;Hengelolaan 602;Gemeente;20281;2;33;Permanent;2013;470;0;0;0;0;0;;1;;0;4.265089589568981;52.04526717219677
BO;17YO;De Ontmoeting Chr. basisschool;70176;506;2516 KE;Draaistraat 16;Gemeente;70176;6;38;Permanent;2013;1350;0;0;0;0;0;10;;;0;4.330729098968841;52.065322673076714
GYM;17YO;De Ontmoeting Chr. basisschool;70176;506;2516 KE;Draaistraat 16;Gemeente;70176;6;38;Permanent;2013;455;0;0;0;0;0;;1;;0;4.330729098968841;52.065322673076714
BO-Voorschool;17YO/VPZ;Voorschool De Ontmoeting;70176;506;2516 KE;Draaistraat 14;Gemeente;70176;6;38;Permanent;2013;76;0;0;0;0;0;1;;;1;4.330639128751084;52.0653331650291
BO;07YO;Bavinckschool;70176;509;2565 JZ;Acaciastraat 141;Gemeente;70176;3;12;Permanent;2013;1423;0;0;0;0;0;10;;;0;4.269980070774992;52.07710018783023
GYM;07YO;Bavinckschool;70176;509;2565 JZ;Acaciastraat 141;Gemeente;70176;3;12;Permanent;2013;437;0;0;0;0;0;;1;;0;4.269980070774992;52.07710018783023
BO-Voorschool;07UO/VPZ;Voorschool De Peutergaarde;59083;18;2542 ED;Ambachtsgaarde 5;Gemeente;59083;2;33;Permanent;2015;230;0;0;0;0;0;2;;;1;4.2646439246391195;52.035506129398534
GYM;04NS;Christelijke Montessorischool De Abeel;41324;504;2565 XP;Abeelstraat 30;Gemeente;41324;3;12;Permanent;2014;455;0;0;0;0;0;;1;;0;4.268624251165078;52.07767238348705
BO-Voorschool;07AK/VPZ;Voorschool De Buutplaats;59083;216;2525 SR;Stortenbekerstraat 264;Gemeente;59083;5;29;Permanent;1927;230;0;0;0;0;0;25;;;1;4.302365044125734;52.06387485783677
GYM;20MM06;Het Roemer Visscher College;20281;483;2533 VG;Roemer Visscherstraat 106;Gemeente;41402;2;36;Permanent;2013;960;0;0;0;0;0;;2;;0;4.291599402215177;52.05139399734382
BO;17JE;Valkenbos Montessorischool;41572;503;2565 JM;Cederstraat 29;Gemeente;41572;3;12;Permanent;2014;1465;0;0;0;0;0;11;;;0;4.268921195988314;52.077471229079215
BO;04NS;Christelijke Montessorischool De Abeel;41324;504;2565 XP;Abeelstraat 30;Gemeente;41324;3;12;Permanent;2014;1695;0;0;0;0;0;13;;;0;4.268624251165078;52.07767238348705
BO;19YS;De Vlierboom;41572;240;2564 HT;Vlierboomstraat 366;Gemeente;41572;3;19;Permanent;2014;1513;0;0;0;0;0;14;;;0;4.259085189123426;52.068983329750225
BO;17MR;Benoordenhout;41572;512;2596 XG;Dreibholtzstraat 2;Gemeente;41572;7;4;Permanent;2014;1318;0;0;0;0;0;10;;;0;4.3211473445198845;52.092696093338276
VO;07MZ00;Praktijkschool de Poort;70176;514;2517 HB;2e Sweelinckstraat 160;Gemeente;70176;4;11;Permanent;2014;3229;0;0;0;0;0;21;;;0;4.2770214238375175;52.08469787468196
GYM;07MZ00;Praktijkschool de Poort;70176;514;2517 HB;2e Sweelinckstraat 160;Gemeente;70176;4;11;Permanent;2014;455;0;0;0;0;0;;1;;0;4.2770214238375175;52.08469787468196
BO;19XU;De Tweemaster;41572;515;2583 JM;Tesselsestraat 114;Gemeente;41572;4;8;Permanent;1927;613;0;0;0;0;0;7;;;0;4.259269522300185;52.089848868885866
VO;02GP06;Europese School Rijnlands Lyceum VO;46879;516;2566 HA;Houtrustweg 4;Gemeente;46879;3;12;Permanent;2014;3275;0;0;0;0;0;23;;;0;4.273928039701102;52.083498216423905
GYM;02GP04;Koninklijk Conservatorium, School voor J;46879;516;2566 HA;Houtrustweg 4;Gemeente;46879;3;12;Permanent;2014;252;0;0;0;0;0;;1;;1;4.273928039701102;52.083498216423905
BO;19VB;De Wissel;41572;516;2541 RL;Steenwijklaan 10;Gemeente;41572;2;34;Permanent;2014;1925;0;0;0;0;0;16;;;0;4.285794276807952;52.045453848309954
BO;17RV;O.G. Heldringschool voor Chr. Basisonder;70176;510;2566 VS;IJsvogelplein 10;Gemeente;70176;3;13;Permanent;2014;2348;0;0;0;0;0;20;;;0;4.256322476018262;52.081440657938245
GYM;17RV;O.G. Heldringschool voor Chr. Basisonder;70176;510;2566 VS;IJsvogelplein 10;Gemeente;70176;3;13;Permanent;2014;403;0;0;0;0;0;;1;;0;4.256322476018262;52.081440657938245
BO;20KD00;Praktijkschool De Einder;41360;526;2572 TD;Schalk Burgerstraat 493;Juridisch eigenaar;;5;30;Permanent;0;2121;0;0;0;0;0;32;;;0;4.293409413132941;52.06015127577317
GYM;20WR09;Cor Emousschool (SO);21679;534;2531 TG;Van Ruysbroekstraat 5;Gemeente;21679;2;36;Permanent;2015;455;0;0;0;0;0;;1;;0;4.303691397474674;52.05511954490017
GYM;19QD;De Kleine Wereld;41572;535;2531 TG;Van Ruysbroekstraat 7;Gemeente;41572;2;36;Permanent;2015;455;0;0;0;0;0;;1;;0;4.303972114167484;52.05491759618921
GYM;25GH;Algemene Hindoe basisschool (VAHON);40740;428;2571 AR;Mackaystraat 6;Gemeente;40740;3;21;Permanent;2009;455;0;0;0;0;0;;1;;0;4.290929687999847;52.07356187880217
BO;17YY;Jan van Nassauschool voor Chr. BO;70176;536;2515 TM;Zaanstraat 25;Gemeente;70176;5;27;Permanent;2015;1979;0;0;0;0;0;15;;;0;4.32674451390297;52.0748068097902
GYM;17YY;Jan van Nassauschool voor Chr. BO;70176;536;2515 TM;Zaanstraat 25;Gemeente;70176;5;27;Permanent;2015;476;0;0;0;0;0;;1;;0;4.32674451390297;52.0748068097902
GYM;20JE;Eerste Nederlandse Buitenschool (SO-LZ);41572;526;2587 XM;Doorniksestraat 28;Gemeente;41572;4;2;Permanent;2015;456;0;0;0;0;0;;1;;0;4.299613504735377;52.10897907707553
SO/VSO;20WR09;Cor Emousschool (SO);21679;534;2531 TG;Van Ruysbroekstraat 5;Gemeente;21679;2;36;Permanent;2015;2246;0;0;0;0;0;19;;;0;4.303691397474674;52.05511954490017
BO;19QD;De Kleine Wereld;41572;535;2531 TG;Van Ruysbroekstraat 7;Gemeente;41572;2;36;Permanent;2015;2130;0;0;0;0;0;16;;;0;4.303972114167484;52.05491759618921
BO;14DG;Willemspark;95694;533;2514 LK;Frederikstraat 28;Gemeente;95694;5;23;Permanent;2014;1284;0;0;0;0;0;10;;;0;4.310191749073577;52.087247245117055
SO/VSO;20JM02;Haagse Mytylschool De Piramide;41572;537;2541 RL;Steenwijklaan 30;Gemeente;41572;2;34;Permanent;2016;1385;0;0;0;0;0;11;;;0;4.284184662331982;52.04464523468093
GYM;20WR12;Viertaal College Den Haag (VSO);21679;537;2541 RL;Steenwijklaan 30;Gemeente;41572;2;34;Permanent;2016;514;0;0;0;0;0;;2;;0;4.284184662331982;52.04464523468093
VO;21GU00;Edith Stein College;20281;515;2514 HP;Louis Couperusplein 33;Gemeente;20281;5;28;Permanent;2015;6148;0;0;0;0;0;27;;;0;4.310077090401639;52.08421855717689
GYM;21GU00;Edith Stein College;20281;515;2514 HP;Louis Couperusplein 33;Gemeente;20281;5;28;Permanent;2015;1074;0;0;0;0;0;;2;;0;4.310077090401639;52.08421855717689
VO;19ZP03;Maris College Kijkduin;41360;531;2551 CA;Landrestraat 150;Gemeente;41360;1;18;Permanent;2016;2314;0;0;0;0;0;1;;;0;4.227648246316594;52.05974750313855
GYM;19ZP03;Maris College Kijkduin;41360;531;2551 CA;Landrestraat 150;Gemeente;41360;1;18;Permanent;2016;468;0;0;0;0;0;;1;;0;4.227648246316594;52.05974750313855
BO;17UD;Dr. J.A. Gerth van Wijkschool voor Chr.;70176;525;2523 GW;Withuysstraat 2;Gemeente;70176;6;38;Permanent;2016;2034;0;0;0;0;0;18;;;0;4.316682020760149;52.058715854090245
GYM;17UD;Dr. J.A. Gerth van Wijkschool voor Chr.;70176;525;2523 GW;Withuysstraat 2;Gemeente;70176;6;38;Permanent;2016;453;0;0;0;0;0;;1;;0;4.316682020760149;52.058715854090245
BO;16ZP;Ds. W.E. den Hertogschool;70176;538;2552 RA;Luxemburgstraat 7;Gemeente;70176;1;17;Permanent;2016;1748;0;0;0;0;0;16;;;0;4.237981033752691;52.053287013205185
GYM;16ZP;Ds. W.E. den Hertogschool;70176;538;2552 RA;Luxemburgstraat 7;Gemeente;70176;1;17;Permanent;2016;448;0;0;0;0;0;;1;;0;4.237981033752691;52.053287013205185
VO;14TA00;Christelijk Lyceum Zandvliet;20281;516;2594 AW;Bezuidenhoutseweg 40;Gemeente;20281;7;24;Permanent;2015;5750;0;0;0;0;0;40;;GVH11 sectie P 09428;0;4.329300667280364;52.08523251630382
GYM;14TA00;Christelijk Lyceum Zandvliet;20281;516;2594 AW;Bezuidenhoutseweg 40;Gemeente;20281;7;24;Permanent;2015;1173;0;0;0;0;0;;2;;0;4.329300667280364;52.08523251630382
GYM;20JF;De Haagse Beek;41572;532;2545 NT;Bentelostraat 59;Gemeente;41572;2;34;Permanent;2017;455;0;0;0;0;0;;1;;0;4.275293557818509;52.04599728946987
GYM;13TA;Kindcentrum Bamboe;20281;541;2545 NV;Bentelostraat 53;Gemeente;20281;2;34;Permanent;2017;455;0;0;0;0;0;;1;;0;4.276535578779033;52.04654056050037
GYM;19TM;M.M. Boldingh Nutsbasisschool;20281;540;2517 SC;Verhulstplein 21;Gemeente;20281;4;11;Permanent;2017;507;0;0;0;0;0;;1;;0;4.2759733623041685;52.08434651829541
SO/VSO;20WR12;Viertaal College Den Haag (VSO);21679;537;2541 RL;Steenwijklaan 30;Gemeente;;2;34;Permanent;2016;912;0;0;0;0;0;8;;;0;4.284184662331982;52.04464523468093
BO;19TO;Het Volle Leven;41572;548;2587 BB;Rijslag 21;Gemeente;41572;4;7;Permanent;2017;2773;0;0;0;0;0;21;;;0;4.284927285751271;52.10641867293154
GYM;19TO;Het Volle Leven;41572;548;2587 BB;Rijslag 21;Gemeente;41572;4;7;Permanent;2017;430;0;0;0;0;0;;1;;0;4.284927285751271;52.10641867293154
BO;26AW;De Vlieger;20281;601;2497 DN;Frits Diepenlaan 39;Gemeente;20281;8;42;Permanent;2016;1150;0;0;0;0;0;8;;;0;4.365971348479936;52.04082391319241
BO;13TA;Kindcentrum Bamboe;20281;541;2545 NT;Bentelostraat 53;Gemeente;20281;2;34;Permanent;2016;1725;0;0;0;0;0;13;;;0;4.276535578779033;52.04654056050037
BO;19TA;Basisschool De Vuurtoren;70176;92;2586 XZ;Haringstraat 60;Gemeente;70176;4;7;Permanent;0;135;0;0;0;0;0;2;;;0;4.284576658715848;52.10813851445269
BO;19TM;M.M. Boldingh Nutsbasisschool;20281;540;2517 SC;Verhulstplein 21;Gemeente;20281;4;11;Permanent;2017;1562;0;0;0;0;0;14;;;0;4.2759733623041685;52.08434651829541
BO;20JF;De Haagse Beek;41572;532;2545 NV;Bentelostraat 59;Gemeente;41572;2;34;Permanent;0;1085;0;0;0;0;0;8;;;0;4.275293557818509;52.04599728946987
BO;31RW;De Waterlelie;70176;542;2548 NW;Oostergosingel 153;Juridisch eigenaar;;2;40;Permanent;2015;252;0;0;0;0;0;2;;;0;4.291594304023442;52.03313439888802
GYM;17PY;Galvanischool;41572;999;2566 DA;Laan van Poot 363;Gemeente;CVDH;3;13;Permanent;0;455;0;0;0;0;0;;1;;0;4.242750262301484;52.0761989714158
GYM;16WH;Kindcentrum Vroondaal;70176;543;2553 EG;Madepolderweg 76;Gemeente;70176;1;17;Tijdelijk;2018;455;0;0;0;0;0;;1;;0;4.226273133912611;52.03822611535377
BO;16WH;Kindcentrum Vroondaal;70176;543;2553 EG;Madepolderweg 76;Juridisch eigenaar;70176;1;17;Tijdelijk;2018;1050;0;0;0;0;0;8;;;0;4.226273133912611;52.03822611535377
BO;17TT;Ds. D.A. van den Boschschool voor Chr. B;70176;544;2532 CR;Erasmusweg 68;Gemeente;70176;2;36;Permanent;2018;1989;0;0;0;0;0;20;;;0;4.304563387921424;52.05243154507576
GYM;17TT;Ds. D.A. van den Boschschool voor Chr. B;70176;544;2532 CR;Erasmusweg 68;Gemeente;70176;2;36;Permanent;2018;455;0;0;0;0;0;;1;;0;4.304563387921424;52.05243154507576
VO;02GJ00;Christelijk College De Populier;20281;545;2517 SW;Dunklerstraat 7;Gemeente;20281;4;11;Permanent;2017;2538;0;0;0;0;0;1;;;0;4.276449937343026;52.084228990072354
VO;31EW02;'s Gravendreef College;41298;549;2492 JP;Henri Faasdreef 200;Juridisch eigenaar;;8;42;Permanent;2016;1182;0;0;0;0;0;1;;;0;4.397845728357458;52.06714135160217
BO;02EJ04;Het Palmhuis;62077;555;2593 HK;Carel Reinierszkade 197;Gemeente;;7;26;Permanent;0;0;0;0;0;0;0;0;;;0;4.347055249578887;52.087128079848874
VO;02US00;Haags Montessori Lyceum;41360;551;2596 XL;Neuhuyskade 40;Juridisch eigenaar;;7;4;Permanent;0;3487;0;0;0;0;0;1;;;0;4.321676173315756;52.08996528729061
BO;17TD;Da Costaschool voor Christelijk Basisond;70176;552;2518 ES;Van de Spiegelstraat 23;Gemeente;70176;5;22;Permanent;2019;1873;0;0;0;0;0;16;;;1;4.2970396144737535;52.08496927004208
GYM;17TD;Da Costaschool voor Christelijk Basisond;70176;552;2518 ES;Van de Spiegelstraat 23;Gemeente;70176;5;22;Permanent;0;468;0;0;0;0;0;;1;;1;4.2970396144737535;52.08496927004208
SO/VSO;18XS;De Springplank;70176;;2542 XH;Pachtersdreef 3;Gemeente;70176;2;33;Tijdelijk;2017;130;0;0;;;;2;;;0;4.26426099338668;52.03445196244095
BO;17TD;Da Costaschool voor Christelijk Basisond;70176;552;2518 ES;Van de Spiegelstraat 23;Gemeente;70176;5;22;Permanent;2019;1926;;;;;;16;;;0;4.2970396144737535;52.08496927004208
BO-Voorschool;17TD;Da Costaschool voor Christelijk Basisond;70176;;2518 ES;Van de Spiegelstraat 23;Gemeente;70176;5;22;Permanent;2019;600;;;;;;5;;;1;4.2970396144737535;52.08496927004208
GYM;17TD;Da Costaschool voor Christelijk Basisond;70176;552;2518 ES;Van de Spiegelstraat 23;Gemeente;70176;5;22;Permanent;2019;444;;;;;;;1;;0;4.2970396144737535;52.08496927004208
BO;13ZY;De Regenboog;20281;;2522 GR;Linnaeusstraat 12;Gemeente;20281;6;38;Tijdelijk;2019;180;;;;;;2;;;0;4.33014717725927;52.05911617785327
BO;17TD;Da Costaschool voor Christelijk Basisond;70176;;2517 HH;Hollanderstraat 23;Gemeente;70176;4;11;Permanent;2004;170;;;;;;2;;;0;4.282186844570602;52.0842576287043
BO;19VB;De Wissel;41572;516;2541 RL;Steenwijklaan 10;Gemeente;41572;2;34;Permanent;2020;259;;;;;;2;;;0;4.285794276807952;52.045453848309954
BO;06ES;Eben-HaÃ«zerschool;42570;372;2582 CH;Paulus Buijsstraat 51;Gemeente;42570;4;9;Permanent;2019;115;;;;;;2;;;0;4.276988918138085;52.09608723793227
VO;02UT00;Het Vrijzinnig Christelijk Lyceum;79496;;2585 JK;Parkweg 46;Gemeente;79496;4;6;Permanent;0;801;;;;;;10;;;0;4.286418132892883;52.102174447570995
BO;19VH;De Oranjeschool;70176;487;2583 AA;Westduinweg 127;Gemeente;70176;4;9;Permanent;2014;275;;;;;;1;;;0;4.269286903227404;52.09502406687952
BO;06UW;Willem de Zwijgerschool voor Chr. Basiso;72100;;2587 HZ;Gentsestraat 124;Gemeente;72100;4;2;Permanent;2017;265;;;;;;5;;;0;4.296127440408452;52.110117995211304
BO;17YY;Jan van Nassauschool voor Chr. BO;70176;;2515 TK;Grevelingenveld 5;Gemeente;70176;5;27;Permanent;2020;0;;;;;;1;;;0;4.326322622321133;52.07485151492748
VO;20MF00;Dalton Den Haag;41360;;2555 GA;Aronskelkweg 1;Gemeente;41360;1;14;Permanent;1997;258;;;;;;2;;;0;4.239962118835114;52.06806284889039
BO;17TN;Leyenburg Christelijke Basisschool;70176;;2547 VR;Edamstraat 2;Gemeente;70176;2;32;Permanent;2012;165;;;;;;2;;;1;4.2650907177290005;52.06029027961857
BO;17TN;Leyenburg Christelijke Basisschool;70176;;2547 VR;Edamstraat 10;Gemeente;70176;2;32;Permanent;1969;0;;;;;;2;;;0;4.264580282388165;52.0601952564139
BO;17TN;Leyenburg Christelijke Basisschool;70176;;2547 VR;Edamstraat 2;Gemeente;70176;2;32;Permanent;2012;165;;;;;;2;;;0;4.2650907177290005;52.06029027961857
BO;19LI;De Zonnebloem;41572;;2565 RE;Hyacinthweg 5;Gemeente;41572;3;12;Permanent;2006;193;;;;;;2;;;1;4.2527986000695055;52.07273730288838
BO;07UO;Petrus Donders;40928;;2542 ED;Ambachtsgaarde 3;Gemeente;41572;2;33;Permanent;2013;749;;;;;;20;;;0;4.264950832687658;52.03560877868812
BO;17YY;Jan van Nassauschool voor Chr. BO;70176;;2515 TN;Zaanstraat 24;;;5;27;Permanent;0;64;;;;;;1;;;0;4.325745637593147;52.07452241823142
BO;17VA;De Vliermeent Chr. Basisschool;70176;;2564 HT;Vlierboomstraat 362;Gemeente;70176;3;19;Permanent;2022;2316;;;;;;21;;;0;4.261157576438571;52.069703095744764
BO;05HD;De Zuidwester;40928;;2544 ME;Marterrade 312;Gemeente;40928;2;33;Permanent;2008;524;;;;;;5;;;0;4.257711685778387;52.045275280518204
BO;19SI;De La Reyschool;41572;;2571 GH;De la Reyweg 212;Gemeente;41572;5;30;Permanent;1989;288;;;;;;2;;;0;4.287758993338113;52.06658360419556
BO;06MV;Rosa-Basisschool;40928;;2573 BA;Nijkerklaan 7;Gemeente;40928;2;31;Permanent;2004;298;;;;;;4;;;0;4.283897479407419;52.064307591869074
BO;18XS;De Springplank;70176;;2542 XH;Pachtersdreef 3;Gemeente;70176;2;33;Permanent;2003;326;;;;;;2;;;0;4.26426099338668;52.03445196244095
BO;20JC;De Bonte Vlinder;41572;;2565 XD;Aucubastraat 3;Gemeente;41572;3;12;Permanent;2006;210;;;;;;2;;;0;4.266244767758499;52.07577724182431
BO;17EK01;De Kleine Keizer;41572;;2553 AZ;Loosduinse Uitleg 10;Gemeente;41572;1;17;Permanent;2016;0;;;;;;1;;;0;4.23386807938835;52.05225924918117
BO;05VX00;Eerste Nederlandse Montessorischool;46879;;2566 DA;Laan van Poot 353;Gemeente;46879;3;13;Permanent;2014;0;;;;;;2;;;0;4.244573882628207;52.078352981472825
SO/VSO;20JJ;P.H. Schreuderschool;41572;;2526 LL;Hendrick Goltziusstraat 5;Gemeente;41572;5;29;Permanent;2008;371;;;;;;3;;;0;4.308828365277788;52.06820276931382
SO/VSO;20JE;Eerste Nederlandse Buitenschool (SO-LZ);41572;;2587 XM;Doorniksestraat 28;Gemeente;41572;4;2;Permanent;2015;401;;;;;;3;;;0;4.299613504735377;52.10897907707553
BO;15TL;Het Lichtbaken;20281;;2551 ZC;Georges Bizetstraat 21;Gemeente;20281;1;18;Permanent;2012;232;;;;;;2;;;0;4.241765855288381;52.059213473291734
BO;06KA;De Parkiet;20281;;2566 XT;Parkietlaan 1;Gemeente;20281;3;13;Permanent;2002;315;;;;;;3;;;0;4.261372355456682;52.08178796259999
BO;19TO;Het Volle Leven;41572;;2587 BB;Rijslag 21;Gemeente;41572;4;7;Permanent;2021;115;;;;;;1;;;0;4.284927285751271;52.10641867293154
BO;17MC;Bohemen - Kijkduin;41572;;2555 SB;Daltonplantsoen 6;Gemeente;41572;1;14;Permanent;2014;118;;;;;;1;;;0;4.240475278825328;52.06920541395739
BO;26PT;Balans, Samenwerkingsschool;20281;;2492 MA;Klaverveld 5;Gemeente;20281;8;42;Permanent;2014;626;;;;;;5;;;0;4.406267161961369;52.06975217685645
BO;26AV;Christoffel;40928;;2496 RH;Madurolaan 25;Gemeente;40928;8;42;Permanent;2012;890;;;;;;8;;;0;4.367437110606186;52.04297205981595
